{"objects":{"water":{"type":"GeometryCollection","geometries":[{"type":"MultiPolygon","properties":{"source":"naturalearthdata.com","kind":"ocean","area":1576712559132672,"sort_rank":200,"min_zoom":0.0,"id":1},"arcs":[[[11]],[[12]]]},{"type":"MultiLineString","properties":{"source":"naturalearthdata.com","kind":"ocean","sort_rank":205,"boundary":true,"min_zoom":0.0,"id":49},"arcs":[[13],[14],[15],[16]]}]},"buildings":{"type":"GeometryCollection","geometries":[]},"places":{"type":"GeometryCollection","geometries":[{"type":"Point","properties":{"kind":"region","name:en":"Taurag\u0117 County","name":"Taurag\u0117s apskritis","kind_detail":"state","min_zoom":4.0,"name:de":"Bezirk Tauroggen","source":"openstreetmap.org","name:fr":"Apskritis de Taurag\u0117","name:uk":"\u0422\u0430\u0443\u0440\u0430\u0433\u0441\u044c\u043a\u0438\u0439 \u043f\u043e\u0432\u0456\u0442","name:be":"\u0422\u0430\u045e\u0440\u0430\u0433\u0441\u043a\u0456 \u043f\u0430\u0432\u0435\u0442","name:ru":"\u0422\u0430\u0443\u0440\u0430\u0433\u0441\u043a\u0438\u0439 \u0443\u0435\u0437\u0434","name:pl":"okr\u0119g tauroski","id":1055351027},"coordinates":[3633,1825]},{"type":"Point","properties":{"source":"naturalearthdata.com","kind":"locality","name":"Sovetsk","population":43309,"min_zoom":7.0,"id":2841},"coordinates":[2296,483]},{"type":"Point","properties":{"name:ay":"Klaypida","name:az":"Kl\u0430yp\u0435d\u0430","name:ka":"\u10d9\u10da\u10d0\u10d8\u10de\u10d4\u10d3\u10d0","name:mr":"\u0915\u094d\u0932\u0940\u092a\u0947\u0926\u093e","name:ko":"\ud074\ub77c\uc774\ud398\ub2e4","name:cv":"\u041a\u043b\u0430\u0439\u043f\u0435\u0434\u0430","name:ar":"\u0643\u0644\u0627\u064a\u0628\u064a\u062f\u0627","name:kk":"\u041a\u043b\u0430\u0439\u043f\u0435\u0434\u0430","name:io":"Klaipeda","name:th":"\u0e44\u0e04\u0e25\u0e40\u0e1b\u0e14\u0e32","name:iu":"\u1483\u14da\u140a\u1431\u1455\/klaipita","name:os":"\u041a\u043b\u0430\u0439\u043f\u0435\u0434\u00e6","name:ru":"\u041a\u043b\u0430\u0439\u043f\u0435\u0434\u0430","name:pl":"K\u0142ajpeda","name:mn":"\u041a\u043b\u0435\u0439\u043f\u0435\u0434\u0430","id":27193094,"name:mk":"\u041a\u043b\u0430\u0438\u043f\u0435\u0434\u0430","name:fa":"\u06a9\u0644\u0627\u06cc\u067e\u062f\u0627","kind_detail":"city","name:de":"Memel","source":"openstreetmap.org","name:fy":"Klaipeda","name:zh":"\u514b\u83b1\u4f69\u8fbe","name:lv":"Klaip\u0113da","name:ja":"\u30af\u30e9\u30a4\u30da\u30c0","name:he":"\u05e7\u05dc\u05d9\u05d9\u05e4\u05d3\u05d4","name:ur":"\u06a9\u0644\u0627\u0626\u067e\u06cc\u062f\u0627","name:wa":"Klaipeda","name:la":"Memela","name:tt":"\u041a\u043b\u0430\u0439\u043f\u0435\u0434\u0430","name:uk":"\u041a\u043b\u0430\u0439\u043f\u0435\u0434\u0430","name:be":"\u041a\u043b\u0430\u0439\u043f\u0435\u0434\u0430","name:su":"Klaip\u00e9da","name:bg":"\u041a\u043b\u0430\u0439\u043f\u0435\u0434\u0430","name:sr":"\u041a\u043b\u0430\u0458\u043f\u0435\u0434\u0430","population":162360,"name:el":"\u039a\u03bb\u03b1\u03ca\u03c0\u03ad\u03bd\u03c4\u03b1","kind":"locality","name":"Klaip\u0117da","min_zoom":8.0},"coordinates":[120,3769]},{"type":"Point","properties":{"int_name":"Sovetsk","name:lv":"Sovetska","name:lt":"Sovetskas","min_zoom":8.0,"name:sl":"Sovetsk","old_name":"\u0422\u0438\u043b\u044c\u0437\u0438\u0442","name:pl":"Sowieck","name:de":"Sowetsk (Tilsit)","id":60238387,"population":41212,"old_name:la":"Tilsa","kind":"locality","name:en":"Sovetsk","name":"\u0421\u043e\u0432\u0435\u0442\u0441\u043a","old_name:pl":"Tyl\u017ca","kind_detail":"town","old_name:de":"Tilsit","source":"openstreetmap.org","name:la":"Sovetska","old_name:lt":"Til\u017e\u0117","old_name:lv":"Tilz\u012bte","name:et":"Sovetsk"},"coordinates":[2323,515]},{"type":"Point","properties":{"kind":"locality","name:lv":"Taura\u0123e","name":"Taurag\u0117","name:ka":"\u10e2\u10d0\u10e3\u10e0\u10d0\u10d2\u10d4","kind_detail":"town","name:he":"\u05d8\u05d0\u05d5\u05e8\u05d2\u05d4","name:de":"Tauroggen","source":"openstreetmap.org","min_zoom":8.0,"name:uk":"\u0422\u0430\u0443\u0440\u0430\u0433\u0435","name:be":"\u0422\u0430\u045e\u0440\u043e\u0433\u0456","name:ru":"\u0422\u0430\u0443\u0440\u0430\u0433\u0435","name:pl":"Taurogi","id":3241745464,"population":24389},"coordinates":[3485,1414]},{"type":"Point","properties":{"name:sr":"\u0428\u0438\u043b\u0443\u0442\u0435","name:ka":"\u10e8\u10d8\u10da\u10e3\u10e2\u10d4","name:ko":"\uc2e4\ub8e8\ud14c","name:ur":"\u0634\u06cc\u0644\u0648\u062a\u06d2","min_zoom":8.0,"name:uk":"\u0428\u0438\u043b\u0443\u0442\u0454","name:be":"\u0428\u044b\u043b\u0443\u0446\u0435","name:ru":"\u0428\u0438\u043b\u0443\u0442\u0435","name:pl":"Szy\u0142okarczma","id":28783322,"population":17775,"name:fa":"\u0634\u06cc\u0644\u0648\u062a\u0647","kind":"locality","name":"\u0160ilut\u0117","kind_detail":"town","name:de":"Heydekrug","source":"openstreetmap.org","name:zh":"\u5e0c\u76e7\u6cf0"},"coordinates":[1089,1871]},{"type":"Point","properties":{"name:sr":"\u0413\u0430\u0440\u0433\u0436\u0434\u0430\u0458","name:az":"Q\u0430rqjd\u0430y","name:lv":"Garg\u017edi","name:ja":"\u30ac\u30eb\u30b0\u30b8\u30e5\u30c0\u30a4","name:ka":"\u10d2\u10d0\u10e0\u10d2\u10df\u10d3\u10d0\u10d8","name:el":"\u0393\u03ba\u03b1\u03c1\u03b3\u03ba\u03b6\u03bd\u03c4\u03ac\u03b9","name:ko":"\uac00\ub974\uadf8\uc8fc\ub2e4\uc774","min_zoom":8.0,"name:uk":"\u0413\u0430\u0440\u0433\u0436\u0434\u0430\u0439","name:hy":"\u0533\u0561\u0580\u0563\u056a\u0564\u0561\u0575","name:ru":"\u0413\u0430\u0440\u0433\u0436\u0434\u0430\u0439","name:pl":"Gor\u017cdy","name:bg":"\u0413\u0430\u0440\u0433\u0436\u0434\u0430\u0439","id":32445950,"population":15021,"name:fa":"\u06af\u0627\u0631\u06af\u0698\u062f\u0627\u06cc","kind":"locality","name":"Garg\u017edai","kind_detail":"town","name:de":"Garsden","source":"openstreetmap.org","name:be":"\u0413\u0430\u0440\u0433\u0436\u0434\u0430\u0439","name:zh":"\u52a0\u723e\u683c\u65e5\u4ee3"},"coordinates":[878,3794]},{"type":"Point","properties":{"name:sl":"Nemen","name:lv":"\u0145emana","name:lt":"Nemanas","min_zoom":8.0,"old_name":"\u0420\u0430\u0433\u043d\u0438\u0442","name:pl":"Nieman","id":60238408,"population":11346,"kind":"locality","old_name:de":"Ragnit","name":"\u041d\u0435\u043c\u0430\u043d","old_name:pl":"Ragneta","kind_detail":"town","name:de":"Neman (Ragnit)","source":"openstreetmap.org","old_name:lt":"Ragain\u0117","old_name:lv":"Ragn\u012bte"},"coordinates":[2725,299]},{"type":"Point","properties":{"kind":"locality","name":"\u0160ilal\u0117","kind_detail":"town","name:de":"Schillehnen","source":"openstreetmap.org","min_zoom":8.0,"name:ru":"\u0428\u0438\u043b\u0430\u043b\u0435","name:pl":"Szy\u0142ele","id":2148691293,"population":5492},"coordinates":[3182,2629]},{"type":"Point","properties":{"int_name":"Slavsk","name:lt":"Slavskas (Gastos)","min_zoom":8.0,"name:pl":"S\u0142awsk (J\u0119drzychowo)","id":478808135,"population":4330,"kind":"locality","name:en":"Slavsk","old_name:de":"Heinrichswalde","name":"\u0421\u043b\u0430\u0432\u0441\u043a","old_name:pl":"J\u0119drzychowo","kind_detail":"town","name:de":"Slawsk (Heinrichswalde)","source":"openstreetmap.org","old_name:lt":"Gastos","name:et":"Slavsk"},"coordinates":[1705,348]},{"type":"Point","properties":{"kind":"locality","name:lv":"Rietava","name":"Rietavas","kind_detail":"town","name:de":"Redau","source":"openstreetmap.org","min_zoom":8.0,"name:uk":"\u0420\u0435\u0442\u0430\u0432\u0430\u0441","name:ru":"\u0420\u0435\u0442\u0430\u0432\u0430\u0441","name:pl":"Ret\u00f3w","id":720995302,"population":3251},"coordinates":[2427,3821]},{"type":"Point","properties":{"kind":"locality","name:lv":"Pa\u0123\u0113\u0123i","name":"Pag\u0117giai","kind_detail":"town","name:de":"Pogegen","source":"openstreetmap.org","min_zoom":8.0,"name:uk":"\u041f\u0430\u0433\u0435\u0433\u044f\u0439","name:be":"\u041f\u0430\u0433\u0435\u0433\u0456","name:ru":"\u041f\u0430\u0433\u0435\u0433\u044f\u0439","name:pl":"Pojegi","name:zh":"\u5e15\u84cb\u5409\u827e","id":175662438,"population":1941},"coordinates":[2368,811]},{"type":"Point","properties":{"kind":"locality","name":"\u0160v\u0117k\u0161na","kind_detail":"town","name:de":"Schwestnau","source":"openstreetmap.org","min_zoom":8.0,"name:pl":"Szweksznie","id":512534124,"population":1649},"coordinates":[1539,2763]},{"type":"Point","properties":{"kind":"locality","name":"V\u0117\u017eai\u010diai","kind_detail":"town","name:de":"Witzaiten","source":"openstreetmap.org","min_zoom":8.0,"name:pl":"Wie\u017cajcie","id":469086404,"population":1646},"coordinates":[1120,3801]},{"type":"Point","properties":{"kind":"locality","name":"Kv\u0117darna","kind_detail":"town","name:de":"Quedarn","source":"openstreetmap.org","min_zoom":8.0,"name:pl":"Konstantynowo","id":1067350929,"population":1597},"coordinates":[2639,2974]},{"type":"Point","properties":{"name:lv":"Priekule","name:ar":"\u0628\u0631\u064a\u0643\u0648\u0644\u0647","min_zoom":8.0,"name:uk":"\u041f\u0440\u0435\u043a\u0443\u043b\u0435","name:be":"\u041f\u0440\u044b\u0435\u043a\u0443\u043b\u0435","name:ru":"\u041f\u0440\u0435\u043a\u0443\u043b\u0435","name:pl":"Prekule","id":32445758,"population":1413,"name:fa":"\u067e\u0631\u06cc\u06a9\u0648\u0644\u0647","kind":"locality","name":"Priekul\u0117","kind_detail":"town","name:de":"Pr\u00f6kuls","source":"openstreetmap.org","name:zh":"\u666e\u5217\u5eab\u840a"},"coordinates":[653,2958]},{"type":"Point","properties":{"kind":"locality","name":"\u017demai\u010di\u0173 Naumiestis","kind_detail":"town","name:de":"Neustadt","source":"openstreetmap.org","min_zoom":8.0,"name:ru":"\u0416\u0435\u043c\u0430\u0439\u0447\u044e-\u041d\u0430\u0443\u043c\u0435\u0441\u0442\u0438\u0441","name:pl":"Nowe Miasto","id":448593638,"population":1373},"coordinates":[1781,1953]},{"type":"Point","properties":{"kind":"locality","name":"Rusn\u0117","kind_detail":"town","name:de":"Ru\u00df","source":"openstreetmap.org","min_zoom":8.0,"name:ru":"\u0420\u0443\u0441\u043d\u0435","name:pl":"Ru\u015b","id":1744042651,"population":1274},"coordinates":[822,1636]},{"type":"Point","properties":{"kind":"locality","name":"Dovilai","kind_detail":"town","name:de":"Dawillen","source":"openstreetmap.org","min_zoom":8.0,"name:pl":"Dowile","id":732448397,"population":1246},"coordinates":[774,3590]},{"type":"Point","properties":{"name:lv":"Var\u0146i","name:fa":"\u0648\u0627\u0631\u0646\u06cc\u0627\u06cc","name:ar":"\u0641\u0627\u0631\u0646\u064a\u0627\u064a","min_zoom":8.0,"name:be":"\u0412\u0430\u0440\u043d\u0435\u0439","name:ru":"\u0412\u0430\u0440\u043d\u044f\u0439","name:pl":"Wornie","id":1067350202,"population":1140,"name:el":"\u0392\u03b1\u03c1\u03bd\u03b9\u03ac\u03b9","kind":"locality","name":"Varniai","kind_detail":"town","name:de":"Medeniken","source":"openstreetmap.org","name:zh":"\u74e6\u723e\u5c3c\u827e"},"coordinates":[3719,3923]},{"type":"Point","properties":{"kind":"locality","name":"Vie\u0161vil\u0117","kind_detail":"town","name:de":"Wischwill","source":"openstreetmap.org","min_zoom":8.0,"name:pl":"Wieszwile","id":175661554,"population":843},"coordinates":[3759,488]},{"type":"Point","properties":{"kind":"locality","name":"Veivir\u017e\u0117nai","kind_detail":"town","name:de":"Wiwirschen","source":"openstreetmap.org","min_zoom":8.0,"name:pl":"Wewirzany","id":734518533,"population":840},"coordinates":[1464,3177]},{"type":"Point","properties":{"kind":"locality","name":"Laukuva","kind_detail":"town","name:de":"Lokau","source":"openstreetmap.org","min_zoom":8.0,"name:pl":"\u0141awkowo","id":441917992,"population":832},"coordinates":[3327,3295]},{"type":"Point","properties":{"kind":"locality","name":"Paj\u016bris","kind_detail":"town","name:de":"Pajoren","source":"openstreetmap.org","min_zoom":8.0,"name:pl":"Pojurze","id":449060948,"population":784},"coordinates":[2721,2424]},{"type":"Point","properties":{"kind":"locality","name":"Vainutas","kind_detail":"town","name:de":"Woinutten","source":"openstreetmap.org","min_zoom":8.0,"name:pl":"Wojnuta","id":448593632,"population":746},"coordinates":[2255,1993]},{"type":"Point","properties":{"kind":"locality","name":"Kaltin\u0117nai","kind_detail":"town","name:de":"Kaltenen","source":"openstreetmap.org","min_zoom":8.0,"name:pl":"Ko\u0142tyniany","id":447032006,"population":728},"coordinates":[3954,2998]},{"type":"Point","properties":{"kind":"locality","name":"Vilky\u0161kiai","kind_detail":"town","name:de":"Willkischken","source":"openstreetmap.org","min_zoom":8.0,"old_name":"Willkischken","name:pl":"Wilkiszki","id":451869149,"population":666},"coordinates":[3014,723]},{"type":"Point","properties":{"kind":"locality","name":"Endriejavas","kind_detail":"town","name:de":"Voigtsburg","source":"openstreetmap.org","min_zoom":8.0,"name:pl":"Andrzejewo","id":721036409,"population":640},"coordinates":[1824,3688]},{"type":"Point","properties":{"kind":"locality","name":"Kintai","kind_detail":"town","name:de":"Kinten","source":"openstreetmap.org","min_zoom":8.0,"name:pl":"Kinty","id":280805879,"population":616},"coordinates":[497,2262]},{"type":"Point","properties":{"kind":"locality","name":"Tverai","kind_detail":"town","source":"openstreetmap.org","min_zoom":8.0,"name:pl":"Twery","id":888395698,"population":558},"coordinates":[3079,3868]},{"type":"Point","properties":{"kind":"locality","name":"\u017dygai\u010diai","kind_detail":"town","name:de":"Zwingen","source":"openstreetmap.org","min_zoom":8.0,"name:pl":"\u017bygajcie","id":1814906558,"population":542},"coordinates":[2734,1716]},{"type":"Point","properties":{"kind":"locality","name":"Katy\u010diai","kind_detail":"town","name:de":"Coadjuthen","source":"openstreetmap.org","min_zoom":8.0,"name:pl":"Kotyca","id":1458208930,"population":526},"coordinates":[2134,1587]},{"type":"Point","properties":{"kind":"locality","name":"Judr\u0117nai","kind_detail":"town","name:de":"Judrannen","source":"openstreetmap.org","min_zoom":8.0,"name:pl":"Judrany","id":987431318,"population":468},"coordinates":[2069,3113]},{"type":"Point","properties":{"kind":"locality","name":"Pagramantis","kind_detail":"town","name:de":"Pagermont","source":"openstreetmap.org","min_zoom":8.0,"name:pl":"Pogromoncie","id":766897990,"population":434},"coordinates":[3319,1990]},{"type":"Point","properties":{"kind":"locality","name":"Gaur\u0117","kind_detail":"town","name:de":"Gauren","source":"openstreetmap.org","min_zoom":8.0,"name:pl":"Gaura","id":1814908902,"population":418},"coordinates":[4005,1362]},{"type":"Point","properties":{"kind":"locality","name":"Gardamas","kind_detail":"town","name:de":"Garden","source":"openstreetmap.org","min_zoom":8.0,"name:pl":"Gordoma","id":1153785696,"population":398},"coordinates":[1651,2212]},{"type":"Point","properties":{"kind":"locality","name":"Upyna","kind_detail":"town","name:de":"Uppin","source":"openstreetmap.org","min_zoom":8.0,"name:be":"\u0423\u043f\u0456\u043d\u0430","name:pl":"Upina","id":921218354,"population":375},"coordinates":[3931,2412]},{"type":"Point","properties":{"kind":"locality","name":"Teneniai","kind_detail":"town","name:de":"Denen","source":"openstreetmap.org","min_zoom":8.0,"name:pl":"Tenenie","id":1456184664,"population":330},"coordinates":[2384,2485]},{"type":"Point","properties":{"kind":"locality","name":"Pavanden\u0117","kind_detail":"town","source":"openstreetmap.org","min_zoom":8.0,"name:pl":"Powonde\u0144","id":1572539814,"population":317},"coordinates":[4053,4068]},{"type":"Point","properties":{"kind":"locality","name:lv":"Panemune","name":"Panemun\u0117","kind_detail":"town","name:de":"\u00dcbermemel","source":"openstreetmap.org","min_zoom":8.0,"name:ru":"\u041f\u0430\u043d\u044f\u043c\u0443\u043d\u0435","name:pl":"Poniemu\u0144","name:zh":"\u5e15\u5167\u7a46\u5167","id":899411831,"population":274},"coordinates":[2382,562]},{"type":"Point","properties":{"kind":"locality","name":"\u017dvingiai","kind_detail":"town","source":"openstreetmap.org","min_zoom":8.0,"name:pl":"\u017bwingi","id":1260589461,"population":195},"coordinates":[2703,2176]}]},"transit":{"type":"GeometryCollection","geometries":[{"type":"LineString","properties":{"kind":"train","name":"Klaip\u0117da - Vilnius","sort_rank":275,"name:de":"Memel - Wilna","source":"openstreetmap.org","min_zoom":6.0,"ref":"Klaip\u0117da - Vilnius","id":-1638993,"osm_relation":true},"arcs":[9]},{"type":"LineString","properties":{"source":"openstreetmap.org","kind":"train","name":"\u044d\u043b. \u041a\u0430\u043b\u0438\u043d\u0438\u043d\u0433\u0440\u0430\u0434 - \u0421\u043e\u0432\u0435\u0442\u0441\u043a","sort_rank":275,"ref":"\u044d\u043b. \u041a\u0430\u043b\u0438\u043d\u0438\u043d\u0433\u0440\u0430\u0434 - \u0421\u043e\u0432\u0435\u0442\u0441\u043a","min_zoom":6.0,"osm_relation":true},"arcs":[10]}]},"pois":{"type":"GeometryCollection","geometries":[{"type":"Point","properties":{"kind":"protected_area","name":"Ablingos geomorfologinis draustinis","area":14407100,"source":"openstreetmap.org","min_zoom":8.0,"tier":2,"id":-6441044,"osm_relation":true},"coordinates":[1781,3899]},{"type":"Point","properties":{"kind":"protected_area","protect_class":"5","area":16373100,"source":"openstreetmap.org","min_zoom":8.0,"tier":2,"id":-1359858,"osm_relation":true,"name":"Stempli\u0173 kra\u0161tovaizd\u017eio draustinis"},"coordinates":[2130,2713]},{"type":"Point","properties":{"kind":"protected_area","name":"Auk\u0161tojo tyro telmologinis draustinis","area":27552000,"source":"openstreetmap.org","min_zoom":8.0,"tier":2,"id":-1147321,"osm_relation":true},"coordinates":[2028,3842]}]},"boundaries":{"type":"GeometryCollection","geometries":[{"type":"LineString","properties":{"name:right:yo":"R\u1ecd\u0301s\u00ed\u00e0","name:left:ch":"Lituania","name:right:yi":"\u05e8\u05d5\u05e1\u05dc\u05d0\u05e0\u05d3","name:left:la":"Lituania","name:right:qu":"Rusiya","old_name:right:ru":"\u0420\u0443\u0441\u044c;\u0417\u043e\u043b\u043e\u0442\u0430\u044f \u041e\u0440\u0434\u0430;\u0420\u0443\u0441\u0441\u043a\u043e\u0435 \u0426\u0430\u0440\u0441\u0442\u0432\u043e;\u0420\u043e\u0441\u0441\u0438\u0439\u0441\u043a\u0430\u044f \u0418\u043c\u043f\u0435\u0440\u0438\u044f;\u0421\u043e\u044e\u0437 \u0421\u043e\u0432\u0435\u0442\u0441\u043a\u0438\u0445 \u0421\u043e\u0446\u0438\u0430\u043b\u0438\u0441\u0442\u0438\u0447\u0435\u0441\u043a\u0438\u0445 \u0420\u0435\u0441\u043f\u0443\u0431\u043b\u0438\u043a","name:left:li":"Litauwe","name:left:vi":"Litva","name:left:sw":"Lituanya","name:left:ka":"\u10da\u10d8\u10e2\u10d5\u10d0","name:left:kl":"Litaueni","name:left:ko":"\ub9ac\ud22c\uc544\ub2c8\uc544","name:right:it":"Russia","name:left:ki":"Lithuania","name:left:ro":"Lituania","name:left:kk":"\u041b\u0438\u0442\u0432\u0430","name:left:rm":"Lituania","name:left:ku":"L\u00eetvanya","name:left:kw":"Lithouani","name:left:kv":"\u041b\u0438\u0442\u0432\u0430","name:right:rn":"Uburusiya","name:right:ro":"Rusia","name:left:ru":"\u041b\u0438\u0442\u0432\u0430","name:right:ig":"Mpaghara Russia","name:right:ie":"Russia","name:right:id":"Rusia","name:left:ky":"\u041b\u0438\u0442\u0432\u0430","name:right:ia":"Russia","name:right:bi":"Rusia","name:right:bn":"\u09b0\u09be\u09b6\u09bf\u09af\u09bc\u09be","name:right:bo":"\u0f68\u0f74\u0f0b\u0f62\u0f74\u0f0b\u0f66\u0f74\u0f0d","name:right:bm":"Risila","name:right:ba":"\u0420\u04d9\u0441\u04d9\u0439","name:right:bg":"\u0420\u0443\u0441\u0438\u044f","name:right:be":"\u0420\u0430\u0441\u0456\u0439\u0441\u043a\u0430\u044f \u0424\u0435\u0434\u044d\u0440\u0430\u0446\u044b\u044f","name:right:br":"Rusia","name:right:bs":"Rusija","name:right:nn":"Russland","name:right:xh":"IRashiya","name:right:nl":"Russische Federatie","name:right:wa":"Feder\u00e5cion d' R\u00fbsseye","name:right:wo":"Federaasio\u014b bu Riisi","name:right:ne":"\u0930\u0941\u0938","name:right:na":"Ratsiya","name:right:ps":"\u0631\u0648\u0633\u06cc\u0647","name:right:ny":"Russia","name:right:nv":"Bi\u02bc\u00e9\u00e9\u02bc \u0141ich\u00ed\u00ed\u02bc\u00ed Bik\u00e9yah","name:left:mg":"Litoania","kind_detail":"2","name:left:tr":"Litvanya","name:right:gu":"\u0ab0\u0ab6\u0abf\u0aaf\u0abe","name:right:gv":"Yn Roosh","name:right:pt":"R\u00fassia","name:left:mk":"\u041b\u0438\u0442\u0432\u0430\u043d\u0438\u0458\u0430","name:left:mi":"Ritu\u0101nia","name:left:ts":"Lithuania","name:left:tt":"\u041b\u0438\u0442\u0432\u0430","name:left:mn":"\u041b\u0438\u0442\u0432\u0430","name:left:ml":"\u0d32\u0d3f\u0d24\u0d4d\u0d35\u0d3e\u0d28\u0d3f\u0d2f","name:left:th":"\u0e1b\u0e23\u0e30\u0e40\u0e17\u0e28\u0e25\u0e34\u0e17\u0e31\u0e27\u0e40\u0e19\u0e35\u0e22","name:right:pa":"\u0a30\u0a42\u0a38","name:left:tk":"Litwa","name:left:tl":"Litwaniya","name:left:mt":"Litwanja","name:right:gl":"Rusia","name:left:my":"\u101c\u1005\u103a\u101e\u1030\u101a\u1031\u1038\u1014\u102e\u1038\u101a\u102c\u1038\u1014\u102d\u102f\u1004\u103a\u1004\u1036","name:right:gn":"Rrusia","name:right:pl":"Rosja","name:left:te":"\u0c32\u0c3f\u0c25\u0c41\u0c35\u0c47\u0c28\u0c3f\u0c2f\u0c3e","name:left:tg":"\u041b\u0438\u0442\u0432\u0430","name:left:ms":"Lithuania","name:left:mr":"\u0932\u093f\u0925\u0941\u090f\u0928\u093f\u092f\u093e","name:right:tr":"Rusya Federasyonu","name:left:da":"Litauen","name:left:de":"Litauen","name:left:dz":"\u0f63\u0f72\u0f0b\u0f50\u0f74\u0f0b\u0f53\u0f72\u0f0b\u0f61\u0f0d","name:right:ga":"An R\u00fais","name:left:dv":"\u078d\u07a8\u078c\u07aa\u0787\u07ad\u0782\u07a8\u0787\u07a7","name:right:lg":"Rwasha","name:right:ug":"\u0631\u0648\u0633\u0649\u064a\u06d5","name:left:hi":"\u0932\u093f\u0925\u0941\u0906\u0928\u093f\u092f\u093e","name:right:lb":"Russland","name:right:uk":"\u0420\u043e\u0441\u0456\u044f","name:left:he":"\u05dc\u05d9\u05d8\u05d0","name:right:ln":"Rus\u00ed","name:right:lo":"\u0ea5\u0eb1\u0e94\u0ec0\u0e8a\u0eb1\u0ebd","name:right:li":"Rusland","name:right:lt":"Rusija","name:right:ur":"\u0631\u0648\u0633","name:right:lv":"Krievija","name:left:hy":"\u053c\u056b\u057f\u057e\u0561","name:left:ta":"\u0bb2\u0bbf\u0ba4\u0bcd\u0ba4\u0bc1\u0bb5\u0bc7\u0ba9\u0bbf\u0baf\u0bbe","name:left:ht":"Lityani","name:left:hu":"Litv\u00e1nia","name:left:hr":"Litva","source":"openstreetmap.org","sort_rank":262,"name:right:gd":"An Ruis","name:right:os":"\u0423\u00e6\u0440\u00e6\u0441\u0435","name:left:cy":"Lithwania","name:right:es":"Rusia","name:right:sr":"\u0420\u0443\u0441\u0438\u0458\u0430","name:right:eu":"Errusia","name:right:et":"Venemaa","name:left:os":"\u041b\u0438\u0442\u0432\u0430","name:left:or":"\u0b32\u0b3f\u0b25\u0b41\u0b06\u0b28\u0b3f\u0b06","name:left:ve":"Lituania","name:right:ee":"Russia","name:left:vo":"Lietuv\u00e4n","name:left:oc":"Litu\u00e0nia","name:right:eo":"Rusujo","name:right:en":"Russia","name:right:el":"\u03a1\u03c9\u03c3\u03af\u03b1","name:left:ff":"Lituwaniya","name:left:fa":"\u0644\u06cc\u062a\u0648\u0627\u0646\u06cc","name:left:fo":"Litava","name:left:fj":"Lituani","name:right:sk":"Rusko","name:left:fi":"Liettua","name:left:fr":"Lituanie","name:left:cs":"Litva","name:right:jv":"Rusia","name:left:fy":"Litouwen","name:right:ja":"\u30ed\u30b7\u30a2","name:right:sq":"Rusia","name:right:ss":"IRashiya","name:left:ja":"\u30ea\u30c8\u30a2\u30cb\u30a2","name:right:su":"Rusia","name:right:st":"Russia","name:right:sw":"Shirikisho la Urusi","name:right:sv":"Ryssland","name:right:si":"\u0dbb\u0dd4\u0dc3\u0dd2\u0dba\u0dcf\u0dc0","name:right:sh":"Rusija","name:left:qu":"Lituwa","name:right:sm":"Lusia","name:right:sl":"Rusija","name:right:so":"Ruushka","name:right:sn":"Russia","name:right:sc":"R\u00f9ssia","name:left:jv":"Lituania","id":-72596,"name:right:sg":"Rus\u00efi","name:right:ch":"Russia","name:right:co":"Russia","name:right:ca":"R\u00fassia","name:right:se":"Ruo\u0161\u0161a","name:right:ce":"\u0420\u043e\u0441\u0441\u0438","name:right:sd":"\u0631\u0648\u0633","name:right:cy":"Rwsia","name:right:zh-yue":"\u4fc4\u7f85\u65af","name:right:cs":"Rusko","name:left:pl":"Litwa","name:right:cu":"\u0420\u0461\u0441\u0457\ua657","name:right:iu":"\u1405\u14db\u14f4","name:right:cv":"\u0420\u0430\u00e7\u00e7\u0435\u0439 \u041f\u0430\u0442\u0448\u0430\u043b\u0103\u0445\u0115","name:left:ar":"\u0644\u064a\u062a\u0648\u0627\u0646\u064a\u0627","name:right:is":"R\u00fassland","name:left:az":"Litva","name:left:ay":"Litua\u00f1a","name:right:rw":"Uburusiya","name:left:af":"Litaue","name:left:ab":"\u041b\u0438\u0442\u0432\u0430","name:left:an":"Lituania","name:left:am":"\u120a\u1275\u12cc\u1292\u12eb","name:left:ak":"Lituania","name:right:io":"Rusia","name:left:zh-yue":"\u7acb\u9676\u5b9b","name:right:ik":"Russia","name:left:rw":"Lituwaniya","name:right:hy":"\u054c\u0578\u0582\u057d\u0561\u057d\u057f\u0561\u0576","name:left:lb":"Litauen","alt_name:left:eo":"Litovio","name:left:lg":"Lithueenia","name:left:su":"Lituania","name:left:st":"Lituania","name:right:hr":"Ruska Federacija","name:left:sv":"Litauen","name:left:sq":"Lituania","name:right:hu":"Oroszorsz\u00e1g","name:left:ss":"Lithuwani","name:left:sr":"\u041b\u0438\u0442\u0432\u0430\u043d\u0438\u0458\u0430","name:right:hi":"\u0930\u0942\u0938","name:left:so":"Lithuaniya","name:left:sh":"Litvanija","name:left:sk":"Litva","name:right:ha":"Rasha","name:left:sg":"Lituan\u00efi","name:left:sa":"\u0932\u0947\u0924\u0941\u0935\u093e","name:right:he":"\u05e8\u05d5\u05e1\u05d9\u05d4","name:left:sc":"Litu\u00e0nia","name:right:la":"Russia","name:right:af":"Rusland","name:left:co":"Lituania","name:right:ab":"\u0423\u0440\u044b\u0441\u0442\u04d9\u044b\u043b\u0430","name:left:ce":"\u041b\u0438\u0442\u0432\u0430","name:right:an":"Rusia","name:right:am":"\u1229\u1232\u12eb","name:left:ca":"Litu\u00e0nia","name:right:av":"\u0420\u043e\u0441\u0441\u0438\u044f\u043b\u044a\u0443\u043b \u0424\u0435\u0434\u0435\u0440\u0430\u0446\u0438\u044f","name:right:as":"\u09f0\u09c1\u09b6\u09bf\u09af\u09be","name:right:ar":"\u0631\u0648\u0633\u064a\u0627","name:left:cu":"\u041b\u0438\u0442\u044a\u0432\u0430","name:left:cv":"\u041b\u0438\u0442\u0432\u0430","name:right:az":"Rusiya","name:right:ay":"Rusiya","name:right:ak":"Russia","name:right:rm":"Russia","name":"Lietuva - \u0420\u043e\u0441\u0441\u0438\u044f","name:right:zu":"IRashiya","name:left:zu":"ILithuwaniya","name:left:zh":"\u7acb\u9676\u5b9b","name:right:za":"Ezlozswh Lienzbangh","name:right:zh":"\u4fc4\u7f57\u65af","official_name:left":"Lietuvos Respublika","name:left:uz":"Litva","name:right:fr":"F\u00e9d\u00e9ration de Russie","name:left:ps":"\u0644\u06d0\u062a\u0648\u0627\u0646\u064a\u0627","name:left:ny":"Lithuania","name:left:nv":"\u0141it\u02bcoow\u0119\u0301\u0119ya","name:left:ur":"\u0644\u062a\u06be\u0648\u0648\u06cc\u0646\u06cc\u0627","id:right":-60189,"name:left:uk":"\u041b\u0438\u0442\u0432\u0430","name:left:no":"Litauen","name:left:nl":"Litouwen","alt_name:right:eo":"Rusio;Ruslando","name:right:fa":"\u0631\u0648\u0633\u06cc\u0647","name:right:fo":"Russland","name:left:ne":"\u0932\u093f\u0925\u0941\u0906\u0928\u093f\u092f\u093e","name:left:ug":"\u0644\u0649\u062a\u06cb\u0627","name:right:fi":"Ven\u00e4j\u00e4","name:left:eo":"Litovujo","name:left:en":"Lithuania","name:left:el":"\u039b\u03b9\u03b8\u03bf\u03c5\u03b1\u03bd\u03af\u03b1","name:left:ee":"Lithuania","name:right:tt":"\u0420\u0443\u0441\u0438\u044f","name:left:es":"Lituania","name:left:ie":"Lituania","name:left:eu":"Lituania","name:left:et":"Leedu","name:right:om":"Raashiyaa","name:right:zh-min-nan":"L\u014d\u0358-se-a","name:left:id":"Lituania","old_name:right":"\u0420\u0443\u0441\u044c;\u0417\u043e\u043b\u043e\u0442\u0430\u044f \u041e\u0440\u0434\u0430;\u0420\u0443\u0441\u0441\u043a\u043e\u0435 \u0426\u0430\u0440\u0441\u0442\u0432\u043e;\u0420\u043e\u0441\u0441\u0438\u0439\u0441\u043a\u0430\u044f \u0418\u043c\u043f\u0435\u0440\u0438\u044f;\u0421\u043e\u044e\u0437 \u0421\u043e\u0432\u0435\u0442\u0441\u043a\u0438\u0445 \u0421\u043e\u0446\u0438\u0430\u043b\u0438\u0441\u0442\u0438\u0447\u0435\u0441\u043a\u0438\u0445 \u0420\u0435\u0441\u043f\u0443\u0431\u043b\u0438\u043a","name:right:oc":"Russia","name:left:ia":"Lituania","short_name:right":"\u0420\u0424","name:right:kn":"\u0cb0\u0cb7\u0ccd\u0caf\u0cbe","name:right:uz":"Rossiya Federatsiyasi","osm_relation":true,"name:right:or":"\u0b0b\u0b37\u0b3f\u0b06","name:left:pt":"Litu\u00e2nia","name:right:th":"\u0e1b\u0e23\u0e30\u0e40\u0e17\u0e28\u0e23\u0e31\u0e2a\u0e40\u0e0b\u0e35\u0e22","name:right:no":"Rusland","name:right:kv":"\u0420\u043e\u0447\u043c\u0443","name:left:gl":"Lituania - Lietuva","name:left:wa":"Litwaneye","min_zoom":8.0,"name:left:sl":"Litva","name:left:ln":"Litwani","name:left:wo":"Lituwaani","name:left:ga":"An Liotu\u00e1in","name:left:it":"Lituania","name:left:gd":"Liotu\u00e0inia","int_name:right":"Russia","name:left:gn":"Litua\u00f1a","name:left:gu":"\u0ab2\u0abf\u0aa5\u0ac1\u0a86\u0aa8\u0abf\u0aaf\u0abe","name:left:gv":"Yn Litaan","official_name:right":"\u0420\u043e\u0441\u0441\u0438\u0439\u0441\u043a\u0430\u044f \u0424\u0435\u0434\u0435\u0440\u0430\u0446\u0438\u044f","name:left":"Lietuva","name:right:mk":"\u0420\u0443\u0441\u0438\u0458\u0430","name:right:mi":"R\u016bhia","name:right:ve":"Rashia","name:right:mn":"\u041e\u0440\u043e\u0441\u044b\u043d \u0425\u043e\u043b\u0431\u043e\u043e\u043d\u044b \u0423\u043b\u0441","name:right:ml":"\u0d31\u0d37\u0d4d\u0d2f","name:right:vo":"Rus\u00e4n","name:right:mg":"Rosia","name:right:vi":"Li\u00ean bang Nga","name:right:my":"\u101b\u102f\u101b\u103e\u102c\u1038\u1014\u102d\u102f\u1004\u103a\u1004\u1036","name:right:ms":"Rusia","name:right:mr":"\u0930\u0936\u093f\u092f\u093e","name:right:fy":"Rusl\u00e2n","name:right:mt":"Russja","name:left:nn":"Litauen","kind":"country","name:left:br":"Lituania","name:left:bs":"Litvanija","int_name:left":"Lithuania","old_name:right:pl":"Zwi\u0105zek Socjalistycznych Republik Radzieckich","name:left:ba":"\u041b\u0438\u0442\u0432\u0430","name:left:bg":"\u041b\u0438\u0442\u0432\u0430","name:left:be":"\u041b\u0456\u0442\u0432\u0430","name:right:ff":"Roosiya","name:left:bi":"Litwania","name:left:bn":"\u09b2\u09bf\u09a5\u09c1\u09af\u09bc\u09be\u09a8\u09bf\u09af\u09bc\u09be","name:left:bo":"\u0f63\u0f72\u0f0b\u0f50\u0f74\u0f0b\u0f68\u0f7a\u0f0b\u0f53\u0f72\u0f0b\u0f61\u0f0d","name:right":"\u0420\u043e\u0441\u0441\u0438\u044f","name:left:yo":"Litu\u00e9n\u00ed\u00e0","name:left:yi":"\u05dc\u05d9\u05d8\u05e2","id:left":-72596,"name:left:na":"Rituainiya","name:right:ka":"\u10e0\u10e3\u10e1\u10d4\u10d7\u10d8","name:left:io":"Lituania","name:right:ty":"R\u016btia","name:right:kg":"Rusia","name:right:ki":"Russia","name:right:kk":"\u0420\u0435\u0441\u0435\u0439","name:right:tw":"Russia","name:right:km":"\u179a\u17bb\u179f\u17d2\u179f\u17ca\u17b8","name:right:kl":"Ruslandi","name:right:ko":"\ub7ec\uc2dc\uc544","name:right:ts":"Russia","name:right:tl":"Pederasyong Ruso","name:right:ks":"\u0631\u0648\u0657\u0633","name:right:to":"L\u016bsia","name:right:ku":"R\u00fbsya","name:right:ti":"\u122b\u123b","name:right:kw":"Russi","name:right:tk":"Russi\u00fda","name:right:ky":"\u041e\u0440\u0443\u0441\u0438\u044f","name:right:te":"\u0c30\u0c37\u0c4d\u0c2f\u0c3e","name:left:iu":"\u14d5\u140b\u1450\u1559","name:right:tg":"\u0420\u0443\u0441\u0438\u044f","name:left:is":"Lith\u00e1en","name:right:ta":"\u0b89\u0bb0\u0bc1\u0b9a\u0bbf\u0baf\u0bbe","name:right:de":"Russland","name:right:da":"Rusland","name:left:rn":"Lituania","name:right:dz":"\u0f62\u0f0b\u0f64\u0f72\u0f0b\u0f61\u0f71\u0f53\u0f0b\u0f55\u0f7a\u0f0b\u0f4c\u0f72\u0f0b\u0f62\u0f7a\u0f0b\u0f64\u0f71\u0f53","name:right:dv":"\u0783\u07ab\u0790\u07a9\u0788\u07a8\u078d\u07a7\u078c\u07b0","name:right:ht":"Risi"},"arcs":[0]},{"type":"LineString","properties":{"name:right:uk":"\u0428\u044f\u0443\u043b\u044f\u0439\u0441\u044c\u043a\u0438\u0439 \u043f\u043e\u0432\u0456\u0442","name:left:be":"\u0422\u0430\u045e\u0440\u0430\u0433\u0441\u043a\u0456 \u043f\u0430\u0432\u0435\u0442","id:right":-1256237,"name:left:uk":"\u0422\u0430\u0443\u0440\u0430\u0433\u0441\u044c\u043a\u0438\u0439 \u043f\u043e\u0432\u0456\u0442","min_zoom":8.0,"id:left":-1307305,"name:left:en":"Taurage County","name:left:ru":"\u0422\u0430\u0443\u0440\u0430\u0433\u0441\u043a\u0438\u0439 \u0443\u0435\u0437\u0434","name:right:ru":"\u0428\u044f\u0443\u043b\u044f\u0439\u0441\u043a\u0438\u0439 \u0443\u0435\u0437\u0434","name:right:pl":"Okr\u0119g szawelski","id":-1307305,"osm_relation":true,"name:right":"\u0160iauli\u0173 apskritis","kind":"region","name":"Taurag\u0117s apskritis - \u0160iauli\u0173 apskritis","source":"openstreetmap.org","sort_rank":256,"kind_detail":"4","name:left:de":"Bezirk Tauroggen","name:right:en":"Siauliai County","name:right:be":"\u0428\u0430\u045e\u043b\u044f\u0439\u0441\u043a\u0456 \u043f\u0430\u0432\u0435\u0442","name:left:pl":"Okr\u0119g tauroski","name:right:de":"Bezirk Schaulen","name:left":"Taurag\u0117s apskritis"},"arcs":[1]},{"type":"LineString","properties":{"name:right:uk":"\u0422\u0435\u043b\u044c\u0448\u044f\u0439\u0441\u044c\u043a\u0438\u0439 \u043f\u043e\u0432\u0456\u0442","name:left:be":"\u0422\u0430\u045e\u0440\u0430\u0433\u0441\u043a\u0456 \u043f\u0430\u0432\u0435\u0442","id:right":-1211025,"name:left:uk":"\u0422\u0430\u0443\u0440\u0430\u0433\u0441\u044c\u043a\u0438\u0439 \u043f\u043e\u0432\u0456\u0442","min_zoom":8.0,"id:left":-1307305,"name:left:en":"Taurage County","name:left:ru":"\u0422\u0430\u0443\u0440\u0430\u0433\u0441\u043a\u0438\u0439 \u0443\u0435\u0437\u0434","name:right:ru":"\u0422\u0435\u043b\u044c\u0448\u044f\u0439\u0441\u043a\u0438\u0439 \u0443\u0435\u0437\u0434","name:right:pl":"Okr\u0119g telsza\u0144ski","id":-1307305,"osm_relation":true,"name:right":"Tel\u0161i\u0173 apskritis","kind":"region","name":"Taurag\u0117s apskritis - Tel\u0161i\u0173 apskritis","source":"openstreetmap.org","sort_rank":256,"kind_detail":"4","name:left:de":"Bezirk Tauroggen","name:right:en":"Telsiai County","name:right:be":"\u0426\u044f\u043b\u044c\u0448\u044d\u0439\u0441\u043a\u0456 \u043f\u0430\u0432\u0435\u0442","name:left:pl":"Okr\u0119g tauroski","name:right:de":"Bezirk Telsche","name:left":"Taurag\u0117s apskritis"},"arcs":[2]},{"type":"LineString","properties":{"name:right:uk":"\u041a\u043b\u0430\u0439\u043f\u0435\u0434\u0441\u044c\u043a\u0438\u0439 \u043f\u043e\u0432\u0456\u0442","name:right:hr":"Okrug Klaip\u0117da","name:right:hu":"Klaip\u0117da megye","name:right:lv":"Klaip\u0113das apri\u0146\u0137is","name:right:he":"\u05de\u05d7\u05d5\u05d6 \u05e7\u05dc\u05d9\u05d9\u05e4\u05d3\u05d4","name:right:tg":"\u0412\u0438\u043b\u043e\u044f\u0442\u0438 \u041a\u043b\u0430\u0439\u043f\u0435\u0434\u0430","sort_rank":256,"name:right:an":"Rechi\u00f3n de Klaip\u0117da","source":"openstreetmap.org","name:right:ar":"\u0645\u0642\u0627\u0637\u0639\u0629 \u0643\u0644\u0627\u064a\u0628\u064a\u062f\u0627","name:right:az":"Klaypeda b\u00f6lg\u0259si","name:left":"Taurag\u0117s apskritis","name:right:es":"Provincia de Klaip\u0117da","name:right:eu":"Klaip\u0117dako konderria","name:right:et":"Klaip\u0117da maakond","name:right:it":"Contea di Klaip\u0117da","name:right:vi":"H\u1ea1t Klaip\u0117da","name:right:ro":"Jude\u021bul Klaip\u0117da","name:left:ru":"\u0422\u0430\u0443\u0440\u0430\u0433\u0441\u043a\u0438\u0439 \u0443\u0435\u0437\u0434","name:right:mr":"\u0915\u094d\u0932\u0940\u092a\u0947\u0926\u093e \u0915\u093e\u0909\u0902\u091f\u0940","name:right:id":"County Klaip\u0117da","name:right:eo":"Distrikto Klaip\u0117da","name:right:en":"Klaipeda County","name:right:el":"\u0395\u03c0\u03b1\u03c1\u03c7\u03af\u03b1 \u039a\u03bb\u03ac\u03b9\u03c0\u03b5\u03bd\u03c4\u03b1","kind":"region","name":"Taurag\u0117s apskritis - Klaip\u0117dos apskritis","min_zoom":8.0,"name:right:be":"\u041a\u043b\u0430\u0439\u043f\u0435\u0434\u0441\u043a\u0456 \u043f\u0430\u0432\u0435\u0442","name:right:zh":"\u514b\u840a\u4f69\u9054\u7e23","name:right:nn":"Klaip\u0117da fylke","name:right:no":"Klaip\u0117da fylke","name:right:nl":"Klaip\u0117da district","name:right:ja":"\u30af\u30e9\u30a4\u30da\u30c0\u770c","name:right:fr":"Apskritis de Klaip\u0117da","name:right:sr":"\u041a\u043b\u0430\u0458\u043f\u0435\u0434\u0441\u043a\u0438 \u043e\u043a\u0440\u0443\u0433","name:right:sw":"Wilaya ya Klaip\u0117da","name:right:sv":"Klaip\u0117da provins","name:left:uk":"\u0422\u0430\u0443\u0440\u0430\u0433\u0441\u044c\u043a\u0438\u0439 \u043f\u043e\u0432\u0456\u0442","name:right:sh":"Okrug Klajpeda","name:left:be":"\u0422\u0430\u045e\u0440\u0430\u0433\u0441\u043a\u0456 \u043f\u0430\u0432\u0435\u0442","id":-1307305,"name:right":"Klaip\u0117dos apskritis","name:left:en":"Taurage County","name:right:ca":"Comtat de Klaip\u0117da","kind_detail":"4","name:right:ce":"\u041a\u043b\u0430\u0439\u043f\u0435\u0434\u0438\u043d \u043a\u04c0\u043e\u0448\u0442","name:right:tt":"\u041a\u043b\u0430\u0439\u043f\u0435\u0434\u0430 \u04e9\u044f\u0437\u0435","id:left":-1307305,"name:right:cs":"Klaip\u0117dsk\u00fd kraj","name:right:fi":"Klaip\u0117dan l\u00e4\u00e4ni","id:right":-1189583,"name:right:mk":"\u041a\u043b\u0430\u0458\u043f\u0435\u0434\u0441\u043a\u0438 \u043e\u043a\u0440\u0443\u0433","name:right:pt":"Condado de Klaip\u0117da","name:left:pl":"Okr\u0119g tauroski","name:right:ko":"\ud074\ub77c\uc774\ud398\ub2e4 \uc8fc","name:right:bg":"\u041a\u043b\u0430\u0439\u043f\u0435\u0434\u0441\u043a\u0438 \u043e\u043a\u0440\u044a\u0433","name:left:de":"Bezirk Tauroggen","name:right:kw":"Konteth Klaip\u0117da","name:right:ru":"\u041a\u043b\u0430\u0439\u043f\u0435\u0434\u0441\u043a\u0438\u0439 \u0443\u0435\u0437\u0434","name:right:pl":"Okr\u0119g k\u0142ajpedzki","osm_relation":true,"name:right:ka":"\u10d9\u10da\u10d0\u10d8\u10de\u10d4\u10d3\u10d8\u10e1 \u10db\u10d0\u10d6\u10e0\u10d0","name:right:de":"Bezirk Memel","name:right:da":"Det tidligere Klaip\u0117da amt"},"arcs":[3]},{"type":"LineString","properties":{"name:right:hy":"\u053f\u0561\u056c\u056b\u0576\u056b\u0576\u0563\u0580\u0561\u0564\u056b \u0574\u0561\u0580\u0566","name:right:nl":"Oblast Kaliningrad","name:right:ja":"\u30ab\u30ea\u30fc\u30cb\u30f3\u30b0\u30e9\u30fc\u30c9\u5dde","name:right:yi":"\u05e7\u05d0\u05dc\u05d9\u05e0\u05d9\u05e0\u05d2\u05e8\u05d0\u05d3 \u05d0\u05d1\u05dc\u05d0\u05e1\u05d8","name:right:uk":"\u041a\u0430\u043b\u0456\u043d\u0456\u043d\u0433\u0440\u0430\u0434\u0441\u044c\u043a\u0430 \u043e\u0431\u043b\u0430\u0441\u0442\u044c","name:right:sr":"\u041a\u0430\u043b\u0438\u045a\u0438\u043d\u0433\u0440\u0430\u0434\u0441\u043a\u0430 \u043e\u0431\u043b\u0430\u0441\u0442","name:right:hu":"Kalinyingr\u00e1di ter\u00fclet","id:right":-103906,"name:right:lt":"Kaliningrado sritis","name:right:sh":"Kalinjingradska oblast","min_zoom":8.0,"name:right:sl":"Kaliningrajska oblast","name:left:be":"\u0422\u0430\u045e\u0440\u0430\u0433\u0441\u043a\u0456 \u043f\u0430\u0432\u0435\u0442","name:right:eo":"Kaliningrada provinco","name:right:uz":"Kaliningrad viloyati","name:right:he":"\u05de\u05d7\u05d5\u05d6 \u05e7\u05dc\u05d9\u05e0\u05d9\u05e0\u05d2\u05e8\u05d3","name:right":"\u041a\u0430\u043b\u0438\u043d\u0438\u043d\u0433\u0440\u0430\u0434\u0441\u043a\u0430\u044f \u043e\u0431\u043b\u0430\u0441\u0442\u044c","name:left:en":"Taurage County","name:right:ca":"Prov\u00edncia de Kaliningrad","kind_detail":"4","name:right:ce":"\u041a\u0430\u043b\u0438\u043d\u0438\u043d\u0433\u0440\u0430\u0434\u0430\u043d \u043e\u0431\u043b\u0430\u0441\u0442\u044c","name:right:sk":"Kaliningradsk\u00e1 oblas\u0165","id":-1307305,"source":"openstreetmap.org","osm_relation":true,"id:left":-1307305,"name:right:cs":"Kaliningradsk\u00e1 oblast","name:right:az":"Kalininqrad Vilay\u0259ti","name:right:cv":"\u041a\u0430\u043b\u0438\u043d\u0438\u043d\u0433\u0440\u0430\u0434 \u043e\u0431\u043b\u0430\u00e7\u0115","name:right:ka":"\u10d9\u10d0\u10da\u10d8\u10dc\u10d8\u10dc\u10d2\u10e0\u10d0\u10d3\u10d8\u10e1 \u10dd\u10da\u10e5\u10d8","name:right:pt":"Oblast de Kaliningrado","name:right:mn":"\u041a\u0430\u043b\u0438\u043d\u0438\u043d\u0433\u0440\u0430\u0434 \u043c\u0443\u0436","name:right:et":"Kaliningradi oblast","name:left:pl":"Okr\u0119g tauroski","name:right:it":"Oblast' di Kaliningrad","name:right:ko":"\uce7c\ub9ac\ub2cc\uadf8\ub77c\ub4dc \uc8fc","name:right:ga":"C\u00faige Kaliningrad","name:right:ro":"Regiunea Kaliningrad","name:right:kv":"\u041a\u0430\u043b\u0438\u043d\u0438\u043d\u0433\u0440\u0430\u0434 \u043e\u0431\u043b\u0430\u0441\u044c\u0442","name:right:ms":"Wilayah Kaliningrad","alt_name:right:de":"Kaliningrader Gebiet","name:left:ru":"\u0422\u0430\u0443\u0440\u0430\u0433\u0441\u043a\u0438\u0439 \u0443\u0435\u0437\u0434","name:right:pl":"Obw\u00f3d kaliningradzki","name:right:en":"Kaliningrad","name:right:os":"\u041a\u0430\u043b\u0438\u043d\u0438\u043d\u0433\u0440\u0430\u0434\u044b \u043e\u0431\u043b\u00e6\u0441\u0442","name:right:el":"\u03a0\u03b5\u03c1\u03b9\u03c6\u03ad\u03c1\u03b5\u03b9\u03b1 \u039a\u03b1\u03bb\u03af\u03bd\u03b9\u03bd\u03b3\u03ba\u03c1\u03b1\u03bd\u03c4","name:left:uk":"\u0422\u0430\u0443\u0440\u0430\u0433\u0441\u044c\u043a\u0438\u0439 \u043f\u043e\u0432\u0456\u0442","kind":"region","name":"Taurag\u0117s apskritis - \u041a\u0430\u043b\u0438\u043d\u0438\u043d\u0433\u0440\u0430\u0434\u0441\u043a\u0430\u044f \u043e\u0431\u043b\u0430\u0441\u0442\u044c","name:right:de":"Oblast Kaliningrad","name:right:lv":"Ka\u013ci\u0146ingradas apgabals","name:left:de":"Bezirk Tauroggen","name:right:be":"\u041a\u0430\u043b\u0456\u043d\u0456\u043d\u0433\u0440\u0430\u0434\u0441\u043a\u0430\u044f \u0432\u043e\u0431\u043b\u0430\u0441\u0446\u044c","sort_rank":256,"name:right:tt":"\u041a\u0430\u043b\u0438\u043d\u0438\u043d\u0433\u0440\u0430\u0434 \u04e9\u043b\u043a\u04d9\u0441\u0435","name:right:ku":"Oblasta Kaliningrad\u00ea","name:right:zh":"\u52a0\u91cc\u5b81\u683c\u52d2\u5dde","name:left":"Taurag\u0117s apskritis"},"arcs":[4]},{"type":"MultiLineString","properties":{"name:right:uk":"\u0422\u0435\u043b\u044c\u0448\u044f\u0439\u0441\u044c\u043a\u0438\u0439 \u043f\u043e\u0432\u0456\u0442","name:left:be":"\u0428\u0430\u045e\u043b\u044f\u0439\u0441\u043a\u0456 \u043f\u0430\u0432\u0435\u0442","id:right":-1211025,"name:left:uk":"\u0428\u044f\u0443\u043b\u044f\u0439\u0441\u044c\u043a\u0438\u0439 \u043f\u043e\u0432\u0456\u0442","min_zoom":8.0,"id:left":-1256237,"name:left:en":"Siauliai County","name:left:ru":"\u0428\u044f\u0443\u043b\u044f\u0439\u0441\u043a\u0438\u0439 \u0443\u0435\u0437\u0434","name:right:ru":"\u0422\u0435\u043b\u044c\u0448\u044f\u0439\u0441\u043a\u0438\u0439 \u0443\u0435\u0437\u0434","name:right:pl":"Okr\u0119g telsza\u0144ski","id":-1256237,"osm_relation":true,"name:right":"Tel\u0161i\u0173 apskritis","kind":"region","name":"\u0160iauli\u0173 apskritis - Tel\u0161i\u0173 apskritis","source":"openstreetmap.org","sort_rank":256,"kind_detail":"4","name:left:de":"Bezirk Schaulen","name:right:en":"Telsiai County","name:right:be":"\u0426\u044f\u043b\u044c\u0448\u044d\u0439\u0441\u043a\u0456 \u043f\u0430\u0432\u0435\u0442","name:left:pl":"Okr\u0119g szawelski","name:right:de":"Bezirk Telsche","name:left":"\u0160iauli\u0173 apskritis"},"arcs":[[5],[6]]},{"type":"LineString","properties":{"name:right:uk":"\u041a\u043b\u0430\u0439\u043f\u0435\u0434\u0441\u044c\u043a\u0438\u0439 \u043f\u043e\u0432\u0456\u0442","name:right:hr":"Okrug Klaip\u0117da","name:right:hu":"Klaip\u0117da megye","name:right:lv":"Klaip\u0113das apri\u0146\u0137is","name:right:he":"\u05de\u05d7\u05d5\u05d6 \u05e7\u05dc\u05d9\u05d9\u05e4\u05d3\u05d4","name:right:tg":"\u0412\u0438\u043b\u043e\u044f\u0442\u0438 \u041a\u043b\u0430\u0439\u043f\u0435\u0434\u0430","sort_rank":256,"name:right:an":"Rechi\u00f3n de Klaip\u0117da","source":"openstreetmap.org","name:right:ar":"\u0645\u0642\u0627\u0637\u0639\u0629 \u0643\u0644\u0627\u064a\u0628\u064a\u062f\u0627","name:right:az":"Klaypeda b\u00f6lg\u0259si","name:left":"Tel\u0161i\u0173 apskritis","name:right:es":"Provincia de Klaip\u0117da","name:right:eu":"Klaip\u0117dako konderria","name:right:et":"Klaip\u0117da maakond","name:right:it":"Contea di Klaip\u0117da","name:right:vi":"H\u1ea1t Klaip\u0117da","name:right:ro":"Jude\u021bul Klaip\u0117da","name:left:ru":"\u0422\u0435\u043b\u044c\u0448\u044f\u0439\u0441\u043a\u0438\u0439 \u0443\u0435\u0437\u0434","name:right:mr":"\u0915\u094d\u0932\u0940\u092a\u0947\u0926\u093e \u0915\u093e\u0909\u0902\u091f\u0940","name:right:id":"County Klaip\u0117da","name:right:eo":"Distrikto Klaip\u0117da","name:right:en":"Klaipeda County","name:right:el":"\u0395\u03c0\u03b1\u03c1\u03c7\u03af\u03b1 \u039a\u03bb\u03ac\u03b9\u03c0\u03b5\u03bd\u03c4\u03b1","kind":"region","name":"Tel\u0161i\u0173 apskritis - Klaip\u0117dos apskritis","min_zoom":8.0,"name:right:be":"\u041a\u043b\u0430\u0439\u043f\u0435\u0434\u0441\u043a\u0456 \u043f\u0430\u0432\u0435\u0442","name:right:zh":"\u514b\u840a\u4f69\u9054\u7e23","name:right:nn":"Klaip\u0117da fylke","name:right:no":"Klaip\u0117da fylke","name:right:nl":"Klaip\u0117da district","name:right:ja":"\u30af\u30e9\u30a4\u30da\u30c0\u770c","name:right:fr":"Apskritis de Klaip\u0117da","name:right:sr":"\u041a\u043b\u0430\u0458\u043f\u0435\u0434\u0441\u043a\u0438 \u043e\u043a\u0440\u0443\u0433","name:right:sw":"Wilaya ya Klaip\u0117da","name:right:sv":"Klaip\u0117da provins","name:left:uk":"\u0422\u0435\u043b\u044c\u0448\u044f\u0439\u0441\u044c\u043a\u0438\u0439 \u043f\u043e\u0432\u0456\u0442","name:right:sh":"Okrug Klajpeda","name:left:be":"\u0426\u044f\u043b\u044c\u0448\u044d\u0439\u0441\u043a\u0456 \u043f\u0430\u0432\u0435\u0442","id":-1211025,"name:right":"Klaip\u0117dos apskritis","name:left:en":"Telsiai County","name:right:ca":"Comtat de Klaip\u0117da","kind_detail":"4","name:right:ce":"\u041a\u043b\u0430\u0439\u043f\u0435\u0434\u0438\u043d \u043a\u04c0\u043e\u0448\u0442","name:right:tt":"\u041a\u043b\u0430\u0439\u043f\u0435\u0434\u0430 \u04e9\u044f\u0437\u0435","id:left":-1211025,"name:right:cs":"Klaip\u0117dsk\u00fd kraj","name:right:fi":"Klaip\u0117dan l\u00e4\u00e4ni","id:right":-1189583,"name:right:mk":"\u041a\u043b\u0430\u0458\u043f\u0435\u0434\u0441\u043a\u0438 \u043e\u043a\u0440\u0443\u0433","name:right:pt":"Condado de Klaip\u0117da","name:left:pl":"Okr\u0119g telsza\u0144ski","name:right:ko":"\ud074\ub77c\uc774\ud398\ub2e4 \uc8fc","name:right:bg":"\u041a\u043b\u0430\u0439\u043f\u0435\u0434\u0441\u043a\u0438 \u043e\u043a\u0440\u044a\u0433","name:left:de":"Bezirk Telsche","name:right:kw":"Konteth Klaip\u0117da","name:right:ru":"\u041a\u043b\u0430\u0439\u043f\u0435\u0434\u0441\u043a\u0438\u0439 \u0443\u0435\u0437\u0434","name:right:pl":"Okr\u0119g k\u0142ajpedzki","osm_relation":true,"name:right:ka":"\u10d9\u10da\u10d0\u10d8\u10de\u10d4\u10d3\u10d8\u10e1 \u10db\u10d0\u10d6\u10e0\u10d0","name:right:de":"Bezirk Memel","name:right:da":"Det tidligere Klaip\u0117da amt"},"arcs":[7]},{"type":"LineString","properties":{"name:right:hy":"\u053f\u0561\u056c\u056b\u0576\u056b\u0576\u0563\u0580\u0561\u0564\u056b \u0574\u0561\u0580\u0566","name:right:yi":"\u05e7\u05d0\u05dc\u05d9\u05e0\u05d9\u05e0\u05d2\u05e8\u05d0\u05d3 \u05d0\u05d1\u05dc\u05d0\u05e1\u05d8","name:right:uk":"\u041a\u0430\u043b\u0456\u043d\u0456\u043d\u0433\u0440\u0430\u0434\u0441\u044c\u043a\u0430 \u043e\u0431\u043b\u0430\u0441\u0442\u044c","name:left:he":"\u05de\u05d7\u05d5\u05d6 \u05e7\u05dc\u05d9\u05d9\u05e4\u05d3\u05d4","name:left:sw":"Wilaya ya Klaip\u0117da","name:left:sv":"Klaip\u0117da provins","name:right:hu":"Kalinyingr\u00e1di ter\u00fclet","name:left:sr":"\u041a\u043b\u0430\u0458\u043f\u0435\u0434\u0441\u043a\u0438 \u043e\u043a\u0440\u0443\u0433","name:right:lt":"Kaliningrado sritis","name:right:lv":"Ka\u013ci\u0146ingradas apgabals","name:left:sh":"Okrug Klajpeda","name:left:lv":"Klaip\u0113das apri\u0146\u0137is","name:right:uz":"Kaliningrad viloyati","name:left:hu":"Klaip\u0117da megye","name:right:he":"\u05de\u05d7\u05d5\u05d6 \u05e7\u05dc\u05d9\u05e0\u05d9\u05e0\u05d2\u05e8\u05d3","name:left:hr":"Okrug Klaip\u0117da","name:left:ce":"\u041a\u043b\u0430\u0439\u043f\u0435\u0434\u0438\u043d \u043a\u04c0\u043e\u0448\u0442","name:left:ca":"Comtat de Klaip\u0117da","source":"openstreetmap.org","name:right:os":"\u041a\u0430\u043b\u0438\u043d\u0438\u043d\u0433\u0440\u0430\u0434\u044b \u043e\u0431\u043b\u00e6\u0441\u0442","name:left:vi":"H\u1ea1t Klaip\u0117da","name:right:az":"Kalininqrad Vilay\u0259ti","name:left:cs":"Klaip\u0117dsk\u00fd kraj","name:left":"Klaip\u0117dos apskritis","name:right:sr":"\u041a\u0430\u043b\u0438\u045a\u0438\u043d\u0433\u0440\u0430\u0434\u0441\u043a\u0430 \u043e\u0431\u043b\u0430\u0441\u0442","name:left:ka":"\u10d9\u10da\u10d0\u10d8\u10de\u10d4\u10d3\u10d8\u10e1 \u10db\u10d0\u10d6\u10e0\u10d0","name:right:mn":"\u041a\u0430\u043b\u0438\u043d\u0438\u043d\u0433\u0440\u0430\u0434 \u043c\u0443\u0436","name:right:et":"Kaliningradi oblast","name:left:ko":"\ud074\ub77c\uc774\ud398\ub2e4 \uc8fc","name:right:it":"Oblast' di Kaliningrad","name:left:ro":"Jude\u021bul Klaip\u0117da","name:left:kw":"Konteth Klaip\u0117da","name:right:ro":"Regiunea Kaliningrad","name:left:ru":"\u041a\u043b\u0430\u0439\u043f\u0435\u0434\u0441\u043a\u0438\u0439 \u0443\u0435\u0437\u0434","name:right:ms":"Wilayah Kaliningrad","alt_name:right:de":"Kaliningrader Gebiet","name:right:eo":"Kaliningrada provinco","name:right:en":"Kaliningrad","name:right:el":"\u03a0\u03b5\u03c1\u03b9\u03c6\u03ad\u03c1\u03b5\u03b9\u03b1 \u039a\u03b1\u03bb\u03af\u03bd\u03b9\u03bd\u03b3\u03ba\u03c1\u03b1\u03bd\u03c4","name:left:nn":"Klaip\u0117da fylke","kind":"region","name:right:tt":"\u041a\u0430\u043b\u0438\u043d\u0438\u043d\u0433\u0440\u0430\u0434 \u04e9\u043b\u043a\u04d9\u0441\u0435","name":"Klaip\u0117dos apskritis - \u041a\u0430\u043b\u0438\u043d\u0438\u043d\u0433\u0440\u0430\u0434\u0441\u043a\u0430\u044f \u043e\u0431\u043b\u0430\u0441\u0442\u044c","name:left:no":"Klaip\u0117da fylke","min_zoom":8.0,"name:right:be":"\u041a\u0430\u043b\u0456\u043d\u0456\u043d\u0433\u0440\u0430\u0434\u0441\u043a\u0430\u044f \u0432\u043e\u0431\u043b\u0430\u0441\u0446\u044c","name:left:zh":"\u514b\u840a\u4f69\u9054\u7e23","name:left:fr":"Apskritis de Klaip\u0117da","name:left:da":"Det tidligere Klaip\u0117da amt","name:right:zh":"\u52a0\u91cc\u5b81\u683c\u52d2\u5dde","name:left:et":"Klaip\u0117da maakond","name:left:bg":"\u041a\u043b\u0430\u0439\u043f\u0435\u0434\u0441\u043a\u0438 \u043e\u043a\u0440\u044a\u0433","name:right:nl":"Oblast Kaliningrad","name:right:ja":"\u30ab\u30ea\u30fc\u30cb\u30f3\u30b0\u30e9\u30fc\u30c9\u5dde","name:left:ja":"\u30af\u30e9\u30a4\u30da\u30c0\u770c","id:right":-103906,"name:left:uk":"\u041a\u043b\u0430\u0439\u043f\u0435\u0434\u0441\u044c\u043a\u0438\u0439 \u043f\u043e\u0432\u0456\u0442","name:right:sh":"Kalinjingradska oblast","name:right:sk":"Kaliningradsk\u00e1 oblas\u0165","name:right:sl":"Kaliningrajska oblast","name:left:be":"\u041a\u043b\u0430\u0439\u043f\u0435\u0434\u0441\u043a\u0456 \u043f\u0430\u0432\u0435\u0442","name:left:fi":"Klaip\u0117dan l\u00e4\u00e4ni","id":-1189583,"name:right":"\u041a\u0430\u043b\u0438\u043d\u0438\u043d\u0433\u0440\u0430\u0434\u0441\u043a\u0430\u044f \u043e\u0431\u043b\u0430\u0441\u0442\u044c","name:left:eo":"Distrikto Klaip\u0117da","name:left:en":"Klaipeda County","name:left:el":"\u0395\u03c0\u03b1\u03c1\u03c7\u03af\u03b1 \u039a\u03bb\u03ac\u03b9\u03c0\u03b5\u03bd\u03c4\u03b1","name:right:ca":"Prov\u00edncia de Kaliningrad","kind_detail":"4","name:right:ce":"\u041a\u0430\u043b\u0438\u043d\u0438\u043d\u0433\u0440\u0430\u0434\u0430\u043d \u043e\u0431\u043b\u0430\u0441\u0442\u044c","name:left:mk":"\u041a\u043b\u0430\u0458\u043f\u0435\u0434\u0441\u043a\u0438 \u043e\u043a\u0440\u0443\u0433","name:left:nl":"Klaip\u0117da district","id:left":-1189583,"name:left:es":"Provincia de Klaip\u0117da","name:right:cs":"Kaliningradsk\u00e1 oblast","name:left:eu":"Klaip\u0117dako konderria","name:right:cv":"\u041a\u0430\u043b\u0438\u043d\u0438\u043d\u0433\u0440\u0430\u0434 \u043e\u0431\u043b\u0430\u00e7\u0115","name:right:ka":"\u10d9\u10d0\u10da\u10d8\u10dc\u10d8\u10dc\u10d2\u10e0\u10d0\u10d3\u10d8\u10e1 \u10dd\u10da\u10e5\u10d8","name:right:pt":"Oblast de Kaliningrado","name:left:ar":"\u0645\u0642\u0627\u0637\u0639\u0629 \u0643\u0644\u0627\u064a\u0628\u064a\u062f\u0627","name:left:pl":"Okr\u0119g k\u0142ajpedzki","name:left:id":"County Klaip\u0117da","name:left:tt":"\u041a\u043b\u0430\u0439\u043f\u0435\u0434\u0430 \u04e9\u044f\u0437\u0435","name:left:az":"Klaypeda b\u00f6lg\u0259si","name:right:ko":"\uce7c\ub9ac\ub2cc\uadf8\ub77c\ub4dc \uc8fc","name:left:pt":"Condado de Klaip\u0117da","name:left:mr":"\u0915\u094d\u0932\u0940\u092a\u0947\u0926\u093e \u0915\u093e\u0909\u0902\u091f\u0940","name:right:ga":"C\u00faige Kaliningrad","name:right:kv":"\u041a\u0430\u043b\u0438\u043d\u0438\u043d\u0433\u0440\u0430\u0434 \u043e\u0431\u043b\u0430\u0441\u044c\u0442","name:left:an":"Rechi\u00f3n de Klaip\u0117da","name:left:it":"Contea di Klaip\u0117da","name:right:pl":"Obw\u00f3d kaliningradzki","osm_relation":true,"name:left:tg":"\u0412\u0438\u043b\u043e\u044f\u0442\u0438 \u041a\u043b\u0430\u0439\u043f\u0435\u0434\u0430","name:right:de":"Oblast Kaliningrad","name:left:de":"Bezirk Memel","sort_rank":256,"name:right:ku":"Oblasta Kaliningrad\u00ea"},"arcs":[8]}]},"roads":{"type":"GeometryCollection","geometries":[{"type":"LineString","properties":{"kind":"major_road","network":"lt:national","sort_rank":380,"kind_detail":"primary","is_bicycle_related":true,"bicycle_shield_text":"LT5","bicycle_network":"ncn","source":"openstreetmap.org","min_zoom":8.0,"landuse_kind":"park","shield_text":"206","name:ru":"\u0443\u043b\u0438\u0446\u0430 \u0420\u0443\u0441\u043d\u0435\u0441","ref":"206"},"arcs":[17]},{"type":"LineString","properties":{"kind":"major_road","network":"lt:national","sort_rank":380,"kind_detail":"primary","is_bicycle_related":true,"bicycle_shield_text":"LT2","bicycle_network":"rcn","source":"openstreetmap.org","min_zoom":8.0,"shield_text":"141","name:ru":"\u0443\u043b\u0438\u0446\u0430 \u0412\u0438\u043b\u044c\u043d\u044e\u0441","ref":"141","id":193845542},"arcs":[18]},{"type":"LineString","properties":{"kind":"major_road","network":"ru:regional","sort_rank":380,"kind_detail":"primary","source":"openstreetmap.org","min_zoom":8.0,"shield_text":"27\u0410","ref":"27\u0410-004"},"arcs":[19]},{"type":"MultiLineString","properties":{"kind":"minor_road","sort_rank":360,"kind_detail":"unclassified","is_bicycle_related":true,"bicycle_shield_text":"LT5","bicycle_network":"ncn","source":"openstreetmap.org","min_zoom":8.0,"landuse_kind":"park"},"arcs":[[20],[21]]},{"type":"LineString","properties":{"kind":"major_road","name:lv":"Liep\u0101jas iela","network":"lt:national","sort_rank":380,"kind_detail":"primary","is_bicycle_related":true,"bicycle_shield_text":"R1","bicycle_network":"icn","source":"openstreetmap.org","min_zoom":8.0,"landuse_kind":"urban_area","shield_text":"168","name:ru":"\u0443\u043b\u0438\u0446\u0430 \u041b\u0435\u043f\u043e\u0439\u043e\u0441","ref":"168","id":215535160},"arcs":[22]},{"type":"LineString","properties":{"kind":"major_road","network":"lt:national","sort_rank":380,"kind_detail":"primary","source":"openstreetmap.org","min_zoom":8.0,"landuse_kind":"urban_area","shield_text":"141","ref":"141","id":90098846},"arcs":[23]},{"type":"LineString","properties":{"source":"openstreetmap.org","kind":"ferry","name":"Klaip\u0117da - Kiel","name:lt":"Klaip\u0117da - Kylis","sort_rank":355,"min_zoom":8.0,"name:de":"Memel - Kiel"},"arcs":[24]},{"type":"MultiLineString","properties":{"kind":"major_road","network":"lt:regional","sort_rank":380,"kind_detail":"primary","source":"openstreetmap.org","min_zoom":8.0,"landuse_kind":"urban_area","shield_text":"2212","ref":"2212"},"arcs":[[25],[26],[27],[28]]},{"type":"LineString","properties":{"kind":"major_road","network":"lt:regional","sort_rank":377,"kind_detail":"tertiary","is_bicycle_related":true,"bicycle_shield_text":"LT5","bicycle_network":"ncn","source":"openstreetmap.org","min_zoom":8.0,"landuse_kind":"park","shield_text":"4205","ref":"4205"},"arcs":[29]},{"type":"LineString","properties":{"kind":"major_road","network":"lt:national","sort_rank":380,"kind_detail":"primary","is_bicycle_related":true,"official_name":"Herkaus Manto gatv\u0117","cycleway":"lane","source":"openstreetmap.org","min_zoom":8.0,"landuse_kind":"urban_area","shield_text":"168","name:ru":"\u0443\u043b\u0438\u0446\u0430 \u0425. \u041c\u0430\u043d\u0442\u043e","ref":"168","id":129143844},"arcs":[30]},{"type":"LineString","properties":{"kind":"minor_road","sort_rank":360,"kind_detail":"living_street","is_bicycle_related":true,"bicycle_shield_text":"R1","bicycle_network":"icn","source":"openstreetmap.org","min_zoom":8.0,"id":228376133},"arcs":[31]},{"type":"LineString","properties":{"kind":"major_road","network":"lt:national","sort_rank":380,"kind_detail":"primary","source":"openstreetmap.org","min_zoom":8.0,"shield_text":"162","name:ru":"\u0443\u043b\u0438\u0446\u0430 \u0420\u0438\u0442\u043e \u043a\u0435\u043b\u0438\u043e","ref":"162"},"arcs":[32]},{"type":"MultiLineString","properties":{"kind":"major_road","network":"lt:national","sort_rank":380,"kind_detail":"primary","is_bicycle_related":true,"bicycle_shield_text":"LT2","bicycle_network":"rcn","source":"openstreetmap.org","min_zoom":8.0,"shield_text":"141","ref":"141"},"arcs":[[33],[34],[35]]},{"type":"LineString","properties":{"kind":"major_road","network":"lt:regional","sort_rank":380,"kind_detail":"primary","source":"openstreetmap.org","min_zoom":8.0,"shield_text":"2202","ref":"2202"},"arcs":[36]},{"type":"LineString","properties":{"kind":"major_road","network":"lt:national","sort_rank":380,"kind_detail":"primary","source":"openstreetmap.org","min_zoom":8.0,"shield_text":"199","name:ru":"\u0443\u043b\u0438\u0446\u0430 \u0416\u0438\u0433\u0430\u0438\u0447\u044e","ref":"199","id":176160061},"arcs":[37]},{"type":"LineString","properties":{"kind":"minor_road","sort_rank":358,"landuse_kind":"urban_area","is_bicycle_related":true,"bicycle_shield_text":"R1","bicycle_network":"icn","source":"openstreetmap.org","min_zoom":8.0,"kind_detail":"service"},"arcs":[38]},{"type":"MultiLineString","properties":{"kind":"major_road","network":"lt:national","sort_rank":380,"kind_detail":"primary","source":"openstreetmap.org","min_zoom":8.0,"landuse_kind":"urban_area","shield_text":"168","ref":"168"},"arcs":[[39],[40]]},{"type":"LineString","properties":{"source":"openstreetmap.org","kind":"major_road","landuse_kind":"urban_area","sort_rank":380,"kind_detail":"primary","min_zoom":8.0,"official_name":"Juliaus Janonio gatv\u0117"},"arcs":[41]},{"type":"MultiLineString","properties":{"source":"openstreetmap.org","kind":"major_road","sort_rank":380,"kind_detail":"primary","ref":"162","min_zoom":8.0},"arcs":[[42],[43],[44],[45]]},{"type":"LineString","properties":{"kind":"major_road","network":"lt:regional","sort_rank":379,"kind_detail":"secondary","is_bicycle_related":true,"bicycle_shield_text":"LT5","bicycle_network":"ncn","source":"openstreetmap.org","min_zoom":8.0,"landuse_kind":"park","shield_text":"4205","name:ru":"\u0443\u043b\u0438\u0446\u0430 \u041a\u0443\u0440\u0448\u043c\u0430\u0440\u044e","ref":"4205","id":39540397},"arcs":[46]},{"type":"LineString","properties":{"kind":"major_road","sort_rank":380,"kind_detail":"primary","source":"openstreetmap.org","min_zoom":8.0,"landuse_kind":"urban_area","name:ru":"\u0443\u043b\u0438\u0446\u0430 \u041f\u0438\u043b\u0435\u0441","id":232527903},"arcs":[47]},{"type":"LineString","properties":{"kind":"major_road","network":"lt:national","sort_rank":380,"kind_detail":"primary","source":"openstreetmap.org","min_zoom":8.0,"shield_text":"193","name:ru":"\u0443\u043b\u0438\u0446\u0430 \u042e\u0440\u043e\u0441","ref":"193","id":189102977},"arcs":[48]},{"type":"LineString","properties":{"kind":"major_road","network":"ru:regional","sort_rank":380,"kind_detail":"primary","source":"openstreetmap.org","min_zoom":8.0,"shield_text":"27\u0410","ref":"27\u0410-025"},"arcs":[49]},{"type":"LineString","properties":{"kind":"major_road","network":"lt:national","sort_rank":380,"kind_detail":"primary","bus_network":null,"source":"openstreetmap.org","min_zoom":8.0,"bus_shield_text":"239","shield_text":"167","ref":"167","id":5120950},"arcs":[50]},{"type":"LineString","properties":{"kind":"major_road","network":"lt:national","sort_rank":380,"kind_detail":"primary","name:de":"Tilsiter Stra\u00dfe","source":"openstreetmap.org","min_zoom":8.0,"shield_text":"165","name:ru":"\u0443\u043b\u0438\u0446\u0430 \u0422\u0438\u043b\u0436\u0435\u0441","ref":"165"},"arcs":[51]},{"type":"LineString","properties":{"bus_network":null,"network":"lt:national","sort_rank":380,"kind_detail":"primary","kind":"major_road","official_name":"Liudviko R\u0117zos gatv\u0117","source":"openstreetmap.org","min_zoom":8.0,"bus_shield_text":"239","shield_text":"167","landuse_kind":"national_park","ref":"167"},"arcs":[52]},{"type":"LineString","properties":{"kind":"minor_road","sort_rank":358,"kind_detail":"service","is_bicycle_related":true,"bicycle_shield_text":"R1","bicycle_network":"icn","source":"openstreetmap.org","min_zoom":8.0},"arcs":[53]},{"type":"LineString","properties":{"kind":"major_road","sort_rank":380,"kind_detail":"primary","source":"openstreetmap.org","min_zoom":8.0,"landuse_kind":"national_park","name:ru":"\u0443\u043b\u0438\u0446\u0430 \u0410\u043b\u043a\u0441\u043d\u0438\u043d\u0435\u0441","id":170867487},"arcs":[54]},{"type":"MultiLineString","properties":{"kind":"major_road","network":"lt:national","sort_rank":380,"kind_detail":"primary","source":"openstreetmap.org","min_zoom":8.0,"shield_text":"166","ref":"166"},"arcs":[[55],[56]]},{"type":"LineString","properties":{"source":"openstreetmap.org","kind":"ferry","name":"Ventain\u0117 - Nida (seasonal)","sort_rank":355,"is_bicycle_related":true,"min_zoom":8.0,"id":398189835},"arcs":[57]},{"type":"MultiLineString","properties":{"kind":"major_road","network":"lt:national","sort_rank":380,"kind_detail":"primary","is_bicycle_related":true,"bicycle_shield_text":"LT5","bicycle_network":"ncn","source":"openstreetmap.org","min_zoom":8.0,"landuse_kind":"park","shield_text":"206","ref":"206"},"arcs":[[58],[59]]},{"type":"LineString","properties":{"kind":"major_road","network":"lt:national","sort_rank":380,"kind_detail":"primary","source":"openstreetmap.org","min_zoom":8.0,"shield_text":"147","name:ru":"\u0443\u043b\u0438\u0446\u0430 \u0422\u0440\u0443\u043c\u043f\u043e\u0439\u0438","ref":"147"},"arcs":[60]},{"type":"LineString","properties":{"kind":"major_road","network":"lt:regional","sort_rank":379,"kind_detail":"secondary","is_bicycle_related":true,"bicycle_shield_text":"LT5","bicycle_network":"ncn","source":"openstreetmap.org","min_zoom":8.0,"landuse_kind":"park","shield_text":"4205","name:ru":"\u0443\u043b\u0438\u0446\u0430 \u0421\u043e\u0434\u044e","ref":"4205","id":95207575},"arcs":[61]},{"type":"MultiLineString","properties":{"kind":"major_road","network":"lt:regional","sort_rank":379,"kind_detail":"secondary","is_bicycle_related":true,"bicycle_shield_text":"LT5","bicycle_network":"ncn","source":"openstreetmap.org","min_zoom":8.0,"landuse_kind":"park","shield_text":"4217","ref":"4217"},"arcs":[[62],[63]]},{"type":"LineString","properties":{"kind":"major_road","network":"lt:national","sort_rank":380,"kind_detail":"primary","source":"openstreetmap.org","min_zoom":8.0,"shield_text":"165","name:ru":"\u0443\u043b\u0438\u0446\u0430 \u041d\u0435\u043f\u0440\u0438\u043a\u043b\u0430\u0443\u0441\u043e\u043c\u0438\u0431\u0435\u0441","ref":"165"},"arcs":[64]},{"type":"MultiLineString","properties":{"kind":"major_road","network":"lt:regional","sort_rank":379,"kind_detail":"secondary","is_bicycle_related":true,"bicycle_shield_text":"LT5","bicycle_network":"ncn","source":"openstreetmap.org","min_zoom":8.0,"shield_text":"2206","ref":"2206"},"arcs":[[65],[66],[67]]},{"type":"MultiLineString","properties":{"source":"openstreetmap.org","kind":"ferry","name":"Naujoji perk\u0117la \u2013 Jachtklubas \u2013 Senoji perk\u0117la","sort_rank":355,"landuse_kind":"urban_area","min_zoom":8.0,"id":428575426},"arcs":[[68],[69]]},{"type":"LineString","properties":{"kind":"major_road","network":"lt:regional","sort_rank":380,"kind_detail":"primary","source":"openstreetmap.org","min_zoom":8.0,"shield_text":"2207","ref":"2207","id":92013895},"arcs":[70]},{"type":"LineString","properties":{"kind":"ferry","name":"Klaip\u0117da \u2013 J\u016br\u0173 muziejus \u2013 Smiltyn\u0117","sort_rank":355,"landuse_kind":"urban_area","source":"openstreetmap.org","min_zoom":8.0,"name:uk":"\u041a\u043b\u0430\u0439\u043f\u0435\u0434\u0430 - \u041c\u043e\u0440\u0441\u044c\u043a\u0438\u0439 \u043c\u0443\u0437\u0435\u0439 - \u0421\u043c\u0456\u043b\u044c\u0442\u0456\u043d","id":391435858},"arcs":[71]},{"type":"LineString","properties":{"source":"openstreetmap.org","kind":"ferry","name":"Dreverna - Juodkrant\u0117","sort_rank":355,"min_zoom":8.0,"id":433292645},"arcs":[72]},{"type":"LineString","properties":{"kind":"major_road","network":"lt:national","sort_rank":380,"kind_detail":"primary","official_name":"Simono Daukanto gatv\u0117","source":"openstreetmap.org","min_zoom":8.0,"landuse_kind":"park","shield_text":"160","ref":"160"},"arcs":[73]},{"type":"LineString","properties":{"source":"openstreetmap.org","kind":"ferry","name":"Dreverna - Juodkrant\u0117","sort_rank":355,"landuse_kind":"national_park","min_zoom":8.0,"id":433292645},"arcs":[74]},{"type":"LineString","properties":{"kind":"minor_road","sort_rank":358,"kind_detail":"service","is_bicycle_related":true,"bicycle_shield_text":null,"bicycle_network":"icn","source":"openstreetmap.org","min_zoom":8.0,"landuse_kind":"urban_area","name:ru":"\u0443\u043b\u0438\u0446\u0430 \u0414\u0430\u043d\u0435\u0441","id":39185376},"arcs":[75]},{"type":"LineString","properties":{"bus_network":"KenigAuto","network":"ru:national","name:lt":"Lenino g.","sort_rank":381,"landuse_kind":"residential","kind":"major_road","source":"openstreetmap.org","min_zoom":8.0,"bus_shield_text":"217","shield_text":"216","kind_detail":"trunk","ref":"\u0410-216"},"arcs":[76]},{"type":"MultiLineString","properties":{"kind":"major_road","network":"lt:national","sort_rank":380,"kind_detail":"primary","source":"openstreetmap.org","min_zoom":8.0,"landuse_kind":"park","shield_text":"160","ref":"160"},"arcs":[[77],[78],[79],[80]]},{"type":"LineString","properties":{"kind":"major_road","sort_rank":377,"landuse_kind":"urban_area","is_bicycle_related":true,"bicycle_shield_text":"R1","bicycle_network":"icn","source":"openstreetmap.org","min_zoom":8.0,"kind_detail":"tertiary","ref":"A1"},"arcs":[81]},{"type":"LineString","properties":{"kind":"major_road","name:lv":"Liep\u0101jas iela","network":"lt:national","sort_rank":380,"kind_detail":"primary","source":"openstreetmap.org","min_zoom":8.0,"landuse_kind":"urban_area","shield_text":"168","name:ru":"\u0443\u043b\u0438\u0446\u0430 \u041b\u0435\u043f\u043e\u0439\u043e\u0441","ref":"168","id":11010376},"arcs":[82]},{"type":"MultiLineString","properties":{"source":"openstreetmap.org","kind":"major_road","landuse_kind":"urban_area","sort_rank":380,"kind_detail":"primary","min_zoom":8.0,"name:ru":"\u0443\u043b\u0438\u0446\u0430 \u0414\u0430\u0440\u0438\u0430\u0443\u0441 \u0438 \u0413\u0438\u0440\u0435\u043d\u043e"},"arcs":[[83],[84],[85]]},{"type":"MultiLineString","properties":{"source":"openstreetmap.org","kind":"major_road","network":"lt:national","sort_rank":380,"kind_detail":"primary","min_zoom":8.0,"shield_text":"165"},"arcs":[[86],[87],[88]]},{"type":"MultiLineString","properties":{"kind":"major_road","network":"lt:national","sort_rank":380,"kind_detail":"primary","source":"openstreetmap.org","min_zoom":8.0,"shield_text":"164","name:ru":"\u0443\u043b\u0438\u0446\u0430 \u041f\u043b\u0443\u043d\u0433\u0435\u0441","ref":"164"},"arcs":[[89],[90]]},{"type":"MultiLineString","properties":{"kind":"ferry","name":"Klaip\u0117da \u2013 Juodkrant\u0117 \u2013 Nida","sort_rank":355,"landuse_kind":"national_park","is_bicycle_related":true,"source":"openstreetmap.org","min_zoom":8.0,"id":379321163},"arcs":[[91],[92],[93],[94]]},{"type":"MultiLineString","properties":{"kind":"major_road","network":"lt:regional","sort_rank":380,"kind_detail":"primary","source":"openstreetmap.org","min_zoom":8.0,"landuse_kind":"urban_area","shield_text":"2212","name:ru":"\u0443\u043b\u0438\u0446\u0430 \u041b\u0438\u0435\u043f\u044e","ref":"2212"},"arcs":[[95],[96]]},{"type":"LineString","properties":{"kind":"major_road","network":"lt:national","sort_rank":380,"kind_detail":"primary","source":"openstreetmap.org","min_zoom":8.0,"shield_text":"227","name:ru":"\u0443\u043b\u0438\u0446\u0430 \u0413\u0430\u0440\u0433\u0436\u0434\u0443","ref":"227","id":153311891},"arcs":[97]},{"type":"MultiLineString","properties":{"kind":"major_road","network":"lt:national","sort_rank":380,"kind_detail":"primary","source":"openstreetmap.org","min_zoom":8.0,"shield_text":"199","ref":"199"},"arcs":[[98],[99],[100],[101]]},{"type":"LineString","properties":{"bus_network":"KenigAuto","network":"ru:national","sort_rank":381,"kind_detail":"trunk","is_bicycle_related":true,"kind":"major_road","source":"openstreetmap.org","min_zoom":8.0,"bus_shield_text":"217","shield_text":"216","ref":"\u0410-216"},"arcs":[102]},{"type":"LineString","properties":{"kind":"minor_road","sort_rank":360,"kind_detail":"residential","is_bicycle_related":true,"bicycle_shield_text":"R1","bicycle_network":"icn","source":"openstreetmap.org","min_zoom":8.0},"arcs":[103]},{"type":"MultiLineString","properties":{"kind":"major_road","network":"lt:national","sort_rank":380,"kind_detail":"primary","source":"openstreetmap.org","min_zoom":8.0,"shield_text":"199","name:ru":"\u0443\u043b\u0438\u0446\u0430 \u0410\u0443\u043a\u0448\u0442\u0443\u043f\u044e","ref":"199"},"arcs":[[104],[105]]},{"type":"LineString","properties":{"kind":"major_road","network":"lt:national","sort_rank":380,"kind_detail":"primary","is_bicycle_related":true,"bicycle_shield_text":"LT5","bicycle_network":"ncn","source":"openstreetmap.org","min_zoom":8.0,"shield_text":"206","name:ru":"\u0443\u043b\u0438\u0446\u0430 \u0420\u0443\u0441\u043d\u0435\u0441","ref":"206","id":198482203},"arcs":[106]},{"type":"LineString","properties":{"kind":"major_road","network":"lt:national","sort_rank":380,"kind_detail":"primary","is_bicycle_related":true,"bicycle_shield_text":null,"bicycle_network":"lcn","source":"openstreetmap.org","min_zoom":8.0,"landuse_kind":"park","shield_text":"160","ref":"160","id":282733324},"arcs":[107]},{"type":"LineString","properties":{"kind":"major_road","network":"ru:national","sort_rank":381,"kind_detail":"trunk","bus_network":"KenigAuto","name:de":"Ragniter Stra\u00dfe","source":"openstreetmap.org","min_zoom":8.0,"bus_shield_text":"217","shield_text":"216","landuse_kind":"residential","ref":"\u0410-216","id":270477409},"arcs":[108]},{"type":"LineString","properties":{"kind":"major_road","network":"lt:national","sort_rank":379,"landuse_kind":"urban_area","is_bicycle_related":true,"official_name":"Herkaus Manto gatv\u0117","cycleway":"lane","source":"openstreetmap.org","min_zoom":8.0,"bicycle_shield_text":null,"kind_detail":"secondary","shield_text":"168","name:ru":"\u0443\u043b\u0438\u0446\u0430 \u0425. \u041c\u0430\u043d\u0442\u043e","bicycle_network":"icn","ref":"168"},"arcs":[109]},{"type":"MultiLineString","properties":{"bus_network":null,"network":"lt:national","sort_rank":381,"kind_detail":"trunk","kind":"major_road","source":"openstreetmap.org","min_zoom":8.0,"bus_shield_text":"231","shield_text":"12","ref":"A12"},"arcs":[[110],[111],[112],[113],[114],[115],[116],[117],[118]]},{"type":"LineString","properties":{"bus_network":null,"network":"ru:regional","sort_rank":380,"kind_detail":"primary","kind":"major_road","name:de":"Zinkenteichstra\u00dfe","source":"openstreetmap.org","min_zoom":8.0,"bus_shield_text":"543","shield_text":"27\u0410","ref":"27\u0410-033"},"arcs":[119]},{"type":"LineString","properties":{"kind":"major_road","network":"lt:national","sort_rank":381,"kind_detail":"trunk","source":"openstreetmap.org","min_zoom":8.0,"landuse_kind":"urban_area","shield_text":"1","name:ru":"\u043f\u0440\u043e\u0441\u043f\u0435\u043a\u0442 \u0411\u0430\u043b\u0442\u0438\u0439\u043e\u0441","ref":"A1","id":23747205},"arcs":[120]},{"type":"LineString","properties":{"kind":"major_road","network":"lt:national","sort_rank":380,"kind_detail":"primary","official_name":"Antano Baranausko gatv\u0117","source":"openstreetmap.org","min_zoom":8.0,"shield_text":"165","ref":"165","id":157459531},"arcs":[121]},{"type":"MultiLineString","properties":{"kind":"major_road","network":"lt:national","sort_rank":380,"kind_detail":"primary","is_bicycle_related":true,"bicycle_shield_text":"LT5","bicycle_network":"ncn","source":"openstreetmap.org","min_zoom":8.0,"shield_text":"206","ref":"206"},"arcs":[[122],[123]]},{"type":"LineString","properties":{"kind":"major_road","network":"ru:national","sort_rank":381,"kind_detail":"trunk","bus_network":null,"source":"openstreetmap.org","min_zoom":8.0,"bus_shield_text":"523","shield_text":"216","landuse_kind":"residential","ref":"\u0410-216","id":200602339},"arcs":[124]},{"type":"LineString","properties":{"kind":"major_road","network":"lt:regional","sort_rank":379,"kind_detail":"secondary","is_bicycle_related":true,"bicycle_shield_text":"LT5","bicycle_network":"ncn","source":"openstreetmap.org","min_zoom":8.0,"landuse_kind":"park","shield_text":"4205","name:ru":"\u0443\u043b\u0438\u0446\u0430 \u041f\u0430\u043a\u0430\u043b\u043d\u0435\u0441","ref":"4205","id":95208803},"arcs":[125]},{"type":"LineString","properties":{"source":"openstreetmap.org","kind":"ferry","name":"Minija-Uostadvaris-Nida (seasonal)","sort_rank":355,"is_bicycle_related":true,"min_zoom":8.0,"id":297222453},"arcs":[126]},{"type":"LineString","properties":{"kind":"major_road","network":"lt:national","sort_rank":381,"kind_detail":"trunk","bus_network":null,"source":"openstreetmap.org","min_zoom":8.0,"bus_shield_text":"231","shield_text":"12","id":338069019},"arcs":[127]},{"type":"MultiLineString","properties":{"kind":"major_road","network":"lt:national","sort_rank":380,"kind_detail":"primary","source":"openstreetmap.org","min_zoom":8.0,"shield_text":"164","ref":"164"},"arcs":[[128],[129],[130],[131],[132],[133],[134],[135],[136],[137],[138],[139],[140],[141],[142],[143],[144],[145],[146],[147]]},{"type":"LineString","properties":{"kind":"major_road","network":"lt:national","sort_rank":380,"kind_detail":"primary","bus_network":null,"official_name":"Liudviko R\u0117zos gatv\u0117","source":"openstreetmap.org","min_zoom":8.0,"bus_shield_text":"239","shield_text":"167","name:ru":"\u0443\u043b\u0438\u0446\u0430 \u041b. \u0420\u0435\u0437\u043e\u0441","landuse_kind":"national_park","ref":"167","id":27671819},"arcs":[148]},{"type":"LineString","properties":{"kind":"major_road","network":"lt:national","sort_rank":380,"kind_detail":"primary","source":"openstreetmap.org","min_zoom":8.0,"old_name":"\u017demai\u010di\u0173 plentas","shield_text":"166","ref":"166","id":100531897},"arcs":[149]},{"type":"MultiLineString","properties":{"kind":"major_road","network":"lt:national","sort_rank":381,"kind_detail":"trunk","source":"openstreetmap.org","min_zoom":8.0,"shield_text":"13","ref":"A13"},"arcs":[[150],[151],[152]]},{"type":"LineString","properties":{"kind":"major_road","network":"lt:regional","sort_rank":379,"kind_detail":"secondary","is_bicycle_related":true,"bicycle_shield_text":"LT5","name:de":"Sziegirrner Stra\u00dfe","source":"openstreetmap.org","min_zoom":8.0,"shield_text":"4217","name:ru":"\u0443\u043b\u0438\u0446\u0430 \u0410\u0443\u043a\u0448\u0442\u0443\u043c\u0430\u043b\u0435\u0441","bicycle_network":"ncn","ref":"4217","id":25748915},"arcs":[153]},{"type":"LineString","properties":{"kind":"major_road","network":"lt:national","sort_rank":380,"kind_detail":"primary","name:de":"Tilsiter Stra\u00dfe","source":"openstreetmap.org","min_zoom":8.0,"shield_text":"165","ref":"165","id":62251088},"arcs":[154]},{"type":"MultiLineString","properties":{"source":"openstreetmap.org","kind":"major_road","network":"lt:national","sort_rank":380,"kind_detail":"primary","min_zoom":8.0,"shield_text":"164"},"arcs":[[155],[156],[157]]},{"type":"LineString","properties":{"kind":"major_road","sort_rank":379,"kind_detail":"secondary","is_bicycle_related":true,"bicycle_shield_text":"LT5","bicycle_network":"ncn","source":"openstreetmap.org","min_zoom":8.0,"ref":"2203","id":128003773},"arcs":[158]},{"type":"MultiLineString","properties":{"kind":"major_road","network":"lt:regional","sort_rank":379,"kind_detail":"secondary","is_bicycle_related":true,"bicycle_shield_text":"LT5","bicycle_network":"ncn","source":"openstreetmap.org","min_zoom":8.0,"shield_text":"2202","name:ru":"\u0443\u043b\u0438\u0446\u0430 \u0420\u0438\u043c\u043a\u0443","ref":"2202"},"arcs":[[159],[160]]},{"type":"LineString","properties":{"kind":"major_road","network":"lt:national","sort_rank":380,"kind_detail":"primary","source":"openstreetmap.org","min_zoom":8.0,"landuse_kind":"park","shield_text":"206","ref":"206","id":39599247},"arcs":[161]},{"type":"LineString","properties":{"bicycle_shield_text":"R1","min_zoom":8.0,"official_name":"Herkaus Manto gatv\u0117","old_name":"Libauer Stra\u00dfe","name:ru":"\u0443\u043b\u0438\u0446\u0430 \u0425. \u041c\u0430\u043d\u0442\u043e","bicycle_network":"icn","id":38219104,"kind":"major_road","network":"lt:national","sort_rank":379,"kind_detail":"secondary","is_bicycle_related":true,"cycleway":"lane","source":"openstreetmap.org","landuse_kind":"urban_area","shield_text":"168","ref":"168"},"arcs":[162]},{"type":"LineString","properties":{"source":"openstreetmap.org","kind":"major_road","landuse_kind":"urban_area","sort_rank":380,"kind_detail":"primary","min_zoom":8.0,"name:ru":"\u0443\u043b\u0438\u0446\u0430 \u041a\u0430\u0438\u0440\u044e"},"arcs":[163]},{"type":"LineString","properties":{"kind":"major_road","network":"ru:regional","sort_rank":380,"kind_detail":"primary","bus_network":"KenigAuto","name:de":"Ragniter Stra\u00dfe","source":"openstreetmap.org","min_zoom":8.0,"bus_shield_text":"217","shield_text":"27\u0410","landuse_kind":"residential","ref":"27\u0410-033","id":187771218},"arcs":[164]},{"type":"LineString","properties":{"source":"openstreetmap.org","kind":"major_road","name:ru":"\u043f\u0440\u043e\u0441\u043f\u0435\u043a\u0442 \u0422\u0430\u0438\u043a\u043e\u0441","sort_rank":380,"kind_detail":"primary","min_zoom":8.0},"arcs":[165]},{"type":"LineString","properties":{"source":"openstreetmap.org","kind":"major_road","sort_rank":380,"kind_detail":"primary","ref":"193","min_zoom":8.0},"arcs":[166]},{"type":"LineString","properties":{"kind":"minor_road","sort_rank":360,"kind_detail":"residential","is_bicycle_related":true,"bicycle_shield_text":null,"bicycle_network":"icn","source":"openstreetmap.org","min_zoom":8.0,"landuse_kind":"urban_area","id":38146485},"arcs":[167]},{"type":"MultiLineString","properties":{"bus_network":null,"network":"ru:regional","sort_rank":380,"kind_detail":"primary","kind":"major_road","source":"openstreetmap.org","min_zoom":8.0,"bus_shield_text":"543","shield_text":"27\u0410","landuse_kind":"residential","ref":"27\u0410-033"},"arcs":[[168],[169]]},{"type":"LineString","properties":{"kind":"major_road","network":"lt:national","sort_rank":379,"landuse_kind":"urban_area","is_bicycle_related":true,"bicycle_shield_text":"R1","bicycle_network":"icn","source":"openstreetmap.org","min_zoom":8.0,"official_name":"Herkaus Manto gatv\u0117","old_name":"Libauer Stra\u00dfe","shield_text":"168","kind_detail":"secondary","cycleway":"lane","ref":"168"},"arcs":[170]},{"type":"MultiLineString","properties":{"source":"openstreetmap.org","kind":"major_road","landuse_kind":"urban_area","sort_rank":380,"kind_detail":"primary","min_zoom":8.0,"name:ru":"\u0443\u043b\u0438\u0446\u0430 \u041c\u043e\u043a\u0438\u043a\u043b\u043e\u0441"},"arcs":[[171],[172]]},{"type":"LineString","properties":{"kind":"major_road","network":"lt:national","sort_rank":380,"kind_detail":"primary","source":"openstreetmap.org","min_zoom":8.0,"shield_text":"216","ref":"216"},"arcs":[173]},{"type":"LineString","properties":{"kind":"ferry","name":"Ventain\u0117 - Nida (seasonal)","sort_rank":355,"landuse_kind":"park","is_bicycle_related":true,"source":"openstreetmap.org","min_zoom":8.0,"id":398189835},"arcs":[174]},{"type":"LineString","properties":{"kind":"major_road","sort_rank":380,"kind_detail":"primary","source":"openstreetmap.org","min_zoom":8.0,"landuse_kind":"urban_area","name:ru":"\u0443\u043b\u0438\u0446\u0430 \u0421\u0430\u0443\u0441\u0438\u043e 15-\u043e\u0441\u0438\u043e\u0441","id":172291978},"arcs":[175]},{"type":"MultiLineString","properties":{"source":"openstreetmap.org","kind":"ferry","name":"Minija-Uostadvaris-Nida (seasonal)","sort_rank":355,"landuse_kind":"park","is_bicycle_related":true,"min_zoom":8.0},"arcs":[[176],[177]]},{"type":"LineString","properties":{"kind":"major_road","network":"lt:national","sort_rank":381,"kind_detail":"trunk","source":"openstreetmap.org","min_zoom":8.0,"shield_text":"21","ref":"A21"},"arcs":[178]},{"type":"MultiLineString","properties":{"kind":"major_road","network":"lt:national","sort_rank":380,"kind_detail":"primary","source":"openstreetmap.org","min_zoom":8.0,"shield_text":"228","ref":"228"},"arcs":[[179],[180],[181]]},{"type":"MultiLineString","properties":{"kind":"major_road","network":"lt:national","sort_rank":380,"kind_detail":"primary","is_bicycle_related":true,"bicycle_shield_text":"LT2","bicycle_network":"rcn","source":"openstreetmap.org","min_zoom":8.0,"shield_text":"141","name:ru":"\u0443\u043b\u0438\u0446\u0430 \u041a\u043b\u0430\u0439\u043f\u0435\u0434\u043e\u0441","ref":"141"},"arcs":[[182],[183]]},{"type":"MultiLineString","properties":{"source":"openstreetmap.org","kind":"major_road","sort_rank":381,"kind_detail":"trunk","ref":"A12","min_zoom":8.0},"arcs":[[184],[185],[186]]},{"type":"LineString","properties":{"kind":"major_road","network":"lt:regional","sort_rank":379,"kind_detail":"secondary","is_bicycle_related":true,"bicycle_shield_text":"LT5","cycleway":"lane","source":"openstreetmap.org","min_zoom":8.0,"landuse_kind":"park","shield_text":"4205","name:ru":"\u0443\u043b\u0438\u0446\u0430 \u041a\u0443\u0440\u0448\u043c\u0430\u0440\u044e","bicycle_network":"ncn","ref":"4205","id":39599246},"arcs":[187]},{"type":"MultiLineString","properties":{"kind":"minor_road","sort_rank":360,"kind_detail":"unclassified","is_bicycle_related":true,"bicycle_shield_text":"LT5","bicycle_network":"ncn","source":"openstreetmap.org","min_zoom":8.0},"arcs":[[188],[189]]},{"type":"MultiLineString","properties":{"bus_network":"KenigAuto","network":"ru:national","sort_rank":381,"landuse_kind":"residential","kind":"major_road","source":"openstreetmap.org","min_zoom":8.0,"bus_shield_text":"217","shield_text":"216","kind_detail":"trunk","ref":"\u0410-216"},"arcs":[[190],[191],[192],[193],[194]]},{"type":"LineString","properties":{"kind":"major_road","network":"lt:national","sort_rank":380,"kind_detail":"primary","is_bicycle_related":true,"official_name":"Herkaus Manto gatv\u0117","cycleway":"lane","source":"openstreetmap.org","min_zoom":8.0,"bicycle_shield_text":null,"landuse_kind":"urban_area","shield_text":"168","name:ru":"\u0443\u043b\u0438\u0446\u0430 \u0425. \u041c\u0430\u043d\u0442\u043e","bicycle_network":"icn","ref":"168"},"arcs":[195]},{"type":"LineString","properties":{"bus_network":"KenigAuto","network":"lt:national","sort_rank":381,"kind_detail":"trunk","is_bicycle_related":true,"kind":"major_road","bicycle_shield_text":"LT2","bicycle_network":"rcn","source":"openstreetmap.org","min_zoom":8.0,"bus_shield_text":"217","shield_text":"12","ref":"A12","id":153310815},"arcs":[196]},{"type":"LineString","properties":{"source":"openstreetmap.org","kind":"ferry","name":"Naujoji perk\u0117la \u2013 Jachtklubas \u2013 Senoji perk\u0117la","sort_rank":355,"min_zoom":8.0,"id":428575426},"arcs":[197]},{"type":"LineString","properties":{"bus_network":"KenigAuto","network":"e-road","name:lt":"Karalien\u0117s Luizos tiltas","sort_rank":381,"kind_detail":"trunk","kind":"major_road","name:de":"K\u00f6nigin-Luise-Br\u00fccke","source":"openstreetmap.org","name:fr":"Pont de la reine Louise","bus_shield_text":"217","shield_text":"77","min_zoom":8.0,"id":36823080},"arcs":[198]},{"type":"MultiLineString","properties":{"kind":"major_road","network":"lt:national","sort_rank":380,"kind_detail":"primary","source":"openstreetmap.org","min_zoom":8.0,"shield_text":"165","ref":"165"},"arcs":[[199],[200],[201],[202],[203],[204]]},{"type":"LineString","properties":{"kind":"major_road","network":"lt:regional","sort_rank":380,"kind_detail":"primary","source":"openstreetmap.org","min_zoom":8.0,"landuse_kind":"urban_area","shield_text":"2202","name:ru":"\u0448\u043e\u0441\u0441\u0435 \u0428\u0438\u043b\u0443\u0442\u0435\u0441","ref":"2202","id":25601156},"arcs":[205]},{"type":"MultiLineString","properties":{"kind":"major_road","network":"lt:national","sort_rank":380,"kind_detail":"primary","is_bicycle_related":true,"official_name":"Herkaus Manto gatv\u0117","bicycle_network":"icn","source":"openstreetmap.org","min_zoom":8.0,"bicycle_shield_text":null,"landuse_kind":"urban_area","shield_text":"168","ref":"168"},"arcs":[[206],[207]]},{"type":"LineString","properties":{"kind":"major_road","network":"lt:national","sort_rank":381,"kind_detail":"trunk","source":"openstreetmap.org","min_zoom":8.0,"shield_text":"21","id":150175361},"arcs":[208]},{"type":"LineString","properties":{"bus_network":"KenigAuto","network":"e-road","sort_rank":381,"kind_detail":"trunk","kind":"major_road","source":"openstreetmap.org","min_zoom":8.0,"bus_shield_text":"217","shield_text":"77","ref":"A12"},"arcs":[209]},{"type":"LineString","properties":{"kind":"major_road","network":"lt:national","sort_rank":380,"kind_detail":"primary","is_bicycle_related":true,"bicycle_shield_text":"LT2","bicycle_network":"rcn","source":"openstreetmap.org","min_zoom":8.0,"shield_text":"141","name:ru":"\u0443\u043b\u0438\u0446\u0430 \u0416\u0430\u043b\u0438\u043e\u0439\u0438","ref":"141"},"arcs":[210]},{"type":"LineString","properties":{"kind":"major_road","sort_rank":377,"kind_detail":"tertiary","is_bicycle_related":true,"bicycle_shield_text":"R1","cycleway":"lane","source":"openstreetmap.org","min_zoom":8.0,"official_name":"Herkaus Manto gatv\u0117","landuse_kind":"urban_area","bicycle_network":"icn","ref":"A1","id":39648215},"arcs":[211]},{"type":"MultiLineString","properties":{"source":"openstreetmap.org","kind":"major_road","sort_rank":380,"kind_detail":"primary","ref":"227","min_zoom":8.0},"arcs":[[212],[213]]},{"type":"LineString","properties":{"source":"openstreetmap.org","kind":"major_road","kind_detail":"primary","sort_rank":380,"name:ru":"\u0443\u043b\u0438\u0446\u0430 \u041a\u0430\u0438\u0440\u044e","min_zoom":8.0,"id":111801876},"arcs":[214]},{"type":"MultiLineString","properties":{"source":"openstreetmap.org","kind":"major_road","landuse_kind":"urban_area","sort_rank":380,"kind_detail":"primary","min_zoom":8.0,"name:ru":"\u0443\u043b\u0438\u0446\u0430 \u0412\u0430\u0440\u043d\u0435\u043d\u0443"},"arcs":[[215],[216],[217]]},{"type":"LineString","properties":{"source":"openstreetmap.org","kind":"major_road","sort_rank":380,"kind_detail":"primary","ref":"199","min_zoom":8.0,"id":443162036},"arcs":[218]},{"type":"LineString","properties":{"kind":"major_road","network":"lt:national","sort_rank":380,"kind_detail":"primary","source":"openstreetmap.org","min_zoom":8.0,"shield_text":"164","name:ru":"\u0443\u043b\u0438\u0446\u0430 \u0428\u0438\u043b\u0430\u043b\u0435\u0441","ref":"164"},"arcs":[219]},{"type":"LineString","properties":{"kind":"minor_road","sort_rank":360,"kind_detail":"living_street","is_bicycle_related":true,"bicycle_shield_text":"R1","bicycle_network":"icn","source":"openstreetmap.org","min_zoom":8.0,"name:ru":"\u0443\u043b\u0438\u0446\u0430 \u041f\u0430\u043b\u0430\u043d\u0433\u043e\u0441","id":202182387},"arcs":[220]},{"type":"MultiLineString","properties":{"bus_network":"KenigAuto","network":"lt:national","sort_rank":381,"kind_detail":"trunk","kind":"major_road","source":"openstreetmap.org","min_zoom":8.0,"bus_shield_text":"217","shield_text":"12","ref":"A12"},"arcs":[[221],[222],[223]]},{"type":"LineString","properties":{"kind":"path","sort_rank":354,"kind_detail":"cycleway","is_bicycle_related":true,"bicycle_shield_text":"R1","bicycle_network":"icn","source":"openstreetmap.org","min_zoom":8.0,"id":25750405},"arcs":[224]},{"type":"LineString","properties":{"kind":"major_road","network":"ru:regional","sort_rank":380,"kind_detail":"primary","name:de":"Zinkenteichstra\u00dfe","source":"openstreetmap.org","min_zoom":8.0,"shield_text":"27\u0410","ref":"27\u0410-033","id":119090693},"arcs":[225]},{"type":"LineString","properties":{"kind":"major_road","network":"lt:national","sort_rank":380,"kind_detail":"primary","official_name":"Jono Basanavi\u010diaus gatv\u0117","source":"openstreetmap.org","min_zoom":8.0,"shield_text":"165","ref":"165","id":42263001},"arcs":[226]},{"type":"LineString","properties":{"kind":"major_road","network":"lt:national","sort_rank":380,"kind_detail":"primary","source":"openstreetmap.org","min_zoom":8.0,"shield_text":"165","name:ru":"\u0443\u043b\u0438\u0446\u0430 \u0416\u0435\u043c\u0430\u0438\u0447\u044e \u041d\u0430\u0443\u043c\u0435\u0441\u0447\u0438\u043e","ref":"165"},"arcs":[227]},{"type":"MultiLineString","properties":{"bus_network":"KenigAuto","sort_rank":380,"kind_detail":"primary","kind":"major_road","source":"openstreetmap.org","min_zoom":8.0,"bus_shield_text":"217","ref":"141"},"arcs":[[228],[229],[230]]},{"type":"MultiLineString","properties":{"kind":"major_road","network":"lt:national","sort_rank":380,"kind_detail":"primary","source":"openstreetmap.org","min_zoom":8.0,"shield_text":"162","ref":"162"},"arcs":[[231],[232],[233],[234],[235],[236]]},{"type":"LineString","properties":{"cycleway_right":"lane","sort_rank":360,"kind_detail":"unclassified","is_bicycle_related":true,"kind":"minor_road","bicycle_shield_text":"R1","bicycle_network":"icn","source":"openstreetmap.org","min_zoom":8.0,"landuse_kind":"national_park","id":9926189},"arcs":[237]},{"type":"MultiLineString","properties":{"bus_network":null,"network":"lt:national","sort_rank":381,"kind_detail":"trunk","kind":"major_road","source":"openstreetmap.org","min_zoom":8.0,"bus_shield_text":"231","shield_text":"12","name:ru":"\u0448\u043e\u0441\u0441\u0435 \u0422\u0438\u043b\u0436\u0435\u0441","ref":"A12"},"arcs":[[238],[239]]},{"type":"LineString","properties":{"kind":"path","sort_rank":354,"kind_detail":"path","is_bicycle_related":true,"bicycle_shield_text":"R1","bicycle_network":"icn","source":"openstreetmap.org","min_zoom":8.0},"arcs":[240]},{"type":"LineString","properties":{"kind":"major_road","network":"lt:regional","sort_rank":379,"kind_detail":"secondary","is_bicycle_related":true,"bicycle_shield_text":"LT5","bicycle_network":"ncn","source":"openstreetmap.org","min_zoom":8.0,"landuse_kind":"park","shield_text":"2201","ref":"2201"},"arcs":[241]},{"type":"MultiLineString","properties":{"bus_network":"KenigAuto","network":"lt:national","sort_rank":380,"kind_detail":"primary","is_bicycle_related":true,"kind":"major_road","bicycle_shield_text":"LT2","bicycle_network":"rcn","source":"openstreetmap.org","min_zoom":8.0,"bus_shield_text":"217","shield_text":"141","ref":"141"},"arcs":[[242],[243],[244],[245]]},{"type":"LineString","properties":{"kind":"major_road","network":"lt:regional","sort_rank":379,"kind_detail":"secondary","is_bicycle_related":true,"bicycle_shield_text":"LT5","bicycle_network":"ncn","source":"openstreetmap.org","min_zoom":8.0,"landuse_kind":"park","shield_text":"4204","name:ru":"\u0443\u043b\u0438\u0446\u0430 \u041d\u0435\u043c\u0443\u043d\u043e","ref":"4204","id":95207567},"arcs":[246]},{"type":"LineString","properties":{"kind":"path","sort_rank":354,"kind_detail":"cycleway","is_bicycle_related":true,"bicycle_shield_text":"R1","bicycle_network":"icn","source":"openstreetmap.org","min_zoom":8.0,"landuse_kind":"urban_area","id":25750405},"arcs":[247]},{"type":"LineString","properties":{"kind":"ferry","name":"Klaip\u0117da \u2013 Lietuvos j\u016br\u0173 muziejus","sort_rank":355,"name:de":"Memel - Litauisches Meeresmuseum","source":"openstreetmap.org","min_zoom":8.0,"name:uk":"\u041a\u043b\u0430\u0439\u043f\u0435\u0434\u0430 - \u041b\u0438\u0442\u043e\u0432\u0441\u044c\u043a\u0438\u0439 \u043c\u043e\u0440\u0441\u044c\u043a\u0438\u0439 \u043c\u0443\u0437\u0435\u0439","id":233526507},"arcs":[248]},{"type":"MultiLineString","properties":{"bus_network":null,"network":"lt:national","sort_rank":380,"kind_detail":"primary","kind":"major_road","source":"openstreetmap.org","min_zoom":8.0,"bus_shield_text":"239","shield_text":"167","landuse_kind":"national_park","ref":"167"},"arcs":[[249],[250],[251]]},{"type":"LineString","properties":{"kind":"major_road","network":"lt:regional","sort_rank":379,"kind_detail":"secondary","is_bicycle_related":true,"bicycle_shield_text":"LT5","bicycle_network":"ncn","source":"openstreetmap.org","min_zoom":8.0,"landuse_kind":"park","shield_text":"2201","name:ru":"\u0443\u043b\u0438\u0446\u0430 \u041c\u0430\u0440\u0438\u044e","ref":"2201"},"arcs":[252]},{"type":"MultiLineString","properties":{"kind":"major_road","network":"lt:regional","sort_rank":380,"kind_detail":"primary","source":"openstreetmap.org","min_zoom":8.0,"landuse_kind":"urban_area","shield_text":"2202","ref":"2202"},"arcs":[[253],[254]]},{"type":"LineString","properties":{"source":"openstreetmap.org","kind":"major_road","sort_rank":380,"kind_detail":"primary","ref":"165","min_zoom":8.0,"official_name":"Jono Basanavi\u010diaus gatv\u0117"},"arcs":[255]},{"type":"MultiLineString","properties":{"kind":"major_road","name:lv":"Liep\u0101jas iela","network":"lt:national","sort_rank":380,"kind_detail":"primary","source":"openstreetmap.org","min_zoom":8.0,"landuse_kind":"urban_area","shield_text":"168","ref":"168"},"arcs":[[256],[257],[258],[259],[260]]},{"type":"LineString","properties":{"kind":"ferry","name":"Klaip\u0117da \u2013 Lietuvos j\u016br\u0173 muziejus","sort_rank":355,"landuse_kind":"urban_area","name:de":"Memel - Litauisches Meeresmuseum","source":"openstreetmap.org","min_zoom":8.0,"name:uk":"\u041a\u043b\u0430\u0439\u043f\u0435\u0434\u0430 - \u041b\u0438\u0442\u043e\u0432\u0441\u044c\u043a\u0438\u0439 \u043c\u043e\u0440\u0441\u044c\u043a\u0438\u0439 \u043c\u0443\u0437\u0435\u0439","id":233526507},"arcs":[261]},{"type":"LineString","properties":{"kind":"major_road","network":"lt:national","sort_rank":380,"kind_detail":"primary","source":"openstreetmap.org","min_zoom":8.0,"shield_text":"217","ref":"217"},"arcs":[262]},{"type":"MultiLineString","properties":{"kind":"major_road","network":"lt:regional","sort_rank":379,"kind_detail":"secondary","is_bicycle_related":true,"bicycle_shield_text":"LT5","bicycle_network":"ncn","source":"openstreetmap.org","min_zoom":8.0,"shield_text":"2202","ref":"2202"},"arcs":[[263],[264],[265]]},{"type":"LineString","properties":{"bus_network":"KenigAuto","network":"e-road","name:lt":"Karalien\u0117s Luizos tiltas","sort_rank":381,"kind_detail":"trunk","kind":"major_road","name:de":"K\u00f6nigin-Luise-Br\u00fccke","source":"openstreetmap.org","name:fr":"Pont de la reine Louise","bus_shield_text":"217","shield_text":"77","min_zoom":8.0,"landuse_kind":"residential","id":36823080},"arcs":[266]},{"type":"LineString","properties":{"kind":"major_road","network":"lt:national","sort_rank":381,"kind_detail":"trunk","source":"openstreetmap.org","min_zoom":8.0,"shield_text":"1","name:ru":"\u0448\u043e\u0441\u0441\u0435 \u0412\u0438\u043b\u043d\u044f\u0443\u0441","ref":"A1","id":444358876},"arcs":[267]},{"type":"LineString","properties":{"source":"openstreetmap.org","kind":"major_road","old_name":"Am Bahnhof","sort_rank":380,"kind_detail":"primary","landuse_kind":"urban_area","min_zoom":8.0},"arcs":[268]},{"type":"LineString","properties":{"kind":"major_road","sort_rank":380,"kind_detail":"primary","source":"openstreetmap.org","min_zoom":8.0,"landuse_kind":"urban_area","name:ru":"\u0443\u043b\u0438\u0446\u0430 \u041f\u0440\u0435\u0441\u0442\u043e\u0447\u0438\u043e","id":34522513},"arcs":[269]},{"type":"LineString","properties":{"kind":"major_road","network":"lt:national","sort_rank":380,"kind_detail":"primary","is_bicycle_related":true,"bicycle_shield_text":null,"bicycle_network":"lcn","source":"openstreetmap.org","min_zoom":8.0,"shield_text":"197","ref":"197","id":282733322},"arcs":[270]},{"type":"LineString","properties":{"kind":"major_road","network":"lt:national","sort_rank":380,"kind_detail":"primary","is_bicycle_related":true,"bicycle_shield_text":"LT5","cycleway":"lane","source":"openstreetmap.org","min_zoom":8.0,"landuse_kind":"park","shield_text":"206","bicycle_network":"ncn","ref":"206","id":95207560},"arcs":[271]},{"type":"LineString","properties":{"bus_network":null,"network":"ru:regional","sort_rank":380,"kind_detail":"primary","kind":"major_road","name:de":"Ragniter Stra\u00dfe","source":"openstreetmap.org","min_zoom":8.0,"bus_shield_text":"543","shield_text":"27\u0410","landuse_kind":"residential","ref":"27\u0410-033"},"arcs":[272]},{"type":"LineString","properties":{"kind":"major_road","network":"lt:national","sort_rank":380,"kind_detail":"primary","is_bicycle_related":true,"bicycle_shield_text":null,"bicycle_network":"icn","source":"openstreetmap.org","min_zoom":8.0,"official_name":"Herkaus Manto gatv\u0117","landuse_kind":"urban_area","shield_text":"168","name:ru":"\u0443\u043b\u0438\u0446\u0430 \u0425. \u041c\u0430\u043d\u0442\u043e","ref":"168","id":221323294},"arcs":[273]},{"type":"MultiLineString","properties":{"kind":"major_road","network":"lt:national","sort_rank":380,"kind_detail":"primary","source":"openstreetmap.org","min_zoom":8.0,"shield_text":"141","ref":"141"},"arcs":[[274],[275],[276],[277],[278],[279],[280],[281],[282]]},{"type":"MultiLineString","properties":{"sort_rank":381,"source":"openstreetmap.org","min_zoom":8.0,"kind":"major_road","kind_detail":"trunk"},"arcs":[[283],[284]]},{"type":"LineString","properties":{"kind":"highway","network":"lt:national","sort_rank":383,"kind_detail":"motorway","source":"openstreetmap.org","min_zoom":8.0,"all_networks":["lt:national","e-road"],"shield_text":"1","name:ru":"\u0448\u043e\u0441\u0441\u0435 \u0412\u0438\u043b\u043d\u044f\u0443\u0441","ref":"A1","id":60202578,"all_shield_texts":["1","85"]},"arcs":[285]},{"type":"LineString","properties":{"kind":"ferry","name":"Kiel - Klaip\u0117da","sort_rank":355,"landuse_kind":"national_park","name:de":"Kiel - Memel","source":"openstreetmap.org","min_zoom":8.0,"ref":"Kiel - Klaip\u0117da","id":-1208198,"osm_relation":true},"arcs":[286]},{"type":"MultiLineString","properties":{"kind":"major_road","network":"lt:national","sort_rank":381,"kind_detail":"trunk","source":"openstreetmap.org","min_zoom":8.0,"shield_text":"13","name:ru":"\u0443\u043b\u0438\u0446\u0430 \u041f\u0430\u043b\u0430\u043d\u0433\u043e\u0441","ref":"A13"},"arcs":[[287],[288]]},{"type":"LineString","properties":{"kind":"major_road","network":"lt:national","sort_rank":380,"kind_detail":"primary","source":"openstreetmap.org","min_zoom":8.0,"shield_text":"197","name:ru":"\u0443\u043b\u0438\u0446\u0430 \u041f\u043b\u0435\u043d\u0442\u043e","ref":"197","id":143238873},"arcs":[289]},{"type":"MultiLineString","properties":{"kind":"major_road","network":"lt:national","sort_rank":381,"landuse_kind":"urban_area","source":"openstreetmap.org","min_zoom":8.0,"kind_detail":"trunk","shield_text":"13","ref":"A13"},"arcs":[[290],[291]]},{"type":"LineString","properties":{"kind":"major_road","network":"lt:national","sort_rank":380,"kind_detail":"primary","source":"openstreetmap.org","min_zoom":8.0,"landuse_kind":"residential","shield_text":"147","ref":"147","id":281631904},"arcs":[292]},{"type":"LineString","properties":{"kind":"minor_road","sort_rank":360,"kind_detail":"unclassified","is_bicycle_related":true,"bicycle_shield_text":"R1","bicycle_network":"icn","source":"openstreetmap.org","min_zoom":8.0},"arcs":[293]},{"type":"LineString","properties":{"kind":"major_road","network":"lt:regional","sort_rank":379,"kind_detail":"secondary","is_bicycle_related":true,"bicycle_shield_text":"LT5","bicycle_network":"ncn","source":"openstreetmap.org","min_zoom":8.0,"landuse_kind":"park","shield_text":"4204","ref":"4204"},"arcs":[294]},{"type":"MultiLineString","properties":{"bus_network":null,"network":"lt:regional","sort_rank":380,"kind_detail":"primary","kind":"major_road","source":"openstreetmap.org","min_zoom":8.0,"bus_shield_text":"384","shield_text":"2254","ref":"2254"},"arcs":[[295],[296]]},{"type":"LineString","properties":{"source":"openstreetmap.org","kind":"major_road","sort_rank":380,"kind_detail":"primary","min_zoom":8.0,"official_name":"Juliaus Janonio gatv\u0117"},"arcs":[297]},{"type":"MultiLineString","properties":{"kind":"major_road","network":"lt:regional","sort_rank":380,"kind_detail":"primary","source":"openstreetmap.org","min_zoom":8.0,"shield_text":"2212","ref":"2212"},"arcs":[[298],[299],[300]]},{"type":"LineString","properties":{"kind":"ferry","name":"Klaip\u0117da - Kiel","name:lt":"Klaip\u0117da - Kylis","sort_rank":355,"landuse_kind":"national_park","name:de":"Memel - Kiel","source":"openstreetmap.org","min_zoom":8.0,"id":38215064},"arcs":[301]},{"type":"MultiLineString","properties":{"kind":"highway","network":"lt:national","sort_rank":383,"kind_detail":"motorway","source":"openstreetmap.org","min_zoom":8.0,"all_networks":["lt:national","e-road"],"shield_text":"1","ref":"A1","all_shield_texts":["1","85"]},"arcs":[[302],[303],[304],[305],[306],[307]]},{"type":"LineString","properties":{"bus_network":null,"network":"ru:regional","sort_rank":380,"kind_detail":"primary","kind":"major_road","source":"openstreetmap.org","min_zoom":8.0,"bus_shield_text":"523","shield_text":"27\u0410","ref":"27\u0410-010"},"arcs":[308]},{"type":"MultiLineString","properties":{"kind":"major_road","network":"lt:national","sort_rank":380,"kind_detail":"primary","source":"openstreetmap.org","min_zoom":8.0,"landuse_kind":"park","shield_text":"223","ref":"223"},"arcs":[[309],[310]]},{"type":"LineString","properties":{"source":"openstreetmap.org","kind":"major_road","landuse_kind":"urban_area","sort_rank":381,"kind_detail":"trunk","min_zoom":8.0,"id":9519528},"arcs":[311]},{"type":"LineString","properties":{"kind":"major_road","network":"lt:national","sort_rank":380,"kind_detail":"primary","source":"openstreetmap.org","min_zoom":8.0,"shield_text":"162","name:ru":"\u0443\u043b\u0438\u0446\u0430 \u0428\u0438\u043b\u0430\u043b\u0435\u0441","ref":"162","id":37651246},"arcs":[312]},{"type":"MultiLineString","properties":{"kind":"major_road","network":"ru:regional","sort_rank":380,"kind_detail":"primary","source":"openstreetmap.org","min_zoom":8.0,"shield_text":"27\u0410","ref":"27\u0410-033"},"arcs":[[313],[314],[315]]},{"type":"LineString","properties":{"kind":"major_road","network":"ru:national","sort_rank":381,"kind_detail":"trunk","source":"openstreetmap.org","min_zoom":8.0,"landuse_kind":"residential","shield_text":"216","ref":"\u0410-216"},"arcs":[316]},{"type":"MultiLineString","properties":{"kind":"major_road","network":"lt:national","sort_rank":381,"landuse_kind":"urban_area","source":"openstreetmap.org","min_zoom":8.0,"kind_detail":"trunk","shield_text":"1","ref":"A1"},"arcs":[[317],[318],[319],[320],[321],[322],[323],[324]]},{"type":"LineString","properties":{"bus_network":"KenigAuto","network":"lt:national","sort_rank":381,"kind_detail":"trunk","is_bicycle_related":true,"kind":"major_road","bicycle_shield_text":"LT2","bicycle_network":"rcn","source":"openstreetmap.org","min_zoom":8.0,"bus_shield_text":"217","shield_text":"12","ref":"A12;141","id":68268832},"arcs":[325]},{"type":"MultiLineString","properties":{"kind":"minor_road","sort_rank":360,"landuse_kind":"urban_area","is_bicycle_related":true,"bicycle_shield_text":"R1","bicycle_network":"icn","source":"openstreetmap.org","min_zoom":8.0,"kind_detail":"residential"},"arcs":[[326],[327],[328],[329],[330]]},{"type":"LineString","properties":{"kind":"major_road","network":"lt:national","sort_rank":380,"kind_detail":"primary","source":"openstreetmap.org","min_zoom":8.0,"shield_text":"164","name:ru":"\u0443\u043b\u0438\u0446\u0430 \u0420\u0435\u0442\u0430\u0432\u043e","ref":"164","id":39160159},"arcs":[331]},{"type":"MultiLineString","properties":{"kind":"major_road","network":"lt:national","sort_rank":380,"kind_detail":"primary","source":"openstreetmap.org","min_zoom":8.0,"shield_text":"193","ref":"193"},"arcs":[[332],[333],[334]]},{"type":"MultiLineString","properties":{"source":"openstreetmap.org","kind":"major_road","sort_rank":380,"kind_detail":"primary","ref":"141","min_zoom":8.0},"arcs":[[335],[336],[337],[338]]},{"type":"LineString","properties":{"kind":"minor_road","cycleway_left":"lane","sort_rank":360,"kind_detail":"unclassified","is_bicycle_related":true,"bicycle_shield_text":"R1","bicycle_network":"icn","source":"openstreetmap.org","min_zoom":8.0,"landuse_kind":"national_park"},"arcs":[339]},{"type":"MultiLineString","properties":{"source":"openstreetmap.org","kind":"ferry","name":"Klaip\u0117da \u2013 Juodkrant\u0117 \u2013 Nida","sort_rank":355,"is_bicycle_related":true,"min_zoom":8.0,"id":379321163},"arcs":[[340],[341],[342],[343]]},{"type":"LineString","properties":{"kind":"major_road","network":"lt:national","sort_rank":381,"kind_detail":"trunk","source":"openstreetmap.org","min_zoom":8.0,"landuse_kind":"urban_area","shield_text":"1","name:ru":"\u0448\u043e\u0441\u0441\u0435 \u0412\u0438\u043b\u043d\u044f\u0443\u0441","ref":"A1","id":446233300},"arcs":[344]},{"type":"LineString","properties":{"kind":"major_road","network":"lt:national","sort_rank":381,"kind_detail":"trunk","bus_network":"KenigAuto","source":"openstreetmap.org","min_zoom":8.0,"bus_shield_text":"217","shield_text":"12","ref":"A12;141","id":252796741},"arcs":[345]},{"type":"MultiLineString","properties":{"kind":"major_road","network":"lt:national","sort_rank":380,"kind_detail":"primary","source":"openstreetmap.org","min_zoom":8.0,"shield_text":"223","ref":"223"},"arcs":[[346],[347]]},{"type":"LineString","properties":{"bus_network":null,"network":"ru:regional","sort_rank":380,"kind_detail":"primary","kind":"major_road","source":"openstreetmap.org","min_zoom":8.0,"bus_shield_text":"543","shield_text":"27\u0410","ref":"27\u0410-033"},"arcs":[348]},{"type":"LineString","properties":{"kind":"major_road","network":"lt:regional","sort_rank":380,"kind_detail":"primary","source":"openstreetmap.org","min_zoom":8.0,"shield_text":"2254","ref":"2254","id":114687541},"arcs":[349]},{"type":"MultiLineString","properties":{"kind":"major_road","network":"lt:national","sort_rank":380,"kind_detail":"primary","source":"openstreetmap.org","min_zoom":8.0,"shield_text":"227","ref":"227"},"arcs":[[350],[351],[352],[353],[354],[355]]},{"type":"LineString","properties":{"kind":"major_road","sort_rank":380,"kind_detail":"primary","source":"openstreetmap.org","min_zoom":8.0,"landuse_kind":"urban_area","name:ru":"\u0443\u043b\u0438\u0446\u0430 \u0422\u0438\u043b\u0436\u0435\u0441","id":11970218},"arcs":[356]},{"type":"LineString","properties":{"kind":"major_road","network":"lt:national","sort_rank":380,"kind_detail":"primary","name:de":"Prinz-Joachim-Stra\u00dfe","source":"openstreetmap.org","min_zoom":8.0,"shield_text":"206","ref":"206","id":41109080},"arcs":[357]},{"type":"MultiLineString","properties":{"sort_rank":380,"kind_detail":"primary","min_zoom":8.0,"kind":"major_road","source":"openstreetmap.org"},"arcs":[[358],[359],[360],[361],[362],[363],[364],[365]]},{"type":"LineString","properties":{"source":"openstreetmap.org","kind":"major_road","sort_rank":380,"kind_detail":"primary","ref":"228","min_zoom":8.0},"arcs":[366]},{"type":"LineString","properties":{"kind":"major_road","network":"lt:regional","sort_rank":380,"kind_detail":"primary","official_name":"Jono Basanavi\u010diaus gatv\u0117","source":"openstreetmap.org","min_zoom":8.0,"shield_text":"4513","name:ru":"\u0443\u043b\u0438\u0446\u0430 \u042f. \u0411\u0430\u0441\u0430\u043d\u0430\u0432\u0438\u0447\u0438\u0430\u0443\u0441","ref":"4513"},"arcs":[367]},{"type":"MultiLineString","properties":{"kind":"major_road","network":"lt:national","sort_rank":381,"kind_detail":"trunk","source":"openstreetmap.org","min_zoom":8.0,"shield_text":"1","ref":"A1"},"arcs":[[368],[369]]},{"type":"MultiLineString","properties":{"kind":"major_road","network":"lt:regional","sort_rank":379,"kind_detail":"secondary","is_bicycle_related":true,"bicycle_shield_text":"LT5","bicycle_network":"ncn","source":"openstreetmap.org","min_zoom":8.0,"landuse_kind":"park","shield_text":"4205","ref":"4205"},"arcs":[[370],[371]]},{"type":"LineString","properties":{"kind":"ferry","name":"Klaip\u0117da \u2013 Juodkrant\u0117 \u2013 Nida","sort_rank":355,"landuse_kind":"urban_area","is_bicycle_related":true,"source":"openstreetmap.org","min_zoom":8.0,"id":379321163},"arcs":[372]},{"type":"LineString","properties":{"sort_rank":355,"source":"openstreetmap.org","min_zoom":8.0,"name":"Karlshamn - Klaip\u0117da","kind":"ferry"},"arcs":[373]},{"type":"LineString","properties":{"kind":"major_road","network":"lt:national","sort_rank":380,"kind_detail":"primary","bus_network":null,"source":"openstreetmap.org","min_zoom":8.0,"bus_shield_text":"239","shield_text":"167","name:ru":"\u0443\u043b\u0438\u0446\u0430 \u0410\u043b\u043a\u0441\u043d\u0438\u043d\u0435\u0441","landuse_kind":"national_park","ref":"167","id":170867482},"arcs":[374]},{"type":"LineString","properties":{"kind":"minor_road","sort_rank":360,"kind_detail":"residential","is_bicycle_related":true,"bicycle_shield_text":"LT5","bicycle_network":"ncn","source":"openstreetmap.org","min_zoom":8.0,"landuse_kind":"park","id":39498417},"arcs":[375]},{"type":"MultiLineString","properties":{"kind":"path","sort_rank":354,"kind_detail":"track","is_bicycle_related":true,"bicycle_shield_text":"LT5","bicycle_network":"ncn","source":"openstreetmap.org","min_zoom":8.0},"arcs":[[376],[377]]},{"type":"LineString","properties":{"kind":"major_road","network":"lt:regional","sort_rank":380,"kind_detail":"primary","source":"openstreetmap.org","min_zoom":8.0,"landuse_kind":"national_park","shield_text":"2254","ref":"2254"},"arcs":[378]},{"type":"LineString","properties":{"kind":"path","network":"lt:regional","sort_rank":354,"kind_detail":"track","is_bicycle_related":true,"bicycle_shield_text":"LT5","bicycle_network":"ncn","source":"openstreetmap.org","min_zoom":8.0,"all_networks":["lt:regional"],"landuse_kind":"park","shield_text":"4205","id":95208807,"all_shield_texts":["4205"]},"arcs":[379]},{"type":"MultiLineString","properties":{"kind":"major_road","network":"lt:national","sort_rank":380,"kind_detail":"primary","source":"openstreetmap.org","min_zoom":8.0,"landuse_kind":"residential","shield_text":"164","ref":"164","id":341107473},"arcs":[[380],[381]]},{"type":"MultiLineString","properties":{"bus_network":"KenigAuto","network":"ru:national","sort_rank":381,"kind_detail":"trunk","kind":"major_road","source":"openstreetmap.org","min_zoom":8.0,"bus_shield_text":"217","shield_text":"216","ref":"\u0410-216"},"arcs":[[382],[383],[384]]},{"type":"LineString","properties":{"kind":"major_road","network":"e-road","sort_rank":381,"kind_detail":"trunk","source":"openstreetmap.org","min_zoom":8.0,"shield_text":"77","ref":"A12","id":329454214},"arcs":[385]},{"type":"LineString","properties":{"kind":"path","sort_rank":354,"kind_detail":"footway","is_bicycle_related":true,"bicycle_shield_text":"R1","bicycle_network":"icn","source":"openstreetmap.org","min_zoom":8.0,"id":38495420},"arcs":[386]},{"type":"LineString","properties":{"kind":"major_road","network":"lt:regional","sort_rank":380,"kind_detail":"primary","is_bicycle_related":true,"bus_network":null,"source":"openstreetmap.org","min_zoom":8.0,"bus_shield_text":"384","shield_text":"2254","landuse_kind":"national_park","ref":"2254","id":114687542},"arcs":[387]},{"type":"MultiLineString","properties":{"source":"openstreetmap.org","kind":"major_road","landuse_kind":"urban_area","sort_rank":380,"kind_detail":"primary","min_zoom":8.0},"arcs":[[388],[389],[390],[391],[392],[393],[394],[395],[396],[397],[398],[399],[400],[401],[402],[403],[404],[405],[406],[407],[408],[409],[410],[411],[412],[413],[414],[415],[416],[417],[418],[419],[420],[421],[422],[423],[424],[425],[426],[427],[428],[429],[430],[431],[432],[433],[434],[435],[436],[437],[438]]},{"type":"LineString","properties":{"kind":"major_road","network":"lt:national","sort_rank":380,"kind_detail":"primary","source":"openstreetmap.org","min_zoom":8.0,"shield_text":"141","name:ru":"\u0443\u043b\u0438\u0446\u0430 \u0422\u0438\u043b\u0436\u0435\u0441","ref":"141"},"arcs":[439]},{"type":"LineString","properties":{"bus_network":"KenigAuto","network":"lt:national","sort_rank":380,"kind_detail":"primary","is_bicycle_related":true,"kind":"major_road","bicycle_shield_text":"LT2","bicycle_network":"rcn","source":"openstreetmap.org","min_zoom":8.0,"bus_shield_text":"217","shield_text":"141","name:ru":"\u0443\u043b\u0438\u0446\u0430 \u0420\u0430\u043c\u0431\u0438\u043d\u043e","ref":"141","id":194486634},"arcs":[440]},{"type":"LineString","properties":{"kind":"major_road","network":"lt:national","sort_rank":380,"kind_detail":"primary","is_bicycle_related":true,"source":"openstreetmap.org","min_zoom":8.0,"shield_text":"228","ref":"228","id":25746741},"arcs":[441]},{"type":"LineString","properties":{"kind":"ferry","name":"Karlshamn - Klaip\u0117da","sort_rank":355,"source":"openstreetmap.org","min_zoom":8.0,"ref":"Karlshamn - Klaip\u0117da","id":-1208201,"osm_relation":true},"arcs":[442]},{"type":"MultiLineString","properties":{"kind":"major_road","network":"lt:regional","sort_rank":379,"kind_detail":"secondary","is_bicycle_related":true,"bicycle_shield_text":"LT5","bicycle_network":"ncn","source":"openstreetmap.org","min_zoom":8.0,"shield_text":"2201","ref":"2201"},"arcs":[[443],[444]]},{"type":"LineString","properties":{"kind":"major_road","network":"lt:national","sort_rank":381,"kind_detail":"trunk","source":"openstreetmap.org","min_zoom":8.0,"landuse_kind":"urban_area","shield_text":"1","name:ru":"\u0448\u043e\u0441\u0441\u0435 \u0412\u0438\u043b\u044c\u043d\u044f\u0443\u0441","ref":"A1","id":175550348},"arcs":[445]},{"type":"LineString","properties":{"kind":"major_road","network":"lt:national","sort_rank":380,"kind_detail":"primary","source":"openstreetmap.org","min_zoom":8.0,"shield_text":"216","name:ru":"\u0448\u043e\u0441\u0441\u0435 \u041a\u0440\u0435\u0442\u0438\u043d\u0433\u043e\u0441","ref":"216","id":11010565},"arcs":[446]},{"type":"MultiLineString","properties":{"kind":"major_road","network":"lt:national","sort_rank":380,"kind_detail":"primary","source":"openstreetmap.org","min_zoom":8.0,"landuse_kind":"park","shield_text":"164","ref":"164"},"arcs":[[447],[448]]},{"type":"LineString","properties":{"kind":"major_road","network":"lt:national","sort_rank":380,"kind_detail":"primary","source":"openstreetmap.org","min_zoom":8.0,"shield_text":"165","name:ru":"\u0443\u043b\u0438\u0446\u0430 \u0414\u0430\u0440\u0438\u0430\u0443\u0441 \u0438 \u0413\u0438\u0440\u0435\u043d\u043e","ref":"165","id":215607578},"arcs":[449]},{"type":"MultiLineString","properties":{"kind":"major_road","network":"lt:national","sort_rank":381,"landuse_kind":"urban_area","source":"openstreetmap.org","min_zoom":8.0,"kind_detail":"trunk","shield_text":"13","name:ru":"\u0443\u043b\u0438\u0446\u0430 \u041f\u0430\u043b\u0430\u043d\u0433\u043e\u0441","ref":"A13"},"arcs":[[450],[451]]},{"type":"MultiLineString","properties":{"bus_network":null,"network":"lt:regional","sort_rank":380,"kind_detail":"primary","kind":"major_road","source":"openstreetmap.org","min_zoom":8.0,"bus_shield_text":"384","shield_text":"2254","landuse_kind":"national_park","ref":"2254"},"arcs":[[452],[453]]},{"type":"LineString","properties":{"source":"openstreetmap.org","kind":"ferry","name":"Klaip\u0117da \u2013 J\u016br\u0173 muziejus \u2013 Smiltyn\u0117","name:uk":"\u041a\u043b\u0430\u0439\u043f\u0435\u0434\u0430 - \u041c\u043e\u0440\u0441\u044c\u043a\u0438\u0439 \u043c\u0443\u0437\u0435\u0439 - \u0421\u043c\u0456\u043b\u044c\u0442\u0456\u043d","sort_rank":355,"min_zoom":8.0,"id":391435858},"arcs":[454]},{"type":"MultiLineString","properties":{"source":"openstreetmap.org","kind":"major_road","network":"lt:national","sort_rank":380,"kind_detail":"primary","min_zoom":8.0,"shield_text":"162"},"arcs":[[455],[456]]},{"type":"LineString","properties":{"kind":"path","sort_rank":354,"kind_detail":"footway","is_bicycle_related":true,"bicycle_shield_text":"R1","bicycle_network":"icn","source":"openstreetmap.org","min_zoom":8.0,"landuse_kind":"national_park","id":38495420},"arcs":[457]},{"type":"LineString","properties":{"kind":"major_road","network":"e-road","sort_rank":381,"kind_detail":"trunk","source":"openstreetmap.org","min_zoom":8.0,"shield_text":"272","ref":"A13","id":107702144},"arcs":[458]},{"type":"LineString","properties":{"kind":"major_road","sort_rank":380,"kind_detail":"primary","bus_network":null,"source":"openstreetmap.org","min_zoom":8.0,"bus_shield_text":"523","id":212431090},"arcs":[459]},{"type":"LineString","properties":{"kind":"major_road","network":"ru:regional","sort_rank":381,"kind_detail":"trunk","source":"openstreetmap.org","min_zoom":8.0,"shield_text":"27\u0410","ref":"27\u0410-004","id":539472335},"arcs":[460]},{"type":"MultiLineString","properties":{"kind":"path","sort_rank":354,"landuse_kind":"national_park","is_bicycle_related":true,"bicycle_shield_text":"R1","bicycle_network":"icn","source":"openstreetmap.org","min_zoom":8.0,"kind_detail":"cycleway"},"arcs":[[461],[462]]},{"type":"LineString","properties":{"kind":"path","sort_rank":354,"landuse_kind":"urban_area","is_bicycle_related":true,"bicycle_shield_text":"R1","bicycle_network":"icn","source":"openstreetmap.org","min_zoom":8.0,"kind_detail":"steps"},"arcs":[463]},{"type":"LineString","properties":{"kind":"major_road","network":"lt:national","sort_rank":381,"kind_detail":"trunk","bus_network":null,"source":"openstreetmap.org","min_zoom":8.0,"bus_shield_text":"231","shield_text":"12","ref":"A12;141","id":516499214},"arcs":[464]},{"type":"LineString","properties":{"kind":"ferry","name":"Kiel - Klaip\u0117da","sort_rank":355,"name:de":"Kiel - Memel","source":"openstreetmap.org","min_zoom":8.0,"ref":"Kiel - Klaip\u0117da","id":-1208198,"osm_relation":true},"arcs":[465]},{"type":"LineString","properties":{"kind":"major_road","network":"lt:national","sort_rank":380,"kind_detail":"primary","source":"openstreetmap.org","min_zoom":8.0,"shield_text":"147","name:ru":"\u0443\u043b\u0438\u0446\u0430 \u0411\u0430\u043b\u0442\u0440\u0443\u0448\u0430\u0438\u0447\u044e","ref":"147","id":27299285},"arcs":[466]},{"type":"LineString","properties":{"kind":"major_road","network":"lt:national","sort_rank":380,"kind_detail":"primary","source":"openstreetmap.org","min_zoom":8.0,"shield_text":"193","name:ru":"\u0443\u043b\u0438\u0446\u0430 \u0422\u0430\u0438\u043a\u043e\u0441","ref":"193","id":189100143},"arcs":[467]},{"type":"LineString","properties":{"kind":"major_road","network":"lt:national","sort_rank":380,"kind_detail":"primary","name:de":"Prinz-Joachim-Stra\u00dfe","source":"openstreetmap.org","min_zoom":8.0,"shield_text":"165","ref":"165","id":67301856},"arcs":[468]},{"type":"MultiLineString","properties":{"kind":"path","sort_rank":354,"landuse_kind":"urban_area","is_bicycle_related":true,"bicycle_shield_text":"R1","bicycle_network":"icn","source":"openstreetmap.org","min_zoom":8.0,"kind_detail":"path"},"arcs":[[469],[470],[471]]},{"type":"LineString","properties":{"kind":"major_road","name:lv":"Liep\u0101jas iela","network":"lt:national","sort_rank":380,"kind_detail":"primary","is_bicycle_related":true,"bicycle_shield_text":null,"bicycle_network":"icn","source":"openstreetmap.org","min_zoom":8.0,"landuse_kind":"urban_area","shield_text":"168","ref":"168","id":38495760},"arcs":[472]},{"type":"MultiLineString","properties":{"kind":"major_road","network":"lt:national","sort_rank":380,"kind_detail":"primary","source":"openstreetmap.org","min_zoom":8.0,"shield_text":"160","ref":"160"},"arcs":[[473],[474]]},{"type":"LineString","properties":{"kind":"major_road","network":"lt:national","sort_rank":380,"kind_detail":"primary","source":"openstreetmap.org","min_zoom":8.0,"shield_text":"141","name:ru":"\u0443\u043b\u0438\u0446\u0430 \u041a\u043b\u0430\u0439\u043f\u0435\u0434\u043e\u0441","ref":"141"},"arcs":[475]},{"type":"MultiLineString","properties":{"bus_network":null,"network":"lt:national","sort_rank":381,"landuse_kind":"residential","kind":"major_road","source":"openstreetmap.org","min_zoom":8.0,"bus_shield_text":"231","shield_text":"12","kind_detail":"trunk","ref":"A12"},"arcs":[[476],[477]]},{"type":"MultiLineString","properties":{"kind":"major_road","network":"lt:national","sort_rank":380,"kind_detail":"primary","source":"openstreetmap.org","min_zoom":8.0,"shield_text":"197","ref":"197"},"arcs":[[478],[479],[480],[481]]},{"type":"MultiLineString","properties":{"source":"openstreetmap.org","kind":"major_road","landuse_kind":"urban_area","sort_rank":380,"kind_detail":"primary","min_zoom":8.0,"name:ru":"\u043f\u0440\u043e\u0441\u043f\u0435\u043a\u0442 \u0422\u0430\u0438\u043a\u043e\u0441"},"arcs":[[482],[483],[484]]},{"type":"LineString","properties":{"kind":"major_road","sort_rank":380,"kind_detail":"primary","source":"openstreetmap.org","min_zoom":8.0,"landuse_kind":"urban_area","name:ru":"\u0443\u043b\u0438\u0446\u0430 \u041c\u0438\u043d\u0438\u0439\u043e\u0441","id":161424163},"arcs":[485]},{"type":"MultiLineString","properties":{"kind":"minor_road","sort_rank":360,"kind_detail":"residential","is_bicycle_related":true,"bicycle_shield_text":"LT5","bicycle_network":"ncn","source":"openstreetmap.org","min_zoom":8.0},"arcs":[[486],[487],[488],[489],[490]]},{"type":"MultiLineString","properties":{"kind":"major_road","network":"lt:national","sort_rank":380,"kind_detail":"primary","source":"openstreetmap.org","min_zoom":8.0,"shield_text":"147","ref":"147"},"arcs":[[491],[492],[493],[494],[495],[496]]},{"type":"MultiLineString","properties":{"source":"openstreetmap.org","kind":"major_road","sort_rank":380,"kind_detail":"primary","ref":"165","min_zoom":8.0},"arcs":[[497],[498]]}]},"earth":{"type":"GeometryCollection","geometries":[{"type":"MultiPolygon","properties":{"sort_rank":10,"source":"naturalearthdata.com","kind":"earth","min_zoom":0.0,"id":4768},"arcs":[[[499]],[[500]],[[501]]]}]},"landuse":{"type":"GeometryCollection","geometries":[{"type":"Polygon","properties":{"kind":"national_park","protect_class":"2","area":870449024,"sort_rank":18,"source":"openstreetmap.org","min_zoom":3.0,"tier":1,"id":-963625,"osm_relation":true},"arcs":[[502]]},{"type":"MultiPolygon","properties":{"source":"openstreetmap.org","kind":"protected_area","tier":2,"area":94347331,"sort_rank":17,"min_zoom":8.0,"osm_relation":true},"arcs":[[[503]],[[504]],[[505]],[[506]]]},{"type":"Polygon","properties":{"kind":"residential","name":"\u0421\u043e\u0432\u0435\u0442\u0441\u043a","name:lt":"Sovietskas (Til\u017e\u0117)","area":75917000,"sort_rank":20,"alt_name:pl":"Tyl\u017ca","name:de":"Sowetsk (Tilsit)","source":"openstreetmap.org","min_zoom":8.0,"name:eo":"Sovetsk","tier":2,"name:pl":"Sowieck (Tyl\u017ca)","id":-3616563,"osm_relation":true},"arcs":[[507]]},{"type":"Polygon","properties":{"kind":"residential","area":20762900,"sort_rank":20,"source":"openstreetmap.org","min_zoom":8.0,"tier":2,"id":-4465703,"osm_relation":true},"arcs":[[508],[509],[510],[511],[512],[513]]},{"type":"MultiPolygon","properties":{"kind":"park","protect_class":"4","area":1800982296,"sort_rank":24,"source":"openstreetmap.org","min_zoom":6.0,"tier":2,"osm_relation":true},"arcs":[[[514]],[[515]],[[516]]]},{"type":"MultiPolygon","properties":{"source":"naturalearthdata.com","kind":"urban_area","name":"","area":595000829,"sort_rank":11,"min_zoom":4.0},"arcs":[[[517]]]},{"type":"Polygon","properties":{"kind":"park","protect_class":"4","area":95532496,"sort_rank":24,"source":"openstreetmap.org","min_zoom":8.0,"tier":2,"id":-935244,"osm_relation":true},"arcs":[[518]]},{"type":"Polygon","properties":{"kind":"protected_area","protect_class":"5","area":16373100,"sort_rank":17,"source":"openstreetmap.org","min_zoom":8.0,"tier":2,"id":-1359858,"osm_relation":true},"arcs":[[519]]}]}},"type":"Topology","transform":{"translate":[21.09375,54.9776136707],"scale":[0.0003433228,0.0001950584]},"arcs":[[[0,1433],[13,-4],[503,-58],[330,249],[137,-212],[53,-158],[113,-105],[39,-72],[39,-8],[73,56],[88,10],[71,-53],[159,-36],[176,-152],[38,-93],[161,-70],[111,-4],[94,-109],[90,-19],[108,-65],[143,-36],[94,65],[101,-13],[24,-38],[-29,-109],[18,-66],[113,-90],[131,14],[38,96],[69,46],[83,-9],[259,53],[439,-52],[106,-47],[111,29]],[[4096,3353],[-69,30],[4,120],[-33,62]],[[3998,3565],[-57,-44],[-94,30],[-76,-15],[-45,-41],[-121,88],[-38,-11],[-22,22],[-28,-59],[-120,111],[-34,-43],[-275,-47],[8,-22],[-77,-29],[-20,-52],[-85,47],[-62,-23],[-27,-38],[24,-50],[-81,-68],[-1,-62],[-50,-21],[12,-13],[-172,30],[-266,-80]],[[2291,3175],[-34,-49],[40,-26],[-11,-14],[-61,-42],[-20,15],[-26,-29],[-19,9],[-78,-109],[79,-18],[-41,-140],[43,-121],[41,24],[48,-171],[15,-220],[138,67],[151,-68],[84,8],[8,-88],[36,29],[20,-17],[-35,-58],[43,-24],[-13,-45],[-63,-156],[-67,-59],[-67,-19],[-5,-62],[-159,-200],[-35,43],[-36,-13],[-52,-85],[-14,-38],[35,-104],[62,-58],[-48,-181],[-157,53],[21,31],[-81,52],[-36,-29],[-90,23],[-53,-32],[22,-29],[-22,-21],[-113,-4],[-28,-63],[-41,1],[-18,-61],[21,-30],[-55,-7]],[[1620,1040],[174,-150],[34,-90],[165,-73],[111,-4],[101,-113],[330,-117],[98,66],[109,-18],[14,-70],[-27,-78],[18,-60],[113,-90],[131,14],[38,96],[69,46],[83,-9],[259,53],[439,-52],[106,-47],[111,29]],[[4096,3655],[-53,1],[-45,-91]],[[4087,4096],[9,-9]],[[1548,4096],[14,-26],[29,4],[-5,-22],[-31,0],[-8,-68],[27,-18],[58,-10],[36,62],[136,-64],[27,31],[36,-25],[20,47],[63,-49],[-8,-65],[24,-37],[-32,-20],[-19,-69],[150,-122],[-34,-27],[0,-69],[-28,-42],[51,-74],[-48,4],[73,-55],[10,-100],[96,1],[-7,-28],[113,-80]],[[0,1433],[13,-4],[503,-58],[325,251],[142,-214],[53,-158],[113,-105],[35,-70],[43,-10],[73,56],[91,9],[68,-52],[161,-38]],[[32,4096],[-28,-28],[13,-144],[53,-98],[100,-22]],[[1681,0],[14,192],[-90,313],[84,35],[183,-52],[70,13],[129,-33],[115,16],[47,-33],[72,122]],[[0,3871],[16,-19],[121,-209],[19,-51],[8,-97],[22,-90],[109,-291],[9,-53],[-1,-38],[-5,-40],[-3,-63],[13,-49],[28,-41],[27,-31],[13,-17],[4,-40],[36,-153],[34,-207],[0,-125],[-45,-56],[-25,-39],[-111,-257],[-8,-4],[0,-11],[16,-39],[168,162],[31,-5],[-2,-116],[9,-53],[23,-23],[20,-23],[24,-54],[19,-59],[6,-42],[-17,-52],[-21,-2],[-21,7],[-19,-20],[0,-38],[14,-118],[-5,-25],[14,-25],[3,-58],[-6,-63],[-11,-44],[-25,-34],[-29,-18],[-35,-5],[-41,5],[-18,19],[-19,32],[-25,15],[-37,-31],[-16,-34],[-6,-43],[0,-114],[6,-13],[24,-110],[1,-19],[9,-41],[71,-626],[49,-167],[4,-16],[-419,0],[0,2228],[36,46],[0,32],[-36,46],[0,110],[43,78],[33,84],[0,193],[7,61],[27,86],[6,64],[-6,448],[-41,226],[-69,87],[0,82]],[[0,3324],[16,-67],[-15,-48],[15,-25],[-16,-78],[0,218]],[[0,3106],[16,78],[-15,25],[15,48],[-16,67]],[[0,3789],[69,-87],[41,-226],[6,-448],[-6,-64],[-27,-86],[-7,-61],[0,-193],[-33,-84],[-43,-78]],[[0,2352],[36,-46],[0,-32],[-36,-46]],[[419,0],[-4,16],[-49,167],[-71,626],[-9,41],[-1,19],[-24,110],[-6,13],[0,114],[6,43],[16,34],[37,31],[25,-15],[19,-32],[18,-19],[41,-5],[35,5],[29,18],[25,34],[11,44],[6,63],[-3,58],[-14,25],[5,25],[-14,118],[0,38],[19,20],[21,-7],[21,2],[17,52],[-6,42],[-19,59],[-24,54],[-20,23],[-23,23],[-9,53],[2,116],[-31,5],[-168,-162],[-16,39],[0,11],[8,4],[111,257],[25,39],[45,56],[0,125],[-34,207],[-36,153],[-4,40],[-13,17],[-27,31],[-28,41],[-13,49],[3,63],[5,40],[1,38],[-9,53],[-109,291],[-22,90],[-8,97],[-19,51],[-121,209],[-16,19]],[[1044,1768],[-196,-107]],[[2366,821],[39,-54]],[[2509,494],[-15,-75],[-59,-73],[-123,-94],[-173,-36]],[[576,1871],[5,10]],[[655,1767],[-74,89]],[[92,3865],[1,0]],[[345,3654],[-4,8]],[[148,3488],[-14,96],[-88,213],[-34,15]],[[197,3834],[-23,-23],[-15,-19]],[[176,3812],[22,21]],[[242,3852],[-41,-17]],[[201,3834],[41,18]],[[650,1852],[-14,-49],[44,-77]],[[92,3813],[-2,7]],[[11,4021],[-5,33]],[[3223,2652],[6,26]],[[1226,1816],[89,-163],[108,-86],[129,-162],[259,-142],[85,-92]],[[2122,1017],[209,-161]],[[2405,767],[79,-34]],[[338,3520],[6,17]],[[2731,1704],[30,-31]],[[85,3732],[11,6]],[[125,4096],[-21,-85]],[[106,4011],[20,85]],[[71,3796],[3,4]],[[3215,2599]],[[3321,3291]],[[3322,3290],[0,1]],[[3220,2619],[-1,0],[1,0]],[[814,1652],[-31,8]],[[120,3726],[-2,2]],[[2513,2920],[29,16]],[[2859,220],[122,-22],[290,-198]],[[66,3707],[-11,25]],[[1131,1881],[44,-11]],[[87,2907],[-27,-143],[-29,-23]],[[3,4066],[-1,16]],[[106,3365],[0,-4]],[[1039,3785],[15,6]],[[1472,4096],[-148,-63],[-200,-235]],[[286,1927],[-286,-139]],[[833,1662],[15,-1]],[[1053,1774],[-9,-6]],[[3579,1369],[-37,-13]],[[783,1660],[-49,17]],[[477,2200],[82,-44]],[[996,1893],[-151,60],[-65,139],[-46,29],[-97,40],[-72,-8]],[[3208,2658],[-23,-30]],[[474,2818],[-24,54]],[[451,2873],[196,69]],[[458,2647],[18,37],[-33,103],[32,27]],[[84,3731],[1,5]],[[131,3645],[-5,4]],[[765,2899],[23,64]],[[85,3736],[-6,5]],[[420,2771],[-24,-11],[-305,129]],[[3716,3942],[6,-22]],[[91,2889],[-8,3]],[[88,3737],[13,11]],[[2310,521],[-8,-24]],[[3470,3328]],[[3722,3920],[16,-99],[-68,-57],[-41,-211],[-125,-184]],[[3653,4096],[-10,-28]],[[3689,3986],[27,-44]],[[116,3754],[-2,4]],[[101,3875],[2,6]],[[90,3815],[3,0]],[[90,3815],[-6,-5],[3,2],[3,3]],[[93,3815],[3,-1],[9,-2],[-7,3],[-5,0]],[[3143,2604],[0,-1]],[[3146,2606],[-2,-2]],[[3144,2604],[1,1]],[[2435,3837],[0,-1]],[[2440,3799],[44,-123]],[[0,2001],[45,129]],[[82,2255],[-47,131],[34,127]],[[92,2714],[7,197]],[[128,2953],[34,302],[-34,149]],[[201,3835],[-4,-1]],[[198,3833],[3,1]],[[783,3660],[0,7]],[[2251,1988],[142,-126],[117,7],[97,-145],[124,-20]],[[2761,1673],[137,-120]],[[2913,1537],[1,0]],[[2930,1517],[102,-128],[218,-92]],[[1981,42],[-33,-42]],[[6,4054],[-1,12]],[[2898,1553],[15,-16]],[[2914,1537],[16,-20]],[[1062,1854],[-6,-79]],[[3504,3369],[-34,-41]],[[2359,536],[-1,2]],[[91,3815],[7,-16]],[[2497,751],[-4,-7]],[[2493,744],[4,7]],[[2497,751],[99,140],[334,173],[321,232]],[[3252,1297],[67,35]],[[3455,1399],[8,6]],[[3532,1471],[12,12]],[[3564,1502],[9,9]],[[3574,1513],[60,60]],[[3706,1644],[390,390]],[[2725,311],[7,-10]],[[192,3634],[4,3]],[[2244,1979],[25,42]],[[1056,1775],[-3,-1]],[[1066,1863],[-4,-9]],[[2308,530],[4,17]],[[680,1726],[54,-49]],[[0,1732],[345,89]],[[3573,1511],[1,2]],[[2381,4096],[6,-117],[48,-142]],[[2435,3836],[5,-32]],[[2484,3676],[85,-200],[-16,-335],[89,-166]],[[2642,2975],[0,-1]],[[2643,2974],[-1,1]],[[2643,2973],[0,-1],[0,1]],[[2661,2947],[215,-234],[102,-63],[163,-46]],[[3212,2597],[-66,6]],[[3212,2597],[2,1]],[[3214,2599],[-2,-2]],[[3214,2598],[2,-2]],[[3216,2596],[-1,2]],[[3216,2596],[63,-107]],[[3323,1971],[6,-9]],[[3429,1881],[93,-282]],[[3490,1550],[0,-55]],[[3491,1451],[0,-4]],[[2642,2973],[1,0],[0,1],[-1,0],[0,-1]],[[3144,2604],[-1,0],[0,-1],[1,0],[0,1]],[[3215,2598],[0,1],[-1,0],[0,-1],[1,0]],[[89,2914],[-2,-7]],[[1054,3791],[70,7]],[[316,3727],[-49,136]],[[267,3861],[49,-135]],[[334,3708],[-14,9]],[[1066,1876],[-70,17]],[[1118,1880],[13,1]],[[3143,2604]],[[3144,2603],[0,1]],[[2440,3801],[0,-1],[1,1],[-1,1],[0,-1]],[[659,2959],[2,-4]],[[425,3449],[-3,2]],[[432,3447],[-4,1]],[[827,1661],[6,1]],[[111,3763],[-1,4]],[[241,3420],[15,5]],[[2361,533],[-2,3]],[[256,3416],[9,18]],[[1529,2765],[5,2]],[[101,3748],[13,10]],[[2371,524],[-10,9]],[[2472,453],[-32,36]],[[110,3767],[-12,32]],[[160,3791]],[[160,3787],[1,-24]],[[827,4096],[16,-241]],[[319,1943],[-33,-16]],[[126,3716],[1,0]],[[345,1821],[229,60]],[[553,1955],[16,-69]],[[2513,513],[-71,62],[-14,50]],[[566,3790],[193,-23]],[[762,3768],[16,0]],[[893,3755],[146,30]],[[1896,1171],[226,-154]],[[2352,840],[14,-19]],[[3142,1208],[2,2]],[[3250,1296],[-1,-1]],[[3253,1298],[-2,-1]],[[814,1652],[8,7]],[[486,2511],[-28,136]],[[579,3129],[60,-105]],[[2302,497],[-74,-140]],[[2310,521],[-2,9]],[[2361,536],[-49,11]],[[2362,538],[-1,-2]],[[2361,533],[0,3]],[[85,3832],[6,-17]],[[2487,733],[0,-1]],[[126,3649],[-48,43],[6,39]],[[2366,544],[6,10]],[[1209,1878],[6,4]],[[1221,1884],[426,31],[134,43]],[[1827,1928],[94,26],[245,-11],[78,36]],[[2269,2021],[52,123],[91,40],[83,-30],[98,26],[45,173],[102,85],[89,11],[85,104],[92,25],[83,-9],[52,33]],[[3146,2606],[21,26]],[[3237,2690],[-29,-32]],[[271,3606],[-23,57]],[[85,3832],[1,16]],[[86,3850],[3,12]],[[2513,513],[-2,-10]],[[2372,554],[8,9]],[[2331,856],[21,-16]],[[114,3758],[-3,5]],[[569,3621],[-2,1]],[[573,3620],[2,0]],[[256,3425],[3,0]],[[131,3645]],[[131,3644],[1,0]],[[137,3642]],[[3249,1298],[1,-1]],[[3522,1599],[-32,-49]],[[2,4082],[2,3]],[[2372,554],[112,174]],[[2484,728],[4,6]],[[2487,732],[-3,-4]],[[88,3881],[-29,114],[-48,26]],[[2732,301],[25,-20]],[[3170,2633],[11,-6]],[[1175,1870],[34,8]],[[2493,743],[3,0]],[[3011,721],[1,0],[-1,0]],[[3017,724],[1,0],[0,1],[-1,-1]],[[3216,2600],[3,18]],[[3220,2619],[3,33]],[[3229,2678],[67,93]],[[3297,2776],[-19,192],[77,166],[-31,155]],[[3324,3289],[-3,3],[0,-1],[1,-1],[2,-1]],[[3296,2774],[1,-2],[1,1],[0,1],[-2,0]],[[20,2882],[-13,-89]],[[3319,1332],[136,67]],[[3634,1573],[72,71]],[[4,4085],[-4,5]],[[478,2204],[-142,-246]],[[2643,692],[-64,49],[-86,3]],[[3011,721],[-218,-47]],[[3012,721],[5,3]],[[4096,476],[-301,-21],[-30,77],[-208,113],[-351,-21],[-134,95],[-54,5]],[[827,1683],[-5,-24]],[[93,3865],[-5,16]],[[81,3737],[-50,46]],[[31,2741],[-31,-120]],[[66,3707],[5,-284],[35,-58]],[[107,3361],[-18,-447]],[[336,1958],[-46,-74]],[[245,3661],[33,-74],[60,-67]],[[344,3537],[-73,69]],[[3168,2634],[1,0]],[[93,3865],[2,3]],[[95,3868],[6,7]],[[95,3868],[11,57]],[[104,4011],[2,-86]],[[106,3925],[0,86]],[[99,3744],[-18,-7]],[[289,3807],[72,8],[184,281]],[[422,3451],[-71,79]],[[428,3448],[-3,1]],[[432,3447],[153,-43]],[[2362,538],[4,6]],[[382,3725],[8,3]],[[105,3812],[29,-7]],[[160,3794],[0,-3]],[[3541,3144],[-85,71]],[[822,1659],[5,2]],[[2440,489],[-69,35]],[[86,3848],[0,2]],[[341,3662],[-14,33]],[[427,3447],[-82,207]],[[427,3447],[132,-292]],[[559,3155],[229,-192]],[[765,2899],[131,-134]],[[1056,2529],[95,-90],[-58,-403],[98,-83],[26,-66]],[[1219,1883],[-1,1],[-1,0],[0,-1],[2,0]],[[1219,1883],[8,-64]],[[2487,733],[-3,0]],[[323,3698],[-5,8]],[[3574,1513],[-1,-2]],[[396,3731],[-6,-2]],[[12,3812],[-12,5]],[[267,3863],[-39,107]],[[228,3968],[39,-107]],[[3962,2985],[-35,12]],[[178,4096],[41,-106]],[[223,3982],[-44,114]],[[3521,1373],[-30,56]],[[5,4066],[-2,0]],[[581,1881],[175,-11],[63,-61],[8,-126]],[[107,3631],[-1,-2]],[[106,3628],[2,2]],[[69,3792],[2,4]],[[258,3859],[-16,-7]],[[242,3852],[16,7]],[[268,3865],[-10,-6]],[[12,3812],[-12,5]],[[390,3728],[452,143],[269,-118],[322,-20],[64,-17]],[[1497,3716],[154,-40],[80,-35]],[[1731,3641],[8,-3],[136,-107],[210,-94],[183,-21],[365,-126],[272,-72],[285,-206],[187,-55],[275,-128],[138,-94],[306,-79]],[[4096,2657],[-306,79],[-135,93],[-278,129],[-186,55],[-132,110],[-154,96],[-271,72],[-65,35],[-300,91],[-25,4],[-157,17],[-211,94],[-137,107],[-8,2]],[[1731,3641],[-234,75]],[[1497,3716],[-48,15],[-29,4],[-309,19],[-182,96],[-84,21],[-14,1],[-239,-71],[-196,-70]],[[1729,324],[75,-109],[177,-173]],[[3738,3821],[86,13]],[[3886,3851],[19,19]],[[318,3706],[5,-8]],[[3321,3292],[5,14]],[[2763,285],[-38,26]],[[2757,281],[6,4]],[[2763,285],[96,-65],[14,-220]],[[2359,536],[2,-3]],[[146,3719],[41,-83]],[[190,3637],[-44,82]],[[243,3664],[-53,-27]],[[196,3637],[49,24]],[[243,3664],[3,-3],[2,3],[-2,2],[-3,-2]],[[320,3702],[-74,-36]],[[262,3672],[58,30]],[[192,3636],[-4,1],[-1,-4],[4,-1],[1,4]],[[2493,744],[-6,-11]],[[116,3754],[-19,-16]],[[104,3801],[-6,-2]],[[98,3796],[6,5]],[[105,3812],[-1,-11]],[[112,3853],[-5,-35]],[[2643,2972],[18,-25]],[[1096,2493],[279,82],[155,192],[28,-55],[349,-43],[114,52],[133,116],[359,83]],[[2542,2936],[85,31]],[[2642,2973]],[[324,3697],[4,1]],[[1094,2036],[-1,3]],[[1095,2034],[-1,1]],[[2493,743]],[[20,2882],[0,32]],[[45,2130],[37,125]],[[69,2513],[23,201]],[[128,3404],[-18,76],[15,111],[-40,138]],[[99,2911],[29,42]],[[260,3671],[2,1]],[[2488,734],[5,9]],[[3824,3834],[62,17]],[[3905,3870],[86,87],[105,2]],[[2725,311],[-218,95],[-35,47]],[[107,3629],[-1,0]],[[330,3699],[2,1]],[[332,3700],[-1,1]],[[332,3700],[119,-57],[116,-21]],[[569,3621],[4,-1]],[[575,3620],[199,-34],[9,74]],[[783,3667],[-5,101]],[[170,3727],[19,1]],[[1066,1863],[1,1]],[[70,3791],[-1,1]],[[162,3451],[13,-36]],[[175,3415],[17,-3]],[[192,3412],[-17,3]],[[259,3425],[56,-7]],[[336,3516],[3,1]],[[349,3532],[-8,-4]],[[2643,2973],[0,1]],[[759,3767],[3,1]],[[3181,2627],[2,0]],[[390,3729],[-51,-19],[-19,-8]],[[320,3702],[62,23]],[[662,1873],[-12,-21]],[[680,1726]],[[85,3729],[5,8]],[[130,3621],[-83,177],[-47,32]],[[107,3361],[-1,4]],[[290,1884],[-9,-20]],[[501,2310],[16,70],[-31,131]],[[584,3338],[1,28]],[[105,3628],[1,1]],[[668,1870],[-6,3]],[[3490,1495],[1,-44]],[[3491,1447],[0,-18]],[[2137,215],[-156,-173]],[[2138,217],[-1,-2]],[[2228,357],[-90,-140]],[[3251,1297],[-1,-1],[1,0],[1,1],[-1,0]],[[54,3730],[2,3]],[[106,3629],[-2,-10]],[[118,3728],[-48,63]],[[74,3800],[10,10]],[[128,3689],[-8,37]],[[127,3716],[43,11]],[[148,3649],[-17,-4]],[[132,3644],[17,5]],[[134,3805],[26,-11]],[[159,3619],[-1,2]],[[160,3791],[16,21]],[[160,3624],[0,-3]],[[187,3635],[-7,-5],[-18,-8]],[[162,3622],[-1,-1]],[[161,3621],[-1,0]],[[160,3621],[2,-1]],[[160,3791],[0,-4]],[[161,3763],[2,-5]],[[162,3620],[1,0]],[[163,3620],[20,11],[5,1]],[[166,3611],[-3,9]],[[163,3620],[-1,2]],[[162,3622],[-20,43],[19,-44]],[[161,3621],[1,-1]],[[162,3620],[4,-9]],[[172,3753],[-9,5]],[[197,3536],[-8,18]],[[189,3554],[-1,1]],[[188,3555],[-1,3],[-21,53]],[[172,3753],[12,-11]],[[175,3811],[-86,51],[86,-52]],[[184,3742],[9,-12]],[[195,3731],[-11,11]],[[219,3566],[-31,-11]],[[188,3555]],[[189,3554]],[[189,3554],[31,10]],[[189,3632],[30,-66]],[[192,3412],[15,-3],[34,11],[-49,-8]],[[222,3567],[-30,66]],[[195,3727],[48,-63]],[[201,3528],[-4,8]],[[198,3728],[-2,3],[-3,-1],[2,-3]],[[195,3727],[3,1]],[[246,3666],[-48,62]],[[229,3473],[-28,55]],[[278,3588],[-55,-21]],[[223,3564],[26,-77]],[[223,3565],[56,23]],[[229,3473],[27,10],[80,33]],[[341,3528],[-112,-55]],[[134,3642],[3,0]],[[221,3567],[-2,-1],[2,-3],[2,2],[-2,2]],[[985,2610],[18,-49],[53,-32]],[[2793,674],[-150,18]],[[778,3768],[115,-13]],[[130,3621],[-83,177],[-47,32]],[[503,2296],[-25,-92]],[[655,2954],[-8,-12]],[[248,3663],[12,8]],[[843,3855],[7,-85]],[[3279,2489],[20,-215],[-22,-243],[46,-60]],[[3329,1962],[100,-81]],[[1781,1958],[46,-30]],[[219,3990],[9,-22]],[[228,3970],[-5,12]],[[56,3595],[50,33]],[[106,3629]],[[79,3741],[-48,41],[25,-49]],[[3297,2774]],[[3297,2772]],[[25,3693],[29,37]],[[320,3717],[-4,10]],[[1718,346],[11,-22]],[[2511,503],[-2,-9]],[[7,2793],[-7,-37]],[[25,3693],[17,-283],[30,0],[17,-133],[-25,-42],[-5,-244],[-32,-7],[-7,-70]],[[116,3754]],[[2493,743],[0,1]],[[148,3488],[-14,96],[-88,213],[-34,15]],[[3728,1255],[-11,33]],[[2627,2967],[14,6]],[[1067,1864],[51,16]],[[92,3864],[20,-11]],[[97,3738],[-1,0]],[[107,3820],[-3,-9]],[[89,3862],[3,3]],[[3470,3328],[-93,-54]],[[3643,4068],[46,-82]],[[896,2765],[89,-155]],[[3463,1405],[69,66]],[[3544,1483],[20,19]],[[1124,3798],[296,-62],[360,-33],[305,14],[352,85]],[[3456,3215],[-110,82],[-485,229],[-338,263],[-80,12]],[[3927,2997],[-165,30],[-221,117]],[[4096,2871],[-134,114]],[[220,3563],[18,-45]],[[253,3476],[-4,11]],[[265,3434],[-12,42]],[[142,3665],[-14,24]],[[503,2296],[-2,14]],[[559,3161],[16,76]],[[570,3137],[-2,26]],[[585,3366],[0,38]],[[639,3024],[20,-65]],[[3521,1373],[21,-17]],[[3657,1355],[-78,14]],[[3717,1288],[-59,66]],[[4096,968],[-82,81],[-167,58],[-119,148]],[[3658,1356],[-1,-1]],[[3657,1355],[1,-1],[1,1],[-1,1]],[[3168,2634]],[[3185,2628],[-4,-1]],[[0,3106],[16,78],[-15,25],[15,48],[-16,67],[0,465],[69,-87],[41,-226],[6,-448],[-6,-64],[-27,-86],[-7,-61],[0,-193],[-33,-84],[-43,-78],[0,644]],[[0,2352],[36,-46],[0,-32],[-36,-46],[0,124]],[[419,0],[-4,16],[-49,167],[-71,626],[-9,41],[-1,19],[-24,110],[-6,13],[0,114],[6,43],[16,34],[37,31],[25,-15],[19,-32],[18,-19],[41,-5],[35,5],[29,18],[25,34],[11,44],[6,63],[-3,58],[-14,25],[5,25],[-14,118],[0,38],[19,20],[21,-7],[21,2],[17,52],[-6,42],[-19,59],[-24,54],[-20,23],[-23,23],[-9,53],[2,116],[-31,5],[-168,-162],[-16,39],[0,11],[8,4],[111,257],[25,39],[45,56],[0,125],[-34,207],[-36,153],[-4,40],[-13,17],[-27,31],[-28,41],[-13,49],[3,63],[5,40],[1,38],[-9,53],[-109,291],[-22,90],[-8,97],[-19,51],[-121,209],[-16,19],[0,225],[4096,0],[0,-4096],[-3677,0]],[[0,3817],[10,0],[113,-222],[-17,-121],[61,-193],[-17,-297],[-59,-84],[1,-276],[-50,-247],[42,-112],[-84,-292],[0,1844]],[[0,2398],[0,365],[68,-28],[3,-120],[-71,-217]],[[0,2315],[0,11],[3,-12],[-3,1]],[[1920,3787],[14,49],[81,69],[37,-23],[60,30],[-7,-132],[-73,-18],[-17,39],[-95,-14]],[[1716,3919],[33,61],[76,-40],[17,-17],[-22,-97],[-21,41],[-83,52]],[[2112,557],[3,28],[41,21],[135,-19],[162,-92],[21,-40],[-74,-59],[-41,20],[-24,74],[-23,-30],[21,-99],[-48,-45],[-67,48],[-11,91],[25,20],[-115,2],[-5,80]],[[3402,1305],[24,34],[39,19],[-1,45],[-39,54],[87,51],[2,23],[18,-21],[28,18],[7,-49],[-50,8],[25,-25],[-29,-20],[30,4],[-19,-71],[-81,-36],[16,-13],[-21,-23],[-36,2]],[[3489,1449],[3,-4],[10,5],[-6,7],[-7,-8]],[[3510,1458],[6,-3],[6,9],[-7,5],[-5,-11]],[[3452,1444],[4,-4],[6,4],[-5,4],[-5,-4]],[[3503,1464],[4,-3],[9,11],[-3,3],[-10,-11]],[[3497,1459],[11,-11],[5,5],[-11,10],[-5,-4]],[[256,1863],[177,373],[81,-58],[87,111],[223,-60],[73,18],[-15,42],[28,-36],[71,37],[-20,-39],[35,-35],[-2,-58],[70,-11],[-1,-42],[-102,-185],[35,-27],[2,-89],[55,-30],[-40,-34],[76,-122],[-23,-24],[7,-66],[45,-13],[35,-55],[25,21],[18,-22],[64,10],[102,-101],[-1,-27],[104,-12],[-43,-6],[-6,-27],[31,-24],[-36,-42],[2,-74],[95,-81],[-137,56],[-71,-10],[-73,-56],[-43,10],[-35,70],[-113,105],[-53,158],[-142,214],[-146,-96],[-110,-121],[-69,-34],[-61,8],[24,60],[-28,103],[85,124],[-53,90],[-227,107]],[[2947,1945],[76,43],[57,-6],[-38,37],[17,-8],[49,105],[-27,12],[37,149],[79,-7],[23,61],[72,1],[-14,168],[33,13],[-12,-20],[47,-15],[-11,41],[44,7],[19,57],[76,16],[4,43],[41,-26],[19,-30],[-63,-30],[40,-23],[-37,-105],[13,-19],[-51,26],[-55,-12],[18,-19],[-20,-28],[29,-23],[-12,-28],[-46,7],[7,-25],[-19,-1],[23,-12],[2,-60],[36,0],[-57,-54],[-19,-141],[39,29],[-45,-100],[113,-90],[-12,-56],[88,-149],[-101,-39],[6,-26],[-44,-16],[47,-108],[-25,-43],[-88,78],[32,54],[-23,79],[-76,31],[-68,-42],[-14,41],[-182,-5],[-27,268]],[[3334,3551],[104,168],[-42,36],[-12,88],[63,-31],[10,60],[88,20],[13,-26],[106,91],[40,-2],[-56,115],[-63,-16],[-12,42],[523,0],[0,-71],[-50,0],[-158,-173],[-64,-18],[28,-42],[-1,-69],[-29,-10],[25,-48],[-104,-91],[-1,-35],[24,-3],[-97,-85],[18,-44],[-24,-30],[48,-19],[54,43],[-35,28],[31,20],[35,-33],[66,-6],[16,-51],[-57,-74],[-36,16],[-39,-54],[-49,-17],[-10,21],[-30,-23],[-2,-99],[-96,18],[-26,110],[-57,19],[27,46],[-102,18],[-27,31],[41,88],[-68,48],[-13,44]],[[201,3365],[-45,227],[-91,175],[34,167],[-33,162],[160,0],[3,-219],[115,-220],[15,-79],[-25,-67],[-133,-146]],[[3919,3555],[48,27],[24,55],[-14,47],[37,27],[-26,75],[29,66],[-18,45],[37,23],[19,-32],[41,38],[-17,-116],[17,-188],[-110,-138],[-32,4],[-35,67]],[[2055,2746],[65,26],[59,-9],[20,-69],[37,-3],[-73,-40],[-86,45],[-22,50]]]}