{"objects":{"water":{"type":"GeometryCollection","geometries":[]},"buildings":{"type":"GeometryCollection","geometries":[]},"places":{"type":"GeometryCollection","geometries":[{"type":"Point","properties":{"name:pt":"Subcarp\u00e1cia","name:sk":"Podkarpatsk\u00e9","name:ja":"\u30dd\u30c8\u30ab\u30eb\u30d1\u30c1\u30a7\u770c","name:lt":"Pakarpat\u0117s vaivadija","name:ar":"\u0645\u062d\u0627\u0641\u0638\u0629 \u0633\u0648\u0628\u0643\u0627\u0631\u0628\u0627\u062a\u064a\u0627","kind":"region","min_zoom":4.0,"name:uk":"\u041f\u0456\u0434\u043a\u0430\u0440\u043f\u0430\u0442\u0441\u044c\u043a\u0435 \u0432\u043e\u0454\u0432\u043e\u0434\u0441\u0442\u0432\u043e","name:be":"\u041f\u0430\u0434\u043a\u0430\u0440\u043f\u0430\u0446\u043a\u0430\u0435 \u0432\u0430\u044f\u0432\u043e\u0434\u0441\u0442\u0432\u0430","name:ru":"\u041f\u043e\u0434\u043a\u0430\u0440\u043f\u0430\u0442\u0441\u043a\u043e\u0435 \u0432\u043e\u0435\u0432\u043e\u0434\u0441\u0442\u0432\u043e","id":504970284,"population":2097338,"name:eo":"\u0108ekarpata Provinco","name:en":"Subcarpathia","name":"wojew\u00f3dztwo podkarpackie","kind_detail":"state","name:de":"Karpatenvorland","source":"openstreetmap.org","name:fr":"Basses-Carpates","name:et":"Podkarpacie","name:zh":"\u5580\u5c14\u5df4\u9621\u5c71\u7701"},"coordinates":[3156,705]},{"type":"Point","properties":{"kind":"locality","name":"Rzesz\u00f3w","name:lt":"\u017de\u0161uvas","kind_detail":"city","name:cs":"\u0158e\u0161ov","source":"openstreetmap.org","min_zoom":8.0,"name:la":"Resovia","name:uk":"\u0420\u044f\u0448\u0456\u0432","name:be":"\u0416\u044d\u0448\u0430\u045e","name:yi":"\u05e8\u05f2\u05b7\u05e9\u05e2","name:ru":"\u0416\u0435\u0448\u0443\u0432","population":187422,"id":34662230,"name:ja":"\u30b8\u30a7\u30b7\u30e5\u30d5"},"coordinates":[2653,909]},{"type":"Point","properties":{"kind":"locality","name":"Stalowa Wola","name:lt":"Staliova Volia","kind_detail":"town","source":"openstreetmap.org","min_zoom":8.0,"name:ru":"\u0421\u0442\u0430\u043b\u0451\u0432\u0430-\u0412\u043e\u043b\u044f","id":1854937161,"population":63291},"coordinates":[2827,3333]},{"type":"Point","properties":{"kind":"locality","name":"Mielec","name:lt":"Melecas","kind_detail":"town","source":"openstreetmap.org","min_zoom":8.0,"name:uk":"\u041c\u0435\u043b\u0435\u0446\u044c","name:ru":"\u041c\u0435\u043b\u0435\u0446","id":31890133,"population":61096},"coordinates":[963,2057]},{"type":"Point","properties":{"name:lv":"Tarnob\u017eega","name:ja":"\u30bf\u30eb\u30ce\u30d6\u30b8\u30a7\u30af","name:lt":"Tarnob\u017eegas","name:ko":"\ud0c0\ub974\ub178\ube0c\uc81c\ud06c","name:he":"\u05d8\u05e8\u05e0\u05d5\u05d1\u05d6'\u05d2","name:tt":"\u0422\u0430\u0440\u043d\u043e\u0431\u0436\u0435\u0433","min_zoom":8.0,"name:la":"Nova Tarnovia","name:uk":"\u0422\u0430\u0440\u043d\u043e\u0431\u0436\u0435\u0433","name:be":"\u0413\u043e\u0440\u0430\u0434 \u0422\u0430\u0440\u043d\u043e\u0431\u0436\u0430\u0433","name:ru":"\u0422\u0430\u0440\u043d\u043e\u0431\u0436\u0435\u0433","name:bg":"\u0422\u0430\u0440\u043d\u043e\u0431\u0436\u0435\u0433","id":31887921,"name:mk":"\u0422\u0430\u0440\u043d\u043e\u0431\u0436\u0435\u0433","population":48217,"name:fa":"\u062a\u0627\u0631\u0646\u0648\u0628\u0632\u06a9","kind":"locality","name":"Tarnobrzeg","kind_detail":"city","name:sr":"\u0422\u0430\u0440\u043d\u043e\u0431\u0436\u0435\u0433","source":"openstreetmap.org","name:yi":"\u05d3\u05d6\u05e9\u05d9\u05e7\u05d0\u05d5\u05d5","name:zh":"\u5854\u5c14\u8bfa\u5e03\u70ed\u683c"},"coordinates":[1703,3346]},{"type":"Point","properties":{"kind":"locality","name":"D\u0119bica","name:lt":"Dembica","kind_detail":"town","source":"openstreetmap.org","min_zoom":8.0,"name:uk":"\u0414\u0435\u043c\u0431\u0438\u0446\u044f","name:ru":"\u0414\u0435\u043c\u0431\u0438\u0446\u0430","id":31895072,"population":46854},"coordinates":[924,973]},{"type":"Point","properties":{"name:pt":"Sandomir","name:lv":"Sandome\u017ea","name:lt":"Sandomieras","name:cs":"Sandom\u011b\u0159","min_zoom":8.0,"name:la":"Sandomiria","name:uk":"\u0421\u0430\u043d\u0434\u043e\u043c\u0438\u0440","name:sv":"Sandomir","name:ru":"\u0421\u0430\u043d\u0434\u043e\u043c\u0438\u0440","id":31888577,"population":24552,"kind":"locality","name":"Sandomierz","kind_detail":"town","name:de":"Sandomir","source":"openstreetmap.org","name:fr":"Sandomir","name:es":"Sandomir"},"coordinates":[1910,3835]},{"type":"Point","properties":{"kind":"locality","name":"\u0141a\u0144cut","kind_detail":"town","name:de":"Landshut","source":"openstreetmap.org","min_zoom":8.0,"name:ru":"\u041b\u0430\u043d\u044c\u0446\u0443\u0442","id":31891667,"population":18074},"coordinates":[3316,1054]},{"type":"Point","properties":{"kind":"locality","name":"Przeworsk","kind_detail":"town","source":"openstreetmap.org","min_zoom":8.0,"name:ru":"\u041f\u0448\u0435\u0432\u043e\u0440\u0441\u043a","id":31888900,"population":15779},"coordinates":[4074,1013]},{"type":"Point","properties":{"kind":"locality","name":"Ropczyce","kind_detail":"town","name:de":"Ropschitze","source":"openstreetmap.org","min_zoom":8.0,"name:ru":"\u0420\u043e\u043f\u0447\u0438\u0446\u0435","id":31888768,"population":15683},"coordinates":[1508,980]},{"type":"Point","properties":{"kind":"locality","name":"Nisko","kind_detail":"town","source":"openstreetmap.org","min_zoom":8.0,"name:uk":"\u041d\u0438\u0441\u044c\u043a\u043e","name:ru":"\u041d\u0438\u0441\u043a\u043e","id":371977886,"population":15484},"coordinates":[3047,3109]},{"type":"Point","properties":{"kind":"locality","name":"Stasz\u00f3w","kind_detail":"town","name:he":"\u05e1\u05d8\u05e9\u05d5\u05d1","source":"openstreetmap.org","min_zoom":8.0,"name:ru":"\u0421\u0442\u0430\u0448\u0443\u0432","id":31888252,"population":15384},"coordinates":[216,3297]},{"type":"Point","properties":{"kind":"locality","name":"Le\u017cajsk","name:lt":"Le\u017eaiskas","kind_detail":"town","source":"openstreetmap.org","min_zoom":8.0,"name:uk":"\u041b\u0435\u0436\u0430\u0439\u0441\u044c\u043a","name:ru":"\u041b\u0435\u0436\u0430\u0439\u0441\u043a","id":31891329,"population":14363},"coordinates":[3860,1934]},{"type":"Point","properties":{"source":"openstreetmap.org","kind":"locality","name":"Jan\u00f3w Lubelski","kind_detail":"town","population":12092,"min_zoom":8.0,"id":371949690},"coordinates":[3837,3960]},{"type":"Point","properties":{"kind":"locality","name":"Nowa D\u0119ba","kind_detail":"town","source":"openstreetmap.org","min_zoom":8.0,"name:ru":"\u041d\u043e\u0432\u0430-\u0414\u0435\u043c\u0431\u0430","id":31889710,"population":11507},"coordinates":[1909,2623]},{"type":"Point","properties":{"kind":"locality","name":"Kolbuszowa","kind_detail":"town","source":"openstreetmap.org","min_zoom":8.0,"name:uk":"\u041a\u043e\u043b\u044c\u0431\u0443\u0448\u043e\u0432\u0430","name:ru":"\u041a\u043e\u043b\u044c\u0431\u0443\u0448\u043e\u0432\u0430","id":31893273,"population":9329},"coordinates":[1986,1848]},{"type":"Point","properties":{"kind":"locality","name":"Strzy\u017c\u00f3w","kind_detail":"town","name:de":"Strezow","source":"openstreetmap.org","min_zoom":8.0,"name:uk":"\u0421\u0442\u0440\u0438\u0436\u0456\u0432","name:ru":"\u0421\u0442\u0448\u0438\u0436\u0443\u0432","id":31948552,"population":8967},"coordinates":[2015,147]},{"type":"Point","properties":{"kind":"locality","name":"Po\u0142aniec","name:lt":"Polanecas","kind_detail":"town","source":"openstreetmap.org","min_zoom":8.0,"name:ru":"\u041f\u043e\u043b\u0430\u043d\u0435\u0446","id":31889018,"population":8347},"coordinates":[546,2712]},{"type":"Point","properties":{"kind":"locality","name":"S\u0119dzisz\u00f3w Ma\u0142opolski","kind_detail":"town","source":"openstreetmap.org","min_zoom":8.0,"name:ru":"\u0421\u0435\u043d\u0434\u0437\u0438\u0448\u0443\u0432-\u041c\u0430\u043b\u043e\u043f\u043e\u043b\u044c\u0441\u043a\u0438","id":31888565,"population":7492},"coordinates":[1768,1065]},{"type":"Point","properties":{"kind":"locality","name":"Rudnik nad Sanem","kind_detail":"town","source":"openstreetmap.org","min_zoom":8.0,"old_name":"Rudnik (till 1997)","loc_name":"Rudnik","name:ru":"\u0420\u0443\u0434\u043d\u0438\u043a-\u043d\u0430\u0434-\u0421\u0430\u043d\u0435\u043c","id":371977916,"population":6858},"coordinates":[3350,2766]},{"type":"Point","properties":{"kind":"locality","name":"Nowa Sarzyna","kind_detail":"town","source":"openstreetmap.org","min_zoom":8.0,"name:ru":"\u041d\u043e\u0432\u0430-\u0421\u0430\u0436\u0438\u043d\u0430","id":31889688,"population":6177},"coordinates":[3640,2197]},{"type":"Point","properties":{"kind":"locality","name":"G\u0142og\u00f3w Ma\u0142opolski","kind_detail":"town","source":"openstreetmap.org","min_zoom":8.0,"name:uk":"\u0413\u043b\u043e\u0433\u0443\u0432-\u041c\u0430\u043b\u043e\u043f\u043e\u043b\u044c\u0441\u044c\u043a\u0438\u0439","name:ru":"\u0413\u043b\u043e\u0433\u0443\u0432-\u041c\u0430\u043b\u043e\u043f\u043e\u043b\u044c\u0441\u043a\u0438\u0439","id":31894993,"population":6117},"coordinates":[2531,1428]},{"type":"Point","properties":{"kind":"locality","name":"Pilzno","name:lt":"Pilzenas","kind_detail":"town","source":"openstreetmap.org","min_zoom":8.0,"name:ru":"\u041f\u0438\u043b\u044c\u0437\u043d\u043e","id":1854937027,"population":4792},"coordinates":[574,641]},{"type":"Point","properties":{"kind":"locality","name":"Soko\u0142\u00f3w Ma\u0142opolski","kind_detail":"town","source":"openstreetmap.org","min_zoom":8.0,"name:ru":"\u0421\u043e\u043a\u043e\u043b\u0443\u0432-\u041c\u0430\u043b\u043e\u043f\u043e\u043b\u044c\u0441\u043a\u0438","id":31888374,"population":4040},"coordinates":[2986,1792]},{"type":"Point","properties":{"kind":"locality","old_name:de":"Bertoldsdorf","name":"Tyczyn","kind_detail":"town","name:de":"Titschnersdorf","source":"openstreetmap.org","min_zoom":8.0,"name:uk":"\u0422\u0438\u0447\u0438\u043d","name:ru":"\u0422\u044b\u0447\u0438\u043d","id":31945412,"population":3641},"coordinates":[2738,574]},{"type":"Point","properties":{"kind":"locality","name":"Brzostek","kind_detail":"town","source":"openstreetmap.org","min_zoom":8.0,"name:ru":"\u0411\u0436\u043e\u0441\u0442\u0435\u043a","id":38403574,"population":2597},"coordinates":[927,185]},{"type":"Point","properties":{"kind":"locality","name":"Koprzywnica","kind_detail":"town","source":"openstreetmap.org","min_zoom":8.0,"name:ru":"\u041a\u043e\u043f\u0448\u0438\u0432\u043d\u0438\u0446\u0430","id":31892813,"population":2575},"coordinates":[1437,3445]},{"type":"Point","properties":{"kind":"locality","name":"Baran\u00f3w Sandomierski","kind_detail":"town","source":"openstreetmap.org","min_zoom":8.0,"name:ru":"\u0411\u0430\u0440\u0430\u043d\u0443\u0432-\u0421\u0430\u043d\u0434\u043e\u043c\u0435\u0440\u0441\u043a\u0438\u0439","id":31899479,"population":1497},"coordinates":[1305,3016]},{"type":"Point","properties":{"kind":"locality","name":"Ulan\u00f3w","kind_detail":"town","source":"openstreetmap.org","min_zoom":8.0,"name:uk":"\u0423\u043b\u044f\u043d\u0443\u0432","name:ru":"\u0423\u043b\u044f\u043d\u0443\u0432","name:zh":"\u4e4c\u5170\u52aa\u592b","id":371978034,"population":1472},"coordinates":[3404,2974]}]},"transit":{"type":"GeometryCollection","geometries":[{"type":"LineString","properties":{"kind":"train","name":"Linia kolejowa nr 71 Ocice - Rzesz\u00f3w G\u0142\u00f3wny","sort_rank":275,"source":"openstreetmap.org","min_zoom":6.0,"operator":"PKP Polskie Linie Kolejowe S.A.","ref":"71","osm_relation":true,"network":"PKP"},"arcs":[5]},{"type":"LineString","properties":{"kind":"train","name":"Linia kolejowa nr 106 Rzesz\u00f3w G\u0142\u00f3wny - Jas\u0142o","sort_rank":275,"source":"openstreetmap.org","min_zoom":6.0,"operator":"PKP Polskie Linie Kolejowe S.A.","ref":"106","osm_relation":true,"network":"PKP"},"arcs":[6]},{"type":"MultiLineString","properties":{"kind":"train","name":"Linia kolejowa nr 68 Lublin - Przeworsk","sort_rank":275,"source":"openstreetmap.org","min_zoom":6.0,"operator":"PKP Polskie Linie Kolejowe S.A.","ref":"68","osm_relation":true,"network":"PKP"},"arcs":[[7],[8],[9],[10],[11],[12],[13]]},{"type":"MultiLineString","properties":{"kind":"train","name":"Linia kolejowa nr 91 Krak\u00f3w G\u0142\u00f3wny Osobowy - Medyka","sort_rank":275,"source":"openstreetmap.org","min_zoom":6.0,"operator":"PKP Polskie Linie Kolejowe S.A.","ref":"91","osm_relation":true,"network":"PKP"},"arcs":[[14],[15]]},{"type":"LineString","properties":{"kind":"train","name":"Linia 25","sort_rank":275,"source":"openstreetmap.org","min_zoom":6.0,"ref":"25","id":-6845935,"osm_relation":true},"arcs":[16]},{"type":"MultiLineString","properties":{"kind":"train","name":"Linia kolejowa nr 74 Sob\u00f3w - Stalowa Wola Rozwad\u00f3w","sort_rank":275,"source":"openstreetmap.org","min_zoom":6.0,"operator":"PKP Polskie Linie Kolejowe S.A.","ref":"74","osm_relation":true,"network":"PKP"},"arcs":[[17],[18]]}]},"pois":{"type":"GeometryCollection","geometries":[{"type":"Point","properties":{"kind":"nature_reserve","protect_class":"5","area":370895000,"source":"openstreetmap.org","min_zoom":8.02,"tier":2,"id":-4522385,"osm_relation":true,"name":"Park Krajobrazowy Pasma Brzanki"},"coordinates":[131,16]},{"type":"Point","properties":{"kind":"nature_reserve","protect_class":"5","area":998469000,"source":"openstreetmap.org","min_zoom":7.31,"tier":2,"id":-4522362,"osm_relation":true,"name":"Park Krajobrazowy Lasy Janowskie"},"coordinates":[3609,3790]},{"type":"Point","properties":{"kind":"military","tier":3,"name":"Poligon wojskowy","area":56920900,"source":"openstreetmap.org","min_zoom":8.0,"operator":"Wojskowy Instytut Techniczny Uzbrojenia","id":-4022746,"osm_relation":true},"coordinates":[2630,4022]},{"type":"Point","properties":{"source":"openstreetmap.org","kind":"military","name":"Poligon Wojskowy Nowa D\u0119ba","area":116644000,"tier":3,"min_zoom":8.0,"id":306487253},"coordinates":[2136,2758]}]},"boundaries":{"type":"GeometryCollection","geometries":[{"type":"LineString","properties":{"name:right:nl":"Woiwodschap Subkarpaten","name:right:ja":"\u30dd\u30c8\u30ab\u30eb\u30d1\u30c1\u30a7\u770c","loc_name:left":"Ma\u0142opolska","alt_name:left:en":"Ma\u0142opolska Province","name:right:uk":"\u041f\u0456\u0434\u043a\u0430\u0440\u043f\u0430\u0442\u0441\u044c\u043a\u0435 \u0432\u043e\u0454\u0432\u043e\u0434\u0441\u0442\u0432\u043e","name:left:ja":"\u30de\u30a6\u30a9\u30dd\u30eb\u30b9\u30ab\u770c","id:right":-130957,"name:right:lt":"Pakarpat\u0117s vaivadija","name:left:sl":"Malopoljsko vojvodstvo","min_zoom":8.0,"name:right:sl":"Podkarpatsko vojvodstvo","name:left:be":"\u041c\u0430\u043b\u0430\u043f\u043e\u043b\u044c\u0441\u043a\u0430\u0435 \u0432\u0430\u044f\u0432\u043e\u0434\u0441\u0442\u0432\u0430","name:right:fr":"Basses-Carpates","id":-224459,"name:right":"wojew\u00f3dztwo podkarpackie","short_name:left":"ma\u0142opolskie","name:left:eo":"Malgrandpollanda Provinco","name:left:en":"Lesser Poland Voivodeship","sort_rank":256,"kind_detail":"4","source":"openstreetmap.org","name:left:nl":"Woiwodschap Klein-Polen","id:left":-224459,"name:left:es":"Voivodato de Peque\u00f1a Polonia","name:right:cs":"Podkarpatsk\u00e9 vojvodstv\u00ed","name:left:cs":"Malopolsk\u00e9 vojvodstv\u00ed","name:left":"wojew\u00f3dztwo ma\u0142opolskie","name:right:es":"Voivodato de Subcarpacia","kind":"region","name:right:ru":"\u041f\u043e\u0434\u043a\u0430\u0440\u043f\u0430\u0442\u0441\u043a\u043e\u0435 \u0432\u043e\u0435\u0432\u043e\u0434\u0441\u0442\u0432\u043e","name:left:ru":"\u041c\u0430\u043b\u043e\u043f\u043e\u043b\u044c\u0441\u043a\u043e\u0435 \u0432\u043e\u0435\u0432\u043e\u0434\u0441\u0442\u0432\u043e","short_name:right":"podkarpackie","name:right:eo":"\u0108ekarpata Provinco","name:right:en":"Subcarpathian Voivodeship","osm_relation":true,"name:left:uk":"\u041c\u0430\u043b\u043e\u043f\u043e\u043b\u044c\u0441\u044c\u043a\u0435 \u0432\u043e\u0454\u0432\u043e\u0434\u0441\u0442\u0432\u043e","loc_name:right":"Podkarpacie","name":"wojew\u00f3dztwo ma\u0142opolskie - wojew\u00f3dztwo podkarpackie","name:right:de":"Woiwodschaft Karpatenvorland","name:left:de":"Woiwodschaft Kleinpolen","name:right:be":"\u041f\u0430\u0434\u043a\u0430\u0440\u043f\u0430\u0446\u043a\u0430\u0435 \u0432\u0430\u044f\u0432\u043e\u0434\u0441\u0442\u0432\u0430","name:left:fr":"Petite-Pologne"},"arcs":[0]},{"type":"LineString","properties":{"name:right:nl":"Woiwodschap Swiety Krzyz","name:right:ja":"\u30b7\u30d5\u30a3\u30a7\u30f3\u30c6\u30a3\u30af\u30b7\u30b7\u30e5\u770c","loc_name:left":"Ma\u0142opolska","alt_name:left:en":"Ma\u0142opolska Province","name:right:uk":"\u0421\u0432\u0435\u043d\u0442\u043e\u043a\u0448\u0438\u0441\u044c\u043a\u0435 \u0432\u043e\u0454\u0432\u043e\u0434\u0441\u0442\u0432\u043e","name:left:ja":"\u30de\u30a6\u30a9\u30dd\u30eb\u30b9\u30ab\u770c","id:right":-130914,"name:right:lt":"\u0160vento Kry\u017eiaus vaivadija","name:left:sl":"Malopoljsko vojvodstvo","min_zoom":8.0,"alt_name:right:en":"\u015awi\u0119tokrzyskie Province","name:left:be":"\u041c\u0430\u043b\u0430\u043f\u043e\u043b\u044c\u0441\u043a\u0430\u0435 \u0432\u0430\u044f\u0432\u043e\u0434\u0441\u0442\u0432\u0430","name:right:fr":"Sainte-Croix","id":-224459,"name:right":"wojew\u00f3dztwo \u015bwi\u0119tokrzyskie","short_name:left":"ma\u0142opolskie","name:left:eo":"Malgrandpollanda Provinco","name:left:en":"Lesser Poland Voivodeship","sort_rank":256,"kind_detail":"4","source":"openstreetmap.org","name:left:nl":"Woiwodschap Klein-Polen","id:left":-224459,"name:left:es":"Voivodato de Peque\u00f1a Polonia","name:right:cs":"Svatok\u0159\u00ed\u017esk\u00e9 vojvodstv\u00ed","name:left:cs":"Malopolsk\u00e9 vojvodstv\u00ed","name:left":"wojew\u00f3dztwo ma\u0142opolskie","name:right:es":"Voivodato de Santa Cruz","name:right:ru":"\u0421\u0432\u0435\u043d\u0442\u043e\u043a\u0448\u0438\u0441\u043a\u043e\u0435 \u0432\u043e\u0435\u0432\u043e\u0434\u0441\u0442\u0432\u043e","name:left:ru":"\u041c\u0430\u043b\u043e\u043f\u043e\u043b\u044c\u0441\u043a\u043e\u0435 \u0432\u043e\u0435\u0432\u043e\u0434\u0441\u0442\u0432\u043e","short_name:right":"\u015bwi\u0119tokrzyskie","name:right:eo":"Sanktakruca Provinco","name:right:en":"\u015awi\u0119tokrzyskie Voivodeship","osm_relation":true,"name:left:uk":"\u041c\u0430\u043b\u043e\u043f\u043e\u043b\u044c\u0441\u044c\u043a\u0435 \u0432\u043e\u0454\u0432\u043e\u0434\u0441\u0442\u0432\u043e","kind":"region","name":"wojew\u00f3dztwo ma\u0142opolskie - wojew\u00f3dztwo \u015bwi\u0119tokrzyskie","name:right:de":"Woiwodschaft Heiligkreuz","name:left:de":"Woiwodschaft Kleinpolen","name:right:be":"\u0421\u0432\u0435\u043d\u0442\u0430\u043a\u0448\u044b\u0441\u043a\u0430\u0435 \u0432\u0430\u044f\u0432\u043e\u0434\u0441\u0442\u0432\u0430","name:left:fr":"Petite-Pologne","name:right:sl":"Svetokri\u0161ko vojvodstvo"},"arcs":[1]},{"type":"MultiLineString","properties":{"name:right:es":"Voivodato de Lublin","name:right:nl":"Woiwodschap Lublin","name:right:ja":"\u30eb\u30d6\u30ea\u30f3\u770c","loc_name:left":"Podkarpacie","name:right:uk":"\u041b\u044e\u0431\u043b\u0456\u043d\u0441\u044c\u043a\u0435 \u0432\u043e\u0454\u0432\u043e\u0434\u0441\u0442\u0432\u043e","name:left:ja":"\u30dd\u30c8\u30ab\u30eb\u30d1\u30c1\u30a7\u770c","id:right":-130919,"name:right:lt":"Liublino vaivadija","name:left:sl":"Podkarpatsko vojvodstvo","min_zoom":8.0,"name:left:lt":"Pakarpat\u0117s vaivadija","alt_name:right:en":"Lublin Province","name:left:be":"\u041f\u0430\u0434\u043a\u0430\u0440\u043f\u0430\u0446\u043a\u0430\u0435 \u0432\u0430\u044f\u0432\u043e\u0434\u0441\u0442\u0432\u0430","name:right:fr":"Vo\u00efvodie de Lublin","id":-130957,"name:right":"wojew\u00f3dztwo lubelskie","short_name:left":"podkarpackie","name:left:eo":"\u0108ekarpata Provinco","name:left:en":"Subcarpathian Voivodeship","sort_rank":256,"kind_detail":"4","alt_name:right:pl":"lubelskie","name:right:sk":"Lubelsk\u00e9","source":"openstreetmap.org","name:right:ar":"\u0645\u062d\u0627\u0641\u0638\u0629 \u0644\u0648\u0628\u064a\u0644\u0633\u0643\u064a","id:left":-130957,"name:left:es":"Voivodato de Subcarpacia","name:right:cs":"Lublinsk\u00e9 vojvodstv\u00ed","name:left:cs":"Podkarpatsk\u00e9 vojvodstv\u00ed","name:left":"wojew\u00f3dztwo podkarpackie","name:right:ka":"\u10da\u10e3\u10d1\u10da\u10d8\u10dc\u10d8\u10e1 \u10e1\u10d0\u10d5\u10dd\u10d4\u10d5\u10dd\u10d3\u10dd","kind":"region","name:right:ru":"\u041b\u044e\u0431\u043b\u0438\u043d\u0441\u043a\u043e\u0435 \u0432\u043e\u0435\u0432\u043e\u0434\u0441\u0442\u0432\u043e","name:left:de":"Woiwodschaft Karpatenvorland","name:left:ru":"\u041f\u043e\u0434\u043a\u0430\u0440\u043f\u0430\u0442\u0441\u043a\u043e\u0435 \u0432\u043e\u0435\u0432\u043e\u0434\u0441\u0442\u0432\u043e","short_name:right":"lubelskie","name:right:eo":"Lublina Provinco","name:right:en":"Lublin Voivodeship","osm_relation":true,"name:left:uk":"\u041f\u0456\u0434\u043a\u0430\u0440\u043f\u0430\u0442\u0441\u044c\u043a\u0435 \u0432\u043e\u0454\u0432\u043e\u0434\u0441\u0442\u0432\u043e","loc_name:right":"lubelskie","name":"wojew\u00f3dztwo podkarpackie - wojew\u00f3dztwo lubelskie","name:right:de":"Woiwodschaft Lublin","name:left:nl":"Woiwodschap Subkarpaten","name:right:be":"\u041b\u044e\u0431\u043b\u0456\u043d\u0441\u043a\u0430\u0435 \u0432\u0430\u044f\u0432\u043e\u0434\u0441\u0442\u0432\u0430","name:left:fr":"Basses-Carpates","name:right:zh":"\u5362\u5e03\u6797\u7701","name:right:sl":"Lublinsko vojvodstvo"},"arcs":[[2],[3]]},{"type":"LineString","properties":{"name:right:nl":"Woiwodschap Swiety Krzyz","name:right:ja":"\u30b7\u30d5\u30a3\u30a7\u30f3\u30c6\u30a3\u30af\u30b7\u30b7\u30e5\u770c","loc_name:left":"Podkarpacie","name:right:uk":"\u0421\u0432\u0435\u043d\u0442\u043e\u043a\u0448\u0438\u0441\u044c\u043a\u0435 \u0432\u043e\u0454\u0432\u043e\u0434\u0441\u0442\u0432\u043e","name:left:ja":"\u30dd\u30c8\u30ab\u30eb\u30d1\u30c1\u30a7\u770c","id:right":-130914,"name:right:lt":"\u0160vento Kry\u017eiaus vaivadija","name:left:sl":"Podkarpatsko vojvodstvo","min_zoom":8.0,"name:left:lt":"Pakarpat\u0117s vaivadija","alt_name:right:en":"\u015awi\u0119tokrzyskie Province","name:left:be":"\u041f\u0430\u0434\u043a\u0430\u0440\u043f\u0430\u0446\u043a\u0430\u0435 \u0432\u0430\u044f\u0432\u043e\u0434\u0441\u0442\u0432\u0430","name:right:fr":"Sainte-Croix","id":-130957,"name:right":"wojew\u00f3dztwo \u015bwi\u0119tokrzyskie","short_name:left":"podkarpackie","name:left:eo":"\u0108ekarpata Provinco","name:left:en":"Subcarpathian Voivodeship","sort_rank":256,"kind_detail":"4","source":"openstreetmap.org","name:left:nl":"Woiwodschap Subkarpaten","id:left":-130957,"name:left:es":"Voivodato de Subcarpacia","name:right:cs":"Svatok\u0159\u00ed\u017esk\u00e9 vojvodstv\u00ed","name:left:cs":"Podkarpatsk\u00e9 vojvodstv\u00ed","name:left":"wojew\u00f3dztwo podkarpackie","name:right:es":"Voivodato de Santa Cruz","name:right:ru":"\u0421\u0432\u0435\u043d\u0442\u043e\u043a\u0448\u0438\u0441\u043a\u043e\u0435 \u0432\u043e\u0435\u0432\u043e\u0434\u0441\u0442\u0432\u043e","name:left:ru":"\u041f\u043e\u0434\u043a\u0430\u0440\u043f\u0430\u0442\u0441\u043a\u043e\u0435 \u0432\u043e\u0435\u0432\u043e\u0434\u0441\u0442\u0432\u043e","short_name:right":"\u015bwi\u0119tokrzyskie","name:right:eo":"Sanktakruca Provinco","name:right:en":"\u015awi\u0119tokrzyskie Voivodeship","osm_relation":true,"name:left:uk":"\u041f\u0456\u0434\u043a\u0430\u0440\u043f\u0430\u0442\u0441\u044c\u043a\u0435 \u0432\u043e\u0454\u0432\u043e\u0434\u0441\u0442\u0432\u043e","kind":"region","name":"wojew\u00f3dztwo podkarpackie - wojew\u00f3dztwo \u015bwi\u0119tokrzyskie","name:right:de":"Woiwodschaft Heiligkreuz","name:left:de":"Woiwodschaft Karpatenvorland","name:right:be":"\u0421\u0432\u0435\u043d\u0442\u0430\u043a\u0448\u044b\u0441\u043a\u0430\u0435 \u0432\u0430\u044f\u0432\u043e\u0434\u0441\u0442\u0432\u0430","name:left:fr":"Basses-Carpates","name:right:sl":"Svetokri\u0161ko vojvodstvo"},"arcs":[4]}]},"roads":{"type":"GeometryCollection","geometries":[{"type":"LineString","properties":{"kind":"major_road","network":"pl:national","sort_rank":380,"kind_detail":"primary","source":"openstreetmap.org","min_zoom":8.0,"shield_text":"77","ref":"77;79"},"arcs":[19]},{"type":"LineString","properties":{"kind":"major_road","network":"pl:national","sort_rank":380,"kind_detail":"primary","source":"openstreetmap.org","min_zoom":8.0,"shield_text":"79","id":130207123},"arcs":[20]},{"type":"MultiLineString","properties":{"bus_network":"ZTM Rzesz\u00f3w","network":"pl:national","sort_rank":380,"kind_detail":"primary","kind":"major_road","source":"openstreetmap.org","min_zoom":8.0,"bus_shield_text":"32","shield_text":"94","landuse_kind":"urban_area","ref":"94"},"arcs":[[21],[22],[23],[24]]},{"type":"LineString","properties":{"kind":"major_road","sort_rank":380,"kind_detail":"primary","bus_network":"ZTM Rzesz\u00f3w","source":"openstreetmap.org","min_zoom":8.0,"bus_shield_text":"1","landuse_kind":"urban_area","id":158939973},"arcs":[25]},{"type":"LineString","properties":{"kind":"path","sort_rank":354,"kind_detail":"steps","is_bicycle_related":true,"bicycle_shield_text":"GV","bicycle_network":"ncn","source":"openstreetmap.org","min_zoom":8.0,"landuse_kind":"urban_area","id":103097503},"arcs":[26]},{"type":"MultiLineString","properties":{"kind":"major_road","network":"pl:national","sort_rank":380,"kind_detail":"primary","source":"openstreetmap.org","min_zoom":8.0,"shield_text":"94","ref":"94"},"arcs":[[27],[28],[29],[30],[31],[32],[33],[34],[35],[36],[37],[38],[39],[40],[41],[42],[43],[44],[45],[46],[47],[48],[49],[50],[51],[52],[53],[54],[55],[56],[57],[58],[59],[60],[61],[62],[63],[64],[65],[66],[67],[68],[69],[70],[71],[72],[73],[74],[75],[76],[77],[78],[79],[80],[81],[82],[83],[84],[85],[86],[87],[88],[89],[90],[91],[92],[93],[94],[95],[96],[97],[98],[99]]},{"type":"LineString","properties":{"kind":"major_road","network":"pl:national","sort_rank":380,"kind_detail":"primary","bus_network":"ZTM Rzesz\u00f3w","source":"openstreetmap.org","min_zoom":8.0,"bus_shield_text":"3","shield_text":"94","id":262400191},"arcs":[100]},{"type":"LineString","properties":{"bus_network":"ZTM Rzesz\u00f3w","sort_rank":377,"kind_detail":"tertiary","is_bicycle_related":true,"kind":"major_road","bicycle_shield_text":"GV","bicycle_network":"ncn","source":"openstreetmap.org","min_zoom":8.0,"bus_shield_text":"11","landuse_kind":"urban_area","ref":"1392R","id":145644832},"arcs":[101]},{"type":"LineString","properties":{"kind":"major_road","sort_rank":380,"kind_detail":"primary","source":"openstreetmap.org","min_zoom":8.0,"old_name":"Wasyla Skopenki","landuse_kind":"urban_area","id":148896692},"arcs":[102]},{"type":"LineString","properties":{"kind":"major_road","network":"pl:national","sort_rank":380,"kind_detail":"primary","is_bicycle_related":true,"bicycle_shield_text":null,"bicycle_network":"rcn","source":"openstreetmap.org","min_zoom":8.0,"shield_text":"19","ref":"19"},"arcs":[103]},{"type":"MultiLineString","properties":{"kind":"highway","network":"pl:national","sort_rank":383,"kind_detail":"motorway","source":"openstreetmap.org","min_zoom":8.0,"all_networks":["pl:national","pl:national","e-road","e-road","pl:motorways","pl:expressways"],"shield_text":"4","ref":"A4;S19","all_shield_texts":["4","19","40","371","4","19"]},"arcs":[[104],[105]]},{"type":"LineString","properties":{"kind":"major_road","sort_rank":377,"kind_detail":"tertiary","is_bicycle_related":true,"bicycle_shield_text":"GV","bicycle_network":"ncn","source":"openstreetmap.org","min_zoom":8.0,"ref":"1091R"},"arcs":[106]},{"type":"LineString","properties":{"kind":"major_road","network":"pl:regional","sort_rank":379,"kind_detail":"secondary","is_bicycle_related":true,"bicycle_shield_text":"GV","bicycle_network":"ncn","source":"openstreetmap.org","min_zoom":8.0,"shield_text":"757","ref":"757","id":256063101},"arcs":[107]},{"type":"LineString","properties":{"kind":"major_road","sort_rank":377,"kind_detail":"tertiary","is_bicycle_related":true,"bicycle_shield_text":"GV","bicycle_network":"ncn","source":"openstreetmap.org","min_zoom":8.0,"ref":"1426R","id":44624687},"arcs":[108]},{"type":"MultiLineString","properties":{"sort_rank":380,"kind_detail":"primary","min_zoom":8.0,"kind":"major_road","source":"openstreetmap.org"},"arcs":[[109],[110],[111],[112],[113],[114],[115],[116],[117],[118]]},{"type":"MultiLineString","properties":{"source":"openstreetmap.org","kind":"major_road","landuse_kind":"urban_area","sort_rank":380,"kind_detail":"primary","ref":"77","min_zoom":8.0},"arcs":[[119],[120]]},{"type":"MultiLineString","properties":{"kind":"major_road","network":"pl:national","sort_rank":380,"kind_detail":"primary","source":"openstreetmap.org","min_zoom":8.0,"landuse_kind":"urban_area","shield_text":"77","ref":"77"},"arcs":[[121],[122],[123],[124],[125],[126],[127],[128],[129],[130],[131],[132]]},{"type":"MultiLineString","properties":{"kind":"major_road","network":"pl:national","sort_rank":380,"kind_detail":"primary","source":"openstreetmap.org","min_zoom":8.0,"shield_text":"94","ref":"94;986"},"arcs":[[133],[134]]},{"type":"LineString","properties":{"kind":"major_road","network":"pl:national","sort_rank":380,"kind_detail":"primary","bus_network":"ZTM Rzesz\u00f3w","source":"openstreetmap.org","min_zoom":8.0,"bus_shield_text":"1","shield_text":"19","landuse_kind":"urban_area","ref":"19;94","id":259807657},"arcs":[135]},{"type":"LineString","properties":{"kind":"major_road","sort_rank":377,"kind_detail":"tertiary","is_bicycle_related":true,"bicycle_shield_text":"GV","bicycle_network":"ncn","source":"openstreetmap.org","min_zoom":8.0,"ref":"1012R"},"arcs":[136]},{"type":"MultiLineString","properties":{"kind":"highway","network":"pl:national","sort_rank":383,"kind_detail":"motorway","source":"openstreetmap.org","min_zoom":8.0,"all_networks":["pl:national","pl:national","e-road","pl:motorways","pl:expressways"],"shield_text":"4","ref":"A4;S19","all_shield_texts":["4","19","40","4","19"]},"arcs":[[137],[138]]},{"type":"MultiLineString","properties":{"kind":"major_road","network":"pl:national","sort_rank":380,"kind_detail":"primary","source":"openstreetmap.org","min_zoom":8.0,"landuse_kind":"urban_area","shield_text":"94","ref":"94"},"arcs":[[139],[140],[141],[142],[143],[144],[145],[146],[147],[148],[149],[150],[151],[152],[153],[154],[155],[156],[157],[158],[159],[160],[161],[162],[163]]},{"type":"MultiLineString","properties":{"kind":"major_road","network":"pl:national","sort_rank":380,"kind_detail":"primary","source":"openstreetmap.org","min_zoom":8.0,"shield_text":"97","ref":"97"},"arcs":[[164],[165]]},{"type":"LineString","properties":{"kind":"major_road","network":"pl:regional","sort_rank":379,"kind_detail":"secondary","is_bicycle_related":true,"bicycle_shield_text":"GV","bicycle_network":"ncn","source":"openstreetmap.org","min_zoom":8.0,"shield_text":"881","ref":"881","id":390623353},"arcs":[166]},{"type":"MultiLineString","properties":{"kind":"major_road","network":"pl:national","sort_rank":381,"kind_detail":"trunk","source":"openstreetmap.org","min_zoom":8.0,"shield_text":"19","ref":"S19"},"arcs":[[167],[168],[169],[170],[171],[172],[173],[174],[175]]},{"type":"MultiLineString","properties":{"kind":"path","sort_rank":354,"kind_detail":"path","is_bicycle_related":true,"bicycle_shield_text":"GV","bicycle_network":"ncn","source":"openstreetmap.org","min_zoom":8.0},"arcs":[[176],[177]]},{"type":"LineString","properties":{"kind":"major_road","network":"pl:national","sort_rank":380,"kind_detail":"primary","source":"openstreetmap.org","min_zoom":8.0,"shield_text":"19","ref":"19;74"},"arcs":[178]},{"type":"MultiLineString","properties":{"bus_network":"ZTM Rzesz\u00f3w","network":"pl:national","sort_rank":380,"kind_detail":"primary","kind":"major_road","source":"openstreetmap.org","min_zoom":8.0,"bus_shield_text":"1","shield_text":"97","landuse_kind":"urban_area"},"arcs":[[179],[180]]},{"type":"LineString","properties":{"kind":"major_road","network":"pl:national","sort_rank":380,"kind_detail":"primary","is_bicycle_related":true,"bicycle_shield_text":"SAO","bicycle_network":"rcn","source":"openstreetmap.org","min_zoom":8.0,"shield_text":"79","ref":"79","id":518130207},"arcs":[181]},{"type":"LineString","properties":{"kind":"major_road","sort_rank":377,"kind_detail":"tertiary","is_bicycle_related":true,"bicycle_shield_text":"GV","bicycle_network":"ncn","source":"openstreetmap.org","min_zoom":8.0,"ref":"1017R","id":232519105},"arcs":[182]},{"type":"MultiLineString","properties":{"kind":"minor_road","sort_rank":358,"kind_detail":"service","is_bicycle_related":true,"bicycle_shield_text":"GV","bicycle_network":"ncn","source":"openstreetmap.org","min_zoom":8.0},"arcs":[[183],[184]]},{"type":"MultiLineString","properties":{"bus_network":"ZTM Rzesz\u00f3w","network":"pl:national","sort_rank":380,"kind_detail":"primary","kind":"major_road","source":"openstreetmap.org","min_zoom":8.0,"bus_shield_text":"3","shield_text":"19","ref":"19"},"arcs":[[185],[186],[187],[188],[189],[190]]},{"type":"MultiLineString","properties":{"kind":"major_road","network":"pl:national","sort_rank":380,"kind_detail":"primary","source":"openstreetmap.org","min_zoom":8.0,"shield_text":"73","ref":"73;94"},"arcs":[[191],[192],[193]]},{"type":"LineString","properties":{"bus_network":"ZTM Rzesz\u00f3w","network":"pl:national","sort_rank":380,"kind_detail":"primary","kind":"major_road","source":"openstreetmap.org","min_zoom":8.0,"bus_shield_text":"0A","shield_text":"94","landuse_kind":"urban_area","ref":"94"},"arcs":[194]},{"type":"MultiLineString","properties":{"kind":"major_road","network":"pl:national","sort_rank":380,"kind_detail":"primary","source":"openstreetmap.org","min_zoom":8.0,"shield_text":"74","ref":"74"},"arcs":[[195],[196],[197],[198],[199],[200],[201]]},{"type":"MultiLineString","properties":{"kind":"major_road","network":"pl:regional","sort_rank":379,"kind_detail":"secondary","is_bicycle_related":true,"bicycle_shield_text":"GV","bicycle_network":"ncn","source":"openstreetmap.org","min_zoom":8.0,"shield_text":"758","ref":"758"},"arcs":[[202],[203],[204],[205],[206]]},{"type":"MultiLineString","properties":{"kind":"major_road","network":"pl:national","sort_rank":380,"kind_detail":"primary","source":"openstreetmap.org","min_zoom":8.0,"landuse_kind":"urban_area","shield_text":"97","ref":"97"},"arcs":[[207],[208],[209],[210]]},{"type":"MultiLineString","properties":{"source":"openstreetmap.org","kind":"major_road","network":"pl:national","sort_rank":380,"kind_detail":"primary","min_zoom":8.0,"shield_text":"77"},"arcs":[[211],[212]]},{"type":"LineString","properties":{"bus_network":"ZTM Rzesz\u00f3w","network":"pl:national","sort_rank":380,"kind_detail":"primary","kind":"major_road","source":"openstreetmap.org","min_zoom":8.0,"bus_shield_text":"4","shield_text":"94","ref":"94"},"arcs":[213]},{"type":"MultiLineString","properties":{"bus_network":"ZTM Rzesz\u00f3w","network":"pl:national","sort_rank":380,"kind_detail":"primary","kind":"major_road","source":"openstreetmap.org","min_zoom":8.0,"bus_shield_text":"17","shield_text":"94","landuse_kind":"urban_area","ref":"94"},"arcs":[[214],[215]]},{"type":"MultiLineString","properties":{"kind":"path","sort_rank":354,"landuse_kind":"urban_area","is_bicycle_related":true,"bicycle_shield_text":"GV","bicycle_network":"ncn","source":"openstreetmap.org","min_zoom":8.0,"kind_detail":"path"},"arcs":[[216],[217],[218]]},{"type":"MultiLineString","properties":{"kind":"major_road","network":"pl:national","short_name":"\u017bwirki i Wigury","sort_rank":380,"kind_detail":"primary","source":"openstreetmap.org","min_zoom":8.0,"landuse_kind":"urban_area","shield_text":"77","ref":"77;79"},"arcs":[[219],[220]]},{"type":"MultiLineString","properties":{"bus_network":"ZTM Rzesz\u00f3w","network":"pl:national","sort_rank":380,"kind_detail":"primary","kind":"major_road","source":"openstreetmap.org","min_zoom":8.0,"bus_shield_text":"9","shield_text":"94","landuse_kind":"urban_area","ref":"94"},"arcs":[[221],[222],[223],[224]]},{"type":"LineString","properties":{"kind":"major_road","network":"pl:national","sort_rank":380,"kind_detail":"primary","source":"openstreetmap.org","min_zoom":8.0,"landuse_kind":"urban_area","shield_text":"94","ref":"4"},"arcs":[225]},{"type":"LineString","properties":{"kind":"major_road","sort_rank":377,"kind_detail":"tertiary","is_bicycle_related":true,"bicycle_shield_text":"GV","bicycle_network":"ncn","source":"openstreetmap.org","min_zoom":8.0,"ref":"1006R"},"arcs":[226]},{"type":"LineString","properties":{"bus_network":"ZTM Rzesz\u00f3w","network":"pl:national","sort_rank":380,"kind_detail":"primary","is_bicycle_related":true,"kind":"major_road","bicycle_shield_text":null,"bicycle_network":"lcn","source":"openstreetmap.org","min_zoom":8.0,"bus_shield_text":"3","shield_text":"19","ref":"19"},"arcs":[227]},{"type":"LineString","properties":{"kind":"major_road","network":"pl:national","sort_rank":380,"kind_detail":"primary","source":"openstreetmap.org","min_zoom":8.0,"shield_text":"19","ref":"19;861","id":188022108},"arcs":[228]},{"type":"LineString","properties":{"kind":"major_road","sort_rank":380,"kind_detail":"primary","bus_network":"ZTM Rzes\u017c\u00f3w","source":"openstreetmap.org","min_zoom":8.0,"bus_shield_text":"6","landuse_kind":"urban_area","id":5104983},"arcs":[229]},{"type":"MultiLineString","properties":{"kind":"major_road","network":"pl:national","sort_rank":380,"kind_detail":"primary","source":"openstreetmap.org","min_zoom":8.0,"shield_text":"73","ref":"73"},"arcs":[[230],[231],[232],[233],[234],[235],[236]]},{"type":"MultiLineString","properties":{"kind":"major_road","sort_rank":377,"kind_detail":"tertiary","is_bicycle_related":true,"bicycle_shield_text":"GV","bicycle_network":"ncn","source":"openstreetmap.org","min_zoom":8.0,"ref":"1414R"},"arcs":[[237],[238],[239],[240],[241]]},{"type":"LineString","properties":{"kind":"major_road","network":"pl:national","sort_rank":380,"kind_detail":"primary","source":"openstreetmap.org","min_zoom":8.0,"landuse_kind":"urban_area","shield_text":"79"},"arcs":[242]},{"type":"MultiLineString","properties":{"kind":"major_road","network":"pl:national","sort_rank":380,"kind_detail":"primary","source":"openstreetmap.org","min_zoom":8.0,"landuse_kind":"urban_area","shield_text":"97"},"arcs":[[243],[244]]},{"type":"MultiLineString","properties":{"bus_network":"ZTM Rzes\u017c\u00f3w","network":"pl:national","sort_rank":380,"kind_detail":"primary","kind":"major_road","source":"openstreetmap.org","min_zoom":8.0,"bus_shield_text":"6","shield_text":"94","landuse_kind":"urban_area","ref":"94"},"arcs":[[245],[246],[247]]},{"type":"MultiLineString","properties":{"kind":"major_road","network":"pl:national","sort_rank":380,"kind_detail":"primary","source":"openstreetmap.org","min_zoom":8.0,"landuse_kind":"urban_area","shield_text":"79","ref":"79"},"arcs":[[248],[249],[250],[251]]},{"type":"MultiLineString","properties":{"bus_network":"ZTM Rzesz\u00f3w","network":"pl:national","sort_rank":380,"kind_detail":"primary","kind":"major_road","source":"openstreetmap.org","min_zoom":8.0,"bus_shield_text":"1","shield_text":"97","landuse_kind":"urban_area","ref":"97"},"arcs":[[252],[253],[254],[255]]},{"type":"MultiLineString","properties":{"kind":"major_road","network":"pl:national","sort_rank":380,"kind_detail":"primary","source":"openstreetmap.org","min_zoom":8.0,"old_name":"Wasyla Skopenki","shield_text":"77","landuse_kind":"urban_area","ref":"77"},"arcs":[[256],[257],[258]]},{"type":"MultiLineString","properties":{"kind":"minor_road","sort_rank":358,"landuse_kind":"urban_area","is_bicycle_related":true,"bicycle_shield_text":"GV","bicycle_network":"ncn","source":"openstreetmap.org","min_zoom":8.0,"kind_detail":"service"},"arcs":[[259],[260]]},{"type":"LineString","properties":{"kind":"major_road","network":"pl:national","sort_rank":380,"kind_detail":"primary","source":"openstreetmap.org","min_zoom":8.0,"shield_text":"9","ref":"9;79","id":30953528},"arcs":[261]},{"type":"MultiLineString","properties":{"kind":"major_road","network":"pl:national","sort_rank":380,"kind_detail":"primary","source":"openstreetmap.org","min_zoom":8.0,"shield_text":"9","ref":"9"},"arcs":[[262],[263],[264],[265],[266],[267],[268],[269],[270],[271],[272],[273],[274],[275],[276],[277],[278],[279],[280],[281],[282],[283],[284],[285],[286],[287],[288],[289],[290],[291],[292],[293],[294],[295],[296]]},{"type":"MultiLineString","properties":{"kind":"major_road","network":"pl:regional","sort_rank":377,"kind_detail":"tertiary","is_bicycle_related":true,"bicycle_shield_text":"GV","bicycle_network":"ncn","source":"openstreetmap.org","min_zoom":8.0,"shield_text":"858","ref":"858"},"arcs":[[297],[298]]},{"type":"MultiLineString","properties":{"bus_network":"ZTM Rzesz\u00f3w","network":"pl:national","sort_rank":380,"kind_detail":"primary","kind":"major_road","source":"openstreetmap.org","min_zoom":8.0,"bus_shield_text":"23","shield_text":"94","landuse_kind":"urban_area","ref":"94"},"arcs":[[299],[300]]},{"type":"LineString","properties":{"kind":"major_road","network":"e-road","sort_rank":380,"kind_detail":"primary","source":"openstreetmap.org","min_zoom":8.0,"shield_text":"371","ref":"9","id":510751041},"arcs":[301]},{"type":"LineString","properties":{"kind":"major_road","network":"pl:national","short_name":"\u017bwirki i Wigury","sort_rank":380,"kind_detail":"primary","source":"openstreetmap.org","min_zoom":8.0,"landuse_kind":"urban_area","shield_text":"77","ref":"77"},"arcs":[302]},{"type":"LineString","properties":{"kind":"major_road","sort_rank":377,"landuse_kind":"urban_area","is_bicycle_related":true,"bicycle_shield_text":"GV","bicycle_network":"ncn","source":"openstreetmap.org","min_zoom":8.0,"kind_detail":"tertiary","ref":"1019R"},"arcs":[303]},{"type":"MultiLineString","properties":{"kind":"path","footway":"sidewalk","sort_rank":354,"landuse_kind":"urban_area","is_bicycle_related":true,"bicycle_shield_text":"GV","bicycle_network":"ncn","source":"openstreetmap.org","min_zoom":8.0,"kind_detail":"footway"},"arcs":[[304],[305],[306],[307]]},{"type":"LineString","properties":{"kind":"major_road","sort_rank":377,"kind_detail":"tertiary","is_bicycle_related":true,"bus_network":"ZTM Rzesz\u00f3w","bicycle_shield_text":"GV","bicycle_network":"ncn","source":"openstreetmap.org","min_zoom":8.0,"bus_shield_text":"21","id":146341391},"arcs":[308]},{"type":"LineString","properties":{"bus_network":"ZTM Rzesz\u00f3w","sort_rank":377,"kind_detail":"tertiary","is_bicycle_related":true,"kind":"major_road","bicycle_shield_text":"GV","bicycle_network":"ncn","source":"openstreetmap.org","min_zoom":8.0,"bus_shield_text":"11"},"arcs":[309]},{"type":"MultiLineString","properties":{"kind":"path","sort_rank":354,"kind_detail":"track","is_bicycle_related":true,"bicycle_shield_text":"GV","bicycle_network":"ncn","source":"openstreetmap.org","min_zoom":8.0},"arcs":[[310],[311],[312],[313],[314],[315],[316],[317],[318],[319],[320],[321],[322],[323],[324],[325],[326]]},{"type":"MultiLineString","properties":{"bus_network":"ZTM Rzesz\u00f3w","network":"pl:national","sort_rank":380,"kind_detail":"primary","kind":"major_road","source":"openstreetmap.org","min_zoom":8.0,"bus_shield_text":"1","shield_text":"94","landuse_kind":"urban_area","ref":"94"},"arcs":[[327],[328],[329],[330],[331]]},{"type":"MultiLineString","properties":{"kind":"major_road","network":"pl:national","sort_rank":380,"kind_detail":"primary","is_bicycle_related":true,"bicycle_shield_text":"GV","bicycle_network":"ncn","source":"openstreetmap.org","min_zoom":8.0,"shield_text":"77","ref":"77"},"arcs":[[332],[333],[334]]},{"type":"MultiLineString","properties":{"kind":"path","footway":"crossing","sort_rank":354,"landuse_kind":"urban_area","is_bicycle_related":true,"bicycle_shield_text":"GV","bicycle_network":"ncn","source":"openstreetmap.org","min_zoom":8.0,"kind_detail":"footway"},"arcs":[[335],[336],[337]]},{"type":"MultiLineString","properties":{"kind":"minor_road","sort_rank":360,"landuse_kind":"urban_area","is_bicycle_related":true,"bicycle_shield_text":"GV","bicycle_network":"ncn","source":"openstreetmap.org","min_zoom":8.0,"kind_detail":"unclassified"},"arcs":[[338],[339],[340],[341]]},{"type":"MultiLineString","properties":{"kind":"major_road","sort_rank":377,"kind_detail":"tertiary","is_bicycle_related":true,"bicycle_shield_text":"GV","bicycle_network":"ncn","source":"openstreetmap.org","min_zoom":8.0,"ref":"1427R"},"arcs":[[342],[343]]},{"type":"MultiLineString","properties":{"sort_rank":381,"source":"openstreetmap.org","min_zoom":8.0,"kind":"major_road","kind_detail":"trunk"},"arcs":[[344],[345]]},{"type":"LineString","properties":{"kind":"path","sort_rank":354,"kind_detail":"pedestrian","is_bicycle_related":true,"bicycle_shield_text":"GV","bicycle_network":"ncn","source":"openstreetmap.org","min_zoom":8.0,"landuse_kind":"urban_area","id":62255144},"arcs":[346]},{"type":"LineString","properties":{"kind":"major_road","network":"pl:national","sort_rank":380,"kind_detail":"primary","source":"openstreetmap.org","min_zoom":8.0,"shield_text":"9","ref":"9;872"},"arcs":[347]},{"type":"MultiLineString","properties":{"kind":"minor_road","sort_rank":360,"landuse_kind":"urban_area","is_bicycle_related":true,"bicycle_shield_text":"GV","bicycle_network":"ncn","source":"openstreetmap.org","min_zoom":8.0,"kind_detail":"residential"},"arcs":[[348],[349],[350],[351],[352],[353]]},{"type":"LineString","properties":{"kind":"major_road","network":"pl:national","sort_rank":380,"kind_detail":"primary","source":"openstreetmap.org","min_zoom":8.0,"shield_text":"9","ref":"9;758","id":49828229},"arcs":[354]},{"type":"MultiLineString","properties":{"kind":"path","sort_rank":354,"landuse_kind":"urban_area","is_bicycle_related":true,"bicycle_shield_text":"GV","bicycle_network":"ncn","source":"openstreetmap.org","min_zoom":8.0,"kind_detail":"cycleway"},"arcs":[[355],[356],[357],[358],[359],[360],[361],[362],[363]]},{"type":"MultiLineString","properties":{"kind":"major_road","network":"pl:national","sort_rank":380,"kind_detail":"primary","source":"openstreetmap.org","min_zoom":8.0,"shield_text":"79","ref":"79"},"arcs":[[364],[365],[366],[367],[368],[369],[370],[371],[372],[373],[374],[375],[376],[377],[378],[379],[380]]},{"type":"MultiLineString","properties":{"bus_network":"ZTM Rzesz\u00f3w","network":"pl:national","sort_rank":380,"kind_detail":"primary","kind":"major_road","source":"openstreetmap.org","min_zoom":8.0,"bus_shield_text":"10","shield_text":"94","landuse_kind":"urban_area","ref":"94"},"arcs":[[381],[382],[383]]},{"type":"LineString","properties":{"kind":"major_road","network":"pl:national","sort_rank":380,"kind_detail":"primary","source":"openstreetmap.org","min_zoom":8.0,"landuse_kind":"nature_reserve","shield_text":"19","ref":"19"},"arcs":[384]},{"type":"MultiLineString","properties":{"kind":"major_road","sort_rank":377,"kind_detail":"tertiary","is_bicycle_related":true,"bicycle_shield_text":"GV","bicycle_network":"ncn","source":"openstreetmap.org","min_zoom":8.0,"ref":"1519R"},"arcs":[[385],[386]]},{"type":"MultiLineString","properties":{"kind":"path","sort_rank":354,"landuse_kind":"urban_area","is_bicycle_related":true,"bicycle_shield_text":"GV","bicycle_network":"ncn","source":"openstreetmap.org","min_zoom":8.0,"kind_detail":"footway"},"arcs":[[387],[388],[389]]},{"type":"LineString","properties":{"bus_network":"ZTM Rzesz\u00f3w","sort_rank":377,"kind_detail":"tertiary","is_bicycle_related":true,"kind":"major_road","bicycle_shield_text":"GV","bicycle_network":"ncn","source":"openstreetmap.org","min_zoom":8.0,"bus_shield_text":"11","ref":"1392R","id":145644832},"arcs":[390]},{"type":"MultiLineString","properties":{"kind":"highway","network":"pl:national","sort_rank":383,"kind_detail":"motorway","source":"openstreetmap.org","min_zoom":8.0,"all_networks":["pl:national","e-road","pl:motorways"],"shield_text":"4","ref":"A4","all_shield_texts":["4","40","4"]},"arcs":[[391],[392],[393],[394],[395],[396],[397],[398],[399],[400],[401],[402]]},{"type":"MultiLineString","properties":{"kind":"major_road","network":"pl:national","sort_rank":380,"kind_detail":"primary","source":"openstreetmap.org","min_zoom":8.0,"shield_text":"19","ref":"19"},"arcs":[[403],[404],[405],[406],[407],[408],[409],[410],[411],[412],[413],[414],[415],[416],[417],[418],[419],[420],[421],[422],[423],[424],[425],[426],[427],[428]]},{"type":"MultiLineString","properties":{"bus_network":"ZTM Rzesz\u00f3w","network":"pl:national","sort_rank":380,"kind_detail":"primary","kind":"major_road","source":"openstreetmap.org","min_zoom":8.0,"bus_shield_text":"36","shield_text":"94","landuse_kind":"urban_area","ref":"94"},"arcs":[[429],[430],[431],[432],[433]]},{"type":"MultiLineString","properties":{"kind":"highway","network":"pl:national","sort_rank":383,"landuse_kind":"urban_area","source":"openstreetmap.org","min_zoom":8.0,"all_networks":["pl:national","e-road","pl:motorways"],"kind_detail":"motorway","shield_text":"4","ref":"A4","all_shield_texts":["4","40","4"]},"arcs":[[434],[435]]},{"type":"MultiLineString","properties":{"kind":"minor_road","sort_rank":360,"kind_detail":"unclassified","is_bicycle_related":true,"bicycle_shield_text":"GV","bicycle_network":"ncn","source":"openstreetmap.org","min_zoom":8.0},"arcs":[[436],[437],[438],[439],[440],[441]]},{"type":"LineString","properties":{"kind":"major_road","network":"pl:regional","sort_rank":379,"kind_detail":"secondary","is_bicycle_related":true,"bicycle_shield_text":"GV","bicycle_network":"ncn","source":"openstreetmap.org","min_zoom":8.0,"shield_text":"856","ref":"856"},"arcs":[442]},{"type":"LineString","properties":{"kind":"major_road","network":"pl:regional","sort_rank":379,"kind_detail":"secondary","is_bicycle_related":true,"bicycle_shield_text":"GV","bicycle_network":"ncn","source":"openstreetmap.org","min_zoom":8.0,"shield_text":"855","ref":"855"},"arcs":[443]},{"type":"LineString","properties":{"kind":"major_road","network":"pl:national","sort_rank":380,"kind_detail":"primary","source":"openstreetmap.org","min_zoom":8.0,"shield_text":"94","ref":"4","id":396561042},"arcs":[444]},{"type":"MultiLineString","properties":{"kind":"major_road","network":"pl:national","sort_rank":380,"kind_detail":"primary","source":"openstreetmap.org","min_zoom":8.0,"landuse_kind":"urban_area","shield_text":"77","ref":"77;79"},"arcs":[[445],[446],[447]]},{"type":"MultiLineString","properties":{"kind":"major_road","network":"pl:expressways","sort_rank":381,"kind_detail":"trunk","source":"openstreetmap.org","min_zoom":8.0,"shield_text":"19","ref":"S19"},"arcs":[[448],[449]]},{"type":"LineString","properties":{"kind":"path","sort_rank":354,"kind_detail":"footway","is_bicycle_related":true,"bicycle_shield_text":"GV","bicycle_network":"ncn","source":"openstreetmap.org","min_zoom":8.0,"id":166898041},"arcs":[450]},{"type":"LineString","properties":{"bus_network":"ZTM Rzesz\u00f3w","network":"pl:national","sort_rank":380,"kind_detail":"primary","kind":"major_road","source":"openstreetmap.org","min_zoom":8.0,"bus_shield_text":"0B","shield_text":"94","landuse_kind":"urban_area","ref":"94"},"arcs":[451]},{"type":"MultiLineString","properties":{"kind":"major_road","network":"pl:national","sort_rank":380,"kind_detail":"primary","is_bicycle_related":true,"bicycle_shield_text":null,"bicycle_network":"lcn","source":"openstreetmap.org","min_zoom":8.0,"shield_text":"19","ref":"19"},"arcs":[[452],[453]]},{"type":"LineString","properties":{"kind":"major_road","sort_rank":377,"kind_detail":"tertiary","is_bicycle_related":true,"bicycle_shield_text":"GV","bicycle_network":"ncn","source":"openstreetmap.org","min_zoom":8.0,"ref":"1260R"},"arcs":[454]},{"type":"LineString","properties":{"kind":"major_road","sort_rank":380,"kind_detail":"primary","bus_network":"ZTM Rzesz\u00f3w","source":"openstreetmap.org","min_zoom":8.0,"bus_shield_text":"6","landuse_kind":"urban_area","id":542408940},"arcs":[455]},{"type":"MultiLineString","properties":{"bus_network":"ZTM Rzesz\u00f3w","network":"pl:national","sort_rank":380,"kind_detail":"primary","kind":"major_road","source":"openstreetmap.org","min_zoom":8.0,"bus_shield_text":"6","shield_text":"94","landuse_kind":"urban_area","ref":"94"},"arcs":[[456],[457],[458]]},{"type":"LineString","properties":{"kind":"major_road","network":"pl:national","sort_rank":380,"kind_detail":"primary","source":"openstreetmap.org","min_zoom":8.0,"shield_text":"94","ref":"94;881"},"arcs":[459]},{"type":"LineString","properties":{"kind":"major_road","network":"pl:national","sort_rank":380,"kind_detail":"primary","is_bicycle_related":true,"bicycle_shield_text":"GV","bicycle_network":"ncn","source":"openstreetmap.org","min_zoom":8.0,"shield_text":"9","ref":"9;758","id":521797607},"arcs":[460]},{"type":"LineString","properties":{"kind":"major_road","sort_rank":377,"kind_detail":"tertiary","is_bicycle_related":true,"bicycle_shield_text":"GV","bicycle_network":"ncn","source":"openstreetmap.org","min_zoom":8.0,"ref":"1415R","id":363896468},"arcs":[461]},{"type":"MultiLineString","properties":{"source":"openstreetmap.org","kind":"major_road","network":"pl:national","sort_rank":380,"kind_detail":"primary","min_zoom":8.0,"shield_text":"19"},"arcs":[[462],[463]]},{"type":"MultiLineString","properties":{"bus_network":"ZTM Rzesz\u00f3w","sort_rank":377,"kind_detail":"tertiary","is_bicycle_related":true,"kind":"major_road","bicycle_shield_text":"GV","bicycle_network":"ncn","source":"openstreetmap.org","min_zoom":8.0,"bus_shield_text":"21","ref":"1414R"},"arcs":[[464],[465]]},{"type":"LineString","properties":{"kind":"major_road","sort_rank":377,"kind_detail":"tertiary","is_bicycle_related":true,"bicycle_shield_text":"GV","bicycle_network":"ncn","source":"openstreetmap.org","min_zoom":8.0,"ref":"1422R"},"arcs":[466]},{"type":"MultiLineString","properties":{"kind":"major_road","sort_rank":377,"kind_detail":"tertiary","is_bicycle_related":true,"bicycle_shield_text":"GV","bicycle_network":"ncn","source":"openstreetmap.org","min_zoom":8.0,"ref":"1019R"},"arcs":[[467],[468]]},{"type":"LineString","properties":{"source":"openstreetmap.org","bus_network":"ZTM Rzesz\u00f3w","bus_shield_text":"1","sort_rank":380,"kind_detail":"primary","min_zoom":8.0,"kind":"major_road"},"arcs":[469]},{"type":"LineString","properties":{"kind":"major_road","network":"pl:national","sort_rank":380,"kind_detail":"primary","bus_network":"ZTM Rzesz\u00f3w","source":"openstreetmap.org","min_zoom":8.0,"bus_shield_text":"5","shield_text":"94","landuse_kind":"urban_area","ref":"94","id":9390356},"arcs":[470]},{"type":"LineString","properties":{"source":"openstreetmap.org","kind":"major_road","network":"pl:national","sort_rank":380,"kind_detail":"primary","min_zoom":8.0,"shield_text":"94"},"arcs":[471]},{"type":"MultiLineString","properties":{"bus_network":"ZTM Rzesz\u00f3w","network":"pl:national","sort_rank":380,"kind_detail":"primary","kind":"major_road","source":"openstreetmap.org","min_zoom":8.0,"bus_shield_text":"1","shield_text":"94","ref":"94"},"arcs":[[472],[473],[474],[475]]},{"type":"MultiLineString","properties":{"kind":"path","sort_rank":354,"kind_detail":"cycleway","is_bicycle_related":true,"bicycle_shield_text":"GV","bicycle_network":"ncn","source":"openstreetmap.org","min_zoom":8.0},"arcs":[[476],[477]]},{"type":"MultiLineString","properties":{"kind":"major_road","network":"pl:national","sort_rank":380,"kind_detail":"primary","source":"openstreetmap.org","min_zoom":8.0,"landuse_kind":"urban_area","shield_text":"77"},"arcs":[[478],[479]]},{"type":"LineString","properties":{"bus_network":"ZTM Rzesz\u00f3w","sort_rank":377,"kind_detail":"tertiary","is_bicycle_related":true,"kind":"major_road","bicycle_shield_text":"GV","bicycle_network":"ncn","source":"openstreetmap.org","min_zoom":8.0,"bus_shield_text":"7","ref":"1404R","id":289111606},"arcs":[480]},{"type":"MultiLineString","properties":{"kind":"major_road","network":"pl:regional","sort_rank":379,"kind_detail":"secondary","is_bicycle_related":true,"bicycle_shield_text":"GV","bicycle_network":"ncn","source":"openstreetmap.org","min_zoom":8.0,"shield_text":"877","ref":"877"},"arcs":[[481],[482]]},{"type":"LineString","properties":{"kind":"major_road","network":"pl:national","sort_rank":381,"kind_detail":"trunk","source":"openstreetmap.org","min_zoom":8.0,"shield_text":"19","ref":"S19(","id":253238133},"arcs":[483]},{"type":"LineString","properties":{"kind":"major_road","sort_rank":377,"kind_detail":"tertiary","is_bicycle_related":true,"bicycle_shield_text":"GV","bicycle_network":"ncn","source":"openstreetmap.org","min_zoom":8.0,"ref":"1392R"},"arcs":[484]},{"type":"MultiLineString","properties":{"source":"openstreetmap.org","kind":"major_road","landuse_kind":"urban_area","sort_rank":380,"kind_detail":"primary","min_zoom":8.0},"arcs":[[485],[486],[487],[488],[489],[490],[491],[492],[493],[494]]},{"type":"MultiLineString","properties":{"kind":"major_road","network":"pl:national","sort_rank":380,"kind_detail":"primary","source":"openstreetmap.org","min_zoom":8.0,"shield_text":"9","ref":"9;875"},"arcs":[[495],[496]]},{"type":"MultiLineString","properties":{"bus_network":"ZTM Rzesz\u00f3w","network":"pl:national","sort_rank":380,"kind_detail":"primary","kind":"major_road","source":"openstreetmap.org","min_zoom":8.0,"bus_shield_text":"22","shield_text":"94","ref":"94"},"arcs":[[497],[498]]},{"type":"LineString","properties":{"kind":"path","sort_rank":354,"kind_detail":"cycleway","is_bicycle_related":true,"bicycle_shield_text":"GV","cycleway":"crossing","source":"openstreetmap.org","min_zoom":8.0,"landuse_kind":"urban_area","bicycle_network":"ncn","id":225277815},"arcs":[499]},{"type":"LineString","properties":{"kind":"major_road","network":"pl:national","sort_rank":380,"kind_detail":"primary","is_bicycle_related":true,"bicycle_shield_text":null,"bicycle_network":"rcn","source":"openstreetmap.org","min_zoom":8.0,"shield_text":"77","ref":"77","id":48609752},"arcs":[500]},{"type":"LineString","properties":{"kind":"major_road","sort_rank":377,"kind_detail":"tertiary","is_bicycle_related":true,"bicycle_shield_text":"GV","bicycle_network":"ncn","source":"openstreetmap.org","min_zoom":8.0,"ref":"1510R"},"arcs":[501]},{"type":"LineString","properties":{"kind":"major_road","network":"e-road","sort_rank":380,"kind_detail":"primary","source":"openstreetmap.org","min_zoom":8.0,"shield_text":"371","ref":"9;875","id":510751039},"arcs":[502]},{"type":"MultiLineString","properties":{"kind":"minor_road","sort_rank":360,"kind_detail":"residential","is_bicycle_related":true,"bicycle_shield_text":"GV","bicycle_network":"ncn","source":"openstreetmap.org","min_zoom":8.0},"arcs":[[503],[504],[505],[506],[507],[508],[509],[510],[511],[512],[513],[514],[515],[516],[517],[518],[519],[520],[521],[522],[523],[524],[525],[526],[527],[528],[529],[530],[531],[532],[533],[534],[535],[536],[537],[538],[539],[540],[541],[542],[543],[544],[545],[546],[547],[548],[549],[550],[551],[552]]},{"type":"MultiLineString","properties":{"bus_network":"ZTM Rzesz\u00f3w","network":"pl:national","sort_rank":380,"kind_detail":"primary","kind":"major_road","source":"openstreetmap.org","min_zoom":8.0,"bus_shield_text":"4","shield_text":"94","landuse_kind":"urban_area","ref":"94"},"arcs":[[553],[554]]},{"type":"LineString","properties":{"source":"openstreetmap.org","kind":"major_road","sort_rank":381,"kind_detail":"trunk","ref":"S19","min_zoom":8.0,"id":527376607},"arcs":[555]},{"type":"MultiLineString","properties":{"source":"openstreetmap.org","kind":"major_road","sort_rank":380,"kind_detail":"primary","ref":"19","min_zoom":8.0},"arcs":[[556],[557]]},{"type":"LineString","properties":{"source":"openstreetmap.org","kind":"major_road","sort_rank":380,"kind_detail":"primary","ref":"94","min_zoom":8.0,"id":351250906},"arcs":[558]},{"type":"LineString","properties":{"kind":"major_road","network":"pl:regional","sort_rank":379,"kind_detail":"secondary","is_bicycle_related":true,"bicycle_shield_text":"GV","bicycle_network":"ncn","source":"openstreetmap.org","min_zoom":8.0,"shield_text":"858","ref":"858","id":61870490},"arcs":[559]},{"type":"MultiLineString","properties":{"bus_network":"ZTM Rzesz\u00f3w","network":"pl:national","sort_rank":380,"kind_detail":"primary","kind":"major_road","source":"openstreetmap.org","min_zoom":8.0,"bus_shield_text":"13","shield_text":"94","landuse_kind":"urban_area","ref":"94"},"arcs":[[560],[561],[562]]},{"type":"MultiLineString","properties":{"kind":"major_road","sort_rank":377,"kind_detail":"tertiary","is_bicycle_related":true,"bicycle_shield_text":"GV","bicycle_network":"ncn","source":"openstreetmap.org","min_zoom":8.0},"arcs":[[563],[564],[565],[566],[567],[568],[569],[570],[571],[572],[573],[574],[575],[576],[577],[578],[579],[580],[581],[582],[583],[584],[585],[586],[587]]},{"type":"MultiLineString","properties":{"bus_network":"ZTM Rzesz\u00f3w","sort_rank":377,"landuse_kind":"urban_area","is_bicycle_related":true,"kind":"major_road","bicycle_shield_text":"GV","bicycle_network":"ncn","source":"openstreetmap.org","min_zoom":8.0,"bus_shield_text":"7","kind_detail":"tertiary"},"arcs":[[588],[589]]},{"type":"MultiLineString","properties":{"bus_network":"ZTM Rzesz\u00f3w","network":"pl:national","sort_rank":380,"kind_detail":"primary","kind":"major_road","source":"openstreetmap.org","min_zoom":8.0,"bus_shield_text":"3","shield_text":"94","ref":"94"},"arcs":[[590],[591],[592],[593]]},{"type":"LineString","properties":{"kind":"major_road","network":"pl:national","sort_rank":380,"kind_detail":"primary","is_bicycle_related":true,"bicycle_shield_text":null,"bicycle_network":"rcn","source":"openstreetmap.org","min_zoom":8.0,"shield_text":"79","ref":"79","id":234908931},"arcs":[594]},{"type":"MultiLineString","properties":{"kind":"major_road","network":"pl:national","sort_rank":380,"kind_detail":"primary","source":"openstreetmap.org","min_zoom":8.0,"shield_text":"77","ref":"77"},"arcs":[[595],[596],[597],[598],[599],[600],[601],[602],[603],[604],[605],[606],[607],[608],[609],[610],[611],[612],[613],[614],[615],[616],[617],[618],[619],[620]]},{"type":"LineString","properties":{"kind":"minor_road","sort_rank":360,"kind_detail":"living_street","is_bicycle_related":true,"bicycle_shield_text":"GV","bicycle_network":"ncn","source":"openstreetmap.org","min_zoom":8.0,"id":365921714},"arcs":[621]},{"type":"MultiLineString","properties":{"kind":"major_road","sort_rank":377,"kind_detail":"tertiary","is_bicycle_related":true,"bicycle_shield_text":"GV","bicycle_network":"ncn","source":"openstreetmap.org","min_zoom":8.0,"ref":"1515R"},"arcs":[[622],[623]]},{"type":"LineString","properties":{"bus_network":"ZTM Rzesz\u00f3w","sort_rank":377,"kind_detail":"tertiary","is_bicycle_related":true,"kind":"major_road","bicycle_shield_text":"GV","bicycle_network":"ncn","source":"openstreetmap.org","min_zoom":8.0,"bus_shield_text":"7"},"arcs":[624]},{"type":"MultiLineString","properties":{"kind":"major_road","network":"pl:national","sort_rank":380,"kind_detail":"primary","is_bicycle_related":true,"bicycle_shield_text":null,"bicycle_network":"lcn","source":"openstreetmap.org","min_zoom":8.0,"shield_text":"73","ref":"73"},"arcs":[[625],[626],[627],[628]]},{"type":"LineString","properties":{"kind":"major_road","sort_rank":377,"kind_detail":"tertiary","is_bicycle_related":true,"bicycle_shield_text":"GV","bicycle_network":"ncn","source":"openstreetmap.org","min_zoom":8.0,"ref":"1062R","id":41088055},"arcs":[629]},{"type":"LineString","properties":{"kind":"major_road","sort_rank":377,"kind_detail":"tertiary","is_bicycle_related":true,"bicycle_shield_text":"GV","bicycle_network":"ncn","source":"openstreetmap.org","min_zoom":8.0,"ref":"1511R","id":365605506},"arcs":[630]},{"type":"MultiLineString","properties":{"kind":"major_road","network":"pl:national","sort_rank":380,"kind_detail":"primary","bicycle_shield_text":null,"bicycle_network":"lwn","source":"openstreetmap.org","min_zoom":8.0,"shield_text":"9","ref":"9"},"arcs":[[631],[632],[633],[634]]}]},"earth":{"type":"GeometryCollection","geometries":[{"type":"Polygon","properties":{"sort_rank":10,"source":"naturalearthdata.com","kind":"earth","min_zoom":0.0,"id":4754},"arcs":[[635]]}]},"landuse":{"type":"GeometryCollection","geometries":[{"type":"MultiPolygon","properties":{"kind":"nature_reserve","protect_class":"5","area":4179801833,"sort_rank":23,"source":"openstreetmap.org","min_zoom":6.0,"tier":2,"osm_relation":true},"arcs":[[[636]],[[637]],[[638]],[[639]]]},{"type":"MultiPolygon","properties":{"source":"openstreetmap.org","kind":"nature_reserve","tier":2,"protect_class":"4","area":75895658,"sort_rank":23,"min_zoom":8.0},"arcs":[[[640]],[[641]]]},{"type":"MultiPolygon","properties":{"source":"openstreetmap.org","kind":"military","tier":3,"area":155285692,"sort_rank":45,"min_zoom":8.0},"arcs":[[[642]]]},{"type":"MultiPolygon","properties":{"source":"naturalearthdata.com","kind":"urban_area","name":"","area":2226276051,"sort_rank":11,"min_zoom":4.0},"arcs":[[[643]],[[644]],[[645]],[[646]],[[647]],[[648]],[[649]],[[650]]]},{"type":"MultiPolygon","properties":{"kind":"nature_reserve","protect_class":"4","area":90434256,"sort_rank":23,"source":"openstreetmap.org","min_zoom":8.0,"tier":2,"osm_relation":true},"arcs":[[[651]],[[652],[653],[654]]]},{"type":"Polygon","properties":{"kind":"military","area":56920900,"sort_rank":45,"operator":"Wojskowy Instytut Techniczny Uzbrojenia","source":"openstreetmap.org","min_zoom":8.0,"tier":3,"id":-4022746,"osm_relation":true},"arcs":[[655]]}]}},"type":"Topology","transform":{"translate":[21.09375,49.8379824531],"scale":[0.0003433228,0.0002193537]},"arcs":[[[628,0],[-36,22],[-83,11],[-11,-23],[-37,3],[-79,54],[4,151],[102,-4],[53,32],[25,80],[-10,66],[-105,32],[-201,-12],[-85,219],[12,123],[71,38],[41,80],[-121,73],[-19,35],[62,31],[-2,34],[41,41],[-57,61],[114,25],[-42,24],[6,27],[-29,26],[53,36],[-160,35],[12,33],[58,5],[34,31],[-68,23],[54,132],[-17,18],[17,126],[-84,134],[118,11],[-108,78],[93,103],[18,83],[113,59],[-27,89],[16,50],[-29,62]],[[335,2357],[-54,-13],[-40,-102],[-65,99],[-64,13],[-56,-72],[-56,-7]],[[4096,3399],[-24,-3],[-3,-29],[-21,-4],[15,20],[-68,20],[0,34],[-132,-51],[-209,154],[-143,12],[-28,27],[-118,-11],[-8,66],[-68,114],[-48,28],[-188,16],[79,85],[24,57],[-20,24],[58,138]],[[4096,2348],[-57,0],[-73,63],[-7,99],[-52,18],[6,33],[-100,-21],[27,129],[99,-20],[12,63],[27,6],[-9,53],[-27,4],[27,25],[-35,45],[55,17],[8,-26],[99,-23]],[[2182,4096],[-64,-205],[-101,-52],[22,-20],[-44,-77],[4,-63],[-87,47],[-49,-62],[-31,17],[-36,-71],[-119,-113],[-38,-152],[-157,-235],[-136,2],[-212,-109],[-105,-22],[-14,-31],[27,-96],[-23,-35],[-123,-78],[-100,8],[-163,-88],[-87,-61],[-7,-75],[-64,-4],[-21,-61],[-57,-19],[-25,-67],[-37,-17]],[[2641,934],[-116,473],[-118,92],[-149,171],[-181,79],[-126,220],[-34,101],[29,151],[-73,59],[-14,74],[24,85],[-72,54],[11,44],[71,40],[4,154],[-46,110],[-102,108],[8,127],[-32,40],[4,74]],[[1513,0],[0,1],[35,90],[259,82],[298,-41],[43,142],[-37,178],[47,15],[80,-33],[118,11],[61,181],[141,183],[57,121],[26,4]],[[2965,4096],[-125,-167],[-29,-130],[-75,-63],[-10,-265]],[[2726,3471],[148,-255],[74,-82],[5,-3],[2,-1],[66,-27],[41,-30],[146,-134],[46,-83],[44,-72],[90,-79],[-16,-286],[4,-11],[29,-35],[192,-101],[35,-45]],[[3632,2227],[-23,34],[-4,5],[-5,5],[-114,76],[-4,2],[-3,1],[-20,2],[-53,21],[-30,35],[-3,11],[17,278],[0,4],[-1,4],[-3,3],[-88,76],[-44,72],[-38,73],[-3,4],[-5,6],[-130,121],[-11,10],[-4,3],[-42,30],[-6,3],[-62,25],[-4,3],[-75,82],[-110,216],[-3,3],[-31,32],[-2,2],[-2,2]],[[3642,2214],[-10,13]],[[3642,2214],[81,-131],[12,-11],[68,-74],[2,-1],[4,-3],[3,-1],[30,-10],[7,-6],[19,-51],[1,-2],[2,-2],[2,-2],[2,-1],[20,-9],[15,-23],[2,-2],[3,-2],[66,-31],[11,-25],[0,-8],[-6,-14],[0,-3],[0,-2],[0,-2],[6,-18],[6,-15],[16,-33],[69,-146],[13,-25]],[[4096,1561],[-103,219],[-1,47],[-11,25],[-66,31],[-20,27],[-24,12],[-21,55],[-127,106],[-81,131]],[[4089,1047],[7,43]],[[0,914],[87,20],[273,106],[142,-59],[133,-30],[169,-5],[46,8],[98,53],[494,93],[157,-24],[186,3],[137,-58],[226,76],[234,-3],[95,15],[90,-28],[48,-61],[3,-9],[4,-31],[6,-35],[1,-4],[7,-6],[13,-1],[37,6],[4,4],[11,24],[11,8],[38,2],[9,2],[429,132],[591,8],[181,-17],[96,-29],[8,-5],[15,-18],[2,-1],[15,-4]],[[0,914],[87,21],[11,5],[49,32],[5,3],[6,3],[5,2],[184,58],[6,1],[7,1],[4,0],[6,0],[12,-2],[8,-1],[6,-1],[34,-11],[7,-2],[6,-3],[5,-4],[40,-28],[14,-7],[133,-30],[168,-4],[47,7],[82,47],[6,3],[9,3],[475,90],[20,3],[50,2],[4,0],[43,-5],[4,-1],[4,-1],[38,-16],[14,-3],[12,1],[48,9],[6,1],[5,0],[4,0],[54,-3],[52,-4],[5,-1],[5,-1],[4,-2],[16,-7],[29,-8],[8,-2],[75,-38],[120,46],[8,2],[27,4],[61,21],[6,2],[4,1],[5,0],[7,0],[222,-3],[88,15],[4,0],[3,0],[7,-1],[53,-11],[7,-2],[7,-2],[6,-4],[5,-4],[5,-4],[4,-4],[39,-48],[4,-6],[3,-6],[1,-5],[11,-69],[17,-9],[39,5],[5,5],[9,21],[2,3],[2,3],[3,2],[3,2],[3,1],[3,1],[4,0],[31,1],[9,2],[419,130],[5,1],[5,1],[251,7],[331,1],[9,0],[169,-15],[6,-1],[6,-1],[96,-28],[5,-3],[4,-3],[8,-10],[7,-8],[1,-1],[15,-4]],[[1726,3149],[22,165],[105,109]],[[1853,3423],[63,59],[215,-15],[257,172],[344,-174]],[[2732,3465],[-6,5],[-2,2],[-21,10],[-16,10],[-19,10],[-260,131],[-12,6],[-5,0],[-3,0],[-4,0],[-3,-1],[-3,-1],[-90,-49],[-132,-103]],[[1826,3907],[82,2]],[[569,2742],[0,-1],[1,0],[-1,1]],[[2571,889],[-1,-11]],[[2571,877],[1,12]],[[2571,894],[0,-1]],[[2575,923],[0,1]],[[2588,945],[2,-1]],[[1938,3798],[1,0]],[[590,677],[22,1]],[[612,678],[38,21]],[[650,699],[170,176]],[[820,875],[25,12]],[[845,888],[-11,-3],[-10,-6],[-4,-4]],[[857,888],[-11,0]],[[847,887],[10,1]],[[857,888],[16,2]],[[1028,967],[16,16]],[[1044,983],[10,11]],[[1054,995],[-10,-12]],[[1054,994],[2,1]],[[1054,994],[2,1]],[[1055,995],[-1,0]],[[1055,996],[-1,-1]],[[1056,996],[-1,0]],[[1055,996]],[[1057,996],[-2,-1]],[[1055,995],[1,0]],[[1056,995],[1,1]],[[1056,995],[2,2]],[[1058,997],[-2,-1]],[[1057,996],[-1,0]],[[1058,997],[-1,-1]],[[1057,996]],[[1057,996],[1,1]],[[1058,997],[32,7]],[[1090,1004],[-32,-7]],[[1111,1008],[-21,-4]],[[1111,1008],[34,5]],[[1178,1018],[-33,-5]],[[1178,1018],[235,-1],[59,-36]],[[1473,982],[-4,7],[-12,12],[-10,7],[-6,3],[-30,6],[-22,2],[-123,4],[-86,-4],[-2,-1]],[[1489,965],[48,3],[29,31]],[[1565,999],[-75,-34]],[[1581,1011],[-15,-10]],[[1567,1000],[14,11]],[[1581,1011],[27,16]],[[1608,1027],[33,15]],[[1641,1042],[11,3]],[[1652,1045],[53,5]],[[1727,1035],[-22,15]],[[1727,1035],[12,-9]],[[1739,1026],[14,-3]],[[1857,1032],[-104,-9]],[[1860,1035],[-3,-3]],[[1863,1037],[-3,-2]],[[1863,1037],[16,13]],[[1879,1050],[124,12]],[[2016,1062],[-13,0]],[[2028,1063],[-12,-1]],[[2028,1063],[42,1]],[[2070,1064],[101,0]],[[2171,1065],[-22,2],[-79,-3]],[[2341,1066],[-4,0]],[[2420,1042],[-2,0]],[[2425,1040],[-5,2]],[[2420,1041],[0,1]],[[2420,1041],[5,-2]],[[2431,1037],[-2,1]],[[2429,1038],[6,-2]],[[2506,1008],[-1,1]],[[2505,1008],[3,-1]],[[2831,919],[97,9],[48,6],[211,30],[9,3],[79,53],[7,2]],[[3282,1022],[-8,-2],[-77,-51],[-348,-48]],[[3282,1022],[21,1]],[[3340,1035],[78,69]],[[3418,1104],[594,-86]],[[4012,1018],[36,-5]],[[4048,1014],[-36,4]],[[4087,1006],[9,-3]],[[846,886],[1,1],[-1,1],[-1,0]],[[845,888],[1,-2]],[[2358,1064],[-3,0]],[[2832,1023],[-53,-14]],[[2796,3393],[-1,2]],[[3191,3122],[-19,-28]],[[2575,1231],[-168,-11]],[[2416,1219],[43,-2],[116,13]],[[2079,3681],[117,-15]],[[535,4070],[1,1]],[[2972,168],[-36,-1]],[[1180,4062],[-1,-2]],[[1180,4060],[3,1]],[[2422,1041],[0,-1]],[[2423,1041]],[[2423,1039]],[[2424,1040]],[[2432,1038],[-1,0]],[[2432,1036],[1,1]],[[3088,3095],[2,-3]],[[3093,3094],[0,1]],[[2813,3413],[0,-1]],[[2813,3415],[1,-2]],[[1939,3794],[-8,25]],[[1939,3794],[2,-4]],[[1942,3786],[-1,4]],[[2687,3510],[94,-38],[30,-55],[-16,-22]],[[2814,3414],[-33,59],[-63,37],[-31,1]],[[2796,3395],[18,17]],[[2816,3365],[2,-2]],[[2831,3330],[6,-32],[7,-17],[23,-50]],[[2867,3231],[-36,99]],[[2867,3231],[46,-29]],[[2913,3202],[10,-5]],[[2923,3197],[11,-13]],[[1472,981],[4,-6],[4,-4],[9,-6]],[[1490,965],[-17,17]],[[2563,965],[0,-1]],[[2319,3692],[35,115],[74,-3]],[[2801,1166],[-226,65]],[[2575,1230],[142,-50],[45,-12],[43,-3]],[[877,890],[-4,0]],[[877,890],[2,0]],[[892,892],[-15,-2]],[[882,891],[10,1]],[[892,892],[9,1]],[[901,893],[21,6]],[[922,899],[3,2]],[[925,901],[27,15]],[[952,916],[24,13]],[[976,929],[10,4]],[[985,934],[-9,-5]],[[994,939],[-8,-4]],[[987,934],[7,5]],[[994,939],[2,2]],[[996,941],[15,12]],[[1011,953],[17,14]],[[2738,884],[0,2]],[[2831,919]],[[4048,1013],[7,-2]],[[4055,1011],[-7,3]],[[4055,1011],[16,-6]],[[4071,1005],[14,2]],[[4085,1007],[-3,0],[-11,-2]],[[4085,1007],[2,-1]],[[986,933],[1,1],[-1,1],[-1,-1],[1,-1]],[[2818,1156],[0,-15]],[[2818,1137],[0,9]],[[3190,1114],[0,-1]],[[2434,1202],[9,-115],[-24,-69],[20,-70],[-28,-132]],[[2411,816],[29,132],[-20,70],[11,28],[11,33],[1,8],[1,16],[1,54],[-10,46]],[[2874,1299],[-56,-143]],[[2818,1146],[56,153]],[[2867,1407],[9,48]],[[2867,1407],[7,-108]],[[3047,1813],[-11,-59],[-88,-98],[-72,-201]],[[3036,1754],[9,18],[3,11],[0,27],[-1,3]],[[3047,1813],[-9,67]],[[3346,2821],[0,6]],[[3349,2840],[-2,-3]],[[3829,3963],[-162,133]],[[2746,991],[1,-1]],[[2748,990],[-2,2]],[[1603,3672],[15,14]],[[2271,3622],[45,63]],[[3346,2817],[0,4]],[[3346,2827],[1,9]],[[2480,669],[54,109]],[[2534,778],[2,1]],[[2534,778],[1,1]],[[2537,779],[7,2]],[[2544,782],[-6,4]],[[2544,781],[1,1],[-1,1],[-1,-1],[1,-1]],[[0,783],[66,-1]],[[66,782],[13,1]],[[79,783],[229,17],[231,-120],[51,-3]],[[2590,838],[101,-19]],[[3864,3936],[-35,27]],[[3864,3936],[1,-2]],[[3865,3934],[-1,2]],[[3868,3934],[-2,0]],[[3866,3934],[2,0]],[[4096,3935],[-228,-1]],[[3866,3934],[-1,0],[0,-1],[1,1]],[[549,4067],[178,-166]],[[868,3818],[2,-1]],[[930,3783],[8,-3]],[[1030,3736],[4,-1]],[[1057,3727],[204,-84],[113,-74]],[[2740,965],[-6,-29],[0,-5]],[[2734,931],[6,33]],[[2818,1141],[-18,-92],[-52,-57]],[[2748,992],[52,57],[18,88]],[[3091,3094],[0,-1]],[[3092,3095],[-1,0]],[[2849,921],[-18,-2]],[[2570,878],[1,-15]],[[2572,863],[-1,14]],[[1901,3817],[-1,0]],[[2651,830],[13,43],[26,-3]],[[2691,870],[-1,-10]],[[1927,3868],[2,-9],[-2,-32],[1,-4]],[[1929,3823],[0,36],[-2,9]],[[2582,936],[-8,-12]],[[2575,924],[8,11]],[[2590,944],[1,1]],[[2736,911],[-3,-1]],[[879,890],[3,1]],[[2477,3840],[-49,-36]],[[2472,665],[8,4]],[[3011,2448],[0,1]],[[2589,947],[-1,-2]],[[602,673],[-1,5]],[[601,675],[1,-2]],[[602,673],[-16,-27],[176,-327],[60,-42]],[[857,246],[50,-43]],[[911,44],[18,-44]],[[919,193],[4,-3]],[[926,188],[1,-3]],[[2595,596],[1,-21]],[[2623,428],[10,-2]],[[2656,425],[-16,-1]],[[2662,422],[-4,2]],[[2685,429],[-12,-3]],[[1925,3820],[7,4]],[[2746,992],[0,-1]],[[2747,990],[1,0]],[[2588,945],[-4,-5]],[[2735,867],[-8,-19]],[[2735,865],[1,2]],[[1881,3807],[36,10]],[[1917,3817],[8,3]],[[1928,3823],[-11,-6]],[[1932,3824],[-3,-1]],[[2734,931],[-1,-21]],[[2736,911],[-2,20]],[[2747,990],[-7,-25]],[[2740,964],[6,13],[1,5],[1,8]],[[2795,3395],[21,-30]],[[2831,3330],[-4,14],[-7,21],[-24,28]],[[2818,3363],[13,-33]],[[1911,3818],[-1,-1]],[[1939,3797],[0,1]],[[1247,3292],[-1,1],[-1,-1],[1,-1],[1,1]],[[1055,3732],[-23,104],[32,82],[63,43],[51,97]],[[1241,3296],[-148,146],[19,156],[-55,129]],[[1177,4062],[-94,34]],[[1177,4062],[1,-4]],[[1241,3296],[4,-4]],[[1246,3293],[-5,3]],[[1246,3291],[4,-2]],[[1250,3289],[-3,3]],[[1578,3063],[-76,20],[-252,206]],[[1598,3046],[66,-85],[51,-5]],[[1719,2955],[124,-96]],[[1879,2810],[5,-6]],[[1900,2467],[-64,-116],[98,-406],[45,-60]],[[1921,2650],[1,-1]],[[1926,2595],[-5,53]],[[1926,2594],[20,-71]],[[1989,1867],[5,-13]],[[1994,1854],[0,-2]],[[1995,1852],[-1,2]],[[1994,1852]],[[1995,1850],[2,-7]],[[1997,1843],[-2,8]],[[1997,1843],[66,-101],[96,-78],[133,-9],[19,-36],[142,-89]],[[2453,1530],[17,-25]],[[2470,1505],[69,-142]],[[2541,1349],[25,-108]],[[2566,1241],[2,-7]],[[2568,1234],[-2,7]],[[2568,1234]],[[2568,1234],[0,-1]],[[2568,1233],[1,0]],[[2568,1233],[2,-8]],[[2569,1233],[-1,1]],[[2571,1225],[-2,8]],[[2571,1225],[-1,0]],[[3409,3006],[4,-8]],[[3414,2994],[2,-6]],[[2571,863],[19,-25]],[[2591,838],[-19,25]],[[1980,1885],[0,1]],[[1928,3823],[1,0]],[[2938,3503],[-22,38]],[[2733,912],[-1,-2]],[[2733,864]],[[2733,921],[0,10]],[[2734,866],[-1,-1]],[[2582,449],[3,-6]],[[2844,1023],[-2,3]],[[871,3828],[31,-14]],[[955,3774],[-17,6]],[[1460,3550],[-86,19]],[[1991,3661],[4,20]],[[2004,3660],[-4,-1]],[[2747,286],[-43,-45]],[[2712,239],[179,-32]],[[2737,367],[11,-80]],[[2905,193],[6,-7]],[[3082,12],[-5,58],[-62,76]],[[3190,1113],[-106,-31]],[[3409,2740],[36,-26]],[[3634,2366],[-22,68]],[[3789,1917],[13,-10],[-100,-36]],[[3761,2149],[40,17]],[[3933,3165],[-7,13]],[[4051,4],[2,34],[-79,-1]],[[2548,987],[15,-22]],[[2591,945],[-43,43]],[[2563,964],[25,-19]],[[2733,910]],[[2734,908],[2,3]],[[1987,3733],[-18,2]],[[3347,2837],[0,-1]],[[3390,2743],[4,-5]],[[2732,909],[0,1]],[[2733,865],[0,-1]],[[2733,932],[0,-1]],[[2772,1018],[20,16],[-6,0],[-22,-23]],[[2764,1011],[-15,-16]],[[2753,996],[4,4],[7,11]],[[2764,1011],[1,0]],[[3013,148]],[[3082,12],[68,-7],[9,-5]],[[2424,1224],[10,-22]],[[2435,1203],[-10,21]],[[1911,3818],[8,14]],[[1946,2523],[-46,-56]],[[1715,3617],[8,4]],[[1919,3832],[6,-3]],[[1957,3787],[-18,10]],[[2609,731],[8,19]],[[2779,1009],[-14,2]],[[2828,1015],[-56,3]],[[1056,3727],[-1,5]],[[1900,3817],[-21,-9]],[[1910,3817],[-9,0]],[[2624,755],[27,75]],[[2733,864],[-42,-42],[-1,38]],[[2690,870],[1,0]],[[2732,909],[4,-22]],[[2733,912],[0,9]],[[2733,932],[15,61]],[[2736,885],[-2,-19]],[[0,2622],[50,22],[203,-45],[149,11],[95,36],[72,95]],[[569,2742],[105,103],[218,126],[100,112]],[[992,3083],[1,2]],[[992,3085],[0,-2]],[[992,3085],[2,0],[0,1]],[[994,3086],[-1,0],[-1,-1]],[[995,3086],[-1,0]],[[994,3085],[1,1]],[[995,3086],[19,20],[38,-12],[134,100],[59,96]],[[1245,3290],[1,1]],[[1245,3292],[0,-2]],[[1248,3295],[-2,-2]],[[1247,3293],[1,2]],[[1248,3295],[88,30],[51,50],[12,67]],[[1398,3445],[99,64],[106,163]],[[1618,3686],[145,95],[118,26]],[[1783,4096],[43,-189]],[[2571,893],[0,-4]],[[2574,924],[-3,-30]],[[2572,889],[3,34]],[[3657,3862],[-177,-177]],[[3445,1197],[-97,-45]],[[3446,1197],[181,6]],[[1938,3798],[-13,31]],[[2748,993],[1,2]],[[2753,996],[-4,-4]],[[2842,1026],[-10,-3]],[[2407,1220],[-198,15],[-161,44],[-129,-29],[-111,15],[-81,-26],[-291,-14],[-186,-42],[-25,-6],[-11,-5],[-94,-68],[-126,32],[-117,-34],[-19,-2],[-20,-2],[-9,0]],[[829,1098],[-3,0],[-55,25]],[[771,1123],[-39,18],[-8,3],[-103,0],[-64,44],[-103,12],[-1,0],[-12,-1]],[[441,1199],[-45,-4]],[[396,1195],[-4,0],[-166,-21],[-226,-88]],[[0,1085],[109,26],[117,62],[130,2],[10,4],[21,12],[9,4]],[[396,1195],[5,2],[3,1],[37,1]],[[441,1199],[12,0],[1,0],[103,-12],[64,-44],[52,-1],[50,2],[9,-3],[39,-18]],[[771,1123],[58,-25]],[[829,1098],[2,-1],[45,4],[31,7],[87,27],[88,-32],[20,-3],[17,2],[18,7],[89,68],[43,8],[134,30],[33,9],[245,7],[46,7],[81,26],[112,-15],[128,29],[166,-46],[121,-9],[81,-4]],[[4057,1116],[-139,114],[-74,23],[-265,15],[-28,-7],[-92,-48],[-188,-24],[-95,-37],[-188,25],[-187,-11]],[[2805,1165],[46,-4],[140,15],[135,-27],[34,0],[12,1],[8,2],[94,37],[59,-2],[54,9],[72,16],[9,3],[83,45],[28,7],[129,-17],[103,-2],[34,4],[72,-22],[111,-99],[19,-12],[10,-4]],[[2294,274],[-38,24],[0,46],[34,36],[-27,61],[85,2]],[[2356,447],[56,165],[60,53]],[[2316,0],[42,83]],[[2412,802],[108,1]],[[2521,804],[-109,-1]],[[2521,803],[6,-6]],[[2527,797],[16,-15]],[[2538,786],[-9,9],[-2,2]],[[2527,797],[-5,6]],[[2544,782],[-7,-3]],[[3038,1880],[-14,248],[19,107],[-44,125],[12,88]],[[3011,2449],[12,220],[65,101],[-3,110],[-43,112],[48,100]],[[3090,3092],[1,1]],[[3091,3094],[-1,-2]],[[3093,3096],[-2,-1]],[[3092,3095],[1,1]],[[3172,3094],[-79,2]],[[3273,3182],[-82,-60]],[[3282,3192]],[[3480,3685],[-40,-292],[-154,-198]],[[3829,3963],[-172,-101]],[[2411,803],[-2,0],[1,-2],[2,1]],[[2412,802],[-1,1]],[[2521,804],[0,-1],[1,0]],[[2522,803],[-1,1]],[[2535,779],[2,1]],[[2727,848],[-36,-27]],[[2691,819],[36,27]],[[2733,861],[2,4]],[[2737,886],[-2,-19]],[[2736,867],[2,17]],[[4057,1115],[39,-9]],[[4096,1107],[-39,9]],[[187,3836],[21,30],[75,-21],[105,86]],[[317,4048],[4,-35],[29,-4],[40,-66]],[[969,3778],[61,-41]],[[1498,3516],[94,10]],[[2062,3667],[-58,-7]],[[3977,0],[-3,37]],[[2712,3724],[-225,116]],[[2800,3677],[32,-47]],[[3418,1104]],[[1908,3909],[11,-5]],[[1919,3904],[6,-32],[2,-4]],[[1927,3868],[-8,36]],[[2411,816],[-1,-40]],[[2410,776],[1,40]],[[3405,2969],[-2,2]],[[2688,822],[-97,16]],[[2358,83],[5,93],[-69,98]],[[2348,443],[8,4]],[[3543,1565],[-2,68],[-32,38]],[[2726,846],[1,0]],[[2584,940],[-2,-4]],[[2583,935],[7,9]],[[2727,846],[6,15]],[[3303,1023],[37,12]],[[1057,3727],[-1,0]],[[2736,369],[-15,36]],[[3091,3095],[0,-1]],[[3091,3093],[1,2]],[[2596,575],[-14,-126]],[[2585,443],[38,-15]],[[2917,185],[19,-18]],[[2832,3630],[84,-89]],[[3155,3179],[-141,159],[-76,165]],[[2431,1037]],[[2691,821],[-3,1]],[[1565,1000],[1,-1],[1,1],[-1,1],[-1,-1]],[[2431,1037],[74,-29]],[[2505,1009],[-74,28]],[[2548,988],[-42,20]],[[2508,1007],[40,-20]],[[1879,3808],[-13,-8]],[[3414,2994],[-6,99],[-130,3],[-90,53]],[[2796,3393],[0,2]],[[2813,3413],[1,-1],[1,1],[-1,1],[-1,-1]],[[2595,596],[30,-11]],[[3328,1088],[-7,8]],[[3533,1471],[1,1]],[[3032,1749],[4,5]],[[2890,998],[-43,22]],[[1930,3820],[-7,0]],[[1925,3820],[4,0]],[[1926,3820],[-1,1]],[[2710,821],[0,1]],[[2711,822],[0,-1]],[[2731,855],[-1,1]],[[2795,3394],[0,1]],[[2795,3395],[1,0]],[[2795,3395]],[[2795,3395]],[[1980,1884],[9,-17]],[[1979,1884],[1,0],[-1,1],[0,-1]],[[2171,1064],[8,-1],[158,2]],[[2337,1066],[-166,-1]],[[2736,887],[0,-2]],[[3447,2655],[1,-1]],[[3464,1645],[-54,67],[-53,16]],[[1979,1883],[1,-1]],[[0,3776],[175,-2],[12,62]],[[388,3931],[2,12]],[[535,4070],[-9,5]],[[549,4067],[-13,4]],[[727,3901],[141,-83]],[[870,3817],[1,11]],[[930,3783],[-28,31]],[[955,3774],[14,4]],[[1030,3736],[0,1]],[[1040,3732],[-6,3]],[[1040,3732],[16,-5]],[[1498,3516],[-38,34]],[[1673,3624],[42,-7]],[[1723,3621],[62,34]],[[1987,3733],[-30,54]],[[1969,3735],[20,-15]],[[1995,3681],[-9,33]],[[2000,3659],[-9,2]],[[2080,3664],[-18,3]],[[2196,3666],[67,-54]],[[2477,3840],[10,0]],[[2685,429],[-5,-30],[41,6]],[[2704,241],[8,-2]],[[2712,3724],[26,-52],[12,22],[50,-17]],[[2736,369],[1,-2]],[[2748,287],[-1,-1]],[[3084,1082],[-21,-42],[-71,7],[-102,-49]],[[2891,207],[10,-12]],[[2911,186],[6,-1]],[[3013,148],[-41,20]],[[3015,146],[-2,2]],[[3321,1096],[-131,18]],[[3348,1152],[10,-34],[-30,-30]],[[3346,2807],[0,10]],[[3352,2765],[24,-9]],[[3595,1777],[-76,-6],[-10,-49],[-79,12],[-26,38],[-47,-44]],[[3394,2738],[15,2]],[[3416,2988],[-13,-17]],[[3508,3258],[-104,-60]],[[3405,2969],[8,-1]],[[3445,2714],[69,-99],[44,-16],[33,-169],[21,4]],[[3533,1471],[3,-1]],[[3536,1470],[2,2]],[[3536,1470],[-40,30],[11,52],[36,13]],[[3644,2334],[-10,32]],[[3644,2329],[49,-75],[-9,-37],[44,3],[-6,-74],[39,3]],[[3820,1960],[-31,-43]],[[3816,1996],[-15,170]],[[3824,1971],[-4,-11]],[[4054,0],[-3,4]],[[2831,919],[-95,-8]],[[2736,909],[95,10]],[[2857,1267],[-1,0]],[[3055,3051],[6,8]],[[3306,3239],[4,10]],[[1057,995]],[[3409,3093],[-1,0]],[[2733,910],[1,-2]],[[2734,908],[3,-22]],[[2738,886],[-2,22]],[[317,4048],[209,27]],[[1040,3732]],[[1592,3526],[10,46],[71,52]],[[1785,3655],[81,145]],[[2079,3681],[1,-17]],[[2263,3612],[8,10]],[[2316,3685],[3,7]],[[2633,426],[7,-2]],[[2656,425],[2,-1]],[[2673,426],[-11,-4]],[[2847,1020],[-3,3]],[[2905,193],[-4,2]],[[3179,3155],[-24,24]],[[3346,2807],[6,-42]],[[3414,2959],[-65,-119]],[[3390,2743],[-14,13]],[[3409,3093],[-6,105]],[[3446,1197],[-1,0]],[[3926,3178],[-315,108],[-81,55],[-45,-40],[23,-43]],[[3591,1426],[-1,1]],[[3595,1777],[107,94]],[[3644,2334],[0,-5]],[[3816,1996],[8,-25]],[[3820,1960]],[[3933,3165],[27,-43],[54,1],[82,53]],[[2605,725],[4,6]],[[2617,750],[7,5]],[[2337,1065],[94,-28]],[[2355,1064],[-14,2]],[[2418,1042],[-60,22]],[[2434,1036],[-14,5]],[[1399,3442],[-1,3]],[[1826,3907],[-155,10],[-491,145]],[[1969,3735],[-27,51]],[[2673,3515],[-555,297],[-131,-79]],[[2687,3511],[-14,4]],[[2673,3515],[14,-5]],[[2934,3184],[155,-89]],[[3089,3095],[2,-1]],[[3091,3095],[-2,0]],[[3092,3094],[2,-1]],[[3094,3093],[-2,1]],[[3094,3093],[197,-144],[56,-112]],[[3347,2836],[43,-93]],[[3394,2738],[53,-83]],[[3448,2654],[128,-245],[31,-140],[194,-255],[-16,-56]],[[3785,1958],[-1,-2]],[[3785,1956],[0,2]],[[3785,1955],[0,-1]],[[3785,1954],[0,1]],[[3785,1954],[21,-38]],[[3819,1898],[-13,18]],[[3819,1898],[16,-54],[63,-4]],[[3925,1833],[-27,7]],[[3925,1833],[171,-170]],[[3785,1956],[-1,0]],[[3784,1956],[0,-1],[1,0]],[[3785,1955],[0,1]],[[1986,3714],[3,6]],[[3538,1472],[52,-45]],[[3591,1426],[36,-223]],[[2605,725],[20,-140]],[[822,277],[35,-31]],[[907,203],[12,-10]],[[927,185],[-16,-141]],[[923,190],[3,-2]],[[3414,2959],[-1,9]],[[3464,1645],[45,26]],[[1578,3063],[20,-17]],[[1715,2956],[4,-1]],[[1922,2649],[-22,133],[-57,77]],[[1926,2594],[0,1]],[[0,4096],[4096,0],[0,-4096],[-4096,0],[0,4096]],[[1877,0],[-331,0],[-4,5],[-283,49],[-188,67],[17,75],[-21,31],[70,28],[16,87],[84,-5],[63,44],[49,-63],[6,-50],[98,-57],[4,-47],[99,-40],[53,13],[47,-37],[166,-5],[-2,-44],[55,-30],[2,-21]],[[2115,0],[-117,0],[70,59],[47,-59]],[[628,0],[-628,0],[0,212],[87,-39],[156,49],[192,-71],[188,29],[26,-39],[-22,-15],[122,-59],[-2,-67],[-97,0],[-28,11],[-2,83],[-47,-25],[19,-47],[36,-22]],[[2768,3766],[144,-56],[51,23],[-48,66],[50,39],[-38,37],[91,95],[-36,41],[-33,-10],[5,33],[-27,-6],[20,68],[111,0],[28,-49],[62,49],[345,-7],[1,-34],[48,0],[34,-43],[35,0],[8,46],[10,-2],[-6,-111],[-43,-36],[88,-53],[13,-38],[75,28],[187,-13],[145,49],[8,-427],[-278,25],[-24,67],[-82,-24],[-221,34],[26,110],[-36,13],[-9,33],[-33,-8],[6,-42],[-48,1],[-1,-88],[-126,9],[-87,-40],[-35,-48],[-68,-9],[-123,108],[-69,-2],[-18,72],[-102,100]],[[3267,3763],[28,54],[48,9],[79,-106],[-17,-20],[-115,-7],[-23,70]],[[2150,4056],[27,40],[5,0],[-24,-48],[-8,8]],[[1918,2771],[262,64],[32,52],[60,34],[39,-51],[-7,-43],[30,-18],[37,-130],[-153,-40],[-25,26],[-217,-59],[-45,62],[13,70],[-26,33]],[[4047,994],[4,108],[45,102],[0,-195],[-49,-15]],[[3885,1906],[-50,37],[-8,58],[26,158],[57,-14],[12,-82],[-37,-157]],[[1053,2006],[-65,-6],[-48,57],[-2,56],[100,90],[64,209],[54,-59],[7,-215],[-28,-81],[-82,-51]],[[1801,3525],[13,-150],[-136,-97],[-43,-119],[-40,-32],[-52,3],[-52,42],[17,64],[112,88],[0,101],[32,0],[0,51],[32,0],[33,152],[84,-103]],[[2881,3534],[71,15],[-38,-124],[70,-105],[-5,-98],[-66,-55],[-51,24],[-77,133],[-33,0],[0,51],[-66,93],[2,59],[64,0],[0,101],[130,-51],[-1,-43]],[[2105,3932],[-40,-86],[-70,-54],[-79,-9],[-70,47],[45,80],[130,-7],[84,29]],[[938,884],[-79,7],[-48,52],[21,94],[72,19],[133,-62],[-26,-75],[-73,-35]],[[2817,1146],[22,-182],[-22,-122],[-32,0],[-20,-128],[-13,-24],[-124,3],[-84,116],[-20,146],[67,90],[64,0],[57,76],[105,25]],[[3827,3682],[173,2],[0,-50],[44,8],[51,-46],[-34,-38],[35,-32],[0,-73],[-256,30],[20,31],[-33,168]],[[2033,1461],[172,6],[36,45],[14,-84],[-46,-13],[-93,10],[40,15],[-22,21],[-66,-29],[44,-7],[1,-24],[-77,5],[-3,55]],[[2211,1438],[19,-11],[4,27],[-20,-3],[-3,-13]],[[2223,1470],[12,-2],[4,25],[-5,4],[-11,-27]],[[2459,4084],[236,12],[15,-58],[-27,-23],[63,33],[3,-100],[50,-22],[0,-25],[-49,-1],[-1,24],[-98,-3],[-7,71],[-181,44],[-4,48]]]}