{"objects":{"water":{"type":"GeometryCollection","geometries":[]},"buildings":{"type":"GeometryCollection","geometries":[]},"places":{"type":"GeometryCollection","geometries":[{"type":"Point","properties":{"old_name:fr":"Cassovie","name:sr":"\u041a\u043e\u0448\u0438\u0446\u0435","name:ro":"Ca\u0219ovia","name:ja":"\u30b3\u30b7\u30c4\u30a7","name:lt":"Ko\u0161ic\u0117","name:tr":"Cana","name:ar":"\u0643\u0648\u0634\u064a\u062a\u0633\u0647","min_zoom":8.0,"name:la":"Cassovia","name:uk":"\u041a\u043e\u0448\u0438\u0446\u0435","old_name":"Kassa","name:ru":"\u041a\u043e\u0448\u0438\u0446\u0435","name:pl":"Koszyce","name:hu":"Kassa","id":530544488,"population":234237,"kind":"locality","name":"Ko\u0161ice","kind_detail":"city","name:he":"\u05e7\u05d5\u05e9\u05d9\u05e6\u05d4","name:de":"Kaschau","source":"openstreetmap.org","name:fr":"Cassovie"},"coordinates":[454,3194]},{"type":"Point","properties":{"name:pt":"Uzhhorod","name:ro":"Ujhorod","name:sk":"U\u017ehorod","alt_name:de":"Ungwar","name:cs":"U\u017ehorod","kind":"locality","min_zoom":8.0,"name:la":"Uzhorodum","name:it":"U\u017ehorod","name:sv":"Uzjhorod","name:be":"\u0423\u0436\u0433\u0430\u0440\u0430\u0434","name:pl":"U\u017chorod","name:hu":"Ungv\u00e1r","name:hr":"U\u017eohrod","id":111353560,"population":114867,"name:eo":"U\u0135horodo","name:en":"Uzhhorod","name":"\u0423\u0436\u0433\u043e\u0440\u043e\u0434","kind_detail":"city","name:de":"Uschhorod","source":"openstreetmap.org","name:fr":"Oujhorod","name:zh":"\u4e4c\u65e5\u683c\u7f57\u5fb7","name:es":"\u00dazhgorod"},"coordinates":[3520,2778]},{"type":"Point","properties":{"kind":"locality","name":"Michalovce","kind_detail":"town","name:de":"Gro\u00dfmichel","source":"openstreetmap.org","min_zoom":8.0,"loc_name":"Michalovce,Mikhalovce,Nagymihaly,Nagymih\u00e1ly","name:ru":"\u041c\u0438\u0445\u0430\u043b\u043e\u0432\u0446\u0435","name:hu":"Nagymih\u00e1ly","id":26036417,"population":39694},"coordinates":[2410,3345]},{"type":"Point","properties":{"kind":"locality","name":"Trebi\u0161ov","kind_detail":"town","name:de":"Trebischau","source":"openstreetmap.org","min_zoom":8.0,"loc_name":"Toketerebes,Trebishov,Trebisov,Trebi\u0161ov,T\u0151keterebes","name:ru":"\u0422\u0440\u0435\u0431\u0438\u0448\u043e\u0432","name:pl":"Trzebisz\u00f3w","name:hu":"T\u0151keterebes","id":26037195,"population":23305},"coordinates":[1825,2805]},{"type":"Point","properties":{"kind":"locality","name":"Vranov nad Top\u013eou","kind_detail":"town","name:de":"Fr\u00f6hnel","source":"openstreetmap.org","min_zoom":8.0,"loc_name":"Varanno,Varann\u00f3,Vranov,Vranov nad Toplou,Vranov nad Top\u013eou,Vranov","name:ru":"\u0412\u0440\u0430\u043d\u043e\u0432-\u043d\u0430\u0434-\u0422\u043e\u043f\u043b\u0451\u0443","name:hu":"Varann\u00f3","id":26038421,"population":23109},"coordinates":[1714,3950]},{"type":"Point","properties":{"kind":"locality","name":"Kisv\u00e1rda","kind_detail":"town","name:de":"Kleinwardein","source":"openstreetmap.org","min_zoom":8.0,"name:uk":"\u041a\u0456\u0448\u0432\u0430\u0440\u0434\u0430","name:ru":"\u041a\u0438\u0448\u0432\u0430\u0440\u0434\u0430","id":268212667,"population":16489},"coordinates":[2874,1005]},{"type":"Point","properties":{"kind":"locality","name:sk":"Nov\u00e9 Mesto pod \u0160iatrom","name":"S\u00e1toralja\u00fajhely","kind_detail":"town","name:de":"Neustadt am Zeltberg","source":"openstreetmap.org","min_zoom":8.0,"name:uk":"\u0428\u0430\u0442\u043e\u0440\u0430\u043b\u044c\u044f\u0443\u0439\u0445\u0435\u0439","name:ru":"\u0428\u0430\u0442\u043e\u0440\u0430\u043b\u044c\u044f\u0443\u0439\u0445\u0435\u0439","id":286984247,"population":14703},"coordinates":[1638,1784]},{"type":"Point","properties":{"kind":"locality","name:sk":"Blatn\u00fd Potok","name":"S\u00e1rospatak","kind_detail":"town","name:de":"Patak am Bodrog","source":"openstreetmap.org","min_zoom":8.0,"name:ru":"\u0428\u0430\u0440\u043e\u0448\u043f\u0430\u0442\u0430\u043a","id":286983971,"population":12067},"coordinates":[1374,1457]},{"type":"Point","properties":{"kind":"locality","name":"Ve\u013ek\u00e9 Kapu\u0161any","kind_detail":"town","source":"openstreetmap.org","min_zoom":8.0,"loc_name":"Kapusany,Kapu\u0161any,Nagy-Kapos","name:pl":"Wielkie Kapuszany","name:hu":"Nagykapos","id":26038399,"population":9549},"coordinates":[2865,2477]},{"type":"Point","properties":{"kind":"locality","name:en":"Chop","name:sk":"\u010cop","name":"\u0427\u043e\u043f","kind_detail":"town","name:cs":"\u010cop","name:eo":"\u0108op","name:de":"Tschop","source":"openstreetmap.org","min_zoom":8.0,"name:pl":"Czop","name:hu":"Csap","id":111366726,"population":8981},"coordinates":[3250,1938]},{"type":"Point","properties":{"kind":"locality","name:sk":"Seren\u010d","name":"Szerencs","kind_detail":"town","name:de":"Serentsch","source":"openstreetmap.org","min_zoom":8.0,"name:ru":"\u0421\u0435\u0440\u0435\u043d\u0447","id":286978816,"population":8942},"coordinates":[313,762]},{"type":"Point","properties":{"kind":"locality","name":"V\u00e1s\u00e1rosnam\u00e9ny","kind_detail":"town","name:de":"Namming","source":"openstreetmap.org","min_zoom":8.0,"name:ru":"\u0412\u0430\u0448\u0430\u0440\u043e\u0448\u043d\u0430\u043c\u0435\u043d\u044c","id":286187060,"population":8766},"coordinates":[3550,601]},{"type":"Point","properties":{"kind":"locality","name":"Se\u010dovce","kind_detail":"town","source":"openstreetmap.org","min_zoom":8.0,"name:pl":"Seczowce","name:hu":"G\u00e1lsz\u00e9cs","id":26036807,"population":8116},"coordinates":[1637,3125]},{"type":"Point","properties":{"kind":"locality","name":"Kr\u00e1\u013eovsk\u00fd Chlmec","kind_detail":"town","source":"openstreetmap.org","min_zoom":8.0,"loc_name":"Kiraly Helmecz,Kiraly-Helmec,Kir\u00e1ly Helmecz,Kir\u00e1ly-Helmec,Kra\u013eovsky Chlumec,Krulovsky,Kr\u00e1\u013eovsk\u00fd Chlumec","name:hu":"Kir\u00e1lyhelmec","id":26036960,"population":7862},"coordinates":[2583,1899]},{"type":"Point","properties":{"name:ro":"Vel\u00eek\u00eei Berezn\u00eei","name:sk":"Ve\u013ek\u00e1 Brezn\u00e1","name:cs":"Velykyj Bereznyj","name:eo":"Velikij Bereznij","min_zoom":8.0,"name:ru":"\u0412\u0435\u043b\u0438\u043a\u0438\u0439 \u0411\u0435\u0440\u0451\u0437\u043d\u044b\u0439","name:pl":"Wielkie Berezne","name:hu":"Nagyberezna","id":337581265,"population":7078,"kind":"locality","name:en":"Velykyi Bereznyi","name":"\u0412\u0435\u043b\u0438\u043a\u0438\u0439 \u0411\u0435\u0440\u0435\u0437\u043d\u0438\u0439","kind_detail":"town","name:de":"Welykyj Beresnyj","source":"openstreetmap.org"},"coordinates":[3974,3953]},{"type":"Point","properties":{"kind":"locality","name:ro":"Perecin","name:sk":"Pere\u010dany","name":"\u041f\u0435\u0440\u0435\u0447\u0438\u043d","kind_detail":"town","name:de":"Peretschyn","source":"openstreetmap.org","min_zoom":8.0,"name:en":"Perechyn","name:it":"Perechin","name:pl":"Pereczyn","name:hu":"Perecseny","id":337587477,"population":6705},"coordinates":[4060,3282]},{"type":"Point","properties":{"kind":"locality","name":"Ibr\u00e1ny","kind_detail":"town","source":"openstreetmap.org","min_zoom":8.0,"name:ru":"\u0418\u0431\u0440\u0430\u043d\u044c","id":286166176,"population":6662},"coordinates":[1796,583]},{"type":"Point","properties":{"kind":"locality","name":"Ny\u00edrtelek","kind_detail":"town","source":"openstreetmap.org","min_zoom":8.0,"name:ru":"\u041d\u044c\u0438\u0440\u0442\u0435\u043b\u0435\u043a","id":286185174,"population":6535},"coordinates":[1566,89]},{"type":"Point","properties":{"kind":"locality","name:sk":"En\u010da","name":"Encs","kind_detail":"town","source":"openstreetmap.org","min_zoom":8.0,"name:uk":"\u0415\u043d\u0447","name:ru":"\u042d\u043d\u0447","id":286982064,"population":6297},"coordinates":[83,1496]},{"type":"Point","properties":{"kind":"locality","name":"Sobrance","kind_detail":"town","name:de":"Sobranz","source":"openstreetmap.org","min_zoom":8.0,"loc_name":"Sobrance,Szobranc,Szobr\u00e1nc","name:hu":"Szobr\u00e1nc","id":26037153,"population":6239},"coordinates":[3166,3315]},{"type":"Point","properties":{"kind":"locality","name":"Nagyhal\u00e1sz","kind_detail":"town","source":"openstreetmap.org","min_zoom":8.0,"name:ru":"\u041d\u0430\u0434\u044c\u0445\u0430\u043b\u0430\u0441","id":286166152,"population":5660},"coordinates":[1939,625]},{"type":"Point","properties":{"kind":"locality","name":"Tiszal\u00f6k","kind_detail":"town","source":"openstreetmap.org","min_zoom":8.0,"name:ru":"\u0422\u0438\u0441\u0430\u043b\u0451\u043a","id":286169157,"population":5305},"coordinates":[823,126]},{"type":"Point","properties":{"kind":"locality","name":"Ny\u00edrmada","kind_detail":"town","source":"openstreetmap.org","min_zoom":8.0,"name:ru":"\u041d\u044c\u0438\u0440\u043a\u0430\u0440\u0430\u0441","id":480039413,"population":4839},"coordinates":[3186,343]},{"type":"Point","properties":{"kind":"locality","name":"Kemecse","kind_detail":"town","source":"openstreetmap.org","min_zoom":8.0,"name:uk":"\u041a\u0435\u043c\u0435\u0447\u0435","name:ru":"\u041a\u0435\u043c\u0435\u0447\u0435","id":286158556,"population":4811},"coordinates":[2053,342]},{"type":"Point","properties":{"kind":"locality","name":"Str\u00e1\u017eske","kind_detail":"town","name:de":"Straschke","source":"openstreetmap.org","min_zoom":8.0,"old_name":"Stra\u017esk\u00e9","name:hu":"\u0150rmez\u0151","id":26037916,"population":4579},"coordinates":[2155,3886]},{"type":"Point","properties":{"kind":"locality","name":"K\u00f3taj","kind_detail":"town","source":"openstreetmap.org","min_zoom":8.0,"name:ru":"\u041a\u043e\u0442\u0430\u0439","id":748803161,"population":4424},"coordinates":[1795,255]},{"type":"Point","properties":{"kind":"locality","name":"Rakamaz","kind_detail":"town","name:de":"Rackermoos","source":"openstreetmap.org","min_zoom":8.0,"name:ru":"\u0420\u0430\u043a\u0430\u043c\u0430\u0437","id":286168628,"population":4338},"coordinates":[1118,581]},{"type":"Point","properties":{"kind":"locality","name":"Tokaj","kind_detail":"town","name:de":"Tokey","source":"openstreetmap.org","min_zoom":8.0,"name:uk":"\u0422\u043e\u043a\u0430\u0439","name:ru":"\u0422\u043e\u043a\u0430\u0439","id":26757723,"population":4282},"coordinates":[925,587]},{"type":"Point","properties":{"kind":"locality","name":"Z\u00e1hony","kind_detail":"town","name:sr":"\u0417\u0430\u0445\u043e\u045a","source":"openstreetmap.org","min_zoom":8.0,"name:uk":"\u0417\u0430\u0433\u043e\u043d\u044c","name:ru":"\u0417\u0430\u0445\u043e\u043d\u044c","name:pl":"Zagony","name:bg":"\u0417\u0430\u0445\u043e\u043d","name:zh":"\u624e\u970d\u5c3c","id":286155540,"population":4237},"coordinates":[3158,1829]},{"type":"Point","properties":{"kind":"locality","name":"Demecser","kind_detail":"town","source":"openstreetmap.org","min_zoom":8.0,"name:ru":"\u0414\u0435\u043c\u0435\u0447\u0435\u0440","id":286158978,"population":4173},"coordinates":[2422,544]},{"type":"Point","properties":{"kind":"locality","name":"\u010cierna nad Tisou","kind_detail":"town","source":"openstreetmap.org","min_zoom":8.0,"loc_name":"Agcsernyo,Cerna,Cherna,Cierna,Cserno,Csern\u0151,\u010cern\u00e1,\u010cierna","name:pl":"Czerna nad Cis\u0105","name:hu":"Tiszacserny\u0151","id":26037089,"population":4162},"coordinates":[2898,1874]},{"type":"Point","properties":{"kind":"locality","name":"M\u00e1ndok","kind_detail":"town","source":"openstreetmap.org","min_zoom":8.0,"name:ru":"\u041c\u0430\u043d\u0434\u043e\u043a","id":286183304,"population":4094},"coordinates":[3193,1459]},{"type":"Point","properties":{"kind":"locality","name":"Dombr\u00e1d","kind_detail":"town","source":"openstreetmap.org","min_zoom":8.0,"name:ru":"\u0414\u043e\u043c\u0431\u0430\u0440\u0434","id":286167916,"population":3964},"coordinates":[2420,1036]},{"type":"Point","properties":{"kind":"locality","name":"Baktal\u00f3r\u00e1nth\u00e1za","kind_detail":"town","source":"openstreetmap.org","min_zoom":8.0,"name:ru":"\u0411\u0430\u043a\u0442\u0430\u043b\u043e\u0440\u0430\u043d\u0442\u0445\u0430\u0437\u0430","id":286156605,"population":3954},"coordinates":[2871,42]},{"type":"Point","properties":{"kind":"locality","name":"Ajak","kind_detail":"town","source":"openstreetmap.org","min_zoom":8.0,"name:ru":"\u0410\u0439\u044f\u043a","id":739414946,"population":3709},"coordinates":[2792,825]},{"type":"Point","properties":{"kind":"locality","name":"Vaja","kind_detail":"town","source":"openstreetmap.org","min_zoom":8.0,"name:ru":"\u0412\u0430\u0439\u044f","id":739414870,"population":3534},"coordinates":[3139,40]},{"type":"Point","properties":{"kind":"locality","name":"Cig\u00e1nd","kind_detail":"town","source":"openstreetmap.org","min_zoom":8.0,"name:ru":"\u0426\u0438\u0433\u0430\u043d\u0434","id":286988665,"population":3058},"coordinates":[2316,1193]},{"type":"Point","properties":{"kind":"locality","name:en":"Batovo","name":"\u0411\u0430\u0442\u044c\u043e\u0432\u043e","kind_detail":"town","source":"openstreetmap.org","min_zoom":8.0,"name:ru":"\u0411\u0430\u0442\u044c\u0451\u0432\u043e","name:pl":"Batowo","name:hu":"B\u00e1ty\u00fa","id":337601080,"population":3046},"coordinates":[3804,1625]},{"type":"Point","properties":{"kind":"locality","name:sk":"Abovsk\u00fd Santov","name":"Aba\u00fajsz\u00e1nt\u00f3","kind_detail":"town","source":"openstreetmap.org","min_zoom":8.0,"name:ru":"\u0410\u0431\u0430\u0443\u0439\u0441\u0430\u043d\u0442\u043e","id":286988415,"population":3021},"coordinates":[267,1268]},{"type":"Point","properties":{"kind":"locality","name:sk":"Gynec","name":"G\u00f6nc","kind_detail":"town","name:de":"Guntz","source":"openstreetmap.org","min_zoom":8.0,"name:ru":"\u0413\u0451\u043d\u0446","id":266938720,"population":2053},"coordinates":[521,2119]},{"type":"Point","properties":{"kind":"locality","name:sk":"Palh\u00e1z","name":"P\u00e1lh\u00e1za","kind_detail":"town","source":"openstreetmap.org","min_zoom":8.0,"name:ru":"\u041f\u0430\u043b\u044c\u0445\u0430\u0437\u0430","id":266938649,"population":1050},"coordinates":[1216,2116]}]},"transit":{"type":"GeometryCollection","geometries":[{"type":"LineString","properties":{"kind":"train","network":"local","sort_rank":275,"source":"openstreetmap.org","min_zoom":6.0,"operator":"\u00c9szeakerd\u0151 Zrt.","ref":"P\u00c1EV","id":-5280632,"osm_relation":true,"name":"P\u00e1lh\u00e1zai \u00c1llami Erdei Vas\u00fat (P\u00e1lh\u00e1za => Rostall\u00f3)"},"arcs":[13]},{"type":"MultiLineString","properties":{"kind":"train","name":"S51: Z\u00e1hony => Budapest-Nyugati","service":"commuter","sort_rank":275,"source":"openstreetmap.org","min_zoom":6.0,"operator":"M\u00c1V-Start","ref":"S51","osm_relation":true},"arcs":[[14],[15]]},{"type":"LineString","properties":{"kind":"train","sort_rank":275,"source":"openstreetmap.org","min_zoom":6.0,"operator":"M\u00c1V","ref":"90","id":-77596,"osm_relation":true},"arcs":[16]},{"type":"MultiLineString","properties":{"kind":"train","network":"\u017dSR","service":"fast_train","sort_rank":275,"source":"openstreetmap.org","min_zoom":6.0,"operator":"ZSSK","ref":"R","osm_relation":true,"name":"R Bratislava-Zilina-Kosice"},"arcs":[[17],[18]]},{"type":"LineString","properties":{"kind":"train","sort_rank":275,"source":"openstreetmap.org","min_zoom":6.0,"operator":"M\u00c1V","ref":"111","id":-252079,"osm_relation":true},"arcs":[19]},{"type":"MultiLineString","properties":{"kind":"train","name":"80: Hatvan\u2013Miskolc\u2013Szerencs\u2013S\u00e1toralja\u00fajhely\/Ny\u00edregyh\u00e1za","sort_rank":275,"source":"openstreetmap.org","min_zoom":6.0,"operator":"M\u00c1V","ref":"80","osm_relation":true},"arcs":[[20],[21],[22]]},{"type":"LineString","properties":{"kind":"train","network":"local","sort_rank":275,"source":"openstreetmap.org","min_zoom":6.0,"operator":"\u00c9szeakerd\u0151 Zrt.","ref":"P\u00c1EV","id":-5280633,"osm_relation":true,"name":"P\u00e1lh\u00e1zai \u00c1llami Erdei Vas\u00fat (Rostall\u00f3 => P\u00e1lh\u00e1za)"},"arcs":[23]},{"type":"LineString","properties":{"source":"openstreetmap.org","kind":"train","name":"ZSSK: Bratislava-Zvolen-Kosice","sort_rank":275,"ref":"R","min_zoom":6.0,"osm_relation":true},"arcs":[24]},{"type":"LineString","properties":{"kind":"train","sort_rank":275,"source":"openstreetmap.org","min_zoom":6.0,"operator":"M\u00c1V","ref":"116","id":-252074,"osm_relation":true},"arcs":[25]},{"type":"LineString","properties":{"kind":"train","sort_rank":275,"source":"openstreetmap.org","min_zoom":6.0,"operator":"M\u00c1V","ref":"80C","id":-190756,"osm_relation":true},"arcs":[26]},{"type":"MultiLineString","properties":{"source":"openstreetmap.org","kind":"train","osm_relation":true,"sort_rank":275,"ref":"98","min_zoom":6.0,"operator":"M\u00c1V"},"arcs":[[27],[28]]},{"type":"LineString","properties":{"kind":"train","name":"S51: Budapest-Nyugati => Z\u00e1hony","service":"commuter","sort_rank":275,"name:de":"S51: Budapest-West => Z\u00e1hony","source":"openstreetmap.org","min_zoom":6.0,"operator":"M\u00c1V-Start","ref":"S51","osm_relation":true},"arcs":[29]}]},"pois":{"type":"GeometryCollection","geometries":[{"type":"Point","properties":{"kind":"nature_reserve","name:en":"Upper Tisza wetlands","name":"Fels\u0151-Tisza","area":625606000,"source":"openstreetmap.org","min_zoom":7.65,"tier":2,"id":-271573,"osm_relation":true},"coordinates":[2059,1003]},{"type":"Point","properties":{"source":"openstreetmap.org","kind":"nature_reserve","name":"Keszny\u00e9teni T\u00e1jv\u00e9delmi K\u00f6rzet","area":200768000,"tier":2,"min_zoom":8.47,"id":157434015},"coordinates":[21,94]},{"type":"Point","properties":{"kind":"military","name":"Vojensk\u00fd obvod Vala\u0161kovce","area":275542000,"name:de":"Truppen\u00fcbungsplatz Vala\u0161kovce","source":"openstreetmap.org","min_zoom":8.0,"tier":3,"name:pl":"Poligon wojskowy Vala\u0161kovce","name:hu":"P\u00e1sztorhegy","id":208470094},"coordinates":[2867,3984]},{"type":"Point","properties":{"source":"openstreetmap.org","kind":"military","name":"\u0423\u0436\u0433\u043e\u0440\u043e\u0434\u0441\u044c\u043a\u0438\u0439 \u0437\u0430\u0433\u0430\u043b\u044c\u043d\u043e\u0432\u0456\u0439\u0441\u044c\u043a\u043e\u0432\u0438\u0439 \u043d\u0430\u0432\u0447\u0430\u043b\u044c\u043d\u0438\u0439 \u0446\u0435\u043d\u0442\u0440","area":17609200,"tier":3,"min_zoom":8.0,"id":433407012},"coordinates":[3894,2899]}]},"boundaries":{"type":"GeometryCollection","geometries":[{"type":"MultiLineString","properties":{"name:right:yo":"H\u00fang\u00e1r\u00ec","name:right:yi":"\u05d0\u05d5\u05e0\u05d2\u05d0\u05e8\u05df","name:left:la":"Ucraina","name:right:qu":"Unriya","name:left:li":"Oekra\u00efne","name:left:vi":"Ukraina","name:left:sw":"Ukraine","name:left:kg":"Ukrayina","name:left:ka":"\u10e3\u10d9\u10e0\u10d0\u10d8\u10dc\u10d0","name:left:km":"\u17a2\u17ca\u17bb\u1799\u1780\u17d2\u179a\u17c2\u1793","name:left:kl":"Ukraine","name:left:ko":"\uc6b0\ud06c\ub77c\uc774\ub098","name:left:kn":"\u0caf\u0cc1\u0c95\u0ccd\u0cb0\u0cc7\u0ca8\u0ccd","name:right:is":"Ungverjaland","name:left:ro":"Ucraina","name:left:kk":"\u0423\u043a\u0440\u0430\u0438\u043d\u0430","name:left:rm":"Ucraina","name:left:ku":"\u00dbkrayna","name:left:kw":"Ukrayn","name:left:kv":"\u0423\u043a\u0440\u0430\u0438\u043d\u0430","name:left:pl":"Ukraina","name:right:ro":"Ungaria","name:left:ru":"\u0423\u043a\u0440\u0430\u0438\u043d\u0430","name:right:ie":"Hungaria","name:right:id":"Hongaria","name:left:ky":"\u0423\u043a\u0440\u0430\u0438\u043d\u0430","name:right:ia":"Hungaria","name:right:bi":"Hungary","name:right:bn":"\u09b9\u09be\u0999\u09cd\u0997\u09c7\u09b0\u09bf","name:right:bo":"\u0f67\u0f74\u0f44\u0f0b\u0f42\u0fb7\u0f0b\u0f62\u0f72\u0f0d","name:left:sl":"Ukrajina","name:right:ba":"\u0412\u0435\u043d\u0433\u0440\u0438\u044f","name:right:bg":"\u0423\u043d\u0433\u0430\u0440\u0438\u044f","name:right:be":"\u0412\u0435\u043d\u0433\u0440\u044b\u044f","name:right:br":"Hungaria","name:right:bs":"Ma\u0111arska","name:right:nn":"Ungarn","name:right:no":"Ungern","name:right:nl":"Hongarije","name:left:lv":"Ukraina","name:right:wo":"Ongiri","name:right:ne":"\u0939\u0902\u0917\u0947\u0930\u0940","name:right:na":"Ungari","name:right:ps":"\u0647\u0646\u06ab\u0631\u064a","alt_name:left:vi":"Uy Ki\u00ean","name:right:nv":"H\u00e1ngewii","name:left:mg":"Okraina","kind_detail":"2","name:left:tr":"Ukrayna","name:right:gu":"\u0ab9\u0a82\u0a97\u0ac7\u0ab0\u0ac0","name:right:gv":"Yn Ungaar","name:right:pt":"Hungria","name:left:mk":"\u0423\u043a\u0440\u0430\u0438\u043d\u0430","name:left:mi":"\u016akareinga","name:left:ts":"Ukraine","name:left:tt":"\u0423\u043a\u0440\u0430\u0438\u043d\u0430","name:left:mn":"\u0423\u043a\u0440\u0430\u0439\u043d","name:left:tw":"Ukraine","name:left:th":"\u0e1b\u0e23\u0e30\u0e40\u0e17\u0e28\u0e22\u0e39\u0e40\u0e04\u0e23\u0e19","name:right:pa":"\u0a39\u0a70\u0a17\u0a30\u0a40","name:left:tk":"Ukraina","name:left:tl":"Ukranya","name:left:mt":"Ukrajna","name:right:gl":"Hungr\u00eda - Magyarorsz\u00e1g","name:left:my":"\u101a\u1030\u1000\u101b\u102d\u1014\u103a\u1038\u1014\u102d\u102f\u1004\u103a\u1004\u1036","name:right:gn":"Hungyria","name:right:pl":"W\u0119gry","name:left:te":"\u0c09\u0c15\u0c4d\u0c30\u0c46\u0c2f\u0c3f\u0c28\u0c4d","name:left:tg":"\u0423\u043a\u0440\u0430\u0439\u0438\u043d\u0430","name:left:ms":"Ukraine","name:left:mr":"\u092f\u0941\u0915\u094d\u0930\u0947\u0928","name:left:da":"Ukraine","name:left:de":"Ukraine","name:right:ga":"An Ung\u00e1ir","name:left:dv":"\u0794\u07aa\u0786\u07b0\u0783\u07ac\u0787\u07a8\u0782\u07b0","name:right:ug":"\u06cb\u06d0\u0646\u06af\u0631\u0649\u064a\u06d5","name:left:hi":"\u092f\u0941\u0915\u094d\u0930\u0947\u0928","name:right:lb":"Ungarn","name:right:uk":"\u0423\u0433\u043e\u0440\u0449\u0438\u043d\u0430","name:left:he":"\u05d0\u05d5\u05e7\u05e8\u05d0\u05d9\u05e0\u05d4","name:right:ln":"Ungri","name:right:li":"Hongarie\u00eb","name:right:lt":"Vengrija","name:right:ur":"\u0645\u062c\u0627\u0631\u0633\u062a\u0627\u0646","name:right:lv":"Ung\u0101rija","name:left:hy":"\u0548\u0582\u056f\u0580\u0561\u056b\u0576\u0561","name:left:ta":"\u0b89\u0b95\u0bcd\u0bb0\u0bc8\u0ba9\u0bcd","name:left:ht":"Ikr\u00e8n","name:left:hu":"Ukrajna","name:left:hr":"Ukrajina","sort_rank":262,"name:right:gd":"An Ungair","name:right:os":"\u0412\u0435\u043d\u0433\u0440\u0438","name:right:es":"Hungr\u00eda","name:right:sr":"\u041c\u0430\u0452\u0430\u0440\u0441\u043a\u0430","name:right:eu":"Hungaria","name:right:et":"Ungari","name:left:os":"\u0423\u043a\u0440\u0430\u0438\u043d\u00e6","name:left:or":"\u0b5f\u0b41\u0b15\u0b4d\u0b30\u0b47\u0b28","name:right:ee":"Hungary","name:left:vo":"Lukray\u00e4n","name:left:oc":"Ucra\u00efna","name:right:eo":"Hungarujo","name:right:en":"Hungary","name:right:el":"\u039f\u03c5\u03b3\u03b3\u03b1\u03c1\u03af\u03b1","name:right:tt":"\u041c\u0430\u0497\u0430\u0440\u0441\u0442\u0430\u043d","name:left:fa":"\u0627\u0648\u06a9\u0631\u0627\u06cc\u0646","name:left:ia":"Ukraina","name:left:fo":"Ukraina","name:right:sk":"Ma\u010farsko","name:left:fi":"Ukraina","name:left:fr":"Ukraine","name:left:cs":"Ukrajina","name:right:jv":"Hongaria","name:left:fy":"Oekra\u00efne","name:right:ja":"\u30cf\u30f3\u30ac\u30ea\u30fc","name:right:sq":"Hungaria","name:right:ss":"IHangareyi","name:left:ja":"\u30a6\u30af\u30e9\u30a4\u30ca","name:right:su":"Hungaria","name:right:st":"Hungary","name:right:sw":"Hungaria","name:right:sv":"Ungern","name:right:si":"\u0dc4\u0db1\u0dca\u0d9c\u0dda\u0dbb\u0dd2\u0dba\u0dcf\u0db1\u0dd4 \u0dc3\u0db8\u0dd4\u0dc4\u0dcf\u0dab\u0dca\u0da9\u0dd4\u0dc0","name:right:sh":"Ma\u0111arska","name:left:qu":"Ukranya","name:right:sm":"Hungary","name:right:sl":"Mad\u017earska","name:right:so":"Hungaria","name:right:sn":"Hungary","name:right:sa":"\u0939\u0902\u0917\u0930\u0940","name:left:jv":"Ukraina","id":-60199,"old_name:left:vi":"\u00d4 Kh\u1eafc Lan","name:right:co":"Ungheria","name:right:ca":"Hongria","name:right:se":"U\u014bg\u00e1r","name:right:ce":"\u0412\u0435\u043d\u0433\u0440\u0438","name:right:cy":"Hwngari","name:right:zh-yue":"\u5308\u7259\u5229","name:right:cs":"Ma\u010farsko","name:right:cu":"\u046a\u0433\u0440\u0438","name:right:cv":"\u0412\u0435\u043d\u0433\u0440\u0438","name:right:it":"Ungheria","name:left:ar":"\u0623\u0648\u0643\u0631\u0627\u0646\u064a\u0627","name:left:az":"Ukrayna","name:right:rw":"Hongiriya","name:left:af":"Oekra\u00efne","name:left:ab":"\u0423\u043a\u0440\u0430\u0438\u043d\u0430","name:left:an":"Ucra\u00edna","name:left:am":"\u12e9\u12ad\u122c\u1295","name:right:ru":"\u0412\u0435\u043d\u0433\u0440\u0438\u044f","name:right:io":"Hungaria","name:right:zh_PY":"Xiongyali","name:left:zh-yue":"\u70cf\u514b\u862d","name:left:rw":"Ikerene","name:right:hy":"\u0540\u0578\u0582\u0576\u0563\u0561\u0580\u056b\u0561","name:left:lb":"Ukrain","alt_name:left:eo":"Ukrainio","name:left:su":"Ukraina","int_name:left":"Ukraine","name:right:hr":"Ma\u0111arska","name:left:sv":"Ukraina","name:left:sq":"Ukraina","name:left:ss":"IYukhureni","name:left:sr":"\u0423\u043a\u0440\u0430\u0458\u0438\u043d\u0430","name:left:sm":"Ukraine","name:right:hi":"\u0939\u0902\u0917\u0930\u0940","name:left:so":"Ukrain","name:left:sn":"Ukraine","name:left:lt":"Ukraina","name:left:sh":"Ukrajina","name:left:sk":"Ukrajina","name:left:se":"Ukraina","name:right:he":"\u05d4\u05d5\u05e0\u05d2\u05e8\u05d9\u05d4","name:left:sc":"Ucraina","name:right:la":"Hungaria","name:right:af":"Hongarye","name:right:ab":"\u041c\u0430\u0434\u0438\u0430\u0440\u0442\u04d9\u044b\u043b\u0430","name:left:ce":"\u0423\u043a\u0440\u0430\u0438\u043d\u0430","name:right:an":"Hongr\u00eda","name:right:am":"\u1200\u1295\u130b\u122a","name:left:ca":"Ucra\u00efna","source":"openstreetmap.org","name:left:cy":"Wcr\u00e1in","name:right:ar":"\u0627\u0644\u0645\u062c\u0631","name:left:cu":"\u041e\u0443\u043a\u0440\u0430\u0438\u043d\u0430","name:left:cv":"\u0423\u043a\u0440\u0430\u0438\u043d\u0430","name:right:az":"Macar\u0131stan","name:right:ay":"Hunkariya","name:right:rm":"Ungaria","name":"\u0423\u043a\u0440\u0430\u0457\u043d\u0430 - Magyarorsz\u00e1g","name:left:zh":"\u4e4c\u514b\u5170","name:right:zh":"\u5308\u7259\u5229","name:left:uz":"Ukraina","name:right:fr":"Hongrie","name:left:ps":"\u0627\u0648\u06a9\u0631\u0627\u06cc\u0646","name:left:nv":"Y\u00f3\u00f3kwein","name:left:ur":"\u06cc\u0648\u06a9\u0631\u06cc\u0646","id:right":-21335,"name:right:ff":"Hunngariya","name:left:no":"Ukraina","name:left:nl":"Oekra\u00efne","alt_name:right:eo":"Hungario","name:right:fa":"\u0645\u062c\u0627\u0631\u0633\u062a\u0627\u0646","name:right:fo":"Ungarn","name:left:ne":"\u092f\u0941\u0915\u094d\u0930\u0947\u0928","name:left:ug":"\u0626\u06c7\u0643\u0631\u0627\u0626\u0649\u0646\u0627","name:left:na":"Ukraine","name:left:ml":"\u0d09\u0d15\u0d4d\u0d30\u0d48\u0d7b","name:left:eo":"Ukrainujo","name:left:en":"Ukraine","name:left:el":"\u039f\u03c5\u03ba\u03c1\u03b1\u03bd\u03af\u03b1","name:left:ee":"Ukraine","name:right:ki":"Macartsa","name:left:es":"Ucrania","name:left:ie":"Ucraina","name:left:eu":"Ukraina","name:left:et":"Ukraina","name:right:zh-min-nan":"Magyar-kok","name:right:oc":"Ongria","name:right:tr":"Macaristan","name:right:uz":"Mojariston","osm_relation":true,"name:right:or":"\u0b39\u0b19\u0b4d\u0b17\u0b47\u0b30\u0b40","name:left:pt":"Ucr\u00e2nia","name:right:ku":"Macaristan","name:right:tk":"Wengri\u00fda","name:left:gl":"Ucra\u00edna","name:left:wa":"Oucrinne","min_zoom":8.0,"name:left:zh-min-nan":"Ukrayina","name:left:ln":"Ukraine","name:left:wo":"Ukreen","name:left:ga":"An \u00dacr\u00e1in","name:left:it":"Ucraina","name:left:gd":"An Ucr\u00e0in","int_name:right":"Hungary","name:left:gn":"Ukya\u00f1a","name:left:gu":"\u0aaf\u0ac1\u0a95\u0acd\u0ab0\u0ac7\u0aa8","name:left:gv":"Yn Ookraan","name:left":"\u0423\u043a\u0440\u0430\u0457\u043d\u0430","name:right:mk":"\u0423\u043d\u0433\u0430\u0440\u0438\u0458\u0430","name:right:mi":"Hanekeria","name:right:mn":"\u0423\u043d\u0433\u0430\u0440","name:right:ml":"\u0d39\u0d02\u0d17\u0d31\u0d3f","name:right:vo":"Macar\u00e4n","name:right:vi":"Hungary","name:right:my":"\u101f\u1014\u103a\u1002\u1031\u101b\u102e\u1014\u102d\u102f\u1004\u103a\u1004\u1036","name:right:ms":"Hungary","name:right:mr":"\u0939\u0902\u0917\u0947\u0930\u0940","name:right:fy":"Hongarije","name:right:mt":"Ungerija","name:left:nn":"Ukraina","kind":"country","name:left:br":"Ukraina","name:left:bs":"Ukrajina","name:left:ba":"\u0423\u043a\u0440\u0430\u0438\u043d\u0430","name:left:bg":"\u0423\u043a\u0440\u0430\u0439\u043d\u0430","name:left:be":"\u0423\u043a\u0440\u0430\u0456\u043d\u0430","name:left:bi":"Ukraine","name:left:bn":"\u0987\u0989\u0995\u09cd\u09b0\u09c7\u09a8","name:left:bo":"\u0f68\u0f74\u0f40\u0f0b\u0f62\u0f61\u0f72\u0f0b\u0f53\u0f72\u0f0d","name:right":"Magyarorsz\u00e1g","name:left:yo":"Ukr\u00e9\u00ecn","name:left:yi":"\u05d0\u05d5\u05e7\u05e8\u05d0\u05d9\u05e0\u05e2","id:left":-60199,"name:right:fi":"Unkari","name:right:ka":"\u10e3\u10dc\u10d2\u10e0\u10d4\u10d7\u10d8","name:left:io":"Ukrainia","name:left:pa":"\u0a2f\u0a42\u0a15\u0a4d\u0a30\u0a47\u0a28","name:right:kg":"Hongrie","name:left:ig":"Yukrain","name:right:kk":"\u041c\u0430\u0436\u0430\u0440\u0441\u0442\u0430\u043d","name:left:id":"Ukraina","name:right:km":"\u1794\u17d2\u179a\u1791\u17c1\u179f\u17a0\u17bb\u1784\u1782\u17d2\u179a\u17b8","name:right:kl":"Ungarni","name:right:ko":"\ud5dd\uac00\ub9ac","name:right:ts":"Hungary","name:right:tl":"Unggarya","name:right:th":"\u0e1b\u0e23\u0e30\u0e40\u0e17\u0e28\u0e2e\u0e31\u0e07\u0e01\u0e32\u0e23\u0e35","name:right:kw":"Hungari","name:right:kv":"\u041c\u0430\u0434\u044c\u044f\u0440 \u041c\u0443","name:right:ky":"\u041c\u0430\u0436\u0430\u0440\u0441\u0442\u0430\u043d","name:right:te":"\u0c39\u0c02\u0c17\u0c47\u0c30\u0c3f","name:right:tg":"\u041c\u0430\u04b7\u043e\u0440\u0438\u0441\u0442\u043e\u043d","name:left:is":"\u00dakra\u00edna","name:right:ta":"\u0b85\u0b99\u0bcd\u0b95\u0bc7\u0bb0\u0bbf","name:right:de":"Ungarn","name:right:da":"Ungarn","name:right:dv":"\u0780\u07a6\u0782\u07b0\u078e\u07ad\u0783\u07a9","name:right:ht":"Ongri"},"arcs":[[0],[1],[2]]},{"type":"LineString","properties":{"name:right:yo":"Slof\u00e1k\u00ed\u00e0","name:right:yi":"\u05e1\u05dc\u05d0\u05d5\u05d5\u05d0\u05e7\u05d9\u05d9","name:left:la":"Ucraina","name:right:qu":"Isluwakya","name:left:li":"Oekra\u00efne","name:left:vi":"Ukraina","name:left:sw":"Ukraine","name:left:kg":"Ukrayina","name:left:ka":"\u10e3\u10d9\u10e0\u10d0\u10d8\u10dc\u10d0","name:left:km":"\u17a2\u17ca\u17bb\u1799\u1780\u17d2\u179a\u17c2\u1793","name:left:kl":"Ukraine","name:left:ko":"\uc6b0\ud06c\ub77c\uc774\ub098","name:left:kn":"\u0caf\u0cc1\u0c95\u0ccd\u0cb0\u0cc7\u0ca8\u0ccd","name:right:is":"Sl\u00f3vak\u00eda","name:left:ro":"Ucraina","name:left:kk":"\u0423\u043a\u0440\u0430\u0438\u043d\u0430","name:left:rm":"Ucraina","name:left:ku":"\u00dbkrayna","name:left:kw":"Ukrayn","name:left:kv":"\u0423\u043a\u0440\u0430\u0438\u043d\u0430","name:left:pl":"Ukraina","name:right:ro":"Slovacia","name:left:ru":"\u0423\u043a\u0440\u0430\u0438\u043d\u0430","name:right:ie":"Slovacia","name:right:id":"Slowakia","name:left:ky":"\u0423\u043a\u0440\u0430\u0438\u043d\u0430","name:right:ia":"Slovachia","name:right:bi":"Slovakia","name:right:bn":"\u09b8\u09cd\u09b2\u09cb\u09ad\u09be\u0995\u09bf\u09af\u09bc\u09be","name:right:bo":"\u0f66\u0f72\u0f0b\u0f63\u0f7c\u0f0b\u0f55\u0f0b\u0f41\u0f7a\u0f0d","name:left:sl":"Ukrajina","name:right:ba":"\u0421\u043b\u043e\u0432\u0430\u043a\u0438\u044f","name:right:bg":"\u0421\u043b\u043e\u0432\u0430\u043a\u0438\u044f","name:right:be":"\u0421\u043b\u0430\u0432\u0430\u043a\u0456\u044f","name:right:br":"Slovakia","name:right:bs":"Slova\u010dka","name:right:nn":"Slovakia","name:right:no":"Slovakia","name:right:nl":"Slowakije","name:left:lv":"Ukraina","name:right:wo":"Eslowaaki","name:right:ne":"\u0938\u094d\u0932\u094b\u092d\u093e\u0915\u093f\u092f\u093e","name:right:na":"Slowakia","name:right:gv":"Yn Clovack","alt_name:left:vi":"Uy Ki\u00ean","name:right:nv":"S\u0142\u00f3ba\u02bc Bik\u00e9yah","name:left:mg":"Okraina","kind_detail":"2","name:left:tr":"Ukrayna","name:right:gu":"\u0ab8\u0acd\u0ab2\u0acb\u0ab5\u0abe\u0a95\u0abf\u0aaf\u0abe","name:right:ps":"\u0633\u0644\u0648\u0627\u06a9\u064a\u0627","name:right:pt":"Eslov\u00e1quia","name:left:mk":"\u0423\u043a\u0440\u0430\u0438\u043d\u0430","name:left:mi":"\u016akareinga","name:left:ts":"Ukraine","name:left:tt":"\u0423\u043a\u0440\u0430\u0438\u043d\u0430","name:left:mn":"\u0423\u043a\u0440\u0430\u0439\u043d","name:left:tw":"Ukraine","name:left:th":"\u0e1b\u0e23\u0e30\u0e40\u0e17\u0e28\u0e22\u0e39\u0e40\u0e04\u0e23\u0e19","name:left:mr":"\u092f\u0941\u0915\u094d\u0930\u0947\u0928","name:left:tk":"Ukraina","name:left:tl":"Ukranya","name:left:mt":"Ukrajna","name:right:gl":"Eslovaquia","name:left:my":"\u101a\u1030\u1000\u101b\u102d\u1014\u103a\u1038\u1014\u102d\u102f\u1004\u103a\u1004\u1036","name:right:gn":"Elovakia","name:right:pl":"S\u0142owacja","name:left:te":"\u0c09\u0c15\u0c4d\u0c30\u0c46\u0c2f\u0c3f\u0c28\u0c4d","name:left:tg":"\u0423\u043a\u0440\u0430\u0439\u0438\u043d\u0430","name:left:ms":"Ukraine","name:right:gd":"An t-Sl\u00f2bhac","name:left:da":"Ukraine","name:left:de":"Ukraine","name:right:ga":"An tSl\u00f3vaic","name:left:dv":"\u0794\u07aa\u0786\u07b0\u0783\u07ac\u0787\u07a8\u0782\u07b0","name:right:ug":"\u0633\u0644\u0648\u06cb\u0627\u0643\u0649\u064a\u06d5","name:left:hi":"\u092f\u0941\u0915\u094d\u0930\u0947\u0928","name:right:lb":"Slowakei","name:right:uk":"\u0421\u043b\u043e\u0432\u0430\u0447\u0447\u0438\u043d\u0430","name:left:he":"\u05d0\u05d5\u05e7\u05e8\u05d0\u05d9\u05e0\u05d4","name:right:ln":"Slovakia","name:right:li":"Slowakie\u00eb","name:right:lt":"Slovakija","name:right:ur":"\u0633\u0644\u0648\u0648\u0627\u06a9\u06cc\u06c1","name:right:lv":"Slov\u0101kija","name:left:hy":"\u0548\u0582\u056f\u0580\u0561\u056b\u0576\u0561","name:left:ta":"\u0b89\u0b95\u0bcd\u0bb0\u0bc8\u0ba9\u0bcd","name:left:ht":"Ikr\u00e8n","name:left:hu":"Ukrajna","name:left:hr":"Ukrajina","sort_rank":262,"name:right:os":"\u0421\u043b\u043e\u0432\u0430\u043a\u0438","name:right:es":"Eslovaquia","name:right:sr":"\u0421\u043b\u043e\u0432\u0430\u0447\u043a\u0430","name:right:eu":"Eslovakia","name:right:et":"Slovakkia","name:left:os":"\u0423\u043a\u0440\u0430\u0438\u043d\u00e6","name:left:or":"\u0b5f\u0b41\u0b15\u0b4d\u0b30\u0b47\u0b28","name:right:ee":"Slovakia","name:left:vo":"Lukray\u00e4n","name:left:oc":"Ucra\u00efna","name:right:eo":"Slovakujo","name:right:en":"Slovakia","name:right:el":"\u03a3\u03bb\u03bf\u03b2\u03b1\u03ba\u03af\u03b1","name:left:fa":"\u0627\u0648\u06a9\u0631\u0627\u06cc\u0646","name:left:ia":"Ukraina","name:left:fo":"Ukraina","name:left:fi":"Ukraina","name:left:fr":"Ukraine","name:left:fy":"Oekra\u00efne","name:right:ja":"\u30b9\u30ed\u30d0\u30ad\u30a2","name:right:sq":"Sllovakia","name:right:ss":"Silovakhi","name:left:ja":"\u30a6\u30af\u30e9\u30a4\u30ca","name:right:su":"Slovakia","name:right:st":"Slovakia","name:right:sw":"Slovakia","name:right:sv":"Slovakien","name:right:sh":"Slova\u010dka","name:left:qu":"Ukranya","name:right:jv":"Slowakia","name:right:sl":"Slova\u0161ka","name:right:so":"Islofaakiya","name:right:sa":"\u0938\u094d\u0932\u094b\u0935\u093e\u0915\u093f\u092f\u093e","name:left:jv":"Ukraina","id":-60199,"old_name:left:vi":"\u00d4 Kh\u1eafc Lan","name:right:co":"Sluvacchia","name:right:ca":"Eslov\u00e0quia","name:right:se":"Slovakia","name:right:ce":"\u0421\u043b\u043e\u0432\u0430\u043a\u0438","name:right:cy":"Slofacia","name:right:zh-yue":"\u65af\u6d1b\u4f10\u514b","name:right:cu":"\u0421\u043b\u043e\u0432\u0463\u043d\u044c\u0441\u043a\u043e","name:right:cv":"\u0421\u043b\u043e\u0432\u0430\u043a\u0438","name:right:it":"Slovacchia","name:left:ar":"\u0623\u0648\u0643\u0631\u0627\u0646\u064a\u0627","name:left:az":"Ukrayna","name:right:rw":"Silovakiya","name:left:af":"Oekra\u00efne","name:left:ab":"\u0423\u043a\u0440\u0430\u0438\u043d\u0430","name:left:an":"Ucra\u00edna","name:left:am":"\u12e9\u12ad\u122c\u1295","name:right:ru":"\u0421\u043b\u043e\u0432\u0430\u043a\u0438\u044f","name:right:io":"Slovakia","name:left:zh-yue":"\u70cf\u514b\u862d","name:left:rw":"Ikerene","name:right:hy":"\u054d\u056c\u0578\u057e\u0561\u056f\u056b\u0561","name:left:lb":"Ukrain","alt_name:left:eo":"Ukrainio","name:left:su":"Ukraina","int_name:left":"Ukraine","name:right:hr":"Slova\u010dka","name:left:sv":"Ukraina","name:left:sq":"Ukraina","name:right:hu":"Szlov\u00e1kia","name:left:ss":"IYukhureni","name:left:sr":"\u0423\u043a\u0440\u0430\u0458\u0438\u043d\u0430","name:left:sm":"Ukraine","name:right:hi":"\u0938\u094d\u0932\u094b\u0935\u093e\u0915\u093f\u092f\u093e","name:left:so":"Ukrain","name:left:sn":"Ukraine","name:left:lt":"Ukraina","name:left:sh":"Ukrajina","name:left:sk":"Ukrajina","name:left:se":"Ukraina","name:right:he":"\u05e1\u05dc\u05d5\u05d1\u05e7\u05d9\u05d4","name:left:sc":"Ucraina","name:right:la":"Slovacia","name:right:af":"Slowakye","name:left:ce":"\u0423\u043a\u0440\u0430\u0438\u043d\u0430","name:right:an":"Eslovaquia","name:right:am":"\u1235\u120e\u126b\u12aa\u12eb","name:left:ca":"Ucra\u00efna","source":"openstreetmap.org","name:left:cy":"Wcr\u00e1in","name:right:ar":"\u0633\u0644\u0648\u0641\u0627\u0643\u064a\u0627","name:left:cu":"\u041e\u0443\u043a\u0440\u0430\u0438\u043d\u0430","name:left:cv":"\u0423\u043a\u0440\u0430\u0438\u043d\u0430","name:right:az":"Slovakiya","name:left:cs":"Ukrajina","name:right:rm":"Slovachia","name":"\u0423\u043a\u0440\u0430\u0457\u043d\u0430 - Slovensko","name:right:zu":"ISlovaki","name:left:zh":"\u4e4c\u514b\u5170","name:right:zh":"\u65af\u6d1b\u4f10\u514b","name:left:uz":"Ukraina","name:right:fr":"Slovaquie","name:left:ps":"\u0627\u0648\u06a9\u0631\u0627\u06cc\u0646","name:left:nv":"Y\u00f3\u00f3kwein","name:left:ur":"\u06cc\u0648\u06a9\u0631\u06cc\u0646","id:right":-14296,"name:left:nn":"Ukraina","name:left:no":"Ukraina","name:left:nl":"Oekra\u00efne","alt_name:right:eo":"Slovakio","name:right:fa":"\u0627\u0633\u0644\u0648\u0627\u06a9\u06cc","name:right:fo":"Slovakia","name:left:ne":"\u092f\u0941\u0915\u094d\u0930\u0947\u0928","name:left:ug":"\u0626\u06c7\u0643\u0631\u0627\u0626\u0649\u0646\u0627","name:left:na":"Ukraine","name:left:ml":"\u0d09\u0d15\u0d4d\u0d30\u0d48\u0d7b","name:left:eo":"Ukrainujo","name:left:en":"Ukraine","name:left:el":"\u039f\u03c5\u03ba\u03c1\u03b1\u03bd\u03af\u03b1","name:left:ee":"Ukraine","name:left:ig":"Yukrain","name:left:es":"Ucrania","name:left:ie":"Ucraina","name:left:eu":"Ukraina","name:left:et":"Ukraina","name:right:oc":"Eslovaquia","name:right:tr":"Slovakya","name:right:uz":"Slovakiya","osm_relation":true,"name:right:or":"\u0b38\u0b4d\u0b32\u0b4b\u0b2d\u0b3e\u0b15\u0b3f\u0b06","name:left:pt":"Ucr\u00e2nia","name:right:ku":"Slovakya","name:right:tk":"Slowaki\u00fda","name:left:wa":"Oucrinne","min_zoom":8.0,"name:left:ln":"Ukraine","name:left:wo":"Ukreen","name:left:ga":"An \u00dacr\u00e1in","name:left:it":"Ucraina","name:left:gd":"An Ucr\u00e0in","name:left:gl":"Ucra\u00edna","name:left:gn":"Ukya\u00f1a","name:left:gu":"\u0aaf\u0ac1\u0a95\u0acd\u0ab0\u0ac7\u0aa8","name:left:gv":"Yn Ookraan","official_name:right":"Slovensk\u00e1 republika","name:left":"\u0423\u043a\u0440\u0430\u0457\u043d\u0430","name:right:mk":"\u0421\u043b\u043e\u0432\u0430\u0447\u043a\u0430","name:right:mi":"Horow\u0101kia","name:right:mn":"\u0421\u043b\u043e\u0432\u0430\u043a","name:right:ml":"\u0d38\u0d4d\u0d32\u0d4b\u0d35\u0d3e\u0d15\u0d4d\u0d2f","name:right:vo":"Slovakiy\u00e4n","name:right:vi":"Slovakia","name:right:my":"\u1006\u101c\u102d\u102f\u1017\u102c\u1038\u1000\u102e\u1038\u101a\u102c\u1038\u1014\u102d\u102f\u1004\u103a\u1004\u1036","name:right:ms":"Slovakia","name:right:mr":"\u0938\u094d\u0932\u094b\u0935\u094d\u0939\u093e\u0915\u093f\u092f\u093e","name:right:fy":"Slowakije","name:right:mt":"Slovakkja","kind":"country","name:left:br":"Ukraina","name:left:bs":"Ukrajina","name:left:ba":"\u0423\u043a\u0440\u0430\u0438\u043d\u0430","name:left:bg":"\u0423\u043a\u0440\u0430\u0439\u043d\u0430","name:left:be":"\u0423\u043a\u0440\u0430\u0456\u043d\u0430","name:left:bi":"Ukraine","name:left:bn":"\u0987\u0989\u0995\u09cd\u09b0\u09c7\u09a8","name:left:bo":"\u0f68\u0f74\u0f40\u0f0b\u0f62\u0f61\u0f72\u0f0b\u0f53\u0f72\u0f0d","name:right":"Slovensko","name:left:yo":"Ukr\u00e9\u00ecn","name:left:yi":"\u05d0\u05d5\u05e7\u05e8\u05d0\u05d9\u05e0\u05e2","id:left":-60199,"name:right:fi":"Slovakia","name:right:ka":"\u10e1\u10da\u10dd\u10d5\u10d0\u10d9\u10d4\u10d7\u10d8","name:left:io":"Ukrainia","name:left:pa":"\u0a2f\u0a42\u0a15\u0a4d\u0a30\u0a47\u0a28","name:right:kg":"Slovakia","name:right:tt":"\u0421\u043b\u043e\u0432\u0430\u043a\u0438\u044f","name:right:kk":"\u0421\u043b\u043e\u0432\u0430\u043a\u0438\u044f","name:left:id":"Ukraina","name:right:kl":"Slovakia","name:right:ko":"\uc2ac\ub85c\ubc14\ud0a4\uc544","name:right:tl":"Eslobakya","name:right:th":"\u0e1b\u0e23\u0e30\u0e40\u0e17\u0e28\u0e2a\u0e42\u0e25\u0e27\u0e32\u0e40\u0e01\u0e35\u0e22","name:right:kw":"Slovaki","name:right:kv":"\u0421\u043b\u043e\u0432\u0430\u043a\u0438\u044f","name:right:ky":"\u0421\u043b\u043e\u0432\u0430\u043a\u0438\u044f","name:left:zh-min-nan":"Ukrayina","name:right:tg":"\u0421\u043b\u043e\u0432\u0430\u043a\u0438\u044f","name:left:is":"\u00dakra\u00edna","name:right:ta":"\u0b9a\u0bbf\u0bb2\u0bcb\u0bb5\u0bbe\u0b95\u0bcd\u0b95\u0bbf\u0baf\u0bbe","name:right:de":"Slowakei","name:right:da":"Slovakiet","name:right:dv":"\u0790\u07aa\u078d\u07ae\u0788\u07a7\u0786\u07a8\u0787\u07a7","name:right:ht":"Slovaki"},"arcs":[3]},{"type":"LineString","properties":{"name:right:yo":"Slof\u00e1k\u00ed\u00e0","name:right:yi":"\u05e1\u05dc\u05d0\u05d5\u05d5\u05d0\u05e7\u05d9\u05d9","name:left:la":"Hungaria","name:right:qu":"Isluwakya","name:left:li":"Hongarie\u00eb","name:left:vi":"Hungary","name:left:sw":"Hungaria","name:left:kg":"Hongrie","name:left:ka":"\u10e3\u10dc\u10d2\u10e0\u10d4\u10d7\u10d8","name:left:km":"\u1794\u17d2\u179a\u1791\u17c1\u179f\u17a0\u17bb\u1784\u1782\u17d2\u179a\u17b8","name:left:kl":"Ungarni","name:left:ko":"\ud5dd\uac00\ub9ac","name:right:it":"Slovacchia","name:left:ki":"Macartsa","name:left:ro":"Ungaria","name:left:kk":"\u041c\u0430\u0436\u0430\u0440\u0441\u0442\u0430\u043d","name:left:rm":"Ungaria","name:left:ku":"Macaristan","name:left:kw":"Hungari","name:left:kv":"\u041c\u0430\u0434\u044c\u044f\u0440 \u041c\u0443","name:left:rw":"Hongiriya","name:left:ru":"\u0412\u0435\u043d\u0433\u0440\u0438\u044f","name:right:ie":"Slovacia","name:right:id":"Slowakia","name:left:ky":"\u041c\u0430\u0436\u0430\u0440\u0441\u0442\u0430\u043d","name:right:ia":"Slovachia","name:right:bi":"Slovakia","name:right:bn":"\u09b8\u09cd\u09b2\u09cb\u09ad\u09be\u0995\u09bf\u09af\u09bc\u09be","name:right:bo":"\u0f66\u0f72\u0f0b\u0f63\u0f7c\u0f0b\u0f55\u0f0b\u0f41\u0f7a\u0f0d","name:left:sl":"Mad\u017earska","name:left:zh_PY":"Xiongyali","name:right:bg":"\u0421\u043b\u043e\u0432\u0430\u043a\u0438\u044f","name:right:be":"\u0421\u043b\u0430\u0432\u0430\u043a\u0456\u044f","name:right:br":"Slovakia","name:left:lt":"Vengrija","name:right:nn":"Slovakia","name:right:no":"Slovakia","name:right:nl":"Slowakije","name:left:lv":"Ung\u0101rija","name:right:wo":"Eslowaaki","name:right:ne":"\u0938\u094d\u0932\u094b\u092d\u093e\u0915\u093f\u092f\u093e","name:right:na":"Slowakia","name:right:gv":"Yn Clovack","name:right:nv":"S\u0142\u00f3ba\u02bc Bik\u00e9yah","kind_detail":"2","name:left:tr":"Macaristan","name:right:gu":"\u0ab8\u0acd\u0ab2\u0acb\u0ab5\u0abe\u0a95\u0abf\u0aaf\u0abe","name:right:ps":"\u0633\u0644\u0648\u0627\u06a9\u064a\u0627","name:right:pt":"Eslov\u00e1quia","name:left:mk":"\u0423\u043d\u0433\u0430\u0440\u0438\u0458\u0430","name:left:mi":"Hanekeria","name:left:ts":"Hungary","name:left:tt":"\u041c\u0430\u0497\u0430\u0440\u0441\u0442\u0430\u043d","name:left:mn":"\u0423\u043d\u0433\u0430\u0440","name:left:ml":"\u0d39\u0d02\u0d17\u0d31\u0d3f","name:left:th":"\u0e1b\u0e23\u0e30\u0e40\u0e17\u0e28\u0e2e\u0e31\u0e07\u0e01\u0e32\u0e23\u0e35","name:left:mr":"\u0939\u0902\u0917\u0947\u0930\u0940","name:left:tk":"Wengri\u00fda","name:left:tl":"Unggarya","name:left:mt":"Ungerija","name:right:gl":"Eslovaquia","name:left:my":"\u101f\u1014\u103a\u1002\u1031\u101b\u102e\u1014\u102d\u102f\u1004\u103a\u1004\u1036","name:right:gn":"Elovakia","name:right:pl":"S\u0142owacja","name:left:te":"\u0c39\u0c02\u0c17\u0c47\u0c30\u0c3f","name:left:tg":"\u041c\u0430\u04b7\u043e\u0440\u0438\u0441\u0442\u043e\u043d","name:left:ms":"Hungary","name:right:gd":"An t-Sl\u00f2bhac","name:right:tr":"Slovakya","name:left:da":"Ungarn","name:left:de":"Ungarn","name:right:ga":"An tSl\u00f3vaic","name:left:dv":"\u0780\u07a6\u0782\u07b0\u078e\u07ad\u0783\u07a9","name:right:ug":"\u0633\u0644\u0648\u06cb\u0627\u0643\u0649\u064a\u06d5","name:left:hi":"\u0939\u0902\u0917\u0930\u0940","name:right:lb":"Slowakei","name:right:uk":"\u0421\u043b\u043e\u0432\u0430\u0447\u0447\u0438\u043d\u0430","name:left:he":"\u05d4\u05d5\u05e0\u05d2\u05e8\u05d9\u05d4","name:right:ln":"Slovakia","name:right:li":"Slowakie\u00eb","name:right:lt":"Slovakija","name:right:ur":"\u0633\u0644\u0648\u0648\u0627\u06a9\u06cc\u06c1","name:right:lv":"Slov\u0101kija","name:left:hy":"\u0540\u0578\u0582\u0576\u0563\u0561\u0580\u056b\u0561","name:left:ta":"\u0b85\u0b99\u0bcd\u0b95\u0bc7\u0bb0\u0bbf","name:left:ht":"Ongri","name:right:uz":"Slovakiya","name:left:hr":"Ma\u0111arska","sort_rank":262,"name:right:os":"\u0421\u043b\u043e\u0432\u0430\u043a\u0438","name:right:es":"Eslovaquia","name:right:sr":"\u0421\u043b\u043e\u0432\u0430\u0447\u043a\u0430","name:right:eu":"Eslovakia","name:right:et":"Slovakkia","name:left:os":"\u0412\u0435\u043d\u0433\u0440\u0438","name:left:or":"\u0b39\u0b19\u0b4d\u0b17\u0b47\u0b30\u0b40","name:right:ee":"Slovakia","name:left:vo":"Macar\u00e4n","name:left:oc":"Ongria","name:right:eo":"Slovakujo","name:right:en":"Slovakia","name:right:el":"\u03a3\u03bb\u03bf\u03b2\u03b1\u03ba\u03af\u03b1","name:left:ff":"Hunngariya","name:left:fa":"\u0645\u062c\u0627\u0631\u0633\u062a\u0627\u0646","name:left:fo":"Ungarn","name:left:fi":"Unkari","name:left:fr":"Hongrie","name:left:fy":"Hongarije","name:right:ja":"\u30b9\u30ed\u30d0\u30ad\u30a2","name:right:sq":"Sllovakia","name:right:ss":"Silovakhi","name:left:ja":"\u30cf\u30f3\u30ac\u30ea\u30fc","name:right:su":"Slovakia","name:right:st":"Slovakia","name:right:sw":"Slovakia","name:right:sv":"Slovakien","name:right:sh":"Slova\u010dka","name:left:qu":"Unriya","name:right:jv":"Slowakia","name:right:sl":"Slova\u0161ka","name:right:so":"Islofaakiya","name:right:sa":"\u0938\u094d\u0932\u094b\u0935\u093e\u0915\u093f\u092f\u093e","name:left:jv":"Hongaria","id":-21335,"name:right:co":"Sluvacchia","name:right:ca":"Eslov\u00e0quia","name:right:se":"Slovakia","name:right:ce":"\u0421\u043b\u043e\u0432\u0430\u043a\u0438","name:right:cy":"Slofacia","name:right:zh-yue":"\u65af\u6d1b\u4f10\u514b","name:right:cu":"\u0421\u043b\u043e\u0432\u0463\u043d\u044c\u0441\u043a\u043e","name:right:cv":"\u0421\u043b\u043e\u0432\u0430\u043a\u0438","name:left:ar":"\u0627\u0644\u0645\u062c\u0631","name:right:is":"Sl\u00f3vak\u00eda","name:left:az":"Macar\u0131stan","name:left:ay":"Hunkariya","name:right:rw":"Silovakiya","name:left:af":"Hongarye","name:left:ab":"\u041c\u0430\u0434\u0438\u0430\u0440\u0442\u04d9\u044b\u043b\u0430","name:left:an":"Hongr\u00eda","name:left:am":"\u1200\u1295\u130b\u122a","name:right:ru":"\u0421\u043b\u043e\u0432\u0430\u043a\u0438\u044f","name:right:io":"Slovakia","name:left:zh-yue":"\u5308\u7259\u5229","name:right:ro":"Slovacia","name:right:hy":"\u054d\u056c\u0578\u057e\u0561\u056f\u056b\u0561","name:left:lb":"Ungarn","alt_name:left:eo":"Hungario","name:left:su":"Hungaria","name:left:st":"Hungary","name:right:hr":"Slova\u010dka","name:left:sv":"Ungern","name:left:sq":"Hungaria","name:right:hu":"Szlov\u00e1kia","name:left:ss":"IHangareyi","name:left:sr":"\u041c\u0430\u0452\u0430\u0440\u0441\u043a\u0430","name:left:sm":"Hungary","name:right:hi":"\u0938\u094d\u0932\u094b\u0935\u093e\u0915\u093f\u092f\u093e","name:left:so":"Hungaria","name:left:sn":"Hungary","name:left:si":"\u0dc4\u0db1\u0dca\u0d9c\u0dda\u0dbb\u0dd2\u0dba\u0dcf\u0db1\u0dd4 \u0dc3\u0db8\u0dd4\u0dc4\u0dcf\u0dab\u0dca\u0da9\u0dd4\u0dc0","name:left:sh":"Ma\u0111arska","name:left:sk":"Ma\u010farsko","name:left:se":"U\u014bg\u00e1r","name:left:sa":"\u0939\u0902\u0917\u0930\u0940","name:right:he":"\u05e1\u05dc\u05d5\u05d1\u05e7\u05d9\u05d4","name:right:la":"Slovacia","name:right:af":"Slowakye","name:left:co":"Ungheria","name:left:ce":"\u0412\u0435\u043d\u0433\u0440\u0438","name:right:an":"Eslovaquia","name:right:am":"\u1235\u120e\u126b\u12aa\u12eb","name:left:ca":"Hongria","source":"openstreetmap.org","name:left:cy":"Hwngari","name:right:ar":"\u0633\u0644\u0648\u0641\u0627\u0643\u064a\u0627","name:left:cu":"\u046a\u0433\u0440\u0438","name:left:cv":"\u0412\u0435\u043d\u0433\u0440\u0438","name:right:az":"Slovakiya","name:left:cs":"Ma\u010farsko","name:right:rm":"Slovachia","name":"Magyarorsz\u00e1g - Slovensko","name:right:zu":"ISlovaki","name:left:zh":"\u5308\u7259\u5229","name:right:zh":"\u65af\u6d1b\u4f10\u514b","name:left:uz":"Mojariston","name:right:ba":"\u0421\u043b\u043e\u0432\u0430\u043a\u0438\u044f","name:right:fr":"Slovaquie","name:left:ps":"\u0647\u0646\u06ab\u0631\u064a","name:left:nv":"H\u00e1ngewii","name:left:ur":"\u0645\u062c\u0627\u0631\u0633\u062a\u0627\u0646","id:right":-14296,"name:left:uk":"\u0423\u0433\u043e\u0440\u0449\u0438\u043d\u0430","name:left:no":"Ungern","name:left:nl":"Hongarije","alt_name:right:eo":"Slovakio","name:right:fa":"\u0627\u0633\u0644\u0648\u0627\u06a9\u06cc","name:right:fo":"Slovakia","name:left:ne":"\u0939\u0902\u0917\u0947\u0930\u0940","name:left:ug":"\u06cb\u06d0\u0646\u06af\u0631\u0649\u064a\u06d5","name:left:na":"Ungari","name:left:eo":"Hungarujo","name:left:en":"Hungary","name:left:el":"\u039f\u03c5\u03b3\u03b3\u03b1\u03c1\u03af\u03b1","name:left:ee":"Hungary","name:left:pl":"W\u0119gry","name:left:es":"Hungr\u00eda","name:left:ie":"Hungaria","name:left:eu":"Hungaria","name:left:et":"Ungari","name:right:oc":"Eslovaquia","name:left:ia":"Hungaria","name:right:bs":"Slova\u010dka","osm_relation":true,"name:right:or":"\u0b38\u0b4d\u0b32\u0b4b\u0b2d\u0b3e\u0b15\u0b3f\u0b06","name:left:pt":"Hungria","name:right:ku":"Slovakya","name:right:tk":"Slowaki\u00fda","min_zoom":8.0,"name:left:ln":"Ungri","name:left:wo":"Ongiri","name:left:ga":"An Ung\u00e1ir","name:left:it":"Ungheria","name:left:gd":"An Ungair","name:left:gl":"Hungr\u00eda - Magyarorsz\u00e1g","name:left:gn":"Hungyria","name:left:gu":"\u0ab9\u0a82\u0a97\u0ac7\u0ab0\u0ac0","name:left:gv":"Yn Ungaar","official_name:right":"Slovensk\u00e1 republika","name:left":"Magyarorsz\u00e1g","name:right:mk":"\u0421\u043b\u043e\u0432\u0430\u0447\u043a\u0430","name:right:mi":"Horow\u0101kia","name:right:mn":"\u0421\u043b\u043e\u0432\u0430\u043a","name:right:ml":"\u0d38\u0d4d\u0d32\u0d4b\u0d35\u0d3e\u0d15\u0d4d\u0d2f","name:right:vo":"Slovakiy\u00e4n","name:right:vi":"Slovakia","name:right:my":"\u1006\u101c\u102d\u102f\u1017\u102c\u1038\u1000\u102e\u1038\u101a\u102c\u1038\u1014\u102d\u102f\u1004\u103a\u1004\u1036","name:right:ms":"Slovakia","name:right:mr":"\u0938\u094d\u0932\u094b\u0935\u094d\u0939\u093e\u0915\u093f\u092f\u093e","name:right:fy":"Slowakije","name:right:mt":"Slovakkja","name:left:nn":"Ungarn","kind":"country","name:left:br":"Hungaria","name:left:bs":"Ma\u0111arska","int_name:left":"Hungary","name:left:ba":"\u0412\u0435\u043d\u0433\u0440\u0438\u044f","name:left:bg":"\u0423\u043d\u0433\u0430\u0440\u0438\u044f","name:left:be":"\u0412\u0435\u043d\u0433\u0440\u044b\u044f","name:left:bi":"Hungary","name:left:bn":"\u09b9\u09be\u0999\u09cd\u0997\u09c7\u09b0\u09bf","name:left:bo":"\u0f67\u0f74\u0f44\u0f0b\u0f42\u0fb7\u0f0b\u0f62\u0f72\u0f0d","name:right":"Slovensko","name:left:yo":"H\u00fang\u00e1r\u00ec","name:left:yi":"\u05d0\u05d5\u05e0\u05d2\u05d0\u05e8\u05df","id:left":-21335,"name:right:fi":"Slovakia","name:right:ka":"\u10e1\u10da\u10dd\u10d5\u10d0\u10d9\u10d4\u10d7\u10d8","name:left:io":"Hungaria","name:left:pa":"\u0a39\u0a70\u0a17\u0a30\u0a40","name:right:kg":"Slovakia","name:right:tt":"\u0421\u043b\u043e\u0432\u0430\u043a\u0438\u044f","name:right:kk":"\u0421\u043b\u043e\u0432\u0430\u043a\u0438\u044f","name:left:id":"Hongaria","name:right:kl":"Slovakia","name:right:ko":"\uc2ac\ub85c\ubc14\ud0a4\uc544","name:right:tl":"Eslobakya","name:right:th":"\u0e1b\u0e23\u0e30\u0e40\u0e17\u0e28\u0e2a\u0e42\u0e25\u0e27\u0e32\u0e40\u0e01\u0e35\u0e22","name:right:kw":"Slovaki","name:right:kv":"\u0421\u043b\u043e\u0432\u0430\u043a\u0438\u044f","name:right:ky":"\u0421\u043b\u043e\u0432\u0430\u043a\u0438\u044f","name:left:zh-min-nan":"Magyar-kok","name:right:tg":"\u0421\u043b\u043e\u0432\u0430\u043a\u0438\u044f","name:left:is":"Ungverjaland","name:right:ta":"\u0b9a\u0bbf\u0bb2\u0bcb\u0bb5\u0bbe\u0b95\u0bcd\u0b95\u0bbf\u0baf\u0bbe","name:right:de":"Slowakei","name:right:da":"Slovakiet","name:right:dv":"\u0790\u07aa\u078d\u07ae\u0788\u07a7\u0786\u07a8\u0787\u07a7","name:right:ht":"Slovaki"},"arcs":[4]},{"type":"MultiLineString","properties":{"name:left:pl":"Kraj koszycki","id:left":-388272,"name:right:hu":"Eperjesi ker\u00fclet","name:left:ro":"Regiunea Ko\u0161ice","min_zoom":8.0,"name:left:ru":"\u041a\u043e\u0448\u0438\u0446\u043a\u0438\u0439 \u043a\u0440\u0430\u0439","name:left:hu":"Kassai ker\u00fclet","id:right":-388271,"name:right:pl":"Kraj preszowski","id":-388272,"osm_relation":true,"name:right":"Pre\u0161ovsk\u00fd kraj","kind":"region","name":"Ko\u0161ick\u00fd kraj - Pre\u0161ovsk\u00fd kraj","source":"openstreetmap.org","sort_rank":256,"kind_detail":"4","name:right:ru":"\u041f\u0440\u0435\u0448\u043e\u0432\u0441\u043a\u0438\u0439 \u043a\u0440\u0430\u0439","name:left:de":"Kaschauer Landschaftsverband","name:right:en":"Region of Pre\u0161ov","name:left:en":"Region of Ko\u0161ice","name:right:de":"Eperieser Landschaftsverband","name:left":"Ko\u0161ick\u00fd kraj"},"arcs":[[5],[6]]},{"type":"LineString","properties":{"name:right:nn":"Zakarpattja oblast","name:right:hy":"\u0531\u0576\u0564\u0580\u056f\u0561\u0580\u057a\u0561\u057f\u0575\u0561\u0576 \u0574\u0561\u0580\u0566","name:right:nl":"Oblast Transkarpati\u00eb","name:right:ja":"\u30b6\u30ab\u30eb\u30d1\u30c3\u30c1\u30e3\u5dde","name:right:fr":"Oblast de Transcarpatie","name:right:la":"Ruthenia Subcarpathanea","name:right:no":"Zakarpattja oblast","name:right:hr":"Zakarpatska oblast","name:right:sr":"\u0417\u0430\u043a\u0430\u0440\u043f\u0430\u0442\u0441\u043a\u0430 \u043e\u0431\u043b\u0430\u0441\u0442","name:right:hu":"K\u00e1rp\u00e1talja","name:right:sv":"Zakarpatska oblast","name:right:lt":"U\u017ekarpat\u0117s sritis","name:right:lv":"Aizkarpatu apgabals","name:left:hu":"Kassai ker\u00fclet","name:right:uz":"Zakarpatye viloyati","name:right:he":"\u05d6\u05e7\u05e8\u05e4\u05d8\u05d9\u05d4","name:right":"\u0417\u0430\u043a\u0430\u0440\u043f\u0430\u0442\u0441\u044c\u043a\u0430 \u043e\u0431\u043b\u0430\u0441\u0442\u044c","name:left:en":"Region of Ko\u0161ice","name:right:ca":"Transcarp\u00e0cia","name:right:pl":"Obw\u00f3d zakarpacki","name:right:sk":"Zakarpatsk\u00e1 oblas\u0165","id":-388272,"source":"openstreetmap.org","name:right:ar":"\u0632\u0627\u0643\u0627\u0631\u0628\u0627\u062a\u064a\u0627 \u0623\u0648\u0628\u0644\u0627\u0633\u062a","id:left":-388272,"name:right:cs":"Zakarpatsk\u00e1 oblast","name:right:fi":"Taka-Karpatian alue","id:right":-72489,"name:left":"Ko\u0161ick\u00fd kraj","name:right:ka":"\u10e2\u10e0\u10d0\u10dc\u10e1\u10d9\u10d0\u10e0\u10de\u10d0\u10e2\u10d8\u10d8\u10e1 \u10dd\u10da\u10e5\u10d8","name:right:zh-min-nan":"Zakarpattya s\u00e9ng","name:right:pt":"Oblast da Transcarp\u00e1tia","name:right:eu":"Transkarpatiako oblasta","name:right:et":"Taga-Karpaatia","name:left:pl":"Kraj koszycki","name:right:it":"Oblast' di Transcarpazia","name:left:ro":"Regiunea Ko\u0161ice","name:right:tr":"Zakarpatya Oblast\u0131","name:right:ru":"\u0417\u0430\u043a\u0430\u0440\u043f\u0430\u0442\u0441\u043a\u0430\u044f \u043e\u0431\u043b\u0430\u0441\u0442\u044c","name:right:es":"\u00d3blast de Zakarpatia","name:right:ko":"\uc790\uce74\ub974\ud30c\ud0f8 \uc8fc","name:left:ru":"\u041a\u043e\u0448\u0438\u0446\u043a\u0438\u0439 \u043a\u0440\u0430\u0439","name:right:mr":"\u091d\u093e\u0915\u093e\u0930\u092a\u0924\u094d\u0924\u093f\u092f\u093e \u0913\u092c\u094d\u0932\u093e\u0938\u094d\u0924","min_zoom":8.0,"name:right:id":"Oblast Zakarpattia","name:right:eo":"Transkarpata provinco","name:right:en":"Zakarpattia Oblast","name:right:os":"\u0424\u00e6\u0441\u043a\u0430\u0440\u043f\u0430\u0442\u044b \u043e\u0431\u043b\u00e6\u0441\u0442","kind":"region","name":"Ko\u0161ick\u00fd kraj - \u0417\u0430\u043a\u0430\u0440\u043f\u0430\u0442\u0441\u044c\u043a\u0430 \u043e\u0431\u043b\u0430\u0441\u0442\u044c","name:right:de":"Oblast Transkarpatien","name:right:mk":"\u0417\u0430\u043a\u0430\u0440\u043f\u0430\u0442\u0441\u043a\u0430 \u043e\u0431\u043b\u0430\u0441\u0442","name:left:de":"Kaschauer Landschaftsverband","osm_relation":true,"name:right:be":"\u0417\u0430\u043a\u0430\u0440\u043f\u0430\u0446\u043a\u0430\u044f \u0432\u043e\u0431\u043b\u0430\u0441\u0446\u044c","sort_rank":256,"name:right:bg":"\u0417\u0430\u043a\u0430\u0440\u043f\u0430\u0442\u0441\u043a\u0430 \u043e\u0431\u043b\u0430\u0441\u0442","kind_detail":"4","name:right:bs":"Zakarpatska oblast","name:right:zh":"\u5916\u5580\u723e\u5df4\u9621\u5dde","name:right:ro":"Regiunea Transcarpatia"},"arcs":[7]},{"type":"LineString","properties":{"name:right:uk":"\u041f\u0456\u0432\u043d\u0456\u0447\u043d\u0438\u0439 \u0412\u0435\u043b\u0438\u043a\u0438\u0439 \u0410\u043b\u044c\u0444\u0435\u043b\u044c\u0434","name:right:hr":"Sjeverni Alf\u00f6ld","name:right:sr":"\u0412\u0435\u043b\u0438\u043a\u0435 \u0440\u0430\u0432\u043d\u0438\u0446\u0435 \u0438 \u0441\u0435\u0432\u0435\u0440\u043d\u0430 \u041c\u0430\u0452\u0430\u0440\u0441\u043a\u0430","name:left:ro":"Regiunea Ko\u0161ice","id:right":-22793,"min_zoom":8.0,"name:right:ro":"Marea C\u00e2mpie \u0219i Nordul","name:left:en":"Region of Ko\u0161ice","name:left:ru":"\u041a\u043e\u0448\u0438\u0446\u043a\u0438\u0439 \u043a\u0440\u0430\u0439","name:left:hu":"Kassai ker\u00fclet","name:right:ru":"\u0421\u0435\u0432\u0435\u0440\u043d\u044b\u0439 \u0410\u043b\u044c\u0444\u0451\u043b\u044c\u0434","id":-388272,"osm_relation":true,"name:right":"Alf\u00f6ld \u00e9s \u00c9szak","kind":"region","name":"Ko\u0161ick\u00fd kraj - Alf\u00f6ld \u00e9s \u00c9szak","source":"openstreetmap.org","sort_rank":256,"kind_detail":"4","name:left:de":"Kaschauer Landschaftsverband","name:right:en":"Great Plain and North","name:left:pl":"Kraj koszycki","name:right:de":"N\u00f6rdliche Gro\u00dfe Tiefebene","id:left":-388272,"name:left":"Ko\u0161ick\u00fd kraj"},"arcs":[8]},{"type":"LineString","properties":{"name:right:nn":"Zakarpattja oblast","name:right:hy":"\u0531\u0576\u0564\u0580\u056f\u0561\u0580\u057a\u0561\u057f\u0575\u0561\u0576 \u0574\u0561\u0580\u0566","name:right:nl":"Oblast Transkarpati\u00eb","name:right:ja":"\u30b6\u30ab\u30eb\u30d1\u30c3\u30c1\u30e3\u5dde","name:right:fr":"Oblast de Transcarpatie","name:right:la":"Ruthenia Subcarpathanea","name:right:no":"Zakarpattja oblast","name:right:hr":"Zakarpatska oblast","name:right:sr":"\u0417\u0430\u043a\u0430\u0440\u043f\u0430\u0442\u0441\u043a\u0430 \u043e\u0431\u043b\u0430\u0441\u0442","name:right:hu":"K\u00e1rp\u00e1talja","name:right:sv":"Zakarpatska oblast","name:right:lt":"U\u017ekarpat\u0117s sritis","name:right:lv":"Aizkarpatu apgabals","name:left:hu":"Eperjesi ker\u00fclet","name:right:uz":"Zakarpatye viloyati","name:right:he":"\u05d6\u05e7\u05e8\u05e4\u05d8\u05d9\u05d4","name:right":"\u0417\u0430\u043a\u0430\u0440\u043f\u0430\u0442\u0441\u044c\u043a\u0430 \u043e\u0431\u043b\u0430\u0441\u0442\u044c","name:left:en":"Region of Pre\u0161ov","name:right:ca":"Transcarp\u00e0cia","name:right:pl":"Obw\u00f3d zakarpacki","name:right:sk":"Zakarpatsk\u00e1 oblas\u0165","id":-388271,"source":"openstreetmap.org","name:right:ar":"\u0632\u0627\u0643\u0627\u0631\u0628\u0627\u062a\u064a\u0627 \u0623\u0648\u0628\u0644\u0627\u0633\u062a","id:left":-388271,"name:right:cs":"Zakarpatsk\u00e1 oblast","name:right:fi":"Taka-Karpatian alue","id:right":-72489,"name:left":"Pre\u0161ovsk\u00fd kraj","name:right:ka":"\u10e2\u10e0\u10d0\u10dc\u10e1\u10d9\u10d0\u10e0\u10de\u10d0\u10e2\u10d8\u10d8\u10e1 \u10dd\u10da\u10e5\u10d8","name:right:zh-min-nan":"Zakarpattya s\u00e9ng","name:right:pt":"Oblast da Transcarp\u00e1tia","name:right:eu":"Transkarpatiako oblasta","name:right:et":"Taga-Karpaatia","name:left:pl":"Kraj preszowski","name:right:it":"Oblast' di Transcarpazia","name:right:tr":"Zakarpatya Oblast\u0131","name:right:ru":"\u0417\u0430\u043a\u0430\u0440\u043f\u0430\u0442\u0441\u043a\u0430\u044f \u043e\u0431\u043b\u0430\u0441\u0442\u044c","name:right:es":"\u00d3blast de Zakarpatia","name:right:ko":"\uc790\uce74\ub974\ud30c\ud0f8 \uc8fc","name:left:ru":"\u041f\u0440\u0435\u0448\u043e\u0432\u0441\u043a\u0438\u0439 \u043a\u0440\u0430\u0439","name:right:mr":"\u091d\u093e\u0915\u093e\u0930\u092a\u0924\u094d\u0924\u093f\u092f\u093e \u0913\u092c\u094d\u0932\u093e\u0938\u094d\u0924","min_zoom":8.0,"name:right:id":"Oblast Zakarpattia","name:right:eo":"Transkarpata provinco","name:right:en":"Zakarpattia Oblast","name:right:os":"\u0424\u00e6\u0441\u043a\u0430\u0440\u043f\u0430\u0442\u044b \u043e\u0431\u043b\u00e6\u0441\u0442","kind":"region","name":"Pre\u0161ovsk\u00fd kraj - \u0417\u0430\u043a\u0430\u0440\u043f\u0430\u0442\u0441\u044c\u043a\u0430 \u043e\u0431\u043b\u0430\u0441\u0442\u044c","name:right:de":"Oblast Transkarpatien","name:right:mk":"\u0417\u0430\u043a\u0430\u0440\u043f\u0430\u0442\u0441\u043a\u0430 \u043e\u0431\u043b\u0430\u0441\u0442","name:left:de":"Eperieser Landschaftsverband","osm_relation":true,"name:right:be":"\u0417\u0430\u043a\u0430\u0440\u043f\u0430\u0446\u043a\u0430\u044f \u0432\u043e\u0431\u043b\u0430\u0441\u0446\u044c","sort_rank":256,"name:right:bg":"\u0417\u0430\u043a\u0430\u0440\u043f\u0430\u0442\u0441\u043a\u0430 \u043e\u0431\u043b\u0430\u0441\u0442","kind_detail":"4","name:right:bs":"Zakarpatska oblast","name:right:zh":"\u5916\u5580\u723e\u5df4\u9621\u5dde","name:right:ro":"Regiunea Transcarpatia"},"arcs":[9]},{"type":"MultiLineString","properties":{"name:left:uz":"Zakarpatye viloyati","name:left:sk":"Zakarpatsk\u00e1 oblas\u0165","name:left:bs":"Zakarpatska oblast","name:right:uk":"\u041f\u0456\u0432\u043d\u0456\u0447\u043d\u0438\u0439 \u0412\u0435\u043b\u0438\u043a\u0438\u0439 \u0410\u043b\u044c\u0444\u0435\u043b\u044c\u0434","name:left:he":"\u05d6\u05e7\u05e8\u05e4\u05d8\u05d9\u05d4","name:right:hr":"Sjeverni Alf\u00f6ld","name:left:ja":"\u30b6\u30ab\u30eb\u30d1\u30c3\u30c1\u30e3\u5dde","id:right":-22793,"name:left:nn":"Zakarpattja oblast","name:left:no":"Zakarpattja oblast","min_zoom":8.0,"name:left:lt":"U\u017ekarpat\u0117s sritis","name:left:hy":"\u0531\u0576\u0564\u0580\u056f\u0561\u0580\u057a\u0561\u057f\u0575\u0561\u0576 \u0574\u0561\u0580\u0566","name:left:lv":"Aizkarpatu apgabals","name:left:be":"\u0417\u0430\u043a\u0430\u0440\u043f\u0430\u0446\u043a\u0430\u044f \u0432\u043e\u0431\u043b\u0430\u0441\u0446\u044c","name:left:hu":"K\u00e1rp\u00e1talja","id":-72489,"name:left:hr":"Zakarpatska oblast","name:right":"Alf\u00f6ld \u00e9s \u00c9szak","name:left:eo":"Transkarpata provinco","name:left:en":"Zakarpattia Oblast","sort_rank":256,"kind_detail":"4","name:left:ca":"Transcarp\u00e0cia","name:left:la":"Ruthenia Subcarpathanea","source":"openstreetmap.org","name:left:nl":"Oblast Transkarpati\u00eb","id:left":-72489,"name:left:es":"\u00d3blast de Zakarpatia","name:left:os":"\u0424\u00e6\u0441\u043a\u0430\u0440\u043f\u0430\u0442\u044b \u043e\u0431\u043b\u00e6\u0441\u0442","name:left:cs":"Zakarpatsk\u00e1 oblast","name:left":"\u0417\u0430\u043a\u0430\u0440\u043f\u0430\u0442\u0441\u044c\u043a\u0430 \u043e\u0431\u043b\u0430\u0441\u0442\u044c","name:left:sr":"\u0417\u0430\u043a\u0430\u0440\u043f\u0430\u0442\u0441\u043a\u0430 \u043e\u0431\u043b\u0430\u0441\u0442","name:left:sv":"Zakarpatska oblast","name:left:ka":"\u10e2\u10e0\u10d0\u10dc\u10e1\u10d9\u10d0\u10e0\u10de\u10d0\u10e2\u10d8\u10d8\u10e1 \u10dd\u10da\u10e5\u10d8","name:left:ar":"\u0632\u0627\u0643\u0627\u0631\u0628\u0627\u062a\u064a\u0627 \u0623\u0648\u0628\u0644\u0627\u0633\u062a","name:left:pl":"Obw\u00f3d zakarpacki","name:left:ko":"\uc790\uce74\ub974\ud30c\ud0f8 \uc8fc","name:left:id":"Oblast Zakarpattia","name:left:ro":"Regiunea Transcarpatia","name:right:ru":"\u0421\u0435\u0432\u0435\u0440\u043d\u044b\u0439 \u0410\u043b\u044c\u0444\u0451\u043b\u044c\u0434","name:left:pt":"Oblast da Transcarp\u00e1tia","name:left:mr":"\u091d\u093e\u0915\u093e\u0930\u092a\u0924\u094d\u0924\u093f\u092f\u093e \u0913\u092c\u094d\u0932\u093e\u0938\u094d\u0924","name:right:ro":"Marea C\u00e2mpie \u0219i Nordul","name:left:ru":"\u0417\u0430\u043a\u0430\u0440\u043f\u0430\u0442\u0441\u043a\u0430\u044f \u043e\u0431\u043b\u0430\u0441\u0442\u044c","name:left:tr":"Zakarpatya Oblast\u0131","name:left:zh-min-nan":"Zakarpattya s\u00e9ng","name:left:it":"Oblast' di Transcarpazia","name:right:sr":"\u0412\u0435\u043b\u0438\u043a\u0435 \u0440\u0430\u0432\u043d\u0438\u0446\u0435 \u0438 \u0441\u0435\u0432\u0435\u0440\u043d\u0430 \u041c\u0430\u0452\u0430\u0440\u0441\u043a\u0430","name:right:en":"Great Plain and North","osm_relation":true,"kind":"region","name":"\u0417\u0430\u043a\u0430\u0440\u043f\u0430\u0442\u0441\u044c\u043a\u0430 \u043e\u0431\u043b\u0430\u0441\u0442\u044c - Alf\u00f6ld \u00e9s \u00c9szak","name:right:de":"N\u00f6rdliche Gro\u00dfe Tiefebene","name:left:de":"Oblast Transkarpatien","name:left:fi":"Taka-Karpatian alue","name:left:zh":"\u5916\u5580\u723e\u5df4\u9621\u5dde","name:left:fr":"Oblast de Transcarpatie","name:left:eu":"Transkarpatiako oblasta","name:left:et":"Taga-Karpaatia","name:left:mk":"\u0417\u0430\u043a\u0430\u0440\u043f\u0430\u0442\u0441\u043a\u0430 \u043e\u0431\u043b\u0430\u0441\u0442","name:left:bg":"\u0417\u0430\u043a\u0430\u0440\u043f\u0430\u0442\u0441\u043a\u0430 \u043e\u0431\u043b\u0430\u0441\u0442"},"arcs":[[10],[11],[12]]}]},"roads":{"type":"GeometryCollection","geometries":[{"type":"MultiLineString","properties":{"kind":"highway","network":"sk:national","sort_rank":383,"landuse_kind":"urban_area","source":"openstreetmap.org","min_zoom":8.0,"all_networks":["sk:national","e-road"],"kind_detail":"motorway","shield_text":"1","ref":"D1","all_shield_texts":["1","50"]},"arcs":[[30],[31]]},{"type":"LineString","properties":{"kind":"major_road","sort_rank":379,"kind_detail":"secondary","is_bicycle_related":true,"bicycle_shield_text":"41","bicycle_network":"ncn","source":"openstreetmap.org","min_zoom":8.0,"landuse_kind":"nature_reserve","ref":"3821","id":342032874},"arcs":[32]},{"type":"LineString","properties":{"kind":"major_road","sort_rank":379,"kind_detail":"secondary","is_bicycle_related":true,"bicycle_shield_text":"23A","bicycle_network":"ncn","source":"openstreetmap.org","min_zoom":8.0,"landuse_kind":"residential","ref":"3711","id":262867739},"arcs":[33]},{"type":"MultiLineString","properties":{"kind":"major_road","network":"e-road","sort_rank":381,"kind_detail":"trunk","source":"openstreetmap.org","min_zoom":8.0,"shield_text":"573","ref":"\u041c-06"},"arcs":[[34],[35],[36],[37],[38],[39],[40],[41],[42],[43],[44],[45],[46],[47],[48],[49],[50]]},{"type":"MultiLineString","properties":{"bus_network":"regional","network":null,"sort_rank":379,"kind_detail":"secondary","is_bicycle_related":true,"kind":"major_road","bicycle_shield_text":"EV11","bicycle_network":"icn","source":"openstreetmap.org","min_zoom":8.0,"bus_shield_text":"3901\/14","shield_text":"37"},"arcs":[[51],[52]]},{"type":"LineString","properties":{"kind":"minor_road","sort_rank":360,"kind_detail":"residential","is_bicycle_related":true,"bicycle_shield_text":"23A","bicycle_network":"ncn","source":"openstreetmap.org","min_zoom":8.0},"arcs":[53]},{"type":"LineString","properties":{"kind":"major_road","sort_rank":379,"kind_detail":"secondary","is_bicycle_related":true,"bus_network":"regional","bicycle_shield_text":"2A","bicycle_network":"ncn","source":"openstreetmap.org","min_zoom":8.0,"bus_shield_text":"3929\/640","id":505703149},"arcs":[54]},{"type":"LineString","properties":{"kind":"path","sort_rank":354,"kind_detail":"track","is_bicycle_related":true,"bicycle_shield_text":"2E","bicycle_network":"ncn","source":"openstreetmap.org","min_zoom":8.0,"id":187037950},"arcs":[55]},{"type":"MultiLineString","properties":{"kind":"major_road","network":"e-road","sort_rank":381,"landuse_kind":"urban_area","source":"openstreetmap.org","min_zoom":8.0,"kind_detail":"trunk","shield_text":"50","ref":"PR3"},"arcs":[[56],[57],[58],[59],[60],[61]]},{"type":"LineString","properties":{"kind":"major_road","sort_rank":379,"kind_detail":"secondary","is_bicycle_related":true,"bicycle_shield_text":"23A","bicycle_network":"ncn","source":"openstreetmap.org","min_zoom":8.0,"landuse_kind":"urban_area","ref":"3711","id":262867739},"arcs":[62]},{"type":"MultiLineString","properties":{"kind":"path","sort_rank":354,"kind_detail":"cycleway","is_bicycle_related":true,"bicycle_shield_text":"2A","bicycle_network":"ncn","source":"openstreetmap.org","min_zoom":8.0},"arcs":[[63],[64],[65],[66],[67],[68],[69],[70]]},{"type":"LineString","properties":{"bus_network":"regional","sort_rank":379,"kind_detail":"secondary","is_bicycle_related":true,"kind":"major_road","bicycle_shield_text":"EV11","bicycle_network":"icn","source":"openstreetmap.org","min_zoom":8.0,"bus_shield_text":"3901\/14","ref":"3719","id":207131003},"arcs":[71]},{"type":"MultiLineString","properties":{"kind":"major_road","network":"e-road","sort_rank":380,"kind_detail":"primary","source":"openstreetmap.org","min_zoom":8.0,"shield_text":"573","ref":"4"},"arcs":[[72],[73],[74],[75],[76],[77],[78],[79],[80],[81],[82],[83],[84],[85]]},{"type":"LineString","properties":{"kind":"major_road","network":null,"sort_rank":379,"kind_detail":"secondary","is_bicycle_related":true,"bicycle_shield_text":"EV11","bicycle_network":"icn","source":"openstreetmap.org","min_zoom":8.0,"shield_text":"38","ref":"3838","id":103238781},"arcs":[86]},{"type":"MultiLineString","properties":{"kind":"minor_road","sort_rank":360,"kind_detail":"residential","is_bicycle_related":true,"bicycle_shield_text":null,"bicycle_network":"rcn","source":"openstreetmap.org","min_zoom":8.0},"arcs":[[87],[88]]},{"type":"LineString","properties":{"kind":"major_road","sort_rank":379,"kind_detail":"secondary","is_bicycle_related":true,"bicycle_shield_text":"2A","bicycle_network":"ncn","source":"openstreetmap.org","min_zoom":8.0,"ref":"3050"},"arcs":[89]},{"type":"LineString","properties":{"kind":"major_road","network":"e-road","sort_rank":380,"kind_detail":"primary","is_bicycle_related":true,"bicycle_shield_text":"2F","bicycle_network":"ncn","source":"openstreetmap.org","min_zoom":8.0,"landuse_kind":"nature_reserve","shield_text":"573","ref":"4"},"arcs":[90]},{"type":"LineString","properties":{"kind":"path","sort_rank":354,"kind_detail":"path","is_bicycle_related":true,"bicycle_shield_text":"023","bicycle_network":"ncn","source":"openstreetmap.org","min_zoom":8.0,"id":62278903},"arcs":[91]},{"type":"MultiLineString","properties":{"kind":"minor_road","sort_rank":360,"kind_detail":"residential","is_bicycle_related":true,"bicycle_shield_text":"023","bicycle_network":"ncn","source":"openstreetmap.org","min_zoom":8.0},"arcs":[[92],[93]]},{"type":"LineString","properties":{"bus_network":"regional","sort_rank":379,"kind_detail":"secondary","is_bicycle_related":true,"kind":"major_road","bicycle_shield_text":"2A","bicycle_network":"ncn","source":"openstreetmap.org","min_zoom":8.0,"bus_shield_text":"3901\/14","ref":"3719"},"arcs":[94]},{"type":"MultiLineString","properties":{"kind":"minor_road","sort_rank":360,"kind_detail":"residential","is_bicycle_related":true,"bicycle_shield_text":"017","bicycle_network":"ncn","source":"openstreetmap.org","min_zoom":8.0},"arcs":[[95],[96]]},{"type":"MultiLineString","properties":{"kind":"major_road","network":"ro:regional","sort_rank":380,"kind_detail":"primary","source":"openstreetmap.org","min_zoom":8.0,"shield_text":"3","ref":"3"},"arcs":[[97],[98]]},{"type":"LineString","properties":{"kind":"minor_road","sort_rank":360,"kind_detail":"residential","is_bicycle_related":true,"bicycle_shield_text":"2G","bicycle_network":"ncn","source":"openstreetmap.org","min_zoom":8.0,"id":155730730},"arcs":[99]},{"type":"LineString","properties":{"kind":"major_road","sort_rank":379,"kind_detail":"secondary","is_bicycle_related":true,"bicycle_shield_text":"2A","bicycle_network":"ncn","source":"openstreetmap.org","min_zoom":8.0,"ref":"4115"},"arcs":[100]},{"type":"LineString","properties":{"kind":"major_road","sort_rank":380,"kind_detail":"primary","source":"openstreetmap.org","min_zoom":8.0,"old_name":"V\u00f6r\u00f6s Hadsereg utca","ref":"39","id":435315871},"arcs":[101]},{"type":"LineString","properties":{"bus_network":null,"sort_rank":379,"landuse_kind":"residential","is_bicycle_related":true,"kind":"major_road","bicycle_shield_text":"41","bicycle_network":"ncn","source":"openstreetmap.org","min_zoom":8.0,"bus_shield_text":"14F","kind_detail":"secondary","ref":"3834"},"arcs":[102]},{"type":"LineString","properties":{"kind":"path","sort_rank":354,"landuse_kind":"urban_area","is_bicycle_related":true,"bicycle_shield_text":"EV11","bicycle_network":"icn","source":"openstreetmap.org","min_zoom":8.0,"kind_detail":"cycleway"},"arcs":[103]},{"type":"LineString","properties":{"kind":"major_road","name:en":"Svobody Street","network":"e-road","sort_rank":381,"kind_detail":"trunk","source":"openstreetmap.org","min_zoom":8.0,"shield_text":"573","name:ru":"\u0421\u0432\u043e\u0431\u043e\u0434\u044b \u0443\u043b\u0438\u0446\u0430","ref":"\u041c-06","id":229021017},"arcs":[104]},{"type":"LineString","properties":{"kind":"major_road","network":"ua:international","sort_rank":381,"kind_detail":"trunk","source":"openstreetmap.org","min_zoom":8.0,"landuse_kind":"urban_area","shield_text":"25","name:ru":"\u0410\u043b\u0432\u0435\u0433 \u0443\u043b\u0438\u0446\u0430","name:hu":"Alv\u00e9g \u00fat","ref":"\u041c-25","id":263736878},"arcs":[105]},{"type":"LineString","properties":{"kind":"major_road","sort_rank":379,"kind_detail":"secondary","is_bicycle_related":true,"bicycle_shield_text":"023","bicycle_network":"ncn","source":"openstreetmap.org","min_zoom":8.0,"ref":"552"},"arcs":[106]},{"type":"LineString","properties":{"kind":"major_road","name:en":"Narodna Square","network":"ua:national","sort_rank":380,"kind_detail":"primary","source":"openstreetmap.org","min_zoom":8.0,"shield_text":"13","name:ru":"\u041d\u0430\u0440\u043e\u0434\u043d\u0430\u044f \u043f\u043b\u043e\u0449\u0430\u0434\u044c","ref":"\u041d-13","id":166368786},"arcs":[107]},{"type":"LineString","properties":{"bus_network":"regional","sort_rank":377,"kind_detail":"tertiary","is_bicycle_related":true,"kind":"major_road","bicycle_network":"ncn","source":"openstreetmap.org","min_zoom":8.0,"bus_shield_text":"3903\/119","ref":"37126"},"arcs":[108]},{"type":"MultiLineString","properties":{"source":"openstreetmap.org","kind":"major_road","landuse_kind":"residential","sort_rank":380,"kind_detail":"primary","ref":"79","min_zoom":8.0},"arcs":[[109],[110]]},{"type":"MultiLineString","properties":{"sort_rank":380,"kind_detail":"primary","min_zoom":8.0,"kind":"major_road","source":"openstreetmap.org"},"arcs":[[111],[112],[113],[114],[115],[116],[117],[118],[119],[120],[121],[122],[123],[124]]},{"type":"MultiLineString","properties":{"source":"openstreetmap.org","kind":"major_road","landuse_kind":"urban_area","sort_rank":380,"kind_detail":"primary","ref":"19","min_zoom":8.0},"arcs":[[125],[126],[127]]},{"type":"LineString","properties":{"kind":"major_road","sort_rank":377,"kind_detail":"tertiary","is_bicycle_related":true,"bicycle_shield_text":"2A","bicycle_network":"ncn","source":"openstreetmap.org","min_zoom":8.0,"landuse_kind":"nature_reserve","ref":"38308","id":35539217},"arcs":[128]},{"type":"LineString","properties":{"kind":"major_road","sort_rank":377,"kind_detail":"tertiary","is_bicycle_related":true,"bicycle_shield_text":"EV11","bicycle_network":"icn","source":"openstreetmap.org","min_zoom":8.0,"landuse_kind":"nature_reserve","ref":"36314","id":109396653},"arcs":[129]},{"type":"LineString","properties":{"kind":"major_road","sort_rank":377,"kind_detail":"tertiary","is_bicycle_related":true,"bicycle_shield_text":"017","bicycle_network":"ncn","source":"openstreetmap.org","min_zoom":8.0,"landuse_kind":"park","ref":"3669"},"arcs":[130]},{"type":"MultiLineString","properties":{"kind":"major_road","network":"e-road","sort_rank":380,"kind_detail":"primary","source":"openstreetmap.org","min_zoom":8.0,"shield_text":"71","ref":"17"},"arcs":[[131],[132]]},{"type":"MultiLineString","properties":{"source":"openstreetmap.org","kind":"major_road","sort_rank":380,"kind_detail":"primary","ref":"41","min_zoom":8.0},"arcs":[[133],[134],[135]]},{"type":"MultiLineString","properties":{"kind":"path","sort_rank":354,"landuse_kind":"nature_reserve","is_bicycle_related":true,"bicycle_shield_text":"2A","bicycle_network":"ncn","source":"openstreetmap.org","min_zoom":8.0,"kind_detail":"cycleway"},"arcs":[[136],[137],[138],[139],[140],[141],[142],[143],[144]]},{"type":"LineString","properties":{"kind":"major_road","network":"e-road","sort_rank":380,"kind_detail":"primary","source":"openstreetmap.org","min_zoom":8.0,"landuse_kind":"residential","shield_text":"50","ref":"19"},"arcs":[145]},{"type":"LineString","properties":{"kind":"major_road","sort_rank":379,"kind_detail":"secondary","is_bicycle_related":true,"bicycle_shield_text":"23A","bicycle_network":"ncn","source":"openstreetmap.org","min_zoom":8.0,"ref":"3713"},"arcs":[146]},{"type":"LineString","properties":{"kind":"major_road","network":"e-road","sort_rank":380,"kind_detail":"primary","is_bicycle_related":true,"bicycle_shield_text":"2F","bicycle_network":"ncn","source":"openstreetmap.org","min_zoom":8.0,"landuse_kind":"urban_area","shield_text":"573","ref":"4"},"arcs":[147]},{"type":"MultiLineString","properties":{"bus_network":"MHD Michalovce","sort_rank":380,"kind_detail":"primary","kind":"major_road","source":"openstreetmap.org","min_zoom":8.0,"bus_shield_text":"2","landuse_kind":"urban_area","ref":"18"},"arcs":[[148],[149]]},{"type":"LineString","properties":{"kind":"major_road","sort_rank":379,"kind_detail":"secondary","is_bicycle_related":true,"bicycle_shield_text":"EV11","bicycle_network":"icn","source":"openstreetmap.org","min_zoom":8.0,"landuse_kind":"nature_reserve","ref":"3621","id":109396657},"arcs":[150]},{"type":"LineString","properties":{"kind":"major_road","sort_rank":379,"kind_detail":"secondary","is_bicycle_related":true,"bicycle_shield_text":"EV11","bicycle_network":"icn","source":"openstreetmap.org","min_zoom":8.0,"ref":"3801"},"arcs":[151]},{"type":"MultiLineString","properties":{"kind":"minor_road","sort_rank":360,"kind_detail":"residential","is_bicycle_related":true,"bicycle_shield_text":"EV11","bicycle_network":"icn","source":"openstreetmap.org","min_zoom":8.0},"arcs":[[152],[153],[154],[155],[156],[157],[158],[159],[160],[161],[162],[163],[164]]},{"type":"MultiLineString","properties":{"bus_network":"MHD Ko\u0161ice","sort_rank":381,"landuse_kind":"urban_area","kind":"major_road","source":"openstreetmap.org","min_zoom":8.0,"bus_shield_text":"10","kind_detail":"trunk"},"arcs":[[165],[166],[167],[168]]},{"type":"LineString","properties":{"kind":"major_road","network":"e-road","sort_rank":380,"kind_detail":"primary","is_bicycle_related":true,"bicycle_shield_text":"2A","bicycle_network":"ncn","source":"openstreetmap.org","min_zoom":8.0,"landuse_kind":"nature_reserve","shield_text":"579","ref":"41"},"arcs":[169]},{"type":"MultiLineString","properties":{"source":"openstreetmap.org","kind":"major_road","sort_rank":380,"kind_detail":"primary","ref":"381","min_zoom":8.0},"arcs":[[170],[171],[172],[173],[174]]},{"type":"LineString","properties":{"kind":"major_road","sort_rank":379,"kind_detail":"secondary","is_bicycle_related":true,"bicycle_shield_text":"2A","bicycle_network":"ncn","source":"openstreetmap.org","min_zoom":8.0,"landuse_kind":"nature_reserve"},"arcs":[175]},{"type":"LineString","properties":{"kind":"major_road","network":null,"sort_rank":379,"kind_detail":"secondary","is_bicycle_related":true,"bicycle_shield_text":"EV11","bicycle_network":"icn","source":"openstreetmap.org","min_zoom":8.0,"shield_text":"37","id":432797233},"arcs":[176]},{"type":"LineString","properties":{"kind":"major_road","sort_rank":377,"kind_detail":"tertiary","is_bicycle_related":true,"bicycle_shield_text":"017","bicycle_network":"ncn","source":"openstreetmap.org","min_zoom":8.0,"ref":"3680"},"arcs":[177]},{"type":"LineString","properties":{"kind":"major_road","name:en":"Shtefanyka Street","network":"ua:national","sort_rank":380,"kind_detail":"primary","is_bicycle_related":true,"source":"openstreetmap.org","min_zoom":8.0,"shield_text":"13","name:ru":"\u0428\u0442\u0435\u0444\u0430\u043d\u0438\u043a\u0430 \u0443\u043b\u0438\u0446\u0430","ref":"\u041d-13"},"arcs":[178]},{"type":"MultiLineString","properties":{"kind":"major_road","network":"ua:international","sort_rank":381,"landuse_kind":"urban_area","source":"openstreetmap.org","min_zoom":8.0,"kind_detail":"trunk","shield_text":"25","ref":"\u041c-25"},"arcs":[[179],[180],[181]]},{"type":"LineString","properties":{"kind":"major_road","sort_rank":379,"kind_detail":"secondary","is_bicycle_related":true,"bicycle_shield_text":"2A","bicycle_network":"ncn","source":"openstreetmap.org","min_zoom":8.0,"ref":"2627"},"arcs":[182]},{"type":"MultiLineString","properties":{"kind":"minor_road","sort_rank":358,"kind_detail":"service","is_bicycle_related":true,"bicycle_shield_text":"023","bicycle_network":"ncn","source":"openstreetmap.org","min_zoom":8.0},"arcs":[[183],[184],[185]]},{"type":"MultiLineString","properties":{"kind":"major_road","sort_rank":377,"kind_detail":"tertiary","is_bicycle_related":true,"bicycle_shield_text":"EV11","bicycle_network":"icn","source":"openstreetmap.org","min_zoom":8.0,"ref":"3416"},"arcs":[[186],[187]]},{"type":"MultiLineString","properties":{"source":"openstreetmap.org","kind":"major_road","landuse_kind":"residential","sort_rank":380,"kind_detail":"primary","ref":"18","min_zoom":8.0},"arcs":[[188],[189],[190]]},{"type":"LineString","properties":{"kind":"major_road","network":"ua:national","sort_rank":380,"kind_detail":"primary","is_bicycle_related":true,"source":"openstreetmap.org","min_zoom":8.0,"landuse_kind":"national_park","shield_text":"13","ref":"\u041d-13"},"arcs":[191]},{"type":"LineString","properties":{"bus_network":"regional","sort_rank":379,"kind_detail":"secondary","is_bicycle_related":true,"kind":"major_road","bicycle_shield_text":"EV11","bicycle_network":"icn","source":"openstreetmap.org","min_zoom":8.0,"bus_shield_text":"3929\/641","ref":"3708"},"arcs":[192]},{"type":"LineString","properties":{"kind":"major_road","sort_rank":379,"kind_detail":"secondary","is_bicycle_related":true,"bicycle_shield_text":null,"bicycle_network":"ncn","source":"openstreetmap.org","min_zoom":8.0,"ref":"576"},"arcs":[193]},{"type":"LineString","properties":{"bus_network":"regional","sort_rank":377,"kind_detail":"tertiary","is_bicycle_related":true,"kind":"major_road","bicycle_shield_text":"EV11","bicycle_network":"icn","source":"openstreetmap.org","min_zoom":8.0,"bus_shield_text":"3901\/28","ref":"37125"},"arcs":[194]},{"type":"LineString","properties":{"kind":"major_road","sort_rank":377,"kind_detail":"tertiary","is_bicycle_related":true,"bicycle_shield_text":"017","bicycle_network":"ncn","source":"openstreetmap.org","min_zoom":8.0,"ref":"3681","id":203407735},"arcs":[195]},{"type":"LineString","properties":{"kind":"major_road","sort_rank":380,"kind_detail":"primary","is_bicycle_related":true,"bicycle_shield_text":"R","bicycle_network":"rcn","source":"openstreetmap.org","min_zoom":8.0,"ref":"79"},"arcs":[196]},{"type":"LineString","properties":{"bus_network":"regional","sort_rank":377,"kind_detail":"tertiary","is_bicycle_related":true,"kind":"major_road","bicycle_network":"ncn","source":"openstreetmap.org","min_zoom":8.0,"bus_shield_text":"3901\/28","ref":"37125"},"arcs":[197]},{"type":"MultiLineString","properties":{"kind":"minor_road","sort_rank":360,"kind_detail":"unclassified","is_bicycle_related":true,"bicycle_shield_text":"2E","bicycle_network":"ncn","source":"openstreetmap.org","min_zoom":8.0},"arcs":[[198],[199]]},{"type":"LineString","properties":{"kind":"major_road","sort_rank":379,"kind_detail":"secondary","is_bicycle_related":true,"bus_network":null,"bicycle_shield_text":"41","cycleway":"lane","source":"openstreetmap.org","min_zoom":8.0,"bus_shield_text":"8","landuse_kind":"urban_area","id":145982017,"bicycle_network":"ncn"},"arcs":[200]},{"type":"MultiLineString","properties":{"source":"openstreetmap.org","kind":"major_road","landuse_kind":"urban_area","sort_rank":380,"kind_detail":"primary","ref":"79","min_zoom":8.0},"arcs":[[201],[202],[203],[204]]},{"type":"MultiLineString","properties":{"source":"openstreetmap.org","kind":"major_road","sort_rank":380,"kind_detail":"primary","ref":"4","min_zoom":8.0},"arcs":[[205],[206],[207],[208],[209]]},{"type":"LineString","properties":{"kind":"major_road","sort_rank":377,"kind_detail":"tertiary","is_bicycle_related":true,"bicycle_shield_text":"2A","bicycle_network":"ncn","source":"openstreetmap.org","min_zoom":8.0,"ref":"38308"},"arcs":[210]},{"type":"LineString","properties":{"kind":"major_road","network":"e-road","sort_rank":381,"kind_detail":"trunk","source":"openstreetmap.org","min_zoom":8.0,"landuse_kind":"nature_reserve","shield_text":"573","ref":"\u041c-06"},"arcs":[211]},{"type":"MultiLineString","properties":{"kind":"major_road","sort_rank":380,"kind_detail":"primary","is_bicycle_related":true,"bicycle_shield_text":"EV11","bicycle_network":"icn","source":"openstreetmap.org","min_zoom":8.0,"ref":"38"},"arcs":[[212],[213]]},{"type":"MultiLineString","properties":{"kind":"major_road","sort_rank":380,"kind_detail":"primary","is_bicycle_related":true,"bicycle_shield_text":"2A","bicycle_network":"ncn","source":"openstreetmap.org","min_zoom":8.0,"ref":"381"},"arcs":[[214],[215],[216],[217]]},{"type":"LineString","properties":{"kind":"minor_road","sort_rank":360,"kind_detail":"residential","is_bicycle_related":true,"bicycle_shield_text":"2E","bicycle_network":"ncn","source":"openstreetmap.org","min_zoom":8.0,"id":156943772},"arcs":[218]},{"type":"LineString","properties":{"kind":"major_road","network":"e-road","sort_rank":380,"kind_detail":"primary","source":"openstreetmap.org","min_zoom":8.0,"landuse_kind":"urban_area","shield_text":"579","ref":"41"},"arcs":[219]},{"type":"MultiLineString","properties":{"source":"openstreetmap.org","kind":"major_road","landuse_kind":"residential","sort_rank":380,"kind_detail":"primary","ref":"37","min_zoom":8.0},"arcs":[[220],[221]]},{"type":"LineString","properties":{"kind":"major_road","sort_rank":377,"kind_detail":"tertiary","is_bicycle_related":true,"bicycle_shield_text":"23A","bicycle_network":"ncn","source":"openstreetmap.org","min_zoom":8.0,"ref":"3711"},"arcs":[222]},{"type":"LineString","properties":{"source":"openstreetmap.org","kind":"minor_road","sort_rank":358,"kind_detail":"service","is_bicycle_related":true,"min_zoom":8.0,"bicycle_network":"ncn"},"arcs":[223]},{"type":"LineString","properties":{"kind":"major_road","sort_rank":377,"kind_detail":"tertiary","is_bicycle_related":true,"bicycle_shield_text":null,"bicycle_network":"ncn","source":"openstreetmap.org","min_zoom":8.0,"ref":"3440"},"arcs":[224]},{"type":"LineString","properties":{"kind":"major_road","sort_rank":379,"kind_detail":"secondary","is_bicycle_related":true,"bicycle_shield_text":"016","bicycle_network":"ncn","source":"openstreetmap.org","min_zoom":8.0,"ref":"566"},"arcs":[225]},{"type":"MultiLineString","properties":{"kind":"major_road","sort_rank":379,"kind_detail":"secondary","is_bicycle_related":true,"bicycle_shield_text":"41","bicycle_network":"ncn","source":"openstreetmap.org","min_zoom":8.0,"ref":"3834"},"arcs":[[226],[227]]},{"type":"MultiLineString","properties":{"kind":"minor_road","sort_rank":360,"kind_detail":"residential","is_bicycle_related":true,"bicycle_shield_text":"2A","bicycle_network":"ncn","source":"openstreetmap.org","min_zoom":8.0},"arcs":[[228],[229],[230],[231],[232]]},{"type":"LineString","properties":{"source":"openstreetmap.org","kind":"major_road","landuse_kind":"urban_area","sort_rank":380,"kind_detail":"primary","ref":"20","min_zoom":8.0},"arcs":[233]},{"type":"LineString","properties":{"kind":"major_road","sort_rank":379,"kind_detail":"secondary","is_bicycle_related":true,"bicycle_shield_text":"23A","bicycle_network":"ncn","source":"openstreetmap.org","min_zoom":8.0,"ref":"3711"},"arcs":[234]},{"type":"LineString","properties":{"bus_network":"MHD Ko\u0161ice","network":"e-road","sort_rank":381,"landuse_kind":"urban_area","kind":"major_road","source":"openstreetmap.org","min_zoom":8.0,"bus_shield_text":"52","shield_text":"58","kind_detail":"trunk","ref":"R2"},"arcs":[235]},{"type":"MultiLineString","properties":{"kind":"major_road","sort_rank":379,"kind_detail":"secondary","is_bicycle_related":true,"bicycle_shield_text":"2A","bicycle_network":"ncn","source":"openstreetmap.org","min_zoom":8.0,"ref":"4113"},"arcs":[[236],[237]]},{"type":"LineString","properties":{"kind":"path","sort_rank":354,"kind_detail":"track","is_bicycle_related":true,"bicycle_shield_text":"2G","bicycle_network":"ncn","source":"openstreetmap.org","min_zoom":8.0,"id":160735347},"arcs":[238]},{"type":"LineString","properties":{"bus_network":"MHD Ko\u0161ice","network":"e-road","sort_rank":380,"kind_detail":"primary","kind":"major_road","source":"openstreetmap.org","min_zoom":8.0,"bus_shield_text":"52","shield_text":"58","landuse_kind":"urban_area","ref":"16"},"arcs":[239]},{"type":"MultiLineString","properties":{"kind":"major_road","network":"e-road","sort_rank":381,"landuse_kind":"urban_area","source":"openstreetmap.org","min_zoom":8.0,"kind_detail":"trunk","shield_text":"573","ref":"\u041c-06"},"arcs":[[240],[241],[242],[243],[244],[245]]},{"type":"LineString","properties":{"kind":"major_road","network":null,"sort_rank":380,"kind_detail":"primary","source":"openstreetmap.org","min_zoom":8.0,"shield_text":"41","ref":"41"},"arcs":[246]},{"type":"MultiLineString","properties":{"kind":"major_road","network":"e-road","sort_rank":381,"landuse_kind":"urban_area","source":"openstreetmap.org","min_zoom":8.0,"kind_detail":"trunk","shield_text":"50","ref":"\u041c-08"},"arcs":[[247],[248]]},{"type":"LineString","properties":{"kind":"major_road","network":"ua:international","sort_rank":381,"kind_detail":"trunk","source":"openstreetmap.org","min_zoom":8.0,"shield_text":"25","name:ru":"\u0410\u043b\u0432\u0435\u0433 \u0443\u043b\u0438\u0446\u0430","name:hu":"Alv\u00e9g \u00fat","ref":"\u041c-25","id":263736878},"arcs":[249]},{"type":"LineString","properties":{"kind":"major_road","network":"e-road","sort_rank":381,"kind_detail":"trunk","source":"openstreetmap.org","min_zoom":8.0,"landuse_kind":"urban_area","shield_text":"50","id":76593130},"arcs":[250]},{"type":"MultiLineString","properties":{"bus_network":"MHD Ko\u0161ice","sort_rank":381,"landuse_kind":"urban_area","kind":"major_road","source":"openstreetmap.org","min_zoom":8.0,"bus_shield_text":"23","kind_detail":"trunk"},"arcs":[[251],[252]]},{"type":"LineString","properties":{"kind":"major_road","sort_rank":377,"kind_detail":"tertiary","is_bicycle_related":true,"bus_network":"regional","bicycle_network":"ncn","source":"openstreetmap.org","min_zoom":8.0,"bus_shield_text":"3903\/119","ref":"37122","id":217479565},"arcs":[253]},{"type":"MultiLineString","properties":{"kind":"highway","network":"sk:national","sort_rank":383,"kind_detail":"motorway","source":"openstreetmap.org","min_zoom":8.0,"all_networks":["sk:national","e-road"],"shield_text":"1","ref":"D1","all_shield_texts":["1","50"]},"arcs":[[254],[255],[256],[257],[258],[259],[260],[261],[262],[263]]},{"type":"MultiLineString","properties":{"kind":"major_road","network":"e-road","sort_rank":380,"kind_detail":"primary","source":"openstreetmap.org","min_zoom":8.0,"shield_text":"579","ref":"41"},"arcs":[[264],[265],[266],[267],[268],[269],[270],[271],[272],[273],[274],[275],[276],[277],[278],[279],[280]]},{"type":"LineString","properties":{"kind":"path","sort_rank":354,"kind_detail":"cycleway","is_bicycle_related":true,"bicycle_shield_text":"2A","bicycle_network":"ncn","source":"openstreetmap.org","min_zoom":8.0,"landuse_kind":"urban_area","id":194525800},"arcs":[281]},{"type":"LineString","properties":{"bus_network":"SAD","sort_rank":377,"kind_detail":"tertiary","is_bicycle_related":true,"kind":"major_road","bicycle_shield_text":"017","bicycle_network":"ncn","source":"openstreetmap.org","min_zoom":8.0,"bus_shield_text":null,"ref":"3374"},"arcs":[282]},{"type":"LineString","properties":{"kind":"major_road","network":"e-road","sort_rank":380,"kind_detail":"primary","source":"openstreetmap.org","min_zoom":8.0,"shield_text":"573","id":522387342},"arcs":[283]},{"type":"MultiLineString","properties":{"kind":"major_road","network":null,"sort_rank":380,"kind_detail":"primary","source":"openstreetmap.org","min_zoom":8.0,"landuse_kind":"residential","shield_text":"37","ref":"37"},"arcs":[[284],[285],[286],[287],[288],[289],[290],[291],[292],[293],[294]]},{"type":"MultiLineString","properties":{"bus_network":"MHD Michalovce","network":"e-road","sort_rank":380,"kind_detail":"primary","kind":"major_road","source":"openstreetmap.org","min_zoom":8.0,"bus_shield_text":"1","shield_text":"50","ref":"19"},"arcs":[[295],[296]]},{"type":"MultiLineString","properties":{"source":"openstreetmap.org","kind":"minor_road","sort_rank":360,"kind_detail":"residential","is_bicycle_related":true,"min_zoom":8.0,"bicycle_network":"ncn"},"arcs":[[297],[298]]},{"type":"MultiLineString","properties":{"kind":"major_road","network":"ua:international","sort_rank":381,"kind_detail":"trunk","source":"openstreetmap.org","min_zoom":8.0,"shield_text":"25","ref":"\u041c-25"},"arcs":[[299],[300],[301],[302],[303],[304],[305],[306]]},{"type":"LineString","properties":{"kind":"major_road","network":"ua:international","sort_rank":381,"kind_detail":"trunk","source":"openstreetmap.org","min_zoom":8.0,"shield_text":"25","name:ru":"\u041c\u0430\u043b\u043e\u0434\u043e\u0431\u0440\u043e\u043d\u0441\u043a\u0430\u044f \u0443\u043b\u0438\u0446\u0430","name:hu":"Kisdobrony \u00fat","ref":"\u041c-25","id":263736876},"arcs":[307]},{"type":"MultiLineString","properties":{"source":"openstreetmap.org","kind":"path","sort_rank":354,"kind_detail":"path","is_bicycle_related":true,"min_zoom":8.0,"bicycle_network":"ncn"},"arcs":[[308],[309],[310],[311],[312],[313]]},{"type":"LineString","properties":{"kind":"path","sort_rank":354,"kind_detail":"track","is_bicycle_related":true,"bicycle_shield_text":"016","bicycle_network":"ncn","source":"openstreetmap.org","min_zoom":8.0,"landuse_kind":"park"},"arcs":[314]},{"type":"MultiLineString","properties":{"bus_network":"MHD Ko\u0161ice","network":"e-road","sort_rank":380,"kind_detail":"primary","kind":"major_road","source":"openstreetmap.org","min_zoom":8.0,"bus_shield_text":"24","shield_text":"71","landuse_kind":"urban_area","ref":"17"},"arcs":[[315],[316]]},{"type":"MultiLineString","properties":{"kind":"minor_road","sort_rank":360,"kind_detail":"unclassified","is_bicycle_related":true,"bicycle_shield_text":"EV11","bicycle_network":"icn","source":"openstreetmap.org","min_zoom":8.0},"arcs":[[317],[318],[319],[320]]},{"type":"MultiLineString","properties":{"source":"openstreetmap.org","kind":"major_road","sort_rank":381,"kind_detail":"trunk","ref":"R4","min_zoom":8.0},"arcs":[[321],[322]]},{"type":"LineString","properties":{"kind":"major_road","sort_rank":377,"kind_detail":"tertiary","is_bicycle_related":true,"bicycle_shield_text":null,"bicycle_network":"ncn","source":"openstreetmap.org","min_zoom":8.0,"ref":"3290"},"arcs":[323]},{"type":"MultiLineString","properties":{"kind":"major_road","sort_rank":377,"kind_detail":"tertiary","is_bicycle_related":true,"bicycle_shield_text":"EV11","bicycle_network":"icn","source":"openstreetmap.org","min_zoom":8.0,"ref":"3368"},"arcs":[[324],[325]]},{"type":"MultiLineString","properties":{"kind":"major_road","sort_rank":380,"kind_detail":"primary","is_bicycle_related":true,"bicycle_shield_text":"016","bicycle_network":"ncn","source":"openstreetmap.org","min_zoom":8.0,"ref":"74"},"arcs":[[326],[327],[328]]},{"type":"LineString","properties":{"kind":"major_road","network":null,"sort_rank":379,"kind_detail":"secondary","is_bicycle_related":true,"bicycle_shield_text":"EV11","cycleway":"lane","source":"openstreetmap.org","min_zoom":8.0,"shield_text":"37","bicycle_network":"icn"},"arcs":[329]},{"type":"LineString","properties":{"kind":"major_road","sort_rank":377,"kind_detail":"tertiary","is_bicycle_related":true,"bicycle_shield_text":"017","bicycle_network":"ncn","source":"openstreetmap.org","min_zoom":8.0,"ref":"3667"},"arcs":[330]},{"type":"LineString","properties":{"kind":"major_road","sort_rank":377,"kind_detail":"tertiary","is_bicycle_related":true,"bicycle_shield_text":"018","bicycle_network":"ncn","source":"openstreetmap.org","min_zoom":8.0,"ref":"3440"},"arcs":[331]},{"type":"MultiLineString","properties":{"kind":"major_road","network":"e-road","sort_rank":380,"kind_detail":"primary","source":"openstreetmap.org","min_zoom":8.0,"shield_text":"50","ref":"19"},"arcs":[[332],[333],[334],[335],[336],[337]]},{"type":"LineString","properties":{"kind":"major_road","network":"ua:international","sort_rank":381,"kind_detail":"trunk","source":"openstreetmap.org","min_zoom":8.0,"shield_text":"24","ref":"\u041c-24"},"arcs":[338]},{"type":"LineString","properties":{"bus_network":null,"sort_rank":379,"kind_detail":"secondary","is_bicycle_related":true,"kind":"major_road","bicycle_shield_text":"23A","bicycle_network":"ncn","source":"openstreetmap.org","min_zoom":8.0,"bus_shield_text":"3730","ref":"3702"},"arcs":[339]},{"type":"LineString","properties":{"kind":"minor_road","sort_rank":360,"kind_detail":"unclassified","is_bicycle_related":true,"bicycle_shield_text":"017","bicycle_network":"ncn","source":"openstreetmap.org","min_zoom":8.0},"arcs":[340]},{"type":"MultiLineString","properties":{"kind":"major_road","sort_rank":380,"kind_detail":"primary","is_bicycle_related":true,"bicycle_shield_text":"017","bicycle_network":"ncn","source":"openstreetmap.org","min_zoom":8.0,"ref":"79"},"arcs":[[341],[342]]},{"type":"LineString","properties":{"kind":"major_road","sort_rank":379,"kind_detail":"secondary","is_bicycle_related":true,"bicycle_shield_text":"41","bicycle_network":"ncn","source":"openstreetmap.org","min_zoom":8.0,"landuse_kind":"urban_area"},"arcs":[343]},{"type":"LineString","properties":{"source":"openstreetmap.org","kind":"major_road","landuse_kind":"urban_area","sort_rank":380,"kind_detail":"primary","ref":"381","min_zoom":8.0},"arcs":[344]},{"type":"MultiLineString","properties":{"source":"openstreetmap.org","kind":"major_road","landuse_kind":"park","sort_rank":380,"kind_detail":"primary","ref":"79","min_zoom":8.0},"arcs":[[345],[346],[347],[348]]},{"type":"MultiLineString","properties":{"source":"openstreetmap.org","kind":"major_road","sort_rank":380,"kind_detail":"primary","ref":"38","min_zoom":8.0},"arcs":[[349],[350]]},{"type":"LineString","properties":{"bus_network":"MHD Ko\u0161ice","sort_rank":381,"landuse_kind":"urban_area","kind":"major_road","source":"openstreetmap.org","min_zoom":8.0,"bus_shield_text":"RA5","kind_detail":"trunk","ref":"PR3"},"arcs":[351]},{"type":"MultiLineString","properties":{"kind":"major_road","sort_rank":377,"kind_detail":"tertiary","is_bicycle_related":true,"bicycle_shield_text":"017","bicycle_network":"ncn","source":"openstreetmap.org","min_zoom":8.0,"ref":"3374"},"arcs":[[352],[353]]},{"type":"MultiLineString","properties":{"kind":"major_road","sort_rank":379,"landuse_kind":"residential","is_bicycle_related":true,"bicycle_shield_text":"41","bicycle_network":"ncn","source":"openstreetmap.org","min_zoom":8.0,"kind_detail":"secondary","ref":"3834"},"arcs":[[354],[355],[356]]},{"type":"MultiLineString","properties":{"kind":"highway","network":"e-road","sort_rank":383,"kind_detail":"motorway","source":"openstreetmap.org","min_zoom":8.0,"all_networks":["e-road",null],"shield_text":"579","ref":"M3","all_shield_texts":["579","3"]},"arcs":[[357],[358]]},{"type":"LineString","properties":{"kind":"major_road","network":null,"sort_rank":380,"kind_detail":"primary","is_bicycle_related":true,"bicycle_shield_text":"41","bicycle_network":"ncn","source":"openstreetmap.org","min_zoom":8.0,"landuse_kind":"nature_reserve","shield_text":"38","ref":"38"},"arcs":[359]},{"type":"MultiLineString","properties":{"source":"openstreetmap.org","kind":"major_road","sort_rank":380,"kind_detail":"primary","ref":"37","min_zoom":8.0},"arcs":[[360],[361],[362],[363]]},{"type":"MultiLineString","properties":{"kind":"major_road","sort_rank":377,"landuse_kind":"urban_area","is_bicycle_related":true,"bicycle_shield_text":"2A","bicycle_network":"ncn","source":"openstreetmap.org","min_zoom":8.0,"kind_detail":"tertiary"},"arcs":[[364],[365],[366]]},{"type":"LineString","properties":{"bus_network":"regional","sort_rank":377,"kind_detail":"tertiary","is_bicycle_related":true,"kind":"major_road","bicycle_shield_text":"2E","bicycle_network":"ncn","source":"openstreetmap.org","min_zoom":8.0,"bus_shield_text":"3929\/650","ref":"3719","id":156941396},"arcs":[367]},{"type":"MultiLineString","properties":{"kind":"minor_road","sort_rank":360,"landuse_kind":"nature_reserve","is_bicycle_related":true,"bicycle_shield_text":"2A","bicycle_network":"ncn","source":"openstreetmap.org","min_zoom":8.0,"kind_detail":"unclassified"},"arcs":[[368],[369],[370]]},{"type":"MultiLineString","properties":{"kind":"major_road","sort_rank":379,"kind_detail":"secondary","is_bicycle_related":true,"bicycle_shield_text":"2A","bicycle_network":"ncn","source":"openstreetmap.org","min_zoom":8.0},"arcs":[[371],[372],[373]]},{"type":"LineString","properties":{"kind":"major_road","network":null,"sort_rank":380,"kind_detail":"primary","is_bicycle_related":true,"bicycle_shield_text":"41","bicycle_network":"ncn","source":"openstreetmap.org","min_zoom":8.0,"shield_text":"37","ref":"37"},"arcs":[374]},{"type":"LineString","properties":{"kind":"major_road","sort_rank":377,"kind_detail":"tertiary","is_bicycle_related":true,"bicycle_shield_text":"017","bicycle_network":"ncn","source":"openstreetmap.org","min_zoom":8.0,"ref":"3669","id":125610168},"arcs":[375]},{"type":"LineString","properties":{"kind":"major_road","network":"e-road","sort_rank":381,"kind_detail":"trunk","source":"openstreetmap.org","min_zoom":8.0,"landuse_kind":"urban_area","shield_text":"573","ref":"M-06","id":51947138},"arcs":[376]},{"type":"MultiLineString","properties":{"kind":"major_road","sort_rank":380,"kind_detail":"primary","is_bicycle_related":true,"bicycle_shield_text":"23A","bicycle_network":"ncn","source":"openstreetmap.org","min_zoom":8.0,"ref":"39"},"arcs":[[377],[378]]},{"type":"MultiLineString","properties":{"kind":"major_road","network":"e-road","sort_rank":380,"kind_detail":"primary","source":"openstreetmap.org","min_zoom":8.0,"landuse_kind":"nature_reserve","shield_text":"579","ref":"41"},"arcs":[[379],[380],[381],[382]]},{"type":"MultiLineString","properties":{"kind":"path","sort_rank":354,"kind_detail":"track","is_bicycle_related":true,"bicycle_shield_text":"EV11","bicycle_network":"icn","source":"openstreetmap.org","min_zoom":8.0,"landuse_kind":"nature_reserve"},"arcs":[[383],[384],[385],[386],[387]]},{"type":"MultiLineString","properties":{"kind":"major_road","network":"e-road","sort_rank":380,"kind_detail":"primary","source":"openstreetmap.org","min_zoom":8.0,"landuse_kind":"urban_area","shield_text":"573","ref":"4"},"arcs":[[388],[389],[390],[391],[392],[393],[394],[395],[396],[397],[398],[399],[400],[401],[402],[403],[404],[405]]},{"type":"LineString","properties":{"kind":"major_road","network":null,"sort_rank":380,"kind_detail":"primary","source":"openstreetmap.org","min_zoom":8.0,"landuse_kind":"urban_area","shield_text":"38","ref":"38"},"arcs":[406]},{"type":"MultiLineString","properties":{"source":"openstreetmap.org","kind":"major_road","sort_rank":380,"kind_detail":"primary","ref":"79","min_zoom":8.0},"arcs":[[407],[408],[409],[410],[411],[412],[413],[414],[415],[416],[417],[418],[419],[420],[421],[422],[423],[424],[425],[426],[427],[428],[429],[430]]},{"type":"LineString","properties":{"kind":"major_road","sort_rank":379,"kind_detail":"secondary","is_bicycle_related":true,"bicycle_shield_text":"41","bicycle_network":"ncn","source":"openstreetmap.org","min_zoom":8.0,"ref":"3614"},"arcs":[431]},{"type":"MultiLineString","properties":{"kind":"minor_road","sort_rank":358,"kind_detail":"service","is_bicycle_related":true,"bicycle_shield_text":"EV11","bicycle_network":"icn","source":"openstreetmap.org","min_zoom":8.0},"arcs":[[432],[433],[434]]},{"type":"LineString","properties":{"bus_network":"regional","sort_rank":377,"kind_detail":"tertiary","is_bicycle_related":true,"kind":"major_road","bicycle_shield_text":"2E","bicycle_network":"ncn","source":"openstreetmap.org","min_zoom":8.0,"bus_shield_text":"3929\/650","ref":"3709"},"arcs":[435]},{"type":"MultiLineString","properties":{"source":"openstreetmap.org","kind":"path","sort_rank":354,"kind_detail":"track","is_bicycle_related":true,"min_zoom":8.0,"bicycle_network":"ncn"},"arcs":[[436],[437],[438],[439],[440],[441],[442],[443],[444],[445]]},{"type":"MultiLineString","properties":{"bus_network":"MHD Ko\u0161ice","network":"e-road","sort_rank":380,"kind_detail":"primary","kind":"major_road","source":"openstreetmap.org","min_zoom":8.0,"bus_shield_text":"15","shield_text":"50","landuse_kind":"urban_area","ref":"19"},"arcs":[[446],[447],[448]]},{"type":"LineString","properties":{"kind":"major_road","sort_rank":377,"kind_detail":"tertiary","is_bicycle_related":true,"bicycle_shield_text":"EV11","bicycle_network":"icn","source":"openstreetmap.org","min_zoom":8.0,"landuse_kind":"nature_reserve","ref":"36309","id":109396652},"arcs":[449]},{"type":"MultiLineString","properties":{"kind":"major_road","sort_rank":379,"kind_detail":"secondary","is_bicycle_related":true,"bicycle_shield_text":"41","bicycle_network":"ncn","source":"openstreetmap.org","min_zoom":8.0,"ref":"3821"},"arcs":[[450],[451],[452],[453],[454],[455]]},{"type":"MultiLineString","properties":{"bus_network":"MHD Michalovce","sort_rank":380,"kind_detail":"primary","kind":"major_road","source":"openstreetmap.org","min_zoom":8.0,"bus_shield_text":"1","landuse_kind":"residential","ref":"18"},"arcs":[[456],[457]]},{"type":"LineString","properties":{"kind":"major_road","sort_rank":377,"kind_detail":"tertiary","is_bicycle_related":true,"bicycle_shield_text":"023","bicycle_network":"ncn","source":"openstreetmap.org","min_zoom":8.0,"ref":"3372"},"arcs":[458]},{"type":"LineString","properties":{"kind":"major_road","name:en":"Rakotsi Street","network":"e-road","sort_rank":381,"kind_detail":"trunk","source":"openstreetmap.org","min_zoom":8.0,"shield_text":"573","ref":"\u041c-06","id":229019627},"arcs":[459]},{"type":"LineString","properties":{"kind":"major_road","sort_rank":377,"kind_detail":"tertiary","is_bicycle_related":true,"bicycle_shield_text":"2A","bicycle_network":"ncn","source":"openstreetmap.org","min_zoom":8.0,"ref":"26147"},"arcs":[460]},{"type":"MultiLineString","properties":{"kind":"major_road","network":"e-road","sort_rank":381,"landuse_kind":"urban_area","source":"openstreetmap.org","min_zoom":8.0,"kind_detail":"trunk","shield_text":"58","ref":"R2"},"arcs":[[461],[462]]},{"type":"LineString","properties":{"kind":"major_road","network":"e-road","sort_rank":380,"kind_detail":"primary","is_bicycle_related":true,"bicycle_shield_text":"2A","bicycle_network":"ncn","source":"openstreetmap.org","min_zoom":8.0,"shield_text":"579","ref":"41","id":197598342},"arcs":[463]},{"type":"MultiLineString","properties":{"kind":"path","sort_rank":354,"kind_detail":"cycleway","is_bicycle_related":true,"bicycle_shield_text":"EV11","bicycle_network":"icn","source":"openstreetmap.org","min_zoom":8.0},"arcs":[[464],[465],[466],[467],[468],[469],[470]]},{"type":"LineString","properties":{"kind":"major_road","sort_rank":379,"kind_detail":"secondary","is_bicycle_related":true,"bus_network":"regional","bicycle_network":"ncn","source":"openstreetmap.org","min_zoom":8.0,"bus_shield_text":"3903\/119","ref":"3719","id":207131009},"arcs":[471]},{"type":"LineString","properties":{"kind":"major_road","network":"e-road","sort_rank":381,"kind_detail":"trunk","bus_network":"MHD Ko\u0161ice","source":"openstreetmap.org","min_zoom":8.0,"bus_shield_text":"13","shield_text":"58","landuse_kind":"urban_area","ref":"PR3","id":369699092},"arcs":[472]},{"type":"LineString","properties":{"kind":"major_road","network":"e-road","sort_rank":380,"kind_detail":"primary","is_bicycle_related":true,"bicycle_shield_text":null,"bicycle_network":"lcn","source":"openstreetmap.org","min_zoom":8.0,"landuse_kind":"urban_area","shield_text":"50","ref":"19","id":57725233},"arcs":[473]},{"type":"LineString","properties":{"kind":"major_road","network":"e-road","sort_rank":380,"kind_detail":"primary","source":"openstreetmap.org","min_zoom":8.0,"shield_text":"58","ref":"16"},"arcs":[474]},{"type":"LineString","properties":{"kind":"major_road","sort_rank":379,"landuse_kind":"residential","is_bicycle_related":true,"bicycle_shield_text":"EV11","bicycle_network":"icn","source":"openstreetmap.org","min_zoom":8.0,"kind_detail":"secondary","ref":"3801"},"arcs":[475]},{"type":"LineString","properties":{"kind":"major_road","network":null,"sort_rank":380,"kind_detail":"primary","is_bicycle_related":true,"bicycle_shield_text":"EV11","bicycle_network":"icn","source":"openstreetmap.org","min_zoom":8.0,"shield_text":"37","ref":"37"},"arcs":[476]},{"type":"LineString","properties":{"kind":"major_road","name:en":"Tsentralna Street","network":"ua:national","sort_rank":380,"kind_detail":"primary","source":"openstreetmap.org","min_zoom":8.0,"shield_text":"13","ref":"\u041d-13","id":121520653},"arcs":[477]},{"type":"LineString","properties":{"kind":"major_road","sort_rank":379,"kind_detail":"secondary","is_bicycle_related":true,"bus_network":"regional","bicycle_network":"ncn","source":"openstreetmap.org","min_zoom":8.0,"bus_shield_text":"3903\/119","ref":"3708","id":23059262},"arcs":[478]},{"type":"MultiLineString","properties":{"kind":"major_road","network":"e-road","sort_rank":381,"kind_detail":"trunk","source":"openstreetmap.org","min_zoom":8.0,"shield_text":"71","ref":"R4"},"arcs":[[479],[480],[481],[482],[483],[484]]},{"type":"LineString","properties":{"kind":"minor_road","sort_rank":360,"kind_detail":"living_street","is_bicycle_related":true,"bicycle_shield_text":"EV11","bicycle_network":"icn","source":"openstreetmap.org","min_zoom":8.0,"id":162396046},"arcs":[485]},{"type":"LineString","properties":{"bus_network":null,"network":null,"sort_rank":380,"kind_detail":"primary","is_bicycle_related":true,"kind":"major_road","bicycle_shield_text":"41","bicycle_network":"ncn","source":"openstreetmap.org","min_zoom":8.0,"bus_shield_text":"3730","shield_text":"37","landuse_kind":"residential","ref":"37","id":4383767},"arcs":[486]},{"type":"LineString","properties":{"kind":"major_road","sort_rank":379,"kind_detail":"secondary","is_bicycle_related":true,"bicycle_shield_text":"2A","bicycle_network":"ncn","source":"openstreetmap.org","min_zoom":8.0,"ref":"3807"},"arcs":[487]},{"type":"LineString","properties":{"kind":"major_road","network":"e-road","sort_rank":380,"kind_detail":"primary","source":"openstreetmap.org","min_zoom":8.0,"landuse_kind":"urban_area","shield_text":"579","id":236310938},"arcs":[488]},{"type":"MultiLineString","properties":{"bus_network":"MHD Ko\u0161ice","network":"e-road","sort_rank":380,"kind_detail":"primary","kind":"major_road","source":"openstreetmap.org","min_zoom":8.0,"bus_shield_text":"12","shield_text":"71","landuse_kind":"urban_area","ref":"17"},"arcs":[[489],[490],[491],[492],[493]]},{"type":"LineString","properties":{"source":"openstreetmap.org","kind":"major_road","landuse_kind":"nature_reserve","sort_rank":380,"kind_detail":"primary","ref":"381","min_zoom":8.0},"arcs":[494]},{"type":"LineString","properties":{"kind":"major_road","sort_rank":377,"kind_detail":"tertiary","is_bicycle_related":true,"bicycle_shield_text":"EV11","bicycle_network":"icn","source":"openstreetmap.org","min_zoom":8.0},"arcs":[495]},{"type":"LineString","properties":{"kind":"major_road","sort_rank":355,"kind_detail":"secondary_link","is_bicycle_related":true,"bicycle_shield_text":"23A","bicycle_network":"ncn","source":"openstreetmap.org","min_zoom":8.0,"is_link":true,"landuse_kind":"residential","id":318353555},"arcs":[496]},{"type":"LineString","properties":{"kind":"minor_road","sort_rank":360,"kind_detail":"residential","is_bicycle_related":true,"bicycle_shield_text":"2A","bicycle_network":"ncn","source":"openstreetmap.org","min_zoom":8.0,"landuse_kind":"nature_reserve","id":194525810},"arcs":[497]},{"type":"MultiLineString","properties":{"kind":"major_road","network":"ua:regional","sort_rank":380,"kind_detail":"primary","is_bicycle_related":true,"source":"openstreetmap.org","min_zoom":8.0,"shield_text":"53","ref":"\u0420-53"},"arcs":[[498],[499],[500]]},{"type":"MultiLineString","properties":{"kind":"major_road","sort_rank":379,"landuse_kind":"urban_area","is_bicycle_related":true,"bicycle_shield_text":"41","bicycle_network":"ncn","source":"openstreetmap.org","min_zoom":8.0,"kind_detail":"secondary","ref":"3834"},"arcs":[[501],[502],[503]]},{"type":"LineString","properties":{"bus_network":null,"sort_rank":379,"landuse_kind":"residential","is_bicycle_related":true,"kind":"major_road","bicycle_shield_text":"41","bicycle_network":"ncn","source":"openstreetmap.org","min_zoom":8.0,"bus_shield_text":"3730","kind_detail":"secondary","ref":"3611"},"arcs":[504]},{"type":"MultiLineString","properties":{"kind":"major_road","network":"e-road","sort_rank":381,"kind_detail":"trunk","source":"openstreetmap.org","min_zoom":8.0,"shield_text":"50","ref":"PR3"},"arcs":[[505],[506],[507],[508]]},{"type":"LineString","properties":{"kind":"major_road","network":"e-road","sort_rank":380,"kind_detail":"primary","source":"openstreetmap.org","min_zoom":8.0,"shield_text":"573","ref":"403"},"arcs":[509]},{"type":"LineString","properties":{"kind":"path","sort_rank":354,"kind_detail":"track","is_bicycle_related":true,"bicycle_shield_text":"017","bicycle_network":"ncn","source":"openstreetmap.org","min_zoom":8.0,"landuse_kind":"park","id":71408661},"arcs":[510]},{"type":"MultiLineString","properties":{"kind":"path","sort_rank":354,"kind_detail":"cycleway","is_bicycle_related":true,"bicycle_shield_text":"41","bicycle_network":"ncn","source":"openstreetmap.org","min_zoom":8.0},"arcs":[[511],[512],[513],[514]]},{"type":"LineString","properties":{"source":"openstreetmap.org","kind":"major_road","sort_rank":380,"kind_detail":"primary","ref":"74","min_zoom":8.0},"arcs":[515]},{"type":"LineString","properties":{"cycleway_right":"track","network":null,"sort_rank":380,"kind_detail":"primary","is_bicycle_related":true,"kind":"major_road","source":"openstreetmap.org","min_zoom":8.0,"shield_text":"49","ref":"49","id":400904696},"arcs":[516]},{"type":"LineString","properties":{"kind":"major_road","sort_rank":379,"kind_detail":"secondary","is_bicycle_related":true,"bicycle_shield_text":"EV11","bicycle_network":"icn","source":"openstreetmap.org","min_zoom":8.0,"ref":"3612"},"arcs":[517]},{"type":"LineString","properties":{"source":"openstreetmap.org","kind":"major_road","sort_rank":380,"kind_detail":"primary","ref":"49","min_zoom":8.0},"arcs":[518]},{"type":"LineString","properties":{"bus_network":null,"sort_rank":379,"landuse_kind":"urban_area","is_bicycle_related":true,"kind":"major_road","bicycle_shield_text":"41","bicycle_network":"ncn","source":"openstreetmap.org","min_zoom":8.0,"bus_shield_text":"8","kind_detail":"secondary","cycleway":"lane","ref":"3834"},"arcs":[519]},{"type":"LineString","properties":{"kind":"major_road","network":null,"sort_rank":380,"kind_detail":"primary","source":"openstreetmap.org","min_zoom":8.0,"landuse_kind":"residential","shield_text":"37","id":181051464},"arcs":[520]},{"type":"LineString","properties":{"kind":"major_road","sort_rank":380,"landuse_kind":"residential","source":"openstreetmap.org","min_zoom":8.0,"kind_detail":"primary","ref":"15","id":317198965},"arcs":[521]},{"type":"LineString","properties":{"kind":"minor_road","sort_rank":358,"kind_detail":"service","is_bicycle_related":true,"bicycle_shield_text":"2A","bicycle_network":"ncn","source":"openstreetmap.org","min_zoom":8.0,"landuse_kind":"urban_area","id":236401031},"arcs":[522]},{"type":"LineString","properties":{"source":"openstreetmap.org","kind":"major_road","sort_rank":380,"kind_detail":"primary","ref":"20","min_zoom":8.0},"arcs":[523]},{"type":"MultiLineString","properties":{"kind":"minor_road","sort_rank":360,"kind_detail":"unclassified","is_bicycle_related":true,"bicycle_shield_text":"023","bicycle_network":"ncn","source":"openstreetmap.org","min_zoom":8.0},"arcs":[[524],[525],[526]]},{"type":"MultiLineString","properties":{"source":"openstreetmap.org","kind":"major_road","sort_rank":380,"kind_detail":"primary","ref":"17","min_zoom":8.0},"arcs":[[527],[528],[529],[530],[531],[532]]},{"type":"LineString","properties":{"kind":"path","sort_rank":354,"landuse_kind":"urban_area","is_bicycle_related":true,"bicycle_shield_text":"41","bicycle_network":"ncn","source":"openstreetmap.org","min_zoom":8.0,"kind_detail":"cycleway"},"arcs":[533]},{"type":"MultiLineString","properties":{"kind":"major_road","network":null,"sort_rank":380,"kind_detail":"primary","is_bicycle_related":true,"bicycle_shield_text":"41","bicycle_network":"ncn","source":"openstreetmap.org","min_zoom":8.0,"shield_text":"38","ref":"38"},"arcs":[[534],[535]]},{"type":"LineString","properties":{"kind":"major_road","name:en":"Chonhorska Street","network":"ua:international","sort_rank":381,"kind_detail":"trunk","source":"openstreetmap.org","min_zoom":8.0,"shield_text":"24","name:ru":"\u0427\u043e\u043d\u0433\u043e\u0440\u0441\u043a\u0430\u044f \u0443\u043b\u0438\u0446\u0430","name:hu":"Csongor \u00fat","ref":"\u041c-24","id":265043180},"arcs":[536]},{"type":"LineString","properties":{"kind":"minor_road","service":"driveway","sort_rank":356,"kind_detail":"service","is_bicycle_related":true,"bicycle_shield_text":"023","bicycle_network":"ncn","source":"openstreetmap.org","min_zoom":8.0,"id":62278949},"arcs":[537]},{"type":"MultiLineString","properties":{"kind":"path","sort_rank":354,"kind_detail":"track","is_bicycle_related":true,"bicycle_shield_text":"023","bicycle_network":"ncn","source":"openstreetmap.org","min_zoom":8.0},"arcs":[[538],[539],[540],[541],[542]]},{"type":"LineString","properties":{"kind":"major_road","sort_rank":377,"kind_detail":"tertiary","is_bicycle_related":true,"bicycle_shield_text":"016","bicycle_network":"ncn","source":"openstreetmap.org","min_zoom":8.0,"ref":"3895"},"arcs":[543]},{"type":"MultiLineString","properties":{"kind":"minor_road","sort_rank":360,"kind_detail":"residential","is_bicycle_related":true,"bicycle_shield_text":"EV11","bicycle_network":"icn","source":"openstreetmap.org","min_zoom":8.0,"landuse_kind":"nature_reserve"},"arcs":[[544],[545]]},{"type":"MultiLineString","properties":{"kind":"major_road","network":"e-road","sort_rank":380,"kind_detail":"primary","is_bicycle_related":true,"bicycle_shield_text":null,"bicycle_network":"lcn","source":"openstreetmap.org","min_zoom":8.0,"shield_text":"50","ref":"19"},"arcs":[[546],[547]]},{"type":"LineString","properties":{"kind":"major_road","sort_rank":380,"kind_detail":"primary","is_bicycle_related":true,"bicycle_shield_text":"41","bicycle_network":"ncn","source":"openstreetmap.org","min_zoom":8.0,"ref":"38"},"arcs":[548]},{"type":"MultiLineString","properties":{"source":"openstreetmap.org","kind":"major_road","landuse_kind":"urban_area","sort_rank":380,"kind_detail":"primary","ref":"18","min_zoom":8.0},"arcs":[[549],[550],[551]]},{"type":"MultiLineString","properties":{"kind":"major_road","sort_rank":377,"kind_detail":"tertiary","is_bicycle_related":true,"bicycle_shield_text":"2A","bicycle_network":"ncn","source":"openstreetmap.org","min_zoom":8.0},"arcs":[[552],[553],[554],[555],[556],[557],[558],[559],[560],[561]]},{"type":"MultiLineString","properties":{"bus_network":"MHD Ko\u0161ice","network":"e-road","sort_rank":381,"kind_detail":"trunk","kind":"major_road","source":"openstreetmap.org","min_zoom":8.0,"bus_shield_text":"RA5","shield_text":"50","landuse_kind":"urban_area","ref":"PR3"},"arcs":[[562],[563]]},{"type":"LineString","properties":{"kind":"major_road","sort_rank":380,"kind_detail":"primary","is_bicycle_related":true,"bicycle_shield_text":"031","bicycle_network":"ncn","source":"openstreetmap.org","min_zoom":8.0,"ref":"74"},"arcs":[564]},{"type":"LineString","properties":{"kind":"major_road","sort_rank":380,"kind_detail":"primary","is_bicycle_related":true,"bicycle_shield_text":"EV11","bicycle_network":"icn","source":"openstreetmap.org","min_zoom":8.0,"id":4383773},"arcs":[565]},{"type":"LineString","properties":{"kind":"major_road","sort_rank":355,"kind_detail":"tertiary_link","is_bicycle_related":true,"bicycle_shield_text":"2A","bicycle_network":"ncn","source":"openstreetmap.org","min_zoom":8.0,"is_link":true,"landuse_kind":"urban_area","id":376586338},"arcs":[566]},{"type":"LineString","properties":{"kind":"major_road","sort_rank":379,"kind_detail":"secondary","is_bicycle_related":true,"bicycle_shield_text":"2A","bicycle_network":"ncn","source":"openstreetmap.org","min_zoom":8.0,"landuse_kind":"urban_area","ref":"4145","id":321182591},"arcs":[567]},{"type":"MultiLineString","properties":{"kind":"path","sort_rank":354,"kind_detail":"track","is_bicycle_related":true,"bicycle_shield_text":null,"bicycle_network":"rcn","source":"openstreetmap.org","min_zoom":8.0},"arcs":[[568],[569]]},{"type":"LineString","properties":{"kind":"major_road","name:en":"Tsentralna Street","network":"ua:national","sort_rank":380,"kind_detail":"primary","is_bicycle_related":true,"source":"openstreetmap.org","min_zoom":8.0,"shield_text":"13","ref":"\u041d-13","id":207088961},"arcs":[570]},{"type":"LineString","properties":{"kind":"major_road","network":null,"sort_rank":380,"kind_detail":"primary","source":"openstreetmap.org","min_zoom":8.0,"shield_text":"49","ref":"49"},"arcs":[571]},{"type":"MultiLineString","properties":{"kind":"major_road","network":"ua:national","sort_rank":380,"kind_detail":"primary","source":"openstreetmap.org","min_zoom":8.0,"shield_text":"13","ref":"\u041d-13"},"arcs":[[572],[573],[574],[575]]},{"type":"MultiLineString","properties":{"kind":"major_road","network":null,"sort_rank":380,"kind_detail":"primary","is_bicycle_related":true,"bus_network":"regional","bicycle_shield_text":"EV11","bicycle_network":"icn","source":"openstreetmap.org","min_zoom":8.0,"bus_shield_text":"3901\/14","shield_text":"37","ref":"37"},"arcs":[[576],[577]]},{"type":"MultiLineString","properties":{"kind":"major_road","sort_rank":380,"kind_detail":"primary","is_bicycle_related":true,"bicycle_shield_text":"GB-EC","bicycle_network":"rcn","source":"openstreetmap.org","min_zoom":8.0,"ref":"74"},"arcs":[[578],[579]]},{"type":"LineString","properties":{"bus_network":"regional","network":null,"sort_rank":380,"kind_detail":"primary","kind":"major_road","source":"openstreetmap.org","min_zoom":8.0,"bus_shield_text":"3901\/14","shield_text":"37","ref":"37"},"arcs":[580]},{"type":"LineString","properties":{"kind":"path","sort_rank":354,"kind_detail":"footway","is_bicycle_related":true,"bicycle_shield_text":"023","bicycle_network":"ncn","source":"openstreetmap.org","min_zoom":8.0,"id":49323346},"arcs":[581]},{"type":"MultiLineString","properties":{"kind":"minor_road","sort_rank":358,"kind_detail":"service","is_bicycle_related":true,"bicycle_shield_text":"2A","bicycle_network":"ncn","source":"openstreetmap.org","min_zoom":8.0,"id":236401031},"arcs":[[582],[583],[584],[585],[586],[587],[588]]},{"type":"MultiLineString","properties":{"bus_network":"MHD Michalovce","network":"e-road","sort_rank":380,"kind_detail":"primary","kind":"major_road","source":"openstreetmap.org","min_zoom":8.0,"bus_shield_text":"1","shield_text":"50","landuse_kind":"urban_area","ref":"19"},"arcs":[[589],[590],[591]]},{"type":"LineString","properties":{"kind":"major_road","sort_rank":379,"kind_detail":"secondary","is_bicycle_related":true,"bus_network":"regional","bicycle_shield_text":"EV11","bicycle_network":"icn","source":"openstreetmap.org","min_zoom":8.0,"bus_shield_text":"3903\/119","id":230094525},"arcs":[592]},{"type":"MultiLineString","properties":{"kind":"major_road","sort_rank":379,"landuse_kind":"urban_area","is_bicycle_related":true,"bicycle_shield_text":"41","bicycle_network":"ncn","source":"openstreetmap.org","min_zoom":8.0,"kind_detail":"secondary","ref":"3614"},"arcs":[[593],[594]]},{"type":"MultiLineString","properties":{"bus_network":"MHD Ko\u0161ice","network":"e-road","sort_rank":381,"kind_detail":"trunk","kind":"major_road","source":"openstreetmap.org","min_zoom":8.0,"bus_shield_text":"RA5","shield_text":"58","landuse_kind":"urban_area","ref":"PR3"},"arcs":[[595],[596],[597]]},{"type":"MultiLineString","properties":{"kind":"major_road","network":"e-road","sort_rank":381,"kind_detail":"trunk","source":"openstreetmap.org","min_zoom":8.0,"shield_text":"50","ref":"\u041c-06"},"arcs":[[598],[599],[600],[601],[602],[603]]},{"type":"MultiLineString","properties":{"bus_network":"MHD Michalovce","network":"e-road","sort_rank":380,"landuse_kind":"residential","kind":"major_road","source":"openstreetmap.org","min_zoom":8.0,"bus_shield_text":"2","shield_text":"50","kind_detail":"primary","ref":"19"},"arcs":[[604],[605],[606]]},{"type":"MultiLineString","properties":{"kind":"major_road","sort_rank":379,"landuse_kind":"nature_reserve","is_bicycle_related":true,"bicycle_shield_text":"2A","bicycle_network":"ncn","source":"openstreetmap.org","min_zoom":8.0,"kind_detail":"secondary","ref":"4113"},"arcs":[[607],[608]]},{"type":"MultiLineString","properties":{"source":"openstreetmap.org","kind":"major_road","sort_rank":380,"kind_detail":"primary","ref":"79A","min_zoom":8.0},"arcs":[[609],[610],[611],[612]]},{"type":"LineString","properties":{"kind":"major_road","sort_rank":377,"kind_detail":"tertiary","is_bicycle_related":true,"bicycle_shield_text":"EV11","bicycle_network":"icn","source":"openstreetmap.org","min_zoom":8.0,"ref":"36314"},"arcs":[613]},{"type":"MultiLineString","properties":{"bus_network":"MHD Michalovce","sort_rank":380,"kind_detail":"primary","kind":"major_road","source":"openstreetmap.org","min_zoom":8.0,"bus_shield_text":"2","landuse_kind":"residential","ref":"18"},"arcs":[[614],[615]]},{"type":"MultiLineString","properties":{"kind":"major_road","network":null,"sort_rank":380,"kind_detail":"primary","source":"openstreetmap.org","min_zoom":8.0,"shield_text":"37","ref":"37"},"arcs":[[616],[617],[618],[619],[620],[621],[622],[623],[624]]},{"type":"LineString","properties":{"kind":"major_road","sort_rank":379,"kind_detail":"secondary","is_bicycle_related":true,"bicycle_shield_text":"23A","bicycle_network":"ncn","source":"openstreetmap.org","min_zoom":8.0,"ref":"3714"},"arcs":[625]},{"type":"MultiLineString","properties":{"bus_network":"MHD Ko\u0161ice","network":"e-road","sort_rank":381,"landuse_kind":"urban_area","kind":"major_road","source":"openstreetmap.org","min_zoom":8.0,"bus_shield_text":"RA5","shield_text":"58","kind_detail":"trunk","ref":"R2"},"arcs":[[626],[627],[628],[629],[630],[631],[632],[633]]},{"type":"LineString","properties":{"kind":"major_road","sort_rank":377,"kind_detail":"tertiary","is_bicycle_related":true,"bicycle_shield_text":"2A","bicycle_network":"ncn","source":"openstreetmap.org","min_zoom":8.0,"landuse_kind":"nature_reserve","id":277628229},"arcs":[634]},{"type":"LineString","properties":{"kind":"major_road","network":"e-road","sort_rank":380,"kind_detail":"primary","source":"openstreetmap.org","min_zoom":8.0,"landuse_kind":"urban_area","shield_text":"71","ref":"17","id":21581955},"arcs":[635]},{"type":"LineString","properties":{"kind":"major_road","sort_rank":380,"kind_detail":"primary","is_bicycle_related":true,"bicycle_shield_text":"EV11","bicycle_network":"icn","source":"openstreetmap.org","min_zoom":8.0,"ref":"3615","id":260623242},"arcs":[636]},{"type":"MultiLineString","properties":{"bus_network":"regional","sort_rank":379,"kind_detail":"secondary","is_bicycle_related":true,"kind":"major_road","bicycle_shield_text":"EV11","bicycle_network":"icn","source":"openstreetmap.org","min_zoom":8.0,"bus_shield_text":"3903\/119","ref":"3708"},"arcs":[[637],[638],[639]]},{"type":"LineString","properties":{"kind":"path","sort_rank":354,"kind_detail":"cycleway","is_bicycle_related":true,"bicycle_shield_text":"2F","bicycle_network":"ncn","source":"openstreetmap.org","min_zoom":8.0,"landuse_kind":"urban_area","id":194525820},"arcs":[640]},{"type":"LineString","properties":{"kind":"major_road","sort_rank":379,"kind_detail":"secondary","is_bicycle_related":true,"bicycle_shield_text":"2G","bicycle_network":"ncn","source":"openstreetmap.org","min_zoom":8.0,"ref":"4113"},"arcs":[641]},{"type":"MultiLineString","properties":{"kind":"major_road","network":"e-road","sort_rank":380,"kind_detail":"primary","source":"openstreetmap.org","min_zoom":8.0,"landuse_kind":"urban_area","shield_text":"50","ref":"19"},"arcs":[[642],[643],[644],[645],[646]]},{"type":"MultiLineString","properties":{"kind":"minor_road","sort_rank":360,"kind_detail":"residential","is_bicycle_related":true,"bicycle_shield_text":"017","bicycle_network":"ncn","source":"openstreetmap.org","min_zoom":8.0,"landuse_kind":"park"},"arcs":[[647],[648]]},{"type":"LineString","properties":{"kind":"major_road","sort_rank":380,"kind_detail":"primary","is_bicycle_related":true,"bicycle_shield_text":"2A","bicycle_network":"ncn","source":"openstreetmap.org","min_zoom":8.0,"ref":"37","id":162217626},"arcs":[649]},{"type":"LineString","properties":{"kind":"major_road","network":"ua:national","sort_rank":380,"kind_detail":"primary","old_name:ru":"\u041a\u0440\u0430\u0441\u043d\u043e\u0430\u0440\u043c\u0435\u0439\u0441\u043a\u0430\u044f \u0443\u043b\u0438\u0446\u0430","source":"openstreetmap.org","min_zoom":8.0,"old_name":"\u0427\u0435\u0440\u0432\u043e\u043d\u043e\u0430\u0440\u043c\u0456\u0439\u0441\u044c\u043a\u0430 \u0432\u0443\u043b\u0438\u0446\u044f","shield_text":"13","name:ru":"\u0423\u0436\u0430\u043d\u0441\u043a\u0430\u044f \u0443\u043b\u0438\u0446\u0430","ref":"\u041d-13","id":166368788},"arcs":[650]},{"type":"MultiLineString","properties":{"kind":"major_road","network":"e-road","sort_rank":380,"kind_detail":"primary","is_bicycle_related":true,"bicycle_shield_text":"2A","bicycle_network":"ncn","source":"openstreetmap.org","min_zoom":8.0,"shield_text":"573","ref":"4"},"arcs":[[651],[652]]},{"type":"LineString","properties":{"kind":"minor_road","sort_rank":360,"kind_detail":"unclassified","is_bicycle_related":true,"bicycle_network":"ncn","source":"openstreetmap.org","min_zoom":8.0,"id":217350545},"arcs":[653]},{"type":"LineString","properties":{"kind":"major_road","sort_rank":377,"kind_detail":"tertiary","is_bicycle_related":true,"bicycle_shield_text":"EV11","bicycle_network":"icn","source":"openstreetmap.org","min_zoom":8.0,"ref":"3342"},"arcs":[654]},{"type":"MultiLineString","properties":{"source":"openstreetmap.org","kind":"major_road","landuse_kind":"urban_area","sort_rank":380,"kind_detail":"primary","min_zoom":8.0},"arcs":[[655],[656]]},{"type":"LineString","properties":{"bus_network":"regional","sort_rank":379,"kind_detail":"secondary","is_bicycle_related":true,"kind":"major_road","bicycle_shield_text":"2A","bicycle_network":"ncn","source":"openstreetmap.org","min_zoom":8.0,"bus_shield_text":"3929\/641","ref":"3708"},"arcs":[657]},{"type":"MultiLineString","properties":{"kind":"major_road","network":"e-road","sort_rank":380,"kind_detail":"primary","source":"openstreetmap.org","min_zoom":8.0,"shield_text":"71","ref":"3"},"arcs":[[658],[659],[660],[661]]},{"type":"LineString","properties":{"kind":"major_road","sort_rank":379,"landuse_kind":"urban_area","is_bicycle_related":true,"bicycle_shield_text":"EV11","bicycle_network":"icn","source":"openstreetmap.org","min_zoom":8.0,"kind_detail":"secondary","ref":"3801"},"arcs":[662]},{"type":"LineString","properties":{"kind":"path","sort_rank":354,"landuse_kind":"residential","is_bicycle_related":true,"bicycle_shield_text":"41","bicycle_network":"ncn","source":"openstreetmap.org","min_zoom":8.0,"kind_detail":"cycleway"},"arcs":[663]},{"type":"LineString","properties":{"kind":"major_road","sort_rank":380,"kind_detail":"primary","is_bicycle_related":true,"bus_network":"regional","bicycle_shield_text":"EV11","bicycle_network":"icn","source":"openstreetmap.org","min_zoom":8.0,"bus_shield_text":"3901\/14","ref":"37","id":354070571},"arcs":[664]},{"type":"MultiLineString","properties":{"kind":"major_road","network":"ua:national","sort_rank":380,"kind_detail":"primary","is_bicycle_related":true,"source":"openstreetmap.org","min_zoom":8.0,"shield_text":"13","ref":"\u041d-13"},"arcs":[[665],[666]]},{"type":"MultiLineString","properties":{"kind":"major_road","network":"e-road","sort_rank":381,"kind_detail":"trunk","source":"openstreetmap.org","min_zoom":8.0,"shield_text":"50","ref":"\u041c-08"},"arcs":[[667],[668],[669]]},{"type":"MultiLineString","properties":{"kind":"minor_road","sort_rank":360,"kind_detail":"unclassified","is_bicycle_related":true,"bicycle_shield_text":"2A","bicycle_network":"ncn","source":"openstreetmap.org","min_zoom":8.0},"arcs":[[670],[671],[672],[673]]},{"type":"MultiLineString","properties":{"bus_network":"MHD Michalovce","network":"e-road","sort_rank":380,"landuse_kind":"residential","kind":"major_road","source":"openstreetmap.org","min_zoom":8.0,"bus_shield_text":"1","shield_text":"50","kind_detail":"primary","ref":"19"},"arcs":[[674],[675],[676],[677],[678],[679],[680],[681],[682]]},{"type":"LineString","properties":{"bus_network":null,"sort_rank":379,"landuse_kind":"residential","is_bicycle_related":true,"kind":"major_road","bicycle_shield_text":"23A","bicycle_network":"ncn","source":"openstreetmap.org","min_zoom":8.0,"bus_shield_text":"3730","kind_detail":"secondary","ref":"3702"},"arcs":[683]},{"type":"LineString","properties":{"bus_network":"regional","sort_rank":379,"kind_detail":"secondary","is_bicycle_related":true,"kind":"major_road","bicycle_shield_text":"EV11","bicycle_network":"icn","source":"openstreetmap.org","min_zoom":8.0,"bus_shield_text":"3901\/14"},"arcs":[684]},{"type":"MultiLineString","properties":{"kind":"major_road","name:en":"Tsentralna Street","network":"ua:national","sort_rank":380,"kind_detail":"primary","source":"openstreetmap.org","min_zoom":8.0,"shield_text":"13","name:ru":"\u0426\u0435\u043d\u0442\u0440\u0430\u043b\u044c\u043d\u0430\u044f \u0443\u043b\u0438\u0446\u0430","ref":"\u041d-13"},"arcs":[[685],[686]]},{"type":"MultiLineString","properties":{"kind":"minor_road","sort_rank":358,"kind_detail":"service","is_bicycle_related":true,"bicycle_shield_text":"2A","bicycle_network":"ncn","source":"openstreetmap.org","min_zoom":8.0,"landuse_kind":"nature_reserve","id":236401031},"arcs":[[687],[688],[689],[690],[691],[692],[693],[694]]},{"type":"MultiLineString","properties":{"kind":"major_road","network":null,"sort_rank":380,"kind_detail":"primary","source":"openstreetmap.org","min_zoom":8.0,"shield_text":"38","ref":"38"},"arcs":[[695],[696],[697],[698]]},{"type":"LineString","properties":{"kind":"major_road","network":"e-road","sort_rank":380,"kind_detail":"primary","source":"openstreetmap.org","min_zoom":8.0,"landuse_kind":"urban_area","shield_text":"58","ref":"16"},"arcs":[699]},{"type":"MultiLineString","properties":{"source":"openstreetmap.org","kind":"major_road","kind_detail":"trunk","sort_rank":381,"landuse_kind":"urban_area","min_zoom":8.0},"arcs":[[700],[701]]},{"type":"LineString","properties":{"kind":"major_road","sort_rank":379,"kind_detail":"secondary","is_bicycle_related":true,"bicycle_shield_text":"2A","bicycle_network":"ncn","source":"openstreetmap.org","min_zoom":8.0,"ref":"2626"},"arcs":[702]},{"type":"LineString","properties":{"kind":"minor_road","sort_rank":358,"kind_detail":"service","is_bicycle_related":true,"bicycle_shield_text":null,"bicycle_network":"ncn","source":"openstreetmap.org","min_zoom":8.0,"id":62278913},"arcs":[703]},{"type":"LineString","properties":{"kind":"major_road","sort_rank":379,"kind_detail":"secondary","is_bicycle_related":true,"bus_network":"regional","bicycle_shield_text":"2A","bicycle_network":"ncn","source":"openstreetmap.org","min_zoom":8.0,"bus_shield_text":"3929\/641","id":505703156},"arcs":[704]},{"type":"MultiLineString","properties":{"source":"openstreetmap.org","kind":"major_road","landuse_kind":"urban_area","sort_rank":380,"kind_detail":"primary","ref":"4","min_zoom":8.0},"arcs":[[705],[706]]},{"type":"LineString","properties":{"kind":"major_road","sort_rank":380,"kind_detail":"primary","bus_network":"regional","source":"openstreetmap.org","min_zoom":8.0,"bus_shield_text":"3901\/14","ref":"37","id":196759529},"arcs":[707]},{"type":"LineString","properties":{"kind":"major_road","sort_rank":377,"kind_detail":"tertiary","is_bicycle_related":true,"bicycle_shield_text":"2A","bicycle_network":"ncn","source":"openstreetmap.org","min_zoom":8.0,"landuse_kind":"urban_area","ref":"38308","id":35539217},"arcs":[708]},{"type":"LineString","properties":{"kind":"major_road","sort_rank":377,"kind_detail":"tertiary","is_bicycle_related":true,"bicycle_shield_text":"2E","bicycle_network":"ncn","source":"openstreetmap.org","min_zoom":8.0,"ref":"37115"},"arcs":[709]},{"type":"MultiLineString","properties":{"source":"openstreetmap.org","kind":"major_road","sort_rank":380,"kind_detail":"primary","ref":"39","min_zoom":8.0},"arcs":[[710],[711],[712],[713],[714],[715],[716],[717],[718],[719]]},{"type":"MultiLineString","properties":{"source":"openstreetmap.org","kind":"major_road","sort_rank":380,"kind_detail":"primary","ref":"18","min_zoom":8.0},"arcs":[[720],[721],[722],[723],[724],[725],[726],[727],[728]]},{"type":"LineString","properties":{"kind":"major_road","network":"ro:regional","sort_rank":380,"kind_detail":"primary","is_bicycle_related":true,"bicycle_shield_text":"2A","bicycle_network":"ncn","source":"openstreetmap.org","min_zoom":8.0,"shield_text":"3","ref":"3","id":267210687},"arcs":[729]},{"type":"LineString","properties":{"kind":"major_road","sort_rank":379,"kind_detail":"secondary","is_bicycle_related":true,"bicycle_shield_text":"EV11","bicycle_network":"icn","source":"openstreetmap.org","min_zoom":8.0,"ref":"3616"},"arcs":[730]},{"type":"MultiLineString","properties":{"source":"openstreetmap.org","kind":"major_road","sort_rank":380,"kind_detail":"primary","ref":"15","min_zoom":8.0},"arcs":[[731],[732],[733],[734],[735],[736],[737]]},{"type":"MultiLineString","properties":{"kind":"path","sort_rank":354,"kind_detail":"cycleway","is_bicycle_related":true,"bicycle_shield_text":"41","bicycle_network":"ncn","source":"openstreetmap.org","min_zoom":8.0,"landuse_kind":"nature_reserve","id":229050284},"arcs":[[738],[739]]},{"type":"MultiLineString","properties":{"kind":"path","sort_rank":354,"kind_detail":"track","is_bicycle_related":true,"bicycle_shield_text":"EV11","bicycle_network":"icn","source":"openstreetmap.org","min_zoom":8.0},"arcs":[[740],[741],[742],[743],[744],[745],[746]]},{"type":"LineString","properties":{"kind":"major_road","sort_rank":380,"kind_detail":"primary","is_bicycle_related":true,"bicycle_shield_text":"2A","bicycle_network":"ncn","source":"openstreetmap.org","min_zoom":8.0,"old_name":"Felszabadul\u00e1s \u00fat","ref":"381","id":235409055},"arcs":[747]},{"type":"MultiLineString","properties":{"kind":"path","sort_rank":354,"kind_detail":"track","is_bicycle_related":true,"bicycle_shield_text":"016","bicycle_network":"ncn","source":"openstreetmap.org","min_zoom":8.0},"arcs":[[748],[749]]},{"type":"LineString","properties":{"kind":"minor_road","sort_rank":358,"kind_detail":"service","is_bicycle_related":true,"bicycle_shield_text":"017","bicycle_network":"ncn","source":"openstreetmap.org","min_zoom":8.0,"landuse_kind":"park","id":45664153},"arcs":[750]},{"type":"LineString","properties":{"kind":"major_road","sort_rank":377,"landuse_kind":"urban_area","is_bicycle_related":true,"bicycle_shield_text":"2A","bicycle_network":"ncn","source":"openstreetmap.org","min_zoom":8.0,"kind_detail":"tertiary","ref":"38143"},"arcs":[751]},{"type":"LineString","properties":{"kind":"major_road","sort_rank":380,"kind_detail":"primary","is_bicycle_related":true,"bicycle_shield_text":"R","bicycle_network":"rcn","source":"openstreetmap.org","min_zoom":8.0,"ref":"39"},"arcs":[752]},{"type":"LineString","properties":{"kind":"major_road","sort_rank":379,"kind_detail":"secondary","is_bicycle_related":true,"bicycle_shield_text":"023","bicycle_network":"ncn","source":"openstreetmap.org","min_zoom":8.0,"ref":"576","id":104163286},"arcs":[753]},{"type":"MultiLineString","properties":{"kind":"major_road","network":null,"sort_rank":380,"kind_detail":"primary","source":"openstreetmap.org","min_zoom":8.0,"landuse_kind":"urban_area","shield_text":"37","ref":"37"},"arcs":[[754],[755],[756],[757],[758],[759],[760]]},{"type":"LineString","properties":{"bus_network":"regional","sort_rank":377,"kind_detail":"tertiary","is_bicycle_related":true,"kind":"major_road","bicycle_shield_text":"2A","bicycle_network":"ncn","source":"openstreetmap.org","min_zoom":8.0,"bus_shield_text":"3903\/119","ref":"37125"},"arcs":[761]},{"type":"MultiLineString","properties":{"kind":"major_road","sort_rank":379,"kind_detail":"secondary","is_bicycle_related":true,"bicycle_shield_text":"41","bicycle_network":"ncn","source":"openstreetmap.org","min_zoom":8.0,"landuse_kind":"residential","ref":"3821"},"arcs":[[762],[763]]},{"type":"LineString","properties":{"kind":"major_road","network":"ua:national","sort_rank":380,"kind_detail":"primary","source":"openstreetmap.org","min_zoom":8.0,"landuse_kind":"urban_area","shield_text":"13","ref":"\u041d-13"},"arcs":[764]},{"type":"LineString","properties":{"kind":"major_road","sort_rank":379,"kind_detail":"secondary","is_bicycle_related":true,"bicycle_shield_text":"EV11","bicycle_network":"icn","source":"openstreetmap.org","min_zoom":8.0,"id":505703142},"arcs":[765]},{"type":"LineString","properties":{"kind":"minor_road","sort_rank":358,"landuse_kind":"nature_reserve","is_bicycle_related":true,"bicycle_shield_text":"EV11","bicycle_network":"icn","source":"openstreetmap.org","min_zoom":8.0,"kind_detail":"service"},"arcs":[766]},{"type":"LineString","properties":{"kind":"major_road","network":"e-road","sort_rank":380,"kind_detail":"primary","source":"openstreetmap.org","min_zoom":8.0,"shield_text":"579","id":155716582},"arcs":[767]},{"type":"MultiLineString","properties":{"source":"openstreetmap.org","kind":"major_road","kind_detail":"trunk","sort_rank":381,"landuse_kind":"urban_area","ref":"\u041c-08","min_zoom":8.0},"arcs":[[768],[769],[770],[771],[772],[773]]}]},"earth":{"type":"GeometryCollection","geometries":[{"type":"Polygon","properties":{"sort_rank":10,"source":"naturalearthdata.com","kind":"earth","min_zoom":0.0,"id":4754},"arcs":[[774]]}]},"landuse":{"type":"GeometryCollection","geometries":[{"type":"MultiPolygon","properties":{"kind":"national_park","protect_class":"2","area":2388979444,"sort_rank":18,"source":"openstreetmap.org","min_zoom":3.0,"tier":1,"osm_relation":true},"arcs":[[[775]]]},{"type":"Polygon","properties":{"kind":"nature_reserve","area":625606016,"sort_rank":23,"source":"openstreetmap.org","min_zoom":6.0,"tier":2,"id":-271573,"osm_relation":true},"arcs":[[776]]},{"type":"MultiPolygon","properties":{"source":"openstreetmap.org","kind":"park","tier":2,"area":3268115152,"sort_rank":24,"min_zoom":6.0,"osm_relation":true},"arcs":[[[777]],[[778]]]},{"type":"MultiPolygon","properties":{"source":"openstreetmap.org","kind":"military","tier":3,"area":250055951,"sort_rank":45,"min_zoom":8.0},"arcs":[[[779]],[[780]]]},{"type":"MultiPolygon","properties":{"source":"naturalearthdata.com","kind":"urban_area","name":"","area":4138469821,"sort_rank":11,"min_zoom":4.0},"arcs":[[[781]],[[782]],[[783]],[[784]],[[785]],[[786]],[[787]],[[788]],[[789]],[[790]],[[791]],[[792]],[[793]],[[794]]]},{"type":"MultiPolygon","properties":{"source":"openstreetmap.org","kind":"residential","tier":2,"area":537684724,"sort_rank":20,"min_zoom":8.0,"osm_relation":true},"arcs":[[[795]],[[796]],[[797],[798]],[[799],[800]],[[801]],[[802]]]},{"type":"MultiPolygon","properties":{"source":"openstreetmap.org","kind":"residential","tier":2,"area":572479053,"sort_rank":20,"min_zoom":8.0},"arcs":[[[803]],[[804]],[[805]],[[806]],[[807]]]},{"type":"Polygon","properties":{"source":"openstreetmap.org","kind":"nature_reserve","area":200768000,"tier":2,"id":157434015,"min_zoom":6.0,"sort_rank":23},"arcs":[[808]]}]}},"type":"Topology","transform":{"translate":[21.09375,47.9899216674],"scale":[0.0003433228,0.0002276801]},"arcs":[[[3092,1816],[9,31],[143,67],[86,-69],[82,-1],[-24,-71],[-50,-29],[81,-113],[146,-30],[-13,-129],[70,-75],[3,-126],[64,-61],[26,-89],[45,-49],[47,67],[94,-12],[-1,26],[69,-44],[92,48],[35,-16]],[[4096,1106],[0,-10]],[[4096,1133],[0,-7]],[[3891,4096],[-25,-166],[-77,-33],[-39,-75],[-15,-115],[34,-149],[-42,-77],[-80,-72],[-9,-68],[57,-47],[-2,-43],[-32,-43],[-32,-160],[-108,-33],[-152,-127],[-29,-87],[-150,-78],[-51,-98],[-31,-89],[-67,-591],[13,-121],[38,-8]],[[3092,1816],[-9,-33],[-62,-20],[15,-47],[-125,-9],[-19,-31],[-30,69],[-63,-43],[-97,67],[7,-16],[-85,-51],[-132,6],[-66,-35],[4,-41],[-46,35],[-31,-20],[-5,23],[-6,-33],[-38,22],[-1,-51],[-9,29],[-17,-30],[-30,19],[-6,-22],[-23,48],[-53,-12],[-9,-129],[-49,-5],[4,19],[-59,24],[-99,-16],[-56,43],[-63,6],[-34,33],[7,38],[-26,-1],[-10,64],[-54,45],[-54,6],[-3,113],[-127,228],[-18,174],[-66,15],[-38,-37],[-37,3],[-13,28],[-55,-14],[-49,63],[-33,125],[-125,66],[-38,46],[-21,-8],[-30,45],[-52,-27],[-21,-88],[-44,22],[-60,-25],[-176,13],[-9,-26],[31,-5],[-39,-14],[23,-14],[-11,-37],[-23,4],[18,-31],[-38,-28],[8,-20],[-106,14],[-88,63],[-16,-25],[-36,15],[-13,-26],[-22,9],[0,-27],[-48,-4],[-38,-37],[-54,15],[-79,-115],[-48,-19],[-65,38],[8,47],[-12,17]],[[3175,4096],[-69,-78],[-10,-49],[-89,-25],[16,-190],[-175,10],[-121,-36],[-113,4],[0,35],[-112,6],[-26,94],[-171,84],[-104,20],[-47,-33],[-36,55],[-62,10],[-37,-24],[-10,-64],[30,-74],[-22,-18],[34,-105],[-16,-64],[42,-69],[-13,-69],[-94,-13],[-42,-57],[-75,27],[-28,-62],[-102,-17],[-75,76],[-128,-28],[-61,39],[-32,-9],[-23,46],[-100,14],[-46,82],[3,65],[-94,87],[22,65],[-51,29],[-1,59],[-62,-7],[6,-20],[-41,-20],[-30,0],[-1,24],[-29,-18],[-28,94],[-14,-48],[6,-20],[-10,-30],[-58,58],[-50,-14],[18,-105],[-47,-88],[-86,7],[-34,-27],[-27,16],[-46,-39],[36,-58],[-97,-19],[-99,80],[-7,101],[67,34],[-19,62],[-22,-26],[-48,5],[-1,32],[-29,11],[-6,-34],[-78,59],[-45,-61],[-74,108],[-70,28],[-98,-33],[-14,6]],[[3755,3831],[-21,34],[-102,-5],[-41,28],[-201,-41],[-75,249]],[[3092,1816],[-33,2],[-20,66],[69,652],[81,186],[43,8],[36,43],[42,-3],[59,118],[152,127],[108,33],[32,160],[32,43],[2,43],[-57,47],[9,68],[80,72],[42,77],[-34,149],[20,124]],[[0,2303],[12,-17],[-8,-47],[65,-38],[48,19],[79,115],[54,-15],[38,37],[48,4],[0,27],[22,-9],[13,26],[36,-15],[16,25],[88,-63],[106,-14],[-8,20],[38,28],[-18,31],[23,-4],[11,37],[-23,14],[39,14],[-31,5],[9,26],[176,-13],[60,25],[44,-22],[21,88],[51,28],[31,-46],[21,8],[38,-46],[125,-66],[33,-125],[49,-63],[55,14],[13,-28],[37,-3],[38,37],[66,-15],[18,-174],[127,-228],[3,-113],[54,-6],[54,-45],[10,-64],[26,1],[-7,-38],[34,-33],[63,-6],[56,-43],[99,16],[59,-24],[-4,-19],[49,5],[9,129],[53,12],[23,-48],[6,22],[30,-19],[17,30],[9,-29],[1,51],[38,-22],[6,33],[5,-23],[31,20],[46,-35],[-4,41],[66,35],[132,-6],[85,51],[-7,16],[97,-67],[63,43],[30,-69],[19,31],[125,9],[-15,47],[62,20],[9,33]],[[3755,3831],[34,66],[77,33],[25,166]],[[3092,1816],[9,31],[143,67],[86,-69],[82,-1],[-24,-71],[-50,-29],[81,-113],[146,-30],[-13,-129],[70,-75],[3,-126],[64,-61],[26,-89],[45,-49],[47,67],[94,-12],[-1,26],[69,-44],[92,48],[35,-16]],[[4096,1106],[0,-10]],[[4096,1133],[0,-7]],[[975,1908],[89,34],[15,73],[145,96]],[[1816,0],[183,293],[406,221],[480,465],[168,681],[122,148]],[[1885,86],[-61,-86]],[[0,1392],[5,4],[91,123],[271,703],[51,93],[70,51]],[[510,3219],[-22,95],[-15,35],[-37,62],[4,25],[-5,26],[10,74],[-39,111],[-43,53],[18,71],[-12,53],[-44,19],[-11,0],[-93,-58],[-39,17],[-6,34],[-17,23],[-73,40],[-3,1],[-2,1],[-5,1],[-8,-2],[-5,-1],[-4,-3],[-19,-12],[-9,-3],[-29,1],[-2,1]],[[0,3883],[2,-1],[3,-1],[3,0],[3,-1],[11,0],[6,1],[5,0],[4,2],[4,1],[24,15],[18,1],[76,-41],[16,-23],[2,-23],[1,-2],[1,-4],[2,-3],[1,-2],[4,-4],[2,-1],[3,-2],[30,-10],[4,-1],[4,-1],[5,0],[3,0],[4,0],[6,2],[3,1],[3,2],[3,2],[18,13],[11,7],[3,1],[2,2],[3,3],[1,2],[1,3],[5,11],[1,2],[13,9],[11,0],[5,-2],[9,-8],[3,-1],[27,-8],[12,-53],[-18,-60],[-1,-3],[0,-2],[0,-6],[2,-4],[2,-4],[40,-45],[2,-7],[2,-44],[1,-4],[1,-5],[2,-5],[2,-3],[18,-22],[11,-21],[-10,-74],[1,-5],[4,-21],[-4,-18],[0,-3],[0,-4],[1,-5],[2,-3],[34,-54],[15,-35],[4,-42],[3,-10],[15,-43]],[[3571,0],[-3,117],[-35,270],[23,153],[-58,155],[-59,45],[-52,218],[-174,315],[-15,97],[22,90],[-32,274],[20,125],[-33,-51]],[[1613,0],[-290,241],[-229,346],[-57,9],[-173,-93],[-53,-1],[-47,24],[-87,150],[-153,55]],[[524,731],[-153,15],[-248,-248],[-56,-153],[-20,-30],[-47,-42]],[[0,279],[47,37],[21,33],[48,137],[2,5],[5,8],[39,39],[162,163],[47,46],[5,3],[5,2],[6,1],[3,0],[84,-14],[50,-8]],[[975,1908],[89,34],[15,73],[145,96]],[[510,3219],[26,-217],[-51,-81],[-5,-78],[-282,-224],[-198,1]],[[2895,0],[133,61],[80,2],[113,188],[13,61],[207,142],[96,103],[-7,43]],[[1664,1766],[-152,-116],[-179,-221],[-83,-45],[-42,-107],[-111,-92],[-48,13],[-89,-78],[-93,-177],[-137,-162],[-176,-53],[-50,6]],[[352,729],[14,13]],[[366,743],[157,112],[-93,44],[-29,113],[-111,128],[-52,134],[61,95],[18,152],[120,339],[3,177],[58,59],[-30,33],[29,86],[-115,5],[16,62]],[[3175,1808],[-122,-148],[-168,-681],[-480,-465],[-394,-210],[-194,-304]],[[633,3558],[5,-42]],[[639,3516],[-3,42]],[[1347,790],[-3,1]],[[199,737],[4,-16]],[[3192,1977],[-28,-19]],[[3164,1958],[-6,-4],[-2,-4]],[[3157,1950],[2,4],[5,4]],[[3164,1958],[25,20],[5,3]],[[3315,2225],[-61,-170]],[[3391,2459],[-70,-177]],[[3438,2590],[-8,-47]],[[3438,2590],[2,3]],[[3439,2594],[-1,-4]],[[3440,2593],[4,1]],[[3440,2593],[0,2]],[[3440,2595],[-1,0],[0,-1],[1,-1]],[[3444,2594],[-4,1]],[[3527,2586],[-83,8]],[[3609,2576],[-79,10]],[[3612,2578],[-3,-2]],[[3609,2576],[6,0]],[[1615,1856],[14,-29]],[[1647,1789],[-9,-37]],[[264,1236],[8,47]],[[397,2238]],[[725,2489],[-32,0]],[[517,3312],[11,15],[1,2],[37,64]],[[566,3393],[12,21]],[[578,3414],[-12,-21]],[[566,3393],[-38,-64],[-1,-2],[-2,-4],[-7,-8]],[[603,3496],[24,9]],[[627,3505],[-24,-8]],[[190,772],[9,-35]],[[1447,2087]],[[3636,595],[8,-22]],[[3693,562],[49,-70]],[[3791,489],[24,-73],[45,5]],[[3871,409],[52,-37]],[[3969,370],[94,-19]],[[4070,344],[24,-24]],[[4096,318]],[[1479,2064],[-1,0]],[[2183,134],[63,95],[331,168],[32,131],[91,124],[92,302]],[[2792,956]],[[2792,956],[-1,-1],[0,-1],[1,1],[0,1]],[[2792,955],[0,1]],[[2792,956],[17,57]],[[2904,1247],[9,23]],[[3051,1678],[3,10]],[[3054,1688],[1,0]],[[3054,1688]],[[3054,1690],[0,-1]],[[3055,1688]],[[3056,1690],[-1,0]],[[3056,1689],[0,1]],[[3056,1690],[62,90]],[[779,789],[-1,-52]],[[1142,2437],[6,-21]],[[1195,2339],[-7,-8]],[[397,2238],[-56,-61]],[[3141,1852],[-2,9]],[[1287,3288],[1,-1]],[[1152,2952],[-14,14]],[[1255,4007],[27,2]],[[1478,2064],[-31,23]],[[1245,2724],[7,15]],[[1722,2032],[-9,12]],[[304,2089],[-71,-247],[-100,-208],[-133,-161]],[[342,2171],[-24,-59]],[[3970,411],[-20,-4]],[[3285,1572],[35,129],[-44,146]],[[546,868],[5,-19]],[[1854,40],[34,92]],[[1421,1541],[-11,-24]],[[3430,2543],[-39,-84]],[[3740,1836],[11,17]],[[1050,2825],[79,17]],[[4029,3272],[-6,0]],[[1214,2116],[44,57]],[[1680,3893],[4,32]],[[1784,2836],[27,10]],[[581,777],[1,0]],[[583,777],[-1,1]],[[583,776],[1,0]],[[928,577]],[[929,577],[0,1]],[[1061,589],[0,1]],[[1062,587],[-1,1]],[[1348,1495],[-1,-1]],[[1349,1495],[2,1]],[[1638,1910],[1,1]],[[1738,3447],[-25,89]],[[3067,129],[2,0]],[[1349,1496],[-1,-1],[1,-1],[0,1],[0,1]],[[2324,1201],[1,0],[-1,0]],[[3411,2931],[3,0]],[[3414,2931],[0,-10]],[[3415,2921],[-1,10]],[[2942,1563],[-34,13]],[[815,190],[23,-37]],[[1869,1927],[-5,48]],[[467,2379],[0,-2]],[[510,2879],[3,26]],[[3383,395],[1,-1]],[[3556,554]],[[3556,555]],[[3071,1731],[62,120],[128,32]],[[3262,1882],[22,-24]],[[3635,597],[1,-2]],[[3644,573],[49,-11]],[[3742,492],[49,-3]],[[3860,421],[11,-12]],[[3923,372],[46,-2]],[[4063,351],[7,-7]],[[4094,320],[2,-2]],[[2377,3324],[25,-7]],[[487,2145],[-57,-108],[-89,-465]],[[3132,1831],[9,21]],[[2339,3360],[3,-4]],[[2342,3357],[-1,1]],[[834,215],[5,9]],[[838,917],[204,272],[34,-3],[254,191]],[[415,178],[-26,-29]],[[677,127],[-6,13]],[[700,2570],[21,3]],[[737,2688],[14,4]],[[779,2794],[-10,6]],[[779,789],[61,111]],[[781,2770],[3,23]],[[823,2628],[-12,-5]],[[834,146],[-3,2]],[[1478,2064],[-29,21]],[[1629,1827],[14,-30]],[[1643,1797],[1,-1]],[[1643,1797],[13,4]],[[398,3100],[6,-5],[2,-1]],[[406,3094],[2,-2]],[[406,3093],[0,1]],[[406,3094],[1,0],[0,1],[4,5],[1,2]],[[3635,599],[0,-2]],[[1755,1523],[-40,48]],[[1851,1505],[40,-31]],[[2324,1201],[-48,329]],[[2509,1225],[-184,-24]],[[2811,1077],[-119,61],[-92,-6],[-66,70]],[[3635,599]],[[1638,1752],[-5,-9]],[[1713,2044],[-17,69],[-102,-39]],[[3950,3890],[23,62]],[[3192,1978],[78,-1],[47,-32]],[[3731,1793],[9,43]],[[3795,1666],[-49,70]],[[218,1977],[-39,82],[-107,37],[-42,-23]],[[1241,3603],[-1,-1]],[[1267,3357],[5,-50]],[[1282,4009],[0,11]],[[752,2696],[-1,-4]],[[823,2628],[56,-109]],[[1662,3924],[61,-4]],[[1724,3920],[71,-75]],[[2348,3349],[3,-3]],[[3971,4057],[-4,39]],[[1089,2130],[-89,5],[-98,56],[-35,-32],[-24,34],[-77,-28],[-85,99],[-58,1],[-85,-146],[-51,26]],[[1240,3602],[-8,16],[-29,-48],[-73,-17]],[[1176,2099],[-4,-7]],[[1603,2069],[-3,6]],[[1676,1804],[117,-22]],[[1172,2092],[-39,-40]],[[652,2328],[29,-64]],[[739,2444],[-9,38]],[[1838,16],[-1,5]],[[1803,2937],[-7,123]],[[1803,2937],[11,-90]],[[1811,2846],[3,1]],[[2730,1935],[222,9]],[[2045,0],[85,77]],[[2130,77],[2,3]],[[2132,80],[48,55]],[[2182,135],[-2,0]],[[2183,135],[-1,0]],[[2904,1577],[-33,33]],[[3139,1866],[0,-5]],[[722,630],[17,-29]],[[739,601],[18,-80],[79,-35],[52,25]],[[1654,1746],[67,-98],[-6,-77]],[[1755,1523],[18,-43],[78,25]],[[1891,1474],[101,-5],[51,-55]],[[2079,1441],[129,85],[68,4]],[[725,2489],[5,-7]],[[3566,598],[11,6]],[[330,748],[1,1]],[[332,750],[1,1]],[[325,1109],[-61,-33],[-100,-105],[12,-12]],[[1264,2191],[16,62]],[[933,3671],[79,221]],[[3686,3888],[10,45],[77,60]],[[1910,218],[10,101]],[[1919,321],[42,183],[-25,128]],[[323,2140],[2,8]],[[1650,1776],[2,-27]],[[1738,1569],[17,-46]],[[1891,1474],[-7,48]],[[3276,1847],[5,10]],[[614,3548],[8,-33]],[[176,959],[-21,-44],[35,-143]],[[256,2808],[14,1]],[[3345,1439],[-28,9]],[[3635,601],[0,15]],[[3883,399],[67,8]],[[230,2806],[20,2]],[[3156,1950],[-20,-66]],[[3139,1866],[18,84]],[[3213,1992],[-21,-15]],[[3194,1981],[19,11]],[[3254,2055],[-41,-63]],[[3530,2586],[-3,0]],[[2879,0],[504,394]],[[3412,2919],[0,-1]],[[3602,2722],[17,76],[-106,119],[-42,4],[-51,-36],[-7,27]],[[3751,1853],[30,45]],[[3412,2921],[0,-2]],[[399,3085],[7,8]],[[411,3102],[-4,-6]],[[1142,2437],[0,-4]],[[471,4096],[-20,-102],[15,-116],[4,-5]],[[470,3873],[35,-58]],[[505,3815],[2,-3],[10,-9],[34,-25],[52,-49],[1,-2],[2,-2]],[[606,3725],[2,-3],[16,-36],[5,-25]],[[629,3661],[1,-8],[3,-95]],[[636,3558],[-5,97],[-2,6]],[[629,3661],[-23,64]],[[606,3725],[-1,3],[-39,40],[-54,40],[-7,7]],[[505,3815],[-3,3],[-31,51],[-1,4]],[[470,3873],[-18,121],[20,102]],[[3385,396]],[[3385,396]],[[3385,396],[91,59],[80,99]],[[3557,555],[9,43]],[[3636,599],[-1,0]],[[3636,598],[1,0]],[[3637,598],[-1,0]],[[3637,598],[99,114],[118,2],[119,35]],[[3975,750],[-2,-1]],[[3973,749],[2,0]],[[3979,750],[-3,0]],[[3976,749],[3,1]],[[3979,750],[31,2]],[[4014,752],[-4,0]],[[4014,752],[82,-3]],[[3383,395],[1,-1],[1,1],[-1,1],[-1,-1]],[[3557,554],[0,1],[-1,-1],[1,0]],[[3261,1883],[1,-1]],[[1286,2745],[66,-51],[24,-148]],[[2791,955],[0,-1]],[[248,690],[27,17]],[[297,719],[0,1]],[[298,720],[-1,0]],[[297,719],[1,1]],[[298,720],[14,10]],[[312,730],[1,0]],[[312,731],[0,-1]],[[314,732],[-1,0]],[[314,731],[0,1]],[[314,732],[17,17]],[[332,750],[11,10]],[[2272,3257],[75,58]],[[2461,3318],[9,4]],[[1072,2411],[-41,28]],[[1264,2191],[-6,-18]],[[3191,1978],[1,0]],[[3723,1924],[-72,9],[-114,-51],[-168,29],[-52,34]],[[3746,1736],[-15,57]],[[3987,1245],[-142,120],[-20,86],[33,31],[-16,64],[-30,13],[5,99],[-22,8]],[[3942,1132],[-4,-8]],[[3942,1132],[1,3]],[[3943,1135],[30,27],[14,83]],[[4096,1188],[-109,57]],[[3781,1898],[-58,26]],[[986,2607],[0,-1]],[[1032,2476],[-4,10]],[[1125,2429],[8,4]],[[1241,2338],[11,-19]],[[1250,2309],[7,-8]],[[1255,2251],[25,2]],[[3402,4061],[-25,-88],[37,5]],[[504,3057],[9,-49]],[[513,3008],[-8,48]],[[811,2623],[-38,-50],[-52,0]],[[769,2800],[-6,5]],[[838,917],[1,-5]],[[913,519],[40,-3]],[[460,2386],[1,-5]],[[462,2381],[0,2]],[[933,3671],[82,-27],[115,-91]],[[781,2770],[-29,-74]],[[784,2793],[-5,1]],[[3773,3993],[88,-62]],[[3861,3931],[3,-4]],[[3864,3927],[-3,4]],[[1633,1743],[-25,-30]],[[1793,1782],[1,63],[75,81]],[[1012,3892],[57,124],[-25,80]],[[700,3261],[81,33],[76,-33],[120,18],[31,-29],[90,40],[173,18],[21,-39],[154,-18],[94,-101],[246,-33]],[[1787,3116],[303,-1],[182,142]],[[2470,3322],[106,48]],[[2849,3411],[223,-49]],[[3083,3357],[167,-73],[147,-362]],[[1786,3117],[0,-1],[1,0],[0,1],[-1,0]],[[4096,1768],[-246,98]],[[0,812],[152,-53]],[[1245,2724],[-39,-61],[1,-63],[-73,-1],[32,-49]],[[1605,2163],[-11,-89]],[[1793,1782],[110,13]],[[364,735],[25,-7]],[[2811,1077],[14,-7]],[[1910,1789],[3,-12]],[[2017,1758],[9,-2]],[[2125,1853],[7,7]],[[2647,1932],[65,2]],[[721,632],[1,-2]],[[888,511],[40,29],[0,37]],[[533,3211],[-1,16]],[[1285,2745],[-33,-6]],[[1605,2163],[-74,128],[-74,32],[-94,121],[13,102]],[[1843,28],[11,12]],[[1888,132],[2,7]],[[1890,139],[18,68]],[[3378,380],[-29,-122],[-2,-179],[-42,-79]],[[3306,0],[41,79],[32,302]],[[935,580],[99,16]],[[1608,1713],[46,33]],[[1617,1857],[-1,0]],[[1616,1857],[1,0]],[[1652,1749],[4,77],[-39,31]],[[2978,1550],[-10,0]],[[3045,1707],[19,19]],[[3073,1606],[-9,-22]],[[736,2444],[3,0]],[[3071,1731]],[[3634,617],[-2,2]],[[3635,598],[0,-1]],[[397,2238]],[[397,2238]],[[3636,599],[-1,0]],[[615,768],[-32,9]],[[1869,1926],[0,1]],[[3136,1884],[1,-10]],[[264,1236],[61,-127]],[[274,1289],[-2,-6]],[[3577,604],[57,-6]],[[3635,598],[-1,0]],[[3634,598],[1,0]],[[3635,599]],[[704,137],[-22,2]],[[821,203],[7,5]],[[910,288],[-60,-61]],[[912,290],[25,4]],[[982,434],[0,37]],[[2809,1013],[16,55]],[[2825,1068],[1,3]],[[2826,1071],[40,50]],[[2866,1121],[1,1]],[[2866,1122],[0,-1]],[[2867,1123],[0,-1]],[[2867,1122],[0,1]],[[2867,1122],[0,1],[-1,-1]],[[2866,1122],[1,0]],[[2867,1123],[45,70],[-8,54]],[[2913,1270],[41,71]],[[2954,1341]],[[2954,1341]],[[2954,1342]],[[2954,1342],[97,336]],[[2954,1342]],[[3118,1780],[14,51]],[[2954,1341],[0,1],[0,-1]],[[1627,32],[36,-32]],[[1594,2074],[82,-270]],[[1740,2448],[-89,-118],[-46,-167]],[[1713,3536],[26,140],[-59,217]],[[1787,3117],[-49,330]],[[1740,2448],[1,2]],[[1741,2450],[-1,-2]],[[1743,2453],[-2,-2]],[[1742,2451],[1,2]],[[1784,2836],[-46,-9],[68,-153],[-63,-221]],[[1796,3060],[-9,56]],[[1903,1795],[7,-6]],[[1913,1777],[104,-19]],[[2026,1756],[99,97]],[[2132,1860],[92,90],[161,-10],[84,45],[106,-50]],[[2575,1935],[1,0]],[[2576,1935],[-1,0]],[[2577,1934],[1,1]],[[2577,1935],[-1,1],[0,-1]],[[2576,1935],[0,-1],[1,1]],[[2578,1935],[-1,0]],[[2578,1935],[69,-3]],[[2712,1934],[18,1]],[[2952,1944],[53,2]],[[1742,2451],[-1,0],[0,-1],[1,0],[0,1]],[[582,776],[-97,-59],[-82,10]],[[350,142],[39,7]],[[1212,2114],[2,1]],[[1614,1858],[0,-1]],[[736,2444],[-75,-62],[-9,-54]],[[1028,2486],[-42,40]],[[986,2606],[6,-66]],[[1031,2439],[1,37]],[[1125,2429],[-53,-18]],[[1133,2433],[9,0]],[[1153,2404],[-2,9]],[[1188,2331],[0,29],[-32,8]],[[1195,2339],[46,-1]],[[1250,2309],[2,10]],[[1257,2301],[-2,-50]],[[557,3226],[-28,0]],[[533,3226],[24,0]],[[577,3246],[2,-27],[-22,7]],[[821,203],[-8,-7]],[[1063,597],[0,1]],[[1344,791],[-92,16]],[[1349,790],[-2,0]],[[1561,679],[-71,43]],[[1802,631],[-197,22],[-42,26]],[[1936,632],[-94,2]],[[2364,3336],[-14,12]],[[2351,3346],[12,-11]],[[1129,2842],[31,20],[-8,90]],[[3321,2282],[-6,-57]],[[341,2177],[-16,-29]],[[294,2827],[-3,-4]],[[292,2823],[4,6]],[[3635,597],[1,2]],[[913,519],[-25,-8]],[[1131,2106],[41,-14]],[[1208,2115],[4,-1]],[[1214,2115],[167,-4],[68,-26]],[[1608,1713],[-57,-48],[-55,10],[-37,-30],[-38,-104]],[[1479,2064],[73,-72],[4,-35]],[[1614,1858],[-53,87]],[[1214,2116],[-2,1]],[[543,3114],[0,-1]],[[590,3273],[0,-1]],[[0,2709],[175,74]],[[1330,1377],[70,121]],[[1616,1857],[-2,0]],[[3937,3784],[-2,54]],[[1212,2117],[-4,-2]],[[506,2868],[-8,-9]],[[498,2859],[-38,-41],[-14,-14],[-17,-71],[19,-138],[-44,-108],[-2,-31],[0,-5],[57,-65]],[[459,2386],[1,0]],[[462,2383],[-1,1],[-2,2]],[[459,2386],[-56,65],[-1,5],[47,139],[-19,138],[17,70],[13,15],[38,41]],[[498,2859],[5,5]],[[1561,1945],[-5,12]],[[331,749],[1,0],[0,1],[-1,0],[0,-1]],[[2871,1610],[-36,45],[-71,-7],[-8,55],[-125,-25],[-121,-126],[-79,13],[-155,-35]],[[3567,601],[1,1]],[[502,3068],[2,-11]],[[505,3056],[-2,12]],[[513,3008],[6,-48]],[[519,2960],[-6,48]],[[515,2923],[4,37]],[[2534,1202],[-25,23]],[[1656,1801],[13,2]],[[203,721],[-1,0]],[[3281,1857],[3,1]],[[3864,3927],[3,-4]],[[3867,3923],[-3,4]],[[3935,3838],[-68,85]],[[1837,21],[6,7]],[[1890,139]],[[1908,207],[2,11]],[[324,757],[7,-7]],[[578,3414],[3,4]],[[581,3418],[2,4],[4,68],[16,6]],[[603,3497],[-16,-7],[-6,-72]],[[581,3418],[-1,-1],[-2,-3]],[[2127,0],[59,81],[-3,53]],[[1841,1967],[-99,22],[-12,27]],[[928,578],[-15,-59]],[[1063,598],[13,131],[29,22]],[[1136,775],[61,24]],[[1198,800],[54,7]],[[2254,4096],[-70,-60],[-27,-70],[21,-86]],[[3149,20],[2,-20]],[[415,178],[262,-51]],[[3068,130],[1,-1]],[[1838,16],[-6,-16]],[[312,731],[1,-1],[1,1],[-1,1],[-1,-1]],[[1815,3876],[3,9]],[[3620,794],[-64,54]],[[429,4096],[16,-187],[154,-257],[15,-104]],[[1050,2825],[21,-54],[-44,-103],[104,-73]],[[1109,2996],[29,-30]],[[1248,3988],[7,19]],[[469,2387],[-2,-8]],[[467,2377],[2,10]],[[469,2387],[27,354]],[[496,2741],[1,1],[-1,0]],[[496,2742],[0,-1]],[[496,2742],[14,137]],[[361,738],[-16,6]],[[929,578],[6,2]],[[1034,596],[29,1]],[[3850,1866],[-69,32]],[[1287,3292],[-3,1]],[[1288,3287],[6,-147],[-57,-66],[-49,3],[-79,-81]],[[1240,3602],[-12,-143],[39,-102]],[[1321,3632],[-26,60],[6,68],[44,76],[-5,38],[-16,-27],[-63,39],[7,56],[-36,31],[16,15]],[[1272,3307],[12,-14]],[[1282,4020],[-18,21],[55,55]],[[3686,3888],[-147,90],[-111,2]],[[828,208],[6,7]],[[839,224],[11,3]],[[2576,3370],[150,43],[123,-2]],[[3072,3362],[11,-5]],[[615,768],[106,-136]],[[2337,3365],[-38,64]],[[2337,3365],[2,-5]],[[2341,3358],[-4,7]],[[1715,1571],[23,-2]],[[1884,1522],[-33,-17]],[[3054,1690],[-9,17]],[[3054,1690],[0,-1]],[[3054,1690]],[[3055,1688],[1,-1]],[[3056,1687],[-1,1]],[[3056,1687],[28,-52],[-11,-29]],[[3064,1726],[8,6]],[[3317,1448],[-32,124]],[[532,3227],[3,25],[-18,60]],[[518,3315],[-2,-5],[-1,-6],[10,-28],[9,-24],[-4,-42]],[[3722,4064],[51,-71]],[[888,511]],[[3065,1583],[-1,1]],[[3063,1579],[-16,-56]],[[1151,2413],[-3,3]],[[1156,2368],[-3,36]],[[3935,3838],[11,30]],[[3068,130],[81,-110]],[[3626,2854],[31,64],[82,62]],[[4023,3272],[-63,-7],[-76,-110],[0,-56],[-75,-52]],[[3937,3784],[109,-143]],[[4078,3536],[18,-141]],[[1614,1857]],[[1615,1857],[0,-1]],[[3566,4096],[5,0]],[[3669,4096],[53,-32]],[[1600,1881],[14,-23]],[[1287,3292],[0,-4]],[[3401,1232],[22,56]],[[3430,1305],[-22,121]],[[3470,1179],[-7,18]],[[3481,966],[-15,65]],[[3475,894],[8,66]],[[3556,848],[-81,44]],[[3502,1073],[-2,13]],[[2347,3315],[6,7]],[[2421,3316],[1,0]],[[2440,3317],[21,1]],[[1108,2122],[-1,0]],[[361,738],[3,-3]],[[403,727],[-14,1]],[[543,3113],[-25,-39]],[[518,3074],[25,12],[1,33],[-11,92]],[[530,3210],[13,-96]],[[3615,2576],[2,2],[-3,2],[-2,-2],[3,-2]],[[3615,2576],[88,-100],[56,-20]],[[3759,2456],[-55,19],[-64,82],[-24,23]],[[3936,2423],[-177,33]],[[4096,2387],[-8,4],[-32,14],[-120,18]],[[3936,2423],[160,-36]],[[2366,3333],[-1,2]],[[2420,3317],[-1,0]],[[2424,3317],[-2,0]],[[3380,1439],[-35,0]],[[3635,600],[0,1]],[[1644,1914],[4,3]],[[1644,1914],[-4,-2],[-1,-1],[2,0],[3,3]],[[1648,1917],[1,0]],[[1649,1918],[-1,-1]],[[838,153],[-4,-7]],[[2350,3348],[-8,9]],[[2342,3356],[2,-3],[4,-4]],[[0,539],[248,151]],[[423,778],[159,-1]],[[1348,1495],[-33,-7],[-162,-243],[-189,-73],[-104,-230],[-106,-94],[-37,-71],[-102,-9]],[[1366,1501],[-17,-5]],[[1608,1713],[-149,-68],[-39,-100]],[[1638,1910],[-38,-29]],[[1615,1858],[-1,0]],[[1615,1856],[1,1]],[[583,777],[-1,0],[0,-1],[1,1]],[[274,1289],[94,51],[53,95],[1,102],[-81,35]],[[291,2823],[-35,-15]],[[270,2809],[22,14]],[[407,3096],[-1,-1],[0,-1]],[[406,3094],[-1,-1],[-1,-1],[-7,-9],[-26,-22],[-19,-24],[-58,-210]],[[296,2829],[8,11],[10,29],[12,54],[2,9],[2,10],[3,12],[20,83],[46,48]],[[518,3074],[-26,-7],[-84,26],[-2,1]],[[406,3094],[-2,2]],[[416,3088],[54,-21],[12,-1],[17,2],[19,6]],[[2968,1550],[-22,12]],[[513,2905],[2,18]],[[739,601]],[[1107,2122],[-18,8]],[[1131,2106],[-23,16]],[[1208,2115],[-24,-8]],[[3131,1833],[1,-2]],[[4096,485],[-126,-74]],[[590,3272],[-13,-26]],[[590,3273],[69,-4],[13,-24],[28,16]],[[3397,2922],[14,6]],[[3411,2928],[1,-7]],[[3412,2921]],[[1725,2027],[-3,5]],[[1864,1975],[-23,-8]],[[1654,1746],[-2,3]],[[4096,3320],[-67,-48]],[[3054,1689],[1,-1]],[[3055,1688],[-1,2]],[[992,2540],[-6,-14]],[[737,2688],[-37,-118]],[[626,3500],[-4,15]],[[2825,1070],[-1,1]],[[487,2145],[-90,93]],[[451,2348],[-109,-177]],[[467,2375],[-14,-27]],[[467,2375],[0,2]],[[467,2377],[0,-2]],[[1400,1498],[10,19]],[[345,744],[-13,4]],[[1614,1857],[1,0]],[[3946,3868],[4,22]],[[3973,3952],[-2,105]],[[3610,2590],[-8,132]],[[3610,2590],[3,-11]],[[3616,2580],[-6,10]],[[218,1977],[53,31],[33,81]],[[318,2112],[5,28]],[[3072,1732],[-1,-1]],[[3635,616],[-1,1]],[[2353,3322],[10,11]],[[2363,3333],[1,1]],[[2363,3335],[0,-2]],[[2363,3335],[2,-1]],[[2365,3334],[0,1],[-1,1],[-1,-1]],[[2377,3324],[-12,10]],[[2402,3317],[18,-1]],[[2422,3316],[-1,0]],[[2422,3316],[18,1]],[[152,759],[50,-38]],[[1644,1796],[3,-7]],[[3809,3047],[-70,-67]],[[4046,3641],[24,-13],[8,-92]],[[3408,1426],[-28,13]],[[3463,1197],[-62,35]],[[3423,1288],[7,17]],[[3466,1031],[36,42]],[[3500,1086],[-30,93]],[[3475,892],[0,2]],[[3483,960],[-2,6]],[[3632,619],[-12,175]],[[1063,597],[-2,-8]],[[1061,588],[70,-39],[69,-151],[158,-109],[269,-257]],[[928,578],[0,-1],[1,1],[-1,0]],[[1061,588],[0,1],[-1,-1],[1,0]],[[175,2783],[55,23]],[[404,3096],[-6,4]],[[408,3092],[8,-4]],[[30,2073],[-14,84],[25,49],[-40,37],[6,53],[-7,4]],[[1240,3602]],[[397,2238]],[[2825,1069]],[[2826,1070],[-1,1]],[[1614,1858],[0,-1]],[[2908,1576],[-4,1]],[[693,2489],[1,12]],[[36,1519],[1,0]],[[38,1519],[-1,0]],[[37,1519],[1,0]],[[38,1519],[0,1]],[[38,1519]],[[38,1519],[44,-22]],[[272,1283],[-8,-47]],[[307,1399],[-52,-101],[19,-9]],[[325,1109],[53,-75],[39,4],[71,-132],[58,-38]],[[551,849],[31,-72]],[[1479,4096],[183,-172]],[[1723,3920],[1,0]],[[1795,3845],[1,-1],[4,2]],[[1800,3846],[1,2],[3,1]],[[1798,3848],[1,4]],[[1798,3848],[2,-2]],[[1800,3846],[24,-25],[14,-10],[55,-18],[121,77],[51,-14],[113,24],[24,-182],[79,-152],[18,-117]],[[1799,3852],[5,-3]],[[1804,3849],[2,2]],[[318,2112],[-14,-23]],[[778,737],[-56,-107]],[[1806,3851],[9,25]],[[1818,3885],[-2,95],[68,79]],[[1885,4063],[-11,33]],[[1884,4059],[1,1]],[[1885,4063],[-1,-4]],[[1885,4061],[0,-1]],[[1885,4060],[0,3]],[[1105,751],[31,24]],[[1197,799],[1,1]],[[682,139],[-11,1]],[[763,2805],[19,27],[-14,29],[-81,20],[-2,25]],[[831,148],[-127,-11]],[[839,912],[1,-12]],[[910,288],[2,2]],[[937,294],[32,6],[13,134]],[[982,471],[-29,45]],[[2043,1414],[36,27]],[[3412,4096],[-10,-35]],[[3428,3980],[-14,-2]],[[1730,2016],[-5,11]],[[2978,1550],[6,-22],[63,-5]],[[82,1497],[47,-4],[67,-65],[111,-29]],[[1321,3632],[-80,-29]],[[248,690]],[[275,707],[20,11]],[[295,718],[1,1]],[[295,719],[0,-1]],[[297,720],[0,-1]],[[343,760],[80,18]],[[1420,1545],[-54,-44]],[[1184,2107],[-8,-8]],[[1490,722],[-141,68]],[[1842,634],[-40,-3]],[[3609,2817],[17,37]],[[1616,1856],[0,1]],[[127,0],[34,93],[69,58],[120,-9]],[[3976,749],[0,1],[-1,-1],[1,0]],[[3412,2918],[1,-6]],[[3413,2910],[2,7]],[[3414,2921],[11,-5],[9,-1]],[[3434,2915],[-19,6]],[[3434,2915],[37,9]],[[3471,2924],[1,-3],[1,1],[-2,2]],[[0,4096],[4096,0],[0,-4096],[-4096,0],[0,4096]],[[4096,4038],[-123,14],[-17,44],[140,0],[0,-58]],[[553,186],[3,29],[33,7],[19,-24],[175,18],[19,-22],[124,108],[36,-26],[20,12],[0,185],[-63,146],[42,11],[0,113],[40,25],[19,60],[82,-9],[11,30],[75,2],[1,26],[11,-27],[60,21],[25,39],[159,14],[132,-65],[48,-62],[72,11],[109,110],[24,-18],[6,44],[42,-13],[134,40],[79,124],[47,27],[41,-23],[231,42],[52,69],[32,-1],[44,43],[53,97],[96,71],[60,-8],[-2,47],[4,-49],[72,-16],[139,289],[13,-15],[25,44],[42,6],[-17,45],[65,24],[15,62],[142,65],[88,-70],[80,1],[-25,-74],[-46,-33],[85,-115],[-22,-53],[15,-43],[-41,-67],[30,-34],[23,-123],[-34,-69],[66,-37],[32,-83],[8,-48],[-37,-36],[4,-63],[23,-3],[-5,34],[12,-20],[-8,-21],[-18,6],[1,-74],[143,-76],[19,-239],[55,-9],[45,-73],[53,-1],[24,-76],[58,7],[-7,-70],[71,25],[130,-27],[2,16],[11,6],[-10,-33],[27,-21],[-2,-24],[-52,42],[-6,-34],[-30,-12],[-67,62],[-83,-31],[-115,120],[-65,11],[-31,-22],[-18,22],[-36,-18],[-13,169],[-51,74],[49,107],[-49,26],[-39,-10],[-75,48],[-3,105],[44,73],[-9,30],[-40,-13],[-41,45],[57,37],[-3,33],[-17,27],[-84,-6],[-24,49],[13,54],[48,-14],[15,46],[-37,101],[58,109],[-46,59],[0,57],[34,39],[-33,21],[-20,67],[-27,-1],[21,40],[-57,77],[-129,-33],[-61,-118],[-42,-30],[-16,-113],[-39,-15],[-31,-107],[-30,-16],[8,-56],[-74,-29],[-51,-57],[-33,48],[-121,-19],[-48,-49],[3,-43],[-123,-85],[-35,-65],[-206,-20],[-51,-58],[-49,24],[-50,-17],[-48,-92],[-45,-11],[-9,-31],[-52,-18],[-53,17],[-85,-51],[-60,-79],[-32,14],[-119,-27],[-49,50],[-11,-52],[-156,85],[-18,-41],[-65,35],[-85,-25],[-30,24],[-49,-77],[-47,18],[-41,-186],[88,-19],[-42,-97],[31,-87],[-52,-60],[-27,-212],[-112,5],[-9,-19],[-68,64],[-147,-17],[-139,50]],[[1718,2043],[40,28],[28,-56],[87,-14],[32,-63],[67,33],[50,-76],[40,61],[47,8],[-14,94],[22,125],[52,4],[62,183],[85,24],[4,27],[67,-5],[10,-81],[151,41],[92,-43],[108,21],[26,-32],[36,28],[98,-134],[80,6],[50,-78],[31,-2],[-38,-190],[-68,103],[-52,22],[-34,-19],[-1,44],[-128,77],[-68,-121],[37,13],[11,-41],[35,29],[34,-35],[-42,-50],[15,-27],[-121,-27],[-19,104],[-62,-37],[-52,30],[-4,-33],[-31,47],[-45,6],[-40,-43],[4,98],[-59,-42],[-57,18],[-55,-114],[-65,26],[-3,-32],[-42,10],[-26,-42],[40,-57],[55,61],[66,-29],[70,17],[41,-36],[-11,-81],[-219,-15],[2,69],[-40,27],[-32,-11],[-20,-37],[34,-27],[-54,-39],[3,-31],[37,-19],[-5,-109],[-20,-9],[-57,54],[-5,41],[25,0],[1,25],[-36,-2],[12,33],[-35,6],[6,9],[53,-26],[16,27],[-63,21],[-59,-1],[24,-74],[-92,39],[12,-42],[-62,-42],[-18,65],[46,54],[73,-4],[59,32],[-16,31],[-35,-11],[-10,39],[24,19],[-29,45],[-41,-8],[-17,32],[-12,-54],[-32,-18],[-54,163]],[[2859,4036],[42,52],[44,-8],[7,-31],[55,3],[-35,44],[437,-4],[-17,-77],[23,-26],[-8,-98],[43,-49],[14,-68],[75,-56],[1,-43],[-36,-14],[-16,-58],[-154,-91],[10,20],[-37,26],[8,59],[-67,-18],[-34,21],[-34,84],[13,29],[-21,-4],[25,85],[-103,-74],[-3,25],[-48,6],[0,69],[-24,-18],[-13,-135],[-23,-33],[-39,-2],[18,148],[-103,236]],[[3784,2860],[49,67],[-8,47],[98,-31],[70,16],[-63,-28],[34,-4],[1,-37],[-81,-1],[-72,-64],[30,49],[-41,-35],[-17,21]],[[2524,3885],[25,73],[169,60],[-19,62],[64,-15],[-1,31],[412,0],[-68,-78],[-10,-49],[-89,-25],[16,-190],[-175,10],[-122,-36],[-113,4],[1,35],[-67,19],[6,56],[-29,43]],[[3756,0],[-331,0],[32,65],[179,15],[55,113],[38,-24],[31,-113],[-4,-56]],[[1746,0],[-126,0],[32,144],[38,-16],[29,-103],[27,-25]],[[1980,0],[-228,0],[37,36],[-72,156],[32,49],[43,-25],[50,-4],[37,29],[65,-48],[15,-154],[21,-39]],[[1458,1412],[-39,1],[-58,97],[-49,24],[-16,74],[69,-6],[49,-36],[44,-154]],[[3723,1607],[-37,47],[75,103],[-38,46],[21,55],[66,-54],[43,-1],[-3,-93],[-127,-103]],[[3594,583],[-48,26],[-22,64],[38,203],[97,-98],[-65,-195]],[[326,675],[-76,13],[-54,41],[-7,53],[72,45],[-32,146],[75,-8],[66,-145],[53,-42],[-30,-77],[-67,-26]],[[3529,2584],[-89,80],[-57,128],[-16,85],[65,97],[55,-8],[172,-138],[-130,-244]],[[2655,2584],[-55,-120],[-35,-31],[-39,4],[0,98],[-33,0],[-24,73],[26,43],[66,-3],[94,-64]],[[649,3462],[56,-140],[-4,-58],[-52,-95],[-32,0],[55,-195],[-23,-146],[-97,0],[0,97],[-97,-49],[-32,-146],[-130,-146],[-97,130],[-65,211],[125,105],[70,-7],[9,236],[23,57],[32,0],[0,49],[65,0],[0,49],[129,0],[33,146],[44,-4],[-12,-94]],[[2461,3315],[-162,0],[0,245],[36,-22],[54,-99],[57,-36],[15,-88]],[[1780,3069],[95,-51],[69,5],[7,-86],[-80,-184],[-57,-23],[-33,195],[-65,88],[1,59],[63,-3]],[[3352,2015],[-82,-164],[-129,-48],[-98,-98],[61,-206],[-61,-135],[0,-98],[33,0],[5,-55],[-38,-91],[0,-98],[-94,-80],[-68,-10],[-64,41],[-17,83],[114,210],[-19,120],[-13,26],[-33,0],[97,294],[97,97],[33,147],[97,0],[65,97],[97,49],[32,146],[47,-27],[1,-51],[-63,-149]],[[2857,1862],[-80,10],[-57,77],[13,76],[116,71],[44,-12],[86,-86],[-45,-91],[-77,-45]],[[1861,0],[-22,0],[16,114],[24,16],[-17,48],[28,-39],[3,69],[20,-2],[16,-27],[-21,9],[-26,-97],[29,33],[11,-72],[30,-14],[-31,-8],[-4,-30],[-5,0],[-3,53],[-46,-31],[-2,-22]],[[1785,0],[-6,0],[-11,84],[-39,2],[-27,71],[-27,8],[23,21],[30,-51],[9,75],[20,-2],[-1,-37],[38,-2],[-22,-111],[13,-14],[23,41],[20,-20],[-28,-7],[-15,-58]],[[132,738],[24,25],[75,-45],[22,47],[58,8],[26,46],[8,-78],[-26,-4],[10,-22],[-27,-35],[-6,47],[-43,-42],[-23,21],[-39,-17],[-22,43],[-8,-7],[-29,13]],[[147,735],[20,1],[2,3],[-15,2],[-7,-6]],[[2833,979],[39,126],[21,-32],[42,0],[10,-25],[-41,-35],[15,-24],[-32,-7],[29,-57],[-37,-13],[-5,52],[11,15],[-44,-39],[-8,39]],[[2878,966],[3,-2],[11,5],[-6,7],[-8,-10]],[[2299,3487],[41,-10],[-7,-51],[25,4],[30,-48],[8,31],[24,-6],[-5,41],[11,-38],[35,7],[-12,-32],[25,-31],[-37,6],[20,-42],[-100,-6],[-58,175]],[[2402,4096],[-33,-24],[10,-33],[-17,-2],[8,-47],[-8,-5],[-21,45],[30,66],[31,0]],[[1730,559],[16,30],[16,-10],[-15,49],[35,-33],[55,101],[6,-71],[-29,-69],[-24,0],[1,-27],[-32,29],[-11,-40],[-18,41]],[[1332,748],[32,81],[15,-31],[99,-40],[18,-53],[-36,-3],[2,30],[-54,30],[-39,-2],[1,-23],[-38,11]],[[1778,2795],[8,51],[58,-2],[7,-46],[-19,-1],[6,-21],[-13,0],[1,-16],[48,20],[10,-31],[-72,-39],[-34,85]],[[1634,3878],[6,35],[39,19],[-10,27],[20,-5],[-24,62],[19,36],[-8,-58],[42,-24],[23,19],[-5,-39],[24,-27],[11,16],[19,-64],[86,31],[-23,-62],[-13,40],[-46,-15],[1,-24],[-71,75],[-55,-34],[5,-33],[-40,25]],[[1330,1377],[22,70],[-16,44],[90,10],[7,33],[29,-2],[-69,-83],[-15,-59],[-35,-36],[-13,23]],[[0,270],[92,114],[39,-9],[16,25],[16,-65],[69,-22],[-27,-40],[18,-109],[66,12],[108,-60],[-63,-18],[-3,-82],[-55,13],[14,44],[-46,8],[-1,37],[-62,-12],[-54,-106],[-127,0],[0,270]]]}