{"objects":{"water":{"type":"GeometryCollection","geometries":[]},"buildings":{"type":"GeometryCollection","geometries":[]},"places":{"type":"GeometryCollection","geometries":[{"type":"Point","properties":{"name:kg":"Makedonia","name:ka":"\u10db\u10d0\u10d9\u10d4\u10d3\u10dd\u10dc\u10d8\u10d0","name:ko":"\ub9c8\ucf00\ub3c4\ub2c8\uc544(FYROM)","name:cv":"\u041c\u0430\u043a\u0435\u0434\u043e\u043d\u0438 \u0420\u0435\u0441\u043f\u0443\u0431\u043b\u0438\u043a\u0438","name:cu":"\u041c\u0430\u043a\u0454\u0434\u043e\u043d\u0457\ua657","name:kl":"Makedonia","name:cs":"Makedonie","name:ki":"Masedonia","name:kw":"Repoblek Makedoni","name:kv":"\u041c\u0430\u043a\u0435\u0434\u043e\u043d\u0438\u044f \u0420\u0435\u0441\u043f\u0443\u0431\u043b\u0438\u043a\u0430","name:ku":"Makedonya","name:ti":"\u121b\u12a8\u12f6\u1292\u12eb","name:ks":"\u0645\u066e\u06ea\u0633\u0648\u0691\u0648\u0646\u0650\u06cc\u0627","name:to":"Masit\u014dnia [FYROM]","name:tl":"Masedonya","name:ce":"\u041c\u0430\u043a\u0435\u0434\u043e\u043d\u0438","name:ta":"\u0bae\u0bbe\u0b9a\u0bbf\u0b9f\u0bcb\u0ba9\u0bbf\u0baf\u0bbe [\u0b83\u0baa\u0bc8\u0bb0\u0bcb\u0bae\u0bcd]","name:tg":"\u041c\u0430\u043a\u0435\u0434\u043e\u043d\u0438\u044f","name:ca":"Maced\u00f2nia","name:te":"\u0c2e\u0c47\u0c38\u0c46\u0c21\u0c4b\u0c28\u0c3f\u0c2f\u0c3e[\u0c2b\u0c48\u0c30\u0c4b\u0c2e\u0c4d]","name:cy":"Gweriniaeth Macedonia","name:hr":"Makedonija","name:da":"Makedonien","name:de":"Mazedonien","name:dz":"\u0f58\u0f0b\u0f66\u0f7a\u0f0b\u0f4c\u0f7c\u0f0b\u0f53\u0f72\u0f0b\u0f61\u0f0b [\u0f61\u0f74\u0f0b\u0f42\u0f7c\u0f0b\u0f66\u0fb3\u0f71\u0f0b\u0f56\u0f72\u0f0b\u0f61]","source":"openstreetmap.org","name:kn":"\u0cae\u0ccd\u0caf\u0cbe\u0cb8\u0cbf\u0ca1\u0ccb\u0ca8\u0cbf\u0caf [FYROM]","name:dv":"\u0789\u07ac\u0790\u07ac\u0791\u07af\u0782\u07a8\u0787\u07a7","name:km":"\u1798\u17c9\u17b6\u179f\u17c1\u178a\u17d2\u179c\u17b6\u1793","name:lv":"Ma\u0137edonija","name:lt":"Makedonija","name:uz":"Makedoniya Respublikasi","name:kk":"\u041c\u0430\u043a\u0435\u0434\u043e\u043d\u0438\u044f \u0420\u0435\u0441\u043f\u0443\u0431\u043b\u0438\u043a\u0430\u0441\u044b","name:ur":"\u0645\u0642\u062f\u0648\u0646\u06cc\u06c1 [FYROM]","name:lb":"Makedonien","name:la":"Respublica Macedonica","name:lg":"Masedoniya","name:uk":"\u041c\u0430\u043a\u0435\u0434\u043e\u043d\u0456\u044f","name:ug":"\u0645\u0627\u0643\u06d0\u062f\u0648\u0646\u0649\u064a\u06d5","name:li":"Macedoni\u00eb","name:ln":"Masedoni","name:lo":"\u0ea1\u0eb2\u0e8a\u0eb5\u0ec2\u0e94\u0ec0\u0e99\u0e8d","name:el":"\u03a0\u03c1\u03ce\u03b7\u03bd \u0393\u03b9\u03bf\u03c5\u03b3\u03ba\u03bf\u03c3\u03bb\u03b1\u03b2\u03b9\u03ba\u03ae \u0394\u03b7\u03bc\u03bf\u03ba\u03c1\u03b1\u03c4\u03af\u03b1 \u03c4\u03b7\u03c2 \u039c\u03b1\u03ba\u03b5\u03b4\u03bf\u03bd\u03af\u03b1\u03c2","name:eo":"Makedonujo","name:en":"Macedonia","name":"\u041c\u0430\u043a\u0435\u0434\u043e\u043d\u0438\u0458\u0430","name:tk":"Makedoni\u00fda Respublikasy","name:ee":"Makedonia [FYROM] nutome","name:th":"\u0e1b\u0e23\u0e30\u0e40\u0e17\u0e28\u0e21\u0e32\u0e0b\u0e34\u0e42\u0e14\u0e40\u0e19\u0e35\u0e22","name:eu":"Mazedonia [FYROM]","name:et":"Makedoonia","name:es":"Macedonia","name:ia":"Macedonia","name:rm":"Macedonia","name:rn":"Masedoniya","name:az":"Masedoniya","name:ie":"Macedonia","name:id":"Republik Makedonia","name:ar":"\u0645\u0642\u062f\u0648\u0646\u064a\u0627","name:io":"Republiko Macedonia","name:ak":"Masedonia","name:am":"\u121b\u1234\u12f6\u1295\u12eb[FYROM]","name:it":"Macedonia","name:an":"Republica de Macedonia","name:ru":"\u041c\u0430\u043a\u0435\u0434\u043e\u043d\u0438\u044f","name:rw":"Masedoniya","name:pl":"Macedonia","name:af":"Masedoni\u00eb","name:zu":"isi-Macedonia [FYROM]","name:zh-yue":"\u99ac\u5176\u9813\u5171\u548c\u570b","name:zh":"\u9a6c\u5176\u987f","name:so":"Makadooniya","name:sn":"Macedonia","name:sl":"Makedonija","name:sk":"Maced\u00f3nsko","name:ja":"\u30de\u30b1\u30c9\u30cb\u30a2[\u65e7\u30e6\u30fc\u30b4\u30b9\u30e9\u30d3\u30a2\u5171\u548c\u56fd]","name:si":"\u0db8\u0dd0\u0dc3\u0dd2\u0da9\u0ddd\u0db1\u0dd2\u0dba\u0dcf\u0db1 [FYROM]","name:sh":"Republika Makedonija","name:sg":"Masedu\u00e4ni","name:se":"Makedonia","name:sc":"Matzed\u00f2nia","name:br":"Makedonia","name:bs":"Makedonija (BJR)","name:bm":"Maced\u0254ni","name:bn":"\u09ae\u09c7\u09b8\u09bf\u09a1\u09cb\u09a8\u09bf\u09af\u09bc\u09be[FYROM]","name:bo":"\u0f58\u0f0b\u0f66\u0f7a\u0f0b\u0f4c\u0f7c\u0f0b\u0f53\u0f72\u0f61\u0f0d (\u0f62\u0f92\u0fb1\u0f63\u0f0b\u0f41\u0f56\u0f0d)","name:bi":"Macedonia","alt_name:br":"Ez-Republik Yougoslaviat Makedonia","name:sw":"Masedonia [FYROM]","name:be":"\u041c\u0430\u043a\u0435\u0434\u043e\u043d\u0456\u044f","name:su":"Mak\u00e9donia","name:bg":"\u041c\u0430\u043a\u0435\u0434\u043e\u043d\u0438\u044f","name:ss":"IMakhedoniya","name:ba":"\u041c\u0430\u043a\u0435\u0434\u043e\u043d\u0438\u044f \u0420\u0435\u0441\u043f\u0443\u0431\u043b\u0438\u043a\u0430\u04bb\u044b","name:sq":"Maqedoni","name:jv":"R\u00e9publik Makedonia","name:sa":"\u092e\u0947\u0938\u0947\u0921\u094b\u0928\u093f\u092f\u093e","name:pt":"Maced\u00f4nia","name:ps":"\u062f \u0645\u0642\u062f\u0648\u0646\u064a\u06d0 \u0648\u0644\u0633\u0645\u0634\u0631\u064a\u0632\u0647","name:oc":"Republica de Maced\u00f2nia","min_zoom":2.0,"name:ro":"Macedonia","name:zh-min-nan":"Makedonija Ki\u014dng-h\u00f4-kok","name:os":"\u0420\u0435\u0441\u043f\u0443\u0431\u043b\u0438\u043a\u00e6 \u041c\u0430\u043a\u0435\u0434\u043e\u043d\u0438","name:or":"\u0b2e\u0b3e\u0b38\u0b47\u0b21\u0b4b\u0b28\u0b3f\u0b06","alt_name:pt":"Antiga Rep\u00fablica Iugoslava da Maced\u00f4nia","name:pa":"\u0a2e\u0a15\u0a26\u0a42\u0a28\u0a40\u0a06 \u0a17\u0a23\u0a30\u0a3e\u0a1c","name:tr":"Makedonya","name:hi":"\u092e\u0947\u0938\u0940\u0921\u094b\u0928\u093f\u092f\u093e [FYROM]","name:sv":"Makedonien","name:he":"\u05de\u05e7\u05d3\u05d5\u05e0\u05d9\u05d4","name:ha":"Masedoniya","name:hy":"\u0544\u0561\u056f\u0565\u0564\u0578\u0576\u056b\u0561","name:ht":"Repiblik d Masedoni","name:hu":"Maced\u00f3nia","name:qu":"Makidunya","population":2061315,"kind":"country","name:is":"Maked\u00f3n\u00eda","name:yi":"\u05e8\u05e2\u05e4\u05d5\u05d1\u05dc\u05d9\u05e7 \u05e4\u05d5\u05df \u05de\u05d0\u05e7\u05e2\u05d3\u05d0\u05e0\u05d9\u05e2","name:yo":"Or\u00edl\u1eb9\u0301\u00e8de Masidonia","name:mt":"Ma\u010bedonja","alt_name:eo":"Makedonio","name:ms":"Macedonia [FYROM]","name:mr":"\u092e\u0945\u0938\u0947\u0921\u094b\u0928\u093f\u092f\u093e[\u092b\u093e\u092f\u0930\u094b\u092e]","name:my":"\u1019\u102c\u1005\u102e\u1012\u102d\u102f\u1038\u1014\u102e\u1038\u101a\u102c\u1038","official_name":"\u0420\u0435\u043f\u0443\u0431\u043b\u0438\u043a\u0430 \u041c\u0430\u043a\u0435\u0434\u043e\u043d\u0438\u0458\u0430","int_name":"The former Yugoslav Republic of Macedonia","name:mg":"Makedonia","name:ml":"\u0d2e\u0d15\u0d4d\u0d15\u0d21\u0d4b\u0d23\u0d3f\u0d2f [FYROM]","name:vi":"Macedonia","name:mn":"\u041c\u0430\u043a\u0435\u0434\u043e\u043d","name:mi":"Maker\u014dnia","id":424297810,"name:vo":"Makedoniy\u00e4n","name:fa":"\u0645\u0642\u062f\u0648\u0646\u06cc\u0647","name:ff":"Meceduwaan","name:fi":"Makedonia","name:fo":"Maked\u00f3nia","name:fr":"Mac\u00e9doine","name:fy":"Massedoanje","name:nl":"Macedoni\u00eb","name:nn":"Makedonia","name:no":"Makedonia","name:na":"Matedoniya","name:ne":"\u092e\u094d\u092f\u093e\u0915\u0947\u0921\u094b\u0928\u093f\u092f\u093e [\u092b\u093e\u0907\u0930\u092e]","name:wo":"R\u00e9ewum Maseduwaan","name:ga":"An Mhacad\u00f3in","name:gd":"Masadoinia","name:gn":"Masendo\u00f1a","name:gl":"Macedonia [Antiga Rep\u00fablica Iugoslava de Macedonia]","name:gv":"Pobblaght ny Massadoan","name:gu":"\u0aae\u0ac7\u0ab8\u0ac7\u0aa1\u0acb\u0aa8\u0abf\u0aaf\u0abe [\u0aab\u0abe\u0aaf\u0ab0\u0acb\u0aae]","name:tt":"\u041c\u0430\u043a\u0435\u0434\u043e\u043d\u0438\u044f \u0496\u04e9\u043c\u04bb\u04af\u0440\u0438\u044f\u0442\u0435"},"coordinates":[1815,2479]},{"type":"Point","properties":{"name:pt":"Esc\u00f3pia","name:az":"Skopye","name:ka":"\u10e1\u10d9\u10dd\u10de\u10d8\u10d4","name:mr":"\u0938\u094d\u0915\u094b\u092a\u094d\u092f\u0947","name:ko":"\uc2a4\ucf54\ud398","name:cv":"\u0421\u043a\u043e\u043f\u0439\u0435","name:cu":"\u0421\u044a\u043a\u043e\u043f\u0438\u0465","name:ar":"\u0633\u0643\u0648\u0628\u064a\u0647","name:cs":"Skopje","name:bs":"Skoplje","name:kv":"\u0421\u043a\u043e\u043f\u044c\u0435","min_zoom":8.0,"int_name":"Skopje","name:an":"Scopia","name:os":"\u0421\u043a\u043e\u043f\u044c\u0435","name:ru":"\u0421\u043a\u043e\u043f\u044c\u0435","name:pl":"Skopje","name:ta":"\u0bb8\u0bcd\u0b95\u0bcb\u0baa\u0bcd\u0b9c\u0bc7","name:tg":"\u0421\u043a\u043e\u043f\u0435","name:fa":"\u0627\u0633\u06a9\u0648\u067e\u06cc\u0647","name:bg":"\u0421\u043a\u043e\u043f\u0438\u0435","kind_detail":"city","name:da":"Skopje","name:sh":"Skoplje","id":170792214,"source":"openstreetmap.org","name:fr":"Skopje","name:de":"Skopje","name:be":"\u0421\u043a\u043e\u043f'\u0435","name:zh":"\u65af\u79d1\u666e\u91cc","admin_level":"2","name:sl":"Skopje","name:nl":"Skopje","name:ja":"\u30b9\u30b3\u30d4\u30a8","name:lt":"Skopj\u0117","name:no":"Skopje","name:kk":"\u0421\u043a\u043e\u043f\u044c\u0435","name:he":"\u05e1\u05e7\u05d5\u05e4\u05d9\u05d4","kind":"locality","name:ur":"\u0627\u0633\u06a9\u0648\u067e\u06cc\u06c1","name:bo":"\u0f66\u0f72\u0f0b\u0f40\u0f7c\u0f54\u0f0b\u0f47\u0f72\u0f0d","name:sk":"Skopje","name:uk":"\u0421\u043a\u043e\u043f'\u0454","name:hy":"\u054d\u056f\u0578\u057a\u0575\u0565","country_capital":true,"name:sv":"Skopje","name:ug":"\u0633\u0643\u0648\u067e\u0644\u064a\u06d0","name:hu":"Szkopje","name:hr":"Skoplje","name:sr":"\u0421\u043a\u043e\u043f\u0459\u0435","name:sq":"Shkupi","population":668500,"name:el":"\u03a3\u03ba\u03cc\u03c0\u03b9\u03b1","name:eo":"Skopjo","name:en":"Skopje","name":"\u0421\u043a\u043e\u043f\u0458\u0435","name:ku":"Skopye","name:ln":"Skopye","name:th":"\u0e2a\u0e42\u0e01\u0e40\u0e1b\u0e35\u0e22","name:la":"Scupi","name:tr":"\u00dcsk\u00fcp","name:et":"Skopje","name:es":"Skopie"},"coordinates":[984,3953]},{"type":"Point","properties":{"name:sr":"\u0411\u0438\u0442\u043e\u0459","int_name":"Bitola","name:sh":"Manastiri","name:tr":"Manast\u0131r","name:ar":"\u0628\u06cc\u062a\u0648\u0644\u0627","min_zoom":8.0,"name:la":"Monasterium","name:hu":"Bitola","id":1812231434,"name:sq":"Manastir","population":74550,"kind":"locality","name:en":"Bitola","name":"\u0411\u0438\u0442\u043e\u043b\u0430","kind_detail":"city","name:de":"Bitola","source":"openstreetmap.org","name:fr":"Bitola","name:bg":"\u0411\u0438\u0442\u043e\u043b\u044f","name:zh":"\u6bd4\u6258\u62c9"},"coordinates":[693,206]},{"type":"Point","properties":{"kind":"locality","name:en":"Prilep","name":"\u041f\u0440\u0438\u043b\u0435\u043f","name:lt":"Prilepas","name:tr":"Prilepe","kind_detail":"city","min_zoom":8.0,"name:de":"Prilep","source":"openstreetmap.org","name:fr":"Prilep","int_name":"Prilep","id":392394718,"name:sq":"Prilepi","population":66246},"coordinates":[1340,1422]},{"type":"Point","properties":{"int_name":"\u0160tip","min_zoom":8.0,"name:ro":"\u0160tip","name:pl":"Sztip","id":417840346,"name:sq":"Shtipi","population":65000,"kind":"locality","name:en":"Shtip","name":"\u0428\u0442\u0438\u043f","kind_detail":"city","name:de":"\u0160tip","source":"openstreetmap.org","name:fr":"Chtip","name:sl":"\u0160tip","name:es":"\u0160tip"},"coordinates":[3204,2947]},{"type":"Point","properties":{"kind":"locality","name:en":"Veles","name":"\u0412\u0435\u043b\u0435\u0441","name:tr":"K\u00f6pr\u00fcl\u00fc","kind_detail":"city","name:de":"Veles","source":"openstreetmap.org","min_zoom":8.0,"int_name":"Veles","id":324836987,"name:sq":"Velesi","population":43716},"coordinates":[1999,2863]},{"type":"Point","properties":{"kind":"locality","name:en":"Kavadarci","name:ro":"Kavadarci","name":"\u041a\u0430\u0432\u0430\u0434\u0430\u0440\u0446\u0438","name:lt":"Kavadarcis","kind_detail":"city","source":"openstreetmap.org","min_zoom":8.0,"int_name":"Kavadarci","name:pl":"Kawadarci","id":365758611,"name:sq":"Kavardaci","population":29320},"coordinates":[2681,1754]},{"type":"Point","properties":{"int_name":"Ko\u010dani","min_zoom":8.0,"name:ro":"Ko\u010dani","name:it":"Ko\u010dani","name:pl":"Koczani","name:hu":"Ko\u010dani","id":417839656,"name:sq":"Ko\u00e7ani","population":29000,"kind":"locality","name:en":"Kochani","name":"\u041a\u043e\u0447\u0430\u043d\u0438","kind_detail":"city","name:de":"Ko\u010dani","source":"openstreetmap.org","name:fr":"Kotchani"},"coordinates":[3838,3661]},{"type":"Point","properties":{"kind":"locality","name:en":"Radovish","name":"\u0420\u0430\u0434\u043e\u0432\u0438\u0448","name:tr":"Radovi\u015f","kind_detail":"town","source":"openstreetmap.org","min_zoom":8.0,"int_name":"Radovi\u0161","id":1879675180,"population":16690},"coordinates":[3993,2567]},{"type":"Point","properties":{"kind":"locality","name:en":"Negotino","name":"\u041d\u0435\u0433\u043e\u0442\u0438\u043d\u043e","name:tr":"Negotino","kind_detail":"town","source":"openstreetmap.org","min_zoom":8.0,"int_name":"Negotino","id":185572854,"name:sq":"Negotina","population":13390},"coordinates":[2906,1964]},{"type":"Point","properties":{"kind":"locality","name:en":"Sveti Nikole","name":"\u0421\u0432\u0435\u0442\u0438 \u041d\u0438\u043a\u043e\u043b\u0435","kind_detail":"town","source":"openstreetmap.org","min_zoom":8.0,"int_name":"Sveti Nikole","name:ru":"\u0421\u0432\u0435\u0442\u0438-\u041d\u0438\u043a\u043e\u043b\u0435","id":419032198,"population":13220},"coordinates":[2471,3442]},{"type":"Point","properties":{"kind":"locality","name:en":"Probishtip","name":"\u041f\u0440\u043e\u0431\u0438\u0448\u0442\u0438\u043f","name:sh":"Probishtipi","name:tr":"Probi\u015ftip","kind_detail":"town","source":"openstreetmap.org","min_zoom":8.0,"int_name":"Probi\u0161tip","name:pl":"Probisztip","name:bg":"\u041f\u0440\u043e\u0431\u0438\u0449\u0438\u043f","id":418344960,"population":8190},"coordinates":[3160,3966]},{"type":"Point","properties":{"kind":"locality","name:en":"Krushevo","name:ro":"Cru\u0219ova","name":"\u041a\u0440\u0443\u0448\u0435\u0432\u043e","name:lt":"Kru\u0161evas","kind_detail":"town","source":"openstreetmap.org","min_zoom":8.0,"int_name":"Kru\u0161evo","id":305729801,"population":5210},"coordinates":[462,1509]}]},"transit":{"type":"GeometryCollection","geometries":[{"type":"MultiLineString","properties":{"kind":"train","name:en":"IR4900","name":"\u0418\u04204900","sort_rank":275,"source":"openstreetmap.org","min_zoom":6.0,"operator":"\u041c\u0416","ref":"4900","osm_relation":true},"arcs":[[13],[14],[15],[16],[17],[18],[19],[20],[21],[22],[23],[24],[25],[26],[27],[28],[29],[30],[31]]},{"type":"MultiLineString","properties":{"name:el":"\u0392\u03b5\u03bb\u03b9\u03b3\u03c1\u03ac\u03b4\u03b9 - \u0398\u03b5\u03c3\u03c3\u03b1\u03bb\u03bf\u03bd\u03af\u03ba\u03b7","kind":"train","name:en":"Belgrade - Thessaloniki","name":"Beograd - Salonica","sort_rank":275,"source":"openstreetmap.org","min_zoom":6.0,"name:hu":"Belgr\u00e1d\u2013Szaloniki","ref":"Beograd - Thessaloniki","name:sr":"\u0411\u0435\u043e\u0433\u0440\u0430\u0434 - \u0421\u043e\u043b\u0443\u043d","osm_relation":true},"arcs":[[32],[33],[34]]},{"type":"MultiLineString","properties":{"kind":"train","name":"IC 891\/892","sort_rank":275,"min_zoom":6.0,"source":"openstreetmap.org","state":"connection","ref":"IC 891\/892","osm_relation":true},"arcs":[[35],[36],[37],[38],[39],[40],[41],[42],[43],[44],[45],[46],[47],[48],[49],[50]]},{"type":"MultiLineString","properties":{"source":"openstreetmap.org","kind":"train","name:en":"Bakarno Gumno - Sopotnica","name":"\u0411\u0430\u043a\u0430\u0440\u043d\u043e \u0413\u0443\u043c\u043d\u043e - \u0421\u043e\u043f\u043e\u0442\u043d\u0438\u0446\u0430","sort_rank":275,"min_zoom":6.0,"osm_relation":true},"arcs":[[51],[52],[53],[54],[55],[56]]}]},"pois":{"type":"GeometryCollection","geometries":[{"type":"Point","properties":{"kind":"military","name:en":"Krivolak","name":"\u0410\u0420\u041c - \u041a\u0440\u0438\u0432\u043e\u043b\u0430\u043a","area":47606000,"source":"openstreetmap.org","min_zoom":8.0,"tier":3,"id":-7427309,"osm_relation":true},"coordinates":[2761,2308]},{"type":"Point","properties":{"source":"openstreetmap.org","kind":"nature_reserve","name":"\u03a4\u03b6\u03ad\u03bd\u03b1 - \u03a0\u03af\u03bd\u03bf\u03b2\u03bf \u0394\u03ae\u03bc\u03bf\u03c5 \u0395\u03be\u03b1\u03c0\u03bb\u03b1\u03c4\u03ac\u03bd\u03bf\u03c5","area":208176000,"tier":2,"min_zoom":8.44,"id":139742316},"coordinates":[3168,509]}]},"boundaries":{"type":"GeometryCollection","geometries":[{"type":"LineString","properties":{"name:right:yo":"Or\u00edl\u1eb9\u0300-\u00e8d\u00e8 Ol\u00f3m\u00ecnira il\u1eb9\u0300 Mak\u1eb9d\u00f3n\u00ed\u00e0","name:right:yi":"\u05e8\u05e2\u05e4\u05d5\u05d1\u05dc\u05d9\u05e7 \u05e4\u05d5\u05df \u05de\u05d0\u05e7\u05e2\u05d3\u05d0\u05e0\u05d9\u05e2","name:left:la":"Graecia","name:right:qu":"Makidunya","name:left:li":"Griekeland","name:left:vi":"Hy L\u1ea1p","name:left:sw":"Ugiriki","name:left:kg":"Gelesi","name:left:ka":"\u10e1\u10d0\u10d1\u10d4\u10e0\u10eb\u10dc\u10d4\u10d7\u10d8","name:left:kl":"Gr\u00e6kerit Nunaat","name:left:ko":"\uadf8\ub9ac\uc2a4","name:left:kn":"\u0c97\u0ccd\u0cb0\u0cc0\u0cb8\u0ccd","name:left:ki":"Ngiriki","name:left:ro":"Grecia","name:left:kk":"\u0413\u0440\u0435\u043a\u0438\u044f","name:left:rm":"Grezia","name:left:ku":"Yewnanistan","name:left:kw":"Pow Grek","name:left:kv":"\u042d\u043b\u043b\u0430\u0434\u0430","name:right:ro":"Macedonia","name:left:ru":"\u0413\u0440\u0435\u0446\u0438\u044f","name:right:ie":"Macedonia","name:right:id":"Republik Makedonia","name:left:ky":"\u0413\u0440\u0435\u0446\u0438\u044f","name:right:ia":"Republica de Macedonia","name:right:bi":"Macedonia","name:right:bn":"\u09ae\u09cd\u09af\u09be\u09b8\u09c7\u09a1\u09cb\u09a8\u09bf\u09af\u09bc\u09be \u09aa\u09cd\u09b0\u099c\u09be\u09a4\u09a8\u09cd\u09a4\u09cd\u09b0","name:right:bo":"\u0f58\u0f0b\u0f66\u0f7a\u0f0b\u0f4c\u0f7c\u0f0b\u0f53\u0f72\u0f61\u0f0d (\u0f62\u0f92\u0fb1\u0f63\u0f0b\u0f41\u0f56\u0f0d)","name:left:sl":"Gr\u010dija","name:right:ba":"\u041c\u0430\u043a\u0435\u0434\u043e\u043d\u0438\u044f \u0420\u0435\u0441\u043f\u0443\u0431\u043b\u0438\u043a\u0430\u04bb\u044b","name:right:bg":"\u0420\u0435\u043f\u0443\u0431\u043b\u0438\u043a\u0430 \u041c\u0430\u043a\u0435\u0434\u043e\u043d\u0438\u044f","name:right:be":"\u0420\u044d\u0441\u043f\u0443\u0431\u043b\u0456\u043a\u0430 \u041c\u0430\u043a\u0435\u0434\u043e\u043d\u0456\u044f","name:right:br":"Republik Makedonia","name:left:lt":"Graikija","name:right:nn":"Republikken Makedonia","name:right:no":"Republikken Makedonia","name:right:nl":"Macedoni\u00eb (land)","name:left:lv":"Grie\u0137ija","name:right:wo":"R\u00e9ewum Maseduwaan","name:right:ne":"\u092e\u094d\u092f\u093e\u0938\u0947\u0921\u094b\u0928\u093f\u092f\u093e","name:right:na":"Matedoniya","name:right:gv":"Pobblaght ny Massadoan","name:left:mg":"Grisy","kind_detail":"2","name:left:tr":"Yunanistan","name:right:gu":"\u0aae\u0ac7\u0ab8\u0ac7\u0aa1\u0acb\u0aa8\u0abf\u0aaf\u0abe","name:right:ps":"\u062f \u0645\u0642\u062f\u0648\u0646\u064a\u06d0 \u0648\u0644\u0633\u0645\u0634\u0631\u064a\u0632\u0647","name:right:pt":"Maced\u00f3nia","name:left:mk":"\u0413\u0440\u0446\u0438\u0458\u0430","name:left:mi":"Kirihi","name:left:tt":"\u0413\u0440\u0435\u0446\u0438\u044f","name:left:mn":"\u0413\u0440\u0435\u043a","name:left:ml":"\u0d17\u0d4d\u0d30\u0d40\u0d38\u0d4d","name:left:th":"\u0e1b\u0e23\u0e30\u0e40\u0e17\u0e28\u0e01\u0e23\u0e35\u0e0b","name:right:pa":"\u0a2e\u0a15\u0a26\u0a42\u0a28\u0a40\u0a06 \u0a17\u0a23\u0a30\u0a3e\u0a1c","name:left:tk":"Gresi\u00fda","name:left:tl":"Gresya","name:left:mt":"Gre\u010bja","name:right:gl":"Rep\u00fablica de Macedonia - \u0420\u0435\u043f\u0443\u0431\u043b\u0438\u043a\u0430 \u041c\u0430\u043a\u0435\u0434\u043e\u043d\u0438\u0458\u0430","name:left:my":"\u1002\u101b\u102d\u1014\u102d\u102f\u1004\u103a\u1004\u1036","name:right:gn":"Masendo\u00f1a","name:right:pl":"Macedonia","name:left:te":"\u0c17\u0c4d\u0c30\u0c40\u0c38\u0c4d","name:left:tg":"\u042e\u043d\u043e\u043d","name:left:ms":"Greece","name:left:mr":"\u0917\u094d\u0930\u0940\u0938","name:right:tr":"Makedonya Cumhuriyeti","name:left:da":"Gr\u00e6kenland","name:left:de":"Griechenland","name:left:dz":"\u0f42\u0fb2\u0f80\u0f66","name:right:ga":"Poblacht na Macad\u00f3ine","name:left:dv":"\u0794\u07ab\u0782\u07a7\u0782\u07b0","name:right:ug":"\u0645\u0627\u0643\u06d0\u062f\u0648\u0646\u0649\u064a\u06d5","name:left:hi":"\u092f\u0942\u0928\u093e\u0928","name:right:lb":"Republik Mazedonien","name:right:uk":"\u041c\u0430\u043a\u0435\u0434\u043e\u043d\u0456\u044f","name:left:he":"\u05d9\u05d5\u05d5\u05df","name:right:li":"Macedoni\u00eb (land)","name:right:lt":"Makedonija","name:right:ur":"\u0645\u0642\u062f\u0648\u0646\u06cc\u06c1","name:right:lv":"Ma\u0137edonija","name:left:hy":"\u0540\u0578\u0582\u0576\u0561\u057d\u057f\u0561\u0576","name:left:ta":"\u0b95\u0bbf\u0bb0\u0bc7\u0b95\u0bcd\u0b95 \u0ba8\u0bbe\u0b9f\u0bc1","name:left:ht":"Gr\u00e8s","name:left:hu":"G\u00f6r\u00f6gorsz\u00e1g","name:left:hr":"Gr\u010dka","sort_rank":262,"name:right:gd":"Masadoinia","name:right:os":"\u0420\u0435\u0441\u043f\u0443\u0431\u043b\u0438\u043a\u00e6 \u041c\u0430\u043a\u0435\u0434\u043e\u043d\u0438","alt_name:right:cs":"B\u00fdval\u00e1 jugosl\u00e1vsk\u00e1 republika Makedonie","name:right:es":"Rep\u00fablica de Macedonia","name:right:eu":"Former Yugoslav Republic Of Macedonia","name:right:et":"Makedoonia","name:left:os":"\u0413\u0440\u0435\u043a\u044a","name:left:or":"\u0b17\u0b4d\u0b30\u0b40\u0b38","name:right:ee":"Republic of Macedonia","name:left:vo":"Grik\u00e4n","name:left:oc":"Gr\u00e8cia","name:right:eo":"Makedonujo","name:right:en":"Macedonia","name:right:el":"\u03a0\u03c1\u03ce\u03b7\u03bd \u0393\u03b9\u03bf\u03c5\u03b3\u03ba\u03bf\u03c3\u03bb\u03b1\u03b2\u03b9\u03ba\u03ae \u0394\u03b7\u03bc\u03bf\u03ba\u03c1\u03b1\u03c4\u03af\u03b1 \u03c4\u03b7\u03c2 \u039c\u03b1\u03ba\u03b5\u03b4\u03bf\u03bd\u03af\u03b1\u03c2","name:left:fa":"\u06cc\u0648\u0646\u0627\u0646","name:left:fo":"Grikkaland","name:right:sk":"Maced\u00f3nsko","name:left:fi":"Kreikka","name:left:fr":"Gr\u00e8ce","name:left:fy":"Grikel\u00e2n","name:right:ja":"\u30de\u30b1\u30c9\u30cb\u30a2\u5171\u548c\u56fd","name:right:sq":"Maqedonia","name:right:ss":"IMakhedoniya","name:left:ja":"\u30ae\u30ea\u30b7\u30e3","name:right:su":"Mak\u00e9donia","name:right:sw":"Jamhuri ya Masedonia","name:right:sv":"Makedonien","name:right:sh":"Makedonija","name:left:qu":"Grisya","name:right:jv":"R\u00e9publik Makedonia","name:right:sl":"Makedonija","name:right:so":"Makedonia","name:right:sa":"\u092e\u0947\u0938\u0947\u0921\u094b\u0928\u093f\u092f\u093e","name:right:sc":"Matzed\u00f2nia","name:left:jv":"Yunani","id":-192307,"name:right:ca":"Rep\u00fablica de Maced\u00f2nia","name:right:se":"Makedonia","name:right:ce":"\u041c\u0430\u043a\u0435\u0434\u043e\u043d\u0438","name:right:cy":"Gweriniaeth Macedonia","name:right:zh-yue":"\u99ac\u5176\u9813\u5171\u548c\u570b","name:right:cs":"Makedonie","name:right:cu":"\u041c\u0430\u043a\u0454\u0434\u043e\u043d\u0457\ua657","name:right:cv":"\u041c\u0430\u043a\u0435\u0434\u043e\u043d\u0438 \u0420\u0435\u0441\u043f\u0443\u0431\u043b\u0438\u043a\u0438","name:right:it":"Repubblica di Macedonia","name:left:ar":"\u0627\u0644\u064a\u0648\u0646\u0627\u0646","name:right:is":"L\u00fd\u00f0veldi\u00f0 Maked\u00f3n\u00eda","name:left:az":"Yunan\u0131stan","name:left:ay":"Grisya","name:right:rw":"Masedoniya","name:left:af":"Griekeland","name:left:ab":"\u0411\u0430\u0440\u0437\u0435\u043d\u0442\u04d9\u044b\u043b\u0430","name:left:an":"Grecia","name:left:am":"\u130d\u122a\u12ad","name:right:ru":"\u041c\u0430\u043a\u0435\u0434\u043e\u043d\u0438\u044f","name:right:io":"Republiko Macedonia","name:left:zh-yue":"\u5e0c\u81d8","name:left:rw":"Ubugereki","name:right:hy":"\u0544\u0561\u056f\u0565\u0564\u0578\u0576\u056b\u0561\u0575\u056b \u0540\u0561\u0576\u0580\u0561\u057a\u0565\u057f\u0578\u0582\u0569\u0575\u0578\u0582\u0576","name:left:lb":"Griicheland","alt_name:left:eo":"Grekio","name:left:lg":"Buyonaani","name:left:su":"Yunani","int_name:left":"Greece","name:right:hr":"Makedonija","name:left:sv":"Grekland","name:left:sq":"Greqia","name:right:hu":"Maced\u00f3nia","name:left:ss":"IGrikhi","name:left:sr":"\u0413\u0440\u0447\u043a\u0430","name:left:sm":"Kuliti","name:right:hi":"\u092e\u0948\u0938\u093f\u0921\u094b\u0928\u093f\u092f\u093e","name:left:so":"Giriig","name:left:si":"\u0d9c\u0dca\u200d\u0dbb\u0dd3\u0dc3\u0dd2\u0dba","name:left:sh":"Gr\u010dka","name:left:sk":"Gr\u00e9cko","name:left:se":"Greika","name:left:sa":"\u092f\u0935\u0928\u0926\u0947\u0936\u0903","name:right:he":"\u05de\u05e7\u05d3\u05d5\u05e0\u05d9\u05d4","name:left:sc":"Gr\u00e8ghia","name:right:la":"Respublica Macedonica","name:right:af":"Masedoni\u00eb","name:left:co":"Grecia","name:left:ce":"\u0413\u0440\u0435\u0446\u0438","name:right:an":"Macedonia","name:right:am":"\u1218\u1244\u12f6\u1292\u12eb","name:left:ca":"Gr\u00e8cia","source":"openstreetmap.org","name:left:cy":"Gwlad Groeg","name:right:ar":"\u0645\u0642\u062f\u0648\u0646\u064a\u0627","name:left:cu":"\u0413\u0440\u044c\u0446\u0438","name:left:cv":"\u0413\u0440\u0435\u0446\u0438","name:right:az":"Makedoniya","name:left:cs":"\u0158ecko","name":"\u0395\u03bb\u03bb\u03ac\u03b4\u03b1 - \u041c\u0430\u043a\u0435\u0434\u043e\u043d\u0438\u0458\u0430","name:left:zu":"IGreki","name:left:zh":"\u5e0c\u814a","name:right:zh":"\u99ac\u5176\u9813\u5171\u548c\u570b","official_name:left":"\u0395\u03bb\u03bb\u03b7\u03bd\u03b9\u03ba\u03ae \u0394\u03b7\u03bc\u03bf\u03ba\u03c1\u03b1\u03c4\u03af\u03b1","name:left:uz":"Yunoniston","name:right:fr":"Mac\u00e9doine (pays)","name:left:ps":"\u064a\u0648\u0646\u0627\u0646","name:left:nv":"Gw\u00ed\u00edk Dine\u02bc\u00e9 Bik\u00e9yah","name:left:ur":"\u06cc\u0648\u0646\u0627\u0646","id:right":-53293,"name:left:uk":"\u0413\u0440\u0435\u0446\u0456\u044f","name:left:no":"Hellas","name:left:nl":"Griekenland","alt_name:right:eo":"Makedonio","name:right:fa":"\u062c\u0645\u0647\u0648\u0631\u06cc \u0645\u0642\u062f\u0648\u0646\u06cc\u0647","name:right:fo":"L\u00fd\u00f0veldi\u00f0 Maked\u00f3nia","name:left:ne":"\u0917\u094d\u0930\u0940\u0938","name:left:ug":"Gr\u00e9tsiye","name:left:na":"Grit","name:left:eo":"Grekujo","name:left:en":"Greece","name:left:ee":"Greece","name:right:tt":"\u041c\u0430\u043a\u0435\u0434\u043e\u043d\u0438\u044f \u0496\u04e9\u043c\u04bb\u04af\u0440\u0438\u044f\u0442\u0435","name:left:es":"Grecia","name:left:ie":"Grecia","name:left:eu":"Grezia","name:left:et":"Kreeka","name:right:zh-min-nan":"Makedonija Ki\u014dng-h\u00f4-kok","name:right:oc":"Republica de Maced\u00f2nia","name:left:ia":"Grecia","name:right:bs":"Makedonija","name:right:uz":"Makedoniya Respublikasi","osm_relation":true,"name:right:or":"\u0b2e\u0b3e\u0b38\u0b3f\u0b21\u0b4b\u0b28\u0b3f\u0b06","name:left:pt":"Gr\u00e9cia","name:right:ku":"Komara Makedonyay\u00ea","name:right:tk":"Makedoni\u00fda Respublikasy","name:left:gl":"Grecia","min_zoom":8.0,"name:left:zh-min-nan":"Hi-lia\u030dp","name:left:ln":"Gresi","name:left:wo":"Girees","name:left:ga":"An Ghr\u00e9ig","name:left:it":"Grecia","name:left:gd":"A' Ghr\u00e8ig","int_name:right":"Macedonia","name:left:gn":"Gyresia","name:left:gu":"\u0a97\u0acd\u0ab0\u0ac0\u0ab8","name:left:gv":"Yn Ghreag","official_name:right":"\u0420\u0435\u043f\u0443\u0431\u043b\u0438\u043a\u0430 \u041c\u0430\u043a\u0435\u0434\u043e\u043d\u0438\u0458\u0430","name:left":"\u0395\u03bb\u03bb\u03ac\u03b4\u03b1","name:right:mi":"Maker\u014dnia","name:right:mn":"\u0411\u04af\u0433\u0434 \u041d\u0430\u0439\u0440\u0430\u043c\u0434\u0430\u0445 \u041c\u0430\u043a\u0435\u0434\u043e\u043d \u0423\u043b\u0441","name:right:ml":"\u0d31\u0d3f\u0d2a\u0d4d\u0d2a\u0d2c\u0d4d\u0d32\u0d3f\u0d15\u0d4d \u0d13\u0d2b\u0d4d \u0d2e\u0d3e\u0d38\u0d3f\u0d21\u0d4b\u0d23\u0d3f\u0d2f","name:right:vo":"Makedoniy\u00e4n","name:right:vi":"C\u1ed9ng h\u00f2a Macedonia","name:right:my":"\u1019\u1000\u103a\u1005\u102e\u1012\u102d\u102f\u1038\u1014\u102e\u1038\u101a\u102c\u1038\u1014\u102d\u102f\u1004\u103a\u1004\u1036","name:right:ms":"Republik Macedonia","name:right:mr":"\u092e\u0945\u0938\u093f\u0921\u094b\u0928\u093f\u092f\u093e","name:right:fy":"Masedoanje (l\u00e2n)","name:right:mt":"Repubblika tal-Ma\u010bedonja","name:left:nn":"Hellas","kind":"country","name:left:br":"Gres","name:left:bs":"Gr\u010dka","name:left:ba":"\u0413\u0440\u0435\u0446\u0438\u044f","name:left:bg":"\u0413\u044a\u0440\u0446\u0438\u044f","name:left:be":"\u0413\u0440\u044d\u0446\u044b\u044f","name:left:bi":"Greece","name:left:bn":"\u0997\u09cd\u09b0\u09bf\u09b8","name:left:bo":"\u0f40\u0f7a\u0f0b\u0f62\u0f72\u0f0b\u0f66\u0f72\u0f0d","name:right":"\u041c\u0430\u043a\u0435\u0434\u043e\u043d\u0438\u0458\u0430","name:left:yo":"Gr\u00ed\u00ecs\u00ec","name:left:yi":"\u05d2\u05e8\u05d9\u05db\u05e0\u05dc\u05d0\u05e0\u05d3","id:left":-192307,"name:right:fi":"Makedonia","name:right:ka":"\u10db\u10d0\u10d9\u10d4\u10d3\u10dd\u10dc\u10d8\u10d0","name:left:io":"Grekia","name:left:pa":"\u0a2f\u0a42\u0a28\u0a3e\u0a28","name:right:kg":"Makedonia","name:left:pl":"Grecja","name:right:kk":"\u041c\u0430\u043a\u0435\u0434\u043e\u043d\u0438\u044f \u0420\u0435\u0441\u043f\u0443\u0431\u043b\u0438\u043a\u0430\u0441\u044b","name:left:id":"Yunani","name:right:kl":"Makedonia","name:right:ko":"\ub9c8\ucf00\ub3c4\ub2c8\uc544 \uacf5\ud654\uad6d","name:right:kn":"\u0cae\u0ccd\u0caf\u0cbe\u0cb8\u0cc6\u0ca1\u0cca\u0ca8\u0cbf\u0caf \u0c97\u0ca3\u0cb0\u0cbe\u0c9c\u0ccd\u0caf","name:right:tl":"Republika ng Masedonya","name:right:th":"\u0e1b\u0e23\u0e30\u0e40\u0e17\u0e28\u0e21\u0e32\u0e0b\u0e34\u0e42\u0e14\u0e40\u0e19\u0e35\u0e22","name:right:kw":"Repoblek Makedoni","name:right:kv":"\u041c\u0430\u043a\u0435\u0434\u043e\u043d\u0438\u044f \u0420\u0435\u0441\u043f\u0443\u0431\u043b\u0438\u043a\u0430","name:right:te":"\u0c2e\u0c47\u0c38\u0c3f\u0c21\u0c4b\u0c28\u0c3f\u0c2f\u0c3e","name:right:tg":"\u04b6\u0443\u043c\u04b3\u0443\u0440\u0438\u0438 \u041c\u0430\u049b\u0434\u0443\u043d\u0438\u044f","name:left:is":"Grikkland","name:right:ta":"\u0bae\u0bbe\u0b95\u0bcd\u0b95\u0b9f\u0bcb\u0ba9\u0bbf\u0baf\u0b95\u0bcd \u0b95\u0bc1\u0b9f\u0bbf\u0baf\u0bb0\u0b9a\u0bc1","name:right:de":"Mazedonien","name:right:da":"Makedonien","name:left:rn":"Grecia","name:right:dv":"\u0789\u07ac\u0790\u07ac\u0791\u07af\u0782\u07a8\u0787\u07a7","name:right:ht":"Repiblik d Masedoni"},"arcs":[0]},{"type":"LineString","properties":{"int_name:right":"Pelagoniski Region","name:right:ru":"\u041f\u0435\u043b\u0430\u0433\u043e\u043d\u0438\u0439\u0441\u043a\u0438\u0439 \u0440\u0435\u0433\u0438\u043e\u043d","min_zoom":8.0,"name:left:ru":"\u041c\u0430\u043a\u0435\u0434\u043e\u043d\u0438\u0438 \u0438 \u0424\u0440\u0430\u043a\u0438\u0438","id:right":-2572701,"id":-5208399,"osm_relation":true,"name:right":"\u041f\u0435\u043b\u0430\u0433\u043e\u043d\u0438\u0441\u043a\u0438 \u0420\u0435\u0433\u0438\u043e\u043d","kind":"region","name:left:en":"Macedonia - Thrace","sort_rank":256,"kind_detail":"4","name:left:de":"Makedonien - Thrakien","name":"\u039c\u03b1\u03ba\u03b5\u03b4\u03bf\u03bd\u03af\u03b1 - \u0398\u03c1\u03ac\u03ba\u03b7 - \u041f\u0435\u043b\u0430\u0433\u043e\u043d\u0438\u0441\u043a\u0438 \u0420\u0435\u0433\u0438\u043e\u043d","source":"openstreetmap.org","name:right:de":"Region Pelagonien","name:left:fr":"Mac\u00e9doine - Thrace","name:right:en":"Pelagonia Region","id:left":-5208399,"official_name:left":"\u0391\u03c0\u03bf\u03ba\u03b5\u03bd\u03c4\u03c1\u03c9\u03bc\u03ad\u03bd\u03b7 \u0394\u03b9\u03bf\u03af\u03ba\u03b7\u03c3\u03b7 \u039c\u03b1\u03ba\u03b5\u03b4\u03bf\u03bd\u03af\u03b1\u03c2 - \u0398\u03c1\u03ac\u03ba\u03b7\u03c2","name:left":"\u039c\u03b1\u03ba\u03b5\u03b4\u03bf\u03bd\u03af\u03b1 - \u0398\u03c1\u03ac\u03ba\u03b7"},"arcs":[1]},{"type":"LineString","properties":{"int_name:right":"Jugoisto\u010den Region","name:right:ru":"\u042e\u0433\u043e-\u0412\u043e\u0441\u0442\u043e\u0447\u043d\u044b\u0439 \u0440\u0435\u0433\u0438\u043e\u043d","min_zoom":8.0,"name:left:ru":"\u041c\u0430\u043a\u0435\u0434\u043e\u043d\u0438\u0438 \u0438 \u0424\u0440\u0430\u043a\u0438\u0438","id:right":-2572240,"id":-5208399,"osm_relation":true,"name:right":"\u0408\u0443\u0433\u043e\u0438\u0441\u0442\u043e\u0447\u0435\u043d \u0420\u0435\u0433\u0438\u043e\u043d","kind":"region","name:left:en":"Macedonia - Thrace","sort_rank":256,"kind_detail":"4","name:left:de":"Makedonien - Thrakien","name":"\u039c\u03b1\u03ba\u03b5\u03b4\u03bf\u03bd\u03af\u03b1 - \u0398\u03c1\u03ac\u03ba\u03b7 - \u0408\u0443\u0433\u043e\u0438\u0441\u0442\u043e\u0447\u0435\u043d \u0420\u0435\u0433\u0438\u043e\u043d","source":"openstreetmap.org","name:right:de":"Region S\u00fcdosten","name:left:fr":"Mac\u00e9doine - Thrace","name:right:en":"Southeastern Region","id:left":-5208399,"official_name:left":"\u0391\u03c0\u03bf\u03ba\u03b5\u03bd\u03c4\u03c1\u03c9\u03bc\u03ad\u03bd\u03b7 \u0394\u03b9\u03bf\u03af\u03ba\u03b7\u03c3\u03b7 \u039c\u03b1\u03ba\u03b5\u03b4\u03bf\u03bd\u03af\u03b1\u03c2 - \u0398\u03c1\u03ac\u03ba\u03b7\u03c2","name:left":"\u039c\u03b1\u03ba\u03b5\u03b4\u03bf\u03bd\u03af\u03b1 - \u0398\u03c1\u03ac\u03ba\u03b7"},"arcs":[2]},{"type":"LineString","properties":{"kind":"region","name:en":"Macedonia - Thrace","name":"\u039c\u03b1\u03ba\u03b5\u03b4\u03bf\u03bd\u03af\u03b1 - \u0398\u03c1\u03ac\u03ba\u03b7","sort_rank":256,"kind_detail":"4","min_zoom":8.0,"official_name":"\u0391\u03c0\u03bf\u03ba\u03b5\u03bd\u03c4\u03c1\u03c9\u03bc\u03ad\u03bd\u03b7 \u0394\u03b9\u03bf\u03af\u03ba\u03b7\u03c3\u03b7 \u039c\u03b1\u03ba\u03b5\u03b4\u03bf\u03bd\u03af\u03b1\u03c2 - \u0398\u03c1\u03ac\u03ba\u03b7\u03c2","name:de":"Makedonien - Thrakien","source":"openstreetmap.org","name:fr":"Mac\u00e9doine - Thrace","name:ru":"\u041c\u0430\u043a\u0435\u0434\u043e\u043d\u0438\u0438 \u0438 \u0424\u0440\u0430\u043a\u0438\u0438","id":-5208399,"osm_relation":true},"arcs":[3]},{"type":"LineString","properties":{"int_name:right":"Pelagoniski Region","int_name:left":"Jugozapaden Region","name:right:ru":"\u041f\u0435\u043b\u0430\u0433\u043e\u043d\u0438\u0439\u0441\u043a\u0438\u0439 \u0440\u0435\u0433\u0438\u043e\u043d","min_zoom":8.0,"name:left:ru":"\u042e\u0433\u043e-\u0417\u0430\u043f\u0430\u0434\u043d\u044b\u0439 \u0440\u0435\u0433\u0438\u043e\u043d","id:right":-2572701,"id":-2573888,"osm_relation":true,"name:right":"\u041f\u0435\u043b\u0430\u0433\u043e\u043d\u0438\u0441\u043a\u0438 \u0420\u0435\u0433\u0438\u043e\u043d","kind":"region","name:left:en":"Southwestern Region","sort_rank":256,"name:right:de":"Region Pelagonien","name:left:de":"Region S\u00fcdwesten","name":"\u0408\u0443\u0433\u043e\u0437\u0430\u043f\u0430\u0434\u0435\u043d \u0420\u0435\u0433\u0438\u043e\u043d - \u041f\u0435\u043b\u0430\u0433\u043e\u043d\u0438\u0441\u043a\u0438 \u0420\u0435\u0433\u0438\u043e\u043d","source":"openstreetmap.org","name:right:en":"Pelagonia Region","id:left":-2573888,"kind_detail":"4","name:left":"\u0408\u0443\u0433\u043e\u0437\u0430\u043f\u0430\u0434\u0435\u043d \u0420\u0435\u0433\u0438\u043e\u043d"},"arcs":[4]},{"type":"LineString","properties":{"kind":"region","name:en":"Southwestern Region","name":"\u0408\u0443\u0433\u043e\u0437\u0430\u043f\u0430\u0434\u0435\u043d \u0420\u0435\u0433\u0438\u043e\u043d","sort_rank":256,"kind_detail":"4","name:de":"Region S\u00fcdwesten","source":"openstreetmap.org","min_zoom":8.0,"int_name":"Jugozapaden Region","name:ru":"\u042e\u0433\u043e-\u0417\u0430\u043f\u0430\u0434\u043d\u044b\u0439 \u0440\u0435\u0433\u0438\u043e\u043d","id":-2573888,"osm_relation":true},"arcs":[5]},{"type":"LineString","properties":{"kind":"region","name:en":"Pelagonia Region","name":"\u041f\u0435\u043b\u0430\u0433\u043e\u043d\u0438\u0441\u043a\u0438 \u0420\u0435\u0433\u0438\u043e\u043d","sort_rank":256,"kind_detail":"4","name:de":"Region Pelagonien","source":"openstreetmap.org","min_zoom":8.0,"int_name":"Pelagoniski Region","name:ru":"\u041f\u0435\u043b\u0430\u0433\u043e\u043d\u0438\u0439\u0441\u043a\u0438\u0439 \u0440\u0435\u0433\u0438\u043e\u043d","id":-2572701,"osm_relation":true},"arcs":[6]},{"type":"LineString","properties":{"int_name:right":"Isto\u010den Region","int_name:left":"Jugoisto\u010den Region","name:right:ru":"\u0412\u043e\u0441\u0442\u043e\u0447\u043d\u044b\u0439 \u0440\u0435\u0433\u0438\u043e\u043d","min_zoom":8.0,"name:left:ru":"\u042e\u0433\u043e-\u0412\u043e\u0441\u0442\u043e\u0447\u043d\u044b\u0439 \u0440\u0435\u0433\u0438\u043e\u043d","id:right":-2572069,"id":-2572240,"osm_relation":true,"name:right":"\u0418\u0441\u0442\u043e\u0447\u0435\u043d \u0420\u0435\u0433\u0438\u043e\u043d","kind":"region","name:left:en":"Southeastern Region","sort_rank":256,"name:right:de":"Region Osten","name:left:de":"Region S\u00fcdosten","name":"\u0408\u0443\u0433\u043e\u0438\u0441\u0442\u043e\u0447\u0435\u043d \u0420\u0435\u0433\u0438\u043e\u043d - \u0418\u0441\u0442\u043e\u0447\u0435\u043d \u0420\u0435\u0433\u0438\u043e\u043d","source":"openstreetmap.org","name:right:en":"Eastern Region","id:left":-2572240,"kind_detail":"4","name:left":"\u0408\u0443\u0433\u043e\u0438\u0441\u0442\u043e\u0447\u0435\u043d \u0420\u0435\u0433\u0438\u043e\u043d"},"arcs":[7]},{"type":"LineString","properties":{"kind":"region","name:en":"Southeastern Region","name":"\u0408\u0443\u0433\u043e\u0438\u0441\u0442\u043e\u0447\u0435\u043d \u0420\u0435\u0433\u0438\u043e\u043d","sort_rank":256,"kind_detail":"4","name:de":"Region S\u00fcdosten","source":"openstreetmap.org","min_zoom":8.0,"int_name":"Jugoisto\u010den Region","name:ru":"\u042e\u0433\u043e-\u0412\u043e\u0441\u0442\u043e\u0447\u043d\u044b\u0439 \u0440\u0435\u0433\u0438\u043e\u043d","id":-2572240,"osm_relation":true},"arcs":[8]},{"type":"MultiLineString","properties":{"int_name:right":"Severoisto\u010den Region","int_name:left":"Isto\u010den Region","name:right:ru":"\u0421\u0435\u0432\u0435\u0440\u043e-\u0412\u043e\u0441\u0442\u043e\u0447\u043d\u044b\u0439 \u0440\u0435\u0433\u0438\u043e\u043d","min_zoom":8.0,"name:left:ru":"\u0412\u043e\u0441\u0442\u043e\u0447\u043d\u044b\u0439 \u0440\u0435\u0433\u0438\u043e\u043d","id:right":-2570958,"id":-2572069,"osm_relation":true,"name:right":"\u0421\u0435\u0432\u0435\u0440\u043e\u0438\u0441\u0442\u043e\u0447\u0435\u043d \u0420\u0435\u0433\u0438\u043e\u043d","kind":"region","name:left:en":"Eastern Region","sort_rank":256,"name:right:de":"Region Nordosten","name:left:de":"Region Osten","name":"\u0418\u0441\u0442\u043e\u0447\u0435\u043d \u0420\u0435\u0433\u0438\u043e\u043d - \u0421\u0435\u0432\u0435\u0440\u043e\u0438\u0441\u0442\u043e\u0447\u0435\u043d \u0420\u0435\u0433\u0438\u043e\u043d","source":"openstreetmap.org","name:right:en":"Northeastern Region","id:left":-2572069,"kind_detail":"4","name:left":"\u0418\u0441\u0442\u043e\u0447\u0435\u043d \u0420\u0435\u0433\u0438\u043e\u043d"},"arcs":[[9],[10]]},{"type":"LineString","properties":{"kind":"region","name:en":"Eastern Region","name":"\u0418\u0441\u0442\u043e\u0447\u0435\u043d \u0420\u0435\u0433\u0438\u043e\u043d","sort_rank":256,"kind_detail":"4","name:de":"Region Osten","source":"openstreetmap.org","min_zoom":8.0,"int_name":"Isto\u010den Region","name:ru":"\u0412\u043e\u0441\u0442\u043e\u0447\u043d\u044b\u0439 \u0440\u0435\u0433\u0438\u043e\u043d","id":-2572069,"osm_relation":true},"arcs":[11]},{"type":"LineString","properties":{"kind":"region","name:en":"Northeastern Region","name":"\u0421\u0435\u0432\u0435\u0440\u043e\u0438\u0441\u0442\u043e\u0447\u0435\u043d \u0420\u0435\u0433\u0438\u043e\u043d","sort_rank":256,"kind_detail":"4","name:de":"Region Nordosten","source":"openstreetmap.org","min_zoom":8.0,"int_name":"Severoisto\u010den Region","name:ru":"\u0421\u0435\u0432\u0435\u0440\u043e-\u0412\u043e\u0441\u0442\u043e\u0447\u043d\u044b\u0439 \u0440\u0435\u0433\u0438\u043e\u043d","id":-2570958,"osm_relation":true},"arcs":[12]}]},"roads":{"type":"GeometryCollection","geometries":[{"type":"MultiLineString","properties":{"kind":"major_road","network":"mk:national","sort_rank":380,"kind_detail":"primary","source":"openstreetmap.org","min_zoom":8.0,"shield_text":"3","ref":"A3"},"arcs":[[57],[58],[59],[60],[61],[62],[63],[64],[65],[66],[67],[68],[69],[70],[71],[72],[73],[74]]},{"type":"LineString","properties":{"kind":"major_road","sort_rank":380,"kind_detail":"primary","is_bicycle_related":true,"bus_network":"Skopje:local","cycleway":"track","source":"openstreetmap.org","min_zoom":8.0,"bus_shield_text":"21A","landuse_kind":"urban_area","id":248441787},"arcs":[75]},{"type":"MultiLineString","properties":{"kind":"major_road","name:en":"Boulevard Aleksandar Makedonski","sort_rank":380,"landuse_kind":"urban_area","bus_network":"Skopje:local","source":"openstreetmap.org","min_zoom":8.0,"bus_shield_text":"2","kind_detail":"primary"},"arcs":[[76],[77]]},{"type":"MultiLineString","properties":{"bus_network":"Skopje:local","sort_rank":380,"kind_detail":"primary","kind":"major_road","source":"openstreetmap.org","min_zoom":8.0,"bus_shield_text":"5","landuse_kind":"urban_area"},"arcs":[[78],[79]]},{"type":"LineString","properties":{"bus_network":"Skopje:local","int_name":"Boris Trajkovski","sort_rank":380,"kind_detail":"primary","min_zoom":8.0,"source":"openstreetmap.org","name:fr":"Boris Trajkovski","name:en":"Boris Trajkovski","bus_shield_text":"4A","landuse_kind":"urban_area","kind":"major_road"},"arcs":[80]},{"type":"LineString","properties":{"bus_network":"Skopje:local","name:en":"Boulevard 8th September","sort_rank":380,"kind_detail":"primary","is_bicycle_related":true,"kind":"major_road","cycleway":"both","source":"openstreetmap.org","min_zoom":8.0,"bus_shield_text":"21A","landuse_kind":"urban_area"},"arcs":[81]},{"type":"LineString","properties":{"bus_network":"Skopje:local","name:en":"Mitropolit Teodosij Gologanov","sort_rank":380,"kind_detail":"primary","old_name":"\u0418\u0432\u043e \u0420\u0438\u0431\u0430\u0440 \u041b\u043e\u043b\u0430","is_bicycle_related":true,"kind":"major_road","cycleway":"track","source":"openstreetmap.org","min_zoom":8.0,"bus_shield_text":"4A","landuse_kind":"urban_area"},"arcs":[82]},{"type":"MultiLineString","properties":{"bus_network":"Skopje:local","sort_rank":380,"kind_detail":"primary","kind":"major_road","source":"openstreetmap.org","min_zoom":8.0,"bus_shield_text":"3","landuse_kind":"urban_area"},"arcs":[[83],[84]]},{"type":"MultiLineString","properties":{"kind":"highway","int_name":"Aleksandar Makedonski","network":"mk:national","sort_rank":383,"landuse_kind":"urban_area","source":"openstreetmap.org","min_zoom":8.0,"name:en":"Alexander of Macedonia","all_networks":["mk:national","e-road"],"kind_detail":"motorway","shield_text":"1","ref":"A1","all_shield_texts":["1","75"]},"arcs":[[85],[86],[87],[88],[89],[90],[91],[92]]},{"type":"MultiLineString","properties":{"name:sq":"N\u00ebna Terez\u00eb","kind":"highway","int_name":"Majka Tereza","network":"mk:national","sort_rank":383,"kind_detail":"motorway","source":"openstreetmap.org","min_zoom":8.0,"name:en":"Mother Teresa","all_networks":["mk:national","e-road"],"shield_text":"2","ref":"A2","all_shield_texts":["2","65"]},"arcs":[[93],[94]]},{"type":"MultiLineString","properties":{"kind":"major_road","name:en":"Boulevard Aleksandar Makedonski","sort_rank":380,"kind_detail":"primary","bus_network":"Skopje:local","source":"openstreetmap.org","min_zoom":8.0,"bus_shield_text":"2A","landuse_kind":"urban_area"},"arcs":[[95],[96],[97]]},{"type":"MultiLineString","properties":{"bus_network":"Skopje:local","int_name":"Bulevar Vidoe Smilevski Bato","sort_rank":380,"kind_detail":"primary","kind":"major_road","source":"openstreetmap.org","min_zoom":8.0,"bus_shield_text":"3","landuse_kind":"urban_area"},"arcs":[[98],[99]]},{"type":"MultiLineString","properties":{"bus_network":"Skopje:local","sort_rank":380,"kind_detail":"primary","is_bicycle_related":true,"kind":"major_road","bicycle_shield_text":null,"cycleway":"track","source":"openstreetmap.org","min_zoom":8.0,"bus_shield_text":"3","landuse_kind":"urban_area","bicycle_network":"lcn"},"arcs":[[100],[101]]},{"type":"MultiLineString","properties":{"kind":"major_road","network":"mk:national","sort_rank":380,"kind_detail":"primary","source":"openstreetmap.org","min_zoom":8.0,"shield_text":"1102","ref":"R1102"},"arcs":[[102],[103]]},{"type":"MultiLineString","properties":{"kind":"highway","network":"mk:national","sort_rank":383,"kind_detail":"motorway","source":"openstreetmap.org","min_zoom":8.0,"all_networks":["mk:national","mk:national"],"shield_text":"2","ref":"A4","all_shield_texts":["2","4"]},"arcs":[[104],[105],[106],[107],[108],[109]]},{"type":"MultiLineString","properties":{"bus_network":"Skopje:local","sort_rank":380,"kind_detail":"primary","kind":"major_road","source":"openstreetmap.org","min_zoom":8.0,"bus_shield_text":"12","landuse_kind":"urban_area"},"arcs":[[110],[111]]},{"type":"MultiLineString","properties":{"sort_rank":380,"kind_detail":"primary","min_zoom":8.0,"kind":"major_road","source":"openstreetmap.org"},"arcs":[[112],[113]]},{"type":"LineString","properties":{"cycleway_right":"track","name:en":"Boulevard Goce Delcev","sort_rank":380,"kind_detail":"primary","is_bicycle_related":true,"kind":"major_road","bus_network":"Skopje:local","source":"openstreetmap.org","min_zoom":8.0,"bus_shield_text":"2A","landuse_kind":"urban_area","id":173138267},"arcs":[114]},{"type":"MultiLineString","properties":{"kind":"major_road","network":"mk:national","sort_rank":380,"kind_detail":"primary","source":"openstreetmap.org","min_zoom":8.0,"landuse_kind":"residential","shield_text":"3","ref":"A3"},"arcs":[[115],[116],[117],[118],[119],[120],[121],[122],[123],[124]]},{"type":"LineString","properties":{"bus_network":"Skopje:local","name:en":"Sv. Kiril i Metodij","sort_rank":380,"kind_detail":"primary","old_name":"\u041c\u0438\u0442\u043e \u0425\u0430\u045f\u0438\u0432\u0430\u0441\u0438\u043b\u0435\u0432 \u0408\u0430\u0441\u043c\u0438\u043d","kind":"major_road","source":"openstreetmap.org","min_zoom":8.0,"bus_shield_text":"9","landuse_kind":"urban_area"},"arcs":[125]},{"type":"MultiLineString","properties":{"bus_network":"Skopje:local","name:en":"Boulevard Kocho Racin","sort_rank":380,"kind_detail":"primary","kind":"major_road","source":"openstreetmap.org","min_zoom":8.0,"int_name":"Bulevar Ko\u010do Racin","bus_shield_text":"21A","landuse_kind":"urban_area"},"arcs":[[126],[127]]},{"type":"LineString","properties":{"bus_network":"Skopje:local","sort_rank":380,"kind_detail":"primary","is_bicycle_related":true,"kind":"major_road","cycleway":"both","source":"openstreetmap.org","min_zoom":8.0,"bus_shield_text":"5","landuse_kind":"urban_area"},"arcs":[128]},{"type":"MultiLineString","properties":{"bus_network":"Skopje:local","name:en":"Goce Delchev Bridge","sort_rank":380,"kind_detail":"primary","kind":"major_road","source":"openstreetmap.org","min_zoom":8.0,"int_name":"Most Goce Del\u010dev","bus_shield_text":"2A","landuse_kind":"urban_area"},"arcs":[[129],[130]]},{"type":"MultiLineString","properties":{"kind":"major_road","int_name":"Bulevar 8-mi Septemvri","sort_rank":380,"kind_detail":"primary","source":"openstreetmap.org","min_zoom":8.0,"name:en":"Boulevard 8th September","landuse_kind":"urban_area"},"arcs":[[131],[132],[133],[134]]},{"type":"LineString","properties":{"kind":"major_road","name:en":"Vladimir Nazor","network":"mk:national","sort_rank":380,"kind_detail":"primary","source":"openstreetmap.org","min_zoom":8.0,"int_name":"Vladimir Nazor","landuse_kind":"residential","shield_text":"3","ref":"A3"},"arcs":[135]},{"type":"LineString","properties":{"kind":"major_road","name:en":"Boulevard Partizanski Odredi","sort_rank":380,"kind_detail":"primary","source":"openstreetmap.org","min_zoom":8.0,"int_name":"Bulevar Partizanski Odredi","landuse_kind":"urban_area","id":230981170},"arcs":[136]},{"type":"MultiLineString","properties":{"cycleway_right":"track","name:en":"Boulevard Partizanski Odredi","sort_rank":380,"kind_detail":"primary","is_bicycle_related":true,"bus_network":"Skopje:local","bicycle_shield_text":null,"bicycle_network":"lcn","source":"openstreetmap.org","min_zoom":8.0,"int_name":"Bulevar Partizanski Odredi","bus_shield_text":"2A","landuse_kind":"urban_area","kind":"major_road"},"arcs":[[137],[138]]},{"type":"MultiLineString","properties":{"bus_network":"Skopje:local","sort_rank":380,"kind_detail":"primary","kind":"major_road","source":"openstreetmap.org","min_zoom":8.0,"bus_shield_text":"43","landuse_kind":"urban_area"},"arcs":[[139],[140]]},{"type":"LineString","properties":{"kind":"major_road","network":"mk:national","sort_rank":380,"kind_detail":"primary","bus_network":"Skopje:local","source":"openstreetmap.org","name:fr":"Boris Trajkovski","bus_shield_text":"4A","shield_text":"2134","min_zoom":8.0,"landuse_kind":"urban_area","ref":"R2134","id":175168758},"arcs":[141]},{"type":"LineString","properties":{"kind":"major_road","network":"mk:national","sort_rank":380,"kind_detail":"primary","source":"openstreetmap.org","min_zoom":8.0,"landuse_kind":"urban_area","shield_text":"3","ref":"A3;A4"},"arcs":[142]},{"type":"LineString","properties":{"bus_network":"Skopje:local","int_name":"11 Oktomvri","sort_rank":380,"kind_detail":"primary","name:fr":"Rue du 11 Octobre","source":"openstreetmap.org","min_zoom":8.0,"name:en":"11 Oktomvri","bus_shield_text":"4A","landuse_kind":"urban_area","kind":"major_road"},"arcs":[143]},{"type":"LineString","properties":{"bus_network":"Skopje:local","name:en":"Mitropolit Teodosij Gologanov","sort_rank":380,"kind_detail":"primary","bus_shield_text":"4A","is_bicycle_related":true,"kind":"major_road","cycleway":"both","source":"openstreetmap.org","min_zoom":8.0,"old_name":"\u0418\u0432\u043e \u0420\u0438\u0431\u0430\u0440 \u041b\u043e\u043b\u0430","landuse_kind":"urban_area"},"arcs":[144]},{"type":"MultiLineString","properties":{"bus_network":"Skopje:local","int_name":"Bulevar Ilinden","sort_rank":380,"kind_detail":"primary","kind":"major_road","source":"openstreetmap.org","min_zoom":8.0,"name:en":"Boulevard Ilinden","bus_shield_text":"8","landuse_kind":"urban_area"},"arcs":[[145],[146],[147],[148],[149],[150]]},{"type":"LineString","properties":{"bus_network":"Skopje:local","int_name":"Bulevar Cvetan Dimov","sort_rank":380,"kind_detail":"primary","kind":"major_road","source":"openstreetmap.org","min_zoom":8.0,"name:en":"Bulevard Cvetan Dimov","bus_shield_text":"8","landuse_kind":"urban_area"},"arcs":[151]},{"type":"MultiLineString","properties":{"bus_network":"Skopje:local","sort_rank":380,"kind_detail":"primary","kind":"major_road","source":"openstreetmap.org","min_zoom":8.0,"bus_shield_text":"4A","landuse_kind":"urban_area"},"arcs":[[152],[153],[154],[155],[156],[157],[158]]},{"type":"LineString","properties":{"kind":"major_road","name:en":"11 Oktomvri","network":"Skopje:local","sort_rank":380,"kind_detail":"primary","bus_network":"Skopje:local","source":"openstreetmap.org","name:fr":"Rue du 11 Octobre","int_name":"11 Oktomvri","bus_shield_text":"21A","min_zoom":8.0,"landuse_kind":"urban_area","id":375365742},"arcs":[159]},{"type":"MultiLineString","properties":{"bus_network":"Skopje:local","sort_rank":380,"kind_detail":"primary","name:fr":"Boris Trajkovski","source":"openstreetmap.org","min_zoom":8.0,"bus_shield_text":"4A","landuse_kind":"urban_area","kind":"major_road"},"arcs":[[160],[161]]},{"type":"LineString","properties":{"bus_network":"Skopje:local","name:en":"Boulevard Partizanski Odredi","sort_rank":380,"kind_detail":"primary","is_bicycle_related":true,"cycleway_right":"designated","source":"openstreetmap.org","min_zoom":8.0,"int_name":"Bulevar Partizanski Odredi","bus_shield_text":"2A","landuse_kind":"urban_area","kind":"major_road"},"arcs":[162]},{"type":"MultiLineString","properties":{"bus_network":"Skopje:local","int_name":"11 Oktomvri","sort_rank":380,"kind_detail":"primary","name:fr":"Rue du 11 Octobre","source":"openstreetmap.org","min_zoom":8.0,"name:en":"11 Oktomvri","bus_shield_text":"21A","landuse_kind":"urban_area","kind":"major_road"},"arcs":[[163],[164]]},{"type":"MultiLineString","properties":{"bus_network":"Skopje:local","name:en":"Boulevard Goce Delcev","sort_rank":380,"kind_detail":"primary","kind":"major_road","source":"openstreetmap.org","min_zoom":8.0,"bus_shield_text":"2A","landuse_kind":"urban_area"},"arcs":[[165],[166],[167]]},{"type":"LineString","properties":{"kind":"major_road","sort_rank":380,"kind_detail":"primary","source":"openstreetmap.org","min_zoom":8.0,"old_name":"\u0412\u043e\u0458\u0432\u043e\u0434\u0438\u043d\u0430","landuse_kind":"urban_area","id":173057375},"arcs":[168]},{"type":"LineString","properties":{"bus_network":"Skopje:local","name:en":"Bulevard Kliment Ohridski","sort_rank":380,"kind_detail":"primary","kind":"major_road","source":"openstreetmap.org","min_zoom":8.0,"int_name":"Bulevar Kliment Ohridski","bus_shield_text":"21A","landuse_kind":"urban_area"},"arcs":[169]},{"type":"LineString","properties":{"kind":"major_road","name:en":"4th of November","network":"mk:national","sort_rank":380,"kind_detail":"primary","source":"openstreetmap.org","min_zoom":8.0,"int_name":"4 Noemvri","landuse_kind":"residential","shield_text":"3","ref":"A3","id":184873235},"arcs":[170]},{"type":"MultiLineString","properties":{"kind":"highway","int_name":"Aleksandar Makedonski","network":"mk:national","sort_rank":383,"kind_detail":"motorway","source":"openstreetmap.org","min_zoom":8.0,"name:en":"Alexander of Macedonia","all_networks":["mk:national","e-road"],"shield_text":"1","ref":"A1","all_shield_texts":["1","75"]},"arcs":[[171],[172],[173],[174],[175],[176],[177],[178],[179],[180],[181],[182],[183],[184],[185],[186],[187],[188],[189],[190],[191],[192],[193],[194],[195],[196],[197],[198],[199]]},{"type":"LineString","properties":{"kind":"major_road","name:en":"Boulevard 8th September","sort_rank":380,"landuse_kind":"urban_area","source":"openstreetmap.org","min_zoom":8.0,"kind_detail":"primary","id":231654856},"arcs":[200]},{"type":"MultiLineString","properties":{"kind":"major_road","name:en":"Bulevard Kliment Ohridski","sort_rank":380,"kind_detail":"primary","source":"openstreetmap.org","min_zoom":8.0,"int_name":"Bulevar Kliment Ohridski","landuse_kind":"urban_area"},"arcs":[[201],[202],[203]]},{"type":"MultiLineString","properties":{"bus_network":"Skopje:local","name:en":"Boulevard Partizanski Odredi","sort_rank":380,"kind_detail":"primary","is_bicycle_related":true,"kind":"major_road","bicycle_shield_text":null,"bicycle_network":"lcn","source":"openstreetmap.org","min_zoom":8.0,"int_name":"Bulevar Partizanski Odredi","bus_shield_text":"2A","landuse_kind":"urban_area"},"arcs":[[204],[205],[206],[207]]},{"type":"MultiLineString","properties":{"bus_network":"Skopje:local","name:en":"Boulevard Partizanski Odredi","sort_rank":380,"kind_detail":"primary","kind":"major_road","source":"openstreetmap.org","min_zoom":8.0,"bus_shield_text":"22","landuse_kind":"urban_area"},"arcs":[[208],[209],[210],[211],[212]]},{"type":"MultiLineString","properties":{"bus_network":"Skopje:local","sort_rank":380,"kind_detail":"primary","kind":"major_road","source":"openstreetmap.org","min_zoom":8.0,"bus_shield_text":"21","landuse_kind":"urban_area"},"arcs":[[213],[214],[215]]},{"type":"LineString","properties":{"kind":"major_road","name:en":"Sv. Kiril i Metodij","sort_rank":380,"kind_detail":"primary","source":"openstreetmap.org","min_zoom":8.0,"old_name":"\u041c\u0438\u0442\u043e \u0425\u0430\u045f\u0438\u0432\u0430\u0441\u0438\u043b\u0435\u0432 \u0408\u0430\u0441\u043c\u0438\u043d","landuse_kind":"urban_area"},"arcs":[216]},{"type":"MultiLineString","properties":{"bus_network":"Skopje:local","int_name":"Bulevar 8-mi Septemvri","sort_rank":380,"kind_detail":"primary","is_bicycle_related":true,"kind":"major_road","cycleway":"both","source":"openstreetmap.org","min_zoom":8.0,"name:en":"Boulevard 8th September","bus_shield_text":"21A","landuse_kind":"urban_area"},"arcs":[[217],[218]]},{"type":"LineString","properties":{"kind":"major_road","network":"mk:national","sort_rank":380,"kind_detail":"primary","bus_network":"Skopje:local","source":"openstreetmap.org","min_zoom":8.0,"bus_shield_text":"41","shield_text":"2134","landuse_kind":"urban_area","ref":"R2134","id":40834064},"arcs":[219]},{"type":"MultiLineString","properties":{"kind":"major_road","name:en":"Boulevard Aleksandar Makedonski","sort_rank":380,"kind_detail":"primary","bus_network":"Skopje:local","source":"openstreetmap.org","min_zoom":8.0,"bus_shield_text":"43","landuse_kind":"urban_area"},"arcs":[[220],[221],[222],[223]]},{"type":"MultiLineString","properties":{"bus_network":"Skopje:local","int_name":"Bulevar 8-mi Septemvri","sort_rank":380,"kind_detail":"primary","kind":"major_road","source":"openstreetmap.org","min_zoom":8.0,"name:en":"Boulevard 8th September","bus_shield_text":"21A","landuse_kind":"urban_area"},"arcs":[[224],[225],[226]]},{"type":"LineString","properties":{"kind":"major_road","name:en":"Boulevard Ilinden","sort_rank":380,"kind_detail":"primary","bus_network":"Skopje:local","source":"openstreetmap.org","min_zoom":8.0,"int_name":"Nikola Parapunov","bus_shield_text":"8","landuse_kind":"urban_area","id":26791927},"arcs":[227]},{"type":"MultiLineString","properties":{"bus_network":"Skopje:local","int_name":"Bulevar Ilinden","sort_rank":380,"kind_detail":"primary","is_bicycle_related":true,"cycleway_right":"track","source":"openstreetmap.org","min_zoom":8.0,"name:en":"Boulevard Ilinden","bus_shield_text":"8","landuse_kind":"urban_area","kind":"major_road"},"arcs":[[228],[229],[230],[231],[232],[233]]},{"type":"LineString","properties":{"kind":"major_road","name:en":"Gjorche Petrov Bulevard","network":"mk:national","sort_rank":380,"kind_detail":"primary","bus_network":"Skopje:local","source":"openstreetmap.org","min_zoom":8.0,"int_name":"Bulevar \u01f4or\u010de Petrov","bus_shield_text":"2A","shield_text":"2234","landuse_kind":"urban_area","ref":"R2234","id":187774930},"arcs":[234]},{"type":"LineString","properties":{"bus_network":"Skopje:local","int_name":"Bulevar \u01f4or\u010de Petrov","sort_rank":380,"kind_detail":"primary","kind":"major_road","source":"openstreetmap.org","min_zoom":8.0,"name:en":"Gjorche Petrov Bulevard","bus_shield_text":"2A","landuse_kind":"urban_area"},"arcs":[235]},{"type":"MultiLineString","properties":{"kind":"major_road","network":"mk:national","sort_rank":380,"kind_detail":"primary","source":"openstreetmap.org","min_zoom":8.0,"landuse_kind":"urban_area","shield_text":"3","ref":"A3"},"arcs":[[236],[237],[238],[239],[240],[241],[242],[243],[244],[245],[246],[247],[248],[249],[250],[251],[252]]},{"type":"MultiLineString","properties":{"kind":"major_road","network":"mk:national","sort_rank":380,"kind_detail":"primary","source":"openstreetmap.org","min_zoom":8.0,"shield_text":"4","ref":"A4"},"arcs":[[253],[254],[255]]},{"type":"MultiLineString","properties":{"bus_network":"Skopje:local","name:en":"Dimitrie Chupovski","sort_rank":380,"kind_detail":"primary","kind":"major_road","source":"openstreetmap.org","min_zoom":8.0,"bus_shield_text":"21A","landuse_kind":"urban_area"},"arcs":[[256],[257]]},{"type":"MultiLineString","properties":{"kind":"major_road","network":"mk:national","sort_rank":380,"kind_detail":"primary","source":"openstreetmap.org","min_zoom":8.0,"shield_text":"1","ref":"A1"},"arcs":[[258],[259],[260],[261],[262],[263],[264],[265],[266]]},{"type":"LineString","properties":{"source":"openstreetmap.org","kind":"major_road","sort_rank":380,"kind_detail":"primary","ref":"A3","min_zoom":8.0},"arcs":[267]},{"type":"LineString","properties":{"kind":"major_road","sort_rank":380,"landuse_kind":"urban_area","source":"openstreetmap.org","min_zoom":8.0,"kind_detail":"primary","ref":"M5","id":229052370},"arcs":[268]},{"type":"LineString","properties":{"kind":"major_road","name:en":"Bulevard Kliment Ohridski","sort_rank":380,"kind_detail":"primary","bus_network":"Skopje:local","source":"openstreetmap.org","min_zoom":8.0,"int_name":"Bulevar Kliment Ohridski","bus_shield_text":"3","landuse_kind":"urban_area","id":223286805},"arcs":[269]},{"type":"LineString","properties":{"kind":"major_road","int_name":"Belasica","sort_rank":380,"kind_detail":"primary","source":"openstreetmap.org","min_zoom":8.0,"name:en":"Belasica","landuse_kind":"urban_area"},"arcs":[270]},{"type":"MultiLineString","properties":{"kind":"major_road","network":"mk:national","sort_rank":380,"kind_detail":"primary","source":"openstreetmap.org","min_zoom":8.0,"landuse_kind":"park","shield_text":"3","ref":"A3"},"arcs":[[271],[272]]},{"type":"LineString","properties":{"kind":"major_road","name:en":"Boulevard Ilinden","sort_rank":380,"landuse_kind":"urban_area","source":"openstreetmap.org","min_zoom":8.0,"kind_detail":"primary","id":544003013},"arcs":[273]},{"type":"MultiLineString","properties":{"bus_network":"Skopje:local","network":"mk:national","sort_rank":380,"kind_detail":"primary","name:fr":"Boris Trajkovski","source":"openstreetmap.org","min_zoom":8.0,"bus_shield_text":"41","shield_text":"2134","landuse_kind":"urban_area","ref":"R2134","kind":"major_road"},"arcs":[[274],[275]]},{"type":"MultiLineString","properties":{"source":"openstreetmap.org","kind":"highway","landuse_kind":"urban_area","sort_rank":383,"kind_detail":"motorway","min_zoom":8.0},"arcs":[[276],[277],[278],[279],[280],[281],[282],[283]]},{"type":"LineString","properties":{"kind":"highway","name:en":"Alexander The Great","network":"mk:national","sort_rank":383,"kind_detail":"motorway","source":"openstreetmap.org","min_zoom":8.0,"all_networks":["mk:national","e-road"],"shield_text":"1","all_shield_texts":["1","75"]},"arcs":[284]},{"type":"LineString","properties":{"bus_network":"Skopje:local","name:en":"Boulevard Krste Misirkov","sort_rank":380,"kind_detail":"primary","kind":"major_road","source":"openstreetmap.org","min_zoom":8.0,"int_name":"Bulevar Krste Misirkov","bus_shield_text":"8","landuse_kind":"urban_area"},"arcs":[285]},{"type":"LineString","properties":{"kind":"major_road","network":"mk:national","sort_rank":380,"kind_detail":"primary","source":"openstreetmap.org","min_zoom":8.0,"shield_text":"4","ref":"\u04104"},"arcs":[286]},{"type":"LineString","properties":{"kind":"major_road","name:en":"Nikola Tesla","sort_rank":380,"kind_detail":"primary","source":"openstreetmap.org","min_zoom":8.0,"int_name":"Nikola Tesla","landuse_kind":"residential","id":300689157},"arcs":[287]},{"type":"LineString","properties":{"bus_network":"Skopje:local","name:en":"Boris Trajkovski","sort_rank":380,"kind_detail":"primary","is_bicycle_related":true,"kind":"major_road","cycleway":"official","source":"openstreetmap.org","min_zoom":8.0,"bus_shield_text":"4A","landuse_kind":"urban_area"},"arcs":[288]},{"type":"MultiLineString","properties":{"kind":"highway","int_name":"Aleksandar Makedonski","network":"mk:national","sort_rank":383,"kind_detail":"motorway","source":"openstreetmap.org","min_zoom":8.0,"name:en":"Alexander of Macedonia","all_networks":["mk:national","mk:national","e-road"],"shield_text":"1","ref":"A1","all_shield_texts":["1","2","75"]},"arcs":[[289],[290]]},{"type":"MultiLineString","properties":{"bus_network":"Skopje:local","sort_rank":380,"kind_detail":"primary","kind":"major_road","source":"openstreetmap.org","min_zoom":8.0,"bus_shield_text":"7","landuse_kind":"urban_area"},"arcs":[[291],[292]]},{"type":"MultiLineString","properties":{"bus_network":"Skopje:local","sort_rank":380,"kind_detail":"primary","kind":"major_road","source":"openstreetmap.org","min_zoom":8.0,"bus_shield_text":"2A","landuse_kind":"urban_area"},"arcs":[[293],[294],[295],[296],[297],[298],[299],[300]]},{"type":"MultiLineString","properties":{"cycleway_right":"official","sort_rank":380,"kind_detail":"primary","is_bicycle_related":true,"kind":"major_road","source":"openstreetmap.org","min_zoom":8.0,"landuse_kind":"urban_area"},"arcs":[[301],[302]]},{"type":"MultiLineString","properties":{"bus_network":"Skopje:local","sort_rank":380,"kind_detail":"primary","kind":"major_road","source":"openstreetmap.org","min_zoom":8.0,"bus_shield_text":"21A","landuse_kind":"urban_area"},"arcs":[[303],[304],[305],[306],[307],[308]]},{"type":"LineString","properties":{"kind":"major_road","network":"mk:national","sort_rank":380,"kind_detail":"primary","source":"openstreetmap.org","min_zoom":8.0,"landuse_kind":"urban_area","shield_text":"3","ref":"A3, A4","id":174699219},"arcs":[309]},{"type":"LineString","properties":{"source":"openstreetmap.org","kind":"major_road","landuse_kind":"residential","sort_rank":380,"kind_detail":"primary","min_zoom":8.0},"arcs":[310]},{"type":"MultiLineString","properties":{"sort_rank":383,"kind_detail":"motorway","min_zoom":8.0,"kind":"highway","source":"openstreetmap.org"},"arcs":[[311],[312],[313],[314],[315],[316],[317],[318]]},{"type":"LineString","properties":{"kind":"major_road","int_name":"Partizanska","network":"mk:national","sort_rank":380,"kind_detail":"primary","is_bicycle_related":true,"source":"openstreetmap.org","min_zoom":8.0,"landuse_kind":"residential","shield_text":"3","ref":"A3","id":36273425},"arcs":[319]},{"type":"LineString","properties":{"cycleway_right":"track","name:en":"Boulevard Ilinden","sort_rank":380,"kind_detail":"primary","is_bicycle_related":true,"kind":"major_road","bus_network":"Skopje:local","source":"openstreetmap.org","min_zoom":8.0,"int_name":"Bulevar Ilinden","bus_shield_text":"7","landuse_kind":"urban_area","id":256861051},"arcs":[320]},{"type":"MultiLineString","properties":{"kind":"highway","int_name":"Majka Tereza","network":"mk:national","sort_rank":383,"kind_detail":"motorway","source":"openstreetmap.org","min_zoom":8.0,"name:en":"Mother Teresa","all_networks":["mk:national","mk:national"],"all_shield_texts":["2","4"],"shield_text":"2","ref":"A2;A4","name:sq":"N\u00ebna Terez\u00eb"},"arcs":[[321],[322]]},{"type":"MultiLineString","properties":{"name:sq":"N\u00ebna Terez\u00eb","kind":"highway","int_name":"Majka Tereza","network":"mk:national","sort_rank":383,"landuse_kind":"urban_area","source":"openstreetmap.org","min_zoom":8.0,"name:en":"Mother Teresa","all_networks":["mk:national","e-road"],"kind_detail":"motorway","shield_text":"2","ref":"A2","all_shield_texts":["2","65"]},"arcs":[[323],[324]]},{"type":"MultiLineString","properties":{"bus_network":"Skopje:local","sort_rank":380,"kind_detail":"primary","kind":"major_road","source":"openstreetmap.org","min_zoom":8.0,"bus_shield_text":"9","landuse_kind":"urban_area"},"arcs":[[325],[326]]},{"type":"LineString","properties":{"bus_network":"Skopje:local","sort_rank":380,"kind_detail":"primary","old_name":"\u0418\u0432\u043e \u041b\u043e\u043b\u0430 \u0420\u0438\u0431\u0430\u0440","kind":"major_road","source":"openstreetmap.org","min_zoom":8.0,"bus_shield_text":"4A","landuse_kind":"urban_area"},"arcs":[327]},{"type":"LineString","properties":{"kind":"major_road","network":"mk:national","sort_rank":380,"kind_detail":"primary","source":"openstreetmap.org","min_zoom":8.0,"shield_text":"3","ref":"A3;A4"},"arcs":[328]},{"type":"LineString","properties":{"bus_network":"Skopje:local","sort_rank":380,"kind_detail":"primary","kind":"major_road","source":"openstreetmap.org","min_zoom":8.0,"bus_shield_text":"8","landuse_kind":"urban_area"},"arcs":[329]},{"type":"MultiLineString","properties":{"bus_network":"Skopje:local","sort_rank":380,"kind_detail":"primary","old_name":"\u0418\u0432\u043e \u0420\u0438\u0431\u0430\u0440 \u041b\u043e\u043b\u0430","is_bicycle_related":true,"kind":"major_road","cycleway":"official","source":"openstreetmap.org","min_zoom":8.0,"bus_shield_text":"4A","landuse_kind":"urban_area"},"arcs":[[330],[331]]},{"type":"MultiLineString","properties":{"bus_network":"Skopje:local","int_name":"Bulevar Jane Sandanski","sort_rank":380,"kind_detail":"primary","is_bicycle_related":true,"kind":"major_road","bicycle_shield_text":null,"cycleway":"track","source":"openstreetmap.org","min_zoom":8.0,"name:en":"Bulevard Jane Sandanski","bus_shield_text":"3","landuse_kind":"urban_area","bicycle_network":"lcn"},"arcs":[[332],[333]]},{"type":"LineString","properties":{"bus_network":"Skopje:local","int_name":"Nikola Parapunov","sort_rank":380,"kind_detail":"primary","kind":"major_road","source":"openstreetmap.org","min_zoom":8.0,"name:en":"Nikola Parapunov","bus_shield_text":"8","landuse_kind":"urban_area"},"arcs":[334]},{"type":"MultiLineString","properties":{"kind":"major_road","alt_name:en":"Kachanichki Pat","sort_rank":380,"kind_detail":"primary","source":"openstreetmap.org","min_zoom":8.0,"name:en":"Jadranska Magistrala","landuse_kind":"urban_area"},"arcs":[[335],[336]]},{"type":"LineString","properties":{"kind":"highway","network":"mk:national","sort_rank":383,"landuse_kind":"urban_area","source":"openstreetmap.org","min_zoom":8.0,"all_networks":["mk:national","mk:national"],"kind_detail":"motorway","shield_text":"2","ref":"A2;A4","all_shield_texts":["2","4"]},"arcs":[337]},{"type":"LineString","properties":{"kind":"major_road","int_name":"Prilepska","network":"mk:national","sort_rank":380,"kind_detail":"primary","source":"openstreetmap.org","min_zoom":8.0,"name:en":"Prilepska","landuse_kind":"residential","shield_text":"3","ref":"A3"},"arcs":[338]},{"type":"MultiLineString","properties":{"source":"openstreetmap.org","kind":"major_road","name:en":"Boulevard Aleksandar Makedonski","landuse_kind":"urban_area","sort_rank":380,"kind_detail":"primary","min_zoom":8.0},"arcs":[[339],[340],[341],[342]]},{"type":"LineString","properties":{"bus_network":"Skopje:local","name:en":"Boulevard Treta makedonska brigada","sort_rank":380,"kind_detail":"primary","is_bicycle_related":true,"cycleway_right":"official","source":"openstreetmap.org","min_zoom":8.0,"bus_shield_text":"7","landuse_kind":"urban_area","kind":"major_road"},"arcs":[343]},{"type":"MultiLineString","properties":{"bus_network":"Skopje:local","name:en":"Boulevard Partizanski Odredi","sort_rank":380,"kind_detail":"primary","kind":"major_road","source":"openstreetmap.org","min_zoom":8.0,"int_name":"Bulevar Partizanski Odredi","bus_shield_text":"2A","landuse_kind":"urban_area"},"arcs":[[344],[345],[346],[347]]},{"type":"MultiLineString","properties":{"kind":"major_road","network":"mk:national","sort_rank":380,"kind_detail":"primary","source":"openstreetmap.org","min_zoom":8.0,"shield_text":"1204","ref":"R1204"},"arcs":[[348],[349],[350]]},{"type":"MultiLineString","properties":{"bus_network":"Skopje:local","name:en":"Boulevard Krste Misirkov","sort_rank":380,"kind_detail":"primary","kind":"major_road","source":"openstreetmap.org","min_zoom":8.0,"int_name":"Bulevar Krste Misirkov","bus_shield_text":"2A","landuse_kind":"urban_area"},"arcs":[[351],[352],[353],[354]]},{"type":"LineString","properties":{"kind":"major_road","name:en":"Skupi","sort_rank":380,"kind_detail":"primary","bus_network":"Skopje:local","source":"openstreetmap.org","min_zoom":8.0,"int_name":"Skupi","bus_shield_text":"21","landuse_kind":"urban_area","id":316892932},"arcs":[355]},{"type":"MultiLineString","properties":{"bus_network":"Skopje:local","int_name":"Bulevar Srbija","sort_rank":380,"kind_detail":"primary","kind":"major_road","source":"openstreetmap.org","min_zoom":8.0,"bus_shield_text":"13","landuse_kind":"urban_area"},"arcs":[[356],[357]]},{"type":"MultiLineString","properties":{"name:sq":"N\u00ebna Terez\u00eb","kind":"highway","int_name":"Majka Tereza","network":"mk:national","sort_rank":383,"landuse_kind":"urban_area","source":"openstreetmap.org","min_zoom":8.0,"name:en":"Mother Teresa","all_networks":["mk:national","mk:national"],"kind_detail":"motorway","shield_text":"2","ref":"A2;A4","all_shield_texts":["2","4"]},"arcs":[[358],[359]]},{"type":"LineString","properties":{"kind":"major_road","int_name":"\u017delezni\u010dka","network":"mk:national","sort_rank":380,"kind_detail":"primary","source":"openstreetmap.org","min_zoom":8.0,"landuse_kind":"residential","shield_text":"3","ref":"A3"},"arcs":[360]},{"type":"MultiLineString","properties":{"name:sq":"N\u00ebna Terez\u00eb","kind":"highway","name:en":"Mother Terese","network":"mk:national","sort_rank":383,"kind_detail":"motorway","source":"openstreetmap.org","min_zoom":8.0,"int_name":"Majka Tereza","all_networks":["mk:national","e-road"],"shield_text":"2","ref":"A2","all_shield_texts":["2","65"]},"arcs":[[361],[362]]},{"type":"MultiLineString","properties":{"bus_network":"Skopje:local","name:en":"Bulevard Hristijan Todorovski Karposh","sort_rank":380,"kind_detail":"primary","kind":"major_road","source":"openstreetmap.org","min_zoom":8.0,"int_name":"Bulevar Hristian Todorovski Karpo\u0161","bus_shield_text":"8","landuse_kind":"urban_area"},"arcs":[[363],[364],[365]]},{"type":"MultiLineString","properties":{"source":"openstreetmap.org","kind":"major_road","sort_rank":380,"kind_detail":"primary","ref":"A1","min_zoom":8.0},"arcs":[[366],[367]]},{"type":"MultiLineString","properties":{"bus_network":"Skopje:local","int_name":"Bulevar Ko\u010do Racin","sort_rank":380,"kind_detail":"primary","kind":"major_road","source":"openstreetmap.org","min_zoom":8.0,"name:en":"Boulevard Kocho Racin","bus_shield_text":"9","landuse_kind":"urban_area"},"arcs":[[368],[369],[370],[371]]},{"type":"MultiLineString","properties":{"source":"openstreetmap.org","kind":"major_road","landuse_kind":"urban_area","sort_rank":380,"kind_detail":"primary","min_zoom":8.0},"arcs":[[372],[373],[374],[375],[376],[377],[378],[379],[380],[381],[382],[383],[384],[385],[386],[387],[388],[389],[390],[391],[392],[393],[394]]},{"type":"MultiLineString","properties":{"bus_network":"Skopje:local","name:en":"Dimitrie Chupovski","sort_rank":380,"landuse_kind":"urban_area","kind":"major_road","source":"openstreetmap.org","min_zoom":8.0,"bus_shield_text":"4A","kind_detail":"primary"},"arcs":[[395],[396]]},{"type":"LineString","properties":{"kind":"major_road","network":"mk:national","sort_rank":380,"kind_detail":"primary","bus_network":"Skopje:local","source":"openstreetmap.org","min_zoom":8.0,"bus_shield_text":"4A","shield_text":"2134","landuse_kind":"urban_area","id":190347545},"arcs":[397]},{"type":"LineString","properties":{"kind":"highway","network":"mk:national","sort_rank":383,"kind_detail":"motorway","source":"openstreetmap.org","min_zoom":8.0,"all_networks":["mk:national","e-road"],"shield_text":"1","id":423955197,"all_shield_texts":["1","75"]},"arcs":[398]},{"type":"LineString","properties":{"kind":"major_road","name:en":"Nikola Karev","sort_rank":380,"kind_detail":"primary","source":"openstreetmap.org","min_zoom":8.0,"int_name":"Bulevar Nikola Karev","landuse_kind":"urban_area","id":316892959},"arcs":[399]},{"type":"LineString","properties":{"kind":"major_road","name:en":"Nikola Parapunov","sort_rank":380,"landuse_kind":"urban_area","source":"openstreetmap.org","min_zoom":8.0,"kind_detail":"primary","id":544003008},"arcs":[400]},{"type":"LineString","properties":{"kind":"major_road","network":"mk:national","sort_rank":380,"kind_detail":"primary","source":"openstreetmap.org","min_zoom":8.0,"landuse_kind":"park","shield_text":"3","id":155870512},"arcs":[401]},{"type":"MultiLineString","properties":{"kind":"major_road","int_name":"Bulevar Nikola Karev","sort_rank":380,"kind_detail":"primary","source":"openstreetmap.org","min_zoom":8.0,"name:en":"Boulevard Nikola Karev","landuse_kind":"urban_area"},"arcs":[[402],[403]]},{"type":"MultiLineString","properties":{"bus_network":"Skopje:local","name:en":"Boulevard Goce Delcev","sort_rank":380,"kind_detail":"primary","kind":"major_road","source":"openstreetmap.org","min_zoom":8.0,"bus_shield_text":"12","landuse_kind":"urban_area"},"arcs":[[404],[405]]},{"type":"LineString","properties":{"kind":"major_road","sort_rank":380,"kind_detail":"primary","old_name":"\u041f\u0440\u043e\u043b\u0435\u0442\u0435\u0440\u0441\u043a\u0430","bus_network":"Skopje:local","source":"openstreetmap.org","min_zoom":8.0,"bus_shield_text":"21","landuse_kind":"urban_area","id":30106208},"arcs":[406]},{"type":"LineString","properties":{"kind":"major_road","cycleway_left":"official","sort_rank":380,"kind_detail":"primary","is_bicycle_related":true,"source":"openstreetmap.org","min_zoom":8.0,"landuse_kind":"urban_area","id":174459568},"arcs":[407]},{"type":"LineString","properties":{"kind":"major_road","network":"mk:national","sort_rank":380,"kind_detail":"primary","source":"openstreetmap.org","min_zoom":8.0,"landuse_kind":"urban_area","shield_text":"4","ref":"A4"},"arcs":[408]},{"type":"MultiLineString","properties":{"bus_network":"Skopje:local","sort_rank":380,"kind_detail":"primary","kind":"major_road","source":"openstreetmap.org","min_zoom":8.0,"bus_shield_text":"13","landuse_kind":"urban_area"},"arcs":[[409],[410]]},{"type":"LineString","properties":{"bus_network":"Skopje:local","sort_rank":380,"kind_detail":"primary","bus_shield_text":"5","kind":"major_road","source":"openstreetmap.org","min_zoom":8.0,"old_name":"\u0410\u0434\u043e\u043b\u0444 \u0426\u0438\u0431\u043e\u0440\u043e\u0432\u0441\u043a\u0438","landuse_kind":"urban_area"},"arcs":[411]},{"type":"LineString","properties":{"kind":"major_road","name:en":"Mitroplit Teodosij Gologanov","sort_rank":380,"kind_detail":"primary","old_name":"\u0418\u0432\u043e \u0420\u0438\u0431\u0430\u0440 \u041b\u043e\u043b\u0430","is_bicycle_related":true,"bus_network":"Skopje:local","cycleway":"official","source":"openstreetmap.org","min_zoom":8.0,"bus_shield_text":"4A","landuse_kind":"urban_area","id":314798715},"arcs":[412]},{"type":"MultiLineString","properties":{"bus_network":"Skopje:local","sort_rank":380,"kind_detail":"primary","is_bicycle_related":true,"kind":"major_road","bicycle_shield_text":null,"cycleway":"track","source":"openstreetmap.org","min_zoom":8.0,"bus_shield_text":"21A","landuse_kind":"urban_area","bicycle_network":"lcn"},"arcs":[[413],[414]]},{"type":"MultiLineString","properties":{"kind":"highway","int_name":"Aleksandar Makedonski","network":"mk:national","sort_rank":383,"kind_detail":"motorway","source":"openstreetmap.org","min_zoom":8.0,"name:en":"Alexander of Macedonia","all_networks":["mk:national"],"shield_text":"1","ref":"A1","all_shield_texts":["1"]},"arcs":[[415],[416]]},{"type":"LineString","properties":{"kind":"major_road","name:en":"Ivo Ribar-Lola","network":"mk:national","sort_rank":380,"kind_detail":"primary","source":"openstreetmap.org","min_zoom":8.0,"int_name":"Ivo Ribar-Lola","landuse_kind":"residential","shield_text":"3","ref":"A3","id":36821072},"arcs":[417]},{"type":"LineString","properties":{"kind":"highway","network":"mk:national","sort_rank":383,"landuse_kind":"urban_area","source":"openstreetmap.org","min_zoom":8.0,"all_networks":["mk:national","mk:national"],"kind_detail":"motorway","shield_text":"2","ref":"A4","all_shield_texts":["2","4"]},"arcs":[418]},{"type":"MultiLineString","properties":{"bus_network":"Skopje:local","name:en":"Kliment Ohridski Boulevard","sort_rank":380,"kind_detail":"primary","kind":"major_road","source":"openstreetmap.org","min_zoom":8.0,"int_name":"Bulevar Kliment Ohridski","bus_shield_text":"3","landuse_kind":"urban_area"},"arcs":[[419],[420]]},{"type":"MultiLineString","properties":{"source":"openstreetmap.org","kind":"highway","sort_rank":383,"kind_detail":"motorway","ref":"A4","min_zoom":8.0},"arcs":[[421],[422]]},{"type":"LineString","properties":{"bus_network":"Skopje:local","int_name":"Skupi","sort_rank":380,"landuse_kind":"urban_area","kind":"major_road","source":"openstreetmap.org","min_zoom":8.0,"name:en":"Skupi","bus_shield_text":"21A","kind_detail":"primary"},"arcs":[423]},{"type":"LineString","properties":{"kind":"major_road","sort_rank":380,"kind_detail":"primary","bus_network":"Skopje:local","source":"openstreetmap.org","min_zoom":8.0,"bus_shield_text":"22","landuse_kind":"urban_area","id":544128632},"arcs":[424]},{"type":"MultiLineString","properties":{"bus_network":"Skopje:local","sort_rank":380,"landuse_kind":"urban_area","old_name":"\u0412\u043e\u0458\u0432\u043e\u0434\u0438\u043d\u0430","kind":"major_road","source":"openstreetmap.org","min_zoom":8.0,"bus_shield_text":"13","kind_detail":"primary"},"arcs":[[425],[426]]},{"type":"MultiLineString","properties":{"name:sq":"N\u00ebna Terez\u00eb","kind":"highway","name:en":"Mother Terese","network":"mk:national","sort_rank":383,"landuse_kind":"urban_area","source":"openstreetmap.org","min_zoom":8.0,"int_name":"Majka Tereza","all_networks":["mk:national","e-road"],"kind_detail":"motorway","shield_text":"2","ref":"A2","all_shield_texts":["2","65"]},"arcs":[[427],[428]]},{"type":"MultiLineString","properties":{"kind":"major_road","network":"mk:national","sort_rank":380,"kind_detail":"primary","source":"openstreetmap.org","min_zoom":8.0,"landuse_kind":"urban_area","shield_text":"1","ref":"A1"},"arcs":[[429],[430]]},{"type":"LineString","properties":{"kind":"major_road","sort_rank":380,"kind_detail":"primary","bus_network":"Skopje:local","source":"openstreetmap.org","min_zoom":8.0,"bus_shield_text":"2","landuse_kind":"urban_area","id":22949402},"arcs":[431]},{"type":"LineString","properties":{"kind":"major_road","name:en":"Boris Trajkovski","sort_rank":380,"kind_detail":"primary","bus_network":"Skopje:local","source":"openstreetmap.org","min_zoom":8.0,"int_name":"Boris Trajkovski","bus_shield_text":"4A","landuse_kind":"urban_area","id":224735412},"arcs":[432]}]},"earth":{"type":"GeometryCollection","geometries":[{"type":"Polygon","properties":{"sort_rank":10,"source":"naturalearthdata.com","kind":"earth","min_zoom":0.0,"id":4741},"arcs":[[433]]}]},"landuse":{"type":"GeometryCollection","geometries":[{"type":"MultiPolygon","properties":{"source":"openstreetmap.org","kind":"nature_reserve","tier":2,"area":88090080,"sort_rank":23,"min_zoom":8.0},"arcs":[[[434]]]},{"type":"Polygon","properties":{"kind":"residential","name:en":"Bitola","name":"\u0411\u0438\u0442\u043e\u043b\u0430","area":36692400,"sort_rank":20,"source":"openstreetmap.org","min_zoom":8.0,"tier":2,"id":-5289928,"osm_relation":true},"arcs":[[435]]},{"type":"Polygon","properties":{"kind":"residential","name":"\u0412\u0435\u043b\u0435\u0441","area":12026100,"sort_rank":20,"source":"openstreetmap.org","min_zoom":8.0,"tier":2,"id":32570561},"arcs":[[436]]},{"type":"MultiPolygon","properties":{"source":"openstreetmap.org","kind":"park","tier":2,"area":1791550100,"sort_rank":24,"min_zoom":6.0,"osm_relation":true},"arcs":[[[437]]]},{"type":"MultiPolygon","properties":{"source":"naturalearthdata.com","kind":"urban_area","name":"","area":2346272244,"sort_rank":11,"min_zoom":4.0},"arcs":[[[438]],[[439]],[[440]],[[441]],[[442]],[[443]],[[444]]]},{"type":"Polygon","properties":{"source":"openstreetmap.org","kind":"nature_reserve","area":208176000,"tier":2,"id":139742316,"min_zoom":6.0,"sort_rank":23},"arcs":[[445]]},{"type":"Polygon","properties":{"name:ga":"Prilep","name:pt":"Prilepo","name:az":"Prilep","name:ie":"Prilep","name:id":"Prilep","name:ka":"\u10de\u10e0\u10d8\u10da\u10d4\u10de\u10d8","name:ko":"\ud504\ub9b4\ub808\ud504","name:cu":"\u041f\u0440\u0438\u043b\u0463\u043f\u044a","name:cs":"Prilep","name:th":"\u0e1e\u0e23\u0e35\u0e40\u0e25\u0e1b","name:ro":"Prilep","name:it":"Prilep","name:sv":"Prilep","name:nl":"Prilep","name:pl":"Prilep","id":-6552712,"name:ca":"Prilep","name:vo":"Prilep","name:fa":"\u067e\u0631\u06cc\u0644\u067e","name:ms":"Prilep","area":21713500,"sort_rank":20,"name:fi":"Prilep","name:da":"Prilep","name:de":"Prilep","name:tr":"Pirlepe","name:fr":"Prilep","osm_relation":true,"name:zh":"\u666e\u91cc\u83b1\u666e","name:sl":"Prilep","name:lv":"Prilepa","name:ja":"\u30d7\u30ea\u30ec\u30d7","name:nn":"Prilep","name:no":"Prilep","name:he":"\u05e4\u05e8\u05d9\u05dc\u05e4","name:eo":"Prilep","name:ur":"\u067e\u0631\u06cc\u0644\u06cc\u067e","name:sk":"Prilep","name:uk":"\u041f\u0440\u0456\u043b\u0435\u043f","name:hy":"\u054a\u0580\u056b\u056c\u0565\u057a","tier":2,"name:be":"\u041f\u0440\u044b\u043b\u0435\u043f","name:bs":"Prilep","name:hr":"Prilep","name:sq":"P\u00ebrlepi","name:el":"\u03a0\u03c1\u03af\u03bb\u03b5\u03c0","kind":"residential","name:en":"Prilep","name":"\u041f\u0440\u0438\u043b\u0435\u043f","min_zoom":8.0,"name:lt":"Prilepas","source":"openstreetmap.org","name:es":"Prilep"},"arcs":[[446]]},{"type":"Polygon","properties":{"kind":"military","area":47606000,"sort_rank":45,"source":"openstreetmap.org","min_zoom":8.0,"tier":3,"id":-7427309,"osm_relation":true},"arcs":[[447]]}]}},"type":"Topology","transform":{"translate":[21.09375,40.9798980696],"scale":[0.0003433228,0.0002570987]},"arcs":[[[4096,561],[-103,-27],[-42,19],[-96,-10],[-46,40],[8,27],[-45,-17],[-58,21],[-16,-21],[-41,12],[-56,-56],[-18,118],[-54,-22],[-129,79],[-71,-13],[-64,28],[-28,-33],[-101,-19],[-63,-110],[-58,-19],[-53,44],[-67,12],[-23,55],[-51,34],[-10,-41],[-85,-66],[-112,-28],[-49,15],[-68,-74],[-118,-71],[-19,-92],[30,-72],[-49,-43],[-45,7],[6,-51],[-88,-53],[-23,-70],[-113,-64]],[[2381,439],[-21,-93],[30,-72],[-49,-43],[-45,7],[6,-51],[-88,-53],[-23,-70],[-113,-64]],[[4096,561],[-103,-27],[-42,19],[-96,-10],[-46,40],[8,27],[-45,-17],[-58,21],[-16,-21],[-41,12],[-56,-56],[-18,118],[-54,-22],[-129,79],[-71,-13],[-63,28]],[[3266,739],[-29,-33],[-101,-19],[-63,-110],[-58,-19],[-54,44],[-66,12],[-23,55],[-51,34],[-10,-41],[-85,-66],[-112,-28],[-49,15],[-68,-74],[-116,-70]],[[0,1479],[0,1],[53,84],[66,46],[-21,95],[22,-4],[7,36],[47,38],[28,-18],[191,41],[1,27],[66,47],[7,47],[33,-6],[-28,45],[20,43],[23,-9],[12,29],[29,-13],[12,49],[64,8],[67,-47],[20,190],[75,111],[22,114]],[[816,2433],[17,76],[-30,96],[61,21],[20,43],[-40,174],[28,39],[-68,74],[-78,-33],[-136,105],[-116,245],[-119,55],[-32,69],[-26,-23],[-153,-19],[-101,-154],[-43,-33]],[[2381,439],[2,44],[75,60],[-14,26],[-57,3],[-68,165],[13,76],[-31,98],[29,88],[6,168],[-65,21],[-82,-33],[-13,36],[-46,24],[-18,65],[-27,3],[33,31],[14,112],[58,31],[-67,118],[1,220],[-50,-62],[-3,22],[-62,16],[-5,54],[-82,137],[-44,21],[-31,-34],[-28,41],[-50,-104],[-76,-13],[-22,-49],[-88,-10],[-7,20],[-79,7],[-68,70],[-132,54],[-13,50],[-164,26],[-54,104],[21,39],[-9,57],[-59,45],[-57,114],[-146,33]],[[4096,3059],[-106,80],[-29,-55],[-54,-29],[-1,-81],[-28,-55],[-28,-6],[-6,-65],[-50,-40],[-14,-60],[-24,-17],[-85,14],[-61,36],[-47,-38],[-21,-119],[50,-75],[-33,-31],[68,-45],[7,-30],[-218,-201]],[[3416,2242],[13,-37],[52,-22],[95,-197],[74,-23],[-39,-152],[32,-63],[-30,-58],[8,-82],[94,-31],[4,-26],[-39,-34],[29,-51],[-50,-13],[18,-32],[-76,-33],[-27,17],[-4,-27],[-68,-17],[21,-56],[-37,-38],[-1,-104],[28,-54],[-22,-54],[-135,-28],[21,-41],[43,-15],[4,-46],[-76,-67],[-71,-6],[-11,-113]],[[3426,4096],[0,-2],[-21,-48],[-49,50]],[[2942,4096],[-72,-95],[-112,65],[-19,-36]],[[2739,4030],[4,-58],[-31,-32],[31,-70],[120,-86],[24,-92],[120,-118],[-82,-1],[39,-40],[-43,-116],[48,-95],[-102,-102],[-38,-78],[-62,-5],[41,-94],[-16,-114],[-27,39],[-35,-7],[-23,26],[-6,-56],[-37,19],[-17,-40],[22,-19],[-49,0],[-44,44],[-31,-62],[-52,-8],[0,-49],[20,-40],[50,-20],[-16,-51],[129,-9],[119,-62],[46,-110],[32,17],[47,102],[42,-7],[41,-223],[139,11],[42,-84],[154,-118],[34,-9],[44,29]],[[1726,4096],[42,-7],[-19,-117],[73,-21],[66,-85],[158,47],[13,-55],[60,-44],[104,84],[-23,36],[13,28],[36,-3],[23,51],[55,2],[30,28],[64,-5],[35,-127],[91,71],[64,6],[58,64],[70,-19]],[[726,154],[55,403],[139,263],[-22,133],[31,171],[384,278],[-138,79],[-57,164],[4,105],[-45,104],[-39,33],[-26,91]],[[1012,1978]],[[1012,1978],[-1,4]],[[1011,1982],[-43,79],[-4,101],[24,41],[-24,67]],[[1011,1982],[-3,7]],[[725,159],[0,-3],[0,-2],[0,5]],[[752,411],[1,0],[-1,-1],[0,1]],[[873,715]],[[898,950],[-1,0],[1,0]],[[915,888]],[[916,1014],[1,0],[0,1],[-1,0],[0,-1]],[[944,1136],[0,1],[1,0],[-1,-1]],[[979,2038]],[[1057,1872],[1,0],[0,-1],[-1,1]],[[1066,1866]],[[1116,1678]],[[1144,1287],[1,0],[-1,0]],[[1153,1588],[0,1],[0,-1]],[[1293,1417],[2,-1],[0,1],[-2,0]],[[1328,3877],[57,86]],[[1385,3963],[53,-6],[67,-56],[87,-13],[55,75],[46,133]],[[4096,924],[-60,164],[-15,136],[-69,33],[-34,120],[-101,143],[-153,71],[-83,3],[-120,66],[-92,-8],[-66,58],[-85,-7],[-42,54],[-12,66],[-64,23],[-49,69],[-32,97],[-78,7],[5,59],[72,59],[-11,37],[-74,-12],[-85,28],[-28,-19],[-142,81],[-140,-18],[-47,90],[-103,64],[-10,99],[-105,69],[4,80],[-77,-13],[-55,48],[2,49],[-24,25],[-88,12],[-25,111],[-33,9],[-90,132],[-11,57],[-94,52],[-38,75],[-62,37],[15,86],[-88,-23],[-40,41],[-53,126],[-77,64],[47,59],[-474,328],[37,45],[227,-23],[68,14],[24,15],[8,2],[9,-1]],[[759,4024],[-23,46],[6,26]],[[798,4048],[-2,-2]],[[796,4046],[-2,-3]],[[794,4043],[-17,-21]],[[777,4022],[-4,-3]],[[773,4019],[-3,-1]],[[770,4018],[-3,0]],[[767,4018],[-2,1]],[[765,4019],[-1,0]],[[764,4019],[-2,1]],[[762,4020],[-2,3]],[[760,4023],[-1,1]],[[798,4048],[-2,-2]],[[799,4049],[11,8]],[[810,4057],[-3,-1],[3,1]],[[810,4057],[234,8],[73,-99],[-91,-33]],[[656,1207],[30,34],[232,-117]],[[918,1124],[29,14]],[[927,1114],[-9,10]],[[700,1235],[0,-1],[-1,0],[1,1]],[[784,1193],[0,-1],[0,1]],[[944,1136],[0,1],[1,0],[-1,-1]],[[0,351],[61,-6]],[[137,351],[8,-20]],[[147,325],[234,29],[88,-14],[58,-41]],[[723,370],[-1,-3]],[[725,366],[-2,-1]],[[725,366],[-1,-2]],[[725,363],[3,10]],[[729,377],[-4,-11]],[[725,362],[1,1]],[[726,363],[0,-2]],[[726,363],[1,0]],[[726,361],[1,2]],[[727,363],[1,10]],[[728,373],[1,4]],[[729,377],[61,245],[231,361],[29,95],[254,267]],[[771,107],[59,-40],[25,-67]],[[2755,3235],[-140,-55],[-430,-97]],[[3135,3069],[42,34],[93,168],[425,302],[324,47],[77,73]],[[1011,3945]],[[1089,3976],[-24,-5]],[[1084,3974],[3,1]],[[798,3994],[1,0]],[[824,3974],[3,-2]],[[999,3920],[8,-18]],[[913,4017],[-2,-13]],[[901,3954],[3,0]],[[1042,3921],[1,-1]],[[1123,3890],[13,20]],[[1887,3059],[11,-52],[80,-22],[38,-63],[97,-88]],[[2114,2834],[-9,28],[-34,27],[-30,24],[-2,0],[-55,137]],[[2914,2035],[21,-26],[3,-6],[0,-1]],[[2938,2002],[44,-89]],[[2982,1913],[1,-2]],[[2984,1912],[-2,1]],[[2982,1913],[-22,17],[-20,53],[-2,19]],[[2938,2002],[0,2],[-6,11],[-18,21]],[[0,3909],[70,-80],[52,-2],[21,4],[144,68],[103,-9]],[[390,3890],[-103,10],[-144,-68],[-73,-3],[-70,80]],[[1065,3971],[-55,17]],[[1016,3982],[9,-10]],[[1044,3965],[23,5]],[[1099,3900],[22,-13]],[[1121,3888],[-21,13]],[[1043,3921],[-19,15]],[[1029,3931],[13,-10]],[[3308,1706],[99,-50],[66,7]],[[4026,1110],[6,51],[55,43],[-55,129],[-93,61],[-126,156],[-82,40],[-147,14],[-110,59]],[[1306,3946],[138,10],[43,-40],[12,-1]],[[1499,3915],[105,-10]],[[1604,3905],[4,0],[15,0]],[[1623,3906],[-1,0],[-13,-1],[-5,0]],[[1604,3905],[-87,-4],[-18,14]],[[1499,3915],[-54,41],[-1,0],[-87,5],[-50,-14]],[[1038,3955],[-15,6]],[[1033,3956],[5,-2]],[[2501,3452],[15,-27]],[[2509,2262]],[[1003,3963],[3,0]],[[648,217],[1,0]],[[704,318],[-10,-20]],[[725,294],[3,41]],[[737,225]],[[737,225],[1,1]],[[738,226]],[[742,130],[15,-12]],[[737,227],[-1,0],[0,-2],[1,0]],[[737,225],[1,0],[0,1]],[[738,226],[-1,1]],[[988,3928],[-25,14]],[[995,3931],[16,12]],[[1011,3945],[-15,-12]],[[827,3972],[33,-10]],[[984,3965],[-5,-1]],[[979,3964],[5,0]],[[905,3975],[-3,-21]],[[903,3955],[3,20]],[[906,3975],[0,2]],[[923,4029],[-8,-5]],[[736,262],[-11,32]],[[974,3957],[-2,1]],[[897,3976],[8,-1]],[[906,3975],[23,-5]],[[1011,3945],[2,-1]],[[1013,3945],[-2,1]],[[1068,3859],[17,-11]],[[3093,3059],[7,-4]],[[995,3931],[4,-11]],[[860,3962],[41,-8]],[[850,4005],[11,-5]],[[908,3995],[3,0]],[[911,3995],[-3,0]],[[925,3994],[46,-25]],[[971,3969],[5,-4]],[[976,3966],[-5,3]],[[1015,3993],[10,29]],[[945,3946],[-1,0],[1,-1]],[[946,3946],[1,1]],[[965,3949],[-1,0]],[[1010,3895],[1,-1]],[[1028,3884]],[[946,3947],[-1,-1],[1,-1],[0,1]],[[946,3946],[0,1]],[[991,3937],[3,-4]],[[1011,3894],[17,-10]],[[1061,3863],[6,-4]],[[865,3982],[31,-6]],[[990,3940],[1,-3]],[[994,3933],[0,-1]],[[1008,3963],[-14,2],[-10,0]],[[984,3964],[19,-1]],[[1006,3963],[4,0]],[[1098,3977],[0,-1]],[[965,3951],[1,9]],[[725,176],[1,-4]],[[1640,3926],[-76,-131],[-12,-68],[26,-62],[4,-6]],[[1582,3659],[64,-66]],[[1646,3593],[23,-23],[45,-30],[28,-53],[29,-139],[-77,-89],[92,-133],[109,-26]],[[1966,3102],[-38,33],[-75,170],[-53,191],[-81,63],[-19,0],[-54,34]],[[1646,3593],[-22,14],[-42,52]],[[1582,3659],[-4,6],[-1,2],[-25,59],[13,69],[84,141]],[[1897,3093],[-10,-34]],[[1895,3100],[2,-7]],[[1966,3102],[-4,4],[-1,2]],[[1966,3102],[-4,4],[-2,3],[6,-7]],[[1984,3050],[-18,52]],[[2113,2834],[8,-25],[30,-64],[-7,-21],[-4,-18],[-1,-30],[60,-103],[37,-13],[34,-10],[106,-88],[4,-55],[20,-34],[19,-18],[19,-32],[3,-4],[6,-6]],[[2448,2313],[-29,42],[-19,18],[-20,34],[-3,55],[-107,88],[-71,26],[-60,100],[12,68],[-37,90]],[[2447,2313],[8,-6]],[[2455,2308],[-7,5]],[[2455,2307],[110,-90],[87,31],[65,-21],[197,-192]],[[2914,2036],[-197,192],[-65,21],[-87,-31],[-54,47],[-56,43]],[[2983,1911],[71,-55],[57,-19],[14,-2],[8,-3]],[[3133,1832],[22,-8],[0,-2]],[[3155,1822],[14,-46],[0,-1],[38,-68],[35,-8],[0,1],[34,0]],[[3276,1700],[33,0]],[[3309,1700],[1,-1],[1,0],[13,-4],[5,0],[21,-8]],[[3350,1687],[-20,9],[-20,4],[-1,0]],[[3309,1700],[-33,0]],[[3276,1700],[-34,0],[-35,7],[-50,114],[-2,1]],[[3155,1822],[-22,10]],[[3133,1832],[-8,4],[-70,20],[-71,56]],[[4021,1085],[75,-253]],[[4096,834],[-24,130],[-23,70],[-25,48]],[[923,4029]],[[972,3972],[-6,-11],[-2,-12]],[[965,3949],[0,2]],[[966,3960],[7,11]],[[972,3958],[-43,13],[-94,18]],[[896,3976],[1,0]],[[905,3975],[1,0]],[[929,3970],[43,-12]],[[785,4006],[-5,1]],[[780,4006],[5,0]],[[785,4006],[11,-3]],[[796,4003],[3,-2]],[[800,4002],[-4,1]],[[803,4003],[-3,-1]],[[801,4001],[1,-1]],[[839,4020],[-7,-5]],[[948,3945],[15,-3]],[[911,4004],[-1,-6]],[[914,4019],[-1,-2]],[[1092,3844],[1,-1]],[[1087,3975],[6,2]],[[1093,3977],[22,5]],[[1140,3981],[-47,-4]],[[1093,3977],[-4,-1]],[[909,3995],[-4,-20]],[[906,3977],[3,18]],[[915,4024],[-1,-5]],[[850,4005],[-2,1]],[[908,3995],[-34,2]],[[899,3995],[9,0]],[[937,3992],[-19,2]],[[918,3994],[-6,1],[-1,0]],[[911,3995],[7,-1]],[[918,3994],[4,0],[3,0]],[[699,3994],[-2,0]],[[788,3995],[-89,-1]],[[527,299],[121,-82]],[[649,217],[45,81]],[[722,356],[-18,-38]],[[722,356],[2,6]],[[724,362],[-2,-6]],[[722,367],[1,-2]],[[723,365]],[[723,365],[1,-3]],[[724,364],[0,-2]],[[724,362],[1,0]],[[724,362],[1,1]],[[726,361]],[[726,361]],[[728,335],[-2,26]],[[757,118],[14,-11]],[[1304,1345],[73,34],[37,75]],[[3103,3050],[32,19]],[[2586,3349],[-1,0]],[[3094,2897],[9,100]],[[3154,2740],[159,-169],[131,-73],[385,62],[140,-63],[20,-69],[107,-60]],[[987,3944],[-20,6]],[[990,3940],[-2,4]],[[1540,1519],[174,5],[70,-36],[102,64]],[[1886,1552],[10,9]],[[1896,1561],[88,44],[24,72],[115,121],[164,-33],[57,41],[34,77]],[[2379,1890],[-18,36],[62,51],[61,141],[23,144]],[[2507,2262],[2,0]],[[2507,2262],[2,5]],[[2511,2261],[-3,2]],[[2509,2267],[3,2]],[[2514,2268],[-2,1]],[[1886,2826],[23,89]],[[571,256]],[[965,3949]],[[1038,3954],[2,7]],[[61,345],[76,6]],[[145,331],[2,-6]],[[848,4005],[2,0]],[[1085,3848],[7,-4]],[[1093,3843],[14,-9]],[[1296,3947],[-14,1]],[[1282,3948],[-8,0],[-20,6]],[[1265,3951],[9,-3],[8,-1]],[[1282,3947],[7,-2],[7,1]],[[1277,3945],[12,-20]],[[1290,3925],[-4,8],[-2,7],[-2,7]],[[1282,3947],[0,1]],[[1282,3948],[-2,19]],[[4011,1102],[7,-12]],[[1009,3982],[2,6]],[[3094,2897],[-6,-83],[66,-74]],[[722,171],[2,-16]],[[1028,3884],[33,-21]],[[1691,4096],[-51,-170]],[[1649,3936],[10,17],[28,76],[19,67]],[[1119,3856],[-44,26]],[[1077,3881],[40,-25]],[[799,4001],[-8,-5]],[[792,3996],[5,-1],[2,4]],[[831,3990],[4,-1]],[[835,3989],[-3,1]],[[974,3957],[5,7]],[[979,3964],[-2,-1],[-3,-4]],[[1010,3988],[-2,2]],[[1010,3963],[0,2]],[[967,4069],[12,-3]],[[979,4066],[-12,3]],[[905,3975]],[[909,3995]],[[909,3995]],[[974,3949],[-1,7]],[[994,3932],[1,-1]],[[1011,3943],[13,-8]],[[3105,3050],[-5,5]],[[721,155]],[[1289,3925],[23,-40],[9,-5]],[[1321,3880],[83,-45],[9,-9]],[[1413,3826],[25,-26],[79,-51],[19,-10],[16,-13]],[[1558,3742],[-42,7],[-103,77]],[[1413,3826],[-92,54]],[[1321,3880],[-9,6],[-22,39]],[[1296,3946],[10,0]],[[1307,3947],[-11,0]],[[726,172],[-4,-1]],[[874,3997],[25,-2]],[[1207,4088],[-31,8]],[[1173,4096],[32,-8],[2,0]],[[694,4096],[-2,-4],[0,-57],[-33,-46],[-2,-7]],[[658,3982],[34,53],[12,61]],[[1009,3965],[2,-19]],[[1011,3946],[-1,17]],[[964,3949],[-18,-2]],[[2755,3235],[84,-25],[254,-151]],[[1022,4065],[16,-3]],[[904,3954],[12,-2]],[[934,3948],[10,-2]],[[1100,3901],[-48,22],[-9,-2]],[[1043,3920],[56,-20]],[[848,4006],[-6,-19]],[[896,4096],[22,-31]],[[918,4065],[7,-35]],[[1279,3962],[-2,-17]],[[737,227],[-1,35],[0,-35]],[[1009,3988],[7,-6]],[[1025,3972],[19,-7]],[[1115,3982],[150,-31]],[[1254,3954],[-114,27]],[[1075,3882],[-32,20],[34,-21]],[[802,4000],[29,-10]],[[832,3990],[-29,11]],[[835,3989],[30,-7]],[[972,3958],[2,-1]],[[3089,2849],[-2,-2]],[[3087,2850],[2,-1]],[[3092,2850],[-3,-1]],[[1010,3965],[-1,7]],[[1009,3972],[0,10]],[[1011,3988],[-1,-2],[-1,-14]],[[1009,3972],[0,-7]],[[875,4025],[-36,-5]],[[1108,3930],[-41,-71]],[[1068,3859],[41,71]],[[1207,4088],[59,-2],[13,-124]],[[1280,3967],[-14,120],[-59,1]],[[738,225],[-13,-49]],[[390,3890],[49,-8],[172,33],[43,54]],[[654,3969],[-43,-54],[-36,9],[-136,-42],[-49,8]],[[1025,4022],[4,11]],[[1029,4033],[9,29]],[[1038,4062],[-9,-29]],[[2508,2263],[1,-1]],[[2509,2262],[-1,2]],[[996,3933],[-8,-5]],[[990,3928],[5,3]],[[1011,3946],[0,-1]],[[1011,3943],[0,3]],[[791,3996],[1,0]],[[799,3999],[2,2]],[[803,4001],[0,2]],[[902,3954],[1,1]],[[906,3975]],[[924,4029],[-1,0]],[[946,3945],[2,0],[-1,2]],[[948,3945],[-2,1]],[[967,4069],[-2,1],[-47,-5],[49,4]],[[973,3971],[-1,1]],[[973,3954],[1,3]],[[974,3957],[-1,-1]],[[974,3959],[0,-2]],[[974,3957]],[[979,4066]],[[991,4065],[31,0]],[[1008,3990],[1,-2]],[[1098,3979],[0,-2]],[[1117,3856],[1,-1]],[[1135,3911],[-14,-23]],[[1121,3887],[2,3]],[[3105,3053],[-10,2]],[[800,4000],[1,1],[-1,1],[-1,-1],[1,-1]],[[967,3950],[-2,-1]],[[988,3944],[-1,0]],[[1067,3859],[1,0]],[[4018,1090],[3,-5]],[[970,4014],[-42,13]],[[847,4004],[1,1]],[[27,335],[3,0]],[[928,4027],[-3,3]],[[1003,3993],[-33,21]],[[1023,3961],[-8,2],[-7,0]],[[1010,3963],[23,-7]],[[832,4015],[-29,-12]],[[983,4066],[8,-1]],[[3103,2997],[2,53]],[[1110,3935],[-2,-5]],[[1109,3930],[1,4]],[[807,3989],[17,-15]],[[916,3952],[18,-4]],[[1024,3936],[-13,9]],[[1024,3935],[5,-4]],[[1895,3100],[2,-7]],[[1896,3099],[1,-5]],[[742,130],[-21,25]],[[1284,3953],[-4,14]],[[964,3949],[-1,-7]],[[964,3941],[1,8]],[[1562,3694],[-23,43]],[[1540,3735],[21,-40]],[[915,4024],[-40,1]],[[780,4005],[0,1],[0,1],[-1,-1],[1,-1]],[[1098,3976],[12,-41]],[[1110,3934],[-12,43]],[[657,3982],[-3,-13]],[[654,3969],[4,13]],[[1420,1466],[120,53]],[[2378,1883],[1,7]],[[1098,3977],[0,2]],[[1007,3902],[3,-7]],[[4096,4096],[0,-4096],[-4096,0],[0,4096],[4096,0]],[[3637,147],[42,110],[63,27],[60,79],[35,6],[75,-86],[-3,-80],[-58,-13],[-78,23],[-99,-68],[-37,2]],[[565,258],[81,-42],[39,27],[12,68],[29,27],[28,-77],[51,-15],[-26,-65],[-25,-7],[36,-34],[-40,-13],[38,-25],[-31,16],[-31,-26],[-34,42],[-11,-16],[-3,33],[-40,-12],[-73,119]],[[1920,2859],[22,25],[-11,52],[23,11],[87,-94],[-25,-34],[-23,29],[-34,-11],[-18,-32],[-21,54]],[[0,2],[0,334],[135,19],[12,-30],[97,-42],[51,21],[57,-11],[34,40],[51,2],[-24,-81],[70,-30],[-49,-36],[36,-27],[27,32],[37,-9],[16,-43],[55,16],[-16,-28],[41,-57],[111,-72],[-741,2]],[[734,351],[109,-99],[2,-26],[-34,-18],[0,-86],[-50,-19],[-158,29],[-51,33],[-32,173],[-33,0],[20,62],[142,25],[0,43],[85,-117]],[[3011,1937],[-45,-41],[-52,41],[-65,-43],[-32,-87],[-65,0],[-64,-86],[-97,43],[-180,-26],[-47,26],[16,141],[44,59],[134,-27],[130,44],[32,-44],[129,0],[65,44],[0,86],[89,43],[8,43],[34,-34],[-38,-108],[4,-74]],[[1465,1581],[90,-76],[-42,-82],[-170,-79],[-68,1],[-50,50],[-26,111],[36,22],[126,-22],[68,75],[36,0]],[[3191,2966],[-148,52],[49,41],[211,45],[4,-58],[28,-28],[-55,-44],[-89,-8]],[[3919,3639],[-163,70],[33,82],[71,44],[83,4],[71,-43],[-29,-120],[-66,-37]],[[1944,3061],[137,-38],[37,-62],[20,-116],[-97,-43],[-33,43],[-32,-43],[-48,40],[-49,219],[17,-5],[15,48],[33,-43]],[[1209,4096],[132,0],[20,-84],[-65,0],[0,-87],[-65,0],[-32,-86],[-64,0],[0,-43],[-259,0],[-16,36],[-49,7],[-65,130],[-129,0],[-32,127],[544,0],[6,-84],[68,60],[6,24]],[[2894,414],[70,186],[52,-44],[36,8],[92,127],[98,14],[24,33],[63,-26],[68,10],[98,-58],[-90,-194],[-167,6],[-85,-30],[-11,-33],[-11,21],[4,-140],[-193,-15],[-48,135]],[[1234,1394],[31,27],[38,-7],[-51,33],[16,18],[-21,20],[66,-16],[38,42],[22,-41],[47,-4],[-65,-102],[-91,6],[10,34],[-40,-10]],[[2638,2404],[94,27],[77,-96],[15,43],[71,-158],[-27,15],[0,-30],[-49,-26],[6,21],[-43,40],[-100,28],[-44,136]]]}