{"objects":{"water":{"type":"GeometryCollection","geometries":[{"type":"MultiPolygon","properties":{"sort_rank":200,"source":"naturalearthdata.com","min_zoom":0.0,"kind":"lake","area":1007667180},"arcs":[[[11]],[[12]]]},{"type":"LineString","properties":{"source":"naturalearthdata.com","kind":"lake","sort_rank":367,"boundary":true,"min_zoom":0.0,"id":755},"arcs":[13]},{"type":"MultiLineString","properties":{"source":"naturalearthdata.com","kind":"lake","sort_rank":367,"boundary":true,"min_zoom":0.0,"id":756},"arcs":[[14],[15]]}]},"buildings":{"type":"GeometryCollection","geometries":[]},"places":{"type":"GeometryCollection","geometries":[{"type":"Point","properties":{"name:pt":"V\u00e9ria","name:ro":"Veria","name:lt":"Verija","min_zoom":8.0,"int_name":"Veroia","name:it":"Veria","name:ru":"\u0412\u0435\u0440\u0438\u044f","name:hu":"Veria","id":1834381643,"population":42794,"kind":"locality","name:en":"Veria","name":"\u0392\u03ad\u03c1\u03bf\u03b9\u03b1","kind_detail":"city","name:de":"Veria","source":"openstreetmap.org","name:fr":"Veria","name:la":"Beroea","name:es":"V\u00e9ria"},"coordinates":[3233,2342]},{"type":"Point","properties":{"kind":"locality","name:en":"Kozani","name":"\u039a\u03bf\u03b6\u03ac\u03bd\u03b7","name:lt":"Kozan\u0117","kind_detail":"city","min_zoom":8.0,"name:de":"Kozani","source":"openstreetmap.org","name:fr":"Kozani","name:ru":"\u041a\u043e\u0437\u0430\u043d\u0438","id":130167065,"population":35242},"coordinates":[2023,1496]},{"type":"Point","properties":{"kind":"locality","name:en":"Ptolemaida","name":"\u03a0\u03c4\u03bf\u03bb\u03b5\u03bc\u03b1\u0390\u03b4\u03b1","kind_detail":"town","min_zoom":8.0,"name:de":"Ptolemaida","source":"openstreetmap.org","name:fr":"Ptolemaida","old_name":"Ptolemais","name:ru":"\u041f\u0442\u043e\u043b\u0435\u043c\u0430\u0438\u0441","id":130167067,"population":32130},"coordinates":[1703,2306]},{"type":"Point","properties":{"int_name":"Giannitsa","name:tr":"Giannitsa","min_zoom":8.0,"name:ro":"Giannitsa","name:ru":"\u042f\u043d\u0438\u0446\u0430","name:pl":"Jenidze","name:hr":"Janica","id":130167098,"population":26296,"kind":"locality","name:en":"Giannitsa","name":"\u0393\u03b9\u03b1\u03bd\u03bd\u03b9\u03c4\u03c3\u03ac","kind_detail":"city","name:de":"Giannitsa","source":"openstreetmap.org","name:fr":"Giannits\u00e1"},"coordinates":[3846,3380]},{"type":"Point","properties":{"kind":"locality","name:en":"Naoussa","name":"\u039d\u03ac\u03bf\u03c5\u03c3\u03b1","name:lt":"Nausa","kind_detail":"city","min_zoom":8.0,"name:de":"Naoussa","source":"openstreetmap.org","name:fr":"Naoussa","name:ru":"\u041d\u0430\u0443\u0441\u0430","id":130167092,"population":19870},"coordinates":[2843,2759]},{"type":"Point","properties":{"kind":"locality","name:en":"Edessa","name":"\u0388\u03b4\u03b5\u03c3\u03c3\u03b1","name:lt":"Edesa","kind_detail":"city","min_zoom":8.0,"name:de":"Edessa","source":"openstreetmap.org","name:fr":"\u00c9dessa","name:ru":"\u042d\u0434\u0435\u0441\u0430","name:bg":"\u0412\u043e\u0434\u0435\u043d","id":130167081,"population":18253},"coordinates":[2785,3425]},{"type":"Point","properties":{"old_name:fr":"G\u00eddas","kind":"locality","name:en":"Alexandreia","name":"\u0391\u03bb\u03b5\u03be\u03ac\u03bd\u03b4\u03c1\u03b5\u03b9\u03b1","kind_detail":"town","min_zoom":8.0,"source":"openstreetmap.org","name:fr":"Alex\u00e1ndreia","int_name":"Alexandreia","old_name:en":"Gidas","old_name":"\u0393\u03af\u03b4\u03b1\u03c2","name:ru":"\u0410\u043b\u0435\u043a\u0441\u0430\u043d\u0434\u0440\u0438\u044f","id":295225609,"population":15864},"coordinates":[3933,2749]},{"type":"Point","properties":{"name:ro":"Florina","name:ko":"\ud50c\ub85c\ub9ac\ub098","name:cu":"\u041b\u0454\u0440\u0438\u043d\u044a","name:ar":"\u0641\u0644\u0648\u0631\u064a\u0646\u0627","min_zoom":8.0,"name:it":"Florina","name:ru":"\u0424\u043b\u043e\u0440\u0438\u043d\u0430","name:vi":"Florina","name:pl":"Florina","id":130170551,"name:mk":"\u041b\u0435\u0440\u0438\u043d","name:fa":"\u0641\u0644\u0648\u0631\u06cc\u0646\u0627","name:hu":"Lerin","name:lt":"Florina","source":"openstreetmap.org","kind_detail":"city","name:de":"Florina","name:tr":"Florina","name:fr":"Florina","name:ca":"Fl\u00f3rina","name:zh":"\u5f17\u52de\u5229\u7d0d","name:nl":"Florina (stad)","name:ja":"\u30d5\u30ed\u30ea\u30ca","name:nn":"Fl\u00f3rina","name:he":"\u05e4\u05dc\u05d5\u05e8\u05d9\u05e0\u05d4","name:la":"Florina","name:sk":"Florina","name:uk":"\u0424\u043b\u043e\u0440\u0438\u043d\u0430","name:sv":"Florina","name:bg":"\u041b\u0435\u0440\u0438\u043d","name:hr":"Florina","name:sr":"\u041b\u0435\u0440\u0438\u043d","name:sq":"Follorina","population":14297,"kind":"locality","name:en":"Florina","name":"\u03a6\u03bb\u03ce\u03c1\u03b9\u03bd\u03b1","name:fi":"Fl\u00f3rina","name:es":"Fl\u00f3rina"},"coordinates":[934,3342]},{"type":"Point","properties":{"kind":"locality","name:en":"Kastoria","name":"\u039a\u03b1\u03c3\u03c4\u03bf\u03c1\u03b9\u03ac","name:tr":"Kesriye","kind_detail":"city","min_zoom":8.0,"name:de":"Kastoria","source":"openstreetmap.org","name:fr":"Kastoria","int_name":"Kastoria","name:ru":"\u041a\u0430\u0441\u0442\u043e\u0440\u0438\u044f","name:bg":"\u041a\u0430\u0441\u0442\u043e\u0440\u0438\u044f (\u041a\u043e\u0441\u0442\u0443\u0440)","id":135541513,"name:mk":"\u041a\u043e\u0441\u0442\u0443\u0440","population":13387},"coordinates":[510,2325]},{"type":"Point","properties":{"kind":"locality","name:en":"Grevena","name":"\u0393\u03c1\u03b5\u03b2\u03b5\u03bd\u03ac","kind_detail":"town","min_zoom":8.0,"name:de":"Grevena","source":"openstreetmap.org","name:fr":"Grevena","name:ru":"\u0413\u0440\u0435\u0432\u0435\u043d\u0430","id":135541913,"population":10177},"coordinates":[975,673]},{"type":"Point","properties":{"kind":"locality","name:en":"Argos Orestiko","name":"\u0386\u03c1\u03b3\u03bf\u03c2 \u039f\u03c1\u03b5\u03c3\u03c4\u03b9\u03ba\u03cc","kind_detail":"town","min_zoom":8.0,"name:de":"Argos Orestiko","source":"openstreetmap.org","name:fr":"Argos Orestiko","name:ru":"\u0410\u0440\u0433\u043e\u0441-\u041e\u0440\u0435\u0441\u0442\u0438\u043a\u043e\u043d","id":135540735,"population":7473},"coordinates":[484,2080]},{"type":"Point","properties":{"kind":"locality","name:en":"Krya Vrysi","name":"\u039a\u03c1\u03cd\u03b1 \u0392\u03c1\u03cd\u03c3\u03b7","kind_detail":"town","source":"openstreetmap.org","min_zoom":8.0,"name:ru":"\u041a\u0440\u0438\u044f-\u0412\u0440\u0438\u0441\u0438","id":305347361,"population":6535},"coordinates":[3523,2974]},{"type":"Point","properties":{"kind":"locality","name:en":"Aridea","name":"\u0391\u03c1\u03b9\u03b4\u03b1\u03af\u03b1","kind_detail":"town","source":"openstreetmap.org","min_zoom":8.0,"name:ru":"\u0410\u0440\u0438\u0434\u0435\u044f","id":135558907,"population":5600},"coordinates":[2819,4078]},{"type":"Point","properties":{"kind":"locality","name:en":"Siatista","name":"\u03a3\u03b9\u03ac\u03c4\u03b9\u03c3\u03c4\u03b1","kind_detail":"town","name:de":"Siatista","source":"openstreetmap.org","min_zoom":8.0,"name:ru":"\u0421\u044c\u044f\u0442\u0438\u0441\u0442\u0430","id":130167064,"population":5500},"coordinates":[1333,1335]},{"type":"Point","properties":{"kind":"locality","name:en":"Skydra","name":"\u03a3\u03ba\u03cd\u03b4\u03c1\u03b1","kind_detail":"town","source":"openstreetmap.org","min_zoom":8.0,"name:ru":"\u0421\u043a\u0438\u0434\u0440\u0430","id":137699889,"population":5406},"coordinates":[3092,3284]},{"type":"Point","properties":{"kind":"locality","name:en":"Makrochori","name":"\u039c\u03b1\u03ba\u03c1\u03bf\u03c7\u03ce\u03c1\u03b9","kind_detail":"town","min_zoom":8.0,"name:de":"Makrochori","source":"openstreetmap.org","name:fr":"Makrochori","id":283559113,"population":5189},"coordinates":[3379,2464]},{"type":"Point","properties":{"kind":"locality","name:en":"Servia","name":"\u03a3\u03ad\u03c1\u03b2\u03b9\u03b1","kind_detail":"town","min_zoom":8.0,"name:de":"Servia","source":"openstreetmap.org","name:fr":"Servia","name:ru":"\u0421\u0435\u0440\u0432\u0438\u044f","id":130253302,"population":4465},"coordinates":[2641,1053]},{"type":"Point","properties":{"kind":"locality","name:en":"Goumenissa","name":"\u0393\u03bf\u03c5\u03bc\u03ad\u03bd\u03b9\u03c3\u03c3\u03b1","kind_detail":"town","min_zoom":8.0,"name:de":"Goumenissa","source":"openstreetmap.org","name:fr":"Goumenissa","name:ru":"\u0413\u0443\u043c\u0435\u043d\u0438\u0441\u0430","id":240471765,"population":4010},"coordinates":[3956,3969]},{"type":"Point","properties":{"kind":"locality","name:en":"Amyndeo","name":"\u0391\u03bc\u03cd\u03bd\u03c4\u03b1\u03b9\u03bf","kind_detail":"town","min_zoom":8.0,"name:de":"Amyndeo","source":"openstreetmap.org","name:fr":"Amyndeo","old_name":"Sorovitch (\u03a3\u03cc\u03c1\u03bf\u03b2\u03b9\u03c4\u03c2)","name:ru":"\u0410\u043c\u0438\u043d\u0434\u0435\u043e\u043d","name:bg":"\u0410\u043c\u0300\u0438\u043d\u0434\u0435\u043e (\u0421\u0443\u0440\u043e\u0432\u0438\u0447\u0435\u0432\u043e)","id":134344382,"population":3636},"coordinates":[1705,2986]},{"type":"Point","properties":{"kind":"locality","name:en":"Kolindros","name":"\u039a\u03bf\u03bb\u03b9\u03bd\u03b4\u03c1\u03cc\u03c2","kind_detail":"town","min_zoom":8.0,"name:de":"Kolindros","source":"openstreetmap.org","name:fr":"Kolindros","id":154102323,"population":3629},"coordinates":[4047,2180]},{"type":"Point","properties":{"kind":"locality","name:en":"Velvendos","name":"\u0392\u03b5\u03bb\u03b2\u03b5\u03bd\u03c4\u03cc\u03c2","kind_detail":"town","min_zoom":8.0,"name:de":"Velvendos","source":"openstreetmap.org","name:fr":"Velvendos","name:ru":"\u0412\u0435\u043b\u0432\u0435\u043d\u0434\u043e\u0441","id":154101967,"population":3504},"coordinates":[2851,1322]},{"type":"Point","properties":{"kind":"locality","name:en":"Meliki","name":"\u039c\u03b5\u03bb\u03af\u03ba\u03b7","kind_detail":"town","min_zoom":8.0,"name:de":"Meliki","source":"openstreetmap.org","name:fr":"Meliki","name:ru":"\u041c\u0435\u043b\u0438\u043a\u0438","id":287605501,"population":3102},"coordinates":[3795,2331]},{"type":"Point","properties":{"kind":"locality","name:en":"Chloi","name":"\u03a7\u03bb\u03cc\u03b7","kind_detail":"town","name:de":"Chloi","source":"openstreetmap.org","min_zoom":8.0,"id":1802959791,"population":3079},"coordinates":[483,2407]},{"type":"Point","properties":{"kind":"locality","name:en":"Maniaki","name":"\u039c\u03b1\u03bd\u03b9\u03ac\u03ba\u03bf\u03b9","kind_detail":"town","source":"openstreetmap.org","min_zoom":8.0,"id":415169088,"population":3055},"coordinates":[432,2264]},{"type":"Point","properties":{"kind":"locality","name:en":"Krokos","name":"\u039a\u03c1\u03cc\u03ba\u03bf\u03c2","kind_detail":"town","min_zoom":8.0,"name:de":"Krokos","source":"openstreetmap.org","name:fr":"Krokos","id":296784213,"population":2968},"coordinates":[2114,1356]},{"type":"Point","properties":{"kind":"locality","name:en":"Neos Mylotopos","name":"\u039d\u03ad\u03bf\u03c2 \u039c\u03c5\u03bb\u03cc\u03c4\u03bf\u03c0\u03bf\u03c2","kind_detail":"town","source":"openstreetmap.org","min_zoom":8.0,"id":287409321,"population":2605},"coordinates":[3676,3478]},{"type":"Point","properties":{"kind":"locality","name:en":"Galatades","name":"\u0393\u03b1\u03bb\u03b1\u03c4\u03ac\u03b4\u03b5\u03c2","kind_detail":"town","source":"openstreetmap.org","min_zoom":8.0,"id":287409563,"population":2339},"coordinates":[3454,3239]},{"type":"Point","properties":{"kind":"locality","name:en":"Neapoli","name":"\u039d\u03b5\u03ac\u03c0\u03bf\u03bb\u03b7","kind_detail":"town","min_zoom":8.0,"name:de":"Neapoli","source":"openstreetmap.org","name:fr":"Neapoli","name:ru":"\u041d\u0435\u0430\u043f\u043e\u043b\u0438\u0441","id":246472851,"population":2330},"coordinates":[855,1544]},{"type":"Point","properties":{"kind":"locality","name:en":"Karitsa","name":"\u039a\u03b1\u03c1\u03af\u03c4\u03c3\u03b1","kind_detail":"town","min_zoom":8.0,"name:de":"Karitsa","source":"openstreetmap.org","name:fr":"Karitsa","name:ru":"\u041a\u0430\u0440\u0438\u0446\u0430","id":296754508,"population":2220},"coordinates":[4045,1065]},{"type":"Point","properties":{"kind":"locality","name:en":"Kopanos","name":"\u039a\u03bf\u03c0\u03b1\u03bd\u03cc\u03c2","kind_detail":"town","min_zoom":8.0,"name:de":"Kopanos","source":"openstreetmap.org","name:fr":"Kopanos","name:sr":"\u041a\u043e\u043f\u0430\u043d\u043e\u0432\u043e","id":287605587,"population":2144},"coordinates":[3019,2776]},{"type":"Point","properties":{"kind":"locality","name:en":"Mesopotamia","name":"\u039c\u03b5\u03c3\u03bf\u03c0\u03bf\u03c4\u03b1\u03bc\u03af\u03b1","kind_detail":"town","source":"openstreetmap.org","min_zoom":8.0,"name:ru":"\u041c\u0435\u0441\u043e\u043f\u043e\u0442\u0430\u043c\u044c\u044f","id":296236178,"population":2099},"coordinates":[188,2279]},{"type":"Point","properties":{"kind":"locality","int_name":"Vrondou","name":"\u0392\u03c1\u03bf\u03bd\u03c4\u03bf\u03cd","kind_detail":"town","source":"openstreetmap.org","min_zoom":8.0,"id":296754768,"population":2081},"coordinates":[3900,1081]},{"type":"Point","properties":{"kind":"locality","name:en":"Eani","name":"\u0391\u03b9\u03b1\u03bd\u03ae","kind_detail":"town","source":"openstreetmap.org","min_zoom":8.0,"name:ru":"\u042d\u0430\u043d\u0438","id":296784569,"population":2010},"coordinates":[2114,975]},{"type":"Point","properties":{"kind":"locality","name:en":"Galatini","name":"\u0393\u03b1\u03bb\u03b1\u03c4\u03b9\u03bd\u03ae","kind_detail":"town","source":"openstreetmap.org","min_zoom":8.0,"id":1803032724,"population":1800},"coordinates":[1338,1567]}]},"transit":{"type":"GeometryCollection","geometries":[{"type":"MultiLineString","properties":{"kind":"train","name":"\u03a3\u03b9\u03b4\u03b7\u03c1\u03bf\u03b4\u03c1\u03bf\u03bc\u03b9\u03ba\u03ae \u0393\u03c1\u03b1\u03bc\u03bc\u03ae \u0398\u03b5\u03c3\u03c3\u03b1\u03bb\u03bf\u03bd\u03af\u03ba\u03b7\u03c2-\u03a6\u03bb\u03ce\u03c1\u03b9\u03bd\u03b1\u03c2","sort_rank":275,"source":"openstreetmap.org","min_zoom":6.0,"operator":"OSE","osm_relation":true,"network":"OSE"},"arcs":[[6],[7],[8],[9],[10]]}]},"pois":{"type":"GeometryCollection","geometries":[{"type":"Point","properties":{"source":"openstreetmap.org","kind":"nature_reserve","name":"\u0394\u03ac\u03c3\u03bf\u03c2 \u0394\u03ae\u03bc\u03bf\u03c5 \u039d\u03ac\u03bf\u03c5\u03c3\u03b1\u03c2 \u03ba\u03b1\u03b9 \u0394\u03b1\u03c3\u03ce\u03bd \u03a3\u03b5\u03bb\u03af\u03bf\u03c5 - \u03a4\u03c3\u03b1\u03bd\u03b1\u03ba\u03bb\u03ae \u03ba\u03b1\u03b9 \u0393\u03b9\u03b1\u03bd\u03bd\u03b1\u03ba\u03bf\u03c7\u03c9\u03c1\u03af\u03bf\u03c5","area":129162000,"tier":2,"min_zoom":8.78,"id":138262262},"coordinates":[2715,2676]},{"type":"Point","properties":{"source":"openstreetmap.org","kind":"nature_reserve","name":"\u039a\u03b1\u03c4\u03b1\u03c6\u03cd\u03b3\u03b9\u03bf \u03ac\u03b3\u03c1\u03b9\u03b1\u03c2 \u03b6\u03c9\u03ae\u03c2 \"\u03a6\u03bb\u03ce\u03c1\u03b9\u03bd\u03b1\u03c2\"","area":108081000,"tier":2,"min_zoom":8.91,"id":138264989},"coordinates":[789,3407]},{"type":"Point","properties":{"source":"openstreetmap.org","kind":"nature_reserve","name":"\u0394\u03cc\u03b2\u03c1\u03b1-\u0392\u03ac\u03bb\u03c4\u03b1","area":104149000,"tier":2,"min_zoom":8.94,"id":138271636},"coordinates":[2627,764]},{"type":"Point","properties":{"source":"openstreetmap.org","kind":"nature_reserve","name":"\u039b\u03af\u03bc\u03bd\u03b7-\u0392\u03bf\u03c5\u03bd\u03cc \u039a\u03b1\u03c3\u03c4\u03bf\u03c1\u03b9\u03ac\u03c2","area":162396000,"tier":2,"min_zoom":8.62,"id":138577571},"coordinates":[413,2406]},{"type":"Point","properties":{"source":"openstreetmap.org","kind":"nature_reserve","name":"\u0395\u03b8\u03bd\u03b9\u03ba\u03cc\u03c2 \u0394\u03c1\u03c5\u03bc\u03cc\u03c2 \u039f\u03bb\u03cd\u03bc\u03c0\u03bf\u03c5","area":639541000,"tier":2,"min_zoom":7.63,"id":543114765},"coordinates":[3734,644]}]},"boundaries":{"type":"GeometryCollection","geometries":[{"type":"LineString","properties":{"name:right:yo":"Or\u00edl\u1eb9\u0300-\u00e8d\u00e8 Ol\u00f3m\u00ecnira il\u1eb9\u0300 Mak\u1eb9d\u00f3n\u00ed\u00e0","name:right:yi":"\u05e8\u05e2\u05e4\u05d5\u05d1\u05dc\u05d9\u05e7 \u05e4\u05d5\u05df \u05de\u05d0\u05e7\u05e2\u05d3\u05d0\u05e0\u05d9\u05e2","name:left:la":"Graecia","name:right:qu":"Makidunya","name:left:li":"Griekeland","name:left:vi":"Hy L\u1ea1p","name:left:sw":"Ugiriki","name:left:kg":"Gelesi","name:left:ka":"\u10e1\u10d0\u10d1\u10d4\u10e0\u10eb\u10dc\u10d4\u10d7\u10d8","name:left:kl":"Gr\u00e6kerit Nunaat","name:left:ko":"\uadf8\ub9ac\uc2a4","name:left:kn":"\u0c97\u0ccd\u0cb0\u0cc0\u0cb8\u0ccd","name:left:ki":"Ngiriki","name:left:ro":"Grecia","name:left:kk":"\u0413\u0440\u0435\u043a\u0438\u044f","name:left:rm":"Grezia","name:left:ku":"Yewnanistan","name:left:kw":"Pow Grek","name:left:kv":"\u042d\u043b\u043b\u0430\u0434\u0430","name:right:ro":"Macedonia","name:left:ru":"\u0413\u0440\u0435\u0446\u0438\u044f","name:right:ie":"Macedonia","name:right:id":"Republik Makedonia","name:left:ky":"\u0413\u0440\u0435\u0446\u0438\u044f","name:right:ia":"Republica de Macedonia","name:right:bi":"Macedonia","name:right:bn":"\u09ae\u09cd\u09af\u09be\u09b8\u09c7\u09a1\u09cb\u09a8\u09bf\u09af\u09bc\u09be \u09aa\u09cd\u09b0\u099c\u09be\u09a4\u09a8\u09cd\u09a4\u09cd\u09b0","name:right:bo":"\u0f58\u0f0b\u0f66\u0f7a\u0f0b\u0f4c\u0f7c\u0f0b\u0f53\u0f72\u0f61\u0f0d (\u0f62\u0f92\u0fb1\u0f63\u0f0b\u0f41\u0f56\u0f0d)","name:left:sl":"Gr\u010dija","name:right:ba":"\u041c\u0430\u043a\u0435\u0434\u043e\u043d\u0438\u044f \u0420\u0435\u0441\u043f\u0443\u0431\u043b\u0438\u043a\u0430\u04bb\u044b","name:right:bg":"\u0420\u0435\u043f\u0443\u0431\u043b\u0438\u043a\u0430 \u041c\u0430\u043a\u0435\u0434\u043e\u043d\u0438\u044f","name:right:be":"\u0420\u044d\u0441\u043f\u0443\u0431\u043b\u0456\u043a\u0430 \u041c\u0430\u043a\u0435\u0434\u043e\u043d\u0456\u044f","name:right:br":"Republik Makedonia","name:left:lt":"Graikija","name:right:nn":"Republikken Makedonia","name:right:no":"Republikken Makedonia","name:right:nl":"Macedoni\u00eb (land)","name:left:lv":"Grie\u0137ija","name:right:wo":"R\u00e9ewum Maseduwaan","name:right:ne":"\u092e\u094d\u092f\u093e\u0938\u0947\u0921\u094b\u0928\u093f\u092f\u093e","name:right:na":"Matedoniya","name:right:gv":"Pobblaght ny Massadoan","name:left:mg":"Grisy","kind_detail":"2","name:left:tr":"Yunanistan","name:right:gu":"\u0aae\u0ac7\u0ab8\u0ac7\u0aa1\u0acb\u0aa8\u0abf\u0aaf\u0abe","name:right:ps":"\u062f \u0645\u0642\u062f\u0648\u0646\u064a\u06d0 \u0648\u0644\u0633\u0645\u0634\u0631\u064a\u0632\u0647","name:right:pt":"Maced\u00f3nia","name:left:mk":"\u0413\u0440\u0446\u0438\u0458\u0430","name:left:mi":"Kirihi","name:left:tt":"\u0413\u0440\u0435\u0446\u0438\u044f","name:left:mn":"\u0413\u0440\u0435\u043a","name:left:ml":"\u0d17\u0d4d\u0d30\u0d40\u0d38\u0d4d","name:left:th":"\u0e1b\u0e23\u0e30\u0e40\u0e17\u0e28\u0e01\u0e23\u0e35\u0e0b","name:right:pa":"\u0a2e\u0a15\u0a26\u0a42\u0a28\u0a40\u0a06 \u0a17\u0a23\u0a30\u0a3e\u0a1c","name:left:tk":"Gresi\u00fda","name:left:tl":"Gresya","name:left:mt":"Gre\u010bja","name:right:gl":"Rep\u00fablica de Macedonia - \u0420\u0435\u043f\u0443\u0431\u043b\u0438\u043a\u0430 \u041c\u0430\u043a\u0435\u0434\u043e\u043d\u0438\u0458\u0430","name:left:my":"\u1002\u101b\u102d\u1014\u102d\u102f\u1004\u103a\u1004\u1036","name:right:gn":"Masendo\u00f1a","name:right:pl":"Macedonia","name:left:te":"\u0c17\u0c4d\u0c30\u0c40\u0c38\u0c4d","name:left:tg":"\u042e\u043d\u043e\u043d","name:left:ms":"Greece","name:left:mr":"\u0917\u094d\u0930\u0940\u0938","name:right:tr":"Makedonya Cumhuriyeti","name:left:da":"Gr\u00e6kenland","name:left:de":"Griechenland","name:left:dz":"\u0f42\u0fb2\u0f80\u0f66","name:right:ga":"Poblacht na Macad\u00f3ine","name:left:dv":"\u0794\u07ab\u0782\u07a7\u0782\u07b0","name:right:ug":"\u0645\u0627\u0643\u06d0\u062f\u0648\u0646\u0649\u064a\u06d5","name:left:hi":"\u092f\u0942\u0928\u093e\u0928","name:right:lb":"Republik Mazedonien","name:right:uk":"\u041c\u0430\u043a\u0435\u0434\u043e\u043d\u0456\u044f","name:left:he":"\u05d9\u05d5\u05d5\u05df","name:right:li":"Macedoni\u00eb (land)","name:right:lt":"Makedonija","name:right:ur":"\u0645\u0642\u062f\u0648\u0646\u06cc\u06c1","name:right:lv":"Ma\u0137edonija","name:left:hy":"\u0540\u0578\u0582\u0576\u0561\u057d\u057f\u0561\u0576","name:left:ta":"\u0b95\u0bbf\u0bb0\u0bc7\u0b95\u0bcd\u0b95 \u0ba8\u0bbe\u0b9f\u0bc1","name:left:ht":"Gr\u00e8s","name:left:hu":"G\u00f6r\u00f6gorsz\u00e1g","name:left:hr":"Gr\u010dka","sort_rank":262,"name:right:gd":"Masadoinia","name:right:os":"\u0420\u0435\u0441\u043f\u0443\u0431\u043b\u0438\u043a\u00e6 \u041c\u0430\u043a\u0435\u0434\u043e\u043d\u0438","alt_name:right:cs":"B\u00fdval\u00e1 jugosl\u00e1vsk\u00e1 republika Makedonie","name:right:es":"Rep\u00fablica de Macedonia","name:right:eu":"Former Yugoslav Republic Of Macedonia","name:right:et":"Makedoonia","name:left:os":"\u0413\u0440\u0435\u043a\u044a","name:left:or":"\u0b17\u0b4d\u0b30\u0b40\u0b38","name:right:ee":"Republic of Macedonia","name:left:vo":"Grik\u00e4n","name:left:oc":"Gr\u00e8cia","name:right:eo":"Makedonujo","name:right:en":"Macedonia","name:right:el":"\u03a0\u03c1\u03ce\u03b7\u03bd \u0393\u03b9\u03bf\u03c5\u03b3\u03ba\u03bf\u03c3\u03bb\u03b1\u03b2\u03b9\u03ba\u03ae \u0394\u03b7\u03bc\u03bf\u03ba\u03c1\u03b1\u03c4\u03af\u03b1 \u03c4\u03b7\u03c2 \u039c\u03b1\u03ba\u03b5\u03b4\u03bf\u03bd\u03af\u03b1\u03c2","name:left:fa":"\u06cc\u0648\u0646\u0627\u0646","name:left:fo":"Grikkaland","name:right:sk":"Maced\u00f3nsko","name:left:fi":"Kreikka","name:left:fr":"Gr\u00e8ce","name:left:fy":"Grikel\u00e2n","name:right:ja":"\u30de\u30b1\u30c9\u30cb\u30a2\u5171\u548c\u56fd","name:right:sq":"Maqedonia","name:right:ss":"IMakhedoniya","name:left:ja":"\u30ae\u30ea\u30b7\u30e3","name:right:su":"Mak\u00e9donia","name:right:sw":"Jamhuri ya Masedonia","name:right:sv":"Makedonien","name:right:sh":"Makedonija","name:left:qu":"Grisya","name:right:jv":"R\u00e9publik Makedonia","name:right:sl":"Makedonija","name:right:so":"Makedonia","name:right:sa":"\u092e\u0947\u0938\u0947\u0921\u094b\u0928\u093f\u092f\u093e","name:right:sc":"Matzed\u00f2nia","name:left:jv":"Yunani","id":-192307,"name:right:ca":"Rep\u00fablica de Maced\u00f2nia","name:right:se":"Makedonia","name:right:ce":"\u041c\u0430\u043a\u0435\u0434\u043e\u043d\u0438","name:right:cy":"Gweriniaeth Macedonia","name:right:zh-yue":"\u99ac\u5176\u9813\u5171\u548c\u570b","name:right:cs":"Makedonie","name:right:cu":"\u041c\u0430\u043a\u0454\u0434\u043e\u043d\u0457\ua657","name:right:cv":"\u041c\u0430\u043a\u0435\u0434\u043e\u043d\u0438 \u0420\u0435\u0441\u043f\u0443\u0431\u043b\u0438\u043a\u0438","name:right:it":"Repubblica di Macedonia","name:left:ar":"\u0627\u0644\u064a\u0648\u0646\u0627\u0646","name:right:is":"L\u00fd\u00f0veldi\u00f0 Maked\u00f3n\u00eda","name:left:az":"Yunan\u0131stan","name:left:ay":"Grisya","name:right:rw":"Masedoniya","name:left:af":"Griekeland","name:left:ab":"\u0411\u0430\u0440\u0437\u0435\u043d\u0442\u04d9\u044b\u043b\u0430","name:left:an":"Grecia","name:left:am":"\u130d\u122a\u12ad","name:right:ru":"\u041c\u0430\u043a\u0435\u0434\u043e\u043d\u0438\u044f","name:right:io":"Republiko Macedonia","name:left:zh-yue":"\u5e0c\u81d8","name:left:rw":"Ubugereki","name:right:hy":"\u0544\u0561\u056f\u0565\u0564\u0578\u0576\u056b\u0561\u0575\u056b \u0540\u0561\u0576\u0580\u0561\u057a\u0565\u057f\u0578\u0582\u0569\u0575\u0578\u0582\u0576","name:left:lb":"Griicheland","alt_name:left:eo":"Grekio","name:left:lg":"Buyonaani","name:left:su":"Yunani","int_name:left":"Greece","name:right:hr":"Makedonija","name:left:sv":"Grekland","name:left:sq":"Greqia","name:right:hu":"Maced\u00f3nia","name:left:ss":"IGrikhi","name:left:sr":"\u0413\u0440\u0447\u043a\u0430","name:left:sm":"Kuliti","name:right:hi":"\u092e\u0948\u0938\u093f\u0921\u094b\u0928\u093f\u092f\u093e","name:left:so":"Giriig","name:left:si":"\u0d9c\u0dca\u200d\u0dbb\u0dd3\u0dc3\u0dd2\u0dba","name:left:sh":"Gr\u010dka","name:left:sk":"Gr\u00e9cko","name:left:se":"Greika","name:left:sa":"\u092f\u0935\u0928\u0926\u0947\u0936\u0903","name:right:he":"\u05de\u05e7\u05d3\u05d5\u05e0\u05d9\u05d4","name:left:sc":"Gr\u00e8ghia","name:right:la":"Respublica Macedonica","name:right:af":"Masedoni\u00eb","name:left:co":"Grecia","name:left:ce":"\u0413\u0440\u0435\u0446\u0438","name:right:an":"Macedonia","name:right:am":"\u1218\u1244\u12f6\u1292\u12eb","name:left:ca":"Gr\u00e8cia","source":"openstreetmap.org","name:left:cy":"Gwlad Groeg","name:right:ar":"\u0645\u0642\u062f\u0648\u0646\u064a\u0627","name:left:cu":"\u0413\u0440\u044c\u0446\u0438","name:left:cv":"\u0413\u0440\u0435\u0446\u0438","name:right:az":"Makedoniya","name:left:cs":"\u0158ecko","name":"\u0395\u03bb\u03bb\u03ac\u03b4\u03b1 - \u041c\u0430\u043a\u0435\u0434\u043e\u043d\u0438\u0458\u0430","name:left:zu":"IGreki","name:left:zh":"\u5e0c\u814a","name:right:zh":"\u99ac\u5176\u9813\u5171\u548c\u570b","official_name:left":"\u0395\u03bb\u03bb\u03b7\u03bd\u03b9\u03ba\u03ae \u0394\u03b7\u03bc\u03bf\u03ba\u03c1\u03b1\u03c4\u03af\u03b1","name:left:uz":"Yunoniston","name:right:fr":"Mac\u00e9doine (pays)","name:left:ps":"\u064a\u0648\u0646\u0627\u0646","name:left:nv":"Gw\u00ed\u00edk Dine\u02bc\u00e9 Bik\u00e9yah","name:left:ur":"\u06cc\u0648\u0646\u0627\u0646","id:right":-53293,"name:left:uk":"\u0413\u0440\u0435\u0446\u0456\u044f","name:left:no":"Hellas","name:left:nl":"Griekenland","alt_name:right:eo":"Makedonio","name:right:fa":"\u062c\u0645\u0647\u0648\u0631\u06cc \u0645\u0642\u062f\u0648\u0646\u06cc\u0647","name:right:fo":"L\u00fd\u00f0veldi\u00f0 Maked\u00f3nia","name:left:ne":"\u0917\u094d\u0930\u0940\u0938","name:left:ug":"Gr\u00e9tsiye","name:left:na":"Grit","name:left:eo":"Grekujo","name:left:en":"Greece","name:left:ee":"Greece","name:right:tt":"\u041c\u0430\u043a\u0435\u0434\u043e\u043d\u0438\u044f \u0496\u04e9\u043c\u04bb\u04af\u0440\u0438\u044f\u0442\u0435","name:left:es":"Grecia","name:left:ie":"Grecia","name:left:eu":"Grezia","name:left:et":"Kreeka","name:right:zh-min-nan":"Makedonija Ki\u014dng-h\u00f4-kok","name:right:oc":"Republica de Maced\u00f2nia","name:left:ia":"Grecia","name:right:bs":"Makedonija","name:right:uz":"Makedoniya Respublikasi","osm_relation":true,"name:right:or":"\u0b2e\u0b3e\u0b38\u0b3f\u0b21\u0b4b\u0b28\u0b3f\u0b06","name:left:pt":"Gr\u00e9cia","name:right:ku":"Komara Makedonyay\u00ea","name:right:tk":"Makedoni\u00fda Respublikasy","name:left:gl":"Grecia","min_zoom":8.0,"name:left:zh-min-nan":"Hi-lia\u030dp","name:left:ln":"Gresi","name:left:wo":"Girees","name:left:ga":"An Ghr\u00e9ig","name:left:it":"Grecia","name:left:gd":"A' Ghr\u00e8ig","int_name:right":"Macedonia","name:left:gn":"Gyresia","name:left:gu":"\u0a97\u0acd\u0ab0\u0ac0\u0ab8","name:left:gv":"Yn Ghreag","official_name:right":"\u0420\u0435\u043f\u0443\u0431\u043b\u0438\u043a\u0430 \u041c\u0430\u043a\u0435\u0434\u043e\u043d\u0438\u0458\u0430","name:left":"\u0395\u03bb\u03bb\u03ac\u03b4\u03b1","name:right:mi":"Maker\u014dnia","name:right:mn":"\u0411\u04af\u0433\u0434 \u041d\u0430\u0439\u0440\u0430\u043c\u0434\u0430\u0445 \u041c\u0430\u043a\u0435\u0434\u043e\u043d \u0423\u043b\u0441","name:right:ml":"\u0d31\u0d3f\u0d2a\u0d4d\u0d2a\u0d2c\u0d4d\u0d32\u0d3f\u0d15\u0d4d \u0d13\u0d2b\u0d4d \u0d2e\u0d3e\u0d38\u0d3f\u0d21\u0d4b\u0d23\u0d3f\u0d2f","name:right:vo":"Makedoniy\u00e4n","name:right:vi":"C\u1ed9ng h\u00f2a Macedonia","name:right:my":"\u1019\u1000\u103a\u1005\u102e\u1012\u102d\u102f\u1038\u1014\u102e\u1038\u101a\u102c\u1038\u1014\u102d\u102f\u1004\u103a\u1004\u1036","name:right:ms":"Republik Macedonia","name:right:mr":"\u092e\u0945\u0938\u093f\u0921\u094b\u0928\u093f\u092f\u093e","name:right:fy":"Masedoanje (l\u00e2n)","name:right:mt":"Repubblika tal-Ma\u010bedonja","name:left:nn":"Hellas","kind":"country","name:left:br":"Gres","name:left:bs":"Gr\u010dka","name:left:ba":"\u0413\u0440\u0435\u0446\u0438\u044f","name:left:bg":"\u0413\u044a\u0440\u0446\u0438\u044f","name:left:be":"\u0413\u0440\u044d\u0446\u044b\u044f","name:left:bi":"Greece","name:left:bn":"\u0997\u09cd\u09b0\u09bf\u09b8","name:left:bo":"\u0f40\u0f7a\u0f0b\u0f62\u0f72\u0f0b\u0f66\u0f72\u0f0d","name:right":"\u041c\u0430\u043a\u0435\u0434\u043e\u043d\u0438\u0458\u0430","name:left:yo":"Gr\u00ed\u00ecs\u00ec","name:left:yi":"\u05d2\u05e8\u05d9\u05db\u05e0\u05dc\u05d0\u05e0\u05d3","id:left":-192307,"name:right:fi":"Makedonia","name:right:ka":"\u10db\u10d0\u10d9\u10d4\u10d3\u10dd\u10dc\u10d8\u10d0","name:left:io":"Grekia","name:left:pa":"\u0a2f\u0a42\u0a28\u0a3e\u0a28","name:right:kg":"Makedonia","name:left:pl":"Grecja","name:right:kk":"\u041c\u0430\u043a\u0435\u0434\u043e\u043d\u0438\u044f \u0420\u0435\u0441\u043f\u0443\u0431\u043b\u0438\u043a\u0430\u0441\u044b","name:left:id":"Yunani","name:right:kl":"Makedonia","name:right:ko":"\ub9c8\ucf00\ub3c4\ub2c8\uc544 \uacf5\ud654\uad6d","name:right:kn":"\u0cae\u0ccd\u0caf\u0cbe\u0cb8\u0cc6\u0ca1\u0cca\u0ca8\u0cbf\u0caf \u0c97\u0ca3\u0cb0\u0cbe\u0c9c\u0ccd\u0caf","name:right:tl":"Republika ng Masedonya","name:right:th":"\u0e1b\u0e23\u0e30\u0e40\u0e17\u0e28\u0e21\u0e32\u0e0b\u0e34\u0e42\u0e14\u0e40\u0e19\u0e35\u0e22","name:right:kw":"Repoblek Makedoni","name:right:kv":"\u041c\u0430\u043a\u0435\u0434\u043e\u043d\u0438\u044f \u0420\u0435\u0441\u043f\u0443\u0431\u043b\u0438\u043a\u0430","name:right:te":"\u0c2e\u0c47\u0c38\u0c3f\u0c21\u0c4b\u0c28\u0c3f\u0c2f\u0c3e","name:right:tg":"\u04b6\u0443\u043c\u04b3\u0443\u0440\u0438\u0438 \u041c\u0430\u049b\u0434\u0443\u043d\u0438\u044f","name:left:is":"Grikkland","name:right:ta":"\u0bae\u0bbe\u0b95\u0bcd\u0b95\u0b9f\u0bcb\u0ba9\u0bbf\u0baf\u0b95\u0bcd \u0b95\u0bc1\u0b9f\u0bbf\u0baf\u0bb0\u0b9a\u0bc1","name:right:de":"Mazedonien","name:right:da":"Makedonien","name:left:rn":"Grecia","name:right:dv":"\u0789\u07ac\u0790\u07ac\u0791\u07af\u0782\u07a8\u0787\u07a7","name:right:ht":"Repiblik d Masedoni"},"arcs":[0]},{"type":"LineString","properties":{"name:right:fr":"Thessalie - Gr\u00e8ce centrale","id:left":-5208399,"id:right":-4495677,"min_zoom":8.0,"name:left:ru":"\u041c\u0430\u043a\u0435\u0434\u043e\u043d\u0438\u0438 \u0438 \u0424\u0440\u0430\u043a\u0438\u0438","name:right:ru":"\u0424\u0435\u0441\u0441\u0430\u043b\u0438\u0438 \u0438 \u0426\u0435\u043d\u0442\u0440\u0430\u043b\u044c\u043d\u043e\u0439 \u0413\u0440\u0435\u0446\u0438\u0438","id":-5208399,"osm_relation":true,"name:right":"\u0398\u03b5\u03c3\u03c3\u03b1\u03bb\u03af\u03b1 - \u03a3\u03c4\u03b5\u03c1\u03b5\u03ac \u0395\u03bb\u03bb\u03ac\u03b4\u03b1","kind":"region","name":"\u039c\u03b1\u03ba\u03b5\u03b4\u03bf\u03bd\u03af\u03b1 - \u0398\u03c1\u03ac\u03ba\u03b7 - \u0398\u03b5\u03c3\u03c3\u03b1\u03bb\u03af\u03b1 - \u03a3\u03c4\u03b5\u03c1\u03b5\u03ac \u0395\u03bb\u03bb\u03ac\u03b4\u03b1","source":"openstreetmap.org","sort_rank":256,"kind_detail":"4","name:left:de":"Makedonien - Thrakien","name:right:en":"Thessaly - Central Greece","name:left:en":"Macedonia - Thrace","name:left:fr":"Mac\u00e9doine - Thrace","name:right:de":"Thessalien - Mittelgriechenland","official_name:right":"\u0391\u03c0\u03bf\u03ba\u03b5\u03bd\u03c4\u03c1\u03c9\u03bc\u03ad\u03bd\u03b7 \u0394\u03b9\u03bf\u03af\u03ba\u03b7\u03c3\u03b7 \u0398\u03b5\u03c3\u03c3\u03b1\u03bb\u03af\u03b1\u03c2 - \u03a3\u03c4\u03b5\u03c1\u03b5\u03ac\u03c2 \u0395\u03bb\u03bb\u03ac\u03b4\u03b1\u03c2","official_name:left":"\u0391\u03c0\u03bf\u03ba\u03b5\u03bd\u03c4\u03c1\u03c9\u03bc\u03ad\u03bd\u03b7 \u0394\u03b9\u03bf\u03af\u03ba\u03b7\u03c3\u03b7 \u039c\u03b1\u03ba\u03b5\u03b4\u03bf\u03bd\u03af\u03b1\u03c2 - \u0398\u03c1\u03ac\u03ba\u03b7\u03c2","name:left":"\u039c\u03b1\u03ba\u03b5\u03b4\u03bf\u03bd\u03af\u03b1 - \u0398\u03c1\u03ac\u03ba\u03b7"},"arcs":[1]},{"type":"LineString","properties":{"int_name:right":"Pelagoniski Region","name:right:ru":"\u041f\u0435\u043b\u0430\u0433\u043e\u043d\u0438\u0439\u0441\u043a\u0438\u0439 \u0440\u0435\u0433\u0438\u043e\u043d","min_zoom":8.0,"name:left:ru":"\u041c\u0430\u043a\u0435\u0434\u043e\u043d\u0438\u0438 \u0438 \u0424\u0440\u0430\u043a\u0438\u0438","id:right":-2572701,"id":-5208399,"osm_relation":true,"name:right":"\u041f\u0435\u043b\u0430\u0433\u043e\u043d\u0438\u0441\u043a\u0438 \u0420\u0435\u0433\u0438\u043e\u043d","kind":"region","name:left:en":"Macedonia - Thrace","sort_rank":256,"kind_detail":"4","name:left:de":"Makedonien - Thrakien","name":"\u039c\u03b1\u03ba\u03b5\u03b4\u03bf\u03bd\u03af\u03b1 - \u0398\u03c1\u03ac\u03ba\u03b7 - \u041f\u0435\u043b\u0430\u0433\u043e\u043d\u0438\u0441\u043a\u0438 \u0420\u0435\u0433\u0438\u043e\u043d","source":"openstreetmap.org","name:right:de":"Region Pelagonien","name:left:fr":"Mac\u00e9doine - Thrace","name:right:en":"Pelagonia Region","id:left":-5208399,"official_name:left":"\u0391\u03c0\u03bf\u03ba\u03b5\u03bd\u03c4\u03c1\u03c9\u03bc\u03ad\u03bd\u03b7 \u0394\u03b9\u03bf\u03af\u03ba\u03b7\u03c3\u03b7 \u039c\u03b1\u03ba\u03b5\u03b4\u03bf\u03bd\u03af\u03b1\u03c2 - \u0398\u03c1\u03ac\u03ba\u03b7\u03c2","name:left":"\u039c\u03b1\u03ba\u03b5\u03b4\u03bf\u03bd\u03af\u03b1 - \u0398\u03c1\u03ac\u03ba\u03b7"},"arcs":[2]},{"type":"LineString","properties":{"kind":"region","name:en":"Macedonia - Thrace","name":"\u039c\u03b1\u03ba\u03b5\u03b4\u03bf\u03bd\u03af\u03b1 - \u0398\u03c1\u03ac\u03ba\u03b7","sort_rank":256,"kind_detail":"4","min_zoom":8.0,"official_name":"\u0391\u03c0\u03bf\u03ba\u03b5\u03bd\u03c4\u03c1\u03c9\u03bc\u03ad\u03bd\u03b7 \u0394\u03b9\u03bf\u03af\u03ba\u03b7\u03c3\u03b7 \u039c\u03b1\u03ba\u03b5\u03b4\u03bf\u03bd\u03af\u03b1\u03c2 - \u0398\u03c1\u03ac\u03ba\u03b7\u03c2","name:de":"Makedonien - Thrakien","source":"openstreetmap.org","name:fr":"Mac\u00e9doine - Thrace","name:ru":"\u041c\u0430\u043a\u0435\u0434\u043e\u043d\u0438\u0438 \u0438 \u0424\u0440\u0430\u043a\u0438\u0438","id":-5208399,"osm_relation":true},"arcs":[3]},{"type":"LineString","properties":{"kind":"region","name:en":"Thessaly - Central Greece","name":"\u0398\u03b5\u03c3\u03c3\u03b1\u03bb\u03af\u03b1 - \u03a3\u03c4\u03b5\u03c1\u03b5\u03ac \u0395\u03bb\u03bb\u03ac\u03b4\u03b1","sort_rank":256,"kind_detail":"4","min_zoom":8.0,"official_name":"\u0391\u03c0\u03bf\u03ba\u03b5\u03bd\u03c4\u03c1\u03c9\u03bc\u03ad\u03bd\u03b7 \u0394\u03b9\u03bf\u03af\u03ba\u03b7\u03c3\u03b7 \u0398\u03b5\u03c3\u03c3\u03b1\u03bb\u03af\u03b1\u03c2 - \u03a3\u03c4\u03b5\u03c1\u03b5\u03ac\u03c2 \u0395\u03bb\u03bb\u03ac\u03b4\u03b1\u03c2","name:de":"Thessalien - Mittelgriechenland","source":"openstreetmap.org","name:fr":"Thessalie - Gr\u00e8ce centrale","name:ru":"\u0424\u0435\u0441\u0441\u0430\u043b\u0438\u0438 \u0438 \u0426\u0435\u043d\u0442\u0440\u0430\u043b\u044c\u043d\u043e\u0439 \u0413\u0440\u0435\u0446\u0438\u0438","id":-4495677,"osm_relation":true},"arcs":[4]},{"type":"LineString","properties":{"kind":"region","name:en":"Pelagonia Region","name":"\u041f\u0435\u043b\u0430\u0433\u043e\u043d\u0438\u0441\u043a\u0438 \u0420\u0435\u0433\u0438\u043e\u043d","sort_rank":256,"kind_detail":"4","name:de":"Region Pelagonien","source":"openstreetmap.org","min_zoom":8.0,"int_name":"Pelagoniski Region","name:ru":"\u041f\u0435\u043b\u0430\u0433\u043e\u043d\u0438\u0439\u0441\u043a\u0438\u0439 \u0440\u0435\u0433\u0438\u043e\u043d","id":-2572701,"osm_relation":true},"arcs":[5]}]},"roads":{"type":"GeometryCollection","geometries":[{"type":"MultiLineString","properties":{"kind":"major_road","network":"mk:national","sort_rank":380,"kind_detail":"primary","source":"openstreetmap.org","min_zoom":8.0,"shield_text":"3","ref":"A3"},"arcs":[[16],[17],[18]]},{"type":"MultiLineString","properties":{"kind":"highway","int_name":"Egnatia Odos","network":"e-road","sort_rank":383,"landuse_kind":"nature_reserve","name:fr":"Autoroute A2 (Egnatia Odos)","name:de":"Autobahn A2 (Egnatia Odos)","source":"openstreetmap.org","min_zoom":8.0,"name:en":"Egnatia Motorway","all_networks":["e-road","GR:motorway"],"kind_detail":"motorway","shield_text":"90","ref":"\u03912","all_shield_texts":["90","\u03912"]},"arcs":[[19],[20]]},{"type":"MultiLineString","properties":{"kind":"major_road","network":"GR:national","sort_rank":380,"kind_detail":"primary","source":"openstreetmap.org","min_zoom":8.0,"shield_text":"\u0395\u039f3","ref":"\u0395\u039f3"},"arcs":[[21],[22],[23],[24],[25],[26],[27],[28]]},{"type":"MultiLineString","properties":{"kind":"highway","int_name":"Egnatia Odos","network":"e-road","sort_rank":383,"kind_detail":"motorway","min_zoom":8.0,"name:de":"Tunnel Kiloma","source":"openstreetmap.org","name:fr":"Tunnel Kiloma","name:en":"Egnatia Motorway","all_networks":["e-road","GR:motorway"],"shield_text":"90","ref":"\u03912","all_shield_texts":["90","\u03912"]},"arcs":[[29],[30]]},{"type":"LineString","properties":{"source":"openstreetmap.org","kind":"major_road","int_name":"Edessa - Thessaloniki","sort_rank":381,"kind_detail":"trunk","min_zoom":8.0,"id":336596044},"arcs":[31]},{"type":"MultiLineString","properties":{"kind":"major_road","network":"GR:national","sort_rank":380,"kind_detail":"primary","is_bicycle_related":true,"source":"openstreetmap.org","min_zoom":8.0,"landuse_kind":"nature_reserve","shield_text":"\u0395\u039f20","ref":"\u0395\u039f20"},"arcs":[[32],[33],[34],[35]]},{"type":"MultiLineString","properties":{"kind":"major_road","int_name":"Veroia - Kozani","network":"GR:national","sort_rank":381,"kind_detail":"trunk","source":"openstreetmap.org","min_zoom":8.0,"landuse_kind":"nature_reserve","shield_text":"\u0395\u039f3","ref":"\u0395\u039f3;\u0395\u039f4"},"arcs":[[36],[37]]},{"type":"MultiLineString","properties":{"kind":"highway","int_name":"Egnatia Odos","network":"e-road","sort_rank":383,"landuse_kind":"urban_area","source":"openstreetmap.org","min_zoom":8.0,"name:en":"Egnatia Motorway","all_networks":["e-road","GR:motorway"],"kind_detail":"motorway","shield_text":"90","ref":"\u03912","all_shield_texts":["90","\u03912"]},"arcs":[[38],[39],[40],[41],[42]]},{"type":"LineString","properties":{"kind":"major_road","int_name":"Grammou","network":"GR:national","sort_rank":380,"kind_detail":"primary","source":"openstreetmap.org","min_zoom":8.0,"landuse_kind":"urban_area","shield_text":"\u0395\u039f15","ref":"\u0395\u039f15"},"arcs":[43]},{"type":"MultiLineString","properties":{"kind":"highway","int_name":"Egnatia Odos","network":"e-road","sort_rank":383,"kind_detail":"motorway","name:fr":"Tunnel Venetikos","name:de":"Tunnel Venetikos","source":"openstreetmap.org","min_zoom":8.0,"name:en":"Egnatia Motorway","all_networks":["e-road","GR:motorway"],"shield_text":"90","ref":"\u03912","all_shield_texts":["90","\u03912"]},"arcs":[[44],[45]]},{"type":"MultiLineString","properties":{"kind":"major_road","int_name":"Florina - Edessa","network":"GR:national","sort_rank":380,"kind_detail":"primary","official_name":"\u0395\u03b8\u03bd\u03b9\u03ba\u03ae \u039f\u03b4\u03cc\u03c2 3","source":"openstreetmap.org","min_zoom":8.0,"shield_text":"\u0395\u039f3","ref":"\u0395\u039f3"},"arcs":[[46],[47],[48]]},{"type":"MultiLineString","properties":{"kind":"major_road","int_name":"Florina - Edessa","network":"GR:national","sort_rank":381,"kind_detail":"trunk","official_name":"\u0395\u03b8\u03bd\u03b9\u03ba\u03ae \u039f\u03b4\u03cc\u03c2 3;\u039a\u03bf\u03b6\u03ac\u03bd\u03b7 - \u03a0\u03c4\u03bf\u03bb\u03b5\u03bc\u03b1\u03af\u03b4\u03b1 - \u039d\u03af\u03ba\u03b7","source":"openstreetmap.org","min_zoom":8.0,"shield_text":"\u0395\u039f3","ref":"\u0395\u039f3;\u039127"},"arcs":[[49],[50],[51],[52]]},{"type":"MultiLineString","properties":{"kind":"highway","int_name":"Egnatia Odos","network":"e-road","sort_rank":383,"kind_detail":"motorway","source":"openstreetmap.org","min_zoom":8.0,"name:en":"Egnatia Motorway","all_networks":["e-road","GR:motorway"],"shield_text":"90","ref":"\u03912","all_shield_texts":["90","\u03912"]},"arcs":[[53],[54],[55],[56],[57],[58],[59],[60],[61],[62],[63],[64],[65],[66],[67],[68],[69],[70],[71],[72],[73],[74],[75],[76],[77],[78],[79],[80],[81],[82],[83],[84],[85],[86],[87],[88],[89],[90],[91],[92],[93],[94],[95],[96],[97],[98],[99],[100]]},{"type":"MultiLineString","properties":{"kind":"highway","int_name":"Siatista - Krystallopigi","network":null,"sort_rank":383,"kind_detail":"motorway","source":"openstreetmap.org","min_zoom":8.0,"all_networks":[null],"shield_text":"29","ref":"\u039129","all_shield_texts":["29"]},"arcs":[[101],[102]]},{"type":"MultiLineString","properties":{"kind":"major_road","int_name":"Edessa - Thessaloniki","network":"GR:national","sort_rank":381,"kind_detail":"trunk","source":"openstreetmap.org","min_zoom":8.0,"shield_text":"\u0395\u039f2","ref":"\u0395\u039f2"},"arcs":[[103],[104],[105],[106],[107],[108],[109],[110],[111],[112],[113],[114],[115],[116],[117],[118],[119]]},{"type":"LineString","properties":{"kind":"major_road","int_name":"Kozani - Neapoli","network":"GR:national","sort_rank":380,"kind_detail":"primary","source":"openstreetmap.org","min_zoom":8.0,"shield_text":"\u0395\u039f15","ref":"\u0395\u039f15;\u0395\u039f20"},"arcs":[120]},{"type":"MultiLineString","properties":{"source":"openstreetmap.org","kind":"major_road","int_name":"Kastoria - Krystallopigi","sort_rank":380,"kind_detail":"primary","min_zoom":8.0},"arcs":[[121],[122],[123],[124]]},{"type":"MultiLineString","properties":{"kind":"major_road","int_name":"Kozani - Ptolemaida","network":"GR:national","sort_rank":380,"kind_detail":"primary","source":"openstreetmap.org","min_zoom":8.0,"shield_text":"\u0395\u039f3","ref":"\u0395\u039f3"},"arcs":[[125],[126],[127],[128],[129],[130]]},{"type":"LineString","properties":{"kind":"major_road","int_name":"Kastoria - Krystallopigi","network":"GR:national","sort_rank":380,"kind_detail":"primary","source":"openstreetmap.org","min_zoom":8.0,"shield_text":"\u0395\u039f15","ref":"\u0395\u039f15"},"arcs":[131]},{"type":"MultiLineString","properties":{"kind":"major_road","int_name":"Neapoli - Kastoria","network":"GR:national","sort_rank":380,"kind_detail":"primary","source":"openstreetmap.org","min_zoom":8.0,"shield_text":"\u0395\u039f15","ref":"\u0395\u039f15"},"arcs":[[132],[133],[134],[135],[136],[137],[138]]},{"type":"MultiLineString","properties":{"kind":"major_road","network":"GR:national","sort_rank":380,"kind_detail":"primary","source":"openstreetmap.org","min_zoom":8.0,"shield_text":"\u0395\u039f15","ref":"\u0395\u039f15"},"arcs":[[139],[140],[141],[142],[143],[144],[145]]},{"type":"LineString","properties":{"kind":"major_road","name:en":"Kozani Northern bypass","network":"GR:national","sort_rank":381,"kind_detail":"trunk","source":"openstreetmap.org","min_zoom":8.0,"landuse_kind":"urban_area","shield_text":"\u0395\u039f3","ref":"\u0395\u039f3","id":116712883},"arcs":[146]},{"type":"LineString","properties":{"kind":"major_road","int_name":"Katerini - Alexandreia","network":"GR:national","sort_rank":380,"kind_detail":"primary","source":"openstreetmap.org","min_zoom":8.0,"shield_text":"\u0395\u039f1","ref":"\u0395\u039f1"},"arcs":[147]},{"type":"LineString","properties":{"kind":"major_road","int_name":"Trikala - Grevena","network":"GR:national","sort_rank":380,"kind_detail":"primary","source":"openstreetmap.org","min_zoom":8.0,"landuse_kind":"nature_reserve","shield_text":"\u0395\u039f15","ref":"\u0395\u039f15","id":273624254},"arcs":[148]},{"type":"MultiLineString","properties":{"kind":"major_road","int_name":"Krystallopigi - Florina","network":"GR:national","sort_rank":380,"kind_detail":"primary","source":"openstreetmap.org","min_zoom":8.0,"landuse_kind":"nature_reserve","shield_text":"\u0395\u039f2","ref":"\u0395\u039f2"},"arcs":[[149],[150],[151],[152]]},{"type":"MultiLineString","properties":{"kind":"major_road","int_name":"Kozani - Ptolemaida","network":"GR:national","sort_rank":381,"landuse_kind":"urban_area","source":"openstreetmap.org","min_zoom":8.0,"kind_detail":"trunk","shield_text":"\u0395\u039f3","ref":"\u0395\u039f3"},"arcs":[[153],[154]]},{"type":"MultiLineString","properties":{"kind":"major_road","name:en":"Kozani Eastern bypass","network":"GR:national","sort_rank":381,"kind_detail":"trunk","source":"openstreetmap.org","min_zoom":8.0,"shield_text":"\u0395\u039f3","ref":"\u0395\u039f3"},"arcs":[[155],[156]]},{"type":"MultiLineString","properties":{"kind":"major_road","int_name":"Florina - Edessa","network":"GR:national","sort_rank":380,"kind_detail":"primary","official_name":"\u0395\u03b8\u03bd\u03b9\u03ba\u03ae \u039f\u03b4\u03cc\u03c2 2\/3","source":"openstreetmap.org","min_zoom":8.0,"shield_text":"\u0395\u039f3","ref":"\u0395\u039f2;\u0395\u039f3"},"arcs":[[157],[158],[159]]},{"type":"MultiLineString","properties":{"kind":"major_road","int_name":"Vermiou","network":"GR:national","sort_rank":380,"kind_detail":"primary","source":"openstreetmap.org","min_zoom":8.0,"landuse_kind":"urban_area","shield_text":"\u0395\u039f4","ref":"\u0395\u039f4"},"arcs":[[160],[161],[162],[163],[164],[165],[166]]},{"type":"LineString","properties":{"kind":"major_road","int_name":"Veroia - Kozani","network":"GR:national","sort_rank":380,"kind_detail":"primary","source":"openstreetmap.org","min_zoom":8.0,"shield_text":"\u0395\u039f4"},"arcs":[167]},{"type":"MultiLineString","properties":{"kind":"major_road","int_name":"Veroia - Kozani","network":"GR:national","sort_rank":380,"kind_detail":"primary","source":"openstreetmap.org","min_zoom":8.0,"landuse_kind":"nature_reserve","shield_text":"\u0395\u039f4","ref":"\u0395\u039f4"},"arcs":[[168],[169],[170],[171],[172],[173],[174],[175]]},{"type":"MultiLineString","properties":{"kind":"major_road","int_name":"Trikala - Grevena","network":"GR:national","sort_rank":380,"kind_detail":"primary","source":"openstreetmap.org","min_zoom":8.0,"shield_text":"\u0395\u039f15","ref":"\u0395\u039f15"},"arcs":[[176],[177],[178],[179],[180],[181],[182]]},{"type":"MultiLineString","properties":{"kind":"highway","int_name":"Egnatia Odos","network":"e-road","sort_rank":383,"kind_detail":"motorway","name:fr":"S9","name:de":"S9","source":"openstreetmap.org","min_zoom":8.0,"name:en":"Egnatia Motorway","all_networks":["e-road","GR:motorway"],"shield_text":"90","ref":"\u03912","all_shield_texts":["90","\u03912"]},"arcs":[[183],[184]]},{"type":"MultiLineString","properties":{"kind":"major_road","int_name":"Kozani - Neapoli","network":"GR:national","sort_rank":380,"kind_detail":"primary","source":"openstreetmap.org","min_zoom":8.0,"landuse_kind":"urban_area","shield_text":"\u0395\u039f20","ref":"\u0395\u039f20"},"arcs":[[185],[186],[187]]},{"type":"MultiLineString","properties":{"source":"openstreetmap.org","kind":"major_road","int_name":"Elassona - Kozani","sort_rank":380,"kind_detail":"primary","min_zoom":8.0},"arcs":[[188],[189]]},{"type":"MultiLineString","properties":{"kind":"major_road","int_name":"Kozani - Ptolemaida - Niki","network":"GR:national","sort_rank":381,"kind_detail":"trunk","source":"openstreetmap.org","min_zoom":8.0,"shield_text":"\u0395\u039f3","ref":"\u0395\u039f3;\u039127"},"arcs":[[190],[191],[192]]},{"type":"LineString","properties":{"kind":"highway","name:en":"Kozani - Ptolemaida - Niki","network":"e-road","sort_rank":383,"kind_detail":"motorway","source":"openstreetmap.org","min_zoom":8.0,"all_networks":["e-road",null],"landuse_kind":"nature_reserve","shield_text":"65","ref":"A27","id":116771974,"all_shield_texts":["65","27"]},"arcs":[193]},{"type":"MultiLineString","properties":{"kind":"highway","int_name":"Egnatia Odos","network":"e-road","sort_rank":383,"kind_detail":"motorway","name:fr":"Pont Venetikos","name:de":"Br\u00fccke Venetikos","source":"openstreetmap.org","min_zoom":8.0,"name:en":"Egnatia Motorway","all_networks":["e-road","GR:motorway"],"landuse_kind":"park","shield_text":"90","ref":"\u03912","all_shield_texts":["90","\u03912"]},"arcs":[[194],[195]]},{"type":"MultiLineString","properties":{"kind":"major_road","int_name":"Florina - Edessa","network":"GR:national","sort_rank":380,"kind_detail":"primary","official_name":"\u0395\u03b8\u03bd\u03b9\u03ba\u03ae \u039f\u03b4\u03cc\u03c2 2","source":"openstreetmap.org","min_zoom":8.0,"shield_text":"\u0395\u039f2","ref":"\u0395\u039f2"},"arcs":[[196],[197],[198],[199],[200],[201],[202],[203],[204],[205],[206],[207],[208],[209],[210]]},{"type":"MultiLineString","properties":{"kind":"major_road","network":"GR:national","sort_rank":381,"kind_detail":"trunk","source":"openstreetmap.org","min_zoom":8.0,"shield_text":"\u0395\u039f2","ref":"\u0395\u039f2"},"arcs":[[211],[212],[213],[214]]},{"type":"LineString","properties":{"kind":"major_road","int_name":"Krystallopigi - Florina","network":"GR:national","sort_rank":380,"kind_detail":"primary","source":"openstreetmap.org","min_zoom":8.0,"shield_text":"\u0395\u039f15","ref":"\u0395\u039f2;\u0395\u039f15"},"arcs":[215]},{"type":"MultiLineString","properties":{"kind":"highway","name:en":"Kozani - Ptolemaida - Niki","network":"e-road","sort_rank":383,"landuse_kind":"urban_area","source":"openstreetmap.org","min_zoom":8.0,"all_networks":["e-road",null],"kind_detail":"motorway","shield_text":"65","all_shield_texts":["65","27"]},"arcs":[[216],[217],[218],[219]]},{"type":"MultiLineString","properties":{"kind":"highway","int_name":"Egnatia Odos","network":"e-road","sort_rank":383,"kind_detail":"motorway","name:fr":"Tunnel Zingra","name:de":"Tunnel Zingra","source":"openstreetmap.org","min_zoom":8.0,"name:en":"Egnatia Motorway","all_networks":["e-road","GR:motorway"],"shield_text":"90","ref":"\u03912","all_shield_texts":["90","\u03912"]},"arcs":[[220],[221]]},{"type":"MultiLineString","properties":{"kind":"highway","int_name":"Egnatia Odos","network":"e-road","sort_rank":383,"kind_detail":"motorway","name:fr":"Pont de Polymylos","name:de":"Polymylos Br\u00fccke","source":"openstreetmap.org","min_zoom":8.0,"name:en":"Egnatia Motorway","all_networks":["e-road","GR:motorway"],"shield_text":"90","ref":"\u03912","all_shield_texts":["90","\u03912"]},"arcs":[[222],[223]]},{"type":"LineString","properties":{"kind":"major_road","name:en":"Veroia - Thessaloniki Highway","network":"GR:national","sort_rank":380,"kind_detail":"primary","source":"openstreetmap.org","min_zoom":8.0,"shield_text":"\u0395\u039f4","ref":"\u0395\u039f4","id":386760694},"arcs":[224]},{"type":"MultiLineString","properties":{"kind":"major_road","network":"e-road","sort_rank":381,"kind_detail":"trunk","source":"openstreetmap.org","min_zoom":8.0,"shield_text":"65","ref":"\u039127"},"arcs":[[225],[226],[227],[228]]},{"type":"LineString","properties":{"kind":"major_road","int_name":"Kastoria - Amyntaio","network":"GR:national","sort_rank":380,"kind_detail":"primary","source":"openstreetmap.org","min_zoom":8.0,"landuse_kind":"nature_reserve","shield_text":"\u0395\u039f15","ref":"\u0395\u039f15","id":261764430},"arcs":[229]},{"type":"MultiLineString","properties":{"kind":"highway","int_name":"Egnatia Odos","network":"e-road","sort_rank":383,"kind_detail":"motorway","min_zoom":8.0,"name:de":"Tunnel Langadia","source":"openstreetmap.org","name:fr":"Tunnel Langadia","name:en":"Egnatia Motorway","all_networks":["e-road","GR:motorway"],"shield_text":"90","ref":"\u03912","all_shield_texts":["90","\u03912"]},"arcs":[[230],[231]]},{"type":"MultiLineString","properties":{"kind":"highway","int_name":"Egnatia Odos","network":"e-road","sort_rank":383,"landuse_kind":"urban_area","name:fr":"Autoroute A2 (Egnatia Odos)","name:de":"Autobahn A2 (Egnatia Odos)","source":"openstreetmap.org","min_zoom":8.0,"name:en":"Egnatia Motorway","all_networks":["e-road","GR:motorway"],"kind_detail":"motorway","shield_text":"90","ref":"\u03912","all_shield_texts":["90","\u03912"]},"arcs":[[232],[233],[234],[235],[236],[237]]},{"type":"LineString","properties":{"kind":"major_road","int_name":"Kastoria - Amyntaio","network":"GR:national","sort_rank":380,"kind_detail":"primary","source":"openstreetmap.org","min_zoom":8.0,"shield_text":"\u0395\u039f15","ref":"\u0395\u039f15","id":186428580},"arcs":[238]},{"type":"LineString","properties":{"name:el":"\u0393\u03ad\u03c6\u03c5\u03c1\u03b1 \u03a3\u03b5\u03c1\u03b2\u03af\u03c9\u03bd \u039d\u03b5\u03c1\u03ac\u03b9\u03b4\u03b1","kind":"major_road","name:en":"Servion Neraida Bridge","network":"GR:national","sort_rank":381,"kind_detail":"trunk","is_bicycle_related":true,"min_zoom":8.0,"name:de":"Servion Neraida Br\u00fccke","source":"openstreetmap.org","name:fr":"Pont Servion Neraida","shield_text":"\u0395\u039f3","ref":"\u0395\u039f3","id":27014246},"arcs":[239]},{"type":"MultiLineString","properties":{"kind":"major_road","name:en":"Grevena Ring Road","network":"GR:national","sort_rank":380,"kind_detail":"primary","source":"openstreetmap.org","min_zoom":8.0,"shield_text":"\u0395\u039f15","ref":"\u0395\u039f15"},"arcs":[[240],[241],[242]]},{"type":"MultiLineString","properties":{"kind":"highway","int_name":"Egnatia Odos","network":"e-road","sort_rank":383,"kind_detail":"motorway","name:fr":"Pont","name:de":"Br\u00fccke","source":"openstreetmap.org","min_zoom":8.0,"name:en":"Egnatia Motorway","all_networks":["e-road","GR:motorway"],"shield_text":"90","ref":"\u03912","all_shield_texts":["90","\u03912"]},"arcs":[[243],[244]]},{"type":"MultiLineString","properties":{"kind":"major_road","int_name":"Chalkidona - Veroia","network":"GR:national","sort_rank":380,"kind_detail":"primary","source":"openstreetmap.org","min_zoom":8.0,"shield_text":"\u0395\u039f4","ref":"\u0395\u039f4"},"arcs":[[245],[246],[247]]},{"type":"MultiLineString","properties":{"kind":"highway","int_name":"Egnatia Odos","network":"e-road","sort_rank":383,"kind_detail":"motorway","name:fr":"Pont Greveniotikos","name:de":"Greveniotikos Br\u00fccke","source":"openstreetmap.org","min_zoom":8.0,"name:en":"Egnatia Motorway","all_networks":["e-road","GR:motorway"],"shield_text":"90","ref":"\u03912","all_shield_texts":["90","\u03912"]},"arcs":[[248],[249]]},{"type":"LineString","properties":{"kind":"major_road","name:en":"Kozani - Ptolemaida Highway","network":"GR:national","sort_rank":380,"kind_detail":"primary","source":"openstreetmap.org","min_zoom":8.0,"shield_text":"\u0395\u039f3","ref":"\u0395\u039f3","id":36567827},"arcs":[250]},{"type":"MultiLineString","properties":{"kind":"major_road","network":"GR:national","sort_rank":380,"kind_detail":"primary","source":"openstreetmap.org","min_zoom":8.0,"shield_text":"\u0395\u039f4","ref":"\u0395\u039f4"},"arcs":[[251],[252]]},{"type":"LineString","properties":{"source":"openstreetmap.org","kind":"major_road","int_name":"Elassona - Kozani","landuse_kind":"nature_reserve","sort_rank":380,"kind_detail":"primary","min_zoom":8.0},"arcs":[253]},{"type":"MultiLineString","properties":{"kind":"major_road","network":"GR:national","sort_rank":381,"landuse_kind":"urban_area","source":"openstreetmap.org","min_zoom":8.0,"kind_detail":"trunk","shield_text":"\u0395\u039f3","ref":"\u0395\u039f3"},"arcs":[[254],[255]]},{"type":"MultiLineString","properties":{"source":"openstreetmap.org","kind":"major_road","int_name":"Veroia - Edessa","sort_rank":380,"kind_detail":"primary","min_zoom":8.0},"arcs":[[256],[257]]},{"type":"LineString","properties":{"kind":"major_road","int_name":"Konstantinou Karamanli","network":"GR:national","sort_rank":380,"kind_detail":"primary","source":"openstreetmap.org","min_zoom":8.0,"landuse_kind":"nature_reserve","shield_text":"\u0395\u039f2","ref":"\u0395\u039f2"},"arcs":[258]},{"type":"MultiLineString","properties":{"kind":"highway","int_name":"Egnatia Odos","network":"e-road","sort_rank":383,"kind_detail":"motorway","name:fr":"Tunnel Karatsa","name:de":"Tunnel Karatsa","source":"openstreetmap.org","min_zoom":8.0,"name:en":"Egnatia Motorway","all_networks":["e-road","GR:motorway"],"shield_text":"90","ref":"\u03912","all_shield_texts":["90","\u03912"]},"arcs":[[259],[260]]},{"type":"LineString","properties":{"kind":"major_road","int_name":"Kastoria - Amyntaio","network":"GR:provincial:63","sort_rank":380,"kind_detail":"primary","source":"openstreetmap.org","min_zoom":8.0,"shield_text":"6320","id":274158451},"arcs":[261]},{"type":"LineString","properties":{"kind":"highway","name:en":"Kozani - Ptolemaida - Niki","network":"e-road","sort_rank":383,"kind_detail":"motorway","source":"openstreetmap.org","min_zoom":8.0,"all_networks":["e-road",null],"shield_text":"65","id":114325372,"all_shield_texts":["65","27"]},"arcs":[262]},{"type":"LineString","properties":{"kind":"major_road","network":"GR:national","sort_rank":380,"kind_detail":"primary","is_bicycle_related":true,"source":"openstreetmap.org","min_zoom":8.0,"landuse_kind":"urban_area","shield_text":"\u0395\u039f20","ref":"\u0395\u039f20","id":385881584,"name:ca":"3. Setembre"},"arcs":[263]},{"type":"MultiLineString","properties":{"kind":"major_road","network":"GR:national","sort_rank":380,"kind_detail":"primary","is_bicycle_related":true,"source":"openstreetmap.org","min_zoom":8.0,"landuse_kind":"urban_area","shield_text":"\u0395\u039f20","ref":"\u0395\u039f20"},"arcs":[[264],[265],[266],[267]]},{"type":"MultiLineString","properties":{"kind":"highway","int_name":"Egnatia Odos","network":"e-road","sort_rank":383,"kind_detail":"motorway","name:fr":"Pont Loudias","source":"openstreetmap.org","min_zoom":8.0,"name:en":"Egnatia Motorway","all_networks":["e-road","GR:motorway"],"shield_text":"90","ref":"\u03912","all_shield_texts":["90","\u03912"]},"arcs":[[268],[269]]},{"type":"MultiLineString","properties":{"kind":"highway","int_name":"Egnatia Odos","network":"e-road","sort_rank":383,"kind_detail":"motorway","min_zoom":8.0,"name:de":"Tunnel Velanidia","source":"openstreetmap.org","name:fr":"Tunnel Velanidia","name:en":"Egnatia Motorway","all_networks":["e-road","GR:motorway"],"shield_text":"90","ref":"\u03912","all_shield_texts":["90","\u03912"]},"arcs":[[270],[271]]},{"type":"MultiLineString","properties":{"kind":"major_road","int_name":"Neapoli - Konitsa","network":"GR:national","sort_rank":380,"kind_detail":"primary","source":"openstreetmap.org","min_zoom":8.0,"landuse_kind":"nature_reserve","shield_text":"\u0395\u039f20","ref":"\u0395\u039f20"},"arcs":[[272],[273],[274]]},{"type":"MultiLineString","properties":{"kind":"highway","name:en":"Kozani - Ptolemaida - Niki","network":"e-road","sort_rank":383,"landuse_kind":"nature_reserve","source":"openstreetmap.org","min_zoom":8.0,"all_networks":["e-road",null],"kind_detail":"motorway","shield_text":"65","ref":"\u039127","all_shield_texts":["65","27"]},"arcs":[[275],[276],[277],[278],[279]]},{"type":"LineString","properties":{"kind":"major_road","network":"GR:national","sort_rank":380,"kind_detail":"primary","source":"openstreetmap.org","min_zoom":8.0,"landuse_kind":"nature_reserve","shield_text":"\u0395\u039f2","ref":"\u0395\u039f2"},"arcs":[280]},{"type":"MultiLineString","properties":{"kind":"major_road","int_name":"Florina - Edessa","network":"GR:national","sort_rank":381,"landuse_kind":"urban_area","source":"openstreetmap.org","min_zoom":8.0,"kind_detail":"trunk","shield_text":"\u0395\u039f2","ref":"\u0395\u039f2"},"arcs":[[281],[282],[283]]},{"type":"MultiLineString","properties":{"kind":"major_road","network":"GR:national","sort_rank":381,"kind_detail":"trunk","source":"openstreetmap.org","min_zoom":8.0,"landuse_kind":"nature_reserve","shield_text":"\u0395\u039f3","ref":"\u0395\u039f3"},"arcs":[[284],[285],[286]]},{"type":"LineString","properties":{"source":"openstreetmap.org","kind":"major_road","sort_rank":380,"kind_detail":"primary","ref":"\u0395\u039f1","min_zoom":8.0,"id":335540083},"arcs":[287]},{"type":"MultiLineString","properties":{"kind":"major_road","name:en":"Kozani Eastern bypass","network":"GR:national","sort_rank":381,"kind_detail":"trunk","source":"openstreetmap.org","min_zoom":8.0,"landuse_kind":"nature_reserve","shield_text":"\u0395\u039f3","ref":"\u0395\u039f3"},"arcs":[[288],[289],[290],[291],[292]]},{"type":"MultiLineString","properties":{"kind":"highway","int_name":"Egnatia Odos","network":"e-road","sort_rank":383,"kind_detail":"motorway","name:fr":"Pont Venetikos","name:de":"Br\u00fccke Venetikos","source":"openstreetmap.org","min_zoom":8.0,"name:en":"Egnatia Motorway","all_networks":["e-road","GR:motorway"],"shield_text":"90","ref":"\u03912","all_shield_texts":["90","\u03912"]},"arcs":[[293],[294],[295],[296]]},{"type":"LineString","properties":{"kind":"major_road","int_name":"Edessa - Thessaloniki","network":"e-road","sort_rank":381,"kind_detail":"trunk","source":"openstreetmap.org","min_zoom":8.0,"shield_text":"86","ref":"\u0395\u039f2"},"arcs":[297]},{"type":"MultiLineString","properties":{"source":"openstreetmap.org","kind":"major_road","kind_detail":"trunk","sort_rank":381,"landuse_kind":"urban_area","ref":"\u0395\u039f3","min_zoom":8.0},"arcs":[[298],[299]]},{"type":"MultiLineString","properties":{"kind":"highway","int_name":"Egnatia Odos","network":"e-road","sort_rank":383,"kind_detail":"motorway","min_zoom":8.0,"name:de":"Tunnel Taxiarchis","source":"openstreetmap.org","name:fr":"Tunnel Taxiarchis","name:en":"Egnatia Motorway","all_networks":["e-road","GR:motorway"],"shield_text":"90","ref":"\u03912","all_shield_texts":["90","\u03912"]},"arcs":[[300],[301]]},{"type":"MultiLineString","properties":{"kind":"major_road","name:en":"Veroia Ring Road","network":"GR:national","sort_rank":380,"landuse_kind":"residential","source":"openstreetmap.org","min_zoom":8.0,"kind_detail":"primary","shield_text":"\u0395\u039f4","ref":"\u0395\u039f4"},"arcs":[[302],[303]]},{"type":"LineString","properties":{"kind":"major_road","int_name":"Florina - Edessa","network":"GR:national","sort_rank":381,"kind_detail":"trunk","source":"openstreetmap.org","min_zoom":8.0,"shield_text":"\u0395\u039f2","ref":"\u0395\u039f2"},"arcs":[304]},{"type":"MultiLineString","properties":{"source":"openstreetmap.org","kind":"major_road","landuse_kind":"nature_reserve","sort_rank":380,"kind_detail":"primary","min_zoom":8.0},"arcs":[[305],[306]]},{"type":"LineString","properties":{"kind":"major_road","int_name":"Kozani - Neapoli","network":"GR:national","sort_rank":380,"kind_detail":"primary","source":"openstreetmap.org","min_zoom":8.0,"landuse_kind":"nature_reserve","shield_text":"\u0395\u039f20","ref":"\u0395\u039f20"},"arcs":[307]},{"type":"LineString","properties":{"source":"openstreetmap.org","kind":"major_road","network":"GR:national","sort_rank":380,"kind_detail":"primary","min_zoom":8.0,"shield_text":"\u0395\u039f15"},"arcs":[308]},{"type":"LineString","properties":{"source":"openstreetmap.org","kind":"major_road","name:en":"Athens - Thessaloniki Old National Road","sort_rank":380,"kind_detail":"primary","min_zoom":8.0,"id":339540158},"arcs":[309]},{"type":"LineString","properties":{"kind":"major_road","int_name":"Kozani - Ptolemaida - Niki","network":"e-road","sort_rank":381,"kind_detail":"trunk","source":"openstreetmap.org","min_zoom":8.0,"shield_text":"65","ref":"A27"},"arcs":[310]},{"type":"MultiLineString","properties":{"kind":"major_road","int_name":"Veroia - Kozani","network":"GR:national","sort_rank":380,"kind_detail":"primary","source":"openstreetmap.org","min_zoom":8.0,"shield_text":"\u0395\u039f4","ref":"\u0395\u039f4"},"arcs":[[311],[312],[313],[314],[315],[316],[317],[318],[319]]},{"type":"MultiLineString","properties":{"kind":"major_road","int_name":"Veroia - Kozani","network":"GR:national","sort_rank":380,"kind_detail":"primary","source":"openstreetmap.org","min_zoom":8.0,"landuse_kind":"residential","shield_text":"\u0395\u039f4","ref":"\u0395\u039f4"},"arcs":[[320],[321],[322]]},{"type":"MultiLineString","properties":{"kind":"major_road","name:en":"Edessa - Thessaloniki","network":"GR:national","sort_rank":381,"kind_detail":"trunk","source":"openstreetmap.org","min_zoom":8.0,"shield_text":"\u0395\u039f2","ref":"\u0395\u039f2"},"arcs":[[323],[324],[325],[326],[327],[328]]},{"type":"LineString","properties":{"kind":"major_road","int_name":"Siatista - Kozani","network":"GR:national","sort_rank":380,"kind_detail":"primary","source":"openstreetmap.org","min_zoom":8.0,"landuse_kind":"urban_area","shield_text":"\u0395\u039f20","ref":"\u0395\u039f20"},"arcs":[329]},{"type":"LineString","properties":{"kind":"major_road","network":"GR:national","sort_rank":380,"kind_detail":"primary","is_bicycle_related":true,"source":"openstreetmap.org","min_zoom":8.0,"landuse_kind":"nature_reserve","shield_text":"\u0395\u039f20","ref":"\u0395\u039f20","name:ca":"3. Setembre"},"arcs":[330]},{"type":"MultiLineString","properties":{"sort_rank":381,"source":"openstreetmap.org","min_zoom":8.0,"kind":"major_road","kind_detail":"trunk"},"arcs":[[331],[332],[333],[334]]},{"type":"LineString","properties":{"kind":"major_road","name:en":"Elassona - Deskati National Road","network":"GR:national","sort_rank":380,"kind_detail":"primary","source":"openstreetmap.org","min_zoom":8.0,"landuse_kind":"nature_reserve","shield_text":"\u0395\u039f26","ref":"\u0395\u039f26","id":189462547},"arcs":[335]},{"type":"MultiLineString","properties":{"kind":"highway","name:en":"Kozani - Ptolemaida - Niki","network":"e-road","sort_rank":383,"landuse_kind":"urban_area","source":"openstreetmap.org","min_zoom":8.0,"all_networks":["e-road",null],"kind_detail":"motorway","shield_text":"65","ref":"\u039127","all_shield_texts":["65","27"]},"arcs":[[336],[337],[338],[339],[340],[341]]},{"type":"MultiLineString","properties":{"kind":"major_road","int_name":"Thessalonikis","network":"GR:national","sort_rank":380,"kind_detail":"primary","source":"openstreetmap.org","min_zoom":8.0,"landuse_kind":"residential","shield_text":"\u0395\u039f4","ref":"\u0395\u039f4"},"arcs":[[342],[343]]},{"type":"MultiLineString","properties":{"source":"openstreetmap.org","kind":"major_road","int_name":"Elassona - Kozani","landuse_kind":"urban_area","sort_rank":380,"kind_detail":"primary","min_zoom":8.0},"arcs":[[344],[345],[346]]},{"type":"LineString","properties":{"kind":"major_road","sort_rank":380,"landuse_kind":"nature_reserve","source":"openstreetmap.org","min_zoom":8.0,"kind_detail":"primary","id":385881579,"name:ca":"3. Setembre"},"arcs":[347]},{"type":"LineString","properties":{"kind":"highway","name:en":"Kozani - Ptolemaida - Niki","network":"e-road","sort_rank":383,"kind_detail":"motorway","source":"openstreetmap.org","min_zoom":8.0,"all_networks":["e-road"],"landuse_kind":"nature_reserve","shield_text":"65","ref":"\u039127","id":116771950,"all_shield_texts":["65"]},"arcs":[348]},{"type":"MultiLineString","properties":{"kind":"major_road","int_name":"Chalkidona - Veroia","network":"GR:national","sort_rank":380,"kind_detail":"primary","source":"openstreetmap.org","min_zoom":8.0,"landuse_kind":"urban_area","shield_text":"\u0395\u039f4","ref":"\u0395\u039f4"},"arcs":[[349],[350],[351],[352],[353]]},{"type":"MultiLineString","properties":{"kind":"highway","int_name":"Egnatia Odos","network":"e-road","sort_rank":383,"kind_detail":"motorway","name:fr":"Tunnel Vermio (S10)","name:de":"Tunnel Vermio (S10)","source":"openstreetmap.org","min_zoom":8.0,"name:en":"Egnatia Motorway","all_networks":["e-road","GR:motorway"],"shield_text":"90","ref":"\u03912","all_shield_texts":["90","\u03912"]},"arcs":[[354],[355]]},{"type":"MultiLineString","properties":{"source":"openstreetmap.org","kind":"major_road","name:en":"Kozani - Ptolemaida","sort_rank":380,"kind_detail":"primary","min_zoom":8.0},"arcs":[[356],[357],[358]]},{"type":"MultiLineString","properties":{"kind":"highway","int_name":"Egnatia Odos","network":"e-road","sort_rank":383,"kind_detail":"motorway","name:fr":"Autoroute A2 (Egnatia Odos)","name:de":"Autobahn A2 (Egnatia Odos)","source":"openstreetmap.org","min_zoom":8.0,"name:en":"Egnatia Motorway","all_networks":["e-road","GR:motorway"],"shield_text":"90","ref":"\u03912","all_shield_texts":["90","\u03912"]},"arcs":[[359],[360],[361],[362],[363],[364],[365],[366],[367],[368],[369],[370],[371],[372],[373],[374],[375],[376],[377],[378],[379],[380],[381],[382]]},{"type":"LineString","properties":{"kind":"major_road","int_name":"28 Oktovriou","network":"GR:national","sort_rank":380,"kind_detail":"primary","source":"openstreetmap.org","min_zoom":8.0,"shield_text":"\u0395\u039f1","ref":"\u0395\u039f1","id":339540156},"arcs":[383]},{"type":"MultiLineString","properties":{"kind":"major_road","name:en":"Edessa bypass","network":"GR:national","sort_rank":381,"kind_detail":"trunk","source":"openstreetmap.org","min_zoom":8.0,"shield_text":"\u0395\u039f2","ref":"\u0395\u039f2"},"arcs":[[384],[385],[386]]},{"type":"MultiLineString","properties":{"kind":"major_road","network":"GR:national","sort_rank":380,"kind_detail":"primary","source":"openstreetmap.org","min_zoom":8.0,"shield_text":"\u0395\u039f2","ref":"\u0395\u039f2"},"arcs":[[387],[388],[389],[390],[391],[392],[393],[394],[395]]},{"type":"MultiLineString","properties":{"kind":"major_road","int_name":"Eikostis Ogdois Oktovriou","network":"GR:national","sort_rank":380,"kind_detail":"primary","source":"openstreetmap.org","min_zoom":8.0,"shield_text":"\u0395\u039f1","ref":"\u0395\u039f1"},"arcs":[[396],[397]]},{"type":"MultiLineString","properties":{"kind":"major_road","int_name":"Thessalonikis","network":"GR:national","sort_rank":380,"kind_detail":"primary","source":"openstreetmap.org","min_zoom":8.0,"landuse_kind":"urban_area","shield_text":"\u0395\u039f4","ref":"\u0395\u039f4"},"arcs":[[398],[399]]},{"type":"MultiLineString","properties":{"kind":"highway","name:en":"Kozani - Ptolemaida - Niki","network":"e-road","sort_rank":383,"landuse_kind":"nature_reserve","source":"openstreetmap.org","min_zoom":8.0,"all_networks":["e-road",null],"kind_detail":"motorway","shield_text":"65","all_shield_texts":["65","27"]},"arcs":[[400],[401],[402],[403]]},{"type":"LineString","properties":{"kind":"highway","network":"GR:motorway","sort_rank":383,"kind_detail":"motorway","source":"openstreetmap.org","min_zoom":8.0,"all_networks":["GR:motorway"],"shield_text":"\u03912","all_shield_texts":["\u03912"]},"arcs":[404]},{"type":"MultiLineString","properties":{"kind":"major_road","int_name":"Egnatias","network":"GR:national","sort_rank":381,"landuse_kind":"urban_area","source":"openstreetmap.org","min_zoom":8.0,"kind_detail":"trunk","shield_text":"\u0395\u039f2","ref":"\u0395\u039f2"},"arcs":[[405],[406]]},{"type":"MultiLineString","properties":{"kind":"major_road","int_name":"Grammou","network":"GR:national","sort_rank":380,"kind_detail":"primary","source":"openstreetmap.org","min_zoom":8.0,"landuse_kind":"nature_reserve","shield_text":"\u0395\u039f15","ref":"\u0395\u039f15"},"arcs":[[407],[408],[409]]},{"type":"LineString","properties":{"kind":"major_road","int_name":"Florina - Edessa","network":"GR:national","sort_rank":381,"kind_detail":"trunk","official_name":"\u0395\u03b8\u03bd\u03b9\u03ba\u03ae \u039f\u03b4\u03cc\u03c2 2","source":"openstreetmap.org","min_zoom":8.0,"shield_text":"\u0395\u039f2","ref":"\u0395\u039f2"},"arcs":[410]},{"type":"MultiLineString","properties":{"kind":"highway","int_name":"Kozani - Ptolemaida - Niki","network":"e-road","sort_rank":383,"kind_detail":"motorway","source":"openstreetmap.org","min_zoom":8.0,"all_networks":["e-road",null],"shield_text":"65","ref":"A27","all_shield_texts":["65","27"]},"arcs":[[411],[412],[413],[414],[415],[416]]},{"type":"LineString","properties":{"kind":"major_road","int_name":"Elassona - Kozani","network":"GR:national","sort_rank":381,"kind_detail":"trunk","source":"openstreetmap.org","min_zoom":8.0,"shield_text":"\u0395\u039f3","ref":"\u0395\u039f3"},"arcs":[417]},{"type":"MultiLineString","properties":{"kind":"highway","name:en":"Siatista - Krystallopigi","network":null,"sort_rank":383,"kind_detail":"motorway","source":"openstreetmap.org","min_zoom":8.0,"all_networks":[null],"shield_text":"29","ref":"\u039129","all_shield_texts":["29"]},"arcs":[[418],[419],[420],[421]]},{"type":"LineString","properties":{"kind":"major_road","network":"GR:national","sort_rank":381,"landuse_kind":"urban_area","source":"openstreetmap.org","min_zoom":8.0,"kind_detail":"trunk","shield_text":"\u0395\u039f2","ref":"\u0395\u039f2"},"arcs":[422]},{"type":"LineString","properties":{"kind":"major_road","int_name":"Florina - Edessa","network":"GR:national","sort_rank":381,"kind_detail":"trunk","official_name":"\u0395\u03b8\u03bd\u03b9\u03ba\u03ae \u039f\u03b4\u03cc\u03c2 3","source":"openstreetmap.org","min_zoom":8.0,"shield_text":"\u0395\u039f3","ref":"\u0395\u039f3;\u039127"},"arcs":[423]},{"type":"MultiLineString","properties":{"kind":"major_road","name:en":"Elassona - Kozani","network":"GR:national","sort_rank":381,"kind_detail":"trunk","source":"openstreetmap.org","min_zoom":8.0,"shield_text":"\u0395\u039f3","ref":"\u0395\u039f3"},"arcs":[[424],[425],[426],[427],[428],[429],[430],[431],[432]]},{"type":"LineString","properties":{"kind":"major_road","int_name":"Kozani - Ptolemaida","network":"GR:national","sort_rank":381,"kind_detail":"trunk","source":"openstreetmap.org","min_zoom":8.0,"landuse_kind":"nature_reserve","shield_text":"\u0395\u039f3","ref":"\u0395\u039f3","id":335810754},"arcs":[433]},{"type":"LineString","properties":{"kind":"major_road","int_name":"Egnatias","network":"GR:national","sort_rank":381,"kind_detail":"trunk","source":"openstreetmap.org","min_zoom":8.0,"shield_text":"\u0395\u039f2","ref":"\u0395\u039f2"},"arcs":[434]},{"type":"MultiLineString","properties":{"kind":"major_road","int_name":"Krystallopigi - Florina","network":"GR:national","sort_rank":380,"kind_detail":"primary","source":"openstreetmap.org","min_zoom":8.0,"shield_text":"\u0395\u039f2","ref":"\u0395\u039f2"},"arcs":[[435],[436],[437]]},{"type":"MultiLineString","properties":{"source":"openstreetmap.org","kind":"major_road","network":"GR:motorway","sort_rank":380,"kind_detail":"primary","min_zoom":8.0,"shield_text":"\u03912"},"arcs":[[438],[439],[440],[441]]},{"type":"MultiLineString","properties":{"kind":"highway","int_name":"Egnatia Odos","network":"e-road","sort_rank":383,"landuse_kind":"nature_reserve","source":"openstreetmap.org","min_zoom":8.0,"name:en":"Egnatia Motorway","all_networks":["e-road","GR:motorway"],"kind_detail":"motorway","shield_text":"90","ref":"\u03912","all_shield_texts":["90","\u03912"]},"arcs":[[442],[443],[444],[445]]},{"type":"LineString","properties":{"kind":"major_road","int_name":"Edessa - Thessaloniki","network":"GR:national","sort_rank":381,"kind_detail":"trunk","source":"openstreetmap.org","min_zoom":8.0,"landuse_kind":"urban_area","shield_text":"\u0395\u039f2","ref":"\u0395\u039f2","id":27402215},"arcs":[446]},{"type":"MultiLineString","properties":{"kind":"major_road","name:en":"Kozani Northern bypass","network":"GR:national","sort_rank":381,"kind_detail":"trunk","source":"openstreetmap.org","min_zoom":8.0,"landuse_kind":"nature_reserve","shield_text":"\u0395\u039f3","ref":"\u0395\u039f3"},"arcs":[[447],[448],[449],[450]]},{"type":"MultiLineString","properties":{"kind":"highway","int_name":"Egnatia Odos","network":"e-road","sort_rank":383,"kind_detail":"motorway","name:fr":"Pont Aliakmonas","name:de":"Aliakmonas Br\u00fccke","source":"openstreetmap.org","min_zoom":8.0,"name:en":"Egnatia Motorway","all_networks":["e-road","GR:motorway"],"shield_text":"90","ref":"\u03912","all_shield_texts":["90","\u03912"]},"arcs":[[451],[452]]},{"type":"MultiLineString","properties":{"source":"openstreetmap.org","kind":"major_road","landuse_kind":"nature_reserve","sort_rank":380,"kind_detail":"primary","ref":"\u0395\u039f20","min_zoom":8.0},"arcs":[[453],[454]]},{"type":"MultiLineString","properties":{"kind":"major_road","network":"GR:national","sort_rank":380,"kind_detail":"primary","source":"openstreetmap.org","min_zoom":8.0,"landuse_kind":"nature_reserve","shield_text":"\u0395\u039f20","ref":"\u0395\u039f20"},"arcs":[[455],[456]]},{"type":"MultiLineString","properties":{"kind":"major_road","network":"GR:national","sort_rank":381,"kind_detail":"trunk","source":"openstreetmap.org","min_zoom":8.0,"shield_text":"\u0395\u039f3","ref":"\u039127"},"arcs":[[457],[458]]},{"type":"LineString","properties":{"kind":"major_road","network":"GR:national","sort_rank":380,"kind_detail":"primary","source":"openstreetmap.org","min_zoom":8.0,"landuse_kind":"nature_reserve","shield_text":"\u0395\u039f4","ref":"\u0395\u039f4","id":474334568},"arcs":[459]},{"type":"LineString","properties":{"source":"openstreetmap.org","kind":"major_road","int_name":"Kastoria - Krystallopigi","landuse_kind":"nature_reserve","sort_rank":380,"kind_detail":"primary","min_zoom":8.0},"arcs":[460]},{"type":"MultiLineString","properties":{"kind":"major_road","int_name":"Alexandreia - Chalkidona","network":"GR:national","sort_rank":380,"kind_detail":"primary","source":"openstreetmap.org","min_zoom":8.0,"shield_text":"\u0395\u039f1","ref":"\u0395\u039f1"},"arcs":[[461],[462]]},{"type":"LineString","properties":{"kind":"major_road","name:en":"Elassona - Kozani","network":"GR:national","sort_rank":380,"kind_detail":"primary","source":"openstreetmap.org","min_zoom":8.0,"shield_text":"\u0395\u039f3","ref":"\u0395\u039f3","id":189474010},"arcs":[463]},{"type":"LineString","properties":{"kind":"major_road","int_name":"Florina - Edessa","network":"e-road","sort_rank":381,"kind_detail":"trunk","official_name":"\u0395\u03b8\u03bd\u03b9\u03ba\u03ae \u039f\u03b4\u03cc\u03c2 2","source":"openstreetmap.org","min_zoom":8.0,"shield_text":"86"},"arcs":[464]},{"type":"MultiLineString","properties":{"kind":"highway","int_name":"Egnatia Odos","network":"e-road","sort_rank":383,"landuse_kind":"nature_reserve","name:fr":"Tunnel SN13 (Polymylos)","name:de":"Tunnel SN13 (Polymylos)","source":"openstreetmap.org","min_zoom":8.0,"name:en":"Egnatia Motorway","all_networks":["e-road","GR:motorway"],"kind_detail":"motorway","shield_text":"90","ref":"\u03912","all_shield_texts":["90","\u03912"]},"arcs":[[465],[466]]},{"type":"MultiLineString","properties":{"kind":"major_road","int_name":"Grevena - Siatista","network":"GR:national","sort_rank":380,"kind_detail":"primary","source":"openstreetmap.org","min_zoom":8.0,"shield_text":"\u0395\u039f15","ref":"\u0395\u039f15"},"arcs":[[467],[468],[469]]},{"type":"MultiLineString","properties":{"kind":"highway","name:en":"Siatista - Krystallopigi","network":null,"sort_rank":383,"landuse_kind":"urban_area","source":"openstreetmap.org","min_zoom":8.0,"all_networks":[null],"kind_detail":"motorway","shield_text":"29","ref":"A29","all_shield_texts":["29"]},"arcs":[[470],[471]]},{"type":"MultiLineString","properties":{"kind":"major_road","int_name":"Veroia - Kozani","network":"GR:national","sort_rank":380,"kind_detail":"primary","source":"openstreetmap.org","min_zoom":8.0,"landuse_kind":"urban_area","shield_text":"\u0395\u039f4","ref":"\u0395\u039f4"},"arcs":[[472],[473],[474],[475],[476],[477],[478],[479],[480]]},{"type":"LineString","properties":{"kind":"major_road","network":"e-road","sort_rank":380,"kind_detail":"primary","source":"openstreetmap.org","min_zoom":8.0,"shield_text":"86","id":335783169},"arcs":[481]},{"type":"MultiLineString","properties":{"source":"openstreetmap.org","kind":"major_road","landuse_kind":"urban_area","sort_rank":380,"kind_detail":"primary","min_zoom":8.0},"arcs":[[482],[483]]},{"type":"LineString","properties":{"kind":"major_road","int_name":"Florina - Edessa","network":"GR:national","sort_rank":381,"kind_detail":"trunk","source":"openstreetmap.org","min_zoom":8.0,"shield_text":"\u0395\u039f3","ref":"\u039127","id":383293359},"arcs":[484]},{"type":"MultiLineString","properties":{"kind":"major_road","name:en":"Veroia - Kozani","network":"GR:national","sort_rank":380,"kind_detail":"primary","source":"openstreetmap.org","min_zoom":8.0,"landuse_kind":"nature_reserve","shield_text":"\u0395\u039f4","ref":"\u0395\u039f4"},"arcs":[[485],[486],[487],[488],[489]]},{"type":"MultiLineString","properties":{"kind":"major_road","int_name":"Kozani - Neapoli","network":"GR:national","sort_rank":380,"kind_detail":"primary","source":"openstreetmap.org","min_zoom":8.0,"shield_text":"\u0395\u039f20","ref":"\u0395\u039f20"},"arcs":[[490],[491]]},{"type":"LineString","properties":{"kind":"major_road","name:en":"Veroia Ring Road","network":"GR:national","sort_rank":380,"kind_detail":"primary","source":"openstreetmap.org","min_zoom":8.0,"landuse_kind":"urban_area","shield_text":"\u0395\u039f4","ref":"\u0395\u039f4","id":343773569},"arcs":[492]},{"type":"LineString","properties":{"kind":"highway","name:en":"Motorway 27 (Kozani - Ptolemaida - Niki)","network":"e-road","sort_rank":383,"kind_detail":"motorway","source":"openstreetmap.org","min_zoom":8.0,"all_networks":["e-road",null],"shield_text":"65","ref":"A27","id":407212445,"all_shield_texts":["65","27"]},"arcs":[493]},{"type":"MultiLineString","properties":{"sort_rank":380,"kind_detail":"primary","min_zoom":8.0,"kind":"major_road","source":"openstreetmap.org"},"arcs":[[494],[495],[496],[497],[498]]},{"type":"MultiLineString","properties":{"kind":"highway","int_name":"Siatista - Krystallopigi","network":null,"sort_rank":383,"kind_detail":"motorway","source":"openstreetmap.org","min_zoom":8.0,"all_networks":[null],"shield_text":"29","ref":"A29","all_shield_texts":["29"]},"arcs":[[499],[500],[501],[502]]},{"type":"LineString","properties":{"kind":"major_road","int_name":"Florina - Edessa","network":"GR:national","sort_rank":381,"kind_detail":"trunk","official_name":"\u0395\u03b8\u03bd\u03b9\u03ba\u03ae \u039f\u03b4\u03cc\u03c2 3;\u039a\u03bf\u03b6\u03ac\u03bd\u03b7 - \u03a6\u03bb\u03ce\u03c1\u03b9\u03bd\u03b1 - \u039d\u03af\u03ba\u03b7","source":"openstreetmap.org","min_zoom":8.0,"shield_text":"\u0395\u039f3","ref":"\u0395\u039f3;\u039127"},"arcs":[503]},{"type":"MultiLineString","properties":{"kind":"highway","name:en":"Kozani - Ptolemaida - Niki","network":"e-road","sort_rank":383,"kind_detail":"motorway","source":"openstreetmap.org","min_zoom":8.0,"all_networks":["e-road",null],"shield_text":"65","ref":"\u039127","all_shield_texts":["65","27"]},"arcs":[[504],[505],[506],[507],[508]]},{"type":"MultiLineString","properties":{"kind":"major_road","int_name":"Vermiou","network":"GR:national","sort_rank":380,"kind_detail":"primary","source":"openstreetmap.org","min_zoom":8.0,"landuse_kind":"nature_reserve","shield_text":"\u0395\u039f4","ref":"\u0395\u039f4"},"arcs":[[509],[510],[511],[512],[513],[514],[515],[516],[517],[518],[519],[520],[521]]},{"type":"MultiLineString","properties":{"source":"openstreetmap.org","kind":"major_road","landuse_kind":"nature_reserve","sort_rank":381,"kind_detail":"trunk","ref":"\u0395\u039f3","min_zoom":8.0},"arcs":[[522],[523]]},{"type":"MultiLineString","properties":{"kind":"highway","name:en":"Kozani - Ptolemaida - Niki","network":"e-road","sort_rank":383,"kind_detail":"motorway","source":"openstreetmap.org","min_zoom":8.0,"all_networks":["e-road",null],"shield_text":"65","ref":"A27","all_shield_texts":["65","27"]},"arcs":[[524],[525],[526]]},{"type":"MultiLineString","properties":{"kind":"highway","int_name":"Egnatia Odos","network":"e-road","sort_rank":383,"landuse_kind":"nature_reserve","name:fr":"Pont de Polymylos","name:de":"Polymylos Br\u00fccke","source":"openstreetmap.org","min_zoom":8.0,"name:en":"Egnatia Motorway","all_networks":["e-road","GR:motorway"],"kind_detail":"motorway","shield_text":"90","ref":"\u03912","all_shield_texts":["90","\u03912"]},"arcs":[[527],[528]]},{"type":"MultiLineString","properties":{"kind":"major_road","network":"GR:national","sort_rank":380,"kind_detail":"primary","source":"openstreetmap.org","min_zoom":8.0,"landuse_kind":"urban_area","shield_text":"\u0395\u039f4","ref":"\u0395\u039f4"},"arcs":[[529],[530],[531],[532]]},{"type":"MultiLineString","properties":{"kind":"major_road","name:en":"Edessa bypass","network":"GR:national","sort_rank":381,"landuse_kind":"urban_area","source":"openstreetmap.org","min_zoom":8.0,"kind_detail":"trunk","shield_text":"\u0395\u039f2","ref":"\u0395\u039f2"},"arcs":[[533],[534],[535],[536],[537]]},{"type":"MultiLineString","properties":{"kind":"major_road","name:en":"Elassona - Kozani","network":"GR:national","sort_rank":381,"kind_detail":"trunk","source":"openstreetmap.org","min_zoom":8.0,"landuse_kind":"nature_reserve","shield_text":"\u0395\u039f3","ref":"\u0395\u039f3"},"arcs":[[538],[539],[540],[541],[542],[543]]},{"type":"MultiLineString","properties":{"kind":"highway","name:en":"Siatista - Krystallopigi","network":null,"sort_rank":383,"kind_detail":"motorway","source":"openstreetmap.org","min_zoom":8.0,"all_networks":[null],"shield_text":"29","ref":"A29","all_shield_texts":["29"]},"arcs":[[544],[545],[546],[547],[548],[549],[550],[551]]},{"type":"LineString","properties":{"kind":"highway","int_name":"Egnatia Odos","network":"e-road","sort_rank":383,"kind_detail":"motorway","min_zoom":8.0,"name:de":"S8","source":"openstreetmap.org","name:fr":"S8","name:en":"Egnatia Motorway","all_networks":["e-road","GR:motorway"],"shield_text":"90","ref":"\u03912","id":83422981,"all_shield_texts":["90","\u03912"]},"arcs":[552]},{"type":"MultiLineString","properties":{"kind":"highway","name:en":"Siatista - Krystallopigi","network":null,"sort_rank":383,"landuse_kind":"nature_reserve","source":"openstreetmap.org","min_zoom":8.0,"all_networks":[null],"kind_detail":"motorway","shield_text":"29","ref":"\u039129","all_shield_texts":["29"]},"arcs":[[553],[554]]},{"type":"MultiLineString","properties":{"kind":"major_road","int_name":"Neapoli - Konitsa","network":"GR:national","sort_rank":380,"kind_detail":"primary","source":"openstreetmap.org","min_zoom":8.0,"shield_text":"\u0395\u039f20","ref":"\u0395\u039f20"},"arcs":[[555],[556],[557],[558]]},{"type":"LineString","properties":{"kind":"major_road","int_name":"Konstantinou Karamanli","network":"GR:national","sort_rank":380,"kind_detail":"primary","source":"openstreetmap.org","min_zoom":8.0,"shield_text":"\u0395\u039f2","ref":"\u0395\u039f2","id":274445263},"arcs":[559]},{"type":"LineString","properties":{"kind":"major_road","int_name":"Ptolemaida - Florina","network":"GR:national","sort_rank":381,"kind_detail":"trunk","official_name":"\u039a\u03bf\u03b6\u03ac\u03bd\u03b7 - \u03a0\u03c4\u03bf\u03bb\u03b5\u03bc\u03b1\u03af\u03b4\u03b1 - \u039d\u03af\u03ba\u03b7","source":"openstreetmap.org","min_zoom":8.0,"shield_text":"\u0395\u039f3","ref":"\u0395\u039f3;\u039127"},"arcs":[560]},{"type":"MultiLineString","properties":{"kind":"major_road","int_name":"Kastoria - Amyntaio","network":"GR:national","sort_rank":380,"kind_detail":"primary","source":"openstreetmap.org","min_zoom":8.0,"landuse_kind":"urban_area","shield_text":"\u0395\u039f15","ref":"\u0395\u039f15"},"arcs":[[561],[562],[563],[564]]}]},"earth":{"type":"GeometryCollection","geometries":[{"type":"MultiPolygon","properties":{"sort_rank":10,"source":"naturalearthdata.com","min_zoom":0.0,"kind":"earth","area":86054996895},"arcs":[[[565]]]}]},"landuse":{"type":"GeometryCollection","geometries":[{"type":"Polygon","properties":{"source":"openstreetmap.org","kind":"park","area":3313639936,"tier":2,"id":137321318,"min_zoom":4.0,"sort_rank":24},"arcs":[[566]]},{"type":"MultiPolygon","properties":{"source":"openstreetmap.org","kind":"park","tier":2,"area":433419277,"sort_rank":24,"min_zoom":6.0,"osm_relation":true},"arcs":[[[567]]]},{"type":"MultiPolygon","properties":{"source":"openstreetmap.org","kind":"nature_reserve","tier":2,"area":606482614,"sort_rank":23,"min_zoom":7.0},"arcs":[[[568]],[[569]],[[570]],[[571]]]},{"type":"MultiPolygon","properties":{"source":"naturalearthdata.com","kind":"urban_area","name":"","area":556341144,"sort_rank":11,"min_zoom":4.0},"arcs":[[[572]],[[573]],[[574]],[[575]],[[576]],[[577]]]},{"type":"MultiPolygon","properties":{"source":"openstreetmap.org","kind":"residential","tier":2,"area":24604192,"sort_rank":20,"min_zoom":8.0},"arcs":[[[578]]]},{"type":"MultiPolygon","properties":{"source":"openstreetmap.org","kind":"nature_reserve","tier":2,"area":4350283465,"sort_rank":23,"min_zoom":8.0},"arcs":[[[579]],[[580]],[[581]],[[582]],[[583]],[[584]],[[585]],[[586]],[[587]],[[588]],[[589]],[[590]],[[591]],[[592]],[[593]],[[594]],[[595]],[[596]],[[597]],[[598]],[[599]],[[600]],[[601]],[[602]],[[603]],[[604]],[[605]],[[606]],[[607]],[[608]],[[609]],[[610]],[[611]],[[612]],[[613]],[[614]],[[615]],[[616]],[[617]],[[618]],[[619]],[[620]],[[621],[622]],[[623]],[[624]],[[625]],[[626]],[[627]]]},{"type":"Polygon","properties":{"kind":"park","area":67309296,"sort_rank":24,"source":"openstreetmap.org","min_zoom":8.0,"tier":2,"id":-1842455,"osm_relation":true},"arcs":[[628],[629],[630],[631],[632]]},{"type":"MultiPolygon","properties":{"source":"openstreetmap.org","kind":"nature_reserve","tier":2,"area":838953176,"sort_rank":23,"min_zoom":6.0},"arcs":[[[633]],[[634]]]},{"type":"MultiPolygon","properties":{"source":"openstreetmap.org","kind":"park","tier":2,"area":890666340,"sort_rank":24,"min_zoom":6.0},"arcs":[[[635]],[[636]]]}]}},"type":"Topology","transform":{"translate":[21.09375,39.9097362345],"scale":[0.0003433228,0.00026127]},"arcs":[[[2078,4096],[-19,-22],[11,-114],[-59,-59],[-85,-15],[-142,70],[-55,-7],[-61,-92],[14,-70],[-108,-11],[-13,-30],[-76,-32],[-29,-53],[-79,1],[-9,40],[-111,127],[-102,8],[-74,-23],[-70,41],[-68,3],[-160,-147],[-134,-57],[-123,4],[-42,-21],[-52,54],[-101,37],[-187,-110],[-144,0]],[[2975,1073],[198,25],[80,-25],[33,-52],[-62,-27],[-31,-58],[11,-28],[48,8],[-11,-79],[27,-102],[80,42],[74,179],[56,56],[94,31],[96,-98],[-18,-106],[25,41],[46,-2],[-22,-160],[-50,-111],[41,-12],[53,-100],[59,40],[31,-54],[62,20],[90,-83],[80,-23],[19,-22],[-26,-41],[33,-22],[5,-91]],[[2078,4096],[-19,-22],[11,-114],[-46,-50]],[[2024,3910],[52,-90],[62,-8],[6,-30],[-81,-71],[-197,-97],[-10,55],[-78,-17],[110,-179],[-18,-43],[19,-43],[-30,-36],[50,-43],[67,20],[67,-25],[-44,-114],[92,-68],[22,-106],[45,-4],[36,45],[56,-65],[117,-38],[-12,-119],[-50,-34],[-1,-174],[85,-79],[1,-27],[-64,-44],[11,-55],[84,-87],[10,-120],[165,-39],[128,-118],[-29,-18],[13,-25],[139,21],[98,-38],[-35,-196],[97,-89],[83,-5],[-65,-58],[-13,-64],[97,-89],[67,5],[32,-35],[-78,-225],[-183,-113],[28,-55]],[[2975,1073],[22,-101],[-58,56],[-28,-26],[-16,-36],[39,-71],[-81,-118],[-148,-140],[-2,-50],[-81,-14],[4,-66],[-97,-49],[-37,-138],[-51,-45],[-62,3],[-14,-57],[-56,-43],[-66,8],[23,-53],[58,-8],[53,-75],[-18,-50]],[[0,3618],[144,0],[187,110],[101,-37],[52,-54],[42,21],[123,-4],[134,57],[160,147],[68,-3],[70,-41],[74,23],[102,-8],[111,-127],[9,-40],[73,-2],[124,116],[108,11],[-14,70],[61,92],[55,7],[142,-70],[98,24]],[[1712,2986],[-4,-3],[-27,-26],[-42,-17],[-64,32],[-5,64],[29,64],[-36,133],[-46,-6],[-111,74],[-324,87],[-148,-58]],[[1712,2985],[76,41],[69,81],[31,-2],[35,59]],[[1924,3165],[96,259],[-1,60],[31,14]],[[2051,3498],[100,-60]],[[2151,3437],[15,-107],[51,-32],[34,21]],[[0,3106],[0,340],[11,4],[45,-1],[10,-47],[37,-116],[3,-22],[-20,-19],[-58,-93],[-12,-31],[-16,-15]],[[0,3512],[0,369],[26,-52],[50,-184],[-13,-58],[-30,-44],[-33,-31]],[[0,3881],[26,-52],[50,-184],[-13,-58],[-30,-44],[-33,-31]],[[66,3402],[37,-116],[3,-22],[-20,-19],[-58,-93],[-12,-31],[-16,-15]],[[0,3446],[11,4],[45,-1],[10,-47]],[[941,3878],[-86,218]],[[942,3859],[-1,19]],[[943,3858],[-1,1]],[[1554,1322],[-112,-47],[-20,-19]],[[1422,1256],[20,19],[99,34],[13,12]],[[946,3836],[1,13],[-1,5],[-3,4],[3,-22]],[[946,3836],[101,-120]],[[1047,3716],[1,-2]],[[1049,3715],[-2,1]],[[1049,3715],[-1,-1]],[[1048,3714],[3,0]],[[1051,3714],[-2,1]],[[1264,3466],[-103,163],[-110,85]],[[836,158],[-8,-34]],[[829,124],[7,35]],[[3105,3362],[2,0]],[[2014,1484],[-2,-1]],[[2013,1477],[1,6]],[[2014,1483],[4,-4]],[[2018,1479],[-3,4],[-1,0]],[[2128,1644],[5,-22]],[[2134,1624],[-4,33]],[[2088,1696],[20,18]],[[3356,2316],[-35,-12]],[[3321,2304],[-3,-1],[-4,-5],[-3,-5],[-3,-12],[0,-2],[0,-7],[5,-12]],[[3314,2260],[0,38],[4,5],[3,1]],[[3321,2304],[22,10],[14,3]],[[463,2306],[3,-17],[2,-2],[3,-3],[-8,22]],[[800,309],[1,-22]],[[803,287],[-2,22]],[[1381,3333],[6,-6]],[[1387,3327],[-5,6]],[[1387,3327],[33,-27]],[[1497,3243],[-7,-16]],[[1497,3241],[-7,-14]],[[1613,2941],[-27,138],[-93,69],[-3,79]],[[1613,2941],[5,-7],[7,-6],[18,-10],[-30,23]],[[1044,683],[-28,-66],[-25,-32]],[[991,585],[-1,-1],[-4,-3]],[[986,581],[-6,-5],[-4,-3]],[[976,573],[-28,-19]],[[948,554],[-21,-14],[-17,-70],[-18,-18]],[[892,452],[-10,-11],[-11,-3]],[[871,438],[-3,-1],[-2,-1],[-9,-7],[-6,-8],[-51,-112]],[[801,287],[4,-12]],[[801,309],[56,120],[10,7],[3,1],[1,1]],[[871,438],[21,14]],[[892,452],[14,9],[4,9],[4,14],[34,70]],[[948,554],[2,4],[26,15]],[[976,573],[4,3],[6,5]],[[986,581],[5,4]],[[991,585],[9,8],[16,24],[12,26],[16,39]],[[806,275],[-3,12]],[[1106,841],[-32,-39],[-19,-90]],[[1055,712],[51,129]],[[1192,979],[-26,-75],[-59,-62]],[[1107,842],[60,62],[26,75]],[[1249,1092],[10,-42],[-39,-33]],[[1220,1016],[40,34],[-11,42]],[[1365,1222],[-92,-57]],[[1274,1164],[138,81]],[[1881,1564],[-134,-49]],[[2108,1714],[21,18],[67,-5],[103,34],[134,-19],[243,43],[83,-28],[61,-7],[1,0]],[[2821,1750],[44,8]],[[2865,1758],[3,0]],[[2867,1759],[-2,-1]],[[2865,1758],[-27,-12],[-17,4]],[[2821,1750],[-1,0],[-37,10],[-1,0],[-20,-2],[-53,28],[-33,-1],[-243,-42],[-54,10],[-79,9],[-39,-9],[-11,-6]],[[2972,1810],[-55,-11]],[[2917,1798],[28,4],[27,7]],[[3092,1843],[-43,-25]],[[3049,1818],[44,24]],[[3104,1856],[-7,-9]],[[3097,1846],[60,71],[9,106],[26,9],[108,104],[14,124]],[[3313,2260],[-14,-123],[-107,-104],[-9,2],[-13,-5],[-5,-7],[-8,-105],[-51,-59]],[[3602,2442],[-58,-36],[-160,-80],[-2,-1],[-7,-3]],[[3375,2322],[-19,-6]],[[3357,2317],[18,5]],[[3375,2322],[7,3],[2,0],[160,81],[59,36]],[[4096,2541],[-117,59],[-153,-33],[-1,-1],[-14,-8]],[[3811,2558],[-61,-36],[-68,-35]],[[3682,2487],[-16,-8],[-2,-1],[-57,-33]],[[3608,2445],[56,33],[2,1],[16,8]],[[3682,2487],[129,71]],[[3811,2558],[14,8],[1,1],[153,32],[117,-59]],[[1180,1352],[4,-57]],[[1263,1256],[-76,35],[-6,62]],[[3120,3366],[-29,-27],[-159,-8],[-76,37],[-32,-17]],[[3107,3362],[13,4]],[[3183,3402],[-63,-36]],[[3183,3402],[13,7]],[[3285,3442],[-89,-33]],[[3550,3327],[-69,31]],[[3550,3327],[16,-2]],[[3695,3323],[-129,2]],[[3695,3323],[9,2]],[[3704,3325],[-9,-2]],[[3774,3341],[-70,-16]],[[3774,3341],[9,3]],[[3809,3347],[-26,-3]],[[3886,3299],[-30,28]],[[3879,3305],[7,-6]],[[3886,3299],[112,-33]],[[4096,3187],[-44,23]],[[936,1513],[64,-61],[84,-10],[50,77],[54,-53],[23,-79],[-22,-78],[124,-72]],[[250,2386],[4,-6]],[[254,2380],[0,-15]],[[254,2365],[1,11],[-1,4]],[[285,2629],[0,-49]],[[1879,2163],[-120,105]],[[1994,1888],[-113,273]],[[2000,1877],[-6,11]],[[2005,1870],[-5,7]],[[2005,1870],[2,-4]],[[2007,1866],[-2,4]],[[285,2629],[9,105],[-46,54],[-10,140]],[[600,2172],[2,1]],[[602,2173],[-2,-1]],[[602,2173],[96,-97],[24,-96]],[[722,1980],[5,-10]],[[727,1970],[117,-94]],[[844,1876],[7,-4]],[[851,1872],[76,-238],[-27,-67],[36,-54]],[[585,2184],[3,-1]],[[588,2183],[-2,0]],[[591,2180],[-3,3]],[[600,2172],[-9,8]],[[591,2180],[8,-8]],[[1015,685],[0,-2]],[[1016,684],[0,1]],[[2125,1655],[-1,0]],[[3950,2693],[146,-230]],[[1197,288],[0,8]],[[651,3354],[39,25],[22,-42]],[[654,3339],[9,-2]],[[757,3352],[129,-18]],[[886,3334],[25,9],[-1,0],[-24,-9]],[[2061,1702],[-7,-31]],[[2055,1672],[7,30]],[[2209,1519]],[[2209,1518],[0,1]],[[1264,3466],[114,-130]],[[1378,3336],[3,-3]],[[1382,3333],[-4,3]],[[2050,1490],[-1,0]],[[2049,1490],[1,-1]],[[2050,1489],[0,1]],[[2053,1491],[-3,-1]],[[2053,1491],[2,2]],[[2055,1494],[-2,-3]],[[2056,1494]],[[2388,1742],[211,23]],[[2131,1662],[-3,-18]],[[2130,1657],[0,4]],[[2133,1666],[101,69]],[[2133,1622],[4,-19]],[[2134,1621],[0,3]],[[2822,1776],[54,46]],[[2881,1870],[48,26]],[[3006,1850],[-5,55],[131,237]],[[987,598],[-1,58]],[[987,598],[2,-5],[1,-2],[0,-1]],[[990,590],[-3,8]],[[1004,591],[-14,-1]],[[1004,591],[8,5]],[[1197,296],[-46,90],[-24,157],[-29,-6],[-4,62],[-82,-3]],[[1390,0],[20,125],[-213,163]],[[3097,1847],[-5,-4]],[[3093,1842],[4,4]],[[1990,1445],[-44,-10]],[[1990,1445],[3,-2]],[[1993,1443],[-3,2]],[[2149,1479],[22,12]],[[2208,1518],[1,0]],[[1764,2274],[-4,-10]],[[1761,2264],[3,10]],[[1815,2460],[4,-98],[-55,-88]],[[2076,1658],[4,-5]],[[806,272],[4,-12]],[[810,261],[-3,11]],[[949,3348],[-16,-5]],[[933,3342],[16,6]],[[949,3348],[63,47]],[[1012,3395],[2,1]],[[1014,3397],[-2,-2]],[[1015,3398],[-1,-1]],[[1015,3397],[0,1]],[[1017,3399],[-2,-1]],[[1018,3400],[-1,-1]],[[1017,3399],[1,0]],[[1020,3401],[-2,-1]],[[1019,3400],[1,1]],[[1020,3401],[3,3]],[[1023,3404],[12,1]],[[1035,3405],[36,-10],[117,73],[76,-2]],[[3704,3325],[1,0]],[[3978,3243],[20,21]],[[3997,3265],[1,-1]],[[3998,3264],[0,2]],[[306,3197],[-72,-182],[4,-87]],[[2068,1691],[1,-1]],[[2069,1690],[0,1]],[[2071,1680],[0,-1]],[[2072,1679],[-1,1]],[[823,115],[-8,-11]],[[817,104],[7,10]],[[2874,1765],[-7,-6]],[[2868,1758],[7,7]],[[3437,2533],[-1,-1]],[[1023,3385],[65,-79],[318,-7]],[[1414,3300],[-8,-1]],[[1414,3300],[3,0]],[[1417,3300],[3,0]],[[573,2186],[-1,0]],[[804,90],[-8,-11]],[[797,79],[7,11]],[[1892,1565],[29,3],[1,0]],[[1922,1568],[63,41]],[[1985,1609],[5,3],[98,84]],[[2107,1714],[-68,-45],[-49,-57],[-5,-3]],[[1985,1609],[-53,-40],[-10,-1]],[[1922,1568],[-1,0],[-29,-3]],[[584,2185],[-2,0]],[[2541,1253],[28,-35]],[[986,656],[30,27]],[[1015,683],[1,0]],[[1016,683],[0,1]],[[1194,986],[-2,-7]],[[1193,979],[1,7]],[[3400,2493],[18,18]],[[3418,2511],[107,85],[82,9],[341,167]],[[3436,2532],[-18,-21]],[[1055,712],[-11,-29]],[[1044,682],[11,30]],[[1881,2161],[-2,2]],[[3309,2236],[-2,-2]],[[3308,2234],[1,0]],[[2171,1491],[37,27]],[[2054,1671]],[[2062,1702],[-1,1]],[[3172,2530],[-38,75],[-61,39],[-19,63]],[[3055,2699],[5,-32],[13,-24],[61,-38],[38,-76]],[[911,3343],[20,0]],[[828,194],[7,-26]],[[836,168],[-7,27]],[[1120,2688],[1,1]],[[1760,2264],[-2,-7]],[[2013,1477]],[[1995,1444],[18,33]],[[2018,1479]],[[2018,1479]],[[2018,1479],[28,11]],[[3607,2445],[-5,-3]],[[3603,2442],[5,3]],[[787,62],[-10,-12]],[[777,50],[10,12]],[[167,1126],[85,-41]],[[283,1110],[-24,-19]],[[328,1145],[-19,-15]],[[2074,1668],[1,-8]],[[2075,1663],[-1,4]],[[2080,1654],[-4,4]],[[2081,1653],[6,2]],[[2086,1655],[-5,-2]],[[48,2869],[111,45]],[[2721,3418],[-100,5]],[[2721,3418],[3,-4]],[[2724,3414],[-3,4]],[[2054,1671],[1,-1]],[[2055,1671]],[[2063,1666],[0,-1],[1,1],[-1,1],[0,-1]],[[3949,2770],[-1,2]],[[2133,1622],[3,-1]],[[2136,1621],[-2,3]],[[2136,1621],[39,-23],[34,-79]],[[2209,1519]],[[2209,1519]],[[805,275],[1,-3]],[[807,272],[-1,3]],[[810,260],[0,-1]],[[811,259],[-1,2]],[[3876,3307],[3,-2]],[[2054,1671]],[[2061,1703],[1,-1]],[[1220,1017],[-8,-6]],[[1213,1010],[7,6]],[[3241,2387],[23,-26]],[[3271,2301],[-1,9]],[[2591,3428],[30,-5]],[[2013,1478],[1,0]],[[2015,1483]],[[1552,1326],[-108,-49]],[[1008,596],[1,-2]],[[4069,2805]],[[1019,3393]],[[2234,1735],[154,7]],[[2599,1765],[178,-9],[45,20]],[[2876,1822],[-16,15],[21,33]],[[2929,1896],[18,-38],[59,-8]],[[3132,2142],[55,94]],[[3276,2260],[31,-26]],[[3309,2234],[-12,26]],[[3307,2234]],[[3307,2234],[1,0]],[[3265,2293],[6,8]],[[3265,2293],[2,-1]],[[3267,2292],[-2,1]],[[3393,3415],[-108,27]],[[3393,3415],[14,-9]],[[3481,3358],[-74,48]],[[3978,3243],[1,0]],[[3979,3243],[-1,1]],[[4052,3210],[-73,33]],[[1993,1443]],[[2012,1483],[1,-6]],[[1814,2747],[3,-1]],[[1817,2737],[5,7]],[[1821,2743],[-4,1]],[[3997,3266],[0,-1]],[[2502,110]],[[2061,1728],[7,-37]],[[2069,1691],[-8,37]],[[2069,1690],[2,-10]],[[2071,1680],[-2,10]],[[2071,1679],[3,-11]],[[2074,1667],[-2,12]],[[3262,2399],[-21,-12]],[[3242,2386],[20,12]],[[2055,1493],[16,-1]],[[2071,1492],[-15,2]],[[2071,1492],[78,-13]],[[2013,1479],[1,-2]],[[2076,1660],[-1,3]],[[3267,2401],[-4,-2]],[[3263,2399],[4,2]],[[3267,2401],[6,4]],[[3326,2436],[-53,-31]],[[3326,2436],[74,57]],[[3049,1818],[-77,-8]],[[2972,1809],[77,9]],[[2007,1866],[0,-5]],[[2007,1861],[0,5]],[[2009,1845],[-2,16]],[[777,50],[-16,-50]],[[762,0],[15,50]],[[796,79],[-9,-17]],[[787,62],[10,17]],[[815,104],[-11,-14]],[[804,90],[13,14]],[[810,259],[18,-65]],[[829,195],[-18,64]],[[828,124],[-5,-9]],[[824,114],[5,10]],[[835,168],[1,-10]],[[836,159],[0,9]],[[1107,842],[-1,-1]],[[1106,841],[1,1]],[[1212,1011],[-18,-25]],[[1194,986],[19,24]],[[1266,1158],[-3,-3],[-17,-48],[3,-15]],[[1249,1092],[17,66]],[[1422,1256],[-57,-34]],[[1412,1245],[10,11]],[[1747,1515],[-193,-193]],[[1554,1321],[48,43],[149,154],[141,47]],[[1892,1565],[-11,-1]],[[2250,1747],[-143,-33]],[[3949,2771],[0,-2]],[[2730,3371],[29,-72],[69,36]],[[2824,3351],[1,-7],[3,-2],[0,-7]],[[2828,3335],[0,7],[-4,9]],[[0,2814],[48,55]],[[159,2914],[78,14]],[[238,2928],[-1,0]],[[237,2928],[1,0]],[[933,3343],[0,-1]],[[1014,3397]],[[1014,3396],[1,1]],[[1018,3400]],[[1018,3399],[1,1]],[[3948,2772],[1,-1]],[[3949,2770],[1,-77]],[[3263,2399],[-1,0]],[[3262,2398],[1,1]],[[2075,1660],[1,-2]],[[2076,1658],[0,2]],[[2081,1653],[-1,1]],[[2080,1653],[1,0]],[[1328,1218],[-4,-17]],[[3813,3347],[38,-16]],[[3839,3341],[-26,7]],[[470,2336],[-7,-30]],[[463,2306],[7,30]],[[470,2336],[19,9]],[[2591,3428],[-164,-88],[-147,21],[-25,-20]],[[947,3835],[36,-16],[6,-49],[-2,-152],[0,-1],[1,-17]],[[988,3600],[1,-19]],[[989,3581],[0,-12],[30,-176]],[[1019,3393],[-3,46],[1,1],[-4,80],[-21,41],[-2,7],[-1,13]],[[989,3581],[-1,9],[0,10]],[[988,3600],[0,16],[0,2],[0,2],[0,2],[1,148],[-5,50],[-1,1],[-9,10],[-23,5],[-4,0]],[[3140,28],[38,-18],[1,-10]],[[144,2409],[-73,62],[-71,15]],[[0,2483],[70,-12],[24,-23],[51,-40]],[[222,2374],[41,-55]],[[264,2319],[-9,19],[-27,35],[-5,2]],[[3851,3331],[-12,10]],[[1497,3243],[-77,57]],[[2209,1518],[63,-86],[171,-124]],[[2443,1308],[77,13],[21,-68]],[[2513,699],[-47,102]],[[2467,839],[35,54]],[[2569,1218],[53,-172],[-120,-95],[10,-65]],[[2554,618],[-7,14]],[[2603,595],[-38,16]],[[2671,592],[167,5],[37,-90],[93,-86],[42,-163]],[[3021,248],[124,-126],[-5,-94]],[[2055,1671],[0,1]],[[3813,3348],[0,-1]],[[306,3197],[45,125],[54,50],[82,-28],[22,-46],[16,37],[52,27],[77,-23]],[[663,3337],[-12,17]],[[712,3337],[45,15]],[[990,594],[-1,0]],[[989,593],[1,1]],[[991,594],[-1,0]],[[1010,594],[-1,2]],[[2889,1779],[-10,-9]],[[2880,1770],[10,8]],[[2917,1799],[-8,-2]],[[2910,1796],[7,2]],[[3851,3331],[5,-4]],[[2055,1670],[8,-4]],[[2063,1667],[-8,4]],[[2063,1665],[61,-11]],[[2124,1655],[-60,11]],[[1273,1165],[-7,-7]],[[1266,1158],[8,6]],[[2014,1484],[0,-1]],[[2014,1483]],[[2014,1483]],[[2014,1483],[0,1]],[[1812,2844],[-7,-1]],[[1808,2842],[11,-11]],[[2055,1494]],[[285,2580],[-2,-126],[-25,-4],[-8,-64]],[[3948,2772],[121,33]],[[4069,2805],[27,5]],[[2443,1308]],[[2255,3341],[-31,-182],[-84,-28],[-88,-162],[-69,-18],[-35,-83],[-68,-31],[-72,5]],[[2909,1797],[-20,-18]],[[2890,1778],[20,18]],[[1019,687],[-4,-2]],[[1016,685],[3,2]],[[1019,687],[38,35],[3,73],[50,38],[-25,52],[77,81],[-21,60],[53,26],[55,-14],[-24,99],[88,99]],[[424,2217],[-1,7]],[[423,2223],[1,-6]],[[2130,1661],[2,4]],[[2132,1665],[-1,-3]],[[2132,1665],[1,1]],[[3174,2261],[69,27],[33,-28]],[[3179,2252],[-5,9]],[[3187,2236],[-8,16]],[[3267,2292],[26,-25]],[[3293,2267],[-3,5],[-23,20]],[[3297,2260],[-4,7]],[[1019,3400],[-1,0]],[[1992,1443],[-1,1]],[[1994,1443],[-1,0]],[[1808,2842],[-3,1]],[[2110,1533],[-1,-1]],[[2109,1532],[1,1]],[[2110,1533],[4,2]],[[2114,1535],[20,86]],[[2137,1603],[-23,-68]],[[1444,1277],[-131,-40]],[[1946,1435],[-178,70],[-87,-18],[-129,-161]],[[3270,2310],[-6,51]],[[2011,1849],[-5,2]],[[932,3343]],[[933,3342],[0,1]],[[1014,3397],[0,-1]],[[1015,3397],[-1,0]],[[1018,3400],[0,-1]],[[457,2191],[68,-21],[145,-178],[182,-115],[83,-261],[22,-41],[44,-75],[179,-148]],[[1181,1353],[-1,3],[-6,16],[-2,4],[-170,125],[-44,74],[-10,21],[-12,20],[-3,22],[-29,105],[-39,116],[-13,18],[-35,35],[-95,56],[-52,24],[-93,126],[-24,27],[-11,11],[-17,14],[-17,11],[-37,10],[-14,1]],[[1184,1295],[144,-77]],[[1329,1218],[-66,38]],[[1805,2843],[-162,75]],[[1759,2257],[2,7]],[[2061,1728],[0,1],[-17,62]],[[2044,1791],[-11,40],[-1,2]],[[2034,1829],[10,-38]],[[2044,1791],[16,-62],[1,-1]],[[2067,1504],[-12,-10]],[[2056,1494],[11,10]],[[2067,1504]],[[2067,1504]],[[2071,1507],[-4,-3]],[[2067,1504]],[[2067,1504],[5,3]],[[2072,1508],[-1,-1]],[[2071,1507],[1,0]],[[2109,1532],[-37,-24]],[[2072,1507],[0,1]],[[2072,1507]],[[2072,1507],[37,25]],[[2055,1671],[-1,0]],[[2055,1670],[0,1]],[[1758,2257],[-16,-88],[38,-88],[94,-58],[54,-109],[106,-85]],[[2006,1851],[-78,63],[-53,109],[-94,58],[-38,87],[16,89]],[[2032,1833],[-13,12],[-8,4]],[[2879,1770],[-5,-5]],[[2875,1765],[5,5]],[[2046,1490],[2,0]],[[2049,1490],[-1,0]],[[2048,1490],[1,-1]],[[2055,1493],[0,1]],[[2724,3414],[2,-2]],[[2726,3412],[-2,2]],[[2730,3381],[-4,31]],[[2730,3372],[0,9]],[[2730,3372],[0,-1]],[[2466,801],[1,38]],[[2502,893],[10,-7]],[[2513,699],[34,-67]],[[2565,611],[-11,7]],[[2603,595],[68,-3]],[[3010,258],[11,-10]],[[263,2319],[1,-1],[31,-14],[54,-14],[74,-67]],[[423,2224],[-74,66],[-85,29]],[[424,2217],[-1,-7],[2,-1]],[[425,2209],[31,-17]],[[456,2192],[1,-1]],[[457,2192],[-1,0]],[[456,2192],[-29,-1],[-2,18]],[[425,2209],[-1,6],[0,2]],[[3106,1859],[-2,-3]],[[223,2375],[-79,34]],[[145,2408],[77,-34]],[[0,1139],[84,-28],[14,24],[81,-65],[16,9],[-29,7],[1,40]],[[252,1085],[7,6]],[[309,1130],[-26,-20]],[[328,1145],[127,60],[44,73],[84,51],[32,-9],[64,56],[96,155],[50,14],[110,-27]],[[931,3343]],[[1812,2844],[3,-384]],[[572,2186],[-101,98]],[[580,2184],[-7,2]],[[580,2184],[1,0]],[[582,2185],[-2,-1]],[[4096,4096],[0,-4096],[-4096,0],[0,4096],[4096,0]],[[0,759],[174,-77],[148,1],[238,-105],[171,-109],[-63,-226],[145,30],[-61,-273],[-752,0],[0,759]],[[0,4096],[741,0],[21,-16],[-55,-107],[-39,32],[-27,-27],[-100,-20],[57,-68],[-14,-50],[29,-32],[-65,-35],[74,-41],[14,-69],[-152,-26],[-52,54],[-102,37],[-46,64],[19,55],[-59,-8],[4,20],[-63,55],[-24,84],[-62,-7],[-9,63],[-28,13],[-62,-46],[0,75]],[[2465,793],[2,58],[39,21],[-4,22],[13,-10],[12,60],[179,-88],[88,-127],[-85,-86],[-7,-48],[-82,-7],[-65,27],[-90,178]],[[2434,2615],[76,65],[97,-72],[23,37],[-23,34],[11,51],[-27,29],[-71,-10],[-21,104],[58,-21],[-1,38],[24,-21],[40,22],[17,-22],[97,-1],[57,-80],[-20,-74],[64,11],[-21,-50],[22,-2],[11,-40],[-25,10],[-65,-44],[-48,-85],[-27,41],[-20,-46],[-53,29],[-78,-37],[-67,53],[-30,81]],[[0,2819],[0,273],[3,1],[64,115],[99,-93],[29,3],[-84,-74],[64,-102],[-9,-26],[-142,-56],[-24,-41]],[[582,3360],[35,45],[1,49],[77,77],[127,47],[47,-2],[4,-75],[31,-25],[89,35],[-62,-168],[3,-68],[-12,20],[-169,-58],[-19,12],[54,48],[62,21],[-95,35],[-45,-17],[-20,41],[-46,-15],[20,-26],[-82,24]],[[4096,1324],[-114,0],[-2,57],[99,28],[17,34],[0,-119]],[[2267,1665],[-5,-57],[-120,-137],[-134,-19],[-32,-43],[-97,85],[32,171],[32,0],[58,82],[266,-82]],[[3400,2473],[92,43],[37,-1],[12,-42],[-109,-86],[-14,-37],[-51,-5],[-32,-85],[-130,0],[-32,-43],[-97,43],[-33,255],[125,2],[151,93],[81,-10],[0,-127]],[[3860,3325],[-47,20],[7,106],[49,32],[48,-32],[-5,-83],[-52,-43]],[[2752,3366],[-93,22],[-69,63],[54,77],[69,30],[169,-22],[-37,-124],[-93,-46]],[[479,2534],[8,-19],[65,43],[18,-35],[47,-8],[6,-46],[-71,-39],[-8,-64],[40,-191],[-161,42],[0,170],[-32,8],[-61,-42],[-4,77],[40,88],[41,35],[48,5],[24,-24]],[[3199,2323],[21,69],[-4,54],[22,-49],[24,6],[4,-90],[38,-23],[-75,4],[-30,29]],[[23,0],[-23,0],[0,49],[8,6],[23,-26],[-8,-29]],[[4096,22],[-28,-4],[-7,12],[35,26],[0,-34]],[[747,0],[-125,0],[54,63],[70,-49],[1,-14]],[[462,0],[-308,0],[-45,63],[136,-34],[198,84],[58,-96],[-39,-17]],[[2123,97],[12,37],[100,39],[51,-53],[-110,-60],[-36,4],[-17,33]],[[1408,1261],[145,65],[16,-69],[91,-21],[34,-50],[49,-147],[-38,-23],[-89,77],[46,39],[-22,47],[-232,82]],[[0,1261],[0,181],[178,-153],[15,12],[19,-42],[84,-34],[-2,-41],[40,-34],[-86,-68],[-62,21],[-73,84],[21,65],[1,0],[-52,33],[-81,-28],[-2,4]],[[3164,1355],[179,113],[36,-5],[17,-41],[-168,-103],[-64,36]],[[2860,1269],[61,70],[85,31],[26,-57],[69,-19],[25,-55],[-154,-79],[-93,64],[-19,45]],[[3300,641],[45,41],[71,-8],[47,-45],[4,-59],[59,-40],[-66,-28],[-26,25],[1,-33],[-30,37],[-18,-41],[-43,20],[-29,34],[11,64],[-26,33]],[[3666,604],[279,109],[15,-3],[-1,2],[120,40],[17,-79],[-111,-39],[3,-21],[-151,-149],[-43,76],[-52,-43],[-76,107]],[[1885,775],[13,89],[48,-15],[19,-39],[83,19],[-22,-27],[48,-77],[-53,-16],[11,-146],[-30,-15],[-36,155],[-81,72]],[[1405,926],[58,10],[55,80],[44,-60],[-12,-73],[216,-104],[-55,-138],[-74,21],[-22,56],[-69,17],[1,65],[-105,55],[-37,71]],[[3803,992],[148,95],[26,-41],[-35,-26],[21,-41],[73,77],[34,-74],[-105,-48],[-162,58]],[[2801,731],[196,238],[172,-121],[-126,-22],[-27,-47],[-89,-4],[-92,-56],[-34,12]],[[3394,824],[90,168],[84,53],[104,-98],[-59,-227],[-145,-51],[-43,69],[12,78],[-43,8]],[[2880,982],[50,122],[136,-23],[246,22],[194,116],[8,-34],[31,5],[-32,-88],[-81,12],[-144,-96],[-135,-6],[-94,-58],[-62,15],[-54,-50],[-63,63]],[[3857,1898],[138,52],[82,-62],[-32,-39],[-117,-24],[-71,73]],[[1072,1924],[44,170],[71,-48],[36,17],[47,-101],[-28,-18],[-44,14],[-19,54],[-38,-61],[-57,-44],[-12,17]],[[3430,2026],[10,43],[68,65],[20,-64],[47,0],[23,-47],[-14,-35],[-44,-4],[0,-59],[-98,20],[19,27],[-31,54]],[[1293,2093],[68,10],[32,-20],[26,47],[75,-28],[55,-76],[-6,-38],[-116,-22],[-134,127]],[[2683,2149],[50,115],[89,9],[49,-38],[69,18],[-58,-58],[-107,-44],[-61,-21],[-31,19]],[[3587,1825],[62,82],[44,-11],[41,-63],[-33,-33],[-114,25]],[[2985,1857],[21,-9],[-7,54],[131,238],[38,26],[72,-29],[-16,-47],[-69,-32],[-14,-142],[-94,-97],[-37,3],[-25,35]],[[2164,2738],[32,58],[76,7],[23,-21],[0,-51],[-45,-38],[-86,45]],[[2405,3107],[3,88],[43,-13],[38,50],[125,-110],[-14,-40],[-128,-46],[-67,71]],[[2725,3540],[93,27],[44,-31],[-12,-57],[-93,-32],[-32,93]],[[2349,3470],[38,31],[69,-11],[58,-51],[82,-7],[-79,-39],[-97,0],[-71,77]],[[3409,3962],[10,40],[14,-34],[95,-40],[67,-71],[-93,-73],[-68,84],[-25,94]],[[1725,3719],[155,186],[48,-19],[89,20],[-5,-83],[50,-65],[-61,-31],[21,-27],[-22,-23],[-194,-61],[-81,103]],[[2030,3931],[40,29],[3,129],[68,-78],[100,10],[77,-35],[-51,-58],[24,-3],[-18,-28],[-42,-3],[-25,-129],[-129,62],[-47,104]],[[2827,2393],[23,33],[115,-29],[46,49],[77,-9],[-2,-76],[55,-91],[-118,-44],[-196,167]],[[1413,2290],[145,182],[196,43],[-41,-164],[-53,-51],[-230,-42],[-17,32]],[[3939,2416],[118,47],[26,-18],[5,-47],[-57,-54],[-75,29],[-17,43]],[[286,2664],[9,70],[52,-15],[24,50],[28,-21],[164,26],[-1,-82],[-129,-25],[20,-49],[-74,-115],[-85,72],[-8,89]],[[1182,2520],[28,240],[62,41],[9,-26],[63,30],[32,-91],[42,17],[67,-58],[11,-26],[-184,-132],[-37,12],[29,40],[-30,8],[-92,-55]],[[1856,1539],[166,58],[33,75],[72,-18],[18,35],[89,47],[52,-94],[-22,-82],[-108,-80],[-98,15],[-131,-53],[-63,27],[-8,70]],[[1190,1488],[19,160],[14,-15],[40,98],[56,-7],[38,-66],[-45,-107],[-115,-93],[-7,30]],[[0,1624],[0,119],[9,16],[92,42],[31,46],[47,21],[32,-35],[-12,-38],[24,-22],[-96,-95],[18,18],[53,-6],[45,-53],[-13,-58],[-98,30],[20,-44],[-44,-38],[-108,14],[0,78],[72,7],[3,2],[-75,-4]],[[3193,1604],[44,60],[119,64],[59,-38],[-12,-33],[-135,-59],[-29,-39],[-46,45]],[[1533,1702],[69,74],[39,-18],[23,-68],[-19,-154],[-30,31],[-35,-13],[24,34],[-33,-6],[-38,120]],[[2740,1688],[41,-31],[9,24],[40,-18],[-3,76],[65,5],[-29,35],[-20,-7],[-24,5],[57,41],[0,49],[53,29],[-22,-48],[12,-60],[41,-12],[49,-64],[73,7],[-73,-105],[-62,-5],[-31,-69],[-52,2],[-30,61],[-75,17],[-19,68]],[[4096,154],[0,-86],[-30,5],[-35,68],[-15,-10],[-32,-76],[-62,29],[-20,45],[34,32],[-14,31],[55,93],[-101,-164],[-66,-9],[-61,-74],[-69,-1],[-32,-37],[-1,0],[-44,52],[-84,-34],[-80,27],[-28,43],[129,-16],[54,31],[153,6],[18,72],[26,-16],[29,71],[235,161],[25,-20],[-24,-28],[11,8],[23,-64],[-12,-121],[18,-18]],[[3983,293],[-1,0],[-1,-1],[2,1]],[[2369,155],[26,45],[117,5],[34,-76],[142,17],[89,-95],[-160,-11],[-67,52],[-181,63]],[[1855,66],[12,135],[82,50],[14,-30],[-38,-31],[17,-39],[-37,-86],[-28,-35],[-22,36]],[[1190,293],[109,37],[33,37],[11,-78],[29,-23],[-54,-78],[-128,105]],[[1937,374],[76,91],[68,-7],[21,-56],[-58,-103],[-29,18],[-33,-22],[-45,79]],[[2974,567],[146,25],[48,-33],[-24,-103],[34,-116],[-4,-79],[-47,-6],[-34,33],[-26,-65],[-56,30],[-33,133],[32,162],[-36,19]],[[3353,3984],[5,33],[64,-9],[42,53],[39,-5],[101,-46],[17,-40],[24,27],[43,-73],[-179,-132],[-21,12],[27,13],[-55,2],[17,31],[-21,-3],[85,52],[-19,13],[-76,-38],[29,39],[-40,-23],[-20,29],[-41,-28],[34,-9],[-35,-8],[-20,110]],[[3555,3894],[35,13],[50,49],[-61,-15],[-24,-47]],[[3590,3888],[36,-6],[5,32],[-32,-15],[-9,-11]],[[3431,3935],[14,-11],[35,11],[-22,19],[-27,-19]],[[3507,3859],[41,-22],[11,6],[-15,23],[-37,-7]],[[3364,666],[7,100],[113,124],[5,123],[81,30],[75,-79],[6,28],[-52,35],[175,-18],[36,-36],[119,-31],[167,-180],[-29,-16],[-5,-90],[34,-3],[0,-241],[-178,-105],[-36,16],[-111,-18],[6,-38],[-31,-25],[-106,10],[-17,53],[-88,9],[-24,15],[11,25],[-40,5],[-5,92],[-30,47],[-33,-3],[-50,171]],[[136,2567],[104,-52],[53,76],[-7,20],[3,15],[14,-45],[-9,-6],[49,-56],[105,-38],[51,-55],[32,55],[89,22],[76,-72],[-48,-95],[19,-104],[-26,-33],[-69,-13],[-109,120],[-3,-30],[-44,0],[-160,112],[-73,-30],[-41,54],[-6,155]],[[0,3031],[0,487],[77,85],[42,-58],[42,15],[36,-73],[96,-23],[15,-27],[-39,-79],[-7,-156],[-27,-58],[-65,-42],[-68,9],[-50,-82],[-52,2]],[[310,0],[-310,0],[0,105],[15,11],[110,16],[114,-36],[66,-76],[5,-20]]]}