{"objects":{"water":{"type":"GeometryCollection","geometries":[{"type":"MultiPolygon","properties":{"source":"naturalearthdata.com","kind":"ocean","area":1576712559132672,"sort_rank":200,"min_zoom":0.0,"id":1},"arcs":[[[6]],[[7]]]},{"type":"MultiLineString","properties":{"source":"naturalearthdata.com","kind":"ocean","sort_rank":205,"boundary":true,"min_zoom":0.0,"id":19},"arcs":[[8],[9]]}]},"buildings":{"type":"GeometryCollection","geometries":[]},"places":{"type":"GeometryCollection","geometries":[{"type":"Point","properties":{"name:kg":"Gelesi","name:ka":"\u10e1\u10d0\u10d1\u10d4\u10e0\u10eb\u10dc\u10d4\u10d7\u10d8","name:ko":"\uadf8\ub9ac\uc2a4","name:cv":"\u0413\u0440\u0435\u0446\u0438","name:cu":"\u0413\u0440\u044c\u0446\u0438","name:kl":"Gr\u00e6kenlandi","name:cs":"\u0158ecko","name:ki":"Ugiriki","name:kw":"Pow Grek","name:kv":"\u0413\u0440\u0435\u0446\u0438\u044f","name:ku":"Yewnanistan","name:ti":"\u130d\u122a\u12ad","name:ks":"\u06af\u0631\u06cc\u0656\u0633","name:to":"Kalisi","name:tl":"Gresya","name:ce":"\u0414\u0436\u0435\u043b\u0442\u0438\u043c\u043e\u0445\u043a","name:ta":"\u0b95\u0bbf\u0bb0\u0bc7\u0b95\u0bcd\u0b95 \u0ba8\u0bbe\u0b9f\u0bc1","name:tg":"\u042e\u043d\u043e\u043d","name:ca":"Gr\u00e8cia","name:te":"\u0c17\u0c4d\u0c30\u0c40\u0c38\u0c4d","name:cy":"Gwlad Groeg","name:hr":"Gr\u010dka","name:da":"Gr\u00e6kenland","name:de":"Griechenland","name:dz":"\u0f42\u0f72\u0f62\u0f72\u0f66\u0f72\u0f0b","source":"openstreetmap.org","name:kn":"\u0c97\u0ccd\u0cb0\u0cc0\u0cb8\u0ccd","name:dv":"\u0794\u07ab\u0782\u07a7\u0782\u07b0","name:km":"\u1780\u17d2\u179a\u17b7\u1780","name:lv":"Grie\u0137ija","name:lt":"Graikija","name:uz":"Yunoniston","name:kk":"\u0413\u0440\u0435\u043a\u0438\u044f","name:ur":"\u06cc\u0648\u0646\u0627\u0646","name:lb":"Griicheland","name:la":"Graecia","name:lg":"Buyonaani","name:uk":"\u0413\u0440\u0435\u0446\u0456\u044f","name:ug":"Gr\u00e9tsiye","name:li":"Griekeland","name:ln":"Gresi","name:lo":"\u0e81\u0eb4\u0ebc\u0e81","name:eo":"Grekujo","name:en":"Greece","name":"\u0395\u03bb\u03bb\u03ac\u03b4\u03b1","name:tk":"Gresi\u00fda","name:ee":"Greece","name:th":"\u0e1b\u0e23\u0e30\u0e40\u0e17\u0e28\u0e01\u0e23\u0e35\u0e0b","name:eu":"Grezia","name:et":"Kreeka","name:es":"Grecia","name:ia":"Grecia","name:rm":"Grezia","name:rn":"Ubugereki","name:az":"Yunan\u0131stan","name:ie":"Grecia","name:id":"Yunani","name:ar":"\u0627\u0644\u064a\u0648\u0646\u0627\u0646","name:io":"Grekia","name:ak":"Greekman","name:am":"\u130d\u122a\u12ad","name:it":"Grecia","name:an":"Grezia","name:ru":"\u0413\u0440\u0435\u0446\u0438\u044f","name:rw":"Ubugereki","name:af":"Griekeland","name:zu":"IGrisi","name:ky":"\u0413\u0440\u0435\u0446\u0438\u044f","name:zh-yue":"\u5e0c\u81d8","name:zh":"\u5e0c\u814a","name:so":"Giriig","name:sn":"Greece","name:sl":"Gr\u010dija","name:sk":"Gr\u00e9cko","name:ja":"\u30ae\u30ea\u30b7\u30e3","name:si":"\u0d9c\u0dca\u200d\u0dbb\u0dd3\u0dc3\u0dd2\u0dba","name:sh":"Gr\u010dka","name:sg":"Ger\u00easi","name:se":"Greika","name:sa":"\u0917\u094d\u0930\u0940\u0938","name:bs":"Gr\u010dka","name:bm":"G\u025br\u025bsi","name:bn":"\u0997\u09cd\u09b0\u09c0\u09b8","name:bo":"\u0f67\u0f72\u0f0b\u0f63\u0f0d","name:br":"Gres","alt_name:br":"Hellaz","name:sw":"Ugiriki","name:be":"\u0413\u0440\u044d\u0446\u044b\u044f","name:bg":"\u0413\u044a\u0440\u0446\u0438\u044f","name:sr":"\u0413\u0440\u0447\u043a\u0430","name:sq":"Greqia","name:jv":"Yunani","name:pt":"Gr\u00e9cia","name:ps":"\u064a\u0648\u0646\u0627\u0646","name:oc":"Gr\u00e8cia","min_zoom":2.0,"name:ro":"Grecia","name:zh-min-nan":"Hi-lia\u030dp","name:os":"\u0413\u0440\u0435\u043a\u044a","name:or":"\u0b17\u0b4d\u0b30\u0b40\u0b38\u0b4d","name:pl":"Grecja","name:tr":"Yunanistan","name:hi":"\u092f\u0942\u0928\u093e\u0928","name:sv":"Grekland","name:he":"\u05d9\u05d5\u05d5\u05df","name:ha":"Girka","name:hy":"\u0540\u0578\u0582\u0576\u0561\u057d\u057f\u0561\u0576","name:ht":"Gr\u00e8s","name:hu":"G\u00f6r\u00f6gorsz\u00e1g","name:qu":"Grisya","population":11260402,"kind":"country","name:is":"Grikkland","name:yi":"\u05d2\u05e8\u05d9\u05db\u05e0\u05dc\u05d0\u05e0\u05d3","name:yo":"Gr\u00e9\u00e9s\u00ec","name:mt":"Gre\u010bja","alt_name:eo":"Grekio","alt_name:en":"Hellas","name:ms":"Greece","name:mr":"\u0917\u094d\u0930\u0940\u0938","name:my":"\u1002\u101b\u102d","official_name":"\u0395\u03bb\u03bb\u03b7\u03bd\u03b9\u03ba\u03ae \u0394\u03b7\u03bc\u03bf\u03ba\u03c1\u03b1\u03c4\u03af\u03b1","int_name":"Greece","name:mg":"Gresy","name:ml":"\u0d17\u0d4d\u0d30\u0d40\u0d38\u0d4d","name:vi":"Hy L\u1ea1p","name:mn":"\u0413\u0440\u0435\u043a","id":432424989,"name:mk":"\u0413\u0440\u0446\u0438\u0458\u0430","name:vo":"Grik\u00e4n","name:fa":"\u06cc\u0648\u0646\u0627\u0646","name:ff":"Gerees","name:fi":"Kreikka","name:fo":"Grikkaland","name:fr":"Gr\u00e8ce","name:fy":"Grikel\u00e2n","name:nl":"Griekenland","name:nn":"Hellas","name:no":"Hellas","name:na":"Greece","name:ne":"\u0917\u094d\u0930\u0940\u0938","name:wo":"Girees","name:ga":"An Ghr\u00e9ig","name:gd":"A' Ghr\u00e8ig","name:gn":"Gyresia","name:gl":"Grecia","name:gv":"Yn Ghreag","name:gu":"\u0a97\u0acd\u0ab0\u0ac0\u0ab8","name:tt":"\u0413\u0440\u0435\u0446\u0438\u044f"},"coordinates":[2604,651]},{"type":"Point","properties":{"int_name":"Larissa","name:lt":"Larisa","name:tr":"LAR\u0130SSA YENI\u015eEHIR","min_zoom":8.0,"name:ru":"\u041b\u0430\u0440\u0438\u0441\u0430","name:bg":"\u041b\u0430\u0440\u0438\u0441\u0430","name:hr":"Larisa","id":57549546,"name:ca":"L\u00e0rissa","population":162591,"kind":"locality","name:en":"Larissa","name":"\u039b\u03ac\u03c1\u03b9\u03c3\u03b1","kind_detail":"city","name:de":"Larisa","source":"openstreetmap.org","name:fi":"Larissa"},"coordinates":[3852,3073]},{"type":"Point","properties":{"int_name":"Trikala","name:tr":"T\u0131rhala","min_zoom":8.0,"name:ro":"Trikolj","name:ru":"\u0422\u0440\u0438\u043a\u0430\u043b\u0430","name:bg":"\u0422\u0440\u0438\u043a\u0430\u043b\u0430","name:hr":"Trikala","id":130250597,"population":62154,"kind":"locality","name:en":"Trikala","name":"\u03a4\u03c1\u03af\u03ba\u03b1\u03bb\u03b1","kind_detail":"city","name:de":"Trikala","source":"openstreetmap.org","name:fr":"Trikala"},"coordinates":[1964,2764]},{"type":"Point","properties":{"name:sr":"\u041b\u0430\u043c\u0438\u0458\u0430","int_name":"Lamia","min_zoom":8.0,"name:ro":"Lamia","old_name":"Boudonitza","name:ru":"\u041b\u0430\u043c\u0438\u044f","id":286542728,"population":59000,"kind":"locality","name:en":"Lamia","name":"\u039b\u03b1\u03bc\u03af\u03b1","kind_detail":"city","name:de":"Lamia","source":"openstreetmap.org","name:fr":"Lam\u00eda","name:fi":"Lamia","name:es":"Lam\u00eda"},"coordinates":[3904,293]},{"type":"Point","properties":{"kind":"locality","name:en":"Karditsa","name":"\u039a\u03b1\u03c1\u03b4\u03af\u03c4\u03c3\u03b1","kind_detail":"city","min_zoom":8.0,"name:de":"Karditsa","source":"openstreetmap.org","name:fr":"Karditsa","name:ro":"Kardi\u021ba","name:ru":"\u041a\u0430\u0440\u0434\u0438\u0446\u0430","id":130250802,"population":32031},"coordinates":[2410,2038]},{"type":"Point","properties":{"kind":"locality","name:en":"Tirnavos","name":"\u03a4\u03cd\u03c1\u03bd\u03b1\u03b2\u03bf\u03c2","kind_detail":"town","min_zoom":8.0,"name:de":"Tyrnavos","source":"openstreetmap.org","name:fr":"Tyrnavos","name:ru":"\u0422\u0438\u0440\u043d\u0430\u0432\u043e\u0441","id":139535235,"population":11116},"coordinates":[3479,3452]},{"type":"Point","properties":{"kind":"locality","name:en":"Farsala","name":"\u03a6\u03ac\u03c1\u03c3\u03b1\u03bb\u03b1","name:tr":"FARSALA","kind_detail":"town","min_zoom":8.0,"name:de":"Farsala","name:la":"Pharsalus","source":"openstreetmap.org","name:fr":"Pharsale","int_name":"Farsala","name:ru":"\u0424\u0430\u0440\u0441\u0430\u043b\u0430","id":139709905,"population":9801},"coordinates":[3760,1780]},{"type":"Point","properties":{"kind":"locality","name:en":"Kalambaka","name":"\u039a\u03b1\u03bb\u03b1\u03bc\u03c0\u03ac\u03ba\u03b1","kind_detail":"town","min_zoom":8.0,"name:de":"Kalambaka","source":"openstreetmap.org","name:fr":"Kalambaka","int_name":"Kalabaka","name:it":"Kalambaka","name:ru":"\u041a\u0430\u043b\u0430\u043c\u0431\u0430\u043a\u0430","name:bg":"\u041a\u0430\u043b\u0430\u043c\u0431\u0430\u043a\u0430","id":130250606,"population":7721},"coordinates":[1556,3332]},{"type":"Point","properties":{"kind":"locality","name:en":"Sofades","name":"\u03a3\u03bf\u03c6\u03ac\u03b4\u03b5\u03c2","kind_detail":"town","name:de":"Sofades","source":"openstreetmap.org","min_zoom":8.0,"name:ru":"\u0421\u043e\u0444\u0430\u0434\u0435\u0441","id":139710509,"population":6056},"coordinates":[2923,1935]},{"type":"Point","properties":{"kind":"locality","name:en":"Giannouli","name":"\u0393\u03b9\u03ac\u03bd\u03bd\u03bf\u03c5\u03bb\u03b7","kind_detail":"town","min_zoom":8.0,"name:de":"Giannouli","source":"openstreetmap.org","name:fr":"Giannouli","name:ru":"\u042f\u043d\u0443\u043b\u0438","id":286622144,"population":5936},"coordinates":[3792,3178]},{"type":"Point","properties":{"kind":"locality","name:en":"Ambelonas","name":"\u0391\u03bc\u03c0\u03b5\u03bb\u03ce\u03bd\u03b1\u03c2","kind_detail":"town","min_zoom":8.0,"name:de":"Ambelonas","source":"openstreetmap.org","name:fr":"Ambelonas","name:ru":"\u0410\u043c\u0431\u0435\u043b\u043e\u043d","id":286622499,"population":5920},"coordinates":[3696,3484]},{"type":"Point","properties":{"kind":"locality","name:en":"Karpenisi","name":"\u039a\u03b1\u03c1\u03c0\u03b5\u03bd\u03ae\u03c3\u03b9","kind_detail":"town","min_zoom":8.0,"name:de":"Karpenisi","source":"openstreetmap.org","name:fr":"Karpenisi","name:ru":"\u041a\u0430\u0440\u043f\u0435\u043d\u0438\u0441\u0438\u043e\u043d","id":136440062,"population":5900},"coordinates":[2041,349]},{"type":"Point","properties":{"kind":"locality","name:en":"Palamas","name":"\u03a0\u03b1\u03bb\u03b1\u03bc\u03ac\u03c2","kind_detail":"town","name:de":"Palamas","source":"openstreetmap.org","min_zoom":8.0,"name:ru":"\u041f\u0430\u043b\u0430\u043c\u0430\u0441","id":286623250,"population":5807},"coordinates":[2880,2430]},{"type":"Point","properties":{"kind":"locality","name:en":"Amfilochia","name":"\u0391\u03bc\u03c6\u03b9\u03bb\u03bf\u03c7\u03af\u03b1","kind_detail":"town","min_zoom":8.0,"name:de":"Amfilochia","source":"openstreetmap.org","name:fr":"Amfilochia","int_name":"Amfilochia","name:ru":"\u0410\u043c\u0444\u0438\u043b\u043e\u0445\u0438\u044f","id":135520870,"population":4119},"coordinates":[213,155]},{"type":"Point","properties":{"kind":"locality","name:en":"Falanna","name":"\u03a6\u03ac\u03bb\u03b1\u03bd\u03bd\u03b1","kind_detail":"town","min_zoom":8.0,"name:de":"Falanna","source":"openstreetmap.org","name:fr":"Falanna","id":296195815,"population":3327},"coordinates":[3797,3384]},{"type":"Point","properties":{"kind":"locality","name:en":"Metsovo","name":"\u039c\u03ad\u03c4\u03c3\u03bf\u03b2\u03bf","kind_detail":"town","min_zoom":8.0,"name:de":"Metsovo","source":"openstreetmap.org","name:fr":"Metsovo","old_name":"\u039c\u03ad\u03c4\u03c3\u03bf\u03b2\u03bf\u03bd","name:ru":"\u041c\u0435\u0446\u043e\u0432\u043e\u043d","id":130167056,"name:es":"Metsovo","population":3195},"coordinates":[261,3567]},{"type":"Point","properties":{"kind":"locality","name:en":"Sperchiada","name":"\u03a3\u03c0\u03b5\u03c1\u03c7\u03b5\u03b9\u03ac\u03b4\u03b1","kind_detail":"town","name:de":"Sperchiada","source":"openstreetmap.org","min_zoom":8.0,"name:ru":"\u0421\u043f\u0435\u0440\u0445\u0438\u0430\u0441","id":144789667,"population":2875},"coordinates":[3003,327]},{"type":"Point","properties":{"kind":"locality","name:en":"Farkadona","name":"\u03a6\u03b1\u03c1\u03ba\u03b1\u03b4\u03cc\u03bd\u03b1","kind_detail":"town","min_zoom":8.0,"name:de":"Farkadona","source":"openstreetmap.org","name:fr":"Farkadona","name:ru":"\u0424\u0430\u0440\u043a\u0430\u0434\u043e\u043d","id":297241939,"population":2387},"coordinates":[2840,2900]},{"type":"Point","properties":{"kind":"locality","name:en":"Karditsomagoula","name":"\u039a\u03b1\u03c1\u03b4\u03b9\u03c4\u03c3\u03bf\u03bc\u03b1\u03b3\u03bf\u03cd\u03bb\u03b1","kind_detail":"town","min_zoom":8.0,"name:de":"Karditsomagoula","source":"openstreetmap.org","name:fr":"Karditsomagoula","id":154098958,"population":2259},"coordinates":[2418,2143]},{"type":"Point","properties":{"kind":"locality","name:en":"Gonni","name":"\u0393\u03cc\u03bd\u03bd\u03bf\u03b9","kind_detail":"town","min_zoom":8.0,"name:de":"Gonni","source":"openstreetmap.org","name:fr":"Gonni","old_name":"\u0394\u03b5\u03c1\u03b5\u03bb\u03ae (Dereli)","name:ru":"\u0413\u043e\u043d\u0438","id":286622324,"population":2190},"coordinates":[4028,3914]},{"type":"Point","properties":{"kind":"locality","name:en":"Mouzaki","name":"\u039c\u03bf\u03c5\u03b6\u03ac\u03ba\u03b9","kind_detail":"town","min_zoom":8.0,"name:de":"Mouzaki","source":"openstreetmap.org","name:fr":"Mouzaki","name:ru":"\u041c\u0443\u0437\u0430\u043a\u0438\u043e\u043d","id":353169721,"population":2190},"coordinates":[1659,2280]},{"type":"Point","properties":{"kind":"locality","name:en":"Megala Kalyvia","name":"\u039c\u03b5\u03b3\u03ac\u03bb\u03b1 \u039a\u03b1\u03bb\u03cd\u03b2\u03b9\u03b1","kind_detail":"town","min_zoom":8.0,"name:de":"Megala Kalyvia","source":"openstreetmap.org","name:fr":"Megala Kalyvia","name:ru":"\u041c\u0435\u0433\u0430\u043b\u0430-\u041a\u0430\u043b\u0438\u0432\u0438\u044f","id":154099392,"population":2151},"coordinates":[2021,2546]},{"type":"Point","properties":{"kind":"locality","name:en":"Domokos","name":"\u0394\u03bf\u03bc\u03bf\u03ba\u03cc\u03c2","name:tr":"D\u00d6MEKE","kind_detail":"town","min_zoom":8.0,"name:de":"Domokos","source":"openstreetmap.org","name:fr":"Domokos","name:ru":"\u0414\u043e\u043c\u043e\u043a\u043e\u0441","id":144785963,"population":1556},"coordinates":[3518,1148]}]},"transit":{"type":"GeometryCollection","geometries":[{"type":"LineString","properties":{"kind":"train","network":"Intercity","sort_rank":275,"source":"openstreetmap.org","min_zoom":6.0,"operator":"\u03a4\u03c1\u03b1\u03b9\u03bd\u039f\u03a3\u0395","ref":"IC","osm_relation":true,"name":"Train IC : \u0398\u03b5\u03c3\u03c3\u03b1\u03bb\u03bf\u03bd\u03af\u03ba\u03b7 \u2192 \u0391\u03b8\u03ae\u03bd\u03b1"},"arcs":[4]},{"type":"LineString","properties":{"kind":"train","network":"Intercity","sort_rank":275,"source":"openstreetmap.org","min_zoom":6.0,"operator":"\u03a4\u03c1\u03b1\u03b9\u03bd\u039f\u03a3\u0395","ref":"IC","osm_relation":true,"name":"Train IC : \u0391\u03b8\u03ae\u03bd\u03b1 \u2192 \u0398\u03b5\u03c3\u03c3\u03b1\u03bb\u03bf\u03bd\u03af\u03ba\u03b7"},"arcs":[5]}]},"pois":{"type":"GeometryCollection","geometries":[{"type":"Point","properties":{"source":"openstreetmap.org","kind":"nature_reserve","name":"\u0391\u03bd. \u039a\u03bb\u03b9\u03c4\u03cd\u03c2-\u038c\u03c1\u03bf\u03c2 \u03a4\u03c5\u03bc\u03c6\u03c1\u03b7\u03c3\u03c4\u03bf\u03cd (\u03a0\u03b9\u03c4\u03c3\u03b9\u03c9\u03c4\u03ce\u03bd-\u039d\u03b5\u03bf\u03c7\u03c9\u03c1\u03af\u03bf\u03c5-\u039c\u03b1\u03c5\u03c1\u03af\u03bb\u03bf\u03c5-\u039c\u03b5\u03c1\u03ba\u03ac\u03b4\u03b1\u03c2","area":149811000,"tier":2,"min_zoom":8.68,"id":138261704},"coordinates":[2209,503]}]},"boundaries":{"type":"GeometryCollection","geometries":[{"type":"LineString","properties":{"name:right:fr":"Thessalie - Gr\u00e8ce centrale","id:left":-4495892,"id:right":-4495677,"min_zoom":8.0,"name:left:ru":"\u041f\u0435\u043b\u043e\u043f\u043e\u043d\u043d\u0435\u0441\u0430, \u0417\u0430\u043f\u0430\u0434\u043d\u043e\u0439 \u0413\u0440\u0435\u0446\u0438\u0438 \u0438 \u0418\u043e\u043d\u0438\u0438","name:right:ru":"\u0424\u0435\u0441\u0441\u0430\u043b\u0438\u0438 \u0438 \u0426\u0435\u043d\u0442\u0440\u0430\u043b\u044c\u043d\u043e\u0439 \u0413\u0440\u0435\u0446\u0438\u0438","id":-4495892,"osm_relation":true,"name:right":"\u0398\u03b5\u03c3\u03c3\u03b1\u03bb\u03af\u03b1 - \u03a3\u03c4\u03b5\u03c1\u03b5\u03ac \u0395\u03bb\u03bb\u03ac\u03b4\u03b1","kind":"region","name":"\u03a0\u03b5\u03bb\u03bf\u03c0\u03cc\u03bd\u03bd\u03b7\u03c3\u03bf\u03c2, \u0394\u03c5\u03c4\u03b9\u03ba\u03ae \u0395\u03bb\u03bb\u03ac\u03b4\u03b1 \u03ba\u03b1\u03b9 \u0399\u03cc\u03bd\u03b9\u03bf - \u0398\u03b5\u03c3\u03c3\u03b1\u03bb\u03af\u03b1 - \u03a3\u03c4\u03b5\u03c1\u03b5\u03ac \u0395\u03bb\u03bb\u03ac\u03b4\u03b1","source":"openstreetmap.org","sort_rank":256,"kind_detail":"4","name:left:de":"Peloponnes, Westgriechenland und Ionische Inseln","name:right:en":"Thessaly - Central Greece","name:left:en":"Peloponnese, West Greece and Ionian Sea","name:left:fr":"P\u00e9loponn\u00e8se, Gr\u00e8ce occidentale et \u00celes Ioniennes","name:right:de":"Thessalien - Mittelgriechenland","official_name:right":"\u0391\u03c0\u03bf\u03ba\u03b5\u03bd\u03c4\u03c1\u03c9\u03bc\u03ad\u03bd\u03b7 \u0394\u03b9\u03bf\u03af\u03ba\u03b7\u03c3\u03b7 \u0398\u03b5\u03c3\u03c3\u03b1\u03bb\u03af\u03b1\u03c2 - \u03a3\u03c4\u03b5\u03c1\u03b5\u03ac\u03c2 \u0395\u03bb\u03bb\u03ac\u03b4\u03b1\u03c2","official_name:left":"\u0391\u03c0\u03bf\u03ba\u03b5\u03bd\u03c4\u03c1\u03c9\u03bc\u03ad\u03bd\u03b7 \u0394\u03b9\u03bf\u03af\u03ba\u03b7\u03c3\u03b7 \u03a0\u03b5\u03bb\u03bf\u03c0\u03bf\u03bd\u03bd\u03ae\u03c3\u03bf\u03c5, \u0394\u03c5\u03c4\u03b9\u03ba\u03ae\u03c2 \u0395\u03bb\u03bb\u03ac\u03b4\u03b1\u03c2 \u03ba\u03b1\u03b9 \u0399\u03bf\u03bd\u03af\u03bf\u03c5","name:left":"\u03a0\u03b5\u03bb\u03bf\u03c0\u03cc\u03bd\u03bd\u03b7\u03c3\u03bf\u03c2, \u0394\u03c5\u03c4\u03b9\u03ba\u03ae \u0395\u03bb\u03bb\u03ac\u03b4\u03b1 \u03ba\u03b1\u03b9 \u0399\u03cc\u03bd\u03b9\u03bf"},"arcs":[0]},{"type":"MultiLineString","properties":{"kind":"region","name:en":"Peloponnese, West Greece and Ionian Sea","name":"\u03a0\u03b5\u03bb\u03bf\u03c0\u03cc\u03bd\u03bd\u03b7\u03c3\u03bf\u03c2, \u0394\u03c5\u03c4\u03b9\u03ba\u03ae \u0395\u03bb\u03bb\u03ac\u03b4\u03b1 \u03ba\u03b1\u03b9 \u0399\u03cc\u03bd\u03b9\u03bf","sort_rank":256,"kind_detail":"4","min_zoom":8.0,"official_name":"\u0391\u03c0\u03bf\u03ba\u03b5\u03bd\u03c4\u03c1\u03c9\u03bc\u03ad\u03bd\u03b7 \u0394\u03b9\u03bf\u03af\u03ba\u03b7\u03c3\u03b7 \u03a0\u03b5\u03bb\u03bf\u03c0\u03bf\u03bd\u03bd\u03ae\u03c3\u03bf\u03c5, \u0394\u03c5\u03c4\u03b9\u03ba\u03ae\u03c2 \u0395\u03bb\u03bb\u03ac\u03b4\u03b1\u03c2 \u03ba\u03b1\u03b9 \u0399\u03bf\u03bd\u03af\u03bf\u03c5","name:de":"Peloponnes, Westgriechenland und Ionische Inseln","source":"openstreetmap.org","name:fr":"P\u00e9loponn\u00e8se, Gr\u00e8ce occidentale et \u00celes Ioniennes","name:ru":"\u041f\u0435\u043b\u043e\u043f\u043e\u043d\u043d\u0435\u0441\u0430, \u0417\u0430\u043f\u0430\u0434\u043d\u043e\u0439 \u0413\u0440\u0435\u0446\u0438\u0438 \u0438 \u0418\u043e\u043d\u0438\u0438","id":-4495892,"osm_relation":true},"arcs":[[1],[2]]},{"type":"LineString","properties":{"kind":"region","name:en":"Thessaly - Central Greece","name":"\u0398\u03b5\u03c3\u03c3\u03b1\u03bb\u03af\u03b1 - \u03a3\u03c4\u03b5\u03c1\u03b5\u03ac \u0395\u03bb\u03bb\u03ac\u03b4\u03b1","sort_rank":256,"kind_detail":"4","min_zoom":8.0,"official_name":"\u0391\u03c0\u03bf\u03ba\u03b5\u03bd\u03c4\u03c1\u03c9\u03bc\u03ad\u03bd\u03b7 \u0394\u03b9\u03bf\u03af\u03ba\u03b7\u03c3\u03b7 \u0398\u03b5\u03c3\u03c3\u03b1\u03bb\u03af\u03b1\u03c2 - \u03a3\u03c4\u03b5\u03c1\u03b5\u03ac\u03c2 \u0395\u03bb\u03bb\u03ac\u03b4\u03b1\u03c2","name:de":"Thessalien - Mittelgriechenland","source":"openstreetmap.org","name:fr":"Thessalie - Gr\u00e8ce centrale","name:ru":"\u0424\u0435\u0441\u0441\u0430\u043b\u0438\u0438 \u0438 \u0426\u0435\u043d\u0442\u0440\u0430\u043b\u044c\u043d\u043e\u0439 \u0413\u0440\u0435\u0446\u0438\u0438","id":-4495677,"osm_relation":true},"arcs":[3]}]},"roads":{"type":"GeometryCollection","geometries":[{"type":"MultiLineString","properties":{"kind":"highway","int_name":"Egnatia Odos","network":"e-road","sort_rank":383,"landuse_kind":"nature_reserve","name:fr":"Autoroute A2 (Egnatia Odos)","name:de":"Autobahn A2 (Egnatia Odos)","source":"openstreetmap.org","min_zoom":8.0,"name:en":"Egnatia Motorway","all_networks":["e-road","GR:motorway"],"kind_detail":"motorway","shield_text":"90","ref":"\u03912","all_shield_texts":["90","\u03912"]},"arcs":[[10],[11]]},{"type":"MultiLineString","properties":{"kind":"major_road","network":"GR:national","sort_rank":380,"kind_detail":"primary","source":"openstreetmap.org","min_zoom":8.0,"shield_text":"\u0395\u039f3","ref":"\u0395\u039f3"},"arcs":[[12],[13]]},{"type":"MultiLineString","properties":{"kind":"major_road","int_name":"Stratou","network":"GR:national","sort_rank":380,"kind_detail":"primary","source":"openstreetmap.org","min_zoom":8.0,"shield_text":"\u0395\u039f5","ref":"\u0395\u039f5"},"arcs":[[14],[15]]},{"type":"LineString","properties":{"source":"openstreetmap.org","kind":"major_road","name:en":"Old National Highway 6","sort_rank":381,"kind_detail":"trunk","min_zoom":8.0,"id":116795559},"arcs":[16]},{"type":"MultiLineString","properties":{"kind":"major_road","name:en":"Larisa branch","network":"GR:national","sort_rank":380,"kind_detail":"primary","source":"openstreetmap.org","min_zoom":8.0,"shield_text":"\u0395\u039f1","ref":"\u0395\u039f1"},"arcs":[[17],[18],[19]]},{"type":"LineString","properties":{"kind":"major_road","int_name":"Zinopoulou","network":"GR:national","sort_rank":380,"kind_detail":"primary","source":"openstreetmap.org","min_zoom":8.0,"landuse_kind":"urban_area","shield_text":"\u0395\u039f38","ref":"EO38","id":83281740},"arcs":[20]},{"type":"LineString","properties":{"kind":"major_road","int_name":"Karpenisi - Agrinio","network":"GR:national","sort_rank":380,"kind_detail":"primary","source":"openstreetmap.org","min_zoom":8.0,"landuse_kind":"urban_area","shield_text":"\u0395\u039f38","ref":"\u0395\u039f38","id":83281745},"arcs":[21]},{"type":"MultiLineString","properties":{"kind":"major_road","int_name":"Panagia - Ioannina","network":"GR:national","sort_rank":380,"kind_detail":"primary","source":"openstreetmap.org","min_zoom":8.0,"landuse_kind":"park","shield_text":"\u0395\u039f6","ref":"\u0395\u039f6"},"arcs":[[22],[23],[24]]},{"type":"MultiLineString","properties":{"kind":"major_road","network":"GR:national","sort_rank":380,"kind_detail":"primary","source":"openstreetmap.org","min_zoom":8.0,"landuse_kind":"residential","shield_text":"\u0395\u039f3","ref":"\u0395\u039f3;\u0395\u039f38"},"arcs":[[25],[26],[27],[28],[29],[30],[31],[32]]},{"type":"LineString","properties":{"kind":"major_road","int_name":"E 952","network":"GR:national","sort_rank":380,"kind_detail":"primary","source":"openstreetmap.org","min_zoom":8.0,"landuse_kind":"residential","shield_text":"\u0395\u039f38","ref":"\u0395\u039f38","id":380335038},"arcs":[33]},{"type":"MultiLineString","properties":{"kind":"major_road","int_name":"Andrea Stratou","network":"GR:national","sort_rank":380,"kind_detail":"primary","source":"openstreetmap.org","min_zoom":8.0,"shield_text":"\u0395\u039f42","ref":"\u0395\u039f42"},"arcs":[[34],[35],[36],[37]]},{"type":"MultiLineString","properties":{"kind":"major_road","network":"GR:national","sort_rank":381,"kind_detail":"trunk","source":"openstreetmap.org","min_zoom":8.0,"shield_text":"\u0395\u039f6","ref":"\u0395\u039f6"},"arcs":[[38],[39],[40],[41],[42]]},{"type":"MultiLineString","properties":{"kind":"highway","int_name":"Egnatia Odos","network":"e-road","sort_rank":383,"kind_detail":"motorway","source":"openstreetmap.org","min_zoom":8.0,"name:en":"Egnatia Motorway","all_networks":["e-road","GR:motorway"],"shield_text":"90","ref":"\u03912","all_shield_texts":["90","\u03912"]},"arcs":[[43],[44],[45],[46]]},{"type":"MultiLineString","properties":{"kind":"major_road","name:en":"Larisa - Elassona","network":"GR:national","sort_rank":381,"kind_detail":"trunk","source":"openstreetmap.org","min_zoom":8.0,"landuse_kind":"nature_reserve","shield_text":"\u0395\u039f3","ref":"\u0395\u039f3"},"arcs":[[47],[48]]},{"type":"LineString","properties":{"kind":"major_road","network":"e-road","sort_rank":380,"kind_detail":"primary","source":"openstreetmap.org","min_zoom":8.0,"shield_text":"55","id":373061876},"arcs":[49]},{"type":"MultiLineString","properties":{"kind":"highway","int_name":"Egnatia Odos","network":"e-road","sort_rank":383,"kind_detail":"motorway","min_zoom":8.0,"name:de":"Anthochori Tunnel","source":"openstreetmap.org","name:fr":"Anthochori Tunnel","name:en":"Egnatia Motorway","all_networks":["e-road","e-road","GR:motorway"],"shield_text":"90","ref":"\u03912","all_shield_texts":["90","92","\u03912"]},"arcs":[[50],[51]]},{"type":"MultiLineString","properties":{"kind":"highway","name:en":"Athens - Thessaloniki - Evzoni","network":"e-road","sort_rank":383,"kind_detail":"motorway","name:fr":"Ath\u00e8nes - Thessalonique - Evzoni","source":"openstreetmap.org","min_zoom":8.0,"int_name":"Athina - Thessaloniki - Evzonoi","all_networks":["e-road","GR:motorway"],"old_name":"\u0391\u03c5\u03c4\u03bf\u03ba\u03b9\u03bd\u03b7\u03c4\u03cc\u03b4\u03c1\u03bf\u03bc\u03bf\u03c2 \u03a0\u0391\u0398\u0395","shield_text":"75","ref":"\u03911","all_shield_texts":["75","\u03911"]},"arcs":[[52],[53],[54],[55],[56],[57]]},{"type":"MultiLineString","properties":{"kind":"major_road","name:en":"Pinios Bridge","network":"GR:national","sort_rank":381,"kind_detail":"trunk","name:fr":"Pont Pinios","name:de":"Pinios Br\u00fccke","source":"openstreetmap.org","min_zoom":8.0,"shield_text":"\u0395\u039f6","ref":"\u0395\u039f6"},"arcs":[[58],[59]]},{"type":"MultiLineString","properties":{"kind":"major_road","int_name":"Karpenisi - Agrinio","network":"GR:national","sort_rank":380,"kind_detail":"primary","source":"openstreetmap.org","min_zoom":8.0,"landuse_kind":"nature_reserve","shield_text":"\u0395\u039f38","ref":"\u0395\u039f38"},"arcs":[[60],[61],[62]]},{"type":"MultiLineString","properties":{"kind":"major_road","int_name":"Omirou","network":"GR:national","sort_rank":380,"kind_detail":"primary","source":"openstreetmap.org","min_zoom":8.0,"shield_text":"\u0395\u039f5","ref":"\u0395\u039f5"},"arcs":[[63],[64],[65]]},{"type":"LineString","properties":{"kind":"major_road","network":"GR:national","sort_rank":380,"kind_detail":"primary","source":"openstreetmap.org","min_zoom":8.0,"shield_text":"\u0395\u039f1\u03b1","ref":"\u0395\u039f1\u03b1","id":396127544},"arcs":[66]},{"type":"LineString","properties":{"kind":"major_road","int_name":"Lamia - Karpenisi","network":"GR:national","sort_rank":380,"kind_detail":"primary","source":"openstreetmap.org","min_zoom":8.0,"shield_text":"\u0395\u039f38","ref":"EO38"},"arcs":[67]},{"type":"MultiLineString","properties":{"kind":"highway","int_name":"Ionia Odos","network":"e-road","sort_rank":383,"landuse_kind":"nature_reserve","name:fr":"Autoroute Ionienne","name:de":"Ionische Autobahn","source":"openstreetmap.org","min_zoom":8.0,"name:en":"Ionian Motorway","all_networks":["e-road",null],"kind_detail":"motorway","shield_text":"951","ref":"\u03915","all_shield_texts":["951","5"]},"arcs":[[68],[69],[70],[71],[72],[73],[74],[75],[76],[77],[78],[79],[80],[81]]},{"type":"LineString","properties":{"kind":"major_road","name:en":"Larissa - Tempi","network":"GR:national","sort_rank":380,"kind_detail":"primary","name:fr":"Larissa - Temp\u00e9","source":"openstreetmap.org","min_zoom":8.0,"shield_text":"\u0395\u039f1","ref":"\u0395\u039f1","id":485138506},"arcs":[82]},{"type":"LineString","properties":{"kind":"major_road","network":"GR:national","sort_rank":380,"kind_detail":"primary","source":"openstreetmap.org","min_zoom":8.0,"landuse_kind":"urban_area","shield_text":"\u0395\u039f38","ref":"EO38","id":458710330},"arcs":[83]},{"type":"LineString","properties":{"kind":"major_road","int_name":"Lykourgou","network":"GR:national","sort_rank":380,"kind_detail":"primary","source":"openstreetmap.org","min_zoom":8.0,"shield_text":"\u0395\u039f5","ref":"\u0395\u039f5","id":123522669},"arcs":[84]},{"type":"MultiLineString","properties":{"kind":"highway","int_name":"Egnatia Odos","network":"e-road","sort_rank":383,"kind_detail":"motorway","name:fr":"Pont Votonosi","name:de":"Votonosi Br\u00fccke","source":"openstreetmap.org","min_zoom":8.0,"name:en":"Egnatia Motorway","all_networks":["e-road","e-road","GR:motorway"],"shield_text":"90","ref":"\u03912","all_shield_texts":["90","92","\u03912"]},"arcs":[[85],[86]]},{"type":"MultiLineString","properties":{"kind":"highway","int_name":"Egnatia Odos","network":"e-road","sort_rank":383,"kind_detail":"motorway","min_zoom":8.0,"name:de":"Tunnel Prionia","source":"openstreetmap.org","name:fr":"Tunnel Prionia","name:en":"Egnatia Motorway","all_networks":["e-road","GR:motorway"],"landuse_kind":"park","shield_text":"90","ref":"\u03912","all_shield_texts":["90","\u03912"]},"arcs":[[87],[88]]},{"type":"LineString","properties":{"kind":"major_road","int_name":"Trikala - Grevena","network":"GR:national","sort_rank":380,"kind_detail":"primary","source":"openstreetmap.org","min_zoom":8.0,"shield_text":"\u0395\u039f15","ref":"\u0395\u039f15"},"arcs":[89]},{"type":"MultiLineString","properties":{"kind":"major_road","name:en":"Trikala bypass","network":"GR:national","sort_rank":381,"kind_detail":"trunk","name:fr":"Contournement de Trikala","source":"openstreetmap.org","min_zoom":8.0,"landuse_kind":"residential","shield_text":"\u0395\u039f6","ref":"\u0395\u039f6"},"arcs":[[90],[91],[92],[93],[94]]},{"type":"MultiLineString","properties":{"kind":"major_road","name:en":"Old National Highway 1","sort_rank":380,"kind_detail":"primary","source":"openstreetmap.org","min_zoom":8.0,"landuse_kind":"urban_area","ref":"\u0395\u039f1"},"arcs":[[95],[96]]},{"type":"MultiLineString","properties":{"kind":"major_road","network":"GR:national","sort_rank":380,"kind_detail":"primary","source":"openstreetmap.org","min_zoom":8.0,"landuse_kind":"residential","shield_text":"\u0395\u039f38","ref":"\u0395\u039f38"},"arcs":[[97],[98],[99],[100],[101],[102],[103],[104],[105],[106],[107],[108],[109]]},{"type":"LineString","properties":{"kind":"major_road","int_name":"Amfilochia - Vonitsa","network":"GR:national","sort_rank":380,"kind_detail":"primary","source":"openstreetmap.org","min_zoom":8.0,"shield_text":"\u0395\u039f42","ref":"\u0395\u039f42"},"arcs":[110]},{"type":"LineString","properties":{"kind":"major_road","name:en":"Lamia - Karditsa Highway","network":"GR:national","sort_rank":380,"kind_detail":"primary","source":"openstreetmap.org","min_zoom":8.0,"shield_text":"\u0395\u039f3","ref":"\u0395\u039f3"},"arcs":[111]},{"type":"LineString","properties":{"kind":"major_road","network":"GR:national","sort_rank":380,"kind_detail":"primary","source":"openstreetmap.org","min_zoom":8.0,"landuse_kind":"residential","shield_text":"\u0395\u039f38","ref":"\u0395\u039f3;\u0395\u039f38","id":205361391},"arcs":[112]},{"type":"LineString","properties":{"kind":"major_road","int_name":"Lamia - Karpenisi","network":"GR:national","sort_rank":380,"kind_detail":"primary","source":"openstreetmap.org","min_zoom":8.0,"landuse_kind":"residential","shield_text":"\u0395\u039f38","ref":"EO38","id":105785303},"arcs":[113]},{"type":"MultiLineString","properties":{"kind":"highway","name:en":"Athens - Thessaloniki - Evzoni","network":"e-road","sort_rank":383,"landuse_kind":"urban_area","name:fr":"Ath\u00e8nes - Thessalonique - Evzoni","source":"openstreetmap.org","min_zoom":8.0,"int_name":"Athina - Thessaloniki - Evzonoi","all_networks":["e-road","e-road","GR:motorway"],"old_name":"\u0391\u03c5\u03c4\u03bf\u03ba\u03b9\u03bd\u03b7\u03c4\u03cc\u03b4\u03c1\u03bf\u03bc\u03bf\u03c2 \u03a0\u0391\u0398\u0395","shield_text":"65","kind_detail":"motorway","ref":"\u03911","all_shield_texts":["65","75","\u03911"]},"arcs":[[114],[115]]},{"type":"LineString","properties":{"kind":"major_road","name:en":"Apodimon Evritanon","network":"GR:national","sort_rank":380,"kind_detail":"primary","source":"openstreetmap.org","min_zoom":8.0,"landuse_kind":"urban_area","shield_text":"\u0395\u039f38","ref":"EO38","id":83281747},"arcs":[116]},{"type":"MultiLineString","properties":{"kind":"highway","int_name":"Egnatia Odos","network":"e-road","sort_rank":383,"kind_detail":"motorway","name:fr":"Tunnel Syrtos","name:de":"Tunnel Syrtos","source":"openstreetmap.org","min_zoom":8.0,"name:en":"Egnatia Motorway","all_networks":["e-road","GR:motorway"],"shield_text":"90","ref":"\u03912","all_shield_texts":["90","\u03912"]},"arcs":[[117],[118]]},{"type":"MultiLineString","properties":{"kind":"major_road","name:en":"Trikala bypass","network":"GR:national","sort_rank":381,"kind_detail":"trunk","name:fr":"Contournement de Trikala","source":"openstreetmap.org","min_zoom":8.0,"shield_text":"\u0395\u039f6","ref":"\u0395\u039f6"},"arcs":[[119],[120],[121],[122]]},{"type":"MultiLineString","properties":{"name:el":"\u03a0\u03b5\u03c1\u03b9\u03c6\u03b5\u03c1\u03b5\u03b9\u03b1\u03ba\u03ae \u039f\u03b4\u03cc\u03c2 \u03a4\u03c1\u03b9\u03ba\u03ac\u03bb\u03c9\u03bd","kind":"major_road","name:en":"Trikala Ring Road","sort_rank":380,"kind_detail":"primary","min_zoom":8.0,"name:de":"Umgehungsstra\u00dfe Trikala","source":"openstreetmap.org","name:fr":"Route peripherique de Trikala","int_name":"Trikala Ring Road"},"arcs":[[123],[124],[125]]},{"type":"LineString","properties":{"kind":"major_road","network":"GR:national","sort_rank":380,"kind_detail":"primary","name:fr":"Rue du 23 Octobre","source":"openstreetmap.org","min_zoom":8.0,"shield_text":"\u0395\u039f6","ref":"\u0395\u039f6","id":31669400},"arcs":[126]},{"type":"MultiLineString","properties":{"kind":"major_road","int_name":"Trikala - Pertouli","network":"GR:national","sort_rank":380,"kind_detail":"primary","source":"openstreetmap.org","min_zoom":8.0,"shield_text":"\u0395\u039f30","ref":"\u0395\u039f30"},"arcs":[[127],[128],[129],[130],[131],[132],[133],[134],[135],[136],[137],[138],[139],[140]]},{"type":"MultiLineString","properties":{"kind":"major_road","name:en":"Trikala Ring Road","network":"GR:national","sort_rank":380,"kind_detail":"primary","min_zoom":8.0,"name:de":"Umgehungsstra\u00dfe Trikala","source":"openstreetmap.org","name:fr":"Route peripherique de Trikala","int_name":"Trikala Ring Road","shield_text":"\u0395\u039f30","ref":"\u0395\u039f30"},"arcs":[[141],[142]]},{"type":"MultiLineString","properties":{"kind":"major_road","network":"GR:national","sort_rank":380,"kind_detail":"primary","source":"openstreetmap.org","min_zoom":8.0,"shield_text":"\u0395\u039f38","ref":"\u0395\u039f38"},"arcs":[[143],[144],[145],[146],[147]]},{"type":"MultiLineString","properties":{"kind":"major_road","name:en":"Larisa branch","network":"GR:national","sort_rank":381,"kind_detail":"trunk","source":"openstreetmap.org","min_zoom":8.0,"shield_text":"\u0395\u039f1\u03b1","ref":"\u0395\u039f1\u03b1"},"arcs":[[148],[149],[150]]},{"type":"MultiLineString","properties":{"kind":"highway","int_name":"Egnatia Odos","network":"e-road","sort_rank":383,"kind_detail":"motorway","name:fr":"Autoroute A2 (Egnatia Odos)","name:de":"Autobahn A2 (Egnatia Odos)","source":"openstreetmap.org","min_zoom":8.0,"name:en":"Egnatia Motorway","all_networks":["e-road","GR:motorway"],"landuse_kind":"park","shield_text":"90","ref":"\u03912","all_shield_texts":["90","\u03912"]},"arcs":[[151],[152],[153],[154],[155],[156],[157],[158]]},{"type":"MultiLineString","properties":{"kind":"highway","name:en":"Ionian Motorway","network":"e-road","sort_rank":383,"kind_detail":"motorway","name:fr":"Autoroute Ionienne","name:de":"Ionische Autobahn","source":"openstreetmap.org","min_zoom":8.0,"int_name":"Ionia Odos","all_networks":["e-road",null],"shield_text":"951","ref":"\u03915","all_shield_texts":["951","5"]},"arcs":[[159],[160]]},{"type":"MultiLineString","properties":{"kind":"major_road","int_name":"Farsala - Larisa","network":"GR:national","sort_rank":380,"kind_detail":"primary","name:fr":"Pharsale - Larissa","source":"openstreetmap.org","min_zoom":8.0,"name:en":"Farsala - Larissa","shield_text":"\u0395\u039f3","ref":"\u0395\u039f3"},"arcs":[[161],[162],[163],[164],[165]]},{"type":"LineString","properties":{"kind":"major_road","int_name":"Ethnikis Antistaseos","network":"GR:national","sort_rank":380,"kind_detail":"primary","source":"openstreetmap.org","min_zoom":8.0,"landuse_kind":"urban_area","shield_text":"\u0395\u039f38","ref":"EO38","id":255650363},"arcs":[166]},{"type":"MultiLineString","properties":{"kind":"highway","int_name":"Egnatia Odos","network":"e-road","sort_rank":383,"kind_detail":"motorway","name:fr":"Tunnel Agia Triada","name:de":"Tunnel Agia Triada","source":"openstreetmap.org","min_zoom":8.0,"name:en":"Egnatia Motorway","all_networks":["e-road","GR:motorway"],"shield_text":"90","ref":"\u03912","all_shield_texts":["90","\u03912"]},"arcs":[[167],[168]]},{"type":"MultiLineString","properties":{"kind":"major_road","int_name":"Lamia - Neo Monastiri","network":"GR:national","sort_rank":380,"kind_detail":"primary","source":"openstreetmap.org","min_zoom":8.0,"shield_text":"\u0395\u039f3","ref":"\u0395\u039f3"},"arcs":[[169],[170],[171],[172],[173],[174],[175],[176],[177],[178],[179],[180],[181]]},{"type":"MultiLineString","properties":{"kind":"major_road","int_name":"Farsalon","network":"GR:national","sort_rank":380,"kind_detail":"primary","source":"openstreetmap.org","min_zoom":8.0,"shield_text":"\u0395\u039f3","ref":"\u0395\u039f3"},"arcs":[[182],[183],[184],[185],[186]]},{"type":"MultiLineString","properties":{"kind":"major_road","network":"GR:national","sort_rank":380,"kind_detail":"primary","source":"openstreetmap.org","min_zoom":8.0,"landuse_kind":"urban_area","shield_text":"\u0395\u039f38","ref":"\u0395\u039f38"},"arcs":[[187],[188]]},{"type":"MultiLineString","properties":{"kind":"major_road","int_name":"Panagia - Ioannina","network":"GR:national","sort_rank":380,"kind_detail":"primary","source":"openstreetmap.org","min_zoom":8.0,"shield_text":"\u0395\u039f6","ref":"\u0395\u039f6"},"arcs":[[189],[190],[191],[192],[193],[194],[195],[196]]},{"type":"MultiLineString","properties":{"source":"openstreetmap.org","kind":"major_road","network":"GR:national","sort_rank":381,"kind_detail":"trunk","min_zoom":8.0,"shield_text":"\u0395\u039f6"},"arcs":[[197],[198]]},{"type":"LineString","properties":{"kind":"major_road","name:en":"Trikala Ring Road","network":"GR:national","sort_rank":380,"kind_detail":"primary","name:fr":"Route peripherique de Trikala","name:de":"Umgehungsstra\u00dfe Trikala","source":"openstreetmap.org","min_zoom":8.0,"int_name":"Trikala Ring Road","shield_text":"\u0395\u039f30","id":328415394},"arcs":[199]},{"type":"MultiLineString","properties":{"kind":"major_road","name:en":"Trikala Ring Road","sort_rank":380,"kind_detail":"primary","min_zoom":8.0,"name:de":"Umgehungsstra\u00dfe Trikala","source":"openstreetmap.org","name:fr":"Route peripherique de Trikala"},"arcs":[[200],[201]]},{"type":"LineString","properties":{"kind":"major_road","int_name":"Tymfristos Tunnel","network":"GR:national","sort_rank":380,"kind_detail":"primary","name:fr":"Tunel Tymfristos","name:de":"Tymfristos Tunnel","source":"openstreetmap.org","min_zoom":8.0,"name:en":"Tymfristos Tunnel","landuse_kind":"nature_reserve","shield_text":"\u0395\u039f38","ref":"EO38","id":26167372},"arcs":[202]},{"type":"MultiLineString","properties":{"kind":"major_road","network":"GR:national","sort_rank":380,"kind_detail":"primary","source":"openstreetmap.org","min_zoom":8.0,"shield_text":"\u0395\u039f3","ref":"\u0395\u039f3;\u0395\u039f30"},"arcs":[[203],[204]]},{"type":"MultiLineString","properties":{"kind":"major_road","int_name":"Lamia - Neo Monastiri","network":"GR:national","sort_rank":380,"kind_detail":"primary","source":"openstreetmap.org","min_zoom":8.0,"landuse_kind":"nature_reserve","shield_text":"\u0395\u039f3","ref":"\u0395\u039f3"},"arcs":[[205],[206]]},{"type":"MultiLineString","properties":{"kind":"major_road","name:en":"Trikala Ring Road","sort_rank":380,"kind_detail":"primary","min_zoom":8.0,"name:de":"Umgehungsstra\u00dfe Trikala","source":"openstreetmap.org","name:fr":"Route peripherique de Trikala","int_name":"Trikala Ring Road"},"arcs":[[207],[208],[209]]},{"type":"LineString","properties":{"source":"openstreetmap.org","kind":"major_road","name:en":"Trikala Ring Road","sort_rank":380,"kind_detail":"primary","min_zoom":8.0},"arcs":[210]},{"type":"MultiLineString","properties":{"alt_name:el":"\u0391\u03c5\u03c4\u03bf\u03ba\u03b9\u03bd\u03b7\u03c4\u03cc\u03b4\u03c1\u03bf\u03bc\u03bf\u03c2 1","kind":"highway","int_name":"Athina - Thessaloniki - Evzonoi","network":"e-road","sort_rank":383,"kind_detail":"motorway","alt_name:en":"Motorway 1","source":"openstreetmap.org","min_zoom":8.0,"name:en":"Motorway 1 (Athens - Thessaloniki - Evzonoi)","all_networks":["e-road","GR:motorway"],"old_name":"\u0391\u03c5\u03c4\u03bf\u03ba\u03b9\u03bd\u03b7\u03c4\u03cc\u03b4\u03c1\u03bf\u03bc\u03bf\u03c2 \u03a0\u0391\u0398\u0395","shield_text":"75","ref":"\u03911","all_shield_texts":["75","\u03911"]},"arcs":[[211],[212]]},{"type":"LineString","properties":{"kind":"major_road","int_name":"Omirou Stratou Georgiou","network":"GR:national","sort_rank":380,"kind_detail":"primary","source":"openstreetmap.org","min_zoom":8.0,"landuse_kind":"nature_reserve","shield_text":"\u0395\u039f5","ref":"\u0395\u039f5","id":123522690},"arcs":[213]},{"type":"MultiLineString","properties":{"kind":"major_road","int_name":"Karditsa - Trikala","network":"GR:national","sort_rank":380,"kind_detail":"primary","source":"openstreetmap.org","min_zoom":8.0,"shield_text":"\u0395\u039f30","ref":"\u0395\u039f30"},"arcs":[[214],[215],[216],[217],[218],[219],[220]]},{"type":"MultiLineString","properties":{"kind":"major_road","name:en":"Larisa Ring Road","network":"GR:national","sort_rank":381,"kind_detail":"trunk","source":"openstreetmap.org","min_zoom":8.0,"shield_text":"\u0395\u039f108","ref":"\u0395\u039f108"},"arcs":[[221],[222],[223],[224]]},{"type":"MultiLineString","properties":{"kind":"major_road","int_name":"Antirrio - Ioannina","network":"GR:national","sort_rank":380,"kind_detail":"primary","source":"openstreetmap.org","min_zoom":8.0,"shield_text":"\u0395\u039f5","ref":"\u0395\u039f5"},"arcs":[[225],[226],[227],[228],[229]]},{"type":"LineString","properties":{"kind":"major_road","network":"GR:national","sort_rank":380,"kind_detail":"primary","source":"openstreetmap.org","min_zoom":8.0,"shield_text":"\u0395\u039f1","ref":"\u0395\u039f1"},"arcs":[230]},{"type":"MultiLineString","properties":{"kind":"major_road","network":"GR:national","sort_rank":380,"kind_detail":"primary","source":"openstreetmap.org","min_zoom":8.0,"landuse_kind":"nature_reserve","shield_text":"\u0395\u039f38","ref":"EO38"},"arcs":[[231],[232]]},{"type":"MultiLineString","properties":{"kind":"highway","name:en":"Athens - Thessaloniki - Evzoni","network":"e-road","sort_rank":383,"kind_detail":"motorway","name:fr":"Ath\u00e8nes - Thessalonique - Evzoni","source":"openstreetmap.org","min_zoom":8.0,"int_name":"Athina - Thessaloniki - Evzonoi","all_networks":["e-road","e-road","GR:motorway"],"old_name":"\u0391\u03c5\u03c4\u03bf\u03ba\u03b9\u03bd\u03b7\u03c4\u03cc\u03b4\u03c1\u03bf\u03bc\u03bf\u03c2 \u03a0\u0391\u0398\u0395","shield_text":"65","ref":"\u03911","all_shield_texts":["65","75","\u03911"]},"arcs":[[233],[234]]},{"type":"MultiLineString","properties":{"kind":"highway","int_name":"Egnatia Odos","network":"e-road","sort_rank":383,"kind_detail":"motorway","min_zoom":8.0,"name:de":"Anilio Tunnel","source":"openstreetmap.org","name:fr":"Anilio Tunnel","name:en":"Egnatia Motorway","all_networks":["e-road","e-road","GR:motorway"],"shield_text":"90","ref":"\u03912","all_shield_texts":["90","92","\u03912"]},"arcs":[[235],[236]]},{"type":"MultiLineString","properties":{"kind":"major_road","name:en":"Lamia bypass","network":"GR:national","sort_rank":380,"kind_detail":"primary","source":"openstreetmap.org","min_zoom":8.0,"landuse_kind":"urban_area","shield_text":"\u0395\u039f3","ref":"\u0395\u039f1;\u0395\u039f3"},"arcs":[[237],[238],[239]]},{"type":"MultiLineString","properties":{"kind":"major_road","network":"GR:national","sort_rank":381,"kind_detail":"trunk","source":"openstreetmap.org","min_zoom":8.0,"shield_text":"\u0395\u039f3","ref":"\u0395\u039f3"},"arcs":[[240],[241],[242],[243],[244],[245],[246],[247],[248],[249],[250],[251]]},{"type":"MultiLineString","properties":{"kind":"major_road","int_name":"Antirrio - Ioannina","network":"GR:national","sort_rank":380,"kind_detail":"primary","source":"openstreetmap.org","min_zoom":8.0,"landuse_kind":"nature_reserve","shield_text":"\u0395\u039f5","ref":"\u0395\u039f5"},"arcs":[[252],[253]]},{"type":"MultiLineString","properties":{"kind":"major_road","name:en":"Karditsa Ring Road","network":"GR:national","sort_rank":380,"kind_detail":"primary","name:fr":"P\u00e9riph\u00e9rique de Karditsa","source":"openstreetmap.org","min_zoom":8.0,"shield_text":"\u0395\u039f30","ref":"\u0395\u039f30"},"arcs":[[254],[255],[256],[257],[258]]},{"type":"MultiLineString","properties":{"int_name":"Siranga Agiou Nikolaou","min_zoom":8.0,"alt_name:en":"Egnatia Motorway","alt_name:fr":"Autoroute Egnatia Odos","kind":"highway","name:en":"Agios Nikolaos Tunnel","network":"e-road","sort_rank":383,"kind_detail":"motorway","name:de":"Agios Nikolaos Tunnel","source":"openstreetmap.org","name:fr":"Tunnel d'Agios Nikolaos","all_networks":["e-road","e-road","GR:motorway"],"shield_text":"90","ref":"\u03912","all_shield_texts":["90","92","\u03912"]},"arcs":[[259],[260]]},{"type":"MultiLineString","properties":{"kind":"major_road","int_name":"Larisa - Trikala","network":"GR:national","sort_rank":381,"kind_detail":"trunk","source":"openstreetmap.org","min_zoom":8.0,"shield_text":"\u0395\u039f6","ref":"\u0395\u039f6"},"arcs":[[261],[262],[263],[264],[265],[266],[267],[268],[269],[270],[271],[272],[273],[274],[275],[276],[277],[278],[279],[280],[281],[282],[283]]},{"type":"MultiLineString","properties":{"kind":"highway","int_name":"Egnatia Odos","network":"e-road","sort_rank":383,"kind_detail":"motorway","min_zoom":8.0,"name:de":"Krimino Tunnel","source":"openstreetmap.org","name:fr":"Krimino Tunnel","name:en":"Egnatia Motorway","all_networks":["e-road","e-road","GR:motorway"],"shield_text":"90","ref":"\u03912","all_shield_texts":["90","92","\u03912"]},"arcs":[[284],[285]]},{"type":"LineString","properties":{"kind":"highway","int_name":"Egnatia Odos","network":"e-road","sort_rank":383,"kind_detail":"motorway","min_zoom":8.0,"name:de":"Kalamies Tunnel","source":"openstreetmap.org","name:fr":"Kalamies Tunnel","name:en":"Egnatia Motorway","all_networks":["e-road","e-road","GR:motorway"],"shield_text":"90","ref":"\u03912","id":83104171,"all_shield_texts":["90","92","\u03912"]},"arcs":[286]},{"type":"MultiLineString","properties":{"kind":"major_road","name:en":"Larisa - Elassona","network":"GR:national","sort_rank":381,"kind_detail":"trunk","source":"openstreetmap.org","min_zoom":8.0,"shield_text":"\u0395\u039f3","ref":"\u0395\u039f3"},"arcs":[[287],[288],[289],[290],[291],[292],[293],[294]]},{"type":"LineString","properties":{"source":"openstreetmap.org","kind":"major_road","int_name":"Trikala - Pertouli","sort_rank":380,"kind_detail":"primary","ref":"\u0395\u039f30","min_zoom":8.0},"arcs":[295]},{"type":"LineString","properties":{"kind":"major_road","int_name":"Pindou","network":"GR:national","sort_rank":381,"kind_detail":"trunk","source":"openstreetmap.org","min_zoom":8.0,"shield_text":"\u0395\u039f6","ref":"\u0395\u039f6"},"arcs":[296]},{"type":"LineString","properties":{"kind":"major_road","name:en":"Neo Monastiri - Farsala","network":"GR:national","sort_rank":380,"kind_detail":"primary","name:fr":"Neo Monastiri - Pharsale","source":"openstreetmap.org","min_zoom":8.0,"int_name":"Neo Monastiri - Farsala","shield_text":"\u0395\u039f3","ref":"\u0395\u039f3","id":230711493},"arcs":[297]},{"type":"LineString","properties":{"kind":"major_road","network":"GR:national","sort_rank":380,"kind_detail":"primary","source":"openstreetmap.org","min_zoom":8.0,"shield_text":"\u0395\u039f6","ref":"\u0395\u039f6"},"arcs":[298]},{"type":"LineString","properties":{"source":"openstreetmap.org","kind":"major_road","sort_rank":380,"kind_detail":"primary","ref":"\u0395\u039f38","min_zoom":8.0,"id":529139122},"arcs":[299]},{"type":"MultiLineString","properties":{"kind":"highway","int_name":"Egnatia Odos","network":"e-road","sort_rank":383,"kind_detail":"motorway","min_zoom":8.0,"source":"openstreetmap.org","name:fr":"Autoroute Egnatia Odos","name:en":"Egnatia Motorway","all_networks":["e-road","e-road","GR:motorway"],"shield_text":"90","ref":"\u03912","all_shield_texts":["90","92","\u03912"]},"arcs":[[300],[301],[302],[303],[304],[305]]},{"type":"LineString","properties":{"kind":"major_road","network":"GR:national","sort_rank":381,"kind_detail":"trunk","source":"openstreetmap.org","min_zoom":8.0,"shield_text":"\u0395\u039f3","ref":"\u0395\u039f3;\u0395\u039f26","id":381212871},"arcs":[306]},{"type":"MultiLineString","properties":{"kind":"major_road","int_name":"Trikala - Panagia","network":"GR:national","sort_rank":381,"kind_detail":"trunk","min_zoom":8.0,"source":"openstreetmap.org","name:fr":"Trikala - Panagia","shield_text":"\u0395\u039f6","ref":"\u0395\u039f6"},"arcs":[[307],[308],[309],[310],[311],[312],[313]]},{"type":"MultiLineString","properties":{"kind":"major_road","int_name":"Ioanninon","network":"GR:national","sort_rank":381,"kind_detail":"trunk","source":"openstreetmap.org","min_zoom":8.0,"shield_text":"\u0395\u039f6","ref":"\u0395\u039f6"},"arcs":[[314],[315],[316]]},{"type":"LineString","properties":{"kind":"major_road","int_name":"Dimokratias","network":"GR:national","sort_rank":380,"kind_detail":"primary","source":"openstreetmap.org","min_zoom":8.0,"shield_text":"\u0395\u039f30","ref":"\u0395\u039f30","id":169034066},"arcs":[317]},{"type":"LineString","properties":{"source":"openstreetmap.org","kind":"major_road","name:en":"Trikala Ring Road","sort_rank":381,"kind_detail":"trunk","min_zoom":8.0,"id":358604150},"arcs":[318]},{"type":"LineString","properties":{"kind":"major_road","network":"GR:national","sort_rank":380,"kind_detail":"primary","source":"openstreetmap.org","min_zoom":8.0,"shield_text":"\u0395\u039f5","ref":"\u0395\u039f5"},"arcs":[319]},{"type":"MultiLineString","properties":{"kind":"highway","int_name":"Egnatia Odos","network":"e-road","sort_rank":383,"kind_detail":"motorway","name:fr":"Autoroute A2 (Egnatia Odos)","name:de":"Autobahn A2 (Egnatia Odos)","source":"openstreetmap.org","min_zoom":8.0,"name:en":"Egnatia Motorway","all_networks":["e-road","GR:motorway"],"shield_text":"90","ref":"\u03912","all_shield_texts":["90","\u03912"]},"arcs":[[320],[321],[322],[323],[324],[325],[326],[327],[328],[329]]},{"type":"MultiLineString","properties":{"kind":"major_road","name:en":"Old National Highway 1","network":"e-road","sort_rank":380,"landuse_kind":"urban_area","source":"openstreetmap.org","min_zoom":8.0,"kind_detail":"primary","shield_text":"65","ref":"\u0395\u039f1"},"arcs":[[330],[331]]},{"type":"MultiLineString","properties":{"kind":"major_road","network":"e-road","sort_rank":380,"kind_detail":"primary","source":"openstreetmap.org","min_zoom":8.0,"shield_text":"952","ref":"\u0395\u039f38"},"arcs":[[332],[333],[334]]},{"type":"MultiLineString","properties":{"kind":"highway","name:en":"Egnatia Motorway","network":"e-road","sort_rank":383,"kind_detail":"motorway","name:fr":"Tunnel S1","name:de":"Tunnel S1","source":"openstreetmap.org","min_zoom":8.0,"int_name":"Egnatia Odos","all_networks":["e-road","e-road","GR:motorway"],"shield_text":"90","ref":"\u03912","all_shield_texts":["90","92","\u03912"]},"arcs":[[335],[336]]},{"type":"LineString","properties":{"kind":"major_road","name:en":"Georgiou Gennimata","network":"GR:national","sort_rank":380,"kind_detail":"primary","source":"openstreetmap.org","min_zoom":8.0,"landuse_kind":"urban_area","shield_text":"\u0395\u039f38","ref":"\u0395\u039f38","id":195247075},"arcs":[337]},{"type":"LineString","properties":{"kind":"major_road","int_name":"Omirou Stratou Georgiou","network":"GR:national","sort_rank":380,"kind_detail":"primary","source":"openstreetmap.org","min_zoom":8.0,"shield_text":"\u0395\u039f5","ref":"\u0395\u039f5"},"arcs":[338]},{"type":"LineString","properties":{"kind":"highway","name:en":"Kalamies Tunnel","network":"e-road","sort_rank":383,"kind_detail":"motorway","min_zoom":8.0,"name:de":"Kalamies Tunnel","source":"openstreetmap.org","name:fr":"Kalamies Tunnel","all_networks":["e-road","e-road","GR:motorway"],"shield_text":"90","ref":"\u03912","all_shield_texts":["90","92","\u03912"]},"arcs":[339]},{"type":"LineString","properties":{"source":"openstreetmap.org","kind":"major_road","landuse_kind":"residential","sort_rank":380,"kind_detail":"primary","min_zoom":8.0},"arcs":[340]},{"type":"MultiLineString","properties":{"kind":"major_road","name:en":"Lamia bypass","network":"GR:national","sort_rank":380,"kind_detail":"primary","source":"openstreetmap.org","min_zoom":8.0,"shield_text":"\u0395\u039f3","ref":"\u0395\u039f3"},"arcs":[[341],[342],[343]]},{"type":"LineString","properties":{"kind":"major_road","network":"GR:national","sort_rank":380,"kind_detail":"primary","source":"openstreetmap.org","min_zoom":8.0,"landuse_kind":"urban_area","shield_text":"\u0395\u039f38","ref":"\u0395\u039f3;\u0395\u039f38"},"arcs":[344]},{"type":"LineString","properties":{"kind":"highway","network":"GR:national","sort_rank":383,"kind_detail":"motorway","source":"openstreetmap.org","min_zoom":8.0,"all_networks":["GR:national","e-road","GR:motorway"],"shield_text":"\u0395\u039f1\u03b1","all_shield_texts":["\u0395\u039f1\u03b1","92","\u03911"]},"arcs":[345]},{"type":"LineString","properties":{"kind":"major_road","name:en":"Larisa Ring Road","network":"GR:national","sort_rank":381,"kind_detail":"trunk","is_bicycle_related":true,"source":"openstreetmap.org","min_zoom":8.0,"shield_text":"\u0395\u039f108","ref":"\u0395\u039f108"},"arcs":[346]},{"type":"LineString","properties":{"kind":"major_road","int_name":"Elassona - Kozani","network":"GR:national","sort_rank":381,"kind_detail":"trunk","source":"openstreetmap.org","min_zoom":8.0,"shield_text":"\u0395\u039f3","ref":"\u0395\u039f3"},"arcs":[347]},{"type":"LineString","properties":{"kind":"major_road","int_name":"Iroon Politechneiou","network":"GR:national","sort_rank":381,"kind_detail":"trunk","source":"openstreetmap.org","min_zoom":8.0,"shield_text":"\u0395\u039f3","ref":"\u0395\u039f3"},"arcs":[348]},{"type":"MultiLineString","properties":{"kind":"highway","int_name":"Egnatia Odos","network":"e-road","sort_rank":383,"kind_detail":"motorway","source":"openstreetmap.org","min_zoom":8.0,"name:en":"Egnatia Motorway","all_networks":["e-road","e-road","GR:motorway"],"shield_text":"90","ref":"\u03912","all_shield_texts":["90","92","\u03912"]},"arcs":[[349],[350],[351],[352],[353],[354],[355],[356],[357],[358],[359],[360]]},{"type":"LineString","properties":{"kind":"major_road","name:en":"Larisa branch","network":"GR:national","sort_rank":380,"kind_detail":"primary","source":"openstreetmap.org","min_zoom":8.0,"shield_text":"\u0395\u039f1\u03b1","id":455504910},"arcs":[361]},{"type":"MultiLineString","properties":{"kind":"highway","int_name":"Egnatia Odos","network":"e-road","sort_rank":383,"kind_detail":"motorway","name:fr":"Tunnel Kostarako","name:de":"Tunnel Kostarako","source":"openstreetmap.org","min_zoom":8.0,"name:en":"Egnatia Motorway","all_networks":["e-road","e-road","GR:motorway"],"shield_text":"90","ref":"\u03912","all_shield_texts":["90","92","\u03912"]},"arcs":[[362],[363]]},{"type":"LineString","properties":{"kind":"highway","name:en":"Egnatia Motorway","network":"e-road","sort_rank":383,"kind_detail":"motorway","name:fr":"Autoroute A2 (Egnatia Odos)","name:de":"Autobahn A2 (Egnatia Odos)","source":"openstreetmap.org","min_zoom":8.0,"int_name":"Egnatia Odos","all_networks":["e-road","e-road","GR:motorway"],"shield_text":"90","ref":"\u03912","id":83093257,"all_shield_texts":["90","92","\u03912"]},"arcs":[364]},{"type":"MultiLineString","properties":{"kind":"major_road","int_name":"Karpenisi - Agrinio","network":"GR:national","sort_rank":380,"kind_detail":"primary","source":"openstreetmap.org","min_zoom":8.0,"shield_text":"\u0395\u039f38","ref":"\u0395\u039f38"},"arcs":[[365],[366],[367],[368],[369]]},{"type":"MultiLineString","properties":{"kind":"major_road","name:en":"Lamia bypass","network":"e-road","sort_rank":380,"kind_detail":"primary","source":"openstreetmap.org","min_zoom":8.0,"landuse_kind":"urban_area","shield_text":"65","ref":"\u0395\u039f1"},"arcs":[[370],[371]]},{"type":"MultiLineString","properties":{"alt_name:en":"Egnatia Motorway","min_zoom":8.0,"int_name":"Gefyra Metsovitikos","alt_name:fr":"Autoroute Egnatia Odos","kind":"highway","name:en":"Metsovitikos Bridge","network":"e-road","sort_rank":383,"kind_detail":"motorway","name:de":"Metsovitikos Br\u00fccke","source":"openstreetmap.org","name:fr":"Pont Metsovitikos","all_networks":["e-road","e-road","GR:motorway"],"shield_text":"90","ref":"\u03912","all_shield_texts":["90","92","\u03912"]},"arcs":[[372],[373]]},{"type":"LineString","properties":{"kind":"major_road","network":"GR:national","sort_rank":380,"kind_detail":"primary","source":"openstreetmap.org","min_zoom":8.0,"shield_text":"\u0395\u039f38","id":443876130},"arcs":[374]},{"type":"MultiLineString","properties":{"name:el":"\u03a0\u03b5\u03c1\u03b9\u03c6\u03b5\u03c1\u03b5\u03b9\u03b1\u03ba\u03ae \u039f\u03b4\u03cc\u03c2 \u03a4\u03c1\u03b9\u03ba\u03ac\u03bb\u03c9\u03bd","kind":"major_road","name:en":"Trikala Ring Road","network":"GR:national","sort_rank":380,"kind_detail":"primary","min_zoom":8.0,"name:de":"Umgehungsstra\u00dfe Trikala","source":"openstreetmap.org","name:fr":"Route peripherique de Trikala","int_name":"Trikala Ring Road","shield_text":"\u0395\u039f30","ref":"\u0395\u039f30"},"arcs":[[375],[376]]},{"type":"LineString","properties":{"kind":"major_road","network":"GR:national","sort_rank":380,"kind_detail":"primary","source":"openstreetmap.org","min_zoom":8.0,"landuse_kind":"residential","shield_text":"\u0395\u039f38","ref":"EO38"},"arcs":[377]},{"type":"LineString","properties":{"kind":"major_road","int_name":"Larisa - Trikala","network":"GR:national","sort_rank":381,"kind_detail":"trunk","source":"openstreetmap.org","min_zoom":8.0,"shield_text":"\u0395\u039f6","id":358604153},"arcs":[378]},{"type":"MultiLineString","properties":{"kind":"highway","int_name":"Egnatia Odos","network":"e-road","sort_rank":383,"kind_detail":"motorway","min_zoom":8.0,"name:de":"Dyo Korifon Tunnel","source":"openstreetmap.org","name:fr":"Dyo Korifon Tunnel","name:en":"Egnatia Motorway","all_networks":["e-road","e-road","GR:motorway"],"shield_text":"90","ref":"\u03912","all_shield_texts":["90","92","\u03912"]},"arcs":[[379],[380]]},{"type":"LineString","properties":{"kind":"major_road","int_name":"Trikala - Panagia","network":"e-road","sort_rank":381,"kind_detail":"trunk","source":"openstreetmap.org","min_zoom":8.0,"shield_text":"92"},"arcs":[381]},{"type":"MultiLineString","properties":{"kind":"highway","int_name":"Egnatia Odos","network":"e-road","sort_rank":383,"kind_detail":"motorway","name:fr":"Tunnel Malakasi B","name:de":"Tunnel Malakasi B","source":"openstreetmap.org","min_zoom":8.0,"name:en":"Egnatia Motorway","all_networks":["e-road","e-road","GR:motorway"],"shield_text":"90","ref":"\u03912","all_shield_texts":["90","92","\u03912"]},"arcs":[[382],[383]]},{"type":"LineString","properties":{"kind":"major_road","network":"GR:national","sort_rank":380,"kind_detail":"primary","source":"openstreetmap.org","min_zoom":8.0,"landuse_kind":"urban_area","shield_text":"\u0395\u039f38","id":271073057},"arcs":[384]},{"type":"LineString","properties":{"kind":"major_road","name:en":"Larisa - Trikala Highway","network":"GR:national","sort_rank":381,"kind_detail":"trunk","source":"openstreetmap.org","min_zoom":8.0,"shield_text":"\u0395\u039f6","ref":"\u0395\u039f6","id":223058835},"arcs":[385]},{"type":"MultiLineString","properties":{"kind":"major_road","int_name":"Larisa - Leptokarya","network":"GR:national","sort_rank":380,"kind_detail":"primary","source":"openstreetmap.org","min_zoom":8.0,"shield_text":"\u0395\u039f1","ref":"\u0395\u039f1"},"arcs":[[386],[387],[388],[389],[390],[391],[392],[393],[394],[395],[396],[397],[398],[399]]},{"type":"MultiLineString","properties":{"kind":"highway","int_name":"Egnatia Odos","network":"e-road","sort_rank":383,"kind_detail":"motorway","min_zoom":8.0,"name:de":"Autobahn 2 (Egnatia Odos)","source":"openstreetmap.org","name:fr":"Autoroute 2 (Egnatia Odos)","name:en":"Egnatia Motorway","all_networks":["e-road","e-road","GR:motorway"],"shield_text":"90","ref":"\u03912","all_shield_texts":["90","92","\u03912"]},"arcs":[[400],[401],[402],[403],[404],[405],[406],[407],[408],[409]]},{"type":"LineString","properties":{"kind":"major_road","name:en":"Neo Monastiri - Farsala","network":"GR:national","sort_rank":380,"kind_detail":"primary","name:fr":"Neo Monastiri - Pharsale","source":"openstreetmap.org","min_zoom":8.0,"int_name":"Neo Monastiri - Farsala","shield_text":"\u0395\u039f30","ref":"\u0395\u039f30","id":230711492},"arcs":[410]},{"type":"MultiLineString","properties":{"kind":"highway","int_name":"Egnatia Odos","network":"e-road","sort_rank":383,"kind_detail":"motorway","min_zoom":8.0,"name:de":"Tunnel Malakasi A","source":"openstreetmap.org","name:fr":"Tunnel Malakasi A","name:en":"Egnatia Motorway","all_networks":["e-road","e-road","GR:motorway"],"shield_text":"90","ref":"\u03912","all_shield_texts":["90","92","\u03912"]},"arcs":[[411],[412]]},{"type":"MultiLineString","properties":{"kind":"major_road","name:en":"Farsala Ring Road","network":"GR:national","sort_rank":380,"kind_detail":"primary","source":"openstreetmap.org","min_zoom":8.0,"shield_text":"\u0395\u039f3","ref":"\u0395\u039f3;\u0395\u039f30"},"arcs":[[413],[414]]},{"type":"MultiLineString","properties":{"kind":"major_road","int_name":"Larisa - Elassona","network":"GR:national","sort_rank":381,"kind_detail":"trunk","source":"openstreetmap.org","min_zoom":8.0,"shield_text":"\u0395\u039f3","ref":"\u0395\u039f3"},"arcs":[[415],[416],[417]]},{"type":"MultiLineString","properties":{"kind":"highway","int_name":"Egnatia Odos","network":"e-road","sort_rank":383,"kind_detail":"motorway","min_zoom":8.0,"name:de":"Tunnel Prionia","source":"openstreetmap.org","name:fr":"Tunnel Prionia","name:en":"Egnatia Motorway","all_networks":["e-road","GR:motorway"],"shield_text":"90","ref":"\u03912","all_shield_texts":["90","\u03912"]},"arcs":[[418],[419]]},{"type":"MultiLineString","properties":{"kind":"highway","name:en":"Athens - Thessaloniki - Evzoni","network":"e-road","sort_rank":383,"landuse_kind":"urban_area","name:fr":"Ath\u00e8nes - Thessalonique - Evzoni","source":"openstreetmap.org","min_zoom":8.0,"int_name":"Athina - Thessaloniki - Evzonoi","all_networks":["e-road","GR:motorway"],"old_name":"\u0391\u03c5\u03c4\u03bf\u03ba\u03b9\u03bd\u03b7\u03c4\u03cc\u03b4\u03c1\u03bf\u03bc\u03bf\u03c2 \u03a0\u0391\u0398\u0395","shield_text":"75","kind_detail":"motorway","ref":"\u03911","all_shield_texts":["75","\u03911"]},"arcs":[[420],[421]]},{"type":"MultiLineString","properties":{"int_name":"Gefyra Sperchiou","min_zoom":8.0,"alt_name:en":"Athens \u2013 Thessaloniki \u2013 Evzoni","old_name":"\u0391\u03c5\u03c4\u03bf\u03ba\u03b9\u03bd\u03b7\u03c4\u03cc\u03b4\u03c1\u03bf\u03bc\u03bf\u03c2 \u03a0\u0391\u0398\u0395","alt_name:fr":"Ath\u00e8nes - Thessalonique - Evzoni","kind":"highway","name:en":"Spercheios Bridge","network":"e-road","sort_rank":383,"kind_detail":"motorway","name:de":"Sperchios Br\u00fccke","source":"openstreetmap.org","name:fr":"Pont Sperchios","all_networks":["e-road","e-road","GR:motorway"],"shield_text":"65","ref":"\u03911","all_shield_texts":["65","75","\u03911"]},"arcs":[[422],[423]]},{"type":"LineString","properties":{"kind":"major_road","network":"GR:national","sort_rank":380,"kind_detail":"primary","source":"openstreetmap.org","min_zoom":8.0,"landuse_kind":"urban_area","shield_text":"\u0395\u039f3","ref":"\u0395\u039f3;\u0395\u039f38"},"arcs":[424]},{"type":"LineString","properties":{"kind":"major_road","int_name":"Lamias","network":"GR:national","sort_rank":380,"kind_detail":"primary","source":"openstreetmap.org","min_zoom":8.0,"shield_text":"\u0395\u039f3","ref":"\u0395\u039f3;\u0395\u039f30"},"arcs":[425]},{"type":"MultiLineString","properties":{"kind":"highway","int_name":"Egnatia Odos","network":"e-road","sort_rank":383,"kind_detail":"motorway","name:fr":"Votonosi Tunnel","name:de":"Votonosi Tunnel","source":"openstreetmap.org","min_zoom":8.0,"name:en":"Egnatia Motorway","all_networks":["e-road","e-road","GR:motorway"],"shield_text":"90","ref":"\u03912","all_shield_texts":["90","92","\u03912"]},"arcs":[[426],[427]]},{"type":"MultiLineString","properties":{"kind":"major_road","int_name":"Neo Monastiri - Karditsa","network":"GR:national","sort_rank":380,"kind_detail":"primary","source":"openstreetmap.org","min_zoom":8.0,"shield_text":"\u0395\u039f30","ref":"\u0395\u039f30"},"arcs":[[428],[429],[430],[431],[432],[433],[434],[435],[436],[437],[438],[439],[440],[441],[442],[443],[444],[445],[446],[447],[448],[449],[450],[451],[452],[453],[454]]},{"type":"MultiLineString","properties":{"kind":"highway","int_name":"Egnatia Odos","network":"e-road","sort_rank":383,"kind_detail":"motorway","name:fr":"Metsovo Tunnel","name:de":"Metsovo Tunnel","source":"openstreetmap.org","min_zoom":8.0,"name:en":"Egnatia Motorway","all_networks":["e-road","e-road","GR:motorway"],"shield_text":"90","ref":"\u03912","all_shield_texts":["90","92","\u03912"]},"arcs":[[455],[456]]},{"type":"MultiLineString","properties":{"sort_rank":380,"kind_detail":"primary","min_zoom":8.0,"kind":"major_road","source":"openstreetmap.org"},"arcs":[[457],[458],[459]]},{"type":"LineString","properties":{"kind":"major_road","int_name":"Lamia - Karpenisi","network":"GR:national","sort_rank":380,"kind_detail":"primary","source":"openstreetmap.org","min_zoom":8.0,"shield_text":"\u0395\u039f38","ref":"\u0395\u039f38"},"arcs":[460]},{"type":"LineString","properties":{"kind":"major_road","name:en":"Konstantinou Karamanli","network":"GR:national","sort_rank":380,"kind_detail":"primary","source":"openstreetmap.org","min_zoom":8.0,"shield_text":"\u0395\u039f1\u03b1","ref":"\u0395\u039f1\u03b1"},"arcs":[461]},{"type":"MultiLineString","properties":{"kind":"major_road","network":"GR:national","sort_rank":380,"kind_detail":"primary","source":"openstreetmap.org","min_zoom":8.0,"shield_text":"\u0395\u039f38","ref":"EO38"},"arcs":[[462],[463],[464],[465],[466]]},{"type":"MultiLineString","properties":{"kind":"major_road","int_name":"Trikala - Panagia","network":"GR:national","sort_rank":381,"kind_detail":"trunk","source":"openstreetmap.org","min_zoom":8.0,"shield_text":"\u0395\u039f6","ref":"\u0395\u039f6"},"arcs":[[467],[468],[469],[470],[471],[472],[473],[474]]},{"type":"LineString","properties":{"kind":"highway","int_name":"Siranga Agiou Nikolaou","network":"e-road","sort_rank":383,"kind_detail":"motorway","min_zoom":8.0,"name:de":"Agios Nikolaos Tunnel","source":"openstreetmap.org","name:fr":"Tunnel d'Agios Nikolaos","name:en":"Agios Nikolaos Tunnel","all_networks":["e-road","e-road","GR:motorway"],"shield_text":"90","ref":"\u03912","id":481292339,"all_shield_texts":["90","92","\u03912"]},"arcs":[475]},{"type":"LineString","properties":{"kind":"major_road","int_name":"Tymfristos Tunnel","network":"GR:national","sort_rank":380,"kind_detail":"primary","min_zoom":8.0,"name:de":"Tymfristos Tunnel","source":"openstreetmap.org","name:fr":"Tunel Tymfristos","name:en":"Tymfristos Tunnel","shield_text":"\u0395\u039f38","ref":"EO38","id":26167372},"arcs":[476]},{"type":"MultiLineString","properties":{"kind":"major_road","name:en":"Volou","network":"GR:national","sort_rank":380,"kind_detail":"primary","name:fr":"Volou","source":"openstreetmap.org","min_zoom":8.0,"int_name":"Volou","shield_text":"\u0395\u039f6","ref":"\u0395\u039f6"},"arcs":[[477],[478],[479],[480],[481]]},{"type":"MultiLineString","properties":{"kind":"highway","name:en":"Egnatia Motorway","network":"e-road","sort_rank":383,"kind_detail":"motorway","name:fr":"Pont Megalorevma","name:de":"Megalorevma Br\u00fccke","source":"openstreetmap.org","min_zoom":8.0,"int_name":"Egnatia Odos","all_networks":["e-road","e-road","GR:motorway"],"shield_text":"90","ref":"\u03912","all_shield_texts":["90","92","\u03912"]},"arcs":[[482],[483]]},{"type":"LineString","properties":{"kind":"major_road","name:en":"Georgiou Gennimata","network":"GR:national","sort_rank":380,"kind_detail":"primary","source":"openstreetmap.org","min_zoom":8.0,"shield_text":"\u0395\u039f38","ref":"\u0395\u039f38","id":195247075},"arcs":[484]},{"type":"LineString","properties":{"kind":"major_road","name:en":"Episkopi bridge","network":"GR:national","sort_rank":380,"kind_detail":"primary","min_zoom":8.0,"name:de":"Episkopi-Br\u00fccke","source":"openstreetmap.org","name:fr":"Pont Episkopi","shield_text":"\u0395\u039f38","ref":"EO38","id":20956184},"arcs":[485]},{"type":"MultiLineString","properties":{"kind":"major_road","name:en":"Larisa branch","network":"GR:national","sort_rank":380,"kind_detail":"primary","source":"openstreetmap.org","min_zoom":8.0,"shield_text":"\u0395\u039f1\u03b1","ref":"\u0395\u039f1\u03b1"},"arcs":[[486],[487],[488],[489],[490],[491],[492],[493],[494],[495]]},{"type":"MultiLineString","properties":{"kind":"major_road","name:en":"Iroon Politechniou","network":"GR:national","sort_rank":381,"kind_detail":"trunk","min_zoom":8.0,"name:de":"Iroon Politechniou","source":"openstreetmap.org","name:fr":"Iroon Politechniou","shield_text":"\u0395\u039f3","ref":"\u0395\u039f3;\u0395\u039f6"},"arcs":[[496],[497],[498]]},{"type":"MultiLineString","properties":{"kind":"major_road","network":"GR:national","sort_rank":380,"kind_detail":"primary","source":"openstreetmap.org","min_zoom":8.0,"landuse_kind":"urban_area","shield_text":"\u0395\u039f3"},"arcs":[[499],[500],[501],[502]]},{"type":"MultiLineString","properties":{"kind":"highway","name:en":"Athens - Thessaloniki - Evzoni","network":"e-road","sort_rank":383,"kind_detail":"motorway","name:fr":"Ath\u00e8nes - Thessalonique - Evzoni","source":"openstreetmap.org","min_zoom":8.0,"int_name":"Athina - Thessaloniki - Evzonoi","all_networks":["e-road","e-road","GR:motorway"],"old_name":"\u0391\u03c5\u03c4\u03bf\u03ba\u03b9\u03bd\u03b7\u03c4\u03cc\u03b4\u03c1\u03bf\u03bc\u03bf\u03c2 \u03a0\u0391\u0398\u0395","shield_text":"75","ref":"\u03911","all_shield_texts":["75","92","\u03911"]},"arcs":[[503],[504]]},{"type":"MultiLineString","properties":{"kind":"highway","int_name":"Egnatia Odos","network":"e-road","sort_rank":383,"kind_detail":"motorway","name:fr":"Tunnel Agia Paraskevi","name:de":"Tunnel Agia Paraskevi","source":"openstreetmap.org","min_zoom":8.0,"name:en":"Egnatia Motorway","all_networks":["e-road","GR:motorway"],"landuse_kind":"park","shield_text":"90","ref":"\u03912","all_shield_texts":["90","\u03912"]},"arcs":[[505],[506]]},{"type":"MultiLineString","properties":{"int_name":"Gefyra Sperchiou","min_zoom":8.0,"alt_name:en":"Athens \u2013 Thessaloniki \u2013 Evzoni","old_name":"\u0391\u03c5\u03c4\u03bf\u03ba\u03b9\u03bd\u03b7\u03c4\u03cc\u03b4\u03c1\u03bf\u03bc\u03bf\u03c2 \u03a0\u0391\u0398\u0395","alt_name:fr":"Ath\u00e8nes - Thessalonique - Evzoni","kind":"highway","name:en":"Spercheios Bridge","network":"e-road","sort_rank":383,"landuse_kind":"urban_area","name:de":"Sperchios Br\u00fccke","source":"openstreetmap.org","name:fr":"Pont Sperchios","all_networks":["e-road","e-road","GR:motorway"],"kind_detail":"motorway","shield_text":"65","ref":"\u03911","all_shield_texts":["65","75","\u03911"]},"arcs":[[507],[508]]},{"type":"MultiLineString","properties":{"kind":"major_road","name:en":"Neo Monastiri - Farsala","network":"GR:national","sort_rank":380,"kind_detail":"primary","min_zoom":8.0,"source":"openstreetmap.org","name:fr":"Neo Monastiri - Pharsale","int_name":"Neo Monastiri - Farsala","shield_text":"\u0395\u039f3","ref":"\u0395\u039f3;\u0395\u039f30"},"arcs":[[509],[510],[511]]},{"type":"MultiLineString","properties":{"kind":"major_road","network":"GR:national","sort_rank":380,"kind_detail":"primary","source":"openstreetmap.org","min_zoom":8.0,"shield_text":"\u0395\u039f30","ref":"\u0395\u039f30"},"arcs":[[512],[513],[514],[515],[516],[517],[518]]},{"type":"LineString","properties":{"kind":"major_road","int_name":"Stratou","network":"GR:national","sort_rank":380,"kind_detail":"primary","source":"openstreetmap.org","min_zoom":8.0,"landuse_kind":"nature_reserve","shield_text":"\u0395\u039f5","ref":"\u0395\u039f5","id":123522734},"arcs":[519]},{"type":"MultiLineString","properties":{"kind":"highway","int_name":"Egnatia Odos","network":"e-road","sort_rank":383,"kind_detail":"motorway","min_zoom":8.0,"name:de":"Tunnel Agnanteros","source":"openstreetmap.org","name:fr":"Tunnel Agnanteros","name:en":"Egnatia Motorway","all_networks":["e-road","GR:motorway"],"landuse_kind":"park","shield_text":"90","ref":"\u03912","all_shield_texts":["90","\u03912"]},"arcs":[[520],[521]]},{"type":"MultiLineString","properties":{"kind":"major_road","name:en":"Lamia bypass","network":"GR:national","sort_rank":380,"kind_detail":"primary","source":"openstreetmap.org","min_zoom":8.0,"landuse_kind":"urban_area","shield_text":"\u0395\u039f3","ref":"\u0395\u039f3"},"arcs":[[522],[523],[524]]},{"type":"MultiLineString","properties":{"kind":"highway","int_name":"Egnatia Odos","network":"e-road","sort_rank":383,"kind_detail":"motorway","name:fr":"Tunnel Malakasi C","name:de":"Tunnel Malakasi C","source":"openstreetmap.org","min_zoom":8.0,"name:en":"Egnatia Motorway","all_networks":["e-road","e-road","GR:motorway"],"shield_text":"90","ref":"\u03912","all_shield_texts":["90","92","\u03912"]},"arcs":[[525],[526]]},{"type":"MultiLineString","properties":{"kind":"major_road","name:en":"Larissa - Leptokarya","network":"GR:national","sort_rank":380,"kind_detail":"primary","source":"openstreetmap.org","min_zoom":8.0,"shield_text":"\u0395\u039f1","ref":"\u0395\u039f1"},"arcs":[[527],[528]]}]},"earth":{"type":"GeometryCollection","geometries":[{"type":"MultiPolygon","properties":{"sort_rank":10,"source":"naturalearthdata.com","min_zoom":0.0,"kind":"earth","area":86054996895},"arcs":[[[529]]]}]},"landuse":{"type":"GeometryCollection","geometries":[{"type":"Polygon","properties":{"kind":"aerodrome","area":14746600,"sort_rank":60,"operator":"\u0395\u03bb\u03bb\u03b7\u03bd\u03b9\u03ba\u03ae \u03a0\u03bf\u03bb\u03b5\u03bc\u03b9\u03ba\u03ae \u0391\u03b5\u03c1\u03bf\u03c0\u03bf\u03c1\u03af\u03b1","source":"openstreetmap.org","min_zoom":8.0,"tier":3,"id":31845869},"arcs":[[530]]},{"type":"Polygon","properties":{"source":"openstreetmap.org","kind":"park","area":3313639936,"tier":2,"id":137321318,"min_zoom":4.0,"sort_rank":24},"arcs":[[531]]},{"type":"MultiPolygon","properties":{"source":"openstreetmap.org","kind":"nature_reserve","tier":2,"area":606482614,"sort_rank":23,"min_zoom":7.0},"arcs":[[[532]]]},{"type":"MultiPolygon","properties":{"source":"naturalearthdata.com","kind":"urban_area","name":"","area":556341144,"sort_rank":11,"min_zoom":4.0},"arcs":[[[533]],[[534]]]},{"type":"Polygon","properties":{"kind":"residential","area":12626700,"sort_rank":20,"source":"openstreetmap.org","min_zoom":8.0,"tier":2,"id":-4089761,"osm_relation":true},"arcs":[[535]]},{"type":"MultiPolygon","properties":{"source":"openstreetmap.org","kind":"residential","tier":2,"area":24604192,"sort_rank":20,"min_zoom":8.0},"arcs":[[[536]]]},{"type":"MultiPolygon","properties":{"source":"openstreetmap.org","kind":"nature_reserve","tier":2,"area":4350283465,"sort_rank":23,"min_zoom":8.0},"arcs":[[[537]],[[538]],[[539]],[[540]],[[541]],[[542]],[[543]],[[544]],[[545]],[[546]],[[547]],[[548]],[[549]],[[550]],[[551]],[[552]],[[553]],[[554]],[[555]],[[556]],[[557]],[[558]],[[559]],[[560]],[[561]],[[562]],[[563]],[[564]],[[565]],[[566]],[[567]],[[568]],[[569]],[[570]],[[571]],[[572]],[[573]],[[574]],[[575]],[[576]],[[577]],[[578]],[[579]],[[580]],[[581]],[[582]],[[583]],[[584]]]},{"type":"MultiPolygon","properties":{"source":"openstreetmap.org","kind":"nature_reserve","tier":2,"area":838953176,"sort_rank":23,"min_zoom":6.0},"arcs":[[[585]]]},{"type":"MultiPolygon","properties":{"source":"openstreetmap.org","kind":"park","tier":2,"area":890666340,"sort_rank":24,"min_zoom":6.0},"arcs":[[[586]],[[587]]]}]}},"type":"Topology","transform":{"translate":[21.09375,38.8225909762],"scale":[0.0003433228,0.0002654163]},"arcs":[[[1392,0],[-18,35],[26,63],[132,8],[2,-40],[49,118],[-181,65],[-197,2],[-42,191],[52,100],[-60,14],[-75,62],[-104,22],[-46,59],[-108,28],[2,59],[60,67],[70,13],[-32,31],[18,2],[-7,52],[64,118],[-81,51],[-39,69],[6,99],[-70,38]],[[813,1326],[-144,-52],[3,-56],[-156,-108],[-109,55],[-90,-30],[-33,45],[-34,-34],[-180,-23],[-68,-77],[43,-53],[-45,-14]],[[0,937],[43,-83],[-35,-102],[2,-82],[-10,-14]],[[2359,4096],[-9,-25],[54,-154],[-21,-61],[-8,20],[-222,40],[-127,-60],[-73,39],[-57,-5],[-19,51],[-55,18],[-55,-64],[-64,-5],[-65,44],[-9,44],[-98,-36],[-112,98],[-65,-32],[-102,51],[-113,-41],[-34,43],[-90,-30],[-31,12],[-64,-80],[42,-7],[-24,-57],[15,-24],[-89,-30],[-18,-41],[-51,27],[-89,-30],[-37,58],[-14,85],[-81,-65],[-81,-1],[6,-56],[-50,-86],[10,-25],[-73,-13],[22,-185],[-22,-81],[60,-34],[22,-61],[-13,-43],[-40,-3],[-26,46],[-47,2],[-26,30],[-55,-21],[-47,25],[-25,-66],[-40,-9],[-16,-43],[-49,-9],[0,-55],[94,-80],[-6,-114],[82,-6],[12,-25],[53,-331],[-38,-22],[-27,-62],[100,-3],[1,-67],[-61,-23],[19,-44],[79,-99],[115,-79],[28,-81],[-10,-64],[111,-81],[13,19],[209,-21],[36,-101],[28,-3],[17,-43],[-5,-66],[44,-14],[-53,-130],[-121,-93],[-61,-97],[14,-74],[56,-61]],[[3807,0],[-33,31],[22,88],[-43,119],[-65,48],[35,103],[-117,85],[-37,-6],[-60,74],[-39,-36],[-59,85],[-31,-101],[0,64],[-43,5],[9,125],[-34,16],[-15,53],[20,51],[-74,91],[-133,273],[39,34],[60,-10],[15,25],[47,2],[32,-33],[40,35],[64,-2],[78,36],[9,38],[-201,784],[19,150],[402,495],[93,74],[-18,138],[109,125],[53,122],[78,335],[67,157]],[[3807,0],[-33,31],[22,88],[-43,119],[-65,48],[35,103],[-117,85],[-37,-6],[-60,74],[-39,-36],[-59,85],[-31,-101],[0,64],[-43,5],[9,125],[-34,16],[-15,53],[20,51],[-74,91],[-133,273],[39,34],[60,-10],[15,25],[47,2],[32,-33],[40,35],[64,-2],[78,36],[9,38],[-201,784],[19,150],[404,496],[91,73],[-18,140],[109,123],[53,122],[79,335],[66,157]],[[0,880],[122,-123],[71,-97],[2,-89],[-24,10],[-22,-20],[-9,-34],[16,-31],[-21,-49],[5,-39],[37,-66],[13,-10],[13,4],[10,-3],[8,-57],[10,-18],[24,-21],[-11,-36],[-14,-9],[-17,6],[-18,11],[-1,10],[-68,82],[-47,29],[-54,2],[-25,-19],[0,567]],[[0,296],[16,-36],[0,-23],[-16,-13],[0,72]],[[0,224],[16,13],[0,23],[-16,36]],[[0,313],[25,19],[54,-2],[47,-29],[68,-82],[1,-10],[18,-11],[17,-6],[14,9],[11,36],[-24,21],[-10,18],[-8,57],[-10,3],[-13,-4],[-13,10],[-37,66],[-5,39],[21,49],[-16,31],[9,34],[22,20],[24,-10],[-2,89],[-71,97],[-122,123]],[[736,4024],[12,29]],[[748,4054],[-12,-27]],[[3862,3046],[-1,0]],[[3862,3044],[3,-5]],[[209,100],[2,49]],[[210,87],[-1,9]],[[2063,2765],[-1,0]],[[3919,3151],[-2,-6]],[[3922,3157]],[[3922,3158]],[[2059,340],[-17,11]],[[2028,352]],[[207,3654],[22,22]],[[391,3686],[14,17],[22,-15]],[[430,3688],[50,3]],[[3922,272],[-5,-3]],[[3917,269],[5,3]],[[3923,272],[-1,0]],[[3922,272]],[[3922,272],[1,0]],[[3923,272]],[[3923,272],[30,-11]],[[3952,262],[-29,10]],[[3841,264],[-6,-2]],[[202,163],[-5,11]],[[202,163],[9,-9]],[[212,154],[-1,0]],[[211,154],[1,0]],[[3824,3052],[4,1]],[[3826,3054],[0,-1]],[[1903,2825],[1,-1],[0,1],[-1,0]],[[2119,2804],[1,-1],[1,0],[0,1],[-2,0]],[[2120,2807],[0,-1],[1,1],[-1,0]],[[663,3737],[-66,-90]],[[601,3648],[62,88]],[[730,3984],[-2,-16]],[[728,3968],[3,16]],[[3385,3770],[-25,81]],[[3404,3734],[57,-54]],[[213,154]],[[53,3529],[22,-9]],[[76,3521],[-22,9]],[[4037,3406],[20,-95],[4,-14],[35,-100]],[[4096,3198],[-59,208]],[[4096,2965],[-51,-117]],[[4096,287],[-51,-28]],[[4046,259],[50,28]],[[4050,2831],[46,133]],[[3266,2993],[6,-1]],[[3272,2993],[-6,0]],[[1505,520],[-2,3]],[[1561,508],[-52,7]],[[1642,548],[-77,-47]],[[213,154]],[[213,154]],[[213,154],[8,4]],[[3892,3008],[0,1],[0,1],[-1,-1],[1,-1]],[[3755,255],[62,2]],[[260,294],[0,-5],[27,-70]],[[287,219],[11,-29],[-2,-7]],[[296,183],[-4,-13]],[[292,170],[-3,-10],[-57,-21]],[[232,139],[-5,-2],[7,-18]],[[234,119],[21,-53],[3,-8]],[[258,58],[26,-58]],[[284,0],[-25,56],[-1,2]],[[258,58],[-22,43],[-2,18]],[[234,119],[-2,20]],[[232,139],[-1,5],[61,26]],[[292,170],[7,3],[-3,10]],[[296,183],[-9,36]],[[287,219],[-6,25],[-20,49]],[[4093,3677]],[[3882,269],[1,1]],[[211,149],[1,4]],[[100,3519],[-18,2]],[[82,3521],[17,-2]],[[729,4010],[0,-14]],[[730,3999],[0,11]],[[1331,3451],[-68,185],[130,182],[-16,197],[13,81]],[[1978,2804],[-16,6]],[[1978,2804],[18,-6]],[[1996,2798],[20,-32]],[[2016,2766],[13,-3]],[[2036,2762],[-7,1]],[[3964,206],[-1,-1]],[[3963,204],[2,0]],[[3835,262],[6,2]],[[3841,264]],[[3841,264]],[[3881,266],[-1,0]],[[3880,266],[-2,-1],[-23,0]],[[3855,265],[-7,1],[-7,-2]],[[3841,264]],[[3841,264],[7,1],[7,0]],[[3855,265],[25,1]],[[3880,266],[1,0]],[[3886,272],[1,-1]],[[3887,271],[6,-2],[12,-2],[12,2]],[[3917,269],[-30,2]],[[0,223],[38,77],[127,-36],[32,-90]],[[3851,401],[-1,0]],[[3953,261],[-1,1]],[[3835,262],[-18,-5]],[[3977,172],[4,-15],[14,-30]],[[3995,127],[-18,43]],[[2028,352],[6,2]],[[685,3799],[-16,-50]],[[670,3748],[16,51]],[[1904,2824],[1,0]],[[1905,2824],[-1,0]],[[1962,2810],[-57,14]],[[2041,2762],[-5,0]],[[1903,2824],[-39,-53],[31,-107]],[[1895,2664],[-30,107],[38,52]],[[2025,2683],[2,3]],[[3891,3060]],[[1084,2706],[88,94],[144,-285],[51,-160],[45,10]],[[1412,2365],[7,-4]],[[1660,2507],[35,-9],[-49,-81],[-181,-27],[-46,-29]],[[1660,2507],[85,149],[43,3],[2,-1]],[[1790,2658],[24,-19]],[[1814,2639],[2,-1],[32,6]],[[1848,2644],[-34,-5]],[[1814,2639],[-3,0],[-21,19]],[[1790,2658],[-2,2],[-43,-4],[-85,-149]],[[1850,2644],[-2,0]],[[1850,2644],[10,5]],[[1891,2661],[-31,-12]],[[1891,2661],[3,2]],[[1895,2664],[-4,-3]],[[1983,2643],[-51,-14],[-37,35]],[[1930,2629],[2,0],[51,14]],[[2083,327],[26,-3]],[[2134,321],[13,-1]],[[2147,320],[2,-1]],[[2274,257],[-43,59],[-82,3]],[[2951,437],[-39,-32],[-159,29],[-49,-34],[-121,12]],[[4007,2874],[-70,56]],[[4007,2874],[32,-16]],[[4040,2858],[-33,16]],[[701,3880],[-1,-12]],[[701,3873],[1,7]],[[705,3917],[-2,-20]],[[704,3897],[2,20]],[[718,3948],[-5,-8]],[[714,3939],[4,6]],[[736,4027],[-7,-17]],[[730,4010],[6,14]],[[0,974],[45,-28],[7,-38],[60,-61],[20,-11],[10,-60],[12,-23],[45,-62],[24,-52],[12,-80],[36,-51],[3,-1],[-14,-143],[0,-70]],[[261,293],[13,215],[-38,51],[-13,80],[-90,197],[-80,72],[-8,38],[-45,35]],[[3760,1817],[-1,-8]],[[3822,1985],[-76,-108],[14,-60]],[[3760,1809],[0,8]],[[3822,1985],[9,11]],[[3920,2922],[65,-108],[40,-204],[-20,-144],[-90,-62],[-24,-311],[-60,-97]],[[2042,351],[-8,3]],[[700,3858],[-2,-13]],[[699,3847],[1,10]],[[3439,1562],[5,-6]],[[3444,1556],[-4,5]],[[3547,1135],[7,83],[-29,-4],[-32,48],[8,93],[-57,201]],[[3550,972],[-20,49]],[[3541,1087],[6,37]],[[3547,1124],[0,11]],[[3663,831],[-110,137]],[[3663,831],[8,-9]],[[3706,781],[-35,41]],[[3706,781],[5,-9]],[[3726,630],[-14,39],[28,48],[-29,55]],[[3726,630],[10,-7]],[[3849,402],[-22,66],[-43,12],[-48,143]],[[3861,3046],[1,-2]],[[3865,3039],[-3,7]],[[3896,2976],[-27,56]],[[3908,2944],[-13,32]],[[3908,2944],[10,-20],[2,-2],[-8,16],[-4,6]],[[2109,324],[25,-3]],[[3881,266]],[[0,3542],[31,19],[144,-59],[41,66]],[[220,3571],[21,-11],[0,29],[-48,24],[14,41]],[[220,3571],[-4,-3]],[[229,3676],[158,-44],[4,54]],[[427,3688],[3,0]],[[480,3691],[47,9],[23,-27],[20,25],[42,-3],[39,-42]],[[651,3653],[0,-1]],[[652,3652],[-1,1]],[[2120,2806],[0,-2]],[[2121,2804],[-1,2]],[[1896,2662],[34,-33]],[[2063,2763],[-20,-47]],[[2043,2716],[18,25],[2,23]],[[2319,252],[-38,4]],[[3708,1778],[0,-1]],[[3708,1777],[1,1]],[[3530,1021],[11,66]],[[3553,968],[-3,4]],[[1895,2664],[1,-2]],[[2043,2716],[-16,-30]],[[2027,2686],[16,30]],[[2063,2765],[0,-2]],[[4096,3683],[-72,-178],[-1,-13],[3,-32],[11,-54]],[[4037,3406],[-14,92],[73,183]],[[237,169],[1,1]],[[2031,2682],[-4,4]],[[2028,2685],[3,-3]],[[2031,2682],[137,-108],[0,-81],[66,-130]],[[2275,2291],[40,-84]],[[2356,2145],[13,-24]],[[2369,2121],[3,-5]],[[2371,2117],[-2,4]],[[3759,3056],[0,-1]],[[3811,2990],[102,-59]],[[3913,2931],[4,0]],[[3917,2931],[28,-7]],[[0,940],[196,-313],[47,-216]],[[240,0],[-30,87]],[[236,218],[-16,124],[26,19],[-2,39]],[[238,171],[0,36]],[[243,411],[1,-11]],[[4016,3479],[2,0]],[[2378,324],[-61,-46],[2,-26]],[[2430,342],[-45,-17]],[[3997,123],[65,-123]],[[4062,0],[-64,123]],[[253,3520],[66,23]],[[319,3544],[-65,-24]],[[3954,281],[0,11]],[[3954,281],[1,-18]],[[3955,261],[-1,20]],[[3209,4037],[-27,5]],[[3209,4037],[-24,7]],[[3227,4035],[-18,2]],[[3831,3118],[-20,-25],[-3,-23],[3,-9],[6,-4],[9,-4]],[[3826,3054],[-18,16],[24,47]],[[3832,3118],[-1,0]],[[3831,3118],[1,-1]],[[3832,3117],[1,0]],[[3885,3103],[-53,15]],[[3833,3117],[-1,1]],[[3833,3117],[52,-14]],[[3885,3103]],[[238,207],[-2,11]],[[238,170],[0,1]],[[2448,2111],[-75,5]],[[2373,2116],[75,-5]],[[2448,2111],[19,-66]],[[2467,2045],[1,-3]],[[2467,2044],[0,1]],[[224,3531],[12,-3]],[[236,3529],[-11,2]],[[2041,2762],[22,2],[14,37],[43,2]],[[2119,2804],[-42,-2],[-14,-36]],[[3266,2993],[-61,-73],[-39,-10],[-8,-3],[-48,-19],[-10,-2],[-36,2]],[[3064,2888],[-42,2],[-5,3]],[[3017,2893],[-1,0],[-6,5],[-18,11],[-7,1],[-5,1]],[[2980,2911],[-14,3]],[[2966,2914],[-25,5],[-94,-50],[-132,-11],[-33,-9],[-87,-32],[-39,-21],[-119,3],[-204,-13],[-15,3],[-90,15],[-7,0]],[[2121,2803],[111,-17],[305,7],[19,3],[125,53],[164,19],[10,3],[25,14],[86,29]],[[2966,2914],[1,1],[13,-4]],[[2980,2911],[5,-1],[2,0],[5,-2],[24,-15],[1,0]],[[3017,2893],[47,-5]],[[3064,2888],[29,-3],[17,3],[57,22],[38,9],[61,74]],[[3272,2992],[2,-1],[3,-1]],[[3277,2990],[12,-7]],[[3289,2983],[30,-18],[152,47],[26,16]],[[3497,3028],[-26,-15],[-105,-28],[-4,-3],[-4,-3],[-69,4]],[[3289,2983],[-3,0],[-9,7]],[[3277,2990],[-2,2],[-3,1]],[[3497,3028],[104,21]],[[3601,3049],[22,-2]],[[3623,3047],[42,-1]],[[3759,3056],[-22,1],[-72,-11]],[[3665,3046],[9,0],[25,1],[38,9],[21,-1]],[[159,3503],[34,10]],[[193,3514],[-34,-11]],[[194,3515],[20,14]],[[3227,4035],[133,-93],[0,-91]],[[3385,3770],[19,-36]],[[3461,3680],[37,-149]],[[3496,3514],[2,17]],[[3496,3514],[19,-72]],[[3515,3442],[1,-2],[6,-11],[7,-10],[17,-31]],[[3546,3388],[-10,23],[-21,31]],[[3546,3388],[6,-11]],[[1894,2663],[1,1]],[[1571,3313],[-34,12],[-12,-7],[45,-5]],[[3440,1563],[-1,-1]],[[3938,3048],[-1,0]],[[2983,424],[-1,0]],[[214,3529],[10,2]],[[223,3531],[-7,0]],[[236,3528]],[[237,3528],[-1,1]],[[253,3520]],[[254,3520],[-1,1]],[[3182,4042],[3,2]],[[1689,3162],[-24,32],[-55,73],[56,-74],[23,-31]],[[1698,3149],[-9,13]],[[1698,3149],[168,-236]],[[1866,2913],[-6,9],[-77,112],[-85,115]],[[1866,2913],[8,-28]],[[1874,2885],[8,-18]],[[1882,2867],[20,-39]],[[3758,3055],[11,-1]],[[3769,3054],[-10,1]],[[3769,3054],[57,-1]],[[2468,2042],[2,0]],[[2063,2766],[0,-1]],[[213,154]],[[669,3749],[-6,-12]],[[663,3736],[7,12]],[[698,3845],[-7,-20],[-6,-26]],[[686,3799],[13,48]],[[700,3868],[0,-10]],[[700,3857],[1,16]],[[718,3945],[10,23]],[[728,3968],[-10,-20]],[[761,4096],[-13,-42]],[[748,4053],[14,43]],[[3955,261],[3,-45],[11,-27]],[[3969,190],[-14,71]],[[2982,423],[144,48]],[[3103,470],[-55,-20],[-40,-17],[-25,-9]],[[3139,471],[53,-3],[-53,4],[-30,-1]],[[7,3538],[11,7]],[[18,3545],[-8,-4]],[[2060,340],[3,-1]],[[221,158],[16,11]],[[216,3531],[-23,-16]],[[3935,271]],[[3850,401],[19,3]],[[3869,404],[-18,-3]],[[3880,400],[-11,4]],[[3955,261],[-2,0]],[[4039,2858],[6,-10]],[[3759,3053],[52,-63]],[[3179,4096],[6,-52]],[[3886,3101],[8,-36],[-37,-19],[37,18],[-8,37]],[[10,3541],[-10,-8]],[[0,3526],[7,12]],[[54,3530],[-11,8],[-25,7]],[[18,3545],[35,-16]],[[75,3520],[7,1]],[[82,3521],[-6,0]],[[156,3503],[3,0]],[[159,3503],[-3,1]],[[193,3515],[0,-1]],[[193,3513],[1,2]],[[597,3647],[-23,-20]],[[574,3626],[27,22]],[[3924,2950]],[[486,3636],[-14,-19]],[[473,3616],[14,19]],[[462,3587],[1,0]],[[1226,0],[67,67],[34,2],[-12,83],[40,20],[3,37],[121,5]],[[1503,523],[7,-72],[-27,-71],[30,-97],[-31,-48]],[[1509,515],[-4,5]],[[1565,501],[-4,7]],[[2028,352],[-75,5],[-14,44],[-112,-64],[19,33],[-38,55],[11,21],[-99,4],[-16,108],[-24,-33],[-38,23]],[[3955,263],[0,-2]],[[3955,261]],[[236,3528],[17,-8]],[[253,3521],[-16,7]],[[2976,447],[-25,-10]],[[2027,2686],[-44,-43]],[[1983,2643],[11,7],[26,24],[5,9]],[[3883,270],[3,2]],[[2062,2765],[-6,-1]],[[131,3504],[25,-1]],[[156,3504],[-25,1]],[[651,3652],[-31,2]],[[509,3642],[12,-1]],[[520,3642],[-11,1]],[[2059,340],[1,0],[-1,0]],[[3759,3055],[0,1]],[[3909,3062],[-3,-7]],[[3907,3055],[2,7]],[[3911,3081],[-2,-19]],[[3911,3081],[0,12]],[[3911,3093],[11,64]],[[3925,3163],[-3,-6],[-3,-6]],[[3922,3157],[3,6]],[[3945,3188],[-20,-25]],[[3945,3188],[6,13]],[[3951,3201],[23,104]],[[3974,3305],[3,12]],[[3977,3317],[32,132]],[[4009,3449],[6,20]],[[4015,3469],[-6,-20]],[[330,3543],[-11,1]],[[319,3543],[11,-1]],[[451,3584],[-8,-3]],[[444,3579],[15,5]],[[472,3617],[-11,-29]],[[463,3587],[10,29]],[[509,3643],[-23,-7]],[[487,3635],[22,7]],[[569,3626],[-39,22],[-10,-6]],[[521,3641],[9,6],[31,-21],[2,-1],[7,1]],[[3439,1562],[1,1]],[[461,3588],[-10,-4]],[[459,3584],[3,3]],[[3758,1809],[-50,-31]],[[3709,1778],[51,31]],[[3552,3377],[248,-208]],[[3800,3169],[31,-51]],[[3832,3118],[-32,51]],[[729,3996],[1,-12]],[[731,3984],[-1,15]],[[4045,259],[-35,-25],[-25,-33],[-4,-8],[-3,-10],[-1,-11]],[[3977,170],[69,89]],[[3996,125],[1,-2]],[[3998,123],[-2,2]],[[3953,261],[2,0]],[[3708,1777]],[[99,3519],[15,-9]],[[115,3510],[-15,9]],[[2478,2042],[-8,0]],[[2470,2042],[8,0]],[[2478,2042],[73,15]],[[2551,2057],[21,4]],[[2572,2061],[76,14]],[[2648,2075],[12,2]],[[2660,2077],[7,1]],[[2667,2078],[7,0]],[[2674,2079],[-7,-1]],[[2675,2079],[-1,0]],[[2674,2079],[0,-1]],[[2674,2078],[1,1]],[[2692,2084],[-17,-5]],[[2675,2079]],[[2675,2079],[18,4]],[[2694,2083],[13,-25]],[[2707,2058],[-12,26]],[[2707,2058],[165,-94],[73,-76]],[[2960,1881],[-15,7]],[[2994,1834],[-34,47]],[[2994,1834],[18,-24],[7,-6],[7,-2]],[[3026,1802],[128,-31],[1,-1]],[[3155,1770],[-129,32]],[[3026,1802],[-2,1],[-6,2],[-24,29]],[[3155,1770],[46,-30]],[[3201,1740],[133,-132],[104,-45]],[[3438,1563],[-104,45],[-133,132]],[[330,3542],[114,37]],[[443,3581],[-113,-38]],[[212,154],[1,0]],[[2026,2686],[2,-1]],[[3824,1987],[1,1]],[[3801,252],[-17,0]],[[3892,3009],[12,36],[-12,-35]],[[2385,325],[-7,-1]],[[2583,412],[-42,4],[-18,51],[-39,9],[-50,-68],[-4,-66]],[[3109,471],[-6,-1]],[[3126,471],[13,0]],[[3755,255],[-175,88],[-388,125]],[[1316,3452],[-179,64],[-144,116],[-119,-13],[-43,18],[-128,113],[-52,-98]],[[1316,3452],[18,-1]],[[1334,3451],[-7,1],[-11,0]],[[1525,3318],[-102,111],[-51,-11],[-38,33]],[[1570,3313],[19,-12]],[[1589,3301],[-1,2],[-17,10]],[[1610,3267],[-21,34]],[[1904,2825],[-1,0]],[[225,3531],[-2,0]],[[2281,256],[-7,1]],[[3891,3060],[14,-5]],[[3905,3055],[4,-1]],[[3909,3054],[28,-6]],[[3937,3048],[159,-39]],[[4096,3009],[-158,39]],[[114,3510],[17,-6]],[[131,3505],[-16,5]],[[2063,339],[20,-12]],[[1482,235],[-3,-21]],[[3891,3002],[1,6]],[[3892,3008],[-1,-6]],[[3915,2962],[-24,40]],[[3904,3045],[1,4]],[[3905,3049],[2,6]],[[3906,3055],[-1,-6]],[[3915,2962],[13,-19]],[[3924,2950],[-9,12]],[[3928,2943],[-4,7]],[[3937,2930],[-9,13]],[[3826,3053],[27,-7]],[[3853,3046],[-27,8]],[[3853,3046],[4,0]],[[3954,293]],[[3954,293]],[[3954,294],[0,-1]],[[3954,293],[0,1]],[[4045,2848],[2,-8],[25,-79],[24,-27]],[[4096,2734],[-46,97]],[[703,3897],[-2,-17]],[[702,3880],[2,17]],[[3995,127],[1,-2]],[[3996,125],[-1,2]],[[3440,1564],[0,-1]],[[3440,1563],[0,1]],[[3440,1564],[35,47],[98,27],[-3,77],[133,61]],[[2470,2042],[-3,2]],[[2468,2042]],[[3438,1563],[1,-1]],[[3440,1561],[-2,2]],[[2234,2363],[4,-45],[37,-27],[-37,28],[-4,44]],[[2315,2207],[7,-26],[34,-36],[-34,36],[-7,26]],[[2692,2084],[2,-1],[1,1],[-1,1],[-2,-1]],[[209,96],[0,4]],[[713,3940],[-8,-23]],[[706,3917],[8,22]],[[3921,363],[-41,37]],[[3921,363],[12,-8]],[[3954,294],[-21,61]],[[574,3627],[-5,-1]],[[570,3626],[4,0]],[[4016,3479],[77,198]],[[4093,3677],[3,8]],[[4096,4096],[0,-4096],[-4096,0],[0,224],[16,13],[0,23],[-16,36],[0,17],[25,19],[54,-2],[47,-29],[68,-82],[1,-10],[18,-11],[17,-6],[14,9],[11,36],[-24,21],[-10,18],[-8,57],[-10,3],[-13,-4],[-13,10],[-37,66],[-5,39],[21,49],[-16,31],[9,34],[22,20],[24,-10],[-2,89],[-71,97],[-122,123],[0,3216],[4096,0]],[[3915,3118],[40,71],[111,-59],[-82,-36],[-11,-39],[-36,4],[-22,59]],[[752,4096],[-55,-242],[-63,74],[-143,-42],[6,-42],[-54,-125],[43,-28],[-255,-13],[-23,-25],[-208,82],[0,361],[752,0]],[[2118,457],[88,94],[37,114],[-10,61],[75,29],[53,92],[87,55],[27,-160],[-63,-57],[-46,36],[-48,-104],[6,-67],[-81,-51],[54,-72],[81,23],[0,-132],[37,37],[28,-25],[-19,-58],[79,41],[20,-30],[-198,-182],[-47,67],[7,187],[-89,84],[-78,18]],[[4014,125],[-86,3],[-57,157],[-51,49],[80,88],[92,-47],[55,-120],[-33,-130]],[[2156,340],[-39,-33],[-12,27],[-74,8],[-23,76],[132,-19],[30,-23],[-14,-36]],[[3803,303],[17,-36],[63,-1],[-14,86],[26,23],[7,-71],[31,-10],[-4,14],[7,9],[5,-24],[-13,-11],[25,11],[1,-31],[-34,-42],[-99,21],[-18,62]],[[1889,2787],[21,3],[-3,28],[41,-8],[6,-28],[4,27],[42,8],[37,-56],[-53,-49],[-35,9],[-9,-26],[-23,15],[-1,61],[-27,16]],[[3622,0],[39,60],[34,-12],[5,-48],[-78,0]],[[3315,342],[28,61],[142,-38],[-34,-77],[-43,-10],[-91,23],[-2,41]],[[2227,47],[33,83],[-11,31],[28,8],[135,-169],[-166,0],[-19,47]],[[2543,176],[40,67],[127,10],[37,-99],[-160,-21],[-44,43]],[[2782,121],[5,60],[41,52],[5,81],[42,22],[-21,-92],[17,-77],[89,26],[-12,-46],[-58,-36],[-108,10]],[[2167,782],[8,55],[92,-8],[25,25],[51,-38],[-31,-58],[-53,-31],[-72,18],[-20,37]],[[2014,408],[44,73],[-15,5],[-39,76],[5,80],[95,-126],[83,1],[-67,-55],[-17,5],[22,-15],[-19,-68],[-36,-28],[-48,19],[-8,33]],[[3363,588],[6,19],[33,-18],[25,36],[92,-134],[-56,-28],[-36,51],[-43,13],[-21,61]],[[1462,576],[52,63],[-3,31],[89,16],[103,-128],[-24,-32],[-36,23],[-13,-28],[-70,-22],[3,17],[-43,-14],[-17,21],[-20,-23],[-21,76]],[[629,746],[42,30],[110,-82],[156,-46],[62,-72],[-1,-34],[-59,-15],[-71,58],[-63,14],[-103,-19],[-73,166]],[[3573,1307],[142,73],[50,-4],[30,-45],[-30,-58],[-61,-27],[-131,61]],[[336,1269],[135,49],[65,-107],[-3,-56],[-45,10],[-22,57],[-130,47]],[[170,1516],[5,15],[48,-13],[33,-43],[57,6],[-24,46],[57,28],[24,-118],[-90,-73],[-30,92],[-80,60]],[[1333,1438],[45,107],[61,31],[49,-27],[-58,-69],[50,1],[48,-39],[-164,-37],[-31,33]],[[2835,1169],[11,36],[74,14],[62,-22],[-16,-33],[-55,-18],[-76,23]],[[157,860],[14,49],[132,68],[8,-57],[88,-34],[27,-48],[40,2],[-53,-30],[-15,-41],[-33,8],[-66,-40],[-142,123]],[[1319,997],[30,91],[51,2],[6,-106],[-33,-78],[-41,4],[-13,87]],[[1863,1012],[38,85],[60,2],[2,-4],[4,19],[68,2],[51,36],[21,-21],[-40,-22],[-46,-101],[-28,2],[-2,5],[-2,-59],[-126,56]],[[3527,1029],[12,58],[97,10],[24,-19],[7,-97],[-116,-13],[-24,61]],[[3222,1098],[108,33],[78,-31],[19,-41],[-14,-61],[-25,-14],[-107,34],[-59,80]],[[2999,1032],[88,89],[10,-1],[1,-109],[-72,-56],[-27,77]],[[999,1022],[37,21],[15,82],[32,-47],[36,12],[78,104],[26,-45],[-4,-91],[-99,-122],[-36,-28],[-24,47],[-46,-3],[-15,70]],[[1742,1049],[20,103],[-17,69],[35,24],[47,-23],[27,-131],[-52,-23],[8,-81],[-68,62]],[[1208,2067],[61,42],[35,-25],[12,-77],[-70,-32],[-38,92]],[[516,2103],[20,61],[122,21],[14,30],[75,-3],[15,-34],[19,18],[27,-24],[-47,-24],[28,-50],[-35,-24],[-1,-35],[-44,31],[-30,-58],[-60,3],[-103,88]],[[155,2290],[5,84],[90,73],[16,-31],[-28,-9],[-3,-63],[25,-32],[-19,-25],[25,6],[-5,-43],[-81,-60],[10,46],[-35,54]],[[2360,3188],[206,-38],[54,-99],[-18,-43],[-102,-12],[-18,38],[-114,73],[-8,81]],[[2049,3301],[43,24],[149,-24],[-55,-103],[-65,10],[-16,49],[-56,44]],[[460,3293],[42,52],[131,8],[128,-113],[11,-57],[-55,-56],[-76,-20],[-89,44],[-32,100],[-60,42]],[[3221,3383],[17,141],[68,-48],[79,13],[47,-37],[-34,-83],[-99,-28],[-34,-39],[-44,81]],[[1869,3385],[80,14],[30,-63],[-90,-21],[-20,70]],[[1562,3534],[63,67],[40,-45],[7,-55],[-88,2],[-22,31]],[[2944,3504],[89,26],[55,56],[65,-39],[-51,-157],[-103,38],[-55,76]],[[233,3004],[12,55],[75,54],[58,-64],[-7,-100],[-50,-34],[-51,-3],[-37,92]],[[2127,1685],[63,13],[93,-42],[39,25],[12,-18],[-42,-48],[-100,-14],[-12,14],[41,38],[-94,32]],[[0,1586],[0,17],[86,-19],[-59,-10],[-7,-27],[-8,34],[-12,5]],[[1085,1796],[32,30],[129,-21],[13,-109],[-67,-20],[-107,120]],[[654,1791],[48,69],[43,8],[24,-50],[49,-2],[-13,-59],[31,-89],[-35,-24],[-45,45],[-20,-24],[-34,20],[-4,54],[-44,52]],[[0,3954],[0,142],[23,0],[-7,-28],[23,-8],[-32,-33],[0,-43],[63,-35],[-70,5]],[[622,4096],[125,0],[1,-53],[-52,-99],[-60,-16],[-36,98],[-29,18],[12,26],[43,0],[-13,17],[9,9]],[[154,4096],[308,0],[-104,-44],[-57,29],[-138,2],[-9,13]],[[3647,4096],[1,0],[-1,-1],[0,1]],[[3352,3834],[23,47],[46,-24],[62,-273],[-131,250]],[[2087,3707],[36,67],[97,44],[95,-55],[10,-65],[-55,-21],[-60,43],[-97,-31],[-26,18]],[[3081,3764],[55,59],[83,-67],[1,-34],[-52,-52],[9,-40],[-58,26],[-3,63],[-35,45]],[[2575,3707],[79,14],[42,-33],[50,48],[54,12],[34,-85],[-136,-148],[-12,49],[-49,28],[-62,115]],[[2835,3984],[6,32],[126,-51],[70,11],[-52,-52],[-26,-82],[-80,1],[-30,22],[17,43],[-38,9],[-4,-40],[-77,42],[5,-60],[-48,-51],[-117,19],[-46,189],[59,25],[85,-58],[27,69],[86,-46],[41,19],[-4,-41]],[[0,3735],[0,165],[70,49],[94,-23],[-79,-102],[116,-74],[-51,9],[-4,-27],[-42,31],[-14,-73],[-90,45]],[[208,99],[34,80],[-22,159],[73,-80],[142,-258],[-192,0],[-35,99]],[[3228,0],[11,154],[182,34],[245,-69],[86,-55],[-34,-64],[-490,0]],[[0,3938],[0,158],[310,0],[16,-56],[-38,-37],[-2,-89],[-41,-50],[-148,29],[-97,45]]]}