{"objects":{"water":{"type":"GeometryCollection","geometries":[{"type":"Polygon","properties":{"kind":"lake","name":"Pyramid Lake","area":657393024,"sort_rank":200,"alkaline":true,"source":"naturalearthdata.com","min_zoom":0.0,"id":225},"arcs":[[40]]},{"type":"Polygon","properties":{"source":"naturalearthdata.com","kind":"lake","area":1993283072,"sort_rank":200,"alkaline":true,"min_zoom":0.0,"id":30},"arcs":[[41]]},{"type":"Polygon","properties":{"kind":"lake","name":"Lake Powell","reservoir":true,"area":1623580544,"sort_rank":200,"source":"naturalearthdata.com","min_zoom":0.0,"id":153},"arcs":[[42]]},{"type":"Polygon","properties":{"source":"naturalearthdata.com","kind":"lake","name":"Lago de Chapala","area":942467008,"sort_rank":200,"min_zoom":0.0,"id":283},"arcs":[[43]]},{"type":"Polygon","properties":{"kind":"lake","name":"Great Salt Lake","area":7145299968,"sort_rank":200,"alkaline":true,"source":"naturalearthdata.com","min_zoom":0.0,"id":26},"arcs":[[44]]},{"type":"Polygon","properties":{"kind":"lake","name":"Lake Mead","reservoir":true,"area":1698239360,"sort_rank":200,"source":"naturalearthdata.com","min_zoom":0.0,"id":152},"arcs":[[45]]},{"type":"Polygon","properties":{"source":"naturalearthdata.com","kind":"lake","name":"Utah Lake","area":537632960,"sort_rank":200,"min_zoom":0.0,"id":186},"arcs":[[46]]},{"type":"Polygon","properties":{"kind":"lake","name":"Salton Sea","area":1168268032,"sort_rank":200,"alkaline":true,"source":"naturalearthdata.com","min_zoom":0.0,"id":60},"arcs":[[47]]},{"type":"Polygon","properties":{"source":"naturalearthdata.com","kind":"lake","name":"L. Tahoe","area":765041728,"sort_rank":200,"min_zoom":0.0,"id":48},"arcs":[[48]]},{"type":"Polygon","properties":{"kind":"lake","name":"Amistad Res.","reservoir":true,"area":437133216,"sort_rank":200,"source":"naturalearthdata.com","min_zoom":0.0,"id":281},"arcs":[[49]]},{"type":"MultiPolygon","properties":{"source":"naturalearthdata.com","kind":"ocean","area":1444195503964160,"sort_rank":200,"min_zoom":0.0,"id":1},"arcs":[[[50],[51],[52],[53],[54],[55],[56],[57],[58],[59],[60],[61],[62],[63],[64],[65],[66],[67],[68]],[[69],[70],[71],[72],[73],[74],[75],[76]],[[77]]]},{"type":"Polygon","properties":{"kind":"lake","name":"Falcon Lake","reservoir":true,"area":765869824,"sort_rank":200,"source":"naturalearthdata.com","min_zoom":0.0,"id":317},"arcs":[[78]]},{"type":"Point","properties":{"label_placement":true,"kind":"lake","name":"Lake Mead","reservoir":true,"area":1698239360,"sort_rank":200,"source":"naturalearthdata.com","min_zoom":0.0,"id":152},"coordinates":[1869,3615]},{"type":"Point","properties":{"label_placement":true,"kind":"lake","name":"Lake Powell","reservoir":true,"area":1623580544,"sort_rank":200,"source":"naturalearthdata.com","min_zoom":0.0,"id":153},"coordinates":[2210,3739]},{"type":"Point","properties":{"label_placement":true,"kind":"lake","name":"Salton Sea","area":1168268032,"sort_rank":200,"alkaline":true,"source":"naturalearthdata.com","min_zoom":0.0,"id":60},"coordinates":[1741,3336]},{"type":"Point","properties":{"label_placement":true,"kind":"lake","name":"Lago de Chapala","area":942467008,"sort_rank":200,"source":"naturalearthdata.com","min_zoom":0.0,"id":283},"coordinates":[2909,2021]},{"type":"Point","properties":{"label_placement":true,"kind":"lake","name":"Falcon Lake","reservoir":true,"area":765869824,"sort_rank":200,"source":"naturalearthdata.com","min_zoom":0.0,"id":317},"coordinates":[3250,2680]},{"type":"Point","properties":{"label_placement":true,"kind":"lake","name":"L. Tahoe","area":765041728,"sort_rank":200,"source":"naturalearthdata.com","min_zoom":0.0,"id":48},"coordinates":[1362,3910]},{"type":"Point","properties":{"label_placement":true,"kind":"lake","name":"Pyramid Lake","area":657393024,"sort_rank":200,"alkaline":true,"source":"naturalearthdata.com","min_zoom":0.0,"id":225},"coordinates":[1404,4004]},{"type":"Point","properties":{"label_placement":true,"kind":"lake","name":"Utah Lake","area":537632960,"sort_rank":200,"source":"naturalearthdata.com","min_zoom":0.0,"id":186},"coordinates":[2113,4020]},{"type":"Point","properties":{"label_placement":true,"kind":"lake","name":"Amistad Res.","reservoir":true,"area":437133216,"sort_rank":200,"source":"naturalearthdata.com","min_zoom":0.0,"id":281},"coordinates":[3077,2954]},{"type":"Point","properties":{"label_placement":true,"kind":"lake","name":"Lake Havasu","area":361231776,"sort_rank":200,"source":"naturalearthdata.com","min_zoom":0.0,"id":328},"coordinates":[1889,3438]},{"type":"Point","properties":{"label_placement":true,"kind":"lake","name":"Shasta Lake","reservoir":true,"area":347244768,"sort_rank":200,"source":"naturalearthdata.com","min_zoom":0.0,"id":329},"coordinates":[1158,4078]},{"type":"Point","properties":{"label_placement":true,"kind":"lake","name":"Millerton Lake","reservoir":true,"area":34854904,"sort_rank":200,"source":"naturalearthdata.com","min_zoom":0.0,"id":233},"coordinates":[1398,3701]},{"type":"MultiLineString","properties":{"source":"naturalearthdata.com","kind":"lake","sort_rank":367,"alkaline":true,"boundary":true,"min_zoom":0.0,"id":26},"arcs":[[79],[80],[81]]},{"type":"LineString","properties":{"source":"naturalearthdata.com","kind":"lake","sort_rank":367,"alkaline":true,"boundary":true,"min_zoom":0.0,"id":30},"arcs":[82]},{"type":"LineString","properties":{"source":"naturalearthdata.com","kind":"lake","sort_rank":367,"boundary":true,"min_zoom":0.0,"id":48},"arcs":[83]},{"type":"LineString","properties":{"source":"naturalearthdata.com","kind":"lake","sort_rank":367,"alkaline":true,"boundary":true,"min_zoom":0.0,"id":60},"arcs":[84]},{"type":"LineString","properties":{"source":"naturalearthdata.com","kind":"lake","sort_rank":367,"boundary":true,"min_zoom":0.0,"id":90},"arcs":[85]},{"type":"LineString","properties":{"source":"naturalearthdata.com","kind":"lake","sort_rank":367,"boundary":true,"min_zoom":0.0,"id":115},"arcs":[86]},{"type":"LineString","properties":{"source":"naturalearthdata.com","kind":"lake","reservoir":true,"sort_rank":367,"boundary":true,"min_zoom":0.0,"id":152},"arcs":[87]},{"type":"LineString","properties":{"source":"naturalearthdata.com","kind":"lake","reservoir":true,"sort_rank":367,"boundary":true,"min_zoom":0.0,"id":153},"arcs":[88]},{"type":"LineString","properties":{"source":"naturalearthdata.com","kind":"ocean","sort_rank":205,"boundary":true,"min_zoom":0.0,"id":154},"arcs":[89]},{"type":"LineString","properties":{"source":"naturalearthdata.com","kind":"ocean","sort_rank":205,"boundary":true,"min_zoom":0.0,"id":155},"arcs":[90]},{"type":"LineString","properties":{"source":"naturalearthdata.com","kind":"ocean","sort_rank":205,"boundary":true,"min_zoom":0.0,"id":170},"arcs":[91]},{"type":"LineString","properties":{"source":"naturalearthdata.com","kind":"lake","sort_rank":367,"boundary":true,"min_zoom":0.0,"id":186},"arcs":[92]},{"type":"LineString","properties":{"source":"naturalearthdata.com","kind":"lake","sort_rank":367,"alkaline":true,"boundary":true,"min_zoom":0.0,"id":225},"arcs":[93]},{"type":"LineString","properties":{"source":"naturalearthdata.com","kind":"lake","reservoir":true,"sort_rank":367,"boundary":true,"min_zoom":0.0,"id":233},"arcs":[94]},{"type":"LineString","properties":{"source":"naturalearthdata.com","kind":"lake","reservoir":true,"sort_rank":367,"boundary":true,"min_zoom":0.0,"id":281},"arcs":[95]},{"type":"LineString","properties":{"source":"naturalearthdata.com","kind":"lake","sort_rank":367,"boundary":true,"min_zoom":0.0,"id":283},"arcs":[96]},{"type":"LineString","properties":{"source":"naturalearthdata.com","kind":"lake","reservoir":true,"sort_rank":367,"boundary":true,"min_zoom":0.0,"id":317},"arcs":[97]},{"type":"LineString","properties":{"source":"naturalearthdata.com","kind":"lake","sort_rank":367,"boundary":true,"min_zoom":0.0,"id":328},"arcs":[98]},{"type":"LineString","properties":{"source":"naturalearthdata.com","kind":"lake","reservoir":true,"sort_rank":367,"boundary":true,"min_zoom":0.0,"id":329},"arcs":[99]},{"type":"LineString","properties":{"source":"naturalearthdata.com","kind":"ocean","sort_rank":205,"boundary":true,"min_zoom":0.0,"id":1017},"arcs":[100]},{"type":"LineString","properties":{"source":"naturalearthdata.com","kind":"ocean","sort_rank":205,"boundary":true,"min_zoom":0.0,"id":1018},"arcs":[101]},{"type":"LineString","properties":{"source":"naturalearthdata.com","kind":"ocean","sort_rank":205,"boundary":true,"min_zoom":0.0,"id":1019},"arcs":[102]},{"type":"LineString","properties":{"source":"naturalearthdata.com","kind":"ocean","sort_rank":205,"boundary":true,"min_zoom":0.0,"id":1020},"arcs":[103]},{"type":"LineString","properties":{"source":"naturalearthdata.com","kind":"ocean","sort_rank":205,"boundary":true,"min_zoom":0.0,"id":1021},"arcs":[104]},{"type":"LineString","properties":{"source":"naturalearthdata.com","kind":"ocean","sort_rank":205,"boundary":true,"min_zoom":0.0,"id":1034},"arcs":[105]},{"type":"LineString","properties":{"source":"naturalearthdata.com","kind":"ocean","sort_rank":205,"boundary":true,"min_zoom":0.0,"id":1035},"arcs":[106]},{"type":"LineString","properties":{"source":"naturalearthdata.com","kind":"ocean","sort_rank":205,"boundary":true,"min_zoom":0.0,"id":1036},"arcs":[107]},{"type":"LineString","properties":{"source":"naturalearthdata.com","kind":"ocean","sort_rank":205,"boundary":true,"min_zoom":0.0,"id":1037},"arcs":[108]},{"type":"LineString","properties":{"source":"naturalearthdata.com","kind":"ocean","sort_rank":205,"boundary":true,"min_zoom":0.0,"id":1041},"arcs":[109]},{"type":"LineString","properties":{"source":"naturalearthdata.com","kind":"ocean","sort_rank":205,"boundary":true,"min_zoom":0.0,"id":1068},"arcs":[110]},{"type":"LineString","properties":{"source":"naturalearthdata.com","kind":"ocean","sort_rank":205,"boundary":true,"min_zoom":0.0,"id":1151},"arcs":[111]},{"type":"LineString","properties":{"source":"naturalearthdata.com","kind":"ocean","sort_rank":205,"boundary":true,"min_zoom":0.0,"id":1154},"arcs":[112]},{"type":"LineString","properties":{"source":"naturalearthdata.com","kind":"ocean","sort_rank":205,"boundary":true,"min_zoom":0.0,"id":1155},"arcs":[113]},{"type":"LineString","properties":{"source":"naturalearthdata.com","kind":"ocean","sort_rank":205,"boundary":true,"min_zoom":0.0,"id":1156},"arcs":[114]},{"type":"LineString","properties":{"source":"naturalearthdata.com","kind":"ocean","sort_rank":205,"boundary":true,"min_zoom":0.0,"id":1157},"arcs":[115]},{"type":"LineString","properties":{"source":"naturalearthdata.com","kind":"ocean","sort_rank":205,"boundary":true,"min_zoom":0.0,"id":1158},"arcs":[116]},{"type":"LineString","properties":{"source":"naturalearthdata.com","kind":"ocean","sort_rank":205,"boundary":true,"min_zoom":0.0,"id":1159},"arcs":[117]},{"type":"LineString","properties":{"source":"naturalearthdata.com","kind":"ocean","sort_rank":205,"boundary":true,"min_zoom":0.0,"id":1160},"arcs":[118]},{"type":"LineString","properties":{"source":"naturalearthdata.com","kind":"ocean","sort_rank":205,"boundary":true,"min_zoom":0.0,"id":1161},"arcs":[119]},{"type":"LineString","properties":{"source":"naturalearthdata.com","kind":"ocean","sort_rank":205,"boundary":true,"min_zoom":0.0,"id":1162},"arcs":[120]},{"type":"LineString","properties":{"source":"naturalearthdata.com","kind":"ocean","sort_rank":205,"boundary":true,"min_zoom":0.0,"id":1163},"arcs":[121]},{"type":"LineString","properties":{"source":"naturalearthdata.com","kind":"ocean","sort_rank":205,"boundary":true,"min_zoom":0.0,"id":1164},"arcs":[122]},{"type":"MultiLineString","properties":{"source":"naturalearthdata.com","kind":"ocean","sort_rank":205,"boundary":true,"min_zoom":0.0,"id":1201},"arcs":[[123],[124],[125]]},{"type":"Point","properties":{"label_placement":true,"kind":"sea","name":"Gulf of California","source":"openstreetmap.org","sort_rank":200,"min_zoom":3.0,"id":305639734},"coordinates":[2120,2754]}]},"buildings":{"type":"GeometryCollection","geometries":[]},"places":{"type":"GeometryCollection","geometries":[{"type":"Point","properties":{"name:ty":"Fenua Marite","name:cy":"Unol Daleithiau America","name:ko":"\ubbf8\uad6d","name:cv":"\u0410\u043c\u0435\u0440\u0438\u043a\u04d1\u0440\u0438 \u041f\u04d7\u0440\u043b\u0435\u0448\u04f3\u043b\u043b\u04d7 \u0428\u0442\u0430\u0442\u0441\u0435\u043c","name:cu":"\u0410\u043c\u0454\u0440\u0438\u043a\u0430\u0301\u043d\u044c\u0441\u043a\ua651 \u0464\u0434\u044c\u043d\u0465\u043d\ua651\u0301 \u0414\u0440\u044c\u0436\u0430\u0301\u0432\ua651","name:kl":"Naalagaaffeqatigiit","name:cs":"Spojen\u00e9 st\u00e1ty americk\u00e9","name:tw":"USA","name:ki":"Amerika","name:co":"Stati Uniti d'America","name:kv":"\u0410\u043c\u0435\u0440\u0438\u043a\u0430\u0441\u0430 \u04e6\u0442\u0443\u0432\u0442\u04e7\u043c \u0428\u0442\u0430\u0442\u044a\u044f\u0441","name:ku":"Dewlet\u00ean Yekb\u00fby\u00ee y\u00ean Amer\u00eekay\u00ea","name:ti":"\u12a0\u121c\u122a\u12ab","name:ks":"\u0938\u0902\u092f\u0941\u0915\u094d\u0924 \u0930\u093e\u091c\u094d\u200d\u092f \u0905\u092e\u0947\u0930\u093f\u0915\u093e","name:to":"Pule\u02bbanga Fakataha 'o 'Amelika","name:tl":"Estados Unidos ng Amerika","name:ce":"I\u0430\u043c\u0435\u0440\u043a\u0430 \u043f\u0430\u0447\u0445\u044c\u0430\u043b\u043a","name:ta":"\u0b85\u0bae\u0bc6\u0bb0\u0bbf\u0b95\u0bcd\u0b95 \u0b90\u0b95\u0bcd\u0b95\u0bbf\u0baf \u0ba8\u0bbe\u0b9f\u0bc1","name:tg":"\u0428\u0442\u0430\u0442\u04b3\u043e\u0438 \u041c\u0443\u0442\u0442\u0430\u04b3\u0438\u0434\u0430\u0438 \u0410\u043c\u0435\u0440\u0438\u043a\u0430","name:ca":"Estats Units d'Am\u00e8rica","name:te":"\u0c05\u0c2e\u0c46\u0c30\u0c3f\u0c15\u0c3e \u0c38\u0c02\u0c2f\u0c41\u0c15\u0c4d\u0c24 \u0c30\u0c3e\u0c37\u0c4d\u0c1f\u0c4d\u0c30\u0c3e\u0c32\u0c41","name:ka":"\u10d0\u10db\u10d4\u10e0\u10d8\u10d9\u10d8\u10e1 \u10e8\u10d4\u10d4\u10e0\u10d7\u10d4\u10d1\u10e3\u10da\u10d8 \u10e8\u10e2\u10d0\u10e2\u10d4\u10d1\u10d8","name:hr":"Sjedinjene Ameri\u010dke Dr\u017eave","name:da":"Amerikas Forenede Stater","name:de":"Vereinigte Staaten von Amerika","name:dz":"\u0f61\u0f74\u0f0b\u0f68\u0f7a\u0f66\u0f0b\u0f68\u0f7a","source":"openstreetmap.org","name:kn":"\u0c85\u0cae\u0cc7\u0cb0\u0cbf\u0c95 \u0cb8\u0c82\u0caf\u0cc1\u0c95\u0ccd\u0ca4 \u0cb8\u0c82\u0cb8\u0ccd\u0ca5\u0cbe\u0ca8","name:dv":"\u0787\u07ac\u0789\u07ac\u0783\u07a8\u0786\u07a7","name:km":"\u179f\u17a0\u179a\u178a\u17d2\u178b\u17a2\u17b6\u1798\u17c1\u179a\u17b7\u1780","name:lv":"Amerikas Savienot\u0101s Valstis","name:lt":"Jungtin\u0117s Amerikos Valstijos","name:uz":"Amerika Qo\u02bbshma Shtatlari","name:kk":"\u0410\u043c\u0435\u0440\u0438\u043a\u0430 \u049a\u04b1\u0440\u0430\u043c\u0430 \u0428\u0442\u0430\u0442\u0442\u0430\u0440\u044b","name:ur":"\u0631\u06cc\u0627\u0633\u062a\u06c1\u0627\u0626\u06d2 \u0645\u062a\u062d\u062f\u06c1 \u0627\u0645\u0631\u06cc\u06a9\u06c1","name:lb":"Vereenegt Staate vun Amerika","name:la":"Civitates Foederatae Americae","name:lg":"Amerika","name:uk":"\u0421\u043f\u043e\u043b\u0443\u0447\u0435\u043d\u0456 \u0428\u0442\u0430\u0442\u0438 \u0410\u043c\u0435\u0440\u0438\u043a\u0438","name:ug":"\u0626\u0627\u0645\u06d0\u0631\u0649\u0643\u0627 \u0642\u0648\u0634\u0645\u0627 \u0634\u062a\u0627\u062a\u0644\u0649\u0631\u0649","name:li":"Vereinegde State van Amerika","name:ln":"Lisang\u00e1 lya Amer\u00edka","name:lo":"\u0eaa\u0eb0\u0eab\u0eb0\u0ea5\u0eb1\u0e94","name:kw":"Statys Unys Amerika","name:eo":"Usono","name":"United States of America","name:tk":"Amerikany\u0148 Birle\u015fen \u015etatlary","name:ee":"USA nutome","name:th":"\u0e2a\u0e2b\u0e23\u0e31\u0e10\u0e2d\u0e40\u0e21\u0e23\u0e34\u0e01\u0e32","name:eu":"Ameriketako Estatu Batuak","name:tn":"USA","name:es":"Estados Unidos de Am\u00e9rica","name:ay":"Istadus Unidus","name:rm":"Stadis Unids da l'America","name:rn":"Leta Zunze Ubumwe za Amerika","name:az":"Amerika Birl\u0259\u015fmi\u015f \u015etatlar\u0131","name:ie":"Unit States de America","name:id":"Amerika Serikat","name:ig":"Njikota Obodo Amerika","name:el":"\u0397\u03bd\u03c9\u03bc\u03ad\u03bd\u03b5\u03c2 \u03a0\u03bf\u03bb\u03b9\u03c4\u03b5\u03af\u03b5\u03c2 \u03c4\u03b7\u03c2 \u0391\u03bc\u03b5\u03c1\u03b9\u03ba\u03ae\u03c2","name:ii":"\ua0b0\ua1e9","name:as":"\u09ae\u09be\u09f0\u09cd\u0995\u09bf\u09a8 \u09af\u09c1\u0995\u09cd\u09a4\u09f0\u09be\u09b7\u09cd\u099f\u09cd\u09f0","name:ar":"\u0627\u0644\u0648\u0644\u0627\u064a\u0627\u062a \u0627\u0644\u0645\u062a\u0651\u062d\u062f\u0629 \u0627\u0644\u0623\u0645\u0631\u064a\u0643\u064a\u0651\u0629","name:io":"Unionita Stati di Amerika","name:av":"\u0410\u043c\u0435\u0440\u0438\u043a\u0430\u043b\u044a\u0443\u043b \u0426\u043e\u043b\u044a\u0430\u0440\u0430\u043b \u0428\u0442\u0430\u0442\u0430\u043b","name:ak":"Am\u025brika","name:am":"\u12e8\u1270\u1263\u1260\u1229\u1275 \u12e8\u12a0\u121c\u122a\u12ab \u130d\u12db\u1276\u127d","name:it":"Stati Uniti d'America","name:an":"Estatos Unitos d'America","name:aa":"United States","name:ru":"\u0421\u043e\u0435\u0434\u0438\u043d\u0451\u043d\u043d\u044b\u0435 \u0428\u0442\u0430\u0442\u044b \u0410\u043c\u0435\u0440\u0438\u043a\u0438","name:ab":"\u0410\u043c\u0435\u0440\u0438\u043a\u0430 \u0415\u0438\u0434\u0443 \u0410\u0448\u0442\u0430\u0442\u049b\u04d9\u0430","name:af":"Verenigde State van Amerika","name:zu":"i-United States","name:za":"Meijgoz","name:zh-yue":"\u5373\u7f8e\u5229\u5805\u5408\u773e\u570b","name:zh":"\u7f8e\u56fd","name:so":"Maraykanka","name:sn":"Amerika","name:sm":"Iunaite Sitete o Amerika","name:sl":"Zdru\u017eene dr\u017eave Amerike","name:sk":"Spojen\u00e9 \u0161t\u00e1ty americk\u00e9","name:ja":"\u30a2\u30e1\u30ea\u30ab\u5408\u8846\u56fd","name:si":"\u0d85'\u0db8\u0dd9\u0dbb\u0dd2\u0d9a\u0dcf\u200d\u0dc0\u0dda \u0d91\u0d9a\u0dca\u0dc3\u0dad\u0dca \u0dbb\u0dcf\u0da2\u0dca\u200d\u0dba\u0dba\u0db1","name:sh":"Sjedinjene Ameri\u010dke Dr\u017eave","name:sg":"\u00c2Leaa-\u00d4ko t\u00ee Amerika","name:se":"Amerihk\u00e1 ovttastuvvan st\u00e1htat","name:sd":"\u0622\u0645\u0631\u064a\u06aa\u0627","name:sc":"Istados Unidos de America","name:sa":"\u0938\u0902\u092f\u0941\u0915\u094d\u0924\u093e\u0928\u093f \u0930\u093e\u091c\u094d\u092f\u093e\u0928\u093f","name:bs":"Sjedinjene Ameri\u010dke Dr\u017eave","name:bm":"Ameriki","name:bn":"\u09ae\u09be\u09b0\u09cd\u0995\u09bf\u09a8 \u09af\u09c1\u0995\u09cd\u09a4\u09b0\u09be\u09b7\u09cd\u099f\u09cd\u09b0","name:bo":"\u0f68\u0f0b\u0f58\u0f7a\u0f0b\u0f62\u0f72\u0f0b\u0f40\u0f0b","name:br":"Stado\u00f9-Unanet Amerika","name:et":"Ameerika \u00dchendriigid","name:sw":"Muungano wa Madola ya Amerika","name:be":"\u0417\u043b\u0443\u0447\u0430\u043d\u044b\u044f \u0428\u0442\u0430\u0442\u044b \u0410\u043c\u0435\u0440\u044b\u043a\u0456","name:su":"Am\u00e9rika Sarikat","name:bg":"\u0421\u044a\u0435\u0434\u0438\u043d\u0435\u043d\u0438 \u0430\u043c\u0435\u0440\u0438\u043a\u0430\u043d\u0441\u043a\u0438 \u0449\u0430\u0442\u0438","name:ss":"IMelika","name:ba":"\u0410\u043c\u0435\u0440\u0438\u043a\u0430 \u04a0\u0443\u0448\u043c\u0430 \u0428\u0442\u0430\u0442\u0442\u0430\u0440\u044b","name:sq":"Shtetet e Bashkuara t\u00eb Amerik\u00ebs","alt_name:sr":"\u0421\u0410\u0414; \u0421\u0458\u0435\u0434\u0438\u045a\u0435\u043d\u0435 \u0414\u0440\u0436\u0430\u0432\u0435","name:jv":"Am\u00e9rika Sar\u00e9kat","name:bi":"Yunaeted Stet blong Amerika","name:ia":"Statos Unite de America","name:pt":"Estados Unidos da Am\u00e9rica","name:ps":"\u062f \u0627\u0645\u0631\u064a\u06a9\u0627 \u0645\u062a\u062d\u062f\u0647 \u0627\u064a\u0627\u0644\u0627\u062a","name:om":"United States","name:oc":"Estats Units d'America","min_zoom":2.0,"name:ro":"Statele Unite ale Americii","name:zh-min-nan":"America Ha\u030dp-chi\u00f2ng-kok","name:os":"\u0410\u0418\u0428","name:or":"\u0b2f\u0b41\u0b15\u0b4d\u0b24 \u0b30\u0b3e\u0b37\u0b4d\u0b1f\u0b4d\u0b30 \u0b06\u0b2e\u0b47\u0b30\u0b3f\u0b15\u0b3e","name:pl":"Stany Zjednoczone Ameryki","name:sr":"\u0421\u0458\u0435\u0434\u0438\u045a\u0435\u043d\u0435 \u0410\u043c\u0435\u0440\u0438\u0447\u043a\u0435 \u0414\u0440\u0436\u0430\u0432\u0435","name:xh":"IYunayithedi Steyitsi","name:pa":"\u0a38\u0a70\u0a2f\u0a41\u0a15\u0a24 \u0a30\u0a3e\u0a1c \u0a05\u0a2e\u0a30\u0a40\u0a15\u0a3e","name:tr":"Amerika Birle\u015fik Devletleri","name:hi":"\u0938\u0902\u092f\u0941\u0915\u094d\u0924 \u0930\u093e\u091c\u094d\u092f \u0905\u092e\u0947\u0930\u093f\u0915\u093e","name:sv":"F\u00f6renta staterna","name:he":"\u05d0\u05e8\u05e6\u05d5\u05ea \u05d4\u05d1\u05e8\u05d9\u05ea","name:ha":"kunkiyar taraiyar Amurika","name:hy":"\u0531\u0574\u0565\u0580\u056b\u056f\u0561\u0575\u056b \u0544\u056b\u0561\u0581\u0575\u0561\u056c \u0546\u0561\u0570\u0561\u0576\u0563\u0576\u0565\u0580","name:ht":"Etazini","name:hu":"Amerikai Egyes\u00fclt \u00c1llamok","name:qu":"Hukllachasqa Amirika Suyukuna","population":324720797,"kind":"country","name:ts":"United States","name:is":"Bandar\u00edki Nor\u00f0ur-Amer\u00edku","name:yi":"\u05e4\u05d0\u05e8\u05d0\u05d9\u05d9\u05e0\u05d9\u05e7\u05d8\u05e2 \u05e9\u05d8\u05d0\u05d8\u05df \u05e4\u05d5\u05df \u05d0\u05de\u05e2\u05e8\u05d9\u05e7\u05e2","name:iu":"\u140a\u14a5\u140a\u14d5\u1472","name:yo":"Or\u00edl\u1eb9\u0301\u00e8de Oril\u1eb9ede Amerika","name:mt":"Stati Uniti tal-Amerika","name:ms":"Amerika Syarikat","name:mr":"\u0938\u0902\u092f\u0941\u0915\u094d\u0924 \u0930\u093e\u091c\u094d\u092f\u0947 \/\u0905\u092e\u0947\u0930\u093f\u0915\u093e","name:my":"\u101a\u1030\u1014\u102d\u102f\u1000\u103a\u1010\u1000\u103a\u1005\u1010\u102d\u1010\u103a","name:mg":"Etazonia","name:ml":"\u0d05\u0d2e\u0d47\u0d30\u0d3f\u0d15\u0d4d\u0d15\u0d28\u0d4d\u200d \u0d10\u0d15\u0d4d\u0d2f\u0d28\u0d3e\u0d1f\u0d41\u0d15\u0d33\u0d4d","name:vi":"Hoa K\u1ef3","name:mn":"\u0410\u043c\u0435\u0440\u0438\u043a\u0438\u0439\u043d \u041d\u044d\u0433\u0434\u0441\u044d\u043d \u0423\u043b\u0441","name:mi":"Hononga-o-Amerika","id":424317935,"name:mk":"\u0421\u043e\u0435\u0434\u0438\u043d\u0435\u0442\u0438 \u0410\u043c\u0435\u0440\u0438\u043a\u0430\u043d\u0441\u043a\u0438 \u0414\u0440\u0436\u0430\u0432\u0438","name:vo":"Lamerik\u00e4n","name:fa":"\u0627\u06cc\u0627\u0644\u0627\u062a \u0645\u062a\u062d\u062f\u0647 \u0622\u0645\u0631\u06cc\u06a9\u0627","name:rw":"Leta Zunze Ubumwe z\u2019Amerika","name:ff":"Dowlaaji Dentu\u0257i Amerik","name:fi":"Yhdysvallat","name:ky":"\u0410\u043c\u0435\u0440\u0438\u043a\u0430 \u041a\u043e\u0448\u043c\u043e \u0428\u0442\u0430\u0442\u0442\u0430\u0440\u044b","old_name:vi":"M\u1ef9 L\u1ee3i Ki\u00ean; Ma Ly C\u0103n; Nh\u00e3 Di L\u00fd","name:fo":"Sambandsr\u00edki\u00f0 Amerika","alt_name:vi":"M\u1ef9","name:fr":"\u00c9tats-Unis d'Am\u00e9rique","name:fy":"Feriene Steaten fan Amearika","name:nl":"Verenigde Staten van Amerika","name:nn":"USA","name:no":"Amerikas forente stater","name:na":"Eben Merika","name:nb":"USA","name:ne":"\u0938\u0902\u092f\u0941\u0915\u094d\u0924 \u0930\u093e\u091c\u094d\u092f \u0905\u092e\u0947\u0930\u093f\u0915\u093e","name:wa":"Estats Unis d' Amerike","name:wo":"Diwaan-yu-Bennoo yu Aamerig","name:nv":"W\u00e1\u00e1shindoon Bik\u00e9yah A\u0142hidadiidzoo\u00edg\u00ed\u00ed","name:ga":"St\u00e1it Aontaithe Mheirice\u00e1","name:gd":"Na St\u00e0itean Aonaichte","name:gn":"Tet\u00e3 pete\u0129 reko Am\u00e9rikagua","name:gl":"Estados Unidos de Am\u00e9rica","name:gv":"Steatyn Unnaneysit America","name:gu":"\u0ab8\u0a82\u0aaf\u0ac1\u0a95\u0acd\u0aa4 \u0ab0\u0abe\u0a9c\u0acd\u0aaf \u0a85\u0aae\u0ac7\u0ab0\u0abf\u0a95\u0abe","name:tt":"\u0410\u043c\u0435\u0440\u0438\u043a\u0430 \u041a\u0443\u0448\u043c\u0430 \u0428\u0442\u0430\u0442\u043b\u0430\u0440\u044b"},"coordinates":[3145,3976]},{"type":"Point","properties":{"name:ka":"\u10db\u10d4\u10e5\u10e1\u10d8\u10d9\u10d0","name:ko":"\uba55\uc2dc\ucf54","name:cv":"\u041c\u0435\u043a\u0441\u0438\u043a\u0430","name:km":"\u1798\u17c9\u17b7\u1785\u179f\u17b7\u1780","name:kl":"Mexiko","name:cs":"Mexiko","name:tw":"Mexico","name:ki":"Meksiko","name:co":"Messicu","name:kv":"\u041c\u0435\u043a\u0441\u0438\u043a\u0430","name:ku":"Meks\u00eek","name:ti":"\u121c\u12ad\u1232\u12ae","name:ks":"\u0645\u066e\u06ea\u06a9\u0633\u0650\u06a9\u0648","name:to":"Mekisikou","name:tl":"Mehiko","name:ce":"\u041c\u0435\u043a\u0441\u0438\u043a\u0430","name:ta":"\u0bae\u0bc6\u0b95\u0bcd\u0b9a\u0bbf\u0b95\u0bcb","name:tg":"\u041c\u0435\u043a\u0441\u0438\u043a\u0430","name:ca":"M\u00e8xic","name:te":"\u0c2e\u0c46\u0c15\u0c4d\u0c38\u0c3f\u0c15\u0c4b","name:cy":"Mecsico","name:hr":"Meksiko","name:da":"Mexico","name:de":"Mexiko","name:dz":"\u0f58\u0f7a\u0f40\u0f0b\u0f66\u0f72\u0f0b\u0f40\u0f7c","source":"openstreetmap.org","name:kn":"\u0cae\u0cc6\u0c95\u0ccd\u0cb8\u0cbf\u0c95\u0cca","name:dv":"\u0789\u07ac\u0786\u07b0\u0790\u07a8\u0786\u07af","name:lv":"Meksika","name:lt":"Meksika","name:uz":"Meksika","name:kk":"\u041c\u0435\u043a\u0441\u0438\u043a\u0430","name:ur":"\u0645\u06cc\u06a9\u0633\u06cc\u06a9\u0648","name:lb":"Mexiko","name:la":"Mexicum","name:lg":"Mekisiko","name:uk":"\u041c\u0435\u043a\u0441\u0438\u043a\u0430","name:ug":"\u0645\u06d0\u0643\u0633\u0649\u0643\u0627","name:li":"Mexico","name:ln":"Meksike","name:lo":"\u0ec0\u0ea1\u0eb1\u0e81\u0e8a\u0eb4\u0ec2\u0e81","name:el":"\u039c\u03b5\u03be\u03b9\u03ba\u03cc","name:eo":"Meksiko","name:en":"Mexico","name":"M\u00e9xico","name:tk":"Meksika","name:ee":"Meksico nutome","name:th":"\u0e1b\u0e23\u0e30\u0e40\u0e17\u0e28\u0e40\u0e21\u0e47\u0e01\u0e0b\u0e34\u0e42\u0e01","name:eu":"Mexiko","name:et":"Mehhiko","name:ay":"M\u00efxiku","name:rm":"Mexico","name:rn":"Migizike","name:az":"Meksika","name:id":"Meksiko","name:ik":"Mexiqo","name:ar":"\u0627\u0644\u0645\u0643\u0633\u064a\u0643","name:io":"Mexikia","name:ak":"M\u025bksiko","name:am":"\u121c\u12ad\u1232\u12ae","name:it":"Messico","name:an":"Mexico","name:ru":"\u041c\u0435\u043a\u0441\u0438\u043a\u0430","name:rw":"Megizike","name:af":"Meksiko","name:zu":"i-Mexico","name:ky":"\u041c\u0435\u043a\u0441\u0438\u043a\u0430","name:zh-yue":"\u58a8\u897f\u54e5","name:zh":"\u58a8\u897f\u54e5","name:so":"Meksiko","name:sn":"Mexico","name:sm":"Mexico","name:sl":"Mehika","name:sk":"Mexiko","name:ja":"\u30e1\u30ad\u30b7\u30b3","name:si":"\u0db8\u0dd9\u0d9a\u0dca\u0dc3\u0dd2\u0d9a\u0ddd\u0dc0","name:sh":"Meksiko","name:sg":"Mekis\u00eeki","name:se":"Meksiko","name:sc":"M\u00e8ssico","name:br":"Mec\u2019hiko","name:bs":"Meksiko","name:bm":"Meksiki","name:bn":"\u09ae\u0995\u09cd\u09b8\u09bf\u0995\u09cb","name:bo":"\u0f58\u0f7a\u0f40\u0f0b\u0f66\u0f72\u0f0b\u0f40\u0f7c\u0f0d","name:bi":"Mexico","name:sw":"Meksiko","name:be":"\u041c\u0435\u043a\u0441\u0456\u043a\u0430","name:su":"M\u00e9ksiko","name:bg":"\u041c\u0435\u043a\u0441\u0438\u043a\u043e","name:ss":"IMekisikho","name:ba":"\u041c\u0435\u043a\u0441\u0438\u043a\u0430","name:sq":"Meksik\u00eb","name:jv":"M\u00e8ksiko","name:ia":"Mexico","name:oc":"Mexic","min_zoom":2.0,"name:ro":"Mexic","name:zh-min-nan":"Be\u030dk-se-ko","name:os":"\u041c\u0435\u043a\u0441\u0438\u043a\u00e6","name:or":"\u0b2e\u0b47\u0b15\u0b4d\u0b38\u0b3f\u0b15\u0b4b","name:pl":"Meksyk","name:sr":"\u041c\u0435\u043a\u0441\u0438\u043a\u043e","name:pa":"\u0a2e\u0a48\u0a15\u0a38\u0a40\u0a15\u0a4b","name:tr":"Meksika","name:hi":"\u092e\u0947\u0915\u094d\u0938\u093f\u0915\u094b","name:sv":"Mexiko","name:he":"\u05de\u05e7\u05e1\u05d9\u05e7\u05d5","name:ha":"Makasiko","name:hy":"\u0544\u0565\u0584\u057d\u056b\u056f\u0561","name:ht":"Meksik","name:hu":"Mexik\u00f3","name:qu":"Mishiku","population":112322757,"kind":"country","name:is":"Mex\u00edk\u00f3","name:yi":"\u05de\u05e2\u05e7\u05e1\u05d9\u05e7\u05d0","name:iu":"\u14a6\u1483\u14f0\u1582","name:yo":"Or\u00edl\u1eb9\u0301\u00e8de Mesiko","name:mt":"Messiku","name:ms":"Meksiko","name:mr":"\u092e\u0947\u0915\u094d\u0938\u093f\u0915\u094b","name:my":"\u1019\u1000\u1039\u1000\u1006\u102e\u1000\u102d\u102f","official_name":"Estados Unidos Mexicanos","name:kw":"Meksiko","name:mg":"Meksika","name:ml":"\u0d2e\u0d46\u0d15\u0d4d\u0d38\u0d3f\u0d15\u0d4d\u0d15\u0d4b","name:vi":"Mexico","name:mn":"\u041c\u0435\u043a\u0441\u0438\u043a","name:mi":"M\u0113hiko","id":432425036,"name:mk":"\u041c\u0435\u043a\u0441\u0438\u043a\u043e","name:vo":"M\u00e4xik\u00e4n","name:fa":"\u0645\u06a9\u0632\u06cc\u06a9","name:ff":"Meksik","name:fi":"Meksiko","name:fo":"Meksiko","alt_name:vi":"M\u00eahic\u00f4","name:fr":"Mexique","name:fy":"Meksiko","int_name":"Mexico","name:nl":"Mexico","name:nn":"Mexico","name:no":"Mexico","name:na":"Meketiko","name:ne":"\u092e\u0947\u0915\u094d\u0938\u093f\u0915\u094b","name:wo":"Meksik","name:nv":"M\u00e9higo","name:ga":"Meicsiceo","name:gd":"Meagsago","name:gn":"M\u00e9jiko","name:gv":"Meksico","name:gu":"\u0aae\u0ac7\u0a95\u0acd\u0ab8\u0abf\u0a95\u0acb","name:tt":"\u041c\u0435\u043a\u0441\u0438\u043a\u0430"},"coordinates":[3186,2249]},{"type":"Point","properties":{"source":"naturalearthdata.com","kind":"locality","name":"Mexico City","country_capital":true,"population":19028000,"min_zoom":2.0,"id":7271},"coordinates":[3265,1943]},{"type":"Point","properties":{"source":"naturalearthdata.com","kind":"locality","name":"Los Angeles","population":12500000,"min_zoom":2.0,"id":7263},"coordinates":[1531,3398]},{"type":"Point","properties":{"source":"naturalearthdata.com","kind":"locality","name":"Houston","population":4459000,"min_zoom":3.0,"id":7225},"coordinates":[3610,2981]},{"type":"Point","properties":{"source":"naturalearthdata.com","kind":"locality","name":"Monterrey","population":3712000,"region_capital":true,"min_zoom":3.0,"id":7244},"coordinates":[3156,2566]},{"type":"Point","properties":{"source":"naturalearthdata.com","kind":"locality","name":"San Francisco","population":3450000,"min_zoom":3.0,"id":7223},"coordinates":[1145,3775]},{"type":"Point","properties":{"source":"naturalearthdata.com","kind":"locality","name":"Denver","population":2313000,"region_capital":true,"min_zoom":3.0,"id":7224},"coordinates":[2732,3972]}]},"transit":{"type":"GeometryCollection","geometries":[]},"pois":{"type":"GeometryCollection","geometries":[]},"boundaries":{"type":"GeometryCollection","geometries":[{"type":"LineString","properties":{"source":"naturalearthdata.com","kind":"country","sort_rank":262,"kind_detail":"2","min_zoom":0.0,"id":104},"arcs":[0]},{"type":"LineString","properties":{"source":"naturalearthdata.com","kind":"country","sort_rank":262,"kind_detail":"2","min_zoom":0.0,"id":321},"arcs":[1]},{"type":"LineString","properties":{"source":"naturalearthdata.com","kind":"country","sort_rank":262,"kind_detail":"2","min_zoom":0.0,"id":322},"arcs":[2]},{"type":"LineString","properties":{"source":"naturalearthdata.com","kind":"region","sort_rank":256,"kind_detail":"4","min_zoom":2.0,"id":10},"arcs":[3]},{"type":"LineString","properties":{"source":"naturalearthdata.com","kind":"region","sort_rank":256,"kind_detail":"4","min_zoom":2.0,"id":26},"arcs":[4]},{"type":"LineString","properties":{"source":"naturalearthdata.com","kind":"region","sort_rank":256,"kind_detail":"4","min_zoom":2.0,"id":27},"arcs":[5]},{"type":"LineString","properties":{"source":"naturalearthdata.com","kind":"region","sort_rank":256,"kind_detail":"4","min_zoom":2.0,"id":28},"arcs":[6]},{"type":"LineString","properties":{"source":"naturalearthdata.com","kind":"region","sort_rank":256,"kind_detail":"4","min_zoom":2.0,"id":30},"arcs":[7]},{"type":"LineString","properties":{"source":"naturalearthdata.com","kind":"region","sort_rank":256,"kind_detail":"4","min_zoom":2.0,"id":31},"arcs":[8]},{"type":"LineString","properties":{"source":"naturalearthdata.com","kind":"region","sort_rank":256,"kind_detail":"4","min_zoom":2.0,"id":37},"arcs":[9]},{"type":"LineString","properties":{"source":"naturalearthdata.com","kind":"region","sort_rank":256,"kind_detail":"4","min_zoom":2.0,"id":38},"arcs":[10]},{"type":"LineString","properties":{"source":"naturalearthdata.com","kind":"region","sort_rank":256,"kind_detail":"4","min_zoom":2.0,"id":39},"arcs":[11]},{"type":"LineString","properties":{"source":"naturalearthdata.com","kind":"region","sort_rank":256,"kind_detail":"4","min_zoom":2.0,"id":40},"arcs":[12]},{"type":"LineString","properties":{"source":"naturalearthdata.com","kind":"region","sort_rank":256,"kind_detail":"4","min_zoom":2.0,"id":41},"arcs":[13]},{"type":"LineString","properties":{"source":"naturalearthdata.com","kind":"region","sort_rank":256,"kind_detail":"4","min_zoom":2.0,"id":42},"arcs":[14]},{"type":"LineString","properties":{"source":"naturalearthdata.com","kind":"region","sort_rank":256,"kind_detail":"4","min_zoom":2.0,"id":43},"arcs":[15]},{"type":"LineString","properties":{"source":"naturalearthdata.com","kind":"region","sort_rank":256,"kind_detail":"4","min_zoom":2.0,"id":45},"arcs":[16]},{"type":"LineString","properties":{"source":"naturalearthdata.com","kind":"region","sort_rank":256,"kind_detail":"4","min_zoom":2.0,"id":46},"arcs":[17]},{"type":"LineString","properties":{"source":"naturalearthdata.com","kind":"region","sort_rank":256,"kind_detail":"4","min_zoom":2.0,"id":47},"arcs":[18]},{"type":"LineString","properties":{"source":"naturalearthdata.com","kind":"region","sort_rank":256,"kind_detail":"4","min_zoom":2.0,"id":48},"arcs":[19]},{"type":"LineString","properties":{"source":"naturalearthdata.com","kind":"region","sort_rank":256,"kind_detail":"4","min_zoom":2.0,"id":49},"arcs":[20]},{"type":"LineString","properties":{"source":"naturalearthdata.com","kind":"region","sort_rank":256,"kind_detail":"4","min_zoom":2.0,"id":50},"arcs":[21]},{"type":"LineString","properties":{"source":"naturalearthdata.com","kind":"region","sort_rank":256,"kind_detail":"4","min_zoom":2.0,"id":51},"arcs":[22]},{"type":"LineString","properties":{"source":"naturalearthdata.com","kind":"region","sort_rank":256,"kind_detail":"4","min_zoom":2.0,"id":54},"arcs":[23]},{"type":"LineString","properties":{"source":"naturalearthdata.com","kind":"region","sort_rank":256,"kind_detail":"4","min_zoom":2.0,"id":55},"arcs":[24]},{"type":"LineString","properties":{"source":"naturalearthdata.com","kind":"region","sort_rank":256,"kind_detail":"4","min_zoom":2.0,"id":56},"arcs":[25]},{"type":"LineString","properties":{"source":"naturalearthdata.com","kind":"region","sort_rank":256,"kind_detail":"4","min_zoom":2.0,"id":90},"arcs":[26]},{"type":"LineString","properties":{"source":"naturalearthdata.com","kind":"region","sort_rank":256,"kind_detail":"4","min_zoom":2.0,"id":92},"arcs":[27]},{"type":"LineString","properties":{"source":"naturalearthdata.com","kind":"region","sort_rank":256,"kind_detail":"4","min_zoom":2.0,"id":109},"arcs":[28]},{"type":"LineString","properties":{"source":"naturalearthdata.com","kind":"region","sort_rank":256,"kind_detail":"4","min_zoom":2.0,"id":108},"arcs":[29]},{"type":"LineString","properties":{"source":"naturalearthdata.com","kind":"region","sort_rank":256,"kind_detail":"4","min_zoom":2.0,"id":110},"arcs":[30]},{"type":"LineString","properties":{"source":"naturalearthdata.com","kind":"region","sort_rank":256,"kind_detail":"4","min_zoom":2.0,"id":111},"arcs":[31]},{"type":"LineString","properties":{"source":"naturalearthdata.com","kind":"region","sort_rank":256,"kind_detail":"4","min_zoom":2.0,"id":112},"arcs":[32]},{"type":"LineString","properties":{"source":"naturalearthdata.com","kind":"region","sort_rank":256,"kind_detail":"4","min_zoom":2.0,"id":113},"arcs":[33]},{"type":"LineString","properties":{"source":"naturalearthdata.com","kind":"region","sort_rank":256,"kind_detail":"4","min_zoom":2.0,"id":115},"arcs":[34]},{"type":"LineString","properties":{"source":"naturalearthdata.com","kind":"region","sort_rank":256,"kind_detail":"4","min_zoom":2.0,"id":116},"arcs":[35]},{"type":"LineString","properties":{"source":"naturalearthdata.com","kind":"region","sort_rank":256,"kind_detail":"4","min_zoom":2.0,"id":117},"arcs":[36]},{"type":"LineString","properties":{"source":"naturalearthdata.com","kind":"region","sort_rank":256,"kind_detail":"4","min_zoom":2.0,"id":118},"arcs":[37]},{"type":"LineString","properties":{"source":"naturalearthdata.com","kind":"region","sort_rank":256,"kind_detail":"4","min_zoom":2.0,"id":123},"arcs":[38]},{"type":"LineString","properties":{"source":"naturalearthdata.com","kind":"region","sort_rank":256,"kind_detail":"4","min_zoom":2.0,"id":124},"arcs":[39]}]},"roads":{"type":"GeometryCollection","geometries":[]},"earth":{"type":"GeometryCollection","geometries":[{"type":"MultiPolygon","properties":{"sort_rank":10,"source":"naturalearthdata.com","min_zoom":0.0,"kind":"earth","area":35858058894948},"arcs":[[[126]],[[127]],[[128]],[[129]],[[130]],[[131]]]}]},"landuse":{"type":"GeometryCollection","geometries":[]}},"type":"Topology","transform":{"translate":[-135.0,-0.0],"scale":[0.0109863281,0.0100048579]},"arcs":[[[4087,1373],[-1,5],[0,5],[6,7],[4,4]],[[1627,3252],[26,2],[26,2],[26,2],[26,2],[26,2],[26,3],[26,2],[26,2],[10,1],[-5,-15],[-5,-6],[44,-15],[43,-14],[43,-15],[43,-15],[43,-15],[43,-15],[44,-14],[43,-15],[32,0],[32,0],[32,0],[32,0],[33,0],[20,0],[12,0],[32,0],[32,0],[0,12],[0,11],[0,11],[0,11],[20,0],[20,0],[20,0],[20,0],[20,0],[20,0],[20,0],[20,-1],[1,0],[1,0],[8,-9],[8,-13],[10,-9],[11,-6],[20,-15],[27,-26],[22,-18],[16,-8],[11,-8],[5,-6],[8,-14],[14,-31],[0,-14],[5,-14],[11,-18],[9,-10],[8,-3],[9,-6],[10,-10],[11,-6],[12,-3],[17,-9],[22,-13],[15,-7],[8,-1],[8,5],[6,9],[6,6],[6,2],[2,4],[-1,6],[4,13],[9,20],[11,11],[12,1],[9,4],[4,6],[6,1],[10,-5],[16,-3],[21,-1],[13,0],[4,2],[2,0],[0,-2],[3,-1],[7,0],[5,-3],[7,-11],[24,-17],[2,-6],[9,-9],[15,-13],[9,-12],[2,-9],[8,-15],[13,-21],[7,-11],[-2,-2],[1,-6],[4,-10],[7,-8],[10,-7],[10,-13],[10,-18],[12,-13],[15,-10],[8,-9],[2,-8],[0,-7],[-3,-5],[1,-6],[4,-5],[2,-6],[-2,-9],[0,-3],[1,-2],[13,-15],[7,-12],[5,-20],[6,-12],[8,-4],[13,-2],[10,-4],[7,-7],[8,-3],[11,-2],[9,-4],[10,-7],[17,-5],[26,-2],[19,-6],[14,-9],[6,-2],[1,0],[1,1],[1,3],[5,3],[13,2]],[[3893,1454],[2,2],[2,6],[2,6],[-1,7],[-1,6],[3,8],[0,7],[1,3],[4,3],[2,5],[-12,16],[0,4],[2,4],[9,18],[12,21],[12,22],[8,14],[27,0],[19,0],[23,0],[25,0],[16,0],[7,0],[-1,9],[1,10],[3,9],[0,4],[-5,5],[-9,3],[-6,4],[0,6],[-2,6],[-5,8],[-9,8],[-15,8],[-12,11],[-10,13],[-9,9],[-7,4],[-1,2],[19,0],[19,-1],[0,20],[0,17],[0,20],[33,0],[40,0],[17,0]],[[3728,3354],[-5,2],[-9,1],[-4,-1],[-5,1],[-3,-2],[-3,-1],[-1,1],[-2,2],[-3,1],[-5,5]],[[1908,4096],[0,-7],[0,-16],[0,-15],[0,-16],[0,-16],[0,-15],[0,-16],[0,-15],[0,-16],[0,-16],[0,-15],[0,-16],[0,-15],[0,-16],[0,-16],[0,-15],[0,-16],[0,-16],[0,-15],[0,-16],[0,-15],[0,-16],[0,-16],[0,-15],[0,-16],[0,-15]],[[1908,3699],[28,0],[29,0],[28,0],[28,0],[29,0],[28,-1],[29,0],[28,0],[28,0],[29,0],[28,0],[29,0],[28,0],[29,0],[28,0],[28,0]],[[2362,3698],[0,-35],[0,-36],[0,-35],[0,-35],[0,-36],[0,-35],[0,-36],[0,-35],[0,-36],[0,-35],[0,-35],[0,-36],[0,-35],[0,-36],[0,-35],[0,-36]],[[2362,4096],[0,-23],[0,-25],[0,-25],[0,-25],[0,-25],[0,-25],[0,-25],[0,-25],[0,-25],[0,-25],[0,-25],[0,-25],[0,-25],[0,-25],[0,-25],[0,-25]],[[2913,3698],[-35,0],[-34,0],[-35,0],[-34,0],[-34,0],[-35,0],[-34,0],[-35,0],[-34,0],[-34,0],[-35,0],[-34,0],[-34,0],[-35,0],[-34,0],[-35,0]],[[3002,3998],[-1,13],[0,12],[0,13],[0,12],[0,13],[0,12],[0,13],[0,10]],[[3003,3698],[0,19],[-1,19],[0,19],[0,18],[0,19],[0,19],[0,18],[0,19],[0,19],[0,19],[0,18],[0,19],[0,19],[0,19],[0,18],[0,19]],[[3609,3998],[-16,0],[-19,0],[-19,0],[-19,0],[-19,0],[-19,0],[-20,0],[-19,0],[-19,0],[-19,0],[-19,0],[-19,0],[-19,0],[-19,0],[-19,0],[-19,0],[-19,0],[-19,0],[-19,0],[-20,0],[-19,0],[-19,0],[-19,0],[-19,0],[-19,0],[-19,0],[-19,0],[-19,0],[-19,0],[-19,0],[-19,0],[-19,0]],[[2913,3648],[0,13],[0,12],[0,13],[0,12]],[[3003,3698],[-23,0],[-22,0],[-23,0],[-22,0]],[[3688,3363],[-21,5],[-5,4],[-9,3],[-9,8],[-16,9],[-7,2],[-2,0],[-3,-5],[-9,-3],[-5,0],[-9,1],[-1,1],[-2,3],[-3,2],[-3,-2],[-13,-3],[-1,-3],[-8,0],[-7,2],[-18,-6],[-6,-5],[-6,-2],[-4,-5],[-2,1],[-7,6],[-6,2],[-10,5],[0,5],[-1,1],[-2,0],[-2,0],[-4,-4],[-3,-1],[-2,0],[-9,3],[-4,5],[-2,1],[-2,1],[-4,-2],[-2,-5],[-2,-2],[-4,-1],[0,-3],[-3,-8],[-2,-1],[-2,0],[-3,2],[-2,3],[0,2],[1,6],[-1,2],[-2,1],[-4,-3],[-4,0],[-5,-3],[-3,-1],[-3,1],[-5,5],[-8,3],[-3,6],[-2,1],[-1,1],[-2,-1],[-3,-1],[-10,-8],[-4,-2],[-4,-1],[-3,1],[-2,2],[-1,7],[-2,3],[-8,4],[-2,5],[-1,6],[-11,-1],[-13,0],[-5,-5],[-3,-1],[-4,1],[-11,7],[-11,-1],[-6,1],[-15,5],[-13,1],[-5,1],[-2,1],[-1,8],[-5,7],[-2,2],[-8,5],[-1,0],[-1,-1],[-2,-5],[-3,-1],[-9,2],[-9,-2],[-5,3],[-16,13],[-7,3],[-5,1],[0,12],[0,12],[0,12],[0,12],[0,12],[0,12],[0,12],[0,12],[0,12],[0,12],[0,12],[0,11],[0,12],[0,12],[0,12],[0,12],[-18,0],[-17,0],[-17,0],[-17,0],[-17,0],[-17,0],[-17,0],[-17,0],[-17,0],[-17,0],[-17,0],[-17,0],[-17,0],[-17,0],[-17,0],[-17,0]],[[3676,3698],[-21,0],[-21,0],[-21,0],[-21,0],[-22,0],[-21,0],[-21,0],[-21,0],[-21,0],[-21,0],[-21,0],[-21,0],[-21,0],[-21,0],[-21,0],[-21,0],[-21,0],[-21,0],[-21,0],[-21,0],[-21,0],[-21,0],[-21,0],[-21,0],[-21,0],[-21,0],[-21,0],[-21,0],[-21,0],[-21,0],[-21,0],[-21,0]],[[3675,3907],[0,-13],[0,-13],[0,-13],[0,-13],[0,-13],[0,-13],[0,-13],[0,-14],[0,-13],[0,-13],[0,-13],[1,-13],[0,-13],[0,-13],[0,-13],[0,-13]],[[3675,3911],[0,-4]],[[3676,3698],[0,-12],[0,-13],[0,-12],[0,-13]],[[3571,4058],[23,0],[23,0],[23,1],[23,0],[23,0],[23,0],[23,0],[23,0],[23,0],[23,1],[23,0],[23,0],[23,0],[22,0],[23,0],[23,0],[5,-7],[5,-2],[1,-2],[6,-4],[2,-4],[8,-5]],[[3728,3300],[0,13],[0,14],[0,13],[0,14]],[[3676,3648],[2,-14],[2,-14],[2,-13],[2,-14],[2,-14],[2,-14],[2,-14],[2,-14],[0,-11],[-1,-11],[0,-11],[0,-10],[0,-11],[-1,-11],[0,-11],[0,-11],[0,-11],[-1,-11],[0,-10],[0,-11],[0,-11],[-1,-11],[0,-11],[0,-11]],[[3676,3648],[25,0],[25,0],[26,0],[25,0],[25,0],[26,0],[25,0],[25,0],[26,0],[25,0],[25,0],[26,0],[25,0],[26,0],[25,0],[25,0],[4,-8],[4,-5],[1,-3],[-1,-4],[-7,-8],[-6,-4],[-3,-4],[-5,-4],[-7,-10],[15,0],[15,0],[5,0]],[[3751,2996],[6,10],[1,4],[-1,17],[-2,6],[0,4],[3,9],[-1,8],[5,11],[4,5],[4,11],[1,7],[2,5],[-1,6],[3,4],[-2,6],[-1,8],[-3,2],[-7,12],[1,5],[-7,10],[0,4],[-7,5],[-1,4],[0,14],[-2,5],[-5,8],[-13,12],[0,13],[0,13],[0,12],[0,13],[0,13],[0,12],[0,13],[0,13]],[[3728,3300],[17,0],[16,0],[16,0],[17,0],[16,0],[16,0],[17,0],[16,0],[16,0],[17,0],[16,0],[16,0],[17,0],[16,0],[16,0],[18,0]],[[4069,3498],[23,0],[4,0]],[[3945,3099],[22,0],[22,0],[22,0],[22,0],[21,0],[22,0],[20,0]],[[1856,3497],[-25,22],[-23,19],[-23,20],[-23,20],[-23,20],[-23,20],[-24,19],[-23,20],[-16,14],[-17,14],[-17,14],[-16,13],[-17,14],[-17,14],[-16,14],[-17,13],[-21,17],[-22,16],[-21,16],[-21,17],[-22,16],[-21,16],[-21,17],[-22,16],[0,19],[0,19],[0,18],[0,19],[0,19],[0,19],[0,18],[0,19],[0,19],[0,19],[0,10]],[[1856,3497],[0,1],[2,36],[-6,12],[-1,7],[2,8],[-1,6],[-2,4],[-1,9],[0,10],[-4,7],[-1,3],[2,7],[5,3],[6,3],[8,1],[10,-1],[6,-3],[5,-6],[4,-3],[5,0],[6,5],[5,10],[2,0],[0,43],[0,40]],[[1856,3497],[0,-8],[5,-11],[14,-21],[2,-5],[1,-5],[5,-5],[14,-8],[3,-4],[0,-3],[-3,-3],[-16,-11],[-8,-10],[-8,-14],[1,-12],[0,-10],[-2,-8],[-3,-7],[-4,-7],[-5,-4],[-4,-1],[-2,-9],[1,-16],[5,-9],[9,-4],[6,-5],[2,-7],[-1,-7],[-4,-7],[-6,-4],[-12,-1],[-1,-1]],[[2913,3648],[-4,0],[0,-28],[0,-28],[-1,-28],[0,-28],[0,-28],[0,-28],[0,-28],[0,-28],[0,-29],[0,-28],[-1,-28],[0,-28],[0,-28],[0,-28],[0,-28],[0,-28],[-21,0],[-20,0],[-21,0],[-20,0],[-21,0],[-20,0],[-20,0],[-21,0],[-20,0],[-21,0],[-20,0],[-21,0],[-20,0],[-21,0],[-20,0],[-21,0],[9,-19],[11,-5]],[[3609,3998],[21,-13],[6,0],[6,2],[5,-3],[4,-8],[-1,-4],[-4,0],[-6,-5],[-6,-9],[2,-9],[9,-8],[7,-9],[3,-8],[6,-7],[14,-6]],[[3571,4058],[3,-3],[5,-10],[2,-11],[5,-6],[7,-3],[6,-7],[2,-10],[7,-9],[1,-1]],[[3564,4096],[1,-9],[0,-11],[-2,-3],[3,-7],[5,-8]],[[3945,3099],[0,-1]],[[3991,3300],[1,-5],[4,-3],[0,-5],[-3,-8],[0,-5],[4,-3],[-1,-3],[-4,-3],[-1,-4],[3,-4],[2,-4],[0,-6],[4,-6],[6,-4],[4,-5],[0,-3],[1,-3],[-1,-4],[-5,-5],[-4,-4],[-3,-1],[-1,-3],[0,-6],[-6,-7],[-12,-9],[-8,-11],[-4,-14],[-4,-8],[-4,-4],[-2,-7],[0,-10],[-3,-6],[-5,-1],[-1,-6],[3,-11],[-2,-4],[-3,-4],[-1,-2]],[[4069,3498],[0,-3],[1,-2],[-3,-5],[-9,-5],[-5,-4],[0,-5],[-2,-2],[-4,-1],[-2,-7],[-2,-15],[-5,-9],[-7,-2],[-4,-4],[-1,-5],[-4,-5],[-9,-7],[-3,-6],[3,-5],[0,-3],[-3,-2],[-9,-2],[-2,-2],[0,-1],[1,-3],[2,-5],[-2,-7],[-2,-3],[-2,-3],[-8,-5],[-2,-4],[3,-3],[0,-3],[-4,-3],[2,-4],[0,-2],[4,-3],[1,-6],[-2,-8],[0,-6],[4,-6],[1,-2],[-4,-18],[0,-2]],[[4096,3546],[-6,-6],[-4,-10],[2,-11],[-5,-9],[-10,-7],[-4,-4],[0,-1]],[[3965,4036],[-6,-15],[0,-13],[3,-16],[4,-11],[5,-8],[15,-15],[26,-21],[17,-21],[7,-19],[7,-8],[9,4],[12,-2],[12,-3],[6,-4],[2,-1],[0,-2],[0,-1],[-2,-4],[-15,-32],[-5,-15],[1,-5],[6,-8],[11,-11],[10,-7],[6,-2]],[[4008,4096],[-3,-8],[-9,-15],[-11,-10],[-11,-5],[-5,-6],[1,-9],[-1,-5],[-4,-2]],[[1417,3988],[0,-1],[-1,-2],[-4,1],[-5,5],[-9,10],[-5,9],[1,3],[4,4],[6,2],[4,-3],[1,-10],[3,-11],[3,-4],[2,-3]],[[3420,2534],[-3,-8],[-7,-19],[-7,-30],[-7,-31],[-3,-22],[-3,-34],[-1,1],[-1,16],[2,8],[1,10],[0,13],[-2,4],[-3,1],[-3,3],[0,5],[1,2],[2,0],[5,-4],[2,0],[3,16],[-1,5],[0,13],[5,7],[-1,3],[-5,2],[-1,3],[2,17],[0,4],[0,2],[-5,4],[3,3],[4,5],[2,2],[1,0],[3,-4],[3,-1],[3,0],[2,2],[1,10],[1,2],[3,-1],[3,-4],[1,-5]],[[2242,3788],[0,-3],[-3,-6],[-3,-10],[-12,-13],[-10,-13],[-2,-6],[-7,-8],[-6,-8],[4,-3],[13,1],[-2,-3],[-11,-1],[-18,-5],[-11,-4],[-7,-6],[-10,0],[-7,-4],[-7,-6],[-2,1],[-5,10],[9,3],[4,0],[5,0],[3,4],[4,5],[4,-3],[3,2],[2,3],[8,-3],[10,1],[7,12],[2,7],[6,1],[6,8],[-2,10],[2,1],[5,-1],[7,6],[4,4],[4,4],[6,10],[1,10],[3,4],[3,-1]],[[2939,2018],[1,-1],[-1,-2],[-3,-2],[-4,-2],[-6,2],[-7,3],[-7,1],[-7,0],[-8,0],[-8,2],[-7,3],[-3,3],[9,2],[15,3],[10,2],[9,-1],[12,-12],[2,0],[3,-1]],[[2097,4096],[1,-1],[-1,-3],[-8,-4],[-4,-2],[-9,-11],[-7,-3],[-6,-4],[-3,0],[-2,6],[-4,6],[-1,6],[-3,6],[-1,0],[-2,-2],[-1,-4],[-2,-4],[-3,1],[-5,8],[-5,5],[40,0],[0,-2],[3,-4],[4,-4],[1,8],[-1,2],[19,0]],[[1945,3581],[-4,2],[-5,7],[-6,9],[-9,7],[-5,5],[-3,4],[-5,0],[-7,-14],[-9,-2],[-7,2],[-3,5],[-4,2],[-4,-1],[-4,-1],[-4,3],[-13,0],[-7,-8],[-2,-1],[-2,0],[-4,6],[-1,4],[15,4],[13,4],[7,4],[2,11],[2,14],[2,3],[3,0],[0,-7],[-2,-11],[-1,-13],[7,-10],[6,-6],[6,3],[6,7],[6,10],[3,0],[6,-7],[6,-6],[8,-7],[7,-9],[6,-10],[0,-3]],[[2117,4017],[-8,-3],[-2,-6],[-1,-3],[-3,-1],[0,2],[0,4],[0,3],[-2,3],[6,7],[-1,7],[-2,6],[8,-1],[3,-3],[3,-6],[3,-4],[2,-1],[-1,-2],[-5,-2]],[[1765,3326],[-1,-5],[-7,-9],[-8,1],[-12,16],[-13,13],[1,7],[3,2],[6,-1],[6,-6],[20,-14],[5,-4]],[[1371,3901],[-3,-7],[-6,-1],[-4,2],[-3,9],[-2,3],[0,5],[7,8],[7,2],[2,1],[2,0],[2,-4],[-2,-18]],[[3102,2949],[0,-1],[-1,-1],[-4,0],[-6,-2],[-5,-1],[-5,1],[-4,3],[-3,1],[-4,-1],[-1,1],[1,2],[1,4],[-1,1],[-1,1],[-2,0],[-1,2],[1,2],[0,1],[3,1],[5,-4],[3,-2],[4,-3],[3,-3],[3,-1],[4,1],[2,2],[1,-1],[2,2],[2,6],[1,-1],[-1,-4],[0,-4],[2,-2],[1,0]],[[4096,1369],[0,-1369],[-114,0],[-2,3],[-3,6],[-5,4],[-12,-2],[-1,-5],[-8,-6],[-3951,0],[0,4096],[989,0],[0,-1],[-6,-15],[-2,-3],[0,-1],[3,-1],[-2,-2],[-1,-5],[-3,0],[1,3],[-1,1],[-3,-3],[-3,-11],[-5,-11],[2,-12],[3,-12],[19,-15],[21,-24],[4,-8],[5,-16],[0,-10],[-3,-15],[9,-26],[1,-20],[26,-23],[12,-14],[15,-9],[7,-14],[5,-3],[8,-8],[2,-8],[-9,11],[1,-13],[-3,-8],[0,-3],[6,7],[6,-3],[10,-8],[7,-5],[9,-2],[6,-5],[5,1],[-3,12],[1,15],[8,4],[6,-1],[11,-7],[5,0],[11,6],[4,-1],[5,-3],[5,-1],[12,0],[6,0],[5,1],[9,-3],[-4,-1],[-6,1],[-7,-2],[-34,1],[-11,-1],[-9,-3],[-7,-5],[2,-4],[3,-2],[3,-11],[7,-6],[6,-10],[3,-8],[3,-3],[2,-4],[-5,0],[-4,2],[-6,7],[-6,2],[-6,7],[-2,8],[0,5],[-5,1],[-7,-3],[2,-12],[0,-11],[8,-17],[1,-16],[21,-22],[26,-5],[7,-9],[1,-5],[0,-7],[-4,-7],[-7,-9],[0,-13],[3,-11],[20,-17],[18,-23],[3,-6],[8,-8],[5,-11],[14,-7],[10,-13],[11,-5],[4,-6],[-2,-9],[2,-7],[14,-5],[4,-3],[3,-5],[-3,-13],[3,-13],[-1,-7],[1,-8],[-1,-9],[7,-3],[8,-8],[7,-1],[21,2],[11,-1],[18,-5],[12,-2],[10,2],[18,-8],[13,-8],[3,-9],[8,-5],[29,-9],[21,1],[8,-2],[11,-16],[-2,-11],[11,-3],[2,4],[10,-1],[7,-2],[12,-11],[15,-8],[29,-24],[13,-20],[5,-16],[1,-6],[-1,-7],[2,-14],[6,2],[4,-4],[1,-11],[6,-19],[2,-4],[11,-11],[6,-20],[21,-14],[0,-10],[-3,-2],[-4,1],[-2,-1],[5,-4],[0,-13],[5,-7],[14,-13],[11,-16],[2,-8],[0,-7],[1,-8],[22,-17],[2,-10],[1,-14],[3,-15],[12,-5],[4,-6],[3,-22],[-2,-12],[5,-3],[7,-18],[10,-7],[23,-15],[13,-11],[16,-4],[5,-3],[6,-7],[19,-19],[32,-36],[15,-13],[9,-18],[-4,-20],[-8,-21],[-8,-8],[1,-3],[9,2],[0,-6],[-1,-3],[3,-11],[6,-5],[-6,0],[-9,4],[-6,6],[1,7],[-1,3],[-6,-3],[-7,-5],[-11,-1],[-23,5],[-20,1],[0,-4],[4,-7],[12,-7],[13,-12],[16,-11],[4,-6],[2,-9],[3,-7],[10,-6],[12,-1],[8,-4],[11,-12],[5,0],[9,-2],[8,-9],[5,-8],[9,-7],[16,7],[14,0],[6,6],[4,9],[1,-15],[3,-8],[9,-13],[33,-27],[12,-4],[13,-6],[19,-30],[5,-15],[0,-13],[2,-5],[2,-1],[1,-8],[-2,-17],[-4,-28],[1,-11],[4,-9],[20,-17],[2,-4],[1,-6],[1,-3],[5,1],[6,0],[10,-11],[14,-11],[35,-23],[13,-13],[12,-9],[12,-14],[25,-14],[6,-8],[4,-11],[6,-7],[9,-34],[7,-11],[8,-1],[9,4],[8,6],[9,10],[12,8],[4,5],[4,19],[-1,8],[-8,12],[-15,6],[-3,14],[-6,6],[-3,8],[-8,9],[-8,8],[-4,6],[-21,17],[-4,0],[-2,-4],[0,-4],[3,-7],[-3,-5],[-4,-4],[-4,3],[1,3],[-2,2],[-11,3],[-10,13],[-7,25],[0,8],[5,12],[-1,8],[-6,12],[-13,15],[-11,28],[-2,10],[-10,5],[-13,22],[-4,14],[0,19],[-6,14],[-2,9],[-4,6],[0,9],[-7,8],[-2,12],[-21,18],[-2,-2],[0,-11],[4,-7],[7,-10],[-2,-2],[-3,1],[-10,11],[-2,16],[-11,12],[-1,5],[1,7],[-8,6],[-9,4],[-8,16],[-4,18],[-21,13],[-16,17],[-3,8],[1,9],[-5,10],[1,11],[-7,9],[1,6],[-1,7],[-8,3],[-7,2],[-5,4],[-10,28],[-5,2],[-6,0],[-1,3],[1,3],[-5,7],[-11,-2],[-4,10],[0,8],[-19,26],[-7,8],[-21,17],[-11,12],[-17,10],[-3,6],[-14,13],[-7,13],[-2,8],[2,27],[-5,12],[-2,14],[-5,19],[-7,13],[-4,7],[3,38],[6,11],[-5,15],[-5,6],[-4,5],[18,-10],[4,-3],[8,-1],[6,-3],[25,-18],[11,-5],[6,1],[7,1],[3,7],[2,3],[17,-7],[6,-3],[6,-6],[1,-12],[13,-5],[22,-4],[5,-2],[9,-3],[3,-3],[1,-9],[-3,-2],[-3,1],[-1,-3],[1,-2],[2,-9],[-3,-14],[5,-14],[10,-14],[11,-21],[6,-18],[2,-14],[4,-7],[4,-4],[7,-15],[15,-19],[2,-7],[0,-4],[1,-8],[7,-2],[7,-5],[3,-16],[3,-10],[10,-12],[10,-7],[2,-3],[1,-4],[7,-11],[8,-8],[6,-9],[19,-9],[17,-27],[14,-15],[13,-4],[6,-3],[6,2],[8,0],[21,-5],[-4,-7],[-3,-14],[2,-11],[3,-9],[3,-6],[4,-7],[9,-9],[9,-7],[31,-8],[1,-5],[1,-5],[2,-10],[6,-11],[7,-7],[7,-1],[18,2],[18,-18],[3,-8],[1,-5],[2,-5],[6,-5],[3,-5],[-4,1],[-4,4],[-6,-6],[-8,-10],[-6,-11],[4,-31],[7,-9],[4,-2],[6,-2],[10,2],[7,3],[6,5],[5,4],[0,-4],[-8,-10],[-9,-4],[1,-4],[3,-3],[12,3],[5,3],[5,0],[3,-12],[5,-4],[21,-12],[9,-7],[25,-10],[4,-3],[1,-3],[-4,-1],[-5,0],[-5,1],[-5,4],[-3,1],[7,-11],[17,-19],[1,-9],[5,-8],[12,-7],[10,-2],[3,-2],[7,-1],[5,1],[3,-1],[2,-7],[0,-5],[-3,-1],[-19,11],[-3,0],[62,-46],[13,-13],[19,-27],[15,-16],[15,-26],[15,-13],[20,-23],[7,-5],[14,-15],[13,-30],[0,-34],[11,-17],[6,-15],[2,-5],[21,-13],[-3,-11],[1,-13],[-1,-13],[-6,-9],[-8,-10],[-6,-9],[-5,-3],[2,-3],[6,0],[9,-3],[7,-8],[0,-4],[-1,-5],[-11,-7],[-15,-1],[-9,-6],[-2,-5],[5,-7],[4,-9],[3,-15],[5,-10],[18,-27],[16,-15],[6,-12],[9,-13],[31,-16],[18,-6],[11,-8],[22,-10],[12,-8],[19,-20],[11,-14],[13,-16],[38,-14],[29,-13],[14,-2],[30,-8],[20,1],[7,-1],[7,-4],[7,-8],[15,-19],[10,-3],[10,-10],[21,-13],[14,-11],[14,-8],[37,-13],[18,-8],[20,-7],[30,-20],[31,-5],[32,-9],[8,-3],[13,-1],[22,-23],[35,-10],[35,-24],[52,-6],[34,-18],[27,-8],[10,4],[17,1],[41,19],[28,9],[30,20],[17,3],[13,0],[1,2],[-5,2],[-16,3],[0,3],[8,7],[3,4],[4,0],[6,-5],[-1,-4],[1,-4],[3,0],[10,6],[3,0],[2,-3],[-8,-9],[2,-3],[17,-1],[43,-17],[-3,4],[-15,9],[-5,2],[-5,0],[-6,3],[-5,3],[2,6],[3,0],[6,-5],[6,-3],[15,-6],[15,-9],[16,-17],[18,-14],[34,-30],[13,-14],[9,-7],[10,-10],[26,-30],[24,-27],[3,-2],[37,-32],[17,-11],[24,-13],[21,-6],[49,0],[11,-3],[35,-16],[9,-4]],[[2190,1879],[-5,6],[-4,-3],[-2,-5],[8,-6],[5,2],[-2,6]],[[2584,2155],[7,-3],[3,8],[-2,4],[-1,3],[-6,3],[-4,-1],[1,-9],[2,-5]],[[2294,2417],[-8,16],[-1,-1],[2,-13],[4,-5],[2,0],[1,1],[0,2]],[[2221,2503],[-8,5],[-1,-1],[0,-4],[4,-7],[6,-6],[5,-2],[-3,11],[-3,4]],[[2166,2584],[6,15],[4,-3],[1,1],[-2,4],[1,5],[-4,0],[-4,-3],[-4,-21],[2,2]],[[2070,2919],[-2,4],[-13,-4],[-4,-4],[-6,-27],[2,-5],[14,-7],[7,0],[7,23],[-4,12],[-1,8]],[[1986,2912],[-2,17],[-16,3],[0,8],[-3,7],[-9,8],[-7,1],[-1,-11],[2,-5],[7,-11],[21,-21],[10,-6],[0,2],[-2,8]],[[1847,3174],[-6,4],[-1,-1],[0,-4],[5,-4],[3,0],[1,2],[-2,3]],[[2107,2453],[-8,1],[-7,-2],[28,-19],[1,5],[-14,15]],[[2088,2453],[-1,4],[-5,7],[0,8],[-3,7],[-3,4],[-1,4],[7,34],[-3,6],[-6,-33],[-7,-16],[8,-3],[4,-3],[1,-8],[7,-12],[2,1]],[[1803,2831],[-4,4],[-3,-2],[1,-12],[-9,-12],[16,-7],[1,4],[2,10],[-4,15]],[[1519,2917],[-5,0],[-3,-2],[0,-5],[10,-21],[4,4],[0,10],[-2,4],[-4,5],[0,5]],[[1501,3294],[-4,8],[-3,-2],[5,-8],[5,-10],[6,-2],[5,1],[-3,2],[-11,11]],[[1413,3326],[-4,1],[-5,-1],[3,-5],[5,-1],[4,0],[0,2],[-3,4]],[[1512,3340],[-15,6],[-1,-1],[0,-3],[5,-1],[2,-1],[2,-6],[2,-4],[7,1],[6,-1],[-4,7],[-4,3]],[[1361,3390],[6,6],[-1,1],[-7,4],[-17,-1],[8,-10],[5,-1],[6,1]],[[1337,3401],[-4,3],[-1,2],[-4,-2],[-3,-2],[8,-1],[4,0]],[[1375,3402],[1,-4],[7,-3],[22,4],[1,2],[-1,3],[-10,-3],[-19,5],[-3,-1],[2,-3]],[[4096,2119],[-17,-8],[-15,-11],[-8,-25],[-2,-5],[-2,-15],[0,-18],[0,-16],[0,-19],[-1,-8],[-1,-4],[-13,-11],[-4,-7],[-4,-38],[-20,-20],[-9,-5],[-7,-6],[-28,-15],[-2,-2],[-1,-4],[2,0],[10,7],[1,-2],[-3,-7],[1,-3],[4,-1],[3,-5],[0,-9],[-15,-9],[-9,-8],[-6,-1],[-18,2],[-10,6],[-3,3],[6,4],[0,4],[-9,8],[-11,-1],[-10,-2],[-21,-1],[-4,-1],[-21,-6],[-1,-3],[-4,-5],[-11,-6],[-22,-5],[-9,2],[-29,-1],[-20,-7],[-10,-5],[-28,-11],[-19,-3],[-6,0],[-8,1],[-12,17],[-11,17],[-19,5],[-16,13],[-34,2],[-13,6],[-2,-1],[6,-5],[7,-3],[-4,0],[-18,7],[-9,6],[-1,3],[11,-5],[3,1],[-12,9],[-7,15],[-8,6],[-4,9],[-15,14],[-3,13],[-5,10],[-8,30],[-23,32],[-37,42],[-6,11],[-1,8],[-15,30],[-13,30],[0,3],[-1,5],[-5,3],[-3,3],[-3,6],[-11,43],[15,-27],[12,-15],[7,-4],[0,-5],[-4,-6],[-1,-10],[3,-9],[2,10],[4,7],[2,12],[-4,5],[-11,9],[-9,11],[-17,30],[-1,17],[-6,23],[0,5],[-1,6],[4,16],[5,10],[1,6],[-2,36],[4,43],[-2,3],[2,3],[1,19],[4,41],[15,62],[7,22],[18,35],[6,17],[2,21],[0,7],[-1,3],[-6,1],[-17,32],[-3,9],[-3,21],[-2,7],[-3,14],[-3,6],[4,9],[4,6],[0,6],[-1,6],[-19,5],[-7,17],[8,-6],[14,-8],[4,0],[4,2],[5,9],[9,25],[-13,16],[2,3],[3,1],[11,-2],[7,3],[9,10],[4,11],[-10,-3],[-1,4],[0,4],[5,1],[7,1],[5,3],[3,3],[1,-4],[3,-3],[4,4],[3,3],[2,10],[1,10],[9,-8],[11,2],[6,4],[7,5],[-5,3],[-5,0],[-10,22],[2,2],[3,-1],[2,-3],[3,-4],[7,-5],[7,4],[0,2],[9,0],[14,-3],[10,1],[-11,-7],[-9,-7],[4,1],[15,8],[15,6],[11,7],[7,3],[25,15],[10,7],[11,12],[1,8],[11,10],[12,11],[-4,9],[-5,7],[-3,17],[4,1],[4,-3],[4,-1],[5,8],[8,0],[2,-10],[-5,-11],[4,-1],[12,3],[7,-2],[-20,-13],[-1,-3],[17,10],[43,19],[19,1],[0,4],[-5,9],[9,17],[5,-1],[2,-2],[0,-4],[-4,-6],[-3,-4],[-4,0],[2,-6],[4,-3],[5,3],[7,2],[28,0],[9,1],[10,-1],[20,-6],[15,-8],[11,-4],[37,-4],[16,4],[3,2],[-5,5],[-2,4],[5,6],[5,4],[12,3],[6,-8],[14,-1],[10,-14],[4,-5],[17,-4],[5,5],[2,0],[-1,-6],[2,-5],[8,-10],[0,-4],[-8,2],[-4,-1],[0,-4],[26,-9],[23,-6],[6,2],[9,12],[7,3],[11,-1],[8,-4],[5,-12],[3,-3],[7,3],[3,5],[1,6],[1,5],[2,4],[0,10],[-4,3],[-4,2],[-2,2],[1,3],[14,-4],[0,-829]],[[3440,2629],[-13,50],[-3,39],[-2,-9],[0,-28],[13,-49],[7,-22],[1,5],[-3,14]],[[3436,2753],[17,28],[-6,-4],[-15,-26],[-7,-19],[-1,-9],[3,6],[9,24]],[[3473,2808],[-1,4],[-4,-2],[-7,-10],[-1,-3],[-4,-8],[2,0],[8,11],[7,8]],[[3512,2832],[1,5],[-1,-1],[-3,-3],[-6,-1],[-15,-10],[-7,-3],[-4,-6],[3,1],[20,12],[12,6]],[[3653,2924],[9,8],[-5,1],[-4,-5],[-20,-16],[4,1],[16,11]],[[3933,2949],[3,3],[0,3],[-1,2],[-3,1],[-7,5],[-4,0],[-8,-3],[1,-4],[15,-9],[4,2]],[[3951,1877],[-20,-10],[2,-2],[10,2],[2,3],[11,5],[-1,1],[-4,1]],[[4096,3004],[-16,-3],[-10,4],[-12,8],[8,13],[9,10],[10,-1],[7,-1],[4,-4],[0,-26]],[[3260,2675],[3,-1],[3,0],[1,-3],[-4,-7],[0,-6],[-2,-3],[-2,0],[-4,2],[-1,9],[-3,9],[-4,4],[-6,-1],[1,1],[2,2],[-1,6],[-3,7],[-5,7],[0,3],[4,-1],[4,-4],[9,-8],[5,-1],[0,-11],[3,-4]],[[2097,4096],[1,-1],[-1,-3],[-8,-4],[-4,-2],[-9,-11],[-7,-3],[-6,-4],[-3,0],[-2,6],[-4,6],[-1,6],[-3,6],[-1,0],[-2,-2],[-1,-4],[-2,-4],[-3,1],[-5,8],[-5,5]],[[2078,4086],[1,8],[-1,2]],[[2071,4096],[0,-2],[3,-4],[4,-4]],[[3420,2534],[-3,-8],[-7,-19],[-7,-30],[-7,-31],[-3,-22],[-3,-34],[-1,1],[-1,16],[2,8],[1,10],[0,13],[-2,4],[-3,1],[-3,3],[0,5],[1,2],[2,0],[5,-4],[2,0],[3,16],[-1,5],[0,13],[5,7],[-1,3],[-5,2],[-1,3],[2,17],[0,4],[0,2],[-5,4],[3,3],[4,5],[2,2],[1,0],[3,-4],[3,-1],[3,0],[2,2],[1,10],[1,2],[3,-1],[3,-4],[1,-5]],[[1371,3901],[-3,-7],[-6,-1],[-4,2],[-3,9],[-2,3],[0,5],[7,8],[7,2],[2,1],[2,0],[2,-4],[-2,-18]],[[1765,3326],[-1,-5],[-7,-9],[-8,1],[-12,16],[-13,13],[1,7],[3,2],[6,-1],[6,-6],[20,-14],[5,-4]],[[4057,3026],[-3,-8],[-7,-2],[-3,2],[-1,4],[2,5],[6,6],[6,-2],[0,-5]],[[2727,2179],[-2,1],[2,-1]],[[1945,3581],[-4,2],[-5,7],[-6,9],[-9,7],[-5,5],[-3,4],[-5,0],[-7,-14],[-9,-2],[-7,2],[-3,5],[-4,2],[-4,-1],[-4,-1],[-4,3],[-13,0],[-7,-8],[-2,-1],[-2,0],[-4,6],[-1,4],[15,4],[13,4],[7,4],[2,11],[2,14],[2,3],[3,0],[0,-7],[-2,-11],[-1,-13],[7,-10],[6,-6],[6,3],[6,7],[6,10],[3,0],[6,-7],[6,-6],[8,-7],[7,-9],[6,-10],[0,-3]],[[2242,3788],[0,-3],[-3,-6],[-3,-10],[-12,-13],[-10,-13],[-2,-6],[-7,-8],[-6,-8],[4,-3],[13,1],[-2,-3],[-11,-1],[-18,-5],[-11,-4],[-7,-6],[-10,0],[-7,-4],[-7,-6],[-2,1],[-5,10],[9,3],[4,0],[5,0],[3,4],[4,5],[4,-3],[3,2],[2,3],[8,-3],[10,1],[7,12],[2,7],[6,1],[6,8],[-2,10],[2,1],[5,-1],[7,6],[4,4],[4,4],[6,10],[1,10],[3,4],[3,-1]],[[1333,3404],[-1,2],[-4,-2],[-3,-2],[8,-1],[4,0],[-4,3]],[[1409,3327],[-5,-1],[3,-5],[5,-1],[4,0],[0,2],[-3,4],[-4,1]],[[3473,2808],[-1,4],[-4,-2],[-7,-10],[-1,-3],[-4,-8],[2,0],[8,11],[7,8]],[[2117,4017],[-8,-3],[-2,-6],[-1,-3],[-3,-1],[0,2],[0,4],[0,3],[-2,3],[6,7],[-1,7],[-2,6],[8,-1],[3,-3],[3,-6],[3,-4],[2,-1],[-1,-2],[-5,-2]],[[1417,3988],[0,-1],[-1,-2],[-4,1],[-5,5],[-9,10],[-5,9],[1,3],[4,4],[6,2],[4,-3],[1,-10],[3,-11],[3,-4],[2,-3]],[[1401,3704],[1,-1],[-1,-2],[-3,-2],[-5,-1],[2,3],[5,2],[1,1]],[[3102,2949],[0,-1],[-1,-1],[-4,0],[-6,-2],[-5,-1],[-5,1],[-4,3],[-3,1],[-4,-1],[-1,1],[1,2],[1,4],[-1,1],[-1,1],[-2,0],[-1,2],[1,2],[0,1],[3,1],[5,-4],[3,-2],[4,-3],[3,-3],[3,-1],[4,1],[2,2],[1,-1],[2,2],[2,6],[1,-1],[-1,-4],[0,-4],[2,-2],[1,0]],[[2939,2018],[1,-1],[-1,-2],[-3,-2],[-4,-2],[-6,2],[-7,3],[-7,1],[-7,0],[-8,0],[-8,2],[-7,3],[-3,3],[9,2],[15,3],[10,2],[9,-1],[12,-12],[2,0],[3,-1]],[[3260,2675],[3,-1],[3,0],[1,-3],[-4,-7],[0,-6],[-2,-3],[-2,0],[-4,2],[-1,9],[-3,9],[-4,4],[-6,-1],[1,1],[2,2],[-1,6],[-3,7],[-5,7],[0,3],[4,-1],[4,-4],[9,-8],[5,-1],[0,-11],[3,-4]],[[1879,3442],[-4,5],[2,5],[5,-6],[9,-6],[13,-10],[-5,-7],[-2,1],[-3,6],[-6,5],[-9,7]],[[1162,4085],[-1,-6],[1,-2],[11,1],[2,-2],[-1,-1],[-4,-2],[-9,0],[-11,-3],[-4,0],[-2,2],[1,3],[2,6],[3,-1],[1,-4],[5,2],[4,6],[2,1]],[[1501,3294],[-4,8],[-3,-2],[5,-8],[5,-10],[6,-2],[5,1],[-3,2],[-11,11]],[[1519,2912],[0,5],[-5,0],[-3,-2],[0,-5],[10,-21],[4,4],[0,10],[-2,4],[-4,5]],[[1342,3400],[8,-10],[5,-1],[6,1],[6,6],[-1,1],[-7,4],[-17,-1]],[[1395,3401],[-19,5],[-3,-1],[2,-3],[1,-4],[7,-3],[22,4],[1,2],[-1,3],[-10,-3]],[[1505,3334],[2,-4],[7,1],[6,-1],[-4,7],[-4,3],[-15,6],[-1,-1],[0,-3],[5,-1],[2,-1],[2,-6]],[[3503,2832],[-15,-10],[-7,-3],[-4,-6],[3,1],[20,12],[12,6],[1,5],[-1,-1],[-3,-3],[-6,-1]],[[3432,2751],[-7,-19],[-1,-9],[3,6],[9,24],[17,28],[-6,-4],[-15,-26]],[[3633,2912],[4,1],[16,11],[9,8],[-5,1],[-4,-5],[-20,-16]],[[3424,2718],[-2,-9],[0,-28],[13,-49],[7,-22],[1,5],[-3,14],[-13,50],[-3,39]],[[3932,2958],[-7,5],[-4,0],[-8,-3],[1,-4],[15,-9],[4,2],[3,3],[0,3],[-1,2],[-3,1]],[[3931,1867],[2,-2],[10,2],[2,3],[11,5],[-1,1],[-4,1],[-20,-10]],[[3982,0],[-2,3],[-3,6],[-5,4],[-12,-2],[-1,-5],[-8,-6]],[[2592,2164],[-1,3],[-6,3],[-4,-1],[1,-9],[2,-5],[7,-3],[3,8],[-2,4]],[[2185,1885],[-4,-3],[-2,-5],[8,-6],[5,2],[-2,6],[-5,6]],[[2212,2503],[4,-7],[6,-6],[5,-2],[-3,11],[-3,4],[-8,5],[-1,-1],[0,-4]],[[2286,2433],[-1,-1],[2,-13],[4,-5],[2,0],[1,1],[0,2],[-8,16]],[[1984,2929],[-16,3],[0,8],[-3,7],[-9,8],[-7,1],[-1,-11],[2,-5],[7,-11],[21,-21],[10,-6],[0,2],[-2,8],[-2,17]],[[1840,3173],[5,-4],[3,0],[1,2],[-2,3],[-6,4],[-1,-1],[0,-4]],[[1799,2835],[-3,-2],[1,-12],[-9,-12],[16,-7],[1,4],[2,10],[-4,15],[-4,4]],[[2107,2453],[-8,1],[-7,-2],[28,-19],[1,5],[-14,15]],[[2176,2606],[-4,0],[-4,-3],[-4,-21],[2,2],[6,15],[4,-3],[1,1],[-2,4],[1,5]],[[2075,2899],[-4,12],[-1,8],[-2,4],[-13,-4],[-4,-4],[-6,-27],[2,-5],[14,-7],[7,0],[7,23]],[[2079,2479],[-3,4],[-1,4],[7,34],[-3,6],[-6,-33],[-7,-16],[8,-3],[4,-3],[1,-8],[7,-12],[2,1],[-1,4],[-5,7],[0,8],[-3,7]],[[989,4096],[0,-1],[-6,-15],[-2,-3],[0,-1],[3,-1],[-2,-2],[-1,-5],[-3,0],[1,3],[-1,1],[-3,-3],[-3,-11],[-5,-11],[2,-12],[3,-12],[19,-15],[21,-24],[4,-8],[5,-16],[0,-10],[-3,-15],[9,-26],[1,-20],[26,-23],[12,-14],[15,-9],[7,-14],[5,-3],[8,-8],[2,-8],[-9,11],[1,-13],[-3,-8],[0,-3],[6,7],[6,-3],[10,-8],[7,-5],[9,-2],[6,-5],[5,1],[-3,12],[1,15],[8,4],[6,-1],[11,-7],[5,0],[11,6],[4,-1],[5,-3],[5,-1],[12,0],[6,0],[5,1],[9,-3],[-4,-1],[-6,1],[-7,-2],[-34,1],[-11,-1],[-9,-3],[-7,-5],[2,-4],[3,-2],[3,-11],[7,-6],[6,-10],[3,-8],[3,-3],[2,-4],[-5,0],[-4,2],[-6,7],[-6,2],[-6,7],[-2,8],[0,5],[-5,1],[-7,-3],[2,-12],[0,-11],[8,-17],[1,-16],[21,-22],[26,-5],[7,-9],[1,-5],[0,-7],[-4,-7],[-7,-9],[0,-13],[3,-11],[20,-17],[18,-23],[3,-6],[8,-8],[5,-11],[14,-7],[10,-13],[11,-5],[4,-6],[-2,-9],[2,-7],[14,-5],[4,-3],[3,-5],[-3,-13],[3,-13],[-1,-7],[1,-8],[-1,-9],[7,-3],[8,-8],[7,-1],[21,2],[11,-1],[18,-5],[12,-2],[10,2],[18,-8],[13,-8],[3,-9],[8,-5],[29,-9],[21,1],[8,-2],[11,-16],[-2,-11],[11,-3],[2,4],[10,-1],[7,-2],[12,-11],[15,-8],[29,-24],[13,-20],[5,-16],[1,-6],[-1,-7],[2,-14],[6,2],[4,-4],[1,-11],[6,-19],[2,-4],[11,-11],[6,-20],[21,-14],[0,-10],[-3,-2],[-4,1],[-2,-1],[5,-4],[0,-13],[5,-7],[14,-13],[11,-16],[2,-8],[0,-7],[1,-8],[22,-17],[2,-10],[1,-14],[3,-15],[12,-5],[4,-6],[3,-22],[-2,-12],[5,-3],[7,-18],[10,-7],[23,-15],[13,-11],[16,-4],[5,-3],[6,-7],[19,-19],[32,-36],[15,-13],[9,-18],[-4,-20],[-8,-21],[-8,-8],[1,-3],[9,2],[0,-6],[-1,-3],[3,-11],[6,-5],[-6,0],[-9,4],[-6,6],[1,7],[-1,3],[-6,-3],[-7,-5],[-11,-1],[-23,5],[-20,1],[0,-4],[4,-7],[12,-7],[13,-12],[16,-11],[4,-6],[2,-9],[3,-7],[10,-6],[12,-1],[8,-4],[11,-12],[5,0],[9,-2],[8,-9],[5,-8],[9,-7],[16,7],[14,0],[6,6],[4,9],[1,-15],[3,-8],[9,-13],[33,-27],[12,-4],[13,-6],[19,-30],[5,-15],[0,-13],[2,-5],[2,-1],[1,-8],[-2,-17],[-4,-28],[1,-11],[4,-9],[20,-17],[2,-4],[1,-6],[1,-3],[5,1],[6,0],[10,-11],[14,-11],[35,-23],[13,-13],[12,-9],[12,-14],[25,-14],[6,-8],[4,-11],[6,-7],[9,-34],[7,-11],[8,-1],[9,4],[8,6],[9,10],[12,8],[4,5],[4,19],[-1,8],[-8,12],[-15,6],[-3,14],[-6,6],[-3,8],[-8,9],[-8,8],[-4,6],[-21,17],[-4,0],[-2,-4],[0,-4],[3,-7],[-3,-5],[-4,-4],[-4,3],[1,3],[-2,2],[-11,3],[-10,13],[-7,25],[0,8],[5,12],[-1,8],[-6,12],[-13,15],[-11,28],[-2,10],[-10,5],[-13,22],[-4,14],[0,19],[-6,14],[-2,9],[-4,6],[0,9],[-7,8],[-2,12],[-21,18],[-2,-2],[0,-11],[4,-7],[7,-10],[-2,-2],[-3,1],[-10,11],[-2,16],[-11,12],[-1,5],[1,7],[-8,6],[-9,4],[-8,16],[-4,18],[-21,13],[-16,17],[-3,8],[1,9],[-5,10],[1,11],[-7,9],[1,6],[-1,7],[-8,3],[-7,2],[-5,4],[-10,28],[-5,2],[-6,0],[-1,3],[1,3],[-5,7],[-11,-2],[-4,10],[0,8],[-19,26],[-7,8],[-21,17],[-11,12],[-17,10],[-3,6],[-14,13],[-7,13],[-2,8],[2,27],[-5,12],[-2,14],[-5,19],[-7,13],[-4,7],[3,38],[6,11],[-5,15],[-5,6],[-4,5],[18,-10],[4,-3],[8,-1],[6,-3],[25,-18],[11,-5],[6,1],[7,1],[3,7],[2,3],[17,-7],[6,-3],[6,-6],[1,-12],[13,-5],[22,-4],[5,-2],[9,-3],[3,-3],[1,-9],[-3,-2],[-3,1],[-1,-3],[1,-2],[2,-9],[-3,-14],[5,-14],[10,-14],[11,-21],[6,-18],[2,-14],[4,-7],[4,-4],[7,-15],[15,-19],[2,-7],[0,-4],[1,-8],[7,-2],[7,-5],[3,-16],[3,-10],[10,-12],[10,-7],[2,-3],[1,-4],[7,-11],[8,-8],[6,-9],[19,-9],[17,-27],[14,-15],[13,-4],[6,-3],[6,2],[8,0],[21,-5],[-4,-7],[-3,-14],[2,-11],[3,-9],[3,-6],[4,-7],[9,-9],[9,-7],[31,-8],[1,-5],[1,-5],[2,-10],[6,-11],[7,-7],[7,-1],[18,2],[18,-18],[3,-8],[1,-5],[2,-5],[6,-5],[3,-5],[-4,1],[-4,4],[-6,-6],[-8,-10],[-6,-11],[4,-31],[7,-9],[4,-2],[6,-2],[10,2],[7,3],[6,5],[5,4],[0,-4],[-8,-10],[-9,-4],[1,-4],[3,-3],[12,3],[5,3],[5,0],[3,-12],[5,-4],[21,-12],[9,-7],[25,-10],[4,-3],[1,-3],[-4,-1],[-5,0],[-5,1],[-5,4],[-3,1],[7,-11],[17,-19],[1,-9],[5,-8],[12,-7],[10,-2],[3,-2],[7,-1],[5,1],[3,-1],[2,-7],[0,-5],[-3,-1],[-19,11],[-3,0],[62,-46],[13,-13],[19,-27],[15,-16],[15,-26],[15,-13],[20,-23],[7,-5],[14,-15],[13,-30],[0,-34],[11,-17],[6,-15],[2,-5],[21,-13],[-3,-11],[1,-13],[-1,-13],[-6,-9],[-8,-10],[-6,-9],[-5,-3],[2,-3],[6,0],[9,-3],[7,-8],[0,-4],[-1,-5],[-11,-7],[-15,-1],[-9,-6],[-2,-5],[5,-7],[4,-9],[3,-15],[5,-10],[18,-27],[16,-15],[6,-12],[9,-13],[31,-16],[18,-6],[11,-8],[22,-10],[12,-8],[19,-20],[11,-14],[13,-16],[38,-14],[29,-13],[14,-2],[30,-8],[20,1],[7,-1],[7,-4],[7,-8],[15,-19],[10,-3],[10,-10],[21,-13],[14,-11],[14,-8],[37,-13],[18,-8],[20,-7],[30,-20],[31,-5],[32,-9],[8,-3],[13,-1],[22,-23],[35,-10],[35,-24],[52,-6],[34,-18],[27,-8],[10,4],[17,1],[41,19],[28,9],[30,20],[17,3],[13,0],[1,2],[-5,2],[-16,3],[0,3],[8,7],[3,4],[4,0],[6,-5],[-1,-4],[1,-4],[3,0],[10,6],[3,0],[2,-3],[-8,-9],[2,-3],[17,-1],[43,-17],[-3,4],[-15,9],[-5,2],[-5,0],[-6,3],[-5,3],[2,6],[3,0],[6,-5],[6,-3],[15,-6],[15,-9],[16,-17],[18,-14],[34,-30],[13,-14],[9,-7],[10,-10],[26,-30],[24,-27],[3,-2],[37,-32],[17,-11],[24,-13],[21,-6],[49,0],[11,-3],[35,-16],[9,-4]],[[4096,2119],[-17,-8],[-15,-11],[-8,-25],[-2,-5],[-2,-15],[0,-18],[0,-16],[0,-19],[-1,-8],[-1,-4],[-13,-11],[-4,-7],[-4,-38],[-20,-20],[-9,-5],[-7,-6],[-28,-15],[-2,-2],[-1,-4],[2,0],[10,7],[1,-2],[-3,-7],[1,-3],[4,-1],[3,-5],[0,-9],[-15,-9],[-9,-8],[-6,-1],[-18,2],[-10,6],[-3,3],[6,4],[0,4],[-9,8],[-11,-1],[-10,-2],[-21,-1],[-4,-1],[-21,-6],[-1,-3],[-4,-5],[-11,-6],[-22,-5],[-9,2],[-29,-1],[-20,-7],[-10,-5],[-28,-11],[-19,-3],[-6,0],[-8,1],[-12,17],[-11,17],[-19,5],[-16,13],[-34,2],[-13,6],[-2,-1],[6,-5],[7,-3],[-4,0],[-18,7],[-9,6],[-1,3],[11,-5],[3,1],[-12,9],[-7,15],[-8,6],[-4,9],[-15,14],[-3,13],[-5,10],[-8,30],[-23,32],[-37,42],[-6,11],[-1,8],[-15,30],[-13,30],[0,3],[-1,5],[-5,3],[-3,3],[-3,6],[-11,43],[15,-27],[12,-15],[7,-4],[0,-5],[-4,-6],[-1,-10],[3,-9],[2,10],[4,7],[2,12],[-4,5],[-11,9],[-9,11],[-17,30],[-1,17],[-6,23],[0,5],[-1,6],[4,16],[5,10],[1,6],[-2,36],[4,43],[-2,3],[2,3],[1,19],[4,41],[15,62],[7,22],[18,35],[6,17],[2,21],[0,7],[-1,3],[-6,1],[-17,32],[-3,9],[-3,21],[-2,7],[-3,14],[-3,6],[4,9],[4,6],[0,6],[-1,6],[-19,5],[-7,17],[8,-6],[14,-8],[4,0],[4,2],[5,9],[9,25],[-13,16],[2,3],[3,1],[11,-2],[7,3],[9,10],[4,11],[-10,-3],[-1,4],[0,4],[5,1],[7,1],[5,3],[3,3],[1,-4],[3,-3],[4,4],[3,3],[2,10],[1,10],[9,-8],[11,2],[6,4],[7,5],[-5,3],[-5,0],[-10,22],[2,2],[3,-1],[2,-3],[3,-4],[7,-5],[7,4],[0,2],[9,0],[14,-3],[10,1],[-11,-7],[-9,-7],[4,1],[15,8],[15,6],[11,7],[7,3],[25,15],[10,7],[11,12],[1,8],[11,10],[12,11],[-4,9],[-5,7],[-3,17],[4,1],[4,-3],[4,-1],[5,8],[8,0],[2,-10],[-5,-11],[4,-1],[12,3],[7,-2],[-20,-13],[-1,-3],[17,10],[43,19],[19,1],[0,4],[-5,9],[9,17],[5,-1],[2,-2],[0,-4],[-4,-6],[-3,-4],[-4,0],[2,-6],[4,-3],[5,3],[7,2],[28,0],[9,1],[10,-1],[20,-6],[15,-8],[11,-4],[37,-4],[16,4],[3,2],[-5,5],[-2,4],[5,6],[5,4],[12,3],[6,-8],[14,-1],[10,-14],[4,-5],[17,-4],[5,5],[2,0],[-1,-6],[2,-5],[8,-10],[0,-4],[-8,2],[-4,-1],[0,-4],[26,-9],[23,-6],[6,2],[9,12],[7,3],[11,-1],[8,-4],[5,-12],[3,-3],[7,3],[3,5],[1,6],[1,5],[2,4],[0,10],[-4,3],[-4,2],[-2,2],[1,3],[14,-4]],[[4096,3004],[-16,-3],[-10,4],[-12,8],[8,13],[9,10],[10,-1],[7,-1],[4,-4]],[[3443,2615],[-1,-5],[-7,22],[-13,49],[0,28],[2,9],[3,-39],[13,-50],[3,-14]],[[1805,2806],[-1,-4],[-16,7],[9,12],[-1,12],[3,2],[4,-4],[4,-15],[-2,-10]],[[2075,2899],[-7,-23],[-7,0],[-14,7],[-2,5],[6,27],[4,4],[13,4],[2,-4],[1,-8],[4,-12]],[[1988,2904],[0,-2],[-10,6],[-21,21],[-7,11],[-2,5],[1,11],[7,-1],[9,-8],[3,-7],[0,-8],[16,-3],[2,-17],[2,-8]],[[2088,2453],[-2,-1],[-7,12],[-1,8],[-4,3],[-8,3],[7,16],[6,33],[3,-6],[-7,-34],[1,-4],[3,-4],[3,-7],[0,-8],[5,-7],[1,-4]],[[4096,2119],[0,-750],[-9,4],[-35,16],[-11,3],[-49,0],[-21,6],[-24,13],[-17,11],[-37,32],[-3,2],[-24,27],[-26,30],[-10,10],[-9,7],[-13,14],[-34,30],[-18,14],[-16,17],[-15,9],[-15,6],[-6,3],[-6,5],[-3,0],[-2,-6],[5,-3],[6,-3],[5,0],[5,-2],[15,-9],[3,-4],[-43,17],[-17,1],[-2,3],[8,9],[-2,3],[-3,0],[-10,-6],[-3,0],[-1,4],[1,4],[-6,5],[-4,0],[-3,-4],[-8,-7],[0,-3],[16,-3],[5,-2],[-1,-2],[-13,0],[-17,-3],[-30,-20],[-28,-9],[-41,-19],[-17,-1],[-10,-4],[-27,8],[-34,18],[-52,6],[-35,24],[-35,10],[-22,23],[-13,1],[-8,3],[-32,9],[-31,5],[-30,20],[-20,7],[-18,8],[-37,13],[-14,8],[-14,11],[-21,13],[-10,10],[-10,3],[-15,19],[-7,8],[-7,4],[-7,1],[-20,-1],[-30,8],[-14,2],[-29,13],[-38,14],[-13,16],[-11,14],[-19,20],[-12,8],[-22,10],[-11,8],[-18,6],[-31,16],[-9,13],[-6,12],[-16,15],[-18,27],[-5,10],[-3,15],[-4,9],[-5,7],[2,5],[9,6],[15,1],[11,7],[1,5],[0,4],[-7,8],[-9,3],[-6,0],[-2,3],[5,3],[6,9],[8,10],[6,9],[1,13],[-1,13],[3,11],[-21,13],[-2,5],[-6,15],[-11,17],[0,34],[-13,30],[-14,15],[-7,5],[-20,23],[-15,13],[-15,26],[-15,16],[-19,27],[-13,13],[-62,46],[3,0],[19,-11],[3,1],[0,5],[-2,7],[-3,1],[-5,-1],[-7,1],[-3,2],[-10,2],[-12,7],[-5,8],[-1,9],[-17,19],[-7,11],[3,-1],[5,-4],[5,-1],[5,0],[4,1],[-1,3],[-4,3],[-25,10],[-9,7],[-21,12],[-5,4],[-3,12],[-5,0],[-5,-3],[-12,-3],[-3,3],[-1,4],[9,4],[8,10],[0,4],[-5,-4],[-6,-5],[-7,-3],[-10,-2],[-6,2],[-4,2],[-7,9],[-4,31],[6,11],[8,10],[6,6],[4,-4],[4,-1],[-3,5],[-6,5],[-2,5],[-1,5],[-3,8],[-18,18],[-18,-2],[-7,1],[-7,7],[-6,11],[-2,10],[-1,5],[-1,5],[-31,8],[-9,7],[-9,9],[-4,7],[-3,6],[-3,9],[-2,11],[3,14],[4,7],[-21,5],[-8,0],[-6,-2],[-6,3],[-13,4],[-14,15],[-17,27],[-19,9],[-6,9],[-8,8],[-7,11],[-1,4],[-2,3],[-10,7],[-10,12],[-3,10],[-3,16],[-7,5],[-7,2],[-1,8],[0,4],[-2,7],[-15,19],[-7,15],[-4,4],[-4,7],[-2,14],[-6,18],[-11,21],[-10,14],[-5,14],[3,14],[-2,9],[-1,2],[1,3],[3,-1],[3,2],[-1,9],[-3,3],[-9,3],[-5,2],[-22,4],[-13,5],[-1,12],[-6,6],[-6,3],[-17,7],[-2,-3],[-3,-7],[-7,-1],[-6,-1],[-11,5],[-25,18],[-6,3],[-8,1],[-4,3],[-18,10],[4,-5],[5,-6],[5,-15],[-6,-11],[-3,-38],[4,-7],[7,-13],[5,-19],[2,-14],[5,-12],[-2,-27],[2,-8],[7,-13],[14,-13],[3,-6],[17,-10],[11,-12],[21,-17],[7,-8],[19,-26],[0,-8],[4,-10],[11,2],[5,-7],[-1,-3],[1,-3],[6,0],[5,-2],[10,-28],[5,-4],[7,-2],[8,-3],[1,-7],[-1,-6],[7,-9],[-1,-11],[5,-10],[-1,-9],[3,-8],[16,-17],[21,-13],[4,-18],[8,-16],[9,-4],[8,-6],[-1,-7],[1,-5],[11,-12],[2,-16],[10,-11],[3,-1],[2,2],[-7,10],[-4,7],[0,11],[2,2],[21,-18],[2,-12],[7,-8],[0,-9],[4,-6],[2,-9],[6,-14],[0,-19],[4,-14],[13,-22],[10,-5],[2,-10],[11,-28],[13,-15],[6,-12],[1,-8],[-5,-12],[0,-8],[7,-25],[10,-13],[11,-3],[2,-2],[-1,-3],[4,-3],[4,4],[3,5],[-3,7],[0,4],[2,4],[4,0],[21,-17],[4,-6],[8,-8],[8,-9],[3,-8],[6,-6],[3,-14],[15,-6],[8,-12],[1,-8],[-4,-19],[-4,-5],[-12,-8],[-9,-10],[-8,-6],[-9,-4],[-8,1],[-7,11],[-9,34],[-6,7],[-4,11],[-6,8],[-25,14],[-12,14],[-12,9],[-13,13],[-35,23],[-14,11],[-10,11],[-6,0],[-5,-1],[-1,3],[-1,6],[-2,4],[-20,17],[-4,9],[-1,11],[4,28],[2,17],[-1,8],[-2,1],[-2,5],[0,13],[-5,15],[-19,30],[-13,6],[-12,4],[-33,27],[-9,13],[-3,8],[-1,15],[-4,-9],[-6,-6],[-14,0],[-16,-7],[-9,7],[-5,8],[-8,9],[-9,2],[-5,0],[-11,12],[-8,4],[-12,1],[-10,6],[-3,7],[-2,9],[-4,6],[-16,11],[-13,12],[-12,7],[-4,7],[0,4],[20,-1],[23,-5],[11,1],[7,5],[6,3],[1,-3],[-1,-7],[6,-6],[9,-4],[6,0],[-6,5],[-3,11],[1,3],[0,6],[-9,-2],[-1,3],[8,8],[8,21],[4,20],[-9,18],[-15,13],[-32,36],[-19,19],[-6,7],[-5,3],[-16,4],[-13,11],[-23,15],[-10,7],[-7,18],[-5,3],[2,12],[-3,22],[-4,6],[-12,5],[-3,15],[-1,14],[-2,10],[-22,17],[-1,8],[0,7],[-2,8],[-11,16],[-14,13],[-5,7],[0,13],[-5,4],[2,1],[4,-1],[3,2],[0,10],[-21,14],[-6,20],[-11,11],[-2,4],[-6,19],[-1,11],[-4,4],[-6,-2],[-2,14],[1,7],[-1,6],[-5,16],[-13,20],[-29,24],[-15,8],[-12,11],[-7,2],[-10,1],[-2,-4],[-11,3],[2,11],[-11,16],[-8,2],[-21,-1],[-29,9],[-8,5],[-3,9],[-13,8],[-18,8],[-10,-2],[-12,2],[-18,5],[-11,1],[-21,-2],[-7,1],[-8,8],[-7,3],[1,9],[-1,8],[1,7],[-3,13],[3,13],[-3,5],[-4,3],[-14,5],[-2,7],[2,9],[-4,6],[-11,5],[-10,13],[-14,7],[-5,11],[-8,8],[-3,6],[-18,23],[-20,17],[-3,11],[0,13],[7,9],[4,7],[0,7],[-1,5],[-7,9],[-26,5],[-21,22],[-1,16],[-8,17],[0,11],[-2,12],[7,3],[5,-1],[0,-5],[2,-8],[6,-7],[6,-2],[6,-7],[4,-2],[5,0],[-2,4],[-3,3],[-3,8],[-6,10],[-7,6],[-3,11],[-3,2],[-2,4],[7,5],[9,3],[11,1],[34,-1],[7,2],[6,-1],[4,1],[-9,3],[-5,-1],[-6,0],[-12,0],[-5,1],[-5,3],[-4,1],[-11,-6],[-5,0],[-11,7],[-6,1],[-8,-4],[-1,-15],[3,-12],[-5,-1],[-6,5],[-9,2],[-7,5],[-10,8],[-6,3],[-6,-7],[0,3],[3,8],[-1,13],[9,-11],[-2,8],[-8,8],[-5,3],[-7,14],[-15,9],[-12,14],[-26,23],[-1,20],[-9,26],[3,15],[0,10],[-5,16],[-4,8],[-21,24],[-19,15],[-3,12],[-2,12],[5,11],[3,11],[3,3],[1,-1],[-1,-3],[3,0],[1,5],[2,2],[-3,1],[0,1],[2,3],[6,15],[0,1],[3107,0],[0,-1066],[-4,4],[-7,1],[-10,1],[-9,-10],[-8,-13],[12,-8],[10,-4],[16,3],[0,-56],[-14,4],[-1,-3],[2,-2],[4,-2],[4,-3],[0,-10],[-2,-4],[-1,-5],[-1,-6],[-3,-5],[-7,-3],[-3,3],[-5,12],[-8,4],[-11,1],[-7,-3],[-9,-12],[-6,-2],[-23,6],[-26,9],[0,4],[4,1],[8,-2],[0,4],[-8,10],[-2,5],[1,6],[-2,0],[-5,-5],[-17,4],[-4,5],[-10,14],[-14,1],[-6,8],[-12,-3],[-5,-4],[-5,-6],[2,-4],[5,-5],[-3,-2],[-16,-4],[-37,4],[-11,4],[-15,8],[-20,6],[-10,1],[-9,-1],[-28,0],[-7,-2],[-5,-3],[-4,3],[-2,6],[4,0],[3,4],[4,6],[0,4],[-2,2],[-5,1],[-9,-17],[5,-9],[0,-4],[-19,-1],[-43,-19],[-17,-10],[1,3],[20,13],[-7,2],[-12,-3],[-4,1],[5,11],[-2,10],[-8,0],[-5,-8],[-4,1],[-4,3],[-4,-1],[3,-17],[5,-7],[4,-9],[-12,-11],[-11,-10],[-1,-8],[-11,-12],[-10,-7],[-25,-15],[-7,-3],[-11,-7],[-15,-6],[-15,-8],[-4,-1],[9,7],[11,7],[-10,-1],[-14,3],[-9,0],[0,-2],[-7,-4],[-7,5],[-3,4],[-2,3],[-3,1],[-2,-2],[10,-22],[5,0],[5,-3],[-7,-5],[-6,-4],[-11,-2],[-9,8],[-1,-10],[-2,-10],[-3,-3],[-4,-4],[-3,3],[-1,4],[-3,-3],[-5,-3],[-7,-1],[-5,-1],[0,-4],[1,-4],[10,3],[-4,-11],[-9,-10],[-7,-3],[-11,2],[-3,-1],[-2,-3],[13,-16],[-9,-25],[-5,-9],[-4,-2],[-4,0],[-14,8],[-8,6],[7,-17],[19,-5],[1,-6],[0,-6],[-4,-6],[-4,-9],[3,-6],[3,-14],[2,-7],[3,-21],[3,-9],[17,-32],[6,-1],[1,-3],[0,-7],[-2,-21],[-6,-17],[-18,-35],[-7,-22],[-15,-62],[-4,-41],[-1,-19],[-2,-3],[2,-3],[-4,-43],[2,-36],[-1,-6],[-5,-10],[-4,-16],[1,-6],[0,-5],[6,-23],[1,-17],[17,-30],[9,-11],[11,-9],[4,-5],[-2,-12],[-4,-7],[-2,-10],[-3,9],[1,10],[4,6],[0,5],[-7,4],[-12,15],[-15,27],[11,-43],[3,-6],[3,-3],[5,-3],[1,-5],[0,-3],[13,-30],[15,-30],[1,-8],[6,-11],[37,-42],[23,-32],[8,-30],[5,-10],[3,-13],[15,-14],[4,-9],[8,-6],[7,-15],[12,-9],[-3,-1],[-11,5],[1,-3],[9,-6],[18,-7],[4,0],[-7,3],[-6,5],[2,1],[13,-6],[34,-2],[16,-13],[19,-5],[11,-17],[12,-17],[8,-1],[6,0],[19,3],[28,11],[10,5],[20,7],[29,1],[9,-2],[22,5],[11,6],[4,5],[1,3],[21,6],[4,1],[21,1],[10,2],[11,1],[9,-8],[0,-4],[-6,-4],[3,-3],[10,-6],[18,-2],[6,1],[9,8],[15,9],[0,9],[-3,5],[-4,1],[-1,3],[3,7],[-1,2],[-10,-7],[-2,0],[1,4],[2,2],[28,15],[7,6],[9,5],[20,20],[4,38],[4,7],[13,11],[1,4],[1,8],[0,19],[0,16],[0,18],[2,15],[2,5],[8,25],[15,11],[17,8]]]}