{"objects":{"water":{"type":"GeometryCollection","geometries":[{"type":"Polygon","properties":{"source":"naturalearthdata.com","kind":"ocean","area":1576712559132672,"sort_rank":200,"min_zoom":0.0,"id":1},"arcs":[[2],[3],[4],[5],[6],[7],[8],[9],[10],[11],[12],[13],[14],[15],[16],[17],[18],[19]]},{"type":"LineString","properties":{"source":"naturalearthdata.com","kind":"ocean","sort_rank":205,"boundary":true,"min_zoom":0.0,"id":536},"arcs":[20]},{"type":"LineString","properties":{"source":"naturalearthdata.com","kind":"ocean","sort_rank":205,"boundary":true,"min_zoom":0.0,"id":553},"arcs":[21]},{"type":"LineString","properties":{"source":"naturalearthdata.com","kind":"ocean","sort_rank":205,"boundary":true,"min_zoom":0.0,"id":3394},"arcs":[22]},{"type":"LineString","properties":{"source":"naturalearthdata.com","kind":"ocean","sort_rank":205,"boundary":true,"min_zoom":0.0,"id":3395},"arcs":[23]}]},"buildings":{"type":"GeometryCollection","geometries":[]},"places":{"type":"GeometryCollection","geometries":[]},"transit":{"type":"GeometryCollection","geometries":[]},"pois":{"type":"GeometryCollection","geometries":[]},"boundaries":{"type":"GeometryCollection","geometries":[{"type":"LineString","properties":{"name:wa":"Venezwela","name:ka":"\u10d5\u10d4\u10dc\u10d4\u10e1\u10e3\u10d4\u10da\u10d0","name:ko":"\ubca0\ub124\uc218\uc5d8\ub77c","name:cv":"\u0412\u0435\u043d\u0435\u0441\u0443\u044d\u043b\u0430","name:kk":"\u0412\u0435\u043d\u0435\u0441\u0443\u044d\u043b\u0430","name:tt":"\u0412\u0435\u043d\u0435\u0441\u0443\u044d\u043b\u0430","name:kw":"Veneswela","name:tk":"Wenesuela","name:th":"\u0e1b\u0e23\u0e30\u0e40\u0e17\u0e28\u0e40\u0e27\u0e40\u0e19\u0e0b\u0e38\u0e40\u0e2d\u0e25\u0e32","name:pa":"\u0a35\u0a48\u0a28\u0a47\u0a1c\u0a3c\u0a41\u0a0f\u0a32\u0a3e","name:os":"\u0412\u0435\u043d\u0435\u0441\u0443\u044d\u043b\u00e6","name:or":"\u0b2d\u0b47\u0b28\u0b47\u0b1c\u0b41\u0b0f\u0b32\u0b3e","name:ce":"\u0412\u0435\u043d\u0435\u0441\u0443\u044d\u043b\u0430","name:ta":"\u0bb5\u0bc6\u0ba9\u0bbf\u0b9a\u0bc1\u0bb5\u0bc7\u0bb2\u0bbe","name:tg":"\u0412\u0435\u043d\u0435\u0441\u0443\u044d\u043b\u0430","name:ca":"Vene\u00e7uela","sort_rank":262,"name:ln":"Venezwela","name:ba":"\u0412\u0435\u043d\u0435\u0441\u0443\u044d\u043b\u0430","source":"openstreetmap.org","osm_relation":true,"name:kn":"\u0cb5\u0cc6\u0ca8\u0cc6\u0c9c\u0cc1\u0cb5\u0cc6\u0cb2\u0cbe","name:dv":"\u0788\u07ac\u0782\u07ac\u0792\u07aa\u0787\u07ad\u078d\u07a7","name:lv":"Venecu\u0113la","name:lt":"Venesuela","name:uz":"Venesuela","name:he":"\u05d5\u05e0\u05e6\u05d5\u05d0\u05dc\u05d4","name:eo":"Venezuelo","name:ur":"\u0648\u06cc\u0646\u06cc\u0632\u0648\u06cc\u0644\u0627","name:la":"Venetiola","name:uk":"\u0412\u0435\u043d\u0435\u0441\u0443\u0435\u043b\u0430","name:hy":"\u054e\u0565\u0576\u0565\u057d\u0578\u0582\u0565\u056c\u0561","name:ug":"\u06cb\u06d0\u0646\u06d0\u0633\u06c7\u0626\u06d0\u0644\u0627","name:qu":"Winisuyla","name:oc":"Vene\u00e7u\u00e8la","name:el":"\u0392\u03b5\u03bd\u03b5\u03b6\u03bf\u03c5\u03ad\u03bb\u03b1","kind":"country","name":"Venezuela","min_zoom":8.0,"name:yi":"\u05d5\u05d5\u05e2\u05e0\u05e2\u05d6\u05d5\u05e2\u05dc\u05e2","name:yo":"Fenesuela","name:ay":"Win\u00efxwila","name:mt":"Vene\u017cwela","name:az":"Venesuela","name:mr":"\u0935\u094d\u0939\u0947\u0928\u0947\u091d\u0941\u090f\u0932\u093e","name:ar":"\u0641\u0646\u0632\u0648\u064a\u0644\u0627","name:my":"\u1017\u1004\u103a\u1014\u102e\u1007\u103d\u1032\u101c\u102c\u1038\u1014\u102d\u102f\u1004\u103a\u1004\u1036","name:av":"\u0412\u0435\u043d\u0435\u0441\u0443\u044d\u043b\u0430","name:is":"Venes\u00faela","name:am":"\u126c\u1294\u12dd\u12cc\u120b","name:ru":"\u0412\u0435\u043d\u0435\u0441\u0443\u044d\u043b\u0430","id":-272644,"name:ml":"\u0d35\u0d46\u0d28\u0d3f\u0d38\u0d4d\u0d35\u0d47\u0d32","name:rw":"Venezuwela","name:pl":"Wenezuela","name:mk":"\u0412\u0435\u043d\u0435\u0446\u0443\u0435\u043b\u0430","name:vo":"Venesol\u00e4n","name:fa":"\u0648\u0646\u0632\u0648\u0626\u0644\u0627","name:mn":"\u0412\u0435\u043d\u0435\u0441\u0443\u044d\u043b","kind_detail":"2","name:hi":"\u0935\u0947\u0928\u0947\u091c\u093c\u0941\u090f\u0932\u093e","name:mg":"Venezoela","name:fo":"Venesuela","name:zh-yue":"\u59d4\u5167\u745e\u62c9","name:fy":"Fenezu\u00ebla","name:zh":"\u59d4\u5167\u745e\u62c9","name:so":"Fanansuwela","name:sm":"Venesuela","name:ja":"\u30d9\u30cd\u30ba\u30a8\u30e9","name:ne":"\u092d\u0947\u0928\u0947\u091c\u0941\u090f\u0932\u093e","name:sa":"\u0935\u0947\u0928\u0947\u091c\u094d\u0935\u0947\u0932\u093e","name:bs":"Venecuela","name:bn":"\u09ad\u09c7\u09a8\u09c7\u099c\u09c1\u09af\u09bc\u09c7\u09b2\u09be","name:bo":"\u0f5d\u0f7a\u0f0b\u0f53\u0f7a\u0f0b\u0f5f\u0f74\u0f60\u0f7a\u0f0b\u0f63\u0f0d","name:be":"\u0412\u0435\u043d\u0435\u0441\u0443\u044d\u043b\u0430","name:su":"V\u00e9n\u00e9zu\u00e9la","name:bg":"\u0412\u0435\u043d\u0435\u0446\u0443\u0435\u043b\u0430","name:wo":"Benesuwela","name:sr":"\u0412\u0435\u043d\u0435\u0446\u0443\u0435\u043b\u0430","name:nv":"T\u00e1\u0142k\u00e1\u00e1\u02bc Bighan Dine\u02bc\u00e9 Bik\u00e9yah","name:ga":"Veinis\u00e9ala","name:gd":"A' Bheiniseala","name:ht":"Venezwela","name:gn":"Venesu\u00e9la","maritime_boundary":true,"name:gv":"Yn Veneswaaley","name:gu":"\u0ab5\u0ac7\u0aa8\u0ac7\u0a9d\u0ac1\u0a8f\u0ab2\u0abe"},"arcs":[0]},{"type":"LineString","properties":{"kind":"region","name:en":"Federal Dependencies","name":"Dependencias Federales","sort_rank":256,"kind_detail":"4","min_zoom":8.0,"name:de":"Bundesterritorien","source":"openstreetmap.org","maritime_boundary":true,"id":-3399075,"osm_relation":true},"arcs":[1]}]},"roads":{"type":"GeometryCollection","geometries":[{"type":"LineString","properties":{"source":"openstreetmap.org","kind":"ferry","name":"La Guaira - Gran Roque","sort_rank":355,"landuse_kind":"park","min_zoom":8.0,"id":260272011},"arcs":[24]},{"type":"LineString","properties":{"source":"openstreetmap.org","kind":"ferry","name":"La Guaira - Los Roques","sort_rank":355,"landuse_kind":"park","min_zoom":8.0,"osm_relation":true},"arcs":[25]},{"type":"MultiLineString","properties":{"source":"openstreetmap.org","kind":"ferry","name":"Crasqui-Gran Roque","sort_rank":355,"landuse_kind":"park","min_zoom":8.0},"arcs":[[26],[27],[28],[29],[30],[31]]},{"type":"LineString","properties":{"source":"openstreetmap.org","kind":"ferry","name":"Madrizqui","sort_rank":355,"landuse_kind":"park","min_zoom":8.0,"id":96958978},"arcs":[32]},{"type":"LineString","properties":{"source":"openstreetmap.org","kind":"ferry","name":"Noronquises","sort_rank":355,"landuse_kind":"park","min_zoom":8.0,"id":96957811},"arcs":[33]},{"type":"LineString","properties":{"source":"openstreetmap.org","kind":"ferry","name":"Crasqui - Cayos de Agua","sort_rank":355,"landuse_kind":"park","min_zoom":8.0,"id":358537106},"arcs":[34]},{"type":"LineString","properties":{"sort_rank":355,"source":"openstreetmap.org","min_zoom":8.0,"name":"La Guaira - Gran Roque","kind":"ferry"},"arcs":[35]},{"type":"LineString","properties":{"source":"openstreetmap.org","kind":"ferry","name":"La Guaira - Los Roques","sort_rank":355,"min_zoom":8.0,"osm_relation":true,"id":-6547378},"arcs":[36]},{"type":"LineString","properties":{"source":"openstreetmap.org","kind":"ferry","name":"Mosquises - Cayos de Agua","sort_rank":355,"landuse_kind":"park","min_zoom":8.0,"id":358537108},"arcs":[37]}]},"earth":{"type":"GeometryCollection","geometries":[{"type":"MultiPolygon","properties":{"sort_rank":10,"source":"naturalearthdata.com","min_zoom":0.0,"kind":"earth","area":82391602},"arcs":[[[38]],[[39]],[[40]],[[41]]]}]},"landuse":{"type":"GeometryCollection","geometries":[{"type":"MultiPolygon","properties":{"source":"openstreetmap.org","kind":"nature_reserve","tier":2,"area":120715207,"sort_rank":23,"min_zoom":8.0},"arcs":[[[42]],[[43]]]},{"type":"Polygon","properties":{"source":"openstreetmap.org","kind":"park","area":1899229952,"tier":2,"id":208080076,"min_zoom":4.0,"sort_rank":24},"arcs":[[44]]}]}},"type":"Topology","transform":{"translate":[-67.5,11.1784018737],"scale":[0.0003433228,0.000335977]},"arcs":[[[4096,2818],[-1514,276],[-2582,264]],[[0,2170],[112,-70],[271,-21],[106,60],[41,112],[-24,89],[-66,64],[-290,139],[-150,1]],[[4096,0],[-4096,0],[0,4096],[4096,0],[0,-2046],[-30,19],[13,-37],[3,-47],[-17,-9],[-8,-4],[-2,-10],[-17,-9],[-21,-17],[38,5],[39,43],[2,11],[0,-1995]],[[86,2369],[-9,-6],[-14,6],[-8,-4],[7,-14],[21,9],[3,9]],[[2349,2335],[43,-23],[25,-13],[8,8],[-15,21],[-49,11],[-12,-4]],[[224,2295],[6,9],[-23,-2],[-23,-3],[14,-11],[26,7]],[[189,2288],[-19,7],[0,-7],[19,0]],[[1866,2152],[25,-16],[-22,22],[-3,-6]],[[2479,2140],[11,-6],[3,-7],[9,-7],[12,-1],[19,-14],[9,5],[-8,11],[-24,25],[-32,5],[-10,-5],[11,-6]],[[2097,1727],[14,12],[138,58],[-2,4],[-21,-1],[-41,-17],[-174,-73],[-10,-2],[-15,-4],[-44,-5],[-62,6],[10,-13],[68,-2],[31,8],[25,7],[83,22]],[[2528,1838],[-55,-47],[-68,-12],[-88,21],[73,-49],[110,-16],[102,18],[55,47],[-14,-2],[-46,2],[20,34],[0,36],[-14,32],[-26,20],[-49,-84]],[[2626,1890],[16,-26],[19,39],[-10,21],[-9,-4],[-16,-30]],[[1630,1923],[32,7],[-14,6],[-21,-6],[-9,12],[-3,-13],[15,-6]],[[2615,2021],[-25,43],[-17,-34],[22,-29],[20,20]],[[2254,2018],[13,10],[-15,-1],[2,-9]],[[2290,2045],[-2,1],[-19,-17],[5,0],[16,16]],[[2173,2036],[39,10],[10,-2],[74,8],[-13,8],[-50,-2],[-237,10],[-9,-6],[89,-8],[20,-8],[27,0],[50,-10]],[[2362,2061],[1,-12],[19,18],[-9,23],[0,5],[-15,-2],[-4,-13],[8,-19]],[[4053,1927],[-69,-5],[-87,2],[-51,-5],[-43,-16],[58,-61],[91,-46],[85,-6],[37,59],[-5,59],[-16,19]],[[2065,2110],[2,4],[4,4],[30,-5],[25,5],[-42,7],[-19,2],[-25,12],[1,-8],[19,-13],[5,-8]],[[3984,1922],[-87,2],[-51,-5],[-43,-16],[58,-61],[91,-46],[85,-6],[37,59],[-5,59],[-16,19],[-69,-5]],[[2597,1800],[20,34],[0,36],[-14,32],[-26,20],[-49,-84],[-55,-47],[-68,-12],[-88,21],[73,-49],[110,-16],[102,18],[55,47],[-14,-2],[-46,2]],[[2233,2058],[-237,10],[-9,-6],[89,-8],[20,-8],[27,0],[50,-10],[39,10],[10,-2],[74,8],[-13,8],[-50,-2]],[[2185,1783],[-174,-73],[-10,-2],[-15,-4],[-44,-5],[-62,6],[10,-13],[68,-2],[31,8],[25,7],[83,22],[14,12],[138,58],[-2,4],[-21,-1],[-41,-17]],[[2677,1552],[69,202],[39,268],[-37,137],[-112,158],[-104,17],[-49,-56],[-78,2]],[[2677,1552],[69,202],[39,268],[-78,209],[-100,101],[-75,2],[-49,-56],[-78,2]],[[1652,1901],[312,140]],[[1964,2041],[14,7],[225,37]],[[2203,2085],[48,8]],[[2405,2280],[-132,-195],[-70,0]],[[2203,2085],[-137,1],[-22,23],[-80,-68]],[[1964,2041],[-200,-170],[-6,-35]],[[2439,2255],[-34,25]],[[2405,2280],[-169,-66]],[[1600,1913],[52,-12]],[[2150,0],[527,1552]],[[2150,0],[527,1552]],[[1600,1913],[158,-77]],[[4053,1927],[16,-19],[5,-59],[-37,-59],[-85,6],[-91,46],[-58,61],[43,16],[51,5],[87,-2],[69,5]],[[1996,2068],[237,-10],[50,2],[13,-8],[-74,-8],[-10,2],[-39,-10],[-50,10],[-27,0],[-20,8],[-89,8],[9,6]],[[2014,1705],[-25,-7],[-31,-8],[-68,2],[-10,13],[62,-6],[44,5],[15,4],[10,2],[174,73],[41,17],[21,1],[2,-4],[-138,-58],[-14,-12],[-83,-22]],[[2597,1800],[46,-2],[14,2],[-55,-47],[-102,-18],[-110,16],[-73,49],[88,-21],[68,12],[55,47],[49,84],[26,-20],[14,-32],[0,-36],[-20,-34]],[[2304,1749],[16,30],[113,-26],[66,37],[53,197],[-106,141],[7,19],[73,-6],[123,-143],[39,-116],[-12,-119],[-46,-32],[-187,-31],[-68,3],[-71,46]],[[1971,2040],[340,16],[-1,-43],[-16,-26],[-238,18],[-85,35]],[[1456,1552],[0,892],[1457,0],[0,-892],[-1457,0]]]}