{"objects":{"water":{"type":"GeometryCollection","geometries":[]},"buildings":{"type":"GeometryCollection","geometries":[]},"places":{"type":"GeometryCollection","geometries":[{"type":"Point","properties":{"name:ka":"\u10d5\u10d4\u10dc\u10d4\u10e1\u10e3\u10d4\u10da\u10d0","name:ko":"\ubca0\ub124\uc218\uc5d8\ub77c","name:kn":"\u0cb5\u0cc6\u0ca8\u0cc6\u0c9c\u0cc1\u0cb5\u0cc6\u0cb2\u0cbe","name:km":"\u179c\u17c1\u1793\u17c1\u17a0\u17d2\u179f\u17ca\u17bb\u1799\u17a1\u17b6","min_zoom":2.0,"name:ti":"\u126c\u1295\u12d9\u12cc\u120b","name:ks":"\u0648\u06cc\u0646\u0627\u0632\u0648\u0657\u0644\u0627","name:to":"Venisuela","name:tl":"Beneswela","name:or":"\u0b2d\u0b47\u0b28\u0b1c\u0b41\u0b0f\u0b32\u0b3e","name:pl":"Wenezuela","name:ta":"\u0bb5\u0bc6\u0ba9\u0b9c\u0bc1\u0bb5\u0bc7\u0bb2\u0bbe","name:tg":"\u0412\u0435\u043d\u0435\u0441\u0443\u044d\u043b\u0430","name:ca":"Vene\u00e7uela","name:te":"\u0c35\u0c46\u0c28\u0c41\u0c1c\u0c41\u0c35\u0c47\u0c32\u0c3e","name:bg":"\u0412\u0435\u043d\u0435\u0446\u0443\u0435\u043b\u0430","name:dz":"\u0f56\u0f7a\u0f0b\u0f53\u0f72\u0f0b\u0f5b\u0f74\u0f0b\u0f5d\u0f7a\u0f0b\u0f63","source":"openstreetmap.org","name:ku":"Venezu\u00eala","name:lv":"Venecu\u0113la","name:lt":"Venesuela","name:hi":"\u0935\u0947\u0928\u0947\u091c\u0941\u090f\u0932\u093e","name:he":"\u05d5\u05e0\u05e6\u05d5\u05d0\u05dc\u05d4","name:eo":"Venezuelo","name:ur":"\u0648\u06cc\u0646\u0632\u0648\u0626\u06cc\u0644\u0627","name:la":"Venetiola","name:lg":"Venzwera","name:uk":"\u0412\u0435\u043d\u0435\u0441\u0443\u0435\u043b\u0430","name:hy":"\u054e\u0565\u0576\u0565\u057d\u0578\u0582\u0565\u056c\u0561","name:ln":"Ven\u00e9zuela","name:lo":"\u0ec0\u0ea7\u0ec0\u0e99\u0e8a\u0eb9\u0ec0\u0ead\u0ea5\u0eb2","population":28946101,"name:el":"\u0392\u03b5\u03bd\u03b5\u03b6\u03bf\u03c5\u03ad\u03bb\u03b1","kind":"country","name":"Venezuela","name:ee":"Venezuela nutome","name:is":"Venus\u00faela","name:th":"\u0e1b\u0e23\u0e30\u0e40\u0e17\u0e28\u0e40\u0e27\u0e40\u0e19\u0e0b\u0e38\u0e40\u0e2d\u0e25\u0e32","name:yo":"Or\u00edl\u1eb9\u0301\u00e8de F\u1eb9n\u1eb9\u1e63u\u1eb9la","name:mt":"Venezwela","name:rn":"Venezuwela","name:az":"Venesuela","name:mr":"\u0935\u094d\u0939\u0947\u0928\u0947\u091d\u0941\u090f\u0932\u093e","name:ar":"\u0641\u0646\u0632\u0648\u064a\u0644\u0627","name:my":"\u1017\u1004\u103a\u1014\u102e\u1007\u103d\u1032\u101c\u102c\u1038","official_name":"Rep\u00fablica Bolivariana de Venezuela","name:mg":"Venezoel\u00e0","name:am":"\u126c\u1295\u12d9\u12cc\u120b","name:ru":"\u0412\u0435\u043d\u0435\u0441\u0443\u044d\u043b\u0430","name:ml":"\u0d35\u0d46\u0d28\u0d3f\u0d38\u0d4d\u0d35\u0d47\u0d32","name:mn":"\u0412\u0435\u043d\u0435\u0441\u0443\u044d\u043b","id":424311890,"name:mk":"\u0412\u0435\u043d\u0435\u0446\u0443\u0435\u043b\u0430","name:vo":"Venesol\u00e4n","name:zu":"i-Venezuela","name:ff":"Wenesuwelaa","name:fo":"Venesuela","name:fy":"Fenezu\u00ebla","name:zh":"\u59d4\u5185\u745e\u62c9","name:so":"Fenisuweela","name:ja":"\u30d9\u30cd\u30ba\u30a8\u30e9","name:si":"\u0dc0\u0dd9\u0db1\u0dd2\u0dc3\u0dd2\u0dba\u0dd4\u0db4\u0dcf\u0dc0","name:fa":"\u0648\u0646\u0632\u0648\u0626\u0644\u0627","name:sg":"Venezuel\u00e4a","name:ne":"\u092d\u0947\u0928\u0947\u091c\u0941\u090f\u0932\u093e","name:bs":"Venecuela","name:bm":"Venezuwela","name:bn":"\u09ad\u09c7\u09a8\u09c7\u099c\u09c1\u09af\u09bc\u09c7\u09b2\u09be","name:bo":"\u0f5d\u0f7a\u0f0b\u0f53\u0f72\u0f0b\u0f5b\u0f74\u0f60\u0f7a\u0f0b\u0f63\u0f0d","name:be":"\u0412\u0435\u043d\u0435\u0441\u0443\u044d\u043b\u0430","name:ha":"Benezuwela","name:sr":"\u0412\u0435\u043d\u0435\u0446\u0443\u0435\u043b\u0430","name:sq":"Venezuel\u00eb","name:ga":"Veinis\u00e9ala","name:gd":"A' Bheiniseala","name:gv":"Yn Veneswaaley","name:gu":"\u0ab5\u0ac7\u0aa8\u0ac7\u0a9d\u0ac1\u0a8f\u0ab2\u0abe"},"coordinates":[4046,2905]},{"type":"Point","properties":{"source":"openstreetmap.org","kind":"locality","name":"Caicara del Orinoco","kind_detail":"city","population":117476,"min_zoom":8.0,"id":829010839},"coordinates":[3895,1822]}]},"transit":{"type":"GeometryCollection","geometries":[]},"pois":{"type":"GeometryCollection","geometries":[]},"boundaries":{"type":"GeometryCollection","geometries":[{"type":"LineString","properties":{"name:left":"Apure","kind":"region","name":"Apure - Bol\u00edvar","sort_rank":256,"kind_detail":"4","name:right:ru":"\u0411\u043e\u043b\u0438\u0432\u0430\u0440","source":"openstreetmap.org","min_zoom":8.0,"id:left":-3395162,"id:right":-2269155,"id":-3395162,"osm_relation":true,"name:right":"Bol\u00edvar"},"arcs":[0]},{"type":"LineString","properties":{"name:left":"Apure","kind":"region","name":"Apure - Bol\u00edvar","sort_rank":256,"kind_detail":"4","name:right:ru":"\u0411\u043e\u043b\u0438\u0432\u0430\u0440","source":"openstreetmap.org","min_zoom":8.0,"id:left":-3395162,"id:right":-2269155,"id":-3395162,"osm_relation":true,"name:right":"Bol\u00edvar"},"arcs":[1]},{"type":"LineString","properties":{"kind":"region","name":"Apure - Gu\u00e1rico","sort_rank":256,"kind_detail":"4","id:right":-272663,"source":"openstreetmap.org","min_zoom":8.0,"id:left":-3395162,"name:left":"Apure","id":-3395162,"osm_relation":true,"name:right":"Gu\u00e1rico"},"arcs":[2]},{"type":"LineString","properties":{"kind":"region","name":"Apure - Gu\u00e1rico","sort_rank":256,"kind_detail":"4","id:right":-272663,"source":"openstreetmap.org","min_zoom":8.0,"id:left":-3395162,"name:left":"Apure","id":-3395162,"osm_relation":true,"name:right":"Gu\u00e1rico"},"arcs":[3]},{"type":"LineString","properties":{"kind":"region","name":"Bol\u00edvar - Gu\u00e1rico","sort_rank":256,"kind_detail":"4","id:left":-2269155,"id:right":-272663,"source":"openstreetmap.org","min_zoom":8.0,"name:left:ru":"\u0411\u043e\u043b\u0438\u0432\u0430\u0440","name:left":"Bol\u00edvar","id":-2269155,"osm_relation":true,"name:right":"Gu\u00e1rico"},"arcs":[4]}]},"roads":{"type":"GeometryCollection","geometries":[{"type":"LineString","properties":{"sort_rank":380,"kind_detail":"primary","min_zoom":8.0,"kind":"major_road","source":"openstreetmap.org"},"arcs":[5]},{"type":"MultiLineString","properties":{"sort_rank":381,"source":"openstreetmap.org","min_zoom":8.0,"kind":"major_road","kind_detail":"trunk"},"arcs":[[6],[7],[8],[9],[10]]},{"type":"MultiLineString","properties":{"source":"openstreetmap.org","kind":"major_road","sort_rank":381,"kind_detail":"trunk","ref":"T-12","min_zoom":8.0},"arcs":[[11],[12],[13]]},{"type":"LineString","properties":{"kind":"major_road","network":null,"sort_rank":381,"kind_detail":"trunk","source":"openstreetmap.org","min_zoom":8.0,"shield_text":"02","ref":"T-2","id":180239056},"arcs":[14]},{"type":"MultiLineString","properties":{"kind":"major_road","network":null,"sort_rank":381,"landuse_kind":"urban_area","source":"openstreetmap.org","min_zoom":8.0,"kind_detail":"trunk","shield_text":"19","ref":"T-19"},"arcs":[[15],[16],[17],[18],[19],[20],[21],[22]]},{"type":"LineString","properties":{"source":"openstreetmap.org","kind":"major_road","sort_rank":380,"kind_detail":"primary","ref":"T-12","min_zoom":8.0,"id":108012317},"arcs":[23]},{"type":"LineString","properties":{"source":"openstreetmap.org","kind":"ferry","name":"Chalana Caicara - Cabruta","sort_rank":355,"min_zoom":8.0,"id":452838601},"arcs":[24]},{"type":"LineString","properties":{"kind":"major_road","sort_rank":381,"landuse_kind":"park","source":"openstreetmap.org","min_zoom":8.0,"kind_detail":"trunk","ref":"T-12","id":381472694},"arcs":[25]},{"type":"LineString","properties":{"source":"openstreetmap.org","kind":"ferry","name":"Chalana Caicara - Cabruta","sort_rank":355,"landuse_kind":"urban_area","min_zoom":8.0,"id":452838601},"arcs":[26]},{"type":"MultiLineString","properties":{"source":"openstreetmap.org","kind":"major_road","kind_detail":"trunk","sort_rank":381,"landuse_kind":"urban_area","min_zoom":8.0},"arcs":[[27],[28],[29],[30],[31],[32],[33],[34],[35],[36],[37],[38]]},{"type":"LineString","properties":{"kind":"major_road","network":null,"sort_rank":381,"kind_detail":"trunk","source":"openstreetmap.org","min_zoom":8.0,"landuse_kind":"urban_area","shield_text":"02","ref":"T-2","id":180239056},"arcs":[39]},{"type":"LineString","properties":{"kind":"major_road","network":null,"sort_rank":381,"kind_detail":"trunk","source":"openstreetmap.org","min_zoom":8.0,"landuse_kind":"urban_area","shield_text":"19","id":335092254},"arcs":[40]},{"type":"MultiLineString","properties":{"kind":"major_road","network":null,"sort_rank":381,"landuse_kind":"urban_area","source":"openstreetmap.org","min_zoom":8.0,"kind_detail":"trunk","shield_text":"02","ref":"T-02"},"arcs":[[41],[42]]},{"type":"MultiLineString","properties":{"kind":"major_road","network":null,"sort_rank":381,"kind_detail":"trunk","source":"openstreetmap.org","min_zoom":8.0,"shield_text":"19","ref":"T-19"},"arcs":[[43],[44]]}]},"earth":{"type":"GeometryCollection","geometries":[{"type":"Polygon","properties":{"sort_rank":10,"source":"naturalearthdata.com","min_zoom":0.0,"kind":"earth","area":98022885885},"arcs":[[45]]}]},"landuse":{"type":"GeometryCollection","geometries":[{"type":"MultiPolygon","properties":{"source":"naturalearthdata.com","kind":"urban_area","name":"","area":81479814,"sort_rank":11,"min_zoom":4.0},"arcs":[[[46]],[[47]]]},{"type":"Polygon","properties":{"kind":"park","area":6287070208,"sort_rank":24,"source":"openstreetmap.org","min_zoom":4.0,"tier":2,"id":-3418455,"osm_relation":true},"arcs":[[48]]},{"type":"MultiPolygon","properties":{"source":"openstreetmap.org","kind":"park","area":5851530240,"tier":2,"id":208077858,"min_zoom":4.0,"sort_rank":24},"arcs":[[[49]],[[50]]]}]}},"type":"Topology","transform":{"translate":[-67.5,7.0136679276],"scale":[0.0003433228,0.00034021]},"arcs":[[[1246,0],[-7,15],[29,63],[-1,155],[-21,1],[17,53],[226,212],[130,8],[140,-42],[71,39]],[[1830,504],[124,165],[84,67],[120,40],[108,2],[134,76],[151,10],[73,39],[31,192],[99,115],[117,46],[18,58],[-11,118],[83,57],[45,160],[404,214]],[[1830,2091],[-34,0],[-15,62],[-66,28],[-75,-45],[-81,39],[-16,-20],[-3,51],[-102,12],[-6,-36],[-120,97],[-132,-40],[-2,-33],[-166,-19],[-22,14],[14,50],[-188,-11],[-51,83],[-25,-12],[15,27],[-42,19],[-11,40],[-124,-10],[-67,61],[-15,61],[30,39],[-49,38],[-40,-40],[-11,38],[-20,-33],[-7,38],[-95,59],[-2,-20],[-53,0],[-60,-68],[-91,45],[-98,8]],[[3410,1863],[-21,64],[21,46],[-84,115],[-135,-39],[-235,63],[20,83],[-101,54],[-51,100],[-63,-36],[22,-46],[-22,-30],[-6,26],[-84,-10],[-67,-54],[-67,37],[-29,-34],[-52,13],[-17,-61],[33,9],[-15,-31],[25,-33],[36,5],[-40,-85],[-43,-17],[-17,31],[-43,-18],[18,29],[-19,35],[-21,-57],[-63,-35],[-45,9],[12,-18],[-56,35],[-86,6],[-8,30],[-34,5],[-15,-24],[-68,83],[-84,10],[-9,-40],[-67,8]],[[4096,1975],[-112,-4],[-146,-73],[-85,-74],[-76,-24],[-79,19],[-70,55],[-118,-11]],[[3646,1856],[-1,-7]],[[3958,1721],[2,-4]],[[3960,1714],[1,0]],[[3961,1714],[1,0]],[[3961,1722],[-3,0],[2,-16],[5,18],[-2,1],[-2,-11]],[[3961,1714],[-1,-5]],[[2869,0],[48,46],[0,322],[78,244],[270,32],[-11,140],[37,91],[42,45],[103,29],[44,38],[106,10],[89,95],[99,201],[61,48],[129,-32],[2,221],[59,40]],[[3646,1856],[7,96],[-69,402],[78,295],[28,380],[-150,513],[-88,175],[4,338]],[[3456,4096],[0,-9]],[[73,2631],[-13,88],[-60,118]],[[0,2491],[37,20]],[[36,2511],[-36,-19]],[[82,2575],[-23,-10],[-9,-17],[-13,-37]],[[37,2511],[45,64]],[[82,2575],[1,0],[0,1],[-1,0],[0,-1]],[[3871,1842],[18,-34]],[[3890,1809],[-19,33]],[[3911,1798],[8,-13]],[[3639,1834],[6,15]],[[3639,1834],[106,-48],[44,31]],[[3456,4087],[0,-32]],[[3789,1817],[57,41]],[[79,2600],[-1,1]],[[3845,1842],[5,13]],[[3845,1841],[5,14]],[[3845,1841]],[[3845,1841]],[[3845,1841],[0,1],[-1,-1],[1,0]],[[3845,1841],[13,2]],[[3858,1843],[14,-2]],[[3858,1843],[13,-1]],[[3890,1808],[21,-10],[-21,11]],[[37,2511]],[[3890,1808],[0,1],[-1,-1],[1,0]],[[76,2613],[-3,18]],[[3846,1858],[4,-3]],[[78,2601],[-2,12]],[[83,2576],[-4,24],[3,-25]],[[3919,1785],[39,-63]],[[4096,1498],[-45,25],[-70,93],[-21,90]],[[0,0],[0,4096],[1784,0],[2312,0],[0,-4096],[-4096,0]],[[3897,1763],[-38,37],[-130,33],[-2,41],[67,122],[95,-84],[34,-145],[-26,-4]],[[202,2485],[-97,0],[-105,-64],[0,168],[105,60],[62,-24],[52,-90],[-17,-50]],[[3454,4096],[7,-34],[-65,-81],[6,-56],[-35,-11],[-32,-95],[-36,-23],[-22,-97],[15,-42],[-126,-89],[18,-47],[-86,-82],[-55,-129],[12,-74],[85,-50],[-19,-104],[33,-68],[-25,-43],[-1,-160],[-62,-37],[-142,-22],[0,-57],[-48,-65],[-18,-90],[37,-81],[3,-95],[161,-80],[78,-4],[22,-75],[114,-97],[9,-34],[-102,-24],[-220,60],[20,77],[-106,63],[-1,38],[-28,6],[-14,56],[-37,30],[34,9],[3,27],[-30,12],[-110,-36],[-3,36],[-41,1],[-34,43],[23,25],[-36,-7],[11,35],[-31,-16],[-45,61],[-24,-36],[12,118],[-31,12],[-6,-39],[-10,28],[-117,-21],[-71,116],[-15,-18],[-87,30],[-68,-15],[-73,66],[-21,64],[-89,0],[-57,52],[-63,15],[-96,122],[-46,-9],[-99,95],[65,138],[-5,25],[-23,-6],[-24,97],[-38,19],[-10,112],[43,13],[-10,17],[138,186],[-5,211],[47,134],[1702,0]],[[0,146],[260,-45],[136,-97],[13,-4],[-409,0],[0,146]],[[1006,0],[87,126],[-56,178],[117,231],[21,10],[192,-132],[-91,-58],[31,-12],[-86,-141],[14,-202],[-229,0]]]}