{"objects":{"water":{"type":"GeometryCollection","geometries":[{"type":"Polygon","properties":{"source":"naturalearthdata.com","kind":"ocean","area":1576712559132672,"sort_rank":200,"min_zoom":0.0,"id":1},"arcs":[[2],[3],[4],[5],[6]]}]},"buildings":{"type":"GeometryCollection","geometries":[]},"places":{"type":"GeometryCollection","geometries":[]},"transit":{"type":"GeometryCollection","geometries":[]},"pois":{"type":"GeometryCollection","geometries":[]},"boundaries":{"type":"GeometryCollection","geometries":[{"type":"LineString","properties":{"name:sk":"Mikron\u00e9zia","name:cs":"Mikron\u00e9sie","name:eo":"Mikronezio","name:io":"Mikronezia","min_zoom":8.0,"official_name":"Federated States of Micronesia","name:uk":"\u0424\u0435\u0434\u0435\u0440\u0430\u0442\u0438\u0432\u043d\u0456 \u0428\u0442\u0430\u0442\u0438 \u041c\u0456\u043a\u0440\u043e\u043d\u0435\u0437\u0456\u0457","name:vi":"Li\u00ean bang Micronesia","name:ru":"\u0424\u0435\u0434\u0435\u0440\u0430\u0442\u0438\u0432\u043d\u044b\u0435 \u0428\u0442\u0430\u0442\u044b \u041c\u0438\u043a\u0440\u043e\u043d\u0435\u0437\u0438\u0438","name:sv":"Mikronesiens federerade stater","name:pl":"Mikronezja","name:ta":"\u0bae\u0bc8\u0b95\u0bcd\u0b95\u0bc1\u0bb0\u0bcb\u0ba9\u0bc0\u0b9a\u0bbf\u0baf\u0b95\u0bcd \u0b95\u0bc2\u0b9f\u0bcd\u0b9f\u0bc1 \u0ba8\u0bbe\u0b9f\u0bc1\u0b95\u0bb3\u0bcd","name:hr":"Mikronezija","name:sr":"\u041c\u0438\u043a\u0440\u043e\u043d\u0435\u0437\u0438\u0458\u0430","osm_relation":true,"name:vo":"Smala-Seanu\u00e4ns","kind":"country","name:en":"Federated States of Micronesia","name":"Micronesia","sort_rank":262,"kind_detail":"2","name:fr":"\u00c9tats f\u00e9d\u00e9r\u00e9s de Micron\u00e9sie","id":-571802,"source":"openstreetmap.org","maritime_boundary":true,"name:de":"F\u00f6derierte Staaten von Mikronesien"},"arcs":[0]},{"type":"LineString","properties":{"kind":"region","name":"Yap","sort_rank":256,"kind_detail":"4","min_zoom":8.0,"source":"openstreetmap.org","maritime_boundary":true,"id":-3819422,"osm_relation":true},"arcs":[1]}]},"roads":{"type":"GeometryCollection","geometries":[]},"earth":{"type":"GeometryCollection","geometries":[]},"landuse":{"type":"GeometryCollection","geometries":[]}},"type":"Topology","transform":{"translate":[143.4375,7.0136679276],"scale":[0.0003433228,0.00034021]},"arcs":[[[2825,4096],[146,-65],[157,-24],[172,21],[157,68]],[[2825,4096],[146,-65],[157,-24],[172,21],[157,68]],[[0,0],[0,4096],[4096,0],[0,-4096],[-4096,0]],[[1399,1003],[-7,-32],[14,32],[-8,15],[1,-15]],[[1394,1037],[6,20],[-23,18],[-6,-25],[19,-11],[4,-2]],[[1181,1049],[3,20],[-14,0],[-12,-28],[23,8]],[[1218,1059],[11,-5],[-3,17],[-8,-12]]]}