{"objects":{"water":{"type":"GeometryCollection","geometries":[{"type":"MultiPolygon","properties":{"source":"naturalearthdata.com","kind":"ocean","area":1576712559132672,"sort_rank":200,"min_zoom":0.0,"id":1},"arcs":[[[4]],[[5]]]},{"type":"MultiLineString","properties":{"source":"naturalearthdata.com","kind":"ocean","sort_rank":205,"boundary":true,"min_zoom":0.0,"id":27},"arcs":[[6],[7]]},{"type":"LineString","properties":{"source":"naturalearthdata.com","kind":"ocean","sort_rank":205,"boundary":true,"min_zoom":0.0,"id":1808},"arcs":[8]}]},"buildings":{"type":"GeometryCollection","geometries":[]},"places":{"type":"GeometryCollection","geometries":[{"type":"Point","properties":{"kind":"locality","name:en":"Teshikaga","name":"\u5f1f\u5b50\u5c48\u753a","kind_detail":"town","source":"openstreetmap.org","min_zoom":8.0,"population":8690,"id":2173193730,"name:ja":"Teshikaga-ch\u014d"},"coordinates":[2894,1786]}]},"transit":{"type":"GeometryCollection","geometries":[{"type":"MultiLineString","properties":{"kind":"train","name:en":"Okhotsk","name":"\u30aa\u30db\u30fc\u30c4\u30af","sort_rank":275,"source":"openstreetmap.org","min_zoom":6.0,"operator":"\u5317\u6d77\u9053\u65c5\u5ba2\u9244\u9053","ref":"\u30aa\u30db\u30fc\u30c4\u30af","osm_relation":true},"arcs":[[0],[1],[2],[3]]}]},"pois":{"type":"GeometryCollection","geometries":[{"type":"Point","properties":{"kind":"protected_area","name":"\u6d9b\u6cb8\u6e56","area":16316600,"source":"openstreetmap.org","min_zoom":8.0,"tier":2,"id":-1344686,"osm_relation":true},"coordinates":[2807,3482]}]},"boundaries":{"type":"GeometryCollection","geometries":[]},"roads":{"type":"GeometryCollection","geometries":[{"type":"LineString","properties":{"kind":"major_road","name:en":"Mitose Bridge","network":"JP:national","sort_rank":381,"kind_detail":"trunk","source":"openstreetmap.org","min_zoom":8.0,"shield_text":"240","ref":"240","id":138752870,"name:ja":"Mitose Bashi"},"arcs":[9]},{"type":"LineString","properties":{"kind":"major_road","name:en":"Toman Bridge","network":"JP:national","sort_rank":381,"kind_detail":"trunk","source":"openstreetmap.org","min_zoom":8.0,"shield_text":"242","ref":"242","id":179127069,"name:ja":"Toman Bashi"},"arcs":[10]},{"type":"MultiLineString","properties":{"kind":"major_road","name:en":"National Highway Route 243","network":"JP:national","sort_rank":381,"kind_detail":"trunk","source":"openstreetmap.org","min_zoom":8.0,"shield_text":"243","ref":"243"},"arcs":[[11],[12],[13],[14],[15],[16],[17],[18],[19]]},{"type":"LineString","properties":{"kind":"major_road","name:en":"Otei Bridge","network":"JP:national","sort_rank":381,"kind_detail":"trunk","source":"openstreetmap.org","min_zoom":8.0,"shield_text":"274","ref":"274","id":157428875,"name:ja":"Otei Bashi"},"arcs":[20]},{"type":"LineString","properties":{"kind":"major_road","name:en":"Dai 3 toshibetsu Bridge","network":"JP:national","sort_rank":381,"kind_detail":"trunk","source":"openstreetmap.org","min_zoom":8.0,"shield_text":"242","ref":"242","id":446936460,"name:ja":"Dai san toshibetsu Bashi"},"arcs":[21]},{"type":"LineString","properties":{"kind":"major_road","name:en":"Takushoku Bridge","network":"JP:national","sort_rank":381,"kind_detail":"trunk","source":"openstreetmap.org","min_zoom":8.0,"shield_text":"242","ref":"242","id":446937027,"name:ja":"Takushoku Bashi"},"arcs":[22]},{"type":"MultiLineString","properties":{"kind":"highway","name:en":"Daini Minamioka Tunnel","network":"JP:national","sort_rank":383,"landuse_kind":"urban_area","source":"openstreetmap.org","min_zoom":8.0,"all_networks":["JP:national"],"kind_detail":"motorway","shield_text":"39","ref":"E61","all_shield_texts":["39"]},"arcs":[[23],[24]]},{"type":"MultiLineString","properties":{"kind":"highway","name:en":"Daiichi Minamioka Tunnel","network":"JP:national","sort_rank":383,"landuse_kind":"urban_area","source":"openstreetmap.org","min_zoom":8.0,"all_networks":["JP:national"],"kind_detail":"motorway","shield_text":"39","ref":"E61","all_shield_texts":["39"]},"arcs":[[25],[26]]},{"type":"MultiLineString","properties":{"kind":"major_road","name:en":"chuo dori avenue","name:ja":"ch\u016b\u014d d\u014dri","sort_rank":381,"landuse_kind":"urban_area","source":"openstreetmap.org","min_zoom":8.0,"kind_detail":"trunk","shield_text":"39","ref":"39","network":"JP:national"},"arcs":[[27],[28]]},{"type":"MultiLineString","properties":{"kind":"major_road","network":"JP:national","sort_rank":381,"landuse_kind":"urban_area","source":"openstreetmap.org","min_zoom":8.0,"kind_detail":"trunk","shield_text":"39","ref":"39"},"arcs":[[29],[30],[31],[32]]},{"type":"LineString","properties":{"kind":"major_road","name:en":"Minami chuo dori avenue","network":"JP:national","sort_rank":381,"kind_detail":"trunk","source":"openstreetmap.org","min_zoom":8.0,"shield_text":"39","ref":"39","id":34303546,"name:ja":"Minami ch\u016b\u014d d\u014dri"},"arcs":[33]},{"type":"LineString","properties":{"source":"openstreetmap.org","kind":"major_road","sort_rank":380,"kind_detail":"primary","ref":"27","min_zoom":8.0},"arcs":[34]},{"type":"LineString","properties":{"kind":"major_road","name:en":"National Route 44","name:ja":"Kokud\u014d 44 g\u014d","sort_rank":381,"kind_detail":"trunk","source":"openstreetmap.org","min_zoom":8.0,"shield_text":"44","ref":"44","network":"JP:national"},"arcs":[35]},{"type":"LineString","properties":{"kind":"major_road","sort_rank":380,"landuse_kind":"urban_area","source":"openstreetmap.org","min_zoom":8.0,"kind_detail":"primary","ref":"23","id":34304185},"arcs":[36]},{"type":"MultiLineString","properties":{"source":"openstreetmap.org","kind":"major_road","sort_rank":380,"kind_detail":"primary","ref":"52","min_zoom":8.0},"arcs":[[37],[38]]},{"type":"MultiLineString","properties":{"source":"openstreetmap.org","kind":"major_road","sort_rank":380,"kind_detail":"primary","ref":"14","min_zoom":8.0},"arcs":[[39],[40]]},{"type":"LineString","properties":{"kind":"major_road","name:en":"Kiei Bridge","network":"JP:national","sort_rank":381,"kind_detail":"trunk","source":"openstreetmap.org","min_zoom":8.0,"shield_text":"274","ref":"274","id":157428855,"name:ja":"Kiei Bashi"},"arcs":[41]},{"type":"LineString","properties":{"kind":"major_road","name:en":"Azuma Bridge","network":"JP:national","sort_rank":381,"kind_detail":"trunk","source":"openstreetmap.org","min_zoom":8.0,"shield_text":"243","ref":"243","id":138343298,"name:ja":"Azuma Bashi"},"arcs":[42]},{"type":"LineString","properties":{"kind":"major_road","name:en":"National Route 44","network":"JP:national","sort_rank":381,"kind_detail":"trunk","source":"openstreetmap.org","min_zoom":8.0,"shield_text":"44","ref":"44","name:ja":"\u6839\u91e7\u56fd\u9053"},"arcs":[43]},{"type":"LineString","properties":{"kind":"major_road","name:en":"National Highway Route 39","network":"JP:national","sort_rank":381,"kind_detail":"trunk","source":"openstreetmap.org","min_zoom":8.0,"landuse_kind":"urban_area","shield_text":"39","ref":"39","id":34303712},"arcs":[44]},{"type":"LineString","properties":{"source":"openstreetmap.org","kind":"highway","sort_rank":383,"kind_detail":"motorway","ref":"E38","min_zoom":8.0,"id":55807971},"arcs":[45]},{"type":"LineString","properties":{"kind":"major_road","name:en":"Chanbetsu Bridge","network":"JP:national","sort_rank":381,"kind_detail":"trunk","source":"openstreetmap.org","min_zoom":8.0,"shield_text":"272","ref":"272","id":159657650,"name:ja":"Chanbetsu Bashi"},"arcs":[46]},{"type":"LineString","properties":{"kind":"major_road","name:en":"Iwauo Bridge","network":"JP:national","sort_rank":381,"kind_detail":"trunk","source":"openstreetmap.org","min_zoom":8.0,"shield_text":"244","ref":"244","id":131758352,"name:ja":"Iwauo Bashi"},"arcs":[47]},{"type":"LineString","properties":{"kind":"major_road","name:en":"Tsubetsu Bridge","network":"JP:national","sort_rank":381,"kind_detail":"trunk","source":"openstreetmap.org","min_zoom":8.0,"shield_text":"240","ref":"240","id":138752868,"name:ja":"Tsubetsu Bashi"},"arcs":[48]},{"type":"LineString","properties":{"kind":"highway","name:en":"Kitami Road","network":"JP:national","sort_rank":383,"kind_detail":"motorway","source":"openstreetmap.org","min_zoom":8.0,"all_networks":["JP:national"],"landuse_kind":"urban_area","shield_text":"39","ref":"E61","id":479290847,"all_shield_texts":["39"],"name:ja":"\u5317\u898b\u9053\u8def"},"arcs":[49]},{"type":"LineString","properties":{"kind":"major_road","name:en":"Akira Bridge","network":"JP:national","sort_rank":381,"kind_detail":"trunk","source":"openstreetmap.org","min_zoom":8.0,"shield_text":"392","ref":"392","id":157428921,"name:ja":"Akira Bashi"},"arcs":[50]},{"type":"LineString","properties":{"kind":"major_road","name:en":"National Highway Route 240","network":"JP:national","sort_rank":381,"landuse_kind":"urban_area","source":"openstreetmap.org","min_zoom":8.0,"kind_detail":"trunk","shield_text":"240","ref":"240"},"arcs":[51]},{"type":"MultiLineString","properties":{"kind":"major_road","name:en":"National Route 274","network":"JP:national","sort_rank":381,"kind_detail":"trunk","source":"openstreetmap.org","min_zoom":8.0,"shield_text":"274","ref":"274","name:ja":"Kokud\u014d 274 g\u014d"},"arcs":[[52],[53],[54],[55],[56],[57],[58],[59],[60],[61],[62]]},{"type":"LineString","properties":{"kind":"major_road","name:en":"Sensho Bridge","network":"JP:national","sort_rank":381,"kind_detail":"trunk","source":"openstreetmap.org","min_zoom":8.0,"shield_text":"274","ref":"274","id":157428844,"name:ja":"Sensh\u014d Bashi"},"arcs":[63]},{"type":"LineString","properties":{"kind":"major_road","name:en":"Kumanosawa Bridge","network":"JP:national","sort_rank":381,"kind_detail":"trunk","source":"openstreetmap.org","min_zoom":8.0,"shield_text":"242","ref":"242","id":179127062,"name:ja":"Kumanosawa Bashi"},"arcs":[64]},{"type":"LineString","properties":{"kind":"major_road","sort_rank":380,"landuse_kind":"urban_area","source":"openstreetmap.org","min_zoom":8.0,"kind_detail":"primary","ref":"122","id":477354215},"arcs":[65]},{"type":"LineString","properties":{"kind":"major_road","name:en":"Chiyo Bridge","network":"JP:national","sort_rank":381,"kind_detail":"trunk","source":"openstreetmap.org","min_zoom":8.0,"shield_text":"392","ref":"392","id":157428937,"name:ja":"Chiyo Bashi"},"arcs":[66]},{"type":"LineString","properties":{"kind":"major_road","name:en":"Reisen Bridge","network":"JP:national","sort_rank":381,"kind_detail":"trunk","source":"openstreetmap.org","min_zoom":8.0,"shield_text":"391","ref":"391","id":159657908,"name:ja":"Reisen Bashi"},"arcs":[67]},{"type":"LineString","properties":{"kind":"major_road","name:en":"Yotoku Bridge","network":"JP:national","sort_rank":381,"kind_detail":"trunk","source":"openstreetmap.org","min_zoom":8.0,"shield_text":"274","ref":"274","id":212193496,"name:ja":"Yotoku Bashi"},"arcs":[68]},{"type":"LineString","properties":{"kind":"major_road","name:en":"Matsunoe Bridge","network":"JP:national","sort_rank":381,"kind_detail":"trunk","source":"openstreetmap.org","min_zoom":8.0,"shield_text":"240","ref":"240","id":447122364,"name:ja":"Matsunoe Bashi"},"arcs":[69]},{"type":"LineString","properties":{"kind":"major_road","name:en":"Seiryu Bridge","network":"JP:national","sort_rank":381,"kind_detail":"trunk","source":"openstreetmap.org","min_zoom":8.0,"shield_text":"240","ref":"240","id":209166411,"name:ja":"Seiry\u016b Bashi"},"arcs":[70]},{"type":"MultiLineString","properties":{"source":"openstreetmap.org","kind":"major_road","sort_rank":380,"kind_detail":"primary","ref":"76","min_zoom":8.0},"arcs":[[71],[72],[73],[74]]},{"type":"LineString","properties":{"kind":"major_road","name:en":"Sakai Bridge","network":"JP:national","sort_rank":381,"kind_detail":"trunk","source":"openstreetmap.org","min_zoom":8.0,"shield_text":"391","ref":"391","id":447936680,"name:ja":"Sakai Bashi"},"arcs":[75]},{"type":"LineString","properties":{"kind":"major_road","name:en":"Tomappu Bridge","network":"JP:national","sort_rank":381,"kind_detail":"trunk","source":"openstreetmap.org","min_zoom":8.0,"shield_text":"39","ref":"39","id":447126178,"name:ja":"Tomappu Bashi"},"arcs":[76]},{"type":"MultiLineString","properties":{"kind":"highway","name:en":"Kitami Road","name:ja":"\u304d\u305f\u307f\u3069\u3046\u308d","sort_rank":383,"landuse_kind":"urban_area","source":"openstreetmap.org","min_zoom":8.0,"all_networks":["JP:national"],"kind_detail":"motorway","shield_text":"39","ref":"E61","all_shield_texts":["39"],"network":"JP:national"},"arcs":[[77],[78],[79],[80],[81],[82],[83],[84],[85],[86],[87],[88],[89]]},{"type":"LineString","properties":{"kind":"major_road","name:en":"Saroma ohashi Bridge","network":"JP:national","sort_rank":381,"kind_detail":"trunk","source":"openstreetmap.org","min_zoom":8.0,"shield_text":"238","ref":"238","id":155559644,"name:ja":"Saroma \u014chashi"},"arcs":[90]},{"type":"LineString","properties":{"kind":"major_road","name:en":"Takari Bridge","network":"JP:national","sort_rank":381,"kind_detail":"trunk","source":"openstreetmap.org","min_zoom":8.0,"shield_text":"272","ref":"272","id":159657652,"name:ja":"Takari Bashi"},"arcs":[91]},{"type":"LineString","properties":{"kind":"major_road","name:en":"Dai 1go Bridge","network":"JP:national","sort_rank":381,"kind_detail":"trunk","source":"openstreetmap.org","min_zoom":8.0,"shield_text":"242","ref":"242","id":425647082,"name:ja":"Dai ichig\u014d Bashi"},"arcs":[92]},{"type":"LineString","properties":{"kind":"major_road","name:en":"Akan Bridge","network":"JP:national","sort_rank":381,"kind_detail":"trunk","source":"openstreetmap.org","min_zoom":8.0,"shield_text":"240","ref":"240","id":172210567,"name:ja":"Akan Bashi"},"arcs":[93]},{"type":"LineString","properties":{"kind":"major_road","name:en":"National Highway Route 244","network":"JP:national","sort_rank":381,"landuse_kind":"urban_area","source":"openstreetmap.org","min_zoom":8.0,"kind_detail":"trunk","shield_text":"244","ref":"244"},"arcs":[94]},{"type":"LineString","properties":{"kind":"highway","name:en":"Engaru-Kitami Road","name:ja":"Engaru Kitami D\u014dro","sort_rank":383,"kind_detail":"motorway","source":"openstreetmap.org","min_zoom":8.0,"ref":"333","id":208692573},"arcs":[95]},{"type":"LineString","properties":{"kind":"major_road","name:en":"Onnenai Bridge","network":"JP:national","sort_rank":381,"kind_detail":"trunk","source":"openstreetmap.org","min_zoom":8.0,"shield_text":"240","ref":"240","id":209166404,"name:ja":"Onnenai Bashi"},"arcs":[96]},{"type":"LineString","properties":{"kind":"major_road","name:en":"Nishi 1 sen Bridge","network":"JP:national","sort_rank":381,"kind_detail":"trunk","source":"openstreetmap.org","min_zoom":8.0,"shield_text":"242","ref":"242","id":195610554,"name:ja":"Nishi issen Bashi"},"arcs":[97]},{"type":"LineString","properties":{"kind":"major_road","name:en":"Bushigawa Bridge","network":"JP:national","sort_rank":381,"kind_detail":"trunk","source":"openstreetmap.org","min_zoom":8.0,"shield_text":"333","ref":"333","id":225674797,"name:ja":"Bushigawa Bashi"},"arcs":[98]},{"type":"LineString","properties":{"kind":"highway","name:en":"Tokachi Okhotsk Expressway","name:ja":"\u3068\u304b\u3061\u304a\u307b\u30fc\u3064\u304f\u3058\u3069\u3046\u3057\u3083\u3069\u3046","sort_rank":383,"kind_detail":"motorway","source":"openstreetmap.org","min_zoom":8.0,"ref":"E61"},"arcs":[99]},{"type":"LineString","properties":{"kind":"major_road","name:en":"Kyugo Bridge","network":"JP:national","sort_rank":381,"kind_detail":"trunk","source":"openstreetmap.org","min_zoom":8.0,"shield_text":"334","ref":"334","id":140090674,"name:ja":"Ky\u016bg\u014d Bashi"},"arcs":[100]},{"type":"MultiLineString","properties":{"source":"openstreetmap.org","kind":"major_road","name:en":"Kitami Tanno Bihoro Line","sort_rank":380,"kind_detail":"primary","ref":"122","min_zoom":8.0},"arcs":[[101],[102]]},{"type":"LineString","properties":{"kind":"major_road","name:en":"Nishi-fuppoushi Bridge","network":"JP:national","sort_rank":381,"kind_detail":"trunk","source":"openstreetmap.org","min_zoom":8.0,"landuse_kind":"military","shield_text":"272","ref":"272","id":159075237,"name:ja":"Nishi-fuppoushi Bashi"},"arcs":[103]},{"type":"LineString","properties":{"source":"openstreetmap.org","kind":"major_road","sort_rank":380,"kind_detail":"primary","ref":"102","min_zoom":8.0},"arcs":[104]},{"type":"LineString","properties":{"kind":"major_road","name:en":"Kami-toshibetsu Bridge","network":"JP:national","sort_rank":381,"kind_detail":"trunk","source":"openstreetmap.org","min_zoom":8.0,"shield_text":"242","ref":"242","id":426235367,"name:ja":"Kami-toshibetsu Bashi"},"arcs":[105]},{"type":"LineString","properties":{"kind":"major_road","name:en":"Nukamappu Bridge","network":"JP:national","sort_rank":381,"kind_detail":"trunk","source":"openstreetmap.org","min_zoom":8.0,"shield_text":"334","ref":"334","id":134124024,"name:ja":"Nukamappu Bashi"},"arcs":[106]},{"type":"LineString","properties":{"kind":"major_road","name:en":"Otonbetsu Bridge","network":"JP:national","sort_rank":381,"kind_detail":"trunk","source":"openstreetmap.org","min_zoom":8.0,"shield_text":"240","ref":"240","id":209166415,"name:ja":"Otonbetsu Bashi"},"arcs":[107]},{"type":"MultiLineString","properties":{"kind":"major_road","network":"JP:national","sort_rank":381,"kind_detail":"trunk","source":"openstreetmap.org","min_zoom":8.0,"shield_text":"39","ref":"39"},"arcs":[[108],[109],[110],[111],[112],[113]]},{"type":"MultiLineString","properties":{"source":"openstreetmap.org","kind":"major_road","sort_rank":380,"kind_detail":"primary","ref":"143","min_zoom":8.0},"arcs":[[114],[115],[116],[117]]},{"type":"LineString","properties":{"source":"openstreetmap.org","kind":"major_road","sort_rank":380,"kind_detail":"primary","ref":"7","min_zoom":8.0},"arcs":[118]},{"type":"LineString","properties":{"source":"openstreetmap.org","kind":"major_road","landuse_kind":"urban_area","sort_rank":380,"kind_detail":"primary","ref":"7","min_zoom":8.0},"arcs":[119]},{"type":"LineString","properties":{"kind":"major_road","name:en":"Nijibetsu Bridge","network":"JP:national","sort_rank":381,"kind_detail":"trunk","source":"openstreetmap.org","min_zoom":8.0,"shield_text":"243","ref":"243","id":159657647,"name:ja":"Nijibetsu Bashi"},"arcs":[120]},{"type":"LineString","properties":{"kind":"major_road","name:en":"Yukan Bridge","network":"JP:national","sort_rank":381,"kind_detail":"trunk","source":"openstreetmap.org","min_zoom":8.0,"shield_text":"240","ref":"240","id":209166426,"name:ja":"Y\u016bkan Bashi"},"arcs":[121]},{"type":"LineString","properties":{"kind":"major_road","name:en":"Yasaka Bridge","network":"JP:national","sort_rank":381,"kind_detail":"trunk","source":"openstreetmap.org","min_zoom":8.0,"shield_text":"334","ref":"334","id":140090673,"name:ja":"Yasaka Bashi"},"arcs":[122]},{"type":"LineString","properties":{"kind":"major_road","name:en":"Tanno Tunnel","network":"JP:national","sort_rank":381,"kind_detail":"trunk","source":"openstreetmap.org","min_zoom":8.0,"shield_text":"333","ref":"333","id":209119666,"name:ja":"Tanno Tonneru"},"arcs":[123]},{"type":"LineString","properties":{"kind":"major_road","name:en":"Moashoro Bridge","network":"JP:national","sort_rank":381,"kind_detail":"trunk","source":"openstreetmap.org","min_zoom":8.0,"shield_text":"241","ref":"241","id":446204964,"name:ja":"Moashoro Bashi"},"arcs":[124]},{"type":"MultiLineString","properties":{"kind":"major_road","name:en":"National Highway Route 39","network":"JP:national","sort_rank":381,"kind_detail":"trunk","source":"openstreetmap.org","min_zoom":8.0,"shield_text":"39","ref":"39"},"arcs":[[125],[126],[127],[128],[129],[130],[131],[132]]},{"type":"LineString","properties":{"kind":"major_road","name:en":"Kumasaka Bridge","network":"JP:national","sort_rank":381,"kind_detail":"trunk","source":"openstreetmap.org","min_zoom":8.0,"shield_text":"241","ref":"241","id":446204968,"name:ja":"Kumasaka Bashi"},"arcs":[133]},{"type":"LineString","properties":{"kind":"major_road","name:en":"chuo dori avenue","network":"JP:national","sort_rank":381,"kind_detail":"trunk","source":"openstreetmap.org","min_zoom":8.0,"shield_text":"39","ref":"39","id":93096835,"name:ja":"ch\u016b\u014d d\u014dri"},"arcs":[134]},{"type":"LineString","properties":{"kind":"major_road","name:en":"Ryujo Bridge","network":"JP:national","sort_rank":381,"kind_detail":"trunk","source":"openstreetmap.org","min_zoom":8.0,"shield_text":"242","ref":"242","id":131730113,"name:ja":"Ry\u016bj\u014d Bashi"},"arcs":[135]},{"type":"LineString","properties":{"kind":"major_road","name:en":"Toro Bridge","network":"JP:national","sort_rank":381,"kind_detail":"trunk","source":"openstreetmap.org","min_zoom":8.0,"shield_text":"391","ref":"391","id":159657901,"name:ja":"T\u014dro Bashi"},"arcs":[136]},{"type":"LineString","properties":{"kind":"major_road","name:en":"Senbiri Bridge","network":"JP:national","sort_rank":381,"kind_detail":"trunk","source":"openstreetmap.org","min_zoom":8.0,"shield_text":"242","ref":"242","id":425659614,"name:ja":"Senbiri Bashi"},"arcs":[137]},{"type":"LineString","properties":{"kind":"major_road","name:en":"Yahagi Bridge","network":"JP:national","sort_rank":381,"kind_detail":"trunk","source":"openstreetmap.org","min_zoom":8.0,"shield_text":"242","ref":"242","id":131730095,"name:ja":"Yahagi Bashi"},"arcs":[138]},{"type":"LineString","properties":{"kind":"major_road","name:en":"Sakai Bridge","network":"JP:national","sort_rank":381,"kind_detail":"trunk","source":"openstreetmap.org","min_zoom":8.0,"shield_text":"243","ref":"243","id":447604080,"name:ja":"Sakai Bashi"},"arcs":[139]},{"type":"LineString","properties":{"kind":"major_road","name:en":"Aioi Bridge","network":"JP:national","sort_rank":381,"kind_detail":"trunk","source":"openstreetmap.org","min_zoom":8.0,"shield_text":"240","ref":"240","id":138752869,"name:ja":"Aioi Bashi"},"arcs":[140]},{"type":"LineString","properties":{"kind":"major_road","name:en":"Yodo Bridge","network":"JP:national","sort_rank":381,"kind_detail":"trunk","source":"openstreetmap.org","min_zoom":8.0,"shield_text":"242","ref":"242","id":131730116,"name:ja":"Yodo Bashi"},"arcs":[141]},{"type":"MultiLineString","properties":{"kind":"major_road","name:en":"National Highway Route 240","network":"JP:national","sort_rank":381,"kind_detail":"trunk","source":"openstreetmap.org","min_zoom":8.0,"shield_text":"240","ref":"240"},"arcs":[[142],[143],[144],[145],[146],[147],[148],[149],[150],[151],[152],[153],[154],[155],[156],[157],[158],[159],[160],[161],[162],[163],[164]]},{"type":"LineString","properties":{"kind":"major_road","name:en":"Megumi Bridge","network":"JP:national","sort_rank":381,"kind_detail":"trunk","source":"openstreetmap.org","min_zoom":8.0,"shield_text":"240","ref":"240","id":209166407,"name:ja":"Megumi Bashi"},"arcs":[165]},{"type":"LineString","properties":{"kind":"major_road","name:en":"Mizukami Bridge","network":"JP:national","sort_rank":381,"kind_detail":"trunk","source":"openstreetmap.org","min_zoom":8.0,"shield_text":"391","ref":"391","id":447643922,"name:ja":"Mizukami Bashi"},"arcs":[166]},{"type":"LineString","properties":{"kind":"major_road","name:en":"Rikubetsu Bridge","network":"JP:national","sort_rank":381,"kind_detail":"trunk","source":"openstreetmap.org","min_zoom":8.0,"shield_text":"242","ref":"242","id":179127061,"name:ja":"Rikubetsu Bashi"},"arcs":[167]},{"type":"MultiLineString","properties":{"kind":"highway","name:en":"Kitamigaoka Tunnel","network":"JP:national","sort_rank":383,"landuse_kind":"urban_area","source":"openstreetmap.org","min_zoom":8.0,"all_networks":["JP:national"],"kind_detail":"motorway","shield_text":"39","ref":"E61","all_shield_texts":["39"]},"arcs":[[168],[169]]},{"type":"LineString","properties":{"kind":"major_road","name:en":"Nisso Bridge","network":"JP:national","sort_rank":381,"kind_detail":"trunk","source":"openstreetmap.org","min_zoom":8.0,"shield_text":"242","ref":"242","id":179127065,"name:ja":"Niss\u014d Bashi"},"arcs":[170]},{"type":"LineString","properties":{"kind":"major_road","name:en":"Kami-aikappu Bridge","network":"JP:national","sort_rank":381,"kind_detail":"trunk","source":"openstreetmap.org","min_zoom":8.0,"shield_text":"242","ref":"242","id":195610558,"name:ja":"Kami-aikappu Bashi"},"arcs":[171]},{"type":"LineString","properties":{"kind":"major_road","name:en":"Hirano Bridge","network":"JP:national","sort_rank":381,"kind_detail":"trunk","source":"openstreetmap.org","min_zoom":8.0,"shield_text":"272","ref":"272","id":159657735,"name:ja":"Hirano Bashi"},"arcs":[172]},{"type":"LineString","properties":{"kind":"major_road","name:en":"Yugure Bridge","network":"JP:national","sort_rank":381,"kind_detail":"trunk","source":"openstreetmap.org","min_zoom":8.0,"shield_text":"243","ref":"243","id":135285510,"name:ja":"Y\u016bgure Bashi"},"arcs":[173]},{"type":"LineString","properties":{"kind":"major_road","name:en":"Abashiri Bridge","network":"JP:national","sort_rank":381,"kind_detail":"trunk","source":"openstreetmap.org","min_zoom":8.0,"landuse_kind":"urban_area","shield_text":"39","ref":"39","id":93096834,"name:ja":"Abashiri Bashi"},"arcs":[174]},{"type":"LineString","properties":{"kind":"major_road","name:en":"Yae Bridge","network":"JP:national","sort_rank":381,"kind_detail":"trunk","source":"openstreetmap.org","min_zoom":8.0,"shield_text":"274","ref":"274","id":157428859,"name:ja":"Yae Bashi"},"arcs":[175]},{"type":"LineString","properties":{"kind":"major_road","name:en":"Sekkei Bridge","network":"JP:national","sort_rank":381,"kind_detail":"trunk","source":"openstreetmap.org","min_zoom":8.0,"shield_text":"274","ref":"274","id":209166471,"name:ja":"Sekkei Bashi"},"arcs":[176]},{"type":"MultiLineString","properties":{"kind":"major_road","name:en":"Kitami Tanno Bihoro Line","sort_rank":380,"kind_detail":"primary","source":"openstreetmap.org","min_zoom":8.0,"landuse_kind":"urban_area","ref":"122"},"arcs":[[177],[178]]},{"type":"LineString","properties":{"kind":"major_road","name:en":"Bekkan Bridge","network":"JP:national","sort_rank":381,"kind_detail":"trunk","source":"openstreetmap.org","min_zoom":8.0,"shield_text":"272","ref":"272","id":159075236,"name:ja":"Bekkan Bashi"},"arcs":[179]},{"type":"LineString","properties":{"kind":"major_road","name:en":"Onnekikin Bridge","network":"JP:national","sort_rank":381,"kind_detail":"trunk","source":"openstreetmap.org","min_zoom":8.0,"shield_text":"240","ref":"240","id":138752867,"name:ja":"Onnekikin Bashi"},"arcs":[180]},{"type":"LineString","properties":{"kind":"major_road","name:en":"Engaru Bridge","network":"JP:national","sort_rank":381,"kind_detail":"trunk","source":"openstreetmap.org","min_zoom":8.0,"shield_text":"242","ref":"242","name:ja":"Engaru Bashi"},"arcs":[181]},{"type":"MultiLineString","properties":{"source":"openstreetmap.org","kind":"major_road","sort_rank":381,"kind_detail":"trunk","ref":"274","min_zoom":8.0},"arcs":[[182],[183]]},{"type":"LineString","properties":{"kind":"major_road","name:en":"Oriyomappu Bridge","network":"JP:national","sort_rank":381,"kind_detail":"trunk","source":"openstreetmap.org","min_zoom":8.0,"shield_text":"274","ref":"274","id":448275617,"name:ja":"Oriyomappu Bashi"},"arcs":[184]},{"type":"MultiLineString","properties":{"kind":"major_road","name:en":"National Highway Route 244","network":"JP:national","sort_rank":381,"kind_detail":"trunk","source":"openstreetmap.org","min_zoom":8.0,"shield_text":"244","ref":"244"},"arcs":[[185],[186],[187],[188],[189],[190],[191]]},{"type":"MultiLineString","properties":{"kind":"highway","name:en":"Teranosawa Tunnel","network":"JP:national","sort_rank":383,"landuse_kind":"urban_area","source":"openstreetmap.org","min_zoom":8.0,"all_networks":["JP:national"],"kind_detail":"motorway","shield_text":"39","ref":"E61","all_shield_texts":["39"]},"arcs":[[192],[193]]},{"type":"MultiLineString","properties":{"kind":"major_road","name:en":"National Highway Route 333","network":"JP:national","sort_rank":381,"kind_detail":"trunk","source":"openstreetmap.org","min_zoom":8.0,"shield_text":"333","ref":"333"},"arcs":[[194],[195],[196],[197],[198],[199],[200],[201],[202],[203]]},{"type":"LineString","properties":{"kind":"major_road","name:en":"Taiei Bridge","network":"JP:national","sort_rank":381,"kind_detail":"trunk","source":"openstreetmap.org","min_zoom":8.0,"shield_text":"244","ref":"244","id":131758309,"name:ja":"Taiei Bashi"},"arcs":[204]},{"type":"LineString","properties":{"kind":"major_road","name:en":"Shinbashi Bridge","network":"JP:national","sort_rank":381,"kind_detail":"trunk","source":"openstreetmap.org","min_zoom":8.0,"shield_text":"39","id":38997273,"name:ja":"Shinbashi"},"arcs":[205]},{"type":"MultiLineString","properties":{"source":"openstreetmap.org","kind":"major_road","sort_rank":380,"kind_detail":"primary","ref":"53","min_zoom":8.0},"arcs":[[206],[207],[208],[209],[210],[211],[212],[213]]},{"type":"MultiLineString","properties":{"source":"openstreetmap.org","kind":"major_road","landuse_kind":"urban_area","sort_rank":380,"kind_detail":"primary","ref":"27","min_zoom":8.0},"arcs":[[214],[215],[216]]},{"type":"LineString","properties":{"kind":"major_road","name:en":"Mie Bridge","network":"JP:national","sort_rank":381,"kind_detail":"trunk","source":"openstreetmap.org","min_zoom":8.0,"shield_text":"392","ref":"392","id":157428922,"name:ja":"Mie Bashi"},"arcs":[217]},{"type":"LineString","properties":{"kind":"major_road","name:en":"Shintomi Bridge","network":"JP:national","sort_rank":381,"kind_detail":"trunk","source":"openstreetmap.org","min_zoom":8.0,"shield_text":"272","ref":"272","id":156752003,"name:ja":"Shintomi Bashi"},"arcs":[218]},{"type":"LineString","properties":{"kind":"major_road","name:en":"Heiwa Bridge","network":"JP:national","sort_rank":381,"kind_detail":"trunk","source":"openstreetmap.org","min_zoom":8.0,"shield_text":"39","ref":"39","id":138343308,"name:ja":"Heiwa Bashi"},"arcs":[219]},{"type":"LineString","properties":{"kind":"major_road","name:en":"Hoshizu Bridge","network":"JP:national","sort_rank":381,"kind_detail":"trunk","source":"openstreetmap.org","min_zoom":8.0,"shield_text":"392","ref":"392","id":157428925,"name:ja":"Hoshizu Bashi"},"arcs":[220]},{"type":"LineString","properties":{"kind":"major_road","name:en":"Nita Bridge","network":"JP:national","sort_rank":381,"kind_detail":"trunk","source":"openstreetmap.org","min_zoom":8.0,"shield_text":"391","ref":"391","id":447655715,"name:ja":"Nita Bashi"},"arcs":[221]},{"type":"LineString","properties":{"kind":"major_road","name:en":"Keisen Bridge","network":"JP:national","sort_rank":381,"kind_detail":"trunk","source":"openstreetmap.org","min_zoom":8.0,"shield_text":"392","ref":"392","id":157428923,"name:ja":"Keisen Bashi"},"arcs":[222]},{"type":"LineString","properties":{"kind":"major_road","name:en":"Kana Bridge","network":"JP:national","sort_rank":381,"kind_detail":"trunk","source":"openstreetmap.org","min_zoom":8.0,"shield_text":"274","ref":"274","id":157428843,"name:ja":"Kana Bashi"},"arcs":[223]},{"type":"LineString","properties":{"kind":"major_road","name:en":"Mokoto Bridge","network":"JP:national","sort_rank":381,"kind_detail":"trunk","source":"openstreetmap.org","min_zoom":8.0,"shield_text":"244","ref":"244","id":447606473,"name:ja":"Mokoto Bashi"},"arcs":[224]},{"type":"LineString","properties":{"kind":"major_road","name:en":"Shikishima Bridge","network":"JP:national","sort_rank":381,"kind_detail":"trunk","source":"openstreetmap.org","min_zoom":8.0,"shield_text":"333","ref":"333","id":186527668,"name:ja":"Shikishima Bashi"},"arcs":[225]},{"type":"LineString","properties":{"source":"openstreetmap.org","kind":"major_road","name:en":"Prefectural Highway-Hombetsu-Rubeshibe Route No.88","sort_rank":380,"kind_detail":"primary","ref":"88","min_zoom":8.0},"arcs":[226]},{"type":"LineString","properties":{"kind":"major_road","name:en":"Hokuyo Bridge","network":"JP:national","sort_rank":381,"kind_detail":"trunk","source":"openstreetmap.org","min_zoom":8.0,"shield_text":"333","ref":"333","id":209119562,"name:ja":"Hokuy\u014d Bashi"},"arcs":[227]},{"type":"LineString","properties":{"kind":"major_road","name:en":"Minetsuki Bridge","network":"JP:national","sort_rank":381,"kind_detail":"trunk","source":"openstreetmap.org","min_zoom":8.0,"shield_text":"272","ref":"272","id":159657651,"name:ja":"Minetsuki Bashi"},"arcs":[228]},{"type":"MultiLineString","properties":{"kind":"major_road","name:en":"National Highway Route 391","network":"JP:national","sort_rank":381,"kind_detail":"trunk","source":"openstreetmap.org","min_zoom":8.0,"shield_text":"391","ref":"391"},"arcs":[[229],[230],[231],[232],[233],[234],[235],[236],[237],[238],[239],[240]]},{"type":"LineString","properties":{"kind":"major_road","name:en":"Dai 2 toshibetsu Bridge","network":"JP:national","sort_rank":381,"kind_detail":"trunk","source":"openstreetmap.org","min_zoom":8.0,"shield_text":"242","ref":"242","id":446936459,"name:ja":"Dai ni toshibetsu Bashi"},"arcs":[241]},{"type":"LineString","properties":{"kind":"major_road","name:en":"Omagari Bridge","network":"JP:national","sort_rank":381,"kind_detail":"trunk","source":"openstreetmap.org","min_zoom":8.0,"shield_text":"238","ref":"238","id":104674927,"name:ja":"\u014cmagari Bashi"},"arcs":[242]},{"type":"LineString","properties":{"kind":"major_road","name:en":"Memanbetsu Bridge","network":"JP:national","sort_rank":381,"kind_detail":"trunk","source":"openstreetmap.org","min_zoom":8.0,"shield_text":"334","ref":"334","id":138343299,"name:ja":"Memanbetsu Bashi"},"arcs":[243]},{"type":"MultiLineString","properties":{"source":"openstreetmap.org","kind":"highway","name:en":"Doto Expressway","sort_rank":383,"kind_detail":"motorway","ref":"E61","min_zoom":8.0},"arcs":[[244],[245],[246],[247]]},{"type":"LineString","properties":{"kind":"major_road","name:en":"Chuo Bridge","network":"JP:national","sort_rank":381,"kind_detail":"trunk","source":"openstreetmap.org","min_zoom":8.0,"shield_text":"274","ref":"274","id":209166468,"name:ja":"Ch\u016b\u014d Bashi"},"arcs":[248]},{"type":"MultiLineString","properties":{"source":"openstreetmap.org","kind":"highway","name:en":"Doto Expressway","sort_rank":383,"kind_detail":"motorway","ref":"E38","min_zoom":8.0},"arcs":[[249],[250],[251],[252],[253],[254]]},{"type":"MultiLineString","properties":{"kind":"major_road","name:en":"National Highway Route 272","network":"JP:national","sort_rank":381,"kind_detail":"trunk","source":"openstreetmap.org","min_zoom":8.0,"shield_text":"272","ref":"272"},"arcs":[[255],[256],[257],[258],[259],[260],[261],[262],[263],[264],[265],[266]]},{"type":"LineString","properties":{"kind":"highway","name:en":"Doto Expressway","name:ja":"D\u014dt\u014d Jid\u014dshad\u014d","sort_rank":383,"kind_detail":"motorway","source":"openstreetmap.org","min_zoom":8.0,"ref":"E38"},"arcs":[267]},{"type":"MultiLineString","properties":{"sort_rank":380,"kind_detail":"primary","min_zoom":8.0,"kind":"major_road","source":"openstreetmap.org"},"arcs":[[268],[269],[270],[271]]},{"type":"LineString","properties":{"kind":"major_road","name:en":"Yumi Bridge","network":"JP:national","sort_rank":381,"kind_detail":"trunk","source":"openstreetmap.org","min_zoom":8.0,"shield_text":"274","ref":"274","id":157428850,"name:ja":"Yumi Bashi"},"arcs":[272]},{"type":"LineString","properties":{"source":"openstreetmap.org","kind":"major_road","sort_rank":380,"kind_detail":"primary","ref":"150","min_zoom":8.0,"id":131758441},"arcs":[273]},{"type":"LineString","properties":{"kind":"major_road","name:en":"Minehama Bridge","network":"JP:national","sort_rank":381,"kind_detail":"trunk","source":"openstreetmap.org","min_zoom":8.0,"shield_text":"334","ref":"334","id":134124018,"name:ja":"Minehama Bashi"},"arcs":[274]},{"type":"LineString","properties":{"kind":"major_road","name:en":"Numatate Bridge","network":"JP:national","sort_rank":381,"kind_detail":"trunk","source":"openstreetmap.org","min_zoom":8.0,"shield_text":"240","ref":"240","id":209166419,"name:ja":"Numatate Bashi"},"arcs":[275]},{"type":"LineString","properties":{"kind":"major_road","name:en":"Ashoro Bridge","network":"JP:national","sort_rank":381,"kind_detail":"trunk","source":"openstreetmap.org","min_zoom":8.0,"shield_text":"242","ref":"242","id":195070583,"name:ja":"Ashoro Bashi"},"arcs":[276]},{"type":"LineString","properties":{"kind":"highway","name:en":"Bihoro Bypass","network":"JP:national","sort_rank":383,"kind_detail":"motorway","source":"openstreetmap.org","min_zoom":8.0,"all_networks":["JP:national"],"shield_text":"39","ref":"E61","all_shield_texts":["39"]},"arcs":[277]},{"type":"LineString","properties":{"kind":"major_road","name:en":"Kotan Bridge","network":"JP:national","sort_rank":381,"kind_detail":"trunk","source":"openstreetmap.org","min_zoom":8.0,"shield_text":"240","ref":"240","id":138752866,"name:ja":"Kotan Bashi"},"arcs":[278]},{"type":"LineString","properties":{"source":"openstreetmap.org","kind":"major_road","sort_rank":380,"kind_detail":"primary","ref":"92","min_zoom":8.0,"id":129205512},"arcs":[279]},{"type":"MultiLineString","properties":{"source":"openstreetmap.org","kind":"major_road","sort_rank":380,"kind_detail":"primary","ref":"51","min_zoom":8.0},"arcs":[[280],[281],[282]]},{"type":"LineString","properties":{"kind":"major_road","name:en":"Uenbetsu Bridge","network":"JP:national","sort_rank":381,"kind_detail":"trunk","source":"openstreetmap.org","min_zoom":8.0,"shield_text":"240","ref":"240","id":209166446,"name:ja":"Uenbetsu Bashi"},"arcs":[283]},{"type":"LineString","properties":{"kind":"major_road","name:en":"Tomi Bridge","network":"JP:national","sort_rank":381,"kind_detail":"trunk","source":"openstreetmap.org","min_zoom":8.0,"shield_text":"391","ref":"391","id":159657905,"name:ja":"T\u014dmi Bashi"},"arcs":[284]},{"type":"MultiLineString","properties":{"kind":"major_road","name:en":"Kita chuo dori avenue","name:ja":"Kita ch\u016b\u014d d\u014dri","sort_rank":381,"kind_detail":"trunk","source":"openstreetmap.org","min_zoom":8.0,"shield_text":"39","ref":"39","network":"JP:national"},"arcs":[[285],[286]]},{"type":"LineString","properties":{"kind":"major_road","name:en":"Uenbetsu Bridge","network":"JP:national","sort_rank":381,"kind_detail":"trunk","source":"openstreetmap.org","min_zoom":8.0,"shield_text":"334","ref":"334","id":131758365,"name:ja":"Uenbetsu Bashi"},"arcs":[287]},{"type":"LineString","properties":{"kind":"major_road","name:en":"Shimizu Bridge","network":"JP:national","sort_rank":381,"kind_detail":"trunk","source":"openstreetmap.org","min_zoom":8.0,"shield_text":"392","ref":"392","id":157428936,"name:ja":"Shimizu Bashi"},"arcs":[288]},{"type":"LineString","properties":{"kind":"major_road","name:en":"Tofutsu Bridge","network":"JP:national","sort_rank":381,"kind_detail":"trunk","source":"openstreetmap.org","min_zoom":8.0,"landuse_kind":"park","shield_text":"244","ref":"244","id":140090671,"name:ja":"T\u014dfutsu Bashi"},"arcs":[289]},{"type":"LineString","properties":{"kind":"major_road","name:en":"Taishin Bridge","network":"JP:national","sort_rank":381,"kind_detail":"trunk","source":"openstreetmap.org","min_zoom":8.0,"shield_text":"334","ref":"334","id":207885113,"name:ja":"Taishin Bashi"},"arcs":[290]},{"type":"LineString","properties":{"kind":"major_road","name:en":"Momiji Bridge","network":"JP:national","sort_rank":381,"kind_detail":"trunk","source":"openstreetmap.org","min_zoom":8.0,"shield_text":"241","ref":"241","id":195030486,"name:ja":"Momiji Bashi"},"arcs":[291]},{"type":"LineString","properties":{"kind":"major_road","name:en":"Miyako Bridge","network":"JP:national","sort_rank":381,"kind_detail":"trunk","source":"openstreetmap.org","min_zoom":8.0,"shield_text":"243","ref":"243","id":138343297,"name:ja":"Miyako Bashi"},"arcs":[292]},{"type":"LineString","properties":{"kind":"major_road","name:en":"Hokusen Bridge","network":"JP:national","sort_rank":381,"kind_detail":"trunk","source":"openstreetmap.org","min_zoom":8.0,"shield_text":"240","ref":"240","id":138752871,"name:ja":"Hokusen Bashi"},"arcs":[293]},{"type":"LineString","properties":{"kind":"major_road","name:en":"Satsuyunai Bridge","network":"JP:national","sort_rank":381,"kind_detail":"trunk","source":"openstreetmap.org","min_zoom":8.0,"shield_text":"243","ref":"243","id":135285511,"name:ja":"Satsuy\u016bnai Bashi"},"arcs":[294]},{"type":"MultiLineString","properties":{"kind":"major_road","name:en":"National Highway Route 244","network":"JP:national","sort_rank":381,"kind_detail":"trunk","source":"openstreetmap.org","min_zoom":8.0,"landuse_kind":"park","shield_text":"244","ref":"244"},"arcs":[[295],[296]]},{"type":"MultiLineString","properties":{"kind":"highway","name:en":"Engaru-Kitami Road","name:ja":"Engaru-Kitami D\u014dro","sort_rank":383,"kind_detail":"motorway","source":"openstreetmap.org","min_zoom":8.0,"ref":"333"},"arcs":[[297],[298]]},{"type":"LineString","properties":{"kind":"major_road","name:en":"Hokke Bridge","network":"JP:national","sort_rank":381,"kind_detail":"trunk","source":"openstreetmap.org","min_zoom":8.0,"shield_text":"242","ref":"242","id":428675255,"name:ja":"Hokke Bashi"},"arcs":[299]},{"type":"LineString","properties":{"kind":"major_road","name:en":"Kunpu Bridge","network":"JP:national","sort_rank":381,"kind_detail":"trunk","source":"openstreetmap.org","min_zoom":8.0,"shield_text":"274","ref":"274","id":157428860,"name:ja":"Kunpu Bashi"},"arcs":[300]},{"type":"LineString","properties":{"kind":"major_road","name:en":"Prefectural Highway-Hombetsu-Shihoro Route No.134","sort_rank":380,"kind_detail":"primary","source":"openstreetmap.org","min_zoom":8.0,"ref":"134","id":183576854},"arcs":[301]},{"type":"MultiLineString","properties":{"kind":"highway","name:en":"Kitami Road","name:ja":"\u304d\u305f\u307f\u3069\u3046\u308d","sort_rank":383,"kind_detail":"motorway","source":"openstreetmap.org","min_zoom":8.0,"all_networks":["JP:national"],"shield_text":"39","ref":"E61","all_shield_texts":["39"],"network":"JP:national"},"arcs":[[302],[303],[304],[305]]},{"type":"LineString","properties":{"kind":"major_road","name:en":"Dai 4 toshibetsu Bridge","network":"JP:national","sort_rank":381,"kind_detail":"trunk","source":"openstreetmap.org","min_zoom":8.0,"shield_text":"242","ref":"242","id":446936462,"name:ja":"Dai yon toshibetsu Bridge"},"arcs":[306]},{"type":"LineString","properties":{"kind":"major_road","name:en":"Enoki Bridge","network":"JP:national","sort_rank":381,"kind_detail":"trunk","source":"openstreetmap.org","min_zoom":8.0,"shield_text":"243","ref":"243","id":138343295,"name:ja":"Enoki Bashi"},"arcs":[307]},{"type":"LineString","properties":{"source":"openstreetmap.org","kind":"major_road","sort_rank":380,"kind_detail":"primary","ref":"134","min_zoom":8.0},"arcs":[308]},{"type":"LineString","properties":{"kind":"major_road","name:en":"Koshikawa Bridge","network":"JP:national","sort_rank":381,"kind_detail":"trunk","source":"openstreetmap.org","min_zoom":8.0,"shield_text":"244","ref":"244","id":131758330,"name:ja":"Koshikawa Bashi"},"arcs":[309]},{"type":"LineString","properties":{"source":"openstreetmap.org","kind":"major_road","sort_rank":380,"kind_detail":"primary","ref":"50","min_zoom":8.0},"arcs":[310]},{"type":"MultiLineString","properties":{"kind":"highway","name:en":"Asahino Tunnel","name:ja":"Asahino Tonneru","sort_rank":383,"kind_detail":"motorway","source":"openstreetmap.org","min_zoom":8.0,"ref":"333"},"arcs":[[311],[312]]},{"type":"LineString","properties":{"kind":"major_road","name:en":"Kamiikuno Bridge","network":"JP:national","sort_rank":381,"kind_detail":"trunk","source":"openstreetmap.org","min_zoom":8.0,"shield_text":"242","ref":"242","id":131730105,"name:ja":"Kamiikuno Bashi"},"arcs":[313]},{"type":"MultiLineString","properties":{"source":"openstreetmap.org","kind":"major_road","landuse_kind":"park","sort_rank":380,"kind_detail":"primary","ref":"76","min_zoom":8.0},"arcs":[[314],[315],[316],[317]]},{"type":"LineString","properties":{"kind":"major_road","name:en":"Shiohoro Bridge","network":"JP:national","sort_rank":381,"kind_detail":"trunk","source":"openstreetmap.org","min_zoom":8.0,"shield_text":"242","ref":"242","id":195610552,"name:ja":"Shiohoro Bashi"},"arcs":[318]},{"type":"LineString","properties":{"kind":"major_road","name:en":"Matsugoro Bridge","network":"JP:national","sort_rank":381,"kind_detail":"trunk","source":"openstreetmap.org","min_zoom":8.0,"shield_text":"392","ref":"392","id":208021716,"name:ja":"Matsugoro Bashi"},"arcs":[319]},{"type":"LineString","properties":{"source":"openstreetmap.org","kind":"major_road","sort_rank":380,"kind_detail":"primary","ref":"23","min_zoom":8.0,"id":34304185},"arcs":[320]},{"type":"MultiLineString","properties":{"kind":"highway","name:en":"Tokachi Okhotsk Expressway","network":null,"sort_rank":383,"kind_detail":"motorway","source":"openstreetmap.org","min_zoom":8.0,"all_networks":[null],"shield_text":"61","ref":"E61","all_shield_texts":["61"],"name:ja":"\u3068\u304b\u3061\u304a\u307b\u30fc\u3064\u304f\u3058\u3069\u3046\u3057\u3083\u3069\u3046"},"arcs":[[321],[322]]},{"type":"LineString","properties":{"kind":"major_road","name:en":"Hakuai Bridge","network":"JP:national","sort_rank":381,"kind_detail":"trunk","source":"openstreetmap.org","min_zoom":8.0,"shield_text":"241","ref":"241","id":446204972,"name:ja":"Hakuai Bashi"},"arcs":[323]},{"type":"MultiLineString","properties":{"kind":"major_road","name:en":"National Highway Route 242","network":"JP:national","sort_rank":381,"kind_detail":"trunk","source":"openstreetmap.org","min_zoom":8.0,"shield_text":"242","ref":"242"},"arcs":[[324],[325],[326],[327],[328],[329],[330],[331],[332],[333],[334],[335],[336],[337],[338],[339],[340],[341],[342],[343],[344],[345],[346],[347],[348],[349],[350],[351],[352],[353],[354]]},{"type":"LineString","properties":{"source":"openstreetmap.org","kind":"major_road","sort_rank":381,"kind_detail":"trunk","ref":"391","min_zoom":8.0},"arcs":[355]},{"type":"LineString","properties":{"kind":"major_road","name:en":"Rawan Bridge","network":"JP:national","sort_rank":381,"kind_detail":"trunk","source":"openstreetmap.org","min_zoom":8.0,"shield_text":"241","ref":"241","id":446204960,"name:ja":"Rawan Bashi"},"arcs":[356]},{"type":"MultiLineString","properties":{"source":"openstreetmap.org","kind":"major_road","network":"JP:national","sort_rank":381,"kind_detail":"trunk","min_zoom":8.0,"shield_text":"39"},"arcs":[[357],[358]]},{"type":"MultiLineString","properties":{"kind":"major_road","name:en":"National Highway Route 241","network":"JP:national","sort_rank":381,"kind_detail":"trunk","source":"openstreetmap.org","min_zoom":8.0,"shield_text":"241","ref":"241"},"arcs":[[359],[360],[361],[362],[363],[364],[365],[366],[367],[368],[369],[370],[371]]},{"type":"LineString","properties":{"kind":"major_road","name:en":"Semonbirta Bridge","network":"JP:national","sort_rank":381,"kind_detail":"trunk","source":"openstreetmap.org","min_zoom":8.0,"shield_text":"391","ref":"391","id":159657903,"name:ja":"Semonbirta Bashi"},"arcs":[372]},{"type":"LineString","properties":{"kind":"major_road","name:en":"Hangetsu Bridge","network":"JP:national","sort_rank":381,"kind_detail":"trunk","source":"openstreetmap.org","min_zoom":8.0,"shield_text":"240","ref":"240","id":209166436,"name:ja":"Hangetsu Bashi"},"arcs":[373]},{"type":"LineString","properties":{"kind":"major_road","name:en":"Bokei Bridge","network":"JP:national","sort_rank":381,"kind_detail":"trunk","source":"openstreetmap.org","min_zoom":8.0,"shield_text":"274","ref":"274","id":157428864,"name:ja":"Bokei Bashi"},"arcs":[374]},{"type":"LineString","properties":{"kind":"major_road","name:en":"Fujimi Bridge","network":"JP:national","sort_rank":381,"kind_detail":"trunk","source":"openstreetmap.org","min_zoom":8.0,"shield_text":"240","ref":"240","id":209166433,"name:ja":"Fujimi Bashi"},"arcs":[375]},{"type":"LineString","properties":{"kind":"major_road","name:en":"Shirarutoro Bridge","network":"JP:national","sort_rank":381,"kind_detail":"trunk","source":"openstreetmap.org","min_zoom":8.0,"shield_text":"391","ref":"391","id":159657911,"name:ja":"Shirarutoro Bashi"},"arcs":[376]},{"type":"LineString","properties":{"kind":"major_road","name:en":"Mizuki Bridge","network":"JP:national","sort_rank":381,"kind_detail":"trunk","source":"openstreetmap.org","min_zoom":8.0,"shield_text":"272","ref":"272","id":448062876,"name:ja":"Mizuki Bashi"},"arcs":[377]},{"type":"MultiLineString","properties":{"kind":"major_road","name:en":"National Highway Route 334","network":"JP:national","sort_rank":381,"kind_detail":"trunk","source":"openstreetmap.org","min_zoom":8.0,"shield_text":"334","ref":"334"},"arcs":[[378],[379],[380],[381],[382],[383],[384],[385],[386],[387],[388],[389]]},{"type":"MultiLineString","properties":{"source":"openstreetmap.org","kind":"major_road","sort_rank":380,"kind_detail":"primary","ref":"88","min_zoom":8.0},"arcs":[[390],[391]]},{"type":"LineString","properties":{"source":"openstreetmap.org","kind":"major_road","sort_rank":380,"kind_detail":"primary","ref":"104","min_zoom":8.0},"arcs":[392]},{"type":"LineString","properties":{"kind":"major_road","name:en":"Kawakami Bridge","network":"JP:national","sort_rank":381,"kind_detail":"trunk","source":"openstreetmap.org","min_zoom":8.0,"shield_text":"242","ref":"242","id":179127072,"name:ja":"Kawakami Bashi"},"arcs":[393]},{"type":"LineString","properties":{"kind":"major_road","name:en":"Arase Bridge","network":"JP:national","sort_rank":381,"kind_detail":"trunk","source":"openstreetmap.org","min_zoom":8.0,"shield_text":"242","ref":"242","id":131730093,"name:ja":"Arase Bashi"},"arcs":[394]},{"type":"MultiLineString","properties":{"source":"openstreetmap.org","kind":"major_road","sort_rank":380,"kind_detail":"primary","ref":"103","min_zoom":8.0},"arcs":[[395],[396]]},{"type":"LineString","properties":{"kind":"major_road","sort_rank":380,"landuse_kind":"urban_area","source":"openstreetmap.org","min_zoom":8.0,"kind_detail":"primary","ref":"1083","id":34304485},"arcs":[397]},{"type":"MultiLineString","properties":{"kind":"major_road","name:en":"National Route 242","network":"JP:national","sort_rank":381,"kind_detail":"trunk","source":"openstreetmap.org","min_zoom":8.0,"shield_text":"242","ref":"242"},"arcs":[[398],[399],[400],[401]]},{"type":"LineString","properties":{"kind":"major_road","name:en":"Asahi Bridge","network":"JP:national","sort_rank":381,"kind_detail":"trunk","source":"openstreetmap.org","min_zoom":8.0,"shield_text":"333","ref":"333","id":131730119,"name:ja":"Asahi Bashi"},"arcs":[402]},{"type":"LineString","properties":{"kind":"major_road","name:en":"Tanaka Bridge","network":"JP:national","sort_rank":381,"kind_detail":"trunk","source":"openstreetmap.org","min_zoom":8.0,"shield_text":"334","ref":"334","id":425633506,"name:ja":"Tanaka Bashi"},"arcs":[403]},{"type":"LineString","properties":{"kind":"major_road","name:en":"Kanzan Bridge","network":"JP:national","sort_rank":381,"kind_detail":"trunk","source":"openstreetmap.org","min_zoom":8.0,"shield_text":"243","ref":"243","id":159657649,"name:ja":"Kanzan Bashi"},"arcs":[404]},{"type":"LineString","properties":{"source":"openstreetmap.org","kind":"highway","name:en":"Doto Expressway","sort_rank":383,"kind_detail":"motorway","min_zoom":8.0,"id":424770868},"arcs":[405]},{"type":"LineString","properties":{"source":"openstreetmap.org","kind":"major_road","name:en":"Prefectural Highway-Honbetsu-Urahoro Route No.56","sort_rank":380,"kind_detail":"primary","ref":"56","min_zoom":8.0},"arcs":[406]},{"type":"LineString","properties":{"kind":"major_road","name:en":"Bihoro Bridge","network":"JP:national","sort_rank":381,"kind_detail":"trunk","source":"openstreetmap.org","min_zoom":8.0,"shield_text":"39","ref":"39","id":188657588,"name:ja":"Bihoro Bashi"},"arcs":[407]},{"type":"MultiLineString","properties":{"kind":"highway","name:en":"Kawahigashi Tunnel","network":"JP:national","sort_rank":383,"landuse_kind":"urban_area","source":"openstreetmap.org","min_zoom":8.0,"all_networks":["JP:national"],"kind_detail":"motorway","shield_text":"39","ref":"E61","all_shield_texts":["39"]},"arcs":[[408],[409]]},{"type":"LineString","properties":{"kind":"major_road","name:en":"Mashu Ohashi Bridge","network":"JP:national","sort_rank":381,"kind_detail":"trunk","source":"openstreetmap.org","min_zoom":8.0,"shield_text":"241","ref":"241","id":135285503,"name:ja":"Mash\u016b \u014chashi"},"arcs":[410]},{"type":"LineString","properties":{"source":"openstreetmap.org","kind":"major_road","sort_rank":380,"kind_detail":"primary","ref":"64","min_zoom":8.0},"arcs":[411]},{"type":"LineString","properties":{"kind":"major_road","name:en":"Ubaranaishinbashi Bridge","network":"JP:national","sort_rank":381,"kind_detail":"trunk","source":"openstreetmap.org","min_zoom":8.0,"shield_text":"238","ref":"238","id":425647554,"name:ja":"Ubaranaishinbashi"},"arcs":[412]},{"type":"LineString","properties":{"kind":"major_road","name:en":"Miyuki Bridge","network":"JP:national","sort_rank":381,"kind_detail":"trunk","source":"openstreetmap.org","min_zoom":8.0,"shield_text":"242","ref":"242","id":446936469,"name:ja":"Miyuki Bashi"},"arcs":[413]},{"type":"MultiLineString","properties":{"kind":"major_road","name:en":"National Highway Route 238","network":"JP:national","sort_rank":381,"kind_detail":"trunk","source":"openstreetmap.org","min_zoom":8.0,"shield_text":"238","ref":"238"},"arcs":[[414],[415],[416],[417],[418]]},{"type":"LineString","properties":{"kind":"major_road","name:en":"National Highway Route 243","network":"JP:national","sort_rank":381,"landuse_kind":"urban_area","source":"openstreetmap.org","min_zoom":8.0,"kind_detail":"trunk","shield_text":"243","ref":"243"},"arcs":[419]},{"type":"LineString","properties":{"kind":"major_road","name:en":"Kitami Shiranuka line","name:ja":"Kitami Shiranuka sen","sort_rank":380,"kind_detail":"primary","source":"openstreetmap.org","min_zoom":8.0,"ref":"143","id":55813625},"arcs":[420]},{"type":"LineString","properties":{"kind":"major_road","name:en":"Uraga Bridge","network":"JP:national","sort_rank":381,"kind_detail":"trunk","source":"openstreetmap.org","min_zoom":8.0,"shield_text":"274","ref":"274","id":157428876,"name:ja":"Uraga Bashi"},"arcs":[421]},{"type":"MultiLineString","properties":{"kind":"major_road","name:en":"National Highway Route 272","network":"JP:national","sort_rank":381,"kind_detail":"trunk","source":"openstreetmap.org","min_zoom":8.0,"landuse_kind":"military","shield_text":"272","ref":"272"},"arcs":[[422],[423]]},{"type":"LineString","properties":{"kind":"major_road","name:en":"Heiwa Bridge","network":"JP:national","sort_rank":381,"kind_detail":"trunk","source":"openstreetmap.org","min_zoom":8.0,"shield_text":"242","ref":"242","id":131730091,"name:ja":"Heiwa Bashi"},"arcs":[424]},{"type":"LineString","properties":{"kind":"major_road","name:en":"Shari shin-ohashi Bridge","network":"JP:national","sort_rank":381,"kind_detail":"trunk","source":"openstreetmap.org","min_zoom":8.0,"shield_text":"244","ref":"244","id":131758343,"name:ja":"Shari shin-\u014dhashi"},"arcs":[425]},{"type":"MultiLineString","properties":{"source":"openstreetmap.org","kind":"major_road","sort_rank":380,"kind_detail":"primary","ref":"122","min_zoom":8.0},"arcs":[[426],[427]]},{"type":"LineString","properties":{"kind":"major_road","name:en":"Shiraodori Bridge","network":"JP:national","sort_rank":381,"kind_detail":"trunk","source":"openstreetmap.org","min_zoom":8.0,"shield_text":"391","ref":"391","id":159657906,"name:ja":"Shiraodori Bashi"},"arcs":[428]},{"type":"LineString","properties":{"kind":"major_road","name:en":"Fuppushi Bridge","network":"JP:national","sort_rank":381,"kind_detail":"trunk","source":"openstreetmap.org","min_zoom":8.0,"shield_text":"240","ref":"240","id":209166441,"name:ja":"Fuppushi Bashi"},"arcs":[429]},{"type":"LineString","properties":{"kind":"major_road","name:en":"Oketo Tunnel","network":"JP:national","sort_rank":381,"kind_detail":"trunk","source":"openstreetmap.org","min_zoom":8.0,"shield_text":"242","ref":"242","id":178283301,"name:ja":"Oketo Tonneru"},"arcs":[430]},{"type":"MultiLineString","properties":{"kind":"major_road","name:en":"National Highway Route 274","network":"JP:national","sort_rank":381,"kind_detail":"trunk","source":"openstreetmap.org","min_zoom":8.0,"shield_text":"274","ref":"274"},"arcs":[[431],[432],[433],[434],[435],[436],[437],[438]]},{"type":"LineString","properties":{"source":"openstreetmap.org","kind":"major_road","sort_rank":380,"kind_detail":"primary","ref":"137","min_zoom":8.0},"arcs":[439]},{"type":"LineString","properties":{"kind":"major_road","name:en":"Kiyomi Bridge","network":"JP:national","sort_rank":381,"kind_detail":"trunk","source":"openstreetmap.org","min_zoom":8.0,"shield_text":"242","ref":"242","id":178131359,"name:ja":"Kiyomi Bashi"},"arcs":[440]},{"type":"LineString","properties":{"kind":"major_road","name:en":"Yoda Bridge","network":"JP:national","sort_rank":381,"kind_detail":"trunk","source":"openstreetmap.org","min_zoom":8.0,"shield_text":"242","ref":"242","id":179127070,"name:ja":"Yoda Bashi"},"arcs":[441]},{"type":"LineString","properties":{"kind":"major_road","name:en":"National Highway Route 238","network":"JP:national","sort_rank":381,"kind_detail":"trunk","source":"openstreetmap.org","min_zoom":8.0,"landuse_kind":"park","shield_text":"238","ref":"238"},"arcs":[442]},{"type":"MultiLineString","properties":{"source":"openstreetmap.org","kind":"major_road","sort_rank":380,"kind_detail":"primary","ref":"13","min_zoom":8.0},"arcs":[[443],[444]]},{"type":"MultiLineString","properties":{"kind":"major_road","name:en":"National Route 392","name:ja":"Kokud\u014d 392 g\u014d","sort_rank":381,"kind_detail":"trunk","source":"openstreetmap.org","min_zoom":8.0,"shield_text":"392","ref":"392","network":"JP:national"},"arcs":[[445],[446],[447],[448],[449],[450],[451],[452],[453]]},{"type":"LineString","properties":{"kind":"major_road","name:en":"Nishifuren Bridge","network":"JP:national","sort_rank":381,"kind_detail":"trunk","source":"openstreetmap.org","min_zoom":8.0,"shield_text":"272","ref":"272","id":156752001,"name:ja":"Nishif\u016bren Bashi"},"arcs":[454]},{"type":"LineString","properties":{"kind":"major_road","name:en":"Ryogoku Bridge","network":"JP:national","sort_rank":381,"kind_detail":"trunk","source":"openstreetmap.org","min_zoom":8.0,"shield_text":"241","ref":"241","id":172210569,"name:ja":"Ry\u014dgoku Brashi"},"arcs":[455]},{"type":"LineString","properties":{"kind":"major_road","name:en":"Nikoro Tunnel","network":"JP:national","sort_rank":381,"kind_detail":"trunk","source":"openstreetmap.org","min_zoom":8.0,"shield_text":"333","ref":"333","id":196123516,"name:ja":"Nikoro Tonneru"},"arcs":[456]},{"type":"LineString","properties":{"kind":"major_road","name:en":"Kokyo Bridge","network":"JP:national","sort_rank":381,"kind_detail":"trunk","source":"openstreetmap.org","min_zoom":8.0,"shield_text":"241","ref":"241","id":446204966,"name:ja":"K\u014dky\u014d Bashi"},"arcs":[457]},{"type":"LineString","properties":{"kind":"major_road","name:en":"Sogen Bridge","network":"JP:national","sort_rank":381,"kind_detail":"trunk","source":"openstreetmap.org","min_zoom":8.0,"shield_text":"274","ref":"274","id":159657887,"name:ja":"Sogen Bashi"},"arcs":[458]},{"type":"LineString","properties":{"kind":"major_road","name:en":"Ichinen Bridge","network":"JP:national","sort_rank":381,"kind_detail":"trunk","source":"openstreetmap.org","min_zoom":8.0,"shield_text":"242","ref":"242","id":131730089,"name:ja":"Ichinen Bashi"},"arcs":[459]},{"type":"LineString","properties":{"kind":"major_road","name:en":"Akangawa Bridge","network":"JP:national","sort_rank":381,"kind_detail":"trunk","source":"openstreetmap.org","min_zoom":8.0,"shield_text":"240","ref":"240","id":209166401,"name:ja":"Akangawa Bashi"},"arcs":[460]},{"type":"LineString","properties":{"kind":"major_road","name:en":"Senju Bridge","network":"JP:national","sort_rank":381,"kind_detail":"trunk","source":"openstreetmap.org","min_zoom":8.0,"shield_text":"242","ref":"242","id":442818127,"name:ja":"Senj\u016b Bashi"},"arcs":[461]},{"type":"LineString","properties":{"kind":"major_road","name:en":"Shuen Bridge","network":"JP:national","sort_rank":381,"kind_detail":"trunk","source":"openstreetmap.org","min_zoom":8.0,"shield_text":"334","ref":"334","id":134124021,"name:ja":"Shuen Bashi"},"arcs":[462]},{"type":"LineString","properties":{"kind":"major_road","name:en":"Takimi Bridge","network":"JP:national","sort_rank":381,"kind_detail":"trunk","source":"openstreetmap.org","min_zoom":8.0,"shield_text":"240","ref":"240","id":209166432,"name:ja":"Takimi Bashi"},"arcs":[463]},{"type":"LineString","properties":{"kind":"major_road","name:en":"Fuji Bridge","network":"JP:national","sort_rank":381,"kind_detail":"trunk","source":"openstreetmap.org","min_zoom":8.0,"shield_text":"272","ref":"272","id":448061332,"name:ja":"Fuji Bashi"},"arcs":[464]},{"type":"LineString","properties":{"kind":"major_road","name:en":"Koshin Bridge","network":"JP:national","sort_rank":381,"kind_detail":"trunk","source":"openstreetmap.org","min_zoom":8.0,"shield_text":"242","ref":"242","id":426327063,"name:ja":"K\u014dshin Bashi"},"arcs":[465]},{"type":"LineString","properties":{"kind":"major_road","name:en":"Yayoi Bridge","network":"JP:national","sort_rank":381,"kind_detail":"trunk","source":"openstreetmap.org","min_zoom":8.0,"shield_text":"272","ref":"272","id":448061334,"name:ja":"Yayoi Bashi"},"arcs":[466]},{"type":"LineString","properties":{"kind":"major_road","name:en":"Shinsaroma Tunnel","network":"JP:national","sort_rank":381,"kind_detail":"trunk","source":"openstreetmap.org","min_zoom":8.0,"shield_text":"333","ref":"333","id":209119621,"name:ja":"Shinsaroma Tonneru"},"arcs":[467]},{"type":"LineString","properties":{"kind":"major_road","name:en":"Kamiashoro Bridge","network":"JP:national","sort_rank":381,"kind_detail":"trunk","source":"openstreetmap.org","min_zoom":8.0,"shield_text":"241","ref":"241","id":446204962,"name:ja":"Kamiashoro Bashi"},"arcs":[468]},{"type":"LineString","properties":{"kind":"major_road","name:en":"Shirotae Bridge","network":"JP:national","sort_rank":381,"kind_detail":"trunk","source":"openstreetmap.org","min_zoom":8.0,"shield_text":"274","ref":"274","id":157428841,"name:ja":"Shirotae Bashi"},"arcs":[469]},{"type":"LineString","properties":{"kind":"major_road","name:en":"Odori Bridge","network":"JP:national","sort_rank":381,"kind_detail":"trunk","source":"openstreetmap.org","min_zoom":8.0,"shield_text":"242","ref":"242","id":183576859,"name:ja":"\u014cdori Bashi"},"arcs":[470]},{"type":"LineString","properties":{"kind":"major_road","name:en":"Kamiura Bridge","network":"JP:national","sort_rank":381,"kind_detail":"trunk","source":"openstreetmap.org","min_zoom":8.0,"shield_text":"334","ref":"334","id":140090675,"name:ja":"Kamiura Bashi"},"arcs":[471]},{"type":"LineString","properties":{"kind":"major_road","name:en":"Kyoei Bridge","network":"JP:national","sort_rank":381,"kind_detail":"trunk","source":"openstreetmap.org","min_zoom":8.0,"shield_text":"392","ref":"392","id":157428920,"name:ja":"Kyoei Bashi"},"arcs":[472]},{"type":"LineString","properties":{"kind":"major_road","name:en":"Aitoku Bridge","network":"JP:national","sort_rank":381,"kind_detail":"trunk","source":"openstreetmap.org","min_zoom":8.0,"shield_text":"241","ref":"241","id":446204970,"name:ja":"Aitoku Bashi"},"arcs":[473]},{"type":"LineString","properties":{"kind":"major_road","name:en":"Shimizunosawa Bridge","network":"JP:national","sort_rank":381,"kind_detail":"trunk","source":"openstreetmap.org","min_zoom":8.0,"shield_text":"241","ref":"241","id":208008895,"name:ja":"Shimizunosawa Bashi"},"arcs":[474]},{"type":"LineString","properties":{"kind":"major_road","name:en":"Irodori Bridge","network":"JP:national","sort_rank":381,"kind_detail":"trunk","source":"openstreetmap.org","min_zoom":8.0,"shield_text":"240","ref":"240","id":209166409,"name:ja":"Irodori Bashi"},"arcs":[475]},{"type":"LineString","properties":{"kind":"major_road","name:en":"Setose Bridge","network":"JP:national","sort_rank":381,"kind_detail":"trunk","source":"openstreetmap.org","min_zoom":8.0,"shield_text":"333","ref":"333","id":131730118,"name:ja":"Setose Bashi"},"arcs":[476]}]},"earth":{"type":"GeometryCollection","geometries":[{"type":"MultiPolygon","properties":{"sort_rank":10,"source":"naturalearthdata.com","min_zoom":0.0,"kind":"earth","area":34139205369},"arcs":[[[477]]]}]},"landuse":{"type":"GeometryCollection","geometries":[{"type":"MultiPolygon","properties":{"source":"openstreetmap.org","kind":"park","tier":2,"area":672941322,"sort_rank":24,"min_zoom":6.0,"osm_relation":true},"arcs":[[[478]],[[479]]]},{"type":"Polygon","properties":{"source":"openstreetmap.org","kind":"military","area":309744992,"tier":3,"id":401269296,"min_zoom":8.0,"sort_rank":45},"arcs":[[480]]},{"type":"MultiPolygon","properties":{"source":"naturalearthdata.com","kind":"urban_area","name":"","area":211498547,"sort_rank":11,"min_zoom":4.0},"arcs":[[[481]],[[482]],[[483]]]},{"type":"Polygon","properties":{"kind":"protected_area","natural":"water","area":16316600,"sort_rank":17,"source":"openstreetmap.org","min_zoom":8.0,"tier":2,"id":-1344686,"osm_relation":true},"arcs":[[484]]},{"type":"Polygon","properties":{"kind":"park","area":89735504,"sort_rank":24,"source":"openstreetmap.org","min_zoom":8.0,"tier":2,"id":-5644650,"osm_relation":true},"arcs":[[485]]}]}},"type":"Topology","transform":{"translate":[143.4375,43.0688877742],"scale":[0.0003433228,0.0002487054]},"arcs":[[[237,3976],[-115,-140],[-49,8],[-73,-50]],[[237,3976],[4,7]],[[237,3976],[-15,-90],[68,-190],[-18,-136],[-32,-62],[59,-103],[28,-321]],[[326,3099],[56,-100],[12,-82],[72,-40],[473,48],[163,39],[224,-20],[153,214],[55,8],[16,88],[69,15],[83,-36],[88,-84],[125,1],[59,-79],[123,216],[0,88],[69,55],[16,112],[93,39],[2,124],[39,87],[63,32]],[[4096,3551],[-36,-40],[-126,-82],[-139,-28],[-495,40],[-408,72],[-102,33],[-47,23],[-124,96],[-26,14],[-27,29],[-47,133],[-25,30],[-45,21],[-29,50],[-36,121],[6,33],[1706,0],[0,-545]],[[2232,4096],[-8,-21],[-10,-61],[-26,-68],[-32,-61],[-31,-39],[-41,-22],[-43,3],[-95,44],[62,195],[23,30],[201,0]],[[4096,3551],[-36,-40],[-126,-82],[-139,-28],[-495,40],[-408,72],[-102,33],[-47,23],[-124,96],[-26,14],[-27,29],[-47,133],[-25,30],[-45,21],[-29,50],[-36,121],[6,33]],[[2232,4096],[-8,-21],[-10,-61],[-26,-68],[-32,-61],[-31,-39],[-41,-22],[-43,3],[-95,44],[62,195],[23,30]],[[2944,3511],[2,0],[18,0],[-20,0]],[[1571,1923],[-1,2]],[[874,1551],[1,2]],[[2024,2997],[108,-47]],[[2134,2950],[22,-46],[-8,-163],[41,-133]],[[2189,2606],[4,-29]],[[2193,2576],[63,-122],[122,-91],[-16,-32],[40,12],[-43,-100],[38,0],[-4,-94],[35,-61],[114,-91]],[[2543,1995],[233,-83],[94,-106]],[[2872,1806],[39,-15],[50,-86],[75,-61],[128,30],[153,-27]],[[3318,1647],[276,-54]],[[3595,1593],[24,9],[36,-44]],[[3655,1556],[146,-167],[68,-4],[124,-90],[103,-42]],[[1078,392],[1,2]],[[567,1191],[3,2]],[[402,2425],[-2,-3]],[[1325,2855],[13,10]],[[1338,2865],[-13,-11]],[[1278,2825],[43,26]],[[1321,2851],[-43,-26]],[[2415,3841],[-6,11]],[[2419,3823],[-2,13]],[[998,2944],[-23,-2]],[[1140,2937],[-9,4],[-124,3],[-2,0],[-7,0]],[[1140,2937],[-142,7]],[[1383,3027],[-60,-86],[-183,-4]],[[2312,3797],[66,29]],[[1706,2555],[-61,31],[-87,-80],[-104,45],[-159,-14],[11,101],[-48,127],[1,64]],[[4086,0],[-6,31]],[[2378,3826],[40,6]],[[2961,2217],[-28,-1],[-25,71],[-65,35],[-124,-32],[-92,-339]],[[2967,2177],[113,-61],[-1,-37],[36,23],[-20,-42],[22,-158],[-155,-169]],[[3396,958],[21,-4]],[[4028,0],[-17,47],[-119,96],[-66,147],[-79,69],[43,136],[-216,128],[-81,158],[-81,90],[-6,53]],[[1184,449],[1,1]],[[2189,2608],[0,-2]],[[4080,31],[16,18]],[[2277,3678],[26,88]],[[329,133],[7,2]],[[3626,601],[-1,-1]],[[3955,2912],[1,-3]],[[1709,2548],[-1,2]],[[1402,2917],[3,3]],[[1334,198],[1,-4]],[[1924,2963],[19,110]],[[652,207],[152,111],[176,-8]],[[984,313],[76,73]],[[1064,384],[8,0]],[[1073,385],[3,3]],[[1077,389],[1,3]],[[1079,394],[10,18]],[[1091,414],[2,1]],[[1094,415],[90,34]],[[1185,450],[19,-2]],[[1205,447],[32,-1]],[[1238,445],[85,-72]],[[980,310],[4,3]],[[818,1957],[-1,1]],[[1384,2935],[1,0]],[[1398,91],[-4,0]],[[3110,457],[2,-4]],[[651,206],[1,1]],[[2087,352],[3,5]],[[2061,1411],[0,1]],[[2147,3838],[-38,-47]],[[2196,3903],[-9,-14]],[[2382,3942],[5,-16]],[[2393,3907],[16,-55]],[[3211,1288],[1,-1]],[[2158,3394],[1,-1]],[[1266,2824],[12,1]],[[1278,2825],[-11,-1]],[[1321,2851],[4,4]],[[1325,2854],[-4,-3]],[[1338,2865],[14,12]],[[1353,2877],[-15,-12]],[[1372,2893],[4,3]],[[1376,2896],[-4,-4]],[[1388,2905],[14,12]],[[1405,2920],[-7,-7],[-10,-8]],[[1405,2920]],[[1421,2949],[29,39]],[[1450,2988],[-4,-10],[-25,-29]],[[1451,4063],[7,0]],[[3745,731],[0,-1]],[[844,1745],[0,1]],[[2023,1232],[0,1]],[[2506,3687],[-56,140],[-31,-4]],[[378,3681],[39,-4]],[[1938,1057],[1,0]],[[417,983],[1,3]],[[804,3569],[0,-3]],[[886,2588],[-93,-177],[-66,-56],[-16,-203],[-26,-44],[25,44],[17,203],[66,56],[93,177]],[[3012,3188],[2,0]],[[1448,2989],[47,53]],[[1927,3111],[-73,-85],[-104,39],[-110,-102],[-46,-14],[-99,93]],[[3752,918],[-1,-1]],[[2952,2369],[-81,100],[-138,27],[-48,51],[-59,171],[-39,23],[-71,171],[-30,111],[13,96],[-57,181],[128,315]],[[494,1165],[2,2]],[[4002,3503],[-1,-1]],[[1991,145],[0,1]],[[975,2942],[-514,-78],[-461,-181]],[[1383,3027],[132,254],[98,12],[35,-20]],[[1660,3248],[1,-1]],[[1943,3075],[-122,166],[-75,-18]],[[1890,3164],[-8,-1]],[[2095,3273],[-8,-1]],[[710,2071],[15,137],[-18,141],[98,46],[20,164],[40,66],[-10,188],[32,17],[-9,90]],[[1006,1148],[47,62],[30,138],[67,63],[10,90],[-36,38],[-37,-3],[9,33],[-65,-3],[-133,45]],[[1133,1021],[32,-79]],[[1337,385],[-55,184],[-36,20],[-62,119]],[[1275,3023],[-2,113],[76,116],[-29,48],[78,129],[30,163],[31,8],[41,124],[199,216],[46,94],[-2,51],[8,11]],[[1282,2937],[-7,86]],[[3594,1593],[1,0]],[[2053,1354],[0,1]],[[2984,3187],[4,0]],[[1384,3279],[25,-39]],[[1025,1147],[1,-1]],[[1981,3059],[-38,16]],[[1994,3055],[-12,3]],[[2158,3394],[-62,7],[-115,-268],[15,-77]],[[2159,3393],[55,112]],[[2269,3559],[-22,-23],[-33,-31]],[[2214,3505],[55,54]],[[2277,3678],[-8,-119]],[[2303,3766],[9,31]],[[1246,1208],[2,1]],[[2409,3852]],[[278,3623],[-1,1]],[[3097,351],[1,-2]],[[411,498],[-1,2]],[[242,3274]],[[3317,1647],[1,0]],[[1566,2060],[-1,2]],[[247,3485],[-2,2]],[[1565,2062],[-3,44],[71,181],[-24,59],[73,69]],[[1570,1925],[-4,135]],[[1590,1895],[-19,28]],[[1620,1753],[-22,25],[-7,117]],[[1861,1468],[-179,58],[-20,38],[17,19],[-10,117],[-48,51]],[[1683,2416],[42,91],[-16,41]],[[1708,2550],[-5,69],[84,81],[137,263]],[[2046,1452],[-183,17]],[[1918,938],[-3,82],[23,37]],[[1933,904],[-14,32]],[[1942,887],[-9,15]],[[1939,1057],[22,13]],[[2090,357],[-67,333],[-81,196]],[[1943,3073],[0,2]],[[1962,1071],[67,81],[-6,80]],[[2057,43],[-65,68],[-1,34]],[[1991,146],[5,14]],[[1997,165],[90,187]],[[2023,1233],[30,121]],[[2061,1412],[-13,40]],[[2053,1355],[8,56]],[[2124,15],[-65,27]],[[2151,0],[-26,15]],[[1961,1070],[1,1]],[[3065,2984],[2,0]],[[891,1585],[1,2]],[[1352,2877],[20,16]],[[1372,2892],[-19,-15]],[[726,2006],[-2,2]],[[414,963],[1,4]],[[3657,629],[-1,0]],[[2542,1997],[1,-2]],[[2417,3836],[-2,5]],[[1237,446],[1,-1]],[[1920,451],[-5,-1]],[[1328,2948],[56,-13]],[[1385,2935],[63,54]],[[3732,853],[1,-2]],[[1682,2415],[1,1]],[[237,3958],[1,-6]],[[2717,854],[1,0]],[[3176,977],[0,-1]],[[2158,513],[-1,-1]],[[2591,3607],[-85,80]],[[2686,3561],[-93,45]],[[3353,3331],[-48,-2],[-128,72],[-205,-11],[-27,90]],[[3503,3341],[-148,-9]],[[3938,3096],[-112,118],[-42,81],[-97,-3],[-66,56],[-111,-7]],[[3937,3095],[18,-183]],[[3956,2909],[2,-118],[138,-45]],[[1376,2896],[12,9]],[[1388,2905],[-12,-9]],[[209,3842],[-207,-65]],[[300,3691],[-27,66]],[[301,3690],[23,-35],[54,26]],[[677,3602],[-20,-24],[-161,55]],[[804,3569],[11,44],[-41,69],[-95,-78]],[[844,3548],[-40,18]],[[991,3524],[-1,0]],[[1011,3519],[-18,6]],[[1384,3279],[-54,66],[-209,55],[-80,102]],[[1489,3194],[-80,46]],[[3355,3332],[-2,-1]],[[2378,3830],[1,2]],[[2531,0],[14,0]],[[2560,0],[23,164]],[[2582,369],[3,57],[-35,71],[77,323]],[[2587,172],[13,46]],[[2587,357],[7,-124]],[[2872,1012],[20,131],[-67,141],[36,109],[-5,90],[88,190],[63,7]],[[3007,1682],[0,-2]],[[3010,1679],[-3,1]],[[1259,2829],[4,5]],[[1265,2854],[-2,-20]],[[1265,2854],[17,83]],[[1292,269],[-1,-4]],[[3979,1097],[-1,-1]],[[1982,3058],[-1,1]],[[1342,153],[2,-5]],[[3035,1606],[1,-1]],[[1309,302],[-1,-1]],[[1089,412],[2,2]],[[2593,3606],[-2,1]],[[677,3602],[2,2]],[[489,255],[-315,226],[-36,203]],[[993,3525],[-2,-1]],[[3603,560],[-1,-1]],[[2892,1798],[-7,115],[82,264],[-14,294],[44,16],[55,106],[9,125],[48,148],[-42,118]],[[3032,3392],[17,-126],[-64,-92],[80,-190]],[[3036,1644],[-1,-38]],[[3036,1605],[58,-48],[117,-269]],[[3098,349],[58,-164],[-67,-185]],[[3120,411],[-3,-31],[-31,-3],[11,-26]],[[3153,539],[-43,-82]],[[3112,453],[2,-39]],[[3263,717],[-111,-173]],[[3152,542],[1,-2]],[[3212,1287],[103,-108],[14,-51]],[[3330,1125],[66,-168],[-135,-219]],[[465,1089],[1,2]],[[2284,3796],[3,-3]],[[2268,3017],[1,1]],[[355,160],[67,111]],[[403,444],[-41,112]],[[422,271],[20,60],[-39,113]],[[403,444],[40,-113],[-21,-60]],[[2042,521],[-3,-1]],[[201,0],[78,77]],[[326,132],[-47,-55]],[[326,132],[3,1]],[[627,207],[-118,-60]],[[657,208],[36,8]],[[725,205],[588,-173],[102,48],[95,-38],[193,8],[150,-23],[154,39]],[[3445,81],[-82,-81]],[[3567,517],[13,-77],[-48,-174],[-86,-184]],[[3574,525],[-6,-7]],[[3602,559],[-28,-33]],[[3625,600],[-22,-40]],[[3656,629],[-30,-28]],[[3745,730],[-13,-52],[-75,-49]],[[3734,898],[-2,-45]],[[3733,851],[12,-120]],[[3902,1025],[-97,-46]],[[3978,1096],[-75,-70]],[[4096,1202],[-117,-105]],[[336,135],[81,19],[79,-17],[161,71]],[[1040,1809],[7,7]],[[2587,352],[-5,17]],[[2583,164],[4,8]],[[2592,186],[2,47]],[[1204,448],[1,-1]],[[3282,2166],[-2,1]],[[3954,3464],[-2,-1]],[[2125,15],[-1,0]],[[320,745],[0,3]],[[1890,3164],[132,-33],[38,36],[27,105]],[[1591,1895],[-1,0]],[[3621,3348],[-55,39]],[[891,1605],[89,130]],[[981,1735],[59,74]],[[1047,1816],[126,114],[65,87],[9,52],[239,85],[126,175]],[[2059,42],[-2,1]],[[3153,540],[0,-1]],[[2378,3826],[0,4]],[[2409,3852],[-30,-20]],[[3354,3210],[1,0]],[[1557,6],[0,-3]],[[2690,3560],[-4,1]],[[2529,3133],[1,2]],[[66,743],[-11,-1]],[[2132,2950],[2,0]],[[1621,1751],[-1,2]],[[2870,1806],[2,0]],[[2686,3561]],[[2945,3480],[-255,80]],[[417,3676],[-39,5]],[[465,3652],[31,-19],[-32,19]],[[723,2031],[0,2]],[[1076,388],[1,1]],[[228,102],[20,-16]],[[1223,2822],[28,3],[15,-1]],[[1267,2824],[-43,-2]],[[1450,2988],[14,52],[4,7]],[[1468,3047],[-18,-59]],[[581,1201],[1,2]],[[2193,2577],[0,-1]],[[0,196],[95,-62],[60,-76],[54,51],[19,-7]],[[3938,3096],[-1,-1]],[[508,2508],[66,58],[226,83],[127,6],[195,79],[130,88]],[[464,3652],[-47,24]],[[417,3677],[48,-25]],[[276,3751]],[[2187,3889],[-40,-51]],[[2382,3942],[0,150],[-4,4]],[[2202,4096],[-6,-193]],[[2387,3926],[6,-19]],[[423,1027],[0,3]],[[1363,109],[4,-5]],[[2378,3826]],[[886,2588],[43,21],[30,5],[73,33],[63,17],[27,70],[12,17],[18,16],[28,17],[31,32],[12,6]],[[1224,2822],[-12,-6],[-32,-32],[-45,-33],[-39,-88],[-64,-16],[-73,-33],[-73,-26]],[[1365,1263],[2,0]],[[451,2885],[-53,26],[-20,56],[-156,32],[-13,173]],[[209,3173],[33,101]],[[277,4096],[1,-50],[-41,-88]],[[238,3952],[-29,-110],[67,-91]],[[242,3274],[46,128]],[[245,3487],[19,79]],[[290,3403],[-43,82]],[[265,3567],[13,56]],[[277,3624],[-1,127]],[[319,705],[1,40]],[[320,748],[-19,41],[15,39],[98,135]],[[723,2033],[-35,86],[-281,179],[-27,74],[20,37]],[[400,2422],[0,-11]],[[421,2436],[-19,-11]],[[415,967],[2,16]],[[418,986],[5,41]],[[423,1030],[42,59]],[[513,2864],[-5,-81],[45,-94],[-78,-126],[27,-78],[-67,-35]],[[461,2864],[-9,20]],[[466,1091],[28,74]],[[496,1167],[71,24]],[[570,1193],[11,8]],[[582,1203],[196,141],[3,48],[74,89],[19,70]],[[724,2008],[-1,23]],[[800,1971],[-74,35]],[[817,1958],[-16,13]],[[836,1845],[-18,112]],[[844,1746],[-26,58],[11,35]],[[830,1840],[5,4]],[[892,1587],[-48,158]],[[875,1553],[16,32]],[[3261,738],[2,-21]],[[782,964],[2,-1]],[[1648,3273],[12,-25]],[[1661,3247],[85,-24]],[[55,742],[-55,31]],[[66,743],[57,-12],[16,-53],[38,-23],[89,-22],[-6,30],[27,20],[29,-27],[3,49],[23,-2]],[[346,702],[155,138],[132,38],[149,86]],[[784,963],[107,110]],[[892,1075],[133,72]],[[1026,1146],[128,28]],[[1156,1174],[90,34]],[[1248,1209],[14,6]],[[1263,1216],[102,47]],[[1367,1263],[77,84],[93,26],[165,152]],[[2060,1424],[73,3],[63,57],[-18,26],[124,25],[-20,22],[31,26],[37,-15]],[[2344,1565],[131,23],[41,43],[261,-11],[141,42],[16,39]],[[2936,1702],[25,3]],[[3329,1128],[1,-3]],[[1942,886],[0,1]],[[1093,415],[1,0]],[[1996,160],[1,5]],[[3114,414],[6,-3]],[[3446,82],[-1,-1]],[[2175,3026],[-34,-20],[-140,55]],[[2268,3017],[-91,10]],[[2269,3018],[113,91],[71,-12],[76,36]],[[2530,3135],[69,-12],[15,47],[51,-34],[44,5],[36,49],[46,-9],[37,28]],[[2829,3209],[155,-22]],[[2988,3187],[24,1]],[[3014,3188],[340,22]],[[3355,3210],[119,8],[92,61],[-5,66]],[[3801,3359],[-180,-11]],[[3952,3463],[-32,-12],[2,-44],[-37,-42],[-83,-6]],[[4001,3502],[-47,-38]],[[4096,3601],[-26,-55],[-68,-43]],[[0,2199],[0,13]],[[513,247],[-24,8]],[[1664,3244],[126,172],[114,85],[82,15],[157,232]],[[835,1844],[1,1]],[[264,3566],[1,1]],[[545,2866],[7,117],[55,107],[-55,177],[41,192],[64,119]],[[774,3682],[136,54],[46,64],[53,20],[48,-27],[73,56],[149,26],[124,96],[67,94]],[[2450,3827],[-32,5]],[[167,0],[150,162],[148,8],[41,45]],[[410,500],[-94,156]],[[430,464],[-19,34]],[[507,217],[8,71],[-84,175]],[[300,3691],[1,-1]],[[2177,3027],[-2,-1]],[[3655,1558],[0,-2]],[[693,216],[32,-11]],[[513,147],[-31,-66],[27,-81]],[[1996,3056],[-2,-1]],[[1405,2920],[16,29]],[[1421,2949],[-16,-29]],[[2934,1701],[2,1]],[[2096,3259],[52,139]],[[1978,3790],[2,0]],[[801,1971],[-1,0]],[[1359,4096],[31,-24],[61,-9]],[[1458,4063],[30,33]],[[1920,3848],[58,-58]],[[1980,3790],[141,-2],[30,-46],[133,54]],[[2287,3793],[25,4]],[[1939,3033],[85,-36]],[[1323,373],[14,12]],[[1060,386],[4,-2]],[[3751,917],[-17,-19]],[[3805,979],[-14,-41],[-39,-20]],[[288,3402],[2,1]],[[3510,3341],[-7,0]],[[1495,3042]],[[1954,3070],[27,59]],[[3152,544],[0,-2]],[[1863,1469],[-2,-1]],[[435,2450],[-14,-14]],[[489,194],[17,-18],[-19,-33],[19,1],[145,62]],[[1915,450],[-5,-5]],[[2039,520],[-77,3],[-2,-76],[-40,4]],[[2157,512],[-115,9]],[[2717,854],[-83,15],[-7,-49],[-44,12],[-29,-21],[-95,40],[-35,-53],[-70,16],[-54,-54],[-48,-18],[-40,16],[-58,-37],[45,-110],[-41,-98]],[[2877,1013],[-159,-159]],[[2881,1013],[68,-17],[97,42],[130,-62]],[[3387,930],[-90,47],[-79,-35],[-42,35]],[[278,4049],[-51,22],[-95,-85],[-132,45]],[[452,2884],[-1,1]],[[829,1839],[1,1]],[[1961,4096],[-41,-248]],[[3387,930],[19,-6],[19,53],[-17,62],[62,58],[-10,141],[54,124],[10,126],[63,98]],[[3619,1602],[193,1],[284,131]],[[1291,265],[43,-67]],[[1308,301],[-16,-32]],[[1323,373],[-14,-71]],[[1335,194],[7,-41]],[[1344,148],[19,-39]],[[1367,104],[27,-13]],[[1398,91],[86,-65],[38,17],[26,-22]],[[1550,18],[7,-12]],[[1557,3],[1,-3]],[[3903,1026],[-1,-1]],[[342,703],[4,-1]],[[1041,3502],[-30,17]],[[1154,1174],[2,0]],[[2881,1013],[-4,0]],[[209,3172],[0,1]],[[1919,936],[-1,2]],[[431,463],[-1,1]],[[3802,3359],[-1,0]],[[2048,1452],[-2,0]],[[3574,526],[0,-1]],[[400,2409],[0,2]],[[3568,518],[-1,-1]],[[844,3548],[146,-24]],[[891,1073],[1,2]],[[1072,384],[1,1]],[[506,215],[1,2]],[[2828,3209],[1,0]],[[1548,21],[2,-3]],[[1262,1215],[1,1]],[[2350,1568],[-6,-3]],[[1933,902],[0,2]],[[2,3777],[-2,0]],[[4096,3551],[0,-3551],[-4096,0],[0,4096],[2031,0],[-23,-30],[-62,-195],[95,-44],[43,-3],[41,22],[31,39],[32,61],[26,68],[10,61],[8,21],[158,0],[-6,-33],[36,-121],[29,-50],[45,-21],[25,-30],[47,-133],[27,-29],[26,-14],[124,-96],[47,-23],[102,-33],[408,-72],[495,-40],[139,28],[126,82],[36,40]],[[1958,4096],[453,0],[8,-88],[22,-27],[-29,-72],[-30,-4],[8,34],[-6,4],[-53,-37],[-47,5],[1,-41],[-44,-8],[-45,41],[-34,-57],[-105,-54],[-87,5],[-58,59],[46,240]],[[1435,4096],[44,0],[-12,-19],[-32,19]],[[3632,946],[73,124],[53,-77],[80,-24],[55,43],[76,11],[127,-5],[0,-283],[-258,72],[-105,92],[-101,47]],[[1453,2986],[-6,-59],[-96,-125],[-61,5],[-64,45],[-162,0],[-15,38],[-69,27],[-13,69],[166,-32],[166,81],[76,-3],[78,-46]],[[2521,3694],[-64,-28],[-171,16],[-57,-26],[38,81],[188,152],[64,-48],[39,-108],[-37,-39]],[[1968,2943],[-95,43],[20,64],[46,24],[96,-43],[-21,-64],[-46,-24]],[[2644,3527],[52,39],[59,-52],[165,-34],[-30,-43],[38,-17],[-19,-22],[-53,72],[-87,-26],[-56,78],[-57,-14],[-12,19]],[[2639,3515],[54,53],[-36,15],[10,15],[32,8],[382,-119],[470,-40],[30,-32],[-168,-30],[-106,19],[-21,-29],[-33,39],[-303,71],[-49,-41],[35,-17],[-26,-33],[-49,72],[-86,-27],[-57,78],[-23,-20],[-3,26],[-53,-8]]]}