{"objects":{"water":{"type":"GeometryCollection","geometries":[{"type":"Polygon","properties":{"source":"naturalearthdata.com","kind":"ocean","area":1576712559132672,"sort_rank":200,"min_zoom":0.0,"id":1},"arcs":[[3]]},{"type":"LineString","properties":{"source":"naturalearthdata.com","kind":"ocean","sort_rank":205,"boundary":true,"min_zoom":0.0,"id":27},"arcs":[4]}]},"buildings":{"type":"GeometryCollection","geometries":[]},"places":{"type":"GeometryCollection","geometries":[]},"transit":{"type":"GeometryCollection","geometries":[{"type":"LineString","properties":{"kind":"train","name:en":"\u014czora","name:ja":"\u014czora","sort_rank":275,"source":"openstreetmap.org","min_zoom":6.0,"operator":"\u5317\u6d77\u9053\u65c5\u5ba2\u9244\u9053","osm_relation":true,"name":"\u304a\u304a\u305e\u3089"},"arcs":[2]}]},"pois":{"type":"GeometryCollection","geometries":[]},"boundaries":{"type":"GeometryCollection","geometries":[{"type":"LineString","properties":{"name:ty":"T\u0101p\u014dn\u0113","name:ka":"\u10d8\u10d0\u10de\u10dd\u10dc\u10d8\u10d0","name:ko":"\uc77c\ubcf8","name:cv":"\u042f\u043f\u043e\u043d\u0438","name:cu":"\ua656\u043f\u0461\u043d\u0457\ua657","name:kl":"Japani","name:cs":"Japonsko","name:tw":"Yapan","name:ki":"Japan","name:kw":"Nihon","name:kv":"\u042f\u043f\u043e\u043d\u0438\u044f","name:th":"\u0e1b\u0e23\u0e30\u0e40\u0e17\u0e28\u0e0d\u0e35\u0e48\u0e1b\u0e38\u0e48\u0e19","name:ti":"\u1303\u1353\u1295","name:tl":"Hapon","name:ch":"Chapan","name:ce":"\u042f\u043f\u043e\u043d\u0438","name:ta":"\u0b9c\u0baa\u0bcd\u0baa\u0bbe\u0ba9\u0bcd","name:tg":"\u0416\u043e\u043f\u0443\u043d","name:ca":"Jap\u00f3","name:te":"\u0c1c\u0c2a\u0c3e\u0c28\u0c4d","name:cy":"Japan","name:qu":"Nihun","name:da":"Japan","name:de":"Japan","name:dz":"\u0f47\u0f71\u0f0b\u0f54\u0f71\u0f53\u0f0d","source":"openstreetmap.org","name:kn":"\u0c9c\u0caa\u0cbe\u0ca8\u0ccd","name:dv":"\u0796\u07a6\u0795\u07a7\u0782\u07aa","name:km":"\u1787\u1794\u17c9\u17bb\u1793","name:lv":"Jap\u0101na","name:lt":"Japonija","name:uz":"Yaponiya","name:kk":"\u0416\u0430\u043f\u043e\u043d\u0438\u044f","name:ur":"\u062c\u0627\u067e\u0627\u0646","name:lb":"Japan","name:la":"Iaponia","name:tt":"\u042f\u043f\u043e\u043d\u0438\u044f","name:uk":"\u042f\u043f\u043e\u043d\u0456\u044f","name:ug":"\u064a\u0627\u067e\u0648\u0646\u0649\u064a\u06d5","name:li":"Japan","name:ln":"Zap\u0254\u0301","name:lo":"\u0e9b\u0eb0\u0ec0\u0e97\u0e94\u0e8d\u0eb5\u0ec8\u0e9b\u0eb8\u0ec8\u0e99","name:el":"\u0399\u03b1\u03c0\u03c9\u03bd\u03af\u03b1","name:eo":"Japanujo","name:en":"Japan","name":"\u65e5\u672c","name:tk":"\u00ddaponi\u00fda","name:ee":"Japan","name:ku":"Japon","name:eu":"Japonia","name:et":"Jaapan","name:es":"Jap\u00f3n","name:ay":"Nihun","name:rm":"Giapun","name:az":"Yaponiya","name:ie":"Japan","name:id":"Jepang","name:ar":"\u0627\u0644\u064a\u0627\u0628\u0627\u0646","name:io":"Japonia","name:is":"Japan","name:am":"\u1303\u1353\u1295","name:it":"Giappone","name:an":"Chap\u00f3n","name:ru":"\u042f\u043f\u043e\u043d\u0438\u044f","name:ab":"\u0418\u0430\u043f\u043e\u043d\u0438\u0430","name:af":"Japan","name:zu":"IJapani","kind_detail":"2","name:za":"Nditbonj","name:so":"Jabaan","name:sm":"Iapani","name:sl":"Japonska","name:sk":"Japonsko","name:ja":"Nippon","name:si":"\u0da2\u0db4\u0dcf\u0db1\u0dba","name:sh":"Japan","name:se":"J\u00e1hpan","name:sd":"\u062c\u0627\u067e\u0627\u0646","name:sc":"Giappone","name:br":"Japan","name:bs":"Japan","name:bn":"\u099c\u09be\u09aa\u09be\u09a8","name:bo":"\u0f62\u0f72\u0f0b\u0f54\u0f72\u0f53\u0f0d","name:sa":"\u0938\u0942\u0930\u094d\u092f\u092e\u0942\u0932","name:sw":"Japani","name:be":"\u042f\u043f\u043e\u043d\u0456\u044f","name:su":"Jepang","name:bg":"\u042f\u043f\u043e\u043d\u0438\u044f","name:ss":"IJaphani","name:ba":"\u042f\u043f\u043e\u043d\u0438\u044f","name:sq":"Japonia","name:jv":"Jepang","name:ia":"Japon","name:pt":"Jap\u00e3o","name:ps":"\u062c\u0627\u067e\u0627\u0646","name:om":"Jaappaan","name:oc":"Japon","min_zoom":8.0,"name:ro":"Japonia","name:zh-min-nan":"Ji\u030dt-p\u00fan","name:os":"\u042f\u043f\u043e\u043d","name:or":"\u0b1c\u0b3e\u0b2a\u0b3e\u0b28","name:pl":"Japonia","sort_rank":262,"name:sr":"\u0408\u0430\u043f\u0430\u043d","osm_relation":true,"name:pa":"\u0a1c\u0a2a\u0a3e\u0a28","name:tr":"Japonya","name:hi":"\u091c\u093e\u092a\u093e\u0928","name:sv":"Japan","name:he":"\u05d9\u05e4\u05df","name:ha":"Japan","name:hy":"\u0543\u0561\u057a\u0578\u0576\u056b\u0561","name:ht":"Japon","name:hu":"Jap\u00e1n","name:hr":"Japan","kind":"country","name:yi":"\u05d9\u05d0\u05e4\u05d0\u05df","name:iu":"\u14c3\u1449\u140a\u14d0","name:yo":"Japan","name:mt":"\u0120appun","alt_name:eo":"Japanio","name:ms":"Jepun","name:mr":"\u091c\u092a\u093e\u0928","name:my":"\u1002\u103b\u1015\u1014\u103a\u1014\u102d\u102f\u1004\u103a\u1004\u1036","name:mg":"Japana","name:vi":"Nh\u1eadt B\u1ea3n","name:ml":"\u0d1c\u0d2a\u0d4d\u0d2a\u0d3e\u0d7b","name:mn":"\u042f\u043f\u043e\u043d","name:mi":"Nipono","id":-382313,"name:mk":"\u0408\u0430\u043f\u043e\u043d\u0438\u0458\u0430","name:vo":"Yap\u00e4n","name:fa":"\u0698\u0627\u067e\u0646","name:rw":"Ubuyapani","name:fi":"Japani","name:ky":"\u0416\u0430\u043f\u043e\u043d\u0438\u044f","old_name:vi":"Nh\u1eadt B\u1ed5n","name:fo":"Japan","alt_name:vi":"Nh\u1eadt","name:fr":"Japon","name:fy":"Japan","name:nl":"Japan","name:nn":"Japan","name:no":"Japan","name:na":"Djapan","name:ne":"\u091c\u093e\u092a\u093e\u0928","name:wo":"Sapo\u014b","name:nv":"Bina\u02bcadaa\u0142tz\u00f3z\u00ed Din\u00e9\u02bci\u02bc Bik\u00e9yah","name:ga":"An tSeap\u00e1in","name:gd":"An t-Seapan","name:gn":"Hap\u00f5","name:gl":"Xap\u00f3n","maritime_boundary":true,"name:gv":"Yn \u00c7hapaan","name:gu":"\u0a9c\u0abe\u0aaa\u0abe\u0aa8"},"arcs":[0]},{"type":"LineString","properties":{"name:ia":"Hokkaido","alt_name:eo":"Hokkajdo","name:ja":"Hokkaid\u014d","name:ko":"\ud64b\uce74\uc774\ub3c4","kind":"region","name:io":"Hokkaido","min_zoom":8.0,"name:uk":"\u041f\u0440\u0435\u0444\u0435\u043a\u0442\u0443\u0440\u0430 \u0425\u043e\u043a\u043a\u0430\u0439\u0434\u043e","name:ru":"\u0425\u043e\u043a\u043a\u0430\u0439\u0434\u043e","name:pl":"Prefektura Hokkaido","id":-3795658,"osm_relation":true,"name:eo":"Hokajdo","name:en":"Hokkaido","name":"\u5317\u6d77\u9053","sort_rank":256,"kind_detail":"4","name:de":"Hokkaid\u014d","source":"openstreetmap.org","maritime_boundary":true},"arcs":[1]}]},"roads":{"type":"GeometryCollection","geometries":[{"type":"MultiLineString","properties":{"sort_rank":380,"kind_detail":"primary","min_zoom":8.0,"kind":"major_road","source":"openstreetmap.org"},"arcs":[[5],[6]]},{"type":"MultiLineString","properties":{"kind":"major_road","name:en":"National Route 242","network":"JP:national","sort_rank":381,"kind_detail":"trunk","source":"openstreetmap.org","min_zoom":8.0,"shield_text":"242","ref":"242"},"arcs":[[7],[8],[9],[10],[11]]},{"type":"LineString","properties":{"kind":"major_road","name:en":"Kamiatsunai Tunnel","network":"JP:national","sort_rank":381,"kind_detail":"trunk","source":"openstreetmap.org","min_zoom":8.0,"shield_text":"38","ref":"38","id":294973687,"name:ja":"Kamiatsunai Tonneru"},"arcs":[12]},{"type":"LineString","properties":{"kind":"major_road","name:en":"National Highway Route 391","network":"JP:national","sort_rank":381,"kind_detail":"trunk","source":"openstreetmap.org","min_zoom":8.0,"shield_text":"391","ref":"391"},"arcs":[13]},{"type":"LineString","properties":{"kind":"major_road","name:en":"Naobetsu Tunnel","network":"JP:national","sort_rank":381,"kind_detail":"trunk","source":"openstreetmap.org","min_zoom":8.0,"shield_text":"38","ref":"38","id":55894238,"name:ja":"Naobetsu Tonneru"},"arcs":[14]},{"type":"LineString","properties":{"kind":"major_road","name:en":"Mikaduki Bridge","network":"JP:national","sort_rank":381,"kind_detail":"trunk","source":"openstreetmap.org","min_zoom":8.0,"shield_text":"272","ref":"272","id":425372351,"name:ja":"Mikaduki Bashi"},"arcs":[15]},{"type":"LineString","properties":{"kind":"major_road","name:en":"Minamisawa Bridge","network":"JP:national","sort_rank":381,"kind_detail":"trunk","source":"openstreetmap.org","min_zoom":8.0,"shield_text":"44","ref":"44","id":432598584,"name:ja":"Minamisawa Bashi"},"arcs":[16]},{"type":"LineString","properties":{"kind":"major_road","name:en":"Betsukai Akkeshi line","name:ja":"Betsukai Akkeshi sen","sort_rank":380,"kind_detail":"primary","source":"openstreetmap.org","min_zoom":8.0,"ref":"123"},"arcs":[17]},{"type":"LineString","properties":{"kind":"major_road","name:en":"Oikamanae Bridge","network":"JP:national","sort_rank":381,"kind_detail":"trunk","source":"openstreetmap.org","min_zoom":8.0,"shield_text":"336","ref":"336","id":446020530,"name:ja":"Oikamanae Bashi"},"arcs":[18]},{"type":"MultiLineString","properties":{"kind":"major_road","name:en":"National Route 44","name:ja":"Kokud\u014d 44 g\u014d","sort_rank":381,"kind_detail":"trunk","source":"openstreetmap.org","min_zoom":8.0,"shield_text":"44","ref":"44","network":"JP:national"},"arcs":[[19],[20],[21],[22]]},{"type":"MultiLineString","properties":{"kind":"major_road","name:en":"National Route 38","network":"JP:national","sort_rank":381,"kind_detail":"trunk","source":"openstreetmap.org","min_zoom":8.0,"shield_text":"38","ref":"38"},"arcs":[[23],[24],[25],[26],[27],[28],[29]]},{"type":"MultiLineString","properties":{"kind":"major_road","name:en":"National Route 44","name:ja":"Kokud\u014d 44 g\u014d","sort_rank":381,"landuse_kind":"urban_area","source":"openstreetmap.org","min_zoom":8.0,"kind_detail":"trunk","shield_text":"44","ref":"44","network":"JP:national"},"arcs":[[30],[31],[32],[33],[34],[35]]},{"type":"LineString","properties":{"source":"openstreetmap.org","kind":"major_road","sort_rank":380,"kind_detail":"primary","ref":"56","min_zoom":8.0,"id":200021448},"arcs":[36]},{"type":"LineString","properties":{"source":"openstreetmap.org","kind":"major_road","sort_rank":380,"kind_detail":"primary","ref":"14","min_zoom":8.0},"arcs":[37]},{"type":"MultiLineString","properties":{"source":"openstreetmap.org","kind":"major_road","name:en":"Prefectural Highway-Honbetsu-Urahoro Route No.56","sort_rank":380,"kind_detail":"primary","ref":"56","min_zoom":8.0},"arcs":[[38],[39]]},{"type":"LineString","properties":{"kind":"major_road","network":"JP:national","sort_rank":381,"kind_detail":"trunk","source":"openstreetmap.org","min_zoom":8.0,"shield_text":"392","ref":"392","id":106456320,"name:ja":"\u56fd\u9053392\u53f7"},"arcs":[40]},{"type":"LineString","properties":{"kind":"major_road","name:en":"Toka Bridge","network":"JP:national","sort_rank":381,"kind_detail":"trunk","source":"openstreetmap.org","min_zoom":8.0,"shield_text":"242","ref":"242","id":195619084,"name:ja":"T\u014dka Bashi"},"arcs":[41]},{"type":"MultiLineString","properties":{"kind":"major_road","name:en":"National Highway Route 240","network":"JP:national","sort_rank":381,"kind_detail":"trunk","source":"openstreetmap.org","min_zoom":8.0,"shield_text":"240","ref":"240"},"arcs":[[42],[43],[44],[45],[46]]},{"type":"LineString","properties":{"kind":"major_road","name:en":"Aioi Bridge","network":"JP:national","sort_rank":381,"kind_detail":"trunk","source":"openstreetmap.org","min_zoom":8.0,"shield_text":"240","ref":"240","id":209166416,"name:ja":"Aioi Bashi"},"arcs":[47]},{"type":"LineString","properties":{"kind":"major_road","name:en":"Prefectural Highway-Obihiro-Urahoro Route No.73","sort_rank":380,"kind_detail":"primary","source":"openstreetmap.org","min_zoom":8.0,"landuse_kind":"urban_area","ref":"73"},"arcs":[48]},{"type":"LineString","properties":{"source":"openstreetmap.org","kind":"major_road","sort_rank":380,"kind_detail":"primary","ref":"142","min_zoom":8.0},"arcs":[49]},{"type":"LineString","properties":{"kind":"major_road","name:en":"Takaya Bridge","network":"JP:national","sort_rank":381,"kind_detail":"trunk","source":"openstreetmap.org","min_zoom":8.0,"shield_text":"240","ref":"240","id":209166421,"name:ja":"Takaya Bashi"},"arcs":[50]},{"type":"MultiLineString","properties":{"source":"openstreetmap.org","kind":"major_road","landuse_kind":"urban_area","sort_rank":380,"kind_detail":"primary","min_zoom":8.0},"arcs":[[51],[52],[53]]},{"type":"MultiLineString","properties":{"kind":"major_road","name:en":"National Route 38","network":"JP:national","sort_rank":381,"landuse_kind":"urban_area","source":"openstreetmap.org","min_zoom":8.0,"kind_detail":"trunk","shield_text":"38","ref":"38"},"arcs":[[54],[55],[56],[57]]},{"type":"MultiLineString","properties":{"kind":"major_road","name:en":"National Route 44","name:ja":"\u56fd\u905344\u53f7","sort_rank":381,"kind_detail":"trunk","source":"openstreetmap.org","min_zoom":8.0,"shield_text":"44","ref":"44","network":"JP:national"},"arcs":[[58],[59]]},{"type":"MultiLineString","properties":{"kind":"major_road","name:en":"Setsuri Bridge","network":"JP:national","sort_rank":381,"landuse_kind":"urban_area","source":"openstreetmap.org","min_zoom":8.0,"kind_detail":"trunk","shield_text":"44","ref":"44","name:ja":"Setsuri Bashi"},"arcs":[[60],[61]]},{"type":"LineString","properties":{"kind":"major_road","name:en":"Yoroshinkawa Bridge","network":"JP:national","sort_rank":381,"kind_detail":"trunk","source":"openstreetmap.org","min_zoom":8.0,"shield_text":"336","ref":"336","id":294840457,"name:ja":"Y\u014dr\u014dshinkawa Bashi"},"arcs":[62]},{"type":"LineString","properties":{"source":"openstreetmap.org","kind":"major_road","landuse_kind":"urban_area","sort_rank":380,"kind_detail":"primary","ref":"24","min_zoom":8.0},"arcs":[63]},{"type":"LineString","properties":{"kind":"major_road","name:en":"Takashima Bridge","network":"JP:national","sort_rank":381,"kind_detail":"trunk","source":"openstreetmap.org","min_zoom":8.0,"shield_text":"242","ref":"242","id":155186276,"name:ja":"Takashima Bashi"},"arcs":[64]},{"type":"MultiLineString","properties":{"source":"openstreetmap.org","kind":"major_road","sort_rank":381,"kind_detail":"trunk","ref":"38","min_zoom":8.0},"arcs":[[65],[66]]},{"type":"LineString","properties":{"source":"openstreetmap.org","kind":"major_road","landuse_kind":"urban_area","sort_rank":380,"kind_detail":"primary","ref":"142","min_zoom":8.0},"arcs":[67]},{"type":"MultiLineString","properties":{"kind":"major_road","name:en":"National Route 392","name:ja":"Kokud\u014d 392 g\u014d","sort_rank":381,"kind_detail":"trunk","source":"openstreetmap.org","min_zoom":8.0,"shield_text":"392","ref":"392","network":"JP:national"},"arcs":[[68],[69],[70],[71]]},{"type":"LineString","properties":{"kind":"major_road","name:en":"Nusamai Bridge","network":"JP:national","sort_rank":381,"kind_detail":"trunk","source":"openstreetmap.org","min_zoom":8.0,"landuse_kind":"urban_area","shield_text":"38","ref":"38","id":34197945,"name:ja":"Nusamai Bashi"},"arcs":[72]},{"type":"MultiLineString","properties":{"kind":"major_road","name:en":"Kushiro Bypass","network":"JP:national","sort_rank":381,"kind_detail":"trunk","source":"openstreetmap.org","min_zoom":8.0,"shield_text":"38","ref":"38"},"arcs":[[73],[74],[75],[76]]},{"type":"LineString","properties":{"kind":"major_road","name:en":"Araiso Bridge","network":"JP:national","sort_rank":381,"kind_detail":"trunk","source":"openstreetmap.org","min_zoom":8.0,"shield_text":"240","ref":"240","id":209166414,"name:ja":"Araiso Bashi"},"arcs":[77]},{"type":"LineString","properties":{"source":"openstreetmap.org","kind":"major_road","name:en":"Kushiro Interchange Line","sort_rank":380,"kind_detail":"primary","ref":"148","min_zoom":8.0},"arcs":[78]},{"type":"MultiLineString","properties":{"kind":"highway","name:en":"Kushiro Sotokanjo Road","sort_rank":383,"landuse_kind":"urban_area","source":"openstreetmap.org","min_zoom":8.0,"kind_detail":"motorway","ref":"E38"},"arcs":[[79],[80]]},{"type":"LineString","properties":{"kind":"major_road","name:en":"Nobutori Bridge","network":"JP:national","sort_rank":381,"kind_detail":"trunk","source":"openstreetmap.org","min_zoom":8.0,"shield_text":"242","ref":"242","id":446932256,"name:ja":"Nobutori Bashi"},"arcs":[81]},{"type":"LineString","properties":{"kind":"major_road","name:en":"Kangetsu Bridge","network":"JP:national","sort_rank":381,"kind_detail":"trunk","source":"openstreetmap.org","min_zoom":8.0,"shield_text":"392","ref":"392","id":157428919,"name:ja":"Kangetsu Bashi"},"arcs":[82]},{"type":"LineString","properties":{"kind":"major_road","name:en":"Tokachikakokyo Bridge","network":"JP:national","sort_rank":381,"kind_detail":"trunk","source":"openstreetmap.org","min_zoom":8.0,"shield_text":"336","ref":"336","id":294840462,"name:ja":"Tokachikak\u014dky\u014d"},"arcs":[83]},{"type":"LineString","properties":{"kind":"major_road","name:en":"Chobushi Bridge","network":"JP:national","sort_rank":381,"kind_detail":"trunk","source":"openstreetmap.org","min_zoom":8.0,"shield_text":"336","ref":"336","id":446020534,"name:ja":"Chobushi Bashi"},"arcs":[84]},{"type":"MultiLineString","properties":{"source":"openstreetmap.org","kind":"major_road","sort_rank":380,"kind_detail":"primary","ref":"65","min_zoom":8.0},"arcs":[[85],[86],[87],[88],[89],[90],[91],[92]]},{"type":"LineString","properties":{"kind":"major_road","name:en":"Toyokita Bridge","network":"JP:national","sort_rank":381,"kind_detail":"trunk","source":"openstreetmap.org","min_zoom":8.0,"shield_text":"336","ref":"336","id":294840461,"name:ja":"Toyokita Bashi"},"arcs":[93]},{"type":"MultiLineString","properties":{"source":"openstreetmap.org","kind":"major_road","landuse_kind":"urban_area","sort_rank":380,"kind_detail":"primary","ref":"113","min_zoom":8.0},"arcs":[[94],[95],[96],[97],[98],[99],[100],[101],[102]]},{"type":"MultiLineString","properties":{"source":"openstreetmap.org","kind":"highway","name:en":"Kushiro Sotokanjo Road","sort_rank":383,"kind_detail":"motorway","ref":"E38","min_zoom":8.0},"arcs":[[103],[104]]},{"type":"LineString","properties":{"kind":"major_road","name:en":"Yoro Bridge","network":"JP:national","sort_rank":381,"kind_detail":"trunk","source":"openstreetmap.org","min_zoom":8.0,"shield_text":"336","ref":"336","id":294840455,"name:ja":"Y\u014dr\u014d Bashi"},"arcs":[105]},{"type":"MultiLineString","properties":{"source":"openstreetmap.org","kind":"major_road","landuse_kind":"urban_area","sort_rank":380,"kind_detail":"primary","ref":"53","min_zoom":8.0},"arcs":[[106],[107],[108],[109],[110]]},{"type":"MultiLineString","properties":{"kind":"major_road","name:en":"National Route 336","name:ja":"\u56fd\u9053336\u53f7","sort_rank":381,"kind_detail":"trunk","source":"openstreetmap.org","min_zoom":8.0,"shield_text":"336","ref":"336","network":"JP:national"},"arcs":[[111],[112],[113],[114],[115],[116],[117],[118],[119],[120],[121],[122],[123]]},{"type":"LineString","properties":{"kind":"major_road","name:en":"Toyokoro Ohashi Bridge","network":"JP:national","sort_rank":381,"kind_detail":"trunk","source":"openstreetmap.org","min_zoom":8.0,"shield_text":"38","ref":"38","id":446931705,"name:ja":"Toyokoro \u014chashi"},"arcs":[124]},{"type":"MultiLineString","properties":{"kind":"major_road","name:en":"Kushiro Bypass","network":"JP:national","sort_rank":381,"kind_detail":"trunk","source":"openstreetmap.org","min_zoom":8.0,"shield_text":"38","osm_relation":true},"arcs":[[125],[126],[127],[128],[129],[130]]},{"type":"MultiLineString","properties":{"source":"openstreetmap.org","kind":"major_road","sort_rank":380,"kind_detail":"primary","ref":"113","min_zoom":8.0},"arcs":[[131],[132],[133],[134],[135],[136]]},{"type":"LineString","properties":{"source":"openstreetmap.org","kind":"major_road","name:en":"Prefectural Highway-Obihiro-Urahoro Route No.73","sort_rank":380,"kind_detail":"primary","ref":"73","min_zoom":8.0},"arcs":[137]},{"type":"LineString","properties":{"kind":"major_road","name:en":"National Highway Route 391","network":"JP:national","sort_rank":381,"landuse_kind":"urban_area","source":"openstreetmap.org","min_zoom":8.0,"kind_detail":"trunk","shield_text":"391","ref":"391"},"arcs":[138]},{"type":"LineString","properties":{"source":"openstreetmap.org","kind":"major_road","sort_rank":380,"kind_detail":"primary","ref":"31","min_zoom":8.0,"id":195619080},"arcs":[139]},{"type":"LineString","properties":{"kind":"major_road","name:en":"Tokioka Bridge","network":"JP:national","sort_rank":381,"kind_detail":"trunk","source":"openstreetmap.org","min_zoom":8.0,"shield_text":"240","ref":"240","id":209166399,"name:ja":"Tokioka Bashi"},"arcs":[140]},{"type":"MultiLineString","properties":{"kind":"major_road","name:en":"Asetsuri Bridge","network":"JP:national","sort_rank":381,"landuse_kind":"urban_area","source":"openstreetmap.org","min_zoom":8.0,"kind_detail":"trunk","shield_text":"44","ref":"44","name:ja":"Asetsuri Bashi"},"arcs":[[141],[142]]},{"type":"LineString","properties":{"source":"openstreetmap.org","kind":"major_road","sort_rank":380,"kind_detail":"primary","ref":"62","min_zoom":8.0},"arcs":[143]},{"type":"LineString","properties":{"kind":"major_road","name:en":"Yudo Ohashi","network":"JP:national","sort_rank":381,"kind_detail":"trunk","source":"openstreetmap.org","min_zoom":8.0,"shield_text":"336","ref":"336","id":446020532,"name:ja":"Y\u016bd\u014d \u014chashi"},"arcs":[144]},{"type":"MultiLineString","properties":{"source":"openstreetmap.org","kind":"major_road","sort_rank":380,"kind_detail":"primary","ref":"53","min_zoom":8.0},"arcs":[[145],[146],[147]]},{"type":"MultiLineString","properties":{"source":"openstreetmap.org","kind":"major_road","landuse_kind":"urban_area","sort_rank":380,"kind_detail":"primary","ref":"25","min_zoom":8.0},"arcs":[[148],[149],[150]]},{"type":"LineString","properties":{"kind":"major_road","name:en":"Tantaka Bridge","network":"JP:national","sort_rank":381,"kind_detail":"trunk","source":"openstreetmap.org","min_zoom":8.0,"shield_text":"392","ref":"392","id":208021715,"name:ja":"Tantaka Bashi"},"arcs":[151]},{"type":"MultiLineString","properties":{"source":"openstreetmap.org","kind":"highway","name:en":"Doto Expressway","sort_rank":383,"kind_detail":"motorway","ref":"E38","min_zoom":8.0},"arcs":[[152],[153],[154]]},{"type":"MultiLineString","properties":{"kind":"major_road","name:en":"National Highway Route 272","network":"JP:national","sort_rank":381,"kind_detail":"trunk","source":"openstreetmap.org","min_zoom":8.0,"shield_text":"272","ref":"272"},"arcs":[[155],[156]]},{"type":"LineString","properties":{"kind":"major_road","name:en":"Omori Bridge","network":"JP:national","sort_rank":381,"kind_detail":"trunk","source":"openstreetmap.org","min_zoom":8.0,"shield_text":"242","ref":"242","id":446932257,"name:ja":"\u014cmori Bashi"},"arcs":[157]},{"type":"LineString","properties":{"kind":"major_road","name:en":"Kushiro Ohashi Bridge","network":"JP:national","sort_rank":381,"kind_detail":"trunk","source":"openstreetmap.org","min_zoom":8.0,"landuse_kind":"urban_area","shield_text":"38","ref":"38","id":209166489,"name:ja":"Kushiro \u014chashi"},"arcs":[158]}]},"earth":{"type":"GeometryCollection","geometries":[{"type":"Polygon","properties":{"sort_rank":10,"source":"naturalearthdata.com","kind":"earth","min_zoom":0.0,"id":3401},"arcs":[[159]]}]},"landuse":{"type":"GeometryCollection","geometries":[{"type":"MultiPolygon","properties":{"source":"naturalearthdata.com","kind":"urban_area","name":"","area":128272933,"sort_rank":11,"min_zoom":4.0},"arcs":[[[160]],[[161]]]}]}},"type":"Topology","transform":{"translate":[143.4375,42.0329743324],"scale":[0.0003433228,0.0002529086]},"arcs":[[[412,0],[77,499],[-3,282],[46,170],[8,163],[51,101],[292,447],[219,270],[666,662],[253,209],[347,184],[320,-143],[211,-41],[188,-8],[277,35],[280,-50],[295,-10],[157,29]],[[412,0],[77,499],[-3,282],[46,170],[8,163],[51,101],[292,447],[219,270],[666,662],[253,209],[347,184],[320,-143],[211,-41],[188,-8],[277,35],[280,-50],[295,-10],[157,29]],[[2751,3787],[-207,80],[-114,-7],[-384,-97],[-145,-124],[-140,-7],[-63,21],[-71,-82],[-30,-98],[-423,-272],[-6,-81],[-47,-52],[-147,97],[-130,-8],[-42,-29],[-128,73],[-48,-108],[-13,-101],[-24,-34],[-71,-22],[-281,229],[-144,208],[-61,183],[-32,4]],[[0,1611],[31,58],[370,586],[185,229],[442,380],[280,344],[453,325],[411,197],[407,104],[65,4],[37,-17],[20,-39],[11,-45],[13,-34],[27,-32],[24,-20],[216,-76],[91,-15],[75,43],[225,19],[416,-98],[121,42],[-35,40],[-46,37],[-41,43],[-17,56],[10,47],[24,59],[30,50],[25,21],[20,11],[32,52],[20,18],[23,8],[14,-1],[19,-4],[33,-3],[55,-18],[8,-42],[-7,-50],[4,-38],[5,-5],[0,-3847],[-4096,0],[0,1611]],[[0,1611],[31,58],[370,586],[185,229],[442,380],[280,344],[453,325],[411,197],[407,104],[65,4],[37,-17],[20,-39],[11,-45],[13,-34],[27,-32],[24,-20],[216,-76],[91,-15],[75,43],[225,19],[416,-98],[121,42],[-35,40],[-46,37],[-41,43],[-17,56],[10,47],[24,59],[30,50],[25,21],[20,11],[32,52],[20,18],[23,8],[14,-1],[19,-4],[33,-3],[55,-18],[8,-42],[-7,-50],[4,-38],[5,-5]],[[2554,3975],[-2,-14]],[[2661,3924],[-49,26]],[[0,3758],[7,39]],[[2,3898],[10,24]],[[7,3799],[-5,98]],[[29,3922],[120,136]],[[150,4059],[17,37]],[[986,3181],[-7,-7]],[[3089,4096],[-84,-38],[-106,-181]],[[1026,3231],[-10,-4]],[[3100,3859],[-1,-1]],[[3073,3813],[-1,0]],[[4096,4040],[-12,9]],[[47,2243],[2,1]],[[3072,3813],[-105,-30],[-43,22]],[[3073,3813],[26,12],[108,-96],[43,29],[127,-12],[85,100],[102,46],[185,0],[34,119],[99,43]],[[3883,4054],[17,0]],[[3902,4056],[129,12],[50,-20],[5,48]],[[186,3068],[-186,206]],[[979,3174],[-134,-19],[-64,-44],[-104,7],[-84,-158],[-72,-41],[-203,168],[-105,0]],[[1016,3227],[-30,-46]],[[2317,3822],[-276,-73],[-131,-102],[-112,-6],[-147,-126],[-378,-228],[-43,-50],[-93,28],[-111,-34]],[[2388,3860],[-10,-22],[-61,-16]],[[2317,3822],[61,17],[6,21],[4,0]],[[2388,3860],[110,12]],[[2801,3832],[2,-12],[-15,-42],[-6,-8],[-24,-8],[29,16],[13,55]],[[2801,3834],[31,34],[23,-27]],[[2854,3841],[-22,26],[-31,-34]],[[2917,3809],[-47,14],[-13,15]],[[2857,3838],[60,-29]],[[2924,3805],[-7,4]],[[678,3299],[0,-1]],[[4028,4096],[11,-30]],[[509,4096],[89,-266],[-26,-57],[21,-90],[53,-76],[-13,-52],[45,-256]],[[630,3032],[48,266]],[[1853,3652],[-1,-6]],[[7,3797],[0,2]],[[2199,4071],[-48,25]],[[2231,4048],[-31,22]],[[2292,4010],[-60,38]],[[2314,3989],[-21,20]],[[2412,3871],[-29,85],[-68,32]],[[2315,3988],[-1,1]],[[0,3541],[35,4],[9,-42]],[[2956,3677],[65,-47],[63,-9],[396,57],[61,-52],[80,-11],[34,-30],[102,20],[30,51],[-44,22],[-26,153],[-39,19],[11,39]],[[2200,4070],[-1,1]],[[2714,3886],[-53,38]],[[2781,3843],[9,-6]],[[2797,3830],[1,0]],[[2498,3872],[146,12],[57,-29],[-14,-28]],[[2692,3819],[69,-68]],[[2762,3745],[0,2],[1,-2]],[[2762,3744],[0,1],[1,0],[-1,-1]],[[3882,4054],[1,0]],[[3900,4054],[2,2]],[[2857,3838],[-3,3]],[[2855,3841],[2,-3]],[[560,2771],[1,2]],[[2748,3784],[10,-22]],[[12,3922],[17,0]],[[2473,3924],[-20,-8]],[[2454,3915],[24,11]],[[2956,3677],[-39,16]],[[1558,4096],[42,-36],[31,10]],[[1632,4070],[32,-14],[-10,-65],[47,-33],[27,-141],[94,-55]],[[1822,3761],[31,-109]],[[1852,3646],[0,-2]],[[2761,3751],[1,-4]],[[2381,3846],[7,52]],[[2445,3914],[-49,-10],[-15,-59]],[[2399,3906],[46,8]],[[2445,3914],[144,54]],[[2232,4048],[-1,0]],[[2589,3968],[5,-21]],[[2887,3846],[-27,59]],[[2860,3904],[4,-5],[25,-54]],[[2,3897],[0,1]],[[1822,3762],[0,-1]],[[521,2620],[7,20]],[[398,2535],[2,2]],[[2241,4045],[-35,-35]],[[2217,4000],[1,0]],[[2290,4014],[-8,-5],[-16,-23]],[[2266,3986],[-6,-8]],[[2260,3978],[-1,-1],[-41,23]],[[2218,4000],[42,-22]],[[2260,3978],[6,8]],[[2266,3986],[16,23],[7,5]],[[568,2758],[-1,1]],[[2593,3907],[6,-15]],[[2599,3892],[1,-2]],[[2600,3890],[-1,2]],[[2599,3892],[-3,16]],[[2781,3843],[-120,81]],[[2762,3743],[0,1]],[[2763,3745],[-1,-2]],[[2762,3743],[28,-50],[127,0],[-7,117]],[[2798,3829],[-8,8]],[[2860,3905],[-94,50],[-150,16]],[[2616,3971],[150,-16],[46,-15],[48,-36]],[[564,2791],[0,1]],[[2699,3825],[-37,24],[13,46],[-41,22]],[[2701,3855],[41,-23],[7,1],[4,-3],[10,-44]],[[2763,3786]],[[2742,3831],[7,2],[14,-46],[0,-1]],[[2763,3786],[6,-3],[1,0],[-14,-14]],[[0,1956],[17,17],[-17,61]],[[0,2075],[0,41]],[[0,2125],[47,118]],[[49,2244],[73,78],[6,54],[60,25]],[[191,2402],[39,17],[29,69],[139,47]],[[400,2537],[79,9],[42,74]],[[564,2792],[-51,82],[8,45]],[[528,2640],[52,52]],[[580,2692],[13,13],[217,64],[68,70],[19,69]],[[567,2759],[-7,12]],[[561,2773],[3,18]],[[580,2691],[0,1]],[[580,2692],[-12,66]],[[213,3087],[-27,-19]],[[2381,3846],[9,55],[55,13]],[[2445,3914],[-54,-13],[-10,-56]],[[2445,3914],[118,51]],[[2563,3965],[-28,-13]],[[2542,3955],[21,10]],[[2563,3965],[26,3]],[[2612,3950],[-4,-5]],[[2608,3945],[-14,-15],[0,-2],[0,-4]],[[2594,3924],[-1,-17]],[[2596,3908],[-2,16]],[[2594,3924],[-1,3],[0,3],[7,18],[8,-3]],[[2608,3945],[44,-14],[9,-7]],[[285,3093],[-97,205],[-81,71],[-63,134]],[[2899,3877],[-39,-43]],[[7,3800],[-7,-1]],[[2293,4009],[-1,1]],[[2800,3833],[1,1]],[[2801,3833],[0,-1]],[[0,3076],[74,-24],[74,43]],[[188,2401],[3,1]],[[2554,3975],[-57,63],[34,58]],[[2545,4096],[15,0]],[[2634,3917],[-82,44]],[[2730,3720],[31,24]],[[2762,3744],[-1,0]],[[2761,3744],[1,1]],[[1631,4070],[1,0]],[[99,3917],[-4,-81],[-41,-25],[-54,-5]],[[0,3806],[95,30],[4,81]],[[99,3917],[1,47],[101,132]],[[3099,3858],[0,-33]],[[3363,4096],[-108,-162],[-38,-21],[-29,19],[-62,-74],[-26,1]],[[149,4058],[1,1]],[[2687,3827],[5,-8]],[[4096,3847],[-5,5],[-4,38],[7,50],[-8,42],[-55,18],[-33,3],[-19,4],[-14,1],[-23,-8],[-20,-18],[-32,-52],[-20,-11],[-25,-21],[-30,-50],[-24,-59],[-10,-47],[17,-56],[41,-43],[46,-37],[35,-40],[-121,-42],[-416,98],[-225,-19],[-75,-43],[-91,15],[-216,76],[-24,20],[-27,32],[-13,34],[-11,45],[-20,39],[-37,17],[-65,-4],[-407,-104],[-411,-197],[-453,-325],[-280,-344],[-442,-380],[-185,-229],[-370,-586],[-31,-58],[0,2485],[4096,0],[0,-249]],[[0,3569],[61,-6],[-26,-93],[-35,-16],[0,115]],[[2909,3870],[71,-291],[-204,72],[-51,52],[-44,118],[-37,17],[-193,-37],[14,46],[59,44],[143,34],[177,-10],[65,-45]]]}