{"objects":{"water":{"type":"GeometryCollection","geometries":[{"type":"Polygon","properties":{"source":"naturalearthdata.com","kind":"lake","area":1474183424,"sort_rank":200,"min_zoom":0.0,"id":196},"arcs":[[0]]},{"type":"LineString","properties":{"source":"naturalearthdata.com","kind":"lake","sort_rank":367,"boundary":true,"min_zoom":0.0,"id":196},"arcs":[1]}]},"buildings":{"type":"GeometryCollection","geometries":[]},"places":{"type":"GeometryCollection","geometries":[]},"transit":{"type":"GeometryCollection","geometries":[]},"pois":{"type":"GeometryCollection","geometries":[]},"boundaries":{"type":"GeometryCollection","geometries":[]},"roads":{"type":"GeometryCollection","geometries":[]},"earth":{"type":"GeometryCollection","geometries":[{"type":"Polygon","properties":{"sort_rank":10,"source":"naturalearthdata.com","kind":"earth","min_zoom":0.0,"id":4560},"arcs":[[2]]},{"type":"Point","properties":{"label_placement":true,"name:pt":"Ilha Victoria","name:az":"Viktoriya","name:id":"Pulau Victoria","name:cy":"Ynys Victoria","name:ko":"\ube45\ud1a0\ub9ac\uc544 \uc12c","name:ar":"\u062c\u0632\u064a\u0631\u0629 \u0641\u064a\u0643\u062a\u0648\u0631\u064a\u0627","name:cs":"Viktoriin ostrov","name:tt":"\u0412\u0438\u043a\u0442\u043e\u0440\u0438\u044f","min_zoom":7.0,"name:ro":"Insula Victoria","name:it":"Isola Victoria","name:ru":"\u0412\u0438\u043a\u0442\u043e\u0440\u0438\u044f","name:vi":"\u0110\u1ea3o Victoria","name:pl":"Wyspa Wiktorii","name:lt":"Viktorijos sala","id":-5857216,"name:ca":"Illa Vict\u00f2ria","name:af":"Victoria-eiland","name:fa":"\u062c\u0632\u06cc\u0631\u0647 \u0648\u06cc\u06a9\u062a\u0648\u0631\u06cc\u0627","name:hu":"Victoria-sziget","name:ka":"\u10d5\u10d8\u10e5\u10e2\u10dd\u10e0\u10d8\u10d0","area":2052539940864,"name:fi":"Victoriansaari","name:da":"Kitlineq","name:de":"Victoria-Insel","name:tr":"Victoria Adas\u0131","name:fr":"\u00cele Victoria","name:ms":"Pulau Victoria","name:zh":"\u7ef4\u591a\u5229\u4e9a\u5c9b","name:sl":"Viktorijin otok","name:lv":"Viktorijas sala","name:ja":"\u30d3\u30af\u30c8\u30ea\u30a2\u5cf6","name:nn":"Kitlineq","name:no":"Victoria\u00f8ya","name:sv":"Victoria\u00f6n","name:he":"\u05d5\u05d9\u05e7\u05d8\u05d5\u05e8\u05d9\u05d4","name:eo":"Viktoria Insulo","name:br":"Enez Victoria","name:ur":"\u062c\u0632\u06cc\u0631\u06c1 \u0648\u06a9\u0679\u0648\u0631\u06cc\u0627","name:sk":"Vikt\u00f3riin ostrov","name:uk":"\u0412\u0456\u043a\u0442\u043e\u0440\u0456\u044f","name:hy":"\u054e\u056b\u056f\u057f\u0578\u0580\u056b\u0561 \u056f\u0572\u0566\u056b","name:be":"\u0412\u043e\u0441\u0442\u0440\u0430\u045e \u0412\u0456\u043a\u0442\u043e\u0440\u044b\u044f, \u041a\u0430\u043d\u0430\u0434\u0430","name:bg":"\u0412\u0438\u043a\u0442\u043e\u0440\u0438\u044f","name:hr":"Viktorijin otok","name:sr":"\u0412\u0438\u043a\u0442\u043e\u0440\u0438\u0458\u0430","osm_relation":true,"name:el":"\u039d\u03ae\u03c3\u03bf\u03c2 \u0392\u03b9\u03ba\u03c4\u03ce\u03c1\u03b9\u03b1","kind":"island","name":"Victoria Island","name:is":"Viktor\u00edueyja","name:gl":"Illa Victoria","name:th":"\u0e40\u0e01\u0e32\u0e30\u0e27\u0e34\u0e01\u0e15\u0e2d\u0e40\u0e23\u0e35\u0e22","source":"openstreetmap.org","name:eu":"Victoria uhartea","name:et":"Victoria saar","name:nl":"Victoria-eiland","name:es":"Isla Victoria"},"coordinates":[3281,4082]}]},"landuse":{"type":"GeometryCollection","geometries":[]}},"type":"Topology","transform":{"translate":[-112.5,70.612614238],"scale":[0.0003433228,0.0001126568]},"arcs":[[[227,3116],[120,86],[21,100],[-3,122],[-27,113],[97,78],[320,-23],[145,130],[70,37],[86,-39],[-23,-108],[-15,-39],[-24,-36],[99,-89],[201,-3],[101,-36],[33,-58],[72,-94],[36,-29],[-48,-73],[-106,-42],[-46,-68],[-17,-73],[-23,-295],[27,-73],[110,-170],[-11,-120],[-53,-71],[-161,-99],[-60,39],[-51,89],[-22,136],[-42,63],[-256,151],[63,45],[29,31],[27,44],[-34,55],[-107,68],[-35,45],[-53,96],[-31,39],[-37,16],[-36,-13],[-66,-57],[-1,-19],[-4,-39],[-7,-42],[-10,-26],[-25,-13],[-82,13],[-72,45],[-58,101],[-11,105]],[[227,3116],[120,86],[21,100],[-3,122],[-27,113],[97,78],[320,-23],[145,130],[70,37],[86,-39],[-23,-108],[-15,-39],[-24,-36],[99,-89],[201,-3],[101,-36],[33,-58],[72,-94],[36,-29],[-48,-73],[-106,-42],[-46,-68],[-17,-73],[-23,-295],[27,-73],[110,-170],[-11,-120],[-53,-71],[-161,-99],[-60,39],[-51,89],[-22,136],[-42,63],[-256,151],[63,45],[29,31],[27,44],[-34,55],[-107,68],[-35,45],[-53,96],[-31,39],[-37,16],[-36,-13],[-66,-57],[-1,-19],[-4,-39],[-7,-42],[-10,-26],[-25,-13],[-82,13],[-72,45],[-58,101],[-11,105]],[[0,0],[0,4096],[4096,0],[0,-4096],[-4096,0]]]}