{"objects":{"water":{"type":"GeometryCollection","geometries":[]},"buildings":{"type":"GeometryCollection","geometries":[]},"places":{"type":"GeometryCollection","geometries":[{"type":"Point","properties":{"name:pt":"Afeganist\u00e3o","old_name:vi":"A Ph\u00fa H\u00e3n","name:ka":"\u10d0\u10d5\u10e6\u10d0\u10dc\u10d4\u10d7\u10d8","name:mt":"Afganistan","name:ko":"\uc544\ud504\uac00\ub2c8\uc2a4\ud0c4","name:kn":"\u0c85\u0cab\u0c98\u0cbe\u0ca8\u0cbf\u0cb8\u0ccd\u0ca5\u0cbe\u0ca8\u0ccd","name:km":"\u17a2\u17b6\u17a0\u17d2\u179c\u17a0\u17d2\u1782\u17b6\u1793\u17b8\u179f\u17d2\u1790\u17b6\u1793","name:kl":"Afghanistani","name:cs":"Afgh\u00e1nist\u00e1n","alt_name:eo":"Afganistano;Afganio","name:ki":"Afuganistani","name:tr":"Afganistan","name:ku":"Afxanistan","name:ti":"\u12a0\u134d\u130b\u1292\u1235\u1273\u1295","name:ks":"\u0627\u064e\u0641\u063a\u0627\u0646\u064e\u0633\u062a\u0627\u0646","name:to":"\u02bbAfik\u0101nisitani","name:tl":"Apganistan","name:sv":"Afghanistan","name:or":"\u0b06\u0b2b\u0b3e\u0b17\u0b3e\u0b28\u0b3f\u0b38\u0b4d\u0b24\u0b3e\u0b28\u0b4d","name:ce":"\u0410\u0444\u0433I\u0430\u043d\u0438\u0441\u0442\u0430\u043d","name:ta":"\u0b86\u0baa\u0bcd\u0b95\u0bbe\u0ba9\u0bbf\u0bb8\u0bcd\u0ba4\u0bbe\u0ba9\u0bcd","name:tg":"\u0410\u0444\u0493\u043e\u043d\u0438\u0441\u0442\u043e\u043d","name:ca":"Afganistan","name:te":"\u0c06\u0c2b\u0c4d\u0c18\u0c3e\u0c28\u0c3f\u0c38\u0c4d\u0c24\u0c3e\u0c28\u0c4d","name:vi":"Afghanistan","name:hu":"Afganiszt\u00e1n","name:ro":"Afganistan","name:cy":"Afghanistan","name:hr":"Afganistan","name:da":"Afghanistan","name:fr":"Afghanistan","name:de":"Afghanistan","name:dz":"\u0f68\u0f55\u0f0b\u0f42\u0fb7\u0f0b\u0f53\u0f72\u0f0b\u0f66\u0f4f\u0f71\u0f53","source":"openstreetmap.org","name:lv":"Afganist\u0101na","name:lt":"Afganistanas","name:uz":"Afg\u2019oniston","name:kk":"\u0410\u0443\u0493\u0430\u043d\u0441\u0442\u0430\u043d","name:he":"\u05d0\u05e4\u05d2\u05e0\u05d9\u05e1\u05d8\u05df","kind":"country","name:ha":"Afaganistan","name:la":"Afgania","name:lg":"Afaganisitani","name:uk":"\u0410\u0444\u0433\u0430\u043d\u0456\u0441\u0442\u0430\u043d","name:hy":"\u0531\u0586\u0572\u0561\u0576\u057d\u057f\u0561\u0576","min_zoom":2.0,"name:li":"Afganistan","name:ln":"Afiganisit\u00e1","name:lo":"\u0ead\u0eb1\u0e9a\u0e81\u0eb2\u0e99\u0eb4\u0eaa\u0eb0\u0e96\u0eb2\u0e99","population":32738376,"name:el":"\u0391\u03c6\u03b3\u03b1\u03bd\u03b9\u03c3\u03c4\u03ac\u03bd","name:eo":"Afganujo","name:en":"Afghanistan","name":"\u0627\u0641\u063a\u0627\u0646\u0633\u062a\u0627\u0646","name:is":"Afganistan","name:ee":"Afghanistan nutome","name:th":"\u0e1b\u0e23\u0e30\u0e40\u0e17\u0e28\u0e2d\u0e31\u0e1f\u0e01\u0e32\u0e19\u0e34\u0e2a\u0e16\u0e32\u0e19","name:eu":"Afganistan","name:et":"Afganistan","name:nl":"Afghanistan","name:es":"Afganist\u00e1n","name:ia":"Afghanistan","name:rm":"Afghanistan","name:rn":"Afuganisitani","name:az":"\u018ffqan\u0131stan","name:id":"Afganistan","name:ms":"Afghanistan","name:mr":"\u0905\u092b\u0917\u093e\u0923\u093f\u0938\u094d\u0924\u093e\u0928","name:as":"\u0986\u09ab\u0997\u09be\u09a8\u09bf\u09b8\u09cd\u09a4\u09be\u09a8","name:ar":"\u0623\u0641\u063a\u0627\u0646\u0633\u062a\u0627\u0646","name:my":"\u1021\u102c\u1016\u1002\u1014\u103a\u1014\u1005\u1039\u1005\u1010\u1014\u103a","name:io":"Afganistan","int_name":"Afghanistan","name:ak":"Afganistan","name:am":"\u12a0\u134d\u130b\u1292\u1235\u1273\u1295","name:it":"Afghanistan","name:an":"Afganist\u00e1n","name:ru":"\u0410\u0444\u0433\u0430\u043d\u0438\u0441\u0442\u0430\u043d","name:mn":"\u0410\u0444\u0433\u0430\u043d\u0438\u0441\u0442\u0430\u043d","name:pl":"Afganistan","name:mk":"\u0410\u0432\u0433\u0430\u043d\u0438\u0441\u0442\u0430\u043d","name:af":"Afghanistan","name:zu":"i-Afghanistan","name:nn":"Afghanistan","name:ff":"Afganistaan","name:fi":"Afganistan","name:hi":"\u0905\u092b\u093c\u0917\u093e\u0928\u093f\u0938\u094d\u0924\u093e\u0928","name:mg":"Afghanistan","id":26847706,"name:ba":"\u0410\u0444\u0493\u0430\u043d\u0441\u0442\u0430\u043d","name:fy":"Afganistan","name:vo":"Lafganist\u00e4n","name:zh":"\u963f\u5bcc\u6c57","name:gv":"Yn Afghanistaan","name:so":"Afgaanistaan","name:sn":"Afuganistani","name:sl":"Afganistan","name:sk":"Afganistan","name:ja":"\u30a2\u30d5\u30ac\u30cb\u30b9\u30bf\u30f3","name:si":"\u0d87\u0dc6\u0dca\u0d9c\u0db1\u0dd2\u0dc3\u0dca\u0dae\u0dcf\u0db1\u0dba","name:no":"Afghanistan","name:sg":"Fagan\u00efta, Afgan\u00efst\u00e4an","name:se":"Afghanistan","name:ne":"\u0905\u092b\u094d\u0917\u093e\u0928\u093f\u0937\u094d\u0924\u093e\u0928","name:br":"Afghanistan","name:bs":"Avganistan","name:bm":"Afiganista\u014b","name:bn":"\u0986\u09ab\u0997\u09be\u09a8\u09bf\u09b8\u09cd\u09a4\u09be\u09a8","name:bo":"\u0f68\u0f55\u0f0b\u0f42\u0f0b\u0f53\u0f72\u0f0b\u0f66\u0f9f\u0f71\u0f53\u0f0d","name:ml":"\u0d05\u0d2b\u0d4d\u0d17\u0d3e\u0d28\u0d3f\u0d38\u0d4d\u0d25\u0d3e\u0d7b","name:sw":"Afuganistani","name:be":"\u0410\u0444\u0433\u0430\u043d\u0456\u0441\u0442\u0430\u043d","name:bg":"\u0410\u0444\u0433\u0430\u043d\u0438\u0441\u0442\u0430\u043d","name:sr":"\u0410\u0432\u0433\u0430\u043d\u0438\u0441\u0442\u0430\u043d","name:sq":"Afganistan","name:ga":"An Afganast\u00e1in","name:gd":"Afganastan","name:gl":"Afganist\u00e1n","name:fo":"Afganistan","name:yo":"Or\u00edl\u1eb9\u0301\u00e8de \u00c0f\u00f9g\u00e0n\u00edst\u00e1n\u00ec","name:gu":"\u0a85\u0aab\u0a98\u0abe\u0aa8\u0abf\u0ab8\u0acd\u0aa4\u0abe\u0aa8"},"coordinates":[2259,3158]},{"type":"Point","properties":{"kind":"region","name:en":"Gh\u014dr","name":"\u063a\u0648\u0631","kind_detail":"state","min_zoom":4.0,"name:de":"Ghor","source":"openstreetmap.org","name:fr":"Gh\u00f4r","name:uk":"\u0413\u043e\u0440","population":485000,"name:ru":"\u0413\u043e\u0440","name:hu":"Gor","id":312470043,"name:ja":"\u30b4\u30fc\u30eb\u5dde"},"coordinates":[339,3841]},{"type":"Point","properties":{"int_name":"Daikundi;D\u0101ykond\u012b;Daykundi","name:ps":"\u062f\u0627\u064a\u06a9\u0646\u062f\u064a \u0648\u0644\u0627\u064a\u062a","min_zoom":4.0,"name:uk":"\u0414\u0430\u0439\u043a\u0443\u043d\u0434\u0456","name:ru":"\u0414\u0430\u0439\u043a\u0443\u043d\u0434\u0438","name:pl":"Dajkondi","name:hu":"D\u00e1jkondi","id":2278857601,"name:ja":"\u30c0\u30fc\u30a4\u30af\u30f3\u30c7\u30a3\u30fc\u5dde","kind":"region","name:en":"Daykundi","name":"\u062f\u0627\u06cc\u06a9\u0646\u062f\u06cc","kind_detail":"state","name:de":"Daikondi","source":"openstreetmap.org","name:fr":"Deykandi","population":438500},"coordinates":[2231,3084]},{"type":"Point","properties":{"kind":"region","name:en":"Uruzgan","name":"\u0627\u0631\u0648\u0632\u06af\u0627\u0646","kind_detail":"state","min_zoom":4.0,"name:de":"Urusgan","source":"openstreetmap.org","name:fr":"Orozg\u00e2n","name:uk":"\u0423\u0440\u0443\u0437\u0433\u0430\u043d","population":428000,"name:ru":"\u0423\u0440\u0443\u0437\u0433\u0430\u043d","name:pl":"Oruzgan","name:hu":"Uruzg\u00e1n","id":312470035,"name:ja":"\u30a6\u30eb\u30fc\u30ba\u30ac\u30fc\u30f3\u5dde"},"coordinates":[1938,1497]},{"type":"Point","properties":{"kind":"region","name:en":"Zabul","name":"\u0632\u0627\u0628\u0644","kind_detail":"state","min_zoom":4.0,"name:de":"Zabul","source":"openstreetmap.org","name:fr":"Zaboul","name:uk":"\u0417\u0430\u0431\u0443\u043b\u044c","name:ru":"\u0417\u0430\u0431\u0443\u043b\u044c","name:pl":"Zabol","name:hu":"Z\u00e1bol","id":312470054,"name:ja":"\u30b6\u30fc\u30d6\u30eb\u5dde"},"coordinates":[3557,617]},{"type":"Point","properties":{"source":"naturalearthdata.com","kind":"locality","name":"Qalat","population":12191,"region_capital":true,"min_zoom":7.0,"id":4483},"coordinates":[3203,278]}]},"transit":{"type":"GeometryCollection","geometries":[]},"pois":{"type":"GeometryCollection","geometries":[]},"boundaries":{"type":"GeometryCollection","geometries":[{"type":"MultiLineString","properties":{"source":"naturalearthdata.com","kind":"region","name":"Zabul - Uruzgan","sort_rank":256,"kind_detail":"4","min_zoom":5.5,"id":5312},"arcs":[[0],[1],[2],[3],[4],[5],[6]]},{"type":"MultiLineString","properties":{"source":"naturalearthdata.com","kind":"region","name":"Ghazni - Uruzgan","sort_rank":256,"kind_detail":"4","min_zoom":5.5,"id":5256},"arcs":[[7],[8],[9]]},{"type":"MultiLineString","properties":{"source":"naturalearthdata.com","kind":"region","name":"Ghazni - Wardak","sort_rank":256,"kind_detail":"4","min_zoom":5.5,"id":5268},"arcs":[[10],[11]]},{"type":"LineString","properties":{"source":"naturalearthdata.com","kind":"region","name":"Bamyan - Ghazni","sort_rank":256,"kind_detail":"4","min_zoom":5.5,"id":5270},"arcs":[12]},{"type":"MultiLineString","properties":{"source":"naturalearthdata.com","kind":"region","name":"Wardak - Bamyan","sort_rank":256,"kind_detail":"4","min_zoom":5.5,"id":5271},"arcs":[[13],[14]]},{"type":"MultiLineString","properties":{"source":"naturalearthdata.com","kind":"region","name":"Uruzgan - Ghazni","sort_rank":256,"kind_detail":"4","min_zoom":5.5,"id":5291},"arcs":[[15],[16],[17]]},{"type":"MultiLineString","properties":{"source":"naturalearthdata.com","kind":"region","name":"Uruzgan - Uruzgan","sort_rank":256,"kind_detail":"4","min_zoom":5.5,"id":5292},"arcs":[[18],[19],[20],[21],[22],[23],[24],[25],[26],[27],[28],[29],[30],[31],[32],[33]]},{"type":"MultiLineString","properties":{"source":"naturalearthdata.com","kind":"region","name":"Bamyan - Uruzgan","sort_rank":256,"kind_detail":"4","min_zoom":5.5,"id":5293},"arcs":[[34],[35],[36],[37],[38],[39]]},{"type":"LineString","properties":{"source":"naturalearthdata.com","kind":"region","name":"Uruzgan - Ghor","sort_rank":256,"kind_detail":"4","min_zoom":5.5,"id":5294},"arcs":[40]},{"type":"MultiLineString","properties":{"source":"naturalearthdata.com","kind":"region","name":"Hilmand - Ghor","sort_rank":256,"kind_detail":"4","min_zoom":5.5,"id":5326},"arcs":[[41],[42],[43],[44],[45],[46]]},{"type":"MultiLineString","properties":{"source":"naturalearthdata.com","kind":"region","name":"Ghazni - Zabul","sort_rank":256,"kind_detail":"4","min_zoom":5.5,"id":5311},"arcs":[[47],[48],[49],[50],[51],[52],[53],[54],[55]]},{"type":"LineString","properties":{"source":"naturalearthdata.com","kind":"region","name":"Hilmand - Uruzgan","sort_rank":256,"kind_detail":"4","min_zoom":5.5,"id":5327},"arcs":[56]},{"type":"LineString","properties":{"source":"naturalearthdata.com","kind":"region","name":"Farah - Ghor","sort_rank":256,"kind_detail":"4","min_zoom":5.5,"id":5320},"arcs":[57]},{"type":"MultiLineString","properties":{"source":"naturalearthdata.com","kind":"region","name":"Zabul - Kandahar","sort_rank":256,"kind_detail":"4","min_zoom":5.5,"id":5324},"arcs":[[58],[59],[60],[61],[62]]},{"type":"MultiLineString","properties":{"source":"naturalearthdata.com","kind":"region","name":"Kandahar - Uruzgan","sort_rank":256,"kind_detail":"4","min_zoom":5.5,"id":5323},"arcs":[[63],[64],[65],[66],[67],[68],[69],[70],[71],[72],[73],[74],[75],[76],[77],[78]]},{"type":"MultiLineString","properties":{"source":"naturalearthdata.com","kind":"region","name":"Uruzgan - Hilmand","sort_rank":256,"kind_detail":"4","min_zoom":5.5,"id":5325},"arcs":[[79],[80],[81],[82]]},{"type":"LineString","properties":{"source":"naturalearthdata.com","kind":"region","name":"Farah - Hilmand","sort_rank":256,"kind_detail":"4","min_zoom":5.5,"id":5329},"arcs":[83]},{"type":"MultiLineString","properties":{"source":"naturalearthdata.com","kind":"region","name":"Kandahar - Hilmand","sort_rank":256,"kind_detail":"4","min_zoom":5.5,"id":5330},"arcs":[[84],[85],[86]]}]},"roads":{"type":"GeometryCollection","geometries":[{"type":"LineString","properties":{"source":"naturalearthdata.com","kind":"minor_road","sort_rank":355,"kind_detail":"tertiary","min_zoom":6.0,"id":25333},"arcs":[87]},{"type":"LineString","properties":{"source":"naturalearthdata.com","kind":"minor_road","sort_rank":355,"kind_detail":"tertiary","min_zoom":7.0,"id":26681},"arcs":[88]},{"type":"LineString","properties":{"source":"naturalearthdata.com","kind":"major_road","sort_rank":379,"kind_detail":"secondary","min_zoom":3.0,"id":26902},"arcs":[89]},{"type":"LineString","properties":{"source":"naturalearthdata.com","kind":"minor_road","sort_rank":355,"kind_detail":"tertiary","min_zoom":7.0,"id":26972},"arcs":[90]},{"type":"LineString","properties":{"source":"naturalearthdata.com","kind":"minor_road","sort_rank":355,"kind_detail":"tertiary","min_zoom":7.0,"id":26973},"arcs":[91]},{"type":"LineString","properties":{"source":"naturalearthdata.com","kind":"minor_road","sort_rank":355,"kind_detail":"tertiary","min_zoom":7.0,"id":27187},"arcs":[92]},{"type":"LineString","properties":{"source":"naturalearthdata.com","kind":"minor_road","sort_rank":355,"kind_detail":"tertiary","min_zoom":7.0,"id":27379},"arcs":[93]},{"type":"LineString","properties":{"source":"naturalearthdata.com","kind":"major_road","sort_rank":379,"kind_detail":"secondary","min_zoom":3.0,"id":27398},"arcs":[94]}]},"earth":{"type":"GeometryCollection","geometries":[{"type":"Polygon","properties":{"sort_rank":10,"source":"naturalearthdata.com","kind":"earth","min_zoom":0.0,"id":4731},"arcs":[[95]]}]},"landuse":{"type":"GeometryCollection","geometries":[]}},"type":"Topology","transform":{"translate":[64.6875,31.952162238],"scale":[0.0006866455,0.0005749467]},"arcs":[[[3385,1696],[-7,-103],[-2,-12],[-5,-18],[-6,-10],[-10,-18],[-6,-7],[-7,-5],[-8,-2],[-11,-8],[-6,-3],[-10,-1]],[[3307,1509],[-11,1],[-13,3],[-8,3],[-15,10],[-13,5]],[[3247,1531],[-17,-1],[-26,-21],[-10,-5],[-9,-3]],[[3185,1501],[-35,2]],[[3150,1503],[-45,-3],[-21,-5],[-16,-9],[-10,-9],[-95,-61],[-25,-20],[-22,-23],[-24,-32],[-4,-8],[-3,-8],[0,-9],[3,-20],[0,-10],[-9,-13],[-17,-12],[-34,-16],[-19,-5],[-13,0]],[[2796,1240],[-6,3],[-3,3],[-1,3],[-3,6],[0,7],[2,12],[33,101],[3,15],[1,10],[-2,5],[-5,4],[-22,3]],[[2793,1412],[-65,-7],[-44,-84],[-23,-21],[-71,-10],[-70,-35],[-12,-12],[-17,-30],[-19,-25],[-71,-81],[-13,-19],[-1,-11],[0,-12],[0,-15],[-2,-18],[-17,-35],[-4,-10],[0,-8],[4,-10],[6,-10],[13,-21]],[[3119,2311],[22,-55],[38,-7]],[[3327,2256],[25,-6],[9,-13],[7,-18],[3,-26],[0,-17],[-4,-12],[-4,-5],[-25,-13],[-8,-6],[-6,-8],[-11,-19],[-8,-10],[-51,-37],[-6,-6],[-3,-6],[-1,-6],[-3,-20],[-2,-5],[-4,-25],[2,-49],[0,-13],[-3,-10],[-3,-19],[0,-29],[6,-62],[7,-31],[10,-27],[12,-18],[13,-13],[18,-8],[70,-16],[18,-7]],[[3179,2249],[148,7]],[[4096,3796],[-7,-2],[-24,-1]],[[4065,3793],[-69,10]],[[3873,3625],[27,71],[6,12],[11,27],[19,24],[60,44]],[[4082,4096],[14,-6]],[[4096,3959],[-103,-39],[-10,-10],[-10,-15],[-9,-35],[0,-18],[6,-15],[26,-24]],[[3426,2932],[8,1],[139,41],[29,16],[31,22],[22,31],[11,21],[17,25],[13,16],[92,79],[31,28],[50,72],[10,10],[10,8],[31,16],[5,10],[1,11],[-20,64],[-10,26],[-8,11],[-2,2],[-21,10],[-16,11],[-4,7],[1,9],[9,13],[15,13],[5,6],[4,7],[15,47],[9,18],[0,10],[-3,11],[-27,21]],[[3390,2934],[36,-2]],[[3119,2311],[11,80],[10,28],[5,7],[2,7],[2,10],[3,72],[3,20],[4,15],[5,14],[-2,48],[-42,126],[-1,32],[2,11],[20,51],[15,17],[7,5],[15,10],[130,53],[82,17]],[[2722,2235],[-41,10],[-18,21],[-14,24],[-7,13],[-2,8],[-1,10],[-2,10],[-4,9],[-19,31],[-5,4],[-7,2],[-9,1]],[[2593,2378],[-12,0],[-20,-5],[-70,-28],[-22,-6],[-17,-1]],[[3052,2293],[-24,1],[-10,5],[-5,8],[-8,29],[-6,34],[-4,7]],[[2995,2377],[-5,0],[-10,-6],[-29,-34],[-16,-16],[-16,-10],[-25,-5],[-30,-1],[-39,-14],[-103,-56]],[[2452,2338],[-13,5],[-32,18],[-6,2]],[[2401,2363],[-13,-2],[-18,-6],[-29,-15],[-176,-133],[-43,-20],[-29,-9],[-40,-22],[-10,-9],[-11,-14],[-10,-26],[-18,-81],[-2,-17],[1,-13],[2,-13],[0,-12],[-1,-12],[-6,-13],[-7,-10],[-7,-6],[-23,-3]],[[3119,2311],[-49,-16],[-18,-2]],[[1415,2006],[-10,2],[-85,56],[-14,7],[-14,4],[-16,3],[-118,6]],[[1158,2084],[-13,-3],[-3,-8],[2,-8],[13,-36],[14,-52],[2,-15],[-3,-6]],[[1961,1927],[-44,11],[-182,42],[-38,21],[-55,57],[-14,12],[-9,1]],[[1619,2071],[-13,-3],[-14,-14],[-17,-30],[-6,-7],[-9,-4],[-10,-1]],[[1550,2012],[-50,11],[-13,1]],[[1487,2024],[-16,-1],[-15,-3],[-31,-12],[-10,-2]],[[1062,1939],[-12,6],[-43,29],[-45,9]],[[1170,1956],[-8,1],[-20,13],[-16,8],[-16,4]],[[1110,1982],[-19,-5],[-9,-8],[-5,-11],[-3,-10],[-3,-9],[-9,0]],[[2756,4096],[0,-1],[1,-10],[-3,-7],[-4,-5],[-7,-3],[-15,-6],[-8,-4],[-19,-16],[-9,-10],[-6,-9],[-2,-9],[7,-64],[21,-56],[0,-11],[-4,-18],[-35,-76],[-10,-30],[-5,-52],[1,-24],[4,-17],[5,-9],[15,-17],[84,-80],[83,-45],[32,-4]],[[3604,3486],[3,2],[4,4],[11,9],[4,6],[11,21],[6,7],[6,7],[8,6],[48,14],[121,19],[14,8],[12,11],[21,25]],[[3052,3569],[258,-53],[12,-5],[7,-6],[5,-7],[3,-7],[4,-6],[2,-3],[8,-5],[55,-23],[11,0]],[[2882,3513],[38,17],[18,4],[7,4],[6,6],[13,8],[20,8],[43,8],[25,1]],[[3560,3519],[8,-1],[3,-1],[6,-5],[22,-26],[5,0]],[[3417,3454],[8,2],[83,50],[15,6],[23,6],[14,1]],[[1199,4096],[0,-16],[2,-16],[-4,-14],[-20,-51],[-7,-25],[-8,-41],[-1,-16],[1,-11],[3,-3],[4,-4],[5,-5],[3,-9],[-1,-8],[-18,-35],[-2,-12],[-1,-14],[1,-19],[-8,-34],[-8,-26],[-4,-45],[1,-7],[6,-4],[4,-3],[3,-5],[4,-6],[4,-8],[7,-24],[4,-5],[4,-4],[4,-2],[7,-1],[19,-1],[5,-7],[4,-6],[9,-52],[-8,-42],[-12,-18],[-17,-10],[-22,-34],[-9,-32],[-8,-16],[-6,-8],[-5,-1],[-26,-3],[-7,-2],[-4,-2],[-4,-2],[-8,-6],[-35,-20],[-7,-6],[-4,-9],[-2,-10],[0,-7],[1,-5],[1,-4],[3,-8],[2,-6],[3,-24],[2,-5],[2,-4],[5,-5],[39,-24],[5,-5],[3,-6],[2,-7],[1,-7],[2,-5],[3,-3],[5,-6],[4,-2],[4,-2],[8,-2],[10,-4],[4,-3],[4,-4],[5,-10],[10,-10],[9,-18],[9,-51],[12,-97],[13,-28],[31,-14],[24,-20],[19,-22],[9,-16],[5,-19],[-1,-9],[-3,-7],[-37,-27],[-22,-13],[-21,-10],[-8,-4],[-48,-43],[-44,-52],[-47,-40],[-4,-5],[-3,-4],[-4,-4],[-4,-3],[-5,-2],[-5,-2],[-19,-1],[-5,-2],[-4,-2],[-4,-4],[-20,-31],[-4,-8],[0,-6],[3,-3],[7,-6],[1,-5],[1,-3],[-2,-26],[-57,-31],[-28,-9],[-40,-8],[-32,-13],[-23,-15],[-40,-31]],[[774,2454],[-54,5]],[[720,2459],[-16,-1],[-18,-5],[-63,-40],[-24,-21],[-16,-19],[-8,-7],[-126,-59],[-4,-5],[-3,-4],[-40,-27],[-15,-15],[-11,-5],[-13,-1]],[[363,2250],[-26,6],[-12,6],[-10,7],[-9,1]],[[306,2270],[-11,-4],[-19,-17],[-48,-52],[-10,-9],[-9,-6],[-10,-4],[-9,-2],[-11,0]],[[179,2176],[-19,3],[-8,7],[-4,6],[-4,43],[-1,6],[-2,6],[-3,5]],[[138,2252],[-18,-1],[-65,-32]],[[3547,1936],[43,-9],[12,-5],[8,-6],[4,-7],[2,-7],[3,-36],[4,-15],[7,-17],[14,-23],[9,-9],[7,-4],[6,0]],[[3429,1695],[8,5],[9,7],[3,8],[3,9],[18,33],[25,35],[10,17],[4,13],[-2,7],[-3,8],[-20,30],[-7,13],[-4,13],[-1,15],[3,9],[5,6],[7,4],[20,6],[40,3]],[[3980,1840],[7,-2],[3,-4],[0,-6],[-2,-6],[-1,-4],[-6,-10],[-3,-6],[-1,-4],[0,-4],[1,-2],[2,-2],[8,-9],[6,-8],[2,-5],[4,-8],[4,-10],[2,-11],[0,-10],[-1,-9],[-4,-8],[-5,-7],[-6,-6],[-8,-6],[-56,-31],[-6,-6],[-3,-9],[1,-9],[7,-14],[9,-6],[51,-21],[12,-9],[8,-9],[3,-7],[2,-6],[-1,-6],[-2,-4],[-4,-4],[-7,-2],[-20,-1],[-6,-2],[-4,-4],[-4,-7],[-4,-7],[-3,-8],[-2,-9],[0,-19],[7,-20],[38,-56],[37,-35],[4,-6],[3,-16],[4,-7],[50,-50]],[[3860,1733],[10,3],[9,4],[8,5],[7,7],[13,17],[17,29],[24,30],[7,4],[8,5],[17,3]],[[3726,1804],[7,-1],[5,-4],[3,-5],[2,-6],[0,-6],[-1,-13],[2,-7],[4,-4],[21,-6],[8,-6],[13,-12],[6,-4]],[[3666,1798],[45,6],[15,0]],[[3815,1734],[45,-1]],[[3796,1730],[9,1],[10,3]],[[3385,1696],[44,-1]],[[962,1983],[0,26],[-1,10],[0,13],[1,10],[3,15],[0,17],[1,8],[6,20],[1,12],[0,19],[1,8],[4,9],[3,11],[2,15],[-1,29],[-5,13],[-9,12],[-19,16],[-14,14],[-15,19],[-33,61],[-5,16],[2,8],[3,8],[3,9],[1,9],[-3,7],[-8,3],[-49,5],[-27,15],[-30,34]],[[55,2219],[-46,33],[-9,19]],[[2559,1052],[5,-2],[5,-2],[6,-1]],[[2445,918],[20,1],[10,5],[9,7],[30,47],[17,42],[6,11],[10,14],[6,5],[6,2]],[[2596,1050],[11,-2],[6,-4],[4,-6],[5,-12],[4,-5],[4,-4],[17,-11],[10,-9],[5,-3],[15,-4],[10,-6],[7,-9],[3,-9],[0,-10],[-6,-17],[-1,-8],[2,-30],[0,-10],[-1,-10],[-17,-79],[-3,-9],[-14,-29],[-19,-33],[-6,-6],[-14,-8],[-52,-27],[-16,-13],[-11,-12],[-19,-56],[-8,-17],[-17,-30],[-23,-29],[-34,-28],[-36,-37],[-8,-12],[-9,-17],[-4,-20],[0,-14],[2,-14],[7,-18],[2,-9],[2,-22],[3,-12],[2,-4],[0,-4],[3,-39],[6,-38],[-1,-9],[-3,-10],[-20,-35],[-19,-46],[-1,-11],[2,-8],[6,-6],[17,-10],[12,-11],[11,-38],[0,-43],[-3,-12],[-2,-6]],[[2575,1047],[6,0],[15,3]],[[2387,938],[46,-18],[12,-2]],[[1445,1063],[-107,21]],[[1338,1084],[-13,-1],[-9,-2],[-3,-2],[-4,-3],[-10,-9],[-52,-66],[-14,-25],[-7,-21],[-5,-27],[-5,-21],[-13,-25],[-11,-14],[-11,-9],[-6,-4],[-21,-8],[-25,-13],[-5,-4],[-3,-4],[-2,-10],[0,-17],[3,-38],[9,-36],[0,-7],[-8,-7],[-14,-8],[-6,-4],[-2,-3],[-2,-3],[-3,-7],[-7,-31],[-5,-9],[-5,-7],[-3,-5],[0,-9],[1,-7],[23,-45],[-8,-8],[-13,-4],[-20,-1]],[[1499,848],[-4,1],[-2,6],[-1,12],[3,49],[-8,99],[2,23],[5,15],[4,7],[1,5],[-3,7],[-4,1],[-4,0]],[[1488,1073],[-24,-9],[-19,-1]],[[2387,938],[-35,-23],[-8,-7],[-15,-7],[-96,-15],[-16,-5]],[[1697,914],[-7,0],[-48,15],[-12,3],[-11,0]],[[1619,932],[-15,-4],[-14,-6],[-7,-4],[-5,-5],[-5,-7],[-18,-30],[-6,-8],[-6,-6],[-7,-5],[-7,-3],[-24,-6],[-6,0]],[[1991,822],[-14,2],[-13,5],[-11,11],[-15,22],[-3,6],[-3,13],[-3,5],[-19,7],[-67,6],[-77,10],[-24,7],[-11,2]],[[1731,918],[-34,-4]],[[2217,881],[-16,4],[-7,6],[-3,6],[-3,4]],[[2188,901],[-5,0],[-7,-4],[-8,-11],[-3,-9],[-1,-10],[1,-18],[-1,-5],[-1,-6],[-3,-8],[-9,-7],[-47,-9]],[[2104,814],[-90,11]],[[2014,825],[-23,-3]],[[862,607],[-16,2],[-13,7],[-21,27],[-14,4]],[[1059,560],[-20,3],[-21,8],[-55,32],[-23,8]],[[940,611],[-78,-4]],[[962,1983],[-27,4]],[[935,1987],[-7,-4],[-12,-8],[-32,-32],[-9,-11],[-3,-9],[4,-14],[1,-6],[0,-9],[-1,-9],[-6,-15],[-26,-27],[-17,-14],[-15,-22],[-87,-157],[-1,-8],[0,-7],[2,-6],[4,-6],[6,-5],[12,-7],[6,-5],[3,-5],[3,-8],[2,-8],[0,-9],[-1,-16],[-17,-70],[-1,-14],[1,-9],[2,-7],[5,-7],[3,-16],[4,-11],[-18,-93],[-26,-58],[2,-4],[4,-6],[11,-2],[11,-6],[14,-10],[7,-2],[6,0]],[[792,1250],[9,-2],[6,-6],[6,-14],[6,-7],[6,-4],[6,-2],[17,-6],[6,-19],[16,-78],[11,-33],[2,-24],[-3,-14],[-11,-21],[-22,-26],[-7,-14],[-2,-8],[1,-8],[3,-6],[5,-14],[4,-19],[4,-38],[0,-21],[-1,-17],[-5,-24],[-3,-10],[-5,-10],[-13,-22],[-12,-40],[-18,-96]],[[769,1245],[23,5]],[[0,2023],[41,31],[-24,13],[-2,8],[-1,12],[0,24],[4,15],[6,11],[47,42],[3,6],[0,5],[-4,6],[-4,5],[-11,18]],[[798,647],[-24,-90],[0,-8],[-3,-6],[-6,-5],[-26,-14],[-41,-39],[-6,-25],[-1,-11],[-3,-13],[-12,-28],[-1,-10],[-2,-19],[-3,-8],[-6,-6],[-12,-7],[-5,-4],[-3,-5],[3,-6],[6,-5],[6,-6],[0,-10],[-4,-14],[-11,-25],[-21,-79],[-8,-15],[-10,-6],[-22,-4]],[[583,179],[-29,0],[-15,4],[-12,5],[-23,16],[-12,5],[-22,3]],[[470,212],[-14,-4],[-12,-7],[-25,-19],[-27,-15],[-8,-3],[-7,-4],[-8,-7],[-8,-11],[-10,-19],[-12,-32],[-1,-59],[-7,-32]],[[0,3792],[59,0],[30,0],[60,43],[18,21],[36,50],[-6,29],[54,43],[30,14],[66,51],[24,28],[21,25]],[[1698,1159],[0,-29],[18,-86],[19,-21],[48,-29],[48,-22],[18,-28],[24,-22],[12,-29],[-6,-28],[-12,-22],[-12,-57],[12,-29],[18,-21],[24,-8]],[[3212,255],[90,72],[66,64],[132,129],[79,72],[78,79],[36,50],[66,72],[48,43],[72,72],[66,72],[48,50],[103,116]],[[4096,334],[-25,-7],[-18,14],[-36,0],[-36,-14],[-6,-29],[-36,-29],[-24,-43],[-48,-28],[-60,-58]],[[3212,255],[72,-50],[24,-15],[138,-7],[54,7],[61,15],[96,28],[54,0],[48,-35],[48,-58]],[[503,542],[24,-22],[6,-28],[-6,-29],[-24,-21],[-24,-8],[-30,15],[-30,-29],[-12,-22],[-12,-57],[-24,-21],[-126,-94],[-18,-28],[-12,-29],[-6,-57],[-12,-22],[-30,-14],[-42,-29],[-36,-47]],[[1909,728],[60,22],[30,-14],[12,-36],[0,-58],[18,-79],[24,-86],[6,-57],[-12,-57],[-24,-51],[-72,-71],[-24,-22],[0,-29],[18,-57],[-12,-21],[-36,-51],[-24,-28],[-39,-33]],[[2910,0],[86,61],[72,72],[144,122]],[[4096,4096],[0,-4096],[-4096,0],[0,4096],[4096,0]]]}