{"objects":{"water":{"type":"GeometryCollection","geometries":[{"type":"Polygon","properties":{"source":"naturalearthdata.com","kind":"ocean","area":1576712559132672,"sort_rank":200,"min_zoom":0.0,"id":1},"arcs":[[30],[31],[32]]},{"type":"MultiLineString","properties":{"source":"naturalearthdata.com","kind":"ocean","sort_rank":205,"boundary":true,"min_zoom":0.0,"id":75},"arcs":[[33],[34]]},{"type":"LineString","properties":{"source":"naturalearthdata.com","kind":"ocean","sort_rank":205,"boundary":true,"min_zoom":0.0,"id":1344},"arcs":[35]},{"type":"MultiLineString","properties":{"source":"naturalearthdata.com","kind":"ocean","sort_rank":205,"boundary":true,"min_zoom":0.0,"id":1345},"arcs":[[36],[37]]}]},"buildings":{"type":"GeometryCollection","geometries":[]},"places":{"type":"GeometryCollection","geometries":[{"type":"Point","properties":{"kind":"locality","name":"Santos","kind_detail":"city","source":"openstreetmap.org","min_zoom":8.0,"name:ru":"\u0421\u0430\u043d\u0442\u0443\u0441","id":32553121,"population":434000},"coordinates":[211,1804]},{"type":"Point","properties":{"source":"openstreetmap.org","kind":"locality","name":"Mogi das Cruzes","kind_detail":"city","population":396468,"min_zoom":8.0,"id":357464605},"coordinates":[622,3197]},{"type":"Point","properties":{"source":"openstreetmap.org","kind":"locality","name":"Itaquaquecetuba","kind_detail":"city","population":353000,"min_zoom":8.0,"id":34034926},"coordinates":[170,3317]},{"type":"Point","properties":{"source":"openstreetmap.org","kind":"locality","name":"S\u00e3o Vicente","kind_detail":"city","population":336809,"min_zoom":8.0,"id":2014082002},"coordinates":[63,1805]},{"type":"Point","properties":{"source":"openstreetmap.org","kind":"locality","name":"Guaruj\u00e1","kind_detail":"city","population":292743,"min_zoom":8.0,"id":34034929},"coordinates":[438,1702]},{"type":"Point","properties":{"kind":"locality","name":"Praia Grande","kind_detail":"city","official_name":"Est\u00e2ncia Balne\u00e1ria de Praia Grande","source":"openstreetmap.org","min_zoom":8.0,"id":34034969,"population":267306},"coordinates":[10,1661]},{"type":"Point","properties":{"source":"openstreetmap.org","kind":"locality","name":"Suzano","kind_detail":"city","population":265074,"min_zoom":8.0,"id":34034927},"coordinates":[278,3136]},{"type":"Point","properties":{"source":"openstreetmap.org","kind":"locality","name":"Jacare\u00ed","kind_detail":"city","population":212743,"min_zoom":8.0,"id":98690012},"coordinates":[1283,3892]},{"type":"Point","properties":{"source":"openstreetmap.org","kind":"locality","name":"Ferraz de Vasconcelos","kind_detail":"city","population":175939,"min_zoom":8.0,"id":368180134},"coordinates":[103,3141]},{"type":"Point","properties":{"source":"openstreetmap.org","kind":"locality","name":"Po\u00e1","kind_detail":"city","population":111016,"min_zoom":8.0,"id":368180135},"coordinates":[180,3193]},{"type":"Point","properties":{"source":"openstreetmap.org","kind":"locality","name":"Caraguatatuba","kind_detail":"city","population":102522,"min_zoom":8.0,"id":98690024},"coordinates":[2893,2889]},{"type":"Point","properties":{"source":"openstreetmap.org","kind":"locality","name":"Ubatuba","kind_detail":"town","population":79834,"min_zoom":8.0,"id":368180327},"coordinates":[3853,3485]},{"type":"Point","properties":{"source":"openstreetmap.org","kind":"locality","name":"Aruj\u00e1","kind_detail":"town","population":78960,"min_zoom":8.0,"id":368180136},"coordinates":[251,3602]},{"type":"Point","properties":{"kind":"locality","name":"S\u00e3o Sebasti\u00e3o","kind_detail":"town","official_name":"Est\u00e2ncia Balne\u00e1ria de S\u00e3o Sebasti\u00e3o","source":"openstreetmap.org","min_zoom":8.0,"id":368180302,"population":76344},"coordinates":[2910,2307]},{"type":"Point","properties":{"source":"openstreetmap.org","kind":"locality","name":"Santa Isabel","kind_detail":"town","population":46645,"min_zoom":8.0,"id":368180137},"coordinates":[525,3855]},{"type":"Point","properties":{"source":"openstreetmap.org","kind":"locality","name":"Bertioga","kind_detail":"town","population":42945,"min_zoom":8.0,"id":368180132},"coordinates":[777,2162]},{"type":"Point","properties":{"source":"openstreetmap.org","kind":"locality","name":"Rio Grande da Serra","kind_detail":"town","population":41215,"min_zoom":8.0,"id":368180203},"coordinates":[27,2496]},{"type":"Point","properties":{"kind":"locality","name":"Ilhabela","kind_detail":"town","reg_name":"Capital Nacional da Vela","official_name":"Est\u00e2ncia Balne\u00e1ria de Ilhabela","source":"openstreetmap.org","min_zoom":8.0,"id":98690039,"population":29308},"coordinates":[3053,2386]},{"type":"Point","properties":{"source":"openstreetmap.org","kind":"locality","name":"Biritiba-Mirim","kind_detail":"town","population":29208,"min_zoom":8.0,"id":368180308},"coordinates":[1065,3050]},{"type":"Point","properties":{"source":"openstreetmap.org","kind":"locality","name":"Guararema","kind_detail":"town","population":26439,"min_zoom":8.0,"id":358476506},"coordinates":[1076,3546]},{"type":"Point","properties":{"source":"openstreetmap.org","kind":"locality","name":"Paraibuna","kind_detail":"town","population":16863,"min_zoom":8.0,"id":368180305},"coordinates":[2162,3631]},{"type":"Point","properties":{"source":"openstreetmap.org","kind":"locality","name":"Sales\u00f3polis","kind_detail":"town","population":15897,"min_zoom":8.0,"id":368180306},"coordinates":[1630,3180]},{"type":"Point","properties":{"source":"openstreetmap.org","kind":"locality","name":"Santa Branca","kind_detail":"town","population":13811,"min_zoom":8.0,"id":368180307},"coordinates":[1522,3597]}]},"transit":{"type":"GeometryCollection","geometries":[{"type":"MultiLineString","properties":{"kind":"train","network":"CPTM","service":"commuter","sort_rank":275,"colour":"#1C146B","name":"Linha 12 - Safira: Calmon Viana \u21d2 Br\u00e1s","source":"openstreetmap.org","min_zoom":6.0,"operator":"Companhia Paulista de Trans Metropolitanos","ref":"12","osm_relation":true,"colour_name":"navy"},"arcs":[[2],[3],[4],[5],[6],[7],[8]]},{"type":"MultiLineString","properties":{"kind":"train","network":"CPTM","sort_rank":275,"colour":"#F55F1A","name":"Linha 11 - Coral: Guaianases \u21d2 Estudantes","source":"openstreetmap.org","min_zoom":6.0,"osm_relation":true,"operator":"Companhia Paulista de Trens Metropolitanos","ref":"11","colour_name":"orangered","description":"Linha original"},"arcs":[[9],[10],[11],[12],[13]]},{"type":"MultiLineString","properties":{"kind":"train","name":"Linha 10 - Turquesa: Rio Grande da Serra \u21d2 Br\u00e1s","service":"commuter","sort_rank":275,"colour":"#00CED1","source":"openstreetmap.org","min_zoom":6.0,"network":"CPTM","operator":"Companhia Paulista de Trens Metropolitanos","ref":"10","osm_relation":true,"colour_name":"lightteal"},"arcs":[[14],[15]]},{"type":"MultiLineString","properties":{"kind":"train","name":"Linha 12 - Safira: Br\u00e1s \u21d2 Calmon Viana","service":"commuter","sort_rank":275,"colour":"#1C146B","source":"openstreetmap.org","min_zoom":6.0,"network":"CPTM","operator":"Companhia Paulista de Trans Metropolitanos","ref":"12","osm_relation":true,"colour_name":"navy"},"arcs":[[16],[17],[18],[19],[20],[21],[22]]},{"type":"MultiLineString","properties":{"kind":"train","network":"CPTM","service":"commuter","sort_rank":275,"colour":"#00CED1","name":"Linha 10 - Turquesa: Br\u00e1s \u21d2 Rio Grande da Serra","source":"openstreetmap.org","min_zoom":6.0,"operator":"Companhia Paulista de Trens Metropolitanos","ref":"10","osm_relation":true,"colour_name":"lightteal"},"arcs":[[23],[24]]},{"type":"MultiLineString","properties":{"kind":"train","network":"CPTM","sort_rank":275,"colour":"#F55F1A","name":"Linha 11 - Coral: Estudantes \u21d2 Guaianases","source":"openstreetmap.org","min_zoom":6.0,"osm_relation":true,"operator":"Companhia Paulista de Trens Metropolitanos","ref":"11","colour_name":"orangered","description":"Linha original"},"arcs":[[25],[26],[27],[28],[29]]}]},"pois":{"type":"GeometryCollection","geometries":[{"type":"Point","properties":{"kind":"nature_reserve","tier":2,"name":"Parque Estadual da Serra do Mar - N\u00facleo Cunha","area":138382000,"source":"openstreetmap.org","min_zoom":8.73,"operator":"Governo do Estado de S\u00e3o Paulo","id":480875772},"coordinates":[3929,4034]}]},"boundaries":{"type":"GeometryCollection","geometries":[{"type":"LineString","properties":{"name:kg":"Brazil","name:ty":"Brazil","name:ka":"\u10d1\u10e0\u10d0\u10d6\u10d8\u10da\u10d8\u10d0","name:ko":"\ube0c\ub77c\uc9c8","name:cv":"\u0411\u0440\u0430\u0437\u0438\u043b\u0438","name:cu":"\u0411\u0440\u0430\ua641\u0457\u043b\u0457\ua657","name:kl":"Brazil","name:cs":"Braz\u00edlie","name:ki":"Brazil","name:co":"Brasile","name:kv":"\u0411\u0440\u0430\u0437\u0438\u043b\u0438\u044f","name:ku":"Braz\u00eel","name:ce":"\u0411\u0440\u0430\u0437\u0438\u043b\u0438\u044f","name:ta":"\u0baa\u0bbf\u0bb0\u0bc7\u0b9a\u0bbf\u0bb2\u0bcd","name:tg":"\u0411\u0440\u0430\u0437\u0438\u043b\u0438\u044f","name:ky":"\u0411\u0440\u0430\u0437\u0438\u043b\u0438\u044f","name:te":"\u0c2c\u0c4d\u0c30\u0c46\u0c1c\u0c3f\u0c32\u0c4d","name:da":"Brasilien","name:de":"Brasilien","name:dz":"\u0f56\u0f71\u0f62\u0f71\u0f0b\u0f5b\u0f72\u0f63\u0f0b","source":"openstreetmap.org","name:kn":"\u0cac\u0ccd\u0cb0\u0cc6\u0c9c\u0cbf\u0cb2\u0ccd","name:dv":"\u0784\u07aa\u0783\u07ac\u0792\u07a8\u078d\u07b0","name:km":"\u1794\u17d2\u179a\u17c1\u179f\u17ca\u17b8\u179b","name:lv":"Braz\u012blija","name:lt":"Brazilija","name:uz":"Braziliya","name:kk":"\u0411\u0440\u0430\u0437\u0438\u043b\u0438\u044f","name:ur":"\u0628\u0631\u0627\u0632\u06cc\u0644","name:lb":"Brasilien","name:la":"Brasilia","name:tt":"\u0411\u0440\u0430\u0437\u0438\u043b\u0438\u044f","name:uk":"\u0411\u0440\u0430\u0437\u0438\u043b\u0456\u044f","name:ug":"\u0628\u0631\u0627\u0632\u0649\u0644\u0649\u064a\u06d5","name:li":"Braziel","name:ln":"Brazil","name:el":"\u0392\u03c1\u03b1\u03b6\u03b9\u03bb\u03af\u03b1","name:eo":"Brazilo","name:en":"Brazil","name":"Brasil","name:tk":"Brazili\u00fda","name:ee":"Brazil","name:th":"\u0e1b\u0e23\u0e30\u0e40\u0e17\u0e28\u0e1a\u0e23\u0e32\u0e0b\u0e34\u0e25","name:et":"Brasiilia","name:ay":"Wrasil","name:rm":"Brasilia","name:rn":"Brazil","name:az":"Braziliya","name:ig":"Brazil","name:as":"\u09ac\u09cd\u09f0\u09be\u099c\u09bf\u09b2","name:zh-min-nan":"Pa-se","name:io":"Brazilia","name:is":"Brasil\u00eda","name:am":"\u1265\u122b\u12da\u120d","name:it":"Brasile","name:ru":"\u0411\u0440\u0430\u0437\u0438\u043b\u0438\u044f","name:rw":"Burezile","name:af":"Brasili\u00eb","name:zu":"IBrazili","kind_detail":"2","name:za":"Bahsih","name:zh-yue":"\u5df4\u897f","name:zh":"\u5df4\u897f","name:so":"Barasiil","name:sl":"Brazilija","name:sk":"Braz\u00edlia","name:ja":"\u30d6\u30e9\u30b8\u30eb","name:sh":"Brazil","name:se":"Brasilia","name:sc":"Brasile","name:br":"Brazil","name:bs":"Brazil","name:bm":"Brazil","name:bn":"\u09ac\u09cd\u09b0\u09be\u099c\u09bf\u09b2","name:bo":"\u0f54\u0f74\u0f0b\u0f62\u0f74\u0f0b\u0f5f\u0f72\u0f63\u0f0d","name:bi":"Brazil","name:sw":"Brazil","name:be":"\u0411\u0440\u0430\u0437\u0456\u043b\u0456\u044f","name:bg":"\u0411\u0440\u0430\u0437\u0438\u043b\u0438\u044f","name:ba":"\u0411\u0440\u0430\u0437\u0438\u043b\u0438\u044f","name:sq":"Brazili","name:sa":"\u092c\u094d\u0930\u093e\u0938\u0940\u0932","name:ps":"\u0628\u0631\u0627\u0632\u06cc\u0644","min_zoom":8.0,"name:ro":"Brazilia","name:pa":"\u0a2c\u0a4d\u0a30\u0a3e\u0a1c\u0a3c\u0a40\u0a32","name:os":"\u0411\u0440\u0430\u0437\u0438\u043b\u0438","name:or":"\u0b2c\u0b4d\u0b30\u0b3e\u0b1c\u0b3f\u0b32","name:pl":"Brazylia","name:st":"Brazil","sort_rank":262,"name:sr":"\u0411\u0440\u0430\u0437\u0438\u043b","osm_relation":true,"name:ar":"\u0627\u0644\u0628\u0631\u0627\u0632\u064a\u0644","name:tr":"Brezilya","name:hi":"\u092c\u094d\u0930\u093e\u091c\u093c\u0940\u0932","name:sv":"Brasilien","name:he":"\u05d1\u05e8\u05d6\u05d9\u05dc","name:hy":"\u0532\u0580\u0561\u0566\u056b\u056c\u056b\u0561","name:ht":"Brezil","name:hu":"Braz\u00edlia","name:hr":"Brazil","kind":"country","name:yi":"\u05d1\u05e8\u05d0\u05d6\u05d9\u05dc","name:mt":"Bra\u017cil","name:ms":"Brazil","name:mr":"\u092c\u094d\u0930\u093e\u091d\u0940\u0932","name:my":"\u1018\u101b\u102c\u1007\u102e\u1038\u1014\u102d\u102f\u1004\u103a\u1004\u1036","official_name":"Rep\u00fablica Federativa do Brasil","name:mg":"Brazila","name:ml":"\u0d2c\u0d4d\u0d30\u0d38\u0d40\u0d7d","name:mn":"\u0411\u0440\u0430\u0437\u0438\u043b","name:mi":"Par\u012bhi","id":-59470,"name:mk":"\u0411\u0440\u0430\u0437\u0438\u043b","name:vo":"Brasil\u00e4n","name:fa":"\u0628\u0631\u0632\u06cc\u0644","name:fi":"Brasilia","old_name:vi":"Ba T\u00e2y","alt_name:vi":"Brazil;Bra-xin","name:fr":"Br\u00e9sil","name:fy":"Brazylje","name:nl":"Brazili\u00eb","name:na":"Bradir","name:ne":"\u092c\u094d\u0930\u093e\u091c\u093f\u0932","name:wa":"Braezi","name:wo":"Breesil","name:nv":"Bwaz\u00ed\u00edl","name:ga":"An Bhrasa\u00edl","name:gd":"Braisil","name:gn":"Pindorama","maritime_boundary":true,"name:gv":"Yn Vrasseel","name:gu":"\u0aac\u0acd\u0ab0\u0abe\u0a9d\u0abf\u0ab2"},"arcs":[0]},{"type":"LineString","properties":{"name:ka":"\u10e1\u10d0\u10dc-\u10de\u10d0\u10e3\u10da\u10e3","name:ko":"\uc0c1\ud30c\uc6b8\ub8e8","name:cv":"\u0421\u0430\u043d-\u041f\u0430\u0443\u043b\u0443","name:kk":"\u0421\u0430\u043d-\u041f\u0430\u0443\u043b\u0443","name:tt":"\u0421\u0430\u043d-\u041f\u0430\u0443\u043b\u0443","name:kv":"\u0421\u0430\u043d-\u041f\u0430\u0443\u043b\u0443","name:th":"\u0e40\u0e0b\u0e32\u0e40\u0e1b\u0e32\u0e25\u0e39","name:pa":"\u0a38\u0a3e\u0a13 \u0a2a\u0a3e\u0a13\u0a32\u0a4b","name:os":"\u0421\u0430\u043d-\u041f\u0430\u0443\u043b\u0443","name:ce":"\u0421\u0430\u043d-\u041f\u0430\u0443\u043b\u0443","name:ta":"\u0b9a\u0bbe\u0bb5\u0bcb \u0baa\u0bbe\u0bb5\u0bc1\u0bb2\u0bcb","name:tg":"\u0421\u0430\u043d-\u041f\u0430\u0443\u043b\u0443","source":"openstreetmap.org","sort_rank":256,"name:sr":"\u0421\u0430\u043e \u041f\u0430\u0443\u043b\u043e","name:tr":"\u0421\u0430\u043d \u041f\u0430\u0443\u043b\u0443","name:dv":"\u0790\u07a6\u0787\u07ae \u0795\u07a6\u0787\u07aa\u078d\u07af","name:lv":"Sanpaulu","name:lt":"San Paulas","name:uz":"San-Paulu","name:he":"\u05e1\u05d0\u05d5 \u05e4\u05d0\u05d5\u05dc\u05d5","name:eo":"San-Pa\u016dlo","name:ur":"\u0633\u0627\u0624 \u067e\u0627\u0644\u0648","name:la":"Sanctus Paulus","name:uk":"\u0421\u0430\u043d-\u041f\u0430\u0443\u043b\u0443","name:hy":"\u054d\u0561\u0576 \u054a\u0561\u0578\u0582\u056c\u0578","name:ug":"San Pawlo","name:el":"\u03a3\u03ac\u03bf \u03a0\u03ac\u03bf\u03bb\u03bf","kind":"region","name":"S\u00e3o Paulo","name:tk":"San-Paulu","min_zoom":8.0,"name:yi":"\u05e1\u05d0\u05d5 \u05e4\u05d0\u05d5\u05dc\u05d0","name:yo":"Sao Paulo","name:ay":"San Pauluw","name:az":"San Paulo","name:mr":"\u0938\u093e\u0913 \u092a\u093e\u0909\u0932\u094b","name:ar":"\u0633\u0627\u0648 \u0628\u0627\u0648\u0644\u0648","name:io":"Sao Paulo","name:am":"\u1233\u12cd \u1353\u12cd\u1209","name:it":"San Paolo","name:ml":"\u0d38\u0d3e\u0d35\u0d4b \u0d2a\u0d4b\u0d33\u0d4b","name:ru":"\u0421\u0430\u043d-\u041f\u0430\u0443\u043b\u0443","name:ab":"\u0421\u0430\u043d-\u041f\u0430\u0443\u043b\u0443","id":-298204,"name:mk":"\u0421\u0430\u043e \u041f\u0430\u043e\u043b\u043e","name:fa":"\u0633\u0627\u0626\u0648\u067e\u0627\u0626\u0648\u0644\u0648","name:mn":"\u0421\u0430\u043d-\u041f\u0430\u0443\u043b\u0443","short_name":"SP","kind_detail":"4","name:hi":"\u0938\u093e\u0913 \u092a\u093e\u0909\u0932\u094b","name:zh":"\u5723\u4fdd\u7f57","name:ja":"\u30b5\u30f3\u30d1\u30a6\u30ed","name:sh":"Sao Paulo","name:ne":"\u0938\u093e\u0913 \u092a\u093e\u0909\u0932\u094b","name:sa":"\u0938\u093e\u0913 \u092a\u093e\u0913\u0932\u094b","name:wa":"Sawo P\u00e5lo","name:be":"\u0421\u0430\u043d-\u041f\u0430\u045e\u043b\u0443","name:bg":"\u0421\u0430\u043e \u041f\u0430\u0443\u043b\u043e","name:ba":"\u0421\u0430\u043d-\u041f\u0430\u0443\u043b\u0443","osm_relation":true,"name:bn":"\u09b8\u09be\u0981\u0989 \u09aa\u09be\u0989\u09b2\u09c1","name:gl":"San Paulo","maritime_boundary":true,"name:es":"San Pablo"},"arcs":[1]}]},"roads":{"type":"GeometryCollection","geometries":[{"type":"LineString","properties":{"kind":"major_road","network":"BR:SP","sort_rank":380,"kind_detail":"primary","source":"openstreetmap.org","min_zoom":8.0,"landuse_kind":"nature_reserve","shield_text":"121","id":203656269},"arcs":[38]},{"type":"LineString","properties":{"kind":"major_road","network":"BR","sort_rank":380,"kind_detail":"primary","source":"openstreetmap.org","min_zoom":8.0,"landuse_kind":"residential","shield_text":"101","ref":"BR-101","id":488122779},"arcs":[39]},{"type":"LineString","properties":{"kind":"ferry","name":"Balsa S\u00e3o Sebasti\u00e3o - Ilhabela","sort_rank":355,"is_bicycle_related":true,"official_name":"Travessia S\u00e3o Sebasti\u00e3o - Ilhabela","source":"openstreetmap.org","min_zoom":8.0,"id":42475060},"arcs":[40]},{"type":"MultiLineString","properties":{"kind":"highway","network":"BR","sort_rank":383,"landuse_kind":"urban_area","loc_name":"Dutra","source":"openstreetmap.org","min_zoom":8.0,"all_networks":["BR"],"kind_detail":"motorway","shield_text":"116","ref":"SP-060;BR-116","all_shield_texts":["116"]},"arcs":[[41],[42],[43],[44],[45],[46]]},{"type":"MultiLineString","properties":{"source":"openstreetmap.org","kind":"major_road","sort_rank":380,"kind_detail":"primary","ref":"SP-055;BR-101","min_zoom":8.0},"arcs":[[47],[48],[49],[50],[51],[52],[53],[54]]},{"type":"MultiLineString","properties":{"kind":"major_road","network":"BR:SP","sort_rank":380,"kind_detail":"primary","source":"openstreetmap.org","min_zoom":8.0,"landuse_kind":"urban_area","shield_text":"099","ref":"SP-099"},"arcs":[[55],[56],[57]]},{"type":"MultiLineString","properties":{"source":"openstreetmap.org","kind":"highway","sort_rank":383,"kind_detail":"motorway","ref":"SP-55","min_zoom":8.0},"arcs":[[58],[59]]},{"type":"MultiLineString","properties":{"source":"openstreetmap.org","kind":"major_road","sort_rank":380,"kind_detail":"primary","ref":"SP-088","min_zoom":8.0},"arcs":[[60],[61],[62],[63],[64],[65],[66],[67],[68],[69],[70],[71],[72],[73],[74],[75],[76],[77],[78],[79],[80],[81],[82],[83],[84],[85],[86],[87],[88],[89]]},{"type":"MultiLineString","properties":{"source":"openstreetmap.org","kind":"major_road","landuse_kind":"urban_area","sort_rank":380,"kind_detail":"primary","ref":"SP-055;BR-101","min_zoom":8.0},"arcs":[[90],[91],[92],[93],[94],[95],[96],[97],[98]]},{"type":"MultiLineString","properties":{"kind":"major_road","network":"BR:SP","sort_rank":380,"kind_detail":"primary","source":"openstreetmap.org","min_zoom":8.0,"landuse_kind":"nature_reserve","shield_text":"121","ref":"SP-121"},"arcs":[[99],[100],[101],[102]]},{"type":"LineString","properties":{"source":"openstreetmap.org","kind":"ferry","name":"Catraia Santos-Praia do G\u00f3es","sort_rank":355,"min_zoom":8.0,"id":478148362},"arcs":[103]},{"type":"MultiLineString","properties":{"sort_rank":380,"kind_detail":"primary","min_zoom":8.0,"kind":"major_road","source":"openstreetmap.org"},"arcs":[[104],[105],[106],[107],[108],[109],[110],[111],[112],[113],[114],[115],[116],[117],[118],[119],[120],[121],[122],[123],[124],[125],[126],[127],[128],[129],[130],[131],[132],[133],[134],[135],[136],[137],[138],[139],[140],[141],[142],[143],[144],[145],[146],[147],[148],[149],[150],[151],[152],[153],[154],[155],[156],[157],[158],[159],[160],[161],[162],[163],[164],[165],[166],[167],[168],[169],[170]]},{"type":"LineString","properties":{"kind":"major_road","sort_rank":380,"kind_detail":"primary","source":"openstreetmap.org","min_zoom":8.0,"loc_name":"Rodovia Mogi-Sales\u00f3polis","ref":"SP-088","id":169394287},"arcs":[171]},{"type":"LineString","properties":{"source":"openstreetmap.org","kind":"major_road","landuse_kind":"urban_area","sort_rank":380,"kind_detail":"primary","is_bicycle_related":true,"min_zoom":8.0},"arcs":[172]},{"type":"MultiLineString","properties":{"kind":"highway","network":"BR","sort_rank":383,"kind_detail":"motorway","source":"openstreetmap.org","min_zoom":8.0,"all_networks":["BR"],"shield_text":"065","ref":"SP-065","all_shield_texts":["065"]},"arcs":[[173],[174],[175],[176],[177],[178]]},{"type":"LineString","properties":{"kind":"highway","network":"BR","sort_rank":383,"kind_detail":"motorway","source":"openstreetmap.org","min_zoom":8.0,"all_networks":["BR"],"shield_text":"116","ref":"BR-116","id":42512460,"all_shield_texts":["116"]},"arcs":[179]},{"type":"MultiLineString","properties":{"source":"openstreetmap.org","kind":"major_road","landuse_kind":"urban_area","sort_rank":380,"kind_detail":"primary","ref":"SP-077","min_zoom":8.0},"arcs":[[180],[181],[182],[183],[184]]},{"type":"LineString","properties":{"kind":"major_road","sort_rank":380,"kind_detail":"primary","source":"openstreetmap.org","min_zoom":8.0,"old_name":"Estrada das Varinhas","landuse_kind":"urban_area","ref":"SP-039"},"arcs":[185]},{"type":"LineString","properties":{"kind":"major_road","sort_rank":380,"kind_detail":"primary","is_bicycle_related":true,"cycleway":"track","source":"openstreetmap.org","min_zoom":8.0,"id":42433654},"arcs":[186]},{"type":"MultiLineString","properties":{"kind":"highway","network":"BR","sort_rank":383,"landuse_kind":"nature_reserve","source":"openstreetmap.org","min_zoom":8.0,"all_networks":["BR"],"kind_detail":"motorway","shield_text":"065","ref":"SP-065","all_shield_texts":["065"]},"arcs":[[187],[188],[189],[190]]},{"type":"MultiLineString","properties":{"source":"openstreetmap.org","kind":"major_road","sort_rank":380,"kind_detail":"primary","ref":"SP-039","min_zoom":8.0},"arcs":[[191],[192],[193],[194],[195]]},{"type":"MultiLineString","properties":{"source":"openstreetmap.org","kind":"major_road","landuse_kind":"nature_reserve","sort_rank":380,"kind_detail":"primary","ref":"SP-088","min_zoom":8.0},"arcs":[[196],[197],[198]]},{"type":"MultiLineString","properties":{"kind":"major_road","network":"BR:SP","sort_rank":380,"kind_detail":"primary","source":"openstreetmap.org","min_zoom":8.0,"shield_text":"122","ref":"SP-122"},"arcs":[[199],[200]]},{"type":"LineString","properties":{"source":"openstreetmap.org","kind":"ferry","name":"Barca Santos-Ilha Diana","sort_rank":355,"min_zoom":8.0,"id":478533939},"arcs":[201]},{"type":"MultiLineString","properties":{"source":"openstreetmap.org","kind":"major_road","sort_rank":380,"kind_detail":"primary","ref":"SP-066","min_zoom":8.0},"arcs":[[202],[203],[204],[205],[206],[207],[208],[209],[210],[211],[212],[213]]},{"type":"LineString","properties":{"source":"openstreetmap.org","kind":"ferry","name":"Barca Santos-Vicente de Carvalho","sort_rank":355,"min_zoom":8.0,"id":496378138},"arcs":[214]},{"type":"MultiLineString","properties":{"source":"openstreetmap.org","kind":"major_road","sort_rank":380,"kind_detail":"primary","ref":"SP-031","min_zoom":8.0},"arcs":[[215],[216],[217],[218],[219],[220],[221],[222],[223],[224]]},{"type":"LineString","properties":{"source":"openstreetmap.org","kind":"major_road","sort_rank":380,"kind_detail":"primary","ref":"SP-88","min_zoom":8.0,"id":31869489},"arcs":[225]},{"type":"MultiLineString","properties":{"bus_network":"EMTU","sort_rank":380,"kind_detail":"primary","kind":"major_road","source":"openstreetmap.org","min_zoom":8.0,"bus_shield_text":"541","landuse_kind":"urban_area"},"arcs":[[226],[227],[228],[229]]},{"type":"MultiLineString","properties":{"kind":"major_road","network":"BR","sort_rank":380,"kind_detail":"primary","source":"openstreetmap.org","min_zoom":8.0,"landuse_kind":"urban_area","shield_text":"383","ref":"SP-125;BR-383"},"arcs":[[230],[231]]},{"type":"LineString","properties":{"source":"openstreetmap.org","kind":"major_road","sort_rank":380,"kind_detail":"primary","ref":"SPI 084\/066","min_zoom":8.0,"id":325017901},"arcs":[232]},{"type":"MultiLineString","properties":{"kind":"highway","network":"BR","sort_rank":383,"kind_detail":"motorway","source":"openstreetmap.org","min_zoom":8.0,"all_networks":["BR"],"shield_text":"101","ref":"SP-055;BR-101","all_shield_texts":["101"]},"arcs":[[233],[234],[235],[236],[237],[238]]},{"type":"MultiLineString","properties":{"source":"openstreetmap.org","kind":"major_road","sort_rank":380,"kind_detail":"primary","ref":"SP-099","min_zoom":8.0},"arcs":[[239],[240]]},{"type":"LineString","properties":{"source":"openstreetmap.org","kind":"major_road","sort_rank":380,"kind_detail":"primary","ref":"SP-056","min_zoom":8.0,"id":505212152},"arcs":[241]},{"type":"LineString","properties":{"kind":"major_road","network":"BR","sort_rank":380,"kind_detail":"primary","source":"openstreetmap.org","min_zoom":8.0,"landuse_kind":"urban_area","shield_text":"101","ref":"SP-055","id":230995708},"arcs":[242]},{"type":"LineString","properties":{"kind":"major_road","network":"BR","sort_rank":380,"kind_detail":"primary","source":"openstreetmap.org","min_zoom":8.0,"landuse_kind":"nature_reserve","shield_text":"101","ref":"SP-055;BR-101"},"arcs":[243]},{"type":"MultiLineString","properties":{"source":"openstreetmap.org","kind":"highway","landuse_kind":"nature_reserve","sort_rank":383,"kind_detail":"motorway","ref":"SP-070","min_zoom":8.0},"arcs":[[244],[245]]},{"type":"MultiLineString","properties":{"kind":"highway","network":null,"sort_rank":383,"kind_detail":"motorway","source":"openstreetmap.org","min_zoom":8.0,"all_networks":[null],"shield_text":"160","ref":"SP-160","all_shield_texts":["160"]},"arcs":[[246],[247]]},{"type":"LineString","properties":{"kind":"major_road","network":"BR:SP","sort_rank":380,"kind_detail":"primary","source":"openstreetmap.org","min_zoom":8.0,"shield_text":"102","ref":"SP-102","id":256608588},"arcs":[248]},{"type":"MultiLineString","properties":{"kind":"major_road","network":"BR","sort_rank":380,"kind_detail":"primary","source":"openstreetmap.org","min_zoom":8.0,"landuse_kind":"urban_area","shield_text":"101","ref":"BR-101"},"arcs":[[249],[250],[251]]},{"type":"MultiLineString","properties":{"kind":"major_road","network":"BR:SP","sort_rank":380,"kind_detail":"primary","source":"openstreetmap.org","min_zoom":8.0,"shield_text":"103","ref":"SP-103"},"arcs":[[252],[253],[254],[255],[256]]},{"type":"MultiLineString","properties":{"kind":"major_road","network":"BR","sort_rank":381,"kind_detail":"trunk","source":"openstreetmap.org","min_zoom":8.0,"shield_text":"101","ref":"SP-055;BR-101"},"arcs":[[257],[258],[259]]},{"type":"LineString","properties":{"kind":"major_road","network":"BR","sort_rank":381,"kind_detail":"trunk","source":"openstreetmap.org","min_zoom":8.0,"landuse_kind":"urban_area","shield_text":"101","id":178354637},"arcs":[260]},{"type":"MultiLineString","properties":{"kind":"major_road","network":"BR","sort_rank":380,"kind_detail":"primary","source":"openstreetmap.org","min_zoom":8.0,"shield_text":"101","ref":"BR-101;SP-055"},"arcs":[[261],[262],[263],[264]]},{"type":"LineString","properties":{"kind":"major_road","network":"BR:SP","sort_rank":380,"kind_detail":"primary","source":"openstreetmap.org","min_zoom":8.0,"landuse_kind":"urban_area","shield_text":"098"},"arcs":[265]},{"type":"MultiLineString","properties":{"kind":"major_road","network":"BR:SP","sort_rank":380,"kind_detail":"primary","source":"openstreetmap.org","min_zoom":8.0,"shield_text":"098","ref":"SP-098"},"arcs":[[266],[267],[268]]},{"type":"MultiLineString","properties":{"kind":"major_road","network":"BR","sort_rank":380,"kind_detail":"primary","source":"openstreetmap.org","min_zoom":8.0,"landuse_kind":"residential","shield_text":"101","ref":"SP-055;BR-101"},"arcs":[[269],[270],[271],[272]]},{"type":"MultiLineString","properties":{"source":"openstreetmap.org","kind":"major_road","landuse_kind":"urban_area","sort_rank":380,"kind_detail":"primary","ref":"SP-099","min_zoom":8.0},"arcs":[[273],[274]]},{"type":"MultiLineString","properties":{"source":"openstreetmap.org","kind":"highway","sort_rank":383,"kind_detail":"motorway","ref":"SP-070","min_zoom":8.0},"arcs":[[275],[276],[277],[278],[279],[280],[281],[282],[283],[284],[285],[286],[287],[288],[289],[290],[291],[292]]},{"type":"MultiLineString","properties":{"source":"openstreetmap.org","kind":"highway","landuse_kind":"urban_area","sort_rank":383,"kind_detail":"motorway","ref":"SP-55","min_zoom":8.0},"arcs":[[293],[294]]},{"type":"MultiLineString","properties":{"kind":"highway","network":"BR:SP","sort_rank":383,"landuse_kind":"nature_reserve","source":"openstreetmap.org","min_zoom":8.0,"all_networks":["BR:SP"],"kind_detail":"motorway","shield_text":"099","ref":"SP-099","all_shield_texts":["099"]},"arcs":[[295],[296],[297],[298],[299],[300],[301],[302],[303],[304],[305],[306],[307],[308],[309],[310],[311],[312],[313],[314]]},{"type":"MultiLineString","properties":{"kind":"highway","network":null,"sort_rank":383,"landuse_kind":"urban_area","source":"openstreetmap.org","min_zoom":8.0,"all_networks":[null],"old_name":"Via Anchieta","shield_text":"150","kind_detail":"motorway","ref":"SP-150;BR-050","all_shield_texts":["150"]},"arcs":[[315],[316]]},{"type":"LineString","properties":{"source":"openstreetmap.org","kind":"major_road","network":"BR:SP","sort_rank":380,"kind_detail":"primary","min_zoom":8.0,"shield_text":"098"},"arcs":[317]},{"type":"MultiLineString","properties":{"source":"openstreetmap.org","kind":"major_road","landuse_kind":"urban_area","sort_rank":380,"kind_detail":"primary","ref":"SP-056","min_zoom":8.0},"arcs":[[318],[319],[320],[321],[322],[323],[324]]},{"type":"MultiLineString","properties":{"kind":"major_road","network":"BR","sort_rank":380,"kind_detail":"primary","source":"openstreetmap.org","min_zoom":8.0,"landuse_kind":"urban_area","shield_text":"101","ref":"SP-055;BR-101"},"arcs":[[325],[326],[327],[328],[329],[330],[331],[332],[333],[334],[335],[336],[337],[338],[339],[340],[341],[342],[343],[344],[345],[346]]},{"type":"MultiLineString","properties":{"source":"openstreetmap.org","kind":"major_road","landuse_kind":"nature_reserve","sort_rank":380,"kind_detail":"primary","min_zoom":8.0},"arcs":[[347],[348],[349],[350],[351],[352]]},{"type":"LineString","properties":{"source":"openstreetmap.org","kind":"major_road","sort_rank":380,"kind_detail":"primary","ref":"SP-043","min_zoom":8.0},"arcs":[353]},{"type":"MultiLineString","properties":{"source":"openstreetmap.org","kind":"major_road","landuse_kind":"nature_reserve","sort_rank":380,"kind_detail":"primary","ref":"SP-056","min_zoom":8.0},"arcs":[[354],[355],[356]]},{"type":"MultiLineString","properties":{"source":"openstreetmap.org","kind":"highway","landuse_kind":"urban_area","sort_rank":383,"kind_detail":"motorway","min_zoom":8.0},"arcs":[[357],[358],[359],[360],[361],[362],[363]]},{"type":"MultiLineString","properties":{"source":"openstreetmap.org","kind":"major_road","landuse_kind":"urban_area","sort_rank":380,"kind_detail":"primary","ref":"SP-088","min_zoom":8.0},"arcs":[[364],[365],[366],[367],[368]]},{"type":"LineString","properties":{"source":"openstreetmap.org","cycleway_right":"track","sort_rank":381,"kind_detail":"trunk","min_zoom":8.0,"is_bicycle_related":true,"kind":"major_road"},"arcs":[369]},{"type":"MultiLineString","properties":{"source":"openstreetmap.org","kind":"major_road","landuse_kind":"urban_area","sort_rank":380,"kind_detail":"primary","ref":"SP-031","min_zoom":8.0},"arcs":[[370],[371],[372],[373],[374],[375],[376],[377],[378],[379],[380]]},{"type":"MultiLineString","properties":{"cycleway_right":"lane","sort_rank":380,"kind_detail":"primary","is_bicycle_related":true,"kind":"major_road","source":"openstreetmap.org","min_zoom":8.0,"landuse_kind":"urban_area","ref":"SP-099"},"arcs":[[381],[382]]},{"type":"MultiLineString","properties":{"kind":"major_road","network":"BR","sort_rank":380,"kind_detail":"primary","source":"openstreetmap.org","min_zoom":8.0,"shield_text":"383","ref":"SP-125;BR-383"},"arcs":[[383],[384],[385]]},{"type":"MultiLineString","properties":{"sort_rank":381,"source":"openstreetmap.org","min_zoom":8.0,"kind":"major_road","kind_detail":"trunk"},"arcs":[[386],[387],[388],[389],[390],[391],[392],[393],[394],[395],[396],[397],[398],[399],[400],[401],[402],[403],[404],[405],[406]]},{"type":"MultiLineString","properties":{"source":"openstreetmap.org","kind":"major_road","landuse_kind":"urban_area","sort_rank":380,"kind_detail":"primary","ref":"SP-098","min_zoom":8.0},"arcs":[[407],[408]]},{"type":"MultiLineString","properties":{"source":"openstreetmap.org","kind":"highway","landuse_kind":"urban_area","sort_rank":383,"kind_detail":"motorway","ref":"SP-021","min_zoom":8.0},"arcs":[[409],[410],[411],[412],[413],[414],[415],[416],[417],[418],[419],[420]]},{"type":"LineString","properties":{"source":"openstreetmap.org","kind":"major_road","sort_rank":380,"kind_detail":"primary","ref":"SP-055","min_zoom":8.0,"id":255449316},"arcs":[421]},{"type":"MultiLineString","properties":{"source":"openstreetmap.org","kind":"major_road","network":"BR:SP","sort_rank":380,"kind_detail":"primary","min_zoom":8.0,"shield_text":"103"},"arcs":[[422],[423]]},{"type":"MultiLineString","properties":{"source":"openstreetmap.org","kind":"highway","sort_rank":383,"kind_detail":"motorway","ref":"SP-055;BR-101","min_zoom":8.0},"arcs":[[424],[425]]},{"type":"MultiLineString","properties":{"kind":"major_road","network":"BR","sort_rank":380,"kind_detail":"primary","source":"openstreetmap.org","min_zoom":8.0,"shield_text":"101","ref":"BR-101"},"arcs":[[426],[427],[428],[429]]},{"type":"MultiLineString","properties":{"source":"openstreetmap.org","kind":"major_road","sort_rank":380,"kind_detail":"primary","ref":"SP-098","min_zoom":8.0},"arcs":[[430],[431]]},{"type":"MultiLineString","properties":{"source":"openstreetmap.org","kind":"major_road","sort_rank":380,"kind_detail":"primary","ref":"SP-077","min_zoom":8.0},"arcs":[[432],[433],[434],[435],[436],[437],[438],[439],[440],[441]]},{"type":"LineString","properties":{"kind":"major_road","network":"BR:SP","sort_rank":380,"kind_detail":"primary","source":"openstreetmap.org","min_zoom":8.0,"landuse_kind":"military","shield_text":"099","ref":"SP-099"},"arcs":[442]},{"type":"MultiLineString","properties":{"sort_rank":355,"landuse_kind":"nature_reserve","min_zoom":8.0,"kind":"ferry","source":"openstreetmap.org"},"arcs":[[443],[444],[445]]},{"type":"MultiLineString","properties":{"source":"openstreetmap.org","kind":"highway","landuse_kind":"nature_reserve","sort_rank":383,"kind_detail":"motorway","min_zoom":8.0},"arcs":[[446],[447],[448],[449],[450]]},{"type":"MultiLineString","properties":{"source":"openstreetmap.org","kind":"major_road","kind_detail":"trunk","sort_rank":381,"landuse_kind":"urban_area","min_zoom":8.0},"arcs":[[451],[452],[453],[454],[455],[456],[457],[458]]},{"type":"LineString","properties":{"kind":"major_road","sort_rank":380,"kind_detail":"primary","source":"openstreetmap.org","min_zoom":8.0,"old_name":"Rodovia Mogi-Dutra","ref":"SP-088","id":29595651},"arcs":[459]},{"type":"LineString","properties":{"source":"openstreetmap.org","kind":"major_road","old_name":"Estrada das Varinhas","sort_rank":380,"kind_detail":"primary","ref":"SP-039","min_zoom":8.0},"arcs":[460]},{"type":"LineString","properties":{"source":"openstreetmap.org","kind":"major_road","sort_rank":380,"kind_detail":"primary","ref":"SP-102","min_zoom":8.0},"arcs":[461]},{"type":"MultiLineString","properties":{"kind":"major_road","network":"BR","sort_rank":380,"kind_detail":"primary","source":"openstreetmap.org","min_zoom":8.0,"shield_text":"101","ref":"SP-055"},"arcs":[[462],[463],[464]]},{"type":"MultiLineString","properties":{"sort_rank":383,"kind_detail":"motorway","min_zoom":8.0,"kind":"highway","source":"openstreetmap.org"},"arcs":[[465],[466],[467],[468],[469],[470],[471],[472],[473],[474],[475],[476],[477],[478],[479],[480],[481],[482],[483],[484]]},{"type":"MultiLineString","properties":{"source":"openstreetmap.org","kind":"major_road","network":"BR","sort_rank":380,"kind_detail":"primary","min_zoom":8.0,"shield_text":"101"},"arcs":[[485],[486]]},{"type":"LineString","properties":{"source":"openstreetmap.org","kind":"ferry","name":"Barca Santos-Vicente de Carvalho","sort_rank":355,"landuse_kind":"urban_area","min_zoom":8.0,"id":496378138},"arcs":[487]},{"type":"MultiLineString","properties":{"source":"openstreetmap.org","kind":"highway","landuse_kind":"urban_area","sort_rank":383,"kind_detail":"motorway","ref":"SP-070","min_zoom":8.0},"arcs":[[488],[489],[490],[491]]},{"type":"MultiLineString","properties":{"kind":"major_road","sort_rank":380,"kind_detail":"primary","source":"openstreetmap.org","min_zoom":8.0,"old_name":"Estrada de Santa Isabel","landuse_kind":"urban_area","ref":"SP-056"},"arcs":[[492],[493],[494],[495],[496],[497],[498],[499],[500],[501],[502],[503],[504],[505],[506],[507],[508]]},{"type":"MultiLineString","properties":{"kind":"highway","network":null,"sort_rank":383,"kind_detail":"motorway","source":"openstreetmap.org","min_zoom":8.0,"all_networks":[null],"old_name":"Via Anchieta","shield_text":"150","ref":"SP-150;BR-050","all_shield_texts":["150"]},"arcs":[[509],[510],[511],[512]]},{"type":"MultiLineString","properties":{"kind":"highway","network":"BR","sort_rank":383,"kind_detail":"motorway","source":"openstreetmap.org","min_zoom":8.0,"all_networks":["BR"],"shield_text":"101","ref":"BR-101;SP-055","all_shield_texts":["101"]},"arcs":[[513],[514]]},{"type":"MultiLineString","properties":{"kind":"major_road","network":"BR:SP","sort_rank":380,"kind_detail":"primary","source":"openstreetmap.org","min_zoom":8.0,"landuse_kind":"urban_area","shield_text":"122","ref":"SP-122"},"arcs":[[515],[516],[517],[518]]},{"type":"LineString","properties":{"kind":"major_road","sort_rank":380,"kind_detail":"primary","source":"openstreetmap.org","min_zoom":8.0,"old_name":"Rodovia Mogi-Dutra","landuse_kind":"urban_area","ref":"SP-088","id":29595651},"arcs":[519]},{"type":"MultiLineString","properties":{"source":"openstreetmap.org","kind":"major_road","sort_rank":381,"kind_detail":"trunk","is_bicycle_related":true,"min_zoom":8.0,"cycleway":"track"},"arcs":[[520],[521]]},{"type":"LineString","properties":{"kind":"major_road","sort_rank":380,"kind_detail":"primary","source":"openstreetmap.org","min_zoom":8.0,"old_name":"Estrada Santa Isabel","landuse_kind":"urban_area","ref":"SP-056","id":410082840},"arcs":[522]},{"type":"LineString","properties":{"kind":"major_road","sort_rank":380,"kind_detail":"primary","source":"openstreetmap.org","min_zoom":8.0,"old_name":"Estrada S\u00e3o Paulo - Rio de Janeiro","landuse_kind":"urban_area","ref":"SP-066","id":198710874},"arcs":[523]},{"type":"MultiLineString","properties":{"source":"openstreetmap.org","kind":"highway","sort_rank":383,"kind_detail":"motorway","loc_name":"Ponte do Mar Pequeno","ref":"SP-160","min_zoom":8.0},"arcs":[[524],[525]]},{"type":"MultiLineString","properties":{"kind":"major_road","network":"BR","sort_rank":381,"landuse_kind":"urban_area","source":"openstreetmap.org","min_zoom":8.0,"kind_detail":"trunk","shield_text":"101","ref":"SP-055;BR-101"},"arcs":[[526],[527],[528],[529],[530],[531],[532],[533],[534]]},{"type":"MultiLineString","properties":{"source":"openstreetmap.org","kind":"major_road","landuse_kind":"urban_area","sort_rank":380,"kind_detail":"primary","min_zoom":8.0},"arcs":[[535],[536],[537],[538],[539],[540],[541],[542],[543],[544],[545],[546],[547],[548],[549],[550],[551],[552],[553],[554],[555],[556],[557],[558],[559],[560],[561],[562],[563],[564],[565],[566],[567],[568],[569],[570],[571],[572],[573],[574],[575],[576],[577],[578],[579],[580],[581],[582],[583],[584],[585],[586],[587],[588],[589],[590],[591],[592],[593],[594],[595],[596],[597],[598],[599],[600],[601],[602],[603],[604],[605],[606],[607],[608],[609],[610],[611],[612],[613],[614],[615],[616],[617],[618],[619],[620],[621],[622],[623],[624],[625],[626],[627],[628],[629],[630],[631],[632],[633],[634],[635],[636],[637],[638],[639],[640],[641],[642],[643],[644],[645],[646],[647],[648],[649],[650],[651],[652],[653],[654],[655],[656],[657],[658],[659],[660],[661],[662],[663],[664],[665],[666],[667],[668],[669],[670],[671],[672],[673],[674],[675],[676],[677],[678],[679],[680],[681],[682],[683]]},{"type":"MultiLineString","properties":{"source":"openstreetmap.org","kind":"major_road","landuse_kind":"residential","sort_rank":380,"kind_detail":"primary","ref":"SP-070","min_zoom":8.0},"arcs":[[684],[685]]},{"type":"MultiLineString","properties":{"kind":"major_road","network":"BR:SP","sort_rank":380,"kind_detail":"primary","source":"openstreetmap.org","min_zoom":8.0,"landuse_kind":"urban_area","shield_text":"098","ref":"SP-098"},"arcs":[[686],[687],[688],[689]]},{"type":"LineString","properties":{"source":"openstreetmap.org","kind":"ferry","name":"Barca Santos-Ilha Diana","sort_rank":355,"landuse_kind":"urban_area","min_zoom":8.0,"id":478533939},"arcs":[690]},{"type":"MultiLineString","properties":{"source":"openstreetmap.org","kind":"highway","sort_rank":383,"kind_detail":"motorway","ref":"SPI 179\/070","min_zoom":8.0},"arcs":[[691],[692],[693],[694],[695]]},{"type":"LineString","properties":{"kind":"major_road","network":"BR:SP","sort_rank":380,"kind_detail":"primary","source":"openstreetmap.org","min_zoom":8.0,"shield_text":"099","ref":"SP-099"},"arcs":[696]},{"type":"LineString","properties":{"kind":"highway","network":"BR:SP","sort_rank":383,"kind_detail":"motorway","source":"openstreetmap.org","min_zoom":8.0,"all_networks":["BR:SP"],"landuse_kind":"nature_reserve","shield_text":"099","id":330568174,"all_shield_texts":["099"]},"arcs":[697]},{"type":"MultiLineString","properties":{"kind":"highway","sort_rank":383,"kind_detail":"motorway","source":"openstreetmap.org","min_zoom":8.0,"landuse_kind":"urban_area","loc_name":"Ponte do Mar Pequeno","ref":"SP-160"},"arcs":[[698],[699]]},{"type":"MultiLineString","properties":{"source":"openstreetmap.org","kind":"major_road","landuse_kind":"urban_area","sort_rank":380,"kind_detail":"primary","ref":"SP-066","min_zoom":8.0},"arcs":[[700],[701],[702],[703],[704],[705],[706],[707],[708],[709],[710],[711],[712],[713],[714],[715],[716],[717],[718],[719],[720],[721],[722],[723],[724],[725],[726],[727],[728],[729],[730],[731],[732],[733],[734],[735],[736],[737],[738]]},{"type":"MultiLineString","properties":{"source":"openstreetmap.org","kind":"highway","sort_rank":383,"kind_detail":"motorway","ref":"SPA-248\/055","min_zoom":8.0},"arcs":[[739],[740]]},{"type":"MultiLineString","properties":{"kind":"major_road","network":"BR:SP","sort_rank":380,"kind_detail":"primary","source":"openstreetmap.org","min_zoom":8.0,"shield_text":"121","ref":"SP-121"},"arcs":[[741],[742],[743]]},{"type":"MultiLineString","properties":{"source":"openstreetmap.org","kind":"major_road","landuse_kind":"urban_area","sort_rank":380,"kind_detail":"primary","ref":"SP-070","min_zoom":8.0},"arcs":[[744],[745],[746],[747]]},{"type":"MultiLineString","properties":{"source":"openstreetmap.org","kind":"highway","sort_rank":383,"kind_detail":"motorway","ref":"SP-021","min_zoom":8.0},"arcs":[[748],[749]]},{"type":"MultiLineString","properties":{"kind":"highway","network":null,"sort_rank":383,"landuse_kind":"urban_area","source":"openstreetmap.org","min_zoom":8.0,"all_networks":[null],"kind_detail":"motorway","shield_text":"160","ref":"SP-160","all_shield_texts":["160"]},"arcs":[[750],[751]]},{"type":"LineString","properties":{"kind":"highway","network":"BR:SP","sort_rank":383,"landuse_kind":"urban_area","source":"openstreetmap.org","min_zoom":8.0,"all_networks":["BR:SP"],"kind_detail":"motorway","shield_text":"099","ref":"SP-099","all_shield_texts":["099"]},"arcs":[752]},{"type":"MultiLineString","properties":{"kind":"highway","network":"BR","sort_rank":383,"kind_detail":"motorway","loc_name":"Dutra","source":"openstreetmap.org","min_zoom":8.0,"all_networks":["BR"],"shield_text":"116","ref":"SP-060;BR-116","all_shield_texts":["116"]},"arcs":[[753],[754],[755],[756],[757]]},{"type":"LineString","properties":{"kind":"major_road","network":"BR:SP","sort_rank":380,"kind_detail":"primary","source":"openstreetmap.org","min_zoom":8.0,"landuse_kind":"nature_reserve","shield_text":"099","ref":"SP-099"},"arcs":[758]},{"type":"MultiLineString","properties":{"source":"openstreetmap.org","kind":"major_road","sort_rank":380,"kind_detail":"primary","ref":"SPA 172\/060","min_zoom":8.0},"arcs":[[759],[760]]},{"type":"MultiLineString","properties":{"kind":"major_road","network":"BR","sort_rank":380,"kind_detail":"primary","source":"openstreetmap.org","min_zoom":8.0,"shield_text":"101","ref":"SP-055;BR-101"},"arcs":[[761],[762],[763],[764],[765],[766],[767],[768],[769],[770],[771],[772],[773],[774],[775],[776],[777],[778],[779],[780],[781],[782],[783],[784],[785],[786],[787],[788],[789],[790],[791],[792],[793]]},{"type":"LineString","properties":{"kind":"major_road","sort_rank":380,"kind_detail":"primary","source":"openstreetmap.org","min_zoom":8.0,"loc_name":"Rodovia Mogi-Sales\u00f3polis","ref":"Sp-088","id":413695497},"arcs":[794]},{"type":"MultiLineString","properties":{"kind":"highway","network":"BR:SP","sort_rank":383,"kind_detail":"motorway","source":"openstreetmap.org","min_zoom":8.0,"all_networks":["BR:SP"],"shield_text":"099","ref":"SP-099","all_shield_texts":["099"]},"arcs":[[795],[796],[797],[798],[799],[800],[801],[802],[803]]},{"type":"MultiLineString","properties":{"kind":"major_road","sort_rank":380,"kind_detail":"primary","source":"openstreetmap.org","min_zoom":8.0,"old_name":"Rodovia Henrique Eroles","landuse_kind":"urban_area","ref":"SP-066"},"arcs":[[804],[805]]},{"type":"LineString","properties":{"kind":"major_road","network":"BR","sort_rank":380,"kind_detail":"primary","source":"openstreetmap.org","min_zoom":8.0,"landuse_kind":"nature_reserve","shield_text":"101","ref":"BR-101","id":160564491},"arcs":[806]},{"type":"LineString","properties":{"kind":"major_road","sort_rank":380,"kind_detail":"primary","source":"openstreetmap.org","min_zoom":8.0,"old_name":"Rodovia  Henrique Eroles","landuse_kind":"urban_area","ref":"SP-066","id":32012897},"arcs":[807]}]},"earth":{"type":"GeometryCollection","geometries":[{"type":"MultiPolygon","properties":{"sort_rank":10,"source":"naturalearthdata.com","min_zoom":0.0,"kind":"earth","area":80499245736},"arcs":[[[808]],[[809]],[[810]],[[811]]]}]},"landuse":{"type":"GeometryCollection","geometries":[{"type":"Polygon","properties":{"kind":"military","area":12852800,"sort_rank":45,"surface":"grass","source":"openstreetmap.org","min_zoom":8.0,"tier":3,"id":135453467},"arcs":[[812]]},{"type":"Polygon","properties":{"kind":"nature_reserve","area":138382000,"sort_rank":23,"operator":"Governo do Estado de S\u00e3o Paulo","source":"openstreetmap.org","min_zoom":7.0,"tier":2,"id":480875772},"arcs":[[813]]},{"type":"Polygon","properties":{"kind":"nature_reserve","protect_class":"5","area":1471020032,"sort_rank":23,"source":"openstreetmap.org","min_zoom":4.0,"tier":2,"id":493746478},"arcs":[[814]]},{"type":"MultiPolygon","properties":{"kind":"nature_reserve","protect_class":"5","area":103656597,"sort_rank":23,"operator":"Instituto Chico Mendes de Conserva\u00e7\u00e3o da Biodiversidade","source":"openstreetmap.org","min_zoom":8.0,"tier":2,"osm_relation":true},"arcs":[[[815]]]},{"type":"Polygon","properties":{"kind":"residential","name":"Riviera de S\u00e3o Louren\u00e7o","area":11421000,"sort_rank":20,"source":"openstreetmap.org","min_zoom":8.0,"tier":2,"id":466886740},"arcs":[[816]]},{"type":"MultiPolygon","properties":{"kind":"nature_reserve","protect_class":"5","area":2756325266,"sort_rank":23,"operator":"Instituto Chico Mendes de Conserva\u00e7\u00e3o da Biodiversidade","source":"openstreetmap.org","min_zoom":6.0,"tier":2,"osm_relation":true},"arcs":[[[817]],[[818]],[[819]]]},{"type":"MultiPolygon","properties":{"source":"naturalearthdata.com","kind":"urban_area","name":"","area":7051074573,"sort_rank":11,"min_zoom":4.0},"arcs":[[[820]],[[821]],[[822]],[[823]],[[824]],[[825]],[[826]],[[827]],[[828]],[[829]]]},{"type":"MultiPolygon","properties":{"kind":"residential","name":"Pimentas","area":17760000,"sort_rank":20,"source":"openstreetmap.org","min_zoom":8.0,"tier":2,"id":-2542862,"osm_relation":true},"arcs":[[[830]],[[831]]]}]}},"type":"Topology","transform":{"translate":[-46.40625,-24.5271348226],"scale":[0.0003433228,0.0003139133]},"arcs":[[[707,0],[457,179],[2539,1118],[393,283]],[[707,0],[457,179],[2539,1118],[393,283]],[[215,3191],[-5,2],[-3,3],[-10,25],[7,86],[-50,28],[-153,-45],[-1,1]],[[10,3291],[5,0]],[[57,3318],[4,3]],[[116,3339],[-7,-2]],[[167,3319],[5,-5]],[[195,3269],[1,7]],[[217,3190],[-5,2]],[[0,3127],[69,-27],[126,97],[260,-63],[162,74]],[[62,3098],[6,1]],[[110,3141],[2,2]],[[181,3190],[5,4]],[[284,3164],[5,-2]],[[42,2497],[-30,16],[-7,51],[-5,5]],[[41,2498],[3,-3],[1,-2]],[[0,3291],[2,0],[152,45],[50,-28],[-7,-87],[10,-25],[3,-3],[5,-2]],[[10,3291],[5,0]],[[57,3318],[4,3]],[[106,3337],[10,2]],[[173,3314],[-6,5]],[[196,3276],[-1,-7]],[[217,3190],[-5,2]],[[0,2569],[5,-5],[7,-51],[30,-16]],[[41,2498],[3,-3],[1,-2]],[[644,3222],[-188,-89],[-261,64],[-125,-97],[-70,26]],[[62,3098],[6,1]],[[110,3141],[2,2]],[[181,3190],[5,3]],[[284,3164],[5,-2]],[[0,1650],[25,-10],[17,-12],[11,-18],[5,-26],[30,17],[12,28],[0,75],[-14,23],[-34,3],[-39,0],[-13,3],[0,48],[5,-8],[14,-13],[24,-8],[49,-3],[26,-11],[30,35],[41,2],[144,-67],[1,38],[-32,66],[-43,56],[-7,17],[3,15],[-2,10],[-25,4],[-59,0],[-97,19],[-35,1],[12,-30],[3,-20],[-5,-16],[-10,-21],[-25,14],[-12,3],[0,86],[28,7],[27,28],[-6,56],[12,41],[79,-16],[0,-24],[-16,-26],[17,-21],[34,-13],[80,-12],[34,-21],[22,-31],[8,-39],[11,-28],[24,-32],[22,-36],[2,-45],[-24,-36],[-73,-28],[-22,-47],[86,-15],[58,34],[43,46],[55,32],[38,14],[40,5],[18,-16],[13,-28],[30,-5],[33,14],[25,30],[-9,29],[4,57],[11,62],[14,48],[28,46],[111,130],[-58,0],[-40,-19],[-109,-116],[-42,-27],[-47,-12],[-63,-2],[0,23],[88,27],[74,45],[59,63],[39,83],[20,0],[4,-16],[4,-7],[109,46],[56,30],[56,12],[67,-16],[31,1],[26,59],[30,29],[54,36],[98,40],[265,66],[118,5],[25,-7],[62,-28],[32,-9],[191,-7],[189,-60],[4,2],[56,-2],[14,-9],[12,-25],[14,-8],[30,-1],[99,21],[64,-18],[68,-87],[57,-25],[30,4],[59,31],[41,8],[25,-5],[23,-11],[27,-9],[35,3],[59,33],[34,55],[5,63],[-28,58],[-10,29],[23,70],[-3,42],[-19,16],[-27,4],[-23,13],[-11,43],[-4,35],[-16,68],[2,39],[13,34],[33,41],[12,36],[72,-21],[60,24],[56,39],[62,21],[18,14],[25,31],[31,31],[36,13],[31,-12],[43,-44],[35,-10],[85,37],[35,7],[29,16],[-7,34],[-31,59],[39,61],[50,-8],[56,-23],[54,13],[-15,42],[-4,55],[13,36],[36,-14],[31,-28],[33,-23],[33,-16],[34,-8],[-21,56],[17,19],[33,-18],[29,-57],[59,134],[45,36],[77,4],[-39,46],[-53,24],[-32,34],[23,72],[19,-32],[24,-2],[58,34],[20,6],[4,0],[0,-3579],[-4096,0],[0,1650]],[[3061,2316],[-188,-185],[-43,-29],[-37,-32],[-16,-45],[17,-68],[73,-71],[105,-10],[116,32],[105,49],[18,-23],[39,26],[29,-43],[25,-66],[28,-48],[18,-3],[15,0],[13,-4],[14,-15],[37,22],[13,11],[18,26],[1,15],[-9,13],[-5,42],[-12,34],[1,24],[37,9],[-3,14],[-4,10],[-14,21],[-99,-18],[-47,93],[16,94],[90,-16],[20,229],[-25,34],[-147,107],[-29,13],[-33,9],[-25,1],[-23,-14],[-7,-17],[-4,-21],[-15,-25],[-12,-22],[-20,-97],[-31,-56]],[[3647,2302],[15,-39],[33,5],[17,17],[38,0],[12,19],[-31,9],[-29,17],[-21,15],[-48,-10],[-12,-26],[26,-7]],[[4096,3579],[-4,0],[-20,-6],[-58,-34],[-24,2],[-19,32],[-23,-72],[32,-34],[53,-24],[39,-46],[-77,-4],[-45,-36],[-59,-134],[-29,57],[-33,18],[-17,-19],[21,-56],[-34,8],[-33,16],[-33,23],[-31,28],[-36,14],[-13,-36],[4,-55],[15,-42],[-54,-13],[-56,23],[-50,8],[-39,-61],[31,-59],[7,-34],[-29,-16],[-35,-7],[-85,-37],[-35,10],[-43,44],[-31,12],[-36,-13],[-31,-31],[-25,-31],[-18,-14],[-62,-21],[-56,-39],[-60,-24],[-72,21],[-12,-36],[-33,-41],[-13,-34],[-2,-39],[16,-68],[4,-35],[11,-43],[23,-13],[27,-4],[19,-16],[3,-42],[-23,-70],[10,-29],[28,-58],[-5,-63],[-34,-55],[-59,-33],[-35,-3],[-27,9],[-23,11],[-25,5],[-41,-8],[-59,-31],[-30,-4],[-57,25],[-68,87],[-64,18],[-99,-21],[-30,1],[-14,8],[-12,25],[-14,9],[-56,2],[-4,-2],[-189,60],[-191,7],[-32,9],[-62,28],[-25,7],[-118,-5],[-265,-66],[-98,-40],[-54,-36],[-30,-29],[-26,-59],[-31,-1],[-67,16],[-56,-12],[-56,-30],[-109,-46],[-4,7],[-4,16],[-20,0],[-39,-83],[-59,-63],[-74,-45],[-88,-27],[0,-23],[63,2],[47,12],[42,27],[109,116],[40,19],[58,0],[-111,-130],[-28,-46],[-14,-48],[-11,-62],[-4,-57],[9,-29],[-25,-30],[-33,-14],[-30,5],[-13,28],[-18,16],[-40,-5],[-38,-14],[-55,-32],[-43,-46],[-58,-34],[-86,15],[22,47],[73,28],[24,36],[-2,45],[-22,36],[-24,32],[-11,28],[-8,39],[-22,31],[-34,21],[-80,12],[-34,13],[-17,21],[16,26],[0,24],[-79,16],[-12,-41],[6,-56],[-27,-28],[-28,-7]],[[0,1733],[13,-3],[39,0],[34,-3],[14,-23],[0,-75],[-12,-28],[-30,-17],[-5,26],[-11,18],[-17,12],[-25,10]],[[3473,1977],[-3,14],[-4,10],[-14,21],[-99,-18],[-47,93],[16,94],[90,-16],[20,229],[-25,34],[-147,107],[-29,13],[-33,9],[-25,1],[-23,-14],[-7,-17],[-4,-21],[-15,-25],[-12,-22],[-20,-97],[-31,-56],[-188,-185],[-43,-29],[-37,-32],[-16,-45],[17,-68],[73,-71],[105,-10],[116,32],[105,49],[18,-23],[39,26],[29,-43],[25,-66],[28,-48],[18,-3],[15,0],[13,-4],[14,-15],[37,22],[13,11],[18,26],[1,15],[-9,13],[-5,42],[-12,34],[1,24],[37,9]],[[228,1914],[-59,0],[-97,19],[-35,1],[12,-30],[3,-20],[-5,-16],[-10,-21],[-25,14],[-12,3]],[[0,1781],[5,-8],[14,-13],[24,-8],[49,-3],[26,-11],[30,35],[41,2],[144,-67],[1,38],[-32,66],[-43,56],[-7,17],[3,15],[-2,10],[-25,4]],[[2664,3856],[-2,-2]],[[1161,2376],[-2,-1]],[[2939,2286],[61,-27]],[[296,3598],[-75,-18],[-221,-74]],[[0,3505],[296,93]],[[1094,3899],[20,5]],[[1114,3904],[35,8],[187,131],[61,53]],[[1397,4096],[-61,-52],[-93,-66],[-129,-74]],[[1114,3904],[-20,-7]],[[1323,2400],[-16,-1]],[[2905,2893],[-21,-13]],[[2892,2878],[1,1]],[[2895,2442],[-1,17]],[[2910,2892],[1,-4]],[[2927,2532],[-2,2]],[[902,2284],[8,4]],[[962,2310],[10,4]],[[1569,4096],[13,-17]],[[2858,2873],[-14,45]],[[2851,2882],[4,-4]],[[351,1917],[15,-45]],[[366,1871],[-15,46]],[[386,3495],[33,-23]],[[419,3472],[15,-11]],[[437,3463],[-18,9]],[[436,3460],[110,-203]],[[546,3257],[-107,203]],[[730,3145],[23,-51],[26,-13]],[[730,3145],[54,-63],[145,-21]],[[929,3061],[5,0]],[[934,3061],[5,1]],[[939,3062],[5,0]],[[934,3062],[0,-1]],[[934,3061]],[[939,3061],[0,1]],[[939,3062]],[[959,3062],[-15,0]],[[959,3062],[10,-5]],[[982,3051],[-13,6]],[[1000,3053],[-18,-2]],[[1091,3059],[-91,-6]],[[1043,3055],[48,4]],[[1129,3061],[-38,-2]],[[1134,3064],[-5,-3]],[[1258,3104],[-124,-40]],[[1258,3104],[6,2]],[[1275,3112],[-11,-6]],[[1275,3112],[12,-2]],[[1585,3195],[-89,15],[-53,-62],[-156,-38]],[[1598,3186],[7,-7]],[[1606,3179],[-7,8]],[[1606,3179],[264,6],[44,-22],[83,24],[124,-95],[247,31],[111,61]],[[2861,2871],[-1,1]],[[2884,2880],[-14,-6]],[[2905,2893],[5,-1]],[[2923,2403],[-2,6]],[[2937,2377],[-6,6]],[[3845,3483],[1,-1]],[[3847,3483],[-1,1]],[[3909,3391],[-1,-1]],[[3909,3389],[1,1]],[[2569,3932],[16,-4]],[[2661,3874],[3,-18]],[[2662,3854],[23,-38]],[[2774,3702],[28,-32]],[[301,1705],[-32,-20]],[[70,2407],[-3,11]],[[234,2793],[2,3]],[[278,1734],[34,-16]],[[311,1718],[-29,14]],[[325,1729],[0,2],[-22,57],[-4,5]],[[305,1779],[20,-49]],[[363,1877],[0,-1]],[[402,3482],[1,2]],[[439,3460],[-2,3]],[[442,2951]],[[444,2954],[-1,0]],[[557,2697]],[[557,2697]],[[571,2705],[1,-3]],[[572,2702]],[[572,2702],[1,1]],[[575,2701],[1,0]],[[708,2937],[-1,0]],[[707,2937],[-2,2]],[[708,2937],[-2,-1]],[[708,2938],[-1,-1]],[[707,2937]],[[708,2937]],[[708,2938],[51,32],[-10,53],[32,57]],[[708,2937],[0,1]],[[708,2935],[0,2]],[[712,2934],[-4,3]],[[779,3081],[5,1]],[[803,3357],[-11,-11]],[[792,3802],[0,1]],[[825,2830]],[[840,3700],[-3,0]],[[960,3857]],[[995,3430],[-4,-3]],[[995,3479],[2,4]],[[1011,3623],[1,0]],[[1012,3624],[-1,0]],[[1012,3623],[0,-1]],[[1013,3678],[3,2]],[[1016,3680],[2,1]],[[1016,3680]],[[1016,3680],[-1,0]],[[1025,3686],[-3,-2]],[[1029,3688],[-4,-2]],[[1025,3686],[6,3]],[[1090,3923],[-51,28]],[[1106,3702],[1,-1]],[[1108,3702],[-1,1]],[[1504,3609],[-29,84]],[[1517,3196],[9,1]],[[1598,3187],[1,0]],[[2845,2771],[0,2],[35,78],[-2,-1]],[[2847,2776],[0,-2]],[[2896,2890],[11,2]],[[2925,2534],[-3,1]],[[2935,2290],[3,-2]],[[2938,2288],[-3,2]],[[2938,2288],[1,-2]],[[3142,3009],[1,0]],[[3143,3009],[-1,1]],[[1003,3528],[2,-2]],[[2540,3978],[1,0],[0,1],[-1,-1]],[[3100,2962],[1,0],[-1,1],[0,-1]],[[3104,2968],[1,0],[-1,1],[0,-1]],[[3251,3048],[1,1],[-1,0],[0,-1]],[[3305,3062],[-1,0],[1,-1],[0,1]],[[3314,3062],[-1,1],[-1,-1],[1,0],[1,0]],[[1599,3187],[-14,8]],[[198,1897],[0,1]],[[834,4096],[18,-13]],[[852,4084],[-15,12]],[[1152,3740],[-55,90],[-37,22],[-16,99],[-31,52],[-16,17],[-5,7],[-21,23]],[[971,4050],[-4,5]],[[967,4055],[4,-5]],[[971,4050],[20,-23],[1,-2],[21,-22],[31,-51],[16,-100],[89,-114]],[[739,3782],[-14,-8]],[[1318,3917],[37,-39]],[[1355,3878],[-2,3]],[[1355,3878],[1,-3]],[[1356,3875],[9,-1]],[[1365,3874],[19,-5]],[[438,3064],[-6,58]],[[2878,2850],[-33,-77]],[[852,4083],[68,-38],[3,2],[27,28]],[[950,4075],[0,1],[17,-21]],[[967,4055],[-17,20]],[[950,4075],[-2,2],[-28,-32],[-68,39]],[[440,3037],[3,-60]],[[441,2949],[4,7]],[[441,2949],[7,-116],[109,-135]],[[443,2977],[4,-5]],[[447,2972],[-2,-16]],[[2479,3184],[46,25]],[[2525,3209],[2,1]],[[2527,3211],[-2,-2]],[[14,2487],[5,-10]],[[21,2473],[58,-78],[105,20],[113,-29]],[[254,1906],[34,18],[-3,25]],[[792,3346],[124,45],[35,-11],[3,34],[41,15],[-13,31],[24,62]],[[1002,3532],[-23,49],[30,39]],[[1009,3620],[0,8]],[[1009,3628],[13,56],[81,12]],[[1103,3696],[8,9]],[[1111,3705],[30,24]],[[1161,3746],[-20,-17]],[[1161,3746],[13,40]],[[1174,3786],[10,22]],[[1184,3808],[4,5]],[[1188,3813],[2,3]],[[1190,3816],[-2,-3]],[[263,1883],[21,-12]],[[27,2830],[75,-47],[-31,-59]],[[115,2690],[50,33]],[[165,2723],[5,7]],[[239,2804],[-69,-74]],[[248,2818],[-9,-14]],[[254,2887],[-25,-19],[19,-50]],[[254,2887],[6,5]],[[278,2938],[-18,-46]],[[286,2999],[-8,-61]],[[278,2938],[9,62]],[[434,3461],[2,-1]],[[243,3607],[-32,-6]],[[211,3600],[32,6]],[[209,3600],[1,-1],[1,0],[0,2]],[[211,3601],[-2,-1]],[[3846,3484],[-56,4]],[[3790,3487],[8,-13],[47,9]],[[1025,3687],[0,43]],[[318,1988],[-2,4],[-51,56],[-3,2],[-22,27],[-62,23],[-1,1],[-12,21],[-2,2],[-86,37],[-38,6],[-1,-1]],[[38,2166],[-38,-38]],[[0,2133],[31,34],[7,-1]],[[38,2166],[16,-6],[23,1],[86,-37],[14,-25],[88,-52],[52,-59]],[[336,1956],[1,-1]],[[336,1956]],[[2767,3000],[-7,8]],[[2850,2933],[-5,-15]],[[302,3647],[-15,-9]],[[2921,2304],[-1,-1]],[[3782,3304],[-30,-25]],[[1749,4037],[-139,-59],[-29,-23],[-24,-24]],[[1557,3931],[33,31],[75,30],[6,5],[15,9],[19,7],[2,1],[22,7],[20,16]],[[15,1765],[-2,-11]],[[14,1754],[1,11]],[[706,2934],[-114,-56],[14,-87],[-34,-54],[6,-37]],[[3850,3489],[-4,-5]],[[3847,3483],[3,6]],[[3883,3529],[-33,-40]],[[1984,3854],[-1,0]],[[1974,4096],[1,-1],[41,-46],[65,3]],[[1984,3854],[3,2]],[[2069,4016],[-82,-160]],[[2081,4039],[-11,-21]],[[2836,2613],[44,-62],[-48,63]],[[2916,2890]],[[2975,2908],[19,6],[-19,-7]],[[2813,2673],[1,2]],[[337,1955],[4,-5]],[[354,1954],[-17,1]],[[342,1950],[12,4]],[[377,1976],[-23,-22]],[[648,3112],[0,-3]],[[624,3053],[80,-113]],[[674,2990],[31,-51]],[[712,2934],[71,-40],[146,-263],[174,-25],[-56,-118],[29,-63],[-60,-50],[-2,-66]],[[1095,2354],[-56,-18]],[[1095,2354],[12,4]],[[1159,2375],[-52,-17]],[[1165,2377],[-4,-1]],[[2845,2918],[0,-29]],[[2860,2872],[-2,1]],[[329,3454],[60,-2]],[[389,3452],[8,0],[1,0],[67,15],[127,65],[1,1],[36,31]],[[629,3564],[54,47],[5,4]],[[688,3615],[3,1],[1,1],[43,24],[3,2]],[[738,3643],[29,23]],[[767,3666],[5,3],[54,50],[26,9],[36,-9],[106,6],[30,13],[24,17],[1,0],[28,12]],[[1077,3767],[7,3],[6,-1]],[[1090,3769],[8,-3],[1,0],[8,-2],[97,-4],[108,13],[43,16],[49,24],[21,11],[57,52],[9,13],[46,22],[20,20]],[[1557,3931],[-61,-32],[-92,-85],[-92,-40],[-221,-5],[-1,0]],[[1090,3769],[-13,-2]],[[1077,3767],[-17,-2],[-66,-39],[-141,2],[-27,-8],[-18,-15],[-35,-33],[-2,-2],[-4,-4]],[[767,3666],[-15,-15],[-12,-7],[-2,-1]],[[738,3643],[-3,-2],[-37,-20],[-8,-4],[-2,-2]],[[688,3615],[-59,-51]],[[629,3564],[-36,-31],[-1,0],[-127,-65],[-67,-15],[-1,0],[-8,-1]],[[389,3452],[-59,-4]],[[1797,4096],[-48,-59]],[[1749,4037],[68,59]],[[366,1872],[45,-141]],[[413,1732],[-47,139]],[[1759,3962],[-37,40],[-9,7],[-14,10],[-57,38],[-49,18]],[[1596,4073],[163,-111]],[[1829,3917],[37,-40],[70,-41],[11,4]],[[1865,3879],[-36,39]],[[1947,3840],[-81,37]],[[2004,3807],[66,-96],[87,-45]],[[2157,3666],[-13,17],[-74,29],[-66,95]],[[2375,3386],[15,-42],[5,-6],[25,-15],[2,-4]],[[2422,3319],[-1,4],[-30,21],[-16,47]],[[2509,3224],[16,-10]],[[2525,3214],[1,0],[0,-1]],[[2526,3213],[2,-3]],[[2528,3210],[1,-2],[10,-41]],[[2539,3167],[3,-12],[28,-51]],[[2570,3104],[21,-14],[-17,4],[-4,10]],[[2570,3104],[-6,16],[-15,29],[-7,7],[-3,11]],[[2539,3167],[-11,43]],[[2528,3210],[-1,2],[-1,1]],[[2526,3213],[-1,1]],[[2525,3214],[-14,13]],[[37,1910],[2,-1],[108,-7]],[[147,1903],[-13,2],[-87,5],[-8,-1],[-2,1]],[[704,2940],[8,-6]],[[119,3314],[0,-1]],[[225,3505],[1,0]],[[243,3606],[13,-18]],[[268,3628],[-25,-21]],[[255,3588],[1,-2]],[[287,3638],[-13,-7]],[[203,3384],[1,-1],[1,2],[-1,0],[-1,-1]],[[2905,2258],[-49,-25],[-32,17]],[[2863,2872],[-22,-46]],[[2841,2825],[22,47]],[[2882,2876],[-19,-4]],[[2903,2283],[0,-15]],[[2903,2268],[2,-10]],[[2903,2283],[5,4]],[[2905,2432],[20,-35]],[[2911,2292],[-3,-5]],[[2911,2292],[20,46]],[[2920,2303],[-9,-11]],[[2931,2338],[-10,-34]],[[2925,2397],[1,-5]],[[2926,2392],[7,-49]],[[2932,2339],[-1,-1]],[[2933,2343],[-1,-4]],[[3842,3477],[5,6]],[[3846,3484],[-4,-7]],[[3842,3477],[64,-83]],[[3906,3394],[6,-7]],[[3912,3387],[1,-10]],[[3913,3377],[-2,-2]],[[409,3710],[-9,-1]],[[441,3719],[-5,-2]],[[491,3809],[4,2]],[[500,3823],[26,35],[-14,34]],[[512,3892],[-3,0]],[[512,3892]],[[557,2697],[15,5]],[[511,3836],[-44,-40],[1,-66],[-166,-83]],[[524,3857],[-12,-20]],[[569,4096],[-41,-28],[-47,-101],[31,-75]],[[0,1702],[17,23]],[[16,1725],[-16,-17]],[[196,3409],[-13,-3]],[[1583,4079],[-17,11]],[[1566,4090],[-5,3]],[[1561,4093],[5,-3]],[[1566,4090],[22,-12]],[[266,3578],[6,1]],[[546,3257],[36,-17]],[[583,3241],[-37,16]],[[679,3219],[51,-74]],[[730,3145],[-41,77]],[[2936,2877],[31,-19]],[[0,2825],[27,5]],[[0,2564],[1,1]],[[1,2565],[7,8]],[[8,2573],[4,5]],[[12,2578],[85,100]],[[71,2724],[-32,-55]],[[99,2684],[-2,-6]],[[99,2684],[16,6]],[[300,3043],[-14,-42],[0,-2]],[[287,3000],[13,43]],[[309,3081],[-9,-38]],[[2845,2889],[6,-7]],[[2855,2878],[5,-8]],[[3775,3509],[-32,97],[21,81],[-30,4],[-10,46],[-130,-121],[-105,123],[-31,-14],[-164,56],[-31,214],[-58,101]],[[3775,3509],[15,-22]],[[3790,3488],[-15,21]],[[2880,2851],[11,16]],[[2936,2877],[-44,-10]],[[2931,2886],[7,-5]],[[2938,2881],[1,-3]],[[2938,2881],[0,1]],[[2938,2882],[-5,3]],[[2935,2877],[1,0]],[[2939,2883],[-1,-1]],[[2938,2882],[0,-1]],[[2938,2881],[-2,-4]],[[2938,2878],[-2,-1]],[[2938,2881],[1,2]],[[2939,2879],[-1,2]],[[2957,2873],[-19,8]],[[2968,2858],[-10,14]],[[2940,2878],[-1,1]],[[2939,2879],[-1,-1]],[[2938,2878],[1,-1],[1,1]],[[2957,2871],[1,1]],[[2958,2872],[-1,1]],[[2957,2873],[0,-1],[0,-1]],[[649,3112],[-27,39]],[[625,3053],[16,25]],[[32,2739],[-22,-51],[-10,-6]],[[0,2679],[10,9],[23,50]],[[134,3526],[20,-83],[12,-34],[3,-7]],[[169,3402],[2,-5],[5,-5]],[[172,3398],[-3,5]],[[169,3403],[-2,6],[-12,34],[-21,86]],[[172,3398],[-1,1]],[[183,3050],[3,9],[41,127],[-26,92],[22,54],[-17,42],[-34,24]],[[173,3403],[21,3],[7,8]],[[199,3413],[-16,-7],[-7,-1],[-6,-2],[-1,0]],[[169,3403],[0,-1]],[[169,3402],[-2,0],[-1,-5],[57,-65],[-23,-53],[27,-93],[-45,-136]],[[3113,2978],[4,3]],[[2081,4052],[-1,-10]],[[2080,4042],[1,-3]],[[341,1948],[-5,8]],[[337,1955],[4,-7]],[[3922,3563],[-39,-34]],[[3922,3563],[3,-5]],[[3990,3533],[-65,25]],[[4096,3617],[-62,-23],[2,-43],[-20,-8]],[[674,2990],[-49,63]],[[835,2815],[-28,36]],[[1384,3869],[19,-5]],[[1403,3864],[2,-2]],[[1406,3863],[-3,1]],[[1405,3829],[0,31]],[[1405,3829],[2,-28]],[[1405,3860],[1,2]],[[1405,3862],[0,-2]],[[1475,3693],[-68,108]],[[1406,3862],[-1,1],[0,-1]],[[1405,3862],[1,-1],[0,1]],[[1569,4096]],[[2294,3645],[-17,-26]],[[2443,3455],[41,0]],[[2749,3595],[9,44],[6,-30]],[[1559,4096],[2,-3]],[[1561,4093],[-1,3]],[[1593,4075],[3,-2]],[[2071,3709],[0,1],[-1,-1],[1,0]],[[2072,3712],[1,0],[0,1],[-1,0],[0,-1]],[[1100,3899],[31,8]],[[1120,3905],[-17,-4]],[[2922,2892],[-16,11]],[[2906,2902],[14,-10]],[[2922,2891],[9,-5]],[[2933,2885],[-9,6]],[[2945,2898],[-6,-15]],[[2939,2883],[6,14]],[[305,3560],[81,-65]],[[440,3037],[-2,27]],[[572,2702],[67,24]],[[1339,2402],[-2,0]],[[1354,2408],[-2,0]],[[2560,2256]],[[650,3742],[11,2]],[[713,3767],[-29,-14]],[[697,3758],[10,5]],[[722,3633],[18,10]],[[752,3789],[-11,-6]],[[771,3799],[20,11]],[[791,3810]],[[791,3810],[4,2]],[[802,3817],[-11,-6]],[[791,3811]],[[791,3811],[-6,-4]],[[790,3812],[1,-1]],[[791,3811],[0,-1]],[[791,3810],[1,-1]],[[792,3810],[0,-1],[-1,1]],[[791,3810],[0,1]],[[791,3811],[0,1],[1,0]],[[1588,4078],[5,-3]],[[2345,3425],[0,1],[-1,-1],[1,0]],[[2346,3428],[0,1],[0,-1]],[[3142,3010],[0,-1]],[[3143,3009]],[[238,1897],[25,-14]],[[330,3448],[-58,-5]],[[272,3443],[-36,-2],[-84,-64]],[[152,3376],[49,38],[71,29]],[[272,3443],[26,12],[31,-1]],[[155,3332],[-7,-3]],[[148,3329],[-9,-5],[-23,-7]],[[119,3314],[21,10],[8,5]],[[148,3329],[8,5],[1,2]],[[157,3336],[4,6]],[[159,3343],[-2,-7]],[[167,3356],[-6,-11]],[[203,3384],[-36,-27]],[[215,3390],[-10,-5]],[[207,3386],[8,4]],[[221,3410],[-6,-20]],[[220,3402],[1,8]],[[221,3410],[16,38]],[[237,3460],[-11,43]],[[226,3508],[39,64]],[[237,3460],[0,-12]],[[256,3586],[5,-6]],[[0,1928],[23,-11]],[[23,1917],[14,-7]],[[37,1910],[-14,7]],[[23,1917],[-23,11]],[[317,1988],[19,-32]],[[336,1956],[-18,32]],[[4,2561],[-4,-8]],[[0,2511],[10,-17]],[[10,2494],[3,-6]],[[13,2488],[1,-1]],[[279,3581],[26,-21]],[[2885,2858],[7,9]],[[2892,2867],[43,10]],[[273,3631],[-5,-3]],[[262,3175],[-44,40]],[[13,1754],[2,-20]],[[16,1734],[-2,20]],[[2832,2614],[-26,44],[7,15]],[[2813,2673]],[[2814,2675],[27,150]],[[2841,2826],[-29,-153],[1,0]],[[2813,2673],[23,-60]],[[2975,2907],[-3,-1],[-4,-1]],[[2968,2905],[-1,0],[-51,-15]],[[2916,2890],[51,15],[1,0]],[[2968,2905],[7,3]],[[0,2568],[0,-1]],[[36,2540],[-28,36]],[[148,1902],[-82,-109]],[[68,1792],[18,13]],[[86,1804],[62,98]],[[100,3539],[1,7],[26,37],[82,17]],[[101,3545],[26,37],[82,17]],[[120,3317],[-6,0]],[[173,1901],[-26,2]],[[148,1902],[50,-5],[10,-10],[6,-6]],[[214,1881]],[[214,1881],[5,1]],[[171,1900],[-23,2]],[[156,3334],[-1,-2]],[[161,3342],[0,2]],[[206,1849],[2,10],[2,12],[4,10]],[[214,1881],[1,1],[-20,18],[-24,0]],[[203,3229],[-8,8]],[[199,3381],[5,2]],[[214,1882],[0,-1]],[[214,1881],[-4,-9],[-5,-24]],[[205,3385],[2,1]],[[210,3599],[29,-54]],[[240,3546],[-29,53]],[[219,3400],[1,2]],[[226,3505],[-1,0]],[[229,3606]],[[231,3606]],[[239,3545],[-1,-2]],[[240,3546],[-1,-1]],[[241,3545],[-1,1]],[[256,3586],[-12,20]],[[244,3606],[1,1]],[[252,3554],[1,1]],[[257,3560],[-4,-5]],[[256,3588],[-1,0]],[[275,3166],[-1,0]],[[274,3166],[-2,2],[-1,1],[-9,6]],[[264,3578],[-1,-1]],[[263,3576],[1,0]],[[264,3576],[0,2]],[[264,1879],[-1,-5],[0,-2]],[[263,1872],[12,-41],[15,-24]],[[290,1807],[1,-3]],[[292,1804],[-2,3]],[[290,1807],[-32,32],[5,33]],[[263,1872],[1,7]],[[268,3628],[5,2]],[[274,3166]],[[274,3166],[0,1]],[[274,3631],[2,0]],[[282,1732],[-35,30],[-8,5],[-26,9],[-4,0]],[[209,1776],[-59,4]],[[150,1780],[-6,0],[-37,-12],[37,11],[6,1]],[[150,1780],[17,1],[26,-1],[16,-4]],[[209,1776],[4,0],[26,-10],[39,-32]],[[291,1804],[14,-25]],[[299,1793],[-8,11]],[[323,1722],[-12,-4]],[[312,1718],[13,2],[-1,3]],[[323,1722],[1,4]],[[324,1726],[-1,-4]],[[324,1726]],[[325,1730],[-1,-4]],[[324,1726],[1,3]],[[402,3139],[-5,1]],[[399,1778],[11,4]],[[402,3139],[2,-1]],[[434,3132],[-30,6]],[[410,1782],[31,-23]],[[441,1759],[-31,23]],[[412,1729],[2,-1]],[[414,1728],[2,2]],[[414,1728],[0,2]],[[416,1730],[-2,0]],[[416,1730],[25,28]],[[432,3132],[2,0]],[[467,3133],[-33,-1]],[[464,3130],[8,5]],[[541,3158]],[[541,3158],[-25,-13]],[[540,3174],[-12,-6]],[[529,3166],[6,-3],[6,-5]],[[541,3158]],[[541,3158]],[[541,3158],[3,-3],[7,-8],[10,-9],[28,-19],[46,-51]],[[529,3167],[12,7]],[[638,3071],[-48,48],[-38,28],[-7,8],[-4,3]],[[541,3158]],[[541,3158],[-6,6],[-5,3]],[[534,3219],[2,1]],[[534,3219],[-2,-28],[8,-16]],[[541,3175],[-6,44]],[[547,3254],[-12,-34]],[[536,3219],[30,8]],[[566,3228],[-30,-8]],[[577,3238],[-11,-10]],[[566,3228],[12,10]],[[587,3242],[-3,-1],[-1,-1]],[[583,3240],[-1,0]],[[582,3240],[-1,0],[-3,-1]],[[578,3238],[9,3]],[[582,3240]],[[582,3240]],[[583,3240]],[[583,3240],[0,1]],[[588,3242],[19,5]],[[622,3091],[-1,0]],[[625,3080]],[[635,3070],[1,-1]],[[647,3131],[-1,1]],[[649,3111],[0,1]],[[708,3266],[-57,-37]],[[651,3228],[57,37]],[[659,3270],[-1,0]],[[672,3269],[-13,1]],[[710,3266],[-1,0]],[[792,3346],[-80,-79]],[[1115,3903],[-25,20]],[[1122,3904],[-5,-2]],[[1240,3878],[0,2]],[[1317,3921],[-1,1]],[[1353,3881],[-37,40]],[[2907,2892],[3,2]],[[2914,2297],[2,-1]],[[2920,2294],[-6,4]],[[2920,2303],[2,-3],[13,-10]],[[2935,2290],[-12,11]],[[215,3215],[0,-1],[3,2],[-3,-1]],[[243,3606],[1,0]],[[244,3606],[-1,1],[0,-1]],[[272,3579],[3,0],[4,2],[-4,0],[-3,-2]],[[273,3630],[1,0],[0,1]],[[274,3631],[-1,0],[0,-1]],[[528,3167],[1,-1],[1,1]],[[530,3167],[-1,1],[-1,-1]],[[540,3174],[1,0],[0,1],[-1,-1]],[[542,3159],[-1,0],[0,-1]],[[541,3158]],[[541,3158]],[[541,3158]],[[541,3158],[1,0],[0,1]],[[566,3228],[-1,0],[1,-1],[0,1]],[[578,3239],[-1,-1],[1,0],[0,1]],[[588,3242],[-1,0],[0,-1],[1,0],[0,1]],[[607,3247]],[[620,3263],[0,1],[-1,-1],[1,0]],[[640,3274],[1,0],[-1,0]],[[1229,3867],[0,1],[-1,0],[0,-1],[1,0]],[[3,3369],[-3,0]],[[0,3369],[3,-1]],[[622,3151],[26,-39]],[[635,3068],[-11,-15]],[[648,3109],[-13,-42]],[[641,3078],[8,33]],[[238,1897],[16,9]],[[815,3824],[-25,-12]],[[790,3688],[14,23]],[[804,3711],[15,26],[-7,85]],[[792,3809],[16,-25],[-4,-73]],[[804,3711],[0,-8]],[[2671,3048],[89,-40],[6,-24],[42,1],[-18,-45],[48,22],[6,-44]],[[1866,3877],[-1,2]],[[15,1734],[1,-9]],[[17,1725],[-1,9]],[[114,3317],[-19,1],[-2,3],[-2,0]],[[91,3321],[-6,0],[4,1],[2,-1]],[[91,3321],[1,-1],[3,-2],[18,-3]],[[118,3312],[26,-28]],[[144,3283],[42,-38]],[[186,3246],[-41,38]],[[187,3244],[8,-8]],[[195,3237],[-8,8]],[[217,3217],[-14,12]],[[262,3175],[32,-16]],[[294,3159],[50,-20],[58,-1]],[[344,3139],[-50,20]],[[397,3140],[-4,1],[-36,-1]],[[404,3137],[60,-7]],[[515,3144],[-43,-9],[-5,-2]],[[472,3135],[43,9]],[[516,3144],[25,14]],[[606,3247],[-18,-5]],[[619,3263],[-12,-15]],[[607,3247],[13,16]],[[640,3274],[-20,-10]],[[620,3263],[38,7]],[[658,3270],[-17,5]],[[659,3270],[47,-4]],[[712,3267],[80,79]],[[1191,3819],[-1,-3]],[[1190,3816],[1,3]],[[1191,3819],[12,15]],[[1199,3872],[29,-4]],[[1251,3882],[-52,-9]],[[1207,3839],[-4,-5]],[[1207,3839],[7,12]],[[1214,3851],[3,4]],[[1217,3855],[10,10]],[[1227,3865],[2,2]],[[1228,3867],[-1,-2]],[[1229,3867],[22,15]],[[1256,3885],[-5,-3]],[[516,3144],[0,1],[-1,0],[0,-1],[1,0]],[[341,1948],[10,-31]],[[351,1917],[-10,31]],[[2644,4096],[-26,-47],[-72,-19],[-7,-48],[30,-50]],[[2585,3928],[68,6],[8,-60]],[[2685,3816],[28,-53],[37,8],[-8,-32],[32,-37]],[[3,3368],[149,8]],[[103,3381],[-56,-5],[-44,-7]],[[120,3377],[-17,4]],[[152,3377],[-32,0]],[[182,3050],[-6,-14],[-24,-96],[-104,-117],[-15,-36],[-1,-16],[3,-24],[-3,-8]],[[33,2738],[3,9],[-2,40],[15,36],[103,117],[31,110]],[[0,1793],[15,-28]],[[15,1765],[-15,29]],[[1588,4077],[-5,2]],[[725,3774],[-124,-31],[-305,-145]],[[296,3598],[305,145],[122,30],[117,64],[80,7],[111,41],[4,1]],[[1035,3886],[59,13]],[[1094,3897],[-13,-4],[-46,-7]],[[1035,3886],[-14,-3],[-101,-39],[-81,-7],[-100,-55]],[[2591,3090],[80,-42]],[[958,3861],[61,-116]],[[1019,3745],[6,-15]],[[341,1950],[1,0]],[[616,2054],[-69,-47],[-10,25],[-81,-36],[-67,28],[-12,-48]],[[629,2058],[-13,-4]],[[761,2210],[-62,-30],[-4,-70],[-34,-47],[-32,-5]],[[787,2232],[-26,-22]],[[839,2263],[-52,-31]],[[853,2267],[-14,-4]],[[902,2284],[-49,-17]],[[962,2310],[-52,-22]],[[1039,2336],[-67,-22]],[[1337,2402],[-172,-25]],[[1352,2408],[-13,-6]],[[1542,2453],[-51,19],[-137,-64]],[[1549,2448],[-7,5]],[[1790,2474],[-241,-26]],[[1790,2474],[10,-2]],[[1857,2463],[-57,9]],[[1857,2463],[13,1]],[[1997,2442],[-30,58],[-97,-36]],[[1997,2442],[0,-14]],[[2083,2416],[-86,12]],[[2083,2416],[14,-3]],[[2201,2423],[-69,27],[-35,-37]],[[2212,2417],[-11,6]],[[2560,2256],[-74,85],[-154,38],[-99,-7],[-21,45]],[[2824,2250],[-41,-13],[-43,36],[-104,-56],[-79,13],[3,26]],[[2880,2551],[47,-19],[-34,-73],[12,-27]],[[2882,2876],[34,14]],[[2893,2879],[-1,-1]],[[3141,3008],[-63,-66],[-50,15],[-34,-43]],[[3752,3279],[-31,-13],[-104,34],[-52,-20],[-30,-56],[-91,-48],[-25,-50],[-44,-11],[-43,-52],[-149,-17],[-39,-35]],[[3890,3344],[-22,-52],[-86,12]],[[3890,3344],[21,31]],[[1585,3195],[13,-8]],[[1593,4075],[-5,2]],[[1759,3962],[25,-26],[45,-19]],[[1829,3918],[-7,10],[-36,8],[-27,26]],[[2004,3807],[-22,44],[-35,-11]],[[1947,3840],[35,11],[22,-44]],[[2157,3666],[38,-68],[38,-55],[142,-157]],[[2375,3391],[-6,20],[-136,132],[-1,3],[-42,62],[-29,53],[-4,5]],[[2422,3319],[20,-48],[67,-47]],[[2511,3227],[-69,45],[-20,47]],[[195,3236],[20,-20]],[[217,3213],[45,-38]],[[4016,3543],[-26,-10]],[[144,3285],[-25,29]],[[3432,2404],[-20,-229],[-90,16],[-16,-94],[47,-93],[99,18],[14,-21],[4,-10],[3,-14],[-37,-9],[-1,-24],[12,-34],[5,-42],[9,-13],[-1,-15],[-18,-26],[-13,-11],[-37,-22],[-14,15],[-13,4],[-15,0],[-18,3],[-28,48],[-25,66],[-29,43],[-39,-26],[-18,23],[-105,-49],[-116,-32],[-105,10],[-73,71],[-17,68],[16,45],[37,32],[43,29],[188,185],[31,56],[20,97],[12,22],[15,25],[4,21],[7,17],[23,14],[25,-1],[33,-9],[29,-13],[147,-107],[25,-34]],[[0,1781],[0,83],[12,-3],[25,-14],[10,21],[5,16],[-3,20],[-12,30],[35,-1],[97,-19],[59,0],[25,-4],[2,-10],[-3,-15],[7,-17],[43,-56],[32,-66],[-1,-38],[-144,67],[-41,-2],[-30,-35],[-26,11],[-49,3],[-24,8],[-14,13],[-5,8]],[[4096,4096],[0,-517],[-4,0],[-20,-6],[-58,-34],[-24,2],[-19,32],[-23,-72],[32,-34],[53,-24],[39,-46],[-77,-4],[-45,-36],[-59,-134],[-29,57],[-33,18],[-17,-19],[21,-56],[-34,8],[-33,16],[-33,23],[-31,28],[-36,14],[-13,-36],[4,-55],[15,-42],[-54,-13],[-56,23],[-50,8],[-39,-61],[31,-59],[7,-34],[-29,-16],[-35,-7],[-85,-37],[-35,10],[-43,44],[-31,12],[-36,-13],[-31,-31],[-25,-31],[-18,-14],[-62,-21],[-56,-39],[-60,-24],[-72,21],[-12,-36],[-33,-41],[-13,-34],[-2,-39],[16,-68],[4,-35],[11,-43],[23,-13],[27,-4],[19,-16],[3,-42],[-23,-70],[10,-29],[28,-58],[-5,-63],[-34,-55],[-59,-33],[-35,-3],[-27,9],[-23,11],[-25,5],[-41,-8],[-59,-31],[-30,-4],[-57,25],[-68,87],[-64,18],[-99,-21],[-30,1],[-14,8],[-12,25],[-14,9],[-56,2],[-4,-2],[-189,60],[-191,7],[-32,9],[-62,28],[-25,7],[-118,-5],[-265,-66],[-98,-40],[-54,-36],[-30,-29],[-26,-59],[-31,-1],[-67,16],[-56,-12],[-56,-30],[-109,-46],[-4,7],[-4,16],[-20,0],[-39,-83],[-59,-63],[-74,-45],[-88,-27],[0,-23],[63,2],[47,12],[42,27],[109,116],[40,19],[58,0],[-111,-130],[-28,-46],[-14,-48],[-11,-62],[-4,-57],[9,-29],[-25,-30],[-33,-14],[-30,5],[-13,28],[-18,16],[-40,-5],[-38,-14],[-55,-32],[-43,-46],[-58,-34],[-86,15],[22,47],[73,28],[24,36],[-2,45],[-22,36],[-24,32],[-11,28],[-8,39],[-22,31],[-34,21],[-80,12],[-34,13],[-17,21],[16,26],[0,24],[-79,16],[-12,-41],[6,-56],[-27,-28],[-28,-7],[0,2146],[4096,0]],[[0,1650],[0,83],[13,-3],[39,0],[34,-3],[14,-23],[0,-75],[-12,-28],[-30,-17],[-5,26],[-11,18],[-17,12],[-25,10]],[[1625,4096],[11,-13],[-63,5],[-4,8],[56,0]],[[3780,4017],[28,73],[7,6],[279,0],[2,-2],[0,-39],[-52,-50],[23,-116],[-73,-27],[-45,15],[-45,-43],[-124,183]],[[3057,2880],[56,95],[75,56],[92,8],[5,-47],[43,-3],[1,-26],[17,23],[39,-12],[26,35],[70,0],[2,59],[-58,44],[8,38],[96,57],[24,-64],[71,-5],[13,40],[-23,-2],[8,42],[-30,19],[11,57],[26,-22],[42,10],[32,-24],[-8,-24],[73,-27],[-1,-19],[21,7],[-5,52],[-43,22],[46,39],[6,-30],[50,14],[14,-88],[63,175],[126,18],[-50,3],[-8,38],[-64,-28],[-29,61],[29,23],[-11,24],[36,18],[20,-27],[35,38],[52,-15],[41,56],[0,-702],[-1039,-6]],[[1610,4096],[104,0],[28,-29],[22,-102],[-135,-67],[-69,29],[-40,50],[12,119],[28,0],[7,-16],[45,-8],[-2,24]],[[1039,2337],[126,41],[16,-55],[-111,-56],[-31,70]],[[1472,3707],[11,55],[67,86],[118,33],[125,-19],[50,77],[70,39],[99,-7],[-14,-73],[-92,-13],[44,-48],[-7,-59],[72,34],[27,-17],[8,40],[154,110],[45,-28],[0,-86],[-56,-54],[33,-13],[143,72],[25,100],[124,36],[30,-35],[99,-25],[21,-56],[29,0],[-2,-35],[-79,-48],[-125,-5],[-104,-108],[77,-43],[28,43],[136,-6],[77,61],[62,-23],[24,33],[77,-26],[77,23],[91,-49],[7,-61],[-151,16],[-67,-25],[-2,-27],[195,-40],[-40,-96],[18,-24],[93,4],[0,-88],[-30,-32],[-58,-3],[-107,112],[-12,45],[-114,-9],[-57,73],[-82,-3],[87,-41],[-19,-57],[37,-28],[151,3],[14,-26],[-44,-116],[-130,-105],[1,-26],[49,-19],[-37,-49],[-100,-5],[-82,-72],[-61,1],[-90,47],[-12,30],[31,38],[66,19],[-38,39],[69,93],[-33,65],[-121,24],[23,160],[-108,83],[-49,1],[-72,91],[-49,15],[-86,-53],[-29,39],[-41,-5],[-54,51],[-102,-26],[-66,40],[-44,-12],[-8,-68],[-112,-34],[-61,18],[-37,77]],[[853,4096],[188,0],[-1,-5],[-97,-47],[-36,-62],[-4,53],[-54,29],[4,32]],[[210,4096],[576,0],[64,-94],[-20,-55],[-113,-63],[-55,-2],[-117,-133],[-63,-9],[-122,-105],[-148,31],[-134,-58],[-50,131],[-28,17],[0,165],[19,29],[115,53],[23,53],[53,40]],[[0,1954],[0,57],[1,-1],[53,-11],[-54,-45]],[[0,1650],[0,86],[86,-10],[14,-22],[-12,-103],[-30,-17],[-16,44],[-42,22]],[[404,1815],[65,0],[32,-36],[143,90],[54,-10],[0,-121],[-58,-44],[-61,49],[-40,-5],[-194,-126],[-86,15],[22,47],[73,28],[24,36],[-63,162],[89,-50],[0,-35]],[[0,1787],[0,77],[37,-17],[0,87],[35,-1],[181,-23],[80,-202],[-144,67],[-41,-2],[-30,-35],[-99,22],[-19,27]],[[2982,2929],[-17,-53],[-72,21],[-58,-111],[27,-178],[-96,20],[-27,61],[60,46],[32,177],[73,35],[78,-18]],[[3772,3542],[182,-21],[-6,-20],[124,-104],[-77,-4],[-39,-31],[-139,40],[-45,140]],[[1069,2245],[-122,-19],[28,75],[229,40],[-135,-96]],[[2853,2218],[-43,0],[104,235],[37,-84],[-5,-63],[-34,-55],[-59,-33]],[[1213,4096],[382,0],[-58,-158],[-65,0],[-174,-137],[-148,20],[-53,53],[-13,99],[129,0],[0,123]],[[0,2485],[0,1170],[81,0],[32,-35],[162,70],[65,-283],[115,-148],[14,-64],[65,35],[32,71],[129,0],[59,56],[71,-21],[-102,-205],[-92,-78],[-211,12],[-48,-12],[0,-35],[-65,0],[-47,-41],[-18,41],[-64,35],[-130,-106],[-32,-177],[17,-32],[82,-30],[-2,-80],[-29,-73],[-68,-68],[-16,-2]],[[0,3475],[1,1],[-1,-4],[0,3]],[[0,3455],[21,6],[19,-43],[3,-27],[-36,-5],[-5,-25],[-2,0],[0,94]]]}