{"objects":{"water":{"type":"GeometryCollection","geometries":[{"type":"MultiPolygon","properties":{"source":"naturalearthdata.com","kind":"ocean","area":1576712559132672,"sort_rank":200,"min_zoom":0.0,"id":1},"arcs":[[[772],[773],[774],[775],[776]],[[777],[778],[779]]]},{"type":"MultiLineString","properties":{"source":"naturalearthdata.com","kind":"ocean","sort_rank":205,"boundary":true,"min_zoom":0.0,"id":19},"arcs":[[780],[781]]},{"type":"MultiLineString","properties":{"source":"naturalearthdata.com","kind":"ocean","sort_rank":205,"boundary":true,"min_zoom":0.0,"id":1174},"arcs":[[782],[783]]},{"type":"MultiLineString","properties":{"source":"naturalearthdata.com","kind":"ocean","sort_rank":205,"boundary":true,"min_zoom":0.0,"id":1175},"arcs":[[784],[785]]},{"type":"MultiLineString","properties":{"source":"naturalearthdata.com","kind":"ocean","sort_rank":205,"boundary":true,"min_zoom":0.0,"id":1176},"arcs":[[786],[787]]},{"type":"LineString","properties":{"source":"naturalearthdata.com","kind":"ocean","sort_rank":205,"boundary":true,"min_zoom":0.0,"id":1178},"arcs":[788]},{"type":"LineString","properties":{"source":"naturalearthdata.com","kind":"ocean","sort_rank":205,"boundary":true,"min_zoom":0.0,"id":1238},"arcs":[789]},{"type":"LineString","properties":{"source":"naturalearthdata.com","kind":"ocean","sort_rank":205,"boundary":true,"min_zoom":0.0,"id":1240},"arcs":[790]},{"type":"LineString","properties":{"source":"naturalearthdata.com","kind":"ocean","sort_rank":205,"boundary":true,"min_zoom":0.0,"id":1241},"arcs":[791]},{"type":"LineString","properties":{"source":"naturalearthdata.com","kind":"ocean","sort_rank":205,"boundary":true,"min_zoom":0.0,"id":1242},"arcs":[792]},{"type":"LineString","properties":{"source":"naturalearthdata.com","kind":"ocean","sort_rank":205,"boundary":true,"min_zoom":0.0,"id":1243},"arcs":[793]},{"type":"LineString","properties":{"source":"naturalearthdata.com","kind":"ocean","sort_rank":205,"boundary":true,"min_zoom":0.0,"id":1244},"arcs":[794]},{"type":"LineString","properties":{"source":"naturalearthdata.com","kind":"ocean","sort_rank":205,"boundary":true,"min_zoom":0.0,"id":1248},"arcs":[795]},{"type":"MultiLineString","properties":{"source":"naturalearthdata.com","kind":"ocean","sort_rank":205,"boundary":true,"min_zoom":0.0,"id":1249},"arcs":[[796],[797]]},{"type":"LineString","properties":{"source":"naturalearthdata.com","kind":"ocean","sort_rank":205,"boundary":true,"min_zoom":0.0,"id":3432},"arcs":[798]}]},"buildings":{"type":"GeometryCollection","geometries":[]},"places":{"type":"GeometryCollection","geometries":[{"type":"Point","properties":{"name:pt":"Dinamarca","name:ps":"\u0689\u0646\u0645\u0627\u0631\u06a9","name:ka":"\u10d3\u10d0\u10dc\u10d8\u10d0","name:mt":"Danimarka","name:ko":"\ub374\ub9c8\ud06c","name:kn":"\u0ca1\u0cc6\u0ca8\u0ccd\u0cae\u0cbe\u0cb0\u0ccd\u0c95\u0ccd","name:km":"\u178a\u17b6\u178e\u17ba\u1798\u17c9\u17b6\u1780","name:kl":"Danmarki","name:cs":"D\u00e1nsko","alt_name:eo":"Danio;Danlando","name:ki":"Denmaki","name:tr":"Danimarka","name:ku":"Dan\u00eemarka","name:ti":"\u12f4\u1295\u121b\u122d\u12ad","name:ks":"\u0688\u06cc\u0646\u065b\u0645\u0627\u0631\u0655\u06a9","name:to":"Tenima\u02bbake","name:tl":"Dinamarka","name:or":"\u0b21\u0b47\u0b28\u0b2e\u0b3e\u0b30\u0b4d\u0b15","name:pl":"Dania","name:ta":"\u0b9f\u0bc6\u0ba9\u0bcd\u0bae\u0bbe\u0bb0\u0bcd\u0b95\u0bcd","name:tg":"\u0414\u0430\u043d\u0438\u044f","name:ca":"Dinamarca","name:te":"\u0c21\u0c46\u0c28\u0c4d\u0c2e\u0c3e\u0c30\u0c4d\u0c15\u0c4d","name:hu":"D\u00e1nia","name:ro":"Danemarca","name:cy":"Denmarc","name:hr":"Danska","name:de":"D\u00e4nemark","name:dz":"\u0f4c\u0f7a\u0f53\u0f0b\u0f58\u0f71\u0f40","source":"openstreetmap.org","name:lv":"D\u0101nija","name:lt":"Danija","name:uz":"Daniya Qirolligi","name:kk":"\u0414\u0430\u043d\u0438\u044f","name:he":"\u05d3\u05e0\u05de\u05e8\u05e7","kind":"country","name:ur":"\u0688\u0646\u0645\u0627\u0631\u06a9","name:lb":"D\u00e4nemark","name:la":"Dania","name:lg":"Denimaaka","name:uk":"\u0414\u0430\u043d\u0456\u044f","name:hy":"\u0534\u0561\u0576\u056b\u0561","min_zoom":2.0,"name:li":"Daenemark","name:ln":"Dan\u025bmarike","name:lo":"\u0ec0\u0e94\u0e99\u0ea1\u0eb2\u0e81","population":5475791,"name:el":"\u0394\u03b1\u03bd\u03af\u03b1","name:eo":"Danujo","name:en":"Denmark","name":"Danmark","official_name":"Kingdom of Denmark","name:ee":"Denmark nutome","name:th":"\u0e1b\u0e23\u0e30\u0e40\u0e17\u0e28\u0e40\u0e14\u0e19\u0e21\u0e32\u0e23\u0e4c\u0e01","name:gu":"\u0aa1\u0ac7\u0aa8\u0aae\u0abe\u0ab0\u0acd\u0a95","name:eu":"Danimarka","name:et":"Taani","name:nl":"Denemarken","name:es":"Dinamarca","name:ml":"\u0d21\u0d46\u0d7b\u0d2e\u0d3e\u0d7c\u0d15\u0d4d\u0d15\u0d4d","name:rm":"Danemarc","name:rn":"Danimariki","name:az":"Danimarka","name:id":"Denmark","name:ms":"Denmark","name:mr":"\u0921\u0947\u0928\u094d\u092e\u093e\u0930\u094d\u0915","name:ar":"\u0627\u0644\u062f\u0627\u0646\u0645\u0631\u0643","name:my":"\u1012\u102d\u1014\u103a\u1038\u1019\u1010\u103a","name:io":"Dania","int_name":"Denmark","name:is":"Danm\u00f6rk","name:am":"\u12f4\u1295\u121b\u122d\u12ad","name:it":"Danimarca","name:vi":"\u0110an M\u1ea1ch","name:ru":"\u0414\u0430\u043d\u0438\u044f","name:mn":"\u0414\u0430\u043d\u0438","id":432424968,"name:mk":"\u0414\u0430\u043d\u0441\u043a\u0430","name:af":"Denemarke","name:zu":"i-Denmark","name:fi":"Tanska","name:hi":"\u0921\u0947\u0928\u092e\u093e\u0930\u094d\u0915","name:mg":"Danmarka","name:fo":"Danm\u00f8rk","name:fr":"Danemark","name:fy":"Denemark","name:vo":"Dan\u00e4n","name:zh":"\u4e39\u9ea6","name:gv":"Yn Danvarg","name:so":"Denmark","name:sn":"Denmark","name:sl":"Danska","name:sk":"D\u00e1nsko","name:ja":"\u30c7\u30f3\u30de\u30fc\u30af","name:si":"\u0da9\u0dd9\u0db1\u0dca\u0db8\u0dcf\u0dbb\u0dca\u0d9a\u0dba","name:fa":"\u062f\u0627\u0646\u0645\u0627\u0631\u06a9","name:sg":"Danem\u00earke","name:se":"D\u00e1nm\u00e1rku","name:ne":"\u0921\u0947\u0928\u094d\u092e\u093e\u0930\u094d\u0915","name:bs":"Danska","name:bm":"Danemarki","name:bn":"\u09a1\u09c7\u09a8\u09ae\u09be\u09b0\u09cd\u0995","name:bo":"\u0f4c\u0f7a\u0f53\u0f0b\u0f58\u0f71\u0f62\u0f90\u0f0d","name:sw":"Denmaki","name:be":"\u0414\u0430\u043d\u0456\u044f","name:bg":"\u0414\u0430\u043d\u0438\u044f","name:sr":"\u0414\u0430\u043d\u0441\u043a\u0430","name:sq":"Danimark\u00eb","name:ga":"An Danmhairg","name:gd":"An Danmhairg","name:gl":"Dinamarca","name:yo":"Or\u00edl\u1eb9\u0301\u00e8de D\u1eb9\u0301m\u00e1k\u00ec","name:ak":"D\u025bnmak"},"coordinates":[2761,3826]},{"type":"Point","properties":{"name:az":"\u015elezviq-Hol\u015fteyn","name:sk":"\u0160lezvicko-Hol\u0161tajnsko","name:ja":"\u30b7\u30e5\u30ec\u30fc\u30b9\u30f4\u30a3\u30d2\uff1d\u30db\u30eb\u30b7\u30e5\u30bf\u30a4\u30f3\u5dde","name:lt":"\u0160l\u0117zvigas-Hol\u0161teinas","name:ko":"\uc290\ub808\uc2a4\ube44\ud788\ud640\uc288\ud0c0\uc778 \uc8fc","name:he":"\u05e9\u05dc\u05d6\u05d5\u05d5\u05d9\u05d2-\u05d4\u05d5\u05dc\u05e9\u05d8\u05d9\u05d9\u05df","name:cs":"\u0160lesvicko-Hol\u0161t\u00fdnsko","kind":"region","official_name":"Land Schleswig Holstein","min_zoom":4.0,"name:short":"SH","name:be":"\u0428\u043b\u0435\u0437\u0432\u0456\u0433-\u0413\u0430\u043b\u044c\u0448\u0442\u044d\u0439\u043d","name:ru":"\u0428\u043b\u0435\u0437\u0432\u0438\u0433-\u0413\u043e\u043b\u044c\u0448\u0442\u0435\u0439\u043d","name:pl":"Szlezwik-Holsztyn","name:bg":"\u0428\u043b\u0435\u0437\u0432\u0438\u0433-\u0425\u043e\u043b\u0449\u0430\u0439\u043d","id":473890961,"name:vo":"Jlesvig\u00e4n-Holst\u00e4n","name:lv":"\u0160l\u0113sviga-Hol\u0161teina","name:el":"\u03a3\u03bb\u03ad\u03c3\u03b2\u03b9\u03c7-\u03a7\u03bf\u03bb\u03c3\u03c4\u03ac\u03b9\u03bd","name:eo":"\u015clesvigo-Holstinio","name":"Schleswig-Holstein","kind_detail":"state","name:da":"Slesvig-Holsten","name:is":"Sl\u00e9sv\u00edk-Holtsetaland","name:nl":"Sleeswijk-Holstein","source":"openstreetmap.org","population":2834000,"name:zh":"\u77f3\u52d2\u82cf\u76ca\u683c-\u8377\u5c14\u65af\u6cf0\u56e0"},"coordinates":[2016,58]},{"type":"Point","properties":{"source":"naturalearthdata.com","kind":"locality","name":"Kiel","population":269427,"region_capital":true,"min_zoom":7.0,"id":3617},"coordinates":[2465,426]},{"type":"Point","properties":{"source":"naturalearthdata.com","kind":"locality","name":"Odense","population":158222,"min_zoom":7.0,"id":4137},"coordinates":[2834,3141]},{"type":"Point","properties":{"source":"naturalearthdata.com","kind":"locality","name":"Flensburg","population":97930,"min_zoom":7.0,"id":3615},"coordinates":[1450,1577]},{"type":"Point","properties":{"source":"naturalearthdata.com","kind":"locality","name":"Esbjerg","population":72205,"min_zoom":7.0,"id":4138},"coordinates":[18,3311]},{"type":"Point","properties":{"source":"naturalearthdata.com","kind":"locality","name":"Svendborg","population":29180,"min_zoom":7.0,"id":4136},"coordinates":[3174,2304]}]},"transit":{"type":"GeometryCollection","geometries":[{"type":"LineString","properties":{"kind":"train","name":"Odense","sort_rank":275,"source":"openstreetmap.org","min_zoom":6.0,"operator":"DSB","ref":"RE","id":-2124665,"osm_relation":true},"arcs":[15]},{"type":"MultiLineString","properties":{"kind":"train","name":"Flensburg - Odense","sort_rank":275,"source":"openstreetmap.org","min_zoom":6.0,"operator":"DSB","ref":"81","osm_relation":true},"arcs":[[16],[17],[18]]},{"type":"LineString","properties":{"kind":"train","name":"ARRIVA Esbjerg - Nieb\u00fcll","sort_rank":275,"source":"openstreetmap.org","min_zoom":6.0,"operator":"ARRIVA","ref":"50","osm_relation":true},"arcs":[19]},{"type":"MultiLineString","properties":{"kind":"train","name":"Esbjerg - K\u00f8benhavn CPH Lufthavn","sort_rank":275,"name:de":"Esbjerg - Kopenhagen Flughafen","source":"openstreetmap.org","min_zoom":6.0,"operator":"DSB","ref":"4","osm_relation":true},"arcs":[[20],[21],[22],[23],[24],[25],[26],[27],[28],[29],[30],[31]]},{"type":"MultiLineString","properties":{"kind":"train","network":"DB InterCity","service":"long_distance","sort_rank":275,"source":"openstreetmap.org","min_zoom":5.0,"operator":"DB Fernverkehr AG","ref":"IC76","osm_relation":true,"name":"IC76 Aarhus - Hamburg"},"arcs":[[32],[33],[34],[35],[36],[37],[38],[39],[40],[41],[42],[43],[44],[45],[46],[47]]},{"type":"LineString","properties":{"kind":"train","name":"Fredericia - Odense","sort_rank":275,"source":"openstreetmap.org","min_zoom":6.0,"operator":"DSB","ref":"62","osm_relation":true},"arcs":[48]},{"type":"MultiLineString","properties":{"source":"openstreetmap.org","kind":"train","name":"Regionalbahn 84: L\u00fcbeck => Kiel","sort_rank":275,"ref":"RB84","min_zoom":6.0,"osm_relation":true},"arcs":[[49],[50],[51],[52],[53],[54],[55]]},{"type":"MultiLineString","properties":{"kind":"train","network":"DB InterCity","service":"long_distance","sort_rank":275,"source":"openstreetmap.org","min_zoom":5.0,"operator":"DB Fernverkehr AG","ref":"IC30","osm_relation":true,"name":"IC 30: Stuttgart => Westerland"},"arcs":[[56],[57],[58]]},{"type":"MultiLineString","properties":{"source":"openstreetmap.org","kind":"train","name":"Regionalexpress 7: Hamburg => Flensburg","sort_rank":275,"ref":"RE7","min_zoom":6.0,"osm_relation":true},"arcs":[[59],[60],[61],[62],[63],[64],[65],[66],[67],[68]]},{"type":"MultiLineString","properties":{"source":"openstreetmap.org","kind":"train","name":"SH-Regionalbahnlinie RB 76: Kiel-Oppendorf - Kiel Hbf","sort_rank":275,"ref":"RB 76","min_zoom":6.0,"osm_relation":true},"arcs":[[69],[70],[71],[72]]},{"type":"MultiLineString","properties":{"kind":"train","name":"ARRIVA Esbjerg - Skjern","sort_rank":275,"source":"openstreetmap.org","min_zoom":6.0,"operator":"ARRIVA","ref":"51","id":-3611927,"osm_relation":true},"arcs":[[73],[74]]},{"type":"MultiLineString","properties":{"source":"openstreetmap.org","kind":"train","name":"Regionalexpress 70: Hamburg => Kiel","sort_rank":275,"ref":"RE70","min_zoom":6.0,"osm_relation":true},"arcs":[[75],[76],[77]]},{"type":"MultiLineString","properties":{"source":"openstreetmap.org","kind":"train","name":"Regionalexpress 70: Kiel => Hamburg","sort_rank":275,"ref":"RE70","min_zoom":6.0,"osm_relation":true},"arcs":[[78],[79],[80]]},{"type":"MultiLineString","properties":{"source":"openstreetmap.org","kind":"train","name":"Regionalbahn 77: Neum\u00fcnster => Kiel","sort_rank":275,"ref":"RB77","min_zoom":6.0,"osm_relation":true},"arcs":[[81],[82],[83],[84]]},{"type":"LineString","properties":{"kind":"train","name":"Odense - Svendborg","sort_rank":275,"source":"openstreetmap.org","min_zoom":6.0,"operator":"DSB","ref":"61","id":-4088197,"osm_relation":true},"arcs":[85]},{"type":"MultiLineString","properties":{"kind":"train","name":"Aarhus - Fredericia - Odense","sort_rank":275,"source":"openstreetmap.org","min_zoom":6.0,"operator":"DSB","ref":"60","osm_relation":true},"arcs":[[86],[87],[88],[89],[90],[91]]},{"type":"MultiLineString","properties":{"kind":"train","network":"DB InterCityExpress","service":"high_speed","sort_rank":275,"source":"openstreetmap.org","min_zoom":5.0,"operator":"DB Fernverkehr AG","ref":"ICE20","osm_relation":true,"name":"ICE20 Interlaken Ost => Kiel"},"arcs":[[92],[93]]},{"type":"MultiLineString","properties":{"kind":"train","network":"SH-Tarif","sort_rank":275,"source":"openstreetmap.org","min_zoom":6.0,"operator":"DB Regio AG - Region Nord","ref":"RE 74;134","osm_relation":true,"name":"SH-Regionalbahnlinie RE 74;KBS 134 Kiel Hbf -> Husum"},"arcs":[[94],[95],[96],[97],[98],[99],[100],[101],[102],[103]]},{"type":"MultiLineString","properties":{"source":"openstreetmap.org","kind":"train","name":"Regionalexpress 6: Hamburg => Westerland;KBS 130 Hamburg-Altona - Westerland","sort_rank":275,"ref":"RE6","min_zoom":6.0,"osm_relation":true},"arcs":[[104],[105],[106],[107],[108],[109],[110],[111],[112]]},{"type":"MultiLineString","properties":{"kind":"train","name":"NEG-ARRIVA N\u00f8rre Nebel - Nieb\u00fcll","sort_rank":275,"source":"openstreetmap.org","min_zoom":6.0,"operator":"NEG-ARRIVA","ref":"R8","osm_relation":true},"arcs":[[113],[114],[115],[116],[117],[118],[119],[120],[121],[122],[123],[124]]},{"type":"LineString","properties":{"kind":"train","name":"Fredericia","sort_rank":275,"source":"openstreetmap.org","min_zoom":6.0,"operator":"DSB","ref":"RE","id":-2124664,"osm_relation":true},"arcs":[125]},{"type":"LineString","properties":{"kind":"train","network":"SH-Tarif","sort_rank":275,"source":"openstreetmap.org","min_zoom":6.0,"operator":"Norddeutsche Eisenbahngesellschaft Nieb\u00fcll","ref":"RB 66;136","id":-369172,"osm_relation":true,"name":"SH-Regionalbahnlinie RB 66;KBS 136 Nieb\u00fcll - T\u00f8nder"},"arcs":[126]},{"type":"MultiLineString","properties":{"source":"openstreetmap.org","kind":"train","name":"Regionalexpress 6: Westerland => Hamburg; KBS 130 Westerland - Hamburg-Altona","sort_rank":275,"ref":"RE6","min_zoom":6.0,"osm_relation":true},"arcs":[[127],[128],[129],[130],[131],[132],[133],[134],[135],[136],[137],[138],[139]]},{"type":"MultiLineString","properties":{"source":"openstreetmap.org","kind":"train","name":"Regionalbahn 84: Kiel => L\u00fcbeck","sort_rank":275,"ref":"RB84","min_zoom":6.0,"osm_relation":true},"arcs":[[140],[141],[142],[143],[144],[145],[146]]},{"type":"MultiLineString","properties":{"kind":"train","network":"DB InterCity","service":"long_distance","sort_rank":275,"source":"openstreetmap.org","min_zoom":5.0,"operator":"DB Fernverkehr AG","ref":"IC76","osm_relation":true,"name":"IC76 Hamburg - Aarhus"},"arcs":[[147],[148],[149],[150],[151],[152],[153],[154],[155],[156],[157],[158],[159],[160],[161],[162]]},{"type":"MultiLineString","properties":{"kind":"train","network":"SH-Tarif","sort_rank":275,"source":"openstreetmap.org","min_zoom":6.0,"operator":"DB Regio AG - Region Nord","ref":"RE 74;134","osm_relation":true,"name":"SH-Regionalbahnlinie RE 74;KBS 134 Husum -> Kiel Hbf"},"arcs":[[163],[164],[165],[166],[167],[168],[169],[170],[171],[172]]},{"type":"MultiLineString","properties":{"kind":"train","network":"SH-Tarif","sort_rank":275,"source":"openstreetmap.org","min_zoom":6.0,"operator":"DB Regio AG - Region Nord","ref":"RB 64;135","osm_relation":true,"name":"SH-Regionalbahnlinie RB 64;KBS 135 Husum - Bad St Peter-Ording"},"arcs":[[173],[174],[175],[176],[177],[178],[179],[180],[181],[182],[183],[184],[185],[186],[187],[188],[189],[190],[191],[192],[193],[194],[195],[196],[197],[198],[199],[200],[201],[202],[203],[204],[205],[206],[207],[208],[209],[210],[211],[212],[213],[214],[215],[216],[217],[218],[219],[220],[221],[222],[223],[224],[225],[226],[227],[228],[229],[230],[231],[232],[233],[234],[235],[236],[237],[238],[239],[240],[241],[242],[243],[244],[245],[246],[247],[248],[249],[250],[251],[252],[253],[254],[255],[256],[257],[258],[259],[260],[261],[262],[263],[264],[265],[266],[267],[268],[269],[270],[271],[272],[273],[274],[275],[276],[277],[278],[279],[280],[281],[282],[283],[284],[285],[286],[287],[288],[289],[290],[291],[292],[293],[294],[295],[296],[297],[298],[299],[300],[301],[302],[303],[304],[305],[306],[307],[308],[309],[310],[311],[312],[313],[314],[315],[316],[317],[318],[319],[320],[321],[322],[323],[324],[325],[326],[327],[328],[329],[330],[331],[332],[333],[334],[335],[336],[337],[338],[339],[340],[341],[342],[343],[344],[345],[346],[347],[348],[349],[350],[351],[352],[353],[354],[355],[356],[357],[358],[359],[360],[361],[362],[363],[364],[365],[366],[367],[368],[369],[370],[371],[372],[373],[374],[375],[376],[377],[378],[379],[380],[381],[382],[383],[384],[385],[386],[387],[388],[389],[390],[391],[392],[393],[394],[395],[396],[397],[398],[399],[400],[401],[402],[403],[404],[405],[406],[407],[408],[409],[410],[411],[412],[413],[414],[415],[416],[417],[418],[419],[420],[421],[422],[423],[424],[425],[426],[427],[428],[429],[430],[431],[432],[433],[434],[435],[436],[437],[438],[439],[440],[441],[442],[443],[444],[445],[446],[447],[448],[449],[450],[451],[452],[453],[454],[455],[456],[457],[458],[459],[460],[461],[462],[463],[464],[465],[466],[467],[468],[469],[470],[471],[472],[473],[474],[475],[476],[477],[478],[479],[480],[481],[482],[483],[484],[485],[486],[487],[488],[489],[490],[491],[492],[493],[494],[495],[496],[497],[498],[499],[500],[501],[502],[503],[504],[505],[506],[507],[508],[509],[510],[511],[512],[513],[514],[515],[516],[517],[518],[519],[520],[521],[522],[523],[524],[525],[526],[527],[528],[529],[530],[531],[532],[533],[534],[535],[536],[537],[538],[539],[540],[541],[542],[543],[544],[545],[546],[547],[548],[549],[550],[551],[552],[553],[554],[555],[556],[557],[558],[559],[560],[561],[562],[563],[564],[565],[566],[567],[568],[569],[570],[571],[572],[573],[574],[575],[576],[577],[578],[579],[580],[581],[582],[583],[584],[585],[586],[587],[588],[589],[590],[591],[592],[593],[594],[595],[596],[597],[598],[599],[600],[601],[602],[603],[604],[605],[606],[607],[608],[609],[610],[611],[612],[613],[614],[615],[616],[617],[618],[619],[620],[621],[622],[623],[624],[625],[626]]},{"type":"MultiLineString","properties":{"kind":"train","network":"SH-Tarif","sort_rank":275,"colour":"orange","name":"RB 85: L\u00fcbeck => Puttgarden","source":"openstreetmap.org","min_zoom":6.0,"operator":"DB Regio AG - Region Nord","ref":"RB 85","osm_relation":true,"colour_name":"orange"},"arcs":[[627],[628],[629],[630],[631],[632],[633],[634],[635],[636],[637],[638],[639],[640],[641],[642],[643],[644],[645]]},{"type":"MultiLineString","properties":{"kind":"train","description":"ICE 22: Stuttgart => Kiel","service":"high_speed","sort_rank":275,"source":"openstreetmap.org","min_zoom":5.0,"operator":"DB Fernverkehr AG","ref":"ICE22","osm_relation":true,"network":"DB InterCityExpress"},"arcs":[[646],[647]]},{"type":"MultiLineString","properties":{"kind":"train","name":"ARRIVA N\u00f8rre Nebel - Esbjerg","sort_rank":275,"source":"openstreetmap.org","min_zoom":6.0,"operator":"ARRIVA","ref":"56","id":-3615303,"osm_relation":true},"arcs":[[648],[649]]},{"type":"MultiLineString","properties":{"kind":"train","network":"SH-Tarif","sort_rank":275,"colour":"orange","name":"RB 85: Puttgarden => L\u00fcbeck","source":"openstreetmap.org","min_zoom":6.0,"operator":"DB Regio AG - Region Nord","ref":"RB 85","osm_relation":true,"colour_name":"orange"},"arcs":[[650],[651],[652],[653],[654],[655],[656],[657],[658],[659],[660],[661],[662],[663],[664],[665],[666],[667],[668]]},{"type":"MultiLineString","properties":{"source":"openstreetmap.org","kind":"train","name":"Regionalexpress 83: L\u00fcneburg => Kiel","sort_rank":275,"ref":"RE83","min_zoom":6.0,"osm_relation":true},"arcs":[[669],[670],[671],[672],[673],[674]]},{"type":"MultiLineString","properties":{"source":"openstreetmap.org","kind":"train","name":"Regionalexpress 83: Kiel => L\u00fcneburg","sort_rank":275,"ref":"RE83","min_zoom":6.0,"osm_relation":true},"arcs":[[675],[676],[677],[678],[679],[680]]},{"type":"MultiLineString","properties":{"source":"openstreetmap.org","kind":"train","name":"Regionalbahn 77: Kiel => Neum\u00fcnster","sort_rank":275,"ref":"RB77","min_zoom":6.0,"osm_relation":true},"arcs":[[681],[682],[683],[684]]},{"type":"MultiLineString","properties":{"kind":"train","network":"SH-Tarif","sort_rank":275,"source":"openstreetmap.org","min_zoom":6.0,"operator":"NBE Nordbahn","ref":"RB 63","osm_relation":true,"name":"SH-Regionalbahnlinie RB 63: Neum\u00fcnster=>B\u00fcsum"},"arcs":[[685],[686],[687],[688],[689],[690],[691],[692]]},{"type":"MultiLineString","properties":{"kind":"train","name":"S\u00f8nderborg - Odense","sort_rank":275,"source":"openstreetmap.org","min_zoom":6.0,"operator":"DSB","ref":"81","osm_relation":true},"arcs":[[693],[694],[695]]},{"type":"MultiLineString","properties":{"source":"openstreetmap.org","kind":"train","name":"Regionalexpress 7: Flensburg => Hamburg","sort_rank":275,"ref":"RE7","min_zoom":6.0,"osm_relation":true},"arcs":[[696],[697],[698],[699],[700],[701],[702],[703],[704],[705]]},{"type":"MultiLineString","properties":{"kind":"train","name":"DSB Struer-Odense","sort_rank":275,"source":"openstreetmap.org","min_zoom":6.0,"operator":"DSB","ref":"90","osm_relation":true},"arcs":[[706],[707],[708],[709],[710]]},{"type":"MultiLineString","properties":{"kind":"train","name":"Esbjerg - K\u00f8benhavn \u00d8sterport","sort_rank":275,"name:de":"Esbjerg - Kopenhagen","source":"openstreetmap.org","min_zoom":6.0,"operator":"DSB","ref":"4","osm_relation":true},"arcs":[[711],[712],[713],[714],[715]]},{"type":"MultiLineString","properties":{"kind":"train","network":"DB InterCity","service":"long_distance","sort_rank":275,"source":"openstreetmap.org","min_zoom":5.0,"operator":"DB Fernverkehr AG","ref":"IC30","osm_relation":true,"name":"IC 30: Westerland => Stuttgart"},"arcs":[[716],[717],[718],[719]]},{"type":"LineString","properties":{"source":"openstreetmap.org","kind":"train","name":"Regionalbahn 62: Heide => Itzehoe","sort_rank":275,"ref":"RB62","min_zoom":6.0,"osm_relation":true},"arcs":[720]},{"type":"MultiLineString","properties":{"kind":"train","network":"SH-Tarif","sort_rank":275,"source":"openstreetmap.org","min_zoom":6.0,"operator":"DB Regio AG - Region Nord","ref":"RE 72;146","osm_relation":true,"name":"SH-Regionalbahnlinie RE 72;KBS 146 Flensburg-Kiel"},"arcs":[[721],[722],[723],[724],[725],[726]]},{"type":"MultiLineString","properties":{"kind":"train","network":"DB InterCityExpress","service":"long_distance","sort_rank":275,"name:de":"ICE75 Kopenhagen => Hamburg","source":"openstreetmap.org","min_zoom":5.0,"operator":"DB Fernverkehr AG;DSB","ref":"ICE75","osm_relation":true,"name":"ICE75 K\u00f8benhavn => Hamburg"},"arcs":[[727],[728],[729]]},{"type":"MultiLineString","properties":{"kind":"train","description":"ICE 22: Kiel => Stuttgart","service":"high_speed","sort_rank":275,"min_zoom":5.0,"source":"openstreetmap.org","state":"connection","operator":"DB Fernverkehr AG","ref":"ICE22","osm_relation":true,"network":"DB InterCityExpress"},"arcs":[[730],[731]]},{"type":"MultiLineString","properties":{"kind":"train","network":"DB InterCity","service":"long_distance","sort_rank":275,"source":"openstreetmap.org","min_zoom":5.0,"operator":"DB Fernverkehr AG","ref":"IC26","osm_relation":true,"name":"IC26 Westerland (Sylt) => Karlsruhe"},"arcs":[[732],[733],[734],[735]]},{"type":"MultiLineString","properties":{"kind":"train","name":"Esbjerg - Odense","sort_rank":275,"source":"openstreetmap.org","min_zoom":6.0,"operator":"DSB","ref":"80","osm_relation":true},"arcs":[[736],[737],[738],[739],[740],[741],[742],[743]]},{"type":"MultiLineString","properties":{"source":"openstreetmap.org","kind":"train","name":"K\u00f8benhavn - Kalundborg","sort_rank":275,"ref":"R","min_zoom":6.0,"osm_relation":true},"arcs":[[744],[745],[746],[747],[748],[749],[750]]},{"type":"MultiLineString","properties":{"kind":"train","network":"DB InterCityExpress","service":"long_distance","sort_rank":275,"name:de":"ICE75 Hamburg - Kopenhagen","source":"openstreetmap.org","min_zoom":5.0,"operator":"DB Fernverkehr AG;DSB","ref":"ICE75","osm_relation":true,"name":"ICE75 Hamburg - K\u00f8benhavn"},"arcs":[[751],[752],[753]]},{"type":"MultiLineString","properties":{"source":"openstreetmap.org","kind":"train","name":"SH-Regionalbahnlinie RB 76: Kiel Hbf - Kiel-Oppendorf","sort_rank":275,"ref":"RB 76","min_zoom":6.0,"osm_relation":true},"arcs":[[754],[755],[756],[757]]},{"type":"MultiLineString","properties":{"kind":"train","service":"long_distance","sort_rank":275,"source":"openstreetmap.org","min_zoom":5.0,"operator":"DSB","ref":"IC","osm_relation":true},"arcs":[[758],[759],[760],[761],[762],[763],[764]]},{"type":"LineString","properties":{"kind":"train","network":"SH-Tarif","sort_rank":275,"source":"openstreetmap.org","min_zoom":6.0,"operator":"NEG","ref":"RB 65;136","id":-369171,"osm_relation":true,"name":"SH-Regionalbahnlinie RB 65;KBS 136 Nieb\u00fcll - Dageb\u00fcll Mole"},"arcs":[765]},{"type":"LineString","properties":{"source":"openstreetmap.org","kind":"train","name":"Regionalbahn 62: Itzehoe => Heide","sort_rank":275,"ref":"RB62","min_zoom":6.0,"osm_relation":true},"arcs":[766]},{"type":"MultiLineString","properties":{"kind":"train","name":"Vejle - Odense - Nyborg","sort_rank":275,"source":"openstreetmap.org","min_zoom":6.0,"operator":"DSB","ref":"63","osm_relation":true},"arcs":[[767],[768],[769],[770],[771]]}]},"pois":{"type":"GeometryCollection","geometries":[{"type":"Point","properties":{"kind":"protected_area","protect_class":"5","area":1576630000,"source":"openstreetmap.org","min_zoom":7.0,"tier":2,"id":-6333416,"osm_relation":true,"name":"Naturpark Westensee"},"coordinates":[2176,169]},{"type":"Point","properties":{"kind":"protected_area","protect_class":"4","area":592195000,"source":"openstreetmap.org","min_zoom":7.0,"tier":2,"ref":"14","id":-4673859,"osm_relation":true,"name":"Wattenmeer n\u00f6rdlich des Hindenburgdammes"},"coordinates":[32,2058]},{"type":"Point","properties":{"kind":"protected_area","protect_class":"4","area":3963320000,"source":"openstreetmap.org","min_zoom":7.0,"tier":2,"ref":"86","id":-4672257,"osm_relation":true,"name":"NSG Nordfriesisches Wattenmeer"},"coordinates":[272,1145]},{"type":"Point","properties":{"kind":"national_park","protect_class":"2","area":12954700000,"source":"openstreetmap.org","min_zoom":3.96,"tier":1,"id":-1237758,"osm_relation":true,"name":"Nationalpark Schleswig-Holsteinisches Wattenmeer"},"coordinates":[196,823]},{"type":"Point","properties":{"kind":"protected_area","protect_class":"5","area":1370440000,"source":"openstreetmap.org","min_zoom":7.0,"tier":2,"ref":"1","id":-334375,"osm_relation":true,"name":"Naturpark Schlei"},"coordinates":[1843,1067]},{"type":"Point","properties":{"kind":"protected_area","protect_class":"5","area":658646000,"source":"openstreetmap.org","min_zoom":7.0,"tier":2,"id":-334374,"osm_relation":true,"name":"Naturpark H\u00fcttener Berge"},"coordinates":[1904,617]},{"type":"Point","properties":{"kind":"nature_reserve","name":"Fehmarn Belt","area":831641000,"source":"openstreetmap.org","min_zoom":7.44,"tier":2,"ref":"DE 1322-301","id":178089830},"coordinates":[3538,1002]}]},"boundaries":{"type":"GeometryCollection","geometries":[{"type":"MultiLineString","properties":{"source":"naturalearthdata.com","kind":"country","sort_rank":262,"kind_detail":"2","min_zoom":0.0,"id":85},"arcs":[[0],[1],[2],[3],[4],[5]]},{"type":"MultiLineString","properties":{"source":"naturalearthdata.com","kind":"country","sort_rank":262,"kind_detail":"2","min_zoom":0.0,"id":3},"arcs":[[6],[7]]},{"type":"MultiLineString","properties":{"source":"naturalearthdata.com","kind":"region","sort_rank":256,"kind_detail":"4","min_zoom":6.7,"id":491},"arcs":[[8],[9]]},{"type":"LineString","properties":{"source":"naturalearthdata.com","kind":"region","sort_rank":256,"kind_detail":"4","min_zoom":6.7,"id":492},"arcs":[10]},{"type":"LineString","properties":{"source":"naturalearthdata.com","kind":"region","sort_rank":256,"kind_detail":"4","min_zoom":6.7,"id":493},"arcs":[11]},{"type":"MultiLineString","properties":{"source":"naturalearthdata.com","kind":"region","name":"Syddanmark - Midtjylland","sort_rank":256,"kind_detail":"4","min_zoom":6.7,"id":2548},"arcs":[[12],[13]]},{"type":"LineString","properties":{"source":"naturalearthdata.com","kind":"region","name":"Syddanmark - Midtjylland","sort_rank":256,"kind_detail":"4","min_zoom":6.7,"id":2550},"arcs":[14]}]},"roads":{"type":"GeometryCollection","geometries":[{"type":"LineString","properties":{"kind":"highway","network":"e-road","sort_rank":383,"kind_detail":"motorway","source":"naturalearthdata.com","min_zoom":3.0,"all_networks":["e-road"],"landuse_kind":"protected_area","shield_text":"45","ref":"45","id":4487,"all_shield_texts":["45"]},"arcs":[799]},{"type":"LineString","properties":{"kind":"highway","network":"e-road","sort_rank":383,"kind_detail":"motorway","source":"naturalearthdata.com","min_zoom":3.0,"all_networks":["e-road"],"landuse_kind":"urban_area","shield_text":"20","ref":"20","id":4488,"all_shield_texts":["20"]},"arcs":[800]},{"type":"LineString","properties":{"kind":"highway","network":"e-road","sort_rank":383,"kind_detail":"motorway","source":"naturalearthdata.com","min_zoom":3.0,"all_networks":["e-road"],"landuse_kind":"urban_area","shield_text":"20","ref":"20","id":4488,"all_shield_texts":["20"]},"arcs":[801]},{"type":"LineString","properties":{"kind":"highway","network":"e-road","sort_rank":383,"kind_detail":"motorway","source":"naturalearthdata.com","min_zoom":3.0,"all_networks":["e-road"],"landuse_kind":"urban_area","shield_text":"20","ref":"20","id":4488,"all_shield_texts":["20"]},"arcs":[802]},{"type":"LineString","properties":{"kind":"highway","network":"e-road","sort_rank":383,"kind_detail":"motorway","source":"naturalearthdata.com","min_zoom":3.0,"all_networks":["e-road"],"landuse_kind":"urban_area","shield_text":"20","ref":"20","id":4488,"all_shield_texts":["20"]},"arcs":[803]},{"type":"LineString","properties":{"kind":"highway","network":"e-road","sort_rank":383,"kind_detail":"motorway","source":"naturalearthdata.com","min_zoom":3.0,"all_networks":["e-road"],"landuse_kind":"urban_area","shield_text":"20","ref":"20","id":4488,"all_shield_texts":["20"]},"arcs":[804]},{"type":"MultiLineString","properties":{"kind":"highway","network":"e-road","sort_rank":383,"kind_detail":"motorway","source":"naturalearthdata.com","min_zoom":3.0,"all_networks":["e-road"],"shield_text":"20","ref":"20","id":4488,"all_shield_texts":["20"]},"arcs":[[805],[806],[807],[808],[809]]},{"type":"LineString","properties":{"kind":"highway","network":"e-road","sort_rank":383,"kind_detail":"motorway","source":"naturalearthdata.com","min_zoom":3.0,"all_networks":["e-road"],"landuse_kind":"urban_area","shield_text":"45","ref":"45","id":4489,"all_shield_texts":["45"]},"arcs":[810]},{"type":"LineString","properties":{"kind":"highway","network":"e-road","sort_rank":383,"kind_detail":"motorway","source":"naturalearthdata.com","min_zoom":3.0,"all_networks":["e-road"],"landuse_kind":"urban_area","shield_text":"45","ref":"45","id":4489,"all_shield_texts":["45"]},"arcs":[811]},{"type":"MultiLineString","properties":{"kind":"highway","network":"e-road","sort_rank":383,"kind_detail":"motorway","source":"naturalearthdata.com","min_zoom":3.0,"all_networks":["e-road"],"shield_text":"45","ref":"45","id":4489,"all_shield_texts":["45"]},"arcs":[[812],[813],[814]]},{"type":"LineString","properties":{"kind":"highway","network":"e-road","sort_rank":383,"kind_detail":"motorway","source":"naturalearthdata.com","min_zoom":3.0,"all_networks":["e-road"],"landuse_kind":"protected_area","shield_text":"45","ref":"45","id":4490,"all_shield_texts":["45"]},"arcs":[815]},{"type":"LineString","properties":{"kind":"highway","network":"e-road","sort_rank":383,"kind_detail":"motorway","source":"naturalearthdata.com","min_zoom":3.0,"all_networks":["e-road"],"landuse_kind":"protected_area","shield_text":"45","ref":"45","id":4490,"all_shield_texts":["45"]},"arcs":[816]},{"type":"MultiLineString","properties":{"kind":"highway","network":"e-road","sort_rank":383,"kind_detail":"motorway","source":"naturalearthdata.com","min_zoom":3.0,"all_networks":["e-road"],"landuse_kind":"protected_area","shield_text":"45","ref":"45","id":4490,"all_shield_texts":["45"]},"arcs":[[817],[818]]},{"type":"MultiLineString","properties":{"kind":"highway","network":"e-road","sort_rank":383,"kind_detail":"motorway","source":"naturalearthdata.com","min_zoom":3.0,"all_networks":["e-road"],"shield_text":"45","ref":"45","id":4490,"all_shield_texts":["45"]},"arcs":[[819],[820],[821],[822]]},{"type":"LineString","properties":{"kind":"highway","network":"e-road","sort_rank":383,"kind_detail":"motorway","source":"naturalearthdata.com","min_zoom":3.0,"all_networks":["e-road"],"landuse_kind":"urban_area","shield_text":"45","ref":"45","id":4491,"all_shield_texts":["45"]},"arcs":[823]},{"type":"MultiLineString","properties":{"kind":"highway","network":"e-road","sort_rank":383,"kind_detail":"motorway","source":"naturalearthdata.com","min_zoom":3.0,"all_networks":["e-road"],"shield_text":"45","ref":"45","id":4491,"all_shield_texts":["45"]},"arcs":[[824],[825]]},{"type":"LineString","properties":{"kind":"highway","network":"e-road","sort_rank":383,"kind_detail":"motorway","source":"naturalearthdata.com","min_zoom":3.0,"all_networks":["e-road"],"landuse_kind":"urban_area","shield_text":"20","ref":"20","id":4496,"all_shield_texts":["20"]},"arcs":[826]},{"type":"MultiLineString","properties":{"kind":"highway","network":"e-road","sort_rank":383,"kind_detail":"motorway","source":"naturalearthdata.com","min_zoom":3.0,"all_networks":["e-road"],"landuse_kind":"urban_area","shield_text":"20","ref":"20","id":4496,"all_shield_texts":["20"]},"arcs":[[827],[828]]},{"type":"MultiLineString","properties":{"kind":"highway","network":"e-road","sort_rank":383,"kind_detail":"motorway","source":"naturalearthdata.com","min_zoom":3.0,"all_networks":["e-road"],"shield_text":"20","ref":"20","id":4496,"all_shield_texts":["20"]},"arcs":[[829],[830],[831],[832]]},{"type":"LineString","properties":{"kind":"highway","network":"e-road","sort_rank":383,"kind_detail":"motorway","source":"naturalearthdata.com","min_zoom":6.0,"all_networks":["e-road"],"shield_text":"47","ref":"47","id":5368,"all_shield_texts":["47"]},"arcs":[833]},{"type":"LineString","properties":{"source":"naturalearthdata.com","kind":"highway","kind_detail":"trunk","sort_rank":355,"landuse_kind":"urban_area","min_zoom":6.0,"id":5680},"arcs":[834]},{"type":"LineString","properties":{"source":"naturalearthdata.com","kind":"highway","sort_rank":355,"kind_detail":"trunk","min_zoom":6.0,"id":5680},"arcs":[835]},{"type":"LineString","properties":{"kind":"major_road","network":"e-road","sort_rank":380,"kind_detail":"primary","source":"naturalearthdata.com","min_zoom":6.0,"shield_text":"47","ref":"47","id":5681},"arcs":[836]},{"type":"LineString","properties":{"kind":"highway","network":"e-road","sort_rank":383,"kind_detail":"motorway","source":"naturalearthdata.com","min_zoom":7.0,"all_networks":["e-road"],"landuse_kind":"urban_area","shield_text":"20","ref":"20","id":5901,"all_shield_texts":["20"]},"arcs":[837]},{"type":"LineString","properties":{"kind":"highway","network":"e-road","sort_rank":383,"kind_detail":"motorway","source":"naturalearthdata.com","min_zoom":7.0,"all_networks":["e-road"],"landuse_kind":"urban_area","shield_text":"20","ref":"20","id":5901,"all_shield_texts":["20"]},"arcs":[838]},{"type":"LineString","properties":{"kind":"highway","network":"e-road","sort_rank":383,"kind_detail":"motorway","source":"naturalearthdata.com","min_zoom":7.0,"all_networks":["e-road"],"shield_text":"20","ref":"20","id":5901,"all_shield_texts":["20"]},"arcs":[839]},{"type":"LineString","properties":{"source":"naturalearthdata.com","kind":"highway","sort_rank":383,"kind_detail":"motorway","min_zoom":7.0,"id":6340},"arcs":[840]},{"type":"LineString","properties":{"source":"naturalearthdata.com","kind":"highway","kind_detail":"motorway","sort_rank":383,"landuse_kind":"protected_area","min_zoom":6.0,"id":8104},"arcs":[841]},{"type":"LineString","properties":{"source":"naturalearthdata.com","kind":"highway","kind_detail":"motorway","sort_rank":383,"landuse_kind":"urban_area","min_zoom":6.0,"id":8104},"arcs":[842]},{"type":"LineString","properties":{"source":"naturalearthdata.com","kind":"highway","sort_rank":383,"kind_detail":"motorway","min_zoom":6.0,"id":8104},"arcs":[843]},{"type":"LineString","properties":{"source":"naturalearthdata.com","kind":"major_road","kind_detail":"secondary","sort_rank":379,"landuse_kind":"urban_area","min_zoom":6.0,"id":54363},"arcs":[844]},{"type":"LineString","properties":{"source":"naturalearthdata.com","kind":"major_road","kind_detail":"secondary","sort_rank":379,"landuse_kind":"urban_area","min_zoom":6.0,"id":54379},"arcs":[845]},{"type":"LineString","properties":{"source":"naturalearthdata.com","kind":"major_road","sort_rank":379,"kind_detail":"secondary","min_zoom":6.0,"id":54379},"arcs":[846]},{"type":"LineString","properties":{"source":"naturalearthdata.com","kind":"major_road","kind_detail":"secondary","sort_rank":379,"landuse_kind":"protected_area","min_zoom":6.0,"id":54499},"arcs":[847]},{"type":"LineString","properties":{"source":"naturalearthdata.com","kind":"major_road","kind_detail":"secondary","sort_rank":379,"landuse_kind":"protected_area","min_zoom":6.0,"id":54499},"arcs":[848]},{"type":"LineString","properties":{"source":"naturalearthdata.com","kind":"major_road","kind_detail":"secondary","sort_rank":379,"landuse_kind":"urban_area","min_zoom":6.0,"id":54499},"arcs":[849]},{"type":"MultiLineString","properties":{"source":"naturalearthdata.com","kind":"major_road","sort_rank":379,"kind_detail":"secondary","min_zoom":6.0,"id":54499},"arcs":[[850],[851]]},{"type":"LineString","properties":{"source":"naturalearthdata.com","kind":"major_road","kind_detail":"secondary","sort_rank":379,"landuse_kind":"urban_area","min_zoom":6.0,"id":54512},"arcs":[852]},{"type":"LineString","properties":{"source":"naturalearthdata.com","kind":"major_road","sort_rank":379,"kind_detail":"secondary","min_zoom":6.0,"id":54512},"arcs":[853]},{"type":"LineString","properties":{"source":"naturalearthdata.com","kind":"major_road","kind_detail":"secondary","sort_rank":379,"landuse_kind":"protected_area","min_zoom":6.0,"id":54531},"arcs":[854]},{"type":"LineString","properties":{"source":"naturalearthdata.com","kind":"major_road","kind_detail":"secondary","sort_rank":379,"landuse_kind":"protected_area","min_zoom":6.0,"id":54531},"arcs":[855]},{"type":"LineString","properties":{"source":"naturalearthdata.com","kind":"major_road","sort_rank":379,"kind_detail":"secondary","min_zoom":6.0,"id":54531},"arcs":[856]}]},"earth":{"type":"GeometryCollection","geometries":[{"type":"MultiPolygon","properties":{"sort_rank":10,"source":"naturalearthdata.com","min_zoom":0.0,"kind":"earth","area":213748998541},"arcs":[[[857]],[[858]],[[859]],[[860]],[[861]],[[862]],[[863]],[[864]],[[865]],[[866]],[[867]],[[868]],[[869]],[[870]],[[871]],[[872]]]},{"type":"Point","properties":{"label_placement":true,"kind":"island","name":"Fyn","area":9206530048,"name:de":"F\u00fcnen","source":"openstreetmap.org","min_zoom":7.0,"id":-5175917,"osm_relation":true},"coordinates":[2780,2952]}]},"landuse":{"type":"GeometryCollection","geometries":[{"type":"Polygon","properties":{"kind":"protected_area","protect_class":"4","area":3963320064,"sort_rank":17,"source":"openstreetmap.org","min_zoom":4.0,"tier":2,"id":-4672257,"osm_relation":true},"arcs":[[873],[874],[875],[876],[877],[878],[879],[880]]},{"type":"MultiPolygon","properties":{"kind":"national_park","protect_class":"2","area":23093265770,"sort_rank":18,"source":"openstreetmap.org","min_zoom":3.0,"tier":1,"osm_relation":true},"arcs":[[[881]],[[882],[883],[884],[885]]]},{"type":"Polygon","properties":{"kind":"protected_area","protect_class":"5","area":658646016,"sort_rank":17,"source":"openstreetmap.org","min_zoom":6.0,"tier":2,"id":-334374,"osm_relation":true},"arcs":[[886]]},{"type":"MultiPolygon","properties":{"source":"naturalearthdata.com","kind":"urban_area","name":"","area":10731917052,"sort_rank":11,"min_zoom":4.0},"arcs":[[[887]],[[888]],[[889]],[[890]],[[891]],[[892]],[[893]],[[894]],[[895]],[[896]],[[897]],[[898]],[[899]],[[900]],[[901]],[[902]],[[903]],[[904]],[[905]],[[906]],[[907]],[[908]],[[909]],[[910]],[[911]],[[912]],[[913]],[[914]],[[915]]]},{"type":"MultiPolygon","properties":{"kind":"protected_area","area":2220489984,"sort_rank":17,"operator":"Naturpark Holsteinische Schweiz e.V.","source":"openstreetmap.org","min_zoom":4.0,"tier":2,"id":-2204482,"osm_relation":true},"arcs":[[[916]],[[917]]]},{"type":"Polygon","properties":{"source":"openstreetmap.org","kind":"nature_reserve","area":831641024,"tier":2,"id":178089830,"min_zoom":6.0,"sort_rank":23},"arcs":[[918]]},{"type":"MultiPolygon","properties":{"kind":"park","area":4497129984,"sort_rank":24,"source":"openstreetmap.org","min_zoom":4.0,"tier":2,"id":-4163241,"osm_relation":true},"arcs":[[[919]],[[920]]]},{"type":"Polygon","properties":{"kind":"protected_area","protect_class":"4","area":592195008,"sort_rank":17,"source":"openstreetmap.org","min_zoom":6.0,"tier":2,"id":-4673859,"osm_relation":true},"arcs":[[921]]},{"type":"MultiPolygon","properties":{"kind":"protected_area","protect_class":"5","area":7687967214,"sort_rank":17,"source":"openstreetmap.org","min_zoom":4.0,"tier":2,"osm_relation":true},"arcs":[[[922]],[[923]]]}]}},"type":"Topology","transform":{"translate":[8.4375,54.1624339681],"scale":[0.0006866455,0.0003940769]},"arcs":[[[563,1887],[117,-21],[114,-47],[309,-73],[24,-22],[7,-26],[4,-35],[11,-30],[26,-11],[106,0]],[[430,1844],[99,37],[34,6]],[[325,1862],[51,-16],[54,-2]],[[1380,1667],[29,-28],[25,-3]],[[1281,1622],[22,4],[14,15],[21,6],[16,14],[26,6]],[[1434,1636],[22,8]],[[0,2323],[22,-16],[20,-32],[7,-33],[2,-77],[6,-30],[15,-27],[1,0],[1,0],[1,-1],[1,-1],[56,-24],[21,-24],[8,-47],[2,-56],[9,-34],[19,-17],[134,-42]],[[1456,1644],[216,173],[9,-10],[5,-24],[14,-28],[49,-41],[59,-26],[119,-21],[182,29],[56,-17],[167,-142]],[[2610,3889],[98,43],[49,14],[74,-14],[107,-57],[73,-29],[66,0],[82,14],[57,43],[74,-28]],[[3290,3875],[74,-57],[82,-129],[65,-100],[33,-100],[8,-28]],[[3290,3875],[49,128],[24,93]],[[3749,2247],[-82,-257],[-74,-243],[-41,-200]],[[89,4096],[-12,-13],[-27,-5]],[[50,4078],[-18,4],[-22,14]],[[1803,3924],[6,28],[1,22],[-7,22],[-17,15],[-32,10],[-48,6],[-16,10],[-2,19],[3,15],[6,15],[2,10]],[[2239,3131],[-8,10]],[[2844,3145],[-193,-118],[-91,-28],[-163,92],[-144,24],[-115,147],[-288,141],[-1,88],[-80,27],[-161,-50],[-41,-70],[-56,-34],[-130,35],[-86,-12],[-32,-39],[-50,-249]],[[1213,3097],[8,-102],[29,-125],[11,-88]],[[1232,3205],[-3,-4],[-2,-3],[-2,-5],[-1,-3],[-4,-26],[-7,-42],[-1,-5],[0,-5],[8,-113],[1,-8],[1,-5],[28,-116],[10,-86],[-1,-149],[54,-201],[-22,-198],[-62,-135],[-38,-164],[143,-232],[65,-174],[66,-8],[-10,29]],[[579,1591],[78,232],[-47,175],[-79,140],[37,161],[-44,192],[-79,107],[-27,198],[75,193],[-37,83],[-29,197],[-22,36],[-174,-2],[-180,30],[-20,-18]],[[1894,3560],[-12,-16]],[[1882,3544],[-273,-75],[-42,-71],[-56,-34],[-129,35],[-75,-5],[-71,-80],[-157,-4],[-128,49],[-266,-4],[-316,-53],[-318,31],[-20,-20]],[[1894,3560],[1,1]],[[4096,3068],[-378,-75],[-211,-109],[-130,89],[-131,52]],[[3246,3025],[-22,3]],[[3224,3028],[-109,20],[-249,100],[-53,-5],[-162,-116],[-82,-29],[-172,93],[-114,11],[-150,163],[-286,141],[3,97],[32,41]],[[1895,3561],[0,1]],[[1895,3562],[0,1]],[[1895,3563],[1,3]],[[1896,3566],[1,2]],[[3224,3028],[-2,1]],[[3247,3024],[-1,1]],[[1196,1966],[-1,-4]],[[1344,1672],[-2,8]],[[1838,4096],[-16,-108],[-102,-61],[-108,6],[-11,-21],[71,-37],[75,6],[35,-28],[-21,-81],[21,-115],[30,-37],[80,-27],[-2,-41],[-281,-83],[-42,-71],[-56,-35],[-129,36],[-82,-8],[-27,-25],[-8,-12],[-1,-2],[-1,-4],[-8,-28],[-1,-5],[-1,-76],[-40,-117],[50,-359],[-5,-125],[55,-204],[-22,-198],[-62,-135],[-38,-164],[143,-232],[11,-40],[35,-106],[37,-32]],[[1417,1527],[45,-4],[10,15],[-31,17],[-24,-28]],[[1417,1527],[-41,-59],[31,-125],[-43,-157],[14,-140],[162,-160],[75,-42],[47,-232],[149,-271]],[[1811,341],[28,10],[2,15],[-27,-6],[-3,-19]],[[1811,341],[12,-29],[38,-1],[110,-86],[81,-203],[23,-22]],[[1238,3214],[-2,-4],[0,1],[2,3]],[[1262,3343],[0,2],[1,4],[-1,-6]],[[1263,2753],[0,6],[0,-6]],[[1303,2299],[2,7],[-2,-7]],[[1452,1554],[3,-2],[3,-2],[-3,2],[-3,2]],[[1518,3369],[4,4],[-4,-4]],[[1601,3920],[1,0],[-1,-5],[0,-1],[0,-2],[-1,0],[1,4],[0,4]],[[1798,352],[1,-1],[-4,6],[0,-1],[3,-4]],[[1897,3571],[-2,-7],[-1,-3],[1,3],[2,7]],[[2844,3145],[-275,-147],[-172,93],[-141,22],[-123,152],[-287,142],[10,118],[40,43]],[[2468,387],[22,-51],[140,-34],[12,-34],[35,-54],[-1,-113],[64,-101]],[[2896,0],[32,29],[82,1],[88,-27],[4,-3]],[[2468,387],[-1,-3],[-1,-3],[2,6]],[[2539,316],[-2,2],[-1,0],[2,-2],[1,0]],[[2630,301],[1,-2],[1,-2],[-1,2],[-1,3],[0,-1]],[[2678,178],[0,-4],[-1,7],[0,2],[1,-5]],[[3078,13],[-1,0],[1,-1],[4,-3],[-4,4]],[[960,0],[8,70],[-104,351],[71,120],[-17,233],[-30,15],[-12,19],[0,109],[-29,27],[-95,279],[-55,242],[-73,50],[-50,94],[-131,76],[-155,147],[-288,-28]],[[579,1584],[0,9],[0,-4],[0,-5]],[[898,786],[2,0],[8,-2],[-10,2]],[[1399,1272],[1,4]],[[1412,1004],[-4,3]],[[2075,0],[-23,22],[-82,205],[-109,84],[-38,1],[-12,30]],[[1811,342],[3,17],[27,7],[-2,-15],[-28,-9]],[[1811,342],[-149,270],[-47,231],[-75,43],[-163,163],[-13,137],[43,158],[-31,126],[59,83],[9,3],[6,-2],[2,0],[6,-4]],[[1601,857],[6,-5]],[[1681,580],[-2,5]],[[2064,7],[-4,4]],[[1452,1554],[3,-2],[3,-2],[-3,2],[-3,2]],[[1796,356],[4,-6],[-2,4],[-2,2]],[[2468,387],[23,-47],[45,59],[31,5],[13,12]],[[2504,367],[1,2]],[[2524,386],[-1,-1]],[[2579,415],[1,1]],[[30,3312],[-1,110],[-29,82]],[[0,3538],[17,88],[79,106],[106,80],[55,284]],[[2316,0],[5,9],[33,45],[-19,110],[83,137],[50,25],[-1,61]],[[2341,32],[-3,-3],[3,3]],[[2467,387],[-1,-5],[0,2],[1,3]],[[2467,387],[1,-61],[-50,-25],[-83,-137],[19,-110],[-33,-45],[-5,-9]],[[2338,29],[1,1],[2,2],[-3,-3]],[[2467,387],[-1,-5],[0,2],[1,3]],[[2316,0],[5,9],[33,45],[-19,110],[83,137],[50,25],[6,19],[-9,24],[0,6],[1,6],[2,6]],[[2341,32],[-3,-3],[3,3]],[[2366,202],[2,4],[-1,-1],[-1,-3]],[[2468,387],[-1,-3],[-1,-3],[2,6]],[[2837,3146],[-42,-39],[187,-254],[-15,-152],[19,-73],[54,-69],[-24,-90],[18,-65],[93,-145],[40,16]],[[1838,4096],[-16,-108],[-102,-61],[-118,-2],[2,-21],[64,-28],[95,-4],[24,-33],[-19,-84]],[[1768,3755],[1,-1]],[[1769,3754],[17,-104],[112,-67],[-43,-62],[-9,-114],[287,-142],[120,-150],[144,-24],[172,-93],[275,147]],[[2239,3131],[-8,10]],[[1769,3755],[-1,0]],[[1769,3754],[0,1]],[[2322,0],[32,54],[-19,110],[83,137],[50,25],[0,61]],[[2468,387],[-2,-6],[-1,-3],[1,3],[2,6]],[[2466,384],[-35,-20],[-20,23],[-47,-14],[-119,26],[-42,-25],[-200,15],[-95,-43],[-20,-51],[-64,16],[-13,31]],[[1811,342],[3,17],[27,7],[-2,-15],[-28,-9]],[[1811,342],[-149,270],[-47,231],[-221,176],[-110,-30],[-128,-124],[-143,-62],[-113,-17]],[[1412,1004],[-4,3]],[[1601,857],[6,-5]],[[1681,580],[-2,5]],[[2198,374],[3,0]],[[907,785],[-2,1],[-5,0],[-1,0],[5,0],[3,-1]],[[1796,356],[1,-2],[3,-4],[-2,4],[-2,2]],[[2468,387],[-2,-6],[-1,-3],[1,3],[2,6]],[[578,1598],[-135,87],[-160,149],[-283,-30]],[[960,0],[8,70],[-104,351],[71,120],[-24,133],[7,100],[-30,15],[-12,19],[0,109],[-29,27],[-96,282],[-26,183],[-147,188]],[[344,1779],[5,-4],[-5,4]],[[579,1584],[0,9],[0,-4],[0,-5]],[[741,1327],[1,0],[-2,7],[1,-7]],[[775,1167],[1,-3],[2,-3],[-2,3],[-1,3]],[[864,428],[1,-6],[-1,6]],[[898,786],[2,0],[8,-2],[-10,2]],[[935,545],[0,1],[-2,6],[2,-6],[0,-1]],[[0,3715],[79,-4],[-59,-79],[-20,-75]],[[0,3520],[32,-201]],[[579,1591],[78,232],[-47,175],[-79,140],[37,161],[-44,192],[-79,107],[-27,198],[75,193],[-37,83],[-29,197],[-22,36],[-373,14]],[[32,3319]],[[32,3319],[0,-1]],[[32,3318]],[[32,3318],[-1,-1]],[[31,3317],[0,-1]],[[31,3316]],[[31,3316],[0,-1]],[[31,3315]],[[31,3315]],[[2239,3131],[-8,10]],[[579,1580],[79,201],[-42,175]],[[961,0],[7,67],[-104,357],[71,117],[-25,133],[8,100],[-30,15],[-12,19],[0,109],[-29,27],[-36,157],[-59,122],[-55,242],[-73,50],[-50,94],[-131,76],[-157,148],[-286,-29]],[[345,1779],[3,-3],[1,-2],[-2,2],[-2,3]],[[578,1594]],[[578,1594],[0,-2]],[[578,1592],[0,-7]],[[578,1585],[0,9]],[[578,1594],[0,-2],[0,-7]],[[741,1327],[-1,7],[1,-7]],[[775,1167],[1,-3],[2,-4],[-3,6],[0,1]],[[864,428],[0,-6],[0,6]],[[908,784],[-10,2],[1,0],[9,-2]],[[933,552],[1,-4],[1,-3],[-1,0],[-1,7]],[[966,78],[0,1],[1,-4],[-1,3]],[[2468,387],[22,-51],[140,-34],[12,-34],[35,-54],[-1,-113],[64,-101]],[[2896,0],[32,29],[82,1],[88,-27],[4,-3]],[[2468,387],[-1,-3],[-1,-3],[2,6]],[[2539,316],[-2,2],[-1,0],[2,-2],[1,0]],[[2630,301],[1,-2],[1,-2],[-1,2],[-1,3],[0,-1]],[[2677,179],[0,4],[0,-5],[0,1]],[[3077,12],[4,-2],[0,-1],[-3,3],[-1,0]],[[1235,3209],[3,5]],[[1344,1672],[-2,8]],[[2075,0],[-23,22],[-82,205],[-109,84],[-38,1],[-12,30]],[[1811,342],[3,17],[27,7],[-2,-15],[-28,-9]],[[1811,342],[-149,270],[-47,231],[-75,43],[-162,160],[-14,140],[43,158],[-31,125],[42,58]],[[1418,1527],[23,28],[31,-17],[-10,-15],[-44,4]],[[1418,1527],[-38,32],[-32,98],[-14,48],[-143,232],[38,163],[62,134],[22,200],[-55,204],[-1,77],[6,46],[-50,361],[51,228],[38,42],[80,7],[129,-35],[56,34],[42,71],[281,81],[5,45],[-82,25],[-31,37],[-21,117],[21,79],[-36,28],[-75,-6],[-70,36],[11,22],[108,-6],[102,61],[16,108]],[[1195,1962],[1,4],[-1,-4]],[[1262,3343],[0,2],[1,4],[-1,-6]],[[1263,2753],[0,6],[0,-6]],[[1303,2299],[2,7],[-2,-7]],[[1452,1554],[3,-2],[3,-2],[-3,2],[-3,2]],[[1519,3369],[4,4],[-4,-4]],[[1602,3920],[0,-2],[-1,-3],[0,-3],[0,3],[1,5]],[[1796,356],[1,-2],[3,-4],[-2,4],[-2,2]],[[1895,3563],[2,8],[1,0],[-2,-7],[-1,-1]],[[900,786],[113,17],[143,62],[128,124],[110,30],[221,-175],[47,-232],[149,-271]],[[1811,341],[28,10],[2,15],[-27,-6],[-3,-19]],[[1811,341],[13,-30],[64,-16],[20,51],[94,43],[201,-15],[42,25],[119,-26],[47,14],[20,-23],[36,23]],[[1410,1005],[-2,2]],[[1602,856],[5,-4]],[[1678,585],[3,-4]],[[2198,374],[3,0]],[[907,785],[-2,1],[-5,0],[-1,0],[5,0],[3,-1]],[[1798,352],[1,-1],[-4,6],[0,-1],[3,-4]],[[2468,387],[-2,-6],[-1,-3],[1,3],[2,6]],[[259,392]],[[259,392],[-1,1]],[[258,393],[-1,1]],[[257,394]],[[257,394],[2,-2]],[[467,414]],[[467,414],[1,0]],[[468,414]],[[468,414]],[[468,414]],[[468,414],[-1,0]],[[467,414]],[[504,418]],[[504,418],[2,0]],[[506,418]],[[506,418],[-2,0]],[[504,418]],[[572,436]],[[572,436],[1,0]],[[573,436]],[[573,436],[-1,0]],[[572,436]],[[632,416],[0,-1]],[[632,415],[1,0]],[[633,415]],[[633,415]],[[633,415],[-1,1]],[[727,386],[-1,1]],[[726,387]],[[726,387],[0,1]],[[726,388]],[[726,388],[-1,1]],[[725,389]],[[725,389],[0,1]],[[725,390],[0,1]],[[725,391]],[[725,391],[-1,1]],[[724,392],[0,1]],[[724,393],[0,1]],[[724,394],[0,1]],[[724,395],[0,1]],[[724,396],[1,0]],[[725,396],[0,2]],[[725,398]],[[725,398]],[[725,398],[0,2]],[[725,400],[5,22]],[[730,422],[3,10]],[[733,432],[1,4]],[[734,436],[3,14]],[[737,450]],[[737,450],[0,1]],[[737,451],[1,3]],[[738,454],[1,6]],[[739,460],[3,11]],[[742,471],[1,3]],[[743,474],[0,1]],[[743,475],[0,1]],[[743,476],[1,2]],[[744,478],[1,1]],[[745,479],[0,1]],[[745,480],[0,1]],[[745,481],[1,1]],[[746,482],[0,1]],[[746,483],[1,1]],[[747,484],[1,1]],[[748,485],[1,2]],[[749,487],[0,1]],[[749,488],[1,1]],[[750,489],[1,1]],[[751,490],[6,7]],[[757,497]],[[757,497],[2,2]],[[759,499],[2,2]],[[761,501]],[[761,501],[0,1]],[[761,502],[3,3]],[[764,505],[1,1]],[[765,506],[1,1]],[[766,507],[4,5]],[[770,512],[4,4]],[[774,516],[3,4]],[[777,520],[8,10]],[[785,530],[5,5]],[[790,535],[9,11]],[[799,546],[3,4]],[[802,550],[6,6]],[[808,556],[4,6]],[[812,562],[5,5]],[[817,567],[0,1]],[[817,568],[2,2]],[[819,570]],[[819,570],[2,2]],[[821,572],[1,1]],[[822,573],[1,1]],[[823,574]],[[823,574],[1,1]],[[824,575],[1,1]],[[825,576],[1,1]],[[826,577],[1,0]],[[827,577],[0,1]],[[827,578],[1,1]],[[828,579],[1,0]],[[829,579],[1,1]],[[830,580]],[[830,580],[1,0]],[[831,580],[1,1]],[[832,581],[1,1]],[[833,582],[1,0]],[[834,582],[1,1]],[[835,583],[1,0]],[[836,583],[3,1]],[[839,584],[2,1]],[[841,585],[2,1]],[[843,586]],[[843,586],[1,1]],[[844,587],[1,0]],[[845,587],[1,1]],[[846,588],[1,0]],[[847,588],[1,1]],[[848,589],[0,1]],[[848,590],[2,1]],[[850,591]],[[850,591],[1,1]],[[851,592],[1,1]],[[852,593],[1,1]],[[853,594],[2,1]],[[855,595],[1,1]],[[856,596],[0,1]],[[856,597],[1,1]],[[857,598],[0,1]],[[857,599],[2,2]],[[859,601]],[[859,601],[1,2]],[[860,603],[0,1]],[[860,604],[1,1]],[[861,605],[1,2]],[[862,607],[0,1]],[[862,608],[3,5]],[[865,613],[3,6]],[[868,619],[3,7]],[[871,626],[5,12]],[[876,638],[2,2]],[[878,640],[3,8]],[[881,648],[1,1]],[[882,649],[1,2]],[[883,651],[0,1]],[[883,652],[1,1]],[[884,653],[1,2]],[[885,655],[1,2]],[[886,657],[1,1]],[[887,658],[2,3]],[[889,661],[1,1]],[[890,662],[0,1]],[[890,663],[1,0]],[[891,663],[0,1]],[[891,664],[1,2]],[[892,666],[0,1]],[[892,667],[1,2]],[[893,669],[0,1]],[[893,670]],[[893,670],[1,1]],[[894,671]],[[894,671],[0,1]],[[894,672],[1,0]],[[895,672],[0,1]],[[895,673],[1,1]],[[896,674],[3,3]],[[899,677]],[[899,677],[8,8]],[[907,685],[2,2]],[[909,687],[1,2]],[[910,689],[1,0]],[[911,689],[0,1]],[[911,690]],[[911,690],[1,0]],[[912,690],[0,1]],[[912,691],[0,1]],[[912,692],[0,1]],[[912,693]],[[912,693],[3,17]],[[915,710]],[[915,710],[1,8]],[[916,718],[1,4]],[[917,722],[0,1]],[[917,723],[0,1]],[[917,724],[0,1]],[[917,725],[0,3]],[[917,728],[1,33]],[[918,761],[0,2]],[[918,763],[0,3]],[[918,766],[0,4]],[[918,770],[0,1]],[[918,771],[0,1]],[[918,772],[0,1]],[[918,773],[0,1]],[[918,774]],[[918,774],[0,1]],[[918,775],[-1,1]],[[917,776],[0,1]],[[917,777],[0,1]],[[917,778],[-1,0]],[[916,778],[0,1]],[[916,779],[-1,1]],[[915,780]],[[915,780],[0,1]],[[915,781],[-1,0]],[[914,781],[-1,1]],[[913,782]],[[913,782],[-1,1]],[[912,783]],[[912,783],[-1,0]],[[911,783]],[[911,783],[-1,1]],[[910,784],[-1,0]],[[909,784],[-1,0]],[[908,784],[0,1]],[[908,785],[-1,0]],[[907,785],[-1,0]],[[906,785],[-2,0]],[[904,785],[-1,0]],[[903,785],[-3,1]],[[900,786],[-3,0]],[[727,386],[-1,1]],[[726,387],[-1,1]],[[725,388]],[[725,388],[-2,2]],[[723,390]],[[723,390],[-1,1]],[[722,391]],[[722,391],[-1,1]],[[721,392]],[[721,392],[-1,0]],[[720,392]],[[720,392],[-1,1]],[[719,393]],[[719,393],[-1,0]],[[718,393],[-1,0]],[[717,393],[-1,0]],[[716,393],[-7,2]],[[709,395],[-1,0]],[[708,395],[-2,0]],[[706,395],[-1,0]],[[705,395],[-1,0]],[[704,395],[-1,1]],[[703,396],[-1,0]],[[702,396],[-1,0]],[[701,396],[-5,0]],[[696,396],[-4,0]],[[692,396],[-2,1]],[[690,397],[-1,0]],[[689,397],[-1,0]],[[688,397],[-1,0]],[[687,397],[-1,0]],[[686,397],[-1,1]],[[685,398],[-2,0]],[[683,398],[-30,11]],[[653,409],[-13,4]],[[640,413],[-6,2]],[[634,415],[-1,0]],[[633,415],[-5,2]],[[628,417],[-1,0]],[[627,417],[-1,1]],[[626,418],[-2,0]],[[624,418],[-4,2]],[[620,420],[-8,4]],[[612,424],[-10,4]],[[602,428]],[[602,428],[-7,3]],[[595,431],[-6,3]],[[589,434],[-2,1]],[[587,435],[-2,1]],[[585,436],[-1,0]],[[584,436]],[[584,436],[-1,0]],[[583,436],[-1,1]],[[582,437]],[[582,437],[-1,0]],[[581,437],[-1,0]],[[580,437],[-1,0]],[[579,437],[-4,-1]],[[575,436],[-3,0]],[[572,436],[-1,0]],[[571,436],[-1,-1]],[[570,435],[-1,0]],[[569,435],[-1,0]],[[568,435],[-1,0]],[[567,435],[-1,0]],[[566,435],[-1,0]],[[565,435],[-7,-2]],[[558,433],[-6,-2]],[[552,431],[-7,-2]],[[545,429],[-5,-1]],[[540,428],[-3,-1]],[[537,427],[-2,0]],[[535,427],[0,-1]],[[535,426],[-2,0]],[[533,426],[-5,-2]],[[528,424],[-2,0]],[[526,424],[-3,-1]],[[523,423],[-5,-1]],[[518,422],[-4,-1]],[[514,421],[-3,-1]],[[511,420],[-1,-1]],[[510,419],[-1,0]],[[509,419],[-1,0]],[[508,419]],[[508,419],[-3,-1]],[[505,418],[-4,-1]],[[501,417],[-4,-1]],[[497,416],[-1,-1]],[[496,415],[-1,0]],[[495,415],[-1,0]],[[494,415]],[[494,415],[-1,0]],[[493,415],[-1,0]],[[492,415],[-1,-1]],[[491,414],[-1,0]],[[490,414],[-2,0]],[[488,414],[-5,0]],[[483,414],[-7,0]],[[476,414],[-7,0]],[[469,414],[-1,0]],[[468,414],[-1,0]],[[467,414],[-1,0]],[[466,414],[-2,0]],[[464,414],[-6,-1]],[[458,413],[-7,0]],[[451,413],[-4,-1]],[[447,412],[-7,0]],[[440,412],[-10,-1]],[[430,411],[-1,0]],[[429,411],[-1,0]],[[428,411],[-3,-1]],[[425,410],[-7,0]],[[418,410],[-12,0]],[[406,410],[-1,0]],[[405,410]],[[405,410],[-1,0]],[[404,410],[-1,0]],[[403,410],[-1,-1]],[[402,409],[-1,0]],[[401,409],[-1,0]],[[400,409],[-3,-2]],[[397,407]],[[397,407],[-1,0]],[[396,407],[-2,-1]],[[394,406],[-3,-1]],[[391,405],[-1,-1]],[[390,404],[-4,-1]],[[386,403],[-2,-1]],[[384,402],[-1,0]],[[383,402],[-1,-1]],[[382,401],[-1,0]],[[381,401],[0,-1]],[[381,400],[-1,0]],[[380,400],[-1,-1]],[[379,399],[-2,-1]],[[377,398],[-3,-2]],[[374,396]],[[374,396],[-7,-5]],[[367,391]],[[367,391],[-12,-7]],[[355,384],[-12,-9]],[[343,375],[-3,-1]],[[340,374],[-6,-5]],[[334,369],[-6,-3]],[[328,366],[-2,-2]],[[326,364],[-1,0]],[[325,364],[-1,-1]],[[324,363]],[[324,363],[-1,-1]],[[323,362],[-1,0]],[[322,362],[-1,0]],[[321,362],[-1,0]],[[320,362]],[[320,362],[-1,0]],[[319,362],[-2,0]],[[317,362],[-10,0]],[[307,362],[-2,0]],[[305,362]],[[305,362],[-1,0]],[[304,362],[-1,0]],[[303,362],[-1,0]],[[302,362],[-1,1]],[[301,363]],[[301,363],[-3,1]],[[298,364],[-4,2]],[[294,366],[-3,1]],[[291,367],[-1,0]],[[290,367],[-1,1]],[[289,368]],[[289,368],[-1,0]],[[288,368],[0,1]],[[288,369],[-1,0]],[[287,369],[-1,1]],[[286,370],[-1,0]],[[285,370],[-3,3]],[[282,373],[-8,7]],[[274,380],[-3,2]],[[271,382],[-3,3]],[[268,385],[-6,4]],[[262,389],[-2,3]],[[260,392],[-2,1]],[[258,393],[-1,1]],[[727,386]],[[727,386],[1,-1]],[[728,385]],[[728,385]],[[728,385],[1,-1]],[[729,384],[1,-1]],[[730,383]],[[727,386],[1,-1]],[[728,385]],[[728,385]],[[728,385],[1,-1]],[[729,384],[1,0]],[[730,384],[0,-1]],[[730,383]],[[816,566],[1,1]],[[899,786]],[[899,786]],[[899,786]],[[899,786],[1,0]],[[900,786]],[[900,786],[2,0]],[[902,786],[1,-1]],[[903,785],[1,0]],[[904,785],[1,0]],[[905,785],[1,0]],[[906,785]],[[906,785],[1,0]],[[907,785]],[[907,785]],[[907,785]],[[907,785],[-1,0]],[[906,785]],[[906,785],[-1,0]],[[905,785]],[[905,785],[-1,1]],[[904,786],[-1,0]],[[903,786],[-1,0]],[[902,786],[-2,0]],[[900,786]],[[900,786]],[[900,786],[-1,0]],[[899,786]],[[899,786]],[[306,362],[2,0]],[[396,407]],[[396,407],[1,0]],[[728,385],[2,-2]],[[764,506],[1,0]],[[765,506],[0,1]],[[4002,723],[-82,-63],[-53,-128],[-67,-45],[-48,-123],[-65,-41],[-126,-7],[9,-28],[3,-140],[-35,-137],[-11,-11]],[[4063,860],[-64,-127],[3,-10]],[[4002,723],[2,-1]],[[4004,722],[0,-1]],[[4004,721],[1,0]],[[4005,721],[0,-1]],[[4005,720],[1,-1]],[[4006,719]],[[4006,719],[1,-1]],[[4007,718]],[[4007,718],[0,-1]],[[4007,717],[0,-1]],[[4007,716]],[[4007,716],[0,-3]],[[4007,713],[0,-1]],[[4007,712]],[[4007,712],[0,5]],[[3561,309],[2,-5],[-2,5]],[[4060,854],[2,4],[0,1],[-2,-6],[0,1]],[[2322,0],[32,54],[-19,110],[83,137],[50,25],[0,61]],[[2468,387],[-2,-6],[-1,-3],[1,3],[2,6]],[[0,3715],[79,-4],[-59,-79],[-20,-75]],[[0,3518],[31,-203]],[[4002,723],[-82,-63],[-53,-128],[-67,-45],[-48,-123],[-65,-41],[-126,-7],[9,-28],[3,-140],[-35,-137],[-11,-11]],[[4063,860],[-64,-127],[3,-10]],[[4002,723],[2,-1]],[[4004,722],[0,-1]],[[4004,721],[1,0]],[[4005,721],[0,-1]],[[4005,720],[1,-1]],[[4006,719]],[[4006,719],[1,-1]],[[4007,718]],[[4007,718],[0,-1]],[[4007,717],[0,-1]],[[4007,716]],[[4007,716],[0,-3]],[[4007,713],[0,-1]],[[4007,712]],[[4007,712],[0,5]],[[3561,309],[2,-5],[-2,5]],[[4060,854],[2,4],[0,1],[-2,-6],[0,1]],[[2468,387],[22,-51],[140,-34],[12,-34],[35,-54],[-1,-113],[64,-101]],[[2907,0],[50,37],[139,-33],[5,-4]],[[2468,387],[-1,-3],[-1,-3],[2,6]],[[2630,301],[1,-2],[1,-2],[-1,2],[-1,3],[0,-1]],[[2678,178],[0,-4],[-1,7],[0,2],[1,-5]],[[3078,13],[-1,0],[5,-4],[-3,3],[-1,1]],[[2468,387],[22,-51],[140,-34],[12,-34],[35,-54],[-1,-113],[64,-101]],[[2907,0],[50,37],[141,-34],[4,-3]],[[2468,387],[-1,-3],[-1,-3],[2,6]],[[2630,301],[1,-2],[1,-2],[-1,2],[-1,3],[0,-1]],[[2677,179],[0,4],[0,-5],[0,1]],[[3077,12],[4,-2],[0,-1],[-3,3],[-1,0]],[[2468,387],[-2,-6],[-1,-6],[-1,-6],[10,-25],[-6,-18],[-50,-25],[-83,-137],[19,-110],[-33,-45],[-5,-9]],[[2338,29],[1,1],[2,2],[-3,-3]],[[2368,207],[-2,-4],[2,4]],[[2468,387],[-1,-3],[-1,-3],[2,6]],[[668,0],[25,96],[230,67],[28,-9],[28,-103],[156,-51]],[[683,47],[0,1]],[[690,92],[0,-2]],[[723,114],[-2,0]],[[765,126],[1,0]],[[847,145],[1,0]],[[1083,16],[-2,1]],[[967,77],[-1,3],[2,-8],[-1,5]],[[1232,3205],[-3,-5],[-2,-3],[-1,-2],[-2,-5],[-2,-10],[-10,-61],[0,-5],[1,-17]],[[2844,3145],[-193,-118],[-91,-28],[-163,92],[-144,24],[-115,147],[-288,141],[-1,88],[-80,27],[-161,-50],[-41,-70],[-56,-34],[-130,35],[-86,-12],[-32,-39],[-50,-249]],[[1213,3097],[50,-336],[-4,-126],[54,-201],[-22,-200],[-97,-287],[231,11],[198,-98],[134,165],[197,-122]],[[1400,1276],[-2,-5]],[[1410,1005],[-2,2]],[[1458,1550],[-6,4],[-2,0],[-6,2],[-9,-3],[-59,-83],[31,-127],[-43,-157],[13,-137],[163,-163],[75,-42],[47,-232],[149,-271]],[[1811,341],[28,10],[2,15],[-27,-6],[-3,-19]],[[1811,341],[12,-29],[38,-1],[110,-86],[81,-203],[23,-22]],[[1602,856],[5,-4]],[[1678,585],[3,-4]],[[2056,17],[2,-3]],[[1452,1554],[3,-2],[3,-2],[-3,2],[-3,2]],[[1798,352],[1,-1],[-4,6],[0,-1],[3,-4]],[[2844,3145],[-275,-147],[-172,93],[-144,24],[-120,150],[-287,142],[9,114],[43,62],[-112,67],[-17,104]],[[1769,3754],[-1,1]],[[1768,3755],[19,84],[-25,34],[-90,2],[-70,32],[-10,141],[-113,26],[-89,-41],[-104,63]],[[1769,3755],[-1,0]],[[1769,3754],[0,1]],[[4096,3068],[-378,-75],[-211,-109],[-130,89],[-131,52]],[[3246,3025],[-22,3]],[[3224,3028],[-363,120],[-48,-5],[-162,-116],[-91,-28],[-163,92],[-144,24],[-104,138],[-216,96],[-30,45],[-53,9],[-1,87],[-77,28],[-164,-50],[-41,-70],[-55,-34],[-202,31],[-74,-81],[-157,-4],[-128,49],[-266,-4],[-316,-53],[-318,31],[-20,-20]],[[3224,3028],[-2,1]],[[3247,3024],[-1,1]],[[0,1804],[286,29],[157,-148],[131,-76],[50,-94],[73,-50],[55,-242],[59,-122],[36,-157],[29,-27],[0,-109],[12,-19],[30,-15],[17,-233],[-71,-117],[104,-355],[-8,-69]],[[578,1585],[0,7],[0,2],[0,-2],[0,-7]],[[908,784],[-10,2],[1,0],[9,-2]],[[966,78],[0,1],[1,-4],[-1,3]],[[959,0],[8,77]],[[1451,1554],[26,-14],[9,0],[51,34],[128,-50],[143,-131],[132,-185]],[[1940,1208],[3,-7]],[[2243,630],[-76,67],[-104,32],[-49,75],[9,246],[-80,151]],[[2243,630],[7,-10]],[[2467,387],[-43,-20],[-29,67],[12,68],[-29,26],[-55,-5],[-73,97]],[[1454,1553],[1,-1],[3,-1],[1,0],[-5,2]],[[4096,944],[-80,-189],[-100,-101],[-51,-125],[-64,-41],[-49,-123],[-65,-42],[-126,-7],[9,-28],[3,-138],[-10,-53],[-28,-91],[-6,-6]],[[3561,309],[2,-5],[-2,5]],[[4060,854],[2,4],[0,1],[-2,-6],[0,1]],[[2468,387],[0,-61],[-50,-25],[-83,-137],[19,-110],[-32,-54]],[[2468,387],[-2,-6],[-1,-3],[1,3],[2,6]],[[0,1804],[286,29],[157,-148],[131,-76],[50,-94],[73,-50],[55,-242],[59,-122],[36,-157],[29,-27],[0,-109],[12,-19],[30,-15],[17,-233],[-71,-117],[104,-355],[-8,-69]],[[578,1585],[0,7],[0,2],[0,-2],[0,-7]],[[908,784],[-10,2],[1,0],[9,-2]],[[966,78],[0,1],[1,-4],[-1,3]],[[1894,3560],[-12,-16]],[[1882,3544],[-273,-75],[-42,-71],[-56,-34],[-129,35],[-75,-5],[-71,-80],[-157,-4],[-128,49],[-266,-4],[-316,-53],[-318,31],[-20,-20]],[[1894,3560],[1,1]],[[2844,3145],[-275,-147],[-172,93],[-114,11],[-150,163],[-286,141],[3,97],[32,41]],[[1895,3561],[0,1]],[[1895,3562],[0,1]],[[1895,3563],[1,3]],[[1896,3566],[1,2]],[[3862,3845],[23,-1]],[[3885,3844],[-12,1]],[[3873,3845],[-11,0]],[[3873,3845],[-11,0]],[[3885,3844],[131,-20]],[[4016,3824],[31,-2]],[[4047,3822],[49,-12]],[[3529,0],[6,6],[28,91],[10,53],[-3,138],[-9,28],[126,7],[65,42],[49,123],[64,41],[51,125],[100,101],[80,189]],[[3561,309],[2,-5],[-2,5]],[[4060,854],[2,4],[0,1],[-2,-6],[0,1]],[[2468,387],[23,-47],[45,59],[31,5],[13,12]],[[2504,367],[1,2]],[[2524,386],[-1,-1]],[[2579,415],[1,1]],[[4096,3069],[-378,-76],[-211,-109],[-135,91],[-504,173],[-49,-4],[-6,-1],[-162,-116],[-89,-29],[-165,94],[-144,23],[-119,151],[-285,138],[7,119],[43,52]],[[1887,3399],[8,-2],[-8,1],[0,1]],[[1895,3563],[2,8],[1,0],[-2,-7],[-1,-1]],[[2830,3145],[10,0],[-7,0],[-3,0]],[[3131,3043],[-1,1],[-4,1],[2,-1],[3,-1]],[[3449,2918],[-5,6],[5,-5],[0,-1]],[[3924,3031],[0,-1],[7,3],[-7,-2]],[[364,1442],[54,-4],[57,57],[70,5],[31,91]],[[959,0],[8,77]],[[3446,2922],[-200,103]],[[3246,3025],[-22,3]],[[3224,3028],[-363,120],[-48,-5],[-162,-116],[-86,-29],[-168,93],[-142,23],[-122,151],[-287,142],[9,114],[43,61],[-115,74],[-22,118],[24,74],[-32,31],[-83,-3],[-69,41]],[[3224,3028],[-2,1]],[[3247,3024],[-1,1]],[[4096,654],[0,-654],[-349,0],[82,54],[6,22],[14,16],[14,24],[7,43],[-10,73],[-1,43],[11,32],[-12,48],[-13,101],[-16,42],[22,-10],[9,-8],[15,25],[54,62],[-45,18],[-103,-64],[-34,24],[-25,-9],[-25,12],[36,0],[26,2],[0,17],[-121,-16],[-50,-22],[-48,-31],[-84,-79],[-49,-32],[-66,-12],[-60,15],[-130,125],[-230,104],[-88,72],[-32,16],[-62,6],[-16,-6],[-14,-13],[-7,-15],[-10,-13],[-20,-12],[-55,-6],[-15,-10],[-10,-21],[-20,-85],[-34,-79],[-24,-30],[-32,-12],[14,24],[6,24],[-4,22],[-16,17],[10,16],[-1,8],[-5,5],[-4,5],[25,8],[26,23],[21,32],[9,33],[-8,41],[-12,31],[0,28],[29,30],[-88,78],[-27,10],[-351,-86],[-63,34],[0,17],[61,7],[63,21],[58,33],[47,45],[19,27],[14,29],[10,36],[7,45],[8,105],[-1,50],[-7,35],[10,36],[-8,15],[-16,-1],[-16,-13],[-22,29],[-38,-2],[-38,-12],[-21,2],[1,23],[3,6],[6,-1],[10,7],[4,0],[36,29],[0,5],[13,-3],[18,-9],[19,-2],[19,14],[-27,30],[-13,19],[-10,20],[-19,87],[-34,43],[-47,30],[-35,-3],[6,-53],[-66,-25],[-38,-7],[-17,24],[-15,44],[-35,25],[-37,16],[-26,19],[-60,28],[-90,4],[-70,27],[-5,91],[-19,-15],[-18,-34],[-36,-14],[-28,-35],[-86,-44],[-21,0],[-1,0],[9,54],[20,31],[61,52],[24,30],[11,8],[23,-3],[11,3],[7,9],[9,19],[16,28],[20,52],[8,15],[41,13],[35,-21],[7,-29],[-38,-15],[-11,-10],[10,-23],[25,-38],[-2,-16],[-12,-9],[-2,-10],[27,-17],[19,-4],[61,4],[12,-11],[21,-47],[17,-11],[22,11],[6,26],[-3,30],[-6,21],[-9,18],[-15,16],[-17,10],[-18,7],[11,31],[17,-2],[21,-13],[21,1],[14,11],[3,8],[-4,11],[-32,193],[-11,37],[-20,14],[-80,22],[-30,25],[-59,66],[-31,13],[-17,-5],[-12,-11],[-10,-12],[-11,-8],[-12,-3],[-37,3],[-83,-34],[-18,1],[-12,36],[26,19],[67,14],[27,15],[24,23],[38,50],[-34,55],[-22,22],[-19,10],[-42,0],[-18,4],[-15,11],[18,16],[20,5],[43,-2],[0,18],[-25,0],[-13,18],[0,23],[12,11],[19,3],[21,9],[35,22],[13,17],[10,16],[12,14],[20,5],[85,-15],[20,2],[23,8],[19,13],[8,18],[4,41],[10,23],[10,18],[6,29],[-7,42],[-17,17],[-18,7],[-54,92],[-15,17],[0,19],[20,20],[-4,25],[-17,24],[-18,16],[-30,19],[-2,19],[9,22],[4,28],[-6,20],[-18,39],[-7,28],[21,11],[49,10],[20,14],[16,30],[7,35],[-6,28],[-85,46],[-13,-4],[-14,-8],[-71,-19],[-28,-2],[-25,16],[24,23],[54,17],[21,30],[-6,7],[-4,10],[19,1],[33,-14],[18,-4],[20,5],[33,24],[92,23],[5,11],[0,23],[3,24],[12,11],[34,5],[20,13],[40,51],[76,60],[24,29],[-140,0],[-29,7],[-14,20],[-11,27],[-15,31],[-76,76],[-19,12],[-104,1],[-31,15],[1,11],[2,8],[3,7],[4,10],[34,-17],[151,-1],[13,-7],[52,-44],[89,-35],[43,4],[73,38],[160,47],[34,-21],[14,14],[5,4],[-16,42],[17,29],[60,33],[0,18],[-38,-1],[-21,5],[-3,19],[7,28],[406,0],[-8,-25],[-1,-8],[-77,-14],[-6,-13],[11,-11],[99,-16],[10,8],[8,43],[-5,36],[308,0],[19,-29],[51,-14],[47,43],[926,0],[0,-121],[-49,0],[-25,6],[-13,13],[-20,-19],[60,-52],[-37,-20],[-42,12],[-38,35],[-23,44],[14,12],[14,5],[16,1],[16,-2],[0,17],[-50,-8],[-91,-35],[-48,-9],[-229,35],[0,-16],[23,-13],[76,-6],[24,-12],[12,-15],[8,-19],[16,-24],[34,-23],[91,-39],[25,-42],[-230,19],[0,-19],[159,-43],[71,-42],[64,-80],[20,-49],[4,-47],[-15,-37],[-39,-14],[-19,-2],[-14,-7],[-9,-18],[-2,-35],[7,-14],[16,5],[26,19],[30,-4],[23,-13],[19,-21],[18,-32],[29,-90],[12,-57],[-5,-26],[17,-14],[2,-30],[-14,-30],[-31,-14],[-17,-3],[-18,-10],[-17,-14],[-13,-16],[-14,-11],[-21,-2],[-39,4],[0,-19],[20,-56],[9,-12],[23,0],[11,17],[6,22],[10,13],[15,3],[23,-1],[20,-6],[12,-13],[-3,-26],[-17,-9],[-21,-2],[-13,-6],[13,-24],[80,-73],[26,-16],[10,-14],[-4,-62],[4,-14],[12,1],[0,-29],[-17,13],[10,-71],[7,-10],[0,-646],[-27,13],[-209,-43],[-20,10],[-61,-74],[-20,-40],[0,-43],[10,-17],[77,-98],[20,-15],[23,-9],[-26,-53],[-42,-3],[-44,7],[-37,-22],[-9,-43],[14,-38],[31,-28],[79,-19],[78,-37],[72,-16],[91,-59],[0,-569],[-15,27],[-11,16],[-37,32],[-124,55],[-71,-12],[-57,-57],[-41,-102],[4,-35],[18,10],[7,0],[5,-10],[5,-19],[11,0],[11,15],[16,5],[38,-1],[21,-8],[6,-20],[-3,-52],[17,-21],[38,-6],[59,4],[-7,4],[-6,11],[26,15],[90,-15]],[[3355,1497],[141,469],[76,153],[27,83],[70,313],[-33,16],[-56,-97],[-49,-126],[-10,-71],[-83,-120],[-35,-26],[-81,-95],[-31,-45],[-21,-61],[13,-11],[13,-3],[12,3],[13,11],[6,-28],[4,-25],[-38,-13],[-7,4],[-14,13],[-8,-12],[-14,-43],[-23,-37],[-18,-21],[-23,-10],[-35,-3],[45,-38],[20,-22],[16,-28],[37,-149],[17,-24],[35,1],[20,11],[14,31]],[[2983,1830],[-28,18],[-24,23],[20,-44],[-4,-20],[-21,-5],[-30,0],[-16,15],[-17,76],[-21,30],[10,-43],[-6,-20],[-18,-6],[-22,0],[-21,9],[-18,24],[-35,55],[-36,33],[-124,69],[-21,24],[9,-39],[23,-57],[251,-276],[33,-15],[18,7],[32,35],[114,27],[-15,7],[-14,10],[1,40],[-20,23]],[[2286,1808],[22,11],[41,-1],[20,5],[1,25],[-57,175],[-21,40],[-36,57],[-37,44],[-47,28],[-64,10],[-46,25],[-87,103],[-61,12],[-51,-8],[-129,-61],[0,-19],[25,-15],[24,4],[24,10],[27,1],[-8,-20],[-28,-21],[-5,-11],[8,-23],[16,-7],[17,-2],[15,-11],[20,-2],[114,10],[0,-17],[-18,-24],[10,-20],[61,-44],[10,-12],[-8,-6],[-6,-7],[6,-17],[9,-17],[6,-9],[-29,-7],[-34,30],[-34,39],[-33,23],[0,-16],[9,0],[-4,-82],[29,-67],[49,-40],[57,-3],[14,8],[21,21],[14,6],[15,-1],[67,-24],[69,-62],[0,-17],[-40,19],[-46,32],[-46,20],[-39,-19],[0,-17],[25,-18],[67,-21],[24,-21],[21,-8],[28,16],[29,23]],[[2540,2305],[23,-17],[0,56],[11,19],[43,-4],[114,-72],[19,-2],[37,3],[17,-3],[12,-10],[12,-11],[14,-10],[32,-9],[97,-8],[57,-32],[31,-4],[27,26],[18,25],[25,19],[27,13],[25,4],[65,0],[57,-4],[18,4],[23,20],[13,25],[10,29],[14,31],[35,48],[5,13],[2,51],[4,19],[22,52],[10,42],[4,51],[-3,54],[-12,38],[-38,62],[-9,31],[11,45],[24,7],[27,-17],[17,-27],[11,0],[-9,41],[-37,110],[-9,22],[-144,208],[-22,19],[-98,23],[-29,7],[-10,-26],[1,-8],[7,-13],[-22,-14],[-23,1],[-14,16],[8,33],[18,15],[24,5],[101,-9],[68,29],[42,27],[14,14],[3,21],[-9,35],[-32,31],[-3,5],[-8,9],[-3,20],[-1,23],[-3,16],[-69,113],[-42,47],[-28,-1],[0,-17],[9,-63],[0,-43],[-23,23],[-7,12],[10,-43],[14,-45],[4,-40],[-18,-28],[-8,11],[-19,20],[-19,8],[-4,-22],[6,-12],[12,-12],[14,-9],[13,-3],[7,-8],[7,-17],[3,-18],[-7,-8],[-55,-17],[-94,-48],[-16,4],[-29,-56],[-51,-3],[-24,43],[54,77],[16,7],[14,1],[12,6],[8,21],[-3,15],[-22,17],[-5,11],[7,30],[17,14],[22,0],[24,-10],[-44,31],[-24,9],[-27,3],[-14,7],[-12,17],[-18,31],[-23,28],[-101,69],[-44,20],[-21,-5],[5,-52],[-5,-19],[-20,-8],[-1,8],[-9,36],[-1,8],[-12,3],[-39,-3],[-36,-12],[-64,-47],[-188,-62],[-144,-98],[-76,-27],[-70,38],[-13,28],[-1,22],[-5,13],[-26,5],[-79,-16],[-54,-69],[-19,-11],[-17,-6],[-14,-10],[-11,-27],[54,-12],[144,-126],[-38,-10],[-40,26],[-41,35],[-39,18],[0,-16],[49,-61],[20,-8],[58,-8],[27,-16],[15,-30],[-38,-2],[-12,2],[80,-34],[-15,-29],[-24,-9],[-27,-4],[-25,-9],[36,-45],[20,-18],[20,-8],[42,5],[23,-2],[15,-11],[-5,-88],[4,-14],[13,-45],[3,-27],[-3,-15],[-13,-23],[-4,-15],[4,-15],[13,-23],[3,-14],[7,-13],[17,-14],[18,-11],[58,-15],[23,-14],[1,-20],[-9,-24],[-3,-27],[3,-27],[21,-56],[2,-22],[-4,-10],[-5,2],[1,-14],[-2,-10],[3,-7],[52,-9],[7,3],[5,43],[-50,77],[-5,40],[18,22],[19,-8],[33,-33],[24,-3],[17,6],[17,9],[21,7],[28,-12],[19,-34],[19,-41],[25,-36],[-20,-36],[-111,-86],[25,-13],[55,14],[30,-1],[24,-14],[34,-40]],[[0,3228],[0,81],[6,-6],[70,-22],[98,-3],[52,-13],[36,-28],[21,-49],[11,-54],[13,-115],[17,-63],[2,-33],[-3,-22],[-13,-35],[-3,-29],[11,-109],[19,-109],[27,-86],[3,-48],[-29,-12],[-80,19],[-87,12],[-4,29],[25,33],[16,13],[20,6],[-31,32],[-62,18],[-60,-9],[-27,-50],[-6,-66],[-9,-61],[-2,-61],[17,-63],[20,-28],[22,-5],[23,13],[20,28],[18,21],[14,3],[10,13],[3,98],[6,21],[17,2],[155,-28],[-16,-66],[-21,-62],[-17,-68],[-6,-82],[14,-65],[23,-62],[13,-65],[-20,-70],[11,-17],[-12,-44],[-20,-73],[-6,-59],[8,-67],[20,-44],[28,-50],[19,-52],[-8,-46],[0,-17],[49,-25],[79,-70],[42,-26],[19,-36],[51,-138],[-50,-34],[10,-19],[16,11],[31,9],[30,1],[13,-12],[7,-27],[17,-27],[119,-130],[37,-58],[0,-62],[-10,-41],[-24,-19],[-56,-28],[-62,-55],[-31,-20],[-37,-10],[-160,0],[-118,-33],[-31,14],[-14,-21],[-14,-26],[-4,-29],[12,-28],[23,32],[20,-6],[20,-20],[26,-6],[0,-17],[-34,2],[-45,-10],[-40,-18],[-21,-26],[5,-66],[30,-56],[41,-39],[39,-14],[17,6],[48,47],[23,10],[52,-10],[45,6],[76,24],[44,5],[-3,-8],[-4,-18],[-3,-9],[31,15],[55,48],[34,7],[-15,-38],[-23,-41],[-22,-31],[-16,-13],[-25,-3],[-61,-18],[-18,-14],[0,-17],[10,-39],[-15,-40],[-23,-43],[-11,-51],[4,-13],[15,-33],[-566,0],[0,1362],[22,-14],[47,-14],[38,14],[13,-10],[22,-9],[25,-3],[20,7],[12,17],[16,49],[13,20],[0,17],[-26,46],[-33,20],[-82,5],[-48,-4],[-39,-15],[0,298],[12,0],[23,6],[40,32],[22,13],[182,-11],[37,29],[-316,-16],[0,413],[38,2],[-38,20],[0,735],[21,-21],[36,14],[-13,21],[-11,47],[-11,28],[-3,26],[18,56],[1,30],[-21,21],[-17,-3]],[[264,838],[33,-1],[41,24],[34,55],[12,62],[-3,27],[-94,-40],[-10,-7],[-11,-5],[-26,-21],[-9,-41],[15,-36],[18,-17]],[[558,850],[7,-16],[-2,-14],[-16,-9],[16,-28],[30,-11],[63,5],[34,17],[21,29],[19,31],[26,27],[-1,14],[1,11],[3,8],[7,3],[-64,17],[-58,-4],[-51,-23],[-46,-45],[11,-12]],[[566,0],[-15,33],[-4,13],[11,51],[23,43],[15,40],[-10,39],[0,17],[18,14],[61,18],[25,3],[16,13],[22,31],[23,41],[15,38],[-34,-7],[-55,-48],[-31,-15],[3,9],[4,18],[3,8],[-44,-5],[-76,-24],[-45,-6],[-52,10],[-23,-10],[-48,-47],[-17,-6],[-39,14],[-41,39],[-30,56],[-5,66],[21,26],[40,18],[45,10],[34,-2],[0,17],[-26,6],[-20,20],[-20,6],[-23,-32],[-12,28],[4,29],[14,26],[14,21],[31,-14],[118,33],[160,0],[37,10],[31,20],[62,55],[56,28],[24,19],[10,41],[0,62],[-37,58],[-119,130],[-17,27],[-7,27],[-13,12],[-30,-1],[-31,-9],[-16,-11],[-10,19],[50,34],[-51,138],[-19,36],[-42,26],[-79,70],[-49,25],[0,17],[8,46],[-19,52],[-28,50],[-20,44],[-8,67],[6,59],[20,73],[12,44],[-11,17],[20,70],[-13,65],[-23,62],[-14,65],[6,82],[17,68],[21,62],[16,66],[-155,28],[-17,-2],[-6,-21],[-3,-98],[-10,-13],[-14,-3],[-18,-21],[-20,-28],[-23,-13],[-22,5],[-20,28],[-17,63],[2,61],[9,61],[6,66],[27,50],[60,9],[62,-18],[31,-32],[-20,-6],[-16,-13],[-25,-33],[4,-29],[87,-12],[80,-19],[29,12],[-3,48],[-27,86],[-19,109],[-11,109],[3,29],[13,35],[3,22],[-2,33],[-17,63],[-13,115],[-11,54],[-21,49],[-36,28],[-52,13],[-98,3],[-70,22],[-6,6]],[[2308,4096],[-7,-28],[3,-19],[21,-5],[38,1],[0,-18],[-60,-33],[-17,-29],[16,-42],[-5,-4],[-14,-14],[-34,21],[-160,-47],[-73,-38],[-43,-4],[-89,35],[-52,44],[-13,7],[-151,1],[-34,17],[-4,-10],[-3,-7],[-2,-8],[-1,-11],[31,-15],[104,-1],[19,-12],[76,-76],[15,-31],[11,-27],[14,-20],[29,-7],[140,0],[-24,-29],[-76,-60],[-40,-51],[-20,-13],[-34,-5],[-12,-11],[-3,-24],[0,-23],[-5,-11],[-92,-23],[-33,-24],[-20,-5],[-18,4],[-33,14],[-19,-1],[4,-10],[6,-7],[-21,-30],[-54,-17],[-24,-23],[25,-16],[28,2],[71,19],[14,8],[13,4],[85,-46],[6,-28],[-7,-35],[-16,-30],[-20,-14],[-49,-10],[-21,-11],[7,-28],[18,-39],[6,-20],[-4,-28],[-9,-22],[2,-19],[30,-19],[18,-16],[17,-24],[4,-25],[-20,-20],[0,-19],[15,-17],[54,-92],[18,-7],[17,-17],[7,-42],[-6,-29],[-10,-18],[-10,-23],[-4,-41],[-8,-18],[-19,-13],[-23,-8],[-20,-2],[-85,15],[-20,-5],[-12,-14],[-10,-16],[-13,-17],[-35,-22],[-21,-9],[-19,-3],[-12,-11],[0,-23],[13,-18],[25,0],[0,-18],[-43,2],[-20,-5],[-18,-16],[15,-11],[18,-4],[42,0],[19,-10],[22,-22],[34,-55],[-38,-50],[-24,-23],[-27,-15],[-67,-14],[-26,-19],[12,-36],[18,-1],[83,34],[37,-3],[12,3],[11,8],[10,12],[12,11],[17,5],[31,-13],[59,-66],[30,-25],[80,-22],[20,-14],[11,-37],[32,-193],[4,-11],[-3,-8],[-14,-11],[-21,-1],[-21,13],[-17,2],[-11,-31],[18,-7],[17,-10],[15,-16],[9,-18],[6,-21],[3,-30],[-6,-26],[-22,-11],[-17,11],[-21,47],[-12,11],[-61,-4],[-19,4],[-27,17],[2,10],[12,9],[2,16],[-25,38],[-10,23],[11,10],[38,15],[-7,29],[-35,21],[-41,-13],[-8,-15],[-20,-52],[-16,-28],[-9,-19],[-7,-9],[-11,-3],[-23,3],[-11,-8],[-24,-30],[-61,-52],[-20,-31],[-9,-54],[1,0],[21,0],[86,44],[28,35],[36,14],[18,34],[19,15],[5,-91],[70,-27],[90,-4],[60,-28],[26,-19],[37,-16],[35,-25],[15,-44],[17,-24],[38,7],[66,25],[-6,53],[35,3],[47,-30],[34,-43],[19,-87],[10,-20],[13,-19],[27,-30],[-19,-14],[-19,2],[-18,9],[-13,3],[0,-5],[-36,-29],[-4,0],[-10,-7],[-6,1],[-3,-6],[-1,-23],[21,-2],[38,12],[38,2],[22,-29],[16,13],[16,1],[8,-15],[-10,-36],[7,-35],[1,-50],[-8,-105],[-7,-45],[-10,-36],[-14,-29],[-19,-27],[-47,-45],[-58,-33],[-63,-21],[-61,-7],[0,-17],[63,-34],[351,86],[27,-10],[88,-78],[-29,-30],[0,-28],[12,-31],[8,-41],[-9,-33],[-21,-32],[-26,-23],[-25,-8],[4,-5],[5,-5],[1,-8],[-10,-16],[16,-17],[4,-22],[-6,-24],[-14,-24],[32,12],[24,30],[34,79],[20,85],[10,21],[15,10],[55,6],[20,12],[10,13],[7,15],[14,13],[16,6],[62,-6],[32,-16],[88,-72],[230,-104],[130,-125],[60,-15],[66,12],[49,32],[84,79],[48,31],[50,22],[121,16],[0,-17],[-26,-2],[-36,0],[25,-12],[25,9],[34,-24],[103,64],[45,-18],[-54,-62],[-15,-25],[-9,8],[-22,10],[16,-42],[13,-101],[12,-48],[-11,-32],[1,-43],[10,-73],[-7,-43],[-14,-24],[-14,-16],[-6,-22],[-82,-54]],[[87,1507],[-48,-4],[-39,-15]],[[0,1362],[22,-14],[47,-14],[38,14],[13,-10],[22,-9],[25,-3],[20,7],[12,17],[16,49],[13,20],[0,17],[-26,46],[-33,20],[-82,5]],[[57,3002],[-13,21],[-11,47],[-11,28],[-3,26],[18,56],[1,30],[-21,21],[-17,-3]],[[0,3009],[21,-21],[36,14]],[[0,2252],[38,2],[-38,20]],[[0,1786],[12,0],[23,6],[40,32],[22,13],[182,-11],[37,29],[-316,-16]],[[766,917],[-64,17],[-58,-4],[-51,-23],[-46,-45],[11,-12],[7,-16],[-2,-14],[-16,-9],[16,-28],[30,-11],[63,5],[34,17],[21,29],[19,31],[26,27],[-1,14],[1,11],[3,8],[7,3]],[[4096,818],[-15,27],[-11,16],[-37,32],[-124,55],[-71,-12],[-57,-57],[-41,-102],[4,-35],[18,10],[7,0],[5,-10],[5,-19],[11,0],[11,15],[16,5],[38,-1],[21,-8],[6,-20],[-3,-52],[17,-21],[38,-6],[59,4],[-7,4],[-6,11],[26,15],[90,-15]],[[3053,4096],[19,-29],[51,-14],[47,43]],[[3521,2237],[-83,-120],[-35,-26],[-81,-95],[-31,-45],[-21,-61],[13,-11],[13,-3],[12,3],[13,11],[6,-28],[4,-25],[-38,-13],[-7,4],[-14,13],[-8,-12],[-14,-43],[-23,-37],[-18,-21],[-23,-10],[-35,-3],[45,-38],[20,-22],[16,-28],[37,-149],[17,-24],[35,1],[20,11],[14,31],[141,469],[76,153],[27,83],[70,313],[-33,16],[-56,-97],[-49,-126],[-10,-71]],[[2292,2063],[-36,57],[-37,44],[-47,28],[-64,10],[-46,25],[-87,103],[-61,12],[-51,-8],[-129,-61],[0,-19],[25,-15],[24,4],[24,10],[27,1],[-8,-20],[-28,-21],[-5,-11],[8,-23],[16,-7],[17,-2],[15,-11],[20,-2],[114,10],[0,-17],[-18,-24],[10,-20],[61,-44],[10,-12],[-8,-6],[-6,-7],[6,-17],[9,-17],[6,-9],[-29,-7],[-34,30],[-34,39],[-33,23],[0,-16],[9,0],[-4,-82],[29,-67],[49,-40],[57,-3],[14,8],[21,21],[14,6],[15,-1],[67,-24],[69,-62],[0,-17],[-40,19],[-46,32],[-46,20],[-39,-19],[0,-17],[25,-18],[67,-21],[24,-21],[21,-8],[28,16],[29,23],[22,11],[41,-1],[20,5],[1,25],[-57,175],[-21,40]],[[2931,1871],[20,-44],[-4,-20],[-21,-5],[-30,0],[-16,15],[-17,76],[-21,30],[10,-43],[-6,-20],[-18,-6],[-22,0],[-21,9],[-18,24],[-35,55],[-36,33],[-124,69],[-21,24],[9,-39],[23,-57],[251,-276],[33,-15],[18,7],[32,35],[114,27],[-15,7],[-14,10],[1,40],[-20,23],[-28,18],[-24,23]],[[4096,2014],[-27,13],[-209,-43],[-20,10],[-61,-74],[-20,-40],[0,-43],[10,-17],[77,-98],[20,-15],[23,-9],[-26,-53],[-42,-3],[-44,7],[-37,-22],[-9,-43],[14,-38],[31,-28],[79,-19],[78,-37],[72,-16],[91,-59]],[[3246,2288],[57,-4],[18,4],[23,20],[13,25],[10,29],[14,31],[35,48],[5,13],[2,51],[4,19],[22,52],[10,42],[4,51],[-3,54],[-12,38],[-38,62],[-9,31],[11,45],[24,7],[27,-17],[17,-27],[11,0],[-9,41],[-37,110],[-9,22],[-144,208],[-22,19],[-98,23],[-29,7],[-10,-26],[1,-8],[7,-13],[-22,-14],[-23,1],[-14,16],[8,33],[18,15],[24,5],[101,-9],[68,29],[42,27],[14,14],[3,21],[-9,35],[-32,31],[-3,5],[-8,9],[-3,20],[-1,23],[-3,16],[-69,113],[-42,47],[-28,-1],[0,-17],[9,-63],[0,-43],[-23,23],[-7,12],[10,-43],[14,-45],[4,-40],[-18,-28],[-8,11],[-19,20],[-19,8],[-4,-22],[6,-12],[12,-12],[14,-9],[13,-3],[7,-8],[7,-17],[3,-18],[-7,-8],[-55,-17],[-94,-48],[-16,4],[-29,-56],[-51,-3],[-24,43],[54,77],[16,7],[14,1],[12,6],[8,21],[-3,15],[-22,17],[-5,11],[7,30],[17,14],[22,0],[24,-10],[-44,31],[-24,9],[-27,3],[-14,7],[-12,17],[-18,31],[-23,28],[-101,69],[-44,20],[-21,-5],[5,-52],[-5,-19],[-20,-8],[-1,8],[-9,36],[-1,8],[-12,3],[-39,-3],[-36,-12],[-64,-47],[-188,-62],[-144,-98],[-76,-27],[-70,38],[-13,28],[-1,22],[-5,13],[-26,5],[-79,-16],[-54,-69],[-19,-11],[-17,-6],[-14,-10],[-11,-27],[54,-12],[144,-126],[-38,-10],[-40,26],[-41,35],[-39,18],[0,-16],[49,-61],[20,-8],[58,-8],[27,-16],[15,-30],[-38,-2],[-12,2],[80,-34],[-15,-29],[-24,-9],[-27,-4],[-25,-9],[36,-45],[20,-18],[20,-8],[42,5],[23,-2],[15,-11],[-5,-88],[4,-14],[13,-45],[3,-27],[-3,-15],[-13,-23],[-4,-15],[4,-15],[13,-23],[3,-14],[7,-13],[17,-14],[18,-11],[58,-15],[23,-14],[1,-20],[-9,-24],[-3,-27],[3,-27],[21,-56],[2,-22],[-4,-10],[-5,2],[1,-14],[-2,-10],[3,-7],[52,-9],[7,3],[5,43],[-50,77],[-5,40],[18,22],[19,-8],[33,-33],[24,-3],[17,6],[17,9],[21,7],[28,-12],[19,-34],[19,-41],[25,-36],[-20,-36],[-111,-86],[25,-13],[55,14],[30,-1],[24,-14],[34,-40],[23,-17],[0,56],[11,19],[43,-4],[114,-72],[19,-2],[37,3],[17,-3],[12,-10],[12,-11],[14,-10],[32,-9],[97,-8],[57,-32],[31,-4],[27,26],[18,25],[25,19],[27,13],[25,4],[65,0]],[[4096,3975],[-49,0],[-25,6],[-13,13],[-20,-19],[60,-52],[-37,-20],[-42,12],[-38,35],[-23,44],[14,12],[14,5],[16,1],[16,-2],[0,17],[-50,-8],[-91,-35],[-48,-9],[-229,35],[0,-16],[23,-13],[76,-6],[24,-12],[12,-15],[8,-19],[16,-24],[34,-23],[91,-39],[25,-42],[-230,19],[0,-19],[159,-43],[71,-42],[64,-80],[20,-49],[4,-47],[-15,-37],[-39,-14],[-19,-2],[-14,-7],[-9,-18],[-2,-35],[7,-14],[16,5],[26,19],[30,-4],[23,-13],[19,-21],[18,-32],[29,-90],[12,-57],[-5,-26],[17,-14],[2,-30],[-14,-30],[-31,-14],[-17,-3],[-18,-10],[-17,-14],[-13,-16],[-14,-11],[-21,-2],[-39,4],[0,-19],[20,-56],[9,-12],[23,0],[11,17],[6,22],[10,13],[15,3],[23,-1],[20,-6],[12,-13],[-3,-26],[-17,-9],[-21,-2],[-13,-6],[13,-24],[80,-73],[26,-16],[10,-14],[-4,-62],[4,-14],[12,1]],[[4096,2728],[-17,13],[10,-71],[7,-10]],[[287,965],[-10,-7],[-11,-5],[-26,-21],[-9,-41],[15,-36],[18,-17],[33,-1],[41,24],[34,55],[12,62],[-3,27],[-94,-40]],[[2219,86],[5,-44],[-4,-42]],[[2673,3100],[-13,9],[-31,17]],[[3017,3099],[-87,14],[-26,0],[-12,-2],[-28,-10],[-67,-44],[-14,-6],[-16,-3],[-16,0],[-6,2],[-3,1]],[[1566,3510],[-25,1]],[[1958,3449],[-33,14],[-32,10]],[[1841,3487],[-11,3],[-27,2]],[[1803,3492],[-237,18]],[[1893,3473],[-52,14]],[[2629,3126],[-123,68],[-212,40],[-68,32],[-149,117],[-75,46],[-44,20]],[[2742,3051],[-23,13],[-46,36]],[[3399,3056],[-150,-38],[-23,1],[-23,5],[-105,52],[-55,19],[-26,4]],[[1358,1807],[-4,-14],[-12,-20],[-24,-26]],[[1561,3528],[-10,-11],[-20,-28],[-17,-33],[-13,-37],[-10,-41],[-5,-25],[-4,-36]],[[1318,1747],[-19,-21],[-15,-21],[-9,-26],[-5,-29],[1,-33]],[[1482,3317],[-1,-15],[-2,-25],[0,-31],[5,-124],[-1,-32],[-2,-32],[-5,-31],[-7,-29],[-17,-54],[-64,-164],[-13,-50],[-9,-47],[-12,-97],[-13,-200],[-2,-116],[3,-49],[38,-258],[-2,-88],[-20,-68]],[[1654,3575],[-28,-6],[-26,-11],[-25,-17],[-14,-13]],[[1977,307],[65,-116],[27,-38],[28,-34],[26,-25],[14,-9],[15,-2],[37,11],[18,-4],[7,-26]],[[1716,716],[112,-147],[58,-103]],[[1520,1067],[4,-19],[14,-45]],[[1583,908],[15,-27],[35,-56],[4,-6]],[[1271,1617],[6,-37],[11,-30],[16,-25],[18,-20],[88,-80],[9,-12],[10,-14],[8,-15],[8,-16],[4,-10],[56,-206],[2,-9],[12,-72],[1,-4]],[[1538,1003],[0,-1],[18,-43],[27,-51]],[[1637,819],[79,-103]],[[1886,466],[91,-159]],[[1618,3828],[0,4],[11,187],[1,4],[1,2],[59,41]],[[1671,3572],[-9,51],[-28,94],[-11,50],[-4,32],[-1,29]],[[1690,4066],[1,1],[34,29]],[[3428,2982],[23,-43],[17,-24],[10,-10]],[[3862,3048],[24,5]],[[3933,3063],[52,10]],[[3359,3026],[23,1],[20,-10],[18,-21],[8,-14]],[[3478,2905],[8,-8],[22,-9],[30,1],[29,10],[173,112],[78,28],[44,9]],[[3886,3053],[47,10]],[[3985,3073],[111,23]],[[3543,0],[5,5],[22,28],[17,34],[8,38],[-2,37],[-9,35],[-14,31],[-21,38],[-9,20],[-6,24],[-2,29],[2,30],[5,29],[8,25],[28,44],[36,26],[38,15],[37,9]],[[2459,626],[5,-20],[-4,-99],[-27,-90]],[[2298,815],[53,-17],[51,-42],[40,-64],[17,-66]],[[3686,497],[138,31],[23,11],[21,16],[19,21],[17,29],[79,157],[82,139]],[[1459,3472],[36,12],[34,7]],[[123,3405],[8,-3]],[[131,3402],[61,-22],[71,0],[301,63],[668,-31],[82,10],[145,50]],[[1166,0],[-14,9],[-14,5],[-58,10],[-113,-5],[-25,4],[-24,10],[-24,15]],[[2379,318],[-130,-192],[-30,-55]],[[2433,417],[-29,-56]],[[2404,361],[-11,-23],[-14,-20]],[[1661,4096],[-6,-106],[15,-2]],[[3894,3861],[30,0]],[[3924,3861],[17,0],[63,-13],[92,-36]],[[1662,478],[-3,2],[-21,40]],[[1612,798],[1,5]],[[1761,358],[-19,64],[-12,10]],[[1638,520],[-2,4],[-26,76],[-9,42],[14,40],[7,49],[-13,54],[3,13]],[[1730,432],[-18,15],[-50,31]],[[1774,337],[-13,21]],[[1815,180],[-7,9],[-2,64],[-18,62],[-14,22]],[[1950,120],[-27,6],[-46,28]],[[2116,0],[-12,6],[-47,9],[-38,31],[-24,45],[-27,24],[-18,5]],[[1877,154],[-20,12],[-42,14]],[[2785,1863],[21,-9],[22,0],[18,6],[6,20],[-10,43],[21,-30],[17,-76],[16,-15],[30,0],[21,5],[4,20],[-20,44],[24,-23],[28,-18],[20,-23],[-1,-40],[14,-10],[15,-7],[-114,-27],[-32,-35],[-18,-7],[-33,15],[-251,276],[-23,57],[-9,39],[21,-24],[124,-69],[36,-33],[35,-55],[18,-24]],[[0,2252],[0,22],[38,-20],[-38,-2]],[[0,1786],[0,53],[316,16],[-37,-29],[-182,11],[-22,-13],[-40,-32],[-23,-6],[-12,0]],[[3496,1966],[-141,-469],[-14,-31],[-20,-11],[-35,-1],[-17,24],[-37,149],[-16,28],[-20,22],[-45,38],[35,3],[23,10],[18,21],[23,37],[14,43],[8,12],[14,-13],[7,-4],[38,13],[-4,25],[-6,28],[-13,-11],[-12,-3],[-13,3],[-13,11],[21,61],[31,45],[81,95],[35,26],[83,120],[10,71],[49,126],[56,97],[33,-16],[-70,-313],[-27,-83],[-76,-153]],[[1975,2330],[87,-103],[46,-25],[64,-10],[47,-28],[37,-44],[36,-57],[21,-40],[57,-175],[-1,-25],[-20,-5],[-41,1],[-22,-11],[-29,-23],[-28,-16],[-21,8],[-24,21],[-67,21],[-25,18],[0,17],[39,19],[46,-20],[46,-32],[40,-19],[0,17],[-69,62],[-67,24],[-15,1],[-14,-6],[-21,-21],[-14,-8],[-57,3],[-49,40],[-29,67],[4,82],[-9,0],[0,16],[33,-23],[34,-39],[34,-30],[29,7],[-6,9],[-9,17],[-6,17],[6,7],[8,6],[-10,12],[-61,44],[-10,20],[18,24],[0,17],[-114,-10],[-20,2],[-15,11],[-17,2],[-16,7],[-8,23],[5,11],[28,21],[8,20],[-27,-1],[-24,-10],[-24,-4],[-25,15],[0,19],[129,61],[51,8],[61,-12]],[[4096,2660],[-7,10],[-10,71],[17,-13],[0,-68]],[[0,3009],[0,219],[17,3],[21,-21],[-1,-30],[-18,-56],[3,-26],[11,-28],[11,-47],[13,-21],[-36,-14],[-21,21]],[[2768,3674],[101,-69],[23,-28],[18,-31],[12,-17],[14,-7],[27,-3],[24,-9],[44,-31],[-24,10],[-22,0],[-17,-14],[-7,-30],[5,-11],[22,-17],[3,-15],[-8,-21],[-12,-6],[-14,-1],[-16,-7],[-54,-77],[24,-43],[51,3],[29,56],[16,-4],[94,48],[55,17],[7,8],[-3,18],[-7,17],[-7,8],[-13,3],[-14,9],[-12,12],[-6,12],[4,22],[19,-8],[19,-20],[8,-11],[18,28],[-4,40],[-14,45],[-10,43],[7,-12],[23,-23],[0,43],[-9,63],[0,17],[28,1],[42,-47],[69,-113],[3,-16],[1,-23],[3,-20],[8,-9],[3,-5],[32,-31],[9,-35],[-3,-21],[-14,-14],[-42,-27],[-68,-29],[-101,9],[-24,-5],[-18,-15],[-8,-33],[14,-16],[23,-1],[22,14],[-7,13],[-1,8],[10,26],[29,-7],[98,-23],[22,-19],[144,-208],[9,-22],[37,-110],[9,-41],[-11,0],[-17,27],[-27,17],[-24,-7],[-11,-45],[9,-31],[38,-62],[12,-38],[3,-54],[-4,-51],[-10,-42],[-22,-52],[-4,-19],[-2,-51],[-5,-13],[-35,-48],[-14,-31],[-10,-29],[-13,-25],[-23,-20],[-18,-4],[-57,4],[-65,0],[-25,-4],[-27,-13],[-25,-19],[-18,-25],[-27,-26],[-31,4],[-57,32],[-97,8],[-32,9],[-14,10],[-12,11],[-12,10],[-17,3],[-37,-3],[-19,2],[-114,72],[-43,4],[-11,-19],[0,-56],[-23,17],[-34,40],[-24,14],[-30,1],[-55,-14],[-25,13],[111,86],[20,36],[-25,36],[-19,41],[-19,34],[-28,12],[-21,-7],[-17,-9],[-17,-6],[-24,3],[-33,33],[-19,8],[-18,-22],[5,-40],[50,-77],[-5,-43],[-7,-3],[-52,9],[-3,7],[2,10],[-1,14],[5,-2],[4,10],[-2,22],[-21,56],[-3,27],[3,27],[9,24],[-1,20],[-23,14],[-58,15],[-18,11],[-17,14],[-7,13],[-3,14],[-13,23],[-4,15],[4,15],[13,23],[3,15],[-3,27],[-13,45],[-4,14],[5,88],[-15,11],[-23,2],[-42,-5],[-20,8],[-20,18],[-36,45],[25,9],[27,4],[24,9],[15,29],[-80,34],[12,-2],[38,2],[-15,30],[-27,16],[-58,8],[-20,8],[-49,61],[0,16],[39,-18],[41,-35],[40,-26],[38,10],[-144,126],[-54,12],[11,27],[14,10],[17,6],[19,11],[54,69],[79,16],[26,-5],[5,-13],[1,-22],[13,-28],[70,-38],[76,27],[144,98],[188,62],[64,47],[36,12],[39,3],[12,-3],[1,-8],[9,-36],[1,-8],[20,8],[5,19],[-5,52],[21,5],[44,-20]],[[4096,2757],[-12,-1],[-4,14],[4,62],[-10,14],[-26,16],[-80,73],[-13,24],[13,6],[21,2],[17,9],[3,26],[-12,13],[-20,6],[-23,1],[-15,-3],[-10,-13],[-6,-22],[-11,-17],[-23,0],[-9,12],[-20,56],[0,19],[39,-4],[21,2],[14,11],[13,16],[17,14],[18,10],[17,3],[31,14],[14,30],[-2,30],[-17,14],[5,26],[-12,57],[-29,90],[-18,32],[-19,21],[-23,13],[-30,4],[-26,-19],[-16,-5],[-7,14],[2,35],[9,18],[14,7],[19,2],[39,14],[15,37],[-4,47],[-20,49],[-64,80],[-71,42],[-159,43],[0,19],[230,-19],[-25,42],[-91,39],[-34,23],[-16,24],[-8,19],[-12,15],[-24,12],[-76,6],[-23,13],[0,16],[229,-35],[48,9],[91,35],[50,8],[0,-17],[-16,2],[-16,-1],[-14,-5],[-14,-12],[23,-44],[38,-35],[42,-12],[37,20],[-60,52],[20,19],[13,-13],[25,-6],[49,0],[0,-1218]],[[3170,4096],[-47,-43],[-51,14],[-19,29],[117,0]],[[4096,654],[-90,15],[-26,-15],[6,-11],[7,-4],[-59,-4],[-38,6],[-17,21],[3,52],[-6,20],[-21,8],[-38,1],[-16,-5],[-11,-15],[-11,0],[-5,19],[-5,10],[-7,0],[-18,-10],[-4,35],[41,102],[57,57],[71,12],[124,-55],[37,-32],[11,-16],[15,-27],[0,-164]],[[656,777],[-63,-5],[-30,11],[-16,28],[16,9],[2,14],[-7,16],[-11,12],[46,45],[51,23],[58,4],[64,-17],[-7,-3],[-3,-8],[-1,-11],[1,-14],[-26,-27],[-19,-31],[-21,-29],[-34,-17]],[[338,861],[-41,-24],[-33,1],[-18,17],[-15,36],[9,41],[26,21],[11,5],[10,7],[94,40],[3,-27],[-12,-62],[-34,-55]],[[4096,1387],[-91,59],[-72,16],[-78,37],[-79,19],[-31,28],[-14,38],[9,43],[37,22],[44,-7],[42,3],[26,53],[-23,9],[-20,15],[-77,98],[-10,17],[0,43],[20,40],[61,74],[20,-10],[209,43],[27,-13],[0,-627]],[[0,1362],[0,126],[39,15],[48,4],[82,-5],[33,-20],[26,-46],[0,-17],[-13,-20],[-16,-49],[-12,-17],[-20,-7],[-25,3],[-22,9],[-13,10],[-38,-14],[-47,14],[-22,14]],[[0,4096],[2308,0],[-7,-28],[3,-19],[21,-5],[38,1],[0,-18],[-60,-33],[-17,-29],[16,-42],[-5,-4],[-14,-14],[-34,21],[-160,-47],[-73,-38],[-43,-4],[-89,35],[-52,44],[-13,7],[-151,1],[-34,17],[-4,-10],[-3,-7],[-2,-8],[-1,-11],[31,-15],[104,-1],[19,-12],[76,-76],[15,-31],[11,-27],[14,-20],[29,-7],[140,0],[-24,-29],[-76,-60],[-40,-51],[-20,-13],[-34,-5],[-12,-11],[-3,-24],[0,-23],[-5,-11],[-92,-23],[-33,-24],[-20,-5],[-18,4],[-33,14],[-19,-1],[4,-10],[6,-7],[-21,-30],[-54,-17],[-24,-23],[25,-16],[28,2],[71,19],[14,8],[13,4],[85,-46],[6,-28],[-7,-35],[-16,-30],[-20,-14],[-49,-10],[-21,-11],[7,-28],[18,-39],[6,-20],[-4,-28],[-9,-22],[2,-19],[30,-19],[18,-16],[17,-24],[4,-25],[-20,-20],[0,-19],[15,-17],[54,-92],[18,-7],[17,-17],[7,-42],[-6,-29],[-10,-18],[-10,-23],[-4,-41],[-8,-18],[-19,-13],[-23,-8],[-20,-2],[-85,15],[-20,-5],[-12,-14],[-10,-16],[-13,-17],[-35,-22],[-21,-9],[-19,-3],[-12,-11],[0,-23],[13,-18],[25,0],[0,-18],[-43,2],[-20,-5],[-18,-16],[15,-11],[18,-4],[42,0],[19,-10],[22,-22],[34,-55],[-38,-50],[-24,-23],[-27,-15],[-67,-14],[-26,-19],[12,-36],[18,-1],[83,34],[37,-3],[12,3],[11,8],[10,12],[12,11],[17,5],[31,-13],[59,-66],[30,-25],[80,-22],[20,-14],[11,-37],[32,-193],[4,-11],[-3,-8],[-14,-11],[-21,-1],[-21,13],[-17,2],[-11,-31],[18,-7],[17,-10],[15,-16],[9,-18],[6,-21],[3,-30],[-6,-26],[-22,-11],[-17,11],[-21,47],[-12,11],[-61,-4],[-19,4],[-27,17],[2,10],[12,9],[2,16],[-25,38],[-10,23],[11,10],[38,15],[-7,29],[-35,21],[-41,-13],[-8,-15],[-20,-52],[-16,-28],[-9,-19],[-7,-9],[-11,-3],[-23,3],[-11,-8],[-24,-30],[-61,-52],[-20,-31],[-9,-54],[1,0],[21,0],[86,44],[28,35],[36,14],[18,34],[19,15],[5,-91],[70,-27],[90,-4],[60,-28],[26,-19],[37,-16],[35,-25],[15,-44],[17,-24],[38,7],[66,25],[-6,53],[35,3],[47,-30],[34,-43],[19,-87],[10,-20],[13,-19],[27,-30],[-19,-14],[-19,2],[-18,9],[-13,3],[0,-5],[-36,-29],[-4,0],[-10,-7],[-6,1],[-3,-6],[-1,-23],[21,-2],[38,12],[38,2],[22,-29],[16,13],[16,1],[8,-15],[-10,-36],[7,-35],[1,-50],[-8,-105],[-7,-45],[-10,-36],[-14,-29],[-19,-27],[-47,-45],[-58,-33],[-63,-21],[-61,-7],[0,-17],[63,-34],[351,86],[27,-10],[88,-78],[-29,-30],[0,-28],[12,-31],[8,-41],[-9,-33],[-21,-32],[-26,-23],[-25,-8],[4,-5],[5,-5],[1,-8],[-10,-16],[16,-17],[4,-22],[-6,-24],[-14,-24],[32,12],[24,30],[34,79],[20,85],[10,21],[15,10],[55,6],[20,12],[10,13],[7,15],[14,13],[16,6],[62,-6],[32,-16],[88,-72],[230,-104],[130,-125],[60,-15],[66,12],[49,32],[84,79],[48,31],[50,22],[121,16],[0,-17],[-26,-2],[-36,0],[25,-12],[25,9],[34,-24],[103,64],[45,-18],[-54,-62],[-15,-25],[-9,8],[-22,10],[16,-42],[13,-101],[12,-48],[-11,-32],[1,-43],[10,-73],[-7,-43],[-14,-24],[-14,-16],[-6,-22],[-82,-54],[-3181,0],[-15,33],[-4,13],[11,51],[23,43],[15,40],[-10,39],[0,17],[18,14],[61,18],[25,3],[16,13],[22,31],[23,41],[15,38],[-34,-7],[-55,-48],[-31,-15],[3,9],[4,18],[3,8],[-44,-5],[-76,-24],[-45,-6],[-52,10],[-23,-10],[-48,-47],[-17,-6],[-39,14],[-41,39],[-30,56],[-5,66],[21,26],[40,18],[45,10],[34,-2],[0,17],[-26,6],[-20,20],[-20,6],[-23,-32],[-12,28],[4,29],[14,26],[14,21],[31,-14],[118,33],[160,0],[37,10],[31,20],[62,55],[56,28],[24,19],[10,41],[0,62],[-37,58],[-119,130],[-17,27],[-7,27],[-13,12],[-30,-1],[-31,-9],[-16,-11],[-10,19],[50,34],[-51,138],[-19,36],[-42,26],[-79,70],[-49,25],[0,17],[8,46],[-19,52],[-28,50],[-20,44],[-8,67],[6,59],[20,73],[12,44],[-11,17],[20,70],[-13,65],[-23,62],[-14,65],[6,82],[17,68],[21,62],[16,66],[-155,28],[-17,-2],[-6,-21],[-3,-98],[-10,-13],[-14,-3],[-18,-21],[-20,-28],[-23,-13],[-22,5],[-20,28],[-17,63],[2,61],[9,61],[6,66],[27,50],[60,9],[62,-18],[31,-32],[-20,-6],[-16,-13],[-25,-33],[4,-29],[87,-12],[80,-19],[29,12],[-3,48],[-27,86],[-19,109],[-11,109],[3,29],[13,35],[3,22],[-2,33],[-17,63],[-13,115],[-11,54],[-21,49],[-36,28],[-52,13],[-98,3],[-70,22],[-6,6],[0,787]],[[0,1757],[107,69],[136,9],[5,-114],[54,-57],[10,-65],[45,-1],[24,-47],[20,-91],[-38,-18],[34,-20],[-4,-105],[-53,-20],[-27,-57],[-165,-36],[-17,-30],[30,-22],[56,42],[102,20],[23,77],[56,2],[13,134],[30,-25],[15,-87],[115,-82],[42,-75],[-73,-38],[8,-18],[102,34],[12,-32],[-35,-91],[-118,-23],[52,-27],[68,43],[10,-28],[-12,-53],[-92,-76],[19,-27],[-18,-41],[129,-28],[38,25],[41,110],[53,29],[43,-91],[-33,-25],[29,-10],[-13,-26],[-62,-24],[-71,-93],[-59,-31],[-90,13],[-199,-24],[-38,-54],[63,-20],[3,-36],[-68,-47],[-302,208],[0,693],[69,-40],[108,-2],[59,102],[-21,71],[-95,26],[-120,-20],[0,270]],[[216,920],[53,-93],[67,12],[28,41],[21,-20],[-20,47],[28,85],[-96,-16],[-81,-56]],[[102,1051],[57,-51],[42,9],[-25,51],[-74,-9]],[[472,1201],[15,2],[3,3],[-18,-5]],[[394,1192],[32,-10],[10,40],[-33,-8],[-9,-22]],[[156,769],[10,-15],[16,11],[-21,12],[-5,-8]],[[409,772],[13,-11],[13,14],[-14,0],[-12,-3]],[[102,926],[9,1],[4,3],[-5,2],[-8,-6]],[[0,2263],[0,18],[51,-17],[-1,-74],[43,-65],[81,-18],[-2,-182],[117,-24],[0,-38],[-49,-23],[-131,-8],[-35,-17],[-74,3],[0,359],[8,6],[-8,8],[0,48],[42,0],[-42,24]],[[0,1487],[0,270],[107,69],[136,9],[5,-114],[54,-57],[10,-65],[45,-1],[24,-47],[20,-91],[-38,-18],[34,-20],[-4,-105],[-53,-20],[-27,-57],[-165,-36],[-17,-30],[30,-22],[56,42],[102,20],[23,77],[56,2],[13,134],[30,-25],[15,-87],[115,-82],[91,-129],[-35,-91],[-118,-23],[52,-27],[68,43],[10,-28],[-12,-53],[-92,-76],[19,-27],[-17,-42],[128,-27],[38,25],[41,110],[53,29],[43,-89],[-33,-27],[29,-10],[-13,-26],[-62,-24],[-71,-93],[-59,-31],[-90,13],[-199,-24],[-38,-54],[63,-20],[1,-40],[-66,-43],[-64,-2],[2,-64],[97,-85],[102,35],[48,-33],[73,25],[25,-26],[0,-148],[-48,-116],[12,-35],[-549,0],[0,103],[58,55],[0,118],[-58,187],[0,887],[69,-40],[108,-2],[59,102],[-21,71],[-95,26],[-120,-20]],[[216,920],[53,-93],[67,12],[28,41],[21,-20],[-20,47],[28,85],[-96,-16],[-81,-56]],[[102,1051],[57,-51],[42,9],[-25,51],[-74,-9]],[[394,1192],[32,-10],[10,40],[-33,-8],[-9,-22]],[[1620,595],[33,-1],[57,53],[-25,49],[103,64],[128,27],[35,-32],[6,-67],[185,-45],[-32,-134],[-148,-6],[-106,-52],[-24,-40],[-19,76],[-42,-14],[-17,-36],[-125,56],[14,40],[-23,62]],[[975,41],[-48,28],[34,55],[47,-27],[-33,-56]],[[1702,981],[2,-67],[-31,-25],[-75,19],[-8,63],[29,-25],[14,14],[-10,95],[61,-34],[18,-40]],[[3962,1673],[-58,3],[0,56],[81,0],[-23,-59]],[[1886,441],[8,-31],[-44,-88],[-39,-7],[-107,64],[36,75],[77,-16],[65,25],[4,-22]],[[2491,522],[11,-63],[-20,-48],[124,132],[20,-23],[-65,-126],[9,-43],[42,-11],[-2,-46],[-27,18],[-86,-46],[-81,56],[-16,56],[-51,-19],[-14,20],[65,131],[48,10],[0,113],[33,-20],[26,-73],[-16,-18]],[[3192,2357],[30,-16],[1,-53],[-67,-4],[-55,-36],[-6,105],[22,24],[59,-24],[10,30],[6,-26]],[[1994,2013],[40,-43],[-31,-93],[-55,56],[46,80]],[[636,1957],[-75,40],[-6,45],[64,-1],[17,-84]],[[4096,2660],[-7,10],[-10,71],[17,-13],[0,-68]],[[1542,2722],[-26,20],[-6,62],[65,0],[-7,-62],[-26,-20]],[[2114,2891],[53,-82],[-40,-84],[-24,59],[11,107]],[[1396,1647],[11,-26],[49,33],[54,-63],[-42,-82],[-72,-31],[-12,34],[29,79],[-32,5],[-24,-56],[-25,-5],[11,93],[-60,-9],[-1,34],[33,51],[4,75],[94,66],[27,-36],[-44,-162]],[[2682,3281],[-56,30],[41,58],[56,-30],[-41,-58]],[[2675,3057],[-49,41],[16,128],[24,9],[9,-178]],[[1057,3283],[-97,56],[36,49],[61,8],[0,-113]],[[4096,3449],[-30,3],[-3,45],[33,11],[0,-59]],[[81,3766],[37,-4],[-20,-102],[-61,18],[33,28],[11,60]],[[3920,3762],[-129,141],[22,53],[27,-53],[113,-56],[-33,-85]],[[707,4012],[-55,32],[13,52],[69,0],[-1,-80],[-26,-4]],[[1833,4044],[-36,39],[0,13],[51,0],[-15,-52]],[[979,3981],[-36,7],[3,52],[48,1],[22,55],[63,0],[10,-52],[-65,0],[-45,-63]],[[1731,3958],[8,-34],[-105,17],[-10,-36],[36,-15],[-12,-72],[-90,28],[-16,114],[97,84],[-27,52],[108,0],[-32,-24],[43,-114]],[[1942,3355],[-44,41],[-17,61],[38,49],[50,10],[-27,-161]],[[0,3311],[0,132],[86,37],[65,-113],[-25,-88],[-120,24],[-6,8]],[[1526,3283],[-56,43],[-25,98],[16,56],[73,22],[24,35],[17,-57],[-33,0],[13,-45],[47,-35],[-57,-33],[-19,-84]],[[1939,3663],[17,-44],[-99,-72],[-8,-58],[-49,-12],[17,88],[33,0],[0,56],[64,28],[0,29],[25,-15]],[[3445,3013],[46,-151],[-55,44],[-24,-7],[-11,-45],[-10,63],[54,96]],[[3987,3087],[-11,-66],[-37,-2],[-27,-52],[-23,0],[-29,87],[60,-2],[62,51],[5,-16]],[[2987,3510],[44,-31],[-63,-4],[23,-73],[-104,-112],[24,-43],[51,3],[29,56],[165,61],[-51,109],[46,-39],[14,21],[46,-78],[4,-86],[-83,7],[-42,-20],[-8,-33],[37,-17],[24,61],[61,-15],[-45,-27],[-48,-108],[-16,84],[-39,-23],[-41,-111],[-1,-91],[-32,28],[-65,-56],[-161,-29],[-35,276],[18,91],[65,-56],[41,115],[40,-3],[-52,260],[89,-98],[65,-19]],[[2690,0],[9,22],[43,20],[40,-42],[-92,0]],[[2817,0],[-60,38],[65,-37],[-6,84],[39,13],[-3,61],[18,6],[-11,58],[-49,0],[-26,41],[35,13],[-18,57],[98,63],[94,-66],[41,-91],[28,5],[-10,-76],[113,13],[-6,-26],[84,-30],[14,-51],[82,95],[75,-11],[18,25],[20,-40],[-40,-18],[38,-23],[17,-42],[-22,-12],[40,-31],[-28,-18],[-47,0],[-19,15],[-33,-12],[-1,-3],[-540,0]],[[3341,891],[0,85],[250,230],[248,1],[195,-73],[62,-48],[0,-112],[-158,78],[-205,-19],[-31,-34],[-232,-22],[-95,-84],[-34,-2]],[[0,3708],[27,-22],[38,8],[-65,-13],[0,27]],[[0,3282],[55,-39],[67,29],[12,38],[121,-67],[30,46],[38,-2],[-49,-98],[43,-132],[17,-29],[93,5],[-8,-19],[68,-32],[-36,-51],[-38,5],[-92,-76],[45,-13],[-11,-70],[47,-32],[-67,-7],[50,-213],[-76,-177],[-23,-137],[35,-112],[132,-227],[121,32],[20,-34],[9,-4],[18,7],[11,-1],[2,-2],[-35,-5],[-36,24],[-69,-36],[-71,0],[-69,45],[-181,28],[2,182],[-82,18],[-42,64],[0,74],[-51,17],[0,1001]],[[0,2161],[7,4],[-7,8],[0,66],[42,0],[-42,23],[0,17],[51,-15],[-1,-74],[43,-65],[81,-18],[-2,-182],[117,-24],[0,-38],[-215,-48],[-74,5],[0,341]],[[1516,1021],[7,81],[45,-1],[38,-37],[66,6],[9,26],[33,-8],[44,71],[152,52],[26,33],[18,-26],[33,26],[19,-31],[53,5],[76,122],[70,46],[46,-20],[19,30],[56,-57],[2,-215],[-42,47],[-60,-12],[-42,46],[-6,-28],[-155,-101],[17,-30],[101,19],[13,-54],[33,17],[2,-30],[24,-5],[-36,-51],[-54,20],[-8,-32],[-2,23],[-28,-4],[-139,-116],[-38,1],[15,-53],[-26,-17],[-60,24],[-2,-21],[-80,-29],[-11,60],[-94,32],[-60,-51],[12,56],[-33,18],[-6,36],[22,20],[-14,35],[34,4],[-89,73]],[[2456,0],[-802,0],[16,119],[95,-40],[123,83],[0,17],[29,27],[-49,22],[95,34],[15,49],[53,3],[11,30],[-26,-1],[-23,43],[67,3],[31,89],[115,-24],[122,50],[2,-37],[50,2],[-43,-91],[23,-59],[53,-3],[-16,-47],[59,-26],[-39,-49],[48,-20],[-20,-104],[11,-70]]]}