{"objects":{"water":{"type":"GeometryCollection","geometries":[{"type":"MultiPolygon","properties":{"source":"naturalearthdata.com","kind":"ocean","area":1576712559132672,"sort_rank":200,"min_zoom":0.0,"id":1},"arcs":[[[93]],[[94]],[[95]],[[96]],[[97],[98],[99]]]},{"type":"MultiLineString","properties":{"source":"naturalearthdata.com","kind":"ocean","sort_rank":205,"boundary":true,"min_zoom":0.0,"id":1143},"arcs":[[100],[101]]},{"type":"MultiLineString","properties":{"source":"naturalearthdata.com","kind":"ocean","sort_rank":205,"boundary":true,"min_zoom":0.0,"id":1147},"arcs":[[102],[103],[104],[105],[106],[107],[108]]}]},"buildings":{"type":"GeometryCollection","geometries":[]},"places":{"type":"GeometryCollection","geometries":[{"type":"Point","properties":{"name:pt":"Sardenha","name:ro":"Sardinia","name:sk":"Sard\u00ednia","short_name":"SAR","name:ar":"\u0633\u0631\u062f\u064a\u0646\u064a\u0627","name:cs":"Sardinie","kind":"region","min_zoom":4.0,"name:la":"Sardinia","name:uk":"\u0421\u0430\u0440\u0434\u0438\u043d\u0456\u044f","name:be":"\u0421\u0430\u0440\u0434\u0437\u0456\u043d\u0456\u044f","name:ru":"\u0421\u0430\u0440\u0434\u0438\u043d\u0438\u044f","name:pl":"Sardynia","id":1781917331,"population":1675411,"name:eo":"Sardio","name:en":"Sardinia","name":"Sardegna","kind_detail":"state","name:ku":"Sard\u00eenya","name:de":"Sardinien","source":"openstreetmap.org","name:fr":"Sardaigne","name:eu":"Sardinia","name:es":"Cerde\u00f1a"},"coordinates":[864,2409]},{"type":"Point","properties":{"source":"naturalearthdata.com","kind":"locality","name":"Sassari","population":120729,"min_zoom":6.0,"id":5175},"coordinates":[193,3622]},{"type":"Point","properties":{"source":"naturalearthdata.com","kind":"locality","name":"Cagliari","population":291511,"region_capital":true,"min_zoom":7.0,"id":3365},"coordinates":[971,759]},{"type":"Point","properties":{"source":"naturalearthdata.com","kind":"locality","name":"Olbia","population":45366,"min_zoom":7.0,"id":3364},"coordinates":[1569,3971]}]},"transit":{"type":"GeometryCollection","geometries":[{"type":"MultiLineString","properties":{"kind":"train","name":"ARST (Sassari)","sort_rank":275,"source":"openstreetmap.org","min_zoom":6.0,"operator":"ARST","ref":"ARST","osm_relation":true},"arcs":[[64],[65],[66]]},{"type":"LineString","properties":{"kind":"train","name":"ARST (Nuoro)","sort_rank":275,"source":"openstreetmap.org","min_zoom":6.0,"operator":"ARST","ref":"ARST","id":-5663742,"osm_relation":true},"arcs":[67]},{"type":"MultiLineString","properties":{"source":"openstreetmap.org","kind":"train","name":"Ferrovia Ozieri Chilivani-Porto Torres Marittima","sort_rank":275,"ref":"R 89xx","min_zoom":6.0,"osm_relation":true},"arcs":[[68],[69],[70]]},{"type":"MultiLineString","properties":{"osm_relation":true,"source":"openstreetmap.org","kind":"train","name":"Ferrovia Decimomannu-Iglesias","sort_rank":275,"min_zoom":6.0,"operator":"Rete Ferroviaria Italiana SpA"},"arcs":[[71],[72],[73],[74]]},{"type":"MultiLineString","properties":{"osm_relation":true,"source":"openstreetmap.org","kind":"train","name":"Ferrovia Cagliari-Golfo Aranci","sort_rank":275,"min_zoom":6.0,"operator":"Rete Ferroviaria Italiana SpA"},"arcs":[[75],[76],[77],[78],[79],[80],[81],[82],[83],[84]]},{"type":"LineString","properties":{"kind":"train","name":"ARST (San Gottardo)","sort_rank":275,"source":"openstreetmap.org","min_zoom":6.0,"operator":"ARST","ref":"ARST","id":-5662935,"osm_relation":true},"arcs":[85]},{"type":"LineString","properties":{"kind":"train","name":"ARST (Alghero)","sort_rank":275,"source":"openstreetmap.org","min_zoom":6.0,"operator":"ARST","ref":"ARST","id":-5662966,"osm_relation":true},"arcs":[86]},{"type":"LineString","properties":{"kind":"train","name":"ARST (Isili)","sort_rank":275,"source":"openstreetmap.org","min_zoom":6.0,"operator":"ARST","ref":"ARST","id":-1808853,"osm_relation":true},"arcs":[87]},{"type":"MultiLineString","properties":{"osm_relation":true,"source":"openstreetmap.org","kind":"train","name":"Ferrovia Villamassargia-Carbonia","sort_rank":275,"min_zoom":6.0,"operator":"Rete Ferroviaria Italiana SpA"},"arcs":[[88],[89],[90]]},{"type":"LineString","properties":{"kind":"train","name":"ARST (Sorso)","sort_rank":275,"source":"openstreetmap.org","min_zoom":6.0,"operator":"ARST","ref":"ARST","id":-5663767,"osm_relation":true},"arcs":[91]},{"type":"LineString","properties":{"kind":"train","name":"ARST (Macomer)","sort_rank":275,"source":"openstreetmap.org","min_zoom":6.0,"operator":"ARST","ref":"ARST","id":-5663741,"osm_relation":true},"arcs":[92]}]},"pois":{"type":"GeometryCollection","geometries":[]},"boundaries":{"type":"GeometryCollection","geometries":[{"type":"LineString","properties":{"source":"naturalearthdata.com","kind":"region","sort_rank":256,"kind_detail":"4","min_zoom":5.5,"id":575},"arcs":[0]},{"type":"LineString","properties":{"source":"naturalearthdata.com","kind":"region","sort_rank":256,"kind_detail":"4","min_zoom":5.5,"id":576},"arcs":[1]},{"type":"LineString","properties":{"source":"naturalearthdata.com","kind":"region","sort_rank":256,"kind_detail":"4","min_zoom":5.5,"id":577},"arcs":[2]},{"type":"LineString","properties":{"source":"naturalearthdata.com","kind":"region","sort_rank":256,"kind_detail":"4","min_zoom":5.5,"id":578},"arcs":[3]},{"type":"MultiLineString","properties":{"source":"naturalearthdata.com","kind":"region","name":"Sassari - Nuoro","sort_rank":256,"kind_detail":"4","min_zoom":5.5,"id":8686},"arcs":[[4],[5],[6],[7],[8],[9]]},{"type":"MultiLineString","properties":{"source":"naturalearthdata.com","kind":"region","name":"Nuoro - Cagliari","sort_rank":256,"kind_detail":"4","min_zoom":5.5,"id":8687},"arcs":[[10],[11]]},{"type":"MultiLineString","properties":{"source":"naturalearthdata.com","kind":"region","name":"Sassari - Oristrano","sort_rank":256,"kind_detail":"4","min_zoom":5.5,"id":8690},"arcs":[[12],[13]]},{"type":"MultiLineString","properties":{"source":"naturalearthdata.com","kind":"region","name":"Nuoro - Oristrano","sort_rank":256,"kind_detail":"4","min_zoom":5.5,"id":8691},"arcs":[[14],[15],[16],[17],[18],[19],[20]]},{"type":"MultiLineString","properties":{"source":"naturalearthdata.com","kind":"region","name":"Cagliari - Oristrano","sort_rank":256,"kind_detail":"4","min_zoom":5.5,"id":8692},"arcs":[[21],[22]]},{"type":"MultiLineString","properties":{"source":"naturalearthdata.com","kind":"region","name":"Nuoro - Olbia-Tempio","sort_rank":256,"kind_detail":"4","min_zoom":5.5,"id":8717},"arcs":[[23],[24],[25],[26],[27],[28]]},{"type":"MultiLineString","properties":{"source":"naturalearthdata.com","kind":"region","name":"Sassari - Olbia-Tempio","sort_rank":256,"kind_detail":"4","min_zoom":5.5,"id":8718},"arcs":[[29],[30],[31],[32],[33],[34],[35],[36],[37]]},{"type":"MultiLineString","properties":{"source":"naturalearthdata.com","kind":"region","name":"Cagliari - Ogliastra","sort_rank":256,"kind_detail":"4","min_zoom":5.5,"id":8719},"arcs":[[38],[39],[40],[41],[42],[43],[44]]},{"type":"MultiLineString","properties":{"source":"naturalearthdata.com","kind":"region","name":"Nuoro - Ogliastra","sort_rank":256,"kind_detail":"4","min_zoom":5.5,"id":8720},"arcs":[[45],[46],[47]]},{"type":"MultiLineString","properties":{"source":"naturalearthdata.com","kind":"region","name":"Oristrano - Medio Campidano","sort_rank":256,"kind_detail":"4","min_zoom":5.5,"id":8721},"arcs":[[48],[49],[50],[51],[52]]},{"type":"MultiLineString","properties":{"source":"naturalearthdata.com","kind":"region","name":"Cagliari - Medio Campidano","sort_rank":256,"kind_detail":"4","min_zoom":5.5,"id":8722},"arcs":[[53],[54],[55]]},{"type":"MultiLineString","properties":{"source":"naturalearthdata.com","kind":"region","name":"Medio Campidano - Carbonia-Iglesias","sort_rank":256,"kind_detail":"4","min_zoom":5.5,"id":8723},"arcs":[[56],[57],[58]]},{"type":"MultiLineString","properties":{"source":"naturalearthdata.com","kind":"region","name":"Cagliari - Carbonia-Iglesias","sort_rank":256,"kind_detail":"4","min_zoom":5.5,"id":8724},"arcs":[[59],[60],[61],[62],[63]]}]},"roads":{"type":"GeometryCollection","geometries":[{"type":"LineString","properties":{"source":"naturalearthdata.com","kind":"major_road","kind_detail":"primary","sort_rank":380,"landuse_kind":"urban_area","min_zoom":6.0,"id":5542},"arcs":[109]},{"type":"LineString","properties":{"source":"naturalearthdata.com","kind":"major_road","kind_detail":"primary","sort_rank":380,"landuse_kind":"urban_area","min_zoom":6.0,"id":5542},"arcs":[110]},{"type":"MultiLineString","properties":{"source":"naturalearthdata.com","kind":"major_road","sort_rank":380,"kind_detail":"primary","min_zoom":6.0,"id":5542},"arcs":[[111],[112]]},{"type":"LineString","properties":{"kind":"major_road","network":"e-road","sort_rank":380,"kind_detail":"primary","source":"naturalearthdata.com","min_zoom":6.0,"shield_text":"25","ref":"25","id":5573},"arcs":[113]},{"type":"LineString","properties":{"source":"naturalearthdata.com","kind":"major_road","sort_rank":380,"kind_detail":"primary","min_zoom":6.0,"id":5574},"arcs":[114]},{"type":"LineString","properties":{"kind":"major_road","network":"e-road","sort_rank":380,"kind_detail":"primary","source":"naturalearthdata.com","min_zoom":6.0,"shield_text":"25","ref":"25","id":5575},"arcs":[115]},{"type":"LineString","properties":{"source":"naturalearthdata.com","kind":"major_road","kind_detail":"primary","sort_rank":380,"landuse_kind":"urban_area","min_zoom":6.0,"id":5609},"arcs":[116]},{"type":"LineString","properties":{"source":"naturalearthdata.com","kind":"major_road","sort_rank":380,"kind_detail":"primary","min_zoom":6.0,"id":5609},"arcs":[117]},{"type":"LineString","properties":{"kind":"major_road","network":"e-road","sort_rank":380,"kind_detail":"primary","source":"naturalearthdata.com","min_zoom":6.0,"shield_text":"25","ref":"25","id":5610},"arcs":[118]},{"type":"LineString","properties":{"kind":"major_road","network":"e-road","sort_rank":380,"kind_detail":"primary","source":"naturalearthdata.com","min_zoom":6.0,"shield_text":"25","ref":"25","id":5611},"arcs":[119]},{"type":"LineString","properties":{"source":"naturalearthdata.com","kind":"major_road","sort_rank":379,"kind_detail":"secondary","min_zoom":7.0,"id":6053},"arcs":[120]},{"type":"LineString","properties":{"kind":"major_road","network":"e-road","sort_rank":380,"kind_detail":"primary","source":"naturalearthdata.com","min_zoom":7.0,"landuse_kind":"urban_area","shield_text":"840","ref":"840","id":6054},"arcs":[121]},{"type":"LineString","properties":{"kind":"major_road","network":"e-road","sort_rank":380,"kind_detail":"primary","source":"naturalearthdata.com","min_zoom":7.0,"shield_text":"840","ref":"840","id":6054},"arcs":[122]},{"type":"LineString","properties":{"kind":"major_road","network":"e-road","sort_rank":380,"kind_detail":"primary","source":"naturalearthdata.com","min_zoom":7.0,"shield_text":"840","ref":"840","id":6055},"arcs":[123]},{"type":"LineString","properties":{"kind":"major_road","network":"e-road","sort_rank":380,"kind_detail":"primary","source":"naturalearthdata.com","min_zoom":7.0,"landuse_kind":"urban_area","shield_text":"25","ref":"25","id":6056},"arcs":[124]},{"type":"MultiLineString","properties":{"kind":"major_road","network":"e-road","sort_rank":380,"kind_detail":"primary","source":"naturalearthdata.com","min_zoom":7.0,"shield_text":"25","ref":"25","id":6056},"arcs":[[125],[126]]},{"type":"LineString","properties":{"sort_rank":355,"source":"naturalearthdata.com","min_zoom":7.0,"kind":"ferry","id":7887},"arcs":[127]},{"type":"MultiLineString","properties":{"sort_rank":355,"source":"naturalearthdata.com","min_zoom":7.0,"kind":"ferry","id":7890},"arcs":[[128],[129]]},{"type":"LineString","properties":{"kind":"ferry","network":"e-road","sort_rank":355,"source":"naturalearthdata.com","min_zoom":7.0,"all_networks":["e-road"],"shield_text":"25","ref":"25","id":7892,"all_shield_texts":["25"]},"arcs":[130]},{"type":"LineString","properties":{"kind":"ferry","network":"e-road","sort_rank":355,"source":"naturalearthdata.com","min_zoom":7.0,"all_networks":["e-road"],"shield_text":"25","ref":"25","id":7893,"all_shield_texts":["25"]},"arcs":[131]},{"type":"LineString","properties":{"source":"naturalearthdata.com","kind":"major_road","sort_rank":379,"kind_detail":"secondary","min_zoom":6.0,"id":56193},"arcs":[132]},{"type":"LineString","properties":{"source":"naturalearthdata.com","kind":"major_road","sort_rank":379,"kind_detail":"secondary","min_zoom":6.0,"id":56194},"arcs":[133]},{"type":"LineString","properties":{"source":"naturalearthdata.com","kind":"major_road","sort_rank":379,"kind_detail":"secondary","min_zoom":6.0,"id":56217},"arcs":[134]}]},"earth":{"type":"GeometryCollection","geometries":[{"type":"MultiPolygon","properties":{"sort_rank":10,"source":"naturalearthdata.com","min_zoom":0.0,"kind":"earth","area":73141216859},"arcs":[[[135]],[[136]],[[137]]]},{"type":"Point","properties":{"name:pt":"Sardenha","name:ka":"\u10e1\u10d0\u10e0\u10d3\u10d8\u10dc\u10d8\u10d0","name:ko":"\uc0ac\ub974\ub370\ub0d0","name:cv":"\u0421\u0430\u0440\u0434\u0438\u043d\u0438","name:cs":"Sardinie","name:kw":"Sardayn","name:ku":"Sard\u00eenya","name:az":"Sardiniya","name:tl":"Sardinia","name:pa":"\u0a38\u0a3e\u0a30\u0a26\u0a47\u0a1e\u0a3e","name:os":"\u0421\u0430\u0440\u0434\u0438\u043d\u0438","name:ce":"\u0421\u0430\u0440\u0434\u0438\u043d\u0438","name:ta":"\u0b9a\u0bbe\u0bb0\u0bcd\u0ba4\u0bc0\u0ba9\u0bbf\u0baf\u0bbe","name:ca":"Sardenya","name:te":"\u0c38\u0c3e\u0c30\u0c4d\u0c21\u0c40\u0c28\u0c3f\u0c2f\u0c3e","name:li":"Sardini\u00eb","name:cy":"Sardinia","area":40773701632,"name:da":"Sardinien","name:de":"Sardinien","name:tr":"Sardinya","name:sq":"Sardenja","name:be":"\u0421\u0430\u0440\u0434\u0437\u0456\u043d\u0456\u044f","name:lv":"Sard\u012bnija","name:lt":"Sardinija","name:uz":"Sardiniya","name:kk":"\u0421\u0430\u0440\u0434\u0438\u043d\u0438\u044f","name:he":"\u05e1\u05e8\u05d3\u05d9\u05e0\u05d9\u05d4","name:eo":"Sardio","name:ur":"\u0633\u0627\u0631\u062f\u06cc\u0646\u06cc\u0627","name:lb":"Sardinien","name:la":"Sardinia","name:uk":"\u0421\u0430\u0440\u0434\u0438\u043d\u0456\u044f","name:hy":"\u054d\u0561\u0580\u0564\u056b\u0576\u056b\u0561","name:ug":"\u0633\u0627\u0631\u062f\u0649\u0646\u0649\u064a\u06d5 \u0626\u0627\u0631\u0649\u0644\u0649","name:hu":"Szard\u00ednia","name:hr":"Sardinija","name:oc":"Sardenha","name:el":"\u03a3\u03b1\u03c1\u03b4\u03b7\u03bd\u03af\u03b1","kind":"island","name:en":"Sardinia","name":"Sardegna","min_zoom":7.0,"name:th":"\u0e41\u0e04\u0e27\u0e49\u0e19\u0e1b\u0e01\u0e04\u0e23\u0e2d\u0e07\u0e15\u0e19\u0e40\u0e2d\u0e07\u0e0b\u0e32\u0e23\u0e4c\u0e14\u0e34\u0e40\u0e19\u0e35\u0e22","source":"openstreetmap.org","name:eu":"Sardinia","name:et":"Sardiinia","name:es":"Cerde\u00f1a","name:ia":"Region Autonome Sardinia","label_placement":true,"name:ro":"Sardinia","name:id":"Sardinia","name:ms":"Sardinia","name:mr":"\u0938\u093e\u0930\u094d\u0926\u093f\u0928\u093f\u092f\u093e","name:ar":"\u0633\u0631\u062f\u064a\u0646\u064a\u0627","name:io":"Sardinia","name:is":"Sardin\u00eda","name:am":"\u1233\u122d\u12f2\u1292\u12eb","name:an":"Cerdenya","id":-6847723,"name:ru":"\u0421\u0430\u0440\u0434\u0438\u043d\u0438\u044f","name:pl":"Sardynia","name:mk":"\u0421\u0430\u0440\u0434\u0438\u043d\u0438\u0458\u0430","name:af":"Sardini\u00eb","name:fa":"\u0633\u0627\u0631\u062f\u06cc\u0646\u06cc\u0627","name:fi":"Sardinia","name:hi":"\u0938\u093e\u0930\u0921\u0940\u0928\u093f\u092f\u093e","name:fo":"Sardinia","name:fr":"Sardaigne","name:fy":"Sardynje","name:zh":"\u6492\u4e01\u5c9b","name:so":"Sardiiniya","name:sl":"Sardinija","name:nl":"Sardini\u00eb","name:ja":"\u30b5\u30eb\u30c7\u30fc\u30cb\u30e3","name:nn":"Sardinia","name:no":"Sardinia","name:se":"Sardinia","name:sc":"Sardigna","name:br":"Sardigna","name:bs":"Sardinija","name:yi":"\u05e1\u05d0\u05e8\u05d3\u05d9\u05e0\u05d9\u05e2","name:jv":"Sardinia","name:sk":"Sard\u00ednia","name:ml":"\u0d38\u0d3e\u0d7c\u0d21\u0d40\u0d28\u0d3f\u0d2f","name:sw":"Sardinia","name:sv":"Sardinien","name:bg":"\u0421\u0430\u0440\u0434\u0438\u043d\u0438\u044f","name:sr":"\u0421\u0430\u0440\u0434\u0438\u043d\u0438\u0458\u0430","osm_relation":true,"name:ga":"An tSaird\u00edn","name:gd":"Sardainia","name:gl":"Sarde\u00f1a","alt_name:sc":"Sardinna","name:gv":"Yn Tardeen"},"coordinates":[972,2372]}]},"landuse":{"type":"GeometryCollection","geometries":[{"type":"MultiPolygon","properties":{"source":"naturalearthdata.com","kind":"urban_area","name":"","area":2468653015,"sort_rank":11,"min_zoom":4.0},"arcs":[[[138]],[[139]],[[140]],[[141]],[[142]],[[143]],[[144]],[[145]]]},{"type":"Polygon","properties":{"kind":"protected_area","area":391023008,"sort_rank":17,"source":"openstreetmap.org","min_zoom":6.0,"tier":2,"id":-2384474,"osm_relation":true},"arcs":[[146]]}]}},"type":"Topology","transform":{"translate":[8.4375,38.8225909762],"scale":[0.0006866455,0.0005266863]},"arcs":[[[544,4022]],[[1760,1379]],[[1733,2662]],[[162,1662]],[[1128,3190],[-19,5],[-11,14],[-4,21],[1,25]],[[860,2815],[21,33],[24,19],[181,73],[5,10],[12,32],[8,13],[33,18],[5,11],[11,51],[10,24],[13,18],[37,24],[8,17],[-13,26],[-19,11]],[[1196,3195],[-68,-5]],[[574,3022],[8,-1],[7,-3],[6,-7],[8,-21],[3,-5],[7,-5],[34,-3],[87,-34],[86,-106],[27,-21],[13,-1]],[[304,2817],[18,1],[17,7],[58,58],[28,13],[111,28],[10,8],[7,16],[2,23],[-4,19],[0,16],[15,13],[8,3]],[[266,2841],[7,-3],[16,-15],[15,-6]],[[1111,1906],[-2,5],[-4,119],[3,12],[5,11],[16,12],[99,14]],[[1051,1912],[60,-6]],[[92,3042],[14,-3],[28,-21],[60,-72],[24,-55],[8,-13],[31,-26],[9,-11]],[[0,2989],[21,2],[29,14],[31,31],[11,6]],[[266,2841],[-13,-22],[-1,-11],[12,-48],[13,-16],[50,-24],[10,-19],[4,-43],[9,-16],[16,-7]],[[768,2644],[14,-1],[13,-5],[14,-9],[12,-14],[7,-20],[18,-81],[3,-58],[15,-52],[19,-36],[2,-13],[-4,-13],[-23,-35]],[[481,2611],[287,33]],[[418,2635],[63,-24]],[[366,2635],[52,0]],[[858,2307],[-60,28]],[[798,2335],[-42,-44],[2,-60],[72,-16],[6,-16],[-34,-92],[22,-28],[45,-16],[68,-40],[77,-23],[31,-18],[3,-3],[2,-3],[1,-64]],[[1051,1912],[-6,3],[-19,4]],[[1026,1919],[-59,-3],[-56,-29],[-49,-47],[-38,-59]],[[1797,3500],[-13,12],[-20,33],[-16,11],[-52,6]],[[1696,3562],[-40,-17],[-79,-69],[-24,-9]],[[1910,3489],[-14,17],[-16,8],[-36,7]],[[1844,3521],[-14,-2],[-21,-18],[-12,-1]],[[1553,3467],[-24,3],[-48,17],[-26,0]],[[1455,3487],[-18,-11],[-30,-47],[-7,-15],[-11,-48],[-9,-15],[-26,-25],[-70,-46],[-189,-25]],[[738,4052],[-6,2]],[[732,4054],[-7,-1],[-61,-40],[-18,-6],[-30,-2]],[[698,3853],[-9,3],[-8,8],[-7,11],[-4,13],[-1,13],[3,13],[6,6],[69,2],[26,9],[19,19],[5,31],[-8,35],[-18,28],[-24,8]],[[747,4052],[-9,0]],[[616,4005],[-72,17]],[[991,3463],[-144,60],[-13,9],[-7,15],[1,12],[20,29],[4,13],[7,102],[-2,19],[-47,112],[-9,11],[-9,7],[-11,4]],[[781,3856],[-83,-3]],[[1095,3255],[-5,19],[2,19],[9,40],[3,38],[-3,39],[-16,55],[-9,13],[-24,15]],[[1052,3493],[-21,-10],[-19,-16],[-21,-4]],[[1341,1632],[-10,1],[-7,6],[-3,10],[1,14],[6,14],[7,12],[10,9],[26,15],[10,14],[0,16],[-13,15],[-21,9],[-6,6],[-2,9],[0,19],[-4,8],[-16,14],[-36,19],[-15,10],[-44,77],[-7,23],[2,15],[10,30],[0,16],[-8,33],[0,15],[7,18]],[[1430,1538],[-29,33],[-4,17],[8,39],[-6,16],[-14,8]],[[1385,1651],[-15,-4],[-29,-15]],[[1636,1423],[-14,7],[-84,88],[-30,21],[-36,8]],[[1472,1547],[-22,-9],[-20,0]],[[1760,1379],[-73,46],[-16,2]],[[1671,1427],[-35,-4]],[[1635,2609],[25,1],[43,41],[30,11]],[[1585,2651],[10,-5],[40,-37]],[[1228,2079],[8,16],[0,20],[-3,21],[0,20],[13,27],[21,10],[15,15],[2,44],[-4,6],[-22,13],[-6,6],[-4,7],[-1,8],[1,10],[9,14],[27,13],[12,13],[7,13],[8,9],[130,67],[79,127],[41,29],[10,13],[2,13],[1,16],[3,14],[8,8]],[[739,1829],[52,-17],[33,-31]],[[458,1537],[134,67],[27,21],[44,57],[59,134],[5,7],[6,4],[6,2]],[[162,1662],[19,-7],[42,-1],[19,-7],[6,-7],[11,-27],[17,-23],[49,-41],[24,-8]],[[397,1551],[45,-13],[16,-1]],[[349,1541],[48,10]],[[824,1781],[79,-15],[14,-6],[6,-5],[3,-8],[-2,-6],[-11,-14],[-6,-16],[-26,-160],[-46,-97],[-22,-80],[1,-9],[19,-41],[3,-14],[1,-15],[-3,-32],[-8,-20],[-16,-12],[-24,-11],[-13,-16],[3,-22],[10,-24],[2,-20],[-12,-14],[-59,-29]],[[717,1095],[-215,8]],[[502,1103],[-48,-12],[-73,-42]],[[91,1253],[45,-6],[8,-7],[25,-40],[75,-55],[16,-19],[25,-44],[15,-17],[19,-10],[62,-6]],[[23,1220],[18,6],[33,23],[17,4]],[[0,1224],[23,-4]],[[381,1049],[10,-15],[1,-16],[-8,-34],[0,-13],[3,-12],[9,-22],[11,-45],[6,-13],[7,-7],[14,-9],[6,-7],[5,-12],[18,-116],[13,-36],[19,-21],[47,-18],[12,-12],[7,-19],[0,-14],[-2,-14],[0,-20],[11,-28],[18,-20],[11,-23],[-9,-41],[-18,-25],[-23,-11]],[[549,426],[-102,5]],[[447,431],[-11,-8],[-11,-11],[-35,-18],[-14,-3]],[[376,391],[-11,6],[-19,21],[-12,1]],[[334,419],[-13,-15],[-17,-69],[-44,-75],[-8,-9]],[[0,3522],[115,31],[15,49],[40,19]],[[170,3621],[1,1]],[[199,3749],[-54,-59],[26,-68]],[[490,2745],[167,26],[63,49],[196,43],[194,-39],[179,45],[2,-25]],[[726,3394],[-32,2]],[[694,3396],[-177,58],[-53,-5],[-85,72],[-78,3],[-55,43],[-120,-20],[1,65],[44,20],[-145,85],[-26,28]],[[694,3396],[3,-18]],[[148,927],[155,-32]],[[293,898],[10,-3]],[[303,895],[126,-18],[328,44]],[[758,921],[19,-10]],[[522,1403],[18,-18],[8,-8],[11,-11],[5,-5],[3,-2],[4,-4],[4,-3],[35,-22],[3,-2],[3,-1],[16,-4],[6,-3],[24,-29],[35,-142],[28,-86],[28,-132],[0,-2],[2,-3],[2,-2],[1,-2],[10,-6],[10,-5]],[[720,3391],[2,2]],[[722,3393],[5,2]],[[727,3395],[3,2]],[[721,3392],[7,4]],[[728,3396],[61,18],[34,61],[99,45],[-4,58],[64,15],[10,40],[96,75],[40,-22],[37,10],[89,101],[45,16],[51,-20],[120,83],[81,121],[-16,77],[41,22]],[[774,913],[-112,378],[-23,29],[-117,83]],[[522,1403],[-54,45],[-97,221],[-70,86],[2,105],[-63,199],[99,43],[51,123],[-29,47],[127,102],[67,109],[-26,127],[13,90],[-45,18],[-39,-14],[35,30],[-17,33],[49,56],[-31,61],[-14,174],[-44,5],[-13,33],[201,126],[25,99],[71,70]],[[720,3391],[1,1]],[[722,3393],[2,1],[3,1]],[[1026,838],[51,46],[-18,75],[18,67],[-33,83],[-53,11],[8,54],[-62,38],[78,117],[-4,67],[25,32],[-29,39],[31,64],[-27,62],[33,72],[-61,73]],[[0,3522],[115,31],[15,49],[41,20]],[[1026,838],[51,46],[-18,75],[18,67],[-33,83],[-53,11],[8,54],[-62,38],[78,117],[-4,67],[25,32],[-29,39],[31,64],[-27,62],[33,72],[-61,73]],[[107,652],[-20,41],[14,83],[192,122]],[[293,898],[-1,0]],[[293,898],[5,-2]],[[199,3749],[-54,-59],[25,-69]],[[490,2745],[167,26],[63,49],[196,43],[194,-39],[179,45],[2,-25]],[[0,4096],[606,0],[-20,-35],[-25,-27],[-85,-63],[-19,10],[-25,4],[-36,-2],[-100,-45],[-9,-29],[-24,-29],[-29,-25],[-113,-49],[-29,-5],[-33,3],[-59,17],[0,275]],[[0,2869],[5,-4],[32,-32],[19,-43],[1,-57],[-25,-87],[6,-101],[5,-35],[26,-50],[7,-26],[-3,-28],[-13,-30],[-15,-22],[-13,-10],[-10,-2],[-22,-8],[0,535]],[[0,2002]],[[0,1977],[10,38],[11,17],[17,12],[-11,-1],[-9,1],[-6,-2],[-5,-10],[-7,8],[0,6],[37,26],[46,-3],[42,-26],[32,-38],[12,-28],[2,-21],[-4,-61],[-5,-26],[-12,-34],[-16,-31],[-17,-19],[10,6],[8,9],[7,10],[5,13],[10,0],[-14,-23],[-23,-29],[-19,-32],[-4,-32],[15,-15],[75,-24],[-40,-10],[-31,12],[-25,27],[-46,73],[-13,11],[-20,4],[-3,-11],[4,-49],[-6,-18],[0,-13],[7,-20],[4,-86],[18,-79],[2,-37],[-11,-26],[11,-14],[-17,-35],[-21,-55],[0,635]],[[0,636],[2,-8],[-1,-47],[6,-20],[17,13],[16,-10],[12,-23],[6,-32],[7,-12],[1,-8],[31,20],[20,-14],[-13,-29],[-7,-10],[24,-4],[35,-18],[11,11],[11,0],[18,-82],[12,-101],[33,8],[18,-33],[0,-46],[-23,-33],[0,-13],[23,-6],[26,0],[14,-11],[-12,-36],[9,-13],[21,13],[-5,39],[25,36],[37,28],[32,14],[34,-4],[39,-19],[36,-31],[21,-36],[0,39],[33,-32],[19,-16],[18,-5],[11,8],[16,26],[8,6],[15,2],[10,4],[148,153],[12,24],[11,-9],[4,-2],[16,11],[-11,0],[16,66],[23,40],[-2,14],[-9,10],[-8,11],[-11,31],[-9,34],[-4,38],[4,42],[11,37],[18,26],[59,63],[1,8],[0,15],[-7,10],[-36,-8],[-16,5],[-2,-2],[-4,10],[-12,6],[-8,9],[7,16],[0,14],[-20,9],[2,6],[16,2],[21,-5],[12,-12],[12,-16],[12,-9],[14,11],[59,-71],[34,-32],[42,-14],[5,12],[17,26],[24,27],[27,13],[53,-6],[27,-8],[21,-13],[10,14],[10,-13],[19,-12],[20,-10],[16,-4],[12,-8],[33,-37],[14,-8],[9,-7],[36,-44],[30,-14],[13,-10],[7,-17],[11,0],[22,14],[22,7],[23,-3],[23,-18],[-7,-15],[0,-10],[5,-6],[11,-7],[6,39],[25,17],[27,11],[12,18],[3,19],[14,38],[3,15],[-6,13],[-10,10],[-5,11],[11,17],[-8,46],[21,53],[37,44],[39,15],[0,11],[-33,26],[-12,18],[-4,28],[2,28],[18,83],[36,101],[8,60],[-24,34],[36,123],[4,53],[-10,84],[3,26],[7,19],[7,15],[3,12],[3,28],[14,31],[3,19],[-2,27],[-7,46],[-2,24],[2,47],[8,48],[13,40],[18,22],[0,12],[-7,4],[-6,6],[-7,4],[0,12],[10,0],[-9,20],[1,23],[7,23],[11,25],[7,5],[10,0],[9,4],[5,18],[-4,12],[-8,0],[-11,-6],[-8,-6],[-14,52],[9,60],[54,144],[3,29],[-32,23],[-33,47],[-12,10],[-21,10],[-15,25],[-35,98],[-3,18],[-6,80],[2,29],[12,37],[16,26],[36,31],[19,22],[26,55],[17,25],[22,11],[32,10],[18,25],[23,70],[33,53],[12,29],[5,41],[4,20],[17,32],[0,19],[-9,13],[-41,39],[-8,19],[-1,17],[-6,11],[-20,5],[-10,6],[-7,15],[-5,19],[-7,117],[-6,26],[-44,88],[-5,35],[-10,26],[-41,56],[-8,24],[-2,-21],[-16,18],[6,18],[18,9],[23,-6],[0,12],[-13,24],[15,12],[48,17],[-19,3],[-17,6],[-14,11],[-10,19],[-17,-13],[-12,-1],[-8,11],[-3,23],[-8,6],[-52,27],[0,12],[14,2],[11,8],[8,12],[7,17],[-28,6],[-22,-11],[-21,-15],[-29,-7],[-9,4],[-26,17],[-15,6],[-14,-2],[-13,-8],[-12,0],[-11,22],[12,2],[-2,3],[1,9],[66,-5],[20,7],[-7,26],[18,25],[6,34],[2428,0],[0,-4096],[-4096,0],[0,277],[13,49],[11,64],[14,27],[-6,14],[7,13],[29,25],[-7,5],[-3,-3],[-1,-2],[-10,-7],[-10,-1],[-7,5],[-3,10],[-17,56],[-10,2],[0,102]],[[1892,3990],[-4,1],[-82,-61],[-2,-4],[5,2],[8,-1],[9,-5],[13,4],[58,42],[-1,13],[-4,9]],[[1859,3894],[8,-19],[21,-10],[8,4],[8,17],[-16,13],[-10,-4],[-19,-1]],[[27,476],[-17,56],[-10,2]],[[0,277],[13,49],[11,64],[14,27],[-6,14],[7,13],[29,25],[-7,5],[-3,-3],[-1,-2],[-10,-7],[-10,-1],[-7,5],[-3,10]],[[1973,3293],[-8,19],[-1,17],[-6,11],[-20,5],[-10,6],[-7,15],[-5,19],[-7,117],[-6,26],[-44,88],[-5,35],[-10,26],[-41,56],[-8,24],[-2,-21],[-16,18],[6,18],[18,9],[23,-6],[0,12],[-13,24],[15,12],[48,17],[-19,3],[-17,6],[-14,11],[-10,19],[-17,-13],[-12,-1],[-8,11],[-3,23],[-8,6],[-52,27],[0,12],[14,2],[11,8],[8,12],[7,17],[-28,6],[-22,-11],[-21,-15],[-29,-7],[-9,4],[-26,17],[-15,6],[-14,-2],[-13,-8],[-12,0],[-11,22],[12,2],[-2,3],[1,9],[66,-5],[20,7],[-7,26],[18,25],[6,34]],[[606,4096],[-20,-35],[-25,-27],[-85,-63],[-19,10],[-25,4],[-36,-2],[-100,-45],[-9,-29],[-24,-29],[-29,-25],[-113,-49],[-29,-5],[-33,3],[-59,17]],[[0,2869],[5,-4],[32,-32],[19,-43],[1,-57],[-25,-87],[6,-101],[5,-35],[26,-50],[7,-26],[-3,-28],[-13,-30],[-15,-22],[-13,-10],[-10,-2],[-22,-8]],[[0,2002]],[[0,1977],[10,38],[11,17],[17,12],[-11,-1],[-9,1],[-6,-2],[-5,-10],[-7,8]],[[0,2046],[37,26],[46,-3],[42,-26],[32,-38],[12,-28],[2,-21],[-4,-61],[-5,-26],[-12,-34],[-16,-31],[-17,-19],[10,6],[8,9],[7,10],[5,13],[10,0],[-14,-23],[-23,-29],[-19,-32],[-4,-32],[15,-15],[75,-24],[-40,-10],[-31,12],[-25,27],[-46,73],[-13,11],[-20,4],[-3,-11],[4,-49],[-6,-18],[0,-13],[7,-20],[4,-86],[18,-79],[2,-37],[-11,-26],[11,-14],[-17,-35],[-21,-55]],[[0,636],[2,-8],[-1,-47],[6,-20],[17,13],[16,-10],[12,-23],[6,-32],[7,-12],[1,-8],[31,20],[20,-14],[-13,-29],[-7,-10],[24,-4],[35,-18],[11,11],[11,0],[18,-82],[12,-101],[33,8],[18,-33],[0,-46],[-23,-33],[0,-13],[23,-6],[26,0],[14,-11],[-12,-36],[9,-13],[21,13],[-5,39],[25,36],[37,28],[32,14],[34,-4],[39,-19],[36,-31],[21,-36],[0,39],[33,-32],[19,-16],[18,-5],[11,8],[16,26],[8,6],[15,2],[10,4],[148,153],[12,24],[11,-9],[4,-2],[16,11],[-11,0],[16,66],[23,40],[-2,14],[-9,10],[-8,11],[-11,31],[-9,34],[-4,38],[4,42],[11,37],[18,26],[59,63],[1,8],[0,15],[-7,10],[-36,-8],[-16,5],[-2,-2],[-4,10],[-12,6],[-8,9],[7,16],[0,14],[-20,9],[2,6],[16,2],[21,-5],[12,-12],[12,-16],[12,-9],[14,11],[59,-71],[34,-32],[42,-14],[5,12],[17,26],[24,27],[27,13],[53,-6],[27,-8],[21,-13],[10,14],[10,-13],[19,-12],[20,-10],[16,-4],[12,-8],[33,-37],[14,-8],[9,-7],[36,-44],[30,-14],[13,-10],[7,-17],[11,0],[22,14],[22,7],[23,-3],[23,-18],[-7,-15],[0,-10],[5,-6],[11,-7],[6,39],[25,17],[27,11],[12,18],[3,19],[14,38],[3,15],[-6,13],[-10,10],[-5,11],[11,17],[-8,46],[21,53],[37,44],[39,15],[0,11],[-33,26],[-12,18],[-4,28],[2,28],[18,83],[36,101],[8,60],[-24,34],[36,123],[4,53],[-10,84],[3,26],[7,19],[7,15],[3,12],[3,28],[14,31],[3,19],[-2,27],[-7,46],[-2,24],[2,47],[8,48],[13,40],[18,22],[0,12],[-7,4],[-6,6],[-7,4],[0,12],[10,0],[-9,20],[1,23],[7,23],[11,25],[7,5],[10,0],[9,4],[5,18],[-4,12],[-8,0],[-11,-6],[-8,-6],[-14,52],[9,60],[54,144],[3,29],[-32,23],[-33,47],[-12,10],[-21,10],[-15,25],[-35,98],[-3,18],[-6,80],[2,29],[12,37],[16,26],[36,31],[19,22],[26,55],[17,25],[22,11],[32,10],[18,25],[23,70],[33,53],[12,29],[5,41],[4,20],[17,32],[0,19],[-9,13],[-41,39]],[[1314,2915],[-57,-27]],[[1523,3988],[0,-27],[1,-4]],[[1257,2888],[-289,-137],[-300,-228],[-62,-38],[-66,-28]],[[1524,3957],[4,-20],[9,-22],[15,-18],[18,-14],[56,-30],[17,-11],[16,-14],[14,-17],[11,-22],[4,-11],[5,-25],[3,-12],[4,-13],[5,-12],[12,-22],[29,-39],[64,-72],[27,-41],[9,-23],[5,-23],[1,-25],[-2,-25],[-4,-18],[-12,-35],[-34,-72],[-31,-51],[-95,-122],[-76,-83],[-26,-22],[-28,-19],[-230,-109]],[[366,3501],[-79,28],[-27,6]],[[260,3535],[-38,-6],[-19,1],[-7,2],[-6,5],[-4,7],[-3,8],[-3,6],[-6,3],[-6,1],[-52,-6],[-3,1],[-16,7],[-5,4],[-20,21],[-10,11],[-39,56],[-16,19],[-7,7]],[[548,2464],[-22,23],[-10,13],[-9,14],[-4,9],[-3,9],[-5,18],[-1,9],[-1,63],[2,16],[6,15],[10,14],[9,15],[4,17],[-4,18],[-10,14],[-34,35],[-4,17],[7,17],[30,40],[9,13],[3,8],[1,9],[0,10],[0,9],[-2,7],[-3,8],[-3,7],[-15,23],[-61,75],[-10,13],[-7,15],[-6,16],[-1,18],[3,17],[7,14],[9,15],[55,66],[8,12],[8,14],[6,15],[2,17],[-2,15],[-6,14],[-49,77],[-10,11],[-11,10],[-12,8],[-24,11],[-5,4],[-5,5],[-4,6],[-3,7],[-3,7],[-2,8],[-1,7],[-3,54]],[[1541,4088],[8,-16],[5,-20],[-1,-19],[-6,-17],[-18,-31]],[[1535,4096],[6,-8]],[[532,2468],[-244,-231],[-17,-21],[-5,-10],[-4,-12],[-2,-12],[1,-13],[3,-12],[6,-11],[11,-21],[6,-15],[1,-15],[-2,-15],[-4,-15],[-14,-29],[-6,-16],[-3,-16],[4,-35],[7,-34],[11,-32],[29,-66],[143,-257],[40,-57],[34,-39],[263,-237],[15,-18],[26,-41],[23,-44],[61,-179],[11,-26],[58,-104]],[[959,846],[110,-155]],[[897,3296],[10,-158],[-1,-29],[-5,-26],[-14,-20],[-20,-14],[-22,-9],[-45,-9],[-44,-4],[-22,2],[-21,6],[-2,1],[-1,1],[-1,1],[-1,15],[-2,10],[-1,5],[-2,6],[-2,4],[-5,6],[-5,4],[-6,1],[-7,-1],[-32,-8],[-16,-1],[-16,3],[-73,40],[-36,26],[-13,12],[-5,7],[-5,8]],[[1541,3977],[-31,-2]],[[1510,3975],[-37,-2],[-66,-17],[-61,-36],[-48,-62],[-26,-53],[-10,-16],[-13,-15],[-13,-13],[-15,-11],[-16,-9],[-32,-13],[-117,-35],[-17,-8],[-17,-10],[-16,-11],[-92,-84],[-33,-24],[-35,-19],[-36,-14]],[[819,3512],[-234,-67],[-126,-2],[-101,58]],[[167,3660],[11,-8],[28,-26],[39,-51]],[[0,3755],[19,-3],[27,-9],[26,-14],[95,-69]],[[245,3575],[33,-43]],[[1584,3977],[307,119]],[[4096,288],[-269,-140],[-331,-125],[-89,-23]],[[1629,0],[-29,10],[-49,30],[-123,106]],[[1537,0],[-96,116],[-372,575]],[[1062,699],[24,-61],[35,-53],[42,-45],[733,-540]],[[1107,2828],[-24,1],[-50,22],[-30,5],[-46,-5],[-85,5],[-30,-3],[-23,-30],[-21,-14],[-42,-10],[-71,-30],[-16,-3],[-24,13],[-28,-8],[-31,5],[-29,-5],[-25,-18]],[[532,2753],[-46,10]],[[962,746],[5,46],[-5,20]],[[0,277],[0,257],[10,-2],[17,-56],[3,-10],[7,-5],[10,1],[10,7],[1,2],[3,3],[7,-5],[-29,-25],[-7,-13],[6,-14],[-14,-27],[-11,-64],[-13,-49]],[[606,4096],[1062,0],[-6,-34],[-18,-25],[7,-26],[-20,-7],[-66,5],[-1,-9],[2,-3],[-12,-2],[11,-22],[12,0],[13,8],[14,2],[15,-6],[26,-17],[9,-4],[29,7],[21,15],[22,11],[28,-6],[-7,-17],[-8,-12],[-11,-8],[-14,-2],[0,-12],[52,-27],[8,-6],[3,-23],[8,-11],[12,1],[17,13],[10,-19],[14,-11],[17,-6],[19,-3],[-48,-17],[-15,-12],[13,-24],[0,-12],[-23,6],[-18,-9],[-6,-18],[16,-18],[2,21],[8,-24],[41,-56],[10,-26],[5,-35],[44,-88],[6,-26],[7,-117],[5,-19],[7,-15],[10,-6],[20,-5],[6,-11],[1,-17],[8,-19],[41,-39],[9,-13],[0,-19],[-17,-32],[-4,-20],[-5,-41],[-12,-29],[-33,-53],[-23,-70],[-18,-25],[-32,-10],[-22,-11],[-17,-25],[-26,-55],[-19,-22],[-36,-31],[-16,-26],[-12,-37],[-2,-29],[6,-80],[3,-18],[35,-98],[15,-25],[21,-10],[12,-10],[33,-47],[32,-23],[-3,-29],[-54,-144],[-9,-60],[14,-52],[8,6],[11,6],[8,0],[4,-12],[-5,-18],[-9,-4],[-10,0],[-7,-5],[-11,-25],[-7,-23],[-1,-23],[9,-20],[-10,0],[0,-12],[7,-4],[6,-6],[7,-4],[0,-12],[-18,-22],[-13,-40],[-8,-48],[-2,-47],[2,-24],[7,-46],[2,-27],[-3,-19],[-14,-31],[-3,-28],[-3,-12],[-7,-15],[-7,-19],[-3,-26],[10,-84],[-4,-53],[-36,-123],[24,-34],[-8,-60],[-36,-101],[-18,-83],[-2,-28],[4,-28],[12,-18],[33,-26],[0,-11],[-39,-15],[-37,-44],[-21,-53],[8,-46],[-11,-17],[5,-11],[10,-10],[6,-13],[-3,-15],[-14,-38],[-3,-19],[-12,-18],[-27,-11],[-25,-17],[-6,-39],[-11,7],[-5,6],[0,10],[7,15],[-23,18],[-23,3],[-22,-7],[-22,-14],[-11,0],[-7,17],[-13,10],[-30,14],[-36,44],[-9,7],[-14,8],[-33,37],[-12,8],[-16,4],[-20,10],[-19,12],[-10,13],[-10,-14],[-21,13],[-27,8],[-53,6],[-27,-13],[-24,-27],[-17,-26],[-5,-12],[-42,14],[-34,32],[-59,71],[-14,-11],[-12,9],[-12,16],[-12,12],[-21,5],[-16,-2],[-2,-6],[20,-9],[0,-14],[-7,-16],[8,-9],[12,-6],[4,-10],[2,2],[16,-5],[36,8],[7,-10],[0,-15],[-1,-8],[-59,-63],[-18,-26],[-11,-37],[-4,-42],[4,-38],[9,-34],[11,-31],[8,-11],[9,-10],[2,-14],[-23,-40],[-16,-66],[11,0],[-16,-11],[-4,2],[-11,9],[-12,-24],[-148,-153],[-10,-4],[-15,-2],[-8,-6],[-16,-26],[-11,-8],[-18,5],[-19,16],[-33,32],[0,-39],[-21,36],[-36,31],[-39,19],[-34,4],[-32,-14],[-37,-28],[-25,-36],[5,-39],[-21,-13],[-9,13],[12,36],[-14,11],[-26,0],[-23,6],[0,13],[23,33],[0,46],[-18,33],[-33,-8],[-12,101],[-18,82],[-11,0],[-11,-11],[-35,18],[-24,4],[7,10],[13,29],[-20,14],[-31,-20],[-1,8],[-7,12],[-6,32],[-12,23],[-16,10],[-17,-13],[-6,20],[1,47],[-2,8],[0,706],[21,55],[17,35],[-11,14],[11,26],[-2,37],[-18,79],[-4,86],[-7,20],[0,13],[6,18],[-4,49],[3,11],[20,-4],[13,-11],[46,-73],[25,-27],[31,-12],[40,10],[-75,24],[-15,15],[4,32],[19,32],[23,29],[14,23],[-10,0],[-5,-13],[-7,-10],[-8,-9],[-10,-6],[17,19],[16,31],[12,34],[5,26],[4,61],[-2,21],[-12,28],[-32,38],[-42,26],[-46,3],[-37,-26],[0,288],[22,8],[10,2],[13,10],[15,22],[13,30],[3,28],[-7,26],[-26,50],[-5,35],[-6,101],[25,87],[-1,57],[-19,43],[-32,32],[-5,4],[0,952],[59,-17],[33,-3],[29,5],[113,49],[29,25],[24,29],[9,29],[100,45],[36,2],[25,-4],[19,-10],[85,63],[25,27],[20,35]],[[0,2002],[0,38],[7,-8],[5,10],[6,2],[9,-1],[11,1],[-17,-12],[-11,-17],[-10,-38],[0,25]],[[1157,2607],[10,-37],[-13,-39],[-33,63],[-32,0],[0,43],[68,-30]],[[321,3842],[8,-45],[-35,7],[-30,-113],[16,-63],[-35,-45],[3,-39],[-104,54],[-9,51],[64,22],[7,25],[-23,80],[-51,-45],[-30,3],[49,84],[61,6],[52,56],[57,-38]],[[0,3810],[0,9],[5,-1],[-5,-8]],[[1668,4096],[-17,-85],[-86,-2],[0,-36],[53,4],[-63,-38],[-45,27],[0,42],[-54,74],[212,14]],[[1044,4027],[-20,-61],[-50,-43],[-63,0],[-50,55],[2,30],[97,21],[64,63],[20,-65]],[[161,2872],[-59,-109],[-46,17],[-36,70],[1,40],[130,21],[10,-39]],[[668,2847],[1,52],[62,11],[-14,-41],[-49,-22]],[[1316,2805],[-37,16],[-44,132],[49,-7],[34,-36],[-2,-105]],[[0,1977],[11,37],[55,39],[-57,-134],[-9,2],[0,56]]]}