{"objects":{"water":{"type":"GeometryCollection","geometries":[{"type":"MultiPolygon","properties":{"source":"naturalearthdata.com","kind":"ocean","area":1576712559132672,"sort_rank":200,"min_zoom":0.0,"id":1},"arcs":[[[40],[41]]]},{"type":"LineString","properties":{"source":"naturalearthdata.com","kind":"ocean","sort_rank":205,"boundary":true,"min_zoom":0.0,"id":47},"arcs":[42]}]},"buildings":{"type":"GeometryCollection","geometries":[]},"places":{"type":"GeometryCollection","geometries":[{"type":"Point","properties":{"name:ka":"\u10d4\u10d9\u10d5\u10d0\u10e2\u10dd\u10e0\u10e3\u10da\u10d8 \u10d2\u10d5\u10d8\u10dc\u10d4\u10d0","name:ko":"\uc801\ub3c4 \uae30\ub2c8","name:cv":"\u042d\u043a\u0432\u0430\u0442\u043e\u0440\u0438\u0430\u043b\u043b\u04d1 \u0413\u0432\u0438\u043d\u0435\u0439","name:km":"\u17a0\u17d2\u1782\u17b8\u178e\u17c1\u17a2\u17c1\u1780\u17d2\u179c\u17b6\u1791\u17d0\u179a","name:cs":"Rovn\u00edkov\u00e1 Guinea","name:ki":"Ginekweta","name:co":"Guinea Equatoriale","name:tk":"Ekwatorial Gwine\u00fda","name:ku":"G\u00een\u00eaya Rojbend\u00ee","name:ti":"\u12a2\u12b3\u1276\u122a\u12eb\u120d \u130a\u1292","name:ks":"\u0627\u0650\u06a9\u0648\u0650\u0679\u0648\u0631\u0650\u06cc\u064e\u0644 \u06af\u0650\u0646\u06cc","name:to":"\u02bbEkueta Kini","name:tl":"Gineang Ekwatoriyal","name:ce":"\u0414\u0443\u044c\u043d\u0435\u043d\u0430 \u0430\u0441\u0430\u043d\u0430\u043d \u0413\u0432\u0438\u043d\u0435","name:ta":"\u0b8e\u0b95\u0bcd\u0b95\u0bc1\u0bb5\u0b9f\u0bcb\u0bb0\u0bbf\u0baf\u0bb2\u0bcd \u0b95\u0bbf\u0ba9\u0bbf","name:tg":"\u0413\u0432\u0438\u043d\u0435\u044f\u0438 \u0418\u0441\u0442\u0438\u0432\u043e\u04e3","name:ca":"Guinea Equatorial","name:te":"\u0c0e\u0c15\u0c4d\u0c35\u0c47\u0c1f\u0c4b\u0c30\u0c3f\u0c2f\u0c3e\u0c32\u0c4d \u0c17\u0c3f\u0c28\u0c3f\u0c2f\u0c3e","name:cy":"Guinea Gyhydeddol","name:hr":"Ekvatorska Gvineja","name:da":"\u00c6kvatorialguinea","name:de":"\u00c4quatorialguinea","name:dz":"\u0f68\u0f7a\u0f0b\u0f40\u0f74\u0f0b\u0f4a\u0f7c\u0f0b\u0f62\u0f7a\u0f63\u0f0b \u0f42\u0f72\u0f0b\u0f53\u0f72","source":"openstreetmap.org","name:kn":"\u0cb5\u0cbf\u0cb7\u0cc1\u0cb5\u0ca6\u0ccd\u0cb0\u0cc7\u0c96\u0cc6\u0caf \u0c97\u0cbf\u0ca8\u0cbf","name:dv":"\u0787\u07a8\u0786\u07aa\u0787\u07ac\u0793\u07af\u0783\u07a8\u0787\u07a6\u078d\u07b0 \u078e\u07a8\u0782\u07a9","name:lv":"Ekvatori\u0101l\u0101 Gvineja","name:lt":"Pusiaujo Gvin\u0117ja","name:uz":"Ekvatorli Gvineya","name:kk":"\u0415\u043a\u0443\u0430\u0442\u043e\u0440 \u0413\u0438\u043d\u0438\u044f","name:ur":"\u0627\u0633\u062a\u0648\u0627\u0626\u06cc \u06af\u0646\u06cc","name:lb":"Equatorialguinea","name:la":"Guinea Aequatorensis","name:lg":"Gayana ey'oku ekweta","name:uk":"\u0415\u043a\u0432\u0430\u0442\u043e\u0440\u0456\u0430\u043b\u044c\u043d\u0430 \u0413\u0432\u0456\u043d\u0435\u044f","name:ug":"\u00c9kwator Gwin\u00e9yisi","name:li":"Equatoriaal Guinee","name:ln":"Gine-Ekwatorial","name:lo":"\u0ead\u0eb5\u0e84\u0ebb\u0ea7\u0ec2\u0e97\u0ec0\u0ea5\u0e8d\u0e81\u0eb5\u0ec0\u0e99\u0e8d","name:el":"\u0399\u03c3\u03b7\u03bc\u03b5\u03c1\u03b9\u03bd\u03ae \u0393\u03bf\u03c5\u03b9\u03bd\u03ad\u03b1","name:eo":"Ekvatora Gvineo","name:en":"Equatorial Guinea","name":"Guinea Ecuatorial","name:ee":"Ekuatorial Guini nutome","name:th":"\u0e1b\u0e23\u0e30\u0e40\u0e17\u0e28\u0e2d\u0e34\u0e40\u0e04\u0e27\u0e17\u0e2d\u0e40\u0e23\u0e35\u0e22\u0e25\u0e01\u0e34\u0e19\u0e35","name:eu":"Ekuatore Ginea","name:et":"Ekvatoriaal-Guinea","name:ia":"Guinea Equatorial","name:rm":"Guinea Equatoriala","name:rn":"Gineya Ekwatoriyali","name:az":"Ekvatorial Qvineya","name:ie":"Equatorial Guin\u00e9a","name:id":"Guinea Khatulistiwa","name:ar":"\u063a\u064a\u0646\u064a\u0627 \u0627\u0644\u0627\u0633\u062a\u0648\u0627\u0626\u064a\u0629","name:io":"Equatorala Guinea","name:ak":"Gini Ikuweta","name:am":"\u12a2\u12b3\u1276\u122a\u12eb\u120d \u130a\u1294","name:it":"Guinea Equatoriale","name:ru":"\u042d\u043a\u0432\u0430\u0442\u043e\u0440\u0438\u0430\u043b\u044c\u043d\u0430\u044f \u0413\u0432\u0438\u043d\u0435\u044f","name:rw":"Gineya Ekwatoriyale","name:af":"Ekwatoriaal-Guinee","name:zu":"i-Equatorial Guinea","name:zh-yue":"\u8d64\u9053\u757f\u5167\u4e9e","name:zh":"\u8d64\u9053\u51e0\u5185\u4e9a","name:so":"Equatorial Guinea","name:sn":"Equatorial Guinea","name:sl":"Ekvatorialna Gvineja","name:sk":"Rovn\u00edkov\u00e1 Guinea","name:ja":"\u8d64\u9053\u30ae\u30cb\u30a2","name:si":"\u0dc3\u0db8\u0d9a \u0d9c\u0dd2\u0db1\u0dd2\u0dba\u0dcf\u0dc0","name:sh":"Ekvatorijalna Gvineja","name:sg":"Gin\u00ebe t\u00ee Ekuat\u00ebre","name:se":"Beaivved\u00e1si Guinea","name:sc":"Guinea Ecuadoriale","name:br":"Ginea ar C\u2019heheder","name:bs":"Ekvatorijalna Gvineja","name:bm":"Cemajan Gine","name:bn":"\u09a8\u09bf\u09b0\u0995\u09cd\u09b7\u09c0\u09af\u09bc \u0997\u09bf\u09a8\u09bf","name:bo":"\u0f68\u0f72\u0f0b\u0f41\u0f74\u0f60\u0f0b\u0f4a\u0f7c\u0f0b\u0f62\u0f63\u0f0b\u0f42\u0f72\u0f0b\u0f53\u0f7a\u0f0d","name:sw":"Guinea ya Ikweta","name:be":"\u042d\u043a\u0432\u0430\u0442\u0430\u0440\u044b\u044f\u043b\u044c\u043d\u0430\u044f \u0413\u0432\u0456\u043d\u0435\u044f","name:su":"Guin\u00e9a Khatulistiwa","name:bg":"\u0415\u043a\u0432\u0430\u0442\u043e\u0440\u0438\u0430\u043b\u043d\u0430 \u0413\u0432\u0438\u043d\u0435\u044f","name:sr":"\u0415\u043a\u0432\u0430\u0442\u043e\u0440\u0438\u0458\u0430\u043b\u043d\u0430 \u0413\u0432\u0438\u043d\u0435\u0458\u0430","name:sq":"Guineja Ekuatoriale","name:jv":"Guinea Khatulistiwa","name:pt":"Guin\u00e9 Equatorial","name:ps":"\u0627\u06d0\u06a9\u0648\u0627\u067c\u0648\u0631\u064a\u0627\u0644 \u06ab\u0648\u064a\u0646\u0627","name:oc":"Guin\u00e8a Eq\u00fcatoriala","min_zoom":2.0,"name:ro":"Guineea Ecuatorial\u0103","name:zh-min-nan":"Chhiah-t\u014d Guinea","name:os":"\u042d\u043a\u0432\u0430\u0442\u043e\u0440\u0438\u0430\u043b\u043e\u043d \u0413\u0432\u0438\u043d\u0435\u0439","name:or":"\u0b07\u0b15\u0b4d\u0b2c\u0b3e\u0b1f\u0b47\u0b30\u0b3f\u0b06\u0b32\u0b4d \u0b17\u0b41\u0b07\u0b28\u0b3f\u0b06","name:pl":"Gwinea R\u00f3wnikowa","name:pa":"\u0a2d\u0a42-\u0a2e\u0a71\u0a27 \u0a30\u0a47\u0a16\u0a3e\u0a08 \u0a17\u0a3f\u0a28\u0a40","name:tr":"Ekvator Ginesi","name:hi":"\u0908\u0915\u094d\u0935\u0940\u091f\u094b\u0930\u093f\u092f\u0932 \u0917\u093f\u0928\u0940","name:sv":"Ekvatorialguinea","name:he":"\u05d2\u05d9\u05e0\u05d9\u05d0\u05d4 \u05d4\u05de\u05e9\u05d5\u05d5\u05e0\u05d9\u05ea","name:ha":"Gini Ta Ikwaita","name:hy":"\u0540\u0561\u057d\u0561\u0580\u0561\u056f\u0561\u056e\u0561\u0575\u056b\u0576 \u0533\u057e\u056b\u0576\u0565\u0561","name:ht":"Gine ekwateryal","name:hu":"Egyenl\u00edt\u0151i-Guinea","name:qu":"Chawpipacha Khiniya","population":1000000,"kind":"country","name:ts":"Equatorial Guinea","name:is":"Mi\u00f0baugs-G\u00ednea","name:yi":"\u05e2\u05e7\u05d5\u05d5\u05d0\u05d8\u05d0\u05e8\u05d9\u05e9\u05e2 \u05d2\u05d9\u05e0\u05e2","name:yo":"Or\u00edl\u1eb9\u0301\u00e8de Ekutoria Gini","name:mt":"Ginea Ekwatorjali","name:ms":"Guinea Khatulistiwa","name:mr":"\u0907\u0915\u094d\u0935\u0947\u091f\u094b\u0930\u0940\u092f\u0932 \u0917\u093f\u0928\u0940","name:my":"\u1021\u102e\u1000\u103d\u1031\u1010\u102c \u1002\u102e\u101b\u102c\u1014\u102c","official_name":"Rep\u00fablica de Guinea Ecuatorial;R\u00e9publique de Guin\u00e9e \u00e9quatoriale;Rep\u00fablica da Guin\u00e9 Equatorial","name:kw":"Gyni Ekwadoriel","name:mg":"Guinea Ekoatera","name:ml":"\u0d07\u0d15\u0d4d\u0d35\u0d31\u0d4d\u0d31\u0d4b\u0d31\u0d3f\u0d2f\u0d32\u0d4d\u200d \u0d17\u0d3f\u0d28\u0d3f","name:vi":"Guinea X\u00edch \u0110\u1ea1o","name:mn":"\u042d\u043a\u0432\u0430\u0442\u043e\u0440\u044b\u043d \u0413\u0432\u0438\u043d\u0435\u0439","name:mi":"Kini Ekuatoria","id":424313853,"name:mk":"\u0415\u043a\u0432\u0430\u0442\u043e\u0440\u0438\u0458\u0430\u043b\u043d\u0430 \u0413\u0432\u0438\u043d\u0435\u0458\u0430","name:vo":"Kveatora-Giney\u00e4n","name:fa":"\u06af\u06cc\u0646\u0647 \u0627\u0633\u062a\u0648\u0627\u06cc\u06cc","name:ff":"Ginee Ekuwaatoriyaal","name:fi":"P\u00e4iv\u00e4ntasaajan Guinea","name:fo":"Ekvatorguinea","name:fr":"Guin\u00e9e \u00e9quatoriale","name:fy":"Ekwatoriaal Guinee","int_name":"Equatorial Guinea","name:nl":"Equatoriaal-Guinea","name:nn":"Ekvatorial-Guinea","name:no":"Ekvatorial-Guinea","name:na":"Gini t Ekwador","name:nb":"Ekvatorial-Guinea","name:ne":"\u092d\u0942-\u092e\u0927\u094d\u092f\u0940\u092f \u0917\u093f\u0928\u0940","name:wo":"Gineg yamoo","name:nv":"G\u00edn\u00ed Nahasdz\u00e1\u00e1n A\u0142n\u00edi\u02bcgi Si\u02bc\u00e1n\u00edg\u00ed\u00ed","name:ga":"An Ghuine Mhe\u00e1nchriosach","name:gd":"Gini Mheadhan-Chriosach","name:gv":"Guinea Chryss ny Cruinney","name:gu":"\u0a87\u0a95\u0acd\u0ab5\u0ac7\u0a9f\u0acb\u0ab0\u0abf\u0aaf\u0ab2 \u0a97\u0abf\u0aa8\u0ac0","name:tt":"\u042d\u043a\u0432\u0430\u0442\u043e\u0440\u0438\u0430\u043b\u044c \u0413\u0432\u0438\u043d\u0435\u044f"},"coordinates":[3029,2350]},{"type":"Point","properties":{"admin_level":"4","kind":"region","name":"Estuaire","source":"openstreetmap.org","kind_detail":"state","min_zoom":4.0,"id":4346454112},"coordinates":[1497,627]},{"type":"Point","properties":{"admin_level":"4","kind":"region","name:en":"Centro Sur Province","name":"Centro Sur","kind_detail":"state","source":"openstreetmap.org","min_zoom":4.0,"id":4353431419},"coordinates":[2937,2035]},{"type":"Point","properties":{"admin_level":"4","kind":"region","name:en":"Litoral Province","name":"Litoral","kind_detail":"state","source":"openstreetmap.org","min_zoom":4.0,"id":4353432657},"coordinates":[2045,2335]},{"type":"Point","properties":{"admin_level":"4","kind":"region","name:en":"Wele-Nzas Province","name":"Wele-Nzas","kind_detail":"state","source":"openstreetmap.org","min_zoom":4.0,"id":4353431092},"coordinates":[3924,2134]},{"type":"Point","properties":{"admin_level":"4","kind":"region","name:en":"Ki\u00e9-Ntem Province","name":"Ki\u00e9-Ntem","kind_detail":"state","source":"openstreetmap.org","min_zoom":4.0,"id":4353431743},"coordinates":[3711,2998]},{"type":"Point","properties":{"source":"naturalearthdata.com","kind":"locality","name":"Libreville","country_capital":true,"population":578156,"min_zoom":5.0,"id":6971},"coordinates":[1486,561]},{"type":"Point","properties":{"source":"naturalearthdata.com","kind":"locality","name":"Bata","population":173046,"region_capital":true,"min_zoom":6.0,"id":5864},"coordinates":[1941,2724]},{"type":"Point","properties":{"source":"naturalearthdata.com","kind":"locality","name":"Calatrava","population":628,"min_zoom":7.0,"id":3551},"coordinates":[1429,1627]}]},"transit":{"type":"GeometryCollection","geometries":[{"type":"MultiLineString","properties":{"kind":"train","name:en":"Trans-Gabon Railway","name":"Transgabonais","sort_rank":275,"name:de":"Trans-Gabun-Eisenbahn","source":"openstreetmap.org","min_zoom":6.0,"operator":"SETRAG","osm_relation":true},"arcs":[[38],[39]]}]},"pois":{"type":"GeometryCollection","geometries":[{"type":"Point","properties":{"kind":"nature_reserve","name:en":"Muni Estuary Natural Reserve","name":"Reserva Natural del Estuario del Muni","area":672559000,"source":"openstreetmap.org","min_zoom":7.59,"tier":2,"id":-2677043,"osm_relation":true},"coordinates":[1981,1598]}]},"boundaries":{"type":"GeometryCollection","geometries":[{"type":"MultiLineString","properties":{"source":"naturalearthdata.com","kind":"country","sort_rank":262,"kind_detail":"2","min_zoom":0.0,"id":363},"arcs":[[0],[1]]},{"type":"MultiLineString","properties":{"source":"naturalearthdata.com","kind":"country","sort_rank":262,"kind_detail":"2","min_zoom":0.0,"id":364},"arcs":[[2],[3],[4]]},{"type":"LineString","properties":{"source":"naturalearthdata.com","kind":"region","name":"Wouleu-Ntem - Moyen-Ogoou\u00e9","sort_rank":256,"kind_detail":"4","min_zoom":5.5,"id":3972},"arcs":[5]},{"type":"MultiLineString","properties":{"source":"naturalearthdata.com","kind":"region","name":"Moyen-Ogoou\u00e9 - Estuaire","sort_rank":256,"kind_detail":"4","min_zoom":5.5,"id":3973},"arcs":[[6],[7],[8],[9]]},{"type":"MultiLineString","properties":{"source":"naturalearthdata.com","kind":"region","name":"Estuaire - Wouleu-Ntem","sort_rank":256,"kind_detail":"4","min_zoom":5.5,"id":3974},"arcs":[[10],[11],[12]]},{"type":"MultiLineString","properties":{"source":"naturalearthdata.com","kind":"region","name":"Centro Sur - Litoral","sort_rank":256,"kind_detail":"4","min_zoom":6.8,"id":4039},"arcs":[[13],[14],[15],[16],[17]]},{"type":"MultiLineString","properties":{"source":"naturalearthdata.com","kind":"region","name":"Centro Sur - Ki\u00e9-Ntem","sort_rank":256,"kind_detail":"4","min_zoom":6.8,"id":4040},"arcs":[[18],[19],[20]]},{"type":"MultiLineString","properties":{"source":"naturalearthdata.com","kind":"region","name":"Wele-Nz\u00e1s - Centro Sur","sort_rank":256,"kind_detail":"4","min_zoom":6.8,"id":4041},"arcs":[[21],[22],[23],[24],[25],[26],[27],[28],[29]]},{"type":"MultiLineString","properties":{"source":"naturalearthdata.com","kind":"region","name":"Ki\u00e9-Ntem - Wele-Nz\u00e1s","sort_rank":256,"kind_detail":"4","min_zoom":6.8,"id":4042},"arcs":[[30],[31],[32],[33],[34],[35],[36],[37]]}]},"roads":{"type":"GeometryCollection","geometries":[{"type":"LineString","properties":{"source":"naturalearthdata.com","kind":"major_road","sort_rank":379,"kind_detail":"secondary","min_zoom":4.0,"id":40901},"arcs":[43]},{"type":"LineString","properties":{"source":"naturalearthdata.com","kind":"major_road","sort_rank":379,"kind_detail":"secondary","min_zoom":4.0,"id":40902},"arcs":[44]},{"type":"LineString","properties":{"source":"naturalearthdata.com","kind":"major_road","sort_rank":379,"kind_detail":"secondary","min_zoom":3.0,"id":40950},"arcs":[45]},{"type":"LineString","properties":{"source":"naturalearthdata.com","kind":"major_road","sort_rank":379,"kind_detail":"secondary","min_zoom":3.0,"id":41012},"arcs":[46]},{"type":"LineString","properties":{"source":"naturalearthdata.com","kind":"minor_road","sort_rank":355,"kind_detail":"tertiary","min_zoom":5.0,"id":41089},"arcs":[47]},{"type":"LineString","properties":{"source":"naturalearthdata.com","kind":"minor_road","sort_rank":355,"kind_detail":"tertiary","min_zoom":5.0,"id":41099},"arcs":[48]},{"type":"LineString","properties":{"source":"naturalearthdata.com","kind":"minor_road","sort_rank":355,"kind_detail":"tertiary","min_zoom":7.0,"id":41124},"arcs":[49]},{"type":"LineString","properties":{"source":"naturalearthdata.com","kind":"minor_road","sort_rank":355,"kind_detail":"tertiary","min_zoom":5.0,"id":41141},"arcs":[50]},{"type":"LineString","properties":{"source":"naturalearthdata.com","kind":"minor_road","sort_rank":355,"kind_detail":"tertiary","min_zoom":7.0,"id":41152},"arcs":[51]},{"type":"LineString","properties":{"source":"naturalearthdata.com","kind":"minor_road","sort_rank":355,"kind_detail":"tertiary","min_zoom":7.0,"id":41169},"arcs":[52]},{"type":"LineString","properties":{"source":"naturalearthdata.com","kind":"minor_road","sort_rank":355,"kind_detail":"tertiary","min_zoom":5.0,"id":41174},"arcs":[53]},{"type":"LineString","properties":{"source":"naturalearthdata.com","kind":"minor_road","sort_rank":355,"kind_detail":"tertiary","min_zoom":5.0,"id":41193},"arcs":[54]},{"type":"LineString","properties":{"source":"naturalearthdata.com","kind":"minor_road","kind_detail":"tertiary","sort_rank":355,"landuse_kind":"nature_reserve","min_zoom":7.0,"id":41267},"arcs":[55]},{"type":"LineString","properties":{"source":"naturalearthdata.com","kind":"minor_road","sort_rank":355,"kind_detail":"tertiary","min_zoom":7.0,"id":41267},"arcs":[56]},{"type":"LineString","properties":{"source":"naturalearthdata.com","kind":"minor_road","sort_rank":355,"kind_detail":"tertiary","min_zoom":5.0,"id":41294},"arcs":[57]},{"type":"LineString","properties":{"source":"naturalearthdata.com","kind":"minor_road","sort_rank":355,"kind_detail":"tertiary","min_zoom":6.0,"id":41309},"arcs":[58]},{"type":"LineString","properties":{"source":"naturalearthdata.com","kind":"minor_road","sort_rank":355,"kind_detail":"tertiary","min_zoom":6.0,"id":41445},"arcs":[59]},{"type":"LineString","properties":{"source":"naturalearthdata.com","kind":"major_road","sort_rank":379,"kind_detail":"secondary","min_zoom":3.0,"id":41447},"arcs":[60]},{"type":"LineString","properties":{"source":"naturalearthdata.com","kind":"major_road","sort_rank":379,"kind_detail":"secondary","min_zoom":3.0,"id":41448},"arcs":[61]},{"type":"LineString","properties":{"source":"naturalearthdata.com","kind":"minor_road","kind_detail":"tertiary","sort_rank":355,"landuse_kind":"urban_area","min_zoom":6.0,"id":41465},"arcs":[62]},{"type":"LineString","properties":{"source":"naturalearthdata.com","kind":"minor_road","sort_rank":355,"kind_detail":"tertiary","min_zoom":6.0,"id":41465},"arcs":[63]},{"type":"LineString","properties":{"source":"naturalearthdata.com","kind":"major_road","sort_rank":379,"kind_detail":"secondary","min_zoom":3.0,"id":41560},"arcs":[64]},{"type":"LineString","properties":{"source":"naturalearthdata.com","kind":"major_road","sort_rank":379,"kind_detail":"secondary","min_zoom":3.0,"id":41589},"arcs":[65]}]},"earth":{"type":"GeometryCollection","geometries":[{"type":"MultiPolygon","properties":{"sort_rank":10,"source":"naturalearthdata.com","min_zoom":0.0,"kind":"earth","area":173922582241},"arcs":[[[66]]]}]},"landuse":{"type":"GeometryCollection","geometries":[{"type":"MultiPolygon","properties":{"source":"openstreetmap.org","kind":"nature_reserve","tier":2,"area":2592063793,"sort_rank":23,"min_zoom":6.0,"osm_relation":true},"arcs":[[[67]],[[68]]]},{"type":"MultiPolygon","properties":{"source":"openstreetmap.org","kind":"park","tier":2,"area":2775009134,"sort_rank":24,"min_zoom":6.0,"osm_relation":true},"arcs":[[[69]]]},{"type":"MultiPolygon","properties":{"source":"openstreetmap.org","kind":"park","tier":2,"area":5134560408,"sort_rank":24,"min_zoom":4.0,"osm_relation":true},"arcs":[[[70]]]},{"type":"MultiPolygon","properties":{"source":"naturalearthdata.com","kind":"urban_area","name":"","area":1973679333,"sort_rank":11,"min_zoom":4.0},"arcs":[[[71]]]}]}},"type":"Topology","transform":{"translate":[8.4375,-0.0],"scale":[0.0006866455,0.0006863699]},"arcs":[[[2262,3155],[-29,5],[-92,46],[-25,6],[-27,10],[-37,25],[-33,30],[-19,23],[-3,30],[5,30],[-2,27],[-16,25]],[[4096,3155],[-331,0],[-435,0],[-436,0],[-22,0],[-320,0],[-94,0],[-196,0]],[[2318,1462],[159,-1],[403,-1],[34,0],[435,-1],[330,-1],[107,-1],[310,-1]],[[2194,1347],[23,6],[17,16],[6,19],[0,44],[8,21],[28,4],[42,5]],[[1991,1455],[43,-5],[23,-9],[24,-17],[37,-43],[24,-19],[26,-11],[26,-4]],[[3451,338],[645,-2]],[[3451,338],[-28,4],[-5,1]],[[3418,343],[-6,-1],[-44,-21],[-22,-5],[-9,0],[-58,-7]],[[3279,309],[-21,1]],[[3258,310],[-9,-4],[-3,-5],[-2,-13],[1,-21],[-4,-11],[-5,-8],[-5,-7],[-26,-23],[-2,-4],[-6,-9],[-1,-4],[-1,-5],[1,-12],[1,-6],[3,-10],[13,-27],[1,-12],[-7,-14],[-40,-20],[-12,-9],[-16,-19],[-30,-31],[-24,-14],[-17,-19],[0,-3]],[[2876,929],[-12,3],[-7,13],[-12,43],[-7,14],[-7,13],[-23,31],[-2,20],[6,29],[21,56],[17,29],[22,73],[8,207]],[[3451,338],[9,8],[9,13],[3,3],[6,5],[10,13],[8,17],[2,8],[1,8],[-2,17],[-10,48],[3,15],[3,8],[8,6],[5,5],[4,6],[3,7],[2,12],[5,38],[30,107],[6,15],[17,29],[2,5],[5,17],[3,7],[5,9],[7,8],[11,17],[5,12],[16,59],[2,4],[2,3],[7,9],[22,17],[3,6],[3,10],[7,34],[15,40],[3,19],[3,100],[-5,32],[-14,58],[-6,4]],[[3669,1196],[-12,0],[-760,-263],[-21,-4]],[[2552,3155],[11,-80],[-1,-70],[-6,-26],[-7,-18],[-11,-14],[-56,-49],[-13,-16],[-17,-28],[-9,-23],[-5,-26],[-8,-157],[-12,-29],[-53,-69],[-89,-159],[-27,-39],[-19,-12],[-29,-6],[-24,-9],[-13,-11],[-8,-16],[1,-13],[6,-9],[10,-6],[103,-28],[93,-27],[43,-20],[26,-22],[5,-7],[1,-7],[-10,-19],[-15,-33],[-3,-17],[3,-20],[10,-22],[13,-12],[29,-16],[6,-16],[4,-95],[4,-23],[8,-29],[12,-10],[13,-5],[17,0],[8,-9],[3,-14],[-1,-16],[1,-20],[5,-12],[8,-10],[5,-12],[7,-37],[8,-11],[16,-8],[15,-2]],[[2650,1717],[13,-7],[8,-14],[6,-17],[1,-19],[-5,-18],[-13,-19],[-19,-15],[-22,-11],[-23,-8],[-55,-11],[-28,-2]],[[2610,1691],[12,6],[11,11],[9,8],[8,1]],[[2513,1576],[-22,1],[-18,3],[-30,9],[-13,1]],[[2430,1590],[-13,-2],[-18,-6],[-7,-4],[-35,-14],[-34,-18],[-8,-7],[-8,-9],[-8,-11],[-14,-29],[-9,-30],[0,-3]],[[2933,2800],[-16,3],[-16,14],[-3,2],[-6,13],[-3,18],[3,34],[6,22],[12,29],[2,18],[-3,20],[-22,63],[-13,47],[-2,72]],[[3029,2790],[-8,9],[-26,7]],[[2995,2806],[-62,-6]],[[3029,2790],[38,-45],[98,-78],[7,-24],[-2,-34],[-8,-35],[-10,-27],[-37,-55],[-6,-21],[3,-20],[18,-28],[5,-16],[-7,-41],[-17,-30],[2,-23],[48,-24],[45,-12],[40,-4]],[[3561,2332],[9,-5],[3,-7],[3,-15],[4,-5],[24,-7],[74,-12]],[[3500,2292],[11,4],[18,20],[11,5],[10,7],[11,4]],[[3481,2327],[19,-35]],[[3445,2306],[14,7],[12,11],[10,3]],[[3391,2318],[14,-2],[25,-8],[15,-2]],[[3246,2273],[39,4],[41,13],[48,24],[17,4]],[[3704,2292],[0,-9],[-9,-16],[-14,-7],[-52,-20],[-17,-12],[-65,-71],[-12,-17],[-21,-41],[-60,-81],[-28,-46],[-19,-46],[-2,-16],[3,-19],[11,-23],[95,-105],[18,-13],[60,-27],[17,-21],[15,-29],[23,-96],[14,-25],[11,-8],[12,-6],[10,-8],[9,-10],[1,-16],[-2,-13],[-20,-29],[-3,-4]],[[3678,2281],[7,1],[5,3],[14,7]],[[3244,2907],[15,-1],[40,-8],[167,-71],[25,-8],[37,-7]],[[3029,2790],[163,97],[52,20]],[[3643,2877],[13,-5],[10,-12],[6,-20],[43,-272],[7,-18],[13,-13],[24,-12],[24,-2]],[[3528,2812],[24,2],[20,8],[14,11],[23,25],[15,11],[19,8]],[[4063,2545],[33,-5]],[[3966,2525],[18,2],[16,8],[63,10]],[[3873,2535],[93,-10]],[[3783,2523],[29,4],[29,6],[32,2]],[[1542,467],[1,1]],[[1547,471],[25,85],[78,28],[179,-61],[305,20],[105,-90],[307,-59],[161,-304],[109,-90]],[[0,0],[0,4096],[2095,0],[-3,-83],[-5,-24],[-25,-60],[-44,-195],[-6,-271],[-10,-25],[0,-9],[-18,-17],[-29,-20],[-19,-26],[12,-32],[12,-26],[4,-33],[-12,-181],[-3,-7],[-7,-8],[-6,-9],[-4,-16],[2,-16],[5,-12],[13,-27],[41,-120],[5,-60],[-15,-49],[-52,-51],[-8,-14],[-3,-8],[-7,-7],[-6,-9],[-6,-36],[-4,-9],[-7,-6],[-6,-9],[-13,-29],[-6,-11],[-11,-11],[-30,-20],[-7,-8],[-9,-16],[-4,-6],[-85,-85],[-15,-39],[22,-40],[63,-60],[26,-7],[59,41],[29,1],[-32,-16],[-25,-16],[-28,-13],[-39,-5],[-27,9],[-19,17],[-18,7],[-30,-23],[-24,-43],[-17,-42],[-3,-16],[-7,-9],[-7,-7],[-3,-8],[-4,-3],[-26,-33],[-57,-52],[-40,-17],[-6,-24],[4,-56],[-7,-26],[-16,-33],[-20,-28],[-23,-12],[-16,-12],[-13,-26],[-24,-75],[-12,-21],[-17,-17],[-23,-9],[19,-25],[4,-11],[-3,-15],[19,-13],[34,-39],[12,-8],[22,5],[44,21],[46,8],[17,8],[19,4],[26,-6],[24,-12],[16,-14],[11,-18],[23,-70],[13,-17],[36,15],[48,12],[10,10],[12,21],[28,33],[34,29],[27,11],[-9,-6],[-12,-12],[-6,-16],[6,-15],[15,-4],[60,13],[18,-4],[36,-21],[15,-4],[18,-2],[21,-4],[18,-6],[8,-7],[-18,-2],[-22,-4],[-19,-6],[-11,-9],[-3,-18],[11,-37],[2,-25],[-2,-7],[-6,-19],[-12,-24],[-13,30],[-13,63],[-19,32],[-24,7],[-85,2],[-26,-4],[-14,-15],[-10,-20],[-14,-18],[-26,-7],[-26,0],[-22,-4],[-19,-15],[-18,-31],[-7,-29],[8,-17],[12,-15],[7,-24],[4,-35],[51,-137],[15,-172],[-5,-72],[5,-30],[20,-28],[-11,-24],[-15,-63],[-9,-13],[-14,-11],[-7,-26],[0,-29],[7,-23],[-25,5],[-12,13],[-14,41],[13,22],[7,42],[-2,42],[-18,24],[-2,-20],[-8,-15],[-12,-10],[-18,-5],[-9,38],[-34,19],[-42,3],[-34,-10],[20,29],[31,4],[63,-14],[25,14],[5,30],[-11,33],[-24,24],[-27,3],[-26,-11],[-23,-15],[-27,-10],[-20,-14],[-11,-3],[-20,3],[-13,5],[-13,4],[-19,-3],[-15,-6],[-30,-17],[-16,-7],[-33,-7],[-32,-3],[-10,-17],[-6,-81],[1,-21],[20,-23],[23,-1],[25,2],[27,-13],[41,-46],[18,-27],[70,-161],[21,-20],[15,-11],[9,-52],[12,-17],[10,2],[32,14],[12,4],[19,-3],[8,5],[8,18],[10,0],[8,-29],[21,-22],[51,-30],[69,-52],[16,-7],[46,1],[12,-7],[22,-19],[18,-13],[66,-22],[19,7],[113,6],[28,10],[27,13],[23,15],[28,-24],[29,-8],[73,2],[0,-11],[-59,-19],[-21,-2],[-24,5],[-43,15],[-23,1],[-18,-7],[-52,-32],[-15,-15],[-27,-35],[-18,-11],[-23,20],[-38,2],[-28,-13],[4,-24],[21,-27],[53,-98],[-47,38],[-45,71],[-53,53],[-73,-12],[-15,30],[-13,9],[-22,1],[-13,-10],[-41,-40],[-6,-10],[-10,13],[-12,51],[-8,16],[-18,10],[-72,20],[-16,-26],[-2,-27],[9,-62],[-5,-16],[-10,0],[-12,8],[-9,8],[-5,55],[-14,29],[-38,37],[-8,19],[-7,4],[-47,1],[-17,-5],[-9,-10],[-8,-13],[-12,-12],[-4,13],[-2,17],[3,14],[8,7],[15,4],[-1,12],[-7,16],[-2,17],[14,55],[3,29],[-6,36],[-13,28],[-14,11],[-16,-5],[-46,-41],[-7,-4],[-2,-8],[-8,-39],[-5,-13],[17,-47],[51,-276],[2,-31],[3,-11],[7,-12],[3,-12],[-8,-14],[-7,-10],[-1322,0]],[[1266,1364],[-8,-48],[19,-12],[11,-20],[18,6],[4,14],[8,6],[-20,18],[5,15],[-6,13],[-12,8],[-19,0]],[[2095,4096],[-3,-83],[-5,-24],[-25,-60],[-44,-195],[-6,-271],[-10,-25],[0,-9],[-18,-17],[-29,-20],[-19,-26],[12,-32],[12,-26],[4,-33],[-12,-181],[-3,-7],[-7,-8],[-6,-9],[-4,-16],[2,-16],[5,-12],[13,-27],[41,-120],[5,-60],[-15,-49],[-52,-51],[-8,-14],[-3,-8],[-7,-7],[-6,-9],[-6,-36],[-4,-9],[-7,-6],[-6,-9],[-13,-29],[-6,-11],[-11,-11],[-30,-20],[-7,-8],[-9,-16],[-4,-6],[-85,-85],[-15,-39],[22,-40],[63,-60],[26,-7],[59,41],[29,1],[-32,-16],[-25,-16],[-28,-13],[-39,-5],[-27,9],[-19,17],[-18,7],[-30,-23],[-24,-43],[-17,-42],[-3,-16],[-7,-9],[-7,-7],[-3,-8],[-4,-3],[-26,-33],[-57,-52],[-40,-17],[-6,-24],[4,-56],[-7,-26],[-16,-33],[-20,-28],[-23,-12],[-16,-12],[-13,-26],[-24,-75],[-12,-21],[-17,-17],[-23,-9],[19,-25],[4,-11],[-3,-15],[19,-13],[34,-39],[12,-8],[22,5],[44,21],[46,8],[17,8],[19,4],[26,-6],[24,-12],[16,-14],[11,-18],[23,-70],[13,-17],[36,15],[48,12],[10,10],[12,21],[28,33],[34,29],[27,11],[-9,-6],[-12,-12],[-6,-16],[6,-15],[15,-4],[60,13],[18,-4],[36,-21],[15,-4],[18,-2],[21,-4],[18,-6],[8,-7],[-18,-2],[-22,-4],[-19,-6],[-11,-9],[-3,-18],[11,-37],[2,-25],[-2,-7],[-6,-19],[-12,-24],[-13,30],[-13,63],[-19,32],[-24,7],[-85,2],[-26,-4],[-14,-15],[-10,-20],[-14,-18],[-26,-7],[-26,0],[-22,-4],[-19,-15],[-18,-31],[-7,-29],[8,-17],[12,-15],[7,-24],[4,-35],[51,-137],[15,-172],[-5,-72],[5,-30],[20,-28],[-11,-24],[-15,-63],[-9,-13],[-14,-11],[-7,-26],[0,-29],[7,-23],[-25,5],[-12,13],[-14,41],[13,22],[7,42],[-2,42],[-18,24],[-2,-20],[-8,-15],[-12,-10],[-18,-5],[-9,38],[-34,19],[-42,3],[-34,-10],[20,29],[31,4],[63,-14],[25,14],[5,30],[-11,33],[-24,24],[-27,3],[-26,-11],[-23,-15],[-27,-10],[-20,-14],[-11,-3],[-20,3],[-13,5],[-13,4],[-19,-3],[-15,-6],[-30,-17],[-16,-7],[-33,-7],[-32,-3],[-10,-17],[-6,-81],[1,-21],[20,-23],[23,-1],[25,2],[27,-13],[41,-46],[18,-27],[70,-161],[21,-20],[15,-11],[9,-52],[12,-17],[10,2],[32,14],[12,4],[19,-3],[8,5],[8,18],[10,0],[8,-29],[21,-22],[51,-30],[69,-52],[16,-7],[46,1],[12,-7],[22,-19],[18,-13],[66,-22],[19,7],[113,6],[28,10],[27,13],[23,15],[28,-24],[29,-8],[73,2],[0,-11],[-59,-19],[-21,-2],[-24,5],[-43,15],[-23,1],[-18,-7],[-52,-32],[-15,-15],[-27,-35],[-18,-11],[-23,20],[-38,2],[-28,-13],[4,-24],[21,-27],[53,-98],[-47,38],[-45,71],[-53,53],[-73,-12],[-15,30],[-13,9],[-22,1],[-13,-10],[-41,-40],[-6,-10],[-10,13],[-12,51],[-8,16],[-18,10],[-72,20],[-16,-26],[-2,-27],[9,-62],[-5,-16],[-10,0],[-12,8],[-9,8],[-5,55],[-14,29],[-38,37],[-8,19],[-7,4],[-47,1],[-17,-5],[-9,-10],[-8,-13],[-12,-12],[-4,13],[-2,17],[3,14],[8,7],[15,4],[-1,12],[-7,16],[-2,17],[14,55],[3,29],[-6,36],[-13,28],[-14,11],[-16,-5],[-46,-41],[-7,-4],[-2,-8],[-8,-39],[-5,-13],[17,-47],[51,-276],[2,-31],[3,-11],[7,-12],[3,-12],[-8,-14],[-7,-10]],[[3250,4090],[-78,-12],[-30,12],[-66,0],[-30,-24],[-48,-12],[-49,-6],[-30,6],[-42,36],[-36,0],[-90,-24],[-48,-12],[-18,0],[-54,30],[-30,0],[-54,12],[-54,0],[-1,0]],[[3649,4096],[-15,-12],[-66,-36],[-18,0],[-48,30],[-36,0],[-54,18],[-30,-6],[-48,6],[-84,-6]],[[3927,4096],[-40,-54],[-37,-54],[-12,-24],[-6,-30],[6,-24],[0,-30],[-18,-25],[-12,-48],[-18,-24],[-12,-48]],[[3778,3735],[48,-72],[24,-6],[73,0],[36,-12],[12,-6],[18,-42],[-6,-30],[12,-12],[54,-6],[24,-24],[23,-17]],[[2962,2924],[-121,-84],[-36,-12],[-90,-42],[-36,-36],[-48,-54]],[[2631,2696],[-36,-12],[-30,12],[-30,-6],[-24,18],[-30,-24],[-24,-24],[-24,-12],[-54,42],[-42,6],[-36,-6],[-66,12],[-30,18],[-24,-6],[-36,12]],[[2145,2726],[-30,-18],[-73,-6],[-30,-12],[-66,12],[-6,-18],[0,-42],[12,-48],[6,-36],[-18,-25],[6,-36]],[[2962,2924],[36,-48],[18,-12],[36,-12],[30,-24],[36,-18],[48,0],[66,-78],[96,-60],[36,-6],[48,30],[66,-12],[66,-12],[24,-54],[36,-12],[0,-48],[30,-19],[24,-24],[48,-6],[78,-60],[30,-6],[36,18],[12,6],[31,-24],[54,-6],[36,6],[18,-6],[48,-6],[47,-26]],[[1946,2497],[-24,-24],[-12,-48],[-66,-42],[-60,-36],[-72,-60]],[[1712,2203],[0,84]],[[2631,2696],[18,-30],[30,-60],[6,-30],[42,-127],[24,-48],[6,-36],[0,-30],[12,-12],[42,-36],[42,-12],[78,0],[18,-12],[19,-42],[30,-48]],[[2998,2173],[18,-30],[48,-42],[30,-18],[30,0]],[[1743,1668],[11,-60],[18,-12],[24,6]],[[1712,2203],[-12,-42],[6,-30],[30,-42],[6,-96],[-24,-54],[-6,-103],[30,-30],[0,-36],[12,-30],[-12,-30],[0,-36],[1,-6]],[[3124,2083],[18,-36],[-12,-54],[0,-24],[12,-30],[-6,-60],[6,-55],[-18,-30],[24,-42],[-6,-12],[-24,-36],[-6,-30],[18,-36],[30,-36],[12,-6],[24,-48],[24,-30],[30,-12],[36,18],[30,-6],[66,48],[30,-6],[30,-24],[6,-48]],[[4096,1416],[-11,0],[-66,-48],[-54,-24],[-18,0],[-18,12],[-18,30],[-67,18],[-48,-24],[-36,-12],[-12,0],[-54,42],[-48,12],[-30,30],[-48,30],[-36,6],[-60,0],[-24,0]],[[3448,1488],[-54,-24],[-48,0],[-12,-18],[-18,-30],[-30,-18],[-54,-18],[-48,-30],[-30,-30],[-36,0],[-18,-48],[-36,-18],[-42,-55],[-30,-12],[-37,-24],[-60,-36],[-36,-30],[-54,-66],[-54,-96],[-30,-36],[-36,-12],[-12,-18],[-54,-78],[-30,-36],[-18,-6],[-60,-24],[-18,-18],[-6,-30],[-24,-42],[-30,-6],[-36,6],[-84,6],[-36,-24],[-30,6],[-30,12],[-12,-12],[-54,-60],[-6,-19]],[[1940,557],[48,-19],[42,6],[55,31],[12,-12],[24,6],[24,-25]],[[1616,581],[78,0],[24,-12],[54,-31],[42,6],[18,7],[42,0],[48,12],[18,-6]],[[1580,448],[0,30],[25,71]],[[1605,549],[11,32]],[[3744,0],[94,106],[18,18],[25,48],[30,24],[12,6],[36,36],[30,12],[48,36],[12,42],[12,6],[35,8]],[[2145,544],[12,-30],[42,-24],[42,-36],[42,-24],[66,0],[36,-36],[12,-30],[-6,-60],[6,-24],[30,-54],[54,-36],[30,-54],[30,-24],[42,-6],[54,-30],[84,-66],[10,-10]],[[4096,4096],[0,-4096],[-2774,0],[7,10],[8,14],[-3,12],[-7,12],[-3,11],[-2,31],[-51,276],[-17,47],[5,13],[8,39],[2,8],[7,4],[46,41],[16,5],[14,-11],[13,-28],[6,-36],[-3,-29],[-14,-55],[2,-17],[7,-16],[1,-12],[-15,-4],[-8,-7],[-3,-14],[2,-17],[4,-13],[12,12],[8,13],[9,10],[17,5],[47,-1],[7,-4],[8,-19],[38,-37],[14,-29],[5,-55],[9,-8],[12,-8],[10,0],[5,16],[-9,62],[2,27],[16,26],[72,-20],[18,-10],[8,-16],[12,-51],[10,-13],[6,10],[41,40],[13,10],[22,-1],[13,-9],[15,-30],[73,12],[53,-53],[45,-71],[47,-38],[-53,98],[-21,27],[-4,24],[28,13],[38,-2],[23,-20],[18,11],[27,35],[15,15],[52,32],[18,7],[23,-1],[43,-15],[24,-5],[21,2],[59,19],[0,11],[-73,-2],[-29,8],[-28,24],[-23,-15],[-27,-13],[-28,-10],[-113,-6],[-19,-7],[-66,22],[-18,13],[-22,19],[-12,7],[-46,-1],[-16,7],[-69,52],[-51,30],[-21,22],[-8,29],[-10,0],[-8,-18],[-8,-5],[-19,3],[-12,-4],[-32,-14],[-10,-2],[-12,17],[-9,52],[-15,11],[-21,20],[-70,161],[-18,27],[-41,46],[-27,13],[-25,-2],[-23,1],[-20,23],[-1,21],[6,81],[10,17],[32,3],[33,7],[16,7],[30,17],[15,6],[19,3],[13,-4],[13,-5],[20,-3],[11,3],[20,14],[27,10],[23,15],[26,11],[27,-3],[24,-24],[11,-33],[-5,-30],[-25,-14],[-63,14],[-31,-4],[-20,-29],[34,10],[42,-3],[34,-19],[9,-38],[18,5],[12,10],[8,15],[2,20],[18,-24],[2,-42],[-7,-42],[-13,-22],[14,-41],[12,-13],[25,-5],[-7,23],[0,29],[7,26],[14,11],[9,13],[15,63],[11,24],[-20,28],[-5,30],[5,72],[-15,172],[-51,137],[-4,35],[-7,24],[-12,15],[-8,17],[7,29],[18,31],[19,15],[22,4],[26,0],[26,7],[14,18],[10,20],[14,15],[26,4],[85,-2],[24,-7],[19,-32],[13,-63],[13,-30],[12,24],[6,19],[2,7],[-2,25],[-11,37],[3,18],[11,9],[19,6],[22,4],[18,2],[-8,7],[-18,6],[-21,4],[-18,2],[-15,4],[-36,21],[-18,4],[-60,-13],[-15,4],[-6,15],[6,16],[12,12],[9,6],[-27,-11],[-34,-29],[-28,-33],[-12,-21],[-10,-10],[-48,-12],[-36,-15],[-13,17],[-23,70],[-11,18],[-16,14],[-24,12],[-26,6],[-19,-4],[-17,-8],[-46,-8],[-44,-21],[-22,-5],[-12,8],[-34,39],[-19,13],[3,15],[-4,11],[-19,25],[23,9],[17,17],[12,21],[24,75],[13,26],[16,12],[23,12],[20,28],[16,33],[7,26],[-4,56],[6,24],[40,17],[57,52],[26,33],[4,3],[3,8],[7,7],[7,9],[3,16],[17,42],[24,43],[30,23],[18,-7],[19,-17],[27,-9],[39,5],[28,13],[25,16],[32,16],[-29,-1],[-59,-41],[-26,7],[-63,60],[-22,40],[15,39],[85,85],[4,6],[9,16],[7,8],[30,20],[11,11],[6,11],[13,29],[6,9],[7,6],[4,9],[6,36],[6,9],[7,7],[3,8],[8,14],[52,51],[15,49],[-5,60],[-41,120],[-13,27],[-5,12],[-2,16],[4,16],[6,9],[7,8],[3,7],[12,181],[-4,33],[-12,26],[-12,32],[19,26],[29,20],[18,17],[0,9],[10,25],[6,271],[44,195],[25,60],[5,24],[3,83],[2001,0]],[[1674,1499],[14,48],[28,-27],[85,56],[-43,11],[-32,85],[71,-15],[21,62],[44,34],[-11,33],[47,7],[2,45],[54,-81],[49,71],[53,-109],[46,23],[108,-142],[-42,-131],[-115,13],[-25,-11],[63,-20],[20,-23],[7,-33],[44,-21],[16,-17],[-63,33],[-18,48],[-52,24],[-86,-17],[-13,56],[-42,41],[-45,-21],[16,0],[-1,-6],[-10,-3],[5,-5],[15,16],[23,-8],[6,-7],[-47,-4],[-3,10],[11,5],[-17,1],[-1,16],[-70,7],[-14,-59],[-42,-13],[-46,-3],[-10,31]],[[1932,3050],[47,107],[-29,230],[67,35],[37,-150],[57,-22],[27,-47],[28,10],[120,-64],[-12,-36],[-159,-9],[53,-54],[-14,-32],[-85,5],[-46,30],[-49,-46],[-42,43]],[[2388,1055],[47,95],[-3,132],[44,179],[209,-1],[61,-119],[-34,-123],[-117,-97],[34,-39],[-21,-47],[-64,-32],[-110,3],[-46,49]],[[2031,3341],[105,-17],[46,-39],[8,60],[35,-30],[69,-1],[68,40],[39,111],[103,128],[39,150],[-4,32],[-63,33],[16,85],[53,14],[69,-21],[73,137],[268,-15],[156,18],[290,-68],[-10,-118],[-28,-19],[-50,-142],[-87,61],[-9,-37],[-52,-16],[-93,18],[-81,-22],[-38,-44],[-105,49],[-13,-46],[-59,-31],[-58,-98],[10,-49],[-180,-191],[-39,-107],[-56,-24],[-111,25],[-16,-17],[-162,64],[-25,-12],[-28,48],[-57,22],[-23,69]],[[1461,695],[97,-16],[49,-49],[-5,-187],[-57,-19],[-12,17],[-129,265],[25,21],[32,-32]]]}