{"objects":{"water":{"type":"GeometryCollection","geometries":[{"type":"Polygon","properties":{"source":"naturalearthdata.com","kind":"ocean","area":1576712559132672,"sort_rank":200,"min_zoom":0.0,"id":1},"arcs":[[260],[261],[262],[263],[264],[265],[266],[267],[268],[269],[270],[271],[272],[273],[274],[275],[276],[277],[278],[279],[280],[281],[282],[283],[284],[285],[286],[287],[288],[289],[290],[291],[292],[293],[294],[295],[296],[297],[298],[299],[300],[301],[302],[303],[304],[305],[306],[307],[308],[309],[310],[311],[312],[313],[314],[315],[316],[317],[318],[319],[320],[321],[322],[323],[324],[325],[326],[327],[328],[329],[330],[331],[332],[333],[334],[335],[336],[337],[338],[339],[340],[341],[342],[343],[344],[345],[346],[347],[348],[349],[350],[351],[352],[353],[354],[355],[356],[357],[358],[359],[360],[361],[362],[363],[364],[365],[366],[367],[368],[369],[370],[371],[372],[373],[374],[375],[376],[377],[378],[379],[380],[381],[382],[383],[384],[385],[386],[387]]},{"type":"MultiLineString","properties":{"source":"naturalearthdata.com","kind":"ocean","sort_rank":205,"boundary":true,"min_zoom":0.0,"id":24},"arcs":[[388],[389]]},{"type":"LineString","properties":{"source":"naturalearthdata.com","kind":"ocean","sort_rank":205,"boundary":true,"min_zoom":0.0,"id":25},"arcs":[390]},{"type":"MultiLineString","properties":{"source":"naturalearthdata.com","kind":"ocean","sort_rank":205,"boundary":true,"min_zoom":0.0,"id":26},"arcs":[[391],[392]]},{"type":"MultiLineString","properties":{"source":"naturalearthdata.com","kind":"ocean","sort_rank":205,"boundary":true,"min_zoom":0.0,"id":58},"arcs":[[393],[394]]},{"type":"LineString","properties":{"source":"naturalearthdata.com","kind":"ocean","sort_rank":205,"boundary":true,"min_zoom":0.0,"id":137},"arcs":[395]},{"type":"LineString","properties":{"source":"naturalearthdata.com","kind":"ocean","sort_rank":205,"boundary":true,"min_zoom":0.0,"id":138},"arcs":[396]},{"type":"LineString","properties":{"source":"naturalearthdata.com","kind":"ocean","sort_rank":205,"boundary":true,"min_zoom":0.0,"id":139},"arcs":[397]},{"type":"LineString","properties":{"source":"naturalearthdata.com","kind":"ocean","sort_rank":205,"boundary":true,"min_zoom":0.0,"id":1804},"arcs":[398]},{"type":"LineString","properties":{"source":"naturalearthdata.com","kind":"ocean","sort_rank":205,"boundary":true,"min_zoom":0.0,"id":1805},"arcs":[399]},{"type":"LineString","properties":{"source":"naturalearthdata.com","kind":"ocean","sort_rank":205,"boundary":true,"min_zoom":0.0,"id":1806},"arcs":[400]},{"type":"LineString","properties":{"source":"naturalearthdata.com","kind":"ocean","sort_rank":205,"boundary":true,"min_zoom":0.0,"id":1807},"arcs":[401]},{"type":"MultiLineString","properties":{"source":"naturalearthdata.com","kind":"ocean","sort_rank":205,"boundary":true,"min_zoom":0.0,"id":1810},"arcs":[[402],[403],[404]]},{"type":"LineString","properties":{"source":"naturalearthdata.com","kind":"ocean","sort_rank":205,"boundary":true,"min_zoom":0.0,"id":1812},"arcs":[405]},{"type":"MultiLineString","properties":{"source":"naturalearthdata.com","kind":"ocean","sort_rank":205,"boundary":true,"min_zoom":0.0,"id":1813},"arcs":[[406],[407]]},{"type":"LineString","properties":{"source":"naturalearthdata.com","kind":"ocean","sort_rank":205,"boundary":true,"min_zoom":0.0,"id":1815},"arcs":[408]},{"type":"LineString","properties":{"source":"naturalearthdata.com","kind":"ocean","sort_rank":205,"boundary":true,"min_zoom":0.0,"id":1824},"arcs":[409]},{"type":"LineString","properties":{"source":"naturalearthdata.com","kind":"ocean","sort_rank":205,"boundary":true,"min_zoom":0.0,"id":1825},"arcs":[410]},{"type":"LineString","properties":{"source":"naturalearthdata.com","kind":"ocean","sort_rank":205,"boundary":true,"min_zoom":0.0,"id":1826},"arcs":[411]},{"type":"LineString","properties":{"source":"naturalearthdata.com","kind":"ocean","sort_rank":205,"boundary":true,"min_zoom":0.0,"id":1827},"arcs":[412]},{"type":"LineString","properties":{"source":"naturalearthdata.com","kind":"ocean","sort_rank":205,"boundary":true,"min_zoom":0.0,"id":1828},"arcs":[413]},{"type":"LineString","properties":{"source":"naturalearthdata.com","kind":"ocean","sort_rank":205,"boundary":true,"min_zoom":0.0,"id":2703},"arcs":[414]},{"type":"LineString","properties":{"source":"naturalearthdata.com","kind":"ocean","sort_rank":205,"boundary":true,"min_zoom":0.0,"id":3519},"arcs":[415]},{"type":"LineString","properties":{"source":"naturalearthdata.com","kind":"ocean","sort_rank":205,"boundary":true,"min_zoom":0.0,"id":3520},"arcs":[416]},{"type":"LineString","properties":{"source":"naturalearthdata.com","kind":"ocean","sort_rank":205,"boundary":true,"min_zoom":0.0,"id":3523},"arcs":[417]},{"type":"LineString","properties":{"source":"naturalearthdata.com","kind":"ocean","sort_rank":205,"boundary":true,"min_zoom":0.0,"id":3526},"arcs":[418]},{"type":"LineString","properties":{"source":"naturalearthdata.com","kind":"ocean","sort_rank":205,"boundary":true,"min_zoom":0.0,"id":3529},"arcs":[419]},{"type":"LineString","properties":{"source":"naturalearthdata.com","kind":"ocean","sort_rank":205,"boundary":true,"min_zoom":0.0,"id":3530},"arcs":[420]},{"type":"LineString","properties":{"source":"naturalearthdata.com","kind":"ocean","sort_rank":205,"boundary":true,"min_zoom":0.0,"id":3551},"arcs":[421]},{"type":"LineString","properties":{"source":"naturalearthdata.com","kind":"ocean","sort_rank":205,"boundary":true,"min_zoom":0.0,"id":3552},"arcs":[422]},{"type":"LineString","properties":{"source":"naturalearthdata.com","kind":"ocean","sort_rank":205,"boundary":true,"min_zoom":0.0,"id":3553},"arcs":[423]},{"type":"LineString","properties":{"source":"naturalearthdata.com","kind":"ocean","sort_rank":205,"boundary":true,"min_zoom":0.0,"id":3795},"arcs":[424]},{"type":"LineString","properties":{"source":"naturalearthdata.com","kind":"ocean","sort_rank":205,"boundary":true,"min_zoom":0.0,"id":3953},"arcs":[425]},{"type":"Point","properties":{"label_placement":true,"kind":"sea","name":"\u702c\u6238\u5185\u6d77","source":"openstreetmap.org","sort_rank":200,"min_zoom":3.0,"id":305640098},"coordinates":[3004,2099]},{"type":"Point","properties":{"label_placement":true,"kind":"sea","name":"\u5b89\u82b8\u7058","source":"openstreetmap.org","sort_rank":200,"min_zoom":3.0,"id":3650594065},"coordinates":[2150,1862]}]},"buildings":{"type":"GeometryCollection","geometries":[]},"places":{"type":"GeometryCollection","geometries":[{"type":"Point","properties":{"kind":"region","name:en":"Fukuoka Prefecture","name":"\u798f\u5ca1\u770c","kind_detail":"province","name:de":"Fukuoka","source":"openstreetmap.org","min_zoom":4.0,"name:uk":"\u0424\u0443\u043a\u0443\u043e\u043a\u0430","name:ru":"\u0424\u0443\u043a\u0443\u043e\u043a\u0430","name:pl":"Fukuoka","name:hu":"Fukuoka prefekt\u00fara","id":3057396438,"population":5000000},"coordinates":[905,1475]},{"type":"Point","properties":{"source":"naturalearthdata.com","kind":"locality","name":"Hiroshima","population":2045000,"region_capital":true,"min_zoom":4.0,"id":7183},"coordinates":[2233,2149]},{"type":"Point","properties":{"kind":"region","name:en":"\u014cita Prefecture","name":"\u5927\u5206\u770c (\u014cita Prefecture)","kind_detail":"province","min_zoom":4.0,"source":"openstreetmap.org","name:fr":"Pr\u00e9fecture d'\u014cita","name:uk":"\u041e\u0439\u0442\u0430","population":1200000,"name:ru":"\u041e\u0438\u0442\u0430","name:pl":"\u014cita","name:hu":"\u014cita prefekt\u00fara","id":1499592063,"name:ja":"\u5927\u5206\u770c"},"coordinates":[1494,1084]},{"type":"Point","properties":{"admin_level":"4","kind":"region","name:en":"Kagawa","name":"\u9999\u5ddd\u770c","kind_detail":"province","min_zoom":4.0,"source":"openstreetmap.org","name:fr":"Kagawa","name:uk":"\u041a\u0430\u0433\u0430\u0432\u0430","name:ru":"\u041a\u0430\u0433\u0430\u0432\u0430","name:pl":"Kagawa","population":977905,"id":3854057532,"name:ja":"Kagawa-ken"},"coordinates":[3329,2060]},{"type":"Point","properties":{"kind":"region","name:en":"Ehime Prefecture","name":"\u611b\u5a9b\u770c","kind_detail":"province","source":"openstreetmap.org","min_zoom":4.0,"name:uk":"\u0415\u0445\u0456\u043c\u0435","name:ru":"\u042d\u0445\u0438\u043c\u044d","name:pl":"Ehime","name:hu":"Ehime prefekt\u00fara","id":3085493379,"name:ja":"\u3048\u3072\u3081\u3051\u3093"},"coordinates":[2508,1454]},{"type":"Point","properties":{"kind":"region","name:en":"Hiroshima Prefecture","name":"\u5e83\u5cf6\u770c","kind_detail":"province","source":"openstreetmap.org","min_zoom":4.0,"name:uk":"\u0425\u0456\u0440\u043e\u0441\u0456\u043c\u0430","name:ru":"\u0425\u0438\u0440\u043e\u0441\u0438\u043c\u0430","name:pl":"Hiroszima","name:hu":"Hirosima prefekt\u00fara","id":2465611306,"name:ja":"Hiroshima-ken"},"coordinates":[2460,2305]},{"type":"Point","properties":{"kind":"region","name:en":"Saga Prefecture","name":"\u4f50\u8cc0\u770c (Saga Prefecture)","kind_detail":"province","source":"openstreetmap.org","min_zoom":4.0,"int_name":"Saga","name:uk":"\u0421\u0430\u0491\u0430","name:ru":"\u0421\u0430\u0433\u0430","name:pl":"Saga","name:hu":"Saga prefekt\u00fara","id":1499608655,"name:ja":"\u4f50\u8cc0\u770c"},"coordinates":[550,1117]},{"type":"Point","properties":{"kind":"region","name:en":"Yamaguchi","name":"\u5c71\u53e3\u770c","kind_detail":"province","source":"openstreetmap.org","min_zoom":4.0,"name:uk":"\u042f\u043c\u0430\u0491\u0443\u0447\u0456","name:ru":"\u042f\u043c\u0430\u0433\u0443\u0442\u0438","name:pl":"Yamaguchi","name:hu":"Jamagucsi prefekt\u00fara","id":3110442489,"name:ja":"\u3084\u307e\u3050\u3061\u3051\u3093"},"coordinates":[1611,2015]},{"type":"Point","properties":{"kind":"region","name:en":"Kumamoto Prefecture","name":"\u718a\u672c\u770c (Kumamoto)","kind_detail":"province","min_zoom":4.0,"source":"openstreetmap.org","name:fr":"Pr\u00e9fecture de Kumamoto","name:uk":"\u041a\u0443\u043c\u0430\u043c\u043e\u0442\u043e","name:ru":"\u041a\u0443\u043c\u0430\u043c\u043e\u0442\u043e","name:pl":"Kumamoto","name:hu":"Kumamoto prefekt\u00fara","id":739281222,"name:ja":"\u718a\u672c\u770c"},"coordinates":[917,611]},{"type":"Point","properties":{"kind":"region","name:en":"Nagasaki Prefecture","name":"\u9577\u5d0e\u770c (Nagasaki Prefecture)","kind_detail":"province","min_zoom":4.0,"source":"openstreetmap.org","name:fr":"Pr\u00e9fecture de Nagasaki","name:uk":"\u041d\u0430\u0491\u0430\u0441\u0430\u043a\u0456","name:ru":"\u041d\u0430\u0433\u0430\u0441\u0430\u043a\u0438","name:pl":"Nagasaki","name:hu":"Nagaszaki prefekt\u00fara","id":1499608658,"name:ja":"\u9577\u5d0e\u770c"},"coordinates":[300,1026]},{"type":"Point","properties":{"kind":"region","name:en":"Kyushu Region","name":"\u4e5d\u5dde","kind_detail":"state","name:eo":"Kju\u015dua Regiono","source":"openstreetmap.org","name:fr":"Ky\u016bsh\u016b","name:uk":"\u041a\u044e\u0441\u044e","name:ru":"\u041a\u044e\u0441\u044e","min_zoom":4.0,"name:hu":"Kj\u00fas\u00fa","id":1504057971,"name:ja":"Ky\u016bsh\u016b"},"coordinates":[1264,708]},{"type":"Point","properties":{"kind":"region","name:en":"Tottori Prefecture","name":"\u9ce5\u53d6\u770c (Tottori Prefecture)","kind_detail":"province","name:eo":"Totoro","id":2504876017,"source":"openstreetmap.org","name:fr":"Pr\u00e9fecture de Tottori","name:uk":"\u0422\u043e\u0442\u0442\u043e\u0440\u0456","name:ru":"\u0422\u043e\u0442\u0442\u043e\u0440\u0438","min_zoom":4.0,"name:hu":"Tottori prefekt\u00fara","name:pl":"Tottori","name:ja":"\u9ce5\u53d6\u770c"},"coordinates":[3272,3001]},{"type":"Point","properties":{"kind":"region","name:en":"K\u014dchi Prefecture","name":"\u9ad8\u77e5\u770c (K\u014dchi)","kind_detail":"province","min_zoom":4.0,"source":"openstreetmap.org","name:fr":"Pr\u00e9fecture de K\u014dchi","name:uk":"\u041a\u043e\u0447\u0456","name:ru":"\u041a\u043e\u0442\u0438","name:pl":"K\u014dchi","name:hu":"K\u014dchi prefekt\u00fara","id":1675212189,"name:ja":"\u9ad8\u77e5\u770c"},"coordinates":[3048,1503]},{"type":"Point","properties":{"kind":"region","name:en":"Shikoku Region","name":"\u56db\u56fd","name:lt":"\u0160ikoku","kind_detail":"state","name:eo":"\u015cikokua Regiono","id":1504057972,"source":"openstreetmap.org","name:fr":"Shikoku","name:uk":"\u0421\u0456\u043a\u043e\u043a\u0443","name:ru":"\u0421\u0438\u043a\u043e\u043a\u0443","min_zoom":4.0,"name:hu":"Sikoku","name:pl":"Sikoku"},"coordinates":[3009,1566]},{"type":"Point","properties":{"kind":"region","name:en":"Kagawa Prefecture","name":"\u9999\u5ddd\u770c","kind_detail":"province","source":"openstreetmap.org","min_zoom":4.0,"name:uk":"\u041a\u0430\u0491\u0430\u0432\u0430","name:ru":"\u041a\u0430\u0433\u0430\u0432\u0430","name:pl":"Kagawa","name:hu":"Kagawa prefekt\u00fara","id":1012320203},"coordinates":[3411,2024]},{"type":"Point","properties":{"kind":"region","name:en":"Tokushima Prefecture","name":"\u5fb3\u5cf6\u770c (Tokushima)","kind_detail":"province","name:eo":"Toku\u015dima","id":5080643411,"source":"openstreetmap.org","name:fr":"Pr\u00e9fecture de Tokushima","name:uk":"\u041f\u0440\u0435\u0444\u0435\u043a\u0442\u0443\u0440\u0430 \u0422\u043e\u043a\u0443\u0441\u0456\u043c\u0430","name:ru":"\u0422\u043e\u043a\u0443\u0441\u0438\u043c\u0430","min_zoom":4.0,"name:hu":"Tokushima prefekt\u00fara","name:pl":"Tokushima","name:ja":"\u5fb3\u5cf6\u770c"},"coordinates":[3551,1735]},{"type":"Point","properties":{"name:pt":"Regi\u00e3o de Chugoku","name:nl":"Chugoku","name:ja":"Chugoku","name:sv":"Chugoku","name:ar":"\u0645\u0646\u0637\u0642\u0629 \u062a\u0634\u0648\u063a\u0648\u0643\u0648","name:cs":"\u010c\u00fagoku","kind":"region","min_zoom":4.0,"name:en":"Chugoku Region","name:it":"Ch\u016bgoku","name:tl":"Rehiyon ng Ch\u016bgoku","name:ru":"\u0422\u044e\u0433\u043e\u043a\u0443","name:be":"\u0426\u044e\u0433\u043e\u043a\u0443","name:pl":"Region Ch\u016bgoku","name:bg":"\u0427\u0443\u0433\u043e\u043a\u0443","name:uk":"\u0420\u0435\u0433\u0456\u043e\u043d \u0422\u044e\u0491\u043e\u043a\u0443","id":1499533875,"name:eo":"\u0108ugokua Regiono","name:hu":"Cs\u00fagoku","name":"\u4e2d\u56fd","kind_detail":"state","name:de":"Ch\u016bgoku","source":"openstreetmap.org","name:fr":"R\u00e9gion de Ch\u016bgoku","name:fi":"Ch\u016bgoku","name:zh":"\u4e2d\u570b\u5730\u65b9","name:es":"Regi\u00f3n de Ch\u016bgoku"},"coordinates":[2731,2565]},{"type":"Point","properties":{"admin_level":"4","kind":"region","name:en":"Okayama Prefecture","name":"\u5ca1\u5c71\u770c","kind_detail":"state","name:eo":"Gubernio Okajamo","source":"openstreetmap.org","min_zoom":4.0,"name:uk":"\u041f\u0440\u0435\u0444\u0435\u043a\u0442\u0443\u0440\u0430 \u041e\u043a\u0430\u044f\u043c\u0430","name:ru":"\u041e\u043a\u0430\u044f\u043c\u0430","name:pl":"Prefektura Okayama","id":4351323483,"name:ja":"Okayama-ken"},"coordinates":[3152,2690]},{"type":"Point","properties":{"kind":"region","name:en":"Okayama Prefecture","name":"\u5ca1\u5c71\u770c (Okayama)","kind_detail":"province","name:eo":"Okajama","id":5080645282,"source":"openstreetmap.org","name:fr":"Pr\u00e9fecture de Okayama","name:uk":"\u041f\u0440\u0435\u0444\u0435\u043a\u0442\u0443\u0440\u0430 \u041e\u043a\u0430\u044f\u043c\u0430","name:ru":"\u041e\u043a\u0430\u044f\u043c\u0430","min_zoom":4.0,"name:hu":"Okayama prefekt\u00fara","name:pl":"Okayama","name:ja":"\u5ca1\u5c71\u770c"},"coordinates":[3205,2562]},{"type":"Point","properties":{"kind":"region","name:en":"Hyogo Prefecture","name":"\u5175\u5eab\u770c (Hyogo Prefecture)","kind_detail":"province","name:eo":"Gubernio Hjogo","id":721818138,"source":"openstreetmap.org","name:fr":"Pr\u00e9fecture de Hy\u014dgo","name:uk":"\u0425\u044c\u043e\u0491\u043e","name:ru":"\u0425\u0451\u0433\u043e","min_zoom":4.0,"name:hu":"Hj\u00f3go prefekt\u00fara","name:pl":"Hy\u014dgo","name:ja":"\u5175\u5eab\u770c"},"coordinates":[3995,2612]},{"type":"Point","properties":{"kind":"region","name:en":"Shimane Prefecture","name":"\u5cf6\u6839\u770c (Shimane Prefecture)","kind_detail":"province","min_zoom":4.0,"source":"openstreetmap.org","name:fr":"Pr\u00e9fecture de Shimane","name:uk":"\u0428\u0456\u043c\u0430\u043d\u0435","name:ru":"\u0421\u0438\u043c\u0430\u043d\u044d","name:pl":"Shimane","name:hu":"Shimane prefekt\u00fara","id":2552334551,"name:ja":"\u5cf6\u6839\u770c"},"coordinates":[2303,2636]},{"type":"Point","properties":{"kind":"region","name:en":"Miyazaki Prefecture","name":"\u5bae\u5d0e\u770c (Miyazaki)","kind_detail":"province","name:eo":"Mijazako","id":739203690,"source":"openstreetmap.org","name:fr":"Pr\u00e9fecture de Miyazaki","name:uk":"\u041c\u0456\u044f\u0434\u0437\u0430\u043a\u0456","name:ru":"\u041c\u0438\u044f\u0434\u0437\u0430\u043a\u0438","min_zoom":4.0,"name:hu":"Mijazaki prefekt\u00fara","name:pl":"Miyazaki","name:ja":"\u5bae\u5d0e\u770c"},"coordinates":[1398,128]},{"type":"Point","properties":{"source":"naturalearthdata.com","kind":"locality","name":"Fukuoka","population":2792000,"region_capital":true,"min_zoom":5.0,"id":6533},"coordinates":[752,1450]},{"type":"Point","properties":{"source":"naturalearthdata.com","kind":"locality","name":"Nagasaki","population":435455,"min_zoom":5.0,"id":6962},"coordinates":[371,717]},{"type":"Point","properties":{"source":"naturalearthdata.com","kind":"locality","name":"Kochi","population":335570,"min_zoom":5.0,"id":6536},"coordinates":[3031,1420]},{"type":"Point","properties":{"source":"naturalearthdata.com","kind":"locality","name":"Matsuyama","population":533541,"region_capital":true,"min_zoom":6.0,"id":5288},"coordinates":[2469,1669]}]},"transit":{"type":"GeometryCollection","geometries":[{"type":"LineString","properties":{"kind":"train","network":"\u90e1\u4e2d\u7dda","sort_rank":275,"colour":"#F36E21","name":"\u90e1\u4e2d\u7dda (\u90e1\u4e2d\u6e2f - \u677e\u5c71\u5e02)","source":"openstreetmap.org","min_zoom":6.0,"operator":"\u4f0a\u4e88\u9244\u9053","ref":"\u90e1\u4e2d\u7dda","id":-5342280,"osm_relation":true,"colour_name":"tomato"},"arcs":[106]},{"type":"MultiLineString","properties":{"kind":"train","name:en":"Shiokaze","name":"\u3057\u304a\u304b\u305c","sort_rank":275,"source":"openstreetmap.org","min_zoom":6.0,"operator":"\u56db\u56fd\u65c5\u5ba2\u9244\u9053","ref":"\u3057\u304a\u304b\u305c","osm_relation":true},"arcs":[[107],[108],[109],[110],[111],[112],[113],[114],[115],[116],[117],[118],[119],[120],[121],[122],[123],[124],[125],[126],[127]]},{"type":"LineString","properties":{"kind":"train","network":"\u6a2a\u6cb3\u539f\u7dda","sort_rank":275,"colour":"#00BAF1","name":"\u6a2a\u6cb3\u539f\u7dda (\u677e\u5c71\u5e02 - \u6a2a\u6cb3\u539f)","source":"openstreetmap.org","min_zoom":6.0,"operator":"\u4f0a\u4e88\u9244\u9053","ref":"\u6a2a\u6cb3\u539f\u7dda","id":-2309682,"osm_relation":true,"colour_name":"dodgerblue"},"arcs":[128]},{"type":"LineString","properties":{"kind":"train","network":"\u6a2a\u6cb3\u539f\u7dda","sort_rank":275,"colour":"#00BAF1","name":"\u6a2a\u6cb3\u539f\u7dda (\u6a2a\u6cb3\u539f - \u677e\u5c71\u5e02)","source":"openstreetmap.org","min_zoom":6.0,"operator":"\u4f0a\u4e88\u9244\u9053","ref":"\u6a2a\u6cb3\u539f\u7dda","id":-4101858,"osm_relation":true,"colour_name":"dodgerblue"},"arcs":[129]},{"type":"MultiLineString","properties":{"kind":"train","name:en":"Kotobuki","name":"\u3053\u3068\u3076\u304d (Kotobuki)","sort_rank":275,"name:de":"Eilzug Kotobuki","source":"openstreetmap.org","min_zoom":6.0,"ref":"\u3053\u3068\u3076\u304d","osm_relation":true,"name:ja":"\u3053\u3068\u3076\u304d"},"arcs":[[130],[131],[132]]},{"type":"MultiLineString","properties":{"kind":"train","name:en":"Super Oki","name":"\u30b9\u30fc\u30d1\u30fc\u304a\u304d","sort_rank":275,"source":"openstreetmap.org","min_zoom":6.0,"ref":"\u30b9\u30fc\u30d1\u30fc\u304a\u304d","osm_relation":true},"arcs":[[133],[134],[135],[136],[137],[138],[139],[140],[141],[142],[143],[144],[145],[146],[147],[148],[149],[150],[151]]},{"type":"LineString","properties":{"kind":"train","network":"\u90e1\u4e2d\u7dda","sort_rank":275,"colour":"#F36E21","name":"\u90e1\u4e2d\u7dda (\u677e\u5c71\u5e02 - \u90e1\u4e2d\u6e2f)","source":"openstreetmap.org","min_zoom":6.0,"operator":"\u4f0a\u4e88\u9244\u9053","ref":"\u90e1\u4e2d\u7dda","id":-2309730,"osm_relation":true,"colour_name":"tomato"},"arcs":[152]},{"type":"LineString","properties":{"kind":"train","name:en":"Mizushima Rinkai Railway Mizushima Main Line","name":"\u6c34\u5cf6\u81e8\u6d77\u9244\u9053\u6c34\u5cf6\u672c\u7dda","sort_rank":275,"source":"openstreetmap.org","min_zoom":6.0,"operator":"\u6c34\u5cf6\u81e8\u6d77\u9244\u9053","id":-6061424,"osm_relation":true},"arcs":[153]},{"type":"MultiLineString","properties":{"kind":"train","name:en":"Marine Liner","name":"\u30de\u30ea\u30f3\u30e9\u30a4\u30ca\u30fc (Marine Liner)","sort_rank":275,"source":"openstreetmap.org","min_zoom":6.0,"ref":"\u30de\u30ea\u30f3\u30e9\u30a4\u30ca\u30fc","osm_relation":true,"name:ja":"\u30de\u30ea\u30f3\u30e9\u30a4\u30ca\u30fc"},"arcs":[[154],[155]]},{"type":"MultiLineString","properties":{"kind":"train","network":"\u3068\u3053\u3068\u3053\u30c8\u30ec\u30a4\u30f3","sort_rank":275,"source":"openstreetmap.org","min_zoom":6.0,"operator":"\u9326\u5ddd\u9244\u9053","osm_relation":true,"name":"Train: Nishikicho => Sozukyo Hot Spring"},"arcs":[[156],[157],[158]]},{"type":"LineString","properties":{"kind":"train","name:en":"West Japan Railway Company","name":"\u897f\u65e5\u672c\u65c5\u5ba2\u9244\u9053","sort_rank":275,"source":"openstreetmap.org","min_zoom":6.0,"operator":"\u897f\u65e5\u672c\u65c5\u5ba2\u9244\u9053","id":-6050653,"osm_relation":true},"arcs":[159]},{"type":"MultiLineString","properties":{"kind":"train","name:en":"Kamome","name":"\u304b\u3082\u3081","sort_rank":275,"source":"openstreetmap.org","min_zoom":6.0,"ref":"\u304b\u3082\u3081","osm_relation":true},"arcs":[[160],[161],[162],[163],[164],[165],[166],[167],[168],[169],[170],[171],[172],[173],[174],[175],[176],[177],[178],[179],[180],[181],[182],[183],[184],[185]]},{"type":"MultiLineString","properties":{"kind":"train","name:en":"Hamakaze","name":"\u306f\u307e\u304b\u305c","sort_rank":275,"source":"openstreetmap.org","min_zoom":6.0,"ref":"\u306f\u307e\u304b\u305c","osm_relation":true},"arcs":[[186],[187],[188],[189],[190],[191],[192],[193]]},{"type":"MultiLineString","properties":{"kind":"train","name:en":"Tsurugisan","name":"\u5263\u5c71","sort_rank":275,"source":"openstreetmap.org","min_zoom":6.0,"ref":"\u5263\u5c71","osm_relation":true,"name:ja":"Tsurugisan"},"arcs":[[194],[195],[196],[197],[198],[199]]},{"type":"LineString","properties":{"kind":"train","network":"\u9ad8\u6d5c\u7dda","sort_rank":275,"colour":"#8BC63E","name":"\u9ad8\u6d5c\u7dda (\u677e\u5c71\u5e02 - \u9ad8\u6d5c)","source":"openstreetmap.org","min_zoom":6.0,"operator":"\u4f0a\u4e88\u9244\u9053","ref":"\u9ad8\u6d5c\u7dda","id":-5339193,"osm_relation":true,"colour_name":"yellowgreen"},"arcs":[200]},{"type":"LineString","properties":{"kind":"train","network":"\u9ad8\u6d5c\u7dda","sort_rank":275,"colour":"#8BC63E","name":"\u9ad8\u6d5c\u7dda (\u9ad8\u6d5c - \u677e\u5c71\u5e02)","source":"openstreetmap.org","min_zoom":6.0,"operator":"\u4f0a\u4e88\u9244\u9053","ref":"\u9ad8\u6d5c\u7dda","id":-2309774,"osm_relation":true,"colour_name":"yellowgreen"},"arcs":[201]},{"type":"MultiLineString","properties":{"kind":"train","name:en":"Super Inaba","name":"\u3044\u306a\u3070","sort_rank":275,"source":"openstreetmap.org","min_zoom":6.0,"operator":"\u897f\u65e5\u672c\u65c5\u5ba2\u9244\u9053","ref":"\u3044\u306a\u3070","osm_relation":true},"arcs":[[202],[203],[204],[205],[206],[207],[208],[209],[210],[211],[212],[213],[214],[215],[216]]},{"type":"MultiLineString","properties":{"kind":"train","name:en":"Rapid Sun Liner","name":"\u5feb\u901f\u30b5\u30f3\u30e9\u30a4\u30ca\u30fc","sort_rank":275,"name:de":"Eilzug Sun Liner","source":"openstreetmap.org","min_zoom":6.0,"ref":"\u5feb\u901f\u30b5\u30f3\u30e9\u30a4\u30ca\u30fc","osm_relation":true},"arcs":[[217],[218],[219],[220],[221],[222],[223],[224],[225]]},{"type":"MultiLineString","properties":{"kind":"train","name:en":"Kounotori","name":"\u3053\u3046\u306e\u3068\u308a (Kounotori)","sort_rank":275,"source":"openstreetmap.org","min_zoom":6.0,"operator":"\u897f\u65e5\u672c\u65c5\u5ba2\u9244\u9053","ref":"\u3053\u3046\u306e\u3068\u308a","osm_relation":true,"name:ja":"\u3053\u3046\u306e\u3068\u308a"},"arcs":[[226],[227],[228],[229]]},{"type":"MultiLineString","properties":{"kind":"train","name:en":"Uzushio","name:ja":"\u3046\u305a\u3057\u304a","sort_rank":275,"source":"openstreetmap.org","min_zoom":6.0,"ref":"\u3046\u305a\u3057\u304a","osm_relation":true,"name":"\u3046\u305a\u3057\u304a (Uzushio)"},"arcs":[[230],[231],[232],[233],[234],[235],[236],[237],[238],[239],[240],[241],[242],[243],[244],[245],[246],[247],[248],[249],[250],[251],[252]]},{"type":"MultiLineString","properties":{"kind":"train","name:en":"Nanpu","name":"\u5357\u98a8","sort_rank":275,"source":"openstreetmap.org","min_zoom":6.0,"ref":"\u5357\u98a8","osm_relation":true,"name:ja":"Nanp\u016b"},"arcs":[[253],[254],[255],[256],[257],[258],[259]]}]},"pois":{"type":"GeometryCollection","geometries":[]},"boundaries":{"type":"GeometryCollection","geometries":[{"type":"MultiLineString","properties":{"source":"naturalearthdata.com","kind":"region","sort_rank":256,"kind_detail":"4","min_zoom":6.0,"id":3449},"arcs":[[0],[1]]},{"type":"MultiLineString","properties":{"source":"naturalearthdata.com","kind":"region","sort_rank":256,"kind_detail":"4","min_zoom":6.0,"id":6390},"arcs":[[2],[3],[4]]},{"type":"MultiLineString","properties":{"source":"naturalearthdata.com","kind":"region","sort_rank":256,"kind_detail":"4","min_zoom":6.0,"id":179},"arcs":[[5],[6]]},{"type":"LineString","properties":{"source":"naturalearthdata.com","kind":"region","sort_rank":256,"kind_detail":"4","min_zoom":6.0,"id":180},"arcs":[7]},{"type":"LineString","properties":{"source":"naturalearthdata.com","kind":"region","sort_rank":256,"kind_detail":"4","min_zoom":6.0,"id":181},"arcs":[8]},{"type":"LineString","properties":{"source":"naturalearthdata.com","kind":"region","sort_rank":256,"kind_detail":"4","min_zoom":6.0,"id":182},"arcs":[9]},{"type":"LineString","properties":{"source":"naturalearthdata.com","kind":"region","sort_rank":256,"kind_detail":"4","min_zoom":6.0,"id":183},"arcs":[10]},{"type":"LineString","properties":{"source":"naturalearthdata.com","kind":"region","sort_rank":256,"kind_detail":"4","min_zoom":6.0,"id":404},"arcs":[11]},{"type":"LineString","properties":{"source":"naturalearthdata.com","kind":"region","sort_rank":256,"kind_detail":"4","min_zoom":6.8,"id":520},"arcs":[12]},{"type":"LineString","properties":{"source":"naturalearthdata.com","kind":"region","sort_rank":256,"kind_detail":"4","min_zoom":6.8,"id":521},"arcs":[13]},{"type":"MultiLineString","properties":{"source":"naturalearthdata.com","kind":"region","sort_rank":256,"kind_detail":"4","min_zoom":6.8,"id":522},"arcs":[[14],[15]]},{"type":"LineString","properties":{"source":"naturalearthdata.com","kind":"region","sort_rank":256,"kind_detail":"4","min_zoom":6.8,"id":524},"arcs":[16]},{"type":"MultiLineString","properties":{"source":"naturalearthdata.com","kind":"region","sort_rank":256,"kind_detail":"4","min_zoom":6.0,"id":3441},"arcs":[[17],[18],[19],[20],[21]]},{"type":"LineString","properties":{"source":"naturalearthdata.com","kind":"region","sort_rank":256,"kind_detail":"4","min_zoom":6.0,"id":3442},"arcs":[22]},{"type":"LineString","properties":{"source":"naturalearthdata.com","kind":"region","sort_rank":256,"kind_detail":"4","min_zoom":6.0,"id":3443},"arcs":[23]},{"type":"MultiLineString","properties":{"source":"naturalearthdata.com","kind":"region","sort_rank":256,"kind_detail":"4","min_zoom":6.0,"id":3444},"arcs":[[24],[25],[26],[27],[28],[29],[30]]},{"type":"MultiLineString","properties":{"source":"naturalearthdata.com","kind":"region","sort_rank":256,"kind_detail":"4","min_zoom":6.0,"id":3445},"arcs":[[31],[32],[33]]},{"type":"MultiLineString","properties":{"source":"naturalearthdata.com","kind":"region","sort_rank":256,"kind_detail":"4","min_zoom":6.0,"id":3446},"arcs":[[34],[35],[36]]},{"type":"MultiLineString","properties":{"source":"naturalearthdata.com","kind":"region","sort_rank":256,"kind_detail":"4","min_zoom":6.0,"id":3447},"arcs":[[37],[38],[39]]},{"type":"MultiLineString","properties":{"source":"naturalearthdata.com","kind":"region","sort_rank":256,"kind_detail":"4","min_zoom":6.0,"id":3448},"arcs":[[40],[41],[42],[43],[44],[45]]},{"type":"MultiLineString","properties":{"source":"naturalearthdata.com","kind":"region","sort_rank":256,"kind_detail":"4","min_zoom":6.0,"id":3450},"arcs":[[46],[47],[48],[49],[50],[51],[52],[53],[54]]},{"type":"LineString","properties":{"source":"naturalearthdata.com","kind":"region","sort_rank":256,"kind_detail":"4","min_zoom":6.0,"id":3451},"arcs":[55]},{"type":"MultiLineString","properties":{"source":"naturalearthdata.com","kind":"region","sort_rank":256,"kind_detail":"4","min_zoom":6.0,"id":3452},"arcs":[[56],[57],[58],[59],[60],[61],[62],[63],[64]]},{"type":"MultiLineString","properties":{"source":"naturalearthdata.com","kind":"region","sort_rank":256,"kind_detail":"4","min_zoom":6.0,"id":3453},"arcs":[[65],[66],[67],[68],[69]]},{"type":"LineString","properties":{"source":"naturalearthdata.com","kind":"region","sort_rank":256,"kind_detail":"4","min_zoom":6.0,"id":3454},"arcs":[70]},{"type":"MultiLineString","properties":{"source":"naturalearthdata.com","kind":"region","sort_rank":256,"kind_detail":"4","min_zoom":6.0,"id":3504},"arcs":[[71],[72],[73],[74]]},{"type":"MultiLineString","properties":{"source":"naturalearthdata.com","kind":"region","sort_rank":256,"kind_detail":"4","min_zoom":6.0,"id":3505},"arcs":[[75],[76]]},{"type":"LineString","properties":{"source":"naturalearthdata.com","kind":"region","sort_rank":256,"kind_detail":"4","min_zoom":6.0,"id":3509},"arcs":[77]},{"type":"LineString","properties":{"source":"naturalearthdata.com","kind":"region","sort_rank":256,"kind_detail":"4","min_zoom":6.0,"id":3510},"arcs":[78]},{"type":"MultiLineString","properties":{"source":"naturalearthdata.com","kind":"region","sort_rank":256,"kind_detail":"4","min_zoom":6.0,"id":3511},"arcs":[[79],[80],[81],[82],[83],[84],[85],[86],[87],[88],[89],[90]]},{"type":"MultiLineString","properties":{"source":"naturalearthdata.com","kind":"region","sort_rank":256,"kind_detail":"4","min_zoom":6.0,"id":3512},"arcs":[[91],[92],[93],[94],[95],[96],[97]]},{"type":"LineString","properties":{"source":"naturalearthdata.com","kind":"region","sort_rank":256,"kind_detail":"4","min_zoom":6.0,"id":3513},"arcs":[98]},{"type":"MultiLineString","properties":{"source":"naturalearthdata.com","kind":"region","sort_rank":256,"kind_detail":"4","min_zoom":5.5,"id":3523},"arcs":[[99],[100]]},{"type":"LineString","properties":{"source":"naturalearthdata.com","kind":"region","sort_rank":256,"kind_detail":"4","min_zoom":5.5,"id":3524},"arcs":[101]},{"type":"MultiLineString","properties":{"source":"naturalearthdata.com","kind":"region","sort_rank":256,"kind_detail":"4","min_zoom":6.0,"id":3526},"arcs":[[102],[103],[104],[105]]}]},"roads":{"type":"GeometryCollection","geometries":[{"type":"LineString","properties":{"source":"naturalearthdata.com","kind":"minor_road","kind_detail":"tertiary","sort_rank":355,"landuse_kind":"urban_area","min_zoom":5.0,"id":23043},"arcs":[426]},{"type":"MultiLineString","properties":{"source":"naturalearthdata.com","kind":"minor_road","sort_rank":355,"kind_detail":"tertiary","min_zoom":5.0,"id":23043},"arcs":[[427],[428]]},{"type":"LineString","properties":{"source":"naturalearthdata.com","kind":"minor_road","sort_rank":355,"kind_detail":"tertiary","min_zoom":5.0,"id":23044},"arcs":[429]},{"type":"LineString","properties":{"source":"naturalearthdata.com","kind":"minor_road","sort_rank":355,"kind_detail":"tertiary","min_zoom":5.0,"id":23235},"arcs":[430]},{"type":"LineString","properties":{"source":"naturalearthdata.com","kind":"minor_road","kind_detail":"tertiary","sort_rank":355,"landuse_kind":"urban_area","min_zoom":6.0,"id":23927},"arcs":[431]},{"type":"MultiLineString","properties":{"source":"naturalearthdata.com","kind":"minor_road","sort_rank":355,"kind_detail":"tertiary","min_zoom":6.0,"id":23927},"arcs":[[432],[433]]},{"type":"MultiLineString","properties":{"source":"naturalearthdata.com","kind":"highway","kind_detail":"motorway","sort_rank":383,"landuse_kind":"urban_area","min_zoom":5.0,"id":23965},"arcs":[[434],[435]]},{"type":"LineString","properties":{"source":"naturalearthdata.com","kind":"highway","kind_detail":"motorway","sort_rank":383,"landuse_kind":"urban_area","min_zoom":5.0,"id":23965},"arcs":[436]},{"type":"LineString","properties":{"source":"naturalearthdata.com","kind":"highway","kind_detail":"motorway","sort_rank":383,"landuse_kind":"urban_area","min_zoom":5.0,"id":23965},"arcs":[437]},{"type":"LineString","properties":{"source":"naturalearthdata.com","kind":"highway","kind_detail":"motorway","sort_rank":383,"landuse_kind":"urban_area","min_zoom":5.0,"id":23965},"arcs":[438]},{"type":"MultiLineString","properties":{"source":"naturalearthdata.com","kind":"highway","sort_rank":383,"kind_detail":"motorway","min_zoom":5.0,"id":23965},"arcs":[[439],[440],[441],[442],[443],[444]]},{"type":"MultiLineString","properties":{"source":"naturalearthdata.com","kind":"minor_road","kind_detail":"tertiary","sort_rank":355,"landuse_kind":"urban_area","min_zoom":5.0,"id":24035},"arcs":[[445],[446]]},{"type":"MultiLineString","properties":{"source":"naturalearthdata.com","kind":"minor_road","sort_rank":355,"kind_detail":"tertiary","min_zoom":5.0,"id":24035},"arcs":[[447],[448]]},{"type":"LineString","properties":{"source":"naturalearthdata.com","kind":"minor_road","kind_detail":"tertiary","sort_rank":355,"landuse_kind":"urban_area","min_zoom":5.0,"id":24092},"arcs":[449]},{"type":"LineString","properties":{"source":"naturalearthdata.com","kind":"minor_road","sort_rank":355,"kind_detail":"tertiary","min_zoom":5.0,"id":24092},"arcs":[450]},{"type":"LineString","properties":{"source":"naturalearthdata.com","kind":"minor_road","kind_detail":"tertiary","sort_rank":355,"landuse_kind":"urban_area","min_zoom":5.0,"id":24311},"arcs":[451]},{"type":"LineString","properties":{"source":"naturalearthdata.com","kind":"minor_road","kind_detail":"tertiary","sort_rank":355,"landuse_kind":"urban_area","min_zoom":5.0,"id":24311},"arcs":[452]},{"type":"MultiLineString","properties":{"source":"naturalearthdata.com","kind":"minor_road","sort_rank":355,"kind_detail":"tertiary","min_zoom":5.0,"id":24311},"arcs":[[453],[454]]},{"type":"LineString","properties":{"source":"naturalearthdata.com","kind":"highway","sort_rank":383,"kind_detail":"motorway","min_zoom":6.0,"id":24365},"arcs":[455]},{"type":"LineString","properties":{"source":"naturalearthdata.com","kind":"highway","kind_detail":"motorway","sort_rank":383,"landuse_kind":"urban_area","min_zoom":3.0,"id":24371},"arcs":[456]},{"type":"LineString","properties":{"source":"naturalearthdata.com","kind":"highway","sort_rank":383,"kind_detail":"motorway","min_zoom":3.0,"id":24371},"arcs":[457]},{"type":"LineString","properties":{"source":"naturalearthdata.com","kind":"highway","kind_detail":"motorway","sort_rank":383,"landuse_kind":"urban_area","min_zoom":3.0,"id":24395},"arcs":[458]},{"type":"LineString","properties":{"source":"naturalearthdata.com","kind":"highway","kind_detail":"motorway","sort_rank":383,"landuse_kind":"urban_area","min_zoom":3.0,"id":24395},"arcs":[459]},{"type":"MultiLineString","properties":{"source":"naturalearthdata.com","kind":"highway","sort_rank":383,"kind_detail":"motorway","min_zoom":3.0,"id":24395},"arcs":[[460],[461]]},{"type":"LineString","properties":{"source":"naturalearthdata.com","kind":"highway","kind_detail":"motorway","sort_rank":383,"landuse_kind":"urban_area","min_zoom":3.0,"id":24462},"arcs":[462]},{"type":"LineString","properties":{"source":"naturalearthdata.com","kind":"highway","sort_rank":383,"kind_detail":"motorway","min_zoom":3.0,"id":24462},"arcs":[463]},{"type":"LineString","properties":{"source":"naturalearthdata.com","kind":"minor_road","kind_detail":"tertiary","sort_rank":355,"landuse_kind":"urban_area","min_zoom":5.0,"id":24496},"arcs":[464]},{"type":"LineString","properties":{"source":"naturalearthdata.com","kind":"minor_road","kind_detail":"tertiary","sort_rank":355,"landuse_kind":"urban_area","min_zoom":5.0,"id":24496},"arcs":[465]},{"type":"MultiLineString","properties":{"source":"naturalearthdata.com","kind":"minor_road","sort_rank":355,"kind_detail":"tertiary","min_zoom":5.0,"id":24496},"arcs":[[466],[467],[468]]},{"type":"LineString","properties":{"source":"naturalearthdata.com","kind":"highway","kind_detail":"motorway","sort_rank":383,"landuse_kind":"urban_area","min_zoom":3.0,"id":24508},"arcs":[469]},{"type":"LineString","properties":{"source":"naturalearthdata.com","kind":"highway","kind_detail":"motorway","sort_rank":383,"landuse_kind":"urban_area","min_zoom":4.0,"id":24554},"arcs":[470]},{"type":"LineString","properties":{"source":"naturalearthdata.com","kind":"highway","kind_detail":"motorway","sort_rank":383,"landuse_kind":"urban_area","min_zoom":4.0,"id":24586},"arcs":[471]},{"type":"LineString","properties":{"source":"naturalearthdata.com","kind":"major_road","kind_detail":"secondary","sort_rank":379,"landuse_kind":"urban_area","min_zoom":4.0,"id":24628},"arcs":[472]},{"type":"LineString","properties":{"source":"naturalearthdata.com","kind":"highway","kind_detail":"motorway","sort_rank":383,"landuse_kind":"urban_area","min_zoom":3.0,"id":24631},"arcs":[473]},{"type":"LineString","properties":{"source":"naturalearthdata.com","kind":"highway","sort_rank":383,"kind_detail":"motorway","min_zoom":3.0,"id":24631},"arcs":[474]},{"type":"LineString","properties":{"source":"naturalearthdata.com","kind":"minor_road","kind_detail":"tertiary","sort_rank":355,"landuse_kind":"urban_area","min_zoom":5.0,"id":24632},"arcs":[475]},{"type":"LineString","properties":{"source":"naturalearthdata.com","kind":"minor_road","kind_detail":"tertiary","sort_rank":355,"landuse_kind":"urban_area","min_zoom":5.0,"id":24632},"arcs":[476]},{"type":"MultiLineString","properties":{"source":"naturalearthdata.com","kind":"minor_road","sort_rank":355,"kind_detail":"tertiary","min_zoom":5.0,"id":24632},"arcs":[[477],[478]]},{"type":"MultiLineString","properties":{"source":"naturalearthdata.com","kind":"highway","kind_detail":"motorway","sort_rank":383,"landuse_kind":"urban_area","min_zoom":4.0,"id":24648},"arcs":[[479],[480]]},{"type":"MultiLineString","properties":{"source":"naturalearthdata.com","kind":"highway","sort_rank":383,"kind_detail":"motorway","min_zoom":4.0,"id":24648},"arcs":[[481],[482]]},{"type":"LineString","properties":{"source":"naturalearthdata.com","kind":"highway","kind_detail":"motorway","sort_rank":383,"landuse_kind":"urban_area","min_zoom":4.0,"id":24677},"arcs":[483]},{"type":"LineString","properties":{"source":"naturalearthdata.com","kind":"major_road","sort_rank":379,"kind_detail":"secondary","min_zoom":4.0,"id":24682},"arcs":[484]},{"type":"LineString","properties":{"source":"naturalearthdata.com","kind":"highway","kind_detail":"motorway","sort_rank":383,"landuse_kind":"urban_area","min_zoom":4.0,"id":24733},"arcs":[485]},{"type":"LineString","properties":{"source":"naturalearthdata.com","kind":"highway","kind_detail":"motorway","sort_rank":383,"landuse_kind":"urban_area","min_zoom":4.0,"id":24733},"arcs":[486]},{"type":"MultiLineString","properties":{"source":"naturalearthdata.com","kind":"highway","sort_rank":383,"kind_detail":"motorway","min_zoom":4.0,"id":24733},"arcs":[[487],[488]]},{"type":"LineString","properties":{"source":"naturalearthdata.com","kind":"minor_road","kind_detail":"tertiary","sort_rank":355,"landuse_kind":"urban_area","min_zoom":5.0,"id":24734},"arcs":[489]},{"type":"LineString","properties":{"source":"naturalearthdata.com","kind":"minor_road","kind_detail":"tertiary","sort_rank":355,"landuse_kind":"urban_area","min_zoom":5.0,"id":24734},"arcs":[490]},{"type":"LineString","properties":{"source":"naturalearthdata.com","kind":"minor_road","sort_rank":355,"kind_detail":"tertiary","min_zoom":5.0,"id":24734},"arcs":[491]},{"type":"LineString","properties":{"source":"naturalearthdata.com","kind":"minor_road","kind_detail":"tertiary","sort_rank":355,"landuse_kind":"urban_area","min_zoom":5.0,"id":24777},"arcs":[492]},{"type":"LineString","properties":{"source":"naturalearthdata.com","kind":"minor_road","sort_rank":355,"kind_detail":"tertiary","min_zoom":5.0,"id":24777},"arcs":[493]},{"type":"LineString","properties":{"source":"naturalearthdata.com","kind":"highway","kind_detail":"motorway","sort_rank":383,"landuse_kind":"urban_area","min_zoom":4.0,"id":24791},"arcs":[494]},{"type":"LineString","properties":{"source":"naturalearthdata.com","kind":"highway","kind_detail":"motorway","sort_rank":383,"landuse_kind":"urban_area","min_zoom":3.0,"id":24792},"arcs":[495]},{"type":"LineString","properties":{"source":"naturalearthdata.com","kind":"highway","sort_rank":383,"kind_detail":"motorway","min_zoom":3.0,"id":24792},"arcs":[496]},{"type":"LineString","properties":{"source":"naturalearthdata.com","kind":"minor_road","kind_detail":"tertiary","sort_rank":355,"landuse_kind":"urban_area","min_zoom":5.0,"id":24796},"arcs":[497]},{"type":"LineString","properties":{"source":"naturalearthdata.com","kind":"highway","kind_detail":"motorway","sort_rank":383,"landuse_kind":"urban_area","min_zoom":4.0,"id":24834},"arcs":[498]},{"type":"LineString","properties":{"source":"naturalearthdata.com","kind":"major_road","kind_detail":"secondary","sort_rank":379,"landuse_kind":"urban_area","min_zoom":4.0,"id":24857},"arcs":[499]},{"type":"LineString","properties":{"source":"naturalearthdata.com","kind":"major_road","kind_detail":"secondary","sort_rank":379,"landuse_kind":"urban_area","min_zoom":4.0,"id":24858},"arcs":[500]},{"type":"LineString","properties":{"source":"naturalearthdata.com","kind":"highway","sort_rank":383,"kind_detail":"motorway","min_zoom":3.0,"id":24874},"arcs":[501]},{"type":"LineString","properties":{"source":"naturalearthdata.com","kind":"minor_road","kind_detail":"tertiary","sort_rank":355,"landuse_kind":"urban_area","min_zoom":6.0,"id":24998},"arcs":[502]},{"type":"LineString","properties":{"source":"naturalearthdata.com","kind":"minor_road","kind_detail":"tertiary","sort_rank":355,"landuse_kind":"urban_area","min_zoom":6.0,"id":24998},"arcs":[503]},{"type":"LineString","properties":{"source":"naturalearthdata.com","kind":"minor_road","sort_rank":355,"kind_detail":"tertiary","min_zoom":6.0,"id":24998},"arcs":[504]},{"type":"LineString","properties":{"source":"naturalearthdata.com","kind":"major_road","kind_detail":"secondary","sort_rank":379,"landuse_kind":"urban_area","min_zoom":4.0,"id":24999},"arcs":[505]},{"type":"LineString","properties":{"source":"naturalearthdata.com","kind":"major_road","kind_detail":"secondary","sort_rank":379,"landuse_kind":"urban_area","min_zoom":4.0,"id":25010},"arcs":[506]},{"type":"LineString","properties":{"source":"naturalearthdata.com","kind":"major_road","sort_rank":379,"kind_detail":"secondary","min_zoom":4.0,"id":25010},"arcs":[507]},{"type":"LineString","properties":{"source":"naturalearthdata.com","kind":"highway","kind_detail":"motorway","sort_rank":383,"landuse_kind":"urban_area","min_zoom":4.0,"id":25011},"arcs":[508]},{"type":"MultiLineString","properties":{"source":"naturalearthdata.com","kind":"highway","kind_detail":"motorway","sort_rank":383,"landuse_kind":"urban_area","min_zoom":4.0,"id":25011},"arcs":[[509],[510]]},{"type":"LineString","properties":{"source":"naturalearthdata.com","kind":"highway","kind_detail":"motorway","sort_rank":383,"landuse_kind":"urban_area","min_zoom":4.0,"id":25011},"arcs":[511]},{"type":"MultiLineString","properties":{"source":"naturalearthdata.com","kind":"highway","kind_detail":"motorway","sort_rank":383,"landuse_kind":"urban_area","min_zoom":4.0,"id":25011},"arcs":[[512],[513],[514]]},{"type":"MultiLineString","properties":{"source":"naturalearthdata.com","kind":"highway","sort_rank":383,"kind_detail":"motorway","min_zoom":4.0,"id":25011},"arcs":[[515],[516],[517],[518],[519],[520]]},{"type":"LineString","properties":{"source":"naturalearthdata.com","kind":"minor_road","kind_detail":"tertiary","sort_rank":355,"landuse_kind":"urban_area","min_zoom":5.0,"id":25018},"arcs":[521]},{"type":"LineString","properties":{"source":"naturalearthdata.com","kind":"minor_road","sort_rank":355,"kind_detail":"tertiary","min_zoom":5.0,"id":25018},"arcs":[522]},{"type":"LineString","properties":{"source":"naturalearthdata.com","kind":"highway","kind_detail":"motorway","sort_rank":383,"landuse_kind":"urban_area","min_zoom":5.0,"id":25019},"arcs":[523]},{"type":"MultiLineString","properties":{"source":"naturalearthdata.com","kind":"highway","sort_rank":383,"kind_detail":"motorway","min_zoom":5.0,"id":25019},"arcs":[[524],[525]]},{"type":"LineString","properties":{"source":"naturalearthdata.com","kind":"major_road","kind_detail":"secondary","sort_rank":379,"landuse_kind":"urban_area","min_zoom":4.0,"id":25075},"arcs":[526]},{"type":"LineString","properties":{"source":"naturalearthdata.com","kind":"major_road","kind_detail":"secondary","sort_rank":379,"landuse_kind":"urban_area","min_zoom":4.0,"id":25095},"arcs":[527]},{"type":"LineString","properties":{"source":"naturalearthdata.com","kind":"minor_road","kind_detail":"tertiary","sort_rank":355,"landuse_kind":"urban_area","min_zoom":5.0,"id":25142},"arcs":[528]},{"type":"LineString","properties":{"source":"naturalearthdata.com","kind":"minor_road","kind_detail":"tertiary","sort_rank":355,"landuse_kind":"urban_area","min_zoom":5.0,"id":25177},"arcs":[529]},{"type":"LineString","properties":{"source":"naturalearthdata.com","kind":"minor_road","kind_detail":"tertiary","sort_rank":355,"landuse_kind":"urban_area","min_zoom":6.0,"id":25200},"arcs":[530]},{"type":"LineString","properties":{"source":"naturalearthdata.com","kind":"highway","kind_detail":"motorway","sort_rank":383,"landuse_kind":"urban_area","min_zoom":4.0,"id":25202},"arcs":[531]},{"type":"MultiLineString","properties":{"source":"naturalearthdata.com","kind":"highway","sort_rank":383,"kind_detail":"motorway","min_zoom":4.0,"id":25202},"arcs":[[532],[533]]},{"type":"LineString","properties":{"source":"naturalearthdata.com","kind":"minor_road","kind_detail":"tertiary","sort_rank":355,"landuse_kind":"urban_area","min_zoom":5.0,"id":25209},"arcs":[534]},{"type":"LineString","properties":{"source":"naturalearthdata.com","kind":"major_road","kind_detail":"secondary","sort_rank":379,"landuse_kind":"urban_area","min_zoom":4.0,"id":25210},"arcs":[535]},{"type":"MultiLineString","properties":{"source":"naturalearthdata.com","kind":"minor_road","kind_detail":"tertiary","sort_rank":355,"landuse_kind":"urban_area","min_zoom":5.0,"id":25232},"arcs":[[536],[537]]},{"type":"LineString","properties":{"source":"naturalearthdata.com","kind":"minor_road","sort_rank":355,"kind_detail":"tertiary","min_zoom":5.0,"id":25232},"arcs":[538]},{"type":"LineString","properties":{"source":"naturalearthdata.com","kind":"minor_road","kind_detail":"tertiary","sort_rank":355,"landuse_kind":"urban_area","min_zoom":5.0,"id":25233},"arcs":[539]},{"type":"LineString","properties":{"source":"naturalearthdata.com","kind":"major_road","kind_detail":"secondary","sort_rank":379,"landuse_kind":"urban_area","min_zoom":4.0,"id":25245},"arcs":[540]},{"type":"LineString","properties":{"source":"naturalearthdata.com","kind":"highway","kind_detail":"motorway","sort_rank":383,"landuse_kind":"urban_area","min_zoom":4.0,"id":25256},"arcs":[541]},{"type":"LineString","properties":{"source":"naturalearthdata.com","kind":"highway","sort_rank":383,"kind_detail":"motorway","min_zoom":4.0,"id":25256},"arcs":[542]},{"type":"LineString","properties":{"source":"naturalearthdata.com","kind":"highway","kind_detail":"motorway","sort_rank":383,"landuse_kind":"urban_area","min_zoom":4.0,"id":25257},"arcs":[543]},{"type":"LineString","properties":{"source":"naturalearthdata.com","kind":"highway","kind_detail":"motorway","sort_rank":383,"landuse_kind":"urban_area","min_zoom":4.0,"id":25257},"arcs":[544]},{"type":"LineString","properties":{"source":"naturalearthdata.com","kind":"highway","sort_rank":383,"kind_detail":"motorway","min_zoom":4.0,"id":25257},"arcs":[545]},{"type":"MultiLineString","properties":{"source":"naturalearthdata.com","kind":"highway","kind_detail":"motorway","sort_rank":383,"landuse_kind":"urban_area","min_zoom":4.0,"id":25259},"arcs":[[546],[547],[548],[549]]},{"type":"MultiLineString","properties":{"source":"naturalearthdata.com","kind":"highway","sort_rank":383,"kind_detail":"motorway","min_zoom":4.0,"id":25259},"arcs":[[550],[551],[552]]},{"type":"MultiLineString","properties":{"source":"naturalearthdata.com","kind":"minor_road","kind_detail":"tertiary","sort_rank":355,"landuse_kind":"urban_area","min_zoom":5.0,"id":25301},"arcs":[[553],[554]]},{"type":"LineString","properties":{"source":"naturalearthdata.com","kind":"minor_road","kind_detail":"tertiary","sort_rank":355,"landuse_kind":"urban_area","min_zoom":5.0,"id":25301},"arcs":[555]},{"type":"MultiLineString","properties":{"source":"naturalearthdata.com","kind":"minor_road","sort_rank":355,"kind_detail":"tertiary","min_zoom":5.0,"id":25301},"arcs":[[556],[557]]},{"type":"LineString","properties":{"source":"naturalearthdata.com","kind":"highway","kind_detail":"motorway","sort_rank":383,"landuse_kind":"urban_area","min_zoom":3.0,"id":25306},"arcs":[558]},{"type":"LineString","properties":{"source":"naturalearthdata.com","kind":"highway","sort_rank":383,"kind_detail":"motorway","min_zoom":3.0,"id":25306},"arcs":[559]},{"type":"LineString","properties":{"source":"naturalearthdata.com","kind":"highway","kind_detail":"motorway","sort_rank":383,"landuse_kind":"urban_area","min_zoom":3.0,"id":25309},"arcs":[560]},{"type":"LineString","properties":{"source":"naturalearthdata.com","kind":"highway","kind_detail":"motorway","sort_rank":383,"landuse_kind":"urban_area","min_zoom":4.0,"id":25335},"arcs":[561]},{"type":"MultiLineString","properties":{"source":"naturalearthdata.com","kind":"highway","sort_rank":383,"kind_detail":"motorway","min_zoom":4.0,"id":25335},"arcs":[[562],[563]]},{"type":"LineString","properties":{"source":"naturalearthdata.com","kind":"highway","kind_detail":"motorway","sort_rank":383,"landuse_kind":"urban_area","min_zoom":4.0,"id":25345},"arcs":[564]},{"type":"LineString","properties":{"source":"naturalearthdata.com","kind":"highway","sort_rank":383,"kind_detail":"motorway","min_zoom":4.0,"id":25345},"arcs":[565]},{"type":"LineString","properties":{"source":"naturalearthdata.com","kind":"highway","sort_rank":383,"kind_detail":"motorway","min_zoom":4.0,"id":25346},"arcs":[566]},{"type":"LineString","properties":{"source":"naturalearthdata.com","kind":"highway","kind_detail":"motorway","sort_rank":383,"landuse_kind":"urban_area","min_zoom":4.0,"id":25347},"arcs":[567]},{"type":"LineString","properties":{"source":"naturalearthdata.com","kind":"highway","kind_detail":"motorway","sort_rank":383,"landuse_kind":"urban_area","min_zoom":4.0,"id":25347},"arcs":[568]},{"type":"MultiLineString","properties":{"source":"naturalearthdata.com","kind":"highway","sort_rank":383,"kind_detail":"motorway","min_zoom":4.0,"id":25347},"arcs":[[569],[570]]},{"type":"MultiLineString","properties":{"source":"naturalearthdata.com","kind":"highway","kind_detail":"motorway","sort_rank":383,"landuse_kind":"urban_area","min_zoom":4.0,"id":25430},"arcs":[[571],[572],[573]]},{"type":"MultiLineString","properties":{"source":"naturalearthdata.com","kind":"highway","sort_rank":383,"kind_detail":"motorway","min_zoom":4.0,"id":25430},"arcs":[[574],[575],[576]]},{"type":"LineString","properties":{"source":"naturalearthdata.com","kind":"major_road","kind_detail":"secondary","sort_rank":379,"landuse_kind":"urban_area","min_zoom":4.0,"id":25461},"arcs":[577]},{"type":"MultiLineString","properties":{"source":"naturalearthdata.com","kind":"major_road","sort_rank":379,"kind_detail":"secondary","min_zoom":4.0,"id":25461},"arcs":[[578],[579]]},{"type":"LineString","properties":{"source":"naturalearthdata.com","kind":"minor_road","kind_detail":"tertiary","sort_rank":355,"landuse_kind":"urban_area","min_zoom":5.0,"id":25495},"arcs":[580]},{"type":"LineString","properties":{"source":"naturalearthdata.com","kind":"minor_road","sort_rank":355,"kind_detail":"tertiary","min_zoom":5.0,"id":25495},"arcs":[581]},{"type":"MultiLineString","properties":{"source":"naturalearthdata.com","kind":"highway","kind_detail":"motorway","sort_rank":383,"landuse_kind":"urban_area","min_zoom":3.0,"id":25541},"arcs":[[582],[583]]},{"type":"LineString","properties":{"source":"naturalearthdata.com","kind":"highway","kind_detail":"motorway","sort_rank":383,"landuse_kind":"urban_area","min_zoom":3.0,"id":25541},"arcs":[584]},{"type":"LineString","properties":{"source":"naturalearthdata.com","kind":"highway","kind_detail":"motorway","sort_rank":383,"landuse_kind":"urban_area","min_zoom":3.0,"id":25541},"arcs":[585]},{"type":"MultiLineString","properties":{"source":"naturalearthdata.com","kind":"highway","sort_rank":383,"kind_detail":"motorway","min_zoom":3.0,"id":25541},"arcs":[[586],[587],[588]]},{"type":"MultiLineString","properties":{"source":"naturalearthdata.com","kind":"highway","kind_detail":"motorway","sort_rank":383,"landuse_kind":"urban_area","min_zoom":5.0,"id":25547},"arcs":[[589],[590]]},{"type":"LineString","properties":{"source":"naturalearthdata.com","kind":"highway","sort_rank":383,"kind_detail":"motorway","min_zoom":5.0,"id":25547},"arcs":[591]},{"type":"LineString","properties":{"source":"naturalearthdata.com","kind":"highway","kind_detail":"motorway","sort_rank":383,"landuse_kind":"urban_area","min_zoom":5.0,"id":25552},"arcs":[592]},{"type":"LineString","properties":{"source":"naturalearthdata.com","kind":"highway","kind_detail":"motorway","sort_rank":383,"landuse_kind":"urban_area","min_zoom":5.0,"id":25552},"arcs":[593]},{"type":"LineString","properties":{"source":"naturalearthdata.com","kind":"highway","sort_rank":383,"kind_detail":"motorway","min_zoom":5.0,"id":25552},"arcs":[594]},{"type":"LineString","properties":{"source":"naturalearthdata.com","kind":"highway","kind_detail":"motorway","sort_rank":383,"landuse_kind":"urban_area","min_zoom":3.0,"id":25554},"arcs":[595]},{"type":"LineString","properties":{"source":"naturalearthdata.com","kind":"major_road","sort_rank":379,"kind_detail":"secondary","min_zoom":4.0,"id":25574},"arcs":[596]},{"type":"LineString","properties":{"source":"naturalearthdata.com","kind":"minor_road","kind_detail":"tertiary","sort_rank":355,"landuse_kind":"urban_area","min_zoom":5.0,"id":25612},"arcs":[597]},{"type":"MultiLineString","properties":{"source":"naturalearthdata.com","kind":"highway","kind_detail":"motorway","sort_rank":383,"landuse_kind":"urban_area","min_zoom":3.0,"id":25699},"arcs":[[598],[599],[600]]},{"type":"MultiLineString","properties":{"source":"naturalearthdata.com","kind":"highway","sort_rank":383,"kind_detail":"motorway","min_zoom":3.0,"id":25699},"arcs":[[601],[602]]},{"type":"LineString","properties":{"source":"naturalearthdata.com","kind":"major_road","kind_detail":"secondary","sort_rank":379,"landuse_kind":"urban_area","min_zoom":4.0,"id":25710},"arcs":[603]},{"type":"LineString","properties":{"source":"naturalearthdata.com","kind":"major_road","sort_rank":379,"kind_detail":"secondary","min_zoom":4.0,"id":25710},"arcs":[604]},{"type":"LineString","properties":{"source":"naturalearthdata.com","kind":"major_road","kind_detail":"secondary","sort_rank":379,"landuse_kind":"urban_area","min_zoom":3.0,"id":25732},"arcs":[605]},{"type":"LineString","properties":{"source":"naturalearthdata.com","kind":"minor_road","kind_detail":"tertiary","sort_rank":355,"landuse_kind":"urban_area","min_zoom":5.0,"id":25743},"arcs":[606]},{"type":"LineString","properties":{"source":"naturalearthdata.com","kind":"minor_road","kind_detail":"tertiary","sort_rank":355,"landuse_kind":"urban_area","min_zoom":5.0,"id":25772},"arcs":[607]},{"type":"LineString","properties":{"source":"naturalearthdata.com","kind":"highway","kind_detail":"motorway","sort_rank":383,"landuse_kind":"urban_area","min_zoom":6.0,"id":25871},"arcs":[608]},{"type":"LineString","properties":{"source":"naturalearthdata.com","kind":"highway","kind_detail":"motorway","sort_rank":383,"landuse_kind":"urban_area","min_zoom":4.0,"id":25872},"arcs":[609]},{"type":"LineString","properties":{"source":"naturalearthdata.com","kind":"highway","kind_detail":"motorway","sort_rank":383,"landuse_kind":"urban_area","min_zoom":4.0,"id":25884},"arcs":[610]},{"type":"LineString","properties":{"source":"naturalearthdata.com","kind":"highway","kind_detail":"motorway","sort_rank":383,"landuse_kind":"urban_area","min_zoom":6.0,"id":25896},"arcs":[611]},{"type":"LineString","properties":{"source":"naturalearthdata.com","kind":"highway","kind_detail":"motorway","sort_rank":383,"landuse_kind":"urban_area","min_zoom":4.0,"id":25915},"arcs":[612]},{"type":"MultiLineString","properties":{"source":"naturalearthdata.com","kind":"highway","kind_detail":"motorway","sort_rank":383,"landuse_kind":"urban_area","min_zoom":4.0,"id":25938},"arcs":[[613],[614]]},{"type":"LineString","properties":{"source":"naturalearthdata.com","kind":"highway","sort_rank":383,"kind_detail":"motorway","min_zoom":4.0,"id":25938},"arcs":[615]},{"type":"LineString","properties":{"source":"naturalearthdata.com","kind":"minor_road","kind_detail":"tertiary","sort_rank":355,"landuse_kind":"urban_area","min_zoom":5.0,"id":25968},"arcs":[616]},{"type":"LineString","properties":{"source":"naturalearthdata.com","kind":"minor_road","kind_detail":"tertiary","sort_rank":355,"landuse_kind":"urban_area","min_zoom":5.0,"id":25968},"arcs":[617]},{"type":"LineString","properties":{"source":"naturalearthdata.com","kind":"minor_road","kind_detail":"tertiary","sort_rank":355,"landuse_kind":"urban_area","min_zoom":5.0,"id":25968},"arcs":[618]},{"type":"MultiLineString","properties":{"source":"naturalearthdata.com","kind":"minor_road","sort_rank":355,"kind_detail":"tertiary","min_zoom":5.0,"id":25968},"arcs":[[619],[620]]},{"type":"LineString","properties":{"source":"naturalearthdata.com","kind":"minor_road","kind_detail":"tertiary","sort_rank":355,"landuse_kind":"urban_area","min_zoom":5.0,"id":26002},"arcs":[621]},{"type":"MultiLineString","properties":{"source":"naturalearthdata.com","kind":"minor_road","kind_detail":"tertiary","sort_rank":355,"landuse_kind":"urban_area","min_zoom":5.0,"id":26002},"arcs":[[622],[623]]},{"type":"LineString","properties":{"source":"naturalearthdata.com","kind":"minor_road","kind_detail":"tertiary","sort_rank":355,"landuse_kind":"urban_area","min_zoom":5.0,"id":26002},"arcs":[624]},{"type":"LineString","properties":{"source":"naturalearthdata.com","kind":"minor_road","kind_detail":"tertiary","sort_rank":355,"landuse_kind":"urban_area","min_zoom":5.0,"id":26002},"arcs":[625]},{"type":"MultiLineString","properties":{"source":"naturalearthdata.com","kind":"minor_road","sort_rank":355,"kind_detail":"tertiary","min_zoom":5.0,"id":26002},"arcs":[[626],[627],[628],[629]]},{"type":"MultiLineString","properties":{"source":"naturalearthdata.com","kind":"highway","kind_detail":"motorway","sort_rank":383,"landuse_kind":"urban_area","min_zoom":4.0,"id":26007},"arcs":[[630],[631]]},{"type":"MultiLineString","properties":{"source":"naturalearthdata.com","kind":"highway","sort_rank":383,"kind_detail":"motorway","min_zoom":4.0,"id":26007},"arcs":[[632],[633]]},{"type":"LineString","properties":{"source":"naturalearthdata.com","kind":"highway","kind_detail":"motorway","sort_rank":383,"landuse_kind":"urban_area","min_zoom":4.0,"id":26045},"arcs":[634]},{"type":"LineString","properties":{"source":"naturalearthdata.com","kind":"highway","sort_rank":383,"kind_detail":"motorway","min_zoom":4.0,"id":26045},"arcs":[635]},{"type":"LineString","properties":{"source":"naturalearthdata.com","kind":"highway","kind_detail":"motorway","sort_rank":383,"landuse_kind":"urban_area","min_zoom":5.0,"id":26057},"arcs":[636]},{"type":"LineString","properties":{"source":"naturalearthdata.com","kind":"highway","kind_detail":"motorway","sort_rank":383,"landuse_kind":"urban_area","min_zoom":5.0,"id":26057},"arcs":[637]},{"type":"LineString","properties":{"source":"naturalearthdata.com","kind":"highway","kind_detail":"motorway","sort_rank":383,"landuse_kind":"urban_area","min_zoom":5.0,"id":26057},"arcs":[638]},{"type":"MultiLineString","properties":{"source":"naturalearthdata.com","kind":"highway","sort_rank":383,"kind_detail":"motorway","min_zoom":5.0,"id":26057},"arcs":[[639],[640],[641]]},{"type":"MultiLineString","properties":{"source":"naturalearthdata.com","kind":"highway","kind_detail":"motorway","sort_rank":383,"landuse_kind":"urban_area","min_zoom":4.0,"id":26062},"arcs":[[642],[643]]},{"type":"LineString","properties":{"source":"naturalearthdata.com","kind":"highway","sort_rank":383,"kind_detail":"motorway","min_zoom":4.0,"id":26062},"arcs":[644]},{"type":"LineString","properties":{"source":"naturalearthdata.com","kind":"highway","kind_detail":"motorway","sort_rank":383,"landuse_kind":"urban_area","min_zoom":5.0,"id":26089},"arcs":[645]},{"type":"MultiLineString","properties":{"source":"naturalearthdata.com","kind":"minor_road","kind_detail":"tertiary","sort_rank":355,"landuse_kind":"urban_area","min_zoom":5.0,"id":26090},"arcs":[[646],[647]]},{"type":"LineString","properties":{"source":"naturalearthdata.com","kind":"minor_road","sort_rank":355,"kind_detail":"tertiary","min_zoom":5.0,"id":26090},"arcs":[648]},{"type":"LineString","properties":{"source":"naturalearthdata.com","kind":"highway","kind_detail":"motorway","sort_rank":383,"landuse_kind":"urban_area","min_zoom":5.0,"id":26132},"arcs":[649]},{"type":"LineString","properties":{"source":"naturalearthdata.com","kind":"highway","kind_detail":"motorway","sort_rank":383,"landuse_kind":"urban_area","min_zoom":5.0,"id":26132},"arcs":[650]},{"type":"LineString","properties":{"source":"naturalearthdata.com","kind":"highway","sort_rank":383,"kind_detail":"motorway","min_zoom":5.0,"id":26132},"arcs":[651]},{"type":"LineString","properties":{"source":"naturalearthdata.com","kind":"highway","kind_detail":"motorway","sort_rank":383,"landuse_kind":"urban_area","min_zoom":5.0,"id":26139},"arcs":[652]},{"type":"LineString","properties":{"source":"naturalearthdata.com","kind":"highway","sort_rank":383,"kind_detail":"motorway","min_zoom":5.0,"id":26139},"arcs":[653]},{"type":"LineString","properties":{"source":"naturalearthdata.com","kind":"minor_road","kind_detail":"tertiary","sort_rank":355,"landuse_kind":"urban_area","min_zoom":5.0,"id":26140},"arcs":[654]},{"type":"LineString","properties":{"source":"naturalearthdata.com","kind":"minor_road","sort_rank":355,"kind_detail":"tertiary","min_zoom":5.0,"id":26140},"arcs":[655]},{"type":"LineString","properties":{"source":"naturalearthdata.com","kind":"minor_road","kind_detail":"tertiary","sort_rank":355,"landuse_kind":"urban_area","min_zoom":6.0,"id":26227},"arcs":[656]},{"type":"LineString","properties":{"source":"naturalearthdata.com","kind":"minor_road","kind_detail":"tertiary","sort_rank":355,"landuse_kind":"urban_area","min_zoom":6.0,"id":26227},"arcs":[657]},{"type":"LineString","properties":{"source":"naturalearthdata.com","kind":"minor_road","kind_detail":"tertiary","sort_rank":355,"landuse_kind":"urban_area","min_zoom":6.0,"id":26227},"arcs":[658]},{"type":"LineString","properties":{"source":"naturalearthdata.com","kind":"minor_road","kind_detail":"tertiary","sort_rank":355,"landuse_kind":"urban_area","min_zoom":6.0,"id":26227},"arcs":[659]},{"type":"LineString","properties":{"source":"naturalearthdata.com","kind":"minor_road","kind_detail":"tertiary","sort_rank":355,"landuse_kind":"urban_area","min_zoom":6.0,"id":26227},"arcs":[660]},{"type":"LineString","properties":{"source":"naturalearthdata.com","kind":"minor_road","kind_detail":"tertiary","sort_rank":355,"landuse_kind":"urban_area","min_zoom":6.0,"id":26227},"arcs":[661]},{"type":"LineString","properties":{"source":"naturalearthdata.com","kind":"minor_road","kind_detail":"tertiary","sort_rank":355,"landuse_kind":"urban_area","min_zoom":6.0,"id":26227},"arcs":[662]},{"type":"MultiLineString","properties":{"source":"naturalearthdata.com","kind":"minor_road","sort_rank":355,"kind_detail":"tertiary","min_zoom":6.0,"id":26227},"arcs":[[663],[664],[665],[666],[667],[668]]},{"type":"LineString","properties":{"source":"naturalearthdata.com","kind":"major_road","kind_detail":"secondary","sort_rank":379,"landuse_kind":"urban_area","min_zoom":4.0,"id":26261},"arcs":[669]},{"type":"LineString","properties":{"source":"naturalearthdata.com","kind":"major_road","sort_rank":379,"kind_detail":"secondary","min_zoom":4.0,"id":26261},"arcs":[670]},{"type":"LineString","properties":{"source":"naturalearthdata.com","kind":"highway","kind_detail":"motorway","sort_rank":383,"landuse_kind":"urban_area","min_zoom":5.0,"id":26265},"arcs":[671]},{"type":"LineString","properties":{"source":"naturalearthdata.com","kind":"highway","sort_rank":383,"kind_detail":"motorway","min_zoom":5.0,"id":26265},"arcs":[672]},{"type":"LineString","properties":{"source":"naturalearthdata.com","kind":"major_road","kind_detail":"secondary","sort_rank":379,"landuse_kind":"urban_area","min_zoom":4.0,"id":26266},"arcs":[673]},{"type":"MultiLineString","properties":{"source":"naturalearthdata.com","kind":"highway","kind_detail":"motorway","sort_rank":383,"landuse_kind":"urban_area","min_zoom":4.0,"id":26296},"arcs":[[674],[675]]},{"type":"LineString","properties":{"source":"naturalearthdata.com","kind":"highway","sort_rank":383,"kind_detail":"motorway","min_zoom":4.0,"id":26296},"arcs":[676]},{"type":"LineString","properties":{"source":"naturalearthdata.com","kind":"highway","kind_detail":"motorway","sort_rank":383,"landuse_kind":"urban_area","min_zoom":4.0,"id":26327},"arcs":[677]},{"type":"LineString","properties":{"source":"naturalearthdata.com","kind":"highway","kind_detail":"motorway","sort_rank":383,"landuse_kind":"urban_area","min_zoom":5.0,"id":26332},"arcs":[678]},{"type":"LineString","properties":{"source":"naturalearthdata.com","kind":"minor_road","kind_detail":"tertiary","sort_rank":355,"landuse_kind":"urban_area","min_zoom":5.0,"id":26347},"arcs":[679]},{"type":"MultiLineString","properties":{"source":"naturalearthdata.com","kind":"highway","kind_detail":"motorway","sort_rank":383,"landuse_kind":"urban_area","min_zoom":5.0,"id":26403},"arcs":[[680],[681]]},{"type":"LineString","properties":{"source":"naturalearthdata.com","kind":"highway","sort_rank":383,"kind_detail":"motorway","min_zoom":5.0,"id":26403},"arcs":[682]},{"type":"LineString","properties":{"source":"naturalearthdata.com","kind":"highway","kind_detail":"motorway","sort_rank":383,"landuse_kind":"urban_area","min_zoom":5.0,"id":26418},"arcs":[683]},{"type":"LineString","properties":{"source":"naturalearthdata.com","kind":"highway","kind_detail":"motorway","sort_rank":383,"landuse_kind":"urban_area","min_zoom":5.0,"id":26418},"arcs":[684]},{"type":"MultiLineString","properties":{"source":"naturalearthdata.com","kind":"highway","sort_rank":383,"kind_detail":"motorway","min_zoom":5.0,"id":26418},"arcs":[[685],[686]]},{"type":"MultiLineString","properties":{"source":"naturalearthdata.com","kind":"highway","kind_detail":"motorway","sort_rank":383,"landuse_kind":"urban_area","min_zoom":4.0,"id":26601},"arcs":[[687],[688],[689]]},{"type":"MultiLineString","properties":{"source":"naturalearthdata.com","kind":"highway","sort_rank":383,"kind_detail":"motorway","min_zoom":4.0,"id":26601},"arcs":[[690],[691]]},{"type":"LineString","properties":{"source":"naturalearthdata.com","kind":"highway","kind_detail":"motorway","sort_rank":383,"landuse_kind":"urban_area","min_zoom":5.0,"id":26873},"arcs":[692]},{"type":"LineString","properties":{"source":"naturalearthdata.com","kind":"highway","kind_detail":"motorway","sort_rank":383,"landuse_kind":"urban_area","min_zoom":5.0,"id":26873},"arcs":[693]},{"type":"MultiLineString","properties":{"source":"naturalearthdata.com","kind":"highway","sort_rank":383,"kind_detail":"motorway","min_zoom":5.0,"id":26873},"arcs":[[694],[695]]},{"type":"LineString","properties":{"source":"naturalearthdata.com","kind":"highway","kind_detail":"motorway","sort_rank":383,"landuse_kind":"urban_area","min_zoom":4.0,"id":26997},"arcs":[696]},{"type":"LineString","properties":{"source":"naturalearthdata.com","kind":"highway","kind_detail":"motorway","sort_rank":383,"landuse_kind":"urban_area","min_zoom":4.0,"id":26997},"arcs":[697]},{"type":"MultiLineString","properties":{"source":"naturalearthdata.com","kind":"highway","sort_rank":383,"kind_detail":"motorway","min_zoom":4.0,"id":26997},"arcs":[[698],[699]]},{"type":"LineString","properties":{"source":"naturalearthdata.com","kind":"minor_road","kind_detail":"tertiary","sort_rank":355,"landuse_kind":"urban_area","min_zoom":5.0,"id":27134},"arcs":[700]},{"type":"MultiLineString","properties":{"source":"naturalearthdata.com","kind":"minor_road","kind_detail":"tertiary","sort_rank":355,"landuse_kind":"urban_area","min_zoom":5.0,"id":27134},"arcs":[[701],[702]]},{"type":"MultiLineString","properties":{"source":"naturalearthdata.com","kind":"minor_road","sort_rank":355,"kind_detail":"tertiary","min_zoom":5.0,"id":27134},"arcs":[[703],[704],[705]]},{"type":"LineString","properties":{"source":"naturalearthdata.com","kind":"highway","sort_rank":383,"kind_detail":"motorway","min_zoom":4.0,"id":27248},"arcs":[706]},{"type":"LineString","properties":{"source":"naturalearthdata.com","kind":"highway","sort_rank":383,"kind_detail":"motorway","min_zoom":4.0,"id":27370},"arcs":[707]},{"type":"LineString","properties":{"source":"naturalearthdata.com","kind":"minor_road","kind_detail":"tertiary","sort_rank":355,"landuse_kind":"urban_area","min_zoom":5.0,"id":27374},"arcs":[708]},{"type":"LineString","properties":{"source":"naturalearthdata.com","kind":"minor_road","kind_detail":"tertiary","sort_rank":355,"landuse_kind":"urban_area","min_zoom":5.0,"id":27374},"arcs":[709]},{"type":"MultiLineString","properties":{"source":"naturalearthdata.com","kind":"minor_road","sort_rank":355,"kind_detail":"tertiary","min_zoom":5.0,"id":27374},"arcs":[[710],[711],[712]]}]},"earth":{"type":"GeometryCollection","geometries":[{"type":"MultiPolygon","properties":{"sort_rank":10,"source":"naturalearthdata.com","min_zoom":0.0,"kind":"earth","area":455853993729},"arcs":[[[713]],[[714]],[[715]],[[716]],[[717]],[[718]],[[719]],[[720]],[[721]],[[722]],[[723]],[[724]],[[725]],[[726]],[[727]],[[728]],[[729]],[[730]],[[731]],[[732]],[[733]],[[734]],[[735]],[[736]],[[737]],[[738]],[[739]],[[740]],[[741]],[[742]],[[743]],[[744]],[[745]]]}]},"landuse":{"type":"GeometryCollection","geometries":[{"type":"MultiPolygon","properties":{"source":"naturalearthdata.com","kind":"urban_area","name":"","area":59175113719,"sort_rank":11,"min_zoom":4.0},"arcs":[[[746]],[[747]],[[748]],[[749]],[[750]],[[751]],[[752]],[[753]],[[754]],[[755]],[[756]],[[757]],[[758]],[[759]],[[760]],[[761],[762]],[[763]],[[764]],[[765]],[[766]],[[767]],[[768]],[[769]],[[770]],[[771]],[[772]],[[773]],[[774]],[[775]],[[776]],[[777]],[[778]],[[779]],[[780]],[[781]],[[782]],[[783]],[[784]],[[785]],[[786]],[[787]],[[788]],[[789]],[[790]],[[791]],[[792]],[[793]],[[794]],[[795]],[[796]],[[797]],[[798]],[[799]],[[800]],[[801]],[[802]],[[803]],[[804]],[[805]],[[806]],[[807]],[[808]],[[809]],[[810]],[[811]],[[812]],[[813]],[[814],[815]],[[816]],[[817]],[[818]],[[819]],[[820]],[[821]],[[822]],[[823]],[[824]],[[825]],[[826]],[[827]],[[828]],[[829]],[[830]],[[831]],[[832]]]}]}},"type":"Topology","transform":{"translate":[129.375,31.952162238],"scale":[0.001373291,0.0011342107]},"arcs":[[[965,1048],[11,-1],[10,-5],[42,-30],[35,-17]],[[768,907],[11,8],[29,4],[10,5],[1,2],[2,7],[-1,5],[-2,16],[7,13],[10,11],[18,14],[13,13],[11,6],[28,2],[13,3],[10,8],[17,19],[9,4],[11,1]],[[3,3239],[58,-13]],[[0,3239],[3,0]],[[61,3226]],[[320,1216]],[[609,874],[-3,0],[-2,0]],[[482,1327]],[[768,907]],[[3583,1391],[7,-2],[4,-1]],[[3690,1989],[0,3]],[[61,3226],[9,2]],[[1841,1261],[101,-147]],[[3076,2153],[62,43],[39,-10],[19,-22],[14,0],[34,-8],[27,6],[43,15],[14,11],[3,19],[18,35],[16,16],[33,2],[21,4],[23,8],[48,28],[82,38],[110,4],[86,-66],[4,-95],[8,-80],[39,-57],[27,-24],[24,-42],[19,-71],[36,-48]],[[2284,1765],[11,26],[5,13],[12,17],[30,12],[42,26],[65,31],[81,46],[41,22],[19,27],[14,47],[18,28],[26,17],[14,1],[11,-4],[10,-24],[10,-30],[24,2],[28,14],[26,2],[36,35],[11,2],[17,-10],[38,-27]],[[2277,1703],[1,26],[1,22],[5,14]],[[1017,1845],[38,-55],[27,-45],[12,-18],[17,-3],[18,7],[17,23],[20,15],[22,19],[22,0],[25,-21],[16,-32],[13,-57]],[[1727,768],[11,-1],[13,-5],[11,-2],[11,-5],[7,-9],[6,-26],[2,-14],[3,-11],[3,-6],[25,-2]],[[1567,697],[9,0],[14,4],[9,6],[14,5],[68,3],[9,2],[3,5],[5,8],[10,23],[5,7],[5,6],[9,2]],[[1419,767],[14,-10],[10,-5],[19,-3]],[[1521,763],[11,-2],[8,-6],[6,-7],[4,-7],[0,-8],[-2,-7],[-1,-8],[2,-6],[4,-7],[6,-5],[8,-3]],[[1462,749],[14,0],[14,3],[21,10],[10,1]],[[974,122],[-9,-21],[8,-15],[7,-8],[46,-76],[2,-2]],[[604,874],[-74,15],[-32,11],[-19,13],[-12,11],[-14,15],[-52,45],[-6,9],[-1,7],[11,11],[3,8],[0,9],[-4,12],[-8,11],[-10,5],[-31,9],[-24,13],[-11,10],[-6,9],[-2,9],[-4,9],[-23,35],[-5,10],[-1,10],[4,8],[23,26],[11,6],[3,6]],[[1419,767],[-39,-10],[-9,-6],[-11,-9],[-5,-9],[-8,-23],[-10,-20],[-22,-23],[-4,-6],[-12,-23],[-9,-11],[-15,-15],[-10,-13],[-6,-15],[-3,-25],[-4,-9],[-6,-4],[-9,-2],[-11,0],[-9,-4],[-8,-10],[-9,-17],[-14,-41],[-3,-15],[0,-9],[2,-8],[2,-11],[6,-15],[6,-10],[16,-16],[8,-10],[6,-15],[4,-14],[11,-20],[3,-10],[0,-13],[-5,-10],[-14,-21],[-8,-16],[0,-11],[3,-10],[13,-21],[4,-13],[3,-17],[-4,-8],[-8,-3]],[[1231,176],[-9,1],[-35,11]],[[1187,188],[-6,-2],[-8,-8],[-13,-20],[-11,-10],[-12,-4]],[[1137,144],[-20,6],[-9,0]],[[1108,150],[-9,-3],[-24,-15],[-10,-5],[-10,-4],[-10,-1]],[[1045,122],[-50,3]],[[995,125],[-21,-3]],[[1216,1084],[11,-1],[22,-14],[25,-20],[12,-14],[23,-46],[6,-10],[15,-18],[6,-11],[8,-26],[10,-22],[3,-10],[1,-8],[3,-43],[2,-11],[11,-24],[45,-39]],[[1167,949],[10,4],[3,11],[10,23],[0,7],[-4,8],[-13,18],[-4,10],[-5,21],[0,9],[3,6],[22,5],[15,9],[12,4]],[[1063,995],[26,-9],[59,-34],[19,-3]],[[974,122],[-28,19],[-46,40],[-15,5]],[[885,186],[-12,-2],[-8,-6],[-7,-4],[-11,-3],[-9,-6],[-39,-11],[-16,-7],[-19,-5]],[[764,142],[-12,0],[-10,5],[-8,7],[-20,23],[-7,7],[-1,1]],[[1274,1356],[11,1],[7,4],[6,7],[4,8],[9,11],[4,9],[2,9],[-6,20],[0,13],[3,8],[2,4],[9,9],[5,5]],[[1186,1365],[44,-2],[44,-7]],[[1063,995],[15,55],[-2,15],[-16,48],[-3,16],[11,39],[1,15],[-4,25],[-1,8],[1,7],[1,5],[2,6],[17,29],[7,20],[8,16],[18,21],[11,15],[9,10],[9,7],[22,9],[11,3],[6,1]],[[757,1265],[-10,6],[-15,17],[-10,7],[-11,5],[-45,28],[-10,5],[-12,3],[-21,2]],[[623,1338],[-13,-1],[-36,-6]],[[574,1331],[-31,0]],[[543,1331],[-22,-3],[-39,-1]],[[710,1049],[-1,0],[-2,13],[0,9],[1,11],[5,8],[6,6],[3,4],[3,7],[3,17],[5,8],[7,6],[9,5],[8,5],[7,4],[15,1],[6,4],[9,15],[4,5],[5,15],[5,9],[8,7],[9,4],[7,1],[6,3],[4,6],[4,28],[0,6],[-6,29],[-1,4],[-6,6],[-9,2]],[[824,1297],[-14,-3],[-21,-10],[-9,-6],[-15,-13],[-8,0]],[[3111,1678],[70,-25],[30,-3]],[[3219,1650],[13,0],[14,-6],[38,-24],[16,-4]],[[3211,1650],[8,0]],[[3348,1643],[33,-4],[7,-7],[7,-18],[4,-10],[4,-10],[3,-10],[6,-61],[5,-4]],[[3300,1616],[11,1],[8,8],[7,9],[9,6],[13,3]],[[3442,1520],[22,-3],[12,-6],[7,-9],[3,-9],[1,-10],[-2,-8],[-4,-14],[18,-40],[7,-11],[20,-7],[13,-3]],[[3417,1519],[25,1]],[[3549,1403],[34,-12]],[[3539,1400],[10,3]],[[3121,1804],[6,-62],[-2,-24],[-7,-24],[-7,-16]],[[3111,1678],[-63,-2],[-33,-14],[-16,-11],[-18,-5],[-30,-1],[-32,-4],[-35,0],[-24,-7]],[[2860,1634],[-12,1]],[[2848,1635],[-13,-2],[-8,-5],[-15,-17],[-10,-5],[-10,-1]],[[2792,1605],[-14,3]],[[2778,1608],[-8,-4],[-6,-7],[-4,-9],[-13,-21],[-22,-50],[-7,-12],[-8,-11],[-16,-14],[-6,-11],[-5,-14],[-3,-12],[-8,-21],[-1,-10],[2,-17],[-2,-9],[-6,-11],[-23,-32],[-13,-12],[-11,-7],[-15,-4]],[[2603,1320],[-94,1]],[[2509,1321],[-8,-6],[-4,-7],[5,-20],[1,-11],[3,-10],[6,-9],[7,-7],[5,-7],[5,-9],[7,-8],[8,-7],[7,-8],[3,-9],[-4,-12],[-13,-11],[-42,-26],[-12,-10],[-8,-9],[-4,-10],[-3,-11],[-1,-10],[-1,-8],[-2,-6],[-6,-5],[-19,-13],[-8,-10],[-13,-23],[-7,-6],[-9,-1]],[[2402,1032],[-9,6],[-21,20],[-10,1]],[[2362,1059],[-4,-7],[1,-8],[2,-10],[13,-30],[6,-9],[4,-10],[-1,-11],[1,-10],[3,-10],[14,-29],[-1,-18],[3,-16],[-1,-9],[-3,-9],[-19,-29]],[[3656,1941],[9,3],[8,4],[17,39],[0,2]],[[3630,1950],[26,-9]],[[3343,1869],[13,2],[12,4],[25,15],[10,3],[31,6],[12,5],[12,10],[9,18],[10,7],[16,6],[35,4],[102,1]],[[3295,1894],[13,-4],[9,-7],[8,-9],[8,-4],[10,-1]],[[3121,1804],[31,20],[9,10],[14,10],[7,8],[9,5],[25,6],[9,6],[10,13],[8,5],[52,7]],[[3121,1804],[-10,12],[-16,5],[-24,5],[0,1]],[[1775,2070],[-13,2],[-9,4],[-8,7],[-5,8],[-4,12],[-4,13],[-2,10],[0,9],[3,7],[13,20],[0,5],[-3,5],[-53,12],[-9,7],[-3,9],[2,8],[-1,10],[-6,10],[-4,15],[1,12],[7,12],[11,28],[5,6],[2,8],[0,9],[-12,30],[-3,9],[-2,13],[0,8],[1,11],[-1,4],[-3,5]],[[1948,2209],[-43,-39],[-2,-10],[1,-14],[5,-7],[3,-5],[1,-8],[-3,-5],[-3,-4],[-20,-9],[-3,-3],[-3,-5],[-4,-15],[-4,-10],[-6,-2]],[[1867,2073],[-6,4],[-7,7],[-9,3]],[[1845,2087],[-9,-1],[-37,-13],[-24,-3]],[[2824,3161],[3,-1]],[[2733,2747],[14,48],[18,31],[2,15],[-2,10],[-5,8],[-1,10],[8,7],[9,7],[61,30],[16,12],[5,11],[0,16],[-2,29],[5,49],[2,7],[3,2],[3,1],[6,5],[2,5],[-1,4],[-1,3],[-2,2],[-3,2],[-21,8],[-9,5],[-18,15],[-6,7],[-6,12],[-2,4],[-2,7],[-2,4],[-2,3],[-3,3],[-8,7],[-3,3],[-2,4],[3,4],[3,2],[32,12]],[[2087,1973],[-6,2],[-24,8],[-21,13],[-8,2],[-12,9],[-12,18],[-41,97],[-7,67],[-8,20]],[[2733,2747],[27,-6],[47,-1],[25,-8]],[[2667,2743],[-11,3],[-21,12]],[[2635,2758],[-9,0],[-20,-10],[-11,0]],[[2595,2748],[-46,8]],[[2549,2756],[-16,-4],[-10,-6],[-8,-10],[-15,-25],[-44,-57],[-13,-11],[-12,-5],[-14,-6],[-10,-6],[-8,-8],[-14,-16],[-6,-8],[-1,-5],[1,-4],[4,-4],[9,-5],[9,-7],[6,-9],[-2,-10],[-7,-5],[-59,-19],[-30,-16],[-17,-6],[-10,-2]],[[2733,2747],[-23,3]],[[2710,2750],[-31,-7],[-12,0]],[[2282,2502],[-29,2],[-11,3],[-10,4]],[[2232,2511],[-12,0],[-7,-6],[-9,-9],[-8,-4]],[[2196,2492],[-8,1],[-9,4],[-11,2]],[[2168,2499],[-33,-9],[-13,-8]],[[2122,2482],[-9,1],[-7,5],[-6,6],[-8,2]],[[2092,2496],[-5,-7],[-9,-10],[-15,-14],[-40,-28],[-7,-10],[-1,-10],[5,-11],[1,-11],[-2,-8],[-12,-18],[-6,-13],[-3,-11],[-2,-15],[-5,-15],[-10,-22],[-23,-23],[-11,-16],[-5,-12],[1,-11],[3,-8],[2,-14]],[[3346,2976],[12,-2],[10,-8],[1,-6],[0,-4],[-2,-6],[1,-4],[1,-2],[4,-3],[54,-8],[24,-16],[13,-16],[6,-14],[3,-10],[6,-12],[2,-8],[2,-11],[5,-11],[7,-5]],[[3239,2898],[8,4],[7,9],[4,9],[5,8],[9,6],[24,11],[7,7],[5,9],[8,8],[15,6],[15,1]],[[3082,2971],[93,-23],[15,-6],[10,-8],[11,-9],[19,-24],[9,-3]],[[2832,2732],[11,13],[7,6],[13,3],[39,17],[13,9],[4,9],[1,8],[-1,7],[-1,8],[4,8],[7,5],[36,2],[36,14],[4,2],[2,4],[0,6],[1,8],[1,13],[4,8],[9,7],[8,4],[6,7],[4,8],[8,28],[9,21],[5,8],[9,5],[11,1]],[[3583,2851],[9,1],[13,5],[16,12],[35,20]],[[3564,2853],[11,0],[8,-2]],[[3495,2830],[10,3],[43,18],[16,2]],[[2832,2732],[29,-47],[4,-27],[-2,-30],[0,-21],[2,-28],[5,-17],[5,-13],[28,-45],[3,-11],[0,-11],[-1,-15],[0,-19],[1,-18],[4,-17],[16,-35],[0,-36],[4,-13],[5,-11],[16,-25],[10,-20],[4,-11],[2,-8],[-2,-18],[-3,-14]],[[3686,2879],[8,1],[11,6],[21,17],[9,12],[4,12],[1,15],[-2,15],[-1,7],[-1,7],[-3,9],[-17,26],[-3,19],[-4,15],[-18,34],[-20,93],[-13,30],[-22,17],[-2,2]],[[3656,2889],[15,-2],[5,-5],[10,-3]],[[3590,2431],[7,20],[1,11],[-2,15],[-2,8],[-3,7],[-13,18],[-21,20],[-2,12],[0,14],[5,19],[0,22],[-4,34],[4,27],[1,13],[0,10],[-1,6],[0,1],[1,2],[35,33],[36,62],[8,11],[9,7],[6,8],[2,10],[-2,17],[-4,15],[5,25],[0,11]],[[4062,3125],[-14,4],[-17,10],[-19,28],[-8,13],[-4,10],[-2,12],[0,15],[1,9],[0,10],[-3,32]],[[4096,3140],[-21,-11],[-13,-4]],[[4059,3028],[10,-4],[16,-11],[7,-2],[4,-1]],[[4096,2928],[-7,4],[-26,7],[-13,7],[-7,8],[-4,7],[-1,7],[2,34],[2,10],[3,10],[7,5],[7,1]],[[2466,1660],[-43,-70]],[[2325,1123],[-27,111],[-71,91],[97,69],[51,4],[56,89],[-13,97],[38,32],[-14,72],[35,120],[140,84],[96,-174],[45,-4],[118,65],[59,-15],[103,24],[120,180]],[[3241,2314],[-16,-137],[17,-82],[-96,-85],[13,-33]],[[3159,1977],[0,-1]],[[3159,1976]],[[3159,1976]],[[3159,1976],[0,-2]],[[3159,1974],[0,-1]],[[3159,1973],[0,-1]],[[3159,1972],[0,-1]],[[3159,1971]],[[3159,1971],[0,-1]],[[3159,1970]],[[3159,1970]],[[3159,1970]],[[3159,1970]],[[3159,1970],[0,-1]],[[3159,1969],[-1,0]],[[3158,1969]],[[3158,1969],[0,-1]],[[3315,2404],[-74,-90]],[[3308,2394],[-1,-2]],[[2466,1661],[90,-29]],[[2466,1661],[90,-29]],[[3369,2735],[-32,-23],[-6,-103],[-35,-23],[-3,-53],[53,-92],[-38,-47]],[[3368,2735],[2,0]],[[3370,2735]],[[1794,2403],[-28,-60],[-4,-36],[28,-28],[-18,-49],[-62,-36],[-4,-40],[-103,-82],[-9,-59],[-122,-125]],[[1791,2405],[46,82],[236,211]],[[2073,2698],[2,1]],[[2075,2699]],[[2461,3005],[-3,0],[-5,-1],[-4,-3],[-6,-15],[-30,-16],[-15,-19],[-99,-42],[-26,-47],[-52,-10],[-40,-80],[-106,-73]],[[2501,3027],[-3,-4]],[[2498,3023],[-10,-10],[-22,-7],[-3,-1],[-4,0]],[[2501,3027],[114,33]],[[2615,3060],[2,-1],[3,0],[5,2],[1,0],[0,1],[2,3],[4,1]],[[2615,3060],[9,1],[4,5],[4,0]],[[2734,3078],[-44,19],[-58,-31]],[[2898,3067],[-40,-20],[-124,31]],[[2734,3078],[-1,3]],[[3255,3089],[-26,23],[-165,35],[-62,-9],[-104,-71]],[[3254,3090],[8,-3]],[[3530,3124],[-60,26],[-127,-3],[-51,-50],[-31,-10]],[[3506,3138],[-1,1]],[[3516,3132],[-3,2]],[[3532,3123],[-14,8]],[[2466,1660],[-43,-70]],[[3173,2267],[24,68]],[[3303,2377],[-62,-63]],[[3241,2314],[-1,-231],[74,-21],[88,53]],[[1884,2040],[18,42]],[[1902,2082]],[[1902,2082]],[[3197,2336],[0,1],[1,-1],[-1,0]],[[354,735],[98,39]],[[361,706],[-1,2]],[[360,708],[-4,6],[-1,8]],[[360,708],[0,1]],[[360,709]],[[361,706],[-1,3]],[[449,776],[22,7]],[[474,783],[6,1]],[[486,789],[-2,-4]],[[486,789],[-1,5]],[[486,791],[114,75],[7,45],[-80,109],[38,98]],[[575,1117],[-4,0]],[[575,1117],[-4,0]],[[647,1152],[-72,-35]],[[575,1117]],[[575,1117],[-1,0]],[[630,1151],[6,0]],[[700,1179],[18,18],[16,8],[1,1],[4,1],[3,1],[7,4],[1,0],[0,1],[8,9],[10,4],[13,6],[5,1],[1,0],[1,1],[1,1],[2,3],[7,7],[2,1],[4,0],[3,1],[7,3],[15,-1],[1,0],[1,0],[0,1],[1,1]],[[726,1202],[32,20],[10,4],[13,6],[7,2],[3,4],[6,6],[1,1],[0,1],[2,0],[6,1],[8,3],[18,1]],[[842,1298],[1,12],[4,16]],[[847,1326],[-46,65]],[[801,1391],[46,-56]],[[834,1255],[9,38]],[[842,1297],[1,-3],[-4,-22]],[[847,1326],[1,-2],[0,-2],[-1,-3],[0,-1],[-2,-2],[0,-2],[-2,-4],[1,-5],[-2,-8]],[[842,1297],[1,-2],[0,-1],[0,-1]],[[3986,2989],[-58,95],[36,61],[-4,94],[-39,3],[-9,26],[-87,-21],[-42,17],[-161,-48],[-47,-36],[-9,-55],[-34,-2]],[[3978,2483],[-114,51]],[[3870,2535],[53,132],[-18,109],[37,45],[44,168]],[[4063,2397],[-85,86]],[[3978,2483],[13,8]],[[3989,2988],[-3,1]],[[4096,2377],[-33,20]],[[4063,2397],[33,-20]],[[3225,1829],[36,5]],[[3758,1877],[-496,-43]],[[3624,1447],[0,17]],[[3624,1465],[60,76],[69,22],[48,47],[4,63],[45,61]],[[3771,1871],[-13,6]],[[3849,1739],[-79,79],[1,52]],[[2466,1661],[-43,42]],[[2423,1703],[43,-42]],[[3303,2389],[93,59]],[[3311,2401],[-2,-5]],[[3311,2400],[11,4]],[[3397,2449],[39,30]],[[3436,2479]],[[3436,2479],[20,24]],[[3456,2503],[48,20],[61,-11],[11,9],[15,18],[6,10],[4,2],[0,1],[1,1],[0,1],[-1,4],[-2,4],[3,13],[4,1],[7,-7],[1,0],[2,0],[2,0]],[[3532,3123]],[[3532,2919],[-23,48],[16,69],[26,16]],[[3534,3122],[-2,1]],[[3625,2569],[-6,0]],[[3619,2569],[20,159],[-33,57],[8,67],[-43,61],[-39,6]],[[3549,3049],[10,12],[-25,61]],[[3586,2535],[4,3],[2,5],[5,6],[1,0],[0,1],[3,1],[0,1],[1,3],[-1,3],[-2,3],[0,1],[0,1],[1,4],[0,5],[1,1],[0,1],[1,1],[1,1],[1,0],[1,0],[1,0],[1,0],[0,-1],[7,-6],[5,0]],[[3619,2569],[3,1]],[[2961,2245],[-57,-8]],[[2961,2245],[68,3],[169,89]],[[3199,2337],[4,4]],[[3227,2357],[-22,-14]],[[3230,2359],[77,32]],[[3281,2380],[25,10]],[[3306,2390],[-1,-1]],[[3309,2395],[-2,-4],[-1,-1]],[[3311,2399],[-2,-4],[-1,-3],[-1,-1],[-1,-1]],[[3950,3207],[10,29]],[[3986,2989],[-52,56],[-3,53],[33,47],[-14,60]],[[3976,2951],[10,38]],[[4096,2969],[-52,20],[-29,-22],[-29,22]],[[3241,2314],[-6,-233]],[[3235,2081],[-2,-5]],[[3235,2081],[79,-19],[64,49],[21,2]],[[3233,2076]],[[3233,2076],[-1,0]],[[3315,2404],[-74,-90]],[[3308,2394],[-1,-2]],[[3399,2114]],[[3399,2114]],[[3399,2114],[0,-1]],[[3609,2027],[-64,35],[-42,-7],[-27,47],[-77,11]],[[3400,2114],[-1,0]],[[3400,2114]],[[3400,2114]],[[3400,2114],[1,0]],[[3401,2114]],[[3401,2114]],[[3401,2114],[0,1]],[[3401,2115]],[[3401,2115],[1,0]],[[3759,1877],[-6,64],[-48,-10],[-11,54],[-69,38]],[[3760,1876],[-1,1]],[[3769,1871],[-9,5]],[[2518,890],[-87,-26]],[[2550,908],[55,-1],[52,51],[52,9],[17,66],[-17,30]],[[2709,1063],[0,4],[-4,0],[0,-4],[4,0]],[[2709,1063],[55,102],[50,35],[-10,26],[49,41],[-3,114],[257,53],[47,35],[-31,127],[93,57],[-27,117]],[[3241,2314],[-16,-137],[17,-82],[-53,-56],[77,-83],[-42,-60],[20,-52],[27,-2],[-55,-13],[-27,-57]],[[3315,2404],[-74,-90]],[[3308,2394],[-1,-2]],[[0,3092],[2,0],[7,3],[3,12],[0,12],[-3,11],[-6,7],[-3,1],[0,19],[9,-3],[9,-15],[5,-20],[5,-16],[11,6],[12,16],[7,15],[5,34],[1,23],[3,19],[-5,8],[-6,8],[-6,16],[6,14],[14,28],[19,57],[-1,32],[19,53],[8,60],[2,23],[26,51],[12,18],[-4,17],[-5,16],[-3,15],[-12,10],[-9,-15],[-46,-50],[-19,-14],[-15,2],[-11,14],[-11,12],[-16,14],[1,13],[12,9],[7,3],[8,3],[6,8],[2,14],[-3,5],[-6,4],[-6,23],[-4,30],[-4,4],[-5,3],[-4,8],[-3,15],[3,106],[4,18],[9,15],[23,26],[4,17],[5,75],[-4,36],[-10,36],[-3,20],[4060,0],[0,-800],[-9,-1],[-20,-14],[3,-11],[-8,-3],[-4,-2],[-15,-13],[-8,3],[-13,5],[-10,-3],[-3,10],[-13,1],[-15,-12],[-6,11],[-15,4],[-11,3],[-23,1],[-55,-3],[-32,1],[-41,-4],[-39,11],[-28,-16],[-24,-15],[-38,-14],[-27,-9],[-11,-14],[-7,-1],[-7,0],[-35,-7],[-9,-19],[-14,-10],[-18,-6],[-47,-9],[-101,-15],[-19,16],[-71,-20],[-131,-10],[-72,16],[-38,11],[-40,-10],[-24,-11],[-37,-17],[-17,-30],[-13,-2],[-14,2],[-15,3],[-22,5],[-26,13],[-22,14],[-3,12],[-4,10],[0,11],[2,2],[9,12],[13,3],[8,5],[10,3],[10,5],[-13,8],[-16,-1],[-14,-2],[-15,-6],[-5,-3],[-8,1],[-4,3],[5,9],[-4,4],[-13,-9],[-12,-1],[-24,-8],[-11,7],[-16,13],[-11,11],[-10,3],[0,-12],[-7,-11],[-12,5],[-10,-6],[-6,-11],[-7,-13],[-14,-5],[-17,3],[-13,-2],[-2,-22],[-17,1],[-18,-4],[-42,-2],[-20,-5],[-23,-9],[-22,-13],[-16,-3],[-12,-4],[-8,-2],[14,-6],[7,-7],[-4,-4],[-11,-2],[-24,0],[-14,0],[-19,-5],[-15,-2],[-8,-9],[5,-10],[17,-11],[12,-7],[2,-12],[0,-12],[-2,-15],[-5,-22],[-9,-15],[-9,-16],[-13,-9],[-33,-10],[-19,-9],[-13,-5],[-2,-11],[-24,-11],[-21,-17],[-43,-33],[-5,-13],[-11,-13],[2,-10],[-7,-9],[-17,-12],[-22,-17],[-7,-26],[-17,-12],[-16,-7],[-25,-5],[-15,-19],[-43,-33],[-19,-15],[-15,-14],[-34,-31],[-2,-20],[-5,-11],[-14,3],[-10,-9],[-17,-25],[-30,-22],[-24,-22],[-16,-15],[-4,-7],[-16,-3],[-5,-12],[-3,-7],[-4,-21],[-12,-8],[-13,-6],[-24,-11],[-32,-9],[-26,-3],[-22,2],[-5,-3],[-2,-7],[-11,-8],[-19,5],[-11,5],[-13,-5],[-2,-15],[0,-15],[1,-8],[-8,2],[-14,1],[-6,-4],[-1,-20],[-3,-10],[-11,-14],[-12,-12],[-27,-21],[-15,-4],[-6,-4],[6,-17],[-4,-8],[-22,-22],[-10,-10],[1,-27],[-36,-7],[-22,0],[-8,-20],[-29,-8],[-35,-1],[-5,-2],[-9,-7],[-6,-3],[2,13],[4,11],[4,11],[5,8],[9,3],[7,-2],[11,-8],[11,-2],[-12,18],[-9,8],[-13,-3],[-20,-4],[-10,-4],[-16,4],[0,-11],[2,-6],[13,-14],[-9,-14],[-5,-9],[-14,1],[-9,8],[-5,29],[-13,-1],[-12,3],[-18,10],[-10,-3],[-8,-5],[-10,-4],[-10,-2],[-10,1],[-6,4],[1,10],[-9,8],[-10,4],[-13,-11],[-8,-7],[-6,-10],[-4,-10],[9,-4],[2,3],[5,7],[7,-3],[28,-6],[10,0],[12,-10],[-16,-5],[-12,-6],[-30,-7],[-4,-2],[-5,-7],[-11,-2],[-11,2],[-9,4],[-5,-11],[-2,-10],[-3,-28],[-3,-6],[-4,-6],[-3,-6],[3,-8],[11,-9],[2,-4],[2,-10],[10,-17],[4,-22],[3,-7],[2,-7],[-1,-12],[-7,-14],[-9,-8],[-9,-6],[-10,-9],[-9,-14],[1,-10],[5,-9],[3,-12],[4,-9],[18,-1],[7,-11],[-6,-21],[6,-7],[3,-10],[-3,-10],[-4,-13],[1,-10],[-7,-21],[-14,1],[-1,-11],[11,-5],[4,-7],[12,-9],[8,7],[4,20],[26,23],[33,39],[16,29],[27,-10],[22,-6],[16,-27],[24,-18],[6,-2],[1,-4],[-4,-7],[-1,-10],[8,-10],[1,-7],[4,-3],[6,2],[6,5],[4,4],[1,2],[6,2],[4,3],[4,0],[1,-8],[3,-6],[5,-2],[7,2],[5,3],[6,-12],[11,2],[36,23],[7,8],[17,24],[20,39],[5,6],[8,-6],[3,-14],[-2,-16],[-6,-12],[6,-4],[6,2],[4,5],[4,9],[2,-6],[3,-6],[5,-5],[5,-1],[6,3],[1,3],[0,3],[3,3],[1,6],[7,6],[2,0],[4,7],[-1,4],[-3,7],[10,5],[7,-4],[13,-14],[6,-3],[24,-8],[0,2],[3,3],[5,0],[2,-8],[0,-6],[2,-3],[3,-1],[5,1],[10,5],[3,10],[-2,11],[-7,10],[6,9],[4,-1],[2,-5],[4,-3],[20,0],[8,2],[23,10],[9,6],[10,-3],[28,11],[43,-16],[10,-8],[6,-2],[1,-6],[-12,-12],[-22,-18],[2,-14],[9,-5],[25,1],[0,5],[-10,0],[15,21],[14,3],[13,-9],[17,-15],[7,-4],[20,-8],[8,-6],[18,-26],[4,-4],[17,-3],[46,-16],[12,-8],[9,-7],[9,-5],[7,-9],[3,-15],[-3,-13],[-8,-6],[-8,1],[-6,9],[-2,-7],[-5,-14],[-3,-4],[-15,-12],[-2,-15],[10,1],[15,9],[22,19],[32,19],[8,10],[-1,14],[-15,33],[-4,16],[1,22],[5,7],[11,2],[18,8],[23,28],[-2,32],[-9,35],[2,38],[9,14],[10,7],[8,9],[4,22],[-2,20],[-2,13],[-5,18],[-7,12],[66,78],[24,19],[28,15],[16,2],[26,-16],[15,0],[14,4],[11,7],[15,-8],[7,-7],[3,-9],[-6,-1],[-9,-4],[-5,-1],[4,-11],[-1,-7],[-3,-7],[0,-11],[3,-4],[10,-12],[9,-22],[12,-12],[7,-11],[-11,-12],[7,-11],[9,0],[19,11],[3,2],[2,5],[3,4],[7,1],[2,-2],[2,-6],[3,-6],[3,-4],[21,1],[34,23],[18,6],[21,0],[11,3],[5,7],[-4,9],[-6,9],[-2,6],[12,2],[15,10],[14,17],[13,7],[13,-21],[21,15],[21,9],[78,8],[30,8],[19,16],[-5,28],[11,6],[7,-4],[7,-1],[7,0],[8,-1],[14,-8],[11,-10],[0,-6],[-15,-4],[-10,-29],[-15,-4],[3,11],[1,14],[-3,9],[-8,-6],[-12,-17],[-7,-8],[-4,0],[-1,-35],[4,-16],[13,-6],[6,4],[17,17],[14,6],[8,8],[4,2],[3,-2],[9,-8],[6,-2],[12,7],[5,17],[-5,18],[-15,11],[10,11],[13,9],[12,11],[13,45],[14,-6],[7,-16],[-13,-11],[0,-6],[18,0],[16,-5],[7,-10],[-7,-15],[-7,-3],[-10,-2],[-9,-3],[-4,-7],[4,-8],[9,-1],[10,3],[22,10],[11,10],[52,68],[7,18],[-5,5],[3,15],[8,5],[19,-1],[9,4],[16,11],[8,2],[15,-8],[-10,-18],[-28,-34],[45,19],[4,3],[4,4],[5,3],[14,3],[6,3],[4,5],[2,6],[8,6],[32,17],[21,8],[11,8],[11,5],[12,-5],[5,7],[2,-10],[4,-8],[4,-5],[5,4],[19,-16],[8,-22],[10,-18],[23,-5],[-3,22],[27,1],[56,-11],[13,20],[9,29],[13,20],[21,-8],[-3,8],[-1,1],[-1,3],[9,9],[11,8],[9,10],[0,15],[-7,11],[-12,3],[-14,-2],[-12,-5],[-19,-22],[-11,-8],[-10,5],[-3,15],[9,8],[12,5],[19,12],[11,2],[25,0],[13,-3],[16,-17],[11,-4],[21,4],[26,10],[21,15],[9,20],[-7,-4],[-7,-1],[-6,1],[-5,4],[11,8],[6,3],[13,2],[11,9],[6,2],[3,3],[15,21],[5,2],[14,2],[6,2],[-38,9],[-7,3],[-6,14],[9,1],[19,-9],[21,-3],[37,-9],[20,0],[-2,10],[4,10],[8,7],[10,4],[6,-2],[6,-6],[7,-4],[11,-1],[6,5],[19,25],[4,2],[3,-1],[2,1],[1,7],[1,6],[4,5],[5,3],[5,1],[-1,-12],[4,-7],[7,-4],[10,-1],[4,1],[5,2],[4,3],[4,3],[5,3],[4,-1],[4,-3],[5,-2],[94,9],[35,-9],[13,-8],[28,-23],[24,-8],[40,-27],[14,-12],[21,-9],[17,-21],[14,-2],[15,0],[0,-30],[-14,-4],[-13,-19],[-18,-27],[-11,-4],[-29,-15],[-9,-17],[-4,-8],[-7,-15],[-4,-7],[-6,-5],[-13,-8],[-18,-13],[-57,-103],[-12,-6],[-16,5],[-10,-23],[-9,-12],[7,-20],[16,-20],[26,8],[-8,-11],[-8,-16],[2,-3],[16,-7],[1,-17],[17,1],[35,8],[25,22],[16,9],[21,7],[18,11],[21,5],[15,7],[-6,15],[-18,19],[-5,10],[-2,16],[-12,9],[-1,11],[-2,10],[1,8],[4,33],[22,30],[17,28],[20,18],[9,22],[3,11],[0,-2284],[-2567,0],[16,53],[25,84],[14,55],[9,42],[13,32],[9,44],[7,17],[6,6],[4,2],[2,4],[2,21],[6,23],[3,8],[5,3],[9,2],[7,5],[19,13],[-11,18],[-13,13],[3,18],[14,-3],[12,-5],[16,4],[14,17],[-13,15],[-5,2],[-12,0],[-8,10],[-2,11],[12,26],[4,15],[3,4],[15,-2],[11,4],[4,5],[13,24],[3,9],[-1,7],[-1,3],[-1,1],[3,4],[3,5],[9,8],[9,15],[12,8],[4,12],[9,-4],[10,-15],[6,4],[0,13],[2,15],[2,2],[4,2],[3,4],[0,4],[1,3],[0,24],[7,19],[34,-5],[14,14],[10,-1],[13,6],[12,10],[5,12],[-4,5],[-21,-3],[-10,1],[6,10],[6,5],[7,3],[6,6],[8,14],[-4,7],[-6,3],[-4,6],[10,13],[22,17],[13,4],[15,8],[15,-3],[-2,9],[-15,3],[-19,4],[-10,-13],[-5,-2],[-3,4],[0,5],[-9,-5],[-5,2],[-4,5],[-5,3],[-6,-2],[-8,-3],[-7,13],[-11,0],[-15,15],[-8,6],[3,25],[11,15],[5,16],[12,1],[28,-2],[18,5],[3,11],[-12,25],[-4,-20],[-4,-5],[-7,-3],[-6,1],[-7,5],[-5,8],[-6,14],[-6,0],[-2,-11],[-2,-10],[-10,1],[-7,7],[-11,2],[-8,-4],[-12,7],[4,10],[11,13],[20,14],[-8,4],[-23,-1],[-19,-13],[-24,12],[12,22],[3,15],[13,17],[12,4],[5,6],[0,14],[8,18],[15,26],[-14,2],[-24,-14],[-21,-7],[-44,8],[-37,15],[-8,-14],[-33,15],[-31,-16],[-47,2],[-14,5],[-13,11],[-9,59],[6,20],[19,3],[11,-13],[6,-5],[15,0],[14,3],[4,14],[6,3],[18,5],[3,11],[-2,14],[4,12],[13,6],[11,-6],[17,-9],[7,3],[2,20],[13,28],[7,18],[-6,25],[8,24],[-2,18],[-5,17],[-12,23],[-18,31],[-16,23],[-14,2],[-15,-1],[-15,8],[-12,5],[-12,-2],[-16,0],[-22,-4],[-17,-8],[-10,-12],[-6,-19],[-12,-14],[-27,-24],[-4,-6],[-36,-6],[-32,5],[-29,1],[-20,20],[-27,3],[-22,7],[-31,5],[-19,4],[-13,-2],[-16,10],[-12,16],[-10,25],[-22,39],[-8,18],[-2,23],[-2,6],[2,30],[-15,-4],[-14,4],[-4,2],[1,4],[1,11],[12,9],[3,5],[5,7],[-2,7],[-3,8],[11,0],[2,12],[-7,9],[8,12],[0,5],[2,6],[6,10],[3,19],[-9,9],[-22,-8],[-20,-17],[-5,-19],[-12,-15],[-9,-7],[-12,-2],[-11,6],[-8,15],[-7,11],[-18,0],[-11,-5],[5,17],[-27,5],[-25,-1],[-18,-11],[-11,6],[-8,0],[-10,-1],[-6,-2],[-22,-34],[-15,-12],[-15,-2],[-35,3],[-12,-3],[-4,-4],[-2,-6],[-7,-7],[-16,-11],[-8,0],[-6,6],[-8,-27],[-4,-6],[-7,-6],[-6,-3],[-4,-5],[-1,-11],[6,-6],[8,-2],[2,-16],[-1,-17],[-12,-13],[-5,-9],[-12,-4],[-9,-9],[-10,-12],[-11,-11],[-30,-13],[-16,2],[-10,7],[-4,13],[-8,2],[-3,-7],[4,-15],[9,-8],[8,2],[5,-4],[8,-5],[9,-6],[9,5],[13,11],[14,9],[4,-10],[3,-7],[-4,-17],[-2,-13],[-6,-10],[-13,-1],[-11,-6],[-20,1],[-11,0],[-7,-11],[-3,-5],[-5,-1],[-4,-4],[-3,3],[-9,5],[-6,5],[8,13],[-3,7],[-15,-3],[-4,3],[-10,6],[-3,15],[6,8],[-3,8],[-8,6],[-9,4],[-3,-22],[-5,-6],[-5,-2],[-6,-2],[-9,0],[-8,1],[-4,-9],[2,-11],[-12,-11],[-8,-3],[-7,0],[-7,-1],[-8,-7],[-4,-8],[-1,-6],[4,-4],[9,-2],[6,-2],[2,-12],[7,-3],[23,6],[9,0],[-5,-11],[-8,-8],[-10,-4],[-9,-2],[-3,-2],[-8,-6],[-8,2],[-13,-5],[-23,-10],[-7,-8],[-4,-21],[-8,-10],[-9,-4],[-20,3],[-10,4],[-6,8],[0,8],[-3,9],[-7,-8],[-9,6],[3,10],[9,10],[3,9],[-14,17],[-23,13],[-18,-10],[-12,3],[-12,12],[1,-17],[-13,-18],[5,-28],[17,-21],[3,-13],[-6,-5],[-10,5],[-5,10],[-5,11],[-12,16],[-10,-2],[-6,-13],[-7,-11],[7,-9],[14,-16],[38,-26],[-4,-6],[6,-11],[-9,-9],[-9,-17],[-3,-29],[4,-19],[3,-12],[-10,4],[-8,8],[-5,10],[-4,23],[-5,15],[-46,14],[-32,-10],[-17,8],[2,24],[-5,8],[-21,-32],[-17,-2],[-21,19],[-8,-9],[-3,-20],[-4,-24],[9,-18],[4,-10],[2,-5],[-8,-8],[-5,2],[-6,-4],[-2,-15],[-8,-26],[9,-13],[19,0],[7,-2],[13,-13],[7,-2],[8,1],[5,4],[5,-6],[3,-5],[0,-5],[-3,-8],[8,-4],[8,-5],[6,-7],[3,-9],[-2,-10],[-16,-4],[3,-22],[5,2],[6,10],[11,0],[6,-3],[2,7],[4,19],[-2,19],[9,-3],[-1,-12],[2,-11],[3,-9],[14,15],[8,-1],[1,-8],[-10,-4],[0,-8],[2,-16],[-7,3],[-4,0],[7,-22],[3,-9],[10,-8],[10,1],[9,11],[8,6],[18,-13],[1,-17],[7,0],[14,10],[21,7],[22,-23],[25,-18],[1,-19],[-6,-20],[-7,-12],[1,-26],[40,-58],[12,-15],[-11,-4],[-38,17],[-38,13],[-6,-13],[-4,-7],[-11,-5],[-3,-5],[-3,-3],[-3,6],[-8,5],[-6,7],[-6,4],[-15,11],[10,9],[-3,15],[-10,8],[-2,32],[6,0],[4,-21],[4,-8],[6,7],[1,13],[-1,21],[1,8],[5,8],[-8,13],[-11,14],[-22,7],[-11,-20],[-7,-4],[-4,11],[2,14],[10,20],[5,5],[-3,7],[-4,1],[-4,-5],[-5,-4],[-2,0],[0,2],[0,8],[0,2],[-11,16],[-28,14],[-13,-22],[-2,-26],[-6,-6],[-2,-14],[3,-11],[-5,-13],[-11,-10],[0,-19],[5,-27],[10,-3],[6,-7],[7,-9],[2,-11],[1,-10],[3,-9],[6,-14],[8,-14],[17,-11],[8,-19],[9,4],[7,8],[12,-4],[4,-10],[2,-10],[4,-6],[7,-4],[7,-7],[15,-32],[0,-12],[25,2],[-9,-21],[-8,-6],[-7,10],[-7,-3],[-5,-7],[-9,-1],[0,-7],[5,-6],[8,5],[3,-6],[-3,-13],[-7,-13],[-8,-13],[-8,-22],[-6,-6],[-9,-4],[-9,-4],[-12,-10],[5,-11],[7,4],[10,7],[9,-4],[5,-2],[2,8],[17,13],[17,16],[4,14],[3,7],[10,1],[14,7],[15,12],[6,17],[10,15],[18,26],[9,15],[-4,11],[7,6],[2,-2],[1,-8],[6,-7],[14,2],[13,7],[18,4],[13,11],[10,11],[21,9],[24,-5],[9,0],[7,5],[22,-2],[9,-8],[-3,-8],[-3,-5],[3,-6],[7,-4],[8,-5],[2,-16],[-6,-8],[-8,-9],[-10,-8],[-7,-6],[-10,-11],[-8,-3],[-11,1],[1,-20],[0,-18],[13,-6],[6,-7],[11,-6],[2,-14],[-5,-9],[11,-1],[13,10],[18,2],[6,4],[3,11],[13,2],[4,7],[0,10],[6,6],[28,1],[26,13],[14,19],[-7,14],[3,12],[13,19],[2,8],[-1,28],[-2,12],[-15,35],[-9,20],[-23,18],[-47,-1],[-35,-27],[-12,-2],[-18,0],[-15,12],[-8,11],[-12,6],[7,4],[14,8],[11,7],[10,11],[18,5],[12,12],[0,20],[11,3],[2,18],[-13,15],[-32,55],[-11,27],[-10,15],[-3,16],[17,-8],[20,21],[30,21],[16,26],[12,-9],[24,-25],[7,0],[10,-1],[17,-5],[20,-2],[2,-5],[0,-8],[3,-10],[5,-6],[15,-11],[4,-2],[3,0],[4,-1],[4,-4],[2,-4],[-1,-12],[5,-17],[-1,-38],[4,-58],[6,-15],[22,-13],[33,-36],[56,-47],[9,-17],[2,-5],[2,-4],[2,-4],[-3,-5],[-8,-11],[-4,-7],[-1,-6],[2,-9],[5,-11],[8,-8],[10,-5],[0,-6],[-7,0],[-6,-2],[-12,-4],[-11,1],[-8,-4],[-16,-15],[-50,-26],[-13,-11],[-7,-12],[10,-5],[12,6],[119,23],[20,0],[-9,-22],[-11,-14],[-52,-47],[-4,-7],[3,-11],[16,-14],[6,-11],[-21,0],[-8,-3],[-6,-9],[12,-13],[3,-22],[-7,-22],[-15,-10],[-19,-27],[-4,-6],[3,-25],[-1,-11],[-6,-9],[-20,19],[-5,-2],[-6,-17],[-1,-8],[3,-8],[-2,-8],[-3,-5],[-10,-6],[-2,-5],[-7,-22],[-53,-59],[0,-3],[0,-13],[-1,-2],[-6,-3],[-3,-3],[0,-1],[-7,-24],[-2,-5],[-9,-10],[-16,-10],[-14,-5],[-22,29],[-30,-11],[-20,-24],[18,-19],[0,-21],[-13,-19],[-10,-8],[1,-17],[11,-11],[3,-5],[8,-8],[6,-17],[-610,0],[0,1074],[1,-1],[26,8],[25,18],[34,41],[7,18],[-1,13],[9,7],[0,9],[9,4],[9,11],[-8,7],[11,11],[10,15],[4,12],[-4,39],[-23,-5],[-1,-13],[12,-10],[-12,-9],[-5,8],[-6,4],[-10,-21],[-38,-9],[-1,-20],[-3,-26],[-22,-19],[1,-18],[6,-15],[-16,2],[-9,-9],[-3,-13],[5,-9],[8,-2],[5,-4],[3,-3],[-5,-7],[-11,-2],[-7,5],[0,962],[10,9],[2,7],[-6,4],[-5,-2],[-1,-1],[0,16],[3,6],[5,6],[11,5],[5,12],[-6,4],[-8,10],[-3,15],[3,5],[4,12],[-1,7],[-13,-15],[0,20],[7,6],[-4,26],[17,25],[32,29],[13,35],[6,22],[2,8],[2,8],[-11,11],[-7,9],[6,2],[8,-5],[6,3],[5,14],[0,9],[-7,4],[-6,2],[6,4],[4,5],[3,12],[-5,7],[-7,7],[-5,7],[-10,1],[-9,-7],[-11,1],[-4,-8],[6,-7],[-12,-2],[-14,-18],[-9,-9],[-2,1],[0,717]],[[582,152],[12,35],[2,11],[-5,17],[-8,6],[-16,1],[-16,7],[-8,1],[-5,-5],[-2,-12],[3,-16],[6,-15],[7,-8],[-4,-15],[5,-13],[11,-6],[13,3],[5,9]],[[482,203],[-6,8],[-5,-4],[-3,-8],[0,-5],[0,-4],[0,-6],[3,0],[8,10],[8,-14],[1,5],[0,2],[-2,9],[-5,5],[3,0],[-2,2]],[[464,210],[18,8],[18,11],[10,8],[16,21],[6,6],[16,9],[4,3],[15,34],[3,6],[17,7],[7,4],[6,9],[3,5],[2,7],[2,23],[-1,7],[-2,6],[-2,7],[-2,75],[-7,36],[-21,22],[-15,1],[-14,-4],[-13,-6],[-19,-5],[-15,-8],[-9,-2],[-8,2],[-6,5],[-7,5],[-9,0],[17,-27],[3,-17],[-7,-20],[-10,-14],[-9,-18],[-4,-17],[5,-14],[-6,-5],[-5,-7],[-3,-8],[-1,-9],[3,-20],[9,-17],[13,-7],[15,7],[12,-5],[6,-1],[7,0],[-8,-9],[-8,-2],[-9,0],[-10,-1],[-15,-10],[-22,-21],[-3,-6],[-2,-8],[0,-4],[13,7],[7,-1],[8,-1],[9,7],[-11,-46],[1,-8],[12,0]],[[291,524],[5,5],[3,1],[3,5],[1,4],[-1,2],[-6,1],[-3,-1],[-2,-17]],[[274,1424],[5,-3],[2,0],[1,2],[3,3],[3,2],[-5,10],[-10,-2],[-3,2],[-4,-2],[0,-5],[2,-3],[1,-1],[5,-3]],[[366,1421],[-4,-4],[0,-5],[0,-7],[3,-1],[10,8],[0,4],[-5,7],[-4,-2]],[[109,1363],[-13,-13],[-3,-9],[7,0],[3,0],[2,4],[6,2],[9,-4],[11,-2],[10,5],[6,8],[-3,7],[-12,-2],[-1,6],[-2,6],[-8,0],[-12,-8]],[[271,1333],[4,-7],[-1,-3],[-7,-12],[-4,-7],[-8,-7],[-3,-5],[4,-7],[9,-2],[6,4],[3,4],[3,0],[2,2],[1,5],[3,4],[4,1],[8,-2],[6,1],[1,3],[-6,4],[-8,7],[-1,2],[1,3],[2,3],[0,2],[-1,3],[-2,3],[-12,7],[-3,-2],[-1,-4]],[[155,1074],[-5,-4],[1,-4],[7,7],[0,8],[-3,6],[2,1],[2,-2],[0,8],[-6,2],[-3,-3],[-3,-7],[2,-4],[5,-4],[1,-4]],[[43,1238],[-1,26],[2,9],[-1,8],[-2,4],[0,4],[0,5],[0,5],[3,8],[-1,4],[-2,1],[-5,-4],[-2,-8],[0,-8],[-1,-5],[-7,-14],[-3,-28],[2,-10],[11,-1],[7,4]],[[96,1310],[-1,-11],[5,0],[0,4],[7,3],[3,3],[2,-1],[2,0],[3,1],[0,3],[1,2],[6,0],[-4,3],[-5,3],[-1,3],[-4,1],[-1,-4],[-5,-7],[-8,-3]],[[248,1333],[8,-12],[0,8],[0,1],[-1,0],[-7,3]],[[107,1044],[6,-5],[7,5],[6,-1],[0,11],[-4,4],[-4,-1],[-5,-1],[-3,-3],[-6,-2],[-3,-1],[-6,-1],[-2,-2],[7,-3],[7,0]],[[217,1044],[5,-1],[1,6],[-6,1],[-1,-4],[1,-2]],[[151,950],[-4,-1],[-7,1],[-4,0],[-2,-2],[1,-4],[2,-3],[3,-1],[-1,-3],[-6,-3],[-1,-3],[-12,1],[-3,-1],[2,-2],[2,-3],[5,-4],[8,-1],[4,4],[3,4],[9,5],[4,4],[2,5],[-1,4],[15,-2],[2,4],[10,9],[3,5],[1,4],[-2,2],[0,3],[4,3],[1,4],[-4,0],[-5,-1],[-11,2],[-1,-2],[-1,-3],[-6,-5],[-10,-20]],[[158,872],[6,-17],[12,-5],[6,11],[0,8],[-7,3],[-3,2],[-2,-1],[-2,1],[0,-2],[0,-1],[0,-1],[-2,1],[-1,-2],[-3,3],[1,5],[0,1],[-2,-1],[-2,-1],[-1,-4]],[[158,822],[1,-5],[6,2],[-2,7],[-5,-4]],[[290,657],[5,-7],[4,2],[-4,8],[-5,8],[-9,5],[3,-9],[2,0],[2,-3],[0,-2],[2,-2]],[[273,620],[3,-6],[2,3],[0,10],[-7,3],[-2,-5],[4,-5]],[[755,548],[-4,-11],[2,-11],[9,-7],[4,-3],[-2,8],[6,3],[10,2],[3,10],[3,15],[-1,9],[-5,5],[3,6],[2,7],[-5,5],[-7,3],[-6,-2],[-6,-6],[-2,-1],[-1,3],[-2,0],[-11,-18],[1,-6],[6,-4],[3,-7]],[[804,563],[2,-2],[4,2],[0,-6],[0,-7],[7,4],[10,11],[0,12],[-10,1],[-6,2],[-7,-3],[-2,-6],[3,-2],[-1,-2],[1,-2],[-1,-2]],[[806,549],[-5,9],[-6,-1],[-3,-4],[-2,-3],[1,-12],[1,-18],[4,2],[10,15],[0,12]],[[617,414],[14,-23],[17,7],[14,3],[29,3],[14,10],[8,2],[3,-10],[0,-19],[0,-10],[3,-4],[22,19],[31,85],[24,16],[-8,13],[-12,-2],[-22,-11],[-14,-2],[-6,0],[-2,6],[-2,6],[-5,4],[-6,0],[-15,-11],[-27,-9],[-11,-6],[-16,-12],[-14,-17],[-7,-4],[-10,-2],[-5,-2],[-3,-5],[-1,-12],[7,-13]],[[752,389],[3,-11],[3,0],[0,-4],[0,-7],[3,-1],[1,3],[4,2],[3,5],[-1,3],[-4,1],[0,5],[-6,6],[-2,4],[-4,-6]],[[690,364],[-1,3],[-2,-1],[-2,2],[-1,-1],[-1,-1],[-2,-5],[-4,1],[-4,-6],[9,-6],[3,2],[2,-2],[1,-1],[-6,-1],[1,-5],[3,0],[1,-1],[6,7],[10,4],[-5,2],[-1,3],[-5,3],[-2,-2],[-1,2],[1,3]],[[699,342],[-3,-11],[-1,-8],[-14,-7],[-4,-1],[-3,-3],[2,-2],[20,2],[18,14],[11,17],[-1,6],[-7,1],[-4,2],[-6,-1],[-8,-9]],[[610,286],[-1,-9],[0,-10],[3,-2],[6,4],[7,1],[7,4],[8,8],[7,8],[2,5],[-4,7],[-12,6],[-9,-3],[-1,-3],[-1,-1],[-5,-1],[-4,-5],[-3,-9]],[[592,271],[-1,8],[-5,-7],[-7,-4],[-3,-5],[-2,-5],[-1,-2],[-3,-3],[2,-7],[2,-1],[3,-3],[5,6],[1,5],[2,11],[4,4],[3,3]],[[596,243],[-4,-6],[8,-11],[2,5],[0,-5],[2,-5],[5,14],[-2,1],[0,3],[1,4],[-6,7],[-3,6],[-4,1],[1,-7],[0,-7]],[[429,1393],[3,-5],[6,4],[0,12],[-10,-5],[3,0],[-2,-6]],[[354,1459],[1,10],[-5,-1],[-1,-4],[-2,-3],[-2,-3],[0,-1],[1,-2],[-1,-2],[7,-11],[5,3],[1,2],[0,3],[-2,1],[-2,2],[-1,4],[1,2]],[[669,1464],[5,-5],[9,12],[-8,16],[-4,-16],[-2,-7]],[[309,1586],[0,12],[-17,8],[0,5],[4,2],[7,3],[4,1],[-11,5],[-11,9],[-3,9],[0,10],[4,11],[0,7],[-49,15],[-9,9],[-1,-10],[-6,-10],[-4,-14],[4,-16],[-16,1],[1,-11],[2,-17],[19,-16],[0,-6],[-7,2],[-22,10],[2,-15],[5,-11],[10,6],[8,-5],[-3,-13],[10,-12],[14,-13],[8,-3],[1,17],[9,17],[19,1],[17,1],[11,11]],[[185,1570],[4,2],[5,-1],[-1,3],[3,4],[-3,2],[-2,2],[-8,-4],[2,-8]],[[717,1601],[2,-12],[3,4],[3,0],[7,-1],[-1,3],[-7,5],[-7,1]],[[764,1708],[10,8],[3,13],[-9,2],[-11,-2],[-5,-4],[3,-9],[9,-8]],[[816,1717],[8,-4],[-2,7],[-4,4],[0,5],[-9,1],[4,-8],[3,-5]],[[1085,1790],[-3,-12],[2,1],[3,7],[-2,4]],[[1282,2503],[-5,-6],[5,-20],[3,-2],[7,1],[5,3],[3,4],[1,7],[-3,2],[-4,0],[-3,2],[0,3],[1,3],[-1,2],[-9,1]],[[1384,2265],[1,-19],[10,6],[2,3],[-2,4],[-2,1],[-3,-1],[-6,6]],[[1475,2251],[4,-13],[9,8],[-3,9],[-1,5],[-9,-9]],[[1065,2117],[7,-10],[3,5],[4,4],[6,2],[4,2],[7,9],[-2,3],[-3,0],[-1,2],[-5,3],[2,-8],[-5,-4],[-6,-5],[-11,-3]],[[1026,1894],[7,-2],[2,-4],[1,10],[-1,4],[-3,0],[-7,3],[-6,3],[3,-11],[4,-3]],[[2660,3563],[27,2],[10,-2],[-9,12],[-15,11],[-16,5],[-8,-9],[0,-6],[2,-6],[4,-5],[5,-2]],[[2697,3613],[0,-26],[15,15],[17,22],[9,24],[-10,18],[-20,-7],[-9,-19],[-2,-27]],[[2693,3664],[10,3],[1,6],[-1,8],[-9,1],[-13,-3],[-13,5],[-18,-17],[-33,-26],[-14,-18],[12,-11],[11,-8],[10,-1],[7,8],[-8,16],[-2,10],[7,4],[7,0],[3,-2],[2,-4],[0,-9],[2,-4],[5,-4],[7,-2],[6,1],[8,6],[1,6],[-2,6],[-2,9],[5,16],[11,4]],[[2706,3673],[2,-7],[14,3],[-14,9],[-2,-5]],[[2877,3738],[6,6],[7,5],[6,-1],[6,-10],[10,5],[4,9],[2,44],[-11,15],[-3,4],[-3,8],[-4,6],[-3,2],[-10,3],[-4,4],[-3,4],[-2,8],[-2,3],[-7,2],[-7,1],[-6,4],[-1,11],[-60,-40],[-9,-17],[-7,-55],[4,-9],[7,-3],[35,-30],[4,-3],[16,0],[29,-5],[6,-1],[8,7],[3,8],[-2,8],[-9,7]],[[3595,1429],[10,6],[10,-2],[10,4],[5,6],[3,11],[18,20],[-9,10],[20,17],[39,14],[59,41],[6,14],[17,3],[7,25],[20,1],[7,15],[25,3],[10,11],[27,13],[22,11],[14,8],[-8,5],[-13,-6],[-24,-5],[0,6],[6,1],[8,4],[6,1],[0,5],[-41,-1],[-11,6],[12,20],[8,5],[10,4],[3,9],[9,9],[-1,13],[0,14],[-9,5],[5,8],[-24,15],[-9,15],[-10,22],[-8,-2],[-2,-10],[-9,0],[-5,3],[-3,8],[-4,18],[0,9],[0,5],[5,16],[4,3],[-2,15],[1,23],[12,21],[-1,5],[2,9],[8,14],[5,12],[-10,-2],[-6,4],[-9,2],[15,3],[-2,5],[0,7],[2,7],[9,14],[5,12],[-14,-5],[-13,-15],[-12,-2],[5,13],[8,10],[-3,10],[-9,-17],[-10,-2],[-15,-7],[-48,2],[-19,-15],[-21,1],[-17,14],[-8,9],[-3,8],[-3,5],[-9,1],[-20,-3],[-10,3],[-16,17],[-9,3],[-9,2],[-28,17],[9,25],[-8,10],[-16,6],[-15,13],[-4,-7],[-16,-20],[-5,-4],[-12,4],[-3,9],[0,24],[-3,11],[-4,10],[-7,5],[-11,-2],[-3,-8],[-1,-12],[-4,-6],[-12,14],[-9,-19],[-5,-6],[-26,7],[-6,-1],[-12,-5],[-6,0],[-8,3],[-9,8],[-13,3],[-11,8],[-7,2],[-7,-1],[-12,-4],[-6,-1],[-9,-4],[-7,-11],[-6,-12],[-6,-9],[-22,-14],[-45,-21],[-20,-16],[-16,-17],[-23,-18],[-21,-7],[-13,14],[-12,-5],[-21,5],[-21,9],[-16,9],[10,-15],[12,-9],[11,-8],[12,-10],[10,-12],[5,-12],[4,-15],[2,-38],[-5,-40],[-6,-16],[-9,-13],[-25,-23],[-10,-12],[-8,-11],[-10,-11],[-12,-9],[-15,-5],[-18,1],[-35,14],[-17,3],[-40,-3],[-14,7],[-13,0],[-17,-8],[-15,2],[-22,-8],[-4,-16],[-25,-8],[-26,-6],[-20,-8],[-14,2],[-14,7],[-15,7],[-7,9],[-6,13],[-6,15],[-21,54],[-40,49],[-8,5],[-4,6],[-5,4],[-8,14],[-10,-19],[-10,1],[-13,2],[-2,-9],[8,0],[15,-1],[3,-15],[-6,-9],[-2,-14],[-42,-11],[-11,-14],[-35,-24],[-21,-15],[2,-35],[-11,-19],[-2,-22],[-31,-5],[-4,-24],[-6,-23],[-6,-33],[4,-24],[1,-26],[-15,-36],[-23,-23],[-19,-14],[-12,-12],[-74,-31],[-15,-15],[-7,-5],[-21,-26],[-4,-8],[-6,-14],[-11,-11],[-87,-44],[-21,-19],[-17,0],[-14,-9],[-16,1],[-21,-8],[-11,-8],[1,-7],[7,-8],[-10,-4],[-13,4],[-30,-10],[-31,-29],[-16,-9],[-14,-14],[11,-4],[35,20],[27,17],[-7,-15],[10,-5],[12,-1],[6,10],[8,13],[21,16],[26,14],[28,15],[18,6],[22,15],[10,-6],[8,5],[8,4],[14,1],[13,-2],[29,-19],[-7,-2],[-5,-4],[-5,-6],[-2,-7],[10,0],[0,-6],[-13,-16],[0,-21],[8,-10],[14,11],[-3,-25],[-1,-5],[-6,-5],[-12,-1],[-5,-3],[-4,-10],[9,-3],[8,-6],[13,-5],[49,11],[28,-2],[-2,-6],[-13,-3],[-15,-12],[0,-12],[6,-5],[7,-4],[4,-8],[12,5],[13,-1],[-13,-11],[9,-6],[9,-14],[-9,-8],[-16,-4],[-9,-13],[2,-15],[-14,-11],[-6,11],[-12,9],[-1,11],[-10,1],[-19,4],[-18,-5],[3,-15],[12,2],[6,8],[10,-6],[9,-6],[6,-10],[-15,-5],[-1,-11],[3,-12],[7,-5],[22,0],[7,-3],[-2,-7],[-5,-6],[-3,-3],[-3,-1],[-17,1],[0,-5],[10,-3],[5,-9],[0,-12],[-5,-12],[15,0],[-8,-11],[-15,-3],[-31,15],[-9,-10],[3,-12],[-13,-22],[10,-3],[17,32],[16,-8],[22,-2],[7,-15],[15,-27],[-4,-7],[-10,-13],[8,-19],[-16,-14],[14,-28],[10,-9],[12,-2],[12,6],[-4,3],[-6,7],[-5,2],[5,18],[9,1],[12,-5],[14,-2],[-10,12],[12,-4],[32,-22],[6,-1],[9,3],[51,0],[-3,-11],[-9,-11],[-22,-24],[-12,-28],[-17,-23],[-2,-23],[6,-19],[26,24],[34,9],[14,-13],[20,-19],[11,-6],[14,-5],[15,0],[13,7],[10,11],[11,8],[9,-1],[7,-14],[9,19],[16,3],[17,-7],[13,-10],[4,-7],[7,-17],[4,-6],[5,-4],[13,-7],[19,8],[0,16],[-8,16],[-9,13],[-14,13],[-6,7],[-5,11],[-11,6],[2,19],[-2,15],[4,10],[21,-1],[9,6],[5,30],[-10,40],[5,33],[12,33],[25,14],[16,-10],[11,-8],[6,4],[1,8],[-2,13],[8,12],[18,24],[24,43],[18,23],[10,-1],[4,-10],[12,7],[-6,6],[-2,19],[9,6],[10,10],[9,12],[4,20],[1,4],[4,2],[3,3],[1,7],[-1,4],[-3,3],[-1,4],[-2,7],[-5,5],[-2,8],[5,10],[-3,17],[11,19],[16,15],[15,10],[5,-4],[5,-2],[-2,-15],[4,1],[13,20],[7,7],[6,4],[8,1],[12,1],[17,2],[18,8],[11,11],[-3,15],[11,20],[59,28],[31,14],[13,13],[47,11],[49,8],[17,-16],[67,-17],[51,-6],[13,-31],[19,-20],[20,-10],[21,-8],[11,-28],[29,-39],[20,-21],[-1,-19],[16,-4],[10,2],[12,-19],[13,-30],[10,11],[1,20],[4,23],[1,11],[7,26],[5,33],[22,74],[21,42],[17,20],[12,11],[2,10],[-3,16]],[[2326,690],[-5,6],[-3,3],[-2,2],[-5,3],[-4,-4],[-2,-11],[0,-11],[2,-11],[5,-4],[10,5],[5,7],[1,7],[-2,8]],[[1857,684],[-1,2],[-1,-6],[0,-5],[4,-3],[1,1],[2,4],[-2,6],[-3,1]],[[2271,695],[-1,2],[-4,-2],[0,-6],[1,0],[3,2],[1,4]],[[1852,727],[-5,1],[0,-7],[6,-2],[4,3],[-5,5]],[[2263,743],[5,2],[2,0],[4,2],[1,4],[-10,1],[-2,-9]],[[2246,875],[-3,5],[-12,-6],[-1,-2],[6,-1],[10,4]],[[1970,895],[-1,5],[-7,-6],[-4,-5],[2,-1],[4,-7],[4,5],[2,4],[0,1],[0,4]],[[1871,938],[-4,1],[-5,0],[-3,-3],[-2,-2],[-1,-5],[-2,-4],[1,-3],[-3,-2],[-3,-2],[-1,-8],[2,-3],[3,0],[3,0],[6,7],[11,5],[-6,4],[-5,0],[1,1],[2,5],[4,5],[2,4]],[[1914,1010],[8,6],[-4,6],[-5,-4],[1,-7],[0,-1]],[[2214,1024],[-5,-8],[2,-3],[4,8],[3,1],[-4,2]],[[2145,1013],[9,8],[-12,-2],[3,-6]],[[2135,1063],[0,5],[-4,-3],[-5,1],[-4,3],[3,5],[1,0],[0,5],[-3,2],[-2,-2],[-5,1],[-2,-2],[-6,1],[-3,4],[-3,-4],[2,-7],[12,1],[3,-4],[1,-6],[2,-2],[6,-2],[10,-5],[2,2],[-5,2],[0,5]],[[2189,1107],[-2,10],[-2,2],[-1,-3],[-2,-2],[-1,-1],[-5,-4],[-7,-4],[-4,2],[-5,-3],[5,0],[3,-3],[1,-1],[1,-5],[0,-4],[3,-2],[3,2],[-2,5],[1,3],[0,2],[3,2],[5,2],[6,2]],[[2254,1149],[3,6],[2,5],[-3,4],[-4,2],[2,-5],[-1,-3],[-3,-4],[-1,-3],[5,-2]],[[1874,1164],[6,3],[1,4],[-7,2],[-5,0],[-2,-2],[2,-2],[5,-5]],[[2172,1257],[-5,1],[-5,-2],[8,-5],[2,-3],[3,3],[-3,6]],[[2024,1565],[-5,10],[3,7],[0,3],[-3,4],[4,7],[-3,1],[-2,-4],[-2,-4],[-1,-3],[-2,-3],[0,-6],[2,-2],[-3,-8],[-7,-7],[3,-8],[16,13]],[[1675,1575],[-4,1],[-3,0],[-7,-6],[-9,-3],[-7,-5],[-1,-4],[13,-3],[14,2],[9,8],[2,4],[-3,4],[-4,2]],[[2260,1575],[-2,-5],[4,1],[5,1],[3,1],[1,2],[-3,1],[-5,0],[-3,-1]],[[2076,1629],[-13,0],[-9,-6],[-5,-12],[11,2],[24,-12],[15,-2],[11,2],[1,4],[-16,11],[-6,7],[-13,6]],[[1890,1604],[11,5],[2,9],[-10,8],[-8,-4],[-13,-11],[3,-5],[6,-4],[9,2]],[[2184,1666],[2,9],[2,9],[1,21],[3,7],[7,5],[18,5],[6,-2],[6,0],[16,22],[8,9],[-11,-1],[-19,3],[-9,-2],[-4,-4],[-2,-9],[-4,-6],[-5,-1],[-11,2],[-4,-1],[-15,-12],[-10,-5],[-10,-1],[-20,30],[-14,10],[-19,8],[-20,2],[-18,-7],[-11,-21],[5,-21],[11,-20],[6,-17],[7,5],[4,3],[3,4],[6,-7],[8,4],[13,-5],[9,1],[3,6],[2,10],[5,4],[9,-7],[5,7],[8,-8],[0,-8],[0,-8],[2,-8],[6,-2],[16,0],[9,-3]],[[2159,1759],[10,-8],[1,1],[0,10],[-4,8],[-5,-1],[-3,-5],[0,-4],[1,-1]],[[2340,1767],[9,-6],[14,4],[10,10],[1,8],[1,4],[3,4],[2,6],[1,9],[-1,10],[-2,2],[-3,-5],[-9,-8],[-5,-3],[-3,-2],[-5,-4],[-7,-7],[-7,-10],[1,-12]],[[2323,1796],[-8,4],[-11,-3],[-3,-2],[1,-7],[2,-3],[-3,-5],[0,-4],[3,-5],[4,5],[5,8],[2,2],[2,5],[6,5]],[[2289,1796],[-3,2],[-1,-1],[-1,-1],[-3,-1],[-5,-3],[-3,-4],[1,-7],[-2,-1],[-2,-3],[2,-3],[2,3],[5,2],[1,3],[5,2],[4,6],[3,4],[1,1],[-4,1]],[[2108,1806],[-5,9],[-2,-8],[3,-4],[5,-1],[-1,4]],[[2221,1815],[1,4],[0,1],[-2,3],[-4,5],[-7,4],[-5,-7],[5,-6],[12,-4]],[[2386,1766],[4,-4],[6,5],[3,-1],[3,2],[-1,3],[0,5],[-4,5],[-4,2],[-4,-5],[-3,-12]],[[2313,1751],[-6,-2],[-3,-1],[-5,0],[-5,0],[-3,1],[-3,-2],[-1,-3],[5,-3],[5,-1],[2,1],[11,4],[6,4],[-3,2]],[[2414,1740],[-1,-3],[-5,0],[-2,-5],[-2,-5],[-3,0],[-4,0],[-2,0],[-4,-4],[-4,-8],[5,4],[4,-2],[-1,-10],[0,-8],[-1,-4],[3,-5],[3,1],[4,4],[5,-2],[4,1],[0,3],[-4,3],[-1,2],[-4,6],[4,11],[8,1],[0,11],[3,5],[1,5],[-4,-1],[-2,0]],[[2295,1673],[4,-7],[2,6],[-8,5],[-2,-2],[4,-2]],[[2303,1858],[-3,12],[-3,-4],[-3,-5],[-1,-5],[1,-7],[5,-2],[4,11]],[[2299,1878],[17,-10],[10,4],[8,22],[-2,16],[-19,-9],[-1,12],[-1,10],[-2,10],[-6,11],[5,1],[2,3],[1,4],[2,4],[-6,5],[-8,1],[-9,-3],[-10,-6],[-7,-9],[10,-22],[-9,-13],[-17,-11],[-14,-15],[17,-7],[39,2]],[[2214,1946],[-4,10],[-4,-1],[-10,6],[-6,-3],[1,-15],[3,-5],[6,-4],[14,12]],[[2382,1964],[2,-8],[5,3],[3,0],[2,-4],[1,0],[5,3],[3,0],[0,4],[6,8],[-4,9],[-4,6],[-8,-4],[-10,-10],[-1,-7]],[[2143,1974],[-3,4],[-6,2],[-8,-1],[0,-8],[4,1],[3,-4],[10,6]],[[2613,1998],[-6,-18],[6,-5],[26,14],[26,-1],[12,14],[3,17],[-8,27],[-10,20],[-15,-4],[-16,-16],[-13,-18],[7,0],[5,-3],[4,-6],[-1,-9],[-4,-4],[-12,-4],[-4,-4]],[[2786,2035],[1,-15],[5,-1],[2,5],[-2,5],[2,5],[14,12],[0,10],[-5,6],[-4,-2],[-4,-3],[-10,-13],[-1,-6],[2,-3]],[[3090,2040],[1,-7],[1,-2],[2,2],[4,5],[7,4],[1,3],[10,-1],[-1,4],[1,1],[2,2],[0,2],[-9,-3],[-6,-3],[-5,10],[-4,1],[0,-7],[2,-3],[-4,-3],[-2,-5]],[[2761,2023],[-4,1],[-7,-2],[-1,-2],[1,-8],[12,1],[-1,10]],[[2718,2014],[-4,3],[-18,-5],[-7,1],[-3,0],[-2,-6],[1,-7],[-6,-8],[3,-2],[1,0],[4,0],[11,-10],[15,4],[4,-8],[7,0],[6,14],[2,1],[5,5],[3,3],[-5,-1],[-6,0],[-3,1],[-4,2],[-3,6],[-1,7]],[[2831,1978],[0,-3],[6,-8],[2,1],[2,4],[-2,3],[-1,4],[-2,3],[-2,-1],[-3,-3]],[[2867,1967],[-4,-1],[6,-9],[9,2],[-5,6],[-6,2]],[[2714,1956],[-2,4],[-4,-1],[-8,1],[-5,5],[-3,6],[-12,5],[-16,-3],[-5,-12],[5,-13],[2,-7],[-3,0],[-5,1],[-4,-5],[-2,-11],[0,-16],[8,-6],[13,6],[35,37],[6,9]],[[3021,1924],[6,-10],[8,6],[-3,2],[-5,4],[-6,-2]],[[2504,1940],[21,6],[12,10],[3,11],[-7,5],[-1,4],[-2,3],[-3,-1],[-3,-3],[-3,0],[-3,-3],[-10,-3],[-9,-9],[-3,-8],[0,-6],[3,-4],[5,-2]],[[2450,1946],[6,3],[6,4],[4,9],[-5,10],[-12,7],[-7,2],[-14,4],[-10,-3],[-5,-9],[7,-8],[18,-9],[6,1],[4,-3],[1,-6],[1,-2]],[[2473,1953],[8,-5],[13,10],[-14,13],[-7,-18]],[[2590,2048],[-2,8],[-6,-6],[-9,-13],[-8,-5],[-8,0],[-21,-10],[-3,0],[-5,-5],[-3,-10],[5,-12],[10,-6],[14,0],[17,4],[8,8],[2,10],[7,17],[2,20]],[[2902,1798],[2,-1],[3,3],[2,1],[-1,7],[-1,4],[-3,0],[-4,-1],[-6,-5],[2,-5],[6,-3]],[[3128,2091],[-6,1],[2,-9],[5,-7],[3,-2],[5,9],[-9,8]],[[2969,2108],[-8,6],[-7,-1],[-3,-2],[4,-7],[2,1],[3,-2],[4,-1],[7,1],[-2,5]],[[3053,2119],[5,-7],[4,2],[3,3],[4,5],[-1,3],[-6,-1],[-9,-5]],[[3146,2118],[6,-2],[2,2],[5,4],[5,4],[4,7],[-1,11],[-6,11],[-6,1],[-2,-5],[-10,-12],[-2,-11],[5,-10]],[[3047,2133],[0,5],[-2,0],[-2,-1],[-2,1],[-3,0],[0,6],[4,6],[2,0],[2,1],[-2,4],[-6,2],[-7,0],[-1,-4],[-6,-1],[0,-2],[-2,0],[-2,2],[-4,-5],[9,-10],[7,-7],[4,-3],[9,2],[2,4]],[[3123,2148],[2,-6],[5,7],[1,3],[3,4],[-1,2],[-2,0],[1,7],[-5,2],[-7,-2],[-5,1],[5,-9],[1,-7],[2,-2]],[[3409,2164],[-4,2],[-2,-5],[-3,-7],[-3,-15],[6,10],[4,1],[1,6],[1,8]],[[3209,2156],[-4,3],[0,-1],[-3,-3],[-4,-3],[-1,-1],[-4,0],[-2,3],[-3,3],[2,-10],[2,-6],[-1,-5],[1,-6],[4,0],[5,5],[5,6],[4,1],[2,2],[5,2],[1,3],[-4,5],[-3,1],[-2,1]],[[3409,2172],[7,8],[-3,8],[-5,-6],[0,-9],[1,-1]],[[3195,2184],[-3,1],[0,-3],[3,-7],[6,-2],[5,6],[-2,2],[-6,1],[-3,2]],[[3549,2205],[-3,-31],[13,3],[8,12],[8,15],[11,11],[15,4],[7,-6],[-4,-7],[-13,-3],[0,-5],[10,1],[9,-1],[7,-5],[3,-8],[16,48],[4,25],[-2,11],[-4,9],[-2,8],[3,8],[-10,0],[-25,-6],[-26,-3],[-9,-3],[-31,-19],[-18,-6],[-21,7],[-3,-10],[1,-11],[0,-9],[-8,-6],[7,-12],[11,0],[14,5],[13,1],[15,-8],[4,-9]],[[3429,2211],[14,19],[1,8],[-2,1],[-5,0],[-6,5],[-2,3],[-9,-2],[-12,-8],[-7,-2],[-5,-3],[-2,-3],[3,-2],[7,-3],[13,-7],[6,-5],[6,-1]],[[3369,2207],[-15,18],[-4,-1],[-6,3],[-1,-5],[10,-22],[6,-3],[8,0],[2,-1],[8,6],[0,2],[-4,1],[-4,2]],[[3375,2240],[7,-14],[1,13],[2,9],[-3,5],[-8,-7],[1,-6]],[[3966,1964],[-2,-3],[1,-4],[-3,-4],[-3,-2],[0,-5],[4,-5],[0,2],[4,1],[2,3],[3,11],[-6,6]],[[3961,1679],[-3,-5],[-3,1],[-1,-5],[1,-7],[4,2],[4,3],[1,4],[1,7],[-4,0]],[[3717,2369],[5,2],[8,2],[2,3],[-2,4],[-3,2],[1,4],[0,7],[-4,4],[-3,-5],[-1,-3],[-2,0],[-2,3],[-1,-2],[-1,-3],[-3,3],[-2,1],[-3,1],[0,-5],[-2,-2],[-1,-3],[0,-5],[-1,-3],[6,-4],[9,8],[3,-2],[2,1],[0,-3],[-3,-2],[-2,-3]],[[3755,2390],[4,-4],[4,0],[2,7],[-1,3],[1,2],[-1,8],[-5,-2],[-2,-1],[-1,-3],[-1,3],[2,3],[2,3],[-1,2],[-6,-1],[-4,-3],[-5,-2],[-5,-3],[3,-1],[1,-4],[4,-2],[5,-3],[4,-2]],[[3783,2387],[5,-7],[2,4],[7,4],[-1,8],[-7,4],[-3,1],[-3,-1],[-2,-3],[-1,-5],[3,-5]],[[2162,2066],[-4,8],[-7,2],[-11,-6],[-11,-7],[-9,-11],[-14,-23],[1,-8],[8,-5],[12,4],[22,19],[14,15],[0,4],[-1,8]],[[2221,2071],[5,-3],[3,2],[5,-2],[-1,4],[3,9],[0,8],[-5,4],[-5,-3],[0,-5],[-1,-3],[-6,-6],[-4,-2],[2,-3],[4,0]],[[1925,1684],[-1,4],[-3,0],[-1,-9],[-4,1],[-5,0],[2,-4],[14,-4],[0,4],[-1,6],[-1,2]],[[1955,1690],[4,-5],[4,4],[-3,4],[-1,5],[-2,4],[-4,-5],[2,-7]],[[1810,1770],[7,8],[5,0],[-1,3],[-5,9],[-4,-2],[-2,8],[-2,-5],[-2,-4],[-1,-4],[-3,-2],[-5,-3],[3,-2],[2,-7],[-1,-4],[-5,3],[-6,-2],[0,-6],[-4,0],[-5,1],[-2,4],[1,3],[-5,-1],[-5,-6],[0,-8],[8,-4],[2,-2],[0,-5],[2,1],[6,2],[4,2],[9,10],[7,4],[2,9]],[[1701,1820],[-2,10],[3,6],[-7,-5],[0,-8],[-5,-7],[-3,-3],[3,-2],[5,-5],[4,-2],[3,-5],[5,-5],[3,-6],[7,7],[-9,5],[-7,10],[0,10]],[[1711,1835],[9,-9],[6,2],[3,5],[4,0],[5,6],[3,2],[0,4],[-4,3],[-3,-1],[-4,-9],[-6,2],[-2,1],[-3,0],[-2,-1],[-4,-1],[-2,-4]],[[1775,620],[5,0],[5,1],[-2,-1],[-1,-3],[2,0],[3,7],[6,8],[-6,-1],[-3,1],[-5,5],[-3,-3],[-3,-2],[1,-1],[1,-2],[-2,-3],[3,-4],[-1,-2]],[[1664,463],[14,-3],[12,-5],[16,4],[14,17],[-13,15],[-5,2],[-12,0],[-8,10],[-2,11],[12,26],[4,15],[3,4],[15,-2],[11,4],[4,5],[13,24],[3,9],[-1,7],[-1,3],[-1,1],[3,4],[3,5],[9,8],[9,15],[12,8],[4,12],[9,-4],[10,-15],[6,4],[0,13],[2,15],[2,2],[4,2],[3,4],[0,4],[1,3],[0,24],[7,19],[34,-5],[14,14],[10,-1],[13,6],[12,10],[5,12],[-4,5],[-21,-3],[-10,1],[6,10],[6,5],[7,3],[6,6],[8,14],[-4,7],[-6,3],[-4,6],[10,13],[22,17],[13,4],[15,8],[15,-3],[-2,9],[-15,3],[-19,4],[-10,-13],[-5,-2],[-3,4],[0,5],[-9,-5],[-5,2],[-4,5],[-5,3],[-6,-2],[-8,-3],[-7,13],[-11,0],[-15,15],[-8,6],[3,25],[11,15],[5,16],[12,1],[28,-2],[18,5],[3,11],[-12,25],[-4,-20],[-4,-5],[-7,-3],[-6,1],[-7,5],[-5,8],[-6,14],[-6,0],[-2,-11],[-2,-10],[-10,1],[-7,7],[-11,2],[-8,-4],[-12,7],[4,10],[11,13],[20,14],[-8,4],[-23,-1],[-19,-13],[-24,12],[12,22],[3,15],[13,17],[12,4],[5,6],[0,14],[8,18],[15,26],[-14,2],[-24,-14],[-21,-7],[-44,8],[-37,15],[-8,-14],[-33,15],[-31,-16],[-47,2],[-14,5],[-13,11],[-9,59],[6,20],[19,3],[11,-13],[6,-5],[15,0],[14,3],[4,14],[6,3],[18,5],[3,11],[-2,14],[4,12],[13,6],[11,-6],[17,-9],[7,3],[2,20],[13,28],[7,18],[-6,25],[8,24],[-2,18],[-5,17],[-12,23],[-18,31],[-16,23],[-14,2],[-15,-1],[-15,8],[-12,5],[-12,-2],[-16,0],[-22,-4],[-17,-8],[-10,-12],[-6,-19],[-12,-14],[-27,-24],[-4,-6],[-36,-6],[-32,5],[-29,1],[-20,20],[-27,3],[-22,7],[-31,5],[-19,4],[-13,-2],[-16,10],[-12,16],[-10,25],[-22,39],[-8,18],[-2,23],[-2,6],[2,30],[-15,-4],[-14,4],[-4,2],[1,4],[1,11],[12,9],[3,5],[5,7],[-2,7],[-3,8],[11,0],[2,12],[-7,9],[8,12],[0,5],[2,6],[6,10],[3,19],[-9,9],[-22,-8],[-20,-17],[-5,-19],[-12,-15],[-9,-7],[-12,-2],[-11,6],[-8,15],[-7,11],[-18,0],[-11,-5],[5,17],[-27,5],[-25,-1],[-18,-11],[-11,6],[-8,0],[-10,-1],[-6,-2],[-22,-34],[-15,-12],[-15,-2],[-35,3],[-12,-3],[-4,-4],[-2,-6],[-7,-7],[-16,-11],[-8,0],[-6,6],[-8,-27],[-4,-6],[-7,-6],[-6,-3],[-4,-5],[-1,-11],[6,-6],[8,-2],[2,-16],[-1,-17],[-12,-13],[-5,-9],[-12,-4],[-9,-9],[-10,-12],[-11,-11],[-30,-13],[-16,2],[-10,7],[-4,13],[-8,2],[-3,-7],[4,-15],[9,-8],[8,2],[5,-4],[8,-5],[9,-6],[9,5],[13,11],[14,9],[4,-10],[3,-7],[-4,-17],[-2,-13],[-6,-10],[-13,-1],[-11,-6],[-20,1],[-11,0],[-7,-11],[-3,-5],[-5,-1],[-4,-4],[-3,3],[-9,5],[-6,5],[8,13],[-3,7],[-15,-3],[-4,3],[-10,6],[-3,15],[6,8],[-3,8],[-8,6],[-9,4],[-3,-22],[-5,-6],[-5,-2],[-6,-2],[-9,0],[-8,1],[-4,-9],[2,-11],[-12,-11],[-8,-3],[-7,0],[-7,-1],[-8,-7],[-4,-8],[-1,-6],[4,-4],[9,-2],[6,-2],[2,-12],[7,-3],[23,6],[9,0],[-5,-11],[-8,-8],[-10,-4],[-9,-2],[-3,-2],[-8,-6],[-8,2],[-13,-5],[-23,-10],[-7,-8],[-4,-21],[-8,-10],[-9,-4],[-20,3],[-10,4],[-6,8],[0,8],[-3,9],[-7,-8],[-9,6],[3,10],[9,10],[3,9],[-14,17],[-23,13],[-18,-10],[-12,3],[-12,12],[1,-17],[-13,-18],[5,-28],[17,-21],[3,-13],[-6,-5],[-10,5],[-5,10],[-5,11],[-12,16],[-10,-2],[-6,-13],[-7,-11],[7,-9],[14,-16],[38,-26],[-4,-6],[6,-11],[-9,-9],[-9,-17],[-3,-29],[4,-19],[3,-12],[-10,4],[-8,8],[-5,10],[-4,23],[-5,15],[-46,14],[-32,-10],[-17,8],[2,24],[-5,8],[-21,-32],[-17,-2],[-21,19],[-8,-9],[-3,-20],[-4,-24],[9,-18],[4,-10],[2,-5],[-8,-8],[-5,2],[-6,-4],[-2,-15],[-8,-26],[9,-13],[19,0],[7,-2],[13,-13],[7,-2],[8,1],[5,4],[5,-6],[3,-5],[0,-5],[-3,-8],[8,-4],[8,-5],[6,-7],[3,-9],[-2,-10],[-16,-4],[3,-22],[5,2],[6,10],[11,0],[6,-3],[2,7],[4,19],[-2,19],[9,-3],[-1,-12],[2,-11],[3,-9],[14,15],[8,-1],[1,-8],[-10,-4],[0,-8],[2,-16],[-7,3],[-4,0],[7,-22],[3,-9],[10,-8],[10,1],[9,11],[8,6],[18,-13],[1,-17],[7,0],[14,10],[21,7],[22,-23],[25,-18],[1,-19],[-6,-20],[-7,-12],[1,-26],[40,-58],[12,-15],[-11,-4],[-38,17],[-38,13],[-6,-13],[-4,-7],[-11,-5],[-3,-5],[-3,-3],[-3,6],[-8,5],[-6,7],[-6,4],[-15,11],[10,9],[-3,15],[-10,8],[-2,32],[6,0],[4,-21],[4,-8],[6,7],[1,13],[-1,21],[1,8],[5,8],[-8,13],[-11,14],[-22,7],[-11,-20],[-7,-4],[-4,11],[2,14],[10,20],[5,5],[-3,7],[-4,1],[-4,-5],[-5,-4],[-2,0],[0,2],[0,8],[0,2],[-11,16],[-28,14],[-13,-22],[-2,-26],[-6,-6],[-2,-14],[3,-11],[-5,-13],[-11,-10],[0,-19],[5,-27],[10,-3],[6,-7],[7,-9],[2,-11],[1,-10],[3,-9],[6,-14],[8,-14],[17,-11],[8,-19],[9,4],[7,8],[12,-4],[4,-10],[2,-10],[4,-6],[7,-4],[7,-7],[15,-32],[0,-12],[25,2],[-9,-21],[-8,-6],[-7,10],[-7,-3],[-5,-7],[-9,-1],[0,-7],[5,-6],[8,5],[3,-6],[-3,-13],[-7,-13],[-8,-13],[-8,-22],[-6,-6],[-9,-4],[-9,-4],[-12,-10],[5,-11],[7,4],[10,7],[9,-4],[5,-2],[2,8],[17,13],[17,16],[4,14],[3,7],[10,1],[14,7],[15,12],[6,17],[10,15],[18,26],[9,15],[-4,11],[7,6],[2,-2],[1,-8],[6,-7],[14,2],[13,7],[18,4],[13,11],[10,11],[21,9],[24,-5],[9,0],[7,5],[22,-2],[9,-8],[-3,-8],[-3,-5],[3,-6],[7,-4],[8,-5],[2,-16],[-6,-8],[-8,-9],[-10,-8],[-7,-6],[-10,-11],[-8,-3],[-11,1],[1,-20],[0,-18],[13,-6],[6,-7],[11,-6],[2,-14],[-5,-9],[11,-1],[13,10],[18,2],[6,4],[3,11],[13,2],[4,7],[0,10],[6,6],[28,1],[26,13],[14,19],[-7,14],[3,12],[13,19],[2,8],[-1,28],[-2,12],[-15,35],[-9,20],[-23,18],[-47,-1],[-35,-27],[-12,-2],[-18,0],[-15,12],[-8,11],[-12,6],[7,4],[14,8],[11,7],[10,11],[18,5],[12,12],[0,20],[11,3],[2,18],[-13,15],[-32,55],[-11,27],[-10,15],[-3,16],[17,-8],[20,21],[30,21],[16,26],[12,-9],[24,-25],[7,0],[10,-1],[17,-5],[20,-2],[2,-5],[0,-8],[3,-10],[5,-6],[15,-11],[4,-2],[3,0],[4,-1],[4,-4],[2,-4],[-1,-12],[5,-17],[-1,-38],[4,-58],[6,-15],[22,-13],[33,-36],[56,-47],[9,-17],[2,-5],[2,-4],[2,-4],[-3,-5],[-8,-11],[-4,-7],[-1,-6],[2,-9],[5,-11],[8,-8],[10,-5],[0,-6],[-7,0],[-6,-2],[-12,-4],[-11,1],[-8,-4],[-16,-15],[-50,-26],[-13,-11],[-7,-12],[10,-5],[12,6],[119,23],[20,0],[-9,-22],[-11,-14],[-52,-47],[-4,-7],[3,-11],[16,-14],[6,-11],[-21,0],[-8,-3],[-6,-9],[12,-13],[3,-22],[-7,-22],[-15,-10],[-19,-27],[-4,-6],[3,-25],[-1,-11],[-6,-9],[-20,19],[-5,-2],[-6,-17],[-1,-8],[3,-8],[-2,-8],[-3,-5],[-10,-6],[-2,-5],[-7,-22],[-53,-59],[0,-3],[0,-13],[-1,-2],[-6,-3],[-3,-3],[0,-1],[-7,-24],[-2,-5],[-9,-10],[-16,-10],[-14,-5],[-22,29],[-30,-11],[-20,-24],[18,-19],[0,-21],[-13,-19],[-10,-8],[1,-17],[11,-11],[3,-5],[8,-8],[6,-17]],[[1529,0],[16,53],[25,84],[14,55],[9,42],[13,32],[9,44],[7,17],[6,6],[4,2],[2,4],[2,21],[6,23],[3,8],[5,3],[9,2],[7,5],[19,13],[-11,18],[-13,13],[3,18]],[[3870,1654],[0,6],[6,1],[8,4],[6,1],[0,5],[-41,-1],[-11,6],[12,20],[8,5],[10,4],[3,9],[9,9],[-1,13],[0,14],[-9,5],[5,8],[-24,15],[-9,15],[-10,22],[-8,-2],[-2,-10],[-9,0],[-5,3],[-3,8],[-4,18],[0,9],[0,5],[5,16],[4,3],[-2,15],[1,23],[12,21],[-1,5],[2,9],[8,14],[5,12],[-10,-2],[-6,4],[-9,2],[15,3],[-2,5],[0,7],[2,7],[9,14],[5,12],[-14,-5],[-13,-15],[-12,-2],[5,13],[8,10],[-3,10],[-9,-17],[-10,-2],[-15,-7],[-48,2],[-19,-15],[-21,1],[-17,14],[-8,9],[-3,8],[-3,5],[-9,1],[-20,-3],[-10,3],[-16,17],[-9,3],[-9,2],[-28,17],[9,25],[-8,10],[-16,6],[-15,13],[-4,-7],[-16,-20],[-5,-4],[-12,4],[-3,9],[0,24],[-3,11],[-4,10],[-7,5],[-11,-2],[-3,-8],[-1,-12],[-4,-6],[-12,14],[-9,-19],[-5,-6],[-26,7],[-6,-1],[-12,-5],[-6,0],[-8,3],[-9,8],[-13,3],[-11,8],[-7,2],[-7,-1],[-12,-4],[-6,-1],[-9,-4],[-7,-11],[-6,-12],[-6,-9],[-22,-14],[-45,-21],[-20,-16],[-16,-17],[-23,-18],[-21,-7],[-13,14],[-12,-5],[-21,5],[-21,9],[-16,9],[10,-15],[12,-9],[11,-8],[12,-10],[10,-12],[5,-12],[4,-15],[2,-38],[-5,-40],[-6,-16],[-9,-13],[-25,-23],[-10,-12],[-8,-11],[-10,-11],[-12,-9],[-15,-5],[-18,1],[-35,14],[-17,3],[-40,-3],[-14,7],[-13,0],[-17,-8],[-15,2],[-22,-8],[-4,-16],[-25,-8],[-26,-6],[-20,-8],[-14,2],[-14,7],[-15,7],[-7,9],[-6,13],[-6,15],[-21,54],[-40,49],[-8,5],[-4,6],[-5,4],[-8,14],[-10,-19],[-10,1],[-13,2],[-2,-9],[8,0],[15,-1],[3,-15],[-6,-9],[-2,-14],[-42,-11],[-11,-14],[-35,-24],[-21,-15],[2,-35],[-11,-19],[-2,-22],[-31,-5],[-4,-24],[-6,-23],[-6,-33],[4,-24],[1,-26],[-15,-36],[-23,-23],[-19,-14],[-12,-12],[-74,-31],[-15,-15],[-7,-5],[-21,-26],[-4,-8],[-6,-14],[-11,-11],[-87,-44],[-21,-19],[-17,0],[-14,-9],[-16,1],[-21,-8],[-11,-8],[1,-7],[7,-8],[-10,-4],[-13,4],[-30,-10],[-31,-29],[-16,-9],[-14,-14],[11,-4],[35,20],[27,17],[-7,-15],[10,-5],[12,-1],[6,10],[8,13],[21,16],[26,14],[28,15],[18,6],[22,15],[10,-6],[8,5],[8,4],[14,1],[13,-2],[29,-19],[-7,-2],[-5,-4],[-5,-6],[-2,-7],[10,0],[0,-6],[-13,-16],[0,-21],[8,-10],[14,11],[-3,-25],[-1,-5],[-6,-5],[-12,-1],[-5,-3],[-4,-10],[9,-3],[8,-6],[13,-5],[49,11],[28,-2],[-2,-6],[-13,-3],[-15,-12],[0,-12],[6,-5],[7,-4],[4,-8],[12,5],[13,-1],[-13,-11],[9,-6],[9,-14],[-9,-8],[-16,-4],[-9,-13],[2,-15],[-14,-11],[-6,11],[-12,9],[-1,11],[-10,1],[-19,4],[-18,-5],[3,-15],[12,2],[6,8],[10,-6],[9,-6],[6,-10],[-15,-5],[-1,-11],[3,-12],[7,-5],[22,0],[7,-3],[-2,-7],[-5,-6],[-3,-3],[-3,-1],[-17,1],[0,-5],[10,-3],[5,-9],[0,-12],[-5,-12],[15,0],[-8,-11],[-15,-3],[-31,15],[-9,-10],[3,-12],[-13,-22],[10,-3],[17,32],[16,-8],[22,-2],[7,-15],[15,-27],[-4,-7],[-10,-13],[8,-19],[-16,-14],[14,-28],[10,-9],[12,-2],[12,6],[-4,3],[-6,7],[-5,2],[5,18],[9,1],[12,-5],[14,-2],[-10,12],[12,-4],[32,-22],[6,-1],[9,3],[51,0],[-3,-11],[-9,-11],[-22,-24],[-12,-28],[-17,-23],[-2,-23],[6,-19],[26,24],[34,9],[14,-13],[20,-19],[11,-6],[14,-5],[15,0],[13,7],[10,11],[11,8],[9,-1],[7,-14],[9,19],[16,3],[17,-7],[13,-10],[4,-7],[7,-17],[4,-6],[5,-4],[13,-7],[19,8],[0,16],[-8,16],[-9,13],[-14,13],[-6,7],[-5,11],[-11,6],[2,19],[-2,15],[4,10],[21,-1],[9,6],[5,30],[-10,40],[5,33],[12,33],[25,14],[16,-10],[11,-8],[6,4],[1,8],[-2,13],[8,12],[18,24],[24,43],[18,23],[10,-1],[4,-10],[12,7],[-6,6],[-2,19],[9,6],[10,10],[9,12],[4,20],[1,4],[4,2],[3,3],[1,7],[-1,4],[-3,3],[-1,4],[-2,7],[-5,5],[-2,8],[5,10],[-3,17],[11,19],[16,15],[15,10],[5,-4],[5,-2],[-2,-15],[4,1],[13,20],[7,7],[6,4],[8,1],[12,1],[17,2],[18,8],[11,11],[-3,15],[11,20],[59,28],[31,14],[13,13],[47,11],[49,8],[17,-16],[67,-17],[51,-6],[13,-31],[19,-20],[20,-10],[21,-8],[11,-28],[29,-39],[20,-21],[-1,-19],[16,-4],[10,2],[12,-19],[13,-30],[10,11],[1,20],[4,23],[1,11],[7,26],[5,33],[22,74],[21,42],[17,20],[12,11],[2,10],[-3,16],[10,6],[10,-2],[10,4],[5,6],[3,11],[18,20],[-9,10],[20,17],[39,14],[59,41],[6,14],[17,3],[7,25],[20,1],[7,15],[25,3],[10,11],[27,13],[22,11],[14,8],[-8,5],[-13,-6],[-24,-5]],[[2947,2198],[-7,-18],[-52,-68],[-11,-10],[-22,-10],[-10,-3],[-9,1],[-4,8],[4,7],[9,3],[10,2],[7,3],[7,15],[-7,10],[-16,5],[-18,0],[0,6],[13,11],[-7,16],[-14,6],[-13,-45],[-12,-11],[-13,-9],[-10,-11],[15,-11],[5,-18],[-5,-17],[-12,-7],[-6,2],[-9,8],[-3,2],[-4,-2],[-8,-8],[-14,-6],[-17,-17],[-6,-4],[-13,6],[-4,16],[1,35],[4,0],[7,8],[12,17],[8,6],[3,-9],[-1,-14],[-3,-11],[15,4],[10,29],[15,4],[0,6],[-11,10],[-14,8],[-8,1],[-7,0],[-7,1],[-7,4],[-11,-6],[5,-28],[-19,-16],[-30,-8],[-78,-8],[-21,-9],[-21,-15],[-13,21],[-13,-7],[-14,-17],[-15,-10],[-12,-2],[2,-6],[6,-9],[4,-9],[-5,-7],[-11,-3],[-21,0],[-18,-6],[-34,-23],[-21,-1],[-3,4],[-3,6],[-2,6],[-2,2],[-7,-1],[-3,-4],[-2,-5],[-3,-2],[-19,-11],[-9,0],[-7,11],[11,12],[-7,11],[-12,12],[-9,22],[-10,12],[-3,4],[0,11],[3,7],[1,7],[-4,11],[5,1],[9,4],[6,1],[-3,9],[-7,7],[-15,8],[-11,-7],[-14,-4],[-15,0],[-26,16],[-16,-2],[-28,-15],[-24,-19],[-66,-78],[7,-12],[5,-18],[2,-13],[2,-20],[-4,-22],[-8,-9],[-10,-7],[-9,-14],[-2,-38],[9,-35],[2,-32],[-23,-28],[-18,-8],[-11,-2],[-5,-7],[-1,-22],[4,-16],[15,-33],[1,-14],[-8,-10],[-32,-19],[-22,-19],[-15,-9],[-10,-1],[2,15],[15,12],[3,4],[5,14],[2,7],[6,-9],[8,-1],[8,6],[3,13],[-3,15],[-7,9],[-9,5],[-9,7],[-12,8],[-46,16],[-17,3],[-4,4],[-18,26],[-8,6],[-20,8],[-7,4],[-17,15],[-13,9],[-14,-3],[-15,-21],[10,0],[0,-5],[-25,-1],[-9,5],[-2,14],[22,18],[12,12],[-1,6],[-6,2],[-10,8],[-43,16],[-28,-11],[-10,3],[-9,-6],[-23,-10],[-8,-2],[-20,0],[-4,3],[-2,5],[-4,1],[-6,-9],[7,-10],[2,-11],[-3,-10],[-10,-5],[-5,-1],[-3,1],[-2,3],[0,6],[-2,8],[-5,0],[-3,-3],[0,-2],[-24,8],[-6,3],[-13,14],[-7,4],[-10,-5],[3,-7],[1,-4],[-4,-7],[-2,0],[-7,-6],[-1,-6],[-3,-3],[0,-3],[-1,-3],[-6,-3],[-5,1],[-5,5],[-3,6],[-2,6],[-4,-9],[-4,-5],[-6,-2],[-6,4],[6,12],[2,16],[-3,14],[-8,6],[-5,-6],[-20,-39],[-17,-24],[-7,-8],[-36,-23],[-11,-2],[-6,12],[-5,-3],[-7,-2],[-5,2],[-3,6],[-1,8],[-4,0],[-4,-3],[-6,-2],[-1,-2],[-4,-4],[-6,-5],[-6,-2],[-4,3],[-1,7],[-8,10],[1,10],[4,7],[-1,4],[-6,2],[-24,18],[-16,27],[-22,6],[-27,10],[-16,-29],[-33,-39],[-26,-23],[-4,-20],[-8,-7],[-12,9],[-4,7],[-11,5],[1,11],[14,-1],[7,21],[-1,10],[4,13],[3,10],[-3,10],[-6,7],[6,21],[-7,11],[-18,1],[-4,9],[-3,12],[-5,9],[-1,10],[9,14],[10,9],[9,6],[9,8],[7,14],[1,12],[-2,7],[-3,7],[-4,22],[-10,17],[-2,10],[-2,4],[-11,9],[-3,8],[3,6],[4,6],[3,6],[3,28],[2,10],[5,11],[9,-4],[11,-2],[11,2],[5,7],[4,2],[30,7],[12,6],[16,5],[-12,10],[-10,0],[-28,6],[-7,3],[-5,-7],[-2,-3],[-9,4],[4,10],[6,10],[8,7],[13,11],[10,-4],[9,-8],[-1,-10],[6,-4],[10,-1],[10,2],[10,4],[8,5],[10,3],[18,-10],[12,-3],[13,1],[5,-29],[9,-8],[14,-1],[5,9],[9,14],[-13,14],[-2,6],[0,11],[16,-4],[10,4],[20,4],[13,3],[9,-8],[12,-18],[-11,2],[-11,8],[-7,2],[-9,-3],[-5,-8],[-4,-11],[-4,-11],[-2,-13],[6,3],[9,7],[5,2],[35,1],[29,8],[8,20],[22,0],[36,7],[-1,27],[10,10],[22,22],[4,8],[-6,17],[6,4],[15,4],[27,21],[12,12],[11,14],[3,10],[1,20],[6,4],[14,-1],[8,-2],[-1,8],[0,15],[2,15],[13,5],[11,-5],[19,-5],[11,8],[2,7],[5,3],[22,-2],[26,3],[32,9],[24,11],[13,6],[12,8],[4,21],[3,7],[5,12],[16,3],[4,7],[16,15],[24,22],[30,22],[17,25],[10,9],[14,-3],[5,11],[2,20],[34,31],[15,14],[19,15],[43,33],[15,19],[25,5],[16,7],[17,12],[7,26],[22,17],[17,12],[7,9],[-2,10],[11,13],[5,13],[43,33],[21,17],[24,11],[2,11],[13,5],[19,9],[33,10],[13,9],[9,16],[9,15],[5,22],[2,15],[0,12],[-2,12],[-12,7],[-17,11],[-5,10],[8,9],[15,2],[19,5],[14,0],[24,0],[11,2],[4,4],[-7,7],[-14,6],[8,2],[12,4],[16,3],[22,13],[23,9],[20,5],[42,2],[18,4],[17,-1],[2,22],[13,2],[17,-3],[14,5],[7,13],[6,11],[10,6],[12,-5],[7,11],[0,12],[10,-3],[11,-11],[16,-13],[11,-7],[24,8],[12,1],[13,9],[4,-4],[-5,-9],[4,-3],[8,-1],[5,3],[15,6],[14,2],[16,1],[13,-8],[-10,-5],[-10,-3],[-8,-5],[-13,-3],[-9,-12],[-2,-2],[0,-11],[4,-10],[3,-12],[22,-14],[26,-13],[22,-5],[15,-3],[14,-2],[13,2],[17,30],[37,17],[24,11],[40,10],[38,-11],[72,-16],[131,10],[71,20],[19,-16],[101,15],[47,9],[18,6],[14,10],[9,19],[35,7],[7,0],[7,1],[11,14],[27,9],[38,14],[24,15],[28,16],[39,-11],[41,4],[32,-1],[55,3],[23,-1],[11,-3],[15,-4],[6,-11],[15,12],[13,-1],[3,-10],[10,3],[13,-5],[8,-3],[15,13],[4,2],[8,3],[-3,11],[20,14],[9,1]],[[4096,2371],[-15,0],[-14,2],[-17,21],[-21,9],[-14,12],[-40,27],[-24,8],[-28,23],[-13,8],[-35,9],[-94,-9],[-5,2],[-4,3],[-4,1],[-5,-3],[-4,-3],[-4,-3],[-5,-2],[-4,-1],[-10,1],[-7,4],[-4,7],[1,12],[-5,-1],[-5,-3],[-4,-5],[-1,-6],[-1,-7],[-2,-1],[-3,1],[-4,-2],[-19,-25],[-6,-5],[-11,1],[-7,4],[-6,6],[-6,2],[-10,-4],[-8,-7],[-4,-10],[2,-10],[-20,0],[-37,9],[-21,3],[-19,9],[-9,-1],[6,-14],[7,-3],[38,-9],[-6,-2],[-14,-2],[-5,-2],[-15,-21],[-3,-3],[-6,-2],[-11,-9],[-13,-2],[-6,-3],[-11,-8],[5,-4],[6,-1],[7,1],[7,4],[-9,-20],[-21,-15],[-26,-10],[-21,-4],[-11,4],[-16,17],[-13,3],[-25,0],[-11,-2],[-19,-12],[-12,-5],[-9,-8],[3,-15],[10,-5],[11,8],[19,22],[12,5],[14,2],[12,-3],[7,-11],[0,-15],[-9,-10],[-11,-8],[-9,-9],[1,-3],[1,-1],[3,-8],[-21,8],[-13,-20],[-9,-29],[-13,-20],[-56,11],[-27,-1],[3,-22],[-23,5],[-10,18],[-8,22],[-19,16],[-5,-4],[-4,5],[-4,8],[-2,10],[-5,-7],[-12,5],[-11,-5],[-11,-8],[-21,-8],[-32,-17],[-8,-6],[-2,-6],[-4,-5],[-6,-3],[-14,-3],[-5,-3],[-4,-4],[-4,-3],[-45,-19],[28,34],[10,18],[-15,8],[-8,-2],[-16,-11],[-9,-4],[-19,1],[-8,-5],[-3,-15],[5,-5]],[[0,3092],[2,0],[7,3],[3,12],[0,12],[-3,11],[-6,7],[-3,1]],[[0,3157],[9,-3],[9,-15],[5,-20],[5,-16],[11,6],[12,16],[7,15],[5,34],[1,23],[3,19],[-5,8],[-6,8],[-6,16],[6,14],[14,28],[19,57],[-1,32],[19,53],[8,60],[2,23],[26,51],[12,18],[-4,17],[-5,16],[-3,15],[-12,10],[-9,-15],[-46,-50],[-19,-14],[-15,2],[-11,14],[-11,12],[-16,14],[1,13],[12,9],[7,3],[8,3],[6,8],[2,14],[-3,5],[-6,4],[-6,23],[-4,30],[-4,4],[-5,3],[-4,8],[-3,15],[3,106],[4,18],[9,15],[23,26],[4,17],[5,75],[-4,36],[-10,36],[-3,20]],[[2728,3666],[-20,-7],[-9,-19],[-2,-27],[0,-26],[15,15],[17,22],[9,24],[-10,18]],[[2694,3682],[-13,-3],[-13,5],[-18,-17],[-33,-26],[-14,-18],[12,-11],[11,-8],[10,-1],[7,8],[-8,16],[-2,10],[7,4],[7,0],[3,-2],[2,-4],[0,-9],[2,-4],[5,-4],[7,-2],[6,1],[8,6],[1,6],[-2,6],[-2,9],[5,16],[11,4],[10,3],[1,6],[-1,8],[-9,1]],[[2706,3673],[2,-7],[14,3],[-14,9],[-2,-5]],[[2089,1623],[-13,6],[-13,0],[-9,-6],[-5,-12],[11,2],[24,-12],[15,-2],[11,2],[1,4],[-16,11],[-6,7]],[[2083,1690],[6,-7],[8,4],[13,-5],[9,1],[3,6],[2,10],[5,4],[9,-7],[5,7],[8,-8],[0,-8],[0,-8],[2,-8],[6,-2],[16,0],[9,-3],[2,9],[2,9],[1,21],[3,7],[7,5],[18,5],[6,-2],[6,0],[16,22],[8,9],[-11,-1],[-19,3],[-9,-2],[-4,-4],[-2,-9],[-4,-6],[-5,-1],[-11,2],[-4,-1],[-15,-12],[-10,-5],[-10,-1],[-20,30],[-14,10],[-19,8],[-20,2],[-18,-7],[-11,-21],[5,-21],[11,-20],[6,-17],[7,5],[4,3],[3,4]],[[2316,1868],[10,4],[8,22],[-2,16],[-19,-9],[-1,12],[-1,10],[-2,10],[-6,11],[5,1],[2,3],[1,4],[2,4],[-6,5],[-8,1],[-9,-3],[-10,-6],[-7,-9],[10,-22],[-9,-13],[-17,-11],[-14,-15],[17,-7],[39,2],[17,-10]],[[2639,1989],[26,-1],[12,14],[3,17],[-8,27],[-10,20],[-15,-4],[-16,-16],[-13,-18],[7,0],[5,-3],[4,-6],[-1,-9],[-4,-4],[-12,-4],[-4,-4],[-6,-18],[6,-5],[26,14]],[[57,2352],[6,2],[8,-5],[6,3],[5,14],[0,9],[-7,4],[-6,2],[6,4],[4,5],[3,12],[-5,7],[-7,7],[-5,7],[-10,1],[-9,-7],[-11,1],[-4,-8],[6,-7],[-12,-2],[-14,-18],[-9,-9],[-2,1]],[[0,2086],[3,6],[5,6],[11,5],[5,12],[-6,4],[-8,10],[-3,15],[3,5],[4,12],[-1,7],[-13,-15]],[[0,2173],[7,6],[-4,26],[17,25],[32,29],[13,35],[6,22],[2,8],[2,8],[-11,11],[-7,9]],[[292,1606],[0,5],[4,2],[7,3],[4,1],[-11,5],[-11,9],[-3,9],[0,10],[4,11],[0,7],[-49,15],[-9,9],[-1,-10],[-6,-10],[-4,-14],[4,-16],[-16,1],[1,-11],[2,-17],[19,-16],[0,-6],[-7,2],[-22,10],[2,-15],[5,-11],[10,6],[8,-5],[-3,-13],[10,-12],[14,-13],[8,-3],[1,17],[9,17],[19,1],[17,1],[11,11],[0,12],[-17,8]],[[132,1286],[-23,-5],[-1,-13],[12,-10],[-12,-9],[-5,8],[-6,4],[-10,-21],[-38,-9],[-1,-20],[-3,-26],[-22,-19],[1,-18],[6,-15],[-16,2],[-9,-9],[-3,-13],[5,-9],[8,-2],[5,-4],[3,-3],[-5,-7],[-11,-2],[-7,5]],[[0,1074],[1,-1],[26,8],[25,18],[34,41],[7,18],[-1,13],[9,7],[0,9],[9,4],[9,11],[-8,7],[11,11],[10,15],[4,12],[-4,39]],[[4096,2341],[-14,-4],[-13,-19],[-18,-27],[-11,-4],[-29,-15],[-9,-17],[-4,-8],[-7,-15],[-4,-7],[-6,-5],[-13,-8],[-18,-13],[-57,-103],[-12,-6],[-16,5],[-10,-23],[-9,-12],[7,-20],[16,-20],[26,8],[-8,-11],[-8,-16],[2,-3],[16,-7],[1,-17],[17,1],[35,8],[25,22],[16,9],[21,7],[18,11],[21,5],[15,7],[-6,15],[-18,19],[-5,10],[-2,16],[-12,9],[-1,11],[-2,10],[1,8],[4,33],[22,30],[17,28],[20,18],[9,22],[3,11]],[[2649,3582],[0,-6],[2,-6],[4,-5],[5,-2],[27,2],[10,-2],[-9,12],[-15,11],[-16,5],[-8,-9]],[[2907,3811],[-3,4],[-3,8],[-4,6],[-3,2],[-10,3],[-4,4],[-3,4],[-2,8],[-2,3],[-7,2],[-7,1],[-6,4],[-1,11],[-60,-40],[-9,-17],[-7,-55],[4,-9],[7,-3],[35,-30],[4,-3],[16,0],[29,-5],[6,-1],[8,7],[3,8],[-2,8],[-9,7],[6,6],[7,5],[6,-1],[6,-10],[10,5],[4,9],[2,44],[-11,15]],[[754,493],[-14,-2],[-6,0],[-2,6],[-2,6],[-5,4],[-6,0],[-15,-11],[-27,-9],[-11,-6],[-16,-12],[-14,-17],[-7,-4],[-10,-2],[-5,-2],[-3,-5],[-1,-12],[7,-13],[14,-23],[17,7],[14,3],[29,3],[14,10],[8,2],[3,-10],[0,-19],[0,-10],[3,-4],[22,19],[31,85],[24,16],[-8,13],[-12,-2],[-22,-11]],[[567,222],[-16,7],[-8,1],[-5,-5],[-2,-12],[3,-16],[6,-15],[7,-8],[-4,-15],[5,-13],[11,-6],[13,3],[5,9],[12,35],[2,11],[-5,17],[-8,6],[-16,1]],[[572,524],[-15,1],[-14,-4],[-13,-6],[-19,-5],[-15,-8],[-9,-2],[-8,2],[-6,5],[-7,5],[-9,0],[17,-27],[3,-17],[-7,-20],[-10,-14],[-9,-18],[-4,-17],[5,-14],[-6,-5],[-5,-7],[-3,-8],[-1,-9],[3,-20],[9,-17],[13,-7],[15,7],[12,-5],[6,-1],[7,0],[-8,-9],[-8,-2],[-9,0],[-10,-1],[-15,-10],[-22,-21],[-3,-6],[-2,-8],[0,-4],[13,7],[7,-1],[8,-1],[9,7],[-11,-46],[1,-8],[12,0],[18,8],[18,11],[10,8],[16,21],[6,6],[16,9],[4,3],[15,34],[3,6],[17,7],[7,4],[6,9],[3,5],[2,7],[2,23],[-1,7],[-2,6],[-2,7],[-2,75],[-7,36],[-21,22]],[[3635,2294],[-10,0],[-25,-6],[-26,-3],[-9,-3],[-31,-19],[-18,-6],[-21,7],[-3,-10],[1,-11],[0,-9],[-8,-6],[7,-12],[11,0],[14,5],[13,1],[15,-8],[4,-9],[-3,-31],[13,3],[8,12],[8,15],[11,11],[15,4],[7,-6],[-4,-7],[-13,-3],[0,-5],[10,1],[9,-1],[7,-5],[3,-8],[16,48],[4,25],[-2,11],[-4,9],[-2,8],[3,8]],[[2158,2074],[-7,2],[-11,-6],[-11,-7],[-9,-11],[-14,-23],[1,-8],[8,-5],[12,4],[22,19],[14,15],[0,4],[-1,8],[-4,8]],[[2582,2050],[-9,-13],[-8,-5],[-8,0],[-21,-10],[-3,0],[-5,-5],[-3,-10],[5,-12],[10,-6],[14,0],[17,4],[8,8],[2,10],[7,17],[2,20],[-2,8],[-6,-6]],[[2708,1959],[-8,1],[-5,5],[-3,6],[-12,5],[-16,-3],[-5,-12],[5,-13],[2,-7],[-3,0],[-5,1],[-4,-5],[-2,-11],[0,-16],[8,-6],[13,6],[35,37],[6,9],[-2,4],[-4,-1]],[[2378,1818],[-3,-5],[-9,-8],[-5,-3],[-3,-2],[-5,-4],[-7,-7],[-7,-10],[1,-12],[9,-6],[14,4],[10,10],[1,8],[1,4],[3,4],[2,6],[1,9],[-1,10],[-2,2]],[[780,568],[3,6],[2,7],[-5,5],[-7,3],[-6,-2],[-6,-6],[-2,-1],[-1,3],[-2,0],[-11,-18],[1,-6],[6,-4],[3,-7],[-4,-11],[2,-11],[9,-7],[4,-3],[-2,8],[6,3],[10,2],[3,10],[3,15],[-1,9],[-5,5]],[[633,308],[-9,-3],[-1,-3],[-1,-1],[-5,-1],[-4,-5],[-3,-9],[-1,-9],[0,-10],[3,-2],[6,4],[7,1],[7,4],[8,8],[7,8],[2,5],[-4,7],[-12,6]],[[3161,2155],[-6,1],[-2,-5],[-10,-12],[-2,-11],[5,-10],[6,-2],[2,2],[5,4],[5,4],[4,7],[-1,11],[-6,11]],[[2449,1979],[-7,2],[-14,4],[-10,-3],[-5,-9],[7,-8],[18,-9],[6,1],[4,-3],[1,-6],[1,-2],[6,3],[6,4],[4,9],[-5,10],[-12,7]],[[2321,696],[-3,3],[-2,2],[-5,3],[-4,-4],[-2,-11],[0,-11],[2,-11],[5,-4],[10,5],[5,7],[1,7],[-2,8],[-5,6]],[[132,1359],[-1,6],[-2,6],[-8,0],[-12,-8],[-13,-13],[-3,-9],[7,0],[3,0],[2,4],[6,2],[9,-4],[11,-2],[10,5],[6,8],[-3,7],[-12,-2]],[[3404,2224],[-7,3],[-3,2],[2,3],[5,3],[7,2],[12,8],[9,2],[2,-3],[6,-5],[5,0],[2,-1],[-1,-8],[-14,-19],[-6,1],[-6,5],[-13,7]],[[11,3937],[-8,-18]],[[3,3919],[-1,-1]],[[19,4096],[4,-32],[3,-84],[-3,-18],[-12,-25]],[[2,3918],[-2,2]],[[2,3918],[6,-36],[-3,-25],[-5,-9]],[[3949,3187],[9,-10],[15,3],[7,3]],[[3606,3191],[27,22],[42,7],[42,18],[21,15],[15,0],[48,-11],[24,-15],[15,0],[31,11],[15,0],[21,-7],[18,-14],[24,-30]],[[3980,3183],[11,4],[21,33],[15,11],[33,15],[12,14],[21,18],[3,1]],[[2805,3058],[5,-1],[24,-8],[17,-9]],[[2874,3033],[5,2],[6,22],[9,10],[12,4],[52,11]],[[3201,3112],[15,-1],[60,-4],[11,2]],[[2671,3064],[13,11],[24,0],[24,-8],[15,-10],[16,1]],[[3489,3140],[18,0],[33,7],[16,-14]],[[2597,3035],[33,11],[36,14],[5,4]],[[2763,3058],[32,2],[10,-2]],[[2851,3040],[16,-9],[7,2]],[[2958,3082],[3,0],[21,11],[18,14],[39,22],[21,8],[42,-8],[48,-14],[51,-3]],[[3287,3109],[13,2],[36,18],[21,4],[36,-4],[42,4],[39,7],[15,0]],[[3556,3133],[8,-7]],[[3967,2993],[0,18]],[[3985,2980],[-9,6]],[[3967,3011],[0,9],[-12,18],[-15,0],[-81,-14],[-25,3],[-9,11],[6,29],[0,15],[-6,15],[-15,10],[-30,26],[-9,18],[-12,18],[-12,15],[-18,-4],[-9,-7],[-18,-29],[-9,-7],[-12,3],[-9,22],[-12,15],[-12,7],[-27,11],[-9,-8],[-12,-32],[-9,-15],[-27,-14]],[[3976,2986],[-9,5],[0,2]],[[4001,2974],[-16,6]],[[4096,2965],[-12,-7],[-21,22],[-21,0],[-12,-11],[-15,0],[-14,5]],[[3490,2784],[-40,0],[-24,-4],[-33,-25]],[[3560,3100],[-2,-14],[-4,-15]],[[3554,3071],[-5,-14],[6,-26],[3,-22],[-6,-7],[0,-22],[15,-18],[6,-15],[-3,-54],[-12,-18],[-6,-18],[0,-22],[-3,-18],[-6,-15],[-12,-7],[-30,-11],[-11,0]],[[3564,3126],[-3,-19],[-1,-7]],[[2985,3042],[33,-73],[9,-11],[33,-21],[30,-8],[33,-3],[21,-11],[15,-18],[18,-51],[33,-59],[9,-25],[6,-33],[0,-11]],[[3393,2755],[-36,7],[-21,0],[-9,-1]],[[3327,2761],[-15,-3],[-27,-25],[-18,-11],[-15,-7],[-27,3]],[[3779,2694],[-20,6]],[[3492,2731],[-36,16],[-15,-3],[-24,3],[-24,8]],[[3759,2700],[-12,4],[-12,11],[-24,11],[-15,0],[-78,-22],[-27,0],[-39,7],[-57,18],[-3,2]],[[3783,2693],[-4,1]],[[3937,2635],[-36,3],[-14,10]],[[3887,2648],[-7,5],[-40,7],[-33,22],[-24,11]],[[2011,2607],[-2,-2]],[[2573,3032],[-12,-1],[-24,7],[-48,-18],[-15,-18],[-24,-11],[-12,-15]],[[2009,2605],[-4,-7]],[[2438,2976],[-12,-14],[-18,-29],[-18,-15],[-36,-7],[-21,-11],[-12,-11],[-51,-58],[-15,-22],[-21,-29],[-12,-18],[-42,-36],[-45,-26],[-54,-40],[-36,-25],[-10,0],[-15,-11],[-9,-17]],[[2597,3035],[-24,-3]],[[4096,2621],[-42,14],[-33,3],[-36,-3],[-18,3],[-30,-3]],[[3831,2577],[28,0],[27,-11],[24,-15]],[[3696,2529],[18,11],[24,11],[21,0],[36,11],[36,15]],[[3910,2551],[3,-7],[3,-47]],[[2556,2493],[-1,0]],[[3225,2718],[-15,4],[-15,-7],[-12,-15],[-12,-11],[-39,-22],[-24,0],[-15,19],[-21,14],[-9,4],[-42,0],[-30,-4],[-30,0],[-49,-14],[-27,-15],[-9,-18],[-3,-15],[0,-36],[-3,-15],[-9,-3],[-18,-4],[-30,7],[-24,-14],[-39,-7],[-21,-22],[-15,-7],[-27,3],[-45,-3],[-30,-11],[-30,-22],[-26,-11]],[[2553,2519],[2,-4],[0,-22]],[[2583,2986],[-1,-6],[-3,-36],[-3,-7]],[[2576,2937],[-18,-11],[-12,-26],[-9,-18],[0,-40],[-6,-11],[-18,-11],[-6,-22],[9,-21],[3,-19],[-3,-7],[-12,-7],[-9,-33],[-18,-14],[-3,-11],[9,-40],[3,-11],[12,-11],[9,-37],[24,-40],[15,-14],[7,-14]],[[2597,3035],[-6,-15],[-8,-34]],[[3617,2487],[22,-5],[15,0],[12,11],[12,14]],[[3679,2509],[17,20]],[[3582,2493],[24,-4],[11,-2]],[[3678,2507],[1,2]],[[4033,2460],[-18,26],[-12,11],[-63,0],[-24,0]],[[3582,2493],[-33,-29],[-27,-7]],[[3447,2468],[0,-1],[-51,-14],[-36,-26],[-12,-7],[-21,-3]],[[3524,2497],[-2,0],[-18,-4],[-19,-8]],[[3485,2485],[-38,-17]],[[3582,2493],[-24,4],[-34,0]],[[3324,2452],[-6,-21],[9,-14]],[[3393,2755],[-30,-22],[-14,-18]],[[3349,2715],[-1,0],[-9,-18],[0,-26],[3,-11],[18,-11],[6,-18],[-9,-22],[-27,-3],[-9,-11],[0,-11],[6,-15],[3,-18],[15,-14],[0,-22],[-12,-33],[-9,-30]],[[1831,2415],[-15,-17]],[[2005,2598],[-18,-25],[-24,-18],[-45,-58],[-12,-11],[-21,-11],[-9,-11],[-24,-26],[-21,-23]],[[4033,2460],[18,-11],[24,-22],[21,-7]],[[2555,2493],[-12,0],[-5,-3]],[[2538,2490],[-19,-8],[-30,-15],[-18,0],[-36,-21],[-15,-8],[-36,-14],[-30,-18],[-27,-15]],[[3327,2417],[9,-30]],[[3327,2417],[-45,0],[-12,-11],[-18,-26],[-30,-18]],[[3336,2387],[-18,-14],[-15,-7],[-45,-15],[-18,-14]],[[3222,2362],[18,-25]],[[2327,2391],[-9,-11],[-6,-18],[-3,-22],[-12,-25]],[[2311,2257],[-5,-8],[-24,-43]],[[2555,2493],[-1,-4]],[[2554,2489],[-2,-14],[-6,-11],[-12,-4],[-27,-3],[-9,-4],[-24,-36],[-27,-19],[-30,-21],[-18,-19],[-36,-43],[-15,-22],[-30,-26],[-7,-10]],[[2237,2209],[45,-3]],[[3240,2337],[15,-26],[0,-14],[-15,-11],[-9,-15],[-3,-11],[6,-22],[0,-41]],[[3234,2197],[0,-2]],[[2329,2204],[-8,2],[-15,-4],[-24,4]],[[2430,2222],[-40,-13]],[[2486,2206],[-33,15]],[[2601,2196],[-13,-1],[-12,0]],[[2830,2232],[-56,-19],[-14,-2]],[[2995,2282],[-13,-11],[-33,-7],[-25,0],[-45,-11],[-21,-11],[-24,-9]],[[3222,2362],[-21,-15],[-18,-7],[-30,-3],[-18,-15],[-72,-18],[-33,-11],[-20,-3]],[[2390,2209],[-15,0],[-30,-7],[-16,2]],[[2453,2221],[-6,3],[-12,0],[-5,-2]],[[2576,2195],[-15,0],[-66,7],[-9,4]],[[2760,2211],[-19,-2],[-140,-13]],[[2834,2233],[-4,-1]],[[3010,2290],[-4,-1],[-11,-7]],[[4030,2191],[-11,-2]],[[4019,2189],[-7,-2]],[[4017,2237],[-4,-33]],[[4013,2204],[-1,-9],[0,-8]],[[4096,2308],[-6,-11],[-9,-11],[-24,-15],[-24,-4],[-15,-25],[-1,-5]],[[2258,2147],[24,59]],[[2321,2126],[-27,3],[-36,18]],[[3411,2111],[0,-18]],[[3411,2093],[-3,-18],[-6,-15],[-12,-7]],[[2330,2027],[-15,4],[-12,7],[0,22],[3,11],[15,29],[3,11],[-3,15]],[[3932,2094],[-31,-16],[-2,-2]],[[3899,2076],[-13,-19],[-18,-30]],[[4012,2187],[-9,-43],[-12,-33],[-21,-7],[-33,-7],[-5,-3]],[[3234,2017],[0,3]],[[3390,2053],[-27,4],[-21,-4],[-66,-22],[-39,-14],[-3,0]],[[3303,2018],[-6,-1],[-15,-4],[-30,-22]],[[3390,2053],[-12,-15],[-12,-7],[-21,-4],[-34,-7]],[[3311,2020],[-8,-2]],[[3252,1991],[-6,0],[-12,26]],[[3192,1980],[0,18],[6,4],[27,18],[9,0]],[[3818,1980],[-14,-11]],[[3868,2027],[-25,-25],[-15,-15],[-10,-7]],[[3804,1969],[-15,15],[-2,0]],[[3523,2021],[-34,17],[-27,19],[-30,25],[-21,11]],[[3787,1984],[-10,0],[-24,-7],[-48,0],[-21,3],[-36,11],[-39,4],[-21,3],[-24,11],[-39,11],[-2,1]],[[2072,1969],[4,27]],[[2081,2023],[3,19],[2,8]],[[2094,2064],[35,29],[15,33],[4,4]],[[2150,2133],[18,18],[30,15],[15,18],[15,25],[9,0]],[[2076,1996],[2,6],[3,21]],[[2086,2050],[4,10],[4,4]],[[2148,2130],[2,3]],[[1525,1965],[-9,-10],[-21,-15],[-15,-18]],[[1567,2009],[-12,-18],[-10,-7]],[[1816,2398],[-3,-11],[-6,-6]],[[1545,1984],[-5,-4],[-15,-15]],[[1807,2381],[-21,-23],[-9,-14],[0,-26],[18,-25],[0,-11],[-30,-73],[-9,-36],[-33,-36],[-27,-26],[-30,-18],[-45,-22],[-6,-4],[-45,-54],[-3,-4]],[[1581,1944],[-17,-7],[-39,-26]],[[2297,2315],[-45,-4],[-39,7],[-30,-7],[-27,-14],[-15,-8],[-39,-36],[-27,-18],[-40,-8],[-12,-7],[-27,-36],[-21,-15],[-15,-3],[-18,-8],[-42,-43],[-12,-8],[-12,-3],[-6,7],[-12,7],[-9,-3],[-33,-18],[0,-8],[6,-43],[-3,-22],[-27,-15],[-27,-25],[-12,-4],[-36,-3],[-18,7],[-15,0],[-30,-15],[-9,0],[-27,15],[-12,-11],[-9,-18],[-9,-8],[-7,-3]],[[1525,1911],[-24,0],[-21,11]],[[1712,1885],[-9,-3]],[[1703,1882],[-10,-4]],[[1765,1889],[-42,0],[-11,-4]],[[2072,1969],[-35,-8]],[[2037,1961],[-11,-3],[-15,-11],[-3,-10],[-9,-33],[-15,-7],[-45,-8],[-18,-7],[-9,-11]],[[1912,1871],[-30,4],[-12,7],[-33,22],[-30,11],[-24,-8],[-18,-18]],[[1587,1872],[31,3],[23,-3]],[[1525,1911],[5,-9]],[[1530,1902],[10,-16],[42,-15],[5,1]],[[1641,1872],[10,-1],[18,4],[24,3]],[[3142,1847],[4,6]],[[3169,1896],[18,41]],[[3192,1954],[0,1],[0,25]],[[3090,1791],[33,29],[12,15],[7,12]],[[3146,1853],[16,25],[7,18]],[[3187,1937],[2,3],[3,14]],[[3076,1774],[13,16]],[[3030,1747],[24,8],[15,11],[7,8]],[[3089,1790],[1,1]],[[2889,1750],[-4,-3],[-27,-10],[-42,-8],[-51,-18],[-36,-7]],[[3030,1766],[-42,-4],[-33,-7],[-13,0],[-24,7],[-12,0],[-17,-12]],[[1166,1678],[-4,-3],[-21,-26]],[[1186,1774],[2,-3]],[[1215,1857],[-8,-8],[-21,-22],[-9,-14],[-3,-11],[4,-10]],[[1480,1922],[-15,12]],[[1188,1771],[1,-2],[6,-22],[3,-32],[-12,-22],[-20,-15]],[[1178,1792],[8,-18]],[[1465,1934],[-15,13],[-21,8],[-15,3],[-9,-3],[-33,-33],[-24,-11],[-42,-11],[-30,-11],[-24,-3],[-21,-15],[-16,-14]],[[2522,1659],[-6,1],[-21,11]],[[2567,1642],[-2,1]],[[2565,1643],[-16,10],[-27,6]],[[2578,1640],[-11,2]],[[2729,1704],[-30,-7],[-8,-5]],[[2691,1692],[-25,-14],[-18,-11],[-27,-25],[-21,-7],[-22,5]],[[1141,1649],[-16,-14],[-33,0]],[[3090,1791],[18,-18],[15,-26],[9,-43],[9,-44],[18,-43],[3,-11]],[[1141,1649],[24,-32],[12,-30],[0,-14]],[[848,1562],[-11,-11],[-9,-33],[6,-54]],[[1026,1609],[-30,-11],[-18,0],[-45,-7],[-46,-13]],[[1092,1635],[-18,-8]],[[887,1578],[-17,-5],[-18,-7],[-4,-4]],[[1074,1627],[-36,-14],[-12,-4]],[[3151,1484],[-4,-13],[-18,-14],[-21,-4]],[[3162,1606],[3,-40],[0,-29],[-9,-40],[-5,-13]],[[834,1464],[-15,3],[-12,-3],[-18,-15],[-21,-7],[-36,-4]],[[3063,1420],[3,15],[12,7],[21,7],[9,4]],[[2991,1391],[27,7],[39,11],[6,11]],[[879,1271],[15,15],[24,7],[21,-7]],[[834,1464],[6,-15],[9,-36],[0,-11],[-12,-33],[6,-14],[6,-26],[21,-18],[9,-29],[0,-11]],[[879,1271],[0,-11]],[[939,1286],[42,-22],[18,-11]],[[879,1260],[3,-25]],[[735,1229],[-21,-12],[-27,-11]],[[879,1271],[-12,11],[-27,-7],[-27,-22],[-12,-4],[-24,-3],[-2,-1]],[[775,1245],[-19,-3],[-21,-13]],[[3321,1365],[0,1],[-21,11],[-8,2]],[[3198,1393],[-12,9],[-39,11],[-33,4],[-51,3]],[[3804,1969],[-9,-29],[-15,-29],[0,-44],[-3,-36],[9,-18],[18,-26],[21,-7],[9,-3],[9,-15],[6,-25],[-3,-19],[-13,-20]],[[3292,1379],[-13,5],[-42,7],[-36,0],[-3,2]],[[3833,1698],[-2,-1],[-12,-8],[-6,-11],[-3,-29],[-27,-22],[-27,-29],[-12,-18],[-21,-11],[-18,-18],[-21,-25],[-36,-4],[-21,-25],[-21,-15],[-3,-25],[-3,-8],[-15,-7],[-9,-11],[-12,-29],[-30,-47],[-21,-40],[-12,-40],[-6,-29],[-3,-22],[3,-40],[-6,-15],[-9,4],[-12,22],[-9,7],[-12,15],[-18,18],[-6,14],[-15,15],[-3,14],[-6,11],[-18,15],[-39,25],[-15,29],[-6,7]],[[1583,1143],[17,-6],[27,0],[12,-8]],[[1177,1573],[24,-44],[27,-36],[4,-8]],[[1271,1452],[44,-3],[42,-11],[18,-11],[12,-3],[57,-7],[54,0],[12,-8],[9,-11]],[[1542,1228],[-2,-11],[12,-59],[8,-6]],[[1578,1258],[-5,-1]],[[1232,1485],[8,-18],[9,-10],[12,-4],[10,-1]],[[1519,1398],[9,-11],[27,-14],[12,-18],[30,-91],[-19,-6]],[[1573,1257],[-15,-4],[-15,-15],[-1,-10]],[[1560,1152],[1,-1],[22,-8]],[[560,1182],[-19,-25]],[[687,1206],[-9,-4],[-23,0]],[[541,1157],[-10,-13],[-12,-18]],[[655,1202],[-40,0],[-24,-4],[-18,-3],[-9,-8],[-4,-5]],[[518,1124],[-29,-38],[-9,-19]],[[519,1126],[-1,-2]],[[321,1058],[-15,-5],[-18,14],[-18,-3],[-12,-11]],[[362,1099],[-5,-2],[-1,-2]],[[459,1109],[-3,-2],[-12,0],[-15,8],[-12,-11],[-2,-1]],[[356,1095],[-29,-35],[-6,-2]],[[415,1103],[-10,-3],[-21,7],[-12,-3],[-10,-5]],[[519,1126],[-21,-4],[-39,-13]],[[469,1052],[-4,-6]],[[480,1067],[-6,-8]],[[474,1059],[-5,-7]],[[453,1031],[12,15]],[[453,1031],[-9,15],[0,2]],[[465,1063],[15,4]],[[444,1048],[0,5],[9,7],[12,3]],[[1674,985],[-2,-5],[-9,-7]],[[1639,1129],[-3,-22],[12,-21],[18,-19],[9,-10],[5,-13]],[[1680,1044],[4,-13],[0,-22],[-10,-24]],[[446,986],[7,9],[6,18],[-6,18]],[[426,958],[6,11],[14,17]],[[432,1009],[21,22]],[[426,958],[-3,11],[0,18],[3,15],[6,7]],[[2459,873],[5,-1]],[[2579,904],[15,18],[18,-4],[12,8],[24,15]],[[2339,1167],[3,-20],[-6,-47]],[[2846,1264],[3,11],[13,16]],[[2366,1383],[-18,-3],[-12,-8]],[[2930,1357],[40,12],[21,22]],[[2495,1671],[-30,-14],[-12,-19],[-6,-14],[8,-48]],[[2336,1100],[-3,-14],[-18,-22],[-6,-37],[0,-14],[-15,-26],[-3,-18],[3,-14],[12,-8],[3,-25],[15,-18],[9,-7],[27,-11],[24,-4],[33,15],[15,0],[21,-22],[6,-2]],[[2336,1372],[-3,-3],[-12,-25],[-6,-40],[3,-18],[-6,-15],[-3,-14],[12,-22],[3,-18],[-3,-19],[3,-18],[15,-11],[0,-2]],[[2455,1576],[1,-3],[-12,-36],[-3,-11],[9,-33],[-12,-36],[-6,-8],[-9,-18],[-21,-25],[-15,-4],[-18,-18],[-3,-1]],[[2464,872],[4,-1],[12,4],[27,14],[24,8],[21,3],[12,0],[15,4]],[[2648,941],[3,3],[18,7],[42,15],[12,7],[12,33],[0,11],[-6,21],[3,11],[18,11],[9,22],[3,22],[12,25],[9,40],[12,26],[12,14],[27,22],[12,33]],[[2862,1291],[17,20],[45,44],[6,2]],[[459,842],[-9,15],[-6,18],[-6,51],[-5,12]],[[433,938],[-7,20]],[[459,835],[-24,11],[-9,14],[-3,15],[6,47],[-2,18]],[[427,940],[-1,18]],[[459,842],[3,-7]],[[882,1235],[3,-26],[-3,-22],[-15,-50],[-3,-37],[-10,-35]],[[935,906],[1,-2],[18,-7],[18,0],[12,-11],[6,-11],[18,-51],[21,-29]],[[854,1065],[-2,-8],[9,-30],[6,-32],[6,-15],[9,-7],[30,-44],[23,-23]],[[462,835],[15,-44],[3,-18],[-12,-11],[-12,0]],[[432,755],[24,7]],[[459,747],[-21,-3],[-6,11]],[[403,749],[-16,-5],[-12,-26],[-6,-32],[-9,-11]],[[432,755],[-21,-4],[-1,0]],[[410,751],[-7,-2]],[[1791,877],[4,5],[9,18],[0,4]],[[1704,948],[-11,10],[-21,8],[-9,7]],[[1696,660],[18,18],[0,19],[-30,21],[0,11],[18,18],[6,11],[-3,22],[15,15],[27,7],[12,11],[18,47],[14,17]],[[1804,904],[-3,11],[-12,0],[-27,-8],[-21,15],[-21,4],[-12,18],[-4,4]],[[1006,576],[-13,-39],[-12,-15],[-27,-33],[-12,-18]],[[1045,693],[-10,-15],[-24,-21],[-6,-15],[2,-12]],[[1029,795],[15,-11],[6,-11],[0,-29],[2,-23]],[[1007,630],[1,-6],[0,-40],[-2,-8]],[[1052,721],[1,-14],[-8,-14]],[[747,205],[3,12],[8,13]],[[903,452],[0,1],[12,11],[27,7]],[[720,155],[9,14],[12,11],[6,25]],[[758,230],[10,16],[12,7],[33,7],[6,11],[0,36],[3,19],[24,7],[21,47],[15,15],[9,14],[6,29],[6,14]],[[1020,266],[0,-6],[9,-57]],[[942,471],[3,-5]],[[945,466],[9,-20],[9,-22],[9,-18],[21,-22],[12,-26],[3,-18],[-3,-25],[15,-33],[0,-16]],[[1029,203],[0,-1],[0,-51],[3,-65],[3,-33]],[[1587,258],[1,-9],[-9,-43],[-6,-29],[-6,-44],[-9,-18],[-12,-22],[-6,-7],[3,-29],[-6,-19],[-12,-21],[-2,-17]],[[1666,457],[-3,-8],[-12,-32],[-12,-21]],[[1703,599],[-4,-22],[-15,-37],[-9,-33],[3,-25],[-9,-21]],[[1639,396],[-24,-41],[-15,-40],[-6,-15],[-9,-29],[2,-13]],[[1669,461],[-3,-4]],[[1696,660],[12,-29],[-5,-32]],[[1161,0],[-5,9],[-31,11],[-15,18],[-18,8],[-30,3],[-27,4]],[[1035,53],[-15,-11],[-6,-29],[-10,-13]],[[614,94],[7,13],[0,1]],[[666,121],[21,5],[29,21]],[[627,0],[0,2],[-15,29],[-9,11],[0,22],[6,22],[5,8]],[[621,108],[18,7],[18,3],[9,3]],[[716,147],[1,0],[3,8]],[[734,491],[6,0],[14,2],[22,11],[12,2],[8,-13],[-24,-16],[-31,-85],[-22,-19],[-3,4],[0,10],[0,19],[-3,10],[-8,-2],[-14,-10],[-29,-3],[-14,-3],[-17,-7],[-14,23],[-7,13],[1,12],[3,5],[5,2],[10,2],[7,4],[14,17],[16,12],[11,6],[27,9],[15,11],[6,0],[5,-4],[2,-6],[2,-6]],[[577,143],[-13,-3],[-11,6],[-5,13],[4,15],[-7,8],[-6,15],[-3,16],[2,12],[5,5],[8,-1],[16,-7],[16,-1],[8,-6],[5,-17],[-2,-11],[-12,-35],[-5,-9]],[[618,269],[-6,-4],[-3,2],[0,10],[1,9],[3,9],[4,5],[5,1],[1,1],[1,3],[9,3],[12,-6],[4,-7],[-2,-5],[-7,-8],[-8,-8],[-7,-4],[-7,-1]],[[593,502],[7,-36],[2,-75],[2,-7],[2,-6],[1,-7],[-2,-23],[-2,-7],[-3,-5],[-6,-9],[-7,-4],[-17,-7],[-3,-6],[-15,-34],[-4,-3],[-16,-9],[-6,-6],[-16,-21],[-10,-8],[-18,-11],[-18,-8],[-12,0],[-1,8],[11,46],[-9,-7],[-8,1],[-7,1],[-13,-7],[0,4],[2,8],[3,6],[22,21],[15,10],[10,1],[9,0],[8,2],[8,9],[-7,0],[-6,1],[-12,5],[-15,-7],[-13,7],[-9,17],[-3,20],[1,9],[3,8],[5,7],[6,5],[-5,14],[4,17],[9,18],[10,14],[7,20],[-3,17],[-17,27],[9,0],[7,-5],[6,-5],[8,-2],[9,2],[15,8],[19,5],[13,6],[14,4],[15,-1],[21,-22]],[[785,581],[-2,-7],[-3,-6],[5,-5],[1,-9],[-3,-15],[-3,-10],[-10,-2],[-6,-3],[2,-8],[-4,3],[-9,7],[-2,11],[4,11],[-3,7],[-6,4],[-1,6],[11,18],[2,0],[1,-3],[2,1],[6,6],[6,2],[7,-3],[5,-5]],[[2322,668],[-10,-5],[-5,4],[-2,11],[0,11],[2,11],[4,4],[5,-3],[2,-2],[3,-3],[5,-6],[2,-8],[-1,-7],[-5,-7]],[[131,1365],[1,-6],[12,2],[3,-7],[-6,-8],[-10,-5],[-11,2],[-9,4],[-6,-2],[-2,-4],[-3,0],[-7,0],[3,9],[13,13],[12,8],[8,0],[2,-6]],[[0,1074],[0,17],[7,-5],[11,2],[5,7],[-3,3],[-5,4],[-8,2],[-5,9],[3,13],[9,9],[16,-2],[-6,15],[-1,18],[22,19],[3,26],[1,20],[38,9],[10,21],[6,-4],[5,-8],[12,9],[-12,10],[1,13],[23,5],[4,-39],[-4,-12],[-10,-15],[-11,-11],[8,-7],[-9,-11],[-9,-4],[0,-9],[-9,-7],[1,-13],[-7,-18],[-34,-41],[-25,-18],[-26,-8],[-1,1]],[[2916,3752],[-4,-9],[-10,-5],[-6,10],[-6,1],[-7,-5],[-6,-6],[9,-7],[2,-8],[-3,-8],[-8,-7],[-6,1],[-29,5],[-16,0],[-4,3],[-35,30],[-7,3],[-4,9],[7,55],[9,17],[60,40],[1,-11],[6,-4],[7,-1],[7,-2],[2,-3],[2,-8],[3,-4],[4,-4],[10,-3],[3,-2],[4,-6],[3,-8],[3,-4],[11,-15],[-2,-44]],[[2688,3575],[9,-12],[-10,2],[-27,-2],[-5,2],[-4,5],[-2,6],[0,6],[8,9],[16,-5],[15,-11]],[[2712,3602],[-15,-15],[0,26],[2,27],[9,19],[20,7],[10,-18],[-9,-24],[-17,-22]],[[2668,3684],[13,-5],[13,3],[9,-1],[1,-8],[-1,-6],[-10,-3],[-11,-4],[-5,-16],[2,-9],[2,-6],[-1,-6],[-8,-6],[-6,-1],[-7,2],[-5,4],[-2,4],[0,9],[-2,4],[-3,2],[-7,0],[-7,-4],[2,-10],[8,-16],[-7,-8],[-10,1],[-11,8],[-12,11],[14,18],[33,26],[18,17]],[[2363,1765],[-14,-4],[-9,6],[-1,12],[7,10],[7,7],[5,4],[3,2],[5,3],[9,8],[3,5],[2,-2],[1,-10],[-1,-9],[-2,-6],[-3,-4],[-1,-4],[-1,-8],[-10,-10]],[[1178,1715],[7,-9],[-2,-12],[-11,0],[3,-8],[2,-7],[-5,-7],[-3,-5],[-12,-9],[-1,-11],[-1,-4],[4,-2],[14,-4],[15,4],[-2,-30],[2,-6],[2,-23],[8,-18],[22,-39],[10,-25],[12,-16],[16,-10],[13,2],[19,-4],[31,-5],[22,-7],[27,-3],[20,-20],[29,-1],[32,-5],[36,6],[4,6],[27,24],[12,14],[6,19],[10,12],[17,8],[22,4],[16,0],[12,2],[12,-5],[15,-8],[15,1],[14,-2],[16,-23],[18,-31],[12,-23],[5,-17],[2,-18],[-8,-24],[6,-25],[-7,-18],[-13,-28],[-2,-20],[-7,-3],[-17,9],[-11,6],[-13,-6],[-4,-12],[2,-14],[-3,-11],[-18,-5],[-6,-3],[-4,-14],[-14,-3],[-15,0],[-6,5],[-11,13],[-19,-3],[-6,-20],[9,-59],[13,-11],[14,-5],[47,-2],[31,16],[33,-15],[8,14],[37,-15],[44,-8],[21,7],[24,14],[14,-2],[-15,-26],[-8,-18],[0,-14],[-5,-6],[-12,-4],[-13,-17],[-3,-15],[-12,-22],[24,-12],[19,13],[23,1],[8,-4],[-20,-14],[-11,-13],[-4,-10],[12,-7],[8,4],[11,-2],[7,-7],[10,-1],[2,10],[2,11],[6,0],[6,-14],[5,-8],[7,-5],[6,-1],[7,3],[4,5],[4,20],[12,-25],[-3,-11],[-18,-5],[-28,2],[-12,-1],[-5,-16],[-11,-15],[-3,-25],[8,-6],[15,-15],[11,0],[7,-13],[8,3],[6,2],[5,-3],[4,-5],[5,-2],[9,5],[0,-5],[3,-4],[5,2],[10,13],[19,-4],[15,-3],[2,-9],[-15,3],[-15,-8],[-13,-4],[-22,-17],[-10,-13],[4,-6],[6,-3],[4,-7],[-8,-14],[-6,-6],[-7,-3],[-6,-5],[-6,-10],[10,-1],[21,3],[4,-5],[-5,-12],[-12,-10],[-13,-6],[-10,1],[-14,-14],[-34,5],[-7,-19],[0,-24],[-1,-3],[0,-4],[-3,-4],[-4,-2],[-2,-2],[-2,-15],[0,-13],[-6,-4],[-10,15],[-9,4],[-4,-12],[-12,-8],[-9,-15],[-9,-8],[-3,-5],[-3,-4],[1,-1],[1,-3],[1,-7],[-3,-9],[-13,-24],[-4,-5],[-11,-4],[-15,2],[-3,-4],[-4,-15],[-12,-26],[2,-11],[8,-10],[12,0],[5,-2],[13,-15],[-14,-17],[-16,-4],[-12,5],[-14,3],[-3,-18],[13,-13],[11,-18],[-19,-13],[-7,-5],[-9,-2],[-5,-3],[-3,-8],[-6,-23],[-2,-21],[-2,-4],[-4,-2],[-6,-6],[-7,-17],[-9,-44],[-13,-32],[-9,-42],[-14,-55],[-25,-84],[-16,-53],[-919,0],[-6,17],[-8,8],[-3,5],[-11,11],[-1,17],[10,8],[13,19],[0,21],[-18,19],[20,24],[30,11],[22,-29],[14,5],[16,10],[9,10],[2,5],[7,24],[0,1],[3,3],[6,3],[1,2],[0,13],[0,3],[53,59],[7,22],[2,5],[10,6],[3,5],[2,8],[-3,8],[1,8],[6,17],[5,2],[20,-19],[6,9],[1,11],[-3,25],[4,6],[19,27],[15,10],[7,22],[-3,22],[-12,13],[6,9],[8,3],[21,0],[-6,11],[-16,14],[-3,11],[4,7],[52,47],[11,14],[9,22],[-20,0],[-119,-23],[-12,-6],[-10,5],[7,12],[13,11],[50,26],[16,15],[8,4],[11,-1],[12,4],[6,2],[7,0],[0,6],[-10,5],[-8,8],[-5,11],[-2,9],[1,6],[4,7],[8,11],[3,5],[-2,4],[-2,4],[-2,5],[-9,17],[-56,47],[-33,36],[-22,13],[-6,15],[-4,58],[1,38],[-5,17],[1,12],[-2,4],[-4,4],[-4,1],[-3,0],[-4,2],[-15,11],[-5,6],[-3,10],[0,8],[-2,5],[-20,2],[-17,5],[-10,1],[-7,0],[-24,25],[-12,9],[-16,-26],[-30,-21],[-20,-21],[-17,8],[3,-16],[10,-15],[11,-27],[32,-55],[13,-15],[-2,-18],[-11,-3],[0,-20],[-12,-12],[-18,-5],[-10,-11],[-11,-7],[-14,-8],[-7,-4],[12,-6],[8,-11],[15,-12],[18,0],[12,2],[35,27],[47,1],[23,-18],[9,-20],[15,-35],[2,-12],[1,-28],[-2,-8],[-13,-19],[-3,-12],[7,-14],[-14,-19],[-26,-13],[-28,-1],[-6,-6],[0,-10],[-4,-7],[-13,-2],[-3,-11],[-6,-4],[-18,-2],[-13,-10],[-11,1],[5,9],[-2,14],[-11,6],[-6,7],[-13,6],[0,18],[-1,20],[11,-1],[8,3],[10,11],[7,6],[10,8],[8,9],[6,8],[-2,16],[-8,5],[-7,4],[-3,6],[3,5],[3,8],[-9,8],[-22,2],[-7,-5],[-9,0],[-24,5],[-21,-9],[-10,-11],[-13,-11],[-18,-4],[-13,-7],[-14,-2],[-6,7],[-1,8],[-2,2],[-7,-6],[4,-11],[-9,-15],[-18,-26],[-10,-15],[-6,-17],[-15,-12],[-14,-7],[-10,-1],[-3,-7],[-4,-14],[-17,-16],[-17,-13],[-2,-8],[-5,2],[-9,4],[-10,-7],[-7,-4],[-5,11],[12,10],[9,4],[9,4],[6,6],[8,22],[8,13],[7,13],[3,13],[-3,6],[-8,-5],[-5,6],[0,7],[9,1],[5,7],[7,3],[7,-10],[8,6],[9,21],[-25,-2],[0,12],[-15,32],[-7,7],[-7,4],[-4,6],[-2,10],[-4,10],[-12,4],[-7,-8],[-9,-4],[-8,19],[-17,11],[-8,14],[-6,14],[-3,9],[-1,10],[-2,11],[-7,9],[-6,7],[-10,3],[-5,27],[0,19],[11,10],[5,13],[-3,11],[2,14],[6,6],[2,26],[13,22],[28,-14],[11,-16],[0,-2],[0,-8],[0,-2],[2,0],[5,4],[4,5],[4,-1],[3,-7],[-5,-5],[-10,-20],[-2,-14],[4,-11],[7,4],[11,20],[22,-7],[11,-14],[8,-13],[-5,-8],[-1,-8],[1,-21],[-1,-13],[-6,-7],[-4,8],[-4,21],[-6,0],[2,-32],[10,-8],[3,-15],[-10,-9],[15,-11],[6,-4],[6,-7],[8,-5],[3,-6],[3,3],[3,5],[11,5],[4,7],[6,13],[38,-13],[38,-17],[11,4],[-12,15],[-40,58],[-1,26],[7,12],[6,20],[-1,19],[-25,18],[-22,23],[-21,-7],[-14,-10],[-7,0],[-1,17],[-18,13],[-8,-6],[-9,-11],[-10,-1],[-10,8],[-3,9],[-7,22],[4,0],[7,-3],[-2,16],[0,8],[10,4],[-1,8],[-8,1],[-14,-15],[-3,9],[-2,11],[1,12],[-9,3],[2,-19],[-4,-19],[-2,-7],[-6,3],[-11,0],[-6,-10],[-5,-2],[-3,22],[16,4],[2,10],[-3,9],[-6,7],[-8,5],[-8,4],[3,8],[0,5],[-3,5],[-5,6],[-5,-4],[-8,-1],[-7,2],[-13,13],[-7,2],[-19,0],[-9,13],[8,26],[2,15],[6,4],[5,-2],[8,8],[-2,5],[-4,10],[-9,18],[4,24],[3,20],[8,9],[21,-19],[17,2],[21,32],[5,-8],[-2,-24],[17,-8],[32,10],[46,-14],[5,-15],[4,-23],[5,-10],[8,-8],[10,-4],[-3,12],[-4,19],[3,29],[9,17],[9,9],[-6,11],[4,6],[-38,26],[-14,16],[-7,9],[7,11],[6,13],[10,2],[12,-16],[5,-11],[5,-10],[10,-5],[6,5],[-3,13],[-17,21],[-5,28],[13,18],[-1,17],[12,-12],[12,-3],[18,10],[23,-13],[14,-17],[-3,-9],[-9,-10],[-3,-10],[9,-6],[7,8],[3,-9],[0,-8],[6,-8],[10,-4],[20,-3],[9,4],[8,10],[4,21],[7,8],[23,10],[13,5],[8,-2],[8,6],[3,2],[9,2],[10,4],[8,8],[5,11],[-9,0],[-23,-6],[-7,3],[-2,12],[-6,2],[-9,2],[-4,4],[1,6],[4,8],[8,7],[7,1],[7,0],[8,3],[12,11],[-2,11],[4,9],[8,-1],[9,0],[6,2],[5,2],[5,6],[3,22],[9,-4],[8,-6],[3,-8],[-6,-8],[3,-15],[10,-6],[4,-3],[15,3],[3,-7],[-8,-13],[6,-5],[9,-5],[3,-3],[4,4],[5,1],[3,5],[7,11],[11,0],[20,-1],[11,6],[13,1],[6,10],[2,13],[4,17],[-3,7],[-4,10],[-14,-9],[-13,-11],[-9,-5],[-9,6],[-8,5],[-5,4],[-8,-2],[-9,8],[-4,15],[3,7],[8,-2],[4,-13],[10,-7],[16,-2],[30,13],[11,11],[10,12],[9,9],[12,4],[5,9],[12,13],[1,17],[-2,16],[-8,2],[-6,6],[1,11],[4,5],[6,3],[7,6],[4,6],[8,27],[6,-6],[8,0],[16,11],[7,7],[2,6],[4,4],[12,3],[35,-3],[15,2],[15,12],[22,34],[6,2],[10,1],[8,0],[11,-6],[18,11],[25,1],[27,-5],[-5,-17],[11,5],[18,0],[7,-11],[8,-15],[11,-6],[12,2],[9,7],[12,15],[5,19],[20,17],[22,8],[9,-9],[-3,-19],[-6,-10],[-2,-6],[0,-5],[-8,-12]],[[282,1650],[0,-10],[3,-9],[11,-9],[11,-5],[-4,-1],[-7,-3],[-4,-2],[0,-5],[17,-8],[0,-12],[-11,-11],[-17,-1],[-19,-1],[-9,-17],[-1,-17],[-8,3],[-14,13],[-10,12],[3,13],[-8,5],[-10,-6],[-5,11],[-2,15],[22,-10],[7,-2],[0,6],[-19,16],[-2,17],[-1,11],[16,-1],[-4,16],[4,14],[6,10],[1,10],[9,-9],[49,-15],[0,-7],[-4,-11]],[[2095,1616],[16,-11],[-1,-4],[-11,-2],[-15,2],[-24,12],[-11,-2],[5,12],[9,6],[13,0],[13,-6],[6,-7]],[[2129,1744],[20,-30],[10,1],[10,5],[15,12],[4,1],[11,-2],[5,1],[4,6],[2,9],[4,4],[9,2],[19,-3],[11,1],[-8,-9],[-16,-22],[-6,0],[-6,2],[-18,-5],[-7,-5],[-3,-7],[-1,-21],[-2,-9],[-2,-9],[-9,3],[-16,0],[-6,2],[-2,8],[0,8],[0,8],[-8,8],[-5,-7],[-9,7],[-5,-4],[-2,-10],[-3,-6],[-9,-1],[-13,5],[-8,-4],[-6,7],[-3,-4],[-4,-3],[-7,-5],[-6,17],[-11,20],[-5,21],[11,21],[18,7],[20,-2],[19,-8],[14,-10]],[[3443,2230],[-14,-19],[-6,1],[-6,5],[-13,7],[-7,3],[-3,2],[2,3],[5,3],[7,2],[12,8],[9,2],[2,-3],[6,-5],[5,0],[2,-1],[-1,-8]],[[3640,2258],[-4,-25],[-16,-48],[-3,8],[-7,5],[-9,1],[-10,-1],[0,5],[13,3],[4,7],[-7,6],[-15,-4],[-11,-11],[-8,-15],[-8,-12],[-13,-3],[3,31],[-4,9],[-15,8],[-13,-1],[-14,-5],[-11,0],[-7,12],[8,6],[0,9],[-1,11],[3,10],[21,-7],[18,6],[31,19],[9,3],[26,3],[25,6],[10,0],[-3,-8],[2,-8],[4,-9],[2,-11]],[[2700,1960],[8,-1],[4,1],[2,-4],[-6,-9],[-35,-37],[-13,-6],[-8,6],[0,16],[2,11],[4,5],[5,-1],[3,0],[-2,7],[-5,13],[5,12],[16,3],[12,-5],[3,-6],[5,-5]],[[2312,1913],[1,-12],[19,9],[2,-16],[-8,-22],[-10,-4],[-17,10],[-39,-2],[-17,7],[14,15],[17,11],[9,13],[-10,22],[7,9],[10,6],[9,3],[8,-1],[6,-5],[-2,-4],[-1,-4],[-2,-3],[-5,-1],[6,-11],[2,-10],[1,-10]],[[2466,1962],[-4,-9],[-6,-4],[-6,-3],[-1,2],[-1,6],[-4,3],[-6,-1],[-18,9],[-7,8],[5,9],[10,3],[14,-4],[7,-2],[12,-7],[5,-10]],[[3486,2125],[0,-24],[3,-9],[12,-4],[5,4],[16,20],[4,7],[15,-13],[16,-6],[8,-10],[-9,-25],[28,-17],[9,-2],[9,-3],[16,-17],[10,-3],[20,3],[9,-1],[3,-5],[3,-8],[8,-9],[17,-14],[21,-1],[19,15],[48,-2],[15,7],[10,2],[9,17],[3,-10],[-8,-10],[-5,-13],[12,2],[13,15],[14,5],[-5,-12],[-9,-14],[-2,-7],[0,-7],[2,-5],[-15,-3],[9,-2],[6,-4],[10,2],[-5,-12],[-8,-14],[-2,-9],[1,-5],[-12,-21],[-1,-23],[2,-15],[-4,-3],[-5,-16],[0,-5],[0,-9],[4,-18],[3,-8],[5,-3],[9,0],[2,10],[8,2],[10,-22],[9,-15],[24,-15],[-5,-8],[9,-5],[0,-14],[1,-13],[-9,-9],[-3,-9],[-10,-4],[-8,-5],[-12,-20],[11,-6],[41,1],[0,-5],[-6,-1],[-8,-4],[-6,-1],[0,-6],[24,5],[13,6],[8,-5],[-14,-8],[-22,-11],[-27,-13],[-10,-11],[-25,-3],[-7,-15],[-20,-1],[-7,-25],[-17,-3],[-6,-14],[-59,-41],[-39,-14],[-20,-17],[9,-10],[-18,-20],[-3,-11],[-5,-6],[-10,-4],[-10,2],[-10,-6],[3,-16],[-2,-10],[-12,-11],[-17,-20],[-21,-42],[-22,-74],[-5,-33],[-7,-26],[-1,-11],[-4,-23],[-1,-20],[-10,-11],[-13,30],[-12,19],[-10,-2],[-16,4],[1,19],[-20,21],[-29,39],[-11,28],[-21,8],[-20,10],[-19,20],[-13,31],[-51,6],[-67,17],[-17,16],[-49,-8],[-47,-11],[-13,-13],[-31,-14],[-59,-28],[-11,-20],[3,-15],[-11,-11],[-18,-8],[-17,-2],[-12,-1],[-8,-1],[-6,-4],[-7,-7],[-13,-20],[-4,-1],[2,15],[-5,2],[-5,4],[-15,-10],[-16,-15],[-11,-19],[3,-17],[-5,-10],[2,-8],[5,-5],[2,-7],[1,-4],[3,-3],[1,-4],[-1,-7],[-3,-3],[-4,-2],[-1,-4],[-4,-20],[-9,-12],[-10,-10],[-9,-6],[2,-19],[6,-6],[-12,-7],[-4,10],[-10,1],[-18,-23],[-24,-43],[-18,-24],[-8,-12],[2,-13],[-1,-8],[-6,-4],[-11,8],[-16,10],[-25,-14],[-12,-33],[-5,-33],[10,-40],[-5,-30],[-9,-6],[-21,1],[-4,-10],[2,-15],[-2,-19],[11,-6],[5,-11],[6,-7],[14,-13],[9,-13],[8,-16],[0,-16],[-19,-8],[-13,7],[-5,4],[-4,6],[-7,17],[-4,7],[-13,10],[-17,7],[-16,-3],[-9,-19],[-7,14],[-9,1],[-11,-8],[-10,-11],[-13,-7],[-15,0],[-14,5],[-11,6],[-20,19],[-14,13],[-34,-9],[-26,-24],[-6,19],[2,23],[17,23],[12,28],[22,24],[9,11],[3,11],[-51,0],[-9,-3],[-6,1],[-32,22],[-12,4],[10,-12],[-14,2],[-12,5],[-9,-1],[-5,-18],[5,-2],[6,-7],[4,-3],[-12,-6],[-12,2],[-10,9],[-14,28],[16,14],[-8,19],[10,13],[4,7],[-15,27],[-7,15],[-22,2],[-16,8],[-17,-32],[-10,3],[13,22],[-3,12],[9,10],[31,-15],[15,3],[8,11],[-15,0],[5,12],[0,12],[-5,9],[-10,3],[0,5],[17,-1],[3,1],[3,3],[5,6],[2,7],[-7,3],[-22,0],[-7,5],[-3,12],[1,11],[15,5],[-6,10],[-9,6],[-10,6],[-6,-8],[-12,-2],[-3,15],[18,5],[19,-4],[10,-1],[1,-11],[12,-9],[6,-11],[14,11],[-2,15],[9,13],[16,4],[9,8],[-9,14],[-9,6],[13,11],[-13,1],[-12,-5],[-4,8],[-7,4],[-6,5],[0,12],[15,12],[13,3],[2,6],[-28,2],[-49,-11],[-13,5],[-8,6],[-9,3],[4,10],[5,3],[12,1],[6,5],[1,5],[3,25],[-14,-11],[-8,10],[0,21],[13,16],[0,6],[-10,0],[2,7],[5,6],[5,4],[7,2],[-29,19],[-13,2],[-14,-1],[-8,-4],[-8,-5],[-10,6],[-22,-15],[-18,-6],[-28,-15],[-26,-14],[-21,-16],[-8,-13],[-6,-10],[-12,1],[-10,5],[7,15],[-27,-17],[-35,-20],[-11,4],[14,14],[16,9],[31,29],[30,10],[13,-4],[10,4],[-7,8],[-1,7],[11,8],[21,8],[16,-1],[14,9],[17,0],[21,19],[87,44],[11,11],[6,14],[4,8],[21,26],[7,5],[15,15],[74,31],[12,12],[19,14],[23,23],[15,36],[-1,26],[-4,24],[6,33],[6,23],[4,24],[31,5],[2,22],[11,19],[-2,35],[21,15],[35,24],[11,14],[42,11],[2,14],[6,9],[-3,15],[-15,1],[-8,0],[2,9],[13,-2],[10,-1],[10,19],[8,-14],[5,-4],[4,-6],[8,-5],[40,-49],[21,-54],[6,-15],[6,-13],[7,-9],[15,-7],[14,-7],[14,-2],[20,8],[26,6],[25,8],[4,16],[22,8],[15,-2],[17,8],[13,0],[14,-7],[40,3],[17,-3],[35,-14],[18,-1],[15,5],[12,9],[10,11],[8,11],[10,12],[25,23],[9,13],[6,16],[5,40],[-2,38],[-4,15],[-5,12],[-10,12],[-12,10],[-11,8],[-12,9],[-10,15],[16,-9],[21,-9],[21,-5],[12,5],[13,-14],[21,7],[23,18],[16,17],[20,16],[45,21],[22,14],[6,9],[6,12],[7,11],[9,4],[6,1],[12,4],[7,1],[7,-2],[11,-8],[13,-3],[9,-8],[8,-3],[6,0],[12,5],[6,1],[26,-7],[5,6],[9,19],[12,-14],[4,6],[1,12],[3,8],[11,2],[7,-5],[4,-10],[3,-11]],[[4035,2104],[2,-16],[5,-10],[18,-19],[6,-15],[-15,-7],[-21,-5],[-18,-11],[-21,-7],[-16,-9],[-25,-22],[-35,-8],[-17,-1],[-1,17],[-16,7],[-2,3],[8,16],[8,11],[-26,-8],[-16,20],[-7,20],[9,12],[10,23],[16,-5],[12,6],[57,103],[18,13],[13,8],[6,5],[4,7],[7,15],[4,8],[9,17],[29,15],[11,4],[18,27],[13,19],[14,4],[0,-57],[-3,-11],[-9,-22],[-20,-18],[-17,-28],[-22,-30],[-4,-33],[-1,-8],[2,-10],[1,-11],[12,-9]],[[3154,2118],[-2,-2],[-6,2],[-5,10],[2,11],[10,12],[2,5],[6,-1],[6,-11],[1,-11],[-4,-7],[-5,-4],[-5,-4]],[[2677,2002],[-12,-14],[-26,1],[-26,-14],[-6,5],[6,18],[4,4],[12,4],[4,4],[1,9],[-4,6],[-5,3],[-7,0],[13,18],[16,16],[15,4],[10,-20],[8,-27],[-3,-17]],[[2590,2048],[-2,-20],[-7,-17],[-2,-10],[-8,-8],[-17,-4],[-14,0],[-10,6],[-5,12],[3,10],[5,5],[3,0],[21,10],[8,0],[8,5],[9,13],[6,6],[2,-8]],[[2127,2020],[-12,-4],[-8,5],[-1,8],[14,23],[9,11],[11,7],[11,6],[7,-2],[4,-8],[1,-8],[0,-4],[-14,-15],[-22,-19]],[[0,2173],[0,202],[2,-1],[9,9],[14,18],[12,2],[-6,7],[4,8],[11,-1],[9,7],[10,-1],[5,-7],[7,-7],[5,-7],[-3,-12],[-4,-5],[-6,-4],[6,-2],[7,-4],[0,-9],[-5,-14],[-6,-3],[-8,5],[-6,-2],[7,-9],[11,-11],[-2,-8],[-2,-8],[-6,-22],[-13,-35],[-32,-29],[-17,-25],[4,-26],[-7,-6]],[[0,2086],[0,67],[13,15],[1,-7],[-4,-12],[-3,-5],[3,-15],[8,-10],[6,-4],[-5,-12],[-11,-5],[-5,-6],[-3,-6]],[[4096,2371],[-15,0],[-14,2],[-17,21],[-21,9],[-14,12],[-40,27],[-24,8],[-28,23],[-13,8],[-35,9],[-94,-9],[-5,2],[-4,3],[-4,1],[-5,-3],[-4,-3],[-4,-3],[-5,-2],[-4,-1],[-10,1],[-7,4],[-4,7],[1,12],[-5,-1],[-5,-3],[-4,-5],[-1,-6],[-1,-7],[-2,-1],[-3,1],[-4,-2],[-19,-25],[-6,-5],[-11,1],[-7,4],[-6,6],[-6,2],[-10,-4],[-8,-7],[-4,-10],[2,-10],[-20,0],[-37,9],[-21,3],[-19,9],[-9,-1],[6,-14],[7,-3],[38,-9],[-6,-2],[-14,-2],[-5,-2],[-15,-21],[-3,-3],[-6,-2],[-11,-9],[-13,-2],[-6,-3],[-11,-8],[5,-4],[6,-1],[7,1],[7,4],[-9,-20],[-21,-15],[-26,-10],[-21,-4],[-11,4],[-16,17],[-13,3],[-25,0],[-11,-2],[-19,-12],[-12,-5],[-9,-8],[3,-15],[10,-5],[11,8],[19,22],[12,5],[14,2],[12,-3],[7,-11],[0,-15],[-9,-10],[-11,-8],[-9,-9],[1,-3],[1,-1],[3,-8],[-21,8],[-13,-20],[-9,-29],[-13,-20],[-56,11],[-27,-1],[3,-22],[-23,5],[-10,18],[-8,22],[-19,16],[-5,-4],[-4,5],[-4,8],[-2,10],[-5,-7],[-12,5],[-11,-5],[-11,-8],[-21,-8],[-32,-17],[-8,-6],[-2,-6],[-4,-5],[-6,-3],[-14,-3],[-5,-3],[-4,-4],[-4,-3],[-45,-19],[28,34],[10,18],[-15,8],[-8,-2],[-16,-11],[-9,-4],[-19,1],[-8,-5],[-3,-15],[5,-5],[-7,-18],[-52,-68],[-11,-10],[-22,-10],[-10,-3],[-9,1],[-4,8],[4,7],[9,3],[10,2],[7,3],[7,15],[-7,10],[-16,5],[-18,0],[0,6],[13,11],[-7,16],[-14,6],[-13,-45],[-12,-11],[-13,-9],[-10,-11],[15,-11],[5,-18],[-5,-17],[-12,-7],[-6,2],[-9,8],[-3,2],[-4,-2],[-8,-8],[-14,-6],[-17,-17],[-6,-4],[-13,6],[-4,16],[1,35],[4,0],[7,8],[12,17],[8,6],[3,-9],[-1,-14],[-3,-11],[15,4],[10,29],[15,4],[0,6],[-11,10],[-14,8],[-8,1],[-7,0],[-7,1],[-7,4],[-11,-6],[5,-28],[-19,-16],[-30,-8],[-78,-8],[-21,-9],[-21,-15],[-13,21],[-13,-7],[-14,-17],[-15,-10],[-12,-2],[2,-6],[6,-9],[4,-9],[-5,-7],[-11,-3],[-21,0],[-18,-6],[-34,-23],[-21,-1],[-3,4],[-3,6],[-2,6],[-2,2],[-7,-1],[-3,-4],[-2,-5],[-3,-2],[-19,-11],[-9,0],[-7,11],[11,12],[-7,11],[-12,12],[-9,22],[-10,12],[-3,4],[0,11],[3,7],[1,7],[-4,11],[5,1],[9,4],[6,1],[-3,9],[-7,7],[-15,8],[-11,-7],[-14,-4],[-15,0],[-26,16],[-16,-2],[-28,-15],[-24,-19],[-66,-78],[7,-12],[5,-18],[2,-13],[2,-20],[-4,-22],[-8,-9],[-10,-7],[-9,-14],[-2,-38],[9,-35],[2,-32],[-23,-28],[-18,-8],[-11,-2],[-5,-7],[-1,-22],[4,-16],[15,-33],[1,-14],[-8,-10],[-32,-19],[-22,-19],[-15,-9],[-10,-1],[2,15],[15,12],[3,4],[5,14],[2,7],[6,-9],[8,-1],[8,6],[3,13],[-3,15],[-7,9],[-9,5],[-9,7],[-12,8],[-46,16],[-17,3],[-4,4],[-18,26],[-8,6],[-20,8],[-7,4],[-17,15],[-13,9],[-14,-3],[-15,-21],[10,0],[0,-5],[-25,-1],[-9,5],[-2,14],[22,18],[12,12],[-1,6],[-6,2],[-10,8],[-43,16],[-28,-11],[-10,3],[-9,-6],[-23,-10],[-8,-2],[-20,0],[-4,3],[-2,5],[-4,1],[-6,-9],[7,-10],[2,-11],[-3,-10],[-10,-5],[-5,-1],[-3,1],[-2,3],[0,6],[-2,8],[-5,0],[-3,-3],[0,-2],[-24,8],[-6,3],[-13,14],[-7,4],[-10,-5],[3,-7],[1,-4],[-4,-7],[-2,0],[-7,-6],[-1,-6],[-3,-3],[0,-3],[-1,-3],[-6,-3],[-5,1],[-5,5],[-3,6],[-2,6],[-4,-9],[-4,-5],[-6,-2],[-6,4],[6,12],[2,16],[-3,14],[-8,6],[-5,-6],[-20,-39],[-17,-24],[-7,-8],[-36,-23],[-11,-2],[-6,12],[-5,-3],[-7,-2],[-5,2],[-3,6],[-1,8],[-4,0],[-4,-3],[-6,-2],[-1,-2],[-4,-4],[-6,-5],[-6,-2],[-4,3],[-1,7],[-8,10],[1,10],[4,7],[-1,4],[-6,2],[-24,18],[-16,27],[-22,6],[-27,10],[-16,-29],[-33,-39],[-26,-23],[-4,-20],[-8,-7],[-12,9],[-4,7],[-11,5],[1,11],[14,-1],[7,21],[-1,10],[4,13],[3,10],[-3,10],[-6,7],[6,21],[-7,11],[-18,1],[-4,9],[-3,12],[-5,9],[-1,10],[9,14],[10,9],[9,6],[9,8],[7,14],[1,12],[-2,7],[-3,7],[-4,22],[-10,17],[-2,10],[-2,4],[-11,9],[-3,8],[3,6],[4,6],[3,6],[3,28],[2,10],[5,11],[9,-4],[11,-2],[11,2],[5,7],[4,2],[30,7],[12,6],[16,5],[-12,10],[-10,0],[-28,6],[-7,3],[-5,-7],[-2,-3],[-9,4],[4,10],[6,10],[8,7],[13,11],[10,-4],[9,-8],[-1,-10],[6,-4],[10,-1],[10,2],[10,4],[8,5],[10,3],[18,-10],[12,-3],[13,1],[5,-29],[9,-8],[14,-1],[5,9],[9,14],[-13,14],[-2,6],[0,11],[16,-4],[10,4],[20,4],[13,3],[9,-8],[12,-18],[-11,2],[-11,8],[-7,2],[-9,-3],[-5,-8],[-4,-11],[-4,-11],[-2,-13],[6,3],[9,7],[5,2],[35,1],[29,8],[8,20],[22,0],[36,7],[-1,27],[10,10],[22,22],[4,8],[-6,17],[6,4],[15,4],[27,21],[12,12],[11,14],[3,10],[1,20],[6,4],[14,-1],[8,-2],[-1,8],[0,15],[2,15],[13,5],[11,-5],[19,-5],[11,8],[2,7],[5,3],[22,-2],[26,3],[32,9],[24,11],[13,6],[12,8],[4,21],[3,7],[5,12],[16,3],[4,7],[16,15],[24,22],[30,22],[17,25],[10,9],[14,-3],[5,11],[2,20],[34,31],[15,14],[19,15],[43,33],[15,19],[25,5],[16,7],[17,12],[7,26],[22,17],[17,12],[7,9],[-2,10],[11,13],[5,13],[43,33],[21,17],[24,11],[2,11],[13,5],[19,9],[33,10],[13,9],[9,16],[9,15],[5,22],[2,15],[0,12],[-2,12],[-12,7],[-17,11],[-5,10],[8,9],[15,2],[19,5],[14,0],[24,0],[11,2],[4,4],[-7,7],[-14,6],[8,2],[12,4],[16,3],[22,13],[23,9],[20,5],[42,2],[18,4],[17,-1],[2,22],[13,2],[17,-3],[14,5],[7,13],[6,11],[10,6],[12,-5],[7,11],[0,12],[10,-3],[11,-11],[16,-13],[11,-7],[24,8],[12,1],[13,9],[4,-4],[-5,-9],[4,-3],[8,-1],[5,3],[15,6],[14,2],[16,1],[13,-8],[-10,-5],[-10,-3],[-8,-5],[-13,-3],[-9,-12],[-2,-2],[0,-11],[4,-10],[3,-12],[22,-14],[26,-13],[22,-5],[15,-3],[14,-2],[13,2],[17,30],[37,17],[24,11],[40,10],[38,-11],[72,-16],[131,10],[71,20],[19,-16],[101,15],[47,9],[18,6],[14,10],[9,19],[35,7],[7,0],[7,1],[11,14],[27,9],[38,14],[24,15],[28,16],[39,-11],[41,4],[32,-1],[55,3],[23,-1],[11,-3],[15,-4],[6,-11],[15,12],[13,-1],[3,-10],[10,3],[13,-5],[8,-3],[15,13],[4,2],[8,3],[-3,11],[20,14],[9,1],[0,-925]],[[0,3157],[0,939],[36,0],[3,-20],[10,-36],[4,-36],[-5,-75],[-4,-17],[-23,-26],[-9,-15],[-4,-18],[-3,-106],[3,-15],[4,-8],[5,-3],[4,-4],[4,-30],[6,-23],[6,-4],[3,-5],[-2,-14],[-6,-8],[-8,-3],[-7,-3],[-12,-9],[-1,-13],[16,-14],[11,-12],[11,-14],[15,-2],[19,14],[46,50],[9,15],[12,-10],[3,-15],[5,-16],[4,-17],[-12,-18],[-26,-51],[-2,-23],[-8,-60],[-19,-53],[1,-32],[-19,-57],[-14,-28],[-6,-14],[6,-16],[6,-8],[5,-8],[-3,-19],[-1,-23],[-5,-34],[-7,-15],[-12,-16],[-11,-6],[-5,16],[-5,20],[-9,15],[-9,3]],[[0,3092],[0,46],[3,-1],[6,-7],[3,-11],[0,-12],[-3,-12],[-7,-3],[-2,0]],[[637,103],[18,-12],[-14,-28],[-46,52],[42,-12]],[[1584,192],[-55,-192],[-126,0],[-30,35],[55,31],[66,-51],[-32,147],[81,29],[69,106],[-28,-105]],[[756,200],[-34,17],[23,26],[21,-21],[-10,-22]],[[1025,270],[73,-20],[-2,-21],[-71,-28],[-57,29],[57,40]],[[1153,262],[-8,22],[42,15],[-5,-21],[-29,-16]],[[1177,4],[-39,40],[49,30],[24,-59],[-34,-11]],[[907,78],[-36,25],[10,16],[55,-16],[-29,-25]],[[719,91],[-54,29],[36,47],[40,-55],[-22,-21]],[[2461,846],[-44,-23],[11,21],[-20,0],[57,32],[-4,-30]],[[2641,912],[-4,-23],[-67,17],[59,42],[22,-8],[-10,-28]],[[1769,1004],[-16,49],[30,1],[4,-25],[-18,-25]],[[386,1063],[-24,11],[-8,28],[25,-8],[7,-31]],[[593,419],[-20,24],[15,42],[12,-19],[-7,-47]],[[1725,561],[-26,-2],[-19,-45],[12,-58],[-28,7],[21,-49],[-69,-27],[24,39],[-15,24],[39,34],[-30,57],[67,61],[24,-41]],[[702,797],[26,-67],[-10,-81],[-54,-33],[-17,34],[53,22],[6,48],[-29,49],[-77,20],[32,25],[70,-17]],[[475,828],[49,-20],[56,59],[-48,-53],[16,-55],[-105,-19],[36,-28],[-45,-13],[-9,17],[-34,-64],[-55,-23],[16,52],[-25,-2],[-43,82],[21,83],[38,-63],[27,33],[87,-26],[-52,73],[8,86],[46,-21],[16,-98]],[[402,797],[2,-17],[-2,-40],[26,38],[-26,19]],[[1881,877],[-36,-29],[-11,19],[-32,-10],[-17,32],[60,47],[-4,-27],[40,-32]],[[1688,988],[17,-43],[-41,20],[-24,-69],[-32,-9],[-9,39],[33,20],[0,29],[56,13]],[[1822,986],[-12,-17],[-16,25],[23,14],[5,-22]],[[386,999],[0,-24],[-32,-1],[2,30],[30,-5]],[[2892,1255],[-42,-12],[-9,47],[42,1],[9,-36]],[[3319,1344],[-36,18],[16,32],[24,-11],[-4,-39]],[[3153,1484],[48,-10],[-24,-29],[24,-20],[-4,-43],[-68,8],[-171,-53],[-63,43],[72,36],[-9,39],[41,19],[154,10]],[[2852,1362],[-39,14],[9,18],[48,-18],[-18,-14]],[[1984,1866],[-37,0],[57,20],[-20,-20]],[[3834,2004],[-24,-36],[25,-4],[-34,-132],[10,-37],[68,-45],[-39,-71],[-40,99],[-41,0],[-40,59],[-8,-20],[-16,30],[-106,19],[-30,-23],[-107,4],[65,49],[129,9],[113,40],[34,47],[41,12]],[[3619,2026],[38,-1],[1,-8],[-77,0],[8,30],[30,-21]],[[3090,1786],[-34,-28],[-54,18],[73,55],[15,-45]],[[1591,1905],[8,-19],[41,10],[2,-67],[-27,9],[-15,-46],[-69,46],[16,28],[44,0],[-16,20],[16,19]],[[2351,1138],[1,-24],[-43,-36],[10,73],[25,20],[7,-33]],[[1660,1163],[102,-42],[-82,-78],[-105,20],[-16,43],[27,42],[74,15]],[[370,1181],[49,-21],[-77,-47],[0,111],[28,-43]],[[1549,1233],[18,-78],[-9,-5],[-72,40],[63,43]],[[312,1101],[-5,-34],[29,-18],[-7,-74],[-38,17],[-12,54],[-22,-14],[-4,32],[-26,-15],[-55,51],[61,62],[11,-33],[68,-28]],[[1178,1715],[-23,-72],[33,-2],[2,-59],[52,-98],[148,-47],[97,0],[29,28],[28,-24],[-32,-57],[-97,-16],[-42,38],[-65,-20],[-8,39],[-65,59],[-80,10],[-25,49],[25,68],[-73,0],[-25,49],[-38,-36],[38,-91],[33,-10],[-5,-79],[-109,-38],[-60,47],[20,80],[-40,20],[-16,49],[-25,-10],[-19,-86],[27,-32],[8,-78],[57,-78],[40,10],[33,-49],[32,0],[0,-30],[41,-10],[-31,-36],[-152,-37],[5,-34],[67,22],[22,-15],[-25,-47],[-113,-29],[-8,-157],[54,6],[39,-33],[8,88],[37,18],[72,-49],[33,10],[-16,-69],[48,-10],[33,-54],[-106,-103],[16,-88],[-64,10],[14,-64],[-24,-59],[-47,-53],[-66,-9],[-14,29],[35,12],[-25,36],[76,90],[-46,28],[15,27],[-25,33],[42,106],[-54,-36],[-98,85],[-15,144],[-40,47],[-90,42],[-66,-68],[-17,8],[24,-60],[-89,54],[-36,-39],[-21,33],[21,35],[42,-2],[-79,41],[16,40],[42,-30],[88,39],[-65,69],[73,-29],[57,9],[150,51],[53,48],[-9,48],[-81,39],[-35,-22],[-30,52],[-50,-46],[-60,5],[23,41],[-24,16],[35,50],[28,12],[45,-54],[74,27],[5,57],[-36,-25],[-43,36],[41,-17],[72,49],[32,121],[54,4],[31,-31],[8,49],[72,51],[82,1],[-5,-17],[29,5],[26,-32],[80,68],[-10,-61]],[[1170,1212],[-15,-51],[-57,20],[24,58],[48,-27]],[[2287,1229],[1,19],[-9,40],[30,-26],[-22,-33]],[[1594,1256],[13,-26],[-48,15],[16,14],[19,-3]],[[262,1573],[-24,-22],[-17,20],[28,60],[37,-57],[-24,-1]],[[388,1397],[6,-39],[33,18],[-15,-29],[25,-23],[77,-3],[9,-30],[-63,-34],[-42,51],[-32,-10],[-16,94],[18,5]],[[2207,1310],[9,41],[39,-8],[8,-25],[-56,-8]],[[1713,1333],[-11,-4],[-5,38],[19,0],[-3,-34]],[[1632,1298],[17,-7],[-1,-24],[-40,31],[16,20],[8,-20]],[[2320,1411],[47,-28],[-72,-26],[-1,45],[26,9]],[[2022,1780],[-13,-47],[-49,-5],[-29,26],[113,63],[-22,-37]],[[2522,1690],[0,-39],[56,-10],[-2,-18],[-79,-61],[-36,16],[-45,-17],[-33,-40],[-34,-16],[55,50],[26,166],[31,5],[20,82],[41,-118]],[[1235,1856],[-113,-126],[-27,21],[21,108],[119,-3]],[[1764,1883],[62,-46],[57,0],[-8,-30],[32,-9],[-29,-48],[-112,89],[-77,7],[15,40],[60,-3]],[[1591,1966],[-24,-51],[-57,-19],[17,-40],[-60,-15],[-49,-77],[-47,-25],[-27,23],[-35,-15],[-26,51],[17,68],[105,-59],[8,49],[49,30],[-10,42],[89,44],[18,51],[32,-57]],[[2696,1770],[50,-25],[97,46],[66,-10],[-39,-62],[-178,-29],[-33,127],[-110,40],[66,49],[81,-136]],[[4038,2086],[-60,-4],[-1,11],[45,29],[16,-36]],[[4026,2238],[21,-32],[-22,-33],[-24,61],[25,4]],[[2676,2565],[-26,-20],[-7,36],[17,0],[16,-16]],[[3508,2524],[33,-2],[-32,-49],[-41,20],[40,31]],[[2311,2381],[-24,14],[20,20],[29,-10],[-25,-24]],[[1811,2378],[-43,37],[44,40],[21,-37],[-22,-40]],[[2553,2484],[-35,15],[-4,23],[50,-4],[-11,-34]],[[3962,3012],[48,-10],[-11,-34],[-70,54],[25,10],[8,-20]],[[2578,2934],[-21,29],[13,39],[33,-39],[-25,-29]],[[2516,3089],[31,-4],[31,-63],[-81,-39],[-107,-12],[11,62],[58,-4],[57,60]],[[3978,3120],[-39,56],[18,21],[41,-26],[-20,-51]],[[3565,3061],[-66,54],[-18,43],[70,15],[14,-112]],[[2806,3185],[71,3],[-52,-41],[55,-49],[64,-8],[15,26],[-1,-55],[41,-68],[-30,-12],[-39,26],[4,34],[-63,-8],[-74,28],[32,20],[-50,110],[27,-6]],[[3292,3128],[-19,-64],[-64,-13],[-11,82],[94,-5]],[[2664,3169],[15,-49],[61,20],[-16,-40],[40,-44],[-89,-5],[-41,116],[30,2]],[[3769,2660],[-18,0],[4,39],[29,10],[-15,-49]],[[1972,2575],[-14,31],[33,29],[20,-29],[-39,-31]],[[4096,2371],[-186,110],[-184,18],[-50,-54],[-43,7],[-19,41],[40,29],[25,-16],[8,36],[72,29],[0,49],[81,-8],[16,18],[31,-55],[-1,71],[43,53],[33,-10],[-8,-39],[48,19],[35,-19],[-3,108],[33,-49],[29,-2],[0,-97],[-21,-29],[21,-9],[0,-201]],[[3986,2601],[-34,6],[-10,-43],[28,-2],[16,39]],[[3484,2728],[6,-49],[-30,-29],[-8,58],[-89,0],[-40,20],[-1,25],[14,22],[140,32],[41,-68],[-33,-11]],[[3953,2065],[-40,-32],[-21,63],[16,29],[45,-60]],[[2792,2077],[-23,-22],[-13,46],[20,2],[16,-26]],[[3485,2125],[4,-33],[37,27],[39,-29],[-16,-54],[-40,-23],[-49,20],[-32,-49],[-41,-10],[-81,49],[-48,-69],[-81,0],[24,-39],[-48,-29],[-8,-39],[-46,9],[-2,129],[198,142],[132,-15],[45,39],[13,-26]],[[2311,2297],[0,-65],[33,-3],[-41,-69],[49,20],[-8,-98],[40,-49],[4,-52],[-30,17],[-43,-23],[-37,84],[10,58],[-97,11],[-118,-112],[12,-85],[-41,-35],[-14,51],[95,174],[24,10],[33,98],[129,68]],[[1337,2144],[-5,-29],[-24,6],[7,20],[22,3]],[[1500,2179],[-4,-27],[-13,-9],[-17,32],[18,30],[16,-26]],[[2575,2083],[-15,-6],[3,23],[27,27],[13,-41],[-28,-3]],[[2436,2213],[53,25],[-6,-66],[-42,-32],[-65,89],[35,20],[25,-36]],[[2597,2213],[9,-37],[-44,-6],[44,80],[-9,-37]],[[3408,2511],[52,-57],[57,0],[-49,-30],[8,-39],[-69,-51],[-43,8],[-51,-27],[13,-20],[69,33],[-56,-31],[38,-33],[-21,8],[-35,-69],[-103,-7],[-69,73],[-97,-33],[-70,-57],[38,52],[-67,-8],[-24,-58],[-35,-15],[-16,20],[-50,-27],[13,17],[-21,22],[-31,-60],[-33,48],[-57,-39],[-72,9],[8,49],[78,-20],[86,78],[38,-18],[-49,65],[49,42],[33,-19],[137,39],[-12,-78],[61,49],[8,49],[35,-55],[18,5],[36,99],[97,9],[8,40],[56,9],[18,-59],[39,30],[-8,39],[24,29],[21,-11]],[[143,3566],[-8,-17],[-23,40],[40,8],[-9,-31]],[[58,3336],[31,11],[-21,-62],[-41,33],[17,33],[14,-15]],[[0,3923],[0,46],[14,13],[-3,-38],[3,-41],[-14,20]],[[0,3513],[0,200],[17,8],[23,-66],[-36,-50],[83,-57],[-80,-40],[-7,5]],[[0,3155],[0,138],[62,-69],[1,-50],[-35,-71],[-28,52]],[[0,3075],[0,78],[12,-46],[-12,-32]]]}