{"objects":{"water":{"type":"GeometryCollection","geometries":[{"type":"Polygon","properties":{"kind":"lake","name":"Lake Amadeus","area":1297262336,"sort_rank":200,"alkaline":true,"source":"naturalearthdata.com","min_zoom":0.0,"id":1273},"arcs":[[116]]},{"type":"Polygon","properties":{"kind":"lake","name":"Lake Neale","area":555134784,"sort_rank":200,"alkaline":true,"source":"naturalearthdata.com","min_zoom":0.0,"id":1280},"arcs":[[117]]},{"type":"Point","properties":{"label_placement":true,"kind":"lake","name":"Lake Amadeus","area":1297262336,"sort_rank":200,"alkaline":true,"source":"naturalearthdata.com","min_zoom":0.0,"id":1273},"coordinates":[1089,1850]},{"type":"Point","properties":{"label_placement":true,"kind":"lake","name":"Lake Neale","area":555134784,"sort_rank":200,"alkaline":true,"source":"naturalearthdata.com","min_zoom":0.0,"id":1280},"coordinates":[447,2190]},{"type":"LineString","properties":{"source":"naturalearthdata.com","kind":"lake","sort_rank":367,"alkaline":true,"boundary":true,"min_zoom":0.0,"id":1273},"arcs":[118]},{"type":"LineString","properties":{"source":"naturalearthdata.com","kind":"lake","sort_rank":367,"alkaline":true,"boundary":true,"min_zoom":0.0,"id":1280},"arcs":[119]}]},"buildings":{"type":"GeometryCollection","geometries":[]},"places":{"type":"GeometryCollection","geometries":[{"type":"Point","properties":{"name:pt":"Austr\u00e1lia","old_name:vi":"\u00dac \u0110\u1ea1i L\u1ee3i","name:cy":"Awstralia","name:ko":"\uc624\uc2a4\ud2b8\ub808\uc77c\ub9ac\uc544","name:kn":"\u0c86\u0cb8\u0ccd\u0c9f\u0ccd\u0cb0\u0cc7\u0cb2\u0cbf\u0caf","name:km":"\u17a2\u17bc\u179f\u17d2\u178f\u17d2\u179a\u17b6\u179b\u17b8","name:cs":"Austr\u00e1lie","name:tr":"Avustralya","name:ku":"Awistralya","name:ti":"\u12a0\u12cd\u1235\u1275\u122c\u120a\u12eb","name:ks":"\u0622\u0633\u0679\u0631\u06cc\u0644\u0650\u06cc\u0627","name:to":"\u02bbAositel\u0113lia","name:sv":"Australien","name:or":"\u0b05\u0b37\u0b4d\u0b1f\u0b4d\u0b30\u0b47\u0b32\u0b3f\u0b06","name:ta":"\u0b86\u0bb8\u0bcd\u0ba4\u0bbf\u0bb0\u0bc7\u0bb2\u0bbf\u0baf\u0bbe","name:tg":"\u0410\u0432\u0441\u0442\u0440\u0430\u043b\u0438\u044f","name:ca":"Austr\u00e0lia","name:te":"\u0c06\u0c38\u0c4d\u0c1f\u0c4d\u0c30\u0c47\u0c32\u0c3f\u0c2f\u0c3e","name:vi":"\u00dac","name:hu":"Ausztr\u00e1lia","name:ka":"\u10d0\u10d5\u10e1\u10e2\u10e0\u10d0\u10da\u10d8\u10d0","name:hr":"Australija","name:da":"Australien","name:de":"Australien","name:dz":"\u0f68\u0f71\u0f7c\u0f66\u0f0b\u0f4a\u0fb2\u0f7a\u0f63\u0f0b\u0f63\u0f72\u0f0b\u0f61","source":"openstreetmap.org","name:iu":"\u140a\u1505\u1466\u154c\u14d5\u140a \/ astraalia","name:lv":"Austr\u0101lija","name:lt":"Australija","name:uz":"Avstraliya","name:kk":"\u0410\u0432\u0441\u0442\u0440\u0430\u043b\u0438\u044f","name:he":"\u05d0\u05d5\u05e1\u05d8\u05e8\u05dc\u05d9\u05d4","kind":"country","name:ur":"\u0622\u0633\u0679\u0631\u06cc\u0644\u06cc\u0627","name:lb":"Australien","name:lg":"Awusitureliya","name:uk":"\u0410\u0432\u0441\u0442\u0440\u0430\u043b\u0456\u044f","name:hy":"\u0531\u057e\u057d\u057f\u0580\u0561\u056c\u056b\u0561","min_zoom":2.0,"name:li":"Australi\u00eb","name:ln":"Osit\u00e1li","name:lo":"\u0ead\u0ead\u0e94\u0eaa\u0eb0\u0ec0\u0e95\u0ec0\u0ea5\u0e8d","population":20600856,"name:el":"\u0391\u03c5\u03c3\u03c4\u03c1\u03b1\u03bb\u03af\u03b1","name:eo":"A\u016dstralio","name":"Australia","name:ee":"Australia nutome","name:th":"\u0e1b\u0e23\u0e30\u0e40\u0e17\u0e28\u0e2d\u0e2d\u0e2a\u0e40\u0e15\u0e23\u0e40\u0e25\u0e35\u0e22","name:gu":"\u0a91\u0ab8\u0acd\u0a9f\u0acd\u0ab0\u0ac7\u0ab2\u0abf\u0aaf\u0abe","name:et":"Austraalia","name:nl":"Australi\u00eb","name:yo":"Or\u00edl\u1eb9\u0301\u00e8de \u00c1str\u00e0l\u00ec\u00e1","name:mt":"Awstralja","name:rn":"Ositaraliya","name:az":"Avstraliya","name:mr":"\u0911\u0938\u094d\u091f\u094d\u0930\u0947\u0932\u093f\u092f\u093e","name:ar":"\u0623\u0633\u062a\u0631\u0627\u0644\u064a\u0627","name:my":"\u1029\u1005\u1010\u103c\u1031\u1038\u101c\u103b\u103e\u102c\u1038","official_name":"Commonwealth of Australia","name:is":"\u00c1stral\u00eda","name:am":"\u12a0\u12cd\u1235\u1275\u122c\u120a\u12eb","name:ml":"\u0d13\u0d38\u0d4d\u0d1f\u0d4d\u0d30\u0d47\u0d32\u0d3f\u0d2f","name:ru":"\u0410\u0432\u0441\u0442\u0440\u0430\u043b\u0438\u044f","name:mn":"\u0410\u0432\u0441\u0442\u0440\u0430\u043b\u0438","name:mi":"Ahitereiria","id":424315584,"name:mk":"\u0410\u0432\u0441\u0442\u0440\u0430\u043b\u0438\u0458\u0430","name:af":"Australi\u00eb","name:zu":"i-Australia","name:ha":"Ostareliya","name:ff":"Ostaraalii","name:hi":"\u0911\u0938\u094d\u091f\u094d\u0930\u0947\u0932\u093f\u092f\u093e","name:mg":"Aostralia","name:fo":"Avstralia","name:fr":"Australie","name:fy":"Austraalje","name:vo":"Laustral\u00e4n","name:zh":"\u6fb3\u5927\u5229\u4e9a","name:so":"Awstaraaliya","name:sl":"Avstralija","name:sk":"Austr\u00e1lia","name:ja":"\u30aa\u30fc\u30b9\u30c8\u30e9\u30ea\u30a2","name:si":"\u0d95\u0dc3\u0dca\u0da7\u0dca\u200d\u0dbb\u0dda\u0dbd\u0dd2\u0dba\u0dcf\u0dc0","name:fa":"\u0627\u0633\u062a\u0631\u0627\u0644\u06cc\u0627","name:sg":"Ostral\u00efi, Sotral\u00efi","name:se":"Austr\u00e1lia","name:ne":"\u0905\u0937\u094d\u091f\u094d\u0930\u0947\u0932\u093f\u092f\u093e","name:br":"Aostralia","name:bs":"Australija","name:bm":"Ositirali","name:bn":"\u0985\u09b8\u09cd\u099f\u09cd\u09b0\u09c7\u09b2\u09bf\u09af\u09bc\u09be","name:bo":"\u0f68\u0f66\u0f9f\u0fb2\u0f7a\u0f0b\u0f63\u0f72\u0f0b\u0f61\u0f0d","name:be":"\u0410\u045e\u0441\u0442\u0440\u0430\u043b\u0456\u044f","name:bg":"\u0410\u0432\u0441\u0442\u0440\u0430\u043b\u0438\u044f","name:sr":"\u0410\u0443\u0441\u0442\u0440\u0430\u043b\u0438\u0458\u0430","name:sq":"Australi","name:ga":"An Astr\u00e1il","name:gd":"Astr\u00e0ilia","name:gv":"Yn Austrail","name:ak":"\u0186strelia"},"coordinates":[3918,1828]},{"type":"Point","properties":{"source":"naturalearthdata.com","kind":"locality","name":"Alice Springs","population":27710,"min_zoom":5.0,"id":7080},"coordinates":[3280,2689]},{"type":"Point","properties":{"source":"naturalearthdata.com","kind":"locality","name":"Yulara","population":930,"min_zoom":6.0,"id":5555},"coordinates":[1175,1456]},{"type":"Point","properties":{"source":"naturalearthdata.com","kind":"locality","name":"Erldunda","population":10,"min_zoom":6.0,"id":5556},"coordinates":[2785,1462]}]},"transit":{"type":"GeometryCollection","geometries":[{"type":"MultiLineString","properties":{"source":"openstreetmap.org","kind":"train","name":"The Ghan","sort_rank":275,"min_zoom":6.0,"osm_relation":true},"arcs":[[1],[2],[3],[4],[5],[6],[7],[8],[9],[10],[11],[12],[13]]},{"type":"MultiLineString","properties":{"kind":"train","name":"Central Australia Railway (Narrow Gauge - The Old Ghan)","sort_rank":275,"source":"openstreetmap.org","min_zoom":6.0,"operator":"Commonwealth Railways","osm_relation":true,"network":"Commonwealth Railways"},"arcs":[[14],[15],[16],[17],[18],[19],[20],[21],[22],[23],[24],[25],[26],[27],[28],[29],[30],[31],[32],[33],[34],[35],[36],[37],[38],[39],[40],[41],[42],[43],[44],[45],[46],[47],[48],[49],[50],[51],[52],[53],[54],[55],[56],[57],[58],[59],[60],[61],[62],[63],[64],[65],[66],[67],[68],[69],[70],[71],[72],[73],[74],[75],[76],[77],[78],[79],[80],[81],[82],[83],[84],[85],[86],[87],[88],[89],[90],[91],[92],[93],[94],[95],[96],[97],[98],[99],[100],[101],[102],[103],[104],[105],[106],[107],[108],[109],[110],[111],[112],[113],[114],[115]]}]},"pois":{"type":"GeometryCollection","geometries":[{"type":"Point","properties":{"kind":"national_park","protect_class":"2","area":2453190000,"source":"openstreetmap.org","min_zoom":5.16,"tier":1,"id":-5611722,"osm_relation":true,"name":"West MacDonnell National Park"},"coordinates":[2436,2801]}]},"boundaries":{"type":"GeometryCollection","geometries":[{"type":"LineString","properties":{"source":"naturalearthdata.com","kind":"region","sort_rank":256,"kind_detail":"4","min_zoom":2.0,"id":4996},"arcs":[0]}]},"roads":{"type":"GeometryCollection","geometries":[{"type":"LineString","properties":{"source":"naturalearthdata.com","kind":"highway","sort_rank":355,"kind_detail":"trunk","min_zoom":3.0,"id":45760},"arcs":[120]},{"type":"LineString","properties":{"source":"naturalearthdata.com","kind":"highway","kind_detail":"trunk","sort_rank":355,"landuse_kind":"national_park","min_zoom":3.0,"id":45888},"arcs":[121]},{"type":"MultiLineString","properties":{"source":"naturalearthdata.com","kind":"highway","sort_rank":355,"kind_detail":"trunk","min_zoom":3.0,"id":45888},"arcs":[[122],[123]]},{"type":"LineString","properties":{"source":"naturalearthdata.com","kind":"highway","kind_detail":"trunk","sort_rank":355,"landuse_kind":"urban_area","min_zoom":3.0,"id":46150},"arcs":[124]},{"type":"MultiLineString","properties":{"source":"naturalearthdata.com","kind":"highway","sort_rank":355,"kind_detail":"trunk","min_zoom":3.0,"id":46150},"arcs":[[125],[126]]},{"type":"LineString","properties":{"source":"naturalearthdata.com","kind":"highway","sort_rank":355,"kind_detail":"trunk","min_zoom":4.0,"id":46169},"arcs":[127]},{"type":"LineString","properties":{"source":"naturalearthdata.com","kind":"minor_road","sort_rank":355,"kind_detail":"tertiary","min_zoom":6.0,"id":46365},"arcs":[128]},{"type":"LineString","properties":{"source":"naturalearthdata.com","kind":"highway","kind_detail":"trunk","sort_rank":355,"landuse_kind":"protected_area","min_zoom":3.0,"id":47182},"arcs":[129]},{"type":"LineString","properties":{"source":"naturalearthdata.com","kind":"highway","kind_detail":"trunk","sort_rank":355,"landuse_kind":"protected_area","min_zoom":3.0,"id":47182},"arcs":[130]},{"type":"MultiLineString","properties":{"source":"naturalearthdata.com","kind":"highway","sort_rank":355,"kind_detail":"trunk","min_zoom":3.0,"id":47182},"arcs":[[131],[132]]}]},"earth":{"type":"GeometryCollection","geometries":[{"type":"Polygon","properties":{"sort_rank":10,"source":"naturalearthdata.com","min_zoom":0.0,"kind":"earth","area":1552273223191},"arcs":[[133]]}]},"landuse":{"type":"GeometryCollection","geometries":[{"type":"Polygon","properties":{"kind":"national_park","protect_class":"2","area":2453189888,"sort_rank":18,"source":"openstreetmap.org","min_zoom":3.0,"tier":1,"id":-5611722,"osm_relation":true},"arcs":[[134],[135],[136]]},{"type":"MultiPolygon","properties":{"source":"naturalearthdata.com","kind":"urban_area","name":"","area":131457479,"sort_rank":11,"min_zoom":4.0},"arcs":[[[137]],[[138]]]},{"type":"MultiPolygon","properties":{"kind":"protected_area","protect_class":"24","area":129455743325,"sort_rank":17,"source":"openstreetmap.org","min_zoom":4.0,"tier":2,"osm_relation":true},"arcs":[[[139]],[[140]]]},{"type":"Polygon","properties":{"source":"openstreetmap.org","kind":"nature_reserve","area":775947008,"tier":2,"id":227896723,"min_zoom":6.0,"sort_rank":23},"arcs":[[141]]},{"type":"MultiPolygon","properties":{"source":"openstreetmap.org","kind":"park","tier":2,"area":1434610208,"sort_rank":24,"min_zoom":6.0},"arcs":[[[142]],[[143]]]}]}},"type":"Topology","transform":{"translate":[129.375,-27.0591257844],"scale":[0.001373291,0.001249043]},"arcs":[[[4096,848],[-68,0],[-205,0],[-205,0],[-205,0],[-204,0],[-205,0],[-205,0],[-205,0],[-32,0],[-173,0],[-204,0],[-205,0],[-205,0],[-205,0],[-205,0],[-204,0],[-205,0],[-205,0],[-205,0],[-205,0],[-204,0],[-137,0]],[[2909,75],[0,-4]],[[2909,71],[0,-3]],[[2909,68]],[[2909,68]],[[2911,70],[-2,1]],[[2909,68],[2,2]],[[2911,70],[3,-1]],[[3256,2587],[-2,-7]],[[3254,2580],[-2,-6]],[[3252,2574]],[[2947,0],[-35,47],[-30,153],[60,134],[-13,393],[40,473],[65,298],[68,67],[-5,169],[55,156],[5,225],[95,459]],[[3252,2574],[4,13]],[[3256,2587],[20,214],[-82,281],[8,145],[158,869]],[[3263,2701],[1,-1]],[[3264,2700],[2,-1]],[[3264,2700],[2,-1]],[[3266,2699],[12,-9]],[[3278,2690],[0,-1]],[[3278,2689],[-7,-57]],[[3271,2632],[0,-2]],[[3271,2630]],[[3266,2699]],[[3270,2631]],[[3270,2631],[1,1]],[[3270,2631],[1,-1]],[[3271,2626],[0,1]],[[3271,2626],[0,1]],[[3271,2627]],[[3272,2625],[-1,1]],[[3271,2626],[0,1]],[[3271,2627]],[[3271,2626],[0,1]],[[3271,2627]],[[3271,2626]],[[3272,2625],[-1,1]],[[3272,2625],[-1,2]],[[3271,2627],[0,3]],[[3271,2630],[1,-5]],[[4096,558],[-108,182]],[[3988,740]],[[3988,740],[-1,2]],[[3987,742],[0,1]],[[3987,743],[-166,316],[-63,268],[-36,54]],[[3722,1381],[-1,1]],[[3721,1382],[-305,654],[-10,127]],[[3406,2163],[0,46],[-58,212],[-63,153]],[[3285,2574],[0,1]],[[3285,2575],[-13,50]],[[3278,2690],[0,1]],[[3278,2690],[0,1]],[[3278,2690],[0,1]],[[3278,2689],[1,3]],[[3278,2690]],[[3406,2163],[2,-1]],[[3720,1381]],[[3720,1381]],[[3720,1381]],[[3720,1381]],[[3720,1381]],[[3720,1381]],[[3720,1381],[1,0]],[[3721,1381]],[[3721,1381],[-1,0]],[[3720,1381]],[[3720,1381]],[[3721,1382],[0,-1]],[[3721,1381],[-1,0]],[[3721,1381],[1,0]],[[3722,1381]],[[3791,1173]],[[3791,1173]],[[3791,1172]],[[3791,1172],[0,1]],[[3791,1172],[0,1]],[[3791,1173]],[[3791,1173],[0,-1]],[[3791,1172]],[[3987,743],[1,-3]],[[3987,742],[1,-1]],[[3988,741],[2,1]],[[3988,741],[0,-1]],[[3989,742]],[[3989,742],[0,-1]],[[3271,2626]],[[3271,2626]],[[3271,2626]],[[3271,2626]],[[3271,2626]],[[3271,2626]],[[3278,2690]],[[3278,2690]],[[3278,2690]],[[3278,2690]],[[3278,2690]],[[3406,2164]],[[3406,2164]],[[3406,2163]],[[3431,2006],[0,-1],[0,1]],[[3557,1734]],[[3557,1734]],[[3633,1593]],[[3721,1382]],[[3722,1382]],[[3787,1183]],[[3787,1183]],[[3787,1183]],[[3787,1183]],[[3787,1183]],[[3787,1183]],[[3987,743]],[[3988,744]],[[3988,744],[1,0],[-1,0]],[[3988,742],[1,0]],[[3989,742],[0,-1]],[[3989,742],[-1,0]],[[1365,1718],[106,-15],[24,-15],[2,-20],[-21,-3],[-159,14],[-14,4],[-13,8],[-17,16],[-21,12],[-12,-4],[-12,-14],[-17,-14],[-19,22],[-31,46],[-22,20],[-111,64],[-91,70],[-18,9],[-80,27],[-81,43],[-22,17],[-9,17],[9,17],[19,-1],[65,-34],[26,-10],[27,-5],[33,-2],[35,-7],[66,-36],[34,-13],[23,-2],[47,5],[23,-1],[0,-12],[-10,-18],[-2,-11],[8,-15],[17,-16],[106,-67],[-7,-16],[8,-10],[30,-10],[81,-40]],[[499,2176],[12,-8],[12,-2],[13,0],[13,-2],[15,-8],[64,-49],[8,-16],[-5,-11],[-22,1],[-51,21],[-19,5],[-40,2],[-15,7],[-34,44],[-20,18],[-22,14],[-27,12],[-77,24],[-22,14],[6,16],[-1,34],[5,9],[67,0],[12,-8],[16,-26],[11,-11],[84,-16],[15,-7],[-2,-8],[-7,-8],[-7,-7],[-4,-4],[2,-11],[5,-8],[15,-11]],[[1365,1718],[106,-15],[24,-15],[2,-20],[-21,-3],[-159,14],[-14,4],[-13,8],[-17,16],[-21,12],[-12,-4],[-12,-14],[-17,-14],[-19,22],[-31,46],[-22,20],[-111,64],[-91,70],[-18,9],[-80,27],[-81,43],[-22,17],[-9,17],[9,17],[19,-1],[65,-34],[26,-10],[27,-5],[33,-2],[35,-7],[66,-36],[34,-13],[23,-2],[47,5],[23,-1],[0,-12],[-10,-18],[-2,-11],[8,-15],[17,-16],[106,-67],[-7,-16],[8,-10],[30,-10],[81,-40]],[[499,2176],[12,-8],[12,-2],[13,0],[13,-2],[15,-8],[64,-49],[8,-16],[-5,-11],[-22,1],[-51,21],[-19,5],[-40,2],[-15,7],[-34,44],[-20,18],[-22,14],[-27,12],[-77,24],[-22,14],[6,16],[-1,34],[5,9],[67,0],[12,-8],[16,-26],[11,-11],[84,-16],[15,-7],[-2,-8],[-7,-8],[-7,-7],[-4,-4],[2,-11],[5,-8],[15,-11]],[[2973,4096],[-24,-37],[-10,-23],[-18,-30],[-9,-23],[-3,-39],[3,-33],[-3,-37],[-12,-39],[-18,-43],[-18,-46],[-24,-70],[-6,-49],[3,-33],[6,-20],[15,-50],[9,-29],[9,-17],[18,-49],[36,-57],[19,-19],[24,-17],[18,-10],[42,-39],[60,-66],[12,-17],[21,-20],[6,-16]],[[3231,2756],[3,-36]],[[3129,3168],[9,-17],[12,-20],[21,-79],[6,-30],[6,-19],[9,-56],[24,-96],[9,-50],[6,-39],[0,-6]],[[3234,2720],[0,-1]],[[3234,2718],[0,-17]],[[3234,2701],[0,-5],[6,-33],[-3,-17],[-9,-13],[-24,-17],[-15,-20],[-45,-66],[-15,-16],[-18,-23],[-15,-20],[-30,-26],[-24,-17],[-18,-20],[-18,-13],[-18,-20],[-9,-20],[-15,-39],[-12,-27],[-19,-26],[3,-10],[10,-13],[3,-17],[-13,-16],[-18,-17],[-96,-92],[-18,-17],[-15,-39],[-12,-20],[-24,-26],[-6,-17],[0,-20],[-15,-49],[-3,-30],[0,-20],[3,-36],[6,-60],[0,-85],[-3,-43],[-3,-123]],[[3234,2719],[0,-1]],[[2732,1513],[-30,-3],[-12,-3],[-75,-20],[-39,7],[-24,-10],[-21,-10],[-27,-7],[-18,7],[-48,26],[-24,13],[-36,17],[-48,13],[-18,0],[-39,-3],[-30,3],[-36,-3],[-27,13],[-21,13],[-24,4],[-18,3],[-51,0],[-34,3],[-63,10],[-18,-3],[-27,-13],[-18,-10],[-24,-14],[-15,-16],[-21,-53],[-9,-23],[-15,-17],[-24,-16],[-30,-13],[-21,-4],[-36,4],[-24,6],[-24,10],[-24,7],[-36,6],[-90,24],[-48,9],[-54,10],[-87,23],[-39,14],[-51,13],[-12,3],[-42,7],[-15,0],[-27,-3],[-34,-10],[-21,-20],[-6,-20],[3,-26]],[[1080,1461],[-9,3],[-42,23],[-18,3],[-18,-3],[-24,-17],[-51,-42],[-24,-4],[-27,13],[-9,7],[-36,43],[-12,7],[-54,6],[-27,7],[-33,0],[-48,6],[-39,14],[-27,3],[-42,-3],[-27,3],[-57,13],[-90,10],[-54,13],[-54,13],[-9,4],[-15,16],[-37,-3],[-39,-7],[-51,7],[-36,13],[-18,17],[-36,23],[-17,16]],[[2888,274],[6,-15],[4,-8]],[[2899,249],[1,-4],[18,-59],[3,-20],[18,-72],[25,-47],[9,-16],[14,-31]],[[2732,1513],[3,-19],[9,-40],[3,-23],[-3,-63],[6,-26],[9,-30],[3,-26],[0,-43],[-6,-47],[3,-19],[15,-43],[9,-37],[3,-16],[27,-30],[6,-16],[-6,-14],[-12,-16],[-21,-33],[-9,-20],[-3,-16],[-15,-27],[-12,-26],[3,-13],[18,-37],[9,-6],[6,-17],[3,-23],[3,-20],[-3,-20],[-9,-29],[3,-33],[3,-17],[12,-46],[3,-56],[9,-60],[21,-66],[15,-53],[33,-72],[6,-13],[12,-28]],[[2898,251],[1,-2]],[[0,4096],[4096,0],[0,-4096],[-4096,0],[0,4096]],[[2117,2681],[0,47],[159,-10],[0,74],[-85,35],[0,133],[68,-34],[-37,-53],[74,-46],[232,14],[224,-75],[18,-40],[211,-21],[58,19],[23,46],[96,0],[55,-38],[17,7],[-62,31],[111,-25],[-49,-27],[1,-49],[-169,1],[0,44],[-89,-43],[-203,0],[0,24],[-152,38],[-26,-56],[46,-12],[-11,-24],[-117,0],[0,40],[-52,7],[-341,-7]],[[2399,2716],[9,-22],[14,-3],[7,20],[-30,5]],[[2316,2745],[41,-25],[2,53],[-28,-10],[-15,-18]],[[3185,2592],[-29,21],[5,41],[18,-24],[6,-38]],[[3287,2738],[35,-42],[-40,-32],[-39,9],[-13,41],[28,29],[29,-5]],[[2946,0],[-2946,0],[0,849],[2721,0],[-2,-283],[-40,-104],[-5,-120],[38,-68],[194,0],[-25,-73],[28,-151],[37,-50]],[[3108,0],[-160,0],[-37,49],[-28,152],[24,73],[275,-1],[-51,-246],[-23,-27]],[[2770,2474],[1,113],[219,-4],[1,-145],[-221,-1],[0,37]],[[1453,2264],[0,75],[161,0],[140,-112],[-17,-21],[46,-41],[0,-33],[-70,7],[-113,63],[-61,0],[-86,62]],[[2354,2417],[212,-14],[0,-174],[-115,0],[0,153],[-97,1],[0,34]]]}