{"objects":{"water":{"type":"GeometryCollection","geometries":[{"type":"Polygon","properties":{"source":"naturalearthdata.com","kind":"lake","name":"Lake Sevana","area":2376054784,"sort_rank":200,"min_zoom":0.0,"id":590},"arcs":[[249]]},{"type":"Polygon","properties":{"kind":"lake","name":"Mingevir Reservoir","reservoir":true,"area":990142336,"sort_rank":200,"source":"naturalearthdata.com","min_zoom":0.0,"id":1042},"arcs":[[250]]},{"type":"Point","properties":{"label_placement":true,"kind":"lake","name":"Lake Sevana","area":2376054784,"sort_rank":200,"source":"naturalearthdata.com","min_zoom":0.0,"id":590},"coordinates":[528,2955]},{"type":"Point","properties":{"label_placement":true,"kind":"lake","name":"Mingevir Reservoir","reservoir":true,"area":990142336,"sort_rank":200,"source":"naturalearthdata.com","min_zoom":0.0,"id":1042},"coordinates":[2347,3974]},{"type":"MultiLineString","properties":{"source":"naturalearthdata.com","kind":"lake","sort_rank":367,"boundary":true,"min_zoom":0.0,"id":590},"arcs":[[251],[252],[253]]},{"type":"MultiLineString","properties":{"source":"naturalearthdata.com","kind":"lake","reservoir":true,"sort_rank":367,"boundary":true,"min_zoom":0.0,"id":1042},"arcs":[[254],[255]]}]},"buildings":{"type":"GeometryCollection","geometries":[]},"places":{"type":"GeometryCollection","geometries":[{"type":"Point","properties":{"name:kg":"Azerbaidjan","name:ka":"\u10d0\u10d6\u10d4\u10e0\u10d1\u10d0\u10d8\u10ef\u10d0\u10dc\u10d8","name:ko":"\uc544\uc81c\ub974\ubc14\uc774\uc794","name:cv":"\u0410\u0437\u0435\u0440\u0431\u0430\u0439\u0434\u0436\u0430\u043d","name:cu":"\u0410\ua641\u0463\u0440\u0431\u0430\u0438\u0447\u0430\u043d\u044a","name:kl":"Aserbajdsjan","name:cs":"\u00c1zerb\u00e1jd\u017e\u00e1n","name:ki":"Azabajani","name:co":"Azerbaighjan","name:kv":"\u0410\u0437\u0435\u0440\u0431\u0430\u0439\u0434\u0436\u0430\u043d","name:ku":"Azerbaycan","name:ti":"\u12a0\u12d8\u122d\u1263\u1303\u1295","name:ks":"\u0622\u0632\u064e\u0631\u0628\u0627\u062c\u0627\u0646","name:to":"\u02bbAsapaisani","name:tl":"Aserbayan","name:ce":"\u0410\u0437\u0435\u0440\u0431\u0430\u0439\u0434\u0436\u0430\u043d","name:ta":"\u0b85\u0b9a\u0bb0\u0bcd\u0baa\u0bc8\u0b9c\u0bbe\u0ba9\u0bcd","name:tg":"\u041e\u0437\u0430\u0440\u0431\u043e\u0439\u04b7\u043e\u043d","name:ca":"Azerbaidjan","name:te":"\u0c05\u0c1c\u0c30\u0c4d\u0c2c\u0c48\u0c1c\u0c3e\u0c28\u0c4d","name:cy":"Azerbaijan","name:hr":"Azerbejd\u017ean","name:da":"Aserbajdsjan","name:de":"Aserbaidschan","name:dz":"\u0f68\u0f0b\u0f5b\u0f62\u0f0b\u0f56\u0fb7\u0f60\u0f72\u0f0b\u0f47\u0f71\u0f53","source":"openstreetmap.org","name:kn":"\u0c85\u0c9c\u0cb0\u0ccd\u0cac\u0cc8\u0c9c\u0cbe\u0ca8\u0ccd","name:dv":"\u0787\u07a6\u0792\u07a6\u0783\u07aa\u0784\u07a6\u0787\u07a8\u0796\u07a7\u0782\u07b0","name:km":"\u17a2\u17b6\u17a0\u17ca\u17d2\u179f\u17c2\u179a\u1794\u17c2\u17a0\u17d2\u179f\u1784\u17cb","name:lv":"Azerbaid\u017e\u0101na","name:lt":"Azerbaid\u017eanas","name:uz":"Ozarbayjon","name:kk":"\u04d8\u0437\u0456\u0440\u0431\u0430\u0439\u0436\u0430\u043d","name:ur":"\u0622\u0630\u0631\u0628\u0627\u0626\u062c\u0627\u0646","name:lb":"Aserbaidschan","name:la":"Adrabigania","name:lg":"Azerebayijaani","name:uk":"\u0410\u0437\u0435\u0440\u0431\u0430\u0439\u0434\u0436\u0430\u043d","name:ug":"\u0626\u06d5\u0632\u06d5\u0631\u0628\u06d5\u064a\u062c\u0627\u0646","name:li":"Azerbaidzjan","name:ln":"Az\u025bl\u025bbaiz\u00e1","name:lo":"\u0ead\u0eb2\u0ec0\u0e8a\u0eb5\u0ec4\u0e9a\u0e88\u0eb1\u0e99","name:el":"\u0391\u03b6\u03b5\u03c1\u03bc\u03c0\u03b1\u03ca\u03c4\u03b6\u03ac\u03bd","name:eo":"Azerbaj\u011dano","name:en":"Azerbaijan","name":"Az\u0259rbaycan","name:tk":"Azerba\u00fdjan","name:ee":"Azerbaijan nutome","name:th":"\u0e1b\u0e23\u0e30\u0e40\u0e17\u0e28\u0e2d\u0e32\u0e40\u0e0b\u0e2d\u0e23\u0e4c\u0e44\u0e1a\u0e08\u0e32\u0e19","name:eu":"Azerbaijan","name:et":"Aserbaid\u017eaan","name:es":"Azerbaiy\u00e1n","name:ia":"Azerbaidzhan","name:rm":"Aserbaidschan","name:rn":"Azerubayijani","name:ro":"Azerbaidjan","name:ie":"Azerbaidjan","name:id":"Azerbaijan","name:ar":"\u0623\u0630\u0631\u0628\u064a\u062c\u0627\u0646","name:io":"Azerbaijan","name:av":"\u0410\u0437\u0430\u0440\u0431\u0438\u0436\u0430\u043d","name:ak":"Azebaegyan","name:am":"\u12a0\u12d8\u122d\u1263\u1303\u1295","name:it":"Azerbaigian","name:an":"Azerbaich\u00e1n","name:ru":"\u0410\u0437\u0435\u0440\u0431\u0430\u0439\u0434\u0436\u0430\u043d","name:ab":"\u0410\u0437\u0435\u0440\u0431\u0430\u0438\u045f\u044c\u0430\u043d","name:af":"Azerbeidjan","name:zu":"i-Azerbaijan","name:za":"Ahsehbaiqgyangh","name:zh-yue":"\u963f\u585e\u62dc\u7586","name:zh":"\u963f\u585e\u62dc\u7586","name:so":"Azerbajaan","name:sn":"Azabajani","name:sm":"Azerbaijin","name:sl":"Azerbajd\u017ean","name:sk":"Azerbajd\u017ean","name:ja":"\u30a2\u30bc\u30eb\u30d0\u30a4\u30b8\u30e3\u30f3","name:si":"\u0d85\u0dc3\u0dbb\u0dca\u0db6\u0dba\u0dd2\u0da2\u0dcf\u0db1\u0dba","name:sh":"Azerbejd\u017ean","name:sg":"Zerebaidy\u00e4an, Azerbaidy\u00e4an,","name:se":"Aserbai\u017ean","name:sc":"Azerbaigi\u00e1n","name:br":"Azerbaidjan","name:bs":"Azerbejd\u017ean","name:bm":"Az\u025brbayja\u014b","name:bn":"\u0986\u099c\u09be\u09b0\u09ac\u09be\u0987\u099c\u09be\u09a8","name:bo":"\u0f68\u0f5b\u0f62\u0f0b\u0f56\u0f61\u0f7a\u0f0b\u0f47\u0f53\u0f0d","name:bi":"Azerbaijan","name:sw":"Azabajani","name:be":"\u0410\u0437\u0435\u0440\u0431\u0430\u0439\u0434\u0436\u0430\u043d","name:su":"Azerbaijan","name:bg":"\u0410\u0437\u0435\u0440\u0431\u0435\u0439\u0434\u0436\u0430\u043d","name:ss":"IZebajani","name:ba":"\u04d8\u0437\u0435\u0440\u0431\u0430\u0439\u0436\u0430\u043d","name:sq":"Azerbajxhan","name:jv":"Azerbaijan","name:sa":"\u0905\u091c\u0930\u094d\u092c\u0948\u091c\u093e\u0928","name:pt":"Azerbaij\u00e3o","name:ps":"\u0622\u0632\u0631\u0628\u0627\u064a\u062c\u0627\u0646","name:oc":"Azerbaitjan","min_zoom":2.0,"int_name":"Azerbaijan","name:zh-min-nan":"Azerbaijan","name:os":"\u0410\u0437\u0435\u0440\u0431\u0430\u0439\u0434\u0436\u0430\u043d","name:or":"\u0b06\u0b1c\u0b47\u0b30\u0b2c\u0b3e\u0b07\u0b1c\u0b3e\u0b28\u0b4d","name:pl":"Azerbejd\u017can","name:sr":"\u0410\u0437\u0435\u0440\u0431\u0435\u0458\u045f\u0430\u043d","name:pa":"\u0a05\u0a1c\u0a3c\u0a30\u0a2c\u0a3e\u0a08\u0a1c\u0a3e\u0a28","name:tr":"Azerbaycan","name:hi":"\u0905\u091c\u093c\u0930\u092c\u0948\u091c\u093e\u0928","name:sv":"Azerbajdzjan","name:he":"\u05d0\u05d6\u05e8\u05d1\u05d9\u05d9\u05d2'\u05df","name:ha":"Azarbaijan","name:hy":"\u0531\u0564\u0580\u0562\u0565\u057b\u0561\u0576","name:ht":"Azerbaydjan","name:hu":"Azerbajdzs\u00e1n","name:qu":"Asarsuyu","population":9105000,"kind":"country","name:is":"Aserba\u00eddsjan","name:yi":"\u05d0\u05d6\u05e2\u05e8\u05d1\u05d9\u05d9\u05d3\u05d6\u05e9\u05d0\u05df","name:yo":"Or\u00edl\u1eb9\u0301\u00e8de As\u1eb9\u0301b\u00e1j\u00e1n\u00ec","name:mt":"A\u017cerbaj\u0121an","name:ms":"Azerbaijan","name:mr":"\u0905\u091d\u0930\u092c\u0948\u091c\u093e\u0928","name:my":"\u1021\u1007\u102c\u1018\u102d\u102f\u1004\u103a\u1002\u103b\u1014\u103a","official_name":"Az\u0259rbaycan Respublikas\u0131","name:kw":"Azerbayjan","name:mg":"Azerbaidjan","name:ml":"\u0d05\u0d38\u0d7c\u0d2c\u0d48\u0d1c\u0d3e\u0d7b","name:vi":"Azerbaijan","name:mn":"\u0410\u0437\u0435\u0440\u0431\u0430\u0439\u0436\u0430\u043d","name:mi":"Atepaih\u0101nia","id":424313675,"name:mk":"\u0410\u0437\u0435\u0440\u0431\u0435\u0458\u045f\u0430\u043d","name:vo":"Las\u00e4rb\u00e4c\u00e4n","name:fa":"\u0622\u0630\u0631\u0628\u0627\u06cc\u062c\u0627\u0646","name:rw":"Azeribayijani","name:ff":"Ajerbayjaan","name:fi":"Azerbaid\u017ean","name:ky":"\u0410\u0437\u0435\u0440\u0431\u0430\u0439\u0436\u0430\u043d","name:fo":"Aserbajdsjan","name:fr":"Azerba\u00efdjan","name:fy":"Azerbeidzjan","name:nl":"Azerbeidzjan","name:nn":"Aserbajdsjan","name:no":"Aserbajdsjan","name:na":"Aderbaidjan","name:nb":"Aserbajdsjan","name:ne":"\u0905\u091c\u0930\u092c\u0948\u091c\u093e\u0928","name:ny":"Azerbaijan","name:wo":"Aserbayjaan","name:nv":"Az\u00e9\u00e9wii Bik\u00e9yah","name:ga":"An Asarbaise\u00e1in","name:gd":"Asarbaidean","name:gn":"Aservaij\u00e3","name:gl":"Acerbaix\u00e1n","name:gv":"Yn Asserbajaan","name:gu":"\u0a85\u0a9d\u0ab0\u0aac\u0ac8\u0a9c\u0abe\u0aa8","name:tt":"\u0410\u0437\u04d9\u0440\u0431\u0430\u0439\u0497\u0430\u043d"},"coordinates":[4059,2983]},{"type":"Point","properties":{"alt_name:eo":"Arca\u0125a Respubliko","name:az":"Da\u011fl\u0131q Qaraba\u011f Respublikas\u0131","name:ar":"\u062c\u0645\u0647\u0648\u0631\u064a\u0629 \u0645\u0631\u062a\u0641\u0639\u0627\u062a \u0642\u0631\u0629 \u0628\u0627\u063a","name:cs":"N\u00e1horn\u011b-karaba\u0161sk\u00e1 republika","name:io":"Republiko di Nagorno-Karabakh","min_zoom":2.0,"name:it":"Nagorno Karabakh","name:vi":"C\u1ed9ng h\u00f2a Nagorno-Karabakh","name:ru":"\u041d\u0430\u0433\u043e\u0440\u043d\u043e-\u041a\u0430\u0440\u0430\u0431\u0430\u0445\u0441\u043a\u0430\u044f \u0420\u0435\u0441\u043f\u0443\u0431\u043b\u0438\u043a\u0430","name:pl":"Republika G\u00f3rskiego Karabachu","id":1696853468,"name:ca":"Rep\u00fablica de l'Alt Karabagh","name:fa":"\u062c\u0645\u0647\u0648\u0631\u06cc \u0642\u0631\u0647\u200c\u0628\u0627\u063a","source":"openstreetmap.org","name:fi":"Vuoristo-Karabahin tasavalta","name:de":"Republik Bergkarabach","alt_name:vi":"C\u1ed9ng ho\u00e0 Nagorno-Karabakh","name:fr":"Haut-Karabagh","name:zh":"\u7eb3\u6208\u5c14\u8bfa-\u5361\u62c9\u5df4\u8d6b\u5171\u548c\u56fd","name:sk":"N\u00e1horn\u00fd Karabach","name:ja":"\u30ca\u30b4\u30eb\u30ce\u30fb\u30ab\u30e9\u30d0\u30d5\u5171\u548c\u56fd","name:no":"Nagorno-Karabakh","name:he":"\u05e0\u05d2\u05d5\u05e8\u05e0\u05d5-\u05e7\u05e8\u05d1\u05d7","kind":"country","name:tt":"\u0422\u0430\u0443\u043b\u044b \u041a\u0430\u0440\u0430\u0431\u0430\u0445 \u0496\u04e9\u043c\u04bb\u04af\u0440\u0438\u044f\u0442\u0435","name:uk":"\u041d\u0430\u0433\u0456\u0440\u043d\u043e-\u041a\u0430\u0440\u0430\u0431\u0430\u0441\u044c\u043a\u0430 \u0420\u0435\u0441\u043f\u0443\u0431\u043b\u0456\u043a\u0430","name:hy":"\u053c\u0565\u057c\u0576\u0561\u0575\u056b\u0576 \u0542\u0561\u0580\u0561\u0562\u0561\u0572\u056b \u0540\u0561\u0576\u0580\u0561\u057a\u0565\u057f\u0578\u0582\u0569\u0575\u0578\u0582","name:be":"\u041d\u0430\u0433\u043e\u0440\u043d\u0430-\u041a\u0430\u0440\u0430\u0431\u0430\u0445\u0441\u043a\u0430\u044f \u0420\u044d\u0441\u043f\u0443\u0431\u043b\u0456\u043a\u0430","name:hu":"Azeri Hegyi-Karabah \/ Arcak","name:sr":"\u041d\u0430\u0433\u043e\u0440\u043d\u043e-\u041a\u0430\u0440\u0430\u0431\u0430\u0445","population":144700,"name:eo":"Respubliko Montara Karaba\u0125o","name:en":"Nagorno-Karabakh Republic","name":"\u053c\u0565\u057c\u0576\u0561\u0575\u056b\u0576 \u0542\u0561\u0580\u0561\u0562\u0561\u0572\u056b \u0540\u0561\u0576\u0580\u0561\u057a\u0565\u057f\u0578\u0582\u0569\u0575\u0578\u0582 (Nagorno-Karabakh Republic)","name:ku":"Komara Qerebaxa Jor\u00een","name:nl":"Nagorno-Karabach","name:es":"Rep\u00fablica de Nagorno Karabaj"},"coordinates":[2472,1871]},{"type":"Point","properties":{"kind":"region","name:en":"Syunik","name":"\u054d\u0575\u0578\u0582\u0576\u056b\u0584","name:lt":"Siuniko sritis","kind_detail":"state","min_zoom":4.0,"name:de":"Sjunik","source":"openstreetmap.org","name:fr":"Siounie","name:uk":"\u0421\u044e\u043d\u0456\u043a","name:ru":"\u0421\u044e\u043d\u0438\u043a","name:pl":"Prowincja Sjunik","name:hu":"Szjounik","id":1884053545,"name:es":"Syunik'"},"coordinates":[1679,960]},{"type":"Point","properties":{"kind":"region","name:en":"Tavush","name":"\u054f\u0561\u057e\u0578\u0582\u0577","name:lt":"Tavu\u0161o sritis","kind_detail":"state","min_zoom":4.0,"name:de":"Tawusch","source":"openstreetmap.org","name:fr":"Tavouch","name:uk":"\u0422\u0430\u0432\u0443\u0448","name:ru":"\u0422\u0430\u0432\u0443\u0448","name:pl":"Prowincja Tawusz","name:hu":"Tavous","id":1884053546,"name:es":"Tavush"},"coordinates":[269,3807]},{"type":"Point","properties":{"kind":"region","name:en":"Gegharkunik","name":"\u0533\u0565\u0572\u0561\u0580\u0584\u0578\u0582\u0576\u056b\u0584","name:lt":"Gegarkuniko sritis","kind_detail":"state","min_zoom":4.0,"name:de":"Gegharkunik","source":"openstreetmap.org","name:fr":"G\u00e9gharkounik","name:uk":"\u0490\u0435\u0433\u0430\u0440\u043a\u0443\u043d\u0456\u043a","name:ru":"\u0413\u0435\u0445\u0430\u0440\u043a\u0443\u043d\u0438\u043a","name:pl":"Prowincja Gegharkunik","name:hu":"Gegarkounik","id":1884053542,"name:es":"Geghark'unik'"},"coordinates":[547,2811]},{"type":"Point","properties":{"name:ja":"\u30f4\u30a1\u30e8\u30c4\u30fb\u30be\u30eb","name:lt":"Vajocdzoro sritis","min_zoom":4.0,"name:uk":"\u0412\u0430\u0439\u043e\u0446-\u0414\u0437\u043e\u0440","name:ru":"\u0412\u0430\u0439\u043e\u0442\u0441 \u0414\u0437\u043e\u0440","name:pl":"Prowincja Wajoc Dzor","name:hu":"Vajoc Dzor","id":1884053547,"kind":"region","name:en":"Vayots Dzor","name":"\u054e\u0561\u0575\u0578\u0581 \u0541\u0578\u0580","kind_detail":"state","name:de":"Wajoz Dsor","source":"openstreetmap.org","name:fr":"Vayots Dzor","name:es":"Vayots' Dzor"},"coordinates":[664,1860]},{"type":"Point","properties":{"source":"naturalearthdata.com","kind":"locality","name":"Naxcivan","population":94788,"region_capital":true,"min_zoom":7.0,"id":4607},"coordinates":[600,734]},{"type":"Point","properties":{"source":"naturalearthdata.com","kind":"locality","name":"Stepanakert","population":57473,"min_zoom":7.0,"id":4478},"coordinates":[2551,1885]},{"type":"Point","properties":{"source":"naturalearthdata.com","kind":"locality","name":"Kapan","population":42288,"region_capital":true,"min_zoom":7.0,"id":4479},"coordinates":[2061,719]},{"type":"Point","properties":{"source":"naturalearthdata.com","kind":"locality","name":"Goycay","population":35348,"min_zoom":7.0,"id":4475},"coordinates":[3991,3476]}]},"transit":{"type":"GeometryCollection","geometries":[{"type":"LineString","properties":{"kind":"train","name:en":"Almast - Hrazdan (- Shorzha)","name":"\u0531\u056c\u0574\u0561\u057d\u057f - \u0540\u0580\u0561\u0566\u0564\u0561\u0576 (- \u0547\u0578\u0580\u056a\u0561)","sort_rank":275,"name:de":"Almast - Hrasdan (- Schorscha)","source":"openstreetmap.org","min_zoom":6.0,"id":-6687063,"osm_relation":true},"arcs":[244]},{"type":"MultiLineString","properties":{"source":"openstreetmap.org","kind":"train","name":"Tbilisi-Baku","sort_rank":275,"min_zoom":6.0,"osm_relation":true},"arcs":[[245],[246],[247],[248]]}]},"pois":{"type":"GeometryCollection","geometries":[]},"boundaries":{"type":"GeometryCollection","geometries":[{"type":"MultiLineString","properties":{"source":"naturalearthdata.com","kind":"country","sort_rank":262,"kind_detail":"2","min_zoom":0.0,"id":128},"arcs":[[0],[1]]},{"type":"MultiLineString","properties":{"source":"naturalearthdata.com","kind":"country","sort_rank":262,"kind_detail":"2","min_zoom":0.0,"id":129},"arcs":[[2],[3]]},{"type":"MultiLineString","properties":{"source":"naturalearthdata.com","kind":"country","sort_rank":262,"kind_detail":"2","min_zoom":0.0,"id":238},"arcs":[[4],[5]]},{"type":"MultiLineString","properties":{"source":"naturalearthdata.com","kind":"country","sort_rank":262,"kind_detail":"2","min_zoom":0.0,"id":88},"arcs":[[6],[7],[8],[9],[10],[11],[12],[13],[14],[15],[16]]},{"type":"MultiLineString","properties":{"source":"naturalearthdata.com","kind":"country","sort_rank":262,"kind_detail":"2","min_zoom":0.0,"id":89},"arcs":[[17],[18],[19],[20],[21],[22]]},{"type":"MultiLineString","properties":{"source":"naturalearthdata.com","kind":"country","sort_rank":262,"kind_detail":"2","min_zoom":0.0,"id":240},"arcs":[[23],[24],[25],[26],[27],[28],[29],[30],[31]]},{"type":"LineString","properties":{"source":"naturalearthdata.com","kind":"region","name":"Culfa - Bab\u0259k","sort_rank":256,"kind_detail":"4","min_zoom":7.0,"id":2562},"arcs":[32]},{"type":"MultiLineString","properties":{"source":"naturalearthdata.com","kind":"macroregion","name":"A\u011fdam - B\u0259rd\u0259","sort_rank":257,"kind_detail":"3","min_zoom":6.8,"id":4830},"arcs":[[33],[34]]},{"type":"LineString","properties":{"source":"naturalearthdata.com","kind":"macroregion","name":"B\u0259rd\u0259 - T\u0259rt\u0259r","sort_rank":257,"kind_detail":"3","min_zoom":6.8,"id":4831},"arcs":[35]},{"type":"LineString","properties":{"source":"naturalearthdata.com","kind":"region","name":"Z\u0259rdab - B\u0259rd\u0259","sort_rank":256,"kind_detail":"4","min_zoom":7.0,"id":4832},"arcs":[36]},{"type":"LineString","properties":{"source":"naturalearthdata.com","kind":"macroregion","name":"Yevlakh Rayon - \u015e\u0259ki","sort_rank":257,"kind_detail":"3","min_zoom":6.8,"id":4945},"arcs":[37]},{"type":"LineString","properties":{"source":"naturalearthdata.com","kind":"region","name":"Vayots Dzor - Ararat","sort_rank":256,"kind_detail":"4","min_zoom":7.0,"id":5029},"arcs":[38]},{"type":"LineString","properties":{"source":"naturalearthdata.com","kind":"region","name":"Syunik - Vayots Dzor","sort_rank":256,"kind_detail":"4","min_zoom":7.0,"id":5030},"arcs":[39]},{"type":"LineString","properties":{"source":"naturalearthdata.com","kind":"region","name":"West Azarbaijan - East Azarbaijan","sort_rank":256,"kind_detail":"4","min_zoom":5.0,"id":7419},"arcs":[40]},{"type":"MultiLineString","properties":{"source":"naturalearthdata.com","kind":"region","name":"East Azarbaijan - Ardebil","sort_rank":256,"kind_detail":"4","min_zoom":5.0,"id":1489},"arcs":[[41],[42],[43],[44],[45],[46],[47],[48],[49]]},{"type":"LineString","properties":{"source":"naturalearthdata.com","kind":"region","name":"Ordubad - Culfa","sort_rank":256,"kind_detail":"4","min_zoom":7.0,"id":2559},"arcs":[50]},{"type":"MultiLineString","properties":{"source":"naturalearthdata.com","kind":"region","name":"Bab\u0259k - Kangarli","sort_rank":256,"kind_detail":"4","min_zoom":7.0,"id":2560},"arcs":[[51],[52],[53]]},{"type":"LineString","properties":{"source":"naturalearthdata.com","kind":"region","name":"Bab\u0259k - Culfa","sort_rank":256,"kind_detail":"4","min_zoom":7.0,"id":2561},"arcs":[54]},{"type":"MultiLineString","properties":{"source":"naturalearthdata.com","kind":"region","name":"Culfa - \u015eahbuz","sort_rank":256,"kind_detail":"4","min_zoom":7.0,"id":2563},"arcs":[[55],[56],[57]]},{"type":"MultiLineString","properties":{"source":"naturalearthdata.com","kind":"region","name":"\u015eahbuz - Bab\u0259k","sort_rank":256,"kind_detail":"4","min_zoom":7.0,"id":2564},"arcs":[[58],[59]]},{"type":"LineString","properties":{"source":"naturalearthdata.com","kind":"region","name":"Culfa - Nax\u00e7\u0131van","sort_rank":256,"kind_detail":"4","min_zoom":7.0,"id":2565},"arcs":[60]},{"type":"MultiLineString","properties":{"source":"naturalearthdata.com","kind":"region","name":"Nax\u00e7\u0131van - Bab\u0259k","sort_rank":256,"kind_detail":"4","min_zoom":7.0,"id":2566},"arcs":[[61],[62],[63],[64]]},{"type":"MultiLineString","properties":{"source":"naturalearthdata.com","kind":"region","name":"Xocal\u0131 - \u015eu\u015fa","sort_rank":256,"kind_detail":"4","min_zoom":7.0,"id":2567},"arcs":[[65],[66],[67]]},{"type":"LineString","properties":{"source":"naturalearthdata.com","kind":"region","name":"Xocal\u0131 - \u015eu\u015fa","sort_rank":256,"kind_detail":"4","min_zoom":7.0,"id":2568},"arcs":[68]},{"type":"MultiLineString","properties":{"source":"naturalearthdata.com","kind":"region","name":"A\u011fdam - Xocal\u0131","sort_rank":256,"kind_detail":"4","min_zoom":7.0,"id":2569},"arcs":[[69],[70],[71]]},{"type":"MultiLineString","properties":{"source":"naturalearthdata.com","kind":"region","name":"A\u011fdam - T\u0259rt\u0259r","sort_rank":256,"kind_detail":"4","min_zoom":7.0,"id":2570},"arcs":[[72],[73],[74],[75],[76]]},{"type":"MultiLineString","properties":{"source":"naturalearthdata.com","kind":"macroregion","name":"Goranboy - T\u0259rt\u0259r","sort_rank":257,"kind_detail":"3","min_zoom":6.8,"id":2571},"arcs":[[77],[78],[79]]},{"type":"MultiLineString","properties":{"source":"naturalearthdata.com","kind":"region","name":"Xocav\u0259nd - Xocal\u0131","sort_rank":256,"kind_detail":"4","min_zoom":7.0,"id":2572},"arcs":[[80],[81]]},{"type":"LineString","properties":{"source":"naturalearthdata.com","kind":"region","name":"\u015eu\u015fa - Xocav\u0259nd","sort_rank":256,"kind_detail":"4","min_zoom":7.0,"id":2573},"arcs":[82]},{"type":"MultiLineString","properties":{"source":"naturalearthdata.com","kind":"region","name":"A\u011fdam - Xocav\u0259nd","sort_rank":256,"kind_detail":"4","min_zoom":7.0,"id":2574},"arcs":[[83],[84],[85],[86]]},{"type":"LineString","properties":{"source":"naturalearthdata.com","kind":"region","name":"Xanlar - Goranboy","sort_rank":256,"kind_detail":"4","min_zoom":7.0,"id":2577},"arcs":[87]},{"type":"LineString","properties":{"source":"naturalearthdata.com","kind":"region","name":"O\u011fuz - Q\u0259b\u0259l\u0259","sort_rank":256,"kind_detail":"4","min_zoom":7.0,"id":4967},"arcs":[88]},{"type":"LineString","properties":{"source":"naturalearthdata.com","kind":"region","name":"G\u0259d\u0259b\u0259y - \u015e\u0259mkir","sort_rank":256,"kind_detail":"4","min_zoom":7.0,"id":4969},"arcs":[89]},{"type":"LineString","properties":{"source":"naturalearthdata.com","kind":"macroregion","name":"Q\u0259b\u0259l\u0259 - G\u00f6y\u00e7ay","sort_rank":257,"kind_detail":"3","min_zoom":6.8,"id":4964},"arcs":[90]},{"type":"MultiLineString","properties":{"source":"naturalearthdata.com","kind":"region","name":"Xanlar - \u015e\u0259mkir","sort_rank":256,"kind_detail":"4","min_zoom":7.0,"id":4833},"arcs":[[91],[92],[93]]},{"type":"MultiLineString","properties":{"source":"naturalearthdata.com","kind":"region","name":"Ucar - Z\u0259rdab","sort_rank":256,"kind_detail":"4","min_zoom":7.0,"id":4876},"arcs":[[94],[95],[96]]},{"type":"LineString","properties":{"source":"naturalearthdata.com","kind":"macroregion","name":"Yevlakh Rayon - T\u0259rt\u0259r","sort_rank":257,"kind_detail":"3","min_zoom":6.8,"id":4885},"arcs":[97]},{"type":"LineString","properties":{"source":"naturalearthdata.com","kind":"macroregion","name":"Q\u0259b\u0259l\u0259 - A\u011fda\u015f","sort_rank":257,"kind_detail":"3","min_zoom":6.8,"id":4965},"arcs":[98]},{"type":"LineString","properties":{"source":"naturalearthdata.com","kind":"region","name":"\u015e\u0259ki - Q\u0259b\u0259l\u0259","sort_rank":256,"kind_detail":"4","min_zoom":7.0,"id":4966},"arcs":[99]},{"type":"MultiLineString","properties":{"source":"naturalearthdata.com","kind":"macroregion","name":"Goranboy - Yevlakh Rayon","sort_rank":257,"kind_detail":"3","min_zoom":6.8,"id":4886},"arcs":[[100],[101],[102],[103],[104]]},{"type":"LineString","properties":{"source":"naturalearthdata.com","kind":"region","name":"Yevlakh Rayon - B\u0259rd\u0259","sort_rank":256,"kind_detail":"4","min_zoom":7.0,"id":4887},"arcs":[105]},{"type":"MultiLineString","properties":{"source":"naturalearthdata.com","kind":"region","name":"G\u0259nc\u0259 - Xanlar","sort_rank":256,"kind_detail":"4","min_zoom":7.0,"id":4888},"arcs":[[106],[107]]},{"type":"MultiLineString","properties":{"source":"naturalearthdata.com","kind":"region","name":"Ming\u0259\u00e7evir - Yevlakh Rayon","sort_rank":256,"kind_detail":"4","min_zoom":7.0,"id":4889},"arcs":[[108],[109],[110],[111]]},{"type":"MultiLineString","properties":{"source":"naturalearthdata.com","kind":"region","name":"G\u00f6y\u00e7ay - Ucar","sort_rank":256,"kind_detail":"4","min_zoom":7.0,"id":4891},"arcs":[[112],[113],[114],[115],[116]]},{"type":"LineString","properties":{"source":"naturalearthdata.com","kind":"macroregion","name":"\u0130smay\u0131ll\u0131 - G\u00f6y\u00e7ay","sort_rank":257,"kind_detail":"3","min_zoom":6.8,"id":4892},"arcs":[117]},{"type":"LineString","properties":{"source":"naturalearthdata.com","kind":"region","name":"Z\u0259rdab - A\u011fda\u015f","sort_rank":256,"kind_detail":"4","min_zoom":7.0,"id":4893},"arcs":[118]},{"type":"MultiLineString","properties":{"source":"naturalearthdata.com","kind":"region","name":"B\u0259rd\u0259 - A\u011fda\u015f","sort_rank":256,"kind_detail":"4","min_zoom":7.0,"id":4894},"arcs":[[119],[120],[121],[122],[123],[124],[125],[126],[127]]},{"type":"MultiLineString","properties":{"source":"naturalearthdata.com","kind":"region","name":"Ucar - A\u011fda\u015f","sort_rank":256,"kind_detail":"4","min_zoom":7.0,"id":4895},"arcs":[[128],[129]]},{"type":"LineString","properties":{"source":"naturalearthdata.com","kind":"region","name":"Yevlakh Rayon - A\u011fda\u015f","sort_rank":256,"kind_detail":"4","min_zoom":7.0,"id":4896},"arcs":[130]},{"type":"LineString","properties":{"source":"naturalearthdata.com","kind":"region","name":"A\u011fda\u015f - G\u00f6y\u00e7ay","sort_rank":256,"kind_detail":"4","min_zoom":7.0,"id":4897},"arcs":[131]},{"type":"MultiLineString","properties":{"source":"naturalearthdata.com","kind":"macroregion","name":"A\u011fcab\u0259di - A\u011fdam","sort_rank":257,"kind_detail":"3","min_zoom":6.8,"id":4898},"arcs":[[132],[133],[134]]},{"type":"LineString","properties":{"source":"naturalearthdata.com","kind":"macroregion","name":"Xocav\u0259nd - A\u011fcab\u0259di","sort_rank":257,"kind_detail":"3","min_zoom":6.8,"id":4899},"arcs":[135]},{"type":"MultiLineString","properties":{"source":"naturalearthdata.com","kind":"region","name":"A\u011fcab\u0259di - Z\u0259rdab","sort_rank":256,"kind_detail":"4","min_zoom":7.0,"id":4900},"arcs":[[136],[137],[138],[139],[140],[141],[142]]},{"type":"MultiLineString","properties":{"source":"naturalearthdata.com","kind":"region","name":"B\u0259rd\u0259 - A\u011fcab\u0259di","sort_rank":256,"kind_detail":"4","min_zoom":7.0,"id":4901},"arcs":[[143],[144],[145]]},{"type":"MultiLineString","properties":{"source":"naturalearthdata.com","kind":"region","name":"\u0130mi\u015fli - Z\u0259rdab","sort_rank":256,"kind_detail":"4","min_zoom":7.0,"id":4904},"arcs":[[146],[147]]},{"type":"LineString","properties":{"source":"naturalearthdata.com","kind":"region","name":"Beyl\u0259qan - Z\u0259rdab","sort_rank":256,"kind_detail":"4","min_zoom":7.0,"id":4909},"arcs":[148]},{"type":"MultiLineString","properties":{"source":"naturalearthdata.com","kind":"region","name":"A\u011fcab\u0259di - Beyl\u0259qan","sort_rank":256,"kind_detail":"4","min_zoom":7.0,"id":4910},"arcs":[[149],[150],[151]]},{"type":"MultiLineString","properties":{"source":"naturalearthdata.com","kind":"region","name":"\u0130mi\u015fli - Beyl\u0259qan","sort_rank":256,"kind_detail":"4","min_zoom":7.0,"id":4911},"arcs":[[152],[153],[154]]},{"type":"MultiLineString","properties":{"source":"naturalearthdata.com","kind":"macroregion","name":"Xocav\u0259nd - Qubadli","sort_rank":257,"kind_detail":"3","min_zoom":6.8,"id":4914},"arcs":[[155],[156],[157]]},{"type":"MultiLineString","properties":{"source":"naturalearthdata.com","kind":"region","name":"Z\u0259ngilan - Qubadli","sort_rank":256,"kind_detail":"4","min_zoom":7.0,"id":4915},"arcs":[[158],[159]]},{"type":"MultiLineString","properties":{"source":"naturalearthdata.com","kind":"region","name":"Xocav\u0259nd - C\u0259bray\u0131l","sort_rank":256,"kind_detail":"4","min_zoom":7.0,"id":4916},"arcs":[[160],[161],[162],[163]]},{"type":"LineString","properties":{"source":"naturalearthdata.com","kind":"macroregion","name":"C\u0259bray\u0131l - Z\u0259ngilan","sort_rank":257,"kind_detail":"3","min_zoom":6.8,"id":4917},"arcs":[164]},{"type":"LineString","properties":{"source":"naturalearthdata.com","kind":"macroregion","name":"C\u0259bray\u0131l - Qubadli","sort_rank":257,"kind_detail":"3","min_zoom":6.8,"id":4918},"arcs":[165]},{"type":"MultiLineString","properties":{"source":"naturalearthdata.com","kind":"region","name":"Xocav\u0259nd - F\u00fczuli","sort_rank":256,"kind_detail":"4","min_zoom":7.0,"id":4919},"arcs":[[166],[167],[168],[169],[170]]},{"type":"LineString","properties":{"source":"naturalearthdata.com","kind":"macroregion","name":"F\u00fczuli - A\u011fcab\u0259di","sort_rank":257,"kind_detail":"3","min_zoom":6.8,"id":4920},"arcs":[171]},{"type":"LineString","properties":{"source":"naturalearthdata.com","kind":"macroregion","name":"Beyl\u0259qan - F\u00fczuli","sort_rank":257,"kind_detail":"3","min_zoom":6.8,"id":4921},"arcs":[172]},{"type":"MultiLineString","properties":{"source":"naturalearthdata.com","kind":"region","name":"F\u00fczuli - C\u0259bray\u0131l","sort_rank":256,"kind_detail":"4","min_zoom":7.0,"id":4922},"arcs":[[173],[174],[175]]},{"type":"LineString","properties":{"source":"naturalearthdata.com","kind":"macroregion","name":"Xocal\u0131 - Lankaran","sort_rank":257,"kind_detail":"3","min_zoom":6.8,"id":4927},"arcs":[176]},{"type":"MultiLineString","properties":{"source":"naturalearthdata.com","kind":"macroregion","name":"\u015eu\u015fa - Lankaran","sort_rank":257,"kind_detail":"3","min_zoom":6.8,"id":4928},"arcs":[[177],[178],[179]]},{"type":"LineString","properties":{"source":"naturalearthdata.com","kind":"macroregion","name":"Lankaran - Xocav\u0259nd","sort_rank":257,"kind_detail":"3","min_zoom":6.8,"id":4929},"arcs":[180]},{"type":"MultiLineString","properties":{"source":"naturalearthdata.com","kind":"region","name":"Qubadli - Lankaran","sort_rank":256,"kind_detail":"4","min_zoom":7.0,"id":4930},"arcs":[[181],[182]]},{"type":"LineString","properties":{"source":"naturalearthdata.com","kind":"region","name":"\u015e\u0259mkir - Tovuz","sort_rank":256,"kind_detail":"4","min_zoom":7.0,"id":4944},"arcs":[183]},{"type":"MultiLineString","properties":{"source":"naturalearthdata.com","kind":"macroregion","name":"\u015e\u0259ki - A\u011fda\u015f","sort_rank":257,"kind_detail":"3","min_zoom":6.8,"id":4946},"arcs":[[184],[185],[186],[187]]},{"type":"MultiLineString","properties":{"source":"naturalearthdata.com","kind":"macroregion","name":"Xocal\u0131 - K\u0259lb\u0259c\u0259r","sort_rank":257,"kind_detail":"3","min_zoom":6.8,"id":4947},"arcs":[[188],[189],[190]]},{"type":"LineString","properties":{"source":"naturalearthdata.com","kind":"macroregion","name":"A\u011fdam - K\u0259lb\u0259c\u0259r","sort_rank":257,"kind_detail":"3","min_zoom":6.8,"id":4948},"arcs":[191]},{"type":"MultiLineString","properties":{"source":"naturalearthdata.com","kind":"macroregion","name":"T\u0259rt\u0259r - K\u0259lb\u0259c\u0259r","sort_rank":257,"kind_detail":"3","min_zoom":6.8,"id":4949},"arcs":[[192],[193],[194]]},{"type":"MultiLineString","properties":{"source":"naturalearthdata.com","kind":"macroregion","name":"K\u0259lb\u0259c\u0259r - Goranboy","sort_rank":257,"kind_detail":"3","min_zoom":6.8,"id":4950},"arcs":[[195],[196]]},{"type":"LineString","properties":{"source":"naturalearthdata.com","kind":"macroregion","name":"K\u0259lb\u0259c\u0259r - Xanlar","sort_rank":257,"kind_detail":"3","min_zoom":6.8,"id":4951},"arcs":[197]},{"type":"MultiLineString","properties":{"source":"naturalearthdata.com","kind":"region","name":"Lankaran - K\u0259lb\u0259c\u0259r","sort_rank":256,"kind_detail":"4","min_zoom":7.0,"id":4952},"arcs":[[198],[199],[200]]},{"type":"MultiLineString","properties":{"source":"naturalearthdata.com","kind":"region","name":"\u015e\u0259ki - O\u011fuz","sort_rank":256,"kind_detail":"4","min_zoom":7.0,"id":4953},"arcs":[[201],[202],[203]]},{"type":"LineString","properties":{"source":"naturalearthdata.com","kind":"macroregion","name":"\u0130smay\u0131ll\u0131 - Q\u0259b\u0259l\u0259","sort_rank":257,"kind_detail":"3","min_zoom":6.8,"id":4963},"arcs":[204]},{"type":"MultiLineString","properties":{"source":"naturalearthdata.com","kind":"region","name":"Tovuz - G\u0259d\u0259b\u0259y","sort_rank":256,"kind_detail":"4","min_zoom":7.0,"id":4970},"arcs":[[205],[206]]},{"type":"LineString","properties":{"source":"naturalearthdata.com","kind":"region","name":"Da\u015fk\u0259s\u0259n - Xanlar","sort_rank":256,"kind_detail":"4","min_zoom":7.0,"id":4971},"arcs":[207]},{"type":"MultiLineString","properties":{"source":"naturalearthdata.com","kind":"region","name":"\u015e\u0259mkir - Da\u015fk\u0259s\u0259n","sort_rank":256,"kind_detail":"4","min_zoom":7.0,"id":4972},"arcs":[[208],[209]]},{"type":"MultiLineString","properties":{"source":"naturalearthdata.com","kind":"macroregion","name":"K\u0259lb\u0259c\u0259r - Da\u015fk\u0259s\u0259n","sort_rank":257,"kind_detail":"3","min_zoom":6.8,"id":4973},"arcs":[[210],[211],[212]]},{"type":"LineString","properties":{"source":"naturalearthdata.com","kind":"region","name":"Da\u015fk\u0259s\u0259n - G\u0259d\u0259b\u0259y","sort_rank":256,"kind_detail":"4","min_zoom":7.0,"id":4974},"arcs":[213]},{"type":"LineString","properties":{"source":"naturalearthdata.com","kind":"macroregion","name":"Qax - Yevlakh Rayon","sort_rank":257,"kind_detail":"3","min_zoom":6.8,"id":4975},"arcs":[214]},{"type":"LineString","properties":{"source":"naturalearthdata.com","kind":"region","name":"Qax - \u015e\u0259ki","sort_rank":256,"kind_detail":"4","min_zoom":7.0,"id":4976},"arcs":[215]},{"type":"LineString","properties":{"source":"naturalearthdata.com","kind":"region","name":"Samux - Goranboy","sort_rank":256,"kind_detail":"4","min_zoom":7.0,"id":4980},"arcs":[216]},{"type":"LineString","properties":{"source":"naturalearthdata.com","kind":"region","name":"Samux - Xanlar","sort_rank":256,"kind_detail":"4","min_zoom":7.0,"id":4981},"arcs":[217]},{"type":"LineString","properties":{"source":"naturalearthdata.com","kind":"region","name":"Samux - Xanlar","sort_rank":256,"kind_detail":"4","min_zoom":7.0,"id":4982},"arcs":[218]},{"type":"LineString","properties":{"source":"naturalearthdata.com","kind":"region","name":"\u015e\u0259mkir - Samux","sort_rank":256,"kind_detail":"4","min_zoom":7.0,"id":4983},"arcs":[219]},{"type":"LineString","properties":{"source":"naturalearthdata.com","kind":"region","name":"Samux - G\u0259nc\u0259","sort_rank":256,"kind_detail":"4","min_zoom":7.0,"id":4984},"arcs":[220]},{"type":"LineString","properties":{"source":"naturalearthdata.com","kind":"macroregion","name":"Qax - Samux","sort_rank":257,"kind_detail":"3","min_zoom":6.8,"id":4986},"arcs":[221]},{"type":"LineString","properties":{"source":"naturalearthdata.com","kind":"region","name":"A\u011fstafa - Tovuz","sort_rank":256,"kind_detail":"4","min_zoom":7.0,"id":4987},"arcs":[222]},{"type":"MultiLineString","properties":{"source":"naturalearthdata.com","kind":"region","name":"Tavush - Gegharkunik","sort_rank":256,"kind_detail":"4","min_zoom":7.0,"id":5023},"arcs":[[223],[224]]},{"type":"LineString","properties":{"source":"naturalearthdata.com","kind":"region","name":"Gegharkunik - Kotayk","sort_rank":256,"kind_detail":"4","min_zoom":7.0,"id":5024},"arcs":[225]},{"type":"LineString","properties":{"source":"naturalearthdata.com","kind":"region","name":"Ararat - Kotayk","sort_rank":256,"kind_detail":"4","min_zoom":7.0,"id":5025},"arcs":[226]},{"type":"LineString","properties":{"source":"naturalearthdata.com","kind":"region","name":"Gegharkunik - Ararat","sort_rank":256,"kind_detail":"4","min_zoom":7.0,"id":5027},"arcs":[227]},{"type":"MultiLineString","properties":{"source":"naturalearthdata.com","kind":"region","name":"Vayots Dzor - Gegharkunik","sort_rank":256,"kind_detail":"4","min_zoom":7.0,"id":5028},"arcs":[[228],[229],[230],[231],[232],[233]]},{"type":"MultiLineString","properties":{"source":"naturalearthdata.com","kind":"region","name":"Stepanakert - Xocal\u0131","sort_rank":256,"kind_detail":"4","min_zoom":7.0,"id":8116},"arcs":[[234],[235]]},{"type":"MultiLineString","properties":{"source":"naturalearthdata.com","kind":"region","name":"Yevlakh - Yevlakh Rayon","sort_rank":256,"kind_detail":"4","min_zoom":7.0,"id":8413},"arcs":[[236],[237]]},{"type":"MultiLineString","properties":{"source":"naturalearthdata.com","kind":"region","name":"\u015eu\u015fa - \u015eu\u015fa","sort_rank":256,"kind_detail":"4","min_zoom":7.0,"id":9092},"arcs":[[238],[239]]},{"type":"MultiLineString","properties":{"source":"naturalearthdata.com","kind":"region","name":"Naftalan - Goranboy","sort_rank":256,"kind_detail":"4","min_zoom":7.0,"id":9093},"arcs":[[240],[241]]},{"type":"LineString","properties":{"source":"naturalearthdata.com","kind":"region","name":"Kangarli - \u015e\u0259rur","sort_rank":256,"kind_detail":"4","min_zoom":7.0,"id":9097},"arcs":[242]},{"type":"LineString","properties":{"source":"naturalearthdata.com","kind":"region","name":"West Azarbaijan - West Azarbaijan","sort_rank":256,"kind_detail":"4","min_zoom":7.0,"id":9098},"arcs":[243]}]},"roads":{"type":"GeometryCollection","geometries":[{"type":"LineString","properties":{"source":"naturalearthdata.com","kind":"minor_road","sort_rank":355,"kind_detail":"tertiary","min_zoom":7.0,"id":19414},"arcs":[256]},{"type":"LineString","properties":{"source":"naturalearthdata.com","kind":"minor_road","sort_rank":355,"kind_detail":"tertiary","min_zoom":6.0,"id":19425},"arcs":[257]},{"type":"LineString","properties":{"source":"naturalearthdata.com","kind":"minor_road","sort_rank":355,"kind_detail":"tertiary","min_zoom":7.0,"id":19445},"arcs":[258]},{"type":"LineString","properties":{"source":"naturalearthdata.com","kind":"major_road","sort_rank":379,"kind_detail":"secondary","min_zoom":3.0,"id":19471},"arcs":[259]},{"type":"LineString","properties":{"source":"naturalearthdata.com","kind":"minor_road","sort_rank":355,"kind_detail":"tertiary","min_zoom":6.0,"id":19488},"arcs":[260]},{"type":"LineString","properties":{"source":"naturalearthdata.com","kind":"major_road","kind_detail":"secondary","sort_rank":379,"landuse_kind":"urban_area","min_zoom":3.0,"id":19539},"arcs":[261]},{"type":"LineString","properties":{"source":"naturalearthdata.com","kind":"major_road","kind_detail":"secondary","sort_rank":379,"landuse_kind":"urban_area","min_zoom":3.0,"id":19539},"arcs":[262]},{"type":"MultiLineString","properties":{"source":"naturalearthdata.com","kind":"major_road","sort_rank":379,"kind_detail":"secondary","min_zoom":3.0,"id":19539},"arcs":[[263],[264],[265]]},{"type":"LineString","properties":{"source":"naturalearthdata.com","kind":"major_road","sort_rank":379,"kind_detail":"secondary","min_zoom":3.0,"id":19569},"arcs":[266]},{"type":"LineString","properties":{"source":"naturalearthdata.com","kind":"major_road","kind_detail":"secondary","sort_rank":379,"landuse_kind":"park","min_zoom":3.0,"id":19586},"arcs":[267]},{"type":"MultiLineString","properties":{"source":"naturalearthdata.com","kind":"major_road","sort_rank":379,"kind_detail":"secondary","min_zoom":3.0,"id":19586},"arcs":[[268],[269]]},{"type":"LineString","properties":{"source":"naturalearthdata.com","kind":"major_road","sort_rank":379,"kind_detail":"secondary","min_zoom":3.0,"id":19603},"arcs":[270]},{"type":"LineString","properties":{"source":"naturalearthdata.com","kind":"minor_road","sort_rank":355,"kind_detail":"tertiary","min_zoom":6.0,"id":19616},"arcs":[271]},{"type":"LineString","properties":{"source":"naturalearthdata.com","kind":"major_road","kind_detail":"secondary","sort_rank":379,"landuse_kind":"urban_area","min_zoom":3.0,"id":19618},"arcs":[272]},{"type":"LineString","properties":{"source":"naturalearthdata.com","kind":"major_road","sort_rank":379,"kind_detail":"secondary","min_zoom":3.0,"id":19618},"arcs":[273]},{"type":"LineString","properties":{"source":"naturalearthdata.com","kind":"major_road","kind_detail":"secondary","sort_rank":379,"landuse_kind":"urban_area","min_zoom":3.0,"id":19639},"arcs":[274]},{"type":"LineString","properties":{"source":"naturalearthdata.com","kind":"major_road","kind_detail":"secondary","sort_rank":379,"landuse_kind":"urban_area","min_zoom":3.0,"id":19642},"arcs":[275]},{"type":"LineString","properties":{"source":"naturalearthdata.com","kind":"major_road","sort_rank":379,"kind_detail":"secondary","min_zoom":3.0,"id":19642},"arcs":[276]},{"type":"LineString","properties":{"source":"naturalearthdata.com","kind":"major_road","sort_rank":379,"kind_detail":"secondary","min_zoom":3.0,"id":19670},"arcs":[277]},{"type":"LineString","properties":{"source":"naturalearthdata.com","kind":"major_road","sort_rank":379,"kind_detail":"secondary","min_zoom":3.0,"id":19676},"arcs":[278]},{"type":"LineString","properties":{"source":"naturalearthdata.com","kind":"major_road","sort_rank":379,"kind_detail":"secondary","min_zoom":3.0,"id":19680},"arcs":[279]},{"type":"LineString","properties":{"source":"naturalearthdata.com","kind":"major_road","sort_rank":379,"kind_detail":"secondary","min_zoom":3.0,"id":19682},"arcs":[280]},{"type":"LineString","properties":{"source":"naturalearthdata.com","kind":"major_road","sort_rank":379,"kind_detail":"secondary","min_zoom":3.0,"id":19684},"arcs":[281]},{"type":"LineString","properties":{"source":"naturalearthdata.com","kind":"major_road","sort_rank":379,"kind_detail":"secondary","min_zoom":3.0,"id":19685},"arcs":[282]},{"type":"LineString","properties":{"source":"naturalearthdata.com","kind":"major_road","kind_detail":"secondary","sort_rank":379,"landuse_kind":"urban_area","min_zoom":3.0,"id":19687},"arcs":[283]},{"type":"MultiLineString","properties":{"source":"naturalearthdata.com","kind":"major_road","sort_rank":379,"kind_detail":"secondary","min_zoom":3.0,"id":19687},"arcs":[[284],[285]]},{"type":"LineString","properties":{"source":"naturalearthdata.com","kind":"major_road","sort_rank":379,"kind_detail":"secondary","min_zoom":3.0,"id":19688},"arcs":[286]},{"type":"LineString","properties":{"source":"naturalearthdata.com","kind":"major_road","sort_rank":379,"kind_detail":"secondary","min_zoom":3.0,"id":19690},"arcs":[287]},{"type":"LineString","properties":{"source":"naturalearthdata.com","kind":"major_road","sort_rank":379,"kind_detail":"secondary","min_zoom":3.0,"id":19692},"arcs":[288]},{"type":"LineString","properties":{"source":"naturalearthdata.com","kind":"minor_road","kind_detail":"tertiary","sort_rank":355,"landuse_kind":"urban_area","min_zoom":6.0,"id":19694},"arcs":[289]},{"type":"LineString","properties":{"source":"naturalearthdata.com","kind":"minor_road","sort_rank":355,"kind_detail":"tertiary","min_zoom":6.0,"id":19694},"arcs":[290]},{"type":"LineString","properties":{"source":"naturalearthdata.com","kind":"major_road","kind_detail":"secondary","sort_rank":379,"landuse_kind":"urban_area","min_zoom":3.0,"id":19695},"arcs":[291]},{"type":"LineString","properties":{"source":"naturalearthdata.com","kind":"major_road","sort_rank":379,"kind_detail":"secondary","min_zoom":3.0,"id":19695},"arcs":[292]},{"type":"LineString","properties":{"source":"naturalearthdata.com","kind":"major_road","sort_rank":379,"kind_detail":"secondary","min_zoom":3.0,"id":19699},"arcs":[293]},{"type":"LineString","properties":{"source":"naturalearthdata.com","kind":"minor_road","kind_detail":"tertiary","sort_rank":355,"landuse_kind":"urban_area","min_zoom":6.0,"id":19707},"arcs":[294]},{"type":"LineString","properties":{"source":"naturalearthdata.com","kind":"major_road","kind_detail":"secondary","sort_rank":379,"landuse_kind":"urban_area","min_zoom":3.0,"id":19720},"arcs":[295]},{"type":"LineString","properties":{"source":"naturalearthdata.com","kind":"major_road","sort_rank":379,"kind_detail":"secondary","min_zoom":3.0,"id":19720},"arcs":[296]},{"type":"LineString","properties":{"source":"naturalearthdata.com","kind":"major_road","kind_detail":"secondary","sort_rank":379,"landuse_kind":"urban_area","min_zoom":3.0,"id":19729},"arcs":[297]},{"type":"LineString","properties":{"source":"naturalearthdata.com","kind":"major_road","sort_rank":379,"kind_detail":"secondary","min_zoom":3.0,"id":19729},"arcs":[298]},{"type":"MultiLineString","properties":{"source":"naturalearthdata.com","kind":"minor_road","kind_detail":"tertiary","sort_rank":355,"landuse_kind":"park","min_zoom":6.0,"id":19730},"arcs":[[299],[300],[301],[302]]},{"type":"MultiLineString","properties":{"source":"naturalearthdata.com","kind":"minor_road","sort_rank":355,"kind_detail":"tertiary","min_zoom":6.0,"id":19730},"arcs":[[303],[304],[305],[306],[307]]},{"type":"LineString","properties":{"source":"naturalearthdata.com","kind":"minor_road","sort_rank":355,"kind_detail":"tertiary","min_zoom":7.0,"id":19765},"arcs":[308]},{"type":"LineString","properties":{"source":"naturalearthdata.com","kind":"minor_road","sort_rank":355,"kind_detail":"tertiary","min_zoom":7.0,"id":19797},"arcs":[309]},{"type":"LineString","properties":{"source":"naturalearthdata.com","kind":"minor_road","sort_rank":355,"kind_detail":"tertiary","min_zoom":7.0,"id":19801},"arcs":[310]},{"type":"LineString","properties":{"source":"naturalearthdata.com","kind":"major_road","sort_rank":379,"kind_detail":"secondary","min_zoom":3.0,"id":19814},"arcs":[311]},{"type":"LineString","properties":{"source":"naturalearthdata.com","kind":"minor_road","sort_rank":355,"kind_detail":"tertiary","min_zoom":7.0,"id":19820},"arcs":[312]},{"type":"LineString","properties":{"source":"naturalearthdata.com","kind":"minor_road","sort_rank":355,"kind_detail":"tertiary","min_zoom":7.0,"id":19858},"arcs":[313]},{"type":"LineString","properties":{"source":"naturalearthdata.com","kind":"major_road","kind_detail":"secondary","sort_rank":379,"landuse_kind":"urban_area","min_zoom":3.0,"id":19899},"arcs":[314]},{"type":"LineString","properties":{"source":"naturalearthdata.com","kind":"major_road","sort_rank":379,"kind_detail":"secondary","min_zoom":3.0,"id":19899},"arcs":[315]},{"type":"LineString","properties":{"source":"naturalearthdata.com","kind":"minor_road","sort_rank":355,"kind_detail":"tertiary","min_zoom":6.0,"id":20044},"arcs":[316]},{"type":"LineString","properties":{"source":"naturalearthdata.com","kind":"minor_road","sort_rank":355,"kind_detail":"tertiary","min_zoom":6.0,"id":20096},"arcs":[317]},{"type":"LineString","properties":{"source":"naturalearthdata.com","kind":"minor_road","sort_rank":355,"kind_detail":"tertiary","min_zoom":6.0,"id":20102},"arcs":[318]},{"type":"LineString","properties":{"source":"naturalearthdata.com","kind":"major_road","sort_rank":379,"kind_detail":"secondary","min_zoom":3.0,"id":20171},"arcs":[319]},{"type":"LineString","properties":{"source":"naturalearthdata.com","kind":"minor_road","kind_detail":"tertiary","sort_rank":355,"landuse_kind":"urban_area","min_zoom":7.0,"id":20190},"arcs":[320]},{"type":"LineString","properties":{"source":"naturalearthdata.com","kind":"minor_road","sort_rank":355,"kind_detail":"tertiary","min_zoom":7.0,"id":20190},"arcs":[321]},{"type":"LineString","properties":{"source":"naturalearthdata.com","kind":"minor_road","sort_rank":355,"kind_detail":"tertiary","min_zoom":6.0,"id":20214},"arcs":[322]},{"type":"LineString","properties":{"source":"naturalearthdata.com","kind":"minor_road","sort_rank":355,"kind_detail":"tertiary","min_zoom":6.0,"id":20362},"arcs":[323]},{"type":"LineString","properties":{"source":"naturalearthdata.com","kind":"minor_road","kind_detail":"tertiary","sort_rank":355,"landuse_kind":"urban_area","min_zoom":6.0,"id":20367},"arcs":[324]},{"type":"LineString","properties":{"source":"naturalearthdata.com","kind":"minor_road","sort_rank":355,"kind_detail":"tertiary","min_zoom":6.0,"id":20367},"arcs":[325]},{"type":"LineString","properties":{"source":"naturalearthdata.com","kind":"minor_road","sort_rank":355,"kind_detail":"tertiary","min_zoom":7.0,"id":20378},"arcs":[326]},{"type":"LineString","properties":{"source":"naturalearthdata.com","kind":"minor_road","kind_detail":"tertiary","sort_rank":355,"landuse_kind":"urban_area","min_zoom":6.0,"id":20415},"arcs":[327]},{"type":"LineString","properties":{"source":"naturalearthdata.com","kind":"minor_road","sort_rank":355,"kind_detail":"tertiary","min_zoom":6.0,"id":20415},"arcs":[328]},{"type":"LineString","properties":{"source":"naturalearthdata.com","kind":"major_road","sort_rank":379,"kind_detail":"secondary","min_zoom":3.0,"id":20432},"arcs":[329]},{"type":"LineString","properties":{"source":"naturalearthdata.com","kind":"minor_road","sort_rank":355,"kind_detail":"tertiary","min_zoom":6.0,"id":20449},"arcs":[330]},{"type":"LineString","properties":{"source":"naturalearthdata.com","kind":"minor_road","sort_rank":355,"kind_detail":"tertiary","min_zoom":7.0,"id":20460},"arcs":[331]},{"type":"LineString","properties":{"source":"naturalearthdata.com","kind":"minor_road","sort_rank":355,"kind_detail":"tertiary","min_zoom":6.0,"id":20461},"arcs":[332]},{"type":"LineString","properties":{"source":"naturalearthdata.com","kind":"minor_road","sort_rank":355,"kind_detail":"tertiary","min_zoom":6.0,"id":20507},"arcs":[333]},{"type":"LineString","properties":{"source":"naturalearthdata.com","kind":"minor_road","sort_rank":355,"kind_detail":"tertiary","min_zoom":6.0,"id":20510},"arcs":[334]},{"type":"LineString","properties":{"source":"naturalearthdata.com","kind":"minor_road","sort_rank":355,"kind_detail":"tertiary","min_zoom":6.0,"id":20511},"arcs":[335]},{"type":"LineString","properties":{"source":"naturalearthdata.com","kind":"minor_road","sort_rank":355,"kind_detail":"tertiary","min_zoom":7.0,"id":20571},"arcs":[336]},{"type":"LineString","properties":{"source":"naturalearthdata.com","kind":"minor_road","sort_rank":355,"kind_detail":"tertiary","min_zoom":6.0,"id":20585},"arcs":[337]},{"type":"LineString","properties":{"source":"naturalearthdata.com","kind":"major_road","sort_rank":379,"kind_detail":"secondary","min_zoom":3.0,"id":20587},"arcs":[338]},{"type":"LineString","properties":{"source":"naturalearthdata.com","kind":"minor_road","sort_rank":355,"kind_detail":"tertiary","min_zoom":6.0,"id":20596},"arcs":[339]},{"type":"LineString","properties":{"source":"naturalearthdata.com","kind":"minor_road","sort_rank":355,"kind_detail":"tertiary","min_zoom":6.0,"id":20619},"arcs":[340]},{"type":"LineString","properties":{"source":"naturalearthdata.com","kind":"minor_road","sort_rank":355,"kind_detail":"tertiary","min_zoom":6.0,"id":20638},"arcs":[341]},{"type":"LineString","properties":{"source":"naturalearthdata.com","kind":"minor_road","sort_rank":355,"kind_detail":"tertiary","min_zoom":6.0,"id":20665},"arcs":[342]},{"type":"LineString","properties":{"source":"naturalearthdata.com","kind":"major_road","sort_rank":379,"kind_detail":"secondary","min_zoom":3.0,"id":20677},"arcs":[343]},{"type":"LineString","properties":{"source":"naturalearthdata.com","kind":"minor_road","sort_rank":355,"kind_detail":"tertiary","min_zoom":6.0,"id":20735},"arcs":[344]},{"type":"LineString","properties":{"source":"naturalearthdata.com","kind":"major_road","kind_detail":"secondary","sort_rank":379,"landuse_kind":"urban_area","min_zoom":3.0,"id":20829},"arcs":[345]},{"type":"LineString","properties":{"source":"naturalearthdata.com","kind":"major_road","sort_rank":379,"kind_detail":"secondary","min_zoom":3.0,"id":20829},"arcs":[346]},{"type":"LineString","properties":{"source":"naturalearthdata.com","kind":"minor_road","sort_rank":355,"kind_detail":"tertiary","min_zoom":6.0,"id":20847},"arcs":[347]},{"type":"LineString","properties":{"source":"naturalearthdata.com","kind":"minor_road","sort_rank":355,"kind_detail":"tertiary","min_zoom":6.0,"id":20848},"arcs":[348]},{"type":"LineString","properties":{"source":"naturalearthdata.com","kind":"major_road","kind_detail":"secondary","sort_rank":379,"landuse_kind":"urban_area","min_zoom":3.0,"id":20877},"arcs":[349]},{"type":"LineString","properties":{"source":"naturalearthdata.com","kind":"major_road","sort_rank":379,"kind_detail":"secondary","min_zoom":3.0,"id":20877},"arcs":[350]},{"type":"LineString","properties":{"source":"naturalearthdata.com","kind":"major_road","sort_rank":379,"kind_detail":"secondary","min_zoom":3.0,"id":20884},"arcs":[351]},{"type":"LineString","properties":{"source":"naturalearthdata.com","kind":"minor_road","sort_rank":355,"kind_detail":"tertiary","min_zoom":6.0,"id":20909},"arcs":[352]},{"type":"LineString","properties":{"source":"naturalearthdata.com","kind":"major_road","sort_rank":379,"kind_detail":"secondary","min_zoom":3.0,"id":20972},"arcs":[353]},{"type":"LineString","properties":{"source":"naturalearthdata.com","kind":"major_road","sort_rank":379,"kind_detail":"secondary","min_zoom":4.0,"id":20983},"arcs":[354]},{"type":"LineString","properties":{"source":"naturalearthdata.com","kind":"minor_road","sort_rank":355,"kind_detail":"tertiary","min_zoom":6.0,"id":21015},"arcs":[355]},{"type":"LineString","properties":{"source":"naturalearthdata.com","kind":"minor_road","kind_detail":"tertiary","sort_rank":355,"landuse_kind":"urban_area","min_zoom":6.0,"id":21042},"arcs":[356]},{"type":"MultiLineString","properties":{"source":"naturalearthdata.com","kind":"minor_road","sort_rank":355,"kind_detail":"tertiary","min_zoom":6.0,"id":21042},"arcs":[[357],[358]]},{"type":"LineString","properties":{"source":"naturalearthdata.com","kind":"major_road","kind_detail":"secondary","sort_rank":379,"landuse_kind":"urban_area","min_zoom":3.0,"id":21044},"arcs":[359]},{"type":"MultiLineString","properties":{"source":"naturalearthdata.com","kind":"major_road","sort_rank":379,"kind_detail":"secondary","min_zoom":3.0,"id":21044},"arcs":[[360],[361]]},{"type":"LineString","properties":{"source":"naturalearthdata.com","kind":"major_road","kind_detail":"secondary","sort_rank":379,"landuse_kind":"urban_area","min_zoom":3.0,"id":21080},"arcs":[362]},{"type":"MultiLineString","properties":{"source":"naturalearthdata.com","kind":"major_road","sort_rank":379,"kind_detail":"secondary","min_zoom":3.0,"id":21080},"arcs":[[363],[364]]},{"type":"LineString","properties":{"source":"naturalearthdata.com","kind":"major_road","sort_rank":379,"kind_detail":"secondary","min_zoom":4.0,"id":21227},"arcs":[365]},{"type":"LineString","properties":{"source":"naturalearthdata.com","kind":"major_road","sort_rank":379,"kind_detail":"secondary","min_zoom":3.0,"id":21299},"arcs":[366]}]},"earth":{"type":"GeometryCollection","geometries":[{"type":"MultiPolygon","properties":{"sort_rank":10,"source":"naturalearthdata.com","min_zoom":0.0,"kind":"earth","area":313219769701},"arcs":[[[367]]]}]},"landuse":{"type":"GeometryCollection","geometries":[{"type":"Polygon","properties":{"kind":"protected_area","protect_class":"4","area":1599800064,"sort_rank":17,"source":"openstreetmap.org","min_zoom":4.0,"tier":2,"id":-6531584,"osm_relation":true},"arcs":[[368]]},{"type":"MultiPolygon","properties":{"kind":"park","area":591083008,"sort_rank":24,"source":"openstreetmap.org","min_zoom":6.0,"tier":2,"id":-7594000,"osm_relation":true},"arcs":[[[369]],[[370]],[[371],[372],[373]]]},{"type":"MultiPolygon","properties":{"source":"naturalearthdata.com","kind":"urban_area","name":"","area":12442238956,"sort_rank":11,"min_zoom":4.0},"arcs":[[[374]],[[375]],[[376]],[[377]],[[378]],[[379]],[[380]],[[381]],[[382]],[[383]],[[384]],[[385]],[[386]],[[387]],[[388]],[[389]],[[390]],[[391]]]},{"type":"MultiPolygon","properties":{"source":"openstreetmap.org","kind":"park","area":393593984,"tier":2,"id":84592798,"min_zoom":6.0,"sort_rank":24},"arcs":[[[392]]]}]}},"type":"Topology","transform":{"translate":[45.0,38.8225909762],"scale":[0.0006866455,0.0005266863]},"arcs":[[[319,4096],[2,-2],[-15,-21]],[[306,4073],[-34,6],[-5,17]],[[758,3489],[21,-2],[38,-22],[-20,-49],[-49,-38]],[[748,3378],[-50,15],[-9,19],[-3,19],[3,20],[9,19],[18,13],[20,6],[22,0]],[[2007,194],[20,-5],[152,-68],[26,-8]],[[1654,78],[97,13],[26,13],[75,55],[29,14],[19,5],[56,2],[36,12],[15,2]],[[614,4096],[-8,-35],[18,-19],[21,-6],[14,-4],[39,-31],[62,-79],[23,-23],[30,-10],[34,-2],[26,-14],[2,-42],[-27,-78],[-38,-43],[-113,-54],[-59,-28],[-57,-46],[-37,-64],[0,-46],[0,-35],[21,-44],[28,-28],[29,-23],[26,-31],[5,-19],[4,-42],[6,-20],[14,-15],[30,-20],[12,-22],[47,-100],[87,-80],[339,-192],[1,-1],[62,-68],[29,-2]],[[1347,2741],[21,-11],[21,-21],[37,-49],[3,-11],[1,-11],[-1,-11],[-27,-122],[-17,-47],[-28,-37],[-32,-29],[-6,-14],[-17,-87],[-10,-20],[-19,-17],[-102,-10]],[[1284,2730],[10,3],[21,6],[32,2]],[[1171,2244],[-240,40]],[[931,2284],[-92,-60],[2,-19],[3,-26],[46,-21],[152,-16],[40,-19],[31,-35],[65,-135],[12,-23],[65,-66],[31,-16],[48,-24],[92,-28],[40,-39],[56,-115],[46,-37],[55,-16],[25,-14],[21,-26],[34,-65],[22,-21],[32,-10]],[[1907,1515],[50,-4],[21,-17],[34,-46],[22,-16],[28,-5]],[[1757,1453],[51,11],[99,51]],[[2154,1436],[24,-6],[24,-16],[18,-24],[4,-31],[-13,-25],[-21,-13],[-17,-15],[-1,-32],[10,-20],[0,-18],[-10,-14],[-18,-8],[-107,-21],[-46,-28],[-19,-49],[20,-60],[48,-37],[104,-48],[24,-19],[10,-28],[8,-30],[14,-28],[35,-37],[63,-45],[9,-8],[10,-12],[2,-5],[5,-13],[-13,-6],[-30,-2],[-68,-48],[-18,-3]],[[2062,1427],[92,9]],[[2205,687],[-88,46],[-51,6]],[[2066,739],[-34,-32],[1,-58],[38,-38],[48,-27],[35,-29],[19,-63],[8,-54],[-4,-53],[-19,-60],[-1,-6],[-3,-5],[-5,-23],[-2,-24],[1,-23],[6,-22],[51,-109]],[[49,1800],[49,-25],[11,-15],[97,-124],[15,-31],[6,-36],[-2,-44],[-15,-68],[6,-28],[29,-18]],[[0,1783],[49,17]],[[379,1475],[9,-12],[36,-52],[17,-39],[15,-22],[21,-8],[69,-7],[25,-13],[46,-48],[1,0],[15,-9],[17,-3]],[[245,1411],[53,12],[42,39],[39,13]],[[1075,1419],[40,-16],[33,-24],[13,-24],[0,-32],[-5,-48],[14,-87],[-7,-30],[-49,-82],[-9,-38],[8,-19],[4,-9],[83,-22],[30,-24],[27,-31],[35,-27],[21,-11],[83,-41],[30,-29],[10,-15],[3,-14],[-3,-14],[-10,-12],[-35,-47],[-9,-49],[13,-49],[31,-52],[38,-55],[29,-60],[76,-215],[85,-165]],[[650,1262],[16,4],[16,8],[16,7],[117,75],[39,16],[179,44],[8,2],[34,1]],[[2828,639],[17,3],[88,50],[10,6],[15,18],[7,14],[25,72],[52,85],[5,19],[15,16],[69,44],[145,57],[17,9],[44,26],[48,49],[0,1],[73,94],[47,40],[61,34],[102,35],[33,4],[19,13],[77,79],[26,15],[175,99],[63,64],[22,24],[13,9]],[[0,1133],[9,-3],[5,-7],[4,-9],[5,-6],[52,-37],[8,-9],[5,-14],[12,-20],[15,-18],[13,-7],[12,-18],[27,-61],[8,-20],[13,-18],[10,-20],[15,-95],[9,-29]],[[261,754],[151,-51]],[[222,742],[39,12]],[[439,719],[14,-1],[4,-12],[-4,-18],[0,-16],[14,-7],[21,-5],[19,-12],[8,-20],[-12,-28],[10,-20],[12,-9],[14,-8],[13,-15],[6,-15],[12,-41],[7,-16],[14,-10],[35,-16],[7,-13],[-3,-20],[-6,-15],[-5,-16],[3,-21],[17,-20],[31,-21],[33,-17],[17,-4],[23,-7],[30,-17],[7,-2],[11,-3],[40,-1],[83,-21],[130,-1],[75,-30],[33,-13],[307,-66],[96,-44],[85,-22]],[[412,703],[4,4],[10,7],[13,5]],[[2765,663],[41,-18],[22,-6]],[[2205,113],[26,2],[32,13],[23,15],[23,19],[20,22],[17,28],[41,86],[19,25],[27,23],[84,44],[24,23],[25,58],[17,28],[12,9],[24,14],[11,9],[8,12],[38,66],[20,23],[22,19],[24,11],[23,1]],[[1640,76],[14,2]],[[681,693],[46,-17],[41,-30],[-4,-68],[-27,-59],[27,-62],[38,-58],[-9,-26],[-19,-25],[4,-41],[2,-30]],[[3246,2558],[-104,3]],[[3142,2561],[-104,-9]],[[2868,3025],[9,-45],[10,-43],[16,-20],[21,-15],[25,-47],[34,-31],[43,-16],[-3,-54],[-4,-65],[4,-66],[9,-34],[6,-37]],[[3558,2802],[3,-5],[0,-11],[115,-14],[-12,-16],[-27,-11],[-12,-12],[-7,-15],[0,-1]],[[3295,3733],[-110,48],[-111,45],[-131,73],[-132,66]],[[160,1981],[-35,-78],[-10,-31],[-2,-7],[0,-63],[-4,-41],[0,-1]],[[1178,1953],[-25,-15],[-22,-26],[-77,-132],[-13,-29],[-3,-20],[27,-52],[1,-29],[-6,-40],[-39,-154],[2,-10],[1,-8],[7,-19],[1,-2],[1,-1]],[[510,0],[8,40],[32,79],[161,174],[9,10]],[[2680,170],[64,13],[58,34],[90,12],[127,89],[30,41],[10,35],[5,37],[-27,116],[-21,39],[-45,22],[-20,23],[-2,20],[-5,3],[-11,38]],[[3725,0],[-41,103],[-3,143],[-23,33],[20,216],[-57,22]],[[3621,517],[-94,-86],[-99,-60]],[[3428,371],[-59,6]],[[3369,377],[-109,-75],[-167,-296],[3,-6]],[[2612,226],[68,-56]],[[2548,70],[20,17],[10,53],[0,55],[4,29],[30,2]],[[2470,89],[78,-19]],[[2338,0],[24,32],[39,23],[15,27],[54,7]],[[1313,895],[-33,-44],[-30,-35],[-30,-33],[-10,-30],[-6,-33],[-10,-37],[-13,-36],[-26,-56],[-26,-57],[-30,-39],[-31,-39],[-9,-32],[-5,-34],[-7,-18],[3,-20],[53,-37],[43,-45],[-27,-48],[0,-1]],[[388,1463],[-1,-1],[-11,-12],[-34,-52],[-18,-57],[-15,-58],[-10,-52],[8,-50],[22,-50],[12,-53],[-10,-19],[-8,-21],[10,-22],[10,-24],[-6,-42],[-29,-19],[-38,-18],[-38,-12]],[[232,901],[-33,9],[-32,15]],[[167,925],[0,-1]],[[773,802],[43,29],[-16,53]],[[1113,1019],[0,-1],[-2,-1],[-43,-52],[-30,-39]],[[1038,926],[-36,8],[-33,35]],[[969,969],[-43,-23],[-63,-26],[-63,-36]],[[617,1274],[-15,-20],[-47,-40],[-35,-54],[22,-17],[32,-12],[13,-40],[15,-41],[66,-33],[66,-33],[17,-21],[14,-20],[0,-22],[-3,-15],[14,-26]],[[776,880],[24,4]],[[773,802],[-30,-69],[-62,-40]],[[773,802],[-91,-2],[-92,-6]],[[590,794],[-80,4]],[[510,798],[-56,-44],[100,-75]],[[554,679],[127,14]],[[2431,1823],[67,-11],[37,-10]],[[2243,1775],[33,6],[7,1],[26,3],[31,15],[30,15],[61,8]],[[2588,1774],[15,-66],[3,-54],[1,-37],[-1,-36]],[[2535,1802],[26,-6],[27,-22]],[[2473,2270],[51,-38]],[[2584,2249],[70,-36],[28,-63],[9,-21],[28,-26],[23,-22],[59,-28],[-12,-51],[-30,-40],[-4,-7],[-28,-49],[-3,-6],[-26,-53]],[[2524,2232],[60,17]],[[2884,2628],[-36,7],[-16,15],[-17,6],[-1,1]],[[2814,2657],[-10,-24],[0,-1],[8,-30],[-91,-45],[-56,-25],[-9,-4],[-14,-6],[-11,-65],[-38,-39],[-21,-51],[-7,-69]],[[2997,2547],[-38,12],[-13,49],[-28,34]],[[2918,2642],[-34,-14]],[[3038,2552],[-25,-3],[-16,-2]],[[2562,3000],[55,2],[17,10],[14,8],[30,23],[28,21],[29,18],[32,32],[35,33]],[[2508,3002],[43,-1],[11,-1]],[[2235,2830],[9,12],[21,27],[20,27],[9,3],[17,7],[55,21],[70,43],[72,32]],[[2698,1847],[-18,-26],[-13,-26],[18,-35],[26,-28],[47,-52],[18,-74],[-45,-43],[-50,-36]],[[2681,1527],[-38,21],[-37,33]],[[2528,1455],[7,11],[6,9],[26,43],[39,63]],[[2918,2013],[60,-29],[80,-54],[83,-20]],[[2698,1847],[56,28],[57,23],[28,46],[16,54],[63,15]],[[3228,1976],[25,-6],[22,-6]],[[3141,1910],[19,30],[8,11],[9,13],[5,7],[9,1],[37,4]],[[1919,2760],[2,131],[43,109],[33,40],[29,46],[47,56],[53,50],[34,37],[32,38],[8,33],[-21,26],[3,113],[-40,91]],[[3743,3746],[2,116],[29,110],[24,42],[25,42],[4,40]],[[1328,3293],[-10,22],[10,22],[-4,45],[5,42],[-33,59],[-55,52],[-62,51],[-45,75],[-10,39],[-18,31],[-27,32],[-27,36]],[[3770,3450],[53,29],[57,14],[52,1],[47,23]],[[1860,3817],[-23,-39],[-21,-40],[-6,-36],[-4,-37],[-11,-27],[-12,-28],[-5,-34],[-7,-32],[-40,-29]],[[1731,3515],[-47,1]],[[1684,3516],[-59,-14],[-54,-38]],[[3674,2977],[85,-56],[82,-63],[24,-37],[23,-31]],[[4034,2821],[62,-8]],[[3888,2790],[37,5],[35,24],[74,2]],[[2802,3147],[11,-29],[7,-32],[22,-32],[26,-29]],[[3678,3681],[5,-83],[4,-83],[35,-38],[48,-27]],[[3678,3681],[51,15],[14,50]],[[2607,3430],[-26,42],[45,61],[36,58],[-48,34],[-59,8],[-34,56],[26,73],[12,77],[-5,80],[-5,75],[14,76]],[[2801,3243],[-42,13],[-9,83],[3,81],[-37,41],[-50,5]],[[2666,3466],[-59,-36]],[[2802,3147],[34,15],[15,40],[7,30],[-13,17]],[[2845,3249],[-44,-6]],[[2868,3025],[71,106],[90,13],[85,14],[51,110],[40,24],[10,12]],[[1953,3611],[-10,-22],[-14,-23],[-16,-23],[-11,-29],[-11,-30],[13,-59],[56,-7]],[[1960,3418],[54,51],[42,68]],[[2897,3697],[-54,20]],[[2843,3717],[-46,-23],[69,-81]],[[2866,3613],[118,47],[-14,26],[-16,21],[-28,1]],[[2926,3708],[-29,-11]],[[3767,3233],[24,-29],[31,-24]],[[3882,3200],[38,-21],[36,-29],[35,-15]],[[3822,3180],[29,10],[31,10]],[[4044,3170],[30,-2],[22,-11]],[[3991,3135],[29,15],[24,20]],[[3979,3517],[51,-14],[49,-17],[17,-5]],[[3674,2977],[-19,-51],[-22,-48],[-47,-52],[-28,-24]],[[3236,3213],[-5,17],[2,25],[13,20],[-17,19],[-12,9],[-2,1]],[[3393,3097],[-22,0],[-6,5],[1,18],[-5,4],[-5,6],[-8,14],[-11,13],[-17,6],[-11,16],[9,34],[4,35],[-26,19]],[[3296,3267],[-11,-5],[-14,-14],[-20,-27],[-15,-8]],[[3473,2918],[-28,11],[30,42],[-11,21],[-79,29],[12,14],[30,23],[8,15],[3,30],[-11,4]],[[3427,3107],[-16,-7],[-18,-3]],[[3526,2832],[1,20],[3,18],[6,17],[9,16],[-17,24]],[[3528,2927],[-55,-9]],[[3558,2802],[-10,16],[-15,17]],[[3533,2835],[-7,-3]],[[3767,3233],[-57,18]],[[3710,3251],[-55,-6],[-43,-29],[-11,-68],[-10,-56],[21,-48],[40,-23],[22,-44]],[[3215,3304],[24,27],[14,59],[-18,57],[1,69],[19,63],[20,77],[20,77]],[[3767,3233],[5,63],[18,57],[17,19],[7,21],[-20,28],[-24,29]],[[3246,2558],[-60,-61],[-68,-44],[-6,-43],[43,-38],[-40,-36],[-9,-3],[-45,-14],[-2,-52],[-4,-53],[-18,-15],[-19,-11],[32,-94],[119,-25],[1,-1]],[[3296,2102],[33,-55],[-31,-67],[-11,-9],[-12,-7]],[[3170,2068],[62,24],[64,10]],[[3366,1681],[41,80],[-22,73],[-19,12],[-53,34],[-25,56],[-13,28]],[[3705,2563],[-4,10],[-35,58],[-30,63],[-8,12],[-8,5],[-2,6]],[[4015,2538],[-7,1],[-24,7],[-10,25],[-7,50]],[[3967,2621],[-17,-1],[-45,-57]],[[3862,2562],[-17,1],[-9,9],[-9,22],[-12,11],[-35,4]],[[3780,2609],[-28,-17],[-25,-21],[-22,-8]],[[3905,2563],[-17,12]],[[3888,2575],[-13,-5],[-13,-8]],[[3324,2527],[48,16],[123,81],[123,93]],[[3243,2588],[38,-31],[43,-30]],[[3246,2558],[-3,30]],[[4080,2419],[-15,33]],[[4096,2424],[-16,-5]],[[4065,2452],[-2,4],[-8,48],[-1,23],[-19,10],[-20,1]],[[3694,1995],[34,3],[47,20],[49,14],[42,44],[23,68],[16,89],[14,92],[33,72],[63,141]],[[3658,1998],[36,-3]],[[3591,1739],[-28,45],[-20,37],[19,17],[19,13],[-8,24],[-10,31],[24,42],[45,18],[10,20],[16,12]],[[4065,2452],[-62,-57],[53,-55],[40,-47]],[[4096,2207],[-53,-38],[-29,-17],[-21,-28],[17,-30],[27,-18],[-25,-68],[-9,-56],[55,-28],[38,-35]],[[4096,1668],[-22,-20],[-13,-61],[0,-2]],[[2522,1258],[25,-19],[10,-16],[8,-13],[-5,-15],[-10,-30],[-25,-38]],[[2461,1242],[30,8],[31,8]],[[2389,1255],[36,-7],[36,-6]],[[2655,770],[-59,-33],[-57,-38],[-49,-56],[-42,-62]],[[2448,581],[-59,36],[-16,138],[-44,4]],[[2664,1243],[3,-2],[34,-22],[23,-9],[22,-9],[10,-21],[-2,-26],[43,-37],[49,-28],[18,-35]],[[2636,1099],[10,33],[7,23],[2,7],[-12,31],[-10,29],[31,21]],[[2864,1054],[37,7],[25,23],[28,4],[23,1],[1,25],[-6,18],[-12,41],[8,13],[22,36]],[[2525,1127],[43,-17],[5,-2],[9,-4],[54,-5]],[[2655,770],[50,-66],[13,-52],[0,-1]],[[2525,1127],[-35,-33],[-9,-59],[21,-42],[27,-42],[5,-63],[23,-53],[50,-30],[48,-35]],[[3010,1501],[-54,12],[25,43],[10,1],[57,4],[33,14],[33,18],[25,28],[27,16],[44,7],[44,12],[31,6],[26,5],[55,14]],[[2950,1392],[-10,32],[20,23],[4,5],[60,14],[18,23],[15,19]],[[3057,1508],[-47,-7]],[[2990,1222],[8,16],[4,8],[-1,21],[12,2],[16,3],[26,8],[-7,37],[-2,7],[-7,31],[12,22],[15,20],[-11,42]],[[3055,1439],[-43,-18],[-30,-25],[-32,-4]],[[3591,1739],[-113,-28],[-112,-30]],[[3591,1739],[24,-56],[48,-13],[36,-41],[31,-52],[93,-78],[0,-76],[0,-1]],[[2990,1222],[53,-27],[50,-30],[28,-52],[30,-45]],[[3232,1083],[45,-28],[16,-22],[0,-1]],[[3151,1068],[39,6],[42,9]],[[2113,2156],[-20,-57],[12,-49],[33,-22],[30,-29],[50,-105],[25,-119]],[[2243,1775],[15,-59],[6,-37],[3,-22],[-8,-16],[-16,-32],[-20,-53],[6,-50],[32,-13],[29,-14],[25,-22]],[[2460,1554],[40,-4],[20,-41],[5,-37],[3,-17]],[[2315,1457],[60,7],[11,18],[34,58],[40,14]],[[2389,1255],[41,28],[27,40],[-1,5],[-4,23],[-3,21],[-26,27],[15,17],[24,28],[66,11]],[[2389,1255],[-57,-41],[-57,-44]],[[2275,1170],[-66,8],[-55,36]],[[1286,4096],[-2,-4],[-27,-57],[-47,-35],[-49,-34],[-40,-35],[-44,-28],[-26,-46],[1,-58]],[[3295,3733],[61,-12],[60,-15],[36,-16],[36,0]],[[3514,3704],[26,-8],[25,-13],[56,-13]],[[3488,3690],[11,7],[15,7]],[[3621,3670],[57,11]],[[2473,2270],[-60,-11],[-53,-28],[-32,-48],[-46,-26]],[[2282,2157],[-39,29],[-45,22]],[[2198,2208],[-40,-25],[-34,-21],[-11,-6]],[[2565,2298],[-50,-4],[-12,-7],[-30,-17]],[[2235,2830],[-6,-34],[-10,-31],[-14,-12],[-15,-13],[-6,-69],[16,-67],[13,-63],[19,-52]],[[2297,2525],[87,-9],[73,-69],[37,-29],[19,-39],[10,-24],[8,-18],[34,-39]],[[2232,2489],[33,11],[32,25]],[[2235,2830],[-153,-95]],[[2082,2735],[-106,16],[-57,9]],[[1919,2760],[-122,18],[-114,41]],[[2113,2156],[-61,-27],[-62,-23],[-65,-10],[-63,-27],[-102,-35],[-105,-16],[-51,-15],[-50,-6]],[[1554,1997],[-36,41],[-38,30]],[[1480,2068],[-29,-46],[-27,-63],[-54,-48],[-56,-41],[-28,-21],[0,-1]],[[3371,4049],[-14,18],[6,26],[-3,3]],[[3743,3746],[-141,74],[-129,98],[-25,28],[-19,34],[-8,40],[-9,34],[-20,2]],[[3392,4056],[-21,-7]],[[4096,3680],[-10,-9],[-30,-55],[-37,-51],[-40,-48]],[[987,3365],[35,37],[11,59],[7,88],[-1,83],[-5,83],[18,84]],[[697,3656],[9,-21],[8,-62],[43,-28],[54,-1],[45,-19],[30,-41],[-4,-51],[34,-23],[34,-28],[37,-17]],[[1683,2819],[35,101],[67,74],[1,57],[-48,36],[-50,42],[-37,58],[52,78],[48,73],[-33,28],[-41,24],[-52,39],[-54,35]],[[1501,3501],[70,-37]],[[1328,3293],[58,78],[59,83],[56,47]],[[1581,2809],[-101,8],[-91,17]],[[1389,2834],[-82,-32],[-13,-68],[0,-1]],[[1683,2819],[-102,-10]],[[1328,3293],[-104,-63],[-25,-121],[17,-33],[19,-32],[13,-38],[-16,-37],[-1,-47],[-11,-39],[-14,-21],[-1,-29],[-12,-33]],[[2563,4070],[125,-38],[123,-67]],[[2811,3965],[-3,131]],[[2142,3530],[26,88],[58,53],[26,27],[-7,39],[12,27],[29,17],[75,70],[74,72],[63,74],[65,73]],[[2056,3537],[86,-7]],[[1860,3817],[44,-94],[49,-112]],[[1860,3817],[-25,66],[14,68],[12,33],[7,34],[11,45],[20,33]],[[1953,3611],[73,-1],[30,-73]],[[2559,4096],[4,-26]],[[645,4036],[16,57],[2,3]],[[264,3629],[9,-1],[29,-9],[50,-5],[14,-4],[8,-8],[34,-41],[8,-6],[8,-3],[25,-7],[10,-5],[9,-6],[16,-16],[14,-18],[18,-18],[28,-10]],[[0,3447],[56,11],[22,9],[9,5],[7,6],[6,7],[5,9],[18,44],[5,10],[7,8],[8,6],[56,23],[12,7],[43,33],[10,4]],[[0,2604],[21,-25],[22,-33]],[[43,2546],[-43,2]],[[43,2546],[-7,-55],[-16,-63],[-1,-24],[2,-18],[62,-151],[6,-16],[3,-7],[3,-5],[4,-3],[16,-7],[6,-6],[2,-13],[-1,-43],[3,-17],[5,-16],[9,-22],[3,-17],[3,-41],[2,-13],[13,-28]],[[841,2205],[-5,1],[-13,8],[-8,10],[-3,4],[-5,4],[-5,2]],[[802,2234],[-7,-1],[-9,-8],[-5,-6],[-15,-24],[-20,-18],[-52,-27],[-24,-8],[-100,-17]],[[570,2125],[-36,0]],[[534,2125],[-45,-9]],[[489,2116],[-107,6]],[[382,2122],[-13,-2],[-46,-18],[-18,-10],[-18,-13],[-59,-54],[-68,-44]],[[2563,1856],[27,16],[14,35],[7,19],[12,1],[6,15],[-12,22],[-16,8],[-9,4]],[[2592,1976],[-10,-6],[-22,-18],[-24,-36],[3,-44],[24,-16]],[[3165,3317],[15,20],[-4,12],[-1,23],[4,14],[7,14],[7,19],[3,24],[-7,6],[-17,2]],[[3172,3451],[-31,-1],[-67,-1],[-26,-40],[21,-62],[46,-27],[50,-3]],[[2535,1802],[-11,-19],[1,-20],[14,-11]],[[2539,1752],[23,1],[11,12],[15,9]],[[2653,3177],[13,0],[13,10],[2,10],[-1,8],[-7,8],[-12,10]],[[2661,3223],[-9,-8],[-7,-10],[-7,-8],[5,-11],[10,-9]],[[245,1411],[-32,-102],[-26,-112],[-48,-78],[-64,-47]],[[75,1072]],[[397,3182],[-136,125],[-261,124]],[[1996,3591],[-9,2],[-3,1],[-2,1],[-25,27],[-15,19],[-206,149],[-94,46],[-54,9],[-8,2],[-181,94],[-126,11],[-6,2],[-22,8],[-10,0],[-3,1],[-233,106],[-91,9],[-7,18]],[[901,4096],[7,-18],[17,0],[68,-8],[5,-1],[3,-1],[209,-89],[4,-2],[3,-2],[2,-1],[7,-7],[2,-2],[4,-2],[3,-1],[7,0],[3,0],[3,-1],[20,-7],[5,-2],[105,-6],[3,0],[2,0],[15,-5],[4,-1],[178,-92],[8,-3],[47,-7],[4,-1],[2,0],[12,-6],[9,-4],[45,-22],[26,-13],[2,-1],[207,-150],[3,-2],[12,-17],[10,-9],[18,-19],[70,-7],[92,-27]],[[2061,3584],[52,-23],[219,-4],[113,-50],[746,-97],[21,-18],[6,-3],[238,-68],[197,-100],[4,-2],[23,-3]],[[3205,3398],[248,-75],[56,-24],[13,-6],[135,-74],[298,-21],[124,-35],[17,-8]],[[56,3178],[-29,-1],[-27,4],[0,99],[2,1],[16,14],[-11,31],[-7,6],[0,91],[2,0],[111,-44],[19,0],[14,-23],[177,-108],[37,-44],[42,-39],[18,-12],[7,-2],[5,-5],[-2,-26],[2,-9],[9,-7],[11,-4],[29,-3],[8,-2],[15,-10],[7,1],[5,5],[6,9],[2,8],[-7,3],[-7,12],[2,23],[9,17],[16,-6],[12,-11],[42,-22],[49,-50],[75,-106],[56,-39],[59,-22],[20,-16],[96,-133],[17,-43],[7,-53],[-6,-45],[-19,-35],[-27,-22],[-32,-8],[-66,9],[-9,-3],[-70,-45],[-26,17],[-33,16],[-35,5],[-30,-18],[-28,-23],[-35,-10],[-73,0],[-64,16],[-47,38],[-30,61],[-19,80],[11,155],[-2,92],[-28,53],[-13,-1],[-32,-21],[-15,-4],[-12,4],[-25,18],[-18,4],[-5,9],[-1,21],[1,41],[-5,23],[-13,6],[-16,-1],[-16,3],[-13,12],[-36,42],[-27,27]],[[2827,3814],[-64,33],[-407,110],[-237,-18],[-64,-20],[-37,-2],[-70,27],[47,47],[170,29],[54,67],[-10,9],[261,0],[37,-31],[258,-112],[62,-47],[8,-10],[7,-10],[10,-11],[15,-10],[53,-11],[35,-22],[141,-44],[25,-15],[17,-25],[7,-45],[-14,3],[-94,44],[-39,-1],[-54,-32],[-32,-8],[-10,7],[-11,17],[-9,21],[-4,15],[-7,10],[-14,13],[-30,22]],[[56,3178],[-29,-1],[-27,4]],[[0,3280],[2,1],[16,14],[-11,31],[-7,6]],[[0,3423],[2,0],[111,-44],[19,0],[14,-23],[177,-108],[37,-44],[42,-39],[18,-12],[7,-2],[5,-5],[-2,-26],[2,-9],[9,-7],[11,-4],[29,-3],[8,-2],[15,-10],[7,1],[5,5],[6,9],[2,8],[-7,3],[-7,12],[2,23],[9,17],[16,-6],[12,-11],[42,-22],[49,-50],[75,-106],[56,-39],[59,-22],[20,-16],[96,-133],[17,-43],[7,-53],[-6,-45],[-19,-35],[-27,-22],[-32,-8],[-66,9],[-9,-3],[-70,-45],[-26,17],[-33,16],[-35,5],[-30,-18],[-28,-23],[-35,-10],[-73,0],[-64,16],[-47,38],[-30,61],[-19,80],[11,155],[-2,92],[-28,53],[-13,-1],[-32,-21],[-15,-4],[-12,4],[-25,18],[-18,4],[-5,9],[-1,21],[1,41],[-5,23],[-13,6],[-16,-1],[-16,3],[-13,12],[-36,42],[-27,27]],[[2827,3814],[-64,33],[-407,110],[-237,-18],[-64,-20],[-37,-2],[-70,27],[47,47],[170,29],[54,67],[-10,9]],[[2470,4096],[37,-31],[258,-112],[62,-47],[8,-10],[7,-10],[10,-11],[15,-10],[53,-11],[35,-22],[141,-44],[25,-15],[17,-25],[7,-45],[-14,3],[-94,44],[-39,-1],[-54,-32],[-32,-8],[-10,7],[-11,17],[-9,21],[-4,15],[-7,10],[-14,13],[-30,22]],[[3611,4096],[0,-26]],[[3124,4039],[-32,57]],[[4067,3984],[-60,-8],[-30,8],[-60,31],[-18,0],[-54,-7],[-78,7],[-42,16],[-42,31],[-36,8],[-36,0]],[[205,3890],[12,24],[6,62],[18,71],[42,47],[4,2]],[[3233,3851],[-18,47],[-67,102],[-24,39]],[[1488,3864],[3,-5],[27,-20]],[[1193,3970],[21,14],[47,15]],[[927,4096],[23,-26],[18,-15],[84,-24],[126,-63],[12,0],[3,2]],[[1261,3999],[1,1],[60,-16],[91,-31],[42,-32],[33,-57]],[[1518,3839],[105,-74]],[[25,3702],[30,8],[48,55],[48,39],[12,47],[42,39]],[[22,3702],[-20,0]],[[2,3702],[-2,0]],[[25,3702],[-3,0]],[[1623,3765],[30,-24],[48,-39],[60,-55],[54,-31]],[[3233,3592],[-6,40],[-37,117],[0,24],[37,54],[6,24]],[[1899,3585],[-5,2]],[[1894,3587],[-31,13],[-48,16]],[[1971,3538],[-24,15],[-48,32]],[[2070,3538],[-99,0]],[[2151,3538],[-81,0]],[[3233,3592],[18,0],[42,-23],[96,-31],[54,-24],[24,-15],[12,-40]],[[2680,3452],[-72,7],[-54,8],[-66,-8],[-66,8],[-60,39],[-42,24],[-43,8],[-60,7],[-66,-7]],[[3623,3467],[42,-8],[60,-15],[48,8],[60,31],[42,8],[42,-16],[66,-31]],[[3983,3444],[24,-8]],[[2680,3452],[120,-8],[66,-8]],[[3581,3428],[42,39]],[[2938,3678],[0,1],[42,15],[47,-13]],[[2938,3420],[0,94],[-18,94],[0,47],[18,23]],[[3027,3681],[7,-2],[90,-40],[109,-47]],[[2866,3436],[72,-16]],[[3479,3459],[18,-23],[54,-16],[30,8]],[[2938,3420],[108,-8]],[[3136,3405],[6,7],[31,19]],[[3173,3431],[36,21],[18,23],[6,16],[-12,70],[12,31]],[[3069,3410],[67,-5]],[[3046,3412],[23,-2]],[[4007,3436],[72,8],[17,-4]],[[3130,3381],[6,24]],[[3136,3405],[34,-7]],[[3170,3398],[8,-1],[25,-8],[18,-39]],[[3130,3381],[-9,-25]],[[3121,3356],[-9,-22]],[[25,3702],[1,-5]],[[27,3692],[0,-2]],[[58,3637],[22,-5]],[[130,3609],[9,-10]],[[25,3702]],[[26,3697],[1,-5]],[[27,3690],[4,-19],[18,-32],[9,-2]],[[80,3632],[35,-8],[15,-15]],[[139,3599],[36,-38],[30,-16],[114,-31],[30,8],[36,-23],[72,-32],[31,-31],[30,-63],[36,-31],[36,-8],[24,8],[54,0],[30,16],[30,47],[30,15],[24,0],[48,-39],[60,-16],[24,8],[30,24],[6,47],[0,62],[-6,24],[-12,55],[6,15],[42,32],[6,31],[-18,23],[0,24],[24,31],[-12,79],[24,23],[42,8],[36,31],[12,47],[-6,39],[-30,55]],[[3221,3350],[78,-16],[48,-23],[42,0],[42,-16],[114,-47]],[[3545,3248],[54,-16],[102,-47],[120,-23]],[[3821,3162],[48,-8]],[[3112,3334],[-6,-63],[-18,-133]],[[3869,3154],[84,8],[126,-32]],[[4079,3130],[17,-7]],[[3069,2968],[1,-10]],[[3088,3138],[-24,-133],[5,-37]],[[1082,2574],[30,71],[-12,23],[-60,63],[-42,71],[-24,31],[-54,8],[-60,39],[-48,39],[-42,31],[-42,8],[-30,32],[-30,46],[-54,79],[-18,8],[-66,39],[-97,31],[-48,0],[-18,31],[-24,8],[-48,39],[-66,40],[-42,15],[-54,47],[-36,8],[-90,55],[-7,1]],[[427,2465],[-36,0],[-24,15],[-36,40],[-66,117],[-12,47],[-18,86],[-12,39],[-36,55],[-30,32],[-12,31],[-30,86],[-72,94],[-43,26]],[[427,2465],[85,-8],[78,23],[48,0],[54,0],[90,8],[54,8],[42,8],[72,39],[72,16],[60,15]],[[3088,3138],[36,-70],[24,-78],[12,-32],[24,-109],[0,-63],[43,-118],[42,-141],[48,-47],[42,-54],[42,-79],[30,-31],[24,-16],[66,8],[36,-23]],[[3070,2958],[4,-20]],[[3074,2938],[14,-74],[-6,-39],[-12,-31],[-30,-55],[-42,-102],[-18,-47],[-84,-180],[-36,-70],[-18,-40],[-12,-47]],[[2818,2214],[12,39]],[[433,1925],[-6,15],[-48,71],[-36,70],[0,47],[-12,94],[0,31],[36,79],[6,0],[54,133]],[[2572,1953],[0,-44]],[[2818,2214],[-96,-15],[-42,-71],[-30,-47],[-66,-70],[-12,-24],[0,-34]],[[79,1885],[-36,16],[-24,31],[-19,8]],[[2572,1909],[-3,-35]],[[2569,1874],[-3,-36]],[[4096,1810],[-11,5],[-24,39],[-24,16],[-42,15],[-78,47],[-42,32],[-42,31],[-72,23],[-30,24],[-36,39],[-60,78],[-36,94],[-42,32]],[[451,1737],[-18,125],[6,39],[-6,24]],[[283,1713],[-12,8],[-48,78],[-30,32],[-24,15],[-66,24],[-24,15]],[[283,1713],[42,0],[90,0],[36,24]],[[758,1635],[54,8]],[[710,1627],[48,8]],[[451,1737],[31,23],[24,0],[36,-8],[72,-86],[60,-31],[36,-8]],[[283,1713],[-78,-31],[-24,-32],[-6,-23],[0,-31],[-36,-32],[-36,-86],[-18,-23]],[[812,1643],[48,7],[42,40],[54,7],[36,-15],[24,-32],[12,-7],[36,0],[42,-24],[48,8],[102,-55],[30,-31],[30,-32],[30,-86]],[[0,1430],[19,-15],[54,47],[12,-7]],[[4096,1713],[-59,-55],[-114,-86],[-42,-47],[-66,-78],[-24,-16],[-66,-47]],[[2566,1838],[-24,-62],[-30,-32],[-60,-47],[-36,-15],[-30,-55],[-42,-24],[-24,-15],[-24,-32],[-31,-15],[-18,-24],[12,-31],[-6,-31],[-48,-8],[-36,-24],[-6,-31],[-24,-16],[-48,0],[-60,-54],[-42,-8],[-24,8],[-24,-8]],[[1346,1423],[73,0],[48,-15],[78,-39],[60,-16],[48,-24],[78,-54],[42,-24],[48,-16],[30,0],[42,24],[24,39],[24,16]],[[3725,1384],[-48,-23],[-180,-55],[-30,-16],[-42,-39],[-78,-110]],[[85,1455],[-12,-40],[-12,-54],[0,-47],[6,-118],[12,-31],[66,-47]],[[3347,1141],[-48,-47],[-48,-31],[-121,-47],[-42,-16],[-30,-15]],[[540,766],[44,-40]],[[145,1118],[30,-16],[36,-47],[48,-86],[36,-55],[18,-15],[90,-63],[79,-23],[24,-16],[34,-31]],[[3058,985],[-30,-24],[-72,-109],[-18,-16],[-72,-55],[-36,-47],[-42,-15],[-66,-24],[-84,-39],[-42,0]],[[2296,1541],[0,-71],[54,-258],[18,-47],[60,-102],[60,-141],[12,-55],[12,-109],[12,-55],[30,-31],[42,-16]],[[584,726],[47,-41]],[[631,685],[43,-37],[30,-23],[48,-55]],[[752,570],[12,-16]],[[2446,491],[54,63],[30,24],[66,78]],[[764,554],[36,-63],[48,-54],[30,-55],[6,-63],[12,-31]],[[73,249],[6,70],[-30,31],[-49,22]],[[1797,178],[42,32],[54,15],[48,16],[48,0],[84,-16],[30,0]],[[907,294],[19,10],[4,2]],[[896,288],[11,6]],[[930,306],[44,29],[42,8],[54,-24],[66,0],[48,-31],[24,-24],[66,-15],[42,-32],[30,-7],[73,-16],[48,0],[48,8],[42,-8],[96,-55],[18,-8],[54,0],[36,16],[36,31]],[[43,138],[0,25],[29,82]],[[43,123],[0,15]],[[72,245],[1,4]],[[920,233],[0,8],[-24,46]],[[896,14],[-12,47],[6,31],[30,55],[0,86]],[[896,287],[0,1]],[[144,0],[-41,29],[-48,55],[-12,39]],[[892,0],[4,14]],[[4096,4096],[0,-4096],[-4096,0],[0,4096],[4096,0]],[[1042,0],[-102,187],[67,58],[65,-45],[88,-5],[25,-37],[53,7],[22,-38],[62,-29],[52,43],[95,-47],[46,0],[36,30],[117,-87],[89,21],[38,-58],[-753,0]],[[0,3811],[9,-76],[28,-17],[-29,-15],[20,-1],[2,-6],[-28,6],[-2,109]],[[0,3695],[27,-3],[-2,-53],[-25,1],[0,55]],[[0,3614],[77,31],[-32,7],[-1,53],[93,-18],[82,-53],[-13,-32],[-78,-3],[-83,-140],[15,-21],[-60,10],[0,130],[10,-15],[17,14],[-27,3],[0,34]],[[57,3616],[25,-45],[30,4],[-12,37],[49,-5],[-69,45],[-1,-43],[-22,7]],[[31,3579],[15,-13],[25,12],[-34,13],[-6,-12]],[[943,2],[-48,39],[16,84],[132,-33],[2,-64],[-102,-26]],[[2964,40],[-60,80],[29,68],[65,0],[42,-42],[5,-45],[-81,-61]],[[70,150],[-46,-20],[-24,120],[82,-5],[22,-59],[-34,-36]],[[830,209],[30,56],[67,41],[54,-4],[11,-50],[-162,-43]],[[599,671],[-44,9],[-33,78],[98,42],[32,-105],[-53,-24]],[[2011,769],[67,-14],[46,3],[-56,-45],[-73,24],[16,32]],[[118,969],[-38,3],[-35,59],[-8,43],[44,26],[39,-23],[17,-50],[-19,-58]],[[2594,1981],[23,-53],[-33,-52],[-48,-5],[-23,90],[48,-22],[33,42]],[[3119,3355],[-49,31],[-7,114],[113,-42],[-7,-71],[-50,-32]],[[4015,3455],[-62,45],[17,32],[68,-28],[12,-46],[-35,-3]],[[3111,2910],[-46,35],[14,70],[47,-35],[-15,-70]],[[1487,3784],[-26,12],[22,66],[59,18],[-55,-96]],[[1251,3943],[-56,22],[-25,63],[62,17],[35,-17],[-16,-85]],[[1882,3943],[-31,35],[-2,71],[42,-43],[-9,-63]],[[2031,3628],[56,-63],[-51,-83],[-57,-24],[-114,42],[49,149],[32,-22],[42,70],[23,-7],[20,-62]],[[3823,3542],[-8,58],[57,27],[-1,-36],[-48,-49]],[[3016,3725],[14,-56],[-86,3],[-38,41],[110,12]],[[3571,2306],[-23,13],[27,49],[54,14],[-8,-42],[-50,-34]],[[0,2275],[18,77],[69,-49],[-56,-95],[-31,4],[0,63]]]}