{"objects":{"water":{"type":"GeometryCollection","geometries":[{"type":"Polygon","properties":{"source":"naturalearthdata.com","kind":"ocean","area":1576712559132672,"sort_rank":200,"min_zoom":0.0,"id":1},"arcs":[[0],[1],[2],[3]]},{"type":"LineString","properties":{"source":"naturalearthdata.com","kind":"ocean","sort_rank":205,"boundary":true,"min_zoom":0.0,"id":1380},"arcs":[4]},{"type":"LineString","properties":{"source":"naturalearthdata.com","kind":"ocean","sort_rank":205,"boundary":true,"min_zoom":0.0,"id":1382},"arcs":[5]},{"type":"LineString","properties":{"source":"naturalearthdata.com","kind":"ocean","sort_rank":205,"boundary":true,"min_zoom":0.0,"id":4060},"arcs":[6]}]},"buildings":{"type":"GeometryCollection","geometries":[]},"places":{"type":"GeometryCollection","geometries":[{"type":"Point","properties":{"name:mt":"Majotte","name:rn":"Mayote","name:az":"Mayot","name:mr":"\u092e\u093e\u092f\u094b\u091f\u094d\u091f\u0947","name:ko":"\ub9c8\uc694\ud2b8","name:kn":"\u0cae\u0caf\u0cca\u0c9f\u0ccd\u0c9f\u0cc6","name:km":"\u1798\u17c9\u17b6\u1799\u17bb\u178f","name:ar":"\u0645\u0627\u064a\u0648\u062a","name:bs":"Majote","min_zoom":4.0,"name:ti":"\u121c\u12ed\u12a6\u1274","name:am":"\u121c\u12ed\u12a6\u1274","name:to":"Meioti","name:ml":"\u0d2e\u0d2f\u0d4b\u0d1f\u0d4d\u0d1f\u0d4d","loc_name":"Maore","name:or":"\u0b2e\u0b3e\u0b5f\u0b4b\u0b1f\u0b47","name:pl":"Majotta","name:ta":"\u0bae\u0baf\u0bcb\u0ba4\u0bcd","id":249399460,"name:mk":"\u041c\u0430\u0458\u043e\u0442\u0435","name:te":"\u0c2e\u0c3e\u0c2f\u0c4a\u0c1f\u0c4d\u0c1f\u0c3f","name:fa":"\u0645\u0627\u06cc\u0648\u062a","name:ha":"Mayoti","name:lt":"Majotas","name:ff":"Mayoot","kind_detail":"state","kind":"region","name:lo":"\u0ea1\u0eb2\u0ea2\u0ead\u0e94","name:dz":"\u0f58\u0f7a\u0f0b\u0f61\u0f7c\u0f4a","source":"openstreetmap.org","name:zu":"i-Mayotte","name:zh":"\u9a6c\u7ea6\u7279","name:lv":"Majota","name:ja":"\u30de\u30e8\u30c3\u30c8","name:si":"\u0db8\u0dba\u0ddd\u0da7\u0dd2","name:hi":"\u092e\u0948\u092f\u091f","name:sg":"M\u00e4y\u00f4te","name:he":"\u05de\u05d0\u05d9\u05d5\u05d8","name:ne":"\u092e\u093e\u092f\u094b\u091f\u094d\u091f","name:ur":"\u0645\u0627\u06cc\u0648\u0679","name:bm":"Mayoti","name:bn":"\u09ae\u09be\u09af\u09bc\u09cb\u09a4\u09cd\u09a4\u09c7","name:uk":"\u041c\u0430\u0439\u043e\u0442\u0442\u0430","name:ru":"\u041c\u0430\u0439\u043e\u0442\u0442\u0430","name:be":"\u041c\u0430\u0451\u0442\u0430","name:bg":"\u041c\u0435\u0439\u043e\u0442","name:hr":"Majote","name:sr":"\u041c\u0430\u0458\u043e\u0442\u0435","population":217091,"name:el":"\u039c\u03b1\u03b3\u03b9\u03cc\u03c4","name:eo":"Majoto","name":"Mayotte","name:ee":"Mayotte nutome","name:mg":"May\u00f4ty","name:ln":"Mayot\u025b","name:th":"\u0e21\u0e32\u0e22\u0e2d\u0e15","name:gu":"\u0aae\u0ac7\u0aaf\u0acb\u0a9f","name:ak":"May\u0254te","name:ks":"\u0645\u064e\u06cc\u06cc\u0679","name:yo":"Or\u00edl\u1eb9\u0301\u00e8de Mayote"},"coordinates":[221,1642]},{"type":"Point","properties":{"source":"naturalearthdata.com","kind":"locality","name":"Dzaoudzi","population":32057,"min_zoom":7.0,"id":4817},"coordinates":[401,1696]}]},"transit":{"type":"GeometryCollection","geometries":[]},"pois":{"type":"GeometryCollection","geometries":[{"type":"Point","properties":{"kind":"protected_area","protect_class":"5","area":46155700000,"name:ar":"\u0627\u0644\u0628\u062d\u0631\u064a\u0629 \u0628\u0627\u0631\u0643 \u0643\u0644\u0648\u0631\u064a\u0648\u0633\u0648","source":"openstreetmap.org","min_zoom":7.0,"tier":2,"id":-2050681,"osm_relation":true,"name":"Parc naturel marin des Glorieuses"},"coordinates":[3076,3326]},{"type":"Point","properties":{"kind":"protected_area","protect_class":"5","area":72573000000,"name:ar":"\u0627\u0644\u0628\u062d\u0631\u064a\u0629 \u0628\u0627\u0631\u0643 \u0645\u0627\u064a\u0648\u062a","source":"openstreetmap.org","min_zoom":7.0,"tier":2,"id":-549575,"osm_relation":true,"name":"Parc naturel marin de Mayotte"},"coordinates":[1344,1615]}]},"boundaries":{"type":"GeometryCollection","geometries":[]},"roads":{"type":"GeometryCollection","geometries":[]},"earth":{"type":"GeometryCollection","geometries":[{"type":"MultiPolygon","properties":{"sort_rank":10,"source":"naturalearthdata.com","min_zoom":0.0,"kind":"earth","area":147592258554},"arcs":[[[7]],[[8]],[[9]]]},{"type":"Point","properties":{"label_placement":true,"alt_name:en":"Glorieuses;Glorieuses Archipelago","name:ar":"\u062c\u0632\u0631 \u0643\u0644\u0648\u0631\u064a\u0648\u0633\u0648","min_zoom":7.0,"int_name":"Glorieuses","old_name":"Baixo da Judia","name:ru":"\u041e\u0441\u0442\u0440\u043e\u0432\u0430 \u0413\u043b\u043e\u0440\u044c\u0451\u0437","alt_name:fr":"Glorieuses;Archipel des Glorieuses","id":-6080163,"osm_relation":true,"alt_name:ru":"\u0413\u043b\u043e\u0440\u044c\u0451\u0437;\u0410\u0440\u0445\u0438\u043f\u0435\u043b\u0430\u0433 \u0413\u043b\u043e\u0440\u044c\u0451\u0437","kind":"island","name:en":"Glorioso Islands","name":"\u00celes Glorieuses","area":2298619904,"source":"openstreetmap.org"},"coordinates":[3398,3545]}]},"landuse":{"type":"GeometryCollection","geometries":[{"type":"Polygon","properties":{"kind":"protected_area","protect_class":"5","area":82742671102,"sort_rank":17,"source":"openstreetmap.org","min_zoom":4.0,"tier":2,"osm_relation":true},"arcs":[[10],[11],[12],[13],[14],[15],[16],[17],[18]]}]}},"type":"Topology","transform":{"translate":[45.0,-13.9234038977],"scale":[0.0006866455,0.0006701665]},"arcs":[[[0,0],[0,4096],[4096,0],[0,-4096],[-4096,0]],[[192,1394],[18,5],[13,9],[10,2],[9,-16],[10,6],[7,6],[6,8],[6,10],[-26,37],[10,30],[24,29],[13,31],[6,8],[9,20],[3,20],[-26,17],[-9,17],[-1,18],[13,8],[34,51],[7,27],[-1,20],[-10,18],[-25,16],[-24,8],[-46,-1],[-20,5],[-14,11],[-27,33],[-19,17],[-4,3],[-2,5],[-4,3],[-10,-1],[9,6],[4,2],[7,2],[-2,6],[-2,5],[-6,9],[-70,-76],[1,-23],[3,-17],[6,-14],[11,-13],[15,-10],[16,-5],[13,-10],[5,-21],[5,-43],[7,-22],[8,-12],[0,-11],[-9,-1],[-21,-8],[43,-36],[15,-18],[12,-18],[7,-25],[-4,-19],[-13,-7],[-25,15],[-26,30],[-9,6],[-16,-2],[-11,-7],[-4,-8],[27,-14],[13,-24],[-2,-24],[-27,-13],[0,-9],[22,2],[14,-7],[5,-14],[-1,-22],[13,7],[10,-5],[11,-8],[16,-4]],[[382,1731],[20,-62],[10,0],[8,25],[4,21],[-3,21],[-9,25],[-8,-6],[-22,-24]],[[3359,3512],[-10,29],[-17,-23],[27,-6]],[[382,1731],[20,-62],[10,0],[8,25],[4,21],[-3,21],[-9,25],[-8,-6],[-22,-24]],[[292,1791],[-24,8],[-46,-1],[-20,5],[-14,11],[-27,33],[-19,17],[-4,3],[-2,5],[-4,3],[-10,-1],[9,6],[4,2],[7,2],[-2,6],[-2,5],[-6,9],[-70,-76],[1,-23],[3,-17],[6,-14],[11,-13],[15,-10],[16,-5],[13,-10],[5,-21],[5,-43],[7,-22],[8,-12],[0,-11],[-9,-1],[-21,-8],[43,-36],[15,-18],[12,-18],[7,-25],[-4,-19],[-13,-7],[-25,15],[-26,30],[-9,6],[-16,-2],[-11,-7],[-4,-8],[27,-14],[13,-24],[-2,-24],[-27,-13],[0,-9],[22,2],[14,-7],[5,-14],[-1,-22],[13,7],[10,-5],[11,-8],[16,-4],[18,5],[13,9],[10,2],[9,-16],[10,6],[7,6],[6,8],[6,10],[-26,37],[10,30],[24,29],[13,31],[6,8],[9,20],[3,20],[-26,17],[-9,17],[-1,18],[13,8],[34,51],[7,27],[-1,20],[-10,18],[-25,16]],[[3332,3518],[17,23],[10,-29],[-27,6]],[[3349,3541],[10,-29],[-27,6],[17,23]],[[131,1880],[-9,-6],[10,1],[4,-3],[2,-5],[4,-3],[19,-17],[27,-33],[14,-11],[20,-5],[46,1],[24,-8],[25,-16],[10,-18],[1,-20],[-7,-27],[-34,-51],[-13,-8],[1,-18],[9,-17],[26,-17],[-3,-20],[-9,-20],[-6,-8],[-13,-31],[-24,-29],[-10,-30],[26,-37],[-6,-10],[-6,-8],[-7,-6],[-10,-6],[-9,16],[-10,-2],[-13,-9],[-18,-5],[-16,4],[-11,8],[-10,5],[-13,-7],[1,22],[-5,14],[-14,7],[-22,-2],[0,9],[27,13],[2,24],[-13,24],[-27,14],[4,8],[11,7],[16,2],[9,-6],[26,-30],[25,-15],[13,7],[4,19],[-7,25],[-12,18],[-15,18],[-43,36],[21,8],[9,1],[0,11],[-8,12],[-7,22],[-5,43],[-5,21],[-13,10],[-16,5],[-15,10],[-11,13],[-6,14],[-3,17],[-1,23],[70,76],[6,-9],[2,-5],[2,-6],[-7,-2],[-4,-2]],[[412,1669],[-10,0],[-20,62],[22,24],[8,6],[9,-25],[3,-21],[-4,-21],[-8,-25]],[[0,2733],[1072,1363],[72,0],[2952,0],[0,-1562],[-164,-298],[-667,-363],[-831,-200],[-412,-1401],[-198,-272],[-1824,0],[0,2733]],[[58,1792],[26,-7],[-22,-25],[13,-18],[74,-16],[-12,-27],[5,-12],[17,3],[6,-10],[-19,-1],[1,-53],[30,-9],[-42,-19],[91,-104],[-26,-24],[-46,22],[-10,37],[-40,-1],[48,-50],[-37,-44],[43,8],[-4,-45],[5,-10],[23,21],[2,-24],[33,-6],[16,41],[23,-34],[27,11],[15,20],[-40,13],[-11,34],[25,39],[7,0],[13,-5],[7,0],[-19,21],[43,51],[-62,48],[27,13],[2,37],[56,32],[-17,16],[16,31],[-103,53],[-16,-28],[-43,14],[7,40],[-61,44],[25,13],[-5,4],[7,10],[-3,3],[-95,-107]],[[370,1702],[25,-16],[24,-35],[18,49],[-20,36],[-19,-39],[-28,5]],[[334,1528],[4,-4],[3,8],[-4,2],[-3,-6]],[[336,1656],[13,-1],[-6,14],[-6,-3],[-1,-10]],[[27,1909],[19,-18],[15,12],[-22,17],[-12,-11]],[[202,1495],[5,-2],[1,7],[-2,1],[-4,-6]],[[3327,3500],[21,-19],[17,17],[-20,16],[-18,-14]],[[3456,3591],[6,-3],[4,6],[-5,0],[-5,-3]]]}