{"objects":{"water":{"type":"GeometryCollection","geometries":[{"type":"MultiPolygon","properties":{"source":"naturalearthdata.com","kind":"ocean","area":1576712559132672,"sort_rank":200,"min_zoom":0.0,"id":1},"arcs":[[[7]],[[8]]]},{"type":"MultiLineString","properties":{"source":"naturalearthdata.com","kind":"ocean","sort_rank":205,"boundary":true,"min_zoom":0.0,"id":47},"arcs":[[9],[10],[11],[12],[13]]}]},"buildings":{"type":"GeometryCollection","geometries":[]},"places":{"type":"GeometryCollection","geometries":[]},"transit":{"type":"GeometryCollection","geometries":[]},"pois":{"type":"GeometryCollection","geometries":[]},"boundaries":{"type":"GeometryCollection","geometries":[{"type":"LineString","properties":{"name:kg":"Nizeria","name:wa":"Nidjeria","name:pt":"Nig\u00e9ria","name:ps":"\u0646\u0627\u064a\u062c\u06d0\u0631\u064a\u0627","name:ka":"\u10dc\u10d8\u10d2\u10d4\u10e0\u10d8\u10d0","name:ko":"\ub098\uc774\uc9c0\ub9ac\uc544","name:cv":"\u041d\u0438\u0433\u0435\u0440\u0438","name:tr":"Nijerya","name:cs":"Nig\u00e9rie","name:tt":"\u041d\u0438\u0433\u0435\u0440\u0438\u044f","name:kw":"Nijeri","name:tk":"Nigeri\u00fda","name:ku":"N\u00eejerya","name:ti":"\u1293\u12ed\u1302\u122a\u12eb","name:tl":"Nigerya","name:pa":"\u0a28\u0a3e\u0a08\u0a1c\u0a40\u0a30\u0a40\u0a06","name:os":"\u041d\u0438\u0433\u0435\u0440\u0438","name:or":"\u0b28\u0b3e\u0b07\u0b1c\u0b47\u0b30\u0b3f\u0b06","name:ce":"\u041d\u0438\u0433\u0435\u0440\u0438","name:ta":"\u0ba8\u0bc8\u0b9c\u0bc0\u0bb0\u0bbf\u0baf\u0bbe","name:tg":"\u041d\u0438\u04b7\u0435\u0440\u0438\u044f","name:ca":"Nig\u00e8ria","name:te":"\u0c28\u0c48\u0c1c\u0c40\u0c30\u0c3f\u0c2f\u0c3e","name:bg":"\u041d\u0438\u0433\u0435\u0440\u0438\u044f","sort_rank":262,"name:qu":"Niqirya","name:ba":"\u041d\u0438\u0433\u0435\u0440\u0438\u044f","source":"openstreetmap.org","name:xh":"INigeria","name:kn":"\u0ca8\u0cc8\u0c9c\u0cc0\u0cb0\u0cbf\u0caf","name:dv":"\u0782\u07a6\u0787\u07a8\u0796\u07a9\u0783\u07a8\u0787\u07a7","name:lv":"Nig\u0113rija","name:lt":"Nigerija","name:uz":"Nigeriya","name:kk":"\u041d\u0438\u0433\u0435\u0440\u0438\u044f","name:he":"\u05e0\u05d9\u05d2\u05e8\u05d9\u05d4","name:eo":"Ni\u011derio","name:ur":"\u0646\u0627\u0626\u062c\u06cc\u0631\u06cc\u0627","name:uk":"\u041d\u0456\u0433\u0435\u0440\u0456\u044f","name:hy":"\u0546\u056b\u0563\u0565\u0580\u056b\u0561","name:ug":"\u0646\u0649\u06af\u06d0\u0631\u0649\u064a\u06d5","name:hu":"Nig\u00e9ria","name:ln":"Nizeria","name:oc":"Nig\u00e8ria","name:el":"\u039d\u03b9\u03b3\u03b7\u03c1\u03af\u03b1","kind":"country","name":"Nigeria","min_zoom":8.0,"name:th":"\u0e1b\u0e23\u0e30\u0e40\u0e17\u0e28\u0e44\u0e19\u0e08\u0e35\u0e40\u0e23\u0e35\u0e22","name:yi":"\u05e0\u05d9\u05d2\u05e2\u05e8\u05d9\u05e2","name:et":"Nigeeria","name:yo":"N\u00e0\u00ecj\u00edr\u00ed\u00e0","name:mt":"Ni\u0121erja","name:az":"Nigeriya","name:ig":"Naigeria","name:mr":"\u0928\u093e\u092f\u091c\u0947\u0930\u093f\u092f\u093e","name:ar":"\u0646\u064a\u062c\u064a\u0631\u064a\u0627","name:my":"\u1014\u102d\u102f\u1004\u103a\u1002\u103b\u102e\u1038\u101b\u102e\u1038\u101a\u102c\u1038\u1014\u102d\u102f\u1004\u103a\u1004\u1036","name:is":"N\u00edger\u00eda","name:am":"\u1293\u12ed\u1304\u122a\u12eb","name:an":"Nicheria","name:ml":"\u0d28\u0d48\u0d1c\u0d40\u0d30\u0d3f\u0d2f","name:rw":"Nijeriya","id":-192787,"name:mk":"\u041d\u0438\u0433\u0435\u0440\u0438\u0458\u0430","name:af":"Nigeri\u00eb","name:zu":"INigeria","name:mn":"\u041d\u0438\u0433\u0435\u0440\u0438","name:ff":"Niiseriya","kind_detail":"2","name:hi":"\u0928\u093e\u0908\u091c\u0940\u0930\u093f\u092f\u093e","name:mg":"Nizeria","name:fr":"Nig\u00e9ria","name:za":"Nizywlihya","name:zh-yue":"\u5c3c\u65e5\u5229\u4e9e","name:fy":"Nigearia","name:vo":"Nigeriy\u00e4n","name:zh":"\u5948\u53ca\u5229\u4e9e","name:hr":"Nigerija","name:so":"Nayjeeriya","name:sl":"Nigerija","name:sk":"Nig\u00e9ria","name:ja":"\u30ca\u30a4\u30b8\u30a7\u30ea\u30a2","name:sh":"Nigerija","name:sg":"Nizer\u00efa","name:sc":"Nig\u00e9ria","name:ne":"\u0928\u093e\u0907\u091c\u0947\u0930\u093f\u092f\u093e","name:sa":"\u0928\u0948\u091c\u0940\u0930\u093f\u092f\u093e","name:bs":"Nigerija","name:bm":"Nijeria","name:bn":"\u09a8\u09be\u0987\u099c\u09c7\u09b0\u09bf\u09af\u09bc\u09be","name:bo":"\u0f53\u0f72\u0f0b\u0f47\u0f72\u0f0b\u0f62\u0f72\u0f0b\u0f61\u0f0d","name:ru":"\u041d\u0438\u0433\u0435\u0440\u0438\u044f","name:be":"\u041d\u0456\u0433\u0435\u0440\u044b\u044f","name:ha":"Nijeriya","name:ss":"INayijeriya","name:sr":"\u041d\u0438\u0433\u0435\u0440\u0438\u0458\u0430","osm_relation":true,"name:ga":"An Nig\u00e9ir","name:gd":"N\u00ecgeiria","name:ht":"Nijerya","name:gn":"Niheria","name:gl":"Nixeria","name:fa":"\u0646\u06cc\u062c\u0631\u06cc\u0647","maritime_boundary":true,"name:gv":"Yn Naigeer","name:gu":"\u0aa8\u0abe\u0a88\u0a9c\u0ac7\u0ab0\u0abf\u0aaf\u0abe"},"arcs":[0]},{"type":"LineString","properties":{"name:right:uk":"\u0411\u0430\u0454\u043b\u0441\u0430","name:right:ru":"\u0411\u0430\u0439\u0435\u043b\u044c\u0441\u0430","name:left:uk":"\u0414\u0435\u043b\u044c\u0442\u0430","min_zoom":8.0,"name:left:ru":"\u0414\u0435\u043b\u044c\u0442\u0430","id:right":-3715844,"id":-3716950,"osm_relation":true,"name:right":"Bayelsa","kind":"region","name":"Delta - Bayelsa","sort_rank":256,"kind_detail":"4","source":"openstreetmap.org","id:left":-3716950,"name:left":"Delta"},"arcs":[1]},{"type":"MultiLineString","properties":{"kind":"region","name":"Delta","sort_rank":256,"kind_detail":"4","min_zoom":8.0,"source":"openstreetmap.org","maritime_boundary":true,"name:uk":"\u0414\u0435\u043b\u044c\u0442\u0430","name:ru":"\u0414\u0435\u043b\u044c\u0442\u0430","id":-3716950,"osm_relation":true},"arcs":[[2],[3],[4]]},{"type":"LineString","properties":{"kind":"region","name":"Bayelsa","sort_rank":256,"kind_detail":"4","source":"openstreetmap.org","min_zoom":8.0,"name:uk":"\u0411\u0430\u0454\u043b\u0441\u0430","name:ru":"\u0411\u0430\u0439\u0435\u043b\u044c\u0441\u0430","id":-3715844,"osm_relation":true},"arcs":[5]},{"type":"LineString","properties":{"kind":"region","name":"Bayelsa","sort_rank":256,"kind_detail":"4","min_zoom":8.0,"source":"openstreetmap.org","maritime_boundary":true,"name:uk":"\u0411\u0430\u0454\u043b\u0441\u0430","name:ru":"\u0411\u0430\u0439\u0435\u043b\u044c\u0441\u0430","id":-3715844,"osm_relation":true},"arcs":[6]}]},"roads":{"type":"GeometryCollection","geometries":[]},"earth":{"type":"GeometryCollection","geometries":[{"type":"MultiPolygon","properties":{"sort_rank":10,"source":"naturalearthdata.com","kind":"earth","min_zoom":0.0,"id":4695},"arcs":[[[14]],[[15]],[[16]],[[17]]]}]},"landuse":{"type":"GeometryCollection","geometries":[]}},"type":"Topology","transform":{"translate":[4.21875,4.2149431414],"scale":[0.0003433228,0.0003420514]},"arcs":[[[2013,4096],[138,-236],[24,-157],[64,-143],[191,-259],[230,-203],[54,-193],[32,-314],[214,-426],[12,-120],[90,-268],[274,-532],[463,-659],[98,-111],[199,-159]],[[3654,2578],[112,-25],[36,-57],[78,-38],[98,-1],[19,-35],[99,-49]],[[2669,4096],[133,-123],[424,123]],[[4096,3801],[-248,-293],[-254,-151],[-313,-97],[69,-504],[210,1],[39,90],[117,-124],[-62,-145]],[[3743,4096],[20,-95],[-39,-21],[-342,-33],[-239,44],[-251,-8],[-68,-93],[11,-112],[190,-209],[356,-134],[299,38],[69,113],[2,127],[108,69],[237,84]],[[3654,2578],[-6,-11]],[[3648,2567],[-111,121],[-110,8],[-29,-31],[-4,-50],[331,-888],[199,-367],[172,-213]],[[4096,1150],[0,-1150],[-4096,0],[0,4096],[2680,0],[18,-22],[44,-40],[39,-27],[18,-9],[73,28],[68,40],[32,8],[70,6],[39,16],[126,0],[18,-31],[55,-31],[49,-3],[52,12],[48,24],[31,27],[0,2],[47,0],[-10,-16],[-49,-104],[-28,-42],[-20,0],[-61,34],[-108,18],[-285,12],[-21,-4],[-26,-17],[-47,-52],[-20,-11],[-7,-28],[6,-62],[21,-63],[60,-42],[92,-84],[11,-16],[13,-32],[14,-16],[329,-110],[168,-9],[-18,24],[-19,41],[-8,38],[15,16],[37,-5],[11,-14],[5,-19],[17,-20],[61,-26],[48,11],[38,44],[34,71],[-19,75],[41,65],[69,35],[68,-15],[13,14],[19,13],[8,15],[53,-16],[42,22],[39,34],[3,1],[0,-49],[-32,-36],[-35,-16],[-97,2],[-44,-9],[-39,-25],[-18,-35],[-6,-46],[4,-48],[10,-41],[28,-43],[70,-61],[22,-37],[-19,0],[-30,20],[-44,2],[-48,-9],[-101,-40],[-17,-12],[-16,-19],[-22,-43],[-23,-19],[-25,35],[-8,19],[-7,27],[-56,-16],[-193,-3],[-67,-15],[-17,-38],[61,-263],[13,-135],[-5,-106],[5,-24],[31,-15],[70,12],[38,-17],[43,16],[20,3],[28,1],[10,12],[-2,54],[11,12],[30,-17],[80,-88],[21,-35],[-59,14],[-62,6],[17,-45],[44,-114],[-37,22],[-52,73],[-32,26],[-45,15],[-45,3],[-35,-13],[-14,-36],[10,-46],[20,-30],[20,-22],[10,-22],[6,-49],[16,-45],[37,-76],[16,-45],[26,-137],[81,-226],[93,-105],[25,-69],[-100,59],[32,-36],[73,-126],[15,-47],[33,-57],[127,-78],[0,-55],[-20,12],[-9,4],[-12,4],[28,-124],[81,-114],[88,-82]],[[3740,4096],[20,-42],[0,-32],[-5,-18],[-15,-8],[-30,-2],[-7,14],[-17,65],[-7,21],[-3,2],[64,0]],[[2680,4096],[18,-22],[44,-40],[39,-27],[18,-9],[73,28],[68,40],[32,8],[70,6],[39,16]],[[3207,4096],[18,-31],[55,-31],[49,-3],[52,12],[48,24],[31,27],[0,2]],[[3740,4096],[20,-42],[0,-32],[-5,-18],[-15,-8],[-30,-2],[-7,14],[-17,65],[-7,21],[-3,2]],[[3507,4096],[-10,-16],[-49,-104],[-28,-42],[-20,0],[-61,34],[-108,18],[-285,12],[-21,-4],[-26,-17],[-47,-52],[-20,-11],[-7,-28],[6,-62],[21,-63],[60,-42],[92,-84],[11,-16],[13,-32],[14,-16],[329,-110],[168,-9],[-18,24],[-19,41],[-8,38],[15,16],[37,-5],[11,-14],[5,-19],[17,-20],[61,-26],[48,11],[38,44],[34,71],[-19,75],[41,65],[69,35],[68,-15],[13,14],[19,13],[8,15],[53,-16],[42,22],[39,34],[3,1]],[[4096,3807],[-32,-36],[-35,-16],[-97,2],[-44,-9],[-39,-25],[-18,-35],[-6,-46],[4,-48],[10,-41],[28,-43],[70,-61],[22,-37],[-19,0],[-30,20],[-44,2],[-48,-9],[-101,-40],[-17,-12],[-16,-19],[-22,-43],[-23,-19],[-25,35],[-8,19],[-7,27],[-56,-16],[-193,-3],[-67,-15],[-17,-38],[61,-263],[13,-135],[-5,-106],[5,-24],[31,-15],[70,12],[38,-17],[43,16],[20,3],[28,1],[10,12],[-2,54],[11,12],[30,-17],[80,-88],[21,-35],[-59,14],[-62,6],[17,-45],[44,-114],[-37,22],[-52,73],[-32,26],[-45,15],[-45,3],[-35,-13],[-14,-36],[10,-46],[20,-30],[20,-22],[10,-22],[6,-49],[16,-45],[37,-76],[16,-45],[26,-137],[81,-226],[93,-105],[25,-69],[-100,59],[32,-36],[73,-126],[15,-47],[33,-57],[127,-78],[0,-55],[-20,12],[-9,4],[-12,4],[28,-124],[81,-114],[88,-82]],[[4096,1150],[-88,82],[-81,114],[-28,124],[12,-4],[9,-4],[20,-12],[0,55],[-127,78],[-33,57],[-15,47],[-73,126],[-32,36],[100,-59],[-25,69],[-93,105],[-81,226],[-26,137],[-16,45],[-37,76],[-16,45],[-6,49],[-10,22],[-20,22],[-20,30],[-10,46],[14,36],[35,13],[45,-3],[45,-15],[32,-26],[52,-73],[37,-22],[-44,114],[-17,45],[62,-6],[59,-14],[-21,35],[-80,88],[-30,17],[-11,-12],[2,-54],[-10,-12],[-28,-1],[-20,-3],[-43,-16],[-38,17],[-70,-12],[-31,15],[-5,24],[5,106],[-13,135],[-61,263],[17,38],[67,15],[193,3],[56,16],[7,-27],[8,-19],[25,-35],[23,19],[22,43],[16,19],[17,12],[101,40],[48,9],[44,-2],[30,-20],[19,0],[-22,37],[-70,61],[-28,43],[-10,41],[-4,48],[6,46],[18,35],[39,25],[44,9],[97,-2],[35,16],[32,36],[0,-2657]],[[4096,3856],[-3,-1],[-39,-34],[-42,-22],[-53,16],[-8,-15],[-19,-13],[-13,-14],[-68,15],[-69,-35],[-41,-65],[19,-75],[-34,-71],[-38,-44],[-48,-11],[-61,26],[-17,20],[-5,19],[-11,14],[-37,5],[-15,-16],[8,-38],[19,-41],[18,-24],[-168,9],[-329,110],[-14,16],[-13,32],[-11,16],[-92,84],[-60,42],[-21,63],[-6,62],[7,28],[20,11],[47,52],[26,17],[21,4],[285,-12],[108,-18],[61,-34],[20,0],[28,42],[49,104],[10,16],[169,0],[3,-2],[7,-21],[17,-65],[7,-14],[30,2],[15,8],[5,18],[0,32],[-20,42],[356,0],[0,-240]],[[3460,4096],[0,-2],[-31,-27],[-48,-24],[-52,-12],[-49,3],[-55,31],[-18,31],[253,0]],[[3081,4096],[-39,-16],[-70,-6],[-32,-8],[-68,-40],[-73,-28],[-18,9],[-39,27],[-44,40],[-18,22],[401,0]]]}