{"objects":{"water":{"type":"GeometryCollection","geometries":[{"type":"Polygon","properties":{"kind":"lake","name":"IJsselmeer","area":5348297728,"sort_rank":200,"alkaline":true,"source":"naturalearthdata.com","min_zoom":0.0,"id":1298},"arcs":[[92]]},{"type":"Polygon","properties":{"source":"naturalearthdata.com","kind":"ocean","area":1576712559132672,"sort_rank":200,"min_zoom":0.0,"id":1},"arcs":[[93],[94],[95]]},{"type":"Point","properties":{"label_placement":true,"kind":"lake","name":"IJsselmeer","area":5348297728,"sort_rank":200,"alkaline":true,"source":"naturalearthdata.com","min_zoom":0.0,"id":1298},"coordinates":[3506,890]},{"type":"LineString","properties":{"source":"naturalearthdata.com","kind":"ocean","sort_rank":205,"boundary":true,"min_zoom":0.0,"id":19},"arcs":[96]},{"type":"LineString","properties":{"source":"naturalearthdata.com","kind":"ocean","sort_rank":205,"boundary":true,"min_zoom":0.0,"id":1151},"arcs":[97]},{"type":"LineString","properties":{"source":"naturalearthdata.com","kind":"ocean","sort_rank":205,"boundary":true,"min_zoom":0.0,"id":1152},"arcs":[98]},{"type":"MultiLineString","properties":{"source":"naturalearthdata.com","kind":"lake","sort_rank":367,"alkaline":true,"boundary":true,"min_zoom":0.0,"id":1298},"arcs":[[99],[100],[101]]}]},"buildings":{"type":"GeometryCollection","geometries":[]},"places":{"type":"GeometryCollection","geometries":[{"type":"Point","properties":{"kind":"region","name:en":"North Holland","name":"Noord-Holland","kind_detail":"state","name:eo":"Norda Holando","name:de":"Nordholland","source":"openstreetmap.org","min_zoom":4.0,"name:ca":"Holanda Septentrional","name:ru":"\u0421\u0435\u0432\u0435\u0440\u043d\u0430\u044f \u0413\u043e\u043b\u043b\u0430\u043d\u0434\u0438\u044f","name:fy":"Noard-Holl\u00e2n","id":4289948988,"name:es":"Holanda Septentrional"},"coordinates":[1753,1152]},{"type":"Point","properties":{"kind":"locality","name":"Alkmaar","name:lt":"Alkmaras","kind_detail":"city","source":"openstreetmap.org","min_zoom":8.0,"name:uk":"\u0410\u043b\u043a\u043c\u0430\u0440","name:ru":"\u0410\u043b\u043a\u043c\u0430\u0440","name:fy":"Alkmar","id":3474142743,"population":107176},"coordinates":[1548,717]},{"type":"Point","properties":{"kind":"locality","name":"Purmerend","kind_detail":"town","source":"openstreetmap.org","min_zoom":8.0,"name:fy":"Purmerein","name:ru":"\u041f\u0443\u0440\u043c\u0435\u0440\u0435\u043d\u0434","id":296050393,"population":78751},"coordinates":[2163,95]},{"type":"Point","properties":{"name:fa":"\u0644\u06cc\u0644\u06cc\u200c\u0627\u0633\u062a\u0627\u062f","kind":"locality","name":"Lelystad","name:lt":"Lelistadas","kind_detail":"city","source":"openstreetmap.org","min_zoom":8.0,"name:fy":"Lelyst\u00ead","name:ru":"\u041b\u0435\u043b\u0438\u0441\u0442\u0430\u0434","name:zh":"\u83b1\u5229\u65af\u5854\u5fb7","id":243670659,"population":73341},"coordinates":[3665,156]},{"type":"Point","properties":{"kind":"locality","name":"Hoorn","kind_detail":"town","source":"openstreetmap.org","min_zoom":8.0,"name:fy":"Hoarn","name:ru":"\u0425\u043e\u0440\u043d","id":240767902,"population":70000},"coordinates":[2490,823]},{"type":"Point","properties":{"kind":"locality","name":"Den Helder","kind_detail":"town","source":"openstreetmap.org","min_zoom":8.0,"name:fy":"De Helder","name:ru":"\u0414\u0435\u043d-\u0425\u0435\u043b\u0434\u0435\u0440","id":296048509,"population":56528},"coordinates":[1577,2295]},{"type":"Point","properties":{"kind":"locality","name":"Heerhugowaard","kind_detail":"town","source":"openstreetmap.org","min_zoom":8.0,"name:fy":"Heregeweard","name:ru":"\u0425\u0435\u0440\u0445\u044e\u0433\u043e\u0432\u0430\u0440\u0434","id":296046309,"population":50896},"coordinates":[1788,871]},{"type":"Point","properties":{"kind":"locality","name":"Beverwijk","kind_detail":"town","source":"openstreetmap.org","min_zoom":8.0,"name:fy":"Beverwyk","name:ru":"\u0411\u0435\u0432\u0435\u0440\u0432\u0435\u0439\u043a","id":46734018,"population":40095},"coordinates":[1287,23]},{"type":"Point","properties":{"kind":"locality","name":"Volendam","kind_detail":"town","source":"openstreetmap.org","min_zoom":8.0,"name:fy":"Foalendam","name:ru":"\u0412\u043e\u043b\u0435\u043d\u0434\u0430\u043c","id":46757348,"population":22000},"coordinates":[2475,66]},{"type":"Point","properties":{"kind":"locality","name":"Schagen","kind_detail":"town","source":"openstreetmap.org","min_zoom":8.0,"name:fy":"Skagen","name:ru":"\u0421\u0445\u0430\u0433\u0435\u043d","id":47423767,"population":19000},"coordinates":[1706,1475]},{"type":"Point","properties":{"kind":"locality","name":"Urk","kind_detail":"town","source":"openstreetmap.org","min_zoom":8.0,"name:ru":"\u0423\u0440\u043a","id":47137733,"population":18000},"coordinates":[4020,882]},{"type":"Point","properties":{"kind":"locality","name":"Enkhuizen","kind_detail":"town","source":"openstreetmap.org","min_zoom":8.0,"name:ru":"\u042d\u043d\u043a\u0445\u0451\u0439\u0437\u0435\u043d","name:fy":"Inkhuzen","id":240765974,"population":16000},"coordinates":[3121,1067]},{"type":"Point","properties":{"kind":"locality","name":"Harlingen","kind_detail":"town","source":"openstreetmap.org","min_zoom":8.0,"name:fy":"Harns","name:ru":"\u0425\u0430\u0440\u043b\u0438\u043d\u0433\u0435\u043d","id":235273940,"population":15000},"coordinates":[3482,3344]},{"type":"Point","properties":{"kind":"locality","name":"Anna Paulowna","kind_detail":"town","source":"openstreetmap.org","min_zoom":8.0,"name:ru":"\u0410\u043d\u043d\u0430-\u041f\u043e\u043b\u043e\u043d\u0430","id":47539043,"population":14000},"coordinates":[1792,1831]},{"type":"Point","properties":{"kind":"locality","name":"Julianadorp","kind_detail":"town","source":"openstreetmap.org","min_zoom":8.0,"name:ru":"\u042e\u043b\u0438\u0430\u043d\u0430\u0434\u043e\u0440\u043f","id":47584725,"population":14000},"coordinates":[1520,1980]},{"type":"Point","properties":{"kind":"locality","name":"Franeker","kind_detail":"town","source":"openstreetmap.org","min_zoom":8.0,"name:ru":"\u0424\u0440\u0430\u043d\u0435\u043a\u0435\u0440","name:fy":"Frjentsjer","id":235270746,"population":12900},"coordinates":[3853,3418]},{"type":"Point","properties":{"kind":"locality","name":"Wormerveer","kind_detail":"town","source":"openstreetmap.org","min_zoom":8.0,"name:fy":"Woarmerfear","name:ru":"\u0412\u043e\u0440\u043c\u0435\u0440\u0432\u0435\u0440","id":46754242,"population":11225},"coordinates":[1657,60]},{"type":"Point","properties":{"kind":"locality","name":"Bolsward","kind_detail":"town","source":"openstreetmap.org","min_zoom":8.0,"name:fy":"Boalsert","name:ru":"\u0411\u043e\u043b\u0441\u0432\u0430\u0440\u0434","id":235883025,"population":10140},"coordinates":[3799,2798]},{"type":"Point","properties":{"kind":"locality","name":"Edam","kind_detail":"town","source":"openstreetmap.org","min_zoom":8.0,"name:ru":"\u042d\u0434\u0430\u043c","id":46807422,"population":10000},"coordinates":[2440,141]},{"type":"Point","properties":{"kind":"locality","name":"Bergen","kind_detail":"town","source":"openstreetmap.org","min_zoom":8.0,"name:ru":"\u0411\u0435\u0440\u0433\u0435\u043d","id":47144426,"population":10000},"coordinates":[1425,893]},{"type":"Point","properties":{"kind":"locality","name":"Castricum","kind_detail":"town","source":"openstreetmap.org","min_zoom":8.0,"name:ru":"\u041a\u0430\u0441\u0442\u0440\u0438\u043a\u044e\u043c","name:fy":"Kastrikum","id":706791176,"population":10000},"coordinates":[1313,323]},{"type":"Point","properties":{"kind":"locality","name":"Heiloo","kind_detail":"town","source":"openstreetmap.org","min_zoom":8.0,"name:ru":"\u0425\u0435\u0439\u043b\u043e","id":46995395,"population":10000},"coordinates":[1436,574]},{"type":"Point","properties":{"kind":"locality","name":"Medemblik","kind_detail":"town","source":"openstreetmap.org","min_zoom":8.0,"name:ru":"\u041c\u0435\u0434\u0435\u043c\u0431\u043b\u0438\u043a","id":393766958,"population":9000},"coordinates":[2585,1381]}]},"transit":{"type":"GeometryCollection","geometries":[{"type":"LineString","properties":{"kind":"train","network":"Hoofdrailnet Nederland","service":"long_distance","sort_rank":275,"source":"openstreetmap.org","min_zoom":5.0,"operator":"Nederlandse Spoorwegen","ref":"1800","id":-1323503,"osm_relation":true,"name":"1800: Den Haag Centraal - Leeuwarden"},"arcs":[8]},{"type":"MultiLineString","properties":{"kind":"train","name":"4800: Hoorn - Amsterdam Centraal","service":"regional","sort_rank":275,"source":"openstreetmap.org","min_zoom":6.0,"operator":"Nederlandse Spoorwegen","ref":"4800","osm_relation":true},"arcs":[[9],[10],[11],[12],[13],[14],[15],[16]]},{"type":"LineString","properties":{"kind":"train","name":"14600: Amsterdam Centraal - Lelystad Centrum","service":"regional","sort_rank":275,"source":"openstreetmap.org","min_zoom":6.0,"operator":"Nederlandse Spoorwegen","ref":"14600","id":-6797773,"osm_relation":true},"arcs":[17]},{"type":"LineString","properties":{"kind":"train","network":"Noordelijke Nevenlijnen","service":"regional","sort_rank":275,"source":"openstreetmap.org","min_zoom":6.0,"operator":"Arriva","ref":"37100","id":-5301551,"osm_relation":true,"name":"37100: Leeuwarden - Stavoren"},"arcs":[18]},{"type":"MultiLineString","properties":{"kind":"train","name":"14500: Enkhuizen - Amsterdam Centraal","service":"long_distance","sort_rank":275,"source":"openstreetmap.org","min_zoom":5.0,"operator":"Nederlandse Spoorwegen","ref":"14500","osm_relation":true},"arcs":[[19],[20],[21]]},{"type":"LineString","properties":{"kind":"train","name":"4600: Zwolle - Den Haag Centraal","service":"regional","sort_rank":275,"source":"openstreetmap.org","min_zoom":6.0,"operator":"Nederlandse Spoorwegen","ref":"4600","id":-5262029,"osm_relation":true},"arcs":[22]},{"type":"LineString","properties":{"kind":"train","name":"800 Maastricht - Schagen","service":"long_distance","sort_rank":275,"source":"openstreetmap.org","min_zoom":5.0,"operator":"Nederlandse Spoorwegen","ref":"800","osm_relation":true,"network":"Hoofdrailnet Nederland"},"arcs":[23]},{"type":"LineString","properties":{"kind":"train","network":"Hoofdrailnet Nederland","service":"long_distance","sort_rank":275,"source":"openstreetmap.org","min_zoom":5.0,"operator":"Nederlandse Spoorwegen","ref":"2400","id":-4665448,"osm_relation":true,"name":"2400: Lelystad Centrum - Dordrecht"},"arcs":[24]},{"type":"LineString","properties":{"kind":"train","name":"4600: Den Haag Centraal - Zwolle","service":"regional","sort_rank":275,"source":"openstreetmap.org","min_zoom":6.0,"operator":"Nederlandse Spoorwegen","ref":"4600","id":-1323506,"osm_relation":true},"arcs":[25]},{"type":"LineString","properties":{"kind":"train","network":"Noordelijke Nevenlijnen","service":"regional","sort_rank":275,"source":"openstreetmap.org","min_zoom":6.0,"operator":"Arriva","ref":"37200","id":-324930,"osm_relation":true,"name":"37200: Leeuwarden - Harlingen Haven"},"arcs":[26]},{"type":"LineString","properties":{"kind":"train","network":"Hoofdrailnet Nederland","service":"long_distance","sort_rank":275,"source":"openstreetmap.org","min_zoom":5.0,"operator":"Nederlandse Spoorwegen","ref":"700","id":-5161578,"osm_relation":true,"name":"700: Groningen - Den Haag Centraal"},"arcs":[27]},{"type":"LineString","properties":{"kind":"train","network":"Noordelijke Nevenlijnen","service":"regional","sort_rank":275,"source":"openstreetmap.org","min_zoom":6.0,"operator":"Arriva","ref":"37200","id":-5301556,"osm_relation":true,"name":"37200: Harlingen Haven - Leeuwarden"},"arcs":[28]},{"type":"MultiLineString","properties":{"kind":"train","name":"4800: Amsterdam Centraal - Hoorn","service":"regional","sort_rank":275,"source":"openstreetmap.org","min_zoom":6.0,"operator":"Nederlandse Spoorwegen","ref":"4800","osm_relation":true},"arcs":[[29],[30],[31],[32],[33],[34],[35],[36]]},{"type":"MultiLineString","properties":{"kind":"train","name":"7400: Rhenen - Uitgeest","service":"regional","sort_rank":275,"source":"openstreetmap.org","min_zoom":6.0,"operator":"Nederlandse Spoorwegen","ref":"7400","osm_relation":true},"arcs":[[37],[38]]},{"type":"MultiLineString","properties":{"kind":"train","name":"4700: Uitgeest - Amsterdam Centraal","service":"regional","sort_rank":275,"source":"openstreetmap.org","min_zoom":6.0,"operator":"Nederlandse Spoorwegen","ref":"4700","osm_relation":true},"arcs":[[39],[40]]},{"type":"MultiLineString","properties":{"kind":"train","name":"4000: Uitgeest - Rotterdam Centraal","service":"regional","sort_rank":275,"source":"openstreetmap.org","min_zoom":6.0,"operator":"Nederlandse Spoorwegen","ref":"4000","osm_relation":true,"network":"Hoofdrailnet Nederland"},"arcs":[[41],[42]]},{"type":"MultiLineString","properties":{"kind":"train","name":"3000: Nijmegen - Den Helder","service":"long_distance","sort_rank":275,"source":"openstreetmap.org","min_zoom":5.0,"operator":"Nederlandse Spoorwegen","ref":"3000","osm_relation":true,"network":"Hoofdrailnet Nederland"},"arcs":[[43],[44],[45],[46],[47],[48],[49]]},{"type":"LineString","properties":{"kind":"train","network":"Noordelijke Nevenlijnen","service":"regional","sort_rank":275,"source":"openstreetmap.org","min_zoom":6.0,"operator":"Arriva","ref":"37100","id":-324940,"osm_relation":true,"name":"37100: Stavoren - Leeuwarden"},"arcs":[50]},{"type":"LineString","properties":{"kind":"train","network":"Hoofdrailnet Nederland","service":"long_distance","sort_rank":275,"source":"openstreetmap.org","min_zoom":5.0,"operator":"Nederlandse Spoorwegen","ref":"800","id":-5177901,"osm_relation":true,"name":"800 Schagen - Maastricht"},"arcs":[51]},{"type":"MultiLineString","properties":{"kind":"train","name":"3400: Haarlem - Alkmaar","service":"regional","sort_rank":275,"source":"openstreetmap.org","min_zoom":6.0,"operator":"Nederlandse Spoorwegen","ref":"3400","osm_relation":true,"network":"Hoofdrailnet Nederland"},"arcs":[[52],[53],[54],[55]]},{"type":"MultiLineString","properties":{"kind":"train","name":"7400: Uitgeest - Rhenen","service":"regional","sort_rank":275,"source":"openstreetmap.org","min_zoom":6.0,"operator":"Nederlandse Spoorwegen","ref":"7400","osm_relation":true},"arcs":[[56],[57]]},{"type":"MultiLineString","properties":{"kind":"train","name":"3400: Alkmaar - Haarlem","service":"regional","sort_rank":275,"source":"openstreetmap.org","min_zoom":6.0,"operator":"Nederlandse Spoorwegen","ref":"3400","osm_relation":true},"arcs":[[58],[59],[60],[61]]},{"type":"LineString","properties":{"kind":"train","network":"Hoofdrailnet Nederland","service":"long_distance","sort_rank":275,"source":"openstreetmap.org","min_zoom":5.0,"operator":"Nederlandse Spoorwegen","ref":"700","id":-325908,"osm_relation":true,"name":"700: Den Haag Centraal - Groningen"},"arcs":[62]},{"type":"MultiLineString","properties":{"kind":"train","name":"3300: Leiden Centraal - Hoorn Kersenboogerd","service":"regional","sort_rank":275,"source":"openstreetmap.org","min_zoom":6.0,"operator":"Nederlandse Spoorwegen","ref":"3300","osm_relation":true,"network":"Hoofdrailnet Nederland"},"arcs":[[63],[64],[65]]},{"type":"MultiLineString","properties":{"kind":"train","name":"4500: Enkhuizen - Amsterdam Centraal","service":"long_distance","sort_rank":275,"source":"openstreetmap.org","min_zoom":5.0,"operator":"Nederlandse Spoorwegen","ref":"4500","osm_relation":true},"arcs":[[66],[67],[68]]},{"type":"MultiLineString","properties":{"kind":"train","name":"4500: Amsterdam Centraal - Enkhuizen","service":"long_distance","sort_rank":275,"source":"openstreetmap.org","min_zoom":5.0,"operator":"Nederlandse Spoorwegen","ref":"4500","osm_relation":true},"arcs":[[69],[70],[71]]},{"type":"MultiLineString","properties":{"kind":"train","name":"3000: Den Helder - Nijmegen","service":"long_distance","sort_rank":275,"source":"openstreetmap.org","min_zoom":5.0,"operator":"Nederlandse Spoorwegen","ref":"3000","osm_relation":true,"network":"Hoofdrailnet Nederland"},"arcs":[[72],[73],[74],[75],[76],[77],[78]]},{"type":"MultiLineString","properties":{"kind":"train","name":"14500: Amsterdam Centraal - Enkhuizen","service":"long_distance","sort_rank":275,"source":"openstreetmap.org","min_zoom":5.0,"operator":"Nederlandse Spoorwegen","ref":"14500","osm_relation":true},"arcs":[[79],[80],[81]]},{"type":"LineString","properties":{"kind":"train","network":"Hoofdrailnet Nederland","service":"long_distance","sort_rank":275,"source":"openstreetmap.org","min_zoom":5.0,"operator":"Nederlandse Spoorwegen","ref":"1800","id":-5286432,"osm_relation":true,"name":"1800: Leeuwarden - Den Haag Centraal"},"arcs":[82]},{"type":"MultiLineString","properties":{"kind":"train","name":"4000: Rotterdam Centraal - Uitgeest","service":"regional","sort_rank":275,"source":"openstreetmap.org","min_zoom":6.0,"operator":"Nederlandse Spoorwegen","ref":"4000","osm_relation":true,"network":"Hoofdrailnet Nederland"},"arcs":[[83],[84]]},{"type":"LineString","properties":{"kind":"train","network":"Hoofdrailnet Nederland","service":"long_distance","sort_rank":275,"source":"openstreetmap.org","min_zoom":5.0,"operator":"Nederlandse Spoorwegen","ref":"2400","id":-363497,"osm_relation":true,"name":"2400: Dordrecht - Lelystad Centrum"},"arcs":[85]},{"type":"LineString","properties":{"kind":"train","name":"12600: Groningen - Amsterdam Centraal","service":"long_distance","sort_rank":275,"source":"openstreetmap.org","min_zoom":5.0,"operator":"Nederlandse Spoorwegen","ref":"12600","id":-4665447,"osm_relation":true},"arcs":[86]},{"type":"MultiLineString","properties":{"kind":"train","name":"4700: Amsterdam Centraal - Uitgeest","service":"regional","sort_rank":275,"source":"openstreetmap.org","min_zoom":6.0,"operator":"Nederlandse Spoorwegen","ref":"4700","osm_relation":true},"arcs":[[87],[88]]},{"type":"MultiLineString","properties":{"kind":"train","name":"3300: Hoorn Kersenboogerd - Leiden Centraal","service":"regional","sort_rank":275,"source":"openstreetmap.org","min_zoom":6.0,"operator":"Nederlandse Spoorwegen","ref":"3300","osm_relation":true,"network":"Hoofdrailnet Nederland"},"arcs":[[89],[90],[91]]}]},"pois":{"type":"GeometryCollection","geometries":[{"type":"Point","properties":{"kind":"protected_area","protect_class":"98","area":8128380000,"source":"openstreetmap.org","min_zoom":7.0,"tier":2,"id":-5909370,"osm_relation":true,"name":"Waddenzee - Nederlands deel"},"coordinates":[2847,3626]},{"type":"Point","properties":{"kind":"military","tier":3,"name":"Vliehors","area":41733200,"source":"openstreetmap.org","min_zoom":8.0,"operator":"Ministerie van Defensie","id":47348228},"coordinates":[1996,3604]}]},"boundaries":{"type":"GeometryCollection","geometries":[{"type":"LineString","properties":{"name:kg":"Pays-Bas","name:ka":"\u10dc\u10d8\u10d3\u10d4\u10e0\u10da\u10d0\u10dc\u10d3\u10d8","name:ko":"\ub124\ub35c\ub780\ub4dc","name:cv":"\u041d\u0438\u0434\u0435\u0440\u043b\u0430\u043d\u0434\u0441\u0435\u043c","name:cu":"\u041d\u0438\u0434\u0454\u0440\u043b\u0430\u043d\u0434\ua651","name:kl":"Hollandi","name:cs":"Nizozemsko","name:tt":"\u041d\u0438\u0434\u0435\u0440\u043b\u0430\u043d\u0434\u043b\u0430\u0440","name:co":"Paesi Bassi","name:kv":"\u041d\u0438\u0434\u0435\u0440\u043b\u0430\u043d\u0434\u044a\u044f\u0441","name:ku":"Holenda","alt_name:cs":"Nizozem\u00ed","name:to":"Holani","name:tl":"Olanda","name:ce":"\u041d\u0438\u0434\u0435\u0440\u043b\u0430\u043d\u0434\u0430\u0448","name:ta":"\u0ba8\u0bc6\u0ba4\u0bb0\u0bcd\u0bb2\u0bbe\u0ba8\u0bcd\u0ba4\u0bc1","name:tg":"\u041d\u0438\u0434\u0435\u0440\u043b\u0430\u043d\u0434","name:ca":"Pa\u00efsos Baixos","name:te":"\u0c28\u0c46\u0c26\u0c30\u0c4d\u0c32\u0c3e\u0c02\u0c21\u0c4d","name:cy":"Yr Iseldiroedd","name:qu":"Urasuyu","name:da":"Holland","name:de":"Niederlande","name:dz":"\u0f53\u0f7a\u0f0b\u0f51\u0f62\u0f0b\u0f63\u0f7a\u0f53\u0f4c\u0f66\u0f72\u0f0b","source":"openstreetmap.org","name:kn":"\u0ca8\u0cc6\u0ca6\u0cb0\u0ccd\u200d\u0cb2\u0ccd\u0caf\u0cbe\u0c82\u0ca1\u0ccd\u0cb8\u0ccd","name:dv":"\u0782\u07ac\u078b\u07a6\u078d\u07ad\u0782\u07b0\u0791\u07aa","name:lv":"N\u012bderlande","name:lt":"Nyderlandai","name:uz":"Niderlandlar","name:kk":"\u041d\u0438\u0434\u0435\u0440\u043b\u0430\u043d\u0434","name:ur":"\u06c1\u0627\u0644\u06cc\u0646\u0688","name:lb":"Holland","name:la":"Nederlandia","name:uk":"\u041d\u0456\u0434\u0435\u0440\u043b\u0430\u043d\u0434\u0438","name:ug":"\u06af\u0648\u0644\u0644\u0627\u0646\u062f\u0649\u064a\u06d5","name:ln":"Holanda","name:el":"\u039a\u03ac\u03c4\u03c9 \u03a7\u03ce\u03c1\u03b5\u03c2","name:eo":"Nederlando","name:en":"The Netherlands","name":"Nederland","name:tk":"Niderlandlar","name:ee":"Netherlands","name:th":"\u0e1b\u0e23\u0e30\u0e40\u0e17\u0e28\u0e40\u0e19\u0e40\u0e18\u0e2d\u0e23\u0e4c\u0e41\u0e25\u0e19\u0e14\u0e4c","name:eu":"Herbehereak","name:et":"Holland","name:es":"Pa\u00edses Bajos","name:ay":"Aynacha Jach'a Markanaka","name:rm":"Pajais Bass","name:az":"Niderland","name:id":"Belanda","name:ar":"\u0647\u0648\u0644\u0646\u062f\u0627","name:io":"Nederlando","name:is":"Holland","name:am":"\u1206\u120b\u1295\u12f5","name:it":"Paesi Bassi","name:an":"Pa\u00edses Baixos","name:ru":"\u041d\u0438\u0434\u0435\u0440\u043b\u0430\u043d\u0434\u044b","name:rw":"Ubuholandi","name:zu":"Netherlands","kind_detail":"2","name:ky":"\u041d\u0438\u0434\u0435\u0440\u043b\u0430\u043d\u0434\u0442\u0430\u0440","name:zh-yue":"\u8377\u862d","old_name:cs":"Holandsko","name:zh":"\u8377\u862d","name:so":"Holland","name:sl":"Nizozemska","name:sk":"Holandsko","name:ja":"\u30aa\u30e9\u30f3\u30c0","name:si":"\u0db1\u0dd9\u0daf\u0dbb\u0dca\u0dbd\u0db1\u0dca\u0dad\u0dba","name:sh":"Holandija","name:se":"Vuolleeatnamat","name:sc":"Logos Bascios","name:sa":"\u0928\u0947\u0926\u0930\u0932\u0948\u0902\u0921\u094d\u0938","name:bs":"Holandija","name:bn":"\u09a8\u09c7\u09a6\u09be\u09b0\u09b2\u09cd\u09af\u09be\u09a8\u09cd\u09a1\u09b8","name:bo":"\u0f67\u0f7c\u0f0b\u0f63\u0f53\u0f0d","name:bi":"Netherlands","name:sw":"Uholanzi","name:be":"\u041d\u0456\u0434\u044d\u0440\u043b\u0430\u043d\u0434\u044b","name:su":"Walanda","name:bg":"\u041d\u0438\u0434\u0435\u0440\u043b\u0430\u043d\u0434\u0438\u044f","name:ss":"IDashi","name:ba":"\u041d\u0438\u0434\u0435\u0440\u043b\u0430\u043d\u0434\u0442\u0430\u0440","name:sq":"Holanda","name:jv":"Walanda","name:br":"Izelvroio\u00f9","name:ia":"Pais Basse","name:pt":"Pa\u00edses Baixos","name:ps":"\u0647\u0627\u0644\u0646\u0689","name:oc":"Pa\u00efses Basses","min_zoom":8.0,"name:ro":"\u021a\u0103rile de Jos","name:zh-min-nan":"H\u00f4-l\u00e2n-kok","name:os":"\u041d\u0438\u0434\u0435\u0440\u043b\u0430\u043d\u0434\u0442\u00e6","name:pl":"Kr\u00f3lestwo Niderland\u00f3w","name:st":"H\u00f4lan\u00ea","sort_rank":262,"name:sr":"\u0425\u043e\u043b\u0430\u043d\u0434\u0438\u0458\u0430","osm_relation":true,"name:xh":"ENetherlands","name:pa":"\u0a28\u0a40\u0a26\u0a30\u0a32\u0a48\u0a02\u0a21","name:tr":"Hollanda","name:hi":"\u0928\u0940\u0926\u0930\u0932\u0948\u0923\u094d\u0921","name:sv":"Nederl\u00e4nderna","name:he":"\u05d4\u05d5\u05dc\u05e0\u05d3","name:hy":"\u0546\u056b\u0564\u0565\u0580\u056c\u0561\u0576\u0564\u0576\u0565\u0580","name:ht":"Peyiba","name:hu":"Hollandia","name:hr":"Nizozemska","kind":"country","name:yi":"\u05d4\u05d0\u05dc\u05d0\u05e0\u05d3","name:yo":"N\u1eb9\u0301d\u00e1l\u00e1nd\u00ec","name:mt":"Pajji\u017ci l-Baxxi","name:ms":"Belanda","name:mr":"\u0928\u0947\u0926\u0930\u0932\u0901\u0921\u094d\u0938","name:my":"\u1014\u101a\u103a\u101e\u102c\u101c\u1014\u103a\u1014\u102d\u102f\u1004\u103a\u1004\u1036","official_name":"Koninkrijk der Nederlanden","name:kw":"Iseldiryow","name:vi":"H\u00e0 Lan","name:ml":"\u0d28\u0d46\u0d24\u0d7c\u0d32\u0d28\u0d4d\u0d31\u0d4d\u0d38\u0d4d","name:mn":"\u041d\u0438\u0434\u0435\u0440\u043b\u0430\u043d\u0434","name:mi":"H\u014drana","id":-2323309,"name:mk":"\u0425\u043e\u043b\u0430\u043d\u0434\u0438\u0458\u0430","name:vo":"Ned\u00e4n","name:fa":"\u0647\u0644\u0646\u062f","name:ff":"Holannda","name:fi":"Alankomaat","name:fo":"Ni\u00f0urlond","name:fr":"Pays-Bas","name:fy":"Nederl\u00e2n","name:na":"Eben Eyong","name:ne":"\u0928\u0947\u0926\u0930\u0932\u094d\u092f\u093e\u0923\u094d\u0921\u094d\u0938","name:wa":"Bas Payis","name:wo":"Olaand","name:nv":"K\u00e9yah W\u00f3yahgo Si\u02bc\u00e1n\u00edg\u00ed\u00ed","name:ga":"An \u00cdsilt\u00edr","name:gd":"Na T\u00ecrean \u00ccsle","name:gn":"Holanda","name:gl":"Pa\u00edses Baixos","maritime_boundary":true,"name:gv":"Yn \u00c7heer Injil","name:gu":"\u0aa8\u0ac7\u0aa7\u0ab0\u0ab2\u0ac7\u0a82\u0aa1"},"arcs":[0]},{"type":"LineString","properties":{"name:right:es":"Flevolanda","name:left:ar":"\u0634\u0645\u0627\u0644 \u0647\u0648\u0644\u0646\u062f\u0627","id:right":-47407,"name:right:lt":"Flevolandas","min_zoom":8.0,"name:left:lt":"\u0160iaur\u0117s Olandija","name:left:ru":"\u0421\u0435\u0432\u0435\u0440\u043d\u0430\u044f \u0413\u043e\u043b\u043b\u0430\u043d\u0434\u0438\u044f","name:right:ru":"\u0424\u043b\u0435\u0432\u043e\u043b\u0430\u043d\u0434","id":-47654,"osm_relation":true,"name:right":"Flevoland","kind":"region","name:left:en":"North Holland","sort_rank":256,"kind_detail":"4","name:left:ca":"Holanda Septentrional","name:left:de":"Nordholland","name":"Noord-Holland - Flevoland","source":"openstreetmap.org","id:left":-47654,"name:left:es":"Holanda Septentrional","name:left":"Noord-Holland"},"arcs":[1]},{"type":"LineString","properties":{"name:right:es":"Frisia","name:right:fr":"Frise","name:left:ar":"\u0634\u0645\u0627\u0644 \u0647\u0648\u0644\u0646\u062f\u0627","old_name:right:en":"Frisia","id:right":-47381,"official_name:right":"Frysl\u00e2n","min_zoom":8.0,"name:left:lt":"\u0160iaur\u0117s Olandija","name:left:ru":"\u0421\u0435\u0432\u0435\u0440\u043d\u0430\u044f \u0413\u043e\u043b\u043b\u0430\u043d\u0434\u0438\u044f","name:right:ru":"\u0424\u0440\u0438\u0441\u043b\u0430\u043d\u0434\u0438\u044f","id":-47654,"osm_relation":true,"name:right":"Friesland","kind":"region","name:left:en":"North Holland","source":"openstreetmap.org","sort_rank":256,"kind_detail":"4","name:left:ca":"Holanda Septentrional","name:left:de":"Nordholland","name":"Noord-Holland - Friesland","name:right:ca":"Fr\u00edsia","name:right:ar":"\u0641\u0631\u064a\u0632\u0644\u0646\u062f","id:left":-47654,"name:left:es":"Holanda Septentrional","name:right:fy":"Frysl\u00e2n","name:left":"Noord-Holland"},"arcs":[2]},{"type":"LineString","properties":{"name:right:es":"Frisia","name:right:fr":"Frise","name:left:ar":"\u0634\u0645\u0627\u0644 \u0647\u0648\u0644\u0646\u062f\u0627","old_name:right:en":"Frisia","id:right":-47381,"official_name:right":"Frysl\u00e2n","min_zoom":8.0,"name:left:lt":"\u0160iaur\u0117s Olandija","name:left:ru":"\u0421\u0435\u0432\u0435\u0440\u043d\u0430\u044f \u0413\u043e\u043b\u043b\u0430\u043d\u0434\u0438\u044f","name:right:ru":"\u0424\u0440\u0438\u0441\u043b\u0430\u043d\u0434\u0438\u044f","id":-47654,"osm_relation":true,"name:right":"Friesland","kind":"region","name:left:en":"North Holland","source":"openstreetmap.org","sort_rank":256,"kind_detail":"4","name:left:ca":"Holanda Septentrional","name:left:de":"Nordholland","name":"Noord-Holland - Friesland","name:right:ca":"Fr\u00edsia","name:right:ar":"\u0641\u0631\u064a\u0632\u0644\u0646\u062f","id:left":-47654,"name:left:es":"Holanda Septentrional","name:right:fy":"Frysl\u00e2n","name:left":"Noord-Holland"},"arcs":[3]},{"type":"LineString","properties":{"name:lt":"\u0160iaur\u0117s Olandija","name:ar":"\u0634\u0645\u0627\u0644 \u0647\u0648\u0644\u0646\u062f\u0627","min_zoom":8.0,"name:ru":"\u0421\u0435\u0432\u0435\u0440\u043d\u0430\u044f \u0413\u043e\u043b\u043b\u0430\u043d\u0434\u0438\u044f","id":-47654,"name:ca":"Holanda Septentrional","kind":"region","name:en":"North Holland","name":"Noord-Holland","sort_rank":256,"kind_detail":"4","name:de":"Nordholland","source":"openstreetmap.org","maritime_boundary":true,"osm_relation":true,"name:es":"Holanda Septentrional"},"arcs":[4]},{"type":"LineString","properties":{"name:right:es":"Frisia","name:right:fr":"Frise","old_name:right:en":"Frisia","id:right":-47381,"name:left:es":"Flevolanda","min_zoom":8.0,"name:left:lt":"Flevolandas","name:left:ru":"\u0424\u043b\u0435\u0432\u043e\u043b\u0430\u043d\u0434","name:right:ru":"\u0424\u0440\u0438\u0441\u043b\u0430\u043d\u0434\u0438\u044f","id":-47407,"osm_relation":true,"name:right":"Friesland","kind":"region","name":"Flevoland - Friesland","source":"openstreetmap.org","sort_rank":256,"kind_detail":"4","name:right:ca":"Fr\u00edsia","name:right:ar":"\u0641\u0631\u064a\u0632\u0644\u0646\u062f","id:left":-47407,"official_name:right":"Frysl\u00e2n","name:right:fy":"Frysl\u00e2n","name:left":"Flevoland"},"arcs":[5]},{"type":"LineString","properties":{"name:ar":"\u0641\u0631\u064a\u0632\u0644\u0646\u062f","official_name":"Frysl\u00e2n","min_zoom":8.0,"old_name:en":"Frisia","name:ru":"\u0424\u0440\u0438\u0441\u043b\u0430\u043d\u0434\u0438\u044f","id":-47381,"osm_relation":true,"kind":"region","name":"Friesland","sort_rank":256,"kind_detail":"4","source":"openstreetmap.org","name:fr":"Frise","name:ca":"Fr\u00edsia","name:fy":"Frysl\u00e2n","name:es":"Frisia"},"arcs":[6]},{"type":"LineString","properties":{"name:ar":"\u0641\u0631\u064a\u0632\u0644\u0646\u062f","official_name":"Frysl\u00e2n","min_zoom":8.0,"old_name:en":"Frisia","name:ru":"\u0424\u0440\u0438\u0441\u043b\u0430\u043d\u0434\u0438\u044f","id":-47381,"osm_relation":true,"kind":"region","name":"Friesland","sort_rank":256,"kind_detail":"4","name:fr":"Frise","source":"openstreetmap.org","maritime_boundary":true,"name:ca":"Fr\u00edsia","name:fy":"Frysl\u00e2n","name:es":"Frisia"},"arcs":[7]}]},"roads":{"type":"GeometryCollection","geometries":[{"type":"LineString","properties":{"bus_network":"Noord- en Zuidwest-Frysl\u00e2n en Schiermonnikoog","sort_rank":380,"kind_detail":"primary","is_bicycle_related":true,"kind":"major_road","bicycle_shield_text":null,"bicycle_network":"rcn","source":"openstreetmap.org","min_zoom":8.0,"bus_shield_text":"71","ref":"N393"},"arcs":[102]},{"type":"LineString","properties":{"kind":"minor_road","sort_rank":360,"kind_detail":"unclassified","is_bicycle_related":true,"bicycle_shield_text":"LF15","cycleway":"opposite","source":"openstreetmap.org","min_zoom":8.0,"landuse_kind":"residential","bicycle_network":"ncn","id":6600519},"arcs":[103]},{"type":"LineString","properties":{"bus_network":"Noord-Holland Noord","sort_rank":379,"kind_detail":"secondary","is_bicycle_related":true,"kind":"major_road","bicycle_shield_text":"EV12","bicycle_network":"icn","source":"openstreetmap.org","min_zoom":8.0,"bus_shield_text":"152","ref":"N502"},"arcs":[104]},{"type":"LineString","properties":{"source":"openstreetmap.org","kind":"major_road","bus_shield_text":"140","sort_rank":380,"kind_detail":"primary","min_zoom":8.0,"bus_network":"IJsselmond"},"arcs":[105]},{"type":"MultiLineString","properties":{"source":"openstreetmap.org","kind":"major_road","kind_detail":"trunk","sort_rank":381,"landuse_kind":"urban_area","ref":"N9","min_zoom":8.0},"arcs":[[106],[107],[108],[109]]},{"type":"MultiLineString","properties":{"kind":"minor_road","sort_rank":358,"kind_detail":"service","is_bicycle_related":true,"bicycle_shield_text":"LF15","bicycle_network":"ncn","source":"openstreetmap.org","min_zoom":8.0},"arcs":[[110],[111],[112],[113],[114]]},{"type":"LineString","properties":{"kind":"major_road","sort_rank":377,"kind_detail":"tertiary","is_bicycle_related":true,"bicycle_shield_text":"LF15","cycleway":"opposite","source":"openstreetmap.org","min_zoom":8.0,"bicycle_network":"ncn","id":6580474},"arcs":[115]},{"type":"MultiLineString","properties":{"bus_network":"Noord-Holland Noord","sort_rank":377,"kind_detail":"tertiary","is_bicycle_related":true,"kind":"major_road","bicycle_shield_text":"LF10","bicycle_network":"ncn","source":"openstreetmap.org","min_zoom":8.0,"bus_shield_text":"658"},"arcs":[[116],[117]]},{"type":"LineString","properties":{"kind":"path","sort_rank":354,"kind_detail":"pedestrian","is_bicycle_related":true,"bicycle_shield_text":"LF21","bicycle_network":"ncn","source":"openstreetmap.org","min_zoom":8.0,"id":6572025},"arcs":[118]},{"type":"MultiLineString","properties":{"bus_network":"Waterland","sort_rank":379,"kind_detail":"secondary","is_bicycle_related":true,"kind":"major_road","bicycle_shield_text":"LF21","cycleway":"lane","source":"openstreetmap.org","min_zoom":8.0,"bus_shield_text":"N10","bicycle_network":"ncn"},"arcs":[[119],[120]]},{"type":"LineString","properties":{"bus_network":"Noord-Holland Noord","sort_rank":380,"kind_detail":"primary","kind":"major_road","source":"openstreetmap.org","min_zoom":8.0,"bus_shield_text":"250","landuse_kind":"urban_area","ref":"N242"},"arcs":[121]},{"type":"MultiLineString","properties":{"kind":"minor_road","sort_rank":360,"landuse_kind":"residential","is_bicycle_related":true,"bicycle_shield_text":"LF10","bicycle_network":"ncn","source":"openstreetmap.org","min_zoom":8.0,"kind_detail":"unclassified"},"arcs":[[122],[123]]},{"type":"LineString","properties":{"bus_network":"Noord-Holland Noord","sort_rank":380,"kind_detail":"primary","kind":"major_road","source":"openstreetmap.org","min_zoom":8.0,"bus_shield_text":"653","ref":"N241"},"arcs":[124]},{"type":"MultiLineString","properties":{"kind":"minor_road","sort_rank":360,"kind_detail":"unclassified","is_bicycle_related":true,"bicycle_shield_text":"LF22","bicycle_network":"ncn","source":"openstreetmap.org","min_zoom":8.0},"arcs":[[125],[126],[127],[128],[129],[130],[131],[132],[133],[134],[135],[136],[137],[138]]},{"type":"LineString","properties":{"source":"openstreetmap.org","bus_network":"Stadsvervoer Lelystad","bus_shield_text":"3","sort_rank":380,"kind_detail":"primary","min_zoom":8.0,"kind":"major_road"},"arcs":[139]},{"type":"LineString","properties":{"kind":"path","sort_rank":354,"landuse_kind":"protected_area","is_bicycle_related":true,"bicycle_shield_text":"LF10","bicycle_network":"ncn","source":"openstreetmap.org","min_zoom":8.0,"kind_detail":"cycleway"},"arcs":[140]},{"type":"LineString","properties":{"kind":"path","sort_rank":354,"landuse_kind":"protected_area","is_bicycle_related":true,"bicycle_shield_text":"LF21","bicycle_network":"ncn","source":"openstreetmap.org","min_zoom":8.0,"kind_detail":"cycleway"},"arcs":[141]},{"type":"MultiLineString","properties":{"source":"openstreetmap.org","kind":"major_road","landuse_kind":"urban_area","sort_rank":380,"kind_detail":"primary","ref":"N245","min_zoom":8.0},"arcs":[[142],[143],[144]]},{"type":"MultiLineString","properties":{"source":"openstreetmap.org","kind":"major_road","sort_rank":380,"kind_detail":"primary","ref":"N504","min_zoom":8.0},"arcs":[[145],[146],[147],[148],[149],[150],[151]]},{"type":"LineString","properties":{"source":"openstreetmap.org","bus_network":"Noord-Holland Noord","bus_shield_text":"416","sort_rank":380,"kind_detail":"primary","min_zoom":8.0,"kind":"major_road"},"arcs":[152]},{"type":"LineString","properties":{"kind":"ferry","name":"Veerdienst Texel - Vlieland","sort_rank":355,"landuse_kind":"protected_area","source":"openstreetmap.org","min_zoom":8.0,"id":-4450274,"osm_relation":true},"arcs":[153]},{"type":"MultiLineString","properties":{"bus_network":"Noord- en Zuidwest-Frysl\u00e2n en Schiermonnikoog","sort_rank":381,"kind_detail":"trunk","kind":"major_road","source":"openstreetmap.org","min_zoom":8.0,"bus_shield_text":"71","ref":"N31"},"arcs":[[154],[155],[156],[157],[158],[159]]},{"type":"MultiLineString","properties":{"kind":"path","sort_rank":354,"kind_detail":"cycleway","is_bicycle_related":true,"bicycle_shield_text":"LF7","bicycle_network":"ncn","source":"openstreetmap.org","min_zoom":8.0,"landuse_kind":"residential"},"arcs":[[160],[161],[162],[163],[164],[165],[166]]},{"type":"LineString","properties":{"kind":"minor_road","service":"driveway","sort_rank":360,"kind_detail":"unclassified","is_bicycle_related":true,"bicycle_shield_text":"LF20","bicycle_network":"ncn","source":"openstreetmap.org","min_zoom":8.0,"id":435379797},"arcs":[167]},{"type":"MultiLineString","properties":{"bus_network":"Noord-Holland Noord","sort_rank":380,"kind_detail":"primary","kind":"major_road","source":"openstreetmap.org","min_zoom":8.0,"bus_shield_text":"150","landuse_kind":"urban_area","ref":"N242"},"arcs":[[168],[169],[170],[171],[172],[173],[174],[175],[176],[177],[178],[179],[180]]},{"type":"LineString","properties":{"kind":"ferry","name":"Oost-Vlieland - West-Terschelling","sort_rank":355,"landuse_kind":"protected_area","is_bicycle_related":true,"source":"openstreetmap.org","min_zoom":8.0,"id":126985351},"arcs":[181]},{"type":"LineString","properties":{"bus_network":"Noord-Holland Noord","sort_rank":380,"kind_detail":"primary","kind":"major_road","source":"openstreetmap.org","min_zoom":8.0,"bus_shield_text":"128","ref":"N243"},"arcs":[182]},{"type":"MultiLineString","properties":{"source":"openstreetmap.org","kind":"major_road","sort_rank":380,"kind_detail":"primary","ref":"N244","min_zoom":8.0},"arcs":[[183],[184],[185]]},{"type":"MultiLineString","properties":{"kind":"minor_road","sort_rank":360,"kind_detail":"residential","is_bicycle_related":true,"bicycle_shield_text":"LF15","bicycle_network":"ncn","source":"openstreetmap.org","min_zoom":8.0},"arcs":[[186],[187]]},{"type":"LineString","properties":{"kind":"major_road","sort_rank":380,"kind_detail":"primary","bus_network":"Noord-Holland Noord","source":"openstreetmap.org","min_zoom":8.0,"bus_shield_text":"416","ref":"N248","id":6616630},"arcs":[188]},{"type":"MultiLineString","properties":{"bus_network":null,"sort_rank":377,"kind_detail":"tertiary","is_bicycle_related":true,"kind":"major_road","bicycle_shield_text":"LF15","bicycle_network":"ncn","source":"openstreetmap.org","min_zoom":8.0,"bus_shield_text":"138"},"arcs":[[189],[190]]},{"type":"MultiLineString","properties":{"bus_network":"Noord-Holland Noord","sort_rank":380,"kind_detail":"primary","kind":"major_road","source":"openstreetmap.org","min_zoom":8.0,"bus_shield_text":"152","landuse_kind":"residential","ref":"N245"},"arcs":[[191],[192]]},{"type":"LineString","properties":{"kind":"path","sort_rank":354,"kind_detail":"path","is_bicycle_related":true,"bicycle_shield_text":"LF15","bicycle_network":"ncn","source":"openstreetmap.org","min_zoom":8.0},"arcs":[193]},{"type":"LineString","properties":{"kind":"path","sort_rank":354,"kind_detail":"pedestrian","is_bicycle_related":true,"bicycle_shield_text":"LF20","bicycle_network":"ncn","source":"openstreetmap.org","min_zoom":8.0},"arcs":[194]},{"type":"MultiLineString","properties":{"kind":"path","sort_rank":354,"kind_detail":"cycleway","is_bicycle_related":true,"bicycle_shield_text":"LF21","bicycle_network":"ncn","source":"openstreetmap.org","min_zoom":8.0},"arcs":[[195],[196],[197],[198],[199],[200],[201],[202],[203],[204],[205],[206],[207],[208],[209],[210],[211],[212]]},{"type":"LineString","properties":{"kind":"minor_road","sort_rank":358,"kind_detail":"service","is_bicycle_related":true,"bicycle_shield_text":"LF7","bicycle_network":"ncn","source":"openstreetmap.org","min_zoom":8.0,"landuse_kind":"residential","id":335355927},"arcs":[213]},{"type":"MultiLineString","properties":{"bus_network":"Noord-Holland Noord","sort_rank":381,"kind_detail":"trunk","kind":"major_road","source":"openstreetmap.org","min_zoom":8.0,"bus_shield_text":"150","landuse_kind":"residential","ref":"N508"},"arcs":[[214],[215]]},{"type":"LineString","properties":{"kind":"major_road","sort_rank":380,"kind_detail":"primary","bus_network":"Noord-Holland Noord","source":"openstreetmap.org","min_zoom":8.0,"bus_shield_text":"9","landuse_kind":"urban_area","id":6619772},"arcs":[216]},{"type":"MultiLineString","properties":{"bus_network":"Noord-Holland Noord","sort_rank":381,"landuse_kind":"residential","kind":"major_road","source":"openstreetmap.org","min_zoom":8.0,"bus_shield_text":"163","kind_detail":"trunk"},"arcs":[[217],[218]]},{"type":"LineString","properties":{"kind":"major_road","sort_rank":380,"landuse_kind":"residential","source":"openstreetmap.org","min_zoom":8.0,"kind_detail":"primary","ref":"N351","id":6546143},"arcs":[219]},{"type":"MultiLineString","properties":{"source":"openstreetmap.org","bus_network":"Noord-Holland Noord","bus_shield_text":"123","sort_rank":380,"kind_detail":"primary","min_zoom":8.0,"kind":"major_road"},"arcs":[[220],[221]]},{"type":"MultiLineString","properties":{"source":"openstreetmap.org","kind":"major_road","kind_detail":"trunk","sort_rank":381,"landuse_kind":"urban_area","ref":"N508","min_zoom":8.0},"arcs":[[222],[223],[224]]},{"type":"MultiLineString","properties":{"source":"openstreetmap.org","kind":"major_road","sort_rank":380,"kind_detail":"primary","ref":"N302","min_zoom":8.0},"arcs":[[225],[226],[227],[228],[229],[230],[231],[232],[233],[234],[235],[236],[237],[238],[239]]},{"type":"LineString","properties":{"kind":"major_road","sort_rank":379,"kind_detail":"secondary","is_bicycle_related":true,"bus_network":"Waterland","bicycle_shield_text":"LF21","bicycle_network":"ncn","source":"openstreetmap.org","min_zoom":8.0,"bus_shield_text":"110","id":6586645},"arcs":[240]},{"type":"LineString","properties":{"kind":"major_road","sort_rank":380,"kind_detail":"primary","bus_network":"Waterland","source":"openstreetmap.org","min_zoom":8.0,"bus_shield_text":"N04","landuse_kind":"urban_area","ref":"N235","id":6592781},"arcs":[241]},{"type":"MultiLineString","properties":{"bus_network":"Noord-Holland Noord","sort_rank":380,"kind_detail":"primary","is_bicycle_related":true,"kind":"major_road","bicycle_shield_text":null,"bicycle_network":"rcn","source":"openstreetmap.org","min_zoom":8.0,"bus_shield_text":"139","ref":"N240"},"arcs":[[242],[243]]},{"type":"MultiLineString","properties":{"kind":"minor_road","sort_rank":360,"kind_detail":"residential","is_bicycle_related":true,"bicycle_shield_text":"LF7","bicycle_network":"ncn","source":"openstreetmap.org","min_zoom":8.0,"cycleway":"opposite"},"arcs":[[244],[245]]},{"type":"LineString","properties":{"bus_network":"Noord-Holland Noord","sort_rank":377,"kind_detail":"tertiary","is_bicycle_related":true,"kind":"major_road","bicycle_shield_text":"LF21","bicycle_network":"ncn","source":"openstreetmap.org","min_zoom":8.0,"bus_shield_text":"139"},"arcs":[246]},{"type":"MultiLineString","properties":{"kind":"path","sort_rank":354,"kind_detail":"cycleway","is_bicycle_related":true,"bicycle_shield_text":"LF22","bicycle_network":"ncn","source":"openstreetmap.org","min_zoom":8.0},"arcs":[[247],[248],[249],[250],[251],[252],[253],[254],[255],[256],[257]]},{"type":"MultiLineString","properties":{"bus_network":"Noord- en Zuidwest-Frysl\u00e2n en Schiermonnikoog","sort_rank":380,"kind_detail":"primary","kind":"major_road","source":"openstreetmap.org","min_zoom":8.0,"bus_shield_text":"70","ref":"N393"},"arcs":[[258],[259]]},{"type":"LineString","properties":{"kind":"major_road","sort_rank":380,"kind_detail":"primary","bus_network":"Zaanstreek","source":"openstreetmap.org","min_zoom":8.0,"bus_shield_text":"414","landuse_kind":"urban_area","ref":"S152","id":449959736},"arcs":[260]},{"type":"LineString","properties":{"kind":"major_road","sort_rank":377,"landuse_kind":"residential","is_bicycle_related":true,"bicycle_shield_text":"LF21","bicycle_network":"ncn","source":"openstreetmap.org","min_zoom":8.0,"kind_detail":"tertiary"},"arcs":[261]},{"type":"LineString","properties":{"kind":"minor_road","sort_rank":360,"kind_detail":"residential","is_bicycle_related":true,"bicycle_shield_text":"LF7","bicycle_network":"ncn","source":"openstreetmap.org","min_zoom":8.0,"landuse_kind":"residential","cycleway":"opposite"},"arcs":[262]},{"type":"MultiLineString","properties":{"kind":"path","sort_rank":354,"kind_detail":"cycleway","is_bicycle_related":true,"bicycle_shield_text":"LF20","bicycle_network":"ncn","source":"openstreetmap.org","min_zoom":8.0},"arcs":[[263],[264],[265],[266],[267],[268],[269],[270],[271],[272],[273]]},{"type":"LineString","properties":{"source":"openstreetmap.org","bus_network":"Waterland","bus_shield_text":"N14","sort_rank":380,"kind_detail":"primary","min_zoom":8.0,"kind":"major_road"},"arcs":[274]},{"type":"LineString","properties":{"kind":"major_road","sort_rank":377,"kind_detail":"tertiary","is_bicycle_related":true,"bus_network":"Noord- en Zuidwest-Frysl\u00e2n en Schiermonnikoog","bicycle_shield_text":"LF10","bicycle_network":"ncn","source":"openstreetmap.org","min_zoom":8.0,"bus_shield_text":"71","id":6567175},"arcs":[275]},{"type":"MultiLineString","properties":{"sort_rank":380,"kind_detail":"primary","min_zoom":8.0,"kind":"major_road","source":"openstreetmap.org"},"arcs":[[276],[277],[278],[279],[280],[281],[282],[283],[284],[285],[286],[287],[288],[289],[290],[291]]},{"type":"MultiLineString","properties":{"source":"openstreetmap.org","kind":"highway","sort_rank":383,"kind_detail":"motorway","ref":"A31","min_zoom":8.0},"arcs":[[292],[293],[294],[295]]},{"type":"MultiLineString","properties":{"bus_network":"Noord-Holland Noord","sort_rank":380,"kind_detail":"primary","kind":"major_road","source":"openstreetmap.org","min_zoom":8.0,"bus_shield_text":"167","landuse_kind":"urban_area"},"arcs":[[296],[297],[298],[299],[300]]},{"type":"MultiLineString","properties":{"kind":"minor_road","sort_rank":360,"kind_detail":"residential","is_bicycle_related":true,"bicycle_shield_text":"LF7","bicycle_network":"ncn","source":"openstreetmap.org","min_zoom":8.0},"arcs":[[301],[302],[303],[304],[305],[306]]},{"type":"LineString","properties":{"bus_network":"Noord-Holland Noord","sort_rank":377,"landuse_kind":"residential","is_bicycle_related":true,"kind":"major_road","bicycle_shield_text":"LF15","cycleway":"lane","source":"openstreetmap.org","min_zoom":8.0,"bus_shield_text":"10","kind_detail":"tertiary","bicycle_network":"ncn"},"arcs":[307]},{"type":"MultiLineString","properties":{"bus_network":"Noord- en Zuidwest-Frysl\u00e2n en Schiermonnikoog","sort_rank":381,"kind_detail":"trunk","kind":"major_road","source":"openstreetmap.org","min_zoom":8.0,"bus_shield_text":"44","ref":"N359"},"arcs":[[308],[309],[310],[311],[312],[313],[314],[315],[316],[317],[318],[319],[320],[321]]},{"type":"MultiLineString","properties":{"source":"openstreetmap.org","kind":"highway","landuse_kind":"urban_area","sort_rank":383,"kind_detail":"motorway","ref":"A6","min_zoom":8.0},"arcs":[[322],[323]]},{"type":"LineString","properties":{"kind":"path","sort_rank":354,"kind_detail":"path","is_bicycle_related":true,"bicycle_shield_text":"EV12","bicycle_network":"icn","source":"openstreetmap.org","min_zoom":8.0,"id":418295278},"arcs":[324]},{"type":"MultiLineString","properties":{"source":"openstreetmap.org","kind":"major_road","landuse_kind":"urban_area","sort_rank":380,"kind_detail":"primary","ref":"N309","min_zoom":8.0},"arcs":[[325],[326],[327],[328],[329],[330],[331],[332],[333],[334]]},{"type":"LineString","properties":{"kind":"major_road","sort_rank":381,"kind_detail":"trunk","bus_network":"Noord-Holland Noord","source":"openstreetmap.org","min_zoom":8.0,"bus_shield_text":"636","landuse_kind":"urban_area","id":6581066},"arcs":[335]},{"type":"MultiLineString","properties":{"kind":"minor_road","sort_rank":360,"landuse_kind":"residential","is_bicycle_related":true,"bicycle_shield_text":"LF7","bicycle_network":"ncn","source":"openstreetmap.org","min_zoom":8.0,"kind_detail":"unclassified","cycleway":"opposite"},"arcs":[[336],[337],[338]]},{"type":"LineString","properties":{"kind":"major_road","sort_rank":380,"kind_detail":"primary","is_bicycle_related":true,"source":"openstreetmap.org","min_zoom":8.0,"ref":"N240","id":39441013},"arcs":[339]},{"type":"LineString","properties":{"kind":"major_road","sort_rank":377,"kind_detail":"tertiary","is_bicycle_related":true,"bicycle_shield_text":"LF7","bicycle_network":"ncn","source":"openstreetmap.org","min_zoom":8.0,"landuse_kind":"residential","id":6621052},"arcs":[340]},{"type":"MultiLineString","properties":{"bus_network":"Stadsvervoer Lelystad","sort_rank":380,"kind_detail":"primary","kind":"major_road","source":"openstreetmap.org","min_zoom":8.0,"bus_shield_text":"3","ref":"N309"},"arcs":[[341],[342],[343]]},{"type":"LineString","properties":{"kind":"major_road","sort_rank":379,"kind_detail":"secondary","is_bicycle_related":true,"bicycle_shield_text":"EV12","bicycle_network":"icn","source":"openstreetmap.org","min_zoom":8.0},"arcs":[344]},{"type":"MultiLineString","properties":{"kind":"minor_road","sort_rank":360,"landuse_kind":"residential","is_bicycle_related":true,"bicycle_shield_text":"LF15","bicycle_network":"ncn","source":"openstreetmap.org","min_zoom":8.0,"kind_detail":"unclassified"},"arcs":[[345],[346]]},{"type":"MultiLineString","properties":{"kind":"minor_road","sort_rank":360,"kind_detail":"unclassified","is_bicycle_related":true,"bicycle_shield_text":"LF7","bicycle_network":"ncn","source":"openstreetmap.org","min_zoom":8.0,"cycleway":"opposite"},"arcs":[[347],[348],[349]]},{"type":"MultiLineString","properties":{"bus_network":"Noord- en Zuidwest-Frysl\u00e2n en Schiermonnikoog","network":"e-road","sort_rank":381,"kind_detail":"trunk","kind":"major_road","source":"openstreetmap.org","min_zoom":8.0,"bus_shield_text":"335","shield_text":"22","ref":"N7"},"arcs":[[350],[351]]},{"type":"MultiLineString","properties":{"bus_network":"Noord-Holland Noord","sort_rank":381,"landuse_kind":"urban_area","kind":"major_road","source":"openstreetmap.org","min_zoom":8.0,"bus_shield_text":"131","kind_detail":"trunk","ref":"N302"},"arcs":[[352],[353]]},{"type":"LineString","properties":{"kind":"major_road","sort_rank":380,"kind_detail":"primary","bus_network":"Noord-Holland Noord","source":"openstreetmap.org","min_zoom":8.0,"bus_shield_text":"135","landuse_kind":"urban_area","id":290590928},"arcs":[354]},{"type":"LineString","properties":{"source":"openstreetmap.org","kind":"ferry","name":"Veerdienst Zuiderzeemuseum","sort_rank":355,"landuse_kind":"urban_area","min_zoom":8.0,"id":6571361},"arcs":[355]},{"type":"LineString","properties":{"bus_network":"Noord-Holland Noord","sort_rank":377,"kind_detail":"tertiary","is_bicycle_related":true,"kind":"major_road","bicycle_shield_text":"LF21","bicycle_network":"ncn","source":"openstreetmap.org","min_zoom":8.0,"bus_shield_text":"415"},"arcs":[356]},{"type":"MultiLineString","properties":{"bus_network":"Noord-Holland Noord","sort_rank":380,"kind_detail":"primary","kind":"major_road","source":"openstreetmap.org","min_zoom":8.0,"bus_shield_text":"416","ref":"N241"},"arcs":[[357],[358]]},{"type":"LineString","properties":{"kind":"major_road","sort_rank":380,"kind_detail":"primary","bus_network":"Zaanstreek","source":"openstreetmap.org","min_zoom":8.0,"bus_shield_text":"414","landuse_kind":"urban_area","ref":"N8;S152","id":6608606},"arcs":[359]},{"type":"LineString","properties":{"bus_network":"Noord- en Zuidwest-Frysl\u00e2n en Schiermonnikoog","sort_rank":379,"landuse_kind":"residential","is_bicycle_related":true,"kind":"major_road","bicycle_shield_text":"LF10","bicycle_network":"ncn","source":"openstreetmap.org","min_zoom":8.0,"bus_shield_text":"71","kind_detail":"secondary"},"arcs":[360]},{"type":"LineString","properties":{"source":"openstreetmap.org","kind":"major_road","landuse_kind":"residential","sort_rank":380,"kind_detail":"primary","ref":"N352","min_zoom":8.0},"arcs":[361]},{"type":"LineString","properties":{"kind":"minor_road","service":"driveway","sort_rank":356,"kind_detail":"service","is_bicycle_related":true,"bicycle_shield_text":"LF21","bicycle_network":"ncn","source":"openstreetmap.org","min_zoom":8.0,"landuse_kind":"urban_area","id":54514998},"arcs":[362]},{"type":"MultiLineString","properties":{"bus_network":"Noord-Holland Noord","sort_rank":380,"kind_detail":"primary","kind":"major_road","source":"openstreetmap.org","min_zoom":8.0,"bus_shield_text":"158","ref":"N249"},"arcs":[[363],[364],[365]]},{"type":"MultiLineString","properties":{"bus_network":"Noord- en Zuidwest-Frysl\u00e2n en Schiermonnikoog","sort_rank":379,"kind_detail":"secondary","is_bicycle_related":true,"kind":"major_road","bicycle_shield_text":"LF10","bicycle_network":"ncn","source":"openstreetmap.org","min_zoom":8.0,"bus_shield_text":"71"},"arcs":[[366],[367]]},{"type":"LineString","properties":{"kind":"path","sort_rank":354,"kind_detail":"pedestrian","is_bicycle_related":true,"bicycle_shield_text":"LF15","bicycle_network":"ncn","source":"openstreetmap.org","min_zoom":8.0,"id":60880874},"arcs":[368]},{"type":"MultiLineString","properties":{"source":"openstreetmap.org","kind":"major_road","landuse_kind":"urban_area","sort_rank":380,"kind_detail":"primary","ref":"N504","min_zoom":8.0},"arcs":[[369],[370],[371],[372],[373],[374],[375]]},{"type":"MultiLineString","properties":{"kind":"path","sort_rank":354,"kind_detail":"cycleway","is_bicycle_related":true,"bicycle_shield_text":"LF7","bicycle_network":"ncn","source":"openstreetmap.org","min_zoom":8.0},"arcs":[[376],[377],[378],[379],[380],[381],[382],[383]]},{"type":"MultiLineString","properties":{"bus_network":"Noord-Holland Noord","sort_rank":381,"kind_detail":"trunk","kind":"major_road","source":"openstreetmap.org","min_zoom":8.0,"bus_shield_text":"650","ref":"N302"},"arcs":[[384],[385],[386],[387],[388],[389]]},{"type":"LineString","properties":{"source":"openstreetmap.org","bus_network":"Noord-Holland Noord","bus_shield_text":"134","sort_rank":380,"kind_detail":"primary","min_zoom":8.0,"kind":"major_road"},"arcs":[390]},{"type":"MultiLineString","properties":{"bus_network":"Noord-Holland Noord","sort_rank":380,"kind_detail":"primary","kind":"major_road","source":"openstreetmap.org","min_zoom":8.0,"bus_shield_text":"650","ref":"N302"},"arcs":[[391],[392],[393],[394]]},{"type":"MultiLineString","properties":{"source":"openstreetmap.org","kind":"major_road","sort_rank":380,"kind_detail":"primary","ref":"N8;N203","min_zoom":8.0},"arcs":[[395],[396]]},{"type":"LineString","properties":{"kind":"path","sort_rank":354,"kind_detail":"footway","is_bicycle_related":true,"bicycle_shield_text":"LF15","bicycle_network":"ncn","source":"openstreetmap.org","min_zoom":8.0,"id":53215575},"arcs":[397]},{"type":"MultiLineString","properties":{"source":"openstreetmap.org","bus_network":"Noord- en Zuidwest-Friesland en Schiermonnikoog","bus_shield_text":"90","sort_rank":380,"kind_detail":"primary","min_zoom":8.0,"kind":"major_road"},"arcs":[[398],[399]]},{"type":"MultiLineString","properties":{"kind":"major_road","sort_rank":377,"landuse_kind":"urban_area","is_bicycle_related":true,"bicycle_shield_text":"LF15","bicycle_network":"ncn","source":"openstreetmap.org","min_zoom":8.0,"kind_detail":"tertiary"},"arcs":[[400],[401]]},{"type":"MultiLineString","properties":{"bus_network":"Noord-Holland Noord","sort_rank":380,"kind_detail":"primary","kind":"major_road","source":"openstreetmap.org","min_zoom":8.0,"bus_shield_text":"652","ref":"N248"},"arcs":[[402],[403],[404]]},{"type":"MultiLineString","properties":{"source":"openstreetmap.org","kind":"major_road","kind_detail":"trunk","sort_rank":381,"landuse_kind":"urban_area","ref":"N246","min_zoom":8.0},"arcs":[[405],[406],[407],[408]]},{"type":"MultiLineString","properties":{"source":"openstreetmap.org","kind":"major_road","sort_rank":380,"kind_detail":"primary","ref":"N9","min_zoom":8.0},"arcs":[[409],[410],[411],[412],[413],[414],[415],[416],[417],[418],[419],[420],[421],[422],[423]]},{"type":"LineString","properties":{"kind":"major_road","sort_rank":379,"kind_detail":"secondary","is_bicycle_related":true,"bus_network":"Waterland","bicycle_shield_text":"LF21","bicycle_network":"ncn","source":"openstreetmap.org","min_zoom":8.0,"bus_shield_text":"N14","id":71827752},"arcs":[424]},{"type":"MultiLineString","properties":{"kind":"path","sort_rank":354,"landuse_kind":"residential","is_bicycle_related":true,"bicycle_shield_text":"LF20","bicycle_network":"ncn","source":"openstreetmap.org","min_zoom":8.0,"kind_detail":"cycleway"},"arcs":[[425],[426],[427]]},{"type":"LineString","properties":{"kind":"minor_road","sort_rank":360,"kind_detail":"unclassified","is_bicycle_related":true,"bicycle_shield_text":"LF15","cycleway":"opposite","source":"openstreetmap.org","min_zoom":8.0,"landuse_kind":"urban_area","bicycle_network":"ncn","id":6580415},"arcs":[428]},{"type":"LineString","properties":{"kind":"major_road","sort_rank":380,"landuse_kind":"urban_area","source":"openstreetmap.org","min_zoom":8.0,"kind_detail":"primary","ref":"S152","id":219786869},"arcs":[429]},{"type":"MultiLineString","properties":{"source":"openstreetmap.org","kind":"major_road","landuse_kind":"residential","sort_rank":381,"kind_detail":"trunk","min_zoom":8.0},"arcs":[[430],[431]]},{"type":"MultiLineString","properties":{"source":"openstreetmap.org","kind":"major_road","sort_rank":380,"kind_detail":"primary","ref":"N307","min_zoom":8.0},"arcs":[[432],[433]]},{"type":"MultiLineString","properties":{"kind":"minor_road","service":"driveway","sort_rank":356,"kind_detail":"service","is_bicycle_related":true,"bicycle_shield_text":"EV12","bicycle_network":"icn","source":"openstreetmap.org","min_zoom":8.0},"arcs":[[434],[435]]},{"type":"MultiLineString","properties":{"bus_network":"Noord-Holland Noord","sort_rank":380,"kind_detail":"primary","kind":"major_road","source":"openstreetmap.org","min_zoom":8.0,"bus_shield_text":"135","ref":"N248"},"arcs":[[436],[437],[438],[439],[440]]},{"type":"LineString","properties":{"bus_network":"Waterland","sort_rank":380,"kind_detail":"primary","kind":"major_road","source":"openstreetmap.org","min_zoom":8.0,"bus_shield_text":"N10","ref":"N247"},"arcs":[441]},{"type":"MultiLineString","properties":{"kind":"minor_road","sort_rank":358,"kind_detail":"service","is_bicycle_related":true,"bicycle_shield_text":"EV12","bicycle_network":"icn","source":"openstreetmap.org","min_zoom":8.0},"arcs":[[442],[443],[444],[445],[446]]},{"type":"LineString","properties":{"bus_network":"Stadsvervoer Lelystad","sort_rank":377,"kind_detail":"tertiary","is_bicycle_related":true,"kind":"major_road","bicycle_shield_text":"LF20","bicycle_network":"ncn","source":"openstreetmap.org","min_zoom":8.0,"bus_shield_text":"3","id":280852802},"arcs":[447]},{"type":"MultiLineString","properties":{"kind":"path","sort_rank":354,"kind_detail":"cycleway","is_bicycle_related":true,"bicycle_shield_text":"LF15","bicycle_network":"ncn","source":"openstreetmap.org","min_zoom":8.0},"arcs":[[448],[449],[450],[451],[452],[453],[454],[455],[456],[457],[458],[459]]},{"type":"LineString","properties":{"kind":"minor_road","sort_rank":360,"landuse_kind":"residential","is_bicycle_related":true,"bicycle_shield_text":"LF20","cycleway":"lane","source":"openstreetmap.org","min_zoom":8.0,"kind_detail":"unclassified","bicycle_network":"ncn"},"arcs":[460]},{"type":"LineString","properties":{"source":"openstreetmap.org","bus_network":"Noord-Holland Noord","bus_shield_text":"128","sort_rank":380,"kind_detail":"primary","min_zoom":8.0,"kind":"major_road"},"arcs":[461]},{"type":"MultiLineString","properties":{"source":"openstreetmap.org","kind":"major_road","landuse_kind":"urban_area","sort_rank":380,"kind_detail":"primary","ref":"N203","min_zoom":8.0},"arcs":[[462],[463],[464],[465],[466]]},{"type":"LineString","properties":{"bus_network":"Noord-Holland Noord","sort_rank":379,"kind_detail":"secondary","is_bicycle_related":true,"kind":"major_road","bicycle_shield_text":"LF7","bicycle_network":"ncn","source":"openstreetmap.org","min_zoom":8.0,"bus_shield_text":"6","ref":"N510"},"arcs":[467]},{"type":"MultiLineString","properties":{"kind":"highway","network":"e-road","sort_rank":383,"landuse_kind":"protected_area","source":"openstreetmap.org","min_zoom":8.0,"all_networks":["e-road"],"kind_detail":"motorway","shield_text":"22","ref":"A7","all_shield_texts":["22"]},"arcs":[[468],[469],[470]]},{"type":"MultiLineString","properties":{"bus_network":"Noord-Holland Noord","sort_rank":380,"kind_detail":"primary","kind":"major_road","source":"openstreetmap.org","min_zoom":8.0,"bus_shield_text":"129","landuse_kind":"urban_area","ref":"N235"},"arcs":[[471],[472]]},{"type":"LineString","properties":{"kind":"path","sort_rank":354,"kind_detail":"pedestrian","is_bicycle_related":true,"bicycle_shield_text":"EV12","bicycle_network":"icn","source":"openstreetmap.org","min_zoom":8.0,"id":365953318},"arcs":[473]},{"type":"MultiLineString","properties":{"bus_network":"Waterland","sort_rank":380,"kind_detail":"primary","kind":"major_road","source":"openstreetmap.org","min_zoom":8.0,"bus_shield_text":"110","ref":"N244"},"arcs":[[474],[475],[476],[477],[478],[479],[480],[481]]},{"type":"MultiLineString","properties":{"source":"openstreetmap.org","kind":"highway","sort_rank":383,"kind_detail":"motorway","ref":"A9","min_zoom":8.0},"arcs":[[482],[483]]},{"type":"MultiLineString","properties":{"kind":"major_road","sort_rank":380,"kind_detail":"primary","bus_network":"Zaanstreek","source":"openstreetmap.org","min_zoom":8.0,"bus_shield_text":"414","landuse_kind":"urban_area","ref":"N8;N203"},"arcs":[[484],[485]]},{"type":"MultiLineString","properties":{"bus_network":"Noord-Holland Noord","sort_rank":380,"kind_detail":"primary","kind":"major_road","source":"openstreetmap.org","min_zoom":8.0,"bus_shield_text":"123","ref":"N243"},"arcs":[[486],[487],[488],[489],[490]]},{"type":"LineString","properties":{"bus_network":"Noord-Holland Noord","sort_rank":381,"landuse_kind":"urban_area","kind":"major_road","source":"openstreetmap.org","min_zoom":8.0,"bus_shield_text":"250","kind_detail":"trunk","ref":"N242"},"arcs":[491]},{"type":"MultiLineString","properties":{"kind":"path","sort_rank":354,"landuse_kind":"residential","is_bicycle_related":true,"bicycle_shield_text":"LF7","bicycle_network":"ncn","source":"openstreetmap.org","min_zoom":8.0,"kind_detail":"pedestrian"},"arcs":[[492],[493]]},{"type":"LineString","properties":{"kind":"major_road","sort_rank":380,"kind_detail":"primary","bus_network":"Noord- en Zuidwest-Frysl\u00e2n en Schiermonnikoog","source":"openstreetmap.org","min_zoom":8.0,"bus_shield_text":"351","landuse_kind":"urban_area","ref":"N242","id":6611585},"arcs":[494]},{"type":"LineString","properties":{"kind":"major_road","sort_rank":380,"kind_detail":"primary","bus_network":"Noord-Holland Noord","source":"openstreetmap.org","min_zoom":8.0,"bus_shield_text":"417","id":502665503},"arcs":[495]},{"type":"MultiLineString","properties":{"source":"openstreetmap.org","kind":"major_road","landuse_kind":"urban_area","sort_rank":380,"kind_detail":"primary","ref":"N197","min_zoom":8.0},"arcs":[[496],[497],[498],[499],[500],[501],[502],[503]]},{"type":"MultiLineString","properties":{"kind":"minor_road","sort_rank":360,"kind_detail":"unclassified","is_bicycle_related":true,"bicycle_shield_text":"LF15","bicycle_network":"ncn","source":"openstreetmap.org","min_zoom":8.0},"arcs":[[504],[505],[506],[507],[508],[509],[510],[511],[512],[513]]},{"type":"MultiLineString","properties":{"bus_network":"Stadsvervoer Lelystad","sort_rank":380,"kind_detail":"primary","kind":"major_road","source":"openstreetmap.org","min_zoom":8.0,"bus_shield_text":"7","landuse_kind":"urban_area","ref":"N309"},"arcs":[[514],[515]]},{"type":"LineString","properties":{"kind":"major_road","sort_rank":381,"kind_detail":"trunk","bus_network":"Noord-Holland Noord","source":"openstreetmap.org","min_zoom":8.0,"bus_shield_text":"139","ref":"N302","id":6581432},"arcs":[516]},{"type":"LineString","properties":{"kind":"major_road","sort_rank":380,"kind_detail":"primary","is_bicycle_related":true,"bicycle_shield_text":null,"bicycle_network":"rcn","source":"openstreetmap.org","min_zoom":8.0,"ref":"N240"},"arcs":[517]},{"type":"LineString","properties":{"kind":"minor_road","sort_rank":358,"kind_detail":"service","is_bicycle_related":true,"bicycle_shield_text":"LF20","bicycle_network":"ncn","source":"openstreetmap.org","min_zoom":8.0,"id":139888903},"arcs":[518]},{"type":"MultiLineString","properties":{"bus_network":"Noord- en Zuidwest-Friesland en Schiermonnikoog","sort_rank":380,"kind_detail":"primary","kind":"major_road","source":"openstreetmap.org","min_zoom":8.0,"bus_shield_text":"75","ref":"N384"},"arcs":[[519],[520]]},{"type":"LineString","properties":{"kind":"major_road","sort_rank":377,"kind_detail":"tertiary","is_bicycle_related":true,"bicycle_shield_text":"LF15","cycleway":"lane","source":"openstreetmap.org","min_zoom":8.0,"landuse_kind":"urban_area","bicycle_network":"ncn","id":6580507},"arcs":[521]},{"type":"LineString","properties":{"bus_network":null,"sort_rank":377,"landuse_kind":"urban_area","is_bicycle_related":true,"kind":"major_road","bicycle_shield_text":"LF20","bicycle_network":"ncn","source":"openstreetmap.org","min_zoom":8.0,"bus_shield_text":"9","kind_detail":"tertiary"},"arcs":[522]},{"type":"LineString","properties":{"kind":"major_road","sort_rank":380,"kind_detail":"primary","bus_network":null,"source":"openstreetmap.org","min_zoom":8.0,"bus_shield_text":"9","id":290451047},"arcs":[523]},{"type":"MultiLineString","properties":{"kind":"minor_road","sort_rank":360,"landuse_kind":"protected_area","is_bicycle_related":true,"bicycle_shield_text":"LF10","bicycle_network":"ncn","source":"openstreetmap.org","min_zoom":8.0,"kind_detail":"unclassified"},"arcs":[[524],[525]]},{"type":"LineString","properties":{"bus_network":"Noord-Holland Noord","sort_rank":377,"kind_detail":"tertiary","is_bicycle_related":true,"kind":"major_road","bicycle_shield_text":"LF15","bicycle_network":"ncn","source":"openstreetmap.org","min_zoom":8.0,"bus_shield_text":"138","id":6572830},"arcs":[526]},{"type":"MultiLineString","properties":{"source":"openstreetmap.org","kind":"major_road","landuse_kind":"urban_area","sort_rank":380,"kind_detail":"primary","ref":"N244","min_zoom":8.0},"arcs":[[527],[528]]},{"type":"LineString","properties":{"kind":"minor_road","sort_rank":358,"kind_detail":"service","is_bicycle_related":true,"bicycle_shield_text":"LF22","bicycle_network":"ncn","source":"openstreetmap.org","min_zoom":8.0,"id":141504918},"arcs":[529]},{"type":"LineString","properties":{"kind":"major_road","sort_rank":377,"landuse_kind":"urban_area","is_bicycle_related":true,"bicycle_shield_text":"LF15","bicycle_network":"ncn","source":"openstreetmap.org","min_zoom":8.0,"kind_detail":"tertiary","cycleway":"opposite"},"arcs":[530]},{"type":"MultiLineString","properties":{"bus_network":"Stadsvervoer Lelystad","sort_rank":380,"kind_detail":"primary","kind":"major_road","source":"openstreetmap.org","min_zoom":8.0,"bus_shield_text":"3","landuse_kind":"urban_area","ref":"N309"},"arcs":[[531],[532],[533],[534],[535]]},{"type":"MultiLineString","properties":{"bus_network":"Noord- en Zuidwest-Friesland en Schiermonnikoog","sort_rank":381,"kind_detail":"trunk","kind":"major_road","source":"openstreetmap.org","min_zoom":8.0,"bus_shield_text":"192","ref":"N359"},"arcs":[[536],[537],[538],[539],[540]]},{"type":"LineString","properties":{"kind":"major_road","sort_rank":380,"kind_detail":"primary","bus_network":"IJsselmond","source":"openstreetmap.org","min_zoom":8.0,"bus_shield_text":"149","landuse_kind":"residential","ref":"N351"},"arcs":[541]},{"type":"MultiLineString","properties":{"bus_network":"Waterland","sort_rank":380,"kind_detail":"primary","kind":"major_road","source":"openstreetmap.org","min_zoom":8.0,"bus_shield_text":"N01","landuse_kind":"urban_area","ref":"N235"},"arcs":[[542],[543],[544],[545],[546],[547],[548]]},{"type":"MultiLineString","properties":{"kind":"minor_road","sort_rank":360,"landuse_kind":"urban_area","is_bicycle_related":true,"bicycle_shield_text":"LF15","bicycle_network":"ncn","source":"openstreetmap.org","min_zoom":8.0,"kind_detail":"unclassified"},"arcs":[[549],[550]]},{"type":"MultiLineString","properties":{"source":"openstreetmap.org","kind":"major_road","landuse_kind":"urban_area","sort_rank":380,"kind_detail":"primary","ref":"N241","min_zoom":8.0},"arcs":[[551],[552],[553],[554]]},{"type":"LineString","properties":{"kind":"minor_road","sort_rank":360,"kind_detail":"living_street","is_bicycle_related":true,"bicycle_shield_text":"LF15","bicycle_network":"ncn","source":"openstreetmap.org","min_zoom":8.0,"cycleway":"opposite"},"arcs":[555]},{"type":"MultiLineString","properties":{"bus_network":"Noord- en Zuidwest-Frysl\u00e2n en Schiermonnikoog","sort_rank":381,"kind_detail":"trunk","kind":"major_road","source":"openstreetmap.org","min_zoom":8.0,"bus_shield_text":"350","landuse_kind":"residential","ref":"N31"},"arcs":[[556],[557]]},{"type":"MultiLineString","properties":{"bus_network":"Waterland","sort_rank":380,"kind_detail":"primary","kind":"major_road","source":"openstreetmap.org","min_zoom":8.0,"bus_shield_text":"105","ref":"N244"},"arcs":[[558],[559]]},{"type":"MultiLineString","properties":{"source":"openstreetmap.org","kind":"major_road","landuse_kind":"urban_area","sort_rank":380,"kind_detail":"primary","ref":"N250","min_zoom":8.0},"arcs":[[560],[561],[562],[563],[564],[565],[566],[567],[568],[569],[570],[571],[572],[573],[574],[575],[576],[577],[578],[579],[580],[581],[582],[583]]},{"type":"LineString","properties":{"kind":"major_road","sort_rank":380,"kind_detail":"primary","bus_network":"Waterland","source":"openstreetmap.org","min_zoom":8.0,"bus_shield_text":"413","id":139259864},"arcs":[584]},{"type":"MultiLineString","properties":{"source":"openstreetmap.org","kind":"major_road","sort_rank":380,"kind_detail":"primary","ref":"N384","min_zoom":8.0},"arcs":[[585],[586]]},{"type":"MultiLineString","properties":{"kind":"minor_road","sort_rank":360,"kind_detail":"unclassified","is_bicycle_related":true,"bicycle_shield_text":"LF7","bicycle_network":"ncn","source":"openstreetmap.org","min_zoom":8.0},"arcs":[[587],[588],[589],[590],[591],[592],[593],[594]]},{"type":"MultiLineString","properties":{"source":"openstreetmap.org","kind":"major_road","landuse_kind":"residential","sort_rank":381,"kind_detail":"trunk","ref":"N245","min_zoom":8.0},"arcs":[[595],[596]]},{"type":"LineString","properties":{"bus_network":"Waterland","sort_rank":377,"kind_detail":"tertiary","is_bicycle_related":true,"kind":"major_road","bicycle_shield_text":"LF15","cycleway":"lane","source":"openstreetmap.org","min_zoom":8.0,"bus_shield_text":"N14","bicycle_network":"ncn"},"arcs":[597]},{"type":"MultiLineString","properties":{"kind":"minor_road","sort_rank":360,"kind_detail":"residential","is_bicycle_related":true,"bicycle_shield_text":"LF7","bicycle_network":"ncn","source":"openstreetmap.org","min_zoom":8.0,"landuse_kind":"urban_area","cycleway":"opposite"},"arcs":[[598],[599]]},{"type":"LineString","properties":{"kind":"major_road","sort_rank":380,"kind_detail":"primary","bus_network":"Noord-Holland Noord","source":"openstreetmap.org","min_zoom":8.0,"bus_shield_text":"151","landuse_kind":"urban_area","ref":"N9","id":6620071},"arcs":[600]},{"type":"MultiLineString","properties":{"bus_network":"Noord-Holland Noord","sort_rank":381,"landuse_kind":"urban_area","kind":"major_road","source":"openstreetmap.org","min_zoom":8.0,"bus_shield_text":"9","kind_detail":"trunk","ref":"N245"},"arcs":[[601],[602],[603],[604]]},{"type":"LineString","properties":{"source":"openstreetmap.org","kind":"major_road","sort_rank":380,"kind_detail":"primary","ref":"N393","min_zoom":8.0},"arcs":[605]},{"type":"LineString","properties":{"kind":"major_road","sort_rank":380,"kind_detail":"primary","is_bicycle_related":true,"bus_network":"Noord- en Zuidwest-Frysl\u00e2n en Schiermonnikoog","bicycle_shield_text":null,"cycleway":"lane","source":"openstreetmap.org","min_zoom":8.0,"bus_shield_text":"70","bicycle_network":"rcn","ref":"N393","id":6540531},"arcs":[606]},{"type":"MultiLineString","properties":{"bus_network":"Noord-Holland Noord","sort_rank":380,"kind_detail":"primary","kind":"major_road","source":"openstreetmap.org","min_zoom":8.0,"bus_shield_text":"167","ref":"N203"},"arcs":[[607],[608],[609]]},{"type":"MultiLineString","properties":{"bus_network":"Noord- en Zuidwest-Frysl\u00e2n en Schiermonnikoog","sort_rank":377,"kind_detail":"tertiary","is_bicycle_related":true,"kind":"major_road","bicycle_shield_text":"LF22","bicycle_network":"ncn","source":"openstreetmap.org","min_zoom":8.0,"bus_shield_text":"102"},"arcs":[[610],[611],[612]]},{"type":"LineString","properties":{"kind":"major_road","sort_rank":380,"kind_detail":"primary","bus_network":"Noord- en Zuidwest-Frysl\u00e2n en Schiermonnikoog","source":"openstreetmap.org","min_zoom":8.0,"bus_shield_text":"97","id":31874488},"arcs":[613]},{"type":"MultiLineString","properties":{"kind":"minor_road","sort_rank":360,"kind_detail":"unclassified","is_bicycle_related":true,"bicycle_shield_text":"EV12","bicycle_network":"icn","source":"openstreetmap.org","min_zoom":8.0},"arcs":[[614],[615],[616],[617],[618],[619],[620],[621],[622],[623],[624],[625],[626]]},{"type":"MultiLineString","properties":{"source":"openstreetmap.org","kind":"major_road","sort_rank":380,"kind_detail":"primary","ref":"N243","min_zoom":8.0},"arcs":[[627],[628],[629],[630],[631],[632],[633],[634],[635],[636]]},{"type":"LineString","properties":{"kind":"minor_road","sort_rank":360,"kind_detail":"living_street","is_bicycle_related":true,"bicycle_shield_text":"LF21","bicycle_network":"ncn","source":"openstreetmap.org","min_zoom":8.0,"cycleway":"opposite"},"arcs":[637]},{"type":"LineString","properties":{"kind":"major_road","sort_rank":380,"kind_detail":"primary","bus_network":"Noord-Holland Noord","source":"openstreetmap.org","min_zoom":8.0,"bus_shield_text":"606","id":6622575},"arcs":[638]},{"type":"MultiLineString","properties":{"bus_network":"Waterland","sort_rank":380,"kind_detail":"primary","kind":"major_road","source":"openstreetmap.org","min_zoom":8.0,"bus_shield_text":"110","ref":"N247"},"arcs":[[639],[640],[641],[642],[643],[644],[645]]},{"type":"LineString","properties":{"kind":"major_road","sort_rank":380,"kind_detail":"primary","bus_network":"IJsselmond","source":"openstreetmap.org","min_zoom":8.0,"bus_shield_text":"141","landuse_kind":"residential","ref":"N352","id":6546505},"arcs":[646]},{"type":"LineString","properties":{"kind":"major_road","sort_rank":377,"kind_detail":"tertiary","is_bicycle_related":true,"bicycle_shield_text":"LF15","bicycle_network":"ncn","source":"openstreetmap.org","min_zoom":8.0,"landuse_kind":"residential","id":6600903},"arcs":[647]},{"type":"LineString","properties":{"kind":"minor_road","sort_rank":360,"kind_detail":"unclassified","is_bicycle_related":true,"bicycle_shield_text":"LF20","bicycle_network":"ncn","source":"openstreetmap.org","min_zoom":8.0,"cycleway":"opposite","id":88795290},"arcs":[648]},{"type":"MultiLineString","properties":{"kind":"path","sort_rank":354,"landuse_kind":"urban_area","is_bicycle_related":true,"bicycle_shield_text":"LF7","bicycle_network":"ncn","source":"openstreetmap.org","min_zoom":8.0,"kind_detail":"footway"},"arcs":[[649],[650]]},{"type":"MultiLineString","properties":{"kind":"major_road","sort_rank":380,"kind_detail":"primary","bus_network":"Zaanstreek","source":"openstreetmap.org","min_zoom":8.0,"bus_shield_text":"414","ref":"N8;N203"},"arcs":[[651],[652]]},{"type":"LineString","properties":{"kind":"ferry","name":"Texel - Vlieland","sort_rank":355,"landuse_kind":"protected_area","is_bicycle_related":true,"source":"openstreetmap.org","min_zoom":8.0,"id":319918218},"arcs":[653]},{"type":"MultiLineString","properties":{"kind":"path","sort_rank":354,"landuse_kind":"urban_area","is_bicycle_related":true,"bicycle_shield_text":"LF21","bicycle_network":"ncn","source":"openstreetmap.org","min_zoom":8.0,"kind_detail":"cycleway"},"arcs":[[654],[655],[656],[657]]},{"type":"LineString","properties":{"kind":"major_road","sort_rank":377,"landuse_kind":"urban_area","is_bicycle_related":true,"bicycle_shield_text":"LF21","bicycle_network":"ncn","source":"openstreetmap.org","min_zoom":8.0,"kind_detail":"tertiary"},"arcs":[658]},{"type":"MultiLineString","properties":{"bus_network":"Noord-Holland Noord","sort_rank":380,"kind_detail":"primary","kind":"major_road","source":"openstreetmap.org","min_zoom":8.0,"bus_shield_text":"250","ref":"N242"},"arcs":[[659],[660]]},{"type":"MultiLineString","properties":{"bus_network":"Noord-Holland Noord","sort_rank":381,"landuse_kind":"urban_area","kind":"major_road","source":"openstreetmap.org","min_zoom":8.0,"bus_shield_text":"150","kind_detail":"trunk","ref":"N508"},"arcs":[[661],[662]]},{"type":"LineString","properties":{"kind":"minor_road","sort_rank":360,"kind_detail":"unclassified","is_bicycle_related":true,"bicycle_shield_text":"LF21","cycleway":"opposite","source":"openstreetmap.org","min_zoom":8.0,"landuse_kind":"urban_area","bicycle_network":"ncn","id":6571704},"arcs":[663]},{"type":"MultiLineString","properties":{"source":"openstreetmap.org","kind":"major_road","sort_rank":381,"kind_detail":"trunk","ref":"N245","min_zoom":8.0},"arcs":[[664],[665],[666],[667],[668]]},{"type":"MultiLineString","properties":{"source":"openstreetmap.org","kind":"highway","sort_rank":383,"kind_detail":"motorway","ref":"A6","min_zoom":8.0},"arcs":[[669],[670]]},{"type":"LineString","properties":{"source":"openstreetmap.org","kind":"major_road","sort_rank":380,"kind_detail":"primary","ref":"N246","min_zoom":8.0},"arcs":[671]},{"type":"LineString","properties":{"bus_network":"Waterland","sort_rank":380,"kind_detail":"primary","kind":"major_road","source":"openstreetmap.org","min_zoom":8.0,"bus_shield_text":"614","ref":"N243"},"arcs":[672]},{"type":"MultiLineString","properties":{"bus_network":"Noord-Holland Noord","sort_rank":380,"kind_detail":"primary","kind":"major_road","source":"openstreetmap.org","min_zoom":8.0,"bus_shield_text":"157","landuse_kind":"residential","ref":"N245"},"arcs":[[673],[674]]},{"type":"LineString","properties":{"bus_network":"Noord-Holland Noord","sort_rank":380,"kind_detail":"primary","kind":"major_road","source":"openstreetmap.org","min_zoom":8.0,"bus_shield_text":"636","ref":"N241"},"arcs":[675]},{"type":"MultiLineString","properties":{"bus_network":"Noord-Holland Noord","sort_rank":380,"kind_detail":"primary","kind":"major_road","source":"openstreetmap.org","min_zoom":8.0,"bus_shield_text":"150","landuse_kind":"urban_area"},"arcs":[[676],[677],[678]]},{"type":"MultiLineString","properties":{"bus_network":"Noord-Holland Noord","sort_rank":381,"landuse_kind":"urban_area","kind":"major_road","source":"openstreetmap.org","min_zoom":8.0,"bus_shield_text":"150","kind_detail":"trunk","ref":"N242"},"arcs":[[679],[680],[681],[682],[683],[684],[685]]},{"type":"MultiLineString","properties":{"kind":"path","sort_rank":354,"kind_detail":"cycleway","is_bicycle_related":true,"bicycle_shield_text":"LF7","bicycle_network":"ncn","source":"openstreetmap.org","min_zoom":8.0,"landuse_kind":"urban_area"},"arcs":[[686],[687],[688],[689],[690],[691],[692],[693],[694],[695],[696],[697],[698],[699],[700],[701]]},{"type":"LineString","properties":{"bus_network":null,"sort_rank":377,"kind_detail":"tertiary","is_bicycle_related":true,"kind":"major_road","bicycle_shield_text":"LF15","bicycle_network":"ncn","source":"openstreetmap.org","min_zoom":8.0,"bus_shield_text":"9"},"arcs":[702]},{"type":"MultiLineString","properties":{"bus_network":"Noord-Holland Noord","sort_rank":381,"landuse_kind":"urban_area","kind":"major_road","source":"openstreetmap.org","min_zoom":8.0,"bus_shield_text":"636","kind_detail":"trunk","ref":"N302"},"arcs":[[703],[704]]},{"type":"LineString","properties":{"kind":"major_road","sort_rank":380,"kind_detail":"primary","is_bicycle_related":true,"bus_network":"Noord- en Zuidwest-Frysl\u00e2n en Schiermonnikoog","bicycle_shield_text":"LF10","bicycle_network":"ncn","source":"openstreetmap.org","min_zoom":8.0,"bus_shield_text":"70","ref":"N393","id":6540532},"arcs":[705]},{"type":"MultiLineString","properties":{"source":"openstreetmap.org","kind":"major_road","sort_rank":381,"kind_detail":"trunk","ref":"N359","min_zoom":8.0},"arcs":[[706],[707],[708],[709],[710],[711],[712],[713],[714],[715],[716],[717],[718],[719]]},{"type":"MultiLineString","properties":{"kind":"minor_road","sort_rank":360,"kind_detail":"residential","is_bicycle_related":true,"bicycle_shield_text":"LF7","bicycle_network":"ncn","source":"openstreetmap.org","min_zoom":8.0,"landuse_kind":"urban_area"},"arcs":[[720],[721],[722],[723],[724],[725]]},{"type":"LineString","properties":{"source":"openstreetmap.org","kind":"ferry","name":"veer Den Helder-Texel","sort_rank":355,"is_bicycle_related":true,"min_zoom":8.0,"id":6639581},"arcs":[726]},{"type":"MultiLineString","properties":{"bus_network":"Noord- en Zuidwest-Frysl\u00e2n en Schiermonnikoog","sort_rank":381,"landuse_kind":"residential","kind":"major_road","source":"openstreetmap.org","min_zoom":8.0,"bus_shield_text":"97","kind_detail":"trunk","ref":"N31"},"arcs":[[727],[728]]},{"type":"LineString","properties":{"kind":"minor_road","sort_rank":360,"kind_detail":"living_street","is_bicycle_related":true,"bicycle_shield_text":"LF10","bicycle_network":"ncn","source":"openstreetmap.org","min_zoom":8.0,"landuse_kind":"residential","id":6566197},"arcs":[729]},{"type":"MultiLineString","properties":{"bus_network":"Noord- en Zuidwest-Frysl\u00e2n en Schiermonnikoog","sort_rank":377,"kind_detail":"tertiary","is_bicycle_related":true,"kind":"major_road","bicycle_shield_text":"LF22","bicycle_network":"ncn","source":"openstreetmap.org","min_zoom":8.0,"bus_shield_text":"44"},"arcs":[[730],[731]]},{"type":"MultiLineString","properties":{"bus_network":"Noord- en Zuidwest-Frysl\u00e2n en Schiermonnikoog","sort_rank":381,"kind_detail":"trunk","kind":"major_road","source":"openstreetmap.org","min_zoom":8.0,"bus_shield_text":"350","ref":"N31"},"arcs":[[732],[733],[734],[735],[736]]},{"type":"MultiLineString","properties":{"bus_network":"Noord-Holland Noord","sort_rank":377,"kind_detail":"tertiary","is_bicycle_related":true,"kind":"major_road","bicycle_shield_text":"LF7","bicycle_network":"ncn","source":"openstreetmap.org","min_zoom":8.0,"bus_shield_text":"155"},"arcs":[[737],[738]]},{"type":"LineString","properties":{"cycleway_right":"lane","sort_rank":379,"kind_detail":"secondary","is_bicycle_related":true,"kind":"major_road","bicycle_shield_text":"LF7","bicycle_network":"ncn","bus_network":"Zaanstreek","source":"openstreetmap.org","min_zoom":8.0,"bus_shield_text":"63","landuse_kind":"urban_area","id":323333439},"arcs":[739]},{"type":"MultiLineString","properties":{"kind":"minor_road","sort_rank":360,"landuse_kind":"residential","is_bicycle_related":true,"bicycle_shield_text":"LF20","bicycle_network":"ncn","source":"openstreetmap.org","min_zoom":8.0,"kind_detail":"unclassified"},"arcs":[[740],[741]]},{"type":"MultiLineString","properties":{"bus_network":"Noord- en Zuidwest-Frysl\u00e2n en Schiermonnikoog","sort_rank":381,"landuse_kind":"protected_area","kind":"major_road","source":"openstreetmap.org","min_zoom":8.0,"bus_shield_text":"71","kind_detail":"trunk","ref":"N31"},"arcs":[[742],[743]]},{"type":"MultiLineString","properties":{"bus_network":"Noord-Holland Noord","sort_rank":380,"kind_detail":"primary","kind":"major_road","source":"openstreetmap.org","min_zoom":8.0,"bus_shield_text":"139","ref":"N239"},"arcs":[[744],[745],[746],[747],[748]]},{"type":"MultiLineString","properties":{"kind":"minor_road","sort_rank":360,"landuse_kind":"urban_area","is_bicycle_related":true,"bicycle_shield_text":"LF7","bicycle_network":"ncn","source":"openstreetmap.org","min_zoom":8.0,"kind_detail":"unclassified"},"arcs":[[749],[750],[751],[752],[753],[754],[755],[756],[757],[758],[759],[760],[761],[762],[763],[764],[765],[766],[767]]},{"type":"MultiLineString","properties":{"kind":"minor_road","sort_rank":360,"kind_detail":"residential","is_bicycle_related":true,"bicycle_shield_text":"LF10","bicycle_network":"ncn","source":"openstreetmap.org","min_zoom":8.0},"arcs":[[768],[769],[770],[771],[772],[773]]},{"type":"LineString","properties":{"bus_network":"Waterland","sort_rank":381,"kind_detail":"trunk","kind":"major_road","source":"openstreetmap.org","min_zoom":8.0,"bus_shield_text":"301","ref":"N244"},"arcs":[774]},{"type":"MultiLineString","properties":{"source":"openstreetmap.org","kind":"major_road","landuse_kind":"urban_area","sort_rank":380,"kind_detail":"primary","ref":"N9","min_zoom":8.0},"arcs":[[775],[776],[777],[778],[779],[780],[781],[782]]},{"type":"LineString","properties":{"bus_network":"Noord-Holland Noord","sort_rank":380,"kind_detail":"primary","kind":"major_road","source":"openstreetmap.org","min_zoom":8.0,"bus_shield_text":"129","ref":"N243"},"arcs":[783]},{"type":"MultiLineString","properties":{"kind":"major_road","sort_rank":377,"landuse_kind":"urban_area","is_bicycle_related":true,"bicycle_shield_text":"LF7","bicycle_network":"ncn","source":"openstreetmap.org","min_zoom":8.0,"kind_detail":"tertiary"},"arcs":[[784],[785]]},{"type":"MultiLineString","properties":{"kind":"major_road","sort_rank":380,"kind_detail":"primary","bus_network":"IJsselmond","source":"openstreetmap.org","min_zoom":8.0,"bus_shield_text":"140","landuse_kind":"urban_area","ref":"N302"},"arcs":[[786],[787]]},{"type":"MultiLineString","properties":{"kind":"path","sort_rank":354,"kind_detail":"cycleway","is_bicycle_related":true,"bicycle_shield_text":"LF10","bicycle_network":"ncn","source":"openstreetmap.org","min_zoom":8.0},"arcs":[[788],[789],[790],[791],[792],[793],[794],[795],[796],[797],[798],[799],[800],[801],[802],[803]]},{"type":"LineString","properties":{"bus_network":"Waterland","sort_rank":380,"kind_detail":"primary","is_bicycle_related":true,"kind":"major_road","source":"openstreetmap.org","min_zoom":8.0,"bus_shield_text":"N01","landuse_kind":"urban_area","ref":"N235"},"arcs":[804]},{"type":"MultiLineString","properties":{"bus_network":"Noord-Holland Noord","sort_rank":377,"landuse_kind":"residential","is_bicycle_related":true,"kind":"major_road","bicycle_shield_text":"LF7","bicycle_network":"ncn","source":"openstreetmap.org","min_zoom":8.0,"bus_shield_text":"2","kind_detail":"tertiary"},"arcs":[[805],[806]]},{"type":"MultiLineString","properties":{"source":"openstreetmap.org","kind":"major_road","landuse_kind":"urban_area","sort_rank":380,"kind_detail":"primary","ref":"S152;N203","min_zoom":8.0},"arcs":[[807],[808],[809],[810],[811],[812],[813],[814]]},{"type":"MultiLineString","properties":{"bus_network":"Noord-Holland Noord","sort_rank":379,"kind_detail":"secondary","is_bicycle_related":true,"kind":"major_road","bicycle_shield_text":"EV12","bicycle_network":"icn","source":"openstreetmap.org","min_zoom":8.0,"bus_shield_text":"410"},"arcs":[[815],[816]]},{"type":"LineString","properties":{"kind":"ferry","name":"Veerdienst Den Helder - Texel","sort_rank":355,"landuse_kind":"urban_area","source":"openstreetmap.org","min_zoom":8.0,"ref":"Den Helder - Texel","id":-902970,"osm_relation":true},"arcs":[817]},{"type":"LineString","properties":{"kind":"minor_road","sort_rank":360,"landuse_kind":"residential","is_bicycle_related":true,"bicycle_shield_text":"LF20","bicycle_network":"ncn","source":"openstreetmap.org","min_zoom":8.0,"kind_detail":"residential"},"arcs":[818]},{"type":"LineString","properties":{"source":"openstreetmap.org","kind":"ferry","name":"Texel - Vlieland","sort_rank":355,"is_bicycle_related":true,"min_zoom":8.0,"id":319918218},"arcs":[819]},{"type":"MultiLineString","properties":{"bus_network":"Noord-Holland Noord","sort_rank":377,"landuse_kind":"urban_area","is_bicycle_related":true,"kind":"major_road","bicycle_shield_text":"LF15","bicycle_network":"ncn","source":"openstreetmap.org","min_zoom":8.0,"bus_shield_text":"138","kind_detail":"tertiary"},"arcs":[[820],[821],[822],[823]]},{"type":"MultiLineString","properties":{"source":"openstreetmap.org","kind":"major_road","landuse_kind":"residential","sort_rank":381,"kind_detail":"trunk","ref":"N9","min_zoom":8.0},"arcs":[[824],[825],[826],[827]]},{"type":"MultiLineString","properties":{"bus_network":"Noord-Holland Noord","sort_rank":380,"kind_detail":"primary","kind":"major_road","source":"openstreetmap.org","min_zoom":8.0,"bus_shield_text":"134","ref":"N240"},"arcs":[[828],[829],[830],[831],[832],[833],[834]]},{"type":"MultiLineString","properties":{"bus_network":"Noord- en Zuidwest-Frysl\u00e2n en Schiermonnikoog","sort_rank":377,"kind_detail":"tertiary","is_bicycle_related":true,"kind":"major_road","bicycle_shield_text":"LF22","bicycle_network":"ncn","source":"openstreetmap.org","min_zoom":8.0,"bus_shield_text":"103"},"arcs":[[835],[836]]},{"type":"MultiLineString","properties":{"bus_network":"Noord- en Zuidwest-Frysl\u00e2n en Schiermonnikoog","sort_rank":381,"kind_detail":"trunk","kind":"major_road","source":"openstreetmap.org","min_zoom":8.0,"bus_shield_text":"97","ref":"N31"},"arcs":[[837],[838]]},{"type":"MultiLineString","properties":{"bus_network":"Noord-Holland Noord","sort_rank":381,"landuse_kind":"urban_area","kind":"major_road","source":"openstreetmap.org","min_zoom":8.0,"bus_shield_text":"10","kind_detail":"trunk"},"arcs":[[839],[840]]},{"type":"LineString","properties":{"bus_network":"Noord- en Zuidwest-Frysl\u00e2n en Schiermonnikoog","sort_rank":377,"kind_detail":"tertiary","is_bicycle_related":true,"kind":"major_road","bicycle_shield_text":"LF22","bicycle_network":"ncn","source":"openstreetmap.org","min_zoom":8.0,"bus_shield_text":"96"},"arcs":[841]},{"type":"LineString","properties":{"bus_network":"Noord-Holland Noord","sort_rank":380,"kind_detail":"primary","kind":"major_road","source":"openstreetmap.org","min_zoom":8.0,"bus_shield_text":"653","ref":"N248"},"arcs":[842]},{"type":"MultiLineString","properties":{"bus_network":"Noord-Holland Noord","sort_rank":380,"kind_detail":"primary","kind":"major_road","source":"openstreetmap.org","min_zoom":8.0,"bus_shield_text":"150","ref":"N242"},"arcs":[[843],[844],[845],[846]]},{"type":"MultiLineString","properties":{"bus_network":"Noord-Holland Noord","sort_rank":380,"kind_detail":"primary","kind":"major_road","source":"openstreetmap.org","min_zoom":8.0,"bus_shield_text":"416","ref":"N240"},"arcs":[[847],[848]]},{"type":"MultiLineString","properties":{"kind":"major_road","sort_rank":377,"kind_detail":"tertiary","is_bicycle_related":true,"bicycle_shield_text":"LF22","bicycle_network":"ncn","source":"openstreetmap.org","min_zoom":8.0},"arcs":[[849],[850],[851],[852],[853],[854],[855]]},{"type":"LineString","properties":{"kind":"major_road","sort_rank":380,"kind_detail":"primary","bus_network":"Waterland","source":"openstreetmap.org","min_zoom":8.0,"bus_shield_text":"105","landuse_kind":"urban_area","ref":"N235","id":6592615},"arcs":[856]},{"type":"MultiLineString","properties":{"kind":"major_road","sort_rank":381,"landuse_kind":"urban_area","bus_network":"Zaanstreek","source":"openstreetmap.org","min_zoom":8.0,"bus_shield_text":"414","kind_detail":"trunk","ref":"N246"},"arcs":[[857],[858]]},{"type":"LineString","properties":{"source":"openstreetmap.org","kind":"major_road","sort_rank":381,"kind_detail":"trunk","ref":"N241","min_zoom":8.0},"arcs":[859]},{"type":"MultiLineString","properties":{"source":"openstreetmap.org","kind":"major_road","kind_detail":"trunk","sort_rank":381,"landuse_kind":"urban_area","ref":"N242","min_zoom":8.0},"arcs":[[860],[861],[862],[863],[864],[865],[866],[867],[868],[869],[870]]},{"type":"LineString","properties":{"kind":"major_road","sort_rank":377,"kind_detail":"tertiary","is_bicycle_related":true,"bus_network":"Noord-Holland Noord","bicycle_shield_text":"LF10","bicycle_network":"ncn","source":"openstreetmap.org","min_zoom":8.0,"bus_shield_text":"416","id":6616580},"arcs":[871]},{"type":"MultiLineString","properties":{"kind":"minor_road","sort_rank":360,"kind_detail":"unclassified","is_bicycle_related":true,"bicycle_shield_text":"LF21","bicycle_network":"ncn","source":"openstreetmap.org","min_zoom":8.0},"arcs":[[872],[873],[874],[875],[876],[877],[878],[879],[880],[881],[882],[883],[884],[885]]},{"type":"MultiLineString","properties":{"bus_network":"Noord-Holland Noord","sort_rank":381,"kind_detail":"trunk","kind":"major_road","source":"openstreetmap.org","min_zoom":8.0,"bus_shield_text":"135","ref":"N99"},"arcs":[[886],[887],[888]]},{"type":"LineString","properties":{"kind":"ferry","name":"Volendam-Marken","sort_rank":355,"is_bicycle_related":true,"bicycle_shield_text":null,"bicycle_network":"rcn","source":"openstreetmap.org","min_zoom":8.0,"id":92421159},"arcs":[889]},{"type":"MultiLineString","properties":{"source":"openstreetmap.org","kind":"major_road","landuse_kind":"residential","sort_rank":380,"kind_detail":"primary","ref":"N384","min_zoom":8.0},"arcs":[[890],[891],[892],[893]]},{"type":"MultiLineString","properties":{"bus_network":"Noord-Holland Noord","sort_rank":380,"kind_detail":"primary","kind":"major_road","source":"openstreetmap.org","min_zoom":8.0,"bus_shield_text":"134","ref":"N242"},"arcs":[[894],[895],[896]]},{"type":"LineString","properties":{"kind":"major_road","sort_rank":381,"kind_detail":"trunk","bus_network":"Zaanstreek","source":"openstreetmap.org","min_zoom":8.0,"bus_shield_text":"69","landuse_kind":"urban_area","id":6608557},"arcs":[897]},{"type":"MultiLineString","properties":{"bus_network":"Noord- en Zuidwest-Frysl\u00e2n en Schiermonnikoog","sort_rank":380,"kind_detail":"primary","kind":"major_road","source":"openstreetmap.org","min_zoom":8.0,"bus_shield_text":"350","ref":"N242"},"arcs":[[898],[899],[900]]},{"type":"LineString","properties":{"source":"openstreetmap.org","kind":"ferry","name":"Newcastle - IJmuiden","sort_rank":355,"min_zoom":8.0,"osm_relation":true,"id":-273886},"arcs":[901]},{"type":"MultiLineString","properties":{"bus_network":"Noord-Holland Noord","sort_rank":380,"kind_detail":"primary","kind":"major_road","source":"openstreetmap.org","min_zoom":8.0,"bus_shield_text":"652","landuse_kind":"residential","ref":"N245"},"arcs":[[902],[903],[904],[905],[906]]},{"type":"LineString","properties":{"kind":"ferry","name":"veer Den Helder-Texel","sort_rank":355,"landuse_kind":"protected_area","is_bicycle_related":true,"source":"openstreetmap.org","min_zoom":8.0,"id":6639581},"arcs":[907]},{"type":"MultiLineString","properties":{"bus_network":"Noord-Holland Noord","sort_rank":380,"kind_detail":"primary","kind":"major_road","source":"openstreetmap.org","min_zoom":8.0,"bus_shield_text":"123","landuse_kind":"urban_area","ref":"N243"},"arcs":[[908],[909]]},{"type":"LineString","properties":{"kind":"major_road","sort_rank":380,"kind_detail":"primary","bus_network":"IJsselmond","source":"openstreetmap.org","min_zoom":8.0,"bus_shield_text":"140","ref":"N307"},"arcs":[910]},{"type":"MultiLineString","properties":{"bus_network":"Noord- en Zuidwest-Friesland en Schiermonnikoog","sort_rank":380,"kind_detail":"primary","kind":"major_road","source":"openstreetmap.org","min_zoom":8.0,"bus_shield_text":"75","landuse_kind":"residential","ref":"N384"},"arcs":[[911],[912],[913],[914]]},{"type":"MultiLineString","properties":{"kind":"minor_road","sort_rank":360,"landuse_kind":"urban_area","is_bicycle_related":true,"bicycle_shield_text":"LF21","bicycle_network":"ncn","source":"openstreetmap.org","min_zoom":8.0,"kind_detail":"unclassified"},"arcs":[[915],[916],[917],[918],[919]]},{"type":"MultiLineString","properties":{"bus_network":"Noord- en Zuidwest-Frysl\u00e2n en Schiermonnikoog","sort_rank":381,"kind_detail":"trunk","kind":"major_road","source":"openstreetmap.org","min_zoom":8.0,"bus_shield_text":"350","ref":"N242"},"arcs":[[920],[921],[922],[923]]},{"type":"LineString","properties":{"sort_rank":355,"source":"openstreetmap.org","min_zoom":8.0,"name":"Veerdienst Zuiderzeemuseum","kind":"ferry"},"arcs":[924]},{"type":"LineString","properties":{"kind":"path","sort_rank":354,"kind_detail":"track","is_bicycle_related":true,"bicycle_shield_text":"LF10","bicycle_network":"ncn","source":"openstreetmap.org","min_zoom":8.0,"id":186341708},"arcs":[925]},{"type":"MultiLineString","properties":{"source":"openstreetmap.org","kind":"major_road","sort_rank":380,"kind_detail":"primary","ref":"N352","min_zoom":8.0},"arcs":[[926],[927],[928],[929]]},{"type":"LineString","properties":{"kind":"minor_road","sort_rank":360,"kind_detail":"residential","is_bicycle_related":true,"bicycle_shield_text":"LF20","bicycle_network":"ncn","source":"openstreetmap.org","min_zoom":8.0,"id":6546293},"arcs":[930]},{"type":"MultiLineString","properties":{"source":"openstreetmap.org","bus_network":"Noord- en Zuidwest-Friesland en Schiermonnikoog","bus_shield_text":"75","sort_rank":380,"kind_detail":"primary","min_zoom":8.0,"kind":"major_road"},"arcs":[[931],[932],[933]]},{"type":"MultiLineString","properties":{"source":"openstreetmap.org","kind":"major_road","sort_rank":380,"kind_detail":"primary","ref":"N240","min_zoom":8.0},"arcs":[[934],[935],[936],[937],[938],[939],[940],[941]]},{"type":"MultiLineString","properties":{"bus_network":"Noord- en Zuidwest-Friesland en Schiermonnikoog","sort_rank":381,"kind_detail":"trunk","kind":"major_road","source":"openstreetmap.org","min_zoom":8.0,"bus_shield_text":"92","ref":"N359"},"arcs":[[942],[943],[944],[945],[946],[947],[948],[949],[950],[951]]},{"type":"MultiLineString","properties":{"source":"openstreetmap.org","bus_network":"Noord-Holland Noord","bus_shield_text":"152","sort_rank":380,"kind_detail":"primary","min_zoom":8.0,"kind":"major_road"},"arcs":[[952],[953]]},{"type":"LineString","properties":{"kind":"major_road","sort_rank":380,"kind_detail":"primary","bus_network":"Noord-Holland Noord","source":"openstreetmap.org","min_zoom":8.0,"bus_shield_text":"134","ref":"N248","id":6583784},"arcs":[954]},{"type":"LineString","properties":{"bus_network":"Noord-Holland Noord","sort_rank":380,"kind_detail":"primary","kind":"major_road","source":"openstreetmap.org","min_zoom":8.0,"bus_shield_text":"415","ref":"N240"},"arcs":[955]},{"type":"MultiLineString","properties":{"kind":"path","sort_rank":354,"landuse_kind":"urban_area","is_bicycle_related":true,"bicycle_shield_text":"LF15","bicycle_network":"ncn","source":"openstreetmap.org","min_zoom":8.0,"kind_detail":"cycleway"},"arcs":[[956],[957],[958],[959]]},{"type":"LineString","properties":{"kind":"major_road","sort_rank":377,"landuse_kind":"urban_area","is_bicycle_related":true,"bus_network":"Zaanstreek","bicycle_shield_text":"LF7","bicycle_network":"ncn","source":"openstreetmap.org","min_zoom":8.0,"bus_shield_text":"69","kind_detail":"tertiary"},"arcs":[960]},{"type":"MultiLineString","properties":{"kind":"major_road","sort_rank":377,"kind_detail":"tertiary","is_bicycle_related":true,"bicycle_shield_text":"LF21","bicycle_network":"ncn","source":"openstreetmap.org","min_zoom":8.0},"arcs":[[961],[962],[963],[964],[965],[966]]},{"type":"MultiLineString","properties":{"source":"openstreetmap.org","kind":"major_road","kind_detail":"trunk","sort_rank":381,"landuse_kind":"urban_area","ref":"N8;N246","min_zoom":8.0},"arcs":[[967],[968]]},{"type":"MultiLineString","properties":{"bus_network":"Noord-Holland Noord","sort_rank":380,"kind_detail":"primary","kind":"major_road","source":"openstreetmap.org","min_zoom":8.0,"bus_shield_text":"123","ref":"N244"},"arcs":[[969],[970],[971],[972],[973],[974],[975],[976],[977],[978]]},{"type":"LineString","properties":{"bus_network":"Noord-Holland Noord","sort_rank":379,"landuse_kind":"residential","is_bicycle_related":true,"kind":"major_road","bicycle_shield_text":"LF7","cycleway":"lane","source":"openstreetmap.org","min_zoom":8.0,"bus_shield_text":"1","kind_detail":"secondary","bicycle_network":"ncn"},"arcs":[979]},{"type":"LineString","properties":{"kind":"minor_road","sort_rank":360,"kind_detail":"residential","is_bicycle_related":true,"bicycle_shield_text":"LF15","bicycle_network":"ncn","source":"openstreetmap.org","min_zoom":8.0,"landuse_kind":"residential","id":4838049},"arcs":[980]},{"type":"MultiLineString","properties":{"kind":"minor_road","sort_rank":358,"landuse_kind":"urban_area","is_bicycle_related":true,"bicycle_shield_text":"LF7","bicycle_network":"ncn","source":"openstreetmap.org","min_zoom":8.0,"kind_detail":"service"},"arcs":[[981],[982]]},{"type":"MultiLineString","properties":{"source":"openstreetmap.org","kind":"major_road","sort_rank":380,"kind_detail":"primary","ref":"N249","min_zoom":8.0},"arcs":[[983],[984],[985],[986],[987],[988],[989],[990],[991],[992],[993],[994]]},{"type":"MultiLineString","properties":{"bus_network":"Waterland","sort_rank":380,"kind_detail":"primary","kind":"major_road","source":"openstreetmap.org","min_zoom":8.0,"bus_shield_text":"301","landuse_kind":"urban_area","ref":"N244"},"arcs":[[995],[996],[997]]},{"type":"MultiLineString","properties":{"kind":"minor_road","sort_rank":360,"kind_detail":"residential","is_bicycle_related":true,"bicycle_shield_text":"EV12","bicycle_network":"icn","source":"openstreetmap.org","min_zoom":8.0},"arcs":[[998],[999],[1000],[1001],[1002],[1003]]},{"type":"LineString","properties":{"kind":"major_road","sort_rank":380,"kind_detail":"primary","bus_network":"Noord- en Zuidwest-Frysl\u00e2n en Schiermonnikoog","source":"openstreetmap.org","min_zoom":8.0,"bus_shield_text":"97","ref":"N390","id":6564809},"arcs":[1004]},{"type":"MultiLineString","properties":{"bus_network":"Waterland","sort_rank":380,"kind_detail":"primary","kind":"major_road","source":"openstreetmap.org","min_zoom":8.0,"bus_shield_text":"314","ref":"N247"},"arcs":[[1005],[1006],[1007],[1008]]},{"type":"MultiLineString","properties":{"source":"openstreetmap.org","kind":"major_road","sort_rank":380,"kind_detail":"primary","ref":"N245","min_zoom":8.0},"arcs":[[1009],[1010],[1011],[1012],[1013]]},{"type":"MultiLineString","properties":{"bus_network":"Noord-Holland Noord","sort_rank":380,"kind_detail":"primary","kind":"major_road","source":"openstreetmap.org","min_zoom":8.0,"bus_shield_text":"10","landuse_kind":"urban_area"},"arcs":[[1014],[1015]]},{"type":"MultiLineString","properties":{"source":"openstreetmap.org","bus_network":"Noord-Holland Noord","bus_shield_text":"650","sort_rank":380,"kind_detail":"primary","min_zoom":8.0,"kind":"major_road"},"arcs":[[1016],[1017],[1018]]},{"type":"LineString","properties":{"source":"openstreetmap.org","kind":"ferry","name":"Veerboot Enkhuizen - Stavoren","sort_rank":355,"is_bicycle_related":true,"min_zoom":8.0,"id":146810803},"arcs":[1019]},{"type":"MultiLineString","properties":{"kind":"major_road","sort_rank":380,"kind_detail":"primary","bus_network":"IJsselmond","source":"openstreetmap.org","min_zoom":8.0,"bus_shield_text":"163","ref":"N309"},"arcs":[[1020],[1021],[1022]]},{"type":"LineString","properties":{"kind":"major_road","sort_rank":381,"kind_detail":"trunk","bus_network":"Noord- en Zuidwest-Frysl\u00e2n en Schiermonnikoog","source":"openstreetmap.org","min_zoom":8.0,"bus_shield_text":"45","ref":"N359","id":428471111},"arcs":[1023]},{"type":"MultiLineString","properties":{"bus_network":"Noord-Holland Noord","sort_rank":380,"kind_detail":"primary","kind":"major_road","source":"openstreetmap.org","min_zoom":8.0,"bus_shield_text":"652","ref":"N245"},"arcs":[[1024],[1025]]},{"type":"LineString","properties":{"kind":"major_road","sort_rank":380,"kind_detail":"primary","bus_network":"Noord-Holland Noord","source":"openstreetmap.org","min_zoom":8.0,"bus_shield_text":"135","ref":"N242","id":464431598},"arcs":[1026]},{"type":"MultiLineString","properties":{"kind":"major_road","sort_rank":377,"kind_detail":"tertiary","is_bicycle_related":true,"bicycle_shield_text":"LF15","cycleway":"lane","source":"openstreetmap.org","min_zoom":8.0,"bicycle_network":"ncn"},"arcs":[[1027],[1028],[1029]]},{"type":"MultiLineString","properties":{"bus_network":"Noord- en Zuidwest-Frysl\u00e2n en Schiermonnikoog","sort_rank":380,"kind_detail":"primary","kind":"major_road","source":"openstreetmap.org","min_zoom":8.0,"bus_shield_text":"45","ref":"N928"},"arcs":[[1030],[1031],[1032],[1033]]},{"type":"MultiLineString","properties":{"source":"openstreetmap.org","bus_network":"Noord- en Zuidwest-Frysl\u00e2n en Schiermonnikoog","bus_shield_text":"44","sort_rank":381,"kind_detail":"trunk","min_zoom":8.0,"kind":"major_road"},"arcs":[[1034],[1035],[1036]]},{"type":"LineString","properties":{"kind":"major_road","sort_rank":380,"kind_detail":"primary","bus_network":"Noord-Holland Noord","source":"openstreetmap.org","min_zoom":8.0,"bus_shield_text":"150","landuse_kind":"urban_area","ref":"N241","id":6615102},"arcs":[1037]},{"type":"MultiLineString","properties":{"source":"openstreetmap.org","kind":"major_road","sort_rank":380,"kind_detail":"primary","ref":"N239","min_zoom":8.0},"arcs":[[1038],[1039],[1040],[1041],[1042],[1043],[1044]]},{"type":"MultiLineString","properties":{"bus_network":"Noord- en Zuidwest-Frysl\u00e2n en Schiermonnikoog","sort_rank":380,"kind_detail":"primary","kind":"major_road","source":"openstreetmap.org","min_zoom":8.0,"bus_shield_text":"97","ref":"N384"},"arcs":[[1045],[1046]]},{"type":"LineString","properties":{"bus_network":"Noord- en Zuidwest-Frysl\u00e2n en Schiermonnikoog","sort_rank":381,"landuse_kind":"urban_area","kind":"major_road","source":"openstreetmap.org","min_zoom":8.0,"bus_shield_text":"350","kind_detail":"trunk","ref":"N242"},"arcs":[1047]},{"type":"MultiLineString","properties":{"bus_network":"Noord- en Zuidwest-Frysl\u00e2n en Schiermonnikoog","sort_rank":381,"kind_detail":"trunk","kind":"major_road","source":"openstreetmap.org","min_zoom":8.0,"bus_shield_text":"47","ref":"N359"},"arcs":[[1048],[1049],[1050]]},{"type":"LineString","properties":{"source":"openstreetmap.org","bus_network":"Noord-Holland Noord","bus_shield_text":"250","sort_rank":380,"kind_detail":"primary","min_zoom":8.0,"kind":"major_road"},"arcs":[1051]},{"type":"LineString","properties":{"kind":"major_road","sort_rank":377,"kind_detail":"tertiary","is_bicycle_related":true,"bus_network":"Noord-Holland Noord","bicycle_shield_text":"LF7","cycleway":"lane","source":"openstreetmap.org","min_zoom":8.0,"bus_shield_text":"410","bicycle_network":"ncn","id":6624962},"arcs":[1052]},{"type":"LineString","properties":{"kind":"major_road","sort_rank":380,"kind_detail":"primary","bus_network":"Stadsvervoer Lelystad","source":"openstreetmap.org","min_zoom":8.0,"bus_shield_text":"612","landuse_kind":"urban_area","ref":"N309","id":280852791},"arcs":[1053]},{"type":"LineString","properties":{"kind":"major_road","sort_rank":377,"kind_detail":"tertiary","is_bicycle_related":true,"bus_network":"Noord-Holland Noord","bicycle_shield_text":"LF7","cycleway":"lane","source":"openstreetmap.org","min_zoom":8.0,"bus_shield_text":"155","bicycle_network":"ncn","id":68452166},"arcs":[1054]},{"type":"LineString","properties":{"kind":"major_road","sort_rank":380,"kind_detail":"primary","bus_network":"IJsselmond","source":"openstreetmap.org","min_zoom":8.0,"bus_shield_text":"149","ref":"N352","id":64388493},"arcs":[1055]},{"type":"MultiLineString","properties":{"bus_network":"Waterland","sort_rank":380,"kind_detail":"primary","kind":"major_road","source":"openstreetmap.org","min_zoom":8.0,"bus_shield_text":"614","ref":"N247"},"arcs":[[1056],[1057],[1058]]},{"type":"MultiLineString","properties":{"source":"openstreetmap.org","kind":"major_road","landuse_kind":"urban_area","sort_rank":380,"kind_detail":"primary","ref":"N235","min_zoom":8.0},"arcs":[[1059],[1060]]},{"type":"LineString","properties":{"bus_network":"Noord- en Zuidwest-Frysl\u00e2n en Schiermonnikoog","sort_rank":380,"kind_detail":"primary","kind":"major_road","source":"openstreetmap.org","min_zoom":8.0,"bus_shield_text":"47","ref":"N928"},"arcs":[1061]},{"type":"LineString","properties":{"kind":"minor_road","sort_rank":360,"kind_detail":"unclassified","is_bicycle_related":true,"bicycle_shield_text":"LF15","cycleway":"lane","source":"openstreetmap.org","min_zoom":8.0,"landuse_kind":"urban_area","bicycle_network":"ncn","id":6617525},"arcs":[1062]},{"type":"LineString","properties":{"bus_network":"Noord-Holland Noord","sort_rank":377,"landuse_kind":"residential","is_bicycle_related":true,"kind":"major_road","bicycle_shield_text":"LF15","bicycle_network":"ncn","source":"openstreetmap.org","min_zoom":8.0,"bus_shield_text":"10","kind_detail":"tertiary"},"arcs":[1063]},{"type":"MultiLineString","properties":{"kind":"path","sort_rank":354,"landuse_kind":"urban_area","is_bicycle_related":true,"bicycle_shield_text":"EV12","bicycle_network":"icn","source":"openstreetmap.org","min_zoom":8.0,"kind_detail":"cycleway"},"arcs":[[1064],[1065],[1066],[1067],[1068],[1069],[1070],[1071],[1072]]},{"type":"LineString","properties":{"source":"openstreetmap.org","kind":"major_road","landuse_kind":"urban_area","sort_rank":381,"kind_detail":"trunk","min_zoom":8.0,"id":313484462},"arcs":[1073]},{"type":"MultiLineString","properties":{"bus_network":"Noord-Holland Noord","sort_rank":380,"kind_detail":"primary","kind":"major_road","source":"openstreetmap.org","min_zoom":8.0,"bus_shield_text":"167","landuse_kind":"urban_area","ref":"N203"},"arcs":[[1074],[1075],[1076],[1077],[1078],[1079],[1080],[1081],[1082],[1083],[1084],[1085],[1086],[1087]]},{"type":"LineString","properties":{"sort_rank":355,"source":"openstreetmap.org","min_zoom":8.0,"name":"Newcastle - IJmuiden","kind":"ferry"},"arcs":[1088]},{"type":"LineString","properties":{"kind":"path","sort_rank":354,"kind_detail":"track","is_bicycle_related":true,"bicycle_shield_text":"LF7","bicycle_network":"ncn","source":"openstreetmap.org","min_zoom":8.0,"landuse_kind":"urban_area","id":33291566},"arcs":[1089]},{"type":"MultiLineString","properties":{"source":"openstreetmap.org","kind":"major_road","sort_rank":381,"kind_detail":"trunk","ref":"N242","min_zoom":8.0},"arcs":[[1090],[1091],[1092],[1093],[1094],[1095],[1096]]},{"type":"LineString","properties":{"bus_network":"Noord-Holland Noord","sort_rank":377,"kind_detail":"tertiary","is_bicycle_related":true,"kind":"major_road","bicycle_shield_text":"LF15","bicycle_network":"ncn","source":"openstreetmap.org","min_zoom":8.0,"bus_shield_text":"650","id":6572096},"arcs":[1097]},{"type":"MultiLineString","properties":{"source":"openstreetmap.org","kind":"ferry","name":"Beurtveer Heeg - Balk","sort_rank":355,"is_bicycle_related":true,"min_zoom":8.0},"arcs":[[1098],[1099]]},{"type":"LineString","properties":{"source":"openstreetmap.org","kind":"ferry","name":"Veerboot Enkhuizen - Urk","sort_rank":355,"is_bicycle_related":true,"min_zoom":8.0,"id":530239366},"arcs":[1100]},{"type":"LineString","properties":{"kind":"minor_road","sort_rank":360,"kind_detail":"unclassified","is_bicycle_related":true,"bicycle_shield_text":"LF10","cycleway":"lane","source":"openstreetmap.org","min_zoom":8.0,"bicycle_network":"ncn","id":357888463},"arcs":[1101]},{"type":"MultiLineString","properties":{"source":"openstreetmap.org","kind":"major_road","landuse_kind":"residential","sort_rank":381,"kind_detail":"trunk","ref":"N508","min_zoom":8.0},"arcs":[[1102],[1103],[1104]]},{"type":"MultiLineString","properties":{"source":"openstreetmap.org","kind":"major_road","landuse_kind":"residential","sort_rank":380,"kind_detail":"primary","min_zoom":8.0},"arcs":[[1105],[1106]]},{"type":"LineString","properties":{"kind":"minor_road","sort_rank":360,"kind_detail":"residential","is_bicycle_related":true,"bicycle_shield_text":"LF21","bicycle_network":"ncn","source":"openstreetmap.org","min_zoom":8.0,"cycleway":"opposite"},"arcs":[1107]},{"type":"LineString","properties":{"kind":"minor_road","sort_rank":358,"kind_detail":"service","is_bicycle_related":true,"bicycle_shield_text":"LF21","bicycle_network":"ncn","source":"openstreetmap.org","min_zoom":8.0,"landuse_kind":"urban_area","id":54514369},"arcs":[1108]},{"type":"LineString","properties":{"source":"openstreetmap.org","kind":"major_road","landuse_kind":"urban_area","sort_rank":380,"kind_detail":"primary","ref":"N242","min_zoom":8.0},"arcs":[1109]},{"type":"MultiLineString","properties":{"kind":"path","sort_rank":354,"landuse_kind":"residential","is_bicycle_related":true,"bicycle_shield_text":"LF15","bicycle_network":"ncn","source":"openstreetmap.org","min_zoom":8.0,"kind_detail":"cycleway"},"arcs":[[1110],[1111]]},{"type":"LineString","properties":{"bus_network":"Waterland","sort_rank":380,"kind_detail":"primary","is_bicycle_related":true,"kind":"major_road","bicycle_shield_text":null,"cycleway":"opposite_lane","source":"openstreetmap.org","min_zoom":8.0,"bus_shield_text":"N01","landuse_kind":"urban_area","bicycle_network":"rcn"},"arcs":[1112]},{"type":"MultiLineString","properties":{"kind":"major_road","sort_rank":380,"kind_detail":"primary","bus_network":"IJsselmond","source":"openstreetmap.org","min_zoom":8.0,"bus_shield_text":"140","ref":"N302"},"arcs":[[1113],[1114]]},{"type":"MultiLineString","properties":{"kind":"path","sort_rank":354,"landuse_kind":"urban_area","is_bicycle_related":true,"bicycle_shield_text":"LF7","bicycle_network":"ncn","source":"openstreetmap.org","min_zoom":8.0,"kind_detail":"path"},"arcs":[[1115],[1116]]},{"type":"MultiLineString","properties":{"kind":"minor_road","sort_rank":360,"kind_detail":"unclassified","is_bicycle_related":true,"bicycle_shield_text":"EV12","bicycle_network":"icn","source":"openstreetmap.org","min_zoom":8.0,"landuse_kind":"urban_area"},"arcs":[[1117],[1118],[1119],[1120]]},{"type":"LineString","properties":{"kind":"minor_road","sort_rank":360,"kind_detail":"unclassified","is_bicycle_related":true,"bicycle_shield_text":"LF21","cycleway":"opposite","source":"openstreetmap.org","min_zoom":8.0,"bicycle_network":"ncn","id":6571704},"arcs":[1121]},{"type":"MultiLineString","properties":{"kind":"path","sort_rank":354,"landuse_kind":"residential","is_bicycle_related":true,"bicycle_shield_text":"EV12","bicycle_network":"icn","source":"openstreetmap.org","min_zoom":8.0,"kind_detail":"cycleway"},"arcs":[[1122],[1123]]},{"type":"LineString","properties":{"kind":"major_road","network":"e-road","sort_rank":381,"kind_detail":"trunk","bus_network":"Noord- en Zuidwest-Frysl\u00e2n en Schiermonnikoog","source":"openstreetmap.org","min_zoom":8.0,"bus_shield_text":"335","shield_text":"22","ref":"A7","id":83127937},"arcs":[1124]},{"type":"MultiLineString","properties":{"kind":"minor_road","sort_rank":360,"kind_detail":"unclassified","is_bicycle_related":true,"bicycle_shield_text":"LF10","bicycle_network":"ncn","source":"openstreetmap.org","min_zoom":8.0},"arcs":[[1125],[1126],[1127],[1128],[1129],[1130],[1131],[1132],[1133],[1134],[1135],[1136],[1137],[1138],[1139],[1140],[1141],[1142],[1143],[1144]]},{"type":"LineString","properties":{"kind":"major_road","sort_rank":377,"kind_detail":"tertiary","is_bicycle_related":true,"bus_network":"Waterland","bicycle_shield_text":"LF21","bicycle_network":"ncn","source":"openstreetmap.org","min_zoom":8.0,"bus_shield_text":"N10","id":6587204},"arcs":[1145]},{"type":"MultiLineString","properties":{"source":"openstreetmap.org","kind":"highway","landuse_kind":"urban_area","sort_rank":383,"kind_detail":"motorway","ref":"A22","min_zoom":8.0},"arcs":[[1146],[1147]]},{"type":"MultiLineString","properties":{"bus_network":null,"sort_rank":380,"kind_detail":"primary","kind":"major_road","source":"openstreetmap.org","min_zoom":8.0,"bus_shield_text":"373","ref":"N247"},"arcs":[[1148],[1149]]},{"type":"MultiLineString","properties":{"bus_network":"Noord-Holland Noord","sort_rank":380,"kind_detail":"primary","kind":"major_road","source":"openstreetmap.org","min_zoom":8.0,"bus_shield_text":"163","landuse_kind":"residential"},"arcs":[[1150],[1151]]},{"type":"LineString","properties":{"kind":"minor_road","sort_rank":360,"kind_detail":"unclassified","is_bicycle_related":true,"bicycle_shield_text":"LF21","cycleway":"opposite","source":"openstreetmap.org","min_zoom":8.0,"landuse_kind":"residential","bicycle_network":"ncn","id":136655418},"arcs":[1152]},{"type":"LineString","properties":{"bus_network":"Waterland","sort_rank":377,"kind_detail":"tertiary","is_bicycle_related":true,"kind":"major_road","bicycle_shield_text":"LF15","bicycle_network":"ncn","source":"openstreetmap.org","min_zoom":8.0,"bus_shield_text":"413"},"arcs":[1153]},{"type":"MultiLineString","properties":{"bus_network":"Noord-Holland Noord","sort_rank":380,"kind_detail":"primary","kind":"major_road","source":"openstreetmap.org","min_zoom":8.0,"bus_shield_text":"157","ref":"N245"},"arcs":[[1154],[1155],[1156],[1157],[1158]]},{"type":"MultiLineString","properties":{"kind":"minor_road","sort_rank":360,"landuse_kind":"urban_area","is_bicycle_related":true,"bicycle_shield_text":"EV12","bicycle_network":"icn","source":"openstreetmap.org","min_zoom":8.0,"kind_detail":"residential"},"arcs":[[1159],[1160],[1161],[1162]]},{"type":"MultiLineString","properties":{"bus_network":"Noord- en Zuidwest-Frysl\u00e2n en Schiermonnikoog","sort_rank":380,"kind_detail":"primary","kind":"major_road","source":"openstreetmap.org","min_zoom":8.0,"bus_shield_text":"35","ref":"N384"},"arcs":[[1163],[1164]]},{"type":"LineString","properties":{"bus_network":"Waterland","sort_rank":377,"kind_detail":"tertiary","is_bicycle_related":true,"kind":"major_road","bicycle_shield_text":"LF21","cycleway":"lane","source":"openstreetmap.org","min_zoom":8.0,"bus_shield_text":"N10","bicycle_network":"ncn"},"arcs":[1165]},{"type":"LineString","properties":{"bus_network":"Noord-Holland Noord","sort_rank":380,"kind_detail":"primary","kind":"major_road","source":"openstreetmap.org","min_zoom":8.0,"bus_shield_text":"139","ref":"N240"},"arcs":[1166]},{"type":"MultiLineString","properties":{"kind":"minor_road","sort_rank":360,"kind_detail":"residential","is_bicycle_related":true,"bicycle_shield_text":"LF21","bicycle_network":"ncn","source":"openstreetmap.org","min_zoom":8.0},"arcs":[[1167],[1168],[1169],[1170],[1171]]},{"type":"MultiLineString","properties":{"kind":"minor_road","sort_rank":360,"landuse_kind":"residential","is_bicycle_related":true,"bicycle_shield_text":"LF7","bicycle_network":"ncn","source":"openstreetmap.org","min_zoom":8.0,"kind_detail":"unclassified"},"arcs":[[1172],[1173],[1174],[1175],[1176],[1177],[1178],[1179],[1180],[1181],[1182]]},{"type":"MultiLineString","properties":{"source":"openstreetmap.org","kind":"major_road","sort_rank":380,"kind_detail":"primary","ref":"N99","min_zoom":8.0},"arcs":[[1183],[1184],[1185]]},{"type":"LineString","properties":{"kind":"major_road","sort_rank":380,"kind_detail":"primary","bus_network":"Zaanstreek","source":"openstreetmap.org","min_zoom":8.0,"bus_shield_text":"63","landuse_kind":"urban_area","id":449959744},"arcs":[1186]},{"type":"LineString","properties":{"source":"openstreetmap.org","kind":"ferry","name":"Veerdienst Texel - Vlieland","sort_rank":355,"min_zoom":8.0,"osm_relation":true,"id":-4450274},"arcs":[1187]},{"type":"MultiLineString","properties":{"bus_network":"Noord-Holland Noord","sort_rank":380,"kind_detail":"primary","kind":"major_road","source":"openstreetmap.org","min_zoom":8.0,"bus_shield_text":"135","landuse_kind":"urban_area","ref":"N250"},"arcs":[[1188],[1189],[1190],[1191],[1192]]},{"type":"MultiLineString","properties":{"kind":"major_road","network":"e-road","sort_rank":381,"kind_detail":"trunk","source":"openstreetmap.org","min_zoom":8.0,"shield_text":"22","ref":"N7"},"arcs":[[1193],[1194]]},{"type":"MultiLineString","properties":{"bus_network":"Noord-Holland Noord","sort_rank":380,"kind_detail":"primary","kind":"major_road","source":"openstreetmap.org","min_zoom":8.0,"bus_shield_text":"152","ref":"N248"},"arcs":[[1195],[1196]]},{"type":"LineString","properties":{"source":"openstreetmap.org","kind":"ferry","name":"Harlingen - Oost-Vlieland","sort_rank":355,"is_bicycle_related":true,"min_zoom":8.0,"id":126985343},"arcs":[1197]},{"type":"LineString","properties":{"kind":"minor_road","sort_rank":360,"landuse_kind":"residential","is_bicycle_related":true,"bicycle_shield_text":"LF21","bicycle_network":"ncn","source":"openstreetmap.org","min_zoom":8.0,"kind_detail":"residential","cycleway":"opposite"},"arcs":[1198]},{"type":"MultiLineString","properties":{"source":"openstreetmap.org","kind":"major_road","sort_rank":380,"kind_detail":"primary","ref":"N235","min_zoom":8.0},"arcs":[[1199],[1200],[1201]]},{"type":"MultiLineString","properties":{"kind":"major_road","sort_rank":380,"kind_detail":"primary","bus_network":"Zaanstreek","source":"openstreetmap.org","min_zoom":8.0,"bus_shield_text":"67","landuse_kind":"urban_area","ref":"S152;N203"},"arcs":[[1202],[1203]]},{"type":"LineString","properties":{"bus_network":"Noord-Holland Noord","sort_rank":380,"kind_detail":"primary","kind":"major_road","source":"openstreetmap.org","min_zoom":8.0,"bus_shield_text":"417","ref":"N241"},"arcs":[1204]},{"type":"LineString","properties":{"source":"openstreetmap.org","kind":"major_road","sort_rank":380,"kind_detail":"primary","ref":"N248","min_zoom":8.0,"id":6616590},"arcs":[1205]},{"type":"MultiLineString","properties":{"source":"openstreetmap.org","kind":"major_road","landuse_kind":"residential","sort_rank":380,"kind_detail":"primary","ref":"N250","min_zoom":8.0},"arcs":[[1206],[1207],[1208],[1209]]},{"type":"MultiLineString","properties":{"kind":"major_road","sort_rank":377,"kind_detail":"tertiary","is_bicycle_related":true,"bicycle_shield_text":"LF20","bicycle_network":"ncn","source":"openstreetmap.org","min_zoom":8.0},"arcs":[[1210],[1211],[1212],[1213],[1214]]},{"type":"MultiLineString","properties":{"source":"openstreetmap.org","kind":"major_road","sort_rank":380,"kind_detail":"primary","ref":"N247","min_zoom":8.0},"arcs":[[1215],[1216],[1217],[1218]]},{"type":"LineString","properties":{"kind":"path","sort_rank":354,"kind_detail":"path","is_bicycle_related":true,"bicycle_shield_text":"LF21","bicycle_network":"ncn","source":"openstreetmap.org","min_zoom":8.0,"landuse_kind":"urban_area","id":53507133},"arcs":[1219]},{"type":"MultiLineString","properties":{"kind":"minor_road","sort_rank":360,"kind_detail":"unclassified","is_bicycle_related":true,"bicycle_shield_text":"LF20","bicycle_network":"ncn","source":"openstreetmap.org","min_zoom":8.0},"arcs":[[1220],[1221],[1222],[1223],[1224],[1225],[1226]]},{"type":"LineString","properties":{"source":"openstreetmap.org","kind":"major_road","sort_rank":380,"kind_detail":"primary","ref":"N928","min_zoom":8.0,"id":25001363},"arcs":[1227]},{"type":"LineString","properties":{"kind":"path","sort_rank":354,"kind_detail":"footway","is_bicycle_related":true,"bicycle_shield_text":"LF10","bicycle_network":"ncn","source":"openstreetmap.org","min_zoom":8.0,"id":317859561},"arcs":[1228]},{"type":"LineString","properties":{"kind":"major_road","sort_rank":377,"kind_detail":"tertiary","is_bicycle_related":true,"bus_network":"Waterland","bicycle_shield_text":"LF15","bicycle_network":"ncn","source":"openstreetmap.org","min_zoom":8.0,"bus_shield_text":"N14","id":6588712},"arcs":[1229]},{"type":"LineString","properties":{"kind":"major_road","sort_rank":380,"kind_detail":"primary","bus_network":"IJsselmond","source":"openstreetmap.org","min_zoom":8.0,"bus_shield_text":"149","landuse_kind":"residential","id":139914962},"arcs":[1230]},{"type":"MultiLineString","properties":{"bus_network":null,"sort_rank":380,"kind_detail":"primary","kind":"major_road","source":"openstreetmap.org","min_zoom":8.0,"bus_shield_text":"9","ref":"N302"},"arcs":[[1231],[1232],[1233],[1234],[1235],[1236],[1237],[1238],[1239],[1240],[1241],[1242],[1243],[1244],[1245],[1246],[1247],[1248],[1249],[1250]]},{"type":"MultiLineString","properties":{"bus_network":"Noord- en Zuidwest-Frysl\u00e2n en Schiermonnikoog","sort_rank":380,"kind_detail":"primary","kind":"major_road","source":"openstreetmap.org","min_zoom":8.0,"bus_shield_text":"35","landuse_kind":"residential","ref":"N384"},"arcs":[[1251],[1252]]},{"type":"MultiLineString","properties":{"bus_network":"Noord-Holland Noord","sort_rank":380,"kind_detail":"primary","kind":"major_road","source":"openstreetmap.org","min_zoom":8.0,"bus_shield_text":"131","ref":"N240"},"arcs":[[1253],[1254],[1255],[1256]]},{"type":"MultiLineString","properties":{"kind":"minor_road","sort_rank":360,"kind_detail":"residential","is_bicycle_related":true,"bicycle_shield_text":"LF10","bicycle_network":"ncn","source":"openstreetmap.org","min_zoom":8.0,"landuse_kind":"residential"},"arcs":[[1257],[1258],[1259],[1260]]},{"type":"MultiLineString","properties":{"bus_network":"Noord-Holland Noord","sort_rank":380,"kind_detail":"primary","kind":"major_road","source":"openstreetmap.org","min_zoom":8.0,"bus_shield_text":"150","ref":"N241"},"arcs":[[1261],[1262],[1263],[1264]]},{"type":"LineString","properties":{"bus_network":"Noord-Holland Noord","sort_rank":380,"kind_detail":"primary","kind":"major_road","source":"openstreetmap.org","min_zoom":8.0,"bus_shield_text":"150","landuse_kind":"urban_area","ref":"N504"},"arcs":[1265]},{"type":"LineString","properties":{"kind":"major_road","sort_rank":380,"kind_detail":"primary","bus_network":"Zaanstreek","source":"openstreetmap.org","min_zoom":8.0,"bus_shield_text":"63","landuse_kind":"urban_area","ref":"S152;N203"},"arcs":[1266]},{"type":"MultiLineString","properties":{"kind":"minor_road","sort_rank":360,"kind_detail":"residential","is_bicycle_related":true,"bicycle_shield_text":"LF22","bicycle_network":"ncn","source":"openstreetmap.org","min_zoom":8.0},"arcs":[[1267],[1268],[1269]]},{"type":"MultiLineString","properties":{"bus_network":"Noord-Holland Noord","sort_rank":377,"kind_detail":"tertiary","is_bicycle_related":true,"kind":"major_road","bicycle_shield_text":"LF15","bicycle_network":"ncn","source":"openstreetmap.org","min_zoom":8.0,"bus_shield_text":"412"},"arcs":[[1270],[1271],[1272]]},{"type":"LineString","properties":{"kind":"minor_road","sort_rank":360,"landuse_kind":"residential","is_bicycle_related":true,"bicycle_shield_text":"LF7","cycleway":"cyclestreet","source":"openstreetmap.org","min_zoom":8.0,"kind_detail":"unclassified","bicycle_network":"ncn"},"arcs":[1273]},{"type":"MultiLineString","properties":{"kind":"minor_road","sort_rank":360,"kind_detail":"residential","is_bicycle_related":true,"bicycle_shield_text":"LF7","bicycle_network":"ncn","source":"openstreetmap.org","min_zoom":8.0,"landuse_kind":"residential"},"arcs":[[1274],[1275],[1276],[1277],[1278]]},{"type":"MultiLineString","properties":{"bus_network":null,"sort_rank":380,"kind_detail":"primary","kind":"major_road","source":"openstreetmap.org","min_zoom":8.0,"bus_shield_text":"9","landuse_kind":"urban_area","ref":"N302"},"arcs":[[1279],[1280],[1281]]},{"type":"MultiLineString","properties":{"kind":"path","sort_rank":354,"kind_detail":"cycleway","is_bicycle_related":true,"bicycle_shield_text":"EV12","bicycle_network":"icn","source":"openstreetmap.org","min_zoom":8.0},"arcs":[[1282],[1283],[1284],[1285],[1286],[1287],[1288],[1289],[1290],[1291],[1292],[1293],[1294],[1295],[1296],[1297],[1298],[1299],[1300],[1301],[1302]]},{"type":"MultiLineString","properties":{"source":"openstreetmap.org","kind":"highway","landuse_kind":"urban_area","sort_rank":383,"kind_detail":"motorway","ref":"A9","min_zoom":8.0},"arcs":[[1303],[1304],[1305],[1306],[1307],[1308],[1309],[1310],[1311],[1312]]},{"type":"LineString","properties":{"kind":"major_road","sort_rank":380,"kind_detail":"primary","bus_network":"Noord-Holland Noord","source":"openstreetmap.org","min_zoom":8.0,"bus_shield_text":"158","ref":"N99","id":218454207},"arcs":[1313]},{"type":"MultiLineString","properties":{"bus_network":"Waterland","sort_rank":380,"kind_detail":"primary","kind":"major_road","source":"openstreetmap.org","min_zoom":8.0,"bus_shield_text":"N14","ref":"N247"},"arcs":[[1314],[1315],[1316],[1317],[1318],[1319],[1320],[1321],[1322],[1323],[1324],[1325],[1326]]},{"type":"LineString","properties":{"bus_network":"Waterland","sort_rank":380,"kind_detail":"primary","kind":"major_road","source":"openstreetmap.org","min_zoom":8.0,"bus_shield_text":"N04","ref":"N235"},"arcs":[1327]},{"type":"LineString","properties":{"kind":"major_road","sort_rank":380,"kind_detail":"primary","bus_network":"Haarlem-IJmond","source":"openstreetmap.org","min_zoom":8.0,"bus_shield_text":"78","landuse_kind":"urban_area","ref":"N197","id":59135735},"arcs":[1328]},{"type":"MultiLineString","properties":{"kind":"major_road","sort_rank":377,"kind_detail":"tertiary","is_bicycle_related":true,"bicycle_shield_text":"LF10","bicycle_network":"ncn","source":"openstreetmap.org","min_zoom":8.0},"arcs":[[1329],[1330],[1331],[1332],[1333],[1334]]},{"type":"LineString","properties":{"kind":"major_road","sort_rank":380,"kind_detail":"primary","bus_network":"Noord- en Zuidwest-Friesland en Schiermonnikoog","source":"openstreetmap.org","min_zoom":8.0,"bus_shield_text":"35","landuse_kind":"residential","ref":"N384","id":6561284},"arcs":[1335]},{"type":"MultiLineString","properties":{"kind":"minor_road","sort_rank":360,"landuse_kind":"residential","is_bicycle_related":true,"bicycle_shield_text":"LF21","bicycle_network":"ncn","source":"openstreetmap.org","min_zoom":8.0,"kind_detail":"unclassified"},"arcs":[[1336],[1337]]},{"type":"MultiLineString","properties":{"source":"openstreetmap.org","kind":"major_road","landuse_kind":"urban_area","sort_rank":380,"kind_detail":"primary","min_zoom":8.0},"arcs":[[1338],[1339],[1340],[1341],[1342],[1343],[1344],[1345],[1346],[1347],[1348],[1349],[1350],[1351],[1352],[1353]]},{"type":"LineString","properties":{"kind":"major_road","sort_rank":381,"kind_detail":"trunk","bus_network":"Noord-Holland Noord","source":"openstreetmap.org","min_zoom":8.0,"bus_shield_text":"131","id":429293087},"arcs":[1354]},{"type":"MultiLineString","properties":{"source":"openstreetmap.org","kind":"major_road","landuse_kind":"urban_area","sort_rank":380,"kind_detail":"primary","ref":"N302","min_zoom":8.0},"arcs":[[1355],[1356],[1357],[1358],[1359],[1360],[1361],[1362],[1363],[1364],[1365],[1366],[1367],[1368],[1369]]},{"type":"MultiLineString","properties":{"source":"openstreetmap.org","kind":"major_road","landuse_kind":"residential","sort_rank":381,"kind_detail":"trunk","ref":"N242","min_zoom":8.0},"arcs":[[1370],[1371]]},{"type":"LineString","properties":{"bus_network":"Noord-Holland Noord","sort_rank":377,"kind_detail":"tertiary","is_bicycle_related":true,"kind":"major_road","bicycle_shield_text":"LF15","cycleway":"lane","source":"openstreetmap.org","min_zoom":8.0,"bus_shield_text":"412","bicycle_network":"ncn","id":6576393},"arcs":[1372]},{"type":"LineString","properties":{"kind":"major_road","sort_rank":379,"landuse_kind":"urban_area","is_bicycle_related":true,"bus_network":"Zaanstreek","bicycle_shield_text":"LF7","bicycle_network":"ncn","source":"openstreetmap.org","min_zoom":8.0,"bus_shield_text":"63","kind_detail":"secondary"},"arcs":[1373]},{"type":"MultiLineString","properties":{"source":"openstreetmap.org","kind":"major_road","sort_rank":381,"kind_detail":"trunk","ref":"N307","min_zoom":8.0},"arcs":[[1374],[1375],[1376],[1377],[1378]]},{"type":"MultiLineString","properties":{"bus_network":"Noord-Holland Noord","sort_rank":381,"kind_detail":"trunk","kind":"major_road","source":"openstreetmap.org","min_zoom":8.0,"bus_shield_text":"131","ref":"N302"},"arcs":[[1379],[1380],[1381],[1382],[1383],[1384]]},{"type":"LineString","properties":{"bus_network":"Noord- en Zuidwest-Friesland en Schiermonnikoog","sort_rank":380,"kind_detail":"primary","is_bicycle_related":true,"kind":"major_road","bicycle_shield_text":null,"bicycle_network":"rcn","source":"openstreetmap.org","min_zoom":8.0,"bus_shield_text":"75","ref":"N384"},"arcs":[1385]},{"type":"MultiLineString","properties":{"source":"openstreetmap.org","kind":"major_road","kind_detail":"trunk","sort_rank":381,"landuse_kind":"urban_area","ref":"N302","min_zoom":8.0},"arcs":[[1386],[1387],[1388]]},{"type":"LineString","properties":{"kind":"ferry","name":"Veerdienst Den Helder - Texel","sort_rank":355,"source":"openstreetmap.org","min_zoom":8.0,"ref":"Den Helder - Texel","id":-902970,"osm_relation":true},"arcs":[1389]},{"type":"MultiLineString","properties":{"source":"openstreetmap.org","kind":"major_road","sort_rank":381,"kind_detail":"trunk","ref":"N99","min_zoom":8.0},"arcs":[[1390],[1391]]},{"type":"MultiLineString","properties":{"kind":"ferry","name":"Harlingen - Oost-Vlieland","sort_rank":355,"landuse_kind":"protected_area","is_bicycle_related":true,"source":"openstreetmap.org","min_zoom":8.0,"id":126985343},"arcs":[[1392],[1393]]},{"type":"MultiLineString","properties":{"kind":"minor_road","sort_rank":360,"landuse_kind":"urban_area","is_bicycle_related":true,"bicycle_shield_text":"LF7","bicycle_network":"ncn","source":"openstreetmap.org","min_zoom":8.0,"kind_detail":"unclassified","cycleway":"opposite"},"arcs":[[1394],[1395]]},{"type":"LineString","properties":{"kind":"major_road","sort_rank":380,"kind_detail":"primary","is_bicycle_related":true,"bus_network":"Noord-Holland Noord","bicycle_shield_text":null,"bicycle_network":"rcn","source":"openstreetmap.org","min_zoom":8.0,"bus_shield_text":"158","ref":"N249","id":6639177},"arcs":[1396]},{"type":"MultiLineString","properties":{"source":"openstreetmap.org","kind":"ferry","name":"Harlingen - West-Terschelling","sort_rank":355,"is_bicycle_related":true,"min_zoom":8.0,"id":40118831},"arcs":[[1397],[1398]]},{"type":"LineString","properties":{"kind":"major_road","sort_rank":380,"kind_detail":"primary","bus_network":"Noord- en Zuidwest-Frysl\u00e2n en Schiermonnikoog","source":"openstreetmap.org","min_zoom":8.0,"bus_shield_text":"350","id":6614337},"arcs":[1399]},{"type":"MultiLineString","properties":{"source":"openstreetmap.org","kind":"major_road","landuse_kind":"urban_area","sort_rank":380,"kind_detail":"primary","ref":"N8;N203","min_zoom":8.0},"arcs":[[1400],[1401],[1402],[1403],[1404],[1405],[1406],[1407],[1408],[1409]]},{"type":"LineString","properties":{"kind":"major_road","sort_rank":380,"kind_detail":"primary","bus_network":"Waterland","source":"openstreetmap.org","min_zoom":8.0,"bus_shield_text":"125","landuse_kind":"urban_area","id":6592628},"arcs":[1410]},{"type":"LineString","properties":{"cycleway_right":"lane","sort_rank":379,"kind_detail":"secondary","is_bicycle_related":true,"kind":"major_road","bicycle_shield_text":"LF21","bicycle_network":"ncn","bus_network":"Waterland","source":"openstreetmap.org","min_zoom":8.0,"bus_shield_text":"N14","id":6586648},"arcs":[1411]},{"type":"MultiLineString","properties":{"bus_network":"Noord- en Zuidwest-Frysl\u00e2n en Schiermonnikoog","sort_rank":380,"kind_detail":"primary","kind":"major_road","source":"openstreetmap.org","min_zoom":8.0,"bus_shield_text":"44","ref":"N359"},"arcs":[[1412],[1413],[1414],[1415]]},{"type":"LineString","properties":{"kind":"major_road","sort_rank":380,"kind_detail":"primary","bus_network":"Waterland","source":"openstreetmap.org","min_zoom":8.0,"bus_shield_text":"416","landuse_kind":"urban_area","ref":"N235","id":6593609},"arcs":[1416]},{"type":"MultiLineString","properties":{"bus_network":"Noord-Holland Noord","sort_rank":381,"kind_detail":"trunk","kind":"major_road","source":"openstreetmap.org","min_zoom":8.0,"bus_shield_text":"9","landuse_kind":"residential","ref":"N245"},"arcs":[[1417],[1418]]},{"type":"MultiLineString","properties":{"source":"openstreetmap.org","kind":"major_road","sort_rank":380,"kind_detail":"primary","ref":"N241","min_zoom":8.0},"arcs":[[1419],[1420],[1421],[1422],[1423],[1424]]},{"type":"LineString","properties":{"source":"openstreetmap.org","bus_network":"Noord- en Zuidwest-Frysl\u00e2n en Schiermonnikoog","bus_shield_text":"44","sort_rank":380,"kind_detail":"primary","min_zoom":8.0,"kind":"major_road"},"arcs":[1425]},{"type":"MultiLineString","properties":{"bus_network":"Noord- en Zuidwest-Frysl\u00e2n en Schiermonnikoog","sort_rank":380,"kind_detail":"primary","kind":"major_road","source":"openstreetmap.org","min_zoom":8.0,"bus_shield_text":"350","landuse_kind":"urban_area","ref":"N242"},"arcs":[[1426],[1427],[1428],[1429],[1430]]},{"type":"MultiLineString","properties":{"bus_network":"Noord-Holland Noord","sort_rank":381,"kind_detail":"trunk","kind":"major_road","source":"openstreetmap.org","min_zoom":8.0,"bus_shield_text":"250","ref":"N242"},"arcs":[[1431],[1432]]},{"type":"MultiLineString","properties":{"bus_network":"Noord-Holland Noord","sort_rank":380,"kind_detail":"primary","kind":"major_road","source":"openstreetmap.org","min_zoom":8.0,"bus_shield_text":"163","landuse_kind":"urban_area"},"arcs":[[1433],[1434],[1435],[1436],[1437]]},{"type":"MultiLineString","properties":{"bus_network":"Noord- en Zuidwest-Friesland en Schiermonnikoog","network":"e-road","sort_rank":381,"kind_detail":"trunk","kind":"major_road","source":"openstreetmap.org","min_zoom":8.0,"bus_shield_text":"90","shield_text":"22","ref":"N7"},"arcs":[[1438],[1439]]},{"type":"LineString","properties":{"kind":"major_road","sort_rank":381,"kind_detail":"trunk","bus_network":"Noord-Holland Noord","source":"openstreetmap.org","min_zoom":8.0,"bus_shield_text":"636","ref":"N302","id":536686327},"arcs":[1440]},{"type":"MultiLineString","properties":{"bus_network":"Waterland","sort_rank":380,"kind_detail":"primary","kind":"major_road","source":"openstreetmap.org","min_zoom":8.0,"bus_shield_text":"N01","landuse_kind":"urban_area"},"arcs":[[1441],[1442],[1443]]},{"type":"LineString","properties":{"bus_network":"Noord-Holland Noord","sort_rank":380,"kind_detail":"primary","kind":"major_road","source":"openstreetmap.org","min_zoom":8.0,"bus_shield_text":"123","landuse_kind":"urban_area","ref":"N244"},"arcs":[1444]},{"type":"MultiLineString","properties":{"source":"openstreetmap.org","kind":"major_road","sort_rank":380,"kind_detail":"primary","ref":"N309","min_zoom":8.0},"arcs":[[1445],[1446],[1447],[1448],[1449],[1450],[1451]]},{"type":"LineString","properties":{"cycleway_right":"lane","sort_rank":379,"kind_detail":"secondary","is_bicycle_related":true,"kind":"major_road","bicycle_shield_text":"LF21","bicycle_network":"ncn","bus_network":"Waterland","source":"openstreetmap.org","min_zoom":8.0,"bus_shield_text":"N10","id":6586640},"arcs":[1452]},{"type":"MultiLineString","properties":{"bus_network":"Noord- en Zuidwest-Frysl\u00e2n en Schiermonnikoog","sort_rank":380,"kind_detail":"primary","kind":"major_road","source":"openstreetmap.org","min_zoom":8.0,"bus_shield_text":"44","ref":"N928"},"arcs":[[1453],[1454]]},{"type":"MultiLineString","properties":{"kind":"path","sort_rank":354,"landuse_kind":"urban_area","is_bicycle_related":true,"bicycle_shield_text":"LF20","bicycle_network":"ncn","source":"openstreetmap.org","min_zoom":8.0,"kind_detail":"cycleway"},"arcs":[[1455],[1456]]},{"type":"LineString","properties":{"kind":"minor_road","sort_rank":360,"landuse_kind":"urban_area","is_bicycle_related":true,"bicycle_shield_text":"LF15","bicycle_network":"ncn","source":"openstreetmap.org","min_zoom":8.0,"kind_detail":"residential"},"arcs":[1457]},{"type":"LineString","properties":{"bus_network":"Noord-Holland Noord","sort_rank":380,"kind_detail":"primary","kind":"major_road","source":"openstreetmap.org","min_zoom":8.0,"bus_shield_text":"134","ref":"N239"},"arcs":[1458]},{"type":"MultiLineString","properties":{"source":"openstreetmap.org","kind":"highway","landuse_kind":"residential","sort_rank":383,"kind_detail":"motorway","ref":"A9","min_zoom":8.0},"arcs":[[1459],[1460]]},{"type":"MultiLineString","properties":{"kind":"highway","network":"e-road","sort_rank":383,"landuse_kind":"urban_area","source":"openstreetmap.org","min_zoom":8.0,"all_networks":["e-road"],"kind_detail":"motorway","shield_text":"22","ref":"A7","all_shield_texts":["22"]},"arcs":[[1461],[1462],[1463],[1464],[1465],[1466],[1467],[1468],[1469],[1470]]},{"type":"MultiLineString","properties":{"bus_network":"Noord-Holland Noord","sort_rank":380,"kind_detail":"primary","kind":"major_road","source":"openstreetmap.org","min_zoom":8.0,"bus_shield_text":"151","ref":"N9"},"arcs":[[1471],[1472],[1473],[1474],[1475],[1476],[1477],[1478],[1479],[1480]]},{"type":"LineString","properties":{"source":"openstreetmap.org","bus_network":"Noord-Holland Noord","bus_shield_text":"653","sort_rank":380,"kind_detail":"primary","min_zoom":8.0,"kind":"major_road"},"arcs":[1481]},{"type":"MultiLineString","properties":{"source":"openstreetmap.org","kind":"major_road","sort_rank":380,"kind_detail":"primary","ref":"N239;N240","min_zoom":8.0},"arcs":[[1482],[1483],[1484]]},{"type":"MultiLineString","properties":{"source":"openstreetmap.org","kind":"major_road","sort_rank":380,"kind_detail":"primary","ref":"N242","min_zoom":8.0},"arcs":[[1485],[1486],[1487],[1488],[1489]]},{"type":"MultiLineString","properties":{"kind":"highway","network":"e-road","sort_rank":383,"kind_detail":"motorway","source":"openstreetmap.org","min_zoom":8.0,"all_networks":["e-road"],"shield_text":"22","ref":"A7","all_shield_texts":["22"]},"arcs":[[1490],[1491],[1492],[1493],[1494],[1495],[1496],[1497],[1498],[1499],[1500]]},{"type":"MultiLineString","properties":{"kind":"minor_road","sort_rank":360,"kind_detail":"residential","is_bicycle_related":true,"bicycle_shield_text":"EV12","cycleway":"opposite","source":"openstreetmap.org","min_zoom":8.0,"bicycle_network":"icn"},"arcs":[[1501],[1502],[1503]]},{"type":"MultiLineString","properties":{"kind":"minor_road","sort_rank":360,"kind_detail":"unclassified","is_bicycle_related":true,"bicycle_shield_text":"LF15","bicycle_network":"ncn","source":"openstreetmap.org","min_zoom":8.0,"cycleway":"opposite"},"arcs":[[1504],[1505],[1506]]},{"type":"MultiLineString","properties":{"bus_network":"Noord- en Zuidwest-Frysl\u00e2n en Schiermonnikoog","sort_rank":380,"kind_detail":"primary","kind":"major_road","source":"openstreetmap.org","min_zoom":8.0,"bus_shield_text":"97","landuse_kind":"residential","ref":"N384"},"arcs":[[1507],[1508],[1509],[1510],[1511],[1512]]},{"type":"MultiLineString","properties":{"kind":"major_road","sort_rank":377,"kind_detail":"tertiary","is_bicycle_related":true,"bicycle_shield_text":"LF15","bicycle_network":"ncn","source":"openstreetmap.org","min_zoom":8.0},"arcs":[[1513],[1514],[1515],[1516],[1517],[1518],[1519],[1520],[1521]]},{"type":"MultiLineString","properties":{"bus_network":"Waterland","sort_rank":380,"kind_detail":"primary","kind":"major_road","source":"openstreetmap.org","min_zoom":8.0,"bus_shield_text":"301","ref":"N244"},"arcs":[[1522],[1523]]},{"type":"MultiLineString","properties":{"bus_network":"Noord- en Zuidwest-Frysl\u00e2n en Schiermonnikoog","sort_rank":380,"kind_detail":"primary","kind":"major_road","source":"openstreetmap.org","min_zoom":8.0,"bus_shield_text":"71","ref":"N390"},"arcs":[[1524],[1525]]},{"type":"LineString","properties":{"kind":"minor_road","sort_rank":360,"kind_detail":"unclassified","is_bicycle_related":true,"bicycle_shield_text":"LF15","cycleway":"lane","source":"openstreetmap.org","min_zoom":8.0,"bicycle_network":"ncn","id":6617525},"arcs":[1526]},{"type":"MultiLineString","properties":{"source":"openstreetmap.org","bus_network":"Noord-Holland Noord","bus_shield_text":"151","sort_rank":380,"kind_detail":"primary","min_zoom":8.0,"kind":"major_road"},"arcs":[[1527],[1528],[1529],[1530],[1531],[1532],[1533],[1534]]},{"type":"LineString","properties":{"kind":"ferry","name":"Veerdienst Den Helder - Texel","sort_rank":355,"landuse_kind":"protected_area","source":"openstreetmap.org","min_zoom":8.0,"ref":"Den Helder - Texel","id":-902970,"osm_relation":true},"arcs":[1535]},{"type":"MultiLineString","properties":{"kind":"major_road","sort_rank":380,"kind_detail":"primary","bus_network":"IJsselmond","source":"openstreetmap.org","min_zoom":8.0,"bus_shield_text":"141","landuse_kind":"residential","ref":"N351"},"arcs":[[1536],[1537]]},{"type":"LineString","properties":{"cycleway_right":"shared_lane","sort_rank":379,"kind_detail":"secondary","is_bicycle_related":true,"kind":"major_road","bicycle_shield_text":"EV12","bicycle_network":"icn","bus_network":"Noord-Holland Noord","source":"openstreetmap.org","min_zoom":8.0,"bus_shield_text":"410","id":169093214},"arcs":[1538]},{"type":"LineString","properties":{"bus_network":"Noord-Holland Noord","sort_rank":379,"kind_detail":"secondary","is_bicycle_related":true,"kind":"major_road","bicycle_shield_text":"EV12","bicycle_network":"icn","source":"openstreetmap.org","min_zoom":8.0,"bus_shield_text":"851","ref":"N502"},"arcs":[1539]},{"type":"MultiLineString","properties":{"kind":"major_road","sort_rank":380,"kind_detail":"primary","bus_network":"IJsselmond","source":"openstreetmap.org","min_zoom":8.0,"bus_shield_text":"141","landuse_kind":"residential"},"arcs":[[1540],[1541]]},{"type":"LineString","properties":{"bus_network":"Waterland","sort_rank":377,"kind_detail":"tertiary","is_bicycle_related":true,"kind":"major_road","bicycle_shield_text":"LF21","bicycle_network":"ncn","source":"openstreetmap.org","min_zoom":8.0,"bus_shield_text":"413"},"arcs":[1542]},{"type":"MultiLineString","properties":{"bus_network":"Noord- en Zuidwest-Frysl\u00e2n en Schiermonnikoog","sort_rank":380,"kind_detail":"primary","kind":"major_road","source":"openstreetmap.org","min_zoom":8.0,"bus_shield_text":"71","ref":"N393"},"arcs":[[1543],[1544],[1545],[1546],[1547],[1548],[1549],[1550],[1551]]},{"type":"MultiLineString","properties":{"kind":"minor_road","sort_rank":358,"kind_detail":"service","is_bicycle_related":true,"bicycle_shield_text":"LF7","bicycle_network":"ncn","source":"openstreetmap.org","min_zoom":8.0},"arcs":[[1552],[1553]]},{"type":"MultiLineString","properties":{"source":"openstreetmap.org","kind":"major_road","kind_detail":"trunk","sort_rank":381,"landuse_kind":"urban_area","ref":"N245","min_zoom":8.0},"arcs":[[1554],[1555],[1556],[1557],[1558],[1559],[1560],[1561],[1562]]},{"type":"LineString","properties":{"kind":"minor_road","sort_rank":360,"kind_detail":"unclassified","is_bicycle_related":true,"bicycle_shield_text":"EV12","cycleway":"opposite","source":"openstreetmap.org","min_zoom":8.0,"bicycle_network":"icn","id":6625172},"arcs":[1563]},{"type":"MultiLineString","properties":{"bus_network":"Noord-Holland Noord","sort_rank":380,"kind_detail":"primary","kind":"major_road","source":"openstreetmap.org","min_zoom":8.0,"bus_shield_text":"135","ref":"N99"},"arcs":[[1564],[1565],[1566],[1567],[1568],[1569],[1570],[1571],[1572],[1573],[1574],[1575],[1576],[1577]]},{"type":"MultiLineString","properties":{"source":"openstreetmap.org","kind":"major_road","landuse_kind":"urban_area","sort_rank":380,"kind_detail":"primary","ref":"N246","min_zoom":8.0},"arcs":[[1578],[1579],[1580]]},{"type":"MultiLineString","properties":{"kind":"ferry","name":"Harlingen - West-Terschelling","sort_rank":355,"landuse_kind":"protected_area","is_bicycle_related":true,"source":"openstreetmap.org","min_zoom":8.0,"id":40118831},"arcs":[[1581],[1582]]},{"type":"MultiLineString","properties":{"kind":"path","sort_rank":354,"landuse_kind":"residential","is_bicycle_related":true,"bicycle_shield_text":"LF21","bicycle_network":"ncn","source":"openstreetmap.org","min_zoom":8.0,"kind_detail":"cycleway"},"arcs":[[1583],[1584],[1585]]},{"type":"MultiLineString","properties":{"kind":"minor_road","sort_rank":358,"kind_detail":"service","is_bicycle_related":true,"bicycle_shield_text":"LF21","bicycle_network":"ncn","source":"openstreetmap.org","min_zoom":8.0},"arcs":[[1586],[1587]]},{"type":"LineString","properties":{"kind":"major_road","sort_rank":380,"kind_detail":"primary","bus_network":"Noord-Holland Noord","source":"openstreetmap.org","min_zoom":8.0,"bus_shield_text":"417","landuse_kind":"residential","id":502665503},"arcs":[1588]},{"type":"MultiLineString","properties":{"bus_network":"Noord-Holland Noord","sort_rank":381,"landuse_kind":"urban_area","kind":"major_road","source":"openstreetmap.org","min_zoom":8.0,"bus_shield_text":"135","kind_detail":"trunk","ref":"N99"},"arcs":[[1589],[1590],[1591],[1592],[1593]]},{"type":"LineString","properties":{"kind":"ferry","name":"veer Den Helder-Texel","sort_rank":355,"landuse_kind":"urban_area","is_bicycle_related":true,"source":"openstreetmap.org","min_zoom":8.0,"id":6639581},"arcs":[1594]},{"type":"MultiLineString","properties":{"kind":"minor_road","sort_rank":358,"kind_detail":"service","is_bicycle_related":true,"bicycle_shield_text":"LF10","bicycle_network":"ncn","source":"openstreetmap.org","min_zoom":8.0},"arcs":[[1595],[1596]]},{"type":"LineString","properties":{"bus_network":"Noord-Holland Noord","sort_rank":380,"kind_detail":"primary","kind":"major_road","source":"openstreetmap.org","min_zoom":8.0,"bus_shield_text":"150","ref":"N239"},"arcs":[1597]},{"type":"LineString","properties":{"kind":"major_road","sort_rank":380,"kind_detail":"primary","bus_network":"Noord-Holland Noord","source":"openstreetmap.org","min_zoom":8.0,"bus_shield_text":"652","id":278337966},"arcs":[1598]},{"type":"LineString","properties":{"kind":"major_road","sort_rank":379,"kind_detail":"secondary","is_bicycle_related":true,"bus_network":"Waterland","bicycle_shield_text":"LF21","bicycle_network":"ncn","source":"openstreetmap.org","min_zoom":8.0,"bus_shield_text":"N10","id":6587228},"arcs":[1599]},{"type":"LineString","properties":{"source":"openstreetmap.org","kind":"major_road","sort_rank":381,"kind_detail":"trunk","ref":"N302","min_zoom":8.0},"arcs":[1600]}]},"earth":{"type":"GeometryCollection","geometries":[{"type":"MultiPolygon","properties":{"sort_rank":10,"source":"naturalearthdata.com","min_zoom":0.0,"kind":"earth","area":11928729136},"arcs":[[[1601]],[[1602]],[[1603]]]}]},"landuse":{"type":"GeometryCollection","geometries":[{"type":"Polygon","properties":{"kind":"military","area":41733200,"sort_rank":45,"operator":"Ministerie van Defensie","source":"openstreetmap.org","min_zoom":8.0,"tier":3,"id":47348228},"arcs":[[1604]]},{"type":"Polygon","properties":{"kind":"park","area":129097000,"sort_rank":24,"source":"openstreetmap.org","min_zoom":7.0,"tier":2,"id":-2746211,"osm_relation":true},"arcs":[[1605]]},{"type":"Polygon","properties":{"kind":"residential","area":10122800,"sort_rank":20,"source":"openstreetmap.org","min_zoom":8.0,"tier":2,"id":-7293732,"osm_relation":true},"arcs":[[1606],[1607]]},{"type":"Polygon","properties":{"kind":"protected_area","natural":"yes","protect_class":"98","area":8128379904,"sort_rank":17,"source":"openstreetmap.org","min_zoom":4.0,"tier":2,"id":-5909370,"osm_relation":true},"arcs":[[1608]]},{"type":"MultiPolygon","properties":{"source":"naturalearthdata.com","kind":"urban_area","name":"","area":929980325,"sort_rank":11,"min_zoom":4.0},"arcs":[[[1609]],[[1610]],[[1611]],[[1612]],[[1613]],[[1614]],[[1615]]]},{"type":"Polygon","properties":{"kind":"nature_reserve","protect_class":"4","area":143604000,"sort_rank":23,"source":"openstreetmap.org","min_zoom":7.0,"tier":2,"id":8060652},"arcs":[[1616]]},{"type":"MultiPolygon","properties":{"source":"openstreetmap.org","kind":"residential","tier":2,"area":133370987,"sort_rank":20,"min_zoom":8.0},"arcs":[[[1617]],[[1618]],[[1619]],[[1620]],[[1621]],[[1622]],[[1623]],[[1624]],[[1625]]]},{"type":"Polygon","properties":{"kind":"residential","name":"Alkmaar","area":43313300,"sort_rank":20,"source":"openstreetmap.org","min_zoom":8.0,"tier":2,"id":6338901},"arcs":[[1626]]}]}},"type":"Topology","transform":{"translate":[4.21875,52.4827802221],"scale":[0.0003433228,0.0002070539]},"arcs":[[[1114,4096],[-56,-91],[-399,-858],[-200,-245],[-110,-231],[-40,-188],[-3,-192],[34,-188],[58,-152],[-116,-518],[-155,-954],[-122,-223],[-5,-19]],[[2658,0],[-89,122],[-117,342],[573,317],[14,156],[74,72],[41,4],[173,-81],[47,430]],[[2075,3367],[-328,166]],[[3374,1362],[-403,528],[-203,596],[-344,704],[-349,177]],[[1747,3533],[1,-152],[-301,-458],[-85,-196],[2,-217],[-216,-111],[1,-89],[96,-97],[-49,-248],[188,-25],[-178,-629],[-138,-1035],[-76,-276]],[[4096,1542],[-722,-180]],[[1754,3543],[-7,-10]],[[2537,4096],[-8,-38],[-174,-44],[-544,-394],[-57,-77]],[[3625,0],[29,61],[-2,154],[50,89],[394,18]],[[1493,726],[-215,-394],[8,-36],[103,-91]],[[1390,205],[28,-26]],[[1425,170],[-115,-170]],[[1547,754],[-52,-24]],[[1748,895],[-197,-140]],[[1785,923],[-37,-28]],[[2395,781],[-390,163],[-173,5],[-47,-26]],[[2434,784],[-34,-2]],[[3625,0],[28,124]],[[3323,1950],[137,43],[31,222],[203,257],[57,24],[231,7],[114,88]],[[2394,778],[-76,-49],[-54,-533],[-246,-196]],[[2496,800],[-101,-22]],[[2501,803],[245,180],[139,43],[231,21]],[[4096,322],[-394,-18],[-50,-89],[2,-153],[-29,-62]],[[1703,0],[-28,30],[-128,36],[-270,258],[225,417],[65,21],[234,185],[19,230],[-103,196],[-9,88]],[[3653,118],[-28,-118]],[[3625,0],[29,61],[-2,154],[50,89],[394,18]],[[3474,3342],[32,-21],[281,20],[93,38],[131,-42],[85,14]],[[4096,322],[-394,-18],[-50,-89],[2,-153],[-29,-62]],[[3474,3342],[37,-21],[276,20],[92,38],[132,-42],[85,14]],[[1389,205],[-101,90],[-10,38],[217,397]],[[1423,173],[-30,29]],[[1310,0],[116,170]],[[1496,731],[51,23]],[[1549,755],[199,140]],[[1748,895],[37,28]],[[2395,781],[-390,163],[-173,5],[-47,-26]],[[2434,784],[-34,-2]],[[1428,171],[-18,16]],[[1703,0],[-28,30],[-125,34],[-121,106]],[[1410,187],[17,-15]],[[1428,171],[122,-107],[127,-35],[26,-29]],[[1410,187],[17,-15]],[[1428,171],[122,-107],[127,-35],[26,-29]],[[1389,205],[-101,90],[-10,38],[217,397]],[[1428,171],[-35,31]],[[1703,0],[-28,30],[-125,34],[-121,106]],[[1496,731],[51,23]],[[1549,755],[199,140]],[[1579,2289],[-1,-83],[49,-154],[89,-54],[23,-40],[-42,-294],[17,-283],[107,-207],[-33,-248]],[[1786,924],[-38,-29]],[[3323,1950],[137,43],[31,222],[203,257],[57,24],[231,7],[114,88]],[[1708,1461],[9,-89],[103,-195],[-19,-230],[-234,-185],[-66,-21],[-224,-418],[270,-257],[130,-37],[26,-29]],[[1310,0],[116,170]],[[1389,205],[-101,90],[-10,38],[217,397]],[[1423,173],[-30,29]],[[1496,731],[24,18]],[[1410,187],[17,-15]],[[1428,171],[122,-107],[127,-35],[26,-29]],[[1425,170],[-115,-170]],[[1493,726],[-215,-394],[8,-36],[103,-91]],[[1390,205],[28,-26]],[[1520,750],[-25,-20]],[[3625,0],[29,61],[-2,154],[50,89],[394,18]],[[2018,0],[246,195],[54,535],[76,48]],[[2404,781],[92,19]],[[2501,803],[35,33]],[[2394,778],[-76,-49],[-54,-533],[-246,-196]],[[2496,800],[-101,-22]],[[2501,803],[245,180],[139,43],[231,21]],[[2018,0],[246,195],[54,535],[76,48]],[[2404,781],[92,19]],[[2501,803],[245,180],[139,43],[231,21]],[[1493,726],[-215,-394],[8,-36],[103,-91]],[[1390,205],[37,-33]],[[1428,171],[122,-107],[127,-35],[26,-29]],[[1547,754],[-52,-24]],[[1748,895],[-197,-140]],[[1579,2289],[-1,-83],[49,-154],[89,-54],[23,-40],[-42,-294],[17,-282],[107,-209],[-35,-249]],[[1783,922],[-35,-27]],[[2018,0],[246,195],[54,535],[76,48]],[[2404,781],[92,19]],[[2501,803],[245,180],[139,43],[231,21]],[[4096,322],[-394,-18],[-50,-89],[2,-153],[-29,-62]],[[1428,171],[-18,16]],[[1703,0],[-28,30],[-125,34],[-121,106]],[[3625,0],[28,118]],[[4096,322],[-394,-18],[-50,-89],[2,-153],[-29,-62]],[[1428,171],[-18,16]],[[1703,0],[-28,30],[-125,34],[-121,106]],[[2394,778],[-76,-49],[-54,-533],[-246,-196]],[[2496,800],[-101,-22]],[[2532,833],[-31,-30]],[[2491,0],[-1,5],[-9,20],[59,62],[-22,120],[-96,216],[-40,142],[-5,122],[43,81],[103,17],[78,-30],[21,-14],[51,-54],[42,7],[43,17],[179,113],[47,54],[38,116],[42,40],[97,48],[-9,49],[-9,67],[-11,59],[-21,26],[-148,67],[-46,3],[-41,-6],[-34,-17],[-30,-32],[-40,-27],[-36,22],[-32,37],[-31,20],[-40,64],[-7,308],[-15,105],[-145,299],[-62,51],[122,50],[126,78],[462,408],[246,156],[32,-103],[19,-44],[29,-50],[28,-19],[13,-59],[-4,-63],[-18,-57],[29,-54],[12,-78],[-12,-78],[-48,-54],[39,-77],[-26,-38],[-48,-26],[-32,-57],[-17,-6],[-14,-15],[-2,-48],[11,-32],[18,-14],[21,-13],[20,-23],[62,-52],[92,-24],[185,-7],[37,-10],[69,-46],[44,-10],[47,6],[31,16],[63,44],[48,17],[8,0],[0,-305],[-38,-78],[-25,-119],[-21,-202],[5,-189],[52,-83],[27,-22],[0,-228],[-138,-47],[-50,-35],[-129,-130],[-27,-4],[-60,6],[-23,-20],[-70,-182],[-38,-33],[-110,-45],[-84,-79],[-876,0]],[[4096,3988],[-38,-7],[-59,-21],[-53,-53],[-46,-66],[-49,-55],[-107,-47],[-63,-55],[-102,-119],[-59,-148],[-80,-330],[-60,-119],[-59,-39],[-134,-31],[-55,-45],[-42,-51],[-587,-526],[-114,-51],[-116,-15],[-61,-23],[-123,-107],[-67,-38],[-114,-8],[-120,36],[-68,88],[44,148],[-22,35],[-29,-27],[-179,27],[-34,-42],[-21,-99],[-12,-115],[-3,-90],[-28,-158],[-123,-321],[-28,-152],[-8,-73],[-52,-239],[-123,-937],[-53,-115],[-1049,0],[0,4096],[4096,0],[0,-108]],[[1923,3565],[91,-41],[74,65],[64,95],[230,223],[85,33],[36,20],[78,0],[0,33],[-147,20],[-198,-114],[-190,-176],[-123,-158]],[[1480,2513],[102,-42],[98,29],[66,127],[137,113],[81,126],[38,75],[20,63],[-59,0],[0,30],[50,38],[1,76],[-30,86],[-41,67],[16,23],[2,23],[-6,24],[-12,29],[-92,5],[-73,-120],[-68,-145],[-138,-118],[-72,-117],[-58,-143],[-18,-127],[56,-122]],[[1049,0],[53,115],[123,937],[52,239],[8,73],[28,152],[123,321],[28,158],[3,90],[12,115],[21,99],[34,42],[179,-27],[29,27],[22,-35],[-44,-148],[68,-88],[120,-36],[114,8],[67,38],[123,107],[61,23],[116,15],[114,51],[587,526],[42,51],[55,45],[134,31],[59,39],[60,119],[80,330],[59,148],[102,119],[63,55],[107,47],[49,55],[46,66],[53,53],[59,21],[38,7]],[[1923,3565],[91,-41],[74,65],[64,95],[230,223],[85,33],[36,20],[78,0],[0,33],[-147,20],[-198,-114],[-190,-176],[-123,-158]],[[1963,3034],[50,38],[1,76],[-30,86],[-41,67],[16,23],[2,23],[-6,24],[-12,29],[-92,5],[-73,-120],[-68,-145],[-138,-118],[-72,-117],[-58,-143],[-18,-127],[56,-122],[102,-42],[98,29],[66,127],[137,113],[81,126],[38,75],[20,63],[-59,0],[0,30]],[[2491,0],[-1,5],[-9,20],[59,62],[-22,120],[-96,216],[-40,142],[-5,122],[43,81],[103,17],[78,-30],[21,-14],[51,-54],[42,7],[43,17],[179,113],[47,54],[38,116],[42,40],[97,48],[-9,49],[-9,67],[-11,59],[-21,26],[-148,67],[-46,3],[-41,-6],[-34,-17],[-30,-32],[-40,-27],[-36,22],[-32,37],[-31,20],[-40,64],[-7,308],[-15,105],[-145,299],[-62,51],[122,50],[126,78],[462,408],[246,156],[32,-103],[19,-44],[29,-50],[28,-19],[13,-59],[-4,-63],[-18,-57],[29,-54],[12,-78],[-12,-78],[-48,-54],[39,-77],[-26,-38],[-48,-26],[-32,-57],[-17,-6],[-14,-15],[-2,-48],[11,-32],[18,-14],[21,-13],[20,-23],[62,-52],[92,-24],[185,-7],[37,-10],[69,-46],[44,-10],[47,6],[31,16],[63,44],[48,17],[8,0]],[[4096,1490],[-38,-78],[-25,-119],[-21,-202],[5,-189],[52,-83],[27,-22]],[[4096,569],[-138,-47],[-50,-35],[-129,-130],[-27,-4],[-60,6],[-23,-20],[-70,-182],[-38,-33],[-110,-45],[-84,-79]],[[3855,3639],[11,5]],[[1617,724],[0,3]],[[1381,1702],[6,3]],[[3830,314],[1,2]],[[1508,647],[-67,52],[28,48]],[[1470,749],[-20,-20],[-9,-30],[74,-59]],[[1495,796],[-25,-46]],[[1485,775],[11,20]],[[2998,983],[-8,-6]],[[3013,992],[-1,-1]],[[3016,987],[-2,-1]],[[3107,1007],[19,-3]],[[3147,1006],[3,0]],[[2429,769],[-1,0]],[[2285,2163],[22,7]],[[2333,2179],[13,2]],[[3134,1052],[-2,2]],[[2424,120],[-7,8]],[[2429,112],[-4,6]],[[1770,1020],[3,-89],[-75,-73],[-29,-94]],[[3494,3352]],[[3495,3328]],[[1734,1451],[-12,67]],[[3363,1957],[-44,4]],[[3436,2224],[9,5]],[[3445,2764],[0,1]],[[3452,2752],[-6,11]],[[3448,2222],[2,4]],[[3470,2571],[-5,8]],[[3493,2226],[-1,1]],[[3533,2370],[-17,131]],[[3540,2238],[-2,7]],[[3539,2365],[1,1]],[[3589,2260],[-47,102]],[[3572,2250],[-25,-15]],[[3914,1775],[34,-29],[-45,-41],[-75,24],[2,36]],[[3935,1805],[161,25]],[[3789,80]],[[3486,3296],[-11,-75]],[[3253,2857],[-4,-1]],[[1495,795],[1,0]],[[1633,1201],[-1,-4]],[[1633,1197],[1,3]],[[1622,1045],[-9,-3]],[[1613,1042],[9,3]],[[1622,1045],[23,9]],[[1647,1054],[9,3]],[[1646,1055],[-1,-1]],[[1645,1054],[1,-1],[1,1]],[[1647,1054],[-1,1]],[[1740,1794],[1,0]],[[1900,3343],[23,49],[-25,28]],[[3412,3011],[8,9]],[[3422,3023],[-8,-8]],[[3428,3031],[15,45]],[[3442,3075],[-14,-42]],[[3461,3132],[17,56]],[[3477,3187],[-15,-49]],[[1483,667],[16,20]],[[1546,789],[-14,-4]],[[1532,788],[0,-3]],[[1532,785],[15,4]],[[1552,724],[0,1]],[[1571,760],[-11,20]],[[1571,760],[0,-1],[1,-1],[0,1],[-1,1]],[[4037,837]],[[1769,1029],[-14,65]],[[1769,1029],[1,-9]],[[1770,1024],[-1,5]],[[1771,1020],[-1,0]],[[1822,1132],[-5,-2]],[[1817,1130],[5,2]],[[1822,1132],[25,16]],[[1847,1148],[9,7]],[[1856,1156],[-9,-8]],[[1871,1162],[-5,-2]],[[1866,1160],[-2,-1],[-1,0],[-6,-2]],[[1858,1156],[5,2],[1,1],[2,1]],[[1866,1160],[5,3]],[[2496,3928],[70,1],[29,89],[114,20],[154,-106],[101,17],[69,88],[-64,16],[-50,43]],[[2092,509],[54,130]],[[1824,334],[-1,0]],[[2236,188],[-34,14]],[[2203,201],[33,-14]],[[2765,768]],[[3012,989],[3,-1]],[[1713,1546],[-1,0],[1,-1],[1,0],[-1,1]],[[3011,1033],[-1,11]],[[3117,1050],[4,10]],[[1664,1483],[7,-27]],[[1671,1456],[-7,27]],[[3011,991],[1,-2]],[[3555,200],[5,-2]],[[2390,2169],[-7,3]],[[2876,2596],[-491,-422]],[[2400,2121],[13,-68],[40,-2],[29,-58]],[[2408,132],[-2,2]],[[2408,132],[3,-1]],[[2411,131],[-3,1]],[[2423,120],[2,-2]],[[2452,122],[-3,2]],[[2565,1406],[3,-5]],[[2663,1282],[-50,102]],[[2678,1258],[-3,4]],[[2753,1226],[-61,15]],[[2753,1226]],[[2753,1226],[1,0]],[[2816,1271],[-38,-53],[-23,8]],[[2874,1313],[-54,-36]],[[3249,2856],[-111,-33],[-258,-223]],[[3258,2858],[-5,-1]],[[1560,780],[-2,10]],[[1611,776],[12,-9]],[[1621,769],[-10,8]],[[1721,1081],[0,1]],[[1520,640],[1,-4]],[[1523,638],[0,1]],[[4096,846],[-32,1]],[[1634,677]],[[1684,646],[8,-2]],[[1608,781]],[[1627,766],[36,-6]],[[1663,761],[-35,6]],[[2719,1044],[14,-7]],[[2733,1037],[-14,8]],[[2751,1041],[-18,-4]],[[3073,1039],[0,-10]],[[3074,1029],[-1,10]],[[3073,1029],[1,0]],[[3081,1027],[0,1]],[[3567,207],[0,1]],[[3601,298]],[[3773,321],[0,-1]],[[3774,320],[0,1]],[[3810,316],[2,-1]],[[3812,316],[-2,0]],[[3814,315],[1,0]],[[3818,316],[-4,0]],[[2430,110],[1,0]],[[2129,24]],[[2564,1396],[3,5]],[[2567,1401],[1,0],[-1,0]],[[1382,1064],[2,-11]],[[1404,899],[0,2]],[[2568,1401],[14,4]],[[3319,1961],[33,44],[73,32]],[[3448,2222],[18,-5]],[[3452,2752],[3,-11]],[[3466,2217],[27,9]],[[3470,2571],[59,-47]],[[3492,2227],[46,18]],[[3533,2370],[6,-5]],[[3547,2235],[-7,3]],[[3589,2260],[-17,-10]],[[3797,1783],[-7,-24]],[[3920,1788],[-6,-13]],[[4039,3743],[-6,72]],[[4046,3816],[50,6]],[[1623,50],[1,0]],[[2448,38],[0,2]],[[1525,709],[2,4]],[[3471,0],[-28,50],[48,42]],[[3493,95],[13,6]],[[3506,103],[0,-2]],[[3560,198],[61,8]],[[3743,256],[28,21]],[[3792,275],[8,42],[34,-1]],[[3931,431],[83,21]],[[4000,864],[1,2]],[[4014,454],[41,11],[-16,58]],[[4037,838],[-1,2]],[[4037,836],[0,1]],[[2404,137],[4,20]],[[3391,2992],[6,14]],[[1512,1595],[0,-1]],[[1595,1556],[1,1]],[[1625,681],[1,0]],[[1634,678],[-1,-1]],[[1640,1990],[-1,0]],[[1741,1794],[-1,0]],[[2298,705],[0,-1]],[[2299,704],[0,1]],[[2315,1739],[0,1]],[[2523,1382],[0,1]],[[3074,1029]],[[3789,80]],[[3831,316],[-1,-2]],[[4090,2660],[-4,-2]],[[2579,1285],[1,-1],[0,1],[-1,0]],[[3812,316],[0,-1],[2,0],[-1,2],[-1,-1]],[[3414,3015],[-5,-5],[-21,-39]],[[3390,2972],[22,39]],[[3603,3380],[251,87],[166,-16],[76,9]],[[4096,3460],[-76,-9],[-62,16],[-35,4],[-36,0],[-31,-3],[-4,-1],[-60,-12],[-91,-24],[-66,-32],[-26,-15]],[[1373,382],[0,2]],[[1388,451],[2,6]],[[1442,588],[-1,-3]],[[1443,591],[-1,-2]],[[1442,588],[0,-1],[1,1],[-1,1],[0,-1]],[[1381,943],[12,12]],[[1395,1049],[-8,2]],[[1402,913],[-5,3]],[[1402,900],[2,-1]],[[1404,897],[-2,0]],[[1404,901],[1,3]],[[1621,747],[1,9]],[[3620,2115],[-78,132]],[[3594,2379],[-2,-1]],[[3592,2377],[2,2]],[[3594,2379],[17,22]],[[3611,2401],[10,13]],[[3621,2414],[40,170],[94,181]],[[3677,1965],[-35,31]],[[3677,1965],[6,-7],[2,0],[-1,1],[-7,6]],[[3755,2765],[3,12]],[[3757,2777],[-2,-12]],[[3757,2797],[0,-19]],[[4050,1916],[-103,72]],[[4050,1916],[1,-1]],[[4051,1915],[-1,1]],[[3780,32],[-25,-32]],[[3758,0],[22,30]],[[1364,1495],[-1,1]],[[3714,18],[-4,-5]],[[3710,11],[17,2]],[[3710,13],[5,3]],[[3759,50],[-33,-36],[-1,0]],[[3725,14],[-15,-2]],[[3727,13],[-2,1]],[[3725,14],[-12,6]],[[3727,13],[33,37]],[[3761,52],[-1,0]],[[3710,12],[-1,1],[-1,-1],[1,-1],[1,1]],[[2450,916]],[[1527,713],[-3,1]],[[1542,707],[0,-1]],[[1550,720],[1,2]],[[2567,1401]],[[1555,789],[3,1]],[[3786,80],[-14,1]],[[3789,80],[-3,0]],[[3786,80],[3,0]],[[1197,858],[1,-1]],[[1629,723],[-12,1]],[[1617,727],[2,15]],[[1381,1068],[1,-4]],[[1387,1051],[-3,1]],[[1403,1036],[-8,13]],[[4054,2696],[2,-1]],[[4060,2695],[-6,2]],[[2536,956],[-14,-6]],[[2530,952],[7,4]],[[1649,2225],[-2,-1]],[[3157,1080],[-3,6]],[[2753,1226],[1,0]],[[1721,1519],[-8,26]],[[1721,1519],[0,-1],[1,0],[0,1],[-1,0]],[[1617,52],[6,-2]],[[3481,3343],[1,3]],[[4034,841],[-1,18]],[[3100,1169],[0,-4]],[[1799,1825],[92,107]],[[1892,1933],[9,16]],[[1798,1824],[1,0],[0,2],[-1,-1],[0,-1]],[[3482,3346],[0,1]],[[3495,3324],[-9,0]],[[2448,755]],[[1656,1057],[59,22]],[[1715,1079],[14,5]],[[1729,1084],[22,9]],[[1751,1093],[2,1]],[[1755,1095],[-4,-2]],[[1753,1094],[2,1]],[[1753,1094],[2,-1]],[[1321,1042],[58,35]],[[1379,942],[2,1]],[[1381,522],[-2,-4]],[[1393,955],[5,21]],[[1403,997],[-5,15]],[[1449,859],[-1,1],[0,-1],[1,-1],[0,1]],[[1486,830],[-37,29]],[[1514,209],[70,50],[41,-15],[13,-65],[-18,-3]],[[3081,1027],[7,-4]],[[3088,1023],[-7,4]],[[3108,1006],[-20,17]],[[3108,1006],[4,-4],[55,0]],[[3167,1002],[-30,3],[-25,-3],[-4,4]],[[3515,225],[54,146],[69,48],[-83,195],[-231,312],[-157,76]],[[2315,1740],[0,-1]],[[3073,1029]],[[3081,1028],[-7,1]],[[3074,1029],[7,-2]],[[3551,214],[-36,11]],[[1474,132],[82,-69]],[[1557,63],[-83,70]],[[3012,991],[-1,0]],[[4086,2658],[1,0],[9,4]],[[4096,2663],[-6,-3]],[[1630,723],[-1,0]],[[2408,768],[18,1]],[[1586,1563],[-57,24]],[[1586,1563],[17,-12]],[[1648,1524],[-45,27]],[[1624,64],[-3,-10]],[[1621,54],[4,9]],[[1630,104],[-4,-34]],[[1627,70],[3,34]],[[1351,1297],[-4,17]],[[1348,1315],[69,139]],[[1351,1295],[0,2]],[[1441,1091],[-71,117],[-19,87]],[[1418,1456],[-1,-2]],[[1418,1456],[4,11]],[[1500,1583],[5,8]],[[1528,863],[-2,-7]],[[1526,856],[3,7]],[[1607,1913],[-4,-10]],[[1604,1903],[3,10]],[[1607,1913],[30,69]],[[1637,1982],[6,15]],[[1643,1997],[28,67]],[[1348,1315],[-1,0],[0,-1],[1,0],[0,1]],[[2411,131],[6,-3]],[[4001,866],[3,6]],[[4034,858],[0,2],[-2,-1],[2,-1]],[[4036,840],[-2,18]],[[2433,770]],[[1651,40]],[[1523,639],[-3,1]],[[1521,636],[2,2]],[[3830,315],[-12,1]],[[3827,314],[5,1]],[[1277,770],[2,-2]],[[1363,1496]],[[2243,1598],[66,99]],[[2310,1698],[-1,-1]],[[2310,1698],[5,29]],[[2314,1739],[1,-12]],[[2315,1727],[-1,12]],[[2364,0],[1,27]],[[1279,768],[1,0]],[[1284,1393],[3,5]],[[1363,1496],[-26,3]],[[1364,1495]],[[1446,2000],[2,1]],[[3553,175],[-1,0]],[[1699,739],[86,-15]],[[2151,636],[-37,-66]],[[2445,754],[3,1]],[[2476,763],[4,2]],[[2516,776],[18,5]],[[2537,780],[1,-1]],[[2742,771],[23,-3]],[[3014,986],[-16,-3]],[[3015,988],[1,-1]],[[3107,1007],[-25,21],[36,20]],[[3126,1004],[21,2]],[[3544,217],[-30,-1],[46,142],[78,56],[-32,118],[-165,269],[-98,107],[-193,98]],[[4032,859],[-1,1]],[[2091,509],[0,-1],[1,1],[-1,0]],[[1370,366],[3,12]],[[1372,379],[-2,-13]],[[1405,195],[-35,171]],[[1405,195],[8,-8],[8,-7],[19,-15]],[[1441,166],[-36,29]],[[1405,904],[-1,4]],[[3253,2857],[-4,-2]],[[3250,2854],[4,1]],[[3287,2872],[11,9]],[[2110,146],[11,-8]],[[2121,138],[-3,7],[-8,1]],[[1382,1701],[-1,1]],[[2279,164],[38,-19]],[[2317,145],[-37,19]],[[2318,144],[31,-18]],[[2349,126],[-31,19]],[[2350,125],[42,-26]],[[2392,100],[-41,25]],[[2318,144],[0,1],[-1,0],[0,-1],[1,0]],[[2350,125],[0,1],[-1,0],[0,-1],[1,0]],[[1449,429],[11,-131]],[[1461,297],[-12,134]],[[1617,53],[-59,10]],[[1558,63],[30,-8],[29,-3]],[[1625,681],[29,-24]],[[1654,657],[-28,24]],[[1679,648],[-25,9]],[[1679,648],[5,-2]],[[1916,567],[-237,81]],[[1669,764],[-34,-69]],[[1527,726],[2,-8]],[[1545,710],[4,10]],[[1770,1020],[0,4]],[[1733,1450],[0,1]],[[1196,24],[0,-9]],[[1196,15],[7,-14]],[[1196,25],[9,40]],[[1203,1],[3,-1]],[[1244,74],[-39,-8]],[[1275,89],[-30,-14]],[[1206,66],[-1,0],[-1,-1],[1,0],[1,1]],[[1245,74],[-1,1],[0,-1],[1,0]],[[1913,730],[-129,-9]],[[2114,570],[-72,36],[-12,-33],[-32,13],[-23,-21]],[[2285,573],[-126,12]],[[2468,761],[8,2]],[[2480,765],[36,11]],[[2650,695],[-21,36]],[[2693,676],[34,4]],[[3013,992],[-2,34]],[[3117,1060],[4,0]],[[3545,200],[-1,11]],[[3731,0],[-16,18]],[[3715,16],[15,-16]],[[2395,910],[-13,-4]],[[2550,1383],[14,13]],[[4037,838],[0,-1]],[[3852,3459],[2,14]],[[3854,3475],[13,142]],[[2368,742],[40,26]],[[3692,229],[4,33]],[[3563,209],[-3,2]],[[2259,2173],[16,2]],[[3292,2875],[85,97]],[[3010,1044],[13,3]],[[2174,213],[29,-12]],[[2202,202],[-27,11]],[[3466,2217]],[[2433,770],[-4,-1]],[[3767,81],[-5,-2]],[[3762,79],[-2,-29],[3,29]],[[3762,79],[1,0]],[[3763,79],[4,2]],[[3772,81],[-5,0]],[[3973,3033],[-5,-10]],[[3969,3022],[4,11]],[[3973,3033],[23,51]],[[3996,3084],[8,14]],[[4003,3099],[-7,-15]],[[4063,847],[-17,8]],[[2113,121],[-3,3]],[[2111,126],[0,1]],[[2120,80],[5,-23]],[[2121,138]],[[2121,138]],[[2125,57],[-1,10]],[[2129,24],[-4,33]],[[1638,723],[21,29]],[[3110,1060],[7,0]],[[1856,1157],[-1,5]],[[1857,1155],[3,-6],[7,-5]],[[1867,1144],[-10,11]],[[1869,1144],[-2,0]],[[2449,756],[8,2]],[[3546,3334],[-38,-46]],[[3508,3288],[38,46]],[[2236,187],[18,-12],[25,-11]],[[2280,164],[-44,24]],[[1636,2264],[-34,29]],[[1602,2327],[22,-2]],[[1622,2327],[-20,0]],[[1628,2317],[-1,0]],[[1627,2317]],[[1627,2317],[0,1]],[[1627,2318],[-1,1],[1,3],[-2,2]],[[1625,2324],[0,1]],[[1625,2325],[-1,1],[-2,1]],[[1628,2317],[-1,0]],[[1627,2317],[0,1]],[[1627,2318],[0,5],[-1,2],[-2,2],[-2,0]],[[1624,2325],[1,-7],[1,0]],[[1626,2318],[1,-1]],[[1627,2317],[1,0]],[[1624,2325],[1,0]],[[1625,2325],[0,-1]],[[1625,2324],[1,-6]],[[1626,2318],[0,-1],[2,0]],[[1628,2317]],[[1648,2224],[-7,24]],[[1648,2224]],[[1648,2224],[1,0]],[[1649,2222],[1,10]],[[2270,445],[1,0]],[[3803,3356],[77,-17]],[[4032,3290],[-151,48]],[[1362,436],[17,82]],[[1397,916],[-18,26]],[[1397,1016],[23,13],[-17,7]],[[1398,976],[5,21]],[[1404,908],[-2,5]],[[1402,897],[0,3]],[[1447,860],[-43,37]],[[1514,209],[-29,1]],[[1499,793],[20,-4]],[[1516,790],[-16,3]],[[2320,680],[23,46]],[[1601,78],[2,5]],[[1609,75],[4,-1]],[[1540,885],[-2,48]],[[1533,792],[-10,-2]],[[1524,790],[9,1]],[[1630,937],[-23,-85]],[[1607,852],[24,85]],[[3658,3541],[25,24]],[[4034,3815],[12,1]],[[1390,459],[1,1]],[[1392,463],[-1,-3]],[[1392,463],[0,3]],[[3445,2229],[5,-3]],[[3466,2581],[-8,133]],[[3532,2500],[-1,24]],[[3620,3380],[1,1],[0,1],[-1,0],[0,-2]],[[1150,168],[-33,30]],[[1197,861]],[[1198,858],[0,1]],[[1215,884],[7,2]],[[1222,626],[25,29]],[[1250,657],[-1,2]],[[1266,1350],[18,43]],[[1309,1418],[-2,2]],[[1366,1496],[3,8]],[[1382,1699],[0,2]],[[1447,1936],[1,2]],[[1454,2044],[2,-2]],[[1231,1174],[2,0],[-1,1],[-1,-1]],[[1684,646],[1,0]],[[2146,639],[35,33],[105,30]],[[2181,669],[100,31]],[[2281,700],[5,1]],[[2285,701],[-4,-1]],[[2286,702],[3,0]],[[2289,703],[-3,-1]],[[2299,705],[-10,-2]],[[2289,702],[0,1]],[[2298,704],[1,0]],[[2520,96],[-26,-47]],[[1529,863],[-1,0]],[[2397,106],[-4,-6]],[[2393,99],[4,7]],[[2397,106],[5,19]],[[2402,125],[1,5]],[[2403,131],[-1,-6]],[[2393,98],[0,1]],[[2393,99],[-1,1],[0,-1],[1,-1]],[[4033,859],[1,0],[-1,1],[0,-1]],[[1629,723]],[[3545,200],[10,0]],[[1436,259]],[[1437,260]],[[1556,63],[2,0]],[[1558,63],[-1,0]],[[1900,3343],[23,49],[-25,28]],[[3095,1252],[-80,26],[-28,-17],[-113,52]],[[3100,1169],[-2,80]],[[3115,1115],[-15,29]],[[3137,1085],[3,-3]],[[3100,1141],[0,24]],[[2136,1384],[151,168]],[[2290,1554],[0,-1]],[[1627,767],[-6,2]],[[1623,767],[4,-1]],[[3142,1075],[0,-2]],[[1609,1066],[6,64]],[[1609,1066],[11,-68]],[[1621,996],[-12,70]],[[1615,1130],[4,24]],[[1619,1154],[3,10]],[[4096,584],[-168,-46],[-44,-38],[-27,-39],[-37,-105],[3,-257],[-43,-67]],[[3780,30],[40,53],[5,18],[3,130],[-7,126],[41,110],[68,70],[166,46]],[[1647,186],[-18,54],[13,122]],[[2289,702],[9,2]],[[1671,1456],[6,-15]],[[1678,1441],[-7,15]],[[2350,1021],[1,-1],[1,1],[-1,1],[-1,-1]],[[1627,766]],[[1770,1020],[1,0]],[[1857,1157],[-1,0],[0,-1],[1,-1],[0,2]],[[1770,1098],[-15,-3]],[[1755,1094],[15,4]],[[1770,1098],[38,27]],[[1808,1125],[5,3]],[[1812,1128],[-4,-3]],[[1817,1130],[-2,-1]],[[1815,1129],[2,1]],[[1381,430],[1,0]],[[1381,522]],[[1391,367],[-6,14]],[[1409,569],[0,1]],[[1420,318],[-2,4]],[[1440,601],[31,44]],[[1446,253],[1,9]],[[1483,667],[-10,-18]],[[1529,803],[-43,27]],[[1623,71],[0,1],[-5,0],[5,-1]],[[1623,71],[6,-3]],[[1641,63],[-1,1]],[[1729,39],[-38,8],[-13,-10]],[[1687,39],[1,-1],[1,0],[3,8],[10,-3]],[[1708,40],[5,-3]],[[1731,25],[-1,2]],[[3544,211],[0,6]],[[2450,916],[-31,-3]],[[2436,914],[14,1]],[[4034,3815],[-1,0]],[[3542,2247],[4,78],[43,49]],[[3589,2374],[2,2]],[[3590,2376],[-1,-2]],[[3613,2028],[7,87]],[[3684,1958],[5,-4]],[[3689,1954],[-4,4]],[[3768,1898],[-79,56]],[[3759,2813],[-2,-16]],[[3758,2778],[1,35]],[[3759,2813],[6,45]],[[3765,2858],[8,14]],[[3772,2872],[-7,-14]],[[3768,1898],[20,-8]],[[3788,1890],[69,10],[89,88]],[[1381,522],[8,9]],[[1409,570],[20,20]],[[1438,598],[2,3]],[[1605,85],[8,14]],[[1640,64],[-2,0]],[[1656,57],[-15,6]],[[1630,2327],[0,6]],[[3557,3343],[-11,-9]],[[3546,3334],[11,8]],[[3485,3343],[-4,0]],[[3830,1765],[-33,18]],[[3920,1788],[15,17]],[[3420,3020],[8,11]],[[3428,3033],[-6,-10]],[[3508,3288],[-13,-19],[-13,-20],[-5,-62]],[[3478,3188],[30,100]],[[3609,3384],[-5,-3]],[[1381,1068],[-1,5]],[[1384,1052],[0,1]],[[1678,37],[9,2]],[[4004,872],[0,13]],[[4018,863],[13,-3]],[[3462,3138],[-20,-63]],[[3443,3076],[18,56]],[[2379,1299],[96,71]],[[2475,1370],[3,2]],[[2478,1373],[-3,-3]],[[2478,1374],[0,-1]],[[2478,1373],[0,-1],[1,1],[-1,1]],[[1362,436],[20,-6]],[[1385,381],[17,50],[-19,0]],[[1389,531],[22,35]],[[1409,570],[0,-1]],[[1429,590],[9,8]],[[1485,210],[-74,4],[25,45]],[[1446,253],[-1,4]],[[1532,788],[-3,15]],[[1603,83],[2,2]],[[1613,99],[9,-2]],[[1618,72],[-2,1]],[[1622,98],[0,55]],[[1638,64],[-9,4]],[[1668,48],[-12,9]],[[1702,43],[6,-3]],[[1713,37],[16,1]],[[1729,38],[0,1]],[[1730,27],[-1,11]],[[1740,0],[-9,25]],[[2327,2177],[6,2]],[[2369,2190],[3,-3]],[[2379,2183],[-6,3]],[[3482,3347],[1,0]],[[3494,3353],[3,5]],[[3495,3324],[0,2]],[[2040,265],[-206,68]],[[1503,810],[-8,-14]],[[1496,795],[7,15]],[[1503,810],[21,40]],[[1524,850],[2,6]],[[1526,856],[-2,-6]],[[1671,2064],[1,2]],[[1672,2066],[4,14]],[[1676,2086],[-4,-20]],[[2091,509],[-175,58]],[[1418,322],[-27,45]],[[1447,262],[-27,56]],[[3703,322],[30,0]],[[3733,322],[-30,1]],[[1521,1593],[-90,35]],[[1528,1590],[6,-4]],[[1806,1810],[18,-31]],[[2168,2038],[3,-6]],[[2327,2177],[-20,-7]],[[3475,3221],[-20,-137],[-33,-42]],[[3485,3320],[1,-24]],[[3486,3324],[0,-2]],[[3486,3322],[1,2]],[[3498,3361],[56,16],[11,63]],[[3863,3650],[9,15]],[[3990,3759],[-121,2]],[[4017,3745],[-23,14]],[[4021,3813],[-9,63]],[[4033,3815],[2,-14]],[[4035,3800],[-1,15]],[[2121,138]],[[1503,692]],[[1546,789],[9,0]],[[1641,44],[-17,7]],[[1624,50],[16,-7]],[[1642,43],[9,-3]],[[1651,40],[-9,4]],[[1652,39],[0,1],[-1,0],[1,-1]],[[1652,39],[21,-6]],[[1674,33],[-21,7]],[[1642,43],[0,1],[-1,0],[0,-1],[1,0]],[[1198,857],[0,1]],[[1252,657],[9,31]],[[1629,2319],[1,8]],[[4018,863],[-17,2]],[[1898,3420],[-20,23],[36,47]],[[3023,1047],[48,8]],[[3075,1056],[6,1]],[[3083,1057],[-2,0]],[[3083,1057],[15,4]],[[1469,747],[16,28]],[[1470,750],[0,-1]],[[1520,640],[-12,7]],[[1515,640],[3,-3]],[[2315,1739],[1,0]],[[2317,1740],[-2,0]],[[2319,1740],[11,0]],[[2330,1740],[-4,0],[-6,0]],[[2339,1738],[-9,2]],[[2341,1738],[-2,0]],[[2348,1737],[-7,1]],[[3320,1939],[43,18]],[[3478,1785],[113,19],[25,26]],[[3557,3342],[46,38]],[[3604,3381],[-47,-38]],[[1627,767],[0,-1]],[[1627,766],[1,1]],[[3449,2774],[-65,172]],[[2243,1596],[-210,-101],[-108,30],[-72,-21],[-139,42]],[[1880,1166],[-2,-1]],[[1878,1165],[-7,-3]],[[1871,1163],[3,2],[4,0]],[[1878,1165],[2,0]],[[2316,1739],[3,1]],[[2320,1740],[-3,0]],[[3478,1785],[-158,154]],[[3425,2037],[50,54],[-39,133]],[[3458,2714],[-3,27]],[[3465,2579],[1,2]],[[3516,2501],[16,-1]],[[3542,2362],[-2,4]],[[3790,1759],[-48,-9],[-107,48],[-19,32]],[[2124,67],[-3,9]],[[1626,70],[-2,-6]],[[1625,63],[2,7]],[[2352,1021],[15,-2]],[[1523,619],[-5,-2]],[[1518,616],[5,2]],[[1527,621],[-2,-1]],[[1526,620],[8,4]],[[1595,647],[20,12]],[[1614,656],[-12,-9],[-5,0]],[[1635,695],[-3,-7]],[[1633,689],[25,46]],[[1755,1095],[5,1]],[[1815,1129],[-3,-1]],[[1813,1128],[2,1]],[[1726,1693],[-3,7]],[[2383,2172],[2,2]],[[2386,2153],[4,16]],[[2406,134],[39,16]],[[2520,96],[-1,0]],[[2583,1794],[-19,37]],[[2593,1384],[20,0]],[[2753,1226],[2,0]],[[3131,1053],[-10,7]],[[3132,1054],[-1,-1]],[[3142,1070],[-8,-18]],[[3258,2858],[13,4],[12,5]],[[3283,2867],[2,0]],[[3272,2862],[-11,-7],[12,4],[10,8]],[[3283,2867],[101,79]],[[1686,2075],[15,-5]],[[1701,2070],[-9,4],[-6,2]],[[1900,1950],[-199,120]],[[2526,0],[-28,55]],[[3819,3389],[2,12]],[[3821,3401],[-1,0]],[[3821,3401],[4,10]],[[3826,3412],[24,22]],[[2299,1556],[-9,-2]],[[2290,1553],[9,3]],[[2308,1557],[-9,-1]],[[1627,70],[-1,0]],[[2137,1384],[5,11]],[[2287,1552],[3,1]],[[2299,1556],[9,1]],[[801,0],[-801,588]],[[1650,1521],[1,0]],[[1651,1521],[-1,0]],[[1656,1507],[-5,14]],[[1656,1507],[8,-24]],[[1664,1483],[-8,24]],[[1630,2333],[9,182]],[[1625,681]],[[1626,681],[-1,0]],[[3818,315],[12,-1]],[[3852,3457],[-1,-13]],[[3852,3444],[0,13]],[[3852,3444],[-1,0],[0,-1],[1,0],[0,1]],[[3852,3457],[0,2]],[[3098,1249],[-3,3]],[[3134,1091],[-19,24]],[[3134,1091]],[[3137,1086],[-3,5]],[[3140,1082],[2,-7]],[[1880,1165],[8,-1]],[[1995,1236],[8,10]],[[2026,1273],[2,2]],[[2133,1375],[4,9]],[[3096,1018],[61,62]],[[2094,1964],[5,2]],[[4059,823],[-25,18]],[[4060,823],[-1,0]],[[4059,823],[0,-1],[1,1]],[[4079,810],[-19,13]],[[4000,864],[1,1]],[[3748,2801]],[[3758,2797],[-1,0]],[[3854,3473],[0,1],[0,1],[-1,-1],[1,-1]],[[2567,1401],[-70,26],[-150,215],[1,95]],[[2539,1340],[-16,42]],[[2579,1285],[-39,54]],[[2545,1378],[5,5]],[[2618,1216],[-38,68]],[[2618,1216],[1,-1]],[[2650,1168],[-31,47]],[[2703,1095],[-53,72]],[[3780,2883],[-8,-11]],[[3773,2872],[7,11]],[[3780,2883],[41,54]],[[3821,2937],[25,20]],[[3846,2957],[114,51]],[[3960,3008],[9,14]],[[3968,3023],[-8,-15]],[[4014,3109],[-11,-10]],[[4004,3098],[10,11]],[[4014,3109],[82,65]],[[1499,1588],[1,0]],[[1512,1596],[-1,-1]],[[2242,1597],[1,-1],[1,1],[-1,1],[-1,-1]],[[2649,1167],[1,0],[0,1],[-1,-1]],[[1630,723],[8,0]],[[1659,752],[32,-8]],[[2534,781],[3,-1]],[[3071,1055],[3,0],[1,1],[-1,0],[-3,-1]],[[1674,37],[-6,11]],[[2445,150],[36,20],[-82,206],[-30,24]],[[2400,2121],[-14,32]],[[2446,0],[2,38]],[[2564,1831],[-82,162]],[[2565,1406],[35,310],[-17,78]],[[2593,1384],[-11,21]],[[1621,54],[-13,-54]],[[1609,0],[12,54]],[[1631,365],[-96,47],[49,160]],[[1614,656],[13,17]],[[1627,673],[7,4]],[[1633,677],[-6,-4]],[[1631,365],[21,-7]],[[1691,352],[-39,6]],[[1693,351],[-2,1]],[[1810,335],[-117,16]],[[1810,335],[14,-2]],[[1823,334],[-13,1]],[[1520,701],[3,5]],[[1572,757],[4,4]],[[1473,649],[-2,-4]],[[1622,153],[0,6]],[[1529,1588],[0,34],[52,65]],[[1582,1688],[-1,-1]],[[1581,1687],[2,1]],[[1588,1692],[-6,-4]],[[1583,1688],[-1,0]],[[1583,1688],[5,4]],[[1588,1692],[138,95]],[[1726,1787],[14,6]],[[1740,1793],[-14,-6]],[[1751,1796],[-10,-3]],[[1741,1793],[10,3]],[[1751,1796],[47,28]],[[2075,252],[26,-10]],[[2101,242],[22,-10],[51,-19]],[[2175,213],[-74,29]],[[1197,861],[0,-3]],[[1198,859],[-1,2]],[[1198,854],[0,3]],[[1221,618],[1,8]],[[1249,659],[-1,-1]],[[1261,688]],[[3620,3382],[-20,6]],[[2365,27],[1,2]],[[2365,30],[23,64]],[[2388,94],[4,4]],[[2392,99],[-4,-5]],[[1635,1208],[-2,-7]],[[1634,1200],[1,8]],[[1635,1208],[15,87]],[[1650,1295],[4,8]],[[1654,1304],[-4,-9]],[[1745,904],[1,0]],[[1746,904],[0,1]],[[3074,1029],[-1,0]],[[3081,1028],[0,-1]],[[3081,1027]],[[3120,1045],[57,38],[10,223],[133,645]],[[3948,136],[-10,-2]],[[3938,134],[10,2]],[[3948,136],[148,19]],[[3684,1959],[-1,0]],[[1649,1523],[1,-2]],[[1650,1521],[0,3]],[[2290,1554],[0,-1]],[[2158,600],[-7,36]],[[2343,726],[25,16]],[[3011,1027],[0,6]],[[4010,2145],[61,55]],[[4009,2145],[0,-1],[1,0],[0,1]],[[4010,2145],[-1,0]],[[4071,2200],[0,-1],[2,1],[-1,1],[-1,-1]],[[3592,2378],[-2,-1],[1,-1],[1,0],[0,2]],[[3758,2777],[0,1],[-1,0],[0,-1],[1,0]],[[4051,1915],[0,-1],[1,0],[0,1],[-1,0]],[[1855,1162],[-17,35]],[[2017,1256]],[[2018,1256],[104,55],[197,-15]],[[2482,1376],[-4,-2]],[[2479,1373],[3,3]],[[2482,1376],[31,7]],[[2523,1383],[-10,0]],[[2513,1383],[10,-1]],[[3805,3363],[-2,-5]],[[3803,3358],[-1,-1],[1,-1],[1,1],[-1,1]],[[1658,735],[12,29]],[[4052,1914],[2,-1]],[[4054,1913],[-1,1]],[[4096,1888],[-42,25]],[[2015,1267],[-5,-8]],[[1398,1012],[-1,4]],[[3764,80],[0,1]],[[1380,1073],[-1,4]],[[4096,806],[-17,4]],[[2296,670],[1,8]],[[2297,678],[1,8]],[[2298,704],[-1,-26]],[[2110,146],[-30,-5]],[[2080,140],[30,6]],[[3932,2026],[77,118]],[[1692,743],[-1,1]],[[1619,742],[2,5]],[[1120,45],[-17,7]],[[1195,25],[-73,20]],[[1150,131],[-22,-35]],[[1198,25],[-3,0]],[[1211,20],[-13,5]],[[1224,13],[-13,6]],[[1239,4],[-12,8]],[[1516,2319],[79,8]],[[1602,2327],[19,1]],[[1616,42]],[[1372,389],[0,-10]],[[1372,389],[16,62]],[[1373,384],[-1,5]],[[1373,378],[0,4]],[[1390,457],[0,2]],[[1392,466],[3,8]],[[1395,474],[3,9]],[[1398,483],[11,24]],[[1409,509],[33,78]],[[1443,588],[44,64]],[[1487,652],[6,5]],[[1493,658],[-6,-6]],[[1409,508],[-1,0],[1,-1]],[[1409,507],[0,1]],[[801,0],[-801,588]],[[1445,257],[-8,3]],[[1525,620],[-2,-1]],[[1523,618],[3,2]],[[1632,688],[-2,-6],[-8,-15],[0,-1]],[[1622,666],[-4,-7],[-4,-3]],[[1615,659],[7,7]],[[1622,666],[1,1],[10,22]],[[2003,1246],[23,27]],[[3118,1048],[-1,2]],[[4096,2140],[-78,-102]],[[4096,2252],[-49,84]],[[3121,1046],[52,26],[59,-73],[113,-65],[669,-99],[1,16]],[[1534,1586],[21,-3]],[[1588,805],[23,-29]],[[1608,781],[-19,24]],[[1611,777],[-3,4]],[[1534,627]],[[1534,626],[1,0]],[[2486,47],[8,2]],[[3100,1141],[0,3]],[[1755,1094],[0,1]],[[1576,761],[46,-4]],[[1622,757],[0,-1]],[[2115,133],[-4,-6]],[[3810,316],[-37,5],[-40,1]],[[3733,322],[85,-7]],[[1437,260],[-1,-1]],[[1622,98],[0,-1]],[[1107,64],[21,32]],[[1150,131],[0,37]],[[1211,19],[0,1]],[[1233,0],[6,4]],[[3142,1073],[0,-3]],[[1227,12],[-3,1]],[[1595,2327],[7,0]],[[4044,2698],[10,-2]],[[1521,1594],[7,-4]],[[1555,1583],[171,110]],[[1723,1700],[4,71],[79,39]],[[1824,1779],[61,83],[79,-41]],[[1979,1868],[89,-22],[26,40],[0,78]],[[2127,1979],[58,26],[-14,27]],[[2161,2043],[-2,67],[100,63]],[[2168,2038],[-2,5]],[[2285,2163],[-10,12]],[[2346,2181],[24,10]],[[2384,2173],[-5,10]],[[3285,2867],[7,8]],[[3377,2972],[14,20]],[[3421,3041],[1,1]],[[3486,3322]],[[3497,3358],[1,3]],[[3565,3440],[-24,16],[30,41],[-17,12],[69,81],[27,-19],[179,140],[34,-61]],[[3872,3665],[35,37],[-38,59]],[[3990,3759],[4,0]],[[4017,3745],[21,0],[-3,56]],[[2449,123],[0,1]],[[1363,7],[-44,-7]],[[1321,0],[47,6]],[[2365,28],[-1,-3]],[[2365,28]],[[1521,636],[14,-12]],[[1536,624],[-2,3],[-11,11]],[[2457,44],[4,2]],[[2285,573],[30,3]],[[1658,1314],[-4,-10]],[[1654,1303],[4,11]],[[1658,1314],[22,119]],[[1677,1441],[3,-8]],[[1680,1433],[-2,8]],[[1106,61],[-3,-9]],[[1104,52],[2,9]],[[1106,61],[1,3]],[[1120,45],[2,0]],[[4096,3271],[-64,19]],[[3881,3339],[-1,0],[0,-1],[1,0],[0,1]],[[2431,110],[18,13]],[[2539,1339],[1,0],[0,1],[-1,0],[0,-1]],[[2423,120],[1,0]],[[2675,1262],[-12,20]],[[2692,1241],[-14,17]],[[2754,1226]],[[3131,1053]],[[1499,687],[4,5]],[[1520,701],[-17,-9]],[[1524,714],[1,14]],[[1538,707],[-10,8]],[[1528,716],[10,-8]],[[1532,788]],[[1544,710],[-2,-3]],[[1547,789]],[[1549,720],[1,0]],[[1552,725],[-1,-3]],[[1569,740],[3,18]],[[2095,2004],[-1,1]],[[2355,2151]],[[2356,2151],[17,6]],[[1673,33]],[[1898,3420],[-20,23],[36,47]],[[1648,2224],[2,-8]],[[1650,2216],[-1,9]],[[1675,2098],[-25,118]],[[1675,2098],[1,-12]],[[1677,2086],[0,7],[-2,5]],[[4083,2669],[13,-27]],[[4096,2642],[-13,27]],[[1528,1588],[-15,7]],[[1528,1588],[1,-1],[0,1],[-1,0]],[[3458,3340],[-4,1]],[[2465,42],[21,5]],[[2080,141]],[[2080,141],[0,-1]],[[2080,140]],[[1676,31],[-2,2]],[[1714,0],[-3,9]],[[1750,1409],[-16,41]],[[1650,1524],[62,21]],[[1601,2326],[1,1]],[[1602,2327],[-1,-1]],[[1602,2293],[-1,33]],[[1641,2248],[-5,16]],[[3506,103],[51,61]],[[3557,164],[-4,11]],[[3557,164]],[[3792,275],[-21,2]],[[3944,395],[-13,36]],[[2269,447],[1,0]],[[2298,686],[1,18]],[[2364,35],[1,-5]],[[2403,130],[0,1]],[[3137,1085],[0,1]],[[3491,92],[2,3]],[[3552,175],[-7,25]],[[3834,316],[43,2],[67,77]],[[4004,885],[5,446],[87,171]],[[4014,452],[0,2]],[[4096,772],[-59,64]],[[4096,538],[-57,-15]],[[4096,2202],[-23,-2]],[[2099,1966],[27,3]],[[2319,676],[1,4]],[[4063,847],[1,-1],[0,1],[-1,0]],[[3565,208],[-14,6]],[[3566,208],[-3,1]],[[3566,208],[-1,0]],[[3565,208],[2,-1]],[[3567,209],[-1,-1]],[[3571,223],[-4,-14]],[[3567,208],[0,1]],[[3567,208],[4,15]],[[3567,208]],[[3571,223],[28,74]],[[3599,297],[1,1]],[[3600,298],[-1,-1]],[[3601,299],[-1,-1]],[[3600,298]],[[3600,298],[1,0]],[[3601,301],[0,-2]],[[3601,299]],[[3601,299],[0,2]],[[3601,298],[0,1]],[[3601,301],[72,18]],[[3851,3443],[0,-8]],[[3851,3434],[1,0],[-1,1],[-1,-1],[1,0]],[[2719,1062],[-16,33]],[[2719,1061],[1,1],[-1,0]],[[2719,1062],[-1,-1],[1,0]],[[2719,1044],[0,17]],[[3483,3347],[11,5]],[[3495,3328],[-10,15]],[[3494,3352],[0,1]],[[3495,3326],[0,2]],[[1750,1407],[-1,0],[1,1],[1,0],[-1,-1]],[[1775,1327],[-25,80]],[[1775,1327],[1,-1]],[[1838,1197],[-62,129]],[[1755,1095],[2,-9]],[[1714,0],[-41,33]],[[3445,2765],[4,9]],[[3446,2763],[-1,1]],[[3529,2524],[2,0]],[[2650,695],[6,-30],[37,11]],[[2727,680],[7,58]],[[2741,771],[0,1]],[[1563,728],[6,12]],[[1523,706],[2,3]],[[1527,726],[-2,2]],[[1528,715],[1,3]],[[1542,706],[-4,1]],[[1544,710],[1,0]],[[3673,319],[12,3]],[[3685,322],[18,0]],[[3703,323],[-18,-1]],[[1117,198],[46,83],[20,168],[44,76],[-6,93]],[[1200,844],[-6,-61],[83,-13]],[[1222,886],[24,74],[-13,87],[88,-5],[-31,102],[-26,-6],[-31,36]],[[1232,1175],[34,175]],[[1247,655],[1,2]],[[1248,658],[0,-1]],[[1248,657],[4,0]],[[1261,689],[0,-1]],[[1261,688],[0,1]],[[1280,768],[-19,-79]],[[1309,1418],[-22,-20]],[[1307,1420],[30,79]],[[1366,1496],[-2,-1]],[[1382,1699],[59,-50],[-72,-145]],[[1385,1725],[54,119],[8,92]],[[1385,1725],[1,-1],[0,-3],[1,3],[-2,1]],[[1390,1713],[0,-3]],[[1448,1938],[-2,62]],[[1448,2001],[8,41]],[[1454,2044],[6,207],[32,65],[24,3]],[[1621,2328],[10,0]],[[1460,298],[-4,-117],[-85,-181]],[[1372,0],[84,177],[7,47],[-2,72],[0,1]],[[1495,591],[-23,-56],[-23,-95],[0,-11]],[[1449,431],[47,160]],[[1518,617],[-15,-17]],[[1503,600],[-8,-9]],[[1515,629],[-20,-38]],[[1496,591],[22,25]],[[1496,591],[7,9]],[[1503,600],[8,10],[4,11]],[[2093,2004]],[[2269,449],[27,220]],[[2269,449],[4,-8]],[[2408,167],[-135,274]],[[2296,669],[1,1],[-1,0],[0,-1]],[[2366,29],[-1,-1]],[[2404,136],[-1,-5]],[[2403,131],[1,5]],[[2404,136],[0,1]],[[2408,167],[0,-4]],[[2409,163],[-1,4]],[[2408,161],[1,0]],[[2409,162],[0,1],[-1,-1],[0,-1]],[[2408,161],[1,1]],[[2125,0],[4,24]],[[1197,25],[-1,0],[0,-1],[1,0],[0,1]],[[1964,1821],[15,47]],[[2161,2043],[5,0]],[[2307,2170]],[[3397,3006],[24,35]],[[4012,3876],[84,35]],[[4033,3815],[-12,-2]],[[3851,3435],[0,8]],[[2465,42],[0,2]],[[2519,96],[-5,4]],[[1536,624],[0,-1]],[[1625,681]],[[1628,767],[-1,0]],[[1633,1197],[-1,0]],[[1649,2226],[-1,-1]],[[1649,2225],[0,1]],[[1650,2232],[-1,1]],[[1674,33]],[[1676,2080],[1,6]],[[1770,978]],[[1774,939]],[[1860,1149],[1,0]],[[2093,143]],[[2094,143]],[[2113,121],[1,-5]],[[2118,144],[1,0]],[[2639,1008],[-1,0],[0,-1],[1,0],[0,1]],[[3063,1087],[-312,-46]],[[3063,1087],[11,-2]],[[3074,1086],[-11,1]],[[3073,1047],[0,15]],[[3073,1062],[0,-2],[0,-13]],[[3073,1040],[0,7]],[[3073,1040],[0,-1]],[[3073,1039],[0,1]],[[3073,1062],[1,13]],[[3074,1086],[0,-1]],[[3074,1085],[0,-10]],[[3074,1085]],[[3074,1085],[0,1]],[[3074,1075],[0,10]],[[3703,322]],[[1597,647],[-70,-26]],[[1534,624],[61,23]],[[2734,738],[7,33]],[[1674,37],[4,0]],[[3846,316],[-14,-1]],[[3835,315],[11,1]],[[3900,318],[-54,-2]],[[4096,325],[-196,-7]],[[3900,318],[29,0],[167,6]],[[2543,960],[-7,-4]],[[2537,956],[6,4]],[[2543,960],[95,48]],[[2639,1008],[67,35]],[[2706,1043],[13,1]],[[2719,1045],[-13,-2]],[[3867,3617],[-12,22]],[[2426,914],[10,0]],[[2450,918],[-23,-4]],[[2522,950],[-72,-35],[80,37]],[[1630,2327],[0,6]],[[1690,2075],[0,-1]],[[1692,2074]],[[3454,3341],[-277,104],[-65,132],[-74,41],[-225,20],[-70,83],[43,193],[-78,121],[-111,-19],[-37,-95],[-64,7]],[[3476,3351],[-18,-11]],[[1601,78],[8,-3]],[[1613,74],[3,-1]],[[1891,1932],[1,1]],[[3453,3344],[-2,0]],[[3482,3354],[-2,-1]],[[2014,1257],[1,1]],[[1440,165],[5,-7],[2,-1],[3,-3]],[[1450,154],[0,-1]],[[1450,154],[-9,12]],[[1450,154]],[[1450,154]],[[1450,153],[0,1]],[[1450,153],[24,-21]],[[1450,154]],[[1474,133],[-24,21]],[[1624,51],[-7,2]],[[2123,67],[1,0]],[[2429,112],[1,-2]],[[3641,1997],[-27,30]],[[3613,2028],[0,-1],[1,0]],[[3614,2027],[0,1],[-1,0]],[[3641,1997],[1,-1],[1,1],[-1,1],[-1,-1]],[[2121,138]],[[1533,791],[51,11],[5,2],[0,1],[11,26],[7,21]],[[1607,852],[-19,-47],[-55,-13]],[[2130,1081],[-149,-1],[-112,64]],[[2130,1081],[19,-9]],[[2149,1072],[12,-5]],[[2181,1059],[-20,8]],[[2171,1063]],[[2350,1021],[-169,38]],[[3757,2797],[-9,4]],[[1670,764],[28,94]],[[1736,895],[21,18]],[[1770,968],[0,16]],[[1771,1013],[0,7]],[[1773,931],[1,14]],[[1880,1166],[115,70]],[[2028,1275],[108,109]],[[1413,188],[-1,0]],[[1413,187],[0,1]],[[1535,624],[2,-2]],[[1537,622],[-1,2]],[[1537,620],[0,2]],[[4056,2695],[27,-26]],[[4083,2669],[-23,26]],[[2419,913],[-5,-1]],[[2110,124],[1,2]],[[2120,80],[-6,36]],[[2124,67],[-1,0]],[[1584,572],[30,84]],[[3790,80],[2,0]],[[3792,80],[-2,0]],[[3792,80],[41,10]],[[3850,98],[-17,-8]],[[3850,98],[80,35]],[[3930,133],[8,1]],[[3938,134],[-8,-1]],[[2431,110],[-2,2]],[[3946,1989],[-14,36]],[[3932,2026],[0,-1],[1,0],[0,1],[-1,0]],[[3621,206],[71,23]],[[3696,262],[47,-6]],[[3098,1061],[12,-1]],[[2319,1296],[60,3]],[[1519,636],[-4,-7]],[[1515,621],[5,14]],[[2128,255],[-41,-82],[-3,-9],[-1,-7],[2,-14],[3,-17],[-3,-13]],[[2086,111],[3,11],[-4,42],[45,89]],[[2144,292],[17,46]],[[2161,340],[-16,-44]],[[2374,894],[4,-18],[3,-11]],[[2381,865],[5,-30],[0,-11],[0,-1]],[[2386,823],[-6,-20],[-2,-4],[-18,-23]],[[2360,775],[19,24],[7,21],[0,3]],[[2386,823],[-5,42]],[[2381,865],[-2,9],[-5,21]],[[1422,1467],[78,116]],[[1538,933],[-97,158]],[[1505,1591],[35,73]],[[1535,873],[-7,-10]],[[1529,863],[6,10]],[[1535,873],[5,12]],[[1540,1664],[10,53]],[[1550,1717],[52,177]],[[1602,1894],[2,9]],[[1603,1903],[-1,-9]],[[2329,1740],[1,-4]],[[2534,1382],[-11,1]],[[2523,1382],[11,0]],[[2545,1378],[-11,4]],[[2136,1384],[1,0]],[[2137,1385]],[[2290,1553],[-2,0]],[[2292,1554],[-1,0]],[[2299,1556]],[[2085,113],[-93,-46],[-105,-67]],[[1889,0],[99,64],[95,41],[3,6]],[[2145,296],[-17,-41]],[[2130,253],[14,39]],[[2360,776],[-61,-43],[-138,-393]],[[2161,338],[113,275],[14,50],[12,69],[60,43]],[[3249,2855],[-115,-35],[-756,-663],[-75,-600],[69,-118],[-23,-280],[0,-23],[13,-65],[12,-177]],[[2374,895],[-12,176],[-13,82],[24,125],[3,125],[-3,37],[-69,118],[35,86],[-2,58],[-4,47],[0,21],[47,351],[0,35],[754,663],[116,35]],[[4054,2697],[-234,76],[-64,13],[-158,131],[-130,42],[-40,9],[-11,-1],[-24,-7],[-22,-14],[-118,-89]],[[3254,2855],[18,4],[15,13]],[[3298,2881],[93,78],[71,1],[135,-44],[150,-127],[14,-5],[62,-12],[221,-74]],[[1197,861],[-2,8]],[[1197,872],[18,12]],[[1198,854],[2,-10]],[[2445,754],[-12,16]],[[2448,755],[1,1]],[[2457,758],[11,3]],[[3819,3388],[-14,-25]],[[3825,3411],[-7,-22]],[[3818,3389],[0,-1],[1,0]],[[3819,3388],[-1,1]],[[3850,3434],[-25,-22]],[[3826,3411],[0,1],[-1,0],[0,-1],[1,0]],[[1784,721],[1,3]],[[1975,565],[-54,10],[32,110],[-40,45]],[[2159,585],[-1,15]],[[2315,576],[4,100]],[[2426,769],[2,0]],[[2629,731],[-91,48]],[[2742,771],[-1,1]],[[2765,768],[92,-15],[71,59],[35,38],[27,127]],[[3011,1026],[0,1]],[[1824,333],[0,1]],[[2040,265],[35,-13]],[[3598,3388],[-42,3]],[[3600,3387],[0,1],[-1,1],[-1,-2],[2,0]],[[1699,739],[-7,4]],[[1510,1596],[-11,-7]],[[1499,1589],[0,-1]],[[1500,1588],[-1,1]],[[1506,1582],[6,12]],[[1510,1596],[2,-2]],[[1528,863]],[[1549,1703],[-1,0]],[[1604,1903],[-1,0]],[[1630,2333],[9,182]],[[4034,859],[2,0]],[[4045,856],[-5,3]],[[1252,657],[-2,0]],[[1387,1705],[-1,16]],[[4040,859],[-4,0]],[[4045,855],[1,1],[-1,0],[0,-1]],[[2369,400],[-46,128],[9,47],[-17,1]],[[3556,3391],[9,48],[93,102]],[[3683,3565],[84,64],[88,10]],[[3866,3644],[30,14]],[[3899,3659],[-2,0]],[[3897,3658],[2,1]],[[3899,3659],[83,40]],[[3982,3699],[4,2]],[[3986,3701],[53,42]],[[3896,3659],[0,-1],[1,-1],[0,1],[-1,1]],[[1447,860],[1,-1]],[[1622,159],[-2,17]],[[1500,793],[-5,3]],[[1496,795],[3,-2]],[[1523,790],[-7,0]],[[1519,789],[5,1]],[[1620,998],[10,-61]],[[1631,937],[-10,59]],[[1622,1164],[6,19]],[[1628,1183],[5,14]],[[1632,1197],[-4,-14]],[[1195,869],[2,3]],[[1901,1950],[-1,0]],[[1901,1950],[1,-1]],[[1902,1949],[98,28]],[[2000,1977],[22,7]],[[2022,1984],[67,19]],[[2089,2003],[25,6]],[[2114,2009],[-15,-3],[-10,-3]],[[2114,2009],[83,41]],[[2198,2050],[-1,0]],[[2198,2050],[129,84]],[[2328,2135],[22,13]],[[2350,2148],[6,4]],[[2383,2154],[-27,-2]],[[2327,2134],[1,1],[-1,1],[-1,-1],[1,-1]],[[1633,118],[-3,-14]],[[1630,104],[3,14]],[[1633,118],[14,68]],[[3451,3344],[-242,80],[-42,30],[-12,65],[-44,57],[-72,39],[-180,9],[-99,73],[-19,45],[63,158],[160,48],[68,82],[-63,24],[-44,42]],[[3480,3353],[-27,-9]],[[2448,40],[9,4]],[[2514,100],[-62,22]],[[2465,44],[-4,2]],[[2816,1271],[4,6]],[[2880,2600],[-4,-4]],[[1733,1451],[0,-1]],[[1664,2081],[8,-1]],[[1672,2080],[-8,2]],[[1683,2076],[-11,4]],[[1683,2076],[3,-1]],[[1686,2076],[-3,0]],[[1629,2319],[1,8]],[[2126,1969],[1,10]],[[3485,3320],[1,2]],[[2010,1259],[1,1]],[[1649,1523],[1,1],[-1,1],[-1,-1],[1,-1]],[[2417,128],[-6,3]],[[2414,912],[-19,-2]],[[1963,3034],[0,-30],[59,0],[-20,-63],[-38,-75],[-81,-126],[-137,-113],[-66,-127],[-98,-29],[-102,42],[-56,122],[18,127],[58,143],[72,117],[138,118],[68,145],[73,120],[92,-5],[12,-29],[6,-24],[-2,-23],[-16,-23],[41,-67],[30,-86],[-1,-76],[-50,-38]],[[1049,0],[53,115],[123,937],[52,239],[8,73],[28,152],[123,321],[28,158],[3,90],[12,115],[21,99],[34,42],[179,-27],[29,27],[22,-35],[-44,-148],[68,-88],[120,-36],[114,8],[67,38],[82,71],[41,36],[61,23],[116,15],[114,51],[587,526],[42,51],[55,45],[134,31],[59,39],[60,119],[80,330],[59,148],[102,119],[63,55],[107,47],[49,55],[46,66],[53,53],[59,21],[38,7],[0,-3988],[-1925,0],[-1122,0]],[[2088,3589],[-74,-65],[-91,41],[123,158],[190,176],[198,114],[147,-20],[0,-33],[-78,0],[-36,-20],[-85,-33],[-230,-223],[-64,-95]],[[1839,3541],[12,35],[220,148],[48,-45],[-40,-37],[6,-45],[-63,-60],[-100,-2],[-58,-51],[-25,57]],[[1426,2591],[31,187],[61,143],[295,461],[56,-2],[31,-41],[-71,-23],[47,-59],[7,-29],[-13,-19],[-12,8],[14,38],[-20,10],[-12,-2],[1,-5],[-6,-1],[-5,-7],[-3,0],[17,25],[-21,19],[-7,-54],[46,-42],[-64,10],[-123,-170],[24,-57],[-105,29],[-24,-39],[-6,-45],[27,-20],[-36,-43],[30,-79],[-74,-56],[10,-97],[-26,-27],[75,-10],[-50,-20],[97,-38],[7,-54],[-147,-68],[-51,177]],[[2400,81],[72,56],[52,-34],[-47,-70],[-66,10],[-11,38]],[[2425,75],[0,-3],[7,0],[-1,4],[-6,-1]],[[1450,2528],[57,190],[314,597],[285,393],[459,334],[42,54],[1489,0],[0,-97],[-110,-49],[-76,-77],[-19,11],[19,-12],[-15,-39],[-71,-79],[-144,-91],[-112,-116],[-63,-155],[-26,-11],[-21,-37],[24,35],[40,17],[22,45],[1,-27],[-77,-72],[17,-26],[-36,32],[38,-54],[-34,-209],[-75,-64],[-2,-64],[-88,-86],[-39,6],[9,-42],[-15,35],[6,12],[-4,4],[-5,-32],[-22,27],[0,-31],[-92,-25],[-708,-626],[-27,0],[4,-18],[-35,32],[24,-6],[3,15],[-36,6],[-14,-45],[-154,-19],[-94,-131],[-171,-75],[-213,137],[-37,99],[29,133],[-34,-8],[25,-16],[-36,-26],[-24,32],[20,10],[0,16],[-156,-18],[-38,-68],[-4,279]],[[3695,0],[-187,103],[91,53],[93,204],[35,-4],[58,-356],[-90,0]],[[1565,0],[-10,86],[98,107],[26,6],[103,-113],[12,-86],[-229,0]],[[2162,299],[40,-97],[98,-63],[-72,-139],[-87,0],[-60,120],[-8,180],[65,-53],[20,148],[4,-96]],[[1685,2071],[-35,-18],[-1,-36],[-183,48],[34,234],[34,42],[115,-17],[63,-90],[-27,-163]],[[1677,1163],[69,-3],[133,52],[-32,-214],[98,-149],[-1,-120],[-177,30],[-79,-17],[-68,-66],[-32,-108],[-65,54],[0,-54],[-32,0],[-65,-214],[65,-108],[-20,-131],[-13,-30],[-32,0],[3,-85],[-380,0],[58,158],[28,-4],[161,146],[33,108],[64,53],[-32,161],[65,54],[40,140],[76,51],[-9,147],[22,91],[97,-160],[33,53],[-61,124],[-4,91],[57,-50]],[[3143,1197],[18,-115],[-86,-43],[-115,17],[-99,-86],[-36,-70],[25,-64],[-61,66],[-46,166],[9,91],[65,0],[43,69],[20,120],[82,2],[150,-66],[31,-87]],[[2599,872],[10,-122],[-86,35],[-103,-17],[-24,-46],[-27,20],[-35,140],[83,26],[33,79],[99,-35],[50,-80]],[[3351,0],[91,51],[27,-51],[-118,0]],[[2146,18],[36,65],[17,-6],[57,96],[-11,-24],[27,-17],[-73,-116],[-53,2]],[[1223,12],[56,82],[-20,59],[110,42],[-1,-72],[38,-29],[-28,-76],[-155,-6]],[[1262,341],[3,40],[72,-1],[28,-16],[8,-47],[-36,-46],[-27,18],[-30,-23],[-18,75]],[[4000,860],[6,39],[90,9],[0,-101],[-96,53]],[[1615,1468],[26,11],[-10,36],[73,23],[44,-131],[-36,-11],[-33,45],[-36,-8],[-28,35]],[[1486,2214],[55,59],[-9,47],[70,8],[-3,-34],[42,-35],[0,-92],[-45,-9],[-14,48],[45,5],[-3,60],[-78,-33],[-4,-83],[-56,59]],[[3469,3340],[57,30],[35,-13],[-10,-34],[26,0],[1,-30],[-26,-49],[-49,23],[17,25],[-18,-7],[4,35],[-37,20]],[[3750,3374],[35,13],[24,69],[62,4],[-6,-52],[52,22],[-5,-39],[23,-14],[-46,1],[-13,-28],[-126,24]],[[1731,861],[79,80],[60,6],[-3,-50],[-34,3],[-24,-69],[16,-18],[-30,-27],[-64,75]],[[1441,700],[55,94],[36,-8],[14,99],[62,-34],[20,24],[-12,-78],[39,23],[-31,-50],[-17,12],[34,-31],[-43,-103],[-83,-31],[0,25],[-74,58]]]}