{"objects":{"water":{"type":"GeometryCollection","geometries":[{"type":"Polygon","properties":{"source":"naturalearthdata.com","kind":"ocean","area":1576712559132672,"sort_rank":200,"min_zoom":0.0,"id":1},"arcs":[[15]]},{"type":"LineString","properties":{"source":"naturalearthdata.com","kind":"ocean","sort_rank":205,"boundary":true,"min_zoom":0.0,"id":56},"arcs":[16]}]},"buildings":{"type":"GeometryCollection","geometries":[]},"places":{"type":"GeometryCollection","geometries":[{"type":"Point","properties":{"name:pt":"Bugia","int_name":"Bejaia","name:ja":"\u30d9\u30b8\u30e3\u30a4\u30a2","name:lt":"Bed\u017eaja","name:ko":"\ubca0\uc790\uc774\uc544","name:ar":"\u0628\u062c\u0627\u064a\u0629","min_zoom":8.0,"name:la":"Saldae","name:it":"Bejaia","name:uk":"\u0411\u0435\u0434\u0436\u0430\u044f","old_name":"Bougie","name:ru":"\u0411\u0435\u0434\u0436\u0430\u044f","name:pl":"Bid\u017caja","name:bg":"\u0411\u0435\u0436\u0430\u044f","id":291964314,"name:ca":"Beja\u00efa","population":177988,"name:fa":"\u0628\u062c\u0627\u06cc\u0647","kind":"locality","name:en":"Bejaia","name":"B\u00e9ja\u00efa","kind_detail":"city","source":"openstreetmap.org","name:mk":"\u0411\u0435\u045f\u0430\u0458\u0430","name:zh":"\u8d1d\u8d3e\u4e9a","name:es":"Bug\u00eda"},"coordinates":[2464,559]},{"type":"Point","properties":{"kind":"locality","name":"Amizour","kind_detail":"town","name:ar":"\u0623\u0645\u064a\u0632\u0648\u0631","source":"openstreetmap.org","min_zoom":8.0,"id":455545064,"population":37562},"coordinates":[1995,167]},{"type":"Point","properties":{"kind":"locality","name":"Azazga","kind_detail":"town","name:ar":"\u0639\u0632\u0627\u0632\u06a4\u0629","source":"openstreetmap.org","min_zoom":8.0,"loc_name":"I\u025be\u1e93\u1e93ugen","id":442762044,"population":34683},"coordinates":[445,537]},{"type":"Point","properties":{"kind":"locality","name":"El Kseur","name:ms":"El-Kseur","kind_detail":"town","name:ar":"\u0627\u0644\u0642\u0635\u0631","name:pt":"El-Kseur","source":"openstreetmap.org","min_zoom":8.0,"loc_name":"Leq\u1e63er","id":418104782,"population":29842},"coordinates":[1846,298]},{"type":"Point","properties":{"kind":"locality","name:en":"Bouzeguene","alt_name:ar":"\u0628\u0648\u0632\u06a4\u0646","name":"Bouzegu\u00e8ne","kind_detail":"town","name:ar":"\u0628\u0648\u0632\u06a4\u0646","source":"openstreetmap.org","min_zoom":8.0,"id":2936211799,"population":24311},"coordinates":[750,73]},{"type":"Point","properties":{"kind":"locality","name":"Mekla","kind_detail":"town","name:ar":"\u0645\u0642\u0644\u0639","source":"openstreetmap.org","min_zoom":8.0,"loc_name":"Meqle\u03b5","id":442761953,"population":24237},"coordinates":[144,328]},{"type":"Point","properties":{"kind":"locality","name":"Freha","kind_detail":"town","name:ar":"\u0641\u0631\u064a\u062d\u0629","source":"openstreetmap.org","min_zoom":8.0,"loc_name":"Fri\u1e25a","id":442762008,"population":24228},"coordinates":[293,583]},{"type":"Point","properties":{"kind":"locality","alt_name:ar":"\u0648\u0627\u062f \u063a\u064a\u0631","name":"Oued Ghir","kind_detail":"town","name:ar":"\u0648\u0627\u062f\u064a \u063a\u064a\u0631","source":"openstreetmap.org","min_zoom":8.0,"loc_name":"Wed \u0393ir","id":2852931042,"population":19345},"coordinates":[2212,412]},{"type":"Point","properties":{"kind":"locality","alt_name:ar":"\u062a\u064a\u0645\u0632\u0631\u064a\u062a","name":"Timezrit","kind_detail":"town","name:ar":"\u062b\u064a\u0645\u0632\u064a\u0631\u062b","source":"openstreetmap.org","min_zoom":8.0,"loc_name":"Timez\u1e5bit","id":1370317907,"population":17211},"coordinates":[1620,62]},{"type":"Point","properties":{"kind":"locality","name":"Azeffoun","kind_detail":"town","name:ar":"\u0623\u0632\u0641\u0648\u0646","source":"openstreetmap.org","min_zoom":8.0,"old_name":"Rusazus","id":3241026346,"population":16847},"coordinates":[587,1079]},{"type":"Point","properties":{"kind":"locality","name":"Tichy","kind_detail":"town","name:ar":"\u062a\u0640\u064a\u0634\u064a","source":"openstreetmap.org","min_zoom":8.0,"old_name":"Tichissois","id":425061188,"population":16546},"coordinates":[2734,259]},{"type":"Point","properties":{"kind":"locality","name":"Aokas","kind_detail":"town","name:ar":"\u0623\u0648\u0642\u0627\u0633","source":"openstreetmap.org","min_zoom":8.0,"id":425062007,"population":15989},"coordinates":[2986,143]},{"type":"Point","properties":{"kind":"locality","name:ro":"Souk El T\u00e9nine","name":"Souk El Tenine","name:ms":"Souk El-Thenine","kind_detail":"town","name:ar":"\u0633\u0648\u0642 \u0627\u0644\u0627\u062b\u0646\u064a\u0646","name:pt":"Souk El-Thenine","source":"openstreetmap.org","min_zoom":8.0,"id":425062579,"population":14045},"coordinates":[3254,101]},{"type":"Point","properties":{"kind":"locality","name:en":"Sidi Aich","name":"Sidi A\u00efch","name:ms":"Sidi-A\u00efch","kind_detail":"town","name:ar":"\u0633\u064a\u062f\u064a \u0639\u064a\u0634","name:de":"Sidi Aich","source":"openstreetmap.org","min_zoom":8.0,"name:vi":"Sidi-Aich","id":331970316,"population":13775},"coordinates":[1373,54]},{"type":"Point","properties":{"kind":"locality","name":"Semaoun","kind_detail":"town","name:ar":"\u0633\u0645\u0639\u0648\u0646","source":"openstreetmap.org","min_zoom":8.0,"loc_name":"Sem\u025bun I\u1e93nayen","id":1370291698,"population":13616},"coordinates":[1758,39]},{"type":"Point","properties":{"kind":"locality","name":"El Aouana","kind_detail":"town","name:ar":"\u0627\u0644\u0639\u0648\u0627\u0646\u0629","source":"openstreetmap.org","min_zoom":8.0,"old_name":"Cavallo","id":425275146,"population":13273},"coordinates":[4052,639]},{"type":"Point","properties":{"kind":"locality","name:en":"Adekar","name":"Adekkar","kind_detail":"town","name:ar":"\u0623\u062f\u0643\u0627\u0631","min_zoom":8.0,"source":"openstreetmap.org","name:fr":"Adekar","old_name":"Tuqbal","id":442762529,"population":13067},"coordinates":[1324,347]},{"type":"Point","properties":{"kind":"locality","name":"Ziama Mansouriah","kind_detail":"town","name:ar":"\u0632\u064a\u0627\u0645\u0629 \u0645\u0646\u0635\u0648\u0631\u064a\u0629","source":"openstreetmap.org","min_zoom":8.0,"old_name":"Mansouria","id":425066820,"population":12642},"coordinates":[3676,271]},{"type":"Point","properties":{"kind":"locality","name":"Tizi N'Berber","kind_detail":"town","name:ar":"\u062a\u064a\u0632\u064a \u0646\u0628\u0631\u0628\u0631","source":"openstreetmap.org","min_zoom":8.0,"id":1359689414,"population":12624},"coordinates":[2909,57]},{"type":"Point","properties":{"kind":"locality","name":"Ilmaten","kind_detail":"town","name:ar":"\u0625\u0644\u0645\u0627\u062b\u0646","source":"openstreetmap.org","min_zoom":8.0,"id":1368549541,"population":11825},"coordinates":[1600,246]},{"type":"Point","properties":{"kind":"locality","int_name":"Tala Hamza","name":"Ighil Ouberouak","kind_detail":"town","name:ar":"\u0625\u063a\u064a\u0644 \u0623\u0628\u0631\u0648\u0627\u0642","source":"openstreetmap.org","min_zoom":8.0,"loc_name":"I\u03b3il Uba\u1e5bwaq","id":455545062,"population":11675},"coordinates":[2389,382]},{"type":"Point","properties":{"kind":"locality","name":"Melbou","kind_detail":"town","name:ar":"\u0645\u0644\u0628\u0648","source":"openstreetmap.org","min_zoom":8.0,"id":425064156,"population":11396},"coordinates":[3330,159]},{"type":"Point","properties":{"kind":"locality","alt_name:ar":"\u062b\u0648\u062c\u0627","name":"Toudja","kind_detail":"town","name:ar":"\u062a\u0648\u062c\u0629","source":"openstreetmap.org","min_zoom":8.0,"loc_name":"Tu\u01e7\u01e7a","id":1357209053,"population":9827},"coordinates":[1976,565]},{"type":"Point","properties":{"kind":"locality","alt_name:ar":"\u062a\u064a\u0641\u0631\u0629","name":"Tifra","kind_detail":"town","name:ar":"\u062b\u064a\u0641\u0631\u0627","source":"openstreetmap.org","min_zoom":8.0,"id":1368546179,"population":8400},"coordinates":[1391,251]}]},"transit":{"type":"GeometryCollection","geometries":[{"type":"MultiLineString","properties":{"distance":"88","kind":"train","name":"Autorail B\u00e9ja\u00efa - Beni Mansour","sort_rank":275,"source":"openstreetmap.org","min_zoom":6.0,"operator":"SNTF","ref":"B 134;B 162 ;B 136; B154","osm_relation":true,"network":"DZ:r\u00e9seau_ferroviaire"},"arcs":[[12],[13],[14]]}]},"pois":{"type":"GeometryCollection","geometries":[]},"boundaries":{"type":"GeometryCollection","geometries":[{"type":"LineString","properties":{"name:kg":"Algeria","name:ka":"\u10d0\u10da\u10df\u10d8\u10e0\u10d8","name:tr":"Cezayir","name:ts":"Algeriya","name:km":"\u1794\u17d2\u179a\u1791\u17c1\u179f\u17a2\u17b6\u179b\u17cb\u17a0\u17d2\u179f\u17c1\u179a\u17b8","name:kl":"Algeriet","name:kk":"\u0410\u043b\u0436\u0438\u0440","name:tw":"Algeria","name:tt":"\u04d8\u043b\u0497\u04d9\u0437\u0430\u0438\u0301\u0440","name:kw":"Aljeri","name:tk":"Al\u017eir","name:ku":"Cezayir","name:ti":"\u12a0\u120d\u1300\u122a\u12eb","name:ks":"\u0627\u066e\u06ea\u0644\u062c\u06cc\u0631\u0650\u06cc\u0627","name:to":"\u02bbAisilia","name:tl":"Arhelya","name:ce":"\u0410\u043b\u0436\u0438\u0301\u0440","name:ta":"\u0b85\u0bb2\u0bcd\u0b9a\u0bc0\u0bb0\u0bbf\u0baf\u0bbe","name:tg":"\u0410\u043b\u04b7\u0430\u0437\u043e\u0438\u0440","name:ky":"\u0410\u043b\u0436\u0438\u0440","name:te":"\u0c05\u0c32\u0c4d\u0c1c\u0c40\u0c30\u0c3f\u0c2f\u0c3e","name:cy":"Algeria","name:qu":"Alhirya","name:da":"Algeriet","name:de":"Algerien","name:dz":"\u0f68\u0f71\u0f63\u0f0b\u0f47\u0f72\u0f0b\u0f62\u0f72\u0f0b\u0f61","source":"openstreetmap.org","name:kn":"\u0c85\u0cb2\u0ccd\u0c9c\u0cc0\u0cb0\u0cbf\u0caf","name:dv":"\u0796\u07a6\u0792\u07a7\u0787\u07a8\u0783\u07aa","name:za":"Algeria","name:lv":"Al\u017e\u012brija","name:lt":"Al\u017eyras","name:uz":"Jazoir","name:cs":"Al\u017e\u00edrsko","name:ur":"\u0627\u0644\u062c\u0632\u0627\u0626\u0631","name:lb":"Algerien","name:la":"Algerium","name:ki":"Algeria","name:uk":"\u0410\u043b\u0436\u0438\u0440","name:ug":"\u0626\u0627\u0644\u062c\u0649\u0631\u0649\u064a\u06d5","name:li":"Algerie\u00eb","name:ln":"Aljeria","name:lo":"\u0ec1\u0ead\u0ea5\u0e88\u0eb4\u0ec0\u0ea5\u0e8d","name:el":"\u0391\u03bb\u03b3\u03b5\u03c1\u03af\u03b1","name:eo":"Al\u011derio","name:en":"Algeria","name":"\u2d4d\u2d63\u2d63\u2d30\u2d62\u2d3b\u2d54 \u0627\u0644\u062c\u0632\u0627\u0626\u0631","name:ee":"\u0186ldzeria","name:th":"\u0e1b\u0e23\u0e30\u0e40\u0e17\u0e28\u0e41\u0e2d\u0e25\u0e08\u0e35\u0e40\u0e23\u0e35\u0e22","name:eu":"Aljeria","name:et":"Al\u017eeeria","name:es":"Argelia","name:ia":"Algeria","name:rm":"Algeria","name:rn":"Alijeriya","name:az":"\u018flc\u0259zair","name:ie":"Algeria","name:id":"Aljazair","name:ig":"Algeria","name:as":"\u0986\u09b2\u099c\u09c7\u09f0\u09bf\u09af\u09bc\u09be","name:ar":"\u0627\u0644\u062c\u0632\u0627\u0626\u0631","name:io":"Aljeria","name:is":"Als\u00edr","name:am":"\u12a0\u120d\u1304\u122a\u12eb","name:it":"Algeria","name:an":"Alcheria","name:ru":"\u0410\u043b\u0436\u0438\u0301\u0440","name:rw":"Aligeriya","name:af":"Algeri\u00eb","name:zu":"iAljiriya","kind_detail":"2","name:ca":"Alg\u00e8ria","name:zh-yue":"\u963f\u723e\u53ca\u5229\u4e9e","name:zh":"\u963f\u5c14\u53ca\u5229\u4e9a","name:so":"Aljeeriya","name:sn":"Algeria","name:sm":"Algeria","name:sl":"Al\u017eirija","name:sk":"Al\u017e\u00edrsko","name:ja":"\u30a2\u30eb\u30b8\u30a7\u30ea\u30a2","name:si":"\u0d87\u0dbd\u0dca\u0da2\u0dd3\u0dbb\u0dd2\u0dba\u0dcf\u0dc0","name:sh":"Al\u017eir","name:sg":"Alaz\u00ebri","name:se":"Algeria","name:sd":"\u0627\u0644\u062c\u0632\u0627\u0626\u0631","name:sc":"Alger\u00eca","name:br":"Aljeria","name:bs":"Al\u017eir","name:bm":"Algeri","name:bn":"\u0986\u09b2\u099c\u09c7\u09b0\u09bf\u09af\u09bc\u09be","name:bo":"\u0f68\u0f71\u0f63\u0f0b\u0f47\u0f72\u0f0b\u0f62\u0f72\u0f0b\u0f61\u0f0d","name:sa":"\u0905\u0932\u094d\u091c\u0940\u0930\u093f\u092f\u093e","name:sw":"Algeria","name:be":"\u0410\u043b\u0436\u044b\u0301\u0440","name:su":"Aljazair","name:bg":"\u0410\u043b\u0436\u045d\u0440","name:ss":"i-Alijeriya","name:sr":"\u0410\u043b\u0436\u0438\u0440","name:sq":"Algjeria","name:jv":"Aljazair","alt_name:sc":"Jas\u00ecria","alt_name:so":"Jasaa'ir","name:pt":"Arg\u00e9lia","name:ps":"\u0627\u0644\u062c\u0632\u0627\u064a\u0631","name:om":"Aljeeriyaa","name:oc":"Argeria","min_zoom":8.0,"name:ro":"Algeria","name:ko":"\uc54c\uc81c\ub9ac","name:zh-min-nan":"Algeria","name:os":"\u0410\u043b\u0436\u0438\u0440","name:or":"\u0b06\u0b32\u0b1c\u0b47\u0b30\u0b3f\u0b06","name:pl":"Algieria","name:pi":"\u0905\u0932\u094d\u091c\u0940\u0930\u093f\u092f\u093e","name:st":"Algeria","sort_rank":262,"name:ba":"\u0410\u043b\u0436\u0438\u0301\u0440","osm_relation":true,"name:xh":"I-Algeria","name:pa":"\u0a05\u0a32\u0a1c\u0a40\u0a30\u0a40\u0a06","name:cv":"\u0410\u043b\u0436\u0438\u0440","name:hi":"\u0905\u0932\u094d\u091c\u0940\u0930\u093f\u092f\u093e","name:sv":"Algeriet","name:he":"\u05d0\u05dc\u05d2'\u05d9\u05e8\u05d9\u05d4","name:ha":"Aljeriya","name:hy":"\u0531\u056c\u056a\u056b\u0580","name:ht":"Aljeri","name:hu":"Alg\u00e9ria","name:hr":"Al\u017eir","kind":"country","name:yi":"\u05d0\u05b7\u05dc\u05d6\u05e9\u05d9\u05e8","name:yo":"\u00c0lg\u00e9r\u00ed\u00e0","name:mt":"Al\u0121erija","name:ms":"Algeria","name:mr":"\u0905\u0932\u094d\u091c\u0940\u0930\u093f\u092f\u093e","name:my":"\u1021\u101a\u103a\u101c\u103a\u1002\u103b\u102e\u1038\u101b\u102e\u1038\u101a\u102c\u1038\u1014\u102d\u102f\u1004\u103a\u1004\u1036","official_name":"\u0627\u0644\u062c\u0645\u0647\u0648\u0631\u064a\u0629 \u0627\u0644\u062c\u0632\u0627\u0626\u0631\u064a\u0629 \u0627\u0644\u062f\u064a\u0645\u0642\u0631\u0627\u0637\u064a\u0629 \u0627\u0644\u0634\u0639\u0628\u064a\u0629","int_name":"Algeria","name:mg":"Aljeria","name:ml":"\u0d05\u0d7e\u0d1c\u0d40\u0d31\u0d3f\u0d2f","name:vi":"Alg\u00e9rie","name:mn":"\u0410\u043b\u0436\u0438\u0440","id":-192756,"name:mk":"\u0410\u043b\u0436\u0438\u0440","name:vo":"Laljer\u00e4n","name:fa":"\u0627\u0644\u062c\u0632\u0627\u06cc\u0631","name:ff":"Aljeri","name:fi":"Algeria","name:fo":"Algeria","name:fr":"Alg\u00e9rie","name:fy":"Algerije","alt_name:qu":"Arhilya","name:nl":"Algerije","name:nn":"Algerie","name:no":"Algerie","name:na":"Ardjiriya","name:ne":"\u0905\u0932\u094d\u091c\u0947\u0930\u093f\u092f\u093e","name:ny":"Algeria","name:wa":"Aldjereye","name:wo":"Alseeri","name:nv":"Alj\u00ed\u00edya","name:ga":"An Ailg\u00e9ir","name:gd":"Aildiria","name:gn":"Ayhelia","name:gl":"Alxeria","maritime_boundary":true,"name:gv":"Yn Algear","name:gu":"\u0a85\u0ab2\u0acd\u0a9c\u0ac0\u0ab0\u0abf\u0aaf\u0abe","name:lg":"Algeria"},"arcs":[0]},{"type":"LineString","properties":{"name:right:no":"B\u00e9ja\u00efa (provins)","name:right:nl":"B\u00e9ja\u00efa (provincie)","name:right:ja":"\u30d9\u30b8\u30e3\u30a4\u30a2","name:right:fr":"B\u00e9ja\u00efa","name:right:la":"Saldae","name:right:uk":"\u0411\u0435\u0434\u0436\u0430\u044f (\u0432\u0456\u043b\u0430\u0454\u0442)","name:right:sr":"\u0411\u0435\u045f\u0430\u0458\u0430 (\u043f\u043e\u043a\u0440\u0430\u0458\u0438\u043d\u0430)","name:right:sw":"Jimbo ya B\u00e9ja\u00efa (Aljeria)","id:right":-1278765,"name:right:lt":"Bed\u017eaja","name:right:hi":"\u092c\u0947\u091c\u0948\u0905 \u092a\u094d\u0930\u093e\u0902\u0924","min_zoom":8.0,"name:right:fa":"\u0627\u0633\u062a\u0627\u0646 \u0628\u062c\u0627\u06cc\u0647","name:right:eo":"Provinco Be\u0135aja","name:right:se":"B\u00e9ja\u00efa eanangoddi","id":-1283601,"name:right":"B\u00e9ja\u00efa \u0628\u062c\u0627\u064a\u0629","name:right:id":"Provinsi Bajayah","name:left:en":"Tizi Ouzou","sort_rank":256,"kind_detail":"4","int_name:right":"Bejaia","source":"openstreetmap.org","name:right:ar":"\u0628\u062c\u0627\u064a\u0629","id:left":-1283601,"name:left":"Tizi Ouzou \u062a\u064a\u0632\u064a \u0648\u0632\u0648","name:right:mk":"\u0411\u0435\u045f\u0430\u0458\u0430","name:right:pt":"Bugia","name:left:ar":"\u062a\u064a\u0632\u064a \u0648\u0632\u0648","name:right:eu":"Bejaia probintzia","old_name:right":"Bougie","name:right:it":"Provincia di B\u00e9ja\u00efa","name:right:ko":"\ubca0\uc790\uc774\uc544 \uc8fc","name:right:vi":"B\u00e9ja\u00efa (t\u1ec9nh)","name:right:tl":"Lalawigan ng B\u00e9ja\u00efa","name:right:sv":"B\u00e9ja\u00efa (provins)","name:right:ro":"Provincia B\u00e9ja\u00efa","name:right:es":"Bug\u00eda","name:right:ms":"Wilayah B\u00e9ja\u00efa","name:right:gl":"Vilaia de Bux\u00eda","name:right:bg":"\u0411\u0435\u0436\u0430\u044f","name:right:tg":"\u0412\u0438\u043b\u043e\u044f\u0442\u0438 \u0411\u0430\u04b7\u043e\u044f","name:right:pl":"Bid\u017caja","name:right:en":"Bejaia","osm_relation":true,"kind":"region","name:right:ka":"\u10d1\u10d4\u10ef\u10d0\u10d8\u10d8\u10e1 \u10de\u10e0\u10dd\u10d5\u10d8\u10dc\u10ea\u10d8\u10d0","name":"Tizi Ouzou \u062a\u064a\u0632\u064a \u0648\u0632\u0648 - B\u00e9ja\u00efa \u0628\u062c\u0627\u064a\u0629","name:left:fa":"\u062a\u06cc\u0632\u06cc \u0648\u0632\u0648","name:right:tr":"Becaye Vilayeti","name:right:de":"Bejaia (Provinz)","name:right:ru":"\u0411\u0435\u0434\u0436\u0430\u044f","name:right:ur":"\u0635\u0648\u0628\u06c1 \u0628\u062c\u0627\u06cc\u06c1","name:right:da":"B\u00e9ja\u00efa (provins)","name:right:be":"\u041f\u0440\u0430\u0432\u0456\u043d\u0446\u044b\u044f \u0411\u0435\u0434\u0436\u0430\u044f","name:right:ca":"Prov\u00edncia de Beja\u00efa","name:left:zh":"\u63d0\u6d4e\u4e4c\u7956","name:left:fr":"Tizi Ouzou","name:right:zh":"\u8d1d\u8d3e\u4e9a"},"arcs":[1]},{"type":"LineString","properties":{"name:fa":"\u062a\u06cc\u0632\u06cc \u0648\u0632\u0648","kind":"region","name:en":"Tizi Ouzou","name":"Tizi Ouzou \u062a\u064a\u0632\u064a \u0648\u0632\u0648","sort_rank":256,"kind_detail":"4","name:ar":"\u062a\u064a\u0632\u064a \u0648\u0632\u0648","min_zoom":8.0,"source":"openstreetmap.org","name:fr":"Tizi Ouzou","name:zh":"\u63d0\u6d4e\u4e4c\u7956","id":-1283601,"osm_relation":true},"arcs":[2]},{"type":"LineString","properties":{"name:fa":"\u062a\u06cc\u0632\u06cc \u0648\u0632\u0648","kind":"region","name:en":"Tizi Ouzou","name":"Tizi Ouzou \u062a\u064a\u0632\u064a \u0648\u0632\u0648","sort_rank":256,"kind_detail":"4","name:ar":"\u062a\u064a\u0632\u064a \u0648\u0632\u0648","maritime_boundary":true,"name:fr":"Tizi Ouzou","source":"openstreetmap.org","min_zoom":8.0,"name:zh":"\u63d0\u6d4e\u4e4c\u7956","id":-1283601,"osm_relation":true},"arcs":[3]},{"type":"LineString","properties":{"name:left:la":"Saldae","name:right:fr":"Jijel","name:left:hi":"\u092c\u0947\u091c\u0948\u0905 \u092a\u094d\u0930\u093e\u0902\u0924","int_name:left":"Bejaia","name:left:sw":"Jimbo ya B\u00e9ja\u00efa (Aljeria)","name:left:ja":"\u30d9\u30b8\u30e3\u30a4\u30a2","id:right":-1278746,"name:left:uk":"\u0411\u0435\u0434\u0436\u0430\u044f (\u0432\u0456\u043b\u0430\u0454\u0442)","name:left:no":"B\u00e9ja\u00efa (provins)","min_zoom":8.0,"name:left:lt":"Bed\u017eaja","name:left:bg":"\u0411\u0435\u0436\u0430\u044f","name:left:be":"\u041f\u0440\u0430\u0432\u0456\u043d\u0446\u044b\u044f \u0411\u0435\u0434\u0436\u0430\u044f","name:left:se":"B\u00e9ja\u00efa eanangoddi","alt_name:right:fr":"Djidjelli","id":-1278765,"name:right":"Jijel - \u062c\u064a\u062c\u0644","name:left:eo":"Provinco Be\u0135aja","name:left:en":"Bejaia","sort_rank":256,"kind_detail":"4","name:left:ca":"Prov\u00edncia de Beja\u00efa","name:left:gl":"Vilaia de Bux\u00eda","source":"openstreetmap.org","name:right:ar":"\u062c\u064a\u062c\u0644","name:left:nl":"B\u00e9ja\u00efa (provincie)","name:left:ur":"\u0635\u0648\u0628\u06c1 \u0628\u062c\u0627\u06cc\u06c1","name:left:es":"Bug\u00eda","id:left":-1278765,"name:left:tg":"\u0412\u0438\u043b\u043e\u044f\u0442\u0438 \u0411\u0430\u04b7\u043e\u044f","name:left:tr":"Becaye Vilayeti","name:left:eu":"Bejaia probintzia","name:left":"B\u00e9ja\u00efa \u0628\u062c\u0627\u064a\u0629","name:left:sv":"B\u00e9ja\u00efa (provins)","name:left:ka":"\u10d1\u10d4\u10ef\u10d0\u10d8\u10d8\u10e1 \u10de\u10e0\u10dd\u10d5\u10d8\u10dc\u10ea\u10d8\u10d0","name:left:ar":"\u0628\u062c\u0627\u064a\u0629","name:left:mk":"\u0411\u0435\u045f\u0430\u0458\u0430","name:left:ko":"\ubca0\uc790\uc774\uc544 \uc8fc","name:left:id":"Provinsi Bajayah","name:left:ro":"Provincia B\u00e9ja\u00efa","name:left:ms":"Wilayah B\u00e9ja\u00efa","name:left:pl":"Bid\u017caja","name:left:ru":"\u0411\u0435\u0434\u0436\u0430\u044f","name:left:sr":"\u0411\u0435\u045f\u0430\u0458\u0430 (\u043f\u043e\u043a\u0440\u0430\u0458\u0438\u043d\u0430)","name:left:it":"Provincia di B\u00e9ja\u00efa","name:right:en":"Jijel","osm_relation":true,"name:left:vi":"B\u00e9ja\u00efa (t\u1ec9nh)","name:left:pt":"Bugia","kind":"region","name":"B\u00e9ja\u00efa \u0628\u062c\u0627\u064a\u0629 - Jijel - \u062c\u064a\u062c\u0644","name:left:fa":"\u0627\u0633\u062a\u0627\u0646 \u0628\u062c\u0627\u06cc\u0647","name:left:da":"B\u00e9ja\u00efa (provins)","name:left:de":"Bejaia (Provinz)","name:left:zh":"\u8d1d\u8d3e\u4e9a","name:left:fr":"B\u00e9ja\u00efa","name:left:tl":"Lalawigan ng B\u00e9ja\u00efa","old_name:left":"Bougie"},"arcs":[4]},{"type":"MultiLineString","properties":{"name:pt":"Bugia","name:ro":"Provincia B\u00e9ja\u00efa","name:id":"Provinsi Bajayah","name:ka":"\u10d1\u10d4\u10ef\u10d0\u10d8\u10d8\u10e1 \u10de\u10e0\u10dd\u10d5\u10d8\u10dc\u10ea\u10d8\u10d0","name:ko":"\ubca0\uc790\uc774\uc544 \uc8fc","name:ar":"\u0628\u062c\u0627\u064a\u0629","min_zoom":8.0,"int_name":"Bejaia","name:it":"Provincia di B\u00e9ja\u00efa","name:tl":"Lalawigan ng B\u00e9ja\u00efa","name:vi":"B\u00e9ja\u00efa (t\u1ec9nh)","name:ru":"\u0411\u0435\u0434\u0436\u0430\u044f","name:pl":"Bid\u017caja","id":-1278765,"name:mk":"\u0411\u0435\u045f\u0430\u0458\u0430","name:fa":"\u0627\u0633\u062a\u0627\u0646 \u0628\u062c\u0627\u06cc\u0647","name:ms":"Wilayah B\u00e9ja\u00efa","sort_rank":256,"kind_detail":"4","name:da":"B\u00e9ja\u00efa (provins)","name:de":"Bejaia (Provinz)","source":"openstreetmap.org","name:fr":"B\u00e9ja\u00efa","name:ca":"Prov\u00edncia de Beja\u00efa","name:tg":"\u0412\u0438\u043b\u043e\u044f\u0442\u0438 \u0411\u0430\u04b7\u043e\u044f","name:nl":"B\u00e9ja\u00efa (provincie)","name:ja":"\u30d9\u30b8\u30e3\u30a4\u30a2","name:tr":"Becaye Vilayeti","name:hi":"\u092c\u0947\u091c\u0948\u0905 \u092a\u094d\u0930\u093e\u0902\u0924","name:se":"B\u00e9ja\u00efa eanangoddi","kind":"region","name:ur":"\u0635\u0648\u0628\u06c1 \u0628\u062c\u0627\u06cc\u06c1","name:la":"Saldae","name:no":"B\u00e9ja\u00efa (provins)","old_name":"Bougie","name:sw":"Jimbo ya B\u00e9ja\u00efa (Aljeria)","name:be":"\u041f\u0440\u0430\u0432\u0456\u043d\u0446\u044b\u044f \u0411\u0435\u0434\u0436\u0430\u044f","name:bg":"\u0411\u0435\u0436\u0430\u044f","name:uk":"\u0411\u0435\u0434\u0436\u0430\u044f (\u0432\u0456\u043b\u0430\u0454\u0442)","name:sr":"\u0411\u0435\u045f\u0430\u0458\u0430 (\u043f\u043e\u043a\u0440\u0430\u0458\u0438\u043d\u0430)","osm_relation":true,"name:eo":"Provinco Be\u0135aja","name:en":"Bejaia","name":"B\u00e9ja\u00efa \u0628\u062c\u0627\u064a\u0629","name:zh":"\u8d1d\u8d3e\u4e9a","name:gl":"Vilaia de Bux\u00eda","name:sv":"B\u00e9ja\u00efa (provins)","name:lt":"Bed\u017eaja","name:eu":"Bejaia probintzia","name:es":"Bug\u00eda"},"arcs":[[5],[6]]},{"type":"LineString","properties":{"name:pt":"Bugia","name:ro":"Provincia B\u00e9ja\u00efa","name:id":"Provinsi Bajayah","name:ka":"\u10d1\u10d4\u10ef\u10d0\u10d8\u10d8\u10e1 \u10de\u10e0\u10dd\u10d5\u10d8\u10dc\u10ea\u10d8\u10d0","name:ko":"\ubca0\uc790\uc774\uc544 \uc8fc","name:ar":"\u0628\u062c\u0627\u064a\u0629","min_zoom":8.0,"int_name":"Bejaia","name:it":"Provincia di B\u00e9ja\u00efa","name:tl":"Lalawigan ng B\u00e9ja\u00efa","name:vi":"B\u00e9ja\u00efa (t\u1ec9nh)","name:ru":"\u0411\u0435\u0434\u0436\u0430\u044f","name:pl":"Bid\u017caja","id":-1278765,"name:mk":"\u0411\u0435\u045f\u0430\u0458\u0430","name:fa":"\u0627\u0633\u062a\u0627\u0646 \u0628\u062c\u0627\u06cc\u0647","name:ms":"Wilayah B\u00e9ja\u00efa","sort_rank":256,"kind_detail":"4","name:da":"B\u00e9ja\u00efa (provins)","name:de":"Bejaia (Provinz)","source":"openstreetmap.org","name:fr":"B\u00e9ja\u00efa","name:ca":"Prov\u00edncia de Beja\u00efa","name:tg":"\u0412\u0438\u043b\u043e\u044f\u0442\u0438 \u0411\u0430\u04b7\u043e\u044f","name:nl":"B\u00e9ja\u00efa (provincie)","name:ja":"\u30d9\u30b8\u30e3\u30a4\u30a2","name:tr":"Becaye Vilayeti","name:hi":"\u092c\u0947\u091c\u0948\u0905 \u092a\u094d\u0930\u093e\u0902\u0924","name:se":"B\u00e9ja\u00efa eanangoddi","kind":"region","name:ur":"\u0635\u0648\u0628\u06c1 \u0628\u062c\u0627\u06cc\u06c1","name:la":"Saldae","name:no":"B\u00e9ja\u00efa (provins)","old_name":"Bougie","name:sw":"Jimbo ya B\u00e9ja\u00efa (Aljeria)","name:be":"\u041f\u0440\u0430\u0432\u0456\u043d\u0446\u044b\u044f \u0411\u0435\u0434\u0436\u0430\u044f","name:bg":"\u0411\u0435\u0436\u0430\u044f","name:uk":"\u0411\u0435\u0434\u0436\u0430\u044f (\u0432\u0456\u043b\u0430\u0454\u0442)","name:sr":"\u0411\u0435\u045f\u0430\u0458\u0430 (\u043f\u043e\u043a\u0440\u0430\u0458\u0438\u043d\u0430)","osm_relation":true,"name:eo":"Provinco Be\u0135aja","name:en":"Bejaia","name":"B\u00e9ja\u00efa \u0628\u062c\u0627\u064a\u0629","name:zh":"\u8d1d\u8d3e\u4e9a","name:gl":"Vilaia de Bux\u00eda","name:sv":"B\u00e9ja\u00efa (provins)","name:lt":"Bed\u017eaja","name:eu":"Bejaia probintzia","name:es":"Bug\u00eda"},"arcs":[7]},{"type":"MultiLineString","properties":{"name:pt":"Bugia","name:ro":"Provincia B\u00e9ja\u00efa","name:id":"Provinsi Bajayah","name:ka":"\u10d1\u10d4\u10ef\u10d0\u10d8\u10d8\u10e1 \u10de\u10e0\u10dd\u10d5\u10d8\u10dc\u10ea\u10d8\u10d0","name:ko":"\ubca0\uc790\uc774\uc544 \uc8fc","name:ar":"\u0628\u062c\u0627\u064a\u0629","min_zoom":8.0,"int_name":"Bejaia","name:it":"Provincia di B\u00e9ja\u00efa","name:tl":"Lalawigan ng B\u00e9ja\u00efa","name:ru":"\u0411\u0435\u0434\u0436\u0430\u044f","name:vi":"B\u00e9ja\u00efa (t\u1ec9nh)","name:pl":"Bid\u017caja","id":-1278765,"name:mk":"\u0411\u0435\u045f\u0430\u0458\u0430","name:fa":"\u0627\u0633\u062a\u0627\u0646 \u0628\u062c\u0627\u06cc\u0647","name:ms":"Wilayah B\u00e9ja\u00efa","sort_rank":256,"kind_detail":"4","name:da":"B\u00e9ja\u00efa (provins)","maritime_boundary":true,"name:de":"Bejaia (Provinz)","source":"openstreetmap.org","name:fr":"B\u00e9ja\u00efa","name:ca":"Prov\u00edncia de Beja\u00efa","name:tg":"\u0412\u0438\u043b\u043e\u044f\u0442\u0438 \u0411\u0430\u04b7\u043e\u044f","name:nl":"B\u00e9ja\u00efa (provincie)","name:ja":"\u30d9\u30b8\u30e3\u30a4\u30a2","name:tr":"Becaye Vilayeti","name:hi":"\u092c\u0947\u091c\u0948\u0905 \u092a\u094d\u0930\u093e\u0902\u0924","name:se":"B\u00e9ja\u00efa eanangoddi","name:eo":"Provinco Be\u0135aja","name:ur":"\u0635\u0648\u0628\u06c1 \u0628\u062c\u0627\u06cc\u06c1","name:la":"Saldae","name:no":"B\u00e9ja\u00efa (provins)","old_name":"Bougie","name:sw":"Jimbo ya B\u00e9ja\u00efa (Aljeria)","name:be":"\u041f\u0440\u0430\u0432\u0456\u043d\u0446\u044b\u044f \u0411\u0435\u0434\u0436\u0430\u044f","name:bg":"\u0411\u0435\u0436\u0430\u044f","name:uk":"\u0411\u0435\u0434\u0436\u0430\u044f (\u0432\u0456\u043b\u0430\u0454\u0442)","name:sr":"\u0411\u0435\u045f\u0430\u0458\u0430 (\u043f\u043e\u043a\u0440\u0430\u0458\u0438\u043d\u0430)","osm_relation":true,"kind":"region","name:en":"Bejaia","name":"B\u00e9ja\u00efa \u0628\u062c\u0627\u064a\u0629","name:zh":"\u8d1d\u8d3e\u4e9a","name:gl":"Vilaia de Bux\u00eda","name:sv":"B\u00e9ja\u00efa (provins)","name:lt":"Bed\u017eaja","name:eu":"Bejaia probintzia","name:es":"Bug\u00eda"},"arcs":[[8],[9]]},{"type":"LineString","properties":{"kind":"region","name:en":"Jijel","name":"Jijel - \u062c\u064a\u062c\u0644","sort_rank":256,"kind_detail":"4","name:ar":"\u062c\u064a\u062c\u0644","min_zoom":8.0,"source":"openstreetmap.org","name:fr":"Jijel","alt_name:fr":"Djidjelli","id":-1278746,"osm_relation":true},"arcs":[10]},{"type":"LineString","properties":{"kind":"region","name:en":"Jijel","name":"Jijel - \u062c\u064a\u062c\u0644","sort_rank":256,"kind_detail":"4","name:ar":"\u062c\u064a\u062c\u0644","min_zoom":8.0,"name:fr":"Jijel","source":"openstreetmap.org","maritime_boundary":true,"alt_name:fr":"Djidjelli","id":-1278746,"osm_relation":true},"arcs":[11]}]},"roads":{"type":"GeometryCollection","geometries":[{"type":"LineString","properties":{"kind":"ferry","network":"ENTMV","sort_rank":355,"landuse_kind":"urban_area","name:ar":"\u0628\u062c\u0627\u064a\u0629 - \u0623\u0632\u0641\u0648\u0646","source":"openstreetmap.org","min_zoom":8.0,"id":436973198,"name":"B\u00e9ja\u00efa - Azeffoun"},"arcs":[17]},{"type":"MultiLineString","properties":{"source":"openstreetmap.org","kind":"major_road","sort_rank":380,"kind_detail":"primary","ref":"RN 12","min_zoom":8.0},"arcs":[[18],[19]]},{"type":"MultiLineString","properties":{"kind":"major_road","network":"DZ:national","sort_rank":380,"kind_detail":"primary","source":"openstreetmap.org","min_zoom":8.0,"landuse_kind":"urban_area","shield_text":"12","osm_relation":true},"arcs":[[20],[21],[22],[23]]},{"type":"MultiLineString","properties":{"kind":"major_road","network":"DZ:national","sort_rank":380,"kind_detail":"primary","source":"openstreetmap.org","min_zoom":8.0,"landuse_kind":"urban_area","shield_text":"12","ref":"RN 12"},"arcs":[[24],[25]]},{"type":"LineString","properties":{"kind":"major_road","sort_rank":380,"kind_detail":"primary","is_bicycle_related":true,"cycleway":"lane","source":"openstreetmap.org","min_zoom":8.0,"ref":"RN 73"},"arcs":[26]},{"type":"LineString","properties":{"source":"openstreetmap.org","kind":"major_road","sort_rank":380,"kind_detail":"primary","ref":"RN 9","min_zoom":8.0,"id":394907646},"arcs":[27]},{"type":"MultiLineString","properties":{"kind":"major_road","network":"DZ:national","sort_rank":380,"kind_detail":"primary","source":"openstreetmap.org","min_zoom":8.0,"landuse_kind":"park","shield_text":"24","ref":"RN 24"},"arcs":[[28],[29]]},{"type":"LineString","properties":{"source":"openstreetmap.org","kind":"ferry","network":"ENTMV","sort_rank":355,"name:ar":"\u0627\u0644\u062c\u0632\u0627\u0626\u0631 - \u0623\u0632\u0641\u0648\u0646","min_zoom":8.0,"name":"Alger - Azeffoun"},"arcs":[30]},{"type":"MultiLineString","properties":{"sort_rank":380,"kind_detail":"primary","min_zoom":8.0,"kind":"major_road","source":"openstreetmap.org"},"arcs":[[31],[32],[33],[34],[35],[36],[37],[38],[39]]},{"type":"LineString","properties":{"kind":"major_road","network":"DZ:national","sort_rank":381,"kind_detail":"trunk","source":"openstreetmap.org","min_zoom":8.0,"shield_text":"43","ref":"RN 43"},"arcs":[40]},{"type":"LineString","properties":{"source":"openstreetmap.org","kind":"major_road","sort_rank":380,"kind_detail":"primary","ref":"RN 26A","min_zoom":8.0},"arcs":[41]},{"type":"MultiLineString","properties":{"kind":"major_road","network":"DZ:national","sort_rank":381,"landuse_kind":"urban_area","source":"openstreetmap.org","min_zoom":8.0,"kind_detail":"trunk","shield_text":"9","ref":"RN 9"},"arcs":[[42],[43],[44],[45],[46]]},{"type":"LineString","properties":{"kind":"major_road","network":"DZ:national","sort_rank":381,"kind_detail":"trunk","source":"openstreetmap.org","min_zoom":8.0,"shield_text":"26","ref":"RN 26","id":177717058},"arcs":[47]},{"type":"LineString","properties":{"kind":"ferry","name:en":"Marseille - Bejaia","name":"\u0645\u0631\u0633\u064a\u0644\u064a\u0627 - \u0628\u062c\u0627\u064a\u0629","sort_rank":355,"min_zoom":8.0,"source":"openstreetmap.org","name:fr":"Marseille - B\u00e9ja\u00efa","name:es":"Marsella - Bug\u00eda"},"arcs":[48]},{"type":"MultiLineString","properties":{"source":"openstreetmap.org","kind":"ferry","name":"Alger - Jijel","sort_rank":355,"name:ar":"\u0627\u0644\u062c\u0632\u0627\u0626\u0631 - \u062c\u064a\u062c\u0644","min_zoom":8.0,"osm_relation":true},"arcs":[[49],[50],[51],[52],[53],[54]]},{"type":"LineString","properties":{"kind":"major_road","network":"DZ:national","sort_rank":380,"kind_detail":"primary","source":"openstreetmap.org","min_zoom":8.0,"shield_text":"34","ref":"RN 34","id":375416321},"arcs":[55]},{"type":"MultiLineString","properties":{"source":"openstreetmap.org","kind":"major_road","landuse_kind":"urban_area","sort_rank":380,"kind_detail":"primary","ref":"RN 12","min_zoom":8.0},"arcs":[[56],[57]]},{"type":"LineString","properties":{"kind":"major_road","network":"DZ:national","sort_rank":380,"kind_detail":"primary","source":"openstreetmap.org","min_zoom":8.0,"shield_text":"9","ref":"RN 9","id":37779850},"arcs":[58]},{"type":"LineString","properties":{"kind":"major_road","network":"DZ:national","sort_rank":380,"kind_detail":"primary","bus_network":"DZ:transport","source":"openstreetmap.org","min_zoom":8.0,"bus_shield_text":"TAS","shield_text":"26","ref":"RN 26","id":262841804},"arcs":[59]},{"type":"MultiLineString","properties":{"source":"openstreetmap.org","kind":"major_road","sort_rank":381,"kind_detail":"trunk","ref":"RN 9","min_zoom":8.0},"arcs":[[60],[61],[62]]},{"type":"LineString","properties":{"kind":"ferry","name:en":"B\u00e9ja\u00efa - Jijel","network":"ENTMV","sort_rank":355,"landuse_kind":"urban_area","min_zoom":8.0,"source":"openstreetmap.org","name:fr":"B\u00e9ja\u00efa - Jijel","id":457044780,"name":"\u0628\u062c\u0627\u064a\u0629 - \u062c\u064a\u062c\u0644"},"arcs":[63]},{"type":"LineString","properties":{"kind":"ferry","name:en":"B\u00e9ja\u00efa - Jijel","network":"ENTMV","sort_rank":355,"name:fr":"B\u00e9ja\u00efa - Jijel","source":"openstreetmap.org","min_zoom":8.0,"id":457044780,"name":"\u0628\u062c\u0627\u064a\u0629 - \u062c\u064a\u062c\u0644"},"arcs":[64]},{"type":"MultiLineString","properties":{"source":"openstreetmap.org","kind":"major_road","network":"DZ:national","sort_rank":381,"kind_detail":"trunk","min_zoom":8.0,"shield_text":"12"},"arcs":[[65],[66],[67]]},{"type":"MultiLineString","properties":{"kind":"major_road","network":"DZ:national","sort_rank":381,"kind_detail":"trunk","source":"openstreetmap.org","min_zoom":8.0,"shield_text":"9","ref":"RN 9"},"arcs":[[68],[69],[70],[71],[72],[73],[74],[75],[76],[77],[78],[79],[80],[81],[82],[83],[84],[85],[86],[87],[88],[89],[90]]},{"type":"MultiLineString","properties":{"source":"openstreetmap.org","kind":"major_road","sort_rank":380,"kind_detail":"primary","ref":"RN 73","min_zoom":8.0},"arcs":[[91],[92]]},{"type":"MultiLineString","properties":{"kind":"major_road","network":"DZ:national","sort_rank":380,"kind_detail":"primary","source":"openstreetmap.org","min_zoom":8.0,"landuse_kind":"urban_area","shield_text":"24","osm_relation":true},"arcs":[[93],[94],[95],[96],[97],[98],[99],[100]]},{"type":"LineString","properties":{"kind":"highway","network":"DZ:national","sort_rank":383,"kind_detail":"motorway","source":"openstreetmap.org","min_zoom":8.0,"all_networks":["DZ:national"],"shield_text":"12","all_shield_texts":["12"]},"arcs":[101]},{"type":"MultiLineString","properties":{"bus_network":"DZ:transport","network":"DZ:national","sort_rank":381,"kind_detail":"trunk","kind":"major_road","source":"openstreetmap.org","min_zoom":8.0,"bus_shield_text":"SB1","shield_text":"12","ref":"RN 12"},"arcs":[[102],[103],[104],[105]]},{"type":"MultiLineString","properties":{"kind":"major_road","network":"DZ:national","sort_rank":380,"kind_detail":"primary","source":"openstreetmap.org","min_zoom":8.0,"shield_text":"12","osm_relation":true},"arcs":[[106],[107],[108],[109],[110],[111],[112],[113],[114],[115],[116],[117],[118],[119],[120],[121],[122],[123],[124],[125],[126],[127],[128],[129],[130],[131],[132],[133],[134],[135],[136],[137],[138],[139],[140],[141],[142],[143],[144],[145],[146],[147],[148],[149],[150],[151],[152],[153],[154],[155],[156],[157],[158],[159],[160],[161],[162],[163],[164],[165]]},{"type":"MultiLineString","properties":{"source":"openstreetmap.org","kind":"major_road","sort_rank":380,"kind_detail":"primary","ref":"RN 71","min_zoom":8.0},"arcs":[[166],[167],[168],[169],[170]]},{"type":"LineString","properties":{"kind":"major_road","network":"DZ:national","sort_rank":380,"kind_detail":"primary","source":"openstreetmap.org","min_zoom":8.0,"shield_text":"12","ref":"RN 12"},"arcs":[171]},{"type":"MultiLineString","properties":{"kind":"major_road","network":"DZ:national","sort_rank":380,"kind_detail":"primary","source":"openstreetmap.org","min_zoom":8.0,"shield_text":"15","ref":"RN 15"},"arcs":[[172],[173]]},{"type":"MultiLineString","properties":{"bus_network":"DZ:transport","network":"DZ:national","sort_rank":381,"kind_detail":"trunk","kind":"major_road","source":"openstreetmap.org","min_zoom":8.0,"bus_shield_text":"SB1","shield_text":"12"},"arcs":[[174],[175]]},{"type":"MultiLineString","properties":{"kind":"major_road","network":"DZ:national","sort_rank":381,"landuse_kind":"urban_area","source":"openstreetmap.org","min_zoom":8.0,"kind_detail":"trunk","shield_text":"9"},"arcs":[[176],[177],[178],[179],[180]]},{"type":"LineString","properties":{"source":"openstreetmap.org","kind":"major_road","sort_rank":380,"kind_detail":"primary","ref":"RN 24","min_zoom":8.0},"arcs":[181]},{"type":"LineString","properties":{"kind":"major_road","network":"DZ:national","sort_rank":380,"kind_detail":"primary","source":"openstreetmap.org","min_zoom":8.0,"landuse_kind":"park","shield_text":"43","ref":"RN 43"},"arcs":[182]},{"type":"LineString","properties":{"kind":"major_road","network":"DZ:national","sort_rank":380,"kind_detail":"primary","source":"openstreetmap.org","min_zoom":8.0,"landuse_kind":"urban_area","shield_text":"24","id":42784257},"arcs":[183]},{"type":"MultiLineString","properties":{"kind":"major_road","network":"DZ:national","sort_rank":380,"kind_detail":"primary","source":"openstreetmap.org","min_zoom":8.0,"shield_text":"9","osm_relation":true},"arcs":[[184],[185],[186],[187],[188],[189],[190],[191],[192],[193],[194],[195],[196],[197],[198],[199],[200],[201],[202],[203],[204],[205],[206],[207],[208],[209],[210],[211],[212],[213],[214],[215],[216],[217],[218],[219],[220],[221],[222],[223],[224],[225]]},{"type":"LineString","properties":{"sort_rank":381,"source":"openstreetmap.org","min_zoom":8.0,"kind":"major_road","kind_detail":"trunk"},"arcs":[226]},{"type":"MultiLineString","properties":{"kind":"major_road","network":"DZ:national","sort_rank":380,"kind_detail":"primary","source":"openstreetmap.org","min_zoom":8.0,"landuse_kind":"urban_area","shield_text":"9","osm_relation":true},"arcs":[[227],[228],[229],[230],[231],[232],[233],[234],[235],[236],[237],[238],[239],[240],[241]]},{"type":"LineString","properties":{"kind":"major_road","network":"DZ:national","sort_rank":380,"kind_detail":"primary","name:fr":"Route de Boulimat","source":"openstreetmap.org","min_zoom":8.0,"shield_text":"24","ref":"RN 24","id":265782902},"arcs":[242]},{"type":"LineString","properties":{"kind":"major_road","sort_rank":380,"landuse_kind":"park","source":"openstreetmap.org","min_zoom":8.0,"kind_detail":"primary","ref":"RN 24","id":522862514},"arcs":[243]},{"type":"MultiLineString","properties":{"kind":"major_road","network":"DZ:national","sort_rank":380,"kind_detail":"primary","source":"openstreetmap.org","min_zoom":8.0,"landuse_kind":"urban_area","shield_text":"24","ref":"RN 24"},"arcs":[[244],[245],[246],[247],[248]]},{"type":"MultiLineString","properties":{"source":"openstreetmap.org","kind":"major_road","landuse_kind":"urban_area","sort_rank":380,"kind_detail":"primary","ref":"RN 24","min_zoom":8.0},"arcs":[[249],[250],[251]]},{"type":"LineString","properties":{"kind":"major_road","network":"DZ:national","sort_rank":380,"kind_detail":"primary","bus_network":"DZ:transport","source":"openstreetmap.org","min_zoom":8.0,"bus_shield_text":"SB1","shield_text":"12","landuse_kind":"urban_area","ref":"RN 12","id":421560898},"arcs":[252]},{"type":"MultiLineString","properties":{"kind":"ferry","name":"Alger - Jijel","sort_rank":355,"landuse_kind":"urban_area","name:ar":"\u0627\u0644\u062c\u0632\u0627\u0626\u0631 - \u062c\u064a\u062c\u0644","source":"openstreetmap.org","min_zoom":8.0,"osm_relation":true},"arcs":[[253],[254]]},{"type":"MultiLineString","properties":{"source":"openstreetmap.org","kind":"major_road","kind_detail":"trunk","sort_rank":381,"landuse_kind":"urban_area","min_zoom":8.0},"arcs":[[255],[256]]},{"type":"MultiLineString","properties":{"sort_rank":383,"kind_detail":"motorway","min_zoom":8.0,"kind":"highway","source":"openstreetmap.org"},"arcs":[[257],[258],[259],[260],[261],[262],[263],[264],[265],[266],[267],[268],[269],[270],[271],[272],[273],[274]]},{"type":"LineString","properties":{"kind":"ferry","network":"ENTMV","sort_rank":355,"name:ar":"\u0628\u062c\u0627\u064a\u0629 - \u0623\u0632\u0641\u0648\u0646","source":"openstreetmap.org","min_zoom":8.0,"id":436973198,"name":"B\u00e9ja\u00efa - Azeffoun"},"arcs":[275]},{"type":"MultiLineString","properties":{"kind":"major_road","network":"DZ:national","sort_rank":380,"kind_detail":"primary","source":"openstreetmap.org","min_zoom":8.0,"shield_text":"24","osm_relation":true},"arcs":[[276],[277]]},{"type":"MultiLineString","properties":{"kind":"major_road","network":"DZ:national","sort_rank":380,"kind_detail":"primary","source":"openstreetmap.org","min_zoom":8.0,"shield_text":"15","osm_relation":true},"arcs":[[278],[279]]},{"type":"LineString","properties":{"source":"openstreetmap.org","kind":"major_road","sort_rank":380,"kind_detail":"primary","ref":"RN 71;RN 73","min_zoom":8.0,"id":102702503},"arcs":[280]},{"type":"MultiLineString","properties":{"source":"openstreetmap.org","kind":"major_road","sort_rank":380,"kind_detail":"primary","ref":"RN 75","min_zoom":8.0},"arcs":[[281],[282],[283],[284],[285],[286],[287],[288],[289],[290],[291],[292],[293],[294]]},{"type":"LineString","properties":{"source":"openstreetmap.org","kind":"major_road","sort_rank":380,"kind_detail":"primary","ref":"CW 158","min_zoom":8.0,"id":144953140},"arcs":[295]},{"type":"LineString","properties":{"kind":"ferry","name:en":"Marseille - Bejaia","name":"\u0645\u0631\u0633\u064a\u0644\u064a\u0627 - \u0628\u062c\u0627\u064a\u0629","sort_rank":355,"landuse_kind":"urban_area","min_zoom":8.0,"source":"openstreetmap.org","name:fr":"Marseille - B\u00e9ja\u00efa","id":346914012,"name:es":"Marsella - Bug\u00eda"},"arcs":[296]},{"type":"LineString","properties":{"source":"openstreetmap.org","kind":"major_road","sort_rank":380,"kind_detail":"primary","ref":"RN 26","min_zoom":8.0,"id":401021942},"arcs":[297]},{"type":"MultiLineString","properties":{"bus_network":"DZ:transport","network":"DZ:national","sort_rank":380,"kind_detail":"primary","kind":"major_road","source":"openstreetmap.org","min_zoom":8.0,"bus_shield_text":"SB1","shield_text":"26","ref":"RN 26"},"arcs":[[298],[299],[300]]},{"type":"MultiLineString","properties":{"kind":"highway","network":"DZ:national","sort_rank":383,"kind_detail":"motorway","source":"openstreetmap.org","min_zoom":8.0,"all_networks":["DZ:national"],"shield_text":"12","ref":"RN 12","all_shield_texts":["12"]},"arcs":[[301],[302],[303],[304],[305],[306],[307],[308],[309],[310],[311],[312],[313],[314],[315],[316],[317]]},{"type":"LineString","properties":{"kind":"major_road","network":"DZ:national","sort_rank":381,"kind_detail":"trunk","source":"openstreetmap.org","min_zoom":8.0,"shield_text":"9","id":414638172},"arcs":[318]},{"type":"MultiLineString","properties":{"source":"openstreetmap.org","kind":"major_road","landuse_kind":"urban_area","sort_rank":380,"kind_detail":"primary","min_zoom":8.0},"arcs":[[319],[320],[321],[322],[323],[324],[325],[326],[327],[328],[329],[330],[331],[332],[333],[334],[335],[336],[337],[338],[339],[340],[341],[342],[343],[344],[345]]},{"type":"LineString","properties":{"kind":"major_road","network":"DZ:national","sort_rank":380,"kind_detail":"primary","source":"openstreetmap.org","min_zoom":8.0,"landuse_kind":"urban_area","shield_text":"9","ref":"RN 9","id":421560901},"arcs":[346]},{"type":"MultiLineString","properties":{"kind":"major_road","network":"DZ:national","sort_rank":380,"kind_detail":"primary","source":"openstreetmap.org","min_zoom":8.0,"shield_text":"26","ref":"RN 26"},"arcs":[[347],[348],[349],[350],[351],[352]]},{"type":"MultiLineString","properties":{"kind":"major_road","network":"DZ:national","sort_rank":380,"kind_detail":"primary","source":"openstreetmap.org","min_zoom":8.0,"landuse_kind":"park","shield_text":"24","id":-5915218,"osm_relation":true},"arcs":[[353],[354]]},{"type":"LineString","properties":{"bus_network":"DZ:transport","network":"DZ:national","sort_rank":381,"landuse_kind":"urban_area","kind":"major_road","source":"openstreetmap.org","min_zoom":8.0,"bus_shield_text":"SB1","shield_text":"12","kind_detail":"trunk","ref":"RN 12"},"arcs":[355]},{"type":"MultiLineString","properties":{"kind":"major_road","network":"DZ:national","sort_rank":381,"landuse_kind":"urban_area","source":"openstreetmap.org","min_zoom":8.0,"kind_detail":"trunk","shield_text":"12","ref":"RN 12"},"arcs":[[356],[357],[358]]},{"type":"MultiLineString","properties":{"kind":"major_road","network":"DZ:national","sort_rank":380,"kind_detail":"primary","source":"openstreetmap.org","min_zoom":8.0,"shield_text":"24","ref":"RN 24"},"arcs":[[359],[360],[361]]},{"type":"MultiLineString","properties":{"kind":"major_road","network":"DZ:national","sort_rank":381,"kind_detail":"trunk","source":"openstreetmap.org","min_zoom":8.0,"shield_text":"12","ref":"RN 12"},"arcs":[[362],[363],[364],[365],[366],[367],[368]]},{"type":"MultiLineString","properties":{"kind":"major_road","network":"DZ:national","sort_rank":380,"kind_detail":"primary","source":"openstreetmap.org","min_zoom":8.0,"shield_text":"43","ref":"RN 43"},"arcs":[[369],[370],[371],[372]]},{"type":"LineString","properties":{"kind":"major_road","network":"DZ:national","sort_rank":381,"kind_detail":"trunk","bus_network":"DZ:transport","source":"openstreetmap.org","min_zoom":8.0,"bus_shield_text":"SB1","shield_text":"26","ref":"RN 26","id":177717057},"arcs":[373]}]},"earth":{"type":"GeometryCollection","geometries":[{"type":"Polygon","properties":{"sort_rank":10,"source":"naturalearthdata.com","min_zoom":0.0,"kind":"earth","area":9462037430},"arcs":[[374]]}]},"landuse":{"type":"GeometryCollection","geometries":[{"type":"Polygon","properties":{"kind":"park","area":32060900,"sort_rank":24,"source":"openstreetmap.org","min_zoom":8.0,"tier":2,"id":-4589441,"osm_relation":true},"arcs":[[375]]},{"type":"MultiPolygon","properties":{"source":"naturalearthdata.com","kind":"urban_area","name":"","area":1522846750,"sort_rank":11,"min_zoom":4.0},"arcs":[[[376]]]},{"type":"Polygon","properties":{"source":"openstreetmap.org","kind":"park","area":55958300,"tier":2,"id":313948936,"min_zoom":8.0,"sort_rank":24},"arcs":[[377]]}]}},"type":"Topology","transform":{"translate":[4.21875,36.5978891331],"scale":[0.0003433228,0.0002736087]},"arcs":[[[4096,1519],[-238,-96],[-1078,-25],[-225,124],[-622,246],[-175,44],[-1369,88],[-389,-7]],[[972,0],[-38,66],[72,60],[38,91],[57,20],[14,48],[-13,48],[-232,89],[13,81],[16,19],[21,-19],[29,52],[117,7],[61,-23],[6,-46],[30,-9],[63,62],[-5,22],[38,8],[-39,92],[45,58],[-11,37],[-75,31],[0,72],[-91,56],[-27,120]],[[1061,1042],[-10,3]],[[1051,1045],[-217,11],[-78,54],[-112,33],[-53,-1],[-26,-63],[-79,-11],[-166,39],[-58,-19],[-35,47],[-69,-25],[-83,10],[-75,-33]],[[3636,0],[-37,32],[-85,-8],[-3,62],[40,89],[-53,-5],[12,36]],[[3497,209],[-3,-14]],[[3510,206],[-4,13]],[[1071,1041],[-10,1]],[[3494,195],[-408,-48],[-290,86],[-281,177],[-15,92],[27,12],[33,49],[-34,-49],[-22,27],[47,47],[21,-23],[13,86],[-22,-15],[-234,75],[-9,54],[-30,-3],[-48,45],[-16,-22],[-58,17],[-26,38],[-52,11],[-37,72],[-105,-2],[-87,61],[-133,22],[-15,40],[-28,-5],[-25,33],[-88,17],[-77,-47],[-88,-8],[-165,26],[-171,-19]],[[3506,219],[-9,-10]],[[3523,206],[-13,0]],[[4096,657],[-89,14],[-15,-43],[-51,-20],[-15,-51],[-36,-22],[7,-90],[-48,-28],[-1,-33],[-41,-4],[6,-22],[-79,-67],[-46,-16],[-18,27],[-9,-46],[-90,-21],[-20,19],[-28,-48]],[[1336,0],[22,44],[41,-7],[37,47],[297,64],[65,42],[48,71],[239,80],[74,48],[267,40],[80,133]],[[2506,562],[14,-6]],[[2519,556],[-13,6]],[[4096,682],[-38,-12],[-53,-27],[-51,-45],[-39,-57],[-40,-132],[-58,-44],[-117,-46],[-20,-18],[-37,-46],[-13,-9],[-91,0],[-17,-5],[-162,-47],[-198,-29],[-103,4],[-96,25],[-343,177],[-82,64],[-15,57],[58,178],[-54,-1],[-60,9],[-58,19],[-49,23],[-11,14],[-26,45],[-20,18],[-29,4],[-40,0],[-35,7],[-16,25],[-53,51],[-475,203],[-52,10],[-207,-25],[-219,19],[-91,-4],[-29,-1],[-91,-41],[-41,17],[-94,3],[-35,19],[-28,22],[-42,20],[-44,15],[-36,6],[-350,-50],[-42,9],[-80,36],[-48,5],[-37,-14],[-77,-50],[-12,-4],[0,3017],[4096,0],[0,-3414]],[[4096,682],[-38,-12],[-53,-27],[-51,-45],[-39,-57],[-40,-132],[-58,-44],[-117,-46],[-20,-18],[-37,-46],[-13,-9],[-91,0],[-17,-5],[-162,-47],[-198,-29],[-103,4],[-96,25],[-343,177],[-82,64],[-15,57],[58,178],[-54,-1],[-60,9],[-58,19],[-49,23],[-11,14],[-26,45],[-20,18],[-29,4],[-40,0],[-35,7],[-16,25],[-53,51],[-475,203],[-52,10],[-207,-25],[-219,19],[-91,-4],[-29,-1],[-91,-41],[-41,17],[-94,3],[-35,19],[-28,22],[-42,20],[-44,15],[-36,6],[-350,-50],[-42,9],[-80,36],[-48,5],[-37,-14],[-77,-50],[-12,-4]],[[2547,566],[-3,-1]],[[278,529],[33,2]],[[428,538],[24,8]],[[2236,401],[159,23]],[[2395,424],[-159,-23]],[[2500,566],[-64,-123]],[[2436,443],[64,123]],[[2500,566],[-35,-56]],[[2466,511],[34,55]],[[374,1071],[-34,-173],[-67,-95],[31,-66],[-25,5],[10,-30],[-27,7],[48,-45],[-35,-31],[9,-62]],[[3276,121],[-15,-46]],[[2230,767],[65,-15],[-1,-38],[-40,-32],[44,6],[32,-28]],[[2355,633],[3,-2]],[[0,1267],[208,0],[381,-154]],[[2372,413],[60,-18]],[[2445,397],[-13,-2]],[[2432,395],[12,-2]],[[2434,420],[-1,0]],[[2433,420]],[[2435,421],[-2,-1]],[[2433,420]],[[2005,205],[-1,0],[1,-1],[0,1]],[[2434,419],[0,1],[-1,0],[0,-1],[1,0]],[[4096,639],[-27,-2],[27,1]],[[830,0],[-66,40],[-61,100],[13,88],[-105,-4],[-56,45],[25,55],[100,-37],[29,49],[-5,95],[-69,-14],[4,85]],[[2465,508],[-14,-58]],[[2452,450],[19,38]],[[2473,497],[-7,12]],[[2472,491],[1,5]],[[2538,379],[-1,1]],[[1881,282],[-3,-4]],[[2547,565],[46,0],[53,93],[73,3438]],[[0,1267],[208,0],[372,-159],[-1,45],[77,22],[1054,-38],[897,-473],[-14,-91]],[[2593,573],[-1,-6],[-45,-1]],[[2547,566]],[[2547,566]],[[2547,566],[46,7]],[[2593,573],[1503,244]],[[831,492],[64,-27]],[[2462,505],[-6,-11]],[[2457,494],[6,11]],[[3252,110],[-5,-59],[35,-51]],[[1345,26],[-9,-26]],[[2967,170],[3,-4]],[[2971,167],[-3,3]],[[3247,117],[1,-1]],[[2545,565],[2,1]],[[2547,566],[1549,251]],[[2072,340]],[[2072,340]],[[2214,394],[0,-1],[1,0],[0,1],[-1,0]],[[2451,450],[-13,-27],[0,-11]],[[2438,412],[0,-15]],[[2438,397],[0,-1],[37,3],[44,-5]],[[2519,394],[2,0]],[[2521,394],[67,-60],[281,-158],[98,-6]],[[2537,380],[-15,14],[-1,0]],[[2521,394],[-2,0]],[[2519,394],[-45,5],[-2,0],[-34,-2]],[[2438,397],[0,15]],[[2438,412],[0,11],[14,27]],[[2968,170],[-99,7],[-2,1],[-89,65],[-190,91],[-50,45]],[[2970,166],[28,-15],[59,-7],[79,-6],[14,3],[59,7]],[[3209,148],[1,0],[4,-4]],[[3214,144],[32,-28]],[[2998,152],[-27,15]],[[3248,116],[-34,28]],[[3214,144],[-5,4]],[[3209,148],[-1,1],[-209,2]],[[3246,117],[-2,2]],[[3246,116]],[[3246,117]],[[3246,116],[0,1]],[[3246,116],[1,1]],[[277,583],[-14,-42],[23,-10]],[[374,1073],[1,0]],[[2327,660],[29,-29]],[[2359,631],[80,-12],[-1,-57]],[[2438,561],[25,-1]],[[2463,561],[-25,1]],[[2463,560],[32,9]],[[2438,561],[0,1]],[[2438,562]],[[2438,562],[-1,0],[1,-1]],[[299,533],[0,-1],[1,0],[-1,1]],[[1882,281],[41,-3],[263,116]],[[2406,425],[30,17]],[[1882,282],[-1,0],[0,-1],[1,0]],[[1882,281],[0,1]],[[0,386],[28,9]],[[28,395],[36,12]],[[64,407],[14,4]],[[78,411],[44,14],[32,32]],[[154,457],[41,40],[26,-2]],[[221,495],[29,-3],[36,38]],[[41,396],[-13,-1]],[[28,395],[-28,-1]],[[43,396],[-2,0]],[[41,396],[-6,-1]],[[35,394],[7,1]],[[44,396]],[[44,396],[-2,0]],[[42,396],[-1,0]],[[41,396]],[[42,395],[2,0]],[[44,395],[0,1]],[[44,396],[-1,0]],[[43,396],[-1,0]],[[42,396],[0,-1]],[[49,396],[-4,0]],[[45,396]],[[45,396],[-2,0]],[[44,395],[1,1]],[[45,396],[33,15]],[[78,411],[21,10]],[[286,530],[-65,-35]],[[221,495],[-67,-38]],[[154,457],[-90,-50]],[[64,407],[-19,-11]],[[45,396],[-1,0]],[[286,530],[13,2]],[[299,532],[-13,-1]],[[1879,283],[-114,47],[2,23],[-49,-21],[-126,22],[-44,-32],[-120,-6],[18,18],[-45,26],[-76,-14],[-74,52],[6,31],[-57,47],[-128,-28],[19,-33],[-33,-4],[-117,19],[-31,41],[-97,20],[-33,33],[-65,-46],[-72,7],[-15,68],[-38,38],[-38,-19],[-68,26],[-54,-63],[-60,24],[-37,-37],[-33,10]],[[1879,283],[2,-1]],[[1881,282],[-2,1]],[[2186,394],[-250,-110]],[[1936,284],[-2,-1],[-24,0]],[[1910,283],[-28,-1]],[[1882,282],[-1,0],[0,-1],[1,0]],[[1882,281],[0,1]],[[1882,281],[28,2]],[[1910,283],[26,1]],[[1936,284],[5,0],[245,110]],[[1919,279],[0,-1]],[[1919,278],[0,1]],[[2072,340]],[[2072,340]],[[2187,394],[49,7]],[[2236,401],[-49,-7]],[[2395,424],[11,1]],[[2406,425],[-11,-1]],[[2406,425],[29,16]],[[2435,441],[1,2]],[[2436,443],[-1,-2]],[[299,533],[0,-1]],[[299,532]],[[299,532],[1,0]],[[300,532],[-1,1]],[[2214,394],[0,-1],[1,0],[0,1],[-1,0]],[[0,860],[14,-6],[83,16],[176,-67]],[[303,739],[117,-8],[32,-27],[-31,-49],[20,-111]],[[420,0],[2,0]],[[426,0],[5,0]],[[451,0],[-22,52],[46,21],[-17,29],[62,120],[-16,70],[40,35],[-39,27],[-2,56],[-53,30],[3,79],[-21,18]],[[1879,283],[-114,47],[2,23],[-49,-21],[-126,22],[-44,-32],[-120,-6],[18,18],[-45,26],[-76,-14],[-74,53],[-22,67],[-62,12],[-39,-30],[-56,-1],[14,-36],[-116,11],[-92,66],[-124,25],[-39,-35],[-72,7],[-44,101],[-47,-14],[-47,27],[-58,-56],[-77,16],[-37,-37],[-33,10]],[[0,93],[76,-87],[42,-6]],[[121,0],[71,0]],[[1919,279],[0,-1]],[[1919,278],[0,1]],[[2465,510],[0,-1]],[[2465,509],[1,-1]],[[2466,509],[-1,0]],[[2472,489],[-1,0],[0,-1],[1,1]],[[2473,497],[0,-1],[0,1]],[[65,1083],[-2,-1]],[[3788,329],[32,50],[41,14],[-9,19]],[[2438,561],[0,1],[-1,0],[1,-1]],[[2452,450],[-14,-54],[89,-6]],[[2526,391],[-5,4],[-82,1],[20,57]],[[2544,379],[327,-204],[96,-5]],[[2968,170],[-96,5],[-327,204]],[[2970,166],[28,-15]],[[2998,152],[-27,15]],[[2998,152],[0,-1]],[[2998,151]],[[2999,151],[-1,1]],[[2998,151],[1,0]],[[2998,151],[59,-7]],[[3057,144],[-58,7]],[[3057,144]],[[3057,144],[1,0]],[[3058,144],[-1,0]],[[3058,144]],[[3058,144],[92,-3]],[[3150,141],[-92,3]],[[3150,141]],[[3150,141]],[[3150,141]],[[3248,116],[-34,28]],[[3214,144],[-5,4]],[[3209,148],[-1,1],[-58,-8]],[[3150,141]],[[3150,141],[59,7]],[[3209,148],[1,0],[4,-4]],[[3214,144],[32,-27]],[[3246,117],[0,-1]],[[3246,117],[-2,2]],[[3246,116]],[[3246,116],[6,-6]],[[3246,117]],[[3246,117]],[[3246,117],[0,-1]],[[3246,116]],[[3246,116],[0,1]],[[3246,116],[1,1]],[[3252,110],[-6,6]],[[3247,117]],[[3247,116],[0,1]],[[3252,110],[-5,-59],[35,-51]],[[2187,394],[-1,0],[1,0]],[[2466,508],[-14,-58]],[[2459,453],[12,35]],[[2465,508],[1,0]],[[2465,510],[0,-1]],[[2465,509],[1,-1]],[[2466,509],[-1,0]],[[2466,509],[0,2]],[[2473,497],[-7,12]],[[2471,489],[-1,-1]],[[2471,491],[0,-2]],[[2472,489],[1,7]],[[2545,379],[-19,12]],[[2527,390],[17,-11]],[[2472,489],[-1,0],[0,-1],[1,1]],[[2473,497],[0,-1],[0,1]],[[1210,1034],[31,24],[171,-38]],[[2256,680],[-2,2]],[[2330,660],[25,-27]],[[2358,631],[81,-12],[-1,-57]],[[2438,561],[25,-1]],[[2463,561],[-25,1]],[[2463,560],[32,9]],[[2438,562],[0,1]],[[2505,573],[-5,-7]],[[2500,571],[4,1]],[[2465,509],[1,2]],[[2547,566],[-3,-1]],[[2545,565],[2,1]],[[2472,497],[1,0]],[[2473,496]],[[295,531],[2,0]],[[508,599]],[[508,599],[-1,0]],[[507,599],[-21,0]],[[486,599],[-19,0],[-6,-6],[-1,0]],[[460,593],[-12,-9],[-29,9]],[[419,593],[-1,0],[-17,5],[-72,-18],[-30,-47]],[[300,532],[29,47],[72,18],[17,-4],[1,0]],[[419,593],[41,0]],[[460,593],[1,0],[7,5],[18,1]],[[486,599],[21,0]],[[507,599]],[[507,599]],[[507,599],[-2,0]],[[286,530],[0,1],[-1,-1],[1,0]],[[508,599],[-1,0]],[[507,599],[0,-1],[1,0],[0,1]],[[508,599]],[[589,1113],[-10,40],[77,22],[1054,-38],[885,-461],[22,-37],[-25,-72],[-45,-1]],[[63,1082],[-45,8],[-18,-11]],[[65,1083],[5,27],[154,10],[38,-45],[63,15],[164,-44],[64,20],[38,69],[35,3],[77,-42],[86,-10],[65,-67],[65,28],[293,-14],[28,25],[168,-39],[89,16],[78,48],[124,-55],[18,-65],[30,27],[60,-3],[140,-69],[94,-5],[56,-74],[144,-63]],[[0,77],[68,-32],[8,-39],[42,-6]],[[121,0],[71,0]],[[306,738],[-2,-1]],[[1995,168],[0,-2]],[[1995,166],[0,2]],[[2050,0],[-48,25],[-22,44],[15,97]],[[1996,169],[-1,0]],[[1995,168]],[[1995,168],[1,1]],[[1996,169],[9,34]],[[2006,207],[-1,-2]],[[2005,204],[0,-1]],[[2005,203],[0,2]],[[2005,205],[1,2]],[[2006,207],[68,84],[118,58],[161,19],[78,51]],[[2431,419],[2,0]],[[2438,423],[-7,-4]],[[627,556],[5,61],[-36,20],[-25,70],[27,42],[60,-4],[12,30],[-67,99],[141,145],[-23,35],[-143,30]],[[2544,565],[3,0]],[[1386,47]],[[1392,54],[43,54],[49,-5],[46,60],[232,53],[59,57]],[[1847,278],[-26,-5]],[[1878,278],[-31,0]],[[286,530],[-21,-11],[-17,-27],[-7,-2],[-14,2]],[[227,492],[-30,6]],[[197,498],[-2,0],[-151,-102]],[[44,396],[-2,0]],[[42,396],[-1,0],[-11,-3],[-30,-3]],[[0,389],[30,3],[11,3],[1,0]],[[42,395],[2,0]],[[44,395],[91,43],[34,30],[28,30]],[[197,498],[1,0],[29,-6]],[[227,492],[14,-2],[7,2],[38,38]],[[286,530],[13,2]],[[299,532],[-13,-1]],[[42,395],[2,0]],[[44,395],[0,1]],[[44,396],[-1,0],[-1,0]],[[42,396],[0,-1]],[[42,395]],[[2999,151],[-1,1]],[[2365,411],[7,2]],[[2495,569],[-32,-8]],[[2466,510],[1,3]],[[2499,565],[22,-9]],[[2500,566],[0,-1]],[[2523,559],[-1,-1]],[[2522,558],[-1,-1],[-21,9]],[[2510,574],[-5,-1]],[[2510,574],[15,-8]],[[2515,561],[0,1]],[[2523,559],[-3,-1]],[[2521,557],[1,1]],[[2522,558],[1,1]],[[2526,565]],[[2526,565],[-3,-6]],[[2526,565]],[[2526,565],[-1,0]],[[2525,566],[1,0]],[[2526,566],[-1,0]],[[2526,565],[0,1]],[[2526,566],[0,-1]],[[2526,566]],[[2526,566]],[[2463,560],[1,0],[-1,1],[0,-1]],[[2500,566]],[[2521,556],[1,1],[-1,0],[0,-1]],[[2526,566],[0,1],[0,-1]],[[2466,509],[0,2]],[[1391,53],[-42,-18]],[[1349,35],[-4,-9]],[[1391,53],[1,1]],[[1394,53],[-3,0]],[[1552,173],[-22,-10]],[[1612,184],[-5,-2]],[[2241,776],[53,-23],[0,-39],[-40,-35],[44,9],[29,-28]],[[2356,631],[3,0]],[[2436,442],[29,67]],[[2394,423],[-158,-26]],[[2236,401],[159,23]],[[2465,510],[-29,-68]],[[63,1082],[-45,8],[-18,-11]],[[65,1083],[5,27],[155,10],[37,-45],[204,-22],[87,13],[42,72],[195,-52],[60,-65],[55,22],[305,-9]],[[1412,1020],[163,63],[124,-55],[19,-65],[29,27],[60,-3],[87,-46],[147,-28],[58,-75],[131,-71]],[[2186,394],[-252,-111],[-52,-1]],[[2187,394],[2,0]],[[2189,394],[47,7]],[[2236,397],[-25,-5],[-22,2]],[[2189,394],[-2,0]],[[2395,424],[-1,-1]],[[2436,442],[-1,-1]],[[3248,116],[127,65],[110,7]],[[3483,191],[2,-3]],[[3485,188],[169,56],[134,85]],[[3852,412],[49,33],[-15,64],[45,66],[86,73],[52,-11]],[[1878,278],[4,3]],[[2171,845],[12,-12],[16,-25],[35,-7],[40,0],[29,-4],[20,-18],[26,-45],[11,-14],[49,-23],[58,-19],[60,-9],[54,1],[-58,-178],[15,-57],[82,-64],[343,-177],[96,-25],[103,-4],[198,29],[162,47],[17,5],[91,0],[13,9],[37,46],[20,18],[117,46],[58,44],[40,132],[39,57],[51,45],[53,27],[38,12],[0,-682],[-1925,0],[-2171,0],[0,1079],[12,4],[77,50],[37,14],[48,-5],[80,-36],[42,-9],[350,50],[36,-6],[44,-15],[42,-20],[28,-22],[35,-19],[94,-3],[41,-17],[91,41],[29,1],[91,4],[219,-19],[207,25],[52,-10],[475,-203],[41,-39]],[[2221,646],[56,98],[-48,24],[29,18],[62,-21],[9,-54],[234,-75],[19,17],[7,-27],[-6,-36],[-46,-16],[0,25],[-59,-2],[-50,47],[-71,-14],[-21,29],[-49,3],[-66,-16]],[[2467,678],[114,-8],[-58,-178],[64,-111],[-49,-2],[-77,76],[-168,-79],[-58,-3],[3,78],[126,85],[-41,39],[-115,39],[-5,85],[138,49],[126,-70]],[[3783,315],[24,65],[43,6],[-2,26],[248,-21],[0,-138],[-21,18],[-19,-37],[-71,24],[1,72],[-80,-19],[-63,43],[-4,-59],[-56,20]]]}