{"objects":{"water":{"type":"GeometryCollection","geometries":[{"type":"MultiPolygon","properties":{"source":"naturalearthdata.com","kind":"ocean","area":1576712559132672,"sort_rank":200,"min_zoom":0.0,"id":1},"arcs":[[[2]],[[3]],[[4],[5]]]},{"type":"MultiLineString","properties":{"source":"naturalearthdata.com","kind":"ocean","sort_rank":205,"boundary":true,"min_zoom":0.0,"id":1466},"arcs":[[6],[7],[8]]},{"type":"LineString","properties":{"source":"naturalearthdata.com","kind":"ocean","sort_rank":205,"boundary":true,"min_zoom":0.0,"id":1467},"arcs":[9]}]},"buildings":{"type":"GeometryCollection","geometries":[]},"places":{"type":"GeometryCollection","geometries":[{"type":"Point","properties":{"name:sr":"\u0418\u0440\u0430\u043a\u043b\u0438\u043e\u043d","int_name":"Iraklio","alt_name:ca":"Ir\u00e0klio","name:ar":"\u0647\u064a\u0631\u0627\u0643\u0644\u064a\u0648\u0646","kind":"locality","min_zoom":8.0,"name:sv":"Heraklion","name:ru":"\u0418\u0440\u0430\u043a\u043b\u0438\u043e\u043d","name:pl":"Heraklion","name:hr":"Heraklion","id":29438069,"name:ca":"C\u00e0ndia","population":138000,"name:eo":"Iraklio","name:en":"Heraklion","name:lt":"Heraklionas","kind_detail":"city","name:he":"\u05d4\u05e8\u05e7\u05dc\u05d9\u05d5\u05df","name:da":"Iraklio","name:de":"Iraklio","source":"openstreetmap.org","name:fr":"H\u00e9raklion","name:fi":"Heraklion","name:zh":"\u4f0a\u62c9\u514b\u5229\u7fc1","name":"\u0397\u03c1\u03ac\u03ba\u03bb\u03b5\u03b9\u03bf"},"coordinates":[3573,3646]},{"type":"Point","properties":{"name:nl":"Rethimnon","name:lt":"Retimnas","min_zoom":8.0,"name:it":"Rethymno","name:ru":"\u0420\u0435\u0442\u0438\u043c\u043d\u043e\u043d","name:pl":"Retimno","id":31376614,"population":29000,"kind":"locality","name:en":"Rethymno","name":"\u03a1\u03ad\u03b8\u03c5\u03bc\u03bd\u03bf","kind_detail":"city","name:de":"Rethymno","source":"openstreetmap.org","name:fr":"R\u00e9thymnon","name:es":"R\u00e9tino"},"coordinates":[1653,3766]},{"type":"Point","properties":{"kind":"locality","name:en":"Gazi","name":"\u0393\u03ac\u03b6\u03b9","kind_detail":"town","name:de":"Gazi","source":"openstreetmap.org","min_zoom":8.0,"name:ru":"\u0413\u0430\u0437\u0438","id":737345533,"population":8018},"coordinates":[3379,3617]},{"type":"Point","properties":{"kind":"locality","name:en":"Archanes","name":"\u0391\u03c1\u03c7\u03ac\u03bd\u03b5\u03c2","kind_detail":"town","name:de":"Archanes","source":"openstreetmap.org","min_zoom":8.0,"int_name":"Archanes","name:ru":"\u0410\u0440\u0445\u0430\u043d\u0435\u0441","id":849370729,"population":4548},"coordinates":[3652,3297]},{"type":"Point","properties":{"kind":"locality","name:en":"Zaros","name":"\u0396\u03b1\u03c1\u03cc\u03c2","kind_detail":"town","name:de":"Zaros","source":"openstreetmap.org","min_zoom":8.0,"id":738420294,"population":2215},"coordinates":[2906,2921]},{"type":"Point","properties":{"kind":"locality","name:en":"Arkalohori","name":"\u0391\u03c1\u03ba\u03b1\u03bb\u03bf\u03c7\u03ce\u03c1\u03b9","kind_detail":"town","name:de":"Arkalochori","source":"openstreetmap.org","min_zoom":8.0,"int_name":"Arkalohori","name:ru":"\u0410\u0440\u043a\u0430\u043b\u043e\u0445\u043e\u0440\u0438\u043e\u043d","id":415444280,"population":1218},"coordinates":[3961,2980]},{"type":"Point","properties":{"kind":"locality","name:en":"Agia Galini","name":"\u0391\u03b3\u03af\u03b1 \u0393\u03b1\u03bb\u03ae\u03bd\u03b7","kind_detail":"town","name:de":"Agia Galini","source":"openstreetmap.org","min_zoom":8.0,"name:ru":"\u0410\u0433\u0438\u0430 \u0413\u0430\u043b\u0438\u043d\u0438","id":29459170,"population":1000},"coordinates":[2278,2805]},{"type":"Point","properties":{"name:el":"\u03a7\u03ce\u03c1\u03b1\u03c2 \u03a3\u03c6\u03b1\u03ba\u03af\u03c9\u03bd","kind":"locality","name:en":"Hora Sfakion","name":"\u03a7\u03ce\u03c1\u03b1 \u03a3\u03c6\u03b1\u03ba\u03af\u03c9\u03bd","kind_detail":"town","min_zoom":8.0,"name:de":"Chora Sfakion","source":"openstreetmap.org","name:fr":"Ch\u00f3ra Sfak\u00edon","name:uk":"\u0425\u043e\u0440\u0430 \u0421\u0444\u0430\u043a\u0438\u043e\u043d","name:ru":"\u0425\u043e\u0440\u0430-\u0421\u0444\u0430\u043a\u0438\u043e\u043d","id":137750059,"population":280},"coordinates":[669,3175]}]},"transit":{"type":"GeometryCollection","geometries":[]},"pois":{"type":"GeometryCollection","geometries":[]},"boundaries":{"type":"GeometryCollection","geometries":[{"type":"LineString","properties":{"name:kg":"Gelesi","name:ka":"\u10e1\u10d0\u10d1\u10d4\u10e0\u10eb\u10dc\u10d4\u10d7\u10d8","name:ko":"\uadf8\ub9ac\uc2a4","name:cv":"\u0413\u0440\u0435\u0446\u0438","name:cu":"\u0413\u0440\u044c\u0446\u0438","name:kl":"Gr\u00e6kerit Nunaat","name:cs":"\u0158ecko","name:ki":"Ngiriki","name:co":"Grecia","name:kv":"\u042d\u043b\u043b\u0430\u0434\u0430","name:ku":"Yewnanistan","name:tl":"Gresya","name:ce":"\u0413\u0440\u0435\u0446\u0438","name:ta":"\u0b95\u0bbf\u0bb0\u0bc7\u0b95\u0bcd\u0b95 \u0ba8\u0bbe\u0b9f\u0bc1","name:tg":"\u042e\u043d\u043e\u043d","name:ca":"Gr\u00e8cia","name:te":"\u0c17\u0c4d\u0c30\u0c40\u0c38\u0c4d","name:cy":"Gwlad Groeg","name:qu":"Grisya","name:da":"Gr\u00e6kenland","name:de":"Griechenland","name:dz":"\u0f42\u0fb2\u0f80\u0f66","source":"openstreetmap.org","name:kn":"\u0c97\u0ccd\u0cb0\u0cc0\u0cb8\u0ccd","name:dv":"\u0794\u07ab\u0782\u07a7\u0782\u07b0","name:lv":"Grie\u0137ija","name:lt":"Graikija","name:uz":"Yunoniston","name:kk":"\u0413\u0440\u0435\u043a\u0438\u044f","name:ur":"\u06cc\u0648\u0646\u0627\u0646","name:lb":"Griicheland","name:la":"Graecia","name:lg":"Buyonaani","name:uk":"\u0413\u0440\u0435\u0446\u0456\u044f","name:ug":"Gr\u00e9tsiye","name:li":"Griekeland","name:ln":"Gresi","name:kw":"Pow Grek","name:eo":"Grekujo","name:en":"Greece","name":"\u0395\u03bb\u03bb\u03ac\u03b4\u03b1","name:tk":"Gresi\u00fda","name:ee":"Greece","name:th":"\u0e1b\u0e23\u0e30\u0e40\u0e17\u0e28\u0e01\u0e23\u0e35\u0e0b","name:eu":"Grezia","name:et":"Kreeka","name:es":"Grecia","name:ay":"Grisya","name:rm":"Grezia","name:rn":"Grecia","name:az":"Yunan\u0131stan","name:ie":"Grecia","name:id":"Yunani","name:ar":"\u0627\u0644\u064a\u0648\u0646\u0627\u0646","name:io":"Grekia","name:is":"Grikkland","name:am":"\u130d\u122a\u12ad","name:it":"Grecia","name:an":"Grecia","name:ru":"\u0413\u0440\u0435\u0446\u0438\u044f","name:ab":"\u0411\u0430\u0440\u0437\u0435\u043d\u0442\u04d9\u044b\u043b\u0430","name:af":"Griekeland","name:zu":"IGreki","kind_detail":"2","name:ky":"\u0413\u0440\u0435\u0446\u0438\u044f","name:zh-yue":"\u5e0c\u81d8","name:zh":"\u5e0c\u814a","name:so":"Giriig","name:sm":"Kuliti","name:sl":"Gr\u010dija","name:sk":"Gr\u00e9cko","name:ja":"\u30ae\u30ea\u30b7\u30e3","name:si":"\u0d9c\u0dca\u200d\u0dbb\u0dd3\u0dc3\u0dd2\u0dba","name:sh":"Gr\u010dka","name:se":"Greika","name:sc":"Gr\u00e8ghia","name:br":"Gres","name:bs":"Gr\u010dka","name:bn":"\u0997\u09cd\u09b0\u09bf\u09b8","name:bo":"\u0f40\u0f7a\u0f0b\u0f62\u0f72\u0f0b\u0f66\u0f72\u0f0d","name:bi":"Greece","name:sw":"Ugiriki","name:be":"\u0413\u0440\u044d\u0446\u044b\u044f","name:su":"Yunani","name:bg":"\u0413\u044a\u0440\u0446\u0438\u044f","name:ss":"IGrikhi","name:ba":"\u0413\u0440\u0435\u0446\u0438\u044f","name:sq":"Greqia","name:jv":"Yunani","name:sa":"\u092f\u0935\u0928\u0926\u0947\u0936\u0903","name:ia":"Grecia","name:pt":"Gr\u00e9cia","name:ps":"\u064a\u0648\u0646\u0627\u0646","name:oc":"Gr\u00e8cia","min_zoom":8.0,"name:ro":"Grecia","name:zh-min-nan":"Hi-lia\u030dp","name:os":"\u0413\u0440\u0435\u043a\u044a","name:or":"\u0b17\u0b4d\u0b30\u0b40\u0b38","name:pl":"Grecja","sort_rank":262,"name:sr":"\u0413\u0440\u0447\u043a\u0430","osm_relation":true,"name:pa":"\u0a2f\u0a42\u0a28\u0a3e\u0a28","name:tr":"Yunanistan","name:hi":"\u092f\u0942\u0928\u093e\u0928","name:sv":"Grekland","name:he":"\u05d9\u05d5\u05d5\u05df","name:hy":"\u0540\u0578\u0582\u0576\u0561\u057d\u057f\u0561\u0576","name:ht":"Gr\u00e8s","name:hu":"G\u00f6r\u00f6gorsz\u00e1g","name:hr":"Gr\u010dka","kind":"country","name:yi":"\u05d2\u05e8\u05d9\u05db\u05e0\u05dc\u05d0\u05e0\u05d3","name:yo":"Gr\u00ed\u00ecs\u00ec","name:mt":"Gre\u010bja","alt_name:eo":"Grekio","name:ms":"Greece","name:mr":"\u0917\u094d\u0930\u0940\u0938","name:my":"\u1002\u101b\u102d\u1014\u102d\u102f\u1004\u103a\u1004\u1036","official_name":"\u0395\u03bb\u03bb\u03b7\u03bd\u03b9\u03ba\u03ae \u0394\u03b7\u03bc\u03bf\u03ba\u03c1\u03b1\u03c4\u03af\u03b1","int_name":"Greece","name:mg":"Grisy","name:vi":"Hy L\u1ea1p","name:ml":"\u0d17\u0d4d\u0d30\u0d40\u0d38\u0d4d","name:mn":"\u0413\u0440\u0435\u043a","name:mi":"Kirihi","id":-192307,"name:mk":"\u0413\u0440\u0446\u0438\u0458\u0430","name:vo":"Grik\u00e4n","name:fa":"\u06cc\u0648\u0646\u0627\u0646","name:rw":"Ubugereki","name:fi":"Kreikka","name:fo":"Grikkaland","name:fr":"Gr\u00e8ce","name:fy":"Grikel\u00e2n","name:nl":"Griekenland","name:nn":"Hellas","name:no":"Hellas","name:na":"Grit","name:ne":"\u0917\u094d\u0930\u0940\u0938","name:wo":"Girees","name:nv":"Gw\u00ed\u00edk Dine\u02bc\u00e9 Bik\u00e9yah","name:ga":"An Ghr\u00e9ig","name:gd":"A' Ghr\u00e8ig","name:gn":"Gyresia","name:gl":"Grecia","maritime_boundary":true,"name:gv":"Yn Ghreag","name:gu":"\u0a97\u0acd\u0ab0\u0ac0\u0ab8","name:tt":"\u0413\u0440\u0435\u0446\u0438\u044f"},"arcs":[0]},{"type":"LineString","properties":{"name:tr":"Girit","official_name":"\u0391\u03c0\u03bf\u03ba\u03b5\u03bd\u03c4\u03c1\u03c9\u03bc\u03ad\u03bd\u03b7 \u0394\u03b9\u03bf\u03af\u03ba\u03b7\u03c3\u03b7 \u039a\u03c1\u03ae\u03c4\u03b7\u03c2","min_zoom":8.0,"name:ru":"\u041a\u0440\u0438\u0442","name:bg":"\u041a\u0440\u0438\u0442","id":-4496068,"name:mk":"\u041a\u0440\u0438\u0442","kind":"region","name:en":"Crete","name":"\u039a\u03c1\u03ae\u03c4\u03b7","sort_rank":256,"kind_detail":"4","name:fr":"Cr\u00e8te","name:de":"Kreta","source":"openstreetmap.org","maritime_boundary":true,"osm_relation":true,"name:ca":"Creta"},"arcs":[1]}]},"roads":{"type":"GeometryCollection","geometries":[{"type":"MultiLineString","properties":{"sort_rank":380,"kind_detail":"primary","min_zoom":8.0,"kind":"major_road","source":"openstreetmap.org"},"arcs":[[10],[11],[12],[13],[14],[15],[16],[17],[18]]},{"type":"LineString","properties":{"kind":"major_road","alt_name:en":"Old National Road","network":"GR:national","sort_rank":380,"kind_detail":"primary","source":"openstreetmap.org","min_zoom":8.0,"int_name":"Karterou","landuse_kind":"urban_area","shield_text":"\u0395\u039f90","ref":"\u0395\u039f90","id":139611424},"arcs":[19]},{"type":"MultiLineString","properties":{"kind":"major_road","int_name":"Panagiotaki","network":"GR:national","sort_rank":380,"kind_detail":"primary","bus_network":"\u0391\u03c3\u03c4\u03b9\u03ba\u03cc \u039a\u03a4\u0395\u039b \u0397\u03c1\u03b1\u03ba\u03bb\u03b5\u03af\u03bf\u03c5","name:de":"Panagiotaki","source":"openstreetmap.org","min_zoom":8.0,"bus_shield_text":"8","shield_text":"\u0395\u039f97","landuse_kind":"urban_area","ref":"\u0395\u039f97"},"arcs":[[20],[21]]},{"type":"LineString","properties":{"kind":"major_road","network":"GR:national","sort_rank":380,"kind_detail":"primary","bus_network":"\u0391\u03c3\u03c4\u03b9\u03ba\u03cc \u039a\u03a4\u0395\u039b \u0397\u03c1\u03b1\u03ba\u03bb\u03b5\u03af\u03bf\u03c5","name:de":"Iraklio - Agios Nikolaos","source":"openstreetmap.org","min_zoom":8.0,"bus_shield_text":"7","shield_text":"\u0395\u039f90","ref":"\u0395\u039f90"},"arcs":[22]},{"type":"LineString","properties":{"kind":"major_road","alt_name:en":"Old National Road","network":"GR:national","sort_rank":380,"kind_detail":"primary","name:de":"Karterou","source":"openstreetmap.org","min_zoom":8.0,"int_name":"Karterou","landuse_kind":"urban_area","shield_text":"\u0395\u039f90","ref":"\u0395\u039f90","id":276097417},"arcs":[23]},{"type":"LineString","properties":{"source":"openstreetmap.org","kind":"ferry","name":"Paleochora - Sougia - Gavdos","sort_rank":355,"min_zoom":8.0,"osm_relation":true,"id":-451280},"arcs":[24]},{"type":"MultiLineString","properties":{"kind":"major_road","network":"GR:national","sort_rank":380,"kind_detail":"primary","bus_network":"\u0391\u03c3\u03c4\u03b9\u03ba\u03cc \u039a\u03a4\u0395\u039b \u0397\u03c1\u03b1\u03ba\u03bb\u03b5\u03af\u03bf\u03c5","source":"openstreetmap.org","min_zoom":8.0,"bus_shield_text":"7","shield_text":"\u0395\u039f90","ref":"\u0395\u039f90"},"arcs":[[25],[26]]},{"type":"MultiLineString","properties":{"kind":"major_road","network":"GR:national","sort_rank":380,"kind_detail":"primary","source":"openstreetmap.org","min_zoom":8.0,"shield_text":"\u0395\u039f90","ref":"\u0395\u039f90"},"arcs":[[27],[28],[29],[30],[31]]},{"type":"LineString","properties":{"kind":"major_road","network":"GR:national","sort_rank":380,"kind_detail":"primary","bus_network":null,"name:de":"Ioanni Mitsotaki","source":"openstreetmap.org","min_zoom":8.0,"bus_shield_text":"KE","shield_text":"\u0395\u039f90","landuse_kind":"urban_area","ref":"\u0395\u039f90","id":25800485},"arcs":[32]},{"type":"MultiLineString","properties":{"kind":"major_road","int_name":"Rethymno - Irakleio","network":"GR:national","sort_rank":380,"kind_detail":"primary","name:de":"Rethymno - Heraklion","source":"openstreetmap.org","min_zoom":8.0,"shield_text":"\u0395\u039f90","ref":"\u0395\u039f90"},"arcs":[[33],[34]]},{"type":"LineString","properties":{"kind":"major_road","int_name":"Exintadyo Martyron","network":"GR:national","sort_rank":380,"kind_detail":"primary","source":"openstreetmap.org","min_zoom":8.0,"landuse_kind":"urban_area","shield_text":"\u0395\u039f90","ref":"\u0395\u039f90","id":275829642},"arcs":[35]},{"type":"LineString","properties":{"kind":"major_road","int_name":"Chania - Rethymno","network":"GR:national","sort_rank":380,"kind_detail":"primary","source":"openstreetmap.org","min_zoom":8.0,"shield_text":"\u0395\u039f90","ref":"\u0395\u039f90"},"arcs":[36]},{"type":"MultiLineString","properties":{"bus_network":"KTEL","network":"GR:national","sort_rank":380,"kind_detail":"primary","kind":"major_road","source":"openstreetmap.org","min_zoom":8.0,"bus_shield_text":"20","shield_text":"\u0395\u039f90","ref":"\u0395\u039f90"},"arcs":[[37],[38]]},{"type":"MultiLineString","properties":{"kind":"major_road","int_name":"Irakleio - Faistos","network":"GR:national","sort_rank":380,"kind_detail":"primary","name:fr":"H\u00e9raklion - Phaistos","source":"openstreetmap.org","min_zoom":8.0,"shield_text":"\u0395\u039f97","ref":"\u0395\u039f97"},"arcs":[[39],[40],[41],[42],[43],[44],[45]]},{"type":"LineString","properties":{"kind":"major_road","int_name":"Rethymno - Irakleio","network":"GR:national","sort_rank":380,"kind_detail":"primary","bus_network":"\u0391\u03c3\u03c4\u03b9\u03ba\u03cc \u039a\u03a4\u0395\u039b \u0397\u03c1\u03b1\u03ba\u03bb\u03b5\u03af\u03bf\u03c5","source":"openstreetmap.org","min_zoom":8.0,"bus_shield_text":"10","shield_text":"\u0395\u039f90","ref":"\u0395\u039f90","id":425339654},"arcs":[46]},{"type":"MultiLineString","properties":{"kind":"major_road","int_name":"Ikarou","sort_rank":380,"landuse_kind":"urban_area","name:de":"Ikarou","source":"openstreetmap.org","min_zoom":8.0,"kind_detail":"primary"},"arcs":[[47],[48]]},{"type":"LineString","properties":{"bus_network":null,"int_name":"Panagiotaki","network":"GR:national","sort_rank":380,"kind_detail":"primary","kind":"major_road","name:de":"Panagiotaki","source":"openstreetmap.org","min_zoom":8.0,"bus_shield_text":"21. Hospital University-Mastampas-Knossos","shield_text":"\u0395\u039f97","landuse_kind":"urban_area","ref":"\u0395\u039f97"},"arcs":[49]},{"type":"LineString","properties":{"kind":"major_road","int_name":"Exintadyo Martyron","network":"GR:national","sort_rank":380,"kind_detail":"primary","bus_network":"\u0391\u03c3\u03c4\u03b9\u03ba\u03cc \u039a\u03a4\u0395\u039b \u0397\u03c1\u03b1\u03ba\u03bb\u03b5\u03af\u03bf\u03c5","name:de":"62 Martyron","source":"openstreetmap.org","min_zoom":8.0,"bus_shield_text":"5","shield_text":"\u0395\u039f90","landuse_kind":"urban_area","ref":"\u0395\u039f90"},"arcs":[50]},{"type":"LineString","properties":{"bus_network":"KTEL","int_name":"Moatsou","network":"GR:national","sort_rank":380,"kind_detail":"primary","kind":"major_road","name:de":"Themistokli Moatsou","source":"openstreetmap.org","min_zoom":8.0,"name:en":"Themistokli Moatsou","bus_shield_text":"20","shield_text":"\u0395\u039f90","ref":"\u0395\u039f90","id":39220863},"arcs":[51]},{"type":"MultiLineString","properties":{"kind":"major_road","int_name":"Panagiotaki","network":"GR:national","sort_rank":380,"kind_detail":"primary","name:de":"Panagiotaki","source":"openstreetmap.org","min_zoom":8.0,"landuse_kind":"urban_area","shield_text":"\u0395\u039f97","ref":"\u0395\u039f97"},"arcs":[[52],[53]]},{"type":"LineString","properties":{"bus_network":"KTEL","int_name":"Machis Kritis","network":"GR:national","sort_rank":380,"kind_detail":"primary","kind":"major_road","source":"openstreetmap.org","min_zoom":8.0,"bus_shield_text":"20","shield_text":"\u0395\u039f90","ref":"\u0395\u039f90"},"arcs":[54]},{"type":"LineString","properties":{"kind":"major_road","int_name":"Exintadyo Martyron","network":"GR:national","sort_rank":380,"kind_detail":"primary","bus_network":"\u0391\u03c3\u03c4\u03b9\u03ba\u03cc \u039a\u03a4\u0395\u039b \u0397\u03c1\u03b1\u03ba\u03bb\u03b5\u03af\u03bf\u03c5","source":"openstreetmap.org","min_zoom":8.0,"bus_shield_text":"KE","shield_text":"\u0395\u039f90","landuse_kind":"urban_area","ref":"\u0395\u039f90"},"arcs":[55]},{"type":"LineString","properties":{"source":"openstreetmap.org","kind":"ferry","name":"Heraklion - Santorin","sort_rank":355,"landuse_kind":"urban_area","min_zoom":8.0,"id":70501154},"arcs":[56]},{"type":"MultiLineString","properties":{"kind":"major_road","int_name":"Rethymno - Irakleio","network":"GR:national","sort_rank":380,"kind_detail":"primary","source":"openstreetmap.org","min_zoom":8.0,"shield_text":"\u0395\u039f90","ref":"\u0395\u039f90"},"arcs":[[57],[58],[59],[60],[61],[62]]},{"type":"LineString","properties":{"kind":"major_road","int_name":"Sofokli Venizelou","network":"GR:national","sort_rank":380,"kind_detail":"primary","bus_network":"\u0391\u03c3\u03c4\u03b9\u03ba\u03cc \u039a\u03a4\u0395\u039b \u0397\u03c1\u03b1\u03ba\u03bb\u03b5\u03af\u03bf\u03c5","name:de":"Sofokli Venizelou","source":"openstreetmap.org","min_zoom":8.0,"bus_shield_text":"KE","shield_text":"\u0395\u039f97","landuse_kind":"urban_area","ref":"\u0395\u039f97"},"arcs":[63]},{"type":"LineString","properties":{"bus_network":null,"int_name":"Panagiotaki","network":"GR:national","sort_rank":380,"kind_detail":"primary","kind":"major_road","name:de":"Panagiotaki","source":"openstreetmap.org","min_zoom":8.0,"bus_shield_text":"KE","shield_text":"\u0395\u039f97","landuse_kind":"urban_area","ref":"\u0395\u039f97"},"arcs":[64]},{"type":"LineString","properties":{"kind":"major_road","network":"GR:national","sort_rank":380,"kind_detail":"primary","bus_network":"\u0391\u03c3\u03c4\u03b9\u03ba\u03cc \u039a\u03a4\u0395\u039b \u0397\u03c1\u03b1\u03ba\u03bb\u03b5\u03af\u03bf\u03c5","source":"openstreetmap.org","min_zoom":8.0,"bus_shield_text":"8","shield_text":"\u0395\u039f97","landuse_kind":"urban_area","ref":"\u0395\u039f97"},"arcs":[65]},{"type":"MultiLineString","properties":{"bus_network":null,"network":"GR:national","sort_rank":380,"kind_detail":"primary","kind":"major_road","source":"openstreetmap.org","min_zoom":8.0,"bus_shield_text":"1","shield_text":"\u0395\u039f90","landuse_kind":"urban_area","ref":"\u0395\u039f90"},"arcs":[[66],[67]]},{"type":"LineString","properties":{"bus_network":"KTEL","int_name":"N. Kazantzaki","network":"GR:national","sort_rank":380,"kind_detail":"primary","kind":"major_road","name:de":"N. Kazantzaki","source":"openstreetmap.org","min_zoom":8.0,"bus_shield_text":"20","shield_text":"\u0395\u039f90","ref":"\u0395\u039f90","id":238997799},"arcs":[68]},{"type":"LineString","properties":{"source":"openstreetmap.org","kind":"ferry","name":"Paleohora-Gaydos","sort_rank":355,"min_zoom":8.0,"osm_relation":true,"id":-3273624},"arcs":[69]},{"type":"LineString","properties":{"source":"openstreetmap.org","kind":"ferry","name":"\u03a6\u03bf\u03af\u03bd\u03b9\u03ba\u03b1s\u03c2 \u039c\u03b1\u03c1\u03bc\u03b1\u03c1\u03ac","sort_rank":355,"landuse_kind":"park","min_zoom":8.0,"id":539082831},"arcs":[70]},{"type":"MultiLineString","properties":{"kind":"major_road","int_name":"Irakleio - Faistos","network":"GR:national","sort_rank":380,"kind_detail":"primary","source":"openstreetmap.org","min_zoom":8.0,"shield_text":"\u0395\u039f97","ref":"\u0395\u039f97"},"arcs":[[71],[72]]},{"type":"MultiLineString","properties":{"kind":"major_road","int_name":"Eleftheriou Venizelou","network":"GR:national","sort_rank":380,"kind_detail":"primary","source":"openstreetmap.org","min_zoom":8.0,"shield_text":"\u0395\u039f90","ref":"\u0395\u039f90"},"arcs":[[73],[74]]},{"type":"LineString","properties":{"kind":"major_road","name:en":"Northern Cretan Highway","name:nl":"Palaiokastrobrug","network":"e-road","short_name":"\u0392\u039f\u0391\u039a","sort_rank":381,"kind_detail":"trunk","source":"openstreetmap.org","min_zoom":8.0,"shield_text":"75","ref":"\u039190","id":117124090},"arcs":[75]},{"type":"LineString","properties":{"kind":"major_road","int_name":"Dimitrakaki","network":"GR:national","sort_rank":380,"kind_detail":"primary","name:de":"Dimitrakaki","source":"openstreetmap.org","min_zoom":8.0,"shield_text":"\u0395\u039f90","ref":"\u0395\u039f90","id":444979655},"arcs":[76]},{"type":"MultiLineString","properties":{"bus_network":null,"int_name":"Exintadyo Martyron","network":"GR:national","sort_rank":380,"kind_detail":"primary","kind":"major_road","source":"openstreetmap.org","min_zoom":8.0,"bus_shield_text":"1","shield_text":"\u0395\u039f90","landuse_kind":"urban_area","ref":"\u0395\u039f90"},"arcs":[[77],[78]]},{"type":"LineString","properties":{"kind":"highway","name:en":"Northern Cretan Highway","network":"e-road","short_name":"\u0392\u039f\u0391\u039a","sort_rank":383,"kind_detail":"motorway","source":"openstreetmap.org","min_zoom":8.0,"all_networks":["e-road",null,null],"landuse_kind":"urban_area","shield_text":"75","ref":"\u039190","id":370758285,"all_shield_texts":["75","90","90"]},"arcs":[79]},{"type":"LineString","properties":{"bus_network":"KTEL","name:en":"Oplarchigou Pachla","network":"GR:national","sort_rank":380,"kind_detail":"primary","kind":"major_road","name:de":"Oplarchigou Pachla","source":"openstreetmap.org","min_zoom":8.0,"bus_shield_text":"20","shield_text":"\u0395\u039f90","ref":"\u0395\u039f90","id":26764497},"arcs":[80]},{"type":"LineString","properties":{"bus_network":"KTEL","network":"GR:national","sort_rank":380,"kind_detail":"primary","kind":"major_road","name:de":"K. Loukareos","source":"openstreetmap.org","min_zoom":8.0,"bus_shield_text":"20","shield_text":"\u0395\u039f90","ref":"\u0395\u039f90"},"arcs":[81]},{"type":"MultiLineString","properties":{"bus_network":null,"int_name":"Sofokli Venizelou","network":"GR:national","sort_rank":380,"kind_detail":"primary","kind":"major_road","name:de":"Sofokli Venizelou","source":"openstreetmap.org","min_zoom":8.0,"bus_shield_text":"KE","shield_text":"\u0395\u039f90","landuse_kind":"urban_area","ref":"\u0395\u039f90"},"arcs":[[82],[83],[84]]},{"type":"LineString","properties":{"kind":"major_road","int_name":"Kountourioti","network":"GR:national","sort_rank":380,"kind_detail":"primary","bus_network":"KTEL","name:de":"Kountourioti Pawlou","source":"openstreetmap.org","min_zoom":8.0,"bus_shield_text":"20","shield_text":"\u0395\u039f90","ref":"\u0395\u039f90","id":26764466},"arcs":[85]},{"type":"MultiLineString","properties":{"kind":"major_road","network":"GR:national","sort_rank":380,"kind_detail":"primary","bus_network":"\u0391\u03c3\u03c4\u03b9\u03ba\u03cc \u039a\u03a4\u0395\u039b \u0397\u03c1\u03b1\u03ba\u03bb\u03b5\u03af\u03bf\u03c5","source":"openstreetmap.org","min_zoom":8.0,"bus_shield_text":"KE","shield_text":"\u0395\u039f90","landuse_kind":"urban_area","ref":"\u0395\u039f90"},"arcs":[[86],[87],[88],[89]]},{"type":"LineString","properties":{"source":"openstreetmap.org","kind":"ferry","name":"\u03a6\u03bf\u03af\u03bd\u03b9\u03ba\u03b1s\u03c2 \u039c\u03b1\u03c1\u03bc\u03b1\u03c1\u03ac","sort_rank":355,"min_zoom":8.0,"id":539082831},"arcs":[90]},{"type":"MultiLineString","properties":{"source":"openstreetmap.org","kind":"major_road","landuse_kind":"urban_area","sort_rank":380,"kind_detail":"primary","min_zoom":8.0},"arcs":[[91],[92],[93],[94],[95],[96],[97]]},{"type":"LineString","properties":{"kind":"major_road","network":"GR:national","sort_rank":380,"kind_detail":"primary","bus_network":"\u0391\u03c3\u03c4\u03b9\u03ba\u03cc \u039a\u03a4\u0395\u039b \u0397\u03c1\u03b1\u03ba\u03bb\u03b5\u03af\u03bf\u03c5","source":"openstreetmap.org","min_zoom":8.0,"bus_shield_text":"5","shield_text":"\u0395\u039f90","landuse_kind":"urban_area","ref":"\u0395\u039f90","id":323064734},"arcs":[98]},{"type":"MultiLineString","properties":{"bus_network":"KTEL","name:en":"Northern Cretan Highway","network":"e-road","short_name":"\u0392\u039f\u0391\u039a","sort_rank":381,"kind_detail":"trunk","kind":"major_road","source":"openstreetmap.org","min_zoom":8.0,"bus_shield_text":"20","shield_text":"75","ref":"\u039190"},"arcs":[[99],[100],[101],[102]]},{"type":"MultiLineString","properties":{"sort_rank":355,"source":"openstreetmap.org","min_zoom":8.0,"kind":"ferry"},"arcs":[[103],[104],[105],[106],[107],[108],[109],[110],[111],[112],[113],[114],[115],[116],[117],[118],[119],[120]]},{"type":"MultiLineString","properties":{"sort_rank":355,"landuse_kind":"urban_area","min_zoom":8.0,"kind":"ferry","source":"openstreetmap.org"},"arcs":[[121],[122]]},{"type":"LineString","properties":{"kind":"major_road","network":"GR:national","sort_rank":380,"kind_detail":"primary","bus_network":"\u0391\u03c3\u03c4\u03b9\u03ba\u03cc \u039a\u03a4\u0395\u039b \u0397\u03c1\u03b1\u03ba\u03bb\u03b5\u03af\u03bf\u03c5","source":"openstreetmap.org","min_zoom":8.0,"bus_shield_text":"10","shield_text":"\u0395\u039f90","landuse_kind":"urban_area","ref":"\u0395\u039f90","id":323064724},"arcs":[123]},{"type":"LineString","properties":{"kind":"major_road","int_name":"Chania - Rethymno","network":"GR:national","sort_rank":380,"kind_detail":"primary","name:de":"Chania - Rethymnon","source":"openstreetmap.org","min_zoom":8.0,"shield_text":"\u0395\u039f90","ref":"\u0395\u039f90"},"arcs":[124]},{"type":"MultiLineString","properties":{"kind":"major_road","int_name":"Rethymno - Irakleio","network":"GR:national","sort_rank":380,"kind_detail":"primary","source":"openstreetmap.org","min_zoom":8.0,"landuse_kind":"nature_reserve","shield_text":"\u0395\u039f90","ref":"\u0395\u039f90"},"arcs":[[125],[126],[127],[128]]},{"type":"LineString","properties":{"kind":"ferry","name":"\u0397\u03c1\u03ac\u03ba\u03bb\u03b5\u03b9\u03bf-\u03a3\u03b1\u03bd\u03c4\u03bf\u03c1\u03af\u03bd\u03b7","sort_rank":355,"name:de":"Heraklion-Santorin","source":"openstreetmap.org","min_zoom":8.0,"id":-6123237,"osm_relation":true},"arcs":[129]},{"type":"MultiLineString","properties":{"bus_network":null,"int_name":"Exintadyo Martyron","network":"GR:national","sort_rank":380,"kind_detail":"primary","kind":"major_road","source":"openstreetmap.org","min_zoom":8.0,"bus_shield_text":"6","shield_text":"\u0395\u039f90","landuse_kind":"urban_area","ref":"\u0395\u039f90"},"arcs":[[130],[131]]},{"type":"LineString","properties":{"source":"openstreetmap.org","kind":"ferry","name":"Piraeus - Heraklion","sort_rank":355,"landuse_kind":"urban_area","min_zoom":8.0,"id":102863778},"arcs":[132]},{"type":"LineString","properties":{"name:el":"\u039d\u03ad\u03b1\u03c1\u03c7\u03bf\u03c5","bus_network":"\u0391\u03c3\u03c4\u03b9\u03ba\u03cc \u039a\u03a4\u0395\u039b \u0397\u03c1\u03b1\u03ba\u03bb\u03b5\u03af\u03bf\u03c5","name:en":"Nearhou","network":"GR:national","sort_rank":380,"kind_detail":"primary","kind":"major_road","name:de":"Nearchou","source":"openstreetmap.org","min_zoom":8.0,"bus_shield_text":"KE","shield_text":"\u0395\u039f90","landuse_kind":"urban_area","ref":"\u0395\u039f90","id":414612027},"arcs":[133]},{"type":"LineString","properties":{"kind":"major_road","name:en":"Rethymno - Irakleio Old Highway","network":"GR:national","sort_rank":380,"kind_detail":"primary","bus_network":"\u0391\u03c3\u03c4\u03b9\u03ba\u03cc \u039a\u03a4\u0395\u039b \u0397\u03c1\u03b1\u03ba\u03bb\u03b5\u03af\u03bf\u03c5","source":"openstreetmap.org","min_zoom":8.0,"int_name":"Rethymno - Irakleio","bus_shield_text":"10","shield_text":"\u0395\u039f90","ref":"\u0395\u039f90"},"arcs":[134]},{"type":"LineString","properties":{"bus_network":"KTEL","int_name":"Portaliou","network":"GR:national","sort_rank":380,"kind_detail":"primary","kind":"major_road","name:de":"Em. Portaliou","source":"openstreetmap.org","min_zoom":8.0,"bus_shield_text":"20","shield_text":"\u0395\u039f90","ref":"\u0395\u039f90"},"arcs":[135]},{"type":"LineString","properties":{"kind":"major_road","name:en":"62 Martyrs Avenue","network":"GR:national","sort_rank":380,"kind_detail":"primary","bus_network":"\u0391\u03c3\u03c4\u03b9\u03ba\u03cc \u039a\u03a4\u0395\u039b \u0397\u03c1\u03b1\u03ba\u03bb\u03b5\u03af\u03bf\u03c5","source":"openstreetmap.org","min_zoom":8.0,"bus_shield_text":"5","shield_text":"\u0395\u039f90","landuse_kind":"urban_area","ref":"\u0395\u039f90","id":174996390},"arcs":[136]},{"type":"MultiLineString","properties":{"kind":"highway","name:en":"Northern Cretan Highway","network":"e-road","short_name":"\u0392\u039f\u0391\u039a","sort_rank":383,"kind_detail":"motorway","source":"openstreetmap.org","min_zoom":8.0,"all_networks":["e-road",null],"shield_text":"75","ref":"\u039190","all_shield_texts":["75","90"]},"arcs":[[137],[138],[139],[140],[141],[142],[143],[144]]},{"type":"LineString","properties":{"bus_network":null,"network":"GR:national","sort_rank":380,"kind_detail":"primary","kind":"major_road","source":"openstreetmap.org","min_zoom":8.0,"bus_shield_text":"21. Hospital University-Mastampas-Knossos","shield_text":"\u0395\u039f97","ref":"\u0395\u039f97"},"arcs":[145]},{"type":"MultiLineString","properties":{"bus_network":null,"network":"GR:national","sort_rank":380,"kind_detail":"primary","kind":"major_road","source":"openstreetmap.org","min_zoom":8.0,"bus_shield_text":"KE","shield_text":"\u0395\u039f90","landuse_kind":"urban_area","ref":"\u0395\u039f90"},"arcs":[[146],[147],[148],[149]]},{"type":"MultiLineString","properties":{"kind":"major_road","network":"GR:national","sort_rank":380,"kind_detail":"primary","source":"openstreetmap.org","min_zoom":8.0,"landuse_kind":"urban_area","shield_text":"\u0395\u039f90","ref":"\u0395\u039f90"},"arcs":[[150],[151],[152],[153],[154],[155],[156],[157],[158]]},{"type":"LineString","properties":{"kind":"major_road","int_name":"Exintadyo Martyron","network":"GR:national","sort_rank":380,"kind_detail":"primary","bus_network":"\u0391\u03c3\u03c4\u03b9\u03ba\u03cc \u039a\u03a4\u0395\u039b \u0397\u03c1\u03b1\u03ba\u03bb\u03b5\u03af\u03bf\u03c5","source":"openstreetmap.org","min_zoom":8.0,"bus_shield_text":"10","shield_text":"\u0395\u039f90","landuse_kind":"urban_area","ref":"\u0395\u039f90","id":275829641},"arcs":[159]},{"type":"LineString","properties":{"kind":"major_road","name:en":"62 Martyrs Avenue","network":"GR:national","sort_rank":380,"kind_detail":"primary","bus_network":null,"source":"openstreetmap.org","min_zoom":8.0,"bus_shield_text":"1","shield_text":"\u0395\u039f90","landuse_kind":"urban_area","ref":"\u0395\u039f90","id":368369165},"arcs":[160]},{"type":"LineString","properties":{"name:el":"\u039d\u03ad\u03b1\u03c1\u03c7\u03bf\u03c5","kind":"major_road","name:en":"Nearhou","network":"GR:national","sort_rank":380,"kind_detail":"primary","name:de":"Nearchou","source":"openstreetmap.org","min_zoom":8.0,"landuse_kind":"urban_area","shield_text":"\u0395\u039f90","ref":"\u0395\u039f90"},"arcs":[161]},{"type":"MultiLineString","properties":{"kind":"major_road","network":"GR:national","sort_rank":380,"kind_detail":"primary","name:de":"Iraklio - Agios Nikolaos","source":"openstreetmap.org","min_zoom":8.0,"shield_text":"\u0395\u039f90","ref":"\u0395\u039f90"},"arcs":[[162],[163],[164],[165],[166],[167],[168]]},{"type":"LineString","properties":{"bus_network":null,"int_name":"Exintadyo Martyron","network":"GR:national","sort_rank":380,"kind_detail":"primary","kind":"major_road","name:de":"62 Martyron","source":"openstreetmap.org","min_zoom":8.0,"bus_shield_text":"1","shield_text":"\u0395\u039f90","landuse_kind":"urban_area","ref":"\u0395\u039f90"},"arcs":[169]},{"type":"LineString","properties":{"kind":"major_road","network":"GR:national","sort_rank":380,"kind_detail":"primary","bus_network":"\u0391\u03c3\u03c4\u03b9\u03ba\u03cc \u039a\u03a4\u0395\u039b \u0397\u03c1\u03b1\u03ba\u03bb\u03b5\u03af\u03bf\u03c5","source":"openstreetmap.org","min_zoom":8.0,"bus_shield_text":"7","shield_text":"\u0395\u039f90","landuse_kind":"urban_area","ref":"\u0395\u039f90"},"arcs":[170]},{"type":"LineString","properties":{"kind":"major_road","int_name":"Faistos - Tympaki","network":"GR:national","sort_rank":380,"kind_detail":"primary","source":"openstreetmap.org","min_zoom":8.0,"shield_text":"\u0395\u039f97","ref":"\u0395\u039f97"},"arcs":[171]},{"type":"LineString","properties":{"kind":"major_road","name:en":"25th March Road","network":"GR:national","sort_rank":380,"kind_detail":"primary","source":"openstreetmap.org","min_zoom":8.0,"shield_text":"\u0395\u039f97","ref":"\u0395\u039f97"},"arcs":[172]},{"type":"MultiLineString","properties":{"bus_network":null,"int_name":"Irakleio - Faistos","network":"GR:national","sort_rank":380,"kind_detail":"primary","name:fr":"H\u00e9raklion - Phaistos","source":"openstreetmap.org","min_zoom":8.0,"bus_shield_text":"21. Hospital University-Mastampas-Knossos","shield_text":"\u0395\u039f97","ref":"\u0395\u039f97","kind":"major_road"},"arcs":[[173],[174]]},{"type":"LineString","properties":{"bus_network":"KTEL","name:en":"Northern Cretan Highway","network":"e-road","short_name":"\u0392\u039f\u0391\u039a","sort_rank":381,"kind_detail":"trunk","kind":"major_road","source":"openstreetmap.org","min_zoom":8.0,"bus_shield_text":"20","shield_text":"75","landuse_kind":"urban_area","ref":"\u039190"},"arcs":[175]},{"type":"LineString","properties":{"kind":"ferry","name:en":"Piraeus\u2013Heraklion","name":"\u03a0\u03b5\u03b9\u03c1\u03b1\u03b9\u03ac\u2013\u0397\u03c1\u03ac\u03ba\u03bb\u03b5\u03b9\u03bf","sort_rank":355,"landuse_kind":"urban_area","source":"openstreetmap.org","min_zoom":8.0,"osm_relation":true},"arcs":[176]},{"type":"LineString","properties":{"kind":"major_road","network":"GR:national","sort_rank":380,"kind_detail":"primary","bus_network":"KTEL","name:de":"Zymvrakaki","source":"openstreetmap.org","min_zoom":8.0,"bus_shield_text":"20","shield_text":"\u0395\u039f90","ref":"\u0395\u039f90","id":176916490},"arcs":[177]},{"type":"LineString","properties":{"sort_rank":355,"source":"openstreetmap.org","min_zoom":8.0,"name":"Heraklion - Santorin","kind":"ferry"},"arcs":[178]},{"type":"LineString","properties":{"kind":"major_road","network":"GR:national","sort_rank":380,"kind_detail":"primary","source":"openstreetmap.org","min_zoom":8.0,"shield_text":"\u0395\u039f97","ref":"\u0395\u039f97","id":275831702},"arcs":[179]},{"type":"MultiLineString","properties":{"kind":"major_road","name:en":"Northern Cretan Highway","network":"e-road","short_name":"\u0392\u039f\u0391\u039a","sort_rank":381,"kind_detail":"trunk","source":"openstreetmap.org","min_zoom":8.0,"shield_text":"75","ref":"\u039190"},"arcs":[[180],[181],[182],[183],[184],[185],[186],[187],[188],[189]]},{"type":"LineString","properties":{"kind":"major_road","name:en":"28th October Road","network":"GR:national","sort_rank":380,"kind_detail":"primary","source":"openstreetmap.org","min_zoom":8.0,"shield_text":"\u0395\u039f97","ref":"\u0395\u039f97"},"arcs":[190]},{"type":"LineString","properties":{"kind":"major_road","int_name":"Rethymno - Irakleio","network":"GR:national","sort_rank":380,"kind_detail":"primary","name:de":"Rethymno - Heraklion","source":"openstreetmap.org","min_zoom":8.0,"landuse_kind":"urban_area","shield_text":"\u0395\u039f90","ref":"\u0395\u039f90","id":369939650},"arcs":[191]},{"type":"MultiLineString","properties":{"source":"openstreetmap.org","kind":"ferry","name:en":"Piraeus\u2013Heraklion","name":"\u03a0\u03b5\u03b9\u03c1\u03b1\u03b9\u03ac\u2013\u0397\u03c1\u03ac\u03ba\u03bb\u03b5\u03b9\u03bf","sort_rank":355,"min_zoom":8.0,"osm_relation":true},"arcs":[[192],[193]]},{"type":"LineString","properties":{"kind":"major_road","network":"GR:national","sort_rank":380,"kind_detail":"primary","bus_network":null,"source":"openstreetmap.org","min_zoom":8.0,"bus_shield_text":"21. Hospital University-Mastampas-Knossos","shield_text":"\u0395\u039f97","landuse_kind":"urban_area","ref":"\u0395\u039f97","id":116473222},"arcs":[194]},{"type":"LineString","properties":{"bus_network":"\u0391\u03c3\u03c4\u03b9\u03ba\u03cc \u039a\u03a4\u0395\u039b \u0397\u03c1\u03b1\u03ba\u03bb\u03b5\u03af\u03bf\u03c5","int_name":"Irakleio - Faistos","network":"GR:national","sort_rank":380,"kind_detail":"primary","name:fr":"H\u00e9raklion - Phaistos","source":"openstreetmap.org","min_zoom":8.0,"bus_shield_text":"8","shield_text":"\u0395\u039f97","ref":"\u0395\u039f97","kind":"major_road"},"arcs":[195]},{"type":"MultiLineString","properties":{"kind":"major_road","name:en":"Nearhou","network":"GR:national","sort_rank":380,"kind_detail":"primary","bus_network":"\u0391\u03c3\u03c4\u03b9\u03ba\u03cc \u039a\u03a4\u0395\u039b \u0397\u03c1\u03b1\u03ba\u03bb\u03b5\u03af\u03bf\u03c5","name:de":"Nearchou","source":"openstreetmap.org","min_zoom":8.0,"bus_shield_text":"KE","shield_text":"\u0395\u039f90","landuse_kind":"urban_area","ref":"\u0395\u039f90"},"arcs":[[196],[197]]},{"type":"LineString","properties":{"bus_network":null,"int_name":"Exintadyo Martyron","network":"GR:national","sort_rank":380,"kind_detail":"primary","kind":"major_road","source":"openstreetmap.org","min_zoom":8.0,"bus_shield_text":"KE","shield_text":"\u0395\u039f90","landuse_kind":"urban_area","ref":"\u0395\u039f90"},"arcs":[198]},{"type":"MultiLineString","properties":{"kind":"major_road","int_name":"Ikarou","sort_rank":380,"kind_detail":"primary","bus_network":"\u0391\u03c3\u03c4\u03b9\u03ba\u03cc \u039a\u03a4\u0395\u039b \u0397\u03c1\u03b1\u03ba\u03bb\u03b5\u03af\u03bf\u03c5","name:de":"Ikarou","source":"openstreetmap.org","min_zoom":8.0,"bus_shield_text":"5","landuse_kind":"urban_area"},"arcs":[[199],[200],[201],[202],[203]]},{"type":"MultiLineString","properties":{"kind":"major_road","network":"GR:national","sort_rank":380,"kind_detail":"primary","source":"openstreetmap.org","min_zoom":8.0,"landuse_kind":"urban_area","shield_text":"\u0395\u039f90"},"arcs":[[204],[205],[206],[207],[208],[209],[210]]},{"type":"LineString","properties":{"kind":"major_road","name:en":"Rethymno - Irakleio Old Highway","network":"GR:national","sort_rank":380,"kind_detail":"primary","source":"openstreetmap.org","min_zoom":8.0,"int_name":"Rethymno - Irakleio","shield_text":"\u0395\u039f90","ref":"\u0395\u039f90"},"arcs":[211]},{"type":"MultiLineString","properties":{"kind":"major_road","int_name":"Sofokli Venizelou","network":"GR:national","sort_rank":380,"kind_detail":"primary","bus_network":"\u0391\u03c3\u03c4\u03b9\u03ba\u03cc \u039a\u03a4\u0395\u039b \u0397\u03c1\u03b1\u03ba\u03bb\u03b5\u03af\u03bf\u03c5","name:de":"Sofokli Venizelou","source":"openstreetmap.org","min_zoom":8.0,"bus_shield_text":"KE","shield_text":"\u0395\u039f90","landuse_kind":"urban_area","ref":"\u0395\u039f90"},"arcs":[[212],[213]]},{"type":"LineString","properties":{"kind":"major_road","network":"GR:national","sort_rank":380,"kind_detail":"primary","bus_network":"\u0391\u03c3\u03c4\u03b9\u03ba\u03cc \u039a\u03a4\u0395\u039b \u0397\u03c1\u03b1\u03ba\u03bb\u03b5\u03af\u03bf\u03c5","name:de":"Iraklio - Agios Nikolaos","source":"openstreetmap.org","min_zoom":8.0,"bus_shield_text":"7","shield_text":"\u0395\u039f90","landuse_kind":"urban_area","ref":"\u0395\u039f90"},"arcs":[214]},{"type":"MultiLineString","properties":{"kind":"major_road","network":"GR:national","sort_rank":380,"kind_detail":"primary","bus_network":"\u0391\u03c3\u03c4\u03b9\u03ba\u03cc \u039a\u03a4\u0395\u039b \u0397\u03c1\u03b1\u03ba\u03bb\u03b5\u03af\u03bf\u03c5","name:de":"Heraklion - Agios Nikolaos","source":"openstreetmap.org","min_zoom":8.0,"bus_shield_text":"7","shield_text":"\u0395\u039f90","ref":"\u0395\u039f90"},"arcs":[[215],[216]]},{"type":"MultiLineString","properties":{"kind":"major_road","int_name":"Chania - Rethymno","network":"GR:national","sort_rank":380,"kind_detail":"primary","name:de":"Chania - Rethymno","source":"openstreetmap.org","min_zoom":8.0,"shield_text":"\u0395\u039f90","ref":"\u0395\u039f90"},"arcs":[[217],[218],[219],[220],[221]]},{"type":"MultiLineString","properties":{"kind":"major_road","sort_rank":380,"kind_detail":"primary","bus_network":"\u0391\u03c3\u03c4\u03b9\u03ba\u03cc \u039a\u03a4\u0395\u039b \u0397\u03c1\u03b1\u03ba\u03bb\u03b5\u03af\u03bf\u03c5","source":"openstreetmap.org","min_zoom":8.0,"bus_shield_text":"5","landuse_kind":"urban_area"},"arcs":[[222],[223]]},{"type":"MultiLineString","properties":{"kind":"highway","name:en":"Northern Cretan Highway","network":"e-road","short_name":"\u0392\u039f\u0391\u039a","sort_rank":383,"landuse_kind":"urban_area","source":"openstreetmap.org","min_zoom":8.0,"all_networks":["e-road",null],"kind_detail":"motorway","shield_text":"75","ref":"\u039190","all_shield_texts":["75","90"]},"arcs":[[224],[225],[226],[227],[228]]},{"type":"LineString","properties":{"kind":"major_road","int_name":"Faistos - Tympaki","network":"GR:national","sort_rank":380,"kind_detail":"primary","source":"openstreetmap.org","min_zoom":8.0,"landuse_kind":"urban_area","shield_text":"\u0395\u039f97","ref":"\u0395\u039f97","id":241131712},"arcs":[229]},{"type":"LineString","properties":{"kind":"major_road","int_name":"Panagiotaki","network":"GR:national","sort_rank":380,"kind_detail":"primary","bus_network":"\u0391\u03c3\u03c4\u03b9\u03ba\u03cc \u039a\u03a4\u0395\u039b \u0397\u03c1\u03b1\u03ba\u03bb\u03b5\u03af\u03bf\u03c5","name:de":"Panagiotaki","source":"openstreetmap.org","min_zoom":8.0,"bus_shield_text":"KE","shield_text":"\u0395\u039f97","landuse_kind":"urban_area","ref":"\u0395\u039f97"},"arcs":[230]},{"type":"LineString","properties":{"bus_network":null,"int_name":"Sofokli Venizelou","network":"GR:national","sort_rank":380,"kind_detail":"primary","kind":"major_road","name:de":"Sofokli Venizelou","source":"openstreetmap.org","min_zoom":8.0,"bus_shield_text":"KE","shield_text":"\u0395\u039f97","landuse_kind":"urban_area","ref":"\u0395\u039f97"},"arcs":[231]},{"type":"LineString","properties":{"kind":"major_road","int_name":"Eleftheriou Venizelou","network":"GR:national","sort_rank":380,"kind_detail":"primary","bus_network":"\u0391\u03c3\u03c4\u03b9\u03ba\u03cc \u039a\u03a4\u0395\u039b \u0397\u03c1\u03b1\u03ba\u03bb\u03b5\u03af\u03bf\u03c5","source":"openstreetmap.org","min_zoom":8.0,"bus_shield_text":"10","shield_text":"\u0395\u039f90","ref":"\u0395\u039f90"},"arcs":[232]},{"type":"LineString","properties":{"bus_network":"KTEL","name:en":"Antisminarchou Vasilaki","network":"GR:national","sort_rank":380,"kind_detail":"primary","kind":"major_road","source":"openstreetmap.org","min_zoom":8.0,"bus_shield_text":"20","shield_text":"\u0395\u039f90","ref":"\u0395\u039f90","id":236954924},"arcs":[233]},{"type":"LineString","properties":{"bus_network":"KTEL","name:en":"Northern Cretan Highway","name:nl":"Geropotamosbrug","network":"e-road","short_name":"\u0392\u039f\u0391\u039a","sort_rank":381,"kind_detail":"trunk","kind":"major_road","source":"openstreetmap.org","min_zoom":8.0,"bus_shield_text":"20","shield_text":"75","ref":"\u039190","id":82660889},"arcs":[234]},{"type":"LineString","properties":{"kind":"major_road","int_name":"Igoumenou Gavriil","network":"GR:national","sort_rank":380,"kind_detail":"primary","name:de":"Igoumenou Gavriil","source":"openstreetmap.org","min_zoom":8.0,"shield_text":"\u0395\u039f90","ref":"\u0395\u039f90","id":26764519},"arcs":[235]},{"type":"LineString","properties":{"kind":"major_road","network":"GR:national","sort_rank":380,"kind_detail":"primary","bus_network":null,"source":"openstreetmap.org","min_zoom":8.0,"bus_shield_text":"6","shield_text":"\u0395\u039f90","landuse_kind":"urban_area","ref":"\u0395\u039f90","id":424637882},"arcs":[236]},{"type":"LineString","properties":{"sort_rank":355,"source":"openstreetmap.org","min_zoom":8.0,"name":"Piraeus - Heraklion","kind":"ferry"},"arcs":[237]},{"type":"MultiLineString","properties":{"kind":"major_road","int_name":"Steliou Kazantzidi","network":"GR:national","sort_rank":380,"kind_detail":"primary","name:de":"Steliou Kazantzidi","source":"openstreetmap.org","min_zoom":8.0,"landuse_kind":"urban_area","shield_text":"\u0395\u039f90","ref":"\u0395\u039f90"},"arcs":[[238],[239],[240],[241],[242]]},{"type":"LineString","properties":{"kind":"major_road","name:en":"Chania - Rethymno Old Highway","network":"GR:national","sort_rank":380,"kind_detail":"primary","name:de":"Chania - Rethymno","source":"openstreetmap.org","min_zoom":8.0,"shield_text":"\u0395\u039f90","ref":"\u0395\u039f90","id":295612403},"arcs":[243]},{"type":"LineString","properties":{"kind":"ferry","name":"\u0397\u03c1\u03ac\u03ba\u03bb\u03b5\u03b9\u03bf-\u03a3\u03b1\u03bd\u03c4\u03bf\u03c1\u03af\u03bd\u03b7","sort_rank":355,"landuse_kind":"urban_area","name:de":"Heraklion-Santorin","source":"openstreetmap.org","min_zoom":8.0,"id":-6123237,"osm_relation":true},"arcs":[244]},{"type":"LineString","properties":{"kind":"major_road","int_name":"Irakleio - Faistos","network":"GR:national","sort_rank":380,"kind_detail":"primary","bus_network":"\u0391\u03c3\u03c4\u03b9\u03ba\u03cc \u039a\u03a4\u0395\u039b \u0397\u03c1\u03b1\u03ba\u03bb\u03b5\u03af\u03bf\u03c5","name:fr":"H\u00e9raklion - Phaistos","source":"openstreetmap.org","min_zoom":8.0,"bus_shield_text":"19","shield_text":"\u0395\u039f97","ref":"\u0395\u039f97"},"arcs":[245]},{"type":"LineString","properties":{"bus_network":"KTEL","int_name":"Dimitrakaki","network":"GR:national","sort_rank":380,"kind_detail":"primary","kind":"major_road","name:de":"Dimitrakaki","source":"openstreetmap.org","min_zoom":8.0,"bus_shield_text":"20","shield_text":"\u0395\u039f90","ref":"\u0395\u039f90","id":26764428},"arcs":[246]},{"type":"LineString","properties":{"kind":"major_road","name:en":"Palea EO Chanion Rethimnou","network":"GR:national","sort_rank":380,"kind_detail":"primary","name:de":"Chania - Rethymnon","source":"openstreetmap.org","min_zoom":8.0,"int_name":"Chania - Rethymno","shield_text":"\u0395\u039f90","ref":"\u0395\u039f90","id":384542235},"arcs":[247]},{"type":"LineString","properties":{"kind":"major_road","int_name":"Sofokli Venizelou","network":"GR:national","sort_rank":380,"kind_detail":"primary","bus_network":"\u0391\u03c3\u03c4\u03b9\u03ba\u03cc \u039a\u03a4\u0395\u039b \u0397\u03c1\u03b1\u03ba\u03bb\u03b5\u03af\u03bf\u03c5","name:de":"Sophokli Venizelou","source":"openstreetmap.org","min_zoom":8.0,"bus_shield_text":"KE","shield_text":"\u0395\u039f90","landuse_kind":"urban_area","ref":"\u0395\u039f90","id":26711458},"arcs":[248]},{"type":"MultiLineString","properties":{"kind":"major_road","int_name":"Ikarou","network":"GR:national","sort_rank":380,"kind_detail":"primary","bus_network":"\u0391\u03c3\u03c4\u03b9\u03ba\u03cc \u039a\u03a4\u0395\u039b \u0397\u03c1\u03b1\u03ba\u03bb\u03b5\u03af\u03bf\u03c5","name:de":"Ikarou","source":"openstreetmap.org","min_zoom":8.0,"bus_shield_text":"5","shield_text":"\u0395\u039f90","landuse_kind":"urban_area","ref":"\u0395\u039f90"},"arcs":[[249],[250],[251]]},{"type":"LineString","properties":{"kind":"major_road","int_name":"Kountourioti","network":"GR:national","sort_rank":380,"kind_detail":"primary","source":"openstreetmap.org","min_zoom":8.0,"shield_text":"\u0395\u039f90","ref":"\u0395\u039f90","id":444979657},"arcs":[252]},{"type":"MultiLineString","properties":{"bus_network":"KTEL","network":"GR:national","sort_rank":380,"kind_detail":"primary","kind":"major_road","name:de":"Antisminarchou Vasilaki","source":"openstreetmap.org","min_zoom":8.0,"bus_shield_text":"20","shield_text":"\u0395\u039f90","ref":"\u0395\u039f90"},"arcs":[[253],[254]]},{"type":"LineString","properties":{"kind":"major_road","network":"GR:national","sort_rank":380,"kind_detail":"primary","name:de":"Heraklion - Agios Nikolaos","source":"openstreetmap.org","min_zoom":8.0,"shield_text":"\u0395\u039f90","ref":"\u0395\u039f90"},"arcs":[255]},{"type":"LineString","properties":{"bus_network":null,"name:en":"Nearhou","network":"GR:national","sort_rank":380,"kind_detail":"primary","kind":"major_road","name:de":"Nearchou","source":"openstreetmap.org","min_zoom":8.0,"bus_shield_text":"KE","shield_text":"\u0395\u039f90","landuse_kind":"urban_area","ref":"\u0395\u039f90","id":26695617},"arcs":[256]},{"type":"MultiLineString","properties":{"kind":"major_road","int_name":"Karterou","network":"GR:national","sort_rank":380,"kind_detail":"primary","bus_network":"\u0391\u03c3\u03c4\u03b9\u03ba\u03cc \u039a\u03a4\u0395\u039b \u0397\u03c1\u03b1\u03ba\u03bb\u03b5\u03af\u03bf\u03c5","name:de":"Karterou","source":"openstreetmap.org","min_zoom":8.0,"bus_shield_text":"7","shield_text":"\u0395\u039f90","landuse_kind":"urban_area","ref":"\u0395\u039f90"},"arcs":[[257],[258]]},{"type":"LineString","properties":{"kind":"major_road","name:en":"Stamathioudaki","network":"GR:national","sort_rank":380,"kind_detail":"primary","name:de":"Stamathioudaki","source":"openstreetmap.org","min_zoom":8.0,"int_name":"Stamathioudaki","shield_text":"\u0395\u039f90","ref":"\u0395\u039f90","id":371754147},"arcs":[259]},{"type":"MultiLineString","properties":{"kind":"highway","name:en":"Northern Cretan Highway","network":"e-road","short_name":"\u0392\u039f\u0391\u039a","sort_rank":383,"landuse_kind":"nature_reserve","source":"openstreetmap.org","min_zoom":8.0,"all_networks":["e-road",null],"kind_detail":"motorway","shield_text":"75","ref":"\u039190","all_shield_texts":["75","90"]},"arcs":[[260],[261]]},{"type":"LineString","properties":{"kind":"major_road","int_name":"Sofokli Venizelou","network":"GR:national","sort_rank":380,"kind_detail":"primary","bus_network":null,"source":"openstreetmap.org","min_zoom":8.0,"bus_shield_text":"KE","shield_text":"\u0395\u039f97","landuse_kind":"urban_area","ref":"\u0395\u039f97","id":387325533},"arcs":[262]},{"type":"MultiLineString","properties":{"bus_network":"KTEL","int_name":"Machis Kritis","network":"GR:national","sort_rank":380,"kind_detail":"primary","kind":"major_road","name:de":"Machis Kritis","source":"openstreetmap.org","min_zoom":8.0,"bus_shield_text":"20","shield_text":"\u0395\u039f90","ref":"\u0395\u039f90"},"arcs":[[263],[264],[265]]},{"type":"LineString","properties":{"name:el":"\u039d\u03ad\u03b1\u03c1\u03c7\u03bf\u03c5","bus_network":null,"name:en":"Nearhou","network":"GR:national","sort_rank":380,"kind_detail":"primary","kind":"major_road","name:de":"Nearchou","source":"openstreetmap.org","min_zoom":8.0,"bus_shield_text":"KE","shield_text":"\u0395\u039f90","landuse_kind":"urban_area","ref":"\u0395\u039f90"},"arcs":[266]},{"type":"LineString","properties":{"kind":"major_road","int_name":"Exintadyo Martyron","network":"GR:national","sort_rank":380,"kind_detail":"primary","bus_network":null,"name:de":"62 Martyron","source":"openstreetmap.org","min_zoom":8.0,"bus_shield_text":"6","shield_text":"\u0395\u039f90","landuse_kind":"urban_area","ref":"\u0395\u039f90","id":426510221},"arcs":[267]},{"type":"MultiLineString","properties":{"bus_network":"KTEL","int_name":"Rethymno - Irakleio","network":"GR:national","sort_rank":380,"kind_detail":"primary","kind":"major_road","source":"openstreetmap.org","min_zoom":8.0,"bus_shield_text":"20","shield_text":"\u0395\u039f90","ref":"\u0395\u039f90"},"arcs":[[268],[269]]},{"type":"MultiLineString","properties":{"kind":"major_road","name:en":"Nearhou","network":"GR:national","sort_rank":380,"kind_detail":"primary","name:de":"Nearchou","source":"openstreetmap.org","min_zoom":8.0,"landuse_kind":"urban_area","shield_text":"\u0395\u039f90","ref":"\u0395\u039f90"},"arcs":[[270],[271]]},{"type":"LineString","properties":{"bus_network":"\u0391\u03c3\u03c4\u03b9\u03ba\u03cc \u039a\u03a4\u0395\u039b \u0397\u03c1\u03b1\u03ba\u03bb\u03b5\u03af\u03bf\u03c5","network":"GR:national","sort_rank":380,"kind_detail":"primary","kind":"major_road","source":"openstreetmap.org","min_zoom":8.0,"bus_shield_text":"8","shield_text":"\u0395\u039f97","ref":"\u0395\u039f97"},"arcs":[272]},{"type":"LineString","properties":{"kind":"ferry","name:en":"Chora Sfakion - Loutro - Agia Roumeli","name":"\u03a7\u03ce\u03c1\u03b1 \u03a3\u03c6\u03b1\u03ba\u03af\u03c9\u03bd - \u039b\u03bf\u03c5\u03c4\u03c1\u03cc - \u0391\u03b3\u03af\u03b1 \u03a1\u03bf\u03c5\u03bc\u03ad\u03bb\u03b7","sort_rank":355,"is_bicycle_related":true,"source":"openstreetmap.org","min_zoom":8.0,"id":-446043,"osm_relation":true},"arcs":[273]},{"type":"LineString","properties":{"kind":"major_road","int_name":"Eleftheriou Venizelou","network":"GR:national","sort_rank":380,"kind_detail":"primary","source":"openstreetmap.org","min_zoom":8.0,"landuse_kind":"urban_area","shield_text":"\u0395\u039f90","ref":"\u0395\u039f90"},"arcs":[274]}]},"earth":{"type":"GeometryCollection","geometries":[{"type":"MultiPolygon","properties":{"sort_rank":10,"source":"naturalearthdata.com","min_zoom":0.0,"kind":"earth","area":9734309018},"arcs":[[[275]],[[276]]]},{"type":"Point","properties":{"label_placement":true,"int_name":"Crete","name:sk":"Kr\u00e9ta","name:tr":"Girit","name:ar":"\u0643\u0631\u064a\u062a","name:cs":"Kr\u00e9ta","min_zoom":7.0,"alt_name:cs":"Candia","name:it":"Creta","name:ru":"\u041a\u0440\u0438\u0442","name:pl":"Kreta","name:hu":"Kr\u00e9ta","name:sr":"\u041a\u0440\u0438\u0442","osm_relation":true,"kind":"island","name:en":"Crete","name":"\u039a\u03c1\u03ae\u03c4\u03b7","area":12402700288,"id":-453129,"source":"openstreetmap.org","name:fr":"Cr\u00e8te","name:de":"Kreta","name:nl":"Kreta","name:es":"Creta"},"coordinates":[1628,3559]}]},"landuse":{"type":"GeometryCollection","geometries":[{"type":"MultiPolygon","properties":{"source":"openstreetmap.org","kind":"nature_reserve","tier":2,"area":262181252,"sort_rank":23,"min_zoom":8.0},"arcs":[[[277]],[[278]],[[279]],[[280]],[[281]],[[282]],[[283]],[[284]]]},{"type":"MultiPolygon","properties":{"source":"naturalearthdata.com","kind":"urban_area","name":"","area":223712051,"sort_rank":11,"min_zoom":4.0},"arcs":[[[285]],[[286]],[[287]]]},{"type":"Polygon","properties":{"kind":"nature_reserve","area":114850000,"sort_rank":23,"source":"openstreetmap.org","min_zoom":7.0,"tier":2,"id":-6522690,"osm_relation":true},"arcs":[[288]]},{"type":"Polygon","properties":{"kind":"park","area":368616000,"sort_rank":24,"source":"openstreetmap.org","min_zoom":6.0,"tier":2,"id":-6522689,"osm_relation":true},"arcs":[[289]]},{"type":"MultiPolygon","properties":{"source":"openstreetmap.org","kind":"nature_reserve","tier":2,"area":248645023,"sort_rank":23,"min_zoom":8.0,"osm_relation":true},"arcs":[[[290]],[[291]],[[292]],[[293]],[[294]],[[295]]]}]}},"type":"Topology","transform":{"translate":[23.90625,34.3071438563],"scale":[0.0003433228,0.0002816226]},"arcs":[[[0,2891],[99,-4],[209,-95],[460,-11],[110,-42],[195,-19],[185,25],[334,-117],[-10,-221],[97,-187],[161,-94],[208,-11],[100,-190],[182,-100],[222,-11],[197,45],[330,-33],[281,47],[144,-12],[158,56],[174,2],[260,83]],[[0,2891],[99,-4],[105,-63],[128,-36],[436,-7],[110,-42],[195,-19],[185,25],[334,-117],[-10,-221],[97,-187],[161,-94],[208,-11],[100,-190],[182,-100],[222,-11],[197,45],[330,-33],[281,47],[144,-12],[158,56],[174,2],[260,83]],[[4096,4096],[0,-422],[-16,5],[-161,-27],[-88,0],[-27,8],[-20,16],[-14,16],[-10,9],[-45,2],[-83,-19],[-135,-8],[-87,7],[-63,39],[-24,89],[5,22],[10,19],[7,19],[-4,24],[-17,5],[-52,-8],[-32,42],[-138,34],[-5,-31],[-7,-12],[-11,-8],[-17,-22],[-181,73],[-82,-29],[-49,-24],[-28,-20],[-60,32],[-289,50],[-65,-1],[-63,-12],[-61,-21],[-182,-94],[-78,-25],[-237,-42],[-62,-35],[-105,26],[-256,-76],[-108,39],[-28,16],[-59,4],[-23,18],[-6,30],[6,127],[-4,67],[-20,98],[2779,0],[-9,-10],[-3,-6],[-22,-3],[-15,-7],[-24,-20],[-6,-12],[8,-11],[53,-14],[11,-14],[9,1],[11,12],[34,-19],[18,-2],[9,-13],[6,3],[3,33],[19,43],[-46,33],[-8,6],[247,0]],[[917,4096],[-49,-22],[-51,-9],[-48,15],[-24,16],[172,0]],[[0,3282],[237,7],[46,-24],[82,-103],[53,-23],[78,15],[12,-3],[12,36],[27,0],[50,-24],[209,0],[13,5],[13,11],[16,10],[19,1],[3,-7],[10,-17],[15,-17],[12,-10],[220,-32],[317,32],[0,-22],[5,-35],[176,-89],[50,21],[57,-13],[53,-28],[39,-28],[61,-78],[33,-30],[27,11],[18,0],[42,-27],[71,-15],[258,-4],[31,-8],[19,-17],[15,-16],[15,-8],[23,-19],[21,-43],[17,-48],[9,-35],[3,-51],[-18,-68],[-5,-43],[9,-135],[-10,-41],[-39,-30],[0,-23],[714,26],[57,-7],[46,-19],[76,33],[43,10],[51,4],[23,-5],[17,-10],[19,-9],[30,0],[19,8],[24,28],[18,12],[64,15],[166,-15],[45,9],[165,66],[43,30],[27,13],[25,3],[0,-2409],[-4096,0],[0,3282]],[[589,1809],[78,-6],[0,24],[-28,19],[-12,32],[2,37],[18,31],[0,27],[-68,19],[-35,5],[-36,-2],[-18,-20],[-22,-17],[-26,-11],[-34,-1],[0,-22],[116,-80],[65,-35]],[[4096,3674],[-16,5],[-161,-27],[-88,0],[-27,8],[-20,16],[-14,16],[-10,9],[-45,2],[-83,-19],[-135,-8],[-87,7],[-63,39],[-24,89],[5,22],[10,19],[7,19],[-4,24],[-17,5],[-52,-8],[-32,42],[-138,34],[-5,-31],[-7,-12],[-11,-8],[-17,-22],[-181,73],[-82,-29],[-49,-24],[-28,-20],[-60,32],[-289,50],[-65,-1],[-63,-12],[-61,-21],[-182,-94],[-78,-25],[-237,-42],[-62,-35],[-105,26],[-256,-76],[-108,39],[-28,16],[-59,4],[-23,18],[-6,30],[6,127],[-4,67],[-20,98]],[[917,4096],[-49,-22],[-51,-9],[-48,15],[-24,16]],[[0,3282],[237,7],[46,-24],[82,-103],[53,-23],[78,15],[12,-3],[12,36],[27,0],[50,-24],[209,0],[13,5],[13,11],[16,10],[19,1],[3,-7],[10,-17],[15,-17],[12,-10],[220,-32],[317,32],[0,-22],[5,-35],[176,-89],[50,21],[57,-13],[53,-28],[39,-28],[61,-78],[33,-30],[27,11],[18,0],[42,-27],[71,-15],[258,-4],[31,-8],[19,-17],[15,-16],[15,-8],[23,-19],[21,-43],[17,-48],[9,-35],[3,-51],[-18,-68],[-5,-43],[9,-135],[-10,-41],[-39,-30],[0,-23],[714,26],[57,-7],[46,-19],[76,33],[43,10],[51,4],[23,-5],[17,-10],[19,-9],[30,0],[19,8],[24,28],[18,12],[64,15],[166,-15],[45,9],[165,66],[43,30],[27,13],[25,3]],[[647,1946],[0,27],[-68,19],[-35,5],[-36,-2],[-18,-20],[-22,-17],[-26,-11],[-34,-1],[0,-22],[116,-80],[65,-35],[78,-6],[0,24],[-28,19],[-12,32],[2,37],[18,31]],[[3359,3603],[1,-1]],[[3360,3602],[0,1]],[[3360,3602],[8,-1]],[[3370,3607],[2,-1]],[[3372,3606],[-1,1]],[[3375,3602],[-3,4]],[[4044,3618],[-5,-3]],[[4044,3618],[5,3]],[[4050,3622],[-6,-4]],[[3669,3641],[-1,1]],[[3496,3622],[0,-3]],[[3497,3633],[-1,-4]],[[3756,3625],[-50,6]],[[3668,3642],[0,2]],[[0,3250],[55,-15],[103,37],[82,-266],[406,-1014],[-1,-65],[-26,-6]],[[3757,3625],[-1,0]],[[3786,3631],[-1,-1]],[[1053,3727],[1,1]],[[1706,3758],[1,2]],[[3800,3638],[-1,-1]],[[3907,3637],[1,0]],[[3999,3616]],[[3569,3675],[8,3]],[[2016,3829],[21,-22]],[[2042,3802],[29,-30],[48,23],[144,-11]],[[3468,3643],[1,0]],[[781,4059],[-109,-105],[2,-42],[219,-139],[270,-76],[48,-65],[93,-20],[17,-29],[149,2],[31,68]],[[1707,3760],[-1,-2]],[[1890,3793],[23,7]],[[3034,2678],[-18,2]],[[3415,3454],[-30,-101],[-88,-131],[-88,-257],[-90,-148],[33,-2],[-24,-57],[28,-44],[-60,-41],[-62,5]],[[3456,3537],[12,22]],[[3468,3559],[4,7],[4,26]],[[3479,3607],[-3,-16],[-5,-25],[-3,-7]],[[3468,3559],[-9,-18]],[[3476,3592],[7,19]],[[3345,3603],[6,1]],[[3693,3652],[-1,0]],[[3693,3652]],[[3496,3619],[1,11]],[[3550,3657],[-3,-2]],[[1653,3758],[13,-3]],[[3497,3630],[0,2]],[[3497,3634],[0,-1]],[[1800,3765],[63,19]],[[3490,3637],[-20,6]],[[3610,3677],[10,14]],[[1960,3809],[56,20]],[[2263,3784],[493,-111],[54,5],[40,40],[76,-19],[56,17],[67,-30],[34,23],[123,-30]],[[3233,3631],[3,-4]],[[3278,3581],[5,-3]],[[3286,3578],[13,3]],[[3318,3590],[27,13]],[[3546,3673],[-48,-34]],[[3497,3632],[0,3]],[[3496,3619],[0,-1]],[[3508,3633],[0,1]],[[3550,3657],[0,2]],[[1666,3755],[1,-1]],[[0,3149],[71,-42],[574,-1138],[-5,-49],[-21,1]],[[444,3157],[-2,1]],[[2789,2630],[-81,-6],[-74,42]],[[3016,2680],[-168,-45]],[[3361,3604],[8,3]],[[3429,3633],[30,9]],[[3298,3763],[0,-5]],[[1654,3763],[0,-1]],[[3490,3636],[18,-3]],[[3508,3634],[28,19]],[[3644,3639]],[[1707,3760],[44,0]],[[1673,3755],[4,0]],[[3546,3673],[2,0]],[[3553,3673],[11,-1]],[[3564,3672],[5,3]],[[1686,3754],[-31,9]],[[3546,3673]],[[3564,3673],[0,-1]],[[3578,3678]],[[3587,3674],[-1,1]],[[506,3163],[17,-8],[-33,-17],[-46,19]],[[3550,3659]],[[3634,3544]],[[3688,3636],[5,16]],[[3693,3652],[-5,-16]],[[3688,3636],[5,-8]],[[3689,3654]],[[3689,3654]],[[3550,3659],[0,-1]],[[1963,3809],[86,39]],[[2129,3903],[26,23]],[[2159,3931],[20,12]],[[2187,3944],[116,-10]],[[158,3272],[-103,-37],[-55,15]],[[0,3149],[71,-42],[574,-1138],[-4,-42]],[[641,1927],[0,-2]],[[641,1925],[-1,-5],[-1,0]],[[639,1920],[-20,1]],[[158,3272],[82,-266],[406,-1014],[-1,-58]],[[645,1934],[0,-7],[-3,0]],[[642,1927],[-1,0]],[[641,1927],[-22,-6]],[[619,1921],[17,-7],[3,6]],[[639,1920],[2,5]],[[641,1925],[1,2]],[[642,1927],[3,7]],[[645,1934],[10,21],[-14,1156],[28,58],[-19,-22],[-144,16],[17,-9],[-34,-20],[-132,11],[-199,127]],[[1419,3134],[-6,-62],[66,7],[21,-40],[82,-44],[73,7],[135,-47],[112,-140],[378,-15]],[[2051,3854]],[[2139,3926],[-41,-34]],[[2098,3892],[41,34]],[[2051,3854],[47,38]],[[2098,3892],[-47,-38]],[[3468,3643],[-4,0]],[[781,4059],[-61,34]],[[3206,3679],[27,-48]],[[3236,3627],[42,-46]],[[3283,3578],[3,0]],[[3299,3581],[19,9]],[[3620,3691],[41,58],[48,347]],[[3508,3634],[-18,3]],[[3536,3653],[-28,-19]],[[3610,3677],[10,14]],[[3599,3671],[-12,3]],[[3359,3604],[-8,0]],[[1686,3754],[20,4]],[[3550,3658],[0,-1]],[[1781,3758],[-44,-6],[-47,-18],[-14,-8],[-13,-3],[-112,34],[112,-35],[13,3],[61,27],[44,6]],[[3332,3663],[-5,10],[-14,21],[19,-31]],[[3339,3639],[61,-52],[96,28],[3,0],[1,-1]],[[3500,3614],[2,0]],[[3504,3613],[-4,1]],[[3500,3614],[-1,1],[-3,0],[-96,-27],[-61,51]],[[3704,3622],[22,-20],[34,9],[47,29],[125,-23],[91,-7]],[[4018,3611],[-24,3],[-62,4],[-27,12],[-91,14],[-54,-33],[-56,11]],[[3491,3609],[5,9]],[[3546,3673]],[[3564,3672]],[[3577,3678],[1,-1]],[[3586,3674],[1,0]],[[3464,3643],[4,0]],[[3546,3673]],[[3546,3673],[3,-13]],[[3549,3660],[1,-1]],[[3550,3659],[-1,1]],[[3568,3676],[1,-1]],[[3578,3678],[-1,0]],[[3578,3677],[0,1]],[[3668,3642]],[[3470,3643],[-2,0]],[[3550,3657]],[[3599,3670],[1,0]],[[3908,3637],[91,-21]],[[3999,3616],[49,6]],[[4048,3622],[1,-1]],[[4049,3622],[-1,0]],[[4049,3621],[4,1]],[[4053,3622],[-3,0]],[[4053,3622],[43,7]],[[3536,3653],[14,4]],[[3668,3642]],[[2634,2666],[-92,42]],[[2848,2635],[-59,-5]],[[3476,3592]],[[3483,3611],[8,-2]],[[2049,3848],[80,55]],[[3610,3677],[9,14]],[[1667,3754],[6,1]],[[3620,3691],[41,58],[48,347]],[[3034,2678]],[[1551,3757],[-297,-53],[-338,50],[-69,66],[-134,70],[-13,37],[69,45],[2,57],[-28,57],[-14,10]],[[1788,3759],[-7,-1]],[[1781,3758],[7,1]],[[1788,3759],[175,50]],[[2179,3943],[8,1]],[[2303,3934],[102,-30],[111,12],[41,-31],[71,29],[116,-15],[79,-21],[19,-37],[56,16],[47,-40],[12,37],[58,-12],[47,47],[59,-11],[34,26],[129,-55],[14,-86]],[[3298,3758],[15,-64]],[[4025,3610],[-7,1]],[[4023,3610],[2,0]],[[4025,3610],[71,-19]],[[2807,2638],[30,-1]],[[2037,3807],[5,-5]],[[3408,4096],[239,-358]],[[3647,3738],[-28,-47]],[[3496,3618],[0,1]],[[3491,3609],[-12,-2]],[[3586,3675],[-8,3]],[[3600,3671],[-1,0]],[[3469,3643],[21,-7]],[[3664,3659],[23,-2]],[[3687,3657],[2,-3]],[[3689,3654],[-2,3]],[[3689,3654],[4,-2]],[[3692,3652],[-3,2]],[[3508,3634],[0,-1]],[[3508,3634]],[[3546,3673]],[[3564,3672]],[[3564,3672],[0,1]],[[3586,3675],[0,-1]],[[3587,3674]],[[3351,3604],[10,0]],[[3564,3672],[-18,1]],[[3568,3676],[-4,-3]],[[3706,3631],[-18,6]],[[3785,3630],[-28,-5]],[[3799,3637],[-13,-6]],[[1566,3746],[-65,-93]],[[1566,3746],[3,1]],[[1569,3747],[-1,0],[-2,-1]],[[1569,3747],[16,7]],[[1585,3754],[8,0]],[[3689,3654]],[[3689,3654]],[[3502,3614],[3,-1],[23,-13],[7,-4]],[[3535,3596],[13,-8],[16,-1],[45,13],[35,39]],[[3704,3622],[-55,19],[-6,-2],[-9,-8],[-26,-31],[-44,-13],[-15,2],[-14,7]],[[3535,3596],[-31,17]],[[3644,3639],[60,-17]],[[2542,2708],[-30,8]],[[3497,3634],[1,5]],[[3499,3643],[47,30]],[[3359,3604],[70,29]],[[1680,3755],[3,-1]],[[2155,3926],[4,5]],[[1634,3760],[20,3]],[[3508,3634]],[[3620,3691],[29,44],[-241,361]],[[3632,3678],[1,-3]],[[3633,3675],[-1,3]],[[3633,3675],[0,-9]],[[3633,3666],[0,-1]],[[3633,3665],[0,1]],[[1593,3754],[6,-1]],[[3610,3677],[10,14]],[[3459,3541],[-44,-87]],[[1654,3762],[-1,-4]],[[720,4093],[-1,3]],[[3578,3678],[-10,-2]],[[3633,3665],[2,1]],[[3635,3666],[-2,-1]],[[3635,3666],[29,-7]],[[1655,3763],[-1,0]],[[1677,3755],[3,0]],[[1683,3754],[3,0]],[[3907,3637],[-107,1]],[[3578,3677],[8,-3]],[[3664,3659],[4,-17]],[[3668,3642],[20,-5]],[[1599,3753],[35,7]],[[3332,3663],[7,-24]],[[3339,3639],[-3,14],[-4,10]],[[3498,3639],[1,4]],[[1751,3760],[21,0]],[[1779,3760],[-7,0]],[[1779,3760],[21,5]],[[3587,3674],[12,-4]],[[3547,3655],[-11,-2]],[[1863,3784],[27,9]],[[1913,3800],[47,9]],[[3600,3670],[27,5],[5,3]],[[3632,3678],[-32,-7]],[[3496,3618],[1,-8]],[[669,3169],[-58,-23],[-100,20],[12,-12],[-34,-20],[-132,11],[-199,127]],[[3459,3642],[5,1]],[[667,1827],[0,-24],[-78,6],[-65,35],[-116,80],[0,22],[34,1],[26,11],[22,17],[18,20],[36,2],[35,-5],[68,-19],[0,-27],[-18,-31],[-2,-37],[12,-32],[28,-19]],[[4096,3674],[0,-1265],[-25,-3],[-27,-13],[-43,-30],[-165,-66],[-45,-9],[-166,15],[-64,-15],[-18,-12],[-24,-28],[-19,-8],[-30,0],[-19,9],[-17,10],[-23,5],[-51,-4],[-43,-10],[-76,-33],[-46,19],[-57,7],[-714,-26],[0,23],[39,30],[10,41],[-9,135],[5,43],[18,68],[-3,51],[-9,35],[-17,48],[-21,43],[-23,19],[-15,8],[-15,16],[-19,17],[-31,8],[-258,4],[-71,15],[-42,27],[-18,0],[-27,-11],[-33,30],[-61,78],[-39,28],[-53,28],[-57,13],[-50,-21],[-176,89],[-5,35],[0,22],[-317,-32],[-220,32],[-12,10],[-15,17],[-10,17],[-3,7],[-19,-1],[-16,-10],[-13,-11],[-13,-5],[-209,0],[-50,24],[-27,0],[-12,-36],[-12,3],[-78,-15],[-53,23],[-82,103],[-46,24],[-237,-7],[0,814],[745,0],[24,-16],[48,-15],[51,9],[49,22],[105,0],[20,-98],[4,-67],[-6,-127],[6,-30],[23,-18],[59,-4],[28,-16],[108,-39],[256,76],[105,-26],[62,35],[237,42],[78,25],[182,94],[61,21],[63,12],[65,1],[289,-50],[60,-32],[28,20],[49,24],[82,29],[181,-73],[17,22],[11,8],[7,12],[5,31],[138,-34],[32,-42],[52,8],[17,-5],[4,-24],[-7,-19],[-10,-19],[-5,-22],[24,-89],[63,-39],[87,-7],[135,8],[83,19],[45,-2],[10,-9],[14,-16],[20,-16],[27,-8],[88,0],[161,27],[16,-5]],[[3354,2255],[24,81],[101,40],[5,-22],[19,26],[39,-41],[21,27],[129,-47],[-162,-44],[-67,-55],[-17,25],[-92,10]],[[2768,2402],[28,35],[-17,41],[28,22],[83,8],[51,-41],[-2,-74],[-66,-5],[-24,-34],[-81,48]],[[985,3571],[65,114],[22,1],[42,-123],[-66,-65],[-33,9],[-30,64]],[[1671,3568],[10,51],[26,-31],[127,-24],[15,28],[-35,123],[44,-23],[43,-89],[-117,-101],[-106,-4],[-7,70]],[[467,4006],[32,70],[89,-43],[-48,-74],[-50,5],[-23,42]],[[2216,3365],[58,35],[76,-43],[16,-37],[99,-1],[88,-79],[-62,-155],[-36,17],[-123,182],[-22,-9],[-16,51],[-78,39]],[[894,3268],[41,60],[65,-2],[20,-30],[63,26],[77,-16],[-34,-123],[-232,33],[0,52]],[[3577,3238],[18,112],[11,17],[25,-26],[44,137],[6,-42],[-79,-223],[-25,25]],[[2424,2855],[32,-79],[129,39],[-1,-67],[-96,-91],[-51,77],[-160,101],[-16,59],[163,-39]],[[3719,3703],[-33,-178],[-91,19],[-130,98],[-103,2],[37,46],[98,-14],[222,27]],[[2090,3803],[-55,-1],[24,77],[92,32],[46,-30],[-107,-78]],[[0,3545],[22,51],[35,-14],[14,35],[57,11],[-50,-23],[-69,-89],[109,-92],[-10,-121],[24,-38],[-82,-20],[-50,27],[0,273]],[[0,3603],[47,1],[42,47],[82,6],[60,-28],[186,53],[53,-77],[76,-3],[84,-52],[15,-38],[0,-30],[-63,-67],[-107,-43],[15,-72],[-71,-72],[25,-72],[-22,-8],[-92,21],[-86,105],[-103,1],[-91,-30],[-50,27],[0,331]],[[2402,2204],[57,48],[-8,24],[34,20],[22,-35],[52,103],[42,6],[-14,-117],[23,-55],[-82,-14],[-11,28],[-43,-32],[-71,4],[-1,20]],[[1432,3228],[6,37],[109,15],[101,-92],[-28,-58],[-91,64],[-91,7],[-6,27]],[[2640,3247],[47,94],[166,14],[15,-28],[-43,-50],[11,-25],[-49,-23],[-135,-24],[-12,42]],[[2824,2970],[37,16],[-18,29],[49,3],[-23,22],[10,35],[-47,2],[69,96],[42,-16],[55,-73],[21,-51],[-23,-73],[59,-18],[-139,-27],[-92,55]],[[3094,3625],[12,46],[31,16],[211,-26],[-32,-75],[-32,-9],[-49,31],[1,23],[-68,-6],[-18,-30],[-56,30]],[[2103,3825],[58,64],[33,-13],[9,-98],[-87,17],[-13,30]]]}