{"objects":{"water":{"type":"GeometryCollection","geometries":[{"type":"Polygon","properties":{"source":"naturalearthdata.com","kind":"ocean","area":1576712559132672,"sort_rank":200,"min_zoom":0.0,"id":1},"arcs":[[89]]},{"type":"LineString","properties":{"source":"naturalearthdata.com","kind":"ocean","sort_rank":205,"boundary":true,"min_zoom":0.0,"id":49},"arcs":[90]}]},"buildings":{"type":"GeometryCollection","geometries":[]},"places":{"type":"GeometryCollection","geometries":[{"type":"Point","properties":{"name:pt":"Let\u00f4nia","name:cy":"Latfia","name:mt":"Latvja","name:ko":"\ub77c\ud2b8\ube44\uc544","name:kn":"\u0cb2\u0cbe\u0c9f\u0ccd\u0cb5\u0cbf\u0caf\u0cbe","name:km":"\u17a1\u17b6\u178f\u179c\u17b8\u1799\u17c9\u17b6","name:kl":"Letlandi","name:cs":"Loty\u0161sko","alt_name:eo":"Latvio","name:ki":"Lativia","name:ku":"Letonya","name:ti":"\u120b\u1275\u126a\u12eb","name:ks":"\u0644\u06cc\u065b\u0679\u0648\u0650\u06cc\u0627","name:to":"Lativia","name:sv":"Lettland","name:or":"\u0b32\u0b3e\u0b1f\u0b2d\u0b3f\u0b06","name:pl":"\u0141otwa","name:ta":"\u0bb2\u0bbe\u0b9f\u0bcd\u0bb5\u0bbf\u0baf\u0bbe","name:tg":"\u041b\u0430\u0442\u0432\u0438\u044f","name:ca":"Let\u00f2nia","name:te":"\u0c32\u0c3e\u0c1f\u0c4d\u0c35\u0c3f\u0c2f","name:hu":"Lettorsz\u00e1g","name:ka":"\u10da\u10d0\u10e2\u10d5\u10d8\u10d0","name:da":"Letland","name:de":"Lettland","name:dz":"\u0f63\u0f4a\u0f0b\u0f56\u0f72\u0f0b\u0f61","source":"openstreetmap.org","name:ro":"Letonia","name:tr":"Letonya","name:uz":"Latviya","name:kk":"\u041b\u0430\u0442\u0432\u0438\u044f","name:he":"\u05dc\u05d8\u05d1\u05d9\u05d4","kind":"country","name:ur":"\u0644\u0679\u0648\u06cc\u0627","name:lb":"Lettland","name:la":"Latvia","name:lg":"Lativya","name:uk":"\u041b\u0430\u0442\u0432\u0456\u044f","name:hy":"\u053c\u0561\u057f\u057e\u056b\u0561","min_zoom":2.0,"name:li":"Letland","name:ln":"Letoni","name:lo":"\u0ea5\u0ebc\u0eb2\u0e94\u0ec0\u0ea7\u0e8d","population":2027000,"name:el":"\u039b\u03b5\u03c4\u03c4\u03bf\u03bd\u03af\u03b1","name:eo":"Latvujo","name:en":"Latvia","name":"Latvija","official_name":"Latvijas Republika","name:ee":"Latvia nutome","name:th":"\u0e1b\u0e23\u0e30\u0e40\u0e17\u0e28\u0e25\u0e31\u0e15\u0e40\u0e27\u0e35\u0e22","name:gu":"\u0ab2\u0abe\u0aa4\u0acd\u0ab5\u0abf\u0aaf\u0abe","name:eu":"Letonia","name:et":"L\u00e4ti","name:nl":"Letland","name:es":"Letonia","name:ia":"Lettonia","name:rm":"Lettonia","name:rn":"Lativa","name:az":"Latviya","name:id":"Latvia","name:ms":"Latvia","name:mr":"\u0932\u093e\u091f\u094d\u200c\u0935\u093f\u092f\u093e","name:ar":"\u0644\u0627\u062a\u0641\u064a\u0627","name:my":"\u101c\u1010\u103a\u1017\u102e\u1038\u101a\u102c\u1038","name:io":"Latvia","int_name":"Latvia","name:is":"Lettland","name:am":"\u120b\u1275\u126a\u12eb","name:it":"Lettonia","name:vi":"Latvia","name:ru":"\u041b\u0430\u0442\u0432\u0438\u044f","name:mn":"\u041b\u0430\u0442\u0432\u0438","id":432425019,"name:mk":"\u041b\u0430\u0442\u0432\u0438\u0458\u0430","name:af":"Letland","name:zu":"i-Latvia","name:ha":"latibiya","name:nn":"Latvia","name:ff":"Letonii","name:fi":"Latvia","name:hi":"\u0932\u093e\u0924\u094d\u0935\u093f\u092f\u093e","name:mg":"Letonia","name:fo":"Lettland","name:fr":"Lettonie","name:fy":"Letl\u00e2n","name:vo":"Latviy\u00e4n","name:zh":"\u62c9\u8131\u7ef4\u4e9a","name:gv":"Yn Latvey","name:so":"Latfiya","name:sn":"Latvia","name:sk":"Loty\u0161sko","name:ja":"\u30e9\u30c8\u30d3\u30a2","name:si":"\u0dbd\u0dd0\u0da7\u0dca\u0dc0\u0dd2\u0dba\u0dcf\u0dc0","name:fa":"\u0644\u062a\u0648\u0646\u06cc","name:sg":"Leton\u00f9ii","name:se":"L\u00e1tvia","name:ne":"\u0932\u093e\u091f\u094d\u092d\u093f\u092f\u093e","name:br":"Latvia","name:bs":"Letonija","name:bm":"Letoni","name:bn":"\u09b2\u09be\u09a4\u09cd\u09ad\u09bf\u09af\u09bc\u09be","name:bo":"\u0f63\u0f4f\u0f0b\u0f56\u0f72\u0f0b\u0f61\u0f0d","name:ml":"\u0d32\u0d3e\u0d24\u0d4d\u0d35\u0d3f\u0d2f","name:no":"Latvia","name:sw":"Lativia","name:be":"\u041b\u0430\u0442\u0432\u0456\u044f","name:bg":"\u041b\u0430\u0442\u0432\u0438\u044f","name:sr":"\u041b\u0435\u0442\u043e\u043d\u0438\u0458\u0430","name:sq":"Letoni","name:ga":"An Laitvia","name:gd":"An Laitbhe","name:gl":"Letonia","name:yo":"Or\u00edl\u1eb9\u0301\u00e8de Latifia","name:ak":"Latvia"},"coordinates":[2469,1501]},{"type":"Point","properties":{"name:pt":"Semigola","name:ja":"\u30bc\u30e0\u30ac\u30ec","name:lt":"\u017diemgala","min_zoom":4.0,"name:it":"Semgallia","name:uk":"\u0417\u0435\u043c\u0433\u0430\u043b\u0435","name:ru":"\u0417\u0435\u043c\u0433\u0430\u043b\u0435","name:sv":"Semgallen","name:pl":"Semigalia","id":1629678548,"kind":"region","name":"Zemgale","kind_detail":"state","name:de":"Semgallen","source":"openstreetmap.org","name:fr":"S\u00e9migalie","name:be":"\u0417\u044d\u043c\u0433\u0430\u043b\u044d","name:es":"Semigalia"},"coordinates":[2886,256]},{"type":"Point","properties":{"name:pt":"Riga","name:ka":"\u10e0\u10d8\u10d2\u10d0","name:ko":"\ub9ac\uac00","name:cv":"\u0420\u0438\u0433\u0430","name:cu":"\u0420\u0438\u0433\u0430","name:kl":"Riga","name:kk":"\u0420\u0438\u0433\u0430","name:tt":"\u0420\u0438\u0433\u0430","name:kv":"\u0420\u0438\u0433\u0430","name:ku":"R\u00eega","name:ro":"Riga","name:tl":"Riga","name:sv":"Riga","name:os":"\u0420\u0438\u0433\u00e6","name:pl":"Ryga","name:ta":"\u0bb0\u0bc0\u0b95\u0bbe","name:tg":"\u0420\u0438\u0433\u0430","name:ca":"Riga","name:vi":"Riga","name:st":"Riga","name:cy":"Riga","name:ln":"Riga","name:da":"Riga","name:de":"Riga","source":"openstreetmap.org","name:yo":"Riga","admin_level":"2","name:lt":"Ryga","name:uz":"Riga","name:cs":"Riga","name:he":"\u05e8\u05d9\u05d2\u05d4","min_zoom":8.0,"kind":"locality","name:ur":"\u0631\u06cc\u06af\u0627","name:la":"Riga","name:uk":"\u0420\u0438\u0433\u0430","name:hy":"\u054c\u056b\u0563\u0561","country_capital":true,"name:ug":"\u0631\u0649\u06af\u0627","name:hu":"Riga","name:hr":"Riga","name:oc":"Riga","population":698529,"name:el":"\u03a1\u03af\u03b3\u03b1","name:eo":"Rigo","name:en":"Riga","name":"R\u012bga","name:ee":"Riga","name:th":"\u0e23\u0e35\u0e01\u0e32","name:eu":"Riga","name:et":"Riia","name:nl":"Riga","name:es":"Riga","name:mt":"Riga","name:az":"Riqa","name:ie":"Riga","name:id":"Riga","name:ms":"Riga","name:mr":"\u0930\u093f\u0917\u093e","name:nv":"Wiiga","name:ar":"\u0631\u064a\u063a\u0627","name:my":"\u101b\u102e\u1002\u102b\u1019\u103c\u102d\u102f\u1037","name:io":"Riga","int_name":"Riga","name:is":"R\u00edga","name:am":"\u122a\u130b","name:it":"Riga","name:an":"Riga","name:ru":"\u0420\u0438\u0433\u0430","name:mi":"Riga","id":26707967,"name:mk":"\u0420\u0438\u0433\u0430","name:af":"Riga","name:zu":"IRiga","kind_detail":"city","name:hi":"\u0930\u0940\u0917\u093e","name:mg":"Riga","name:fo":"Riga","name:fr":"Riga","name:ky":"\u0420\u0438\u0433\u0430","name:fy":"Riga","name:zh":"\u91cc\u52a0","name:pa":"\u0a30\u0a40\u0a17\u0a3e","name:sl":"Riga","name:sk":"Riga","name:ja":"\u30ea\u30ac","name:nn":"Riga","name:fa":"\u0631\u06cc\u06af\u0627","name:qu":"Riga","name:na":"Riga","name:se":"Riga","name:br":"Riga","name:bs":"Riga","name:yi":"\u05e8\u05d9\u05d2\u05e2","name:bn":"\u09b0\u09bf\u0997\u09be","name:bo":"\u0f62\u0f72\u0f0b\u0f42","name:no":"Riga","name:sw":"Riga","name:be":"\u0420\u044b\u0433\u0430","name:bg":"\u0420\u0438\u0433\u0430","name:wo":"Riga","name:sr":"\u0420\u0438\u0433\u0430","name:sq":"Riga","name:ga":"R\u00edge","name:gd":"Riga","name:ht":"Riga","name:jv":"Riga","name:gl":"Riga","name:tr":"Riga","name:fi":"Riika"},"coordinates":[579,2082]},{"type":"Point","properties":{"kind":"locality","name":"Ogre","name:lt":"Uogr\u0117","kind_detail":"town","name:de":"Ogershof","source":"openstreetmap.org","min_zoom":8.0,"name:uk":"\u041e\u0433\u0440\u0435","name:ru":"\u041e\u0433\u0440\u0435","id":29532673,"population":26579},"coordinates":[2042,1387]},{"type":"Point","properties":{"source":"openstreetmap.org","kind":"locality","name":"\u0136ekava","kind_detail":"town","population":20945,"min_zoom":8.0,"id":27221363},"coordinates":[954,1424]},{"type":"Point","properties":{"kind":"locality","name":"Salaspils","name:lt":"Salaspilis","kind_detail":"town","name:de":"Kirchholm","source":"openstreetmap.org","min_zoom":8.0,"name:uk":"\u0421\u0430\u043b\u0430\u0441\u043f\u0456\u043b\u0441","name:ru":"\u0421\u0430\u043b\u0430\u0441\u043f\u0438\u043b\u0441","id":29488307,"population":18039},"coordinates":[1306,1623]},{"type":"Point","properties":{"kind":"locality","old_name:ru":"\u0412\u0435\u043d\u0434\u0435\u043d,\u041a\u0435\u0441\u044c","name":"C\u0113sis","name:lt":"C\u0117sys","kind_detail":"town","name:he":"\u05e6\u05e1\u05d9\u05e1","name:de":"Wenden","source":"openstreetmap.org","min_zoom":8.0,"name:uk":"\u0426\u0435\u0441\u0456\u0441","name:et":"V\u00f5nnu","name:ru":"\u0426\u0435\u0441\u0438\u0441","name:pl":"Kie\u015b","id":29512403,"population":17673},"coordinates":[3945,4016]},{"type":"Point","properties":{"kind":"locality","name":"Olaine","name:lt":"Uolain\u0117","kind_detail":"town","name:de":"Olai","source":"openstreetmap.org","min_zoom":8.0,"name:ru":"\u041e\u043b\u0430\u0439\u043d\u0435","id":431037548,"population":11910},"coordinates":[78,1234]},{"type":"Point","properties":{"kind":"locality","name":"Sigulda","name:ka":"\u10e1\u10d8\u10d2\u10e3\u10da\u10d3\u10d0","name:ko":"\uc2dc\uad74\ub2e4","kind_detail":"town","name:he":"\u05e1\u05d9\u05d2\u05d5\u05dc\u05d3\u05d4","name:de":"Segewold","source":"openstreetmap.org","min_zoom":8.0,"name:uk":"\u0421\u0456\u0433\u0443\u043b\u0434\u0430","name:ru":"\u0421\u0438\u0433\u0443\u043b\u0434\u0430","population":11368,"name:zh":"\u932b\u53e4\u723e\u9054","id":29457480,"name:ja":"\u30b9\u30a3\u30b0\u30eb\u30c0"},"coordinates":[2768,3175]},{"type":"Point","properties":{"kind":"locality","name":"Aizkraukle","name:lt":"Aizkraukl\u0117","kind_detail":"town","name:he":"\u05d0\u05d9\u05d9\u05d6\u05e7\u05e8\u05d0\u05d5\u05e7\u05dc\u05d4","name:de":"Ascheraden","source":"openstreetmap.org","min_zoom":8.0,"name:uk":"\u0410\u0439\u0437\u043a\u0440\u0430\u0443\u043a\u043b\u0435","name:ru":"\u0410\u0439\u0437\u043a\u0440\u0430\u0443\u043a\u043b\u0435","id":250832635,"population":8403},"coordinates":[3926,222]},{"type":"Point","properties":{"kind":"locality","name":"Lielv\u0101rde","name:lt":"Lielvard\u0117","kind_detail":"town","name:de":"Lennewarden","source":"openstreetmap.org","min_zoom":8.0,"name:uk":"\u041b\u0456\u0454\u043b\u0432\u0430\u0440\u0434\u0435","name:ru":"\u041b\u0438\u0435\u043b\u0432\u0430\u0440\u0434\u0435","id":29532672,"population":6666},"coordinates":[2591,891]},{"type":"Point","properties":{"kind":"locality","name":"Balo\u017ei","name:lt":"Baluo\u017eiai","kind_detail":"town","name:de":"Rollbusch","source":"openstreetmap.org","min_zoom":8.0,"name:uk":"\u0411\u0430\u043b\u043e\u0436\u0456","name:ru":"\u0411\u0430\u043b\u043e\u0436\u0438","id":28448871,"population":5867},"coordinates":[617,1688]},{"type":"Point","properties":{"kind":"locality","name":"Ik\u0161\u0137ile","name:lt":"Ik\u0161kil\u0117","kind_detail":"town","name:de":"Uexk\u00fcll","source":"openstreetmap.org","min_zoom":8.0,"name:uk":"\u0406\u043a\u0448\u043a\u0456\u043b\u0435","name:fi":"Ykskyl\u00e4","name:ru":"\u0418\u043a\u0448\u043a\u0438\u043b\u0435","id":29532674,"population":4022},"coordinates":[1722,1485]},{"type":"Point","properties":{"kind":"locality","name":"Vanga\u017ei","name:lt":"Vanga\u017eiai","kind_detail":"town","name:de":"Wangasch","source":"openstreetmap.org","min_zoom":8.0,"name:ru":"\u0412\u0430\u043d\u0433\u0430\u0436\u0438","id":1536214278,"population":3958},"coordinates":[1859,2845]},{"type":"Point","properties":{"kind":"locality","name":"Saulkrasti","name:lt":"Saulkrastai","kind_detail":"town","name:de":"Neubad","source":"openstreetmap.org","min_zoom":8.0,"name:uk":"\u0421\u0430\u0443\u043b\u043a\u0440\u0430\u0441\u0442\u0438","name:ru":"\u0421\u0430\u0443\u043b\u043a\u0440\u0430\u0441\u0442\u044b","id":26745085,"population":3298},"coordinates":[1483,3759]},{"type":"Point","properties":{"kind":"locality","name":"\u0136egums","name:lt":"Kegumas","kind_detail":"town","name:de":"Keggum","source":"openstreetmap.org","min_zoom":8.0,"name:ru":"\u041a\u0435\u0433\u0443\u043c\u0441","id":29532675,"population":2433},"coordinates":[2385,1002]},{"type":"Point","properties":{"kind":"locality","name":"Baldone","name:lt":"Balduon\u0117","kind_detail":"town","name:de":"Baldohn","source":"openstreetmap.org","min_zoom":8.0,"name:uk":"\u0411\u0430\u043b\u0434\u043e\u043d\u0435","name:ru":"\u0411\u0430\u043b\u0434\u043e\u043d\u0435","id":41214309,"population":2368},"coordinates":[1421,966]},{"type":"Point","properties":{"kind":"locality","name":"Jaunjelgava","kind_detail":"town","name:de":"Friedrichstadt","source":"openstreetmap.org","min_zoom":8.0,"name:uk":"\u042f\u0443\u043d\u0454\u043b\u0433\u0430\u0432\u0430","name:ru":"\u042f\u0443\u043d\u0435\u043b\u0433\u0430\u0432\u0430","name:pl":"Je\u0142gawa","id":60616322,"population":2221},"coordinates":[3418,302]},{"type":"Point","properties":{"kind":"locality","name":"L\u012bgatne","name:lt":"Lygatn\u0117","kind_detail":"town","name:de":"Ligat","source":"openstreetmap.org","min_zoom":8.0,"name:uk":"\u041b\u0456\u0433\u0430\u0442\u043d\u0435","name:ru":"\u041b\u0438\u0433\u0430\u0442\u043d\u0435","id":29457482,"population":1212},"coordinates":[3323,3620]}]},"transit":{"type":"GeometryCollection","geometries":[{"type":"MultiLineString","properties":{"kind":"train","name":"R\u012bga - Liep\u0101ja","sort_rank":275,"name:de":"Riga - Libau","source":"openstreetmap.org","min_zoom":6.0,"operator":"AS \u201ePasa\u017eieru vilciens\u201c","ref":"R\u012bga - Liep\u0101ja","osm_relation":true},"arcs":[[2],[3],[4],[5],[6],[7]]},{"type":"MultiLineString","properties":{"kind":"train","name":"R\u012bga - Aizkraukle","sort_rank":275,"name:de":"Riga - Ascheraden","source":"openstreetmap.org","min_zoom":6.0,"operator":"AS \u201ePasa\u017eieru vilciens\u201c","ref":"R\u012bga-Aizkraukle Elektrovilciens","osm_relation":true},"arcs":[[8],[9],[10],[11],[12],[13],[14],[15]]},{"type":"MultiLineString","properties":{"kind":"train","name":"R\u012bga - Tukums","sort_rank":275,"name:de":"Riga - Tuckum","source":"openstreetmap.org","min_zoom":6.0,"operator":"AS \u201ePasa\u017eieru vilciens\u201c","ref":"R\u012bga-Tukums Elektrovilciens","osm_relation":true},"arcs":[[16],[17],[18]]},{"type":"MultiLineString","properties":{"kind":"train","network":"Latvijas Dzelzce\u013c\u0161","sort_rank":275,"source":"openstreetmap.org","min_zoom":6.0,"operator":"AS \u201ePasa\u017eieru vilciens\u201c","osm_relation":true,"name":"R\u012bga - Sigulda"},"arcs":[[19],[20],[21],[22],[23],[24],[25],[26],[27],[28],[29],[30],[31],[32],[33]]},{"type":"MultiLineString","properties":{"kind":"train","name":"R\u012bga-Skulte","sort_rank":275,"name:de":"Riga-Adiam\u00fcnde","source":"openstreetmap.org","min_zoom":6.0,"operator":"AS \u201ePasa\u017eieru vilciens\u201c","ref":"R\u012bga-Skulte Elektrovilciens","osm_relation":true},"arcs":[[34],[35],[36],[37],[38],[39],[40],[41],[42],[43],[44],[45],[46],[47],[48],[49],[50],[51],[52],[53]]},{"type":"MultiLineString","properties":{"kind":"train","name":"R\u012bga - Jelgava","sort_rank":275,"name:de":"Riga - Mitau","source":"openstreetmap.org","min_zoom":6.0,"operator":"AS \u201ePasa\u017eieru vilciens\u201c","ref":"R\u012bga-Jelgava Elektrovilciens","osm_relation":true},"arcs":[[54],[55],[56],[57],[58],[59]]},{"type":"MultiLineString","properties":{"kind":"train","name":"R\u012bga - Minsk","sort_rank":275,"name:de":"Riga - Minsk","source":"openstreetmap.org","min_zoom":6.0,"name:be":"\u0420\u044b\u0433\u0430 \u2014 \u041c\u0456\u043d\u0441\u043a","name:ru":"\u0420\u0438\u0433\u0430 \u2014 \u041c\u0438\u043d\u0441\u043a","ref":"R\u012bga - Minsk","osm_relation":true},"arcs":[[60],[61],[62],[63]]},{"type":"MultiLineString","properties":{"kind":"train","name":"R\u012bga - Valga","sort_rank":275,"name:de":"Riga - Walk","source":"openstreetmap.org","min_zoom":6.0,"operator":"AS \u201ePasa\u017eieru vilciens\u201c","name:ru":"\u0420\u0438\u0433\u0430 - \u0412\u0430\u043b\u0433\u0430","ref":"R\u012bga - Valga","osm_relation":true},"arcs":[[64],[65],[66],[67],[68],[69],[70],[71],[72],[73],[74],[75],[76],[77],[78],[79],[80]]},{"type":"MultiLineString","properties":{"kind":"train","name":"R\u012bga - Sanktp\u0113terburga","sort_rank":275,"name:de":"Riga - Sankt Petersburg","source":"openstreetmap.org","min_zoom":6.0,"ref":"R\u012bga - Sanktp\u0113terburga","osm_relation":true},"arcs":[[81],[82],[83],[84]]},{"type":"MultiLineString","properties":{"kind":"train","name:en":"Riga - Moscow","name":"R\u012bga - Maskava","sort_rank":275,"name:de":"Riga - Moskau","source":"openstreetmap.org","min_zoom":6.0,"name:ru":"\u0420\u0438\u0433\u0430 - \u041c\u043e\u0441\u043a\u0432\u0430","ref":"R\u012bga - Maskava","osm_relation":true},"arcs":[[85],[86],[87],[88]]}]},"pois":{"type":"GeometryCollection","geometries":[{"type":"Point","properties":{"kind":"national_park","protect_class":"2","area":34415900,"source":"openstreetmap.org","min_zoom":8.24,"tier":1,"id":-1906731,"osm_relation":true,"name":"DAUGAVAS IELEJA"},"coordinates":[3671,266]},{"type":"Point","properties":{"kind":"military","name":"\u0100da\u017eu poligons","area":265123000,"source":"openstreetmap.org","min_zoom":8.0,"tier":3,"id":-309689,"osm_relation":true},"coordinates":[1538,3131]},{"type":"Point","properties":{"kind":"protected_area","protect_class":"4","area":50669100,"source":"openstreetmap.org","min_zoom":8.0,"tier":2,"id":132054105,"name":"AIZKRAUKLES PURVI UN MEZI"},"coordinates":[3897,641]},{"type":"Point","properties":{"kind":"protected_area","protect_class":"4","area":19127300,"source":"openstreetmap.org","min_zoom":8.0,"tier":2,"id":132054174,"name":"DAUGAVA PIE KAIBALAS"},"coordinates":[2843,569]},{"type":"Point","properties":{"kind":"protected_area","protect_class":"4","area":34846300,"source":"openstreetmap.org","min_zoom":8.0,"tier":2,"id":132054179,"name":"DOLESSALA"},"coordinates":[974,1584]},{"type":"Point","properties":{"kind":"protected_area","protect_class":"4","area":40719800,"source":"openstreetmap.org","min_zoom":8.0,"tier":2,"id":132054196,"name":"Dzelves - Kro\u0146a purvs"},"coordinates":[1764,3467]},{"type":"Point","properties":{"kind":"protected_area","protect_class":"4","area":55566500,"source":"openstreetmap.org","min_zoom":8.0,"tier":2,"id":132054240,"name":"Garkalnes me\u017ei"},"coordinates":[1614,2649]},{"type":"Point","properties":{"kind":"protected_area","protect_class":"4","area":11723000,"source":"openstreetmap.org","min_zoom":8.0,"tier":2,"id":132054450,"name":"Mazie Kangari"},"coordinates":[2493,2538]},{"type":"Point","properties":{"kind":"protected_area","protect_class":"4","area":11387700,"source":"openstreetmap.org","min_zoom":8.0,"tier":2,"id":132054468,"name":"Meln\u0101 ezera purvs"},"coordinates":[197,1509]},{"type":"Point","properties":{"kind":"protected_area","protect_class":"4","area":10298800,"source":"openstreetmap.org","min_zoom":8.0,"tier":2,"id":132054592,"name":"Ogres zilie kalni"},"coordinates":[1913,1468]},{"type":"Point","properties":{"kind":"protected_area","protect_class":"4","area":19265300,"source":"openstreetmap.org","min_zoom":8.0,"tier":2,"id":132054684,"name":"Piej\u016bra"},"coordinates":[147,2422]},{"type":"Point","properties":{"kind":"protected_area","protect_class":"4","area":40283900,"source":"openstreetmap.org","min_zoom":8.0,"tier":2,"id":132055108,"name":"VERENES PURVI"},"coordinates":[3898,1061]},{"type":"Point","properties":{"kind":"protected_area","protect_class":"4","area":198584000,"source":"openstreetmap.org","min_zoom":7.0,"tier":2,"id":132055147,"name":"\u0100da\u017ei"},"coordinates":[1538,3131]},{"type":"Point","properties":{"kind":"museum","name:en":"Latvian Ethnographic Open-Air Museum","name":"Latvijas Etnogr\u0101fiskais br\u012bvdabas muzejs","area":3220310,"source":"openstreetmap.org","min_zoom":7.88,"name:ru":"\u041b\u0430\u0442\u0432\u0438\u0439\u0441\u043a\u0438\u0439 \u044d\u0442\u043d\u043e\u0433\u0440\u0430\u0444\u0438\u0447\u0435\u0441\u043a\u0438\u0439 \u043c\u0443\u0437\u0435\u0439 \u043f\u043e\u0434 \u043e\u0442\u043a\u0440\u044b\u0442\u044b\u043c \u043d\u0435\u0431\u043e\u043c","id":132471912},"coordinates":[1089,2302]}]},"boundaries":{"type":"GeometryCollection","geometries":[{"type":"LineString","properties":{"name:right:es":"Semigalia","name:right:ja":"\u30bc\u30e0\u30ac\u30ec","name:right:pt":"Semigola","name:right:uk":"\u0417\u0435\u043c\u0433\u0430\u043b\u0435","name:right:it":"Semgallia","id:right":-1775647,"name:right:lt":"\u017diemgala","min_zoom":8.0,"name:left:lt":"Vid\u017eem\u0117","id:left":-1775823,"name:left:be":"\u0412\u0456\u0434\u0437\u044d\u043c\u044d","name:right:sv":"Semgallen","name:right:pl":"Semigalia","id":-1775823,"osm_relation":true,"name:right":"Zemgale","kind":"region","name":"Vidzeme - Zemgale","sort_rank":256,"kind_detail":"4","name:right:ru":"\u0417\u0435\u043c\u0433\u0430\u043b\u0435","name:left:de":"Livland","alt_name:right:ru":"\u0417\u0435\u043c\u0433\u0430\u043b\u0438\u044f","name:right:be":"\u0417\u044d\u043c\u0433\u0430\u043b\u044d","source":"openstreetmap.org","name:right:de":"Semgallen","name:left:ru":"\u0412\u0438\u0434\u0437\u0435\u043c\u0435","name:left":"Vidzeme"},"arcs":[0]},{"type":"LineString","properties":{"kind":"region","name":"Vidzeme","name:lt":"Vid\u017eem\u0117","sort_rank":256,"kind_detail":"4","min_zoom":8.0,"name:de":"Livland","source":"openstreetmap.org","maritime_boundary":true,"name:be":"\u0412\u0456\u0434\u0437\u044d\u043c\u044d","name:ru":"\u0412\u0438\u0434\u0437\u0435\u043c\u0435","id":-1775823,"osm_relation":true},"arcs":[1]}]},"roads":{"type":"GeometryCollection","geometries":[{"type":"MultiLineString","properties":{"bus_network":null,"network":"lv:national","sort_rank":381,"kind_detail":"trunk","kind":"major_road","source":"openstreetmap.org","min_zoom":8.0,"bus_shield_text":"A4","shield_text":"5","ref":"A5"},"arcs":[[91],[92]]},{"type":"LineString","properties":{"bus_network":null,"network":"lv:national","sort_rank":381,"kind_detail":"trunk","kind":"major_road","source":"openstreetmap.org","min_zoom":8.0,"bus_shield_text":"5530","shield_text":"4","ref":"A4"},"arcs":[93]},{"type":"LineString","properties":{"kind":"major_road","network":"lv:regional","sort_rank":379,"kind_detail":"secondary","is_bicycle_related":true,"bicycle_shield_text":"R1","bicycle_network":"icn","source":"openstreetmap.org","min_zoom":8.0,"landuse_kind":"park","shield_text":"83","ref":"V83"},"arcs":[94]},{"type":"LineString","properties":{"kind":"major_road","network":"lv:national","sort_rank":380,"kind_detail":"primary","source":"openstreetmap.org","min_zoom":8.0,"landuse_kind":"park","shield_text":"1","ref":"P1","id":240881245},"arcs":[95]},{"type":"MultiLineString","properties":{"bus_network":null,"network":"lv:national","sort_rank":381,"landuse_kind":"urban_area","kind":"major_road","source":"openstreetmap.org","min_zoom":8.0,"bus_shield_text":"5777","shield_text":"6","kind_detail":"trunk","ref":"A6"},"arcs":[[96],[97],[98]]},{"type":"LineString","properties":{"kind":"major_road","network":"lv:national","sort_rank":380,"kind_detail":"primary","source":"openstreetmap.org","min_zoom":8.0,"shield_text":"94","osm_relation":true},"arcs":[99]},{"type":"MultiLineString","properties":{"bus_network":null,"network":"lv:national","sort_rank":381,"kind_detail":"trunk","kind":"major_road","source":"openstreetmap.org","min_zoom":8.0,"bus_shield_text":"7514","shield_text":"1","ref":"A1"},"arcs":[[100],[101],[102],[103],[104],[105],[106],[107]]},{"type":"LineString","properties":{"kind":"major_road","network":"lv:national","sort_rank":380,"kind_detail":"primary","is_bicycle_related":true,"bicycle_shield_text":"LV3","bicycle_network":"ncn","source":"openstreetmap.org","min_zoom":8.0,"shield_text":"7","ref":"A7","id":129577329},"arcs":[108]},{"type":"LineString","properties":{"bus_network":null,"network":"lv:national","sort_rank":381,"kind_detail":"trunk","is_bicycle_related":true,"kind":"major_road","bicycle_shield_text":"R1","bicycle_network":"icn","source":"openstreetmap.org","min_zoom":8.0,"bus_shield_text":"7514","shield_text":"1","ref":"A1"},"arcs":[109]},{"type":"LineString","properties":{"bus_network":null,"network":"lv:national","sort_rank":381,"kind_detail":"trunk","kind":"major_road","source":"openstreetmap.org","min_zoom":8.0,"bus_shield_text":"A16","shield_text":"4","ref":"A4"},"arcs":[110]},{"type":"LineString","properties":{"bus_network":null,"network":"lv:regional","sort_rank":379,"kind_detail":"secondary","is_bicycle_related":true,"kind":"major_road","bicycle_shield_text":"LV2","bicycle_network":"ncn","source":"openstreetmap.org","min_zoom":8.0,"bus_shield_text":"6829","shield_text":"68","ref":"V68"},"arcs":[111]},{"type":"LineString","properties":{"kind":"minor_road","sort_rank":358,"kind_detail":"service","is_bicycle_related":true,"bicycle_shield_text":null,"bicycle_network":"icn","source":"openstreetmap.org","min_zoom":8.0,"landuse_kind":"urban_area","id":4685569},"arcs":[112]},{"type":"LineString","properties":{"bus_network":null,"sort_rank":380,"kind_detail":"primary","kind":"major_road","source":"openstreetmap.org","min_zoom":8.0,"bus_shield_text":"T27","name:ru":"\u043d\u0430\u0431\u0435\u0440\u0435\u0436\u043d\u0430\u044f 11 \u041d\u043e\u044f\u0431\u0440\u044f","landuse_kind":"urban_area"},"arcs":[113]},{"type":"LineString","properties":{"kind":"major_road","sort_rank":380,"kind_detail":"primary","bus_network":null,"source":"openstreetmap.org","min_zoom":8.0,"bus_shield_text":"A51","name:ru":"\u0443\u043b\u0438\u0446\u0430 \u0410\u0432\u0433\u0443\u0441\u0442\u0430 \u0414\u0435\u0433\u043b\u0430\u0432\u0430","landuse_kind":"urban_area","id":43945945},"arcs":[114]},{"type":"MultiLineString","properties":{"bus_network":null,"network":"lv:national","sort_rank":380,"kind_detail":"primary","kind":"major_road","source":"openstreetmap.org","min_zoom":8.0,"bus_shield_text":"A10","shield_text":"132","landuse_kind":"urban_area","ref":"P132"},"arcs":[[115],[116],[117],[118]]},{"type":"LineString","properties":{"bus_network":null,"sort_rank":380,"kind_detail":"primary","kind":"major_road","source":"openstreetmap.org","min_zoom":8.0,"bus_shield_text":"A23","name:ru":"\u043d\u0430\u0431\u0435\u0440\u0435\u0436\u043d\u0430\u044f 11 \u041d\u043e\u044f\u0431\u0440\u044f","landuse_kind":"urban_area"},"arcs":[119]},{"type":"MultiLineString","properties":{"bus_network":null,"network":"lv:national","sort_rank":380,"landuse_kind":"urban_area","kind":"major_road","source":"openstreetmap.org","min_zoom":8.0,"bus_shield_text":"A52","shield_text":"4","kind_detail":"primary","ref":"P4"},"arcs":[[120],[121],[122]]},{"type":"LineString","properties":{"kind":"minor_road","sort_rank":360,"kind_detail":"living_street","is_bicycle_related":true,"bicycle_shield_text":"R1","bicycle_network":"icn","source":"openstreetmap.org","min_zoom":8.0,"id":19887773},"arcs":[123]},{"type":"MultiLineString","properties":{"bus_network":null,"network":"lv:national","sort_rank":381,"landuse_kind":"urban_area","kind":"major_road","source":"openstreetmap.org","min_zoom":8.0,"bus_shield_text":"A43","shield_text":"5","kind_detail":"trunk","ref":"A5"},"arcs":[[124],[125]]},{"type":"LineString","properties":{"kind":"major_road","network":"lv:national","sort_rank":380,"kind_detail":"primary","source":"openstreetmap.org","min_zoom":8.0,"shield_text":"88","id":-175187,"osm_relation":true},"arcs":[126]},{"type":"LineString","properties":{"kind":"major_road","network":"lv:national","sort_rank":380,"kind_detail":"primary","source":"openstreetmap.org","min_zoom":8.0,"shield_text":"89","ref":"P89;V9","id":45182108},"arcs":[127]},{"type":"MultiLineString","properties":{"kind":"major_road","network":"lv:regional","sort_rank":379,"kind_detail":"secondary","is_bicycle_related":true,"bicycle_shield_text":"R1","bicycle_network":"icn","source":"openstreetmap.org","min_zoom":8.0,"shield_text":"50","ref":"V50"},"arcs":[[128],[129]]},{"type":"MultiLineString","properties":{"kind":"major_road","network":"lv:national","sort_rank":381,"kind_detail":"trunk","is_bicycle_related":true,"bicycle_shield_text":"LV2","bicycle_network":"ncn","source":"openstreetmap.org","min_zoom":8.0,"shield_text":"3","ref":"A3"},"arcs":[[130],[131]]},{"type":"LineString","properties":{"kind":"minor_road","service":"drive_through","sort_rank":356,"kind_detail":"service","is_bicycle_related":true,"bicycle_shield_text":"R1","bicycle_network":"icn","source":"openstreetmap.org","min_zoom":8.0,"id":299869630},"arcs":[132]},{"type":"LineString","properties":{"kind":"major_road","network":"lv:national","sort_rank":381,"kind_detail":"trunk","bus_network":null,"source":"openstreetmap.org","min_zoom":8.0,"bus_shield_text":"7197","shield_text":"6","ref":"A6;P8","id":330528685},"arcs":[133]},{"type":"MultiLineString","properties":{"kind":"major_road","network":"lv:national","sort_rank":380,"kind_detail":"primary","source":"openstreetmap.org","min_zoom":8.0,"shield_text":"89","ref":"P89"},"arcs":[[134],[135]]},{"type":"MultiLineString","properties":{"kind":"path","sort_rank":354,"landuse_kind":"urban_area","is_bicycle_related":true,"bicycle_shield_text":"R1","bicycle_network":"icn","source":"openstreetmap.org","min_zoom":8.0,"kind_detail":"footway"},"arcs":[[136],[137],[138]]},{"type":"LineString","properties":{"kind":"major_road","network":"lv:regional","sort_rank":379,"kind_detail":"secondary","is_bicycle_related":true,"bicycle_shield_text":"R1","bicycle_network":"icn","source":"openstreetmap.org","min_zoom":8.0,"landuse_kind":"park","shield_text":"291","ref":"V291"},"arcs":[139]},{"type":"LineString","properties":{"kind":"path","sort_rank":354,"kind_detail":"pedestrian","is_bicycle_related":true,"bicycle_shield_text":null,"bicycle_network":"icn","source":"openstreetmap.org","min_zoom":8.0,"landuse_kind":"urban_area","id":24537369},"arcs":[140]},{"type":"MultiLineString","properties":{"bus_network":null,"sort_rank":380,"kind_detail":"primary","kind":"major_road","source":"openstreetmap.org","min_zoom":8.0,"bus_shield_text":"M236","landuse_kind":"urban_area"},"arcs":[[141],[142],[143],[144],[145],[146]]},{"type":"LineString","properties":{"bus_network":null,"network":"lv:national","sort_rank":381,"kind_detail":"trunk","is_bicycle_related":true,"kind":"major_road","bicycle_shield_text":"EV11","bicycle_network":"icn","source":"openstreetmap.org","min_zoom":8.0,"bus_shield_text":"7647","shield_text":"2","ref":"A2"},"arcs":[147]},{"type":"LineString","properties":{"bus_network":null,"network":"lv:national","sort_rank":380,"kind_detail":"primary","is_bicycle_related":true,"kind":"major_road","bicycle_shield_text":"LV2","bicycle_network":"ncn","source":"openstreetmap.org","min_zoom":8.0,"bus_shield_text":"A51","shield_text":"4","ref":"P4"},"arcs":[148]},{"type":"MultiLineString","properties":{"bus_network":null,"network":"lv:national","sort_rank":380,"landuse_kind":"urban_area","kind":"major_road","source":"openstreetmap.org","min_zoom":8.0,"bus_shield_text":"A31","shield_text":"4","kind_detail":"primary","ref":"P4"},"arcs":[[149],[150]]},{"type":"MultiLineString","properties":{"bus_network":null,"network":"lv:national","sort_rank":380,"kind_detail":"primary","is_bicycle_related":true,"kind":"major_road","bicycle_shield_text":"LV3","bicycle_network":"ncn","source":"openstreetmap.org","min_zoom":8.0,"bus_shield_text":"M214","shield_text":"4","landuse_kind":"urban_area","ref":"P4"},"arcs":[[151],[152]]},{"type":"LineString","properties":{"kind":"major_road","network":"lv:national","sort_rank":380,"kind_detail":"primary","is_bicycle_related":true,"bicycle_shield_text":"7","bicycle_network":"ncn","source":"openstreetmap.org","min_zoom":8.0,"shield_text":"7","ref":"P7"},"arcs":[153]},{"type":"MultiLineString","properties":{"bus_network":null,"network":"lv:national","sort_rank":381,"kind_detail":"trunk","kind":"major_road","source":"openstreetmap.org","min_zoom":8.0,"bus_shield_text":"T27","shield_text":"8","landuse_kind":"urban_area","ref":"A8"},"arcs":[[154],[155],[156],[157],[158]]},{"type":"MultiLineString","properties":{"kind":"major_road","sort_rank":377,"kind_detail":"tertiary","is_bicycle_related":true,"bicycle_shield_text":"R1","bicycle_network":"icn","source":"openstreetmap.org","min_zoom":8.0},"arcs":[[159],[160],[161],[162],[163],[164]]},{"type":"LineString","properties":{"kind":"minor_road","sort_rank":360,"landuse_kind":"urban_area","is_bicycle_related":true,"bicycle_shield_text":"R1","bicycle_network":"icn","source":"openstreetmap.org","min_zoom":8.0,"kind_detail":"residential","name:ru":"\u0420\u0438\u0436\u0441\u043a\u0430\u044f \u0443\u043b\u0438\u0446\u0430"},"arcs":[165]},{"type":"MultiLineString","properties":{"kind":"major_road","network":"lv:national","sort_rank":380,"kind_detail":"primary","source":"openstreetmap.org","min_zoom":8.0,"shield_text":"3","ref":"P3"},"arcs":[[166],[167],[168],[169],[170],[171],[172],[173]]},{"type":"LineString","properties":{"kind":"major_road","network":"lv:regional","sort_rank":379,"kind_detail":"secondary","is_bicycle_related":true,"bicycle_shield_text":"LV2","bicycle_network":"ncn","source":"openstreetmap.org","min_zoom":8.0,"landuse_kind":"park","shield_text":"287","ref":"V287"},"arcs":[174]},{"type":"LineString","properties":{"kind":"path","sort_rank":354,"kind_detail":"pedestrian","is_bicycle_related":true,"bicycle_shield_text":"7","bicycle_network":"ncn","source":"openstreetmap.org","min_zoom":8.0,"id":38295693},"arcs":[175]},{"type":"MultiLineString","properties":{"bus_network":null,"sort_rank":380,"kind_detail":"primary","kind":"major_road","source":"openstreetmap.org","min_zoom":8.0,"bus_shield_text":"7491","landuse_kind":"urban_area"},"arcs":[[176],[177]]},{"type":"LineString","properties":{"kind":"major_road","network":"lv:national","sort_rank":380,"kind_detail":"primary","is_bicycle_related":true,"bicycle_shield_text":"LV2","bicycle_network":"ncn","source":"openstreetmap.org","min_zoom":8.0,"landuse_kind":"park","shield_text":"7","ref":"P7"},"arcs":[178]},{"type":"LineString","properties":{"kind":"major_road","network":"lv:regional","sort_rank":379,"kind_detail":"secondary","is_bicycle_related":true,"bicycle_shield_text":"R1","bicycle_network":"icn","source":"openstreetmap.org","min_zoom":8.0,"landuse_kind":"protected_area","shield_text":"50","ref":"V50","id":79496183},"arcs":[179]},{"type":"MultiLineString","properties":{"kind":"major_road","network":"lv:national","sort_rank":381,"kind_detail":"trunk","source":"openstreetmap.org","min_zoom":8.0,"shield_text":"7","ref":"A7"},"arcs":[[180],[181],[182],[183],[184]]},{"type":"MultiLineString","properties":{"kind":"major_road","network":"lv:regional","sort_rank":379,"kind_detail":"secondary","is_bicycle_related":true,"bicycle_shield_text":"EV11","bicycle_network":"icn","source":"openstreetmap.org","min_zoom":8.0,"landuse_kind":"park","shield_text":"85","ref":"V85"},"arcs":[[185],[186]]},{"type":"MultiLineString","properties":{"bus_network":null,"network":"lv:national","sort_rank":381,"kind_detail":"trunk","kind":"major_road","source":"openstreetmap.org","min_zoom":8.0,"bus_shield_text":"A31","shield_text":"6","ref":"A6"},"arcs":[[187],[188],[189],[190]]},{"type":"LineString","properties":{"bus_network":null,"sort_rank":380,"kind_detail":"primary","kind":"major_road","source":"openstreetmap.org","min_zoom":8.0,"bus_shield_text":"A16","name:ru":"\u0443\u043b\u0438\u0446\u0430 \u0411\u0438\u043a\u0435\u0440\u043d\u0438\u0435\u043a\u0443"},"arcs":[191]},{"type":"MultiLineString","properties":{"kind":"minor_road","sort_rank":360,"landuse_kind":"urban_area","is_bicycle_related":true,"bicycle_shield_text":"R1","bicycle_network":"icn","source":"openstreetmap.org","min_zoom":8.0,"kind_detail":"living_street"},"arcs":[[192],[193],[194],[195],[196],[197]]},{"type":"LineString","properties":{"kind":"major_road","sort_rank":379,"kind_detail":"secondary","is_bicycle_related":true,"bicycle_shield_text":"7","bicycle_network":"ncn","source":"openstreetmap.org","min_zoom":8.0,"name:ru":"\u0420\u0438\u0436\u0441\u043a\u0430\u044f \u0443\u043b\u0438\u0446\u0430","id":4992190},"arcs":[198]},{"type":"LineString","properties":{"bus_network":null,"network":"lv:national","sort_rank":380,"kind_detail":"primary","kind":"major_road","source":"openstreetmap.org","min_zoom":8.0,"bus_shield_text":"A16","shield_text":"2","name:ru":"\u041f\u043e\u0441\u0451\u043b\u043e\u043a \u0431\u0443\u043c\u0430\u0436\u043d\u043e\u0439 \u0444\u0430\u0431\u0440\u0438\u043a\u0438 \u00ab\u042e\u0433\u043b\u0430\u00bb \u2014 \u0423\u043f\u0435\u0441\u0446\u0438\u0435\u043c\u0441","ref":"P2"},"arcs":[199]},{"type":"LineString","properties":{"kind":"major_road","network":"lv:national","sort_rank":380,"kind_detail":"primary","source":"openstreetmap.org","min_zoom":8.0,"shield_text":"73","ref":"P73"},"arcs":[200]},{"type":"MultiLineString","properties":{"kind":"minor_road","sort_rank":358,"kind_detail":"service","is_bicycle_related":true,"bicycle_shield_text":"7","bicycle_network":"ncn","source":"openstreetmap.org","min_zoom":8.0},"arcs":[[201],[202],[203]]},{"type":"MultiLineString","properties":{"source":"openstreetmap.org","kind":"major_road","landuse_kind":"urban_area","sort_rank":380,"kind_detail":"primary","min_zoom":8.0,"name:ru":"\u042e\u0436\u043d\u044b\u0439 \u043c\u043e\u0441\u0442"},"arcs":[[204],[205]]},{"type":"MultiLineString","properties":{"kind":"major_road","network":"lv:national","sort_rank":381,"kind_detail":"trunk","source":"openstreetmap.org","min_zoom":8.0,"shield_text":"10","name:ru":"\u0420\u0438\u0433\u0430 \u2014 \u0412\u0435\u043d\u0442\u0441\u043f\u0438\u043b\u0441","ref":"A10"},"arcs":[[206],[207]]},{"type":"MultiLineString","properties":{"bus_network":null,"sort_rank":380,"kind_detail":"primary","kind":"major_road","source":"openstreetmap.org","min_zoom":8.0,"bus_shield_text":"A31","landuse_kind":"urban_area"},"arcs":[[208],[209]]},{"type":"MultiLineString","properties":{"bus_network":null,"network":"lv:national","sort_rank":381,"kind_detail":"trunk","kind":"major_road","source":"openstreetmap.org","min_zoom":8.0,"bus_shield_text":"7647","shield_text":"2","landuse_kind":"park","ref":"A2"},"arcs":[[210],[211],[212],[213],[214],[215]]},{"type":"MultiLineString","properties":{"bus_network":null,"network":"lv:national","sort_rank":381,"landuse_kind":"protected_area","kind":"major_road","source":"openstreetmap.org","min_zoom":8.0,"bus_shield_text":"7647","shield_text":"2","kind_detail":"trunk","ref":"A2"},"arcs":[[216],[217]]},{"type":"LineString","properties":{"kind":"major_road","sort_rank":380,"kind_detail":"primary","bus_network":null,"source":"openstreetmap.org","min_zoom":8.0,"bus_shield_text":"T18","name:ru":"\u0443\u043b\u0438\u0446\u0430 \u0418\u0435\u0440\u0438\u043a\u044e","landuse_kind":"urban_area","id":242406281},"arcs":[218]},{"type":"LineString","properties":{"kind":"path","sort_rank":354,"kind_detail":"steps","is_bicycle_related":true,"bicycle_shield_text":null,"bicycle_network":"icn","source":"openstreetmap.org","min_zoom":8.0,"landuse_kind":"urban_area","id":160246829},"arcs":[219]},{"type":"LineString","properties":{"kind":"major_road","network":"lv:national","sort_rank":380,"kind_detail":"primary","is_bicycle_related":true,"bicycle_shield_text":"7","bicycle_network":"ncn","source":"openstreetmap.org","min_zoom":8.0,"shield_text":"8","name:ru":"\u0420\u0438\u0436\u0441\u043a\u0430\u044f \u0443\u043b\u0438\u0446\u0430","ref":"P8","id":40239187},"arcs":[220]},{"type":"MultiLineString","properties":{"bus_network":null,"network":"lv:national","sort_rank":381,"kind_detail":"trunk","kind":"major_road","source":"openstreetmap.org","min_zoom":8.0,"bus_shield_text":"7899","shield_text":"6","ref":"A6"},"arcs":[[221],[222],[223],[224],[225],[226],[227],[228],[229],[230]]},{"type":"LineString","properties":{"kind":"ferry","name:lv":"R\u012bga-Stokholma","name":"Stockholm-Riga","sort_rank":355,"landuse_kind":"urban_area","is_bicycle_related":true,"name:de":"F\u00e4hre Riga-Stockholm","source":"openstreetmap.org","min_zoom":8.0,"id":140560773},"arcs":[231]},{"type":"LineString","properties":{"kind":"major_road","sort_rank":379,"kind_detail":"secondary","is_bicycle_related":true,"bus_network":null,"bicycle_shield_text":"7","bicycle_network":"ncn","source":"openstreetmap.org","min_zoom":8.0,"bus_shield_text":"1","id":150004525},"arcs":[232]},{"type":"LineString","properties":{"source":"openstreetmap.org","bus_network":null,"bus_shield_text":"M204","sort_rank":380,"kind_detail":"primary","min_zoom":8.0,"kind":"major_road"},"arcs":[233]},{"type":"MultiLineString","properties":{"sort_rank":380,"kind_detail":"primary","min_zoom":8.0,"kind":"major_road","source":"openstreetmap.org"},"arcs":[[234],[235],[236],[237],[238],[239],[240],[241],[242]]},{"type":"LineString","properties":{"kind":"major_road","name:lv":"Dienvidu tilts","sort_rank":380,"kind_detail":"primary","bus_network":null,"source":"openstreetmap.org","min_zoom":8.0,"bus_shield_text":"A60","name:ru":"\u042e\u0436\u043d\u044b\u0439 \u043c\u043e\u0441\u0442","landuse_kind":"urban_area","id":429166132},"arcs":[243]},{"type":"LineString","properties":{"kind":"minor_road","sort_rank":360,"landuse_kind":"urban_area","is_bicycle_related":true,"bicycle_shield_text":"R1","bicycle_network":"icn","source":"openstreetmap.org","min_zoom":8.0,"kind_detail":"residential"},"arcs":[244]},{"type":"LineString","properties":{"kind":"major_road","network":"lv:national","sort_rank":381,"kind_detail":"trunk","source":"openstreetmap.org","min_zoom":8.0,"shield_text":"10","ref":"A10"},"arcs":[245]},{"type":"LineString","properties":{"kind":"major_road","sort_rank":381,"kind_detail":"trunk","bus_network":null,"source":"openstreetmap.org","min_zoom":8.0,"bus_shield_text":"M203","ref":"A2","id":478462058},"arcs":[246]},{"type":"LineString","properties":{"kind":"path","footway":"sidewalk","sort_rank":354,"landuse_kind":"urban_area","is_bicycle_related":true,"bicycle_shield_text":"R1","bicycle_network":"icn","source":"openstreetmap.org","min_zoom":8.0,"kind_detail":"footway"},"arcs":[247]},{"type":"MultiLineString","properties":{"kind":"major_road","network":"lv:national","sort_rank":381,"kind_detail":"trunk","source":"openstreetmap.org","min_zoom":8.0,"shield_text":"80","ref":"P80"},"arcs":[[248],[249],[250],[251],[252],[253],[254]]},{"type":"MultiLineString","properties":{"kind":"path","sort_rank":354,"kind_detail":"steps","is_bicycle_related":true,"bicycle_shield_text":"7","bicycle_network":"ncn","source":"openstreetmap.org","min_zoom":8.0},"arcs":[[255],[256]]},{"type":"MultiLineString","properties":{"kind":"minor_road","sort_rank":360,"kind_detail":"residential","is_bicycle_related":true,"bicycle_shield_text":null,"bicycle_network":"icn","source":"openstreetmap.org","min_zoom":8.0},"arcs":[[257],[258],[259],[260]]},{"type":"MultiLineString","properties":{"bus_network":null,"sort_rank":380,"kind_detail":"primary","kind":"major_road","source":"openstreetmap.org","min_zoom":8.0,"bus_shield_text":"A60","name:ru":"\u042e\u0436\u043d\u044b\u0439 \u043c\u043e\u0441\u0442","landuse_kind":"urban_area"},"arcs":[[261],[262]]},{"type":"LineString","properties":{"bus_network":null,"network":"lv:national","sort_rank":380,"kind_detail":"primary","is_bicycle_related":true,"kind":"major_road","bicycle_shield_text":null,"bicycle_network":"icn","source":"openstreetmap.org","min_zoom":8.0,"bus_shield_text":"A11","shield_text":"1","landuse_kind":"urban_area","ref":"P1"},"arcs":[263]},{"type":"LineString","properties":{"kind":"major_road","network":"lv:regional","sort_rank":377,"kind_detail":"tertiary","is_bicycle_related":true,"bicycle_shield_text":"R1","bicycle_network":"icn","source":"openstreetmap.org","min_zoom":8.0,"shield_text":"83","ref":"V83","id":5016453},"arcs":[264]},{"type":"LineString","properties":{"bus_network":null,"network":"lv:national","sort_rank":380,"kind_detail":"primary","kind":"major_road","source":"openstreetmap.org","min_zoom":8.0,"bus_shield_text":"A51","shield_text":"5","ref":"P5"},"arcs":[265]},{"type":"LineString","properties":{"kind":"major_road","name:lt":"Vantinis tiltas","sort_rank":380,"kind_detail":"primary","bus_network":null,"source":"openstreetmap.org","min_zoom":8.0,"bus_shield_text":"A57","name:ru":"\u0412\u0430\u043d\u0442\u043e\u0432\u044b\u0439 \u043c\u043e\u0441\u0442","landuse_kind":"urban_area","id":23692402},"arcs":[266]},{"type":"MultiLineString","properties":{"kind":"major_road","network":"lv:national","sort_rank":380,"kind_detail":"primary","is_bicycle_related":true,"bicycle_shield_text":"7","bicycle_network":"ncn","source":"openstreetmap.org","min_zoom":8.0,"shield_text":"10","ref":"P10"},"arcs":[[267],[268],[269],[270],[271],[272],[273],[274]]},{"type":"LineString","properties":{"bus_network":null,"network":"lv:national","sort_rank":380,"kind_detail":"primary","kind":"major_road","source":"openstreetmap.org","min_zoom":8.0,"bus_shield_text":"A51","shield_text":"6","name:ru":"\u0443\u043b\u0438\u0446\u0430 \u0421\u0430\u0442\u0435\u043a\u043b\u0435\u0441","landuse_kind":"urban_area","ref":"A6;A7;A8;A10"},"arcs":[275]},{"type":"MultiLineString","properties":{"kind":"major_road","network":"lv:national","sort_rank":380,"kind_detail":"primary","source":"openstreetmap.org","min_zoom":8.0,"shield_text":"7","ref":"P7"},"arcs":[[276],[277]]},{"type":"LineString","properties":{"bus_network":null,"network":"lv:national","sort_rank":355,"kind_detail":"primary_link","is_bicycle_related":true,"kind":"major_road","bicycle_shield_text":"LV2","bicycle_network":"ncn","source":"openstreetmap.org","min_zoom":8.0,"is_link":true,"bus_shield_text":"6829","shield_text":"4","ref":"P4"},"arcs":[278]},{"type":"LineString","properties":{"bus_network":null,"network":"lv:national","sort_rank":381,"landuse_kind":"urban_area","kind":"major_road","source":"openstreetmap.org","min_zoom":8.0,"bus_shield_text":"T16","shield_text":"2","kind_detail":"trunk","ref":"A2"},"arcs":[279]},{"type":"LineString","properties":{"kind":"major_road","network":"lv:national","sort_rank":380,"kind_detail":"primary","is_bicycle_related":true,"bicycle_shield_text":"LV3","bicycle_network":"ncn","source":"openstreetmap.org","min_zoom":8.0,"shield_text":"3","ref":"P3","id":5016467},"arcs":[280]},{"type":"LineString","properties":{"bus_network":null,"sort_rank":380,"kind_detail":"primary","kind":"major_road","source":"openstreetmap.org","min_zoom":8.0,"bus_shield_text":"A47","name:ru":"\u0443\u043b\u0438\u0446\u0430 \u041f\u0435\u0440\u043d\u0430\u0432\u0430\u0441","landuse_kind":"urban_area"},"arcs":[281]},{"type":"MultiLineString","properties":{"kind":"minor_road","sort_rank":360,"kind_detail":"residential","is_bicycle_related":true,"bicycle_shield_text":"7","bicycle_network":"ncn","source":"openstreetmap.org","min_zoom":8.0},"arcs":[[282],[283],[284],[285]]},{"type":"LineString","properties":{"bus_network":null,"network":"lv:national","sort_rank":381,"kind_detail":"trunk","kind":"major_road","source":"openstreetmap.org","min_zoom":8.0,"bus_shield_text":"T24","shield_text":"7","name:ru":"\u041e\u0441\u0442\u0440\u043e\u0432\u043d\u043e\u0439 \u043c\u043e\u0441\u0442","landuse_kind":"urban_area","ref":"A7;A8;A10"},"arcs":[286]},{"type":"MultiLineString","properties":{"kind":"major_road","network":"lv:national","sort_rank":380,"kind_detail":"primary","source":"openstreetmap.org","min_zoom":8.0,"shield_text":"93","osm_relation":true},"arcs":[[287],[288]]},{"type":"LineString","properties":{"kind":"major_road","network":"lv:national","sort_rank":380,"kind_detail":"primary","is_bicycle_related":true,"bicycle_shield_text":"R1","bicycle_network":"icn","source":"openstreetmap.org","min_zoom":8.0,"landuse_kind":"park","shield_text":"7","ref":"P7","id":4997755},"arcs":[289]},{"type":"LineString","properties":{"kind":"path","sort_rank":354,"landuse_kind":"protected_area","is_bicycle_related":true,"bicycle_shield_text":null,"bicycle_network":"icn","source":"openstreetmap.org","min_zoom":8.0,"kind_detail":"track"},"arcs":[290]},{"type":"LineString","properties":{"bus_network":null,"network":"lv:national","sort_rank":381,"kind_detail":"trunk","kind":"major_road","source":"openstreetmap.org","min_zoom":8.0,"bus_shield_text":"7899","shield_text":"6","name:ru":"\u0443\u043b\u0438\u0446\u0430 \u0414\u0430\u0443\u0433\u0430\u0432\u043f\u0438\u043b\u0441","ref":"A6"},"arcs":[291]},{"type":"LineString","properties":{"bus_network":null,"sort_rank":380,"kind_detail":"primary","kind":"major_road","source":"openstreetmap.org","min_zoom":8.0,"bus_shield_text":"T25","landuse_kind":"urban_area"},"arcs":[292]},{"type":"MultiLineString","properties":{"kind":"major_road","network":"lv:national","sort_rank":380,"kind_detail":"primary","source":"openstreetmap.org","min_zoom":8.0,"shield_text":"8","ref":"P8"},"arcs":[[293],[294],[295],[296],[297],[298],[299],[300],[301],[302],[303]]},{"type":"MultiLineString","properties":{"kind":"major_road","network":"lv:national","sort_rank":380,"kind_detail":"primary","source":"openstreetmap.org","min_zoom":8.0,"shield_text":"87","ref":"P87"},"arcs":[[304],[305]]},{"type":"LineString","properties":{"kind":"minor_road","sort_rank":360,"kind_detail":"unclassified","is_bicycle_related":true,"bicycle_shield_text":"EV11","bicycle_network":"icn","source":"openstreetmap.org","min_zoom":8.0,"landuse_kind":"park","id":38750278},"arcs":[306]},{"type":"MultiLineString","properties":{"kind":"major_road","sort_rank":377,"kind_detail":"tertiary","is_bicycle_related":true,"bicycle_shield_text":null,"bicycle_network":"icn","source":"openstreetmap.org","min_zoom":8.0},"arcs":[[307],[308],[309],[310],[311],[312],[313]]},{"type":"LineString","properties":{"bus_network":null,"network":"e-road","sort_rank":381,"landuse_kind":"urban_area","kind":"major_road","source":"openstreetmap.org","min_zoom":8.0,"bus_shield_text":"A12","shield_text":"22","kind_detail":"trunk"},"arcs":[314]},{"type":"MultiLineString","properties":{"kind":"minor_road","sort_rank":360,"kind_detail":"residential","is_bicycle_related":true,"bicycle_shield_text":"R1","bicycle_network":"icn","source":"openstreetmap.org","min_zoom":8.0},"arcs":[[315],[316]]},{"type":"LineString","properties":{"kind":"major_road","network":"lv:national","sort_rank":381,"kind_detail":"trunk","bus_network":null,"source":"openstreetmap.org","min_zoom":8.0,"bus_shield_text":"14","shield_text":"6","name:ru":"\u0443\u043b\u0438\u0446\u0430 \u0414\u0430\u0443\u0433\u0430\u0432\u043f\u0438\u043b\u0441","ref":"A6","id":256086329},"arcs":[317]},{"type":"MultiLineString","properties":{"kind":"path","sort_rank":354,"kind_detail":"footway","is_bicycle_related":true,"bicycle_shield_text":null,"bicycle_network":"icn","source":"openstreetmap.org","min_zoom":8.0},"arcs":[[318],[319],[320],[321],[322]]},{"type":"MultiLineString","properties":{"kind":"major_road","network":"lv:national","sort_rank":381,"landuse_kind":"urban_area","source":"openstreetmap.org","min_zoom":8.0,"kind_detail":"trunk","shield_text":"10","ref":"A10"},"arcs":[[323],[324],[325],[326],[327]]},{"type":"LineString","properties":{"kind":"major_road","sort_rank":379,"kind_detail":"secondary","is_bicycle_related":true,"bicycle_shield_text":"7","bicycle_network":"ncn","source":"openstreetmap.org","min_zoom":8.0,"id":256086321},"arcs":[328]},{"type":"MultiLineString","properties":{"bus_network":null,"network":"lv:national","sort_rank":381,"kind_detail":"trunk","kind":"major_road","source":"openstreetmap.org","min_zoom":8.0,"bus_shield_text":"7197","shield_text":"6","name:ru":"\u0420\u0438\u0436\u0441\u043a\u0430\u044f \u0443\u043b\u0438\u0446\u0430","ref":"A6"},"arcs":[[329],[330]]},{"type":"LineString","properties":{"kind":"minor_road","sort_rank":360,"kind_detail":"residential","is_bicycle_related":true,"bicycle_shield_text":null,"cycleway":"lane","source":"openstreetmap.org","min_zoom":8.0,"landuse_kind":"urban_area","bicycle_network":"icn","id":210673540},"arcs":[331]},{"type":"LineString","properties":{"kind":"major_road","network":"lv:national","sort_rank":380,"kind_detail":"primary","source":"openstreetmap.org","min_zoom":8.0,"shield_text":"93","ref":"P93"},"arcs":[332]},{"type":"LineString","properties":{"bus_network":null,"network":"lv:national","sort_rank":381,"kind_detail":"trunk","is_bicycle_related":true,"kind":"major_road","bicycle_shield_text":"R1","bicycle_network":"icn","source":"openstreetmap.org","min_zoom":8.0,"bus_shield_text":"7514","shield_text":"4","ref":"A4"},"arcs":[333]},{"type":"MultiLineString","properties":{"source":"openstreetmap.org","kind":"major_road","landuse_kind":"urban_area","sort_rank":380,"kind_detail":"primary","min_zoom":8.0,"name:ru":"\u0443\u043b\u0438\u0446\u0430 \u041a\u0440\u0430\u0441\u0442\u0430"},"arcs":[[334],[335]]},{"type":"LineString","properties":{"kind":"major_road","network":"lv:regional","sort_rank":379,"kind_detail":"secondary","is_bicycle_related":true,"bicycle_shield_text":"LV3","bicycle_network":"ncn","source":"openstreetmap.org","min_zoom":8.0,"shield_text":"65","ref":"V65","id":24826944},"arcs":[336]},{"type":"MultiLineString","properties":{"bus_network":null,"network":"lv:national","sort_rank":381,"kind_detail":"trunk","kind":"major_road","source":"openstreetmap.org","min_zoom":8.0,"bus_shield_text":"M233","shield_text":"8","name:ru":"\u041e\u0441\u0442\u0440\u043e\u0432\u043d\u043e\u0439 \u043c\u043e\u0441\u0442","landuse_kind":"urban_area","ref":"A8;A10"},"arcs":[[337],[338]]},{"type":"LineString","properties":{"kind":"major_road","network":"lv:national","sort_rank":381,"kind_detail":"trunk","bus_network":null,"source":"openstreetmap.org","min_zoom":8.0,"bus_shield_text":"A60","shield_text":"7","landuse_kind":"urban_area","ref":"A7","id":511788917},"arcs":[339]},{"type":"LineString","properties":{"kind":"major_road","network":"lv:national","sort_rank":381,"kind_detail":"trunk","bus_network":null,"source":"openstreetmap.org","min_zoom":8.0,"bus_shield_text":"M203","shield_text":"2","landuse_kind":"urban_area","ref":"A2","id":383543798},"arcs":[340]},{"type":"MultiLineString","properties":{"bus_network":null,"network":"lv:national","sort_rank":381,"kind_detail":"trunk","kind":"major_road","source":"openstreetmap.org","min_zoom":8.0,"bus_shield_text":"A34","shield_text":"6","name:ru":"\u0443\u043b\u0438\u0446\u0430 \u041a\u0440\u0430\u0441\u0442\u0430","landuse_kind":"urban_area","ref":"A6"},"arcs":[[341],[342]]},{"type":"LineString","properties":{"bus_network":null,"network":"lv:national","sort_rank":381,"kind_detail":"trunk","is_bicycle_related":true,"kind":"major_road","source":"openstreetmap.org","min_zoom":8.0,"bus_shield_text":"5835","shield_text":"6","ref":"A6"},"arcs":[343]},{"type":"LineString","properties":{"kind":"major_road","sort_rank":381,"kind_detail":"trunk","bus_network":null,"source":"openstreetmap.org","min_zoom":8.0,"bus_shield_text":"A2","landuse_kind":"urban_area","id":36894043},"arcs":[344]},{"type":"MultiLineString","properties":{"bus_network":null,"network":"lv:national","sort_rank":380,"kind_detail":"primary","kind":"major_road","source":"openstreetmap.org","min_zoom":8.0,"bus_shield_text":"A2","shield_text":"1","name:ru":"\u0443\u043b\u0438\u0446\u0430 \u0422\u0438\u043b\u0442\u0430","landuse_kind":"urban_area","ref":"P1"},"arcs":[[345],[346],[347]]},{"type":"MultiLineString","properties":{"bus_network":null,"network":"lv:national","sort_rank":380,"kind_detail":"primary","is_bicycle_related":true,"kind":"major_road","bicycle_shield_text":"LV2","bicycle_network":"ncn","source":"openstreetmap.org","min_zoom":8.0,"bus_shield_text":"6829","shield_text":"4","ref":"P4"},"arcs":[[348],[349]]},{"type":"LineString","properties":{"bus_network":null,"network":"lv:national","sort_rank":379,"kind_detail":"secondary","is_bicycle_related":true,"kind":"major_road","bicycle_shield_text":"7","bicycle_network":"ncn","source":"openstreetmap.org","min_zoom":8.0,"bus_shield_text":"8","shield_text":"5","ref":"P5","id":34658212},"arcs":[350]},{"type":"LineString","properties":{"bus_network":null,"sort_rank":380,"kind_detail":"primary","kind":"major_road","source":"openstreetmap.org","min_zoom":8.0,"bus_shield_text":"A11","landuse_kind":"urban_area"},"arcs":[351]},{"type":"LineString","properties":{"kind":"minor_road","sort_rank":360,"landuse_kind":"protected_area","is_bicycle_related":true,"bicycle_shield_text":null,"bicycle_network":"icn","source":"openstreetmap.org","min_zoom":8.0,"kind_detail":"living_street"},"arcs":[352]},{"type":"LineString","properties":{"kind":"path","sort_rank":354,"kind_detail":"footway","is_bicycle_related":true,"bicycle_shield_text":null,"bicycle_network":"icn","source":"openstreetmap.org","min_zoom":8.0,"landuse_kind":"protected_area","id":66420555},"arcs":[353]},{"type":"LineString","properties":{"bus_network":null,"network":"lv:national","sort_rank":380,"kind_detail":"primary","kind":"major_road","source":"openstreetmap.org","min_zoom":8.0,"bus_shield_text":"A23","shield_text":"6","name:ru":"\u0443\u043b\u0438\u0446\u0430 \u0421\u0430\u0442\u0435\u043a\u043b\u0435\u0441","landuse_kind":"urban_area","ref":"A6;A7;A8;A10"},"arcs":[354]},{"type":"LineString","properties":{"kind":"major_road","sort_rank":355,"kind_detail":"secondary_link","is_bicycle_related":true,"bicycle_shield_text":null,"bicycle_network":"icn","source":"openstreetmap.org","min_zoom":8.0,"is_link":true},"arcs":[355]},{"type":"MultiLineString","properties":{"bus_network":null,"sort_rank":380,"kind_detail":"primary","kind":"major_road","source":"openstreetmap.org","min_zoom":8.0,"bus_shield_text":"A58","landuse_kind":"urban_area"},"arcs":[[356],[357],[358],[359],[360],[361],[362],[363],[364]]},{"type":"LineString","properties":{"bus_network":null,"network":"lv:national","sort_rank":381,"kind_detail":"trunk","kind":"major_road","source":"openstreetmap.org","min_zoom":8.0,"bus_shield_text":"7661","shield_text":"3","ref":"A3"},"arcs":[365]},{"type":"LineString","properties":{"bus_network":null,"sort_rank":380,"kind_detail":"primary","kind":"major_road","source":"openstreetmap.org","min_zoom":8.0,"bus_shield_text":"A24","name:ru":"\u0443\u043b\u0438\u0446\u0430 \u0414\u0443\u043d\u0442\u0435\u0441","landuse_kind":"urban_area"},"arcs":[366]},{"type":"LineString","properties":{"bus_network":null,"bicycle_shield_text":"R1","min_zoom":8.0,"bus_shield_text":"A50","name:de":"Freiheitsboulevard","kind":"major_road","name:en":"Boulevard of Freedom","network":"lv:national","sort_rank":381,"kind_detail":"trunk","is_bicycle_related":true,"bicycle_network":"icn","source":"openstreetmap.org","landuse_kind":"urban_area","shield_text":"2","ref":"A2"},"arcs":[367]},{"type":"LineString","properties":{"kind":"major_road","network":"lv:national","sort_rank":381,"kind_detail":"trunk","is_bicycle_related":true,"source":"openstreetmap.org","min_zoom":8.0,"shield_text":"5","ref":"P5"},"arcs":[368]},{"type":"LineString","properties":{"bus_network":null,"network":"lv:national","sort_rank":381,"landuse_kind":"urban_area","kind":"major_road","source":"openstreetmap.org","min_zoom":8.0,"bus_shield_text":"T24","shield_text":"8","kind_detail":"trunk","ref":"A8;A10"},"arcs":[369]},{"type":"LineString","properties":{"bus_network":null,"network":"lv:national","sort_rank":355,"kind_detail":"primary_link","is_bicycle_related":true,"kind":"major_road","bicycle_shield_text":"LV3","bicycle_network":"ncn","source":"openstreetmap.org","min_zoom":8.0,"is_link":true,"bus_shield_text":"7491","shield_text":"85","ref":"P85"},"arcs":[370]},{"type":"MultiLineString","properties":{"bus_network":null,"network":"lv:national","sort_rank":380,"kind_detail":"primary","kind":"major_road","source":"openstreetmap.org","min_zoom":8.0,"bus_shield_text":"A10","shield_text":"132","name:ru":"\u0443\u043b\u0438\u0446\u0430 \u0414\u0430\u0443\u0433\u0430\u0432\u0430\u0441","landuse_kind":"urban_area","ref":"P132"},"arcs":[[371],[372]]},{"type":"LineString","properties":{"bus_network":null,"network":"lv:national","sort_rank":381,"kind_detail":"trunk","kind":"major_road","source":"openstreetmap.org","min_zoom":8.0,"bus_shield_text":"T24","shield_text":"6","landuse_kind":"urban_area","ref":"A6;A7;A8;A10"},"arcs":[373]},{"type":"LineString","properties":{"kind":"major_road","network":"lv:national","sort_rank":381,"kind_detail":"trunk","bus_network":null,"source":"openstreetmap.org","min_zoom":8.0,"bus_shield_text":"7491","shield_text":"6","ref":"A6","id":372583628},"arcs":[374]},{"type":"MultiLineString","properties":{"kind":"major_road","sort_rank":377,"landuse_kind":"urban_area","is_bicycle_related":true,"bicycle_shield_text":"R1","bicycle_network":"icn","source":"openstreetmap.org","min_zoom":8.0,"kind_detail":"tertiary"},"arcs":[[375],[376],[377],[378],[379],[380],[381],[382],[383]]},{"type":"LineString","properties":{"bus_network":null,"network":"lv:national","sort_rank":380,"kind_detail":"primary","is_bicycle_related":true,"kind":"major_road","bicycle_shield_text":null,"bicycle_network":"icn","source":"openstreetmap.org","min_zoom":8.0,"bus_shield_text":"A11","shield_text":"1","ref":"P1"},"arcs":[384]},{"type":"LineString","properties":{"kind":"major_road","network":"lv:national","sort_rank":380,"kind_detail":"primary","is_bicycle_related":true,"bicycle_shield_text":"EV11","bicycle_network":"icn","source":"openstreetmap.org","min_zoom":8.0,"shield_text":"3","ref":"P3;P32"},"arcs":[385]},{"type":"LineString","properties":{"kind":"major_road","network":"lv:regional","sort_rank":377,"kind_detail":"tertiary","is_bicycle_related":true,"bicycle_shield_text":"R1","bicycle_network":"icn","source":"openstreetmap.org","min_zoom":8.0,"shield_text":"95","id":130965739},"arcs":[386]},{"type":"LineString","properties":{"kind":"major_road","network":"lv:national","sort_rank":381,"kind_detail":"trunk","bus_network":null,"source":"openstreetmap.org","min_zoom":8.0,"bus_shield_text":"5835","shield_text":"5","landuse_kind":"protected_area","ref":"A5","id":200209894},"arcs":[387]},{"type":"LineString","properties":{"bus_network":null,"network":"lv:national","sort_rank":381,"kind_detail":"trunk","kind":"major_road","source":"openstreetmap.org","min_zoom":8.0,"bus_shield_text":"M209","shield_text":"6","ref":"A6"},"arcs":[388]},{"type":"LineString","properties":{"bus_network":null,"sort_rank":379,"kind_detail":"secondary","is_bicycle_related":true,"kind":"major_road","bicycle_shield_text":"7","bicycle_network":"ncn","source":"openstreetmap.org","min_zoom":8.0,"bus_shield_text":"2"},"arcs":[389]},{"type":"LineString","properties":{"bus_network":null,"name:en":"Boulevard of Freedom","sort_rank":381,"kind_detail":"trunk","is_bicycle_related":true,"kind":"major_road","bicycle_shield_text":"R1","name:de":"Freiheitsboulevard","source":"openstreetmap.org","min_zoom":8.0,"bus_shield_text":"T1","landuse_kind":"urban_area","id":4994993,"bicycle_network":"icn"},"arcs":[390]},{"type":"LineString","properties":{"kind":"major_road","sort_rank":380,"kind_detail":"primary","source":"openstreetmap.org","min_zoom":8.0,"landuse_kind":"urban_area","name:ru":"\u0443\u043b\u0438\u0446\u0430 \u0412\u0430\u043b\u043c\u0438\u0435\u0440\u0430\u0441","id":38246777},"arcs":[391]},{"type":"MultiLineString","properties":{"bus_network":null,"network":"lv:national","sort_rank":380,"kind_detail":"primary","kind":"major_road","source":"openstreetmap.org","min_zoom":8.0,"bus_shield_text":"M241","shield_text":"133","landuse_kind":"urban_area","ref":"P133"},"arcs":[[392],[393],[394],[395]]},{"type":"MultiLineString","properties":{"bus_network":null,"network":"lv:national","sort_rank":381,"kind_detail":"trunk","kind":"major_road","source":"openstreetmap.org","min_zoom":8.0,"bus_shield_text":"A43","shield_text":"9","ref":"A9"},"arcs":[[396],[397]]},{"type":"MultiLineString","properties":{"bus_network":null,"network":"lv:national","sort_rank":381,"landuse_kind":"national_park","kind":"major_road","source":"openstreetmap.org","min_zoom":8.0,"bus_shield_text":"7197","shield_text":"6","kind_detail":"trunk","ref":"A6"},"arcs":[[398],[399]]},{"type":"LineString","properties":{"kind":"major_road","sort_rank":377,"kind_detail":"tertiary","is_bicycle_related":true,"bicycle_shield_text":"7","bicycle_network":"ncn","source":"openstreetmap.org","min_zoom":8.0,"name:ru":" \u0420\u0438\u0436\u0441\u043a\u0430\u044f \u0443\u043b\u0438\u0446\u0430"},"arcs":[400]},{"type":"LineString","properties":{"kind":"major_road","network":"lv:national","sort_rank":381,"kind_detail":"trunk","bus_network":null,"source":"openstreetmap.org","min_zoom":8.0,"bus_shield_text":"T24","shield_text":"7","landuse_kind":"urban_area","ref":"A7;A8;A10","id":37262920},"arcs":[401]},{"type":"MultiLineString","properties":{"kind":"major_road","network":"lv:national","sort_rank":380,"kind_detail":"primary","source":"openstreetmap.org","min_zoom":8.0,"shield_text":"90","osm_relation":true},"arcs":[[402],[403],[404],[405],[406]]},{"type":"MultiLineString","properties":{"kind":"major_road","network":"lv:regional","sort_rank":379,"kind_detail":"secondary","is_bicycle_related":true,"bicycle_shield_text":"EV11","bicycle_network":"icn","source":"openstreetmap.org","min_zoom":8.0,"shield_text":"85","ref":"V85"},"arcs":[[407],[408],[409],[410]]},{"type":"LineString","properties":{"kind":"major_road","sort_rank":380,"kind_detail":"primary","bus_network":null,"source":"openstreetmap.org","min_zoom":8.0,"bus_shield_text":"T24","name:ru":"\u0443\u043b\u0438\u0446\u0430 13 \u042f\u043d\u0432\u0430\u0440\u044f","landuse_kind":"urban_area","id":39821680},"arcs":[411]},{"type":"LineString","properties":{"bus_network":null,"network":"lv:national","sort_rank":380,"kind_detail":"primary","kind":"major_road","source":"openstreetmap.org","min_zoom":8.0,"bus_shield_text":"A34","shield_text":"4","name:ru":"\u042e\u0436\u043d\u044b\u0439 \u043c\u043e\u0441\u0442","landuse_kind":"urban_area","ref":"P4"},"arcs":[412]},{"type":"LineString","properties":{"kind":"major_road","network":"lv:national","sort_rank":380,"kind_detail":"primary","source":"openstreetmap.org","min_zoom":8.0,"shield_text":"3","ref":"P3;P8","id":33972866},"arcs":[413]},{"type":"LineString","properties":{"kind":"major_road","network":"lv:national","sort_rank":381,"kind_detail":"trunk","is_bicycle_related":true,"bicycle_shield_text":"R1","bicycle_network":"icn","source":"openstreetmap.org","min_zoom":8.0,"shield_text":"4","ref":"A4"},"arcs":[414]},{"type":"LineString","properties":{"kind":"major_road","network":"lv:national","sort_rank":380,"kind_detail":"primary","is_bicycle_related":true,"bicycle_shield_text":"LV2","bicycle_network":"ncn","source":"openstreetmap.org","min_zoom":8.0,"shield_text":"10","ref":"P10"},"arcs":[415]},{"type":"LineString","properties":{"kind":"major_road","network":"lv:national","sort_rank":380,"kind_detail":"primary","source":"openstreetmap.org","min_zoom":8.0,"shield_text":"90","ref":"P90","id":26855820},"arcs":[416]},{"type":"LineString","properties":{"kind":"minor_road","sort_rank":360,"landuse_kind":"urban_area","is_bicycle_related":true,"bicycle_shield_text":null,"bicycle_network":"icn","source":"openstreetmap.org","min_zoom":8.0,"kind_detail":"residential"},"arcs":[417]},{"type":"LineString","properties":{"bus_network":null,"network":"lv:national","sort_rank":381,"landuse_kind":"urban_area","kind":"major_road","source":"openstreetmap.org","min_zoom":8.0,"bus_shield_text":"T20","shield_text":"7","kind_detail":"trunk","ref":"A7;A8;A10"},"arcs":[418]},{"type":"MultiLineString","properties":{"bus_network":null,"network":"lv:national","sort_rank":381,"kind_detail":"trunk","kind":"major_road","source":"openstreetmap.org","min_zoom":8.0,"bus_shield_text":"A1","shield_text":"2","ref":"A2"},"arcs":[[419],[420],[421]]},{"type":"LineString","properties":{"kind":"major_road","network":"lv:national","sort_rank":381,"kind_detail":"trunk","is_bicycle_related":true,"bicycle_shield_text":"7","bicycle_network":"ncn","source":"openstreetmap.org","min_zoom":8.0,"shield_text":"5","ref":"P5;P10","id":36772434},"arcs":[422]},{"type":"MultiLineString","properties":{"kind":"major_road","network":"lv:national","sort_rank":381,"kind_detail":"trunk","source":"openstreetmap.org","min_zoom":8.0,"shield_text":"3","ref":"A3"},"arcs":[[423],[424],[425]]},{"type":"MultiLineString","properties":{"kind":"major_road","sort_rank":377,"landuse_kind":"protected_area","is_bicycle_related":true,"bicycle_shield_text":null,"bicycle_network":"icn","source":"openstreetmap.org","min_zoom":8.0,"kind_detail":"tertiary"},"arcs":[[426],[427],[428],[429]]},{"type":"LineString","properties":{"kind":"major_road","network":"lv:national","sort_rank":380,"kind_detail":"primary","bus_network":null,"source":"openstreetmap.org","min_zoom":8.0,"bus_shield_text":"A51","shield_text":"4","landuse_kind":"urban_area","ref":"P4","id":29020403},"arcs":[430]},{"type":"LineString","properties":{"bus_network":null,"sort_rank":380,"kind_detail":"primary","kind":"major_road","source":"openstreetmap.org","min_zoom":8.0,"bus_shield_text":"T27","landuse_kind":"urban_area"},"arcs":[431]},{"type":"LineString","properties":{"kind":"major_road","network":"lv:national","sort_rank":380,"kind_detail":"primary","is_bicycle_related":true,"bicycle_shield_text":"LV3","bicycle_network":"ncn","source":"openstreetmap.org","min_zoom":8.0,"shield_text":"76","ref":"P76","id":24676280},"arcs":[432]},{"type":"LineString","properties":{"bus_network":null,"network":"lv:national","sort_rank":381,"kind_detail":"trunk","is_bicycle_related":true,"kind":"major_road","bicycle_shield_text":null,"bicycle_network":"icn","source":"openstreetmap.org","min_zoom":8.0,"bus_shield_text":"7514","shield_text":"1","landuse_kind":"protected_area","ref":"A1","id":217190109},"arcs":[433]},{"type":"LineString","properties":{"bus_network":null,"sort_rank":380,"kind_detail":"primary","kind":"major_road","source":"openstreetmap.org","min_zoom":8.0,"bus_shield_text":"A47","name:ru":"\u0443\u043b\u0438\u0446\u0430 \u0410\u043b\u0435\u043a\u0441\u0430\u043d\u0434\u0440\u0430 \u0427\u0430\u043a\u0430","landuse_kind":"urban_area"},"arcs":[434]},{"type":"MultiLineString","properties":{"kind":"path","sort_rank":354,"kind_detail":"track","is_bicycle_related":true,"bicycle_shield_text":null,"bicycle_network":"icn","source":"openstreetmap.org","min_zoom":8.0},"arcs":[[435],[436],[437],[438]]},{"type":"LineString","properties":{"kind":"major_road","sort_rank":379,"kind_detail":"secondary","is_bicycle_related":true,"bicycle_shield_text":"EV11","bicycle_network":"icn","source":"openstreetmap.org","min_zoom":8.0,"name:ru":"\u0420\u0438\u0436\u0441\u043a\u0430\u044f \u0443\u043b\u0438\u0446\u0430","id":49292579},"arcs":[439]},{"type":"MultiLineString","properties":{"bus_network":null,"network":"lv:national","sort_rank":381,"kind_detail":"trunk","kind":"major_road","source":"openstreetmap.org","min_zoom":8.0,"bus_shield_text":"A10","shield_text":"10","landuse_kind":"urban_area","ref":"A10"},"arcs":[[440],[441]]},{"type":"LineString","properties":{"kind":"major_road","sort_rank":380,"kind_detail":"primary","is_bicycle_related":true,"bus_network":null,"bicycle_shield_text":"LV3","bicycle_network":"ncn","source":"openstreetmap.org","min_zoom":8.0,"bus_shield_text":"M214","landuse_kind":"urban_area","id":330333303},"arcs":[442]},{"type":"LineString","properties":{"kind":"major_road","network":"lv:national","sort_rank":379,"kind_detail":"secondary","is_bicycle_related":true,"bicycle_shield_text":"EV11","bicycle_network":"icn","source":"openstreetmap.org","min_zoom":8.0,"shield_text":"30","ref":"P30","id":67020696},"arcs":[443]},{"type":"LineString","properties":{"kind":"major_road","network":"lv:national","sort_rank":380,"kind_detail":"primary","bus_network":null,"source":"openstreetmap.org","min_zoom":8.0,"bus_shield_text":"7491","shield_text":"7","ref":"A7","id":279722466},"arcs":[444]},{"type":"LineString","properties":{"bus_network":null,"network":"lv:national","sort_rank":380,"kind_detail":"primary","is_bicycle_related":true,"kind":"major_road","bicycle_shield_text":"7","bicycle_network":"ncn","source":"openstreetmap.org","min_zoom":8.0,"bus_shield_text":"6831","shield_text":"10","ref":"P10","id":21636323},"arcs":[445]},{"type":"LineString","properties":{"bus_network":null,"network":"lv:national","sort_rank":380,"landuse_kind":"urban_area","kind":"major_road","name:ru":"\u0443\u043b\u0438\u0446\u0430 \u041b\u0443\u0431\u0430\u043d\u0430\u0441","source":"openstreetmap.org","min_zoom":8.0,"bus_shield_text":"A20","shield_text":"4","kind_detail":"primary","ref":"P4"},"arcs":[446]},{"type":"LineString","properties":{"kind":"major_road","network":"lv:national","sort_rank":381,"kind_detail":"trunk","source":"openstreetmap.org","min_zoom":8.0,"shield_text":"6","name:ru":"\u0420\u0438\u0436\u0441\u043a\u0430\u044f \u0443\u043b\u0438\u0446\u0430","ref":"A6","id":38242966},"arcs":[447]},{"type":"MultiLineString","properties":{"bus_network":null,"sort_rank":380,"kind_detail":"primary","kind":"major_road","source":"openstreetmap.org","min_zoom":8.0,"bus_shield_text":"A60","landuse_kind":"urban_area"},"arcs":[[448],[449],[450]]},{"type":"LineString","properties":{"kind":"major_road","network":"lv:national","sort_rank":380,"kind_detail":"primary","source":"openstreetmap.org","min_zoom":8.0,"shield_text":"91","name:ru":"\u0420\u0438\u0436\u0441\u043a\u0430\u044f \u0443\u043b\u0438\u0446\u0430","ref":"V9;P91","id":45182110},"arcs":[451]},{"type":"LineString","properties":{"kind":"major_road","network":"lv:national","sort_rank":380,"kind_detail":"primary","source":"openstreetmap.org","min_zoom":8.0,"shield_text":"89","osm_relation":true},"arcs":[452]},{"type":"MultiLineString","properties":{"kind":"major_road","sort_rank":377,"kind_detail":"tertiary","is_bicycle_related":true,"bicycle_shield_text":"EV11","bicycle_network":"icn","source":"openstreetmap.org","min_zoom":8.0,"landuse_kind":"park"},"arcs":[[453],[454]]},{"type":"LineString","properties":{"kind":"major_road","network":"lv:regional","sort_rank":379,"kind_detail":"secondary","is_bicycle_related":true,"bicycle_shield_text":"LV3","bicycle_network":"ncn","source":"openstreetmap.org","min_zoom":8.0,"shield_text":"2","ref":"V2","id":279722477},"arcs":[455]},{"type":"LineString","properties":{"kind":"major_road","network":"lv:national","sort_rank":380,"kind_detail":"primary","source":"openstreetmap.org","min_zoom":8.0,"landuse_kind":"park","shield_text":"32","ref":"P32"},"arcs":[456]},{"type":"LineString","properties":{"bus_network":null,"network":"lv:national","sort_rank":380,"kind_detail":"primary","kind":"major_road","source":"openstreetmap.org","min_zoom":8.0,"bus_shield_text":"T24","shield_text":"1","landuse_kind":"urban_area","ref":"P1"},"arcs":[457]},{"type":"MultiLineString","properties":{"kind":"major_road","network":"lv:national","sort_rank":380,"kind_detail":"primary","source":"openstreetmap.org","min_zoom":8.0,"landuse_kind":"urban_area","shield_text":"133","ref":"P133"},"arcs":[[458],[459],[460],[461],[462]]},{"type":"MultiLineString","properties":{"kind":"major_road","network":"lv:national","sort_rank":381,"landuse_kind":"protected_area","source":"openstreetmap.org","min_zoom":8.0,"kind_detail":"trunk","shield_text":"80","ref":"P80"},"arcs":[[463],[464]]},{"type":"LineString","properties":{"kind":"major_road","network":"lv:national","sort_rank":380,"kind_detail":"primary","is_bicycle_related":true,"bicycle_shield_text":"LV3","bicycle_network":"ncn","source":"openstreetmap.org","min_zoom":8.0,"shield_text":"4","ref":"P4"},"arcs":[465]},{"type":"LineString","properties":{"bus_network":null,"network":"lv:regional","sort_rank":379,"landuse_kind":"urban_area","is_bicycle_related":true,"kind":"major_road","bicycle_shield_text":"LV3","bicycle_network":"ncn","source":"openstreetmap.org","min_zoom":8.0,"bus_shield_text":"A23","shield_text":"1","kind_detail":"secondary","ref":"V1"},"arcs":[466]},{"type":"LineString","properties":{"kind":"major_road","network":"lv:national","sort_rank":380,"kind_detail":"primary","is_bicycle_related":true,"bicycle_shield_text":"LV2","bicycle_network":"ncn","source":"openstreetmap.org","min_zoom":8.0,"landuse_kind":"park","shield_text":"14","ref":"P14"},"arcs":[467]},{"type":"LineString","properties":{"bus_network":null,"sort_rank":379,"landuse_kind":"urban_area","is_bicycle_related":true,"kind":"major_road","bicycle_shield_text":"LV2","bicycle_network":"ncn","source":"openstreetmap.org","min_zoom":8.0,"bus_shield_text":"A51","kind_detail":"secondary"},"arcs":[468]},{"type":"LineString","properties":{"source":"openstreetmap.org","kind":"major_road","landuse_kind":"urban_area","sort_rank":380,"kind_detail":"primary","min_zoom":8.0,"name:ru":"\u043d\u0430\u0431\u0435\u0440\u0435\u0436\u043d\u0430\u044f 11 \u043d\u043e\u044f\u0431\u0440\u044f"},"arcs":[469]},{"type":"LineString","properties":{"kind":"major_road","network":"lv:regional","sort_rank":379,"kind_detail":"secondary","is_bicycle_related":true,"bicycle_shield_text":null,"bicycle_network":"icn","source":"openstreetmap.org","min_zoom":8.0,"shield_text":"45","ref":"V45","id":167014495},"arcs":[470]},{"type":"LineString","properties":{"kind":"major_road","network":"lv:national","sort_rank":380,"kind_detail":"primary","source":"openstreetmap.org","min_zoom":8.0,"shield_text":"92","id":-175225,"osm_relation":true},"arcs":[471]},{"type":"MultiLineString","properties":{"kind":"path","sort_rank":354,"kind_detail":"cycleway","is_bicycle_related":true,"bicycle_shield_text":"R1","bicycle_network":"icn","source":"openstreetmap.org","min_zoom":8.0},"arcs":[[472],[473],[474],[475]]},{"type":"LineString","properties":{"bus_network":null,"sort_rank":380,"kind_detail":"primary","kind":"major_road","source":"openstreetmap.org","min_zoom":8.0,"bus_shield_text":"T13","name:ru":"\u0443\u043b\u0438\u0446\u0430 \u041f\u0435\u0440\u043d\u0430\u0432\u0430\u0441","landuse_kind":"urban_area"},"arcs":[476]},{"type":"MultiLineString","properties":{"kind":"major_road","network":"lv:national","sort_rank":381,"landuse_kind":"urban_area","source":"openstreetmap.org","min_zoom":8.0,"kind_detail":"trunk","shield_text":"10","name:ru":"\u0420\u0438\u0433\u0430 \u2014 \u0412\u0435\u043d\u0442\u0441\u043f\u0438\u043b\u0441","ref":"A10"},"arcs":[[477],[478]]},{"type":"MultiLineString","properties":{"bus_network":null,"network":"lv:national","sort_rank":380,"kind_detail":"primary","kind":"major_road","source":"openstreetmap.org","min_zoom":8.0,"bus_shield_text":"A26","shield_text":"7","landuse_kind":"urban_area","ref":"A7"},"arcs":[[479],[480],[481]]},{"type":"LineString","properties":{"kind":"major_road","network":"lv:national","sort_rank":380,"kind_detail":"primary","bus_network":null,"source":"openstreetmap.org","min_zoom":8.0,"bus_shield_text":"6829","shield_text":"10","ref":"P10","id":21633710},"arcs":[482]},{"type":"LineString","properties":{"bus_network":null,"network":"lv:national","sort_rank":381,"kind_detail":"trunk","kind":"major_road","source":"openstreetmap.org","min_zoom":8.0,"bus_shield_text":"5835","shield_text":"5","ref":"A5"},"arcs":[483]},{"type":"LineString","properties":{"kind":"major_road","network":"lv:national","sort_rank":380,"kind_detail":"primary","is_bicycle_related":true,"bicycle_shield_text":"LV2","bicycle_network":"ncn","source":"openstreetmap.org","min_zoom":8.0,"shield_text":"14","ref":"P14","id":4957207},"arcs":[484]},{"type":"MultiLineString","properties":{"bus_network":null,"network":"lv:national","sort_rank":381,"kind_detail":"trunk","kind":"major_road","source":"openstreetmap.org","min_zoom":8.0,"bus_shield_text":"A43","shield_text":"5","ref":"A5"},"arcs":[[485],[486]]},{"type":"MultiLineString","properties":{"kind":"major_road","network":"lv:national","sort_rank":380,"kind_detail":"primary","source":"openstreetmap.org","min_zoom":8.0,"shield_text":"5","ref":"P5"},"arcs":[[487],[488],[489],[490],[491],[492]]},{"type":"MultiLineString","properties":{"kind":"path","sort_rank":354,"kind_detail":"cycleway","is_bicycle_related":true,"bicycle_shield_text":null,"bicycle_network":"icn","source":"openstreetmap.org","min_zoom":8.0},"arcs":[[493],[494],[495],[496]]},{"type":"MultiLineString","properties":{"bus_network":null,"sort_rank":380,"kind_detail":"primary","kind":"major_road","source":"openstreetmap.org","min_zoom":8.0,"bus_shield_text":"A13","landuse_kind":"urban_area"},"arcs":[[497],[498],[499],[500],[501]]},{"type":"MultiLineString","properties":{"kind":"path","sort_rank":354,"kind_detail":"cycleway","is_bicycle_related":true,"bicycle_shield_text":null,"bicycle_network":"icn","source":"openstreetmap.org","min_zoom":8.0,"landuse_kind":"protected_area","id":298885186},"arcs":[[502],[503]]},{"type":"LineString","properties":{"kind":"major_road","network":"lv:national","sort_rank":380,"kind_detail":"primary","source":"openstreetmap.org","min_zoom":8.0,"landuse_kind":"protected_area","shield_text":"5","ref":"P5","id":159514727},"arcs":[504]},{"type":"LineString","properties":{"kind":"minor_road","sort_rank":358,"kind_detail":"service","is_bicycle_related":true,"bicycle_shield_text":"R1","bicycle_network":"icn","source":"openstreetmap.org","min_zoom":8.0,"id":130965748},"arcs":[505]},{"type":"MultiLineString","properties":{"bus_network":null,"network":"lv:national","sort_rank":381,"kind_detail":"trunk","is_bicycle_related":true,"kind":"major_road","bicycle_shield_text":"LV3","bicycle_network":"ncn","source":"openstreetmap.org","min_zoom":8.0,"bus_shield_text":"7491","shield_text":"5","ref":"A5"},"arcs":[[506],[507],[508]]},{"type":"LineString","properties":{"kind":"major_road","sort_rank":377,"kind_detail":"tertiary","is_bicycle_related":true,"bicycle_shield_text":"LV2","bicycle_network":"ncn","source":"openstreetmap.org","min_zoom":8.0,"landuse_kind":"park","id":61939529},"arcs":[509]},{"type":"MultiLineString","properties":{"bus_network":null,"network":"lv:regional","sort_rank":379,"kind_detail":"secondary","is_bicycle_related":true,"kind":"major_road","bicycle_shield_text":"LV3","bicycle_network":"ncn","source":"openstreetmap.org","min_zoom":8.0,"bus_shield_text":"A26","shield_text":"2","ref":"V2"},"arcs":[[510],[511]]},{"type":"LineString","properties":{"kind":"major_road","network":"lv:national","sort_rank":380,"kind_detail":"primary","is_bicycle_related":true,"bicycle_shield_text":"LV2","bicycle_network":"ncn","source":"openstreetmap.org","min_zoom":8.0,"shield_text":"3","ref":"P3"},"arcs":[512]},{"type":"MultiLineString","properties":{"kind":"major_road","network":"lv:national","sort_rank":381,"kind_detail":"trunk","is_bicycle_related":true,"bicycle_shield_text":"LV2","bicycle_network":"ncn","source":"openstreetmap.org","min_zoom":8.0,"landuse_kind":"park","shield_text":"3","ref":"A3"},"arcs":[[513],[514]]},{"type":"LineString","properties":{"kind":"path","sort_rank":354,"kind_detail":"pedestrian","is_bicycle_related":true,"bicycle_shield_text":null,"bicycle_network":"icn","source":"openstreetmap.org","min_zoom":8.0},"arcs":[515]},{"type":"LineString","properties":{"kind":"major_road","network":"lv:national","sort_rank":380,"kind_detail":"primary","is_bicycle_related":true,"source":"openstreetmap.org","min_zoom":8.0,"shield_text":"1","ref":"P1","id":34009383},"arcs":[516]},{"type":"MultiLineString","properties":{"bus_network":null,"network":"lv:national","sort_rank":381,"kind_detail":"trunk","kind":"major_road","source":"openstreetmap.org","min_zoom":8.0,"bus_shield_text":"A14","shield_text":"2","ref":"A2"},"arcs":[[517],[518]]},{"type":"LineString","properties":{"kind":"major_road","sort_rank":355,"kind_detail":"primary_link","is_bicycle_related":true,"bicycle_shield_text":"7","bicycle_network":"ncn","source":"openstreetmap.org","min_zoom":8.0,"is_link":true,"id":184327525},"arcs":[519]},{"type":"LineString","properties":{"bus_network":null,"network":"lv:national","sort_rank":381,"kind_detail":"trunk","is_bicycle_related":true,"kind":"major_road","bicycle_shield_text":"7","bicycle_network":"ncn","source":"openstreetmap.org","min_zoom":8.0,"bus_shield_text":"7197","shield_text":"6","ref":"A6;P8","id":299116307},"arcs":[520]},{"type":"MultiLineString","properties":{"bus_network":null,"sort_rank":380,"kind_detail":"primary","kind":"major_road","source":"openstreetmap.org","min_zoom":8.0,"bus_shield_text":"T23","landuse_kind":"urban_area"},"arcs":[[521],[522],[523]]},{"type":"MultiLineString","properties":{"bus_network":null,"sort_rank":380,"landuse_kind":"urban_area","kind":"major_road","source":"openstreetmap.org","min_zoom":8.0,"bus_shield_text":"A31","name:ru":"\u0443\u043b\u0438\u0446\u0430 \u042e\u0433\u043b\u0430\u0441","kind_detail":"primary"},"arcs":[[524],[525],[526]]},{"type":"LineString","properties":{"kind":"major_road","network":"lv:national","sort_rank":380,"kind_detail":"primary","is_bicycle_related":true,"bicycle_shield_text":"LV3","bicycle_network":"ncn","source":"openstreetmap.org","min_zoom":8.0,"landuse_kind":"urban_area","shield_text":"4","ref":"P4","id":266413516},"arcs":[527]},{"type":"MultiLineString","properties":{"kind":"minor_road","sort_rank":358,"kind_detail":"service","is_bicycle_related":true,"bicycle_shield_text":null,"bicycle_network":"icn","source":"openstreetmap.org","min_zoom":8.0},"arcs":[[528],[529]]},{"type":"LineString","properties":{"kind":"minor_road","sort_rank":360,"kind_detail":"residential","is_bicycle_related":true,"bicycle_shield_text":"EV11","bicycle_network":"icn","source":"openstreetmap.org","min_zoom":8.0,"landuse_kind":"urban_area","id":23134356},"arcs":[530]},{"type":"LineString","properties":{"bus_network":null,"sort_rank":380,"kind_detail":"primary","kind":"major_road","source":"openstreetmap.org","min_zoom":8.0,"bus_shield_text":"A56","landuse_kind":"urban_area"},"arcs":[531]},{"type":"MultiLineString","properties":{"bus_network":null,"network":"lv:national","sort_rank":381,"landuse_kind":"urban_area","kind":"major_road","source":"openstreetmap.org","min_zoom":8.0,"bus_shield_text":"A10","shield_text":"8","kind_detail":"trunk","ref":"A8;A10"},"arcs":[[532],[533]]},{"type":"LineString","properties":{"bus_network":null,"network":"lv:national","sort_rank":380,"kind_detail":"primary","is_bicycle_related":true,"kind":"major_road","bicycle_shield_text":null,"bicycle_network":"icn","source":"openstreetmap.org","min_zoom":8.0,"bus_shield_text":"7661","shield_text":"9","ref":"P9"},"arcs":[534]},{"type":"LineString","properties":{"bus_network":null,"network":"lv:regional","sort_rank":379,"kind_detail":"secondary","is_bicycle_related":true,"kind":"major_road","bicycle_shield_text":null,"bicycle_network":"icn","source":"openstreetmap.org","min_zoom":8.0,"bus_shield_text":"7514","shield_text":"101","name:ru":"\u0420\u0438\u0436\u0441\u043a\u0430\u044f \u0443\u043b\u0438\u0446\u0430","ref":"V101"},"arcs":[535]},{"type":"LineString","properties":{"bus_network":null,"network":"lv:national","sort_rank":381,"landuse_kind":"urban_area","kind":"major_road","name:ru":"\u041e\u0441\u0442\u0440\u043e\u0432\u043d\u043e\u0439 \u043c\u043e\u0441\u0442","source":"openstreetmap.org","min_zoom":8.0,"bus_shield_text":"T20","shield_text":"7","kind_detail":"trunk","ref":"A7;A8;A10"},"arcs":[536]},{"type":"MultiLineString","properties":{"bus_network":null,"sort_rank":380,"kind_detail":"primary","kind":"major_road","source":"openstreetmap.org","min_zoom":8.0,"bus_shield_text":"A16","name:ru":"\u0443\u043b\u0438\u0446\u0430 \u0411\u0438\u043a\u0435\u0440\u043d\u0438\u0435\u043a\u0443","landuse_kind":"urban_area"},"arcs":[[537],[538],[539]]},{"type":"LineString","properties":{"kind":"major_road","network":"lv:regional","sort_rank":379,"kind_detail":"secondary","is_bicycle_related":true,"bicycle_shield_text":"R1","bicycle_network":"icn","source":"openstreetmap.org","min_zoom":8.0,"shield_text":"291","ref":"V291","id":207310461},"arcs":[540]},{"type":"LineString","properties":{"kind":"major_road","network":"lv:national","sort_rank":381,"landuse_kind":"urban_area","source":"openstreetmap.org","min_zoom":8.0,"kind_detail":"trunk","shield_text":"5","ref":"A5"},"arcs":[541]},{"type":"LineString","properties":{"kind":"path","sort_rank":354,"landuse_kind":"urban_area","is_bicycle_related":true,"bicycle_shield_text":"R1","name:de":"Freiheitsboulevard","source":"openstreetmap.org","min_zoom":8.0,"kind_detail":"pedestrian","bicycle_network":"icn"},"arcs":[542]},{"type":"MultiLineString","properties":{"source":"openstreetmap.org","kind":"major_road","landuse_kind":"urban_area","sort_rank":380,"kind_detail":"primary","min_zoom":8.0,"name:ru":"\u043d\u0430\u0431\u0435\u0440\u0435\u0436\u043d\u0430\u044f 11 \u041d\u043e\u044f\u0431\u0440\u044f"},"arcs":[[543],[544],[545]]},{"type":"LineString","properties":{"kind":"major_road","network":"lv:national","sort_rank":380,"kind_detail":"primary","is_bicycle_related":true,"bicycle_shield_text":"EV11","bicycle_network":"icn","source":"openstreetmap.org","min_zoom":8.0,"shield_text":"3","ref":"P3"},"arcs":[546]},{"type":"LineString","properties":{"bus_network":null,"sort_rank":380,"kind_detail":"primary","kind":"major_road","source":"openstreetmap.org","min_zoom":8.0,"bus_shield_text":"A12","name:ru":"\u042e\u0436\u043d\u044b\u0439 \u043c\u043e\u0441\u0442","landuse_kind":"urban_area"},"arcs":[547]},{"type":"MultiLineString","properties":{"bus_network":null,"network":"lv:national","sort_rank":381,"kind_detail":"trunk","kind":"major_road","source":"openstreetmap.org","min_zoom":8.0,"bus_shield_text":"6317","shield_text":"6","ref":"A6"},"arcs":[[548],[549]]},{"type":"LineString","properties":{"bus_network":null,"network":"lv:national","sort_rank":380,"kind_detail":"primary","kind":"major_road","source":"openstreetmap.org","min_zoom":8.0,"bus_shield_text":"A56","shield_text":"132","landuse_kind":"urban_area","ref":"P132"},"arcs":[550]},{"type":"MultiLineString","properties":{"kind":"major_road","network":"lv:national","sort_rank":380,"kind_detail":"primary","source":"openstreetmap.org","min_zoom":8.0,"shield_text":"14","ref":"P14"},"arcs":[[551],[552],[553],[554]]},{"type":"LineString","properties":{"bus_network":null,"network":"lv:national","sort_rank":380,"kind_detail":"primary","is_bicycle_related":true,"kind":"major_road","bicycle_shield_text":"LV2","bicycle_network":"ncn","source":"openstreetmap.org","min_zoom":8.0,"bus_shield_text":"6829","shield_text":"10","ref":"P10"},"arcs":[555]},{"type":"MultiLineString","properties":{"kind":"major_road","network":"lv:national","sort_rank":380,"kind_detail":"primary","source":"openstreetmap.org","min_zoom":8.0,"landuse_kind":"park","shield_text":"20","ref":"P20"},"arcs":[[556],[557],[558],[559]]},{"type":"LineString","properties":{"bus_network":null,"network":"lv:national","sort_rank":381,"kind_detail":"trunk","kind":"major_road","source":"openstreetmap.org","min_zoom":8.0,"bus_shield_text":"A60","shield_text":"6","name:ru":"\u0443\u043b\u0438\u0446\u0430 \u041c\u0430\u0441\u043a\u0430\u0432\u0430\u0441","landuse_kind":"urban_area","ref":"A6"},"arcs":[560]},{"type":"LineString","properties":{"bus_network":null,"network":"lv:national","sort_rank":380,"kind_detail":"primary","kind":"major_road","source":"openstreetmap.org","min_zoom":8.0,"bus_shield_text":"6831","shield_text":"4","ref":"P4;P10"},"arcs":[561]},{"type":"LineString","properties":{"kind":"major_road","network":"lv:national","sort_rank":380,"kind_detail":"primary","source":"openstreetmap.org","min_zoom":8.0,"landuse_kind":"park","shield_text":"8","ref":"P8","id":39389242},"arcs":[562]},{"type":"MultiLineString","properties":{"kind":"path","sort_rank":354,"landuse_kind":"urban_area","is_bicycle_related":true,"bicycle_shield_text":null,"bicycle_network":"icn","source":"openstreetmap.org","min_zoom":8.0,"kind_detail":"path"},"arcs":[[563],[564],[565],[566],[567],[568]]},{"type":"LineString","properties":{"kind":"major_road","network":"lv:national","sort_rank":380,"kind_detail":"primary","bus_network":null,"source":"openstreetmap.org","min_zoom":8.0,"bus_shield_text":"6829","shield_text":"4","ref":"P4","id":37933414},"arcs":[569]},{"type":"LineString","properties":{"bus_network":null,"sort_rank":380,"kind_detail":"primary","kind":"major_road","source":"openstreetmap.org","min_zoom":8.0,"bus_shield_text":"A31","name:ru":"\u042e\u0436\u043d\u044b\u0439 \u043c\u043e\u0441\u0442","landuse_kind":"urban_area"},"arcs":[570]},{"type":"LineString","properties":{"kind":"major_road","network":"lv:regional","sort_rank":379,"kind_detail":"secondary","is_bicycle_related":true,"bicycle_shield_text":"R1","bicycle_network":"icn","source":"openstreetmap.org","min_zoom":8.0,"landuse_kind":"park","shield_text":"94","ref":"V94","id":10108496},"arcs":[571]},{"type":"LineString","properties":{"kind":"major_road","network":"lv:regional","sort_rank":379,"kind_detail":"secondary","is_bicycle_related":true,"bicycle_shield_text":"LV2","bicycle_network":"ncn","source":"openstreetmap.org","min_zoom":8.0,"shield_text":"58","ref":"V58"},"arcs":[572]},{"type":"LineString","properties":{"kind":"major_road","network":"lv:national","sort_rank":381,"kind_detail":"trunk","bus_network":null,"source":"openstreetmap.org","min_zoom":8.0,"bus_shield_text":"7197","shield_text":"6","name:ru":"\u0443\u043b\u0438\u0446\u0430 \u0414\u0430\u0443\u0433\u0430\u0432\u043f\u0438\u043b\u0441","ref":"A6","id":28009680},"arcs":[573]},{"type":"LineString","properties":{"bus_network":null,"network":"lv:national","sort_rank":355,"kind_detail":"primary_link","is_bicycle_related":true,"kind":"major_road","bicycle_shield_text":"LV2","bicycle_network":"ncn","source":"openstreetmap.org","min_zoom":8.0,"is_link":true,"bus_shield_text":"A51","shield_text":"4","ref":"P4"},"arcs":[574]},{"type":"LineString","properties":{"kind":"path","sort_rank":354,"kind_detail":"pedestrian","is_bicycle_related":true,"bicycle_shield_text":"R1","bicycle_network":"icn","source":"openstreetmap.org","min_zoom":8.0,"landuse_kind":"urban_area","name:ru":"\u0414\u043e\u043c\u0441\u043a\u0430\u044f \u043f\u043b\u043e\u0449\u0430\u0434\u044c","name:de":"Domplatz","id":29974513},"arcs":[575]},{"type":"MultiLineString","properties":{"bus_network":null,"network":"lv:national","sort_rank":380,"kind_detail":"primary","kind":"major_road","source":"openstreetmap.org","min_zoom":8.0,"bus_shield_text":"A11","shield_text":"1","landuse_kind":"urban_area","ref":"P1"},"arcs":[[576],[577],[578],[579]]},{"type":"MultiLineString","properties":{"bus_network":null,"network":"lv:national","sort_rank":381,"landuse_kind":"urban_area","kind":"major_road","source":"openstreetmap.org","min_zoom":8.0,"bus_shield_text":"A12","shield_text":"6","kind_detail":"trunk","ref":"A6"},"arcs":[[580],[581],[582]]},{"type":"LineString","properties":{"kind":"major_road","network":"lv:regional","sort_rank":379,"kind_detail":"secondary","is_bicycle_related":true,"bicycle_shield_text":"R1","bicycle_network":"icn","source":"openstreetmap.org","min_zoom":8.0,"landuse_kind":"park","shield_text":"283","ref":"V283"},"arcs":[583]},{"type":"LineString","properties":{"kind":"major_road","sort_rank":380,"kind_detail":"primary","bus_network":null,"source":"openstreetmap.org","min_zoom":8.0,"bus_shield_text":"T23","name:ru":"\u0443\u043b\u0438\u0446\u0430 \u0414\u0437\u0435\u043b\u0437\u0430\u0432\u0430\u0441","landuse_kind":"urban_area","id":4370179},"arcs":[584]},{"type":"LineString","properties":{"kind":"major_road","network":"lv:national","sort_rank":380,"kind_detail":"primary","is_bicycle_related":true,"bicycle_shield_text":"EV11","bicycle_network":"icn","source":"openstreetmap.org","min_zoom":8.0,"shield_text":"14","ref":"P14","id":207310466},"arcs":[585]},{"type":"LineString","properties":{"bus_network":null,"network":"lv:national","sort_rank":380,"kind_detail":"primary","kind":"major_road","source":"openstreetmap.org","min_zoom":8.0,"bus_shield_text":"A16","shield_text":"2","ref":"P2"},"arcs":[586]},{"type":"MultiLineString","properties":{"bus_network":null,"network":"lv:national","sort_rank":380,"kind_detail":"primary","kind":"major_road","source":"openstreetmap.org","min_zoom":8.0,"bus_shield_text":"A26","shield_text":"7","ref":"A7"},"arcs":[[587],[588],[589],[590]]},{"type":"LineString","properties":{"bus_network":null,"sort_rank":380,"kind_detail":"primary","kind":"major_road","source":"openstreetmap.org","min_zoom":8.0,"bus_shield_text":"T24","landuse_kind":"urban_area"},"arcs":[591]},{"type":"LineString","properties":{"bus_network":null,"sort_rank":379,"landuse_kind":"urban_area","is_bicycle_related":true,"kind":"major_road","bicycle_shield_text":null,"bicycle_network":"icn","source":"openstreetmap.org","min_zoom":8.0,"bus_shield_text":"A24","kind_detail":"secondary"},"arcs":[592]},{"type":"LineString","properties":{"kind":"path","sort_rank":354,"kind_detail":"track","is_bicycle_related":true,"bicycle_shield_text":"R1","bicycle_network":"icn","source":"openstreetmap.org","min_zoom":8.0},"arcs":[593]},{"type":"LineString","properties":{"kind":"major_road","sort_rank":379,"kind_detail":"secondary","is_bicycle_related":true,"bicycle_shield_text":"R1","bicycle_network":"icn","source":"openstreetmap.org","min_zoom":8.0},"arcs":[594]},{"type":"MultiLineString","properties":{"sort_rank":381,"source":"openstreetmap.org","min_zoom":8.0,"kind":"major_road","kind_detail":"trunk"},"arcs":[[595],[596]]},{"type":"LineString","properties":{"kind":"major_road","network":"lv:national","sort_rank":380,"kind_detail":"primary","source":"openstreetmap.org","min_zoom":8.0,"landuse_kind":"aerodrome","shield_text":"8","ref":"P8","id":299116313},"arcs":[597]},{"type":"MultiLineString","properties":{"bus_network":null,"network":"lv:national","sort_rank":380,"kind_detail":"primary","is_bicycle_related":true,"kind":"major_road","bicycle_shield_text":"LV3","bicycle_network":"ncn","source":"openstreetmap.org","min_zoom":8.0,"bus_shield_text":"7491","shield_text":"85","ref":"P85"},"arcs":[[598],[599]]},{"type":"MultiLineString","properties":{"kind":"major_road","network":"lv:national","sort_rank":381,"kind_detail":"trunk","source":"openstreetmap.org","min_zoom":8.0,"shield_text":"4","ref":"A4"},"arcs":[[600],[601],[602]]},{"type":"LineString","properties":{"kind":"major_road","network":"lv:regional","sort_rank":379,"kind_detail":"secondary","is_bicycle_related":true,"bicycle_shield_text":"7","bicycle_network":"ncn","source":"openstreetmap.org","min_zoom":8.0,"shield_text":"982","ref":"V982","id":121455089},"arcs":[603]},{"type":"LineString","properties":{"kind":"major_road","sort_rank":377,"kind_detail":"tertiary","is_bicycle_related":true,"bicycle_shield_text":"R1","bicycle_network":"icn","source":"openstreetmap.org","min_zoom":8.0,"landuse_kind":"urban_area","name:ru":"\u0443\u043b\u0438\u0446\u0430 \u0426\u0438\u0442\u0430\u0434\u0435\u043b\u0435\u0441","id":437451817},"arcs":[604]},{"type":"MultiLineString","properties":{"kind":"major_road","sort_rank":377,"kind_detail":"tertiary","is_bicycle_related":true,"bicycle_shield_text":"EV11","bicycle_network":"icn","source":"openstreetmap.org","min_zoom":8.0},"arcs":[[605],[606]]},{"type":"LineString","properties":{"bus_network":null,"sort_rank":380,"kind_detail":"primary","kind":"major_road","source":"openstreetmap.org","min_zoom":8.0,"bus_shield_text":"A22","name:ru":"\u043d\u0430\u0431\u0435\u0440\u0435\u0436\u043d\u0430\u044f 11 \u041d\u043e\u044f\u0431\u0440\u044f","landuse_kind":"urban_area"},"arcs":[607]},{"type":"MultiLineString","properties":{"kind":"minor_road","sort_rank":360,"kind_detail":"unclassified","is_bicycle_related":true,"bicycle_shield_text":"7","bicycle_network":"ncn","source":"openstreetmap.org","min_zoom":8.0},"arcs":[[608],[609]]},{"type":"LineString","properties":{"kind":"major_road","network":"lv:national","sort_rank":381,"kind_detail":"trunk","source":"openstreetmap.org","min_zoom":8.0,"shield_text":"6","ref":"A6","id":226594506},"arcs":[610]},{"type":"LineString","properties":{"kind":"major_road","sort_rank":380,"kind_detail":"primary","is_bicycle_related":true,"bus_network":null,"bicycle_shield_text":"LV3","bicycle_network":"ncn","source":"openstreetmap.org","min_zoom":8.0,"bus_shield_text":"A51","landuse_kind":"urban_area","id":330333302},"arcs":[611]},{"type":"LineString","properties":{"kind":"major_road","network":"lv:regional","sort_rank":379,"kind_detail":"secondary","is_bicycle_related":true,"bicycle_shield_text":"R1","bicycle_network":"icn","source":"openstreetmap.org","min_zoom":8.0,"landuse_kind":"park","shield_text":"92","ref":"V92"},"arcs":[612]},{"type":"LineString","properties":{"bus_network":null,"network":"lv:national","sort_rank":380,"kind_detail":"primary","is_bicycle_related":true,"kind":"major_road","bicycle_shield_text":"LV3","bicycle_network":"ncn","source":"openstreetmap.org","min_zoom":8.0,"bus_shield_text":"7491","shield_text":"85","landuse_kind":"protected_area","ref":"P85","id":8115140},"arcs":[613]},{"type":"MultiLineString","properties":{"bus_network":null,"network":"lv:national","sort_rank":381,"kind_detail":"trunk","kind":"major_road","source":"openstreetmap.org","min_zoom":8.0,"bus_shield_text":"M204","shield_text":"2","ref":"A2"},"arcs":[[614],[615]]},{"type":"LineString","properties":{"kind":"major_road","network":"lv:regional","sort_rank":379,"kind_detail":"secondary","is_bicycle_related":true,"bicycle_shield_text":"7","bicycle_network":"ncn","source":"openstreetmap.org","min_zoom":8.0,"shield_text":"996","ref":"V996","id":38097580},"arcs":[616]},{"type":"MultiLineString","properties":{"bus_network":null,"network":"lv:national","sort_rank":381,"kind_detail":"trunk","kind":"major_road","source":"openstreetmap.org","min_zoom":8.0,"bus_shield_text":"7197","shield_text":"6","ref":"A6"},"arcs":[[617],[618],[619],[620],[621],[622],[623]]},{"type":"MultiLineString","properties":{"kind":"major_road","sort_rank":379,"kind_detail":"secondary","is_bicycle_related":true,"bicycle_shield_text":"R1","bicycle_network":"icn","source":"openstreetmap.org","min_zoom":8.0,"landuse_kind":"park"},"arcs":[[624],[625]]},{"type":"LineString","properties":{"bus_network":null,"sort_rank":380,"kind_detail":"primary","kind":"major_road","source":"openstreetmap.org","min_zoom":8.0,"bus_shield_text":"A22","name:ru":"\u0443\u043b\u0438\u0446\u0430 13 \u042f\u043d\u0432\u0430\u0440\u044f","landuse_kind":"urban_area"},"arcs":[626]},{"type":"MultiLineString","properties":{"bus_network":null,"network":"lv:national","sort_rank":380,"kind_detail":"primary","kind":"major_road","source":"openstreetmap.org","min_zoom":8.0,"bus_shield_text":"A60","shield_text":"7","landuse_kind":"urban_area","ref":"A7"},"arcs":[[627],[628]]},{"type":"MultiLineString","properties":{"bus_network":null,"network":"lv:national","sort_rank":381,"kind_detail":"trunk","kind":"major_road","source":"openstreetmap.org","min_zoom":8.0,"bus_shield_text":"A48","shield_text":"2","landuse_kind":"urban_area","ref":"A2"},"arcs":[[629],[630],[631]]},{"type":"MultiLineString","properties":{"bus_network":null,"network":"lv:national","sort_rank":380,"kind_detail":"primary","is_bicycle_related":true,"kind":"major_road","bicycle_shield_text":"LV3","bicycle_network":"ncn","source":"openstreetmap.org","min_zoom":8.0,"bus_shield_text":"7491","shield_text":"87","ref":"P87"},"arcs":[[632],[633]]},{"type":"LineString","properties":{"bus_network":null,"network":"lv:national","sort_rank":380,"kind_detail":"primary","kind":"major_road","source":"openstreetmap.org","min_zoom":8.0,"bus_shield_text":"5836","shield_text":"5","ref":"P5"},"arcs":[634]},{"type":"MultiLineString","properties":{"bus_network":null,"network":"lv:national","sort_rank":381,"kind_detail":"trunk","kind":"major_road","source":"openstreetmap.org","min_zoom":8.0,"bus_shield_text":"231","shield_text":"8","ref":"A8"},"arcs":[[635],[636]]},{"type":"MultiLineString","properties":{"kind":"path","sort_rank":354,"kind_detail":"path","is_bicycle_related":true,"bicycle_shield_text":null,"bicycle_network":"icn","source":"openstreetmap.org","min_zoom":8.0},"arcs":[[637],[638],[639]]},{"type":"MultiLineString","properties":{"bus_network":null,"network":"lv:national","sort_rank":381,"kind_detail":"trunk","kind":"major_road","source":"openstreetmap.org","min_zoom":8.0,"bus_shield_text":"A31","shield_text":"6","landuse_kind":"urban_area","ref":"A6"},"arcs":[[640],[641],[642],[643],[644]]},{"type":"LineString","properties":{"bus_network":null,"network":"lv:national","sort_rank":381,"kind_detail":"trunk","kind":"major_road","source":"openstreetmap.org","min_zoom":8.0,"bus_shield_text":"7899","shield_text":"6","name:ru":"\u0420\u0438\u0436\u0441\u043a\u0430\u044f \u0443\u043b\u0438\u0446\u0430","ref":"A6"},"arcs":[645]},{"type":"LineString","properties":{"kind":"minor_road","sort_rank":360,"kind_detail":"residential","is_bicycle_related":true,"bicycle_shield_text":"LV3","bicycle_network":"ncn","source":"openstreetmap.org","min_zoom":8.0},"arcs":[646]},{"type":"LineString","properties":{"kind":"minor_road","sort_rank":360,"kind_detail":"unclassified","is_bicycle_related":true,"bicycle_shield_text":"R1","bicycle_network":"icn","source":"openstreetmap.org","min_zoom":8.0,"id":130965732},"arcs":[647]},{"type":"LineString","properties":{"bus_network":null,"network":"lv:national","sort_rank":381,"kind_detail":"trunk","kind":"major_road","source":"openstreetmap.org","min_zoom":8.0,"bus_shield_text":"6859","shield_text":"5","ref":"A5"},"arcs":[648]},{"type":"MultiLineString","properties":{"kind":"major_road","network":"lv:national","sort_rank":381,"kind_detail":"trunk","is_bicycle_related":true,"bicycle_shield_text":"LV3","bicycle_network":"ncn","source":"openstreetmap.org","min_zoom":8.0,"shield_text":"5","ref":"A5"},"arcs":[[649],[650]]},{"type":"MultiLineString","properties":{"kind":"path","sort_rank":354,"kind_detail":"footway","is_bicycle_related":true,"bicycle_shield_text":"7","bicycle_network":"ncn","source":"openstreetmap.org","min_zoom":8.0},"arcs":[[651],[652],[653],[654]]},{"type":"LineString","properties":{"kind":"major_road","sort_rank":380,"kind_detail":"primary","bus_network":null,"source":"openstreetmap.org","min_zoom":8.0,"bus_shield_text":"A16","landuse_kind":"urban_area","id":521576130},"arcs":[655]},{"type":"LineString","properties":{"kind":"major_road","network":"lv:regional","sort_rank":379,"kind_detail":"secondary","is_bicycle_related":true,"bicycle_shield_text":"R1","bicycle_network":"icn","source":"openstreetmap.org","min_zoom":8.0,"shield_text":"92","ref":"V92","id":22878458},"arcs":[656]},{"type":"MultiLineString","properties":{"bus_network":null,"sort_rank":380,"kind_detail":"primary","kind":"major_road","source":"openstreetmap.org","min_zoom":8.0,"bus_shield_text":"A58","landuse_kind":"park"},"arcs":[[657],[658]]},{"type":"MultiLineString","properties":{"source":"openstreetmap.org","bus_network":null,"bus_shield_text":"7491","sort_rank":380,"kind_detail":"primary","min_zoom":8.0,"kind":"major_road"},"arcs":[[659],[660]]},{"type":"MultiLineString","properties":{"kind":"major_road","network":"lv:national","sort_rank":381,"kind_detail":"trunk","source":"openstreetmap.org","min_zoom":8.0,"shield_text":"5","ref":"A5"},"arcs":[[661],[662],[663],[664],[665],[666],[667],[668],[669],[670],[671],[672]]},{"type":"LineString","properties":{"bus_network":null,"network":"lv:national","sort_rank":380,"kind_detail":"primary","kind":"major_road","source":"openstreetmap.org","min_zoom":8.0,"bus_shield_text":"A10","shield_text":"132","ref":"P132"},"arcs":[673]},{"type":"LineString","properties":{"bus_network":null,"network":"lv:national","sort_rank":381,"kind_detail":"trunk","kind":"major_road","source":"openstreetmap.org","min_zoom":8.0,"bus_shield_text":"A40","shield_text":"2","landuse_kind":"urban_area","ref":"A2"},"arcs":[674]},{"type":"LineString","properties":{"kind":"major_road","network":"lv:national","sort_rank":381,"kind_detail":"trunk","bus_network":null,"source":"openstreetmap.org","min_zoom":8.0,"bus_shield_text":"7197","shield_text":"6","landuse_kind":"protected_area","ref":"A6","id":22374703},"arcs":[675]},{"type":"LineString","properties":{"bus_network":null,"sort_rank":380,"kind_detail":"primary","kind":"major_road","source":"openstreetmap.org","min_zoom":8.0,"bus_shield_text":"T13","landuse_kind":"urban_area"},"arcs":[676]},{"type":"LineString","properties":{"bus_network":null,"sort_rank":377,"kind_detail":"tertiary","is_bicycle_related":true,"kind":"major_road","bicycle_shield_text":"7","bicycle_network":"ncn","source":"openstreetmap.org","min_zoom":8.0,"bus_shield_text":"2"},"arcs":[677]},{"type":"LineString","properties":{"kind":"major_road","network":"lv:national","sort_rank":381,"kind_detail":"trunk","bus_network":null,"source":"openstreetmap.org","min_zoom":8.0,"bus_shield_text":"A60","shield_text":"6","name:ru":"\u0443\u043b\u0438\u0446\u0430 \u041a\u0440\u0430\u0441\u0442\u0430","landuse_kind":"urban_area","ref":"A6","id":397259419},"arcs":[678]},{"type":"LineString","properties":{"kind":"major_road","network":"lv:national","sort_rank":380,"kind_detail":"primary","is_bicycle_related":true,"bicycle_shield_text":"EV11","bicycle_network":"icn","source":"openstreetmap.org","min_zoom":8.0,"landuse_kind":"park","shield_text":"14","ref":"P14","id":207310466},"arcs":[679]},{"type":"MultiLineString","properties":{"bus_network":null,"network":"lv:regional","sort_rank":379,"kind_detail":"secondary","is_bicycle_related":true,"kind":"major_road","bicycle_shield_text":null,"bicycle_network":"icn","source":"openstreetmap.org","min_zoom":8.0,"bus_shield_text":"7514","shield_text":"101","ref":"V101"},"arcs":[[680],[681],[682]]},{"type":"MultiLineString","properties":{"bus_network":null,"network":"lv:national","sort_rank":380,"kind_detail":"primary","kind":"major_road","source":"openstreetmap.org","min_zoom":8.0,"bus_shield_text":"A34","shield_text":"4","name:ru":"\u0443\u043b\u0438\u0446\u0430 \u041b\u0443\u0431\u0430\u043d\u0430\u0441","landuse_kind":"urban_area","ref":"P4"},"arcs":[[683],[684]]},{"type":"MultiLineString","properties":{"kind":"major_road","network":"lv:national","sort_rank":380,"kind_detail":"primary","source":"openstreetmap.org","min_zoom":8.0,"shield_text":"91","name:ru":"\u0420\u0438\u0436\u0441\u043a\u0430\u044f \u0443\u043b\u0438\u0446\u0430","ref":"P91"},"arcs":[[685],[686]]},{"type":"LineString","properties":{"bus_network":null,"network":"lv:national","sort_rank":381,"kind_detail":"trunk","is_bicycle_related":true,"kind":"major_road","bicycle_shield_text":"R1","bicycle_network":"icn","source":"openstreetmap.org","min_zoom":8.0,"bus_shield_text":"7661","shield_text":"3","landuse_kind":"park","ref":"A3"},"arcs":[687]},{"type":"LineString","properties":{"kind":"major_road","sort_rank":380,"kind_detail":"primary","bus_network":null,"source":"openstreetmap.org","min_zoom":8.0,"bus_shield_text":"A22","name:ru":"\u0443\u043b\u0438\u0446\u0430 \u041b\u0438\u0435\u043b\u0438\u0440\u0431\u0435\u0441","landuse_kind":"urban_area","id":168913375},"arcs":[688]},{"type":"LineString","properties":{"kind":"major_road","network":"lv:national","sort_rank":380,"kind_detail":"primary","source":"openstreetmap.org","min_zoom":8.0,"shield_text":"92","ref":"P92"},"arcs":[689]},{"type":"LineString","properties":{"kind":"major_road","sort_rank":379,"kind_detail":"secondary","is_bicycle_related":true,"bicycle_shield_text":"LV2","bicycle_network":"ncn","source":"openstreetmap.org","min_zoom":8.0,"landuse_kind":"urban_area"},"arcs":[690]},{"type":"LineString","properties":{"bus_network":null,"network":"lv:national","sort_rank":380,"kind_detail":"primary","kind":"major_road","source":"openstreetmap.org","min_zoom":8.0,"bus_shield_text":"5530","shield_text":"5","ref":"P5"},"arcs":[691]},{"type":"MultiLineString","properties":{"source":"openstreetmap.org","kind":"major_road","kind_detail":"trunk","sort_rank":381,"landuse_kind":"urban_area","min_zoom":8.0},"arcs":[[692],[693]]},{"type":"MultiLineString","properties":{"bus_network":null,"network":"lv:national","sort_rank":381,"kind_detail":"trunk","is_bicycle_related":true,"kind":"major_road","bicycle_shield_text":null,"bicycle_network":"icn","source":"openstreetmap.org","min_zoom":8.0,"bus_shield_text":"7514","shield_text":"1","ref":"A1"},"arcs":[[694],[695]]},{"type":"LineString","properties":{"bus_network":null,"network":"lv:national","sort_rank":381,"kind_detail":"trunk","kind":"major_road","source":"openstreetmap.org","min_zoom":8.0,"bus_shield_text":"A28","shield_text":"2","ref":"A2"},"arcs":[696]},{"type":"LineString","properties":{"bus_network":null,"network":"lv:national","sort_rank":381,"landuse_kind":"urban_area","kind":"major_road","source":"openstreetmap.org","min_zoom":8.0,"bus_shield_text":"231","shield_text":"8","kind_detail":"trunk","ref":"A8"},"arcs":[697]},{"type":"LineString","properties":{"kind":"major_road","sort_rank":379,"kind_detail":"secondary","is_bicycle_related":true,"bicycle_shield_text":"EV11","bicycle_network":"icn","source":"openstreetmap.org","min_zoom":8.0,"landuse_kind":"urban_area","name:ru":"\u0420\u0438\u0436\u0441\u043a\u0430\u044f \u0443\u043b\u0438\u0446\u0430","id":49292579},"arcs":[698]},{"type":"MultiLineString","properties":{"bus_network":null,"network":"lv:national","sort_rank":380,"kind_detail":"primary","kind":"major_road","source":"openstreetmap.org","min_zoom":8.0,"bus_shield_text":"A2","shield_text":"1","name:ru":"\u0413\u0430\u043d\u0438\u0431\u0443 \u0434\u0430\u043c\u0431\u0438\u0441","landuse_kind":"urban_area","ref":"P1"},"arcs":[[699],[700],[701]]},{"type":"LineString","properties":{"bus_network":null,"sort_rank":379,"kind_detail":"secondary","is_bicycle_related":true,"kind":"major_road","bicycle_shield_text":null,"bicycle_network":"icn","source":"openstreetmap.org","min_zoom":8.0,"bus_shield_text":"7514","ref":"V101"},"arcs":[702]},{"type":"MultiLineString","properties":{"kind":"major_road","network":"lv:national","sort_rank":380,"kind_detail":"primary","is_bicycle_related":true,"bicycle_shield_text":"R1","bicycle_network":"icn","source":"openstreetmap.org","min_zoom":8.0,"shield_text":"8","ref":"P8"},"arcs":[[703],[704],[705]]},{"type":"LineString","properties":{"kind":"major_road","sort_rank":380,"kind_detail":"primary","bus_network":null,"source":"openstreetmap.org","min_zoom":8.0,"bus_shield_text":"A12","name:ru":"\u0443\u043b\u0438\u0446\u0430 \u041a\u0440\u0430\u0441\u0442\u0430","landuse_kind":"urban_area","id":23205270},"arcs":[706]},{"type":"LineString","properties":{"kind":"major_road","name:lt":"Vantinis tiltas","sort_rank":380,"kind_detail":"primary","bus_network":null,"source":"openstreetmap.org","min_zoom":8.0,"bus_shield_text":"A13","name:ru":"\u0412\u0430\u043d\u0442\u043e\u0432\u044b\u0439 \u043c\u043e\u0441\u0442","landuse_kind":"urban_area","id":168542236},"arcs":[707]},{"type":"LineString","properties":{"bus_network":null,"network":"lv:national","sort_rank":381,"kind_detail":"trunk","is_bicycle_related":true,"kind":"major_road","bicycle_shield_text":"LV3","bicycle_network":"ncn","source":"openstreetmap.org","min_zoom":8.0,"bus_shield_text":"7491","shield_text":"7","ref":"A7","id":190193829},"arcs":[708]},{"type":"MultiLineString","properties":{"kind":"major_road","network":"lv:national","sort_rank":379,"landuse_kind":"urban_area","is_bicycle_related":true,"bicycle_shield_text":"EV11","bicycle_network":"icn","source":"openstreetmap.org","min_zoom":8.0,"kind_detail":"secondary","shield_text":"30","ref":"P30"},"arcs":[[709],[710],[711]]},{"type":"LineString","properties":{"kind":"major_road","network":"lv:regional","sort_rank":377,"kind_detail":"tertiary","is_bicycle_related":true,"bicycle_shield_text":"R1","bicycle_network":"icn","source":"openstreetmap.org","min_zoom":8.0,"landuse_kind":"park","shield_text":"83","ref":"V83"},"arcs":[712]},{"type":"MultiLineString","properties":{"bus_network":null,"network":"lv:national","sort_rank":381,"kind_detail":"trunk","kind":"major_road","source":"openstreetmap.org","min_zoom":8.0,"bus_shield_text":"5835","shield_text":"6","ref":"A6"},"arcs":[[713],[714],[715],[716],[717],[718],[719],[720],[721]]},{"type":"MultiLineString","properties":{"kind":"major_road","sort_rank":379,"kind_detail":"secondary","is_bicycle_related":true,"bicycle_shield_text":"LV2","bicycle_network":"ncn","source":"openstreetmap.org","min_zoom":8.0},"arcs":[[722],[723]]},{"type":"LineString","properties":{"kind":"major_road","sort_rank":355,"kind_detail":"primary_link","is_bicycle_related":true,"bicycle_shield_text":"LV2","bicycle_network":"ncn","source":"openstreetmap.org","min_zoom":8.0,"is_link":true,"id":194341058},"arcs":[724]},{"type":"LineString","properties":{"kind":"path","sort_rank":354,"kind_detail":"pedestrian","is_bicycle_related":true,"bicycle_shield_text":null,"bicycle_network":"icn","source":"openstreetmap.org","min_zoom":8.0,"landuse_kind":"park"},"arcs":[725]},{"type":"MultiLineString","properties":{"bus_network":null,"network":"lv:national","sort_rank":381,"kind_detail":"trunk","kind":"major_road","source":"openstreetmap.org","min_zoom":8.0,"bus_shield_text":"A32","shield_text":"10","name:ru":"\u0420\u0438\u0433\u0430 \u2014 \u0412\u0435\u043d\u0442\u0441\u043f\u0438\u043b\u0441","ref":"A10"},"arcs":[[726],[727]]},{"type":"LineString","properties":{"kind":"major_road","network":"lv:regional","sort_rank":379,"kind_detail":"secondary","is_bicycle_related":true,"bicycle_shield_text":"EV11","bicycle_network":"icn","source":"openstreetmap.org","min_zoom":8.0,"shield_text":"316","ref":"V316","id":207313012},"arcs":[728]},{"type":"LineString","properties":{"kind":"major_road","network":"lv:national","sort_rank":380,"kind_detail":"primary","source":"openstreetmap.org","min_zoom":8.0,"shield_text":"86","ref":"P86"},"arcs":[729]},{"type":"LineString","properties":{"bus_network":null,"network":"lv:national","sort_rank":381,"kind_detail":"trunk","is_bicycle_related":true,"kind":"major_road","bicycle_shield_text":"7","bicycle_network":"ncn","source":"openstreetmap.org","min_zoom":8.0,"bus_shield_text":"7899","shield_text":"6","ref":"A6;P8","id":184327531},"arcs":[730]},{"type":"LineString","properties":{"kind":"major_road","network":"lv:national","sort_rank":380,"kind_detail":"primary","source":"openstreetmap.org","min_zoom":8.0,"shield_text":"91","id":-183886,"osm_relation":true},"arcs":[731]},{"type":"MultiLineString","properties":{"bus_network":null,"sort_rank":380,"kind_detail":"primary","kind":"major_road","source":"openstreetmap.org","min_zoom":8.0,"bus_shield_text":"A2","landuse_kind":"urban_area"},"arcs":[[732],[733]]},{"type":"LineString","properties":{"kind":"major_road","network":"lv:national","sort_rank":381,"kind_detail":"trunk","is_bicycle_related":true,"bicycle_shield_text":"LV3","bicycle_network":"ncn","source":"openstreetmap.org","min_zoom":8.0,"shield_text":"5","ref":"A5;A7","id":190193828},"arcs":[734]},{"type":"MultiLineString","properties":{"bus_network":null,"network":"lv:national","sort_rank":380,"kind_detail":"primary","kind":"major_road","source":"openstreetmap.org","min_zoom":8.0,"bus_shield_text":"A2","shield_text":"1","landuse_kind":"park","ref":"P1"},"arcs":[[735],[736],[737],[738],[739]]},{"type":"LineString","properties":{"kind":"major_road","network":"lv:national","sort_rank":380,"kind_detail":"primary","is_bicycle_related":true,"bicycle_shield_text":"LV3","bicycle_network":"ncn","source":"openstreetmap.org","min_zoom":8.0,"shield_text":"8","ref":"P8"},"arcs":[740]},{"type":"LineString","properties":{"kind":"major_road","network":"lv:regional","sort_rank":380,"kind_detail":"primary","is_bicycle_related":true,"bicycle_shield_text":"LV2","bicycle_network":"ncn","source":"openstreetmap.org","min_zoom":8.0,"shield_text":"67","ref":"V67"},"arcs":[741]},{"type":"LineString","properties":{"kind":"major_road","sort_rank":380,"kind_detail":"primary","bus_network":null,"source":"openstreetmap.org","min_zoom":8.0,"bus_shield_text":"A22","landuse_kind":"urban_area","id":23607228},"arcs":[742]},{"type":"LineString","properties":{"kind":"major_road","network":"lv:national","sort_rank":380,"kind_detail":"primary","is_bicycle_related":true,"bicycle_shield_text":"LV2","bicycle_network":"ncn","source":"openstreetmap.org","min_zoom":8.0,"landuse_kind":"park","shield_text":"8","ref":"P8","id":23133353},"arcs":[743]},{"type":"LineString","properties":{"kind":"major_road","network":"lv:national","sort_rank":380,"kind_detail":"primary","is_bicycle_related":true,"bicycle_shield_text":"EV11","bicycle_network":"icn","source":"openstreetmap.org","min_zoom":8.0,"shield_text":"32","ref":"P32"},"arcs":[744]},{"type":"MultiLineString","properties":{"kind":"major_road","network":"lv:national","sort_rank":380,"kind_detail":"primary","is_bicycle_related":true,"bicycle_shield_text":null,"bicycle_network":"icn","source":"openstreetmap.org","min_zoom":8.0,"shield_text":"1","ref":"P1"},"arcs":[[745],[746],[747],[748]]},{"type":"MultiLineString","properties":{"bus_network":null,"network":"lv:national","sort_rank":380,"kind_detail":"primary","kind":"major_road","source":"openstreetmap.org","min_zoom":8.0,"bus_shield_text":"A22","shield_text":"133","landuse_kind":"urban_area","ref":"P133"},"arcs":[[749],[750],[751]]},{"type":"LineString","properties":{"bus_network":null,"network":"lv:national","sort_rank":380,"kind_detail":"primary","kind":"major_road","source":"openstreetmap.org","min_zoom":8.0,"bus_shield_text":"T24","shield_text":"1","landuse_kind":"urban_area","ref":"A2;P1"},"arcs":[752]},{"type":"LineString","properties":{"bus_network":null,"network":"lv:national","sort_rank":381,"kind_detail":"trunk","is_bicycle_related":true,"kind":"major_road","bicycle_shield_text":"R1","bicycle_network":"icn","source":"openstreetmap.org","min_zoom":8.0,"bus_shield_text":"A50","shield_text":"2","landuse_kind":"urban_area","ref":"A2"},"arcs":[753]},{"type":"MultiLineString","properties":{"kind":"major_road","network":"lv:national","sort_rank":380,"kind_detail":"primary","source":"openstreetmap.org","min_zoom":8.0,"shield_text":"87","osm_relation":true},"arcs":[[754],[755],[756],[757],[758]]},{"type":"LineString","properties":{"kind":"major_road","network":"lv:national","sort_rank":380,"kind_detail":"primary","source":"openstreetmap.org","min_zoom":8.0,"shield_text":"1","ref":"P1"},"arcs":[759]},{"type":"MultiLineString","properties":{"kind":"major_road","network":"lv:national","sort_rank":381,"kind_detail":"trunk","source":"openstreetmap.org","min_zoom":8.0,"shield_text":"9","ref":"A9"},"arcs":[[760],[761],[762],[763],[764]]},{"type":"LineString","properties":{"kind":"major_road","network":"lv:national","sort_rank":380,"kind_detail":"primary","is_bicycle_related":true,"bicycle_shield_text":null,"bicycle_network":"icn","source":"openstreetmap.org","min_zoom":8.0,"shield_text":"6","ref":"P6"},"arcs":[765]},{"type":"LineString","properties":{"bus_network":null,"network":"lv:national","sort_rank":380,"kind_detail":"primary","kind":"major_road","source":"openstreetmap.org","min_zoom":8.0,"bus_shield_text":"A31","shield_text":"4","name:ru":"\u042e\u0436\u043d\u044b\u0439 \u043c\u043e\u0441\u0442","landuse_kind":"urban_area","ref":"P4"},"arcs":[766]},{"type":"LineString","properties":{"kind":"major_road","network":"lv:national","sort_rank":381,"kind_detail":"trunk","source":"openstreetmap.org","min_zoom":8.0,"shield_text":"7","name:ru":"\u0420\u0438\u0436\u0441\u043a\u0430\u044f \u0443\u043b\u0438\u0446\u0430","ref":"A7"},"arcs":[767]},{"type":"LineString","properties":{"kind":"major_road","network":"lv:national","sort_rank":380,"kind_detail":"primary","source":"openstreetmap.org","min_zoom":8.0,"shield_text":"31","ref":"P31"},"arcs":[768]},{"type":"LineString","properties":{"bus_network":null,"network":"lv:national","sort_rank":381,"kind_detail":"trunk","kind":"major_road","source":"openstreetmap.org","min_zoom":8.0,"bus_shield_text":"A22","shield_text":"10","landuse_kind":"urban_area","ref":"A10"},"arcs":[769]},{"type":"LineString","properties":{"bus_network":null,"network":"lv:national","sort_rank":381,"kind_detail":"trunk","is_bicycle_related":true,"kind":"major_road","bicycle_shield_text":"R1","bicycle_network":"icn","source":"openstreetmap.org","min_zoom":8.0,"bus_shield_text":"7661","shield_text":"3","ref":"A3"},"arcs":[770]},{"type":"MultiLineString","properties":{"bus_network":null,"network":"lv:national","sort_rank":381,"kind_detail":"trunk","kind":"major_road","source":"openstreetmap.org","min_zoom":8.0,"bus_shield_text":"M233","shield_text":"8","landuse_kind":"urban_area","ref":"A8;A10"},"arcs":[[771],[772]]},{"type":"LineString","properties":{"bus_network":null,"name:en":"Boulevard of Freedom","sort_rank":381,"kind_detail":"trunk","kind":"major_road","name:de":"Freiheitsboulevard","source":"openstreetmap.org","min_zoom":8.0,"bus_shield_text":"A50","landuse_kind":"urban_area"},"arcs":[773]},{"type":"MultiLineString","properties":{"bus_network":null,"sort_rank":380,"kind_detail":"primary","kind":"major_road","source":"openstreetmap.org","min_zoom":8.0,"bus_shield_text":"A48","landuse_kind":"urban_area"},"arcs":[[774],[775]]},{"type":"LineString","properties":{"kind":"major_road","network":"lv:national","sort_rank":381,"landuse_kind":"urban_area","source":"openstreetmap.org","min_zoom":8.0,"kind_detail":"trunk","shield_text":"6","ref":"A6;A7;A8;A10"},"arcs":[776]},{"type":"LineString","properties":{"kind":"major_road","sort_rank":355,"kind_detail":"primary_link","is_bicycle_related":true,"bus_network":null,"bicycle_shield_text":"7","bicycle_network":"ncn","source":"openstreetmap.org","min_zoom":8.0,"is_link":true,"bus_shield_text":"7661","id":194341056},"arcs":[777]},{"type":"MultiLineString","properties":{"bus_network":null,"sort_rank":380,"kind_detail":"primary","kind":"major_road","source":"openstreetmap.org","min_zoom":8.0,"bus_shield_text":"A51","name:ru":"\u0443\u043b\u0438\u0446\u0430 \u0421\u0430\u0442\u0435\u043a\u043b\u0435\u0441","landuse_kind":"urban_area"},"arcs":[[778],[779],[780]]},{"type":"MultiLineString","properties":{"bus_network":null,"network":"lv:national","sort_rank":380,"kind_detail":"primary","kind":"major_road","source":"openstreetmap.org","min_zoom":8.0,"bus_shield_text":"A13","shield_text":"4","name:ru":"\u0443\u043b\u0438\u0446\u0430 \u041b\u0443\u0431\u0430\u043d\u0430\u0441","landuse_kind":"urban_area","ref":"P4"},"arcs":[[781],[782],[783]]},{"type":"LineString","properties":{"source":"openstreetmap.org","bus_network":null,"bus_shield_text":"A14","sort_rank":380,"kind_detail":"primary","min_zoom":8.0,"kind":"major_road"},"arcs":[784]},{"type":"LineString","properties":{"bus_network":null,"sort_rank":380,"kind_detail":"primary","kind":"major_road","source":"openstreetmap.org","min_zoom":8.0,"bus_shield_text":"T18","landuse_kind":"urban_area"},"arcs":[785]},{"type":"LineString","properties":{"kind":"major_road","sort_rank":355,"kind_detail":"trunk_link","is_bicycle_related":true,"bus_network":null,"bicycle_shield_text":"R1","bicycle_network":"icn","source":"openstreetmap.org","min_zoom":8.0,"is_link":true,"bus_shield_text":"7661","landuse_kind":"park","id":10108493},"arcs":[786]},{"type":"MultiLineString","properties":{"kind":"major_road","network":"lv:national","sort_rank":380,"kind_detail":"primary","source":"openstreetmap.org","min_zoom":8.0,"shield_text":"32","ref":"P32"},"arcs":[[787],[788],[789],[790],[791]]},{"type":"MultiLineString","properties":{"bus_network":null,"sort_rank":380,"kind_detail":"primary","kind":"major_road","source":"openstreetmap.org","min_zoom":8.0,"bus_shield_text":"A57","landuse_kind":"urban_area"},"arcs":[[792],[793]]},{"type":"MultiLineString","properties":{"bus_network":null,"sort_rank":380,"kind_detail":"primary","kind":"major_road","source":"openstreetmap.org","min_zoom":8.0,"bus_shield_text":"A47","landuse_kind":"urban_area"},"arcs":[[794],[795]]},{"type":"MultiLineString","properties":{"bus_network":null,"network":"lv:national","sort_rank":380,"kind_detail":"primary","kind":"major_road","source":"openstreetmap.org","min_zoom":8.0,"bus_shield_text":"A23","shield_text":"7","ref":"A7"},"arcs":[[796],[797],[798],[799]]},{"type":"MultiLineString","properties":{"kind":"major_road","network":"lv:national","sort_rank":380,"kind_detail":"primary","source":"openstreetmap.org","min_zoom":8.0,"landuse_kind":"park","shield_text":"14","ref":"P14"},"arcs":[[800],[801],[802],[803],[804]]},{"type":"LineString","properties":{"kind":"major_road","network":"lv:national","sort_rank":381,"kind_detail":"trunk","source":"openstreetmap.org","min_zoom":8.0,"shield_text":"1","ref":"A1 E67","id":129139401},"arcs":[805]},{"type":"LineString","properties":{"kind":"major_road","network":"lv:regional","sort_rank":379,"kind_detail":"secondary","is_bicycle_related":true,"bicycle_shield_text":"R1","bicycle_network":"icn","source":"openstreetmap.org","min_zoom":8.0,"shield_text":"94","ref":"V94","id":10108496},"arcs":[806]},{"type":"LineString","properties":{"bus_network":null,"network":"lv:national","sort_rank":381,"kind_detail":"trunk","kind":"major_road","source":"openstreetmap.org","min_zoom":8.0,"bus_shield_text":"A31","shield_text":"6","name:ru":"\u0443\u043b\u0438\u0446\u0430 \u041a\u0440\u0430\u0441\u0442\u0430","landuse_kind":"urban_area","ref":"A6"},"arcs":[807]},{"type":"LineString","properties":{"kind":"major_road","network":"lv:regional","sort_rank":379,"kind_detail":"secondary","is_bicycle_related":true,"bicycle_shield_text":"7","bicycle_network":"ncn","source":"openstreetmap.org","min_zoom":8.0,"shield_text":"969","ref":"V969","id":11629093},"arcs":[808]},{"type":"LineString","properties":{"kind":"minor_road","sort_rank":360,"kind_detail":"living_street","is_bicycle_related":true,"bicycle_shield_text":"R1","bicycle_network":"icn","source":"openstreetmap.org","min_zoom":8.0,"landuse_kind":"urban_area","name:ru":"\u043f\u043b\u043e\u0449\u0430\u0434\u044c \u041f\u0438\u043b\u0441","id":130848162},"arcs":[809]},{"type":"LineString","properties":{"kind":"major_road","sort_rank":377,"kind_detail":"tertiary","is_bicycle_related":true,"bicycle_shield_text":null,"bicycle_network":"icn","source":"openstreetmap.org","min_zoom":8.0,"landuse_kind":"urban_area"},"arcs":[810]},{"type":"LineString","properties":{"kind":"path","sort_rank":354,"kind_detail":"path","is_bicycle_related":true,"bicycle_shield_text":"7","bicycle_network":"ncn","source":"openstreetmap.org","min_zoom":8.0,"id":195513054},"arcs":[811]},{"type":"LineString","properties":{"kind":"major_road","network":"lv:national","sort_rank":380,"kind_detail":"primary","source":"openstreetmap.org","min_zoom":8.0,"landuse_kind":"protected_area","shield_text":"32","ref":"P32"},"arcs":[812]},{"type":"LineString","properties":{"kind":"major_road","sort_rank":380,"kind_detail":"primary","bus_network":null,"source":"openstreetmap.org","min_zoom":8.0,"bus_shield_text":"A23","landuse_kind":"urban_area","id":37262925},"arcs":[813]},{"type":"LineString","properties":{"kind":"major_road","network":"lv:national","sort_rank":380,"kind_detail":"primary","source":"openstreetmap.org","min_zoom":8.0,"shield_text":"6","ref":"P6"},"arcs":[814]},{"type":"MultiLineString","properties":{"bus_network":null,"network":"lv:national","sort_rank":381,"landuse_kind":"urban_area","kind":"major_road","source":"openstreetmap.org","min_zoom":8.0,"bus_shield_text":"A32","shield_text":"10","kind_detail":"trunk","ref":"A10"},"arcs":[[815],[816],[817],[818],[819]]},{"type":"LineString","properties":{"kind":"major_road","network":"lv:national","sort_rank":380,"kind_detail":"primary","source":"openstreetmap.org","min_zoom":8.0,"shield_text":"32","ref":"P32;V60","id":45234200},"arcs":[820]},{"type":"MultiLineString","properties":{"kind":"path","sort_rank":354,"kind_detail":"cycleway","is_bicycle_related":true,"bicycle_shield_text":"7","bicycle_network":"ncn","source":"openstreetmap.org","min_zoom":8.0},"arcs":[[821],[822]]},{"type":"LineString","properties":{"bus_network":null,"sort_rank":380,"landuse_kind":"urban_area","kind":"major_road","source":"openstreetmap.org","min_zoom":8.0,"bus_shield_text":"231","name:ru":"\u0443\u043b\u0438\u0446\u0430 \u041a\u0440\u0430\u0441\u0442\u0430","kind_detail":"primary"},"arcs":[823]},{"type":"MultiLineString","properties":{"kind":"path","sort_rank":354,"landuse_kind":"urban_area","is_bicycle_related":true,"bicycle_shield_text":"R1","bicycle_network":"icn","source":"openstreetmap.org","min_zoom":8.0,"kind_detail":"pedestrian"},"arcs":[[824],[825],[826],[827]]},{"type":"LineString","properties":{"kind":"major_road","network":"lv:national","sort_rank":381,"kind_detail":"trunk","bus_network":null,"source":"openstreetmap.org","min_zoom":8.0,"bus_shield_text":"A23","shield_text":"7","ref":"A7","id":279722459},"arcs":[828]},{"type":"MultiLineString","properties":{"bus_network":null,"network":"lv:national","sort_rank":381,"kind_detail":"trunk","kind":"major_road","source":"openstreetmap.org","min_zoom":8.0,"bus_shield_text":"M203","shield_text":"2","ref":"A2"},"arcs":[[829],[830]]},{"type":"LineString","properties":{"bus_network":null,"network":"lv:national","sort_rank":380,"kind_detail":"primary","is_bicycle_related":true,"kind":"major_road","bicycle_shield_text":"LV3","bicycle_network":"ncn","source":"openstreetmap.org","min_zoom":8.0,"bus_shield_text":"7491","shield_text":"7","ref":"A7"},"arcs":[831]},{"type":"MultiLineString","properties":{"bus_network":null,"network":"lv:national","sort_rank":381,"kind_detail":"trunk","kind":"major_road","source":"openstreetmap.org","min_zoom":8.0,"bus_shield_text":"A32","shield_text":"10","ref":"A10"},"arcs":[[832],[833],[834]]},{"type":"LineString","properties":{"bus_network":null,"network":"lv:national","sort_rank":381,"kind_detail":"trunk","kind":"major_road","source":"openstreetmap.org","min_zoom":8.0,"bus_shield_text":"7491","shield_text":"5","ref":"A5"},"arcs":[835]},{"type":"LineString","properties":{"kind":"major_road","sort_rank":379,"kind_detail":"secondary","is_bicycle_related":true,"bicycle_shield_text":"EV11","bicycle_network":"icn","source":"openstreetmap.org","min_zoom":8.0,"landuse_kind":"urban_area"},"arcs":[836]},{"type":"MultiLineString","properties":{"bus_network":null,"network":"lv:national","sort_rank":380,"kind_detail":"primary","kind":"major_road","source":"openstreetmap.org","min_zoom":8.0,"bus_shield_text":"A34","shield_text":"4","landuse_kind":"urban_area","ref":"P4"},"arcs":[[837],[838]]},{"type":"LineString","properties":{"bus_network":null,"sort_rank":380,"kind_detail":"primary","kind":"major_road","source":"openstreetmap.org","min_zoom":8.0,"bus_shield_text":"A51","name:ru":"\u0443\u043b\u0438\u0446\u0430 \u0412\u0430\u043b\u043c\u0438\u0435\u0440\u0430\u0441","landuse_kind":"urban_area"},"arcs":[839]},{"type":"MultiLineString","properties":{"kind":"major_road","network":"lv:national","sort_rank":380,"kind_detail":"primary","source":"openstreetmap.org","min_zoom":8.0,"landuse_kind":"urban_area","shield_text":"1","ref":"P1"},"arcs":[[840],[841]]},{"type":"MultiLineString","properties":{"kind":"major_road","network":"lv:national","sort_rank":380,"kind_detail":"primary","source":"openstreetmap.org","min_zoom":8.0,"shield_text":"4","ref":"P4"},"arcs":[[842],[843]]},{"type":"LineString","properties":{"bus_network":null,"sort_rank":355,"kind_detail":"trunk_link","is_bicycle_related":true,"kind":"major_road","bicycle_shield_text":null,"bicycle_network":"icn","source":"openstreetmap.org","min_zoom":8.0,"is_link":true,"bus_shield_text":"7514"},"arcs":[844]},{"type":"MultiLineString","properties":{"source":"openstreetmap.org","kind":"major_road","landuse_kind":"urban_area","sort_rank":380,"kind_detail":"primary","min_zoom":8.0},"arcs":[[845],[846],[847],[848],[849],[850],[851],[852],[853],[854]]},{"type":"MultiLineString","properties":{"kind":"major_road","sort_rank":377,"kind_detail":"tertiary","is_bicycle_related":true,"bicycle_shield_text":"7","bicycle_network":"ncn","source":"openstreetmap.org","min_zoom":8.0},"arcs":[[855],[856],[857]]},{"type":"LineString","properties":{"kind":"major_road","network":"lv:national","sort_rank":380,"kind_detail":"primary","is_bicycle_related":true,"bicycle_shield_text":"EV11","bicycle_network":"icn","source":"openstreetmap.org","min_zoom":8.0,"shield_text":"8","ref":"P8","id":207313015},"arcs":[858]},{"type":"MultiLineString","properties":{"bus_network":null,"sort_rank":380,"kind_detail":"primary","kind":"major_road","source":"openstreetmap.org","min_zoom":8.0,"bus_shield_text":"T27","name:ru":"\u0443\u043b\u0438\u0446\u0430 13 \u042f\u043d\u0432\u0430\u0440\u044f","landuse_kind":"urban_area"},"arcs":[[859],[860]]},{"type":"MultiLineString","properties":{"kind":"major_road","network":"lv:national","sort_rank":381,"kind_detail":"trunk","source":"openstreetmap.org","min_zoom":8.0,"shield_text":"1","ref":"A1"},"arcs":[[861],[862],[863]]},{"type":"LineString","properties":{"kind":"major_road","sort_rank":380,"kind_detail":"primary","bus_network":null,"source":"openstreetmap.org","min_zoom":8.0,"bus_shield_text":"A10","id":41770128},"arcs":[864]},{"type":"MultiLineString","properties":{"bus_network":null,"sort_rank":380,"kind_detail":"primary","kind":"major_road","source":"openstreetmap.org","min_zoom":8.0,"bus_shield_text":"A12","landuse_kind":"urban_area"},"arcs":[[865],[866],[867]]},{"type":"MultiLineString","properties":{"kind":"path","sort_rank":354,"kind_detail":"cycleway","is_bicycle_related":true,"bicycle_shield_text":"R1","bicycle_network":"icn","source":"openstreetmap.org","min_zoom":8.0,"landuse_kind":"urban_area"},"arcs":[[868],[869],[870],[871],[872],[873],[874],[875],[876],[877],[878],[879]]},{"type":"LineString","properties":{"bus_network":null,"network":"lv:regional","sort_rank":379,"kind_detail":"secondary","is_bicycle_related":true,"kind":"major_road","bicycle_shield_text":"LV3","bicycle_network":"ncn","source":"openstreetmap.org","min_zoom":8.0,"bus_shield_text":"A23","shield_text":"1","ref":"V1","id":190613743},"arcs":[880]},{"type":"LineString","properties":{"kind":"major_road","sort_rank":381,"kind_detail":"trunk","is_bicycle_related":true,"bicycle_shield_text":"LV3","bicycle_network":"ncn","source":"openstreetmap.org","min_zoom":8.0,"id":190193851},"arcs":[881]},{"type":"LineString","properties":{"kind":"major_road","network":"lv:national","sort_rank":380,"kind_detail":"primary","is_bicycle_related":true,"bicycle_shield_text":"LV2","bicycle_network":"ncn","source":"openstreetmap.org","min_zoom":8.0,"shield_text":"7","ref":"P7","id":200852197},"arcs":[882]},{"type":"LineString","properties":{"kind":"major_road","network":"lv:national","sort_rank":380,"kind_detail":"primary","source":"openstreetmap.org","min_zoom":8.0,"shield_text":"94","ref":"P94"},"arcs":[883]},{"type":"LineString","properties":{"kind":"major_road","network":"lv:national","sort_rank":381,"kind_detail":"trunk","bus_network":null,"source":"openstreetmap.org","min_zoom":8.0,"bus_shield_text":"A60","shield_text":"6","landuse_kind":"urban_area","ref":"A6","id":429166134},"arcs":[884]},{"type":"LineString","properties":{"kind":"major_road","network":"lv:national","sort_rank":380,"kind_detail":"primary","is_bicycle_related":true,"bicycle_shield_text":"LV2","bicycle_network":"ncn","source":"openstreetmap.org","min_zoom":8.0,"shield_text":"9","ref":"P9","id":194341268},"arcs":[885]},{"type":"LineString","properties":{"bus_network":null,"network":"lv:national","sort_rank":381,"landuse_kind":"protected_area","kind":"major_road","source":"openstreetmap.org","min_zoom":8.0,"bus_shield_text":"7491","shield_text":"5","kind_detail":"trunk","ref":"A5"},"arcs":[886]},{"type":"MultiLineString","properties":{"bus_network":null,"sort_rank":380,"kind_detail":"primary","kind":"major_road","source":"openstreetmap.org","min_zoom":8.0,"bus_shield_text":"A32","name:ru":"\u0443\u043b\u0438\u0446\u0430 \u041b\u0438\u0435\u043b\u0438\u0440\u0431\u0435\u0441","landuse_kind":"urban_area"},"arcs":[[887],[888]]},{"type":"MultiLineString","properties":{"bus_network":null,"network":"lv:national","sort_rank":381,"kind_detail":"trunk","kind":"major_road","source":"openstreetmap.org","min_zoom":8.0,"bus_shield_text":"2","shield_text":"6","name:ru":"\u0443\u043b\u0438\u0446\u0430 \u0414\u0430\u0443\u0433\u0430\u0432\u043f\u0438\u043b\u0441","ref":"A6"},"arcs":[[889],[890]]},{"type":"LineString","properties":{"bus_network":null,"network":"lv:national","sort_rank":381,"kind_detail":"trunk","old_name":"VEF tilts","kind":"major_road","source":"openstreetmap.org","min_zoom":8.0,"bus_shield_text":"T13","shield_text":"2","landuse_kind":"urban_area","ref":"A2"},"arcs":[891]},{"type":"MultiLineString","properties":{"bus_network":null,"network":"lv:national","sort_rank":380,"kind_detail":"primary","is_bicycle_related":true,"kind":"major_road","bicycle_shield_text":"LV3","bicycle_network":"ncn","source":"openstreetmap.org","min_zoom":8.0,"bus_shield_text":"A51","shield_text":"4","landuse_kind":"urban_area","ref":"P4"},"arcs":[[892],[893],[894]]},{"type":"LineString","properties":{"kind":"major_road","network":"lv:regional","sort_rank":379,"kind_detail":"secondary","is_bicycle_related":true,"bicycle_shield_text":"EV11","bicycle_network":"icn","source":"openstreetmap.org","min_zoom":8.0,"shield_text":"319","ref":"V319","id":24663399},"arcs":[895]},{"type":"MultiLineString","properties":{"kind":"minor_road","sort_rank":360,"landuse_kind":"urban_area","is_bicycle_related":true,"bicycle_shield_text":null,"bicycle_network":"icn","source":"openstreetmap.org","min_zoom":8.0,"kind_detail":"living_street"},"arcs":[[896],[897],[898]]},{"type":"MultiLineString","properties":{"bus_network":null,"sort_rank":380,"kind_detail":"primary","kind":"major_road","source":"openstreetmap.org","min_zoom":8.0,"bus_shield_text":"A31","name:ru":"\u0443\u043b\u0438\u0446\u0430 \u042e\u0433\u043b\u0430\u0441"},"arcs":[[899],[900],[901]]},{"type":"MultiLineString","properties":{"kind":"path","sort_rank":354,"landuse_kind":"urban_area","is_bicycle_related":true,"bicycle_shield_text":null,"bicycle_network":"icn","source":"openstreetmap.org","min_zoom":8.0,"kind_detail":"footway"},"arcs":[[902],[903],[904],[905],[906]]},{"type":"LineString","properties":{"bus_network":null,"network":"lv:national","sort_rank":380,"kind_detail":"primary","kind":"major_road","source":"openstreetmap.org","min_zoom":8.0,"bus_shield_text":"7491","shield_text":"87","ref":"P87"},"arcs":[907]},{"type":"LineString","properties":{"kind":"major_road","network":"lv:national","sort_rank":380,"kind_detail":"primary","source":"openstreetmap.org","min_zoom":8.0,"shield_text":"88","ref":"P88"},"arcs":[908]},{"type":"MultiLineString","properties":{"bus_network":null,"sort_rank":380,"kind_detail":"primary","kind":"major_road","source":"openstreetmap.org","min_zoom":8.0,"bus_shield_text":"M236","name:ru":"\u0443\u043b\u0438\u0446\u0430 \u041b\u0438\u0435\u043b\u0438\u0440\u0431\u0435\u0441","landuse_kind":"urban_area"},"arcs":[[909],[910],[911]]},{"type":"LineString","properties":{"kind":"major_road","sort_rank":380,"kind_detail":"primary","bus_network":null,"source":"openstreetmap.org","min_zoom":8.0,"bus_shield_text":"A51","ref":"P5","id":373229400},"arcs":[912]},{"type":"LineString","properties":{"bus_network":null,"network":"lv:regional","sort_rank":379,"kind_detail":"secondary","is_bicycle_related":true,"kind":"major_road","bicycle_shield_text":null,"bicycle_network":"icn","source":"openstreetmap.org","min_zoom":8.0,"bus_shield_text":"7514","shield_text":"101","landuse_kind":"protected_area","ref":"V101","id":520270359},"arcs":[913]},{"type":"LineString","properties":{"bus_network":null,"sort_rank":380,"kind_detail":"primary","kind":"major_road","source":"openstreetmap.org","min_zoom":8.0,"bus_shield_text":"A24","landuse_kind":"urban_area"},"arcs":[914]},{"type":"MultiLineString","properties":{"kind":"major_road","network":"lv:national","sort_rank":380,"kind_detail":"primary","is_bicycle_related":true,"bicycle_shield_text":"R1","bicycle_network":"icn","source":"openstreetmap.org","min_zoom":8.0,"landuse_kind":"park","shield_text":"8","ref":"P8"},"arcs":[[915],[916]]},{"type":"MultiLineString","properties":{"kind":"path","sort_rank":354,"landuse_kind":"urban_area","is_bicycle_related":true,"bicycle_shield_text":null,"bicycle_network":"icn","source":"openstreetmap.org","min_zoom":8.0,"kind_detail":"cycleway"},"arcs":[[917],[918],[919],[920]]},{"type":"LineString","properties":{"bus_network":null,"sort_rank":380,"kind_detail":"primary","kind":"major_road","source":"openstreetmap.org","min_zoom":8.0,"bus_shield_text":"T18","name:ru":"\u0443\u043b\u0438\u0446\u0430 \u0410\u043b\u0435\u043a\u0441\u0430\u043d\u0434\u0440\u0430 \u0427\u0430\u043a\u0430","landuse_kind":"urban_area"},"arcs":[921]},{"type":"MultiLineString","properties":{"source":"openstreetmap.org","bus_network":null,"bus_shield_text":"A58","sort_rank":380,"kind_detail":"primary","min_zoom":8.0,"kind":"major_road"},"arcs":[[922],[923]]},{"type":"LineString","properties":{"bus_network":null,"sort_rank":380,"kind_detail":"primary","kind":"major_road","source":"openstreetmap.org","min_zoom":8.0,"bus_shield_text":"A20","landuse_kind":"urban_area"},"arcs":[924]},{"type":"LineString","properties":{"kind":"major_road","name:en":"Ganibu dambis","network":"lv:national","ref":"P1","sort_rank":380,"kind_detail":"primary","bus_network":null,"source":"openstreetmap.org","min_zoom":8.0,"bus_shield_text":"A2","shield_text":"1","landuse_kind":"urban_area","name:zh":"\u7518\u5c3c\u5e03\u4e39\u6bd4\u65af\u8857","id":4995025},"arcs":[925]},{"type":"LineString","properties":{"kind":"ferry","name:lv":"R\u012bga-Stokholma","name":"Stockholm-Riga","sort_rank":355,"is_bicycle_related":true,"name:de":"F\u00e4hre Riga-Stockholm","source":"openstreetmap.org","min_zoom":8.0},"arcs":[926]},{"type":"MultiLineString","properties":{"kind":"major_road","network":"lv:national","sort_rank":380,"kind_detail":"primary","is_bicycle_related":true,"bicycle_shield_text":"7","bicycle_network":"ncn","source":"openstreetmap.org","min_zoom":8.0,"shield_text":"8","ref":"P8"},"arcs":[[927],[928],[929],[930]]},{"type":"LineString","properties":{"kind":"major_road","network":"lv:national","sort_rank":381,"kind_detail":"trunk","bus_network":null,"source":"openstreetmap.org","min_zoom":8.0,"bus_shield_text":"A31","shield_text":"6","name:ru":"\u0443\u043b\u0438\u0446\u0430 \u041c\u0430\u0441\u043a\u0430\u0432\u0430\u0441","landuse_kind":"urban_area","ref":"A6","id":429166136},"arcs":[931]},{"type":"LineString","properties":{"bus_network":null,"sort_rank":380,"kind_detail":"primary","kind":"major_road","source":"openstreetmap.org","min_zoom":8.0,"bus_shield_text":"T23","name:ru":"\u0443\u043b\u0438\u0446\u0430 \u0410\u043b\u0435\u043a\u0441\u0430\u043d\u0434\u0440\u0430 \u0427\u0430\u043a\u0430","landuse_kind":"urban_area"},"arcs":[932]},{"type":"LineString","properties":{"bus_network":null,"network":"lv:regional","sort_rank":379,"kind_detail":"secondary","is_bicycle_related":true,"kind":"major_road","bicycle_shield_text":"LV3","bicycle_network":"ncn","source":"openstreetmap.org","min_zoom":8.0,"bus_shield_text":"A12","shield_text":"2","ref":"V2"},"arcs":[933]},{"type":"LineString","properties":{"kind":"major_road","network":"lv:national","sort_rank":380,"kind_detail":"primary","source":"openstreetmap.org","min_zoom":8.0,"shield_text":"10","ref":"P10"},"arcs":[934]},{"type":"LineString","properties":{"kind":"major_road","sort_rank":379,"kind_detail":"secondary","is_bicycle_related":true,"bicycle_shield_text":"R1","bicycle_network":"icn","source":"openstreetmap.org","min_zoom":8.0,"landuse_kind":"park","ref":"V92","id":477626123},"arcs":[935]},{"type":"LineString","properties":{"bus_network":null,"network":"lv:national","sort_rank":381,"kind_detail":"trunk","kind":"major_road","source":"openstreetmap.org","min_zoom":8.0,"bus_shield_text":"A46","shield_text":"8","landuse_kind":"urban_area","ref":"A8"},"arcs":[936]},{"type":"LineString","properties":{"kind":"major_road","sort_rank":380,"kind_detail":"primary","bus_network":null,"source":"openstreetmap.org","min_zoom":8.0,"bus_shield_text":"T1","name:ru":"\u0443\u043b\u0438\u0446\u0430 \u0421\u0430\u0442\u0435\u043a\u043b\u0435\u0441","landuse_kind":"urban_area","id":37685618},"arcs":[937]},{"type":"LineString","properties":{"bus_network":null,"network":"lv:national","sort_rank":381,"kind_detail":"trunk","kind":"major_road","source":"openstreetmap.org","min_zoom":8.0,"bus_shield_text":"M233","shield_text":"7","name:ru":"\u041e\u0441\u0442\u0440\u043e\u0432\u043d\u043e\u0439 \u043c\u043e\u0441\u0442","landuse_kind":"urban_area","ref":"A7;A8;A10"},"arcs":[938]},{"type":"LineString","properties":{"bus_network":null,"network":"lv:national","sort_rank":380,"kind_detail":"primary","is_bicycle_related":true,"kind":"major_road","bicycle_shield_text":"LV2","bicycle_network":"ncn","source":"openstreetmap.org","min_zoom":8.0,"bus_shield_text":"A51","shield_text":"4","landuse_kind":"urban_area","ref":"P4"},"arcs":[939]},{"type":"LineString","properties":{"bus_network":null,"sort_rank":379,"landuse_kind":"urban_area","is_bicycle_related":true,"kind":"major_road","bicycle_shield_text":"LV3","bicycle_network":"ncn","source":"openstreetmap.org","min_zoom":8.0,"bus_shield_text":"A51","kind_detail":"secondary"},"arcs":[940]},{"type":"LineString","properties":{"kind":"major_road","network":"lv:national","sort_rank":380,"kind_detail":"primary","source":"openstreetmap.org","min_zoom":8.0,"shield_text":"91","ref":"P91","id":24435558},"arcs":[941]},{"type":"MultiLineString","properties":{"bus_network":null,"network":"lv:national","sort_rank":381,"kind_detail":"trunk","is_bicycle_related":true,"kind":"major_road","bicycle_shield_text":"7","bicycle_network":"ncn","source":"openstreetmap.org","min_zoom":8.0,"bus_shield_text":"7661","shield_text":"3","ref":"A3"},"arcs":[[942],[943],[944]]},{"type":"MultiLineString","properties":{"bus_network":null,"network":"lv:national","sort_rank":380,"kind_detail":"primary","kind":"major_road","source":"openstreetmap.org","min_zoom":8.0,"bus_shield_text":"A2","shield_text":"1","landuse_kind":"urban_area","ref":"P1"},"arcs":[[945],[946],[947],[948],[949],[950],[951],[952],[953],[954],[955],[956],[957]]},{"type":"MultiLineString","properties":{"kind":"path","sort_rank":354,"landuse_kind":"urban_area","is_bicycle_related":true,"bicycle_shield_text":"R1","bicycle_network":"icn","source":"openstreetmap.org","min_zoom":8.0,"kind_detail":"path"},"arcs":[[958],[959],[960],[961],[962]]},{"type":"LineString","properties":{"bus_network":null,"network":"lv:national","sort_rank":381,"kind_detail":"trunk","is_bicycle_related":true,"kind":"major_road","bicycle_shield_text":"R1","bicycle_network":"icn","source":"openstreetmap.org","min_zoom":8.0,"bus_shield_text":"A40","shield_text":"2","landuse_kind":"urban_area","ref":"A2"},"arcs":[963]},{"type":"MultiLineString","properties":{"bus_network":null,"network":"lv:national","sort_rank":381,"kind_detail":"trunk","kind":"major_road","source":"openstreetmap.org","min_zoom":8.0,"bus_shield_text":"7647","shield_text":"2","ref":"A2"},"arcs":[[964],[965],[966],[967],[968],[969],[970],[971],[972],[973],[974],[975],[976]]},{"type":"MultiLineString","properties":{"bus_network":null,"network":"lv:national","sort_rank":381,"kind_detail":"trunk","kind":"major_road","source":"openstreetmap.org","min_zoom":8.0,"bus_shield_text":"7514","shield_text":"2","ref":"A2"},"arcs":[[977],[978],[979],[980],[981],[982]]},{"type":"LineString","properties":{"kind":"major_road","network":"lv:national","sort_rank":380,"kind_detail":"primary","source":"openstreetmap.org","min_zoom":8.0,"landuse_kind":"protected_area","shield_text":"8","ref":"P8"},"arcs":[983]},{"type":"LineString","properties":{"bus_network":null,"network":"lv:national","sort_rank":380,"kind_detail":"primary","kind":"major_road","source":"openstreetmap.org","min_zoom":8.0,"bus_shield_text":"A10","shield_text":"132","name:ru":"\u0443\u043b\u0438\u0446\u0430 \u0414\u0430\u0443\u0433\u0430\u0432\u0430\u0441","ref":"P132"},"arcs":[984]},{"type":"MultiLineString","properties":{"bus_network":null,"network":"lv:national","sort_rank":381,"kind_detail":"trunk","is_bicycle_related":true,"kind":"major_road","bicycle_shield_text":"LV3","bicycle_network":"ncn","source":"openstreetmap.org","min_zoom":8.0,"bus_shield_text":"7491","shield_text":"5","ref":"A5;A7"},"arcs":[[985],[986],[987]]},{"type":"MultiLineString","properties":{"kind":"major_road","network":"lv:national","sort_rank":381,"kind_detail":"trunk","source":"openstreetmap.org","min_zoom":8.0,"landuse_kind":"park","shield_text":"3","ref":"A3"},"arcs":[[988],[989],[990]]},{"type":"MultiLineString","properties":{"bus_network":null,"network":"lv:national","sort_rank":381,"kind_detail":"trunk","kind":"major_road","source":"openstreetmap.org","min_zoom":8.0,"bus_shield_text":"T13","shield_text":"2","landuse_kind":"urban_area","ref":"A2"},"arcs":[[991],[992]]},{"type":"MultiLineString","properties":{"kind":"major_road","sort_rank":379,"kind_detail":"secondary","is_bicycle_related":true,"bicycle_shield_text":"R1","bicycle_network":"icn","source":"openstreetmap.org","min_zoom":8.0,"landuse_kind":"urban_area"},"arcs":[[993],[994],[995],[996]]},{"type":"LineString","properties":{"bus_network":null,"network":"lv:national","sort_rank":380,"kind_detail":"primary","kind":"major_road","source":"openstreetmap.org","min_zoom":8.0,"bus_shield_text":"7197","shield_text":"87","ref":"P87"},"arcs":[997]},{"type":"LineString","properties":{"kind":"major_road","network":"lv:national","sort_rank":381,"kind_detail":"trunk","is_bicycle_related":true,"bicycle_shield_text":null,"bicycle_network":"icn","source":"openstreetmap.org","min_zoom":8.0,"shield_text":"1","ref":"A1","id":298885204},"arcs":[998]},{"type":"MultiLineString","properties":{"kind":"major_road","network":"lv:national","sort_rank":381,"kind_detail":"trunk","source":"openstreetmap.org","min_zoom":8.0,"shield_text":"5","ref":"P5"},"arcs":[[999],[1000],[1001],[1002],[1003],[1004],[1005],[1006]]},{"type":"LineString","properties":{"kind":"path","sort_rank":354,"landuse_kind":"urban_area","is_bicycle_related":true,"bicycle_shield_text":"LV1","bicycle_network":"ncn","source":"openstreetmap.org","min_zoom":8.0,"kind_detail":"path"},"arcs":[1007]},{"type":"LineString","properties":{"kind":"major_road","sort_rank":379,"kind_detail":"secondary","is_bicycle_related":true,"bicycle_shield_text":null,"bicycle_network":"icn","source":"openstreetmap.org","min_zoom":8.0,"ref":"V45","id":298885200},"arcs":[1008]},{"type":"MultiLineString","properties":{"bus_network":null,"network":"lv:national","sort_rank":381,"kind_detail":"trunk","kind":"major_road","source":"openstreetmap.org","min_zoom":8.0,"bus_shield_text":"6317","shield_text":"6","name:ru":"\u0443\u043b\u0438\u0446\u0430 \u041a\u0440\u0430\u0441\u0442\u0430","landuse_kind":"urban_area","ref":"A6"},"arcs":[[1009],[1010]]},{"type":"LineString","properties":{"kind":"major_road","network":"lv:national","sort_rank":380,"kind_detail":"primary","is_bicycle_related":true,"bicycle_shield_text":null,"bicycle_network":"icn","source":"openstreetmap.org","min_zoom":8.0,"landuse_kind":"protected_area","shield_text":"1","ref":"P1","id":29214152},"arcs":[1011]},{"type":"LineString","properties":{"kind":"major_road","network":"lv:regional","sort_rank":379,"kind_detail":"secondary","is_bicycle_related":true,"bicycle_shield_text":"LV2","bicycle_network":"ncn","source":"openstreetmap.org","min_zoom":8.0,"landuse_kind":"park","shield_text":"89","ref":"V89","id":449282653},"arcs":[1012]},{"type":"LineString","properties":{"bus_network":null,"network":"lv:national","sort_rank":381,"kind_detail":"trunk","is_bicycle_related":true,"kind":"major_road","bicycle_shield_text":"R1","bicycle_network":"icn","source":"openstreetmap.org","min_zoom":8.0,"bus_shield_text":"T13","shield_text":"2","landuse_kind":"urban_area","ref":"A2"},"arcs":[1013]},{"type":"MultiLineString","properties":{"bus_network":null,"network":"lv:national","sort_rank":380,"kind_detail":"primary","is_bicycle_related":true,"kind":"major_road","bicycle_shield_text":"LV2","bicycle_network":"ncn","source":"openstreetmap.org","min_zoom":8.0,"bus_shield_text":"7661","shield_text":"9","ref":"P9"},"arcs":[[1014],[1015],[1016]]},{"type":"MultiLineString","properties":{"kind":"major_road","network":"lv:national","sort_rank":380,"kind_detail":"primary","source":"openstreetmap.org","min_zoom":8.0,"landuse_kind":"urban_area","shield_text":"7","ref":"A7"},"arcs":[[1017],[1018]]},{"type":"LineString","properties":{"kind":"major_road","sort_rank":380,"kind_detail":"primary","bus_network":null,"source":"openstreetmap.org","min_zoom":8.0,"bus_shield_text":"T22","landuse_kind":"urban_area","id":37745569},"arcs":[1019]},{"type":"MultiLineString","properties":{"kind":"path","sort_rank":354,"kind_detail":"footway","is_bicycle_related":true,"bicycle_shield_text":"R1","bicycle_network":"icn","source":"openstreetmap.org","min_zoom":8.0},"arcs":[[1020],[1021]]},{"type":"MultiLineString","properties":{"bus_network":null,"network":"lv:national","sort_rank":381,"kind_detail":"trunk","kind":"major_road","source":"openstreetmap.org","min_zoom":8.0,"bus_shield_text":"A32","shield_text":"10","name:ru":"\u0420\u0438\u0433\u0430 \u2014 \u0412\u0435\u043d\u0442\u0441\u043f\u0438\u043b\u0441","landuse_kind":"urban_area","ref":"A10"},"arcs":[[1022],[1023]]},{"type":"MultiLineString","properties":{"bus_network":null,"network":"lv:national","sort_rank":381,"landuse_kind":"urban_area","kind":"major_road","source":"openstreetmap.org","min_zoom":8.0,"bus_shield_text":"A4","shield_text":"5","kind_detail":"trunk","ref":"A5"},"arcs":[[1024],[1025]]},{"type":"LineString","properties":{"bus_network":null,"sort_rank":379,"kind_detail":"secondary","is_bicycle_related":true,"kind":"major_road","bicycle_shield_text":null,"bicycle_network":"icn","source":"openstreetmap.org","min_zoom":8.0,"bus_shield_text":"7514","name:ru":"\u0420\u0438\u0436\u0441\u043a\u0430\u044f \u0443\u043b\u0438\u0446\u0430","ref":"V101","id":298885211},"arcs":[1026]},{"type":"MultiLineString","properties":{"bus_network":null,"network":"lv:national","sort_rank":381,"kind_detail":"trunk","kind":"major_road","source":"openstreetmap.org","min_zoom":8.0,"bus_shield_text":"A13","shield_text":"5","ref":"A5"},"arcs":[[1027],[1028]]},{"type":"LineString","properties":{"kind":"major_road","sort_rank":379,"kind_detail":"secondary","is_bicycle_related":true,"bicycle_shield_text":"EV11","bicycle_network":"icn","source":"openstreetmap.org","min_zoom":8.0,"id":108277578},"arcs":[1029]},{"type":"MultiLineString","properties":{"bus_network":null,"network":"lv:national","sort_rank":381,"kind_detail":"trunk","kind":"major_road","source":"openstreetmap.org","min_zoom":8.0,"bus_shield_text":"5777","shield_text":"6","name:ru":"\u0443\u043b\u0438\u0446\u0430 \u041a\u0440\u0430\u0441\u0442\u0430","landuse_kind":"urban_area","ref":"A6"},"arcs":[[1030],[1031],[1032],[1033]]},{"type":"LineString","properties":{"kind":"major_road","network":"lv:national","sort_rank":381,"kind_detail":"trunk","is_bicycle_related":true,"bicycle_shield_text":"7","bicycle_network":"ncn","source":"openstreetmap.org","min_zoom":8.0,"shield_text":"3","ref":"A3","id":227132045},"arcs":[1034]}]},"earth":{"type":"GeometryCollection","geometries":[{"type":"Polygon","properties":{"sort_rank":10,"source":"naturalearthdata.com","kind":"earth","min_zoom":0.0,"id":4768},"arcs":[[1035]]}]},"landuse":{"type":"GeometryCollection","geometries":[{"type":"MultiPolygon","properties":{"source":"openstreetmap.org","kind":"protected_area","tier":2,"protect_class":"4","area":794786343,"sort_rank":17,"min_zoom":8.0},"arcs":[[[1036]],[[1037]],[[1038]],[[1039]],[[1040]],[[1041]],[[1042]],[[1043]],[[1044]],[[1045]],[[1046]]]},{"type":"MultiPolygon","properties":{"source":"openstreetmap.org","kind":"park","tier":2,"area":376598349,"sort_rank":24,"min_zoom":6.0,"osm_relation":true},"arcs":[[[1047]]]},{"type":"Polygon","properties":{"kind":"aerodrome","area":21349300,"sort_rank":60,"operator":"latvian air force","source":"openstreetmap.org","min_zoom":8.0,"tier":3,"id":35093017},"arcs":[[1048]]},{"type":"MultiPolygon","properties":{"source":"naturalearthdata.com","kind":"urban_area","name":"","area":1316556784,"sort_rank":11,"min_zoom":4.0},"arcs":[[[1049]],[[1050]],[[1051]]]},{"type":"Polygon","properties":{"kind":"nature_reserve","protect_class":"1a","area":25507500,"sort_rank":23,"source":"openstreetmap.org","min_zoom":8.0,"tier":2,"id":372169773},"arcs":[[1052]]},{"type":"MultiPolygon","properties":{"source":"openstreetmap.org","kind":"protected_area","tier":2,"protect_class":"4","area":216016816,"sort_rank":17,"min_zoom":7.0},"arcs":[[[1053]]]},{"type":"MultiPolygon","properties":{"source":"openstreetmap.org","kind":"protected_area","tier":2,"protect_class":"4","area":834688057,"sort_rank":17,"min_zoom":6.0},"arcs":[[[1054]],[[1055]]]},{"type":"Polygon","properties":{"kind":"national_park","protect_class":"2","area":34415900,"sort_rank":18,"source":"openstreetmap.org","min_zoom":8.0,"tier":1,"id":-1906731,"osm_relation":true},"arcs":[[1056]]},{"type":"Polygon","properties":{"kind":"aerodrome","area":11187500,"sort_rank":60,"source":"openstreetmap.org","min_zoom":8.0,"tier":3,"id":-147154,"osm_relation":true},"arcs":[[1057]]},{"type":"MultiPolygon","properties":{"source":"openstreetmap.org","kind":"park","tier":2,"area":68604798,"sort_rank":24,"min_zoom":8.0,"osm_relation":true},"arcs":[[[1058],[1059],[1060],[1061],[1062]]]},{"type":"MultiPolygon","properties":{"source":"openstreetmap.org","kind":"park","tier":2,"area":2997570583,"sort_rank":24,"min_zoom":4.0,"osm_relation":true},"arcs":[[[1063]],[[1064]]]},{"type":"Polygon","properties":{"kind":"military","area":265123008,"sort_rank":45,"source":"openstreetmap.org","min_zoom":8.0,"tier":3,"id":-309689,"osm_relation":true},"arcs":[[1065]]}]}},"type":"Topology","transform":{"translate":[23.90625,56.5594824838],"scale":[0.0003433228,0.0001872653]},"arcs":[[[0,984],[55,41],[25,-132],[193,24],[-10,-32],[53,-70],[-23,-41],[31,-54],[50,-3],[8,-21],[27,5],[-1,34],[12,-33],[28,4],[-24,19],[35,13],[20,-49],[3,32],[40,-51],[63,45],[35,-122],[76,-16],[14,44],[11,-57],[21,-6],[6,44],[64,11],[-57,52],[36,-3],[11,75],[23,-7],[-7,-45],[127,13],[70,59],[-19,60],[46,-59],[-12,-37],[26,-60],[99,-4],[163,-123],[73,30],[0,22],[-39,-7],[29,44],[164,28],[171,188],[97,8],[4,199],[39,77],[-23,40],[25,86],[-29,29],[-25,-12],[-11,58],[-48,4],[-82,74],[-20,62],[-82,46],[-9,64],[50,85],[-65,123],[86,-5],[36,-38],[9,26],[48,-29],[1,-44],[-28,17],[14,-31],[56,-5],[22,72],[-49,33],[-8,61],[42,5],[10,-29],[33,28],[32,-16],[76,28],[37,-85],[96,-10],[352,59],[-9,58],[94,3],[158,142],[237,-81],[12,39],[73,45],[44,-15],[48,62],[58,-76],[49,-20],[56,86],[121,-67],[49,51],[124,21],[35,-32],[61,48],[20,-29],[125,-39],[56,12],[119,-69],[8,53],[-41,15],[51,49],[-25,24],[83,27],[-2,55],[63,18],[-5,49],[32,4]],[[1449,4096],[-12,-53],[26,-27],[11,-210],[-62,-200],[-165,-225],[-202,-171],[-127,-159],[-152,-139],[-272,-166],[-134,-49],[-44,21],[-13,-17],[29,-42],[-115,-156],[-163,-119],[-54,-26]],[[92,1188],[-92,-109]],[[602,2058],[-49,-38],[-8,-7],[-6,-9],[-19,-36],[-9,-32],[-25,-116],[0,-8],[0,-12],[3,-15]],[[489,1785],[-43,-198],[-59,-108],[-294,-290]],[[93,1189],[-1,-1]],[[489,1785],[31,183],[82,90]],[[602,2058],[35,10]],[[630,2065],[44,3]],[[674,2068],[15,-1],[25,-6],[29,-19],[89,-146],[139,-130]],[[674,2068],[46,-14],[33,-39],[34,-56],[37,-53],[9,-12],[138,-128]],[[971,1766],[123,-108],[666,-167]],[[1760,1491],[205,-89]],[[1760,1491],[-27,10]],[[3988,337],[-347,75],[-143,83],[-189,35],[-605,320],[-264,64],[-375,420],[-100,68]],[[1989,1391],[-24,11]],[[0,2176],[210,-81],[6,-1],[8,-3],[8,-1],[7,-1],[88,-5],[81,-24],[46,-83],[5,-5],[5,-5],[7,-4],[7,-2],[13,-2],[5,-1],[3,0],[5,1],[4,1],[6,4],[4,3],[4,5],[25,43],[68,49]],[[615,2064],[-69,-49],[-31,-50],[-37,-4],[-70,99],[-81,24],[-116,12],[-211,81]],[[615,2064],[15,2]],[[627,2068],[42,0]],[[669,2068],[57,4],[10,57]],[[669,2068],[3,0]],[[672,2068],[11,0],[18,-3],[8,0],[6,1],[4,2],[4,2],[3,2],[4,4],[4,5],[2,4],[3,4],[1,6],[1,5],[0,7],[-2,14],[-1,4],[-3,8]],[[721,2193],[1,-3]],[[722,2190],[13,48],[182,55],[31,12],[36,19],[32,10],[389,224],[55,33]],[[735,2133],[-8,47],[-2,6],[-3,4]],[[736,2129],[-1,4]],[[1457,2589],[-436,-252],[-286,-99],[-14,-45]],[[721,2193],[5,-10],[6,-40],[4,-14]],[[1515,2618],[203,67]],[[2006,2779],[270,89]],[[2006,2779],[400,130],[169,118],[109,38],[34,83],[33,19]],[[2744,3165],[7,2]],[[2751,3167],[17,4]],[[626,2537],[-43,29],[4,47],[-4,112],[133,87]],[[716,2812],[-133,-86],[0,-161],[43,-28]],[[672,2485],[-2,30],[-44,22]],[[630,2066],[44,2]],[[672,2485],[-34,-113],[103,-270],[-22,-34],[-45,0]],[[674,2068],[31,-3],[7,0],[7,3],[4,2],[3,2],[4,4],[4,5],[2,4],[3,6],[1,4],[1,7],[0,5],[-3,16],[-6,19],[-7,42],[-14,28],[-26,47],[-3,8],[-2,17],[-2,6],[-40,82],[34,113]],[[716,2812],[276,153]],[[992,2965],[100,81]],[[1092,3046],[8,33]],[[1100,3079],[22,38]],[[1122,3117],[97,170]],[[1219,3287],[8,14]],[[1227,3301],[37,31]],[[1219,3287],[6,10]],[[1225,3297],[5,9],[4,4],[2,2],[28,20]],[[1225,3297],[2,4]],[[1264,3332],[148,168],[80,204]],[[1492,3704],[4,10],[2,8],[4,26],[7,16],[5,15],[5,28]],[[1519,3807],[73,289]],[[1492,3704],[9,44],[13,30],[5,29]],[[92,1188],[-92,-109]],[[93,1189],[-1,-1]],[[612,2063],[-66,-49],[-26,-46],[-31,-183]],[[489,1785],[-43,-198],[-59,-108],[-294,-290]],[[489,1785],[32,184],[91,94]],[[612,2063],[26,2]],[[621,2067],[53,1]],[[674,2068],[40,-7],[29,-19],[89,-146],[139,-130]],[[674,2068],[46,-14],[33,-39],[34,-56],[37,-53],[6,-8],[3,-4],[9,-8],[17,-16],[112,-104]],[[4096,329],[-460,85],[-138,81],[-189,35],[-605,320],[-260,62],[-432,467],[-364,152],[-554,127],[-123,108]],[[627,2068],[42,0]],[[663,2068],[9,0]],[[669,2068],[57,4],[10,57]],[[669,2068],[3,0]],[[672,2068],[11,0],[18,-3],[8,0],[6,1],[4,2],[4,2],[3,2],[4,4],[4,5],[2,4],[3,4],[1,6],[1,5],[0,7],[-2,14],[-1,4],[-3,8]],[[721,2193],[1,-3]],[[722,2190],[13,48],[182,55],[99,41],[389,224],[55,33]],[[735,2133],[-8,47],[-2,6],[-3,4]],[[736,2129],[-1,4]],[[1457,2589],[-54,-31],[-158,-91],[-224,-130],[-37,-12],[-66,-31],[-50,-15],[-128,-39],[-5,-2],[-5,-4],[-5,-6],[-2,-5],[-2,-4],[-2,-7],[-1,-5],[1,-10],[2,-4]],[[721,2193],[5,-10],[6,-40],[4,-14]],[[1515,2618],[203,67]],[[2006,2779],[270,89]],[[2006,2779],[400,130],[169,118],[109,38],[39,89],[84,27]],[[2744,3165],[63,16]],[[2807,3181],[359,151],[230,-16],[137,49],[75,-4],[121,91],[101,23],[71,-14],[62,91],[84,28],[49,163]],[[4096,3764],[-107,213],[63,119]],[[621,2067],[53,1]],[[674,2068],[15,-1],[25,-6],[29,-19],[89,-146],[139,-130]],[[674,2068],[46,-14],[33,-39],[34,-56],[37,-53],[9,-12],[138,-128]],[[4096,329],[-460,85],[-138,81],[-189,35],[-605,320],[-260,62],[-432,467],[-364,152],[-554,127],[-123,108]],[[621,2067],[53,1]],[[674,2068],[40,-7],[29,-19],[89,-146],[139,-130]],[[674,2068],[46,-14],[33,-39],[34,-56],[37,-53],[6,-8],[3,-4],[9,-8],[17,-16],[112,-104]],[[4096,329],[-460,85],[-138,81],[-189,35],[-605,320],[-260,62],[-432,467],[-364,152],[-554,127],[-123,108]],[[1458,4096],[6,-151],[-24,-214],[-63,-149],[-193,-224],[-70,-50],[-29,-38],[-1,-58],[-50,-19],[-66,-42],[-56,-62],[-25,-76],[-285,-187],[-112,-73],[-113,-32],[-40,-53],[-37,-72],[-53,-77],[-111,-96],[-76,-37],[-60,-29],[0,1739],[1458,0]],[[0,2357],[60,29],[76,37],[111,96],[53,77],[37,72],[40,53],[113,32],[112,73],[285,187],[25,76],[56,62],[66,42],[50,19],[1,58],[29,38],[70,50],[193,224],[63,149],[24,214],[-6,151]],[[113,2142],[18,-3]],[[131,2139],[-18,3]],[[1427,1924],[31,-102]],[[2892,3207],[106,120],[38,97],[112,6],[145,125]],[[649,2400],[0,9]],[[694,1996],[-9,5]],[[695,1994],[9,-4]],[[738,1960],[-39,34]],[[225,0],[-26,79],[-199,-29]],[[1182,2887],[-1,-20]],[[1181,2867],[1,-14]],[[1182,2853],[15,-92]],[[1182,2887],[1,6]],[[1218,2984],[-35,-91]],[[1197,2761],[2,-9]],[[1199,2752],[8,-231]],[[1305,3379],[1,1]],[[992,1351],[-1,4]],[[1207,2521],[-38,-113]],[[1271,2207],[96,-70]],[[1462,2040],[186,148],[241,-81]],[[573,2113],[1,1]],[[592,2055],[-7,5]],[[721,2104],[-6,1]],[[328,1785],[-28,-12]],[[466,1885],[-8,-10]],[[466,1885],[3,4]],[[490,1941],[10,-4]],[[585,2060],[-5,5]],[[914,2006],[64,43]],[[978,2049],[2,1]],[[979,2051],[-1,-2]],[[1081,2338],[-23,-3]],[[52,2072],[-13,-55]],[[40,2016],[16,65]],[[1565,0],[51,41],[103,156],[140,106],[114,16],[100,48],[48,64],[71,5],[131,105],[130,2],[69,42],[125,164]],[[1358,844],[2,-14]],[[1659,2801],[-185,-97],[-184,-16],[-83,-167]],[[1679,2816],[-15,-11]],[[2919,3850],[23,46]],[[2961,3935],[-2,161]],[[1058,2335],[-5,2]],[[2358,1010],[4,-5]],[[993,1305],[137,-82],[46,-121],[128,-114],[54,-144]],[[1858,0],[-45,226],[-254,240],[-199,364]],[[574,2099],[-7,-2]],[[733,2194],[1,0]],[[734,2194],[0,1]],[[3800,3645],[36,181],[50,23],[26,99]],[[674,2458],[3,-2]],[[396,2001],[3,3]],[[452,2040],[-56,-38]],[[485,2059],[-16,-10]],[[485,2059],[1,1]],[[513,2079],[-28,-20]],[[627,2119],[-4,4]],[[2897,3178],[-31,-13]],[[1077,2055],[-30,-6]],[[786,1968],[-6,-8]],[[781,1960],[5,7]],[[980,2055],[-1,-1]],[[984,2052],[-3,3]],[[2353,3309],[2,1]],[[516,1853],[-15,-39]],[[518,1859],[-2,-6]],[[518,1859],[1,2]],[[519,1861],[1,3]],[[529,1906],[-9,-42]],[[1172,2339],[-72,6]],[[1788,2904],[-109,-88]],[[1952,2980],[-17,40],[47,44],[130,-36],[10,-24]],[[2757,3202],[1,-29]],[[2840,3202],[-31,-11]],[[3926,3971],[-7,-5]],[[3973,4017],[-7,-8]],[[1465,2581],[103,-146],[131,-52],[95,26],[160,-21],[165,102],[143,33]],[[2855,2430],[161,35]],[[3017,2466],[-1,-1]],[[3016,2465],[2,0]],[[3023,2467],[-3,0]],[[3020,2466],[3,1]],[[3023,2467],[247,31],[440,201]],[[3808,2740],[137,-55],[151,21]],[[3768,4051],[-98,-65],[-75,84]],[[2031,1370],[10,18]],[[667,1841],[-4,-19]],[[717,1888],[-28,-23]],[[2455,3236],[-99,69]],[[1664,2805],[-5,-4]],[[781,0],[4,59],[48,133]],[[890,259],[110,583],[-23,325],[13,164]],[[989,1347],[1,-16]],[[990,1331],[1,16]],[[993,1348],[0,2]],[[3037,2959],[149,-64]],[[3446,2790]],[[832,1849],[-29,31]],[[926,1771],[145,-112]],[[983,1728],[-56,43]],[[1072,1660],[-76,58]],[[1158,2145],[-114,-22]],[[372,2096],[-2,-20]],[[408,2092],[18,-2]],[[573,2088],[-2,2]],[[574,2099],[0,1]],[[580,2088],[0,-3]],[[583,2083],[6,1]],[[2746,3137],[-6,26]],[[1158,2145],[88,29]],[[1904,0],[-65,30]],[[1722,1413],[-34,25]],[[2027,1365],[-1,-2]],[[2040,1392],[4,-2]],[[761,1937],[-8,-10]],[[757,1931],[13,15]],[[0,2127],[7,-3]],[[7,2126],[-7,3]],[[1007,2118],[2,2]],[[1008,2120],[-1,-1]],[[2551,3071],[-385,-80]],[[2181,2994],[370,77]],[[2566,3070],[-15,1]],[[3695,3478],[-392,-143],[-151,-15],[-87,-77]],[[3990,3616],[-42,-37]],[[4079,3638],[-88,-22]],[[1814,2791],[-234,-154]],[[1580,2635],[249,162]],[[758,2168],[-11,-1]],[[579,2126]],[[2740,3163],[-1,2]],[[1251,1559],[-13,8]],[[1895,1386],[-257,143],[-134,6]],[[2115,1247],[-5,5]],[[2363,1005],[-9,11]],[[2634,843],[-6,0]],[[3976,335],[-134,19]],[[3985,333],[-9,2]],[[3976,335],[24,-5]],[[4000,330],[-9,2]],[[4096,324],[-96,6]],[[551,2121],[-20,54],[3,303],[-70,105],[-120,89]],[[2053,1391],[80,-41],[86,64]],[[995,2278],[18,-43]],[[879,243],[1,1]],[[880,245],[1,-2]],[[881,244],[0,2]],[[996,1302],[-3,-1]],[[998,2310],[-2,0]],[[1182,2890]],[[1465,2581],[-43,-25]],[[1792,249],[1,1]],[[3444,309],[1,0]],[[717,1889],[0,-1]],[[3986,4025],[-10,-7]],[[169,2084],[-18,-1]],[[908,2281],[4,1]],[[716,2185],[17,9]],[[1921,1598],[-2,1]],[[1919,1597],[2,1]],[[2136,1598],[-107,-16],[-108,16]],[[2150,1593],[-14,5]],[[3338,1151],[-352,140],[-493,121],[-254,108],[-89,73]],[[3483,1090],[-132,56]],[[4096,748],[-278,69],[-238,147],[-74,97]],[[2028,1366]],[[2031,1369],[0,1]],[[1115,3034],[48,-8]],[[1277,3340]],[[1291,3368],[-2,-6]],[[1420,3587],[18,-8]],[[753,1927],[-36,-38]],[[718,1889],[26,27]],[[621,2539],[-18,39],[60,55]],[[2840,3202],[14,1]],[[1092,2051],[34,-18]],[[537,2086],[30,11]],[[1722,1484],[-3,-4]],[[1904,1626],[-72,-49],[-84,-10],[-25,-82]],[[1723,1485],[-1,0],[0,-1],[1,0],[0,1]],[[1904,1626],[1,2]],[[1904,1629],[0,-3]],[[1908,1630],[-2,0]],[[1907,1629],[1,1]],[[2064,1902],[-122,-126],[-10,-113],[-24,-33]],[[632,2075],[31,-4]],[[2348,3302],[6,5]],[[2354,3307],[-1,2]],[[1097,2057],[-14,0]],[[813,2240],[68,35]],[[2653,2483],[202,-53]],[[711,2160],[3,-12]],[[1695,1444],[-7,-6]],[[1820,1385],[80,-2]],[[2118,2188],[6,1]],[[2462,1310],[8,-15]],[[600,1967],[50,60]],[[0,347],[73,22]],[[830,183],[-156,-21],[-212,102],[-53,-12],[-97,46],[-13,45],[-226,26]],[[2739,3350],[-69,-37],[-46,-77],[-169,0]],[[1167,3156],[58,133]],[[2020,1346],[-5,5]],[[486,2060],[12,10]],[[2364,1006],[-6,4]],[[2518,1127],[118,118],[122,34]],[[2877,3084],[-70,16],[-67,63]],[[2768,1281],[19,5]],[[2793,1289],[66,48],[131,446],[-8,58]],[[2927,2388],[102,24],[-9,50]],[[3018,2470],[-54,145],[-3,80],[-50,85],[63,55],[14,48],[-20,44]],[[3018,2470],[0,-3]],[[3019,2467],[-1,3]],[[3019,2464],[1,-2]],[[3020,2462],[0,3]],[[2907,0],[1,1],[281,227]],[[3872,192],[-11,102]],[[3820,3699],[-85,-18]],[[739,2790],[-21,21]],[[818,2856],[126,51]],[[1114,3033],[1,1]],[[1224,3005],[-91,106],[34,44]],[[1222,3290],[42,46]],[[1267,3339],[4,5]],[[1291,3368],[41,3],[23,-31]],[[668,2010],[-24,11]],[[1100,2345],[-19,-7]],[[3915,3958],[4,8]],[[2087,1273],[22,-21]],[[730,2381],[1,-2]],[[1277,3340],[4,13]],[[1282,3355],[7,7]],[[1467,3694]],[[1482,3683],[-1,1]],[[267,2042],[-8,16]],[[269,2037],[13,-26],[33,-35],[21,-6]],[[351,1968],[-82,70]],[[493,1938],[-33,23],[-10,5],[-96,1]],[[357,1966],[96,-2],[39,-26]],[[2219,1414],[71,-16]],[[1895,1385],[74,-5]],[[1997,1365],[17,-13]],[[580,2131],[1,0]],[[830,183],[-156,-21],[-212,102],[-53,-12],[-97,46],[-13,45],[-223,26],[-76,-22]],[[1169,2408],[0,-5]],[[590,2055],[24,-20]],[[597,2049],[-5,4]],[[2855,2430],[72,-42]],[[599,1967],[-19,-21]],[[581,1945],[19,22]],[[651,1846],[-3,7]],[[893,2277],[-12,-2]],[[751,1948],[-6,6]],[[756,1942],[2,-1]],[[1408,1530],[81,4]],[[604,2096],[1,-1]],[[634,2317],[-2,-1]],[[633,2315],[1,2]],[[634,2317],[20,14]],[[1462,2040],[-158,29],[-207,-12]],[[2000,2082],[-111,25]],[[2040,1392],[13,-1]],[[592,2113],[75,111]],[[603,2779],[6,8]],[[717,2812],[-5,17]],[[632,2075],[-9,1]],[[1218,2984],[-4,-3]],[[656,2353],[6,-7]],[[661,2348],[-2,2]],[[673,2340],[7,-4]],[[680,2337],[-6,3]],[[705,2322],[52,-117]],[[744,2259],[-38,64]],[[757,2205],[-1,3]],[[757,2205],[1,-37]],[[757,2165],[7,-6]],[[2290,3208],[63,101]],[[655,2290],[12,-66]],[[609,2099],[8,10]],[[1468,1820],[254,-83]],[[543,1921],[18,6]],[[1071,1358],[-1,3]],[[328,1785],[33,14]],[[453,1870],[5,5]],[[651,2032],[3,11]],[[996,1718],[-6,5]],[[574,2100]],[[3953,4003],[-27,-32]],[[3987,4025],[20,21]],[[3987,4025],[-1,1],[0,-1],[1,-1],[0,1]],[[4007,4046],[1,0]],[[4008,4047],[-1,-1]],[[4010,4048],[-1,-1]],[[4009,4047],[1,1]],[[4010,4048],[19,14]],[[663,2633],[62,2]],[[3710,2699],[39,31]],[[1848,2943],[68,51],[36,-14]],[[1054,1550],[1,0]],[[990,1723],[-7,5]],[[2020,1347],[10,8]],[[605,2095],[4,4]],[[715,2105],[5,5]],[[261,1940],[-8,-4]],[[278,1958],[-12,-15]],[[301,1990],[-19,-26]],[[286,1969],[16,21]],[[27,1968],[-11,-34],[11,3]],[[27,1939],[2,34]],[[3582,340],[-77,22]],[[3673,323],[-54,-5]],[[1722,1413],[43,-27]],[[650,2027],[1,5]],[[1066,1357],[1,-4]],[[1067,1353],[2,3]],[[1067,1353],[6,-92]],[[1073,1261],[0,-1]],[[1076,1258],[-3,3]],[[2968,2927],[69,32]],[[3186,2895],[7,-4]],[[3379,2788],[67,2]],[[3446,2790],[155,3]],[[617,2070],[2,2]],[[770,1946],[11,14]],[[3019,2467],[-1,-1],[0,-1],[2,0],[-1,2]],[[1169,2403],[3,-64]],[[2262,2523],[-6,-113],[-41,-62],[-56,-12],[-48,-82],[5,-36]],[[1067,1353],[6,-92]],[[581,2131],[21,18]],[[652,2033],[-3,-6]],[[978,2297],[26,13],[69,39]],[[1041,2332],[-45,-26]],[[1075,2351],[-26,-15]],[[1907,1629],[-1,1],[-2,-1],[2,-1],[1,1]],[[2142,2984],[17,9]],[[2360,3317],[29,40]],[[2526,3449],[61,93]],[[718,2811],[-1,1]],[[1167,3156],[0,-1]],[[1225,3289],[-3,1]],[[1264,3336],[3,3]],[[987,2051],[-3,1]],[[622,2075],[-4,-3]],[[3843,74],[94,-19],[67,45],[92,-32]],[[1273,3240],[-1,30]],[[711,2160],[-12,-13]],[[944,2907],[45,56]],[[998,2973],[-10,-8]],[[1355,3340],[64,42],[-1,101]],[[1423,3488],[18,53],[26,-2],[-29,40]],[[3967,3928],[0,26]],[[492,1938],[38,-21]],[[530,1917],[-37,21]],[[984,2051],[0,1]],[[4061,4028],[35,-10]],[[739,1717],[60,-80]],[[2099,1998],[-35,-96]],[[858,1988],[56,18]],[[1969,1380],[28,-15]],[[689,1865],[-38,-19]],[[657,1832],[4,-1],[29,33]],[[717,1887],[1,2]],[[1412,977],[6,-1]],[[1849,0],[-36,226],[-257,243],[-151,239],[-101,280],[-128,114],[-46,121],[-137,82]],[[2892,3207],[5,-24]],[[3958,3863],[-72,-14]],[[787,1721],[-11,73]],[[3287,3328],[115,-185]],[[609,2099],[-28,32],[2,49]],[[253,1936],[-28,2]],[[266,1943],[-5,-3]],[[262,1940],[5,4]],[[282,1964],[-4,-6]],[[278,1958],[4,5]],[[3351,1146],[-13,5]],[[3506,1061],[-23,29]],[[4096,1728],[-196,-5],[-369,93],[-169,119],[-102,20],[-78,-6],[-200,-108]],[[703,1787],[-5,80]],[[3768,4051],[63,1],[22,-34]],[[778,2090],[88,-22]],[[561,2095],[0,-2]],[[1214,2981],[-1,0]],[[1278,0],[-56,78],[-144,43],[-198,124]],[[16,2173],[-16,9]],[[238,2095],[-127,41]],[[985,2298],[-91,-21]],[[995,2303],[55,32]],[[707,2168],[4,-8]],[[7,2124],[19,-7]],[[60,2104],[-53,22]],[[685,1792],[-34,54]],[[657,1832],[28,-40]],[[685,1792],[6,-8]],[[2059,2034],[-5,58]],[[1055,1550],[32,30],[82,12]],[[3853,4018],[33,-21]],[[39,2017],[-12,-49]],[[29,1973],[11,43]],[[1917,1597],[2,-3]],[[1919,1594],[0,3]],[[1919,1594],[34,-99]],[[2000,1438],[18,-21]],[[2018,1417],[0,-2]],[[2019,1415],[-1,2]],[[610,2788]],[[741,2347],[-10,32]],[[1481,3684],[-14,10]],[[1531,3657],[-49,26]],[[498,2070],[16,9]],[[537,2087]],[[570,2098],[-3,0]],[[617,2075],[1,-3]],[[659,2108],[-36,-32]],[[610,2788],[-1,-1]],[[712,2829],[-25,-14],[-22,21],[-55,-48]],[[1953,1495],[47,-57]],[[1807,2907],[0,-10]],[[989,1347],[2,0]],[[993,1348],[78,10]],[[1070,1361]],[[3595,4070],[-13,26]],[[741,1718],[-3,1]],[[781,1712],[6,9]],[[2262,2523],[149,-14],[87,-35],[116,24],[39,-15]],[[2821,3754],[98,96]],[[2942,3896],[19,39]],[[729,2394],[1,-13]],[[1181,2890],[-15,69]],[[977,2297],[-4,-1]],[[996,2306],[-14,-7]],[[2362,1005],[1,0]],[[2362,1005],[12,-16]],[[699,2147],[-31,-30]],[[726,2164],[21,2]],[[754,2167],[3,-2]],[[1009,2126],[-1,-6]],[[1010,2165],[-1,-39]],[[1009,2120],[0,6]],[[979,2054],[-1,-1]],[[1163,3026],[10,-18]],[[1213,2981],[2,9]],[[3996,4039],[-7,15]],[[469,2049],[-70,-45]],[[530,1917],[13,4]],[[543,1921],[-13,-4]],[[2138,4096],[85,-319],[2,-95],[85,-194],[28,-130]],[[1482,3758],[-62,-171]],[[649,2027],[-25,-32]],[[1013,2118],[11,1]],[[1024,2119],[-11,0]],[[1044,2123],[-20,-4]],[[3912,3948],[3,10]],[[56,2081],[6,16]],[[599,2088],[6,7]],[[561,2093],[12,-21],[4,-6],[6,-7]],[[580,2065],[-19,30]],[[592,2053],[-3,4]],[[3749,2730],[59,10]],[[744,1916],[13,15]],[[1071,1659],[121,-67]],[[1197,1590],[-125,70]],[[500,1937],[-31,-48]],[[3892,3978],[-6,19]],[[3904,3953],[-11,23]],[[3967,3928],[-33,7]],[[3892,3976],[1,1],[0,1],[-1,-1],[0,-1]],[[2116,2218],[-62,-126]],[[3927,3576],[53,201]],[[3980,3777],[7,12]],[[3987,3789],[109,190]],[[4096,4090],[-4,6]],[[779,1914],[-10,27]],[[2099,1998],[-40,36]],[[2819,3715],[-17,21]],[[581,2104],[-7,-4]],[[600,2152],[2,-3]],[[603,2152],[8,14]],[[612,2167],[56,56]],[[654,2529],[-33,10]],[[665,2202],[-35,-56]],[[2059,2034],[-59,48]],[[769,1947],[-8,-10]],[[2161,2995],[-1,0]],[[2653,2483],[34,95],[31,18],[12,99],[-66,188],[18,127],[50,94]],[[2014,1352],[5,-5]],[[1083,2057],[-6,-2]],[[583,2083],[-2,1]],[[629,2537],[-8,2]],[[637,2539],[-8,-2]],[[629,2537],[7,-1]],[[647,2537],[-6,3]],[[643,2020],[42,-21]],[[685,2001],[-17,9]],[[704,1990],[36,-35]],[[3332,3600],[88,123],[108,63],[272,-141]],[[747,2166],[7,1]],[[3966,3916],[1,12]],[[1246,2174],[25,33]],[[691,1784],[12,-16]],[[722,1741],[5,-7]],[[727,1734],[-3,5]],[[727,1734],[12,-17]],[[619,2072],[4,4]],[[572,2623],[7,107]],[[1807,2907],[11,38],[30,-2]],[[2761,3175],[48,16]],[[35,1104]],[[1065,1359],[1,-2]],[[2758,1279],[10,2]],[[1073,1360],[143,69],[364,-36],[183,-102],[150,24],[42,-14],[126,-117],[61,-148],[40,-37],[118,-23],[25,-25],[-9,-48],[68,-70],[306,-113],[67,-79],[89,-182]],[[2855,441],[253,-186],[80,-25]],[[1172,2339],[99,-132]],[[1367,2137],[60,-213]],[[1458,1822],[-29,-289]],[[2455,1278],[0,1]],[[570,2098],[1,-3]],[[2897,3183],[0,-5]],[[3193,2891],[79,-155],[69,-5]],[[583,2059],[7,-4]],[[2099,1998],[13,19],[-28,21],[65,57],[-25,94]],[[2470,1290],[-15,-11]],[[3991,332],[-6,1]],[[979,2051],[1,-1]],[[2293,3206],[44,-23],[91,26]],[[2846,459],[9,-18]],[[964,2293],[1,1]],[[972,2295],[6,2]],[[2290,1398],[172,-88]],[[1239,1566],[11,-7]],[[1504,1534],[177,-26],[214,-123]],[[2358,1010],[-249,242]],[[2910,469],[-25,212],[-38,72],[-148,82],[-103,14],[-166,69],[-56,71]],[[3505,362],[-308,-95],[-41,7],[-229,174]],[[3619,318],[-37,22]],[[3842,354],[-169,-31]],[[3293,3555],[8,45],[31,0]],[[4076,4096],[-20,-15]],[[590,2055],[24,13]],[[629,1895],[28,-63]],[[648,1853],[-18,44]],[[756,2207],[3,3]],[[759,2210],[-3,-2]],[[759,2210],[15,8]],[[3191,229],[91,0],[163,90],[140,-106],[149,-52],[109,-87]],[[3191,229],[-3,1]],[[1126,2033],[165,-125]],[[0,1052],[400,426],[60,110],[31,165]],[[490,1756],[-19,-84],[-12,-84],[-66,-116],[-156,-166],[-116,-112],[-86,-90],[-35,-38]],[[989,2963],[-1,2]],[[1215,2990],[-42,18]],[[1271,3344],[6,-4]],[[778,1914],[60,-71]],[[838,1843],[12,-13],[76,-59]],[[803,1880],[-19,18]],[[927,1771],[-76,59],[-13,13]],[[838,1843],[-6,6]],[[2015,1351],[-120,35]],[[799,1637],[14,34],[-32,41]],[[1807,2897],[-19,7]],[[387,1467],[52,-35]],[[996,1350],[-3,0]],[[1067,1361],[-4,-3]],[[2019,1346],[1,1]],[[2027,1365],[1,1]],[[2028,1366],[3,3]],[[2470,1290],[0,5]],[[1009,2120],[-1,0]],[[2290,3208],[3,-2]],[[674,2340],[-13,8]],[[662,2346],[11,-6]],[[3398,303],[46,6]],[[3445,309],[9,2]],[[27,1961],[2,12]],[[27,1968],[0,-7]],[[354,1493],[-224,218],[-97,148],[-6,102]],[[131,2139],[15,-9]],[[354,1493],[33,-26]],[[395,1461],[-41,32]],[[439,1432],[353,-96],[193,13]],[[988,1350],[-3,-1]],[[985,1349],[3,-1]],[[992,1351],[-3,1]],[[1069,1364],[-2,-3]],[[1071,1358],[-1,3]],[[300,1773],[-163,-75]],[[774,2218],[39,22]],[[2927,448],[-17,21]],[[702,2177],[5,-9]],[[2030,1355],[-4,8]],[[765,1937],[2,-2]],[[3958,3863],[8,53]],[[1355,3443],[-22,-41]],[[1420,3584],[-33,-80]],[[1496,4050],[-28,-132],[14,-160]],[[814,1985],[10,-1]],[[825,1984],[-11,1]],[[1356,979],[56,-2]],[[1418,976],[37,2]],[[2165,2996],[86,142]],[[360,1966],[1,2]],[[1296,0],[-74,78],[-144,43],[-198,124]],[[3923,3994],[30,9]],[[1291,1908],[167,-86]],[[608,1916],[-1,0]],[[669,1814],[-1,4]],[[1218,2984],[57,178],[-2,78]],[[1272,3270],[33,109]],[[965,2294],[8,2]],[[491,1753],[10,61],[-11,-58]],[[3967,3954],[-1,55]],[[615,2255],[15,58]],[[630,2313],[3,2]],[[632,2316],[-2,-1],[0,-2]],[[1533,4096],[-37,-46]],[[2743,3225],[-9,5]],[[2757,3202],[-5,14]],[[2758,3173],[3,2]],[[614,2035],[9,-5]],[[567,2098],[-30,-11]],[[988,1350],[0,-2]],[[4008,4046],[1,0]],[[4009,4046],[0,1]],[[4009,4046],[52,-18]],[[2854,3203],[38,4]],[[1192,1592],[47,-26]],[[1238,1567],[-41,23]],[[1250,1559],[3,-1]],[[1253,1558],[140,-26]],[[1393,1532],[9,-2],[6,0]],[[1504,1535],[-92,-4],[-19,1]],[[1393,1532],[-66,2],[-72,23],[-2,1]],[[1253,1558],[-2,1]],[[1489,1534],[15,0]],[[2732,3104],[14,33]],[[3886,3997],[37,-3]],[[2361,3318],[-2,0]],[[677,2456],[52,-62]],[[151,2083],[-57,8]],[[102,2087],[52,-5]],[[4096,2933],[-126,-122],[-162,-71]],[[3810,0],[-11,89]],[[2374,989],[-11,16]],[[1304,988],[151,-10]],[[592,2113],[12,-17]],[[605,2095],[12,-20]],[[993,1350],[-1,1]],[[649,2434],[0,-20],[0,-4]],[[649,2410],[3,-21]],[[649,2400]],[[649,2409],[0,1]],[[649,2410],[0,4],[3,22]],[[2982,1841],[22,115],[-56,166],[-21,266]],[[2054,2092],[-54,-10]],[[357,1966],[3,0]],[[2739,3350],[32,131],[-14,135],[62,99]],[[3601,2793],[109,-94]],[[725,2637],[0,-2]],[[725,2637],[14,153],[150,120]],[[725,2635],[0,2]],[[1166,2959],[-31,63],[-48,22],[-119,-88]],[[225,1937],[37,3]],[[267,1944],[11,14]],[[282,1963],[4,6]],[[623,2076],[-14,23]],[[641,2133],[-24,-24]],[[2935,0],[254,228]],[[3191,229],[91,0],[163,90],[140,-106],[149,-52],[109,-87],[48,60],[-37,212]],[[3191,229],[-2,2],[-1,-2],[2,-1],[1,1]],[[3842,354],[12,-8]],[[3854,346],[7,11]],[[1183,2892],[-1,-3]],[[12,1934],[-12,1]],[[16,1935],[-4,-1]],[[12,1934],[4,0]],[[26,1941],[-5,0]],[[27,1937],[0,2]],[[1531,3657],[84,-38],[131,73],[154,-106],[113,-168],[197,-13],[84,-56],[44,9]],[[780,1960],[-11,-13]],[[890,259],[-57,-67]],[[3980,3594],[116,-164]],[[336,1970],[21,-4]],[[2251,3138],[39,70]],[[580,1946],[-37,-25]],[[561,1927],[20,18]],[[617,2109],[-13,-13]],[[756,2208],[-12,51]],[[766,2168],[-2,-9]],[[654,2043],[9,28]],[[2359,3317],[0,-2]],[[621,2073],[11,2]],[[663,2071],[10,-1]],[[684,2069],[2,0]],[[824,1984],[8,1]],[[832,1985],[-7,-1]],[[832,1985],[26,3]],[[992,2297],[3,-19]],[[747,2167],[-31,-5]],[[2165,2996],[-4,-1]],[[3287,3328]],[[3402,3143],[99,-266],[100,-84]],[[3442,350],[60,59],[70,141],[106,526]],[[3678,1104],[-43,439],[51,211],[28,31],[18,137],[-17,120],[212,278]],[[3946,2328],[-65,133],[24,40],[-22,102],[-134,127]],[[537,2086]],[[567,2097],[21,12]],[[624,2077],[-2,-2]],[[714,2148],[7,-44]],[[703,1768],[4,-6]],[[710,1757],[11,-15]],[[721,1742],[1,-1]],[[724,1739],[-3,3]],[[3685,4096],[31,-35],[52,-10]],[[3934,3935],[-30,18]],[[3984,3788],[-26,75]],[[3984,3788],[-1,-5]],[[3984,3783],[0,5]],[[1547,3813],[-11,70],[63,213]],[[2160,2995],[-38,9]],[[761,1939],[4,-2]],[[2455,1278],[18,-112],[45,-39]],[[571,2095],[0,-5]],[[574,2100],[0,10]],[[2018,1346],[-27,-14],[-70,50]],[[3678,1076],[0,28]],[[623,2076],[-1,-1]],[[1466,3693],[65,-36]],[[88,2092],[6,-2]],[[221,2073],[48,-36]],[[259,2058],[-36,18]],[[269,2038],[-2,4]],[[354,1967],[-3,1]],[[3927,2320],[19,8]],[[1921,1382],[-21,1]],[[2018,1346],[1,0]],[[620,2032],[-23,17]],[[580,2088],[-7,0]],[[580,2085],[1,-1]],[[599,2088],[-10,-4]],[[3976,4018],[-3,-1]],[[707,1762],[3,-5]],[[908,2281],[-15,-4]],[[912,2282],[52,11]],[[799,1637],[166,-193],[24,-92]],[[94,2090],[8,-3]],[[154,2082],[67,-9]],[[223,2076],[-54,8]],[[1070,1361],[-22,177]],[[3963,4009],[26,45]],[[814,1985],[-28,-17]],[[786,1967],[28,18]],[[686,2069],[29,36]],[[604,2230],[-2,-4]],[[653,2363],[-3,10]],[[1889,2107],[-427,-67]],[[2982,1841],[-120,-50],[-211,9],[-231,124],[-61,-14],[-260,88]],[[1305,3379],[28,23],[-27,-22]],[[537,2087],[-24,-8]],[[514,2079],[23,7]],[[623,2123],[-8,8]],[[658,2089],[-31,30]],[[663,2071],[-3,14]],[[668,1818],[7,32]],[[682,1796],[1,0]],[[690,1864],[27,23]],[[1008,2115],[-24,-59]],[[1007,2119],[0,-1]],[[1719,1480],[-24,-36]],[[1765,1386],[55,-1]],[[2026,1363]],[[2968,2927],[-91,157]],[[618,2072],[-26,-17]],[[614,2068],[3,2]],[[1306,3380],[112,103]],[[1423,3488],[81,91],[43,234]],[[1599,4096]],[[133,1701],[4,-3]],[[644,2021],[-24,11]],[[623,2030],[20,-10]],[[757,1931],[2,1]],[[16,2173],[95,-37]],[[370,2076],[-132,19]],[[372,2096],[6,0]],[[458,2094],[-17,-1]],[[511,2080],[-5,-2]],[[529,2082],[38,15]],[[567,2098],[-30,-11]],[[712,2183],[4,2]],[[734,2194],[6,4]],[[748,2203],[110,60]],[[858,2263],[3,1]],[[861,2264],[33,13]],[[703,1786],[0,1]],[[1070,1361],[-3,0]],[[2356,3305],[-1,1]],[[222,0],[-23,79],[-199,-29]],[[767,1935],[11,-21]],[[2359,3317],[1,0]],[[1048,1538],[6,12]],[[361,1969],[-7,-2]],[[377,1986],[-6,-5]],[[2019,1347],[68,-74]],[[2110,1252],[-90,94]],[[716,2185],[17,10]],[[978,2053],[1,-2]],[[981,2055],[-1,0]],[[980,2050],[7,1]],[[3341,2731],[38,57]],[[579,2730],[31,38]],[[605,2775],[-2,4]],[[673,2460],[1,-2]],[[1014,2218],[-4,-53]],[[1013,2235],[1,-8]],[[1014,2227],[0,-9]],[[574,2114],[5,12]],[[579,2126],[1,5]],[[600,2152],[3,0]],[[610,2768],[-5,7]],[[611,2166],[1,1]],[[3843,74],[45,56],[-16,62]],[[1565,0],[51,41],[72,129],[166,128],[219,69],[48,64],[71,5],[69,74],[77,37],[115,-4],[69,42],[125,164]],[[371,1981],[-10,-12]],[[361,1968],[35,33]],[[396,2002],[-19,-16]],[[1092,2051],[0,1]],[[1387,3504],[-32,-61]],[[633,2315],[22,-25]],[[2734,3230],[-20,29],[33,55],[-8,36]],[[2752,3216],[-9,9]],[[620,2536],[-43,20],[-5,67]],[[581,2104],[49,42]],[[673,2460],[-19,69]],[[665,2202],[91,100],[-15,45]],[[716,2162],[-5,-2]],[[680,2336],[19,-12],[6,-2]],[[706,2323],[-26,14]],[[668,2117],[-9,-9]],[[584,2183],[14,33]],[[344,2672],[-133,98],[-211,228]],[[2374,989],[-49,-38]],[[2363,1005],[155,122]],[[2739,3165],[19,8]],[[2761,3175],[-4,27]],[[784,1898],[-5,16]],[[699,2147],[27,17]],[[703,1786],[73,8]],[[2159,2983],[158,-114],[-95,-102],[-4,-89],[44,-155]],[[2428,3209],[27,27]],[[530,1917],[-1,-11]],[[673,2070],[11,-1]],[[624,1995],[-25,-28]],[[1047,2049],[-60,2]],[[866,2068],[112,-15]],[[1304,988],[52,-9]],[[2353,3309]],[[2353,3309],[7,8]],[[2359,3315],[-6,-6]],[[583,2178],[-1,-25]],[[583,2180],[1,3]],[[598,2216],[17,39]],[[636,2536],[16,-6]],[[641,2540],[-4,-1]],[[652,2530],[-5,7]],[[666,2521],[-17,-87]],[[650,2373],[-1,27]],[[652,2436],[26,68],[-12,17]],[[652,2389],[11,-56]],[[666,2521],[-14,9]],[[663,2333],[-4,17],[-6,13]],[[663,2333],[-9,-2]],[[408,2092],[-30,4]],[[441,2093],[-15,-3]],[[506,2078],[-13,25],[-35,-9]],[[537,2087],[-26,-7],[18,2]],[[574,2100],[-7,-2]],[[641,2133],[61,44]],[[1580,2637],[-339,-188],[-87,-52]],[[1172,2407],[408,228]],[[2166,2991],[-352,-200]],[[1829,2797],[352,197]],[[2732,3114],[-166,-44]],[[2744,3119],[-12,-5]],[[2775,3130],[-31,-11]],[[2775,3130],[10,4]],[[2866,3165],[-81,-31]],[[3065,3243],[-168,-65]],[[3948,3579],[-253,-101]],[[3991,3616],[-1,0]],[[4096,3643],[-17,-5]],[[912,2282],[-4,-1]],[[969,2295],[3,0]],[[982,2299],[-5,-2]],[[1049,2336],[-8,-4]],[[1073,2349],[99,58]],[[1154,2397],[-79,-46]],[[2787,1286],[6,3]],[[361,1799],[92,71]],[[989,1352],[-1,-2]],[[988,1348],[1,-1]],[[991,1347],[2,1]],[[2159,2993],[6,3]],[[2389,3357],[137,92]],[[2587,3542],[234,212]],[[712,2183],[4,2]],[[756,2208],[-23,-13],[23,12]],[[3953,4003],[13,6]],[[4009,4047],[-1,0]],[[4008,4046],[1,1]],[[4056,4081],[-27,-19]],[[3861,294],[-7,52]],[[1418,3483],[5,5]],[[1458,1822],[10,-2]],[[1712,1742],[192,-111]],[[1904,1631],[0,-2]],[[1906,1630],[-2,1]],[[1906,1628],[1,-1]],[[1907,1627],[0,1]],[[1907,1627],[10,-28]],[[1917,1599],[0,-2],[2,0],[0,2],[-2,0]],[[516,2078],[-10,0]],[[1213,2981],[-47,-22]],[[769,1941],[-18,7]],[[758,1941],[3,-2]],[[889,2910],[79,46]],[[2819,3715],[2,39]],[[702,2177],[10,6]],[[2338,3358],[18,-39]],[[2356,3319],[3,-2]],[[2360,3317],[-4,2]],[[586,1944],[43,-49]],[[630,1897],[-42,47]],[[660,2085],[-2,4]],[[995,2303],[-10,-5]],[[1050,2335],[3,2]],[[26,2117],[62,-25]],[[94,2091],[-34,13]],[[113,2142],[-34,7],[-27,-77]],[[62,2097],[18,51],[33,-6]],[[1420,3587],[0,-3]],[[147,2131],[-16,8]],[[146,2130],[3,-1]],[[2866,3165],[11,-81]],[[685,1999],[10,-5]],[[699,1994],[-5,2]],[[745,1954],[-7,6]],[[740,1955],[16,-13]],[[2360,3317],[-1,-2]],[[0,2357],[60,29],[76,37],[111,96],[53,77],[37,72],[40,53],[113,32],[112,73],[285,187],[25,76],[56,62],[66,42],[50,19],[1,58],[29,38],[70,50],[193,224],[63,149],[24,214],[-6,151],[2638,0],[0,-4096],[-4096,0],[0,2357]],[[3761,653],[20,0],[-1,59],[38,-5],[12,36],[37,-13],[6,19],[135,-24],[11,-74],[36,-25],[-85,-7],[-7,-96],[-40,2],[-20,71],[-121,-1],[-21,58]],[[2801,708],[30,23],[39,-56],[12,-67],[-25,-19],[-2,-52],[83,-103],[-24,-25],[-61,33],[-37,88],[23,122],[-38,56]],[[80,2405],[141,100],[34,-22],[-63,-50],[3,-65],[-25,-24],[-77,-9],[-13,70]],[[2434,2560],[17,27],[18,-17],[67,20],[22,-83],[-94,-9],[-30,62]],[[1535,2528],[35,16],[-30,19],[31,19],[-18,24],[28,26],[-7,61],[97,88],[-14,23],[114,13],[21,-35],[37,15],[9,-15],[-32,-20],[12,-54],[-106,-63],[-48,13],[-52,-52],[-39,-2],[25,-43],[46,0],[4,-28],[-45,8],[15,-37],[-77,-26],[-6,50]],[[1663,3590],[22,30],[10,-30],[32,0],[23,35],[46,-38],[21,-113],[-19,-43],[40,7],[38,-53],[-75,-86],[-27,128],[-52,-8],[-17,93],[23,2],[-51,5],[-14,71]],[[1831,1489],[30,29],[90,-21],[66,-80],[-63,37],[-60,-17],[-63,52]],[[838,1652],[35,51],[99,-58],[87,-88],[-19,-34],[15,-52],[-90,-2],[-51,122],[-76,61]],[[100,1546],[20,25],[108,-70],[29,43],[20,-45],[-42,-52],[-27,26],[-19,-11],[-15,54],[-26,-31],[-48,61]],[[4054,1007],[42,5],[0,-50],[-37,12],[-5,33]],[[3776,978],[13,37],[58,19],[-35,21],[37,3],[-35,32],[32,54],[72,-31],[21,55],[110,-42],[-54,-74],[-43,17],[-85,-117],[-91,26]],[[1350,3015],[21,167],[24,14],[-23,-8],[5,38],[35,17],[-25,24],[18,97],[52,9],[-5,27],[219,10],[45,-323],[-49,-149],[-64,6],[-1,43],[-48,0],[2,-41],[-101,10],[-47,63],[-58,-4]],[[2657,1091],[10,40],[57,15],[-22,54],[40,24],[-59,-13],[-2,27],[64,-2],[14,46],[29,-3],[-19,-159],[51,-61],[-23,-11],[-30,56],[-18,-54],[-26,62],[-66,-21]],[[3988,3948],[-61,19],[-15,109],[145,20],[16,-20],[-21,-84],[-64,-44]],[[61,1999],[-42,33],[-18,63],[28,142],[97,-59],[-65,-179]],[[687,2503],[-9,-199],[101,69],[47,-6],[73,-96],[15,-72],[86,-21],[44,-53],[20,-423],[-61,48],[-113,31],[-85,100],[-42,-14],[-48,-77],[-103,-28],[-66,-60],[-42,13],[-55,166],[-129,-119],[-125,67],[-69,-8],[45,186],[84,111],[-33,155],[17,238],[138,210],[113,32],[99,65],[61,-118],[37,-197]],[[2813,3303],[76,67],[20,151],[69,1],[-16,-102],[33,2],[-31,-34],[29,-30],[-50,5],[-43,-43],[18,-8],[-19,-56],[-18,40],[-62,-11],[-6,18]],[[382,2709],[218,91],[235,169],[210,241],[202,171],[164,227],[-32,-139],[-93,-101],[-30,-4],[12,-26],[-37,-11],[-12,-36],[53,-15],[4,-33],[-96,-100],[-53,49],[-37,-21],[5,-25],[-60,37],[-2,-67],[30,-37],[-34,-32],[-44,38],[-13,-7],[28,-19],[-79,-81],[50,-24],[-83,-48],[5,29],[-42,-10],[3,28],[-21,-1],[-29,-97],[-174,-89],[-20,22],[-44,-54],[5,34],[-16,-6],[-18,-47],[-56,-26],[-63,-18],[-36,38]],[[2531,1347],[38,29],[54,-57],[160,-12],[58,-111],[67,-6],[-29,-42],[23,-51],[73,6],[66,69],[190,18],[59,-41],[57,2],[36,-43],[95,-20],[58,25],[145,-9],[58,97],[68,35],[48,78],[58,15],[142,-49],[25,21],[16,-55],[-45,20],[-55,-43],[-134,60],[-57,-79],[-46,-15],[2,-38],[-53,-66],[-65,-19],[-98,11],[-13,-24],[-101,30],[-16,-22],[-187,68],[-23,32],[-56,0],[-26,-44],[-69,38],[-113,-97],[-68,27],[-9,70],[-59,56],[-18,76],[-120,-25],[-136,85]],[[1350,3015],[21,167],[24,14],[-23,-8],[5,38],[35,17],[-25,24],[18,97],[52,9],[-5,27],[219,10],[45,-323],[-49,-149],[-64,6],[-1,43],[-48,0],[2,-41],[-101,10],[-47,63],[-58,-4]],[[3453,352],[90,18],[70,-53],[84,9],[38,-90],[109,-54],[-1,-20],[-161,20],[-80,103],[-106,16],[6,28],[-49,23]],[[157,1950],[44,117],[10,-77],[18,-2],[-49,-180],[-23,142]],[[643,2428],[68,56],[20,-8],[13,-37],[-21,-64],[-58,-41],[-22,94]],[[708,2430],[11,-8],[5,12],[-12,10],[-4,-14]],[[711,2469],[8,7],[11,-1],[-11,4],[-8,-10]],[[679,2410],[1,-3],[2,-10],[4,19],[-7,-6]],[[702,2373],[4,-4],[5,7],[-4,4],[-5,-7]],[[2157,2989],[235,374],[141,91],[54,88],[334,311],[47,97],[-9,146],[912,0],[-20,-85],[17,-83],[32,27],[110,-65],[56,44],[-12,60],[38,-6],[4,20],[0,-365],[-105,-27],[-16,-27],[-264,-96],[-31,-31],[-393,-134],[106,-163],[63,-164],[-21,-37],[46,-83],[-35,-91],[-88,6],[-85,123],[-101,-28],[-140,70],[33,19],[-15,67],[45,97],[-29,99],[-198,-70],[-44,91],[-27,1],[7,-20],[-3,-1],[-26,20],[5,-30],[-5,17],[-23,-35],[-16,16],[-20,-20],[30,-31],[-40,-59],[-66,-9],[31,-23],[-514,-101]],[[4096,4053],[-47,33],[-76,-15],[-40,25],[163,0],[0,-43]],[[1282,2873],[40,52],[-6,90],[37,23],[18,144],[22,5],[-21,1],[5,38],[35,17],[-52,92],[97,38],[-5,27],[219,10],[45,-323],[-49,-149],[-40,-2],[-70,-83],[-43,5],[15,-53],[-108,0],[24,25],[-20,26],[-29,-19],[-36,45],[-41,-38],[-37,29]]]}