{"objects":{"water":{"type":"GeometryCollection","geometries":[]},"buildings":{"type":"GeometryCollection","geometries":[]},"places":{"type":"GeometryCollection","geometries":[{"type":"Point","properties":{"kind":"region","name:en":"Panev\u0117\u017eys County","name":"Panev\u0117\u017eio apskritis","kind_detail":"state","min_zoom":4.0,"name:de":"Bezirk Ponewiesch","source":"openstreetmap.org","name:fr":"Apskritis de Panev\u0117\u017eys","name:uk":"\u041f\u0430\u043d\u0435\u0432\u0435\u0436\u0438\u0441\u044c\u043a\u0438\u0439 \u043f\u043e\u0432\u0456\u0442","name:be":"\u041f\u0430\u043d\u044f\u0432\u0435\u0436\u0441\u043a\u0456 \u043f\u0430\u0432\u0435\u0442","name:ru":"\u041f\u0430\u043d\u044f\u0432\u0435\u0436\u0441\u043a\u0438\u0439 \u0443\u0435\u0437\u0434","name:pl":"okr\u0119g poniewieski","id":864663247},"coordinates":[2462,1341]},{"type":"Point","properties":{"name:el":"\u039c\u03c0\u03b9\u03c1\u03b6\u03ac\u03b9","kind":"locality","name:lv":"Bir\u017ei","name":"Bir\u017eai","name:ka":"\u10d1\u10d8\u10e0\u10df\u10d0\u10d8","kind_detail":"town","name:de":"Birsen","source":"openstreetmap.org","min_zoom":8.0,"name:uk":"\u0411\u0456\u0440\u0436\u0430\u0439","name:ru":"\u0411\u0438\u0440\u0436\u0430\u0439","name:pl":"Bir\u017ce","id":195151555,"population":12465},"coordinates":[2478,2215]},{"type":"Point","properties":{"kind":"locality","name":"Bauska","name:lt":"Bausk\u0117","alt_name:de":"Marienland","kind_detail":"town","name:de":"Bauske","source":"openstreetmap.org","min_zoom":8.0,"name:be":"\u0411\u0430\u045e\u0441\u043a\u0430","name:ru":"\u0411\u0430\u0443\u0441\u043a\u0430","name:pl":"Bowsk","id":343697069,"population":9796},"coordinates":[820,3305]},{"type":"Point","properties":{"kind":"locality","name:lv":"Pasvale","name":"Pasvalys","name:ka":"\u10de\u10d0\u10e1\u10d5\u10d0\u10da\u10d8\u10e1\u10d8","kind_detail":"town","name:de":"Poswol","source":"openstreetmap.org","min_zoom":8.0,"name:uk":"\u041f\u0430\u0441\u0432\u0430\u043b\u0438\u0441","name:ru":"\u041f\u0430\u0441\u0432\u0430\u043b\u0438\u0441","name:pl":"Poswol","id":1786294150,"population":7523},"coordinates":[1428,1495]},{"type":"Point","properties":{"name:lv":"Kupi\u0161\u0137i","name:ja":"\u30af\u30d4\u30b7\u30e5\u30ad\u30b9","name:fa":"\u06a9\u0648\u067e\u06cc\u0634\u06a9\u06cc\u0633","name:he":"\u05e7\u05d5\u05e4\u05d9\u05e9\u05e7\u05d9\u05e1","name:ur":"\u06a9\u0648\u067e\u0634\u06a9\u0633","min_zoom":8.0,"name:uk":"\u041a\u0443\u043f\u0438\u0448\u043a\u0456\u0441","old_name":"Kupiszki, Kupishok, Kupischki","name:ru":"\u041a\u0443\u043f\u0438\u0448\u043a\u0438\u0441","name:pl":"Kupiszki","id":484230431,"population":7206,"name:el":"\u039a\u03bf\u03c5\u03c0\u03af\u03c3\u03ba\u03b9\u03c2","kind":"locality","name":"Kupi\u0161kis","kind_detail":"town","name:de":"Kupischken","source":"openstreetmap.org","name:be":"\u041a\u0443\u043f\u0456\u0448\u043a\u0456\u0441","name:zh":"\u5eab\u76ae\u4ec0\u57fa\u65af"},"coordinates":[3116,326]},{"type":"Point","properties":{"kind":"locality","name":"Linkuva","kind_detail":"town","name:de":"Linkau","source":"openstreetmap.org","min_zoom":8.0,"name:ru":"\u041b\u0438\u043d\u043a\u0443\u0432\u0430","name:pl":"Link\u00f3w","id":769311064,"population":1550},"coordinates":[196,1620]},{"type":"Point","properties":{"kind":"locality","name":"Joni\u0161k\u0117lis","kind_detail":"town","source":"openstreetmap.org","min_zoom":8.0,"name:ru":"\u0419\u043e\u043d\u0438\u0448\u043a\u0435\u043b\u0438\u0441","name:pl":"Johaniszkiele","id":1033964861,"population":1201},"coordinates":[769,1287]},{"type":"Point","properties":{"name:sr":"\u0412\u0430\u0431\u0430\u043b\u043d\u0438\u043d\u043a\u0430\u0441","name:he":"\u05d5\u05d1\u05dc\u05e0\u05d9\u05e0\u05e7\u05e1","name:lv":"Vabalninka","name:ka":"\u10d5\u10d0\u10d1\u10d0\u10da\u10dc\u10d8\u10dc\u10d9\u10d0\u10e1\u10d8","name:el":"\u0392\u03b1\u03bc\u03c0\u03b1\u03bb\u03bd\u03af\u03bd\u03ba\u03b1\u03c2","name:ar":"\u0641\u0627\u0628\u0627\u0644\u0646\u064a\u0646\u0643\u0627\u0633","name:kk":"\u0412\u0430\u0431\u0430\u043b\u044c\u043d\u0438\u043d\u043a\u0430\u0441","name:sa":"\u0935\u092c\u0932\u094d\u0928\u093f\u0928\u094d\u0915\u0903","min_zoom":8.0,"name:hy":"\u054e\u0561\u0562\u0561\u056c\u0576\u056b\u0576\u056f\u0561\u057d","name:ru":"\u0412\u0430\u0431\u0430\u043b\u044c\u043d\u0438\u043d\u043a\u0430\u0441","name:pl":"Wobolniki","name:bg":"\u0412\u0430\u0431\u0430\u043b\u043d\u0438\u043d\u043a\u0430\u0441","id":444364850,"name:mk":"\u0412\u0430\u0431\u0430\u043b\u043d\u0438\u043d\u043a\u0430\u0441","population":1057,"name:fa":"\u0648\u0627\u0628\u0627\u0644\u0646\u06cc\u0646\u06a9\u0627\u0633","kind":"locality","name":"Vabalninkas","kind_detail":"town","name:de":"Wobolnicken","source":"openstreetmap.org","name:be":"\u0412\u0430\u0431\u0430\u043b\u044c\u043d\u0456\u043d\u043a\u0430\u0441","name:zh":"\u74e6\u5df4\u723e\u5be7\u5361\u65af"},"coordinates":[2448,1064]},{"type":"Point","properties":{"kind":"locality","name":"\u017deimelis","kind_detail":"town","old_name:ru":"\u0416\u0435\u0439\u043c\u0435\u043b\u0435","name:de":"Schemeln","source":"openstreetmap.org","min_zoom":8.0,"name:ru":"\u0416\u0435\u0439\u043c\u0435\u043b\u0438\u0441","name:pl":"\u017bejmele","id":272227633,"population":953},"coordinates":[264,2607]},{"type":"Point","properties":{"kind":"locality","name":"Pump\u0117nai","kind_detail":"town","name:de":"Pompianen","source":"openstreetmap.org","min_zoom":8.0,"name:pl":"Pompiany","id":444388286,"population":855},"coordinates":[1256,833]},{"type":"Point","properties":{"kind":"locality","name":"Pand\u0117lys","kind_detail":"town","source":"openstreetmap.org","min_zoom":8.0,"name:ru":"\u041f\u0430\u043d\u0434\u0435\u043b\u0438\u0441","name:pl":"Ponedele","id":822171870,"population":809},"coordinates":[3846,1288]},{"type":"Point","properties":{"kind":"locality","name":"Klovainiai","kind_detail":"town","source":"openstreetmap.org","min_zoom":8.0,"name:pl":"K\u0142awany","id":1452924178,"population":785},"coordinates":[109,910]},{"type":"Point","properties":{"kind":"locality","name":"Salo\u010diai","kind_detail":"town","name:de":"Salatt","source":"openstreetmap.org","min_zoom":8.0,"name:pl":"Sa\u0142aty","id":1833147367,"population":720},"coordinates":[1468,2361]},{"type":"Point","properties":{"kind":"locality","name":"Pu\u0161alotas","kind_detail":"town","name:de":"Puscheloten","source":"openstreetmap.org","min_zoom":8.0,"name:pl":"Puszo\u0142aty","id":1037622772,"population":692},"coordinates":[969,817]},{"type":"Point","properties":{"kind":"locality","name":"Va\u0161kai","kind_detail":"town","name:de":"Waschken","source":"openstreetmap.org","min_zoom":8.0,"name:pl":"Konstantyn\u00f3w","id":770159792,"population":568},"coordinates":[889,2056]},{"type":"Point","properties":{"kind":"locality","name":"Nemun\u0117lio Radvili\u0161kis","kind_detail":"town","source":"openstreetmap.org","min_zoom":8.0,"name:pl":"Radziwiliszki","id":769224973,"population":566},"coordinates":[2522,3242]},{"type":"Point","properties":{"kind":"locality","name":"Smilgiai","kind_detail":"town","name:de":"Smilgen","source":"openstreetmap.org","min_zoom":8.0,"name:pl":"Smilgie","id":769290687,"population":544},"coordinates":[312,139]},{"type":"Point","properties":{"kind":"locality","name":"Krin\u010dinas","kind_detail":"town","name:de":"Krintschin","source":"openstreetmap.org","min_zoom":8.0,"name:pl":"Kryniczyn","id":769241609,"population":461},"coordinates":[1801,1600]},{"type":"Point","properties":{"kind":"locality","name":"Dauj\u0117nai","kind_detail":"town","source":"openstreetmap.org","min_zoom":8.0,"name:pl":"Dowiany","id":1051595656,"population":423},"coordinates":[1778,1052]},{"type":"Point","properties":{"kind":"locality","name":"Skapi\u0161kis","kind_detail":"town","source":"openstreetmap.org","min_zoom":8.0,"name:pl":"Skopiszki","id":613348822,"population":403},"coordinates":[3772,614]},{"type":"Point","properties":{"kind":"locality","name":"Alizava","kind_detail":"town","name:de":"Pockappe","source":"openstreetmap.org","min_zoom":8.0,"name:pl":"Alojz\u00f3w","id":1794205610,"population":344},"coordinates":[3189,1024]},{"type":"Point","properties":{"kind":"locality","name":"Gele\u017eiai","kind_detail":"town","source":"openstreetmap.org","min_zoom":8.0,"name:ru":"\u0413\u0435\u043b\u0435\u0436\u044f\u0439","name:pl":"Gie\u0142a\u017ce","id":2234355148,"population":317},"coordinates":[2308,345]},{"type":"Point","properties":{"kind":"locality","name":"Pabir\u017e\u0117","kind_detail":"town","name:de":"Unter-Birsen","source":"openstreetmap.org","min_zoom":8.0,"name:pl":"Podbir\u017ce","id":2241206389,"population":300},"coordinates":[2115,2161]},{"type":"Point","properties":{"kind":"locality","name":"Salamiestis","kind_detail":"town","name:de":"Sollomisch","source":"openstreetmap.org","min_zoom":8.0,"name:pl":"So\u0142omie\u015b\u0107","id":2272469146,"population":252},"coordinates":[2829,871]},{"type":"Point","properties":{"kind":"locality","name":"Papilys","kind_detail":"town","source":"openstreetmap.org","min_zoom":8.0,"name:pl":"Popiel","id":1813485927,"population":236},"coordinates":[3208,1784]},{"type":"Point","properties":{"kind":"locality","name":"Panemunis","kind_detail":"town","source":"openstreetmap.org","min_zoom":8.0,"name:pl":"Poniemu\u0144","id":822169470,"population":231},"coordinates":[4027,1498]},{"type":"Point","properties":{"kind":"locality","name":"Krikliniai","kind_detail":"town","source":"openstreetmap.org","min_zoom":8.0,"name:pl":"Kryklany","id":1051594210,"population":228},"coordinates":[1589,717]},{"type":"Point","properties":{"kind":"locality","name":"Anta\u0161ava","kind_detail":"town","name:de":"Popwese","source":"openstreetmap.org","min_zoom":8.0,"name:ru":"\u0410\u043d\u0442\u0430\u0448\u0430\u0432\u0430","name:pl":"Antoszew","id":2307752999,"population":227},"coordinates":[2616,679]},{"type":"Point","properties":{"kind":"locality","name":"Kupreli\u0161kis","kind_detail":"town","name:de":"Krumpstegalle","source":"openstreetmap.org","min_zoom":8.0,"name:pl":"Kupreliszki","id":2334433499,"population":188},"coordinates":[3085,1384]},{"type":"Point","properties":{"kind":"locality","name":"Suvaini\u0161kis","kind_detail":"town","name:de":"Schuwinischek","source":"openstreetmap.org","min_zoom":8.0,"name:pl":"Suwejniszki","id":822167498,"population":175},"coordinates":[3994,1992]},{"type":"Point","properties":{"kind":"locality","name":"Skapi\u0161kis","kind_detail":"town","source":"openstreetmap.org","min_zoom":8.0,"name:ru":"\u0441\u0442\u0430\u043d\u0446\u0438\u044f \u0421\u043a\u0430\u043f\u0438\u0448\u043a\u0438\u0441","name:pl":"Skopiszki","id":1307500245,"population":85},"coordinates":[3760,460]},{"type":"Point","properties":{"kind":"locality","name":"Pal\u0117ven\u0117","kind_detail":"town","alt_name:pl":"Po\u0142awie\u0144","source":"openstreetmap.org","min_zoom":8.0,"name:pl":"Po\u0142awe\u0144","id":1805236301,"population":74},"coordinates":[2837,147]}]},"transit":{"type":"GeometryCollection","geometries":[]},"pois":{"type":"GeometryCollection","geometries":[{"type":"Point","properties":{"kind":"protected_area","protect_class":"4","area":29200300,"source":"openstreetmap.org","min_zoom":8.0,"tier":2,"id":131857025,"name":"Dabas parks \"Bauska\""},"coordinates":[519,3375]},{"type":"Point","properties":{"kind":"protected_area","protect_class":"4","area":65624600,"source":"openstreetmap.org","min_zoom":8.0,"tier":2,"id":132054106,"name":"AKLAIS PURVS"},"coordinates":[3547,3781]},{"type":"Point","properties":{"kind":"protected_area","protect_class":"4","name:lt":"Panemun\u0117s mi\u0161kas","area":25912400,"source":"openstreetmap.org","min_zoom":8.0,"tier":2,"name:pl":"Las Poniemu\u0144ski","id":132054651,"name":"Pa\u0146em\u016bnes me\u017ei"},"coordinates":[1630,2745]},{"type":"Point","properties":{"kind":"protected_area","protect_class":"4","area":10747100,"source":"openstreetmap.org","min_zoom":8.0,"tier":2,"id":132055122,"name":"Z\u0101\u013cezera purvs"},"coordinates":[1906,3629]}]},"boundaries":{"type":"GeometryCollection","geometries":[{"type":"LineString","properties":{"name:right:yo":"L\u00e1tf\u00ed\u00e0","name:right:yi":"\u05dc\u05e2\u05d8\u05dc\u05d0\u05e0\u05d3","name:left:la":"Lituania","name:right:qu":"Litunya","name:left:li":"Litauwe","name:left:vi":"Litva","name:left:ka":"\u10da\u10d8\u10e2\u10d5\u10d0","name:left:kl":"Litaueni","name:left:ko":"\ub9ac\ud22c\uc544\ub2c8\uc544","name:right:it":"Lettonia","name:left:ki":"Lithuania","name:left:ro":"Lituania","name:left:kk":"\u041b\u0438\u0442\u0432\u0430","name:left:rm":"Lituania","name:left:ku":"L\u00eetvanya","name:left:kw":"Lithouani","name:left:kv":"\u041b\u0438\u0442\u0432\u0430","name:right:ro":"Letonia","name:left:ru":"\u041b\u0438\u0442\u0432\u0430","name:right:ie":"Latvia","name:right:id":"Latvia","name:left:ky":"\u041b\u0438\u0442\u0432\u0430","name:right:ia":"Latvia","name:right:bi":"Latvia","name:right:bn":"\u09b2\u09be\u09a4\u09ad\u09bf\u09af\u09bc\u09be","name:right:bo":"\u0f63\u0f0b\u0f4a\u0f0b\u0f5d\u0f72\u0f61\u0f0d","name:left:sl":"Litva","name:right:ba":"\u041b\u0430\u0442\u0432\u0438\u044f","name:right:bg":"\u041b\u0430\u0442\u0432\u0438\u044f","name:right:be":"\u041b\u0430\u0442\u0432\u0456\u044f","name:right:br":"Latvia","name:right:nn":"Latvia","name:right:no":"Latvia","name:right:nl":"Letland","name:right:wo":"Let\u00f3oni","name:right:ne":"\u0932\u093e\u0924\u094d\u092d\u093f\u092f\u093e","name:right:na":"Ratebiya","name:right:nv":"L\u00e9tbiiya","name:left:mg":"Litoania","kind_detail":"2","name:left:tr":"Litvanya","name:right:gu":"\u0ab2\u0abe\u0a9f\u0ab5\u0abf\u0aaf\u0abe","name:right:gv":"Yn Latvey","name:right:pt":"Let\u00f3nia","name:left:mk":"\u041b\u0438\u0442\u0432\u0430\u043d\u0438\u0458\u0430","name:left:mi":"Ritu\u0101nia","name:left:ts":"Lithuania","name:left:tt":"\u041b\u0438\u0442\u0432\u0430","name:left:mn":"\u041b\u0438\u0442\u0432\u0430","name:left:ml":"\u0d32\u0d3f\u0d24\u0d4d\u0d35\u0d3e\u0d28\u0d3f\u0d2f","name:left:th":"\u0e1b\u0e23\u0e30\u0e40\u0e17\u0e28\u0e25\u0e34\u0e17\u0e31\u0e27\u0e40\u0e19\u0e35\u0e22","name:left:mr":"\u0932\u093f\u0925\u0941\u090f\u0928\u093f\u092f\u093e","name:left:tk":"Litwa","name:left:tl":"Litwaniya","name:left:mt":"Litwanja","name:right:gl":"Letonia","name:left:my":"\u101c\u1005\u103a\u101e\u1030\u101a\u1031\u1038\u1014\u102e\u1038\u101a\u102c\u1038\u1014\u102d\u102f\u1004\u103a\u1004\u1036","name:right:gn":"Leto\u00f1a","name:right:pl":"\u0141otwa","name:left:te":"\u0c32\u0c3f\u0c25\u0c41\u0c35\u0c47\u0c28\u0c3f\u0c2f\u0c3e","name:left:tg":"\u041b\u0438\u0442\u0432\u0430","name:left:ms":"Lithuania","name:right:gd":"An Laitbhe","name:right:tr":"Letonya","name:left:da":"Litauen","name:left:de":"Litauen","name:left:dz":"\u0f63\u0f72\u0f0b\u0f50\u0f74\u0f0b\u0f53\u0f72\u0f0b\u0f61\u0f0d","name:right:ga":"An Laitvia","name:left:dv":"\u078d\u07a8\u078c\u07aa\u0787\u07ad\u0782\u07a8\u0787\u07a7","name:right:ug":"\u0644\u0627\u062a\u06cb\u0649\u064a\u06d5","name:left:hi":"\u0932\u093f\u0925\u0941\u0906\u0928\u093f\u092f\u093e","name:right:lb":"Lettland","name:right:uk":"\u041b\u0430\u0442\u0432\u0456\u044f","name:left:he":"\u05dc\u05d9\u05d8\u05d0","name:right:ln":"Letoni","name:right:li":"Letland","name:right:ur":"\u0644\u0679\u0648\u06cc\u0627","name:left:hy":"\u053c\u056b\u057f\u057e\u0561","name:left:ta":"\u0bb2\u0bbf\u0ba4\u0bcd\u0ba4\u0bc1\u0bb5\u0bc7\u0ba9\u0bbf\u0baf\u0bbe","name:left:ht":"Lityani","name:left:hu":"Litv\u00e1nia","name:left:hr":"Litva","sort_rank":262,"name:right:os":"\u041b\u0430\u0442\u0432\u0438","name:right:es":"Letonia","name:right:sr":"\u041b\u0435\u0442\u043e\u043d\u0438\u0458\u0430","name:right:eu":"Letonia","name:right:et":"L\u00e4ti","name:left:os":"\u041b\u0438\u0442\u0432\u0430","name:left:or":"\u0b32\u0b3f\u0b25\u0b41\u0b06\u0b28\u0b3f\u0b06","name:left:ve":"Lituania","name:right:ee":"Latvia","name:left:vo":"Lietuv\u00e4n","name:left:oc":"Litu\u00e0nia","name:right:eo":"Latvujo","name:right:en":"Latvia","name:right:el":"\u039b\u03b5\u03c4\u03bf\u03bd\u03af\u03b1","name:left:ff":"Lituwaniya","name:left:fa":"\u0644\u06cc\u062a\u0648\u0627\u0646\u06cc","name:left:fo":"Litava","name:left:fj":"Lituani","name:right:sk":"Loty\u0161sko","name:left:fi":"Liettua","name:left:fr":"Lituanie","name:left:fy":"Litouwen","name:right:ja":"\u30e9\u30c8\u30d3\u30a2","name:right:sq":"Letonia","name:right:ss":"ILathiviya","name:left:ja":"\u30ea\u30c8\u30a2\u30cb\u30a2","name:right:su":"Latvia","name:right:st":"Latvia","name:right:sw":"Latvia","name:right:sv":"Lettland","name:right:sh":"Letonija","name:left:qu":"Lituwa","name:right:jv":"Latvia","name:right:so":"Latfiya","name:right:sa":"\u0932\u093e\u091f\u094d\u0935\u093f\u092f\u093e","name:right:sc":"Lettonia","name:left:jv":"Lituania","id":-72596,"name:right:co":"Lettonia","name:right:ca":"Let\u00f2nia","name:right:se":"L\u00e1tvia","name:right:ce":"\u041b\u0430\u0442\u0432\u0438","name:right:cy":"Latfia","name:right:zh-yue":"\u62c9\u812b\u7dad\u4e9e","name:right:cs":"Loty\u0161sko","name:right:cu":"\u041b\u0430\u0442\u0432\u0457\ua657","name:right:cv":"\u041b\u0430\u0442\u0432\u0438","name:left:ar":"\u0644\u064a\u062a\u0648\u0627\u0646\u064a\u0627","name:right:is":"Lettland","name:left:az":"Litva","name:left:ay":"Litua\u00f1a","name:right:rw":"Lativiya","name:left:af":"Litaue","name:left:ab":"\u041b\u0438\u0442\u0432\u0430","name:left:an":"Lituania","name:left:am":"\u120a\u1275\u12cc\u1292\u12eb","name:right:ru":"\u041b\u0430\u0442\u0432\u0438\u044f","name:left:ak":"Lituania","name:right:io":"Latvia","name:left:zh-yue":"\u7acb\u9676\u5b9b","name:left:rw":"Lituwaniya","name:right:hy":"\u053c\u0561\u057f\u057e\u056b\u0561","name:left:lb":"Litauen","alt_name:left:eo":"Litovio","name:left:lg":"Lithueenia","name:left:su":"Lituania","name:left:st":"Lituania","name:left:sw":"Lituanya","name:left:sv":"Litauen","name:left:sq":"Lituania","name:right:hu":"Lettorsz\u00e1g","name:left:ss":"Lithuwani","name:left:sr":"\u041b\u0438\u0442\u0432\u0430\u043d\u0438\u0458\u0430","name:right:hi":"\u0932\u093e\u0924\u0935\u093f\u092f\u093e","name:left:so":"Lithuaniya","name:left:sh":"Litvanija","name:left:sk":"Litva","name:left:sg":"Lituan\u00efi","name:left:sa":"\u0932\u0947\u0924\u0941\u0935\u093e","name:right:he":"\u05dc\u05d8\u05d1\u05d9\u05d4","name:left:sc":"Litu\u00e0nia","name:right:la":"Lettonia","name:right:af":"Letland","name:left:co":"Lituania","name:left:ch":"Lituania","name:left:ce":"\u041b\u0438\u0442\u0432\u0430","name:right:an":"Letonia","name:right:am":"\u120b\u1275\u126a\u12eb","name:left:ca":"Litu\u00e0nia","source":"openstreetmap.org","name:left:cy":"Lithwania","name:right:ar":"\u0644\u0627\u062a\u0641\u064a\u0627","name:left:cu":"\u041b\u0438\u0442\u044a\u0432\u0430","name:left:cv":"\u041b\u0438\u0442\u0432\u0430","name:right:az":"Latviya","name:left:cs":"Litva","name:right:rm":"Lettonia","name":"Lietuva - Latvija","name:right:zu":"ILatviya","name:left:zu":"ILithuwaniya","name:left:zh":"\u7acb\u9676\u5b9b","name:right:zh":"\u62c9\u812b\u7dad\u4e9e","official_name:left":"Lietuvos Respublika","name:left:uz":"Litva","name:right:fr":"Lettonie","name:left:ps":"\u0644\u06d0\u062a\u0648\u0627\u0646\u064a\u0627","name:left:ny":"Lithuania","alt_name:right:es":"Latvia","name:left:ur":"\u0644\u062a\u06be\u0648\u0648\u06cc\u0646\u06cc\u0627","id:right":-72594,"name:left:uk":"\u041b\u0438\u0442\u0432\u0430","name:left:no":"Litauen","name:left:nl":"Litouwen","alt_name:right:eo":"Latvio","name:right:fa":"\u0644\u062a\u0648\u0646\u06cc","name:right:fo":"Lettland","name:left:ne":"\u0932\u093f\u0925\u0941\u0906\u0928\u093f\u092f\u093e","name:left:ug":"\u0644\u0649\u062a\u06cb\u0627","name:right:fi":"Latvia","name:left:eo":"Litovujo","name:left:en":"Lithuania","name:left:el":"\u039b\u03b9\u03b8\u03bf\u03c5\u03b1\u03bd\u03af\u03b1","name:left:ee":"Lithuania","name:right:tt":"\u041b\u0430\u0442\u0432\u0438\u044f","name:left:es":"Lituania","name:left:ie":"Lituania","name:left:eu":"Lituania","name:left:et":"Leedu","name:right:zh-min-nan":"Latvia","name:right:oc":"Let\u00f2nia","name:left:ia":"Lituania","name:right:uz":"Latviya","osm_relation":true,"name:right:or":"\u0b32\u0b3e\u0b1f\u0b2d\u0b3f\u0b06","name:left:pt":"Litu\u00e2nia","name:right:ku":"Letonya","name:right:tk":"Latwi\u00fda","name:left:gl":"Lituania - Lietuva","name:left:wa":"Litwaneye","min_zoom":8.0,"name:left:ln":"Litwani","name:left:wo":"Lituwaani","name:left:ga":"An Liotu\u00e1in","name:left:it":"Lituania","name:left:gd":"Liotu\u00e0inia","int_name:right":"Latvia","name:left:gn":"Litua\u00f1a","name:left:nv":"\u0141it\u02bcoow\u0119\u0301\u0119ya","name:left:gu":"\u0ab2\u0abf\u0aa5\u0ac1\u0a86\u0aa8\u0abf\u0aaf\u0abe","name:left:gv":"Yn Litaan","official_name:right":"Latvijas Republika","name:left":"Lietuva","name:right:mk":"\u041b\u0430\u0442\u0432\u0438\u0458\u0430","name:right:mi":"R\u0101whia","name:right:mn":"\u041b\u0430\u0442\u0432\u0438","name:right:ml":"\u0d32\u0d3e\u0d24\u0d4d\u200c\u0d35\u0d3f\u0d2f","name:right:vo":"Latviy\u00e4n","name:right:mg":"Latvia","name:right:vi":"Latvia","name:right:my":"\u101c\u1010\u103a\u1017\u102e\u101a\u102c\u1014\u102d\u102f\u1004\u103a\u1004\u1036","name:right:ms":"Latvia","name:right:mr":"\u0932\u093e\u0924\u094d\u0935\u094d\u0939\u093f\u092f\u093e","name:right:fy":"Letl\u00e2n","name:right:mt":"Latvja","name:left:nn":"Litauen","kind":"country","name:left:br":"Lituania","name:left:bs":"Litvanija","int_name:left":"Lithuania","name:left:ba":"\u041b\u0438\u0442\u0432\u0430","name:left:bg":"\u041b\u0438\u0442\u0432\u0430","name:left:be":"\u041b\u0456\u0442\u0432\u0430","name:left:bi":"Litwania","name:left:bn":"\u09b2\u09bf\u09a5\u09c1\u09af\u09bc\u09be\u09a8\u09bf\u09af\u09bc\u09be","name:left:bo":"\u0f63\u0f72\u0f0b\u0f50\u0f74\u0f0b\u0f68\u0f7a\u0f0b\u0f53\u0f72\u0f0b\u0f61\u0f0d","name:right":"Latvija","name:left:yo":"Litu\u00e9n\u00ed\u00e0","name:left:yi":"\u05dc\u05d9\u05d8\u05e2","id:left":-72596,"name:left:na":"Rituainiya","name:right:ka":"\u10da\u10d0\u10e2\u10d5\u10d8\u10d0","name:left:io":"Lituania","name:right:kg":"Latvia","name:left:pl":"Litwa","name:right:kk":"\u041b\u0430\u0442\u0432\u0438\u044f","name:left:id":"Lituania","name:right:kl":"Letlandi","name:right:ko":"\ub77c\ud2b8\ube44\uc544","name:right:tl":"Latbiya","name:right:th":"\u0e1b\u0e23\u0e30\u0e40\u0e17\u0e28\u0e25\u0e31\u0e15\u0e40\u0e27\u0e35\u0e22","name:right:kw":"Latvi","name:right:kv":"\u041b\u0430\u0442\u0432\u0438\u044f","name:right:ky":"\u041b\u0430\u0442\u0432\u0438\u044f","name:right:te":"\u0c32\u0c3e\u0c1f\u0c4d\u0c35\u0c3f\u0c2f\u0c3e","name:left:iu":"\u14d5\u140b\u1450\u1559","name:right:tg":"\u041b\u0430\u0442\u0432\u0438\u044f","name:left:is":"Lith\u00e1en","name:right:ta":"\u0bb2\u0bbe\u0ba4\u0bcd\u0bb5\u0bbf\u0baf\u0bbe","name:right:de":"Lettland","name:right:da":"Letland","name:left:rn":"Lituania","name:right:dz":"\u0f63\u0f7a\u0f4a\u0f72\u0f0b\u0f56\u0f72\u0f0b\u0f61\u0f0d","name:right:dv":"\u078d\u07ac\u0793\u07aa\u0788\u07a8\u0787\u07a7","name:right:ht":"Letoni"},"arcs":[0]},{"type":"LineString","properties":{"name:left:sv":"Semgallen","name:right:uk":"\u0428\u044f\u0443\u043b\u044f\u0439\u0441\u044c\u043a\u0438\u0439 \u043f\u043e\u0432\u0456\u0442","name:left:ja":"\u30bc\u30e0\u30ac\u30ec","id:right":-1256237,"name:left:uk":"\u0417\u0435\u043c\u0433\u0430\u043b\u0435","min_zoom":8.0,"name:left:lt":"\u017diemgala","id:left":-1775647,"name:left:be":"\u0417\u044d\u043c\u0433\u0430\u043b\u044d","name:right:ru":"\u0428\u044f\u0443\u043b\u044f\u0439\u0441\u043a\u0438\u0439 \u0443\u0435\u0437\u0434","name:right:pl":"Okr\u0119g szawelski","id":-1775647,"osm_relation":true,"name:right":"\u0160iauli\u0173 apskritis","name:left:pt":"Semigola","kind":"region","name:left:it":"Semgallia","name":"Zemgale - \u0160iauli\u0173 apskritis","source":"openstreetmap.org","sort_rank":256,"kind_detail":"4","name:left:de":"Semgallen","name:right:en":"Siauliai County","name:right:be":"\u0428\u0430\u045e\u043b\u044f\u0439\u0441\u043a\u0456 \u043f\u0430\u0432\u0435\u0442","name:left:pl":"Semigalia","name:right:de":"Bezirk Schaulen","name:left:es":"Semigalia","name:left:ru":"\u0417\u0435\u043c\u0433\u0430\u043b\u0435","alt_name:left:ru":"\u0417\u0435\u043c\u0433\u0430\u043b\u0438\u044f","name:left":"Zemgale"},"arcs":[1]},{"type":"LineString","properties":{"name:right:no":"Panev\u0117\u017eys fylke","name:right:ja":"\u30d1\u30cd\u30f4\u30a7\u30b8\u30fc\u30b9\u90e1","name:right:uk":"\u041f\u0430\u043d\u0435\u0432\u0435\u0436\u0438\u0441\u044c\u043a\u0438\u0439 \u043f\u043e\u0432\u0456\u0442","name:right:hr":"Okrug Panev\u0117\u017eis","name:left:ja":"\u30bc\u30e0\u30ac\u30ec","name:right:sw":"Wilaya ya Panev\u0117\u017eys","id:right":-1028503,"name:left:uk":"\u0417\u0435\u043c\u0433\u0430\u043b\u0435","name:right:ur":"\u067e\u0627\u0646\u06cc\u0648\u06cc\u0698\u06cc\u0633 \u06a9\u0627\u0624\u0646\u0679\u06cc","name:right:lv":"Panev\u0113\u017eas apri\u0146\u0137is","name:left:lt":"\u017diemgala","name:left:be":"\u0417\u044d\u043c\u0433\u0430\u043b\u044d","name:right:sa":"\u092a\u0928\u0947\u0935\u0947\u091c\u093f\u092e\u0923\u094d\u0921\u0932\u092e\u094d","name:right:he":"\u05de\u05d7\u05d5\u05d6 \u05e4\u05d5\u05e0\u05d9\u05d1\u05d6'","name:right":"Panev\u0117\u017eio apskritis","name:left:it":"Semgallia","name:right:ca":"Comtat de Panev\u0117\u017eys","name:right:pl":"Okr\u0119g poniewieski","id":-1775647,"source":"openstreetmap.org","name:right:ar":"\u0645\u0642\u0627\u0637\u0639\u0629 \u0628\u0627\u0646\u064a\u0641\u064a\u0632\u064a\u0633","id:left":-1775647,"name:left:es":"Semigalia","name:right:cs":"Panev\u0117\u017eysk\u00fd kraj","alt_name:left:ru":"\u0417\u0435\u043c\u0433\u0430\u043b\u0438\u044f","name:left":"Zemgale","name:right:es":"Provincia de Panev\u0117\u017eys","name:right:fi":"Panev\u0117\u017eysin l\u00e4\u00e4ni","name:right:sr":"\u041f\u0430\u043d\u0435\u0432\u0435\u0436\u0438\u0441\u043a\u0438 \u043e\u043a\u0440\u0443\u0433","name:right:bg":"\u041f\u0430\u043d\u0435\u0432\u0435\u0436\u0438\u0441\u043a\u0438 \u043e\u043a\u0440\u044a\u0433","name:right:eu":"Panev\u0117\u017eysko konderria","name:right:et":"Panev\u0117\u017eysi maakond","name:left:pl":"Semigalia","name:right:it":"Contea di Panev\u0117\u017eys","name:right:ko":"\ud30c\ub124\ubca0\uc9c0\uc2a4 \uc8fc","name:right:ru":"\u041f\u0430\u043d\u0435\u0432\u0435\u0436\u0441\u043a\u0438\u0439 \u0443\u0435\u0437\u0434","name:left:pt":"Semigola","name:right:sv":"Panev\u0117\u017eys l\u00e4n","name:right:ro":"Jude\u021bul Panev\u0117\u017eys","name:right:kw":"Konteth Panev\u0117\u017eys","name:left:ru":"\u0417\u0435\u043c\u0433\u0430\u043b\u0435","min_zoom":8.0,"name:right:tg":"\u0412\u0438\u043b\u043e\u044f\u0442\u0438 \u041f\u0430\u043d\u0435\u0432\u0435\u0436\u0438\u0441","name:right:eo":"Distrikto Panev\u0117\u017eys","name:right:en":"Panevezys County","osm_relation":true,"name:right:el":"\u0395\u03c0\u03b1\u03c1\u03c7\u03af\u03b1 \u03a0\u03b1\u03bd\u03b5\u03b2\u03b5\u03b6\u03af\u03c2","name:left:sv":"Semgallen","kind":"region","name:right:ka":"\u10de\u10d0\u10dc\u10d4\u10d5\u10d4\u10df\u10d8\u10e1\u10d8\u10e1 \u10db\u10d0\u10d6\u10e0\u10d0","name":"Zemgale - Panev\u0117\u017eio apskritis","name:right:sh":"Okrug Panev\u0117\u017eis","name:right:de":"Bezirk Ponewiesch","name:right:fa":"\u0634\u0647\u0631\u0633\u062a\u0627\u0646 \u067e\u0627\u0646\u0647\u200c\u0648\u0698\u06cc\u0633","name:left:de":"Semgallen","name:right:be":"\u041f\u0430\u043d\u044f\u0432\u0435\u0436\u044b\u0441\u043a\u0456 \u043f\u0430\u0432\u0435\u0442","sort_rank":256,"kind_detail":"4","name:right:ga":"Contae Panev\u0117\u017eys","name:right:zh":"\u5e15\u6d85\u97cb\u65e5\u65af\u7e23"},"arcs":[2]},{"type":"LineString","properties":{"name:right:no":"Panev\u0117\u017eys fylke","name:right:ja":"\u30d1\u30cd\u30f4\u30a7\u30b8\u30fc\u30b9\u90e1","name:right:uk":"\u041f\u0430\u043d\u0435\u0432\u0435\u0436\u0438\u0441\u044c\u043a\u0438\u0439 \u043f\u043e\u0432\u0456\u0442","name:right:hr":"Okrug Panev\u0117\u017eis","name:left:be":"\u0428\u0430\u045e\u043b\u044f\u0439\u0441\u043a\u0456 \u043f\u0430\u0432\u0435\u0442","name:right:sw":"Wilaya ya Panev\u0117\u017eys","name:right:sv":"Panev\u0117\u017eys l\u00e4n","name:left:uk":"\u0428\u044f\u0443\u043b\u044f\u0439\u0441\u044c\u043a\u0438\u0439 \u043f\u043e\u0432\u0456\u0442","name:right:sh":"Okrug Panev\u0117\u017eis","min_zoom":8.0,"name:right:fa":"\u0634\u0647\u0631\u0633\u062a\u0627\u0646 \u067e\u0627\u0646\u0647\u200c\u0648\u0698\u06cc\u0633","name:right:sa":"\u092a\u0928\u0947\u0935\u0947\u091c\u093f\u092e\u0923\u094d\u0921\u0932\u092e\u094d","name:right:he":"\u05de\u05d7\u05d5\u05d6 \u05e4\u05d5\u05e0\u05d9\u05d1\u05d6'","name:right":"Panev\u0117\u017eio apskritis","name:right:tg":"\u0412\u0438\u043b\u043e\u044f\u0442\u0438 \u041f\u0430\u043d\u0435\u0432\u0435\u0436\u0438\u0441","name:left:en":"Siauliai County","sort_rank":256,"kind_detail":"4","id":-1256237,"source":"openstreetmap.org","name:right:ar":"\u0645\u0642\u0627\u0637\u0639\u0629 \u0628\u0627\u0646\u064a\u0641\u064a\u0632\u064a\u0633","id:left":-1256237,"name:right:cs":"Panev\u0117\u017eysk\u00fd kraj","name:right:fi":"Panev\u0117\u017eysin l\u00e4\u00e4ni","name:left":"\u0160iauli\u0173 apskritis","name:right:ka":"\u10de\u10d0\u10dc\u10d4\u10d5\u10d4\u10df\u10d8\u10e1\u10d8\u10e1 \u10db\u10d0\u10d6\u10e0\u10d0","name:right:sr":"\u041f\u0430\u043d\u0435\u0432\u0435\u0436\u0438\u0441\u043a\u0438 \u043e\u043a\u0440\u0443\u0433","name:right:bg":"\u041f\u0430\u043d\u0435\u0432\u0435\u0436\u0438\u0441\u043a\u0438 \u043e\u043a\u0440\u044a\u0433","name:right:eu":"Panev\u0117\u017eysko konderria","name:right:et":"Panev\u0117\u017eysi maakond","name:left:pl":"Okr\u0119g szawelski","name:right:it":"Contea di Panev\u0117\u017eys","name:right:ko":"\ud30c\ub124\ubca0\uc9c0\uc2a4 \uc8fc","name:right:ru":"\u041f\u0430\u043d\u0435\u0432\u0435\u0436\u0441\u043a\u0438\u0439 \u0443\u0435\u0437\u0434","name:right:es":"Provincia de Panev\u0117\u017eys","name:right:ga":"Contae Panev\u0117\u017eys","name:right:ro":"Jude\u021bul Panev\u0117\u017eys","name:right:kw":"Konteth Panev\u0117\u017eys","name:left:ru":"\u0428\u044f\u0443\u043b\u044f\u0439\u0441\u043a\u0438\u0439 \u0443\u0435\u0437\u0434","id:right":-1028503,"name:right:pl":"Okr\u0119g poniewieski","name:right:en":"Panevezys County","osm_relation":true,"name:right:el":"\u0395\u03c0\u03b1\u03c1\u03c7\u03af\u03b1 \u03a0\u03b1\u03bd\u03b5\u03b2\u03b5\u03b6\u03af\u03c2","kind":"region","name":"\u0160iauli\u0173 apskritis - Panev\u0117\u017eio apskritis","name:right:eo":"Distrikto Panev\u0117\u017eys","name:right:ur":"\u067e\u0627\u0646\u06cc\u0648\u06cc\u0698\u06cc\u0633 \u06a9\u0627\u0624\u0646\u0679\u06cc","name:right:de":"Bezirk Ponewiesch","name:right:lv":"Panev\u0113\u017eas apri\u0146\u0137is","name:left:de":"Bezirk Schaulen","name:right:be":"\u041f\u0430\u043d\u044f\u0432\u0435\u0436\u044b\u0441\u043a\u0456 \u043f\u0430\u0432\u0435\u0442","name:right:ca":"Comtat de Panev\u0117\u017eys","name:right:zh":"\u5e15\u6d85\u97cb\u65e5\u65af\u7e23"},"arcs":[3]}]},"roads":{"type":"GeometryCollection","geometries":[{"type":"LineString","properties":{"source":"openstreetmap.org","kind":"major_road","sort_rank":380,"kind_detail":"primary","ref":"3101","min_zoom":8.0,"id":479695321},"arcs":[4]},{"type":"LineString","properties":{"kind":"major_road","network":"lt:national","sort_rank":380,"kind_detail":"primary","official_name":"Salom\u0117jos N\u0117ries gatv\u0117","source":"openstreetmap.org","min_zoom":8.0,"shield_text":"191","ref":"191"},"arcs":[5]},{"type":"LineString","properties":{"kind":"major_road","network":"lv:national","sort_rank":380,"kind_detail":"primary","source":"openstreetmap.org","min_zoom":8.0,"shield_text":"94","osm_relation":true},"arcs":[6]},{"type":"LineString","properties":{"kind":"major_road","network":"lt:national","sort_rank":381,"kind_detail":"trunk","source":"openstreetmap.org","min_zoom":8.0,"landuse_kind":"park","shield_text":"10","ref":"A10"},"arcs":[7]},{"type":"LineString","properties":{"kind":"major_road","network":"lv:national","sort_rank":380,"kind_detail":"primary","source":"openstreetmap.org","min_zoom":8.0,"shield_text":"88","id":-175187,"osm_relation":true},"arcs":[8]},{"type":"LineString","properties":{"kind":"major_road","network":"lv:national","sort_rank":380,"kind_detail":"primary","source":"openstreetmap.org","min_zoom":8.0,"shield_text":"89","ref":"P89"},"arcs":[9]},{"type":"LineString","properties":{"kind":"major_road","network":"lv:regional","sort_rank":380,"kind_detail":"primary","source":"openstreetmap.org","min_zoom":8.0,"shield_text":"1020","ref":"V1020","id":189104656},"arcs":[10]},{"type":"LineString","properties":{"source":"openstreetmap.org","kind":"major_road","sort_rank":380,"kind_detail":"primary","ref":"P89","min_zoom":8.0,"id":316992606},"arcs":[11]},{"type":"MultiLineString","properties":{"kind":"major_road","network":"lv:national","sort_rank":381,"kind_detail":"trunk","source":"openstreetmap.org","min_zoom":8.0,"shield_text":"7","ref":"A7"},"arcs":[[12],[13],[14],[15],[16],[17],[18],[19],[20],[21]]},{"type":"MultiLineString","properties":{"kind":"major_road","network":"lv:national","sort_rank":380,"kind_detail":"primary","source":"openstreetmap.org","min_zoom":8.0,"shield_text":"73","ref":"P73"},"arcs":[[22],[23]]},{"type":"LineString","properties":{"kind":"major_road","network":"lt:national","sort_rank":380,"kind_detail":"primary","official_name":"Juliaus Janonio gatv\u0117","source":"openstreetmap.org","min_zoom":8.0,"shield_text":"152","ref":"151;152","id":65410654},"arcs":[24]},{"type":"MultiLineString","properties":{"kind":"major_road","network":"lt:national","sort_rank":380,"kind_detail":"primary","source":"openstreetmap.org","min_zoom":8.0,"shield_text":"124","ref":"124"},"arcs":[[25],[26]]},{"type":"MultiLineString","properties":{"sort_rank":380,"kind_detail":"primary","min_zoom":8.0,"kind":"major_road","source":"openstreetmap.org"},"arcs":[[27],[28],[29],[30],[31],[32],[33],[34],[35]]},{"type":"LineString","properties":{"kind":"major_road","network":"lt:national","sort_rank":381,"kind_detail":"trunk","source":"openstreetmap.org","min_zoom":8.0,"shield_text":"9","ref":"A9"},"arcs":[36]},{"type":"LineString","properties":{"kind":"major_road","network":"lv:national","sort_rank":380,"kind_detail":"primary","source":"openstreetmap.org","min_zoom":8.0,"shield_text":"87","ref":"P87"},"arcs":[37]},{"type":"LineString","properties":{"kind":"major_road","network":"lv:national","sort_rank":380,"kind_detail":"primary","is_bicycle_related":true,"cycleway":"track","source":"openstreetmap.org","min_zoom":8.0,"shield_text":"103","ref":"P103","id":37055301},"arcs":[38]},{"type":"MultiLineString","properties":{"kind":"major_road","network":"lt:national","sort_rank":380,"kind_detail":"primary","source":"openstreetmap.org","min_zoom":8.0,"shield_text":"209","name:ru":"\u0443\u043b\u0438\u0446\u0430 \u0421\u0442\u043e\u0442\u0435\u0441","ref":"209"},"arcs":[[39],[40]]},{"type":"LineString","properties":{"kind":"major_road","network":"lv:regional","sort_rank":380,"kind_detail":"primary","source":"openstreetmap.org","min_zoom":8.0,"shield_text":"1005","ref":"V1005","id":30846288},"arcs":[41]},{"type":"MultiLineString","properties":{"kind":"major_road","network":"lt:national","sort_rank":380,"kind_detail":"primary","source":"openstreetmap.org","min_zoom":8.0,"shield_text":"125","ref":"125"},"arcs":[[42],[43]]},{"type":"LineString","properties":{"kind":"major_road","network":"lt:national","sort_rank":380,"kind_detail":"primary","source":"openstreetmap.org","min_zoom":8.0,"shield_text":"152","ref":"152"},"arcs":[44]},{"type":"LineString","properties":{"kind":"major_road","sort_rank":380,"kind_detail":"primary","source":"openstreetmap.org","min_zoom":8.0,"landuse_kind":"park","name:ru":"\u0443\u043b\u0438\u0446\u0430 \u041f\u0430\u0441\u0432\u0430\u043b\u0438\u043e","ref":"125","id":275875798},"arcs":[45]},{"type":"LineString","properties":{"kind":"major_road","name:lv":"R\u012bgas iela","network":"lt:national","sort_rank":380,"kind_detail":"primary","source":"openstreetmap.org","min_zoom":8.0,"shield_text":"190","ref":"190"},"arcs":[46]},{"type":"LineString","properties":{"kind":"major_road","network":"lt:national","sort_rank":380,"kind_detail":"primary","source":"openstreetmap.org","min_zoom":8.0,"shield_text":"123","name:ru":"\u0443\u043b\u0438\u0446\u0430 \u0420\u0435\u0441\u043f\u0443\u0431\u043b\u0438\u043a\u043e\u0441","ref":"123"},"arcs":[47]},{"type":"LineString","properties":{"kind":"major_road","network":"lt:national","sort_rank":380,"kind_detail":"primary","official_name":"Juliaus Janonio gatv\u0117","source":"openstreetmap.org","min_zoom":8.0,"shield_text":"152","ref":"152","id":148241428},"arcs":[48]},{"type":"LineString","properties":{"kind":"major_road","network":"lt:national","sort_rank":381,"kind_detail":"trunk","source":"openstreetmap.org","min_zoom":8.0,"shield_text":"17","ref":"A17"},"arcs":[49]},{"type":"MultiLineString","properties":{"kind":"major_road","network":"lv:national","sort_rank":380,"kind_detail":"primary","source":"openstreetmap.org","min_zoom":8.0,"shield_text":"103","ref":"P103"},"arcs":[[50],[51],[52],[53],[54],[55]]},{"type":"MultiLineString","properties":{"kind":"major_road","network":"lt:national","sort_rank":380,"kind_detail":"primary","source":"openstreetmap.org","min_zoom":8.0,"shield_text":"190","name:ru":"\u0443\u043b\u0438\u0446\u0430 \u0411\u0438\u0440\u0436\u0443","ref":"190"},"arcs":[[56],[57]]},{"type":"LineString","properties":{"kind":"major_road","network":"lt:national","sort_rank":380,"kind_detail":"primary","source":"openstreetmap.org","min_zoom":8.0,"landuse_kind":"park","shield_text":"125","ref":"190","id":276445592},"arcs":[58]},{"type":"LineString","properties":{"source":"openstreetmap.org","kind":"major_road","landuse_kind":"park","sort_rank":380,"kind_detail":"primary","min_zoom":8.0,"id":427331663},"arcs":[59]},{"type":"LineString","properties":{"source":"openstreetmap.org","kind":"major_road","sort_rank":380,"kind_detail":"primary","ref":"190","min_zoom":8.0,"id":507498670},"arcs":[60]},{"type":"LineString","properties":{"kind":"major_road","network":"lv:national","sort_rank":380,"kind_detail":"primary","source":"openstreetmap.org","min_zoom":8.0,"shield_text":"89","osm_relation":true},"arcs":[61]},{"type":"MultiLineString","properties":{"kind":"major_road","network":"lt:national","sort_rank":380,"kind_detail":"primary","source":"openstreetmap.org","min_zoom":8.0,"shield_text":"191","ref":"191"},"arcs":[[62],[63]]},{"type":"MultiLineString","properties":{"kind":"major_road","network":"lt:national","sort_rank":380,"kind_detail":"primary","source":"openstreetmap.org","min_zoom":8.0,"shield_text":"149","ref":"149"},"arcs":[[64],[65],[66]]},{"type":"LineString","properties":{"kind":"major_road","network":"lv:national","sort_rank":380,"kind_detail":"primary","source":"openstreetmap.org","min_zoom":8.0,"shield_text":"92","id":-175225,"osm_relation":true},"arcs":[67]},{"type":"MultiLineString","properties":{"kind":"major_road","network":"lt:national","sort_rank":380,"kind_detail":"primary","source":"openstreetmap.org","min_zoom":8.0,"landuse_kind":"park","shield_text":"125","ref":"125"},"arcs":[[68],[69],[70],[71],[72],[73],[74]]},{"type":"MultiLineString","properties":{"kind":"major_road","network":"lt:national","sort_rank":381,"landuse_kind":"urban_area","source":"openstreetmap.org","min_zoom":8.0,"kind_detail":"trunk","shield_text":"10","ref":"A10"},"arcs":[[75],[76],[77]]},{"type":"LineString","properties":{"kind":"major_road","network":"lt:national","sort_rank":380,"kind_detail":"primary","source":"openstreetmap.org","min_zoom":8.0,"shield_text":"122","name:ru":"\u0443\u043b\u0438\u0446\u0430 \u041b\u0435\u0432\u0435\u043d\u0441","ref":"122"},"arcs":[78]},{"type":"LineString","properties":{"kind":"major_road","network":"lt:national","sort_rank":380,"kind_detail":"primary","source":"openstreetmap.org","min_zoom":8.0,"landuse_kind":"park","shield_text":"124","name:ru":"\u0443\u043b\u0438\u0446\u0430 \u0412\u0430\u0431\u0430\u043b\u043d\u0438\u043d\u043a\u043e","ref":"124","id":195647325},"arcs":[79]},{"type":"LineString","properties":{"kind":"major_road","network":"lt:national","sort_rank":380,"kind_detail":"primary","source":"openstreetmap.org","min_zoom":8.0,"shield_text":"118","ref":"118","id":153948101},"arcs":[80]},{"type":"MultiLineString","properties":{"kind":"major_road","network":"e-road","sort_rank":381,"kind_detail":"trunk","source":"openstreetmap.org","min_zoom":8.0,"shield_text":"67","ref":"A10"},"arcs":[[81],[82]]},{"type":"LineString","properties":{"kind":"major_road","network":"lt:national","sort_rank":380,"kind_detail":"primary","source":"openstreetmap.org","min_zoom":8.0,"shield_text":"124","name:ru":"\u0443\u043b\u0438\u0446\u0430 \u0412\u0430\u0431\u0430\u043b\u043d\u0438\u043d\u043a\u043e","ref":"124"},"arcs":[83]},{"type":"MultiLineString","properties":{"kind":"major_road","network":"lt:national","sort_rank":381,"landuse_kind":"urban_area","source":"openstreetmap.org","min_zoom":8.0,"kind_detail":"trunk","shield_text":"10","name:ru":"\u0443\u043b\u0438\u0446\u0430 \u0421\u043c\u0435\u043b\u0438\u043d\u0435\u0441","ref":"A10"},"arcs":[[84],[85]]},{"type":"LineString","properties":{"kind":"major_road","sort_rank":380,"kind_detail":"primary","source":"openstreetmap.org","min_zoom":8.0,"name:ru":"\u0443\u043b\u0438\u0446\u0430 \u0421\u0442\u043e\u0442\u0435\u0441","ref":"209","id":40859122},"arcs":[86]},{"type":"LineString","properties":{"kind":"major_road","name:lv":"R\u012bgas iela","network":"lt:national","sort_rank":380,"kind_detail":"primary","source":"openstreetmap.org","min_zoom":8.0,"shield_text":"190","name:ru":"\u0443\u043b\u0438\u0446\u0430 \u0420\u0438\u0433\u043e\u0441","ref":"190"},"arcs":[87]},{"type":"MultiLineString","properties":{"kind":"major_road","network":"lt:national","sort_rank":380,"kind_detail":"primary","source":"openstreetmap.org","min_zoom":8.0,"shield_text":"150","ref":"150"},"arcs":[[88],[89]]},{"type":"LineString","properties":{"kind":"major_road","network":"lt:national","sort_rank":380,"kind_detail":"primary","official_name":"Juliaus Janonio gatv\u0117","source":"openstreetmap.org","min_zoom":8.0,"shield_text":"152","ref":"211","id":475810935},"arcs":[90]},{"type":"LineString","properties":{"kind":"major_road","network":"e-road","sort_rank":381,"kind_detail":"trunk","source":"openstreetmap.org","min_zoom":8.0,"shield_text":"67","id":449112435},"arcs":[91]},{"type":"MultiLineString","properties":{"kind":"major_road","network":"lt:national","sort_rank":380,"kind_detail":"primary","source":"openstreetmap.org","min_zoom":8.0,"landuse_kind":"park","shield_text":"190","ref":"190"},"arcs":[[92],[93]]},{"type":"MultiLineString","properties":{"kind":"major_road","network":"lt:national","sort_rank":380,"kind_detail":"primary","source":"openstreetmap.org","min_zoom":8.0,"shield_text":"122","ref":"122"},"arcs":[[94],[95],[96],[97],[98],[99]]},{"type":"MultiLineString","properties":{"kind":"major_road","network":"lt:national","sort_rank":381,"kind_detail":"trunk","source":"openstreetmap.org","min_zoom":8.0,"shield_text":"10","ref":"A10"},"arcs":[[100],[101],[102],[103],[104],[105]]},{"type":"LineString","properties":{"kind":"major_road","network":"lv:national","sort_rank":380,"kind_detail":"primary","source":"openstreetmap.org","min_zoom":8.0,"shield_text":"92","ref":"P92"},"arcs":[106]},{"type":"LineString","properties":{"kind":"major_road","network":"lt:national","sort_rank":380,"kind_detail":"primary","source":"openstreetmap.org","min_zoom":8.0,"shield_text":"151","ref":"151"},"arcs":[107]},{"type":"LineString","properties":{"kind":"major_road","network":"lt:national","sort_rank":380,"kind_detail":"primary","source":"openstreetmap.org","min_zoom":8.0,"old_name":"Auk\u0161tai\u010di\u0173 plentas","shield_text":"125","ref":"125","id":196087609},"arcs":[108]},{"type":"LineString","properties":{"kind":"major_road","network":"lt:national","sort_rank":380,"kind_detail":"primary","source":"openstreetmap.org","min_zoom":8.0,"shield_text":"192","ref":"192"},"arcs":[109]},{"type":"MultiLineString","properties":{"kind":"major_road","network":"lv:national","sort_rank":380,"kind_detail":"primary","source":"openstreetmap.org","min_zoom":8.0,"shield_text":"86","ref":"P86"},"arcs":[[110],[111],[112],[113],[114],[115],[116]]},{"type":"MultiLineString","properties":{"kind":"major_road","network":"lt:national","sort_rank":380,"kind_detail":"primary","source":"openstreetmap.org","min_zoom":8.0,"landuse_kind":"park","shield_text":"125","name:ru":"\u0443\u043b\u0438\u0446\u0430 \u041f\u0430\u0441\u0432\u0430\u043b\u0438\u043e","ref":"125"},"arcs":[[117],[118]]},{"type":"LineString","properties":{"kind":"major_road","network":"lt:national","sort_rank":380,"kind_detail":"primary","source":"openstreetmap.org","min_zoom":8.0,"landuse_kind":"park","shield_text":"124","ref":"124"},"arcs":[119]},{"type":"LineString","properties":{"kind":"major_road","network":"lv:national","sort_rank":380,"kind_detail":"primary","source":"openstreetmap.org","min_zoom":8.0,"shield_text":"87","osm_relation":true},"arcs":[120]},{"type":"LineString","properties":{"kind":"major_road","network":"lt:regional","sort_rank":380,"kind_detail":"primary","source":"openstreetmap.org","min_zoom":8.0,"shield_text":"3101","ref":"3101"},"arcs":[121]},{"type":"LineString","properties":{"source":"openstreetmap.org","kind":"major_road","network":"lv:national","sort_rank":380,"kind_detail":"primary","min_zoom":8.0,"shield_text":"103"},"arcs":[122]},{"type":"MultiLineString","properties":{"kind":"major_road","network":"lt:national","sort_rank":380,"kind_detail":"primary","source":"openstreetmap.org","min_zoom":8.0,"shield_text":"190","ref":"190"},"arcs":[[123],[124],[125]]},{"type":"LineString","properties":{"source":"openstreetmap.org","kind":"major_road","sort_rank":380,"kind_detail":"primary","ref":"V1020","min_zoom":8.0,"id":189104659},"arcs":[126]},{"type":"LineString","properties":{"kind":"major_road","network":"lt:national","sort_rank":380,"kind_detail":"primary","source":"openstreetmap.org","min_zoom":8.0,"shield_text":"151","id":61816512},"arcs":[127]},{"type":"LineString","properties":{"kind":"major_road","network":"lt:regional","sort_rank":380,"kind_detail":"primary","source":"openstreetmap.org","min_zoom":8.0,"shield_text":"3101","name:ru":"\u0443\u043b\u0438\u0446\u0430 \u0412\u0438\u043b\u044c\u043d\u044e\u0441","ref":"3101"},"arcs":[128]},{"type":"LineString","properties":{"kind":"major_road","network":"lt:national","sort_rank":380,"kind_detail":"primary","source":"openstreetmap.org","min_zoom":8.0,"shield_text":"123","ref":"123"},"arcs":[129]},{"type":"LineString","properties":{"kind":"major_road","network":"lt:national","sort_rank":380,"kind_detail":"primary","source":"openstreetmap.org","min_zoom":8.0,"shield_text":"205","ref":"205","id":146597299},"arcs":[130]},{"type":"LineString","properties":{"kind":"major_road","network":"lv:national","sort_rank":380,"kind_detail":"primary","source":"openstreetmap.org","min_zoom":8.0,"shield_text":"94","ref":"P94"},"arcs":[131]},{"type":"LineString","properties":{"kind":"major_road","sort_rank":380,"kind_detail":"primary","official_name":"Juliaus Janonio gatv\u0117","source":"openstreetmap.org","min_zoom":8.0,"name:ru":"\u0443\u043b\u0438\u0446\u0430 \u042f. \u042f\u043d\u043e\u043d\u0438\u043e","id":89364997},"arcs":[132]},{"type":"LineString","properties":{"kind":"major_road","network":"lt:national","sort_rank":380,"kind_detail":"primary","source":"openstreetmap.org","min_zoom":8.0,"shield_text":"209","ref":"209"},"arcs":[133]},{"type":"MultiLineString","properties":{"kind":"major_road","network":"lt:national","sort_rank":380,"kind_detail":"primary","source":"openstreetmap.org","min_zoom":8.0,"old_name":"Auk\u0161tai\u010di\u0173 plentas","shield_text":"125","landuse_kind":"park","ref":"125"},"arcs":[[134],[135],[136],[137],[138]]},{"type":"LineString","properties":{"kind":"major_road","network":"lv:national","sort_rank":380,"kind_detail":"primary","source":"openstreetmap.org","min_zoom":8.0,"shield_text":"88","ref":"P88"},"arcs":[139]},{"type":"LineString","properties":{"kind":"major_road","network":"lt:regional","sort_rank":380,"kind_detail":"primary","source":"openstreetmap.org","min_zoom":8.0,"shield_text":"2902","ref":"211","id":475617910},"arcs":[140]},{"type":"LineString","properties":{"kind":"major_road","network":"lt:national","sort_rank":380,"kind_detail":"primary","source":"openstreetmap.org","min_zoom":8.0,"shield_text":"175","ref":"175","id":225250427},"arcs":[141]},{"type":"LineString","properties":{"source":"openstreetmap.org","kind":"major_road","sort_rank":380,"kind_detail":"primary","ref":"124","min_zoom":8.0,"id":364101874},"arcs":[142]},{"type":"MultiLineString","properties":{"kind":"major_road","network":"lv:national","sort_rank":380,"kind_detail":"primary","source":"openstreetmap.org","min_zoom":8.0,"shield_text":"75","ref":"P75"},"arcs":[[143],[144]]},{"type":"LineString","properties":{"kind":"major_road","network":"lt:national","sort_rank":380,"kind_detail":"primary","source":"openstreetmap.org","min_zoom":8.0,"shield_text":"205","name:ru":"\u0443\u043b\u0438\u0446\u0430 \u041c\u0443\u0448\u043e\u0441","ref":"205"},"arcs":[145]},{"type":"LineString","properties":{"kind":"major_road","network":"lt:national","sort_rank":380,"kind_detail":"primary","source":"openstreetmap.org","min_zoom":8.0,"shield_text":"211","ref":"211"},"arcs":[146]}]},"earth":{"type":"GeometryCollection","geometries":[{"type":"Polygon","properties":{"sort_rank":10,"source":"naturalearthdata.com","kind":"earth","min_zoom":0.0,"id":4768},"arcs":[[147]]}]},"landuse":{"type":"GeometryCollection","geometries":[{"type":"MultiPolygon","properties":{"source":"openstreetmap.org","kind":"protected_area","tier":2,"protect_class":"4","area":794786343,"sort_rank":17,"min_zoom":8.0},"arcs":[[[148]],[[149]],[[150]],[[151]]]},{"type":"MultiPolygon","properties":{"kind":"park","protect_class":"4","area":906845295,"sort_rank":24,"source":"openstreetmap.org","min_zoom":6.0,"tier":2,"osm_relation":true},"arcs":[[[152]]]},{"type":"MultiPolygon","properties":{"source":"naturalearthdata.com","kind":"urban_area","name":"","area":1316556784,"sort_rank":11,"min_zoom":4.0},"arcs":[[[153]]]}]}},"type":"Topology","transform":{"translate":[23.90625,55.7765730187],"scale":[0.0003433228,0.00019114]},"arcs":[[[4096,1935],[-96,62],[-28,65],[-45,13],[-17,62],[-43,38],[-99,-84],[-98,-12],[-47,3],[-81,54],[-73,-3],[-35,67],[-27,-9],[-56,368],[-43,16],[-1,28],[-66,15],[-9,77],[-124,97],[-11,288],[-57,62],[-23,-10],[-50,144],[-33,6],[-23,46],[-10,41],[47,105],[-95,51],[-38,-3],[-63,-72],[31,-106],[-108,-27],[-7,39],[-46,20],[-20,-20],[12,-33],[-82,-64],[-39,26],[-62,-21],[-116,17],[10,-85],[-49,-58],[-172,-4],[-15,-156],[-136,-118],[8,-183],[-176,-37],[-167,-78],[-22,-42],[-90,15],[-91,91],[-100,-32],[-52,123],[-158,25],[13,-79],[-259,-97],[-71,-85],[-64,16],[-97,-26],[-20,11],[12,56],[-66,49],[5,33],[-151,12],[9,103],[-77,59],[-11,100],[-302,7],[-7,40],[-19,0]],[[0,2941],[19,0],[7,-40],[302,-7],[11,-100],[77,-59],[-9,-103],[151,-12],[-5,-33],[66,-49],[-12,-56],[20,-11],[87,23]],[[714,2494],[74,-13],[71,85],[259,97],[-13,79],[158,-25],[52,-123],[100,32],[91,-91],[90,-15],[22,42],[167,78],[176,37],[-8,183],[136,118],[15,156],[172,4],[49,58],[-10,85],[116,-17],[62,21],[39,-26],[82,64],[-12,33],[20,20],[46,-20],[7,-39],[108,27],[-31,106],[63,72],[38,3],[95,-51],[-47,-105],[10,-41],[23,-46],[33,-6],[50,-144],[23,10],[57,-62],[11,-288],[124,-97],[9,-77],[66,-15],[1,-28],[43,-16],[56,-368],[27,9],[35,-67],[73,3],[81,-54],[47,-3],[98,12],[99,84],[43,-38],[17,-62],[45,-13],[28,-65],[96,-62]],[[329,0],[-23,49],[-81,-20],[-22,83],[-19,-3],[-24,230],[156,-16],[-32,80],[93,-15],[-7,65],[78,10],[3,41],[71,17],[-29,103],[53,85],[5,160],[-114,-2],[-20,61],[-39,-11],[3,32],[-52,-17],[-19,35],[44,105],[6,60],[-21,32],[59,73],[-7,130],[73,-53],[25,216],[102,41],[-19,26],[52,70],[-13,73],[36,5],[0,71],[69,-8],[82,33],[-24,20],[30,204],[-87,-21],[-4,40],[53,105],[-107,45],[-4,49],[48,15],[2,46],[-74,59],[20,45],[65,2],[-2,44]],[[1465,1458],[0,-1]],[[2415,1024],[33,38]],[[748,3605],[-109,96],[-171,51],[-133,128],[-72,101],[-38,115]],[[1643,1786],[-4,42]],[[936,3396],[67,113],[152,150],[164,122],[131,55],[87,238],[28,22]],[[2151,3148],[8,96],[-140,273],[-116,356],[-45,223]],[[1172,3387],[-4,1]],[[2151,3148],[0,-2]],[[819,3301],[-1,-1]],[[818,3300],[1,-2]],[[819,3299],[-1,1]],[[819,3301],[-12,93],[-53,109],[-7,98],[43,112],[-20,219],[11,164]],[[819,3299],[0,2]],[[819,3298],[1,1]],[[819,3298],[2,0]],[[820,3299],[-1,0]],[[821,3298],[-1,1]],[[1338,2606],[-90,195],[-107,113],[-47,148],[-86,138],[-87,74],[-100,24]],[[3813,2492],[-293,220],[-167,294],[-92,97],[-78,22],[-181,143],[-62,234],[-271,88],[-199,186],[-279,188],[-287,132]],[[4096,2268],[-194,194],[-81,25]],[[192,1616],[0,-1]],[[2344,2110],[-14,-64],[43,-138],[-14,-111],[19,-135],[-45,-171],[50,-253],[85,-144],[-21,-31],[19,-66],[148,-381],[115,-51],[79,-109],[103,-50],[77,-108],[132,-36]],[[2406,2173],[-18,-14]],[[818,3299],[-1,-2]],[[1172,3387],[7,1]],[[3425,9],[2,1]],[[3817,2491],[-2,-1]],[[3818,2491],[-3,-1]],[[3815,2490],[1,-2],[3,0],[-1,3]],[[3819,2490],[-1,1]],[[3818,2488],[3,-1],[-2,2]],[[748,1226],[0,-1],[0,-1],[1,1],[-1,1]],[[426,0],[-137,121],[-255,-121]],[[805,3338],[144,61],[226,-12],[77,42],[325,-1],[146,-46],[153,39],[236,188],[15,36],[55,21],[39,65],[127,49],[36,62],[126,78],[168,55],[67,60],[132,10],[30,51]],[[816,3297],[-22,-16]],[[1397,1524],[-5,8]],[[1438,1492],[-12,6]],[[809,3389],[36,-30]],[[1637,1760],[5,5]],[[1761,1880],[118,99]],[[190,1618],[-147,-19],[-43,8]],[[2423,2228],[-1,-1]],[[2152,3144],[13,-17]],[[2416,2198],[159,-27]],[[192,1616],[-2,2]],[[1160,0],[58,123],[128,32]],[[789,3262],[-52,-20],[-141,25],[-299,151],[-100,8],[-197,-16]],[[793,3280],[-4,-16]],[[789,3264],[0,-1],[1,-1],[1,1],[-2,1]],[[793,3280],[1,0]],[[793,3281],[0,-1]],[[793,3281],[1,-1],[0,1],[-1,0]],[[2353,2881],[2,-10]],[[2356,2868],[0,-1]],[[2424,2227],[2,0]],[[2423,2228],[1,-1],[0,1],[-1,0]],[[2151,3146],[1,-2]],[[2151,3148],[8,96],[-140,273],[-150,462],[-20,117]],[[1555,56],[-10,107],[193,147],[135,141],[88,25],[64,76],[76,31],[314,441]],[[2448,1062],[20,32]],[[0,593],[180,-146],[62,-84],[48,-234]],[[290,129],[-1,-8]],[[296,120],[-6,9]],[[1876,3958],[-93,11],[-125,-40],[-54,40],[-228,44],[-85,65],[-13,18]],[[1674,1796],[8,8]],[[1715,1836],[46,44]],[[1879,1979],[87,53]],[[2049,2084],[52,36]],[[2135,2145],[1,0]],[[2137,2145],[215,63]],[[2378,2216],[44,11]],[[1334,0],[0,1]],[[1338,26],[9,76]],[[1334,20],[0,-1],[0,1]],[[1932,100],[46,-29]],[[2422,2214],[5,10]],[[3441,0],[-246,241]],[[1347,143],[0,1]],[[1466,1457],[-1,0],[1,-1],[1,0],[-1,1]],[[2406,2173],[16,41]],[[1333,19],[1,-18],[0,18]],[[1334,20]],[[1426,1498],[-29,26]],[[2165,3127],[17,-18]],[[748,1225],[-748,-217]],[[1426,1498],[-677,-273]],[[192,1615],[2,1]],[[1345,141],[1,-1],[1,2],[-1,1],[-1,-2]],[[2357,2539],[30,-64],[2,-187],[34,-59]],[[2424,2228],[4,-2]],[[1505,0],[38,50],[389,50]],[[1978,71],[65,-27],[186,28],[171,-24],[31,-48]],[[2500,0],[99,25],[127,-17],[98,49],[86,97],[210,106]],[[3123,259],[16,-16],[226,45],[378,139],[353,79]],[[3124,262],[1,0]],[[3121,261],[1,-1],[1,1],[-2,1],[0,-1]],[[1313,341],[-62,455],[22,325],[99,261],[93,74]],[[1313,341],[15,-38]],[[1346,143],[-18,160]],[[1639,1828],[-21,122],[-73,162],[-47,291],[-160,203]],[[1347,102],[0,37]],[[1467,1457],[69,68],[107,261]],[[1876,3958],[-93,11],[-125,-40],[-54,40],[-228,44],[-80,83]],[[192,1616],[-32,-57],[-43,-257],[-78,-22],[-39,-64]],[[1642,1765],[20,19]],[[3740,427],[112,432],[-17,399]],[[3847,3807],[-37,289]],[[3819,2493],[84,386],[-109,99],[-13,70],[72,348],[-33,330],[25,70]],[[3846,3800],[2,-2]],[[3847,3807],[0,-4]],[[3849,3804],[-2,3]],[[3848,3798],[2,2],[-1,4]],[[3849,3804],[-3,-4]],[[2352,2208],[26,8]],[[2422,2227],[1,0]],[[2388,2159],[-44,-49]],[[805,3338],[137,60],[234,-11],[122,45],[102,-18],[154,20],[177,-55],[61,5],[104,50],[216,175],[15,36],[55,21],[39,65],[129,50],[34,61],[126,78],[168,55],[69,61],[130,9],[58,51]],[[1466,1457],[-16,22]],[[816,3297],[2,1]],[[2182,3109],[131,-134],[40,-94]],[[2355,2871],[1,-3]],[[2356,2867],[1,-328]],[[1179,3388],[4,4]],[[193,1617],[-1,-1]],[[1450,1479],[-12,13]],[[2575,2171],[156,-137],[116,-174],[116,-55],[173,-33],[89,-66],[117,-139],[202,-28],[241,-179],[55,-64],[-5,-38],[136,-138],[125,-35]],[[1379,1475],[13,57]],[[234,4058],[-12,38]],[[190,1624],[0,-6]],[[1392,1532],[-97,202],[-194,203],[-189,115],[-97,112],[-145,81],[-30,-8],[-37,217],[-343,143],[-242,188],[-18,-4]],[[1662,1784],[12,12]],[[1682,1804],[33,32]],[[1966,2032],[83,52]],[[2101,2120],[34,25]],[[2136,2145],[1,0]],[[936,3396],[67,113],[152,150],[164,122],[115,40],[103,253],[28,22]],[[193,1617],[1,-1]],[[3423,0],[3,11]],[[2466,1096],[1,-4]],[[4000,2009],[96,176]],[[4085,2281],[11,8]],[[1531,1524],[-139,8]],[[193,1617],[50,199],[79,109],[-43,320],[-9,349]],[[4096,4096],[0,-4096],[-4096,0],[0,4096],[4096,0]],[[1512,2778],[47,67],[56,-87],[41,23],[124,-70],[0,-22],[-27,-38],[-34,-1],[-55,56],[-55,0],[4,31],[-36,-15],[-65,56]],[[395,3449],[20,37],[299,-205],[58,9],[35,35],[-18,-57],[-184,19],[-74,65],[-63,8],[-73,89]],[[1830,3649],[75,39],[15,-9],[43,-67],[-4,-37],[-129,74]],[[3424,3794],[19,30],[-12,53],[152,32],[69,-31],[-10,-76],[26,-3],[-24,-4],[22,-73],[-26,-21],[-62,9],[-7,-50],[-109,15],[-38,119]],[[1592,1789],[8,53],[73,-25],[34,50],[-14,21],[68,55],[-43,46],[-27,-57],[-54,72],[30,3],[15,38],[93,26],[-22,53],[10,25],[48,-13],[20,77],[-20,33],[43,18],[22,-51],[69,9],[74,86],[80,5],[-4,74],[72,25],[28,71],[30,-11],[33,26],[11,58],[11,-30],[25,26],[124,-30],[7,70],[-29,27],[21,17],[66,-26],[-3,-58],[73,1],[-12,-56],[60,-36],[-35,-34],[4,-82],[20,-48],[38,-5],[7,-87],[-52,1],[-4,56],[-44,-13],[-5,24],[-51,-57],[-124,-4],[24,-57],[-91,-89],[-90,-34],[39,-93],[-30,21],[-63,-12],[-22,58],[-82,-31],[62,-74],[-41,-5],[-128,76],[-15,37],[-95,-59],[-172,-166],[-70,5]],[[1281,0],[10,9],[0,117],[64,-27],[43,-99],[-117,0]]]}