{"objects":{"water":{"type":"GeometryCollection","geometries":[]},"buildings":{"type":"GeometryCollection","geometries":[]},"places":{"type":"GeometryCollection","geometries":[{"type":"Point","properties":{"name:az":"Panavejis","name:ka":"\u10de\u10d0\u10dc\u10d4\u10d5\u10d4\u10df\u10d8\u10e1\u10d8","name:ko":"\ud30c\ub124\ubca0\uc9c0\uc2a4","name:ar":"\u0628\u0627\u0646\u064a\u0641\u064a\u0632\u064a\u0633","name:tt":"\u041f\u0430\u043d\u0435\u0432\u0435\u0436\u0438\u0441","name:th":"\u0e1b\u0e32\u0e40\u0e19\u0e35\u0e22\u0e40\u0e27\u0e08\u0e35\u0e2a","name:ru":"\u041f\u0430\u043d\u044f\u0432\u0435\u0436\u0438\u0441","name:pl":"Poniewie\u017c","name:mn":"\u041f\u0430\u043d\u0435\u0432\u0435\u0436\u0438\u0441","id":33187331,"name:mk":"\u041f\u0430\u043d\u0435\u0432\u0435\u0436\u0438\u0441","name:fa":"\u067e\u0627\u0646\u0647\u200c\u0648\u0698\u06cc\u0633","kind_detail":"city","old_name:ru":"\u041f\u043e\u043d\u0435\u0432\u0435\u0436","name:de":"Ponewiesch","source":"openstreetmap.org","name:zh":"\u5e15\u5167\u97cb\u65e5\u65af","name:lv":"Panev\u0113\u017ea","name:ja":"\u30d1\u30cd\u30f4\u30a7\u30b8\u30fc\u30b9","name:sh":"Panev\u0117\u017eis","name:he":"\u05e4\u05d5\u05e0\u05d9\u05d1\u05d6'","name:ur":"\u067e\u0627\u0646\u06cc\u0648\u06cc\u0698\u06cc\u0633","name:uk":"\u041f\u0430\u043d\u044f\u0432\u0435\u0436\u0438\u0441","name:hy":"\u054a\u0561\u0576\u0587\u0565\u056a\u056b\u057d","name:be":"\u041f\u0430\u043d\u044f\u0432\u0435\u0436\u044b\u0441","name:bg":"\u041f\u0430\u043d\u0435\u0432\u0435\u0436\u0438\u0441","name:sr":"\u041f\u0430\u043d\u0435\u0432\u0435\u0436\u0438\u0441","population":99690,"name:el":"\u03a0\u03b1\u03bd\u03b5\u03b2\u03b5\u03b6\u03af\u03c2","kind":"locality","name":"Panev\u0117\u017eys","alt_name:ru":"\u041f\u0430\u043d\u0435\u0432\u0435\u0436\u0438\u0441","min_zoom":8.0},"coordinates":[1315,3880]},{"type":"Point","properties":{"alt_name:be":"\u0401\u043d\u0430\u0432\u0430","alt_name:pl":"Jan\u00f3w","name:ka":"\u10d8\u10dd\u10dc\u10d0\u10d5\u10d0","name:ko":"\uc694\ub098\ubc14","name:sr":"\u0408\u043e\u043d\u0430\u0432\u0430","min_zoom":8.0,"name:uk":"\u0419\u043e\u043d\u0430\u0432\u0430","name:be":"\u042f\u043d\u0430\u0432\u0430","name:ru":"\u0419\u043e\u043d\u0430\u0432\u0430","name:pl":"Jan\u00f3w nad Wili\u0105","id":1757670320,"population":30650,"kind":"locality","name":"Jonava","kind_detail":"town","name:de":"Janau","source":"openstreetmap.org","name:zh":"\u7d04\u7d0d\u74e6"},"coordinates":[1076,493]},{"type":"Point","properties":{"name:lv":"\u0136\u0113dai\u0146i","name:ka":"\u10d9\u10d4\u10d3\u10d0\u10d8\u10dc\u10d8\u10d0\u10d8","name:hi":"\u0915\u0947\u0926\u0948\u0902\u0910","name:ko":"\ucf00\ub2e4\uc774\ub124\uc774","name:he":"\u05e7\u05d3\u05d0\u05d9\u05d9\u05e0\u05d9","min_zoom":8.0,"name:uk":"\u041a\u0435\u0434\u0430\u0439\u043d\u044f\u0439","name:be":"\u041a\u0435\u0434\u0430\u0439\u043d\u0435\u0439","name:ru":"\u041a\u0435\u0434\u0430\u0439\u043d\u044f\u0439","name:pl":"Kiejdany","id":251902517,"population":26648,"name:el":"\u039a\u03b5\u03bd\u03c4\u03b1\u03ca\u03bd\u03b9\u03ac\u03b9","kind":"locality","name":"K\u0117dainiai","kind_detail":"town","name:de":"Kedahnen","source":"openstreetmap.org"},"coordinates":[203,1595]},{"type":"Point","properties":{"name:el":"\u039f\u03c5\u03ba\u03bc\u03b5\u03c1\u03b3\u03ba\u03ad","kind":"locality","name:lv":"Ukmer\u0123e","name":"Ukmerg\u0117","name:ka":"\u10e3\u10d9\u10db\u10d4\u10e0\u10d2\u10d4","kind_detail":"town","name:he":"\u05d0\u05d5\u05e7\u05de\u05e8\u05d2\u05d4","name:de":"Wilkomir","source":"openstreetmap.org","min_zoom":8.0,"name:uk":"\u0423\u043a\u043c\u0435\u0440\u0433\u0435","name:ru":"\u0423\u043a\u043c\u0435\u0440\u0433\u0435","name:pl":"Wi\u0142komierz","id":33698686,"population":23878},"coordinates":[2487,1385]},{"type":"Point","properties":{"name:el":"\u0391\u03bd\u03c5\u03ba\u03c3\u03c4\u03c3\u03b9\u03ac\u03b9","kind":"locality","name:lv":"An\u012bk\u0161\u010di","name":"Anyk\u0161\u010diai","name:ka":"\u10d0\u10dc\u10d8\u10d9\u10e8\u10e9\u10d8\u10d0\u10d8","kind_detail":"town","name:de":"Onikschten","source":"openstreetmap.org","min_zoom":8.0,"name:uk":"\u0410\u043d\u0456\u043a\u0449\u044f\u0439","name:ru":"\u0410\u043d\u0438\u043a\u0448\u0447\u0430\u0439","name:pl":"Onikszty","id":251280020,"population":10575},"coordinates":[3495,2810]},{"type":"Point","properties":{"kind":"locality","name":"\u0160irvintos","kind_detail":"town","name:de":"Schirwindt","source":"openstreetmap.org","min_zoom":8.0,"name:ru":"\u0428\u0438\u0440\u0432\u0438\u043d\u0442\u043e\u0441","name:pl":"Szyrwinty","id":60461226,"population":6415},"coordinates":[3043,379]},{"type":"Point","properties":{"kind":"locality","name":"Rukla","name:ka":"\u10e0\u10e3\u10d9\u10da\u10d0","kind_detail":"town","source":"openstreetmap.org","min_zoom":8.0,"name:ru":"\u0420\u0443\u043a\u043b\u0430","name:pl":"Ruk\u0142e","id":874073258,"population":2098},"coordinates":[1371,382]},{"type":"Point","properties":{"kind":"locality","name":"Krekenava","kind_detail":"town","name:he":"\u05e7\u05e8\u05e7\u05d9\u05e0\u05d5\u05d1\u05d4","name:de":"Kriekenau an der Nowitz","source":"openstreetmap.org","min_zoom":8.0,"name:pl":"Krakin\u00f3w","id":493609554,"population":1636},"coordinates":[557,2897]},{"type":"Point","properties":{"kind":"locality","name:lv":"Ram\u012bgala","name":"Ramygala","name:ka":"\u10e0\u10d0\u10db\u10d8\u10d2\u10d0\u10da\u10d0","kind_detail":"town","name:de":"Remgallen","source":"openstreetmap.org","min_zoom":8.0,"name:ru":"\u0420\u0430\u043c\u0438\u0433\u0430\u043b\u0430","name:pl":"Remigo\u0142a","id":816436554,"population":1581},"coordinates":[1161,2730]},{"type":"Point","properties":{"kind":"locality","name":"Suba\u010dius","kind_detail":"town","name:de":"Subotschen","source":"openstreetmap.org","min_zoom":8.0,"name:ru":"\u0421\u0443\u0431\u0430\u0447\u044e\u0441","name:pl":"Subocz","id":616686483,"population":1051},"coordinates":[2439,4051]},{"type":"Point","properties":{"kind":"locality","name":"\u0160\u0117ta","kind_detail":"town","source":"openstreetmap.org","min_zoom":8.0,"name:ru":"\u0428\u0435\u0442\u0430","name:pl":"Szaty","id":274296590,"population":935},"coordinates":[1014,1544]},{"type":"Point","properties":{"kind":"locality","name":"Vand\u017eiogala","name:ka":"\u10d5\u10d0\u10dc\u10ef\u10d4\u10d2\u10d0\u10da\u10d0","kind_detail":"town","source":"openstreetmap.org","min_zoom":8.0,"name:ru":"\u0412\u0430\u043d\u0434\u0436\u0435\u0433\u0430\u043b\u0430","name:pl":"W\u0119dziago\u0142a","id":150543772,"population":861},"coordinates":[151,718]},{"type":"Point","properties":{"kind":"locality","name":"\u017deimiai","kind_detail":"town","source":"openstreetmap.org","min_zoom":8.0,"name:pl":"\u017bejmy","id":444340619,"population":860},"coordinates":[930,1045]},{"type":"Point","properties":{"kind":"locality","name":"Naujamiestis","kind_detail":"town","source":"openstreetmap.org","min_zoom":8.0,"name:ru":"\u041d\u0430\u0443\u044f\u043c\u0435\u0441\u0442\u0438\u0441","name:pl":"Nowe Miasto","id":956228867,"population":725},"coordinates":[717,3636]},{"type":"Point","properties":{"kind":"locality","name":"Giedrai\u010diai","kind_detail":"town","name:de":"Sandersfurt an der Nerryne","source":"openstreetmap.org","min_zoom":8.0,"name:pl":"Giedrojcie","id":307745519,"population":684},"coordinates":[3947,491]},{"type":"Point","properties":{"kind":"locality","name:lv":"Kavarska","name":"Kavarskas","kind_detail":"town","name:de":"Kawarsk","source":"openstreetmap.org","min_zoom":8.0,"name:ru":"\u041a\u0430\u0432\u0430\u0440\u0441\u043a\u0430\u0441","name:be":"\u041a\u0430\u0432\u0430\u0440\u0441\u043a","name:pl":"Kowarsk","id":257920179,"population":666},"coordinates":[2977,2338]},{"type":"Point","properties":{"kind":"locality","name":"Mie\u017ei\u0161kiai","kind_detail":"town","source":"openstreetmap.org","min_zoom":8.0,"name:pl":"Mie\u017cyszki","id":2171647796,"population":651},"coordinates":[1832,3581]},{"type":"Point","properties":{"kind":"locality","name:lv":"Vepri","name":"Vepriai","name:ka":"\u10d5\u10d8\u10d0\u10de\u10e0\u10d8\u10d0\u10d8","kind_detail":"town","name:de":"Weppren","source":"openstreetmap.org","min_zoom":8.0,"name:ru":"\u0412\u0435\u043f\u0440\u044f\u0439","name:pl":"Wieprze","id":473074984,"population":549},"coordinates":[1943,887]},{"type":"Point","properties":{"kind":"locality","name":"Raguva","kind_detail":"town","name:de":"Ragau","source":"openstreetmap.org","min_zoom":8.0,"name:pl":"Rog\u00f3w","id":454487136,"population":533},"coordinates":[2090,3003]},{"type":"Point","properties":{"kind":"locality","name":"Sidabravas","kind_detail":"town","source":"openstreetmap.org","min_zoom":8.0,"name:pl":"Szczodrob\u00f3w","id":956228723,"population":532},"coordinates":[67,3687]},{"type":"Point","properties":{"kind":"locality","name":"Vadokliai","kind_detail":"town","source":"openstreetmap.org","min_zoom":8.0,"name:pl":"Wodakle","id":2178676733,"population":519},"coordinates":[1625,2664]},{"type":"Point","properties":{"kind":"locality","name":"Deltuva","name:ka":"\u10d3\u10d8\u10d0\u10da\u10e2\u10e3\u10d5\u10d0","kind_detail":"town","source":"openstreetmap.org","min_zoom":8.0,"name:ru":"\u0414\u044f\u043b\u0442\u0443\u0432\u0430","name:pl":"Dziewa\u0142t\u00f3w","id":500244619,"population":513},"coordinates":[2222,1338]},{"type":"Point","properties":{"kind":"locality","name":"Siesikai","kind_detail":"town","source":"openstreetmap.org","min_zoom":8.0,"name:pl":"Siesiki","id":1765971221,"population":508},"coordinates":[1733,1619]},{"type":"Point","properties":{"kind":"locality","name":"\u017delva","kind_detail":"town","name:de":"Schelwen","source":"openstreetmap.org","min_zoom":8.0,"name:pl":"Pozelwa","id":850791713,"population":457},"coordinates":[3472,1240]},{"type":"Point","properties":{"kind":"locality","name":"Tro\u0161k\u016bnai","kind_detail":"town","name:de":"Traschkin","source":"openstreetmap.org","min_zoom":8.0,"name:ru":"\u0422\u0440\u043e\u0448\u043a\u0443\u043d\u0430\u0439","name:pl":"Traszkuny","id":441128779,"population":451},"coordinates":[2810,3122]},{"type":"Point","properties":{"kind":"locality","name":"\u0160imonys","name:ka":"\u10e8\u10d8\u10db\u10dd\u10dc\u10d8\u10e1\u10d8","kind_detail":"town","source":"openstreetmap.org","min_zoom":8.0,"name:ru":"\u0428\u0438\u043c\u043e\u043d\u0438\u0441","name:pl":"Szyma\u0144ce","id":794149127,"population":441},"coordinates":[3616,3902]},{"type":"Point","properties":{"kind":"locality","name":"Vidi\u0161kiai","kind_detail":"town","name:de":"Widischken","source":"openstreetmap.org","min_zoom":8.0,"name:pl":"Widziszki","id":418350421,"population":427},"coordinates":[2788,1687]},{"type":"Point","properties":{"kind":"locality","name":"Kurkliai","kind_detail":"town","name:de":"Kirkillen","source":"openstreetmap.org","min_zoom":8.0,"name:pl":"Kurkle","id":429331314,"population":374},"coordinates":[3365,2238]},{"type":"Point","properties":{"kind":"locality","name":"Tauj\u0117nai","kind_detail":"town","source":"openstreetmap.org","min_zoom":8.0,"name:pl":"Towiany","id":760594564,"population":365},"coordinates":[2490,2113]},{"type":"Point","properties":{"kind":"locality","name":"Panoteriai","kind_detail":"town","name:de":"Kapellen","source":"openstreetmap.org","min_zoom":8.0,"name:pl":"Kaplice","id":1323182148,"population":360},"coordinates":[1523,1126]},{"type":"Point","properties":{"kind":"locality","name":"Pagiriai","kind_detail":"town","name:de":"Pawundenwalde","source":"openstreetmap.org","min_zoom":8.0,"name:pl":"Pogiry","id":474650554,"population":358},"coordinates":[1431,1964]},{"type":"Point","properties":{"kind":"locality","name":"Survili\u0161kis","kind_detail":"town","name:de":"Surwilischken","source":"openstreetmap.org","min_zoom":8.0,"name:pl":"Surwiliszki","id":692907255,"population":351},"coordinates":[373,2413]},{"type":"Point","properties":{"kind":"locality","name":"Alanta","kind_detail":"town","name:de":"Ollunten","source":"openstreetmap.org","min_zoom":8.0,"name:be":"\u0410\u043b\u0430\u043d\u0442\u0430","name:pl":"Owanta","id":436965091,"population":348},"coordinates":[4036,1915]},{"type":"Point","properties":{"kind":"locality","name":"Balninkai","kind_detail":"town","name:de":"Balnicken","source":"openstreetmap.org","min_zoom":8.0,"name:pl":"Bolniki","id":418339772,"population":319},"coordinates":[3538,1624]},{"type":"Point","properties":{"kind":"locality","name":"Gelvonai","kind_detail":"town","name:de":"Gelwenen","source":"openstreetmap.org","min_zoom":8.0,"name:pl":"Gie\u0142wany","id":1271387198,"population":284},"coordinates":[2289,457]},{"type":"Point","properties":{"kind":"locality","name":"Vie\u0161intos","kind_detail":"town","name:de":"Weschinten","source":"openstreetmap.org","min_zoom":8.0,"name:ru":"\u0412\u0435\u0448\u0438\u043d\u0442\u044b","name:pl":"Wieszynty","id":429566466,"population":281},"coordinates":[3157,3650]},{"type":"Point","properties":{"kind":"locality","name":"\u017demaitkiemis","kind_detail":"town","source":"openstreetmap.org","min_zoom":8.0,"name:pl":"\u017bmujdki","id":803264795,"population":261},"coordinates":[3116,1685]},{"type":"Point","properties":{"kind":"locality","name":"\u0160ilai","kind_detail":"town","source":"openstreetmap.org","min_zoom":8.0,"name:pl":"Szy\u0142y","id":2195265652,"population":252},"coordinates":[2044,2647]},{"type":"Point","properties":{"kind":"locality","name":"Pabaiskas","kind_detail":"town","source":"openstreetmap.org","min_zoom":8.0,"name:pl":"Pobojsk","id":1428006957,"population":234},"coordinates":[2502,974]},{"type":"Point","properties":{"kind":"locality","name":"Andrioni\u0161kis","kind_detail":"town","source":"openstreetmap.org","min_zoom":8.0,"name:pl":"Androniszki","id":429566462,"population":229},"coordinates":[3317,3185]},{"type":"Point","properties":{"kind":"locality","name":"Traupis","kind_detail":"town","name:de":"Trappen","source":"openstreetmap.org","min_zoom":8.0,"name:pl":"Troupie","id":760594582,"population":179},"coordinates":[2458,2741]},{"type":"Point","properties":{"kind":"locality","name":"Vadaktai","kind_detail":"town","source":"openstreetmap.org","min_zoom":8.0,"name:pl":"Wodokty","id":2334390073,"population":178},"coordinates":[247,3376]},{"type":"Point","properties":{"kind":"locality","name":"Gai\u017ei\u016bnai","kind_detail":"town","source":"openstreetmap.org","min_zoom":8.0,"name:ru":"\u0413\u0430\u0439\u0436\u044e\u043d\u0430\u0439","name:pl":"Gaj\u017cuny","id":2208358384,"population":167},"coordinates":[1229,319]},{"type":"Point","properties":{"kind":"locality","name":"Surdegis","kind_detail":"town","source":"openstreetmap.org","min_zoom":8.0,"name:pl":"Surdegi","id":616685744,"population":158},"coordinates":[2639,3531]},{"type":"Point","properties":{"kind":"locality","name":"Suba\u010dius","kind_detail":"town","source":"openstreetmap.org","min_zoom":8.0,"name:pl":"Subocz","id":616685868,"population":149},"coordinates":[2543,3876]},{"type":"Point","properties":{"kind":"locality","name":"Lyduokiai","kind_detail":"town","source":"openstreetmap.org","min_zoom":8.0,"name:pl":"Nidoki","id":1767425929,"population":142},"coordinates":[3022,1477]},{"type":"Point","properties":{"kind":"locality","name":"\u0160e\u0161uoliai","kind_detail":"town","name:de":"Scheschail","source":"openstreetmap.org","min_zoom":8.0,"name:pl":"Szeszole","id":421338869,"population":138},"coordinates":[3098,1034]},{"type":"Point","properties":{"kind":"locality","name":"Truskava","kind_detail":"town","name:de":"Truskau","source":"openstreetmap.org","min_zoom":8.0,"name:pl":"Trusk\u00f3w","id":1826837234,"population":129},"coordinates":[930,2325]},{"type":"Point","properties":{"kind":"locality","name":"Zibalai","kind_detail":"town","source":"openstreetmap.org","min_zoom":8.0,"name:pl":"Zyba\u0142y","id":1270571779,"population":129},"coordinates":[3165,565]},{"type":"Point","properties":{"kind":"locality","name":"Bagaslavi\u0161kis","kind_detail":"town","name:de":"Gelben","source":"openstreetmap.org","min_zoom":8.0,"name:pl":"Bogus\u0142awiszki","id":2364172915,"population":110},"coordinates":[2510,487]},{"type":"Point","properties":{"kind":"locality","name":"\u017deimiai","kind_detail":"town","source":"openstreetmap.org","min_zoom":8.0,"name:pl":"\u017bejmy","id":1323182099,"population":89},"coordinates":[807,899]},{"type":"Point","properties":{"kind":"locality","name":"Skiemonys","kind_detail":"town","name:de":"Skeem","source":"openstreetmap.org","min_zoom":8.0,"name:pl":"Skiemiany","id":889242953,"population":38},"coordinates":[3982,2258]},{"type":"Point","properties":{"kind":"locality","name":"Raguv\u0117l\u0117","kind_detail":"town","source":"openstreetmap.org","min_zoom":8.0,"name:pl":"Rog\u00f3wka","id":2329425038,"population":38},"coordinates":[2341,3604]},{"type":"Point","properties":{"kind":"locality","name":"Karsaki\u0161kis","kind_detail":"town","source":"openstreetmap.org","min_zoom":8.0,"name:pl":"Korsakiszki","id":2874733608,"population":10},"coordinates":[1835,4070]},{"type":"Point","properties":{"kind":"locality","name":"Surdegis","kind_detail":"town","source":"openstreetmap.org","min_zoom":8.0,"name:pl":"Surdegi","id":2490204920,"population":5},"coordinates":[2587,3491]},{"type":"Point","properties":{"kind":"locality","name":"Kaln\u0117nai","kind_detail":"town","name:de":"Kaleinen","source":"openstreetmap.org","min_zoom":8.0,"name:pl":"Kalnenai","id":2643551108,"population":4},"coordinates":[791,37]},{"type":"Point","properties":{"source":"openstreetmap.org","kind":"locality","name":"Dumsiai","kind_detail":"town","population":2,"min_zoom":8.0,"id":2546509698},"coordinates":[1054,283]}]},"transit":{"type":"GeometryCollection","geometries":[{"type":"LineString","properties":{"kind":"train","name":"Klaip\u0117da - Vilnius","sort_rank":275,"name:de":"Memel - Wilna","source":"openstreetmap.org","min_zoom":6.0,"ref":"Klaip\u0117da - Vilnius","osm_relation":true},"arcs":[6]}]},"pois":{"type":"GeometryCollection","geometries":[{"type":"Point","properties":{"source":"openstreetmap.org","kind":"military","name":"Gai\u017ei\u016bn\u0173 poligonas","area":152850000,"tier":3,"min_zoom":8.0,"id":150533938},"coordinates":[1409,202]}]},"boundaries":{"type":"GeometryCollection","geometries":[{"type":"LineString","properties":{"name:right:no":"Panev\u0117\u017eys fylke","name:right:ja":"\u30d1\u30cd\u30f4\u30a7\u30b8\u30fc\u30b9\u90e1","name:right:uk":"\u041f\u0430\u043d\u0435\u0432\u0435\u0436\u0438\u0441\u044c\u043a\u0438\u0439 \u043f\u043e\u0432\u0456\u0442","name:right:hr":"Okrug Panev\u0117\u017eis","name:left:be":"\u0428\u0430\u045e\u043b\u044f\u0439\u0441\u043a\u0456 \u043f\u0430\u0432\u0435\u0442","name:right:sw":"Wilaya ya Panev\u0117\u017eys","name:right:sv":"Panev\u0117\u017eys l\u00e4n","name:left:uk":"\u0428\u044f\u0443\u043b\u044f\u0439\u0441\u044c\u043a\u0438\u0439 \u043f\u043e\u0432\u0456\u0442","name:right:sh":"Okrug Panev\u0117\u017eis","min_zoom":8.0,"name:right:fa":"\u0634\u0647\u0631\u0633\u062a\u0627\u0646 \u067e\u0627\u0646\u0647\u200c\u0648\u0698\u06cc\u0633","name:right:sa":"\u092a\u0928\u0947\u0935\u0947\u091c\u093f\u092e\u0923\u094d\u0921\u0932\u092e\u094d","name:right:he":"\u05de\u05d7\u05d5\u05d6 \u05e4\u05d5\u05e0\u05d9\u05d1\u05d6'","name:right":"Panev\u0117\u017eio apskritis","name:right:tg":"\u0412\u0438\u043b\u043e\u044f\u0442\u0438 \u041f\u0430\u043d\u0435\u0432\u0435\u0436\u0438\u0441","name:left:en":"Siauliai County","sort_rank":256,"kind_detail":"4","id":-1256237,"source":"openstreetmap.org","name:right:ar":"\u0645\u0642\u0627\u0637\u0639\u0629 \u0628\u0627\u0646\u064a\u0641\u064a\u0632\u064a\u0633","id:left":-1256237,"name:right:cs":"Panev\u0117\u017eysk\u00fd kraj","name:right:fi":"Panev\u0117\u017eysin l\u00e4\u00e4ni","name:left":"\u0160iauli\u0173 apskritis","name:right:ka":"\u10de\u10d0\u10dc\u10d4\u10d5\u10d4\u10df\u10d8\u10e1\u10d8\u10e1 \u10db\u10d0\u10d6\u10e0\u10d0","name:right:sr":"\u041f\u0430\u043d\u0435\u0432\u0435\u0436\u0438\u0441\u043a\u0438 \u043e\u043a\u0440\u0443\u0433","name:right:bg":"\u041f\u0430\u043d\u0435\u0432\u0435\u0436\u0438\u0441\u043a\u0438 \u043e\u043a\u0440\u044a\u0433","name:right:eu":"Panev\u0117\u017eysko konderria","name:right:et":"Panev\u0117\u017eysi maakond","name:left:pl":"Okr\u0119g szawelski","name:right:it":"Contea di Panev\u0117\u017eys","name:right:ko":"\ud30c\ub124\ubca0\uc9c0\uc2a4 \uc8fc","name:right:ru":"\u041f\u0430\u043d\u0435\u0432\u0435\u0436\u0441\u043a\u0438\u0439 \u0443\u0435\u0437\u0434","name:right:es":"Provincia de Panev\u0117\u017eys","name:right:ga":"Contae Panev\u0117\u017eys","name:right:ro":"Jude\u021bul Panev\u0117\u017eys","name:right:kw":"Konteth Panev\u0117\u017eys","name:left:ru":"\u0428\u044f\u0443\u043b\u044f\u0439\u0441\u043a\u0438\u0439 \u0443\u0435\u0437\u0434","id:right":-1028503,"name:right:pl":"Okr\u0119g poniewieski","name:right:en":"Panevezys County","osm_relation":true,"name:right:el":"\u0395\u03c0\u03b1\u03c1\u03c7\u03af\u03b1 \u03a0\u03b1\u03bd\u03b5\u03b2\u03b5\u03b6\u03af\u03c2","kind":"region","name":"\u0160iauli\u0173 apskritis - Panev\u0117\u017eio apskritis","name:right:eo":"Distrikto Panev\u0117\u017eys","name:right:ur":"\u067e\u0627\u0646\u06cc\u0648\u06cc\u0698\u06cc\u0633 \u06a9\u0627\u0624\u0646\u0679\u06cc","name:right:de":"Bezirk Ponewiesch","name:right:lv":"Panev\u0113\u017eas apri\u0146\u0137is","name:left:de":"Bezirk Schaulen","name:right:be":"\u041f\u0430\u043d\u044f\u0432\u0435\u0436\u044b\u0441\u043a\u0456 \u043f\u0430\u0432\u0435\u0442","name:right:ca":"Comtat de Panev\u0117\u017eys","name:right:zh":"\u5e15\u6d85\u97cb\u65e5\u65af\u7e23"},"arcs":[0]},{"type":"LineString","properties":{"name:right:uk":"\u0412\u0456\u043b\u044c\u043d\u044e\u0441\u044c\u043a\u0438\u0439 \u043f\u043e\u0432\u0456\u0442","name:left:he":"\u05de\u05d7\u05d5\u05d6 \u05e4\u05d5\u05e0\u05d9\u05d1\u05d6'","name:right:hr":"Okrug Vilnius","name:left:sv":"Panev\u0117\u017eys l\u00e4n","name:left:sr":"\u041f\u0430\u043d\u0435\u0432\u0435\u0436\u0438\u0441\u043a\u0438 \u043e\u043a\u0440\u0443\u0433","name:right:ur":"\u0648\u06cc\u0644\u0646\u06cc\u0648\u0633 \u06a9\u0627\u0624\u0646\u0679\u06cc","name:right:lv":"Vi\u013c\u0146as apri\u0146\u0137is","name:left:sh":"Okrug Panev\u0117\u017eis","name:left:lv":"Panev\u0113\u017eas apri\u0146\u0137is","name:left:sa":"\u092a\u0928\u0947\u0935\u0947\u091c\u093f\u092e\u0923\u094d\u0921\u0932\u092e\u094d","name:left:hr":"Okrug Panev\u0117\u017eis","name:left:ga":"Contae Panev\u0117\u017eys","sort_rank":256,"name:left:ca":"Comtat de Panev\u0117\u017eys","source":"openstreetmap.org","name:right:ar":"\u0645\u0642\u0627\u0637\u0639\u0629 \u0641\u064a\u0644\u0646\u064a\u0648\u0633","name:left:sw":"Wilaya ya Panev\u0117\u017eys","name:left:cs":"Panev\u0117\u017eysk\u00fd kraj","name:left":"Panev\u0117\u017eio apskritis","name:right:es":"Provincia de Vilna","name:right:sr":"\u0412\u0438\u043b\u045a\u0443\u0441\u043a\u0438 \u043e\u043a\u0440\u0443\u0433","name:left:ka":"\u10de\u10d0\u10dc\u10d4\u10d5\u10d4\u10df\u10d8\u10e1\u10d8\u10e1 \u10db\u10d0\u10d6\u10e0\u10d0","name:right:eu":"Vilniusko konderria","name:right:et":"Vilniuse maakond","name:left:ko":"\ud30c\ub124\ubca0\uc9c0\uc2a4 \uc8fc","name:right:it":"Contea di Vilnius","name:left:ro":"Jude\u021bul Panev\u0117\u017eys","name:right:ru":"\u0412\u0438\u043b\u044c\u043d\u044e\u0441\u0441\u043a\u0438\u0439 \u0443\u0435\u0437\u0434","name:left:kw":"Konteth Panev\u0117\u017eys","name:right:ro":"Jude\u021bul Vilnius","name:left:ru":"\u041f\u0430\u043d\u0435\u0432\u0435\u0436\u0441\u043a\u0438\u0439 \u0443\u0435\u0437\u0434","name:right:id":"County Vilnius","name:right:eo":"Distrikto Vilno","name:right:en":"Vilnius County","name:right:el":"\u0395\u03c0\u03b1\u03c1\u03c7\u03af\u03b1 \u0392\u03af\u03bb\u03bd\u03b9\u03bf\u03c5\u03c2","kind":"region","name":"Panev\u0117\u017eio apskritis - Vilniaus apskritis","name:left:fa":"\u0634\u0647\u0631\u0633\u062a\u0627\u0646 \u067e\u0627\u0646\u0647\u200c\u0648\u0698\u06cc\u0633","name:right:fa":"\u0634\u0647\u0631\u0633\u062a\u0627\u0646 \u0648\u06cc\u0644\u0646\u06cc\u0648\u0633","min_zoom":8.0,"name:left:fi":"Panev\u0117\u017eysin l\u00e4\u00e4ni","name:left:zh":"\u5e15\u6d85\u97cb\u65e5\u65af\u7e23","name:right:zh":"\u7dad\u723e\u7d10\u65af\u7e23","name:right:nn":"Vilnius fylke","name:right:no":"Vilnius fylke","name:right:ja":"\u30f4\u30a3\u30ea\u30cb\u30e5\u30b9\u770c","name:right:fr":"Apskritis de Vilnius","name:left:ur":"\u067e\u0627\u0646\u06cc\u0648\u06cc\u0698\u06cc\u0633 \u06a9\u0627\u0624\u0646\u0679\u06cc","name:left:ja":"\u30d1\u30cd\u30f4\u30a7\u30b8\u30fc\u30b9\u90e1","name:right:sw":"Wilaya ya Vilnius","name:right:sv":"Vilnius l\u00e4n","name:left:uk":"\u041f\u0430\u043d\u0435\u0432\u0435\u0436\u0438\u0441\u044c\u043a\u0438\u0439 \u043f\u043e\u0432\u0456\u0442","name:right:sh":"\u0412\u0438\u043b\u045a\u0443\u0441 \u043e\u043a\u0440\u0443\u0433","name:left:bg":"\u041f\u0430\u043d\u0435\u0432\u0435\u0436\u0438\u0441\u043a\u0438 \u043e\u043a\u0440\u044a\u0433","name:left:be":"\u041f\u0430\u043d\u044f\u0432\u0435\u0436\u044b\u0441\u043a\u0456 \u043f\u0430\u0432\u0435\u0442","name:left:no":"Panev\u0117\u017eys fylke","name:right:be":"\u0412\u0456\u043b\u044c\u043d\u044e\u0441\u043a\u0456 \u043f\u0430\u0432\u0435\u0442","id":-1028503,"name:right":"Vilniaus apskritis","name:left:eo":"Distrikto Panev\u0117\u017eys","name:left:en":"Panevezys County","name:left:el":"\u0395\u03c0\u03b1\u03c1\u03c7\u03af\u03b1 \u03a0\u03b1\u03bd\u03b5\u03b2\u03b5\u03b6\u03af\u03c2","name:right:ca":"Comtat de V\u00edlnius","kind_detail":"4","id:left":-1028503,"name:left:es":"Provincia de Panev\u0117\u017eys","name:right:cs":"Vilniusk\u00fd kraj","name:right:fi":"Vilnan l\u00e4\u00e4ni","id:right":-977317,"name:left:eu":"Panev\u0117\u017eysko konderria","name:left:et":"Panev\u0117\u017eysi maakond","name:right:ka":"\u10d5\u10d8\u10da\u10dc\u10d8\u10e3\u10e1\u10d8\u10e1 \u10db\u10d0\u10d6\u10e0\u10d0","name:left:ar":"\u0645\u0642\u0627\u0637\u0639\u0629 \u0628\u0627\u0646\u064a\u0641\u064a\u0632\u064a\u0633","name:left:pl":"Okr\u0119g poniewieski","name:right:ko":"\ube4c\ub274\uc2a4 \uc8fc","name:right:bg":"\u0412\u0438\u043b\u043d\u044e\u0441\u043a\u0438 \u043e\u043a\u0440\u044a\u0433","name:right:ga":"Contae Vilnius","name:right:kw":"Konteth Vilnius","name:left:it":"Contea di Panev\u0117\u017eys","name:right:pl":"Okr\u0119g wile\u0144ski","osm_relation":true,"name:left:tg":"\u0412\u0438\u043b\u043e\u044f\u0442\u0438 \u041f\u0430\u043d\u0435\u0432\u0435\u0436\u0438\u0441","name:right:sa":"\u0935\u093f\u0932\u094d\u091e\u0941\u092e\u0923\u094d\u0921\u0932\u092e\u094d","name:right:de":"Bezirk Wilna","name:left:de":"Bezirk Ponewiesch"},"arcs":[1]},{"type":"LineString","properties":{"name:right:uk":"\u0423\u0442\u0435\u043d\u0441\u044c\u043a\u0438\u0439 \u043f\u043e\u0432\u0456\u0442","name:left:he":"\u05de\u05d7\u05d5\u05d6 \u05e4\u05d5\u05e0\u05d9\u05d1\u05d6'","name:right:hr":"Okrug Utena","name:left:sv":"Panev\u0117\u017eys l\u00e4n","name:left:sr":"\u041f\u0430\u043d\u0435\u0432\u0435\u0436\u0438\u0441\u043a\u0438 \u043e\u043a\u0440\u0443\u0433","name:right:ur":"\u0627\u0648\u062a\u06cc\u0646\u0627 \u06a9\u0627\u0624\u0646\u0679\u06cc","name:right:lv":"Utenas apri\u0146\u0137is","name:left:sh":"Okrug Panev\u0117\u017eis","name:left:lv":"Panev\u0113\u017eas apri\u0146\u0137is","name:left:sa":"\u092a\u0928\u0947\u0935\u0947\u091c\u093f\u092e\u0923\u094d\u0921\u0932\u092e\u094d","name:right:he":"\u05de\u05d7\u05d5\u05d6 \u05d0\u05d5\u05d8\u05e0\u05d4","name:left:hr":"Okrug Panev\u0117\u017eis","name:left:ga":"Contae Panev\u0117\u017eys","name:right:tg":"\u0412\u0438\u043b\u043e\u044f\u0442\u0438 \u0423\u0442\u0435\u043d\u0430","sort_rank":256,"name:left:ca":"Comtat de Panev\u0117\u017eys","source":"openstreetmap.org","name:right:ar":"\u0645\u0642\u0627\u0637\u0639\u0629 \u0623\u0648\u062a\u064a\u0646\u0627","name:left:sw":"Wilaya ya Panev\u0117\u017eys","name:left:cs":"Panev\u0117\u017eysk\u00fd kraj","name:left":"Panev\u0117\u017eio apskritis","name:right:es":"Provincia de Utena","name:right:sr":"\u0423\u0442\u0435\u043d\u0441\u043a\u0438 \u043e\u043a\u0440\u0443\u0433","name:left:ka":"\u10de\u10d0\u10dc\u10d4\u10d5\u10d4\u10df\u10d8\u10e1\u10d8\u10e1 \u10db\u10d0\u10d6\u10e0\u10d0","name:right:eu":"Utenako konderria","name:right:et":"Utena maakond","name:left:ko":"\ud30c\ub124\ubca0\uc9c0\uc2a4 \uc8fc","name:right:it":"Contea di Utena","name:left:ro":"Jude\u021bul Panev\u0117\u017eys","name:right:ru":"\u0423\u0442\u0435\u043d\u0441\u043a\u0438\u0439 \u0443\u0435\u0437\u0434","name:left:kw":"Konteth Panev\u0117\u017eys","name:right:ro":"Jude\u021bul Utena","name:left:ru":"\u041f\u0430\u043d\u0435\u0432\u0435\u0436\u0441\u043a\u0438\u0439 \u0443\u0435\u0437\u0434","id:right":-966958,"name:right:eo":"Distrikto Utena","name:right:en":"Utena County","name:right:el":"\u0395\u03c0\u03b1\u03c1\u03c7\u03af\u03b1 \u039f\u03c5\u03c4\u03b5\u03bd\u03ac","kind":"region","name":"Panev\u0117\u017eio apskritis - Utenos apskritis","name:left:fa":"\u0634\u0647\u0631\u0633\u062a\u0627\u0646 \u067e\u0627\u0646\u0647\u200c\u0648\u0698\u06cc\u0633","name:right:fa":"\u0634\u0647\u0631\u0633\u062a\u0627\u0646 \u0627\u0648\u062a\u0646\u0627","min_zoom":8.0,"name:right:be":"\u0423\u0446\u044f\u043d\u0441\u043a\u0456 \u043f\u0430\u0432\u0435\u0442","name:left:zh":"\u5e15\u6d85\u97cb\u65e5\u65af\u7e23","name:right:bs":"Okrug Utena","name:right:zh":"\u70cf\u7530\u7d0d\u7e23","name:right:no":"Utena fylke","name:right:ja":"\u30a6\u30c6\u30ca\u90e1","name:left:ur":"\u067e\u0627\u0646\u06cc\u0648\u06cc\u0698\u06cc\u0633 \u06a9\u0627\u0624\u0646\u0679\u06cc","name:left:ja":"\u30d1\u30cd\u30f4\u30a7\u30b8\u30fc\u30b9\u90e1","name:right:sw":"Wilaya ya Utena","name:right:sv":"Utena l\u00e4n","name:left:uk":"\u041f\u0430\u043d\u0435\u0432\u0435\u0436\u0438\u0441\u044c\u043a\u0438\u0439 \u043f\u043e\u0432\u0456\u0442","name:right:sh":"Okrug Utena","name:left:bg":"\u041f\u0430\u043d\u0435\u0432\u0435\u0436\u0438\u0441\u043a\u0438 \u043e\u043a\u0440\u044a\u0433","name:left:be":"\u041f\u0430\u043d\u044f\u0432\u0435\u0436\u044b\u0441\u043a\u0456 \u043f\u0430\u0432\u0435\u0442","name:left:no":"Panev\u0117\u017eys fylke","name:left:fi":"Panev\u0117\u017eysin l\u00e4\u00e4ni","id":-1028503,"name:right:fi":"Utenan l\u00e4\u00e4ni","name:left:eo":"Distrikto Panev\u0117\u017eys","name:left:en":"Panevezys County","name:left:el":"\u0395\u03c0\u03b1\u03c1\u03c7\u03af\u03b1 \u03a0\u03b1\u03bd\u03b5\u03b2\u03b5\u03b6\u03af\u03c2","name:right:ca":"Comtat d'Utena","kind_detail":"4","id:left":-1028503,"name:left:es":"Provincia de Panev\u0117\u017eys","name:right:cs":"Utensk\u00fd kraj","name:right":"Utenos apskritis","name:left:eu":"Panev\u0117\u017eysko konderria","name:left:et":"Panev\u0117\u017eysi maakond","name:right:ka":"\u10e3\u10e2\u10d4\u10dc\u10d8\u10e1 \u10db\u10d0\u10d6\u10e0\u10d0","name:right:pt":"Condado de Utena","name:left:ar":"\u0645\u0642\u0627\u0637\u0639\u0629 \u0628\u0627\u0646\u064a\u0641\u064a\u0632\u064a\u0633","name:left:pl":"Okr\u0119g poniewieski","name:right:ko":"\uc6b0\ud14c\ub098 \uc8fc","name:right:bg":"\u0423\u0442\u0435\u043d\u0441\u043a\u0438 \u043e\u043a\u0440\u044a\u0433","name:right:ga":"Contae Utena","name:right:kw":"Konteth Utena","name:left:it":"Contea di Panev\u0117\u017eys","name:right:pl":"Okr\u0119g ucia\u0144ski","osm_relation":true,"name:left:tg":"\u0412\u0438\u043b\u043e\u044f\u0442\u0438 \u041f\u0430\u043d\u0435\u0432\u0435\u0436\u0438\u0441","name:right:sa":"\u0909\u0924\u0947\u0928\u092e\u0923\u094d\u0921\u0932\u092e\u094d","name:right:de":"Bezirk Utenen","name:left:de":"Bezirk Ponewiesch"},"arcs":[2]},{"type":"LineString","properties":{"name:ro":"Jude\u021bul Panev\u0117\u017eys","name:ka":"\u10de\u10d0\u10dc\u10d4\u10d5\u10d4\u10df\u10d8\u10e1\u10d8\u10e1 \u10db\u10d0\u10d6\u10e0\u10d0","name:ko":"\ud30c\ub124\ubca0\uc9c0\uc2a4 \uc8fc","name:ar":"\u0645\u0642\u0627\u0637\u0639\u0629 \u0628\u0627\u0646\u064a\u0641\u064a\u0632\u064a\u0633","name:cs":"Panev\u0117\u017eysk\u00fd kraj","name:kw":"Konteth Panev\u0117\u017eys","min_zoom":8.0,"name:it":"Contea di Panev\u0117\u017eys","name:be":"\u041f\u0430\u043d\u044f\u0432\u0435\u0436\u044b\u0441\u043a\u0456 \u043f\u0430\u0432\u0435\u0442","name:ru":"\u041f\u0430\u043d\u0435\u0432\u0435\u0436\u0441\u043a\u0438\u0439 \u0443\u0435\u0437\u0434","name:pl":"Okr\u0119g poniewieski","id":-1028503,"name:ca":"Comtat de Panev\u0117\u017eys","name:fa":"\u0634\u0647\u0631\u0633\u062a\u0627\u0646 \u067e\u0627\u0646\u0647\u200c\u0648\u0698\u06cc\u0633","sort_rank":256,"kind_detail":"4","name:sh":"Okrug Panev\u0117\u017eis","kind":"region","name:de":"Bezirk Ponewiesch","source":"openstreetmap.org","name:tg":"\u0412\u0438\u043b\u043e\u044f\u0442\u0438 \u041f\u0430\u043d\u0435\u0432\u0435\u0436\u0438\u0441","name:lv":"Panev\u0113\u017eas apri\u0146\u0137is","name:ja":"\u30d1\u30cd\u30f4\u30a7\u30b8\u30fc\u30b9\u90e1","name:no":"Panev\u0117\u017eys fylke","name:he":"\u05de\u05d7\u05d5\u05d6 \u05e4\u05d5\u05e0\u05d9\u05d1\u05d6'","name:eo":"Distrikto Panev\u0117\u017eys","name:sa":"\u092a\u0928\u0947\u0935\u0947\u091c\u093f\u092e\u0923\u094d\u0921\u0932\u092e\u094d","name:ur":"\u067e\u0627\u0646\u06cc\u0648\u06cc\u0698\u06cc\u0633 \u06a9\u0627\u0624\u0646\u0679\u06cc","name:uk":"\u041f\u0430\u043d\u0435\u0432\u0435\u0436\u0438\u0441\u044c\u043a\u0438\u0439 \u043f\u043e\u0432\u0456\u0442","name:sw":"Wilaya ya Panev\u0117\u017eys","name:sv":"Panev\u0117\u017eys l\u00e4n","name:bg":"\u041f\u0430\u043d\u0435\u0432\u0435\u0436\u0438\u0441\u043a\u0438 \u043e\u043a\u0440\u044a\u0433","name:hr":"Okrug Panev\u0117\u017eis","name:sr":"\u041f\u0430\u043d\u0435\u0432\u0435\u0436\u0438\u0441\u043a\u0438 \u043e\u043a\u0440\u0443\u0433","osm_relation":true,"name:el":"\u0395\u03c0\u03b1\u03c1\u03c7\u03af\u03b1 \u03a0\u03b1\u03bd\u03b5\u03b2\u03b5\u03b6\u03af\u03c2","name:ga":"Contae Panev\u0117\u017eys","name:en":"Panevezys County","name":"Panev\u0117\u017eio apskritis","name:zh":"\u5e15\u6d85\u97cb\u65e5\u65af\u7e23","name:fi":"Panev\u0117\u017eysin l\u00e4\u00e4ni","name:eu":"Panev\u0117\u017eysko konderria","name:et":"Panev\u0117\u017eysi maakond","name:es":"Provincia de Panev\u0117\u017eys"},"arcs":[3]},{"type":"LineString","properties":{"name:right:uk":"\u0423\u0442\u0435\u043d\u0441\u044c\u043a\u0438\u0439 \u043f\u043e\u0432\u0456\u0442","name:right:hr":"Okrug Utena","name:left:sv":"Vilnius l\u00e4n","name:left:sr":"\u0412\u0438\u043b\u045a\u0443\u0441\u043a\u0438 \u043e\u043a\u0440\u0443\u0433","name:right:ur":"\u0627\u0648\u062a\u06cc\u0646\u0627 \u06a9\u0627\u0624\u0646\u0679\u06cc","name:right:lv":"Utenas apri\u0146\u0137is","name:left:sh":"\u0412\u0438\u043b\u045a\u0443\u0441 \u043e\u043a\u0440\u0443\u0433","name:left:lv":"Vi\u013c\u0146as apri\u0146\u0137is","name:left:sa":"\u0935\u093f\u0932\u094d\u091e\u0941\u092e\u0923\u094d\u0921\u0932\u092e\u094d","name:right:he":"\u05de\u05d7\u05d5\u05d6 \u05d0\u05d5\u05d8\u05e0\u05d4","name:left:hr":"Okrug Vilnius","name:left:ga":"Contae Vilnius","name:right:tg":"\u0412\u0438\u043b\u043e\u044f\u0442\u0438 \u0423\u0442\u0435\u043d\u0430","sort_rank":256,"name:left:ca":"Comtat de V\u00edlnius","source":"openstreetmap.org","name:right:ar":"\u0645\u0642\u0627\u0637\u0639\u0629 \u0623\u0648\u062a\u064a\u0646\u0627","name:left:sw":"Wilaya ya Vilnius","name:left:cs":"Vilniusk\u00fd kraj","name:left":"Vilniaus apskritis","name:right:es":"Provincia de Utena","name:right:sr":"\u0423\u0442\u0435\u043d\u0441\u043a\u0438 \u043e\u043a\u0440\u0443\u0433","name:left:ka":"\u10d5\u10d8\u10da\u10dc\u10d8\u10e3\u10e1\u10d8\u10e1 \u10db\u10d0\u10d6\u10e0\u10d0","name:right:eu":"Utenako konderria","name:right:et":"Utena maakond","name:left:ko":"\ube4c\ub274\uc2a4 \uc8fc","name:right:it":"Contea di Utena","name:left:ro":"Jude\u021bul Vilnius","name:right:ru":"\u0423\u0442\u0435\u043d\u0441\u043a\u0438\u0439 \u0443\u0435\u0437\u0434","name:left:kw":"Konteth Vilnius","name:right:ro":"Jude\u021bul Utena","name:left:ru":"\u0412\u0438\u043b\u044c\u043d\u044e\u0441\u0441\u043a\u0438\u0439 \u0443\u0435\u0437\u0434","id:right":-966958,"name:right:eo":"Distrikto Utena","name:right:en":"Utena County","name:right:el":"\u0395\u03c0\u03b1\u03c1\u03c7\u03af\u03b1 \u039f\u03c5\u03c4\u03b5\u03bd\u03ac","name:left:uk":"\u0412\u0456\u043b\u044c\u043d\u044e\u0441\u044c\u043a\u0438\u0439 \u043f\u043e\u0432\u0456\u0442","kind":"region","name":"Vilniaus apskritis - Utenos apskritis","name:left:fa":"\u0634\u0647\u0631\u0633\u062a\u0627\u0646 \u0648\u06cc\u0644\u0646\u06cc\u0648\u0633","name:right:fa":"\u0634\u0647\u0631\u0633\u062a\u0627\u0646 \u0627\u0648\u062a\u0646\u0627","min_zoom":8.0,"name:right:be":"\u0423\u0446\u044f\u043d\u0441\u043a\u0456 \u043f\u0430\u0432\u0435\u0442","name:left:zh":"\u7dad\u723e\u7d10\u65af\u7e23","name:left:fr":"Apskritis de Vilnius","name:right:bs":"Okrug Utena","name:right:zh":"\u70cf\u7530\u7d0d\u7e23","name:right:no":"Utena fylke","name:right:ja":"\u30a6\u30c6\u30ca\u90e1","name:left:ur":"\u0648\u06cc\u0644\u0646\u06cc\u0648\u0633 \u06a9\u0627\u0624\u0646\u0679\u06cc","name:left:ja":"\u30f4\u30a3\u30ea\u30cb\u30e5\u30b9\u770c","name:right:sw":"Wilaya ya Utena","name:right:sv":"Utena l\u00e4n","name:left:nn":"Vilnius fylke","name:right:sh":"Okrug Utena","name:left:bg":"\u0412\u0438\u043b\u043d\u044e\u0441\u043a\u0438 \u043e\u043a\u0440\u044a\u0433","name:left:be":"\u0412\u0456\u043b\u044c\u043d\u044e\u0441\u043a\u0456 \u043f\u0430\u0432\u0435\u0442","name:left:no":"Vilnius fylke","name:left:fi":"Vilnan l\u00e4\u00e4ni","id":-977317,"name:right:fi":"Utenan l\u00e4\u00e4ni","name:left:eo":"Distrikto Vilno","name:left:en":"Vilnius County","name:left:el":"\u0395\u03c0\u03b1\u03c1\u03c7\u03af\u03b1 \u0392\u03af\u03bb\u03bd\u03b9\u03bf\u03c5\u03c2","name:right:ca":"Comtat d'Utena","kind_detail":"4","id:left":-977317,"name:left:es":"Provincia de Vilna","name:right:cs":"Utensk\u00fd kraj","name:right":"Utenos apskritis","name:left:eu":"Vilniusko konderria","name:left:et":"Vilniuse maakond","name:right:ka":"\u10e3\u10e2\u10d4\u10dc\u10d8\u10e1 \u10db\u10d0\u10d6\u10e0\u10d0","name:right:pt":"Condado de Utena","name:left:ar":"\u0645\u0642\u0627\u0637\u0639\u0629 \u0641\u064a\u0644\u0646\u064a\u0648\u0633","name:left:pl":"Okr\u0119g wile\u0144ski","name:left:id":"County Vilnius","name:right:ko":"\uc6b0\ud14c\ub098 \uc8fc","name:right:bg":"\u0423\u0442\u0435\u043d\u0441\u043a\u0438 \u043e\u043a\u0440\u044a\u0433","name:right:ga":"Contae Utena","name:right:kw":"Konteth Utena","name:left:it":"Contea di Vilnius","name:right:pl":"Okr\u0119g ucia\u0144ski","osm_relation":true,"name:right:sa":"\u0909\u0924\u0947\u0928\u092e\u0923\u094d\u0921\u0932\u092e\u094d","name:right:de":"Bezirk Utenen","name:left:de":"Bezirk Wilna"},"arcs":[4]},{"type":"LineString","properties":{"name:ro":"Jude\u021bul Vilnius","name:id":"County Vilnius","name:ka":"\u10d5\u10d8\u10da\u10dc\u10d8\u10e3\u10e1\u10d8\u10e1 \u10db\u10d0\u10d6\u10e0\u10d0","name:ko":"\ube4c\ub274\uc2a4 \uc8fc","name:ar":"\u0645\u0642\u0627\u0637\u0639\u0629 \u0641\u064a\u0644\u0646\u064a\u0648\u0633","name:cs":"Vilniusk\u00fd kraj","name:kw":"Konteth Vilnius","min_zoom":8.0,"name:it":"Contea di Vilnius","name:be":"\u0412\u0456\u043b\u044c\u043d\u044e\u0441\u043a\u0456 \u043f\u0430\u0432\u0435\u0442","name:ru":"\u0412\u0438\u043b\u044c\u043d\u044e\u0441\u0441\u043a\u0438\u0439 \u0443\u0435\u0437\u0434","name:pl":"Okr\u0119g wile\u0144ski","id":-977317,"name:ca":"Comtat de V\u00edlnius","name:fa":"\u0634\u0647\u0631\u0633\u062a\u0627\u0646 \u0648\u06cc\u0644\u0646\u06cc\u0648\u0633","sort_rank":256,"kind_detail":"4","name:sh":"\u0412\u0438\u043b\u045a\u0443\u0441 \u043e\u043a\u0440\u0443\u0433","kind":"region","name:de":"Bezirk Wilna","source":"openstreetmap.org","name:fr":"Apskritis de Vilnius","name:zh":"\u7dad\u723e\u7d10\u65af\u7e23","name:lv":"Vi\u013c\u0146as apri\u0146\u0137is","name:ja":"\u30f4\u30a3\u30ea\u30cb\u30e5\u30b9\u770c","name:nn":"Vilnius fylke","name:no":"Vilnius fylke","name:eo":"Distrikto Vilno","name:sa":"\u0935\u093f\u0932\u094d\u091e\u0941\u092e\u0923\u094d\u0921\u0932\u092e\u094d","name:ur":"\u0648\u06cc\u0644\u0646\u06cc\u0648\u0633 \u06a9\u0627\u0624\u0646\u0679\u06cc","name:uk":"\u0412\u0456\u043b\u044c\u043d\u044e\u0441\u044c\u043a\u0438\u0439 \u043f\u043e\u0432\u0456\u0442","name:sw":"Wilaya ya Vilnius","name:sv":"Vilnius l\u00e4n","name:bg":"\u0412\u0438\u043b\u043d\u044e\u0441\u043a\u0438 \u043e\u043a\u0440\u044a\u0433","name:hr":"Okrug Vilnius","name:sr":"\u0412\u0438\u043b\u045a\u0443\u0441\u043a\u0438 \u043e\u043a\u0440\u0443\u0433","osm_relation":true,"name:el":"\u0395\u03c0\u03b1\u03c1\u03c7\u03af\u03b1 \u0392\u03af\u03bb\u03bd\u03b9\u03bf\u03c5\u03c2","name:ga":"Contae Vilnius","name:en":"Vilnius County","name":"Vilniaus apskritis","name:fi":"Vilnan l\u00e4\u00e4ni","name:eu":"Vilniusko konderria","name:et":"Vilniuse maakond","name:es":"Provincia de Vilna"},"arcs":[5]}]},"roads":{"type":"GeometryCollection","geometries":[{"type":"LineString","properties":{"kind":"major_road","network":"lt:national","sort_rank":381,"kind_detail":"trunk","bus_network":"Panev\u0117\u017eys","source":"openstreetmap.org","min_zoom":8.0,"bus_shield_text":"3","shield_text":"9","name:ru":"\u0443\u043b\u0438\u0446\u0430 \u041a\u043b\u0430\u0439\u043f\u0435\u0434\u043e\u0441","ref":"A9","id":281610920},"arcs":[7]},{"type":"MultiLineString","properties":{"kind":"major_road","network":"lt:national","sort_rank":380,"kind_detail":"primary","is_bicycle_related":true,"bicycle_shield_text":"EV11","bicycle_network":"icn","source":"openstreetmap.org","min_zoom":8.0,"shield_text":"172","ref":"172"},"arcs":[[8],[9]]},{"type":"MultiLineString","properties":{"kind":"major_road","network":"lt:national","sort_rank":380,"kind_detail":"primary","source":"openstreetmap.org","min_zoom":8.0,"shield_text":"115","name:ru":"\u0443\u043b\u0438\u0446\u0430 \u0410\u043d\u0442\u0430\u043a\u0430\u043b\u043d\u0438\u043e","ref":"115"},"arcs":[[10],[11]]},{"type":"LineString","properties":{"kind":"major_road","network":"lt:national","sort_rank":380,"kind_detail":"primary","source":"openstreetmap.org","min_zoom":8.0,"shield_text":"121","name:ru":"\u0443\u043b\u0438\u0446\u0430 \u041c\u043e\u043a\u0438\u043a\u043b\u043e\u0441","ref":"121","id":258609146},"arcs":[12]},{"type":"LineString","properties":{"kind":"major_road","network":"lt:national","sort_rank":380,"kind_detail":"primary","source":"openstreetmap.org","min_zoom":8.0,"shield_text":"115","name:ru":"\u0443\u043b\u0438\u0446\u0430 \u0412\u0438\u043b\u044c\u043d\u044e\u0441","ref":"115"},"arcs":[13]},{"type":"LineString","properties":{"source":"openstreetmap.org","kind":"major_road","landuse_kind":"urban_area","sort_rank":380,"kind_detail":"primary","ref":"144","min_zoom":8.0},"arcs":[14]},{"type":"LineString","properties":{"kind":"major_road","network":"lt:national","sort_rank":380,"kind_detail":"primary","source":"openstreetmap.org","min_zoom":8.0,"landuse_kind":"urban_area","shield_text":"224","ref":"224"},"arcs":[15]},{"type":"MultiLineString","properties":{"bus_network":null,"sort_rank":380,"kind_detail":"primary","kind":"major_road","source":"openstreetmap.org","min_zoom":8.0,"bus_shield_text":"2","landuse_kind":"urban_area","ref":"144"},"arcs":[[16],[17],[18]]},{"type":"LineString","properties":{"bus_network":"Panev\u0117\u017eys","network":"lt:national","sort_rank":381,"landuse_kind":"urban_area","kind":"major_road","name:ru":"\u0443\u043b\u0438\u0446\u0430 \u0421\u043c\u0435\u043b\u0438\u043d\u0435\u0441","source":"openstreetmap.org","min_zoom":8.0,"bus_shield_text":"3","shield_text":"10","kind_detail":"trunk","ref":"A10"},"arcs":[19]},{"type":"LineString","properties":{"kind":"major_road","network":"lt:national","sort_rank":380,"kind_detail":"primary","source":"openstreetmap.org","min_zoom":8.0,"shield_text":"195","name:ru":"\u0443\u043b\u0438\u0446\u0430 \u0422\u0438\u043b\u0442\u043e","ref":"195"},"arcs":[20]},{"type":"LineString","properties":{"kind":"major_road","network":"lt:national","sort_rank":380,"kind_detail":"primary","source":"openstreetmap.org","min_zoom":8.0,"landuse_kind":"urban_area","shield_text":"143","name:ru":"\u0443\u043b\u0438\u0446\u0430 \u0420\u0443\u043a\u043b\u043e\u0441","ref":"143","id":11386143},"arcs":[21]},{"type":"LineString","properties":{"kind":"major_road","network":"lt:national","sort_rank":380,"kind_detail":"primary","source":"openstreetmap.org","min_zoom":8.0,"landuse_kind":"urban_area","shield_text":"121","name:ru":"\u0443\u043b\u0438\u0446\u0430 \u0412\u0438\u043b\u044c\u043d\u044e\u0441","ref":"121","id":279704831},"arcs":[22]},{"type":"MultiLineString","properties":{"kind":"major_road","network":"e-road","sort_rank":381,"kind_detail":"trunk","source":"openstreetmap.org","min_zoom":8.0,"shield_text":"262","name:ru":"\u0448\u043e\u0441\u0441\u0435 \u041a\u0430\u0443\u043d\u043e","ref":"A6"},"arcs":[[23],[24]]},{"type":"MultiLineString","properties":{"bus_network":"Panev\u0117\u017eys","network":"lt:national","sort_rank":381,"landuse_kind":"urban_area","kind":"major_road","source":"openstreetmap.org","min_zoom":8.0,"bus_shield_text":"16","shield_text":"9","kind_detail":"trunk","ref":"A9"},"arcs":[[25],[26]]},{"type":"LineString","properties":{"kind":"major_road","network":"lt:national","sort_rank":380,"kind_detail":"primary","is_bicycle_related":true,"bicycle_shield_text":null,"bicycle_network":"lcn","source":"openstreetmap.org","min_zoom":8.0,"official_name":"Jono Bili\u016bno gatv\u0117","landuse_kind":"park","shield_text":"120","name:ru":"\u0443\u043b\u0438\u0446\u0430 \u042f. \u0411\u0438\u043b\u044e\u043d\u043e","ref":"120","id":218410549},"arcs":[27]},{"type":"LineString","properties":{"kind":"major_road","sort_rank":380,"kind_detail":"primary","source":"openstreetmap.org","min_zoom":8.0,"landuse_kind":"urban_area","name:ru":"\u0443\u043b\u0438\u0446\u0430 \u0412\u0435\u043d\u0441\u043b\u0430\u0432\u0438\u0448\u043a\u0438\u043e","id":126376282},"arcs":[28]},{"type":"MultiLineString","properties":{"kind":"major_road","network":"lt:national","sort_rank":380,"kind_detail":"primary","official_name":"Antano Vienuolio gatv\u0117","source":"openstreetmap.org","min_zoom":8.0,"landuse_kind":"park","shield_text":"120","name:ru":"\u0443\u043b\u0438\u0446\u0430 \u0410. \u0412\u0435\u043d\u0443\u043e\u043b\u0438\u043e","ref":"120"},"arcs":[[29],[30]]},{"type":"LineString","properties":{"kind":"major_road","network":"lt:national","sort_rank":381,"kind_detail":"trunk","bus_network":"Panev\u0117\u017eys","source":"openstreetmap.org","min_zoom":8.0,"bus_shield_text":"16","shield_text":"2","landuse_kind":"urban_area","ref":"A2;A8","id":201643670},"arcs":[31]},{"type":"MultiLineString","properties":{"sort_rank":380,"kind_detail":"primary","min_zoom":8.0,"kind":"major_road","source":"openstreetmap.org"},"arcs":[[32],[33]]},{"type":"LineString","properties":{"kind":"major_road","network":"lt:national","sort_rank":380,"kind_detail":"primary","source":"openstreetmap.org","min_zoom":8.0,"landuse_kind":"urban_area","shield_text":"222","ref":"222"},"arcs":[34]},{"type":"MultiLineString","properties":{"kind":"highway","network":"lt:national","sort_rank":383,"kind_detail":"motorway","source":"openstreetmap.org","min_zoom":8.0,"all_networks":["lt:national","e-road"],"shield_text":"2","name:ru":"\u0443\u043b\u0438\u0446\u0430 \u0421\u043e\u0434\u0435\u043b\u0438\u0448\u043a\u044e","ref":"A2","all_shield_texts":["2","272"]},"arcs":[[35],[36]]},{"type":"MultiLineString","properties":{"kind":"major_road","network":"lt:national","sort_rank":380,"kind_detail":"primary","source":"openstreetmap.org","min_zoom":8.0,"shield_text":"224","ref":"224"},"arcs":[[37],[38]]},{"type":"LineString","properties":{"kind":"major_road","network":"lt:national","sort_rank":380,"kind_detail":"primary","official_name":"Antano Vienuolio gatv\u0117","source":"openstreetmap.org","min_zoom":8.0,"shield_text":"120","ref":"120","id":240940891},"arcs":[39]},{"type":"LineString","properties":{"source":"openstreetmap.org","kind":"major_road","sort_rank":380,"kind_detail":"primary","ref":"195","min_zoom":8.0,"id":238190284},"arcs":[40]},{"type":"LineString","properties":{"bus_network":null,"network":"lt:national","sort_rank":381,"kind_detail":"trunk","kind":"major_road","source":"openstreetmap.org","min_zoom":8.0,"bus_shield_text":"2","shield_text":"6","landuse_kind":"urban_area","ref":"A6"},"arcs":[41]},{"type":"MultiLineString","properties":{"kind":"major_road","network":"lt:national","sort_rank":380,"kind_detail":"primary","source":"openstreetmap.org","min_zoom":8.0,"shield_text":"121","ref":"121"},"arcs":[[42],[43],[44]]},{"type":"LineString","properties":{"kind":"major_road","network":"lt:national","sort_rank":381,"kind_detail":"trunk","bus_network":"Panev\u0117\u017eys","source":"openstreetmap.org","min_zoom":8.0,"bus_shield_text":"3","shield_text":"9","name:ru":"\u0443\u043b\u0438\u0446\u0430 \u0412\u0438\u043b\u044c\u043d\u044e\u0441","landuse_kind":"urban_area","ref":"A9","id":36935995},"arcs":[45]},{"type":"LineString","properties":{"kind":"major_road","network":"lt:national","sort_rank":381,"kind_detail":"trunk","source":"openstreetmap.org","min_zoom":8.0,"shield_text":"9","name:ru":"\u0443\u043b\u0438\u0446\u0430 \u041a\u043b\u0430\u0439\u043f\u0435\u0434\u043e\u0441","ref":"A9"},"arcs":[46]},{"type":"MultiLineString","properties":{"kind":"major_road","network":"lt:national","sort_rank":380,"kind_detail":"primary","source":"openstreetmap.org","min_zoom":8.0,"landuse_kind":"urban_area","shield_text":"195","ref":"195"},"arcs":[[47],[48],[49]]},{"type":"LineString","properties":{"kind":"major_road","network":"lt:national","sort_rank":380,"kind_detail":"primary","source":"openstreetmap.org","min_zoom":8.0,"landuse_kind":"urban_area","shield_text":"174","ref":"174","id":39594873},"arcs":[50]},{"type":"LineString","properties":{"kind":"major_road","network":"lt:national","sort_rank":380,"kind_detail":"primary","official_name":"Petro Cvirkos gatv\u0117","source":"openstreetmap.org","min_zoom":8.0,"shield_text":"120","ref":"120"},"arcs":[51]},{"type":"LineString","properties":{"kind":"major_road","network":"lt:national","sort_rank":381,"kind_detail":"trunk","source":"openstreetmap.org","min_zoom":8.0,"shield_text":"2","ref":"A8","id":74201061},"arcs":[52]},{"type":"LineString","properties":{"kind":"major_road","network":"lt:national","sort_rank":380,"kind_detail":"primary","official_name":"Antano Vienuolio gatv\u0117","source":"openstreetmap.org","min_zoom":8.0,"shield_text":"120","name:ru":"\u0443\u043b\u0438\u0446\u0430 \u0410. \u0412\u0435\u043d\u0443\u043e\u043b\u0438\u043e","ref":"120","id":434756250},"arcs":[53]},{"type":"MultiLineString","properties":{"kind":"major_road","network":"lt:national","sort_rank":380,"kind_detail":"primary","source":"openstreetmap.org","min_zoom":8.0,"landuse_kind":"urban_area","shield_text":"144","ref":"144"},"arcs":[[54],[55]]},{"type":"LineString","properties":{"kind":"major_road","network":"lt:national","sort_rank":380,"kind_detail":"primary","source":"openstreetmap.org","min_zoom":8.0,"shield_text":"121","name:ru":"\u0443\u043b\u0438\u0446\u0430 \u0414\u0430\u0440\u0438\u0430\u0443\u0441 \u0438 \u0413\u0438\u0440\u0435\u043d\u043e","ref":"121","id":257922622},"arcs":[56]},{"type":"MultiLineString","properties":{"kind":"major_road","network":"lt:national","sort_rank":380,"kind_detail":"primary","source":"openstreetmap.org","min_zoom":8.0,"landuse_kind":"urban_area","shield_text":"6","name:ru":"\u0443\u043b\u0438\u0446\u0430 \u0412\u0438\u0442\u0430\u0443\u0442\u043e","ref":"A6"},"arcs":[[57],[58]]},{"type":"MultiLineString","properties":{"kind":"major_road","network":"lt:national","sort_rank":380,"kind_detail":"primary","source":"openstreetmap.org","min_zoom":8.0,"shield_text":"174","ref":"174"},"arcs":[[59],[60],[61],[62]]},{"type":"MultiLineString","properties":{"kind":"major_road","network":"lt:national","sort_rank":380,"kind_detail":"primary","source":"openstreetmap.org","min_zoom":8.0,"shield_text":"175","ref":"175"},"arcs":[[63],[64]]},{"type":"LineString","properties":{"kind":"major_road","network":"lt:national","sort_rank":380,"kind_detail":"primary","source":"openstreetmap.org","min_zoom":8.0,"shield_text":"143","name:ru":"\u0443\u043b\u0438\u0446\u0430 \u041f\u0430\u0443\u043f\u0438\u043e","ref":"143","id":202944186},"arcs":[65]},{"type":"LineString","properties":{"kind":"major_road","network":"lt:national","sort_rank":380,"kind_detail":"primary","source":"openstreetmap.org","min_zoom":8.0,"shield_text":"6","name:ru":"\u0443\u043b\u0438\u0446\u0430 \u041a\u0430\u0443\u043d\u043e","ref":"A6"},"arcs":[66]},{"type":"MultiLineString","properties":{"source":"openstreetmap.org","kind":"major_road","sort_rank":380,"kind_detail":"primary","ref":"144","min_zoom":8.0},"arcs":[[67],[68],[69],[70],[71],[72],[73]]},{"type":"LineString","properties":{"kind":"major_road","sort_rank":381,"kind_detail":"trunk","bus_network":"Panev\u0117\u017eys","official_name":"Jono Basanavi\u010diaus gatv\u0117","source":"openstreetmap.org","min_zoom":8.0,"bus_shield_text":"16","landuse_kind":"urban_area","id":201643666},"arcs":[74]},{"type":"LineString","properties":{"kind":"major_road","network":"lt:national","sort_rank":380,"kind_detail":"primary","official_name":"Jono Bili\u016bno gatv\u0117","source":"openstreetmap.org","min_zoom":8.0,"shield_text":"120","ref":"120","id":369545528},"arcs":[75]},{"type":"MultiLineString","properties":{"kind":"major_road","network":"lt:national","sort_rank":380,"kind_detail":"primary","source":"openstreetmap.org","min_zoom":8.0,"shield_text":"115","ref":"115"},"arcs":[[76],[77],[78],[79]]},{"type":"MultiLineString","properties":{"kind":"major_road","network":"lt:national","sort_rank":381,"kind_detail":"trunk","source":"openstreetmap.org","min_zoom":8.0,"shield_text":"8","ref":"A8"},"arcs":[[80],[81],[82]]},{"type":"MultiLineString","properties":{"kind":"major_road","network":"lt:national","sort_rank":380,"kind_detail":"primary","is_bicycle_related":true,"official_name":"Jono Bili\u016bno gatv\u0117","bicycle_network":"lcn","source":"openstreetmap.org","min_zoom":8.0,"bicycle_shield_text":null,"landuse_kind":"park","shield_text":"120","ref":"120"},"arcs":[[83],[84]]},{"type":"LineString","properties":{"kind":"major_road","network":"lt:national","sort_rank":381,"kind_detail":"trunk","source":"openstreetmap.org","min_zoom":8.0,"shield_text":"8","ref":"A2;A8"},"arcs":[85]},{"type":"LineString","properties":{"kind":"major_road","network":"lt:national","sort_rank":381,"kind_detail":"trunk","bus_network":"Panev\u0117\u017eys","official_name":"Jono Basanavi\u010diaus gatv\u0117","source":"openstreetmap.org","min_zoom":8.0,"bus_shield_text":"3","shield_text":"10","name:ru":"\u0443\u043b\u0438\u0446\u0430 \u042f. \u0411\u0430\u0441\u0430\u043d\u0430\u0432\u0438\u0447\u0438\u0430\u0443\u0441","landuse_kind":"urban_area","ref":"A10","id":88199466},"arcs":[86]},{"type":"LineString","properties":{"kind":"major_road","network":"lt:national","sort_rank":380,"kind_detail":"primary","is_bicycle_related":true,"bicycle_shield_text":null,"bicycle_network":"lcn","source":"openstreetmap.org","min_zoom":8.0,"official_name":"Jono Bili\u016bno gatv\u0117","shield_text":"120","ref":"120","id":219139651},"arcs":[87]},{"type":"MultiLineString","properties":{"kind":"major_road","network":"lt:national","sort_rank":381,"kind_detail":"trunk","source":"openstreetmap.org","min_zoom":8.0,"shield_text":"6","ref":"A6"},"arcs":[[88],[89],[90],[91],[92],[93],[94],[95],[96],[97],[98],[99],[100],[101],[102]]},{"type":"MultiLineString","properties":{"kind":"major_road","network":"e-road","sort_rank":381,"kind_detail":"trunk","source":"openstreetmap.org","min_zoom":8.0,"shield_text":"262","ref":"A6"},"arcs":[[103],[104]]},{"type":"LineString","properties":{"kind":"major_road","network":"lt:national","sort_rank":380,"kind_detail":"primary","source":"openstreetmap.org","min_zoom":8.0,"landuse_kind":"park","shield_text":"175","ref":"175","id":36911086},"arcs":[105]},{"type":"LineString","properties":{"kind":"major_road","network":"lt:national","sort_rank":380,"kind_detail":"primary","source":"openstreetmap.org","min_zoom":8.0,"shield_text":"224","name:ru":"\u0443\u043b\u0438\u0446\u0430 \u0414\u0432\u0430\u0440\u043e","ref":"224","id":42083580},"arcs":[106]},{"type":"LineString","properties":{"kind":"major_road","network":"lt:national","sort_rank":380,"kind_detail":"primary","source":"openstreetmap.org","min_zoom":8.0,"landuse_kind":"park","shield_text":"121","ref":"121","id":127907377},"arcs":[107]},{"type":"LineString","properties":{"kind":"major_road","network":"lt:national","sort_rank":380,"kind_detail":"primary","source":"openstreetmap.org","min_zoom":8.0,"shield_text":"145","name:ru":"\u0443\u043b\u0438\u0446\u0430 \u0412\u0438\u0442\u0430\u0443\u0442\u043e","ref":"145","id":260234144},"arcs":[108]},{"type":"MultiLineString","properties":{"kind":"major_road","network":"lt:national","sort_rank":380,"kind_detail":"primary","source":"openstreetmap.org","min_zoom":8.0,"shield_text":"144","ref":"144"},"arcs":[[109],[110],[111],[112]]},{"type":"MultiLineString","properties":{"kind":"major_road","network":"lt:national","sort_rank":381,"landuse_kind":"urban_area","source":"openstreetmap.org","min_zoom":8.0,"kind_detail":"trunk","shield_text":"10","ref":"A10"},"arcs":[[113],[114]]},{"type":"LineString","properties":{"bus_network":null,"network":"lt:national","sort_rank":380,"landuse_kind":"urban_area","kind":"major_road","name:ru":"\u0443\u043b\u0438\u0446\u0430 \u0416\u0435\u0439\u043c\u044e","source":"openstreetmap.org","min_zoom":8.0,"bus_shield_text":"2","shield_text":"144","kind_detail":"primary","ref":"144"},"arcs":[115]},{"type":"LineString","properties":{"kind":"major_road","network":"lt:national","sort_rank":380,"kind_detail":"primary","source":"openstreetmap.org","min_zoom":8.0,"shield_text":"222","ref":"222"},"arcs":[116]},{"type":"MultiLineString","properties":{"kind":"major_road","network":"lt:national","sort_rank":380,"kind_detail":"primary","source":"openstreetmap.org","min_zoom":8.0,"landuse_kind":"urban_area","shield_text":"6","ref":"A6"},"arcs":[[117],[118]]},{"type":"MultiLineString","properties":{"kind":"major_road","network":"lt:national","sort_rank":380,"kind_detail":"primary","source":"openstreetmap.org","min_zoom":8.0,"shield_text":"232","ref":"232"},"arcs":[[119],[120]]},{"type":"LineString","properties":{"kind":"major_road","network":"lt:national","sort_rank":380,"kind_detail":"primary","source":"openstreetmap.org","min_zoom":8.0,"shield_text":"116","name:ru":"\u0443\u043b\u0438\u0446\u0430 \u041f\u043b\u0435\u043d\u0442\u043e","ref":"116"},"arcs":[121]},{"type":"MultiLineString","properties":{"bus_network":null,"network":"lt:national","sort_rank":380,"landuse_kind":"urban_area","kind":"major_road","source":"openstreetmap.org","min_zoom":8.0,"bus_shield_text":"2","shield_text":"144","kind_detail":"primary","ref":"144"},"arcs":[[122],[123]]},{"type":"LineString","properties":{"kind":"major_road","sort_rank":381,"kind_detail":"trunk","bus_network":"Panev\u0117\u017eys","official_name":"Jono Basanavi\u010diaus gatv\u0117","source":"openstreetmap.org","min_zoom":8.0,"bus_shield_text":"16","name:ru":"\u0443\u043b\u0438\u0446\u0430 \u042f. \u0411\u0430\u0441\u0430\u043d\u0430\u0432\u0438\u0447\u0438\u0430\u0443\u0441","landuse_kind":"urban_area","id":10553779},"arcs":[124]},{"type":"MultiLineString","properties":{"kind":"major_road","network":"lt:national","sort_rank":380,"kind_detail":"primary","source":"openstreetmap.org","min_zoom":8.0,"shield_text":"120","ref":"120"},"arcs":[[125],[126],[127]]},{"type":"MultiLineString","properties":{"kind":"highway","network":"lt:national","sort_rank":383,"kind_detail":"motorway","source":"openstreetmap.org","min_zoom":8.0,"all_networks":["lt:national","e-road"],"shield_text":"2","ref":"A2","all_shield_texts":["2","272"]},"arcs":[[128],[129],[130],[131],[132],[133],[134],[135],[136]]},{"type":"LineString","properties":{"kind":"major_road","network":"lt:national","sort_rank":380,"kind_detail":"primary","source":"openstreetmap.org","min_zoom":8.0,"landuse_kind":"park","shield_text":"119","ref":"119"},"arcs":[137]},{"type":"LineString","properties":{"kind":"major_road","sort_rank":380,"kind_detail":"primary","source":"openstreetmap.org","min_zoom":8.0,"landuse_kind":"urban_area","name:ru":"\u0443\u043b\u0438\u0446\u0430 \u0415\u043b\u0435\u043a\u0442\u0440\u043e\u043d\u0438\u043a\u043e\u0441","id":38231088},"arcs":[138]},{"type":"MultiLineString","properties":{"kind":"major_road","network":"lt:national","sort_rank":381,"kind_detail":"trunk","source":"openstreetmap.org","min_zoom":8.0,"shield_text":"2","ref":"A2"},"arcs":[[139],[140],[141]]},{"type":"LineString","properties":{"kind":"major_road","network":"lt:national","sort_rank":380,"kind_detail":"primary","source":"openstreetmap.org","min_zoom":8.0,"landuse_kind":"urban_area","shield_text":"115","ref":"115"},"arcs":[142]},{"type":"LineString","properties":{"kind":"major_road","network":"lt:national","sort_rank":381,"kind_detail":"trunk","bus_network":null,"source":"openstreetmap.org","min_zoom":8.0,"bus_shield_text":"2","shield_text":"6","id":307404359},"arcs":[143]},{"type":"LineString","properties":{"kind":"major_road","network":"lt:national","sort_rank":380,"kind_detail":"primary","source":"openstreetmap.org","min_zoom":8.0,"shield_text":"195","name:ru":"\u0443\u043b\u0438\u0446\u0430 \u041b\u0430\u0438\u0441\u0432\u0435\u0441","ref":"195"},"arcs":[144]},{"type":"LineString","properties":{"kind":"major_road","network":"lt:national","sort_rank":381,"kind_detail":"trunk","source":"openstreetmap.org","min_zoom":8.0,"shield_text":"2","name:ru":"\u0443\u043b\u0438\u0446\u0430 \u0420\u0430\u043c\u0438\u0433\u0430\u043b\u043e\u0441","ref":"A2;A8","id":201643662},"arcs":[145]},{"type":"LineString","properties":{"kind":"major_road","network":"lt:national","sort_rank":380,"kind_detail":"primary","official_name":"Mikalojaus Dauk\u0161os gatv\u0117","source":"openstreetmap.org","min_zoom":8.0,"landuse_kind":"urban_area","shield_text":"195","ref":"195","id":90072127},"arcs":[146]},{"type":"MultiLineString","properties":{"kind":"major_road","network":"lt:national","sort_rank":381,"kind_detail":"trunk","source":"openstreetmap.org","min_zoom":8.0,"shield_text":"6","name:ru":"\u0448\u043e\u0441\u0441\u0435 \u041a\u0430\u0443\u043d\u043e","ref":"A6"},"arcs":[[147],[148],[149],[150],[151],[152],[153],[154],[155]]},{"type":"MultiLineString","properties":{"kind":"major_road","network":"lt:national","sort_rank":380,"kind_detail":"primary","source":"openstreetmap.org","min_zoom":8.0,"shield_text":"122","ref":"122"},"arcs":[[156],[157]]},{"type":"MultiLineString","properties":{"kind":"major_road","network":"lt:national","sort_rank":381,"kind_detail":"trunk","source":"openstreetmap.org","min_zoom":8.0,"shield_text":"6","name:ru":"\u0443\u043b\u0438\u0446\u0430 \u041f\u043b\u0435\u043d\u0442\u043e","ref":"A6"},"arcs":[[158],[159]]},{"type":"LineString","properties":{"kind":"major_road","sort_rank":380,"kind_detail":"primary","source":"openstreetmap.org","min_zoom":8.0,"landuse_kind":"urban_area","name:ru":"\u0443\u043b\u0438\u0446\u0430 \u0422\u0438\u043d\u043a\u043b\u044e","id":246308874},"arcs":[160]},{"type":"LineString","properties":{"kind":"major_road","network":"lt:national","sort_rank":380,"kind_detail":"primary","source":"openstreetmap.org","min_zoom":8.0,"landuse_kind":"urban_area","shield_text":"122","ref":"122"},"arcs":[161]},{"type":"LineString","properties":{"kind":"major_road","network":"e-road","sort_rank":381,"kind_detail":"trunk","source":"openstreetmap.org","min_zoom":8.0,"shield_text":"67","ref":"A17"},"arcs":[162]},{"type":"LineString","properties":{"kind":"highway","network":"lt:national","sort_rank":383,"kind_detail":"motorway","source":"openstreetmap.org","min_zoom":8.0,"all_networks":["lt:national","e-road"],"landuse_kind":"urban_area","shield_text":"2","ref":"A2","id":35608909,"all_shield_texts":["2","272"]},"arcs":[163]},{"type":"LineString","properties":{"kind":"major_road","network":"lt:national","sort_rank":380,"kind_detail":"primary","official_name":"Jono Basanavi\u010diaus gatv\u0117","source":"openstreetmap.org","min_zoom":8.0,"shield_text":"229","ref":"229","id":94646778},"arcs":[164]},{"type":"LineString","properties":{"kind":"highway","network":"e-road","sort_rank":383,"kind_detail":"motorway","source":"openstreetmap.org","min_zoom":8.0,"all_networks":["e-road"],"shield_text":"272","ref":"A2","id":300953493,"all_shield_texts":["272"]},"arcs":[165]},{"type":"LineString","properties":{"source":"openstreetmap.org","kind":"major_road","sort_rank":380,"kind_detail":"primary","ref":"231","min_zoom":8.0},"arcs":[166]},{"type":"LineString","properties":{"bus_network":null,"network":"lt:national","sort_rank":380,"kind_detail":"primary","kind":"major_road","source":"openstreetmap.org","min_zoom":8.0,"bus_shield_text":"4","shield_text":"6","landuse_kind":"urban_area","ref":"1521"},"arcs":[167]},{"type":"MultiLineString","properties":{"kind":"major_road","network":"lt:national","sort_rank":380,"kind_detail":"primary","source":"openstreetmap.org","min_zoom":8.0,"shield_text":"6","ref":"A6"},"arcs":[[168],[169]]},{"type":"LineString","properties":{"kind":"major_road","network":"lt:national","sort_rank":380,"kind_detail":"primary","official_name":"Jono Bili\u016bno gatv\u0117","source":"openstreetmap.org","min_zoom":8.0,"landuse_kind":"park","shield_text":"120","ref":"120"},"arcs":[170]},{"type":"MultiLineString","properties":{"kind":"major_road","network":"lt:national","sort_rank":380,"kind_detail":"primary","source":"openstreetmap.org","min_zoom":8.0,"shield_text":"116","ref":"116"},"arcs":[[171],[172],[173],[174],[175],[176]]},{"type":"LineString","properties":{"source":"openstreetmap.org","kind":"major_road","kind_detail":"primary","sort_rank":380,"name:ru":"\u0443\u043b\u0438\u0446\u0430 \u0421\u0442\u043e\u0442\u0435\u0441","min_zoom":8.0,"id":34602835},"arcs":[177]},{"type":"MultiLineString","properties":{"kind":"major_road","network":"lt:national","sort_rank":380,"kind_detail":"primary","source":"openstreetmap.org","min_zoom":8.0,"shield_text":"145","ref":"145"},"arcs":[[178],[179],[180]]},{"type":"LineString","properties":{"source":"openstreetmap.org","kind":"major_road","kind_detail":"trunk","sort_rank":381,"landuse_kind":"urban_area","min_zoom":8.0},"arcs":[181]},{"type":"MultiLineString","properties":{"kind":"major_road","network":"lt:national","sort_rank":380,"kind_detail":"primary","source":"openstreetmap.org","min_zoom":8.0,"shield_text":"119","ref":"119"},"arcs":[[182],[183],[184]]},{"type":"LineString","properties":{"kind":"major_road","network":"lt:national","sort_rank":381,"kind_detail":"trunk","source":"openstreetmap.org","min_zoom":8.0,"shield_text":"2","ref":"A17","id":300953495},"arcs":[185]},{"type":"LineString","properties":{"kind":"major_road","network":"lt:national","sort_rank":380,"kind_detail":"primary","source":"openstreetmap.org","min_zoom":8.0,"shield_text":"231","ref":"231"},"arcs":[186]},{"type":"LineString","properties":{"kind":"major_road","network":"e-road","sort_rank":381,"landuse_kind":"urban_area","source":"openstreetmap.org","min_zoom":8.0,"kind_detail":"trunk","shield_text":"262","ref":"A6"},"arcs":[187]},{"type":"LineString","properties":{"kind":"major_road","sort_rank":380,"kind_detail":"primary","bus_network":null,"source":"openstreetmap.org","min_zoom":8.0,"bus_shield_text":"3","landuse_kind":"urban_area","ref":"144","id":438893303},"arcs":[188]},{"type":"MultiLineString","properties":{"kind":"major_road","network":"e-road","sort_rank":380,"kind_detail":"primary","source":"openstreetmap.org","min_zoom":8.0,"shield_text":"262","ref":"A20"},"arcs":[[189],[190]]},{"type":"LineString","properties":{"kind":"major_road","network":"e-road","sort_rank":381,"kind_detail":"trunk","bus_network":null,"source":"openstreetmap.org","min_zoom":8.0,"bus_shield_text":"2","shield_text":"262","ref":"A6","id":463625995},"arcs":[191]},{"type":"LineString","properties":{"bus_network":null,"network":"lt:national","sort_rank":381,"kind_detail":"trunk","kind":"major_road","source":"openstreetmap.org","min_zoom":8.0,"bus_shield_text":"2","shield_text":"6","ref":"A6"},"arcs":[192]},{"type":"LineString","properties":{"kind":"major_road","network":"lt:national","sort_rank":380,"kind_detail":"primary","source":"openstreetmap.org","min_zoom":8.0,"landuse_kind":"urban_area","shield_text":"232","ref":"232"},"arcs":[193]},{"type":"MultiLineString","properties":{"kind":"major_road","network":"lt:national","sort_rank":381,"kind_detail":"trunk","source":"openstreetmap.org","min_zoom":8.0,"shield_text":"17","ref":"A17"},"arcs":[[194],[195],[196],[197]]},{"type":"MultiLineString","properties":{"bus_network":null,"network":"lt:national","sort_rank":381,"landuse_kind":"urban_area","kind":"major_road","source":"openstreetmap.org","min_zoom":8.0,"bus_shield_text":"4","shield_text":"6","kind_detail":"trunk","ref":"A6"},"arcs":[[198],[199]]},{"type":"LineString","properties":{"kind":"major_road","network":"lt:national","sort_rank":380,"kind_detail":"primary","source":"openstreetmap.org","min_zoom":8.0,"landuse_kind":"urban_area","shield_text":"143","ref":"143"},"arcs":[200]},{"type":"LineString","properties":{"kind":"major_road","network":"lt:national","sort_rank":381,"kind_detail":"trunk","bus_network":"Panev\u0117\u017eys","source":"openstreetmap.org","min_zoom":8.0,"bus_shield_text":"16","shield_text":"2","name:ru":"\u0443\u043b\u0438\u0446\u0430 \u0420\u0430\u043c\u0438\u0433\u0430\u043b\u043e\u0441","ref":"A2;A8","id":10553756},"arcs":[201]},{"type":"MultiLineString","properties":{"bus_network":"Panev\u0117\u017eys","network":"lt:national","sort_rank":381,"landuse_kind":"urban_area","kind":"major_road","source":"openstreetmap.org","min_zoom":8.0,"bus_shield_text":"3","shield_text":"9","kind_detail":"trunk","ref":"A9"},"arcs":[[202],[203],[204]]},{"type":"MultiLineString","properties":{"kind":"major_road","network":"lt:national","sort_rank":381,"landuse_kind":"urban_area","source":"openstreetmap.org","min_zoom":8.0,"kind_detail":"trunk","shield_text":"6","ref":"A6"},"arcs":[[205],[206],[207],[208],[209]]},{"type":"MultiLineString","properties":{"kind":"major_road","network":"lt:national","sort_rank":380,"kind_detail":"primary","source":"openstreetmap.org","min_zoom":8.0,"landuse_kind":"park","shield_text":"120","ref":"120"},"arcs":[[210],[211]]},{"type":"LineString","properties":{"kind":"major_road","network":"lt:national","sort_rank":380,"kind_detail":"primary","source":"openstreetmap.org","min_zoom":8.0,"shield_text":"118","ref":"118"},"arcs":[212]},{"type":"MultiLineString","properties":{"kind":"major_road","network":"lt:national","sort_rank":380,"kind_detail":"primary","source":"openstreetmap.org","min_zoom":8.0,"landuse_kind":"urban_area","shield_text":"229","ref":"229"},"arcs":[[213],[214],[215],[216]]},{"type":"LineString","properties":{"bus_network":"Panev\u0117\u017eys","sort_rank":381,"landuse_kind":"urban_area","kind":"major_road","official_name":"Jono Basanavi\u010diaus gatv\u0117","source":"openstreetmap.org","min_zoom":8.0,"bus_shield_text":"7","name:ru":"\u0443\u043b\u0438\u0446\u0430 \u042f. \u0411\u0430\u0441\u0430\u043d\u0430\u0432\u0438\u0447\u0438\u0430\u0443\u0441","kind_detail":"trunk"},"arcs":[217]},{"type":"LineString","properties":{"kind":"major_road","sort_rank":381,"kind_detail":"trunk","source":"openstreetmap.org","min_zoom":8.0,"landuse_kind":"urban_area","name:ru":"\u0443\u043b\u0438\u0446\u0430 \u0412\u0438\u043b\u044c\u043d\u044e\u0441","id":314537229},"arcs":[218]},{"type":"LineString","properties":{"kind":"major_road","sort_rank":380,"kind_detail":"primary","bus_network":null,"source":"openstreetmap.org","min_zoom":8.0,"bus_shield_text":"4","landuse_kind":"urban_area","ref":"1521","id":310841698},"arcs":[219]},{"type":"LineString","properties":{"kind":"major_road","sort_rank":380,"landuse_kind":"urban_area","source":"openstreetmap.org","min_zoom":8.0,"kind_detail":"primary","ref":"195","id":238190284},"arcs":[220]},{"type":"LineString","properties":{"bus_network":null,"network":"e-road","sort_rank":381,"landuse_kind":"urban_area","kind":"major_road","source":"openstreetmap.org","min_zoom":8.0,"bus_shield_text":"4","shield_text":"262","kind_detail":"trunk"},"arcs":[221]},{"type":"MultiLineString","properties":{"kind":"major_road","network":"lt:national","sort_rank":380,"kind_detail":"primary","official_name":"Antano Vienuolio gatv\u0117","source":"openstreetmap.org","min_zoom":8.0,"landuse_kind":"park","shield_text":"120","ref":"120"},"arcs":[[222],[223]]},{"type":"LineString","properties":{"kind":"major_road","sort_rank":380,"kind_detail":"primary","bus_network":null,"source":"openstreetmap.org","min_zoom":8.0,"bus_shield_text":"4","landuse_kind":"urban_area","ref":"144","id":310841701},"arcs":[224]},{"type":"MultiLineString","properties":{"kind":"major_road","network":"e-road","sort_rank":381,"kind_detail":"trunk","source":"openstreetmap.org","min_zoom":8.0,"shield_text":"262","ref":"A20"},"arcs":[[225],[226],[227],[228],[229],[230],[231],[232],[233],[234]]},{"type":"MultiLineString","properties":{"source":"openstreetmap.org","kind":"major_road","landuse_kind":"urban_area","sort_rank":380,"kind_detail":"primary","min_zoom":8.0},"arcs":[[235],[236],[237],[238]]},{"type":"LineString","properties":{"kind":"major_road","network":"lt:national","sort_rank":380,"kind_detail":"primary","source":"openstreetmap.org","min_zoom":8.0,"shield_text":"6","name:ru":"\u0443\u043b\u0438\u0446\u0430 \u0412\u0438\u0442\u0430\u0443\u0442\u043e","ref":"A6","id":158514774},"arcs":[239]},{"type":"MultiLineString","properties":{"kind":"major_road","network":"lt:national","sort_rank":381,"kind_detail":"trunk","source":"openstreetmap.org","min_zoom":8.0,"shield_text":"9","ref":"A9"},"arcs":[[240],[241],[242]]},{"type":"MultiLineString","properties":{"kind":"major_road","network":"lt:national","sort_rank":380,"kind_detail":"primary","source":"openstreetmap.org","min_zoom":8.0,"landuse_kind":"urban_area","shield_text":"121","ref":"121"},"arcs":[[243],[244]]},{"type":"MultiLineString","properties":{"bus_network":"Panev\u0117\u017eys","network":"lt:national","sort_rank":381,"kind_detail":"trunk","kind":"major_road","source":"openstreetmap.org","min_zoom":8.0,"bus_shield_text":"3","shield_text":"9","ref":"A9"},"arcs":[[245],[246]]},{"type":"MultiLineString","properties":{"kind":"major_road","network":"lt:national","sort_rank":381,"kind_detail":"trunk","source":"openstreetmap.org","min_zoom":8.0,"shield_text":"2","ref":"A2;A8"},"arcs":[[247],[248]]},{"type":"LineString","properties":{"bus_network":"Panev\u0117\u017eys","network":"lt:national","sort_rank":380,"kind_detail":"primary","kind":"major_road","source":"openstreetmap.org","min_zoom":8.0,"bus_shield_text":"7","shield_text":"121","landuse_kind":"urban_area","ref":"121"},"arcs":[249]},{"type":"MultiLineString","properties":{"kind":"major_road","network":"lt:national","sort_rank":380,"kind_detail":"primary","source":"openstreetmap.org","min_zoom":8.0,"shield_text":"229","ref":"229"},"arcs":[[250],[251],[252],[253]]},{"type":"MultiLineString","properties":{"bus_network":"Panev\u0117\u017eys","network":"lt:national","sort_rank":381,"landuse_kind":"urban_area","kind":"major_road","name:ru":"\u0443\u043b\u0438\u0446\u0430 \u041a\u043b\u0430\u0439\u043f\u0435\u0434\u043e\u0441","source":"openstreetmap.org","min_zoom":8.0,"bus_shield_text":"3","shield_text":"9","kind_detail":"trunk","ref":"A9"},"arcs":[[254],[255]]},{"type":"MultiLineString","properties":{"kind":"major_road","network":"lt:national","sort_rank":380,"kind_detail":"primary","official_name":"Jono Basanavi\u010diaus gatv\u0117","source":"openstreetmap.org","min_zoom":8.0,"landuse_kind":"urban_area","shield_text":"229","ref":"229"},"arcs":[[256],[257],[258]]},{"type":"MultiLineString","properties":{"kind":"major_road","network":"lt:national","sort_rank":380,"kind_detail":"primary","source":"openstreetmap.org","min_zoom":8.0,"landuse_kind":"military","shield_text":"143","ref":"143"},"arcs":[[259],[260]]},{"type":"LineString","properties":{"kind":"major_road","network":"lt:national","sort_rank":381,"kind_detail":"trunk","bus_network":"Panev\u0117\u017eys","source":"openstreetmap.org","min_zoom":8.0,"bus_shield_text":"16","shield_text":"2","ref":"A2;A8","id":201643670},"arcs":[261]},{"type":"LineString","properties":{"kind":"major_road","network":"lt:national","sort_rank":380,"kind_detail":"primary","source":"openstreetmap.org","min_zoom":8.0,"landuse_kind":"urban_area","shield_text":"144","name:ru":"\u0443\u043b\u0438\u0446\u0430 \u0416\u0435\u0439\u043c\u044e","ref":"144","id":211614625},"arcs":[262]},{"type":"LineString","properties":{"kind":"major_road","network":"lt:national","sort_rank":381,"kind_detail":"trunk","bus_network":"Panev\u0117\u017eys","source":"openstreetmap.org","min_zoom":8.0,"bus_shield_text":"16","shield_text":"10","name:ru":"\u0443\u043b\u0438\u0446\u0430 \u0421\u043c\u0435\u043b\u0438\u043d\u0435\u0441","landuse_kind":"urban_area","ref":"A10","id":249510865},"arcs":[263]},{"type":"MultiLineString","properties":{"kind":"major_road","network":"lt:national","sort_rank":380,"kind_detail":"primary","source":"openstreetmap.org","min_zoom":8.0,"shield_text":"195","ref":"195"},"arcs":[[264],[265],[266]]},{"type":"MultiLineString","properties":{"kind":"major_road","network":"lt:national","sort_rank":380,"kind_detail":"primary","source":"openstreetmap.org","min_zoom":8.0,"shield_text":"143","ref":"143"},"arcs":[[267],[268],[269],[270]]},{"type":"LineString","properties":{"bus_network":null,"network":"lt:regional","sort_rank":380,"kind_detail":"primary","kind":"major_road","source":"openstreetmap.org","min_zoom":8.0,"bus_shield_text":"4","shield_text":"1521","landuse_kind":"urban_area","ref":"1521"},"arcs":[271]}]},"earth":{"type":"GeometryCollection","geometries":[{"type":"Polygon","properties":{"sort_rank":10,"source":"naturalearthdata.com","kind":"earth","min_zoom":0.0,"id":4768},"arcs":[[272]]}]},"landuse":{"type":"GeometryCollection","geometries":[{"type":"Polygon","properties":{"kind":"park","area":481657984,"sort_rank":24,"source":"openstreetmap.org","min_zoom":6.0,"tier":2,"id":-7317263,"osm_relation":true},"arcs":[[273],[274]]},{"type":"Polygon","properties":{"source":"openstreetmap.org","kind":"military","area":152850000,"tier":3,"id":150533938,"min_zoom":8.0,"sort_rank":45},"arcs":[[275]]},{"type":"MultiPolygon","properties":{"source":"naturalearthdata.com","kind":"urban_area","name":"","area":1393575532,"sort_rank":11,"min_zoom":4.0},"arcs":[[[276]],[[277]],[[278]],[[279]],[[280]],[[281]]]}]}},"type":"Topology","transform":{"translate":[23.90625,54.9776136707],"scale":[0.0003433228,0.0001950584]},"arcs":[[[0,3132],[39,80],[16,115],[141,-53],[-4,35],[29,28],[105,-14],[57,48],[-47,65],[1,95],[-28,34],[56,92],[79,-14],[25,39],[-21,8],[8,36],[-96,34],[9,64],[28,-2],[11,116],[-42,-4],[-13,46],[-41,-1],[41,69],[-24,48]],[[1527,2119],[60,22],[11,34],[70,-10],[17,-25],[8,58],[188,101],[-51,105],[17,77],[78,-49],[107,-4],[134,57],[-10,174],[-51,74],[40,-1],[-1,26],[35,11]],[[2179,2769],[55,145],[3,39],[-34,39],[29,24],[-14,92],[28,86],[139,46],[-12,128],[-35,66],[-43,38],[-84,-60],[-29,112],[99,3],[16,30],[41,-1],[-19,-33],[73,-47],[72,88],[-112,64],[28,105],[-24,78],[22,24],[35,-51],[46,-13],[19,20],[100,-33],[107,66],[76,-98],[25,24],[19,-14],[-7,71],[66,9],[0,22],[102,-43],[75,30],[60,62],[67,-17],[14,-32],[30,33],[159,-83],[85,7],[-25,-38],[27,-29],[-22,-21],[39,-94],[489,182],[98,-79],[26,60],[-34,21],[-8,79],[50,17]],[[0,2986],[31,15],[-16,-115],[103,-176],[23,8],[7,-20],[41,42],[92,13],[108,-178],[42,-22],[-11,-95],[-33,-41],[18,-40],[137,18],[11,34],[68,-5],[2,-61],[34,-17],[54,13],[40,69],[87,-33],[19,156],[124,-45],[-1,-64],[171,-78],[44,78],[2,-41],[196,-54],[23,-43],[-22,-67],[52,-35],[-18,-11],[10,-61],[45,-30],[44,19]],[[4096,307],[-28,44],[-235,-17],[-24,60],[66,46],[-31,33],[-12,98],[-55,37],[-57,-20],[-58,27],[-19,-38],[-28,32],[24,31],[-19,50],[39,36],[-16,58],[53,44],[-24,66],[70,11],[112,64],[-7,66],[47,31],[-14,13],[39,17],[40,-17],[6,19],[-68,2],[-8,28],[-29,-21],[-11,58],[-46,45],[-101,-26],[-58,68],[60,79],[29,154],[-109,-27],[-28,-53],[2,30],[-103,37],[15,82],[-35,20],[5,36],[-62,6],[10,42],[-28,63],[-47,-33],[-22,5],[1,33],[-52,-19],[-50,29],[-55,-54],[-40,36],[-43,225],[-184,-85],[-40,25],[23,71],[-75,4],[-61,-37],[-185,104],[-12,46],[25,122],[-29,21],[39,81],[47,-33],[22,99],[-19,33],[-85,37],[-50,163],[-70,-25],[-30,74],[-28,-9],[-11,42],[-68,36],[-37,-40],[-24,26],[-37,-30],[-24,101]],[[1527,2119],[-12,-125],[-26,-9],[5,-40],[-49,-25],[-16,-98],[-34,-20],[18,-165],[82,-46],[-10,-61],[28,-10],[-17,-67],[19,-7],[-46,-131],[33,-5],[6,-32],[39,-1],[24,32],[174,-54],[-73,-115],[76,-221],[100,-17],[-22,-45],[-50,-24],[80,-73],[35,-97],[38,35],[36,-11],[2,-83],[31,-29],[-19,-46],[32,3],[-13,-36],[68,0],[42,-50],[9,-72],[39,-6],[-96,-50],[29,-14],[-3,-33],[-109,-11],[9,-79],[-83,-43],[-1,-63],[-22,-8],[47,-27],[23,-40]],[[1289,0],[0,3],[-42,274],[-163,280],[-61,160],[-194,137],[-235,293],[-369,506],[-87,237],[-138,124]],[[1179,3860],[12,-2]],[[3888,0],[34,122],[-12,163],[35,209]],[[3945,494],[-18,59],[169,73]],[[2543,1364],[-22,4]],[[2654,1292],[-69,48]],[[2857,3123],[13,6]],[[2521,1368],[-6,12]],[[1067,540],[-1,0]],[[1114,643],[-53,-69]],[[1067,540],[0,-3]],[[1067,540],[-1,0],[1,0]],[[1087,488],[-1,0],[1,-1],[0,1]],[[1343,3856],[7,36]],[[563,2893],[-8,3]],[[1185,541],[33,-40]],[[1385,3848],[-44,-13]],[[633,97],[-7,-6]],[[628,92],[5,4]],[[1221,3854],[38,-5]],[[1259,3849],[-38,5]],[[3536,2823],[0,1]],[[1397,3895],[2,-7]],[[3403,2767],[15,8]],[[3449,2796],[5,4]],[[1357,3762],[-4,7]],[[100,1520],[-1,-1],[1,-1],[0,1],[0,1]],[[3945,494]],[[74,0],[3,4]],[[2073,2680],[148,-242]],[[2222,2437],[-148,242]],[[1283,1332],[-145,-375],[-71,-90],[43,-112]],[[1129,671],[-15,-28]],[[3428,2780],[3,3]],[[1264,3793],[1,-1]],[[1197,551],[-12,42]],[[1428,3803],[150,-125],[280,-85],[130,-148],[304,41],[71,-30],[83,-106],[-1,-87],[209,-34],[94,-54]],[[2805,3123],[52,0]],[[2870,3129],[318,-33],[136,-211],[129,-84]],[[1341,3835],[-24,7]],[[1097,3872],[70,-10]],[[228,1654],[-18,65]],[[210,1857],[2,-76]],[[1266,3794],[46,48]],[[2493,1461],[3,23]],[[2961,2311],[10,24]],[[1329,3520]],[[3418,2775],[10,5]],[[1017,646],[37,-52]],[[1058,588],[8,-44]],[[2748,3175],[57,-52]],[[2506,1402],[2,1]],[[2585,1454],[3,2]],[[1988,3445],[157,-283],[2,-197],[135,-130],[21,-71],[-31,-78],[34,-206],[175,-316],[9,-73],[97,-203],[21,-115],[-20,-102],[-91,-170]],[[2501,1399],[-8,62]],[[2496,1484],[1,13]],[[2497,1497],[0,4]],[[3273,2950],[24,122]],[[3301,3095],[72,236],[65,85],[-27,52],[-116,23],[-21,84],[-63,50],[-25,97],[57,78],[172,139],[-18,40],[26,117]],[[1443,395],[98,-54]],[[2417,1342],[22,13]],[[101,1622],[0,-2],[1,2]],[[102,1623],[0,2],[-1,-1]],[[168,1429],[-1,-1]],[[168,1427],[2,-1],[-1,2]],[[102,1624],[-2,-1],[1,-1],[1,0],[0,2]],[[168,1429],[-1,-1]],[[167,1428],[0,-1],[2,0],[-1,2]],[[1353,3771],[-7,47]],[[3565,2878],[25,18]],[[2509,1388],[-6,13]],[[2515,1380],[-2,1]],[[2585,1340],[-42,24]],[[4096,1198],[-639,62],[-354,-34],[-449,66]],[[0,542],[13,12],[112,199],[76,78],[162,400],[81,125],[32,255],[200,215],[149,356],[289,331],[170,684],[32,278]],[[1316,3475],[13,44]],[[1329,3520],[-13,-45]],[[3493,2809],[43,14]],[[3536,2824],[15,35]],[[1329,3519],[7,24]],[[1343,3856],[-2,-21]],[[3590,2896],[9,10]],[[579,37],[8,5],[2,3]],[[588,46],[-9,-9]],[[637,99],[89,69]],[[741,180],[-104,-80]],[[728,169],[129,100]],[[790,218],[-27,-21]],[[878,285],[107,83]],[[958,348],[-62,-48]],[[1006,384],[51,39]],[[1073,435],[19,15]],[[1186,605],[-1,2]],[[1190,613],[1032,615]],[[2222,1228],[11,6]],[[2233,1234],[184,108]],[[2628,1494],[145,163],[103,181],[623,354],[115,-28],[128,34],[170,136],[184,83]],[[1190,613],[-5,-4]],[[2648,1517],[-20,-22]],[[3297,3072],[4,23]],[[1110,755],[19,-84]],[[3453,2801],[1,-1]],[[2252,1344],[-43,-8]],[[102,1625],[-82,248],[-20,33]],[[99,1521],[2,99]],[[166,1430],[-65,87]],[[170,1426],[261,-232],[97,-141],[279,-213],[118,-58],[92,-136]],[[1345,4008],[-11,88]],[[1350,3892],[2,32]],[[1078,499],[3,-9]],[[77,4],[37,55],[-30,134],[41,176],[-51,86],[123,370]],[[2508,1403],[77,51]],[[2588,1456],[8,8]],[[342,0],[89,52]],[[542,120],[49,230],[229,371],[109,364],[48,207],[4,205],[31,47]],[[3096,281],[-1,0]],[[1067,537],[11,-38]],[[1081,490],[5,-3]],[[1353,3769],[0,2]],[[2863,1826],[24,278],[74,207]],[[2971,2335],[172,150],[149,269],[24,5]],[[3599,2906],[182,180],[114,47],[135,251],[66,67]],[[1332,3519],[53,-43],[94,-194],[163,-222],[201,-184],[66,-50],[37,-21],[127,-125]],[[2074,2679],[-106,114],[-323,264],[-165,226],[-95,194],[-36,31]],[[2225,2420],[92,-280],[14,-41]],[[2331,2099],[8,-23]],[[2339,2076],[3,-7],[116,-141],[128,-262],[63,-237]],[[3024,0],[-93,194],[-22,52],[-57,210],[-20,59],[-103,217],[-93,308],[23,250],[3,75],[-27,136],[-47,164],[-130,266],[-119,145]],[[2339,2076],[-2,3],[-6,20]],[[2331,2099],[-17,65],[-88,255]],[[2650,1426],[-15,-385],[93,-310],[104,-218],[76,-267],[25,-62],[90,-184]],[[3516,2810],[156,-222]],[[1403,3893],[1,24]],[[1329,3521],[3,-2]],[[2221,2438],[4,-18]],[[2226,2419],[-4,18]],[[2513,1381],[-4,7]],[[1186,608],[-1,1],[-1,-1],[1,-1],[1,1]],[[555,2896],[-19,-35]],[[1347,3582],[20,67]],[[210,1719],[2,62]],[[626,91],[-38,-45]],[[589,45],[39,47]],[[633,96],[4,3]],[[637,100],[-4,-3]],[[726,168],[2,1]],[[763,197],[-22,-17]],[[896,300],[-106,-82]],[[857,269],[21,16]],[[985,368],[21,16],[-48,-36]],[[1424,3965],[81,131]],[[2431,4096],[69,0]],[[1057,423],[16,12]],[[1186,608],[4,5]],[[1404,3917],[-7,0]],[[1353,3947],[71,18]],[[1083,3655],[-3,5]],[[2649,1429],[1,-3]],[[133,1533],[23,23]],[[1349,3508],[-19,14]],[[2628,1049],[8,-7]],[[1099,458],[-2,-1]],[[2439,1355],[64,46]],[[2596,1464],[32,30]],[[3551,2859],[14,19]],[[2819,0],[21,34],[20,85],[68,75],[167,86]],[[3095,282],[-79,66]],[[3095,280],[1,0]],[[3095,281],[0,-1]],[[3096,280],[0,1],[-1,0],[1,-1]],[[3016,349],[-1,1],[0,-1],[1,0]],[[2448,1376],[5,-13]],[[2209,1336],[-295,-115],[-459,107],[-102,-54],[-347,279],[-488,98]],[[2400,1368],[-148,-24]],[[2484,1382],[-81,-14]],[[1316,3842],[25,-7]],[[3672,2588],[254,-242]],[[3926,2346],[5,-7]],[[3931,2339],[68,-122],[-5,-81],[-31,-44],[38,-142],[95,-100]],[[1328,3522],[1,-1]],[[2521,1368],[107,-319]],[[1198,548],[-3,-2]],[[1067,537],[0,3]],[[2498,1500],[-1,-1]],[[2497,1498],[1,0]],[[1185,607],[1,-2]],[[1185,593],[1,12]],[[431,52],[111,68]],[[1080,3660],[-23,112],[24,168],[79,156]],[[1295,3544],[-212,111]],[[1295,3544],[33,-22]],[[1330,3522],[-35,22]],[[1101,457],[97,91]],[[1099,457],[-1,1],[-1,-2],[2,0],[0,1]],[[1218,501],[34,-13]],[[1385,3710],[-21,40]],[[1221,3854],[-18,3]],[[1203,3856],[18,-2]],[[1274,3847],[37,-5]],[[579,37],[-65,-37]],[[516,0],[63,37]],[[1092,450],[3,3]],[[1095,453],[3,3]],[[1097,456],[-2,-3]],[[3316,2759],[87,8]],[[3487,2808],[6,1]],[[4096,3715],[-118,133],[-537,248]],[[204,1608],[1,0]],[[221,1646],[1,2]],[[259,1647],[37,-11]],[[396,1619],[47,-8]],[[1346,3818],[-5,17]],[[1317,3842],[-1,0]],[[1087,486],[0,1]],[[1265,3792],[-1,1]],[[1099,456],[0,1]],[[3431,2783],[18,13]],[[3454,2800],[33,8]],[[1086,488],[-1,0]],[[2411,1448],[-12,-78]],[[2417,1342],[-15,25]],[[2495,1497],[-83,-48]],[[2495,1497],[2,1]],[[2497,1499],[-2,-2]],[[2500,1500],[-2,0]],[[2498,1498],[2,2]],[[2628,1494],[-128,6]],[[2401,1368],[0,1],[-1,-1],[0,-1],[1,1]],[[2411,1448],[1,0],[-1,1],[0,-1]],[[1311,3842],[0,-2]],[[1388,3897],[-38,-5]],[[1388,3897],[29,57]],[[1403,3893],[-15,4]],[[2503,1401],[3,1]],[[34,4096],[-34,-10]],[[1097,3872],[-292,46],[-311,114],[-68,64]],[[1183,3860],[-4,0]],[[1385,3848],[24,-25]],[[1422,3809],[6,-6]],[[1203,3857],[-20,3]],[[1191,3858],[12,-2]],[[1367,3649],[18,61],[-48,-161],[-8,-29]],[[1336,3543],[11,39]],[[1409,3823],[13,-14]],[[0,1472],[98,47]],[[102,1520],[31,13]],[[296,1636],[100,-17]],[[443,1611],[16,-3]],[[1259,3849]],[[1311,3842],[5,0]],[[156,1556],[48,52]],[[205,1608],[16,38]],[[222,1648],[37,-1]],[[1327,431],[29,-32]],[[1544,334],[1,-3]],[[1364,3750],[-7,12]],[[1054,594],[4,-6]],[[1352,3924],[-7,84]],[[536,2861],[-233,-626],[-93,-378]],[[1082,3650],[-102,-161],[-80,-30],[-146,-366],[-74,-62],[-97,-145],[-20,7]],[[1264,3792],[-178,-137]],[[1252,488],[75,-57]],[[1356,399],[87,-4]],[[1541,341],[3,-7]],[[1545,331],[33,-86],[51,-54],[197,-73],[98,-118]],[[1097,460],[-10,27]],[[0,4096],[4096,0],[0,-4096],[-4096,0],[0,4096]],[[2983,2292],[41,83],[146,28],[-23,17],[23,-10],[20,68],[-38,22],[13,21],[30,-14],[17,46],[51,32],[47,173],[113,18],[98,83],[-2,54],[-16,-6],[-8,13],[20,12],[-30,37],[-135,7],[-28,16],[-21,80],[-48,-5],[-48,28],[38,19],[66,-21],[21,75],[31,-25],[10,-56],[60,-30],[11,19],[34,-38],[22,45],[28,7],[-26,-40],[43,-74],[87,67],[32,-20],[-75,-41],[41,-43],[-64,-61],[56,-17],[-29,-8],[15,-50],[45,15],[38,-32],[85,-3],[84,-65],[39,7],[114,112],[85,-49],[0,-299],[-90,91],[-66,4],[-30,-11],[37,-106],[-48,-18],[-24,42],[-31,2],[-6,70],[-49,2],[-17,70],[-45,-7],[-12,-68],[-35,37],[-74,-82],[-84,57],[-12,49],[-54,44],[-49,-9],[-24,-37],[24,-40],[-17,-7],[45,-8],[14,-63],[-45,-37],[38,-11],[-33,-11],[-12,-69],[27,-11],[-27,0],[-7,-7],[37,-24],[-29,-9],[10,-60],[93,-68],[-61,-37],[2,27],[-86,15],[-12,-59],[27,-26],[-23,12],[-15,-34],[-38,94],[-46,13],[-26,-19],[21,-39],[8,-70],[-34,102],[-39,-52],[-12,9],[46,73],[-89,33],[-54,64],[-27,-1],[-27,-45],[-5,32],[-28,6]],[[3197,2284],[57,-59],[138,0],[-17,28],[16,29],[-33,-11],[-60,101],[-20,-47],[35,-5],[-10,-17],[32,-24],[-74,46],[-19,-21],[-25,14],[3,-28],[-23,-6]],[[1236,356],[13,41],[71,15],[16,44],[30,-53],[-28,-11],[25,-25],[81,28],[101,-61],[28,-130],[-58,-26],[5,-41],[-93,-8],[33,-37],[35,14],[32,-71],[-47,-35],[-196,0],[-28,230],[31,20],[-51,106]],[[1161,600],[32,-9],[98,39],[-14,-113],[-58,-65],[-79,-18],[-76,25],[-40,105],[-24,9],[17,73],[30,30],[39,-7],[75,-69]],[[2636,1379],[-39,-45],[-12,37],[-74,11],[-23,103],[131,-25],[31,-32],[-14,-49]],[[304,1585],[48,-43],[65,114],[26,-12],[-1,-80],[-57,-22],[-33,-115],[-64,115],[-130,-57],[-8,235],[34,122],[72,42],[48,-299]],[[1365,3760],[-90,22],[-146,152],[15,75],[137,87],[117,0],[55,-276],[-88,-60]],[[322,0],[-294,0],[1,4],[227,0],[32,57],[22,-28],[12,-33]],[[579,0],[-162,0],[0,18],[31,74],[56,30],[75,-4],[0,-118]]]}