{"objects":{"water":{"type":"GeometryCollection","geometries":[]},"buildings":{"type":"GeometryCollection","geometries":[]},"places":{"type":"GeometryCollection","geometries":[{"type":"Point","properties":{"name:pt":"Oblast de Lviv","name:lt":"Lvovo sritis","name:eo":"Lviva Provinco","min_zoom":4.0,"name:be":"\u041b\u044c\u0432\u043e\u045e\u0441\u043a\u0430\u044f \u0432\u043e\u0431\u043b\u0430\u0441\u0446\u044c","name:ru":"\u041b\u044c\u0432\u043e\u0432\u0441\u043a\u0430\u044f \u043e\u0431\u043b\u0430\u0441\u0442\u044c","name:pl":"obw\u00f3d lwowski","id":683681607,"kind":"region","name:en":"Lviv Oblast","name":"\u041b\u044c\u0432\u0456\u0432\u0441\u044c\u043a\u0430 \u043e\u0431\u043b\u0430\u0441\u0442\u044c","kind_detail":"state","name:de":"Oblast Lemberg","source":"openstreetmap.org","name:fr":"Oblast de Lviv","name:es":"\u00d3blast de Lviv"},"coordinates":[954,1465]},{"type":"Point","properties":{"name:pt":"Le\u00f3polis","alt_name:en":"Lviv","name:ka":"\u10da\u10d5\u10dd\u10d5\u10d8","name:tr":"Lviv","name:cs":"Lvov","min_zoom":8.0,"name:ro":"Liov","name:it":"Leopoli","name:ru":"\u041b\u044c\u0432\u043e\u0432","name:pl":"Lw\u00f3w","name:de":"Lwiw","id":26150791,"name:ca":"Lviv","kind_detail":"city","old_name:de":"Lemberg","source":"openstreetmap.org","name:fr":"Lviv","name:zh":"\u5229\u6c83\u592b","admin_level":"4","name:sk":"\u013dvov","name:lt":"Lvovas","alt_name:de":"Lemberg","name:he":"\u05dc\u05d1\u05d5\u05d1","name:la":"Leopolis","name:hy":"\u053c\u057e\u0578\u057e","name:be":"\u041b\u044c\u0432\u043e\u045e","alt_name:fr":"Leopol","name:hu":"Lviv","name:hr":"Lavov","name:sr":"\u041b\u0430\u0432\u043e\u0432","population":728360,"kind":"locality","name:en":"Lviv","name":"\u041b\u044c\u0432\u0456\u0432","name:es":"Le\u00f3polis"},"coordinates":[365,18]},{"type":"Point","properties":{"kind":"locality","name:en":"Chervonohrad","name":"\u0427\u0435\u0440\u0432\u043e\u043d\u043e\u0433\u0440\u0430\u0434","kind_detail":"town","alt_name:pl":"Czerwonogr\u00f3d","name:de":"Tscherwonohrad","source":"openstreetmap.org","min_zoom":8.0,"name:eo":"\u0108ervonohrad","name:pl":"Krystynopol","name:hu":"Chervonohrad","id":260943265,"population":68308},"coordinates":[939,2513]},{"type":"Point","properties":{"kind":"locality","name:en":"Novovolynsk","name":"\u041d\u043e\u0432\u043e\u0432\u043e\u043b\u0438\u043d\u0441\u044c\u043a","kind_detail":"town","name:eo":"Novovolinsk","name:de":"Nowowolysnk","source":"openstreetmap.org","min_zoom":8.0,"name:fr":"Novovolynsk","name:be":"\u041d\u043e\u0432\u0430\u0432\u0430\u043b\u044b\u043d\u0441\u043a","name:ru":"\u041d\u043e\u0432\u043e\u0432\u043e\u043b\u044b\u043d\u0441\u043a","name:pl":"Nowowo\u0142y\u0144sk","name:hu":"Novovolinszk","id":259980476,"population":57900},"coordinates":[753,4032]},{"type":"Point","properties":{"kind":"locality","name:en":"Sokal","name":"\u0421\u043e\u043a\u0430\u043b\u044c","kind_detail":"town","name:de":"Sokal","source":"openstreetmap.org","min_zoom":8.0,"name:pl":"Sokal","id":261704180,"population":25145},"coordinates":[1105,2934]},{"type":"Point","properties":{"kind":"locality","name:en":"Brody","name":"\u0411\u0440\u043e\u0434\u0438","kind_detail":"town","name:de":"Brody","source":"openstreetmap.org","min_zoom":8.0,"name:ro":"Brod\u00ee","name:be":"\u0411\u0440\u043e\u0434\u044b","name:ru":"\u0411\u0440\u043e\u0434\u044b","name:pl":"Brody","population":23752,"id":313246733,"name:ja":"\u30d6\u30ed\u30c7\u30a3"},"coordinates":[3605,1118]},{"type":"Point","properties":{"name:ro":"Jovkva","name:nl":"Zjovkva","name:cs":"\u017dovkva","min_zoom":8.0,"name:ru":"\u0416\u043e\u043b\u043a\u0432\u0430","name:pl":"\u017b\u00f3\u0142kiew","id":260954473,"population":13455,"old_name:uk":"\u041d\u0435\u0441\u0442\u0435\u0440\u043e\u0432","kind":"locality","name:en":"Zhovkva","name":"\u0416\u043e\u0432\u043a\u0432\u0430","kind_detail":"town","old_name:ru":"\u041d\u0435\u0441\u0442\u0435\u0440\u043e\u0432","name:de":"Schowkwa","source":"openstreetmap.org","name:fr":"Jovkva"},"coordinates":[189,995]},{"type":"Point","properties":{"kind":"locality","name:en":"Sosnivka","name":"\u0421\u043e\u0441\u043d\u0456\u0432\u043a\u0430","kind_detail":"town","source":"openstreetmap.org","min_zoom":8.0,"name:ru":"\u0421\u043e\u0441\u043d\u043e\u0432\u043a\u0430","name:be":"\u0421\u0430\u0441\u043d\u043e\u045e\u043a\u0430","name:pl":"Sosn\u00f3wka","id":337525000,"population":11588},"coordinates":[1020,2065]},{"type":"Point","properties":{"kind":"locality","name:en":"Kamianka-Buzka","name":"\u041a\u0430\u043c\u2019\u044f\u043d\u043a\u0430-\u0411\u0443\u0437\u044c\u043a\u0430","kind_detail":"town","min_zoom":8.0,"name:de":"Kamjanka-Buska","source":"openstreetmap.org","name:fr":"Kamianka-Bouzka","name:ro":"Kamianka-Buzka","name:ru":"\u041a\u0430\u043c\u0435\u043d\u043a\u0430-\u0411\u0443\u0433\u0441\u043a\u0430\u044f","name:pl":"Kamionka Bu\u017ca\u0144ska","name:hu":"Kamjanka-Buzka","id":313248839,"population":10921},"coordinates":[1272,1227]},{"type":"Point","properties":{"kind":"locality","name:en":"Dubliany","name":"\u0414\u0443\u0431\u043b\u044f\u043d\u0438","kind_detail":"town","min_zoom":8.0,"name:de":"Dubljany","source":"openstreetmap.org","name:fr":"Doubliany","name:ro":"Dublian\u00ee","name:ru":"\u0414\u0443\u0431\u043b\u044f\u043d\u044b","name:pl":"Dublany","name:zh":"\u675c\u5e03\u5229\u4e9a\u5185","id":313248365,"population":10795},"coordinates":[528,295]},{"type":"Point","properties":{"kind":"locality","name:en":"Radyvyliv","name":"\u0420\u0430\u0434\u0438\u0432\u0438\u043b\u0456\u0432","name:lt":"Radyvylivas","kind_detail":"town","name:eo":"Radiviliv","name:de":"Radywyliw","source":"openstreetmap.org","min_zoom":8.0,"name:be":"\u0420\u0430\u0434\u0437\u0456\u0432\u0456\u043b\u0430\u045e","name:ru":"\u0420\u0430\u0434\u0438\u0432\u0438\u043b\u043e\u0432","name:pl":"Radziwi\u0142\u0142\u00f3w","id":337533363,"population":10487},"coordinates":[3911,1321]},{"type":"Point","properties":{"kind":"locality","name:en":"Dobrotvir","name":"\u0414\u043e\u0431\u0440\u043e\u0442\u0432\u0456\u0440","kind_detail":"town","source":"openstreetmap.org","min_zoom":8.0,"name:ru":"\u0414\u043e\u0431\u0440\u043e\u0442\u0432\u043e\u0440","name:pl":"Dobrotw\u00f3r","id":337526811,"population":10457},"coordinates":[1397,1676]},{"type":"Point","properties":{"kind":"locality","name:en":"Radekhiv","name":"\u0420\u0430\u0434\u0435\u0445\u0456\u0432","kind_detail":"town","name:de":"Radechiw","source":"openstreetmap.org","min_zoom":8.0,"name:ru":"\u0420\u0430\u0434\u0435\u0445\u043e\u0432","name:pl":"Radziech\u00f3w","id":337525335,"population":9463},"coordinates":[2137,2019]},{"type":"Point","properties":{"kind":"locality","name:en":"Horokhiv","name":"\u0413\u043e\u0440\u043e\u0445\u0456\u0432","kind_detail":"town","source":"openstreetmap.org","min_zoom":8.0,"int_name":"Horochiw","name:ru":"\u0413\u043e\u0440\u043e\u0445\u043e\u0432","name:pl":"Horoch\u00f3w","id":337520718,"population":9186},"coordinates":[2487,3012]},{"type":"Point","properties":{"kind":"locality","name:en":"Busk","name":"\u0411\u0443\u0441\u044c\u043a","kind_detail":"town","min_zoom":8.0,"name:de":"Busk","source":"openstreetmap.org","name:fr":"Bousk","name:ru":"\u0411\u0443\u0441\u043a","name:pl":"Busk","id":313247150,"population":8355},"coordinates":[2047,581]},{"type":"Point","properties":{"kind":"locality","name:en":"Ivanychi","name":"\u0406\u0432\u0430\u043d\u0438\u0447\u0456","kind_detail":"town","name:de":"Iwanytschi","source":"openstreetmap.org","min_zoom":8.0,"name:ru":"\u0418\u0432\u0430\u043d\u0438\u0447\u0438","name:pl":"Iwanicze","id":260940348,"population":6784},"coordinates":[1319,3646]},{"type":"Point","properties":{"kind":"locality","name:en":"Krasne","name":"\u041a\u0440\u0430\u0441\u043d\u0435","kind_detail":"town","source":"openstreetmap.org","min_zoom":8.0,"name:ru":"\u041a\u0440\u0430\u0441\u043d\u043e\u0435","name:pl":"Krasne","id":337540904,"population":6308},"coordinates":[2045,340]},{"type":"Point","properties":{"kind":"locality","name:en":"Velyki Mosty","name":"\u0412\u0435\u043b\u0438\u043a\u0456 \u041c\u043e\u0441\u0442\u0438","kind_detail":"town","source":"openstreetmap.org","min_zoom":8.0,"name:ru":"\u0412\u0435\u043b\u044b\u043a\u0438 \u041c\u043e\u0441\u0442\u044b","name:pl":"Mosty Wielkie","id":337526184,"population":6037},"coordinates":[677,1833]},{"type":"Point","properties":{"kind":"locality","name:en":"Briukhovychi","name":"\u0411\u0440\u044e\u0445\u043e\u0432\u0438\u0447\u0456","kind_detail":"town","source":"openstreetmap.org","min_zoom":8.0,"name:ru":"\u0411\u0440\u044e\u0445\u043e\u0432\u0438\u0447\u0438","name:pl":"Brzuchowice","name:zh":"\u5e03\u7559\u970d\u7ef4\u5947","id":337541358,"population":5772},"coordinates":[118,294]},{"type":"Point","properties":{"old_name:uk":"\u0416\u043e\u0432\u0442\u043d\u0435\u0432\u0435","kind":"locality","name:en":"Blahodatne","name":"\u0411\u043b\u0430\u0433\u043e\u0434\u0430\u0442\u043d\u0435","old_name:pl":"\u017bowtnewe","kind_detail":"town","old_name:ru":"\u0416\u043e\u0432\u0442\u043d\u0435\u0432\u043e\u0435","source":"openstreetmap.org","min_zoom":8.0,"old_name:en":"Zhovtneve","old_name":"\u0416\u043e\u0432\u0442\u043d\u0435\u0432\u0435","name:ru":"\u0411\u043b\u0430\u0433\u043e\u0434\u0430\u0442\u043d\u043e\u0435","name:pl":"B\u0142ahodatne","id":337518209,"population":4779},"coordinates":[993,3759]},{"type":"Point","properties":{"kind":"locality","name:en":"Kulykiv","name":"\u041a\u0443\u043b\u0438\u043a\u0456\u0432","kind_detail":"town","source":"openstreetmap.org","min_zoom":8.0,"name:ru":"\u041a\u0443\u043b\u0438\u043a\u043e\u0432","name:pl":"Kulik\u00f3w","id":337538426,"population":3963},"coordinates":[498,649]},{"type":"Point","properties":{"kind":"locality","name:en":"Zhvyrka","name":"\u0416\u0432\u0438\u0440\u043a\u0430","kind_detail":"town","source":"openstreetmap.org","min_zoom":8.0,"name:pl":"\u017bwirka","id":1990754485,"population":3710},"coordinates":[1035,2863]},{"type":"Point","properties":{"kind":"locality","name:en":"Lopatyn","name":"\u041b\u043e\u043f\u0430\u0442\u0438\u043d","kind_detail":"town","source":"openstreetmap.org","min_zoom":8.0,"name:pl":"\u0141opatyn","id":337526569,"population":3388},"coordinates":[2734,1744]},{"type":"Point","properties":{"kind":"locality","name:en":"Novyi Yarychiv","name":"\u041d\u043e\u0432\u0438\u0439 \u042f\u0440\u0438\u0447\u0456\u0432","kind_detail":"town","source":"openstreetmap.org","min_zoom":8.0,"name:ru":"\u041d\u043e\u0432\u044b\u0439 \u042f\u0440\u044b\u0447\u0435\u0432","name:pl":"Jarycz\u00f3w Nowy","id":337541215,"population":2904},"coordinates":[1155,315]},{"type":"Point","properties":{"kind":"locality","name:en":"Hirnyk","name":"\u0413\u0456\u0440\u043d\u0438\u043a","kind_detail":"town","source":"openstreetmap.org","min_zoom":8.0,"name:ru":"\u0413\u043e\u0440\u043d\u044f\u043a","name:pl":"Hirnyk","id":337523935,"population":2902},"coordinates":[891,2328]},{"type":"Point","properties":{"kind":"locality","name:en":"Marianivka","name":"\u041c\u0430\u0440\u2019\u044f\u043d\u0456\u0432\u043a\u0430","old_name:pl":"Musin","kind_detail":"town","source":"openstreetmap.org","min_zoom":8.0,"name:ru":"\u041c\u0430\u0440\u044c\u044f\u043d\u043e\u0432\u043a\u0430","name:pl":"Marian\u00f3wka","id":337521596,"population":2789},"coordinates":[2619,2794]},{"type":"Point","properties":{"kind":"locality","name:en":"Zapytiv","name":"\u0417\u0430\u043f\u0438\u0442\u0456\u0432","kind_detail":"town","source":"openstreetmap.org","min_zoom":8.0,"name:ru":"\u0417\u0430\u043f\u044b\u0442\u043e\u0432","name:pl":"Zapyt\u00f3w","id":337540656,"population":2730},"coordinates":[893,362]},{"type":"Point","properties":{"kind":"locality","name:en":"Belz","name":"\u0411\u0435\u043b\u0437","name:lt":"Belzas","kind_detail":"town","name:de":"Bels","source":"openstreetmap.org","min_zoom":8.0,"name:pl":"Be\u0142z","id":313245896,"population":2359},"coordinates":[310,2482]},{"type":"Point","properties":{"kind":"locality","name:en":"Berestechko","name":"\u0411\u0435\u0440\u0435\u0441\u0442\u0435\u0447\u043a\u043e","name:lt":"Bereste\u010dka","kind_detail":"town","source":"openstreetmap.org","min_zoom":8.0,"name:pl":"Beresteczko","id":337523440,"population":1796},"coordinates":[3538,2373]},{"type":"Point","properties":{"kind":"locality","name:en":"Olesko","name":"\u041e\u043b\u0435\u0441\u044c\u043a\u043e","kind_detail":"town","source":"openstreetmap.org","min_zoom":8.0,"name:ru":"\u041e\u043b\u0435\u0441\u043a\u043e","name:pl":"Olesko","id":337538874,"population":1510},"coordinates":[2877,576]},{"type":"Point","properties":{"kind":"locality","name:en":"Senkevychivka","name":"\u0421\u0435\u043d\u043a\u0435\u0432\u0438\u0447\u0456\u0432\u043a\u0430","kind_detail":"town","source":"openstreetmap.org","min_zoom":8.0,"name:ru":"\u0421\u0435\u043d\u043a\u0435\u0432\u0438\u0447\u0435\u0432\u043a\u0430","name:pl":"Sienkiewicz\u00f3wka","id":337520272,"population":1347},"coordinates":[3292,3148]}]},"transit":{"type":"GeometryCollection","geometries":[{"type":"MultiLineString","properties":{"source":"openstreetmap.org","kind":"train","name":"Medyka - \u041b\u044c\u0432\u0456\u0432","sort_rank":275,"min_zoom":6.0,"osm_relation":true},"arcs":[[9],[10],[11]]},{"type":"LineString","properties":{"kind":"train","name":"142: \u041b\u044c\u0432\u0456\u0432-\u041a\u0438\u0457\u0432","service":"night","sort_rank":275,"source":"openstreetmap.org","min_zoom":6.0,"operator":"UZ","ref":"142: \u041b\u044c\u0432\u0456\u0432-\u041a\u0438\u0457\u0432","osm_relation":true},"arcs":[12]},{"type":"MultiLineString","properties":{"kind":"train","name":"141: \u041a\u0438\u0457\u0432-\u041b\u044c\u0432\u0456\u0432","service":"night","sort_rank":275,"source":"openstreetmap.org","min_zoom":6.0,"operator":"UZ","ref":"141: \u041a\u0438\u0457\u0432-\u041b\u044c\u0432\u0456\u0432","osm_relation":true},"arcs":[[13],[14]]}]},"pois":{"type":"GeometryCollection","geometries":[{"type":"Point","properties":{"kind":"national_park","protect_class":"2","area":184314000,"source":"openstreetmap.org","min_zoom":7.03,"tier":1,"id":-6438671,"osm_relation":true,"name":"\u041d\u0430\u0446\u0456\u043e\u043d\u0430\u043b\u044c\u043d\u0438\u0439 \u043f\u0440\u0438\u0440\u043e\u0434\u043d\u0438\u0439 \u043f\u0430\u0440\u043a \u00ab\u041f\u0456\u0432\u043d\u0456\u0447\u043d\u0435 \u041f\u043e\u0434\u0456\u043b\u043b\u044f\u00bb"},"coordinates":[3483,268]},{"type":"Point","properties":{"kind":"protected_area","protect_class":"4","area":12334700,"source":"openstreetmap.org","min_zoom":8.0,"tier":2,"name:ru":"\u0413\u0438\u0434\u0440\u043e\u043b\u043e\u0433\u0438\u0447\u0435\u0441\u043a\u0438\u0439 \u0437\u0430\u043a\u0430\u0437\u043d\u0438\u043a \u00ab\u041b\u0443\u0433\u0430 \u0421\u0432\u0438\u043d\u043e\u0440\u0435\u0439\u043a\u0430\u00bb","id":-5511539,"osm_relation":true,"name":"\u0413\u0456\u0434\u0440\u043e\u043b\u043e\u0433\u0456\u0447\u043d\u0438\u0439 \u0437\u0430\u043a\u0430\u0437\u043d\u0438\u043a \u00ab\u041b\u0443\u0433\u0430 \u0421\u0432\u0438\u043d\u043e\u0440\u0435\u0439\u043a\u0430\u00bb"},"coordinates":[1959,4065]},{"type":"Point","properties":{"kind":"protected_area","protect_class":"4","area":39558900,"source":"openstreetmap.org","min_zoom":8.0,"tier":2,"name:ru":"\u041e\u0431\u0449\u0435\u0437\u043e\u043e\u043b\u043e\u0433\u0438\u0447\u0435\u0441\u043a\u0438\u0439 \u0437\u0430\u043a\u0430\u0437\u043d\u0438\u043a \u00ab\u041f\u0440\u0438\u0431\u0443\u0436\u044c\u0435\u00bb","id":-5486226,"osm_relation":true,"name":"\u0417\u0430\u0433\u0430\u043b\u044c\u043d\u043e\u0437\u043e\u043e\u043b\u043e\u0433\u0456\u0447\u043d\u0438\u0439 \u0437\u0430\u043a\u0430\u0437\u043d\u0438\u043a \u00ab\u041f\u0440\u0438\u0431\u0443\u0436\u0436\u044f\u00bb"},"coordinates":[502,3975]},{"type":"Point","properties":{"kind":"protected_area","protect_class":"4","area":19837600,"source":"openstreetmap.org","min_zoom":8.0,"tier":2,"name:ru":"\u041e\u0431\u0449\u0435\u0437\u043e\u043e\u043b\u043e\u0433\u0438\u0447\u0435\u0441\u043a\u0438\u0439 \u0437\u0430\u043a\u0430\u0437\u043d\u0438\u043a \u00ab\u041f\u0430\u0432\u043b\u043e\u0432\u0441\u043a\u0438\u0439\u00bb","id":-5481502,"osm_relation":true,"name":"\u0417\u0430\u0433\u0430\u043b\u044c\u043d\u043e\u0437\u043e\u043e\u043b\u043e\u0433\u0456\u0447\u043d\u0438\u0439 \u0437\u0430\u043a\u0430\u0437\u043d\u0438\u043a \u00ab\u041f\u0430\u0432\u043b\u0456\u0432\u0441\u044c\u043a\u0438\u0439\u00bb"},"coordinates":[1440,3527]},{"type":"Point","properties":{"kind":"protected_area","protect_class":"4","area":46421200,"source":"openstreetmap.org","min_zoom":8.0,"tier":2,"name:ru":"\u041e\u0431\u0449\u0435\u0437\u043e\u043e\u043b\u043e\u0433\u0438\u0447\u0435\u0441\u043a\u0438\u0439 \u0437\u0430\u043a\u0430\u0437\u043d\u0438\u043a \u00ab\u0411\u0443\u0436\u0430\u043d\u043e\u0432\u0441\u043a\u0430\u044f \u0434\u0430\u0447\u0430\u00bb","id":-5462920,"osm_relation":true,"name":"\u0417\u0430\u0433\u0430\u043b\u044c\u043d\u043e\u0437\u043e\u043e\u043b\u043e\u0433\u0456\u0447\u043d\u0438\u0439 \u0437\u0430\u043a\u0430\u0437\u043d\u0438\u043a \u00ab\u0411\u0443\u0436\u0430\u043d\u0456\u0432\u0441\u044c\u043a\u0430 \u0434\u0430\u0447\u0430\u00bb"},"coordinates":[2480,2473]}]},"boundaries":{"type":"GeometryCollection","geometries":[{"type":"LineString","properties":{"name:right:yo":"Polandi","name:right:yi":"\u05e4\u05d5\u05d9\u05dc\u05df","name:left:la":"Ucraina","name:right:qu":"Pulunya","name:left:li":"Oekra\u00efne","name:left:vi":"Ukraina","name:left:sw":"Ukraine","name:left:kg":"Ukrayina","name:left:ka":"\u10e3\u10d9\u10e0\u10d0\u10d8\u10dc\u10d0","name:left:km":"\u17a2\u17ca\u17bb\u1799\u1780\u17d2\u179a\u17c2\u1793","name:left:kl":"Ukraine","name:left:ko":"\uc6b0\ud06c\ub77c\uc774\ub098","name:left:kn":"\u0caf\u0cc1\u0c95\u0ccd\u0cb0\u0cc7\u0ca8\u0ccd","name:right:is":"P\u00f3lland","name:left:ro":"Ucraina","name:left:kk":"\u0423\u043a\u0440\u0430\u0438\u043d\u0430","name:left:rm":"Ucraina","name:left:ku":"\u00dbkrayna","name:left:kw":"Ukrayn","name:left:kv":"\u0423\u043a\u0440\u0430\u0438\u043d\u0430","name:right:rn":"Polonia","name:right:ro":"Polonia","name:left:ru":"\u0423\u043a\u0440\u0430\u0438\u043d\u0430","name:right:ig":"Poland","name:right:ie":"Polonia","name:right:id":"Polandia","name:left:ky":"\u0423\u043a\u0440\u0430\u0438\u043d\u0430","name:right:ia":"Polonia","name:right:bi":"Poland","name:right:bn":"\u09aa\u09cb\u09b2\u09cd\u09af\u09be\u09a8\u09cd\u09a1","name:right:bo":"\u0f55\u0f7c\u0f0b\u0f63\u0f53\u0f0d","name:left:sl":"Ukrajina","name:right:ba":"\u041f\u043e\u043b\u044c\u0448\u0430","name:right:bg":"\u041f\u043e\u043b\u0448\u0430","name:right:be":"\u041f\u043e\u043b\u044c\u0448\u0447\u0430","name:right:br":"Polonia","name:right:bs":"Poljska","name:right:nn":"Polen","name:right:no":"Polen","name:right:nl":"Polen","name:right:wa":"Pologne","name:left:lv":"Ukraina","name:right:wo":"Polo\u00f1","name:right:ne":"\u092a\u094b\u0932\u094d\u092f\u093e\u0923\u094d\u0921","name:right:na":"Poran","name:right:gv":"Yn Pholynn","alt_name:left:vi":"Uy Ki\u00ean","name:right:nv":"P\u00f3olish Dine\u02bc\u00e9 Bik\u00e9yah","name:left:mg":"Okraina","kind_detail":"2","name:left:ig":"Yukrain","name:left:tr":"Ukrayna","name:right:gu":"\u0aaa\u0acb\u0ab2\u0ac7\u0a82\u0aa1","name:right:ps":"\u067e\u0648\u0644\u0646\u0689","name:right:pt":"Pol\u00f3nia","name:left:mk":"\u0423\u043a\u0440\u0430\u0438\u043d\u0430","name:left:mi":"\u016akareinga","name:left:ts":"Ukraine","name:left:tt":"\u0423\u043a\u0440\u0430\u0438\u043d\u0430","name:left:mn":"\u0423\u043a\u0440\u0430\u0439\u043d","name:left:tw":"Ukraine","name:left:th":"\u0e1b\u0e23\u0e30\u0e40\u0e17\u0e28\u0e22\u0e39\u0e40\u0e04\u0e23\u0e19","name:right:pa":"\u0a2a\u0a4b\u0a32\u0a48\u0a02\u0a21","name:left:tk":"Ukraina","name:left:tl":"Ukranya","name:left:mt":"Ukrajna","name:right:gl":"Polonia","name:left:my":"\u101a\u1030\u1000\u101b\u102d\u1014\u103a\u1038\u1014\u102d\u102f\u1004\u103a\u1004\u1036","name:right:gn":"Polo\u00f1a","name:left:te":"\u0c09\u0c15\u0c4d\u0c30\u0c46\u0c2f\u0c3f\u0c28\u0c4d","name:left:tg":"\u0423\u043a\u0440\u0430\u0439\u0438\u043d\u0430","name:left:ms":"Ukraine","name:left:mr":"\u092f\u0941\u0915\u094d\u0930\u0947\u0928","name:left:da":"Ukraine","name:left:de":"Ukraine","name:right:ga":"An Pholainn","name:left:dv":"\u0794\u07aa\u0786\u07b0\u0783\u07ac\u0787\u07a8\u0782\u07b0","name:right:lg":"Bupoolo","name:right:ug":"\u067e\u0648\u0644\u0634\u0627","name:left:hi":"\u092f\u0941\u0915\u094d\u0930\u0947\u0928","name:right:lb":"Polen","name:right:uk":"\u041f\u043e\u043b\u044c\u0449\u0430","name:left:ca":"Ucra\u00efna","name:right:ln":"Poloni","name:right:li":"Pole","name:right:lt":"Lenkija","name:right:ur":"\u067e\u0648\u0644\u06cc\u0646\u0688","name:right:lv":"Polija","name:left:hy":"\u0548\u0582\u056f\u0580\u0561\u056b\u0576\u0561","name:left:ta":"\u0b89\u0b95\u0bcd\u0bb0\u0bc8\u0ba9\u0bcd","name:left:ht":"Ikr\u00e8n","name:left:hu":"Ukrajna","name:left:hr":"Ukrajina","sort_rank":262,"name:right:gd":"A' Ph\u00f2lainn","name:right:os":"\u041f\u043e\u043b\u044c\u0448\u00e6","name:right:es":"Polonia","name:right:sr":"\u041f\u043e\u0459\u0441\u043a\u0430","name:right:eu":"Polonia","name:right:et":"Poola","name:left:os":"\u0423\u043a\u0440\u0430\u0438\u043d\u00e6","name:left:or":"\u0b5f\u0b41\u0b15\u0b4d\u0b30\u0b47\u0b28","name:right:ee":"Poland","name:left:vo":"Lukray\u00e4n","name:left:oc":"Ucra\u00efna","name:right:eo":"Polujo","name:right:en":"Poland","name:right:el":"\u03a0\u03bf\u03bb\u03c9\u03bd\u03af\u03b1","name:left:fa":"\u0627\u0648\u06a9\u0631\u0627\u06cc\u0646","name:left:ia":"Ukraina","name:left:fo":"Ukraina","name:right:sk":"Po\u013esko","name:left:fi":"Ukraina","name:left:fr":"Ukraine","name:left:cs":"Ukrajina","name:right:jv":"Polandia","name:left:fy":"Oekra\u00efne","name:right:ja":"\u30dd\u30fc\u30e9\u30f3\u30c9","name:right:sq":"Polonia","name:right:ss":"IPholandi","name:left:ja":"\u30a6\u30af\u30e9\u30a4\u30ca","name:right:su":"Polandia","name:right:st":"Poland","name:right:sw":"Poland","name:right:sv":"Polen","name:right:si":"\u0db4\u0ddd\u0dbd\u0db1\u0dca\u0dad\u0dba","name:right:sh":"Poljska","name:left:qu":"Ukranya","name:right:sm":"Polagi","name:right:sl":"Poljska","name:right:so":"Boland","name:right:sa":"\u092a\u094b\u0932\u0948\u0902\u0921","name:right:sc":"Polonia","name:left:jv":"Ukraina","id":-60199,"name:right:sg":"P\u00f6l\u00f4ni","old_name:left:vi":"\u00d4 Kh\u1eafc Lan","name:right:co":"Polonia","name:right:ca":"Pol\u00f2nia","name:right:ce":"\u041f\u043e\u043b\u044c\u0448\u0430","name:right:cy":"Gwlad Pwyl","name:right:zh-yue":"\u6ce2\u862d","name:right:cs":"Polsko","name:right:cu":"\u041f\u043e\u043b\u0484\u044c\u0441\u043a\u0430","name:right:iu":"\u1433\u14da\u14d0\u1466","name:right:cv":"\u041f\u043e\u043b\u044c\u0448\u0430","name:right:it":"Polonia","name:left:ar":"\u0623\u0648\u0643\u0631\u0627\u0646\u064a\u0627","name:left:az":"Ukrayna","name:right:rw":"Polonye","name:left:af":"Oekra\u00efne","name:left:ab":"\u0423\u043a\u0440\u0430\u0438\u043d\u0430","name:left:an":"Ucra\u00edna","name:left:am":"\u12e9\u12ad\u122c\u1295","name:right:ru":"\u041f\u043e\u043b\u044c\u0448\u0430","name:right:io":"Polonia","name:left:zh-yue":"\u70cf\u514b\u862d","name:left:rw":"Ikerene","name:right:hy":"\u053c\u0565\u0570\u0561\u057d\u057f\u0561\u0576","name:left:lb":"Ukrain","alt_name:left:eo":"Ukrainio","name:left:su":"Ukraina","int_name:left":"Ukraine","name:right:hr":"Poljska","name:left:sv":"Ukraina","name:left:sq":"Ukraina","name:right:hu":"Lengyelorsz\u00e1g","name:left:ss":"IYukhureni","name:left:sr":"\u0423\u043a\u0440\u0430\u0458\u0438\u043d\u0430","name:left:sm":"Ukraine","name:right:hi":"\u092a\u094b\u0932\u0948\u0902\u0921","name:left:so":"Ukrain","name:left:sn":"Ukraine","name:left:lt":"Ukraina","name:left:sh":"Ukrajina","name:left:sk":"Ukrajina","name:left:se":"Ukraina","name:right:ha":"Poland","name:right:he":"\u05e4\u05d5\u05dc\u05d9\u05df","name:left:sc":"Ucraina","name:right:la":"Polonia","name:right:af":"Pole","name:right:ab":"\u041f\u043e\u043b\u0448\u0430","name:left:ce":"\u0423\u043a\u0440\u0430\u0438\u043d\u0430","name:right:an":"Polonia","name:right:am":"\u1356\u120b\u1295\u12f5","name:right:ak":"Poland","source":"openstreetmap.org","name:left:cy":"Wcr\u00e1in","name:right:ar":"\u0628\u0648\u0644\u0646\u062f\u0627","name:left:he":"\u05d0\u05d5\u05e7\u05e8\u05d0\u05d9\u05e0\u05d4","name:left:cu":"\u041e\u0443\u043a\u0440\u0430\u0438\u043d\u0430","name:left:cv":"\u0423\u043a\u0440\u0430\u0438\u043d\u0430","name:right:az":"Pol\u015fa","name:right:ay":"Pulu\u00f1a","name:right:rm":"Pologna","name":"\u0423\u043a\u0440\u0430\u0457\u043d\u0430 - Polska","name:right:zu":"IPolandi","name:left:zh":"\u4e4c\u514b\u5170","name:right:zh":"\u6ce2\u5170","name:left:uz":"Ukraina","name:right:fr":"Pologne","name:left:ps":"\u0627\u0648\u06a9\u0631\u0627\u06cc\u0646","name:left:nv":"Y\u00f3\u00f3kwein","name:left:ur":"\u06cc\u0648\u06a9\u0631\u06cc\u0646","id:right":-49715,"name:right:ff":"Poloonya","name:left:no":"Ukraina","name:left:nl":"Oekra\u00efne","alt_name:right:eo":"Pollando;Polio","name:right:fa":"\u0644\u0647\u0633\u062a\u0627\u0646","name:right:fo":"P\u00f3lland","name:left:ne":"\u092f\u0941\u0915\u094d\u0930\u0947\u0928","name:left:ug":"\u0626\u06c7\u0643\u0631\u0627\u0626\u0649\u0646\u0627","name:left:na":"Ukraine","name:left:ml":"\u0d09\u0d15\u0d4d\u0d30\u0d48\u0d7b","name:left:eo":"Ukrainujo","name:left:en":"Ukraine","name:left:el":"\u039f\u03c5\u03ba\u03c1\u03b1\u03bd\u03af\u03b1","name:left:ee":"Ukraine","name:left:pl":"Ukraina","name:left:es":"Ucrania","name:left:ie":"Ucraina","name:left:eu":"Ukraina","name:left:et":"Ukraina","name:right:oc":"Polonha","name:right:tr":"Polonya","short_name:right":"RP","name:right:uz":"Polsha","osm_relation":true,"name:right:or":"\u0b2a\u0b4b\u0b32\u0b3e\u0b23\u0b4d\u0b21","name:left:pt":"Ucr\u00e2nia","name:right:ku":"Polonya","name:right:tk":"Pol\u015fa","name:left:wa":"Oucrinne","min_zoom":8.0,"name:left:zh-min-nan":"Ukrayina","name:left:ln":"Ukraine","name:left:wo":"Ukreen","name:left:ga":"An \u00dacr\u00e1in","name:left:it":"Ucraina","name:left:gd":"An Ucr\u00e0in","name:left:gl":"Ucra\u00edna","name:left:gn":"Ukya\u00f1a","name:left:gu":"\u0aaf\u0ac1\u0a95\u0acd\u0ab0\u0ac7\u0aa8","name:left:gv":"Yn Ookraan","official_name:right":"Rzeczpospolita Polska","name:left":"\u0423\u043a\u0440\u0430\u0457\u043d\u0430","name:right:mk":"\u041f\u043e\u043b\u0441\u043a\u0430","name:right:mi":"P\u014drana","name:right:mn":"\u041f\u043e\u043b\u044c\u0448","name:right:ml":"\u0d2a\u0d4b\u0d33\u0d23\u0d4d\u0d1f\u0d4d","name:right:vo":"Pol\u00e4n","name:right:mg":"Polonia","name:right:vi":"Ba Lan","name:right:my":"\u1015\u102d\u102f\u101c\u1014\u103a\u1014\u102d\u102f\u1004\u103a\u1004\u1036","name:right:ms":"Poland","name:right:mr":"\u092a\u094b\u0932\u0902\u0921","name:right:fy":"Poalen","name:right:mt":"Polonja","name:left:nn":"Ukraina","kind":"country","name:left:br":"Ukraina","name:left:bs":"Ukrajina","name:left:ba":"\u0423\u043a\u0440\u0430\u0438\u043d\u0430","name:left:bg":"\u0423\u043a\u0440\u0430\u0439\u043d\u0430","name:left:be":"\u0423\u043a\u0440\u0430\u0456\u043d\u0430","name:left:bi":"Ukraine","name:left:bn":"\u0987\u0989\u0995\u09cd\u09b0\u09c7\u09a8","name:left:bo":"\u0f68\u0f74\u0f40\u0f0b\u0f62\u0f61\u0f72\u0f0b\u0f53\u0f72\u0f0d","name:right":"Polska","name:left:yo":"Ukr\u00e9\u00ecn","name:left:yi":"\u05d0\u05d5\u05e7\u05e8\u05d0\u05d9\u05e0\u05e2","id:left":-60199,"name:right:fi":"Puola","name:right:ka":"\u10de\u10dd\u10da\u10dd\u10dc\u10d4\u10d7\u10d8","name:left:io":"Ukrainia","name:left:pa":"\u0a2f\u0a42\u0a15\u0a4d\u0a30\u0a47\u0a28","name:right:kg":"Pologne","name:right:tt":"\u041f\u043e\u043b\u044c\u0448\u0430","name:right:kk":"\u041f\u043e\u043b\u044c\u0448\u0430","name:left:id":"Ukraina","name:right:km":"\u1794\u17d2\u179a\u1791\u17c1\u179f\u1794\u17c9\u17bc\u17a1\u17bc\u1789","name:right:kl":"Poleni","name:right:ko":"\ud3f4\ub780\ub4dc","name:right:kn":"\u0caa\u0ccb\u0cb2\u0cc6\u0c82\u0ca1\u0ccd","name:right:tl":"Polonya","name:right:th":"\u0e1b\u0e23\u0e30\u0e40\u0e17\u0e28\u0e42\u0e1b\u0e41\u0e25\u0e19\u0e14\u0e4c","name:right:kw":"Poloni","name:right:kv":"\u041f\u043e\u043b\u044c\u0448\u0430","name:right:ky":"\u041f\u043e\u043b\u044c\u0448\u0430","name:right:te":"\u0c2a\u0c4b\u0c32\u0c3e\u0c02\u0c21\u0c4d","name:right:tg":"\u041b\u0430\u04b3\u0438\u0441\u0442\u043e\u043d","name:left:is":"\u00dakra\u00edna","name:right:ta":"\u0baa\u0bcb\u0bb2\u0ba8\u0bcd\u0ba4\u0bc1","name:right:de":"Polen","name:right:da":"Polen","name:right:dv":"\u0795\u07ae\u078d\u07ac\u0782\u07b0\u0791\u07aa","name:right:ht":"Pol\u00f2y"},"arcs":[0]},{"type":"LineString","properties":{"name:right:hy":"\u053c\u057e\u0578\u057e\u056b \u0574\u0561\u0580\u0566","alt_name:left:en":"Lublin Province","name:right:no":"Lviv oblast","alt_name:left:pl":"lubelskie","name:right:hr":"Ljvivska oblast","name:right:hu":"Lvivi ter\u00fclet","name:right:lt":"Lvovo sritis","name:left:sl":"Lublinsko vojvodstvo","name:right:lv":"\u013bvovas apgabals","name:left:lt":"Liublino vaivadija","name:left:sk":"Lubelsk\u00e9","loc_name:left":"lubelskie","name:right:he":"\u05de\u05d7\u05d5\u05d6 \u05dc\u05d1\u05d5\u05d1","name:right:os":"\u041b\u044c\u0432\u043e\u0432\u044b \u043e\u0431\u043b\u00e6\u0441\u0442","short_name:left":"lubelskie","sort_rank":256,"source":"openstreetmap.org","name:right:ar":"\u0644\u0641\u064a\u0641 \u0623\u0648\u0628\u0644\u0627\u0633\u062a","name:right:az":"Lvov vilay\u0259ti","name:left:cs":"Lublinsk\u00e9 vojvodstv\u00ed","name:left":"wojew\u00f3dztwo lubelskie","name:right:es":"\u00d3blast de Le\u00f3polis","name:left:ja":"\u30eb\u30d6\u30ea\u30f3\u770c","name:left:ka":"\u10da\u10e3\u10d1\u10da\u10d8\u10dc\u10d8\u10e1 \u10e1\u10d0\u10d5\u10dd\u10d4\u10d5\u10dd\u10d3\u10dd","name:right:eu":"Lviveko oblasta","name:right:et":"Lvivi oblast","name:right:it":"Oblast' di Leopoli","name:right:vi":"Lviv (t\u1ec9nh)","name:right:ro":"Regiunea Liov","name:left:ru":"\u041b\u044e\u0431\u043b\u0438\u043d\u0441\u043a\u043e\u0435 \u0432\u043e\u0435\u0432\u043e\u0434\u0441\u0442\u0432\u043e","name:right:ms":"Oblast Lviv","name:right:mr":"\u0932\u093f\u0935\u094d\u0939\u093f\u0935 \u0913\u092c\u094d\u0932\u093e\u0938\u094d\u0924","name:right:id":"Oblast Lviv","name:right:eo":"Lviva provinco","name:right:en":"Lviv Oblast","kind":"region","name":"wojew\u00f3dztwo lubelskie - \u041b\u044c\u0432\u0456\u0432\u0441\u044c\u043a\u0430 \u043e\u0431\u043b\u0430\u0441\u0442\u044c","min_zoom":8.0,"name:right:be":"\u041b\u044c\u0432\u043e\u045e\u0441\u043a\u0430\u044f \u0432\u043e\u0431\u043b\u0430\u0441\u0446\u044c","name:left:zh":"\u5362\u5e03\u6797\u7701","name:left:fr":"Vo\u00efvodie de Lublin","name:right:zh":"\u5229\u6c83\u592b\u5dde","name:right:nn":"Lviv oblast","name:right:mk":"\u041b\u0430\u0432\u043e\u0432\u0441\u043a\u0430 \u043e\u0431\u043b\u0430\u0441\u0442","name:right:nl":"Oblast Lviv","name:right:ja":"\u30ea\u30f4\u30a3\u30a6\u5dde","name:right:fr":"Oblast de Lviv","name:right:sr":"\u041b\u0430\u0432\u043e\u0432\u0441\u043a\u0430 \u043e\u0431\u043b\u0430\u0441\u0442","id:right":-72380,"name:left:uk":"\u041b\u044e\u0431\u043b\u0456\u043d\u0441\u044c\u043a\u0435 \u0432\u043e\u0454\u0432\u043e\u0434\u0441\u0442\u0432\u043e","name:right:sh":"Lavovska oblast","name:right:sk":"\u013dvovsk\u00e1 oblas\u0165","name:left:be":"\u041b\u044e\u0431\u043b\u0456\u043d\u0441\u043a\u0430\u0435 \u0432\u0430\u044f\u0432\u043e\u0434\u0441\u0442\u0432\u0430","name:right:fa":"\u0627\u0633\u062a\u0627\u0646 \u0644\u0648\u0648\u0641","id":-130919,"name:right":"\u041b\u044c\u0432\u0456\u0432\u0441\u044c\u043a\u0430 \u043e\u0431\u043b\u0430\u0441\u0442\u044c","name:left:eo":"Lublina Provinco","name:left:en":"Lublin Voivodeship","name:right:ca":"Prov\u00edncia de Lviv","kind_detail":"4","name:left:nl":"Woiwodschap Lublin","id:left":-130919,"name:left:es":"Voivodato de Lublin","name:right:cs":"Lvovsk\u00e1 oblast","name:right:fi":"Lvivin alue","name:right:cv":"\u041b\u044c\u0432\u043e\u0432 \u043e\u0431\u043b\u0430\u00e7\u0115","name:right:ka":"\u10da\u10d5\u10dd\u10d5\u10d8\u10e1 \u10dd\u10da\u10e5\u10d8","name:right:zh-min-nan":"Lviv s\u00e9ng","name:right:pt":"Oblast de Lviv","name:left:ar":"\u0645\u062d\u0627\u0641\u0638\u0629 \u0644\u0648\u0628\u064a\u0644\u0633\u0643\u064a","name:right:ko":"\ub9ac\ube44\uc6b0 \uc8fc","name:right:bg":"\u041b\u0432\u043e\u0432\u0441\u043a\u0430 \u043e\u0431\u043b\u0430\u0441\u0442","name:right:sv":"Lviv oblast","name:right:tr":"Lviv Oblast\u0131","name:right:ru":"\u041b\u044c\u0432\u043e\u0432\u0441\u043a\u0430\u044f \u043e\u0431\u043b\u0430\u0441\u0442\u044c","name:right:pl":"Obw\u00f3d lwowski","osm_relation":true,"name:right:de":"Oblast Lemberg","name:left:de":"Woiwodschaft Lublin"},"arcs":[1]},{"type":"LineString","properties":{"name:right:hy":"\u054e\u0578\u056c\u056b\u0576\u056b \u0574\u0561\u0580\u0566","alt_name:left:en":"Lublin Province","name:right:yi":"\u05d5\u05d5\u05d0\u05d4\u05dc\u05d9\u05e0\u05e2\u05e8 \u05d2\u05d5\u05d1\u05e2\u05e8\u05e0\u05d9\u05e2","name:right:no":"Volyn oblast","alt_name:left:pl":"lubelskie","name:right:hr":"Volinjska oblast","name:right:hu":"Volinyi ter\u00fclet","name:right:lt":"Voluin\u0117s sritis","name:left:sl":"Lublinsko vojvodstvo","name:right:lv":"Vol\u012bnijas apgabals","name:left:lt":"Liublino vaivadija","name:left:sk":"Lubelsk\u00e9","loc_name:left":"lubelskie","short_name:left":"lubelskie","sort_rank":256,"name:right:sk":"Volynsk\u00e1 oblas\u0165","source":"openstreetmap.org","name:right:ar":"\u0641\u0648\u0644\u064a\u0646 \u0623\u0648\u0628\u0644\u0627\u0633\u062a","name:left:cs":"Lublinsk\u00e9 vojvodstv\u00ed","name:left":"wojew\u00f3dztwo lubelskie","name:right:es":"\u00d3blast de Volinia","name:left:ja":"\u30eb\u30d6\u30ea\u30f3\u770c","name:left:ka":"\u10da\u10e3\u10d1\u10da\u10d8\u10dc\u10d8\u10e1 \u10e1\u10d0\u10d5\u10dd\u10d4\u10d5\u10dd\u10d3\u10dd","name:right:eu":"Voliniako oblasta","name:right:et":"Vol\u00f5\u00f5nia oblast","name:right:it":"Oblast' di Volinia","name:right:vi":"Volyn (t\u1ec9nh)","name:right:ro":"Regiunea Vol\u00een","name:left:ru":"\u041b\u044e\u0431\u043b\u0438\u043d\u0441\u043a\u043e\u0435 \u0432\u043e\u0435\u0432\u043e\u0434\u0441\u0442\u0432\u043e","name:right:ms":"Oblast Volyn","name:right:mr":"\u0935\u094d\u0939\u094b\u0932\u093f\u0928 \u0913\u092c\u094d\u0932\u093e\u0938\u094d\u0924","name:right:id":"Oblast Volyn","name:right:eo":"Volina provinco","name:right:en":"Volyn Oblast","kind":"region","name":"wojew\u00f3dztwo lubelskie - \u0412\u043e\u043b\u0438\u043d\u0441\u044c\u043a\u0430 \u043e\u0431\u043b\u0430\u0441\u0442\u044c","min_zoom":8.0,"name:right:be":"\u0412\u0430\u043b\u044b\u043d\u0441\u043a\u0430\u044f \u0432\u043e\u0431\u043b\u0430\u0441\u0446\u044c","name:left:zh":"\u5362\u5e03\u6797\u7701","name:left:fr":"Vo\u00efvodie de Lublin","name:right:bs":"Volinjska oblast","name:right:zh":"\u6c83\u502b\u5dde","name:right:nn":"Volyn oblast","name:right:mk":"\u0412\u043e\u043b\u0438\u043d\u0441\u043a\u0430 \u043e\u0431\u043b\u0430\u0441\u0442","name:right:nl":"Oblast Wolyni\u00eb","name:right:ja":"\u30f4\u30a9\u30eb\u30a3\u30fc\u30cb\u5dde","name:right:fr":"Oblast de Volhynie","name:right:sr":"\u0412\u043e\u043b\u0438\u045a\u0441\u043a\u0430 \u043e\u0431\u043b\u0430\u0441\u0442","id:right":-71064,"name:left:uk":"\u041b\u044e\u0431\u043b\u0456\u043d\u0441\u044c\u043a\u0435 \u0432\u043e\u0454\u0432\u043e\u0434\u0441\u0442\u0432\u043e","name:right:sh":"Volinjska oblast","name:left:nl":"Woiwodschap Lublin","name:left:be":"\u041b\u044e\u0431\u043b\u0456\u043d\u0441\u043a\u0430\u0435 \u0432\u0430\u044f\u0432\u043e\u0434\u0441\u0442\u0432\u0430","name:right:fa":"\u0627\u0633\u062a\u0627\u0646 \u0648\u0644\u06cc\u0646","id":-130919,"name:right":"\u0412\u043e\u043b\u0438\u043d\u0441\u044c\u043a\u0430 \u043e\u0431\u043b\u0430\u0441\u0442\u044c","name:left:eo":"Lublina Provinco","name:left:en":"Lublin Voivodeship","name:right:ca":"Prov\u00edncia de Vol\u00ednia","kind_detail":"4","id:left":-130919,"name:left:es":"Voivodato de Lublin","name:right:cs":"Voly\u0148sk\u00e1 oblast","name:right:fi":"Volynian alue","name:right:cv":"\u0412\u043e\u043b\u044b\u043d\u044c \u043e\u0431\u043b\u0430\u00e7\u0115","name:right:ka":"\u10d5\u10dd\u10da\u10d8\u10dc\u10d8\u10e1 \u10dd\u10da\u10e5\u10d8","name:right:zh-min-nan":"Volyn s\u00e9ng","name:right:pt":"Oblast de Vol\u00ednia","name:left:ar":"\u0645\u062d\u0627\u0641\u0638\u0629 \u0644\u0648\u0628\u064a\u0644\u0633\u0643\u064a","name:right:ko":"\ubcfc\ub9b0 \uc8fc","name:right:bg":"\u0412\u043e\u043b\u0438\u043d\u0441\u043a\u0430 \u043e\u0431\u043b\u0430\u0441\u0442","name:right:sv":"Volyn oblast","name:right:tr":"Vol\u0131n Oblast\u0131","name:right:ru":"\u0412\u043e\u043b\u044b\u043d\u0441\u043a\u0430\u044f \u043e\u0431\u043b\u0430\u0441\u0442\u044c","name:right:pl":"Obw\u00f3d wo\u0142y\u0144ski","osm_relation":true,"name:right:de":"Oblast Wolhynien","name:left:de":"Woiwodschaft Lublin"},"arcs":[2]},{"type":"MultiLineString","properties":{"name:right:hy":"\u053c\u057e\u0578\u057e\u056b \u0574\u0561\u0580\u0566","name:right:no":"Lviv oblast","name:left:he":"\u05de\u05d7\u05d5\u05d6 \u05d8\u05e8\u05e0\u05d5\u05e4\u05d5\u05dc","name:right:hr":"Ljvivska oblast","name:left:sv":"Ternopil oblast","name:right:hu":"Lvivi ter\u00fclet","name:left:sr":"\u0422\u0435\u0440\u043d\u043e\u043f\u043e\u0459\u0441\u043a\u0430 \u043e\u0431\u043b\u0430\u0441\u0442","name:right:lt":"Lvovo sritis","name:right:lv":"\u013bvovas apgabals","name:left:lt":"Ternopilio sritis","name:left:sh":"Ternopiljska oblast","name:left:sk":"Ternopi\u013esk\u00e1 oblas\u0165","name:left:hu":"Ternopili ter\u00fclet","name:right:he":"\u05de\u05d7\u05d5\u05d6 \u05dc\u05d1\u05d5\u05d1","name:left:hr":"Ternopiljska oblast","name:right:os":"\u041b\u044c\u0432\u043e\u0432\u044b \u043e\u0431\u043b\u00e6\u0441\u0442","name:right:vi":"Lviv (t\u1ec9nh)","sort_rank":256,"name:left:ca":"Prov\u00edncia de Tern\u00f3pill","source":"openstreetmap.org","name:right:ar":"\u0644\u0641\u064a\u0641 \u0623\u0648\u0628\u0644\u0627\u0633\u062a","name:right:az":"Lvov vilay\u0259ti","name:left:cs":"Ternopilsk\u00e1 oblast","name:left":"\u0422\u0435\u0440\u043d\u043e\u043f\u0456\u043b\u044c\u0441\u044c\u043a\u0430 \u043e\u0431\u043b\u0430\u0441\u0442\u044c","name:right:es":"\u00d3blast de Le\u00f3polis","name:right:sh":"Lavovska oblast","name:right:sr":"\u041b\u0430\u0432\u043e\u0432\u0441\u043a\u0430 \u043e\u0431\u043b\u0430\u0441\u0442","name:left:ka":"\u10e2\u10d4\u10e0\u10dc\u10dd\u10de\u10dd\u10da\u10d8\u10e1 \u10dd\u10da\u10e5\u10d8","name:right:eu":"Lviveko oblasta","name:right:et":"Lvivi oblast","name:left:ko":"\ud14c\ub974\ub178\ud544 \uc8fc","name:right:it":"Oblast' di Leopoli","name:left:ro":"Regiunea Ternopil","name:right:ru":"\u041b\u044c\u0432\u043e\u0432\u0441\u043a\u0430\u044f \u043e\u0431\u043b\u0430\u0441\u0442\u044c","name:right:ro":"Regiunea Liov","name:left:ru":"\u0422\u0435\u0440\u043d\u043e\u043f\u043e\u043b\u044c\u0441\u043a\u0430\u044f \u043e\u0431\u043b\u0430\u0441\u0442\u044c","name:right:ms":"Oblast Lviv","name:right:mr":"\u0932\u093f\u0935\u094d\u0939\u093f\u0935 \u0913\u092c\u094d\u0932\u093e\u0938\u094d\u0924","name:right:id":"Oblast Lviv","name:right:eo":"Lviva provinco","name:right:en":"Lviv Oblast","name:left:vi":"Ternopil (t\u1ec9nh)","kind":"region","name":"\u0422\u0435\u0440\u043d\u043e\u043f\u0456\u043b\u044c\u0441\u044c\u043a\u0430 \u043e\u0431\u043b\u0430\u0441\u0442\u044c - \u041b\u044c\u0432\u0456\u0432\u0441\u044c\u043a\u0430 \u043e\u0431\u043b\u0430\u0441\u0442\u044c","name:left:fa":"\u0627\u0633\u062a\u0627\u0646 \u062a\u0631\u0646\u0648\u067e\u06cc\u0644","name:right:fa":"\u0627\u0633\u062a\u0627\u0646 \u0644\u0648\u0648\u0641","min_zoom":8.0,"name:right:be":"\u041b\u044c\u0432\u043e\u045e\u0441\u043a\u0430\u044f \u0432\u043e\u0431\u043b\u0430\u0441\u0446\u044c","name:left:zh":"\u6377\u723e\u8afe\u6ce2\u723e\u5dde","name:left:fr":"Oblast de Ternopil","name:right:zh":"\u5229\u6c83\u592b\u5dde","name:left:et":"Ternopili oblast","name:left:hy":"\u054f\u0565\u0580\u0576\u0578\u057a\u0578\u056c\u056b \u0574\u0561\u0580\u0566","name:right:nn":"Lviv oblast","name:right:mk":"\u041b\u0430\u0432\u043e\u0432\u0441\u043a\u0430 \u043e\u0431\u043b\u0430\u0441\u0442","name:right:nl":"Oblast Lviv","name:right:ja":"\u30ea\u30f4\u30a3\u30a6\u5dde","name:right:fr":"Oblast de Lviv","name:left:lv":"Ternopi\u013cas apgabals","name:left:ja":"\u30c6\u30eb\u30ce\u30fc\u30d4\u30ea\u5dde","id:right":-72380,"name:left:nn":"Ternopil oblast","name:left:no":"Ternopil oblast","name:right:sk":"\u013dvovsk\u00e1 oblas\u0165","name:left:bg":"\u0422\u0435\u0440\u043d\u043e\u043f\u043e\u043b\u0441\u043a\u0430 \u043e\u0431\u043b\u0430\u0441\u0442","name:left:be":"\u0426\u044f\u0440\u043d\u043e\u043f\u0430\u043b\u044c\u0441\u043a\u0430\u044f \u0432\u043e\u0431\u043b\u0430\u0441\u0446\u044c","name:left:fi":"Ternopilin alue","id":-72525,"name:right:fi":"Lvivin alue","name:left:eo":"Ternopila provinco","name:left:en":"Ternopil Oblast","name:right:ca":"Prov\u00edncia de Lviv","kind_detail":"4","name:left:mk":"\u0422\u0435\u0440\u043d\u043e\u043f\u043e\u043b\u0441\u043a\u0430 \u043e\u0431\u043b\u0430\u0441\u0442","name:left:nl":"Oblast Ternopil","id:left":-72525,"name:left:es":"\u00d3blast de Tern\u00f3pil","name:right:cs":"Lvovsk\u00e1 oblast","name:right":"\u041b\u044c\u0432\u0456\u0432\u0441\u044c\u043a\u0430 \u043e\u0431\u043b\u0430\u0441\u0442\u044c","name:left:eu":"Ternopilgo oblasta","name:right:cv":"\u041b\u044c\u0432\u043e\u0432 \u043e\u0431\u043b\u0430\u00e7\u0115","name:right:ka":"\u10da\u10d5\u10dd\u10d5\u10d8\u10e1 \u10dd\u10da\u10e5\u10d8","name:right:zh-min-nan":"Lviv s\u00e9ng","name:right:pt":"Oblast de Lviv","name:left:ar":"\u062a\u064a\u0631\u0646\u0648\u0628\u0644 \u0623\u0648\u0628\u0644\u0627\u0633\u062a","name:left:pl":"Obw\u00f3d tarnopolski","name:left:tr":"Ternopil Oblast\u0131","name:left:id":"Oblast Ternopil","name:right:tr":"Lviv Oblast\u0131","name:right:bg":"\u041b\u0432\u043e\u0432\u0441\u043a\u0430 \u043e\u0431\u043b\u0430\u0441\u0442","name:left:pt":"Oblast de Ternopil","name:left:mr":"\u0924\u0947\u0930\u094d\u0928\u094b\u092a\u093f\u0932 \u0913\u092c\u094d\u0932\u093e\u0938\u094d\u0924","name:right:sv":"Lviv oblast","name:right:ko":"\ub9ac\ube44\uc6b0 \uc8fc","name:left:zh-min-nan":"Ternopil s\u00e9ng","name:left:it":"Oblast' di Ternopil'","name:right:pl":"Obw\u00f3d lwowski","osm_relation":true,"name:right:de":"Oblast Lemberg","name:left:de":"Oblast Ternopil"},"arcs":[[3],[4]]},{"type":"LineString","properties":{"name:right:hy":"\u054c\u0578\u057e\u0576\u0578\u0575\u056b \u0574\u0561\u0580\u0566","name:left:he":"\u05de\u05d7\u05d5\u05d6 \u05dc\u05d1\u05d5\u05d1","name:right:hr":"Rivnenska oblast","name:left:sv":"Lviv oblast","name:left:sr":"\u041b\u0430\u0432\u043e\u0432\u0441\u043a\u0430 \u043e\u0431\u043b\u0430\u0441\u0442","name:right:lt":"Rivn\u0117s sritis","name:right:lv":"Rivnes apgabals","name:left:lt":"Lvovo sritis","name:left:sh":"Lavovska oblast","name:left:sk":"\u013dvovsk\u00e1 oblas\u0165","name:left:hu":"Lvivi ter\u00fclet","name:left:hr":"Ljvivska oblast","name:right:vi":"Rivne (t\u1ec9nh)","sort_rank":256,"name:left:ca":"Prov\u00edncia de Lviv","source":"openstreetmap.org","name:right:ar":"\u0631\u064a\u0641\u0646\u0627 \u0623\u0648\u0628\u0644\u0627\u0633\u062a","name:left:cv":"\u041b\u044c\u0432\u043e\u0432 \u043e\u0431\u043b\u0430\u00e7\u0115","name:left:cs":"Lvovsk\u00e1 oblast","name:left":"\u041b\u044c\u0432\u0456\u0432\u0441\u044c\u043a\u0430 \u043e\u0431\u043b\u0430\u0441\u0442\u044c","name:right:es":"\u00d3blast de Rivne","name:right:sr":"\u0420\u0438\u0432\u0430\u045a\u0441\u043a\u0430 \u043e\u0431\u043b\u0430\u0441\u0442","name:left:ka":"\u10da\u10d5\u10dd\u10d5\u10d8\u10e1 \u10dd\u10da\u10e5\u10d8","name:right:eu":"Rivneko oblasta","name:right:et":"Rivne oblast","name:left:ko":"\ub9ac\ube44\uc6b0 \uc8fc","name:right:it":"Oblast' di Rivne","name:left:ro":"Regiunea Liov","name:right:ru":"\u0420\u043e\u0432\u0435\u043d\u0441\u043a\u0430\u044f \u043e\u0431\u043b\u0430\u0441\u0442\u044c","name:right:ro":"Regiunea Rivne","name:left:ru":"\u041b\u044c\u0432\u043e\u0432\u0441\u043a\u0430\u044f \u043e\u0431\u043b\u0430\u0441\u0442\u044c","name:right:ms":"Oblast Rivne","name:right:mr":"\u0930\u093f\u0935\u094d\u0939\u094d\u0928\u0947 \u0913\u092c\u094d\u0932\u093e\u0938\u094d\u0924","name:right:id":"Oblast Rivne","name:right:eo":"Rivna provinco","name:right:en":"Rivne Oblast","name:left:vi":"Lviv (t\u1ec9nh)","kind":"region","name":"\u041b\u044c\u0432\u0456\u0432\u0441\u044c\u043a\u0430 \u043e\u0431\u043b\u0430\u0441\u0442\u044c - \u0420\u0456\u0432\u043d\u0435\u043d\u0441\u044c\u043a\u0430 \u043e\u0431\u043b\u0430\u0441\u0442\u044c","name:left:fa":"\u0627\u0633\u062a\u0627\u0646 \u0644\u0648\u0648\u0641","name:right:fa":"\u0627\u0633\u062a\u0627\u0646 \u0631\u06cc\u0648\u0646\u0647","min_zoom":8.0,"name:right:be":"\u0420\u043e\u0432\u0435\u043d\u0441\u043a\u0430\u044f \u0432\u043e\u0431\u043b\u0430\u0441\u0446\u044c","name:left:zh":"\u5229\u6c83\u592b\u5dde","name:left:fr":"Oblast de Lviv","name:right:zh":"\u7f85\u592b\u8afe\u5dde","name:left:hy":"\u053c\u057e\u0578\u057e\u056b \u0574\u0561\u0580\u0566","name:right:nn":"Rivne oblast","name:right:no":"Rivne oblast","name:right:nl":"Oblast Rivne","name:right:ja":"\u30ea\u30a6\u30cd\u5dde","name:right:fr":"Oblast de Rivne","name:left:lv":"\u013bvovas apgabals","name:left:ja":"\u30ea\u30f4\u30a3\u30a6\u5dde","id:right":-71236,"name:left:nn":"Lviv oblast","name:right:sh":"Rivnenska oblast","name:right:sk":"Rivnensk\u00e1 oblas\u0165","name:left:bg":"\u041b\u0432\u043e\u0432\u0441\u043a\u0430 \u043e\u0431\u043b\u0430\u0441\u0442","name:left:be":"\u041b\u044c\u0432\u043e\u045e\u0441\u043a\u0430\u044f \u0432\u043e\u0431\u043b\u0430\u0441\u0446\u044c","name:left:no":"Lviv oblast","name:left:fi":"Lvivin alue","id":-72380,"name:right:fi":"Rivnen alue","name:left:eo":"Lviva provinco","name:left:en":"Lviv Oblast","name:right:ca":"Prov\u00edncia de Rivne","kind_detail":"4","name:left:mk":"\u041b\u0430\u0432\u043e\u0432\u0441\u043a\u0430 \u043e\u0431\u043b\u0430\u0441\u0442","name:left:nl":"Oblast Lviv","id:left":-72380,"name:left:es":"\u00d3blast de Le\u00f3polis","name:right:cs":"Rovensk\u00e1 oblast","name:right":"\u0420\u0456\u0432\u043d\u0435\u043d\u0441\u044c\u043a\u0430 \u043e\u0431\u043b\u0430\u0441\u0442\u044c","name:left:os":"\u041b\u044c\u0432\u043e\u0432\u044b \u043e\u0431\u043b\u00e6\u0441\u0442","name:left:eu":"Lviveko oblasta","name:left:et":"Lvivi oblast","name:right:mk":"\u0420\u043e\u0432\u0435\u043d\u0441\u043a\u0430 \u043e\u0431\u043b\u0430\u0441\u0442","name:right:zh-min-nan":"Rivne s\u00e9ng","name:right:pt":"Oblast de Rivne","name:left:ar":"\u0644\u0641\u064a\u0641 \u0623\u0648\u0628\u0644\u0627\u0633\u062a","name:left:pl":"Obw\u00f3d lwowski","name:left:tr":"Lviv Oblast\u0131","name:left:id":"Oblast Lviv","name:left:az":"Lvov vilay\u0259ti","name:right:tr":"Rivne Oblast\u0131","name:right:bg":"\u0420\u043e\u0432\u0435\u043d\u0441\u043a\u0430 \u043e\u0431\u043b\u0430\u0441\u0442","name:left:ms":"Oblast Lviv","name:left:mr":"\u0932\u093f\u0935\u094d\u0939\u093f\u0935 \u0913\u092c\u094d\u0932\u093e\u0938\u094d\u0924","name:right:sv":"Rivne oblast","name:right:ko":"\ub9ac\uc6b0\ub124 \uc8fc","name:left:zh-min-nan":"Lviv s\u00e9ng","name:left:it":"Oblast' di Leopoli","name:right:pl":"Obw\u00f3d r\u00f3wie\u0144ski","osm_relation":true,"name:left:pt":"Oblast de Lviv","name:right:ka":"\u10e0\u10dd\u10d5\u10dc\u10dd\u10e1 \u10dd\u10da\u10e5\u10d8","name:right:de":"Oblast Riwne","name:left:de":"Oblast Lemberg"},"arcs":[5]},{"type":"LineString","properties":{"name:right:hy":"\u054e\u0578\u056c\u056b\u0576\u056b \u0574\u0561\u0580\u0566","name:right:yi":"\u05d5\u05d5\u05d0\u05d4\u05dc\u05d9\u05e0\u05e2\u05e8 \u05d2\u05d5\u05d1\u05e2\u05e8\u05e0\u05d9\u05e2","name:left:he":"\u05de\u05d7\u05d5\u05d6 \u05dc\u05d1\u05d5\u05d1","name:right:hr":"Volinjska oblast","name:left:sv":"Lviv oblast","name:right:hu":"Volinyi ter\u00fclet","name:left:sr":"\u041b\u0430\u0432\u043e\u0432\u0441\u043a\u0430 \u043e\u0431\u043b\u0430\u0441\u0442","name:right:lt":"Voluin\u0117s sritis","name:right:lv":"Vol\u012bnijas apgabals","name:left:lt":"Lvovo sritis","name:left:sh":"Lavovska oblast","name:left:sk":"\u013dvovsk\u00e1 oblas\u0165","name:left:hu":"Lvivi ter\u00fclet","name:left:hr":"Ljvivska oblast","name:right:vi":"Volyn (t\u1ec9nh)","sort_rank":256,"name:left:ca":"Prov\u00edncia de Lviv","source":"openstreetmap.org","name:right:ar":"\u0641\u0648\u0644\u064a\u0646 \u0623\u0648\u0628\u0644\u0627\u0633\u062a","name:left:cv":"\u041b\u044c\u0432\u043e\u0432 \u043e\u0431\u043b\u0430\u00e7\u0115","name:left:cs":"Lvovsk\u00e1 oblast","name:left":"\u041b\u044c\u0432\u0456\u0432\u0441\u044c\u043a\u0430 \u043e\u0431\u043b\u0430\u0441\u0442\u044c","name:right:es":"\u00d3blast de Volinia","name:right:sr":"\u0412\u043e\u043b\u0438\u045a\u0441\u043a\u0430 \u043e\u0431\u043b\u0430\u0441\u0442","name:left:ka":"\u10da\u10d5\u10dd\u10d5\u10d8\u10e1 \u10dd\u10da\u10e5\u10d8","name:right:eu":"Voliniako oblasta","name:right:et":"Vol\u00f5\u00f5nia oblast","name:left:ko":"\ub9ac\ube44\uc6b0 \uc8fc","name:right:it":"Oblast' di Volinia","name:left:ro":"Regiunea Liov","name:right:ru":"\u0412\u043e\u043b\u044b\u043d\u0441\u043a\u0430\u044f \u043e\u0431\u043b\u0430\u0441\u0442\u044c","name:right:ro":"Regiunea Vol\u00een","name:left:ru":"\u041b\u044c\u0432\u043e\u0432\u0441\u043a\u0430\u044f \u043e\u0431\u043b\u0430\u0441\u0442\u044c","name:right:ms":"Oblast Volyn","name:right:mr":"\u0935\u094d\u0939\u094b\u0932\u093f\u0928 \u0913\u092c\u094d\u0932\u093e\u0938\u094d\u0924","name:right:id":"Oblast Volyn","name:right:eo":"Volina provinco","name:right:en":"Volyn Oblast","name:left:vi":"Lviv (t\u1ec9nh)","kind":"region","name":"\u041b\u044c\u0432\u0456\u0432\u0441\u044c\u043a\u0430 \u043e\u0431\u043b\u0430\u0441\u0442\u044c - \u0412\u043e\u043b\u0438\u043d\u0441\u044c\u043a\u0430 \u043e\u0431\u043b\u0430\u0441\u0442\u044c","name:left:fa":"\u0627\u0633\u062a\u0627\u0646 \u0644\u0648\u0648\u0641","name:right:fa":"\u0627\u0633\u062a\u0627\u0646 \u0648\u0644\u06cc\u0646","min_zoom":8.0,"name:right:be":"\u0412\u0430\u043b\u044b\u043d\u0441\u043a\u0430\u044f \u0432\u043e\u0431\u043b\u0430\u0441\u0446\u044c","name:left:zh":"\u5229\u6c83\u592b\u5dde","name:left:fr":"Oblast de Lviv","name:right:bs":"Volinjska oblast","name:right:zh":"\u6c83\u502b\u5dde","name:left:et":"Lvivi oblast","name:left:hy":"\u053c\u057e\u0578\u057e\u056b \u0574\u0561\u0580\u0566","name:right:nn":"Volyn oblast","name:right:no":"Volyn oblast","name:right:nl":"Oblast Wolyni\u00eb","name:right:ja":"\u30f4\u30a9\u30eb\u30a3\u30fc\u30cb\u5dde","name:right:fr":"Oblast de Volhynie","name:left:lv":"\u013bvovas apgabals","name:left:ja":"\u30ea\u30f4\u30a3\u30a6\u5dde","id:right":-71064,"name:left:nn":"Lviv oblast","name:right:sh":"Volinjska oblast","name:right:sk":"Volynsk\u00e1 oblas\u0165","name:left:bg":"\u041b\u0432\u043e\u0432\u0441\u043a\u0430 \u043e\u0431\u043b\u0430\u0441\u0442","name:left:be":"\u041b\u044c\u0432\u043e\u045e\u0441\u043a\u0430\u044f \u0432\u043e\u0431\u043b\u0430\u0441\u0446\u044c","name:left:no":"Lviv oblast","name:left:fi":"Lvivin alue","id":-72380,"name:right:fi":"Volynian alue","name:left:eo":"Lviva provinco","name:left:en":"Lviv Oblast","name:right:ca":"Prov\u00edncia de Vol\u00ednia","kind_detail":"4","name:left:mk":"\u041b\u0430\u0432\u043e\u0432\u0441\u043a\u0430 \u043e\u0431\u043b\u0430\u0441\u0442","name:left:nl":"Oblast Lviv","id:left":-72380,"name:left:es":"\u00d3blast de Le\u00f3polis","name:right:cs":"Voly\u0148sk\u00e1 oblast","name:right":"\u0412\u043e\u043b\u0438\u043d\u0441\u044c\u043a\u0430 \u043e\u0431\u043b\u0430\u0441\u0442\u044c","name:left:os":"\u041b\u044c\u0432\u043e\u0432\u044b \u043e\u0431\u043b\u00e6\u0441\u0442","name:left:eu":"Lviveko oblasta","name:right:cv":"\u0412\u043e\u043b\u044b\u043d\u044c \u043e\u0431\u043b\u0430\u00e7\u0115","name:right:mk":"\u0412\u043e\u043b\u0438\u043d\u0441\u043a\u0430 \u043e\u0431\u043b\u0430\u0441\u0442","name:right:zh-min-nan":"Volyn s\u00e9ng","name:right:pt":"Oblast de Vol\u00ednia","name:left:ar":"\u0644\u0641\u064a\u0641 \u0623\u0648\u0628\u0644\u0627\u0633\u062a","name:left:pl":"Obw\u00f3d lwowski","name:left:tr":"Lviv Oblast\u0131","name:left:id":"Oblast Lviv","name:left:az":"Lvov vilay\u0259ti","name:right:tr":"Vol\u0131n Oblast\u0131","name:right:bg":"\u0412\u043e\u043b\u0438\u043d\u0441\u043a\u0430 \u043e\u0431\u043b\u0430\u0441\u0442","name:left:ms":"Oblast Lviv","name:left:mr":"\u0932\u093f\u0935\u094d\u0939\u093f\u0935 \u0913\u092c\u094d\u0932\u093e\u0938\u094d\u0924","name:right:sv":"Volyn oblast","name:right:ko":"\ubcfc\ub9b0 \uc8fc","name:left:zh-min-nan":"Lviv s\u00e9ng","name:left:it":"Oblast' di Leopoli","name:right:pl":"Obw\u00f3d wo\u0142y\u0144ski","osm_relation":true,"name:left:pt":"Oblast de Lviv","name:right:ka":"\u10d5\u10dd\u10da\u10d8\u10dc\u10d8\u10e1 \u10dd\u10da\u10e5\u10d8","name:right:de":"Oblast Wolhynien","name:left:de":"Oblast Lemberg"},"arcs":[6]},{"type":"MultiLineString","properties":{"name:right:hy":"\u054e\u0578\u056c\u056b\u0576\u056b \u0574\u0561\u0580\u0566","name:right:yi":"\u05d5\u05d5\u05d0\u05d4\u05dc\u05d9\u05e0\u05e2\u05e8 \u05d2\u05d5\u05d1\u05e2\u05e8\u05e0\u05d9\u05e2","name:right:hr":"Volinjska oblast","name:left:sv":"Rivne oblast","name:right:hu":"Volinyi ter\u00fclet","name:left:sr":"\u0420\u0438\u0432\u0430\u045a\u0441\u043a\u0430 \u043e\u0431\u043b\u0430\u0441\u0442","name:right:lt":"Voluin\u0117s sritis","name:right:lv":"Vol\u012bnijas apgabals","name:left:lt":"Rivn\u0117s sritis","name:left:sh":"Rivnenska oblast","name:left:sk":"Rivnensk\u00e1 oblas\u0165","name:left:hr":"Rivnenska oblast","name:right:vi":"Volyn (t\u1ec9nh)","sort_rank":256,"name:left:ca":"Prov\u00edncia de Rivne","source":"openstreetmap.org","name:right:ar":"\u0641\u0648\u0644\u064a\u0646 \u0623\u0648\u0628\u0644\u0627\u0633\u062a","name:left:cs":"Rovensk\u00e1 oblast","name:left":"\u0420\u0456\u0432\u043d\u0435\u043d\u0441\u044c\u043a\u0430 \u043e\u0431\u043b\u0430\u0441\u0442\u044c","name:right:es":"\u00d3blast de Volinia","name:right:sr":"\u0412\u043e\u043b\u0438\u045a\u0441\u043a\u0430 \u043e\u0431\u043b\u0430\u0441\u0442","name:left:ka":"\u10e0\u10dd\u10d5\u10dc\u10dd\u10e1 \u10dd\u10da\u10e5\u10d8","name:right:eu":"Voliniako oblasta","name:right:et":"Vol\u00f5\u00f5nia oblast","name:left:ko":"\ub9ac\uc6b0\ub124 \uc8fc","name:right:it":"Oblast' di Volinia","name:left:ro":"Regiunea Rivne","name:right:ru":"\u0412\u043e\u043b\u044b\u043d\u0441\u043a\u0430\u044f \u043e\u0431\u043b\u0430\u0441\u0442\u044c","name:right:ro":"Regiunea Vol\u00een","name:left:ru":"\u0420\u043e\u0432\u0435\u043d\u0441\u043a\u0430\u044f \u043e\u0431\u043b\u0430\u0441\u0442\u044c","name:right:ms":"Oblast Volyn","name:right:mr":"\u0935\u094d\u0939\u094b\u0932\u093f\u0928 \u0913\u092c\u094d\u0932\u093e\u0938\u094d\u0924","name:right:id":"Oblast Volyn","name:right:eo":"Volina provinco","name:right:en":"Volyn Oblast","name:left:vi":"Rivne (t\u1ec9nh)","kind":"region","name":"\u0420\u0456\u0432\u043d\u0435\u043d\u0441\u044c\u043a\u0430 \u043e\u0431\u043b\u0430\u0441\u0442\u044c - \u0412\u043e\u043b\u0438\u043d\u0441\u044c\u043a\u0430 \u043e\u0431\u043b\u0430\u0441\u0442\u044c","name:left:fa":"\u0627\u0633\u062a\u0627\u0646 \u0631\u06cc\u0648\u0646\u0647","name:right:fa":"\u0627\u0633\u062a\u0627\u0646 \u0648\u0644\u06cc\u0646","min_zoom":8.0,"name:right:be":"\u0412\u0430\u043b\u044b\u043d\u0441\u043a\u0430\u044f \u0432\u043e\u0431\u043b\u0430\u0441\u0446\u044c","name:left:zh":"\u7f85\u592b\u8afe\u5dde","name:left:fr":"Oblast de Rivne","name:right:bs":"Volinjska oblast","name:right:zh":"\u6c83\u502b\u5dde","name:left:et":"Rivne oblast","name:left:hy":"\u054c\u0578\u057e\u0576\u0578\u0575\u056b \u0574\u0561\u0580\u0566","name:right:nn":"Volyn oblast","name:right:no":"Volyn oblast","name:right:nl":"Oblast Wolyni\u00eb","name:right:ja":"\u30f4\u30a9\u30eb\u30a3\u30fc\u30cb\u5dde","name:right:fr":"Oblast de Volhynie","name:left:lv":"Rivnes apgabals","name:left:ja":"\u30ea\u30a6\u30cd\u5dde","id:right":-71064,"name:left:nn":"Rivne oblast","name:right:sh":"Volinjska oblast","name:right:sk":"Volynsk\u00e1 oblas\u0165","name:left:bg":"\u0420\u043e\u0432\u0435\u043d\u0441\u043a\u0430 \u043e\u0431\u043b\u0430\u0441\u0442","name:left:be":"\u0420\u043e\u0432\u0435\u043d\u0441\u043a\u0430\u044f \u0432\u043e\u0431\u043b\u0430\u0441\u0446\u044c","name:left:no":"Rivne oblast","name:left:fi":"Rivnen alue","id":-71236,"name:right:fi":"Volynian alue","name:left:eo":"Rivna provinco","name:left:en":"Rivne Oblast","name:right:ca":"Prov\u00edncia de Vol\u00ednia","kind_detail":"4","name:left:mk":"\u0420\u043e\u0432\u0435\u043d\u0441\u043a\u0430 \u043e\u0431\u043b\u0430\u0441\u0442","name:left:nl":"Oblast Rivne","id:left":-71236,"name:left:es":"\u00d3blast de Rivne","name:right:cs":"Voly\u0148sk\u00e1 oblast","name:right":"\u0412\u043e\u043b\u0438\u043d\u0441\u044c\u043a\u0430 \u043e\u0431\u043b\u0430\u0441\u0442\u044c","name:left:eu":"Rivneko oblasta","name:right:cv":"\u0412\u043e\u043b\u044b\u043d\u044c \u043e\u0431\u043b\u0430\u00e7\u0115","name:right:mk":"\u0412\u043e\u043b\u0438\u043d\u0441\u043a\u0430 \u043e\u0431\u043b\u0430\u0441\u0442","name:right:zh-min-nan":"Volyn s\u00e9ng","name:right:pt":"Oblast de Vol\u00ednia","name:left:ar":"\u0631\u064a\u0641\u0646\u0627 \u0623\u0648\u0628\u0644\u0627\u0633\u062a","name:left:pl":"Obw\u00f3d r\u00f3wie\u0144ski","name:left:tr":"Rivne Oblast\u0131","name:left:id":"Oblast Rivne","name:right:tr":"Vol\u0131n Oblast\u0131","name:right:bg":"\u0412\u043e\u043b\u0438\u043d\u0441\u043a\u0430 \u043e\u0431\u043b\u0430\u0441\u0442","name:left:ms":"Oblast Rivne","name:left:mr":"\u0930\u093f\u0935\u094d\u0939\u094d\u0928\u0947 \u0913\u092c\u094d\u0932\u093e\u0938\u094d\u0924","name:right:sv":"Volyn oblast","name:right:ko":"\ubcfc\ub9b0 \uc8fc","name:left:zh-min-nan":"Rivne s\u00e9ng","name:left:it":"Oblast' di Rivne","name:right:pl":"Obw\u00f3d wo\u0142y\u0144ski","osm_relation":true,"name:left:pt":"Oblast de Rivne","name:right:ka":"\u10d5\u10dd\u10da\u10d8\u10dc\u10d8\u10e1 \u10dd\u10da\u10e5\u10d8","name:right:de":"Oblast Wolhynien","name:left:de":"Oblast Riwne"},"arcs":[[7],[8]]}]},"roads":{"type":"GeometryCollection","geometries":[{"type":"LineString","properties":{"bus_network":null,"name:en":"Horodotska Street","sort_rank":380,"landuse_kind":"urban_area","kind":"major_road","name:de":"Grodecker Stra\u00dfe","source":"openstreetmap.org","min_zoom":8.0,"bus_shield_text":"6\u0410","name:ru":"\u0413\u043e\u0440\u043e\u0434\u043e\u0446\u043a\u0430\u044f \u0443\u043b\u0438\u0446\u0430","kind_detail":"primary","name:pl":"ulica Gr\u00f3decka"},"arcs":[15]},{"type":"LineString","properties":{"kind":"major_road","name:en":"Bohdana Khmelnytskoho Street","sort_rank":380,"kind_detail":"primary","source":"openstreetmap.org","min_zoom":8.0,"name:be":"\u0411\u0430\u0433\u0434\u0430\u043d\u0430 \u0425\u043c\u044f\u043b\u044c\u043d\u0456\u0446\u043a\u0430\u0433\u0430 \u0432\u0443\u043b\u0456\u0446\u0430","name:ru":"\u0411\u043e\u0433\u0434\u0430\u043d\u0430 \u0425\u043c\u0435\u043b\u044c\u043d\u0438\u0446\u043a\u043e\u0433\u043e \u0443\u043b\u0438\u0446\u0430","id":462400335},"arcs":[16]},{"type":"LineString","properties":{"bus_network":"regional","network":"e-road","sort_rank":381,"kind_detail":"trunk","kind":"major_road","source":"openstreetmap.org","min_zoom":8.0,"bus_shield_text":null,"shield_text":"372","landuse_kind":"urban_area","ref":"\u041c-09"},"arcs":[17]},{"type":"LineString","properties":{"kind":"major_road","name:en":"Stoianivska Street","network":"ua:national","sort_rank":380,"kind_detail":"primary","source":"openstreetmap.org","min_zoom":8.0,"shield_text":"17","name:ru":"\u0421\u0442\u043e\u044f\u043d\u043e\u0432\u0441\u043a\u0430\u044f \u0443\u043b\u0438\u0446\u0430","ref":"\u041d-17"},"arcs":[18]},{"type":"MultiLineString","properties":{"bus_network":null,"name:en":"Tarasa Shevchenka Street","sort_rank":380,"kind_detail":"primary","kind":"major_road","source":"openstreetmap.org","min_zoom":8.0,"bus_shield_text":"6\u0410","name:ru":"\u0422\u0430\u0440\u0430\u0441\u0430 \u0428\u0435\u0432\u0447\u0435\u043d\u043a\u043e \u0443\u043b\u0438\u0446\u0430","name:pl":"ulica Tarasa Szewczenki","landuse_kind":"urban_area"},"arcs":[[19],[20]]},{"type":"LineString","properties":{"kind":"major_road","network":null,"sort_rank":380,"kind_detail":"primary","source":"openstreetmap.org","min_zoom":8.0,"shield_text":"141218","ref":"\u0421141218","id":150103616},"arcs":[21]},{"type":"MultiLineString","properties":{"bus_network":"regional","network":"ua:national","sort_rank":380,"kind_detail":"primary","kind":"major_road","source":"openstreetmap.org","min_zoom":8.0,"bus_shield_text":"255","shield_text":"17","ref":"\u041d-17"},"arcs":[[22],[23]]},{"type":"LineString","properties":{"old_name:uk":"\u041b\u0435\u043d\u0456\u043d\u0430 \u0432\u0443\u043b\u0438\u0446\u044f","bus_network":null,"name:en":"Lychakivska Street","sort_rank":380,"kind_detail":"primary","old_name:ru":"\u041b\u0435\u043d\u0438\u043d\u0430 \u0443\u043b\u0438\u0446\u0430","kind":"major_road","name:de":"Lyczakower Gasse","source":"openstreetmap.org","name:fr":"Rue L\u00e9tchakivska","bus_shield_text":"5\u0410","name:ru":"\u041b\u044b\u0447\u0430\u043a\u043e\u0432\u0441\u043a\u0430\u044f \u0443\u043b\u0438\u0446\u0430","min_zoom":8.0,"landuse_kind":"urban_area","name:pl":"ulica \u0141yczakowska"},"arcs":[24]},{"type":"LineString","properties":{"old_name:pl":"ul. Karola Ludwika","bus_network":null,"min_zoom":8.0,"old_name:en":"Lenin Avenue","bus_shield_text":"4\u0410","name:ru":"\u0421\u0432\u043e\u0431\u043e\u0434\u044b \u043f\u0440\u043e\u0441\u043f\u0435\u043a\u0442","name:pl":"Aleja Swobody","id":161701604,"old_name:uk":"\u041b\u0435\u043d\u0456\u043d\u0430 \u043f\u0440\u043e\u0441\u043f\u0435\u043a\u0442","kind":"major_road","name:en":"Svobody Avenue","sort_rank":380,"kind_detail":"primary","old_name:ru":"\u041b\u0435\u043d\u0438\u043d\u0430 \u043f\u0440\u043e\u0441\u043f\u0435\u043a\u0442","old_name:de":"Carl-Ludwig-Stra\u00dfe","source":"openstreetmap.org","name:fr":"Avenue Svobod\u00e9","landuse_kind":"urban_area","name:zh":"\u81ea\u7531\u5927\u9053"},"arcs":[25]},{"type":"LineString","properties":{"bus_network":"regional","network":"ua:national","sort_rank":380,"kind_detail":"primary","kind":"major_road","source":"openstreetmap.org","min_zoom":8.0,"bus_shield_text":"791","shield_text":"02","landuse_kind":"residential","ref":"\u041d-02"},"arcs":[26]},{"type":"LineString","properties":{"bus_network":null,"name:en":"Bohdana Khmelnytskoho Street","network":"e-road","sort_rank":380,"kind_detail":"primary","kind":"major_road","name:ru":"\u0411\u043e\u0433\u0434\u0430\u043d\u0430 \u0425\u043c\u0435\u043b\u044c\u043d\u0438\u0446\u043a\u043e\u0433\u043e \u0443\u043b\u0438\u0446\u0430","source":"openstreetmap.org","name:fr":"Rue Bohdana Khmeln\u00e9tskoho","bus_shield_text":"7","shield_text":"372","name:be":"\u0411\u0430\u0433\u0434\u0430\u043d\u0430 \u0425\u043c\u044f\u043b\u044c\u043d\u0456\u0446\u043a\u0430\u0433\u0430 \u0432\u0443\u043b\u0456\u0446\u0430","min_zoom":8.0,"landuse_kind":"urban_area","id":164793934},"arcs":[27]},{"type":"LineString","properties":{"kind":"major_road","name:en":"Ternopilska Street","network":"ua:regional","sort_rank":380,"kind_detail":"primary","source":"openstreetmap.org","min_zoom":8.0,"shield_text":"39","name:ru":"\u0422\u0435\u0440\u043d\u043e\u043f\u043e\u043b\u044c\u0441\u043a\u0430\u044f \u0443\u043b\u0438\u0446\u0430","name:pl":"ulica Tarnopolska","ref":"\u0420-39"},"arcs":[28]},{"type":"LineString","properties":{"kind":"major_road","name:en":"Petra Sahaidachnoho Street","network":"e-road","sort_rank":381,"kind_detail":"trunk","bus_network":"regional","source":"openstreetmap.org","min_zoom":8.0,"bus_shield_text":null,"shield_text":"372","name:ru":"\u041f\u0435\u0442\u0440\u0430 \u0421\u0430\u0433\u0430\u0439\u0434\u0430\u0447\u043d\u043e\u0433\u043e \u0443\u043b\u0438\u0446\u0430","ref":"\u041c-09","id":423196362},"arcs":[29]},{"type":"LineString","properties":{"bus_network":"regional","network":"e-road","sort_rank":381,"kind_detail":"trunk","kind":"major_road","source":"openstreetmap.org","min_zoom":8.0,"bus_shield_text":null,"shield_text":"372","landuse_kind":"urban_area","ref":"M-09"},"arcs":[30]},{"type":"LineString","properties":{"kind":"major_road","name:en":"Kniazia Yaroslava Osmomysla Square","sort_rank":380,"kind_detail":"primary","bus_network":null,"old_name:de":"Krakauer Platz","source":"openstreetmap.org","min_zoom":8.0,"bus_shield_text":"26","name:ru":"\u041a\u043d\u044f\u0437\u044f \u042f\u0440\u043e\u0441\u043b\u0430\u0432\u0430 \u041e\u0441\u043c\u043e\u043c\u044b\u0441\u043b\u0430 \u043f\u043b\u043e\u0449\u0430\u0434\u044c","landuse_kind":"urban_area","id":150812648},"arcs":[31]},{"type":"LineString","properties":{"kind":"major_road","network":null,"sort_rank":380,"kind_detail":"primary","source":"openstreetmap.org","min_zoom":8.0,"landuse_kind":"urban_area","shield_text":"141218","ref":"\u0421141218","id":150103616},"arcs":[32]},{"type":"MultiLineString","properties":{"old_name:uk":"700-\u0440\u0456\u0447\u0447\u044f \u041b\u044c\u0432\u043e\u0432\u0430","bus_network":null,"name:en":"Viacheslava Chornovola Avenue","sort_rank":380,"kind_detail":"primary","old_name:ru":"700-\u043b\u0435\u0442\u0438\u044f \u041b\u044c\u0432\u043e\u0432\u0430","kind":"major_road","source":"openstreetmap.org","min_zoom":8.0,"bus_shield_text":"1\u0410","name:ru":"\u0412\u044f\u0447\u0435\u0441\u043b\u0430\u0432\u0430 \u0427\u0435\u0440\u043d\u043e\u0432\u043e\u043b\u0430 \u043f\u0440\u043e\u0441\u043f\u0435\u043a\u0442","landuse_kind":"urban_area"},"arcs":[[33],[34]]},{"type":"MultiLineString","properties":{"kind":"major_road","name:en":"Lvivska Street","sort_rank":380,"kind_detail":"primary","bus_network":null,"source":"openstreetmap.org","min_zoom":8.0,"bus_shield_text":"4","name:ru":"\u041b\u044c\u0432\u043e\u0432\u0441\u043a\u0430\u044f \u0443\u043b\u0438\u0446\u0430","id":130175304},"arcs":[[35],[36]]},{"type":"LineString","properties":{"kind":"major_road","name:en":"Lvivska Street","network":"ua:national","sort_rank":380,"kind_detail":"primary","source":"openstreetmap.org","min_zoom":8.0,"shield_text":"17","name:ru":"\u041b\u044c\u0432\u043e\u0432\u0441\u043a\u0430\u044f \u0443\u043b\u0438\u0446\u0430","name:pl":"Lwowska","ref":"\u041d-17","id":239809707},"arcs":[37]},{"type":"MultiLineString","properties":{"old_name:uk":"\u041b\u0435\u043d\u0456\u043d\u0430 \u0432\u0443\u043b\u0438\u0446\u044f","bus_network":null,"name:en":"Lychakivska Street","sort_rank":380,"kind_detail":"primary","old_name:ru":"\u041b\u0435\u043d\u0438\u043d\u0430 \u0443\u043b\u0438\u0446\u0430","name:fr":"Rue Lytchakyvska","name:de":"Lyczakower Gasse","source":"openstreetmap.org","min_zoom":8.0,"bus_shield_text":"5\u0410","name:ru":"\u041b\u044b\u0447\u0430\u043a\u043e\u0432\u0441\u043a\u0430\u044f \u0443\u043b\u0438\u0446\u0430","name:pl":"ulica \u0141yczakowska","landuse_kind":"urban_area","kind":"major_road"},"arcs":[[38],[39]]},{"type":"MultiLineString","properties":{"kind":"major_road","network":"e-road","sort_rank":381,"kind_detail":"trunk","source":"openstreetmap.org","min_zoom":8.0,"landuse_kind":"residential","shield_text":"40","ref":"\u041c-06"},"arcs":[[40],[41],[42],[43]]},{"type":"LineString","properties":{"kind":"major_road","name:en":"Soborna Square","sort_rank":380,"kind_detail":"primary","min_zoom":8.0,"bus_network":null,"name:de":"Bernhardinerplatz","source":"openstreetmap.org","name:fr":"Place Soborna","bus_shield_text":"1\u0410","name:ru":"\u0421\u043e\u0431\u043e\u0440\u043d\u0430\u044f \u043f\u043b\u043e\u0449\u0430\u0434\u044c","name:pl":"plac Bernardy\u0144ski","landuse_kind":"urban_area","id":57379041},"arcs":[44]},{"type":"MultiLineString","properties":{"bus_network":null,"name:en":"Viacheslava Lypynskoho Street","sort_rank":380,"kind_detail":"primary","old_name:ru":"\u0423\u043b\u044c\u044f\u043d\u043e\u0432\u0441\u043a\u0430\u044f \u0443\u043b\u0438\u0446\u0430","kind":"major_road","source":"openstreetmap.org","min_zoom":8.0,"bus_shield_text":"1\u0410","name:ru":"\u0412\u044f\u0447\u0435\u0441\u043b\u0430\u0432\u0430 \u041b\u0438\u043f\u0438\u043d\u0441\u043a\u043e\u0433\u043e \u0443\u043b\u0438\u0446\u0430","landuse_kind":"urban_area"},"arcs":[[45],[46]]},{"type":"MultiLineString","properties":{"sort_rank":380,"kind_detail":"primary","min_zoom":8.0,"kind":"major_road","source":"openstreetmap.org"},"arcs":[[47],[48],[49],[50],[51],[52],[53],[54],[55],[56],[57]]},{"type":"MultiLineString","properties":{"bus_network":"regional","network":"e-road","sort_rank":381,"kind_detail":"trunk","kind":"major_road","source":"openstreetmap.org","min_zoom":8.0,"bus_shield_text":"791","shield_text":"40","ref":"\u041c-06"},"arcs":[[58],[59],[60],[61]]},{"type":"LineString","properties":{"kind":"major_road","name:en":"Halytska Square","sort_rank":380,"kind_detail":"primary","min_zoom":8.0,"bus_network":null,"name:de":"Haliczer Platz","source":"openstreetmap.org","name:fr":"Place de Galicie","bus_shield_text":"4\u0410","name:ru":"\u0413\u0430\u043b\u0438\u0446\u043a\u0430\u044f \u043f\u043b\u043e\u0449\u0430\u0434\u044c","name:pl":"plac Halicki","landuse_kind":"urban_area","id":161713722},"arcs":[62]},{"type":"LineString","properties":{"kind":"major_road","network":"ua:regional","sort_rank":380,"kind_detail":"primary","bus_network":"regional","source":"openstreetmap.org","min_zoom":8.0,"bus_shield_text":null,"shield_text":"15","name:ru":"\u041b\u044c\u0432\u043e\u0432\u0441\u043a\u0430\u044f \u0443\u043b\u0438\u0446\u0430","landuse_kind":"residential","ref":"\u0420-15","id":156200772},"arcs":[63]},{"type":"LineString","properties":{"bus_network":null,"name:en":"Maksyma Kryvonosa Street","old_name:pl":"Teaty\u0144ska","kind_detail":"primary","is_bicycle_related":true,"kind":"major_road","old_name:de":"Theatiner Gasse","source":"openstreetmap.org","min_zoom":8.0,"bus_shield_text":"15","name:ru":"\u041c\u0430\u043a\u0441\u0438\u043c\u0430 \u041a\u0440\u0438\u0432\u043e\u043d\u043e\u0441\u0430 \u0443\u043b\u0438\u0446\u0430","name:be":"\u041c\u0430\u043a\u0441\u0456\u043c\u0430 \u041a\u0440\u044b\u0432\u0430\u043d\u043e\u0441\u0430 \u0432\u0443\u043b\u0456\u0446\u0430","landuse_kind":"urban_area","id":146120385,"sort_rank":380},"arcs":[64]},{"type":"LineString","properties":{"source":"openstreetmap.org","bus_network":null,"bus_shield_text":"1001","sort_rank":380,"kind_detail":"primary","min_zoom":8.0,"kind":"major_road"},"arcs":[65]},{"type":"LineString","properties":{"kind":"major_road","name:en":"Lychakivska Street","sort_rank":380,"kind_detail":"primary","bus_network":null,"name:fr":"Rue Lytchakyvska","source":"openstreetmap.org","min_zoom":8.0,"bus_shield_text":"5\u0410","name:ru":"\u041b\u044b\u0447\u0430\u043a\u043e\u0432\u0441\u043a\u0430\u044f \u0443\u043b\u0438\u0446\u0430","name:pl":"ulica \u0141yczakowska","landuse_kind":"urban_area","id":352398865},"arcs":[66]},{"type":"LineString","properties":{"bus_network":null,"name:en":"Torhova Street","sort_rank":380,"landuse_kind":"urban_area","kind":"major_road","source":"openstreetmap.org","min_zoom":8.0,"bus_shield_text":"6\u0410","name:ru":"\u0422\u043e\u0440\u0433\u043e\u0432\u0430\u044f \u0443\u043b\u0438\u0446\u0430","kind_detail":"primary"},"arcs":[67]},{"type":"MultiLineString","properties":{"bus_network":null,"name:en":"Bohdana Khmelnytskoho Street","sort_rank":380,"kind_detail":"primary","name:fr":"Rue Bohdana Khmeln\u00e9tskoho","source":"openstreetmap.org","min_zoom":8.0,"bus_shield_text":"1\u0410","name:ru":"\u0411\u043e\u0433\u0434\u0430\u043d\u0430 \u0425\u043c\u0435\u043b\u044c\u043d\u0438\u0446\u043a\u043e\u0433\u043e \u0443\u043b\u0438\u0446\u0430","name:be":"\u0411\u0430\u0433\u0434\u0430\u043d\u0430 \u0425\u043c\u044f\u043b\u044c\u043d\u0456\u0446\u043a\u0430\u0433\u0430 \u0432\u0443\u043b\u0456\u0446\u0430","landuse_kind":"urban_area","kind":"major_road"},"arcs":[[68],[69]]},{"type":"LineString","properties":{"kind":"major_road","name:en":"Lvivska Street","sort_rank":380,"kind_detail":"primary","source":"openstreetmap.org","min_zoom":8.0,"landuse_kind":"residential","name:ru":"\u041b\u044c\u0432\u043e\u0432\u0441\u043a\u0430\u044f \u0443\u043b\u0438\u0446\u0430","name:pl":"ulica Lwowska","id":151507162},"arcs":[70]},{"type":"LineString","properties":{"bus_network":"regional","name:en":"Lvivska Street","network":"ua:national","sort_rank":380,"kind_detail":"primary","kind":"major_road","source":"openstreetmap.org","min_zoom":8.0,"bus_shield_text":"255","shield_text":"17","name:ru":"\u041b\u044c\u0432\u043e\u0432\u0441\u043a\u0430\u044f \u0443\u043b\u0438\u0446\u0430","name:be":"\u041b\u044c\u0432\u043e\u045e\u0441\u043a\u0430\u044f \u0432\u0443\u043b\u0456\u0446\u0430","ref":"\u041d-17","name:pl":"ulica Lwowska"},"arcs":[71]},{"type":"LineString","properties":{"bus_network":"regional","name:en":"Pochaivska Street","network":"ua:national","sort_rank":380,"kind_detail":"primary","kind":"major_road","source":"openstreetmap.org","min_zoom":8.0,"bus_shield_text":"791","shield_text":"02","name:ru":"\u041f\u043e\u0447\u0430\u0435\u0432\u0441\u043a\u0430\u044f \u0443\u043b\u0438\u0446\u0430","landuse_kind":"residential","ref":"\u041d-02"},"arcs":[72]},{"type":"LineString","properties":{"kind":"major_road","network":"e-road","sort_rank":381,"kind_detail":"trunk","bus_network":"regional","source":"openstreetmap.org","min_zoom":8.0,"bus_shield_text":"255","shield_text":"372","ref":"\u041c-06-02","id":173052955},"arcs":[73]},{"type":"MultiLineString","properties":{"old_name:uk":"\u0423\u043b\u044c\u044f\u043d\u0456\u0432\u0441\u044c\u043a\u0430 \u0432\u0443\u043b\u0438\u0446\u044f","bus_network":null,"name:en":"Viacheslava Lypynskoho Street","sort_rank":380,"kind_detail":"primary","old_name:ru":"\u0423\u043b\u044c\u044f\u043d\u043e\u0432\u0441\u043a\u0430\u044f \u0443\u043b\u0438\u0446\u0430","kind":"major_road","source":"openstreetmap.org","min_zoom":8.0,"bus_shield_text":"1\u0410","name:ru":"\u0412\u044f\u0447\u0435\u0441\u043b\u0430\u0432\u0430 \u041b\u0438\u043f\u0438\u043d\u0441\u043a\u043e\u0433\u043e \u0443\u043b\u0438\u0446\u0430","landuse_kind":"urban_area"},"arcs":[[74],[75],[76],[77]]},{"type":"MultiLineString","properties":{"kind":"major_road","network":"ua:regional","sort_rank":380,"kind_detail":"primary","source":"openstreetmap.org","min_zoom":8.0,"shield_text":"39","ref":"\u0420-39"},"arcs":[[78],[79],[80]]},{"type":"MultiLineString","properties":{"kind":"major_road","network":"e-road","sort_rank":381,"kind_detail":"trunk","source":"openstreetmap.org","min_zoom":8.0,"shield_text":"40","ref":"\u041c-06"},"arcs":[[81],[82],[83],[84],[85],[86],[87],[88],[89],[90],[91],[92],[93],[94],[95],[96],[97]]},{"type":"LineString","properties":{"source":"openstreetmap.org","kind":"major_road","landuse_kind":"residential","sort_rank":381,"kind_detail":"trunk","min_zoom":8.0},"arcs":[98]},{"type":"LineString","properties":{"kind":"major_road","network":"ua:national","sort_rank":380,"kind_detail":"primary","source":"openstreetmap.org","min_zoom":8.0,"landuse_kind":"residential","shield_text":"17","ref":"\u041d-17","id":239809708},"arcs":[99]},{"type":"LineString","properties":{"kind":"major_road","network":"ua:territorial","sort_rank":380,"kind_detail":"primary","source":"openstreetmap.org","min_zoom":8.0,"shield_text":"\u04221425","ref":"\u0422-14-25"},"arcs":[100]},{"type":"LineString","properties":{"kind":"major_road","name:en":"Sokalska Street","network":"ua:regional","sort_rank":380,"kind_detail":"primary","source":"openstreetmap.org","min_zoom":8.0,"shield_text":"15","name:ru":"\u0421\u043e\u043a\u0430\u043b\u044c\u0441\u043a\u0430\u044f \u0443\u043b\u0438\u0446\u0430","ref":"\u0420-15","id":61893897},"arcs":[101]},{"type":"LineString","properties":{"kind":"major_road","sort_rank":380,"kind_detail":"primary","bus_network":null,"source":"openstreetmap.org","min_zoom":8.0,"bus_shield_text":"217A","landuse_kind":"urban_area","id":184982054},"arcs":[102]},{"type":"LineString","properties":{"kind":"major_road","name:en":"Soborna Square","sort_rank":380,"kind_detail":"primary","min_zoom":8.0,"bus_network":null,"source":"openstreetmap.org","name:fr":"Place Soborna","bus_shield_text":"1\u0410","name:ru":"\u0421\u043e\u0431\u043e\u0440\u043d\u0430\u044f \u043f\u043b\u043e\u0449\u0430\u0434\u044c","name:pl":"plac Bernardy\u0144ski","landuse_kind":"urban_area","id":161713723},"arcs":[103]},{"type":"LineString","properties":{"kind":"major_road","name:en":"Danyla Halytskoho Square","sort_rank":380,"kind_detail":"primary","bus_network":null,"source":"openstreetmap.org","name:fr":"Place Dan\u00e9la Hal\u00e9tskoho","bus_shield_text":"15","name:ru":"\u0414\u0430\u043d\u0438\u0438\u043b\u0430 \u0413\u0430\u043b\u0438\u0446\u043a\u043e\u0433\u043e \u043f\u043b\u043e\u0449\u0430\u0434\u044c","min_zoom":8.0,"landuse_kind":"urban_area","name:zh":"\u52a0\u5229\u897f\u4e9a\u7684\u4e39\u5c3c\u5c14\u4e00\u4e16\u5e7f\u573a","id":161866002},"arcs":[104]},{"type":"LineString","properties":{"kind":"major_road","name:en":"Lvivska Street","network":"ua:territorial","sort_rank":380,"kind_detail":"primary","source":"openstreetmap.org","min_zoom":8.0,"name:be":"\u041b\u044c\u0432\u043e\u045e\u0441\u043a\u0430\u044f \u0432\u0443\u043b\u0456\u0446\u0430","shield_text":"\u04221425","name:ru":"\u041b\u044c\u0432\u043e\u0432\u0441\u043a\u0430\u044f \u0443\u043b\u0438\u0446\u0430","name:pl":"ulica Lwowska","ref":"\u0422-14-25","id":130137145},"arcs":[105]},{"type":"LineString","properties":{"bus_network":null,"name:en":"Tarasa Shevchenka Street","sort_rank":380,"kind_detail":"primary","kind":"major_road","source":"openstreetmap.org","min_zoom":8.0,"bus_shield_text":"1001","name:ru":"\u0422\u0430\u0440\u0430\u0441\u0430 \u0428\u0435\u0432\u0447\u0435\u043d\u043a\u043e \u0443\u043b\u0438\u0446\u0430","name:pl":"ulica Tarasa Szewczenki"},"arcs":[106]},{"type":"LineString","properties":{"old_name:uk":"\u041b\u0435\u043d\u0456\u043d\u0430 \u0432\u0443\u043b\u0438\u0446\u044f","bus_network":null,"name:en":"Lychakivska Street","sort_rank":380,"kind_detail":"primary","old_name:ru":"\u041b\u0435\u043d\u0438\u043d\u0430 \u0443\u043b\u0438\u0446\u0430","kind":"major_road","name:de":"Lyczakower Gasse","source":"openstreetmap.org","min_zoom":8.0,"bus_shield_text":"5\u0410","name:ru":"\u041b\u044b\u0447\u0430\u043a\u043e\u0432\u0441\u043a\u0430\u044f \u0443\u043b\u0438\u0446\u0430","name:pl":"ulica \u0141yczakowska","landuse_kind":"urban_area"},"arcs":[107]},{"type":"LineString","properties":{"bus_network":null,"name:en":"Rizni Square","sort_rank":380,"kind_detail":"primary","kind":"major_road","source":"openstreetmap.org","min_zoom":8.0,"bus_shield_text":"4\u0410","name:ru":"\u0420\u0438\u0437\u043d\u0438 \u043f\u043b\u043e\u0449\u0430\u0434\u044c","landuse_kind":"urban_area"},"arcs":[108]},{"type":"LineString","properties":{"bus_network":null,"network":"e-road","sort_rank":381,"kind_detail":"trunk","kind":"major_road","source":"openstreetmap.org","min_zoom":8.0,"bus_shield_text":"121","shield_text":"372","ref":"\u041c-06-02"},"arcs":[109]},{"type":"LineString","properties":{"kind":"major_road","name:en":"Kniazia Yaroslava Osmomysla Square","sort_rank":380,"kind_detail":"primary","bus_network":null,"source":"openstreetmap.org","min_zoom":8.0,"bus_shield_text":"6\u0410","name:ru":"\u041a\u043d\u044f\u0437\u044f \u042f\u0440\u043e\u0441\u043b\u0430\u0432\u0430 \u041e\u0441\u043c\u043e\u043c\u044b\u0441\u043b\u0430 \u043f\u043b\u043e\u0449\u0430\u0434\u044c","landuse_kind":"urban_area","id":152451723},"arcs":[110]},{"type":"LineString","properties":{"kind":"major_road","name:en":"Peremohy Street","network":"ua:national","sort_rank":380,"kind_detail":"primary","bus_network":"regional","source":"openstreetmap.org","min_zoom":8.0,"bus_shield_text":"255","shield_text":"17","name:ru":"\u041f\u043e\u0431\u0435\u0434\u044b \u0443\u043b\u0438\u0446\u0430","ref":"\u041d-17","id":172007800},"arcs":[111]},{"type":"MultiLineString","properties":{"bus_network":null,"name:en":"Viacheslava Chornovola Avenue","sort_rank":380,"kind_detail":"primary","kind":"major_road","source":"openstreetmap.org","min_zoom":8.0,"bus_shield_text":"184\u0430","name:ru":"\u0412\u044f\u0447\u0435\u0441\u043b\u0430\u0432\u0430 \u0427\u0435\u0440\u043d\u043e\u0432\u043e\u043b\u0430 \u043f\u0440\u043e\u0441\u043f\u0435\u043a\u0442","landuse_kind":"urban_area"},"arcs":[[112],[113]]},{"type":"LineString","properties":{"bus_network":null,"min_zoom":8.0,"bus_shield_text":"5\u0410","name:ru":"\u041b\u044b\u0447\u0430\u043a\u043e\u0432\u0441\u043a\u0430\u044f \u0443\u043b\u0438\u0446\u0430","name:pl":"ulica \u0141yczakowska","id":352396729,"old_name:uk":"\u041b\u0435\u043d\u0456\u043d\u0430 \u0432\u0443\u043b\u0438\u0446\u044f","kind":"major_road","name:en":"Lychakivska Street","sort_rank":380,"kind_detail":"primary","old_name:ru":"\u041b\u0435\u043d\u0438\u043d\u0430 \u0443\u043b\u0438\u0446\u0430","is_bicycle_related":true,"source":"openstreetmap.org","name:fr":"Rue Lytchakyvska","landuse_kind":"urban_area"},"arcs":[114]},{"type":"LineString","properties":{"kind":"major_road","name:en":"Shevchenka Street","network":"ua:national","sort_rank":380,"kind_detail":"primary","source":"openstreetmap.org","min_zoom":8.0,"landuse_kind":"residential","shield_text":"17","name:ru":"\u0428\u0435\u0432\u0447\u0435\u043d\u043a\u043e \u0443\u043b\u0438\u0446\u0430","name:pl":"Szewczenki","ref":"\u041d-17;\u0422-03-02","id":170590841},"arcs":[115]},{"type":"LineString","properties":{"bus_network":null,"sort_rank":380,"kind_detail":"primary","kind":"major_road","source":"openstreetmap.org","min_zoom":8.0,"bus_shield_text":"5\u0410","landuse_kind":"urban_area"},"arcs":[116]},{"type":"LineString","properties":{"kind":"major_road","name:en":"Lvivska Street","sort_rank":380,"kind_detail":"primary","source":"openstreetmap.org","min_zoom":8.0,"name:be":"\u041b\u044c\u0432\u043e\u045e\u0441\u043a\u0430\u044f \u0432\u0443\u043b\u0456\u0446\u0430","name:ru":"\u041b\u044c\u0432\u043e\u0432\u0441\u043a\u0430\u044f \u0443\u043b\u0438\u0446\u0430","name:pl":"ulica Lwowska","id":130137139},"arcs":[117]},{"type":"MultiLineString","properties":{"bus_network":null,"name:en":"Horodotska Street","sort_rank":380,"landuse_kind":"urban_area","kind":"major_road","source":"openstreetmap.org","min_zoom":8.0,"bus_shield_text":"6\u0410","name:ru":"\u0413\u043e\u0440\u043e\u0434\u043e\u0446\u043a\u0430\u044f \u0443\u043b\u0438\u0446\u0430","kind_detail":"primary","name:pl":"ulica Gr\u00f3decka"},"arcs":[[118],[119],[120]]},{"type":"MultiLineString","properties":{"bus_network":"regional","network":"ua:regional","sort_rank":380,"kind_detail":"primary","kind":"major_road","source":"openstreetmap.org","min_zoom":8.0,"bus_shield_text":null,"shield_text":"15","ref":"\u0420-15"},"arcs":[[121],[122]]},{"type":"LineString","properties":{"kind":"major_road","name:en":"Hlynianskyi Trakt Street","sort_rank":380,"kind_detail":"primary","bus_network":null,"source":"openstreetmap.org","min_zoom":8.0,"bus_shield_text":"217A","name:ru":"\u0413\u043b\u0438\u043d\u044f\u043d\u0441\u043a\u0438\u0439 \u0422\u0440\u0430\u043a\u0442 \u0443\u043b\u0438\u0446\u0430","landuse_kind":"urban_area","id":33775732},"arcs":[123]},{"type":"LineString","properties":{"bus_network":null,"min_zoom":8.0,"old_name:en":"Lenin Avenue","bus_shield_text":"4\u0410","name:ru":"\u0421\u0432\u043e\u0431\u043e\u0434\u044b \u043f\u0440\u043e\u0441\u043f\u0435\u043a\u0442","name:pl":"Aleja Swobody","old_name:de":"Carl-Ludwig-Stra\u00dfe","old_name:uk":"\u041b\u0435\u043d\u0456\u043d\u0430 \u043f\u0440\u043e\u0441\u043f\u0435\u043a\u0442","kind":"major_road","name:en":"Svobody Avenue","sort_rank":380,"kind_detail":"primary","old_name:ru":"\u041b\u0435\u043d\u0438\u043d\u0430 \u043f\u0440\u043e\u0441\u043f\u0435\u043a\u0442","source":"openstreetmap.org","name:fr":"Avenue Svobod\u00e9","landuse_kind":"urban_area","name:zh":"\u81ea\u7531\u5927\u9053"},"arcs":[124]},{"type":"LineString","properties":{"kind":"major_road","name:en":"Lvivska Street","sort_rank":380,"kind_detail":"primary","bus_network":null,"source":"openstreetmap.org","min_zoom":8.0,"bus_shield_text":"4","name:ru":"\u041b\u044c\u0432\u043e\u0432\u0441\u043a\u0430\u044f \u0443\u043b\u0438\u0446\u0430","landuse_kind":"urban_area","id":130175304},"arcs":[125]},{"type":"LineString","properties":{"old_name:uk":"700-\u0440\u0456\u0447\u0447\u044f \u041b\u044c\u0432\u043e\u0432\u0430","kind":"major_road","name:en":"Viacheslava Chornovola Avenue","sort_rank":380,"kind_detail":"primary","old_name:ru":"700-\u043b\u0435\u0442\u0438\u044f \u041b\u044c\u0432\u043e\u0432\u0430","bus_network":null,"source":"openstreetmap.org","min_zoom":8.0,"bus_shield_text":"4\u0410","name:ru":"\u0412\u044f\u0447\u0435\u0441\u043b\u0430\u0432\u0430 \u0427\u0435\u0440\u043d\u043e\u0432\u043e\u043b\u0430 \u043f\u0440\u043e\u0441\u043f\u0435\u043a\u0442","landuse_kind":"urban_area","id":462701393},"arcs":[126]},{"type":"LineString","properties":{"kind":"major_road","name:en":"Ivana Gonty Street","sort_rank":380,"kind_detail":"primary","bus_network":null,"source":"openstreetmap.org","min_zoom":8.0,"bus_shield_text":"4\u0410","name:ru":"\u0418\u0432\u0430\u043d\u0430 \u0413\u043e\u043d\u0442\u044b \u0443\u043b\u0438\u0446\u0430","name:pl":"ulica Iwana Gonty","landuse_kind":"urban_area","id":161866001},"arcs":[127]},{"type":"LineString","properties":{"bus_network":null,"name:en":"Tarasa Shevchenka Street","sort_rank":380,"kind_detail":"primary","kind":"major_road","source":"openstreetmap.org","min_zoom":8.0,"bus_shield_text":"6\u0410","name:ru":"\u0422\u0430\u0440\u0430\u0441\u0430 \u0428\u0435\u0432\u0447\u0435\u043d\u043a\u043e \u0443\u043b\u0438\u0446\u0430","name:pl":"ulica Tarasa Szewczenki"},"arcs":[128]},{"type":"LineString","properties":{"kind":"major_road","name:en":"Staromiska Street","sort_rank":380,"kind_detail":"primary","bus_network":null,"source":"openstreetmap.org","min_zoom":8.0,"bus_shield_text":"4\u0410","name:ru":"\u0421\u0442\u0430\u0440\u043e\u0433\u043e\u0440\u043e\u0434\u0441\u043a\u0430\u044f \u0443\u043b\u0438\u0446\u0430","landuse_kind":"urban_area","id":150812652},"arcs":[129]},{"type":"MultiLineString","properties":{"bus_network":"regional","network":"ua:regional","sort_rank":380,"kind_detail":"primary","kind":"major_road","source":"openstreetmap.org","min_zoom":8.0,"bus_shield_text":null,"shield_text":"15","landuse_kind":"residential","ref":"\u0420-15"},"arcs":[[130],[131]]},{"type":"LineString","properties":{"bus_network":null,"name:en":"Hlynianskyi Trakt Street","sort_rank":380,"kind_detail":"primary","is_bicycle_related":true,"kind":"major_road","cycleway":"shared_lane","source":"openstreetmap.org","min_zoom":8.0,"bus_shield_text":"19","name:ru":"\u0413\u043b\u0438\u043d\u044f\u043d\u0441\u043a\u0438\u0439 \u0422\u0440\u0430\u043a\u0442 \u0443\u043b\u0438\u0446\u0430","landuse_kind":"urban_area"},"arcs":[132]},{"type":"LineString","properties":{"bus_network":"regional","network":"ua:national","sort_rank":381,"kind_detail":"trunk","kind":"major_road","source":"openstreetmap.org","min_zoom":8.0,"bus_shield_text":"255","shield_text":"17","ref":"\u041c-06;\u041d-17"},"arcs":[133]},{"type":"LineString","properties":{"old_name:uk":"\u0420\u0430\u0434\u044f\u043d\u0441\u044c\u043a\u0430 \u0432\u0443\u043b\u0438\u0446\u044f","bus_network":null,"name:en":"Volodymyra Vynnychenka Street","sort_rank":380,"kind_detail":"primary","old_name:ru":"\u0421\u043e\u0432\u0435\u0442\u0441\u043a\u0430\u044f \u0443\u043b\u0438\u0446\u0430","is_bicycle_related":true,"kind":"major_road","source":"openstreetmap.org","min_zoom":8.0,"old_name:pl":"Czarnieckiego","name:ru":"\u0412\u043b\u0430\u0434\u0438\u043c\u0438\u0440\u0430 \u0412\u0438\u043d\u043d\u0438\u0447\u0435\u043d\u043a\u043e \u0443\u043b\u0438\u0446\u0430","landuse_kind":"urban_area","bus_shield_text":"26","old_name:de":"Czarniecki-Gasse"},"arcs":[134]},{"type":"LineString","properties":{"source":"openstreetmap.org","kind":"major_road","name:en":"Yevhena Konovaltsia Street","name:ru":"\u0415\u0432\u0433\u0435\u043d\u0438\u044f \u041a\u043e\u043d\u043e\u0432\u0430\u043b\u044c\u0446\u0430 \u0443\u043b\u0438\u0446\u0430","sort_rank":380,"kind_detail":"primary","min_zoom":8.0},"arcs":[135]},{"type":"LineString","properties":{"kind":"major_road","name:en":"Rizni Square","sort_rank":380,"kind_detail":"primary","bus_network":null,"source":"openstreetmap.org","min_zoom":8.0,"bus_shield_text":"184\u0430","name:ru":"\u0420\u0438\u0437\u043d\u0438 \u043f\u043b\u043e\u0449\u0430\u0434\u044c","landuse_kind":"urban_area","id":150812650},"arcs":[136]},{"type":"LineString","properties":{"kind":"major_road","name:en":"Kniazia Yaroslava Osmomysla Square","sort_rank":380,"kind_detail":"primary","bus_network":null,"old_name:de":"Krakauer Platz","source":"openstreetmap.org","min_zoom":8.0,"bus_shield_text":"4\u0410","name:ru":"\u041a\u043d\u044f\u0437\u044f \u042f\u0440\u043e\u0441\u043b\u0430\u0432\u0430 \u041e\u0441\u043c\u043e\u043c\u044b\u0441\u043b\u0430 \u043f\u043b\u043e\u0449\u0430\u0434\u044c","landuse_kind":"urban_area","id":150812653},"arcs":[137]},{"type":"LineString","properties":{"kind":"major_road","network":"ua:regional","sort_rank":380,"kind_detail":"primary","source":"openstreetmap.org","min_zoom":8.0,"name:be":"\u041f\u0440\u0430\u043c\u044b\u0441\u043b\u043e\u0432\u0430\u044f \u0432\u0443\u043b\u0456\u0446\u0430","shield_text":"15","name:ru":"\u041f\u0440\u043e\u043c\u044b\u0448\u043b\u0435\u043d\u043d\u0430\u044f \u0443\u043b\u0438\u0446\u0430","ref":"\u0420-15","id":162151432},"arcs":[138]},{"type":"MultiLineString","properties":{"bus_network":null,"name:en":"Viacheslava Lypynskoho Street","sort_rank":380,"landuse_kind":"urban_area","bus_shield_text":"1\u0410","kind":"major_road","source":"openstreetmap.org","min_zoom":8.0,"kind_detail":"primary","name:ru":"\u0412\u044f\u0447\u0435\u0441\u043b\u0430\u0432\u0430 \u041b\u0438\u043f\u0438\u043d\u0441\u043a\u043e\u0433\u043e \u0443\u043b\u0438\u0446\u0430"},"arcs":[[139],[140]]},{"type":"LineString","properties":{"bus_network":"regional","name:en":"Lvivska Street","network":"e-road","sort_rank":381,"kind_detail":"trunk","kind":"major_road","source":"openstreetmap.org","min_zoom":8.0,"bus_shield_text":null,"shield_text":"372","name:ru":"\u041b\u044c\u0432\u043e\u0432\u0441\u043a\u0430\u044f \u0443\u043b\u0438\u0446\u0430","ref":"\u041c-09"},"arcs":[141]},{"type":"LineString","properties":{"old_name:uk":"1-\u0433\u043e \u0422\u0440\u0430\u0432\u043d\u044f \u0432\u0443\u043b\u0438\u0446\u044f","kind":"major_road","name:en":"Horodotska Street","sort_rank":380,"kind_detail":"primary","old_name:ru":"1-\u0433\u043e \u041c\u0430\u044f \u0443\u043b\u0438\u0446\u0430","bus_network":null,"name:de":"Grodecker Stra\u00dfe","source":"openstreetmap.org","min_zoom":8.0,"bus_shield_text":"6\u0410","name:ru":"\u0413\u043e\u0440\u043e\u0434\u043e\u0446\u043a\u0430\u044f \u0443\u043b\u0438\u0446\u0430","name:pl":"ulica Gr\u00f3decka","landuse_kind":"urban_area","id":73173002},"arcs":[142]},{"type":"LineString","properties":{"bus_network":null,"network":"e-road","sort_rank":381,"landuse_kind":"urban_area","kind":"major_road","kind_detail":"trunk","name:fr":"Rue K\u00e9yivska","source":"openstreetmap.org","min_zoom":8.0,"bus_shield_text":"111","shield_text":"372","name:ru":"\u041a\u0438\u0435\u0432\u0441\u043a\u0430\u044f \u0443\u043b\u0438\u0446\u0430","name:be":"\u041a\u0456\u0435\u045e\u0441\u043a\u0430\u044f \u0432\u0443\u043b\u0456\u0446\u0430","ref":"\u041c-06-02","name:pl":"ulica Kijowska"},"arcs":[143]},{"type":"MultiLineString","properties":{"bus_network":null,"name:en":"Viacheslava Chornovola Avenue","sort_rank":380,"kind_detail":"primary","kind":"major_road","source":"openstreetmap.org","min_zoom":8.0,"bus_shield_text":"1\u0410","name:ru":"\u0412\u044f\u0447\u0435\u0441\u043b\u0430\u0432\u0430 \u0427\u0435\u0440\u043d\u043e\u0432\u043e\u043b\u0430 \u043f\u0440\u043e\u0441\u043f\u0435\u043a\u0442","landuse_kind":"urban_area"},"arcs":[[144],[145]]},{"type":"LineString","properties":{"bus_network":null,"name:en":"Hlynianskyi Trakt Street","sort_rank":380,"kind_detail":"primary","is_bicycle_related":true,"kind":"major_road","source":"openstreetmap.org","min_zoom":8.0,"bus_shield_text":"19","name:ru":"\u0413\u043b\u0438\u043d\u044f\u043d\u0441\u043a\u0438\u0439 \u0422\u0440\u0430\u043a\u0442 \u0443\u043b\u0438\u0446\u0430","landuse_kind":"urban_area"},"arcs":[146]},{"type":"LineString","properties":{"kind":"major_road","sort_rank":380,"kind_detail":"primary","bus_network":null,"source":"openstreetmap.org","min_zoom":8.0,"bus_shield_text":"12","landuse_kind":"urban_area","id":398392189},"arcs":[147]},{"type":"LineString","properties":{"kind":"major_road","name:en":"Ravska Street","sort_rank":380,"kind_detail":"primary","source":"openstreetmap.org","min_zoom":8.0,"name:ru":"\u0420\u0430\u0432\u0441\u043a\u0430\u044f \u0443\u043b\u0438\u0446\u0430","id":24056382},"arcs":[148]},{"type":"LineString","properties":{"kind":"major_road","name:en":"Halytska Square","sort_rank":380,"kind_detail":"primary","min_zoom":8.0,"bus_network":null,"name:de":"Haliczer Platz","source":"openstreetmap.org","name:fr":"Place de Galicie","bus_shield_text":"6\u0410","name:ru":"\u0413\u0430\u043b\u0438\u0446\u043a\u0430\u044f \u043f\u043b\u043e\u0449\u0430\u0434\u044c","name:pl":"plac Halicki","landuse_kind":"urban_area","id":146124178},"arcs":[149]},{"type":"LineString","properties":{"bus_network":"regional","network":"ua:regional","sort_rank":380,"kind_detail":"primary","kind":"major_road","source":"openstreetmap.org","min_zoom":8.0,"bus_shield_text":null,"shield_text":"15","name:ru":"\u041b\u044c\u0432\u043e\u0432\u0441\u043a\u0430\u044f \u0443\u043b\u0438\u0446\u0430","ref":"\u0420-15"},"arcs":[150]},{"type":"MultiLineString","properties":{"kind":"major_road","network":"ua:national","sort_rank":380,"kind_detail":"primary","source":"openstreetmap.org","min_zoom":8.0,"shield_text":"02","ref":"\u041d-02","id":206894340},"arcs":[[151],[152]]},{"type":"MultiLineString","properties":{"bus_network":null,"name:en":"Bohdana Khmelnytskoho Street","sort_rank":380,"kind_detail":"primary","kind":"major_road","source":"openstreetmap.org","min_zoom":8.0,"bus_shield_text":"1\u0410","name:ru":"\u0411\u043e\u0433\u0434\u0430\u043d\u0430 \u0425\u043c\u0435\u043b\u044c\u043d\u0438\u0446\u043a\u043e\u0433\u043e \u0443\u043b\u0438\u0446\u0430","name:be":"\u0411\u0430\u0433\u0434\u0430\u043d\u0430 \u0425\u043c\u044f\u043b\u044c\u043d\u0456\u0446\u043a\u0430\u0433\u0430 \u0432\u0443\u043b\u0456\u0446\u0430","landuse_kind":"urban_area"},"arcs":[[153],[154]]},{"type":"LineString","properties":{"kind":"major_road","name:en":"Vynnykivska Street","sort_rank":380,"kind_detail":"primary","source":"openstreetmap.org","min_zoom":8.0,"name:ru":"\u0412\u0438\u043d\u043d\u0438\u043a\u043e\u0432\u0441\u043a\u0430\u044f \u0443\u043b\u0438\u0446\u0430","id":123676080},"arcs":[155]},{"type":"LineString","properties":{"kind":"major_road","name:en":"Kniazia Yaroslava Osmomysla Square","sort_rank":380,"kind_detail":"primary","bus_network":null,"source":"openstreetmap.org","min_zoom":8.0,"bus_shield_text":"4\u0410","name:ru":"\u041a\u043d\u044f\u0437\u044f \u042f\u0440\u043e\u0441\u043b\u0430\u0432\u0430 \u041e\u0441\u043c\u043e\u043c\u044b\u0441\u043b\u0430 \u043f\u043b\u043e\u0449\u0430\u0434\u044c","landuse_kind":"urban_area","id":152451722},"arcs":[156]},{"type":"LineString","properties":{"kind":"major_road","name:en":"Danyla Halytskoho Square","sort_rank":380,"kind_detail":"primary","bus_network":null,"source":"openstreetmap.org","name:fr":"Place Dan\u00e9la Hal\u00e9tskoho","bus_shield_text":"4\u0410","name:ru":"\u0414\u0430\u043d\u0438\u0438\u043b\u0430 \u0413\u0430\u043b\u0438\u0446\u043a\u043e\u0433\u043e \u043f\u043b\u043e\u0449\u0430\u0434\u044c","min_zoom":8.0,"landuse_kind":"urban_area","name:zh":"\u52a0\u5229\u897f\u4e9a\u7684\u4e39\u5c3c\u5c14\u4e00\u4e16\u5e7f\u573a","id":146120377},"arcs":[157]},{"type":"LineString","properties":{"bus_network":"regional","name:en":"Halytska Street","network":"ua:national","sort_rank":380,"kind_detail":"primary","kind":"major_road","name:ru":"\u0413\u0430\u043b\u0438\u0446\u043a\u0430\u044f \u0443\u043b\u0438\u0446\u0430","source":"openstreetmap.org","min_zoom":8.0,"bus_shield_text":null,"shield_text":"17","name:be":"\u0413\u0430\u043b\u0456\u0446\u043a\u0430\u044f \u0432\u0443\u043b\u0456\u0446\u0430","name:pl":"ulica Galicka","ref":"\u041d-17","id":171856854},"arcs":[158]},{"type":"LineString","properties":{"kind":"major_road","name:en":"Pochaivska Street","network":"ua:national","sort_rank":380,"kind_detail":"primary","source":"openstreetmap.org","min_zoom":8.0,"shield_text":"02","name:ru":"\u041f\u043e\u0447\u0430\u0435\u0432\u0441\u043a\u0430\u044f \u0443\u043b\u0438\u0446\u0430","ref":"\u041d-02","id":537708110},"arcs":[159]},{"type":"MultiLineString","properties":{"source":"openstreetmap.org","kind":"major_road","landuse_kind":"residential","sort_rank":380,"kind_detail":"primary","min_zoom":8.0},"arcs":[[160],[161],[162],[163],[164],[165],[166],[167],[168],[169],[170]]},{"type":"LineString","properties":{"kind":"major_road","name:en":"Tranzytna Street","network":"ua:national","sort_rank":380,"kind_detail":"primary","source":"openstreetmap.org","min_zoom":8.0,"shield_text":"17","name:ru":"\u0422\u0440\u0430\u043d\u0437\u0438\u0442\u043d\u0430\u044f \u0443\u043b\u0438\u0446\u0430","ref":"\u041d-17","id":177365105},"arcs":[171]},{"type":"LineString","properties":{"bus_network":null,"network":"e-road","sort_rank":381,"kind_detail":"trunk","kind":"major_road","source":"openstreetmap.org","min_zoom":8.0,"bus_shield_text":"121","shield_text":"372","landuse_kind":"urban_area","ref":"\u041c-06-02"},"arcs":[172]},{"type":"MultiLineString","properties":{"kind":"major_road","network":"ua:regional","sort_rank":380,"kind_detail":"primary","source":"openstreetmap.org","min_zoom":8.0,"shield_text":"15","ref":"\u0420-15"},"arcs":[[173],[174],[175],[176],[177],[178]]},{"type":"LineString","properties":{"kind":"major_road","name:en":"Pochaivska Street","network":"ua:national","sort_rank":380,"kind_detail":"primary","source":"openstreetmap.org","min_zoom":8.0,"landuse_kind":"residential","shield_text":"02","name:ru":"\u041f\u043e\u0447\u0430\u0435\u0432\u0441\u043a\u0430\u044f \u0443\u043b\u0438\u0446\u0430","ref":"\u041d-02"},"arcs":[179]},{"type":"LineString","properties":{"kind":"major_road","name:en":"Lesi Ukrainky Street","network":"ua:territorial","sort_rank":380,"kind_detail":"primary","source":"openstreetmap.org","min_zoom":8.0,"shield_text":"\u04221425","name:ru":"\u041b\u0435\u0441\u0438 \u0423\u043a\u0440\u0430\u0438\u043d\u043a\u0438 \u0443\u043b\u0438\u0446\u0430","ref":"\u0422-14-25"},"arcs":[180]},{"type":"LineString","properties":{"old_name:uk":"700-\u0440\u0456\u0447\u0447\u044f \u041b\u044c\u0432\u043e\u0432\u0430 \u043f\u0440\u043e\u0441\u043f\u0435\u043a\u0442","kind":"major_road","name:en":"Viacheslava Chornovola Avenue","sort_rank":380,"kind_detail":"primary","old_name:ru":"700-\u043b\u0435\u0442\u0438\u044f \u041b\u044c\u0432\u043e\u0432\u0430 \u043f\u0440\u043e\u0441\u043f\u0435\u043a\u0442","bus_network":null,"source":"openstreetmap.org","min_zoom":8.0,"bus_shield_text":"1\u0410","name:ru":"\u0412\u044f\u0447\u0435\u0441\u043b\u0430\u0432\u0430 \u0427\u0435\u0440\u043d\u043e\u0432\u043e\u043b\u0430 \u043f\u0440\u043e\u0441\u043f\u0435\u043a\u0442","landuse_kind":"urban_area","id":139896956},"arcs":[181]},{"type":"LineString","properties":{"kind":"major_road","network":"ua:national","sort_rank":380,"kind_detail":"primary","source":"openstreetmap.org","min_zoom":8.0,"landuse_kind":"residential","shield_text":"02","ref":"\u041d-02","id":206894340},"arcs":[182]},{"type":"LineString","properties":{"bus_network":null,"name:en":"Torhova Street","sort_rank":380,"kind_detail":"primary","kind":"major_road","source":"openstreetmap.org","min_zoom":8.0,"bus_shield_text":"184\u0430","name:ru":"\u0422\u043e\u0440\u0433\u043e\u0432\u0430\u044f \u0443\u043b\u0438\u0446\u0430","landuse_kind":"urban_area"},"arcs":[183]},{"type":"LineString","properties":{"kind":"major_road","network":"e-road","sort_rank":381,"kind_detail":"trunk","bus_network":"regional","source":"openstreetmap.org","min_zoom":8.0,"bus_shield_text":"255","shield_text":"40","ref":"\u041c-06","id":61742010},"arcs":[184]},{"type":"LineString","properties":{"kind":"major_road","name:en":"Horodotska Street","sort_rank":380,"kind_detail":"primary","old_name:ru":"1-\u0433\u043e \u041c\u0430\u044f \u0443\u043b\u0438\u0446\u0430","bus_network":null,"source":"openstreetmap.org","min_zoom":8.0,"bus_shield_text":"184\u0430","name:ru":"\u0413\u043e\u0440\u043e\u0434\u043e\u0446\u043a\u0430\u044f \u0443\u043b\u0438\u0446\u0430","name:pl":"ulica Gr\u00f3decka","landuse_kind":"urban_area","id":253498833},"arcs":[185]},{"type":"LineString","properties":{"bus_network":"regional","name:en":"Nezalezhnosti Street","network":"ua:national","sort_rank":380,"kind_detail":"primary","kind":"major_road","id":227919096,"source":"openstreetmap.org","name:fr":"Rue N\u00e9zal\u00e8genosti","bus_shield_text":"255","shield_text":"17","name:ru":"\u041d\u0435\u0437\u0430\u0432\u0438\u0441\u0438\u043c\u043e\u0441\u0442\u0438 \u0443\u043b\u0438\u0446\u0430","min_zoom":8.0,"ref":"\u041d-17","name:pl":"ulica Niepodleg\u0142o\u015bci"},"arcs":[186]},{"type":"LineString","properties":{"old_name:pl":"ul. Karola Ludwika","bus_network":null,"min_zoom":8.0,"old_name:en":"Lenin Avenue","bus_shield_text":"4\u0410","name:ru":"\u0421\u0432\u043e\u0431\u043e\u0434\u044b \u043f\u0440\u043e\u0441\u043f\u0435\u043a\u0442","id":335015022,"old_name:uk":"\u041b\u0435\u043d\u0456\u043d\u0430 \u043f\u0440\u043e\u0441\u043f\u0435\u043a\u0442","kind":"major_road","name:en":"Svobody Avenue","sort_rank":380,"kind_detail":"primary","old_name:ru":"\u041b\u0435\u043d\u0438\u043d\u0430 \u043f\u0440\u043e\u0441\u043f\u0435\u043a\u0442","old_name:de":"Carl-Ludwig-Stra\u00dfe","source":"openstreetmap.org","name:fr":"Avenue Svobod\u00e9","landuse_kind":"urban_area","name:zh":"\u81ea\u7531\u5927\u9053"},"arcs":[187]},{"type":"MultiLineString","properties":{"bus_network":null,"network":"e-road","sort_rank":381,"landuse_kind":"urban_area","kind":"major_road","source":"openstreetmap.org","min_zoom":8.0,"bus_shield_text":"111","shield_text":"372","kind_detail":"trunk","ref":"\u041c-06-02"},"arcs":[[188],[189]]},{"type":"LineString","properties":{"kind":"major_road","sort_rank":380,"kind_detail":"primary","bus_network":null,"source":"openstreetmap.org","min_zoom":8.0,"bus_shield_text":"4\u0410","landuse_kind":"urban_area","id":152473759},"arcs":[190]},{"type":"LineString","properties":{"bus_network":"regional","name:en":"Lvivska Street","network":"ua:national","sort_rank":380,"kind_detail":"primary","kind":"major_road","source":"openstreetmap.org","min_zoom":8.0,"bus_shield_text":"255","shield_text":"17","name:ru":"\u041b\u044c\u0432\u043e\u0432\u0441\u043a\u0430\u044f \u0443\u043b\u0438\u0446\u0430","name:pl":"ulica Lwowska","ref":"\u041d-17","id":176974209},"arcs":[191]},{"type":"LineString","properties":{"old_name:uk":"\u0420\u0430\u0434\u044f\u043d\u0441\u044c\u043a\u0430 \u0432\u0443\u043b\u0438\u0446\u044f","kind":"major_road","name:en":"Volodymyra Vynnychenka Street","old_name:pl":"Czarnieckiego","kind_detail":"primary","old_name:ru":"\u0421\u043e\u0432\u0435\u0442\u0441\u043a\u0430\u044f \u0443\u043b\u0438\u0446\u0430","bus_network":null,"old_name:de":"Czarniecki-Gasse","source":"openstreetmap.org","min_zoom":8.0,"bus_shield_text":"4\u0410","name:ru":"\u0412\u043b\u0430\u0434\u0438\u043c\u0438\u0440\u0430 \u0412\u0438\u043d\u043d\u0438\u0447\u0435\u043d\u043a\u043e \u0443\u043b\u0438\u0446\u0430","landuse_kind":"urban_area","id":23535392,"sort_rank":380},"arcs":[192]},{"type":"LineString","properties":{"kind":"major_road","name:en":"Lutska Street","network":"ua:national","sort_rank":380,"kind_detail":"primary","source":"openstreetmap.org","min_zoom":8.0,"landuse_kind":"residential","shield_text":"17","name:ru":"\u041b\u0443\u0446\u043a\u0430\u044f \u0443\u043b\u0438\u0446\u0430","name:pl":"\u0141ucka","ref":"\u041d-17;\u0422-03-02","id":239809706},"arcs":[193]},{"type":"MultiLineString","properties":{"kind":"major_road","network":"ua:national","sort_rank":380,"kind_detail":"primary","source":"openstreetmap.org","min_zoom":8.0,"shield_text":"17","ref":"\u041d-17"},"arcs":[[194],[195],[196]]},{"type":"LineString","properties":{"source":"openstreetmap.org","kind":"major_road","sort_rank":380,"kind_detail":"primary","ref":"\u0420-15","min_zoom":8.0},"arcs":[197]},{"type":"LineString","properties":{"kind":"major_road","name:en":"Yaroslava Mudroho Street","network":"ua:territorial","sort_rank":380,"kind_detail":"primary","source":"openstreetmap.org","min_zoom":8.0,"shield_text":"\u04221425","name:ru":"\u042f\u0440\u043e\u0441\u043b\u0430\u0432\u0430 \u041c\u0443\u0434\u0440\u043e\u0433\u043e \u0443\u043b\u0438\u0446\u0430","ref":"\u0422-14-25","id":158029993},"arcs":[198]},{"type":"LineString","properties":{"bus_network":null,"name:en":"Soborna Square","sort_rank":380,"kind_detail":"primary","name:fr":"Place Soborna","kind":"major_road","source":"openstreetmap.org","min_zoom":8.0,"bus_shield_text":"4\u0410","name:ru":"\u0421\u043e\u0431\u043e\u0440\u043d\u0430\u044f \u043f\u043b\u043e\u0449\u0430\u0434\u044c","name:pl":"plac Bernardy\u0144ski","landuse_kind":"urban_area","old_name:de":"Czarniecki-Gasse"},"arcs":[199]},{"type":"LineString","properties":{"kind":"major_road","name:en":"Doroshenka Street","network":"ua:regional","sort_rank":380,"kind_detail":"primary","source":"openstreetmap.org","min_zoom":8.0,"shield_text":"15","name:ru":"\u0414\u043e\u0440\u043e\u0448\u0435\u043d\u043a\u043e \u0443\u043b\u0438\u0446\u0430","ref":"\u0420-15","id":133412827},"arcs":[200]},{"type":"LineString","properties":{"old_name:uk":"\u0420\u0430\u0434\u044f\u043d\u0441\u044c\u043a\u0430 \u0432\u0443\u043b\u0438\u0446\u044f","kind":"major_road","name:en":"Volodymyra Vynnychenka Street","old_name:pl":"Czarnieckiego","kind_detail":"primary","bus_network":null,"old_name:de":"Zoll-Platz","source":"openstreetmap.org","min_zoom":8.0,"bus_shield_text":"4\u0410","name:ru":"\u0412\u043b\u0430\u0434\u0438\u043c\u0438\u0440\u0430 \u0412\u0438\u043d\u043d\u0438\u0447\u0435\u043d\u043a\u043e \u0443\u043b\u0438\u0446\u0430","landuse_kind":"urban_area","id":477127997,"sort_rank":380},"arcs":[201]},{"type":"LineString","properties":{"bus_network":null,"name:en":"Tarasa Shevchenka Street","sort_rank":380,"landuse_kind":"urban_area","kind":"major_road","source":"openstreetmap.org","min_zoom":8.0,"bus_shield_text":"184\u0430","name:ru":"\u0422\u0430\u0440\u0430\u0441\u0430 \u0428\u0435\u0432\u0447\u0435\u043d\u043a\u043e \u0443\u043b\u0438\u0446\u0430","kind_detail":"primary","name:pl":"ulica Tarasa Szewczenki","old_name:de":"Janower Stra\u00dfe"},"arcs":[202]},{"type":"LineString","properties":{"kind":"major_road","name:en":"Vasylia Stusa Street","network":"ua:national","sort_rank":380,"kind_detail":"primary","source":"openstreetmap.org","min_zoom":8.0,"name:be":"\u0412\u0430\u0441\u0456\u043b\u044f \u0421\u0442\u0443\u0441\u0430 \u0432\u0443\u043b\u0456\u0446\u0430","shield_text":"17","name:ru":"\u0412\u0430\u0441\u0438\u043b\u0438\u044f \u0421\u0442\u0443\u0441\u0430 \u0443\u043b\u0438\u0446\u0430","ref":"\u041d-17","id":168694269},"arcs":[203]},{"type":"LineString","properties":{"bus_network":"regional","name:en":"Nezalezhnosti Street","network":"ua:national","sort_rank":380,"kind_detail":"primary","kind":"major_road","source":"openstreetmap.org","min_zoom":8.0,"bus_shield_text":"255","shield_text":"17","name:ru":"\u041d\u0435\u0437\u0430\u0432\u0438\u0441\u0438\u043c\u043e\u0441\u0442\u0438 \u0443\u043b\u0438\u0446\u0430","name:pl":"ulica Niepodleg\u0142o\u015bci","ref":"\u041d-17","id":172007801},"arcs":[204]},{"type":"LineString","properties":{"bus_network":null,"network":"e-road","sort_rank":381,"kind_detail":"trunk","kind":"major_road","source":"openstreetmap.org","min_zoom":8.0,"bus_shield_text":"121","shield_text":"40","ref":"\u041c-06"},"arcs":[205]},{"type":"LineString","properties":{"old_name:uk":"\u0420\u0430\u0434\u044f\u043d\u0441\u044c\u043a\u0430 \u0432\u0443\u043b\u0438\u0446\u044f","bus_network":null,"name:en":"Volodymyra Vynnychenka Street","old_name:pl":"Czarnieckiego","kind_detail":"primary","old_name:ru":"\u0421\u043e\u0432\u0435\u0442\u0441\u043a\u0430\u044f \u0443\u043b\u0438\u0446\u0430","is_bicycle_related":true,"kind":"major_road","source":"openstreetmap.org","min_zoom":8.0,"bus_shield_text":"15","name:ru":"\u0412\u043b\u0430\u0434\u0438\u043c\u0438\u0440\u0430 \u0412\u0438\u043d\u043d\u0438\u0447\u0435\u043d\u043a\u043e \u0443\u043b\u0438\u0446\u0430","landuse_kind":"urban_area","id":183563027,"sort_rank":380},"arcs":[206]},{"type":"LineString","properties":{"kind":"major_road","network":"e-road","sort_rank":381,"kind_detail":"trunk","bus_network":null,"source":"openstreetmap.org","min_zoom":8.0,"bus_shield_text":"7","shield_text":"372","landuse_kind":"urban_area","ref":"\u041c-06-02","id":183876157},"arcs":[207]},{"type":"LineString","properties":{"kind":"major_road","name:en":"Hlynianskyi Trakt Street","sort_rank":380,"kind_detail":"primary","is_bicycle_related":true,"bus_network":null,"cycleway":"shared_lane","source":"openstreetmap.org","min_zoom":8.0,"bus_shield_text":"217A","name:ru":"\u0413\u043b\u0438\u043d\u044f\u043d\u0441\u043a\u0438\u0439 \u0422\u0440\u0430\u043a\u0442 \u0443\u043b\u0438\u0446\u0430","landuse_kind":"urban_area","id":392650180},"arcs":[208]},{"type":"LineString","properties":{"source":"openstreetmap.org","kind":"major_road","landuse_kind":"urban_area","sort_rank":380,"kind_detail":"primary","min_zoom":8.0},"arcs":[209]},{"type":"LineString","properties":{"kind":"major_road","name:en":"Halana Street","network":"ua:regional","sort_rank":380,"kind_detail":"primary","source":"openstreetmap.org","min_zoom":8.0,"shield_text":"15","name:ru":"\u0413\u0430\u043b\u0430\u043d\u0430 \u0443\u043b\u0438\u0446\u0430","ref":"\u0420-15"},"arcs":[210]},{"type":"LineString","properties":{"kind":"major_road","name:en":"Staromiska Street","sort_rank":380,"kind_detail":"primary","bus_network":null,"source":"openstreetmap.org","min_zoom":8.0,"bus_shield_text":"184\u0430","name:ru":"\u0421\u0442\u0430\u0440\u043e\u0433\u043e\u0440\u043e\u0434\u0441\u043a\u0430\u044f \u0443\u043b\u0438\u0446\u0430","landuse_kind":"urban_area","id":161898370},"arcs":[211]},{"type":"LineString","properties":{"bus_network":null,"name:en":"Bozhenka Street","sort_rank":380,"kind_detail":"primary","kind":"major_road","source":"openstreetmap.org","min_zoom":8.0,"bus_shield_text":"1","name:ru":"\u0411\u043e\u0436\u0435\u043d\u043a\u043e \u0443\u043b\u0438\u0446\u0430"},"arcs":[212]},{"type":"LineString","properties":{"kind":"major_road","sort_rank":380,"kind_detail":"primary","bus_network":null,"source":"openstreetmap.org","min_zoom":8.0,"bus_shield_text":"184\u0430","landuse_kind":"urban_area","id":139932906},"arcs":[213]},{"type":"LineString","properties":{"kind":"major_road","name:en":"Avtobusna Street","network":"ua:regional","sort_rank":380,"kind_detail":"primary","source":"openstreetmap.org","min_zoom":8.0,"shield_text":"15","name:ru":"\u0410\u0432\u0442\u043e\u0431\u0443\u0441\u043d\u0430\u044f \u0443\u043b\u0438\u0446\u0430","ref":"\u0420-15","id":133412826},"arcs":[214]},{"type":"LineString","properties":{"kind":"major_road","name:en":"Viacheslava Chornovola Avenue","sort_rank":380,"kind_detail":"primary","bus_network":null,"source":"openstreetmap.org","min_zoom":8.0,"bus_shield_text":"4\u0410","name:ru":"\u0412\u044f\u0447\u0435\u0441\u043b\u0430\u0432\u0430 \u0427\u0435\u0440\u043d\u043e\u0432\u043e\u043b\u0430 \u043f\u0440\u043e\u0441\u043f\u0435\u043a\u0442","landuse_kind":"urban_area","id":152451720},"arcs":[215]},{"type":"LineString","properties":{"kind":"major_road","name:en":"Soborna Square","sort_rank":380,"kind_detail":"primary","bus_network":null,"name:de":"Bernhardinerplatz","source":"openstreetmap.org","name:fr":"Place Soborna","bus_shield_text":"4\u0410","name:ru":"\u0421\u043e\u0431\u043e\u0440\u043d\u0430\u044f \u043f\u043b\u043e\u0449\u0430\u0434\u044c","min_zoom":8.0,"landuse_kind":"urban_area","id":160931059},"arcs":[216]},{"type":"LineString","properties":{"bus_network":null,"sort_rank":380,"kind_detail":"primary","kind":"major_road","source":"openstreetmap.org","min_zoom":8.0,"bus_shield_text":"6\u0410","landuse_kind":"urban_area"},"arcs":[217]},{"type":"LineString","properties":{"bus_network":"regional","name:en":"Lvivska Street","network":"e-road","sort_rank":381,"kind_detail":"trunk","kind":"major_road","name:ru":"\u041b\u044c\u0432\u043e\u0432\u0441\u043a\u0430\u044f \u0443\u043b\u0438\u0446\u0430","source":"openstreetmap.org","min_zoom":8.0,"bus_shield_text":null,"shield_text":"372","name:be":"\u041b\u044c\u0432\u043e\u045e\u0441\u043a\u0430\u044f \u0432\u0443\u043b\u0456\u0446\u0430","name:pl":"ulica Lwowska","ref":"\u041c-09","id":423197705},"arcs":[218]},{"type":"LineString","properties":{"kind":"major_road","name:en":"Bozhenka Street","sort_rank":380,"kind_detail":"primary","source":"openstreetmap.org","min_zoom":8.0,"name:ru":"\u0411\u043e\u0436\u0435\u043d\u043a\u043e \u0443\u043b\u0438\u0446\u0430","id":148821053},"arcs":[219]},{"type":"MultiLineString","properties":{"bus_network":"regional","network":"ua:national","sort_rank":380,"kind_detail":"primary","kind":"major_road","source":"openstreetmap.org","min_zoom":8.0,"bus_shield_text":"791","shield_text":"02","ref":"\u041d-02"},"arcs":[[220],[221],[222]]},{"type":"LineString","properties":{"kind":"major_road","network":"ua:regional","sort_rank":380,"kind_detail":"primary","source":"openstreetmap.org","min_zoom":8.0,"landuse_kind":"residential","shield_text":"39","ref":"\u0420-39","id":505568191},"arcs":[223]},{"type":"LineString","properties":{"kind":"major_road","name:en":"Lutska Street","network":"ua:national","sort_rank":380,"kind_detail":"primary","source":"openstreetmap.org","min_zoom":8.0,"landuse_kind":"residential","shield_text":"17","name:ru":"\u041b\u0443\u0446\u043a\u0430\u044f \u0443\u043b\u0438\u0446\u0430","name:pl":"\u0141ucka","ref":"\u041d-17","id":144308368},"arcs":[224]},{"type":"MultiLineString","properties":{"bus_network":null,"name:en":"Horodotska Street","sort_rank":380,"kind_detail":"primary","kind":"major_road","name:de":"Grodecker Stra\u00dfe","source":"openstreetmap.org","min_zoom":8.0,"bus_shield_text":"184\u0430","name:ru":"\u0413\u043e\u0440\u043e\u0434\u043e\u0446\u043a\u0430\u044f \u0443\u043b\u0438\u0446\u0430","name:pl":"ulica Gr\u00f3decka","landuse_kind":"urban_area"},"arcs":[[225],[226]]},{"type":"LineString","properties":{"kind":"major_road","name:en":"Shevchenka Street","network":"ua:national","sort_rank":380,"kind_detail":"primary","source":"openstreetmap.org","min_zoom":8.0,"landuse_kind":"residential","shield_text":"17","name:ru":"\u0428\u0435\u0432\u0447\u0435\u043d\u043a\u043e \u0443\u043b\u0438\u0446\u0430","name:pl":"Szewczenki","ref":"\u041d-17","id":144308367},"arcs":[227]},{"type":"LineString","properties":{"kind":"major_road","name:en":"Lvivska Street","network":"ua:national","sort_rank":380,"kind_detail":"primary","source":"openstreetmap.org","min_zoom":8.0,"landuse_kind":"residential","shield_text":"17","name:ru":"\u041b\u044c\u0432\u043e\u0432\u0441\u043a\u0430\u044f \u0443\u043b\u0438\u0446\u0430","name:pl":"Lwowska","ref":"\u041d-17","id":239809707},"arcs":[228]},{"type":"MultiLineString","properties":{"old_name:uk":"\u041b\u0435\u043d\u0456\u043d\u0430 \u0432\u0443\u043b\u0438\u0446\u044f","bus_network":null,"name:en":"Lychakivska Street","sort_rank":380,"kind_detail":"primary","old_name:ru":"\u041b\u0435\u043d\u0438\u043d\u0430 \u0443\u043b\u0438\u0446\u0430","name:fr":"Rue Lytchakyvska","source":"openstreetmap.org","min_zoom":8.0,"bus_shield_text":"5\u0410","name:ru":"\u041b\u044b\u0447\u0430\u043a\u043e\u0432\u0441\u043a\u0430\u044f \u0443\u043b\u0438\u0446\u0430","name:pl":"ulica \u0141yczakowska","landuse_kind":"urban_area","kind":"major_road"},"arcs":[[229],[230]]},{"type":"LineString","properties":{"kind":"major_road","name:en":"Adama Mitskevycha Square","sort_rank":380,"kind_detail":"primary","bus_network":null,"name:de":"Marienplatz","source":"openstreetmap.org","min_zoom":8.0,"bus_shield_text":"4\u0410","name:ru":"\u0410\u0434\u0430\u043c\u0430 \u041c\u0438\u0446\u043a\u0435\u0432\u0438\u0447\u0430 \u043f\u043b\u043e\u0449\u0430\u0434\u044c","name:pl":"plac Mariacki","landuse_kind":"urban_area","name:zh":"\u4e9a\u5f53\u5bc6\u8328\u51ef\u7ef4\u5947\u5e7f\u573a","id":23535373},"arcs":[231]},{"type":"LineString","properties":{"old_name:uk":"\u0420\u0430\u0434\u044f\u043d\u0441\u044c\u043a\u0430 \u0432\u0443\u043b\u0438\u0446\u044f","kind":"major_road","name:en":"Volodymyra Vynnychenka Street","old_name:pl":"Czarnieckiego","kind_detail":"primary","old_name:ru":"\u0421\u043e\u0432\u0435\u0442\u0441\u043a\u0430\u044f \u0443\u043b\u0438\u0446\u0430","bus_network":null,"old_name:de":"Zoll-Platz","source":"openstreetmap.org","min_zoom":8.0,"bus_shield_text":"4\u0410","name:ru":"\u0412\u043b\u0430\u0434\u0438\u043c\u0438\u0440\u0430 \u0412\u0438\u043d\u043d\u0438\u0447\u0435\u043d\u043a\u043e \u0443\u043b\u0438\u0446\u0430","landuse_kind":"urban_area","id":73170649,"sort_rank":380},"arcs":[232]},{"type":"LineString","properties":{"kind":"major_road","name:en":"Lvivska Street","sort_rank":380,"kind_detail":"primary","source":"openstreetmap.org","min_zoom":8.0,"name:ru":"\u041b\u044c\u0432\u043e\u0432\u0441\u043a\u0430\u044f \u0443\u043b\u0438\u0446\u0430","name:pl":"ulica Lwowska","id":151507162},"arcs":[233]},{"type":"LineString","properties":{"bus_network":null,"name:en":"Bohdana Khmelnytskoho Street","sort_rank":380,"kind_detail":"primary","name:fr":"Rue Bohdana Khmeln\u00e9tskoho","source":"openstreetmap.org","min_zoom":8.0,"bus_shield_text":"7","name:ru":"\u0411\u043e\u0433\u0434\u0430\u043d\u0430 \u0425\u043c\u0435\u043b\u044c\u043d\u0438\u0446\u043a\u043e\u0433\u043e \u0443\u043b\u0438\u0446\u0430","name:be":"\u0411\u0430\u0433\u0434\u0430\u043d\u0430 \u0425\u043c\u044f\u043b\u044c\u043d\u0456\u0446\u043a\u0430\u0433\u0430 \u0432\u0443\u043b\u0456\u0446\u0430","landuse_kind":"urban_area","kind":"major_road"},"arcs":[234]},{"type":"LineString","properties":{"kind":"major_road","name:en":"Tarasa Shevchenka Street","sort_rank":380,"kind_detail":"primary","bus_network":null,"old_name:de":"Janower Stra\u00dfe","source":"openstreetmap.org","min_zoom":8.0,"bus_shield_text":"6\u0410","name:ru":"\u0422\u0430\u0440\u0430\u0441\u0430 \u0428\u0435\u0432\u0447\u0435\u043d\u043a\u043e \u0443\u043b\u0438\u0446\u0430","name:pl":"ulica Tarasa Szewczenki","landuse_kind":"urban_area","id":253498835},"arcs":[235]},{"type":"MultiLineString","properties":{"bus_network":"regional","network":"e-road","sort_rank":381,"kind_detail":"trunk","kind":"major_road","source":"openstreetmap.org","min_zoom":8.0,"bus_shield_text":null,"shield_text":"372","ref":"\u041c-09"},"arcs":[[236],[237],[238]]},{"type":"LineString","properties":{"bus_network":null,"name:en":"Horodotska Street","sort_rank":380,"kind_detail":"primary","kind":"major_road","source":"openstreetmap.org","min_zoom":8.0,"bus_shield_text":"184\u0430","name:ru":"\u0413\u043e\u0440\u043e\u0434\u043e\u0446\u043a\u0430\u044f \u0443\u043b\u0438\u0446\u0430","name:pl":"ulica Gr\u00f3decka","landuse_kind":"urban_area"},"arcs":[239]},{"type":"LineString","properties":{"kind":"major_road","network":"e-road","sort_rank":381,"kind_detail":"trunk","source":"openstreetmap.org","min_zoom":8.0,"shield_text":"372","ref":"\u041c-09"},"arcs":[240]},{"type":"MultiLineString","properties":{"old_name:uk":"700-\u0440\u0456\u0447\u0447\u044f \u041b\u044c\u0432\u043e\u0432\u0430","bus_network":null,"name:en":"Viacheslava Chornovola Avenue","sort_rank":380,"kind_detail":"primary","old_name:ru":"700-\u043b\u0435\u0442\u0438\u044f \u041b\u044c\u0432\u043e\u0432\u0430","kind":"major_road","source":"openstreetmap.org","min_zoom":8.0,"bus_shield_text":"184\u0430","name:ru":"\u0412\u044f\u0447\u0435\u0441\u043b\u0430\u0432\u0430 \u0427\u0435\u0440\u043d\u043e\u0432\u043e\u043b\u0430 \u043f\u0440\u043e\u0441\u043f\u0435\u043a\u0442","landuse_kind":"urban_area"},"arcs":[[241],[242],[243]]}]},"earth":{"type":"GeometryCollection","geometries":[{"type":"Polygon","properties":{"sort_rank":10,"source":"naturalearthdata.com","kind":"earth","min_zoom":0.0,"id":4754},"arcs":[[244]]}]},"landuse":{"type":"GeometryCollection","geometries":[{"type":"Polygon","properties":{"kind":"nature_reserve","protect_class":"4","area":13135000,"sort_rank":23,"operator":"\u041f\u0456\u0434\u043a\u0430\u043c\u0456\u043d\u0441\u044c\u043a\u0430 \u0441\u0435\u043b\u0438\u0449\u043d\u0430 \u0440\u0430\u0434\u0430","source":"openstreetmap.org","min_zoom":8.0,"tier":2,"id":444246431},"arcs":[[245]]},{"type":"Polygon","properties":{"kind":"residential","name":"\u041f\u0456\u0434\u043a\u0430\u043c\u0456\u043d\u044c","area":11176900,"sort_rank":20,"source":"openstreetmap.org","min_zoom":8.0,"tier":2,"id":-4172890,"osm_relation":true},"arcs":[[246]]},{"type":"Polygon","properties":{"kind":"residential","name:en":"Radyvyliv","name":"\u0420\u0430\u0434\u0438\u0432\u0438\u043b\u0456\u0432","name:lt":"Radyvylivas","area":17368000,"sort_rank":20,"name:eo":"Radiviliv","name:de":"Radywyliw","source":"openstreetmap.org","min_zoom":8.0,"tier":2,"name:ru":"\u0420\u0430\u0434\u0438\u0432\u0438\u043b\u043e\u0432","name:pl":"Radziwi\u0142\u0142\u00f3w","id":-3629331,"osm_relation":true},"arcs":[[247]]},{"type":"Polygon","properties":{"kind":"residential","name":"\u041f\u0456\u0434\u0433\u0456\u0440\u0446\u0456","area":13283500,"sort_rank":20,"source":"openstreetmap.org","min_zoom":8.0,"tier":2,"id":-7376249,"osm_relation":true},"arcs":[[248]]},{"type":"MultiPolygon","properties":{"kind":"protected_area","protect_class":"4","area":125427366,"sort_rank":17,"source":"openstreetmap.org","min_zoom":8.0,"tier":2,"osm_relation":true},"arcs":[[[249],[250]],[[251],[252]],[[253],[254]],[[255]],[[256]]]},{"type":"MultiPolygon","properties":{"source":"openstreetmap.org","kind":"nature_reserve","tier":2,"protect_class":"4","area":13075808,"sort_rank":23,"min_zoom":8.0},"arcs":[[[257]]]},{"type":"Polygon","properties":{"kind":"residential","name:en":"Horokhiv","name":"\u0413\u043e\u0440\u043e\u0445\u0456\u0432","area":12125000,"sort_rank":20,"source":"openstreetmap.org","min_zoom":8.0,"int_name":"Horochiw","tier":2,"name:ru":"\u0413\u043e\u0440\u043e\u0445\u043e\u0432","name:pl":"Horoch\u00f3w","id":-3590711,"osm_relation":true},"arcs":[[258]]},{"type":"Polygon","properties":{"kind":"nature_reserve","natural":"wood","protect_class":"4","area":27377600,"sort_rank":23,"source":"openstreetmap.org","min_zoom":8.0,"tier":2,"id":206382063},"arcs":[[259]]},{"type":"MultiPolygon","properties":{"source":"naturalearthdata.com","kind":"urban_area","name":"","area":752405854,"sort_rank":11,"min_zoom":4.0},"arcs":[[[260]],[[261]]]},{"type":"MultiPolygon","properties":{"kind":"national_park","protect_class":"2","area":388626364,"sort_rank":18,"source":"openstreetmap.org","min_zoom":5.0,"tier":1,"osm_relation":true},"arcs":[[[262]]]},{"type":"Polygon","properties":{"kind":"residential","name:en":"Velyki Mosty","name":"\u0412\u0435\u043b\u0438\u043a\u0456 \u041c\u043e\u0441\u0442\u0438","area":11844200,"sort_rank":20,"source":"openstreetmap.org","min_zoom":8.0,"tier":2,"name:ru":"\u0412\u0435\u043b\u044b\u043a\u0438 \u041c\u043e\u0441\u0442\u044b","name:pl":"Mosty Wielkie","id":-4245599,"osm_relation":true},"arcs":[[263]]},{"type":"MultiPolygon","properties":{"source":"openstreetmap.org","kind":"battlefield","area":179443008,"tier":1,"id":511836517,"min_zoom":5.0,"sort_rank":25},"arcs":[[[264]],[[265]]]},{"type":"MultiPolygon","properties":{"source":"openstreetmap.org","kind":"residential","tier":2,"area":187707337,"sort_rank":20,"min_zoom":8.0},"arcs":[[[266]],[[267]],[[268]],[[269]],[[270]],[[271]],[[272]]]},{"type":"Polygon","properties":{"kind":"residential","name:en":"Krasne","name":"\u041a\u0440\u0430\u0441\u043d\u0435","area":12303400,"sort_rank":20,"source":"openstreetmap.org","min_zoom":8.0,"tier":2,"name:ru":"\u041a\u0440\u0430\u0441\u043d\u043e\u0435","name:pl":"Krasne","id":30709849},"arcs":[[273]]},{"type":"Polygon","properties":{"source":"openstreetmap.org","kind":"battlefield","area":58033700,"tier":1,"id":448568864,"min_zoom":8.0,"sort_rank":25},"arcs":[[274]]}]}},"type":"Topology","transform":{"translate":[23.90625,49.8379824531],"scale":[0.0003433228,0.0002193537]},"arcs":[[[331,4096],[-9,-62],[20,10],[60,-45],[81,24],[-7,-167],[-18,5],[-4,-32],[58,-14],[10,-61],[16,10],[-32,-85],[23,-1],[-8,-7],[10,-37],[28,11],[-20,-84],[21,-89],[-83,-439],[-103,-266],[-84,-44],[-24,-106],[-165,9],[-101,-11]],[[0,2615],[101,11],[165,-9],[24,106],[84,44],[103,266],[62,268],[20,344]],[[559,3645],[-28,-11],[-2,44],[-23,1],[31,39],[-24,96],[-59,15],[4,32],[18,-5],[7,167],[-81,-24],[-60,45],[-20,-10],[9,62]],[[4096,65],[-39,7],[-23,-72]],[[3941,0],[-2,3],[-3,-3]],[[4096,844],[-336,492],[32,140],[-21,22],[41,59],[-144,135],[11,63],[45,14],[16,103],[48,-6],[-5,146],[-112,49],[-112,-36],[-45,23]],[[3514,2048],[-171,63],[14,188],[-74,16],[-48,-19],[-222,217],[-33,-51],[30,-65],[-8,-82],[-150,-6],[5,65],[-59,11],[-22,-52],[-204,-17],[-31,-30],[-186,16],[21,138],[-43,48],[-163,90],[9,30],[-82,-8],[-86,25],[8,193],[-53,8],[49,39],[-2,55],[-28,68],[-60,-20],[-37,23],[10,79],[-79,183],[-121,22],[-65,-71],[-48,-7],[-128,96],[-23,63],[43,57],[-95,103],[-57,-56],[-110,13],[9,-32],[-41,-95],[-238,53],[-16,42],[-41,-3],[-26,96],[-52,28],[-32,-13],[7,33],[-36,37],[27,8],[-52,60],[-30,-18],[-78,23],[12,-19],[-33,-33],[-36,5]],[[4096,3246],[-47,-48],[-116,-31],[-76,38],[-113,8],[0,39],[-159,-16],[-44,27],[2,-116],[62,-32],[46,-71],[-26,-169],[-195,31],[159,-66],[-1,-37],[33,-3],[11,-41],[-35,-8],[-7,-58],[57,1],[29,-55],[5,-98],[82,-10],[34,-55],[-12,-60],[-32,-25],[-45,-1],[-31,80],[-80,-48],[31,-78],[-18,-36],[60,-60],[-107,-57],[7,-36],[-67,7],[-6,-56],[-18,2],[35,-60]],[[4096,3606],[-60,7],[10,-128],[41,-55],[-8,-43],[17,6]],[[254,31],[-12,-31]],[[256,8],[-3,-5],[-2,-3]],[[256,9],[-8,-9]],[[254,9],[-25,76],[20,33],[87,-57],[129,11],[59,125],[71,28],[211,8],[113,130],[31,103],[-11,156],[109,58],[33,87],[160,175],[17,206],[-29,68],[53,88],[-12,49],[37,209],[-35,247],[-183,227],[-128,119],[-11,143],[-67,164],[55,57],[0,106],[76,173],[10,105],[-34,187],[190,252],[58,32],[81,-4],[23,27],[-19,164],[51,153],[-23,87],[24,74],[-3,168],[-36,53]],[[254,9],[-25,76],[22,34],[85,-58],[120,10]],[[529,199],[104,29],[138,-8],[64,43],[83,96],[31,101],[-10,162],[109,58],[33,87],[160,176],[17,205],[-29,68],[53,88],[-12,49],[37,209],[-35,247],[-183,227],[-128,119],[-11,143],[-67,164],[55,57],[0,106],[76,173],[10,105],[-34,187],[190,252],[58,32],[81,-4],[23,27],[-19,164],[51,153],[-23,87],[24,74],[-3,168],[-36,53]],[[319,16],[6,4]],[[219,1051],[-23,-50]],[[458,178],[-8,25]],[[2119,2055],[9,64]],[[305,29],[-188,117]],[[319,23],[-1,0]],[[760,10],[-138,14]],[[742,376],[31,91],[111,69],[33,83],[71,82],[227,192],[25,50],[16,220]],[[1287,1294],[556,411],[208,228]],[[387,9],[21,4]],[[354,12],[2,-4]],[[3870,1326],[22,11]],[[456,174],[-4,-7]],[[3670,1056],[49,-36]],[[249,972],[-1,50]],[[458,167],[0,11]],[[351,31],[5,0]],[[622,24],[-4,1]],[[344,57],[0,-3]],[[345,54],[2,-21]],[[4047,4068],[-12,-57]],[[4053,4096],[-1,-5]],[[2438,2983],[-1,-1]],[[408,13],[2,-1]],[[410,12],[10,-4]],[[2023,622],[-47,-42]],[[2066,641],[-43,-18]],[[4013,1453],[37,-3],[44,7]],[[4094,1457],[-20,1],[-23,-7],[-37,3]],[[372,5],[4,-1]],[[350,99],[-1,-1]],[[351,101],[0,-1]],[[117,1046],[12,-14]],[[209,999],[0,-6]],[[219,1052],[0,-1]],[[1974,572],[-1,1]],[[2063,650],[1,-8]],[[2120,613],[9,47]],[[4034,4008],[1,2]],[[4035,4010],[0,1],[1,-1]],[[4034,4008],[1,0]],[[4035,4008],[2,1],[-2,1]],[[4035,4010]],[[3788,1277],[-91,-104],[-18,-88]],[[3788,1277],[14,16]],[[3804,1299],[-16,-22]],[[3802,1294],[2,5]],[[362,5],[4,1]],[[674,1860],[-21,-86]],[[377,32],[-6,-2]],[[32,161],[-32,1]],[[410,12]],[[351,31],[-4,-1]],[[430,128],[-1,-4]],[[451,165],[-20,-37]],[[2037,578],[-58,-6]],[[2051,1933],[48,49]],[[3892,1337],[10,-5]],[[674,268],[-4,-2]],[[341,90],[-4,-4]],[[349,98],[-7,-8]],[[351,100],[-1,-1]],[[425,123],[-74,-22]],[[3719,1020],[117,-83],[39,-60],[7,-181],[53,-15],[17,-55],[144,-19]],[[4096,346],[-24,53],[17,50]],[[4096,604],[0,-66]],[[752,162],[14,-129],[-7,-33]],[[675,268],[-1,1],[-1,-1],[1,-1],[1,1]],[[676,266],[-1,2]],[[1586,633],[-49,12],[-115,-81],[-113,-193],[-91,22],[-171,-33],[-305,16]],[[1716,597],[-130,36]],[[1976,580],[-137,-17],[-123,34]],[[2023,623],[0,-1]],[[2134,662],[-68,-21]],[[2356,661],[-222,1]],[[3527,765],[-71,-115],[-195,-99],[-154,42],[-124,-14],[-73,69],[-41,-1],[-69,-69],[-73,-3],[-227,83],[-144,3]],[[3527,765],[96,248]],[[3679,1085],[-56,-72]],[[3802,1293],[0,1]],[[4014,1454],[-71,5],[-85,-32],[-54,-128]],[[3804,1299],[55,127],[84,33],[70,-6]],[[4096,1457],[-2,0]],[[4094,1457],[2,0]],[[4079,1457],[2,-1]],[[2533,3044],[0,1]],[[184,993],[7,2]],[[746,3989],[-27,-37]],[[618,25],[-41,-5]],[[369,6],[3,-1]],[[371,30],[-1,-1]],[[191,995],[36,-3]],[[65,159],[-33,2]],[[378,8],[9,1]],[[350,33],[-3,0]],[[670,266],[-117,-23]],[[352,31],[-1,0]],[[1276,1192],[-5,0]],[[346,56],[-1,1]],[[347,53],[-1,2]],[[421,8],[5,-3]],[[2479,3028],[8,1]],[[436,2],[4,-2]],[[227,992],[22,-20]],[[332,22],[14,7]],[[346,29],[1,0]],[[347,30],[-1,-1]],[[652,1771],[-104,-274],[-329,-445]],[[913,2407],[-70,-206],[-161,-320]],[[577,20],[-39,-9]],[[347,29],[7,-17]],[[4052,4091],[-5,-23]],[[347,32],[0,-2]],[[364,30],[-6,1]],[[117,146],[-52,13]],[[351,32],[-1,1]],[[653,1774],[-1,-3]],[[682,1881],[-8,-21]],[[522,11],[-14,-9]],[[742,376],[-25,-78],[-41,-28]],[[379,11],[-1,12]],[[190,1002],[19,-3]],[[348,35],[-1,1]],[[356,31],[-4,0]],[[876,2540],[59,-27]],[[342,90],[-1,0]],[[427,124],[-1,-2]],[[259,962],[48,-52]],[[325,20],[7,2]],[[526,231],[-60,-44]],[[344,54],[1,0]],[[337,85],[0,2],[-2,-1],[0,-1],[2,0]],[[508,2],[-7,-2]],[[318,23],[0,-1]],[[129,1032],[25,-38]],[[366,6],[3,0]],[[935,2513],[-49,-65],[26,-41]],[[3964,1235],[5,-1]],[[3976,1232],[92,-24],[28,17]],[[431,128],[-1,0]],[[429,122],[0,2],[-3,0],[1,-3],[2,1]],[[187,998],[3,4]],[[356,31],[2,0]],[[370,29],[-6,1]],[[2099,1982],[7,56]],[[3955,1248],[9,-13]],[[2051,575],[-14,3]],[[2052,575],[-1,0]],[[2051,575],[2,0]],[[2054,577],[-2,-2]],[[2053,575],[-1,0]],[[2053,575],[1,2]],[[2058,582],[-4,-5]],[[2061,584],[-3,-2]],[[2066,612],[-5,-28]],[[2064,642],[2,-30]],[[2066,612],[54,1]],[[2106,2038],[13,17]],[[553,243],[-19,-8]],[[719,3952],[3,-109],[101,-218],[-1,-65],[-65,-106],[59,-295],[-25,-190]],[[746,3993],[0,-4],[1,0]],[[791,2968],[31,-174],[-47,-226],[101,-28]],[[748,3990],[-1,0],[0,-1],[1,1]],[[791,2968],[0,1]],[[791,2969],[-1,-1],[1,0]],[[3902,1332],[53,-84]],[[154,994],[30,-1]],[[336,84],[8,-27]],[[3969,1234],[7,-2]],[[347,29],[4,2]],[[676,270],[-2,-2]],[[332,23],[-8,-1]],[[1256,1163],[19,27]],[[356,8],[2,-1]],[[466,187],[-8,-10]],[[534,235],[-8,-4]],[[347,30],[0,-1]],[[1271,1192],[-15,42],[31,60]],[[376,4],[1,3]],[[2487,3029],[32,2]],[[2128,2119],[50,282]],[[2208,2475],[122,408],[107,99]],[[2533,3045],[155,151],[359,119],[182,20],[757,548],[48,124]],[[913,2407],[0,-2]],[[252,988],[-25,4]],[[375,0],[1,3]],[[719,4096],[-1,-5]],[[377,7],[1,1]],[[324,22],[-5,1]],[[2178,2401],[30,74]],[[1275,1190],[1,2]],[[674,267],[78,-105]],[[378,23],[-1,9]],[[458,177],[-2,-3]],[[538,11],[-16,0]],[[433,3],[3,-1]],[[715,4050],[33,-60]],[[351,31],[0,1]],[[4096,3999],[-36,4]],[[351,31]],[[718,4091],[-3,-41]],[[347,33],[0,-1]],[[376,3],[0,1]],[[319,23],[0,-7]],[[249,972],[7,-7]],[[4060,4003],[-23,6]],[[3802,1293],[1,0]],[[3803,1293],[-1,1]],[[3803,1293],[67,33]],[[4089,449],[7,19]],[[2519,3031],[14,13]],[[308,10],[-24,-10]],[[339,24],[-7,-1]],[[2455,3019],[24,9]],[[2455,3019],[-17,-36]],[[420,8],[1,0]],[[426,5],[7,-2]],[[358,7],[4,-2]],[[378,8],[1,3]],[[1979,572],[-5,0]],[[452,167],[-1,-2]],[[318,23],[-13,6]],[[248,1022],[-29,30]],[[256,965],[3,-3]],[[450,203],[-28,231],[78,205],[-193,271]],[[319,16],[-11,-6]],[[0,1166],[114,-118],[55,18],[50,-14]],[[345,57],[-8,28]],[[346,55],[0,1]],[[347,36],[0,17]],[[0,4096],[4096,0],[0,-4096],[-4096,0],[0,4096]],[[3703,564],[81,96],[73,-57],[-37,-36],[-117,-3]],[[4058,500],[38,32],[0,-84],[-29,4],[25,11],[-34,37]],[[3870,1327],[12,34],[45,25],[5,-1],[-5,-11],[8,-10],[5,26],[29,6],[33,-81],[-52,-46],[35,-50],[-115,108]],[[3053,514],[102,11],[-11,-22],[27,-5],[52,39],[10,-49],[-34,6],[-66,-84],[-80,104]],[[2355,2489],[21,45],[44,11],[35,-21],[-44,-14],[14,-20],[65,38],[8,-35],[151,74],[7,-35],[87,-24],[25,14],[41,-74],[-60,-16],[-65,75],[-52,-49],[-24,27],[-28,-6],[3,-22],[-48,6],[3,-24],[-94,0],[6,-43],[-63,-19],[-26,9],[15,56],[22,2],[-43,45]],[[2575,2469],[1,-4],[6,0],[-1,4],[-6,0]],[[1520,3368],[49,83],[92,3],[-29,90],[67,-26],[23,21],[-11,-44],[-24,7],[23,-31],[-60,-31],[27,-41],[-157,-31]],[[1662,3517],[4,-7],[3,0],[-3,7],[-4,0]],[[1391,3532],[49,23],[-6,79],[50,-14],[5,-100],[33,2],[-54,-40],[64,-32],[-56,-35],[-34,15],[-51,102]],[[1442,3477],[2,-42],[25,0],[-2,46],[-25,-4]],[[367,4096],[30,-44],[106,-19],[20,-218],[34,-83],[-11,-97],[-39,44],[32,87],[-16,-12],[-12,63],[-56,12],[4,32],[18,-5],[6,168],[-80,-24],[-62,46],[-19,-10],[10,60],[35,0]],[[1802,4060],[81,35],[17,-29],[236,14],[-133,-45],[-201,25]],[[3872,1167],[76,21],[-7,39],[4,5],[53,-76],[-77,-61],[-49,72]],[[2429,3018],[50,49],[56,-23],[7,-30],[-22,-60],[-30,-4],[-15,33],[-43,0],[-3,35]],[[3823,2605],[8,81],[139,-9],[17,27],[15,-171],[-58,0],[-22,73],[-23,-29],[-29,-3],[41,37],[-88,-6]],[[628,0],[-523,0],[21,133],[-69,103],[4,99],[121,-123],[67,-28],[71,50],[0,51],[80,-32],[17,-69],[68,41],[29,60],[60,-66],[54,-219]],[[4096,4076],[-98,-17],[-22,25],[120,12],[0,-20]],[[3065,307],[22,45],[44,12],[16,76],[68,32],[18,-1],[28,-100],[54,-21],[14,76],[147,-18],[26,-32],[7,23],[60,5],[112,-100],[-65,8],[-19,-72],[59,29],[53,-42],[2,-40],[93,-36],[57,-71],[-66,7],[-18,-24],[-77,71],[-49,11],[-14,-49],[19,-24],[-44,7],[-72,106],[-76,24],[5,24],[-47,28],[-69,4],[-8,27],[-80,27],[34,-75],[-23,-31],[34,-29],[-59,-51],[-39,1],[-22,37],[-87,8],[51,64],[-17,66],[-72,-2]],[[629,1779],[38,102],[94,-4],[-23,-28],[16,-36],[-64,8],[2,-66],[-63,24]],[[3090,61],[20,52],[36,-10],[184,-103],[-133,0],[-107,61]],[[3385,0],[22,27],[-73,110],[27,83],[310,128],[26,-27],[-59,-123],[17,-133],[-30,-65],[-240,0]],[[1940,656],[124,-15],[54,-30],[24,27],[9,-33],[-46,-25],[-3,-53],[-23,21],[-43,-18],[-17,32],[-45,11],[15,40],[35,10],[-84,33]],[[692,1258],[7,19],[68,-4],[31,-30],[-18,-25],[45,-19],[-4,-18],[-102,3],[-27,74]],[[4011,1450],[31,36],[24,-25],[1,39],[27,-7],[2,-107],[-45,60],[-26,-14],[-14,18]],[[893,1786],[66,5],[22,59],[27,-12],[0,-45],[34,5],[-25,-65],[-37,3],[9,20],[-59,-4],[-37,34]],[[0,2126],[0,57],[160,-1],[-56,-85],[-104,29]],[[1060,2993],[98,-22],[-24,-4],[16,-55],[-26,4],[-29,-79],[-27,37],[-8,119]],[[848,2132],[52,69],[11,-26],[-26,-32],[27,-9],[-1,-128],[-38,5],[-25,121]],[[2006,307],[26,89],[24,-18],[25,56],[80,-33],[-71,-10],[25,-30],[-36,-2],[18,-35],[-35,0],[0,-31],[-56,14]],[[3579,2286],[1,35],[50,42],[104,-1],[80,-143],[67,12],[19,-21],[-10,-61],[-82,-3],[-97,34],[-132,106]]]}