{"objects":{"water":{"type":"GeometryCollection","geometries":[]},"buildings":{"type":"GeometryCollection","geometries":[]},"places":{"type":"GeometryCollection","geometries":[{"type":"Point","properties":{"alt_name:pl":"Iwano-Frankowsk","name:az":"\u0130vano-Frankovsk","name:id":"Ivano-Frankivsk","name:ka":"\u10d8\u10d5\u10d0\u10dc\u10dd-\u10e4\u10e0\u10d0\u10dc\u10d9\u10dd\u10d5\u10e1\u10d9\u10d8","name:ko":"\uc774\ubc14\ub178\ud504\ub780\ud0a4\uc6b0\uc2dc\ud06c","name:cs":"Ivano-Frankivsk","name:tr":"\u0130vano-Frankivsk","min_zoom":8.0,"name:ro":"Ivano-Frankivsk","name:it":"Ivano-Frankivs'k","name:vi":"Ivano-Frankivsk","name:ru":"\u0418\u0432\u0430\u043d\u043e-\u0424\u0440\u0430\u043d\u043a\u043e\u0432\u0441\u043a","name:pl":"Stanis\u0142aw\u00f3w","name:de":"Iwano-Frankiwsk","id":268459612,"name:ca":"Ivano-Frankivsk","name:fa":"\u0627\u06cc\u0648\u0627\u0646\u0648-\u0641\u0631\u0627\u0646\u06a9\u06cc\u0641\u0633\u06a9","name:hu":"Ivano-Frankivszk","kind_detail":"city","name:da":"Ivano-Frankivsk","old_name:de":"Stanislau","source":"openstreetmap.org","name:fr":"Ivano-Frankivsk","name:be":"\u0406\u0432\u0430\u043d\u0430-\u0424\u0440\u0430\u043d\u043a\u043e\u045e\u0441\u043a","name:zh":"\u4f0a\u4e07\u8bfa-\u5f17\u5170\u79d1\u592b\u65af\u514b","name:lv":"Ivanofrankivska","name:ja":"\u30a4\u30f4\u30a1\u30fc\u30ce\uff1d\u30d5\u30e9\u30f3\u30ad\u30fc\u30a6\u30b7\u30af","name:lt":"Ivano Frankivskas","name:no":"Ivano-Frankivsk","name:he":"\u05d0\u05d9\u05d5\u05d5\u05e0\u05d5-\u05e4\u05e8\u05e0\u05e7\u05d9\u05d1\u05e1\u05e7","kind":"locality","name:la":"Ivano-Frankivscum","name:sk":"Ivano-Frankivsk","old_name":"\u0421\u0442\u0430\u043d\u0438\u0441\u043b\u0430\u0432\u0456\u0432","name:sv":"Ivano-Frankivsk","name:bg":"\u0418\u0432\u0430\u043d\u043e-\u0424\u0440\u0430\u043d\u043a\u043e\u0432\u0441\u043a","name:hr":"Ivano-Frankivsk","name:sr":"\u0418\u0432\u0430\u043d\u043e-\u0424\u0440\u0430\u043d\u043a\u0438\u0432\u0441\u043a","population":230929,"old_name:la":"Stanislavopolis","name:eo":"Ivano-Frankivsk","name:en":"Ivano-Frankivsk","name":"\u0406\u0432\u0430\u043d\u043e-\u0424\u0440\u0430\u043d\u043a\u0456\u0432\u0441\u044c\u043a","old_name:hu":"Sztanyiszl\u00f3","name:fi":"Ivano-Frankivsk","name:eu":"Ivano-Frankivsk","name:et":"Ivano-Frankivsk","name:nl":"Ivano-Frankivsk","name:es":"Ivano-Frankivsk"},"coordinates":[2342,0]},{"type":"Point","properties":{"kind":"locality","name:en":"Kalush","name":"\u041a\u0430\u043b\u0443\u0448","kind_detail":"town","min_zoom":8.0,"name:de":"Kalusch","source":"openstreetmap.org","name:fr":"Kalouch","name:ro":"Kalu\u0219","name:yi":"\u05e7\u05d0\u05b7\u05dc\u05d5\u05e9","name:pl":"Ka\u0142usz","name:hu":"Kalush","id":312270776,"population":67559},"coordinates":[1325,476]},{"type":"Point","properties":{"kind":"locality","name:en":"Novyi Rozdil","name":"\u041d\u043e\u0432\u0438\u0439 \u0420\u043e\u0437\u0434\u0456\u043b","kind_detail":"town","name:eo":"Novi-Rozdil","name:de":"Nowyj Rosdil","source":"openstreetmap.org","min_zoom":8.0,"name:ru":"\u041d\u043e\u0432\u044b\u0439 \u0420\u043e\u0437\u0434\u043e\u043b","name:pl":"Nowy Rozd\u00f3\u0142","id":314222364,"population":28554},"coordinates":[677,2448]},{"type":"Point","properties":{"kind":"locality","name:en":"Zolochiv","name":"\u0417\u043e\u043b\u043e\u0447\u0456\u0432","kind_detail":"town","name:de":"Solotschiw","source":"openstreetmap.org","min_zoom":8.0,"name:ru":"\u0417\u043e\u043b\u043e\u0447\u0435\u0432","name:pl":"Z\u0142ocz\u00f3w","id":1429712455,"population":23900},"coordinates":[2891,3951]},{"type":"Point","properties":{"kind":"locality","name:en":"Dolyna","name":"\u0414\u043e\u043b\u0438\u043d\u0430","name:lt":"Dolyna","kind_detail":"town","name:de":"Dolyna","source":"openstreetmap.org","min_zoom":8.0,"name:be":"\u0414\u0430\u043b\u0456\u043d\u0430","name:pl":"Dolina","id":312269689,"population":20453},"coordinates":[216,229]},{"type":"Point","properties":{"name:ro":"Berejan\u00ee","alt_name:de":"Breschan","min_zoom":8.0,"name:it":"Brze\u017cany","name:ru":"\u0411\u0435\u0440\u0435\u0436\u0430\u043d\u044b","name:pl":"Brze\u017cany","name:hu":"Berezsani","id":312233653,"population":18116,"kind":"locality","name:en":"Berezhany","name":"\u0411\u0435\u0440\u0435\u0436\u0430\u043d\u0438","kind_detail":"town","name:no":"Berezjany","name:de":"Bereschany","source":"openstreetmap.org","name:fr":"Berejany"},"coordinates":[3005,2327]},{"type":"Point","properties":{"kind":"locality","name:en":"Vynnyky","name":"\u0412\u0438\u043d\u043d\u0438\u043a\u0438","kind_detail":"town","name:de":"Weinbergen","source":"openstreetmap.org","min_zoom":8.0,"name:ro":"V\u00eenn\u00eek\u00ee","name:pl":"Winniki","name:zh":"\u6e29\u5c3c\u57fa","id":313247858,"population":15723},"coordinates":[675,4001]},{"type":"Point","properties":{"kind":"locality","name:en":"Burshtyn","name":"\u0411\u0443\u0440\u0448\u0442\u0438\u043d","kind_detail":"town","name:eo":"Bur\u015dtin","source":"openstreetmap.org","min_zoom":8.0,"name:ru":"\u0411\u0443\u0440\u0448\u0442\u044b\u043d","name:pl":"Bursztyn","id":312263993,"population":15348},"coordinates":[2119,1473]},{"type":"Point","properties":{"alt_name:pl":"Miko\u0142aj\u00f3w nad Dniestrem","name:lt":"Mykolajivas","alt_name:eo":"Mikolaiv-\u0109e-Dnestro","min_zoom":8.0,"name:eo":"Mikolaiv","name:ru":"\u041d\u0438\u043a\u043e\u043b\u0430\u0435\u0432","name:pl":"Miko\u0142aj\u00f3w","id":337556154,"population":14824,"kind":"locality","name:en":"Mykolaiv","name":"\u041c\u0438\u043a\u043e\u043b\u0430\u0457\u0432","kind_detail":"town","name:de":"Mykolajiw","source":"openstreetmap.org","name:zh":"\u5c3c\u53e4\u62c9\u8036\u592b"},"coordinates":[211,2697]},{"type":"Point","properties":{"kind":"locality","name:en":"Zhydachiv","name":"\u0416\u0438\u0434\u0430\u0447\u0456\u0432","name:tr":"J\u0131da\u00e7iv","kind_detail":"town","min_zoom":8.0,"name:de":"Schydatschiw","source":"openstreetmap.org","name:fr":"Jydatchiv","name:ro":"J\u00eedaciv","name:ru":"\u0416\u044b\u0434\u0430\u0447\u0438\u0432","name:pl":"\u017bydacz\u00f3w","id":313248460,"population":11204},"coordinates":[689,2061]},{"type":"Point","properties":{"kind":"locality","name:ro":"Hodoriv","name":"\u0425\u043e\u0434\u043e\u0440\u0456\u0432","kind_detail":"town","name:cs":"Chodoriv","min_zoom":8.0,"name:de":"Chodoriw","source":"openstreetmap.org","name:fr":"Khodoriv","name:en":"Khodoriv","name:ru":"\u0425\u043e\u0434\u043e\u0440\u043e\u0432","name:pl":"Chodor\u00f3w","id":337560166,"name:es":"J\u00f3doriv","population":9900},"coordinates":[1176,2166]},{"type":"Point","properties":{"kind":"locality","name:en":"Kozova","name":"\u041a\u043e\u0437\u043e\u0432\u0430","kind_detail":"town","name:de":"Kosowa","source":"openstreetmap.org","min_zoom":8.0,"name:pl":"Kozowa","id":337559365,"population":9389},"coordinates":[3618,2285]},{"type":"Point","properties":{"kind":"locality","name:en":"Rohatyn","name":"\u0420\u043e\u0433\u0430\u0442\u0438\u043d","kind_detail":"town","name:de":"Rohatyn","source":"openstreetmap.org","min_zoom":8.0,"name:pl":"Rohatyn","id":312275967,"population":8097},"coordinates":[2052,2178]},{"type":"Point","properties":{"kind":"locality","name:en":"Zboriv","name":"\u0417\u0431\u043e\u0440\u0456\u0432","kind_detail":"town","name:cs":"Zborov","name:de":"Sboriw","source":"openstreetmap.org","min_zoom":8.0,"name:ru":"\u0417\u0431\u043e\u0440\u043e\u0432","name:pl":"Zbor\u00f3w","id":312242901,"population":7163},"coordinates":[3590,3320]},{"type":"Point","properties":{"kind":"locality","name:en":"Peremyshliany","name":"\u041f\u0435\u0440\u0435\u043c\u0438\u0448\u043b\u044f\u043d\u0438","kind_detail":"town","name:de":"Peremyschljany","source":"openstreetmap.org","min_zoom":8.0,"name:ru":"\u041f\u0435\u0440\u0435\u043c\u044b\u0448\u043b\u044f\u043d\u044b","name:pl":"Przemy\u015blany","id":337550092,"population":6918},"coordinates":[1900,3342]},{"type":"Point","properties":{"name:ro":"Halici","name:nl":"Halytsj","name:lt":"Hali\u010das","name:cs":"Haly\u010d","min_zoom":8.0,"name:it":"Haly\u010d","name:pl":"Halicz","id":312267035,"population":6307,"kind":"locality","name:en":"Halych","name":"\u0413\u0430\u043b\u0438\u0447","kind_detail":"town","name:de":"Halitsch","source":"openstreetmap.org","name:fr":"Halytch"},"coordinates":[2399,898]},{"type":"Point","properties":{"kind":"locality","name:en":"Monastyryska","name":"\u041c\u043e\u043d\u0430\u0441\u0442\u0438\u0440\u0438\u0441\u044c\u043a\u0430","kind_detail":"town","name:de":"Monastyryska","source":"openstreetmap.org","min_zoom":8.0,"name:ru":"\u041c\u043e\u043d\u0430\u0441\u0442\u044b\u0440\u0438\u0441\u043a\u0430","name:pl":"Monasterzyska","id":312250942,"population":6134},"coordinates":[3686,753]},{"type":"Point","properties":{"kind":"locality","name:en":"Broshniv-Osada","name":"\u0411\u0440\u043e\u0448\u043d\u0456\u0432-\u041e\u0441\u0430\u0434\u0430","kind_detail":"town","source":"openstreetmap.org","min_zoom":8.0,"name:ru":"\u0411\u0440\u043e\u0448\u043d\u0435\u0432-\u041e\u0441\u0430\u0434\u0430","name:pl":"Broszni\u00f3w-Osada","id":337576891,"population":5863},"coordinates":[815,329]},{"type":"Point","properties":{"kind":"locality","name:en":"Hnizdychiv","name":"\u0413\u043d\u0456\u0437\u0434\u0438\u0447\u0456\u0432","kind_detail":"town","source":"openstreetmap.org","min_zoom":8.0,"name:ru":"\u0413\u043d\u0435\u0437\u0434\u044b\u0447\u0435\u0432","name:pl":"Hnizdycz\u00f3w","id":337562808,"population":4183},"coordinates":[573,1822]},{"type":"Point","properties":{"kind":"locality","name:en":"Rozhniativ","name":"\u0420\u043e\u0436\u043d\u044f\u0442\u0456\u0432","kind_detail":"town","name:de":"Roschnjatiw","source":"openstreetmap.org","min_zoom":8.0,"name:ru":"\u0420\u043e\u0436\u043d\u044f\u0442\u043e\u0432","name:pl":"Ro\u017cniat\u00f3w","id":337579640,"population":3883},"coordinates":[734,79]},{"type":"Point","properties":{"kind":"locality","name:en":"Bibrka","name":"\u0411\u0456\u0431\u0440\u043a\u0430","name:lt":"Bibrka","kind_detail":"town","source":"openstreetmap.org","min_zoom":8.0,"name:ru":"\u0411\u043e\u0431\u0440\u043a\u0430","name:pl":"B\u00f3brka","name:zh":"\u535a\u5e03\u5c14\u5361","id":313245999,"population":3781},"coordinates":[1139,3199]},{"type":"Point","properties":{"kind":"locality","name:en":"Zhuravno","name:ar":"\u062c\u0648\u0631\u0627\u0641\u0646\u0648","name":"\u0416\u0443\u0440\u0430\u0432\u043d\u043e","kind_detail":"town","name:he":"\u05d6'\u05d5\u05e8\u05d0\u05d1\u05e0\u05d5","min_zoom":8.0,"source":"openstreetmap.org","name:fr":"Jouravno","name:hy":"\u053a\u0578\u0582\u0580\u0561\u057e\u0576\u0578","name:pl":"\u017burawno","name:zh":"\u8339\u62c9\u592b\u8afe","id":337565017,"population":3611},"coordinates":[1106,1500]},{"type":"Point","properties":{"kind":"locality","name:en":"Koropets","name":"\u041a\u043e\u0440\u043e\u043f\u0435\u0446\u044c","kind_detail":"town","source":"openstreetmap.org","min_zoom":8.0,"name:ru":"\u041a\u043e\u0440\u043e\u043f\u0435\u0446","name:pl":"Koropiec","id":337579750,"population":3508},"coordinates":[3693,47]},{"type":"Point","properties":{"kind":"locality","name:en":"Hlyniany","name":"\u0413\u043b\u0438\u043d\u044f\u043d\u0438","kind_detail":"town","source":"openstreetmap.org","min_zoom":8.0,"name:ro":"Hl\u00eenian\u00ee","name:ru":"\u0413\u043b\u044b\u043d\u044f\u043d\u044b","name:be":"\u0413\u043b\u0456\u043d\u044f\u043d\u044b","name:pl":"Gliniany","id":313247874,"population":3242},"coordinates":[1778,4025]},{"type":"Point","properties":{"kind":"locality","name:en":"Yezupil","name":"\u0404\u0437\u0443\u043f\u0456\u043b\u044c","kind_detail":"town","source":"openstreetmap.org","min_zoom":8.0,"name:ru":"\u0415\u0437\u0443\u043f\u043e\u043b\u044c","name:pl":"Jezupol","id":337574845,"population":2978},"coordinates":[2546,533]},{"type":"Point","properties":{"kind":"locality","name:en":"Pidhaitsi","name":"\u041f\u0456\u0434\u0433\u0430\u0439\u0446\u0456","kind_detail":"town","name:de":"Pidhajzi","source":"openstreetmap.org","min_zoom":8.0,"name:ru":"\u041f\u043e\u0434\u0433\u0430\u0439\u0446\u044b","name:pl":"Podhajce","id":312252064,"population":2937},"coordinates":[3582,1546]},{"type":"Point","properties":{"kind":"locality","name:en":"Voinyliv","name":"\u0412\u043e\u0439\u043d\u0438\u043b\u0456\u0432","kind_detail":"town","source":"openstreetmap.org","min_zoom":8.0,"name:ru":"\u0412\u043e\u0439\u043d\u0438\u043b\u043e\u0432","name:pl":"Wojni\u0142\u00f3w","id":1882306628,"population":2747},"coordinates":[1728,930]},{"type":"Point","properties":{"kind":"locality","name:en":"Rozdil","name":"\u0420\u043e\u0437\u0434\u0456\u043b","kind_detail":"town","source":"openstreetmap.org","min_zoom":8.0,"name:ru":"\u0420\u043e\u0437\u0434\u043e\u043b","name:pl":"Rozd\u00f3\u0142","id":1652910513,"population":2696},"coordinates":[455,2408]},{"type":"Point","properties":{"kind":"locality","name:en":"Dashava","name":"\u0414\u0430\u0448\u0430\u0432\u0430","kind_detail":"town","min_zoom":8.0,"name:de":"Daschawa","source":"openstreetmap.org","name:fr":"Dachava","name:pl":"Daszawa","id":337565050,"population":2333},"coordinates":[287,1514]},{"type":"Point","properties":{"kind":"locality","name:en":"Vyhoda","name":"\u0412\u0438\u0433\u043e\u0434\u0430","kind_detail":"town","source":"openstreetmap.org","min_zoom":8.0,"name:ru":"\u0412\u044b\u0433\u043e\u0434\u0430","name:pl":"Wygoda","id":337579700,"population":2225},"coordinates":[19,56]},{"type":"Point","properties":{"kind":"locality","name:en":"Bilshivtsi","name":"\u0411\u0456\u043b\u044c\u0448\u0456\u0432\u0446\u0456","kind_detail":"town","source":"openstreetmap.org","min_zoom":8.0,"name:ru":"\u0411\u043e\u043b\u044c\u0448\u043e\u0432\u0446\u044b","name:pl":"Bo\u0142szowce","id":337568380,"population":2123},"coordinates":[2446,1169]},{"type":"Point","properties":{"kind":"locality","name:en":"Bukachivtsi","name":"\u0411\u0443\u043a\u0430\u0447\u0456\u0432\u0446\u0456","kind_detail":"town","source":"openstreetmap.org","min_zoom":8.0,"name:ru":"\u0411\u0443\u043a\u0430\u0447\u0435\u0432\u0446\u044b","name:pl":"Bukaczowce","id":337565005,"population":1408},"coordinates":[1718,1519]},{"type":"Point","properties":{"kind":"locality","name:en":"Pomoriany","name":"\u041f\u043e\u043c\u043e\u0440\u044f\u043d\u0438","kind_detail":"town","source":"openstreetmap.org","min_zoom":8.0,"name:ru":"\u041f\u043e\u043c\u043e\u0440\u044f\u043d\u044b","name:pl":"Pomorzany","id":337551197,"population":1370},"coordinates":[2987,3194]},{"type":"Point","properties":{"kind":"locality","name:en":"Novi Strilyscha","name":"\u041d\u043e\u0432\u0456 \u0421\u0442\u0440\u0456\u043b\u0438\u0449\u0430","kind_detail":"town","source":"openstreetmap.org","min_zoom":8.0,"name:ru":"\u041d\u043e\u0432\u044b\u0435 \u0421\u0442\u0440\u0435\u043b\u0438\u0449\u0430","name:pl":"Strzeliska Nowe","id":337556565,"population":856},"coordinates":[1449,2667]}]},"transit":{"type":"GeometryCollection","geometries":[{"type":"MultiLineString","properties":{"source":"openstreetmap.org","kind":"train","name":"Medyka - \u041b\u044c\u0432\u0456\u0432","sort_rank":275,"min_zoom":6.0,"osm_relation":true},"arcs":[[6],[7],[8],[9],[10],[11]]}]},"pois":{"type":"GeometryCollection","geometries":[]},"boundaries":{"type":"GeometryCollection","geometries":[{"type":"MultiLineString","properties":{"name:right:hy":"\u053b\u057e\u0561\u0576\u0578-\u0556\u0580\u0561\u0576\u056f\u0578\u057e\u057d\u056f\u056b \u0574\u0561\u0580\u0566","name:left:he":"\u05de\u05d7\u05d5\u05d6 \u05d8\u05e8\u05e0\u05d5\u05e4\u05d5\u05dc","name:right:hr":"Ivano-Frankivska oblast","name:left:sv":"Ternopil oblast","name:right:hu":"Ivano-frankivszki ter\u00fclet","name:left:sr":"\u0422\u0435\u0440\u043d\u043e\u043f\u043e\u0459\u0441\u043a\u0430 \u043e\u0431\u043b\u0430\u0441\u0442","name:right:lt":"Ivano Frankivsko sritis","name:right:lv":"Ivanofrankivskas apgabals","name:left:lt":"Ternopilio sritis","name:left:sh":"Ternopiljska oblast","name:left:sk":"Ternopi\u013esk\u00e1 oblas\u0165","name:left:hu":"Ternopili ter\u00fclet","name:left:hr":"Ternopiljska oblast","name:right:vi":"Ivano-Frankivsk (t\u1ec9nh)","sort_rank":256,"name:left:ca":"Prov\u00edncia de Tern\u00f3pill","source":"openstreetmap.org","name:right:ar":"\u0625\u064a\u0641\u0627\u0646\u0648 \u0641\u0631\u0627\u0646\u0643\u064a\u0641\u0633\u0643 \u0623\u0648\u0628\u0644\u0627\u0633\u062a","name:left:cs":"Ternopilsk\u00e1 oblast","name:left":"\u0422\u0435\u0440\u043d\u043e\u043f\u0456\u043b\u044c\u0441\u044c\u043a\u0430 \u043e\u0431\u043b\u0430\u0441\u0442\u044c","name:right:es":"\u00d3blast de Ivano-Frankivsk","name:left:ka":"\u10e2\u10d4\u10e0\u10dc\u10dd\u10de\u10dd\u10da\u10d8\u10e1 \u10dd\u10da\u10e5\u10d8","name:right:eu":"Ivano-Frankivskeko oblasta","name:right:et":"Ivano-Frankivski oblast","name:left:ko":"\ud14c\ub974\ub178\ud544 \uc8fc","name:right:it":"Oblast' di Ivano-Frankivs'k","name:left:ro":"Regiunea Ternopil","name:right:ru":"\u0418\u0432\u0430\u043d\u043e-\u0424\u0440\u0430\u043d\u043a\u043e\u0432\u0441\u043a\u0430\u044f \u043e\u0431\u043b\u0430\u0441\u0442\u044c","name:right:ro":"Regiunea Ivano-Frankivsk","name:left:ru":"\u0422\u0435\u0440\u043d\u043e\u043f\u043e\u043b\u044c\u0441\u043a\u0430\u044f \u043e\u0431\u043b\u0430\u0441\u0442\u044c","name:right:mr":"\u0907\u0935\u094d\u0939\u093e\u0928\u094b-\u092b\u094d\u0930\u093e\u0902\u0915\u093f\u0935\u094d\u0939\u094d\u0938\u094d\u0915 \u0913\u092c\u094d\u0932\u093e\u0938\u094d\u0924","name:right:id":"Oblast Ivano-Frankivsk","name:right:eo":"Ivano-Frankivska provinco","name:right:en":"Ivano-Frankivsk Oblast","name:left:vi":"Ternopil (t\u1ec9nh)","kind":"region","name":"\u0422\u0435\u0440\u043d\u043e\u043f\u0456\u043b\u044c\u0441\u044c\u043a\u0430 \u043e\u0431\u043b\u0430\u0441\u0442\u044c - \u0406\u0432\u0430\u043d\u043e-\u0424\u0440\u0430\u043d\u043a\u0456\u0432\u0441\u044c\u043a\u0430 \u043e\u0431\u043b\u0430\u0441\u0442\u044c","name:left:fa":"\u0627\u0633\u062a\u0627\u0646 \u062a\u0631\u0646\u0648\u067e\u06cc\u0644","name:right:fa":"\u0627\u0633\u062a\u0627\u0646 \u0627\u06cc\u0648\u0627\u0646\u0648 \u0641\u0631\u0627\u0646\u06a9\u06cc\u0633\u0648\u06a9","min_zoom":8.0,"name:right:be":"\u0406\u0432\u0430\u043d\u0430-\u0424\u0440\u0430\u043d\u043a\u043e\u045e\u0441\u043a\u0430\u044f \u0432\u043e\u0431\u043b\u0430\u0441\u0446\u044c","name:left:zh":"\u6377\u723e\u8afe\u6ce2\u723e\u5dde","name:left:fr":"Oblast de Ternopil","name:right:zh":"\u4f0a\u4e07\u8bfa-\u5f17\u5170\u79d1\u592b\u65af\u514b\u5dde","name:left:hy":"\u054f\u0565\u0580\u0576\u0578\u057a\u0578\u056c\u056b \u0574\u0561\u0580\u0566","name:right:nn":"Ivano-Frankivsk oblast","name:right:no":"Ivano-Frankivsk oblast","name:right:nl":"Oblast Ivano-Frankivsk","name:right:ja":"\u30a4\u30f4\u30a1\u30fc\u30ce\uff1d\u30d5\u30e9\u30f3\u30ad\u30fc\u30a6\u30b7\u30af\u5dde","name:right:fr":"Oblast d'Ivano-Frankivsk","name:left:lv":"Ternopi\u013cas apgabals","name:left:ja":"\u30c6\u30eb\u30ce\u30fc\u30d4\u30ea\u5dde","id:right":-72488,"name:left:nn":"Ternopil oblast","name:right:sh":"Ivano-Frankivska oblast","name:right:sk":"Ivanofrankivsk\u00e1 oblas\u0165","name:left:bg":"\u0422\u0435\u0440\u043d\u043e\u043f\u043e\u043b\u0441\u043a\u0430 \u043e\u0431\u043b\u0430\u0441\u0442","name:left:be":"\u0426\u044f\u0440\u043d\u043e\u043f\u0430\u043b\u044c\u0441\u043a\u0430\u044f \u0432\u043e\u0431\u043b\u0430\u0441\u0446\u044c","name:left:no":"Ternopil oblast","name:left:fi":"Ternopilin alue","id":-72525,"name:right:fi":"Ivano-Frankivskin alue","name:left:eo":"Ternopila provinco","name:left:en":"Ternopil Oblast","name:right:ca":"Prov\u00edncia d'Ivano-Frankivsk","kind_detail":"4","name:left:mk":"\u0422\u0435\u0440\u043d\u043e\u043f\u043e\u043b\u0441\u043a\u0430 \u043e\u0431\u043b\u0430\u0441\u0442","name:left:nl":"Oblast Ternopil","id:left":-72525,"name:left:es":"\u00d3blast de Tern\u00f3pil","name:right:cs":"Ivanofrankivsk\u00e1 oblast","name:right":"\u0406\u0432\u0430\u043d\u043e-\u0424\u0440\u0430\u043d\u043a\u0456\u0432\u0441\u044c\u043a\u0430 \u043e\u0431\u043b\u0430\u0441\u0442\u044c","name:left:eu":"Ternopilgo oblasta","name:left:et":"Ternopili oblast","name:right:mk":"\u0418\u0432\u0430\u043d\u043e-\u0424\u0440\u0430\u043d\u043a\u043e\u0432\u0441\u043a\u0430 \u043e\u0431\u043b\u0430\u0441\u0442","name:right:zh-min-nan":"Ivano-Frankivsk s\u00e9ng","name:right:pt":"Oblast de Ivano-Frankivsk","name:left:ar":"\u062a\u064a\u0631\u0646\u0648\u0628\u0644 \u0623\u0648\u0628\u0644\u0627\u0633\u062a","name:left:pl":"Obw\u00f3d tarnopolski","name:left:tr":"Ternopil Oblast\u0131","name:left:id":"Oblast Ternopil","name:right:tr":"\u0130vano-Frankivsk Oblast\u0131","name:right:bg":"\u0418\u0432\u0430\u043d\u043e-\u0424\u0440\u0430\u043d\u043a\u043e\u0432\u0441\u043a\u0430 \u043e\u0431\u043b\u0430\u0441\u0442","name:left:pt":"Oblast de Ternopil","name:left:mr":"\u0924\u0947\u0930\u094d\u0928\u094b\u092a\u093f\u0932 \u0913\u092c\u094d\u0932\u093e\u0938\u094d\u0924","name:right:sv":"Ivano-Frankivsk oblast","name:right:ko":"\uc774\ubc14\ub178\ud504\ub780\ud0a4\uc6b0\uc2dc\ud06c \uc8fc","name:left:zh-min-nan":"Ternopil s\u00e9ng","name:left:it":"Oblast' di Ternopil'","name:right:pl":"Obw\u00f3d iwanofrankiwski","osm_relation":true,"name:right:ka":"\u10d8\u10d5\u10d0\u10dc\u10dd-\u10e4\u10e0\u10d0\u10dc\u10d9\u10dd\u10d5\u10e1\u10d9\u10d8\u10e1 \u10dd\u10da\u10e5\u10d8","name:right:de":"Oblast Iwano-Frankiwsk","name:left:de":"Oblast Ternopil"},"arcs":[[0],[1],[2]]},{"type":"MultiLineString","properties":{"name:right:hy":"\u053c\u057e\u0578\u057e\u056b \u0574\u0561\u0580\u0566","name:right:no":"Lviv oblast","name:left:he":"\u05de\u05d7\u05d5\u05d6 \u05d8\u05e8\u05e0\u05d5\u05e4\u05d5\u05dc","name:right:hr":"Ljvivska oblast","name:left:sv":"Ternopil oblast","name:right:hu":"Lvivi ter\u00fclet","name:left:sr":"\u0422\u0435\u0440\u043d\u043e\u043f\u043e\u0459\u0441\u043a\u0430 \u043e\u0431\u043b\u0430\u0441\u0442","name:right:lt":"Lvovo sritis","name:right:lv":"\u013bvovas apgabals","name:left:lt":"Ternopilio sritis","name:left:sh":"Ternopiljska oblast","name:left:sk":"Ternopi\u013esk\u00e1 oblas\u0165","name:left:hu":"Ternopili ter\u00fclet","name:right:he":"\u05de\u05d7\u05d5\u05d6 \u05dc\u05d1\u05d5\u05d1","name:left:hr":"Ternopiljska oblast","name:right:os":"\u041b\u044c\u0432\u043e\u0432\u044b \u043e\u0431\u043b\u00e6\u0441\u0442","name:right:vi":"Lviv (t\u1ec9nh)","sort_rank":256,"name:left:ca":"Prov\u00edncia de Tern\u00f3pill","source":"openstreetmap.org","name:right:ar":"\u0644\u0641\u064a\u0641 \u0623\u0648\u0628\u0644\u0627\u0633\u062a","name:right:az":"Lvov vilay\u0259ti","name:left:cs":"Ternopilsk\u00e1 oblast","name:left":"\u0422\u0435\u0440\u043d\u043e\u043f\u0456\u043b\u044c\u0441\u044c\u043a\u0430 \u043e\u0431\u043b\u0430\u0441\u0442\u044c","name:right:es":"\u00d3blast de Le\u00f3polis","name:right:sh":"Lavovska oblast","name:right:sr":"\u041b\u0430\u0432\u043e\u0432\u0441\u043a\u0430 \u043e\u0431\u043b\u0430\u0441\u0442","name:left:ka":"\u10e2\u10d4\u10e0\u10dc\u10dd\u10de\u10dd\u10da\u10d8\u10e1 \u10dd\u10da\u10e5\u10d8","name:right:eu":"Lviveko oblasta","name:right:et":"Lvivi oblast","name:left:ko":"\ud14c\ub974\ub178\ud544 \uc8fc","name:right:it":"Oblast' di Leopoli","name:left:ro":"Regiunea Ternopil","name:right:ru":"\u041b\u044c\u0432\u043e\u0432\u0441\u043a\u0430\u044f \u043e\u0431\u043b\u0430\u0441\u0442\u044c","name:right:ro":"Regiunea Liov","name:left:ru":"\u0422\u0435\u0440\u043d\u043e\u043f\u043e\u043b\u044c\u0441\u043a\u0430\u044f \u043e\u0431\u043b\u0430\u0441\u0442\u044c","name:right:ms":"Oblast Lviv","name:right:mr":"\u0932\u093f\u0935\u094d\u0939\u093f\u0935 \u0913\u092c\u094d\u0932\u093e\u0938\u094d\u0924","name:right:id":"Oblast Lviv","name:right:eo":"Lviva provinco","name:right:en":"Lviv Oblast","name:left:vi":"Ternopil (t\u1ec9nh)","kind":"region","name":"\u0422\u0435\u0440\u043d\u043e\u043f\u0456\u043b\u044c\u0441\u044c\u043a\u0430 \u043e\u0431\u043b\u0430\u0441\u0442\u044c - \u041b\u044c\u0432\u0456\u0432\u0441\u044c\u043a\u0430 \u043e\u0431\u043b\u0430\u0441\u0442\u044c","name:left:fa":"\u0627\u0633\u062a\u0627\u0646 \u062a\u0631\u0646\u0648\u067e\u06cc\u0644","name:right:fa":"\u0627\u0633\u062a\u0627\u0646 \u0644\u0648\u0648\u0641","min_zoom":8.0,"name:right:be":"\u041b\u044c\u0432\u043e\u045e\u0441\u043a\u0430\u044f \u0432\u043e\u0431\u043b\u0430\u0441\u0446\u044c","name:left:zh":"\u6377\u723e\u8afe\u6ce2\u723e\u5dde","name:left:fr":"Oblast de Ternopil","name:right:zh":"\u5229\u6c83\u592b\u5dde","name:left:et":"Ternopili oblast","name:left:hy":"\u054f\u0565\u0580\u0576\u0578\u057a\u0578\u056c\u056b \u0574\u0561\u0580\u0566","name:right:nn":"Lviv oblast","name:right:mk":"\u041b\u0430\u0432\u043e\u0432\u0441\u043a\u0430 \u043e\u0431\u043b\u0430\u0441\u0442","name:right:nl":"Oblast Lviv","name:right:ja":"\u30ea\u30f4\u30a3\u30a6\u5dde","name:right:fr":"Oblast de Lviv","name:left:lv":"Ternopi\u013cas apgabals","name:left:ja":"\u30c6\u30eb\u30ce\u30fc\u30d4\u30ea\u5dde","id:right":-72380,"name:left:nn":"Ternopil oblast","name:left:no":"Ternopil oblast","name:right:sk":"\u013dvovsk\u00e1 oblas\u0165","name:left:bg":"\u0422\u0435\u0440\u043d\u043e\u043f\u043e\u043b\u0441\u043a\u0430 \u043e\u0431\u043b\u0430\u0441\u0442","name:left:be":"\u0426\u044f\u0440\u043d\u043e\u043f\u0430\u043b\u044c\u0441\u043a\u0430\u044f \u0432\u043e\u0431\u043b\u0430\u0441\u0446\u044c","name:left:fi":"Ternopilin alue","id":-72525,"name:right:fi":"Lvivin alue","name:left:eo":"Ternopila provinco","name:left:en":"Ternopil Oblast","name:right:ca":"Prov\u00edncia de Lviv","kind_detail":"4","name:left:mk":"\u0422\u0435\u0440\u043d\u043e\u043f\u043e\u043b\u0441\u043a\u0430 \u043e\u0431\u043b\u0430\u0441\u0442","name:left:nl":"Oblast Ternopil","id:left":-72525,"name:left:es":"\u00d3blast de Tern\u00f3pil","name:right:cs":"Lvovsk\u00e1 oblast","name:right":"\u041b\u044c\u0432\u0456\u0432\u0441\u044c\u043a\u0430 \u043e\u0431\u043b\u0430\u0441\u0442\u044c","name:left:eu":"Ternopilgo oblasta","name:right:cv":"\u041b\u044c\u0432\u043e\u0432 \u043e\u0431\u043b\u0430\u00e7\u0115","name:right:ka":"\u10da\u10d5\u10dd\u10d5\u10d8\u10e1 \u10dd\u10da\u10e5\u10d8","name:right:zh-min-nan":"Lviv s\u00e9ng","name:right:pt":"Oblast de Lviv","name:left:ar":"\u062a\u064a\u0631\u0646\u0648\u0628\u0644 \u0623\u0648\u0628\u0644\u0627\u0633\u062a","name:left:pl":"Obw\u00f3d tarnopolski","name:left:tr":"Ternopil Oblast\u0131","name:left:id":"Oblast Ternopil","name:right:tr":"Lviv Oblast\u0131","name:right:bg":"\u041b\u0432\u043e\u0432\u0441\u043a\u0430 \u043e\u0431\u043b\u0430\u0441\u0442","name:left:pt":"Oblast de Ternopil","name:left:mr":"\u0924\u0947\u0930\u094d\u0928\u094b\u092a\u093f\u0932 \u0913\u092c\u094d\u0932\u093e\u0938\u094d\u0924","name:right:sv":"Lviv oblast","name:right:ko":"\ub9ac\ube44\uc6b0 \uc8fc","name:left:zh-min-nan":"Ternopil s\u00e9ng","name:left:it":"Oblast' di Ternopil'","name:right:pl":"Obw\u00f3d lwowski","osm_relation":true,"name:right:de":"Oblast Lemberg","name:left:de":"Oblast Ternopil"},"arcs":[[3],[4]]},{"type":"LineString","properties":{"name:right:hy":"\u053c\u057e\u0578\u057e\u056b \u0574\u0561\u0580\u0566","name:right:no":"Lviv oblast","name:right:hr":"Ljvivska oblast","name:left:sv":"Ivano-Frankivsk oblast","name:right:hu":"Lvivi ter\u00fclet","name:right:lt":"Lvovo sritis","name:right:lv":"\u013bvovas apgabals","name:left:lt":"Ivano Frankivsko sritis","name:left:sh":"Ivano-Frankivska oblast","name:left:sk":"Ivanofrankivsk\u00e1 oblas\u0165","name:left:hu":"Ivano-frankivszki ter\u00fclet","name:right:he":"\u05de\u05d7\u05d5\u05d6 \u05dc\u05d1\u05d5\u05d1","name:left:hr":"Ivano-Frankivska oblast","name:right:os":"\u041b\u044c\u0432\u043e\u0432\u044b \u043e\u0431\u043b\u00e6\u0441\u0442","name:right:vi":"Lviv (t\u1ec9nh)","sort_rank":256,"name:left:ca":"Prov\u00edncia d'Ivano-Frankivsk","source":"openstreetmap.org","name:right:ar":"\u0644\u0641\u064a\u0641 \u0623\u0648\u0628\u0644\u0627\u0633\u062a","name:right:az":"Lvov vilay\u0259ti","name:left:cs":"Ivanofrankivsk\u00e1 oblast","name:left":"\u0406\u0432\u0430\u043d\u043e-\u0424\u0440\u0430\u043d\u043a\u0456\u0432\u0441\u044c\u043a\u0430 \u043e\u0431\u043b\u0430\u0441\u0442\u044c","name:right:es":"\u00d3blast de Le\u00f3polis","name:right:sh":"Lavovska oblast","name:right:sr":"\u041b\u0430\u0432\u043e\u0432\u0441\u043a\u0430 \u043e\u0431\u043b\u0430\u0441\u0442","name:left:ka":"\u10d8\u10d5\u10d0\u10dc\u10dd-\u10e4\u10e0\u10d0\u10dc\u10d9\u10dd\u10d5\u10e1\u10d9\u10d8\u10e1 \u10dd\u10da\u10e5\u10d8","name:right:eu":"Lviveko oblasta","name:right:et":"Lvivi oblast","name:left:ko":"\uc774\ubc14\ub178\ud504\ub780\ud0a4\uc6b0\uc2dc\ud06c \uc8fc","name:right:it":"Oblast' di Leopoli","name:left:ro":"Regiunea Ivano-Frankivsk","name:right:ru":"\u041b\u044c\u0432\u043e\u0432\u0441\u043a\u0430\u044f \u043e\u0431\u043b\u0430\u0441\u0442\u044c","name:right:ro":"Regiunea Liov","name:left:ru":"\u0418\u0432\u0430\u043d\u043e-\u0424\u0440\u0430\u043d\u043a\u043e\u0432\u0441\u043a\u0430\u044f \u043e\u0431\u043b\u0430\u0441\u0442\u044c","name:right:ms":"Oblast Lviv","name:right:mr":"\u0932\u093f\u0935\u094d\u0939\u093f\u0935 \u0913\u092c\u094d\u0932\u093e\u0938\u094d\u0924","name:right:id":"Oblast Lviv","name:right:eo":"Lviva provinco","name:right:en":"Lviv Oblast","name:left:vi":"Ivano-Frankivsk (t\u1ec9nh)","kind":"region","name":"\u0406\u0432\u0430\u043d\u043e-\u0424\u0440\u0430\u043d\u043a\u0456\u0432\u0441\u044c\u043a\u0430 \u043e\u0431\u043b\u0430\u0441\u0442\u044c - \u041b\u044c\u0432\u0456\u0432\u0441\u044c\u043a\u0430 \u043e\u0431\u043b\u0430\u0441\u0442\u044c","name:left:fa":"\u0627\u0633\u062a\u0627\u0646 \u0627\u06cc\u0648\u0627\u0646\u0648 \u0641\u0631\u0627\u0646\u06a9\u06cc\u0633\u0648\u06a9","name:right:fa":"\u0627\u0633\u062a\u0627\u0646 \u0644\u0648\u0648\u0641","min_zoom":8.0,"name:right:be":"\u041b\u044c\u0432\u043e\u045e\u0441\u043a\u0430\u044f \u0432\u043e\u0431\u043b\u0430\u0441\u0446\u044c","name:left:zh":"\u4f0a\u4e07\u8bfa-\u5f17\u5170\u79d1\u592b\u65af\u514b\u5dde","name:left:fr":"Oblast d'Ivano-Frankivsk","name:right:zh":"\u5229\u6c83\u592b\u5dde","name:left:et":"Ivano-Frankivski oblast","name:left:hy":"\u053b\u057e\u0561\u0576\u0578-\u0556\u0580\u0561\u0576\u056f\u0578\u057e\u057d\u056f\u056b \u0574\u0561\u0580\u0566","name:right:nn":"Lviv oblast","name:right:mk":"\u041b\u0430\u0432\u043e\u0432\u0441\u043a\u0430 \u043e\u0431\u043b\u0430\u0441\u0442","name:right:nl":"Oblast Lviv","name:right:ja":"\u30ea\u30f4\u30a3\u30a6\u5dde","name:right:fr":"Oblast de Lviv","name:left:lv":"Ivanofrankivskas apgabals","name:left:ja":"\u30a4\u30f4\u30a1\u30fc\u30ce\uff1d\u30d5\u30e9\u30f3\u30ad\u30fc\u30a6\u30b7\u30af\u5dde","id:right":-72380,"name:left:nn":"Ivano-Frankivsk oblast","name:left:no":"Ivano-Frankivsk oblast","name:right:sk":"\u013dvovsk\u00e1 oblas\u0165","name:left:bg":"\u0418\u0432\u0430\u043d\u043e-\u0424\u0440\u0430\u043d\u043a\u043e\u0432\u0441\u043a\u0430 \u043e\u0431\u043b\u0430\u0441\u0442","name:left:be":"\u0406\u0432\u0430\u043d\u0430-\u0424\u0440\u0430\u043d\u043a\u043e\u045e\u0441\u043a\u0430\u044f \u0432\u043e\u0431\u043b\u0430\u0441\u0446\u044c","name:left:fi":"Ivano-Frankivskin alue","id":-72488,"name:right:fi":"Lvivin alue","name:left:eo":"Ivano-Frankivska provinco","name:left:en":"Ivano-Frankivsk Oblast","name:right:ca":"Prov\u00edncia de Lviv","kind_detail":"4","name:left:mk":"\u0418\u0432\u0430\u043d\u043e-\u0424\u0440\u0430\u043d\u043a\u043e\u0432\u0441\u043a\u0430 \u043e\u0431\u043b\u0430\u0441\u0442","name:left:nl":"Oblast Ivano-Frankivsk","id:left":-72488,"name:left:es":"\u00d3blast de Ivano-Frankivsk","name:right:cs":"Lvovsk\u00e1 oblast","name:right":"\u041b\u044c\u0432\u0456\u0432\u0441\u044c\u043a\u0430 \u043e\u0431\u043b\u0430\u0441\u0442\u044c","name:left:eu":"Ivano-Frankivskeko oblasta","name:right:cv":"\u041b\u044c\u0432\u043e\u0432 \u043e\u0431\u043b\u0430\u00e7\u0115","name:right:ka":"\u10da\u10d5\u10dd\u10d5\u10d8\u10e1 \u10dd\u10da\u10e5\u10d8","name:right:zh-min-nan":"Lviv s\u00e9ng","name:right:pt":"Oblast de Lviv","name:left:ar":"\u0625\u064a\u0641\u0627\u0646\u0648 \u0641\u0631\u0627\u0646\u0643\u064a\u0641\u0633\u0643 \u0623\u0648\u0628\u0644\u0627\u0633\u062a","name:left:pl":"Obw\u00f3d iwanofrankiwski","name:left:tr":"\u0130vano-Frankivsk Oblast\u0131","name:left:id":"Oblast Ivano-Frankivsk","name:right:tr":"Lviv Oblast\u0131","name:right:bg":"\u041b\u0432\u043e\u0432\u0441\u043a\u0430 \u043e\u0431\u043b\u0430\u0441\u0442","name:left:pt":"Oblast de Ivano-Frankivsk","name:left:mr":"\u0907\u0935\u094d\u0939\u093e\u0928\u094b-\u092b\u094d\u0930\u093e\u0902\u0915\u093f\u0935\u094d\u0939\u094d\u0938\u094d\u0915 \u0913\u092c\u094d\u0932\u093e\u0938\u094d\u0924","name:right:sv":"Lviv oblast","name:right:ko":"\ub9ac\ube44\uc6b0 \uc8fc","name:left:zh-min-nan":"Ivano-Frankivsk s\u00e9ng","name:left:it":"Oblast' di Ivano-Frankivs'k","name:right:pl":"Obw\u00f3d lwowski","osm_relation":true,"name:right:de":"Oblast Lemberg","name:left:de":"Oblast Iwano-Frankiwsk"},"arcs":[5]}]},"roads":{"type":"GeometryCollection","geometries":[{"type":"MultiLineString","properties":{"kind":"major_road","network":"ua:national","sort_rank":380,"kind_detail":"primary","source":"openstreetmap.org","min_zoom":8.0,"shield_text":"10","ref":"\u041d-10"},"arcs":[[12],[13],[14],[15],[16],[17],[18],[19],[20],[21],[22],[23],[24],[25],[26],[27],[28]]},{"type":"MultiLineString","properties":{"bus_network":"\u0406\u0432\u0430\u043d\u043e-\u0424\u0440\u0430\u043d\u043a\u0456\u0432\u0441\u044c\u043a\u0438\u0439 \u0442\u0440\u043e\u043b\u0435\u0439\u0431\u0443\u0441","name:en":"Halytska Street","network":"ua:national","sort_rank":380,"kind_detail":"primary","kind":"major_road","source":"openstreetmap.org","min_zoom":8.0,"bus_shield_text":"4","shield_text":"09","name:ru":"\u0413\u0430\u043b\u0438\u0446\u043a\u0430\u044f \u0443\u043b\u0438\u0446\u0430","landuse_kind":"urban_area","ref":"\u041d-09"},"arcs":[[29],[30]]},{"type":"LineString","properties":{"bus_network":null,"name:en":"Zelena Street","sort_rank":380,"kind_detail":"primary","is_bicycle_related":true,"kind":"major_road","name:de":"Gr\u00fcne Gasse","source":"openstreetmap.org","min_zoom":8.0,"bus_shield_text":"11","name:ru":"\u0417\u0435\u043b\u0451\u043d\u0430\u044f \u0443\u043b\u0438\u0446\u0430","name:be":"\u0417\u044f\u043b\u0451\u043d\u0430\u044f \u0432\u0443\u043b\u0456\u0446\u0430","landuse_kind":"urban_area","name:pl":"ulica Zielona"},"arcs":[31]},{"type":"LineString","properties":{"kind":"major_road","name:en":"Akademichna Street","network":"e-road","sort_rank":381,"kind_detail":"trunk","source":"openstreetmap.org","min_zoom":8.0,"shield_text":"50","name:ru":"\u0410\u043a\u0430\u0434\u0435\u043c\u0438\u0447\u0435\u0441\u043a\u0430\u044f \u0443\u043b\u0438\u0446\u0430","ref":"\u041c-12","id":278683317},"arcs":[32]},{"type":"LineString","properties":{"kind":"major_road","name:en":"Shota Rustaveli Street","sort_rank":380,"kind_detail":"primary","old_name:de":"Jablonowski-Gasse","source":"openstreetmap.org","min_zoom":8.0,"landuse_kind":"urban_area","name:ru":"\u0428\u043e\u0442\u0430 \u0420\u0443\u0441\u0442\u0430\u0432\u0435\u043b\u0438 \u0443\u043b\u0438\u0446\u0430","name:pl":"ulica Szota Rustaweli","id":158551395},"arcs":[33]},{"type":"LineString","properties":{"source":"openstreetmap.org","kind":"major_road","sort_rank":381,"kind_detail":"trunk","ref":"M-06","min_zoom":8.0,"id":438541419},"arcs":[34]},{"type":"LineString","properties":{"bus_network":null,"name:en":"Zelena Street","sort_rank":380,"kind_detail":"primary","is_bicycle_related":true,"cycleway_right":"shared_lane","kind":"major_road","source":"openstreetmap.org","min_zoom":8.0,"name:pl":"ulica Zielona","bus_shield_text":"47\u0410","name:ru":"\u0417\u0435\u043b\u0451\u043d\u0430\u044f \u0443\u043b\u0438\u0446\u0430","name:be":"\u0417\u044f\u043b\u0451\u043d\u0430\u044f \u0432\u0443\u043b\u0456\u0446\u0430","landuse_kind":"urban_area","id":400772832},"arcs":[35]},{"type":"LineString","properties":{"kind":"major_road","name:en":"Sichovykh Striltsiv Street","network":"ua:national","sort_rank":380,"kind_detail":"primary","source":"openstreetmap.org","min_zoom":8.0,"shield_text":"10","name:ru":"\u0421\u0435\u0447\u0435\u0432\u044b\u0445 \u0421\u0442\u0440\u0435\u043b\u044c\u0446\u043e\u0432 \u0443\u043b\u0438\u0446\u0430","ref":"\u041d-10"},"arcs":[36]},{"type":"MultiLineString","properties":{"kind":"major_road","network":"ua:regional","sort_rank":380,"kind_detail":"primary","source":"openstreetmap.org","min_zoom":8.0,"shield_text":"20","ref":"\u0420-20"},"arcs":[[37],[38]]},{"type":"LineString","properties":{"kind":"major_road","name:en":"Studentska Street","sort_rank":380,"kind_detail":"primary","is_bicycle_related":true,"source":"openstreetmap.org","min_zoom":8.0,"landuse_kind":"urban_area","name:ru":"\u0421\u0442\u0443\u0434\u0435\u043d\u0447\u0435\u0441\u043a\u0430\u044f \u0443\u043b\u0438\u0446\u0430","id":34908892},"arcs":[39]},{"type":"LineString","properties":{"bus_network":"\u0406\u0432\u0430\u043d\u043e-\u0424\u0440\u0430\u043d\u043a\u0456\u0432\u0441\u044c\u043a\u0438\u0439 \u0430\u0432\u0442\u043e\u0431\u0443\u0441","cycleway_right":"track","min_zoom":8.0,"bus_shield_text":"26\u0410","name:ru":"\u0413\u0430\u043b\u0438\u0446\u043a\u0430\u044f \u0443\u043b\u0438\u0446\u0430","id":285189474,"kind":"major_road","name:en":"Halytska Street","network":"ua:national","sort_rank":380,"kind_detail":"primary","is_bicycle_related":true,"source":"openstreetmap.org","landuse_kind":"urban_area","shield_text":"09","ref":"\u041d-09"},"arcs":[40]},{"type":"MultiLineString","properties":{"kind":"major_road","name:en":"Adama Mitskevycha Street","network":"ua:national","sort_rank":380,"kind_detail":"primary","source":"openstreetmap.org","min_zoom":8.0,"shield_text":"10","name:ru":"\u0410\u0434\u0430\u043c\u0430 \u041c\u0438\u0446\u043a\u0435\u0432\u0438\u0447\u0430 \u0443\u043b\u0438\u0446\u0430","ref":"\u041d-10"},"arcs":[[41],[42],[43]]},{"type":"LineString","properties":{"kind":"major_road","network":"e-road","sort_rank":381,"kind_detail":"trunk","source":"openstreetmap.org","min_zoom":8.0,"shield_text":"471","ref":"M-06","id":55609193},"arcs":[44]},{"type":"LineString","properties":{"bus_network":null,"network":"e-road","sort_rank":381,"kind_detail":"trunk","kind":"major_road","source":"openstreetmap.org","min_zoom":8.0,"bus_shield_text":"21","shield_text":"40","ref":"\u041c-10"},"arcs":[45]},{"type":"LineString","properties":{"kind":"major_road","name:en":"Ternopilska Street","network":"e-road","sort_rank":381,"kind_detail":"trunk","source":"openstreetmap.org","min_zoom":8.0,"shield_text":"50","name:ru":"\u0422\u0435\u0440\u043d\u043e\u043f\u043e\u043b\u044c\u0441\u043a\u0430\u044f \u0443\u043b\u0438\u0446\u0430","ref":"\u041c-12"},"arcs":[46]},{"type":"MultiLineString","properties":{"sort_rank":380,"kind_detail":"primary","min_zoom":8.0,"kind":"major_road","source":"openstreetmap.org"},"arcs":[[47],[48],[49],[50],[51],[52],[53],[54],[55],[56],[57],[58]]},{"type":"MultiLineString","properties":{"bus_network":null,"name:en":"Kulparkivska Street","sort_rank":380,"kind_detail":"primary","is_bicycle_related":true,"kind":"major_road","source":"openstreetmap.org","min_zoom":8.0,"bus_shield_text":"2","name:ru":"\u041a\u0443\u043b\u044c\u043f\u0430\u0440\u043a\u043e\u0432\u0441\u043a\u0430\u044f \u0443\u043b\u0438\u0446\u0430","name:pl":"ulica Kulparkowska","landuse_kind":"urban_area"},"arcs":[[59],[60],[61],[62]]},{"type":"LineString","properties":{"kind":"major_road","sort_rank":380,"landuse_kind":"urban_area","is_bicycle_related":true,"source":"openstreetmap.org","min_zoom":8.0,"kind_detail":"primary","id":31819578},"arcs":[63]},{"type":"LineString","properties":{"kind":"major_road","name:en":"Tarasa Shevchenka Street","network":"ua:national","sort_rank":380,"kind_detail":"primary","source":"openstreetmap.org","min_zoom":8.0,"shield_text":"18","name:ru":"\u0422\u0430\u0440\u0430\u0441\u0430 \u0428\u0435\u0432\u0447\u0435\u043d\u043a\u043e \u0443\u043b\u0438\u0446\u0430","ref":"\u041d-18"},"arcs":[64]},{"type":"LineString","properties":{"kind":"major_road","name:en":"Myrona Tarnavskoho Street","network":"e-road","sort_rank":381,"kind_detail":"trunk","source":"openstreetmap.org","min_zoom":8.0,"int_name":"Tarnavskogo","landuse_kind":"residential","shield_text":"50","name:ru":"\u041c\u0438\u0440\u043e\u043d\u0430 \u0422\u0430\u0440\u043d\u0430\u0432\u0441\u043a\u043e\u0433\u043e \u0443\u043b\u0438\u0446\u0430","ref":"\u041c-12","id":125121720},"arcs":[65]},{"type":"LineString","properties":{"kind":"major_road","name:en":"Shevchenka Street","network":"ua:national","sort_rank":380,"kind_detail":"primary","source":"openstreetmap.org","min_zoom":8.0,"shield_text":"10","name:ru":"\u0428\u0435\u0432\u0447\u0435\u043d\u043a\u043e \u0443\u043b\u0438\u0446\u0430","ref":"\u041d-10"},"arcs":[66]},{"type":"LineString","properties":{"kind":"major_road","name:en":"Halytska Street","network":"ua:national","sort_rank":380,"kind_detail":"primary","source":"openstreetmap.org","min_zoom":8.0,"name:be":"\u0413\u0430\u043b\u0456\u0446\u043a\u0430\u044f \u0432\u0443\u043b\u0456\u0446\u0430","shield_text":"09","name:ru":"\u0413\u0430\u043b\u0438\u0446\u043a\u0430\u044f \u0443\u043b\u0438\u0446\u0430","name:pl":"ulica Galicka","ref":"\u041d-09"},"arcs":[67]},{"type":"LineString","properties":{"old_name:uk":"\u041c\u0430\u044f\u043a\u043e\u0432\u0441\u044c\u043a\u043e\u0433\u043e \u0432\u0443\u043b\u0438\u0446\u044f","kind":"major_road","name:en":"Kostia Levytskoho Street","sort_rank":380,"kind_detail":"primary","old_name:ru":"\u041c\u0430\u044f\u043a\u043e\u0432\u0441\u043a\u043e\u0433\u043e \u0443\u043b\u0438\u0446\u0430","is_bicycle_related":true,"source":"openstreetmap.org","min_zoom":8.0,"landuse_kind":"urban_area","name:ru":"\u041a\u043e\u0441\u0442\u044f \u041b\u0435\u0432\u0438\u0446\u043a\u043e\u0433\u043e \u0443\u043b\u0438\u0446\u0430","old_name:de":"K\u00f6hren-Gasse"},"arcs":[68]},{"type":"LineString","properties":{"kind":"major_road","name:en":"600-richchia Holynia Street","network":"ua:national","sort_rank":380,"kind_detail":"primary","is_bicycle_related":true,"source":"openstreetmap.org","min_zoom":8.0,"shield_text":"10","name:ru":"600-\u043b\u0435\u0442\u0438\u044f \u0413\u043e\u043b\u044b\u043d\u044f \u0443\u043b\u0438\u0446\u0430","ref":"\u041d-10","id":293863593},"arcs":[69]},{"type":"LineString","properties":{"kind":"major_road","name:en":"Zelena Street","sort_rank":380,"kind_detail":"primary","is_bicycle_related":true,"bus_network":null,"source":"openstreetmap.org","min_zoom":8.0,"bus_shield_text":"13","name:ru":"\u0417\u0435\u043b\u0451\u043d\u0430\u044f \u0443\u043b\u0438\u0446\u0430","landuse_kind":"urban_area","id":159979667},"arcs":[70]},{"type":"LineString","properties":{"kind":"major_road","name:en":"Kaluske Shose Street","network":"ua:national","sort_rank":380,"kind_detail":"primary","source":"openstreetmap.org","min_zoom":8.0,"shield_text":"10","name:ru":"\u041a\u0430\u043b\u0443\u0448\u0441\u043a\u043e\u0435 \u0428\u043e\u0441\u0441\u0435 \u0443\u043b\u0438\u0446\u0430","ref":"\u041d-10"},"arcs":[71]},{"type":"LineString","properties":{"bus_network":null,"name:en":"Ivana Franka Street","sort_rank":380,"kind_detail":"primary","is_bicycle_related":true,"name:fr":"Rue Ivana Franka","name:de":"Iwan-Franko-Stra\u00dfe","source":"openstreetmap.org","min_zoom":8.0,"bus_shield_text":"4\u0410","name:ru":"\u0418\u0432\u0430\u043d\u0430 \u0424\u0440\u0430\u043d\u043a\u043e \u0443\u043b\u0438\u0446\u0430","name:pl":"ulica \u0406vana Franki","landuse_kind":"urban_area","kind":"major_road"},"arcs":[72]},{"type":"MultiLineString","properties":{"bus_network":null,"name:en":"Stryiska Street","sort_rank":380,"kind_detail":"primary","kind":"major_road","source":"openstreetmap.org","min_zoom":8.0,"bus_shield_text":"3\u0410","name:ru":"\u0421\u0442\u0440\u044b\u0439\u0441\u043a\u0430\u044f \u0443\u043b\u0438\u0446\u0430","name:be":"\u0421\u0442\u0440\u044b\u0439\u0441\u043a\u0430\u044f \u0432\u0443\u043b\u0456\u0446\u0430","name:pl":"ulica Stryjska"},"arcs":[[73],[74],[75]]},{"type":"LineString","properties":{"kind":"major_road","name:en":"Stryiska Street","network":"e-road","sort_rank":381,"kind_detail":"trunk","source":"openstreetmap.org","min_zoom":8.0,"name:be":"\u0421\u0442\u0440\u044b\u0439\u0441\u043a\u0430\u044f \u0432\u0443\u043b\u0456\u0446\u0430","shield_text":"50","name:ru":"\u0421\u0442\u0440\u044b\u0439\u0441\u043a\u0430\u044f \u0443\u043b\u0438\u0446\u0430","name:pl":"ulica Stryjska","ref":"\u041c-12","id":125123424},"arcs":[76]},{"type":"LineString","properties":{"kind":"major_road","name:en":"Shota Rustaveli Street","sort_rank":380,"kind_detail":"primary","bus_network":null,"source":"openstreetmap.org","min_zoom":8.0,"bus_shield_text":"3\u0410","name:ru":"\u0428\u043e\u0442\u0430 \u0420\u0443\u0441\u0442\u0430\u0432\u0435\u043b\u0438 \u0443\u043b\u0438\u0446\u0430","name:pl":"ulica Szota Rustaweli","landuse_kind":"urban_area","id":30800041},"arcs":[77]},{"type":"LineString","properties":{"source":"openstreetmap.org","kind":"major_road","sort_rank":381,"kind_detail":"trunk","ref":"\u041c-11","min_zoom":8.0},"arcs":[78]},{"type":"LineString","properties":{"kind":"major_road","name:en":"Halytska Street","network":"ua:national","sort_rank":380,"kind_detail":"primary","source":"openstreetmap.org","min_zoom":8.0,"shield_text":"09","name:ru":"\u0413\u0430\u043b\u0438\u0446\u043a\u0430\u044f \u0443\u043b\u0438\u0446\u0430","ref":"\u041d-09","id":73187823},"arcs":[79]},{"type":"LineString","properties":{"kind":"major_road","network":"e-road","sort_rank":381,"kind_detail":"trunk","source":"openstreetmap.org","min_zoom":8.0,"shield_text":"40","ref":"\u041c-06"},"arcs":[80]},{"type":"LineString","properties":{"kind":"major_road","name:en":"Vasylia Stefanyka Embarkment","sort_rank":380,"kind_detail":"primary","bus_network":null,"source":"openstreetmap.org","min_zoom":8.0,"bus_shield_text":"26","name:ru":"\u0412\u0430\u0441\u0438\u043b\u0438\u044f \u0421\u0442\u0435\u0444\u0430\u043d\u0438\u043a\u0430 \u043d\u0430\u0431\u0435\u0440\u0435\u0436\u043d\u0430\u044f","landuse_kind":"urban_area","ref":"\u041d-09","id":524441304},"arcs":[81]},{"type":"MultiLineString","properties":{"bus_network":null,"name:en":"Horodotska Street","sort_rank":380,"kind_detail":"primary","kind":"major_road","name:de":"Grodecker Stra\u00dfe","source":"openstreetmap.org","min_zoom":8.0,"bus_shield_text":"184\u0430","name:ru":"\u0413\u043e\u0440\u043e\u0434\u043e\u0446\u043a\u0430\u044f \u0443\u043b\u0438\u0446\u0430","name:pl":"ulica Gr\u00f3decka"},"arcs":[[82],[83],[84]]},{"type":"MultiLineString","properties":{"kind":"major_road","network":"ua:regional","sort_rank":380,"kind_detail":"primary","source":"openstreetmap.org","min_zoom":8.0,"shield_text":"21","ref":"\u0420-21"},"arcs":[[85],[86]]},{"type":"LineString","properties":{"bus_network":null,"name:en":"Vasylia Stefanyka Embarkment","network":"ua:national","sort_rank":380,"kind_detail":"primary","kind":"major_road","source":"openstreetmap.org","min_zoom":8.0,"bus_shield_text":"26","shield_text":"09","name:ru":"\u0412\u0430\u0441\u0438\u043b\u0438\u044f \u0421\u0442\u0435\u0444\u0430\u043d\u0438\u043a\u0430 \u043d\u0430\u0431\u0435\u0440\u0435\u0436\u043d\u0430\u044f","landuse_kind":"urban_area","ref":"\u041d-09"},"arcs":[87]},{"type":"LineString","properties":{"kind":"major_road","name:en":"Vasylia Stefanyka Embarkment","network":"ua:national","sort_rank":380,"kind_detail":"primary","source":"openstreetmap.org","min_zoom":8.0,"landuse_kind":"urban_area","shield_text":"09","name:ru":"\u0412\u0430\u0441\u0438\u043b\u0438\u044f \u0421\u0442\u0435\u0444\u0430\u043d\u0438\u043a\u0430 \u043d\u0430\u0431\u0435\u0440\u0435\u0436\u043d\u0430\u044f","id":153080534},"arcs":[88]},{"type":"LineString","properties":{"old_name:uk":"\u041b\u0435\u043d\u0456\u043d\u0430 \u0432\u0443\u043b\u0438\u0446\u044f","bus_network":null,"name:en":"Lychakivska Street","sort_rank":380,"kind_detail":"primary","old_name:ru":"\u041b\u0435\u043d\u0438\u043d\u0430 \u0443\u043b\u0438\u0446\u0430","kind":"major_road","source":"openstreetmap.org","min_zoom":8.0,"old_name":"\u041b\u0435\u043d\u0456\u043d\u0430 \u0432\u0443\u043b\u0438\u0446\u044f","name:ru":"\u041b\u044b\u0447\u0430\u043a\u043e\u0432\u0441\u043a\u0430\u044f \u0443\u043b\u0438\u0446\u0430","name:pl":"ulica \u0141yczakowska","landuse_kind":"urban_area","bus_shield_text":"5\u0410","id":163631289},"arcs":[89]},{"type":"LineString","properties":{"kind":"major_road","name:en":"Kostia Levytskoho Street","sort_rank":380,"kind_detail":"primary","is_bicycle_related":true,"source":"openstreetmap.org","min_zoom":8.0,"landuse_kind":"urban_area","name:ru":"\u041a\u043e\u0441\u0442\u044f \u041b\u0435\u0432\u0438\u0446\u043a\u043e\u0433\u043e \u0443\u043b\u0438\u0446\u0430","id":351960537},"arcs":[90]},{"type":"LineString","properties":{"kind":"major_road","network":"ua:international","sort_rank":381,"kind_detail":"trunk","source":"openstreetmap.org","min_zoom":8.0,"landuse_kind":"national_park","shield_text":"09","ref":"\u041c-09","id":296082603},"arcs":[91]},{"type":"LineString","properties":{"bus_network":null,"name:en":"Zelena Street","sort_rank":380,"kind_detail":"primary","is_bicycle_related":true,"kind":"major_road","cycleway":"lane","source":"openstreetmap.org","min_zoom":8.0,"bus_shield_text":"11","name:ru":"\u0417\u0435\u043b\u0451\u043d\u0430\u044f \u0443\u043b\u0438\u0446\u0430","name:be":"\u0417\u044f\u043b\u0451\u043d\u0430\u044f \u0432\u0443\u043b\u0456\u0446\u0430","name:pl":"ulica Zielona","id":140266913},"arcs":[92]},{"type":"MultiLineString","properties":{"bus_network":"\u0406\u0432\u0430\u043d\u043e-\u0424\u0440\u0430\u043d\u043a\u0456\u0432\u0441\u044c\u043a\u0438\u0439 \u0430\u0432\u0442\u043e\u0431\u0443\u0441","name:en":"Halytska Street","network":"ua:national","sort_rank":380,"kind_detail":"primary","kind":"major_road","source":"openstreetmap.org","min_zoom":8.0,"bus_shield_text":"26\u0410","shield_text":"09","name:ru":"\u0413\u0430\u043b\u0438\u0446\u043a\u0430\u044f \u0443\u043b\u0438\u0446\u0430","landuse_kind":"urban_area","ref":"\u041d-09"},"arcs":[[93],[94],[95],[96]]},{"type":"LineString","properties":{"kind":"major_road","name:en":"Rohatynska Street","network":"e-road","sort_rank":381,"kind_detail":"trunk","source":"openstreetmap.org","min_zoom":8.0,"shield_text":"50","name:ru":"\u0420\u043e\u0433\u0430\u0442\u0438\u043d\u0441\u043a\u0430\u044f \u0443\u043b\u0438\u0446\u0430","ref":"\u041c-12"},"arcs":[97]},{"type":"LineString","properties":{"kind":"major_road","name:en":"Bohdana Khmelnytskoho Street","network":"ua:national","sort_rank":380,"kind_detail":"primary","source":"openstreetmap.org","min_zoom":8.0,"shield_text":"10","name:ru":"\u0411\u043e\u0433\u0434\u0430\u043d\u0430 \u0425\u043c\u0435\u043b\u044c\u043d\u0438\u0446\u043a\u043e\u0433\u043e \u0443\u043b\u0438\u0446\u0430","ref":"\u041d-10"},"arcs":[98]},{"type":"MultiLineString","properties":{"kind":"major_road","name:en":"Shota Rustaveli Street","sort_rank":380,"kind_detail":"primary","source":"openstreetmap.org","min_zoom":8.0,"landuse_kind":"urban_area","name:ru":"\u0428\u043e\u0442\u0430 \u0420\u0443\u0441\u0442\u0430\u0432\u0435\u043b\u0438 \u0443\u043b\u0438\u0446\u0430","name:pl":"ulica Szota Rustaweli"},"arcs":[[99],[100]]},{"type":"LineString","properties":{"kind":"major_road","name:en":"Stryiska Street","network":"e-road","sort_rank":381,"kind_detail":"trunk","source":"openstreetmap.org","min_zoom":8.0,"name:ru":"\u0421\u0442\u0440\u044b\u0439\u0441\u043a\u0430\u044f \u0443\u043b\u0438\u0446\u0430","shield_text":"50","name:be":"\u0421\u0442\u0440\u044b\u0439\u0441\u043a\u0430\u044f \u0432\u0443\u043b\u0456\u0446\u0430","name:pl":"ulica Stryjska","landuse_kind":"residential","ref":"\u041c-12","id":125123424},"arcs":[101]},{"type":"MultiLineString","properties":{"bus_network":null,"sort_rank":380,"kind_detail":"primary","kind":"major_road","source":"openstreetmap.org","min_zoom":8.0,"bus_shield_text":"5\u0410","landuse_kind":"urban_area"},"arcs":[[102],[103]]},{"type":"LineString","properties":{"bus_network":null,"name:en":"Kulparkivska Street","sort_rank":380,"kind_detail":"primary","is_bicycle_related":true,"kind":"major_road","source":"openstreetmap.org","min_zoom":8.0,"bus_shield_text":"7","name:ru":"\u041a\u0443\u043b\u044c\u043f\u0430\u0440\u043a\u043e\u0432\u0441\u043a\u0430\u044f \u0443\u043b\u0438\u0446\u0430","name:pl":"ulica Kulparkowska","landuse_kind":"urban_area"},"arcs":[104]},{"type":"MultiLineString","properties":{"kind":"major_road","name:en":"600-richchia Holynia Street","network":"ua:national","sort_rank":380,"kind_detail":"primary","source":"openstreetmap.org","min_zoom":8.0,"shield_text":"10","name:ru":"600-\u043b\u0435\u0442\u0438\u044f \u0413\u043e\u043b\u044b\u043d\u044f \u0443\u043b\u0438\u0446\u0430","ref":"\u041d-10"},"arcs":[[105],[106]]},{"type":"MultiLineString","properties":{"bus_network":null,"name:en":"Zelena Street","sort_rank":380,"kind_detail":"primary","is_bicycle_related":true,"kind":"major_road","source":"openstreetmap.org","min_zoom":8.0,"bus_shield_text":"47\u0410","name:ru":"\u0417\u0435\u043b\u0451\u043d\u0430\u044f \u0443\u043b\u0438\u0446\u0430","name:be":"\u0417\u044f\u043b\u0451\u043d\u0430\u044f \u0432\u0443\u043b\u0456\u0446\u0430","landuse_kind":"urban_area","name:pl":"ulica Zielona"},"arcs":[[107],[108],[109],[110]]},{"type":"LineString","properties":{"bus_network":null,"network":"ua:national","sort_rank":380,"kind_detail":"primary","kind":"major_road","source":"openstreetmap.org","min_zoom":8.0,"bus_shield_text":"2","shield_text":"10","ref":"\u041d-10"},"arcs":[111]},{"type":"LineString","properties":{"kind":"major_road","name:en":"Horodotska Street","sort_rank":380,"kind_detail":"primary","bus_network":null,"name:de":"Grodecker Stra\u00dfe","source":"openstreetmap.org","min_zoom":8.0,"bus_shield_text":"7","name:ru":"\u0413\u043e\u0440\u043e\u0434\u043e\u0446\u043a\u0430\u044f \u0443\u043b\u0438\u0446\u0430","name:pl":"ulica Gr\u00f3decka","landuse_kind":"urban_area","id":172312014},"arcs":[112]},{"type":"MultiLineString","properties":{"kind":"major_road","network":"e-road","sort_rank":381,"kind_detail":"trunk","source":"openstreetmap.org","min_zoom":8.0,"shield_text":"471","ref":"\u041c-06"},"arcs":[[113],[114],[115],[116]]},{"type":"LineString","properties":{"kind":"major_road","name:en":"Zelena Street","sort_rank":380,"kind_detail":"primary","is_bicycle_related":true,"bus_network":null,"source":"openstreetmap.org","min_zoom":8.0,"name:pl":"ulica Zielona","bus_shield_text":"4\u0410","name:ru":"\u0417\u0435\u043b\u0451\u043d\u0430\u044f \u0443\u043b\u0438\u0446\u0430","name:be":"\u0417\u044f\u043b\u0451\u043d\u0430\u044f \u0432\u0443\u043b\u0456\u0446\u0430","landuse_kind":"urban_area","id":31819122},"arcs":[117]},{"type":"MultiLineString","properties":{"kind":"major_road","name:en":"Sichovykh Striltsiv Square","network":"ua:national","sort_rank":380,"kind_detail":"primary","source":"openstreetmap.org","min_zoom":8.0,"shield_text":"10","ref":"\u041d-10"},"arcs":[[118],[119],[120]]},{"type":"LineString","properties":{"bus_network":null,"name:en":"Shota Rustaveli Street","sort_rank":380,"kind_detail":"primary","is_bicycle_related":true,"kind":"major_road","source":"openstreetmap.org","min_zoom":8.0,"bus_shield_text":"4\u0410","name:ru":"\u0428\u043e\u0442\u0430 \u0420\u0443\u0441\u0442\u0430\u0432\u0435\u043b\u0438 \u0443\u043b\u0438\u0446\u0430","name:pl":"ulica Szota Rustaweli","landuse_kind":"urban_area","old_name:de":"Jablonowski-Gasse"},"arcs":[121]},{"type":"MultiLineString","properties":{"bus_network":"\u0406\u0432\u0430\u043d\u043e-\u0424\u0440\u0430\u043d\u043a\u0456\u0432\u0441\u044c\u043a\u0438\u0439 \u0442\u0440\u043e\u043b\u0435\u0439\u0431\u0443\u0441","network":"ua:national","sort_rank":380,"kind_detail":"primary","kind":"major_road","source":"openstreetmap.org","min_zoom":8.0,"bus_shield_text":"4","shield_text":"09","ref":"\u041d-09"},"arcs":[[122],[123]]},{"type":"MultiLineString","properties":{"kind":"major_road","name:en":"Kulparkivska Street","sort_rank":380,"kind_detail":"primary","source":"openstreetmap.org","min_zoom":8.0,"landuse_kind":"urban_area","name:ru":"\u041a\u0443\u043b\u044c\u043f\u0430\u0440\u043a\u043e\u0432\u0441\u043a\u0430\u044f \u0443\u043b\u0438\u0446\u0430","name:pl":"ulica Kulparkowska"},"arcs":[[124],[125],[126]]},{"type":"LineString","properties":{"kind":"major_road","name:en":"Vasylia Stusa Street","sort_rank":380,"kind_detail":"primary","source":"openstreetmap.org","min_zoom":8.0,"name:ru":"\u0412\u0430\u0441\u0438\u043b\u0438\u044f \u0421\u0442\u0443\u0441\u0430 \u0443\u043b\u0438\u0446\u0430","id":175467589},"arcs":[127]},{"type":"LineString","properties":{"kind":"major_road","network":"e-road","sort_rank":381,"kind_detail":"trunk","source":"openstreetmap.org","min_zoom":8.0,"shield_text":"50","name:ru":"\u0424\u0430\u0431\u0440\u0438\u0447\u043d\u0430\u044f \u0443\u043b\u0438\u0446\u0430","ref":"\u041c-12","id":152474952},"arcs":[128]},{"type":"MultiLineString","properties":{"old_name:uk":"\u041c\u0430\u044f\u043a\u043e\u0432\u0441\u044c\u043a\u043e\u0433\u043e \u0432\u0443\u043b\u0438\u0446\u044f","kind":"major_road","name:en":"Kostia Levytskoho Street","sort_rank":380,"kind_detail":"primary","old_name:ru":"\u041c\u0430\u044f\u043a\u043e\u0432\u0441\u043a\u043e\u0433\u043e \u0443\u043b\u0438\u0446\u0430","is_bicycle_related":true,"source":"openstreetmap.org","min_zoom":8.0,"landuse_kind":"urban_area","name:ru":"\u041a\u043e\u0441\u0442\u044f \u041b\u0435\u0432\u0438\u0446\u043a\u043e\u0433\u043e \u0443\u043b\u0438\u0446\u0430"},"arcs":[[129],[130]]},{"type":"LineString","properties":{"kind":"major_road","name:en":"Zelena Street","sort_rank":380,"kind_detail":"primary","source":"openstreetmap.org","min_zoom":8.0,"landuse_kind":"urban_area","name:ru":"\u0417\u0435\u043b\u0451\u043d\u0430\u044f \u0443\u043b\u0438\u0446\u0430","id":440121278},"arcs":[131]},{"type":"LineString","properties":{"kind":"major_road","name:en":"Tarasa Shevchenka Street","network":"e-road","sort_rank":381,"kind_detail":"trunk","source":"openstreetmap.org","min_zoom":8.0,"int_name":"Shevchenka Street","shield_text":"50","name:ru":"\u0422\u0430\u0440\u0430\u0441\u0430 \u0428\u0435\u0432\u0447\u0435\u043d\u043a\u043e \u0443\u043b\u0438\u0446\u0430","name:pl":"ulica Tarasa Szewczenki","ref":"\u041c-12","id":231315479},"arcs":[132]},{"type":"MultiLineString","properties":{"old_name:uk":"\u041b\u0435\u043d\u0456\u043d\u0430 \u0432\u0443\u043b\u0438\u0446\u044f","bus_network":null,"name:en":"Lychakivska Street","sort_rank":380,"kind_detail":"primary","old_name:ru":"\u041b\u0435\u043d\u0438\u043d\u0430 \u0443\u043b\u0438\u0446\u0430","kind":"major_road","source":"openstreetmap.org","min_zoom":8.0,"bus_shield_text":"5\u0410","name:ru":"\u041b\u044b\u0447\u0430\u043a\u043e\u0432\u0441\u043a\u0430\u044f \u0443\u043b\u0438\u0446\u0430","name:pl":"ulica \u0141yczakowska","landuse_kind":"urban_area"},"arcs":[[133],[134]]},{"type":"LineString","properties":{"kind":"major_road","name:en":"Mukhy I. Street","network":"ua:national","sort_rank":380,"kind_detail":"primary","source":"openstreetmap.org","min_zoom":8.0,"shield_text":"09","ref":"\u041d-09","id":230815017},"arcs":[135]},{"type":"LineString","properties":{"kind":"major_road","name:en":"Kulparkivska Street","sort_rank":380,"kind_detail":"primary","bus_network":null,"source":"openstreetmap.org","min_zoom":8.0,"bus_shield_text":"7","name:ru":"\u041a\u0443\u043b\u044c\u043f\u0430\u0440\u043a\u043e\u0432\u0441\u043a\u0430\u044f \u0443\u043b\u0438\u0446\u0430","name:pl":"ulica Kulparkowska","landuse_kind":"urban_area","id":4773827},"arcs":[136]},{"type":"LineString","properties":{"bus_network":null,"name:en":"Ivana Franka Street","sort_rank":380,"kind_detail":"primary","kind":"major_road","name:fr":"Rue Ivana Franka","source":"openstreetmap.org","min_zoom":8.0,"bus_shield_text":"4\u0410","name:ru":"\u0418\u0432\u0430\u043d\u0430 \u0424\u0440\u0430\u043d\u043a\u043e \u0443\u043b\u0438\u0446\u0430","name:pl":"ulica \u0406vana Franki","landuse_kind":"urban_area","old_name:de":"Czarniecki-Gasse"},"arcs":[137]},{"type":"MultiLineString","properties":{"bus_network":null,"name:en":"Lychakivska Street","sort_rank":380,"kind_detail":"primary","bus_shield_text":"5\u0410","kind":"major_road","source":"openstreetmap.org","min_zoom":8.0,"old_name":"\u041b\u0435\u043d\u0456\u043d\u0430 \u0432\u0443\u043b\u0438\u0446\u044f","name:ru":"\u041b\u044b\u0447\u0430\u043a\u043e\u0432\u0441\u043a\u0430\u044f \u0443\u043b\u0438\u0446\u0430","name:pl":"ulica \u0141yczakowska","landuse_kind":"urban_area"},"arcs":[[138],[139]]},{"type":"MultiLineString","properties":{"kind":"major_road","name:en":"Stryiska Street","sort_rank":380,"kind_detail":"primary","source":"openstreetmap.org","min_zoom":8.0,"name:be":"\u0421\u0442\u0440\u044b\u0439\u0441\u043a\u0430\u044f \u0432\u0443\u043b\u0456\u0446\u0430","name:ru":"\u0421\u0442\u0440\u044b\u0439\u0441\u043a\u0430\u044f \u0443\u043b\u0438\u0446\u0430","name:pl":"ulica Stryjska"},"arcs":[[140],[141]]},{"type":"MultiLineString","properties":{"kind":"major_road","name:en":"Lvivska Street","network":"ua:national","sort_rank":380,"kind_detail":"primary","source":"openstreetmap.org","min_zoom":8.0,"shield_text":"10","name:ru":"\u041b\u044c\u0432\u043e\u0432\u0441\u043a\u0430\u044f \u0443\u043b\u0438\u0446\u0430","ref":"\u041d-10"},"arcs":[[142],[143]]},{"type":"MultiLineString","properties":{"bus_network":null,"name:en":"Stryiska Street","sort_rank":380,"kind_detail":"primary","kind":"major_road","source":"openstreetmap.org","min_zoom":8.0,"bus_shield_text":"3\u0410","name:ru":"\u0421\u0442\u0440\u044b\u0439\u0441\u043a\u0430\u044f \u0443\u043b\u0438\u0446\u0430","name:be":"\u0421\u0442\u0440\u044b\u0439\u0441\u043a\u0430\u044f \u0432\u0443\u043b\u0456\u0446\u0430","landuse_kind":"urban_area","name:pl":"ulica Stryjska"},"arcs":[[144],[145],[146],[147],[148],[149],[150]]},{"type":"MultiLineString","properties":{"kind":"major_road","name:en":"Oblisky Street","network":"ua:regional","sort_rank":380,"kind_detail":"primary","source":"openstreetmap.org","min_zoom":8.0,"shield_text":"21","name:ru":"\u041e\u0431\u043b\u0438\u0441\u043a\u0438 \u0443\u043b\u0438\u0446\u0430","ref":"\u0420-21"},"arcs":[[151],[152],[153]]},{"type":"LineString","properties":{"kind":"major_road","name:en":"Danyla Halytskoho Street","sort_rank":380,"kind_detail":"primary","source":"openstreetmap.org","min_zoom":8.0,"name:ru":"\u0414\u0430\u043d\u0438\u0438\u043b\u0430 \u0413\u0430\u043b\u0438\u0446\u043a\u043e\u0433\u043e \u0443\u043b\u0438\u0446\u0430","id":192625972},"arcs":[154]},{"type":"MultiLineString","properties":{"bus_network":"\u0406\u0432\u0430\u043d\u043e-\u0424\u0440\u0430\u043d\u043a\u0456\u0432\u0441\u044c\u043a\u0438\u0439 \u0442\u0440\u043e\u043b\u0435\u0439\u0431\u0443\u0441","network":"ua:national","sort_rank":380,"kind_detail":"primary","kind":"major_road","source":"openstreetmap.org","min_zoom":8.0,"bus_shield_text":"4","shield_text":"09","landuse_kind":"urban_area","ref":"\u041d-09"},"arcs":[[155],[156]]},{"type":"LineString","properties":{"bus_network":null,"min_zoom":8.0,"bus_shield_text":"4\u0410","name:ru":"\u0418\u0432\u0430\u043d\u0430 \u0424\u0440\u0430\u043d\u043a\u043e \u0443\u043b\u0438\u0446\u0430","name:pl":"ulica \u0406vana Franki","name:de":"Iwan-Franko-Stra\u00dfe","id":161040415,"kind":"major_road","name:en":"Ivana Franka Street","source":"openstreetmap.org","sort_rank":380,"kind_detail":"primary","old_name:de":"Czarniecki-Gasse","old_name:pl":"J\u00f3zefa Pi\u0142sudskiego","name:fr":"Rue Ivana Franka","landuse_kind":"urban_area"},"arcs":[157]},{"type":"LineString","properties":{"bus_network":null,"name:en":"Hlynianskyi Trakt Street","sort_rank":380,"kind_detail":"primary","is_bicycle_related":true,"kind":"major_road","source":"openstreetmap.org","min_zoom":8.0,"bus_shield_text":"19","name:ru":"\u0413\u043b\u0438\u043d\u044f\u043d\u0441\u043a\u0438\u0439 \u0422\u0440\u0430\u043a\u0442 \u0443\u043b\u0438\u0446\u0430","landuse_kind":"urban_area"},"arcs":[158]},{"type":"LineString","properties":{"bus_network":null,"name:en":"Halytska Street","sort_rank":380,"kind_detail":"primary","kind":"major_road","source":"openstreetmap.org","min_zoom":8.0,"bus_shield_text":"5\u0410","name:ru":"\u0413\u0430\u043b\u0438\u0446\u043a\u0430\u044f \u0443\u043b\u0438\u0446\u0430","name:be":"\u0413\u0430\u043b\u0456\u0446\u043a\u0430\u044f \u0432\u0443\u043b\u0456\u0446\u0430","name:pl":"ulica Galicka"},"arcs":[159]},{"type":"LineString","properties":{"kind":"major_road","name:en":"Lvivska Street","network":"ua:national","sort_rank":380,"kind_detail":"primary","source":"openstreetmap.org","min_zoom":8.0,"shield_text":"09","name:ru":"\u041b\u044c\u0432\u043e\u0432\u0441\u043a\u0430\u044f \u0443\u043b\u0438\u0446\u0430","name:pl":"ulica Lwowska","ref":"\u041d-09"},"arcs":[160]},{"type":"LineString","properties":{"kind":"major_road","network":"e-road","sort_rank":381,"kind_detail":"trunk","source":"openstreetmap.org","min_zoom":8.0,"shield_text":"50","name:ru":"\u0414\u0430\u043d\u0438\u0438\u043b\u0430 \u0413\u0430\u043b\u0438\u0446\u043a\u043e\u0433\u043e \u0443\u043b\u0438\u0446\u0430","ref":"\u041c-12"},"arcs":[161]},{"type":"LineString","properties":{"kind":"major_road","network":"ua:national","sort_rank":380,"kind_detail":"primary","bus_network":null,"source":"openstreetmap.org","min_zoom":8.0,"bus_shield_text":"26","shield_text":"09","landuse_kind":"urban_area","ref":"\u041d-09","id":415627957},"arcs":[162]},{"type":"LineString","properties":{"kind":"major_road","network":"ua:international","sort_rank":381,"kind_detail":"trunk","source":"openstreetmap.org","min_zoom":8.0,"shield_text":"11","ref":"\u041c-11"},"arcs":[163]},{"type":"LineString","properties":{"kind":"major_road","name:en":"Halytska Street","network":"ua:national","sort_rank":381,"kind_detail":"trunk","source":"openstreetmap.org","min_zoom":8.0,"shield_text":"09","name:ru":"\u0413\u0430\u043b\u0438\u0446\u043a\u0430\u044f \u0443\u043b\u0438\u0446\u0430","ref":"\u041c-12;\u041d-09"},"arcs":[164]},{"type":"LineString","properties":{"kind":"major_road","name:en":"Kaluske Road","network":"ua:national","sort_rank":380,"kind_detail":"primary","source":"openstreetmap.org","min_zoom":8.0,"shield_text":"10","name:ru":"\u041a\u0430\u043b\u0443\u0448\u0441\u043a\u043e\u0435 \u0448\u043e\u0441\u0441\u0435","ref":"\u041d-10"},"arcs":[165]},{"type":"LineString","properties":{"kind":"major_road","sort_rank":380,"kind_detail":"primary","bus_network":null,"source":"openstreetmap.org","min_zoom":8.0,"bus_shield_text":"5\u0410","id":150103663},"arcs":[166]},{"type":"LineString","properties":{"old_name:uk":"\u0413\u0430\u043b\u0430\u043d\u0430 \u043f\u043b\u043e\u0449\u0430","bus_network":null,"name:en":"Yevhena Petrushevycha Square","sort_rank":380,"kind_detail":"primary","old_name:ru":"\u0413\u0430\u043b\u0430\u043d\u0430 \u043f\u043b\u043e\u0449\u0430\u0434\u044c","kind":"major_road","source":"openstreetmap.org","min_zoom":8.0,"bus_shield_text":"11","name:ru":"\u0415\u0432\u0433\u0435\u043d\u0438\u044f \u041f\u0435\u0442\u0440\u0443\u0448\u0435\u0432\u0438\u0447\u0430 \u043f\u043b\u043e\u0449\u0430\u0434\u044c","landuse_kind":"urban_area"},"arcs":[167]},{"type":"LineString","properties":{"kind":"major_road","sort_rank":380,"kind_detail":"primary","bus_network":null,"source":"openstreetmap.org","min_zoom":8.0,"bus_shield_text":"24","name:ru":"\u041d\u0430\u0434\u0440\u0435\u0447\u043d\u0430\u044f \u0443\u043b\u0438\u0446\u0430","landuse_kind":"urban_area","id":315882904},"arcs":[168]},{"type":"MultiLineString","properties":{"bus_network":null,"network":"e-road","sort_rank":381,"kind_detail":"trunk","kind":"major_road","source":"openstreetmap.org","min_zoom":8.0,"bus_shield_text":"184\u0430","shield_text":"40","ref":"\u041c-10"},"arcs":[[169],[170],[171]]},{"type":"LineString","properties":{"source":"openstreetmap.org","kind":"major_road","kind_detail":"primary","sort_rank":380,"name:ru":"\u041c\u0438\u0442\u0440\u043e\u043f\u043e\u043b\u0438\u0442\u0430 \u0410\u043d\u0434\u0440\u0435\u044f \u0428\u0435\u043f\u0442\u0438\u0446\u043a\u043e\u0433\u043e \u0443\u043b\u0438\u0446\u0430","min_zoom":8.0,"id":87497092},"arcs":[172]},{"type":"MultiLineString","properties":{"source":"openstreetmap.org","kind":"major_road","landuse_kind":"urban_area","sort_rank":380,"kind_detail":"primary","min_zoom":8.0,"name:ru":"\u041d\u0430\u0434\u0440\u0435\u0447\u043d\u0430\u044f \u0443\u043b\u0438\u0446\u0430"},"arcs":[[173],[174],[175]]},{"type":"LineString","properties":{"bus_network":null,"sort_rank":380,"kind_detail":"primary","is_bicycle_related":true,"kind":"major_road","cycleway":"lane","source":"openstreetmap.org","min_zoom":8.0,"bus_shield_text":"11","id":461892333},"arcs":[176]},{"type":"LineString","properties":{"bus_network":null,"network":"ua:national","sort_rank":380,"kind_detail":"primary","kind":"major_road","source":"openstreetmap.org","min_zoom":8.0,"bus_shield_text":"11","shield_text":"09","ref":"\u041d-09"},"arcs":[177]},{"type":"LineString","properties":{"kind":"major_road","network":"e-road","sort_rank":381,"kind_detail":"trunk","source":"openstreetmap.org","min_zoom":8.0,"landuse_kind":"residential","shield_text":"50","ref":"\u041c-12"},"arcs":[178]},{"type":"LineString","properties":{"kind":"major_road","name:en":"Tarasa Shevchenka Street","network":"e-road","sort_rank":381,"kind_detail":"trunk","source":"openstreetmap.org","min_zoom":8.0,"shield_text":"50","name:ru":"\u0422\u0430\u0440\u0430\u0441\u0430 \u0428\u0435\u0432\u0447\u0435\u043d\u043a\u043e \u0443\u043b\u0438\u0446\u0430","name:pl":"ulica Tarasa Szewczenki","ref":"\u041c-12","id":231315478},"arcs":[179]},{"type":"LineString","properties":{"kind":"major_road","name:en":"Stepana Bandery Street","network":"ua:regional","sort_rank":380,"kind_detail":"primary","source":"openstreetmap.org","min_zoom":8.0,"shield_text":"20","name:ru":"\u0421\u0442\u0435\u043f\u0430\u043d\u0430 \u0411\u0430\u043d\u0434\u0435\u0440\u044b \u0443\u043b\u0438\u0446\u0430","ref":"\u0420-20","id":296617574},"arcs":[180]},{"type":"LineString","properties":{"kind":"major_road","network":"e-road","sort_rank":381,"kind_detail":"trunk","source":"openstreetmap.org","min_zoom":8.0,"shield_text":"40","id":360930688},"arcs":[181]},{"type":"LineString","properties":{"bus_network":null,"name:en":"Zelena Street","sort_rank":380,"kind_detail":"primary","is_bicycle_related":true,"cycleway_right":"lane","kind":"major_road","source":"openstreetmap.org","min_zoom":8.0,"name:pl":"ulica Zielona","bus_shield_text":"47\u0410","name:ru":"\u0417\u0435\u043b\u0451\u043d\u0430\u044f \u0443\u043b\u0438\u0446\u0430","name:be":"\u0417\u044f\u043b\u0451\u043d\u0430\u044f \u0432\u0443\u043b\u0456\u0446\u0430","landuse_kind":"urban_area","id":159855404},"arcs":[182]},{"type":"LineString","properties":{"bus_network":"\u0406\u0432\u0430\u043d\u043e-\u0424\u0440\u0430\u043d\u043a\u0456\u0432\u0441\u044c\u043a\u0438\u0439 \u0442\u0440\u043e\u043b\u0435\u0439\u0431\u0443\u0441","name:en":"Volodymyra Ivasiuka Street","sort_rank":380,"kind_detail":"primary","kind":"major_road","source":"openstreetmap.org","min_zoom":8.0,"bus_shield_text":"3","name:ru":"\u0412\u043b\u0430\u0434\u0438\u043c\u0438\u0440\u0430 \u0418\u0432\u0430\u0441\u044e\u043a\u0430 \u0443\u043b\u0438\u0446\u0430","landuse_kind":"urban_area"},"arcs":[183]},{"type":"LineString","properties":{"kind":"major_road","name:en":"Lesi Ukrainky Street","network":"ua:national","sort_rank":380,"kind_detail":"primary","source":"openstreetmap.org","min_zoom":8.0,"shield_text":"10","name:ru":"\u041b\u0435\u0441\u0438 \u0423\u043a\u0440\u0430\u0438\u043d\u043a\u0438 \u0443\u043b\u0438\u0446\u0430","ref":"\u041d-10","id":226131890},"arcs":[184]},{"type":"LineString","properties":{"kind":"major_road","name:en":"Danyla Halytskoho Street","network":"ua:national","sort_rank":380,"kind_detail":"primary","source":"openstreetmap.org","min_zoom":8.0,"shield_text":"10","name:ru":"\u0414\u0430\u043d\u0438\u0438\u043b\u0430 \u0413\u0430\u043b\u0438\u0446\u043a\u043e\u0433\u043e \u0443\u043b\u0438\u0446\u0430","ref":"\u041d-10"},"arcs":[185]},{"type":"LineString","properties":{"bus_network":"\u0406\u0432\u0430\u043d\u043e-\u0424\u0440\u0430\u043d\u043a\u0456\u0432\u0441\u044c\u043a\u0438\u0439 \u0442\u0440\u043e\u043b\u0435\u0439\u0431\u0443\u0441","network":"ua:national","sort_rank":380,"kind_detail":"primary","kind":"major_road","source":"openstreetmap.org","min_zoom":8.0,"bus_shield_text":"4","shield_text":"09","landuse_kind":"residential","ref":"\u041d-09"},"arcs":[186]},{"type":"MultiLineString","properties":{"bus_network":null,"network":"e-road","sort_rank":381,"kind_detail":"trunk","kind":"major_road","source":"openstreetmap.org","min_zoom":8.0,"bus_shield_text":"142","shield_text":"40","ref":"\u041c-10"},"arcs":[[187],[188]]},{"type":"MultiLineString","properties":{"kind":"major_road","network":"ua:international","sort_rank":381,"kind_detail":"trunk","source":"openstreetmap.org","min_zoom":8.0,"shield_text":"09","ref":"\u041c-09"},"arcs":[[189],[190],[191]]},{"type":"LineString","properties":{"bus_network":null,"name:en":"Zelena Street","sort_rank":380,"kind_detail":"primary","is_bicycle_related":true,"kind":"major_road","source":"openstreetmap.org","min_zoom":8.0,"bus_shield_text":"11","name:ru":"\u0417\u0435\u043b\u0451\u043d\u0430\u044f \u0443\u043b\u0438\u0446\u0430","name:be":"\u0417\u044f\u043b\u0451\u043d\u0430\u044f \u0432\u0443\u043b\u0456\u0446\u0430","landuse_kind":"urban_area","name:pl":"ulica Zielona"},"arcs":[192]},{"type":"MultiLineString","properties":{"bus_network":"\u0406\u0432\u0430\u043d\u043e-\u0424\u0440\u0430\u043d\u043a\u0456\u0432\u0441\u044c\u043a\u0438\u0439 \u0430\u0432\u0442\u043e\u0431\u0443\u0441","name:en":"Halytska Street","cycleway_left":"track","network":"ua:national","sort_rank":380,"landuse_kind":"urban_area","bus_shield_text":"26\u0410","is_bicycle_related":true,"kind":"major_road","source":"openstreetmap.org","min_zoom":8.0,"kind_detail":"primary","shield_text":"09","name:ru":"\u0413\u0430\u043b\u0438\u0446\u043a\u0430\u044f \u0443\u043b\u0438\u0446\u0430","ref":"\u041d-09"},"arcs":[[193],[194]]},{"type":"MultiLineString","properties":{"kind":"major_road","network":"ua:national","sort_rank":380,"kind_detail":"primary","source":"openstreetmap.org","min_zoom":8.0,"shield_text":"09","ref":"\u041d-09"},"arcs":[[195],[196],[197],[198],[199],[200],[201],[202],[203]]},{"type":"LineString","properties":{"kind":"major_road","name:en":"Danyla Halytskoho Street","network":"ua:regional","sort_rank":380,"kind_detail":"primary","source":"openstreetmap.org","min_zoom":8.0,"shield_text":"21","name:ru":"\u0414\u0430\u043d\u0438\u0438\u043b\u0430 \u0413\u0430\u043b\u0438\u0446\u043a\u043e\u0433\u043e \u0443\u043b\u0438\u0446\u0430","ref":"\u0420-21","id":261987889},"arcs":[204]},{"type":"LineString","properties":{"kind":"major_road","sort_rank":380,"kind_detail":"primary","bus_network":null,"source":"openstreetmap.org","min_zoom":8.0,"bus_shield_text":"19","landuse_kind":"urban_area","id":404724428},"arcs":[205]},{"type":"MultiLineString","properties":{"bus_network":null,"name:en":"Stryiska Street","sort_rank":380,"kind_detail":"primary","is_bicycle_related":true,"kind":"major_road","source":"openstreetmap.org","min_zoom":8.0,"bus_shield_text":"3\u0410","name:ru":"\u0421\u0442\u0440\u044b\u0439\u0441\u043a\u0430\u044f \u0443\u043b\u0438\u0446\u0430","name:be":"\u0421\u0442\u0440\u044b\u0439\u0441\u043a\u0430\u044f \u0432\u0443\u043b\u0456\u0446\u0430","landuse_kind":"urban_area","name:pl":"ulica Stryjska"},"arcs":[[206],[207],[208],[209]]},{"type":"LineString","properties":{"kind":"major_road","name:en":"Zelena Street","sort_rank":380,"kind_detail":"primary","is_bicycle_related":true,"bus_network":null,"source":"openstreetmap.org","min_zoom":8.0,"bus_shield_text":"47\u0410","name:ru":"\u0417\u0435\u043b\u0451\u043d\u0430\u044f \u0443\u043b\u0438\u0446\u0430","name:pl":"ulica Zielona","landuse_kind":"urban_area","id":501850000},"arcs":[210]},{"type":"MultiLineString","properties":{"bus_network":null,"name:en":"Kulparkivska Street","sort_rank":380,"kind_detail":"primary","kind":"major_road","source":"openstreetmap.org","min_zoom":8.0,"bus_shield_text":"2","name:ru":"\u041a\u0443\u043b\u044c\u043f\u0430\u0440\u043a\u043e\u0432\u0441\u043a\u0430\u044f \u0443\u043b\u0438\u0446\u0430","name:pl":"ulica Kulparkowska","landuse_kind":"urban_area"},"arcs":[[211],[212],[213],[214],[215]]},{"type":"MultiLineString","properties":{"kind":"major_road","name:en":"22 Sichnia Street","network":"ua:national","sort_rank":380,"kind_detail":"primary","source":"openstreetmap.org","min_zoom":8.0,"shield_text":"10","name:ru":"22-\u0433\u043e \u042f\u043d\u0432\u0430\u0440\u044f \u0443\u043b\u0438\u0446\u0430","ref":"\u041d-10"},"arcs":[[216],[217]]},{"type":"LineString","properties":{"kind":"major_road","name:en":"Vasylia Stefanyka Embarkment","network":"ua:national","sort_rank":380,"kind_detail":"primary","source":"openstreetmap.org","min_zoom":8.0,"landuse_kind":"urban_area","shield_text":"09","name:ru":"\u0412\u0430\u0441\u0438\u043b\u0438\u044f \u0421\u0442\u0435\u0444\u0430\u043d\u0438\u043a\u0430 \u043d\u0430\u0431\u0435\u0440\u0435\u0436\u043d\u0430\u044f","ref":"\u041d-09","id":237099062},"arcs":[218]},{"type":"LineString","properties":{"bus_network":null,"name:en":"Soborna Square","sort_rank":380,"kind_detail":"primary","name:fr":"Place Soborna","kind":"major_road","source":"openstreetmap.org","min_zoom":8.0,"bus_shield_text":"4\u0410","name:ru":"\u0421\u043e\u0431\u043e\u0440\u043d\u0430\u044f \u043f\u043b\u043e\u0449\u0430\u0434\u044c","name:pl":"plac Bernardy\u0144ski","landuse_kind":"urban_area","old_name:de":"Czarniecki-Gasse"},"arcs":[219]},{"type":"MultiLineString","properties":{"kind":"major_road","network":"e-road","sort_rank":381,"kind_detail":"trunk","source":"openstreetmap.org","min_zoom":8.0,"shield_text":"40","ref":"\u041c-10"},"arcs":[[220],[221],[222]]},{"type":"LineString","properties":{"kind":"major_road","name:en":"Shevchenka Street","network":"e-road","sort_rank":381,"kind_detail":"trunk","source":"openstreetmap.org","min_zoom":8.0,"shield_text":"50","name:ru":"\u0428\u0435\u0432\u0447\u0435\u043d\u043a\u043e \u0443\u043b\u0438\u0446\u0430","ref":"\u041c-12","id":70993858},"arcs":[223]},{"type":"LineString","properties":{"bus_network":null,"name:en":"Zelena Street","sort_rank":380,"kind_detail":"primary","is_bicycle_related":true,"cycleway_right":"shared_lane","kind":"major_road","source":"openstreetmap.org","min_zoom":8.0,"name:pl":"ulica Zielona","bus_shield_text":"11","name:ru":"\u0417\u0435\u043b\u0451\u043d\u0430\u044f \u0443\u043b\u0438\u0446\u0430","name:be":"\u0417\u044f\u043b\u0451\u043d\u0430\u044f \u0432\u0443\u043b\u0456\u0446\u0430","landuse_kind":"urban_area","id":179183348},"arcs":[224]},{"type":"MultiLineString","properties":{"source":"openstreetmap.org","kind":"major_road","landuse_kind":"urban_area","sort_rank":380,"kind_detail":"primary","min_zoom":8.0},"arcs":[[225],[226],[227],[228]]},{"type":"LineString","properties":{"source":"openstreetmap.org","kind":"major_road","kind_detail":"primary","sort_rank":380,"name:ru":"\u041b\u044c\u0432\u043e\u0432\u0441\u043a\u0430\u044f \u0443\u043b\u0438\u0446\u0430","min_zoom":8.0,"id":360122205},"arcs":[229]},{"type":"LineString","properties":{"bus_network":null,"name:en":"Stryiska Street","sort_rank":380,"kind_detail":"primary","kind":"major_road","source":"openstreetmap.org","min_zoom":8.0,"bus_shield_text":"116","name:ru":"\u0421\u0442\u0440\u044b\u0439\u0441\u043a\u0430\u044f \u0443\u043b\u0438\u0446\u0430","name:be":"\u0421\u0442\u0440\u044b\u0439\u0441\u043a\u0430\u044f \u0432\u0443\u043b\u0456\u0446\u0430","name:pl":"ulica Stryjska"},"arcs":[230]},{"type":"LineString","properties":{"kind":"major_road","network":"ua:international","sort_rank":381,"kind_detail":"trunk","bus_network":null,"source":"openstreetmap.org","min_zoom":8.0,"bus_shield_text":"116","shield_text":"06","ref":"\u041c-06","id":533931186},"arcs":[231]},{"type":"LineString","properties":{"kind":"major_road","sort_rank":380,"kind_detail":"primary","bus_network":null,"source":"openstreetmap.org","min_zoom":8.0,"bus_shield_text":"116","id":58413638},"arcs":[232]},{"type":"MultiLineString","properties":{"kind":"major_road","network":"ua:national","sort_rank":380,"kind_detail":"primary","source":"openstreetmap.org","min_zoom":8.0,"landuse_kind":"urban_area","shield_text":"09","ref":"\u041d-09"},"arcs":[[233],[234]]},{"type":"LineString","properties":{"kind":"major_road","sort_rank":380,"kind_detail":"primary","bus_network":null,"source":"openstreetmap.org","min_zoom":8.0,"bus_shield_text":"47\u0410","landuse_kind":"urban_area","id":404724421},"arcs":[235]},{"type":"MultiLineString","properties":{"kind":"major_road","network":"e-road","sort_rank":381,"kind_detail":"trunk","source":"openstreetmap.org","min_zoom":8.0,"shield_text":"50","ref":"\u041c-12"},"arcs":[[236],[237],[238],[239],[240],[241]]},{"type":"MultiLineString","properties":{"kind":"major_road","network":"ua:national","sort_rank":380,"kind_detail":"primary","source":"openstreetmap.org","min_zoom":8.0,"landuse_kind":"urban_area","shield_text":"09"},"arcs":[[242],[243],[244]]},{"type":"LineString","properties":{"kind":"major_road","name:en":"Kaluske Road","network":"ua:national","sort_rank":380,"kind_detail":"primary","source":"openstreetmap.org","min_zoom":8.0,"landuse_kind":"urban_area","shield_text":"10","name:ru":"\u041a\u0430\u043b\u0443\u0448\u0441\u043a\u043e\u0435 \u0448\u043e\u0441\u0441\u0435","ref":"\u041d-10","id":135176640},"arcs":[245]},{"type":"MultiLineString","properties":{"kind":"major_road","network":"ua:national","sort_rank":380,"kind_detail":"primary","source":"openstreetmap.org","min_zoom":8.0,"shield_text":"18","ref":"\u041d-18"},"arcs":[[246],[247]]},{"type":"LineString","properties":{"kind":"major_road","name:en":"Lvivska Street","network":"e-road","sort_rank":381,"kind_detail":"trunk","source":"openstreetmap.org","min_zoom":8.0,"name:ru":"\u041b\u044c\u0432\u043e\u0432\u0441\u043a\u0430\u044f \u0443\u043b\u0438\u0446\u0430","shield_text":"471","name:be":"\u041b\u044c\u0432\u043e\u045e\u0441\u043a\u0430\u044f \u0432\u0443\u043b\u0456\u0446\u0430","name:pl":"ulica Lwowska","ref":"\u041c-06"},"arcs":[248]},{"type":"LineString","properties":{"kind":"major_road","name:en":"Stepana Bandery Street","network":"e-road","sort_rank":381,"kind_detail":"trunk","source":"openstreetmap.org","min_zoom":8.0,"name:be":"\u0421\u0446\u044f\u043f\u0430\u043d\u0430 \u0411\u0430\u043d\u0434\u044d\u0440\u044b \u0432\u0443\u043b\u0456\u0446\u0430","shield_text":"50","name:ru":"\u0421\u0442\u0435\u043f\u0430\u043d\u0430 \u0411\u0430\u043d\u0434\u0435\u0440\u044b \u0443\u043b\u0438\u0446\u0430","ref":"\u041c-12","id":278683324},"arcs":[249]},{"type":"LineString","properties":{"kind":"major_road","network":"ua:territorial","sort_rank":381,"kind_detail":"trunk","source":"openstreetmap.org","min_zoom":8.0,"shield_text":"\u04221806","ref":"\u041c-09","id":144327642},"arcs":[250]},{"type":"LineString","properties":{"bus_network":null,"name:en":"Zelena Street","sort_rank":380,"kind_detail":"primary","is_bicycle_related":true,"kind":"major_road","cycleway":"shared_lane","source":"openstreetmap.org","min_zoom":8.0,"bus_shield_text":"11","name:ru":"\u0417\u0435\u043b\u0451\u043d\u0430\u044f \u0443\u043b\u0438\u0446\u0430","name:be":"\u0417\u044f\u043b\u0451\u043d\u0430\u044f \u0432\u0443\u043b\u0456\u0446\u0430","landuse_kind":"urban_area","name:pl":"ulica Zielona"},"arcs":[251]},{"type":"MultiLineString","properties":{"bus_network":null,"name:en":"Horodotska Street","sort_rank":380,"kind_detail":"primary","kind":"major_road","name:de":"Grodecker Stra\u00dfe","source":"openstreetmap.org","min_zoom":8.0,"bus_shield_text":"184\u0430","name:ru":"\u0413\u043e\u0440\u043e\u0434\u043e\u0446\u043a\u0430\u044f \u0443\u043b\u0438\u0446\u0430","name:pl":"ulica Gr\u00f3decka","landuse_kind":"urban_area"},"arcs":[[252],[253],[254],[255],[256],[257]]},{"type":"LineString","properties":{"bus_network":null,"name:en":"Zelena Street","sort_rank":380,"kind_detail":"primary","is_bicycle_related":true,"kind":"major_road","cycleway":"lane","source":"openstreetmap.org","min_zoom":8.0,"bus_shield_text":"11","name:ru":"\u0417\u0435\u043b\u0451\u043d\u0430\u044f \u0443\u043b\u0438\u0446\u0430","name:be":"\u0417\u044f\u043b\u0451\u043d\u0430\u044f \u0432\u0443\u043b\u0456\u0446\u0430","landuse_kind":"urban_area","name:pl":"ulica Zielona"},"arcs":[258]},{"type":"LineString","properties":{"bus_network":null,"network":"e-road","sort_rank":381,"kind_detail":"trunk","kind":"major_road","source":"openstreetmap.org","min_zoom":8.0,"bus_shield_text":"116","shield_text":"471","ref":"\u041c-06"},"arcs":[259]},{"type":"LineString","properties":{"kind":"major_road","network":"e-road","sort_rank":381,"kind_detail":"trunk","source":"openstreetmap.org","min_zoom":8.0,"shield_text":"50","name:ru":"\u0410\u043a\u0430\u0434\u0435\u043c\u0438\u043a\u0430 \u041c\u0438\u0445\u0430\u0438\u043b\u0430 \u0433\u0440\u0443\u0448\u0435\u0432\u0441\u043a\u043e\u0433\u043e \u0443\u043b\u0438\u0446\u0430","ref":"\u041c-12","id":23251215},"arcs":[260]},{"type":"MultiLineString","properties":{"bus_network":null,"name:en":"Horodotska Street","sort_rank":380,"kind_detail":"primary","kind":"major_road","source":"openstreetmap.org","min_zoom":8.0,"bus_shield_text":"184\u0430","name:ru":"\u0413\u043e\u0440\u043e\u0434\u043e\u0446\u043a\u0430\u044f \u0443\u043b\u0438\u0446\u0430","name:pl":"ulica Gr\u00f3decka","landuse_kind":"urban_area"},"arcs":[[261],[262]]},{"type":"LineString","properties":{"old_name:uk":"\u041b\u0435\u043d\u0456\u043d\u0430 \u0432\u0443\u043b\u0438\u0446\u044f","bus_network":null,"name:en":"Lychakivska Street","sort_rank":380,"kind_detail":"primary","old_name:ru":"\u041b\u0435\u043d\u0438\u043d\u0430 \u0443\u043b\u0438\u0446\u0430","is_bicycle_related":true,"kind":"major_road","source":"openstreetmap.org","min_zoom":8.0,"bus_shield_text":"5\u0410","name:ru":"\u041b\u044b\u0447\u0430\u043a\u043e\u0432\u0441\u043a\u0430\u044f \u0443\u043b\u0438\u0446\u0430","name:pl":"ulica \u0141yczakowska","landuse_kind":"urban_area","id":179619164},"arcs":[263]},{"type":"LineString","properties":{"kind":"major_road","name:en":"Hlynianskyi Trakt Street","sort_rank":380,"kind_detail":"primary","is_bicycle_related":true,"bus_network":null,"source":"openstreetmap.org","min_zoom":8.0,"bus_shield_text":"18","name:ru":"\u0413\u043b\u0438\u043d\u044f\u043d\u0441\u043a\u0438\u0439 \u0422\u0440\u0430\u043a\u0442 \u0443\u043b\u0438\u0446\u0430","landuse_kind":"urban_area","id":184576971},"arcs":[264]}]},"earth":{"type":"GeometryCollection","geometries":[{"type":"Polygon","properties":{"sort_rank":10,"source":"naturalearthdata.com","kind":"earth","min_zoom":0.0,"id":4754},"arcs":[[265]]}]},"landuse":{"type":"GeometryCollection","geometries":[{"type":"Polygon","properties":{"kind":"residential","area":10840300,"sort_rank":20,"source":"openstreetmap.org","min_zoom":8.0,"tier":2,"id":-4784993,"osm_relation":true},"arcs":[[266]]},{"type":"Polygon","properties":{"source":"openstreetmap.org","kind":"nature_reserve","area":17536300,"tier":2,"id":499618867,"min_zoom":8.0,"sort_rank":23},"arcs":[[267]]},{"type":"MultiPolygon","properties":{"kind":"national_park","protect_class":"2","area":275954614,"sort_rank":18,"source":"openstreetmap.org","min_zoom":8.0,"tier":1,"osm_relation":true},"arcs":[[[268]]]},{"type":"Polygon","properties":{"kind":"residential","name:en":"Rudnyky","name":"\u0420\u0443\u0434\u043d\u0438\u043a\u0438","area":14301200,"sort_rank":20,"source":"openstreetmap.org","min_zoom":8.0,"tier":2,"name:be":"\u0420\u0443\u0434\u043d\u0456\u043a\u0456","name:pl":"Rudniki","id":-5346705,"osm_relation":true},"arcs":[[269]]},{"type":"MultiPolygon","properties":{"source":"naturalearthdata.com","kind":"urban_area","name":"","area":752405854,"sort_rank":11,"min_zoom":4.0},"arcs":[[[270]],[[271]],[[272]]]},{"type":"Polygon","properties":{"kind":"residential","name":"\u0414\u043e\u0431\u0440\u044f\u043d\u0438","area":16171800,"sort_rank":20,"source":"openstreetmap.org","min_zoom":8.0,"tier":2,"id":-5376428,"osm_relation":true},"arcs":[[273]]},{"type":"Polygon","properties":{"source":"openstreetmap.org","kind":"battlefield","area":179443008,"tier":1,"id":511836517,"min_zoom":5.0,"sort_rank":25},"arcs":[[274]]},{"type":"MultiPolygon","properties":{"source":"openstreetmap.org","kind":"residential","tier":2,"area":187707337,"sort_rank":20,"min_zoom":8.0},"arcs":[[[275]],[[276]],[[277]],[[278]]]},{"type":"Polygon","properties":{"kind":"residential","name":"\u042f\u043c\u043d\u0438\u0446\u044f","area":11472900,"sort_rank":20,"source":"openstreetmap.org","min_zoom":8.0,"tier":2,"id":30710698},"arcs":[[279]]},{"type":"Polygon","properties":{"kind":"residential","name:en":"Novytsia","name":"\u041d\u043e\u0432\u0438\u0446\u044f","area":12181500,"sort_rank":20,"source":"openstreetmap.org","min_zoom":8.0,"tier":2,"name:ru":"\u041d\u043e\u0432\u0438\u0446\u0430","id":-3766837,"osm_relation":true},"arcs":[[280]]}]}},"type":"Topology","transform":{"translate":[23.90625,48.9224992638],"scale":[0.0003433228,0.0002235066]},"arcs":[[[2373,2569],[24,-29],[-15,-39],[137,-225],[13,-240],[104,49],[49,-12],[15,-101],[76,-73],[-68,-27],[-21,-90],[-2,-158],[37,-11],[7,-91],[263,-124],[0,-24],[-101,-67],[-35,-74],[-87,-91],[-1,-64],[29,-7],[97,-147],[165,-7],[84,-48],[-38,-90],[54,-47],[1,-67],[-218,54],[-39,-136],[194,-186],[-12,-82],[152,83],[177,-122],[26,-1],[1,42],[93,7],[-36,-57],[7,-82],[78,-43],[32,-49],[-85,-93]],[[3742,0],[4,23],[44,-23]],[[3805,0],[54,45],[21,-45]],[[4034,4096],[-15,-45],[-58,13],[-20,32]],[[3936,4096],[-60,-62],[-181,58],[-8,-22],[-60,4],[-40,-83],[-157,62],[18,-205],[-42,-15],[-9,-40],[91,-61],[23,-68],[-129,-134],[-63,87],[-69,19],[-72,-173],[3,-164],[-28,-5],[-2,-69],[-16,-30],[-62,28],[6,-73],[-26,-48],[-68,6],[34,-36],[-115,20],[-14,-15],[24,-56],[-104,54],[-22,-49],[-87,2],[16,-55],[-22,-8],[-5,33],[-82,-22],[-29,-66],[-205,-14],[23,-101],[-26,-68],[2,-158]],[[2373,2569],[-62,-21],[-127,60],[-47,-37],[-205,165],[-94,-66],[-93,-29],[-38,48],[-4,52],[22,20],[-32,36],[-104,-34],[-7,23],[-44,-39],[16,-111],[-79,-32],[-33,-42],[49,-95],[-22,-130],[-78,-11],[-70,-52],[41,-3],[6,-75],[40,-19],[-8,-63],[56,-8],[68,-89],[-84,-51],[-21,-88],[22,-27],[-59,-127],[-64,65],[-50,-54],[-116,27],[-9,-92],[20,-83],[98,66],[72,-50],[-16,-84],[-21,-2],[-30,-82],[50,-44],[88,-26],[171,14],[-38,-53],[3,-202],[-54,-25],[-94,95],[-80,-16],[-21,-25],[-197,-53],[-140,-110],[-77,21],[-27,-43],[44,-25],[-46,0],[-74,49],[-21,-74],[-45,12],[-29,55],[-86,-11],[-65,35],[-85,-4],[-64,-99],[-52,-34],[-42,55],[-101,37],[-23,-44],[-85,-29],[-76,-98]],[[0,4084],[31,7]],[[31,4091],[213,1]],[[0,4084],[31,7]],[[242,4096],[-1,-3]],[[251,4096],[-3,-3],[-2,-1],[-2,0]],[[248,4096],[-4,-4]],[[16,392],[143,-106]],[[356,207],[345,92]],[[771,316],[1,0]],[[911,354],[39,11]],[[1089,368],[27,4]],[[1190,384],[109,-2]],[[1422,419],[65,9],[37,63]],[[1524,491],[4,2]],[[1524,493],[0,-2]],[[1528,493],[-2,1]],[[1528,493],[92,-32]],[[1703,441],[65,46],[44,-2]],[[1861,457],[146,-129],[121,-57]],[[2084,0],[-20,31],[23,87],[66,87]],[[2137,259],[15,-52]],[[218,244],[1,-1],[0,1],[-1,0]],[[1526,494],[-1,0],[0,-1],[1,0],[0,1]],[[2298,114],[3,6]],[[2304,122],[20,69]],[[377,4079],[24,-18]],[[3001,2341],[0,2]],[[373,4064],[2,4]],[[315,3785],[0,6]],[[479,3920],[-14,14]],[[1620,461],[83,-20]],[[2316,487],[156,41]],[[2582,521],[38,-48],[125,-57],[159,-21],[28,-189],[-29,-83],[64,-123]],[[405,4056],[9,7]],[[2294,100],[-2,2]],[[219,243],[2,0]],[[221,243],[-2,1]],[[221,243],[27,-12]],[[315,3772],[0,13]],[[0,4058],[5,-10]],[[3001,2343],[89,38]],[[210,3871],[-6,-43]],[[214,3920],[-5,-47]],[[209,3873],[1,-2]],[[211,3873],[-2,0]],[[210,3871],[1,2]],[[211,3873],[4,47]],[[222,2742],[13,65]],[[233,2808],[2,-1]],[[235,2807],[0,2]],[[315,3791],[0,12]],[[734,4005],[7,-1]],[[2052,2062],[112,55],[12,42]],[[226,3978],[-2,-6]],[[226,3978],[1,3]],[[228,3984],[-1,-3]],[[244,4052],[-2,-21]],[[404,4055],[1,1]],[[3630,716],[50,39],[34,-14]],[[1172,2168],[-1,8]],[[1812,485],[49,-28]],[[1128,3207],[-30,-72]],[[406,4067],[-27,20]],[[1040,367],[23,-3]],[[454,3957],[-2,0]],[[2152,207],[100,-73]],[[375,4082],[0,6]],[[318,3884],[-4,-31],[0,-42]],[[315,3811],[2,61]],[[317,3873],[2,11]],[[1133,2173]],[[366,4057],[1,2]],[[0,4012],[19,5]],[[2031,2220],[19,-39]],[[759,4096],[-23,-102],[-78,-150],[-102,-64],[-245,8]],[[2262,0],[10,19]],[[83,4036],[-63,-17]],[[21,4018],[62,18]],[[95,4039],[-12,-3]],[[3,29],[9,-29]],[[142,168],[-95,-77]],[[2272,19],[51,42]],[[2331,65],[-2,-2]],[[472,4087],[-11,2]],[[377,4088],[-2,0]],[[2426,3942],[-76,-12]],[[505,3852],[-4,3]],[[2292,102],[6,12]],[[2312,82],[-14,14]],[[2301,120],[2,2]],[[2329,59],[-14,20]],[[2892,2343],[87,3]],[[159,286],[54,-39]],[[367,4059],[6,5]],[[375,4068],[0,1]],[[1172,2168],[-39,5]],[[440,4096],[6,-2]],[[616,4019],[-65,44]],[[246,4080],[-2,-28]],[[950,365],[90,2]],[[1063,364],[26,4]],[[452,3957],[0,3]],[[452,3960],[0,-3]],[[452,3960],[1,38]],[[453,3999],[0,-1]],[[1299,382],[123,37]],[[278,4091],[1,-1]],[[137,2347],[-34,-161],[12,-76],[-115,-289]],[[211,2812],[-84,-87],[67,-156],[-42,-38],[-9,-141]],[[278,3546],[10,-151],[-29,-231],[23,-155],[-71,-197]],[[211,2812],[23,-3],[48,199],[-22,156],[56,435],[-1,173]],[[375,4082],[2,-3]],[[213,247],[4,-2]],[[217,245],[1,-1]],[[218,244],[-1,1]],[[367,4059],[10,20]],[[2319,348],[-5,15]],[[2326,222],[0,4]],[[218,3949],[-2,-17]],[[218,3950],[0,-1]],[[218,3949],[1,1]],[[2073,2151],[17,33]],[[684,2042],[-21,2]],[[379,4087],[-2,1]],[[414,4063],[-8,4]],[[452,3955],[2,0]],[[1235,2142],[9,-11]],[[461,4089],[-15,5]],[[530,4078],[-52,9]],[[2004,2218],[27,2]],[[246,4081],[0,-1]],[[375,4093],[0,2]],[[473,4087],[-1,0]],[[551,4063],[-21,15]],[[315,3803],[0,8]],[[317,3872],[0,1]],[[1116,372],[74,12]],[[2128,271],[9,-12]],[[325,3935],[-7,-51]],[[319,3884],[6,51]],[[325,3935],[4,24]],[[329,3966],[0,1]],[[330,3988],[1,1]],[[332,4009],[0,3]],[[334,4038],[32,19]],[[218,242],[-76,-74]],[[218,242],[1,1]],[[218,243],[0,-1]],[[2056,2154],[17,-3]],[[2303,122],[1,0]],[[2324,191],[2,31]],[[375,4093],[0,-5]],[[501,4096],[-23,-8]],[[734,4005],[-86,-7]],[[1121,3235],[7,-28]],[[686,2059],[69,16]],[[2328,58],[-5,3]],[[18,4018],[-18,-4]],[[2053,2129],[-3,52]],[[2252,134],[27,-21]],[[648,3998],[-32,21]],[[376,4075],[7,2]],[[2408,85],[-21,11]],[[5,4048],[14,-29]],[[20,4017],[1,2],[-2,0]],[[19,4019],[0,-1],[1,-1]],[[209,2698],[-66,-29]],[[2333,66],[16,11]],[[2361,87],[26,9]],[[2423,73],[-15,12]],[[506,3851],[-1,1]],[[570,3801],[-64,50]],[[1171,2176],[58,-31]],[[1234,2143],[1,-1]],[[2472,528],[110,-7]],[[45,3961],[-1,2]],[[465,3934],[-11,19]],[[2438,0],[-15,73]],[[0,406],[16,-14]],[[248,231],[108,-24]],[[2326,226],[12,80],[-19,42]],[[20,4017],[20,-46]],[[51,3945],[27,-53]],[[741,4004],[140,-15],[172,-78],[419,-90],[168,-83],[255,-31]],[[1904,3706],[325,203],[121,21]],[[4096,3157],[-406,120],[-97,90],[-83,33],[-275,347],[-57,33],[-388,172],[-364,-10]],[[401,4061],[52,-62]],[[2298,96],[-4,4]],[[2315,79],[-3,3]],[[570,3801],[157,-111],[73,-94],[61,-19],[260,-342]],[[1098,3135],[-10,-177],[18,-40],[207,-159],[48,-83],[59,-14],[212,-314],[130,10],[97,-75],[145,-65]],[[2385,896],[14,64],[-72,94],[0,54],[-152,198],[-50,230],[-71,104],[-35,126],[34,363]],[[2314,363],[-28,71],[30,53],[-10,87],[40,182],[-26,47],[61,88]],[[2381,891],[3,2]],[[2383,893],[-2,-2]],[[2385,896],[-2,-2]],[[2384,894],[1,2]],[[2384,893],[-1,1],[-1,-1],[1,0],[1,0]],[[47,91],[-44,-62]],[[453,3997],[0,1],[0,-1]],[[329,3959],[0,7]],[[329,3967],[1,21]],[[331,3989],[1,20]],[[332,4012],[2,26]],[[452,3957]],[[219,3954],[-1,-1]],[[224,3972],[-5,-18]],[[220,3952],[-1,2]],[[242,4031],[-14,-47]],[[218,3950],[2,1],[-1,1],[-2,0],[1,-2]],[[701,299],[70,17]],[[772,316],[139,38]],[[2323,61],[6,2]],[[375,4095],[0,1]],[[40,3971],[4,-8]],[[45,3961],[6,-16]],[[78,3892],[233,-104]],[[2050,2181],[63,-2]],[[483,3917],[-4,3]],[[215,3920],[-1,0]],[[452,3997],[1,0]],[[2349,77],[12,10]],[[2332,65],[-1,0],[0,-1],[1,0],[0,1]],[[209,2698],[13,44]],[[314,3811],[0,-8]],[[314,3791],[1,-6]],[[314,3803],[0,-12]],[[2325,60],[0,2]],[[2331,64],[-3,-6]],[[453,3998],[0,1]],[[663,2044],[-104,19],[-199,-148],[-141,-10],[-219,-181]],[[755,2075],[272,116],[106,-18]],[[1229,2145],[5,-2]],[[1244,2131],[244,-20],[156,-59],[17,32],[129,-30],[34,39],[178,8],[51,28]],[[2113,2179],[126,-33],[56,-32],[3,-29],[216,-47],[64,53],[69,270],[209,-31],[36,13]],[[3090,2381],[183,-52],[111,16],[169,-39],[65,44],[187,21],[15,47],[276,138]],[[2329,63],[2,0]],[[2331,65],[0,-1]],[[2333,64],[-1,1]],[[2279,113],[13,-11]],[[3038,0],[118,94],[86,23],[87,-28],[137,36],[17,58],[-43,71],[2,94],[65,164],[17,149],[106,55]],[[3714,741],[193,7],[189,-67]],[[143,2390],[-6,-43]],[[2979,2346],[22,-5]],[[1895,3707],[9,-1]],[[494,3864],[-11,53]],[[113,4044],[-18,-5]],[[117,4045],[-4,-1]],[[117,4045],[9,3]],[[246,4081],[-120,-33]],[[246,4081],[33,9]],[[284,4096],[-38,-15]],[[501,3855],[-7,9]],[[315,3785],[0,-123],[-37,-116]],[[686,2059],[-2,-17]],[[113,4044]],[[279,4090],[2,1]],[[478,4087],[-5,0]],[[478,4088],[0,-1]],[[4096,4096],[0,-4096],[-4096,0],[0,4096],[4096,0]],[[773,118],[31,63],[91,42],[26,-13],[-44,-76],[-39,35],[5,-33],[-70,-18]],[[439,3317],[17,37],[37,-1],[139,-68],[-42,-50],[-151,82]],[[2345,3921],[10,20],[65,3],[91,-24],[6,-38],[106,61],[34,-113],[56,7],[-16,32],[38,-9],[51,-74],[-34,-94],[-31,36],[-105,-23],[-15,31],[-112,19],[224,-5],[-93,92],[-94,-12],[-77,59],[-31,-17],[-32,23],[-14,-20],[-27,46]],[[0,2412],[13,8],[8,-20],[122,-9],[-8,-22],[-55,18],[4,-77],[-40,22],[-43,-11],[19,-14],[-20,-15],[0,120]],[[2230,0],[116,268],[35,25],[139,-183],[-13,-110],[-277,0]],[[1388,448],[-193,27],[-69,56],[-29,116],[54,42],[75,8],[32,-100],[88,-16],[36,-36],[6,-97]],[[105,4096],[523,0],[11,-45],[-157,-223],[-291,100],[-1,50],[-97,49],[12,69]],[[0,1653],[19,-24],[-19,-18],[0,42]],[[3330,4096],[38,-21],[17,21],[240,0],[-50,-105],[-241,28],[-137,77],[133,0]],[[279,689],[66,13],[8,-27],[-19,-6],[30,-73],[-22,-19],[6,-37],[-62,57],[-7,92]],[[1123,2140],[23,76],[48,7],[10,-52],[27,10],[-3,-51],[-40,-16],[-45,-6],[-20,32]],[[2764,3872],[71,-2],[4,19],[129,-84],[-37,11],[6,-34],[-15,23],[-35,-23],[-12,19],[-7,-46],[29,11],[-29,-20],[-13,66],[-35,16],[-17,-20],[2,40],[-15,-13],[-26,37]],[[2399,2830],[38,25],[58,-20],[-36,16],[15,12],[-36,25],[14,15],[27,-42],[12,12],[37,-22],[-48,8],[53,-25],[-18,-7],[22,-56],[18,14],[26,3],[-44,-35],[20,0],[-8,-30],[30,-4],[12,-10],[-26,10],[-26,-34],[19,-37],[14,30],[10,-1],[-13,-14],[29,-45],[24,11],[-37,-66],[7,54],[-32,30],[27,-50],[-24,-71],[4,81],[-28,48],[-29,-5],[21,28],[-57,-1],[43,22],[-4,129],[-34,1],[2,-24],[-6,25],[-35,-18],[15,26],[-56,-8]],[[2278,328],[41,2],[0,21],[14,-28],[41,7],[6,-91],[-40,-41],[-62,130]],[[1166,186],[13,23],[41,-14],[70,27],[-28,-37],[44,-52],[-25,-24],[-48,7],[-8,50],[-45,-11],[-14,31]]]}