{"objects":{"water":{"type":"GeometryCollection","geometries":[]},"buildings":{"type":"GeometryCollection","geometries":[]},"places":{"type":"GeometryCollection","geometries":[{"type":"Point","properties":{"kind":"region","name:en":"Ivano-Frankivsk Oblast","name":"\u0406\u0432\u0430\u043d\u043e-\u0424\u0440\u0430\u043d\u043a\u0456\u0432\u0441\u044c\u043a\u0430 \u043e\u0431\u043b\u0430\u0441\u0442\u044c","name:lt":"Ivano Frankivsko sritis","kind_detail":"state","name:eo":"Ivano-Frankivska Provinco","name:de":"Oblast Iwano-Frankiwsk","source":"openstreetmap.org","min_zoom":4.0,"name:fr":"Oblast d'Ivano-Frankivsk","name:be":"\u0406\u0432\u0430\u043d\u0430-\u0424\u0440\u0430\u043d\u043a\u043e\u045e\u0441\u043a\u0430\u044f \u0432\u043e\u0431\u043b\u0430\u0441\u0446\u044c","name:ru":"\u0418\u0432\u0430\u043d\u043e-\u0424\u0440\u0430\u043d\u043a\u043e\u0432\u0441\u043a\u0430\u044f \u043e\u0431\u043b\u0430\u0441\u0442\u044c","name:pl":"obw\u00f3d iwanofrankowski","id":1757670352,"name:es":"\u00d3blast de Ivano-Frankivsk"},"coordinates":[1790,3330]},{"type":"Point","properties":{"kind":"locality","name:en":"Kolomyia","name":"\u041a\u043e\u043b\u043e\u043c\u0438\u044f","kind_detail":"town","name:eo":"Kolomeo","name:de":"Kolomyja","source":"openstreetmap.org","min_zoom":8.0,"name:ru":"\u041a\u043e\u043b\u043e\u043c\u044b\u044f","name:pl":"Ko\u0142omyja","name:hu":"Kolomyia","id":284716726,"population":61286},"coordinates":[3297,2354]},{"type":"Point","properties":{"kind":"locality","name:en":"Nadvirna","name":"\u041d\u0430\u0434\u0432\u0456\u0440\u043d\u0430","kind_detail":"town","name:de":"Nadwirna","source":"openstreetmap.org","min_zoom":8.0,"name:ru":"\u041d\u0430\u0434\u0432\u043e\u0440\u043d\u0430\u044f","name:pl":"Nadw\u00f3rna","id":312273784,"population":21930},"coordinates":[1929,2827]},{"type":"Point","properties":{"name:pt":"Rakhiv","name:ro":"Rah\u0103u","name:sk":"Rachov","alt_name:de":"Rauhau","name:cs":"Rachiv","kind":"locality","min_zoom":8.0,"name:it":"Rachiv","name:ru":"\u0420\u0430\u0445\u043e\u0432","name:pl":"Rach\u00f3w","name:hu":"Rah\u00f3","id":316186974,"population":15137,"name:eo":"Ra\u0125iv","name:en":"Rakhiv","name":"\u0420\u0430\u0445\u0456\u0432","kind_detail":"town","name:de":"Rachiw","source":"openstreetmap.org","name:fr":"Rakhiv","name:yi":"Rachew","name:nl":"Rachiv","name:es":"Rajiv"},"coordinates":[872,289]},{"type":"Point","properties":{"kind":"locality","name:en":"Perehinske","name":"\u041f\u0435\u0440\u0435\u0433\u0456\u043d\u0441\u044c\u043a\u0435","kind_detail":"town","source":"openstreetmap.org","min_zoom":8.0,"name:ru":"\u041f\u0435\u0440\u0435\u0433\u0438\u043d\u0441\u043a\u043e\u0435","name:pl":"Perehi\u0144sko","id":337584608,"population":12486},"coordinates":[838,3609]},{"type":"Point","properties":{"kind":"locality","name:en":"Tysmenytsia","name":"\u0422\u0438\u0441\u043c\u0435\u043d\u0438\u0446\u044f","kind_detail":"town","name:de":"Tysmenyzja","source":"openstreetmap.org","min_zoom":8.0,"name:ru":"\u0422\u044b\u0441\u043c\u0435\u043d\u0438\u0446\u0430","name:pl":"Ty\u015bmienica","id":267110729,"population":9618},"coordinates":[2744,4005]},{"type":"Point","properties":{"kind":"locality","name:en":"Tlumach","name":"\u0422\u043b\u0443\u043c\u0430\u0447","kind_detail":"town","name:de":"Tlumatsch","source":"openstreetmap.org","min_zoom":8.0,"name:pl":"T\u0142umacz","id":312280194,"population":8841},"coordinates":[3191,3847]},{"type":"Point","properties":{"kind":"locality","name:en":"Kosiv","name":"\u041a\u043e\u0441\u0456\u0432","kind_detail":"town","name:de":"Kossiw","source":"openstreetmap.org","min_zoom":8.0,"name:ru":"\u041a\u043e\u0441\u043e\u0432","name:pl":"Kos\u00f3w","id":312272980,"population":8456},"coordinates":[3472,1431]},{"type":"Point","properties":{"name:ro":"Frasin","name:sk":"Jasi\u0148a","name:cs":"Jasi\u0148a","name:eo":"Jasina","min_zoom":8.0,"name:ru":"\u042f\u0441\u0438\u043d\u044f","name:pl":"Jasina","name:hu":"K\u0151r\u00f6smez\u0151","id":337604455,"population":8308,"kind":"locality","name:en":"Yasinia","name":"\u042f\u0441\u0456\u043d\u044f","kind_detail":"town","name:de":"Jassinja","source":"openstreetmap.org"},"coordinates":[1325,1241]},{"type":"Point","properties":{"kind":"locality","name:en":"Deliatyn","name":"\u0414\u0435\u043b\u044f\u0442\u0438\u043d","kind_detail":"town","source":"openstreetmap.org","min_zoom":8.0,"name:pl":"Delatyn","id":337595495,"population":8184},"coordinates":[2104,2362]},{"type":"Point","properties":{"kind":"locality","name:en":"Yaremche","name":"\u042f\u0440\u0435\u043c\u0447\u0435","kind_detail":"town","name:de":"Jaremtsche","source":"openstreetmap.org","min_zoom":8.0,"name:pl":"Jaremcze","id":262290470,"population":8047},"coordinates":[1878,2023]},{"type":"Point","properties":{"kind":"locality","name:en":"Lanchyn","name":"\u041b\u0430\u043d\u0447\u0438\u043d","kind_detail":"town","source":"openstreetmap.org","min_zoom":8.0,"name:pl":"\u0141anczyn","id":289045336,"population":7938},"coordinates":[2464,2484]},{"type":"Point","properties":{"kind":"locality","name:en":"Bohorodchany","name":"\u0411\u043e\u0433\u043e\u0440\u043e\u0434\u0447\u0430\u043d\u0438","kind_detail":"town","name:de":"Bohorodtschany","source":"openstreetmap.org","min_zoom":8.0,"name:ru":"\u0411\u043e\u0433\u043e\u0440\u043e\u0434\u0447\u0430\u043d\u044b","name:pl":"Bohorodczany","id":337585063,"population":7916},"coordinates":[1837,3590]},{"type":"Point","properties":{"kind":"locality","name:en":"Otyniia","name":"\u041e\u0442\u0438\u043d\u0456\u044f","kind_detail":"town","source":"openstreetmap.org","min_zoom":8.0,"name:ru":"\u041e\u0442\u044b\u043d\u0438\u044f","name:pl":"Ottynia","id":337587528,"population":5466},"coordinates":[2789,3270]},{"type":"Point","properties":{"kind":"locality","name:en":"Verkhovyna","name":"\u0412\u0435\u0440\u0445\u043e\u0432\u0438\u043d\u0430","old_name:pl":"\u017babie i S\u0142upejka","kind_detail":"town","name:de":"Werchowyna","source":"openstreetmap.org","min_zoom":8.0,"name:ro":"Verhov\u00eena","name:pl":"Wierchowina","id":337657973,"population":5412},"coordinates":[2685,720]},{"type":"Point","properties":{"kind":"locality","name:en":"Pechenizhyn","name":"\u041f\u0435\u0447\u0435\u043d\u0456\u0436\u0438\u043d","kind_detail":"town","source":"openstreetmap.org","min_zoom":8.0,"name:ru":"\u041f\u0435\u0447\u0435\u043d\u0435\u0436\u0438\u043d","name:pl":"Peczeni\u017cyn","id":337595991,"population":5259},"coordinates":[2837,2298]},{"type":"Point","properties":{"kind":"locality","name:en":"Vyzhnytsia","name":"\u0412\u0438\u0436\u043d\u0438\u0446\u044f","kind_detail":"town","name:de":"Wyschnyzja","source":"openstreetmap.org","min_zoom":8.0,"name:ru":"\u0412\u0438\u0436\u043d\u0438\u0446\u0430","name:pl":"Wy\u017cnica","id":285722393,"population":4285},"coordinates":[3737,1133]},{"type":"Point","properties":{"kind":"locality","name:en":"Kuty","name":"\u041a\u0443\u0442\u0438","kind_detail":"town","source":"openstreetmap.org","min_zoom":8.0,"name:ru":"\u041a\u0443\u0442\u044b","name:be":"\u041a\u0443\u0442\u044b","name:pl":"Kuty","id":337604957,"population":4161},"coordinates":[3716,1198]},{"type":"Point","properties":{"kind":"locality","name:en":"Vorokhta","name":"\u0412\u043e\u0440\u043e\u0445\u0442\u0430","kind_detail":"town","min_zoom":8.0,"name:de":"Worochta","source":"openstreetmap.org","name:fr":"Vorokhta","name:ro":"Vorohta","name:pl":"Worochta","name:hu":"Vorohta","id":262290472,"name:es":"Vorojta","population":4108},"coordinates":[1911,1327]},{"type":"Point","properties":{"kind":"locality","name:en":"Zabolotiv","name":"\u0417\u0430\u0431\u043e\u043b\u043e\u0442\u0456\u0432","kind_detail":"town","source":"openstreetmap.org","min_zoom":8.0,"name:ru":"\u0417\u0430\u0431\u043e\u043b\u043e\u0442\u043e\u0432","name:pl":"Zab\u0142ot\u00f3w","id":289864034,"population":4067},"coordinates":[4010,2095]},{"type":"Point","properties":{"kind":"locality","name:en":"Solotvyn","name":"\u0421\u043e\u043b\u043e\u0442\u0432\u0438\u043d","kind_detail":"town","source":"openstreetmap.org","min_zoom":8.0,"name:pl":"So\u0142otwina","id":337588299,"population":3916},"coordinates":[1492,3168]},{"type":"Point","properties":{"kind":"locality","name:en":"Kobyletska Poliana","name":"\u041a\u043e\u0431\u0438\u043b\u0435\u0446\u044c\u043a\u0430 \u041f\u043e\u043b\u044f\u043d\u0430","kind_detail":"town","source":"openstreetmap.org","min_zoom":8.0,"name:ru":"\u041a\u043e\u0431\u044b\u043b\u0435\u0446\u043a\u0430\u044f \u041f\u043e\u043b\u044f\u043d\u0430","name:pl":"Polana Kobylecka","name:hu":"Gyerty\u00e1nliget","id":337661036,"population":3411},"coordinates":[460,293]},{"type":"Point","properties":{"kind":"locality","name:en":"Putyla","name":"\u041f\u0443\u0442\u0438\u043b\u0430","kind_detail":"town","name:de":"Putyla","source":"openstreetmap.org","min_zoom":8.0,"name:ro":"Putila","name:pl":"Puty\u0142a","id":337663428,"population":3335},"coordinates":[3432,23]},{"type":"Point","properties":{"kind":"locality","name:en":"Obertyn","name":"\u041e\u0431\u0435\u0440\u0442\u0438\u043d","kind_detail":"town","source":"openstreetmap.org","min_zoom":8.0,"name:pl":"Obertyn","id":2128905660,"population":3225},"coordinates":[3685,3112]},{"type":"Point","properties":{"kind":"locality","name:en":"Lysets","name":"\u041b\u0438\u0441\u0435\u0446\u044c","kind_detail":"town","source":"openstreetmap.org","min_zoom":8.0,"name:ru":"\u041b\u0438\u0441\u0435\u0446","name:pl":"\u0141ysiec","id":337582373,"population":2969},"coordinates":[2052,3867]},{"type":"Point","properties":{"kind":"locality","name:en":"Yabluniv","name":"\u042f\u0431\u043b\u0443\u043d\u0456\u0432","kind_detail":"town","source":"openstreetmap.org","min_zoom":8.0,"name:ru":"\u042f\u0431\u043b\u043e\u043d\u043e\u0432","name:pl":"Jab\u0142on\u00f3w","id":337599757,"population":2032},"coordinates":[3016,1824]},{"type":"Point","properties":{"kind":"locality","name:en":"Hvizdets","name":"\u0413\u0432\u0456\u0437\u0434\u0435\u0446\u044c","kind_detail":"town","source":"openstreetmap.org","min_zoom":8.0,"name:ru":"\u0413\u0432\u043e\u0437\u0434\u0435\u0446","name:pl":"Gwo\u017adziec","id":1726586598,"population":1931},"coordinates":[4007,2586]}]},"transit":{"type":"GeometryCollection","geometries":[]},"pois":{"type":"GeometryCollection","geometries":[{"type":"Point","properties":{"kind":"nature_reserve","protect_class":"1","area":126586000,"source":"openstreetmap.org","min_zoom":8.8,"tier":2,"name:ru":"\u041f\u0440\u0438\u0440\u043e\u0434\u043d\u044b\u0439 \u0437\u0430\u043f\u043e\u0432\u0435\u0434\u043d\u0438\u043a \u00ab\u0413\u043e\u0440\u0433\u0430\u043d\u044b\u00bb","name:pl":"Rezerwat przyrody \"Gorgany\"","id":106798862,"name":"\u041f\u0440\u0438\u0440\u043e\u0434\u043d\u0438\u0439 \u0437\u0430\u043f\u043e\u0432\u0456\u0434\u043d\u0438\u043a \u00ab\u0490\u043e\u0440\u0491\u0430\u043d\u0438\u00bb"},"coordinates":[1289,1989]}]},"boundaries":{"type":"GeometryCollection","geometries":[{"type":"LineString","properties":{"name:right:hy":"\u053b\u057e\u0561\u0576\u0578-\u0556\u0580\u0561\u0576\u056f\u0578\u057e\u057d\u056f\u056b \u0574\u0561\u0580\u0566","name:right:hr":"Ivano-Frankivska oblast","name:left:sv":"Tjernivtsi oblast","name:right:hu":"Ivano-frankivszki ter\u00fclet","name:left:sr":"\u0427\u0435\u0440\u043d\u0438\u0432\u0430\u0447\u043a\u0430 \u043e\u0431\u043b\u0430\u0441\u0442","name:right:lt":"Ivano Frankivsko sritis","name:right:lv":"Ivanofrankivskas apgabals","name:left:lt":"\u010cernivci\u0173 sritis","name:left:sh":"\u010cernivecka oblast","name:left:sk":"\u010cernovick\u00e1 oblas\u0165","name:left:hu":"Csernyivci ter\u00fclet","name:left:hr":"\u010cernivecka oblast","name:right:vi":"Ivano-Frankivsk (t\u1ec9nh)","sort_rank":256,"name:left:ca":"Prov\u00edncia de Txernivts\u00ed","source":"openstreetmap.org","name:right:ar":"\u0625\u064a\u0641\u0627\u0646\u0648 \u0641\u0631\u0627\u0646\u0643\u064a\u0641\u0633\u0643 \u0623\u0648\u0628\u0644\u0627\u0633\u062a","name:left:cs":"\u010cernovick\u00e1 oblast","name:left":"\u0427\u0435\u0440\u043d\u0456\u0432\u0435\u0446\u044c\u043a\u0430 \u043e\u0431\u043b\u0430\u0441\u0442\u044c","name:right:es":"\u00d3blast de Ivano-Frankivsk","name:left:ka":"\u10e9\u10d4\u10e0\u10dc\u10dd\u10d5\u10ea\u10d8\u10e1 \u10dd\u10da\u10e5\u10d8","name:right:eu":"Ivano-Frankivskeko oblasta","name:right:et":"Ivano-Frankivski oblast","name:left:ko":"\uccb4\ub974\ub2c8\uc6b0\uce58 \uc8fc","name:right:it":"Oblast' di Ivano-Frankivs'k","name:left:ro":"Regiunea Cern\u0103u\u021bi","name:right:ru":"\u0418\u0432\u0430\u043d\u043e-\u0424\u0440\u0430\u043d\u043a\u043e\u0432\u0441\u043a\u0430\u044f \u043e\u0431\u043b\u0430\u0441\u0442\u044c","name:right:ro":"Regiunea Ivano-Frankivsk","name:left:ru":"\u0427\u0435\u0440\u043d\u043e\u0432\u0438\u0446\u043a\u0430\u044f \u043e\u0431\u043b\u0430\u0441\u0442\u044c","name:right:mr":"\u0907\u0935\u094d\u0939\u093e\u0928\u094b-\u092b\u094d\u0930\u093e\u0902\u0915\u093f\u0935\u094d\u0939\u094d\u0938\u094d\u0915 \u0913\u092c\u094d\u0932\u093e\u0938\u094d\u0924","name:right:id":"Oblast Ivano-Frankivsk","name:right:eo":"Ivano-Frankivska provinco","name:right:en":"Ivano-Frankivsk Oblast","name:left:vi":"Chernivtsi (t\u1ec9nh)","kind":"region","name":"\u0427\u0435\u0440\u043d\u0456\u0432\u0435\u0446\u044c\u043a\u0430 \u043e\u0431\u043b\u0430\u0441\u0442\u044c - \u0406\u0432\u0430\u043d\u043e-\u0424\u0440\u0430\u043d\u043a\u0456\u0432\u0441\u044c\u043a\u0430 \u043e\u0431\u043b\u0430\u0441\u0442\u044c","name:left:fa":"\u0627\u0633\u062a\u0627\u0646 \u0686\u0631\u0646\u06cc\u0648\u062a\u0633\u06cc","name:right:fa":"\u0627\u0633\u062a\u0627\u0646 \u0627\u06cc\u0648\u0627\u0646\u0648 \u0641\u0631\u0627\u0646\u06a9\u06cc\u0633\u0648\u06a9","min_zoom":8.0,"name:right:be":"\u0406\u0432\u0430\u043d\u0430-\u0424\u0440\u0430\u043d\u043a\u043e\u045e\u0441\u043a\u0430\u044f \u0432\u043e\u0431\u043b\u0430\u0441\u0446\u044c","name:left:zh":"\u5207\u723e\u8afe\u592b\u7b56\u5dde","name:left:fr":"Oblast de Tchernivtsi","name:right:zh":"\u4f0a\u4e07\u8bfa-\u5f17\u5170\u79d1\u592b\u65af\u514b\u5dde","name:left:hy":"\u0549\u0565\u057c\u0576\u0578\u057e\u0581\u056b\u056b \u0574\u0561\u0580\u0566","name:right:nn":"Ivano-Frankivsk oblast","name:right:no":"Ivano-Frankivsk oblast","name:right:nl":"Oblast Ivano-Frankivsk","name:right:ja":"\u30a4\u30f4\u30a1\u30fc\u30ce\uff1d\u30d5\u30e9\u30f3\u30ad\u30fc\u30a6\u30b7\u30af\u5dde","name:right:fr":"Oblast d'Ivano-Frankivsk","name:left:lv":"\u010cernivcu apgabals","name:left:ja":"\u30c1\u30a7\u30eb\u30cb\u30a6\u30c4\u30a3\u30fc\u5dde","id:right":-72488,"name:left:nn":"Tsjernivtsi oblast","name:right:sh":"Ivano-Frankivska oblast","name:right:sk":"Ivanofrankivsk\u00e1 oblas\u0165","name:left:bg":"\u0427\u0435\u0440\u043d\u043e\u0432\u0438\u0446\u043a\u0430 \u043e\u0431\u043b\u0430\u0441\u0442","name:left:be":"\u0427\u0430\u0440\u043d\u0430\u0432\u0456\u0446\u043a\u0430\u044f \u0432\u043e\u0431\u043b\u0430\u0441\u0446\u044c","name:left:no":"Tsjernivtsi oblast","name:left:fi":"T\u0161ernivtsin alue","id":-72526,"name:right:fi":"Ivano-Frankivskin alue","name:left:eo":"\u0108ernivca provinco","name:left:en":"Chernivtsi Oblast","name:right:ca":"Prov\u00edncia d'Ivano-Frankivsk","kind_detail":"4","name:left:mk":"\u0427\u0435\u0440\u043d\u043e\u0432\u0435\u0447\u043a\u0430 \u043e\u0431\u043b\u0430\u0441\u0442","name:left:nl":"Oblast Tsjernivtsi","id:left":-72526,"name:left:es":"\u00d3blast de Chernivtsi","name:right:cs":"Ivanofrankivsk\u00e1 oblast","name:right":"\u0406\u0432\u0430\u043d\u043e-\u0424\u0440\u0430\u043d\u043a\u0456\u0432\u0441\u044c\u043a\u0430 \u043e\u0431\u043b\u0430\u0441\u0442\u044c","name:left:os":"\u0427\u0435\u0440\u043d\u043e\u0432\u0446\u044b\u0439\u044b \u043e\u0431\u043b\u00e6\u0441\u0442","name:left:eu":"Txernivtsiko oblasta","name:left:et":"T\u0161ernivtsi oblast","name:right:mk":"\u0418\u0432\u0430\u043d\u043e-\u0424\u0440\u0430\u043d\u043a\u043e\u0432\u0441\u043a\u0430 \u043e\u0431\u043b\u0430\u0441\u0442","name:right:zh-min-nan":"Ivano-Frankivsk s\u00e9ng","name:right:pt":"Oblast de Ivano-Frankivsk","name:left:ar":"\u062a\u0634\u064a\u0631\u0646\u064a\u0641\u062a\u0633\u064a \u0623\u0648\u0628\u0644\u0627\u0633\u062a","name:left:pl":"Obw\u00f3d czerniowiecki","name:left:tr":"\u00c7ernovtsi Oblast\u0131","name:left:id":"Oblast Chernivtsi","name:right:tr":"\u0130vano-Frankivsk Oblast\u0131","name:right:bg":"\u0418\u0432\u0430\u043d\u043e-\u0424\u0440\u0430\u043d\u043a\u043e\u0432\u0441\u043a\u0430 \u043e\u0431\u043b\u0430\u0441\u0442","name:left:ms":"Oblast Chernivtsi","name:left:mr":"\u091a\u0947\u0930\u094d\u0928\u093f\u0935\u094d\u0939\u0924\u094d\u0938\u0940 \u0913\u092c\u094d\u0932\u093e\u0938\u094d\u0924","name:right:sv":"Ivano-Frankivsk oblast","name:right:ko":"\uc774\ubc14\ub178\ud504\ub780\ud0a4\uc6b0\uc2dc\ud06c \uc8fc","name:left:zh-min-nan":"Chernivci s\u00e9ng","name:left:it":"Oblast' di \u010cernivci","name:right:pl":"Obw\u00f3d iwanofrankiwski","osm_relation":true,"name:left:pt":"Oblast de Chernivtsi","name:right:ka":"\u10d8\u10d5\u10d0\u10dc\u10dd-\u10e4\u10e0\u10d0\u10dc\u10d9\u10dd\u10d5\u10e1\u10d9\u10d8\u10e1 \u10dd\u10da\u10e5\u10d8","name:right:de":"Oblast Iwano-Frankiwsk","name:left:de":"Oblast Tscherniwzi"},"arcs":[0]},{"type":"MultiLineString","properties":{"name:right:hy":"\u053b\u057e\u0561\u0576\u0578-\u0556\u0580\u0561\u0576\u056f\u0578\u057e\u057d\u056f\u056b \u0574\u0561\u0580\u0566","name:left:he":"\u05de\u05d7\u05d5\u05d6 \u05d8\u05e8\u05e0\u05d5\u05e4\u05d5\u05dc","name:right:hr":"Ivano-Frankivska oblast","name:left:sv":"Ternopil oblast","name:right:hu":"Ivano-frankivszki ter\u00fclet","name:left:sr":"\u0422\u0435\u0440\u043d\u043e\u043f\u043e\u0459\u0441\u043a\u0430 \u043e\u0431\u043b\u0430\u0441\u0442","name:right:lt":"Ivano Frankivsko sritis","name:right:lv":"Ivanofrankivskas apgabals","name:left:lt":"Ternopilio sritis","name:left:sh":"Ternopiljska oblast","name:left:sk":"Ternopi\u013esk\u00e1 oblas\u0165","name:left:hu":"Ternopili ter\u00fclet","name:left:hr":"Ternopiljska oblast","name:right:vi":"Ivano-Frankivsk (t\u1ec9nh)","sort_rank":256,"name:left:ca":"Prov\u00edncia de Tern\u00f3pill","source":"openstreetmap.org","name:right:ar":"\u0625\u064a\u0641\u0627\u0646\u0648 \u0641\u0631\u0627\u0646\u0643\u064a\u0641\u0633\u0643 \u0623\u0648\u0628\u0644\u0627\u0633\u062a","name:left:cs":"Ternopilsk\u00e1 oblast","name:left":"\u0422\u0435\u0440\u043d\u043e\u043f\u0456\u043b\u044c\u0441\u044c\u043a\u0430 \u043e\u0431\u043b\u0430\u0441\u0442\u044c","name:right:es":"\u00d3blast de Ivano-Frankivsk","name:left:ka":"\u10e2\u10d4\u10e0\u10dc\u10dd\u10de\u10dd\u10da\u10d8\u10e1 \u10dd\u10da\u10e5\u10d8","name:right:eu":"Ivano-Frankivskeko oblasta","name:right:et":"Ivano-Frankivski oblast","name:left:ko":"\ud14c\ub974\ub178\ud544 \uc8fc","name:right:it":"Oblast' di Ivano-Frankivs'k","name:left:ro":"Regiunea Ternopil","name:right:ru":"\u0418\u0432\u0430\u043d\u043e-\u0424\u0440\u0430\u043d\u043a\u043e\u0432\u0441\u043a\u0430\u044f \u043e\u0431\u043b\u0430\u0441\u0442\u044c","name:right:ro":"Regiunea Ivano-Frankivsk","name:left:ru":"\u0422\u0435\u0440\u043d\u043e\u043f\u043e\u043b\u044c\u0441\u043a\u0430\u044f \u043e\u0431\u043b\u0430\u0441\u0442\u044c","name:right:mr":"\u0907\u0935\u094d\u0939\u093e\u0928\u094b-\u092b\u094d\u0930\u093e\u0902\u0915\u093f\u0935\u094d\u0939\u094d\u0938\u094d\u0915 \u0913\u092c\u094d\u0932\u093e\u0938\u094d\u0924","name:right:id":"Oblast Ivano-Frankivsk","name:right:eo":"Ivano-Frankivska provinco","name:right:en":"Ivano-Frankivsk Oblast","name:left:vi":"Ternopil (t\u1ec9nh)","kind":"region","name":"\u0422\u0435\u0440\u043d\u043e\u043f\u0456\u043b\u044c\u0441\u044c\u043a\u0430 \u043e\u0431\u043b\u0430\u0441\u0442\u044c - \u0406\u0432\u0430\u043d\u043e-\u0424\u0440\u0430\u043d\u043a\u0456\u0432\u0441\u044c\u043a\u0430 \u043e\u0431\u043b\u0430\u0441\u0442\u044c","name:left:fa":"\u0627\u0633\u062a\u0627\u0646 \u062a\u0631\u0646\u0648\u067e\u06cc\u0644","name:right:fa":"\u0627\u0633\u062a\u0627\u0646 \u0627\u06cc\u0648\u0627\u0646\u0648 \u0641\u0631\u0627\u0646\u06a9\u06cc\u0633\u0648\u06a9","min_zoom":8.0,"name:right:be":"\u0406\u0432\u0430\u043d\u0430-\u0424\u0440\u0430\u043d\u043a\u043e\u045e\u0441\u043a\u0430\u044f \u0432\u043e\u0431\u043b\u0430\u0441\u0446\u044c","name:left:zh":"\u6377\u723e\u8afe\u6ce2\u723e\u5dde","name:left:fr":"Oblast de Ternopil","name:right:zh":"\u4f0a\u4e07\u8bfa-\u5f17\u5170\u79d1\u592b\u65af\u514b\u5dde","name:left:hy":"\u054f\u0565\u0580\u0576\u0578\u057a\u0578\u056c\u056b \u0574\u0561\u0580\u0566","name:right:nn":"Ivano-Frankivsk oblast","name:right:no":"Ivano-Frankivsk oblast","name:right:nl":"Oblast Ivano-Frankivsk","name:right:ja":"\u30a4\u30f4\u30a1\u30fc\u30ce\uff1d\u30d5\u30e9\u30f3\u30ad\u30fc\u30a6\u30b7\u30af\u5dde","name:right:fr":"Oblast d'Ivano-Frankivsk","name:left:lv":"Ternopi\u013cas apgabals","name:left:ja":"\u30c6\u30eb\u30ce\u30fc\u30d4\u30ea\u5dde","id:right":-72488,"name:left:nn":"Ternopil oblast","name:right:sh":"Ivano-Frankivska oblast","name:right:sk":"Ivanofrankivsk\u00e1 oblas\u0165","name:left:bg":"\u0422\u0435\u0440\u043d\u043e\u043f\u043e\u043b\u0441\u043a\u0430 \u043e\u0431\u043b\u0430\u0441\u0442","name:left:be":"\u0426\u044f\u0440\u043d\u043e\u043f\u0430\u043b\u044c\u0441\u043a\u0430\u044f \u0432\u043e\u0431\u043b\u0430\u0441\u0446\u044c","name:left:no":"Ternopil oblast","name:left:fi":"Ternopilin alue","id":-72525,"name:right:fi":"Ivano-Frankivskin alue","name:left:eo":"Ternopila provinco","name:left:en":"Ternopil Oblast","name:right:ca":"Prov\u00edncia d'Ivano-Frankivsk","kind_detail":"4","name:left:mk":"\u0422\u0435\u0440\u043d\u043e\u043f\u043e\u043b\u0441\u043a\u0430 \u043e\u0431\u043b\u0430\u0441\u0442","name:left:nl":"Oblast Ternopil","id:left":-72525,"name:left:es":"\u00d3blast de Tern\u00f3pil","name:right:cs":"Ivanofrankivsk\u00e1 oblast","name:right":"\u0406\u0432\u0430\u043d\u043e-\u0424\u0440\u0430\u043d\u043a\u0456\u0432\u0441\u044c\u043a\u0430 \u043e\u0431\u043b\u0430\u0441\u0442\u044c","name:left:eu":"Ternopilgo oblasta","name:left:et":"Ternopili oblast","name:right:mk":"\u0418\u0432\u0430\u043d\u043e-\u0424\u0440\u0430\u043d\u043a\u043e\u0432\u0441\u043a\u0430 \u043e\u0431\u043b\u0430\u0441\u0442","name:right:zh-min-nan":"Ivano-Frankivsk s\u00e9ng","name:right:pt":"Oblast de Ivano-Frankivsk","name:left:ar":"\u062a\u064a\u0631\u0646\u0648\u0628\u0644 \u0623\u0648\u0628\u0644\u0627\u0633\u062a","name:left:pl":"Obw\u00f3d tarnopolski","name:left:tr":"Ternopil Oblast\u0131","name:left:id":"Oblast Ternopil","name:right:tr":"\u0130vano-Frankivsk Oblast\u0131","name:right:bg":"\u0418\u0432\u0430\u043d\u043e-\u0424\u0440\u0430\u043d\u043a\u043e\u0432\u0441\u043a\u0430 \u043e\u0431\u043b\u0430\u0441\u0442","name:left:pt":"Oblast de Ternopil","name:left:mr":"\u0924\u0947\u0930\u094d\u0928\u094b\u092a\u093f\u0932 \u0913\u092c\u094d\u0932\u093e\u0938\u094d\u0924","name:right:sv":"Ivano-Frankivsk oblast","name:right:ko":"\uc774\ubc14\ub178\ud504\ub780\ud0a4\uc6b0\uc2dc\ud06c \uc8fc","name:left:zh-min-nan":"Ternopil s\u00e9ng","name:left:it":"Oblast' di Ternopil'","name:right:pl":"Obw\u00f3d iwanofrankiwski","osm_relation":true,"name:right:ka":"\u10d8\u10d5\u10d0\u10dc\u10dd-\u10e4\u10e0\u10d0\u10dc\u10d9\u10dd\u10d5\u10e1\u10d9\u10d8\u10e1 \u10dd\u10da\u10e5\u10d8","name:right:de":"Oblast Iwano-Frankiwsk","name:left:de":"Oblast Ternopil"},"arcs":[[1],[2],[3]]},{"type":"LineString","properties":{"name:left:la":"Ruthenia Subcarpathanea","name:right:hy":"\u053b\u057e\u0561\u0576\u0578-\u0556\u0580\u0561\u0576\u056f\u0578\u057e\u057d\u056f\u056b \u0574\u0561\u0580\u0566","name:left:he":"\u05d6\u05e7\u05e8\u05e4\u05d8\u05d9\u05d4","name:right:hr":"Ivano-Frankivska oblast","name:left:sv":"Zakarpatska oblast","name:right:hu":"Ivano-frankivszki ter\u00fclet","name:left:sr":"\u0417\u0430\u043a\u0430\u0440\u043f\u0430\u0442\u0441\u043a\u0430 \u043e\u0431\u043b\u0430\u0441\u0442","name:right:lt":"Ivano Frankivsko sritis","name:right:lv":"Ivanofrankivskas apgabals","name:left:lt":"U\u017ekarpat\u0117s sritis","name:left:hy":"\u0531\u0576\u0564\u0580\u056f\u0561\u0580\u057a\u0561\u057f\u0575\u0561\u0576 \u0574\u0561\u0580\u0566","name:left:sk":"Zakarpatsk\u00e1 oblas\u0165","name:left:hu":"K\u00e1rp\u00e1talja","name:left:hr":"Zakarpatska oblast","name:right:vi":"Ivano-Frankivsk (t\u1ec9nh)","sort_rank":256,"name:left:ca":"Transcarp\u00e0cia","source":"openstreetmap.org","name:right:ar":"\u0625\u064a\u0641\u0627\u0646\u0648 \u0641\u0631\u0627\u0646\u0643\u064a\u0641\u0633\u0643 \u0623\u0648\u0628\u0644\u0627\u0633\u062a","name:left:cs":"Zakarpatsk\u00e1 oblast","name:left":"\u0417\u0430\u043a\u0430\u0440\u043f\u0430\u0442\u0441\u044c\u043a\u0430 \u043e\u0431\u043b\u0430\u0441\u0442\u044c","name:right:es":"\u00d3blast de Ivano-Frankivsk","name:left:ka":"\u10e2\u10e0\u10d0\u10dc\u10e1\u10d9\u10d0\u10e0\u10de\u10d0\u10e2\u10d8\u10d8\u10e1 \u10dd\u10da\u10e5\u10d8","name:right:eu":"Ivano-Frankivskeko oblasta","name:right:et":"Ivano-Frankivski oblast","name:right:no":"Ivano-Frankivsk oblast","name:left:ko":"\uc790\uce74\ub974\ud30c\ud0f8 \uc8fc","name:right:it":"Oblast' di Ivano-Frankivs'k","name:left:ro":"Regiunea Transcarpatia","name:right:ru":"\u0418\u0432\u0430\u043d\u043e-\u0424\u0440\u0430\u043d\u043a\u043e\u0432\u0441\u043a\u0430\u044f \u043e\u0431\u043b\u0430\u0441\u0442\u044c","name:right:ro":"Regiunea Ivano-Frankivsk","name:left:ru":"\u0417\u0430\u043a\u0430\u0440\u043f\u0430\u0442\u0441\u043a\u0430\u044f \u043e\u0431\u043b\u0430\u0441\u0442\u044c","name:left:uz":"Zakarpatye viloyati","name:right:mr":"\u0907\u0935\u094d\u0939\u093e\u0928\u094b-\u092b\u094d\u0930\u093e\u0902\u0915\u093f\u0935\u094d\u0939\u094d\u0938\u094d\u0915 \u0913\u092c\u094d\u0932\u093e\u0938\u094d\u0924","name:right:id":"Oblast Ivano-Frankivsk","name:right:eo":"Ivano-Frankivska provinco","name:right:en":"Ivano-Frankivsk Oblast","kind":"region","name":"\u0417\u0430\u043a\u0430\u0440\u043f\u0430\u0442\u0441\u044c\u043a\u0430 \u043e\u0431\u043b\u0430\u0441\u0442\u044c - \u0406\u0432\u0430\u043d\u043e-\u0424\u0440\u0430\u043d\u043a\u0456\u0432\u0441\u044c\u043a\u0430 \u043e\u0431\u043b\u0430\u0441\u0442\u044c","name:left:no":"Zakarpattja oblast","name:right:fa":"\u0627\u0633\u062a\u0627\u0646 \u0627\u06cc\u0648\u0627\u0646\u0648 \u0641\u0631\u0627\u0646\u06a9\u06cc\u0633\u0648\u06a9","min_zoom":8.0,"name:right:be":"\u0406\u0432\u0430\u043d\u0430-\u0424\u0440\u0430\u043d\u043a\u043e\u045e\u0441\u043a\u0430\u044f \u0432\u043e\u0431\u043b\u0430\u0441\u0446\u044c","name:left:zh":"\u5916\u5580\u723e\u5df4\u9621\u5dde","name:left:fr":"Oblast de Transcarpatie","name:right:zh":"\u4f0a\u4e07\u8bfa-\u5f17\u5170\u79d1\u592b\u65af\u514b\u5dde","name:right:nn":"Ivano-Frankivsk oblast","name:left:bs":"Zakarpatska oblast","name:right:nl":"Oblast Ivano-Frankivsk","name:right:ja":"\u30a4\u30f4\u30a1\u30fc\u30ce\uff1d\u30d5\u30e9\u30f3\u30ad\u30fc\u30a6\u30b7\u30af\u5dde","name:right:fr":"Oblast d'Ivano-Frankivsk","name:left:lv":"Aizkarpatu apgabals","name:left:ja":"\u30b6\u30ab\u30eb\u30d1\u30c3\u30c1\u30e3\u5dde","id:right":-72488,"name:left:nn":"Zakarpattja oblast","name:right:sh":"Ivano-Frankivska oblast","name:right:sk":"Ivanofrankivsk\u00e1 oblas\u0165","name:left:bg":"\u0417\u0430\u043a\u0430\u0440\u043f\u0430\u0442\u0441\u043a\u0430 \u043e\u0431\u043b\u0430\u0441\u0442","name:left:be":"\u0417\u0430\u043a\u0430\u0440\u043f\u0430\u0446\u043a\u0430\u044f \u0432\u043e\u0431\u043b\u0430\u0441\u0446\u044c","name:left:fi":"Taka-Karpatian alue","id":-72489,"name:right:fi":"Ivano-Frankivskin alue","name:left:eo":"Transkarpata provinco","name:left:en":"Zakarpattia Oblast","name:right:ca":"Prov\u00edncia d'Ivano-Frankivsk","kind_detail":"4","name:left:mk":"\u0417\u0430\u043a\u0430\u0440\u043f\u0430\u0442\u0441\u043a\u0430 \u043e\u0431\u043b\u0430\u0441\u0442","name:left:nl":"Oblast Transkarpati\u00eb","id:left":-72489,"name:left:es":"\u00d3blast de Zakarpatia","name:right:cs":"Ivanofrankivsk\u00e1 oblast","name:right":"\u0406\u0432\u0430\u043d\u043e-\u0424\u0440\u0430\u043d\u043a\u0456\u0432\u0441\u044c\u043a\u0430 \u043e\u0431\u043b\u0430\u0441\u0442\u044c","name:left:os":"\u0424\u00e6\u0441\u043a\u0430\u0440\u043f\u0430\u0442\u044b \u043e\u0431\u043b\u00e6\u0441\u0442","name:left:eu":"Transkarpatiako oblasta","name:left:et":"Taga-Karpaatia","name:right:mk":"\u0418\u0432\u0430\u043d\u043e-\u0424\u0440\u0430\u043d\u043a\u043e\u0432\u0441\u043a\u0430 \u043e\u0431\u043b\u0430\u0441\u0442","name:right:zh-min-nan":"Ivano-Frankivsk s\u00e9ng","name:right:pt":"Oblast de Ivano-Frankivsk","name:left:ar":"\u0632\u0627\u0643\u0627\u0631\u0628\u0627\u062a\u064a\u0627 \u0623\u0648\u0628\u0644\u0627\u0633\u062a","name:left:pl":"Obw\u00f3d zakarpacki","name:left:tr":"Zakarpatya Oblast\u0131","name:left:id":"Oblast Zakarpattia","name:right:tr":"\u0130vano-Frankivsk Oblast\u0131","name:right:bg":"\u0418\u0432\u0430\u043d\u043e-\u0424\u0440\u0430\u043d\u043a\u043e\u0432\u0441\u043a\u0430 \u043e\u0431\u043b\u0430\u0441\u0442","name:left:pt":"Oblast da Transcarp\u00e1tia","name:left:mr":"\u091d\u093e\u0915\u093e\u0930\u092a\u0924\u094d\u0924\u093f\u092f\u093e \u0913\u092c\u094d\u0932\u093e\u0938\u094d\u0924","name:right:sv":"Ivano-Frankivsk oblast","name:right:ko":"\uc774\ubc14\ub178\ud504\ub780\ud0a4\uc6b0\uc2dc\ud06c \uc8fc","name:left:zh-min-nan":"Zakarpattya s\u00e9ng","name:left:it":"Oblast' di Transcarpazia","name:right:pl":"Obw\u00f3d iwanofrankiwski","osm_relation":true,"name:right:ka":"\u10d8\u10d5\u10d0\u10dc\u10dd-\u10e4\u10e0\u10d0\u10dc\u10d9\u10dd\u10d5\u10e1\u10d9\u10d8\u10e1 \u10dd\u10da\u10e5\u10d8","name:right:de":"Oblast Iwano-Frankiwsk","name:left:de":"Oblast Transkarpatien"},"arcs":[4]}]},"roads":{"type":"GeometryCollection","geometries":[{"type":"MultiLineString","properties":{"kind":"major_road","name:en":"Danyla Halytskoho Street","network":"ua:regional","sort_rank":380,"kind_detail":"primary","source":"openstreetmap.org","min_zoom":8.0,"landuse_kind":"residential","shield_text":"24","name:ru":"\u0414\u0430\u043d\u0438\u0438\u043b\u0430 \u0413\u0430\u043b\u0438\u0446\u043a\u043e\u0433\u043e \u0443\u043b\u0438\u0446\u0430","ref":"\u0420-24"},"arcs":[[5],[6],[7],[8]]},{"type":"LineString","properties":{"kind":"major_road","network":"ua:regional","sort_rank":380,"kind_detail":"primary","source":"openstreetmap.org","min_zoom":8.0,"shield_text":"21","ref":"\u0420-21"},"arcs":[9]},{"type":"LineString","properties":{"kind":"major_road","name:en":"Shevchenka Street","network":"ua:national","sort_rank":380,"kind_detail":"primary","source":"openstreetmap.org","min_zoom":8.0,"landuse_kind":"residential","shield_text":"09","name:ru":"\u0428\u0435\u0432\u0447\u0435\u043d\u043a\u043e \u0443\u043b\u0438\u0446\u0430","ref":"\u041d-09"},"arcs":[10]},{"type":"LineString","properties":{"kind":"major_road","network":"ua:national","sort_rank":380,"kind_detail":"primary","bus_network":null,"source":"openstreetmap.org","min_zoom":8.0,"bus_shield_text":"23","shield_text":"09","ref":"\u041d-09","id":88299272},"arcs":[11]},{"type":"LineString","properties":{"kind":"major_road","name:en":"Vyzvolennia Street","network":"ua:national","sort_rank":380,"kind_detail":"primary","source":"openstreetmap.org","min_zoom":8.0,"shield_text":"09","name:ru":"\u041e\u0441\u0432\u043e\u0431\u043e\u0436\u0434\u0435\u043d\u0438\u044f \u0443\u043b\u0438\u0446\u0430","ref":"\u041d-09"},"arcs":[12]},{"type":"MultiLineString","properties":{"kind":"major_road","network":"ua:national","sort_rank":380,"kind_detail":"primary","source":"openstreetmap.org","min_zoom":8.0,"shield_text":"10","ref":"\u041d-10"},"arcs":[[13],[14],[15],[16],[17],[18],[19],[20],[21],[22],[23],[24],[25],[26],[27],[28],[29],[30],[31],[32]]},{"type":"LineString","properties":{"kind":"major_road","network":"ua:national","sort_rank":380,"kind_detail":"primary","source":"openstreetmap.org","min_zoom":8.0,"shield_text":"09","ref":"\u041d-09;\u041d-10"},"arcs":[33]},{"type":"LineString","properties":{"kind":"major_road","name:en":"Bashta Street","network":"ua:regional","sort_rank":380,"kind_detail":"primary","source":"openstreetmap.org","min_zoom":8.0,"shield_text":"20","name:ru":"\u0411\u0430\u0448\u043d\u044f \u0443\u043b\u0438\u0446\u0430","ref":"\u0420-20","id":294033397},"arcs":[34]},{"type":"MultiLineString","properties":{"kind":"major_road","network":"ua:regional","sort_rank":380,"kind_detail":"primary","source":"openstreetmap.org","min_zoom":8.0,"landuse_kind":"residential","shield_text":"62","ref":"\u0420-62"},"arcs":[[35],[36],[37],[38]]},{"type":"LineString","properties":{"kind":"major_road","name:en":"Hetmana Ivana Mazepy Street","sort_rank":380,"kind_detail":"primary","source":"openstreetmap.org","min_zoom":8.0,"name:ru":"\u0413\u0435\u0442\u043c\u0430\u043d\u0430 \u0418\u0432\u0430\u043d\u0430 \u041c\u0430\u0437\u0435\u043f\u044b \u0443\u043b\u0438\u0446\u0430","id":120407437},"arcs":[39]},{"type":"MultiLineString","properties":{"kind":"major_road","name:en":"Danyla Halytskoho Street","network":"ua:regional","sort_rank":380,"kind_detail":"primary","source":"openstreetmap.org","min_zoom":8.0,"shield_text":"24","name:ru":"\u0414\u0430\u043d\u0438\u0438\u043b\u0430 \u0413\u0430\u043b\u0438\u0446\u043a\u043e\u0433\u043e \u0443\u043b\u0438\u0446\u0430","ref":"\u0420-24"},"arcs":[[40],[41]]},{"type":"LineString","properties":{"kind":"major_road","name:en":"Krynychna Street","network":"ua:regional","sort_rank":380,"kind_detail":"primary","source":"openstreetmap.org","min_zoom":8.0,"shield_text":"24","name:ru":"\u041a\u0440\u0438\u043d\u0438\u0447\u043d\u0430\u044f \u0443\u043b\u0438\u0446\u0430","ref":"\u0420-24","id":42485069},"arcs":[42]},{"type":"LineString","properties":{"kind":"major_road","name:en":"Yevhena Konovaltsia Street","sort_rank":380,"kind_detail":"primary","bus_network":null,"source":"openstreetmap.org","min_zoom":8.0,"bus_shield_text":"23","name:ru":"\u0415\u0432\u0433\u0435\u043d\u0438\u044f \u041a\u043e\u043d\u043e\u0432\u0430\u043b\u044c\u0446\u0430 \u0443\u043b\u0438\u0446\u0430","landuse_kind":"urban_area","id":201891427},"arcs":[43]},{"type":"LineString","properties":{"kind":"major_road","name:en":"Svobody Street","network":"ua:national","sort_rank":380,"kind_detail":"primary","source":"openstreetmap.org","min_zoom":8.0,"shield_text":"10","name:ru":"\u0421\u0432\u043e\u0431\u043e\u0434\u044b \u0443\u043b\u0438\u0446\u0430","ref":"\u041d-10"},"arcs":[44]},{"type":"LineString","properties":{"kind":"major_road","name:en":"Nezalezhnosti Street","sort_rank":380,"kind_detail":"primary","bus_network":"\u0406\u0432\u0430\u043d\u043e-\u0424\u0440\u0430\u043d\u043a\u0456\u0432\u0441\u044c\u043a\u0438\u0439 \u0442\u0440\u043e\u043b\u0435\u0439\u0431\u0443\u0441","source":"openstreetmap.org","min_zoom":8.0,"bus_shield_text":"2","name:ru":"\u041d\u0435\u0437\u0430\u0432\u0438\u0441\u0438\u043c\u043e\u0441\u0442\u0438 \u0443\u043b\u0438\u0446\u0430","landuse_kind":"urban_area","id":407304582},"arcs":[45]},{"type":"MultiLineString","properties":{"kind":"major_road","network":"ua:regional","sort_rank":380,"kind_detail":"primary","source":"openstreetmap.org","min_zoom":8.0,"shield_text":"62","ref":"\u0420-62"},"arcs":[[46],[47],[48],[49]]},{"type":"MultiLineString","properties":{"kind":"major_road","network":"ua:national","sort_rank":380,"kind_detail":"primary","source":"openstreetmap.org","min_zoom":8.0,"shield_text":"09","ref":"\u041d-09"},"arcs":[[50],[51],[52],[53],[54],[55],[56],[57],[58],[59],[60],[61]]},{"type":"LineString","properties":{"kind":"major_road","int_name":"Vyzvolennia","network":"ua:national","sort_rank":380,"kind_detail":"primary","source":"openstreetmap.org","min_zoom":8.0,"landuse_kind":"national_park","shield_text":"09","ref":"\u041d-09","id":223819251},"arcs":[62]},{"type":"LineString","properties":{"kind":"major_road","name:en":"Sichovykh Striltsiv Street","network":"ua:regional","sort_rank":380,"kind_detail":"primary","source":"openstreetmap.org","min_zoom":8.0,"shield_text":"24","name:ru":"\u0421\u0435\u0447\u0435\u0432\u044b\u0445 \u0421\u0442\u0440\u0435\u043b\u044c\u0446\u043e\u0432 \u0443\u043b\u0438\u0446\u0430","ref":"\u0420-24","id":293588672},"arcs":[63]},{"type":"LineString","properties":{"kind":"major_road","name:en":"Yevropeiska Square","sort_rank":380,"kind_detail":"primary","bus_network":null,"source":"openstreetmap.org","min_zoom":8.0,"bus_shield_text":"23","name:ru":"\u0415\u0432\u0440\u043e\u043f\u0435\u0439\u0441\u043a\u0430\u044f \u043f\u043b\u043e\u0449\u0430\u0434\u044c","landuse_kind":"urban_area","id":407369578},"arcs":[64]},{"type":"LineString","properties":{"kind":"major_road","name:en":"Druzhby Street","network":"ua:regional","sort_rank":380,"kind_detail":"primary","source":"openstreetmap.org","min_zoom":8.0,"shield_text":"24","name:ru":"\u0414\u0440\u0443\u0436\u0431\u044b \u0443\u043b\u0438\u0446\u0430","ref":"\u0420-24","id":310065822},"arcs":[65]},{"type":"LineString","properties":{"bus_network":"\u0406\u0432\u0430\u043d\u043e-\u0424\u0440\u0430\u043d\u043a\u0456\u0432\u0441\u044c\u043a\u0438\u0439 \u0430\u0432\u0442\u043e\u0431\u0443\u0441","name:en":"Symona Petliury Street","sort_rank":380,"kind_detail":"primary","kind":"major_road","source":"openstreetmap.org","min_zoom":8.0,"bus_shield_text":"21","name:ru":"\u0421\u0438\u043c\u043e\u043d\u0430 \u041f\u0435\u0442\u043b\u044e\u0440\u044b \u0443\u043b\u0438\u0446\u0430","landuse_kind":"urban_area"},"arcs":[66]},{"type":"LineString","properties":{"source":"openstreetmap.org","bus_network":null,"bus_shield_text":"24","sort_rank":380,"kind_detail":"primary","min_zoom":8.0,"kind":"major_road"},"arcs":[67]},{"type":"LineString","properties":{"bus_network":"\u0406\u0432\u0430\u043d\u043e-\u0424\u0440\u0430\u043d\u043a\u0456\u0432\u0441\u044c\u043a\u0438\u0439 \u0430\u0432\u0442\u043e\u0431\u0443\u0441","name:en":"Yevhena Konovaltsia Street","sort_rank":380,"kind_detail":"primary","kind":"major_road","source":"openstreetmap.org","min_zoom":8.0,"bus_shield_text":"21","name:ru":"\u0415\u0432\u0433\u0435\u043d\u0438\u044f \u041a\u043e\u043d\u043e\u0432\u0430\u043b\u044c\u0446\u0430 \u0443\u043b\u0438\u0446\u0430","landuse_kind":"urban_area"},"arcs":[68]},{"type":"LineString","properties":{"bus_network":null,"network":"ua:national","sort_rank":380,"kind_detail":"primary","kind":"major_road","source":"openstreetmap.org","min_zoom":8.0,"bus_shield_text":"37","shield_text":"09","ref":"\u041d-09"},"arcs":[69]},{"type":"LineString","properties":{"kind":"major_road","name:en":"Svobody Street","network":"ua:national","sort_rank":380,"kind_detail":"primary","name:de":"Swobody-Stra\u00dfe","source":"openstreetmap.org","min_zoom":8.0,"landuse_kind":"residential","shield_text":"09","name:ru":"\u0421\u0432\u043e\u0431\u043e\u0434\u044b \u0443\u043b\u0438\u0446\u0430","ref":"\u041d-09","id":138395030},"arcs":[70]},{"type":"LineString","properties":{"bus_network":null,"name:en":"Yevhena Konovaltsia Street","sort_rank":380,"kind_detail":"primary","kind":"major_road","source":"openstreetmap.org","min_zoom":8.0,"bus_shield_text":"24","name:ru":"\u0415\u0432\u0433\u0435\u043d\u0438\u044f \u041a\u043e\u043d\u043e\u0432\u0430\u043b\u044c\u0446\u0430 \u0443\u043b\u0438\u0446\u0430"},"arcs":[71]},{"type":"LineString","properties":{"kind":"major_road","name:en":"Zhabievska Street","network":"ua:regional","sort_rank":380,"kind_detail":"primary","source":"openstreetmap.org","min_zoom":8.0,"landuse_kind":"residential","shield_text":"24","name:ru":"\u0416\u0430\u0431\u044c\u0435\u0432\u0441\u043a\u0430\u044f \u0443\u043b\u0438\u0446\u0430","ref":"\u0420-24"},"arcs":[72]},{"type":"MultiLineString","properties":{"kind":"major_road","network":"ua:regional","sort_rank":380,"kind_detail":"primary","source":"openstreetmap.org","min_zoom":8.0,"shield_text":"24","ref":"\u0420-24"},"arcs":[[73],[74],[75],[76],[77],[78],[79],[80],[81],[82],[83],[84],[85],[86],[87],[88],[89],[90],[91],[92],[93],[94],[95],[96],[97],[98],[99],[100],[101]]},{"type":"MultiLineString","properties":{"kind":"major_road","name:en":"Kyivska Street","network":"ua:national","sort_rank":380,"kind_detail":"primary","source":"openstreetmap.org","min_zoom":8.0,"landuse_kind":"residential","shield_text":"09","name:ru":"\u041a\u0438\u0435\u0432\u0441\u043a\u0430\u044f \u0443\u043b\u0438\u0446\u0430","ref":"\u041d-09"},"arcs":[[102],[103]]},{"type":"MultiLineString","properties":{"kind":"major_road","name:en":"16-ho Lypnya Street","network":"ua:national","sort_rank":380,"kind_detail":"primary","source":"openstreetmap.org","min_zoom":8.0,"landuse_kind":"residential","shield_text":"09","name:ru":"16-\u0433\u043e \u0418\u044e\u043b\u044f \u0443\u043b\u0438\u0446\u0430","ref":"\u041d-09"},"arcs":[[104],[105]]},{"type":"MultiLineString","properties":{"kind":"major_road","network":"ua:national","sort_rank":380,"kind_detail":"primary","source":"openstreetmap.org","min_zoom":8.0,"landuse_kind":"residential","shield_text":"10","ref":"\u041d-10"},"arcs":[[106],[107],[108],[109],[110]]},{"type":"LineString","properties":{"kind":"major_road","name:en":"Hrushevskoho Street","network":"ua:regional","sort_rank":380,"kind_detail":"primary","source":"openstreetmap.org","min_zoom":8.0,"shield_text":"20","name:ru":"\u0413\u0440\u0443\u0448\u0435\u0432\u0441\u043a\u043e\u0433\u043e \u0443\u043b\u0438\u0446\u0430","ref":"\u0420-20"},"arcs":[111]},{"type":"LineString","properties":{"kind":"major_road","name:en":"Obizna Street","network":"ua:national","sort_rank":380,"kind_detail":"primary","source":"openstreetmap.org","min_zoom":8.0,"shield_text":"09","name:ru":"\u041e\u0431\u044a\u0435\u0437\u0434\u043d\u0430\u044f \u0443\u043b\u0438\u0446\u0430","ref":"\u041d-09"},"arcs":[112]},{"type":"LineString","properties":{"kind":"major_road","name:en":"Hetmana Ivana Mazepy Street","network":"ua:regional","sort_rank":380,"kind_detail":"primary","source":"openstreetmap.org","min_zoom":8.0,"shield_text":"24","name:ru":"\u0413\u0435\u0442\u043c\u0430\u043d\u0430 \u0418\u0432\u0430\u043d\u0430 \u041c\u0430\u0437\u0435\u043f\u044b \u0443\u043b\u0438\u0446\u0430","ref":"\u0420-24"},"arcs":[113]},{"type":"LineString","properties":{"kind":"major_road","name:en":"Franka Street","network":"ua:regional","sort_rank":380,"kind_detail":"primary","source":"openstreetmap.org","min_zoom":8.0,"shield_text":"24","name:ru":"\u0424\u0440\u0430\u043d\u043a\u043e \u0443\u043b\u0438\u0446\u0430","ref":"\u0420-24","id":310062723},"arcs":[114]},{"type":"LineString","properties":{"kind":"major_road","name:en":"Halytska Street","network":"ua:national","sort_rank":380,"kind_detail":"primary","source":"openstreetmap.org","min_zoom":8.0,"shield_text":"10","name:ru":"\u0413\u0430\u043b\u0438\u0446\u043a\u0430\u044f \u0443\u043b\u0438\u0446\u0430","ref":"\u041d-10","id":42486592},"arcs":[115]},{"type":"LineString","properties":{"kind":"major_road","name:en":"Tarasa Shevchenka Square","sort_rank":380,"kind_detail":"primary","source":"openstreetmap.org","min_zoom":8.0,"name:ru":"\u0422\u0430\u0440\u0430\u0441\u0430 \u0428\u0435\u0432\u0447\u0435\u043d\u043a\u043e \u043f\u043b\u043e\u0449\u0430\u0434\u044c","id":437157521},"arcs":[116]},{"type":"LineString","properties":{"kind":"major_road","name:en":"Chornovola Street","network":"ua:national","sort_rank":380,"kind_detail":"primary","source":"openstreetmap.org","min_zoom":8.0,"landuse_kind":"urban_area","shield_text":"09","name:ru":"\u0427\u0435\u0440\u043d\u043e\u0432\u043e\u043b\u0430 \u0443\u043b\u0438\u0446\u0430","ref":"\u041d-09","id":278609057},"arcs":[117]},{"type":"LineString","properties":{"source":"openstreetmap.org","kind":"major_road","sort_rank":380,"kind_detail":"primary","ref":"H-10","min_zoom":8.0,"id":383138886},"arcs":[118]},{"type":"LineString","properties":{"kind":"major_road","name:en":"Hrushevskoho Street","network":"ua:national","sort_rank":380,"kind_detail":"primary","source":"openstreetmap.org","min_zoom":8.0,"shield_text":"09","name:ru":"\u0413\u0440\u0443\u0448\u0435\u0432\u0441\u043a\u043e\u0433\u043e \u0443\u043b\u0438\u0446\u0430","ref":"\u041d-09","id":138566291},"arcs":[119]},{"type":"MultiLineString","properties":{"bus_network":null,"network":"ua:national","sort_rank":380,"kind_detail":"primary","kind":"major_road","source":"openstreetmap.org","min_zoom":8.0,"bus_shield_text":"37\u041a","shield_text":"09","landuse_kind":"urban_area","ref":"\u041d-09"},"arcs":[[120],[121]]},{"type":"LineString","properties":{"kind":"major_road","name:en":"Oleksandra Dovzhenka Street","sort_rank":380,"kind_detail":"primary","bus_network":null,"source":"openstreetmap.org","min_zoom":8.0,"bus_shield_text":"23","name:ru":"\u0410\u043b\u0435\u043a\u0441\u0430\u043d\u0434\u0440\u0430 \u0414\u043e\u0432\u0436\u0435\u043d\u043a\u043e \u0443\u043b\u0438\u0446\u0430","id":115830580},"arcs":[122]},{"type":"LineString","properties":{"kind":"major_road","network":"ua:national","sort_rank":380,"kind_detail":"primary","source":"openstreetmap.org","min_zoom":8.0,"landuse_kind":"residential","shield_text":"10","ref":"\u041d-10;\u0420-24","id":169082846},"arcs":[123]},{"type":"LineString","properties":{"bus_network":"\u0406\u0432\u0430\u043d\u043e-\u0424\u0440\u0430\u043d\u043a\u0456\u0432\u0441\u044c\u043a\u0438\u0439 \u0430\u0432\u0442\u043e\u0431\u0443\u0441","name:en":"Nezalezhnosti Street","sort_rank":380,"kind_detail":"primary","kind":"major_road","source":"openstreetmap.org","min_zoom":8.0,"bus_shield_text":"26\u0410","name:ru":"\u041d\u0435\u0437\u0430\u0432\u0438\u0441\u0438\u043c\u043e\u0441\u0442\u0438 \u0443\u043b\u0438\u0446\u0430","landuse_kind":"urban_area"},"arcs":[124]},{"type":"LineString","properties":{"bus_network":"\u0406\u0432\u0430\u043d\u043e-\u0424\u0440\u0430\u043d\u043a\u0456\u0432\u0441\u044c\u043a\u0438\u0439 \u0442\u0440\u043e\u043b\u0435\u0439\u0431\u0443\u0441","network":"ua:national","sort_rank":380,"kind_detail":"primary","kind":"major_road","source":"openstreetmap.org","min_zoom":8.0,"bus_shield_text":"2","shield_text":"18","landuse_kind":"urban_area","ref":"\u041d-18"},"arcs":[125]},{"type":"LineString","properties":{"kind":"major_road","sort_rank":380,"kind_detail":"primary","bus_network":"\u0406\u0432\u0430\u043d\u043e-\u0424\u0440\u0430\u043d\u043a\u0456\u0432\u0441\u044c\u043a\u0438\u0439 \u0442\u0440\u043e\u043b\u0435\u0439\u0431\u0443\u0441","source":"openstreetmap.org","min_zoom":8.0,"bus_shield_text":"2","name:ru":"\u0422\u044b\u0441\u043c\u0435\u043d\u0438\u0446\u043a\u0430\u044f \u0443\u043b\u0438\u0446\u0430","landuse_kind":"urban_area","id":133061978},"arcs":[126]},{"type":"MultiLineString","properties":{"kind":"major_road","network":"ua:national","sort_rank":380,"kind_detail":"primary","source":"openstreetmap.org","min_zoom":8.0,"landuse_kind":"national_park","shield_text":"09","ref":"\u041d-09"},"arcs":[[127],[128],[129]]},{"type":"MultiLineString","properties":{"sort_rank":380,"kind_detail":"primary","min_zoom":8.0,"kind":"major_road","source":"openstreetmap.org"},"arcs":[[130],[131],[132],[133],[134],[135],[136],[137]]},{"type":"MultiLineString","properties":{"kind":"major_road","network":"ua:national","sort_rank":380,"kind_detail":"primary","source":"openstreetmap.org","min_zoom":8.0,"landuse_kind":"urban_area","shield_text":"09","ref":"\u041d-09"},"arcs":[[138],[139]]},{"type":"MultiLineString","properties":{"bus_network":"\u0406\u0432\u0430\u043d\u043e-\u0424\u0440\u0430\u043d\u043a\u0456\u0432\u0441\u044c\u043a\u0438\u0439 \u0442\u0440\u043e\u043b\u0435\u0439\u0431\u0443\u0441","name:en":"Stepana Bandery Street","sort_rank":380,"kind_detail":"primary","kind":"major_road","source":"openstreetmap.org","min_zoom":8.0,"bus_shield_text":"6","name:ru":"\u0421\u0442\u0435\u043f\u0430\u043d\u0430 \u0411\u0430\u043d\u0434\u0435\u0440\u044b \u0443\u043b\u0438\u0446\u0430","landuse_kind":"urban_area"},"arcs":[[140],[141],[142]]},{"type":"LineString","properties":{"kind":"major_road","network":"ua:national","sort_rank":380,"kind_detail":"primary","bus_network":"\u0406\u0432\u0430\u043d\u043e-\u0424\u0440\u0430\u043d\u043a\u0456\u0432\u0441\u044c\u043a\u0438\u0439 \u0442\u0440\u043e\u043b\u0435\u0439\u0431\u0443\u0441","source":"openstreetmap.org","min_zoom":8.0,"bus_shield_text":"2","shield_text":"18","ref":"\u041d-18","id":294240934},"arcs":[143]},{"type":"MultiLineString","properties":{"kind":"major_road","name:en":"Vyzvolennia Street","network":"ua:national","sort_rank":380,"kind_detail":"primary","source":"openstreetmap.org","min_zoom":8.0,"int_name":"Vyzvolennia","shield_text":"09","name:ru":"\u041e\u0441\u0432\u043e\u0431\u043e\u0436\u0434\u0435\u043d\u0438\u044f \u0443\u043b\u0438\u0446\u0430","ref":"\u041d-09"},"arcs":[[144],[145]]},{"type":"LineString","properties":{"kind":"major_road","sort_rank":380,"kind_detail":"primary","bus_network":"\u0406\u0432\u0430\u043d\u043e-\u0424\u0440\u0430\u043d\u043a\u0456\u0432\u0441\u044c\u043a\u0438\u0439 \u0442\u0440\u043e\u043b\u0435\u0439\u0431\u0443\u0441","source":"openstreetmap.org","min_zoom":8.0,"bus_shield_text":"2","landuse_kind":"urban_area","id":176780567},"arcs":[146]},{"type":"MultiLineString","properties":{"kind":"major_road","name:en":"Hrushevskoho Street","network":"ua:national","sort_rank":380,"kind_detail":"primary","source":"openstreetmap.org","min_zoom":8.0,"landuse_kind":"residential","shield_text":"10","name:ru":"\u0413\u0440\u0443\u0448\u0435\u0432\u0441\u043a\u043e\u0433\u043e \u0443\u043b\u0438\u0446\u0430","ref":"\u041d-10"},"arcs":[[147],[148]]},{"type":"LineString","properties":{"kind":"major_road","network":"ua:national","sort_rank":380,"kind_detail":"primary","source":"openstreetmap.org","min_zoom":8.0,"shield_text":"09","ref":"\u041d-09;\u0420-38","id":161404477},"arcs":[149]},{"type":"MultiLineString","properties":{"kind":"major_road","name:en":"Hrushevskoho Street","network":"ua:regional","sort_rank":380,"kind_detail":"primary","source":"openstreetmap.org","min_zoom":8.0,"shield_text":"24","ref":"\u0420-24"},"arcs":[[150],[151]]},{"type":"LineString","properties":{"source":"openstreetmap.org","kind":"major_road","name:en":"Hrushevskoho Street","sort_rank":380,"kind_detail":"primary","min_zoom":8.0,"id":137053351},"arcs":[152]},{"type":"LineString","properties":{"kind":"major_road","name:en":"Makukha Street","network":"ua:regional","sort_rank":380,"kind_detail":"primary","source":"openstreetmap.org","min_zoom":8.0,"shield_text":"20","name:ru":"\u041c\u0430\u043a\u0443\u0445\u0430 \u0443\u043b\u0438\u0446\u0430","ref":"\u0420-20","id":294033388},"arcs":[153]},{"type":"MultiLineString","properties":{"kind":"major_road","name:en":"Vidrodzhennia Street","network":"ua:national","sort_rank":380,"kind_detail":"primary","source":"openstreetmap.org","min_zoom":8.0,"landuse_kind":"residential","shield_text":"10","name:ru":"\u0412\u043e\u0437\u0440\u043e\u0436\u0434\u0435\u043d\u0438\u044f \u0443\u043b\u0438\u0446\u0430","ref":"\u041d-10"},"arcs":[[154],[155],[156]]},{"type":"MultiLineString","properties":{"kind":"major_road","network":"ua:national","sort_rank":380,"kind_detail":"primary","source":"openstreetmap.org","min_zoom":8.0,"landuse_kind":"residential","shield_text":"09","ref":"\u041d-09"},"arcs":[[157],[158],[159],[160]]},{"type":"MultiLineString","properties":{"kind":"major_road","network":"ua:regional","sort_rank":380,"kind_detail":"primary","source":"openstreetmap.org","min_zoom":8.0,"shield_text":"20","ref":"\u0420-20"},"arcs":[[161],[162],[163],[164],[165]]},{"type":"MultiLineString","properties":{"kind":"major_road","name:en":"Myru Street","network":"ua:national","sort_rank":380,"kind_detail":"primary","source":"openstreetmap.org","min_zoom":8.0,"shield_text":"09","name:ru":"\u041c\u0438\u0440\u0430 \u0443\u043b\u0438\u0446\u0430","ref":"\u041d-09"},"arcs":[[166],[167]]},{"type":"LineString","properties":{"kind":"major_road","name:en":"Shevchenka Street","network":"ua:national","sort_rank":380,"kind_detail":"primary","source":"openstreetmap.org","min_zoom":8.0,"shield_text":"10","name:ru":"\u0428\u0435\u0432\u0447\u0435\u043d\u043a\u043e \u0443\u043b\u0438\u0446\u0430","ref":"\u041d-10"},"arcs":[168]},{"type":"LineString","properties":{"bus_network":"\u0406\u0432\u0430\u043d\u043e-\u0424\u0440\u0430\u043d\u043a\u0456\u0432\u0441\u044c\u043a\u0438\u0439 \u0442\u0440\u043e\u043b\u0435\u0439\u0431\u0443\u0441","name:en":"Yevropeiska Square","sort_rank":380,"kind_detail":"primary","kind":"major_road","source":"openstreetmap.org","min_zoom":8.0,"bus_shield_text":"6","name:ru":"\u0415\u0432\u0440\u043e\u043f\u0435\u0439\u0441\u043a\u0430\u044f \u043f\u043b\u043e\u0449\u0430\u0434\u044c","landuse_kind":"urban_area"},"arcs":[169]},{"type":"LineString","properties":{"kind":"major_road","name:en":"Mitskevycha Street","network":"ua:regional","sort_rank":380,"kind_detail":"primary","source":"openstreetmap.org","min_zoom":8.0,"shield_text":"24","name:ru":"\u041c\u0438\u0446\u043a\u0435\u0432\u0438\u0447\u0430 \u0443\u043b\u0438\u0446\u0430","ref":"\u0420-24","id":160606779},"arcs":[170]},{"type":"MultiLineString","properties":{"kind":"major_road","network":"ua:regional","sort_rank":380,"kind_detail":"primary","source":"openstreetmap.org","min_zoom":8.0,"shield_text":"24","ref":"H-10; \u0420-24"},"arcs":[[171],[172],[173]]},{"type":"MultiLineString","properties":{"kind":"major_road","network":"ua:national","sort_rank":380,"kind_detail":"primary","source":"openstreetmap.org","min_zoom":8.0,"shield_text":"18","ref":"\u041d-18"},"arcs":[[174],[175],[176],[177],[178],[179],[180],[181]]},{"type":"LineString","properties":{"kind":"major_road","name:en":"Tarasa Shevchenko Street","network":"ua:national","sort_rank":380,"kind_detail":"primary","source":"openstreetmap.org","min_zoom":8.0,"shield_text":"18","name:ru":"\u0422\u0430\u0440\u0430\u0441\u0430 \u0428\u0435\u0432\u0447\u0435\u043d\u043a\u043e \u0443\u043b\u0438\u0446\u0430","ref":"\u041d-18"},"arcs":[182]},{"type":"LineString","properties":{"kind":"major_road","name:en":"Olhy Kobylianskoi Street","network":"ua:regional","sort_rank":380,"kind_detail":"primary","source":"openstreetmap.org","min_zoom":8.0,"shield_text":"24","name:ru":"\u041e\u043b\u044c\u0433\u0438 \u041a\u043e\u0431\u044b\u043b\u044f\u043d\u0441\u043a\u043e\u0439 \u0443\u043b\u0438\u0446\u0430","ref":"\u0420-24","id":293252433},"arcs":[183]},{"type":"MultiLineString","properties":{"kind":"major_road","network":"ua:regional","sort_rank":380,"kind_detail":"primary","source":"openstreetmap.org","min_zoom":8.0,"landuse_kind":"residential","shield_text":"38","ref":"\u0420-38"},"arcs":[[184],[185],[186]]},{"type":"LineString","properties":{"source":"openstreetmap.org","kind":"major_road","name:en":"Nadvirnianska Street","sort_rank":380,"kind_detail":"primary","min_zoom":8.0},"arcs":[187]},{"type":"LineString","properties":{"kind":"major_road","name:en":"Halytska Street","network":"ua:national","sort_rank":380,"kind_detail":"primary","source":"openstreetmap.org","min_zoom":8.0,"shield_text":"18","name:ru":"\u0413\u0430\u043b\u0438\u0446\u043a\u0430\u044f \u0443\u043b\u0438\u0446\u0430","ref":"\u041d-18"},"arcs":[188]},{"type":"MultiLineString","properties":{"source":"openstreetmap.org","kind":"major_road","landuse_kind":"residential","sort_rank":380,"kind_detail":"primary","min_zoom":8.0},"arcs":[[189],[190],[191],[192],[193]]},{"type":"LineString","properties":{"kind":"major_road","name:en":"Nadvirnianska Street","sort_rank":380,"kind_detail":"primary","bus_network":null,"source":"openstreetmap.org","min_zoom":8.0,"bus_shield_text":"24","id":303919052},"arcs":[194]},{"type":"LineString","properties":{"bus_network":"\u0406\u0432\u0430\u043d\u043e-\u0424\u0440\u0430\u043d\u043a\u0456\u0432\u0441\u044c\u043a\u0438\u0439 \u0430\u0432\u0442\u043e\u0431\u0443\u0441","name:en":"Yevhena Konovaltsia Street","sort_rank":380,"kind_detail":"primary","kind":"major_road","source":"openstreetmap.org","min_zoom":8.0,"bus_shield_text":"21","name:ru":"\u0415\u0432\u0433\u0435\u043d\u0438\u044f \u041a\u043e\u043d\u043e\u0432\u0430\u043b\u044c\u0446\u0430 \u0443\u043b\u0438\u0446\u0430"},"arcs":[195]},{"type":"LineString","properties":{"kind":"major_road","network":"ua:regional","sort_rank":380,"kind_detail":"primary","source":"openstreetmap.org","min_zoom":8.0,"landuse_kind":"residential","shield_text":"62","name:ru":"\u0421\u0435\u0447\u0435\u0432\u044b\u0445 \u0421\u0442\u0440\u0435\u043b\u044c\u0446\u043e\u0432 \u0443\u043b\u0438\u0446\u0430","ref":"\u0420-62","id":81041912},"arcs":[196]},{"type":"LineString","properties":{"kind":"major_road","name:en":"Kobylianskoi Street","network":"ua:regional","sort_rank":380,"kind_detail":"primary","source":"openstreetmap.org","min_zoom":8.0,"shield_text":"20","name:ru":"\u041a\u043e\u0431\u044b\u043b\u044f\u043d\u0441\u043a\u043e\u0439 \u0443\u043b\u0438\u0446\u0430","ref":"\u0420-20"},"arcs":[197]},{"type":"MultiLineString","properties":{"kind":"major_road","network":"ua:regional","sort_rank":380,"kind_detail":"primary","source":"openstreetmap.org","min_zoom":8.0,"landuse_kind":"residential","shield_text":"24","ref":"\u0420-24"},"arcs":[[198],[199],[200],[201],[202],[203],[204],[205],[206],[207],[208],[209]]},{"type":"LineString","properties":{"kind":"major_road","name:en":"Zamkova Street","network":"ua:regional","sort_rank":380,"kind_detail":"primary","source":"openstreetmap.org","min_zoom":8.0,"shield_text":"24","name:ru":"\u0417\u0430\u043c\u043a\u043e\u0432\u0430\u044f \u0443\u043b\u0438\u0446\u0430","ref":"\u0420-24","id":56003775},"arcs":[210]},{"type":"LineString","properties":{"kind":"major_road","name:en":"Ivana Franka Street","network":"ua:regional","sort_rank":380,"kind_detail":"primary","source":"openstreetmap.org","min_zoom":8.0,"shield_text":"24","name:ru":"\u0418\u0432\u0430\u043d\u0430 \u0424\u0440\u0430\u043d\u043a\u043e \u0443\u043b\u0438\u0446\u0430","ref":"\u0420-24","id":460324900},"arcs":[211]},{"type":"LineString","properties":{"kind":"major_road","name:en":"Soborna Street","network":"ua:national","sort_rank":380,"kind_detail":"primary","source":"openstreetmap.org","min_zoom":8.0,"landuse_kind":"urban_area","shield_text":"09","name:ru":"\u0421\u043e\u0431\u043e\u0440\u043d\u0430\u044f \u0443\u043b\u0438\u0446\u0430","ref":"\u041d-09"},"arcs":[212]},{"type":"LineString","properties":{"kind":"major_road","name:en":"Shkribliaka Street","network":"ua:regional","sort_rank":380,"kind_detail":"primary","source":"openstreetmap.org","min_zoom":8.0,"shield_text":"24","name:ru":"\u0428\u043a\u0440\u0438\u0431\u043b\u044f\u043a\u0430 \u0443\u043b\u0438\u0446\u0430","ref":"\u0420-24","id":26104097},"arcs":[213]},{"type":"LineString","properties":{"kind":"major_road","name:en":"Karmeliuka Street","network":"ua:regional","sort_rank":380,"kind_detail":"primary","source":"openstreetmap.org","min_zoom":8.0,"shield_text":"20","name:ru":"\u041a\u0430\u0440\u043c\u0435\u043b\u044e\u043a\u0430 \u0443\u043b\u0438\u0446\u0430","ref":"\u0420-20"},"arcs":[214]},{"type":"MultiLineString","properties":{"kind":"major_road","name:en":"Vyzvolennia Street","network":"ua:national","sort_rank":380,"kind_detail":"primary","source":"openstreetmap.org","min_zoom":8.0,"int_name":"Vyzvolennia","landuse_kind":"national_park","shield_text":"09","name:ru":"\u041e\u0441\u0432\u043e\u0431\u043e\u0436\u0434\u0435\u043d\u0438\u044f \u0443\u043b\u0438\u0446\u0430","ref":"\u041d-09"},"arcs":[[215],[216]]},{"type":"LineString","properties":{"kind":"major_road","name:en":"Cheremshyny Street","network":"ua:regional","sort_rank":380,"kind_detail":"primary","source":"openstreetmap.org","min_zoom":8.0,"shield_text":"24","name:ru":"\u0427\u0435\u0440\u0435\u043c\u0448\u0438\u043d\u044b \u0443\u043b\u0438\u0446\u0430","ref":"\u0420-24","id":293252436},"arcs":[217]},{"type":"LineString","properties":{"kind":"major_road","name:en":"Myru Street","network":"ua:national","sort_rank":380,"landuse_kind":"residential","source":"openstreetmap.org","min_zoom":8.0,"kind_detail":"primary","shield_text":"09","name:ru":"\u041c\u0438\u0440\u0430 \u0443\u043b\u0438\u0446\u0430","ref":"\u041d-09"},"arcs":[218]},{"type":"LineString","properties":{"bus_network":"\u0406\u0432\u0430\u043d\u043e-\u0424\u0440\u0430\u043d\u043a\u0456\u0432\u0441\u044c\u043a\u0438\u0439 \u0442\u0440\u043e\u043b\u0435\u0439\u0431\u0443\u0441","name:en":"Stepana Bandery Street","sort_rank":380,"kind_detail":"primary","kind":"major_road","source":"openstreetmap.org","min_zoom":8.0,"bus_shield_text":"7","name:ru":"\u0421\u0442\u0435\u043f\u0430\u043d\u0430 \u0411\u0430\u043d\u0434\u0435\u0440\u044b \u0443\u043b\u0438\u0446\u0430","landuse_kind":"urban_area"},"arcs":[219]},{"type":"LineString","properties":{"kind":"major_road","name:en":"Hetmana Mazepy Street","network":"ua:national","sort_rank":380,"kind_detail":"primary","source":"openstreetmap.org","min_zoom":8.0,"landuse_kind":"urban_area","shield_text":"09","name:ru":"\u0413\u0435\u0442\u043c\u0430\u043d\u0430 \u041c\u0430\u0437\u0435\u043f\u044b \u0443\u043b\u0438\u0446\u0430","ref":"\u041d-09","id":278609033},"arcs":[220]},{"type":"LineString","properties":{"bus_network":"\u0406\u0432\u0430\u043d\u043e-\u0424\u0440\u0430\u043d\u043a\u0456\u0432\u0441\u044c\u043a\u0438\u0439 \u0442\u0440\u043e\u043b\u0435\u0439\u0431\u0443\u0441","name:en":"Volodymyra Ivasiuka Street","sort_rank":380,"kind_detail":"primary","kind":"major_road","source":"openstreetmap.org","min_zoom":8.0,"bus_shield_text":"3","name:ru":"\u0412\u043b\u0430\u0434\u0438\u043c\u0438\u0440\u0430 \u0418\u0432\u0430\u0441\u044e\u043a\u0430 \u0443\u043b\u0438\u0446\u0430","landuse_kind":"urban_area"},"arcs":[221]},{"type":"MultiLineString","properties":{"kind":"major_road","name:en":"Kyivska Street","network":"ua:national","sort_rank":380,"kind_detail":"primary","source":"openstreetmap.org","min_zoom":8.0,"shield_text":"09","name:ru":"\u041a\u0438\u0435\u0432\u0441\u043a\u0430\u044f \u0443\u043b\u0438\u0446\u0430","ref":"\u041d-09"},"arcs":[[222],[223]]},{"type":"LineString","properties":{"bus_network":null,"network":"ua:national","sort_rank":380,"kind_detail":"primary","kind":"major_road","source":"openstreetmap.org","min_zoom":8.0,"bus_shield_text":"26","shield_text":"09","landuse_kind":"urban_area","ref":"\u041d-09"},"arcs":[224]},{"type":"LineString","properties":{"source":"openstreetmap.org","kind":"major_road","sort_rank":380,"kind_detail":"primary","ref":"\u041d-10","min_zoom":8.0,"id":482551744},"arcs":[225]},{"type":"LineString","properties":{"bus_network":null,"name:en":"Oleksandra Dovzhenka Street","sort_rank":380,"kind_detail":"primary","kind":"major_road","source":"openstreetmap.org","min_zoom":8.0,"bus_shield_text":"23","name:ru":"\u0410\u043b\u0435\u043a\u0441\u0430\u043d\u0434\u0440\u0430 \u0414\u043e\u0432\u0436\u0435\u043d\u043a\u043e \u0443\u043b\u0438\u0446\u0430","landuse_kind":"urban_area"},"arcs":[226]},{"type":"LineString","properties":{"kind":"major_road","name:en":"Soborna Street","network":"ua:national","sort_rank":380,"kind_detail":"primary","source":"openstreetmap.org","min_zoom":8.0,"shield_text":"09","name:ru":"\u0421\u043e\u0431\u043e\u0440\u043d\u0430\u044f \u0443\u043b\u0438\u0446\u0430","ref":"\u041d-09"},"arcs":[227]},{"type":"LineString","properties":{"kind":"major_road","name:en":"Vidrodzhennia Street","network":"ua:national","sort_rank":380,"kind_detail":"primary","source":"openstreetmap.org","min_zoom":8.0,"shield_text":"10","name:ru":"\u0412\u043e\u0437\u0440\u043e\u0436\u0434\u0435\u043d\u0438\u044f \u0443\u043b\u0438\u0446\u0430","ref":"\u041d-10","id":229088079},"arcs":[228]},{"type":"LineString","properties":{"kind":"major_road","name:en":"Haharina Street","network":"ua:regional","sort_rank":380,"kind_detail":"primary","source":"openstreetmap.org","min_zoom":8.0,"shield_text":"24","name:ru":"\u0413\u0430\u0433\u0430\u0440\u0438\u043d\u0430 \u0443\u043b\u0438\u0446\u0430","ref":"\u0420-24","id":326489637},"arcs":[229]},{"type":"LineString","properties":{"kind":"major_road","int_name":"Vyzvolennia","network":"ua:national","sort_rank":380,"kind_detail":"primary","source":"openstreetmap.org","min_zoom":8.0,"shield_text":"09","ref":"\u041d-09","id":223819251},"arcs":[230]},{"type":"MultiLineString","properties":{"kind":"major_road","name:en":"Svobody Street","network":"ua:national","sort_rank":380,"kind_detail":"primary","name:de":"Swobody-Stra\u00dfe","source":"openstreetmap.org","min_zoom":8.0,"shield_text":"09","name:ru":"\u0421\u0432\u043e\u0431\u043e\u0434\u044b \u0443\u043b\u0438\u0446\u0430","ref":"\u041d-09"},"arcs":[[231],[232],[233]]},{"type":"MultiLineString","properties":{"kind":"major_road","network":"ua:regional","sort_rank":380,"kind_detail":"primary","source":"openstreetmap.org","min_zoom":8.0,"shield_text":"38","ref":"\u0420-38"},"arcs":[[234],[235],[236],[237]]},{"type":"LineString","properties":{"kind":"major_road","name:en":"Vasylia Stefanyka Embarkment","sort_rank":380,"kind_detail":"primary","bus_network":null,"source":"openstreetmap.org","min_zoom":8.0,"bus_shield_text":"26","name:ru":"\u0412\u0430\u0441\u0438\u043b\u0438\u044f \u0421\u0442\u0435\u0444\u0430\u043d\u0438\u043a\u0430 \u043d\u0430\u0431\u0435\u0440\u0435\u0436\u043d\u0430\u044f","landuse_kind":"urban_area","ref":"\u041d-09","id":524441304},"arcs":[238]},{"type":"MultiLineString","properties":{"bus_network":null,"network":"ua:national","sort_rank":380,"kind_detail":"primary","kind":"major_road","source":"openstreetmap.org","min_zoom":8.0,"bus_shield_text":"37\u041a","shield_text":"09","ref":"\u041d-09"},"arcs":[[239],[240],[241]]},{"type":"LineString","properties":{"kind":"major_road","name:en":"Tarasa Shevchenka Street","network":"ua:regional","sort_rank":380,"kind_detail":"primary","source":"openstreetmap.org","min_zoom":8.0,"shield_text":"24","name:ru":"\u0422\u0430\u0440\u0430\u0441\u0430 \u0428\u0435\u0432\u0447\u0435\u043d\u043a\u043e \u0443\u043b\u0438\u0446\u0430","ref":"\u0420-24"},"arcs":[242]},{"type":"MultiLineString","properties":{"kind":"major_road","network":"ua:national","sort_rank":380,"kind_detail":"primary","source":"openstreetmap.org","min_zoom":8.0,"shield_text":"10","ref":"\u041d-10;\u0420-24"},"arcs":[[243],[244]]},{"type":"LineString","properties":{"kind":"major_road","name:en":"Vynnychenka Street","network":"ua:regional","sort_rank":380,"kind_detail":"primary","source":"openstreetmap.org","min_zoom":8.0,"shield_text":"20","name:ru":"\u0412\u0438\u043d\u043d\u0438\u0447\u0435\u043d\u043a\u043e \u0443\u043b\u0438\u0446\u0430","ref":"\u0420-20","id":294001358},"arcs":[245]}]},"earth":{"type":"GeometryCollection","geometries":[{"type":"Polygon","properties":{"sort_rank":10,"source":"naturalearthdata.com","kind":"earth","min_zoom":0.0,"id":4754},"arcs":[[246]]}]},"landuse":{"type":"GeometryCollection","geometries":[{"type":"MultiPolygon","properties":{"kind":"national_park","protect_class":"2","area":980739078,"sort_rank":18,"source":"openstreetmap.org","min_zoom":3.0,"tier":1,"osm_relation":true},"arcs":[[[247],[248]]]},{"type":"MultiPolygon","properties":{"source":"openstreetmap.org","kind":"residential","tier":2,"area":135284075,"sort_rank":20,"min_zoom":8.0,"osm_relation":true},"arcs":[[[249]],[[250],[251],[252]],[[253]],[[254]],[[255]],[[256]]]},{"type":"Polygon","properties":{"kind":"residential","name":"\u0411\u0438\u0441\u0442\u0440\u0438\u0446\u044f","area":13097100,"sort_rank":20,"source":"openstreetmap.org","min_zoom":8.0,"tier":2,"id":-6296776,"osm_relation":true},"arcs":[[257],[258]]},{"type":"Polygon","properties":{"kind":"residential","name:ro":"Bocicoiu Mare","name":"\u0412\u0435\u043b\u0438\u043a\u0438\u0439 \u0411\u0438\u0447\u043a\u0456\u0432","area":10590800,"sort_rank":20,"name:eo":"Velikij Bi\u0109kiv","source":"openstreetmap.org","min_zoom":8.0,"tier":2,"name:ru":"\u0412\u0435\u043b\u0438\u043a\u0438\u0439 \u0411\u044b\u0447\u043a\u043e\u0432","name:pl":"Boczk\u00f3w Wielki","id":30702102},"arcs":[[259]]},{"type":"MultiPolygon","properties":{"kind":"national_park","protect_class":"2","area":187984992,"sort_rank":18,"source":"openstreetmap.org","min_zoom":5.0,"tier":1,"id":-1463495,"osm_relation":true},"arcs":[[[260]],[[261]]]},{"type":"Polygon","properties":{"kind":"residential","name":"\u0417\u0430\u0440\u0456\u0447\u0447\u044f","area":11358200,"sort_rank":20,"source":"openstreetmap.org","min_zoom":8.0,"tier":2,"name:ru":"\u0417\u0430\u0440\u0435\u0447\u044c\u0435","id":-2382102,"osm_relation":true},"arcs":[[262]]},{"type":"Polygon","properties":{"kind":"residential","name":"\u041a\u0443\u0442\u0438","area":13708300,"sort_rank":20,"source":"openstreetmap.org","min_zoom":8.0,"tier":2,"name:ru":"\u041a\u0443\u0442\u044b","id":30710830},"arcs":[[263]]},{"type":"MultiPolygon","properties":{"kind":"residential","name":"\u0414\u0443\u0431\u043e\u0432\u0435","area":23542900,"sort_rank":20,"name:eo":"Dubove","source":"openstreetmap.org","min_zoom":8.0,"tier":2,"name:pl":"Dubowe","id":30701944},"arcs":[[[264]],[[265]]]},{"type":"Polygon","properties":{"kind":"residential","name:en":"Tatariv","name":"\u0422\u0430\u0442\u0430\u0440\u0456\u0432","area":11839100,"sort_rank":20,"source":"openstreetmap.org","min_zoom":8.0,"tier":2,"name:ru":"\u0422\u0430\u0442\u0430\u0440\u043e\u0432","name:pl":"Tatar\u00f3w","id":30704342},"arcs":[[266]]},{"type":"Polygon","properties":{"kind":"national_park","protect_class":"2","area":145756000,"sort_rank":18,"source":"openstreetmap.org","min_zoom":7.0,"tier":1,"id":-1463495,"osm_relation":true},"arcs":[[267],[268],[269],[270],[271],[272],[273]]},{"type":"MultiPolygon","properties":{"kind":"national_park","protect_class":"2","area":60751606,"sort_rank":18,"source":"openstreetmap.org","min_zoom":8.0,"tier":1,"osm_relation":true},"arcs":[[[274]]]},{"type":"Polygon","properties":{"kind":"residential","name":"\u0421\u043e\u043b\u043e\u0442\u0432\u0438\u043d","area":15001200,"sort_rank":20,"source":"openstreetmap.org","min_zoom":8.0,"tier":2,"id":30711023},"arcs":[[275]]},{"type":"Polygon","properties":{"kind":"residential","name:en":"Starunia","name":"\u0421\u0442\u0430\u0440\u0443\u043d\u044f","area":12248700,"sort_rank":20,"source":"openstreetmap.org","min_zoom":8.0,"tier":2,"id":-3822782,"osm_relation":true},"arcs":[[276]]},{"type":"Polygon","properties":{"source":"openstreetmap.org","kind":"park","area":12894700,"tier":2,"id":170975870,"min_zoom":8.0,"sort_rank":24},"arcs":[[277]]},{"type":"Polygon","properties":{"kind":"residential","name":"\u0414\u0435\u043b\u044f\u0442\u0438\u043d","area":30755600,"sort_rank":20,"source":"openstreetmap.org","min_zoom":8.0,"tier":2,"id":-2382101,"osm_relation":true},"arcs":[[278]]},{"type":"Polygon","properties":{"kind":"residential","name:en":"Lanchyn","name":"\u041b\u0430\u043d\u0447\u0438\u043d","area":15532700,"sort_rank":20,"source":"openstreetmap.org","min_zoom":8.0,"tier":2,"name:pl":"\u0141anczyn","id":30710919},"arcs":[[279]]},{"type":"MultiPolygon","properties":{"source":"naturalearthdata.com","kind":"urban_area","name":"","area":432711494,"sort_rank":11,"min_zoom":4.0},"arcs":[[[280]],[[281]]]},{"type":"Polygon","properties":{"kind":"residential","name":"\u041c\u0430\u043d\u044f\u0432\u0430","area":17178700,"sort_rank":20,"source":"openstreetmap.org","min_zoom":8.0,"tier":2,"id":30710912},"arcs":[[282]]},{"type":"Polygon","properties":{"kind":"residential","name:en":"Rozhniv","name":"\u0420\u043e\u0436\u043d\u0456\u0432","area":27858600,"sort_rank":20,"source":"openstreetmap.org","min_zoom":8.0,"tier":2,"name:ru":"\u0420\u043e\u0436\u043d\u043e\u0432","id":30711034},"arcs":[[283]]},{"type":"Polygon","properties":{"kind":"residential","name":"\u0412\u0435\u0440\u0445\u043e\u0432\u0438\u043d\u0430","area":18552100,"old_name:pl":"\u017babie i S\u0142upejka","source":"openstreetmap.org","min_zoom":8.0,"tier":2,"name:pl":"Wierchowina","id":30710750,"sort_rank":20},"arcs":[[284]]},{"type":"Polygon","properties":{"kind":"residential","name:en":"Zabolotiv","name":"\u0417\u0430\u0431\u043e\u043b\u043e\u0442\u0456\u0432","area":14086000,"sort_rank":20,"source":"openstreetmap.org","min_zoom":8.0,"tier":2,"name:ru":"\u0417\u0430\u0431\u043e\u043b\u043e\u0442\u043e\u0432","name:pl":"Zab\u0142ot\u00f3w","id":30710076},"arcs":[[285]]},{"type":"MultiPolygon","properties":{"source":"openstreetmap.org","kind":"residential","tier":2,"area":955853084,"sort_rank":20,"min_zoom":8.0},"arcs":[[[286]],[[287]],[[288]],[[289]],[[290]],[[291]],[[292]],[[293]],[[294]],[[295]],[[296]],[[297]],[[298]],[[299]],[[300]],[[301]],[[302]],[[303]],[[304]],[[305]],[[306]],[[307]],[[308]],[[309]],[[310]],[[311]],[[312]],[[313]],[[314]],[[315]],[[316]],[[317]]]},{"type":"Polygon","properties":{"kind":"nature_reserve","protect_class":"1","area":126586000,"sort_rank":23,"source":"openstreetmap.org","min_zoom":7.0,"tier":2,"id":106798862},"arcs":[[318]]},{"type":"Polygon","properties":{"kind":"residential","name":"\u0422\u0440\u043e\u0441\u0442\u044f\u043d\u0435\u0446\u044c","area":14457500,"sort_rank":20,"source":"openstreetmap.org","min_zoom":8.0,"tier":2,"id":30710491},"arcs":[[319]]},{"type":"Polygon","properties":{"kind":"residential","name:en":"Vyzhnytsia","name":"\u0412\u0438\u0436\u043d\u0438\u0446\u044f","area":10344900,"sort_rank":20,"source":"openstreetmap.org","min_zoom":8.0,"tier":2,"name:ru":"\u0412\u0438\u0436\u043d\u0438\u0446\u0430","name:pl":"Wy\u017cnica","id":-6229878,"osm_relation":true},"arcs":[[320],[321],[322]]}]}},"type":"Topology","transform":{"translate":[23.90625,47.9899216674],"scale":[0.0003433228,0.0002276801]},"arcs":[[[4096,1660],[-53,-96],[-72,-56],[14,-20],[-83,-61],[-151,-260],[-55,-47],[-71,13],[-130,-99],[38,-31],[-11,-45],[71,-60],[-4,-56],[-29,-17],[-83,35],[-33,-19],[-15,-38],[27,-45],[-78,-22],[17,-53],[-14,-56],[-82,-24],[-12,-71],[-102,40],[-55,-34],[40,-112],[-242,-262],[4,-61],[22,-16],[-35,-58],[4,-29]],[[3530,4096],[51,-142],[1,-81],[75,-28],[34,48],[-17,77],[89,92],[-21,34]],[[3790,4096],[15,0]],[[3880,4096],[-82,-332],[45,0],[51,88],[117,-19],[29,-79],[56,9]],[[1928,0],[17,112],[59,83],[49,12],[45,53],[-91,181],[-111,70],[-8,51],[-70,27],[-18,89],[-70,69],[59,74],[-28,39],[44,42],[-15,25],[35,54],[38,11],[-71,88],[-109,43],[11,150],[-169,150],[-36,78],[-62,11],[-32,46],[-87,39],[-5,118],[-202,96],[-11,-45],[25,-51],[-88,-132],[-50,36],[-46,-10],[-49,43],[-91,-2],[5,45],[-40,4],[-53,56],[12,53],[-34,38],[15,107],[-32,12],[-28,70],[5,77],[39,48],[-74,65],[55,122],[-29,43],[-41,-5],[-25,-36],[-36,12],[3,-31],[-34,-34],[-29,24],[-104,-77],[-101,13],[-69,-113],[19,-54],[-40,-28],[-120,23],[-52,83],[51,132],[-30,89],[42,82],[-48,15],[-15,32],[-3,-3]],[[1919,1346],[-3,-26]],[[1918,1316],[66,-82]],[[1923,1350],[-4,-4]],[[1951,1372],[-28,-22]],[[12,4096],[16,-36],[-15,-170],[-13,-22]],[[875,294],[-34,-33]],[[2256,4023],[1,-1]],[[1242,1072],[48,109]],[[2116,3915],[-47,40],[15,141]],[[2324,3765],[-87,97],[-112,60]],[[2327,3765],[-3,0]],[[2324,3765],[2,-2]],[[2329,3762],[4,1]],[[2333,3763],[-3,2]],[[2597,3715],[-264,48]],[[2599,3716],[-2,-1]],[[2597,3715],[2,-1]],[[2660,3771],[-61,-55]],[[2599,3714],[0,2]],[[2758,3358],[20,189],[-53,94],[-126,73]],[[2754,3924],[-21,-89],[-59,-53]],[[2819,3234],[81,-80],[22,-79],[72,-51],[42,-108],[-29,-151],[107,-178],[297,-147]],[[3411,2440],[11,-7]],[[3952,2129],[-128,86],[-327,113]],[[4089,2123],[7,3]],[[2327,3766],[-1,-3]],[[2326,3763],[3,-1],[1,3]],[[2330,3765],[-3,1]],[[2116,3915],[9,7]],[[3221,3788],[63,-31]],[[3382,687],[1,-16]],[[3686,1136],[-1,0]],[[3702,1101],[-11,9]],[[3743,1084],[-32,23]],[[3304,2347],[-2,1]],[[1916,1320],[2,-4]],[[1984,1234],[29,-31]],[[3288,2352],[2,-4]],[[2350,4016],[1,1]],[[2785,3283],[34,-49]],[[2427,4064],[9,-2]],[[3383,671],[3,-48],[-83,-23],[-13,-64],[-166,59],[-87,66],[-21,128],[-63,17]],[[3685,1136],[-83,-5],[-108,-97],[107,-142],[-11,-48],[-28,-22],[-63,22],[-48,-23],[-19,-17],[11,-55],[-64,-22],[3,-40]],[[3691,1110],[-5,26]],[[4096,809],[-19,95],[-58,44],[-40,125],[-119,48],[-117,-37]],[[759,141],[32,-58]],[[782,192],[-6,-9]],[[839,43],[11,-26]],[[969,389],[-4,38],[50,64],[31,126],[26,10],[24,65],[-15,82]],[[1326,1239],[158,18],[92,127],[120,41],[85,134],[94,-10]],[[1962,2951],[-44,27],[-103,182],[-35,158]],[[1782,3348],[10,146]],[[1875,3643],[129,175],[112,97]],[[2033,1834],[-48,-129],[-45,-35],[-58,4],[20,-38]],[[2078,2469],[-124,247]],[[1985,1938],[29,-10],[12,-78]],[[2147,3938],[-22,-16]],[[1099,808],[98,194]],[[3148,2104],[15,-159]],[[2353,4020],[-1,0]],[[3490,1387],[-90,18]],[[2306,4012],[44,-11]],[[2331,3859],[0,3]],[[2350,4018],[-6,-64]],[[2181,3965],[-34,-27]],[[2015,2209],[-1,0]],[[2331,3862],[-2,15]],[[2620,724],[68,0]],[[1966,1492],[-15,-119]],[[2013,1203],[83,-129],[125,-79],[-7,-24],[30,2],[92,-82],[90,14],[-16,-97],[40,-60],[73,-37]],[[2525,710],[57,7]],[[2952,806],[-93,12],[-10,-54],[-40,-27]],[[2953,807],[-1,-1]],[[3363,1401],[-198,-90],[-81,-317],[-48,5],[-75,-38],[26,-78],[-34,-76]],[[3067,1829],[-11,-13],[68,-25]],[[3140,2190],[8,-86]],[[3163,1945],[-9,-22]],[[3179,2271],[-9,-13]],[[3184,1696],[1,-2]],[[3235,2344],[-10,-9]],[[3255,2355],[4,-1]],[[3310,1573],[12,-16]],[[3323,1556],[73,-44]],[[3432,2439],[-10,-6]],[[3506,2477],[-59,-31]],[[3449,2341],[19,-6],[1,0],[23,-7]],[[3492,2328],[3,-1]],[[3505,1432],[32,-22],[-47,-23]],[[3495,2329],[-3,-1]],[[3492,2328]],[[3501,1465],[3,-27]],[[3968,2581],[-245,-77],[-217,-27]],[[4024,2588]],[[4025,2589],[-1,-1]],[[4024,2588],[33,74]],[[4073,2686],[23,6]],[[3257,2356],[-1,-1],[1,0],[1,1],[-1,0]],[[890,306],[-18,-19]],[[974,370],[-44,-28]],[[2064,2256],[-49,-47]],[[2123,2386],[-55,-128]],[[3411,2440]],[[3962,2122],[-1,1]],[[4005,2097],[-1,1]],[[4066,2115],[-1,0]],[[4086,2122],[3,1]],[[3189,3915],[0,-64]],[[1816,3544],[45,-7],[30,48],[-16,58]],[[3304,2347],[145,-6]],[[3400,1405],[-37,-4]],[[2758,3358],[-3,-75]],[[3302,2348],[-7,2]],[[1935,2819],[-6,11]],[[3495,2327],[5,-2]],[[2026,1850],[7,-16]],[[2258,4024],[-2,0]],[[2258,4022],[1,1]],[[2259,4021]],[[3437,2418]],[[2370,4077],[57,-13]],[[2480,4052],[13,-3]],[[2442,4061],[38,-9]],[[776,183],[-17,-42]],[[791,83],[48,-40]],[[850,17],[8,-17]],[[2330,3765],[-3,1]],[[2753,3928],[3,-1]],[[3505,1432],[-1,6]],[[3797,1187]],[[3861,1273],[-9,-12]],[[3891,1315],[-2,-3]],[[3922,1358],[-9,-12]],[[4096,1562],[-114,-126]],[[1960,2903],[2,48]],[[2259,4023],[-1,1]],[[2353,4021],[-1,-1]],[[2353,4020],[0,1]],[[2362,4054],[-9,-33]],[[2493,4049],[8,-2]],[[1206,1039],[14,22]],[[1221,1061],[21,11]],[[2436,4062],[6,-1]],[[4065,2115],[-56,-19]],[[4066,2115],[20,7]],[[1792,3494],[24,50]],[[3248,2355],[7,0]],[[3259,2354],[29,-2]],[[3295,2350],[-7,2]],[[3198,3845],[-1,-10]],[[3961,2123],[-8,5]],[[4004,2098],[-42,24]],[[4009,2096],[-4,1]],[[1780,3318],[2,30]],[[1902,1636],[54,-88],[-81,1]],[[2068,2258],[-4,-2]],[[2078,2469],[45,-83]],[[2997,4068],[-30,28]],[[2997,4068],[5,-5]],[[3002,4063],[187,-148]],[[3220,3788],[1,0]],[[3284,3757],[120,-140],[381,-99],[134,-74],[19,-39],[46,4],[112,-56]],[[792,222],[-10,-30]],[[1290,1181],[36,58]],[[2755,3283],[30,0]],[[2352,4020],[1,0]],[[3305,2341],[-1,6]],[[3496,2334],[-1,-5]],[[3497,2327],[0,2],[-2,0]],[[3495,2329],[0,-2],[2,0]],[[2501,4047],[186,-29]],[[2842,4021],[0,-2]],[[2846,4023],[-4,-2]],[[2842,4019],[1,0],[0,2],[-1,0]],[[2843,4020],[3,3]],[[2846,4023],[89,45],[61,-2]],[[3004,4068],[-8,-2]],[[3004,4068],[34,28]],[[2754,4004],[85,15]],[[3396,1512],[35,-23]],[[979,3026],[-46,-56]],[[1092,3098],[-99,-55]],[[1513,3209],[2,-20],[-54,-15]],[[2329,3768],[5,80]],[[2687,4018],[67,-14]],[[3797,1187],[-86,-80]],[[3852,1261],[-55,-74]],[[3889,1312],[-28,-39]],[[3913,1346],[-22,-31]],[[3982,1436],[-60,-78]],[[2334,3848],[-3,11]],[[2344,3954],[-15,-77]],[[3711,1107],[-9,-6]],[[3196,3821],[24,-33]],[[1943,1543],[23,-51]],[[1951,1373],[0,-1]],[[2523,711],[2,-1]],[[2582,717],[38,7]],[[2809,737],[-121,-13]],[[3154,1923],[-87,-94]],[[3124,1791],[60,-95]],[[3225,2335],[-46,-64]],[[3185,1694],[125,-121]],[[3322,1557],[1,-1]],[[3447,2446],[-15,-7]],[[3506,2477]],[[3290,2348],[15,-7]],[[4024,2588],[-56,-7]],[[1942,2779],[-7,40]],[[3248,2355],[-13,-11]],[[3197,3835],[-1,-14]],[[1197,1002],[9,37]],[[1220,1061],[1,0]],[[3431,1489],[70,-24]],[[792,222],[80,65]],[[2370,4077],[-8,-23]],[[1929,2830],[31,73]],[[2427,4064],[11,32]],[[930,342],[-40,-36]],[[969,389],[5,-19]],[[2259,4092],[-3,-67]],[[2660,3771],[14,11]],[[2302,4013],[-43,8]],[[1954,2716],[-12,63]],[[3953,2128],[-1,1]],[[4057,2662],[16,24]],[[1081,774],[18,34]],[[2014,2209],[-153,-231]],[[1861,1978],[3,-15]],[[1864,1963],[69,-31],[52,6]],[[933,2970],[-36,-65]],[[993,3043],[-14,-17]],[[1461,3174],[-369,-76]],[[1792,3494],[-152,6],[-128,-78],[-20,-61],[21,-152]],[[2259,4092],[3,4]],[[2255,4022],[-74,-57]],[[2256,4024],[0,-1]],[[2257,4022],[1,0]],[[3170,2258],[-30,-68]],[[3422,2433],[15,-15]],[[3437,2418],[60,-90]],[[3189,3851],[9,-6]],[[0,4096],[4096,0],[0,-4096],[-4096,0],[0,4096]],[[723,658],[16,190],[50,117],[-9,140],[24,44],[64,20],[101,-75],[36,53],[104,35],[51,-18],[-24,-35],[67,-9],[9,-58],[-26,-54],[34,53],[64,-62],[61,35],[3,-63],[-27,-28],[171,-104],[26,-54],[97,-48],[92,49],[38,-13],[-4,-56],[59,-39],[18,-89],[70,-27],[8,-51],[76,-55],[-89,-122],[-99,89],[-45,-4],[-100,54],[26,-74],[-75,-18],[11,36],[-30,-3],[8,-33],[-33,-11],[-16,-51],[-79,-8],[-28,-38],[-20,11],[9,42],[88,67],[45,121],[-88,-11],[-11,-32],[-86,170],[-41,14],[6,25],[-33,-12],[-30,35],[-99,10],[-46,46],[-25,68],[-71,0],[22,-55],[-35,-32],[-89,66],[-16,62],[-66,-49],[46,-19],[-5,-48],[-54,-11],[54,4],[10,-36],[-66,-25],[-39,17],[-14,-43],[-46,0]],[[1117,766],[21,-8],[15,12],[-33,17],[-3,-21]],[[768,187],[25,75],[24,-9],[29,30],[-40,40],[57,-1],[21,63],[46,2],[6,-38],[15,19],[33,3],[-85,-46],[-34,-67],[-65,-24],[-32,-47]],[[1824,1377],[16,20],[41,-15],[-21,-7],[40,-32],[-14,4],[0,-14],[16,4],[-1,40],[45,3],[20,-27],[-16,10],[-15,-7],[-11,-13],[31,-36],[35,3],[-8,-18],[37,-35],[-24,13],[4,-34],[-63,-9],[-34,-51],[13,66],[-17,17],[-40,-26],[30,42],[-33,-16],[-18,35],[48,13],[-61,70]],[[1905,1368],[9,-15],[15,11],[-17,8],[-7,-4]],[[1913,1316],[9,0],[7,11],[-7,0],[-9,-11]],[[953,2349],[23,28],[58,-7],[-1,-27],[41,7],[3,-43],[69,-37],[25,31],[-18,10],[24,7],[-9,32],[52,-15],[-109,-119],[22,50],[-107,54],[-26,-13],[-18,51],[-17,-24],[-12,15]],[[1613,3273],[24,15],[-17,22],[52,2],[-18,12],[22,28],[50,-30],[9,38],[47,-12],[2,-41],[-11,28],[-21,-1],[-27,-52],[-67,-44],[-45,35]],[[2389,3449],[93,144],[40,-3],[33,36],[28,-17],[7,-28],[-79,-17],[25,-5],[-4,-19],[-44,-53],[-38,3],[-23,-56],[-38,15]],[[734,3533],[41,41],[19,105],[33,-8],[5,39],[41,4],[4,-63],[-39,-99],[-35,25],[-28,-37],[-41,-7]],[[891,2027],[25,38],[60,-6],[-50,34],[-8,14],[33,-27],[57,42],[13,-69],[54,-39],[0,-62],[-23,13],[16,22],[-7,18],[-47,2],[18,15],[-23,47],[-52,-68],[-66,26]],[[952,2010],[3,-7],[2,1],[1,7],[-6,-1]],[[330,0],[17,40],[-7,-40],[-10,0]],[[1100,0],[52,48],[37,-45],[27,-3],[-116,0]],[[1233,0],[43,56],[25,-56],[-68,0]],[[2078,2243],[48,73],[6,64],[31,-16],[52,19],[-24,-77],[-113,-63]],[[3612,1214],[107,57],[6,-39],[41,27],[-29,-36],[33,1],[-68,-90],[-48,4],[8,84],[-50,-8]],[[0,967],[12,-32],[-12,-7],[0,39]],[[0,919],[35,-38],[-35,-3],[0,41]],[[1807,1568],[118,-20],[-31,34],[16,4],[-12,72],[62,-71],[-3,-64],[47,16],[5,-31],[-52,-20],[-27,46],[-123,34]],[[727,0],[-34,178],[8,48],[25,-7],[4,12],[3,56],[26,-4],[15,-52],[4,34],[20,-20],[-46,-68],[111,30],[23,-34],[-23,-18],[24,-48],[13,110],[17,-21],[28,25],[94,-20],[27,-113],[-56,-12],[-27,63],[-81,-48],[-16,4],[-47,-52],[19,-43],[-131,0]],[[735,110],[32,-19],[31,-42],[6,4],[-43,91],[-26,-34]],[[798,113],[33,3],[5,40],[-12,-29],[-25,7],[-1,-21]],[[831,165],[2,-4],[16,0],[-13,19],[-5,-15]],[[756,77],[12,1],[2,4],[-5,2],[-9,-7]],[[912,109],[2,-4],[6,2],[-2,7],[-6,-5]],[[899,113],[6,8],[-1,2],[-4,-3],[-1,-7]],[[1585,800],[31,20],[10,73],[43,0],[7,32],[46,-35],[2,61],[81,-49],[-47,-44],[22,-56],[-22,-13],[-16,24],[-37,-16],[-9,44],[-46,-23],[-3,-53],[-62,35]],[[1442,3214],[56,-14],[34,20],[-6,-17],[38,-10],[-72,-128],[-29,10],[20,52],[-41,87]],[[1649,3099],[50,52],[-23,11],[-6,41],[18,-12],[12,23],[-23,24],[40,12],[-4,-80],[52,-41],[16,13],[31,-57],[-51,26],[-61,-2],[-12,-22],[-39,12]],[[3472,2377],[70,33],[50,-20],[-10,-16],[46,-48],[-18,-20],[-116,40],[-22,31]],[[1870,2483],[95,-10],[66,-91],[45,9],[-45,51],[33,34],[51,-25],[63,12],[-8,-22],[-62,-5],[35,-33],[-25,-71],[-21,-57],[-75,-70],[-35,17],[34,32],[2,48],[26,-29],[18,91],[-77,20],[-37,67],[-80,12],[-3,20]],[[2362,2436],[13,44],[69,29],[63,19],[48,-23],[-38,-19],[-12,-44],[-85,1],[-15,-43],[-43,36]],[[2035,2779],[-162,0],[29,119],[64,56],[59,-31],[10,-144]],[[2424,3958],[-88,-5],[-107,94],[1,49],[277,0],[-19,-64],[-64,-74]],[[1217,2827],[15,33],[54,22],[-26,25],[58,18],[-12,35],[46,-23],[93,66],[23,-7],[-87,-71],[-27,-68],[-27,32],[-42,-57],[-68,-5]],[[3747,1575],[39,25],[-28,21],[43,9],[1,32],[-39,13],[8,25],[47,-12],[-1,67],[18,7],[16,-31],[22,16],[32,-51],[-77,-104],[79,100],[26,-1],[16,-40],[-57,-82],[-21,32],[-28,-24],[-96,-2]],[[2521,709],[49,44],[253,-17],[-122,-32],[-39,-64],[11,46],[-92,1],[1,40],[-61,-18]],[[3940,2089],[27,81],[30,-22],[44,30],[55,-40],[-29,-61],[-127,12]],[[28,0],[-28,0],[0,5],[6,12],[22,-17]],[[3195,831],[44,14],[-19,36],[54,-45],[16,49],[-11,-45],[84,-42],[-17,-60],[49,25],[-33,-30],[27,-62],[-138,15],[-44,34],[16,-60],[-21,-3],[-1,95],[55,-17],[-1,-41],[62,7],[34,30],[-56,58],[-15,-17],[-85,59]],[[3787,1196],[80,122],[43,-12],[-61,-41],[35,-36],[-18,-43],[-38,-8],[20,-35],[-61,53]],[[2663,1215],[63,48],[28,-9],[32,-16],[10,-64],[-23,2],[22,-13],[-11,-20],[-30,19],[-15,-42],[-22,0],[8,21],[-49,11],[-13,63]],[[3214,1250],[27,35],[57,20],[51,-26],[51,12],[8,-41],[-110,-3],[-6,-37],[-3,28],[-27,-5],[12,37],[-30,-29],[4,29],[-34,-20]],[[3951,1945],[33,7],[-33,4],[51,105],[31,-42],[18,19],[27,-14],[-41,-26],[29,-37],[-10,-32],[-17,11],[-54,-36],[-34,41]],[[3987,1713],[49,57],[60,44],[0,-53],[-55,-54],[-54,6]],[[3499,1673],[35,9],[-4,23],[25,-12],[-43,38],[17,14],[48,-42],[110,124],[23,-37],[34,15],[-51,-84],[-34,6],[-41,-42],[38,4],[-14,-48],[-73,5],[7,25],[22,-7],[-8,21],[-91,-12]],[[3081,1750],[70,66],[5,-70],[36,-22],[-9,-34],[-24,-26],[-39,20],[-39,66]],[[3183,1690],[31,43],[45,-11],[-12,-24],[24,-33],[45,19],[-20,-29],[36,-7],[-30,-55],[21,-39],[-12,21],[-24,-23],[-33,17],[-49,-33],[-22,25],[36,24],[4,41],[-40,64]],[[2549,1950],[24,7],[6,54],[37,-27],[-18,-22],[68,2],[3,-26],[-24,-3],[66,-69],[-62,-27],[-37,-65],[-31,39],[34,53],[34,-12],[-26,34],[32,-1],[-106,63]],[[3321,1694],[31,166],[36,5],[19,-58],[-18,-132],[-55,-7],[-13,26]],[[3052,1860],[53,15],[19,15],[-21,19],[34,-9],[33,44],[-37,-140],[-25,26],[-34,-13],[-22,43]],[[1183,2352],[75,28],[0,25],[35,-24],[12,54],[44,-2],[-39,-17],[-4,-22],[123,91],[-110,-88],[78,-71],[8,-104],[34,-3],[-2,-9],[-42,3],[-13,78],[-27,-20],[30,46],[-73,61],[-95,-40],[-34,14]],[[3314,2574],[9,15],[45,-44],[66,13],[-7,-42],[79,-40],[-78,29],[14,-59],[27,0],[-32,-28],[-14,65],[-26,-4],[14,-39],[-32,53],[-20,-11],[-45,92]],[[2211,2645],[49,-1],[76,-70],[14,-48],[11,20],[16,-12],[-29,-22],[-54,13],[-83,120]],[[1605,2571],[1,31],[87,77],[15,-26],[-31,-73],[28,-24],[-47,-12],[-11,40],[-11,-20],[-31,7]],[[2341,2984],[34,109],[-19,14],[46,7],[33,51],[14,-12],[-66,-129],[7,-46],[-49,6]],[[2164,3393],[11,82],[19,19],[40,-19],[26,-80],[-52,-20],[-44,18]],[[899,2955],[42,48],[-14,25],[78,85],[49,22],[44,-44],[-36,-32],[22,-36],[-8,-48],[-85,69],[-47,-69],[-45,-20]],[[1100,3966],[52,82],[118,19],[-91,-51],[-20,-31],[15,-23],[-51,-18],[-23,22]],[[3746,2038],[52,18],[-7,34],[130,-55],[-68,-38],[-20,14],[-77,-105],[37,67],[-4,32],[-43,33]],[[2903,2042],[61,32],[15,48],[-31,54],[37,24],[27,-46],[44,13],[13,-44],[64,8],[-68,-58],[15,-27],[-23,-29],[-27,19],[-57,-11],[-12,-27],[22,-11],[-45,3],[18,60],[-53,-8]],[[3235,2078],[3,50],[23,6],[10,-44],[10,52],[38,-101],[26,-4],[-22,-18],[32,6],[13,-26],[-21,-21],[44,-38],[10,-89],[-25,27],[-19,-13],[-36,53],[22,22],[-14,36],[-40,-4],[-2,40],[30,14],[-82,52]],[[2724,2090],[48,48],[-45,26],[71,42],[42,-32],[-31,-75],[-50,18],[-35,-27]],[[3780,2211],[36,-31],[15,27],[103,-68],[-30,-33],[-64,17],[-54,46],[-6,42]],[[3160,2191],[0,27],[50,26],[-39,34],[0,-1],[-72,3],[-5,55],[-35,12],[38,30],[75,-13],[-1,-51],[10,52],[64,-43],[26,-56],[-27,-25],[32,-6],[-28,-50],[13,-51],[-24,11],[1,54],[-56,26],[6,-91],[59,-85],[-66,28],[-21,114]],[[1132,1405],[90,48],[51,-40],[42,0],[-27,-31],[18,-18],[-43,-19],[-51,59],[-80,1]],[[3873,1322],[53,32],[-26,25],[30,37],[126,49],[33,-28],[-30,-23],[-2,37],[-36,-36],[25,-7],[-6,-48],[26,-4],[-21,-35],[12,-25],[-34,-21],[8,-28],[-19,28],[-64,-22],[-18,19],[12,38],[-33,-29],[1,25],[-37,16]],[[2501,1502],[7,34],[53,5],[-40,11],[0,27],[30,2],[46,-43],[12,22],[59,-16],[79,-83],[-48,34],[-19,-27],[-1,20],[-31,-6],[-36,-39],[1,-37],[-22,5],[2,-35],[-28,34],[-27,-34],[-7,86],[50,-25],[13,17],[-93,48]],[[2802,1578],[52,-2],[-3,-28],[43,-42],[74,-8],[84,-57],[-46,16],[-21,-17],[-47,48],[-111,-46],[44,50],[-52,37],[-17,49]],[[3786,1474],[41,70],[13,-18],[27,21],[-30,3],[15,20],[67,-51],[31,31],[-37,-90],[-116,-79],[-3,84],[28,17],[-36,-8]],[[1022,2121],[108,109],[81,-100],[39,10],[35,-24],[103,-154],[83,-65],[18,-33],[-11,-75],[-43,-31],[-75,25],[-39,-28],[-100,42],[27,68],[-49,129],[-177,127]],[[3761,1858],[61,5],[-13,16],[79,-9],[29,26],[35,-59],[-51,-10],[-33,-43],[-52,45],[-28,-10],[-27,39]],[[3605,1117],[48,12],[40,-20],[94,87],[46,-45],[-37,-5],[15,-22],[-5,-5],[-86,-12],[24,-22],[-37,-12],[-10,30],[-92,14]],[[3713,1107],[1,-3],[5,4],[-3,3],[-3,-4]],[[3639,1116],[11,4],[0,3],[-1,-1],[-9,0],[-1,-6]]]}