{"objects":{"water":{"type":"GeometryCollection","geometries":[]},"buildings":{"type":"GeometryCollection","geometries":[]},"places":{"type":"GeometryCollection","geometries":[{"type":"Point","properties":{"admin_level":"4","name:sr":"\u0422\u0430\u0440\u0433\u0443 \u041c\u0443\u0440\u0435\u0448","name:he":"\u05d8\u05e8\u05d2\u05d5 \u05de\u05d5\u05e8\u05e9","name:sk":"T\u00e2rgu Mure\u015f","name:id":"T\u00e2rgu Mure\u015f","name:nn":"T\u00e2rgu Mure\u015f","name:el":"\u03a4\u03af\u03c1\u03b3\u03ba\u03bf\u03c5 \u039c\u03bf\u03cd\u03c1\u03b5\u03c2","name:ko":"\ud2b8\ub974\uad6c\ubb34\ub808\uc288","name:sv":"T\u00e2rgu Mure\u015f","name:ar":"\u062a\u0631\u062c\u0648 \u0645\u0648\u0631\u064a\u0634","name:th":"\u0e15\u0e35\u0e23\u0e4c\u0e01\u0e39\u0e21\u0e39\u0e40\u0e23\u0e0a","name:la":"Novum Forum Siculorum","name:uk":"\u0422\u0438\u0440\u0433\u0443-\u041c\u0443\u0440\u0435\u0448","name:ru":"\u0422\u044b\u0440\u0433\u0443-\u041c\u0443\u0440\u0435\u0448","name:vi":"T\u00e2rgu Mure\u015f","name:li":"T\u00e2rgu Mure\u015f","name":"T\u00e2rgu Mure\u0219","id":26292942,"name:ja":"\u30c8\u30a5\u30eb\u30b0\u30fb\u30e0\u30ec\u30b7\u30e5","name:fa":"\u062a\u0631\u06af\u0648 \u0645\u0648\u0631\u0634","kind":"locality","name:hu":"Marosv\u00e1s\u00e1rhely","name:lt":"Tirgu Mure\u0161as","kind_detail":"city","min_zoom":8.0,"name:tg":"\u0422\u0438\u0440\u0433\u0443-\u041c\u0443\u0440\u0435\u0448","source":"openstreetmap.org","name:bg":"\u0422\u044a\u0440\u0433\u0443 \u041c\u0443\u0440\u0435\u0448","name:de":"Neumarkt am Mieresch","population":134290,"name:zh":"\u7279\u5c14\u53e4\u7a46\u5217\u4ec0"},"coordinates":[1908,1997]},{"type":"Point","properties":{"kind":"locality","name":"Media\u0219","name:lt":"Media\u0161as","kind_detail":"town","name:de":"Mediasch","source":"openstreetmap.org","min_zoom":8.0,"name:sr":"\u041c\u0435\u0434\u0438\u0458\u0430\u0448","name:uk":"\u041c\u0435\u0434\u0456\u0430\u0448","name:ru":"\u041c\u0435\u0434\u0438\u0430\u0448","name:hu":"Medgyes","id":114320365,"population":53564},"coordinates":[1296,388]},{"type":"Point","properties":{"kind":"locality","name":"Odorheiu Secuiesc","name:lt":"Odorheju Sekujeskas","alt_name:de":"Hofmarkt","kind_detail":"town","name:de":"Oderhellen","source":"openstreetmap.org","min_zoom":8.0,"name:la":"Areopolis","name:uk":"\u041e\u0434\u043e\u0440\u0445\u0435\u044e-\u0421\u0435\u043a\u0443\u0454\u0441\u043a","loc_name":"Odorhei","name:ru":"\u041e\u0434\u043e\u0440\u0445\u0435\u044e-\u0421\u0435\u043a\u0443\u0439\u0435\u0441\u043a","name:hu":"Sz\u00e9kelyudvarhely","id":380025514,"population":34275},"coordinates":[4045,981]},{"type":"Point","properties":{"kind":"locality","name":"Reghin","alt_name:de":"S\u00e4chsisch-Reen","kind_detail":"town","name:de":"S\u00e4chsisch-Regen","source":"openstreetmap.org","min_zoom":8.0,"name:uk":"\u0420\u0435\u0433\u0456\u043d","name:hu":"Sz\u00e1szr\u00e9gen","id":1563713053,"population":33281},"coordinates":[2309,2993]},{"type":"Point","properties":{"name:sr":"\u0421\u0435\u0433\u0435\u0448\u0432\u0430\u0440","name:lt":"Sigi\u0161oara","name:he":"\u05e1\u05d9\u05d2\u05d9\u05e9\u05d5\u05d0\u05e8\u05d4","min_zoom":8.0,"name:la":"Saxoburgum","name:uk":"\u0421\u0456\u0433\u0456\u0448\u043e\u0430\u0440\u0430","old_name":"Sch\u00e4\u00dfburg","name:ru":"\u0421\u0438\u0433\u0438\u0448\u043e\u0430\u0440\u0430","name:hu":"Segesv\u00e1r","id":59722301,"population":32570,"old_name:la":"Castrum Sex","kind":"locality","name":"Sighi\u0219oara","kind_detail":"city","name:de":"Sch\u00e4\u00dfburg","source":"openstreetmap.org"},"coordinates":[2585,612]},{"type":"Point","properties":{"kind":"locality","name":"T\u00e2rn\u0103veni","kind_detail":"town","name:de":"Sankt Martin","source":"openstreetmap.org","min_zoom":8.0,"name:uk":"\u0422\u0438\u0440\u043d\u0435\u0432\u0435\u043d\u0456","name:ru":"\u0422\u044b\u0440\u043d\u044d\u0432\u0435\u043d\u0438","name:hu":"Dics\u0151szentm\u00e1rton","id":118124309,"population":28634},"coordinates":[1101,1086]},{"type":"Point","properties":{"kind":"locality","name":"Gherla","alt_name:de":"Neuschloss","kind_detail":"town","name:de":"Armenierstadt","source":"openstreetmap.org","min_zoom":8.0,"name:la":"Armenopolis","name:ru":"\u0413\u0435\u0440\u043b\u0430","name:hu":"Szamos\u00fajv\u00e1r","id":128545214,"population":25284},"coordinates":[4,4048]},{"type":"Point","properties":{"kind":"locality","name":"Ludu\u0219","kind_detail":"town","name:he":"\u05dc\u05d5\u05d3\u05d5\u05e9","name:de":"Ludasch","source":"openstreetmap.org","min_zoom":8.0,"name:uk":"\u041b\u0443\u0434\u0443\u0448","name:hu":"Marosludas","id":118115828,"population":16000},"coordinates":[550,1737]},{"type":"Point","properties":{"kind":"locality","name":"Blaj","kind_detail":"town","name:de":"Blasendorf","source":"openstreetmap.org","min_zoom":8.0,"name:ru":"\u0411\u043b\u0430\u0436","name:hu":"Bal\u00e1zsfalva","id":422868211,"population":15714},"coordinates":[49,432]},{"type":"Point","properties":{"kind":"locality","name":"Cristuru Secuiesc","kind_detail":"town","name:de":"Szeklerkreuz","source":"openstreetmap.org","min_zoom":8.0,"name:uk":"\u041a\u0440\u0456\u0441\u0442\u0443\u0440\u0443-\u0421\u0435\u043a\u0443\u0454\u0441\u043a","name:hu":"Sz\u00e9kelykereszt\u00far","id":142180213,"population":9500},"coordinates":[3289,914]},{"type":"Point","properties":{"kind":"locality","name":"Sovata","kind_detail":"town","source":"openstreetmap.org","min_zoom":8.0,"name:uk":"\u0421\u043e\u0432\u0430\u0442\u0430","name:hu":"Szov\u00e1ta","id":116117145,"population":8935},"coordinates":[3399,2219]},{"type":"Point","properties":{"kind":"locality","old_name:de":"Eppeschdorf","name":"Dumbr\u0103veni","kind_detail":"town","old_name:hu":"Ebesfalva","name:de":"Elisabethstadt","source":"openstreetmap.org","min_zoom":8.0,"name:la":"Elisabethopolis","name:uk":"\u0414\u0443\u043c\u0431\u0440\u0435\u0432\u0435\u043d\u044c","old_name":"Iba\u0219fal\u0103u","name:hu":"Ebesfalva","id":114328005,"population":7203},"coordinates":[1950,640]},{"type":"Point","properties":{"kind":"locality","name":"Iernut","kind_detail":"town","name:de":"Radnuten","source":"openstreetmap.org","min_zoom":8.0,"name:ru":"\u0419\u0435\u0440\u043d\u0443\u0442","name:hu":"Radn\u00f3t","id":118117558,"population":5954},"coordinates":[945,1597]},{"type":"Point","properties":{"kind":"locality","name":"Cop\u0219a Mic\u0103","kind_detail":"town","name:de":"Kleinkopisch","source":"openstreetmap.org","min_zoom":8.0,"name:hu":"Kiskapus","id":114319885,"population":5332},"coordinates":[952,179]},{"type":"Point","properties":{"kind":"locality","name":"S\u00e2ngeorgiu de P\u0103dure","kind_detail":"town","name:de":"Sankt Georgen auf der Heide","source":"openstreetmap.org","min_zoom":8.0,"name:uk":"\u0421\u0438\u043d\u0434\u0436\u043e\u0440\u0434\u0436\u0443-\u0434\u0435-\u041f\u0435\u0434\u0443\u0440\u0435","name:hu":"Erd\u0151szentgy\u00f6rgy","id":460363548,"population":4794},"coordinates":[2726,1517]},{"type":"Point","properties":{"kind":"locality","name":"Miercurea Nirajului","kind_detail":"town","name:de":"Sereda","source":"openstreetmap.org","min_zoom":8.0,"name:uk":"\u041c'\u0454\u0440\u043a\u0443\u0440\u044f-\u041d\u0456\u0440\u0430\u0436\u0443\u043b\u0443\u0439","name:hu":"Ny\u00e1r\u00e1dszereda","id":269447504,"population":3902},"coordinates":[2603,1953]},{"type":"Point","properties":{"kind":"locality","name":"S\u0103rma\u0219u","kind_detail":"town","source":"openstreetmap.org","min_zoom":8.0,"name:hu":"Nagys\u00e1rm\u00e1s","id":460363437,"population":3780},"coordinates":[739,2881]},{"type":"Point","properties":{"kind":"locality","name":"Ungheni","kind_detail":"town","name:de":"Nyaradflu\u00df","source":"openstreetmap.org","min_zoom":8.0,"name:uk":"\u0423\u043d\u0433\u0435\u043d\u044c","old_name":"Nira\u0219teu","name:hu":"Ny\u00e1r\u00e1dt\u0151","id":306025882,"population":3731},"coordinates":[1603,1748]}]},"transit":{"type":"GeometryCollection","geometries":[{"type":"LineString","properties":{"kind":"train","name":"CFR line 300 Bucuresti - Episcopia Bihor","sort_rank":275,"source":"openstreetmap.org","min_zoom":6.0,"operator":"CFR","ref":"300","osm_relation":true},"arcs":[11]},{"type":"LineString","properties":{"kind":"train","name":"CFR 208","sort_rank":275,"source":"openstreetmap.org","min_zoom":6.0,"ref":"208","id":-7152020,"osm_relation":true},"arcs":[12]}]},"pois":{"type":"GeometryCollection","geometries":[{"type":"Point","properties":{"kind":"protected_area","protect_class":"97","area":2891580000,"source":"openstreetmap.org","min_zoom":7.0,"tier":2,"id":-2561748,"osm_relation":true,"name":"C\u0103limani - Gurghiu"},"coordinates":[3515,3570]}]},"boundaries":{"type":"GeometryCollection","geometries":[{"type":"LineString","properties":{"id:left":-2248660,"name:right:hu":"Brass\u00f3","name:right:ru":"\u0411\u0440\u0430\u0448\u043e\u0432","min_zoom":8.0,"name:left:ru":"\u0425\u0430\u0440\u0433\u0438\u0442\u0430","name:left:hu":"Hargita megye","id:right":-2248612,"id":-2248660,"osm_relation":true,"name:right":"Bra\u0219ov","kind":"region","name":"Harghita - Bra\u0219ov","sort_rank":256,"kind_detail":"4","source":"openstreetmap.org","name:right:de":"Kronstadt","name:left":"Harghita"},"arcs":[0]},{"type":"LineString","properties":{"id:left":-2248660,"name:right:hu":"Maros megye","name:right:ru":"\u041c\u0443\u0440\u0435\u0448","min_zoom":8.0,"name:left:ru":"\u0425\u0430\u0440\u0433\u0438\u0442\u0430","name:left:hu":"Hargita megye","id:right":-2248573,"id":-2248660,"osm_relation":true,"name:right":"Mure\u0219","kind":"region","name":"Harghita - Mure\u0219","sort_rank":256,"kind_detail":"4","source":"openstreetmap.org","name:right:de":"Mieresch","name:left":"Harghita"},"arcs":[1]},{"type":"LineString","properties":{"id:left":-2248660,"name:right:hu":"Maros megye","name:right:ru":"\u041c\u0443\u0440\u0435\u0448","min_zoom":8.0,"name:left:ru":"\u0425\u0430\u0440\u0433\u0438\u0442\u0430","name:left:hu":"Hargita megye","id:right":-2248573,"id":-2248660,"osm_relation":true,"name:right":"Mure\u0219","kind":"region","name":"Harghita - Mure\u0219","sort_rank":256,"kind_detail":"4","source":"openstreetmap.org","name:right:de":"Mieresch","name:left":"Harghita"},"arcs":[2]},{"type":"LineString","properties":{"name:right:hu":"Maros megye","name:right:ru":"\u041c\u0443\u0440\u0435\u0448","min_zoom":8.0,"name:left:ru":"\u0411\u0440\u0430\u0448\u043e\u0432","name:left:hu":"Brass\u00f3","id:right":-2248573,"id":-2248612,"osm_relation":true,"name:right":"Mure\u0219","kind":"region","name":"Bra\u0219ov - Mure\u0219","sort_rank":256,"kind_detail":"4","name:left:de":"Kronstadt","source":"openstreetmap.org","name:right:de":"Mieresch","id:left":-2248612,"name:left":"Bra\u0219ov"},"arcs":[3]},{"type":"LineString","properties":{"kind":"region","name":"Bra\u0219ov","sort_rank":256,"kind_detail":"4","name:de":"Kronstadt","source":"openstreetmap.org","min_zoom":8.0,"name:ru":"\u0411\u0440\u0430\u0448\u043e\u0432","name:hu":"Brass\u00f3","id":-2248612,"osm_relation":true},"arcs":[4]},{"type":"LineString","properties":{"name:right:la":"Claudianopolis","id:left":-2248573,"name:right:hu":"Kolozsv\u00e1r","name:right:ru":"\u041a\u043b\u0443\u0436","min_zoom":8.0,"name:left:ru":"\u041c\u0443\u0440\u0435\u0448","name:left:hu":"Maros megye","id:right":-91733,"id":-2248573,"osm_relation":true,"name:right":"Cluj","kind":"region","name":"Mure\u0219 - Cluj","sort_rank":256,"kind_detail":"4","name:left:de":"Mieresch","source":"openstreetmap.org","name:right:de":"Klausenburg","name:left":"Mure\u0219"},"arcs":[5]},{"type":"LineString","properties":{"name:right:la":"Claudianopolis","id:left":-2248573,"name:right:hu":"Kolozsv\u00e1r","name:right:ru":"\u041a\u043b\u0443\u0436","min_zoom":8.0,"name:left:ru":"\u041c\u0443\u0440\u0435\u0448","name:left:hu":"Maros megye","id:right":-91733,"id":-2248573,"osm_relation":true,"name:right":"Cluj","kind":"region","name":"Mure\u0219 - Cluj","sort_rank":256,"kind_detail":"4","name:left:de":"Mieresch","source":"openstreetmap.org","name:right:de":"Klausenburg","name:left":"Mure\u0219"},"arcs":[6]},{"type":"LineString","properties":{"name:right:hu":"Beszterce-Nasz\u00f3d megye","name:right:ru":"\u0411\u0438\u0441\u0442\u0440\u0438\u0446\u0430-\u041d\u044d\u0441\u044d\u0443\u0434","min_zoom":8.0,"name:left:ru":"\u041c\u0443\u0440\u0435\u0448","name:left:hu":"Maros megye","id:right":-55466,"id":-2248573,"osm_relation":true,"name:right":"Bistri\u021ba-N\u0103s\u0103ud","kind":"region","name":"Mure\u0219 - Bistri\u021ba-N\u0103s\u0103ud","sort_rank":256,"kind_detail":"4","name:left:de":"Mieresch","source":"openstreetmap.org","name:right:de":"Bistritz-Nussdorf","id:left":-2248573,"name:left":"Mure\u0219"},"arcs":[7]},{"type":"LineString","properties":{"kind":"region","name":"Mure\u0219","sort_rank":256,"kind_detail":"4","name:de":"Mieresch","source":"openstreetmap.org","min_zoom":8.0,"name:ru":"\u041c\u0443\u0440\u0435\u0448","name:hu":"Maros megye","id":-2248573,"osm_relation":true},"arcs":[8]},{"type":"LineString","properties":{"name:left:la":"Claudianopolis","id:left":-91733,"name:right:hu":"Beszterce-Nasz\u00f3d megye","name:right:ru":"\u0411\u0438\u0441\u0442\u0440\u0438\u0446\u0430-\u041d\u044d\u0441\u044d\u0443\u0434","min_zoom":8.0,"name:left:ru":"\u041a\u043b\u0443\u0436","name:left:hu":"Kolozsv\u00e1r","id:right":-55466,"id":-91733,"osm_relation":true,"name:right":"Bistri\u021ba-N\u0103s\u0103ud","kind":"region","name":"Cluj - Bistri\u021ba-N\u0103s\u0103ud","sort_rank":256,"kind_detail":"4","name:left:de":"Klausenburg","source":"openstreetmap.org","name:right:de":"Bistritz-Nussdorf","name:left":"Cluj"},"arcs":[9]},{"type":"LineString","properties":{"kind":"region","name":"Cluj","sort_rank":256,"kind_detail":"4","name:de":"Klausenburg","source":"openstreetmap.org","min_zoom":8.0,"name:la":"Claudianopolis","name:ru":"\u041a\u043b\u0443\u0436","name:hu":"Kolozsv\u00e1r","id":-91733,"osm_relation":true},"arcs":[10]}]},"roads":{"type":"GeometryCollection","geometries":[{"type":"LineString","properties":{"kind":"major_road","network":"DN","sort_rank":380,"kind_detail":"primary","source":"openstreetmap.org","min_zoom":8.0,"landuse_kind":"urban_area","shield_text":"13A","id":377462275},"arcs":[13]},{"type":"LineString","properties":{"kind":"path","sort_rank":354,"kind_detail":"track","is_bicycle_related":true,"bicycle_shield_text":"Fa\u021b\u0103 de Mure\u0219","bicycle_network":"ncn","source":"openstreetmap.org","min_zoom":8.0,"landuse_kind":"urban_area","id":221441447},"arcs":[14]},{"type":"LineString","properties":{"kind":"major_road","network":"DN","sort_rank":380,"kind_detail":"primary","source":"openstreetmap.org","min_zoom":8.0,"landuse_kind":"urban_area","shield_text":"13A","name:hu":"Villanytelep utca","ref":"DN13A","id":27532754},"arcs":[15]},{"type":"MultiLineString","properties":{"bus_network":null,"name:hu":"Erd\u00e9ly \u00fat","network":"DN","sort_rank":380,"kind_detail":"primary","kind":"major_road","source":"openstreetmap.org","min_zoom":8.0,"bus_shield_text":"5","shield_text":"15","landuse_kind":"residential","ref":"DN15"},"arcs":[[16],[17]]},{"type":"LineString","properties":{"kind":"major_road","network":"DN","sort_rank":380,"kind_detail":"primary","source":"openstreetmap.org","min_zoom":8.0,"landuse_kind":"urban_area","shield_text":"15E","ref":"DN15E"},"arcs":[18]},{"type":"LineString","properties":{"kind":"major_road","sort_rank":380,"kind_detail":"primary","bus_network":null,"source":"openstreetmap.org","min_zoom":8.0,"bus_shield_text":"2b","landuse_kind":"residential","name:hu":"K\u00f6zt\u00e1rsas\u00e1g utca","ref":"DN15","id":173491413},"arcs":[19]},{"type":"LineString","properties":{"kind":"major_road","sort_rank":379,"kind_detail":"secondary","is_bicycle_related":true,"bicycle_shield_text":"Fa\u021b\u0103 de Mure\u0219","bicycle_network":"ncn","source":"openstreetmap.org","min_zoom":8.0,"ref":"DJ152A"},"arcs":[20]},{"type":"LineString","properties":{"kind":"major_road","network":"DN","sort_rank":380,"kind_detail":"primary","source":"openstreetmap.org","min_zoom":8.0,"landuse_kind":"urban_area","shield_text":"13A","name:hu":"Tompa L\u00e1szl\u00f3 utca;Orban Bal\u00e1zs utca","ref":"DN13A","id":42300327},"arcs":[21]},{"type":"LineString","properties":{"kind":"major_road","network":"DN","sort_rank":381,"landuse_kind":"urban_area","source":"openstreetmap.org","min_zoom":8.0,"kind_detail":"trunk","shield_text":"15"},"arcs":[22]},{"type":"LineString","properties":{"kind":"major_road","sort_rank":377,"kind_detail":"tertiary","is_bicycle_related":true,"bicycle_shield_text":"Fa\u021b\u0103 de Mure\u0219","bicycle_network":"ncn","source":"openstreetmap.org","min_zoom":8.0,"ref":"DC121"},"arcs":[23]},{"type":"MultiLineString","properties":{"source":"openstreetmap.org","kind":"major_road","network":"DN","sort_rank":381,"kind_detail":"trunk","min_zoom":8.0,"shield_text":"15"},"arcs":[[24],[25],[26],[27],[28],[29],[30],[31],[32],[33],[34],[35],[36],[37],[38],[39],[40],[41]]},{"type":"MultiLineString","properties":{"kind":"major_road","network":"DN","sort_rank":381,"kind_detail":"trunk","source":"openstreetmap.org","min_zoom":8.0,"shield_text":"15A","ref":"DN15A"},"arcs":[[42],[43],[44],[45],[46],[47],[48],[49],[50]]},{"type":"MultiLineString","properties":{"kind":"major_road","network":"DN","sort_rank":380,"kind_detail":"primary","source":"openstreetmap.org","min_zoom":8.0,"landuse_kind":"residential","shield_text":"14","ref":"DN14"},"arcs":[[51],[52],[53]]},{"type":"LineString","properties":{"kind":"major_road","network":"DN","sort_rank":381,"kind_detail":"trunk","bus_network":null,"source":"openstreetmap.org","min_zoom":8.0,"bus_shield_text":"26","shield_text":"13","ref":"DN13","id":288195080},"arcs":[54]},{"type":"LineString","properties":{"sort_rank":380,"kind_detail":"primary","min_zoom":8.0,"kind":"major_road","source":"openstreetmap.org"},"arcs":[55]},{"type":"LineString","properties":{"source":"openstreetmap.org","kind":"major_road","landuse_kind":"residential","sort_rank":380,"kind_detail":"primary","ref":"DJ154A","min_zoom":8.0},"arcs":[56]},{"type":"MultiLineString","properties":{"bus_network":null,"sort_rank":380,"kind_detail":"primary","kind":"major_road","source":"openstreetmap.org","min_zoom":8.0,"bus_shield_text":"2b","landuse_kind":"residential","ref":"DN15"},"arcs":[[57],[58]]},{"type":"MultiLineString","properties":{"kind":"path","sort_rank":354,"landuse_kind":"urban_area","is_bicycle_related":true,"bicycle_shield_text":"Fa\u021b\u0103 de Mure\u0219","bicycle_network":"ncn","source":"openstreetmap.org","min_zoom":8.0,"kind_detail":"path"},"arcs":[[59],[60],[61]]},{"type":"MultiLineString","properties":{"kind":"major_road","network":"RO:DN","sort_rank":380,"kind_detail":"primary","is_bicycle_related":true,"source":"openstreetmap.org","min_zoom":8.0,"shield_text":"14B","ref":"DN14B"},"arcs":[[62],[63],[64]]},{"type":"LineString","properties":{"kind":"major_road","network":"e-road","sort_rank":380,"landuse_kind":"residential","bus_network":null,"source":"openstreetmap.org","min_zoom":8.0,"bus_shield_text":"26","shield_text":"60","kind_detail":"primary","name:hu":"1918 December 1 sug\u00e1r\u00fat","ref":"DN13","id":236473923},"arcs":[65]},{"type":"LineString","properties":{"bus_network":null,"network":"DN","sort_rank":380,"landuse_kind":"residential","kind":"major_road","source":"openstreetmap.org","min_zoom":8.0,"bus_shield_text":"4","shield_text":"15E","kind_detail":"primary","name:hu":"Tisza utca","ref":"DN15E","id":144270040},"arcs":[66]},{"type":"LineString","properties":{"kind":"minor_road","sort_rank":360,"kind_detail":"unclassified","is_bicycle_related":true,"bicycle_shield_text":"Fa\u021b\u0103 de Mure\u0219","bicycle_network":"ncn","source":"openstreetmap.org","min_zoom":8.0,"landuse_kind":"urban_area","id":188359807},"arcs":[67]},{"type":"LineString","properties":{"kind":"major_road","network":"DN","sort_rank":380,"kind_detail":"primary","bus_network":null,"source":"openstreetmap.org","min_zoom":8.0,"bus_shield_text":"4","shield_text":"15E","landuse_kind":"residential","ref":"DN15E","id":31108655},"arcs":[68]},{"type":"MultiLineString","properties":{"bus_network":null,"name:hu":"D\u00f3zsa Gy\u00f6rgy utca","network":"DN","sort_rank":380,"kind_detail":"primary","kind":"major_road","source":"openstreetmap.org","min_zoom":8.0,"bus_shield_text":"4","shield_text":"15","landuse_kind":"residential","ref":"DN15"},"arcs":[[69],[70],[71],[72],[73]]},{"type":"MultiLineString","properties":{"kind":"major_road","network":"DN","sort_rank":381,"kind_detail":"trunk","source":"openstreetmap.org","min_zoom":8.0,"landuse_kind":"residential","shield_text":"13","ref":"DN13"},"arcs":[[74],[75]]},{"type":"LineString","properties":{"kind":"major_road","network":"DN","sort_rank":380,"kind_detail":"primary","source":"openstreetmap.org","min_zoom":8.0,"shield_text":"13A","name:hu":"Strada D\u00f3zsa Gy\u00f6rgy","ref":"DN13A","id":5183652},"arcs":[76]},{"type":"MultiLineString","properties":{"bus_network":null,"sort_rank":380,"kind_detail":"primary","kind":"major_road","source":"openstreetmap.org","min_zoom":8.0,"bus_shield_text":"4","landuse_kind":"residential"},"arcs":[[77],[78],[79]]},{"type":"LineString","properties":{"bus_network":null,"network":"DN","sort_rank":380,"landuse_kind":"residential","kind":"major_road","source":"openstreetmap.org","min_zoom":8.0,"bus_shield_text":"2b","shield_text":"15","kind_detail":"primary","name:hu":"R\u00f3zs\u00e1k tere","ref":"DN15","id":140562032},"arcs":[80]},{"type":"LineString","properties":{"kind":"major_road","network":"DN","sort_rank":380,"kind_detail":"primary","bus_network":null,"source":"openstreetmap.org","min_zoom":8.0,"bus_shield_text":"44","shield_text":"13","landuse_kind":"residential","id":77392765},"arcs":[81]},{"type":"LineString","properties":{"kind":"major_road","network":"DN","sort_rank":380,"kind_detail":"primary","source":"openstreetmap.org","min_zoom":8.0,"landuse_kind":"urban_area","shield_text":"15","name:hu":"D\u00f3zsa Gy\u00f6rgy utca","ref":"DN15","id":182517099},"arcs":[82]},{"type":"LineString","properties":{"kind":"major_road","network":"DN","sort_rank":381,"kind_detail":"trunk","source":"openstreetmap.org","min_zoom":8.0,"landuse_kind":"residential","shield_text":"16","ref":"DN16"},"arcs":[83]},{"type":"MultiLineString","properties":{"kind":"path","sort_rank":354,"landuse_kind":"residential","is_bicycle_related":true,"bicycle_shield_text":"Fa\u021b\u0103 de Mure\u0219","bicycle_network":"ncn","source":"openstreetmap.org","min_zoom":8.0,"kind_detail":"path"},"arcs":[[84],[85]]},{"type":"MultiLineString","properties":{"kind":"major_road","network":"DN","sort_rank":380,"kind_detail":"primary","source":"openstreetmap.org","min_zoom":8.0,"landuse_kind":"urban_area","shield_text":"13A","ref":"DN13A"},"arcs":[[86],[87],[88],[89],[90],[91],[92],[93],[94],[95],[96],[97]]},{"type":"LineString","properties":{"bus_network":null,"landuse_kind":"residential","network":"DN","sort_rank":380,"kind_detail":"primary","kind":"major_road","source":"openstreetmap.org","min_zoom":8.0,"bus_shield_text":"2b","shield_text":"15","name:hu":"K\u00f6zt\u00e1rsas\u00e1g utca","ref":"DN15"},"arcs":[98]},{"type":"LineString","properties":{"kind":"major_road","sort_rank":380,"kind_detail":"primary","bus_network":null,"source":"openstreetmap.org","min_zoom":8.0,"bus_shield_text":"2b","landuse_kind":"residential","name:hu":"Forradalom utca","ref":"DN15","id":31531924},"arcs":[99]},{"type":"LineString","properties":{"kind":"major_road","network":"DN","sort_rank":380,"kind_detail":"primary","source":"openstreetmap.org","min_zoom":8.0,"shield_text":"13B","ref":"DN13B"},"arcs":[100]},{"type":"LineString","properties":{"cycleway_right":"lane","network":"DN","sort_rank":380,"kind_detail":"primary","is_bicycle_related":true,"kind":"major_road","source":"openstreetmap.org","min_zoom":8.0,"landuse_kind":"urban_area","shield_text":"13A","name:hu":"V\u00e1rosh\u00e1za t\u00e9r","id":27567696},"arcs":[101]},{"type":"LineString","properties":{"kind":"major_road","sort_rank":379,"kind_detail":"secondary","is_bicycle_related":true,"bicycle_shield_text":"Fa\u021b\u0103 de Mure\u0219","bicycle_network":"ncn","source":"openstreetmap.org","min_zoom":8.0,"ref":"DJ153B"},"arcs":[102]},{"type":"LineString","properties":{"kind":"major_road","network":"DN","sort_rank":380,"kind_detail":"primary","source":"openstreetmap.org","min_zoom":8.0,"shield_text":"16","ref":"DN16"},"arcs":[103]},{"type":"MultiLineString","properties":{"kind":"major_road","network":"DN","sort_rank":381,"landuse_kind":"urban_area","source":"openstreetmap.org","min_zoom":8.0,"kind_detail":"trunk","shield_text":"15","ref":"DN15"},"arcs":[[104],[105]]},{"type":"LineString","properties":{"kind":"major_road","network":"DN","sort_rank":380,"kind_detail":"primary","source":"openstreetmap.org","min_zoom":8.0,"landuse_kind":"urban_area","shield_text":"13A","name:hu":"Tompa L\u00e1szl\u00f3 utca","ref":"DN13A","id":27533018},"arcs":[106]},{"type":"LineString","properties":{"bus_network":null,"network":"DN","sort_rank":380,"landuse_kind":"residential","kind":"major_road","source":"openstreetmap.org","min_zoom":8.0,"bus_shield_text":"4","shield_text":"15E","kind_detail":"primary","name:hu":"Szabadi \u00fat","ref":"DN15E","id":144270042},"arcs":[107]},{"type":"MultiLineString","properties":{"kind":"major_road","network":"DN","sort_rank":380,"kind_detail":"primary","source":"openstreetmap.org","min_zoom":8.0,"shield_text":"13A","ref":"DN13A"},"arcs":[[108],[109],[110],[111]]},{"type":"MultiLineString","properties":{"kind":"major_road","network":"DN","sort_rank":381,"kind_detail":"trunk","source":"openstreetmap.org","min_zoom":8.0,"landuse_kind":"urban_area","shield_text":"13","ref":"DN13","id":19575707},"arcs":[[112],[113]]},{"type":"MultiLineString","properties":{"kind":"path","sort_rank":354,"kind_detail":"track","is_bicycle_related":true,"bicycle_shield_text":"Fa\u021b\u0103 de Mure\u0219","bicycle_network":"ncn","source":"openstreetmap.org","min_zoom":8.0},"arcs":[[114],[115],[116],[117],[118],[119]]},{"type":"LineString","properties":{"kind":"major_road","network":"DN","sort_rank":380,"kind_detail":"primary","is_bicycle_related":true,"bicycle_shield_text":"Drumul S\u0103rii","bicycle_network":"rcn","source":"openstreetmap.org","min_zoom":8.0,"shield_text":"13A","name:hu":"F\u0151 utca","ref":"DN13A","id":175494766},"arcs":[120]},{"type":"MultiLineString","properties":{"kind":"major_road","network":"RO:DN","sort_rank":380,"kind_detail":"primary","source":"openstreetmap.org","min_zoom":8.0,"shield_text":"14B","ref":"DN14B"},"arcs":[[121],[122],[123],[124]]},{"type":"MultiLineString","properties":{"kind":"major_road","network":"DN","sort_rank":380,"kind_detail":"primary","source":"openstreetmap.org","min_zoom":8.0,"shield_text":"15","ref":"DN15"},"arcs":[[125],[126]]},{"type":"MultiLineString","properties":{"kind":"major_road","network":"DN","sort_rank":381,"kind_detail":"trunk","source":"openstreetmap.org","min_zoom":8.0,"landuse_kind":"residential","shield_text":"15","ref":"DN15"},"arcs":[[127],[128],[129],[130],[131],[132],[133],[134],[135],[136]]},{"type":"MultiLineString","properties":{"bus_network":null,"network":"e-road","sort_rank":380,"kind_detail":"primary","kind":"major_road","source":"openstreetmap.org","min_zoom":8.0,"bus_shield_text":"17","shield_text":"60","landuse_kind":"residential"},"arcs":[[137],[138]]},{"type":"LineString","properties":{"kind":"major_road","sort_rank":380,"kind_detail":"primary","bus_network":null,"source":"openstreetmap.org","min_zoom":8.0,"bus_shield_text":"5","landuse_kind":"residential","ref":"DN15","id":356107051},"arcs":[139]},{"type":"MultiLineString","properties":{"kind":"path","sort_rank":354,"landuse_kind":"residential","is_bicycle_related":true,"bicycle_shield_text":null,"bicycle_network":"ncn","source":"openstreetmap.org","min_zoom":8.0,"kind_detail":"track"},"arcs":[[140],[141],[142],[143]]},{"type":"LineString","properties":{"kind":"major_road","network":"DN","sort_rank":380,"kind_detail":"primary","source":"openstreetmap.org","min_zoom":8.0,"landuse_kind":"urban_area","shield_text":"13A","name:hu":"Orb\u00e1n Bal\u00e1zs utca","ref":"DN13A","id":24264502},"arcs":[144]},{"type":"MultiLineString","properties":{"kind":"major_road","network":"DN","sort_rank":380,"kind_detail":"primary","source":"openstreetmap.org","min_zoom":8.0,"landuse_kind":"urban_area","shield_text":"14","ref":"DN14"},"arcs":[[145],[146],[147],[148]]},{"type":"MultiLineString","properties":{"bus_network":null,"name:hu":"Lovass\u00e1g utca","sort_rank":380,"kind_detail":"primary","kind":"major_road","source":"openstreetmap.org","min_zoom":8.0,"bus_shield_text":"4","landuse_kind":"residential","ref":"DN15E"},"arcs":[[149],[150]]},{"type":"LineString","properties":{"kind":"major_road","sort_rank":380,"kind_detail":"primary","bus_network":null,"source":"openstreetmap.org","min_zoom":8.0,"bus_shield_text":"14","landuse_kind":"residential","id":370060416},"arcs":[151]},{"type":"MultiLineString","properties":{"kind":"major_road","network":"DN","sort_rank":380,"kind_detail":"primary","source":"openstreetmap.org","min_zoom":8.0,"landuse_kind":"residential","shield_text":"15","name:hu":"D\u00f3zsa Gy\u00f6rgy utca","ref":"DN15"},"arcs":[[152],[153]]},{"type":"MultiLineString","properties":{"kind":"major_road","network":"DN","sort_rank":381,"kind_detail":"trunk","source":"openstreetmap.org","min_zoom":8.0,"shield_text":"15","ref":"DN15"},"arcs":[[154],[155],[156],[157],[158],[159]]},{"type":"LineString","properties":{"source":"openstreetmap.org","kind":"major_road","sort_rank":381,"kind_detail":"trunk","ref":"proposed","min_zoom":8.0,"id":389672392},"arcs":[160]},{"type":"LineString","properties":{"kind":"major_road","network":"DN","sort_rank":380,"kind_detail":"primary","is_bicycle_related":true,"bicycle_shield_text":"Drumul S\u0103rii","bicycle_network":"rcn","source":"openstreetmap.org","min_zoom":8.0,"shield_text":"13A","name:hu":"Tavasz utca","ref":"DN13A"},"arcs":[161]},{"type":"LineString","properties":{"kind":"major_road","network":"DN","sort_rank":380,"kind_detail":"primary","source":"openstreetmap.org","min_zoom":8.0,"shield_text":"13A","name:hu":"Bethlenfalvi \u00fat","ref":"DN13A"},"arcs":[162]},{"type":"MultiLineString","properties":{"kind":"major_road","network":"DN","sort_rank":380,"kind_detail":"primary","source":"openstreetmap.org","min_zoom":8.0,"shield_text":"14","ref":"DN14"},"arcs":[[163],[164],[165],[166]]},{"type":"MultiLineString","properties":{"bus_network":null,"name:hu":"D\u00f3zsa Gy\u00f6rgy utca","network":"DN","sort_rank":380,"kind_detail":"primary","kind":"major_road","source":"openstreetmap.org","min_zoom":8.0,"bus_shield_text":"4","shield_text":"15","landuse_kind":"urban_area","ref":"DN15"},"arcs":[[167],[168],[169],[170],[171]]},{"type":"LineString","properties":{"kind":"major_road","sort_rank":380,"kind_detail":"primary","bus_network":null,"source":"openstreetmap.org","min_zoom":8.0,"bus_shield_text":"2b","landuse_kind":"residential","name:hu":"R\u00f3zs\u00e1k tere","id":35145673},"arcs":[172]},{"type":"MultiLineString","properties":{"kind":"major_road","network":"DN","sort_rank":380,"kind_detail":"primary","source":"openstreetmap.org","min_zoom":8.0,"landuse_kind":"residential","shield_text":"15","ref":"DN15"},"arcs":[[173],[174],[175],[176],[177],[178],[179],[180],[181],[182],[183],[184],[185],[186],[187],[188],[189],[190]]},{"type":"MultiLineString","properties":{"kind":"major_road","network":"DN","sort_rank":380,"kind_detail":"primary","source":"openstreetmap.org","min_zoom":8.0,"shield_text":"13C","ref":"DN13C"},"arcs":[[191],[192]]},{"type":"LineString","properties":{"kind":"major_road","network":"DN","sort_rank":380,"kind_detail":"primary","bus_network":null,"source":"openstreetmap.org","min_zoom":8.0,"bus_shield_text":"4","shield_text":"15","landuse_kind":"residential","ref":"DN15","id":35145675},"arcs":[193]},{"type":"LineString","properties":{"bus_network":null,"name:hu":"Petki D\u00e1vid utca","network":"DN","sort_rank":380,"kind_detail":"primary","kind":"major_road","source":"openstreetmap.org","min_zoom":8.0,"bus_shield_text":"5","shield_text":"15","landuse_kind":"residential","ref":"DN15"},"arcs":[194]},{"type":"LineString","properties":{"kind":"major_road","network":"DN","sort_rank":380,"kind_detail":"primary","bus_network":null,"source":"openstreetmap.org","min_zoom":8.0,"bus_shield_text":"5","shield_text":"15","name:hu":"Erd\u00e9ly \u00fat","ref":"DN15","id":80279685},"arcs":[195]},{"type":"LineString","properties":{"kind":"major_road","network":"DN","sort_rank":380,"kind_detail":"primary","source":"openstreetmap.org","min_zoom":8.0,"shield_text":"13C","name:hu":"Berde M\u00f3zes utca","ref":"DN13C"},"arcs":[196]},{"type":"MultiLineString","properties":{"bus_network":null,"name:hu":"D\u00f3zsa Gy\u00f6rgy utca","network":"DN","sort_rank":380,"kind_detail":"primary","kind":"major_road","source":"openstreetmap.org","min_zoom":8.0,"bus_shield_text":"4","shield_text":"15","landuse_kind":"urban_area"},"arcs":[[197],[198]]},{"type":"LineString","properties":{"kind":"major_road","network":"DN","sort_rank":380,"kind_detail":"primary","source":"openstreetmap.org","min_zoom":8.0,"shield_text":"15E","ref":"DN15E"},"arcs":[199]},{"type":"MultiLineString","properties":{"kind":"minor_road","sort_rank":360,"kind_detail":"unclassified","is_bicycle_related":true,"bicycle_shield_text":"Fa\u021b\u0103 de Mure\u0219","bicycle_network":"ncn","source":"openstreetmap.org","min_zoom":8.0},"arcs":[[200],[201]]},{"type":"MultiLineString","properties":{"bus_network":null,"network":"DN","sort_rank":380,"kind_detail":"primary","kind":"major_road","source":"openstreetmap.org","min_zoom":8.0,"bus_shield_text":"12","shield_text":"13","landuse_kind":"residential"},"arcs":[[202],[203]]},{"type":"MultiLineString","properties":{"kind":"path","sort_rank":354,"kind_detail":"path","is_bicycle_related":true,"bicycle_shield_text":"Fa\u021b\u0103 de Mure\u0219","bicycle_network":"ncn","source":"openstreetmap.org","min_zoom":8.0},"arcs":[[204],[205],[206],[207]]},{"type":"LineString","properties":{"kind":"major_road","network":"DN","sort_rank":380,"kind_detail":"primary","source":"openstreetmap.org","min_zoom":8.0,"landuse_kind":"urban_area","shield_text":"15","ref":"DN15"},"arcs":[208]},{"type":"LineString","properties":{"bus_network":null,"name:hu":"Decebal utca","sort_rank":380,"kind_detail":"primary","kind":"major_road","source":"openstreetmap.org","min_zoom":8.0,"bus_shield_text":"4","landuse_kind":"residential"},"arcs":[209]},{"type":"LineString","properties":{"bus_network":null,"network":"DN","sort_rank":380,"landuse_kind":"residential","kind":"major_road","source":"openstreetmap.org","min_zoom":8.0,"bus_shield_text":"4","shield_text":"15","kind_detail":"primary","name:hu":"R\u00f3zs\u00e1k tere","ref":"DN15","id":23051423},"arcs":[210]},{"type":"LineString","properties":{"kind":"major_road","network":"DN","sort_rank":381,"kind_detail":"trunk","source":"openstreetmap.org","min_zoom":8.0,"landuse_kind":"urban_area","shield_text":"16","ref":"DN16","id":24262183},"arcs":[211]},{"type":"LineString","properties":{"kind":"major_road","network":"DN","sort_rank":380,"kind_detail":"primary","source":"openstreetmap.org","min_zoom":8.0,"landuse_kind":"urban_area","shield_text":"15"},"arcs":[212]},{"type":"MultiLineString","properties":{"source":"openstreetmap.org","kind":"highway","sort_rank":383,"kind_detail":"motorway","ref":"A3","min_zoom":8.0},"arcs":[[213],[214]]},{"type":"MultiLineString","properties":{"kind":"major_road","network":"DN","sort_rank":380,"kind_detail":"primary","is_bicycle_related":true,"bicycle_shield_text":"Drumul S\u0103rii","bicycle_network":"rcn","source":"openstreetmap.org","min_zoom":8.0,"shield_text":"13A","ref":"DN13A"},"arcs":[[215],[216]]},{"type":"MultiLineString","properties":{"kind":"major_road","sort_rank":379,"kind_detail":"secondary","is_bicycle_related":true,"bicycle_shield_text":null,"bicycle_network":"ncn","source":"openstreetmap.org","min_zoom":8.0,"ref":"DJ107G"},"arcs":[[217],[218]]},{"type":"LineString","properties":{"kind":"major_road","sort_rank":380,"kind_detail":"primary","bus_network":null,"source":"openstreetmap.org","min_zoom":8.0,"bus_shield_text":"2b","landuse_kind":"residential","name:hu":"1989 December 22 sug\u00e1r\u00fat","ref":"DN15","id":173491371},"arcs":[219]},{"type":"LineString","properties":{"kind":"major_road","network":"DN","sort_rank":380,"kind_detail":"primary","source":"openstreetmap.org","min_zoom":8.0,"landuse_kind":"urban_area","shield_text":"13A","name:hu":"Tam\u00e1si \u00c1ron utca","ref":"DN13A","id":31743018},"arcs":[220]},{"type":"LineString","properties":{"bus_network":null,"network":"DN","sort_rank":380,"kind_detail":"primary","kind":"major_road","source":"openstreetmap.org","min_zoom":8.0,"bus_shield_text":"17","shield_text":"15","landuse_kind":"residential"},"arcs":[221]},{"type":"MultiLineString","properties":{"kind":"major_road","sort_rank":377,"kind_detail":"tertiary","is_bicycle_related":true,"bicycle_shield_text":"Fa\u021b\u0103 de Mure\u0219","bicycle_network":"ncn","source":"openstreetmap.org","min_zoom":8.0,"ref":"DC120"},"arcs":[[222],[223]]},{"type":"LineString","properties":{"bus_network":null,"network":"DN","sort_rank":380,"landuse_kind":"residential","kind":"major_road","source":"openstreetmap.org","min_zoom":8.0,"bus_shield_text":"5","shield_text":"15","kind_detail":"primary","name:hu":"Forradalom utca","ref":"DN15","id":139515112},"arcs":[224]},{"type":"MultiLineString","properties":{"source":"openstreetmap.org","kind":"major_road","landuse_kind":"residential","sort_rank":380,"kind_detail":"primary","ref":"DN15","min_zoom":8.0},"arcs":[[225],[226],[227]]},{"type":"LineString","properties":{"kind":"major_road","network":"DN","sort_rank":380,"kind_detail":"primary","source":"openstreetmap.org","min_zoom":8.0,"landuse_kind":"urban_area","shield_text":"13A","name:hu":"Bethlenfalvi \u00fat","ref":"DN13A","id":435626500},"arcs":[228]},{"type":"LineString","properties":{"bus_network":null,"network":"e-road","sort_rank":380,"landuse_kind":"residential","kind":"major_road","source":"openstreetmap.org","min_zoom":8.0,"bus_shield_text":"12","shield_text":"60","kind_detail":"primary","name:hu":"1918 December 1 sug\u00e1r\u00fat","ref":"DN13","id":236473924},"arcs":[229]},{"type":"LineString","properties":{"kind":"major_road","network":"DN","sort_rank":380,"kind_detail":"primary","source":"openstreetmap.org","min_zoom":8.0,"landuse_kind":"urban_area","shield_text":"14A","ref":"DN14A"},"arcs":[230]},{"type":"LineString","properties":{"kind":"major_road","sort_rank":377,"kind_detail":"tertiary","is_bicycle_related":true,"bicycle_shield_text":"Fa\u021b\u0103 de Mure\u0219","bicycle_network":"ncn","source":"openstreetmap.org","min_zoom":8.0,"ref":"DC126","id":282794147},"arcs":[231]},{"type":"LineString","properties":{"kind":"major_road","sort_rank":380,"kind_detail":"primary","bus_network":null,"source":"openstreetmap.org","min_zoom":8.0,"bus_shield_text":"4","landuse_kind":"residential","ref":"DN15","id":42956736},"arcs":[232]},{"type":"LineString","properties":{"kind":"major_road","network":"DN","sort_rank":380,"kind_detail":"primary","source":"openstreetmap.org","min_zoom":8.0,"shield_text":"13A","id":5183651},"arcs":[233]},{"type":"MultiLineString","properties":{"bus_network":null,"network":"DN","sort_rank":380,"kind_detail":"primary","kind":"major_road","source":"openstreetmap.org","min_zoom":8.0,"bus_shield_text":"4","shield_text":"15E","landuse_kind":"residential"},"arcs":[[234],[235]]},{"type":"LineString","properties":{"kind":"major_road","sort_rank":377,"kind_detail":"tertiary","is_bicycle_related":true,"bicycle_shield_text":null,"bicycle_network":"ncn","source":"openstreetmap.org","min_zoom":8.0,"ref":"DC119"},"arcs":[236]},{"type":"MultiLineString","properties":{"kind":"path","sort_rank":354,"kind_detail":"track","is_bicycle_related":true,"bicycle_shield_text":null,"bicycle_network":"ncn","source":"openstreetmap.org","min_zoom":8.0},"arcs":[[237],[238],[239],[240],[241],[242],[243],[244]]},{"type":"MultiLineString","properties":{"source":"openstreetmap.org","kind":"major_road","landuse_kind":"residential","sort_rank":380,"kind_detail":"primary","min_zoom":8.0},"arcs":[[245],[246],[247],[248],[249],[250],[251],[252],[253],[254],[255],[256],[257],[258],[259],[260],[261],[262],[263],[264],[265],[266],[267],[268],[269]]},{"type":"LineString","properties":{"kind":"major_road","network":"DN","sort_rank":380,"kind_detail":"primary","source":"openstreetmap.org","min_zoom":8.0,"shield_text":"13A","name:hu":"Orb\u00e1n Bal\u00e1zs utca","ref":"DN13A"},"arcs":[270]},{"type":"LineString","properties":{"kind":"major_road","sort_rank":380,"kind_detail":"primary","bus_network":null,"source":"openstreetmap.org","min_zoom":8.0,"bus_shield_text":"4","landuse_kind":"residential","name:hu":"Decebal utca","ref":"DN15E","id":144270037},"arcs":[271]},{"type":"LineString","properties":{"bus_network":null,"landuse_kind":"residential","network":"DN","sort_rank":380,"kind_detail":"primary","kind":"major_road","source":"openstreetmap.org","min_zoom":8.0,"bus_shield_text":"2b","shield_text":"15","name:hu":"1989 December 22 sug\u00e1r\u00fat","ref":"DN15"},"arcs":[272]},{"type":"MultiLineString","properties":{"kind":"major_road","network":"DN","sort_rank":380,"kind_detail":"primary","source":"openstreetmap.org","min_zoom":8.0,"shield_text":"14A","ref":"DN14A"},"arcs":[[273],[274],[275]]},{"type":"LineString","properties":{"kind":"major_road","network":"DN","sort_rank":381,"kind_detail":"trunk","is_bicycle_related":true,"bicycle_shield_text":null,"bicycle_network":"ncn","source":"openstreetmap.org","min_zoom":8.0,"landuse_kind":"residential","shield_text":"15","ref":"DN15","id":220859038},"arcs":[276]},{"type":"MultiLineString","properties":{"bus_network":null,"network":"DN","sort_rank":380,"kind_detail":"primary","kind":"major_road","source":"openstreetmap.org","min_zoom":8.0,"bus_shield_text":"6","shield_text":"13","landuse_kind":"residential"},"arcs":[[277],[278]]},{"type":"MultiLineString","properties":{"kind":"minor_road","sort_rank":360,"landuse_kind":"residential","is_bicycle_related":true,"bicycle_shield_text":null,"bicycle_network":"ncn","source":"openstreetmap.org","min_zoom":8.0,"kind_detail":"residential"},"arcs":[[279],[280]]},{"type":"MultiLineString","properties":{"kind":"major_road","network":"DN","sort_rank":381,"landuse_kind":"protected_area","source":"openstreetmap.org","min_zoom":8.0,"kind_detail":"trunk","shield_text":"15"},"arcs":[[281],[282],[283],[284],[285],[286],[287],[288],[289],[290],[291],[292],[293],[294]]},{"type":"LineString","properties":{"bus_network":null,"network":"DN","sort_rank":380,"landuse_kind":"residential","kind":"major_road","source":"openstreetmap.org","min_zoom":8.0,"bus_shield_text":"2b","shield_text":"15","kind_detail":"primary","name:hu":"Gy\u0151zelem t\u00e9r","ref":"DN15","id":139533545},"arcs":[295]},{"type":"MultiLineString","properties":{"bus_network":null,"network":"DN","sort_rank":381,"landuse_kind":"urban_area","kind":"major_road","source":"openstreetmap.org","min_zoom":8.0,"bus_shield_text":"26","shield_text":"13","kind_detail":"trunk","ref":"DN13"},"arcs":[[296],[297],[298]]},{"type":"MultiLineString","properties":{"kind":"major_road","network":"DN","sort_rank":380,"kind_detail":"primary","source":"openstreetmap.org","min_zoom":8.0,"landuse_kind":"urban_area","shield_text":"13A","name:hu":"Bethlen G\u00e1bor utca","ref":"DN13A"},"arcs":[[299],[300]]},{"type":"LineString","properties":{"kind":"major_road","network":"DN","sort_rank":380,"kind_detail":"primary","source":"openstreetmap.org","min_zoom":8.0,"landuse_kind":"urban_area","shield_text":"13A","name:hu":"V\u00e1rosh\u00e1za t\u00e9r","ref":"DN13A","id":110918720},"arcs":[301]},{"type":"MultiLineString","properties":{"kind":"minor_road","sort_rank":360,"kind_detail":"residential","is_bicycle_related":true,"bicycle_shield_text":"Fa\u021b\u0103 de Mure\u0219","bicycle_network":"ncn","source":"openstreetmap.org","min_zoom":8.0},"arcs":[[302],[303]]},{"type":"LineString","properties":{"kind":"major_road","network":"DN","sort_rank":380,"kind_detail":"primary","source":"openstreetmap.org","min_zoom":8.0,"shield_text":"13C","name:hu":"Szabads\u00e1g t\u00e9r","ref":"DN13C","id":294299918},"arcs":[304]},{"type":"LineString","properties":{"bus_network":null,"network":"DN","sort_rank":380,"kind_detail":"primary","kind":"major_road","source":"openstreetmap.org","min_zoom":8.0,"bus_shield_text":"4","shield_text":"15","landuse_kind":"urban_area"},"arcs":[305]},{"type":"LineString","properties":{"kind":"major_road","sort_rank":379,"kind_detail":"secondary","is_bicycle_related":true,"bicycle_shield_text":null,"bicycle_network":"ncn","source":"openstreetmap.org","min_zoom":8.0,"landuse_kind":"residential","ref":"DJ107G"},"arcs":[306]},{"type":"MultiLineString","properties":{"kind":"major_road","sort_rank":377,"kind_detail":"tertiary","is_bicycle_related":true,"bicycle_shield_text":"Fa\u021b\u0103 de Mure\u0219","bicycle_network":"ncn","source":"openstreetmap.org","min_zoom":8.0,"ref":"DC124A"},"arcs":[[307],[308],[309]]},{"type":"LineString","properties":{"kind":"major_road","network":"DN","sort_rank":380,"kind_detail":"primary","source":"openstreetmap.org","min_zoom":8.0,"landuse_kind":"residential","shield_text":"15E","ref":"DN15E","id":43394437},"arcs":[310]},{"type":"MultiLineString","properties":{"kind":"major_road","network":"DN","sort_rank":380,"kind_detail":"primary","source":"openstreetmap.org","min_zoom":8.0,"landuse_kind":"residential","shield_text":"14A","ref":"DN14A"},"arcs":[[311],[312],[313],[314],[315],[316],[317],[318],[319]]},{"type":"LineString","properties":{"bus_network":null,"network":"DN","sort_rank":380,"kind_detail":"primary","kind":"major_road","source":"openstreetmap.org","min_zoom":8.0,"bus_shield_text":"4","shield_text":"15","landuse_kind":"residential"},"arcs":[320]},{"type":"MultiLineString","properties":{"cycleway_right":"lane","network":"DN","sort_rank":380,"kind_detail":"primary","is_bicycle_related":true,"kind":"major_road","source":"openstreetmap.org","min_zoom":8.0,"landuse_kind":"urban_area","shield_text":"13A","name:hu":"Tam\u00e1si \u00c1ron utca","ref":"DN13A"},"arcs":[[321],[322]]},{"type":"LineString","properties":{"kind":"major_road","network":"DN","sort_rank":380,"kind_detail":"primary","bus_network":null,"source":"openstreetmap.org","min_zoom":8.0,"bus_shield_text":"26","shield_text":"13","landuse_kind":"residential","id":77392762},"arcs":[323]},{"type":"LineString","properties":{"kind":"major_road","network":"DN","sort_rank":380,"landuse_kind":"residential","bus_network":null,"source":"openstreetmap.org","min_zoom":8.0,"bus_shield_text":"5","shield_text":"15","kind_detail":"primary","name:hu":"K\u00f6zt\u00e1rsas\u00e1g utca","ref":"DN15","id":173491414},"arcs":[324]},{"type":"LineString","properties":{"bus_network":null,"sort_rank":380,"kind_detail":"primary","bus_shield_text":"4","kind":"major_road","source":"openstreetmap.org","min_zoom":8.0,"landuse_kind":"residential","name:hu":"Gy\u0151zelem t\u00e9r"},"arcs":[325]},{"type":"LineString","properties":{"kind":"major_road","sort_rank":377,"kind_detail":"tertiary","is_bicycle_related":true,"bicycle_shield_text":null,"bicycle_network":"ncn","source":"openstreetmap.org","min_zoom":8.0,"landuse_kind":"residential","ref":"DJ107G","id":84435520},"arcs":[326]},{"type":"MultiLineString","properties":{"kind":"major_road","network":"DN","sort_rank":380,"kind_detail":"primary","source":"openstreetmap.org","min_zoom":8.0,"landuse_kind":"residential","shield_text":"15"},"arcs":[[327],[328]]},{"type":"LineString","properties":{"kind":"major_road","network":"DN","sort_rank":380,"kind_detail":"primary","source":"openstreetmap.org","min_zoom":8.0,"shield_text":"13C","name:hu":"Kriza J\u00e1nos utca","ref":"DN13C","id":24238710},"arcs":[329]},{"type":"LineString","properties":{"bus_network":null,"landuse_kind":"residential","network":"DN","sort_rank":380,"kind_detail":"primary","kind":"major_road","source":"openstreetmap.org","min_zoom":8.0,"bus_shield_text":"2b","shield_text":"15","name:hu":"Forradalom utca","ref":"DN15"},"arcs":[330]},{"type":"MultiLineString","properties":{"kind":"minor_road","sort_rank":360,"kind_detail":"residential","is_bicycle_related":true,"bicycle_shield_text":null,"bicycle_network":"ncn","source":"openstreetmap.org","min_zoom":8.0},"arcs":[[331],[332],[333],[334],[335],[336]]},{"type":"MultiLineString","properties":{"bus_network":null,"name:hu":"1989 December 22 sug\u00e1r\u00fat","network":"DN","sort_rank":380,"kind_detail":"primary","kind":"major_road","source":"openstreetmap.org","min_zoom":8.0,"bus_shield_text":"5","shield_text":"15","landuse_kind":"residential","ref":"DN15"},"arcs":[[337],[338],[339],[340],[341]]},{"type":"MultiLineString","properties":{"kind":"major_road","network":"DN","sort_rank":381,"kind_detail":"trunk","source":"openstreetmap.org","min_zoom":8.0,"shield_text":"13","ref":"DN13"},"arcs":[[342],[343],[344],[345],[346],[347],[348],[349]]},{"type":"MultiLineString","properties":{"bus_network":null,"name:hu":"1918 December 1 sug\u00e1r\u00fat","network":"DN","sort_rank":380,"kind_detail":"primary","kind":"major_road","source":"openstreetmap.org","min_zoom":8.0,"bus_shield_text":"6","shield_text":"13","landuse_kind":"residential","ref":"DN13"},"arcs":[[350],[351],[352],[353],[354],[355],[356],[357]]},{"type":"MultiLineString","properties":{"bus_network":null,"name:hu":"Lovass\u00e1g utca","network":"DN","sort_rank":380,"kind_detail":"primary","kind":"major_road","source":"openstreetmap.org","min_zoom":8.0,"bus_shield_text":"4","shield_text":"15E","landuse_kind":"residential","ref":"DN15E"},"arcs":[[358],[359],[360],[361],[362]]},{"type":"LineString","properties":{"kind":"path","sort_rank":354,"kind_detail":"footway","is_bicycle_related":true,"bicycle_shield_text":"Fa\u021b\u0103 de Mure\u0219","bicycle_network":"ncn","source":"openstreetmap.org","min_zoom":8.0},"arcs":[363]},{"type":"LineString","properties":{"kind":"major_road","network":"DN","sort_rank":380,"kind_detail":"primary","source":"openstreetmap.org","min_zoom":8.0,"shield_text":"13C","name:hu":"Timafalvi utca","ref":"DN13C"},"arcs":[364]},{"type":"LineString","properties":{"bus_network":null,"network":"DN","sort_rank":380,"kind_detail":"primary","kind":"major_road","source":"openstreetmap.org","min_zoom":8.0,"bus_shield_text":"2b","shield_text":"15","landuse_kind":"residential","ref":"DN15"},"arcs":[365]},{"type":"LineString","properties":{"kind":"major_road","sort_rank":377,"kind_detail":"tertiary","is_bicycle_related":true,"bicycle_shield_text":null,"bicycle_network":"ncn","source":"openstreetmap.org","min_zoom":8.0,"ref":"DC117","id":220859024},"arcs":[366]},{"type":"MultiLineString","properties":{"bus_network":null,"network":"DN","sort_rank":381,"kind_detail":"trunk","kind":"major_road","source":"openstreetmap.org","min_zoom":8.0,"bus_shield_text":"26","shield_text":"13","landuse_kind":"residential","ref":"DN13"},"arcs":[[367],[368]]},{"type":"MultiLineString","properties":{"kind":"major_road","cycleway_left":"lane","network":"DN","sort_rank":380,"kind_detail":"primary","is_bicycle_related":true,"source":"openstreetmap.org","min_zoom":8.0,"landuse_kind":"urban_area","shield_text":"13A","name:hu":"Tam\u00e1si \u00c1ron utca","ref":"DN13A"},"arcs":[[369],[370],[371]]},{"type":"LineString","properties":{"bus_network":null,"name:hu":"1918 December 1 sug\u00e1r\u00fat","network":"DN","sort_rank":380,"kind_detail":"primary","kind":"major_road","source":"openstreetmap.org","min_zoom":8.0,"bus_shield_text":"12","shield_text":"13","landuse_kind":"residential","ref":"DN13"},"arcs":[372]},{"type":"MultiLineString","properties":{"bus_network":null,"network":"DN","sort_rank":380,"kind_detail":"primary","kind":"major_road","source":"openstreetmap.org","min_zoom":8.0,"bus_shield_text":"26","shield_text":"13","landuse_kind":"residential","ref":"DN13"},"arcs":[[373],[374]]},{"type":"LineString","properties":{"kind":"major_road","network":"DN","sort_rank":381,"kind_detail":"trunk","source":"openstreetmap.org","min_zoom":8.0,"shield_text":"16","ref":"DN16"},"arcs":[375]},{"type":"MultiLineString","properties":{"bus_network":null,"network":"DN","sort_rank":380,"kind_detail":"primary","kind":"major_road","source":"openstreetmap.org","min_zoom":8.0,"bus_shield_text":"5","shield_text":"15","landuse_kind":"residential","ref":"DN15"},"arcs":[[376],[377],[378]]},{"type":"LineString","properties":{"bus_network":null,"name:hu":"D\u00f3zsa Gy\u00f6rgy utca","network":"e-road","sort_rank":380,"kind_detail":"primary","kind":"major_road","source":"openstreetmap.org","min_zoom":8.0,"bus_shield_text":"4","shield_text":"60","landuse_kind":"residential","ref":"DN15"},"arcs":[379]},{"type":"MultiLineString","properties":{"bus_network":null,"name:hu":"1918 December 1 sug\u00e1r\u00fat","network":"DN","sort_rank":380,"kind_detail":"primary","kind":"major_road","source":"openstreetmap.org","min_zoom":8.0,"bus_shield_text":"26","shield_text":"13","landuse_kind":"residential","ref":"DN13"},"arcs":[[380],[381],[382]]},{"type":"MultiLineString","properties":{"kind":"major_road","network":"DN","sort_rank":380,"kind_detail":"primary","source":"openstreetmap.org","min_zoom":8.0,"shield_text":"13A","name:hu":"F\u0151 utca","ref":"DN13A"},"arcs":[[383],[384]]},{"type":"LineString","properties":{"kind":"major_road","network":"DN","sort_rank":380,"kind_detail":"primary","source":"openstreetmap.org","min_zoom":8.0,"landuse_kind":"urban_area","shield_text":"13A","name:hu":"K\u0151kereszt t\u00e9r","ref":"DN13A","id":207351555},"arcs":[385]},{"type":"MultiLineString","properties":{"kind":"major_road","network":"DN","sort_rank":380,"kind_detail":"primary","source":"openstreetmap.org","min_zoom":8.0,"landuse_kind":"residential","shield_text":"14A"},"arcs":[[386],[387]]},{"type":"LineString","properties":{"kind":"major_road","network":"DN","sort_rank":380,"kind_detail":"primary","source":"openstreetmap.org","min_zoom":8.0,"landuse_kind":"urban_area","shield_text":"13A","name:hu":"Pet\u0151fi S\u00e1ndor utca","ref":"DN13A"},"arcs":[388]},{"type":"LineString","properties":{"kind":"major_road","network":"DN","sort_rank":381,"kind_detail":"trunk","source":"openstreetmap.org","min_zoom":8.0,"shield_text":"16","id":515882417},"arcs":[389]},{"type":"LineString","properties":{"kind":"major_road","name:ro":"Strada Insulei","network":"DN","sort_rank":380,"kind_detail":"primary","source":"openstreetmap.org","min_zoom":8.0,"landuse_kind":"urban_area","shield_text":"13A","name:hu":"Tomcsa S\u00e1ndor utca","ref":"DN13A","id":24914479},"arcs":[390]},{"type":"MultiLineString","properties":{"bus_network":null,"name:hu":"D\u00f3zsa Gy\u00f6rgy utca","network":"DN","sort_rank":380,"kind_detail":"primary","kind":"major_road","source":"openstreetmap.org","min_zoom":8.0,"bus_shield_text":"17","shield_text":"15","landuse_kind":"residential","ref":"DN15"},"arcs":[[391],[392],[393],[394]]},{"type":"LineString","properties":{"bus_network":null,"network":"DN","sort_rank":380,"landuse_kind":"urban_area","kind":"major_road","source":"openstreetmap.org","min_zoom":8.0,"bus_shield_text":"4","shield_text":"15E","kind_detail":"primary","name:hu":"Lovass\u00e1g utca","ref":"DN15E","id":24616238},"arcs":[395]},{"type":"LineString","properties":{"kind":"major_road","network":"DN","sort_rank":380,"landuse_kind":"residential","bus_network":null,"source":"openstreetmap.org","min_zoom":8.0,"bus_shield_text":"4","shield_text":"15","kind_detail":"primary","name:hu":"Gy\u0151zelem t\u00e9r","id":23021229},"arcs":[396]}]},"earth":{"type":"GeometryCollection","geometries":[{"type":"Polygon","properties":{"sort_rank":10,"source":"naturalearthdata.com","min_zoom":0.0,"kind":"earth","area":98022885885},"arcs":[[397]]}]},"landuse":{"type":"GeometryCollection","geometries":[{"type":"MultiPolygon","properties":{"source":"openstreetmap.org","kind":"residential","tier":2,"area":139256643,"sort_rank":20,"min_zoom":8.0,"osm_relation":true},"arcs":[[[398],[399]],[[400],[401]]]},{"type":"MultiPolygon","properties":{"source":"naturalearthdata.com","kind":"urban_area","name":"","area":1258829711,"sort_rank":11,"min_zoom":4.0},"arcs":[[[402]],[[403]],[[404]],[[405]],[[406]]]},{"type":"Polygon","properties":{"kind":"residential","name":"Ludu\u0219","area":11185900,"sort_rank":20,"name:de":"Ludasch","source":"openstreetmap.org","min_zoom":8.0,"tier":2,"name:ru":"\u041b\u0443\u0434\u0443\u0448","name:hu":"Marosludas","id":75373862},"arcs":[[407]]},{"type":"MultiPolygon","properties":{"source":"openstreetmap.org","kind":"residential","tier":2,"area":358323447,"sort_rank":20,"min_zoom":8.0},"arcs":[[[408]],[[409]],[[410]],[[411]]]},{"type":"MultiPolygon","properties":{"kind":"protected_area","protect_class":"97","area":10482476670,"sort_rank":17,"source":"openstreetmap.org","min_zoom":4.0,"tier":2,"osm_relation":true},"arcs":[[[412],[413],[414],[415],[416],[417],[418],[419],[420],[421],[422],[423],[424],[425],[426],[427],[428]]]},{"type":"Polygon","properties":{"kind":"residential","name":"Sighi\u0219oara","area":13106700,"sort_rank":20,"source":"openstreetmap.org","min_zoom":8.0,"tier":2,"id":84842077},"arcs":[[429]]}]}},"type":"Topology","transform":{"translate":[23.90625,46.0732306254],"scale":[0.0003433228,0.0002360721]},"arcs":[[[3693,394],[45,18],[177,-137],[47,127],[92,57],[42,-17]],[[3751,2315],[-124,-199],[-193,4],[-47,-79],[-126,-59],[-42,-121],[-82,-71],[44,-43],[23,39],[74,-30],[-82,-145],[-154,-81],[-35,-44],[42,-85],[91,-87],[-12,-29],[-130,-39],[-59,59],[-63,-22],[-104,31],[-49,-45],[45,-84],[-1,-60],[78,-18],[-78,-106],[47,-99],[64,20],[86,-68],[36,-104],[132,3],[47,-33],[44,22],[73,-35],[91,21],[26,-14],[-7,-32],[83,-6],[67,-181],[137,-101]],[[3942,4096],[37,-38],[0,-263],[27,-27],[6,-118],[-34,-77],[17,-87],[-19,-7],[-51,-225],[86,-31],[6,-152],[72,-52],[-21,-2],[-21,-64],[5,-142],[-43,-131],[26,-109],[-162,-111],[-122,-145]],[[3693,394],[-71,-36],[-12,-88],[-83,12],[-63,44],[-147,-72],[-87,58],[-75,-97],[-97,-56],[-36,-134]],[[3022,25],[3,-25]],[[345,2315],[128,-62],[-43,-117],[-31,-21],[-1,-55],[-38,-15],[24,-53],[-30,-42],[-114,30],[-85,-95],[31,-125],[-14,-108],[65,-18],[-24,-18],[5,-78],[-15,9]],[[804,3089],[16,-35],[-18,-27],[-139,-56],[-19,-62],[-59,-8],[-22,-35],[-107,-54],[45,-88],[100,-30],[31,-46],[-25,-17],[17,-21],[-52,-128],[-113,-10],[-87,-48],[-10,-53],[-30,-20],[13,-36]],[[2569,4096],[-59,-179],[-52,-19],[-35,-63],[4,-102],[-56,-90],[68,-50],[-45,-15],[-7,-52],[-71,-15],[-18,27],[-106,5],[-42,119],[-59,69],[-14,-45],[-63,7],[-50,-78],[8,-46],[-86,-2],[18,-45],[-77,11],[-1,-33],[-27,-2],[6,-71],[28,-32],[-23,-81],[-69,-11],[2,-57],[-35,5],[-58,-48],[9,-60],[-50,-74],[31,-61],[-51,-72],[-79,45],[-59,-36],[-6,-38],[-47,2],[-46,-37],[-48,43],[-20,-25],[-120,9],[-28,-19],[-54,27],[2,50],[-24,9],[-12,-25],[-70,30],[-24,43],[-150,75]],[[203,1547],[2,-18],[74,-1],[59,66],[-8,34],[61,-2],[-14,-111],[-41,-41],[8,-75],[-74,-76],[36,-34],[-6,-31],[188,-145],[166,0],[52,-93],[-2,-78],[93,-73],[20,25],[47,-51],[-7,-46],[63,10],[96,-88],[7,33],[50,21],[214,-5],[89,-45],[137,85],[185,-19],[24,-64],[37,43],[65,-13],[17,39],[65,-14],[11,25],[106,-58],[65,21],[50,96],[75,16],[31,-130],[-39,-86],[40,10],[27,-66],[-22,-55],[16,-46],[-27,-92],[18,-73],[-25,-203],[40,-72],[88,-52],[43,47],[114,0],[17,61],[86,-38],[169,75],[88,-11],[33,-86],[40,-32],[72,-6]],[[804,3089],[-3,38],[31,26],[-10,54],[63,35],[-14,90],[38,73],[-13,37],[79,16],[-56,25],[-12,58],[-67,36],[-8,63],[-143,5],[-4,27],[46,11],[-16,54],[-55,44],[-56,-22],[14,55],[-39,123],[35,70],[-55,39],[49,50]],[[0,1585],[115,6],[57,29],[31,-73]],[[0,432],[76,4],[96,-115],[215,-137],[84,-115],[71,-15],[209,95],[335,60],[169,147],[139,68],[110,8],[193,113],[187,56],[486,48],[57,60],[51,11],[81,-83],[325,87],[172,-4],[74,-65],[38,5],[85,-97],[175,-94],[141,11],[66,-36],[3,-41],[107,-76],[81,-122],[141,-93],[13,-112]],[[841,0],[94,168],[27,11]],[[4057,991],[0,-1]],[[1975,2162],[-40,-22],[7,-44]],[[4053,992],[3,-2]],[[2036,2135],[24,27]],[[2090,2198],[5,5]],[[1865,2106],[-46,118]],[[1930,2036],[0,-1]],[[911,1684],[11,5]],[[4042,987]],[[1757,1855],[1,-1]],[[1269,1663],[-38,-10]],[[1593,1715]],[[1593,1715]],[[2916,3774],[-44,-41]],[[2924,3787],[-5,-8]],[[2968,3805],[-17,-2]],[[3024,3811],[-19,-2]],[[3117,3823],[-51,-6]],[[3203,3825],[-62,-14]],[[3230,3809],[-26,16]],[[3265,3786],[-8,5]],[[3466,3729],[-12,-1]],[[3507,3734],[-37,-4]],[[3553,3751],[-9,-12]],[[3669,3794],[-56,10]],[[3766,3785],[-20,2]],[[3864,3763],[-40,-8]],[[4096,3662],[-80,66],[-52,-3]],[[1543,1675],[-1,0],[0,-1],[1,0],[0,1]],[[1452,3963],[0,-1]],[[1453,3966],[-1,-1]],[[1452,3962],[0,1]],[[1452,3962],[6,-36],[83,-85],[20,-94],[189,-197],[-23,-33],[147,-131],[16,-48],[94,-92],[39,-112],[130,-107],[54,-117]],[[1452,3965],[1,1]],[[1497,4096],[-44,-130]],[[1451,3964],[1,-1]],[[1452,3963],[1,1],[-1,1]],[[1452,3965],[-1,-1]],[[1238,330],[20,12]],[[1274,352],[23,14]],[[1299,366],[71,44]],[[2009,1933],[16,-20]],[[2121,2231]],[[2338,2986],[-4,2]],[[1931,2037],[-1,-1]],[[1955,2056]],[[2330,2926],[3,-19]],[[2350,2986],[-9,-22]],[[2350,2986],[47,91]],[[30,434],[1,5]],[[31,440],[0,-1]],[[31,439],[1,0],[-1,1]],[[1989,1947],[1,0]],[[1867,2047],[4,13]],[[1935,2084],[7,12]],[[1868,2063],[1,18]],[[1776,1868],[74,53]],[[1850,1921],[-74,-52]],[[1859,1927],[16,13]],[[1876,1942],[-17,-15]],[[1897,1966],[3,9]],[[2527,642],[87,-9]],[[2615,633],[30,15]],[[2716,1522],[56,25]],[[1868,2044]],[[1889,2025],[2,-2]],[[1902,2008],[1,0]],[[1900,1989],[15,14]],[[1989,1948],[0,-1]],[[1760,1856],[3,3]],[[2261,2941],[51,51]],[[2341,2964],[-12,-35]],[[2329,2929],[1,-3]],[[4038,982],[1,0],[-1,0]],[[4053,992],[-7,3]],[[4057,989],[-1,0]],[[4057,989],[0,1]],[[4057,990],[0,-1]],[[4057,990],[-1,0],[1,0]],[[4057,990],[0,1]],[[4075,1016]],[[4075,1016]],[[4038,981],[0,1],[0,-1]],[[4057,990]],[[4075,1016]],[[1920,2024],[10,11]],[[1917,2011],[-3,-6]],[[4096,2509],[-206,-233],[4,-113],[-75,-45],[-121,-12],[-133,-58],[-8,-23]],[[4041,979],[5,-5]],[[2058,2438],[8,-5]],[[0,3053],[73,34],[56,-17],[36,31],[188,-41],[46,38],[105,-63],[78,24],[45,-16],[109,48],[172,-97],[49,-56],[100,-31],[58,102],[98,-29],[15,-29],[290,-77],[234,32],[60,32],[26,-43],[63,35],[140,-69],[62,48],[103,0]],[[1707,1819],[49,35]],[[2385,3098],[-17,-30]],[[4046,995],[-4,-8]],[[1871,2060],[-3,3]],[[2314,1422],[402,100]],[[2772,1547],[270,371],[170,154]],[[3691,1722],[-132,301]],[[4001,1045],[-49,128],[-40,38],[-31,-4],[-52,65],[-23,146],[68,51],[-24,113],[-43,20],[-34,69]],[[2614,633],[1,0]],[[2645,648],[38,19]],[[917,1677],[103,-76]],[[1019,1596],[26,15]],[[1049,1612],[58,2],[13,22]],[[2066,2433],[-62,-186],[23,-51],[-52,-34]],[[2058,2438],[29,52]],[[2112,2514],[34,-6],[-13,32],[28,101],[57,93],[22,-15],[43,120],[56,-3],[-2,50]],[[3534,2026],[2,-1]],[[0,431],[30,3]],[[51,437],[-19,2]],[[51,437],[1,-1],[0,1],[-1,0]],[[52,437],[36,-6],[83,-109],[172,-105],[211,-211],[86,4],[78,80],[21,-6],[31,57],[117,25],[45,-20]],[[2121,2231],[-25,-27]],[[2353,2909],[-5,-90],[-198,-281],[-27,-172],[26,-80],[-28,-55]],[[527,1719],[22,23]],[[551,1744],[23,-9]],[[2349,3039],[-37,-47]],[[2349,3039],[2,1]],[[2351,3041],[-2,-2]],[[2352,3042],[-1,-1]],[[2352,3041],[0,1]],[[2368,3068],[-16,-26]],[[2351,3040],[1,0],[-1,1]],[[2351,3041],[0,-1]],[[1901,1977],[-2,-1]],[[1900,1975],[2,1]],[[1954,2056]],[[507,1653],[-6,-5]],[[545,1787],[-3,1]],[[556,1773],[0,1]],[[585,1765],[-4,0]],[[4019,1023],[-5,2]],[[1207,299],[31,31]],[[1258,342],[16,10]],[[1297,366],[2,0]],[[1370,410],[48,9]],[[1902,2009],[0,-1]],[[1903,2008]],[[1890,2023],[0,1]],[[1865,1931]],[[1866,1931],[0,1]],[[0,1908],[153,-253],[233,-1],[141,65]],[[574,1735],[118,-23],[9,-36],[68,-43],[291,-71],[62,29],[113,-21],[306,104]],[[1545,1675],[47,39]],[[1593,1716],[114,103]],[[2872,3733],[-150,-83],[-262,-373],[-75,-179]],[[1593,1715]],[[2117,1721],[0,1],[-1,0],[0,-1],[1,0]],[[3318,2138],[26,17]],[[4096,1040],[-5,-6]],[[1207,299],[-64,-60],[-199,-67],[-101,-172]],[[1418,419],[65,-3],[217,129],[196,55],[547,48],[54,-30],[24,20]],[[2521,638],[1,1]],[[2521,639],[0,-1]],[[1776,1869],[-17,-13]],[[1759,1856],[1,0]],[[1763,1859],[13,9]],[[1859,1927],[-9,-6]],[[1850,1921],[9,6]],[[1913,2004],[-14,-14]],[[1954,2056]],[[2096,2204],[-1,-1]],[[2312,2992],[5,-15]],[[2316,2975],[1,1]],[[2317,2977],[-1,-2]],[[2316,2975],[2,-2]],[[2317,2975],[0,2]],[[2318,2973],[0,-1]],[[2319,2973],[-1,0]],[[2318,2972],[1,-4]],[[2319,2968],[0,4]],[[2319,2968],[2,-10]],[[2321,2958],[0,-1]],[[2322,2957],[-1,1]],[[2321,2956],[1,-2]],[[2322,2954],[0,2]],[[2322,2954],[8,-25]],[[2322,2956],[-1,1],[0,-1],[1,0]],[[2961,713],[6,24],[238,138]],[[3351,927],[90,79],[129,177],[143,37],[94,-20],[73,14]],[[1915,2004],[-1,1]],[[1989,2089],[42,39]],[[2060,2162],[30,36]],[[3268,895],[-63,-20]],[[1759,1856],[-1,0]],[[1758,1855],[1,1]],[[1819,2224],[-42,180],[-116,48],[-63,-21],[-184,224],[-274,33],[-52,-30],[-46,26],[-25,77],[40,146]],[[1415,1735],[-36,-16],[-14,19]],[[2095,2501],[17,13]],[[1989,1947],[1,0]],[[1989,1948]],[[2087,2490],[8,11]],[[2333,2907],[4,-21]],[[2397,3077],[84,137],[-2,58]],[[2482,3274],[26,41]],[[2330,2929],[23,-20]],[[1863,2055],[5,-11]],[[1915,2003],[0,1]],[[2261,2940],[0,1]],[[1758,1855],[0,1]],[[7,1900],[-7,2]],[[0,1902],[7,-2]],[[3212,2072],[106,66]],[[3344,2155],[190,-129]],[[32,1377],[-32,-13]],[[310,1490],[-23,18],[-141,-81]],[[1932,2038],[-1,-1]],[[4035,984],[-1,2]],[[1876,1941],[1,1]],[[1020,1601],[-1,-5]],[[1139,1640],[23,-9]],[[1914,2005],[3,6]],[[1930,2036],[1,0]],[[1931,2036],[0,1]],[[2316,2976],[0,-1]],[[4091,1034],[-16,-18]],[[1988,1948],[1,-1]],[[1217,509],[1,-39],[58,-48]],[[1162,1631],[14,2]],[[1914,2005]],[[2312,1422],[2,0]],[[1891,2023],[-2,2]],[[1903,2009]],[[787,1713],[144,-19]],[[32,1377],[-20,14],[68,71],[81,9],[-15,-44]],[[429,1565],[-41,2],[-78,-77]],[[450,1567],[1,3]],[[501,1648],[-46,-39]],[[542,1788],[-6,2]],[[556,1774],[-11,13]],[[694,1759],[-109,6]],[[776,1718],[-56,30],[-38,-27]],[[1109,1100],[1,0]],[[1809,1892]],[[1869,2062],[-1,-1]],[[1868,2044]],[[1890,2024],[-1,0]],[[1903,2009],[-1,-1]],[[1903,2008],[0,1]],[[1937,1972],[-1,0]],[[1937,1972]],[[2004,1940],[-1,0]],[[2004,1939],[0,1]],[[2302,2976],[3,-4],[11,3]],[[2303,2975],[2,2]],[[2321,2969],[-2,0]],[[2338,2985],[-19,-15]],[[2322,2956],[16,28]],[[2333,2988],[19,51]],[[2338,2984],[0,1]],[[2338,2985],[0,1]],[[2338,2984],[0,1]],[[2338,2986],[0,1],[0,-1]],[[2351,3040],[1,-1]],[[2352,3039],[0,1]],[[2334,2988],[-1,0]],[[2333,2988],[1,0]],[[4014,1025],[-13,20]],[[1868,2063],[-5,-8]],[[1932,2038],[22,18]],[[1089,1117],[-41,47],[16,58],[-45,73],[36,128],[-50,151]],[[1135,1065],[0,2]],[[1217,509],[10,49],[-44,63],[-38,152],[-4,223]],[[549,1742],[2,2]],[[1936,1972],[1,0]],[[1937,1972]],[[549,1742],[-8,31]],[[581,1765],[-25,8]],[[2919,3779],[-3,-5]],[[2951,3803],[-27,-16]],[[3005,3809],[-37,-4]],[[3066,3817],[-42,-6]],[[3141,3811],[-24,12]],[[3204,3825],[-1,0]],[[3257,3791],[-27,18]],[[3454,3728],[-58,-7],[-23,-33],[-50,20],[-58,78]],[[3470,3730],[-4,-1]],[[3544,3739],[-37,-5]],[[3613,3804],[-60,-53]],[[3746,3787],[-77,7]],[[3824,3755],[-58,30]],[[3964,3725],[-100,38]],[[1897,1983],[3,6]],[[2004,1939],[1,0]],[[2005,1939],[-1,1]],[[2005,1939],[4,-6]],[[4051,977],[5,12]],[[4075,1016],[-18,-25]],[[4046,974],[4,2]],[[911,1684],[6,-7]],[[1049,1612],[-4,-1]],[[3296,924],[-21,-12]],[[1758,1856],[0,-1]],[[507,1653],[36,24],[10,52]],[[1231,1653],[-57,-19]],[[1365,1738],[-96,-75]],[[1441,1752],[-26,-17]],[[1869,2081],[-4,25]],[[1132,1095],[-43,22]],[[1135,1067],[-3,27]],[[1141,996],[-6,69]],[[1276,422],[9,-10]],[[1291,406],[-6,5]],[[1312,388],[-20,17]],[[1292,406],[-1,0]],[[1291,406],[0,-1],[1,0]],[[1292,405],[0,1]],[[1877,1942],[-1,0]],[[4037,983],[1,-1]],[[4038,981],[1,0]],[[1990,1947],[-1,1]],[[1930,2035],[1,1]],[[1899,1990],[-2,-7]],[[553,1730],[-2,14]],[[1876,1942],[0,-1]],[[2319,2973],[-1,-1],[1,0],[0,1]],[[3275,912],[-7,-17]],[[1917,2011],[3,13]],[[451,1574],[-22,-9]],[[451,1574],[0,-4]],[[451,1574],[4,35]],[[541,1773],[-5,18]],[[787,1713],[-11,5]],[[923,1698],[-1,-9]],[[1931,2036],[1,2]],[[1953,2055],[1,1]],[[1955,2058],[-1,-1]],[[1955,2056],[0,2]],[[1955,2058],[34,31]],[[2025,1913],[89,-103],[-29,-11],[78,-247],[88,-122],[66,-15],[80,-67],[-54,-243],[34,-69],[-18,-118],[29,-54],[38,-3],[-12,-30],[102,-17],[-42,-75],[47,-99]],[[2521,640],[0,-1]],[[2521,640]],[[2521,639],[1,0],[0,1],[-1,-1]],[[2523,640],[-1,0]],[[2522,639],[1,1]],[[2523,640],[4,2]],[[2683,667],[374,52],[69,-65],[-54,-161],[115,-116],[77,-35],[8,-26],[-30,-30],[14,-77],[135,-73],[88,8],[75,-100],[62,-18],[27,-26]],[[1904,1976],[-3,1]],[[1902,1976],[2,0]],[[1904,1976],[32,-4]],[[1937,1972],[-1,0]],[[1936,1972]],[[1938,1972],[-1,0]],[[1937,1972],[1,0]],[[1938,1972],[34,-15]],[[1868,2044],[-1,3]],[[1875,2037],[-6,6]],[[1889,2025],[-11,9]],[[1903,2009],[-12,14]],[[1914,2005],[-11,4]],[[1120,1636],[19,4]],[[3351,927],[-55,-3]],[[1955,2056],[-1,0]],[[682,1721],[12,38]],[[2004,1939]],[[2004,1940]],[[4034,986],[-15,37]],[[4038,982],[-3,2]],[[4041,979],[-3,3]],[[1972,1957],[17,-9]],[[2003,1940],[1,-1]],[[2004,1940]],[[2209,2909],[52,31]],[[1931,2036]],[[1954,2056],[1,0]],[[2031,2128],[5,7]],[[1899,1976],[-2,-10]],[[1990,1947],[13,-7]],[[2003,1940]],[[2004,1940],[-1,0]],[[3536,2025],[23,-2]],[[3773,1671],[-82,51]],[[4050,976],[1,1]],[[1132,1094],[1,0],[-1,1],[0,-1]],[[1285,411],[0,1],[0,-1]],[[4042,987],[0,-1]],[[2207,2910],[0,-1],[1,0],[-1,1]],[[4042,986],[-3,-4]],[[1875,1940],[1,1]],[[1881,1949],[-5,-7]],[[1877,1942],[4,7]],[[1881,1949],[16,17]],[[1878,2034],[-3,3]],[[1899,1978],[-2,5]],[[4096,2284],[0,-2284],[-4096,0],[0,4096],[4096,0],[0,-1812]],[[1744,1927],[16,28],[50,-33],[10,22],[15,9],[-19,35],[47,7],[-1,30],[64,38],[45,12],[-12,25],[32,3],[73,113],[32,-12],[-37,-41],[25,-19],[-19,-45],[-36,21],[-8,-30],[-49,-23],[-20,-55],[31,-7],[-57,-24],[93,-5],[-15,-37],[-64,-30],[-13,10],[-7,24],[-2,-1],[6,-45],[-19,28],[-25,-20],[-22,21],[22,30],[-57,-15],[28,-20],[-47,-33],[22,-16],[-19,-18],[70,-62],[-53,20],[-48,56],[10,36],[-19,-12],[-23,35]],[[1923,2055],[7,-7],[13,9],[-17,3],[-3,-5]],[[1660,1947],[54,3],[23,50],[44,6],[-14,21],[49,48],[-86,79],[117,-72],[38,51],[-14,30],[30,-2],[103,120],[-124,-177],[12,-59],[-145,-69],[-28,-52],[-4,20],[-55,3]],[[1815,2060],[25,-22],[23,1],[-26,45],[-22,-24]],[[2585,538],[-46,30],[78,159],[-63,116],[-1,72],[97,0],[37,-132],[-5,-150],[-83,-57],[-14,-38]],[[4085,954],[-61,16],[-15,86],[87,35],[-11,-137]],[[2079,2143],[86,-51],[-18,-55],[-141,-106],[-100,-28],[-140,-94],[-55,0],[-24,56],[57,132],[-62,87],[-3,55],[25,8],[40,-55],[39,27],[38,112],[20,2],[0,-47],[238,-43]],[[2341,2904],[-71,23],[-51,75],[-22,125],[81,54],[71,-24],[51,-85],[24,-133],[-83,-35]],[[1434,653],[12,-122],[-26,54],[-64,0],[3,-77],[58,-80],[3,-78],[-64,-5],[-109,-56],[-53,14],[-59,226],[40,3],[19,-40],[32,23],[32,118],[33,0],[47,79],[34,12],[62,-71]],[[466,1653],[86,69],[-51,-6],[37,32],[6,55],[3,-26],[39,-9],[-18,-51],[26,-43],[-47,-4],[-48,-40],[3,28],[-36,-5]],[[1031,1074],[42,5],[31,74],[30,-43],[79,24],[-61,-32],[31,-19],[-50,-17],[53,-18],[-41,-62],[-11,32],[-33,-5],[29,83],[-32,-16],[-4,-34],[-63,28]],[[2928,2952],[1,30],[52,16],[6,39],[13,-45],[-21,-17],[73,-2],[35,142],[54,51],[2,-44],[-56,-48],[2,-94],[-11,16],[-14,-16],[30,-26],[-20,9],[-37,-2],[31,-4],[10,-20],[-35,12],[-72,-23],[-43,26]],[[2254,2949],[38,24],[-31,83],[34,-30],[33,37],[9,-31],[41,48],[-49,-157],[-16,30],[-37,0],[-5,-23],[-17,19]],[[1215,377],[19,43],[23,-4],[-31,44],[42,-40],[32,9],[-46,66],[52,-17],[-22,-20],[50,-28],[-38,-15],[77,-5],[-37,-41],[29,-78],[-62,38],[-5,38],[-28,-35],[28,-5],[-31,-26],[-26,9],[3,24],[-21,-15],[10,24],[20,10],[9,-21],[14,23],[-7,50],[-41,-44],[-13,16]],[[3929,4096],[44,-43],[-21,-87],[39,-45],[-15,-129],[29,-40],[-39,-14],[-11,44],[-18,-23],[29,-38],[-70,7],[5,-65],[30,43],[37,-2],[-52,-97],[7,-46],[72,-68],[-82,-239],[99,-24],[6,-162],[78,-52],[-51,-62],[10,-136],[-47,-139],[35,-74],[-39,-76],[-33,-1],[-201,-181],[-118,-168],[-86,-18],[-85,36],[-32,-23],[46,112],[-60,-4],[28,-28],[-56,-10],[31,49],[-28,-12],[-9,36],[44,46],[-19,1],[8,25],[-68,8],[-20,35],[-16,-35],[-29,4],[-26,24],[23,35],[-29,-19],[19,28],[-14,15],[-19,-35],[-49,-17],[-88,9],[-15,27],[37,28],[124,17],[0,47],[-129,-61],[-14,101],[-115,-1],[18,30],[-24,8],[35,3],[44,60],[-61,9],[-24,49],[43,32],[49,-20],[48,20],[-1,48],[23,15],[70,-107],[87,-30],[56,10],[-7,105],[34,135],[73,94],[141,53],[-1,45],[65,52],[-30,12],[-60,-28],[-35,57],[-95,58],[-251,91],[8,-44],[-39,-41],[-73,-16],[-13,92],[12,53],[39,24],[7,56],[-100,97],[-14,55],[-56,51],[-51,1],[9,42],[-28,8],[-49,41],[-36,244],[15,33],[1095,0]],[[3426,3728],[37,0],[34,17],[63,-8],[-14,27],[-64,12],[-56,-48]],[[3136,3807],[11,-11],[18,1],[38,28],[31,-23],[-12,21],[-19,2],[-36,-6],[50,47],[-81,-59]],[[3716,3790],[33,-2],[-18,-7],[31,-28],[27,7],[-50,55],[-23,-25]],[[3064,3808],[40,-5],[13,9],[5,0],[-6,-36],[9,30],[7,-7],[11,-4],[-26,25],[-21,-11],[-32,-1]],[[3857,3704],[0,-12],[7,-5],[9,78],[-16,-61]],[[3814,3766],[19,-20],[37,20],[-32,22],[-24,-22]],[[3580,3784],[57,-4],[4,6],[28,6],[2,5],[-65,12],[33,-24],[-59,-1]],[[3061,3815],[32,-4],[23,11],[3,8],[-58,-15]],[[3468,3730],[32,-10],[11,11],[-18,12],[-25,-13]],[[2951,3803],[16,-10],[4,3],[-3,9],[-17,-2]],[[3698,2517],[15,-7],[12,11],[-14,-4],[-13,0]],[[3243,3792],[6,-8],[16,2],[0,5],[-22,1]],[[3031,3815],[12,1],[-2,8],[-6,3],[-4,-12]],[[2984,3798],[5,-16],[21,17],[-2,2],[-24,-3]],[[2915,3784],[5,-7],[7,17],[-7,-2],[-5,-8]],[[3004,3813],[1,-4],[24,1],[-17,4],[-8,-1]],[[2526,640],[10,23],[21,-24],[50,23],[17,56],[20,-3],[-21,-60],[40,14],[-21,-20],[26,-7],[-55,-9],[38,-61],[-10,-2],[-6,24],[-16,10],[-11,-77],[53,-88],[-59,64],[8,99],[-65,-48],[-19,86]]]}