{"objects":{"water":{"type":"GeometryCollection","geometries":[]},"buildings":{"type":"GeometryCollection","geometries":[]},"places":{"type":"GeometryCollection","geometries":[{"type":"Point","properties":{"name:mt":"Plovdiv","name:pt":"Plovdiv","name:ro":"Plovdiv","name:id":"Plovdiv","name:cy":"Plovdiv","name:mr":"\u092a\u094d\u0932\u0949\u0935\u094d\u0939\u0921\u093f\u0935\u094d\u0939","name:ko":"\ud50c\ub85c\ube0c\ub514\ud504","name:cu":"\u0424\u0457\u043b\u0457\u043f\u043f\u043e\u043f\u043e\u043b\u044c","name:ar":"\u0628\u0644\u0648\u0641\u062f\u064a\u0641","name:cs":"Plovdiv","name:io":"Plovdiv","name:tk":"Plowdiw","min_zoom":8.0,"int_name":"Plovdiv","name:it":"Plovdiv","name:tl":"Plovdiv","name:vi":"Plovdiv","name:pl":"P\u0142owdiw","name:lt":"Plovdivas","id":1698668366,"name:ca":"Pl\u00f3vdiv","name:vo":"Plovdiv","name:fa":"\u067e\u0644\u0648\u0648\u062f\u06cc\u0648","name:ka":"\u10de\u10da\u10dd\u10d5\u10d3\u10d8\u10d5\u10d8","kind_detail":"city","name:da":"Plovdiv","name:de":"Plowdiw","source":"openstreetmap.org","name:fr":"Plovdiv","name:nn":"Plovdiv","name:zh":"\u666e\u7f85\u592b\u8fea\u592b","admin_level":"6","name:sl":"Plovdiv","name:lv":"Plovdiva","name:ja":"\u30d7\u30ed\u30f4\u30c7\u30a3\u30d5","name:ms":"Plovdiv","name:no":"Plovdiv","name:he":"\u05e4\u05dc\u05d5\u05d1\u05d3\u05d9\u05d1","kind":"locality","name:br":"Plovdiv","name:eu":"Plovdiv","name:jv":"Plovdiv","name:la":"Philippopolis","name:sk":"Plovdiv","name:hy":"\u054a\u056c\u0578\u057e\u0564\u056b\u057e","name:sv":"Plovdiv","name:hu":"Plovdiv","name:hr":"Plovdiv","population":368983,"name:el":"\u03a6\u03b9\u03bb\u03b9\u03c0\u03c0\u03bf\u03cd\u03c0\u03bf\u03bb\u03b7","name:eo":"Plovdiv","name:en":"Plovdiv","name":"\u041f\u043b\u043e\u0432\u0434\u0438\u0432","name:is":"Plovdiv","name:th":"\u0e1e\u0e25\u0e2d\u0e1f\u0e14\u0e34\u0e1f","name:tr":"Filibe","name:fi":"Plovdiv","name:yi":"\u05e4\u05dc\u05d0\u05d5\u05d5\u05d3\u05d9\u05d5\u05d5","name:et":"Plovdiv","name:nl":"Plovdiv (stad)","name:es":"Plovdiv"},"coordinates":[2457,431]},{"type":"Point","properties":{"admin_level":"6","name:pt":"Pazardzhik","name:ro":"Pazargik","name:nl":"Pazardzjik","name:tr":"Pazarc\u0131k","name:sr":"\u041f\u0430\u0437\u0430\u0440\u045f\u0438\u043a","min_zoom":8.0,"int_name":"Pazardzhik","name:sv":"Pazardzjik","name:pl":"Pazard\u017cik","name:hr":"Pazard\u017eik","id":31058181,"population":76739,"name:el":"\u03a0\u03ac\u03b6\u03b1\u03c1\u03c4\u03b6\u03b9\u03ba","kind":"locality","name:en":"Pazardzhik","name":"\u041f\u0430\u0437\u0430\u0440\u0434\u0436\u0438\u043a","kind_detail":"city","name:de":"Pasardschik","source":"openstreetmap.org","name:fr":"Pazardjik","name:es":"Pazardzhik"},"coordinates":[1240,615]},{"type":"Point","properties":{"kind":"locality","name:en":"Karlovo","name":"\u041a\u0430\u0440\u043b\u043e\u0432\u043e","name:tr":"Karl\u0131ova","kind_detail":"town","name:de":"Karlowo","source":"openstreetmap.org","min_zoom":8.0,"int_name":"Karlovo","name:pl":"Kar\u0142owo","id":273488854,"population":23919},"coordinates":[2617,2384]},{"type":"Point","properties":{"kind":"locality","name:en":"Troyan","name:ro":"Troian","name":"\u0422\u0440\u043e\u044f\u043d","kind_detail":"town","name:de":"Trojan","source":"openstreetmap.org","min_zoom":8.0,"int_name":"Troyan","name:it":"Trojan","id":267050507,"population":23422},"coordinates":[2348,3393]},{"type":"Point","properties":{"kind":"locality","name:en":"Sevlievo","name:ro":"Sevlievo","name":"\u0421\u0435\u0432\u043b\u0438\u0435\u0432\u043e","name:lt":"Sevlijevas","name:tr":"Selvi","kind_detail":"town","name:de":"Sewliewo","source":"openstreetmap.org","min_zoom":8.0,"int_name":"Sevlievo","name:pl":"Sewliewo","id":273488829,"population":22676},"coordinates":[3489,3928]},{"type":"Point","properties":{"kind":"locality","int_name":"Peshtera","name":"\u041f\u0435\u0449\u0435\u0440\u0430","kind_detail":"town","name:de":"Peschtera","source":"openstreetmap.org","min_zoom":8.0,"id":270706123,"population":20753},"coordinates":[1162,3]},{"type":"Point","properties":{"kind":"locality","name:en":"Panagyurishte","name":"\u041f\u0430\u043d\u0430\u0433\u044e\u0440\u0438\u0449\u0435","kind_detail":"town","name:de":"Panagjurischte","source":"openstreetmap.org","min_zoom":8.0,"int_name":"Panagyurishte","id":273488711,"population":17755},"coordinates":[823,1864]},{"type":"Point","properties":{"kind":"locality","int_name":"Rakovski","name":"\u0420\u0430\u043a\u043e\u0432\u0441\u043a\u0438","kind_detail":"town","source":"openstreetmap.org","min_zoom":8.0,"id":273488846,"population":15571},"coordinates":[3087,1006]},{"type":"Point","properties":{"kind":"locality","name:en":"Parvomay","name":"\u041f\u044a\u0440\u0432\u043e\u043c\u0430\u0439","kind_detail":"town","name:de":"Parwomaj","source":"openstreetmap.org","min_zoom":8.0,"id":273488986,"population":13984},"coordinates":[3840,263]},{"type":"Point","properties":{"kind":"locality","int_name":"Stamboliyski","name:nl":"Stamboliyski","name":"\u0421\u0442\u0430\u043c\u0431\u043e\u043b\u0438\u0439\u0441\u043a\u0438","kind_detail":"town","source":"openstreetmap.org","min_zoom":8.0,"id":273488695,"population":11610},"coordinates":[1839,409]},{"type":"Point","properties":{"kind":"locality","name:en":"Etropole","name":"\u0415\u0442\u0440\u043e\u043f\u043e\u043b\u0435","kind_detail":"town","source":"openstreetmap.org","min_zoom":8.0,"int_name":"Etropole","id":273488702,"population":10936},"coordinates":[260,3160]},{"type":"Point","properties":{"kind":"locality","name:en":"Teteven","name":"\u0422\u0435\u0442\u0435\u0432\u0435\u043d","kind_detail":"town","min_zoom":8.0,"source":"openstreetmap.org","name:fr":"Teteven","int_name":"Teteven","id":273488741,"population":10077},"coordinates":[1041,3501]},{"type":"Point","properties":{"kind":"locality","name:en":"Sopot","name":"\u0421\u043e\u043f\u043e\u0442","kind_detail":"town","min_zoom":8.0,"source":"openstreetmap.org","name:fr":"Sopot","int_name":"Sopot","id":357444883,"population":8754},"coordinates":[2474,2457]},{"type":"Point","properties":{"kind":"locality","int_name":"Septemvri","name":"\u0421\u0435\u043f\u0442\u0435\u043c\u0432\u0440\u0438","kind_detail":"town","source":"openstreetmap.org","min_zoom":8.0,"id":270707188,"population":8590},"coordinates":[660,690]},{"type":"Point","properties":{"kind":"locality","int_name":"Krichim","name":"\u041a\u0440\u0438\u0447\u0438\u043c","kind_detail":"town","source":"openstreetmap.org","min_zoom":8.0,"id":273488947,"population":8571},"coordinates":[1643,37]},{"type":"Point","properties":{"kind":"locality","name:en":"Hisarya","name":"\u0425\u0438\u0441\u0430\u0440\u044f","kind_detail":"town","source":"openstreetmap.org","min_zoom":8.0,"int_name":"Hisarya","id":262893507,"population":7660},"coordinates":[2341,1869]},{"type":"Point","properties":{"kind":"locality","name:en":"Pirdop","name":"\u041f\u0438\u0440\u0434\u043e\u043f","kind_detail":"town","name:de":"Pirdop","source":"openstreetmap.org","min_zoom":8.0,"int_name":"Pirdop","id":273488675,"population":7439},"coordinates":[798,2640]},{"type":"Point","properties":{"kind":"locality","name:en":"Saedinenie","name":"\u0421\u044a\u0435\u0434\u0438\u043d\u0435\u043d\u0438\u0435","kind_detail":"town","source":"openstreetmap.org","min_zoom":8.0,"int_name":"Saedinenie","id":273488809,"population":5804},"coordinates":[1854,934]},{"type":"Point","properties":{"kind":"locality","name:en":"Strelcha","name":"\u0421\u0442\u0440\u0435\u043b\u0447\u0430","kind_detail":"town","min_zoom":8.0,"name:de":"Streltscha","source":"openstreetmap.org","name:fr":"Streltcha","int_name":"Strelcha","id":273488746,"population":4230},"coordinates":[1203,1873]}]},"transit":{"type":"GeometryCollection","geometries":[{"type":"MultiLineString","properties":{"source":"openstreetmap.org","kind":"train","name":"\u041f\u043b\u043e\u0432\u0434\u0438\u0432 - \u0410\u0441\u0435\u043d\u043e\u0432\u0433\u0440\u0430\u0434","sort_rank":275,"min_zoom":6.0,"osm_relation":true},"arcs":[[0],[1],[2],[3],[4],[5]]},{"type":"MultiLineString","properties":{"source":"openstreetmap.org","kind":"train","name":"\u0416\u041f \u041b\u0438\u043d\u0438\u044f 8 \u041f\u043b\u043e\u0432\u0434\u0438\u0432 - \u0424\u0438\u043b\u0438\u043f\u043e\u0432\u043e - \u041c\u0438\u0445\u0430\u0439\u043b\u043e\u0432\u043e - \u0421\u0442\u0430\u0440\u0430 \u0417\u0430\u0433\u043e\u0440\u0430 - \u042f\u043c\u0431\u043e\u043b - \u0417\u0438\u043c\u043d\u0438\u0446\u0430 - \u041a\u0430\u0440\u043d\u043e\u0431\u0430\u0442 - \u0411\u0443\u0440\u0433\u0430\u0441","sort_rank":275,"ref":"8","min_zoom":6.0,"osm_relation":true},"arcs":[[6],[7],[8],[9],[10],[11],[12],[13],[14],[15],[16]]},{"type":"MultiLineString","properties":{"source":"openstreetmap.org","kind":"train","name":"\u0416\u041f \u041b\u0438\u043d\u0438\u044f 82 \u0424\u0438\u043b\u0438\u043f\u043e\u0432\u043e - \u0414\u043e\u043b\u043d\u0430 \u043c\u0430\u0445\u0430\u043b\u0430 - \u041a\u0430\u0440\u043b\u043e\u0432\u043e;\u0414\u043e\u043b\u043d\u0430 \u043c\u0430\u0445\u0430\u043b\u0430 - \u0425\u0438\u0441\u0430\u0440\u044f","sort_rank":275,"ref":"82","min_zoom":6.0,"osm_relation":true},"arcs":[[17],[18],[19]]},{"type":"MultiLineString","properties":{"source":"openstreetmap.org","kind":"train","name":"\u0416\u041f \u041b\u0438\u043d\u0438\u044f 3 \u0418\u043b\u0438\u044f\u043d\u0446\u0438 - \u0414\u044a\u0431\u043e\u0432\u043e - \u0417\u0438\u043c\u043d\u0438\u0446\u0430, \u041a\u0430\u0440\u043d\u043e\u0431\u0430\u0442 - \u0412\u0430\u0440\u043d\u0430-\u0444\u0435\u0440\u0438\u0431\u043e\u0442\u043d\u0430","sort_rank":275,"ref":"3","min_zoom":6.0,"osm_relation":true},"arcs":[[20],[21],[22],[23],[24],[25],[26],[27],[28],[29],[30],[31]]},{"type":"LineString","properties":{"kind":"train","name":"\u0416\u041f \u041b\u0438\u043d\u0438\u044f 24 \u0421\u0432\u0438\u0449\u043e\u0432 - \u041b\u0435\u0432\u0441\u043a\u0438 - \u0422\u0440\u043e\u044f\u043d","sort_rank":275,"source":"openstreetmap.org","min_zoom":6.0,"ref":"24","id":-3897345,"osm_relation":true},"arcs":[32]},{"type":"MultiLineString","properties":{"kind":"train","name":"\u0416\u041f \u041b\u0438\u043d\u0438\u044f 18 \u0421\u0442\u0430\u043c\u0431\u043e\u043b\u0438\u0439\u0441\u043a\u0438 - \u041f\u0435\u0449\u0435\u0440\u0430","sort_rank":275,"source":"openstreetmap.org","min_zoom":6.0,"ref":"18","id":-3894055,"osm_relation":true},"arcs":[[33],[34]]},{"type":"MultiLineString","properties":{"kind":"train","name":"\u041f\u043b\u043e\u0432\u0434\u0438\u0432 - \u041f\u0430\u043d\u0430\u0433\u044e\u0440\u0438\u0449\u0435","sort_rank":275,"source":"openstreetmap.org","min_zoom":6.0,"operator":"\u0411\u0414\u0416","osm_relation":true,"network":"\u0411\u0414\u0416"},"arcs":[[35],[36],[37],[38]]}]},"pois":{"type":"GeometryCollection","geometries":[{"type":"Point","properties":{"kind":"protected_area","name:en":"Fosilni nahodki","protect_class":"3","area":67048900,"source":"openstreetmap.org","min_zoom":8.0,"tier":2,"id":-4423878,"osm_relation":true,"name":"\u0424\u043e\u0441\u0438\u043b\u043d\u0438 \u043d\u0430\u0445\u043e\u0434\u043a\u0438"},"coordinates":[3343,345]},{"type":"Point","properties":{"kind":"protected_area","name:en":"Varlishnitsa","protect_class":"6","area":15679300,"source":"openstreetmap.org","min_zoom":8.0,"tier":2,"id":-4273830,"osm_relation":true,"name":"\u0412\u044a\u0440\u043b\u0438\u0448\u043d\u0438\u0446\u0430"},"coordinates":[1548,2512]},{"type":"Point","properties":{"kind":"protected_area","name:en":"Eledjik","protect_class":"6","area":13382400,"source":"openstreetmap.org","min_zoom":8.0,"tier":2,"id":-4273529,"osm_relation":true,"name":"\u0415\u043b\u0435\u0434\u0436\u0438\u043a"},"coordinates":[55,1425]},{"type":"Point","properties":{"kind":"protected_area","name:en":"Nature Park Bulgarka","protect_class":"5","area":445931000,"source":"openstreetmap.org","min_zoom":7.0,"tier":2,"id":-4262151,"osm_relation":true,"name":"\u041f\u0440\u0438\u0440\u043e\u0434\u0435\u043d \u043f\u0430\u0440\u043a \u0411\u044a\u043b\u0433\u0430\u0440\u043a\u0430"},"coordinates":[3977,3017]}]},"boundaries":{"type":"GeometryCollection","geometries":[]},"roads":{"type":"GeometryCollection","geometries":[{"type":"LineString","properties":{"bus_network":null,"sort_rank":380,"kind_detail":"primary","kind":"major_road","source":"openstreetmap.org","min_zoom":8.0,"bus_shield_text":"7","landuse_kind":"urban_area"},"arcs":[39]},{"type":"MultiLineString","properties":{"source":"openstreetmap.org","kind":"major_road","name:en":"6ti Septemvri","landuse_kind":"residential","sort_rank":380,"kind_detail":"primary","min_zoom":8.0},"arcs":[[40],[41],[42]]},{"type":"LineString","properties":{"bus_network":null,"network":"bg:national","sort_rank":380,"kind_detail":"primary","kind":"major_road","source":"openstreetmap.org","min_zoom":8.0,"bus_shield_text":"7","shield_text":"862","landuse_kind":"residential"},"arcs":[43]},{"type":"MultiLineString","properties":{"kind":"highway","network":"bg:national","sort_rank":383,"kind_detail":"motorway","source":"openstreetmap.org","min_zoom":8.0,"all_networks":["bg:national","e-road"],"shield_text":"1","ref":"A 1","all_shield_texts":["1","80"]},"arcs":[[44],[45],[46],[47],[48],[49],[50],[51]]},{"type":"MultiLineString","properties":{"kind":"highway","network":"bg:national","sort_rank":383,"kind_detail":"motorway","source":"openstreetmap.org","min_zoom":8.0,"all_networks":["bg:national","e-road"],"shield_text":"4","ref":"A 4","all_shield_texts":["4","80"]},"arcs":[[52],[53]]},{"type":"MultiLineString","properties":{"bus_network":null,"sort_rank":380,"kind_detail":"primary","kind":"major_road","source":"openstreetmap.org","min_zoom":8.0,"bus_shield_text":"10","landuse_kind":"residential"},"arcs":[[54],[55],[56],[57],[58],[59],[60],[61]]},{"type":"MultiLineString","properties":{"kind":"major_road","network":"bg:national","sort_rank":380,"kind_detail":"primary","source":"openstreetmap.org","min_zoom":8.0,"shield_text":"4","ref":"4"},"arcs":[[62],[63],[64],[65],[66]]},{"type":"LineString","properties":{"kind":"major_road","network":"e-road","sort_rank":380,"kind_detail":"primary","source":"openstreetmap.org","min_zoom":8.0,"shield_text":"83","ref":"E 83","id":231973451},"arcs":[67]},{"type":"LineString","properties":{"kind":"major_road","network":"e-road","sort_rank":380,"kind_detail":"primary","source":"openstreetmap.org","min_zoom":8.0,"landuse_kind":"park","shield_text":"871","ref":"6","id":457824380},"arcs":[68]},{"type":"MultiLineString","properties":{"sort_rank":380,"kind_detail":"primary","min_zoom":8.0,"kind":"major_road","source":"openstreetmap.org"},"arcs":[[69],[70],[71],[72],[73],[74]]},{"type":"LineString","properties":{"kind":"major_road","sort_rank":380,"kind_detail":"primary","bus_network":null,"source":"openstreetmap.org","min_zoom":8.0,"bus_shield_text":"7","landuse_kind":"residential","id":135435915},"arcs":[75]},{"type":"LineString","properties":{"source":"openstreetmap.org","kind":"major_road","name:en":"bul. Plovdivska","landuse_kind":"residential","sort_rank":380,"kind_detail":"primary","min_zoom":8.0},"arcs":[76]},{"type":"LineString","properties":{"kind":"major_road","name:en":"Asenovgradsko shose Blvd","sort_rank":380,"kind_detail":"primary","bus_network":null,"source":"openstreetmap.org","min_zoom":8.0,"bus_shield_text":"10","landuse_kind":"urban_area","id":374547013},"arcs":[77]},{"type":"MultiLineString","properties":{"kind":"major_road","name:en":"Hristo Botev Blvd","network":"bg:national","sort_rank":380,"kind_detail":"primary","source":"openstreetmap.org","min_zoom":8.0,"landuse_kind":"residential","shield_text":"862"},"arcs":[[78],[79]]},{"type":"LineString","properties":{"kind":"major_road","name:en":"bul. Ivan Vazov","network":"e-road","sort_rank":380,"kind_detail":"primary","source":"openstreetmap.org","min_zoom":8.0,"shield_text":"871","ref":"6"},"arcs":[80]},{"type":"MultiLineString","properties":{"source":"openstreetmap.org","kind":"major_road","name:en":"Osvobozhdenie Blvd","landuse_kind":"residential","sort_rank":380,"kind_detail":"primary","min_zoom":8.0},"arcs":[[81],[82],[83],[84],[85],[86]]},{"type":"LineString","properties":{"bus_network":null,"name:en":"Tsar Boris III Obedinitel Blvd","sort_rank":380,"kind_detail":"primary","kind":"major_road","source":"openstreetmap.org","min_zoom":8.0,"bus_shield_text":"9","landuse_kind":"urban_area"},"arcs":[87]},{"type":"LineString","properties":{"bus_network":null,"network":"bg:national","sort_rank":380,"kind_detail":"primary","kind":"major_road","source":"openstreetmap.org","min_zoom":8.0,"bus_shield_text":"2","shield_text":"8","landuse_kind":"urban_area","ref":"8"},"arcs":[88]},{"type":"MultiLineString","properties":{"kind":"highway","network":"bg:national","sort_rank":383,"landuse_kind":"urban_area","source":"openstreetmap.org","min_zoom":8.0,"all_networks":["bg:national","e-road"],"kind_detail":"motorway","shield_text":"1","ref":"A 1","all_shield_texts":["1","80"]},"arcs":[[89],[90]]},{"type":"LineString","properties":{"kind":"major_road","name:en":"Tsar Boris III Obedinitel Blvd","sort_rank":380,"kind_detail":"primary","bus_network":null,"source":"openstreetmap.org","min_zoom":8.0,"bus_shield_text":"7","landuse_kind":"residential","id":157623998},"arcs":[91]},{"type":"MultiLineString","properties":{"bus_network":null,"name:en":"Osvobozhdenie Blvd","sort_rank":380,"kind_detail":"primary","kind":"major_road","source":"openstreetmap.org","min_zoom":8.0,"bus_shield_text":"10","landuse_kind":"residential"},"arcs":[[92],[93],[94]]},{"type":"LineString","properties":{"kind":"major_road","network":"bg:national","sort_rank":380,"kind_detail":"primary","source":"openstreetmap.org","min_zoom":8.0,"landuse_kind":"urban_area","shield_text":"37","ref":"6;37"},"arcs":[95]},{"type":"LineString","properties":{"kind":"major_road","name:en":"Carigradsko shose Blvd","sort_rank":380,"landuse_kind":"residential","source":"openstreetmap.org","min_zoom":8.0,"kind_detail":"primary","id":161082233},"arcs":[96]},{"type":"MultiLineString","properties":{"kind":"highway","network":"bg:national","sort_rank":383,"kind_detail":"motorway","source":"openstreetmap.org","min_zoom":8.0,"all_networks":["bg:national","e-road"],"shield_text":"2","ref":"A 2","all_shield_texts":["2","83"]},"arcs":[[97],[98]]},{"type":"MultiLineString","properties":{"source":"openstreetmap.org","kind":"major_road","name:en":"Asenovgradsko shose Blvd","landuse_kind":"urban_area","sort_rank":380,"kind_detail":"primary","min_zoom":8.0},"arcs":[[99],[100]]},{"type":"LineString","properties":{"source":"openstreetmap.org","kind":"major_road","name:en":"Naycho Canov Blvd","landuse_kind":"urban_area","sort_rank":380,"kind_detail":"primary","min_zoom":8.0},"arcs":[101]},{"type":"LineString","properties":{"source":"openstreetmap.org","kind":"major_road","sort_rank":381,"kind_detail":"trunk","ref":"E 80","min_zoom":8.0,"id":91896439},"arcs":[102]},{"type":"MultiLineString","properties":{"bus_network":null,"sort_rank":380,"kind_detail":"primary","kind":"major_road","source":"openstreetmap.org","min_zoom":8.0,"bus_shield_text":"2","landuse_kind":"residential"},"arcs":[[103],[104],[105],[106],[107]]},{"type":"MultiLineString","properties":{"bus_network":null,"name:en":"Tsar Boris III Obedinitel Blvd","sort_rank":380,"kind_detail":"primary","kind":"major_road","source":"openstreetmap.org","min_zoom":8.0,"bus_shield_text":"9","landuse_kind":"residential"},"arcs":[[108],[109],[110]]},{"type":"MultiLineString","properties":{"kind":"highway","network":"bg:national","sort_rank":383,"kind_detail":"motorway","source":"openstreetmap.org","min_zoom":8.0,"all_networks":["bg:national"],"shield_text":"1","ref":"A 1","all_shield_texts":["1"]},"arcs":[[111],[112]]},{"type":"MultiLineString","properties":{"kind":"major_road","network":"bg:national","sort_rank":380,"kind_detail":"primary","source":"openstreetmap.org","min_zoom":8.0,"shield_text":"5","ref":"5"},"arcs":[[113],[114],[115],[116]]},{"type":"LineString","properties":{"source":"openstreetmap.org","kind":"major_road","name:en":"Asenovgradsko shose Blvd","sort_rank":380,"kind_detail":"primary","min_zoom":8.0},"arcs":[117]},{"type":"MultiLineString","properties":{"sort_rank":381,"source":"openstreetmap.org","min_zoom":8.0,"kind":"major_road","kind_detail":"trunk"},"arcs":[[118],[119]]},{"type":"MultiLineString","properties":{"kind":"major_road","name:en":"Bulgaria Blvd","network":"bg:national","sort_rank":380,"kind_detail":"primary","source":"openstreetmap.org","min_zoom":8.0,"landuse_kind":"urban_area","shield_text":"8","ref":"8"},"arcs":[[120],[121],[122],[123]]},{"type":"LineString","properties":{"bus_network":null,"int_name":"Gladstone","sort_rank":380,"kind_detail":"primary","kind":"major_road","source":"openstreetmap.org","min_zoom":8.0,"name:en":"Gladstone","bus_shield_text":"10","landuse_kind":"residential"},"arcs":[124]},{"type":"MultiLineString","properties":{"kind":"major_road","network":"e-road","sort_rank":380,"kind_detail":"primary","source":"openstreetmap.org","min_zoom":8.0,"landuse_kind":"urban_area","shield_text":"871","ref":"6"},"arcs":[[125],[126],[127]]},{"type":"MultiLineString","properties":{"source":"openstreetmap.org","kind":"major_road","name:en":"Dunav blvd","landuse_kind":"urban_area","sort_rank":380,"kind_detail":"primary","min_zoom":8.0},"arcs":[[128],[129]]},{"type":"MultiLineString","properties":{"kind":"major_road","network":"bg:national","sort_rank":380,"kind_detail":"primary","source":"openstreetmap.org","min_zoom":8.0,"landuse_kind":"residential","shield_text":"862"},"arcs":[[130],[131]]},{"type":"LineString","properties":{"kind":"major_road","name:en":"Asenovgradsko shose Blvd","sort_rank":380,"kind_detail":"primary","bus_network":null,"source":"openstreetmap.org","min_zoom":8.0,"bus_shield_text":"10","landuse_kind":"residential","id":374547013},"arcs":[132]},{"type":"MultiLineString","properties":{"kind":"major_road","network":"bg:national","sort_rank":380,"kind_detail":"primary","source":"openstreetmap.org","min_zoom":8.0,"landuse_kind":"protected_area","shield_text":"8","ref":"8"},"arcs":[[133],[134]]},{"type":"LineString","properties":{"kind":"major_road","sort_rank":380,"landuse_kind":"urban_area","source":"openstreetmap.org","min_zoom":8.0,"kind_detail":"primary","ref":"E 80","id":191682408},"arcs":[135]},{"type":"LineString","properties":{"kind":"major_road","name:en":"6ti Septemvri","sort_rank":380,"landuse_kind":"urban_area","source":"openstreetmap.org","min_zoom":8.0,"kind_detail":"primary","id":81909096},"arcs":[136]},{"type":"LineString","properties":{"kind":"major_road","network":"e-road","sort_rank":381,"kind_detail":"trunk","source":"openstreetmap.org","min_zoom":8.0,"shield_text":"83","ref":"E 83"},"arcs":[137]},{"type":"MultiLineString","properties":{"source":"openstreetmap.org","kind":"major_road","name:en":"Naycho Canov Blvd","landuse_kind":"residential","sort_rank":380,"kind_detail":"primary","min_zoom":8.0},"arcs":[[138],[139],[140],[141],[142]]},{"type":"LineString","properties":{"kind":"major_road","name:en":"6ti Septemvri","network":"bg:national","sort_rank":380,"kind_detail":"primary","source":"openstreetmap.org","min_zoom":8.0,"landuse_kind":"urban_area","shield_text":"8","ref":"8","id":91936421},"arcs":[143]},{"type":"MultiLineString","properties":{"kind":"major_road","network":"bg:national","sort_rank":380,"kind_detail":"primary","source":"openstreetmap.org","min_zoom":8.0,"shield_text":"3","ref":"3"},"arcs":[[144],[145],[146],[147]]},{"type":"MultiLineString","properties":{"kind":"major_road","network":"e-road","sort_rank":380,"kind_detail":"primary","source":"openstreetmap.org","min_zoom":8.0,"shield_text":"871","ref":"6"},"arcs":[[148],[149],[150],[151],[152],[153],[154],[155],[156],[157],[158],[159],[160],[161],[162],[163]]},{"type":"LineString","properties":{"kind":"major_road","network":"bg:national","sort_rank":380,"kind_detail":"primary","source":"openstreetmap.org","min_zoom":8.0,"shield_text":"56","ref":"6; 56"},"arcs":[164]},{"type":"MultiLineString","properties":{"kind":"major_road","network":"bg:national","sort_rank":380,"kind_detail":"primary","source":"openstreetmap.org","min_zoom":8.0,"landuse_kind":"residential","shield_text":"8","ref":"8"},"arcs":[[165],[166],[167],[168],[169],[170]]},{"type":"LineString","properties":{"kind":"major_road","network":"bg:national","sort_rank":380,"kind_detail":"primary","source":"openstreetmap.org","min_zoom":8.0,"landuse_kind":"residential","shield_text":"8"},"arcs":[171]},{"type":"LineString","properties":{"kind":"major_road","name:en":"Carigradsko shose Blvd","sort_rank":380,"landuse_kind":"urban_area","source":"openstreetmap.org","min_zoom":8.0,"kind_detail":"primary","id":161082233},"arcs":[172]},{"type":"LineString","properties":{"kind":"major_road","network":"e-road","sort_rank":380,"kind_detail":"primary","source":"openstreetmap.org","min_zoom":8.0,"shield_text":"83","id":55238672},"arcs":[173]},{"type":"MultiLineString","properties":{"kind":"major_road","network":"bg:national","sort_rank":380,"kind_detail":"primary","source":"openstreetmap.org","min_zoom":8.0,"shield_text":"8","ref":"8"},"arcs":[[174],[175],[176],[177],[178],[179],[180],[181],[182],[183],[184],[185],[186],[187],[188],[189],[190],[191],[192],[193],[194]]},{"type":"LineString","properties":{"source":"openstreetmap.org","kind":"major_road","name:en":"Hristo Botev Blvd","landuse_kind":"residential","sort_rank":380,"kind_detail":"primary","min_zoom":8.0},"arcs":[195]},{"type":"MultiLineString","properties":{"kind":"highway","network":"bg:national","sort_rank":383,"kind_detail":"motorway","source":"openstreetmap.org","min_zoom":8.0,"all_networks":["bg:national","e-road"],"shield_text":"1","all_shield_texts":["1","80"]},"arcs":[[196],[197]]},{"type":"MultiLineString","properties":{"bus_network":null,"name:en":"Tsar Boris III Obedinitel Blvd","sort_rank":380,"kind_detail":"primary","kind":"major_road","source":"openstreetmap.org","min_zoom":8.0,"bus_shield_text":"2","landuse_kind":"urban_area"},"arcs":[[198],[199],[200]]},{"type":"MultiLineString","properties":{"source":"openstreetmap.org","kind":"major_road","landuse_kind":"residential","sort_rank":380,"kind_detail":"primary","min_zoom":8.0},"arcs":[[201],[202],[203],[204],[205],[206],[207],[208],[209],[210],[211],[212],[213],[214],[215],[216],[217],[218],[219],[220]]},{"type":"MultiLineString","properties":{"kind":"highway","int_name":"Maritsa motorway","network":"bg:national","sort_rank":383,"kind_detail":"motorway","source":"openstreetmap.org","min_zoom":8.0,"name:en":"Maritsa motorway","all_networks":["bg:national","e-road"],"shield_text":"4","ref":"A 4","all_shield_texts":["4","80"]},"arcs":[[221],[222],[223],[224],[225],[226]]},{"type":"MultiLineString","properties":{"kind":"major_road","network":"bg:national","sort_rank":380,"kind_detail":"primary","source":"openstreetmap.org","min_zoom":8.0,"landuse_kind":"urban_area","shield_text":"8"},"arcs":[[227],[228]]},{"type":"LineString","properties":{"kind":"major_road","network":"bg:national","sort_rank":380,"kind_detail":"primary","source":"openstreetmap.org","min_zoom":8.0,"landuse_kind":"urban_area","shield_text":"8","ref":"8;37","id":24854683},"arcs":[229]},{"type":"LineString","properties":{"bus_network":null,"sort_rank":380,"kind_detail":"primary","kind":"major_road","source":"openstreetmap.org","min_zoom":8.0,"bus_shield_text":"2","landuse_kind":"urban_area"},"arcs":[230]},{"type":"LineString","properties":{"kind":"major_road","network":"bg:national","sort_rank":380,"kind_detail":"primary","source":"openstreetmap.org","min_zoom":8.0,"shield_text":"3","id":195422724},"arcs":[231]},{"type":"MultiLineString","properties":{"kind":"major_road","network":"bg:national","sort_rank":380,"kind_detail":"primary","source":"openstreetmap.org","min_zoom":8.0,"landuse_kind":"urban_area","shield_text":"8","ref":"8"},"arcs":[[232],[233],[234],[235],[236],[237],[238],[239],[240],[241],[242],[243],[244],[245],[246],[247],[248],[249],[250],[251],[252],[253],[254],[255],[256],[257],[258],[259],[260],[261],[262],[263],[264]]},{"type":"MultiLineString","properties":{"source":"openstreetmap.org","kind":"major_road","landuse_kind":"urban_area","sort_rank":380,"kind_detail":"primary","min_zoom":8.0},"arcs":[[265],[266],[267],[268],[269],[270],[271],[272],[273],[274]]},{"type":"MultiLineString","properties":{"source":"openstreetmap.org","kind":"major_road","network":"e-road","sort_rank":380,"kind_detail":"primary","min_zoom":8.0,"shield_text":"871"},"arcs":[[275],[276]]},{"type":"LineString","properties":{"kind":"major_road","network":"bg:national","sort_rank":380,"kind_detail":"primary","source":"openstreetmap.org","min_zoom":8.0,"landuse_kind":"urban_area","shield_text":"4","ref":"4"},"arcs":[277]},{"type":"MultiLineString","properties":{"kind":"major_road","name:en":"bul. Plovdivska","sort_rank":380,"kind_detail":"primary","source":"openstreetmap.org","min_zoom":8.0,"int_name":"Plovdivska","landuse_kind":"urban_area"},"arcs":[[278],[279]]},{"type":"MultiLineString","properties":{"bus_network":null,"name:en":"Tsar Boris III Obedinitel Blvd","sort_rank":380,"kind_detail":"primary","kind":"major_road","source":"openstreetmap.org","min_zoom":8.0,"bus_shield_text":"2","landuse_kind":"residential"},"arcs":[[280],[281],[282]]},{"type":"MultiLineString","properties":{"source":"openstreetmap.org","kind":"major_road","sort_rank":380,"kind_detail":"primary","ref":"E 80","min_zoom":8.0},"arcs":[[283],[284]]},{"type":"MultiLineString","properties":{"kind":"major_road","network":"bg:national","sort_rank":380,"kind_detail":"primary","source":"openstreetmap.org","min_zoom":8.0,"landuse_kind":"urban_area","shield_text":"375","ref":"375"},"arcs":[[285],[286]]},{"type":"MultiLineString","properties":{"bus_network":null,"name:en":"Mendeleev","sort_rank":380,"kind_detail":"primary","kind":"major_road","source":"openstreetmap.org","min_zoom":8.0,"bus_shield_text":"10","landuse_kind":"residential"},"arcs":[[287],[288]]},{"type":"MultiLineString","properties":{"bus_network":null,"sort_rank":380,"kind_detail":"primary","kind":"major_road","source":"openstreetmap.org","min_zoom":8.0,"bus_shield_text":"9","landuse_kind":"residential"},"arcs":[[289],[290],[291],[292],[293]]},{"type":"LineString","properties":{"kind":"major_road","network":"bg:national","sort_rank":380,"kind_detail":"primary","bus_network":null,"source":"openstreetmap.org","min_zoom":8.0,"bus_shield_text":"7","shield_text":"8","landuse_kind":"urban_area","ref":"8","id":28693126},"arcs":[294]},{"type":"MultiLineString","properties":{"kind":"major_road","name:en":"bul. Plovdivska","sort_rank":380,"kind_detail":"primary","source":"openstreetmap.org","min_zoom":8.0,"int_name":"Plovdivska","landuse_kind":"residential"},"arcs":[[295],[296],[297],[298]]}]},"earth":{"type":"GeometryCollection","geometries":[{"type":"Polygon","properties":{"sort_rank":10,"source":"naturalearthdata.com","kind":"earth","min_zoom":0.0,"id":4741},"arcs":[[299]]}]},"landuse":{"type":"GeometryCollection","geometries":[{"type":"Polygon","properties":{"kind":"protected_area","protect_class":"3","area":111149000,"sort_rank":17,"source":"openstreetmap.org","min_zoom":7.0,"tier":2,"id":-4423878,"osm_relation":true},"arcs":[[300]]},{"type":"MultiPolygon","properties":{"source":"openstreetmap.org","kind":"residential","tier":2,"area":68394018,"sort_rank":20,"min_zoom":8.0,"osm_relation":true},"arcs":[[[301],[302]]]},{"type":"MultiPolygon","properties":{"kind":"protected_area","protect_class":"5","area":361236866,"sort_rank":17,"source":"openstreetmap.org","min_zoom":6.0,"tier":2,"osm_relation":true},"arcs":[[[303]]]},{"type":"MultiPolygon","properties":{"source":"naturalearthdata.com","kind":"urban_area","name":"","area":1959797502,"sort_rank":11,"min_zoom":4.0},"arcs":[[[304]],[[305]],[[306]],[[307]],[[308]],[[309]],[[310]],[[311]]]},{"type":"MultiPolygon","properties":{"kind":"protected_area","protect_class":"6","area":77458528,"sort_rank":17,"source":"openstreetmap.org","min_zoom":8.0,"tier":2,"osm_relation":true},"arcs":[[[312]],[[313]]]},{"type":"MultiPolygon","properties":{"kind":"nature_reserve","protect_class":"1","area":916838671,"sort_rank":23,"source":"openstreetmap.org","min_zoom":8.0,"tier":2,"osm_relation":true},"arcs":[[[314]],[[315]],[[316]],[[317]],[[318]],[[319]],[[320]],[[321]]]},{"type":"MultiPolygon","properties":{"kind":"protected_area","protect_class":"3","area":96127412,"sort_rank":17,"source":"openstreetmap.org","min_zoom":8.0,"tier":2,"osm_relation":true},"arcs":[[[322]]]},{"type":"MultiPolygon","properties":{"source":"openstreetmap.org","kind":"residential","tier":2,"area":91371064,"sort_rank":20,"min_zoom":8.0},"arcs":[[[323]],[[324]],[[325]],[[326]],[[327]],[[328]]]},{"type":"Polygon","properties":{"kind":"residential","name":"\u0412\u0435\u043b\u0438\u043d\u0433\u0440\u0430\u0434","area":13580900,"sort_rank":20,"source":"openstreetmap.org","min_zoom":8.0,"tier":2,"id":439754432},"arcs":[[329]]},{"type":"MultiPolygon","properties":{"source":"openstreetmap.org","kind":"park","tier":2,"area":4721915508,"sort_rank":24,"min_zoom":4.0,"osm_relation":true},"arcs":[[[330]]]}]}},"type":"Topology","transform":{"translate":[23.90625,42.0329743324],"scale":[0.0003433228,0.0002529086]},"arcs":[[[2431,398],[35,1],[60,-57]],[[2645,240],[-171,154],[-8,5],[-5,3],[-4,1],[-7,1],[-4,0],[-4,-1]],[[2530,337],[91,-90],[12,-7],[13,-1]],[[2768,0],[-90,233],[-29,7]],[[2434,402],[-4,-1],[4,0],[0,1]],[[2658,239],[0,-1],[-1,0],[0,1],[1,0]],[[2429,401],[-42,3],[-12,82],[27,35]],[[2743,616],[-7,1],[-8,0],[-221,-13],[-77,-69]],[[2601,375],[-24,-63],[-46,25]],[[2553,315],[15,-6],[9,2],[7,7],[17,57]],[[2749,615],[-6,1]],[[2743,616],[-7,1],[-3,0],[-5,0],[-13,-1],[-5,-2],[-6,-1],[-8,-4],[-6,-4],[-6,-6],[-3,-5],[-3,-4],[-43,-90],[-3,-8],[-2,-6],[-9,-31],[-16,-63]],[[2605,392],[76,202],[68,21]],[[2937,605],[-57,-13],[-131,23]],[[3652,668],[-99,-20],[-261,19],[-287,-79],[-42,14]],[[3715,682],[-29,-6]],[[4096,735],[-231,13],[-140,-64]],[[2542,1470],[-18,38],[-116,21],[-64,59],[-69,173],[46,112]],[[2405,523],[29,20],[-58,319],[163,524],[-19,42],[22,42]],[[2542,1470],[1,140],[93,166],[68,48],[45,145],[-6,35],[-239,271],[1,28],[71,61],[56,3]],[[251,2654],[-29,11],[-60,-29],[-85,78],[-77,2]],[[625,2696],[-178,-90],[-119,8],[-29,24]],[[1478,2621],[-299,35],[-30,62],[-102,44],[-94,-22],[-61,-63],[-93,-5],[-122,42]],[[1597,2596],[-37,6],[31,30]],[[1591,2632],[18,24],[20,-13],[-14,-21],[-24,10]],[[1591,2632],[-91,-11]],[[2220,2550],[-227,179],[-105,-35],[-127,13],[-26,-54],[-116,-52]],[[2588,2367],[-183,51],[-158,120]],[[2860,2252],[-220,114]],[[2874,2248],[4,-2]],[[2892,2242],[32,-31],[-11,-55],[85,29],[34,-37]],[[3196,2225],[206,169],[214,-24],[172,21],[228,106],[80,-37]],[[2402,4096],[3,-49],[-49,-38],[1,-144],[-131,-86],[29,-35],[14,-117],[93,-166],[-13,-126]],[[1174,2],[87,23],[62,-25]],[[1327,0],[-34,92],[112,44],[65,10],[171,-34],[34,93],[145,190]],[[821,1830],[49,-35],[119,-19],[102,31],[60,-19],[75,46],[87,-81],[107,-219],[-54,-21],[-21,-39],[23,-35],[-27,-111],[26,-54],[214,-107],[40,-56],[176,-121],[21,-83],[94,-30],[263,-217]],[[2394,514],[35,40],[-62,-2],[-189,106]],[[2429,401],[-41,-2],[-12,89]],[[2377,491],[16,22]],[[2458,479]],[[2496,475]],[[2496,475],[8,-1]],[[2502,474],[-6,1]],[[2396,396],[70,12]],[[0,1292],[24,-18]],[[24,1275],[-24,18]],[[48,1265],[143,-108],[128,68],[121,-8],[174,-68],[197,-58],[300,-140],[261,-162]],[[1374,790],[-158,102],[-105,59],[-300,141],[-197,58],[-164,65],[-10,3],[-121,7],[-49,-10],[-79,-58],[-143,109]],[[3824,631],[-1,0]],[[3823,631],[-22,-1],[-1,0],[-228,20],[-176,63],[-184,12],[-433,3],[-127,-18],[-264,7],[-289,-63],[-400,28],[-227,45],[-76,48]],[[1397,773],[71,-45],[4,-1],[227,-45],[400,-28],[1,0],[62,2],[226,60],[238,-10],[153,21],[434,-3],[182,-12],[152,-56],[25,-7],[228,-19],[1,0],[22,1]],[[3823,631],[20,2],[9,1]],[[4086,441],[10,-5]],[[4096,437],[-10,4]],[[2469,441],[-8,-4]],[[2461,436],[8,4]],[[2496,427],[0,24],[-25,-9]],[[2471,442],[25,8],[-1,-23]],[[2516,372],[1,1]],[[2523,378],[11,7]],[[2546,389],[-11,-2]],[[2534,385],[1,0],[-1,2],[-1,-1],[1,-1]],[[698,4088],[-24,-14]],[[683,4084],[15,4]],[[698,4088],[39,8]],[[851,4096],[59,-39],[119,-19],[11,-46],[30,-16],[273,-38],[769,68],[290,-22],[257,47],[80,-36],[127,19],[348,-59],[197,16]],[[3523,3959],[482,81],[77,56]],[[657,4041],[-7,-13]],[[1299,2721],[1,0]],[[1881,499]],[[1882,499],[1,0],[-1,0]],[[2260,614],[31,-16]],[[2567,265],[4,-7]],[[1882,498],[0,1],[-1,0]],[[1881,499],[1,-1]],[[2466,408],[-1,1]],[[1267,615],[-12,7]],[[2519,367],[6,-13]],[[2433,404],[-40,-8]],[[2462,408],[-26,-3]],[[2432,2460],[74,-24]],[[2542,458],[18,-21]],[[2558,392],[-12,-3]],[[2546,388],[12,3]],[[2576,405],[-18,-12]],[[2559,392],[18,12]],[[2578,408],[1,10]],[[2453,499],[4,-20]],[[2453,500],[0,-1],[2,0],[0,1],[-2,0]],[[1372,789],[25,-16]],[[1396,775],[-22,15]],[[2465,409],[-3,30]],[[2533,386],[-17,-13]],[[2517,373],[6,5]],[[2535,386],[11,2]],[[675,2664],[23,8]],[[2496,451],[42,7]],[[0,3479],[10,2],[24,17],[30,44],[114,29],[85,53],[60,4],[48,60],[4,24],[107,76],[100,97],[38,80]],[[618,3962],[-37,-76],[-207,-174],[-51,-83],[-61,-4],[-84,-54],[-114,-29],[-54,-60],[-10,-2]],[[2525,354],[16,-35],[7,-14]],[[2548,305],[-22,50]],[[2512,372],[-20,12]],[[2235,622],[25,-8]],[[2459,470],[0,3]],[[2461,449],[-1,9]],[[2471,442],[-2,-1]],[[2497,406],[-1,21]],[[2569,428],[-9,9]],[[2458,477],[0,-7]],[[2458,470],[0,-3]],[[2459,457],[3,-21]],[[4096,707],[-272,-76]],[[3852,634],[244,73]],[[4096,2755],[-15,21],[15,-64]],[[4096,2738],[0,14]],[[4096,2959],[0,-49]],[[4096,2999],[0,-26]],[[2548,305],[19,-40],[-19,40]],[[2193,649],[42,-27]],[[2254,614],[-61,36]],[[2373,489],[29,5]],[[2422,499],[-20,-4]],[[2423,498],[30,1]],[[2501,503],[-46,-3]],[[2461,437],[-11,-1],[-6,-2],[17,2]],[[674,2664],[1,0]],[[698,2672],[53,-30]],[[810,2639],[32,32]],[[2399,509],[-1,-1]],[[2399,508]],[[2436,405],[-3,-1]],[[2496,408],[-34,0]],[[2516,373],[3,-6]],[[3477,333],[-119,69]],[[4027,91],[-29,2]],[[2366,540],[11,-9]],[[2504,474],[1,0]],[[625,3979],[25,49],[-25,-49]],[[2480,395],[-9,8]],[[2471,403],[-5,5]],[[2468,406],[3,-3]],[[2471,403],[14,-12],[7,-7]],[[2512,372],[4,0]],[[2505,474],[3,0]],[[655,4042],[-98,-97],[-10,-72],[-65,-80],[5,-69],[-88,-92],[-59,-48],[-139,-15],[-96,10],[-69,44],[-25,-16],[52,-145],[-63,5]],[[680,4081],[-24,-38]],[[687,4092],[-7,-11]],[[687,4092],[2,4]],[[0,2661],[54,-11],[13,-34],[210,-98],[56,15],[19,42]],[[361,2575],[282,108],[31,-19]],[[751,2642],[59,-3]],[[842,2671],[187,119],[270,-69]],[[1300,2721],[97,-64],[24,16],[238,-39],[178,55],[163,-18],[114,-30],[98,-84],[173,-95],[47,-2]],[[2506,2436],[65,-24],[13,-31]],[[2584,2381],[59,-12]],[[2643,2370],[-59,11]],[[2645,2371],[-1,-1]],[[2644,2370],[-1,0],[0,-1]],[[2643,2369],[1,0],[0,1]],[[2644,2370],[1,1]],[[2661,2382],[-16,-11]],[[2661,2382],[236,-138],[157,42],[138,-49],[245,142],[313,-6]],[[2661,2383],[0,-1]],[[3763,2374],[102,-28],[139,98],[92,-18]],[[3750,2373],[13,1]],[[1272,584],[-8,2]],[[2504,480],[0,-4]],[[2504,478],[0,2]],[[2543,458],[72,-5]],[[2615,453],[-71,6]],[[3758,165],[-34,24]],[[2539,459],[4,-1]],[[2538,458],[1,1]],[[656,4043],[1,-2]],[[1070,610],[-361,11],[-580,165],[-39,56],[-40,3],[-50,49]],[[1175,592],[-30,3]],[[1175,592],[19,1]],[[1194,594],[-19,-2]],[[1320,609],[188,-9]],[[1508,600],[10,-2]],[[1518,598],[362,-99]],[[1883,499],[356,-23]],[[2242,476],[-3,0]],[[2239,476],[2,-1]],[[2244,474],[2,1]],[[2246,475],[-2,1]],[[2322,480],[-76,-5]],[[2634,455],[4,1]],[[2638,456],[-4,0]],[[3358,402],[-335,9],[-42,59],[-150,-26],[-193,12]],[[3724,189],[-247,144]],[[3998,93],[-83,8],[-157,64]],[[4096,83],[-69,8]],[[2242,474],[2,0]],[[2244,474],[-1,2],[-2,0],[1,-2]],[[2466,408],[30,0]],[[48,1266],[-24,9]],[[24,1274],[24,-9]],[[2458,479],[-2,6]],[[2458,478],[-1,1],[0,-1],[1,0]],[[2458,478]],[[2458,478],[0,-1]],[[2462,436],[6,-30]],[[2485,391],[-5,4]],[[2496,408]],[[2496,475],[0,-24]],[[2511,454],[-15,21]],[[2504,474],[-2,0]],[[2520,367],[-9,5]],[[2562,438],[-19,20]],[[2560,437],[1,-1]],[[2561,436],[1,0]],[[2568,428],[9,-9]],[[2578,419],[-9,9]],[[2577,418],[-1,-12]],[[2576,406],[2,0]],[[2578,419],[-1,0]],[[2577,419],[0,-1]],[[2577,418],[1,1]],[[2578,406],[0,2]],[[2558,393],[0,-1],[0,-1],[1,1],[-1,1]],[[4086,441],[-40,18],[-84,54]],[[3962,513],[-2,1],[-7,9]],[[3953,523],[-85,113],[-1,1],[-43,-6]],[[3852,634],[7,1],[94,-112]],[[3953,523],[9,-10]],[[3962,513],[8,-10],[76,-45],[40,-17]],[[1251,590],[-37,15]],[[2539,459]],[[1206,594],[0,1]],[[2456,485],[-1,14]],[[548,3873],[-1,3]],[[1145,595],[-75,15]],[[1205,595],[-11,-1]],[[1194,593],[10,1]],[[1211,604],[-6,-9]],[[1211,604],[2,0]],[[1212,605],[-1,-1]],[[1212,605],[1,-1]],[[1213,604],[1,2],[-1,0],[-1,-1]],[[1213,604],[39,-15]],[[1214,605]],[[1252,589],[-1,1]],[[1264,586],[-12,3]],[[1272,584],[25,21]],[[1297,605],[2,2]],[[1297,607],[0,-2]],[[1313,609],[-14,0]],[[1299,607],[14,2]],[[1299,607],[0,2]],[[1299,609],[-1,0],[-1,-2]],[[1297,607],[2,0]],[[1313,609],[7,0]],[[2351,486],[-29,-6]],[[2351,486],[22,3]],[[2402,495],[-51,-9]],[[2402,494],[21,4]],[[2453,500],[-31,-1]],[[2501,501],[3,-21]],[[2504,480],[-3,23]],[[2505,476],[-1,2]],[[2544,459],[-7,1]],[[2615,453],[19,2]],[[2634,456],[-19,-3]],[[1204,593],[2,0],[0,1],[-2,0],[0,-1]],[[2360,487],[0,1]],[[2390,493],[0,-1]],[[2402,495],[-3,13],[-22,23],[25,-36]],[[2457,479]],[[2458,478]],[[2500,503],[1,-2]],[[2507,474],[-3,0]],[[2511,372],[-5,-1]],[[2537,460],[-26,-6]],[[2526,355],[-6,12]],[[2664,2382],[-1,1]],[[2662,2382],[1,0],[0,1],[-1,0],[0,-1]],[[3411,3971],[112,-12]],[[1296,608],[1,-1]],[[1298,609],[-1,0]],[[2459,473],[-1,5]],[[2460,458],[-1,12]],[[2462,439],[-1,10]],[[2260,614],[-6,0]],[[2291,598],[75,-58]],[[2402,495],[0,-1]],[[2402,495]],[[2497,405],[19,-32]],[[2516,373],[-19,33]],[[2458,467],[1,-10]],[[2458,470]],[[2469,440],[2,2]],[[2495,427],[2,-22]],[[2561,436],[7,-8]],[[2455,499],[44,4]],[[1266,615],[9,-2]],[[1275,613],[21,-5]],[[1297,609],[-22,4]],[[1275,613],[-8,2]],[[0,4096],[4096,0],[0,-4096],[-4096,0],[0,4096]],[[3753,0],[41,143],[137,-70],[78,24],[50,-17],[-18,-80],[-288,0]],[[2245,344],[32,64],[58,-11],[-9,19],[45,19],[4,39],[129,6],[-2,-27],[44,7],[-3,42],[22,9],[17,-55],[33,-2],[-33,-84],[-49,-12],[-75,48],[17,-67],[-40,-1],[25,-28],[-54,-47],[-19,5],[16,45],[-28,0],[5,45],[-30,-11],[-21,27],[-36,-9],[-12,-36],[-36,15]],[[2423,346],[8,-2],[2,5],[-8,3],[-2,-6]],[[3653,3224],[17,38],[164,-67],[25,-17],[11,-73],[90,2],[66,-77],[66,30],[4,-204],[-88,-22],[-21,55],[-24,3],[-52,-88],[-29,34],[38,-4],[-3,27],[-36,40],[-15,-70],[-22,-1],[-47,126],[-92,33],[-32,82],[12,103],[-32,50]],[[2621,369],[-107,-94],[-194,72],[-59,51],[162,220],[98,43],[32,45],[74,-65],[25,-70],[-31,-202]],[[1395,697],[-72,-80],[-32,-88],[-97,44],[0,44],[-97,-44],[-33,44],[0,89],[324,87],[24,-52],[-17,-44]],[[2682,0],[-27,0],[6,6],[21,-4],[0,-2]],[[2884,0],[-171,0],[66,90],[99,-64],[6,-26]],[[870,2902],[-32,-264],[-141,7],[-45,38],[-8,87],[129,0],[30,144],[67,-12]],[[4096,3302],[-42,1],[-55,79],[74,47],[-69,150],[92,56],[0,-333]],[[870,3434],[-52,32],[-12,95],[129,0],[-13,-95],[-52,-32]],[[3523,3912],[-101,39],[-28,50],[0,87],[101,-38],[29,-50],[-1,-88]],[[1,1432],[45,60],[4,-31],[83,-81],[-56,-18],[-69,41],[-7,29]],[[1507,2531],[32,57],[57,-16],[-43,-136],[-43,1],[-3,94]],[[3507,2652],[4,44],[80,-22],[10,20],[81,-66],[0,-71],[-85,75],[-10,-121],[-80,141]],[[882,2921],[31,41],[15,-15],[36,24],[-13,28],[43,8],[42,100],[42,33],[10,-24],[34,3],[-3,-78],[-43,-4],[26,-52],[-19,-33],[-103,20],[-26,-50],[-55,-20],[-17,19]],[[1344,2848],[31,180],[54,-1],[33,-65],[55,25],[54,-10],[40,-43],[54,11],[22,-36],[-64,-74],[-112,18],[-135,-25],[-32,20]],[[1661,3071],[45,11],[9,-26],[70,-13],[20,15],[67,-53],[34,27],[37,-11],[-1,-23],[-124,-17],[-96,23],[-61,67]],[[2873,2583],[28,2],[-7,71],[90,-18],[-9,22],[32,18],[3,-28],[66,-37],[-45,120],[36,20],[-92,11],[-35,-51],[-51,36],[35,110],[52,-32],[24,20],[75,-22],[18,71],[32,13],[-25,-81],[13,-44],[-27,-20],[5,3],[52,-99],[-3,-79],[54,54],[-30,10],[-3,13],[34,-15],[36,33],[-18,97],[62,-116],[53,-20],[6,-107],[-14,-26],[-9,54],[-77,21],[-26,-24],[-69,14],[-9,-35],[-19,24],[2,-49],[-53,69],[8,-50],[-75,-17],[-120,64]],[[3299,2873],[54,66],[37,-21],[55,44],[46,-19],[7,-63],[-38,-35],[-97,-25],[-51,20],[-13,33]],[[2551,2654],[24,18],[-9,4],[-9,13],[39,2],[39,-82],[62,98],[134,-83],[-31,-39],[-6,36],[-29,-19],[-48,42],[21,-33],[-26,0],[-19,-13],[47,-1],[5,-22],[-39,-25],[-3,24],[-39,5],[14,-13],[-29,-7],[16,-4],[-23,-19],[-10,-81],[-81,199]],[[2109,2845],[40,-9],[6,-28],[20,16],[30,-49],[-14,-11],[35,2],[10,-30],[14,0],[12,29],[-64,39],[34,2],[-21,26],[47,-15],[-14,43],[31,-1],[-28,36],[52,-17],[-11,59],[36,-12],[31,22],[11,-24],[4,18],[23,-11],[-2,-38],[20,11],[44,-97],[-60,8],[13,39],[-29,-20],[-20,21],[-1,-49],[-32,-16],[62,-15],[-31,-20],[27,-29],[35,20],[34,-4],[-6,-17],[19,34],[71,-37],[-72,-38],[-185,42],[-2,-24],[-74,12],[-13,49],[-73,11],[16,26],[-25,46]],[[3191,237],[23,105],[55,69],[107,-11],[60,54],[84,-27],[-82,-177],[-247,-13]],[[3717,148],[14,82],[27,-27],[52,35],[15,65],[131,-7],[-100,-27],[12,-30],[-61,-8],[-34,-60],[-56,-23]],[[1183,623],[30,86],[99,-85],[-41,-41],[-88,40]],[[2909,935],[148,53],[-13,20],[41,33],[43,-28],[-13,-55],[-49,33],[-43,-25],[28,-12],[-33,-62],[-49,50],[-60,-7]],[[4096,3216],[-23,-21],[-1,-47],[-19,-17],[19,81],[24,4]],[[4006,3307],[46,-13],[22,39],[18,-14],[-7,20],[-31,10],[35,-3],[7,43],[0,-89],[-35,-17],[-55,24]],[[4096,3396],[-21,29],[-21,-22],[-13,23],[40,16],[15,-46]],[[226,0],[-9,44],[46,2],[28,-46],[-65,0]],[[802,2897],[7,70],[72,-8],[-3,30],[51,1],[17,55],[-20,32],[48,0],[6,38],[26,-17],[45,21],[-44,33],[55,38],[12,-45],[55,-38],[34,18],[-29,-20],[-1,-50],[16,1],[-22,-54],[50,17],[-15,-30],[35,-11],[32,105],[100,-21],[27,22],[71,-26],[0,-24],[70,4],[33,-60],[100,83],[4,31],[88,14],[39,-17],[-11,-13],[56,-13],[8,21],[88,-39],[51,21],[38,-33],[15,25],[-22,-58],[76,-51],[78,62],[52,-81],[105,52],[-12,-30],[62,-9],[1,49],[17,6],[-3,-35],[44,-19],[-6,-27],[51,15],[-2,-29],[36,-7],[20,27],[37,-42],[41,4],[7,-28],[68,-20],[21,29],[51,-32],[53,1],[23,59],[54,-2],[27,-41],[76,73],[69,-47],[40,27],[-11,15],[48,10],[35,-25],[-11,-21],[32,-7],[48,25],[-16,38],[37,-12],[69,32],[34,-16],[26,31],[39,-11],[48,36],[41,-15],[48,32],[-3,-56],[48,-97],[-90,-5],[-15,-24],[77,-18],[21,-70],[57,-9],[52,23],[40,-106],[-42,-27],[13,-89],[-43,-30],[-84,2],[-39,59],[-46,-35],[-27,40],[0,-22],[-25,-9],[-4,-35],[-14,-2],[-35,100],[-32,-9],[-5,-94],[-70,8],[-4,-17],[-16,26],[-30,-40],[-34,5],[-65,65],[0,-67],[-59,-1],[-8,-39],[-40,22],[-72,-31],[-35,17],[-58,-59],[2,49],[-50,-18],[-4,19],[-46,-2],[-7,26],[-28,-13],[-80,36],[-5,-34],[-52,132],[-46,-47],[-34,23],[-27,-18],[-6,64],[-24,16],[-43,-78],[-57,30],[6,54],[-31,-8],[-45,64],[-57,25],[-32,-21],[-6,34],[-91,52],[2,45],[-33,-13],[-22,54],[-10,-30],[-33,18],[21,17],[-18,15],[-105,8],[-28,-56],[-22,19],[-9,-23],[-58,24],[-23,-30],[-21,18],[-17,-76],[-95,33],[-30,-16],[32,-55],[-104,11],[7,-35],[-26,-23],[-58,11],[-19,31],[-68,-24],[-12,44],[61,18],[-48,-3],[-8,27],[-44,-66],[-15,69],[-37,-33],[-24,20],[-11,-15],[-39,80],[-29,1],[-13,-39],[-8,35],[-23,-15],[-15,24],[-65,-2],[-12,-32],[-15,21],[-19,-37],[-50,5],[-11,-20],[-53,106],[-58,9]]]}