{"objects":{"water":{"type":"GeometryCollection","geometries":[{"type":"Polygon","properties":{"source":"naturalearthdata.com","kind":"ocean","area":1576712559132672,"sort_rank":200,"min_zoom":0.0,"id":1},"arcs":[[4]]},{"type":"LineString","properties":{"source":"naturalearthdata.com","kind":"ocean","sort_rank":205,"boundary":true,"min_zoom":0.0,"id":78},"arcs":[5]}]},"buildings":{"type":"GeometryCollection","geometries":[]},"places":{"type":"GeometryCollection","geometries":[{"type":"Point","properties":{"kind":"locality","name":"Margao","name:mr":"\u092e\u0921\u0917\u093e\u0902\u0935","kind_detail":"town","name:hi":"\u092e\u0921\u0917\u093e\u0902\u0935","name:pt":"Marg\u00e3o","source":"openstreetmap.org","min_zoom":8.0,"name:kn":"\u0cae\u0ca1\u0c97\u0cbe\u0c82\u0cb5","old_name":"Marg\u00e3o","population":106528,"name:ru":"\u041c\u0430\u0440\u0433\u0430\u043e","name:ta":"\u0bae\u0b9f\u0bcd\u0b95\u0bbe\u0bb5\u0bcd","id":2548066557,"name:ja":"\u30de\u30c9\u30ac\u30fc\u30aa\u30f3"},"coordinates":[2427,4062]},{"type":"Point","properties":{"kind":"locality","name":"Karwar","kind_detail":"town","source":"openstreetmap.org","min_zoom":8.0,"name:kn":"\u0c95\u0cbe\u0cb0\u0cb5\u0cbe\u0cb0","name:ru":"\u041a\u0430\u0440\u0432\u0430\u0440","population":60000,"id":245629232,"name:ja":"\u30ab\u30fc\u30eb\u30ef\u30fc\u30eb"},"coordinates":[2933,2675]},{"type":"Point","properties":{"kind":"locality","name":"Kumta","kind_detail":"town","source":"openstreetmap.org","min_zoom":8.0,"name:kn":"\u0c95\u0cc1\u0cae\u0c9f\u0cbe","id":245627362,"population":30000},"coordinates":[3745,1513]},{"type":"Point","properties":{"kind":"locality","name":"Honnavar","kind_detail":"town","source":"openstreetmap.org","min_zoom":8.0,"name:kn":"\u0cb9\u0cca\u0ca8\u0ccd\u0ca8\u0cbe\u0cb5\u0cb0","id":245626969,"population":17000},"coordinates":[3844,1077]},{"type":"Point","properties":{"kind":"locality","name":"Ankola","kind_detail":"town","source":"openstreetmap.org","min_zoom":8.0,"name:kn":"\u0c85\u0c82\u0c95\u0ccb\u0cb2\u0cbe","id":245628518,"population":10000},"coordinates":[3436,2217]}]},"transit":{"type":"GeometryCollection","geometries":[{"type":"LineString","properties":{"kind":"train","network":"IN-rails","sort_rank":275,"name:kn":"\u0c95\u0cca\u0c82\u0c95\u0ca3 \u0cb0\u0cc8\u0cb2\u0ccd\u0cb5\u0cc6","source":"openstreetmap.org","min_zoom":6.0,"ref":"KR","osm_relation":true,"name":"Konkan Railway"},"arcs":[3]}]},"pois":{"type":"GeometryCollection","geometries":[{"type":"Point","properties":{"kind":"national_park","protect_class":"2","area":139595000,"name:kn":"\u0c85\u0ca3\u0cb6\u0cbf \u0cb0\u0cbe\u0cb7\u0ccd\u0c9f\u0ccd\u0cb0\u0cc0\u0caf \u0c89\u0ca6\u0ccd\u0caf\u0cbe\u0ca8","source":"openstreetmap.org","min_zoom":7.23,"tier":1,"id":148499472,"name":"Anshi National Park"},"coordinates":[3590,3275]}]},"boundaries":{"type":"GeometryCollection","geometries":[{"type":"LineString","properties":{"name:pt":"\u00cdndia","name:ty":"\u2019In\u012btia","name:ps":"\u0647\u0646\u062f","name:ka":"\u10d8\u10dc\u10d3\u10dd\u10d4\u10d7\u10d8","name:ko":"\uc778\ub3c4","name:cv":"\u0418\u043d\u0434\u0438","name:km":"\u17a5\u178e\u17d2\u178c\u17b6","name:cs":"Indie","name:rn":"Ubuhindi","name:tt":"\u04ba\u0438\u043d\u0434\u0441\u0442\u0430\u043d","name:kw":"Eynda","name:kv":"\u0418\u043d\u0434\u0438\u044f","name:ku":"Hindistan","name:ks":"\u0628\u064b\u0627\u0631\u062a","name:to":"\u02bbInitia","name:tl":"Indiya","name:zh-min-nan":"\u00ccn-t\u014d\u0358","name:os":"\u0418\u043d\u0434\u0438","name:or":"\u0b2d\u0b3e\u0b30\u0b24","name:ce":"\u0418\u043d\u0434\u0438","name:ta":"\u0b87\u0ba8\u0bcd\u0ba4\u0bbf\u0baf\u0bbe","name:tg":"\u04b2\u0438\u043d\u0434\u0443\u0441\u0442\u043e\u043d","name:ca":"\u00cdndia","name:te":"\u0c2d\u0c3e\u0c30\u0c24 \u0c26\u0c47\u0c36\u0c02","name:bg":"\u0418\u043d\u0434\u0438\u044f","source":"openstreetmap.org","sort_rank":262,"name:hr":"Indija","name:da":"Indien","name:sw":"Uhindi","name:de":"Indien","name:dz":"\u0f62\u0f92\u0fb1\u0f0b\u0f42\u0f62","name:tr":"Hindistan","osm_relation":true,"name:kn":"\u0cad\u0cbe\u0cb0\u0ca4","name:be":"\u0406\u043d\u0434\u044b\u044f","name:dv":"\u0787\u07a8\u0782\u07b0\u0791\u07a8\u0794\u07a7","name:za":"Yindu","name:ba":"\u04ba\u0438\u043d\u0434\u043e\u0441\u0442\u0430\u043d","name:ar":"\u0627\u0644\u0647\u0646\u062f","name:lv":"Indija","name:lt":"Indija","name:uz":"Hindiston","name:kk":"\u04ae\u043d\u0434\u0456\u0441\u0442\u0430\u043d","name:he":"\u05d4\u05d5\u05d3\u05d5","name:eo":"Barato","name:ur":"\u0628\u06be\u0627\u0631\u062a","name:lb":"Indien","name:uk":"\u0406\u043d\u0434\u0456\u044f","name:hy":"\u0540\u0576\u0564\u056f\u0561\u057d\u057f\u0561\u0576","name:ug":"\u06be\u0649\u0646\u062f\u0649\u0633\u062a\u0627\u0646","name:qu":"Indya","name:oc":"\u00cdndia","name:el":"\u0399\u03bd\u03b4\u03af\u03b1","kind":"country","name":"India","name:tk":"Hindistan","min_zoom":8.0,"name:th":"\u0e1b\u0e23\u0e30\u0e40\u0e17\u0e28\u0e2d\u0e34\u0e19\u0e40\u0e14\u0e35\u0e22","name:yi":"\u05d0\u05d9\u05e0\u05d3\u05d9\u05e2","name:iu":"\u1403\u14d0\u144e\u140a","name:yo":"\u00cdnd\u00ed\u00e0","name:mt":"Indja","alt_name:eo":"Hindujo;Hindio","name:az":"Hindistan","name:ig":"Ndia","name:mr":"\u092d\u093e\u0930\u0924","name:pa":"\u0a2d\u0a3e\u0a30\u0a24","name:my":"\u1021\u102d\u1014\u1039\u1012\u102d\u101a\u1014\u102d\u102f\u1004\u103a\u1004\u1036","name:is":"Indland","name:am":"\u1205\u1295\u12f5","name:vi":"\u1ea4n \u0110\u1ed9","name:ml":"\u0d07\u0d28\u0d4d\u0d24\u0d4d\u0d2f","name:rw":"Ubuhinde","name:mi":"\u012ania","name:pl":"Indie","name:mk":"\u0418\u043d\u0434\u0438\u0458\u0430","name:vo":"Lind\u00e4n","name:zu":"INdiya","name:mn":"\u042d\u043d\u044d\u0442\u0445\u044d\u0433","name:ss":"INdiya","kind_detail":"2","name:hi":"\u092d\u093e\u0930\u0924","id":-304716,"alt_name:vi":"Thi\u00ean Tr\u00fac;Quy\u00ean \u0110\u1ed9c","name:fr":"Inde","name:ky":"\u0418\u043d\u0434\u0438\u044f","name:zh-yue":"\u5370\u5ea6","name:fy":"Yndia","name:pi":"\u092d\u093e\u0930\u0924","name:zh":"\u5370\u5ea6","name:so":"Hindiya","name:sm":"Igitia","name:sl":"Indija","name:ja":"\u30a4\u30f3\u30c9","name:si":"\u0db7\u0dcf\u0dbb\u0dad \u0da2\u0db1\u0dbb\u0da2\u0dba","name:sh":"Indija","name:na":"Indjiya","name:sd":"\u0680\u0627\u0631\u062a","name:sc":"\u00ccndia","name:ne":"\u092d\u093e\u0930\u0924","name:sa":"\u092d\u093e\u0930\u0924\u092e\u094d","name:bs":"Indija","name:bn":"\u09ad\u09be\u09b0\u09a4","name:bo":"\u0f62\u0f92\u0fb1\u0f0b\u0f42\u0f62\u0f0d","name:ru":"\u0418\u043d\u0434\u0438\u044f","name:sv":"Indien","name:ha":"Indiya","name:wo":"End","name:sr":"\u0418\u043d\u0434\u0438\u0458\u0430","name:nv":"T\u00f3 W\u00f3naan\u00edd\u0119\u0301\u0119\u0301\u02bc Bits\u012f\u02bc Yisht\u0142izhii Bik\u00e9yah","name:ga":"An India","name:gd":"Na h-Innseachan","name:ht":"End","name:wa":"Inde","name:fa":"\u0647\u0646\u062f","maritime_boundary":true,"name:gv":"Yn Injey","name:gu":"\u0aad\u0abe\u0ab0\u0aa4","name:fi":"Intia"},"arcs":[0]},{"type":"LineString","properties":{"name:ja":"\u30ab\u30eb\u30ca\u30fc\u30bf\u30ab","name:mr":"\u0915\u0930\u094d\u0928\u093e\u091f\u0915","name:kn":"\u0c95\u0cb0\u0ccd\u0ca8\u0cbe\u0c9f\u0c95","min_zoom":8.0,"name:uk":"\u041a\u0430\u0440\u043d\u0430\u0442\u0430\u043a\u0430","name:ml":"\u0d15\u0d7c\u0d23\u0d3e\u0d1f\u0d15","name:ru":"\u041a\u0430\u0440\u043d\u0430\u0442\u0430\u043a\u0430","name:ta":"\u0b95\u0bb0\u0bc1\u0ba8\u0bbe\u0b9f\u0b95\u0bae\u0bcd","id":-2019939,"osm_relation":true,"name:te":"\u0c15\u0c30\u0c4d\u0c23\u0c3e\u0c1f\u0c15","kind":"region","name":"Karnataka","sort_rank":256,"kind_detail":"4","name:hi":"\u0915\u0930\u094d\u0928\u093e\u091f\u0915","source":"openstreetmap.org","name:zh":"\u5361\u7eb3\u5854\u514b\u90a6"},"arcs":[1]},{"type":"LineString","properties":{"name:ja":"\u30ab\u30eb\u30ca\u30fc\u30bf\u30ab","name:mr":"\u0915\u0930\u094d\u0928\u093e\u091f\u0915","name:kn":"\u0c95\u0cb0\u0ccd\u0ca8\u0cbe\u0c9f\u0c95","min_zoom":8.0,"name:uk":"\u041a\u0430\u0440\u043d\u0430\u0442\u0430\u043a\u0430","name:ru":"\u041a\u0430\u0440\u043d\u0430\u0442\u0430\u043a\u0430","name:ml":"\u0d15\u0d7c\u0d23\u0d3e\u0d1f\u0d15","name:ta":"\u0b95\u0bb0\u0bc1\u0ba8\u0bbe\u0b9f\u0b95\u0bae\u0bcd","id":-2019939,"osm_relation":true,"name:te":"\u0c15\u0c30\u0c4d\u0c23\u0c3e\u0c1f\u0c15","kind":"region","name":"Karnataka","sort_rank":256,"kind_detail":"4","name:hi":"\u0915\u0930\u094d\u0928\u093e\u091f\u0915","source":"openstreetmap.org","maritime_boundary":true,"name:zh":"\u5361\u7eb3\u5854\u514b\u90a6"},"arcs":[2]}]},"roads":{"type":"GeometryCollection","geometries":[{"type":"LineString","properties":{"kind":"major_road","network":"IN:SH:KA","sort_rank":380,"kind_detail":"primary","source":"openstreetmap.org","min_zoom":8.0,"shield_text":"48","ref":"SH48"},"arcs":[6]},{"type":"MultiLineString","properties":{"kind":"major_road","network":"IN:NH","sort_rank":381,"landuse_kind":"urban_area","source":"openstreetmap.org","min_zoom":8.0,"kind_detail":"trunk","shield_text":null,"ref":"NH66"},"arcs":[[7],[8],[9],[10],[11],[12],[13],[14],[15],[16],[17],[18]]},{"type":"MultiLineString","properties":{"kind":"major_road","network":"IN:SH:KA","sort_rank":380,"kind_detail":"primary","source":"openstreetmap.org","min_zoom":8.0,"shield_text":"34","ref":"SH34"},"arcs":[[19],[20],[21],[22],[23]]},{"type":"LineString","properties":{"sort_rank":355,"source":"openstreetmap.org","min_zoom":8.0,"kind":"ferry"},"arcs":[24]},{"type":"LineString","properties":{"kind":"major_road","network":"IN:SH:KA","sort_rank":380,"kind_detail":"primary","source":"openstreetmap.org","min_zoom":8.0,"landuse_kind":"national_park","shield_text":"146","ref":"SH146","id":249390365},"arcs":[25]},{"type":"LineString","properties":{"kind":"major_road","network":"IN:NH","sort_rank":381,"kind_detail":"trunk","source":"openstreetmap.org","min_zoom":8.0,"shield_text":null,"ref":"NH52"},"arcs":[26]},{"type":"MultiLineString","properties":{"sort_rank":381,"source":"openstreetmap.org","min_zoom":8.0,"kind":"major_road","kind_detail":"trunk"},"arcs":[[27],[28],[29]]},{"type":"LineString","properties":{"kind":"major_road","network":"IN:SH:KA","sort_rank":380,"kind_detail":"primary","source":"openstreetmap.org","min_zoom":8.0,"shield_text":"69","ref":"SH69"},"arcs":[30]},{"type":"MultiLineString","properties":{"source":"openstreetmap.org","kind":"major_road","landuse_kind":"urban_area","sort_rank":380,"kind_detail":"primary","min_zoom":8.0},"arcs":[[31],[32],[33],[34],[35],[36],[37],[38],[39],[40],[41],[42],[43],[44],[45],[46],[47],[48]]},{"type":"LineString","properties":{"kind":"major_road","network":"IN:SH:KA","sort_rank":380,"kind_detail":"primary","source":"openstreetmap.org","min_zoom":8.0,"name:kn":"\u0c97\u0ccb\u0c95\u0cb0\u0ccd\u0ca3 \u0cb0\u0cb8\u0ccd\u0ca4\u0cc6","shield_text":"143","ref":"SH143"},"arcs":[49]},{"type":"MultiLineString","properties":{"kind":"major_road","network":"IN:SH:KA","sort_rank":380,"kind_detail":"primary","source":"openstreetmap.org","min_zoom":8.0,"shield_text":"46","ref":"SH46"},"arcs":[[50],[51],[52]]},{"type":"LineString","properties":{"kind":"major_road","network":"IN:SH:KA","sort_rank":380,"kind_detail":"primary","source":"openstreetmap.org","min_zoom":8.0,"shield_text":"28","ref":"SH28"},"arcs":[53]},{"type":"LineString","properties":{"source":"openstreetmap.org","kind":"major_road","sort_rank":380,"kind_detail":"primary","ref":"SH 34","min_zoom":8.0,"id":155427026},"arcs":[54]},{"type":"MultiLineString","properties":{"sort_rank":380,"kind_detail":"primary","min_zoom":8.0,"kind":"major_road","source":"openstreetmap.org"},"arcs":[[55],[56],[57],[58],[59],[60],[61],[62],[63],[64],[65],[66],[67],[68],[69],[70],[71],[72],[73],[74],[75],[76],[77],[78],[79],[80],[81],[82],[83],[84],[85],[86]]},{"type":"LineString","properties":{"kind":"major_road","network":"IN:NH","sort_rank":381,"landuse_kind":"urban_area","source":"openstreetmap.org","min_zoom":8.0,"kind_detail":"trunk","shield_text":"66","ref":"NH66"},"arcs":[87]},{"type":"LineString","properties":{"kind":"major_road","network":"IN:SH:KA","sort_rank":380,"kind_detail":"primary","source":"openstreetmap.org","min_zoom":8.0,"shield_text":"143","ref":"SH143"},"arcs":[88]},{"type":"MultiLineString","properties":{"source":"openstreetmap.org","kind":"major_road","kind_detail":"trunk","sort_rank":381,"landuse_kind":"urban_area","min_zoom":8.0},"arcs":[[89],[90],[91],[92],[93],[94]]},{"type":"LineString","properties":{"kind":"major_road","network":"IN:SH:KA","sort_rank":380,"kind_detail":"primary","source":"openstreetmap.org","min_zoom":8.0,"name:kn":"\u0c95\u0cc8\u0c97\u0cbe \u0cb0\u0cb8\u0ccd\u0ca4\u0cc6","shield_text":"6","ref":"SH6"},"arcs":[95]},{"type":"LineString","properties":{"source":"openstreetmap.org","kind":"major_road","sort_rank":380,"kind_detail":"primary","ref":"SH 46","min_zoom":8.0,"id":163049970},"arcs":[96]},{"type":"MultiLineString","properties":{"kind":"major_road","network":"IN:SH:KA","sort_rank":380,"kind_detail":"primary","source":"openstreetmap.org","min_zoom":8.0,"shield_text":"6","ref":"SH6"},"arcs":[[97],[98],[99],[100]]},{"type":"LineString","properties":{"kind":"major_road","network":"IN:SH:KA","sort_rank":380,"kind_detail":"primary","source":"openstreetmap.org","min_zoom":8.0,"landuse_kind":"national_park","shield_text":"34","ref":"SH34","id":156489213},"arcs":[101]},{"type":"LineString","properties":{"kind":"major_road","network":"IN:SH:KA","sort_rank":380,"kind_detail":"primary","source":"openstreetmap.org","min_zoom":8.0,"shield_text":"144","ref":"SH144"},"arcs":[102]},{"type":"MultiLineString","properties":{"source":"openstreetmap.org","kind":"major_road","sort_rank":381,"kind_detail":"trunk","ref":"NH66","min_zoom":8.0},"arcs":[[103],[104]]},{"type":"MultiLineString","properties":{"kind":"major_road","network":"IN:NH","sort_rank":381,"kind_detail":"trunk","source":"openstreetmap.org","min_zoom":8.0,"shield_text":null,"ref":"NH66"},"arcs":[[105],[106],[107],[108],[109]]},{"type":"LineString","properties":{"kind":"major_road","network":"IN:SH:KA","sort_rank":380,"kind_detail":"primary","source":"openstreetmap.org","min_zoom":8.0,"landuse_kind":"national_park","shield_text":"46","ref":"SH46"},"arcs":[110]},{"type":"MultiLineString","properties":{"kind":"major_road","network":"IN:SH:KA","sort_rank":380,"kind_detail":"primary","source":"openstreetmap.org","min_zoom":8.0,"shield_text":"146","ref":"SH146"},"arcs":[[111],[112],[113]]},{"type":"LineString","properties":{"kind":"major_road","network":"IN:NH","sort_rank":381,"kind_detail":"trunk","source":"openstreetmap.org","min_zoom":8.0,"shield_text":null,"ref":"NH69"},"arcs":[114]},{"type":"LineString","properties":{"kind":"major_road","network":"IN:NH","sort_rank":381,"kind_detail":"trunk","is_bicycle_related":true,"cycleway":"lane","source":"openstreetmap.org","min_zoom":8.0,"shield_text":null,"ref":"NH66"},"arcs":[115]}]},"earth":{"type":"GeometryCollection","geometries":[{"type":"Polygon","properties":{"sort_rank":10,"source":"naturalearthdata.com","kind":"earth","min_zoom":0.0,"id":4707},"arcs":[[116]]}]},"landuse":{"type":"GeometryCollection","geometries":[{"type":"MultiPolygon","properties":{"source":"naturalearthdata.com","kind":"urban_area","name":"","area":511310782,"sort_rank":11,"min_zoom":4.0},"arcs":[[[117]]]},{"type":"Polygon","properties":{"kind":"national_park","natural":"wood","protect_class":"2","area":139595008,"sort_rank":18,"source":"openstreetmap.org","min_zoom":7.0,"tier":1,"id":148499472},"arcs":[[118]]},{"type":"Polygon","properties":{"kind":"national_park","natural":"wood","protect_class":"2","area":258032000,"sort_rank":18,"source":"openstreetmap.org","min_zoom":5.0,"tier":1,"id":158519649},"arcs":[[119]]}]}},"type":"Topology","transform":{"translate":[73.125,13.9234038977],"scale":[0.0003433228,0.000332222]},"arcs":[[[1097,4096],[86,-167],[995,-1432],[1171,-2497]],[[3516,4096],[-11,-13],[-152,-8],[-63,-65],[29,-51],[108,-44],[45,-123],[-58,-98],[-32,-10],[-6,-121],[-23,-27],[25,-95],[57,-45],[-106,-154],[-35,-7],[25,-57],[-33,-64],[-47,25],[-16,-48],[-48,-12],[-32,-64],[-70,96],[-48,5],[-25,-49],[36,-77],[-13,-16],[-107,38],[-83,-31],[-109,-89]],[[2724,2892],[-546,-395],[1171,-2497]],[[4096,342],[-68,77],[-15,280],[-118,250],[-3,110],[-82,102],[0,216],[-42,190],[34,137],[-125,175],[-109,237],[-95,103],[-3,65],[-76,130],[-294,153],[-18,179],[-66,100],[-318,296],[-2,64],[-49,105],[-1,310],[-35,74],[-15,138],[-41,52],[4,125],[-27,32],[-112,15],[-30,39]],[[2285,4096],[110,-371],[20,22],[23,-49],[-11,-27],[-62,-38],[-23,-29],[-19,-39],[-28,-87],[150,-43],[25,-23],[66,-139],[33,-18],[38,-9],[33,-20],[13,-47],[-14,-90],[-2,-43],[16,-42],[120,-69],[12,-14],[29,-19],[35,-92],[25,-32],[39,-1],[46,20],[38,29],[16,23],[20,20],[91,43],[31,30],[9,-40],[28,-16],[29,-6],[13,-11],[-6,-36],[-18,-6],[-26,8],[-29,4],[-51,-10],[-34,-21],[-27,-36],[-30,-56],[-23,28],[-32,11],[-34,-4],[-30,-17],[-13,-32],[0,-38],[-14,-17],[-52,26],[15,-54],[43,-40],[100,-50],[2,-5],[20,-36],[13,-3],[34,6],[13,-3],[20,-23],[40,-80],[42,48],[34,19],[39,-12],[55,-45],[30,-53],[18,-128],[20,-57],[-27,-26],[3,-34],[23,-30],[33,-13],[41,11],[32,18],[34,10],[44,-18],[0,-21],[-92,-12],[-36,-44],[3,-67],[22,-82],[-9,-31],[27,-24],[44,-7],[41,21],[12,38],[-6,44],[6,37],[46,23],[-9,-27],[-1,-16],[10,-37],[15,13],[12,2],[32,-15],[-6,-11],[-7,-22],[-7,-10],[38,-19],[124,-144],[-78,11],[-10,-13],[28,-41],[-54,2],[-33,66],[-30,84],[-44,54],[5,-76],[60,-114],[21,-108],[15,-22],[15,-15],[7,-25],[0,-78],[8,-36],[19,-30],[26,-55],[8,-131],[37,-52],[25,-13],[185,-65],[26,-23],[-41,-9],[-69,4],[-70,16],[-40,28],[-13,-69],[29,-61],[83,-116],[17,-60],[5,-168],[12,-31],[36,-45],[11,-27],[3,-30],[-4,-63],[1,-30],[28,-62],[77,-101],[0,-160],[-4096,0],[0,4096],[2285,0]],[[2285,4096],[110,-371],[20,22],[23,-49],[-11,-27],[-62,-38],[-23,-29],[-19,-39],[-28,-87],[150,-43],[25,-23],[66,-139],[33,-18],[38,-9],[33,-20],[13,-47],[-14,-90],[-2,-43],[16,-42],[120,-69],[12,-14],[29,-19],[35,-92],[25,-32],[39,-1],[46,20],[38,29],[16,23],[20,20],[91,43],[31,30],[9,-40],[28,-16],[29,-6],[13,-11],[-6,-36],[-18,-6],[-26,8],[-29,4],[-51,-10],[-34,-21],[-27,-36],[-30,-56],[-23,28],[-32,11],[-34,-4],[-30,-17],[-13,-32],[0,-38],[-14,-17],[-52,26],[15,-54],[43,-40],[100,-50],[2,-5],[20,-36],[13,-3],[34,6],[13,-3],[20,-23],[40,-80],[42,48],[34,19],[39,-12],[55,-45],[30,-53],[18,-128],[20,-57],[-27,-26],[3,-34],[23,-30],[33,-13],[41,11],[32,18],[34,10],[44,-18],[0,-21],[-92,-12],[-36,-44],[3,-67],[22,-82],[-9,-31],[27,-24],[44,-7],[41,21],[12,38],[-6,44],[6,37],[46,23],[-9,-27],[-1,-16],[10,-37],[15,13],[12,2],[32,-15],[-6,-11],[-7,-22],[-7,-10],[38,-19],[124,-144],[-78,11],[-10,-13],[28,-41],[-54,2],[-33,66],[-30,84],[-44,54],[5,-76],[60,-114],[21,-108],[15,-22],[15,-15],[7,-25],[0,-78],[8,-36],[19,-30],[26,-55],[8,-131],[37,-52],[25,-13],[185,-65],[26,-23],[-41,-9],[-69,4],[-70,16],[-40,28],[-13,-69],[29,-61],[83,-116],[17,-60],[5,-168],[12,-31],[36,-45],[11,-27],[3,-30],[-4,-63],[1,-30],[28,-62],[77,-101]],[[4096,1483],[-41,62],[-52,6],[-55,-114],[-186,68]],[[2423,4094],[-1,2]],[[2422,4096],[1,-2]],[[2424,4087],[-1,7]],[[2423,4094],[10,-7]],[[2433,4087],[-9,0]],[[2428,4059],[-1,10]],[[2427,4069],[-3,18]],[[2432,4082],[-3,-5],[-2,-8]],[[2427,4069],[0,-1]],[[2427,4067],[1,-8]],[[2428,4059],[18,-40]],[[2423,4094]],[[2920,2827],[43,53]],[[2964,2881],[158,58],[23,50],[77,-39],[59,34],[101,-37],[109,16],[106,84],[39,84]],[[4085,4096],[11,-20]],[[4096,3870],[-120,-65],[-41,-74],[-195,-80],[-187,-233]],[[4080,4089],[-17,7]],[[2898,2773],[36,-18]],[[3295,4000],[-4,5]],[[3446,2314],[192,-17],[126,-69],[239,102],[93,147]],[[2490,3897],[-5,8]],[[2487,3898],[-2,0]],[[2779,2991],[-3,4]],[[3847,1585],[58,81],[191,100]],[[2456,4019],[27,16]],[[2484,4038]],[[2484,4038]],[[2484,4054],[0,-16]],[[2484,4038]],[[2486,4058],[-2,-4]],[[2484,4054],[1,4]],[[2486,4058]],[[2486,4058],[-1,1]],[[2485,4059]],[[2486,4059],[4,30]],[[2491,4089],[-5,-30]],[[2490,4090],[-2,6]],[[2489,4096],[2,-6]],[[2486,4058],[-1,0],[0,1]],[[2485,4059],[1,0],[1,-1],[-1,0]],[[2486,4058]],[[2490,4090],[1,0],[-1,-1],[0,1]],[[3666,1964],[-69,-13],[-44,-76],[-59,10]],[[3913,3309],[-139,-3]],[[4096,3595],[-48,-40],[3,-53],[45,-42]],[[4096,3446],[-33,-14],[-18,-89],[-133,-34]],[[4081,4089],[-1,7]],[[2963,2880],[1,1]],[[2450,4015],[6,4]],[[2483,4035],[2,1]],[[2484,4038]],[[2484,4038]],[[2485,4037],[-1,0]],[[2484,4038]],[[2485,4037]],[[2485,4037],[269,-152]],[[2489,4032]],[[2785,4096],[92,-46]],[[2591,3713],[114,47],[15,86],[34,39]],[[2717,4016],[64,21],[75,-18]],[[2757,3885],[-3,0]],[[2757,3885],[1,2]],[[2761,3890],[-3,-3]],[[2761,3890],[41,14]],[[2801,3235],[117,133],[115,48],[13,49],[85,17],[16,68]],[[2802,3904],[54,115]],[[2802,3904],[61,-167],[66,-45],[28,-76],[48,29],[76,-31],[66,-64]],[[2856,4019],[14,-2]],[[3147,3550],[40,31],[-31,8],[-3,59],[46,17],[56,79],[-45,36],[-21,86],[-109,68],[-55,-27],[-71,15],[-83,95]],[[2871,4017],[2,25],[2,5]],[[2872,4040],[45,36],[8,20]],[[2921,2659],[1,0]],[[2922,2659]],[[3748,1512],[-19,-27]],[[3748,1512],[34,16]],[[3762,1505],[-14,7]],[[3994,3318]],[[4076,3842],[1,1]],[[4080,4089],[1,0]],[[2871,4017],[-1,0],[1,0]],[[2433,4087]],[[4096,2199],[-12,35],[-96,32],[-22,-30],[-154,-55],[-13,-55],[-133,-162]],[[2423,4093],[-1,1]],[[2428,4061],[-2,0]],[[2426,4060],[2,-1]],[[2427,4068],[0,-1]],[[2429,4058],[-2,1]],[[2430,4087],[-1,1]],[[2965,2673],[80,3],[37,67]],[[3912,3309]],[[2915,2657],[6,2]],[[2922,2659],[43,14]],[[3082,2743],[14,32],[-24,17],[43,5],[36,-31],[129,62],[24,-33],[-19,-38],[39,1],[16,58],[-30,46],[7,36],[88,8],[66,36],[83,-4],[23,-52],[172,-93],[226,-82],[121,94]],[[2922,2659]],[[3553,3418],[43,-99],[-9,-60],[48,-53],[1,-75]],[[4096,1221],[-2,-1],[-120,-2],[-129,-109]],[[2648,3619],[1,-14]],[[2715,3105],[-4,6]],[[2446,4019],[39,-114],[163,-286],[-37,-221],[44,-124],[100,-9],[92,-91],[-50,-36],[-72,9],[-14,-36],[18,-83],[111,-79],[92,-170],[-19,-126],[-31,-39]],[[2882,2614],[1,-4]],[[2886,2610],[-3,0]],[[2888,2612],[-2,-2]],[[4094,297],[-75,162],[-10,246],[-121,238],[-58,35],[-11,63],[47,42],[-48,43],[-72,214],[-11,149],[117,91],[-157,292],[-32,167],[-56,3],[-139,156],[1,85],[-75,116],[-191,129],[-190,21],[-125,63]],[[3774,3306],[-151,-85]],[[3763,3666],[-39,78],[38,59],[-41,42],[21,27],[-19,32],[-84,-15],[-192,89],[-152,22]],[[3711,3596],[14,-44],[89,-36],[9,-60],[73,-87],[16,-60]],[[3994,3318]],[[3866,1083],[90,60],[126,-79],[14,-26]],[[4096,295],[-2,2]],[[4096,160],[-77,101],[-28,62],[-1,30],[4,63],[-3,30],[-11,27],[-36,45],[-12,31],[-5,168],[-17,60],[-83,116],[-29,61],[13,69],[40,-28],[70,-16],[69,-4],[41,9],[-26,23],[-185,65],[-25,13],[-37,52],[-8,131],[-26,55],[-19,30],[-8,36],[0,78],[-7,25],[-15,15],[-15,22],[-21,108],[-60,114],[-5,76],[44,-54],[30,-84],[33,-66],[54,-2],[-28,41],[10,13],[78,-11],[-124,144],[-38,19],[7,10],[7,22],[6,11],[-32,15],[-12,-2],[-15,-13],[-10,37],[1,16],[9,27],[-46,-23],[-6,-37],[6,-44],[-12,-38],[-41,-21],[-44,7],[-27,24],[9,31],[-22,82],[-3,67],[36,44],[92,12],[0,21],[-44,18],[-34,-10],[-32,-18],[-41,-11],[-33,13],[-23,30],[-3,34],[27,26],[-20,57],[-18,128],[-30,53],[-55,45],[-39,12],[-34,-19],[-42,-48],[-40,80],[-20,23],[-13,3],[-34,-6],[-13,3],[-20,36],[-2,5],[-100,50],[-43,40],[-15,54],[52,-26],[14,17],[0,38],[13,32],[30,17],[34,4],[32,-11],[23,-28],[30,56],[27,36],[34,21],[51,10],[29,-4],[26,-8],[18,6],[6,36],[-13,11],[-29,6],[-28,16],[-9,40],[-31,-30],[-91,-43],[-20,-20],[-16,-23],[-38,-29],[-46,-20],[-39,1],[-25,32],[-35,92],[-29,19],[-12,14],[-120,69],[-16,42],[2,43],[14,90],[-13,47],[-33,20],[-38,9],[-33,18],[-66,139],[-25,23],[-150,43],[28,87],[19,39],[23,29],[62,38],[11,27],[-23,49],[-20,-22],[-110,371],[1811,0],[0,-3936]],[[2406,4096],[100,0],[-28,-76],[-57,-3],[-36,45],[21,34]],[[3367,3263],[57,91],[-20,101],[37,19],[371,-187],[-47,-170],[-45,-38],[-48,39],[-279,99],[-26,46]],[[3516,4096],[-11,-13],[-152,-8],[-63,-65],[20,-41],[-122,-14],[-60,47],[-35,94],[423,0]]]}