{"objects":{"water":{"type":"GeometryCollection","geometries":[{"type":"Polygon","properties":{"source":"naturalearthdata.com","kind":"ocean","area":1576712559132672,"sort_rank":200,"min_zoom":0.0,"id":1},"arcs":[[6],[7],[8],[9],[10],[11],[12],[13]]},{"type":"LineString","properties":{"source":"naturalearthdata.com","kind":"ocean","sort_rank":205,"boundary":true,"min_zoom":0.0,"id":2074},"arcs":[14]},{"type":"LineString","properties":{"source":"naturalearthdata.com","kind":"ocean","sort_rank":205,"boundary":true,"min_zoom":0.0,"id":2075},"arcs":[15]},{"type":"LineString","properties":{"source":"naturalearthdata.com","kind":"ocean","sort_rank":205,"boundary":true,"min_zoom":0.0,"id":2077},"arcs":[16]},{"type":"LineString","properties":{"source":"naturalearthdata.com","kind":"ocean","sort_rank":205,"boundary":true,"min_zoom":0.0,"id":2079},"arcs":[17]},{"type":"LineString","properties":{"source":"naturalearthdata.com","kind":"ocean","sort_rank":205,"boundary":true,"min_zoom":0.0,"id":2081},"arcs":[18]},{"type":"LineString","properties":{"source":"naturalearthdata.com","kind":"ocean","sort_rank":205,"boundary":true,"min_zoom":0.0,"id":2082},"arcs":[19]},{"type":"LineString","properties":{"source":"naturalearthdata.com","kind":"ocean","sort_rank":205,"boundary":true,"min_zoom":0.0,"id":2085},"arcs":[20]}]},"buildings":{"type":"GeometryCollection","geometries":[]},"places":{"type":"GeometryCollection","geometries":[]},"transit":{"type":"GeometryCollection","geometries":[]},"pois":{"type":"GeometryCollection","geometries":[]},"boundaries":{"type":"GeometryCollection","geometries":[{"type":"LineString","properties":{"name:pt":"Maldivas","name:ka":"\u10db\u10d0\u10da\u10d3\u10d8\u10d5\u10d8\u10e1 \u10d9\u10e3\u10dc\u10eb\u10e3\u10da\u10d4\u10d1\u10d8","name:ko":"\ubab0\ub514\ube0c","name:kn":"\u0cae\u0cbe\u0cb2\u0ccd\u0ca1\u0cbf\u0cb5\u0ccd\u0cb8\u0ccd","name:km":"\u1798\u17c9\u17b6\u179b\u17cb\u178c\u17b8\u179c","name:cs":"Maledivy","name:ki":"Modivu","name:sw":"Modivu","name:ku":"Mald\u00eev","name:ti":"\u121b\u120d\u12f2\u126d\u1235","name:ks":"\u0645\u0627\u0644\u062f\u06cc\u0656\u0648","name:to":"Malativisi","name:be":"\u041c\u0430\u043b\u044c\u0434\u0437\u0456\u0432\u044b","name:or":"\u0b2e\u0b3e\u0b33\u0b26\u0b4d\u0b2c\u0b40\u0b2a","name:pl":"Malediwy","name:ta":"\u0bae\u0bbe\u0bb2\u0ba4\u0bcd\u0ba4\u0bc0\u0bb5\u0bc1","name:ca":"Maldives","name:te":"\u0c2e\u0c3e\u0c32\u0c4d\u0c26\u0c40\u0c35\u0c41\u0c32\u0c41","name:bg":"\u041c\u0430\u043b\u0434\u0438\u0432\u0438","name:ig":"Maldivesa","source":"openstreetmap.org","sort_rank":262,"name:ln":"Mad\u00edv\u025b","name:da":"Maldiverne","name:de":"Malediven","name:dz":"\u0f58\u0f71\u0f63\u0f0b\u0f51\u0f72\u0f56\u0f66","name:tr":"Maldivler","name:az":"Maldiv","name:sq":"Maldivit","name:lv":"Mald\u012bvija","name:lt":"Maldyvai","name:hi":"\u092e\u093e\u0932\u0926\u0940\u0935","name:he":"\u05de\u05dc\u05d3\u05d9\u05d1\u05d9\u05dd","name:eo":"Maldivoj","name:ur":"\u0645\u0627\u0644\u062f\u06cc\u0648","name:lb":"Malediven","name:la":"Insulae Maldivae","name:lg":"Bizinga by'eMalidive","name:uk":"\u041c\u0430\u043b\u044c\u0434\u0456\u0432\u0438","name:hy":"\u0544\u0561\u056c\u0564\u056b\u057e\u0576\u0565\u0580","name:hu":"Mald\u00edv-szigetek","name:hr":"Maldivi","name:lo":"\u0ea1\u0eb1\u0e99\u0e94\u0eb4\u0e9f","name:el":"\u039c\u03b1\u03bb\u03b4\u03af\u03b2\u03b5\u03c2","kind":"country","name:en":"Maldives","name":"\u078b\u07a8\u0788\u07ac\u0780\u07a8\u0783\u07a7\u0787\u07b0\u0796\u07ac","name:ee":"maldivesduk\u0254","min_zoom":8.0,"name:th":"\u0e1b\u0e23\u0e30\u0e40\u0e17\u0e28\u0e21\u0e31\u0e25\u0e14\u0e35\u0e1f\u0e2a\u0e4c","name:eu":"Maldivak","name:et":"Maldiivid","name:es":"Maldivas","name:rm":"Maldivas","name:rn":"Moludave","name:ro":"Maldive","name:id":"Maladewa","name:ms":"Maldiv","name:mr":"\u092e\u093e\u0932\u0926\u0940\u0935\u094d\u091c","name:ar":"\u0645\u0644\u062f\u064a\u0641","name:my":"\u1019\u1031\u102c\u103a\u101c\u1012\u102d\u102f\u1000\u103a","name:io":"Maldivi","name:is":"Mald\u00edveyjar","name:am":"\u121b\u120d\u12f2\u126d\u1235","name:it":"Maldive","name:vi":"Maldives","name:ml":"\u0d2e\u0d3e\u0d32\u0d3f\u0d26\u0d4d\u0d35\u0d40\u0d2a\u0d4d","name:mn":"\u041c\u0430\u043b\u044c\u0434\u0438\u0432","id":-536773,"name:mk":"\u041c\u0430\u043b\u0434\u0438\u0432\u0438","name:af":"Maldive","name:zu":"i-Maldives","name:si":"\u0db8\u0dcf\u0dbd \u0daf\u0dd2\u0dc0\u0dba\u0dd2\u0db1","name:ff":"Maldiiwe","kind_detail":"2","name:mg":"Maldiva","name:fo":"Maldivuoyggjarnar","name:fr":"Maldives","name:fy":"de Maldiven","name:vo":"Maldivu\u00e4ns","name:zh":"\u9a6c\u5c14\u4ee3\u592b","name:so":"Maaldiqeen","name:sl":"Maldivi","name:nl":"Malediven","name:ja":"\u30e2\u30eb\u30c7\u30a3\u30d6","name:nn":"Maldivane","name:no":"Maldivene","name:sg":"Mald\u00eeva","name:se":"Malediivvat","name:ne":"\u092e\u093e\u0932\u094d\u0926\u093f\u092d\u094d\u0938","name:br":"Maldivez","name:bs":"Maldivi","name:bm":"Maldivi","name:bn":"\u09ae\u09be\u09b2\u09a6\u09cd\u09ac\u09c0\u09aa","name:bo":"\u0f58\u0f63\u0f0b\u0f51\u0fad\u0f72\u0f56\u0f0d","name:sk":"Maledivy","name:ru":"\u041c\u0430\u043b\u044c\u0434\u0438\u0432\u044b","name:sv":"Maldiverna","name:ha":"Maldibi","name:sr":"\u041c\u0430\u043b\u0434\u0438\u0432\u0438","osm_relation":true,"name:ga":"Oile\u00e1in Mhaild\u00edve","name:gd":"Na h-Eileanan Mhaladaibh","name:yo":"Or\u00edl\u1eb9\u0301\u00e8de Maladifi","name:gl":"Maldivas","name:fa":"\u0645\u0627\u0644\u062f\u06cc\u0648","maritime_boundary":true,"name:gv":"Ny Maldeevaghyn","name:gu":"\u0aae\u0abe\u0ab2\u0aa6\u0abf\u0ab5\u0acd\u0ab8","name:fi":"Malediivit","name:tt":"\u041c\u0430\u043b\u044c\u0434\u0438\u0432\u043b\u0430\u0440"},"arcs":[0]},{"type":"LineString","properties":{"id:right":-6599410,"min_zoom":8.0,"id":-6599411,"osm_relation":true,"name:right":"Gaafu Alif","kind":"region","name":"Gaafu Dhaalu - Gaafu Alif","sort_rank":256,"kind_detail":"4","name:left:zh":"\u5357\u82cf\u74e6\u8fea\u74e6\u73af\u7901","source":"openstreetmap.org","maritime_boundary":true,"id:left":-6599411,"official_name:right":"Huvadhu Atholhu Uthuruburi","name:right:zh":"\u5317\u82cf\u74e6\u8fea\u74e6\u73af\u7901","official_name:left":"Huvadhu Atholhu Dhekunuburi","name:left":"Gaafu Dhaalu"},"arcs":[1]},{"type":"LineString","properties":{"kind":"region","name":"Gaafu Dhaalu","sort_rank":256,"kind_detail":"4","min_zoom":8.0,"official_name":"Huvadhu Atholhu Dhekunuburi","source":"openstreetmap.org","maritime_boundary":true,"name:zh":"\u5357\u82cf\u74e6\u8fea\u74e6\u73af\u7901","id":-6599411,"osm_relation":true},"arcs":[2]},{"type":"LineString","properties":{"id:right":-6599390,"min_zoom":8.0,"id":-6599410,"osm_relation":true,"name:right":"Laamu","kind":"region","name":"Gaafu Alif - Laamu","sort_rank":256,"kind_detail":"4","name:left:zh":"\u5317\u82cf\u74e6\u8fea\u74e6\u73af\u7901","source":"openstreetmap.org","maritime_boundary":true,"id:left":-6599410,"official_name:right":"Haddhunmathi","name:right:zh":"\u54c8\u675c\u9a6c\u8482\u73af\u7901","official_name:left":"Huvadhu Atholhu Uthuruburi","name:left":"Gaafu Alif"},"arcs":[3]},{"type":"LineString","properties":{"kind":"region","name":"Gaafu Alif","sort_rank":256,"kind_detail":"4","min_zoom":8.0,"official_name":"Huvadhu Atholhu Uthuruburi","source":"openstreetmap.org","maritime_boundary":true,"name:zh":"\u5317\u82cf\u74e6\u8fea\u74e6\u73af\u7901","id":-6599410,"osm_relation":true},"arcs":[4]},{"type":"LineString","properties":{"kind":"region","name":"Laamu","sort_rank":256,"kind_detail":"4","min_zoom":8.0,"official_name":"Haddhunmathi","source":"openstreetmap.org","maritime_boundary":true,"name:zh":"\u54c8\u675c\u9a6c\u8482\u73af\u7901","id":-6599390,"osm_relation":true},"arcs":[5]}]},"roads":{"type":"GeometryCollection","geometries":[]},"earth":{"type":"GeometryCollection","geometries":[{"type":"MultiPolygon","properties":{"sort_rank":10,"source":"naturalearthdata.com","min_zoom":0.0,"kind":"earth","area":13521008},"arcs":[[[21]]]}]},"landuse":{"type":"GeometryCollection","geometries":[]}},"type":"Topology","transform":{"translate":[73.125,-0.0],"scale":[0.0003433228,0.0003432883]},"arcs":[[[1696,0],[155,686],[80,570],[-3,2840]],[[1851,686],[-1851,880]],[[1696,0],[155,686]],[[1928,4036],[-1928,-84]],[[1851,686],[80,570],[-3,2780]],[[1928,4036],[0,60]],[[4096,0],[-4096,0],[0,4096],[4096,0],[0,-4096]],[[269,693],[-24,6],[3,-13],[2,-10],[5,0],[14,16],[0,1]],[[732,833],[-8,3],[-7,-3],[-4,-17],[27,15],[-8,2]],[[1131,1129],[0,1],[-10,-1],[-10,1],[-2,-5],[2,-3],[6,-13],[14,20]],[[1069,1479],[0,1],[-3,-9],[-4,-7],[2,-6],[13,-5],[-8,26]],[[764,1862],[2,7],[-5,-2],[-6,-2],[-2,-4],[4,-10],[5,0],[2,4],[0,7]],[[721,2215],[2,8],[-5,-3],[-2,0],[-3,-1],[-3,-4],[4,-10],[2,0],[3,-1],[2,4],[0,7]],[[667,2469],[-5,-3],[-5,-3],[-2,-4],[4,-10],[2,1],[3,1],[0,3],[1,2],[0,6],[0,1],[2,6]],[[1131,1130],[0,-1],[-14,-20],[-6,13],[-2,3],[2,5],[10,-1],[10,1]],[[245,699],[24,-6],[0,-1],[-14,-16],[-5,0],[-2,10],[-3,13]],[[667,2469],[-2,-6],[0,-1],[0,-6],[-1,-2],[0,-3],[-3,-1],[-2,-1],[-4,10],[2,4],[5,3],[5,3]],[[740,831],[-27,-15],[4,17],[7,3],[8,-3],[8,-2]],[[766,1869],[-2,-7],[0,-7],[-2,-4],[-5,0],[-4,10],[2,4],[6,2],[5,2]],[[723,2223],[-2,-8],[0,-7],[-2,-4],[-3,1],[-2,0],[-4,10],[3,4],[3,1],[2,0],[5,3]],[[1069,1480],[0,-1],[8,-26],[-13,5],[-2,6],[4,7],[3,9]],[[269,692],[-14,-16],[-5,0],[-2,10],[-3,13],[24,-6],[0,-1]]]}