{"objects":{"water":{"type":"GeometryCollection","geometries":[]},"buildings":{"type":"GeometryCollection","geometries":[]},"places":{"type":"GeometryCollection","geometries":[{"type":"Point","properties":{"name:sk":"Omsk\u00e1 oblas\u0165","name:ja":"\u30aa\u30e0\u30b9\u30af\u5dde","name:lt":"Omsko sritis","name:he":"\u05de\u05d7\u05d5\u05d6 \u05d0\u05d5\u05de\u05e1\u05e7","kind":"region","name:tt":"\u041e\u043c\u0441\u043a \u04e9\u043b\u043a\u04d9\u0441\u0435","min_zoom":4.0,"name:uk":"\u041e\u043c\u0441\u044c\u043a\u0430 \u043e\u0431\u043b\u0430\u0441\u0442\u044c","name:be":"\u041e\u043c\u0441\u043a\u0430\u044f \u0432\u043e\u0431\u043b\u0430\u0441\u0446\u044c","name:pl":"Obw\u00f3d omski","name:hu":"Omszki ter\u00fclet","name:hr":"Omska oblast","id":503050374,"name:af":"Omsk-oblast","name:eo":"Omska Provinco","name:en":"Omsk Oblast","name":"\u041e\u043c\u0441\u043a\u0430\u044f \u043e\u0431\u043b\u0430\u0441\u0442\u044c","kind_detail":"state","name:de":"Oblast Omsk","source":"openstreetmap.org","name:fr":"Oblast d'Omsk","name:es":"\u00d3blast de Omsk"},"coordinates":[1121,1658]},{"type":"Point","properties":{"kind":"locality","name:en":"Kolosovka","name":"\u041a\u043e\u043b\u043e\u0441\u043e\u0432\u043a\u0430","kind_detail":"town","source":"openstreetmap.org","min_zoom":8.0,"int_name":"Kolosovka","population":5313,"id":517682881,"name:ja":"\u30b3\u30ed\u30bd\u30d5\u30ab"},"coordinates":[1403,3615]}]},"transit":{"type":"GeometryCollection","geometries":[]},"pois":{"type":"GeometryCollection","geometries":[]},"boundaries":{"type":"GeometryCollection","geometries":[]},"roads":{"type":"GeometryCollection","geometries":[{"type":"LineString","properties":{"source":"openstreetmap.org","kind":"ferry","name":"\u0422\u0435\u043f\u043b\u043e\u0445\u043e\u0434\u043d\u0430\u044f \u0442\u0440\u0430\u043d\u0441\u043f\u043e\u0440\u0442\u043d\u0430\u044f \u043b\u0438\u043d\u0438\u044f \u041e\u043c\u0441\u043a - \u0421\u0430\u043b\u0435\u0445\u0430\u0440\u0434","sort_rank":355,"ref":"\u041e\u043c\u0441\u043a - \u0422\u043e\u0431\u043e\u043b\u044c\u0441\u043a - \u0425\u0430\u043d\u0442\u044b-\u041c\u0430\u043d\u0441\u0438\u0439\u0441\u043a - \u0421\u0430\u043b\u0435\u0445\u0430\u0440\u0434","min_zoom":8.0,"osm_relation":true},"arcs":[0]},{"type":"LineString","properties":{"sort_rank":355,"source":"openstreetmap.org","min_zoom":8.0,"name":"\u041e\u043c\u0441\u043a - \u0422\u043e\u0431\u043e\u043b\u044c\u0441\u043a - \u0425\u0430\u043d\u0442\u044b-\u041c\u0430\u043d\u0441\u0438\u0439\u0441\u043a - \u0421\u0430\u043b\u0435\u0445\u0430\u0440\u0434","kind":"ferry"},"arcs":[1]},{"type":"LineString","properties":{"kind":"major_road","name:en":"Omsk - Tara","network":"ru:regional","sort_rank":380,"kind_detail":"primary","source":"openstreetmap.org","min_zoom":8.0,"shield_text":"52\u041a","ref":"52\u041a-4"},"arcs":[2]}]},"earth":{"type":"GeometryCollection","geometries":[{"type":"Polygon","properties":{"sort_rank":10,"source":"naturalearthdata.com","kind":"earth","min_zoom":0.0,"id":4773},"arcs":[[3]]}]},"landuse":{"type":"GeometryCollection","geometries":[{"type":"Polygon","properties":{"kind":"nature_reserve","protect_class":"7","area":2127330048,"sort_rank":23,"source":"openstreetmap.org","min_zoom":4.0,"tier":2,"id":505332905},"arcs":[[4]]}]}},"type":"Topology","transform":{"translate":[73.125,55.7765730187],"scale":[0.0003433228,0.00019114]},"arcs":[[[3807,0],[39,152],[250,230]],[[3807,0],[39,152],[250,230]],[[2497,0],[34,64],[529,258],[104,26],[106,77],[365,107],[238,178],[44,39],[36,128],[100,138],[43,118]],[[0,0],[0,4096],[4096,0],[0,-4096],[-4096,0]],[[0,1931],[113,-97],[73,-9],[54,26],[271,-66],[56,-32],[34,-87],[-52,-170],[7,-58],[38,-40],[-9,-55],[-80,-44],[-26,-45],[-132,-53],[-192,-13],[-78,-44],[-12,-48],[-65,-23],[0,858]]]}