{"objects":{"water":{"type":"GeometryCollection","geometries":[]},"buildings":{"type":"GeometryCollection","geometries":[]},"places":{"type":"GeometryCollection","geometries":[{"type":"Point","properties":{"source":"naturalearthdata.com","kind":"locality","name":"Oytal","population":22673,"min_zoom":7.0,"id":4083},"coordinates":[378,3489]},{"type":"Point","properties":{"kind":"locality","name:en":"Kara-Balta","name":"\u041a\u0430\u0440\u0430-\u0411\u0430\u043b\u0442\u0430","kind_detail":"town","source":"openstreetmap.org","min_zoom":8.0,"int_name":"Kara-Balta","population":37834,"id":5224645669,"name:ja":"\u30ab\u30e9\u30d0\u30eb\u30bf"},"coordinates":[2119,3042]},{"type":"Point","properties":{"kind":"locality","name:en":"Belovodskoye","name":"\u0411\u0435\u043b\u043e\u0432\u043e\u0434\u0441\u043a\u043e\u0435","kind_detail":"town","name:de":"Belowodskoje","source":"openstreetmap.org","min_zoom":8.0,"id":1979387477,"name:ky":"\u0411\u0435\u043b\u043e\u0432\u043e\u0434\u0441\u043a","population":21275},"coordinates":[2903,3170]},{"type":"Point","properties":{"kind":"locality","name:en":"Merke","name":"\u041c\u0435\u0440\u043a\u0435","kind_detail":"town","name:kk":"\u041c\u0435\u0440\u043a\u0456","source":"openstreetmap.org","min_zoom":8.0,"id":244526819,"population":14100},"coordinates":[187,3304]},{"type":"Point","properties":{"kind":"locality","name:en":"Shopokov","name":"\u0428\u043e\u043f\u043e\u043a\u043e\u0432","kind_detail":"town","source":"openstreetmap.org","min_zoom":8.0,"id":858944655,"population":8700},"coordinates":[3545,3260]},{"type":"Point","properties":{"kind":"locality","name:en":"Kaindy","name":"\u041a\u0430\u0438\u043d\u0434\u044b","kind_detail":"town","source":"openstreetmap.org","min_zoom":8.0,"name:ru":"\u041a\u0430\u0438\u043d\u0434\u0430","id":297595582,"name:ky":"\u041a\u0430\u0439\u044b\u04a3\u0434\u044b","population":7526},"coordinates":[1606,3138]}]},"transit":{"type":"GeometryCollection","geometries":[{"type":"LineString","properties":{"kind":"train","description":"385\/386 \u0411\u0438\u0448\u043a\u0435\u043a - \u041d\u043e\u0432\u043e\u043a\u0443\u0437\u043d\u0435\u0446\u043a","name":"385 \u0411\u0438\u0448\u043a\u0435\u043a <=> \u041d\u043e\u0432\u043e\u043a\u0443\u0437\u043d\u0435\u0446\u043a","sort_rank":275,"name:de":"385 Bischkek 2<=>Nowokusnezk","source":"openstreetmap.org","min_zoom":6.0,"operator":"\u041a\u0422\u0416","ref":"385","osm_relation":true,"network":"\u041a\u0422\u0416"},"arcs":[9]}]},"pois":{"type":"GeometryCollection","geometries":[]},"boundaries":{"type":"GeometryCollection","geometries":[{"type":"LineString","properties":{"name:pt":"Quirguist\u00e3o","name:ps":"\u0642\u0631\u063a\u0632\u0633\u062a\u0627\u0646","name:cy":"Kyrgyzstan","name:ko":"\ud0a4\ub974\uae30\uc2a4\uc2a4\ud0c4","name:cv":"\u041a\u0438\u0440\u0433\u0438\u0437\u0438","name:km":"\u1780\u17c0\u17a0\u17ca\u17d2\u179f\u17b8\u179f\u17ca\u17b8\u179f\u17d2\u1790\u17b6\u1793","name:cs":"Kyrgyzst\u00e1n","name:kw":"Pow Kyrgys","name:tk":"Gyrgyzystan","name:ku":"Qirgizistan","name:ro":"K\u00e2rg\u00e2zstan","name:tl":"Kirgistan","name:zh-min-nan":"Kyrgyzstan","name:os":"\u0425\u044a\u0438\u0440\u0433\u044a\u0438\u0437","name:or":"\u0b15\u0b3f\u0b30\u0b17\u0b3f\u0b1c\u0b38\u0b4d\u0b24\u0b3e\u0b28","name:ce":"\u041a\u0438\u0440\u0433\u0438\u0437\u0438","name:ta":"\u0b95\u0bbf\u0bb0\u0bcd\u0b95\u0bbf\u0b9a\u0bc1\u0ba4\u0bcd\u0ba4\u0bbe\u0ba9\u0bcd","name:tg":"\u049a\u0438\u0440\u0493\u0438\u0437\u0438\u0441\u0442\u043e\u043d","name:ca":"Kirguizistan","name:te":"\u0c15\u0c3f\u0c30\u0c4d\u0c17\u0c3f\u0c1c\u0c3f\u0c38\u0c4d\u0c24\u0c3e\u0c28\u0c4d","name:hu":"Kirgiziszt\u00e1n","name:ka":"\u10e7\u10d8\u10e0\u10d2\u10d8\u10d6\u10d4\u10d7\u10d8","sort_rank":262,"name:ln":"Kirghizist\u00e1ni","name:da":"Kirgisistan","name:de":"Kirgisistan","source":"openstreetmap.org","osm_relation":true,"name:kn":"\u0c95\u0cbf\u0cb0\u0ccd\u0c97\u0cbf\u0cb8\u0ccd\u0ca5\u0cbe\u0ca8\u0ccd","name:an":"Kirguizist\u00e1n","name:dv":"\u0786\u07a8\u0783\u07a8\u078e\u07a8\u0790\u07b0\u078c\u07a7\u0782\u07b0","name:ba":"\u04a0\u044b\u0440\u0493\u044b\u0499\u0441\u0442\u0430\u043d","name:lv":"Kirgizst\u0101na","name:lt":"Kirgizija","alt_name:de":"Kirgisien","name:kk":"\u049a\u044b\u0440\u0493\u044b\u0437\u0441\u0442\u0430\u043d","name:he":"\u05e7\u05d9\u05e8\u05d2\u05d9\u05d6\u05e1\u05d8\u05df","kind":"country","name:ur":"\u06a9\u0631\u063a\u06cc\u0632\u0633\u062a\u0627\u0646","name:lb":"Kirgisistan","name:la":"Chirgisia","name:uk":"\u041a\u0438\u0440\u0433\u0438\u0437\u0441\u0442\u0430\u043d","name:hy":"\u0542\u0580\u0572\u0566\u057d\u057f\u0561\u0576","name:ug":"\u0642\u0649\u0631\u063a\u0649\u0632\u0649\u0633\u062a\u0627\u0646","name:li":"Kirgizi\u00eb","name:qu":"Kirkisuyu","name:oc":"Quirguizstan","name:el":"\u039a\u03b9\u03c1\u03b3\u03b9\u03b6\u03af\u03b1","name:eo":"Kirgizujo","name:en":"Kyrgyzstan","name":"\u041a\u044b\u0440\u0433\u044b\u0437\u0441\u0442\u0430\u043d","name:ee":"Kyrgyzstan","min_zoom":8.0,"name:th":"\u0e1b\u0e23\u0e30\u0e40\u0e17\u0e28\u0e04\u0e35\u0e23\u0e4c\u0e01\u0e35\u0e0b\u0e2a\u0e16\u0e32\u0e19","name:eu":"Kirgizistan","name:et":"K\u00f5rg\u00f5zstan","name:ru":"\u041a\u0438\u0440\u0433\u0438\u0437\u0438\u044f","name:es":"Kirguist\u00e1n","name:ia":"Kyrgyzistan","name:so":"Qargistan","alt_name:eo":"Kirgizistano;Kirgizio","name:az":"Q\u0131r\u011f\u0131z\u0131stan","name:ie":"Kirgizistan","name:id":"Kirgizstan","name:ms":"Kyrgyzstan","name:mr":"\u0915\u093f\u0930\u094d\u0917\u093f\u091d\u0938\u094d\u0924\u093e\u0928","name:ar":"\u0642\u0631\u063a\u064a\u0632\u0633\u062a\u0627\u0646","name:my":"\u1000\u102c\u1002\u103b\u1005\u1039\u1005\u1010\u1014\u103a\u1014\u102d\u102f\u1004\u103a\u1004\u1036","name:io":"Kirgizistan","name:is":"Kirgisistan","name:am":"\u12aa\u122d\u130a\u12dd\u1235\u1273\u1295","name:it":"Kirghizistan","name:ml":"\u0d15\u0d3f\u0d7c\u0d17\u0d4d\u0d17\u0d3f\u0d38\u0d4d\u0d25\u0d3e\u0d7b","name:vi":"Kyrgyzstan","name:uz":"Qirg\u02bbiziston","name:ab":"\u049e\u044b\u0440\u0495\u044b\u0437\u0441\u04ad\u0430\u043d","name:pl":"Kirgistan","name:mk":"\u041a\u0438\u0440\u0433\u0438\u0441\u0442\u0430\u043d","name:af":"Kirgisi\u00eb","name:fa":"\u0642\u0631\u0642\u06cc\u0632\u0633\u062a\u0627\u0646","name:rw":"Kirigizisitani","kind_detail":"2","name:hi":"\u0915\u093f\u0930\u094d\u0917\u093f\u091c\u093c\u0938\u094d\u0924\u093e\u0928","id":-178009,"alt_name:vi":"C\u01b0-r\u01a1-g\u01b0-xtan;Kirgizia","name:fr":"Kirghizistan","name:wo":"Kirgistaan","name:zh-yue":"\u5409\u723e\u5409\u65af","name:fy":"Kirgyzje","name:vo":"Kirgist\u00e4n","name:zh":"\u5409\u5c14\u5409\u65af\u65af\u5766","name:hr":"Kirgistan","name:pa":"\u0a15\u0a3f\u0a30\u0a17\u0a3f\u0a1c\u0a3c\u0a38\u0a24\u0a3e\u0a28","name:sl":"Kirgizistan","name:nl":"Kirgizi\u00eb","name:ja":"\u30ad\u30eb\u30ae\u30b9","name:nn":"Kirgisistan","name:sh":"Kirgistan","name:na":"Kirgitan","name:se":"Kirgisistan","name:sd":"\u06aa\u0650\u0631\u06af\u0632\u0650\u0633\u062a\u0627\u0646\u064f","name:br":"Kirgizstan","name:bs":"Kirgistan","name:yi":"\u05e7\u05d9\u05e8\u05d2\u05d9\u05d6\u05e1\u05d8\u05d0\u05df","name:bn":"\u0995\u09bf\u09b0\u0997\u09bf\u099c\u09bf\u09b8\u09cd\u09a4\u09be\u09a8","name:bo":"\u0f40\u0f7a\u0f0b\u0f62\u0f7a\u0f0b\u0f42\u0f7a\u0f5b\u0f74\u0f0b\u0f66\u0f74\u0f4f\u0f7a\u0f53\u0f0d","name:sk":"Kirgizsko","name:sa":"\u0915\u093f\u0930\u0917\u093f\u0938\u094d\u0925\u093e\u0928","name:no":"Kirgisistan","name:sw":"Kirgizia","name:sv":"Kirgizistan","name:su":"Kirgistan","name:bg":"\u041a\u0438\u0440\u0433\u0438\u0437\u0441\u0442\u0430\u043d","name:ss":"IKhirigi","name:sr":"\u041a\u0438\u0440\u0433\u0438\u0441\u0442\u0430\u043d","name:nv":"K\u00ed\u00edgiz Bik\u00e9yah","name:gv":"Yn Chyrgistaan","name:sq":"Kirgistani","name:ga":"An Chirgeast\u00e1in","name:gd":"C\u00ecorgastan","name:yo":"Kirgistani","name:ht":"Kirgistan","name:jv":"Kirgizstan","name:gl":"Kirguizist\u00e1n","name:tr":"K\u0131rg\u0131zistan","name:gu":"\u0a95\u0abf\u0ab0\u0acd\u0a97\u0abf\u0ab8\u0acd\u0aa4\u0abe\u0aa8","name:fi":"Kirgisia"},"arcs":[0]},{"type":"LineString","properties":{"name:right:ja":"\u30c1\u30e5\u30a4","name:left:ja":"\u30ca\u30eb\u30a4\u30f3","id:right":-178026,"name:right:lt":"\u010cu sritis","min_zoom":8.0,"name:left:lt":"Naryno sritis","id:left":-1251542,"name:right:ky":"\u0427\u04af\u0439 \u043e\u0431\u043b\u0430\u0441\u0442\u044b","name:left:ky":"\u041d\u0430\u0440\u044b\u043d \u043e\u0431\u043b\u0430\u0441\u0442\u044b","id":-1251542,"osm_relation":true,"name:right":"\u0427\u0443\u0439\u0441\u043a\u0430\u044f \u043e\u0431\u043b\u0430\u0441\u0442\u044c","kind":"region","name":"\u041d\u0430\u0440\u044b\u043d\u0441\u043a\u0430\u044f \u043e\u0431\u043b\u0430\u0441\u0442\u044c - \u0427\u0443\u0439\u0441\u043a\u0430\u044f \u043e\u0431\u043b\u0430\u0441\u0442\u044c","source":"openstreetmap.org","sort_rank":256,"kind_detail":"4","name:left:de":"Gebiet Naryn","name:right:en":"Chuy Region","name:left:en":"Naryn Region","name:right:de":"Gebiet Tsch\u00fci","name:left":"\u041d\u0430\u0440\u044b\u043d\u0441\u043a\u0430\u044f \u043e\u0431\u043b\u0430\u0441\u0442\u044c"},"arcs":[1]},{"type":"LineString","properties":{"name:right:ja":"\u30c1\u30e5\u30a4","name:left:ja":"\u30b8\u30e3\u30f3\u30d6\u30fc\u30eb\u5dde","name:left:kk":"\u0416\u0430\u043c\u0431\u044b\u043b \u043e\u0431\u043b\u044b\u0441\u044b","id:right":-178026,"name:right:lt":"\u010cu sritis","min_zoom":8.0,"name:right:ky":"\u0427\u04af\u0439 \u043e\u0431\u043b\u0430\u0441\u0442\u044b","id":-215722,"osm_relation":true,"name:left:en":"Jambyl Region","kind":"region","name":"\u0416\u0430\u043c\u0431\u044b\u043b\u0441\u043a\u0430\u044f \u043e\u0431\u043b\u0430\u0441\u0442\u044c - \u0427\u0443\u0439\u0441\u043a\u0430\u044f \u043e\u0431\u043b\u0430\u0441\u0442\u044c","sort_rank":256,"kind_detail":"4","name:left:de":"Gebiet Schambyl","name:right:en":"Chuy Region","source":"openstreetmap.org","name:right:de":"Gebiet Tsch\u00fci","id:left":-215722,"name:right":"\u0427\u0443\u0439\u0441\u043a\u0430\u044f \u043e\u0431\u043b\u0430\u0441\u0442\u044c","name:left":"\u0416\u0430\u043c\u0431\u044b\u043b\u0441\u043a\u0430\u044f \u043e\u0431\u043b\u0430\u0441\u0442\u044c"},"arcs":[2]},{"type":"LineString","properties":{"name:right:ja":"\u30bf\u30e9\u30b9","name:left:ja":"\u30b8\u30e3\u30f3\u30d6\u30fc\u30eb\u5dde","name:left:kk":"\u0416\u0430\u043c\u0431\u044b\u043b \u043e\u0431\u043b\u044b\u0441\u044b","id:right":-178023,"min_zoom":8.0,"name:right:ky":"\u0422\u0430\u043b\u0430\u0441 \u043e\u0431\u043b\u0430\u0441\u0442\u044b","id":-215722,"osm_relation":true,"name:left:en":"Jambyl Region","kind":"region","name":"\u0416\u0430\u043c\u0431\u044b\u043b\u0441\u043a\u0430\u044f \u043e\u0431\u043b\u0430\u0441\u0442\u044c - \u0422\u0430\u043b\u0430\u0441\u0441\u043a\u0430\u044f \u043e\u0431\u043b\u0430\u0441\u0442\u044c","sort_rank":256,"kind_detail":"4","name:left:de":"Gebiet Schambyl","name:right:en":"Talas Region","source":"openstreetmap.org","name:right:de":"Gebiet Talas","id:left":-215722,"name:right":"\u0422\u0430\u043b\u0430\u0441\u0441\u043a\u0430\u044f \u043e\u0431\u043b\u0430\u0441\u0442\u044c","name:left":"\u0416\u0430\u043c\u0431\u044b\u043b\u0441\u043a\u0430\u044f \u043e\u0431\u043b\u0430\u0441\u0442\u044c"},"arcs":[3]},{"type":"LineString","properties":{"name:right:ja":"\u30b8\u30e3\u30e9\u30e9\u30d0\u30fc\u30c9","name:left:ja":"\u30c1\u30e5\u30a4","id:right":-178024,"min_zoom":8.0,"name:left:lt":"\u010cu sritis","name:right:ky":"\u0416\u0430\u043b\u0430\u043b\u0430\u0431\u0430\u0442 \u043e\u0431\u043b\u0430\u0441\u0442\u044b","name:left:ky":"\u0427\u04af\u0439 \u043e\u0431\u043b\u0430\u0441\u0442\u044b","id":-178026,"osm_relation":true,"name:left:en":"Chuy Region","kind":"region","name":"\u0427\u0443\u0439\u0441\u043a\u0430\u044f \u043e\u0431\u043b\u0430\u0441\u0442\u044c - \u0414\u0436\u0430\u043b\u0430\u043b-\u0410\u0431\u0430\u0434\u0441\u043a\u0430\u044f \u043e\u0431\u043b\u0430\u0441\u0442\u044c","sort_rank":256,"kind_detail":"4","name:left:de":"Gebiet Tsch\u00fci","name:right:en":"Jalal-Abad Region","source":"openstreetmap.org","name:right:de":"Gebiet Dschalalabat","id:left":-178026,"name:right":"\u0414\u0436\u0430\u043b\u0430\u043b-\u0410\u0431\u0430\u0434\u0441\u043a\u0430\u044f \u043e\u0431\u043b\u0430\u0441\u0442\u044c","name:left":"\u0427\u0443\u0439\u0441\u043a\u0430\u044f \u043e\u0431\u043b\u0430\u0441\u0442\u044c"},"arcs":[4]},{"type":"MultiLineString","properties":{"name:right:ja":"\u30bf\u30e9\u30b9","name:left:ja":"\u30c1\u30e5\u30a4","id:right":-178023,"min_zoom":8.0,"name:left:lt":"\u010cu sritis","name:right:ky":"\u0422\u0430\u043b\u0430\u0441 \u043e\u0431\u043b\u0430\u0441\u0442\u044b","name:left:ky":"\u0427\u04af\u0439 \u043e\u0431\u043b\u0430\u0441\u0442\u044b","id":-178026,"osm_relation":true,"name:left:en":"Chuy Region","kind":"region","name":"\u0427\u0443\u0439\u0441\u043a\u0430\u044f \u043e\u0431\u043b\u0430\u0441\u0442\u044c - \u0422\u0430\u043b\u0430\u0441\u0441\u043a\u0430\u044f \u043e\u0431\u043b\u0430\u0441\u0442\u044c","sort_rank":256,"kind_detail":"4","name:left:de":"Gebiet Tsch\u00fci","name:right:en":"Talas Region","source":"openstreetmap.org","name:right:de":"Gebiet Talas","id:left":-178026,"name:right":"\u0422\u0430\u043b\u0430\u0441\u0441\u043a\u0430\u044f \u043e\u0431\u043b\u0430\u0441\u0442\u044c","name:left":"\u0427\u0443\u0439\u0441\u043a\u0430\u044f \u043e\u0431\u043b\u0430\u0441\u0442\u044c"},"arcs":[[5],[6]]},{"type":"MultiLineString","properties":{"kind":"region","name:en":"Chuy Region","name":"\u0427\u0443\u0439\u0441\u043a\u0430\u044f \u043e\u0431\u043b\u0430\u0441\u0442\u044c","name:lt":"\u010cu sritis","sort_rank":256,"kind_detail":"4","name:de":"Gebiet Tsch\u00fci","source":"openstreetmap.org","min_zoom":8.0,"name:ky":"\u0427\u04af\u0439 \u043e\u0431\u043b\u0430\u0441\u0442\u044b","id":-178026,"osm_relation":true,"name:ja":"\u30c1\u30e5\u30a4"},"arcs":[[7],[8]]}]},"roads":{"type":"GeometryCollection","geometries":[{"type":"MultiLineString","properties":{"source":"openstreetmap.org","kind":"major_road","old_name":"\u0422\u0430\u0448\u043a\u0435\u043d\u0442\u0441\u043a\u0438\u0439 \u0442\u0440\u0430\u043a\u0442","sort_rank":380,"kind_detail":"primary","landuse_kind":"residential","min_zoom":8.0},"arcs":[[10],[11]]},{"type":"LineString","properties":{"kind":"major_road","int_name":"Sadygaliev Str.","sort_rank":380,"kind_detail":"primary","source":"openstreetmap.org","min_zoom":8.0,"landuse_kind":"urban_area","id":183136778,"name:ky":"\u0421\u0430\u0434\u044b\u0433\u0430\u043b\u0438\u0435\u0432 \u043a\u04e9\u0447\u04e9\u0441\u04af"},"arcs":[12]},{"type":"LineString","properties":{"source":"openstreetmap.org","kind":"major_road","sort_rank":381,"kind_detail":"trunk","ref":"M-001","min_zoom":8.0},"arcs":[13]},{"type":"LineString","properties":{"kind":"major_road","name:en":"Bishkek-Taraz road","network":"AsianHighway","sort_rank":381,"kind_detail":"trunk","source":"openstreetmap.org","min_zoom":8.0,"landuse_kind":"urban_area","shield_text":"5","ref":"\u042d\u041c-01","id":375216745},"arcs":[14]},{"type":"LineString","properties":{"kind":"major_road","sort_rank":380,"kind_detail":"primary","source":"openstreetmap.org","min_zoom":8.0,"old_name":"\u0422\u0430\u0448\u043a\u0435\u043d\u0442\u0441\u043a\u0438\u0439 \u0442\u0440\u0430\u043a\u0442","landuse_kind":"urban_area","id":22771920},"arcs":[15]},{"type":"LineString","properties":{"source":"openstreetmap.org","kind":"major_road","sort_rank":381,"kind_detail":"trunk","ref":"A-358","min_zoom":8.0},"arcs":[16]},{"type":"LineString","properties":{"source":"openstreetmap.org","kind":"major_road","sort_rank":380,"kind_detail":"primary","ref":"\u042d\u041c-09","min_zoom":8.0},"arcs":[17]},{"type":"LineString","properties":{"kind":"major_road","sort_rank":380,"kind_detail":"primary","source":"openstreetmap.org","min_zoom":8.0,"old_name":"\u0422\u0430\u0448\u043a\u0435\u043d\u0442\u0441\u043a\u0438\u0439 \u0442\u0440\u0430\u043a\u0442","landuse_kind":"urban_area","id":50893221,"name:ky":"\u0414\u044d\u043d \u0421\u044f\u043e\u043f\u0438\u043d \u043a\u04e9\u0447\u04e9\u0441\u04af"},"arcs":[18]},{"type":"LineString","properties":{"kind":"major_road","name:en":"Frunze street","network":"AsianHighway","sort_rank":381,"kind_detail":"trunk","source":"openstreetmap.org","min_zoom":8.0,"old_name":"\u0422\u0430\u0448\u043a\u0435\u043d\u0442\u0441\u043a\u0438\u0439 \u0442\u0440\u0430\u043a\u0442","shield_text":"5","landuse_kind":"residential","ref":"\u042d\u041c-01","id":424028246},"arcs":[19]},{"type":"LineString","properties":{"kind":"major_road","name:en":"Frunze road","network":"AsianHighway","sort_rank":381,"kind_detail":"trunk","source":"openstreetmap.org","min_zoom":8.0,"landuse_kind":"residential","shield_text":"5","ref":"\u042d\u041c-01","id":424028247},"arcs":[20]},{"type":"MultiLineString","properties":{"kind":"major_road","network":"AsianHighway","sort_rank":381,"kind_detail":"trunk","source":"openstreetmap.org","min_zoom":8.0,"shield_text":"7","ref":"A-358"},"arcs":[[21],[22],[23]]},{"type":"LineString","properties":{"kind":"major_road","network":"AsianHighway","sort_rank":381,"kind_detail":"trunk","source":"openstreetmap.org","min_zoom":8.0,"old_name":"\u0422\u0430\u0448\u043a\u0435\u043d\u0441\u043a\u0430\u044f \u0436\u0435\u043b\u0435\u0437\u043d\u0430\u044f \u0434\u043e\u0440\u043e\u0433\u0430","shield_text":"5","ref":"A-2","id":541359107},"arcs":[24]},{"type":"LineString","properties":{"kind":"major_road","name:en":"Frunze street","network":"AsianHighway","sort_rank":381,"kind_detail":"trunk","source":"openstreetmap.org","min_zoom":8.0,"old_name":"\u0422\u0430\u0448\u043a\u0435\u043d\u0442\u0441\u043a\u0438\u0439 \u0442\u0440\u0430\u043a\u0442","shield_text":"5","ref":"\u042d\u041c-01","id":424028246},"arcs":[25]},{"type":"LineString","properties":{"kind":"major_road","network":"AsianHighway","sort_rank":381,"kind_detail":"trunk","source":"openstreetmap.org","min_zoom":8.0,"landuse_kind":"residential","shield_text":"7","ref":"\u042d\u041c-02"},"arcs":[26]},{"type":"MultiLineString","properties":{"kind":"major_road","network":"AsianHighway","sort_rank":381,"landuse_kind":"urban_area","source":"openstreetmap.org","min_zoom":8.0,"kind_detail":"trunk","shield_text":"7","ref":"\u042d\u041c-02"},"arcs":[[27],[28],[29]]},{"type":"LineString","properties":{"kind":"major_road","network":"AsianHighway","sort_rank":381,"kind_detail":"trunk","source":"openstreetmap.org","min_zoom":8.0,"shield_text":"5","ref":"A359","id":324691991},"arcs":[30]},{"type":"LineString","properties":{"source":"openstreetmap.org","kind":"major_road","landuse_kind":"urban_area","sort_rank":380,"kind_detail":"primary","ref":"A-358","min_zoom":8.0},"arcs":[31]},{"type":"LineString","properties":{"kind":"major_road","sort_rank":380,"landuse_kind":"urban_area","source":"openstreetmap.org","min_zoom":8.0,"kind_detail":"primary","id":539379609,"name:ky":"\u0414\u044d\u043d \u0421\u044f\u043e\u043f\u0438\u043d \u043a\u04e9\u0447\u04e9\u0441\u04af"},"arcs":[32]},{"type":"MultiLineString","properties":{"source":"openstreetmap.org","kind":"major_road","landuse_kind":"urban_area","sort_rank":380,"kind_detail":"primary","min_zoom":8.0},"arcs":[[33],[34],[35],[36]]},{"type":"MultiLineString","properties":{"kind":"major_road","network":"AsianHighway","sort_rank":381,"kind_detail":"trunk","source":"openstreetmap.org","min_zoom":8.0,"shield_text":"61","ref":"A359"},"arcs":[[37],[38],[39],[40]]},{"type":"LineString","properties":{"kind":"major_road","name:en":"Frunze street","network":"AsianHighway","sort_rank":381,"kind_detail":"trunk","source":"openstreetmap.org","min_zoom":8.0,"old_name":"\u0422\u0430\u0448\u043a\u0435\u043d\u0442\u0441\u043a\u0438\u0439 \u0442\u0440\u0430\u043a\u0442","shield_text":"5","landuse_kind":"urban_area","ref":"\u042d\u041c-01","id":424028246},"arcs":[41]},{"type":"MultiLineString","properties":{"kind":"major_road","name:en":"Frunze road","network":"AsianHighway","sort_rank":381,"landuse_kind":"urban_area","source":"openstreetmap.org","min_zoom":8.0,"old_name":"\u0422\u0430\u0448\u043a\u0435\u043d\u0442\u0441\u043a\u0438\u0439 \u0442\u0440\u0430\u043a\u0442","shield_text":"5","kind_detail":"trunk","ref":"\u042d\u041c-01"},"arcs":[[42],[43]]},{"type":"LineString","properties":{"kind":"major_road","network":"AsianHighway","sort_rank":381,"landuse_kind":"urban_area","source":"openstreetmap.org","min_zoom":8.0,"kind_detail":"trunk","shield_text":"5","ref":"A-2"},"arcs":[44]},{"type":"MultiLineString","properties":{"kind":"major_road","network":"AsianHighway","sort_rank":381,"kind_detail":"trunk","source":"openstreetmap.org","min_zoom":8.0,"shield_text":"7","ref":"\u042d\u041c-02"},"arcs":[[45],[46]]},{"type":"MultiLineString","properties":{"kind":"major_road","network":"AsianHighway","sort_rank":381,"kind_detail":"trunk","source":"openstreetmap.org","min_zoom":8.0,"landuse_kind":"residential","shield_text":"5","ref":"\u042d\u041c-01"},"arcs":[[47],[48],[49],[50],[51]]},{"type":"LineString","properties":{"kind":"major_road","name:en":"Deng Xiaoping street","sort_rank":380,"kind_detail":"primary","source":"openstreetmap.org","min_zoom":8.0,"old_name":"\u0422\u0430\u0448\u043a\u0435\u043d\u0442\u0441\u043a\u0438\u0439 \u0442\u0440\u0430\u043a\u0442","landuse_kind":"urban_area","id":154122776,"name:ky":"\u0414\u044d\u043d \u0421\u044f\u043e\u043f\u0438\u043d \u043a\u04e9\u0447\u04e9\u0441\u04af"},"arcs":[52]},{"type":"MultiLineString","properties":{"kind":"major_road","name:en":"Bishkek-Taraz road","network":"AsianHighway","sort_rank":381,"kind_detail":"trunk","source":"openstreetmap.org","min_zoom":8.0,"old_name":"\u0422\u0430\u0448\u043a\u0435\u043d\u0442\u0441\u043a\u0438\u0439 \u0442\u0440\u0430\u043a\u0442","shield_text":"5","name:ru":"\u0422\u0430\u0448\u043a\u0435\u043d\u0442\u0441\u043a\u0438\u0439 \u0442\u0440\u0430\u043a\u0442","landuse_kind":"urban_area","ref":"\u042d\u041c-01"},"arcs":[[53],[54]]},{"type":"MultiLineString","properties":{"sort_rank":380,"kind_detail":"primary","min_zoom":8.0,"kind":"major_road","source":"openstreetmap.org"},"arcs":[[55],[56]]},{"type":"LineString","properties":{"source":"openstreetmap.org","kind":"major_road","landuse_kind":"residential","sort_rank":380,"kind_detail":"primary","ref":"M-001","min_zoom":8.0},"arcs":[57]},{"type":"MultiLineString","properties":{"kind":"major_road","name:en":"Frunze road","network":"AsianHighway","sort_rank":381,"kind_detail":"trunk","source":"openstreetmap.org","min_zoom":8.0,"old_name":"\u0422\u0430\u0448\u043a\u0435\u043d\u0442\u0441\u043a\u0438\u0439 \u0442\u0440\u0430\u043a\u0442","shield_text":"5","landuse_kind":"residential","ref":"\u042d\u041c-01"},"arcs":[[58],[59],[60],[61]]},{"type":"LineString","properties":{"kind":"major_road","network":"AsianHighway","sort_rank":381,"kind_detail":"trunk","source":"openstreetmap.org","min_zoom":8.0,"old_name":"\u0422\u0430\u0448\u043a\u0435\u043d\u0442\u0441\u043a\u0438\u0439 \u0442\u0440\u0430\u043a\u0442","shield_text":"5","landuse_kind":"residential","ref":"\u042d\u041c-01","id":375213262,"name:ky":"\u041b\u0435\u043d\u0438\u043d \u043a\u04e9\u0447\u04e9\u0441\u04af"},"arcs":[62]},{"type":"MultiLineString","properties":{"source":"openstreetmap.org","kind":"major_road","sort_rank":380,"kind_detail":"primary","ref":"M-001","min_zoom":8.0},"arcs":[[63],[64]]},{"type":"LineString","properties":{"kind":"major_road","name:en":"1 May street","network":"AsianHighway","sort_rank":381,"kind_detail":"trunk","source":"openstreetmap.org","min_zoom":8.0,"shield_text":"7","ref":"\u042d\u041c-02","id":172471470},"arcs":[65]},{"type":"LineString","properties":{"kind":"major_road","sort_rank":380,"kind_detail":"primary","source":"openstreetmap.org","min_zoom":8.0,"old_name":"\u0422\u0430\u0448\u043a\u0435\u043d\u0442\u0441\u043a\u0438\u0439 \u0442\u0440\u0430\u043a\u0442","landuse_kind":"residential","id":330466177,"name:ky":"\u0424\u0440\u0443\u043d\u0437\u0435 \u043a\u04e9\u0447\u04e9\u0441\u04af"},"arcs":[66]},{"type":"MultiLineString","properties":{"kind":"major_road","network":"AsianHighway","sort_rank":381,"landuse_kind":"urban_area","source":"openstreetmap.org","min_zoom":8.0,"old_name":"\u0422\u0430\u0448\u043a\u0435\u043d\u0442\u0441\u043a\u0438\u0439 \u0442\u0440\u0430\u043a\u0442","shield_text":"5","kind_detail":"trunk","ref":"\u042d\u041c-01"},"arcs":[[67],[68],[69],[70]]},{"type":"LineString","properties":{"source":"openstreetmap.org","kind":"major_road","sort_rank":380,"kind_detail":"primary","ref":"\u042d\u041c-14","min_zoom":8.0},"arcs":[71]},{"type":"LineString","properties":{"kind":"major_road","name:en":"Bishkek-Taraz road","network":"AsianHighway","sort_rank":381,"kind_detail":"trunk","source":"openstreetmap.org","min_zoom":8.0,"old_name":"\u0422\u0430\u0448\u043a\u0435\u043d\u0442\u0441\u043a\u0438\u0439 \u0442\u0440\u0430\u043a\u0442","shield_text":"5","name:ru":"\u0422\u0430\u0448\u043a\u0435\u043d\u0442\u0441\u043a\u0438\u0439 \u0442\u0440\u0430\u043a\u0442","ref":"\u042d\u041c-01","id":346687356},"arcs":[72]},{"type":"LineString","properties":{"kind":"major_road","name:en":"1 May street","network":"AsianHighway","sort_rank":381,"kind_detail":"trunk","source":"openstreetmap.org","min_zoom":8.0,"landuse_kind":"residential","shield_text":"7","ref":"\u042d\u041c-02","id":172471470},"arcs":[73]},{"type":"LineString","properties":{"source":"openstreetmap.org","kind":"major_road","landuse_kind":"residential","sort_rank":380,"kind_detail":"primary","min_zoom":8.0},"arcs":[74]},{"type":"MultiLineString","properties":{"kind":"major_road","network":"AsianHighway","sort_rank":381,"kind_detail":"trunk","source":"openstreetmap.org","min_zoom":8.0,"shield_text":"7","ref":"A359"},"arcs":[[75],[76]]},{"type":"LineString","properties":{"kind":"major_road","name:en":"Bishkek-Taraz road","network":"AsianHighway","sort_rank":381,"kind_detail":"trunk","source":"openstreetmap.org","min_zoom":8.0,"old_name":"\u0422\u0430\u0448\u043a\u0435\u043d\u0442\u0441\u043a\u0438\u0439 \u0442\u0440\u0430\u043a\u0442","shield_text":"5","name:ru":"\u0422\u0430\u0448\u043a\u0435\u043d\u0442\u0441\u043a\u0438\u0439 \u0442\u0440\u0430\u043a\u0442","landuse_kind":"residential","ref":"\u042d\u041c-01","id":346687356},"arcs":[77]},{"type":"MultiLineString","properties":{"kind":"major_road","network":"AsianHighway","sort_rank":381,"kind_detail":"trunk","source":"openstreetmap.org","min_zoom":8.0,"shield_text":"5","ref":"\u042d\u041c-01"},"arcs":[[78],[79],[80],[81],[82],[83],[84],[85],[86]]},{"type":"LineString","properties":{"kind":"major_road","name:en":"Lev Tolstoy Street","sort_rank":380,"kind_detail":"primary","source":"openstreetmap.org","min_zoom":8.0,"int_name":"Lev Tolstoy Str.","landuse_kind":"urban_area","name:ky":"\u041b\u0435\u0432 \u0422\u043e\u043b\u0441\u0442\u043e\u0439 \u043a\u04e9\u0447\u04e9\u0441\u04af"},"arcs":[87]},{"type":"MultiLineString","properties":{"kind":"major_road","network":"AsianHighway","sort_rank":381,"kind_detail":"trunk","source":"openstreetmap.org","min_zoom":8.0,"old_name":"\u0422\u0430\u0448\u043a\u0435\u043d\u0442\u0441\u043a\u0438\u0439 \u0442\u0440\u0430\u043a\u0442","shield_text":"5","ref":"\u042d\u041c-01"},"arcs":[[88],[89],[90],[91],[92]]},{"type":"MultiLineString","properties":{"kind":"major_road","network":"AsianHighway","sort_rank":381,"kind_detail":"trunk","source":"openstreetmap.org","min_zoom":8.0,"shield_text":"5","ref":"A-2"},"arcs":[[93],[94],[95],[96],[97]]},{"type":"LineString","properties":{"kind":"major_road","sort_rank":380,"kind_detail":"primary","source":"openstreetmap.org","min_zoom":8.0,"old_name":"\u0422\u0430\u0448\u043a\u0435\u043d\u0442\u0441\u043a\u0438\u0439 \u0442\u0440\u0430\u043a\u0442","landuse_kind":"urban_area","id":330466177,"name:ky":"\u0424\u0440\u0443\u043d\u0437\u0435 \u043a\u04e9\u0447\u04e9\u0441\u04af"},"arcs":[98]},{"type":"MultiLineString","properties":{"kind":"major_road","network":"AsianHighway","sort_rank":381,"kind_detail":"trunk","source":"openstreetmap.org","min_zoom":8.0,"old_name":"\u0422\u0430\u0448\u043a\u0435\u043d\u0442\u0441\u043a\u0438\u0439 \u0442\u0440\u0430\u043a\u0442","shield_text":"5","landuse_kind":"residential","ref":"\u042d\u041c-01"},"arcs":[[99],[100],[101],[102],[103]]},{"type":"LineString","properties":{"source":"openstreetmap.org","kind":"major_road","sort_rank":380,"kind_detail":"primary","ref":"A-358","min_zoom":8.0},"arcs":[104]},{"type":"MultiLineString","properties":{"kind":"major_road","network":"AsianHighway","sort_rank":381,"landuse_kind":"urban_area","source":"openstreetmap.org","min_zoom":8.0,"kind_detail":"trunk","shield_text":"5","ref":"\u042d\u041c-01"},"arcs":[[105],[106],[107],[108],[109]]},{"type":"LineString","properties":{"source":"openstreetmap.org","kind":"major_road","sort_rank":381,"kind_detail":"trunk","ref":"\u042d\u041c-16","min_zoom":8.0},"arcs":[110]},{"type":"MultiLineString","properties":{"kind":"major_road","name:en":"Frunze road","network":"AsianHighway","sort_rank":381,"kind_detail":"trunk","source":"openstreetmap.org","min_zoom":8.0,"old_name":"\u0422\u0430\u0448\u043a\u0435\u043d\u0442\u0441\u043a\u0438\u0439 \u0442\u0440\u0430\u043a\u0442","shield_text":"5","ref":"\u042d\u041c-01"},"arcs":[[111],[112]]}]},"earth":{"type":"GeometryCollection","geometries":[{"type":"Polygon","properties":{"sort_rank":10,"source":"naturalearthdata.com","kind":"earth","min_zoom":0.0,"id":4746},"arcs":[[113]]}]},"landuse":{"type":"GeometryCollection","geometries":[{"type":"Polygon","properties":{"kind":"residential","name:en":"Sosnovka","name":"\u0421\u043e\u0441\u043d\u043e\u0432\u043a\u0430","area":11881000,"sort_rank":20,"source":"openstreetmap.org","min_zoom":8.0,"tier":2,"id":180243373},"arcs":[[114]]},{"type":"Polygon","properties":{"kind":"residential","name:en":"Voenno-Antonovka","name":"\u0412\u043e\u0435\u043d\u043d\u043e-\u0410\u043d\u0442\u043e\u043d\u043e\u0432\u043a\u0430","area":13817200,"sort_rank":20,"source":"openstreetmap.org","min_zoom":8.0,"tier":2,"id":185304846},"arcs":[[115]]},{"type":"Polygon","properties":{"kind":"residential","name:en":"Panfilovskoye","name":"\u041f\u0430\u043d\u0444\u0438\u043b\u043e\u0432\u0441\u043a\u043e\u0435","area":17622300,"sort_rank":20,"source":"openstreetmap.org","min_zoom":8.0,"tier":2,"id":175361967,"name:ky":"\u041f\u0430\u043d\u0444\u0438\u043b\u043e\u0432"},"arcs":[[116]]},{"type":"Polygon","properties":{"kind":"residential","name:en":"Belovodskoe","name":"\u0411\u0435\u043b\u043e\u0432\u043e\u0434\u0441\u043a\u043e\u0435","area":46660375,"sort_rank":20,"source":"openstreetmap.org","min_zoom":8.0,"tier":2},"arcs":[[117]]},{"type":"Polygon","properties":{"kind":"residential","name:en":"Petropavlovka","name":"\u041f\u0435\u0442\u0440\u043e\u043f\u0430\u0432\u043b\u043e\u0432\u043a\u0430","area":10020600,"sort_rank":20,"source":"openstreetmap.org","min_zoom":8.0,"tier":2,"id":182811552},"arcs":[[118]]},{"type":"Polygon","properties":{"kind":"residential","int_name":"Archa-Beshik","name":"\u0410\u0440\u0447\u0430-\u0411\u0435\u0448\u0438\u043a \u0436\/\u043c","area":14691600,"sort_rank":20,"name:de":"Artscha-Beschik","source":"openstreetmap.org","min_zoom":8.0,"tier":2,"id":161152289},"arcs":[[119]]},{"type":"Polygon","properties":{"kind":"residential","name:en":"Aleksandrovka","name":"\u0410\u043b\u0435\u043a\u0441\u0430\u043d\u0434\u0440\u043e\u0432\u043a\u0430","area":13774200,"sort_rank":20,"source":"openstreetmap.org","min_zoom":8.0,"tier":2,"id":-4034014,"osm_relation":true},"arcs":[[120]]},{"type":"Polygon","properties":{"kind":"residential","name:en":"Novopavlovka","name":"\u041d\u043e\u0432\u043e\u043f\u0430\u0432\u043b\u043e\u0432\u043a\u0430","area":10824500,"sort_rank":20,"source":"openstreetmap.org","min_zoom":8.0,"tier":2,"id":160769407},"arcs":[[121]]},{"type":"Polygon","properties":{"kind":"residential","name:en":"Sokuluk","name":"\u0421\u043e\u043a\u0443\u043b\u0443\u043a","area":25885800,"sort_rank":20,"source":"openstreetmap.org","min_zoom":8.0,"int_name":"Sokutuk","tier":2,"id":183814882},"arcs":[[122]]},{"type":"Polygon","properties":{"kind":"residential","name:en":"Chaldovar","name":"\u0427\u0430\u043b\u0434\u044b\u0431\u0430\u0440","area":21448100,"sort_rank":20,"source":"openstreetmap.org","min_zoom":8.0,"tier":2,"id":171380708},"arcs":[[123]]},{"type":"MultiPolygon","properties":{"source":"naturalearthdata.com","kind":"urban_area","name":"","area":1001634664,"sort_rank":11,"min_zoom":4.0},"arcs":[[[124]],[[125]],[[126]],[[127]],[[128]]]},{"type":"Polygon","properties":{"kind":"residential","name:en":"Petrovka","name":"\u041f\u0435\u0442\u0440\u043e\u0432\u043a\u0430","area":21084700,"sort_rank":20,"source":"openstreetmap.org","min_zoom":8.0,"tier":2,"id":182040607},"arcs":[[129]]},{"type":"MultiPolygon","properties":{"source":"openstreetmap.org","kind":"residential","tier":2,"area":82886368,"sort_rank":20,"min_zoom":8.0},"arcs":[[[130]],[[131]]]},{"type":"Polygon","properties":{"kind":"glacier","natural":"glacier","name":"\u041a\u0438\u0447\u0438\u0442\u043e\u0440 \u0417\u0430\u043f\u0430\u0434\u043d\u044b\u0439","area":10132900,"sort_rank":29,"source":"openstreetmap.org","min_zoom":8.0,"tier":3,"id":-3458417,"osm_relation":true},"arcs":[[132]]}]}},"type":"Topology","transform":{"translate":[73.125,42.0329743324],"scale":[0.0003433228,0.0002529086]},"arcs":[[[1607,4096],[-188,-111],[-154,-47],[-38,-82],[33,-32],[-1,-70],[-29,-83],[-101,-140],[30,-161],[-4,-90],[-34,-78],[0,-241],[-129,-199],[-7,-239],[-56,-112],[-32,-371],[46,-160],[89,-157],[99,-63],[6,-71],[-82,-68],[-420,88],[-82,72],[14,176],[-29,60],[-169,46],[-82,-3],[-287,89]],[[4096,727],[-93,-23],[-95,33],[-199,-55],[-140,28],[-68,-202],[-16,-182],[174,-104],[8,-31],[-47,-23],[-37,-59],[-105,-48],[-17,-61]],[[1137,1589],[-6,71],[-99,63],[-89,157],[-46,160],[32,371],[56,112],[7,239],[129,199],[0,241],[34,78],[4,90],[-30,161],[101,140],[29,83],[1,70],[-33,32],[38,82],[154,47],[188,111]],[[0,2049],[287,-89],[82,3],[169,-46],[29,-60],[-14,-176],[82,-72],[420,-88],[82,68]],[[0,386],[40,-31],[169,1],[284,-78],[75,-66],[40,-160],[44,-52]],[[0,556],[0,-17]],[[1137,1589],[36,-47],[33,12],[73,247],[49,-18],[88,-109],[77,34],[71,-56],[4,-115],[-116,-174],[-19,-157],[-40,-50],[-295,-94],[-274,57],[-100,-16],[-83,-83],[-68,4],[-106,49],[-109,-54],[-165,21],[-193,-152]],[[3986,3149],[4,237],[106,14]],[[4096,3153],[-8,0],[0,39],[-67,-73],[-33,-5],[-2,35]],[[0,3413],[1411,-265],[623,-62],[635,34],[199,-33],[217,80],[1011,122]],[[3807,3319],[96,6]],[[3903,3325],[78,5]],[[4078,3287],[-5,39]],[[3760,3320],[-22,-3]],[[2257,3161],[-5,-2]],[[3903,3325]],[[342,3552],[-2,-14]],[[3987,3561],[-144,179],[-19,62],[-9,208],[110,26],[-110,-25],[9,-209],[19,-63],[142,-177]],[[4096,3329],[-55,-3]],[[3470,3276],[-115,-20]],[[3355,3256],[-2,-1]],[[337,4096],[6,-541]],[[340,3538],[3,17]],[[343,3555],[-1,-3]],[[716,3195],[110,-24]],[[3602,3300],[-77,-14]],[[2271,2458],[-4,-18]],[[2201,3145],[5,-40]],[[2207,3093],[-1,12]],[[2207,3093],[4,-123]],[[27,3329],[-15,-1]],[[284,3371],[-11,-52]],[[4041,3326],[-11,0]],[[2093,3129],[0,-4]],[[4066,3473],[30,-32]],[[4096,3441],[-30,33]],[[4079,3285],[-1,2]],[[11,3327],[54,13]],[[36,3331],[-9,-2]],[[1570,4096],[-853,-365],[-171,-44],[-122,-144],[-94,0]],[[343,3541],[82,2],[121,144],[171,44],[854,365]],[[3525,3286],[-55,-10]],[[3011,3203]],[[3278,3251],[-3,0]],[[197,3319],[101,-8]],[[2267,2440],[-98,-238],[14,-87],[-43,-48],[15,-175],[-50,-130],[-97,-106],[-68,-168],[41,-74],[110,-8],[-89,-68],[25,-9],[-18,-198],[17,14],[61,-51],[-30,-7],[10,-61],[-22,3],[34,-60],[-5,-65],[-516,-220],[-120,9],[-148,-40],[-39,-34],[-71,19],[-348,-26],[-431,80],[-144,-46],[-257,82]],[[2211,2970],[29,-391]],[[1125,3124],[23,-4]],[[1195,3108],[6,-4]],[[1314,3049],[20,-4]],[[1571,3003],[15,-1]],[[1683,3009],[19,6]],[[4030,3326],[-23,3]],[[2252,3159],[-46,-12]],[[2260,3162],[-3,-1]],[[3985,3562],[81,-89]],[[4066,3474],[-79,87]],[[3804,3319]],[[2803,3169],[-11,0]],[[3011,3203],[-104,-35],[-104,1]],[[3275,3251],[-143,-8]],[[3353,3255],[-75,-4]],[[1201,3104],[113,-55]],[[3756,3319],[48,0]],[[3804,3319],[-44,1]],[[2240,2579],[2,-9]],[[4007,3329],[-26,1]],[[1937,3103],[46,3]],[[1989,3107],[59,10]],[[2049,3117],[40,11]],[[2149,3140],[48,6]],[[369,690],[-158,116],[-18,58],[30,68],[-79,54],[-110,22],[-34,60]],[[2473,3203],[-125,-3]],[[2242,2570],[29,-112]],[[2093,3125],[23,-168]],[[330,3543],[-124,-3],[-83,-45],[-10,-98],[-77,-66]],[[65,3340],[49,57],[9,97],[84,46],[136,1]],[[2348,3200],[-88,-38]],[[1124,3124],[1,0]],[[1334,3045],[103,-19]],[[1756,3034],[175,68]],[[2494,3197],[-21,6]],[[2791,3169],[-1,0]],[[3751,3330],[71,214],[140,15]],[[3751,3330],[-13,-13],[-107,-12],[-29,-5],[149,30]],[[3962,3559],[50,11]],[[4012,3570],[84,19]],[[4079,3285],[17,2]],[[1437,3026],[5,-1]],[[1751,3032],[5,2]],[[1931,3102],[6,1]],[[2520,3195],[-26,2]],[[2790,3169]],[[0,3329],[11,-2]],[[12,3328],[-12,2]],[[45,3322],[152,-3]],[[298,3311],[217,-80],[201,-36]],[[826,3171],[298,-47]],[[4007,3329]],[[1148,3120],[47,-12]],[[1442,3025],[129,-22]],[[1586,3002],[97,7]],[[1702,3015],[49,17]],[[2790,3169],[-270,26]],[[338,3525],[-2,-76],[-52,-78]],[[1983,3106],[6,1]],[[2048,3117],[1,0]],[[2089,3128],[60,12]],[[2197,3146],[2,0]],[[2200,3146],[2,0],[0,1],[-2,0],[0,-1]],[[2078,970],[144,-54],[87,-183],[172,-165],[114,-37],[93,59],[147,-290],[106,-81],[87,-219]],[[2792,3169],[-1,0]],[[3132,3243],[-121,-40]],[[0,0],[0,4096],[4096,0],[0,-4096],[-4096,0]],[[2232,2562],[38,31],[48,-71],[-49,-83],[-26,12],[-11,111]],[[3796,3351],[74,10],[6,42],[29,1],[-4,-124],[-12,21],[-56,-4],[6,-44],[-19,-3],[-24,101]],[[1435,3052],[46,11],[41,-49],[14,65],[5,-59],[111,12],[9,-20],[5,39],[16,-31],[76,13],[-103,-66],[-43,1],[-169,52],[-8,32]],[[2756,3050],[35,119],[23,32],[-1,-24],[36,21],[32,-13],[14,61],[27,-14],[7,-53],[-3,66],[27,10],[-2,27],[11,-31],[38,7],[10,-42],[1,-20],[-65,-23],[21,-47],[-29,-15],[8,-42],[-27,-13],[-12,24],[-14,-46],[-137,16]],[[2260,3164],[4,49],[53,-14],[33,23],[-9,-85],[-79,-16],[-2,43]],[[4087,3152],[9,18],[0,-18],[-9,0]],[[3127,3275],[119,20],[31,-40],[-15,-40],[-101,-4],[-24,6],[-10,58]],[[3903,3305],[0,61],[28,17],[25,-4],[10,-35],[76,4],[-1,-22],[-34,4],[3,-52],[-107,27]],[[3273,3235],[7,24],[73,6],[9,43],[113,18],[-12,-124],[-89,-14],[-22,57],[-13,-59],[-27,44],[-39,5]],[[1121,3182],[0,20],[37,-6],[-3,-47],[96,-42],[21,20],[63,-61],[-1,-31],[-15,-17],[-192,73],[-6,91]],[[218,3253],[-36,-3],[14,69],[180,107],[-14,-68],[-144,-105]],[[2243,3260],[48,-146],[-70,-39],[-14,-147],[-47,-35],[-89,21],[-45,29],[-32,88],[-65,44],[65,219],[39,-2],[18,-30],[8,-99],[97,44],[32,87],[55,-34]],[[2831,3015],[-93,16],[23,111],[146,89],[58,63],[54,-106],[-70,-107],[-118,-66]],[[3385,3186],[-161,20],[0,61],[147,95],[76,1],[68,-44],[32,-113],[-162,-20]],[[4096,3510],[0,-290],[-164,69],[-126,5],[46,70],[213,106],[14,37],[17,3]],[[2492,3210],[185,6],[36,62],[2,-85],[78,-12],[-24,-79],[1,47],[-27,12],[-162,2],[-89,47]],[[2033,3050],[16,66],[148,29],[3,-66],[-65,-128],[-71,-25],[32,73],[-63,51]],[[1563,3176],[55,28],[63,-67],[-45,-12],[-9,-52],[-33,-1],[-31,104]],[[3345,1658],[136,42],[25,-90],[-43,5],[21,8],[-15,36],[-21,-2],[13,-36],[-23,-2],[-1,37],[-23,-42],[-57,14],[-12,30]]]}