{"objects":{"water":{"type":"GeometryCollection","geometries":[{"type":"Polygon","properties":{"source":"naturalearthdata.com","kind":"ocean","area":1576712559132672,"sort_rank":200,"min_zoom":0.0,"id":1},"arcs":[[3]]},{"type":"LineString","properties":{"source":"naturalearthdata.com","kind":"ocean","sort_rank":205,"boundary":true,"min_zoom":0.0,"id":4117},"arcs":[4]}]},"buildings":{"type":"GeometryCollection","geometries":[]},"places":{"type":"GeometryCollection","geometries":[{"type":"Point","properties":{"source":"naturalearthdata.com","kind":"locality","name":"Oamaru","population":13000,"min_zoom":7.0,"id":7302},"coordinates":[2442,4012]},{"type":"Point","properties":{"kind":"locality","name":"Dunedin","kind_detail":"city","source":"openstreetmap.org","min_zoom":8.0,"name:uk":"\u0414\u0430\u043d\u0456\u0434\u0456\u043d","name:ru":"\u0414\u0430\u043d\u0438\u0434\u0438\u043d","population":118400,"name:mi":"\u014ctepoti","id":1037917163,"name:ja":"\u30c0\u30cb\u30fc\u30c7\u30f3"},"coordinates":[1011,829]},{"type":"Point","properties":{"kind":"locality","name":"Oamaru","kind_detail":"town","source":"openstreetmap.org","min_zoom":8.0,"population":13350,"name:mi":"Te Oha-a-Maru","id":206015894,"name:ja":"\u30aa\u30de\u30eb\u30fc"},"coordinates":[2366,4051]},{"type":"Point","properties":{"source":"openstreetmap.org","kind":"locality","name":"Port Chalmers","kind_detail":"town","population":3000,"min_zoom":8.0,"id":243637230},"coordinates":[1350,1070]},{"type":"Point","properties":{"source":"openstreetmap.org","kind":"locality","name":"Waikouaiti","kind_detail":"town","population":1122,"min_zoom":8.0,"id":1336683282},"coordinates":[1501,1996]}]},"transit":{"type":"GeometryCollection","geometries":[{"type":"LineString","properties":{"osm_relation":true,"source":"openstreetmap.org","kind":"train","name":"Taieri Gorge Railway","sort_rank":275,"min_zoom":6.0,"operator":"Taieri Gorge Limited"},"arcs":[2]}]},"pois":{"type":"GeometryCollection","geometries":[]},"boundaries":{"type":"GeometryCollection","geometries":[{"type":"LineString","properties":{"name:ty":"Aotearoa","name:ka":"\u10d0\u10ee\u10d0\u10da\u10d8 \u10d6\u10d4\u10da\u10d0\u10dc\u10d3\u10d8\u10d0","name:ko":"\ub274\uc9c8\ub79c\ub4dc","name:cv":"\u00c7\u0115\u043d\u0115 \u0417\u0435\u043b\u0430\u043d\u0434\u0438","name:km":"\u1793\u17bc\u179c\u17c2\u179b\u179f\u17c1\u17a1\u1784\u17cb","name:kl":"New Zealand","name:cs":"Nov\u00fd Z\u00e9land","name:tt":"\u042f\u04a3\u0430 \u0417\u0435\u043b\u0430\u043d\u0434\u0438\u044f","name:kw":"Mordir Nowydh","name:kv":"\u0412\u044b\u043b\u044c \u0417\u0435\u043b\u0430\u043d\u0434\u0438\u044f","name:ku":"N\u00fb Zelenda","name:tl":"New Zealand","name:ta":"\u0ba8\u0bbf\u0baf\u0bc2\u0b9a\u0bbf\u0bb2\u0bbe\u0ba8\u0bcd\u0ba4\u0bc1","name:tg":"\u0417\u0435\u043b\u0430\u043d\u0434\u0438\u044f\u0438 \u041d\u0430\u0432","name:ca":"Nova Zelanda","name:te":"\u0c28\u0c4d\u0c2f\u0c42\u0c1c\u0c40\u0c32\u0c3e\u0c02\u0c21\u0c4d","name:cy":"Seland Newydd","name:qu":"Musuq Silanda","name:da":"New Zealand","name:de":"Neuseeland","name:dz":"\u0f53\u0f72\u0f60\u0f74\u0f0b\u0f5b\u0f72\u0f0b\u0f63\u0f7a\u0f53\u0f4c\u0f0b","source":"openstreetmap.org","name:kn":"\u0ca8\u0ccd\u0caf\u0cc2 \u0c9c\u0cc0\u0cb2\u0ccd\u0caf\u0cbe\u0c82\u0ca1\u0ccd","name:dv":"\u0782\u07a8\u0787\u07aa\u0792\u07a8\u078d\u07ad\u0782\u07b0\u0791\u07aa","name:lv":"Jaunz\u0113lande","name:lt":"Naujoji Zelandija","name:uz":"Yangi Zelandiya","name:kk":"\u0416\u0430\u04a3\u0430 \u0417\u0435\u043b\u0430\u043d\u0434\u0438\u044f","name:ur":"\u0646\u06cc\u0648\u0632\u06cc \u0644\u06cc\u0646\u0688","name:lb":"Neis\u00e9iland","name:la":"Nova Zelandia","name:uk":"\u041d\u043e\u0432\u0430 \u0417\u0435\u043b\u0430\u043d\u0434\u0456\u044f","name:ug":"\u064a\u06d0\u06ad\u0649 \u0632\u06d0\u0644\u0627\u0646\u062f\u0649\u064a\u06d5","name:li":"Nui-Zieland","name:lo":"\u0e9b\u0eb0\u0ec0\u0e97\u0e94\u0e99\u0eb9\u0ec1\u0ea7\u0e99 \u0ec0\u0e8a\u0ea5\u0eb1\u0e87","name:el":"\u039d\u03ad\u03b1 \u0396\u03b7\u03bb\u03b1\u03bd\u03b4\u03af\u03b1","name:eo":"Nov-Zelando","name:en":"New Zealand","name":"New Zealand\/Aotearoa","name:tk":"T\u00e4ze Zelandi\u00fda","name:th":"\u0e1b\u0e23\u0e30\u0e40\u0e17\u0e28\u0e19\u0e34\u0e27\u0e0b\u0e35\u0e41\u0e25\u0e19\u0e14\u0e4c","name:eu":"Zeelanda Berria","name:et":"Uus-Meremaa","name:es":"Nueva Zelanda","name:ia":"Nove Zelanda","name:rm":"Nova Zelanda","name:az":"Yeni Zelandiya","name:ie":"Nov-Zeland","name:id":"Selandia Baru","name:ar":"\u0646\u064a\u0648\u0632\u064a\u0644\u0646\u062f\u0627","name:io":"Nova-Zelando","name:is":"N\u00fdja-Sj\u00e1land","name:am":"\u1292\u12cd \u12da\u120b\u1295\u12f5","name:it":"Nuova Zelanda","name:an":"Nueva Zelanda","name:ru":"\u041d\u043e\u0432\u0430\u044f \u0417\u0435\u043b\u0430\u043d\u0434\u0438\u044f","name:rw":"Nuveli Zelande","name:af":"Nieu-Seeland","name:zu":"INyuzilandi","kind_detail":"2","name:za":"Saen Saelanz","name:zh-yue":"\u7d10\u897f\u862d","name:zh":"\u65b0\u897f\u5170","name:so":"New Zealand","name:sm":"Niu Sila","name:sl":"Nova Zelandija","name:sk":"Nov\u00fd Z\u00e9land","name:ja":"\u30cb\u30e5\u30fc\u30b8\u30fc\u30e9\u30f3\u30c9","name:sh":"Novi Zeland","name:se":"O\u0111\u0111a-Sel\u00e1nda","name:sa":"\u0928\u094d\u092f\u0942-\u091c\u0940\u0932\u0948\u0902\u0921","name:bs":"Novi Zeland","name:bm":"New Zealand","name:bn":"\u09a8\u09bf\u0989\u099c\u09bf\u09b2\u09cd\u09af\u09be\u09a8\u09cd\u09a1","name:bo":"\u0f53\u0f72\u0f60\u0f74\u0f0b\u0f5b\u0f72\u0f0b\u0f63\u0f7a\u0f53\u0f0b\u0f4c\u0f72\u0f0d","name:br":"Zeland-Nevez","name:sw":"New Zealand","name:be":"\u041d\u043e\u0432\u0430\u044f \u0417\u0435\u043b\u0430\u043d\u0434\u044b\u044f","name:su":"Selandia Anyar","name:bg":"\u041d\u043e\u0432\u0430 \u0417\u0435\u043b\u0430\u043d\u0434\u0438\u044f","name:ba":"\u042f\u04a3\u044b \u0417\u0435\u043b\u0430\u043d\u0434\u0438\u044f","name:sq":"Zelanda e Re","name:jv":"S\u00e9landia Anyar","name:bi":"Niu Zilan","name:pt":"Nova Zel\u00e2ndia","name:oc":"N\u00f2va Zelanda","min_zoom":8.0,"name:ro":"Noua Zeeland\u0103","name:zh-min-nan":"Sin Jia\u030dt-l\u00e2n-jia","name:os":"\u041d\u043e\u0433 \u0417\u0435\u043b\u0430\u043d\u0434\u0438","name:or":"\u0b28\u0b3f\u0b09\u0b1c\u0b3f\u0b32\u0b4d\u0b5f\u0b3e\u0b23\u0b4d\u0b21","name:pl":"Nowa Zelandia","sort_rank":262,"name:sr":"\u041d\u043e\u0432\u0438 \u0417\u0435\u043b\u0430\u043d\u0434","osm_relation":true,"name:pa":"\u0a28\u0a3f\u0a0a\u0a1c\u0a3c\u0a40\u0a32\u0a48\u0a02\u0a21","name:tr":"Yeni Zelanda","name:hi":"\u0928\u094d\u092f\u0942\u091c\u093c\u0940\u0932\u0948\u0923\u094d\u0921","name:sv":"Nya Zeeland","name:he":"\u05e0\u05d9\u05d5 \u05d6\u05d9\u05dc\u05e0\u05d3","name:hy":"\u0546\u0578\u0580 \u0536\u0565\u056c\u0561\u0576\u0564\u056b\u0561","name:ht":"Nouv\u00e8l Zelann","name:hu":"\u00daj-Z\u00e9land","name:hr":"Novi Zeland","kind":"country","name:yi":"\u05e0\u05d9\u05d5 \u05d6\u05d9\u05dc\u05d0\u05e0\u05d3","name:yo":"New Zealand","name:mt":"New Zealand","name:ms":"New Zealand","name:mr":"\u0928\u094d\u092f\u0942 \u091d\u0940\u0932\u0901\u0921","name:my":"\u1014\u101a\u1030\u1038\u1007\u102e\u101c\u1014\u103a\u1014\u102d\u102f\u1004\u103a\u1004\u1036","name:vi":"New Zealand","name:ml":"\u0d28\u0d4d\u0d2f\u0d42\u0d38\u0d40\u0d32\u0d7b\u0d21\u0d4d","name:mn":"\u0428\u0438\u043d\u044d \u0417\u0435\u043b\u0430\u043d\u0434","name:mi":"Aotearoa","id":-556706,"name:mk":"\u041d\u043e\u0432 \u0417\u0435\u043b\u0430\u043d\u0434","name:vo":"Nula-Sele\u00e4ns","name:fa":"\u0646\u06cc\u0648\u0632\u06cc\u0644\u0646\u062f","name:fi":"Uusi-Seelanti","name:fo":"N\u00fds\u00e6land","name:fr":"Nouvelle-Z\u00e9lande","name:fy":"Nij-Seel\u00e2n","name:nl":"Nieuw-Zeeland","name:nn":"New Zealand","name:no":"New Zealand","name:na":"Niu Djiran","name:ne":"\u0928\u094d\u092f\u0942 \u091c\u0940\u0932\u094d\u092f\u093e\u0923\u094d\u0921","name:wa":"Nouve Zelande","name:wo":"Seland-Gu-Bees","name:ga":"An Nua-Sh\u00e9alainn","name:gd":"Sealainn Nuadh","name:gl":"Nova Zelandia","maritime_boundary":true,"name:gv":"Yn Teelynn Noa"},"arcs":[0]},{"type":"LineString","properties":{"kind":"region","name":"Otago","sort_rank":256,"kind_detail":"4","min_zoom":8.0,"source":"openstreetmap.org","maritime_boundary":true,"id":-1640138,"osm_relation":true,"name:ja":"\u30aa\u30bf\u30b4"},"arcs":[1]}]},"roads":{"type":"GeometryCollection","geometries":[{"type":"MultiLineString","properties":{"sort_rank":380,"kind_detail":"primary","min_zoom":8.0,"kind":"major_road","source":"openstreetmap.org"},"arcs":[[5],[6],[7],[8],[9]]},{"type":"LineString","properties":{"kind":"major_road","network":null,"sort_rank":380,"kind_detail":"primary","bus_network":"GoBus Dunedin","source":"openstreetmap.org","min_zoom":8.0,"bus_shield_text":"76\/77","shield_text":"87","id":117043203},"arcs":[10]},{"type":"MultiLineString","properties":{"bus_network":"GoBus Dunedin","network":null,"sort_rank":380,"kind_detail":"primary","kind":"major_road","source":"openstreetmap.org","min_zoom":8.0,"bus_shield_text":"76\/77","shield_text":"87","ref":"SH 87"},"arcs":[[11],[12],[13]]},{"type":"LineString","properties":{"kind":"major_road","network":null,"sort_rank":380,"kind_detail":"primary","source":"openstreetmap.org","min_zoom":8.0,"shield_text":"86","ref":"SH86"},"arcs":[14]},{"type":"LineString","properties":{"source":"openstreetmap.org","kind":"major_road","sort_rank":381,"kind_detail":"trunk","ref":"SH 1","min_zoom":8.0},"arcs":[15]},{"type":"MultiLineString","properties":{"kind":"major_road","network":null,"sort_rank":380,"kind_detail":"primary","source":"openstreetmap.org","min_zoom":8.0,"shield_text":"87","ref":"SH 87"},"arcs":[[16],[17]]},{"type":"MultiLineString","properties":{"kind":"path","sort_rank":354,"kind_detail":"path","is_bicycle_related":true,"bicycle_shield_text":null,"bicycle_network":"ncn","source":"openstreetmap.org","min_zoom":8.0},"arcs":[[18],[19],[20]]},{"type":"LineString","properties":{"kind":"path","sort_rank":354,"kind_detail":"path","is_bicycle_related":true,"bicycle_shield_text":null,"cycleway":"track","source":"openstreetmap.org","min_zoom":8.0,"bicycle_network":"ncn","id":290155328},"arcs":[21]},{"type":"LineString","properties":{"kind":"major_road","sort_rank":381,"kind_detail":"trunk","bus_network":"GoBus Dunedin","source":"openstreetmap.org","min_zoom":8.0,"bus_shield_text":"76\/77","landuse_kind":"urban_area","ref":"SH 1","id":88654966},"arcs":[22]},{"type":"MultiLineString","properties":{"kind":"path","sort_rank":354,"kind_detail":"footway","is_bicycle_related":true,"bicycle_shield_text":null,"bicycle_network":"ncn","source":"openstreetmap.org","min_zoom":8.0},"arcs":[[23],[24]]},{"type":"MultiLineString","properties":{"kind":"major_road","network":"NZ:SH","sort_rank":381,"kind_detail":"trunk","source":"openstreetmap.org","min_zoom":8.0,"shield_text":"1","ref":"SH 1"},"arcs":[[25],[26],[27],[28],[29],[30],[31],[32],[33]]},{"type":"LineString","properties":{"kind":"major_road","cycleway_left":"lane","network":"NZ:SH","sort_rank":381,"kind_detail":"trunk","is_bicycle_related":true,"source":"openstreetmap.org","min_zoom":8.0,"shield_text":"1","ref":"SH 1","id":88463076},"arcs":[34]},{"type":"LineString","properties":{"kind":"major_road","sort_rank":381,"kind_detail":"trunk","bus_network":"GoBus Dunedin","source":"openstreetmap.org","min_zoom":8.0,"bus_shield_text":"78\/79","landuse_kind":"urban_area","ref":"SH 1","id":115254316},"arcs":[35]},{"type":"MultiLineString","properties":{"kind":"major_road","network":null,"sort_rank":381,"kind_detail":"trunk","source":"openstreetmap.org","min_zoom":8.0,"shield_text":"88","ref":"SH 88"},"arcs":[[36],[37]]},{"type":"LineString","properties":{"kind":"major_road","network":"NZ:SH","sort_rank":381,"kind_detail":"trunk","bus_network":"GoBus","source":"openstreetmap.org","min_zoom":8.0,"bus_shield_text":"17\/18","shield_text":"1","landuse_kind":"urban_area","ref":"SH 1","id":118892278},"arcs":[38]},{"type":"MultiLineString","properties":{"kind":"highway","network":"NZ:SH","sort_rank":383,"kind_detail":"motorway","source":"openstreetmap.org","min_zoom":8.0,"all_networks":["NZ:SH"],"shield_text":"1","ref":"SH 1","all_shield_texts":["1"]},"arcs":[[39],[40],[41],[42],[43],[44]]},{"type":"MultiLineString","properties":{"kind":"minor_road","sort_rank":358,"kind_detail":"service","is_bicycle_related":true,"bicycle_shield_text":null,"bicycle_network":"ncn","source":"openstreetmap.org","min_zoom":8.0},"arcs":[[45],[46]]},{"type":"LineString","properties":{"kind":"major_road","network":null,"sort_rank":380,"kind_detail":"primary","source":"openstreetmap.org","min_zoom":8.0,"shield_text":"86","ref":"SH 86"},"arcs":[47]},{"type":"LineString","properties":{"bus_network":"GoBus Dunedin","network":"NZ:SH","sort_rank":381,"kind_detail":"trunk","kind":"major_road","source":"openstreetmap.org","min_zoom":8.0,"bus_shield_text":"6\/40","shield_text":"1","ref":"SH 1"},"arcs":[48]},{"type":"MultiLineString","properties":{"bus_network":"GoBus Dunedin","network":"NZ:SH","sort_rank":381,"landuse_kind":"urban_area","kind":"major_road","source":"openstreetmap.org","min_zoom":8.0,"bus_shield_text":"78\/79","shield_text":"1","kind_detail":"trunk","ref":"SH 1"},"arcs":[[49],[50],[51],[52],[53]]},{"type":"MultiLineString","properties":{"kind":"major_road","sort_rank":377,"kind_detail":"tertiary","is_bicycle_related":true,"bicycle_shield_text":null,"bicycle_network":"ncn","source":"openstreetmap.org","min_zoom":8.0},"arcs":[[54],[55],[56]]},{"type":"LineString","properties":{"kind":"path","sort_rank":354,"kind_detail":"path","is_bicycle_related":true,"bicycle_shield_text":null,"bicycle_network":"ncn","source":"openstreetmap.org","min_zoom":8.0,"old_name":"Otago Central Railway"},"arcs":[57]},{"type":"LineString","properties":{"bus_network":"GoBus","cycleway_left":"lane","network":"NZ:SH","sort_rank":381,"kind_detail":"trunk","is_bicycle_related":true,"kind":"major_road","source":"openstreetmap.org","min_zoom":8.0,"bus_shield_text":"66\/67","shield_text":"1","ref":"SH 1","id":106733489},"arcs":[58]},{"type":"LineString","properties":{"kind":"minor_road","sort_rank":360,"kind_detail":"residential","is_bicycle_related":true,"bicycle_shield_text":null,"bicycle_network":"ncn","source":"openstreetmap.org","min_zoom":8.0},"arcs":[59]},{"type":"MultiLineString","properties":{"bus_network":"GoBus Dunedin","network":"NZ:SH","sort_rank":381,"landuse_kind":"urban_area","kind":"major_road","source":"openstreetmap.org","min_zoom":8.0,"bus_shield_text":"76\/77","shield_text":"1","kind_detail":"trunk","ref":"SH 1"},"arcs":[[60],[61],[62],[63]]},{"type":"LineString","properties":{"source":"openstreetmap.org","kind":"highway","sort_rank":383,"kind_detail":"motorway","ref":"SH 1","min_zoom":8.0,"id":88466347},"arcs":[64]},{"type":"MultiLineString","properties":{"bus_network":"GoBus Dunedin","network":null,"sort_rank":381,"kind_detail":"trunk","kind":"major_road","source":"openstreetmap.org","min_zoom":8.0,"bus_shield_text":"13\/14","shield_text":"88","ref":"SH 88"},"arcs":[[65],[66]]},{"type":"LineString","properties":{"source":"openstreetmap.org","kind":"major_road","sort_rank":380,"kind_detail":"primary","ref":"SH 85","min_zoom":8.0,"id":411543248},"arcs":[67]},{"type":"LineString","properties":{"source":"openstreetmap.org","kind":"major_road","sort_rank":380,"kind_detail":"primary","ref":"SH 86","min_zoom":8.0},"arcs":[68]},{"type":"MultiLineString","properties":{"kind":"major_road","cycleway_left":"lane","network":"NZ:SH","sort_rank":381,"landuse_kind":"urban_area","is_bicycle_related":true,"source":"openstreetmap.org","min_zoom":8.0,"kind_detail":"trunk","shield_text":"1","ref":"SH 1"},"arcs":[[69],[70]]},{"type":"LineString","properties":{"kind":"major_road","network":null,"sort_rank":380,"kind_detail":"primary","source":"openstreetmap.org","min_zoom":8.0,"shield_text":"85","ref":"SH 85"},"arcs":[71]},{"type":"LineString","properties":{"kind":"path","sort_rank":354,"kind_detail":"cycleway","is_bicycle_related":true,"bicycle_shield_text":null,"bicycle_network":"ncn","source":"openstreetmap.org","min_zoom":8.0,"id":243664879},"arcs":[72]},{"type":"MultiLineString","properties":{"kind":"major_road","cycleway_left":"lane","network":"NZ:SH","sort_rank":381,"kind_detail":"trunk","is_bicycle_related":true,"bus_network":"GoBus Dunedin","source":"openstreetmap.org","min_zoom":8.0,"bus_shield_text":"4\/24","shield_text":"1","ref":"SH 1"},"arcs":[[73],[74]]},{"type":"LineString","properties":{"kind":"major_road","cycleway_left":"lane","network":"NZ:SH","sort_rank":381,"kind_detail":"trunk","is_bicycle_related":true,"bus_network":"GoBus Dunedin","source":"openstreetmap.org","min_zoom":8.0,"bus_shield_text":"6\/40","shield_text":"1","ref":"SH 1"},"arcs":[75]},{"type":"LineString","properties":{"kind":"major_road","network":"NZ:SH","sort_rank":381,"kind_detail":"trunk","is_bicycle_related":true,"bicycle_shield_text":null,"bicycle_network":"lcn","source":"openstreetmap.org","min_zoom":8.0,"shield_text":"1","ref":"SH 1","id":20360945},"arcs":[76]},{"type":"LineString","properties":{"kind":"major_road","network":"NZ:SH","sort_rank":381,"kind_detail":"trunk","bus_network":"GoBus Dunedin","source":"openstreetmap.org","min_zoom":8.0,"bus_shield_text":"6\/40","shield_text":"1","landuse_kind":"urban_area","ref":"SH 1","id":115254306},"arcs":[77]},{"type":"LineString","properties":{"kind":"major_road","network":null,"sort_rank":381,"kind_detail":"trunk","source":"openstreetmap.org","min_zoom":8.0,"landuse_kind":"urban_area","shield_text":"88","ref":"SH 88","id":88482313},"arcs":[78]},{"type":"MultiLineString","properties":{"bus_network":"GoBus","cycleway_left":"lane","network":"NZ:SH","sort_rank":381,"kind_detail":"trunk","is_bicycle_related":true,"kind":"major_road","source":"openstreetmap.org","min_zoom":8.0,"bus_shield_text":"17\/18","shield_text":"1","ref":"SH 1"},"arcs":[[79],[80]]},{"type":"LineString","properties":{"kind":"minor_road","sort_rank":360,"kind_detail":"unclassified","is_bicycle_related":true,"bicycle_shield_text":null,"bicycle_network":"ncn","source":"openstreetmap.org","min_zoom":8.0},"arcs":[81]},{"type":"LineString","properties":{"kind":"major_road","network":null,"sort_rank":381,"kind_detail":"trunk","bus_network":"GoBus Dunedin","source":"openstreetmap.org","min_zoom":8.0,"bus_shield_text":"13\/14","shield_text":"88","id":116455639},"arcs":[82]},{"type":"LineString","properties":{"kind":"major_road","sort_rank":381,"kind_detail":"trunk","bus_network":"GoBus Dunedin","source":"openstreetmap.org","min_zoom":8.0,"bus_shield_text":"78\/79","landuse_kind":"urban_area","id":383830726},"arcs":[83]},{"type":"LineString","properties":{"bus_network":"GoBus Dunedin","sort_rank":380,"kind_detail":"primary","is_bicycle_related":true,"kind":"major_road","bicycle_shield_text":null,"bicycle_network":"lcn","source":"openstreetmap.org","min_zoom":8.0,"bus_shield_text":"76\/77"},"arcs":[84]},{"type":"MultiLineString","properties":{"bus_network":"GoBus","cycleway_left":"lane","network":"NZ:SH","sort_rank":381,"landuse_kind":"urban_area","is_bicycle_related":true,"kind":"major_road","source":"openstreetmap.org","min_zoom":8.0,"bus_shield_text":"17\/18","shield_text":"1","kind_detail":"trunk","ref":"SH 1"},"arcs":[[85],[86],[87]]},{"type":"MultiLineString","properties":{"kind":"highway","network":"NZ:SH","sort_rank":383,"landuse_kind":"urban_area","source":"openstreetmap.org","min_zoom":8.0,"all_networks":["NZ:SH"],"kind_detail":"motorway","shield_text":"1","ref":"SH 1","all_shield_texts":["1"]},"arcs":[[88],[89]]},{"type":"LineString","properties":{"kind":"major_road","network":"NZ:SH","sort_rank":381,"kind_detail":"trunk","bus_network":"GoBus Dunedin","source":"openstreetmap.org","min_zoom":8.0,"bus_shield_text":"4\/24","shield_text":"1","ref":"SH 1","id":106733503},"arcs":[90]},{"type":"LineString","properties":{"kind":"major_road","network":"NZ:SH","sort_rank":381,"kind_detail":"trunk","source":"openstreetmap.org","min_zoom":8.0,"landuse_kind":"urban_area","shield_text":"1","ref":"SH 1","id":260576704},"arcs":[91]},{"type":"LineString","properties":{"kind":"major_road","network":"NZ:SH","sort_rank":381,"kind_detail":"trunk","is_bicycle_related":true,"bicycle_shield_text":null,"bicycle_network":"ncn","source":"openstreetmap.org","min_zoom":8.0,"shield_text":"1","ref":"SH 1"},"arcs":[92]}]},"earth":{"type":"GeometryCollection","geometries":[{"type":"Polygon","properties":{"sort_rank":10,"source":"naturalearthdata.com","kind":"earth","min_zoom":0.0,"id":1019},"arcs":[[93]]}]},"landuse":{"type":"GeometryCollection","geometries":[{"type":"Polygon","properties":{"source":"naturalearthdata.com","kind":"urban_area","name":"","area":42805764,"sort_rank":11,"min_zoom":4.0,"id":11819},"arcs":[[94]]}]}},"type":"Topology","transform":{"translate":[170.15625,-46.0732306254],"scale":[0.0003433228,0.000240282]},"arcs":[[[1947,0],[195,103],[179,146],[162,232],[77,288],[0,471],[-48,215],[-90,198],[58,167],[129,131],[98,156],[78,281],[79,184],[37,366],[-37,239],[100,169],[139,167],[87,182],[184,208],[123,193]],[[1948,0],[220,119],[206,189],[134,231],[54,261],[-4,455],[-55,228],[-81,170],[58,167],[129,131],[98,156],[78,281],[79,184],[37,366],[-37,239],[100,169],[139,167],[87,182],[184,208],[123,193]],[[0,1919],[25,-2],[121,-97],[150,-7],[125,-142],[13,-134],[53,-40],[46,29],[38,-56],[-8,-37],[26,-14],[-38,-106],[-59,-91],[-45,-22],[15,-40],[97,-62],[-43,-96],[81,-30],[64,-155],[121,-95],[66,-8],[143,37],[37,73]],[[293,0],[9,40],[46,97],[169,245],[216,159],[249,84],[603,63],[6,23],[0,29],[15,27],[30,24],[12,7],[59,-5],[63,6],[43,21],[25,55],[10,227],[-11,65],[-30,53],[-31,-58],[-33,-20],[-37,-9],[-40,-27],[-35,-50],[-44,-95],[-41,-39],[-131,-51],[-89,-78],[-105,-28],[-54,-28],[28,71],[108,72],[37,106],[29,15],[33,7],[25,10],[22,26],[56,90],[58,31],[142,29],[51,40],[-1,55],[-59,43],[-77,41],[-53,46],[-39,-48],[-37,6],[-39,25],[-44,17],[-26,1],[-12,9],[-3,22],[0,40],[4,36],[14,2],[19,-6],[24,9],[60,52],[37,24],[32,9],[23,22],[69,152],[-66,9],[-43,40],[-2,43],[59,21],[105,-3],[37,16],[49,46],[-26,81],[-10,42],[-4,45],[50,-38],[40,-5],[35,25],[34,49],[-21,103],[61,64],[81,56],[40,75],[-7,54],[-11,45],[0,46],[27,56],[109,129],[5,96],[-50,48],[-41,51],[35,106],[39,87],[69,296],[158,348],[262,274],[1434,0],[0,-4096],[-3803,0]],[[293,0],[9,40],[46,97],[169,245],[216,159],[249,84],[603,63],[6,23],[0,29],[15,27],[30,24],[12,7],[59,-5],[63,6],[43,21],[25,55],[10,227],[-11,65],[-30,53],[-31,-58],[-33,-20],[-37,-9],[-40,-27],[-35,-50],[-44,-95],[-41,-39],[-131,-51],[-89,-78],[-105,-28],[-54,-28],[28,71],[108,72],[37,106],[29,15],[33,7],[25,10],[22,26],[56,90],[58,31],[142,29],[51,40],[-1,55],[-59,43],[-77,41],[-53,46],[-39,-48],[-37,6],[-39,25],[-44,17],[-26,1],[-12,9],[-3,22],[0,40],[4,36],[14,2],[19,-6],[24,9],[60,52],[37,24],[32,9],[23,22],[69,152],[-66,9],[-43,40],[-2,43],[59,21],[105,-3],[37,16],[49,46],[-26,81],[-10,42],[-4,45],[50,-38],[40,-5],[35,25],[34,49],[-21,103],[61,64],[81,56],[40,75],[-7,54],[-11,45],[0,46],[27,56],[109,129],[5,96],[-50,48],[-41,51],[35,106],[39,87],[69,296],[158,348],[262,274]],[[639,717],[7,-1]],[[650,716],[-4,0]],[[650,716],[20,4]],[[869,722],[1,-1]],[[1045,840],[2,4]],[[584,759],[-1,-1],[0,1],[1,0]],[[557,830],[26,-70]],[[583,759],[0,1]],[[583,760],[0,-1]],[[155,652],[130,38],[11,-16]],[[1046,902],[3,3]],[[557,830],[-24,50],[-135,35],[-100,-18],[-57,22],[-38,-23],[-84,40],[2,32],[-35,33],[8,33],[-94,51]],[[0,2712],[70,85],[77,17],[-7,35],[103,157],[52,207],[-10,85],[43,17],[3,97],[-60,54],[44,112],[-48,54],[47,211]],[[0,3721],[7,-10],[89,-44],[21,37],[13,-48],[182,-73],[-29,-61],[29,-65],[34,-7],[-17,-64],[32,-86],[-7,-64],[-56,-7],[-22,-31]],[[260,3179],[-26,-165]],[[274,3197],[-10,-10]],[[276,3198],[-2,-1]],[[893,734],[-4,-3]],[[2321,4066],[35,-13]],[[2359,4054],[6,-2]],[[560,745],[-225,-88],[-335,-252]],[[1027,923],[17,54],[-30,22],[24,25],[15,121],[100,53],[49,161]],[[1049,907],[-1,1]],[[1049,905],[0,2]],[[1049,907],[0,-3]],[[1202,1489],[15,196],[69,141],[124,72],[140,147],[47,159],[-21,65],[12,145],[64,54],[120,1],[33,44],[94,40],[30,150],[60,109],[-32,55],[-34,302],[-57,229],[-46,71],[8,66],[92,107],[139,260],[228,143],[69,8]],[[2372,4060],[-13,-6]],[[2386,4096],[-14,-36]],[[2372,4060],[14,36]],[[1029,861],[9,23]],[[967,752],[2,1]],[[1026,835],[14,3]],[[1082,847],[-31,-2]],[[1002,779],[-1,-5]],[[560,745],[22,17],[167,-53],[28,3],[1,0]],[[778,712],[66,1],[39,17]],[[883,730],[2,1]],[[886,731],[-3,-1]],[[883,730],[-67,-12],[-26,-2],[-12,-4]],[[778,712],[-1,-1],[-28,-3],[-104,8],[-50,34],[-3,6]],[[264,3187],[-4,-8]],[[2370,4039],[0,-7]],[[311,642],[-15,32]],[[1048,908],[-21,15]],[[894,735],[21,5]],[[921,739],[-3,0]],[[919,740],[48,12]],[[1001,774],[1,-5],[-14,-14],[-47,-13]],[[969,753],[32,16]],[[2321,4066],[-44,2]],[[2370,4050],[-3,-8]],[[2371,4041],[-5,1],[3,8]],[[234,3014],[-57,-113],[-32,-11],[-145,-321]],[[1043,882],[-10,-23]],[[2371,4041],[-1,-2]],[[891,734],[3,1]],[[915,740],[4,0]],[[941,742],[-9,-2]],[[1001,769],[0,3]],[[592,756],[-10,6]],[[1051,845],[-11,-7]],[[1358,1075],[-84,-52],[-74,-141],[-117,-34]],[[1627,2448],[0,2]],[[308,639],[4,3]],[[998,782],[13,31]],[[1015,811],[-12,-31]],[[0,3954],[145,23],[165,-132],[238,53],[48,-56],[16,-67],[117,-63],[55,-64],[-25,-53],[63,-119],[118,-80],[14,-65],[61,18],[34,-20],[24,-70],[79,-46],[16,-53],[141,-78],[101,-288],[217,-346]],[[2250,4096],[27,-28]],[[1038,884],[6,15]],[[1048,897],[-5,-15]],[[1044,899],[4,5]],[[1202,1359],[0,130]],[[932,740],[-11,-1]],[[1024,836],[2,-1]],[[1025,838],[4,23]],[[1033,859],[-6,-29]],[[2370,4050],[-4,2]],[[1083,848],[0,-1],[-1,0],[0,1],[1,0]],[[918,739],[-25,-5]],[[670,720],[51,13],[57,-23]],[[1001,772],[-3,10]],[[1011,813],[14,25]],[[1027,830],[-12,-19]],[[885,731],[6,3]],[[889,731],[-3,0]],[[1049,904],[-1,-7]],[[1003,780],[-1,-1]],[[2359,4054],[-3,-1]],[[2662,4096],[-262,-274],[-158,-348],[-69,-296],[-39,-87],[-35,-106],[41,-51],[50,-48],[-5,-96],[-109,-129],[-27,-56],[0,-46],[11,-45],[7,-54],[-40,-75],[-81,-56],[-61,-64],[21,-103],[-34,-49],[-35,-25],[-40,5],[-50,38],[4,-45],[10,-42],[26,-81],[-49,-46],[-37,-16],[-105,3],[-59,-21],[2,-43],[43,-40],[66,-9],[-69,-152],[-23,-22],[-32,-9],[-37,-24],[-60,-52],[-24,-9],[-19,6],[-14,-2],[-4,-36],[0,-40],[3,-22],[12,-9],[26,-1],[44,-17],[39,-25],[37,-6],[39,48],[53,-46],[77,-41],[59,-43],[1,-55],[-51,-40],[-142,-29],[-58,-31],[-56,-90],[-22,-26],[-25,-10],[-33,-7],[-29,-15],[-37,-106],[-108,-72],[-28,-71],[54,28],[105,28],[89,78],[131,51],[41,39],[44,95],[35,50],[40,27],[37,9],[33,20],[31,58],[30,-53],[11,-65],[-10,-227],[-25,-55],[-43,-21],[-63,-6],[-59,5],[-12,-7],[-30,-24],[-15,-27],[0,-29],[-6,-23],[-603,-63],[-249,-84],[-216,-159],[-169,-245],[-46,-97],[-9,-40],[-293,0],[0,4096],[2662,0]],[[977,689],[-110,51],[65,185],[47,0],[35,-40],[18,-78],[-3,-114],[-52,-4]]]}