{"objects":{"water":{"type":"GeometryCollection","geometries":[{"type":"MultiPolygon","properties":{"source":"naturalearthdata.com","kind":"ocean","area":1576712559132672,"sort_rank":200,"min_zoom":0.0,"id":1},"arcs":[[[12]],[[13]]]},{"type":"MultiLineString","properties":{"source":"naturalearthdata.com","kind":"ocean","sort_rank":205,"boundary":true,"min_zoom":0.0,"id":56},"arcs":[[14],[15]]},{"type":"LineString","properties":{"source":"naturalearthdata.com","kind":"ocean","sort_rank":205,"boundary":true,"min_zoom":0.0,"id":1407},"arcs":[16]}]},"buildings":{"type":"GeometryCollection","geometries":[]},"places":{"type":"GeometryCollection","geometries":[{"type":"Point","properties":{"source":"openstreetmap.org","kind":"region","name":"Western Area Rural District","kind_detail":"state","min_zoom":4.0,"id":2992144246},"coordinates":[2839,3803]}]},"transit":{"type":"GeometryCollection","geometries":[]},"pois":{"type":"GeometryCollection","geometries":[]},"boundaries":{"type":"GeometryCollection","geometries":[{"type":"LineString","properties":{"name:kg":"Siera Leone","name:pt":"Serra Leoa","name:ps":"\u0633\u06d0\u0631\u0627\u0644\u06cc\u0648\u0646","name:ka":"\u10e1\u10d8\u10d4\u10e0\u10d0-\u10da\u10d4\u10dd\u10dc\u10d4","name:ko":"\uc2dc\uc5d0\ub77c\ub9ac\uc628","name:kn":"\u0cb8\u0cbf\u0caf\u0cc6\u0cb0\u0ccd\u0cb0\u0cbe \u0cb2\u0cbf\u0caf\u0ccb\u0ca8\u0ccd","name:kk":"\u0421\u0438\u0435\u0440\u0440\u0430-\u041b\u0435\u043e\u043d\u0435","name:kw":"Sierra Leon","name:tk":"S\u00fderra-Leone","name:th":"\u0e1b\u0e23\u0e30\u0e40\u0e17\u0e28\u0e40\u0e0b\u0e35\u0e22\u0e23\u0e4c\u0e23\u0e32\u0e25\u0e35\u0e42\u0e2d\u0e19","name:tl":"Bulubunduking Leona","name:pa":"\u0a38\u0a3f\u0a0f\u0a30\u0a3e \u0a32\u0a3f\u0a13\u0a28","name:os":"\u0421\u044c\u0435\u0440\u0440\u00e6-\u041b\u0435\u043e\u043d\u0435","name:or":"\u0b38\u0b3f\u0b0f\u0b30\u0b3e \u0b32\u0b3f\u0b13\u0b28","name:ce":"\u0421\u044c\u0435\u0440\u0440\u0430-\u041b\u0435\u043e\u043d\u0435","name:ta":"\u0b9a\u0bbf\u0baf\u0bc7\u0bb0\u0bbe \u0bb2\u0bbf\u0baf\u0bcb\u0ba9\u0bbf","name:tg":"\u0421\u0438\u0435\u0440\u0440\u0430 \u041b\u0435\u043e\u043d\u0435","sort_rank":262,"name:hr":"Sijera Leone","name:ba":"\u0421\u044c\u0435\u0440\u0440\u0430-\u041b\u0435\u043e\u043d\u0435","source":"openstreetmap.org","name:nv":"N\u00e1shd\u00f3\u00edtsoh Bitsiij\u012f\u02bc Dadit\u0142\u02bcoo\u02bc\u00edg\u00ed\u00ed Bidzi\u0142","name:ts":"Siyera Liyona","name:dv":"\u0790\u07ac\u0783\u07ac\u078d\u07a8\u0787\u07af\u0782\u07b0","name:lv":"Sjerraleone","name:lt":"Siera Leon\u0117","name:uz":"Syerra Leone","name:he":"\u05e1\u05d9\u05d9\u05e8\u05d4 \u05dc\u05d0\u05d5\u05e0\u05d4","name:eo":"Siera-Leono","name:ur":"\u0633\u06cc\u0631\u0627\u0644\u06cc\u0648\u0646","name:la":"Mons Leoninus","name:uk":"\u0421\u044c\u0454\u0440\u0440\u0430-\u041b\u0435\u043e\u043d\u0435","name:hy":"\u054d\u056b\u0565\u0580\u0561 \u053c\u0565\u0578\u0576\u0565","name:ug":"\u0633\u064a\u06d0\u0631\u0631\u0627 \u0644\u06d0\u0626\u0648\u0646\u06d0","name:qu":"Liyun Urqu","name:el":"\u03a3\u03b9\u03ad\u03c1\u03b1 \u039b\u03b5\u03cc\u03bd\u03b5","kind":"country","name":"Sierra Leone","name:gd":"Siarra Le\u00f2mhann","min_zoom":8.0,"name:eu":"Sierra Leona","name:es":"Sierra Leona","alt_name:eo":"Sieraleono","name:az":"Syerra-Leone","name:mr":"\u0938\u093f\u092f\u0947\u0930\u093e \u0932\u093f\u0913\u0928","name:ar":"\u0633\u064a\u0631\u0627\u0644\u064a\u0648\u0646","name:my":"\u1006\u102e\u101b\u102c\u101c\u102e\u101a\u103d\u1014\u103a\u1014\u102d\u102f\u1004\u103a\u1004\u1036","name:is":"S\u00ederra Le\u00f3ne","name:am":"\u1234\u12e8\u122b \u120c\u12ce\u1295","name:ru":"\u0421\u044c\u0435\u0440\u0440\u0430-\u041b\u0435\u043e\u043d\u0435","name:ml":"\u0d38\u0d40\u0d31\u0d3e \u0d32\u0d3f\u0d2f\u0d4b\u0d7a","name:rw":"Siyera Lewone","id":-192777,"name:mk":"\u0421\u0438\u0435\u0440\u0430 \u041b\u0435\u043e\u043d\u0435","name:vo":"Sieraleon\u00e4n","name:zu":"ISiera Liyoni","name:mn":"\u0421\u044c\u0435\u0440\u0440\u0430-\u041b\u0435\u043e\u043d\u0435","name:ss":"ISiriya-Liyoni","name:ff":"Sarliyon","kind_detail":"2","name:hi":"\u0938\u093f\u090f\u0930\u093e \u0932\u093f\u092f\u094b\u0928","name:fo":"Sierra Leona","name:zh-yue":"\u585e\u62c9\u5229\u6602","name:fy":"Sierra Le\u00f6ane","name:zh":"\u585e\u62c9\u5229\u6602","name:ja":"\u30b7\u30a8\u30e9\u30ec\u30aa\u30cd","name:si":"\u0dc3\u0dd2\u0dba\u0dd9\u0dbb\u0dcf \u0dbd\u0dd2\u0dba\u0ddd\u0db1\u0dca","name:sh":"Sijera Leone","name:sg":"Sier\u00e4-Le\u00f4ne","name:sa":"\u0938\u093f\u092f\u093e\u0930\u093e-\u0932\u093f\u092f\u094b\u0928","name:bs":"Sijera Leone","name:yi":"\u05e1\u05d9\u05e2\u05e8\u05e2 \u05dc\u05e2\u05d0\u05e0\u05e2","name:bn":"\u09b8\u09bf\u09af\u09bc\u09c7\u09b0\u09be \u09b2\u09bf\u0993\u09a8","name:bo":"\u0f66\u0f72\u0f0b\u0f62\u0f0b\u0f63\u0f7a\u0f0b\u0f68\u0f7c\u0f53\u0f0d","name:be":"\u0421\u044c\u0435\u0440\u0430-\u041b\u0435\u043e\u043d\u044d","name:bg":"\u0421\u0438\u0435\u0440\u0430 \u041b\u0435\u043e\u043d\u0435","name:wo":"Siraa Leyoon","name:sr":"\u0421\u0438\u0458\u0435\u0440\u0430 \u041b\u0435\u043e\u043d\u0435","osm_relation":true,"name:sq":"Siera Leone","name:ga":"Siarra Leon","name:bm":"Sera Leon","name:ht":"Syera Le\u00f2n","name:gl":"Serra Leoa","name:fa":"\u0633\u06cc\u0631\u0627\u0644\u0626\u0648\u0646","maritime_boundary":true,"name:yo":"Si\u1eb9rra L\u00e9\u00f2n\u00e8"},"arcs":[0]},{"type":"LineString","properties":{"id:left":-3242455,"name:right:ru":"\u042e\u0436\u043d\u0430\u044f \u043f\u0440\u043e\u0432\u0438\u043d\u0446\u0438\u044f","name:right:lt":"Piet\u0173 provincija","min_zoom":8.0,"id:right":-3230990,"id":-3242455,"osm_relation":true,"name:right":"Southern Province","kind":"region","name":"Western Area - Southern Province","sort_rank":256,"kind_detail":"4","name:left:de":"Westliches Gebiet","source":"openstreetmap.org","name:right:de":"S\u00fcdliche Provinz","name:left":"Western Area"},"arcs":[1]},{"type":"LineString","properties":{"name:left":"Western Area","kind":"region","name":"Western Area - Northern Province","sort_rank":256,"kind_detail":"4","id:left":-3242455,"name:left:de":"Westliches Gebiet","name:right:ru":"\u0421\u0435\u0432\u0435\u0440\u043d\u0430\u044f \u043f\u0440\u043e\u0432\u0438\u043d\u0446\u0438\u044f","source":"openstreetmap.org","min_zoom":8.0,"name:right:de":"N\u00f6rdliche Provinz","id:right":-3230989,"id":-3242455,"osm_relation":true,"name:right":"Northern Province"},"arcs":[2]},{"type":"MultiLineString","properties":{"kind":"region","name":"Western Area","sort_rank":256,"kind_detail":"4","name:de":"Westliches Gebiet","source":"openstreetmap.org","min_zoom":8.0,"id":-3242455,"osm_relation":true},"arcs":[[3],[4]]},{"type":"MultiLineString","properties":{"kind":"region","name":"Western Area","sort_rank":256,"kind_detail":"4","min_zoom":8.0,"name:de":"Westliches Gebiet","source":"openstreetmap.org","maritime_boundary":true,"id":-3242455,"osm_relation":true},"arcs":[[5],[6]]},{"type":"LineString","properties":{"id:left":-3230990,"name:right:ru":"\u0421\u0435\u0432\u0435\u0440\u043d\u0430\u044f \u043f\u0440\u043e\u0432\u0438\u043d\u0446\u0438\u044f","min_zoom":8.0,"name:left:lt":"Piet\u0173 provincija","name:left:ru":"\u042e\u0436\u043d\u0430\u044f \u043f\u0440\u043e\u0432\u0438\u043d\u0446\u0438\u044f","id:right":-3230989,"id":-3230990,"osm_relation":true,"name:right":"Northern Province","kind":"region","name":"Southern Province - Northern Province","sort_rank":256,"kind_detail":"4","name:left:de":"S\u00fcdliche Provinz","source":"openstreetmap.org","name:right:de":"N\u00f6rdliche Provinz","name:left":"Southern Province"},"arcs":[7]},{"type":"LineString","properties":{"kind":"region","name":"Southern Province","name:lt":"Piet\u0173 provincija","sort_rank":256,"kind_detail":"4","name:de":"S\u00fcdliche Provinz","source":"openstreetmap.org","min_zoom":8.0,"name:ru":"\u042e\u0436\u043d\u0430\u044f \u043f\u0440\u043e\u0432\u0438\u043d\u0446\u0438\u044f","id":-3230990,"osm_relation":true},"arcs":[8]},{"type":"LineString","properties":{"kind":"region","name":"Southern Province","name:lt":"Piet\u0173 provincija","sort_rank":256,"kind_detail":"4","min_zoom":8.0,"name:de":"S\u00fcdliche Provinz","source":"openstreetmap.org","maritime_boundary":true,"name:ru":"\u042e\u0436\u043d\u0430\u044f \u043f\u0440\u043e\u0432\u0438\u043d\u0446\u0438\u044f","id":-3230990,"osm_relation":true},"arcs":[9]},{"type":"LineString","properties":{"kind":"region","name":"Northern Province","sort_rank":256,"kind_detail":"4","name:de":"N\u00f6rdliche Provinz","source":"openstreetmap.org","min_zoom":8.0,"name:ru":"\u0421\u0435\u0432\u0435\u0440\u043d\u0430\u044f \u043f\u0440\u043e\u0432\u0438\u043d\u0446\u0438\u044f","id":-3230989,"osm_relation":true},"arcs":[10]},{"type":"LineString","properties":{"kind":"region","name":"Northern Province","sort_rank":256,"kind_detail":"4","min_zoom":8.0,"name:de":"N\u00f6rdliche Provinz","source":"openstreetmap.org","maritime_boundary":true,"name:ru":"\u0421\u0435\u0432\u0435\u0440\u043d\u0430\u044f \u043f\u0440\u043e\u0432\u0438\u043d\u0446\u0438\u044f","id":-3230989,"osm_relation":true},"arcs":[11]}]},"roads":{"type":"GeometryCollection","geometries":[{"type":"MultiLineString","properties":{"sort_rank":380,"kind_detail":"primary","min_zoom":8.0,"kind":"major_road","source":"openstreetmap.org"},"arcs":[[17],[18],[19],[20],[21],[22],[23],[24],[25],[26],[27],[28]]},{"type":"MultiLineString","properties":{"source":"openstreetmap.org","kind":"major_road","landuse_kind":"residential","sort_rank":380,"kind_detail":"primary","min_zoom":8.0},"arcs":[[29],[30],[31],[32],[33],[34],[35]]},{"type":"MultiLineString","properties":{"sort_rank":381,"source":"openstreetmap.org","min_zoom":8.0,"kind":"major_road","kind_detail":"trunk"},"arcs":[[36],[37],[38],[39],[40]]},{"type":"MultiLineString","properties":{"source":"openstreetmap.org","kind":"major_road","landuse_kind":"residential","sort_rank":381,"kind_detail":"trunk","min_zoom":8.0},"arcs":[[41],[42],[43],[44],[45]]}]},"earth":{"type":"GeometryCollection","geometries":[{"type":"MultiPolygon","properties":{"sort_rank":10,"source":"naturalearthdata.com","min_zoom":0.0,"kind":"earth","area":24797893347},"arcs":[[[46]],[[47]]]}]},"landuse":{"type":"GeometryCollection","geometries":[{"type":"Polygon","properties":{"source":"openstreetmap.org","kind":"residential","area":28001900,"tier":2,"id":298900939,"min_zoom":8.0,"sort_rank":20},"arcs":[[48]]},{"type":"MultiPolygon","properties":{"source":"openstreetmap.org","kind":"residential","tier":2,"area":27945014,"sort_rank":20,"min_zoom":8.0,"osm_relation":true},"arcs":[[[49]],[[50]]]}]}},"type":"Topology","transform":{"translate":[-14.0625,7.0136679276],"scale":[0.0003433228,0.00034021]},"arcs":[[[1653,4096],[67,-230],[212,-291],[-99,-147],[-51,-182],[8,-188],[63,-171],[111,-141],[152,-103],[167,-50],[197,0],[46,-191],[-102,-100],[-76,-120],[-44,-135],[-11,-135],[45,-324],[77,-156],[109,-126],[431,-241],[134,-29],[149,3],[559,-159],[133,-215],[166,-110]],[[3128,3596],[49,84],[48,-48],[59,41]],[[3284,3673],[62,96],[-77,188],[34,46],[-105,44],[-48,-29],[-39,16],[-53,-30],[-26,21],[-11,-26],[-46,5]],[[2975,4004],[-13,2]],[[3116,3598],[12,-2]],[[2302,4096],[112,-182],[86,-35],[58,-146],[71,7],[-33,-18],[-11,-60],[56,-132],[-14,-133],[277,202],[212,-1]],[[2962,4006],[-86,9],[-45,81]],[[4096,3999],[-38,4],[-16,-33],[-131,11],[5,-43],[-38,-18],[-66,13],[-105,121],[-53,-16],[-22,28],[-43,-4],[17,-61],[-45,-9],[6,-40],[-51,-26],[22,-44],[-47,-4],[-5,-85],[-55,20],[-25,-67],[29,-28],[-64,-6],[-25,-41],[-62,2]],[[3128,3596],[4,-13]],[[3132,3583],[-14,-73],[145,-149],[85,-186],[54,-39],[-30,-124],[79,-243],[-159,-101],[-83,-13],[93,-127],[84,-27],[85,-117],[95,-64],[88,-41],[39,29],[23,-110],[63,-46],[16,-2],[3,6],[15,6],[5,-5],[4,9],[6,1],[-16,-25],[131,-120],[77,38],[76,-35]],[[2965,4010],[10,-6]],[[2867,4096],[37,-74],[61,-12]],[[2901,4096],[8,-24],[22,-23],[30,-15],[36,-7],[0,-21],[-26,-3],[-52,-8],[-74,52],[-52,49],[108,0]],[[4096,1404],[0,-1404],[-4096,0],[0,4096],[2320,0],[7,-16],[21,-13],[74,-98],[15,-32],[6,-22],[13,-6],[14,-1],[6,-11],[6,-1],[101,-163],[34,-27],[-14,-34],[2,-36],[12,-62],[7,-125],[-7,-46],[18,0],[44,54],[72,56],[80,46],[67,26],[128,20],[24,-1],[14,-3],[12,0],[20,4],[22,11],[15,13],[17,11],[26,5],[-19,-34],[-13,-36],[-6,-39],[-2,-42],[14,-47],[33,-25],[39,-17],[33,-22],[45,-74],[23,-57],[40,-37],[93,-13],[-30,-31],[-26,-38],[-18,-41],[-7,-41],[-18,-39],[-5,-23],[13,-10],[6,-9],[49,-143],[63,-59],[74,-51],[58,-61],[-96,42],[-49,15],[-45,6],[-55,-13],[-99,-56],[-57,-12],[62,-73],[38,-33],[32,-14],[44,-14],[27,-32],[39,-76],[138,-90],[148,61],[52,9],[-51,-25],[-29,-26],[-9,-36],[10,-54],[26,-54],[36,-27],[42,-19],[116,-82],[30,-12],[19,-3],[18,0],[94,-18],[0,-188],[-73,-7],[-109,-28],[-49,-7],[-318,0],[-112,-18],[-43,-17],[-36,-37],[-12,-40],[-108,-27],[0,-22],[298,-80],[247,-37],[95,-49],[220,-59]],[[2901,4096],[8,-24],[22,-23],[30,-15],[36,-7],[0,-21],[-26,-3],[-52,-8],[-74,52],[-52,49]],[[2320,4096],[7,-16],[21,-13],[74,-98],[15,-32],[6,-22],[13,-6],[14,-1],[6,-11],[6,-1],[101,-163],[34,-27],[-14,-34],[2,-36],[12,-62],[7,-125],[-7,-46],[18,0],[44,54],[72,56],[80,46],[67,26],[128,20],[24,-1],[14,-3],[12,0],[20,4],[22,11],[15,13],[17,11],[26,5],[-19,-34],[-13,-36],[-6,-39],[-2,-42],[14,-47],[33,-25],[39,-17],[33,-22],[45,-74],[23,-57],[40,-37],[93,-13],[-30,-31],[-26,-38],[-18,-41],[-7,-41],[-18,-39],[-5,-23],[13,-10],[6,-9],[49,-143],[63,-59],[74,-51],[58,-61],[-96,42],[-49,15],[-45,6],[-55,-13],[-99,-56],[-57,-12],[62,-73],[38,-33],[32,-14],[44,-14],[27,-32],[39,-76],[138,-90],[148,61],[52,9],[-51,-25],[-29,-26],[-9,-36],[10,-54],[26,-54],[36,-27],[42,-19],[116,-82],[30,-12],[19,-3],[18,0],[94,-18]],[[4096,1832],[-73,-7],[-109,-28],[-49,-7],[-318,0],[-112,-18],[-43,-17],[-36,-37],[-12,-40],[-108,-27],[0,-22],[298,-80],[247,-37],[95,-49],[220,-59]],[[2330,4080],[0,-1]],[[2330,4079],[1,0]],[[2334,4096],[-2,-7]],[[2332,4089],[2,7]],[[2366,4033],[12,-7]],[[2378,4026],[49,-96],[0,-1]],[[2427,3929],[53,-30]],[[2480,3899],[-53,30]],[[2427,3929],[-8,50],[0,1],[-41,46]],[[2881,3817],[-18,-100],[-24,-17],[14,-61],[-18,-66],[-64,-74],[-43,-6],[-66,76],[-35,94],[12,80],[-66,1],[-35,111],[33,16],[-21,42],[-70,-14]],[[2587,4096],[59,-60],[29,20]],[[2891,3869],[-1,-2]],[[2330,4079],[-2,-10],[38,-36]],[[2332,4089],[-2,-9]],[[2366,4033],[-36,46]],[[2331,4079],[1,10]],[[2366,4033]],[[2890,3867],[-9,-50]],[[2891,3871],[0,-2]],[[2677,4082],[-2,-26],[58,-23]],[[2781,4014],[5,-2]],[[2866,3911],[4,-5]],[[2891,3871],[1,-2]],[[2988,3885],[138,18],[78,69],[21,56],[100,68]],[[2681,4096],[-4,-14]],[[2733,4033],[48,-19]],[[2786,4012],[80,-101]],[[2870,3906],[21,-35]],[[2892,3869],[96,16]],[[4096,4096],[0,-2076],[-94,18],[-18,0],[-19,3],[-30,12],[-116,82],[-42,19],[-36,27],[-26,54],[-8,42],[-2,12],[9,36],[29,26],[51,25],[-52,-9],[-148,-61],[-138,90],[-39,76],[-27,32],[-44,14],[-32,14],[-38,33],[-62,73],[57,12],[99,56],[55,13],[45,-6],[49,-15],[96,-42],[-58,61],[-74,51],[-63,59],[-49,143],[-6,9],[-13,10],[5,23],[18,39],[7,41],[18,41],[26,38],[30,31],[-93,13],[-40,37],[-23,57],[-45,74],[-33,22],[-39,17],[-33,25],[-14,47],[2,42],[6,39],[13,36],[19,34],[-26,-5],[-17,-11],[-15,-13],[-22,-11],[-20,-4],[-12,0],[-14,3],[-24,1],[-128,-20],[-67,-26],[-80,-46],[-72,-56],[-44,-54],[-18,0],[7,46],[-7,125],[-12,62],[-2,36],[14,34],[-34,27],[-101,163],[-6,1],[-6,11],[-14,1],[-13,6],[-6,22],[-15,32],[-74,98],[-21,13],[-7,16],[473,0],[52,-49],[74,-52],[52,8],[26,3],[0,21],[-36,7],[-30,15],[-22,23],[-8,24],[1195,0]],[[4096,1832],[0,-428],[-220,59],[-95,49],[-247,37],[-298,80],[0,22],[108,27],[12,40],[36,37],[43,17],[112,18],[318,0],[49,7],[109,28],[73,7]],[[2732,4035],[13,15],[14,-15],[9,23],[28,-36],[6,40],[39,10],[-32,-62],[27,3],[21,-45],[33,19],[8,-34],[-31,-7],[32,-36],[-9,-43],[30,29],[10,-14],[10,-5],[-12,25],[22,27],[20,-26],[17,12],[3,-67],[-33,26],[14,-51],[-20,-6],[-1,33],[-10,9],[14,-59],[-31,11],[-2,47],[-3,-47],[-30,29],[-8,-28],[-33,70],[24,25],[-93,82],[10,26],[-34,-7],[-22,27]],[[2366,4096],[-4,-31],[-33,15],[44,-37],[-20,-28],[15,-30],[-61,98],[59,13]],[[2688,4096],[-19,-26],[-35,9],[6,17],[48,0]]]}