{"objects":{"water":{"type":"GeometryCollection","geometries":[{"type":"Polygon","properties":{"source":"naturalearthdata.com","kind":"ocean","area":1576712559132672,"sort_rank":200,"min_zoom":0.0,"id":1},"arcs":[[1]]},{"type":"MultiLineString","properties":{"source":"naturalearthdata.com","kind":"ocean","sort_rank":205,"boundary":true,"min_zoom":0.0,"id":38},"arcs":[[2],[3]]}]},"buildings":{"type":"GeometryCollection","geometries":[]},"places":{"type":"GeometryCollection","geometries":[{"type":"Point","properties":{"kind":"locality","name":"Neskaupsta\u00f0ur","kind_detail":"town","source":"openstreetmap.org","min_zoom":8.0,"name:ru":"\u041d\u0435\u0441\u043a\u0451\u0439\u043f\u0441\u0442\u0430\u0434\u044e\u0440","id":256611930,"population":1481},"coordinates":[1088,2589]},{"type":"Point","properties":{"source":"openstreetmap.org","kind":"locality","name":"Eskifj\u00f6r\u00f0ur","kind_detail":"town","population":1043,"min_zoom":8.0,"id":256611840},"coordinates":[146,2054]},{"type":"Point","properties":{"kind":"locality","name:en":"Seydisfjordur","name":"Sey\u00f0isfj\u00f6r\u00f0ur","name:lt":"Seidisfjorduras","kind_detail":"town","source":"openstreetmap.org","min_zoom":8.0,"name:ru":"\u0421\u0435\u0439\u0434\u0438\u0441\u0444\u044c\u043e\u0440\u0434\u044e\u0440","id":249086462,"population":665},"coordinates":[168,3357]},{"type":"Point","properties":{"source":"openstreetmap.org","kind":"locality","name":"F\u00e1skr\u00fa\u00f0sfj\u00f6r\u00f0ur","kind_detail":"town","population":662,"min_zoom":8.0,"id":256612045},"coordinates":[157,1077]}]},"transit":{"type":"GeometryCollection","geometries":[]},"pois":{"type":"GeometryCollection","geometries":[]},"boundaries":{"type":"GeometryCollection","geometries":[{"type":"LineString","properties":{"name:kg":"Islande","name:ka":"\u10d8\u10e1\u10da\u10d0\u10dc\u10d3\u10d8\u10d0","name:ko":"\uc544\uc774\uc2ac\ub780\ub4dc","name:cv":"\u0418\u0441\u043b\u0430\u043d\u0434\u0438","name:cu":"\u0418\u0441\u043b\u0430\u043d\u0434\u044a","name:kl":"Islandi","name:cs":"Island","name:tt":"\u0418\u0441\u043b\u0430\u043d\u0434\u0438\u044f","name:co":"Islanda","name:kv":"\u0418\u0441\u043b\u0430\u043d\u0434\u0438\u044f","name:ku":"\u00ceslenda","name:tl":"Lupangyelo","name:ce":"\u0418\u0441\u043b\u0430\u043d\u0434\u0438","name:ta":"\u0b90\u0b9a\u0bc1\u0bb2\u0bbe\u0ba8\u0bcd\u0ba4\u0bc1","name:tg":"\u0418\u0441\u043b\u0430\u043d\u0434\u0438\u044f","name:ca":"Isl\u00e0ndia","name:te":"\u0c10\u0c38\u0c4d\u200c\u0c32\u0c3e\u0c02\u0c21\u0c4d","name:cy":"Gwlad yr I\u00e2","name:qu":"Islandya","name:da":"Island","name:de":"Island","name:dz":"\u0f68\u0f60\u0f72\u0f66\u0f72\u0f0b\u0f63\u0f7a\u0f53\u0f4c\u0f0b","source":"openstreetmap.org","name:kn":"\u0c90\u0cb8\u0ccd\u200d\u0cb2\u0ccd\u0caf\u0cbe\u0c82\u0ca1\u0ccd","name:dv":"\u0787\u07a6\u0787\u07a8\u0790\u07b0\u078d\u07a6\u0782\u07b0\u0791\u07a6\u0782\u07b0","name:km":"\u1794\u17d2\u179a\u1791\u17c1\u179f\u17a2\u17b6\u1799\u17a1\u17c2\u1793","name:lv":"Islande","name:lt":"Islandija","name:uz":"Islandiya","name:kk":"\u0418\u0441\u043b\u0430\u043d\u0434\u0438\u044f","name:ur":"\u0622\u0626\u0633 \u0644\u06cc\u0646\u0688","name:lb":"Island","name:la":"Islandia","name:lg":"Isilandi","name:uk":"\u0406\u0441\u043b\u0430\u043d\u0434\u0456\u044f","name:ug":"\u0626\u0649\u0633\u0644\u0627\u0646\u062f\u0649\u064a\u06d5","name:li":"Iesland","name:ln":"Islandi","name:lo":"\u0ead\u0eb4\u0e94\u0eaa\u0eb0\u0ea5\u0eb1\u0e87","name:el":"\u0399\u03c3\u03bb\u03b1\u03bd\u03b4\u03af\u03b1","name:eo":"Islando","name:en":"Iceland","name":"\u00cdsland","name:tk":"Islandi\u00fda","name:ee":"Iceland","name:th":"\u0e1b\u0e23\u0e30\u0e40\u0e17\u0e28\u0e44\u0e2d\u0e0b\u0e4c\u0e41\u0e25\u0e19\u0e14\u0e4c","name:eu":"Islandia","name:et":"Island","name:es":"Islandia","name:ia":"Islanda","name:rm":"Islanda","name:az":"\u0130slandiya","name:ie":"Island","name:id":"Islandia","name:ar":"\u0622\u064a\u0633\u0644\u0646\u062f\u0627","name:io":"Islando","name:am":"\u12a0\u12ed\u1235\u120b\u1295\u12f5","name:it":"Islanda","name:an":"Islandia","name:ru":"\u0418\u0441\u043b\u0430\u043d\u0434\u0438\u044f","name:rw":"Isilande","name:af":"Ysland","name:zu":"I-Ayisilandi","kind_detail":"2","name:ky":"\u0418\u0441\u043b\u0430\u043d\u0434\u0438\u044f","name:zh-yue":"\u51b0\u5cf6","name:zh":"\u51b0\u5c9b","name:so":"Island","name:sm":"Aiselani","name:sl":"Islandija","name:sk":"Island","name:ja":"\u30a2\u30a4\u30b9\u30e9\u30f3\u30c9","name:si":"\u0d85\u0dba\u0dd2\u0dc3\u0dca\u0dbd\u0db1\u0dca\u0dad\u0dba","name:sh":"Island","name:sg":"Isl\u00e2nde","name:se":"Isl\u00e1nda","name:sc":"Islanda","name:br":"Island","name:bs":"Island","name:bm":"Aisland","name:bn":"\u0986\u0987\u09b8\u09b2\u09cd\u09af\u09be\u09a8\u09cd\u09a1","name:bo":"\u0f68\u0f61\u0f72\u0f66\u0f74\u0f0b\u0f63\u0f7a\u0f53\u0f0b\u0f4c\u0f0d","name:bi":"Iceland","name:sw":"Iceland","name:be":"\u0406\u0441\u043b\u0430\u043d\u0434\u044b\u044f","name:su":"Islandia","name:bg":"\u0418\u0441\u043b\u0430\u043d\u0434\u0438\u044f","name:ss":"Echweni","name:ba":"\u0418\u0441\u043b\u0430\u043d\u0434\u0438\u044f","name:sq":"Islanda","name:jv":"Islandia","name:sa":"\u0906\u0907\u0938\u0932\u0948\u0902\u0921","name:pt":"Isl\u00e2ndia","name:ps":"\u0622\u064a\u0633\u0644\u06d0\u0646\u0689","name:oc":"Isl\u00e0ndia","min_zoom":8.0,"name:ro":"Islanda","name:zh-min-nan":"Peng-t\u0113","name:os":"\u0418\u0441\u043b\u0430\u043d\u0434\u0438","name:or":"\u0b06\u0b07\u0b38\u0b32\u0b4d\u0b5f\u0b3e\u0b23\u0b4d\u0b21","name:pl":"Islandia","name:st":"Iceland","sort_rank":262,"name:sr":"\u0418\u0441\u043b\u0430\u043d\u0434","osm_relation":true,"name:pa":"\u0a06\u0a08\u0a38\u0a32\u0a48\u0a02\u0a21","name:tr":"\u0130zlanda","name:hi":"\u0906\u0907\u0938\u0932\u0948\u0923\u094d\u0921","name:sv":"Island","name:he":"\u05d0\u05d9\u05e1\u05dc\u05e0\u05d3","name:hy":"\u053b\u057d\u056c\u0561\u0576\u0564\u056b\u0561","name:ht":"Islann","name:hu":"Izland","name:hr":"Island","kind":"country","name:yi":"\u05d0\u05d9\u05e1\u05dc\u05d0\u05e0\u05d3","name:yo":"\u00cdsl\u00e1nd\u00ec","name:mt":"I\u017clanda","name:ms":"Iceland","name:mr":"\u0906\u0907\u0938\u0932\u0901\u0921","name:my":"\u1021\u102d\u102f\u1000\u103a\u1005\u101c\u1014\u103a\u1014\u102d\u102f\u1004\u103a\u1004\u1036","official_name":"L\u00fd\u00f0veldi\u00f0 \u00cdsland","name:kw":"Island","name:vi":"Iceland","name:ml":"\u0d10\u0d38\u0d4d\u200c\u0d32\u0d3e\u0d28\u0d4d\u0d31\u0d4d","name:mn":"\u0418\u0441\u043b\u0430\u043d\u0434","name:mi":"Tiorangi","id":-299133,"name:mk":"\u0418\u0441\u043b\u0430\u043d\u0434","name:vo":"Lislade\u00e4n","name:fa":"\u0627\u06cc\u0633\u0644\u0646\u062f","name:ff":"Islannda","name:fi":"Islanti","name:fr":"Islande","name:fy":"Ysl\u00e2n","int_name":"Iceland","name:nl":"IJsland","name:nn":"Island","name:no":"Island","name:na":"Aiterand","name:ne":"\u0906\u0907\u0938\u0932\u094d\u092f\u093e\u0923\u094d\u0921","name:wa":"Izlande","name:wo":"Islaand","name:nv":"Tin Bik\u00e9yah","name:ga":"An \u00cdoslainn","name:gd":"Innis T\u00ecle","name:gn":"Iylanda","name:gl":"Islandia","maritime_boundary":true,"name:gv":"Yn Eeslynn","name:gu":"\u0a86\u0a88\u0ab8\u0ab2\u0ac7\u0a82\u0aa1"},"arcs":[0]}]},"roads":{"type":"GeometryCollection","geometries":[{"type":"LineString","properties":{"sort_rank":380,"kind_detail":"primary","min_zoom":8.0,"kind":"major_road","source":"openstreetmap.org"},"arcs":[4]},{"type":"LineString","properties":{"kind":"major_road","network":"S","sort_rank":380,"kind_detail":"primary","is_bicycle_related":true,"bicycle_shield_text":"EV1-proposed","bicycle_network":"ncn","source":"openstreetmap.org","min_zoom":8.0,"shield_text":"93"},"arcs":[5]},{"type":"LineString","properties":{"source":"openstreetmap.org","kind":"ferry","name":"T\u00f3rshavn - Sey\u00f0isfj\u00f6r\u00f0ur","sort_rank":355,"min_zoom":8.0,"osm_relation":true,"id":-1389543},"arcs":[6]},{"type":"LineString","properties":{"source":"openstreetmap.org","kind":"ferry","name":"Hirthals (DK) -T\u00f3rshavn (FO) - Sey\u00f0isfj\u00f6r\u00f0ur (IS)","sort_rank":355,"min_zoom":8.0,"osm_relation":true,"id":-1389544},"arcs":[7]},{"type":"LineString","properties":{"kind":"major_road","network":"S","sort_rank":380,"kind_detail":"primary","source":"openstreetmap.org","min_zoom":8.0,"shield_text":"95","id":300931338},"arcs":[8]},{"type":"MultiLineString","properties":{"kind":"major_road","network":"S","sort_rank":381,"kind_detail":"trunk","is_bicycle_related":true,"bicycle_shield_text":"EV1-proposed","bicycle_network":"ncn","source":"openstreetmap.org","min_zoom":8.0,"shield_text":"1"},"arcs":[[9],[10],[11],[12],[13]]},{"type":"MultiLineString","properties":{"source":"openstreetmap.org","kind":"major_road","network":"S","sort_rank":380,"kind_detail":"primary","min_zoom":8.0,"shield_text":"92"},"arcs":[[14],[15]]},{"type":"LineString","properties":{"sort_rank":355,"source":"openstreetmap.org","min_zoom":8.0,"name":"T\u00f3rshavn - Sey\u00f0isfj\u00f6r\u00f0ur","kind":"ferry"},"arcs":[16]},{"type":"MultiLineString","properties":{"kind":"major_road","network":"S","sort_rank":381,"kind_detail":"trunk","is_bicycle_related":true,"bicycle_shield_text":"EV1-proposed","bicycle_network":"ncn","source":"openstreetmap.org","min_zoom":8.0,"old_name":"Su\u00f0urfjar\u00f0avegur","shield_text":"1"},"arcs":[[17],[18],[19]]},{"type":"LineString","properties":{"source":"openstreetmap.org","kind":"major_road","sort_rank":380,"kind_detail":"primary","ref":"92","min_zoom":8.0},"arcs":[20]},{"type":"LineString","properties":{"source":"openstreetmap.org","kind":"major_road","network":"S;T","sort_rank":380,"kind_detail":"primary","min_zoom":8.0,"shield_text":"97"},"arcs":[21]},{"type":"LineString","properties":{"kind":"major_road","network":"S","sort_rank":381,"kind_detail":"trunk","is_bicycle_related":true,"bicycle_shield_text":"EV1-proposed","bicycle_network":"ncn","source":"openstreetmap.org","min_zoom":8.0,"old_name":"Fjar\u00f0arbraut","shield_text":"1","id":48645983},"arcs":[22]},{"type":"LineString","properties":{"source":"openstreetmap.org","kind":"major_road","network":"T;S;L","sort_rank":380,"kind_detail":"primary","min_zoom":8.0,"shield_text":"955"},"arcs":[23]}]},"earth":{"type":"GeometryCollection","geometries":[{"type":"MultiPolygon","properties":{"sort_rank":10,"source":"naturalearthdata.com","kind":"earth","min_zoom":0.0,"id":4245},"arcs":[[[24]],[[25]]]}]},"landuse":{"type":"GeometryCollection","geometries":[{"type":"Polygon","properties":{"source":"openstreetmap.org","kind":"nature_reserve","area":32243400,"tier":2,"id":471483137,"min_zoom":8.0,"sort_rank":23},"arcs":[[26]]},{"type":"Polygon","properties":{"kind":"nature_reserve","protect_class":"5","area":17978900,"sort_rank":23,"source":"openstreetmap.org","min_zoom":8.0,"tier":2,"id":411196912},"arcs":[[27]]}]}},"type":"Topology","transform":{"translate":[-14.0625,64.7741253129],"scale":[0.0003433228,0.000144705]},"arcs":[[[2752,0],[-4,2],[-293,61],[253,378],[145,268],[115,324],[33,213],[55,886],[-51,743],[-142,1221]],[[80,0],[-39,49],[0,51],[59,38],[24,24],[18,33],[93,-38],[332,-15],[83,27],[-1,74],[-53,52],[-316,132],[87,77],[304,-121],[38,22],[73,98],[48,22],[31,26],[-10,59],[-27,63],[-23,41],[-189,158],[-417,98],[-172,125],[50,27],[179,-78],[290,51],[255,-126],[143,-22],[121,97],[-58,100],[-300,140],[-136,126],[-25,37],[-15,68],[-36,67],[-40,53],[-30,27],[-421,41],[0,120],[95,3],[105,118],[-33,21],[-35,37],[-31,55],[-18,76],[89,-36],[162,-159],[153,-52],[96,-67],[47,-16],[46,-37],[31,-86],[24,-96],[28,-64],[59,-33],[181,33],[210,-51],[44,22],[92,101],[45,22],[8,30],[-27,65],[-52,94],[58,50],[124,37],[59,54],[50,95],[20,84],[-16,65],[-54,40],[0,51],[17,83],[10,141],[1,147],[-8,101],[-120,-141],[-84,-167],[-6,-27],[-25,-21],[-46,-95],[-29,-21],[-13,14],[-17,31],[-22,31],[-29,15],[-90,0],[22,41],[24,30],[25,20],[28,7],[0,43],[-53,48],[-225,-48],[0,51],[91,38],[99,10],[110,51],[15,31],[0,27],[-3,31],[8,44],[45,76],[14,51],[-29,23],[-110,0],[-200,-51],[-449,51],[-339,-72],[-89,72],[179,0],[169,43],[389,0],[369,94],[64,41],[118,188],[69,54],[-14,39],[-27,72],[-75,81],[-144,96],[-88,26],[-282,-73],[-140,12],[-462,-172],[-46,65],[75,49],[244,46],[122,76],[62,20],[145,1],[92,42],[67,77],[-9,114],[-227,80],[-72,61],[36,20],[3399,0],[0,-4096],[-4016,0]],[[697,4096],[-36,-20],[72,-61],[227,-80],[9,-114],[-67,-77],[-92,-42],[-145,-1],[-62,-20],[-122,-76],[-244,-46],[-75,-49],[46,-65],[462,172],[140,-12],[282,73],[88,-26],[144,-96],[75,-81],[27,-72],[14,-39],[-69,-54],[-118,-188],[-64,-41],[-369,-94],[-389,0],[-169,-43],[-179,0],[89,-72],[339,72],[449,-51],[200,51],[110,0],[29,-23],[-14,-51],[-45,-76],[-8,-44],[3,-31],[0,-27],[-15,-31],[-110,-51],[-99,-10],[-91,-38],[0,-51],[225,48],[53,-48],[0,-43],[-28,-7],[-25,-20],[-24,-30],[-22,-41],[90,0],[29,-15],[22,-31],[17,-31],[13,-14],[29,21],[46,95],[25,21],[6,27],[84,167],[120,141],[8,-101],[-1,-147],[-10,-141],[-17,-83],[0,-51],[54,-40],[16,-65],[-20,-84],[-50,-95],[-59,-54],[-124,-37],[-58,-50],[52,-94],[27,-65],[-8,-30],[-45,-22],[-92,-101],[-44,-22],[-210,51],[-181,-33],[-59,33],[-28,64],[-24,96],[-31,86],[-46,37],[-47,16],[-96,67],[-153,52],[-162,159],[-89,36],[18,-76],[31,-55],[35,-37],[33,-21],[-105,-118],[-95,-3]],[[0,1703],[421,-41],[30,-27],[40,-53],[36,-67],[15,-68],[25,-37],[136,-126],[300,-140],[58,-100],[-121,-97],[-143,22],[-255,126],[-290,-51],[-179,78],[-50,-27],[172,-125],[417,-98],[189,-158],[23,-41],[27,-63],[10,-59],[-31,-26],[-48,-22],[-73,-98],[-38,-22],[-304,121],[-87,-77],[316,-132],[53,-52],[1,-74],[-83,-27],[-332,15],[-93,38],[-18,-33],[-24,-24],[-59,-38],[0,-51],[39,-49]],[[1093,2580],[89,22]],[[0,3233],[50,-3],[104,129]],[[171,3381],[5,45],[37,35],[459,182],[497,15],[173,-41],[170,-77],[2584,-2601]],[[171,3381],[5,45],[37,35],[459,182],[497,15],[173,-41],[170,-77],[2584,-2601]],[[0,243],[126,-45],[17,-27]],[[143,171],[-54,-58],[-49,-113]],[[0,1116],[32,-7]],[[13,1097],[-9,-12]],[[493,437],[-122,28],[-53,-5],[-13,-27],[18,-42],[133,-56],[127,-112],[-145,-75]],[[564,404],[-12,2]],[[0,1852],[137,33],[-78,179]],[[706,2395],[157,63],[116,111],[114,11]],[[171,3381],[5,45],[37,35],[459,182],[376,23],[294,-49],[170,-77],[2584,-2601]],[[4,1085],[116,-120],[437,-100],[302,-196],[16,-82],[-189,-206],[-36,-14],[-86,37]],[[32,1109],[-19,-12]],[[143,171],[84,11],[131,-49],[80,15]],[[59,2064],[-32,68],[338,270],[53,21],[157,-38],[131,10]],[[91,118],[63,7],[1,53]],[[552,406],[-59,31]],[[32,1109],[35,5],[134,-70]],[[697,4096],[-36,-20],[72,-61],[227,-80],[9,-114],[-67,-77],[-92,-42],[-145,-1],[-62,-20],[-122,-76],[-244,-46],[-75,-49],[46,-65],[462,172],[140,-12],[282,73],[88,-26],[144,-96],[75,-81],[27,-72],[14,-39],[-69,-54],[-118,-188],[-64,-41],[-369,-94],[-389,0],[-169,-43],[-179,0],[89,-72],[339,72],[449,-51],[200,51],[110,0],[29,-23],[-14,-51],[-45,-76],[-8,-44],[3,-31],[0,-27],[-15,-31],[-110,-51],[-99,-10],[-91,-38],[0,-51],[225,48],[53,-48],[0,-43],[-28,-7],[-25,-20],[-24,-30],[-22,-41],[90,0],[29,-15],[22,-31],[17,-31],[13,-14],[29,21],[46,95],[25,21],[6,27],[84,167],[120,141],[8,-101],[-1,-147],[-10,-141],[-17,-83],[0,-51],[54,-40],[16,-65],[-20,-84],[-50,-95],[-59,-54],[-124,-37],[-58,-50],[52,-94],[27,-65],[-8,-30],[-45,-22],[-92,-101],[-44,-22],[-210,51],[-181,-33],[-59,33],[-28,64],[-24,96],[-31,86],[-46,37],[-47,16],[-96,67],[-153,52],[-162,159],[-89,36],[18,-76],[31,-55],[35,-37],[33,-21],[-105,-118],[-95,-3],[0,2273],[697,0]],[[0,0],[0,1703],[421,-41],[30,-27],[40,-53],[36,-67],[15,-68],[25,-37],[136,-126],[300,-140],[58,-100],[-121,-97],[-143,22],[-255,126],[-290,-51],[-179,78],[-50,-27],[172,-125],[417,-98],[189,-158],[23,-41],[27,-63],[10,-59],[-31,-26],[-48,-22],[-73,-98],[-38,-22],[-304,121],[-87,-77],[316,-132],[53,-52],[1,-74],[-83,-27],[-332,15],[-93,38],[-18,-33],[-24,-24],[-59,-38],[0,-51],[39,-49],[-80,0]],[[0,2875],[109,53],[92,-27],[-43,-31],[10,-50],[-168,-13],[0,68]],[[1182,2665],[4,51],[37,31],[50,129],[11,-104],[-80,-165],[-22,58]]]}