{"objects":{"water":{"type":"GeometryCollection","geometries":[{"type":"Polygon","properties":{"source":"naturalearthdata.com","kind":"ocean","area":1576712559132672,"sort_rank":200,"min_zoom":0.0,"id":1},"arcs":[[2]]},{"type":"LineString","properties":{"source":"naturalearthdata.com","kind":"ocean","sort_rank":205,"boundary":true,"min_zoom":0.0,"id":44},"arcs":[3]},{"type":"MultiLineString","properties":{"source":"naturalearthdata.com","kind":"ocean","sort_rank":205,"boundary":true,"min_zoom":0.0,"id":1358},"arcs":[[4],[5]]}]},"buildings":{"type":"GeometryCollection","geometries":[]},"places":{"type":"GeometryCollection","geometries":[{"type":"Point","properties":{"source":"naturalearthdata.com","kind":"locality","name":"Tombua","population":40000,"min_zoom":6.0,"id":6126},"coordinates":[1777,2533]},{"type":"Point","properties":{"source":"openstreetmap.org","kind":"locality","name":"Tombua","kind_detail":"town","population":90000,"min_zoom":8.0,"id":352755148},"coordinates":[1749,2528]}]},"transit":{"type":"GeometryCollection","geometries":[]},"pois":{"type":"GeometryCollection","geometries":[]},"boundaries":{"type":"GeometryCollection","geometries":[{"type":"LineString","properties":{"name:kg":"Ngola","name:ps":"\u0622\u0646\u06ab\u0648\u0644\u0627","name:ka":"\u10d0\u10dc\u10d2\u10dd\u10da\u10d0","name:ko":"\uc559\uace8\ub77c","name:kn":"\u0c85\u0c82\u0c97\u0ccb\u0cb2","name:km":"\u17a2\u1784\u17cb\u17a0\u17d2\u1782\u17c4\u17a1\u17b6","name:kk":"\u0410\u043d\u0433\u043e\u043b\u0430","name:tt":"\u0410\u043d\u0433\u043e\u0301\u043b\u0430","alt_name:gd":"Ang\u00f3la","name:th":"\u0e1b\u0e23\u0e30\u0e40\u0e17\u0e28\u0e41\u0e2d\u0e07\u0e42\u0e01\u0e25\u0e32","name:ti":"\u12a3\u1295\u130e\u120b","name:ks":"\u0627\u06cc\u0646\u065b\u06af\u0648\u0644\u0627","name:to":"\u02bbEnikola","name:tl":"Anggola","name:pa":"\u0a05\u0a70\u0a17\u0a4b\u0a32\u0a3e","name:os":"\u0410\u043d\u0433\u043e\u043b\u00e6","name:or":"\u0b06\u0b19\u0b4d\u0b17\u0b4b\u0b32\u0b3e","name:ce":"\u0410\u043d\u0433\u043e\u0301\u043b\u0430","name:ta":"\u0b85\u0b99\u0bcd\u0b95\u0bcb\u0bb2\u0bbe","name:tg":"\u0410\u043d\u0433\u043e\u043b\u0430","name:ky":"\u0410\u043d\u0433\u043e\u043b\u0430","name:te":"\u0c05\u0c02\u0c17\u0c4b\u0c32\u0c3e","name:om":"Angoolaa","sort_rank":262,"name:ss":"I-Angola","name:sr":"\u0410\u043d\u0433\u043e\u043b\u0430","name:dz":"\u0f68\u0f44\u0f0b\u0f42\u0fb7\u0f7c\u0f0b\u0f63","source":"openstreetmap.org","osm_relation":true,"name:cv":"\u0410\u043d\u0433\u043e\u043b\u0430","name:dv":"\u0787\u07ac\u0782\u07b0\u078e\u07af\u078d\u07a7","name:hi":"\u0905\u0902\u0917\u094b\u0932\u093e","name:he":"\u05d0\u05e0\u05d2\u05d5\u05dc\u05d4","name:eo":"Angolo","name:ur":"\u0627\u0646\u06af\u0648\u0644\u06c1","name:la":"Angolia","name:uk":"\u0410\u043d\u0491\u043e\u0301\u043b\u0430","name:hy":"\u0531\u0576\u0563\u0578\u056c\u0561","name:ug":"\u0626\u0627\u0646\u06af\u0648\u0644\u0627","name:qu":"Angula","name:lo":"\u0ead\u0eb1\u0e87\u0ec2\u0e81\u0ea5\u0eb2","name:oc":"Ang\u00f2la","name:el":"\u0391\u03bd\u03b3\u03ba\u03cc\u03bb\u03b1","kind":"country","name":"Angola","name:ee":"A\u014bgola","min_zoom":8.0,"name:yi":"\u05d0\u05b7\u05e0\u05d2\u05d0\u05dc\u05d0\u05b7","name:yo":"\u00c0ng\u00f3l\u00e0","name:az":"Anqola","name:mr":"\u0905\u0901\u0917\u094b\u0932\u093e","name:ar":"\u0623\u0646\u063a\u0648\u0644\u0627","name:my":"\u1021\u1004\u103a\u1002\u102d\u102f\u101c\u102c\u1014\u102d\u102f\u1004\u103a\u1004\u1036","official_name":"Rep\u00fablica de Angola","name:is":"Ang\u00f3la","name:am":"\u12a0\u1295\u130e\u120b","name:ru":"\u0410\u043d\u0433\u043e\u0301\u043b\u0430","name:ml":"\u0d05\u0d02\u0d17\u0d4b\u0d33","name:mn":"\u0410\u043d\u0433\u043e\u043b","name:mi":"Anakora","id":-195267,"name:mk":"\u0410\u043d\u0433\u043e\u043b\u0430","name:vo":"Langol\u00e4n","name:zu":"I-Angola","name:ff":"Anngolaa","kind_detail":"2","alt_name:vi":"T\u00e2y B\u1ed3 \u0110\u00e0o Nha","name:zh-yue":"\u5b89\u54e5\u62c9","name:fy":"Angoala","name:pi":"\u0905\u0902\u0917\u094b\u0932\u093e","name:zh":"\u5b89\u54e5\u62c9","name:ja":"\u30a2\u30f3\u30b4\u30e9","name:si":"\u0d87\u0db1\u0dca\u0d9c\u0ddd\u0dbd\u0dcf\u0dc0","name:fa":"\u0622\u0646\u06af\u0648\u0644\u0627","name:sg":"Angol\u00e4a","name:na":"Angora","name:ne":"\u0905\u0902\u0917\u094b\u0932\u093e","name:sa":"\u0905\u0919\u094d\u0917\u094b\u0932\u093e","name:bn":"\u0985\u09cd\u09af\u09be\u0999\u09cd\u0997\u09cb\u09b2\u09be","name:bo":"\u0f68\u0f44\u0f0b\u0f42\u0f7c\u0f0b\u0f63\u0f0d","name:be":"\u0410\u043d\u0433\u043e\u0301\u043b\u0430","name:bg":"\u0410\u043d\u0433\u043e\u043b\u0430","name:wo":"Angolaa","name:ba":"\u0410\u043d\u0433\u043e\u0301\u043b\u0430","name:nv":"Ang\u00f3ola","name:ga":"Ang\u00f3la","maritime_boundary":true,"name:gv":"Angoley","name:gu":"\u0a85\u0a82\u0a97\u0acb\u0ab2\u0abe"},"arcs":[0]},{"type":"LineString","properties":{"kind":"region","name":"Namibe","sort_rank":256,"kind_detail":"4","min_zoom":8.0,"source":"openstreetmap.org","maritime_boundary":true,"name:uk":"\u041d\u0430\u043c\u0456\u0431\u0435","name:ru":"\u041d\u0430\u043c\u0438\u0431\u0435","id":-1802550,"osm_relation":true},"arcs":[1]}]},"roads":{"type":"GeometryCollection","geometries":[]},"earth":{"type":"GeometryCollection","geometries":[{"type":"MultiPolygon","properties":{"sort_rank":10,"source":"naturalearthdata.com","min_zoom":0.0,"kind":"earth","area":69809510407},"arcs":[[[6]],[[7]]]}]},"landuse":{"type":"GeometryCollection","geometries":[]}},"type":"Topology","transform":{"translate":[11.25,-16.6361918784],"scale":[0.0003433228,0.0003300798]},"arcs":[[[1734,4096],[-3,-36],[-58,-240],[-27,-405],[-141,-123],[-74,-114],[-211,-82],[-170,-145],[-139,-231],[-92,-269],[-22,-219],[24,-148],[160,-315],[-13,-185],[20,-276],[-355,-884],[-18,-176],[40,-248]],[[1734,4096],[-3,-36],[-58,-240],[-27,-405],[-141,-123],[-74,-114],[-211,-82],[-170,-145],[-139,-231],[-92,-269],[-22,-219],[24,-148],[160,-315],[-13,-185],[20,-276],[-355,-884],[-18,-176],[40,-248]],[[2336,4096],[-16,-201],[-38,-172],[-10,-90],[30,-80],[-34,-81],[-59,-228],[-10,-88],[-38,-69],[-179,-107],[-59,-72],[-8,-42],[-3,-84],[-9,-41],[-25,-46],[-147,-142],[-42,-13],[-34,16],[-13,53],[-26,18],[-59,-25],[-61,-38],[-34,-28],[-48,-176],[3,-130],[139,-220],[66,-140],[-65,-137],[-14,-49],[-2,-59],[125,-1149],[-24,-318],[15,-158],[-270,0],[-1,54],[0,124],[-13,67],[-5,149],[-52,17],[-60,-51],[-29,-38],[-5,-83],[76,-239],[-1298,0],[0,4096],[2336,0]],[[2336,4096],[-16,-201],[-38,-172],[-10,-90],[30,-80],[-34,-81],[-59,-228],[-10,-88],[-38,-69],[-179,-107],[-59,-72],[-8,-42],[-3,-84],[-9,-41],[-25,-46],[-147,-142],[-42,-13],[-34,16],[-13,53],[-26,18],[-59,-25],[-61,-38],[-34,-28],[-48,-176],[3,-130],[139,-220],[66,-140],[-65,-137],[-14,-49],[-2,-59],[125,-1149],[-24,-318],[15,-158]],[[1386,54],[0,124],[-13,67],[-5,149],[-52,17],[-60,-51],[-29,-38],[-5,-83],[76,-239]],[[1387,0],[-1,54]],[[1298,0],[-76,239],[5,83],[29,38],[60,51],[52,-17],[5,-149],[13,-67],[0,-124],[1,-54],[-89,0]],[[2336,4096],[1760,0],[0,-4096],[-2439,0],[-15,158],[24,318],[-125,1149],[2,59],[14,49],[65,137],[-66,140],[-139,220],[-3,130],[48,176],[34,28],[61,38],[59,25],[26,-18],[13,-53],[34,-16],[42,13],[147,142],[25,46],[9,41],[3,84],[8,42],[59,72],[179,107],[38,69],[10,88],[59,228],[34,81],[-30,80],[10,90],[38,172],[16,201]]]}