{"objects":{"water":{"type":"GeometryCollection","geometries":[{"type":"Polygon","properties":{"source":"naturalearthdata.com","kind":"ocean","area":1576712559132672,"sort_rank":200,"min_zoom":0.0,"id":1},"arcs":[[47],[48],[49]]},{"type":"LineString","properties":{"source":"naturalearthdata.com","kind":"ocean","sort_rank":205,"boundary":true,"min_zoom":0.0,"id":1121},"arcs":[50]},{"type":"LineString","properties":{"source":"naturalearthdata.com","kind":"ocean","sort_rank":205,"boundary":true,"min_zoom":0.0,"id":1123},"arcs":[51]},{"type":"LineString","properties":{"source":"naturalearthdata.com","kind":"ocean","sort_rank":205,"boundary":true,"min_zoom":0.0,"id":3617},"arcs":[52]}]},"buildings":{"type":"GeometryCollection","geometries":[]},"places":{"type":"GeometryCollection","geometries":[{"type":"Point","properties":{"name:ja":"\u30de\u30eb\u30b5\u30fc\u30e9","name:ko":"\ub9c8\ub974\uc0b4\ub77c","name:ar":"\u0645\u0631\u0633\u0649 \u0639\u0644\u064a","min_zoom":8.0,"name:la":"Lilybaeum","name:uk":"\u041c\u0430\u0440\u0441\u0430\u043b\u0430","name:be":"\u041c\u0430\u0440\u0441\u0430\u043b\u0430","name:ru":"\u041c\u0430\u0440\u0441\u0430\u043b\u0430","name:bg":"\u041c\u0430\u0440\u0441\u0430\u043b\u0430","id":861110459,"population":82765,"name:fa":"\u0645\u0627\u0631\u0633\u0627\u0644\u0627","kind":"locality","name":"Marsala","kind_detail":"town","name:sr":"\u041c\u0430\u0440\u0441\u0430\u043b\u0430","source":"openstreetmap.org","name:zh":"\u99ac\u723e\u85a9\u62c9"},"coordinates":[3449,294]},{"type":"Point","properties":{"name:pt":"Tr\u00e1pani","name:he":"\u05d8\u05e8\u05e4\u05d0\u05e0\u05d9","name:ja":"\u30c8\u30e9\u30fc\u30d1\u30cb","name:el":"\u0394\u03c1\u03ad\u03c0\u03b1\u03bd\u03bf\u03bd","name:ar":"\u062a\u0631\u0627\u0628\u0627\u0646\u064a","min_zoom":8.0,"name:la":"Drepanum","name:uk":"\u0422\u0440\u0430\u043f\u0430\u043d\u0456","name:an":"Tr\u00e0pani","name:ru":"\u0422\u0440\u0430\u043f\u0430\u043d\u0438","name:bg":"\u0422\u0440\u0430\u043f\u0430\u043d\u0438","name:sr":"\u0422\u0440\u0430\u043f\u0430\u043d\u0438","population":70654,"name:fa":"\u062a\u0631\u0627\u067e\u0627\u0646\u06cc","kind":"locality","name":"Trapani","kind_detail":"city","id":67253724,"source":"openstreetmap.org","name:zh":"\u7279\u62c9\u5e15\u5c3c"},"coordinates":[3768,1104]},{"type":"Point","properties":{"source":"openstreetmap.org","kind":"locality","name":"Erice","kind_detail":"town","population":27928,"min_zoom":8.0,"id":67257082},"coordinates":[3894,1183]},{"type":"Point","properties":{"source":"openstreetmap.org","kind":"locality","name":"Casa Santa","kind_detail":"town","population":23980,"min_zoom":8.0,"id":1431606135},"coordinates":[3771,1158]},{"type":"Point","properties":{"kind":"locality","name":"Paceco","kind_detail":"town","source":"openstreetmap.org","min_zoom":8.0,"name:uk":"\u041f\u0430\u0447\u0435\u043a\u043e","name:ru":"\u041f\u0430\u0447\u0435\u043a\u043e","population":11427,"id":67257015,"name:ja":"\u30d1\u30c1\u30a7\u30fc\u30b3"},"coordinates":[3808,975]},{"type":"Point","properties":{"source":"openstreetmap.org","kind":"locality","name":"Valderice","kind_detail":"town","population":11374,"min_zoom":8.0,"id":67257299},"coordinates":[3982,1189]}]},"transit":{"type":"GeometryCollection","geometries":[{"type":"MultiLineString","properties":{"osm_relation":true,"source":"openstreetmap.org","kind":"train","name":"Palermo - Trapani via Castelvetrano","sort_rank":275,"min_zoom":6.0,"operator":"Trenitalia"},"arcs":[[2],[3],[4],[5],[6],[7],[8],[9],[10],[11],[12],[13],[14],[15],[16],[17],[18],[19],[20],[21],[22],[23],[24],[25]]},{"type":"MultiLineString","properties":{"osm_relation":true,"source":"openstreetmap.org","kind":"train","name":"Palermo - Trapani via Milo","sort_rank":275,"min_zoom":6.0,"operator":"Trenitalia"},"arcs":[[26],[27],[28],[29],[30],[31],[32],[33],[34],[35],[36],[37],[38],[39],[40],[41],[42],[43],[44],[45],[46]]}]},"pois":{"type":"GeometryCollection","geometries":[{"type":"Point","properties":{"kind":"nature_reserve","name":"Riserva naturale marina Isole Egadi","area":867842000,"source":"openstreetmap.org","min_zoom":7.41,"tier":2,"id":-1405847,"osm_relation":true},"coordinates":[2746,868]},{"type":"Point","properties":{"kind":"protected_area","name":"Zona A","area":10623700,"source":"openstreetmap.org","min_zoom":8.0,"tier":2,"id":-1405748,"osm_relation":true},"coordinates":[2271,944]},{"type":"Point","properties":{"kind":"protected_area","name":"Zona B","area":15530600,"source":"openstreetmap.org","min_zoom":8.0,"tier":2,"id":-1405744,"osm_relation":true},"coordinates":[2378,831]},{"type":"Point","properties":{"kind":"protected_area","name":"Zona C","area":272822000,"source":"openstreetmap.org","min_zoom":7.0,"tier":2,"id":-1405742,"osm_relation":true},"coordinates":[3260,855]},{"type":"Point","properties":{"source":"openstreetmap.org","kind":"protected_area","name":"Zona D","area":448273000,"tier":2,"min_zoom":7.0,"id":98012981},"coordinates":[2680,794]}]},"boundaries":{"type":"GeometryCollection","geometries":[{"type":"LineString","properties":{"name:ty":"\u2019It\u0101ria","name:ka":"\u10d8\u10e2\u10d0\u10da\u10d8\u10d0","name:ko":"\uc774\ud0c8\ub9ac\uc544","name:cv":"\u0418\u0442\u0430\u043b\u0438","name:cu":"\u0418\u0442\u0430\u043b\u0457\ua657","name:cs":"It\u00e1lie","name:cr":"\u1403\u1455\u14d6","name:tt":"\u0418\u0442\u0430\u043b\u0438\u044f","name:kw":"Itali","name:kv":"\u0418\u0442\u0430\u043b\u0438\u044f","name:th":"\u0e1b\u0e23\u0e30\u0e40\u0e17\u0e28\u0e2d\u0e34\u0e15\u0e32\u0e25\u0e35","alt_name:cs":"\u0160v\u00fdcarsk\u00e1 konfederace","name:tl":"Italya","name:ce":"\u0418\u0442\u0430\u043b\u0438","name:ta":"\u0b87\u0ba4\u0bcd\u0ba4\u0bbe\u0bb2\u0bbf","name:tg":"\u0418\u0442\u043e\u043b\u0438\u0451","name:ca":"It\u00e0lia","name:te":"\u0c07\u0c1f\u0c32\u0c40","name:cy":"Yr Eidal","name:qu":"Italya","name:da":"Italien","name:de":"Italien","name:dz":"\u0f68\u0f80\u0f4a\u0f0b\u0f63\u0f72\u0f0b","source":"openstreetmap.org","name:kn":"\u0c87\u0c9f\u0cb2\u0cbf","name:dv":"\u0787\u07a8\u0793\u07a6\u078d\u07a9\u0788\u07a8\u078d\u07a7\u078c\u07b0","name:km":"\u17a2\u17ca\u17b8\u178f\u17b6\u179b\u17b8","name:lv":"It\u0101lija","name:lt":"Italija","name:uz":"Italiya","name:kk":"\u0418\u0442\u0430\u043b\u0438\u044f","name:tw":"Italy","name:lb":"Italien","name:lg":"Yitale","name:uk":"\u0406\u0442\u0430\u043b\u0456\u044f","name:ug":"\u0626\u0649\u062a\u0627\u0644\u0649\u064a\u06d5","name:li":"Itali\u00eb","name:ln":"Italya","name:lo":"\u0ead\u0eb4\u0e95\u0eb2\u0ea5\u0eb5","name:el":"\u0399\u03c4\u03b1\u03bb\u03af\u03b1","name:eo":"Italujo","name:en":"Italy","name":"Italia","name:tk":"Itali\u00fda","name:ee":"Italy","name:ku":"\u00cetalya","name:et":"Itaalia","name:ay":"Italiya","name:az":"\u0130taliya","name:as":"\u0987\u099f\u09be\u09b2\u09c0","name:ar":"\u0625\u064a\u0637\u0627\u0644\u064a\u0627","name:ak":"Italy","name:am":"\u1323\u120d\u12eb\u1295","name:ru":"\u0418\u0442\u0430\u043b\u0438\u044f","name:ab":"\u0418\u0442\u0430\u043b\u0438\u0430","name:af":"Itali\u00eb","name:zu":"ITaliya","kind_detail":"2","name:ky":"\u0418\u0442\u0430\u043b\u0438\u044f","name:zh-yue":"\u610f\u5927\u5229","name:zh":"\u610f\u5927\u5229","name:so":"Talyaaniga","name:sl":"Italija","name:sk":"Taliansko","name:ja":"\u30a4\u30bf\u30ea\u30a2","name:sh":"Italija","name:sg":"Ital\u00f9ii","name:se":"It\u00e1lia","name:sc":"It\u00e0lia","name:sa":"\u0907\u091f\u0932\u0940","name:bs":"Italija","name:bn":"\u0987\u09a4\u09be\u09b2\u09bf","name:bo":"\u0f68\u0f72\u0f0b\u0f4f\u0f0b\u0f63\u0f72\u0f0d","name:bi":"Itali","name:be":"\u0406\u0442\u0430\u043b\u0456\u044f","name:bg":"\u0418\u0442\u0430\u043b\u0438\u044f","name:ss":"INtaliyane","name:ba":"\u0418\u0442\u0430\u043b\u0438\u044f","osm_relation":true,"name:pt":"It\u00e1lia","name:ps":"\u0627\u06d0\u067c\u0627\u0644\u064a\u0627","name:oc":"It\u00e0lia","min_zoom":8.0,"name:pa":"\u0a07\u0a1f\u0a32\u0a40","name:os":"\u0418\u0442\u0430\u043b\u0438","name:or":"\u0b07\u0b1f\u0b3e\u0b32\u0b40","name:pl":"W\u0142ochy","sort_rank":262,"name:sr":"\u0418\u0442\u0430\u043b\u0438\u0458\u0430","name:tr":"\u0130talya","name:hi":"\u0907\u091f\u0932\u0940","name:sv":"Italien","name:he":"\u05d0\u05d9\u05d8\u05dc\u05d9\u05d4","name:hy":"\u053b\u057f\u0561\u056c\u056b\u0561","name:ht":"Itali","name:hu":"Olaszorsz\u00e1g","name:hr":"Italija","kind":"country","name:is":"\u00cdtal\u00eda","name:yi":"\u05d0\u05d9\u05d8\u05d0\u05dc\u05d9\u05e2","name:yo":"It\u00e1l\u00ed\u00e0","name:mt":"Italja","alt_name:eo":"Italio","name:ms":"Itali","name:mr":"\u0907\u091f\u0932\u0940","name:my":"\u1021\u102e\u1010\u101c\u102e\u1014\u102d\u102f\u1004\u103a\u1004\u1036","official_name":"Repubblica Italiana","name:ve":"Italy","name:vi":"\u00dd","name:ml":"\u0d07\u0d31\u0d4d\u0d31\u0d32\u0d3f","name:mn":"\u0418\u0442\u0430\u043b\u0438","name:mi":"It\u0101ria","id":-365331,"name:mk":"\u0418\u0442\u0430\u043b\u0438\u0458\u0430","name:vo":"Litaliy\u00e4n","name:fa":"\u0627\u06cc\u062a\u0627\u0644\u06cc\u0627","name:rw":"Ubutaliyani","name:ff":"Italiya","old_name:vi":"\u00dd \u0110\u1ea1i L\u1ee3i","alt_name:vi":"I-ta-li-a","name:fr":"Italie","name:fy":"Itaalje","name:nl":"Itali\u00eb","name:na":"Itari","name:ne":"\u0907\u091f\u093e\u0932\u0940","name:wa":"It\u00e5leye","name:ur":"\u0627\u0637\u0627\u0644\u06cc\u06c1","name:wo":"Itaali","name:nv":"\u00cddelii","name:ga":"An Iod\u00e1il","name:gd":"An Eadailt","name:gn":"It\u00e1lia","maritime_boundary":true,"name:gv":"Yn Iddaal","name:gu":"\u0a88\u0a9f\u0ab2\u0ac0"},"arcs":[0]},{"type":"LineString","properties":{"name:pt":"Sic\u00edlia","name:sl":"Sicilija","name:sk":"Sic\u00edlia","name:lt":"Sicilija","name:ko":"\uc2dc\uce60\ub9ac\uc544","name:ar":"\u0635\u0642\u0644\u064a\u0629","name:cs":"Sic\u00edlie","official_name":"Regione Siciliana","min_zoom":8.0,"name:ru":"\u0421\u0438\u0446\u0438\u043b\u0438\u044f","name:sv":"Sicilien","name:pl":"Sycylia","name:hu":"Szic\u00edlia","id":-39152,"name:ca":"Sic\u00edlia","name:el":"\u03a3\u03b9\u03ba\u03b5\u03bb\u03af\u03b1","kind":"region","name:en":"Sicily","name":"Sicilia","sort_rank":256,"kind_detail":"4","name:fr":"Sicile","name:de":"Sizilien","source":"openstreetmap.org","maritime_boundary":true,"osm_relation":true,"name:eu":"Sizilia","name:nl":"Sicili\u00eb"},"arcs":[1]}]},"roads":{"type":"GeometryCollection","geometries":[{"type":"LineString","properties":{"kind":"major_road","sort_rank":380,"kind_detail":"primary","bus_network":"Autoservizi Salemi","source":"openstreetmap.org","min_zoom":8.0,"bus_shield_text":"Mar-Maz-Pa","landuse_kind":"residential"},"arcs":[53]},{"type":"LineString","properties":{"source":"openstreetmap.org","kind":"ferry","name":"Mozia - Saline","sort_rank":355,"landuse_kind":"urban_area","min_zoom":8.0,"id":417700569},"arcs":[54]},{"type":"LineString","properties":{"source":"openstreetmap.org","kind":"ferry","name":"Marsala-Favignana","sort_rank":355,"landuse_kind":"urban_area","min_zoom":8.0,"id":287513751},"arcs":[55]},{"type":"LineString","properties":{"source":"openstreetmap.org","kind":"ferry","name":"Trapani-Favignana","sort_rank":355,"min_zoom":8.0,"id":489831848},"arcs":[56]},{"type":"LineString","properties":{"source":"openstreetmap.org","kind":"ferry","name":"Trapani - Favignana","sort_rank":355,"landuse_kind":"urban_area","min_zoom":8.0,"id":38984496},"arcs":[57]},{"type":"LineString","properties":{"kind":"major_road","sort_rank":380,"kind_detail":"primary","bus_network":"Autoservizi Salemi","source":"openstreetmap.org","min_zoom":8.0,"bus_shield_text":"Mar-Maz-Pa","landuse_kind":"residential","ref":"SS115"},"arcs":[58]},{"type":"LineString","properties":{"source":"openstreetmap.org","kind":"ferry","name":"Salerno - Palermo - Tunis\/La Goulette","sort_rank":355,"min_zoom":8.0,"osm_relation":true},"arcs":[59]},{"type":"LineString","properties":{"sort_rank":355,"source":"openstreetmap.org","min_zoom":8.0,"name":"Trapani - Cagliari","kind":"ferry"},"arcs":[60]},{"type":"LineString","properties":{"source":"openstreetmap.org","kind":"major_road","sort_rank":380,"kind_detail":"primary","ref":"SV","min_zoom":8.0},"arcs":[61]},{"type":"LineString","properties":{"source":"openstreetmap.org","kind":"ferry","name":"Trapani - Levanzo","sort_rank":355,"landuse_kind":"nature_reserve","min_zoom":8.0,"id":364679118},"arcs":[62]},{"type":"LineString","properties":{"sort_rank":355,"source":"openstreetmap.org","min_zoom":8.0,"name":"Trapani - Pantelleria","kind":"ferry"},"arcs":[63]},{"type":"LineString","properties":{"source":"openstreetmap.org","kind":"major_road","bus_shield_text":"Mar-Maz-Pa","sort_rank":380,"kind_detail":"primary","min_zoom":8.0,"bus_network":"Autoservizi Salemi"},"arcs":[64]},{"type":"LineString","properties":{"source":"openstreetmap.org","kind":"ferry","name":"Levanzo - Favignana","sort_rank":355,"landuse_kind":"nature_reserve","min_zoom":8.0,"id":106257136},"arcs":[65]},{"type":"LineString","properties":{"source":"openstreetmap.org","kind":"ferry","name":"Marsala-Favignana","sort_rank":355,"min_zoom":8.0,"id":287513751},"arcs":[66]},{"type":"LineString","properties":{"kind":"ferry","name":"Palermo - \u062a\u0648\u0646\u0633\/\u062d\u0644\u0642 \u0627\u0644\u0648\u0627\u062f\u064a","sort_rank":355,"name:ar":"\u0628\u0627\u0644\u064a\u0631\u0645\u0648 - \u062a\u0648\u0646\u0633\/\u062d\u0644\u0642 \u0627\u0644\u0648\u0627\u062f\u064a","name:fr":"Palermo - Tunis\/La Goulette","source":"openstreetmap.org","min_zoom":8.0,"name:it":"Palermo - Tunis\/La Goulette"},"arcs":[67]},{"type":"LineString","properties":{"sort_rank":355,"source":"openstreetmap.org","min_zoom":8.0,"name":"Trapani - Ustica","kind":"ferry"},"arcs":[68]},{"type":"MultiLineString","properties":{"source":"openstreetmap.org","kind":"ferry","name":"Trapani-Favignana","sort_rank":355,"landuse_kind":"nature_reserve","min_zoom":8.0},"arcs":[[69],[70]]},{"type":"MultiLineString","properties":{"source":"openstreetmap.org","kind":"major_road","landuse_kind":"urban_area","sort_rank":380,"kind_detail":"primary","min_zoom":8.0},"arcs":[[71],[72],[73],[74],[75],[76],[77],[78],[79],[80],[81],[82],[83],[84],[85],[86],[87]]},{"type":"LineString","properties":{"source":"openstreetmap.org","kind":"ferry","name":"Trapani - Cagliari","sort_rank":355,"landuse_kind":"nature_reserve","min_zoom":8.0,"id":118486261},"arcs":[88]},{"type":"MultiLineString","properties":{"kind":"major_road","network":null,"sort_rank":380,"kind_detail":"primary","source":"openstreetmap.org","min_zoom":8.0,"shield_text":"187","ref":"SS187"},"arcs":[[89],[90]]},{"type":"LineString","properties":{"source":"openstreetmap.org","kind":"ferry","name":"Trapani - Levanzo","sort_rank":355,"landuse_kind":"urban_area","min_zoom":8.0,"id":364679118},"arcs":[91]},{"type":"LineString","properties":{"kind":"major_road","sort_rank":380,"kind_detail":"primary","bus_network":"Autoservizi Salemi","source":"openstreetmap.org","min_zoom":8.0,"bus_shield_text":"Mar-Maz-Pa","landuse_kind":"urban_area"},"arcs":[92]},{"type":"LineString","properties":{"source":"openstreetmap.org","kind":"ferry","name":"Trapani - Levanzo","sort_rank":355,"min_zoom":8.0,"id":364679118},"arcs":[93]},{"type":"LineString","properties":{"source":"openstreetmap.org","kind":"ferry","name":"Trapani - Ustica","sort_rank":355,"landuse_kind":"urban_area","min_zoom":8.0,"id":364679117},"arcs":[94]},{"type":"LineString","properties":{"kind":"major_road","network":null,"sort_rank":380,"kind_detail":"primary","source":"openstreetmap.org","min_zoom":8.0,"shield_text":"21","ref":"SP21"},"arcs":[95]},{"type":"LineString","properties":{"kind":"ferry","name":"Salerno - \u062a\u0648\u0646\u0633","sort_rank":355,"name:ar":"\u0633\u0627\u0644\u064a\u0631\u0646\u0648 - \u062a\u0648\u0646\u0633","min_zoom":8.0,"source":"openstreetmap.org","name:fr":"Salerno - Tunis","name:it":"Salerno - Tunis"},"arcs":[96]},{"type":"LineString","properties":{"kind":"major_road","network":null,"sort_rank":380,"kind_detail":"primary","source":"openstreetmap.org","min_zoom":8.0,"landuse_kind":"urban_area","shield_text":"115","ref":"SS115"},"arcs":[97]},{"type":"MultiLineString","properties":{"sort_rank":380,"kind_detail":"primary","min_zoom":8.0,"kind":"major_road","source":"openstreetmap.org"},"arcs":[[98],[99],[100],[101],[102],[103],[104],[105],[106],[107],[108],[109],[110],[111]]},{"type":"LineString","properties":{"source":"openstreetmap.org","kind":"ferry","name":"Trapani - Pantelleria","sort_rank":355,"landuse_kind":"urban_area","min_zoom":8.0,"id":40062595},"arcs":[112]},{"type":"MultiLineString","properties":{"source":"openstreetmap.org","kind":"major_road","network":null,"sort_rank":380,"kind_detail":"primary","min_zoom":8.0,"shield_text":"187"},"arcs":[[113],[114]]},{"type":"LineString","properties":{"kind":"major_road","network":null,"sort_rank":380,"kind_detail":"primary","source":"openstreetmap.org","min_zoom":8.0,"landuse_kind":"urban_area","shield_text":"83","ref":"SP83","id":34610789},"arcs":[115]},{"type":"MultiLineString","properties":{"kind":"highway","network":"e-road","sort_rank":383,"landuse_kind":"urban_area","source":"openstreetmap.org","min_zoom":8.0,"all_networks":["e-road"],"kind_detail":"motorway","shield_text":"933","ref":"A29dir","all_shield_texts":["933"]},"arcs":[[116],[117]]},{"type":"MultiLineString","properties":{"kind":"highway","network":null,"sort_rank":383,"kind_detail":"motorway","source":"openstreetmap.org","min_zoom":8.0,"all_networks":[null],"shield_text":"29dir\/A","ref":"A29dir\/A","all_shield_texts":["29dir\/A"]},"arcs":[[118],[119],[120],[121],[122],[123],[124],[125],[126],[127]]},{"type":"LineString","properties":{"source":"openstreetmap.org","kind":"ferry","name":"Marsala-Favignana","sort_rank":355,"landuse_kind":"nature_reserve","min_zoom":8.0,"id":287513751},"arcs":[128]},{"type":"MultiLineString","properties":{"source":"openstreetmap.org","kind":"major_road","landuse_kind":"residential","sort_rank":380,"kind_detail":"primary","min_zoom":8.0},"arcs":[[129],[130],[131],[132]]},{"type":"LineString","properties":{"source":"openstreetmap.org","kind":"ferry","name":"Mozia - Saline","sort_rank":355,"landuse_kind":"nature_reserve","min_zoom":8.0,"id":417700569},"arcs":[133]},{"type":"MultiLineString","properties":{"source":"openstreetmap.org","kind":"major_road","network":null,"sort_rank":380,"kind_detail":"primary","min_zoom":8.0,"shield_text":"115"},"arcs":[[134],[135]]},{"type":"MultiLineString","properties":{"source":"openstreetmap.org","kind":"ferry","name":"Trapani-Favignana","sort_rank":355,"landuse_kind":"urban_area","min_zoom":8.0,"id":489831848},"arcs":[[136],[137]]},{"type":"LineString","properties":{"source":"openstreetmap.org","kind":"ferry","name":"Trapani - Favignana","sort_rank":355,"landuse_kind":"nature_reserve","min_zoom":8.0,"id":38984496},"arcs":[138]},{"type":"LineString","properties":{"source":"openstreetmap.org","kind":"ferry","name":"Trapani - Favignana","sort_rank":355,"min_zoom":8.0,"id":38984496},"arcs":[139]},{"type":"MultiLineString","properties":{"kind":"major_road","network":null,"sort_rank":380,"kind_detail":"primary","source":"openstreetmap.org","min_zoom":8.0,"landuse_kind":"urban_area","shield_text":"83"},"arcs":[[140],[141],[142]]},{"type":"MultiLineString","properties":{"kind":"highway","network":"e-road","sort_rank":383,"kind_detail":"motorway","source":"openstreetmap.org","min_zoom":8.0,"all_networks":["e-road"],"shield_text":"933","ref":"A29dir","all_shield_texts":["933"]},"arcs":[[143],[144],[145]]},{"type":"MultiLineString","properties":{"kind":"major_road","network":null,"sort_rank":380,"kind_detail":"primary","source":"openstreetmap.org","min_zoom":8.0,"shield_text":"115","ref":"SS115"},"arcs":[[146],[147],[148],[149],[150]]},{"type":"MultiLineString","properties":{"source":"openstreetmap.org","kind":"major_road","network":null,"sort_rank":380,"kind_detail":"primary","min_zoom":8.0,"shield_text":"21"},"arcs":[[151],[152]]},{"type":"LineString","properties":{"source":"openstreetmap.org","kind":"ferry","name":"Favignana-Marettimo","sort_rank":355,"landuse_kind":"nature_reserve","min_zoom":8.0,"id":287513176},"arcs":[153]},{"type":"LineString","properties":{"source":"openstreetmap.org","kind":"ferry","name":"Levanzo - Marettimo","sort_rank":355,"landuse_kind":"nature_reserve","min_zoom":8.0,"id":39022959},"arcs":[154]},{"type":"MultiLineString","properties":{"source":"openstreetmap.org","kind":"ferry","name":"Trapani - Cagliari","sort_rank":355,"landuse_kind":"urban_area","min_zoom":8.0,"id":118486261},"arcs":[[155],[156]]},{"type":"LineString","properties":{"kind":"ferry","network":"e-road","sort_rank":355,"source":"openstreetmap.org","min_zoom":8.0,"all_networks":["e-road"],"shield_text":"25","all_shield_texts":["25"],"name":"Cagliari - Palermo"},"arcs":[157]}]},"earth":{"type":"GeometryCollection","geometries":[{"type":"MultiPolygon","properties":{"sort_rank":10,"source":"naturalearthdata.com","min_zoom":0.0,"kind":"earth","area":17428684329},"arcs":[[[158]],[[159]],[[160]]]}]},"landuse":{"type":"GeometryCollection","geometries":[{"type":"MultiPolygon","properties":{"source":"openstreetmap.org","kind":"nature_reserve","tier":2,"area":1117785597,"sort_rank":23,"min_zoom":6.0,"osm_relation":true},"arcs":[[[161],[162],[163],[164],[165],[166],[167]]]},{"type":"MultiPolygon","properties":{"source":"naturalearthdata.com","kind":"urban_area","name":"","area":686908907,"sort_rank":11,"min_zoom":4.0},"arcs":[[[168]],[[169]]]},{"type":"Polygon","properties":{"source":"openstreetmap.org","kind":"protected_area","tier":2,"area":779830538,"sort_rank":17,"min_zoom":6.0},"arcs":[[170]]},{"type":"Polygon","properties":{"source":"openstreetmap.org","kind":"protected_area","tier":2,"area":122842917,"sort_rank":17,"min_zoom":8.0,"osm_relation":true},"arcs":[[171],[172],[173]]},{"type":"Polygon","properties":{"kind":"protected_area","area":272822016,"sort_rank":17,"source":"openstreetmap.org","min_zoom":6.0,"tier":2,"id":-1405742,"osm_relation":true},"arcs":[[174],[175],[176],[177]]},{"type":"Polygon","properties":{"source":"openstreetmap.org","kind":"residential","area":11191600,"tier":2,"id":333292113,"min_zoom":8.0,"sort_rank":20},"arcs":[[178]]},{"type":"MultiPolygon","properties":{"source":"openstreetmap.org","kind":"nature_reserve","tier":2,"area":126896981,"sort_rank":23,"min_zoom":8.0,"osm_relation":true},"arcs":[[[179]],[[180]]]}]}},"type":"Topology","transform":{"translate":[11.25,37.7185903256],"scale":[0.0003433228,0.0002695314]},"arcs":[[[4096,2450],[-173,-63],[-540,-426],[-366,-105],[-861,-103],[-231,-78],[-159,-114],[-125,-151],[-80,-179],[-33,-243],[19,-146],[84,-267],[168,-239],[158,-115],[426,-221]],[[4096,1372],[-50,-49],[-95,-38],[-85,21],[-45,-19],[-121,-160],[-84,-20],[89,-14],[-16,-33],[-33,26],[8,-56],[-40,-42],[6,-118],[-111,-167],[81,-127],[-62,-98],[12,-73],[-22,-41],[-60,-25],[-5,6],[16,17],[2,18],[-2,2],[-59,-72],[31,-70],[-5,39],[64,-75],[49,-117],[-4,-87]],[[3474,281],[4,-13]],[[3640,622],[-3,-8]],[[3708,1111]],[[3708,1111],[-3,-1],[-8,-1]],[[3702,1109],[-5,-1]],[[3704,1109],[-7,-1]],[[3704,1109],[-7,-1]],[[3706,1110]],[[3706,1110],[-2,-1]],[[3704,1109],[-7,-1]],[[3706,1110],[-2,-1]],[[3704,1109],[-2,0]],[[3708,1111],[-3,-1],[-3,-1]],[[3702,1109],[6,2]],[[3708,1111],[-6,-2]],[[3706,1110],[4,1]],[[3710,1111],[30,-5],[47,-91]],[[3787,1015],[4,-5]],[[3791,1010],[-129,-143],[-12,-83],[26,-95],[-36,-67]],[[3637,614],[-90,-243],[-77,-52],[4,-38]],[[3478,268],[99,-148],[125,-120]],[[3708,1111],[-1,-1]],[[3707,1110],[-1,0]],[[3707,1110],[3,1]],[[3706,1110],[-9,-1]],[[3702,1109],[-5,-1]],[[3704,1109],[-7,-1]],[[3704,1109],[-7,-1]],[[3706,1110]],[[3706,1110],[-2,-1]],[[3704,1109],[-7,-1]],[[3706,1110],[-4,0]],[[3706,1110],[-2,-1]],[[3704,1109],[-2,0]],[[3708,1111],[-3,-1],[-3,-1]],[[3702,1109],[6,2]],[[3708,1111],[-6,-2]],[[3708,1111]],[[3708,1111],[-2,-1]],[[3709,1111],[-3,-1]],[[3708,1111],[-1,-1]],[[3707,1110],[-1,0]],[[3714,1112],[-7,-2]],[[4096,927],[-60,61],[-135,49],[-62,-3],[-125,78]],[[3714,1112],[-6,-1]],[[4096,1435],[-13,-51],[-38,-45],[-88,-63],[-94,34],[-77,-62],[-77,-87],[-89,-37],[33,-38],[-4,-53],[-18,-61],[-18,-99],[-68,-140],[-7,-8],[-2,-4],[3,-26],[8,-33],[26,-41],[6,-18],[-3,-32],[-15,-68],[-7,-3],[-21,-102],[6,-11],[-13,-14],[-42,-27],[-5,15],[-50,-25],[-1,-45],[27,-51],[34,-44],[25,-43],[8,-45],[4,-49],[13,-55],[2,-4],[-3541,0],[0,4096],[4096,0],[0,-2661]],[[3120,823],[-20,22],[-26,-5],[-24,-14],[-30,-10],[-40,4],[16,-39],[27,-28],[34,-8],[43,22],[35,-26],[46,-19],[45,3],[33,42],[-41,6],[-53,23],[-45,27]],[[2372,993],[-31,23],[-52,-5],[-16,-25],[20,-40],[30,-48],[50,-36],[42,-2],[-4,36],[-16,29],[-23,68]],[[4096,1435],[-13,-51],[-38,-45],[-88,-63],[-94,34],[-77,-62],[-77,-87],[-89,-37],[33,-38],[-4,-53],[-18,-61],[-18,-99],[-68,-140],[-7,-8],[-2,-4],[3,-26],[8,-33],[26,-41],[6,-18],[-3,-32],[-15,-68],[-7,-3],[-21,-102],[6,-11],[-13,-14],[-42,-27],[-5,15],[-50,-25],[-1,-45],[27,-51],[34,-44],[25,-43],[8,-45],[4,-49],[13,-55],[2,-4]],[[2980,820],[16,-39],[27,-28],[34,-8],[43,22],[35,-26],[46,-19],[45,3],[33,42],[-41,6],[-53,23],[-45,27],[-20,22],[-26,-5],[-24,-14],[-30,-10],[-40,4]],[[2395,925],[-23,68],[-31,23],[-52,-5],[-16,-25],[20,-40],[30,-48],[50,-36],[42,-2],[-4,36],[-16,29]],[[3489,271],[20,-32]],[[3581,536],[15,-1]],[[3459,242],[-7,30]],[[3651,1073],[-179,-74]],[[3650,1072],[26,21]],[[3489,271],[0,-2]],[[464,0],[1032,1148],[2600,828]],[[0,2657],[3507,-1583],[143,-5]],[[3651,665],[66,-83],[-31,-166],[-53,-127]],[[3362,1069],[-119,-74],[-62,-1]],[[3653,1084],[-16,-25],[-141,-43],[-168,-318],[-56,-63],[-211,-635]],[[3520,222],[191,-222]],[[3181,994],[-49,-197]],[[3288,685],[106,-381],[48,-74],[17,12]],[[4096,1976],[-2571,-819],[-1055,-1157]],[[3652,1082],[-36,-20],[-28,20],[-1,40],[127,176],[293,222],[89,80]],[[3472,999],[-340,-205]],[[3665,1079],[-3,-2]],[[3547,278],[39,4]],[[3759,1072],[28,-47]],[[3762,1079],[1,1]],[[3763,1080],[12,1],[19,1]],[[3763,1078],[0,2]],[[3763,1080]],[[3792,1015],[11,-55]],[[3798,1083],[-4,-1]],[[3794,1082],[4,0]],[[3802,1083],[-3,0]],[[3799,1082],[3,1]],[[3802,1083],[32,-4]],[[3834,1079],[4,-1]],[[3838,1079],[-4,0]],[[3844,1099],[17,19]],[[3844,1099],[-1,-2]],[[3798,1083],[-1,-1],[1,0],[1,1],[-1,0]],[[3662,1076],[4,2]],[[4062,1208],[-94,-27],[-43,-52],[-51,3]],[[4096,1189],[-33,18]],[[3674,1093],[-23,-20]],[[3509,239],[11,-17]],[[3651,1073],[-289,-4]],[[3673,1093],[-21,-11]],[[3659,750],[14,-65],[-19,-17]],[[4006,4096],[-3615,-4096]],[[3787,1025],[5,-10]],[[3586,282],[46,5]],[[3632,287],[1,0],[0,2],[-1,-2]],[[3706,589],[1,-1]],[[3706,590],[2,-3],[3,1]],[[3711,588],[4,1],[1,0],[2,-3]],[[3714,594],[-3,-6]],[[3711,588],[-1,-1]],[[3711,587],[7,-1]],[[3718,586],[-2,2]],[[3803,960],[7,-14]],[[3810,946],[0,-7]],[[3861,1118],[10,11]],[[3871,1129],[1,2]],[[3872,1131],[-1,-2]],[[3660,1096],[-7,-12]],[[3872,1131]],[[4063,1207],[-1,1]],[[3841,1082],[2,13]],[[3841,1077],[33,-14]],[[3873,1067],[-32,12]],[[3657,751],[-5,15]],[[3652,766],[-3,5],[7,5]],[[3656,776],[53,40],[1,0],[183,41],[4,2]],[[3897,859],[56,31]],[[3953,890],[12,7],[1,0],[63,9]],[[4025,907],[-29,-2],[-30,-7],[-1,-1],[-12,-7]],[[3953,890],[-53,-30],[-3,-1]],[[3897,859],[-76,-6],[-20,-1],[-10,-2],[-82,-34],[-45,-21],[-8,-19]],[[3656,776],[-4,-10]],[[3652,766],[-1,-3],[7,-14]],[[3132,797],[63,24],[68,-46],[25,-90]],[[3491,272],[1,0]],[[3492,272],[6,1],[49,5]],[[3491,271],[1,1]],[[3492,272]],[[3492,541],[89,-5]],[[3715,615],[0,-4]],[[3775,765],[-1,0]],[[3662,1077],[-11,-4]],[[3671,1081],[-6,-2]],[[3132,797],[48,41],[233,84],[51,61]],[[3464,983],[32,39],[154,50]],[[3841,1079],[-2,1]],[[3839,1079],[-1,-1],[2,-1],[1,2],[-2,0]],[[3843,1096],[0,-1],[0,2],[0,-1]],[[4096,880],[-109,40],[-38,32],[-33,91],[-43,24]],[[3874,1063],[42,-21],[5,-23],[27,-67],[35,-29],[24,-15]],[[4007,906],[89,-29]],[[3706,592],[0,-3]],[[3706,590],[0,2]],[[3715,611],[-9,-19]],[[3774,765],[-59,-150]],[[3810,939],[-35,-174]],[[3651,667],[0,-2],[3,3],[-3,1]],[[3652,668],[-2,1],[0,-2],[1,0],[1,1]],[[3132,797],[-64,108],[-662,14]],[[3181,994],[-31,-25],[-744,-50]],[[3650,1069],[12,7]],[[3666,1078],[5,3]],[[0,3615],[4096,-1142]],[[3120,823],[45,-27],[53,-23],[41,-6],[-33,-42],[-45,-3],[-46,19],[-35,26],[-43,-22],[-34,8],[-27,28],[-16,39],[40,-4],[30,10],[24,14],[26,5],[20,-22]],[[4096,1435],[0,-1435],[-555,0],[-2,4],[-13,55],[-4,49],[-8,45],[-25,43],[-34,44],[-27,51],[1,45],[50,25],[5,-15],[42,27],[13,14],[-6,11],[21,102],[7,3],[15,68],[3,32],[-6,18],[-26,41],[-8,33],[-3,26],[2,4],[7,8],[68,140],[18,99],[18,61],[4,53],[-33,38],[89,37],[77,87],[77,62],[94,-34],[88,63],[38,45],[13,51]],[[2411,896],[4,-36],[-42,2],[-50,36],[-30,48],[-20,40],[16,25],[52,5],[31,-23],[23,-68],[16,-29]],[[2185,1063],[29,74],[102,43],[854,-43],[316,-111],[-166,-322],[-247,-142],[-374,-6],[-165,74],[-82,-68],[-127,49],[-116,285],[-5,148],[-19,19]],[[2974,805],[46,-76],[89,23],[6,-29],[43,25],[55,-61],[41,15],[10,40],[-12,25],[-31,0],[-30,44],[-63,-29],[-47,98],[-56,-52],[-31,12],[-20,-35]],[[2266,1013],[49,-123],[137,-39],[-29,11],[-50,99],[0,57],[-107,-5]],[[3117,1047],[28,-52],[63,6],[-47,119],[-44,-73]],[[3059,730],[6,-6],[6,4],[-6,5],[-6,-3]],[[3418,1007],[1,-5],[6,-2],[2,5],[-9,2]],[[3384,1015],[8,-12],[6,-4],[-8,11],[-6,5]],[[3608,382],[-23,-105],[-95,-82],[-62,96],[1,45],[110,51],[40,216],[-40,92],[8,42],[67,-60],[50,-137],[-9,-96],[-47,-62]],[[3888,1003],[-100,-51],[-30,10],[0,41],[-135,-74],[30,157],[-33,38],[89,37],[115,118],[64,-276]],[[3088,1141],[82,-4],[316,-111],[-166,-322],[-247,-142],[-151,-3],[-223,-3],[-165,74],[-82,-68],[-127,49],[-43,105],[310,155],[-302,298],[798,-28]],[[2185,1063],[29,74],[76,32],[302,-298],[-310,-155],[-73,180],[-5,148],[-19,19]],[[2327,882],[102,-41],[37,11],[-43,10],[-50,99],[-10,40],[8,13],[-99,4],[-4,-18],[15,3],[44,-121]],[[2325,797],[-63,76],[5,-21],[58,-55]],[[2922,559],[0,497],[166,85],[82,-4],[316,-111],[-21,-40],[0,37],[-107,29],[0,-97],[96,10],[-134,-261],[-247,-142],[-151,-3]],[[2974,805],[46,-76],[89,23],[6,-29],[43,25],[55,-61],[41,15],[7,54],[-69,54],[-63,-11],[1,-18],[-21,26],[-10,38],[33,15],[-37,65],[-56,-58],[19,-18],[-64,-9],[-20,-35]],[[3084,980],[124,21],[-45,134],[-59,-48],[-20,-107]],[[3059,730],[6,-6],[6,4],[-6,5],[-6,-3]],[[3422,309],[90,45],[-7,-26],[62,-17],[-71,-8],[54,-22],[-42,-42],[-86,70]],[[3434,644],[87,57],[28,-18],[8,-62],[37,-21],[-19,-89],[-41,-55],[-51,10],[-49,178]],[[3622,962],[42,68],[-2,49],[81,-22],[12,-44],[-22,-28],[-98,-29],[45,-36],[-23,-34],[-35,76]]]}