{"objects":{"water":{"type":"GeometryCollection","geometries":[]},"buildings":{"type":"GeometryCollection","geometries":[]},"places":{"type":"GeometryCollection","geometries":[{"type":"Point","properties":{"kind":"region","name:en":"Baghlan","name":"\u0628\u063a\u0644\u0627\u0646","name:lt":"Baglano provincija","kind_detail":"state","min_zoom":4.0,"name:de":"Baglan","source":"openstreetmap.org","name:fr":"Baghl\u00e2n","name:uk":"\u0411\u0430\u0433\u043b\u0430\u043d","name:ru":"\u0411\u0430\u0433\u043b\u0430\u043d","name:hu":"Bagl\u00e1n","id":312470049,"name:ja":"\u30d0\u30b0\u30e9\u30fc\u30f3\u5dde"},"coordinates":[273,1042]},{"type":"Point","properties":{"kind":"region","name:en":"Takhar","name":"\u062a\u062e\u0627\u0631","kind_detail":"state","min_zoom":4.0,"name:de":"Tachar","source":"openstreetmap.org","name:fr":"Takh\u00e2r","name:uk":"\u0422\u0430\u0445\u0430\u0440","name:ru":"\u0422\u0430\u0445\u0430\u0440","name:pl":"Tachar","name:hu":"Tah\u00e1r","id":312470050,"name:ja":"\u30bf\u30cf\u30fc\u30eb\u5dde"},"coordinates":[2585,4082]}]},"transit":{"type":"GeometryCollection","geometries":[]},"pois":{"type":"GeometryCollection","geometries":[]},"boundaries":{"type":"GeometryCollection","geometries":[{"type":"LineString","properties":{"name:right:ja":"\u30bf\u30cf\u30fc\u30eb\u5dde","name:right:uk":"\u0422\u0430\u0445\u0430\u0440","name:left:ja":"\u30af\u30f3\u30c9\u30a5\u30fc\u30ba\u5dde","id:right":-1674541,"name:left:uk":"\u041a\u0443\u043d\u0434\u0443\u0437","min_zoom":8.0,"name:left:lt":"Kund\u016bzo provincija","name:right:fa":"\u062a\u062e\u0627\u0631","id":-1674564,"name:right":"\u062a\u062e\u0627\u0631\u200e\u200e","name:left:en":"Kunduz","sort_rank":256,"kind_detail":"4","source":"openstreetmap.org","id:left":-1674564,"name:left:ru":"\u041a\u0443\u043d\u0434\u0443\u0437","name:left":"\u06a9\u0646\u062f\u0632","name:right:ps":"\u062a\u062e\u0627\u0631 \u0648\u0644\u0627\u064a\u062a","name:right:tr":"Tahar","name:right:ru":"\u0422\u0430\u0445\u0430\u0440","name:left:ps":"\u06a9\u0646\u062f\u0648\u0632 \u0648\u0644\u0627\u064a\u062a","name:right:tg":"\u0412\u0438\u043b\u043e\u044f\u0442\u0438 \u0422\u0430\u0445\u043e\u0440","name:right:pl":"Tachar","name:right:en":"Takhar","osm_relation":true,"name:left:tg":"\u0412\u0438\u043b\u043e\u044f\u0442\u0438 \u041a\u0443\u043d\u0434\u0443\u0437","name:right:lt":"Tacharo provincija","kind":"region","name":"\u06a9\u0646\u062f\u0632 - \u062a\u062e\u0627\u0631\u200e\u200e","name:left:fa":"\u0648\u0644\u0627\u06cc\u062a \u06a9\u0646\u062f\u0632","name:right:de":"Tachar","name:left:de":"Kunduz"},"arcs":[0]},{"type":"LineString","properties":{"name:ja":"\u30af\u30f3\u30c9\u30a5\u30fc\u30ba\u5dde","name:lt":"Kund\u016bzo provincija","min_zoom":8.0,"name:uk":"\u041a\u0443\u043d\u0434\u0443\u0437","name:ru":"\u041a\u0443\u043d\u0434\u0443\u0437","id":-1674564,"osm_relation":true,"name:ps":"\u06a9\u0646\u062f\u0648\u0632 \u0648\u0644\u0627\u064a\u062a","name:fa":"\u0648\u0644\u0627\u06cc\u062a \u06a9\u0646\u062f\u0632","kind":"region","name:en":"Kunduz","name":"\u06a9\u0646\u062f\u0632","sort_rank":256,"kind_detail":"4","name:de":"Kunduz","source":"openstreetmap.org","name:tg":"\u0412\u0438\u043b\u043e\u044f\u0442\u0438 \u041a\u0443\u043d\u0434\u0443\u0437"},"arcs":[1]},{"type":"LineString","properties":{"name:right:uk":"\u0411\u0430\u0434\u0430\u0445\u0448\u0430\u043d","name:right:hr":"Provincija Badakh\u0161an","name:right:lt":"Badach\u0161anas","name:right:hi":"\u092c\u0926\u0916\u093c\u094d\u0936\u093e\u0928 \u092a\u094d\u0930\u093e\u0928\u094d\u0924","min_zoom":8.0,"name:left:lt":"Nuristano provincija","name:right:tg":"\u0412\u0438\u043b\u043e\u044f\u0442\u0438 \u0411\u0430\u0434\u0430\u0445\u0448\u043e\u043d","sort_rank":256,"source":"openstreetmap.org","name:right:ar":"\u0648\u0644\u0627\u064a\u0629 \u0628\u062f\u062e\u0634\u0627\u0646","name:right:az":"B\u0259d\u0259x\u015fan","name:left":"\u0646\u0648\u0631\u0633\u062a\u0627\u0646","name:right:es":"Provincia de Badajsh\u00e1n","name:left:ja":"\u30cc\u30fc\u30ea\u30b9\u30bf\u30fc\u30f3\u5dde","name:right:eu":"Badakhshan probintzia","name:right:et":"Badakhsh\u0101ni provints","name:right:vi":"Badakhshan","name:left:ru":"\u041d\u0443\u0440\u0438\u0441\u0442\u0430\u043d","name:right:id":"Provinsi Badakhshan","name:right:eo":"Provinco Bada\u0125\u015dan","name:right:en":"Badakhshan","name:right:el":"\u039c\u03c0\u03b1\u03bd\u03c4\u03b1\u03c7\u03c3\u03ac\u03bd","kind":"region","name:right:bn":"\u09ac\u09be\u09a6\u09be\u0996\u09b6\u09a8 \u09aa\u09cd\u09b0\u09a6\u09c7\u09b6","name":"\u0646\u0648\u0631\u0633\u062a\u0627\u0646 - \u0648\u0644\u0627\u06cc\u062a \u0628\u062f\u062e\u0634\u0627\u0646","name:left:fa":"\u0648\u0644\u0627\u06cc\u062a \u0646\u0648\u0631\u0633\u062a\u0627\u0646","name:right:bg":"\u0411\u0430\u0434\u0430\u0445\u0448\u0430\u043d","name:right:be":"\u041f\u0440\u0430\u0432\u0456\u043d\u0446\u044b\u044f \u0411\u0430\u0434\u0430\u0445\u0448\u0430\u043d","name:left:zh":"\u52aa\u5c14\u65af\u5766\u7701","name:left:fr":"Nouristan","name:right:zh":"\u5df4\u8fbe\u8d6b\u5c1a\u7701","name:right:no":"Badakhshan","name:right:nl":"Badachsjan","name:right:ja":"\u30d0\u30c0\u30d5\u30b7\u30e3\u30fc\u30f3\u5dde","name:right:fr":"Badakhchan","name:left:ur":"\u0635\u0648\u0628\u06c1 \u0646\u0648\u0631\u0633\u062a\u0627\u0646","name:right:sr":"\u041f\u0440\u043e\u0432\u0438\u043d\u0446\u0438\u0458\u0430 \u0411\u0430\u0434\u0430\u0445\u0441\u0430\u043d","name:right:su":"Propinsi Badakhshan","name:right:sv":"Badakhshan","name:left:uk":"\u041d\u0443\u0440\u0438\u0441\u0442\u0430\u043d","name:left:nl":"Nooristan","id":-1674544,"name:right":"\u0648\u0644\u0627\u06cc\u062a \u0628\u062f\u062e\u0634\u0627\u0646","name:left:en":"Nuristan","name:left:el":"\u039d\u03bf\u03c5\u03c1\u03b5\u03c3\u03c4\u03ac\u03bd","name:right:ca":"Prov\u00edncia de Badakhxan","kind_detail":"4","name:right:cy":"Badakhshan","id:left":-1674544,"name:right:cs":"Badach\u0161\u00e1n","name:right:fi":"Badah\u0161an","id:right":-1674535,"name:right:ps":"\u0628\u062f\u062e\u0634\u0627\u0646 \u0648\u0644\u0627\u064a\u062a","name:right:pt":"Badakhshan","name:right:ko":"\ubc14\ub2e4\ud750\uc0e8 \uc8fc","name:left:de":"Nuristan","name:right:th":"\u0e08\u0e31\u0e07\u0e2b\u0e27\u0e31\u0e14\u0e1a\u0e32\u0e14\u0e31\u0e04\u0e0a\u0e32\u0e19","name:right:tr":"Badah\u015fan Vilayeti","name:left:ps":"\u0646\u0648\u0631\u0633\u062a\u0627\u0646 \u0648\u0644\u0627\u064a\u062a","name:right:gl":"Badaghx\u00e1n","name:right:ru":"\u0411\u0430\u0434\u0430\u0445\u0448\u0430\u043d","name:right:pl":"Badachszan","osm_relation":true,"name:left:tg":"\u0412\u0438\u043b\u043e\u044f\u0442\u0438 \u041d\u0443\u0440\u0438\u0441\u0442\u043e\u043d","name:right:de":"Badachschan","name:right:da":"Badakhshan"},"arcs":[2]},{"type":"LineString","properties":{"name:nl":"Nooristan","name:ps":"\u0646\u0648\u0631\u0633\u062a\u0627\u0646 \u0648\u0644\u0627\u064a\u062a","name:lt":"Nuristano provincija","name:el":"\u039d\u03bf\u03c5\u03c1\u03b5\u03c3\u03c4\u03ac\u03bd","name:ur":"\u0635\u0648\u0628\u06c1 \u0646\u0648\u0631\u0633\u062a\u0627\u0646","min_zoom":8.0,"name:tg":"\u0412\u0438\u043b\u043e\u044f\u0442\u0438 \u041d\u0443\u0440\u0438\u0441\u0442\u043e\u043d","name:uk":"\u041d\u0443\u0440\u0438\u0441\u0442\u0430\u043d","name:ru":"\u041d\u0443\u0440\u0438\u0441\u0442\u0430\u043d","id":-1674544,"osm_relation":true,"name:ja":"\u30cc\u30fc\u30ea\u30b9\u30bf\u30fc\u30f3\u5dde","name:fa":"\u0648\u0644\u0627\u06cc\u062a \u0646\u0648\u0631\u0633\u062a\u0627\u0646","kind":"region","name:en":"Nuristan","name":"\u0646\u0648\u0631\u0633\u062a\u0627\u0646","sort_rank":256,"kind_detail":"4","name:de":"Nuristan","source":"openstreetmap.org","name:fr":"Nouristan","name:zh":"\u52aa\u5c14\u65af\u5766\u7701"},"arcs":[3]},{"type":"MultiLineString","properties":{"name:right:no":"Badakhshan","name:right:nl":"Badachsjan","name:right:ja":"\u30d0\u30c0\u30d5\u30b7\u30e3\u30fc\u30f3\u5dde","name:right:fr":"Badakhchan","name:right:uk":"\u0411\u0430\u0434\u0430\u0445\u0448\u0430\u043d","name:right:hr":"Provincija Badakh\u0161an","name:left:ja":"\u30bf\u30cf\u30fc\u30eb\u5dde","name:right:su":"Propinsi Badakhshan","name:right:sv":"Badakhshan","name:right:lt":"Badach\u0161anas","name:right:hi":"\u092c\u0926\u0916\u093c\u094d\u0936\u093e\u0928 \u092a\u094d\u0930\u093e\u0928\u094d\u0924","min_zoom":8.0,"name:left:lt":"Tacharo provincija","id":-1674541,"name:right":"\u0648\u0644\u0627\u06cc\u062a \u0628\u062f\u062e\u0634\u0627\u0646","name:right:id":"Provinsi Badakhshan","name:left:en":"Takhar","name:right:ca":"Prov\u00edncia de Badakhxan","name:right:eo":"Provinco Bada\u0125\u015dan","name:right:cy":"Badakhshan","source":"openstreetmap.org","name:right:ar":"\u0648\u0644\u0627\u064a\u0629 \u0628\u062f\u062e\u0634\u0627\u0646","id:left":-1674541,"name:right:cs":"Badach\u0161\u00e1n","name:right:fi":"Badah\u0161an","id:right":-1674535,"name:right:az":"B\u0259d\u0259x\u015fan","name:left":"\u062a\u062e\u0627\u0631\u200e\u200e","name:right:es":"Provincia de Badajsh\u00e1n","name:right:ps":"\u0628\u062f\u062e\u0634\u0627\u0646 \u0648\u0644\u0627\u064a\u062a","name:right:pt":"Badakhshan","name:right:eu":"Badakhshan probintzia","name:right:et":"Badakhsh\u0101ni provints","name:left:pl":"Tachar","name:left:tr":"Tahar","name:right:tr":"Badah\u015fan Vilayeti","name:right:vi":"Badakhshan","name:left:de":"Tachar","name:right:th":"\u0e08\u0e31\u0e07\u0e2b\u0e27\u0e31\u0e14\u0e1a\u0e32\u0e14\u0e31\u0e04\u0e0a\u0e32\u0e19","name:right:ko":"\ubc14\ub2e4\ud750\uc0e8 \uc8fc","name:left:ps":"\u062a\u062e\u0627\u0631 \u0648\u0644\u0627\u064a\u062a","name:right:gl":"Badaghx\u00e1n","name:right:bg":"\u0411\u0430\u0434\u0430\u0445\u0448\u0430\u043d","name:right:tg":"\u0412\u0438\u043b\u043e\u044f\u0442\u0438 \u0411\u0430\u0434\u0430\u0445\u0448\u043e\u043d","name:right:pl":"Badachszan","name:right:en":"Badakhshan","osm_relation":true,"name:right:el":"\u039c\u03c0\u03b1\u03bd\u03c4\u03b1\u03c7\u03c3\u03ac\u03bd","name:left:tg":"\u0412\u0438\u043b\u043e\u044f\u0442\u0438 \u0422\u0430\u0445\u043e\u0440","name:left:uk":"\u0422\u0430\u0445\u0430\u0440","kind":"region","name:right:bn":"\u09ac\u09be\u09a6\u09be\u0996\u09b6\u09a8 \u09aa\u09cd\u09b0\u09a6\u09c7\u09b6","name":"\u062a\u062e\u0627\u0631\u200e\u200e - \u0648\u0644\u0627\u06cc\u062a \u0628\u062f\u062e\u0634\u0627\u0646","name:left:fa":"\u062a\u062e\u0627\u0631","name:right:de":"Badachschan","name:right:ru":"\u0411\u0430\u0434\u0430\u0445\u0448\u0430\u043d","name:right:da":"Badakhshan","name:right:be":"\u041f\u0440\u0430\u0432\u0456\u043d\u0446\u044b\u044f \u0411\u0430\u0434\u0430\u0445\u0448\u0430\u043d","sort_rank":256,"name:right:sr":"\u041f\u0440\u043e\u0432\u0438\u043d\u0446\u0438\u0458\u0430 \u0411\u0430\u0434\u0430\u0445\u0441\u0430\u043d","kind_detail":"4","name:right:zh":"\u5df4\u8fbe\u8d6b\u5c1a\u7701","name:left:ru":"\u0422\u0430\u0445\u0430\u0440"},"arcs":[[4],[5]]},{"type":"LineString","properties":{"name:ja":"\u30bf\u30cf\u30fc\u30eb\u5dde","name:lt":"Tacharo provincija","name:tr":"Tahar","min_zoom":8.0,"name:uk":"\u0422\u0430\u0445\u0430\u0440","name:ru":"\u0422\u0430\u0445\u0430\u0440","name:pl":"Tachar","id":-1674541,"osm_relation":true,"name:ps":"\u062a\u062e\u0627\u0631 \u0648\u0644\u0627\u064a\u062a","name:fa":"\u062a\u062e\u0627\u0631","kind":"region","name:en":"Takhar","name":"\u062a\u062e\u0627\u0631\u200e\u200e","sort_rank":256,"kind_detail":"4","name:de":"Tachar","source":"openstreetmap.org","name:tg":"\u0412\u0438\u043b\u043e\u044f\u0442\u0438 \u0422\u0430\u0445\u043e\u0440"},"arcs":[6]},{"type":"LineString","properties":{"name:pt":"Badakhshan","name:az":"B\u0259d\u0259x\u015fan","name:ps":"\u0628\u062f\u062e\u0634\u0627\u0646 \u0648\u0644\u0627\u064a\u062a","name:cy":"Badakhshan","name:ko":"\ubc14\ub2e4\ud750\uc0e8 \uc8fc","name:ar":"\u0648\u0644\u0627\u064a\u0629 \u0628\u062f\u062e\u0634\u0627\u0646","name:cs":"Badach\u0161\u00e1n","name:th":"\u0e08\u0e31\u0e07\u0e2b\u0e27\u0e31\u0e14\u0e1a\u0e32\u0e14\u0e31\u0e04\u0e0a\u0e32\u0e19","name:vi":"Badakhshan","name:ru":"\u0411\u0430\u0434\u0430\u0445\u0448\u0430\u043d","name:pl":"Badachszan","id":-1674535,"name:ca":"Prov\u00edncia de Badakhxan","name:id":"Provinsi Badakhshan","name:lt":"Badach\u0161anas","sort_rank":256,"name:fi":"Badah\u0161an","name:da":"Badakhshan","name:de":"Badachschan","source":"openstreetmap.org","name:fr":"Badakhchan","name:be":"\u041f\u0440\u0430\u0432\u0456\u043d\u0446\u044b\u044f \u0411\u0430\u0434\u0430\u0445\u0448\u0430\u043d","name:tg":"\u0412\u0438\u043b\u043e\u044f\u0442\u0438 \u0411\u0430\u0434\u0430\u0445\u0448\u043e\u043d","name:nl":"Badachsjan","name:ja":"\u30d0\u30c0\u30d5\u30b7\u30e3\u30fc\u30f3\u5dde","name:tr":"Badah\u015fan Vilayeti","name:hi":"\u092c\u0926\u0916\u093c\u094d\u0936\u093e\u0928 \u092a\u094d\u0930\u093e\u0928\u094d\u0924","name:uk":"\u0411\u0430\u0434\u0430\u0445\u0448\u0430\u043d","kind":"region","name:bn":"\u09ac\u09be\u09a6\u09be\u0996\u09b6\u09a8 \u09aa\u09cd\u09b0\u09a6\u09c7\u09b6","name:no":"Badakhshan","name:sv":"Badakhshan","name:su":"Propinsi Badakhshan","name:bg":"\u0411\u0430\u0434\u0430\u0445\u0448\u0430\u043d","name:hr":"Provincija Badakh\u0161an","name:sr":"\u041f\u0440\u043e\u0432\u0438\u043d\u0446\u0438\u0458\u0430 \u0411\u0430\u0434\u0430\u0445\u0441\u0430\u043d","osm_relation":true,"name:el":"\u039c\u03c0\u03b1\u03bd\u03c4\u03b1\u03c7\u03c3\u03ac\u03bd","name:eo":"Provinco Bada\u0125\u015dan","name:en":"Badakhshan","name":"\u0648\u0644\u0627\u06cc\u062a \u0628\u062f\u062e\u0634\u0627\u0646","name:zh":"\u5df4\u8fbe\u8d6b\u5c1a\u7701","min_zoom":8.0,"name:gl":"Badaghx\u00e1n","kind_detail":"4","name:eu":"Badakhshan probintzia","name:et":"Badakhsh\u0101ni provints","name:es":"Provincia de Badajsh\u00e1n"},"arcs":[7]}]},"roads":{"type":"GeometryCollection","geometries":[{"type":"MultiLineString","properties":{"sort_rank":380,"kind_detail":"primary","min_zoom":8.0,"kind":"major_road","source":"openstreetmap.org"},"arcs":[[8],[9],[10],[11],[12],[13],[14],[15],[16]]},{"type":"LineString","properties":{"source":"openstreetmap.org","kind":"major_road","sort_rank":380,"kind_detail":"primary","ref":"Nahrain-Bahglan road","min_zoom":8.0},"arcs":[17]},{"type":"LineString","properties":{"kind":"major_road","network":"AsianHighway","sort_rank":381,"kind_detail":"trunk","source":"openstreetmap.org","min_zoom":8.0,"shield_text":"7","ref":"A76"},"arcs":[18]},{"type":"MultiLineString","properties":{"source":"openstreetmap.org","kind":"major_road","network":"AsianHighway","sort_rank":380,"kind_detail":"primary","min_zoom":8.0,"shield_text":"7"},"arcs":[[19],[20]]}]},"earth":{"type":"GeometryCollection","geometries":[{"type":"Polygon","properties":{"sort_rank":10,"source":"naturalearthdata.com","kind":"earth","min_zoom":0.0,"id":4731},"arcs":[[21]]}]},"landuse":{"type":"GeometryCollection","geometries":[]}},"type":"Topology","transform":{"translate":[68.90625,35.4606699515],"scale":[0.0003433228,0.0002776414]},"arcs":[[[881,3027],[73,196],[-115,216],[-42,138],[21,62],[-30,18],[-4,87],[76,112],[133,2],[-6,163],[-29,75]],[[0,3516],[48,36],[54,-11],[59,-92],[53,31],[127,-44],[37,10],[111,-57],[-15,-73],[-91,-150],[28,-28],[81,35],[169,7],[117,-48],[39,-64],[64,-41]],[[4096,733],[-59,-43],[-83,4],[-37,37]],[[3917,731],[-59,8],[-28,-101],[15,-231],[-90,-30],[-60,22],[-13,-58],[30,-101],[-18,-64],[-96,-141],[-87,-22],[1,37],[-94,18],[-50,-68]],[[4096,3116],[-226,-14],[-133,40],[-126,223],[-97,31],[-36,80],[-32,11],[-27,83],[49,78],[50,17],[14,104],[-41,43],[2,81],[32,51],[-48,152]],[[3926,1494],[170,77]],[[881,3027],[21,-54],[177,-108],[59,-101],[22,55],[60,15],[53,-31],[51,41],[128,-37],[52,31],[82,-2],[93,109],[192,52],[161,118],[64,-8],[137,124],[32,1],[66,-130],[-10,-228],[90,-110],[45,0],[48,42],[50,-101],[5,-319],[-35,-88],[34,-5],[9,-50],[66,-2],[97,-57],[40,-77],[44,-24],[42,-79],[-6,-32],[54,-9],[-5,-115],[79,-87],[-6,-58],[50,-16],[1,-36],[75,-27],[-1,-88],[-60,-129],[30,-49],[-12,-43],[83,-152],[58,16],[133,122],[203,6],[40,75],[91,46],[55,163],[148,-95],[60,-2]],[[3926,1494],[62,-88],[7,-56],[-12,-180],[-34,-109],[25,-182],[-19,-121],[-38,-27]],[[2,3786],[342,310]],[[482,2151],[82,8]],[[564,2159],[98,20]],[[567,2173],[-3,-14]],[[567,2174],[11,51],[47,18],[19,39],[68,469],[105,12],[71,73]],[[2518,0],[245,179],[77,108],[7,74],[56,25],[50,68],[68,13],[125,76]],[[3183,573],[114,64],[134,200],[191,116],[79,91]],[[567,2174],[0,-1],[0,1]],[[888,2836],[1,0],[0,1],[-1,0],[0,-1]],[[0,2239],[145,-24],[38,-56],[112,-53],[73,-1],[114,46]],[[0,451],[94,-358],[70,-64],[15,-29]],[[0,3753],[6,-85],[-6,-9]],[[0,3517],[44,-45],[-44,-67]],[[0,4096],[4096,0],[0,-4096],[-4096,0],[0,4096]]]}