{"objects":{"water":{"type":"GeometryCollection","geometries":[]},"buildings":{"type":"GeometryCollection","geometries":[]},"places":{"type":"GeometryCollection","geometries":[{"type":"Point","properties":{"kind":"region","name:en":"Panjshir","name":"\u067e\u0646\u062c\u0634\u06cc\u0631","kind_detail":"state","min_zoom":4.0,"name:de":"Panjshir","source":"openstreetmap.org","name:fr":"Panshir","int_name":"Pandjchir;Panjsher","name:uk":"\u041f\u0430\u043d\u0434\u0436\u0448\u0435\u0440","name:ru":"\u041f\u0430\u043d\u0434\u0436\u0448\u0435\u0440","name:pl":"Pand\u017cszir","name:hu":"Pandzssir","id":2278921325,"name:ja":"\u30d1\u30f3\u30b8\u30b7\u30fc\u30eb\u5dde"},"coordinates":[2583,4001]},{"type":"Point","properties":{"kind":"region","name:en":"Parwan","name":"\u067e\u0631\u0648\u0627\u0646","kind_detail":"state","min_zoom":4.0,"name:de":"Parwan","source":"openstreetmap.org","name:fr":"Parw\u00e2n","name:uk":"\u041f\u0430\u0440\u0432\u0430\u043d","name:ru":"\u041f\u0430\u0440\u0432\u0430\u043d","name:hu":"Parv\u00e1n","id":312470059,"name:ja":"\u30d1\u30eb\u30f4\u30a1\u30fc\u30f3\u5dde"},"coordinates":[25,2388]},{"type":"Point","properties":{"kind":"region","name:en":"Kabul","name":"\u06a9\u0627\u0628\u0644","kind_detail":"state","min_zoom":4.0,"name:de":"Kabul","source":"openstreetmap.org","name:fr":"Kaboul","name:uk":"\u041a\u0430\u0431\u0443\u043b","name:ru":"\u041a\u0430\u0431\u0443\u043b","name:hu":"Kabul","id":1732058641,"name:ja":"\u30ab\u30fc\u30d6\u30eb\u5dde"},"coordinates":[1487,685]},{"type":"Point","properties":{"kind":"region","name:en":"Kapisa","name":"\u06a9\u0627\u067e\u064a\u0633\u0627","kind_detail":"state","min_zoom":4.0,"source":"openstreetmap.org","name:fr":"K\u00e2p\u00eess\u00e2","name:uk":"\u041a\u0430\u043f\u0456\u0441\u0430","name:ru":"\u041a\u0430\u043f\u0438\u0441\u0430","name:hu":"K\u00e1pisz\u00e1","id":1732058689,"name:ja":"\u30ab\u30fc\u30d4\u30fc\u30b5\u30fc\u5dde"},"coordinates":[2433,2125]},{"type":"Point","properties":{"kind":"region","name:en":"Laghman","name":"\u0644\u063a\u0645\u0627\u0646","kind_detail":"state","min_zoom":4.0,"name:de":"Laghman","source":"openstreetmap.org","name:fr":"Laghm\u00e2n","name:uk":"\u041b\u0430\u0433\u043c\u0430\u043d","name:ru":"\u041b\u0430\u0433\u043c\u0430\u043d","name:hu":"Laghman","id":312470029,"name:ja":"\u30e9\u30b0\u30de\u30fc\u30f3\u5dde"},"coordinates":[3720,1691]},{"type":"Point","properties":{"kind":"region","name:en":"Kapisa","name":"\u06a9\u0627\u067e\u064a\u0633\u0627","kind_detail":"state","name:ar":"\u0643\u0627\u0628\u064a\u0633\u0627","name:de":"Kapisa","source":"openstreetmap.org","min_zoom":4.0,"name:ru":"\u041a\u0430\u043f\u0438\u0441\u0430","name:hu":"K\u00e1pisz\u00e1","id":312470058},"coordinates":[2433,2125]},{"type":"Point","properties":{"name:pt":"Cabul","name:ka":"\u10e5\u10d0\u10d1\u10e3\u10da\u10d8","name:ko":"\uce74\ubd88","name:cv":"\u041a\u0430\u0431\u0443\u043b","name:km":"\u1791\u17b8\u1780\u17d2\u179a\u17bb\u1784\u1780\u17b6\u1794\u17bc\u179b","name:cs":"K\u00e1bul","name:tt":"\u041a\u0430\u0431\u0443\u043b","name:tr":"K\u00e2bil","min_zoom":8.0,"int_name":"Kabul","name:be":"\u041a\u0430\u0431\u0443\u043b","name:os":"\u041a\u0430\u0431\u0443\u043b","name:ce":"\u041a\u0430\u0431\u0443\u043b","name:ta":"\u0b95\u0bbe\u0baa\u0bc2\u0bb2\u0bcd","name:tg":"\u041a\u043e\u0431\u0443\u043b","name:vi":"Kabul","name:da":"Kabul","name:de":"Kabul","source":"openstreetmap.org","name:kn":"\u0c95\u0cbe\u0cac\u0cc1\u0cb2\u0ccd","admin_level":"2","name:lv":"Kabula","name:lt":"Kabulas","name:hi":"\u0915\u093e\u092c\u0941\u0932","name:he":"\u05e7\u05d0\u05d1\u05d5\u05dc","kind":"locality","name:lb":"Kabul","name:la":"Cabura","name:uk":"\u041a\u0430\u0431\u0443\u043b","name:hy":"\u0554\u0561\u0562\u0578\u0582\u056c","country_capital":true,"name:ug":"\u0643\u0627\u0628\u06c7\u0644","name:hu":"Kabul","name:hr":"Kabul","name:oc":"Kabol","population":3289000,"name:el":"\u039a\u03b1\u03bc\u03c0\u03bf\u03cd\u03bb","name:eo":"Kabulo","name:en":"Kabul","name":"\u06a9\u0627\u0628\u0644","name:ku":"Kab\u00fbl","name:th":"\u0e04\u0e32\u0e1a\u0e39\u0e25","name:yi":"\u05e7\u05d0\u05d1\u05d5\u05dc","name:et":"Kabul","name:nl":"Kaboel","name:az":"Kabil","name:id":"Kabul, Afganistan","name:mr":"\u0915\u093e\u092c\u0941\u0932","name:ar":"\u0643\u0627\u0628\u0644","name:is":"Kab\u00fal","name:am":"\u12ab\u1261\u120d","name:it":"Kabul","name:ml":"\u0d15\u0d3e\u0d2c\u0d42\u0d7e","name:ru":"\u041a\u0430\u0431\u0443\u043b","name:mn":"\u041a\u0430\u0431\u0443\u043b","id":21716195,"name:mk":"\u041a\u0430\u0431\u0443\u043b","name:af":"Kaboel","name:fa":"\u0643\u0627\u0628\u0644","kind_detail":"city","name:fr":"Kaboul","name:zh-yue":"\u5580\u5e03\u723e","name:fy":"Kab\u00fbl","name:zh":"\u5580\u5e03\u723e","name:sl":"Kabul","name:sk":"K\u00e1bul","name:ja":"\u30ab\u30fc\u30d6\u30eb","name:ne":"\u0915\u093e\u092c\u0941\u0932","name:br":"Kaboul","name:bn":"\u0995\u09be\u09ac\u09c1\u09b2","name:bo":"\u0f41\u0f0b\u0f54\u0f74\u0f63\u0f0d","name:sv":"Kabul","name:bg":"\u041a\u0430\u0431\u0443\u043b","name:sr":"\u041a\u0430\u0431\u0443\u043b","name:sq":"Kabuli","name:ga":"Cab\u00fal","name:ht":"Kaboul","name:gl":"Cabul - \u06a9\u0627\u0628\u0644","name:pl":"Kabul"},"coordinates":[791,777]},{"type":"Point","properties":{"int_name":"Charikar","name:ja":"\u30c1\u30e3\u30fc\u30ea\u30fc\u30ab\u30fc\u30eb","name:lt":"\u010carikaras","name:ar":"\u062c\u0627\u0631\u064a\u0643\u0627\u0631","min_zoom":8.0,"name:uk":"\u0427\u0430\u0440\u0456\u043a\u0430\u0440","name:ru":"\u0427\u0430\u0440\u0438\u043a\u0430\u0440","name:pl":"Czarikar","id":313181470,"population":34900,"kind":"locality","name:en":"Charikar","name":"\u0686\u0627\u0631\u06cc\u06a9\u0627\u0631","kind_detail":"city","name:de":"Charikar","source":"openstreetmap.org","name:fr":"Charikar","name:et":"Ch\u0101r\u012bk\u0101r"},"coordinates":[780,2507]}]},"transit":{"type":"GeometryCollection","geometries":[]},"pois":{"type":"GeometryCollection","geometries":[{"type":"Point","properties":{"source":"openstreetmap.org","kind":"military","name":"Bagram Air Base","area":17651100,"tier":3,"min_zoom":8.0,"id":350142690},"coordinates":[1055,2247]}]},"boundaries":{"type":"GeometryCollection","geometries":[{"type":"LineString","properties":{"name:right:ja":"\u30ab\u30fc\u30d6\u30eb\u5dde","name:left:ar":"\u0648\u0631\u062f\u0643","name:right:uk":"\u041a\u0430\u0431\u0443\u043b","name:left:tr":"Vardak","name:left:ja":"\u30f4\u30a1\u30eb\u30c0\u30af\u5dde","id:right":-1674876,"name:left:uk":"\u0412\u0430\u0440\u0434\u0430\u043a","min_zoom":8.0,"name:left:lt":"Vardako provincija","id:left":-1759757,"name:left:ps":"\u0645\u064a\u062f\u0627\u0646 \u0648\u0631\u062f\u06af \u0648\u0644\u0627\u064a\u062a","name:right:ru":"\u041a\u0430\u0431\u0443\u043b","id":-1759757,"osm_relation":true,"name:right":"\u0643\u0627\u0628\u0644","name:right:lt":"Kabulo provincija","kind":"region","name":"\u0645\u064a\u062f\u0627\u0646 \u0648\u0631\u062f\u06af - \u0643\u0627\u0628\u0644","name:left:fa":"\u0648\u0644\u0627\u06cc\u062a \u0648\u0631\u062f\u06a9","sort_rank":256,"kind_detail":"4","name:left:de":"Wardak","name:right:en":"Kabul","name:left:en":"Maidan Wardak","source":"openstreetmap.org","name:right:de":"Kabul","name:right:cs":"K\u00e1bul","name:left:tg":"\u0412\u0438\u043b\u043e\u044f\u0442\u0438 \u0412\u0430\u0440\u0434\u0430\u043a","name:left:ru":"\u0412\u0430\u0440\u0434\u0430\u043a","name:left":"\u0645\u064a\u062f\u0627\u0646 \u0648\u0631\u062f\u06af"},"arcs":[0]},{"type":"LineString","properties":{"name:right:nl":"Lowgar","name:right:ja":"\u30ed\u30fc\u30ac\u30eb\u5dde","name:right:fr":"L\u00f4gar","name:right:uk":"\u041b\u043e\u0433\u0430\u0440","name:left:ja":"\u30f4\u30a1\u30eb\u30c0\u30af\u5dde","id:right":-1674874,"name:right:lt":"Logaro provincija","name:right:hi":"\u0932\u094b\u0917\u0930 \u092a\u094d\u0930\u093e\u0928\u094d\u0924","min_zoom":8.0,"name:left:lt":"Vardako provincija","alt_name:right:en":"Logar Province","name:left:ps":"\u0645\u064a\u062f\u0627\u0646 \u0648\u0631\u062f\u06af \u0648\u0644\u0627\u064a\u062a","name:right:fa":"\u0648\u0644\u0627\u06cc\u062a \u0644\u0648\u06af\u0631","name:right:uz":"Luvgar","id":-1759757,"name:right":"\u0644\u0648\u06ab\u0631","name:left:en":"Maidan Wardak","sort_rank":256,"kind_detail":"4","source":"openstreetmap.org","name:right:ar":"\u0648\u0644\u0627\u064a\u0629 \u0644\u0648\u0643\u0631","id:left":-1759757,"name:left":"\u0645\u064a\u062f\u0627\u0646 \u0648\u0631\u062f\u06af","name:right:ps":"\u0644\u0648\u06af\u0631 \u0648\u0644\u0627\u064a\u062a","name:left:ar":"\u0648\u0631\u062f\u0643","name:left:tr":"Vardak","name:right:tr":"Lovgar","name:right:ru":"\u041b\u043e\u0433\u0430\u0440","name:left:ru":"\u0412\u0430\u0440\u0434\u0430\u043a","name:right:en":"Logar","osm_relation":true,"name:left:tg":"\u0412\u0438\u043b\u043e\u044f\u0442\u0438 \u0412\u0430\u0440\u0434\u0430\u043a","name:left:uk":"\u0412\u0430\u0440\u0434\u0430\u043a","kind":"region","name":"\u0645\u064a\u062f\u0627\u0646 \u0648\u0631\u062f\u06af - \u0644\u0648\u06ab\u0631","name:left:fa":"\u0648\u0644\u0627\u06cc\u062a \u0648\u0631\u062f\u06a9","name:right:de":"Lugar","name:right:ur":"\u0635\u0648\u0628\u06c1 \u0644\u0648\u06af\u0631","name:left:de":"Wardak"},"arcs":[1]},{"type":"MultiLineString","properties":{"name:right:nl":"Lowgar","name:right:ja":"\u30ed\u30fc\u30ac\u30eb\u5dde","name:right:fr":"L\u00f4gar","name:right:uk":"\u041b\u043e\u0433\u0430\u0440","name:left:ja":"\u30ab\u30fc\u30d6\u30eb\u5dde","id:right":-1674874,"name:right:lt":"Logaro provincija","name:right:hi":"\u0932\u094b\u0917\u0930 \u092a\u094d\u0930\u093e\u0928\u094d\u0924","min_zoom":8.0,"name:left:lt":"Kabulo provincija","alt_name:right:en":"Logar Province","name:right:fa":"\u0648\u0644\u0627\u06cc\u062a \u0644\u0648\u06af\u0631","name:right:uz":"Luvgar","id":-1674876,"name:right":"\u0644\u0648\u06ab\u0631","name:left:en":"Kabul","sort_rank":256,"kind_detail":"4","source":"openstreetmap.org","name:right:ar":"\u0648\u0644\u0627\u064a\u0629 \u0644\u0648\u0643\u0631","id:left":-1674876,"name:left:cs":"K\u00e1bul","name:left":"\u0643\u0627\u0628\u0644","name:right:ps":"\u0644\u0648\u06af\u0631 \u0648\u0644\u0627\u064a\u062a","name:right:tr":"Lovgar","name:right:ru":"\u041b\u043e\u0433\u0430\u0440","name:left:ru":"\u041a\u0430\u0431\u0443\u043b","name:right:en":"Logar","osm_relation":true,"name:left:uk":"\u041a\u0430\u0431\u0443\u043b","kind":"region","name":"\u0643\u0627\u0628\u0644 - \u0644\u0648\u06ab\u0631","name:right:ur":"\u0635\u0648\u0628\u06c1 \u0644\u0648\u06af\u0631","name:right:de":"Lugar","name:left:de":"Kabul"},"arcs":[[2],[3],[4],[5]]},{"type":"LineString","properties":{"name:right:ja":"\u30ca\u30f3\u30ac\u30eb\u30cf\u30fc\u30eb\u5dde","name:right:uk":"\u041d\u0430\u043d\u0433\u0430\u0440\u0445\u0430\u0440","name:left:ja":"\u30ab\u30fc\u30d6\u30eb\u5dde","id:right":-1674770,"name:right:lt":"Nangarharo provincija","name:right:ur":"\u0635\u0648\u0628\u06c1 \u0646\u0646\u06af\u0631\u06c1\u0627\u0631","min_zoom":8.0,"name:right:ps":"\u0646\u0646\u06af\u0631\u0647\u0627\u0631 \u0648\u0644\u0627\u064a\u062a","name:left:lt":"Kabulo provincija","id:left":-1674876,"name:right:fa":"\u0648\u0644\u0627\u06cc\u062a \u0646\u0646\u06af\u0631\u0647\u0627\u0631","name:right:ru":"\u041d\u0430\u043d\u0433\u0430\u0440\u0445\u0430\u0440","id":-1674876,"osm_relation":true,"name:right":"\u0646\u0646\u06af\u0631\u0647\u0627\u0631","name:left:uk":"\u041a\u0430\u0431\u0443\u043b","kind":"region","name":"\u0643\u0627\u0628\u0644 - \u0646\u0646\u06af\u0631\u0647\u0627\u0631","source":"openstreetmap.org","sort_rank":256,"kind_detail":"4","name:left:de":"Kabul","name:right:en":"Nangarhar","name:left:en":"Kabul","name:right:ar":"\u0646\u0646\u0643\u0631\u0647\u0627\u0631","name:right:de":"Nangarhar","name:left:ru":"\u041a\u0430\u0431\u0443\u043b","name:left:cs":"K\u00e1bul","name:left":"\u0643\u0627\u0628\u0644"},"arcs":[6]},{"type":"LineString","properties":{"name:right:ja":"\u30e9\u30b0\u30de\u30fc\u30f3\u5dde","name:right:uk":"\u041b\u0430\u0433\u043c\u0430\u043d","name:left:ja":"\u30ab\u30fc\u30d6\u30eb\u5dde","id:right":-1674766,"name:right:lt":"Lagmano provincija","name:right:hi":"\u0932\u0917\u093c\u092e\u093e\u0928 \u092a\u094d\u0930\u093e\u0928\u094d\u0924","min_zoom":8.0,"name:right:ps":"\u0644\u063a\u0645\u0627\u0646 \u0648\u0644\u0627\u064a\u062a","name:left:lt":"Kabulo provincija","id:left":-1674876,"name:right:fa":"\u0648\u0644\u0627\u06cc\u062a \u0644\u063a\u0645\u0627\u0646","name:right:ru":"\u041b\u0430\u0433\u043c\u0430\u043d","id":-1674876,"osm_relation":true,"name:right":"\u0644\u063a\u0645\u0627\u0646","name:left:uk":"\u041a\u0430\u0431\u0443\u043b","kind":"region","name:right:tg":"\u0412\u0438\u043b\u043e\u044f\u0442\u0438 \u041b\u0430\u0493\u043c\u043e\u043d","name":"\u0643\u0627\u0628\u0644 - \u0644\u063a\u0645\u0627\u0646","name:right:ur":"\u0635\u0648\u0628\u06c1 \u0644\u063a\u0645\u0627\u0646","sort_rank":256,"kind_detail":"4","name:left:de":"Kabul","name:right:en":"Laghman","name:left:en":"Kabul","source":"openstreetmap.org","name:right:de":"Laghman","name:left:ru":"\u041a\u0430\u0431\u0443\u043b","name:right:el":"\u039b\u03b1\u03b3\u03ba\u03bc\u03ac\u03bd","name:left:cs":"K\u00e1bul","name:left":"\u0643\u0627\u0628\u0644"},"arcs":[7]},{"type":"LineString","properties":{"kind":"region","name:en":"Kabul","name":"\u0643\u0627\u0628\u0644","name:lt":"Kabulo provincija","sort_rank":256,"kind_detail":"4","name:cs":"K\u00e1bul","name:de":"Kabul","source":"openstreetmap.org","min_zoom":8.0,"name:uk":"\u041a\u0430\u0431\u0443\u043b","name:ru":"\u041a\u0430\u0431\u0443\u043b","id":-1674876,"osm_relation":true,"name:ja":"\u30ab\u30fc\u30d6\u30eb\u5dde"},"arcs":[8]},{"type":"LineString","properties":{"name:right:ja":"\u30e9\u30b0\u30de\u30fc\u30f3\u5dde","name:right:uk":"\u041b\u0430\u0433\u043c\u0430\u043d","name:left:ur":"\u0635\u0648\u0628\u06c1 \u0646\u0646\u06af\u0631\u06c1\u0627\u0631","name:left:ja":"\u30ca\u30f3\u30ac\u30eb\u30cf\u30fc\u30eb\u5dde","id:right":-1674766,"name:left:uk":"\u041d\u0430\u043d\u0433\u0430\u0440\u0445\u0430\u0440","name:right:ur":"\u0635\u0648\u0628\u06c1 \u0644\u063a\u0645\u0627\u0646","min_zoom":8.0,"name:left:lt":"Nangarharo provincija","name:left:ps":"\u0646\u0646\u06af\u0631\u0647\u0627\u0631 \u0648\u0644\u0627\u064a\u062a","name:right:fa":"\u0648\u0644\u0627\u06cc\u062a \u0644\u063a\u0645\u0627\u0646","id":-1674770,"name:right":"\u0644\u063a\u0645\u0627\u0646","name:left:en":"Nangarhar","sort_rank":256,"kind_detail":"4","source":"openstreetmap.org","id:left":-1674770,"name:left":"\u0646\u0646\u06af\u0631\u0647\u0627\u0631","name:right:ps":"\u0644\u063a\u0645\u0627\u0646 \u0648\u0644\u0627\u064a\u062a","name:left:ar":"\u0646\u0646\u0643\u0631\u0647\u0627\u0631","name:right:ru":"\u041b\u0430\u0433\u043c\u0430\u043d","name:left:ru":"\u041d\u0430\u043d\u0433\u0430\u0440\u0445\u0430\u0440","name:right:tg":"\u0412\u0438\u043b\u043e\u044f\u0442\u0438 \u041b\u0430\u0493\u043c\u043e\u043d","name:right:en":"Laghman","osm_relation":true,"name:right:el":"\u039b\u03b1\u03b3\u03ba\u03bc\u03ac\u03bd","name:right:lt":"Lagmano provincija","kind":"region","name":"\u0646\u0646\u06af\u0631\u0647\u0627\u0631 - \u0644\u063a\u0645\u0627\u0646","name:right:hi":"\u0932\u0917\u093c\u092e\u093e\u0928 \u092a\u094d\u0930\u093e\u0928\u094d\u0924","name:right:de":"Laghman","name:left:fa":"\u0648\u0644\u0627\u06cc\u062a \u0646\u0646\u06af\u0631\u0647\u0627\u0631","name:left:de":"Nangarhar"},"arcs":[9]},{"type":"LineString","properties":{"name:right:nl":"Nooristan","name:right:ja":"\u30cc\u30fc\u30ea\u30b9\u30bf\u30fc\u30f3\u5dde","name:right:fr":"Nouristan","name:left:hi":"\u0932\u0917\u093c\u092e\u093e\u0928 \u092a\u094d\u0930\u093e\u0928\u094d\u0924","name:right:uk":"\u041d\u0443\u0440\u0438\u0441\u0442\u0430\u043d","name:left:ur":"\u0635\u0648\u0628\u06c1 \u0644\u063a\u0645\u0627\u0646","name:left:ja":"\u30e9\u30b0\u30de\u30fc\u30f3\u5dde","id:right":-1674544,"name:left:uk":"\u041b\u0430\u0433\u043c\u0430\u043d","name:right:ur":"\u0635\u0648\u0628\u06c1 \u0646\u0648\u0631\u0633\u062a\u0627\u0646","min_zoom":8.0,"name:left:lt":"Lagmano provincija","name:right:fa":"\u0648\u0644\u0627\u06cc\u062a \u0646\u0648\u0631\u0633\u062a\u0627\u0646","id":-1674766,"name:right":"\u0646\u0648\u0631\u0633\u062a\u0627\u0646","name:left:en":"Laghman","name:left:el":"\u039b\u03b1\u03b3\u03ba\u03bc\u03ac\u03bd","sort_rank":256,"kind_detail":"4","source":"openstreetmap.org","id:left":-1674766,"name:left:ru":"\u041b\u0430\u0433\u043c\u0430\u043d","name:right:el":"\u039d\u03bf\u03c5\u03c1\u03b5\u03c3\u03c4\u03ac\u03bd","name:left":"\u0644\u063a\u0645\u0627\u0646","name:right:ps":"\u0646\u0648\u0631\u0633\u062a\u0627\u0646 \u0648\u0644\u0627\u064a\u062a","name:right:ru":"\u041d\u0443\u0440\u0438\u0441\u0442\u0430\u043d","name:left:ps":"\u0644\u063a\u0645\u0627\u0646 \u0648\u0644\u0627\u064a\u062a","name:right:tg":"\u0412\u0438\u043b\u043e\u044f\u0442\u0438 \u041d\u0443\u0440\u0438\u0441\u0442\u043e\u043d","name:right:en":"Nuristan","osm_relation":true,"name:left:tg":"\u0412\u0438\u043b\u043e\u044f\u0442\u0438 \u041b\u0430\u0493\u043c\u043e\u043d","name:right:lt":"Nuristano provincija","kind":"region","name":"\u0644\u063a\u0645\u0627\u0646 - \u0646\u0648\u0631\u0633\u062a\u0627\u0646","name:left:fa":"\u0648\u0644\u0627\u06cc\u062a \u0644\u063a\u0645\u0627\u0646","name:right:de":"Nuristan","name:left:de":"Laghman","name:right:zh":"\u52aa\u5c14\u65af\u5766\u7701"},"arcs":[10]},{"type":"LineString","properties":{"name:ps":"\u0644\u063a\u0645\u0627\u0646 \u0648\u0644\u0627\u064a\u062a","name:lt":"Lagmano provincija","name:hi":"\u0932\u0917\u093c\u092e\u093e\u0928 \u092a\u094d\u0930\u093e\u0928\u094d\u0924","name:ur":"\u0635\u0648\u0628\u06c1 \u0644\u063a\u0645\u0627\u0646","min_zoom":8.0,"name:uk":"\u041b\u0430\u0433\u043c\u0430\u043d","name:ru":"\u041b\u0430\u0433\u043c\u0430\u043d","id":-1674766,"osm_relation":true,"name:ja":"\u30e9\u30b0\u30de\u30fc\u30f3\u5dde","name:fa":"\u0648\u0644\u0627\u06cc\u062a \u0644\u063a\u0645\u0627\u0646","kind":"region","name:en":"Laghman","name":"\u0644\u063a\u0645\u0627\u0646","sort_rank":256,"kind_detail":"4","name:de":"Laghman","source":"openstreetmap.org","name:tg":"\u0412\u0438\u043b\u043e\u044f\u0442\u0438 \u041b\u0430\u0493\u043c\u043e\u043d","name:el":"\u039b\u03b1\u03b3\u03ba\u03bc\u03ac\u03bd"},"arcs":[11]},{"type":"LineString","properties":{"name:nl":"Nooristan","name:ps":"\u0646\u0648\u0631\u0633\u062a\u0627\u0646 \u0648\u0644\u0627\u064a\u062a","name:lt":"Nuristano provincija","name:el":"\u039d\u03bf\u03c5\u03c1\u03b5\u03c3\u03c4\u03ac\u03bd","name:ur":"\u0635\u0648\u0628\u06c1 \u0646\u0648\u0631\u0633\u062a\u0627\u0646","min_zoom":8.0,"name:tg":"\u0412\u0438\u043b\u043e\u044f\u0442\u0438 \u041d\u0443\u0440\u0438\u0441\u0442\u043e\u043d","name:uk":"\u041d\u0443\u0440\u0438\u0441\u0442\u0430\u043d","name:ru":"\u041d\u0443\u0440\u0438\u0441\u0442\u0430\u043d","id":-1674544,"osm_relation":true,"name:ja":"\u30cc\u30fc\u30ea\u30b9\u30bf\u30fc\u30f3\u5dde","name:fa":"\u0648\u0644\u0627\u06cc\u062a \u0646\u0648\u0631\u0633\u062a\u0627\u0646","kind":"region","name:en":"Nuristan","name":"\u0646\u0648\u0631\u0633\u062a\u0627\u0646","sort_rank":256,"kind_detail":"4","name:de":"Nuristan","source":"openstreetmap.org","name:fr":"Nouristan","name:zh":"\u52aa\u5c14\u65af\u5766\u7701"},"arcs":[12]}]},"roads":{"type":"GeometryCollection","geometries":[{"type":"MultiLineString","properties":{"sort_rank":380,"kind_detail":"primary","min_zoom":8.0,"kind":"major_road","source":"openstreetmap.org"},"arcs":[[13],[14],[15],[16],[17],[18],[19],[20],[21],[22],[23],[24],[25],[26],[27],[28],[29],[30],[31],[32],[33],[34],[35],[36],[37],[38],[39],[40],[41],[42],[43],[44],[45],[46],[47],[48],[49],[50],[51],[52],[53],[54],[55],[56],[57],[58],[59],[60],[61],[62],[63],[64],[65],[66],[67],[68],[69],[70],[71],[72],[73],[74],[75],[76],[77],[78],[79],[80],[81],[82],[83],[84],[85],[86],[87],[88],[89],[90],[91],[92],[93],[94],[95],[96],[97],[98],[99],[100]]},{"type":"MultiLineString","properties":{"sort_rank":381,"source":"openstreetmap.org","min_zoom":8.0,"kind":"major_road","kind_detail":"trunk"},"arcs":[[101],[102],[103],[104],[105],[106],[107],[108],[109],[110],[111],[112],[113],[114]]},{"type":"MultiLineString","properties":{"kind":"major_road","network":"AsianHighway","sort_rank":381,"landuse_kind":"urban_area","source":"openstreetmap.org","min_zoom":8.0,"kind_detail":"trunk","shield_text":"7","ref":"A76"},"arcs":[[115],[116]]},{"type":"LineString","properties":{"kind":"major_road","int_name":"Pashtunistan Sq.","sort_rank":381,"kind_detail":"trunk","source":"openstreetmap.org","min_zoom":8.0,"landuse_kind":"residential","ref":"A1","id":198674927},"arcs":[117]},{"type":"LineString","properties":{"kind":"major_road","name:en":"Asmayi Road","sort_rank":381,"kind_detail":"trunk","source":"openstreetmap.org","min_zoom":8.0,"landuse_kind":"residential","ref":"A1","id":425671082},"arcs":[118]},{"type":"MultiLineString","properties":{"source":"openstreetmap.org","kind":"major_road","landuse_kind":"military","sort_rank":380,"kind_detail":"primary","min_zoom":8.0},"arcs":[[119],[120],[121]]},{"type":"LineString","properties":{"kind":"major_road","name:en":"Salang Tunnel","network":"AsianHighway","sort_rank":381,"kind_detail":"trunk","source":"openstreetmap.org","min_zoom":8.0,"shield_text":"7","name:ru":"Tunnel' Salang","ref":"A76","id":154569134},"arcs":[122]},{"type":"LineString","properties":{"source":"openstreetmap.org","kind":"major_road","sort_rank":380,"kind_detail":"primary","ref":"From dosarak going to Khogyani","min_zoom":8.0,"id":28126928},"arcs":[123]},{"type":"LineString","properties":{"kind":"major_road","sort_rank":380,"kind_detail":"primary","is_bicycle_related":true,"cycleway":"lane","source":"openstreetmap.org","min_zoom":8.0,"ref":"28","id":350103831},"arcs":[124]},{"type":"LineString","properties":{"kind":"major_road","sort_rank":380,"kind_detail":"primary","is_bicycle_related":true,"cycleway":"lane","source":"openstreetmap.org","min_zoom":8.0,"landuse_kind":"residential","ref":"28","id":350103831},"arcs":[125]},{"type":"LineString","properties":{"source":"openstreetmap.org","kind":"major_road","sort_rank":381,"kind_detail":"trunk","ref":"Kabul Jalalabad High way","min_zoom":8.0},"arcs":[126]},{"type":"MultiLineString","properties":{"source":"openstreetmap.org","kind":"major_road","sort_rank":380,"kind_detail":"primary","ref":"A-77","min_zoom":8.0},"arcs":[[127],[128]]},{"type":"MultiLineString","properties":{"source":"openstreetmap.org","kind":"major_road","landuse_kind":"residential","sort_rank":381,"kind_detail":"trunk","ref":"A76","min_zoom":8.0},"arcs":[[129],[130]]},{"type":"LineString","properties":{"kind":"major_road","int_name":"Hesarak High road\u062d\u0635\u0627\u0631\u06a9 \u0644\u0648\u064a\u0627 \u0644\u0627\u0631\u0647","sort_rank":380,"landuse_kind":"residential","source":"openstreetmap.org","min_zoom":8.0,"kind_detail":"primary","id":377671925},"arcs":[131]},{"type":"LineString","properties":{"source":"openstreetmap.org","kind":"major_road","sort_rank":380,"kind_detail":"primary","ref":"Toward Khogayni","min_zoom":8.0},"arcs":[132]},{"type":"MultiLineString","properties":{"kind":"major_road","network":"AsianHighway","sort_rank":380,"kind_detail":"primary","source":"openstreetmap.org","min_zoom":8.0,"landuse_kind":"residential","shield_text":"7"},"arcs":[[133],[134],[135],[136]]},{"type":"MultiLineString","properties":{"source":"openstreetmap.org","kind":"major_road","landuse_kind":"residential","sort_rank":381,"kind_detail":"trunk","ref":"A1","min_zoom":8.0},"arcs":[[137],[138],[139],[140],[141],[142],[143],[144]]},{"type":"MultiLineString","properties":{"kind":"major_road","network":"AsianHighway","sort_rank":381,"kind_detail":"trunk","source":"openstreetmap.org","min_zoom":8.0,"landuse_kind":"residential","shield_text":"7","ref":"A1"},"arcs":[[145],[146]]},{"type":"MultiLineString","properties":{"kind":"major_road","network":"AsianHighway","sort_rank":381,"kind_detail":"trunk","source":"openstreetmap.org","min_zoom":8.0,"shield_text":"7","ref":"A1"},"arcs":[[147],[148]]},{"type":"MultiLineString","properties":{"source":"openstreetmap.org","kind":"major_road","network":"AsianHighway","sort_rank":381,"kind_detail":"trunk","min_zoom":8.0,"shield_text":"7"},"arcs":[[149],[150],[151],[152],[153],[154]]},{"type":"MultiLineString","properties":{"source":"openstreetmap.org","kind":"major_road","int_name":"Hesarak High road\u062d\u0635\u0627\u0631\u06a9 \u0644\u0648\u064a\u0627 \u0644\u0627\u0631\u0647","sort_rank":380,"kind_detail":"primary","min_zoom":8.0},"arcs":[[155],[156]]},{"type":"LineString","properties":{"kind":"major_road","sort_rank":380,"landuse_kind":"residential","source":"openstreetmap.org","min_zoom":8.0,"kind_detail":"primary","ref":"Toward Khogayni","id":377358356},"arcs":[157]},{"type":"MultiLineString","properties":{"source":"openstreetmap.org","kind":"major_road","sort_rank":381,"kind_detail":"trunk","ref":"A1","min_zoom":8.0},"arcs":[[158],[159],[160],[161],[162],[163],[164],[165],[166]]},{"type":"MultiLineString","properties":{"kind":"major_road","network":"AsianHighway","sort_rank":381,"kind_detail":"trunk","source":"openstreetmap.org","min_zoom":8.0,"shield_text":"7","ref":"A76"},"arcs":[[167],[168],[169],[170],[171],[172],[173],[174],[175],[176],[177],[178],[179],[180],[181],[182],[183],[184]]},{"type":"MultiLineString","properties":{"kind":"major_road","network":"AsianHighway","sort_rank":381,"kind_detail":"trunk","source":"openstreetmap.org","min_zoom":8.0,"landuse_kind":"residential","shield_text":"7","ref":"A76"},"arcs":[[185],[186],[187],[188],[189],[190],[191],[192],[193],[194],[195],[196],[197],[198],[199],[200],[201],[202],[203],[204],[205],[206]]},{"type":"MultiLineString","properties":{"source":"openstreetmap.org","kind":"major_road","landuse_kind":"residential","sort_rank":381,"kind_detail":"trunk","min_zoom":8.0},"arcs":[[207],[208],[209],[210],[211],[212],[213],[214],[215],[216],[217],[218],[219],[220],[221],[222],[223],[224]]},{"type":"MultiLineString","properties":{"source":"openstreetmap.org","kind":"major_road","landuse_kind":"residential","sort_rank":380,"kind_detail":"primary","min_zoom":8.0},"arcs":[[225],[226],[227],[228],[229],[230],[231],[232],[233],[234],[235],[236],[237],[238],[239],[240],[241],[242],[243],[244],[245],[246],[247],[248],[249],[250],[251],[252],[253],[254],[255],[256],[257],[258],[259],[260],[261],[262],[263],[264],[265],[266]]},{"type":"MultiLineString","properties":{"source":"openstreetmap.org","kind":"major_road","sort_rank":381,"kind_detail":"trunk","ref":"A76","min_zoom":8.0},"arcs":[[267],[268],[269],[270]]},{"type":"LineString","properties":{"kind":"major_road","int_name":"Malik Ashgar Sq.","sort_rank":381,"landuse_kind":"residential","source":"openstreetmap.org","min_zoom":8.0,"kind_detail":"trunk","id":385682006},"arcs":[271]},{"type":"LineString","properties":{"kind":"major_road","network":"AsianHighway","sort_rank":381,"kind_detail":"trunk","source":"openstreetmap.org","min_zoom":8.0,"landuse_kind":"residential","shield_text":"7","id":198613072},"arcs":[272]},{"type":"MultiLineString","properties":{"source":"openstreetmap.org","kind":"major_road","name:en":"Asmayi Road","landuse_kind":"residential","sort_rank":381,"kind_detail":"trunk","min_zoom":8.0},"arcs":[[273],[274],[275]]},{"type":"MultiLineString","properties":{"source":"openstreetmap.org","kind":"major_road","network":"AsianHighway","sort_rank":380,"kind_detail":"primary","min_zoom":8.0,"shield_text":"7"},"arcs":[[276],[277],[278]]},{"type":"LineString","properties":{"source":"openstreetmap.org","kind":"major_road","sort_rank":380,"kind_detail":"primary","ref":"Kabul Jalalabad High way","min_zoom":8.0,"id":344304560},"arcs":[279]},{"type":"LineString","properties":{"source":"openstreetmap.org","kind":"major_road","name:en":"Asmayi Road","sort_rank":381,"kind_detail":"trunk","min_zoom":8.0,"id":416223727},"arcs":[280]}]},"earth":{"type":"GeometryCollection","geometries":[{"type":"Polygon","properties":{"sort_rank":10,"source":"naturalearthdata.com","kind":"earth","min_zoom":0.0,"id":4731},"arcs":[[281]]}]},"landuse":{"type":"GeometryCollection","geometries":[{"type":"MultiPolygon","properties":{"source":"openstreetmap.org","kind":"residential","tier":2,"area":274902499,"sort_rank":20,"min_zoom":8.0},"arcs":[[[282]],[[283]],[[284]],[[285]],[[286]],[[287]],[[288]]]},{"type":"MultiPolygon","properties":{"source":"naturalearthdata.com","kind":"urban_area","name":"","area":121290446,"sort_rank":11,"min_zoom":4.0},"arcs":[[[289]],[[290]],[[291]]]},{"type":"Polygon","properties":{"kind":"residential","area":12441200,"sort_rank":20,"source":"openstreetmap.org","min_zoom":8.0,"tier":2,"id":-5885623,"osm_relation":true},"arcs":[[292],[293],[294],[295],[296],[297],[298]]},{"type":"MultiPolygon","properties":{"source":"openstreetmap.org","kind":"military","tier":3,"area":29780070,"sort_rank":45,"min_zoom":8.0},"arcs":[[[299]],[[300]]]}]}},"type":"Topology","transform":{"translate":[68.90625,34.3071438563],"scale":[0.0003433228,0.0002816226]},"arcs":[[[169,108],[14,69],[-67,128],[41,91],[-46,7],[-50,80],[-61,-7]],[[49,0],[17,60],[103,48]],[[169,108],[236,-10],[28,-47],[177,-51]],[[673,0],[54,33],[64,-2],[23,-31]],[[832,0],[77,95],[107,22],[103,99],[14,-89],[45,-71],[-13,-56]],[[1200,0],[3,0]],[[2096,0],[117,146],[10,111],[191,-13],[81,57],[24,68],[218,-34]],[[2737,335],[50,136],[-13,24],[-70,13],[-15,47],[45,154],[-20,46],[32,56],[-91,102],[-22,62],[147,134],[-22,216],[46,131],[50,2],[103,67],[22,73],[42,29],[-1,80],[-67,96],[-18,137]],[[2935,1940],[-99,-121],[-106,-17],[-39,-57],[-85,-10],[-92,-65],[9,-41],[-50,-177],[-81,-118],[7,-55],[-27,-29],[-56,20],[-10,-39],[-178,-70],[-51,1],[-19,44],[-57,21],[-124,-16],[-30,-160],[-244,-68],[-19,23],[11,90],[-70,54],[-15,178],[-60,50],[-4,152],[-155,67],[-33,63],[-33,11],[-70,149],[81,114],[-19,37],[-157,25],[-164,91],[-43,-41],[-60,9],[-36,-31],[-165,94],[-208,-39],[-160,48],[-45,-93],[-89,-73],[-8,-150],[-43,-42],[-31,-176],[-8,-4]],[[4096,548],[-476,-68],[-45,-46],[-136,-37],[-152,-86],[-101,24],[-127,72],[-199,-13],[-11,-32],[-112,-27]],[[4096,2216],[-141,41],[-6,46],[-46,38],[1,53],[-64,27],[-68,84],[-4,171],[-44,26],[-11,46],[-146,13],[-24,33],[-51,-15],[-68,16],[-27,33],[-26,-46],[-75,6],[-42,107],[-27,12],[26,135],[-55,56],[0,40],[-108,101]],[[3090,3239],[-35,-70],[-42,-12],[1,-28],[-32,-16],[15,-42],[-37,-47],[-121,-60],[-69,25],[-29,-44],[-84,9],[11,-130],[-50,-95],[32,-119],[121,-60],[34,-193],[141,-151],[-18,-113],[42,-53],[1,-54],[-36,-46]],[[3368,4096],[0,-1],[11,-38],[-51,-48],[-7,-71],[-198,-115],[-66,0],[-53,-70],[-63,-5],[-7,-97],[33,-5],[17,-42],[63,-2],[42,-29],[69,-120],[-6,-93],[-59,-55],[-3,-66]],[[0,2479],[151,47],[74,64],[257,53]],[[669,2775],[3,3]],[[704,837],[-10,-15]],[[695,821],[10,15]],[[718,857],[-13,-18]],[[706,838],[13,19]],[[737,884],[-19,-26]],[[719,858],[18,26]],[[757,919],[-20,-34]],[[738,884],[21,35]],[[756,919],[1,0]],[[757,920],[1,1]],[[758,2121],[77,32],[101,69]],[[781,921],[-22,0]],[[759,919],[1,0]],[[772,2509],[50,12],[124,189],[51,30],[114,250],[27,-8],[-5,-284],[100,-76],[42,-66]],[[796,810],[-1,-5]],[[795,805],[2,5]],[[797,810],[0,1],[-1,-1],[1,0]],[[834,816],[-37,-5]],[[798,810],[36,5]],[[804,922],[7,1],[1,-1]],[[812,922],[65,-41],[-42,-65]],[[877,882],[-63,40],[-2,0]],[[812,922],[-8,0]],[[834,815],[1,-1]],[[835,814],[0,2],[-1,0]],[[834,816],[0,-1]],[[835,814],[4,-2]],[[835,816],[19,29]],[[854,845]],[[854,845],[24,36]],[[841,812],[-6,3]],[[841,727],[8,-12]],[[854,845]],[[854,845],[20,-27]],[[874,818],[-20,27]],[[854,845]],[[1199,836],[-246,7],[-61,-26]],[[893,817],[61,26],[245,-7],[42,7]],[[911,2207],[30,80],[222,137]],[[936,2222],[27,6]],[[963,2228],[-27,-6]],[[1091,967],[29,151],[-36,91],[4,160],[-26,119],[-98,147],[34,82],[-17,175],[89,128],[0,55],[-18,46],[-105,53],[-11,48]],[[963,2228],[6,0]],[[1004,886],[-3,-44]],[[1002,890],[2,-4]],[[1004,891],[-2,0]],[[1002,890],[0,1]],[[1002,891],[0,-1]],[[1004,886],[-2,4]],[[1002,891],[2,0]],[[1085,949],[-45,-59],[-36,1]],[[1091,967],[-6,-18]],[[1111,2990],[4,168],[99,89],[241,53],[12,31],[140,31],[69,94]],[[1163,2424],[69,3],[169,-77],[54,-73]],[[1275,2554],[-79,-56],[-33,-74]],[[1704,2240],[-147,11],[-50,35],[-176,230],[-55,38]],[[1677,3457]],[[1679,3461],[228,235],[186,55],[57,73],[146,46],[36,88],[90,29],[71,91],[25,18]],[[1933,2330],[-62,-7],[-70,-52]],[[1801,2271],[-25,-19],[-72,-12]],[[1704,2240],[66,42],[31,-11]],[[1801,2271],[3,-2]],[[2363,1062],[33,43],[-22,109],[-48,83],[-48,-7],[-74,235],[-44,415],[-104,290],[-96,106],[-27,-6]],[[1933,2330],[3,50],[170,231],[127,32],[104,69]],[[3410,2460],[-61,-132],[65,-64],[103,-179],[0,-127],[-36,-65],[13,-198],[41,-41],[-29,-65],[207,-261],[82,-46]],[[3798,1185],[-54,29],[39,52]],[[3795,1282],[-4,-19]],[[3791,1263],[4,19]],[[3791,1263],[31,-48],[-24,-30]],[[3799,1253],[-7,10]],[[3795,1282],[28,38]],[[3803,698],[17,400],[-22,87]],[[3825,1221],[41,-56],[54,184],[176,238]],[[4041,338],[-65,-42]],[[706,836],[0,2]],[[706,838],[-1,0],[-1,-1],[2,-1]],[[718,857],[1,0],[0,1],[-1,0],[0,-1]],[[737,884],[1,0],[-1,1]],[[737,885],[0,-1]],[[737,884]],[[877,881],[1,0],[0,1],[-1,-1]],[[963,2228]],[[1275,2555],[1,-1],[0,1],[-1,1]],[[1275,2556],[0,-1]],[[3792,1263],[-1,0]],[[3791,1263],[1,0]],[[619,728],[-2,2]],[[719,723],[0,-2]],[[1074,669],[7,0]],[[1204,674],[-123,-5]],[[1081,669],[123,4]],[[1207,717],[-3,-43]],[[1205,674],[2,43]],[[1241,843],[-19,-50],[-6,-25]],[[1217,769],[5,23],[19,46],[0,2],[0,3]],[[1241,843]],[[1241,843]],[[1241,843],[7,4],[200,89],[120,-8],[35,-17],[-2,-22],[67,-11],[33,30],[189,-23],[8,28],[61,-3],[234,143],[56,20],[32,-35],[65,73],[17,-49],[165,-68],[57,-53],[95,-153],[-4,-66],[35,-44],[308,30],[118,44],[34,-27],[114,-9],[110,-64],[352,67],[185,-54],[164,-3]],[[711,806],[-2,-1],[1,-1],[2,0],[-1,2]],[[1205,674],[-1,-1],[1,0],[0,1]],[[621,917],[-27,22]],[[598,927],[23,-13]],[[797,756],[1,0],[0,1],[-1,0],[0,-1]],[[772,741],[11,8]],[[969,2228],[26,1]],[[995,2229],[25,38]],[[995,2229],[24,-42],[31,45]],[[352,3604],[59,-56]],[[4041,338],[55,35]],[[687,0],[-11,185],[21,73],[152,199],[51,183]],[[900,640],[-10,17]],[[1248,847],[-7,-4]],[[669,2775],[-39,-49],[-68,0],[-80,-83]],[[885,2794],[-59,-6],[-55,35],[-99,-45]],[[737,786],[41,-27]],[[778,761],[-39,26]],[[3751,152],[-47,-44]],[[3976,296],[-185,-144],[-31,0]],[[625,800],[-8,-60]],[[618,740],[8,60]],[[626,800]],[[626,800],[1,0]],[[620,728],[6,-1]],[[640,727],[1,0]],[[742,723],[7,4]],[[827,759],[4,-9]],[[831,750],[-3,9]],[[839,731],[-8,19]],[[856,724],[142,-28]],[[997,696],[-9,3],[-132,25]],[[474,764],[141,-34]],[[616,731],[-137,34]],[[440,772],[34,-8]],[[479,765],[-39,9]],[[436,771],[-115,-23],[-209,-161],[-112,-137]],[[436,771],[2,1]],[[437,773],[-1,-2]],[[439,775],[-2,-1],[1,-2]],[[438,772],[2,1],[-1,2]],[[950,2893]],[[3674,81],[-126,-34],[-39,-47]],[[3704,108],[-29,-27]],[[3760,152],[-9,0]],[[626,727],[13,0]],[[641,727],[-1,0]],[[641,727],[75,-5]],[[720,721],[22,2]],[[839,731],[2,-4],[15,-3]],[[856,724],[-16,4]],[[1080,669],[-83,27]],[[998,696],[76,-27]],[[720,721],[0,1],[-1,1],[0,-2],[1,0]],[[179,4096],[85,-158],[3,-130],[85,-204]],[[411,3548],[41,-36],[8,24],[62,-33],[35,12],[145,-189],[177,-46],[71,-386]],[[758,2122],[-3,-160],[-49,-230],[-76,-145],[-20,-91],[-60,-50],[-4,-61],[-15,-36],[-14,-20]],[[517,1329],[-18,-26]],[[499,1303],[-1,-1],[12,-257]],[[520,1039],[-15,120],[3,61],[-9,83]],[[499,1303],[-1,0],[19,26]],[[517,1329],[15,20],[15,36],[4,61],[59,50],[20,91],[77,145],[49,230],[2,160]],[[689,826],[5,-5]],[[694,822],[-2,1]],[[772,2509],[-24,-123],[10,-264]],[[950,2892],[-80,-124],[-98,-258]],[[950,2893],[0,-1]],[[950,2894],[0,-1]],[[950,2892],[0,1]],[[950,2893],[0,1]],[[694,820],[1,0],[0,2],[-1,-1],[0,-1]],[[771,2509],[1,0],[-1,1],[0,-1]],[[510,1045],[0,-18],[14,-23]],[[524,1004],[13,-20]],[[537,984],[23,-35],[38,-22]],[[594,939],[-57,45]],[[537,984],[-11,9],[-2,11]],[[524,1004],[-4,35]],[[629,911],[-8,6]],[[621,914],[8,-4]],[[651,877],[-20,31]],[[651,875],[10,-27]],[[662,849],[-10,26]],[[663,847],[14,-10]],[[677,837],[-13,11]],[[679,835],[10,-9]],[[692,823],[-13,13]],[[630,908],[2,1],[-1,2],[-2,-1]],[[629,910],[1,-2]],[[651,875],[2,1],[-1,1],[-2,0],[1,-2]],[[663,849],[-1,-1],[0,-1],[2,0],[-1,2]],[[678,837],[-1,0]],[[677,837],[1,-2],[1,1]],[[679,836],[-1,1]],[[617,730],[-1,1]],[[616,728],[3,0]],[[769,745],[-22,-17]],[[749,727],[0,1]],[[780,755],[-2,0]],[[780,765],[1,-9]],[[780,755],[1,1]],[[783,749],[-3,6]],[[797,757],[-16,9]],[[781,756],[13,-3],[3,3]],[[796,756],[-6,5]],[[826,761],[-28,-4]],[[798,756],[29,4]],[[827,760],[0,-1]],[[828,759],[-1,1]],[[1216,768],[-9,-51]],[[1207,717],[10,52]],[[826,760],[1,0],[0,1],[-1,-1]],[[617,740],[-5,-37]],[[613,703],[1,8]],[[613,702],[1,9]],[[614,711],[4,29]],[[698,913],[-66,-4]],[[699,913],[-1,0]],[[698,913],[1,-1]],[[724,916],[-24,-3]],[[700,912],[24,3]],[[757,920],[-31,-4]],[[726,916],[30,3]],[[758,921],[-1,-1]],[[760,919],[40,3]],[[800,922],[4,0]],[[768,774],[16,23]],[[783,797],[-15,-23]],[[768,774],[11,-8]],[[779,766],[1,0]],[[780,766],[-1,0]],[[804,922],[-4,0]],[[800,922],[-19,-1]],[[783,797],[1,0]],[[784,797],[0,1],[-1,-1]],[[784,797],[8,-5]],[[792,792],[3,13]],[[795,805],[-3,-13]],[[829,761],[-2,0]],[[828,760],[1,1]],[[829,761],[29,39]],[[839,812],[19,-10]],[[858,803],[-17,9]],[[849,715],[41,-58]],[[858,802],[0,-2]],[[858,800],[1,1]],[[892,817],[-33,-14]],[[860,802],[33,15]],[[874,818],[3,-4]],[[877,814],[-3,4]],[[700,912],[0,1],[-1,1],[0,-2]],[[699,912],[1,0]],[[725,915],[1,1],[-1,0],[-1,0],[1,-1]],[[860,803],[-2,0],[0,-2],[2,0],[0,2]],[[695,820],[14,-15]],[[710,806],[-15,14]],[[711,804],[26,-18]],[[739,787],[-27,17]],[[780,766],[0,-1],[1,1],[-1,0]],[[615,730],[1,-2]],[[747,728],[-3,-1]],[[749,728],[23,13]],[[779,757],[-10,-12]],[[626,800]],[[694,821],[-68,-20]],[[627,800],[12,4],[40,4],[15,12]],[[1241,843],[-42,-7]],[[744,727],[-24,-5]],[[4096,4096],[0,-4096],[-4096,0],[0,4096],[4096,0]],[[3665,188],[8,43],[63,4],[-3,32],[-47,10],[82,11],[72,-29],[-58,-21],[-9,43],[-19,-4],[7,-143],[-28,-55],[-54,54],[-14,55]],[[1165,724],[2,41],[48,2],[36,42],[23,-27],[-18,-47],[32,-5],[-6,-52],[-77,-3],[3,42],[-43,7]],[[423,977],[21,20],[-19,10],[17,80],[43,-17],[13,20],[8,-43],[63,-37],[30,-84],[-18,-21],[-47,40],[-3,-31],[-23,-4],[-13,51],[-72,16]],[[363,667],[39,59],[29,-17],[-26,43],[80,14],[28,49],[-19,29],[24,4],[12,-55],[97,7],[-10,-72],[83,-5],[26,-30],[-8,-146],[-64,-40],[-24,82],[-56,-10],[-30,40],[8,-36],[-24,-20],[-79,14],[-33,86],[-53,4]],[[824,653],[12,21],[19,-38],[32,4],[-53,54],[63,87],[89,0],[2,-29],[60,-13],[0,-35],[-47,-6],[20,14],[-26,6],[10,-77],[-54,31],[-68,-43],[-56,-2],[-3,26]],[[702,768],[47,24],[8,37],[-37,28],[18,27],[54,-80],[93,16],[81,-28],[-76,-11],[-90,-88],[-39,32],[-23,-11],[18,45],[-54,9]],[[586,975],[41,12],[-23,10],[9,67],[155,-21],[-24,-57],[86,-23],[-73,-43],[-64,-97],[-65,38],[-12,101],[-30,13]],[[659,881],[-87,45],[-30,95],[37,84],[113,13],[-33,-237]],[[2607,2026],[-51,23],[-20,95],[130,0],[74,70],[55,9],[12,-76],[20,-3],[-18,-32],[-202,-86]],[[400,2656],[-49,35],[49,202],[55,-40],[1,-62],[-56,-135]],[[738,884],[22,35],[41,5],[75,-43],[-56,-65],[-1,35],[-57,-16],[-24,49]],[[821,841],[19,0],[9,12],[-12,1],[-16,-13]],[[834,892],[5,-9],[13,6],[-15,8],[-3,-5]],[[807,868],[1,-16],[7,0],[-2,15],[-6,1]],[[757,893],[1,-9],[4,-1],[3,9],[-8,1]],[[823,859],[1,-4],[7,2],[-2,4],[-6,-2]],[[821,865],[1,-4],[4,0],[0,7],[-5,-3]],[[417,852],[15,79],[42,29],[34,-80],[-4,-73],[-87,45]],[[965,2229],[22,1],[63,103],[39,-4],[28,-111],[-30,-15],[-36,27],[-29,-75],[-24,67],[-33,7]]]}