{"objects":{"water":{"type":"GeometryCollection","geometries":[]},"buildings":{"type":"GeometryCollection","geometries":[]},"places":{"type":"GeometryCollection","geometries":[]},"transit":{"type":"GeometryCollection","geometries":[]},"pois":{"type":"GeometryCollection","geometries":[]},"boundaries":{"type":"GeometryCollection","geometries":[{"type":"LineString","properties":{"kind":"region","name:en":"Krasnoyarsk Krai","name":"\u041a\u0440\u0430\u0441\u043d\u043e\u044f\u0440\u0441\u043a\u0438\u0439 \u043a\u0440\u0430\u0439","name:lt":"Krasnojarsko kra\u0161tas","sort_rank":256,"kind_detail":"4","name:cs":"Krasnojarsk\u00fd kraj","name:de":"Region Krasnojarsk","source":"openstreetmap.org","min_zoom":8.0,"name:ca":"Territori de Krasnoiarsk","id":-190090,"osm_relation":true,"name:ja":"\u30af\u30e9\u30b9\u30ce\u30e4\u30eb\u30b9\u30af\u5730\u65b9"},"arcs":[0]},{"type":"LineString","properties":{"kind":"region","name:en":"Krasnoyarsk Krai","name":"\u041a\u0440\u0430\u0441\u043d\u043e\u044f\u0440\u0441\u043a\u0438\u0439 \u043a\u0440\u0430\u0439","name:lt":"Krasnojarsko kra\u0161tas","sort_rank":256,"kind_detail":"4","name:cs":"Krasnojarsk\u00fd kraj","name:de":"Region Krasnojarsk","source":"openstreetmap.org","min_zoom":8.0,"name:ca":"Territori de Krasnoiarsk","id":-190090,"osm_relation":true,"name:ja":"\u30af\u30e9\u30b9\u30ce\u30e4\u30eb\u30b9\u30af\u5730\u65b9"},"arcs":[1]}]},"roads":{"type":"GeometryCollection","geometries":[]},"earth":{"type":"GeometryCollection","geometries":[{"type":"Polygon","properties":{"sort_rank":10,"source":"naturalearthdata.com","min_zoom":0.0,"kind":"earth","area":98022885885},"arcs":[[2]]}]},"landuse":{"type":"GeometryCollection","geometries":[]}},"type":"Topology","transform":{"translate":[94.21875,53.330872983],"scale":[0.0003433228,0.0002030178]},"arcs":[[[1163,0],[1,1],[114,37],[57,93],[62,7],[64,86],[70,7],[18,34],[61,13],[33,-27],[87,54],[125,-10],[204,48],[16,-16]],[[2075,327],[25,-44],[43,81],[107,-22],[12,-116],[118,-52],[75,140],[96,34],[60,-13],[90,97],[20,77],[190,173],[21,-33],[97,-32],[25,-40],[109,-15],[15,-114],[-75,-58],[67,-108],[85,-57],[114,24],[34,-54],[53,-24],[67,48],[-14,87],[21,21],[96,20],[92,-31],[12,53],[-25,49],[106,107],[64,-32],[221,110]],[[4096,2285],[0,-2285],[-4096,0],[0,4096],[2171,0],[1925,0],[0,-1811]]]}