{"objects":{"water":{"type":"GeometryCollection","geometries":[{"type":"Polygon","properties":{"kind":"lake","name":"Toktogul Suu Saktagychy","reservoir":true,"area":1100642176,"sort_rank":200,"source":"naturalearthdata.com","min_zoom":0.0,"id":1190},"arcs":[[95]]},{"type":"MultiLineString","properties":{"source":"naturalearthdata.com","kind":"lake","reservoir":true,"sort_rank":367,"boundary":true,"min_zoom":0.0,"id":1190},"arcs":[[96],[97]]}]},"buildings":{"type":"GeometryCollection","geometries":[]},"places":{"type":"GeometryCollection","geometries":[{"type":"Point","properties":{"name:pt":"Quirguist\u00e3o","name:cy":"Cirgistan","alt_name:el":"\u039a\u03b9\u03c1\u03b3\u03b9\u03c3\u03c4\u03ac\u03bd;\u039a\u03b9\u03c1\u03b3\u03b9\u03b6\u03c3\u03c4\u03ac\u03bd","name:ko":"\ud0a4\ub974\uae30\uc2a4\uc2a4\ud0c4","name:kn":"\u0c95\u0cbf\u0cb0\u0ccd\u0c97\u0cbf\u0cb8\u0ccd\u0ca5\u0cbe\u0ca8\u0ccd","name:km":"\u1782\u17c0\u179a\u17a0\u17d2\u1782\u17b8\u179f\u17d2\u178f\u1784\u17cb","name:cs":"Kyrgyzst\u00e1n","alt_name:eo":"Kirgizistano;Kirgizio","name:ki":"Kirigizistani","name:tr":"K\u0131rg\u0131zistan","name:ku":"Qirgizistan","name:ro":"K\u00e2rg\u00e2zstan","name:ks":"\u06a9\u0650\u0631\u06af\u0650\u0633\u062a\u0627\u0646","name:to":"Kekisiteni","name:or":"\u0b15\u0b3f\u0b30\u0b4d\u0b17\u0b3f\u0b1c\u0b3f\u0b38\u0b4d\u0b25\u0b3e\u0b28","name:pl":"Kirgistan","name:ta":"\u0b95\u0bbf\u0bb0\u0bcd\u0b95\u0bbf\u0bb8\u0bcd\u0ba4\u0bbe\u0ba9\u0bcd","name:ca":"Kirguizistan","name:te":"\u0c15\u0c3f\u0c30\u0c4d\u0c1c\u0c3f\u0c38\u0c4d\u0c24\u0c3e\u0c28\u0c4d","name:ka":"\u10e7\u10d8\u10e0\u10d2\u10d8\u10d6\u10d4\u10d7\u10d8","name:hr":"Kirgistan","name:da":"Kirgisistan","name:de":"Kirgisistan","name:dz":"\u0f40\u0f72\u0f62\u0f0b\u0f42\u0f72\u0f66\u0f0b\u0f66\u0f4f\u0f71\u0f53","source":"openstreetmap.org","name:lv":"Kirgizst\u0101na","name:lt":"Kirgiztanas","name:uz":"Qirg\u2018iziston","name:he":"\u05e7\u05d9\u05e8\u05d2\u05d9\u05d6\u05e1\u05d8\u05df","kind":"country","name:ur":"\u06a9\u0631\u063a\u0632\u0633\u062a\u0627\u0646","name:lg":"Kirigizisitaani","name:uk":"\u041a\u0438\u0440\u0433\u0438\u0437\u0441\u0442\u0430\u043d","name:hy":"\u053f\u056b\u0580\u0563\u056b\u0566\u057d\u057f\u0561\u0576","min_zoom":2.0,"name:hu":"Kirgiziszt\u00e1n","name:ln":"Kigizisit\u00e1","name:lo":"\u0e84\u0eb5\u0e81\u0eb4\u0e94\u0eaa\u0eb0\u0e96\u0eb2\u0e99","population":5543300,"name:el":"\u039a\u03b9\u03c1\u03b3\u03b9\u03b6\u03af\u03b1","name:eo":"Kirgizujo","name:en":"Kyrgyzstan","name":"\u041a\u044b\u0440\u0433\u044b\u0437\u0441\u0442\u0430\u043d","name:ee":"Kirgizstan nutome","name:gd":"C\u00ecorgastan","name:th":"\u0e04\u0e35\u0e23\u0e4c\u0e01\u0e35\u0e0b\u0e2a\u0e16\u0e32\u0e19","name:gu":"\u0a95\u0abf\u0ab0\u0acd\u0a97\u0abf\u0a9d\u0acd\u0ab8\u0acd\u0aa4\u0abe\u0aa8","name:eu":"Kirgizistan","name:et":"K\u00f5rg\u00f5zstan","name:nl":"Kirgizi\u00eb","name:es":"Kirguist\u00e1n","name:ia":"Kirghizistan","name:rm":"Kirghisistan","name:rn":"Kirigisitani","name:az":"K\u0131rq\u0131zstan","name:id":"Kirgistan","name:ms":"Kyrgyzstan","name:mr":"\u0915\u093f\u0930\u0917\u093f\u091d\u0938\u094d\u0924\u093e\u0928","name:ar":"\u0642\u0631\u063a\u064a\u0632\u0633\u062a\u0627\u0646","name:my":"\u1001\u101a\u103a\u1000\u1005\u103a\u1005\u1010\u1014\u103a","name:io":"Kirgizistan","int_name":"Kyrgyzstan","name:is":"Kirgisistan","name:am":"\u12aa\u122d\u130a\u1235\u1273\u1295","name:it":"Kirghizistan","name:vi":"Kyrgyzstan","name:ru":"\u041a\u0438\u0440\u0433\u0438\u0437\u0438\u044f","id":1700777271,"name:mk":"\u041a\u0438\u0440\u0433\u0438\u0441\u0442\u0430\u043d","name:af":"Kirgisi\u00eb","name:zu":"i-Kyrgyzstan","name:ha":"Kirgizistan","name:nn":"Kirgisistan","name:ff":"Kirgistaan","name:fi":"Kirgisia","name:hi":"\u0915\u093f\u0930\u094d\u0917\u093f\u091c\u093c\u0924\u093e\u0928","name:mg":"Kiordistan","name:fo":"Kirgisia","name:mt":"Kirgistan","alt_name:vi":"C\u01b0-r\u01a1-g\u01b0-xtan;Kirgizia","name:fr":"Kirghizstan","name:ky":"\u041a\u044b\u0440\u0433\u044b\u0437 \u0420\u0435\u0441\u043f\u0443\u0431\u043b\u0438\u043a\u0430\u0441\u044b","name:fy":"Kirgyzje","name:vo":"Kirgist\u00e4n","name:zh":"\u5409\u5c14\u5409\u65af\u65af\u5766","name:gv":"Yn Chyrgistaan","name:so":"Kirgistaan","name:sn":"Kyrgyzstan","name:sl":"Kirgizistan","name:sk":"Kirgizsko","name:ja":"\u30ad\u30eb\u30ae\u30b9","name:si":"\u0d9a\u0dd2\u0dbb\u0dca\u0d9c\u0dd2\u0dc3\u0dca\u0dad\u0dcf\u0db1\u0dba","name:fa":"\u0642\u0631\u0642\u06cc\u0632\u0633\u062a\u0627\u0646","name:sg":"Kirigizit\u00f9aan","name:se":"Kirgisistan","name:ne":"\u0915\u093f\u0930\u094d\u0917\u093f\u0938\u094d\u0925\u093e\u0928","name:br":"Kirgizstan","name:bs":"Kirgizstan","name:bm":"Kirigizisita\u014b","name:bn":"\u0995\u09bf\u09b0\u09cd\u0997\u09bf\u099c\u09bf\u09af\u09bc\u09be","name:bo":"\u0f41\u0f72\u0f62\u0f0b\u0f42\u0f72\u0f5b\u0f0b\u0f66\u0f9f\u0f71\u0f53\u0f0d","name:ml":"\u0d15\u0d3f\u0d7c\u0d17\u0d3f\u0d38\u0d4d\u0d25\u0d3e\u0d7b","name:no":"Kirgisistan","name:sw":"Kirigizistani","name:sv":"Kirgizistan","name:bg":"\u041a\u0438\u0440\u0433\u0438\u0437\u0441\u0442\u0430\u043d","name:sr":"\u041a\u0438\u0440\u0433\u0438\u0441\u0442\u0430\u043d","name:sq":"Kirgistan","name:ga":"An Chirgeast\u00e1in","alt_name:fy":"Kirgyzstan","name:gl":"Quirguicist\u00e1n","name:yo":"Or\u00edl\u1eb9\u0301\u00e8de Kuri\u1e63isitani","name:ak":"K\u025b\u025bgestan"},"coordinates":[2329,1037]},{"type":"Point","properties":{"source":"naturalearthdata.com","kind":"locality","name":"Bishkek","country_capital":true,"population":837000,"min_zoom":5.0,"id":6927},"coordinates":[2124,3716]},{"type":"Point","properties":{"source":"naturalearthdata.com","kind":"locality","name":"Oytal","population":22673,"min_zoom":7.0,"id":4083},"coordinates":[189,3795]},{"type":"Point","properties":{"source":"naturalearthdata.com","kind":"locality","name":"At Bashy","population":15601,"min_zoom":7.0,"id":2693},"coordinates":[3891,378]}]},"transit":{"type":"GeometryCollection","geometries":[{"type":"LineString","properties":{"kind":"train","description":"385\/386 \u0411\u0438\u0448\u043a\u0435\u043a - \u041d\u043e\u0432\u043e\u043a\u0443\u0437\u043d\u0435\u0446\u043a","name":"385 \u0411\u0438\u0448\u043a\u0435\u043a <=> \u041d\u043e\u0432\u043e\u043a\u0443\u0437\u043d\u0435\u0446\u043a","sort_rank":275,"name:de":"385 Bischkek 2<=>Nowokusnezk","source":"openstreetmap.org","min_zoom":6.0,"operator":"\u041a\u0422\u0416","ref":"385","osm_relation":true,"network":"\u041a\u0422\u0416"},"arcs":[94]}]},"pois":{"type":"GeometryCollection","geometries":[]},"boundaries":{"type":"GeometryCollection","geometries":[{"type":"MultiLineString","properties":{"source":"naturalearthdata.com","kind":"country","sort_rank":262,"kind_detail":"2","min_zoom":0.0,"id":83},"arcs":[[0],[1],[2],[3],[4],[5],[6],[7],[8]]},{"type":"MultiLineString","properties":{"source":"naturalearthdata.com","kind":"region","name":"Chuy - Jalal-Abad","sort_rank":256,"kind_detail":"4","min_zoom":5.5,"id":3376},"arcs":[[9],[10],[11],[12],[13],[14],[15],[16],[17]]},{"type":"MultiLineString","properties":{"source":"naturalearthdata.com","kind":"region","name":"Talas - Chuy","sort_rank":256,"kind_detail":"4","min_zoom":5.5,"id":3377},"arcs":[[18],[19],[20],[21],[22],[23],[24],[25],[26],[27],[28]]},{"type":"MultiLineString","properties":{"source":"naturalearthdata.com","kind":"region","name":"Chuy - Naryn","sort_rank":256,"kind_detail":"4","min_zoom":5.5,"id":3379},"arcs":[[29],[30],[31],[32],[33],[34],[35],[36],[37],[38],[39],[40],[41],[42],[43],[44],[45],[46],[47],[48],[49],[50],[51]]},{"type":"MultiLineString","properties":{"source":"naturalearthdata.com","kind":"region","name":"Bishkek - Chuy","sort_rank":256,"kind_detail":"4","min_zoom":5.5,"id":3386},"arcs":[[52],[53],[54],[55]]},{"type":"MultiLineString","properties":{"source":"naturalearthdata.com","kind":"region","name":"Naryn - Jalal-Abad","sort_rank":256,"kind_detail":"4","min_zoom":5.5,"id":3380},"arcs":[[56],[57],[58],[59],[60],[61],[62],[63],[64],[65],[66],[67],[68],[69],[70],[71],[72],[73],[74],[75],[76]]},{"type":"MultiLineString","properties":{"source":"naturalearthdata.com","kind":"region","name":"Chuy - Ysyk-K\u00f6l","sort_rank":256,"kind_detail":"4","min_zoom":5.5,"id":3381},"arcs":[[77],[78],[79]]},{"type":"MultiLineString","properties":{"source":"naturalearthdata.com","kind":"region","name":"Ysyk-K\u00f6l - Naryn","sort_rank":256,"kind_detail":"4","min_zoom":5.5,"id":3382},"arcs":[[80],[81],[82]]},{"type":"MultiLineString","properties":{"source":"naturalearthdata.com","kind":"region","name":"Jalal-Abad - Osh","sort_rank":256,"kind_detail":"4","min_zoom":5.5,"id":3383},"arcs":[[83],[84],[85],[86],[87],[88],[89],[90],[91],[92]]},{"type":"LineString","properties":{"source":"naturalearthdata.com","kind":"region","name":"Almaty - Zhambyl","sort_rank":256,"kind_detail":"4","min_zoom":5.0,"id":7311},"arcs":[93]}]},"roads":{"type":"GeometryCollection","geometries":[{"type":"LineString","properties":{"source":"naturalearthdata.com","kind":"highway","sort_rank":383,"kind_detail":"motorway","min_zoom":3.0,"id":18318},"arcs":[98]},{"type":"LineString","properties":{"source":"naturalearthdata.com","kind":"highway","sort_rank":383,"kind_detail":"motorway","min_zoom":5.0,"id":18372},"arcs":[99]},{"type":"MultiLineString","properties":{"source":"naturalearthdata.com","kind":"highway","kind_detail":"motorway","sort_rank":383,"landuse_kind":"urban_area","min_zoom":3.0,"id":18397},"arcs":[[100],[101]]},{"type":"MultiLineString","properties":{"source":"naturalearthdata.com","kind":"highway","sort_rank":383,"kind_detail":"motorway","min_zoom":3.0,"id":18397},"arcs":[[102],[103]]},{"type":"LineString","properties":{"source":"naturalearthdata.com","kind":"highway","sort_rank":383,"kind_detail":"motorway","min_zoom":5.0,"id":18420},"arcs":[104]},{"type":"LineString","properties":{"source":"naturalearthdata.com","kind":"highway","sort_rank":383,"kind_detail":"motorway","min_zoom":3.0,"id":18421},"arcs":[105]},{"type":"LineString","properties":{"source":"naturalearthdata.com","kind":"highway","kind_detail":"motorway","sort_rank":383,"landuse_kind":"urban_area","min_zoom":3.0,"id":18442},"arcs":[106]},{"type":"LineString","properties":{"source":"naturalearthdata.com","kind":"highway","kind_detail":"motorway","sort_rank":383,"landuse_kind":"urban_area","min_zoom":3.0,"id":18442},"arcs":[107]},{"type":"LineString","properties":{"source":"naturalearthdata.com","kind":"highway","kind_detail":"motorway","sort_rank":383,"landuse_kind":"urban_area","min_zoom":3.0,"id":18442},"arcs":[108]},{"type":"LineString","properties":{"source":"naturalearthdata.com","kind":"highway","kind_detail":"motorway","sort_rank":383,"landuse_kind":"urban_area","min_zoom":3.0,"id":18442},"arcs":[109]},{"type":"MultiLineString","properties":{"source":"naturalearthdata.com","kind":"highway","sort_rank":383,"kind_detail":"motorway","min_zoom":3.0,"id":18442},"arcs":[[110],[111],[112]]},{"type":"LineString","properties":{"source":"naturalearthdata.com","kind":"highway","kind_detail":"motorway","sort_rank":383,"landuse_kind":"urban_area","min_zoom":3.0,"id":18451},"arcs":[113]},{"type":"LineString","properties":{"source":"naturalearthdata.com","kind":"highway","kind_detail":"motorway","sort_rank":383,"landuse_kind":"urban_area","min_zoom":3.0,"id":18451},"arcs":[114]},{"type":"MultiLineString","properties":{"source":"naturalearthdata.com","kind":"highway","sort_rank":383,"kind_detail":"motorway","min_zoom":3.0,"id":18451},"arcs":[[115],[116]]},{"type":"LineString","properties":{"source":"naturalearthdata.com","kind":"highway","kind_detail":"motorway","sort_rank":383,"landuse_kind":"urban_area","min_zoom":4.0,"id":18581},"arcs":[117]},{"type":"LineString","properties":{"source":"naturalearthdata.com","kind":"highway","kind_detail":"motorway","sort_rank":383,"landuse_kind":"urban_area","min_zoom":4.0,"id":18581},"arcs":[118]},{"type":"LineString","properties":{"source":"naturalearthdata.com","kind":"highway","kind_detail":"motorway","sort_rank":383,"landuse_kind":"urban_area","min_zoom":4.0,"id":18581},"arcs":[119]},{"type":"MultiLineString","properties":{"source":"naturalearthdata.com","kind":"highway","sort_rank":383,"kind_detail":"motorway","min_zoom":4.0,"id":18581},"arcs":[[120],[121],[122]]},{"type":"LineString","properties":{"source":"naturalearthdata.com","kind":"highway","kind_detail":"motorway","sort_rank":383,"landuse_kind":"urban_area","min_zoom":3.0,"id":18672},"arcs":[123]},{"type":"LineString","properties":{"source":"naturalearthdata.com","kind":"highway","sort_rank":383,"kind_detail":"motorway","min_zoom":3.0,"id":18672},"arcs":[124]},{"type":"LineString","properties":{"source":"naturalearthdata.com","kind":"highway","sort_rank":383,"kind_detail":"motorway","min_zoom":3.0,"id":18700},"arcs":[125]},{"type":"LineString","properties":{"source":"naturalearthdata.com","kind":"highway","sort_rank":383,"kind_detail":"motorway","min_zoom":4.0,"id":18711},"arcs":[126]},{"type":"LineString","properties":{"source":"naturalearthdata.com","kind":"minor_road","sort_rank":355,"kind_detail":"tertiary","min_zoom":5.0,"id":18715},"arcs":[127]},{"type":"LineString","properties":{"source":"naturalearthdata.com","kind":"minor_road","sort_rank":355,"kind_detail":"tertiary","min_zoom":5.0,"id":18858},"arcs":[128]},{"type":"LineString","properties":{"source":"naturalearthdata.com","kind":"minor_road","sort_rank":355,"kind_detail":"tertiary","min_zoom":5.0,"id":18859},"arcs":[129]},{"type":"MultiLineString","properties":{"source":"naturalearthdata.com","kind":"highway","sort_rank":383,"kind_detail":"motorway","min_zoom":3.0,"id":19095},"arcs":[[130],[131]]},{"type":"LineString","properties":{"source":"naturalearthdata.com","kind":"highway","sort_rank":383,"kind_detail":"motorway","min_zoom":4.0,"id":19103},"arcs":[132]},{"type":"LineString","properties":{"source":"naturalearthdata.com","kind":"highway","sort_rank":383,"kind_detail":"motorway","min_zoom":4.0,"id":19265},"arcs":[133]},{"type":"LineString","properties":{"source":"naturalearthdata.com","kind":"highway","sort_rank":383,"kind_detail":"motorway","min_zoom":4.0,"id":19767},"arcs":[134]}]},"earth":{"type":"GeometryCollection","geometries":[{"type":"Polygon","properties":{"sort_rank":10,"source":"naturalearthdata.com","kind":"earth","min_zoom":0.0,"id":4746},"arcs":[[135]]}]},"landuse":{"type":"GeometryCollection","geometries":[{"type":"MultiPolygon","properties":{"source":"naturalearthdata.com","kind":"urban_area","name":"","area":2465478484,"sort_rank":11,"min_zoom":4.0},"arcs":[[[136]],[[137]],[[138]],[[139]],[[140]],[[141]],[[142]],[[143]],[[144]],[[145]],[[146]]]}]}},"type":"Topology","transform":{"translate":[73.125,40.9798980696],"scale":[0.0006866455,0.0005100073]},"arcs":[[[3029,3657],[-38,9],[-88,53],[-35,27],[-41,24],[-89,27],[-41,20],[-41,36],[-125,61],[-166,27],[-51,20],[-149,114],[-19,21]],[[772,4096],[-31,-13],[-69,-39],[-23,-20],[-16,-29],[-55,-159],[-30,-53],[-12,-28],[-5,-34],[3,-33],[18,-65],[4,-36],[-5,-30],[-39,-85],[-77,-172],[-16,-70],[-4,-74],[11,-65],[23,-62],[105,-202],[0,-1],[0,-36],[-42,-7]],[[4096,3818],[-57,17],[-57,8]],[[3982,3843],[-76,-6],[-14,-1],[-22,-6],[-17,-15],[-47,-125],[-16,-26],[-34,-35],[-42,-30],[-42,-18],[-38,-2]],[[3454,3616],[-328,42]],[[3126,3658],[-97,-1]],[[3634,3579],[-94,39],[-29,4]],[[3511,3622],[-57,-6]],[[512,2783],[-86,35],[-133,23],[-17,25],[-2,42],[5,60],[-22,26],[-34,13],[-104,7],[-26,7],[-24,14],[-29,22],[-40,17]],[[0,2237],[3,-2]],[[13,2239],[15,-1],[21,-5],[74,-28],[66,-12],[17,-6],[20,-22],[10,-6],[25,0],[16,-4],[17,-7],[26,-16],[14,-10],[9,-10],[5,-9],[6,-18],[10,-37],[4,-8],[6,-2]],[[3,2235],[10,4]],[[415,2049],[14,-1],[17,-5],[47,-19]],[[374,2038],[41,11]],[[870,2048],[12,0],[31,-6],[13,-5],[20,-11],[16,-27],[22,-82]],[[746,1979],[23,3],[12,6],[8,7],[9,12],[12,13],[7,6],[34,18],[9,3],[10,1]],[[577,2037],[20,-4],[134,-53],[15,-1]],[[493,2024],[21,1],[43,10],[20,2]],[[739,2883],[-14,0],[-14,3],[-11,6],[-8,6],[-6,6],[-5,8],[-4,9],[-9,34],[-5,7]],[[663,2962],[-7,0],[-11,-15],[-7,-18],[-3,-24],[3,-11],[2,-9],[1,-8],[-10,-23],[-36,-32]],[[535,2559],[25,0],[31,8],[88,38],[22,12],[41,55],[3,32],[9,17],[24,34],[39,37],[6,12],[4,15],[-2,23],[-3,15],[-19,26],[-16,5],[-6,0]],[[781,2888],[-42,-5]],[[595,2822],[-41,5]],[[430,2593],[55,-7],[11,-4],[39,-23]],[[291,2559],[22,3],[57,24],[25,6],[35,1]],[[225,2575],[27,-4],[18,-8],[21,-4]],[[10,2482],[20,4],[16,13],[16,22],[6,6],[6,3],[41,21],[34,10],[28,3],[28,8],[20,3]],[[0,2483],[10,-1]],[[0,2311],[1,3],[0,7],[-1,2]],[[3511,2801],[20,7],[77,50],[19,22],[5,9],[26,13]],[[3484,2893],[8,-6],[6,-8],[4,-9],[3,-10],[0,-10],[-4,-35],[-1,-11],[11,-3]],[[3326,2854],[20,0],[107,27],[23,11],[8,1]],[[2717,2890],[12,-2],[15,-7],[39,-47]],[[2541,2588],[11,2],[7,5],[-2,22],[-10,26],[-68,109],[-28,69],[16,10],[211,33],[19,9],[13,9],[7,8]],[[3254,2885],[61,-28],[11,-3]],[[3157,2850],[17,2],[41,15],[12,7],[7,6],[9,4],[11,1]],[[2877,2879],[59,-20],[221,-9]],[[2783,2834],[47,16],[20,15],[6,8],[9,4],[12,2]],[[2487,2604],[10,-1],[33,-12],[11,-3]],[[2245,2450],[9,1],[34,50],[57,77],[28,15],[114,11]],[[2183,2488],[34,-2],[8,-7],[5,-10],[2,-9],[4,-9],[9,-1]],[[1924,2448],[259,40]],[[1791,2474],[36,0],[58,-10],[15,-6],[9,-5],[15,-5]],[[1623,1847],[13,2],[16,6],[16,14],[9,13],[5,15],[-2,32],[1,15],[4,13],[12,18],[36,41],[7,15],[2,16],[-6,33],[-1,12],[1,11],[6,19],[6,13],[6,11],[19,25],[13,13],[19,13],[2,6],[-2,7],[-11,13],[-12,7],[-38,9],[-3,23],[-2,22],[27,163],[5,20],[3,2],[8,3],[9,2]],[[1270,1993],[10,-17],[4,-8],[9,-24],[4,-11],[7,-9],[14,-13],[7,-8],[16,-32],[8,-9],[9,-8],[13,-6],[10,-4],[13,0]],[[1182,1934],[29,10],[59,49]],[[1159,1935],[23,-1]],[[984,1917],[175,18]],[[1580,1875],[7,-3],[6,-4],[13,-12],[8,-5],[9,-4]],[[1476,1734],[10,7],[7,13],[7,48],[3,16],[7,12],[12,13],[42,28],[9,4],[7,0]],[[1448,1858],[6,-4],[4,-8],[3,-11],[-1,-13],[-8,-43],[0,-13],[2,-12],[4,-8],[5,-7],[5,-4],[8,-1]],[[1394,1844],[12,2],[34,12],[8,0]],[[2192,3580],[14,0],[4,5],[-5,23],[0,23],[3,24],[16,12],[9,18],[16,9],[4,10],[-4,10],[-5,9],[-19,24],[-24,25],[-12,27],[-11,36],[-4,4]],[[2174,3839],[-6,-2],[-14,-33],[-18,-23],[-28,-22],[-78,-19],[-22,-24],[16,-32],[59,-50],[22,-12],[1,-25],[-4,-17],[2,-26],[8,-17],[10,-10]],[[2169,3583],[23,-3]],[[2122,3527],[9,0],[8,11],[11,25],[19,20]],[[984,1917],[-9,-24],[-33,-49],[-10,-19],[-5,-9],[-8,-8],[-8,-4],[-10,-3],[-20,0],[-6,-2],[-5,-3],[0,-7],[4,-10],[11,-9],[10,-7],[10,-11],[33,-40],[18,-15],[16,-9],[13,-2]],[[1023,1759],[4,-1],[48,-22],[10,-7],[18,-16],[7,-4]],[[985,1686],[12,5],[11,8],[9,12],[5,11],[2,13],[-2,19],[1,5]],[[1164,1733],[6,-2],[17,-9],[34,-11],[6,-5],[6,-6],[6,-11],[5,-15],[4,-29],[0,-30],[-7,-107],[1,-10],[2,-5],[5,-3],[51,-11],[64,-3],[46,-12],[10,-5],[7,-9],[5,-17],[8,-41],[19,-156],[-1,-14],[-10,-6]],[[1110,1709],[10,2],[39,22],[5,0]],[[1448,1216],[-19,0],[-47,17],[-19,13],[-9,16],[3,29],[1,11],[-1,15],[-2,15],[-6,17],[-9,15],[-11,13],[-14,9],[-13,6],[-27,7],[-60,9]],[[1215,1408],[-11,-1],[-9,-3],[-8,-6],[-36,-34],[-8,-6],[3,-12],[6,-1],[15,-24],[21,-53],[8,-16]],[[2304,1281],[11,-1],[41,-28],[13,-13],[2,-7],[0,-11],[-5,-14],[-20,-43],[-3,-21],[-3,-64],[-4,-20],[-13,-42],[-18,-74],[-18,-55],[-8,-17],[-51,-72],[-11,-12],[-13,-9],[-43,-15],[-52,-27],[-24,-7],[-91,-14],[-21,-7],[-23,-10],[-38,-23],[-116,-41],[-15,-9],[-8,-9],[1,-15],[18,-49],[8,-15],[39,-57],[9,-9],[6,-6],[3,-5],[-2,-6],[-7,-4],[-21,-5]],[[2033,1151],[24,3],[182,78],[12,9],[3,3],[2,3],[2,5],[3,13],[4,6],[9,5],[11,5],[19,0]],[[1221,1258],[18,-6],[14,-8],[11,-10],[14,-20],[9,-7],[9,-3],[11,-2],[9,-3],[8,-5],[31,-31],[15,-9],[15,-7],[18,-2]],[[1196,1252],[25,6]],[[1991,1163],[17,-3],[15,-4],[10,-5]],[[1867,1110],[19,2],[31,16],[30,26],[15,7],[29,2]],[[1490,1162],[34,-5],[19,-8],[16,-11],[23,-21],[9,-6],[9,-2]],[[1403,1145],[17,1],[46,14],[24,2]],[[1754,1138],[79,-10],[9,-5],[11,-8],[14,-5]],[[1600,1109],[10,3],[14,9],[22,8],[34,6],[74,3]],[[1827,445],[-16,4],[-26,11],[-12,3],[-9,1]],[[1764,464],[-116,-27],[-74,-2],[-6,-2],[-39,-26],[-12,-6],[-24,-6],[-11,-5],[-9,-9],[-16,-19],[-13,-6],[-14,-1]],[[1430,355],[-12,2],[-12,0]],[[1406,357],[-11,-6],[-9,-12],[-12,-28],[-3,-13],[3,-14],[112,-93],[-2,-17],[-20,-31],[-116,-143]],[[4079,3151],[17,1]],[[3969,3161],[110,-10]],[[3658,2902],[58,36],[11,9],[6,9],[6,19],[1,6],[0,30],[4,9],[9,7],[20,2],[17,4],[19,8],[35,29],[19,12],[36,17],[14,9],[9,8],[14,33],[13,8],[20,4]],[[3658,2902],[3,-18],[20,-64],[5,-8],[6,-7],[37,-3],[11,-4],[10,-5],[9,-5],[43,-20],[9,-8],[9,-9],[23,-47],[5,-8],[8,-6],[12,-1]],[[4050,2765],[11,-1],[35,-9]],[[3868,2689],[106,7],[17,6],[8,5],[14,11],[6,9],[5,9],[4,10],[5,10],[7,8],[10,1]],[[786,313],[8,-1],[5,-4],[11,-18],[19,-24],[4,-6],[3,-7],[1,-10],[-2,-11],[-8,-13],[-123,-119],[-18,-21],[-6,-10],[-3,-9],[1,-7],[8,-4],[36,-3],[7,-4],[4,-8],[2,-10],[1,-12],[2,-12],[1,0]],[[681,212],[16,1],[21,7],[8,5],[5,8],[0,7],[-2,9],[-3,7],[-3,10],[-2,12],[6,16],[5,7],[10,4],[44,8]],[[1085,288],[15,-7],[8,-6],[1,-10],[-4,-27],[2,-18],[9,-11],[31,-24],[6,-14],[1,-19],[-2,-25],[4,-29],[6,-15],[7,-9],[137,-74]],[[859,0],[0,13],[2,15],[5,15],[13,18],[17,16],[55,39],[9,9],[78,131],[24,29],[23,3]],[[492,226],[9,-4],[8,-2]],[[366,75],[10,2],[13,6],[13,28],[10,18],[11,10],[17,13],[11,12],[27,46],[9,11],[5,5]],[[557,222],[124,-10]],[[509,220],[48,2]],[[316,123],[8,-4],[7,-8],[7,-10],[10,-19],[3,-4],[5,-3],[10,0]],[[194,0],[0,10],[6,22],[10,15],[13,14],[76,57],[9,4],[8,1]],[[3562,4096],[117,-102],[-100,-72],[278,-40],[49,-45]],[[0,3757],[706,-131],[311,-31],[318,17],[99,-17],[109,40],[613,59]],[[245,1570],[16,-14],[10,-2],[-1,-5],[-15,-20],[-14,-8],[-60,1],[-109,-41],[-26,8],[-46,25],[0,104],[35,-3],[75,-25],[109,-8],[26,-12]],[[245,1570],[16,-14],[10,-2],[-1,-5],[-15,-20],[-14,-8],[-60,1],[-109,-41],[-26,8],[-46,25]],[[0,1618],[35,-3],[75,-25],[109,-8],[26,-12]],[[2289,4065],[5,31]],[[209,4096],[-11,-120],[0,-32],[0,-48],[0,-57]],[[2145,3758],[42,40],[31,43]],[[2230,3859],[14,55]],[[2218,3841],[11,14],[1,4]],[[2244,3914],[9,30],[12,24],[24,97]],[[198,3839],[-48,-16],[-30,-25],[-30,-56],[0,-65]],[[90,3677],[-42,16],[-48,12]],[[1087,3564],[22,15]],[[1378,3612],[46,0],[73,22]],[[1612,3658],[16,3],[138,21]],[[1911,3696],[59,5],[84,17],[72,24],[19,16]],[[1109,3579],[2,1],[72,24],[55,8],[140,0]],[[1497,3634],[35,11],[80,13]],[[1766,3682],[18,3],[66,8],[30,0],[31,3]],[[1087,3564],[-30,0],[-62,-9]],[[93,3677],[-2,0]],[[91,3677],[-1,0]],[[995,3555],[-52,-7],[-90,-24],[-90,-9],[-234,57],[-90,24],[-108,49],[-25,8],[-126,8],[-87,16]],[[3229,3612],[-81,0],[-30,9],[-10,-3]],[[2349,3718],[-72,0],[-96,24],[-36,16]],[[2534,3720],[-54,4]],[[2480,3724],[-23,2],[-108,-8]],[[3108,3618],[-26,-6],[-42,0],[-67,25],[-90,73],[-18,8],[-186,0],[-54,-8],[-54,8],[-37,2]],[[4096,2950],[-23,7],[-72,33],[-36,40],[-25,57],[-18,40],[-36,25],[-12,24],[0,32],[12,24],[36,41],[12,24],[-18,41],[-18,24],[-18,56],[-18,8],[-48,17],[-42,24],[-78,65],[-66,40],[-78,24],[-30,0],[-66,-16],[-42,0],[-48,16],[-66,0],[-36,16],[-33,0]],[[1102,3517],[-3,15],[-12,32]],[[1021,2496],[24,33],[6,40],[0,73],[-12,97],[0,73],[12,89],[18,65],[-6,64],[18,33],[12,40],[18,49],[18,56],[6,49],[-6,48],[-6,33],[-6,72],[-15,107]],[[156,2367],[132,-16],[205,-8],[186,24],[48,0],[60,16],[90,33],[96,48],[48,32]],[[3736,2302],[78,49],[42,32],[66,8],[43,25],[96,121],[18,8],[17,4]],[[1021,2496],[60,-8],[84,-129],[60,-65],[43,-16]],[[1268,2278],[36,0],[66,8],[60,-48],[30,-57],[18,-16],[30,-49],[30,-80],[0,-81],[-18,-65],[-12,-65],[12,-16],[24,-8],[90,-8],[42,-8],[42,-33],[66,-24]],[[1784,1728],[36,-8],[36,0],[72,24],[114,73],[78,65],[13,40],[84,41],[66,32],[18,0],[30,-16],[36,-16],[162,-16],[66,16],[30,24],[198,146],[36,16],[54,16],[48,8],[72,24],[115,41],[108,56],[36,25],[90,32],[96,-8],[42,-8],[78,-8],[84,-17],[54,-8]],[[0,1428],[60,-7],[42,8],[30,8],[48,41],[66,0],[36,16],[24,32],[0,32],[-18,25],[-36,16],[-84,0],[-18,8],[-18,24],[-24,41],[-18,16],[-90,23]],[[0,2383],[30,0],[66,0],[60,-16]],[[4096,1086],[-53,60],[-12,24],[-12,73],[-36,48],[-67,49],[-48,32],[-30,33],[-18,32],[0,41],[18,56],[12,32],[6,65],[-12,24],[-42,41],[0,8],[30,24],[18,33],[-6,48],[0,97],[-36,73],[-30,40],[-30,25],[-42,56],[-12,24],[0,130],[6,24],[36,24]],[[3898,353],[109,65],[89,75]],[[3239,0],[17,14],[126,73],[48,24],[48,24],[42,32],[66,25],[60,32],[42,24],[42,41],[48,56],[18,16],[54,-16],[48,8]],[[0,0],[0,4096],[4096,0],[0,-4096],[-4096,0]],[[3407,2514],[5,-68],[-60,-11],[-41,22],[43,56],[53,1]],[[4096,2934],[0,-15],[-9,-5],[9,20]],[[3731,3502],[-16,66],[-49,14],[1,29],[97,-65],[-33,-44]],[[3195,3719],[32,-43],[3,-87],[-97,-21],[-65,130],[32,22],[16,-21],[33,43],[46,-23]],[[109,3678],[-18,-1],[7,33],[90,54],[-7,-34],[-72,-52]],[[1121,3681],[24,-72],[-35,-20],[-7,-72],[-67,-7],[-71,80],[32,108],[29,-16],[3,-49],[49,22],[16,44],[27,-18]],[[1416,3560],[-47,8],[12,55],[101,76],[27,-53],[-93,-86]],[[1693,3645],[-81,10],[0,30],[111,48],[35,-22],[16,-56],[-81,-10]],[[2255,3900],[-44,-71],[16,-19],[64,19],[0,-43],[49,-66],[49,-14],[-1,-29],[-129,-22],[-48,-109],[-67,23],[-55,-13],[-24,99],[-162,43],[23,35],[139,74],[48,66],[86,7],[44,36],[12,-16]],[[2566,3773],[-48,-78],[-33,3],[-18,88],[18,87],[33,-11],[48,-89]],[[2356,4021],[-16,-40],[-49,22],[38,67],[27,-49]]]}