{"objects":{"water":{"type":"GeometryCollection","geometries":[{"type":"Polygon","properties":{"source":"naturalearthdata.com","kind":"ocean","area":1576712559132672,"sort_rank":200,"min_zoom":0.0,"id":1},"arcs":[[0],[1],[2],[3],[4],[5],[6],[7],[8],[9],[10],[11],[12],[13],[14],[15],[16],[17],[18],[19],[20],[21],[22],[23],[24],[25],[26],[27],[28],[29],[30],[31],[32],[33],[34],[35],[36]]},{"type":"LineString","properties":{"source":"naturalearthdata.com","kind":"ocean","sort_rank":205,"boundary":true,"min_zoom":0.0,"id":2231},"arcs":[37]},{"type":"LineString","properties":{"source":"naturalearthdata.com","kind":"ocean","sort_rank":205,"boundary":true,"min_zoom":0.0,"id":2233},"arcs":[38]},{"type":"LineString","properties":{"source":"naturalearthdata.com","kind":"ocean","sort_rank":205,"boundary":true,"min_zoom":0.0,"id":2235},"arcs":[39]},{"type":"LineString","properties":{"source":"naturalearthdata.com","kind":"ocean","sort_rank":205,"boundary":true,"min_zoom":0.0,"id":2237},"arcs":[40]},{"type":"LineString","properties":{"source":"naturalearthdata.com","kind":"ocean","sort_rank":205,"boundary":true,"min_zoom":0.0,"id":2238},"arcs":[41]},{"type":"LineString","properties":{"source":"naturalearthdata.com","kind":"ocean","sort_rank":205,"boundary":true,"min_zoom":0.0,"id":2239},"arcs":[42]},{"type":"LineString","properties":{"source":"naturalearthdata.com","kind":"ocean","sort_rank":205,"boundary":true,"min_zoom":0.0,"id":2240},"arcs":[43]},{"type":"LineString","properties":{"source":"naturalearthdata.com","kind":"ocean","sort_rank":205,"boundary":true,"min_zoom":0.0,"id":2241},"arcs":[44]},{"type":"LineString","properties":{"source":"naturalearthdata.com","kind":"ocean","sort_rank":205,"boundary":true,"min_zoom":0.0,"id":2242},"arcs":[45]},{"type":"LineString","properties":{"source":"naturalearthdata.com","kind":"ocean","sort_rank":205,"boundary":true,"min_zoom":0.0,"id":2270},"arcs":[46]},{"type":"LineString","properties":{"source":"naturalearthdata.com","kind":"ocean","sort_rank":205,"boundary":true,"min_zoom":0.0,"id":2557},"arcs":[47]},{"type":"LineString","properties":{"source":"naturalearthdata.com","kind":"ocean","sort_rank":205,"boundary":true,"min_zoom":0.0,"id":2558},"arcs":[48]},{"type":"LineString","properties":{"source":"naturalearthdata.com","kind":"ocean","sort_rank":205,"boundary":true,"min_zoom":0.0,"id":2559},"arcs":[49]},{"type":"LineString","properties":{"source":"naturalearthdata.com","kind":"ocean","sort_rank":205,"boundary":true,"min_zoom":0.0,"id":2560},"arcs":[50]},{"type":"LineString","properties":{"source":"naturalearthdata.com","kind":"ocean","sort_rank":205,"boundary":true,"min_zoom":0.0,"id":2561},"arcs":[51]},{"type":"LineString","properties":{"source":"naturalearthdata.com","kind":"ocean","sort_rank":205,"boundary":true,"min_zoom":0.0,"id":2562},"arcs":[52]},{"type":"LineString","properties":{"source":"naturalearthdata.com","kind":"ocean","sort_rank":205,"boundary":true,"min_zoom":0.0,"id":2563},"arcs":[53]},{"type":"LineString","properties":{"source":"naturalearthdata.com","kind":"ocean","sort_rank":205,"boundary":true,"min_zoom":0.0,"id":2564},"arcs":[54]},{"type":"LineString","properties":{"source":"naturalearthdata.com","kind":"ocean","sort_rank":205,"boundary":true,"min_zoom":0.0,"id":2565},"arcs":[55]},{"type":"LineString","properties":{"source":"naturalearthdata.com","kind":"ocean","sort_rank":205,"boundary":true,"min_zoom":0.0,"id":2568},"arcs":[56]},{"type":"LineString","properties":{"source":"naturalearthdata.com","kind":"ocean","sort_rank":205,"boundary":true,"min_zoom":0.0,"id":2569},"arcs":[57]},{"type":"LineString","properties":{"source":"naturalearthdata.com","kind":"ocean","sort_rank":205,"boundary":true,"min_zoom":0.0,"id":2570},"arcs":[58]},{"type":"LineString","properties":{"source":"naturalearthdata.com","kind":"ocean","sort_rank":205,"boundary":true,"min_zoom":0.0,"id":2916},"arcs":[59]},{"type":"LineString","properties":{"source":"naturalearthdata.com","kind":"ocean","sort_rank":205,"boundary":true,"min_zoom":0.0,"id":2917},"arcs":[60]},{"type":"LineString","properties":{"source":"naturalearthdata.com","kind":"ocean","sort_rank":205,"boundary":true,"min_zoom":0.0,"id":2918},"arcs":[61]},{"type":"LineString","properties":{"source":"naturalearthdata.com","kind":"ocean","sort_rank":205,"boundary":true,"min_zoom":0.0,"id":3104},"arcs":[62]},{"type":"LineString","properties":{"source":"naturalearthdata.com","kind":"ocean","sort_rank":205,"boundary":true,"min_zoom":0.0,"id":3105},"arcs":[63]},{"type":"LineString","properties":{"source":"naturalearthdata.com","kind":"ocean","sort_rank":205,"boundary":true,"min_zoom":0.0,"id":3106},"arcs":[64]},{"type":"LineString","properties":{"source":"naturalearthdata.com","kind":"ocean","sort_rank":205,"boundary":true,"min_zoom":0.0,"id":3107},"arcs":[65]},{"type":"LineString","properties":{"source":"naturalearthdata.com","kind":"ocean","sort_rank":205,"boundary":true,"min_zoom":0.0,"id":3108},"arcs":[66]},{"type":"LineString","properties":{"source":"naturalearthdata.com","kind":"ocean","sort_rank":205,"boundary":true,"min_zoom":0.0,"id":3109},"arcs":[67]},{"type":"LineString","properties":{"source":"naturalearthdata.com","kind":"ocean","sort_rank":205,"boundary":true,"min_zoom":0.0,"id":3110},"arcs":[68]},{"type":"LineString","properties":{"source":"naturalearthdata.com","kind":"ocean","sort_rank":205,"boundary":true,"min_zoom":0.0,"id":3111},"arcs":[69]},{"type":"LineString","properties":{"source":"naturalearthdata.com","kind":"ocean","sort_rank":205,"boundary":true,"min_zoom":0.0,"id":3112},"arcs":[70]},{"type":"LineString","properties":{"source":"naturalearthdata.com","kind":"ocean","sort_rank":205,"boundary":true,"min_zoom":0.0,"id":3113},"arcs":[71]},{"type":"LineString","properties":{"source":"naturalearthdata.com","kind":"ocean","sort_rank":205,"boundary":true,"min_zoom":0.0,"id":4056},"arcs":[72]},{"type":"LineString","properties":{"source":"naturalearthdata.com","kind":"ocean","sort_rank":205,"boundary":true,"min_zoom":0.0,"id":4058},"arcs":[73]}]},"buildings":{"type":"GeometryCollection","geometries":[]},"places":{"type":"GeometryCollection","geometries":[{"type":"Point","properties":{"name:ka":"\u10e1\u10d0\u10db\u10dd\u10d0","name:ko":"\uc0ac\ubaa8\uc544","name:kn":"\u0cb8\u0cae\u0ccb\u0cb5\u0cbe","name:km":"\u179f\u17b6\u1798\u17bc\u17a2\u17b6","min_zoom":2.0,"name:ti":"\u1233\u121e\u12a0","name:ks":"\u0633\u06cc\u0645\u0648\u0648\u0627","name:to":"Ha\u02bbamoa","name:be":"\u0421\u0430\u043c\u043e\u0430","name:or":"\u0b38\u0b3e\u0b2e\u0b4b\u0b06","name:pl":"Samoa","name:ta":"\u0b9a\u0bae\u0bcb\u0bb5\u0bbe","name:ca":"Samoa","name:te":"\u0c38\u0c2e\u0c4b\u0c35\u0c3e","name:bg":"\u0421\u0430\u043c\u043e\u0430","name:da":"Samoa","name:de":"Samoa","name:dz":"\u0f66\u0f0b\u0f58\u0f7c\u0f0b\u0f68","source":"openstreetmap.org","name:yo":"Or\u00edl\u1eb9\u0301\u00e8de Sam\u1ecd","name:lv":"Samoa","name:hi":"\u0938\u092e\u094b\u0906","name:he":"\u05e1\u05de\u05d5\u05d0\u05d4","kind":"country","name:ur":"\u0633\u0627\u0645\u0648\u0622","old_name:eo":"Okcidenta Samoo","name:io":"Samoa","name:uk":"\u0421\u0430\u043c\u043e\u0430","name:hy":"\u054d\u0561\u0574\u0578\u0561","name:hu":"Szamoa","name:lo":"\u0e8a\u0eb2\u0ea1\u0ebb\u0ea7","population":193000,"name:el":"\u03a3\u03b1\u03bc\u03cc\u03b1","name:eo":"Samoo","name":"S\u0101moa","name:ee":"Samoa nutome","name:ku":"Samoa","name:th":"\u0e1b\u0e23\u0e30\u0e40\u0e17\u0e28\u0e0b\u0e32\u0e21\u0e31\u0e27","name:es":"Samoa","name:ia":"Samoa","name:rn":"Samowa","name:mr":"\u0938\u093e\u092e\u094b\u0906","name:ar":"\u0633\u0627\u0645\u0648\u0627","official_name":"Malo Sa'oloto Tuto'atasi o S\u0101moa","name:is":"Sam\u00f3a","name:am":"\u1233\u121e\u12a0","name:it":"Samoa","name:ru":"\u0421\u0430\u043c\u043e\u0430","name:ml":"\u0d38\u0d3e\u0d2e\u0d4b\u0d35","name:mn":"\u0421\u0430\u043c\u043e\u0430","name:mi":"H\u0101moa","id":1529444079,"name:mk":"\u0421\u0430\u043c\u043e\u0430","name:vo":"Samovu\u00e4ns","name:zu":"i-Samoa","name:ff":"Samowaa","name:fi":"Samoa","name:fo":"S\u00e1moa","name:fr":"Samoa","name:zh":"\u8428\u6469\u4e9a","name:sk":"Samoa","name:ja":"\u30b5\u30e2\u30a2","name:si":"\u0dc3\u0dd0\u0db8\u0ddd\u0dc0\u0dcf","name:no":"Samoa","name:sg":"Samo\u00e4a","name:ne":"\u0938\u093e\u092e\u094b\u0906","name:br":"Samoa","name:bm":"Samowa","name:bn":"\u09b8\u09be\u09ae\u09cb\u09af\u09bc\u09be","name:bo":"\u0f53\u0f74\u0f0b\u0f56\u0f0b\u0f66\u0f0b\u0f58\u0f7c\u0f0b\u0f60\u0f0d","name:sv":"Samoa","name:ha":"Samowa","name:sr":"\u0421\u0430\u043c\u043e\u0430","name:ga":"Sam\u00f3","name:gd":"Samotha","name:fa":"\u0633\u0627\u0645\u0648\u0622","name:gv":"Samoa","name:gu":"\u0ab8\u0aae\u0acb\u0a86","name:lg":"Samowa"},"coordinates":[2869,3110]},{"type":"Point","properties":{"name:ty":"To\u2019a","name:ka":"\u10e2\u10dd\u10dc\u10d2\u10d0","name:ko":"\ud1b5\uac00","name:kn":"\u0c9f\u0cca\u0c82\u0c97","name:cu":"\u0422\u043e\u043d\u0433\u0430","name:kk":"\u0422\u043e\u043d\u0433\u0430","name:th":"\u0e1b\u0e23\u0e30\u0e40\u0e17\u0e28\u0e15\u0e2d\u0e07\u0e01\u0e32","name:ti":"\u1276\u1295\u130b","name:ks":"\u0679\u0648\u0646\u065b\u06af\u0627","name:pa":"\u0a1f\u0a4b\u0a02\u0a17\u0a3e","name:os":"\u0422\u043e\u043d\u0433\u00e6","name:or":"\u0b1f\u0b4b\u0b19\u0b4d\u0b17\u0b3e","name:ce":"\u0422\u043e\u043d\u0433\u0430","name:ta":"\u0b9f\u0bcb\u0b99\u0bcd\u0b95\u0bbe","name:tg":"\u0422\u043e\u043d\u0433\u0430","name:te":"\u0c1f\u0c4b\u0c02\u0c17\u0c3e","name:bg":"\u0422\u043e\u043d\u0433\u0430","name:ba":"\u0422\u043e\u043d\u0433\u0430","name:dz":"\u0f4a\u0f7c\u0f44\u0f0b\u0f42\u0fb7","source":"openstreetmap.org","name:dv":"\u0793\u07ae\u0782\u07b0\u078e\u07a7","name:km":"\u178f\u17bb\u1784\u17a0\u17d2\u1782\u17b6","name:hi":"\u091f\u094b\u0902\u0917\u093e","name:he":"\u05d8\u05d5\u05e0\u05d2\u05d4","kind":"country","name:ha":"Tanga","name:uk":"\u0422\u043e\u043d\u0491\u0430","name:hy":"\u054f\u0578\u0576\u0563\u0561","name:ug":"Ton\u2019ga","name:qu":"Tunqa","name:lo":"\u0e95\u0ead\u0e87\u0e81\u0eb2","name:oc":"T\u00f2nga","population":104000,"name:el":"\u03a4\u03cc\u03bd\u03b3\u03ba\u03b1","name:eo":"Tongo","name":"Tonga","name:ee":"Tonga nutome","min_zoom":2.0,"name:yo":"Or\u00edl\u1eb9\u0301\u00e8de Tonga","name:az":"Tonqa","name:mr":"\u091f\u094b\u0902\u0917\u093e","name:ar":"\u062a\u0648\u0646\u063a\u0627","name:my":"\u1010\u103d\u1014\u103a\u1002\u102b","official_name":"Pule'anga Fakatu'i 'o Tonga","name:mg":"Tong\u00e0","name:am":"\u1276\u1295\u130b","name:ru":"\u0422\u043e\u043d\u0433\u0430","name:ml":"\u0d1f\u0d4b\u0d02\u0d17","name:mn":"\u0422\u043e\u043d\u0433\u0430","id":424311848,"name:mk":"\u0422\u043e\u043d\u0433\u0430","name:vo":"Tongu\u00e4ns","name:zu":"i-Tonga","name:rw":"Igitonga","name:ff":"Tonngaa","name:zh-yue":"\u6e6f\u52a0","name:zh":"\u6c64\u52a0\u7fa4\u5c9b","name:sm":"Toga","name:ja":"\u30c8\u30f3\u30ac","name:si":"\u0da7\u0ddc\u0d82\u0d9c\u0dcf","name:fa":"\u062a\u0648\u0646\u06af\u0627","name:ne":"\u091f\u094b\u0902\u0917\u093e","name:sa":"\u091f\u094b\u0902\u0917\u093e","name:bn":"\u099f\u09cb\u0999\u09cd\u0997\u09be","name:bo":"\u0f4a\u0f7c\u0f44\u0f0b\u0f42","name:be":"\u0422\u043e\u043d\u0433\u0430","name:ur":"\u0679\u0648\u0646\u06af\u0627","name:sr":"\u0422\u043e\u043d\u0433\u0430","name:nv":"T\u02bc\u00f3nga","name:gv":"Yn Tongey","name:gu":"\u0a9f\u0acb\u0a82\u0a97\u0abe"},"coordinates":[1747,771]},{"type":"Point","properties":{"name:ia":"Samoa American","name:io":"Samoa Usana","name:is":"Bandar\u00edska Sam\u00f3a","name:it":"Samoa Americane","name:vi":"Samoa thu\u1ed9c M\u1ef9","name:ru":"\u0410\u043c\u0435\u0440\u0438\u043a\u0430\u043d\u0441\u043a\u043e\u0435 \u0421\u0430\u043c\u043e\u0430","name:pl":"Samoa Ameryka\u0144skie","id":506535828,"name:ca":"Samoa Nord-americana","name:fa":"\u0633\u0627\u0645\u0648\u0622\u06cc \u0622\u0645\u0631\u06cc\u06a9\u0627","name:fi":"Amerikan Samoa","name:da":"Amerikansk Samoa","name:de":"Amerikanisch-Samoa","source":"openstreetmap.org","name:fr":"Samoa Am\u00e9ricaines","name:be":"\u0410\u043c\u0435\u0440\u044b\u043a\u0430\u043d\u0441\u043a\u0430\u0435 \u0421\u0430\u043c\u043e\u0430","name:zh":"\u7f8e\u5c5e\u8428\u6469\u4e9a","name:sm":"Amerika S\u0101moa","name:sk":"Americk\u00e1 Samoa","name:ja":"\u30a2\u30e1\u30ea\u30ab\u9818\u30b5\u30e2\u30a2","name":"American Samoa","name:no":"Amerikansk Samoa","name:he":"\u05e1\u05de\u05d5\u05d0\u05d4 \u05d4\u05d0\u05de\u05e8\u05d9\u05e7\u05e0\u05d9\u05ea","kind":"country","name:br":"Samoa Amerikan","name:uk":"\u0410\u043c\u0435\u0440\u0438\u043a\u0430\u043d\u0441\u044c\u043a\u0435 \u0421\u0430\u043c\u043e\u0430","name:sv":"Amerikanska Samoa","min_zoom":2.0,"name:hr":"Ameri\u010dka Samoa","name:sr":"\u0410\u043c\u0435\u0440\u0438\u0447\u043a\u0430 \u0421\u0430\u043c\u043e\u0430","population":65600,"name:el":"\u0391\u03bc\u03b5\u03c1\u03b9\u03ba\u03b1\u03bd\u03b9\u03ba\u03ad\u03c2 \u03a3\u03b1\u03bc\u03cc\u03b1","name:eo":"Usona Samoo","name:uz":"Amerika Samoasi","name:ku":"Samoaya Amer\u00eekan\u00ee","name:gv":"Samoa Americaanagh","name:nl":"Amerikaans-Samoa","name:es":"Samoa Americana"},"coordinates":[3389,2912]},{"type":"Point","properties":{"name:rn":"Niyuwe","name:az":"Niye","name:ka":"\u10dc\u10d8\u10e3\u10d4","name:mr":"\u0928\u0940\u092f\u0942","name:ko":"\ub2c8\uc6b0\uc5d0","name:kn":"\u0ca8\u0cbf\u0caf\u0cc1","name:km":"\u178e\u17c0","name:ar":"\u0646\u064a\u0648\u064a","name:kk":"\u041d\u0438\u0443\u0435","name:th":"\u0e19\u0e35\u0e2d\u0e39\u0e40\u0e2d","name:ti":"\u1292\u12a1\u12ed","name:ks":"\u0646\u06cc\u0648\u0657","name:to":"Niu\u0113","name:or":"\u0b28\u0b3f\u0b09","name:os":"\u041d\u0438\u0443\u044d","name:ml":"\u0d28\u0d4d\u0d2f\u0d42\u0d35\u0d47","name:mn":"\u041d\u0438\u0443\u044d","id":433483552,"name:mk":"\u041d\u0438\u0435","name:te":"\u0c28\u0c3f\u0c2f\u0c41","name:zu":"i-Niue","name:ta":"\u0ba8\u0bbf\u0baf\u0bc2","name:si":"\u0db1\u0dd2\u0dba\u0dd6","name:ff":"Niuwe","name:wo":"Niwe","kind":"country","name:sr":"\u041d\u0438\u0458\u0443\u0435","name:dz":"\u0f53\u0f72\u0f0b\u0f68\u0f74\u0f0b\u0f68\u0f7b","source":"openstreetmap.org","name:rw":"Niyuwe","name:fy":"Ni\u00fb\u00e9","name:dv":"\u0782\u07a9\u0787\u07aa","name:ja":"\u30cb\u30a6\u30a8\u5cf6","name:lt":"Niuj\u0117","name:hi":"\u0928\u0940\u092f\u0942","name:bg":"\u041d\u0438\u0443\u0435","name:he":"\u05e0\u05d9\u05d5\u05d5\u05d4","min_zoom":2.0,"name:ne":"\u0928\u093f\u092f\u0941\u0907","name:ha":"Niyu","name:bm":"Nyuwe","name:bn":"\u09a8\u09bf\u0989\u09af\u09bc\u09c7","name:bo":"\u0f53\u0f72\u0f60\u0f74\u0f0b\u0f5d\u0f0d","name:lg":"Niyuwe","name:uk":"\u041d\u0456\u0443\u0435","name:ru":"\u041d\u0438\u0443\u044d","name:be":"\u041d\u0456\u045e\u044d","name:ug":"Niu\u00e9 Arili","name:ur":"\u0646\u06cc\u0626\u0648","name:ln":"Nyu\u00e9","name:lo":"\u0e99\u0eb5\u0ead\u0eb9\u0ec0\u0ead","population":1269,"name:el":"\u039d\u03b9\u03bf\u03cd\u03b5","name:eo":"Niuo","name":"Niue","name:ee":"Niue nutome","name:zh":"\u7d10\u57c3","name:mg":"Nio\u00e9","name:fa":"\u0646\u06cc\u0648\u0648\u06cc","name:gu":"\u0aa8\u0ac0\u0aaf\u0ac1","name:ak":"Niyu","name:am":"\u1292\u12a1\u12ed","name:yo":"Or\u00edl\u1eb9\u0301\u00e8de Niue"},"coordinates":[3691,1099]},{"type":"Point","properties":{"name:pt":"Wallis e Futuna","name:cy":"Wallis a Futuna","name:mt":"Wallis and Futuna","name:ko":"\uc648\ub9ac\uc2a4 \ud4cc\ud280\ub098","name:kn":"\u0cb5\u0cbe\u0cb2\u0cbf\u0cb8\u0ccd \u0cae\u0ca4\u0ccd\u0ca4\u0cc1 \u0cab\u0cc1\u0c9f\u0cc1\u0ca8\u0cbe","name:km":"\u179c\u17c9\u17b6\u179b\u17b8\u179f \u1793\u17b7\u1784\u200b\u17a0\u17d2\u179c\u17bc\u1791\u17bc\u178e\u17b6","name:kl":"Wallis aamma Futuna","name:cs":"Wallis a Futuna","name:ki":"Walis na Futuna","name:kw":"Wallis ha Futuna","name:tr":"Wallis ve Futuna Adalar\u0131","name:th":"\u0e2b\u0e21\u0e39\u0e48\u0e40\u0e01\u0e32\u0e30\u0e27\u0e32\u0e25\u0e25\u0e34\u0e2a\u0e41\u0e25\u0e30\u0e2b\u0e21\u0e39\u0e48\u0e40\u0e01\u0e32\u0e30\u0e1f\u0e38\u0e15\u0e39\u0e19\u0e32","name:ti":"\u12cb\u120a\u1235 \u12a5\u1293 \u1349\u1271\u1293 \u12f0\u1234\u1276\u127d","name:ks":"\u0648\u0627\u0644\u0650\u0633 \u062a\u06c1\u0655 \u0641\u06cc\u0648\u0657\u0686\u0648\u0657\u0646\u0627","name:to":"\u02bbUvea mo Futuna","name:sv":"Wallis- och Futuna\u00f6arna","name:or":"\u0b71\u0b3e\u0b32\u0b3f\u0b38\u0b4d \u0b0f\u0b2c\u0b02 \u0b2b\u0b41\u0b24\u0b41\u0b28\u0b3e","name:pl":"Wallis i Futuna","name:ta":"\u0bb5\u0bb2\u0bbf\u0b9a\u0bc1\u0bae\u0bcd \u0baa\u0bc1\u0b9f\u0bcd\u0b9f\u0bc2\u0ba9\u0bbe\u0bb5\u0bc1\u0bae\u0bcd","name:ca":"Wallis i Futuna","name:te":"\u0c35\u0c3e\u0c32\u0c3f\u0c38\u0c4d \u0c2e\u0c30\u0c3f\u0c2f\u0c41 \u0c2b\u0c4d\u0c2f\u0c41\u0c24\u0c4d\u0c2f\u0c41\u0c28\u0c3e","name:vi":"Wallis v\u00e0 Futuna","name:ro":"Wallis \u015fi Futuna","name:ka":"\u10d5\u10d0\u10da\u10d8\u10e1\u10d8 \u10d3\u10d0 \u10e4\u10e3\u10e2\u10e3\u10dc\u10d0","name:hr":"Wallis i Futuna","name:da":"Wallis og Futuna","name:de":"Wallis und Futuna","name:dz":"\u0f5d\u0f63\u0f0b\u0f63\u0f72\u0f66\u0f84\u0f0b \u0f68\u0f7a\u0f53\u0f4c\u0f0b \u0f55\u0f74\u0f0b\u0f4f\u0f74\u0f0b\u0f53\u0f0b","source":"openstreetmap.org","name:dv":"\u0788\u07a7\u078d\u07a9 \u0787\u07a6\u078b\u07a8 \u078a\u07aa\u078c\u07ab\u0782\u07a7","name:lv":"Volisa un Futuna","name:lt":"Volisas ir Fut\u016bna","name:hi":"\u0935\u093e\u0932\u093f\u0938 \u0914\u0930 \u092b\u093c\u094d\u092f\u0942\u091a\u0942\u0928\u093e","name:he":"\u05d0\u05d9\u05d9 \u05d5\u05d5\u05dc\u05d9\u05e1 \u05d5\u05e4\u05d5\u05d8\u05d5\u05e0\u05d4","kind":"region","name:ur":"\u0648\u06cc\u0644\u06cc\u0632 \u0627\u0648\u0631 \u0641\u06cc\u0648\u0679\u06cc\u0648\u0646\u0627","name:lb":"Wallis a Futuna","name:la":"Vallis et Futuna","name:lg":"Walisi ne Futuna","name:uk":"\u0412\u043e\u043b\u043b\u0456\u0441 \u0456 \u0424\u0443\u0442\u0443\u043d\u0430","name:ug":"Wallis we Futuna Taqim Aralliri","name:hu":"Wallis \u00e9s Futuna","name:ln":"Walis\u025b mp\u00e9 Futuna","name:lo":"\u0ea7\u0eb2\u0ea5\u0eb4\u0eaa\u0ec1\u0ea5\u0eb0\u0e9f\u0eb8\u0e95\u0eb9\u0e99\u0eb2","name:oc":"Wallis e Futuna","name:el":"\u039f\u03c5\u03ce\u03bb\u03bb\u03b9\u03c2 \u03ba\u03b1\u03b9 \u03a6\u03bf\u03c5\u03c4\u03bf\u03cd\u03bd\u03b1","name:eo":"Valiso kaj Futuno","name:en":"Wallis and Futuna","name":"Wallis-et-Futuna","official_name":"Territoire des \u00celes Wallis-et-Futuna","name:ee":"Wallis kple Futuna nutome","min_zoom":4.0,"name:gu":"\u0ab5\u0ac9\u0ab2\u0abf\u0ab8 \u0a8f\u0a82\u0aa1 \u0aab\u0acd\u0aaf\u0ac1\u0a9a\u0ac1\u0aa8\u0abe \u0a86\u0a87\u0ab2\u0ac7\u0aa8\u0acd\u0aa1\u0acd\u0ab8","name:eu":"Wallis eta Futuna","name:et":"Wallis ja Futuna","name:nl":"Wallis en Futuna","name:es":"Wallis y Futuna","name:ml":"\u0d35\u0d3e\u0d32\u0d3f\u0d38\u0d4d \u0d06\u0d7b\u0d21\u0d4d \u0d2b\u0d4d\u0d2f\u0d41\u0d1a\u0d42\u0d28","name:rm":"Wallis e Futuna","name:rn":"Walisi na Futuna","name:az":"Valis v\u0259 Futuna","name:id":"Wallis dan Futuna","name:ms":"Wallis dan Futuna","name:mr":"\u0935\u093e\u0932\u093f\u0938 \u0935 \u092b\u0941\u0924\u0941\u0928\u093e","name:ar":"\u062c\u0632\u0631 \u0648\u0627\u0644\u064a\u0633 \u0648\u0641\u0648\u062a\u0648\u0646\u0627","name:io":"Wallis e Futuna Insuli","int_name":"Wallis and Futuna Islands","name:is":"Wallis- og F\u00fat\u00fanaeyjar","name:am":"\u12cb\u120a\u1235 \u12a5\u1293 \u1349\u1271\u1293 \u12f0\u1234\u1276\u127d","name:it":"Wallis e Futuna","name:an":"Wallis e Futuna","name:ru":"\u0423\u043e\u043b\u043b\u0438\u0441 \u0438 \u0424\u0443\u0442\u0443\u043d\u0430","name:mn":"\u0423\u043e\u043b\u043b\u0438\u0441 \u0431\u0430 \u0424\u0443\u0442\u0443\u043d\u0430","id":424298155,"name:mk":"\u0412\u043e\u043b\u0438\u0441 \u0438 \u0424\u0443\u0442\u0443\u043d\u0430 \u043e\u0441\u0442\u0440\u043e\u0432\u0438","name:af":"Wallis-en-Futuna","name:zu":"i-Wallis ne-Futuna","name:ha":"Walis Da Futuna","name:nn":"Wallis- og Futuna\u00f8yane","name:ff":"Walis e Futuna","kind_detail":"state","name:no":"Wallis- og Futuna\u00f8yene","name:mg":"Wallis sy Futuna","name:fo":"Wallis og Futuna","name:fy":"Wallis en F\u00fbt\u00fbna","name:zh":"\u74e6\u5229\u65af\u548c\u5bcc\u56fe\u7eb3\u7fa4\u5c9b","name:sl":"Wallis in Futuna","name:sk":"Wallis a Futuna","name:ja":"\u30a6\u30a9\u30ea\u30b9\u30fb\u30d5\u30c4\u30ca","name:si":"\u0dc0\u0dd0\u0dbd\u0dd2\u0dc3\u0dca \u0dc3\u0dc4 \u0dc6\u0dd4\u0da7\u0dd4\u0db1\u0dcf","name:sh":"Wallis i Futuna","name:sg":"Wal\u00eesi na Futuna","name:se":"Wallis ja Futuna","name:ne":"\u0935\u093e\u0932\u093f\u0938 \u0930 \u092b\u0941\u091f\u0941\u0928\u093e","name:br":"Wallis ha Futuna","name:bs":"Valis i Futuna Ostrva","name:bm":"Walisi-ni-Futuna","name:bn":"\u0993\u09af\u09bc\u09be\u09b2\u09bf\u09b8 \u0993 \u09ab\u09c1\u099f\u09c1\u09a8\u09be","name:sw":"Wallis na Futuna","name:be":"\u0423\u043e\u043b\u0456\u0441 \u0456 \u0424\u0443\u0442\u0443\u043d\u0430","name:bg":"\u0423\u043e\u043b\u0438\u0441 \u0438 \u0424\u0443\u0442\u0443\u043d\u0430","name:wo":"Wallis ak Futuna","name:sr":"\u0412\u0430\u043b\u0438\u0441 \u0438 \u0424\u0443\u0442\u0443\u043d\u0430","name:ga":"Vail\u00eds agus Fut\u00fana","name:gd":"Uallas agus Futuna","name:jv":"Wallis lan Futuna","name:gl":"Wallis e Futuna","name:fa":"\u0648\u0627\u0644\u06cc\u0633 \u0648 \u0641\u0648\u062a\u0648\u0646\u0627","name:yo":"Or\u00edl\u1eb9\u0301\u00e8de Wali ati futuna","name:ak":"Wallis ne Futuna","name:fi":"Wallis- ja Futunasaaret"},"coordinates":[1038,3092]},{"type":"Point","properties":{"source":"naturalearthdata.com","kind":"locality","name":"Apia","country_capital":true,"population":61916,"min_zoom":5.0,"id":7097},"coordinates":[3008,3083]},{"type":"Point","properties":{"source":"naturalearthdata.com","kind":"locality","name":"Nukualofa","country_capital":true,"population":42620,"min_zoom":5.0,"id":7093},"coordinates":[1740,306]},{"type":"Point","properties":{"source":"naturalearthdata.com","kind":"locality","name":"Pago Pago","country_capital":true,"population":12576,"min_zoom":5.0,"id":6756},"coordinates":[3384,2917]}]},"transit":{"type":"GeometryCollection","geometries":[]},"pois":{"type":"GeometryCollection","geometries":[]},"boundaries":{"type":"GeometryCollection","geometries":[]},"roads":{"type":"GeometryCollection","geometries":[]},"earth":{"type":"GeometryCollection","geometries":[{"type":"MultiPolygon","properties":{"sort_rank":10,"source":"naturalearthdata.com","min_zoom":0.0,"kind":"earth","area":5417552058},"arcs":[[[74]],[[75]],[[76]],[[77]],[[78]],[[79]],[[80]],[[81]],[[82]],[[83]],[[84]],[[85]],[[86]],[[87]],[[88]],[[89]],[[90]],[[91]],[[92]],[[93]],[[94]],[[95]]]}]},"landuse":{"type":"GeometryCollection","geometries":[]}},"type":"Topology","transform":{"translate":[-180.0,-21.9430455334],"scale":[0.002746582,0.0026280868]},"arcs":[[[0,0],[0,96],[0,190],[0,190],[0,190],[0,189],[0,190],[0,190],[0,189],[0,190],[0,190],[0,90],[0,1],[6,12],[12,10],[22,14],[3,1],[2,0],[2,1],[1,9],[1,3],[3,7],[13,13],[2,3],[-2,3],[-3,3],[-5,2],[0,4],[-1,7],[-3,11],[-4,4],[-4,1],[-8,-2],[-6,-4],[-27,-29],[-4,-6],[0,32],[0,61],[17,7],[7,5],[4,5],[-2,2],[-3,2],[0,4],[1,3],[2,2],[3,0],[2,1],[2,0],[2,1],[0,3],[-2,2],[-1,1],[2,2],[3,0],[0,3],[-5,-1],[-14,-4],[-3,-2],[-2,-4],[-10,-7],[-3,-5],[0,108],[0,14],[8,2],[6,3],[5,5],[3,8],[-12,-4],[-5,-2],[-5,-4],[0,168],[0,190],[0,190],[0,189],[0,190],[0,190],[0,189],[0,190],[0,190],[0,190],[0,15],[4096,0],[0,-4096],[-4096,0]],[[1851,214],[3,14],[0,6],[-3,14],[-1,3],[-3,-4],[-2,-6],[-1,-2],[-4,-7],[-2,-2],[-7,-4],[-2,-4],[0,-5],[2,-4],[-3,-2],[-2,-1],[0,-3],[11,-7],[4,-5],[3,-6],[5,-3],[3,4],[-1,24]],[[1778,261],[1,5],[-1,4],[-1,4],[-1,4],[2,4],[20,15],[4,3],[0,6],[-1,3],[-4,3],[-5,1],[-5,-1],[-4,-1],[-4,-2],[-5,-5],[-2,-5],[-3,-4],[-5,-2],[-3,1],[-6,4],[-5,1],[-4,-2],[-3,-2],[-4,-2],[-4,2],[-1,4],[2,3],[6,3],[-1,4],[-3,3],[-2,1],[-3,3],[-4,0],[-20,-3],[-3,0],[-4,1],[-6,6],[3,5],[6,5],[4,5],[-9,-3],[-9,-7],[-3,-10],[5,-10],[9,-12],[3,-2],[5,-1],[5,-2],[9,-5],[3,3],[17,-9],[5,-4],[6,-11],[3,-3],[8,-2],[4,1],[4,1],[4,2]],[[464,492],[0,3],[-2,-3],[0,-3],[1,-3],[3,-2],[3,0],[1,0],[-2,2],[-2,2],[-2,4]],[[1900,646],[0,2],[-6,-1],[-3,-1],[-2,-1],[0,-3],[4,-3],[4,-1],[2,3],[1,5]],[[2058,809],[3,-2],[7,1],[2,6],[0,7],[3,7],[-1,1],[-4,1],[-2,1],[-1,-6],[-3,-5],[-4,-3],[-5,-2],[1,-3],[2,-2],[2,-1]],[[1797,815],[2,3],[0,-3],[4,8],[1,11],[-3,10],[-6,5],[-4,0],[-4,0],[-2,-3],[-1,-8],[0,-3],[5,-12],[0,-2],[0,-1],[4,-2],[2,-1],[2,-2]],[[2075,837],[5,-3],[6,1],[2,5],[1,4],[3,5],[1,5],[-2,5],[-5,-4],[-3,-6],[-3,-5],[-7,-3],[2,-4]],[[1813,859],[2,8],[-4,4],[-3,-3],[-1,-6],[1,-4],[5,1]],[[2088,872],[6,-1],[2,3],[-2,4],[-4,2],[-3,2],[-2,8],[-2,3],[-5,1],[2,-7],[4,-9],[4,-6]],[[585,1057],[1,7],[-1,7],[-3,-2],[-7,-13],[0,-2],[0,-1],[1,-1],[3,2],[4,1],[2,2]],[[533,1052],[1,8],[-5,-1],[-7,3],[-6,6],[-2,5],[5,1],[3,0],[2,1],[3,3],[-11,-1],[-5,-6],[-1,-7],[3,-4],[13,-7],[7,-1]],[[3668,1074],[-1,-1],[-1,-1],[-1,-1],[5,0],[4,0],[3,-2],[1,-3],[6,5],[3,1],[3,-1],[15,10],[7,8],[3,3],[5,2],[-4,8],[-11,28],[-1,2],[-9,1],[-4,1],[-12,-1],[-8,-14],[-2,-2],[-1,0],[-2,0],[-1,-2],[0,-3],[1,-2],[1,-2],[1,-2],[-8,-13],[-1,-6],[9,-3],[1,-2],[1,-6],[-2,-2]],[[57,1119],[-3,7],[-1,8],[6,5],[8,-1],[3,-13],[7,12],[-9,10],[-13,2],[-5,-16],[-3,-11],[5,-4],[5,1]],[[374,1133],[4,-8],[6,0],[5,6],[0,10],[-4,7],[-6,-1],[-4,-5],[-1,-9]],[[406,1173],[2,2],[-5,-1],[-5,-2],[-5,-4],[-4,-3],[3,-1],[3,0],[3,1],[3,2],[2,1],[2,3],[1,2]],[[1954,1202],[-6,2],[-4,-3],[-1,-6],[3,-6],[5,1],[4,3],[1,4],[-2,5]],[[2190,1245],[3,4],[5,-1],[2,4],[3,4],[-3,3],[0,3],[2,2],[4,2],[7,-8],[2,4],[1,8],[-1,4],[-4,3],[-3,3],[-2,2],[-6,2],[-4,1],[-7,-1],[-6,-1],[-2,-3],[-6,-10],[-10,-5],[-7,-6],[5,-11],[2,0],[2,0],[1,0],[0,2],[6,-2],[1,4],[1,5],[5,4],[1,-2],[2,-4],[0,-5],[-6,-2],[3,-9],[2,-4],[5,-3],[0,7],[2,6]],[[547,1247],[3,2],[1,3],[0,4],[-5,3],[-4,-1],[-2,-5],[4,-6],[3,0]],[[457,1416],[-2,7],[-6,5],[-8,7],[-13,-7],[-8,-10],[8,-6],[2,-1],[2,-2],[3,-1],[3,-1],[12,0],[4,3],[3,6]],[[352,1513],[-6,4],[-4,1],[-7,-5],[4,-9],[4,-4],[4,-3],[7,2],[0,5],[-2,9]],[[611,1516],[9,-2],[9,1],[9,3],[3,7],[-3,7],[-6,6],[-6,5],[-5,2],[-16,-1],[-7,-11],[2,-12],[11,-5]],[[256,1586],[6,6],[0,7],[-6,7],[-9,-1],[-5,-6],[0,-7],[5,-4],[9,-2]],[[314,1702],[2,6],[-1,7],[-4,4],[-7,0],[-4,-5],[1,-7],[6,-6],[7,1]],[[362,1822],[-5,2],[0,-3],[1,-7],[1,-3],[4,-2],[8,-1],[3,-2],[5,-3],[0,-3],[0,-5],[-1,-2],[-3,-1],[-2,-2],[1,-5],[-5,-5],[-4,-7],[-1,-7],[5,-4],[2,7],[5,7],[8,6],[6,3],[1,2],[6,12],[-3,5],[-5,4],[-12,6],[-8,0],[-4,4],[-3,4]],[[315,1785],[-4,1],[-4,-2],[0,-7],[3,-4],[3,0],[3,2],[2,5],[-3,5]],[[2284,2275],[4,7],[0,5],[-2,0],[-4,-3],[-8,-3],[-4,-4],[0,-3],[3,-4],[6,0],[5,5]],[[46,2352],[2,3],[-4,4],[-5,3],[-22,9],[-2,0],[1,-2],[3,-4],[1,-1],[6,-1],[9,-4],[6,-6],[5,-1]],[[1597,2424],[-6,5],[-12,-3],[-7,-6],[-1,-7],[6,-8],[11,-1],[8,9],[1,11]],[[719,2878],[3,3],[5,4],[7,3],[3,2],[-2,2],[-3,1],[-2,0],[-3,0],[-4,3],[-4,1],[-12,-6],[-3,-3],[0,-3],[3,-3],[9,-4],[3,0]],[[3341,2898],[10,-5],[15,-10],[2,-3],[10,8],[14,19],[9,7],[6,2],[21,1],[6,2],[0,5],[-3,2],[-5,-4],[-11,4],[-15,0],[-13,-3],[-9,-11],[-6,-1],[-12,0],[-6,-1],[-16,-9],[3,-3]],[[689,2901],[3,1],[19,-1],[0,2],[-16,9],[-5,2],[-1,2],[-13,14],[-13,4],[-2,-6],[3,-11],[7,-11],[4,-2],[9,-1],[5,-2]],[[3812,2928],[2,-4],[1,-5],[3,0],[3,0],[3,2],[1,3],[3,-1],[4,0],[3,1],[2,3],[5,-2],[3,4],[-2,6],[-7,2],[-15,1],[-8,-2],[-6,-4],[3,-1],[2,-3]],[[3769,2957],[-4,1],[-3,0],[-3,-2],[2,-5],[4,-1],[9,5],[-5,2]],[[3106,3034],[-18,9],[-17,-1],[-2,4],[2,2],[2,3],[1,4],[-4,7],[-6,5],[-8,2],[-16,2],[-52,21],[-15,4],[-17,0],[-31,-5],[-28,-10],[-5,-6],[-2,-9],[0,-8],[8,-3],[8,-1],[4,-3],[7,-9],[2,0],[4,1],[4,-5],[7,-12],[5,-4],[6,-2],[6,0],[15,2],[6,-1],[5,-2],[7,-3],[7,-2],[4,-2],[1,-3],[1,-3],[2,-2],[4,-1],[3,0],[16,5],[6,0],[11,-3],[6,0],[6,3],[8,-4],[7,0],[15,1],[26,-3],[9,1],[-1,4],[-1,1],[3,12],[-11,14]],[[2722,3096],[56,7],[19,6],[7,1],[4,-2],[3,-4],[6,-5],[4,-2],[3,0],[9,-1],[2,2],[0,4],[-1,9],[2,9],[3,5],[4,5],[4,6],[2,8],[-2,5],[-4,4],[-1,8],[-1,8],[0,4],[-1,4],[-2,2],[-4,2],[-2,2],[-1,1],[1,5],[0,1],[-21,25],[-8,7],[-8,3],[-8,2],[-8,0],[-8,-2],[-15,-5],[-8,-1],[-28,0],[-5,-2],[-10,-5],[-4,-1],[-8,-1],[-4,-1],[-9,-5],[-8,-1],[-12,0],[-14,6],[-12,0],[-6,-4],[2,-8],[6,-9],[4,-5],[2,-1],[4,1],[3,-2],[0,-2],[1,-4],[1,-1],[6,-6],[3,-3],[10,-3],[4,-6],[8,-13],[4,-2],[5,-2],[4,-3],[2,-4],[1,-5],[3,-8],[1,-3],[1,-3],[3,-3],[6,-3],[3,-3],[4,-5],[3,-3]],[[1407,3295],[4,7],[-2,7],[-5,6],[-4,8],[-6,-4],[-5,-7],[-2,-7],[3,-8],[-6,-5],[1,-6],[4,-6],[1,-6],[3,-3],[5,-1],[5,1],[2,4],[-2,10],[1,3],[6,1],[-1,3],[-1,1],[-1,2]],[[514,1073],[5,1],[3,0],[2,1],[3,3],[-11,-1],[-5,-6],[-1,-7],[3,-4],[13,-7],[7,-1],[1,8],[-5,-1],[-7,3],[-6,6],[-2,5]],[[676,2930],[-13,4],[-2,-6],[3,-11],[7,-11],[4,-2],[9,-1],[5,-2],[3,1],[19,-1],[0,2],[-16,9],[-5,2],[-1,2],[-13,14]],[[50,1133],[-3,-11],[5,-4],[5,1],[-3,7],[-1,8],[6,5],[8,-1],[3,-13],[7,12],[-9,10],[-13,2],[-5,-16]],[[621,1545],[-16,-1],[-7,-11],[2,-12],[11,-5],[9,-2],[9,1],[9,3],[3,7],[-3,7],[-6,6],[-6,5],[-5,2]],[[449,1428],[-8,7],[-13,-7],[-8,-10],[8,-6],[2,-1],[2,-2],[3,-1],[3,-1],[12,0],[4,3],[3,6],[-2,7],[-6,5]],[[346,1517],[-4,1],[-7,-5],[4,-9],[4,-4],[4,-3],[7,2],[0,5],[-2,9],[-6,4]],[[377,1814],[-8,0],[-4,4],[-3,4],[-5,2],[0,-3],[1,-7],[1,-3],[4,-2],[8,-1],[3,-2],[5,-3],[0,-3],[0,-5],[-1,-2],[-3,-1],[-2,-2],[1,-5],[-5,-5],[-4,-7],[-1,-7],[5,-4],[2,7],[5,7],[8,6],[6,3],[1,2],[6,12],[-3,5],[-5,4],[-12,6]],[[374,1133],[4,-8],[6,0],[5,6],[0,10],[-4,7],[-6,-1],[-4,-5],[-1,-9]],[[2840,3177],[-2,2],[-4,2],[-2,2],[-1,1],[1,5],[0,1],[-21,25],[-8,7],[-8,3],[-8,2],[-8,0],[-8,-2],[-15,-5],[-8,-1],[-28,0],[-5,-2],[-10,-5],[-4,-1],[-8,-1],[-4,-1],[-9,-5],[-8,-1],[-12,0],[-14,6],[-12,0],[-6,-4],[2,-8],[6,-9],[4,-5],[2,-1],[4,1],[3,-2],[0,-2],[1,-4],[1,-1],[6,-6],[3,-3],[10,-3],[4,-6],[8,-13],[4,-2],[5,-2],[4,-3],[2,-4],[1,-5],[3,-8],[1,-3],[1,-3],[3,-3],[6,-3],[3,-3],[4,-5],[3,-3],[56,7],[19,6],[7,1],[4,-2],[3,-4],[6,-5],[4,-2],[3,0],[9,-1],[2,2],[0,4],[-1,9],[2,9],[3,5],[4,5],[4,6],[2,8],[-2,5],[-4,4],[-1,8],[-1,8],[0,4],[-1,4]],[[2200,1284],[-4,1],[-7,-1],[-6,-1],[-2,-3],[-6,-10],[-10,-5],[-7,-6],[5,-11],[2,0],[2,0],[1,0],[0,2],[6,-2],[1,4],[1,5],[5,4],[1,-2],[2,-4],[0,-5],[-6,-2],[3,-9],[2,-4],[5,-3],[0,7],[2,6],[3,4],[5,-1],[2,4],[3,4],[-3,3],[0,3],[2,2],[4,2],[7,-8],[2,4],[1,8],[-1,4],[-4,3],[-3,3],[-2,2],[-6,2]],[[2053,815],[1,-3],[2,-2],[2,-1],[3,-2],[7,1],[2,6],[0,7],[3,7],[-1,1],[-4,1],[-2,1],[-1,-6],[-3,-5],[-4,-3],[-5,-2]],[[2073,841],[2,-4],[5,-3],[6,1],[2,5],[1,4],[3,5],[1,5],[-2,5],[-5,-4],[-3,-6],[-3,-5],[-7,-3]],[[2090,880],[-3,2],[-2,8],[-2,3],[-5,1],[2,-7],[4,-9],[4,-6],[6,-1],[2,3],[-2,4],[-4,2]],[[1851,248],[-1,3],[-3,-4],[-2,-6],[-1,-2],[-4,-7],[-2,-2],[-7,-4],[-2,-4],[0,-5],[2,-4],[-3,-2],[-2,-1],[0,-3],[11,-7],[4,-5],[3,-6],[5,-3],[3,4],[-1,24],[3,14],[0,6],[-3,14]],[[1795,849],[-4,0],[-4,0],[-2,-3],[-1,-8],[0,-3],[5,-12],[0,-2],[0,-1],[4,-2],[2,-1],[2,-2],[2,3],[0,-3],[4,8],[1,11],[-3,10],[-6,5]],[[1400,3323],[-6,-4],[-5,-7],[-2,-7],[3,-8],[-6,-5],[1,-6],[4,-6],[1,-6],[3,-3],[5,-1],[5,1],[2,4],[-2,10],[1,3],[6,1],[-1,3],[-1,1],[-1,2],[4,7],[-2,7],[-5,6],[-4,8]],[[1797,312],[-5,1],[-5,-1],[-4,-1],[-4,-2],[-5,-5],[-2,-5],[-3,-4],[-5,-2],[-3,1],[-6,4],[-5,1],[-4,-2],[-3,-2],[-4,-2],[-4,2],[-1,4],[2,3],[6,3],[-1,4],[-3,3],[-2,1],[-3,3],[-4,0],[-20,-3],[-3,0],[-4,1],[-6,6],[3,5],[6,5],[4,5],[-9,-3],[-9,-7],[-3,-10],[5,-10],[9,-12],[3,-2],[5,-1],[5,-2],[9,-5],[3,3],[17,-9],[5,-4],[6,-11],[3,-3],[8,-2],[4,1],[4,1],[4,2],[1,5],[-1,4],[-1,4],[-1,4],[2,4],[20,15],[4,3],[0,6],[-1,3],[-4,3]],[[1591,2429],[-12,-3],[-7,-6],[-1,-7],[6,-8],[11,-1],[8,9],[1,11],[-6,5]],[[3836,2937],[-15,1],[-8,-2],[-6,-4],[3,-1],[2,-3],[2,-4],[1,-5],[3,0],[3,0],[3,2],[1,3],[3,-1],[4,0],[3,1],[2,3],[5,-2],[3,4],[-2,6],[-7,2]],[[3695,1133],[-4,1],[-12,-1],[-8,-14],[-2,-2],[-1,0],[-2,0],[-1,-2],[0,-3],[1,-2],[1,-2],[1,-2],[-8,-13],[-1,-6],[9,-3],[1,-2],[1,-6],[-2,-2],[-1,-1],[-1,-1],[-1,-1],[5,0],[4,0],[3,-2],[1,-3],[6,5],[3,1],[3,-1],[15,10],[7,8],[3,3],[5,2],[-4,8],[-11,28],[-1,2],[-9,1]],[[3426,2922],[-11,4],[-15,0],[-13,-3],[-9,-11],[-6,-1],[-12,0],[-6,-1],[-16,-9],[3,-3],[10,-5],[15,-10],[2,-3],[10,8],[14,19],[9,7],[6,2],[21,1],[6,2],[0,5],[-3,2],[-5,-4]],[[3071,3042],[-2,4],[2,2],[2,3],[1,4],[-4,7],[-6,5],[-8,2],[-16,2],[-52,21],[-15,4],[-17,0],[-31,-5],[-28,-10],[-5,-6],[-2,-9],[0,-8],[8,-3],[8,-1],[4,-3],[7,-9],[2,0],[4,1],[4,-5],[7,-12],[5,-4],[6,-2],[6,0],[15,2],[6,-1],[5,-2],[7,-3],[7,-2],[4,-2],[1,-3],[1,-3],[2,-2],[4,-1],[3,0],[16,5],[6,0],[11,-3],[6,0],[6,3],[8,-4],[7,0],[15,1],[26,-3],[9,1],[-1,4],[-1,1],[3,12],[-11,14],[-18,9],[-17,-1]],[[0,2075],[3,5],[10,7],[2,4],[3,2],[14,4],[5,1],[0,-3],[-3,0],[-2,-2],[1,-1],[2,-2],[0,-3],[-2,-1],[-2,0],[-2,-1],[-3,0],[-2,-2],[-1,-3],[0,-4],[3,-2],[2,-2],[-4,-5],[-7,-5],[-17,-7]],[[0,2205],[5,4],[5,2],[12,4],[-3,-8],[-5,-5],[-6,-3],[-8,-2]],[[0,1894],[0,1],[6,12],[12,10],[22,14],[3,1],[2,0],[2,1],[1,9],[1,3],[3,7],[13,13],[2,3],[-2,3],[-3,3],[-5,2],[0,4],[-1,7],[-3,11],[-4,4],[-4,1],[-8,-2],[-6,-4],[-27,-29],[-4,-6]],[[575,1056],[7,13],[3,2],[1,-7],[-1,-7],[-2,-2],[-4,-1],[-3,-2],[-1,1],[0,1],[0,2]],[[401,1167],[2,1],[2,3],[1,2],[2,2],[-5,-1],[-5,-2],[-5,-4],[-4,-3],[3,-1],[3,0],[3,1],[3,2]],[[544,1247],[-4,6],[2,5],[4,1],[5,-3],[0,-4],[-1,-3],[-3,-2],[-3,0]],[[247,1588],[9,-2],[6,6],[0,7],[-6,7],[-9,-1],[-5,-6],[0,-7],[5,-4]],[[307,1777],[0,7],[4,2],[4,-1],[3,-5],[-2,-5],[-3,-2],[-3,0],[-3,4]],[[1946,1189],[-3,6],[1,6],[4,3],[6,-2],[2,-5],[-1,-4],[-4,-3],[-5,-1]],[[466,484],[-3,2],[-1,3],[0,3],[2,3],[0,-3],[2,-4],[2,-2],[2,-2],[-1,0],[-3,0]],[[646,800],[2,5],[1,2],[0,3],[-2,-3],[-2,-3],[-1,-2],[2,-2]],[[307,1701],[-6,6],[-1,7],[4,5],[7,0],[4,-4],[1,-7],[-2,-6],[-7,-1]],[[3759,2956],[3,2],[3,0],[4,-1],[5,-2],[-9,-5],[-4,1],[-2,5]],[[2282,2284],[4,3],[2,0],[0,-5],[-4,-7],[-5,-5],[-6,0],[-3,4],[0,3],[4,4],[8,3]],[[735,2892],[2,-2],[-3,-2],[-7,-3],[-5,-4],[-3,-3],[-3,0],[-9,4],[-3,3],[0,3],[3,3],[12,6],[4,-1],[4,-3],[3,0],[2,0],[3,-1]],[[1852,190],[-3,-4],[-5,3],[-3,6],[-4,5],[-11,7],[0,3],[2,1],[3,2],[-2,4],[0,5],[2,4],[7,4],[2,2],[4,7],[1,2],[2,6],[3,4],[1,-3],[3,-14],[0,-6],[-3,-14],[1,-24]],[[1706,313],[3,0],[20,3],[4,0],[3,-3],[2,-1],[3,-3],[1,-4],[-6,-3],[-2,-3],[1,-4],[4,-2],[4,2],[3,2],[4,2],[5,-1],[6,-4],[3,-1],[5,2],[3,4],[2,5],[5,5],[4,2],[4,1],[5,1],[5,-1],[4,-3],[1,-3],[0,-6],[-4,-3],[-20,-15],[-2,-4],[1,-4],[1,-4],[1,-4],[-1,-5],[-4,-2],[-4,-1],[-4,-1],[-8,2],[-3,3],[-6,11],[-5,4],[-17,9],[-3,-3],[-9,5],[-5,2],[-5,1],[-3,2],[-9,12],[-5,10],[3,10],[9,7],[9,3],[-4,-5],[-6,-5],[-3,-5],[6,-6],[4,-1]],[[1803,823],[-4,-8],[0,3],[-2,-3],[-2,2],[-2,1],[-4,2],[0,1],[0,2],[-5,12],[0,3],[1,8],[2,3],[4,0],[4,0],[6,-5],[3,-10],[-1,-11]],[[68,1147],[9,-10],[-7,-12],[-3,13],[-8,1],[-6,-5],[1,-8],[3,-7],[-5,-1],[-5,4],[3,11],[5,16],[13,-2]],[[389,1131],[-5,-6],[-6,0],[-4,8],[1,9],[4,5],[6,1],[4,-7],[0,-10]],[[450,1407],[-12,0],[-3,1],[-3,1],[-2,2],[-2,1],[-8,6],[8,10],[13,7],[8,-7],[6,-5],[2,-7],[-3,-6],[-4,-3]],[[354,1499],[-7,-2],[-4,3],[-4,4],[-4,9],[7,5],[4,-1],[6,-4],[2,-9],[0,-5]],[[629,1515],[-9,-1],[-9,2],[-11,5],[-2,12],[7,11],[16,1],[5,-2],[6,-5],[6,-6],[3,-7],[-3,-7],[-9,-3]],[[262,1592],[-6,-6],[-9,2],[-5,4],[0,7],[5,6],[9,1],[6,-7],[0,-7]],[[371,1769],[-2,-7],[-5,4],[1,7],[4,7],[5,5],[-1,5],[2,2],[3,1],[1,2],[0,5],[0,3],[-5,3],[-3,2],[-8,1],[-4,2],[-1,3],[-1,7],[0,3],[5,-2],[3,-4],[4,-4],[8,0],[12,-6],[5,-4],[3,-5],[-6,-12],[-1,-2],[-6,-3],[-8,-6],[-5,-7]],[[2216,1270],[-1,-8],[-2,-4],[-7,8],[-4,-2],[-2,-2],[0,-3],[3,-3],[-3,-4],[-2,-4],[-5,1],[-3,-4],[-2,-6],[0,-7],[-5,3],[-2,4],[-3,9],[6,2],[0,5],[-2,4],[-1,2],[-5,-4],[-1,-5],[-1,-4],[-6,2],[0,-2],[-1,0],[-2,0],[-2,0],[-5,11],[7,6],[10,5],[6,10],[2,3],[6,1],[7,1],[4,-1],[6,-2],[2,-2],[3,-3],[4,-3],[1,-4]],[[3705,1081],[-15,-10],[-3,1],[-3,-1],[-6,-5],[-1,3],[-3,2],[-4,0],[-5,0],[1,1],[1,1],[1,1],[2,2],[-1,6],[-1,2],[-9,3],[1,6],[8,13],[-1,2],[-1,2],[-1,2],[0,3],[1,2],[2,0],[1,0],[2,2],[8,14],[12,1],[4,-1],[9,-1],[1,-2],[11,-28],[4,-8],[-5,-2],[-3,-3],[-7,-8]],[[47,1933],[-2,-1],[-2,0],[-3,-1],[-22,-14],[-12,-10],[-6,-12],[0,-1],[0,68],[4,6],[27,29],[6,4],[8,2],[4,-1],[4,-4],[3,-11],[1,-7],[0,-4],[5,-2],[3,-3],[2,-3],[-2,-3],[-13,-13],[-3,-7],[-1,-3],[-1,-9]],[[0,2055],[0,20],[3,5],[10,7],[2,4],[3,2],[14,4],[5,1],[0,-3],[-3,0],[-2,-2],[1,-1],[2,-2],[0,-3],[-2,-1],[-2,0],[-2,-1],[-3,0],[-2,-2],[-1,-3],[0,-4],[3,-2],[2,-2],[-4,-5],[-7,-5],[-17,-7]],[[1596,2413],[-8,-9],[-11,1],[-6,8],[1,7],[7,6],[12,3],[6,-5],[-1,-11]],[[727,2893],[3,0],[2,0],[3,-1],[2,-2],[-3,-2],[-7,-3],[-5,-4],[-3,-3],[-3,0],[-9,4],[-3,3],[0,3],[3,3],[12,6],[4,-1],[4,-3]],[[1403,3271],[-5,-1],[-5,1],[-3,3],[-1,6],[-4,6],[-1,6],[6,5],[-3,8],[2,7],[5,7],[6,4],[4,-8],[5,-6],[2,-7],[-4,-7],[1,-2],[1,-1],[1,-3],[-6,-1],[-1,-3],[2,-10],[-2,-4]],[[3069,3046],[2,-4],[17,1],[18,-9],[11,-14],[-3,-12],[1,-1],[1,-4],[-9,-1],[-26,3],[-15,-1],[-7,0],[-8,4],[-6,-3],[-6,0],[-11,3],[-6,0],[-16,-5],[-3,0],[-4,1],[-2,2],[-1,3],[-1,3],[-4,2],[-7,2],[-7,3],[-5,2],[-6,1],[-15,-2],[-6,0],[-6,2],[-5,4],[-7,12],[-4,5],[-4,-1],[-2,0],[-7,9],[-4,3],[-8,1],[-8,3],[0,8],[2,9],[5,6],[28,10],[31,5],[17,0],[15,-4],[52,-21],[16,-2],[8,-2],[6,-5],[4,-7],[-1,-4],[-2,-3],[-2,-2]],[[2811,3215],[21,-25],[0,-1],[-1,-5],[1,-1],[2,-2],[4,-2],[2,-2],[1,-4],[0,-4],[1,-8],[1,-8],[4,-4],[2,-5],[-2,-8],[-4,-6],[-4,-5],[-3,-5],[-2,-9],[1,-9],[0,-4],[-2,-2],[-9,1],[-3,0],[-4,2],[-6,5],[-3,4],[-4,2],[-7,-1],[-19,-6],[-56,-7],[-3,3],[-4,5],[-3,3],[-6,3],[-3,3],[-1,3],[-1,3],[-3,8],[-1,5],[-2,4],[-4,3],[-5,2],[-4,2],[-8,13],[-4,6],[-10,3],[-3,3],[-6,6],[-1,1],[-1,4],[0,2],[-3,2],[-4,-1],[-2,1],[-4,5],[-6,9],[-2,8],[6,4],[12,0],[14,-6],[12,0],[8,1],[9,5],[4,1],[8,1],[4,1],[10,5],[5,2],[28,0],[8,1],[15,5],[8,2],[8,0],[8,-2],[8,-3],[8,-7]],[[3415,2926],[11,-4],[5,4],[3,-2],[0,-5],[-6,-2],[-21,-1],[-6,-2],[-9,-7],[-14,-19],[-10,-8],[-2,3],[-15,10],[-10,5],[-3,3],[16,9],[6,1],[12,0],[6,1],[9,11],[13,3],[15,0]],[[711,2903],[0,-2],[-19,1],[-3,-1],[-5,2],[-9,1],[-4,2],[-7,11],[-3,11],[2,6],[13,-4],[13,-14],[1,-2],[5,-2],[16,-9]],[[3845,2929],[-3,-4],[-5,2],[-2,-3],[-3,-1],[-4,0],[-3,1],[-1,-3],[-3,-2],[-3,0],[-3,0],[-1,5],[-2,4],[-2,3],[-3,1],[6,4],[8,2],[15,-1],[7,-2],[2,-6]]]}