{"objects":{"water":{"type":"GeometryCollection","geometries":[{"type":"Polygon","properties":{"source":"naturalearthdata.com","kind":"ocean","area":1576712559132672,"sort_rank":200,"min_zoom":0.0,"id":1},"arcs":[[7]]},{"type":"LineString","properties":{"source":"naturalearthdata.com","kind":"ocean","sort_rank":205,"boundary":true,"min_zoom":0.0,"id":52},"arcs":[8]}]},"buildings":{"type":"GeometryCollection","geometries":[]},"places":{"type":"GeometryCollection","geometries":[{"type":"Point","properties":{"name:pt":"Abec\u00e1sia","name:cy":"Abchasia","name:ko":"\uc555\ud558\uc2a4 \uacf5\ud654\uad6d","name:cv":"\u0410\u0431\u0445\u0430\u0437\u0438","name:cu":"\u0410\u0431\u0445\u0430\ua641\u0457\ua657","name:cs":"Abch\u00e1zie","name:tt":"Abxaz\u00eda","name:kv":"\u0410\u0431\u0445\u0430\u0437\u0438\u044f","name:ku":"Abxazya","name:ro":"Abhazia","name:rw":"Abukaziya","name:tl":"Abkasya","name:sv":"Abchazien","name:os":"\u0410\u0431\u0445\u0430\u0437\u0438","name:or":"\u0b06\u0b2c\u0b3e\u0b16\u0b3e\u0b1c\u0b3f\u0b06","name:ce":"\u0410\u0431\u0445\u0430\u0437\u0438","name:ta":"\u0b85\u0baa\u0bcd\u0b95\u0bbe\u0b9a\u0bbf\u0baf\u0bbe","name:ca":"Abkh\u00e0zia","name:te":"\u0c05\u0c2c\u0c4d\u200c\u0c16\u0c1c\u0c3f\u0c2f\u0c3e","name:vi":"Abkhazia","name:ka":"\u10d0\u10e4\u10ee\u10d0\u10d6\u10d4\u10d7\u10d8","name:da":"Abkhasien","name:fr":"Abkhazie","name:de":"Abchasien","source":"openstreetmap.org","name:yo":"Abkhez","name:pa":"\u0a05\u0a2c\u0a16\u0a3c\u0a3e\u0a1c\u0a3c\u0a40\u0a06","name:lv":"Abh\u0101zija","name:lt":"Abchazija","name:uz":"Abxaziya","name:kk":"\u0410\u0431\u0445\u0430\u0437\u0438\u044f","name:he":"\u05d0\u05d1\u05d7\u05d6\u05d9\u05d4","kind":"country","name:ur":"\u0627\u0628\u062e\u0627\u0632\u064a\u0627","name:la":"Abasci","official_name":"\u0420\u0435\u0441\u043f\u0443\u0431\u043b\u0438\u043a\u0430 \u0410\u0431\u0445\u0430\u0437\u0438\u044f - \u0410\u04a7\u0441\u043d\u044b \u0410\u04b3\u04d9\u044b\u043d\u04ad\u049b\u0430\u0440\u0440\u0430","name:uk":"\u0410\u0431\u0445\u0430\u0437\u0456\u044f","name:hy":"\u0531\u0562\u056d\u0561\u0566\u056b\u0561","min_zoom":2.0,"name:hu":"Abh\u00e1zia","name:hr":"Abhazija","name:oc":"Abcazia","population":240705,"name:el":"\u0391\u03bc\u03c0\u03c7\u03b1\u03b6\u03af\u03b1","name:eo":"Ab\u0125azujo","name:en":"Abkhazia","name":"\u0410\u04a7\u0441\u043d\u044b - \u0410\u0431\u0445\u0430\u0437\u0438\u044f","name:tk":"Abhazi\u00fda","name:th":"\u0e2d\u0e31\u0e1a\u0e2e\u0e32\u0e40\u0e0b\u0e35\u0e22","name:eu":"Abkhazia","name:et":"Abhaasia","name:nl":"Abchazi\u00eb","name:es":"Abjasia","name:ia":"Abchasia","alt_name:eo":"Ab\u0125azio","name:az":"Abxaziya","name:ie":"Abkhazia","name:id":"Abkhazia","name:ms":"Abkhazia","name:mr":"\u0905\u092c\u0916\u093e\u091d\u093f\u092f\u093e","name:ar":"\u0623\u0628\u062e\u0627\u0632\u064a\u0627","name:io":"Abkhazia","int_name":"Abkhazia","name:is":"Abkas\u00eda","name:it":"Abcasia","name:an":"Abjasia","name:ru":"\u0410\u0431\u0445\u0430\u0437\u0438\u044f","name:ab":"\u0410\u04a7\u0441\u043d\u044b","name:pl":"Abchazja","name:mk":"\u0410\u0431\u0445\u0430\u0437\u0438\u0458\u0430","name:af":"Abkasi\u00eb","name:fa":"\u0622\u0628\u062e\u0627\u0632","name:mn":"\u0410\u0431\u0445\u0430\u0437\u0438","name:fi":"Abhasia","name:hi":"\u0905\u092c\u0916\u093e\u091c\u093f\u092f\u093e","id":466507355,"name:ba":"\u0410\u0431\u0445\u0430\u0437\u0438\u044f","name:zh-yue":"\u963f\u5e03\u54c8\u8332","name:fy":"Abgaazje","name:vo":"Labkas\u00e4n","name:zh":"\u963f\u5e03\u54c8\u8332","name:gv":"Abkhazia","name:so":"Abkhazia","name:sl":"Abhazija","name:sk":"Abch\u00e1zsko","name:ja":"\u30a2\u30d6\u30cf\u30b8\u30a2","name:nn":"Abkhasia","name:sh":"Abhazija","name:br":"Abkhazia","name:bs":"Abhazija","name:bn":"\u0986\u09ac\u0996\u09be\u099c\u09bf\u09af\u09bc\u09be","name:ml":"\u0d05\u0d2c\u0d4d\u0d16\u0d3e\u0d38\u0d3f\u0d2f","name:no":"Abkhasia","name:sw":"Abkhazia","name:be":"\u0410\u0431\u0445\u0430\u0437\u0456\u044f","name:su":"Abkhazia","name:bg":"\u0410\u0431\u0445\u0430\u0437\u0438\u044f","name:sr":"\u0410\u0431\u0445\u0430\u0437\u0438\u0458\u0430","name:sq":"Abkhazia","name:ga":"An Abc\u00e1is","name:jv":"Abkhazia","name:gl":"Abkhazia","name:tr":"Abhazya"},"coordinates":[1307,326]},{"type":"Point","properties":{"name:eo":"Kara\u0109ajio-\u0108erkesio","name:tt":"\u041a\u0430\u0440\u0430\u0447\u0430\u0439-\u0427\u0438\u0440\u043a\u04d9\u0441\u0438\u044f","min_zoom":4.0,"official_name":"\u041a\u0430\u0440\u0430\u0447\u0430\u0435\u0432\u043e-\u0427\u0435\u0440\u043a\u0435\u0441\u043a\u0430\u044f \u0440\u0435\u0441\u043f\u0443\u0431\u043b\u0438\u043a\u0430","name:uk":"\u041a\u0430\u0440\u0430\u0447\u0430\u0454\u0432\u043e-\u0427\u0435\u0440\u043a\u0435\u0441\u0456\u044f","name:be":"\u041a\u0430\u0440\u0430\u0447\u0430\u0435\u0432\u0430-\u0427\u0430\u0440\u043a\u0435\u0441\u0456\u044f","name:hu":"Karacs\u00e1j- \u00e9s Cserkeszf\u00f6ld","id":869565029,"kind":"region","name:en":"Karachay-Cherkesia","name":"\u041a\u0430\u0440\u0430\u0447\u0430\u0435\u0432\u043e-\u0427\u0435\u0440\u043a\u0435\u0441\u0438\u044f","kind_detail":"state","name:ku":"Qere\u00e7ay-\u00c7erkezya","name:de":"Karatschai-Tscherkesien","source":"openstreetmap.org","name:fr":"Karatcha\u00ef\u00e9vo-Tcherkesie","name:et":"Karat\u0161ai-T\u0161erkessia","name:zh":"\u5361\u62c9\u6070\u4f0a-\u5207\u5c14\u514b\u65af\u5171\u548c\u56fd","name:es":"Karach\u00e1yevo-Cherkesia"},"coordinates":[2754,2686]},{"type":"Point","properties":{"kind":"locality","name:en":"Ust-Dzheguta","name":"\u0423\u0441\u0442\u044c-\u0414\u0436\u0435\u0433\u0443\u0442\u0430","kind_detail":"town","name:de":"Ust-Dscheguta","source":"openstreetmap.org","min_zoom":8.0,"id":961867142,"population":30245},"coordinates":[3469,4089]},{"type":"Point","properties":{"kind":"locality","name:en":"Zelenchukskaya","name":"\u0417\u0435\u043b\u0435\u043d\u0447\u0443\u043a\u0441\u043a\u0430\u044f","kind_detail":"town","name:de":"Selentschukskaja","source":"openstreetmap.org","min_zoom":8.0,"name:uk":"\u0417\u0435\u043b\u0435\u043d\u0447\u0443\u0446\u044c\u043a\u0430","name:hy":"\u0536\u0565\u056c\u0565\u0576\u0579\u0578\u0582\u056f\u057d\u056f\u0561\u0575\u0561","id":303486344,"population":21025},"coordinates":[2342,3161]},{"type":"Point","properties":{"kind":"locality","name:en":"Karachayevsk","name":"\u041a\u0430\u0440\u0430\u0447\u0430\u0435\u0432\u0441\u043a","kind_detail":"town","name:de":"Karatschajewsk","source":"openstreetmap.org","min_zoom":8.0,"int_name":"Karachayevsk","name:it":"Kara\u010daevsk","name:uk":"\u041a\u0430\u0440\u0430\u0447\u0430\u0454\u0432\u0441\u044c\u043a","name:hy":"\u053f\u0561\u0580\u0561\u0579\u0561\u0587\u057d\u056f","name:pl":"Karaczajewsk","name:zh":"\u5361\u62c9\u6070\u8036\u592b\u65af\u514b","id":287387383,"population":20976},"coordinates":[3293,2825]},{"type":"Point","properties":{"kind":"locality","name:en":"Storozhevaya","name":"\u0421\u0442\u043e\u0440\u043e\u0436\u0435\u0432\u0430\u044f","kind_detail":"town","name:de":"Storoschewaja","source":"openstreetmap.org","min_zoom":8.0,"id":304718065,"population":9952},"coordinates":[1985,3291]},{"type":"Point","properties":{"kind":"locality","name:en":"Teberda","name":"\u0422\u0435\u0431\u0435\u0440\u0434\u0430","kind_detail":"town","name:de":"Teberda","source":"openstreetmap.org","min_zoom":8.0,"id":968062705,"population":8709},"coordinates":[2803,1497]},{"type":"Point","properties":{"kind":"locality","name:en":"Pregradnaya","name":"\u041f\u0440\u0435\u0433\u0440\u0430\u0434\u043d\u0430\u044f","kind_detail":"town","name:de":"Pregradnaja","source":"openstreetmap.org","min_zoom":8.0,"name:hy":"\u054a\u0580\u0565\u0563\u0580\u0561\u0564\u0576\u0561\u0575\u0561","id":304718066,"name:es":"Pregradnaya","population":6566},"coordinates":[1196,3554]},{"type":"Point","properties":{"kind":"locality","name:en":"Mednogorskiy","name":"\u041c\u0435\u0434\u043d\u043e\u0433\u043e\u0440\u0441\u043a\u0438\u0439","kind_detail":"town","name:de":"Mednogorski","source":"openstreetmap.org","min_zoom":8.0,"name:hy":"\u0544\u0565\u0564\u0576\u0578\u0563\u0578\u0580\u057d\u056f\u056b\u0575","id":875324888,"name:es":"Mednogorski","population":5478},"coordinates":[1176,3407]},{"type":"Point","properties":{"name:sr":"\u041d\u043e\u0432\u0438 \u0410\u0442\u043e\u0441","int_name":"New Athos","name:ka":"\u10d0\u10ee\u10d0\u10da\u10d8 \u10d0\u10d7\u10dd\u10dc\u10d8","name:tr":"Yeni Afon","old_name":"Nikopol;Acheisos;Anakopia;Nikopia;Nikofia;Nikopsis;Absara;Psyrtskha","min_zoom":8.0,"name:it":"Nuovo Athos","name:uk":"\u041d\u043e\u0432\u0438\u0439 \u0410\u0444\u043e\u043d","name:hy":"\u0546\u0578\u0580 \u0531\u0586\u0578\u0576","name:ru":"\u041d\u043e\u0432\u044b\u0439 \u0410\u0444\u043e\u043d","name:pl":"Nowy Aton","id":34395497,"population":3235,"name:el":"\u039d\u03ad\u03bf\u03c2 \u0386\u03b8\u03c9\u03c2","kind":"locality","name:en":"New Athos","name":"\u0410\u0444\u043e\u043d \u04be\u044b\u0446","kind_detail":"town","name:de":"Nowy Afon","source":"openstreetmap.org","name:fr":"Nouvel Athos"},"coordinates":[95,78]}]},"transit":{"type":"GeometryCollection","geometries":[{"type":"LineString","properties":{"kind":"train","name":"\u0410\u0434\u043b\u0435\u0440 \u2014 \u0421\u0443\u0445\u0443\u043c","sort_rank":275,"name:de":"Adler \u2014 Sochumi","source":"openstreetmap.org","min_zoom":6.0,"ref":"\u0410\u0434\u043b\u0435\u0440 - \u0421\u0443\u0445\u0443\u043c","osm_relation":true},"arcs":[6]}]},"pois":{"type":"GeometryCollection","geometries":[]},"boundaries":{"type":"GeometryCollection","geometries":[{"type":"LineString","properties":{"name:cy":"Georgia","name:ko":"\uc870\uc9c0\uc544 (\uad6d\uac00)","name:cv":"\u0413\u0440\u0443\u0437\u0438","name:cu":"\u0413\u0454\u0461\u0440\u0433\u0457\ua657","name:cs":"Gruzie","name:tt":"\u0413\u04e9\u0440\u0497\u0438\u0441\u0442\u0430\u043d","name:kw":"Pow Grouzi","name:kv":"\u0413\u0440\u0443\u0437\u0438\u044f","name:ku":"Gurcistan","name:tl":"Heorhiya","name:ce":"\u0413\u0443\u044c\u0440\u0436\u0438\u0439-\u041c\u043e\u0445\u043a","name:ta":"\u0b9a\u0bbf\u0baf\u0bbe\u0bb0\u0bcd\u0b9a\u0bbf\u0baf\u0bbe (\u0ba8\u0bbe\u0b9f\u0bc1)","name:tg":"\u0413\u0443\u0440\u04b7\u0438\u0441\u0442\u043e\u043d","name:ca":"Ge\u00f2rgia","name:te":"\u0c1c\u0c3e\u0c30\u0c4d\u0c1c\u0c3f\u0c2f\u0c3e (\u0c26\u0c47\u0c36\u0c02)","name:hr":"Gruzija","name:da":"Georgien","name:de":"Georgien","name:dz":"\u0f47\u0f7d\u0f0b\u0f47\u0f71","source":"openstreetmap.org","name:kn":"\u0c9c\u0cbe\u0cb0\u0ccd\u0c9c\u0cbf\u0caf","name:dv":"\u0796\u07af\u0796\u07a8\u0794\u07a7 (\u07a4\u07a6\u0787\u07aa\u0789\u07aa)","name:lv":"Gruzija","name:lt":"Gruzija","name:uz":"Gurjiston","name:kk":"\u0413\u0440\u0443\u0437\u0438\u044f","name:ur":"\u062c\u0627\u0631\u062c\u06cc\u0627","name:lb":"Georgien","name:la":"Georgia","name:uk":"\u0413\u0440\u0443\u0437\u0456\u044f","name:ug":"\u06af\u0631\u06c7\u0632\u0649\u064a\u06d5","name:li":"Georgi\u00eb","name:el":"\u0393\u03b5\u03c9\u03c1\u03b3\u03af\u03b1","name:eo":"Kartvelujo","name:en":"Georgia","name":"\u10e1\u10d0\u10e5\u10d0\u10e0\u10d7\u10d5\u10d4\u10da\u10dd","name:tk":"Gruzi\u00fda","name:ee":"Georgia","name:th":"\u0e1b\u0e23\u0e30\u0e40\u0e17\u0e28\u0e08\u0e2d\u0e23\u0e4c\u0e40\u0e08\u0e35\u0e22","name:eu":"Georgia","name:et":"Gruusia","name:es":"Georgia","name:ia":"Georgia","name:az":"G\u00fcrc\u00fcstan","name:ie":"Georgia","name:id":"Georgia","name:ar":"\u062c\u0648\u0631\u062c\u064a\u0627","name:io":"Gruzia","name:av":"\u0413\u0443\u0440\u0436\u0438","name:is":"Georg\u00eda","name:am":"\u1302\u12ee\u122d\u1302\u12eb","name:it":"Georgia","name:an":"Cheorchia","name:ru":"\u0413\u0440\u0443\u0437\u0438\u044f","name:ab":"\u049a\u044b\u0440\u04ad\u0442\u04d9\u044b\u043b\u0430","name:af":"Georgi\u00eb","kind_detail":"2","name:ky":"\u0413\u0440\u0443\u0437\u0438\u044f","name:zh-yue":"\u683c\u9b6f\u5409\u4e9e","name:zh":"\u683c\u9c81\u5409\u4e9a","name:so":"Joorjiya","name:sl":"Gruzija","name:sk":"Gruz\u00ednsko","name:ja":"\u30b0\u30eb\u30b8\u30a2","name:si":"\u0da2\u0ddd\u0dbb\u0dca\u0da2\u0dd2\u0dba\u0dcf (\u0dbb\u0da7)","name:sh":"Gruzija","name:se":"Georgia","name:sc":"Georgia","name:br":"Jorjia (bro)","name:bs":"Gruzija","name:bn":"\u099c\u09b0\u09cd\u099c\u09bf\u09af\u09bc\u09be (\u09b0\u09be\u09b7\u09cd\u099f\u09cd\u09b0)","name:bo":"\u0f60\u0f47\u0f7c\u0f62\u0f0b\u0f47\u0f72\u0f0b\u0f61\u0f0d (\u0f62\u0f92\u0fb1\u0f63\u0f0b\u0f41\u0f56\u0f0d)","name:sw":"Georgia (nchi)","name:be":"\u0413\u0440\u0443\u0437\u0456\u044f","name:su":"G\u00e9orgia","name:bg":"\u0413\u0440\u0443\u0437\u0438\u044f","name:ss":"IJojiya","name:sr":"\u0413\u0440\u0443\u0437\u0438\u0458\u0430","name:sq":"Gjeorgjia","name:jv":"Georgia","name:pt":"Ge\u00f3rgia","name:ps":"\u06ab\u0631\u062c\u0633\u062a\u0627\u0646","name:oc":"Georgia (Cauc\u00e0s)","min_zoom":8.0,"name:ro":"Georgia","name:zh-min-nan":"Sakartvelo","name:os":"\u0413\u0443\u044b\u0440\u0434\u0437\u044b\u0441\u0442\u043e\u043d","name:or":"\u0b1c\u0b30\u0b4d\u0b1c\u0b3f\u0b06","name:pl":"Gruzja","sort_rank":262,"osm_relation":true,"name:tr":"G\u00fcrcistan","name:hi":"\u091c\u0949\u0930\u094d\u091c\u093f\u092f\u093e","name:sv":"Georgien","name:he":"\u05d2\u05d0\u05d5\u05e8\u05d2\u05d9\u05d4","name:hy":"\u054e\u0580\u0561\u057d\u057f\u0561\u0576","name:ht":"Jeoji","name:hu":"Gr\u00fazia","name:qu":"Kartulsuyu","kind":"country","name:yi":"\u05d2\u05e8\u05d5\u05d6\u05d9\u05e2","name:yo":"Georgia","name:mt":"\u0120eor\u0121ja","alt_name:eo":"Kartvelio","name:ms":"Georgia","name:mr":"\u091c\u0949\u0930\u094d\u091c\u093f\u092f\u093e","name:my":"\u1002\u103b\u1031\u102c\u103a\u1002\u103b\u102e\u101a\u102c\u1014\u102d\u102f\u1004\u103a\u1004\u1036","int_name":"Georgia","name:ml":"\u0d1c\u0d4b\u0d7c\u0d1c\u0d4d\u0d1c\u0d3f\u0d2f","name:vi":"Gruzia","name:mn":"\u0413\u04af\u0440\u0436","name:mi":"H\u014dria","id":-28699,"name:mk":"\u0413\u0440\u0443\u0437\u0438\u0458\u0430","name:vo":"Grusiy\u00e4n","name:fa":"\u06af\u0631\u062c\u0633\u062a\u0627\u0646","name:rw":"Geworugiya","name:fi":"Georgia","name:fo":"Georgia (land)","name:fr":"G\u00e9orgie","name:fy":"Ge\u00f6rgje","name:nl":"Georgi\u00eb","name:nn":"Georgia","name:no":"Georgia","name:na":"Djiordjiya","name:ne":"\u091c\u0930\u094d\u091c\u093f\u092f\u093e (\u0926\u0947\u0936)","name:wo":"Jeoorji","name:nv":"J\u00f3ojah (K\u00e9yah)","name:ga":"An tSeoirsia","name:gd":"A' Chairtbheil","name:gl":"Xeorxia - \u10e1\u10d0\u10e5\u10d0\u10e0\u10d7\u10d5\u10d4\u10da\u10dd","name:gv":"Yn \u00c7horshey","name:gu":"\u0a9c\u0acd\u0aaf\u0acb\u0ab0\u0acd\u0a9c\u0ac0\u0aaf\u0abe (\u0aa6\u0ac7\u0ab6)"},"arcs":[0]},{"type":"LineString","properties":{"int_name:right":"Samegrelo-Zemo Svaneti","name:right:fr":"Mingr\u00e9lie-et-Haute-Svan\u00e9tie","name:right:uk":"\u0421\u0430\u043c\u0435\u0491\u0440\u0435\u043b\u043e-\u0417\u0435\u043c\u043e \u0421\u0432\u0430\u043d\u0435\u0442\u0456","name:right:it":"Mingrelia-Alta Svanezia","id:right":-1996076,"name:left:uk":"\u0410\u0431\u0445\u0430\u0437\u044c\u043a\u0430 \u0410\u0432\u0442\u043e\u043d\u043e\u043c\u043d\u0430 \u0420\u0435\u0441\u043f\u0443\u0431\u043b\u0456\u043a\u0430","min_zoom":8.0,"name:right:ku":"Sam\u00eagrelo \u00fb Z\u00eamo Svan\u00eat\u00ee","name:left:ab":"\u0410\u04a7\u0441\u043d\u044b \u0410\u0432\u0442\u043e\u043d\u043e\u043c\u0442\u04d9 \u0420\u0435\u0441\u043f\u0443\u0431\u043b\u0438\u043a\u0430","name:left:ru":"\u0410\u0432\u0442\u043e\u043d\u043e\u043c\u043d\u0430\u044f \u0420\u0435\u0441\u043f\u0443\u0431\u043b\u0438\u043a\u0430 \u0410\u0431\u0445\u0430\u0437\u0438\u044f","name:left:ka":"\u10d0\u10e4\u10ee\u10d0\u10d6\u10d4\u10d7\u10d8\u10e1 \u10d0\u10d5\u10e2\u10dd\u10dc\u10dd\u10db\u10d8\u10e3\u10e0\u10d8 \u10e0\u10d4\u10e1\u10de\u10e3\u10d1\u10da\u10d8\u10d9\u10d0","name:right:ru":"\u041c\u0435\u0433\u0440\u0435\u043b\u0438\u044f-\u0412\u0435\u0440\u0445\u043d\u044f\u044f \u0421\u0432\u0430\u043d\u0435\u0442\u0438\u044f","id":-3572912,"osm_relation":true,"name:left:en":"Autonomous Republic of Abkhazia","kind":"region","name":"\u10d0\u10e4\u10ee\u10d0\u10d6\u10d4\u10d7\u10d8\u10e1 \u10d0\u10d5\u10e2\u10dd\u10dc\u10dd\u10db\u10d8\u10e3\u10e0\u10d8 \u10e0\u10d4\u10e1\u10de\u10e3\u10d1\u10da\u10d8\u10d9\u10d0 - \u0410\u04a7\u0441\u043d\u044b \u0410\u0432\u0442\u043e\u043d\u043e\u043c\u0442\u04d9 \u0420\u0435\u0441\u043f\u0443\u0431\u043b\u0438\u043a\u0430 - \u10e1\u10d0\u10db\u10d4\u10d2\u10e0\u10d4\u10da\u10dd-\u10d6\u10d4\u10db\u10dd \u10e1\u10d5\u10d0\u10dc\u10d4\u10d7\u10d8","source":"openstreetmap.org","sort_rank":256,"kind_detail":"4","name:right:ab":"\u0410\u0433\u044b\u0440\u043d\u044b-\u0425\u044b\u0445\u044c\u0442\u04d9\u0438 \u0428\u04d9\u0430\u043d\u044b","name:left:ca":"Rep\u00fablica Aut\u00f2noma d'Abkh\u00e0zia","name:left:de":"Autonome Republik Abchasien","name:right:en":"Samegrelo-Upper Svaneti","name:right:ca":"Samegrelo - Zemo Svaneti","name:right:de":"Mingrelien-Oberswanetien","id:left":-3572912,"name:right":"\u10e1\u10d0\u10db\u10d4\u10d2\u10e0\u10d4\u10da\u10dd-\u10d6\u10d4\u10db\u10dd \u10e1\u10d5\u10d0\u10dc\u10d4\u10d7\u10d8","name:left":"\u10d0\u10e4\u10ee\u10d0\u10d6\u10d4\u10d7\u10d8\u10e1 \u10d0\u10d5\u10e2\u10dd\u10dc\u10dd\u10db\u10d8\u10e3\u10e0\u10d8 \u10e0\u10d4\u10e1\u10de\u10e3\u10d1\u10da\u10d8\u10d9\u10d0 - \u0410\u04a7\u0441\u043d\u044b \u0410\u0432\u0442\u043e\u043d\u043e\u043c\u0442\u04d9 \u0420\u0435\u0441\u043f\u0443\u0431\u043b\u0438\u043a\u0430"},"arcs":[1]},{"type":"LineString","properties":{"name:right:ja":"\u30ab\u30e9\u30c1\u30e3\u30a4\u30fb\u30c1\u30a7\u30eb\u30b1\u30b9\u5171\u548c\u56fd","name:left:ka":"\u10d0\u10e4\u10ee\u10d0\u10d6\u10d4\u10d7\u10d8\u10e1 \u10d0\u10d5\u10e2\u10dd\u10dc\u10dd\u10db\u10d8\u10e3\u10e0\u10d8 \u10e0\u10d4\u10e1\u10de\u10e3\u10d1\u10da\u10d8\u10d9\u10d0","name:right:uk":"\u041a\u0430\u0440\u0430\u0447\u0430\u0301\u0454\u0432\u043e-\u0427\u0435\u0440\u043a\u0435\u0301\u0441\u044c\u043a\u0430 \u0420\u0435\u0441\u043f\u0443\u0301\u0431\u043b\u0456\u043a\u0430","name:right:ce":"\u041a\u0445\u0430\u0440\u0430\u0447\u043e\u0439-\u0427\u0435\u0440\u0433\u0430\u0437\u0438\u0439\u0447\u043e\u044c","name:right:fa":"\u0642\u0631\u0647\u200c\u0686\u0627\u06cc \u0648 \u0686\u0631\u06a9\u0633","id:right":-109878,"name:left:uk":"\u0410\u0431\u0445\u0430\u0437\u044c\u043a\u0430 \u0410\u0432\u0442\u043e\u043d\u043e\u043c\u043d\u0430 \u0420\u0435\u0441\u043f\u0443\u0431\u043b\u0456\u043a\u0430","min_zoom":8.0,"name:left:ab":"\u0410\u04a7\u0441\u043d\u044b \u0410\u0432\u0442\u043e\u043d\u043e\u043c\u0442\u04d9 \u0420\u0435\u0441\u043f\u0443\u0431\u043b\u0438\u043a\u0430","name:left:ru":"\u0410\u0432\u0442\u043e\u043d\u043e\u043c\u043d\u0430\u044f \u0420\u0435\u0441\u043f\u0443\u0431\u043b\u0438\u043a\u0430 \u0410\u0431\u0445\u0430\u0437\u0438\u044f","id":-3572912,"osm_relation":true,"name:right":"\u041a\u0430\u0440\u0430\u0447\u0430\u0435\u0432\u043e-\u0427\u0435\u0440\u043a\u0435\u0441\u0438\u044f","kind":"region","name:right:ca":"Karatxai-Txerk\u00e8ssia","name":"\u10d0\u10e4\u10ee\u10d0\u10d6\u10d4\u10d7\u10d8\u10e1 \u10d0\u10d5\u10e2\u10dd\u10dc\u10dd\u10db\u10d8\u10e3\u10e0\u10d8 \u10e0\u10d4\u10e1\u10de\u10e3\u10d1\u10da\u10d8\u10d9\u10d0 - \u0410\u04a7\u0441\u043d\u044b \u0410\u0432\u0442\u043e\u043d\u043e\u043c\u0442\u04d9 \u0420\u0435\u0441\u043f\u0443\u0431\u043b\u0438\u043a\u0430 - \u041a\u0430\u0440\u0430\u0447\u0430\u0435\u0432\u043e-\u0427\u0435\u0440\u043a\u0435\u0441\u0438\u044f","source":"openstreetmap.org","sort_rank":256,"kind_detail":"4","name:left:ca":"Rep\u00fablica Aut\u00f2noma d'Abkh\u00e0zia","name:left:de":"Autonome Republik Abchasien","name:right:en":"Karachay-Cherkessia","name:left:en":"Autonomous Republic of Abkhazia","alt_name:right:sl":"Kara\u010daj-\u010cerkezija","name:right:zh":"\u5361\u62c9\u6070\u4f0a-\u5207\u5c14\u514b\u65af\u5171\u548c\u56fd","name:right:de":"Karatschai-Tscherkessien","official_name:right":"\u041a\u0430\u0440\u0430\u0447\u0430\u0435\u0432\u043e-\u0427\u0435\u0440\u043a\u0435\u0441\u0441\u043a\u0430\u044f \u0440\u0435\u0441\u043f\u0443\u0431\u043b\u0438\u043a\u0430","id:left":-3572912,"name:left":"\u10d0\u10e4\u10ee\u10d0\u10d6\u10d4\u10d7\u10d8\u10e1 \u10d0\u10d5\u10e2\u10dd\u10dc\u10dd\u10db\u10d8\u10e3\u10e0\u10d8 \u10e0\u10d4\u10e1\u10de\u10e3\u10d1\u10da\u10d8\u10d9\u10d0 - \u0410\u04a7\u0441\u043d\u044b \u0410\u0432\u0442\u043e\u043d\u043e\u043c\u0442\u04d9 \u0420\u0435\u0441\u043f\u0443\u0431\u043b\u0438\u043a\u0430","name:right:sl":"Republika Kara\u010daj-\u010cerkezija"},"arcs":[2]},{"type":"LineString","properties":{"name:right:ja":"\u30ab\u30e9\u30c1\u30e3\u30a4\u30fb\u30c1\u30a7\u30eb\u30b1\u30b9\u5171\u548c\u56fd","name:right:uk":"\u041a\u0430\u0440\u0430\u0447\u0430\u0301\u0454\u0432\u043e-\u0427\u0435\u0440\u043a\u0435\u0301\u0441\u044c\u043a\u0430 \u0420\u0435\u0441\u043f\u0443\u0301\u0431\u043b\u0456\u043a\u0430","int_name:left":"Samegrelo-Zemo Svaneti","id:right":-109878,"name:left:uk":"\u0421\u0430\u043c\u0435\u0491\u0440\u0435\u043b\u043e-\u0417\u0435\u043c\u043e \u0421\u0432\u0430\u043d\u0435\u0442\u0456","min_zoom":8.0,"name:right:sl":"Republika Kara\u010daj-\u010cerkezija","name:right:fa":"\u0642\u0631\u0647\u200c\u0686\u0627\u06cc \u0648 \u0686\u0631\u06a9\u0633","name:left:ca":"Samegrelo - Zemo Svaneti","id":-1996076,"name:right":"\u041a\u0430\u0440\u0430\u0447\u0430\u0435\u0432\u043e-\u0427\u0435\u0440\u043a\u0435\u0441\u0438\u044f","name:left:en":"Samegrelo-Upper Svaneti","name:right:ca":"Karatxai-Txerk\u00e8ssia","kind_detail":"4","name:right:ce":"\u041a\u0445\u0430\u0440\u0430\u0447\u043e\u0439-\u0427\u0435\u0440\u0433\u0430\u0437\u0438\u0439\u0447\u043e\u044c","source":"openstreetmap.org","id:left":-1996076,"official_name:right":"\u041a\u0430\u0440\u0430\u0447\u0430\u0435\u0432\u043e-\u0427\u0435\u0440\u043a\u0435\u0441\u0441\u043a\u0430\u044f \u0440\u0435\u0441\u043f\u0443\u0431\u043b\u0438\u043a\u0430","name:left":"\u10e1\u10d0\u10db\u10d4\u10d2\u10e0\u10d4\u10da\u10dd-\u10d6\u10d4\u10db\u10dd \u10e1\u10d5\u10d0\u10dc\u10d4\u10d7\u10d8","name:left:ku":"Sam\u00eagrelo \u00fb Z\u00eamo Svan\u00eat\u00ee","name:left:ab":"\u0410\u0433\u044b\u0440\u043d\u044b-\u0425\u044b\u0445\u044c\u0442\u04d9\u0438 \u0428\u04d9\u0430\u043d\u044b","name:left:ru":"\u041c\u0435\u0433\u0440\u0435\u043b\u0438\u044f-\u0412\u0435\u0440\u0445\u043d\u044f\u044f \u0421\u0432\u0430\u043d\u0435\u0442\u0438\u044f","name:left:it":"Mingrelia-Alta Svanezia","name:right:en":"Karachay-Cherkessia","osm_relation":true,"kind":"region","name":"\u10e1\u10d0\u10db\u10d4\u10d2\u10e0\u10d4\u10da\u10dd-\u10d6\u10d4\u10db\u10dd \u10e1\u10d5\u10d0\u10dc\u10d4\u10d7\u10d8 - \u041a\u0430\u0440\u0430\u0447\u0430\u0435\u0432\u043e-\u0427\u0435\u0440\u043a\u0435\u0441\u0438\u044f","name:right:de":"Karatschai-Tscherkessien","name:left:de":"Mingrelien-Oberswanetien","sort_rank":256,"name:left:fr":"Mingr\u00e9lie-et-Haute-Svan\u00e9tie","alt_name:right:sl":"Kara\u010daj-\u010cerkezija","name:right:zh":"\u5361\u62c9\u6070\u4f0a-\u5207\u5c14\u514b\u65af\u5171\u548c\u56fd"},"arcs":[3]},{"type":"MultiLineString","properties":{"name:right:hy":"\u053f\u0580\u0561\u057d\u0576\u0578\u0564\u0561\u0580\u056b \u0565\u0580\u056f\u0580\u0561\u0574\u0561\u057d","name:right:nl":"Kraj Krasnodar","name:right:ja":"\u30af\u30e9\u30b9\u30ce\u30c0\u30fc\u30eb\u5730\u65b9","name:right:fr":"Kra\u00ef de Krasnodar","name:right:uk":"\u041a\u0440\u0430\u0441\u043d\u043e\u0434\u0430\u0440\u0441\u044c\u043a\u0438\u0439 \u043a\u0440\u0430\u0439","name:right:ce":"\u041a\u0440\u0430\u0441\u043d\u043e\u0434\u0430\u0440\u0430\u043d \u043c\u0435\u0445\u043a\u0430\u0439\u0438\u0441\u0442","name:right:sr":"\u041a\u0440\u0430\u0441\u043d\u043e\u0434\u0430\u0440\u0441\u043a\u0430 \u041f\u043e\u043a\u0440\u0430\u0458\u0438\u043d\u0430","name:right:hu":"Krasznodari hat\u00e1rter\u00fclet","name:right:sv":"Krasnodar kraj","name:left:uk":"\u041a\u0430\u0440\u0430\u0447\u0430\u0301\u0454\u0432\u043e-\u0427\u0435\u0440\u043a\u0435\u0301\u0441\u044c\u043a\u0430 \u0420\u0435\u0441\u043f\u0443\u0301\u0431\u043b\u0456\u043a\u0430","name:left:sl":"Republika Kara\u010daj-\u010cerkezija","min_zoom":8.0,"name:right:pl":"Kraj Krasnodarski","name:right:sl":"Krasnodarski kraj","name:right:he":"\u05de\u05d7\u05d5\u05d6 \u05e7\u05e8\u05e1\u05e0\u05d5\u05d3\u05d0\u05e8","name:right":"\u041a\u0440\u0430\u0441\u043d\u043e\u0434\u0430\u0440\u0441\u043a\u0438\u0439 \u043a\u0440\u0430\u0439","name:right:ca":"Territori de Krasnodar","name:left:en":"Karachay-Cherkessia","name:left:ce":"\u041a\u0445\u0430\u0440\u0430\u0447\u043e\u0439-\u0427\u0435\u0440\u0433\u0430\u0437\u0438\u0439\u0447\u043e\u044c","kind_detail":"4","name:left:ca":"Karatxai-Txerk\u00e8ssia","int_name:right":"Krasnodar Krai","id":-109878,"source":"openstreetmap.org","name:left:fa":"\u0642\u0631\u0647\u200c\u0686\u0627\u06cc \u0648 \u0686\u0631\u06a9\u0633","id:left":-109878,"name:right:cs":"Krasnodarsk\u00fd kraj","name:right:az":"Krasnodar diyar\u0131","name:right:cv":"\u041a\u0440\u0430\u0441\u043d\u043e\u0434\u0430\u0440 \u0415\u043d","name:right:ka":"\u10d9\u10e0\u10d0\u10e1\u10dc\u10dd\u10d3\u10d0\u10e0\u10d8\u10e1 \u10db\u10ee\u10d0\u10e0\u10d4","alt_name:left:sl":"Kara\u010daj-\u010cerkezija","name:left:ja":"\u30ab\u30e9\u30c1\u30e3\u30a4\u30fb\u30c1\u30a7\u30eb\u30b1\u30b9\u5171\u548c\u56fd","name:right:pt":"Krai de Krasnodar","name:right:mn":"\u041a\u0440\u0430\u0441\u043d\u043e\u0434\u0430\u0440\u044b\u043d \u0445\u044f\u0437\u0433\u0430\u0430\u0440","name:right:eu":"Krasnodar kraia","name:right:et":"Krasnodari krai","name:right:tt":"\u041a\u0440\u0430\u0441\u043d\u043e\u0434\u0430\u0440 \u043a\u0440\u0430\u0435","name:right:it":"Territorio di Krasnodar","name:right:tr":"Krasnodar Kray\u0131","name:right:vi":"Krasnodar (v\u00f9ng)","name:right:ro":"\u021ainutul Krasnodar","name:right:bg":"\u041a\u0440\u0430\u0441\u043d\u043e\u0434\u0430\u0440\u0441\u043a\u0438 \u043a\u0440\u0430\u0439","id:right":-108082,"name:right:eo":"Krasnodara regiono","name:right:en":"Krasnodar Krai","osm_relation":true,"name:right:el":"\u039a\u03c1\u03ac\u03b9 \u039a\u03c1\u03b1\u03c3\u03bd\u03bf\u03bd\u03c4\u03ac\u03c1","name:right:lt":"Krasnodaro kra\u0161tas","kind":"region","name":"\u041a\u0430\u0440\u0430\u0447\u0430\u0435\u0432\u043e-\u0427\u0435\u0440\u043a\u0435\u0441\u0438\u044f - \u041a\u0440\u0430\u0441\u043d\u043e\u0434\u0430\u0440\u0441\u043a\u0438\u0439 \u043a\u0440\u0430\u0439","name:right:sh":"Krasnodarski kraj","name:right:de":"Region Krasnodar","name:right:lv":"Krasnodaras novads","name:right:ba":"\u041a\u0440\u0430\u0441\u043d\u043e\u0434\u0430\u0440 \u043a\u0440\u0430\u0439\u044b","name:left:de":"Karatschai-Tscherkessien","name:right:be":"\u041a\u0440\u0430\u0441\u043d\u0430\u0434\u0430\u0440\u0441\u043a\u0456 \u043a\u0440\u0430\u0439","sort_rank":256,"name:left:zh":"\u5361\u62c9\u6070\u4f0a-\u5207\u5c14\u514b\u65af\u5171\u548c\u56fd","name:right:zh":"\u514b\u62c9\u65af\u8bfa\u8fbe\u5c14\u8fb9\u7586\u533a","name:left":"\u041a\u0430\u0440\u0430\u0447\u0430\u0435\u0432\u043e-\u0427\u0435\u0440\u043a\u0435\u0441\u0438\u044f","official_name:left":"\u041a\u0430\u0440\u0430\u0447\u0430\u0435\u0432\u043e-\u0427\u0435\u0440\u043a\u0435\u0441\u0441\u043a\u0430\u044f \u0440\u0435\u0441\u043f\u0443\u0431\u043b\u0438\u043a\u0430"},"arcs":[[4],[5]]}]},"roads":{"type":"GeometryCollection","geometries":[{"type":"MultiLineString","properties":{"kind":"major_road","network":"ru:national","sort_rank":380,"kind_detail":"primary","source":"openstreetmap.org","min_zoom":8.0,"shield_text":"156","ref":"\u0410-156"},"arcs":[[9],[10],[11],[12]]},{"type":"LineString","properties":{"kind":"major_road","name:en":"Krasnaya Street","network":"ru:national","sort_rank":380,"kind_detail":"primary","source":"openstreetmap.org","min_zoom":8.0,"landuse_kind":"residential","shield_text":"156","ref":"\u0410-156","id":73968823},"arcs":[13]},{"type":"LineString","properties":{"kind":"major_road","name:en":"Gagarina Street","network":"ru:national","sort_rank":380,"kind_detail":"primary","source":"openstreetmap.org","min_zoom":8.0,"landuse_kind":"residential","shield_text":"156","ref":"\u0410-156"},"arcs":[14]},{"type":"LineString","properties":{"kind":"major_road","name:en":"Gagarina Street","sort_rank":380,"kind_detail":"primary","name:de":"uliza Gagarina","source":"openstreetmap.org","min_zoom":8.0,"landuse_kind":"residential","id":293575901},"arcs":[15]},{"type":"MultiLineString","properties":{"kind":"major_road","network":"ru:national","sort_rank":380,"kind_detail":"primary","source":"openstreetmap.org","min_zoom":8.0,"shield_text":"155","ref":"\u0410-155"},"arcs":[[16],[17],[18],[19],[20],[21],[22],[23]]},{"type":"MultiLineString","properties":{"kind":"major_road","network":"ru:national","sort_rank":380,"kind_detail":"primary","source":"openstreetmap.org","min_zoom":8.0,"landuse_kind":"residential","shield_text":"155","ref":"\u0410-155"},"arcs":[[24],[25],[26],[27]]},{"type":"LineString","properties":{"source":"openstreetmap.org","kind":"major_road","landuse_kind":"urban_area","sort_rank":380,"kind_detail":"primary","min_zoom":8.0},"arcs":[28]},{"type":"MultiLineString","properties":{"kind":"major_road","network":"ru:national","sort_rank":380,"kind_detail":"primary","source":"openstreetmap.org","min_zoom":8.0,"landuse_kind":"urban_area","shield_text":"155","ref":"\u0410-155"},"arcs":[[29],[30],[31]]},{"type":"LineString","properties":{"source":"openstreetmap.org","kind":"major_road","name:en":"Gagarina Street","landuse_kind":"residential","sort_rank":380,"kind_detail":"primary","min_zoom":8.0},"arcs":[32]},{"type":"MultiLineString","properties":{"bus_network":null,"name:en":"Sukhumi Highway","network":"AsianHighway","name:ka":"\u10e1\u10dd\u10ee\u10e3\u10db\u10d8\u10e1 \u10d2\u10d6\u10d0\u10e2\u10d9\u10d4\u10ea\u10d8\u10da\u10d8","sort_rank":381,"kind_detail":"trunk","is_bicycle_related":true,"kind":"major_road","source":"openstreetmap.org","min_zoom":8.0,"bus_shield_text":"\u0421\u043e\u0447\u0438 - \u0421\u0443\u0445\u0443\u043c","shield_text":"82","ref":"M 27"},"arcs":[[33],[34]]},{"type":"MultiLineString","properties":{"sort_rank":380,"kind_detail":"primary","min_zoom":8.0,"kind":"major_road","source":"openstreetmap.org"},"arcs":[[35],[36],[37],[38]]},{"type":"MultiLineString","properties":{"kind":"major_road","network":"ru:national","sort_rank":380,"kind_detail":"primary","source":"openstreetmap.org","min_zoom":8.0,"landuse_kind":"residential","shield_text":"156","ref":"\u0410-156"},"arcs":[[39],[40],[41],[42]]},{"type":"LineString","properties":{"bus_network":null,"name:en":"Lakoba Street","network":"AsianHighway","name:ka":"\u10da\u10d0\u10d9\u10dd\u10d1\u10d0\u10e1 \u10e5\u10e3\u10e9\u10d0","sort_rank":381,"kind_detail":"trunk","is_bicycle_related":true,"kind":"major_road","source":"openstreetmap.org","min_zoom":8.0,"bus_shield_text":"\u0421\u043e\u0447\u0438 - \u0421\u0443\u0445\u0443\u043c","shield_text":"82","name:ab":"\u041b\u0430\u043a\u043e\u0431\u0430 \u0438\u043c\u04a9\u0430","ref":"M 27"},"arcs":[43]},{"type":"LineString","properties":{"kind":"major_road","name:en":"Gagarina Street","network":"ru:national","sort_rank":380,"kind_detail":"primary","name:de":"uliza Gagarina","source":"openstreetmap.org","min_zoom":8.0,"landuse_kind":"residential","shield_text":"156","ref":"\u0410-156","id":87231248},"arcs":[44]},{"type":"MultiLineString","properties":{"source":"openstreetmap.org","kind":"major_road","landuse_kind":"residential","sort_rank":380,"kind_detail":"primary","min_zoom":8.0},"arcs":[[45],[46],[47],[48]]},{"type":"LineString","properties":{"source":"openstreetmap.org","kind":"major_road","name:en":"Lenina Street","landuse_kind":"residential","sort_rank":380,"kind_detail":"primary","min_zoom":8.0},"arcs":[49]},{"type":"MultiLineString","properties":{"bus_network":null,"name:en":"Sukhumi Highway","network":"AsianHighway","sort_rank":381,"kind_detail":"trunk","is_bicycle_related":true,"kind":"major_road","source":"openstreetmap.org","min_zoom":8.0,"bus_shield_text":"\u0421\u043e\u0447\u0438 - \u0421\u0443\u0445\u0443\u043c","shield_text":"82","ref":"M 27"},"arcs":[[50],[51],[52],[53]]},{"type":"MultiLineString","properties":{"source":"openstreetmap.org","kind":"major_road","sort_rank":380,"kind_detail":"primary","ref":"03\u041a-005","min_zoom":8.0},"arcs":[[54],[55],[56]]},{"type":"LineString","properties":{"kind":"major_road","name:en":"Mostovaya Street","network":"ru:national","sort_rank":380,"kind_detail":"primary","source":"openstreetmap.org","min_zoom":8.0,"landuse_kind":"residential","shield_text":"156","ref":"\u0410-156","id":73968532},"arcs":[57]}]},"earth":{"type":"GeometryCollection","geometries":[{"type":"Polygon","properties":{"sort_rank":10,"source":"naturalearthdata.com","kind":"earth","min_zoom":0.0,"id":4743},"arcs":[[58]]}]},"landuse":{"type":"GeometryCollection","geometries":[{"type":"Polygon","properties":{"kind":"residential","name:en":"Storozhevaya","name":"\u0421\u0442\u043e\u0440\u043e\u0436\u0435\u0432\u0430\u044f","area":32779500,"sort_rank":20,"name:de":"Storoschewaja","source":"openstreetmap.org","min_zoom":8.0,"tier":2,"id":77181358},"arcs":[[59]]},{"type":"Polygon","properties":{"kind":"residential","name:en":"Psebai","name":"\u041f\u0441\u0435\u0431\u0430\u0439","area":25823200,"sort_rank":20,"source":"openstreetmap.org","min_zoom":8.0,"old_name":"\u0441\u0442\u0430\u043d\u0438\u0446\u0430 \u041f\u0441\u0435\u0431\u0430\u0439\u0441\u043a\u0430\u044f","tier":2,"id":-4065273,"osm_relation":true},"arcs":[[60]]},{"type":"Polygon","properties":{"kind":"residential","name:en":"Pregradnaya","name":"\u041f\u0440\u0435\u0433\u0440\u0430\u0434\u043d\u0430\u044f","area":22518900,"sort_rank":20,"name:de":"Pregradnaja","source":"openstreetmap.org","min_zoom":8.0,"osm_relation":true,"name:hy":"\u054a\u0580\u0565\u0563\u0580\u0561\u0564\u0576\u0561\u0575\u0561","tier":2,"id":-2982535,"name:es":"Pregradnaya"},"arcs":[[61]]},{"type":"Polygon","properties":{"kind":"residential","name":"\u041a\u0440\u0430\u0441\u043d\u043e\u0433\u043e\u0440\u0441\u043a\u0430\u044f","area":10284400,"sort_rank":20,"source":"openstreetmap.org","min_zoom":8.0,"tier":2,"id":83587194},"arcs":[[62]]},{"type":"Polygon","properties":{"kind":"residential","name":"\u041a\u0443\u0440\u0434\u0436\u0438\u043d\u043e\u0432\u043e","area":15183800,"sort_rank":20,"source":"openstreetmap.org","min_zoom":8.0,"tier":2,"id":77181644},"arcs":[[63]]},{"type":"Polygon","properties":{"kind":"residential","name:en":"Zelenchukskaya","name":"\u0417\u0435\u043b\u0435\u043d\u0447\u0443\u043a\u0441\u043a\u0430\u044f","area":44147300,"sort_rank":20,"name:de":"Selentschukskaja","source":"openstreetmap.org","min_zoom":8.0,"name:uk":"\u0417\u0435\u043b\u0435\u043d\u0447\u0443\u0446\u044c\u043a\u0430","name:hy":"\u0536\u0565\u056c\u0565\u0576\u0579\u0578\u0582\u056f\u057d\u056f\u0561\u0575\u0561","tier":2,"id":77181303},"arcs":[[64]]},{"type":"Polygon","properties":{"kind":"residential","name":"\u041d\u043e\u0432\u0430\u044f \u0414\u0436\u0435\u0433\u0443\u0442\u0430","area":10084200,"sort_rank":20,"official_name":"\u0430\u0443\u043b \u041d\u043e\u0432\u0430\u044f \u0414\u0436\u0435\u0433\u0443\u0442\u0430","source":"openstreetmap.org","min_zoom":8.0,"tier":2,"id":83488911},"arcs":[[65]]},{"type":"MultiPolygon","properties":{"source":"naturalearthdata.com","kind":"urban_area","name":"","area":2399592587,"sort_rank":11,"min_zoom":4.0},"arcs":[[[66]],[[67]],[[68]]]},{"type":"Polygon","properties":{"kind":"residential","name:en":"Kardonikskaya","name":"\u041a\u0430\u0440\u0434\u043e\u043d\u0438\u043a\u0441\u043a\u0430\u044f","area":31870600,"sort_rank":20,"name:de":"Kardonikskaja","source":"openstreetmap.org","min_zoom":8.0,"name:hy":"\u053f\u0561\u0580\u0564\u0578\u0576\u056b\u056f\u057d\u056f\u0561\u0575\u0561","tier":2,"id":73990511},"arcs":[[69]]},{"type":"Polygon","properties":{"kind":"residential","name:en":"Teberda","name":"\u0422\u0435\u0431\u0435\u0440\u0434\u0430","area":23083200,"sort_rank":20,"name:de":"Teberda","source":"openstreetmap.org","min_zoom":8.0,"tier":2,"id":67850547},"arcs":[[70]]},{"type":"Polygon","properties":{"int_name":"Karachayevsk","min_zoom":8.0,"name:it":"Kara\u010daevsk","name:uk":"\u041a\u0430\u0440\u0430\u0447\u0430\u0454\u0432\u0441\u044c\u043a","name:hy":"\u053f\u0561\u0580\u0561\u0579\u0561\u0587\u057d\u056f","tier":2,"name:pl":"Karaczajewsk","id":-5763526,"osm_relation":true,"kind":"residential","name:en":"Karachayevsk","name":"\u041a\u0430\u0440\u0430\u0447\u0430\u0435\u0432\u0441\u043a","area":14946100,"sort_rank":20,"name:de":"Karatschajewsk","source":"openstreetmap.org","name:zh":"\u5361\u62c9\u6070\u8036\u592b\u65af\u514b"},"arcs":[[71]]},{"type":"MultiPolygon","properties":{"source":"openstreetmap.org","kind":"park","tier":2,"area":541371004,"sort_rank":24,"min_zoom":6.0,"osm_relation":true},"arcs":[[[72]]]},{"type":"Polygon","properties":{"kind":"residential","name:en":"Ali-Berdukovskiy","name":"\u0410\u043b\u0438-\u0411\u0435\u0440\u0434\u0443\u043a\u043e\u0432\u0441\u043a\u0438\u0439","area":11357700,"sort_rank":20,"name:de":"Ali-Berdukowski","source":"openstreetmap.org","min_zoom":8.0,"name:hy":"\u0531\u056c\u056b-\u0532\u0565\u0580\u0564\u0578\u0582\u056f\u0578\u057e\u057d\u056f\u056b","tier":2,"id":72061123},"arcs":[[73]]},{"type":"Polygon","properties":{"kind":"residential","name":"\u0423\u0441\u0442\u044c-\u0414\u0436\u0435\u0433\u0443\u0442\u0430","area":31731700,"sort_rank":20,"source":"openstreetmap.org","min_zoom":8.0,"tier":2,"id":84171816},"arcs":[[74]]},{"type":"MultiPolygon","properties":{"source":"openstreetmap.org","kind":"park","tier":2,"area":7998626682,"sort_rank":24,"min_zoom":4.0,"osm_relation":true},"arcs":[[[75]],[[76]],[[77],[78],[79]]]},{"type":"Polygon","properties":{"kind":"residential","name:en":"Ispravnaya","name":"\u0418\u0441\u043f\u0440\u0430\u0432\u043d\u0430\u044f","area":17113100,"sort_rank":20,"name:de":"Isprawnaja","source":"openstreetmap.org","min_zoom":8.0,"tier":2,"id":83014166},"arcs":[[80]]}]}},"type":"Topology","transform":{"translate":[40.78125,43.0688877742],"scale":[0.0003433228,0.0002487054]},"arcs":[[[4096,599],[-20,-12],[-50,30],[-157,-56],[-41,22],[-161,-109],[-61,122],[-138,-19],[-38,-40],[-50,91],[-111,14],[-54,86],[-64,-29],[8,-36],[-51,-90],[-51,13],[-78,-51],[-48,69],[-42,-3],[-131,93],[-103,-93],[-34,-5],[-67,83],[-69,-64],[-59,-3],[-30,43],[-59,23],[-21,65],[-42,-17],[-51,81],[-107,28],[-134,128],[-65,-9],[-48,38],[-40,70],[13,87],[-58,47],[-81,15],[-73,-91],[-53,4],[-17,-36],[-75,-10],[-47,43],[0,52],[-50,16],[-43,-23],[-69,89],[-150,10],[-36,23],[-8,57],[-74,-26],[-62,28],[-28,-75],[-149,44],[-119,145],[-159,-50],[-60,36],[-16,78],[-90,41],[19,45],[-24,80],[-42,-18],[-142,12],[-136,69]],[[3698,0],[19,64],[65,37],[25,95],[45,25],[50,102],[-21,78],[57,20],[-1,55],[22,5],[-92,39],[5,20],[-87,6]],[[3785,546],[-118,-72],[-61,122],[-138,-19],[-38,-40],[-50,91],[-111,14],[-54,86],[-64,-29],[8,-36],[-51,-90],[-51,13],[-78,-51],[-48,69],[-42,-3],[-131,93],[-103,-93],[-34,-5],[-67,83],[-69,-64],[-59,-3],[-30,43],[-59,23],[-21,65],[-42,-17],[-51,81],[-107,28],[-134,128],[-65,-9],[-48,38],[-40,70],[13,87],[-58,47],[-81,15],[-73,-91],[-53,4],[-17,-36],[-75,-10],[-47,43],[0,52],[-50,16],[-43,-23],[-69,89],[-150,10],[-36,23],[-8,57],[-74,-26],[-62,28],[-24,-74],[-70,8],[-100,48],[-102,132],[-142,-51],[-66,25],[-11,73],[-106,58],[19,45],[-24,80],[-42,-18],[-142,12],[-136,73]],[[4096,599],[-20,-12],[-50,30],[-92,-49],[-80,-6],[-26,21],[-43,-37]],[[2258,4096],[1,-1],[-33,-182],[-167,16],[-15,31],[-9,-212],[-104,11],[-113,-91],[-78,97],[-29,-2],[12,20],[-43,7],[14,-47],[-37,-26],[29,-62],[-131,8],[-13,79],[-27,4],[33,24],[1,5],[-59,-28],[59,59],[21,52],[-37,-26],[-4,-39],[-4,27],[-20,-25],[10,35],[-18,-19],[3,-33],[-29,21],[-5,-48],[-32,66],[-79,-33],[11,48],[90,113],[-12,91],[32,-57],[19,-12],[20,25],[-30,95],[-27,9]],[[404,4096],[-27,-16],[2,-35],[45,-27],[-23,-121],[48,-83],[-39,-38],[-31,-124],[-75,-131],[-72,9],[-78,-104],[-91,-13],[-49,-152],[-14,-7]],[[0,60],[28,-1],[30,35],[48,-2],[173,-92]],[[0,62],[5,-1],[154,-61],[-159,0],[0,62]],[[0,62],[5,-1],[154,-61]],[[2648,3192],[-211,-32]],[[3217,3322],[-109,-76],[-165,4],[-152,-49]],[[3217,3322],[1,-1]],[[3218,3322],[-1,0]],[[2766,3190],[-79,6]],[[2437,3160],[-22,-1]],[[2342,3161],[-28,2]],[[3218,3321],[1,-2]],[[3220,3323],[-2,-1]],[[3219,3319],[1,4]],[[3265,2980],[-33,84],[30,109],[-19,37],[12,51],[-36,58]],[[3220,3323],[33,132]],[[3262,3538],[29,99],[120,112],[13,63]],[[3219,3321],[-1,1]],[[3218,3322],[0,-1],[1,0]],[[3253,3455],[9,83]],[[3296,2892],[2,26]],[[3409,3911],[27,13]],[[3444,3928],[51,168]],[[3353,2859],[-44,22]],[[3298,2918],[-9,54],[-24,8]],[[3424,3812],[-15,99]],[[3436,3924],[8,4]],[[2314,3163],[-17,17]],[[93,62],[-53,-4]],[[501,0],[-190,61],[-3,-18]],[[406,3884],[57,-87]],[[491,3802],[85,-138],[72,-49],[63,27],[76,-63],[50,42],[137,-107],[167,-5]],[[2252,3242],[-211,131],[-52,13],[-120,-27],[-147,60],[-38,43],[-139,-17],[-56,-71],[-70,-2],[-70,14],[-122,108],[-43,7]],[[4096,2850],[-104,7],[-152,-86],[-138,61],[-86,-22],[-263,49]],[[2437,3160]],[[2655,3193],[-7,-1]],[[2687,3196],[-6,0]],[[2791,3201],[-25,-11]],[[270,21],[-175,41]],[[2415,3159],[-73,2]],[[463,3797],[28,5]],[[1184,3501],[-43,8]],[[2286,3181],[-34,61]],[[3309,2881],[-13,11]],[[2297,3180],[-11,1]],[[40,58],[-40,4]],[[95,62],[-2,0]],[[306,38],[-36,-17]],[[306,38],[2,5]],[[178,4096],[11,-36],[119,-107],[13,-53]],[[321,3894],[0,6]],[[321,3894],[85,-10]],[[2681,3196],[-26,-3]],[[159,0],[-154,61],[-5,1],[0,4034],[4096,0],[0,-4096],[-3937,0]],[[1862,3204],[19,95],[84,67],[48,-22],[-4,-177],[-147,37]],[[12,4096],[-5,-9],[-4,9],[9,0]],[[1110,3447],[42,37],[-31,72],[55,15],[-23,60],[23,13],[53,-37],[10,56],[21,-3],[-7,-70],[-22,-6],[16,-75],[-64,-8],[-56,-67],[-17,13]],[[3186,3471],[12,86],[47,3],[28,-35],[-8,-72],[-79,18]],[[434,3889],[22,19],[73,-223],[-29,-102],[25,4],[14,-39],[-42,-27],[15,21],[-20,64],[20,40],[-45,54],[18,26],[-51,163]],[[2250,3241],[68,48],[93,-36],[2,-60],[32,-19],[-101,-170],[-94,237]],[[3594,3823],[77,-4],[15,-74],[40,-18],[-40,-31],[-30,18],[-62,109]],[[3335,2758],[-85,85],[-45,139],[95,-3],[67,-42],[-32,-179]],[[2429,3116],[-123,99],[-7,80],[65,0],[44,-29],[21,-150]],[[3370,4096],[194,0],[-3,-42],[-99,-178],[2,-90],[-69,44],[-30,120],[2,138],[3,8]],[[2647,3124],[1,107],[33,48],[59,14],[84,-150],[-58,-3],[-76,-43],[-43,27]],[[2766,1620],[70,96],[-4,-85],[74,-41],[-63,-1],[-58,-196],[-19,227]],[[3206,2735],[14,63],[72,63],[-6,51],[32,16],[7,-28],[-30,-35],[43,-5],[-5,-39],[-42,-59],[-85,-27]],[[1276,1257],[89,45],[-17,49],[26,47],[101,10],[37,112],[-138,264],[-21,90],[82,53],[17,49],[208,29],[84,65],[74,-140],[-33,-131],[-103,-13],[-92,76],[-77,25],[42,-45],[-1,-49],[78,-71],[8,-42],[-34,-40],[79,-84],[-8,-218],[34,-115],[-20,-41],[-68,-66],[-46,8],[-17,-36],[-75,-10],[-47,43],[0,52],[-50,16],[-43,-23],[-69,91]],[[2754,3624],[23,81],[-14,31],[80,91],[18,-6],[-64,-185],[-21,-25],[-22,13]],[[3368,3948],[62,7],[4,139],[1,2],[83,0],[-2,-33],[-59,-67],[7,-59],[-65,-30],[-31,41]],[[0,1983],[0,494],[23,-16],[0,-60],[49,-33],[-20,-33],[24,-24],[-30,-46],[48,-17],[-94,-265]],[[0,1751],[0,75],[63,-33],[-5,-59],[-58,17]],[[2108,843],[1,80],[25,27],[-23,43],[77,58],[70,-11],[60,37],[-16,106],[-45,34],[75,68],[12,65],[-18,16],[54,38],[-13,27],[35,120],[25,26],[7,-65],[67,18],[-11,-38],[65,-3],[24,70],[-65,29],[7,43],[247,-37],[6,-201],[20,5],[49,191],[235,-33],[-163,28],[-83,47],[-6,31],[39,106],[135,196],[180,176],[3,108],[64,95],[263,28],[221,-34],[73,-53],[129,-165],[-15,-140],[-61,-36],[58,-25],[-97,-340],[-241,-156],[-56,-85],[27,-317],[-140,-128],[-139,-250],[-28,66],[-39,10],[-54,-23],[11,-32],[-52,-90],[-50,13],[-78,-51],[-48,69],[-42,-3],[-131,93],[-103,-93],[-34,-5],[-67,83],[-69,-64],[-59,-3],[-30,43],[-59,23],[-21,65],[-42,-17],[-51,81],[-115,36]],[[3159,1543],[133,-81],[-123,79],[-10,2]],[[3185,933],[63,-54],[-2,15],[-61,39]],[[2341,3933],[46,129],[28,34],[38,0],[-14,-101],[-12,-21],[-21,11],[-54,-94],[-11,42]]]}