{"objects":{"water":{"type":"GeometryCollection","geometries":[{"type":"Polygon","properties":{"source":"naturalearthdata.com","kind":"ocean","area":1576712559132672,"sort_rank":200,"min_zoom":0.0,"id":1},"arcs":[[6]]},{"type":"MultiLineString","properties":{"source":"naturalearthdata.com","kind":"ocean","sort_rank":205,"boundary":true,"min_zoom":0.0,"id":72},"arcs":[[7],[8],[9],[10]]}]},"buildings":{"type":"GeometryCollection","geometries":[]},"places":{"type":"GeometryCollection","geometries":[]},"transit":{"type":"GeometryCollection","geometries":[]},"pois":{"type":"GeometryCollection","geometries":[]},"boundaries":{"type":"GeometryCollection","geometries":[{"type":"LineString","properties":{"name:right:yo":"Nikar\u00e1g\u00fa\u00e0","name:left:la":"Ora Opulenta","name:right:qu":"Nikarawa","name:right:yi":"\u05e0\u05d9\u05e7\u05d0\u05e8\u05d0\u05d2\u05d5\u05d0","name:right:hy":"\u0546\u056b\u056f\u0561\u0580\u0561\u0563\u0578\u0582\u0561","name:left:su":"Kosta Rika","name:right:hr":"Nikaragva","name:left:sq":"Kosta Rika","name:left:ln":"Kosta Rika","name:left:sr":"\u041a\u043e\u0441\u0442\u0430\u0440\u0438\u043a\u0430","name:left:sl":"Kostarika","name:left:so":"Kosta Rika","name:left:lt":"Kosta Rika","name:left:sh":"Kostarika","name:left:lv":"Kostarika","name:right:mr":"\u0928\u093f\u0915\u093e\u0930\u093e\u0917\u094d\u0935\u093e","name:left:sa":"\u0915\u094b\u0938\u094d\u091f\u093e \u0930\u0940\u0915\u093e","name:right:he":"\u05e0\u05d9\u05e7\u05e8\u05d2\u05d5\u05d0\u05d4","name:left:ce":"\u041a\u043e\u0441\u0442\u0430-\u0420\u0438\u043a\u0430","name:right:am":"\u1292\u12ab\u122b\u1313","source":"openstreetmap.org","name:right:ar":"\u0646\u064a\u0643\u0627\u0631\u0627\u062c\u0648\u0627","name:right:el":"\u039d\u03b9\u03ba\u03b1\u03c1\u03ac\u03b3\u03bf\u03c5\u03b1","name:right:az":"Nikaraqua","name:right:ay":"Nikarwa","name:left:sw":"Kosta Rika","name:left:ka":"\u10d9\u10dd\u10e1\u10e2\u10d0-\u10e0\u10d8\u10d9\u10d0","name:right:zh-yue":"\u5c3c\u52a0\u62c9\u74dc","name:right:ht":"Nikaragwa","name:left:ko":"\ucf54\uc2a4\ud0c0\ub9ac\uce74","name:left:kn":"\u0c95\u0ccb\u0cb8\u0ccd\u0c9f\u0cbe \u0cb0\u0cbf\u0c95","name:right:is":"N\u00edkaragva","name:right:rw":"Nikaragwa","name:left:kk":"\u041a\u043e\u0441\u0442\u0430-\u0420\u0438\u043a\u0430","name:right:ru":"\u041d\u0438\u043a\u0430\u0440\u0430\u0433\u0443\u0430","name:left:ku":"Kosta R\u00eeka","name:left:kw":"Kosta Rika","name:left:rw":"Kosita Rika","name:left:ru":"\u041a\u043e\u0441\u0442\u0430-\u0420\u0438\u043a\u0430","name:right:id":"Nikaragua","name:right:bo":"\u0f53\u0f72\u0f0b\u0f40\u0f0b\u0f62\u0f0b\u0f42\u0f74\u0f0b\u0f5d\u0f0d","name:right:bn":"\u09a8\u09bf\u0995\u09be\u09b0\u09be\u0997\u09c1\u09af\u09bc\u09be","name":"Costa Rica - Nicaragua","name:right:bm":"Nikaragwa","name:right:ba":"\u041d\u0438\u043a\u0430\u0440\u0430\u0433\u0443\u0430","name:right:bg":"\u041d\u0438\u043a\u0430\u0440\u0430\u0433\u0443\u0430","name:right:be":"\u041d\u0456\u043a\u0430\u0440\u0430\u0433\u0443\u0430","name:left:zh":"\u54e5\u65af\u8fbe\u9ece\u52a0","name:left:si":"\u0d9a\u0ddd\u0dc3\u0dca\u0da7 \u0dbb\u0dd2\u0d9a\u0dcf","name:right:zh":"\u5c3c\u52a0\u62c9\u74dc","name:left:uz":"Kosta Rika","name:left:sk":"Kostarika","name:right:ko":"\ub2c8\uce74\ub77c\uacfc","name:left:ur":"\u06a9\u0648\u0633\u0679\u0627\u0631\u06cc\u06a9\u0627","name:right:wo":"Nikaraaguwa","name:right:ne":"\u0928\u093f\u0915\u093e\u0930\u093e\u0917\u094d\u0935\u093e","id:right":-287666,"name:left:uk":"\u041a\u043e\u0441\u0442\u0430-\u0420\u0438\u043a\u0430","name:right:ps":"\u0646\u06cc\u06a9\u0627\u0631\u0627\u06ab\u0648\u0627","name:right:hi":"\u0928\u093f\u0915\u093e\u0930\u093e\u0917\u0941\u0906","name:right:fa":"\u0646\u06cc\u06a9\u0627\u0631\u0627\u06af\u0648\u0626\u0647","name:right:fo":"Nikaragua","name:left:ne":"\u0915\u094b\u0938\u094d\u091f\u093e\u0930\u093f\u0915\u093e","name:left:ug":"\u0643\u0648\u0633\u062a\u0627\u0631\u0649\u0643\u0627","name:left:na":"Kosta Rika","name:left:eo":"Kostariko","name:left:el":"\u039a\u03cc\u03c3\u03c4\u03b1 \u03a1\u03af\u03ba\u03b1","kind_detail":"2","name:right:tt":"\u041d\u0438\u043a\u0430\u0440\u0430\u0433\u0443\u0430","name:left:hr":"Kostarika","name:left:ss":"IKhosta-Likha","name:right:gv":"Yn Nickeraag","name:right:pt":"Nicar\u00e1gua","name:left:mk":"\u041a\u043e\u0441\u0442\u0430\u0440\u0438\u043a\u0430","name:left:tr":"Kosta Rika","name:left:tt":"\u041a\u043e\u0441\u0442\u0430-\u0420\u0438\u043a\u0430","name:left:mn":"\u041a\u043e\u0441\u0442\u0430-\u0420\u0438\u043a\u0430","name:left:ml":"\u0d15\u0d4b\u0d38\u0d4d\u0d31\u0d4d\u0d31 \u0d31\u0d40\u0d15\u0d4d\u0d15","name:left:th":"\u0e1b\u0e23\u0e30\u0e40\u0e17\u0e28\u0e04\u0e2d\u0e2a\u0e15\u0e32\u0e23\u0e34\u0e01\u0e32","name:right:pa":"\u0a28\u0a3f\u0a15\u0a3e\u0a30\u0a3e\u0a17\u0a41\u0a06","name:right:ga":"Nicearagua","name:right:tr":"Nikaragua","name:left:mt":"Kosta Rika","name:left:ta":"\u0b95\u0bcb\u0bb8\u0bcd\u0b9f\u0bcd\u0b9f\u0bbe \u0bb0\u0bbf\u0b95\u0bcd\u0b95\u0bbe","name:left:my":"\u1000\u1031\u102c\u1037\u1005\u1010\u102c\u101b\u102e\u1000\u102c\u1014\u102d\u102f\u1004\u103a\u1004\u1036","name:right:gn":"Nikaragua","name:right:pl":"Nikaragua","name:left:te":"\u0c15\u0c4b\u0c38\u0c4d\u0c1f\u0c3e\u0c30\u0c40\u0c15\u0c3e","name:right:os":"\u041d\u0438\u043a\u0430\u0440\u0430\u0433\u0443\u00e6","name:left:tg":"\u041a\u043e\u0441\u0442\u0430 \u0420\u0438\u043a\u0430","name:left:mr":"\u0915\u094b\u0938\u094d\u091f\u093e \u0930\u093f\u0915\u093e","name:left:ar":"\u0643\u0648\u0633\u062a\u0627\u0631\u064a\u0643\u0627","name:right:ku":"N\u00eekaragua","name:left:dv":"\u0786\u07ae\u0790\u07b0\u0793\u07a6\u0783\u07a9\u0786\u07a7","name:right:ug":"\u0646\u0649\u0643\u0627\u0631\u0627\u06af\u06c7\u0626\u0627","name:left:hi":"\u0915\u094b\u0938\u094d\u091f\u093e \u0930\u0940\u0915\u093e","name:right:uk":"\u041d\u0456\u043a\u0430\u0440\u0430\u0433\u0443\u0430","name:left:he":"\u05e7\u05d5\u05e1\u05d8\u05d4 \u05e8\u05d9\u05e7\u05d4","name:right:ln":"Nikalagwa","name:right:kv":"\u041d\u0438\u043a\u0430\u0440\u0430\u0433\u0443\u0430","name:right:lt":"Nikaragva","name:right:ur":"\u0646\u06a9\u0627\u0631\u0627\u06af\u0648\u0627","name:right:lv":"Nikaragva","name:left:hy":"\u053f\u0578\u057d\u057f\u0561 \u054c\u056b\u056f\u0561","name:left:ht":"Kostarika","name:right:uz":"Nikaragua","name:left:wo":"Kosta Riika","name:left:ga":"C\u00f3sta R\u00edce","sort_rank":262,"name:right:gd":"Niocaragua","name:left:gn":"Kosta Rrika","osm_relation":true,"name:right:bs":"Nikaragva","name:right:or":"\u0b28\u0b3f\u0b15\u0b3e\u0b30\u0b3e\u0b17\u0b41\u0b06","name:left":"Costa Rica","name:right:mk":"\u041d\u0438\u043a\u0430\u0440\u0430\u0433\u0432\u0430","name:left:ja":"\u30b3\u30b9\u30bf\u30ea\u30ab","name:right:mn":"\u041d\u0438\u043a\u0430\u0440\u0430\u0433\u0443\u0430","name:right:eu":"Nikaragua","name:right:ml":"\u0d28\u0d3f\u0d15\u0d4d\u0d15\u0d30\u0d3e\u0d17\u0d4d\u0d35","name:right:vo":"Nikaraguv\u00e4n","name:left:os":"\u041a\u043e\u0441\u0442\u0430-\u0420\u0438\u043a\u00e6","name:left:gv":"Yn Coose Ber\u00e7hagh","name:right:my":"\u1014\u102e\u1000\u102c\u101b\u102c\u1002\u103d\u102b\u1014\u102d\u102f\u1004\u103a\u1004\u1036","name:left:vo":"Kostarik\u00e4n","name:left:oc":"C\u00f2sta Rica","name:right:fy":"Nikarag\u00fba","name:right:eo":"Nikaragvo","name:right:mt":"Nikaragwa","kind":"country","name:left:fa":"\u06a9\u0627\u0633\u062a\u0627\u0631\u06cc\u06a9\u0627","name:left:fo":"Kosta Rika","name:right:sk":"Nikaragua","name:left:cs":"Kostarika","name:left:fy":"Kosta Rika","name:left:bs":"Kostarika","name:right:ja":"\u30cb\u30ab\u30e9\u30b0\u30a2","name:right:sq":"Nikaraguaja","name:right:ss":"INikhalaga","name:right:sr":"\u041d\u0438\u043a\u0430\u0440\u0430\u0433\u0432\u0430","name:right:su":"Nikaragua","name:right:sw":"Nikaragua","name:right:sh":"Nikaragva","name:left:qu":"Kustarika","name:left:ba":"\u041a\u043e\u0441\u0442\u0430-\u0420\u0438\u043a\u0430","name:right:jv":"Nikaragua","name:left:bg":"\u041a\u043e\u0441\u0442\u0430 \u0420\u0438\u043a\u0430","name:right:so":"Nikaragua","name:left:be":"\u041a\u043e\u0441\u0442\u0430-\u0420\u044b\u043a\u0430","name:right:sa":"\u0928\u093f\u0915\u093e\u0930\u0917\u0941\u0935\u093e","name:right:sl":"Nikaragva","name:left:bn":"\u0995\u09cb\u09b8\u09cd\u099f\u09be \u09b0\u09bf\u0995\u09be","name:left:bo":"\u0f41\u0f7c\u0f0b\u0f66\u0f0b\u0f4f\u0f0b\u0f62\u0f72\u0f0b\u0f41","name:right":"Nicaragua","name:left:jv":"Kosta Rika","name:right:ce":"\u041d\u0438\u043a\u0430\u0440\u0430\u0433\u0443\u0430","id":-287667,"name:left:yo":"K\u00f3st\u00e1 Rik\u00e0","name:left:yi":"\u05e7\u05d0\u05e1\u05d8\u05d0 \u05e8\u05d9\u05e7\u05d0","id:left":-287667,"min_zoom":8.0,"name:right:cs":"Nikaragua","name:left:bm":"Kosta Rika","name:right:ka":"\u10dc\u10d8\u10d9\u10d0\u10e0\u10d0\u10d2\u10e3\u10d0","name:left:or":"\u0b15\u0b4b\u0b37\u0b4d\u0b1f\u0b3e\u0b30\u0b3f\u0b15\u0b3e","name:left:io":"Kosta Rika","name:left:pa":"\u0a15\u0a4b\u0a38\u0a24\u0a3e \u0a30\u0a40\u0a15\u0a3e","name:left:pl":"Kostaryka","name:right:kk":"\u041d\u0438\u043a\u0430\u0440\u0430\u0433\u0443\u0430","name:left:id":"Kosta Rika","name:left:az":"Kosta-Rika","name:left:ay":"Kustarika","name:right:th":"\u0e1b\u0e23\u0e30\u0e40\u0e17\u0e28\u0e19\u0e34\u0e01\u0e32\u0e23\u0e32\u0e01\u0e31\u0e27","name:right:kw":"Nikaragwa","name:left:ps":"\u06a9\u0648\u0633\u067c\u0627\u0631\u06cc\u06a9\u0627","name:left:am":"\u12ae\u1235\u1273 \u122a\u12ab","name:right:tg":"\u041d\u0438\u043a\u0430\u0440\u0430\u0433\u0443\u0430","name:left:is":"Kosta R\u00edka","name:right:ta":"\u0ba8\u0bbf\u0b95\u0bcd\u0b95\u0bb0\u0bbe\u0b95\u0bc1\u0bb5\u0bbe","name:right:io":"Nikaragua","maritime_boundary":true,"name:left:zh-yue":"\u54e5\u65af\u9054\u9ece\u52a0","name:right:dv":"\u0782\u07a8\u0786\u07a6\u0783\u07a7\u078e\u07aa\u0787\u07a7"},"arcs":[0]},{"type":"LineString","properties":{"name:ps":"\u06a9\u0648\u0633\u067c\u0627\u0631\u06cc\u06a9\u0627","name:ka":"\u10d9\u10dd\u10e1\u10e2\u10d0-\u10e0\u10d8\u10d9\u10d0","name:ko":"\ucf54\uc2a4\ud0c0\ub9ac\uce74","name:kn":"\u0c95\u0ccb\u0cb8\u0ccd\u0c9f\u0cbe \u0cb0\u0cbf\u0c95","name:cs":"Kostarika","name:tt":"\u041a\u043e\u0441\u0442\u0430-\u0420\u0438\u043a\u0430","name:kw":"Kosta Rika","name:ku":"Kosta R\u00eeka","name:pa":"\u0a15\u0a4b\u0a38\u0a24\u0a3e \u0a30\u0a40\u0a15\u0a3e","name:os":"\u041a\u043e\u0441\u0442\u0430-\u0420\u0438\u043a\u00e6","name:or":"\u0b15\u0b4b\u0b37\u0b4d\u0b1f\u0b3e\u0b30\u0b3f\u0b15\u0b3e","name:ce":"\u041a\u043e\u0441\u0442\u0430-\u0420\u0438\u043a\u0430","name:ta":"\u0b95\u0bcb\u0bb8\u0bcd\u0b9f\u0bcd\u0b9f\u0bbe \u0bb0\u0bbf\u0b95\u0bcd\u0b95\u0bbe","name:tg":"\u041a\u043e\u0441\u0442\u0430 \u0420\u0438\u043a\u0430","name:te":"\u0c15\u0c4b\u0c38\u0c4d\u0c1f\u0c3e\u0c30\u0c40\u0c15\u0c3e","source":"openstreetmap.org","sort_rank":262,"name:qu":"Kustarika","name:ba":"\u041a\u043e\u0441\u0442\u0430-\u0420\u0438\u043a\u0430","name:tr":"Kosta Rika","name:sq":"Kosta Rika","name:dv":"\u0786\u07ae\u0790\u07b0\u0793\u07a6\u0783\u07a9\u0786\u07a7","name:lv":"Kostarika","name:lt":"Kosta Rika","name:uz":"Kosta Rika","name:kk":"\u041a\u043e\u0441\u0442\u0430-\u0420\u0438\u043a\u0430","name:he":"\u05e7\u05d5\u05e1\u05d8\u05d4 \u05e8\u05d9\u05e7\u05d4","name:eo":"Kostariko","name:ur":"\u06a9\u0648\u0633\u0679\u0627\u0631\u06cc\u06a9\u0627","name:la":"Ora Opulenta","name:uk":"\u041a\u043e\u0441\u0442\u0430-\u0420\u0438\u043a\u0430","name:hy":"\u053f\u0578\u057d\u057f\u0561 \u054c\u056b\u056f\u0561","name:ug":"\u0643\u0648\u0633\u062a\u0627\u0631\u0649\u0643\u0627","name:ln":"Kosta Rika","name:oc":"C\u00f2sta Rica","name:el":"\u039a\u03cc\u03c3\u03c4\u03b1 \u03a1\u03af\u03ba\u03b1","kind":"country","name":"Costa Rica","min_zoom":8.0,"name:th":"\u0e1b\u0e23\u0e30\u0e40\u0e17\u0e28\u0e04\u0e2d\u0e2a\u0e15\u0e32\u0e23\u0e34\u0e01\u0e32","name:yi":"\u05e7\u05d0\u05e1\u05d8\u05d0 \u05e8\u05d9\u05e7\u05d0","name:jv":"Kosta Rika","name:yo":"K\u00f3st\u00e1 Rik\u00e0","name:ay":"Kustarika","name:mt":"Kosta Rika","name:az":"Kosta-Rika","name:id":"Kosta Rika","name:mr":"\u0915\u094b\u0938\u094d\u091f\u093e \u0930\u093f\u0915\u093e","name:ar":"\u0643\u0648\u0633\u062a\u0627\u0631\u064a\u0643\u0627","name:my":"\u1000\u1031\u102c\u1037\u1005\u1010\u102c\u101b\u102e\u1000\u102c\u1014\u102d\u102f\u1004\u103a\u1004\u1036","name:io":"Kosta Rika","name:is":"Kosta R\u00edka","name:am":"\u12ae\u1235\u1273 \u122a\u12ab","name:ru":"\u041a\u043e\u0441\u0442\u0430-\u0420\u0438\u043a\u0430","id":-287667,"name:ml":"\u0d15\u0d4b\u0d38\u0d4d\u0d31\u0d4d\u0d31 \u0d31\u0d40\u0d15\u0d4d\u0d15","name:rw":"Kosita Rika","name:pl":"Kostaryka","name:mk":"\u041a\u043e\u0441\u0442\u0430\u0440\u0438\u043a\u0430","name:vo":"Kostarik\u00e4n","name:fa":"\u06a9\u0627\u0633\u062a\u0627\u0631\u06cc\u06a9\u0627","name:mn":"\u041a\u043e\u0441\u0442\u0430-\u0420\u0438\u043a\u0430","name:ss":"IKhosta-Likha","kind_detail":"2","name:hi":"\u0915\u094b\u0938\u094d\u091f\u093e \u0930\u0940\u0915\u093e","name:fo":"Kosta Rika","name:zh-yue":"\u54e5\u65af\u9054\u9ece\u52a0","name:fy":"Kosta Rika","name:zh":"\u54e5\u65af\u8fbe\u9ece\u52a0","name:hr":"Kostarika","name:so":"Kosta Rika","name:sl":"Kostarika","name:sk":"Kostarika","name:ja":"\u30b3\u30b9\u30bf\u30ea\u30ab","name:si":"\u0d9a\u0ddd\u0dc3\u0dca\u0da7 \u0dbb\u0dd2\u0d9a\u0dcf","name:sh":"Kostarika","name:na":"Kosta Rika","name:ne":"\u0915\u094b\u0938\u094d\u091f\u093e\u0930\u093f\u0915\u093e","name:sa":"\u0915\u094b\u0938\u094d\u091f\u093e \u0930\u0940\u0915\u093e","name:bs":"Kostarika","name:bm":"Kosta Rika","name:bn":"\u0995\u09cb\u09b8\u09cd\u099f\u09be \u09b0\u09bf\u0995\u09be","name:bo":"\u0f41\u0f7c\u0f0b\u0f66\u0f0b\u0f4f\u0f0b\u0f62\u0f72\u0f0b\u0f41","name:sw":"Kosta Rika","name:be":"\u041a\u043e\u0441\u0442\u0430-\u0420\u044b\u043a\u0430","name:su":"Kosta Rika","name:bg":"\u041a\u043e\u0441\u0442\u0430 \u0420\u0438\u043a\u0430","name:wo":"Kosta Riika","name:sr":"\u041a\u043e\u0441\u0442\u0430\u0440\u0438\u043a\u0430","osm_relation":true,"name:ga":"C\u00f3sta R\u00edce","name:ht":"Kostarika","name:gn":"Kosta Rrika","maritime_boundary":true,"name:gv":"Yn Coose Ber\u00e7hagh"},"arcs":[1]},{"type":"LineString","properties":{"name:pt":"Nicar\u00e1gua","name:ps":"\u0646\u06cc\u06a9\u0627\u0631\u0627\u06ab\u0648\u0627","name:ka":"\u10dc\u10d8\u10d9\u10d0\u10e0\u10d0\u10d2\u10e3\u10d0","name:ko":"\ub2c8\uce74\ub77c\uacfc","name:cs":"Nikaragua","name:tt":"\u041d\u0438\u043a\u0430\u0440\u0430\u0433\u0443\u0430","name:kw":"Nikaragwa","name:kv":"\u041d\u0438\u043a\u0430\u0440\u0430\u0433\u0443\u0430","name:ku":"N\u00eekaragua","name:pa":"\u0a28\u0a3f\u0a15\u0a3e\u0a30\u0a3e\u0a17\u0a41\u0a06","name:os":"\u041d\u0438\u043a\u0430\u0440\u0430\u0433\u0443\u00e6","name:or":"\u0b28\u0b3f\u0b15\u0b3e\u0b30\u0b3e\u0b17\u0b41\u0b06","name:ce":"\u041d\u0438\u043a\u0430\u0440\u0430\u0433\u0443\u0430","name:ta":"\u0ba8\u0bbf\u0b95\u0bcd\u0b95\u0bb0\u0bbe\u0b95\u0bc1\u0bb5\u0bbe","name:tg":"\u041d\u0438\u043a\u0430\u0440\u0430\u0433\u0443\u0430","source":"openstreetmap.org","sort_rank":262,"name:qu":"Nikarawa","name:ba":"\u041d\u0438\u043a\u0430\u0440\u0430\u0433\u0443\u0430","name:tr":"Nikaragua","name:sq":"Nikaraguaja","name:dv":"\u0782\u07a8\u0786\u07a6\u0783\u07a7\u078e\u07aa\u0787\u07a7","name:lv":"Nikaragva","name:lt":"Nikaragva","name:uz":"Nikaragua","name:kk":"\u041d\u0438\u043a\u0430\u0440\u0430\u0433\u0443\u0430","name:he":"\u05e0\u05d9\u05e7\u05e8\u05d2\u05d5\u05d0\u05d4","name:eo":"Nikaragvo","name:ur":"\u0646\u06a9\u0627\u0631\u0627\u06af\u0648\u0627","name:uk":"\u041d\u0456\u043a\u0430\u0440\u0430\u0433\u0443\u0430","name:hy":"\u0546\u056b\u056f\u0561\u0580\u0561\u0563\u0578\u0582\u0561","name:ug":"\u0646\u0649\u0643\u0627\u0631\u0627\u06af\u06c7\u0626\u0627","name:ln":"Nikalagwa","name:el":"\u039d\u03b9\u03ba\u03b1\u03c1\u03ac\u03b3\u03bf\u03c5\u03b1","kind":"country","name":"Nicaragua","name:gd":"Niocaragua","min_zoom":8.0,"name:th":"\u0e1b\u0e23\u0e30\u0e40\u0e17\u0e28\u0e19\u0e34\u0e01\u0e32\u0e23\u0e32\u0e01\u0e31\u0e27","name:eu":"Nikaragua","name:jv":"Nikaragua","name:yo":"Nikar\u00e1g\u00fa\u00e0","name:ay":"Nikarwa","name:mt":"Nikaragwa","name:az":"Nikaraqua","name:id":"Nikaragua","name:mr":"\u0928\u093f\u0915\u093e\u0930\u093e\u0917\u094d\u0935\u093e","name:ar":"\u0646\u064a\u0643\u0627\u0631\u0627\u062c\u0648\u0627","name:my":"\u1014\u102e\u1000\u102c\u101b\u102c\u1002\u103d\u102b\u1014\u102d\u102f\u1004\u103a\u1004\u1036","name:io":"Nikaragua","name:is":"N\u00edkaragva","name:am":"\u1292\u12ab\u122b\u1313","name:ru":"\u041d\u0438\u043a\u0430\u0440\u0430\u0433\u0443\u0430","id":-287666,"name:ml":"\u0d28\u0d3f\u0d15\u0d4d\u0d15\u0d30\u0d3e\u0d17\u0d4d\u0d35","name:rw":"Nikaragwa","name:pl":"Nikaragua","name:mk":"\u041d\u0438\u043a\u0430\u0440\u0430\u0433\u0432\u0430","name:vo":"Nikaraguv\u00e4n","name:fa":"\u0646\u06cc\u06a9\u0627\u0631\u0627\u06af\u0648\u0626\u0647","name:mn":"\u041d\u0438\u043a\u0430\u0440\u0430\u0433\u0443\u0430","name:ss":"INikhalaga","kind_detail":"2","name:hi":"\u0928\u093f\u0915\u093e\u0930\u093e\u0917\u0941\u0906","name:fo":"Nikaragua","name:zh-yue":"\u5c3c\u52a0\u62c9\u74dc","name:fy":"Nikarag\u00fba","name:zh":"\u5c3c\u52a0\u62c9\u74dc","name:hr":"Nikaragva","name:so":"Nikaragua","name:sl":"Nikaragva","name:sk":"Nikaragua","name:ja":"\u30cb\u30ab\u30e9\u30b0\u30a2","name:sh":"Nikaragva","name:ne":"\u0928\u093f\u0915\u093e\u0930\u093e\u0917\u094d\u0935\u093e","name:sa":"\u0928\u093f\u0915\u093e\u0930\u0917\u0941\u0935\u093e","name:bs":"Nikaragva","name:yi":"\u05e0\u05d9\u05e7\u05d0\u05e8\u05d0\u05d2\u05d5\u05d0","name:bn":"\u09a8\u09bf\u0995\u09be\u09b0\u09be\u0997\u09c1\u09af\u09bc\u09be","name:bo":"\u0f53\u0f72\u0f0b\u0f40\u0f0b\u0f62\u0f0b\u0f42\u0f74\u0f0b\u0f5d\u0f0d","name:sw":"Nikaragua","name:be":"\u041d\u0456\u043a\u0430\u0440\u0430\u0433\u0443\u0430","name:su":"Nikaragua","name:bg":"\u041d\u0438\u043a\u0430\u0440\u0430\u0433\u0443\u0430","name:wo":"Nikaraaguwa","name:sr":"\u041d\u0438\u043a\u0430\u0440\u0430\u0433\u0432\u0430","osm_relation":true,"name:ga":"Nicearagua","name:bm":"Nikaragwa","name:ht":"Nikaragwa","name:gn":"Nikaragua","maritime_boundary":true,"name:gv":"Yn Nickeraag"},"arcs":[2]},{"type":"LineString","properties":{"kind":"region","name":"Rivas - Provincia Guanacaste","sort_rank":256,"kind_detail":"4","min_zoom":8.0,"id:right":-3222919,"source":"openstreetmap.org","maritime_boundary":true,"official_name:left":"Departamento de Rivas","id:left":-3634066,"name:right":"Provincia Guanacaste","id":-3634066,"osm_relation":true,"name:left":"Rivas"},"arcs":[3]},{"type":"LineString","properties":{"kind":"region","name":"Rivas","sort_rank":256,"kind_detail":"4","min_zoom":8.0,"official_name":"Departamento de Rivas","source":"openstreetmap.org","maritime_boundary":true,"id":-3634066,"osm_relation":true},"arcs":[4]},{"type":"LineString","properties":{"kind":"region","name":"Provincia Guanacaste","sort_rank":256,"kind_detail":"4","min_zoom":8.0,"source":"openstreetmap.org","maritime_boundary":true,"id":-3222919,"osm_relation":true},"arcs":[5]}]},"roads":{"type":"GeometryCollection","geometries":[]},"earth":{"type":"GeometryCollection","geometries":[{"type":"MultiPolygon","properties":{"sort_rank":10,"source":"naturalearthdata.com","min_zoom":0.0,"kind":"earth","area":24044835117},"arcs":[[[11]],[[12]],[[13]],[[14]]]}]},"landuse":{"type":"GeometryCollection","geometries":[{"type":"MultiPolygon","properties":{"source":"openstreetmap.org","kind":"park","tier":2,"area":595456165,"sort_rank":24,"min_zoom":6.0},"arcs":[[[15]],[[16]]]}]}},"type":"Topology","transform":{"translate":[-87.1875,9.7956775828],"scale":[0.0003433228,0.0003375792]},"arcs":[[[4096,3777],[-340,15]],[[3756,3792],[-419,-465],[-9,-293],[130,-167],[341,-37],[236,-100],[7,-196],[-401,-361],[-42,-209],[-115,-265],[13,-154],[168,-693],[431,-544]],[[3417,4096],[339,-304]],[[3756,3792],[340,-15]],[[3417,4096],[339,-304]],[[3756,3792],[-419,-465],[-9,-293],[130,-167],[341,-37],[236,-100],[7,-196],[-401,-361],[-42,-209],[-115,-265],[13,-154],[168,-693],[431,-544]],[[4008,4096],[24,-36],[28,-107],[23,-53],[13,-7],[0,-510],[-4,-1],[-31,-21],[33,-33],[0,-19],[-22,-22],[-18,0],[-37,35],[-12,6],[-6,9],[7,22],[4,27],[-16,23],[-36,8],[-144,-8],[0,-20],[26,-5],[14,-6],[8,-12],[11,-18],[-69,-8],[-123,-56],[-66,-17],[0,-22],[109,-14],[76,-33],[67,-40],[86,-32],[23,-1],[57,6],[21,-5],[17,-21],[-7,-16],[-18,-8],[-14,4],[24,-25],[40,-34],[0,-812],[-2,0],[-25,-56],[-21,-21],[-34,-6],[0,-20],[40,0],[0,-21],[-13,-3],[-8,-4],[-19,-13],[31,-31],[44,-56],[7,-16],[0,-49],[-45,-35],[-21,-46],[-27,-31],[-50,20],[-24,-49],[-34,-51],[-50,-40],[-22,-29],[39,-24],[62,-79],[6,-24],[-16,-29],[-41,-39],[17,-38],[13,-50],[10,-84],[114,-280],[36,-56],[23,-80],[10,-18],[0,-856],[-4096,0],[0,4096],[4008,0]],[[4008,4096],[24,-36],[28,-107],[23,-53],[13,-7]],[[4096,3383],[-4,-1],[-31,-21],[33,-33],[0,-19],[-22,-22],[-18,0],[-37,35],[-12,6],[-6,9],[7,22],[4,27],[-16,23],[-36,8],[-144,-8],[0,-20],[26,-5],[14,-6],[8,-12],[11,-18],[-69,-8],[-123,-56],[-66,-17],[0,-22],[109,-14],[76,-33],[67,-40],[86,-32],[23,-1],[57,6],[21,-5],[17,-21],[-7,-16],[-18,-8],[-14,4],[24,-25],[40,-34]],[[4096,2214],[-2,0],[-25,-56],[-21,-21],[-34,-6],[0,-20],[40,0],[0,-21],[-13,-3],[-8,-4],[-19,-13],[31,-31],[44,-56],[7,-16]],[[4096,1918],[-45,-35],[-21,-46],[-27,-31],[-50,20],[-24,-49],[-34,-51],[-50,-40],[-22,-29],[39,-24],[62,-79],[6,-24],[-16,-29],[-41,-39],[17,-38],[13,-50],[10,-84],[114,-280],[36,-56],[23,-80],[10,-18]],[[4096,1918],[0,-1062],[-10,18],[-23,80],[-36,56],[-114,280],[-10,84],[-13,50],[-17,38],[41,39],[16,29],[-6,24],[-62,79],[-39,24],[22,29],[50,40],[34,51],[24,49],[50,-20],[27,31],[21,46],[45,35]],[[4096,2214],[0,-247],[-7,16],[-44,56],[-31,31],[19,13],[8,4],[13,3],[0,21],[-40,0],[0,20],[34,6],[21,21],[25,56],[2,0]],[[4096,3383],[0,-357],[-40,34],[-24,25],[14,-4],[18,8],[7,16],[-17,21],[-21,5],[-57,-6],[-23,1],[-86,32],[-67,40],[-76,33],[-109,14],[0,22],[66,17],[123,56],[69,8],[-11,18],[-8,12],[-14,6],[-26,5],[0,20],[144,8],[36,-8],[16,-23],[-4,-27],[-7,-22],[6,-9],[12,-6],[37,-35],[18,0],[22,22],[0,19],[-33,33],[31,21],[4,1]],[[4096,4096],[0,-203],[-13,7],[-23,53],[-28,107],[-24,36],[88,0]],[[4096,3103],[0,-88],[-59,35],[-1,24],[33,9],[10,19],[-35,33],[37,-32],[15,0]],[[4096,3376],[0,-245],[-4,11],[-35,3],[-13,-10],[-7,-11],[-8,-3],[-145,15],[-37,67],[-121,58],[-122,-20],[248,108],[6,42],[-55,18],[-7,10],[196,-14],[19,-29],[-27,-17],[6,-25],[84,-40],[21,22],[-50,37],[7,21],[44,2]]]}