{"objects":{"water":{"type":"GeometryCollection","geometries":[{"type":"Polygon","properties":{"kind":"lake","name":"Samara Reservoir","reservoir":true,"area":17229146112,"sort_rank":200,"source":"naturalearthdata.com","min_zoom":0.0,"id":1183},"arcs":[[349]]},{"type":"Polygon","properties":{"kind":"lake","name":"Volgograd Reservoir","reservoir":true,"area":4163233792,"sort_rank":200,"source":"naturalearthdata.com","min_zoom":0.0,"id":1211},"arcs":[[350]]},{"type":"MultiPolygon","properties":{"sort_rank":200,"source":"naturalearthdata.com","min_zoom":0.0,"kind":"lake","area":5167382657},"arcs":[[[351]],[[352]],[[353]],[[354]],[[355]]]},{"type":"Polygon","properties":{"kind":"lake","name":"Saratovskoe Reservoir","reservoir":true,"area":3388854528,"sort_rank":200,"source":"naturalearthdata.com","min_zoom":0.0,"id":1102},"arcs":[[356]]},{"type":"MultiPolygon","properties":{"kind":"lake","name":"Nizhnekamskoe Reservoir","reservoir":true,"area":2988915200,"sort_rank":200,"source":"naturalearthdata.com","min_zoom":0.0,"id":1103},"arcs":[[[357]],[[358]]]},{"type":"Point","properties":{"label_placement":true,"kind":"lake","name":"Samara Reservoir","reservoir":true,"area":17229146112,"sort_rank":200,"source":"naturalearthdata.com","min_zoom":0.0,"id":1183},"coordinates":[1330,3387]},{"type":"Point","properties":{"label_placement":true,"kind":"lake","name":"Volgograd Reservoir","reservoir":true,"area":4163233792,"sort_rank":200,"source":"naturalearthdata.com","min_zoom":0.0,"id":1211},"coordinates":[364,1272]},{"type":"Point","properties":{"label_placement":true,"kind":"lake","name":"Saratovskoe Reservoir","reservoir":true,"area":3388854528,"sort_rank":200,"source":"naturalearthdata.com","min_zoom":0.0,"id":1102},"coordinates":[1205,2209]},{"type":"LineString","properties":{"source":"naturalearthdata.com","kind":"lake","sort_rank":367,"boundary":true,"min_zoom":0.0,"id":1017},"arcs":[359]},{"type":"LineString","properties":{"source":"naturalearthdata.com","kind":"lake","sort_rank":367,"boundary":true,"min_zoom":0.0,"id":1019},"arcs":[360]},{"type":"LineString","properties":{"source":"naturalearthdata.com","kind":"lake","sort_rank":367,"boundary":true,"min_zoom":0.0,"id":1020},"arcs":[361]},{"type":"LineString","properties":{"source":"naturalearthdata.com","kind":"lake","sort_rank":367,"boundary":true,"min_zoom":0.0,"id":1021},"arcs":[362]},{"type":"LineString","properties":{"source":"naturalearthdata.com","kind":"lake","sort_rank":367,"boundary":true,"min_zoom":0.0,"id":1022},"arcs":[363]},{"type":"LineString","properties":{"source":"naturalearthdata.com","kind":"lake","reservoir":true,"sort_rank":367,"boundary":true,"min_zoom":0.0,"id":1102},"arcs":[364]},{"type":"MultiLineString","properties":{"source":"naturalearthdata.com","kind":"lake","reservoir":true,"sort_rank":367,"boundary":true,"min_zoom":0.0,"id":1103},"arcs":[[365],[366]]},{"type":"MultiLineString","properties":{"source":"naturalearthdata.com","kind":"lake","reservoir":true,"sort_rank":367,"boundary":true,"min_zoom":0.0,"id":1183},"arcs":[[367],[368]]},{"type":"LineString","properties":{"source":"naturalearthdata.com","kind":"lake","reservoir":true,"sort_rank":367,"boundary":true,"min_zoom":0.0,"id":1211},"arcs":[369]}]},"buildings":{"type":"GeometryCollection","geometries":[]},"places":{"type":"GeometryCollection","geometries":[{"type":"Point","properties":{"name:kk":"\u0411\u0430\u0442\u044b\u0441 \u049a\u0430\u0437\u0430\u049b\u0441\u0442\u0430\u043d \u043e\u0431\u043b\u044b\u0441\u044b","name:eo":"Okcidenta Kaza\u0125io","min_zoom":4.0,"name:uk":"\u0417\u0430\u0445\u0456\u0434\u043d\u043e-\u041a\u0430\u0437\u0430\u0445\u0441\u0442\u0430\u043d\u0441\u044c\u043a\u0430 \u043e\u0431\u043b\u0430\u0441\u0442\u044c","name:hu":"Nyugat-kazahszt\u00e1ni ter\u00fclet","id":975902304,"population":618785,"kind":"region","name:en":"West Kazakhstan Province","name":"\u0417\u0430\u043f\u0430\u0434\u043d\u043e-\u041a\u0430\u0437\u0430\u0445\u0441\u0442\u0430\u043d\u0441\u043a\u0430\u044f \u043e\u0431\u043b\u0430\u0441\u0442\u044c","kind_detail":"state","name:de":"Gebiet Westkasachstan","source":"openstreetmap.org","name:fr":"Oblys du Kazakhstan occidental","name:et":"L\u00e4\u00e4ne-Kasahstani oblast","name:es":"Provincia de Kazajist\u00e1n Occidental"},"coordinates":[1902,379]},{"type":"Point","properties":{"name:ja":"\u30b5\u30e9\u30c8\u30d5\u5dde","name:lt":"Saratovo sritis","name:eo":"Saratova Provinco","name:tt":"\u0421\u0430\u0440\u044b\u0442\u0430\u0443 \u04e9\u043b\u043a\u04d9\u0441\u0435","min_zoom":4.0,"name:uk":"\u0421\u0430\u0440\u0430\u0442\u043e\u0432\u0441\u044c\u043a\u0430 \u043e\u0431\u043b\u0430\u0441\u0442\u044c","name:be":"\u0421\u0430\u0440\u0430\u0442\u0430\u045e\u0441\u043a\u0430\u044f \u0432\u043e\u0431\u043b\u0430\u0441\u0446\u044c","name:pl":"Obw\u00f3d saratowski","id":869528660,"kind":"region","name:en":"Saratov Oblast","name":"\u0421\u0430\u0440\u0430\u0442\u043e\u0432\u0441\u043a\u0430\u044f \u043e\u0431\u043b\u0430\u0441\u0442\u044c","kind_detail":"state","name:de":"Oblast Saratow","source":"openstreetmap.org","name:fr":"Oblast de Saratov","name:es":"\u00d3blast de Sar\u00e1tov"},"coordinates":[678,1631]},{"type":"Point","properties":{"admin_level":"4","int_name":"Tatarstan","name:ja":"\u30bf\u30bf\u30fc\u30eb\u30b9\u30bf\u30f3\u5171\u548c\u56fd","name:lt":"Tatarstanas","name:he":"\u05d8\u05d8\u05e8\u05e1\u05d8\u05df","kind":"region","official_name":"\u0420\u0435\u0441\u043f\u0443\u0431\u043b\u0438\u043a\u0430 \u0422\u0430\u0442\u0430\u0440\u0441\u0442\u0430\u043d","min_zoom":4.0,"name:pl":"Tatarstan","name:hu":"Tat\u00e1rf\u00f6ld","id":573226686,"name:eo":"Tatarstano","name:en":"Tatarstan","name:ba":"\u0422\u0430\u0442\u0430\u0440\u0441\u0442\u0430\u043d \u0420\u0435\u0441\u043f\u0443\u0431\u043b\u0438\u043a\u0430\u04bb\u044b","name":"\u0422\u0430\u0442\u0430\u0440\u0441\u0442\u0430\u043d","kind_detail":"state","name:da":"Tatarstan","name:de":"Tatarstan","source":"openstreetmap.org","name:fr":"Tatarstan","name:es":"Tartarist\u00e1n"},"coordinates":[1994,3900]},{"type":"Point","properties":{"admin_level":"4","name:ja":"\u30c1\u30e5\u30f4\u30a1\u30b7\u5171\u548c\u56fd","name:lt":"\u010ciuva\u0161ija","name:cs":"\u010cuva\u0161sko","kind":"region","name:tt":"\u0427\u0443\u0430\u0448 \u0420\u0435\u0441\u043f\u0443\u0431\u043b\u0438\u043a\u0430\u0441\u044b","min_zoom":4.0,"official_name":"\u0427\u0443\u0432\u0430\u0448\u0441\u043a\u0430\u044f \u0420\u0435\u0441\u043f\u0443\u0431\u043b\u0438\u043a\u0430","name:uk":"\u0427\u0443\u0432\u0430\u0441\u044c\u043a\u0430 \u0420\u0435\u0441\u043f\u0443\u0431\u043b\u0456\u043a\u0430","name:be":"\u0427\u0443\u0432\u0430\u0448\u044b\u044f","name:pl":"Czuwaszja","name:hu":"Csuvasf\u00f6ld","id":607014868,"name:eo":"\u0108uva\u015dio","name:en":"Chuvashia","name":"\u0427\u0443\u0432\u0430\u0448\u0438\u044f","kind_detail":"state","name:de":"Tschuwaschien","source":"openstreetmap.org","name:fr":"Tchouvachie","name:es":"Chuvasia"},"coordinates":[759,3886]},{"type":"Point","properties":{"name:ja":"\u30a6\u30ea\u30e4\u30ce\u30d5\u30b9\u30af\u5dde","name:lt":"Uljanovsko sritis","name:cs":"Uljanovsk\u00e1 oblast","name:eo":"Uljanovska Provinco","name:tt":"\u0421\u0435\u043c\u0431\u0435\u0440 \u04e9\u043b\u043a\u04d9\u0441\u0435","min_zoom":4.0,"name:uk":"\u0423\u043b\u044c\u044f\u043d\u043e\u0432\u0441\u044c\u043a\u0430 \u043e\u0431\u043b\u0430\u0441\u0442\u044c","name:be":"\u0423\u043b\u044c\u044f\u043d\u0430\u045e\u0441\u043a\u0430\u044f \u0432\u043e\u0431\u043b\u0430\u0441\u0446\u044c","name:pl":"Obw\u00f3d uljanowski","name:hu":"Uljanovszki ter\u00fclet","id":607014861,"kind":"region","name:en":"Ulyanovsk Oblast","name":"\u0423\u043b\u044c\u044f\u043d\u043e\u0432\u0441\u043a\u0430\u044f \u043e\u0431\u043b\u0430\u0441\u0442\u044c","kind_detail":"state","name:de":"Oblast Uljanowsk","source":"openstreetmap.org","name:fr":"Oblast d'Oulianovsk","name:es":"\u00d3blast de Uli\u00e1novsk"},"coordinates":[813,3122]},{"type":"Point","properties":{"int_name":"Samara Oblast","name:sk":"Samarsk\u00e1 oblas\u0165","name:ja":"\u30b5\u30de\u30fc\u30e9\u5dde","name:lt":"Samaros sritis","name:cs":"Samarsk\u00e1 oblast","kind":"region","name:tt":"\u0421\u0430\u043c\u0430\u0440\u0430 \u04e9\u043b\u043a\u04d9\u0441\u0435","min_zoom":4.0,"name:uk":"\u0421\u0430\u043c\u0430\u0440\u0441\u044c\u043a\u0430 \u043e\u0431\u043b\u0430\u0441\u0442\u044c","name:be":"\u0421\u0430\u043c\u0430\u0440\u0441\u043a\u0430\u044f \u0432\u043e\u0431\u043b\u0430\u0441\u0446\u044c","name:pl":"Obw\u00f3d samarski","name:hu":"Szamarai ter\u00fclet","name:hr":"Samarska oblast","id":533719181,"name:eo":"Samara Provinco","name:en":"Samara Oblast","name":"\u0421\u0430\u043c\u0430\u0440\u0441\u043a\u0430\u044f \u043e\u0431\u043b\u0430\u0441\u0442\u044c","kind_detail":"state","name:de":"Oblast Samara","source":"openstreetmap.org","name:fr":"Oblast de Samara","name:es":"\u00d3blast de Samara"},"coordinates":[1995,2607]},{"type":"Point","properties":{"name:ba":"\u0411\u0430\u0448\u04a1\u043e\u0440\u0442\u043e\u0441\u0442\u0430\u043d","int_name":"Bashkortostan","name:ja":"\u30d0\u30b7\u30b3\u30eb\u30c8\u30b9\u30bf\u30f3\u5171\u548c\u56fd","name:lt":"Ba\u0161kirija","alt_name:de":"Baschkirien","name:cs":"Ba\u0161kortost\u00e1n","kind":"region","name:tt":"\u0411\u0430\u0448\u043a\u043e\u0440\u0442\u0441\u0442\u0430\u043d","min_zoom":4.0,"official_name":"\u0420\u0435\u0441\u043f\u0443\u0431\u043b\u0438\u043a\u0430 \u0411\u0430\u0448\u043a\u043e\u0440\u0442\u043e\u0441\u0442\u0430\u043d","name:be":"\u0411\u0430\u0448\u043a\u0430\u0440\u0442\u0430\u0441\u0442\u0430\u043d","name:pl":"Baszkiria","name:hu":"Bask\u00edria","id":573226687,"name:af":"Basjkortostan","name:eo":"Ba\u015dkirio","name:en":"Bashkortostan","name":"\u0411\u0430\u0448\u043a\u043e\u0440\u0442\u043e\u0441\u0442\u0430\u043d","kind_detail":"state","name:de":"Baschkortostan","source":"openstreetmap.org","name:fr":"Bachkirie","name:es":"Bashkortost\u00e1n"},"coordinates":[3997,3318]},{"type":"Point","properties":{"name:ba":"\u042b\u0440\u044b\u043c\u0431\u0443\u0440 \u04e9\u043b\u043a\u04d9\u04bb\u0435","name:ja":"\u30aa\u30ec\u30f3\u30d6\u30eb\u30af\u5dde","name:lt":"Orenburgo sritis","name:cs":"Orenbursk\u00e1 oblast","name:eo":"Orenburga Provinco","name:tt":"\u042b\u0440\u044b\u043d\u0431\u0443\u0440 \u04e9\u043b\u043a\u04d9\u0441\u0435","min_zoom":4.0,"name:uk":"\u041e\u0440\u0435\u043d\u0431\u0443\u0440\u0437\u044c\u043a\u0430 \u043e\u0431\u043b\u0430\u0441\u0442\u044c","name:be":"\u0410\u0440\u044d\u043d\u0431\u0443\u0440\u0433\u0441\u043a\u0430\u044f \u0432\u043e\u0431\u043b\u0430\u0441\u0446\u044c","name:pl":"Obw\u00f3d orenburski","name:hu":"Orenburgi ter\u00fclet","id":607014871,"kind":"region","name:en":"Orenburg Oblast","name":"\u041e\u0440\u0435\u043d\u0431\u0443\u0440\u0433\u0441\u043a\u0430\u044f \u043e\u0431\u043b\u0430\u0441\u0442\u044c","kind_detail":"state","name:de":"Oblast Orenburg","source":"openstreetmap.org","name:fr":"Oblast d'Orenbourg","name:es":"\u00d3blast de Oremburgo"},"coordinates":[3542,1855]},{"type":"Point","properties":{"source":"naturalearthdata.com","kind":"locality","name":"Samara","population":1137000,"region_capital":true,"min_zoom":5.0,"id":6878},"coordinates":[1875,2554]},{"type":"Point","properties":{"source":"naturalearthdata.com","kind":"locality","name":"Kazan","population":1115000,"region_capital":true,"min_zoom":5.0,"id":6879},"coordinates":[1502,4081]},{"type":"Point","properties":{"source":"naturalearthdata.com","kind":"locality","name":"Ufa","population":1018000,"region_capital":true,"min_zoom":5.0,"id":6876},"coordinates":[4019,3508]},{"type":"Point","properties":{"source":"naturalearthdata.com","kind":"locality","name":"Saratov","population":843000,"region_capital":true,"min_zoom":5.0,"id":6376},"coordinates":[374,1589]},{"type":"Point","properties":{"source":"naturalearthdata.com","kind":"locality","name":"Ulyanovsk","population":640680,"region_capital":true,"min_zoom":5.0,"id":6377},"coordinates":[1242,3232]},{"type":"Point","properties":{"source":"naturalearthdata.com","kind":"locality","name":"Orenburg","population":550204,"region_capital":true,"min_zoom":5.0,"id":6375},"coordinates":[3681,1708]}]},"transit":{"type":"GeometryCollection","geometries":[]},"pois":{"type":"GeometryCollection","geometries":[]},"boundaries":{"type":"GeometryCollection","geometries":[{"type":"MultiLineString","properties":{"source":"naturalearthdata.com","kind":"country","sort_rank":262,"kind_detail":"2","min_zoom":0.0,"id":329},"arcs":[[0],[1],[2],[3],[4],[5],[6],[7],[8],[9],[10],[11],[12],[13],[14],[15],[16],[17],[18],[19],[20],[21],[22],[23],[24],[25],[26],[27],[28],[29],[30],[31],[32],[33],[34],[35],[36],[37],[38],[39],[40],[41],[42],[43],[44],[45]]},{"type":"MultiLineString","properties":{"source":"naturalearthdata.com","kind":"region","sort_rank":256,"kind_detail":"4","min_zoom":2.0,"id":6401},"arcs":[[46],[47],[48],[49]]},{"type":"MultiLineString","properties":{"source":"naturalearthdata.com","kind":"region","sort_rank":256,"kind_detail":"4","min_zoom":2.0,"id":6403},"arcs":[[50],[51],[52],[53],[54],[55],[56],[57],[58],[59],[60]]},{"type":"MultiLineString","properties":{"source":"naturalearthdata.com","kind":"region","sort_rank":256,"kind_detail":"4","min_zoom":5.0,"id":7308},"arcs":[[61],[62],[63]]},{"type":"MultiLineString","properties":{"source":"naturalearthdata.com","kind":"region","sort_rank":256,"kind_detail":"4","min_zoom":2.0,"id":6323},"arcs":[[64],[65],[66],[67],[68],[69],[70],[71],[72],[73],[74]]},{"type":"MultiLineString","properties":{"source":"naturalearthdata.com","kind":"region","sort_rank":256,"kind_detail":"4","min_zoom":2.0,"id":6324},"arcs":[[75],[76]]},{"type":"MultiLineString","properties":{"source":"naturalearthdata.com","kind":"region","sort_rank":256,"kind_detail":"4","min_zoom":2.0,"id":6326},"arcs":[[77],[78],[79],[80],[81],[82],[83],[84],[85],[86],[87],[88],[89],[90],[91],[92],[93],[94],[95],[96],[97],[98],[99],[100],[101],[102],[103]]},{"type":"MultiLineString","properties":{"source":"naturalearthdata.com","kind":"region","sort_rank":256,"kind_detail":"4","min_zoom":2.0,"id":6327},"arcs":[[104],[105],[106],[107],[108],[109],[110],[111],[112]]},{"type":"MultiLineString","properties":{"source":"naturalearthdata.com","kind":"region","sort_rank":256,"kind_detail":"4","min_zoom":2.0,"id":6344},"arcs":[[113],[114],[115],[116],[117],[118],[119],[120]]},{"type":"MultiLineString","properties":{"source":"naturalearthdata.com","kind":"region","sort_rank":256,"kind_detail":"4","min_zoom":2.0,"id":6345},"arcs":[[121],[122],[123],[124],[125],[126],[127],[128],[129],[130],[131],[132],[133]]},{"type":"MultiLineString","properties":{"source":"naturalearthdata.com","kind":"region","sort_rank":256,"kind_detail":"4","min_zoom":2.0,"id":6361},"arcs":[[134],[135],[136],[137],[138],[139],[140],[141],[142],[143],[144],[145],[146]]},{"type":"MultiLineString","properties":{"source":"naturalearthdata.com","kind":"region","sort_rank":256,"kind_detail":"4","min_zoom":2.0,"id":6400},"arcs":[[147],[148],[149],[150],[151],[152],[153],[154],[155],[156],[157],[158],[159],[160],[161],[162],[163],[164],[165],[166],[167],[168],[169]]},{"type":"MultiLineString","properties":{"source":"naturalearthdata.com","kind":"region","sort_rank":256,"kind_detail":"4","min_zoom":2.0,"id":6402},"arcs":[[170],[171],[172]]},{"type":"MultiLineString","properties":{"source":"naturalearthdata.com","kind":"region","sort_rank":256,"kind_detail":"4","min_zoom":2.0,"id":6460},"arcs":[[173],[174],[175],[176],[177],[178],[179],[180],[181],[182],[183],[184],[185],[186],[187],[188],[189],[190],[191],[192],[193],[194],[195]]},{"type":"MultiLineString","properties":{"source":"naturalearthdata.com","kind":"region","sort_rank":256,"kind_detail":"4","min_zoom":2.0,"id":6461},"arcs":[[196],[197],[198],[199],[200],[201],[202],[203],[204],[205],[206],[207],[208],[209],[210],[211],[212],[213],[214],[215],[216]]},{"type":"MultiLineString","properties":{"source":"naturalearthdata.com","kind":"region","sort_rank":256,"kind_detail":"4","min_zoom":2.0,"id":6470},"arcs":[[217],[218],[219],[220],[221],[222],[223],[224],[225],[226],[227],[228],[229],[230]]},{"type":"MultiLineString","properties":{"source":"naturalearthdata.com","kind":"region","sort_rank":256,"kind_detail":"4","min_zoom":2.0,"id":6469},"arcs":[[231],[232],[233],[234],[235],[236],[237],[238],[239],[240],[241],[242],[243],[244],[245],[246],[247],[248],[249],[250],[251],[252],[253],[254],[255],[256]]},{"type":"MultiLineString","properties":{"source":"naturalearthdata.com","kind":"region","sort_rank":256,"kind_detail":"4","min_zoom":2.0,"id":6471},"arcs":[[257],[258],[259],[260],[261],[262],[263],[264],[265],[266],[267],[268],[269],[270],[271]]},{"type":"MultiLineString","properties":{"source":"naturalearthdata.com","kind":"region","sort_rank":256,"kind_detail":"4","min_zoom":2.0,"id":6472},"arcs":[[272],[273]]},{"type":"MultiLineString","properties":{"source":"naturalearthdata.com","kind":"region","sort_rank":256,"kind_detail":"4","min_zoom":2.0,"id":6492},"arcs":[[274],[275],[276],[277],[278],[279],[280],[281],[282],[283],[284],[285],[286],[287],[288],[289],[290]]},{"type":"MultiLineString","properties":{"source":"naturalearthdata.com","kind":"region","sort_rank":256,"kind_detail":"4","min_zoom":2.0,"id":6493},"arcs":[[291],[292],[293],[294],[295],[296],[297],[298],[299],[300],[301],[302]]},{"type":"MultiLineString","properties":{"source":"naturalearthdata.com","kind":"region","sort_rank":256,"kind_detail":"4","min_zoom":2.0,"id":6494},"arcs":[[303],[304],[305],[306],[307],[308],[309],[310],[311],[312],[313],[314],[315],[316],[317],[318],[319],[320],[321],[322],[323],[324],[325]]},{"type":"MultiLineString","properties":{"source":"naturalearthdata.com","kind":"region","sort_rank":256,"kind_detail":"4","min_zoom":2.0,"id":6543},"arcs":[[326],[327],[328],[329],[330],[331],[332],[333],[334],[335],[336],[337],[338],[339],[340],[341],[342]]},{"type":"MultiLineString","properties":{"source":"naturalearthdata.com","kind":"region","sort_rank":256,"kind_detail":"4","min_zoom":5.0,"id":7317},"arcs":[[343],[344],[345]]},{"type":"MultiLineString","properties":{"source":"naturalearthdata.com","kind":"region","sort_rank":256,"kind_detail":"4","min_zoom":5.0,"id":7319},"arcs":[[346],[347],[348]]}]},"roads":{"type":"GeometryCollection","geometries":[{"type":"LineString","properties":{"source":"naturalearthdata.com","kind":"major_road","sort_rank":379,"kind_detail":"secondary","min_zoom":3.0,"id":12698},"arcs":[370]},{"type":"LineString","properties":{"source":"naturalearthdata.com","kind":"major_road","sort_rank":379,"kind_detail":"secondary","min_zoom":4.0,"id":12738},"arcs":[371]},{"type":"LineString","properties":{"source":"naturalearthdata.com","kind":"major_road","sort_rank":379,"kind_detail":"secondary","min_zoom":4.0,"id":12740},"arcs":[372]},{"type":"LineString","properties":{"source":"naturalearthdata.com","kind":"major_road","kind_detail":"secondary","sort_rank":379,"landuse_kind":"urban_area","min_zoom":4.0,"id":12745},"arcs":[373]},{"type":"MultiLineString","properties":{"source":"naturalearthdata.com","kind":"major_road","sort_rank":379,"kind_detail":"secondary","min_zoom":4.0,"id":12745},"arcs":[[374],[375]]},{"type":"LineString","properties":{"source":"naturalearthdata.com","kind":"major_road","sort_rank":379,"kind_detail":"secondary","min_zoom":4.0,"id":12773},"arcs":[376]},{"type":"LineString","properties":{"source":"naturalearthdata.com","kind":"major_road","kind_detail":"secondary","sort_rank":379,"landuse_kind":"urban_area","min_zoom":4.0,"id":12849},"arcs":[377]},{"type":"LineString","properties":{"source":"naturalearthdata.com","kind":"major_road","sort_rank":379,"kind_detail":"secondary","min_zoom":4.0,"id":12849},"arcs":[378]},{"type":"LineString","properties":{"source":"naturalearthdata.com","kind":"major_road","sort_rank":379,"kind_detail":"secondary","min_zoom":4.0,"id":12864},"arcs":[379]},{"type":"LineString","properties":{"source":"naturalearthdata.com","kind":"major_road","sort_rank":379,"kind_detail":"secondary","min_zoom":4.0,"id":12885},"arcs":[380]},{"type":"LineString","properties":{"source":"naturalearthdata.com","kind":"major_road","sort_rank":379,"kind_detail":"secondary","min_zoom":4.0,"id":12978},"arcs":[381]},{"type":"LineString","properties":{"source":"naturalearthdata.com","kind":"major_road","sort_rank":379,"kind_detail":"secondary","min_zoom":4.0,"id":13053},"arcs":[382]},{"type":"LineString","properties":{"source":"naturalearthdata.com","kind":"major_road","sort_rank":379,"kind_detail":"secondary","min_zoom":4.0,"id":13124},"arcs":[383]},{"type":"LineString","properties":{"source":"naturalearthdata.com","kind":"major_road","sort_rank":379,"kind_detail":"secondary","min_zoom":4.0,"id":13137},"arcs":[384]},{"type":"LineString","properties":{"source":"naturalearthdata.com","kind":"major_road","kind_detail":"secondary","sort_rank":379,"landuse_kind":"urban_area","min_zoom":4.0,"id":13217},"arcs":[385]},{"type":"LineString","properties":{"source":"naturalearthdata.com","kind":"major_road","sort_rank":379,"kind_detail":"secondary","min_zoom":4.0,"id":13217},"arcs":[386]},{"type":"LineString","properties":{"source":"naturalearthdata.com","kind":"major_road","sort_rank":379,"kind_detail":"secondary","min_zoom":4.0,"id":13235},"arcs":[387]},{"type":"LineString","properties":{"source":"naturalearthdata.com","kind":"major_road","kind_detail":"secondary","sort_rank":379,"landuse_kind":"urban_area","min_zoom":3.0,"id":13248},"arcs":[388]},{"type":"LineString","properties":{"source":"naturalearthdata.com","kind":"major_road","kind_detail":"secondary","sort_rank":379,"landuse_kind":"urban_area","min_zoom":3.0,"id":13265},"arcs":[389]},{"type":"LineString","properties":{"source":"naturalearthdata.com","kind":"major_road","sort_rank":379,"kind_detail":"secondary","min_zoom":3.0,"id":13265},"arcs":[390]},{"type":"LineString","properties":{"source":"naturalearthdata.com","kind":"major_road","sort_rank":379,"kind_detail":"secondary","min_zoom":3.0,"id":13274},"arcs":[391]},{"type":"LineString","properties":{"source":"naturalearthdata.com","kind":"major_road","sort_rank":379,"kind_detail":"secondary","min_zoom":3.0,"id":13277},"arcs":[392]},{"type":"LineString","properties":{"source":"naturalearthdata.com","kind":"major_road","sort_rank":379,"kind_detail":"secondary","min_zoom":3.0,"id":13279},"arcs":[393]},{"type":"LineString","properties":{"source":"naturalearthdata.com","kind":"major_road","sort_rank":379,"kind_detail":"secondary","min_zoom":3.0,"id":13283},"arcs":[394]},{"type":"LineString","properties":{"source":"naturalearthdata.com","kind":"major_road","sort_rank":379,"kind_detail":"secondary","min_zoom":3.0,"id":13355},"arcs":[395]},{"type":"LineString","properties":{"source":"naturalearthdata.com","kind":"major_road","sort_rank":379,"kind_detail":"secondary","min_zoom":3.0,"id":13363},"arcs":[396]},{"type":"LineString","properties":{"source":"naturalearthdata.com","kind":"major_road","sort_rank":379,"kind_detail":"secondary","min_zoom":3.0,"id":13374},"arcs":[397]},{"type":"LineString","properties":{"source":"naturalearthdata.com","kind":"major_road","sort_rank":379,"kind_detail":"secondary","min_zoom":3.0,"id":13379},"arcs":[398]},{"type":"LineString","properties":{"source":"naturalearthdata.com","kind":"major_road","kind_detail":"secondary","sort_rank":379,"landuse_kind":"urban_area","min_zoom":4.0,"id":13436},"arcs":[399]},{"type":"LineString","properties":{"source":"naturalearthdata.com","kind":"major_road","sort_rank":379,"kind_detail":"secondary","min_zoom":4.0,"id":13436},"arcs":[400]},{"type":"LineString","properties":{"source":"naturalearthdata.com","kind":"major_road","sort_rank":379,"kind_detail":"secondary","min_zoom":3.0,"id":13466},"arcs":[401]},{"type":"LineString","properties":{"source":"naturalearthdata.com","kind":"major_road","kind_detail":"secondary","sort_rank":379,"landuse_kind":"urban_area","min_zoom":4.0,"id":13478},"arcs":[402]},{"type":"LineString","properties":{"source":"naturalearthdata.com","kind":"major_road","sort_rank":379,"kind_detail":"secondary","min_zoom":4.0,"id":13478},"arcs":[403]},{"type":"LineString","properties":{"source":"naturalearthdata.com","kind":"major_road","kind_detail":"secondary","sort_rank":379,"landuse_kind":"urban_area","min_zoom":4.0,"id":13484},"arcs":[404]},{"type":"LineString","properties":{"source":"naturalearthdata.com","kind":"major_road","kind_detail":"secondary","sort_rank":379,"landuse_kind":"urban_area","min_zoom":4.0,"id":13488},"arcs":[405]},{"type":"LineString","properties":{"source":"naturalearthdata.com","kind":"major_road","kind_detail":"secondary","sort_rank":379,"landuse_kind":"urban_area","min_zoom":4.0,"id":13489},"arcs":[406]},{"type":"LineString","properties":{"source":"naturalearthdata.com","kind":"major_road","kind_detail":"secondary","sort_rank":379,"landuse_kind":"urban_area","min_zoom":4.0,"id":13509},"arcs":[407]},{"type":"LineString","properties":{"source":"naturalearthdata.com","kind":"major_road","sort_rank":379,"kind_detail":"secondary","min_zoom":4.0,"id":13509},"arcs":[408]},{"type":"LineString","properties":{"source":"naturalearthdata.com","kind":"major_road","sort_rank":379,"kind_detail":"secondary","min_zoom":3.0,"id":13525},"arcs":[409]},{"type":"LineString","properties":{"source":"naturalearthdata.com","kind":"major_road","sort_rank":379,"kind_detail":"secondary","min_zoom":3.0,"id":13545},"arcs":[410]},{"type":"LineString","properties":{"source":"naturalearthdata.com","kind":"major_road","sort_rank":379,"kind_detail":"secondary","min_zoom":3.0,"id":13566},"arcs":[411]},{"type":"LineString","properties":{"source":"naturalearthdata.com","kind":"major_road","sort_rank":379,"kind_detail":"secondary","min_zoom":4.0,"id":13568},"arcs":[412]},{"type":"LineString","properties":{"source":"naturalearthdata.com","kind":"major_road","sort_rank":379,"kind_detail":"secondary","min_zoom":3.0,"id":13580},"arcs":[413]},{"type":"LineString","properties":{"source":"naturalearthdata.com","kind":"major_road","kind_detail":"secondary","sort_rank":379,"landuse_kind":"urban_area","min_zoom":4.0,"id":13601},"arcs":[414]},{"type":"LineString","properties":{"source":"naturalearthdata.com","kind":"major_road","sort_rank":379,"kind_detail":"secondary","min_zoom":4.0,"id":13601},"arcs":[415]},{"type":"LineString","properties":{"source":"naturalearthdata.com","kind":"major_road","sort_rank":379,"kind_detail":"secondary","min_zoom":3.0,"id":13625},"arcs":[416]},{"type":"LineString","properties":{"source":"naturalearthdata.com","kind":"major_road","sort_rank":379,"kind_detail":"secondary","min_zoom":4.0,"id":13686},"arcs":[417]},{"type":"LineString","properties":{"source":"naturalearthdata.com","kind":"major_road","sort_rank":379,"kind_detail":"secondary","min_zoom":3.0,"id":13692},"arcs":[418]},{"type":"LineString","properties":{"source":"naturalearthdata.com","kind":"major_road","sort_rank":379,"kind_detail":"secondary","min_zoom":4.0,"id":13702},"arcs":[419]},{"type":"LineString","properties":{"source":"naturalearthdata.com","kind":"major_road","kind_detail":"secondary","sort_rank":379,"landuse_kind":"urban_area","min_zoom":3.0,"id":13768},"arcs":[420]},{"type":"LineString","properties":{"source":"naturalearthdata.com","kind":"major_road","sort_rank":379,"kind_detail":"secondary","min_zoom":3.0,"id":13768},"arcs":[421]},{"type":"LineString","properties":{"source":"naturalearthdata.com","kind":"major_road","sort_rank":379,"kind_detail":"secondary","min_zoom":4.0,"id":13772},"arcs":[422]},{"type":"LineString","properties":{"source":"naturalearthdata.com","kind":"major_road","sort_rank":379,"kind_detail":"secondary","min_zoom":3.0,"id":13816},"arcs":[423]},{"type":"LineString","properties":{"source":"naturalearthdata.com","kind":"major_road","sort_rank":379,"kind_detail":"secondary","min_zoom":3.0,"id":13847},"arcs":[424]},{"type":"LineString","properties":{"source":"naturalearthdata.com","kind":"major_road","kind_detail":"secondary","sort_rank":379,"landuse_kind":"urban_area","min_zoom":3.0,"id":13848},"arcs":[425]},{"type":"LineString","properties":{"source":"naturalearthdata.com","kind":"major_road","kind_detail":"secondary","sort_rank":379,"landuse_kind":"urban_area","min_zoom":3.0,"id":13848},"arcs":[426]},{"type":"MultiLineString","properties":{"source":"naturalearthdata.com","kind":"major_road","sort_rank":379,"kind_detail":"secondary","min_zoom":3.0,"id":13848},"arcs":[[427],[428],[429]]},{"type":"LineString","properties":{"source":"naturalearthdata.com","kind":"major_road","kind_detail":"secondary","sort_rank":379,"landuse_kind":"urban_area","min_zoom":3.0,"id":13851},"arcs":[430]},{"type":"LineString","properties":{"source":"naturalearthdata.com","kind":"major_road","kind_detail":"secondary","sort_rank":379,"landuse_kind":"urban_area","min_zoom":3.0,"id":13851},"arcs":[431]},{"type":"LineString","properties":{"source":"naturalearthdata.com","kind":"major_road","sort_rank":379,"kind_detail":"secondary","min_zoom":3.0,"id":13851},"arcs":[432]},{"type":"LineString","properties":{"source":"naturalearthdata.com","kind":"major_road","kind_detail":"secondary","sort_rank":379,"landuse_kind":"urban_area","min_zoom":3.0,"id":13876},"arcs":[433]},{"type":"LineString","properties":{"source":"naturalearthdata.com","kind":"major_road","kind_detail":"secondary","sort_rank":379,"landuse_kind":"urban_area","min_zoom":3.0,"id":13931},"arcs":[434]},{"type":"LineString","properties":{"source":"naturalearthdata.com","kind":"major_road","sort_rank":379,"kind_detail":"secondary","min_zoom":3.0,"id":13931},"arcs":[435]},{"type":"LineString","properties":{"source":"naturalearthdata.com","kind":"major_road","kind_detail":"secondary","sort_rank":379,"landuse_kind":"urban_area","min_zoom":4.0,"id":13936},"arcs":[436]},{"type":"MultiLineString","properties":{"source":"naturalearthdata.com","kind":"major_road","sort_rank":379,"kind_detail":"secondary","min_zoom":4.0,"id":13936},"arcs":[[437],[438]]},{"type":"LineString","properties":{"source":"naturalearthdata.com","kind":"major_road","kind_detail":"secondary","sort_rank":379,"landuse_kind":"park","min_zoom":3.0,"id":13960},"arcs":[439]},{"type":"MultiLineString","properties":{"source":"naturalearthdata.com","kind":"major_road","sort_rank":379,"kind_detail":"secondary","min_zoom":3.0,"id":13960},"arcs":[[440],[441]]},{"type":"LineString","properties":{"source":"naturalearthdata.com","kind":"major_road","sort_rank":379,"kind_detail":"secondary","min_zoom":4.0,"id":13973},"arcs":[442]},{"type":"LineString","properties":{"source":"naturalearthdata.com","kind":"major_road","sort_rank":379,"kind_detail":"secondary","min_zoom":3.0,"id":13974},"arcs":[443]},{"type":"LineString","properties":{"source":"naturalearthdata.com","kind":"major_road","sort_rank":379,"kind_detail":"secondary","min_zoom":3.0,"id":13975},"arcs":[444]},{"type":"LineString","properties":{"source":"naturalearthdata.com","kind":"major_road","sort_rank":379,"kind_detail":"secondary","min_zoom":3.0,"id":13976},"arcs":[445]},{"type":"LineString","properties":{"source":"naturalearthdata.com","kind":"major_road","sort_rank":379,"kind_detail":"secondary","min_zoom":3.0,"id":13977},"arcs":[446]},{"type":"LineString","properties":{"source":"naturalearthdata.com","kind":"major_road","sort_rank":379,"kind_detail":"secondary","min_zoom":3.0,"id":13978},"arcs":[447]},{"type":"LineString","properties":{"source":"naturalearthdata.com","kind":"major_road","kind_detail":"secondary","sort_rank":379,"landuse_kind":"urban_area","min_zoom":3.0,"id":13981},"arcs":[448]},{"type":"LineString","properties":{"source":"naturalearthdata.com","kind":"major_road","sort_rank":379,"kind_detail":"secondary","min_zoom":3.0,"id":13981},"arcs":[449]},{"type":"LineString","properties":{"source":"naturalearthdata.com","kind":"major_road","kind_detail":"secondary","sort_rank":379,"landuse_kind":"urban_area","min_zoom":3.0,"id":13982},"arcs":[450]},{"type":"LineString","properties":{"source":"naturalearthdata.com","kind":"major_road","sort_rank":379,"kind_detail":"secondary","min_zoom":3.0,"id":13982},"arcs":[451]},{"type":"LineString","properties":{"source":"naturalearthdata.com","kind":"major_road","kind_detail":"secondary","sort_rank":379,"landuse_kind":"urban_area","min_zoom":4.0,"id":13997},"arcs":[452]},{"type":"LineString","properties":{"source":"naturalearthdata.com","kind":"major_road","sort_rank":379,"kind_detail":"secondary","min_zoom":4.0,"id":13997},"arcs":[453]},{"type":"LineString","properties":{"source":"naturalearthdata.com","kind":"major_road","kind_detail":"secondary","sort_rank":379,"landuse_kind":"urban_area","min_zoom":3.0,"id":14001},"arcs":[454]},{"type":"LineString","properties":{"source":"naturalearthdata.com","kind":"major_road","sort_rank":379,"kind_detail":"secondary","min_zoom":3.0,"id":14001},"arcs":[455]},{"type":"LineString","properties":{"source":"naturalearthdata.com","kind":"major_road","kind_detail":"secondary","sort_rank":379,"landuse_kind":"urban_area","min_zoom":3.0,"id":14002},"arcs":[456]},{"type":"LineString","properties":{"source":"naturalearthdata.com","kind":"major_road","sort_rank":379,"kind_detail":"secondary","min_zoom":3.0,"id":14002},"arcs":[457]},{"type":"LineString","properties":{"source":"naturalearthdata.com","kind":"major_road","kind_detail":"secondary","sort_rank":379,"landuse_kind":"urban_area","min_zoom":4.0,"id":14011},"arcs":[458]},{"type":"LineString","properties":{"source":"naturalearthdata.com","kind":"major_road","kind_detail":"secondary","sort_rank":379,"landuse_kind":"urban_area","min_zoom":3.0,"id":14025},"arcs":[459]},{"type":"LineString","properties":{"source":"naturalearthdata.com","kind":"major_road","sort_rank":379,"kind_detail":"secondary","min_zoom":3.0,"id":14027},"arcs":[460]},{"type":"LineString","properties":{"source":"naturalearthdata.com","kind":"major_road","sort_rank":379,"kind_detail":"secondary","min_zoom":3.0,"id":14054},"arcs":[461]},{"type":"LineString","properties":{"source":"naturalearthdata.com","kind":"major_road","sort_rank":379,"kind_detail":"secondary","min_zoom":3.0,"id":14060},"arcs":[462]},{"type":"LineString","properties":{"source":"naturalearthdata.com","kind":"major_road","sort_rank":379,"kind_detail":"secondary","min_zoom":3.0,"id":14061},"arcs":[463]},{"type":"LineString","properties":{"source":"naturalearthdata.com","kind":"major_road","kind_detail":"secondary","sort_rank":379,"landuse_kind":"urban_area","min_zoom":3.0,"id":14065},"arcs":[464]},{"type":"LineString","properties":{"source":"naturalearthdata.com","kind":"major_road","sort_rank":379,"kind_detail":"secondary","min_zoom":3.0,"id":14070},"arcs":[465]},{"type":"LineString","properties":{"source":"naturalearthdata.com","kind":"major_road","sort_rank":379,"kind_detail":"secondary","min_zoom":3.0,"id":14072},"arcs":[466]},{"type":"LineString","properties":{"source":"naturalearthdata.com","kind":"major_road","sort_rank":379,"kind_detail":"secondary","min_zoom":3.0,"id":14075},"arcs":[467]},{"type":"LineString","properties":{"source":"naturalearthdata.com","kind":"major_road","sort_rank":379,"kind_detail":"secondary","min_zoom":3.0,"id":14078},"arcs":[468]},{"type":"LineString","properties":{"source":"naturalearthdata.com","kind":"major_road","kind_detail":"secondary","sort_rank":379,"landuse_kind":"urban_area","min_zoom":4.0,"id":14106},"arcs":[469]},{"type":"LineString","properties":{"source":"naturalearthdata.com","kind":"major_road","sort_rank":379,"kind_detail":"secondary","min_zoom":4.0,"id":14106},"arcs":[470]},{"type":"LineString","properties":{"source":"naturalearthdata.com","kind":"major_road","kind_detail":"secondary","sort_rank":379,"landuse_kind":"urban_area","min_zoom":3.0,"id":14142},"arcs":[471]},{"type":"LineString","properties":{"source":"naturalearthdata.com","kind":"major_road","sort_rank":379,"kind_detail":"secondary","min_zoom":3.0,"id":14142},"arcs":[472]},{"type":"LineString","properties":{"source":"naturalearthdata.com","kind":"major_road","sort_rank":379,"kind_detail":"secondary","min_zoom":3.0,"id":14201},"arcs":[473]},{"type":"LineString","properties":{"source":"naturalearthdata.com","kind":"major_road","kind_detail":"secondary","sort_rank":379,"landuse_kind":"urban_area","min_zoom":3.0,"id":14204},"arcs":[474]},{"type":"LineString","properties":{"source":"naturalearthdata.com","kind":"major_road","sort_rank":379,"kind_detail":"secondary","min_zoom":3.0,"id":14204},"arcs":[475]},{"type":"LineString","properties":{"source":"naturalearthdata.com","kind":"major_road","sort_rank":379,"kind_detail":"secondary","min_zoom":4.0,"id":14214},"arcs":[476]},{"type":"LineString","properties":{"source":"naturalearthdata.com","kind":"major_road","sort_rank":379,"kind_detail":"secondary","min_zoom":3.0,"id":14231},"arcs":[477]},{"type":"LineString","properties":{"source":"naturalearthdata.com","kind":"major_road","sort_rank":379,"kind_detail":"secondary","min_zoom":4.0,"id":14246},"arcs":[478]},{"type":"LineString","properties":{"source":"naturalearthdata.com","kind":"major_road","sort_rank":379,"kind_detail":"secondary","min_zoom":4.0,"id":14247},"arcs":[479]},{"type":"LineString","properties":{"source":"naturalearthdata.com","kind":"major_road","sort_rank":379,"kind_detail":"secondary","min_zoom":4.0,"id":14366},"arcs":[480]},{"type":"LineString","properties":{"source":"naturalearthdata.com","kind":"major_road","sort_rank":379,"kind_detail":"secondary","min_zoom":3.0,"id":14393},"arcs":[481]},{"type":"LineString","properties":{"source":"naturalearthdata.com","kind":"major_road","sort_rank":379,"kind_detail":"secondary","min_zoom":3.0,"id":14400},"arcs":[482]},{"type":"LineString","properties":{"source":"naturalearthdata.com","kind":"major_road","sort_rank":379,"kind_detail":"secondary","min_zoom":3.0,"id":14419},"arcs":[483]},{"type":"LineString","properties":{"source":"naturalearthdata.com","kind":"major_road","sort_rank":379,"kind_detail":"secondary","min_zoom":4.0,"id":14442},"arcs":[484]},{"type":"LineString","properties":{"source":"naturalearthdata.com","kind":"major_road","sort_rank":379,"kind_detail":"secondary","min_zoom":4.0,"id":14445},"arcs":[485]},{"type":"LineString","properties":{"source":"naturalearthdata.com","kind":"major_road","sort_rank":379,"kind_detail":"secondary","min_zoom":3.0,"id":14484},"arcs":[486]},{"type":"LineString","properties":{"source":"naturalearthdata.com","kind":"major_road","sort_rank":379,"kind_detail":"secondary","min_zoom":4.0,"id":14525},"arcs":[487]},{"type":"LineString","properties":{"source":"naturalearthdata.com","kind":"major_road","kind_detail":"secondary","sort_rank":379,"landuse_kind":"urban_area","min_zoom":4.0,"id":14535},"arcs":[488]},{"type":"LineString","properties":{"source":"naturalearthdata.com","kind":"major_road","sort_rank":379,"kind_detail":"secondary","min_zoom":4.0,"id":14535},"arcs":[489]},{"type":"LineString","properties":{"source":"naturalearthdata.com","kind":"major_road","kind_detail":"secondary","sort_rank":379,"landuse_kind":"urban_area","min_zoom":4.0,"id":14537},"arcs":[490]},{"type":"LineString","properties":{"source":"naturalearthdata.com","kind":"major_road","sort_rank":379,"kind_detail":"secondary","min_zoom":4.0,"id":14537},"arcs":[491]},{"type":"LineString","properties":{"source":"naturalearthdata.com","kind":"major_road","sort_rank":379,"kind_detail":"secondary","min_zoom":4.0,"id":14596},"arcs":[492]},{"type":"LineString","properties":{"source":"naturalearthdata.com","kind":"major_road","kind_detail":"secondary","sort_rank":379,"landuse_kind":"urban_area","min_zoom":3.0,"id":14646},"arcs":[493]},{"type":"LineString","properties":{"source":"naturalearthdata.com","kind":"major_road","sort_rank":379,"kind_detail":"secondary","min_zoom":3.0,"id":14646},"arcs":[494]},{"type":"LineString","properties":{"source":"naturalearthdata.com","kind":"major_road","sort_rank":379,"kind_detail":"secondary","min_zoom":4.0,"id":14649},"arcs":[495]},{"type":"LineString","properties":{"source":"naturalearthdata.com","kind":"major_road","kind_detail":"secondary","sort_rank":379,"landuse_kind":"urban_area","min_zoom":3.0,"id":14656},"arcs":[496]},{"type":"LineString","properties":{"source":"naturalearthdata.com","kind":"major_road","kind_detail":"secondary","sort_rank":379,"landuse_kind":"urban_area","min_zoom":3.0,"id":14669},"arcs":[497]},{"type":"LineString","properties":{"source":"naturalearthdata.com","kind":"major_road","kind_detail":"secondary","sort_rank":379,"landuse_kind":"urban_area","min_zoom":3.0,"id":14670},"arcs":[498]},{"type":"LineString","properties":{"source":"naturalearthdata.com","kind":"major_road","sort_rank":379,"kind_detail":"secondary","min_zoom":3.0,"id":14670},"arcs":[499]},{"type":"LineString","properties":{"source":"naturalearthdata.com","kind":"major_road","kind_detail":"secondary","sort_rank":379,"landuse_kind":"urban_area","min_zoom":4.0,"id":14716},"arcs":[500]},{"type":"LineString","properties":{"source":"naturalearthdata.com","kind":"major_road","sort_rank":379,"kind_detail":"secondary","min_zoom":4.0,"id":14716},"arcs":[501]},{"type":"LineString","properties":{"source":"naturalearthdata.com","kind":"major_road","kind_detail":"secondary","sort_rank":379,"landuse_kind":"urban_area","min_zoom":4.0,"id":14719},"arcs":[502]},{"type":"LineString","properties":{"source":"naturalearthdata.com","kind":"major_road","kind_detail":"secondary","sort_rank":379,"landuse_kind":"urban_area","min_zoom":4.0,"id":14724},"arcs":[503]},{"type":"LineString","properties":{"source":"naturalearthdata.com","kind":"major_road","kind_detail":"secondary","sort_rank":379,"landuse_kind":"urban_area","min_zoom":4.0,"id":14732},"arcs":[504]},{"type":"LineString","properties":{"source":"naturalearthdata.com","kind":"major_road","sort_rank":379,"kind_detail":"secondary","min_zoom":4.0,"id":14732},"arcs":[505]},{"type":"LineString","properties":{"source":"naturalearthdata.com","kind":"major_road","kind_detail":"secondary","sort_rank":379,"landuse_kind":"urban_area","min_zoom":4.0,"id":14733},"arcs":[506]},{"type":"LineString","properties":{"source":"naturalearthdata.com","kind":"major_road","kind_detail":"secondary","sort_rank":379,"landuse_kind":"urban_area","min_zoom":4.0,"id":14756},"arcs":[507]},{"type":"LineString","properties":{"source":"naturalearthdata.com","kind":"major_road","sort_rank":379,"kind_detail":"secondary","min_zoom":3.0,"id":14768},"arcs":[508]},{"type":"LineString","properties":{"source":"naturalearthdata.com","kind":"major_road","sort_rank":379,"kind_detail":"secondary","min_zoom":4.0,"id":14769},"arcs":[509]},{"type":"LineString","properties":{"source":"naturalearthdata.com","kind":"major_road","kind_detail":"secondary","sort_rank":379,"landuse_kind":"urban_area","min_zoom":4.0,"id":14784},"arcs":[510]},{"type":"LineString","properties":{"source":"naturalearthdata.com","kind":"major_road","sort_rank":379,"kind_detail":"secondary","min_zoom":4.0,"id":14792},"arcs":[511]},{"type":"LineString","properties":{"source":"naturalearthdata.com","kind":"major_road","sort_rank":379,"kind_detail":"secondary","min_zoom":4.0,"id":14798},"arcs":[512]},{"type":"LineString","properties":{"source":"naturalearthdata.com","kind":"major_road","kind_detail":"secondary","sort_rank":379,"landuse_kind":"urban_area","min_zoom":4.0,"id":14799},"arcs":[513]},{"type":"LineString","properties":{"source":"naturalearthdata.com","kind":"major_road","sort_rank":379,"kind_detail":"secondary","min_zoom":4.0,"id":14799},"arcs":[514]},{"type":"LineString","properties":{"source":"naturalearthdata.com","kind":"major_road","sort_rank":379,"kind_detail":"secondary","min_zoom":3.0,"id":14813},"arcs":[515]},{"type":"LineString","properties":{"source":"naturalearthdata.com","kind":"major_road","kind_detail":"secondary","sort_rank":379,"landuse_kind":"urban_area","min_zoom":4.0,"id":14839},"arcs":[516]},{"type":"LineString","properties":{"source":"naturalearthdata.com","kind":"major_road","sort_rank":379,"kind_detail":"secondary","min_zoom":4.0,"id":14839},"arcs":[517]},{"type":"LineString","properties":{"source":"naturalearthdata.com","kind":"major_road","sort_rank":379,"kind_detail":"secondary","min_zoom":3.0,"id":14874},"arcs":[518]},{"type":"LineString","properties":{"source":"naturalearthdata.com","kind":"major_road","sort_rank":379,"kind_detail":"secondary","min_zoom":4.0,"id":14881},"arcs":[519]},{"type":"LineString","properties":{"source":"naturalearthdata.com","kind":"major_road","sort_rank":379,"kind_detail":"secondary","min_zoom":4.0,"id":14882},"arcs":[520]},{"type":"LineString","properties":{"source":"naturalearthdata.com","kind":"major_road","sort_rank":379,"kind_detail":"secondary","min_zoom":4.0,"id":14886},"arcs":[521]},{"type":"LineString","properties":{"source":"naturalearthdata.com","kind":"major_road","sort_rank":379,"kind_detail":"secondary","min_zoom":4.0,"id":14905},"arcs":[522]},{"type":"LineString","properties":{"source":"naturalearthdata.com","kind":"major_road","kind_detail":"secondary","sort_rank":379,"landuse_kind":"urban_area","min_zoom":4.0,"id":14920},"arcs":[523]},{"type":"LineString","properties":{"source":"naturalearthdata.com","kind":"major_road","sort_rank":379,"kind_detail":"secondary","min_zoom":4.0,"id":14920},"arcs":[524]},{"type":"LineString","properties":{"source":"naturalearthdata.com","kind":"major_road","sort_rank":379,"kind_detail":"secondary","min_zoom":3.0,"id":14921},"arcs":[525]},{"type":"LineString","properties":{"source":"naturalearthdata.com","kind":"major_road","sort_rank":379,"kind_detail":"secondary","min_zoom":3.0,"id":14922},"arcs":[526]},{"type":"LineString","properties":{"source":"naturalearthdata.com","kind":"major_road","sort_rank":379,"kind_detail":"secondary","min_zoom":4.0,"id":14927},"arcs":[527]},{"type":"LineString","properties":{"source":"naturalearthdata.com","kind":"major_road","sort_rank":379,"kind_detail":"secondary","min_zoom":3.0,"id":14928},"arcs":[528]},{"type":"LineString","properties":{"source":"naturalearthdata.com","kind":"major_road","sort_rank":379,"kind_detail":"secondary","min_zoom":4.0,"id":14943},"arcs":[529]},{"type":"LineString","properties":{"source":"naturalearthdata.com","kind":"major_road","sort_rank":379,"kind_detail":"secondary","min_zoom":4.0,"id":14944},"arcs":[530]},{"type":"LineString","properties":{"source":"naturalearthdata.com","kind":"major_road","sort_rank":379,"kind_detail":"secondary","min_zoom":4.0,"id":14963},"arcs":[531]},{"type":"LineString","properties":{"source":"naturalearthdata.com","kind":"major_road","sort_rank":379,"kind_detail":"secondary","min_zoom":4.0,"id":14974},"arcs":[532]},{"type":"LineString","properties":{"source":"naturalearthdata.com","kind":"major_road","sort_rank":379,"kind_detail":"secondary","min_zoom":4.0,"id":14993},"arcs":[533]},{"type":"LineString","properties":{"source":"naturalearthdata.com","kind":"major_road","sort_rank":379,"kind_detail":"secondary","min_zoom":4.0,"id":15022},"arcs":[534]},{"type":"LineString","properties":{"source":"naturalearthdata.com","kind":"major_road","sort_rank":379,"kind_detail":"secondary","min_zoom":4.0,"id":15219},"arcs":[535]},{"type":"LineString","properties":{"source":"naturalearthdata.com","kind":"major_road","sort_rank":379,"kind_detail":"secondary","min_zoom":3.0,"id":15265},"arcs":[536]},{"type":"LineString","properties":{"source":"naturalearthdata.com","kind":"major_road","sort_rank":379,"kind_detail":"secondary","min_zoom":4.0,"id":15276},"arcs":[537]},{"type":"LineString","properties":{"source":"naturalearthdata.com","kind":"major_road","sort_rank":379,"kind_detail":"secondary","min_zoom":3.0,"id":15299},"arcs":[538]},{"type":"LineString","properties":{"source":"naturalearthdata.com","kind":"major_road","sort_rank":379,"kind_detail":"secondary","min_zoom":3.0,"id":15310},"arcs":[539]},{"type":"LineString","properties":{"source":"naturalearthdata.com","kind":"major_road","sort_rank":379,"kind_detail":"secondary","min_zoom":3.0,"id":15313},"arcs":[540]},{"type":"LineString","properties":{"source":"naturalearthdata.com","kind":"major_road","sort_rank":379,"kind_detail":"secondary","min_zoom":3.0,"id":15317},"arcs":[541]},{"type":"LineString","properties":{"source":"naturalearthdata.com","kind":"major_road","sort_rank":379,"kind_detail":"secondary","min_zoom":3.0,"id":15321},"arcs":[542]},{"type":"LineString","properties":{"source":"naturalearthdata.com","kind":"major_road","kind_detail":"secondary","sort_rank":379,"landuse_kind":"urban_area","min_zoom":4.0,"id":15330},"arcs":[543]},{"type":"LineString","properties":{"source":"naturalearthdata.com","kind":"major_road","sort_rank":379,"kind_detail":"secondary","min_zoom":4.0,"id":15330},"arcs":[544]},{"type":"LineString","properties":{"source":"naturalearthdata.com","kind":"major_road","kind_detail":"secondary","sort_rank":379,"landuse_kind":"urban_area","min_zoom":4.0,"id":15345},"arcs":[545]},{"type":"LineString","properties":{"source":"naturalearthdata.com","kind":"major_road","sort_rank":379,"kind_detail":"secondary","min_zoom":4.0,"id":15345},"arcs":[546]},{"type":"LineString","properties":{"source":"naturalearthdata.com","kind":"major_road","sort_rank":379,"kind_detail":"secondary","min_zoom":3.0,"id":15373},"arcs":[547]},{"type":"LineString","properties":{"source":"naturalearthdata.com","kind":"major_road","sort_rank":379,"kind_detail":"secondary","min_zoom":4.0,"id":15711},"arcs":[548]},{"type":"LineString","properties":{"source":"naturalearthdata.com","kind":"major_road","sort_rank":379,"kind_detail":"secondary","min_zoom":4.0,"id":15753},"arcs":[549]},{"type":"LineString","properties":{"source":"naturalearthdata.com","kind":"major_road","sort_rank":379,"kind_detail":"secondary","min_zoom":3.0,"id":15866},"arcs":[550]}]},"earth":{"type":"GeometryCollection","geometries":[{"type":"MultiPolygon","properties":{"sort_rank":10,"source":"naturalearthdata.com","min_zoom":0.0,"kind":"earth","area":5837877659645},"arcs":[[[551]]]}]},"landuse":{"type":"GeometryCollection","geometries":[{"type":"Polygon","properties":{"kind":"nature_reserve","name":"\u041d\u0430\u0446\u0438\u043e\u043d\u0430\u043b\u044c\u043d\u044b\u0439 \u043f\u0430\u0440\u043a \u00ab\u0411\u0443\u0437\u0443\u043b\u0443\u043a\u0441\u043a\u0438\u0439 \u0431\u043e\u0440\u00bb","area":2772760064,"sort_rank":23,"source":"openstreetmap.org","min_zoom":4.0,"tier":2,"id":-7374693,"osm_relation":true,"protect_class":"2"},"arcs":[[552],[553],[554],[555]]},{"type":"Polygon","properties":{"kind":"park","name":"\u041d\u0430\u0446\u0438\u043e\u043d\u0430\u043b\u044c\u043d\u044b\u0439 \u043f\u0430\u0440\u043a \u00ab\u0421\u0430\u043c\u0430\u0440\u0441\u043a\u0430\u044f \u041b\u0443\u043a\u0430\u00bb","area":3720250112,"sort_rank":24,"source":"openstreetmap.org","min_zoom":4.0,"tier":2,"id":-3094866,"osm_relation":true},"arcs":[[556],[557]]},{"type":"MultiPolygon","properties":{"source":"naturalearthdata.com","kind":"urban_area","name":"","area":24314250020,"sort_rank":11,"min_zoom":4.0},"arcs":[[[558]],[[559]],[[560]],[[561]],[[562]],[[563]],[[564]],[[565]],[[566]],[[567]],[[568]],[[569]],[[570]],[[571]],[[572]],[[573]],[[574]],[[575]],[[576]],[[577]],[[578]],[[579]]]},{"type":"Polygon","properties":{"kind":"nature_reserve","name":"\u0421\u0430\u0440\u0430\u0442\u043e\u0432\u0441\u043a\u0438\u0439 \u0437\u0430\u043a\u0430\u0437\u043d\u0438\u043a","area":1115750016,"sort_rank":23,"source":"openstreetmap.org","min_zoom":4.0,"tier":2,"id":505059874,"protect_class":"4"},"arcs":[[580]]},{"type":"Polygon","properties":{"kind":"park","name":"\u041d\u0430\u0446\u0438\u043e\u043d\u0430\u043b\u044c\u043d\u044b\u0439 \u043f\u0430\u0440\u043a \u0421\u043c\u043e\u043b\u044c\u043d\u044b\u0439","area":1054060032,"sort_rank":24,"source":"openstreetmap.org","min_zoom":4.0,"tier":2,"id":-4828756,"osm_relation":true},"arcs":[[581]]}]}},"type":"Topology","transform":{"translate":[45.0,48.9224992638],"scale":[0.002746582,0.0016733579]},"arcs":[[[2661,1704],[10,-6],[6,-20],[4,-24],[5,-18],[24,-48],[11,-39],[2,-6],[4,-7],[6,-8],[7,-7],[7,-5],[3,-1]],[[2632,1673],[11,1],[7,7],[5,18],[6,5]],[[2100,1695],[19,-4],[7,-4],[7,-6],[6,-8],[3,-10],[6,-11],[9,-4],[89,-6]],[[2074,1580],[9,1],[16,6],[9,11],[2,18],[-17,49],[-2,20],[9,10]],[[2612,1675],[20,-2]],[[2561,1631],[12,1],[9,3],[7,7],[8,19],[6,8],[9,6]],[[2270,1651],[6,-4],[9,-16],[5,-5],[7,-4],[16,0],[7,-4],[4,-12],[-1,-14],[-3,-9],[-5,-6],[-7,-4],[-35,-7],[-2,-4],[4,-9],[6,-10],[3,-7],[11,-13],[28,-2]],[[2246,1642],[8,2],[8,5],[8,2]],[[2511,1648],[10,-1],[10,-5],[10,-6],[9,-3],[11,-2]],[[2420,1511],[17,2],[19,11],[13,12],[1,22],[-6,20],[-1,18],[20,24],[11,17],[7,7],[10,4]],[[2032,1621],[7,0],[14,-11],[17,-1],[3,-2],[-7,-10],[-6,-11],[5,-5],[9,-1]],[[1653,1302],[87,1],[6,4],[17,25],[53,47],[15,8],[65,13],[43,23],[6,5],[2,6],[0,8],[-3,10],[-1,12],[4,5],[5,4],[5,6],[-1,2],[-3,4],[-2,4],[3,3],[5,1],[21,1],[7,3],[5,5],[3,11],[8,1],[6,2],[3,6],[2,14],[-3,35],[1,9],[6,7],[7,2],[5,4],[1,15],[1,13]],[[2397,1561],[10,-4],[3,-6],[1,-8],[1,-14],[8,-18]],[[2323,1521],[30,5],[19,10],[6,9],[5,10],[5,6],[9,0]],[[2973,1549],[6,0],[3,-1],[2,-3],[1,-3],[2,-3],[4,-2]],[[2970,1533],[-3,10],[2,5],[4,1]],[[2833,1545],[3,-2],[8,-8],[3,-2]],[[2792,1514],[4,2],[5,5],[3,5],[3,4],[4,1],[9,2],[3,2],[1,4],[3,4],[6,2]],[[3039,1542],[7,-6]],[[3025,1537],[5,1],[9,4]],[[2997,1541],[28,-4]],[[2991,1537],[2,1],[2,2],[2,1]],[[3047,1537],[14,-6],[4,-6],[8,-14],[5,-5],[37,-16],[15,-11],[5,-5],[3,-10],[-3,-5],[-13,-6],[7,-9],[0,-10],[-2,-10],[2,-10],[12,-12],[6,-8],[2,-11],[9,-10],[67,-21]],[[3046,1536],[1,1]],[[2868,1534],[7,-2],[-5,-11],[8,-2],[9,-5],[5,-2]],[[2847,1533],[21,1]],[[2926,1534],[44,-1]],[[2892,1512],[6,2],[5,5],[5,5],[4,4],[14,6]],[[2758,1521],[32,-3],[2,-4]],[[2750,1515],[8,6]],[[3244,1355],[9,-3],[15,-11],[7,-8],[8,-20],[8,-6],[19,-3],[7,-5],[4,-9],[3,-23],[3,-8],[3,-6],[1,-6],[-1,-10],[11,-15],[6,-5],[15,-9],[5,-8],[5,-8],[5,-8],[9,-5],[30,-6],[3,-3],[7,-7],[4,-2],[16,-4],[5,-3],[3,-5],[0,-6],[-1,-6],[-2,-6],[-21,-28],[-2,-12],[-1,-26],[-2,-12],[-8,-27],[-2,-12],[1,-12],[6,-12],[13,-19],[8,-7],[8,-6],[8,-1]],[[3225,1352],[19,3]],[[1624,1311],[29,-9]],[[1379,997],[16,3],[66,52],[33,45],[15,14],[51,13],[31,14],[14,13],[6,20],[-7,19],[-12,15],[-9,15],[4,17],[9,16],[3,9],[3,20],[4,11],[4,9],[5,7],[9,2]],[[3518,1258],[8,-2],[8,-5],[15,-14],[23,-12],[7,-8],[11,-15],[12,-13],[56,-17],[6,-13],[-1,-23],[8,-16],[81,-79],[9,-6],[7,-2]],[[3459,957],[16,4],[2,0],[15,7],[21,18],[10,18],[-1,19],[-13,43],[0,13],[5,22],[0,13],[-2,4],[-6,6],[-1,5],[1,5],[6,11],[2,5],[-5,23],[-20,12],[-21,7],[-8,7],[5,5],[6,4],[5,6],[-8,22],[3,7],[7,5],[31,10],[9,0]],[[4069,1187],[27,-13]],[[3881,961],[13,5],[25,29],[61,35],[54,47],[7,14],[14,72],[4,14],[4,8],[6,2]],[[3802,1039],[9,-2],[9,-7],[5,-9],[3,-10],[4,-8],[17,-7],[5,-6],[11,-17],[16,-12]],[[3768,1033],[6,1],[18,5],[10,0]],[[1305,1032],[9,-1],[48,-30],[17,-4]],[[1249,530],[4,3],[9,13],[5,4],[74,31],[37,23],[28,36],[6,10],[3,6],[0,6],[-4,24],[-4,9],[-5,7],[-25,9],[0,15],[3,21],[-7,23],[-15,33],[-10,41],[-10,86],[1,42],[-2,18],[-9,13],[-18,4],[-9,6],[-2,11],[6,8]],[[946,914],[10,-7],[23,-32],[17,-10],[5,-6],[4,-8],[2,-6],[4,-4],[7,-3],[4,-3],[17,-21],[7,-11],[15,-13],[14,-24],[15,-13],[2,-8],[2,-8],[3,-8],[4,-7],[18,-15],[8,-16],[4,-17],[2,-17],[5,-17],[2,-6],[4,-12],[3,-5],[4,-5],[14,-13],[7,-14],[3,-13],[4,-9],[13,-1]],[[642,0],[5,8],[13,11],[27,16],[9,7],[7,7],[18,26],[15,29],[7,32],[-4,31],[-18,25],[-54,45],[-21,8],[23,146],[23,146],[8,24],[13,14],[80,37],[25,27],[23,32],[7,17],[-1,21],[-19,30],[-3,16],[4,8],[13,14],[4,9],[-2,9],[-5,6],[-4,8],[4,11],[7,6],[25,11],[5,7],[10,25],[2,4],[11,17],[15,15],[17,9],[15,0]],[[1203,564],[3,-2],[17,-17],[21,-14],[5,-1]],[[1192,562],[11,2]],[[525,3496],[39,-18],[40,-31],[6,-3],[6,-3],[17,-2],[18,-4],[5,-3],[4,-3],[3,-6],[2,-4],[5,-5],[4,-2],[4,-1]],[[751,3447],[14,-4],[24,-15],[6,-2],[5,0]],[[678,3411],[3,1],[20,13],[9,8],[11,6],[5,2],[11,1],[14,5]],[[800,3426],[2,1],[14,12]],[[365,4096],[1,0]],[[362,4096],[3,0]],[[365,4071],[3,5],[-1,4],[-6,11],[-1,5]],[[352,4076],[4,-1],[5,-3],[4,-1]],[[359,4001],[-4,1],[-6,8],[-8,25],[-6,8],[2,5],[8,11],[2,6],[0,4],[1,3],[4,4]],[[441,3941],[-26,4],[-8,4],[-3,6],[1,4],[1,4],[-1,6],[-3,5],[-8,9],[-9,14],[-3,3],[-6,3],[-5,3],[-2,0]],[[369,4006],[-4,-1],[-3,-2],[-3,-2]],[[470,3932],[-3,1],[-9,9],[-5,3]],[[453,3945],[-4,-2],[-8,-2]],[[384,3657],[10,14],[0,3],[0,4],[-3,5],[-2,4],[-1,6],[-1,12],[0,8],[1,6],[12,35],[2,5],[2,2],[3,1],[3,2],[15,3],[1,1],[2,2],[3,5],[2,2],[3,2],[3,1],[3,2],[3,3],[2,5],[0,5],[0,4],[-1,8],[-6,17],[4,21],[12,17],[16,9],[15,1],[5,3],[3,3],[6,11],[0,3],[3,3],[1,7],[-1,7],[-3,3],[-6,0],[-5,2],[-8,6],[-3,10],[-2,3],[-2,0]],[[475,3933],[-5,-1]],[[2902,31],[129,0],[40,12],[11,8],[-4,18],[9,14],[71,74]],[[2881,38],[21,-7]],[[2853,0],[28,38]],[[3292,4096],[-6,-8],[9,-3]],[[3311,4094],[3,-3],[1,-1],[2,-5],[3,-5],[13,-13],[1,-3],[3,-5],[2,-2],[2,-3],[6,-3],[12,-3],[2,-2],[-1,-4],[-12,-15],[-2,-4],[-1,-5],[-1,-7],[-1,-4],[-3,-2],[-4,-2],[-7,-2],[-3,-2],[-2,-1],[-5,-5],[-10,-7],[-13,-13],[-2,-2],[-14,-6],[-2,-2],[-1,-2],[-1,-4],[-1,-7],[1,-12],[-1,-4],[-1,-5],[-5,-6],[-3,-3],[-10,-9],[-2,-4],[-1,-5],[0,-14],[-4,-9],[-6,-12],[-6,-7],[-16,-9],[-45,-17],[-3,-3],[-4,-5],[-2,-4],[-5,-11],[-1,-3],[-2,-2],[-5,-4],[-22,-15],[-2,-3],[-1,-3],[0,-4],[1,-9],[0,-4],[-1,-3],[-1,-2],[-4,-3],[-6,-2],[-19,-1]],[[3295,4085],[10,4],[6,5]],[[3099,3753],[-4,0],[-2,1],[-2,2],[-9,7],[-3,1],[-14,1]],[[3065,3765],[-5,-2],[-7,-4],[-12,-10],[-3,-6],[-2,-4],[1,-3],[-1,-2],[-4,-3],[-22,-1],[-39,-8],[-5,-2],[-1,-9],[0,-6],[0,-3],[-1,-8],[0,-3],[2,-2],[24,-9],[2,-2],[9,-10],[3,-3],[4,-3],[1,-4],[0,-3],[-1,-2],[-1,-2],[0,-2],[0,-3],[0,-3],[2,-3],[2,-1]],[[3020,3642],[1,-1],[1,-3],[1,-3],[3,-2],[5,0]],[[3011,3639],[3,0],[2,1],[2,1],[2,1]],[[3048,3635],[4,-1],[5,-3],[6,-6],[3,-4],[2,-3],[1,-3],[13,-24],[6,-7],[1,-2],[1,-3],[0,-4],[1,-3],[1,-2],[3,-3],[5,-2]],[[3031,3633],[10,2],[7,0]],[[3130,3573],[17,-1],[-24,-46],[2,-5],[2,-1],[3,-2],[2,-1],[0,-15],[-3,0],[-2,-2],[-2,-4],[-1,-8],[0,-5],[2,-3],[4,-3],[2,-2],[1,-3],[1,-3],[0,-3],[-1,-5],[-3,-8],[-2,-4],[-2,-4],[-9,-10],[-3,-5],[-14,-28],[-3,-5],[-16,-14],[-4,-5],[-2,-2],[-3,-2],[-5,-2],[-3,-3],[-1,-5],[1,-9],[2,-9],[1,-3],[1,-6],[0,-3],[0,-2],[-3,-8],[-2,-4],[-2,-3],[-4,-4],[-2,-3],[-1,-3],[-3,-18],[-2,-5],[-2,-3],[-4,-5],[-2,-3],[-1,-5],[-1,-6],[2,-19],[1,-5],[2,-5],[5,-9],[12,-18],[6,-6],[2,-4],[0,-3],[-3,-16],[-2,-7],[1,-5],[5,-15],[0,-5],[0,-7],[-1,-5],[0,-5],[1,-5],[6,-13],[1,-4],[2,-3],[0,-5],[0,-9],[-1,-9],[1,-6],[5,-12]],[[3100,3565],[7,0],[23,8]],[[1103,3608],[5,3],[10,3],[2,2],[2,2],[11,14],[0,1],[0,3],[-1,2],[-1,2],[-3,2]],[[1128,3642],[-4,-3],[-3,-2],[-18,-29]],[[1560,3563],[2,-1],[19,-23],[3,-2],[4,-2],[9,-1],[4,-2],[2,-2],[1,-3],[3,-9],[1,-3],[2,-2],[2,-2],[13,-9],[3,-2],[2,-2],[1,-3],[5,-18],[1,-4],[3,-3],[5,-4],[1,-2],[-1,-2],[-5,-3],[-2,-1],[-1,-1],[0,-3],[2,-4],[15,-10],[2,-2],[2,-2],[1,-3],[1,-2],[-1,-3],[-2,-3],[-11,-10],[1,-3],[2,-5],[16,-11],[3,-4],[0,-3],[-2,-3],[-5,-7],[-1,-4],[20,-5]],[[1539,3539],[3,0],[2,2],[2,2],[2,2],[1,3],[2,8],[6,7],[3,0]],[[1527,3544],[9,-5],[3,0]],[[1499,3510],[4,2],[2,3],[0,7],[1,5],[3,5],[8,8],[5,3],[5,1]],[[1477,3512],[22,-2]],[[1394,3421],[8,8],[2,2],[18,30],[26,35],[7,8],[7,4],[10,3],[5,1]],[[1121,3493],[2,-1],[2,-1],[3,-3],[1,-2],[5,-8],[2,-2],[2,-2],[3,-1],[14,-2]],[[1100,3474],[6,2],[3,2],[2,4],[2,4],[4,4],[2,3],[2,0]],[[1091,3479],[2,-1],[1,-2],[3,-1],[3,-1]],[[1037,3419],[7,1],[12,5],[3,3],[2,4],[6,21],[2,5],[5,7],[9,10],[5,3],[3,1]],[[1198,3475],[5,-1],[-2,-8],[-10,-17],[9,-9]],[[1155,3471],[43,4]],[[1009,3475],[15,0],[4,-1],[3,-2],[2,-2],[2,-2],[1,-3],[1,-3],[0,-4],[0,-3],[0,-4],[-2,-3],[-6,-5],[-2,-3],[-2,-2],[-1,-3],[0,-3],[0,-3],[2,-3],[4,-4],[2,-2],[2,-1],[3,0]],[[930,3356],[12,1],[18,15],[4,8],[-1,8],[0,4],[2,8],[2,4],[2,4],[13,12],[3,5],[3,7],[4,9],[6,10],[3,6],[1,5],[0,4],[1,5],[2,3],[4,1]],[[1219,3451],[3,0],[3,-1],[38,-37],[2,-1],[2,0]],[[1200,3440],[5,1],[5,5],[3,3],[6,2]],[[816,3439],[15,-11],[6,-6],[14,-21],[4,-9],[1,-3],[5,-40],[2,-6],[2,-3],[3,-3],[10,-4]],[[1325,3428],[60,-6],[4,0],[5,-1]],[[1267,3412],[2,3],[17,9],[39,4]],[[1728,3377],[8,-1],[7,-3],[10,-6],[15,-13],[9,-3]],[[1680,3370],[34,7],[14,0]],[[908,3366],[5,-1],[3,-1],[8,-6],[6,-2]],[[878,3333],[11,21],[3,5],[5,4],[4,2],[4,1],[3,0]],[[1798,3353],[4,-1],[2,-2],[1,-1],[3,-6],[3,-4],[4,-1]],[[1777,3351],[21,2]],[[1834,3346],[9,0],[6,-3]],[[1815,3338],[2,0],[5,3],[12,5]],[[349,3038],[4,-1],[14,-4],[13,-8],[16,-7],[4,-3],[2,-2],[3,-6],[2,-2],[4,-3],[22,-11],[4,-2],[2,-3],[1,-3],[1,-3],[1,-7],[0,-4],[-1,-2],[0,-2],[-1,-2],[-1,-2],[-3,-4],[-2,-3],[0,-3],[0,-3],[0,-3],[1,-3],[2,-4],[2,-4],[5,-5],[3,-3],[17,-8],[3,-3],[1,-3],[-1,-3],[-4,-9],[-1,-3],[-1,-4],[2,-4],[2,-2],[4,0]],[[311,3015],[17,7],[4,4],[9,8],[1,1],[7,3]],[[288,3037],[15,-20],[4,-2],[4,0]],[[481,2891],[4,0],[2,-2],[2,-3],[10,-22],[5,-15],[2,-4],[3,-4],[3,-3],[23,-10],[3,-3],[2,-3],[6,-12],[0,-2],[0,-1],[-2,-1],[-2,-2],[-6,-1],[-2,-2],[-1,-3],[0,-3],[4,-24],[1,-4],[3,-2],[3,-1],[2,-1],[1,-1],[0,-3],[1,-3],[-1,-3],[-1,-1],[-1,-3],[-1,-7],[4,-4],[16,-11],[6,-3],[5,-2],[8,0]],[[469,2887],[3,0],[6,3],[3,1]],[[599,2725],[9,-1],[4,-3],[1,-3],[0,-4],[-1,-3],[0,-4],[0,-3],[3,-2],[3,-1],[9,-1],[6,-10],[2,-2],[3,-2],[13,-3],[2,-2],[4,-7],[5,-10],[11,-2],[4,-11],[7,-5],[6,-3],[2,-3],[2,-3],[0,-3],[1,-16],[0,-5],[3,-3],[7,-5],[2,-3],[1,-5],[-1,-3],[-1,-2],[-3,-2],[-14,-5],[-3,-2],[-2,-2],[-1,-3],[-1,-7],[0,-8],[0,-15],[2,-5],[3,-2]],[[583,2722],[16,3]],[[708,2552],[4,-1],[2,-2],[3,-3],[0,-3],[-1,-2],[-8,-9],[-2,-3],[-1,-4],[1,-3],[1,-3],[2,-5],[0,-3],[0,-3],[-11,-17],[-1,-3],[-1,-4],[1,-53],[1,-14],[5,-23],[2,-11],[-11,-9],[-1,-3],[-1,-5],[1,-5],[1,-3],[2,-3],[2,-2],[17,-10],[3,-3],[1,-3],[0,-4],[-4,-10],[0,-4],[1,-3],[1,-3],[2,-4],[1,-3],[2,-6],[-1,-2],[-3,-2],[-3,-1],[-2,-2],[-3,0],[-6,-1],[-3,-1],[-1,-3],[-1,-3],[-1,-4],[-2,-3],[-2,-2],[-2,-1],[-15,-1],[-3,-1],[-2,-2],[-4,-6],[-5,-11],[-2,-5],[0,-4],[1,-22],[2,-6],[1,-6],[2,-4]],[[687,2541],[15,9],[3,1],[3,1]],[[288,3037],[-9,-11],[-9,-6],[-6,-8],[-1,-12],[0,-9],[-1,-3],[-2,-2]],[[124,2966],[-7,2],[-9,16],[-44,38]],[[64,3022],[-18,-12],[-4,-1],[-6,-1]],[[36,3008],[-20,1],[-7,2],[-9,4]],[[260,2986],[-6,0],[-3,2],[-7,4],[-2,1]],[[242,2993],[-7,0],[-35,-11],[-8,-7],[-12,-3]],[[180,2972],[-6,3],[-4,1]],[[170,2976],[-28,-5],[-18,-5]],[[525,3496],[1,-7],[-5,-15],[0,-3],[0,-9],[5,-17],[6,-6],[20,-14],[1,-2],[0,-3],[-1,-6],[-2,-3],[-1,-3],[-18,-17],[-7,-6],[-1,-2],[1,-3],[3,-3],[4,-1]],[[556,3387],[2,-2],[2,-1],[-4,-7],[-1,-4],[3,-8],[0,-5],[-1,-3],[-3,-5],[-14,-19],[0,-2],[0,-1],[4,-2],[2,0]],[[531,3376],[10,4],[9,5],[6,2]],[[574,3335],[3,0],[2,-1],[0,-3],[-1,-3],[-2,-3],[-5,-4],[-2,-1],[-4,-1],[-5,-2],[-3,-2],[-4,-4],[-2,-3],[-1,-2],[1,-3],[1,-3],[4,-8],[6,-15],[2,-2],[2,-1]],[[546,3328],[28,7]],[[591,3277],[11,-2],[24,-7],[1,-2],[4,-2],[3,-11],[0,-8],[-1,-5],[-3,-5],[-4,-4],[-3,-1],[-11,-3],[-23,-11],[-11,-3],[-1,-1],[-2,-3],[-2,-3],[-4,-1]],[[566,3274],[25,3]],[[569,3205],[-3,1],[-5,2],[-3,1]],[[558,3209],[-5,-1],[-6,-1],[-5,-3],[-40,-32],[-10,-3]],[[492,3169],[-7,1]],[[485,3170],[-7,-1],[-7,-7],[-8,-5],[-53,-10]],[[410,3147],[-20,3]],[[390,3150],[-19,-2],[-16,-21],[-7,-21],[-2,-4],[-3,-1],[-9,-6],[-3,-3],[-4,-10],[-1,-20],[-6,-9],[-9,-5],[-17,-5],[-6,-6]],[[259,3738],[9,-3],[0,-4],[0,-3],[0,-4],[0,-4],[1,-4],[4,-2],[4,-1],[4,-3],[2,-4],[2,-4],[1,-3],[-1,-2],[-1,-1],[-8,-1],[-3,-2],[-1,-1],[-1,-3],[-1,-7],[0,-4],[1,-5],[3,-5],[6,-7],[1,-3],[-1,-3],[-22,-16],[-6,-6],[0,-1],[-1,0],[0,-1],[-1,-2],[-1,-4],[1,-3],[2,-3],[2,-2],[3,-1],[3,-2],[3,0]],[[205,3683],[3,0],[1,2],[-1,3],[-5,10],[-1,3],[0,3],[1,1],[3,2],[5,2],[3,3],[1,1],[0,7],[1,4],[2,4],[2,2],[6,1],[33,7]],[[183,3688],[7,-3],[15,-2]],[[150,3558],[5,3],[2,7],[1,5],[0,4],[-2,2],[-3,2],[-2,3],[0,4],[1,3],[4,10],[0,4],[0,4],[-2,5],[1,5],[4,15],[0,6],[0,5],[0,4],[1,3],[6,10],[6,18],[6,7],[5,1]],[[337,3628],[6,1],[4,1],[27,14],[3,3],[7,10]],[[315,3635],[4,-1],[2,-1],[1,-1],[6,-3],[9,-1]],[[263,3614],[3,0],[6,3],[4,3],[21,12],[18,3]],[[137,3562],[3,-1],[10,-3]],[[69,3483],[2,0],[3,2],[2,2],[4,9],[7,26],[2,22],[3,8],[2,2],[3,2],[13,3],[17,1],[6,2],[4,0]],[[55,3510],[4,-1],[3,-1],[2,-3],[0,-4],[-1,-8],[1,-3],[0,-4],[2,-2],[3,-1]],[[33,3327],[5,1],[3,1],[7,7],[4,4],[1,5],[-10,7],[-7,9],[-4,6],[-3,3],[-4,2],[-14,2],[-3,2],[0,3],[1,3],[8,4],[2,3],[1,3],[0,4],[0,4],[-1,5],[-1,3],[1,4],[2,2],[7,5],[3,2],[1,3],[1,4],[0,3],[-2,3],[-8,6],[-3,4],[-3,6],[-2,5],[0,6],[3,16],[1,3],[1,4],[2,2],[11,11],[2,2],[5,8],[2,2],[3,1],[10,0]],[[6,3327],[27,0]],[[0,3326],[6,1]],[[1221,4096],[-11,-8],[-30,-28],[-3,-5],[-3,-4],[-7,-5],[-22,-2],[-5,-10],[-1,-3],[-2,-4],[-1,-3]],[[1136,4024],[-5,1],[-2,2],[-1,3],[-1,7],[0,3],[-3,1]],[[1124,4041],[-2,-3],[-6,-16],[-9,-10],[-6,-3],[-1,-4],[-1,-6],[2,-12],[2,-2]],[[1111,3991],[3,0],[1,-2],[1,-3],[0,-4],[1,-3],[1,-3],[1,-3],[9,-8],[1,-3],[0,-4],[-3,-5],[-3,-4],[-21,-8],[-8,-4],[-11,-7],[-22,-29],[-3,-5],[-1,-5],[0,-4],[-1,-3],[-2,-5],[-10,-13],[-3,-5],[-2,-5],[-2,-7],[-2,-7],[-1,-3],[-2,-3],[-11,-4],[-37,-4],[-2,-3],[-1,-3],[-1,-2],[4,-8],[3,-6],[1,-2],[0,-5],[-1,-6],[-2,-13],[-1,-7],[-1,-8],[3,-2],[20,-3]],[[1103,3985],[2,0],[1,3],[2,2],[3,1]],[[1061,3821],[3,-1],[4,-2],[4,-4],[7,-5],[16,-7],[2,-2],[1,-3],[0,-5],[-1,-3],[-1,-4],[-1,-4],[1,-4],[3,-5],[7,-7],[7,-11],[1,-6],[8,-23],[1,-3],[0,-3],[-1,-4],[-3,-4],[-1,-5],[0,-3],[0,-3],[1,-3],[0,-3],[-2,-3],[-5,-2]],[[1049,3775],[4,1],[3,2],[1,2],[0,3],[-2,2],[-8,9],[-1,2],[-1,3],[0,3],[6,12],[2,3],[2,2],[2,2],[4,0]],[[1026,3797],[3,0],[4,-4],[2,-3],[3,-5],[2,-3],[4,-4],[2,-2],[3,-1]],[[1006,3760],[8,4],[2,2],[3,6],[2,5],[1,2],[0,3],[-1,7],[0,2],[1,3],[2,2],[2,1]],[[1112,3689],[-3,0],[-4,4],[-3,0]],[[1102,3693],[-35,-18],[-2,-3],[-3,-4],[0,-6],[1,-4],[2,-2],[7,-7],[2,-1],[2,0]],[[1081,3660],[4,-1],[3,-1],[1,-3],[0,-3],[0,-4],[1,-3],[2,0]],[[1076,3648],[-1,3],[0,3],[0,3],[2,2],[4,1]],[[1099,3646],[2,-1],[2,-2],[0,-2],[-1,-6],[-3,-8],[-4,-8],[-4,-6],[-4,-4],[-5,-4],[-11,-3],[-34,-3]],[[1092,3645],[4,1],[3,0]],[[1037,3599],[-9,0]],[[1028,3599],[-7,0],[-3,-1],[-3,-2],[-2,-4],[0,-4],[1,-3],[4,-15],[4,-23],[1,-3],[1,-3],[2,-3],[2,-2],[7,-6],[2,-2],[1,-3],[-1,-3],[-4,-2],[-7,-1]],[[1026,3519],[-4,2],[-2,3],[-1,3],[0,4],[-1,3],[-4,8],[-1,3],[-2,6],[0,4],[-1,3],[0,3],[-2,6],[-1,3],[-1,3],[-2,1]],[[1004,3574],[-2,-1],[-1,-4],[-1,-8],[-1,-4],[-2,-6],[-1,-3],[1,-3],[2,-6],[1,-3],[2,-2],[0,-3],[-1,-2]],[[947,3536],[-5,0],[-36,11],[-6,3],[-2,2],[-6,11],[-2,2],[-2,2],[-2,0]],[[886,3567],[-3,-2],[-2,-6],[-2,-9],[-1,-3],[-2,-4],[-7,-7],[-3,-4],[-2,-6],[0,-5],[0,-4],[1,-14],[1,-4],[0,-7],[-1,-3],[-2,-5],[-3,-5],[-8,-10],[-7,-6],[-29,-24]],[[1001,3529],[-4,1],[-3,1],[-14,9],[-3,2],[-3,0]],[[974,3542],[-5,0],[-16,-6],[-6,0]],[[440,3675],[4,-1],[15,-10],[9,-9],[3,-5],[1,-6],[0,-5],[0,-4],[-4,-10],[-2,-6],[1,-4],[1,-5],[5,-7],[4,-4],[22,-18],[12,-6],[2,-2],[2,-4],[1,-5],[0,-10],[-1,-5],[-1,-5],[-4,-9],[-1,-3],[-1,-3],[0,-3],[0,-3],[0,-4],[2,-4],[4,-7],[11,-12]],[[422,3615],[3,3],[2,3],[4,19],[4,9],[1,3],[0,3],[0,4],[-1,10],[1,3],[1,3],[3,0]],[[384,3657],[15,-11],[2,-3],[10,-8],[1,-2],[0,-1],[0,-1],[-1,-2],[0,-3],[1,-2],[2,-3],[4,-4],[2,-2],[2,0]],[[2325,3439],[2,-1],[1,-6],[1,-8],[-2,-30],[6,-4]],[[2284,3416],[5,0],[3,2],[31,20],[2,1]],[[2260,3424],[3,0],[3,-1],[5,-4],[5,-2],[8,-1]],[[2211,3361],[4,1],[3,3],[6,15],[7,12],[7,8],[8,15],[7,7],[7,2]],[[2371,3416],[6,-1],[10,-7],[41,-35],[10,-6],[24,-3],[15,-9],[9,-2]],[[2333,3390],[31,1],[2,2],[1,1],[1,6],[3,14],[0,2]],[[2195,3364],[16,-3]],[[2158,3237],[3,1],[3,1],[2,3],[0,5],[0,3],[-1,4],[0,3],[1,5],[2,5],[10,13],[3,5],[1,7],[1,4],[0,8],[0,4],[4,12],[-1,4],[-1,3],[-1,1],[-2,4],[0,1],[0,1],[4,23],[2,3],[2,3],[5,1]],[[2518,3355],[3,-1],[3,-2],[1,-2],[1,-5],[1,-7],[0,-21],[-3,-22],[6,-3],[7,-2]],[[2486,3353],[32,2]],[[1849,3343],[10,-5],[33,-1],[7,-1],[5,-6],[2,-7],[8,-20],[3,-2],[4,-1]],[[1958,3325],[2,0],[4,-3],[4,-6],[3,-8],[2,-6],[2,-6],[2,-4],[3,-4],[8,-6],[3,-4],[2,-4],[2,-6],[2,-6],[3,-7],[3,-4],[1,-2],[0,-3],[0,-3],[-2,-6],[0,-2],[1,-1],[2,-2],[2,-1]],[[1921,3300],[9,1],[4,2],[6,4],[6,3],[2,1],[2,3],[0,3],[1,3],[2,2],[2,2],[3,1]],[[2709,3320],[3,0],[4,-1],[3,-2],[5,-4],[2,-2],[4,-4],[1,-2],[1,-4],[0,-5],[-1,-10],[-2,-6],[2,-8],[14,-12]],[[2683,3285],[8,2],[3,3],[2,4],[-1,10],[0,4],[1,3],[2,4],[2,2],[2,2],[3,1],[4,0]],[[2677,3308],[3,-1],[2,-4],[0,-3],[-1,-3],[-2,-3],[-1,-3],[-1,-3],[2,-3],[4,0]],[[2580,3238],[4,1],[5,4],[2,3],[0,3],[-4,5],[-2,2],[-1,3],[0,4],[1,3],[4,4],[7,5],[17,5],[6,4],[2,3],[0,3],[1,4],[1,2],[2,3],[5,1],[29,3],[15,5],[3,0]],[[2549,3295],[2,0],[5,-2],[5,-5],[5,-8],[1,-2],[1,-3],[1,-10],[1,-3],[1,-6],[0,-4],[0,-3],[1,-3],[3,-5],[2,-2],[3,-1]],[[2537,3290],[4,0],[4,2],[2,2],[2,1]],[[2074,3289],[13,-5],[28,-25],[4,-1],[6,-1]],[[2007,3231],[3,0],[3,3],[6,7],[6,4],[7,3],[3,2],[2,3],[8,15],[3,5],[6,6],[13,8],[3,2],[4,0]],[[2137,3259],[3,0],[3,-1],[3,-2],[2,-3],[1,-2],[1,-3],[1,-6],[2,-3],[2,-2],[3,0]],[[2125,3257],[9,2],[3,0]],[[1849,3343],[7,-14],[9,-8],[1,-3],[0,-6],[-2,-13],[0,-4],[0,-3],[2,-2],[4,-1],[20,-2],[3,-1],[2,-2],[0,-5],[-1,-8],[0,-5],[1,-6],[10,-24],[1,-3],[2,-6],[6,-10],[0,-7],[0,-9],[-6,-34],[-12,-41],[-2,-9],[1,-14],[7,-25],[-6,-13],[-4,-8],[-4,-3],[-33,-16],[-6,-6],[-2,-4],[-4,-4],[-3,-3],[-27,-7],[-2,-4],[-6,-25],[-1,-3],[1,-3],[2,-2],[3,-2],[7,-2],[10,-4],[5,-4],[2,-2],[4,-5],[2,-2],[1,-3],[0,-3],[1,-3],[-1,-3],[-2,-6],[-1,-3],[-5,-4],[-10,-3]],[[1823,2928],[-50,7],[-5,2],[-3,3],[-2,2],[-1,3],[-1,2],[-1,4],[1,3],[3,5],[1,3],[0,3],[-3,1],[-5,1]],[[1757,2967],[-22,-6],[-2,-1],[-2,-2],[0,-3],[2,-4],[0,-3],[-1,-2],[-2,-2],[-7,-6],[-5,-1],[-20,-4],[-6,-2],[-4,-3],[-2,-3],[-2,-1],[-3,-1]],[[1681,2923],[-3,3],[-1,3],[0,4],[0,7],[-5,4],[-11,4],[-54,8]],[[1607,2956],[-7,-1],[-15,-3],[-6,-4],[-3,-4],[-1,-4],[-10,-1]],[[1565,2939],[-98,10]],[[1467,2949],[-10,-9],[-2,-2],[-27,-39],[-17,-34],[-9,-1]],[[1402,2864],[-88,18],[-38,14],[-3,1],[-2,0],[-3,0]],[[1268,2897],[-3,0],[-3,-2],[-1,-4],[0,-6],[1,-4],[1,-3],[6,-11],[11,-15],[4,-3],[3,-2],[20,-6],[3,-2],[0,-3],[-2,-3],[-5,-4],[-5,-1],[-4,0]],[[1245,2815],[-2,2],[-7,9],[-2,2],[-9,8],[-2,1],[-2,0]],[[1221,2837],[-2,0],[-3,-1],[-5,-4],[-1,-3],[-1,-5],[2,-9],[2,-5],[2,-4],[1,-2],[2,-4],[4,-4],[2,-2],[3,-1],[7,-2],[11,-2],[3,-1],[2,-2],[1,-2],[-3,-3],[-10,-7],[-2,-2],[-2,-3],[-2,-2],[-1,-7],[-1,-9],[-1,-33],[-3,-2],[-19,-8]],[[1294,2828],[-36,7]],[[1258,2835],[-3,-2],[-1,-3],[-1,-6],[-1,-4],[-4,-5],[-3,0]],[[1172,2693],[-3,3],[-2,3],[-12,21],[-2,2],[-4,2]],[[1149,2724],[-29,-1],[-7,-2],[-8,-9],[-11,-13],[-1,-2],[-1,-5],[1,-8],[-1,-2],[-1,-3],[-16,-14],[-3,-5],[2,-9],[6,-8],[25,-18],[5,-9],[5,-11],[3,-5],[4,-3],[4,-4],[2,-3],[1,-3],[0,-3],[0,-14],[0,-4],[1,-4],[1,-5],[5,-13],[4,-6],[5,-5],[5,-3],[14,-3],[2,-3],[1,-3],[-5,-12],[-9,-18],[-6,-13],[-1,-6],[5,-9],[9,-9],[13,-18],[1,-1],[2,0]],[[1207,2708],[-2,0],[-3,0],[-6,5],[-3,2],[-3,0]],[[1190,2715],[-9,-3],[-3,-2],[-1,-2],[-1,-3],[-1,-3],[0,-7],[-1,-2],[-2,0]],[[1219,2476],[3,0],[3,-2],[0,-3],[-1,-4],[-15,-30],[-1,-3],[0,-2],[0,-2],[2,-3],[12,-7],[12,-1]],[[1176,2435],[3,1],[0,1],[9,28],[1,3],[2,3],[2,1],[26,4]],[[1282,2424],[16,-18],[10,-17],[-1,-24],[-3,-8],[-5,-9],[-10,-13],[-38,-29]],[[1234,2419],[44,5],[4,0]],[[2778,3239],[-4,1],[-9,8],[-20,12]],[[2886,3208],[2,3],[1,3],[-1,3],[-2,3],[-25,6],[-32,16],[-6,1],[-28,2]],[[2795,3245],[-7,-1],[-5,-2],[-3,-2],[-2,-1]],[[2944,3178],[3,1],[3,1],[2,2],[1,3],[-2,4],[-1,4],[1,5],[1,7],[-6,14],[-2,3],[-10,12],[-2,2],[-3,1]],[[2929,3237],[-3,-2],[-3,-1],[-4,-5],[-2,-2],[-2,-3],[-1,-3],[0,-2],[1,-1],[5,-6],[1,-2],[1,-3],[0,-3],[-2,-3],[-3,-3],[-4,-2],[-24,-1]],[[2874,3209],[12,-1]],[[2889,3195],[-5,1],[-8,3],[-4,4],[0,4],[2,2]],[[2933,3179],[11,-1]],[[2921,3166],[2,1],[2,6],[1,3],[3,3],[4,0]],[[2902,3171],[3,0],[3,-1],[10,-4],[3,0]],[[2942,3075],[-3,1],[-2,2],[1,5],[2,3],[3,7],[1,3],[1,3],[0,4],[-3,3],[-3,2],[-7,0],[-4,1],[-2,2],[-2,2],[-2,3],[-1,2],[-7,10],[-19,23],[-3,5],[-1,3],[-1,3],[1,3],[3,3],[5,2],[3,1]],[[3048,3016],[-3,2],[-2,3],[-6,15],[-18,13],[-2,2],[-1,4],[-1,5],[0,4],[-1,4],[-2,4],[-5,5],[-5,2],[-4,1],[-7,1],[-4,1],[-2,3],[-2,4],[-3,1]],[[2980,3090],[-2,0],[-14,-10],[-8,-4],[-7,-1],[-7,0]],[[3084,3062],[-22,-19],[-6,-8],[0,-1],[-1,-8],[-1,-4],[-1,-3],[-2,-2],[-3,-1]],[[3367,2661],[-11,2],[-40,23],[-5,4],[-4,7],[-3,14],[-2,12],[-1,4],[-2,3],[-7,6],[-8,3],[-5,4],[-1,1],[-3,3],[-12,21],[-31,62],[-14,16],[-9,6],[-46,21],[-8,7],[-2,3],[-2,3],[0,7],[-1,4],[-1,8],[-11,34],[-3,11],[-4,15],[-36,85],[-11,12]],[[3519,2577],[-9,2],[-6,12],[-6,1],[-13,0],[-3,2],[-2,4],[0,6],[0,5],[0,4],[4,20],[-2,4],[-1,3],[-15,12],[-79,30]],[[3387,2682],[-4,0],[-3,-2],[-2,-3],[-5,-9],[-4,-5],[-2,-2]],[[3704,2331],[-4,0],[-5,7],[1,7],[-1,3],[-5,10],[-2,19],[0,3],[-2,3],[-1,3],[-15,14],[-3,5],[-2,5],[-7,21],[-3,7],[-6,10],[-3,5],[-19,42],[-2,8],[-2,19],[0,2],[-4,11],[2,6],[0,4],[0,3],[-1,3],[-3,8],[-1,3],[-2,6],[-3,3],[-21,9],[-3,2],[-1,3],[-2,3],[0,3],[-1,3],[0,3],[-3,2],[-4,1]],[[3576,2600],[-7,-1],[-18,-13],[-32,-9]],[[3790,2307],[3,0],[1,2],[1,3],[0,7],[-4,11],[0,3],[-1,4],[-1,2],[-2,3],[-3,3],[-14,6],[-33,4]],[[3737,2355],[-4,-9],[-1,-3],[-1,-4],[-2,-3],[-4,-2],[-5,-1],[-16,-2]],[[3778,2311],[3,0],[9,-4]],[[3772,2250],[3,1],[6,1],[5,3],[4,5],[2,2],[2,3],[1,4],[1,3],[0,4],[-2,4],[-5,3],[-11,1],[-4,2],[-3,4],[-1,6],[0,5],[1,4],[2,3],[2,2],[3,1]],[[3751,2279],[3,-1],[3,-1],[2,-2],[1,-3],[1,-3],[1,-7],[0,-3],[1,-3],[1,-3],[2,-2],[3,-1],[3,0]],[[3757,2213],[-6,0],[-8,2],[-6,4],[-5,7],[3,10],[4,4],[3,1],[2,2],[1,4],[0,5],[-2,7],[-2,4],[-1,4],[0,4],[2,4],[3,2],[3,1],[3,1]],[[3809,2191],[-2,1],[-2,4],[0,3],[1,8],[0,4],[-1,3],[-1,2],[-5,8],[-4,4],[-4,4],[-4,1]],[[3787,2233],[-5,0],[-9,-4],[-3,-4],[-2,-3],[-1,-4],[-2,-3],[-3,-1],[-5,-1]],[[4096,2173],[-25,18],[-12,17],[-1,4],[-3,5],[-1,2],[-5,4],[-3,2],[-3,1],[-3,1]],[[4040,2227],[-6,-2],[-7,0],[-2,-1],[-2,-2],[1,-3],[2,-3],[4,-5],[1,-2],[1,-3],[1,-3],[0,-3],[-2,-6],[-5,-7],[-11,-14],[-6,-6],[-4,-3],[-1,0],[-3,-3],[-2,-4],[-4,-7],[-4,-5],[-3,-1]],[[4096,1910],[-4,2],[-8,6],[-3,4],[-1,3],[-6,17],[0,5],[0,2],[2,3],[1,3],[2,2],[8,5],[9,5]],[[3834,2157],[3,0],[2,3],[0,3],[0,3],[-1,3],[-2,3],[-1,2],[-1,4],[1,2],[6,2],[1,1],[1,3],[-1,3],[-1,2],[-2,3],[-2,2],[-2,2]],[[3835,2198],[-5,0],[-18,-7],[-3,0]],[[3824,2159],[10,-2]],[[3882,2058],[-42,11],[-4,2],[-3,4],[-3,6],[0,5],[0,5],[3,19],[0,3],[0,4],[0,3],[-2,5],[0,3],[1,3],[2,5],[1,2],[0,1],[-1,2],[-2,3],[-6,4],[-3,2],[-2,3],[0,4],[2,1],[1,1]],[[3988,2144],[-2,2],[-1,3],[-2,2]],[[3983,2151],[-3,-4],[-4,-10],[-7,-28],[-2,-12],[-1,-8],[1,-3],[-1,-5],[-1,-3],[-11,-16],[-3,-3]],[[3924,2044],[-3,1],[-7,2],[-3,2],[-3,2],[-1,4],[-1,2],[-1,5],[-2,6],[-1,3],[-3,2],[-4,1]],[[3895,2074],[-3,0],[-2,-2],[-2,-1],[0,-2],[0,-3],[0,-3],[-1,-2],[-2,-2],[-3,-1]],[[3951,2059],[-10,2]],[[3941,2061],[-3,0],[-3,-2],[-2,-2],[-4,-9],[-3,-2],[-2,-2]],[[2745,3260],[-4,-12],[-2,-8],[0,-4],[-1,-4],[-2,-3],[-3,-2],[-3,-1]],[[2730,3226],[-3,1],[-10,3],[-16,2]],[[2701,3232],[-14,-1],[-12,-4],[-3,-1]],[[2672,3226],[-4,0],[-14,4]],[[2654,3230],[-3,0],[-4,-1],[-5,-2],[-7,-6],[-11,-6],[-1,-2],[0,-4],[5,-6],[4,-3],[31,-13],[2,-2],[3,-3],[3,-7],[3,-6],[2,-5],[1,-10],[1,-3],[-1,-4],[-5,-9],[-13,-6],[-4,-1],[-8,-3],[-2,-2],[-1,-3],[-1,-3],[0,-3],[1,-6],[2,-3],[1,-3],[4,-2],[3,-1]],[[2682,3113],[7,-1],[4,-1],[3,-2],[2,-2],[1,-3],[7,-13],[2,-2],[3,-2],[11,-7],[2,-2],[1,-4],[0,-5],[-1,-4],[-3,-4],[-14,-11],[-9,-9],[-11,-15],[-2,-3],[0,-4],[1,-5],[4,-4],[2,-3],[3,-1],[3,-5],[1,-10],[-12,-27],[-10,-33],[-3,-19],[-2,-5],[-2,-5],[-15,-21],[-1,-4],[-2,-4],[-8,-27],[-1,-2],[0,-2],[0,-3],[0,-3],[0,-4],[-2,-4],[-4,-5],[-2,-2],[-3,-3],[-1,-1],[-2,-4],[-3,-6],[-4,-11],[-3,-12],[0,-4],[-2,-4],[-2,-4],[-4,-4],[-3,-2],[-4,-1]],[[2654,3102],[4,1],[24,10]],[[2604,2765],[-15,1]],[[2589,2766],[-3,-2],[-4,-4],[-2,-10],[-2,-6],[-1,-5],[0,-3],[3,-4],[2,-2],[1,-16],[12,-7],[2,-5],[2,-6],[3,-14],[2,-6],[3,-3],[9,-5],[2,-3],[1,-4],[-1,-7],[-6,-24],[-3,-8],[-8,-8],[-1,-4],[1,-2],[6,-9],[1,-6],[0,-4],[-1,-4],[-2,-4],[-3,-4],[-6,-5],[-2,-3],[0,-4],[0,-4],[1,-7],[1,-6],[0,-4],[-1,-3],[-3,-5],[-3,-2],[-15,-5],[-3,-2],[-1,-3],[0,-4],[1,-3],[3,-2],[3,-2],[19,-2],[7,-2],[2,-2],[1,-2],[1,-4],[-1,-3],[-2,-3],[-4,-4],[-4,-1],[-20,-3],[-2,-2],[-2,-3],[-1,-5],[-1,-5],[2,-27],[0,-3],[-1,-5],[-3,-4],[-8,-6],[-3,-1],[-15,-4],[-3,-2],[-11,-12],[-4,-4],[-4,-2],[-5,0],[-10,-4],[-5,-4],[-2,-1],[-14,-25],[-5,-5],[-5,-3]],[[2474,2360],[-16,3]],[[2458,2363],[-3,0],[-3,-1],[-2,-3],[-2,-5],[-1,-4],[-2,-9],[0,-4],[1,-4],[3,-5],[3,-3],[12,-6],[2,-4],[-1,-8],[-3,-13],[-3,-23],[0,-5],[-1,-6],[-3,-11],[-2,-7],[-2,-3],[-2,-3],[-2,-2],[-4,-1],[-18,-4]],[[2425,2229],[-3,1],[-5,3],[-14,14],[-9,3]],[[2394,2250],[-8,-2],[-3,-2],[-2,-2],[-1,-4],[-1,-6],[-1,-5],[-3,-4],[-4,-5],[-1,-4],[1,-4],[2,-6],[6,-10],[4,-8],[1,-3],[-1,-3],[-3,-2],[-3,-1]],[[2377,2179],[-3,0],[-3,2],[-6,4],[-2,1]],[[2363,2186],[-3,0],[-2,-2],[-2,-5],[0,-8],[0,-17],[1,-6],[1,-3],[1,-3],[2,-2],[3,-2],[10,-7],[3,-2],[4,-4],[1,-2],[3,-5],[3,-6],[1,-6],[0,-3],[-2,-4],[-6,-4],[-23,-6],[-2,-2],[-2,-2],[0,-4],[0,-4],[2,-6],[1,-3],[0,-3],[-1,-4],[-4,-4],[-17,-9],[-1,-6],[2,-10],[-1,-11],[-2,-28],[3,-6],[4,-3],[5,-2],[3,-2],[1,-5],[0,-5],[-5,-30],[-8,-40],[-6,-7],[-11,-11],[-82,-66],[-8,-12],[-4,-4],[-25,-8],[-3,-2],[-3,-3],[-8,-15],[-3,-2],[-36,-20],[-47,-55]],[[2648,2641],[4,3],[3,6],[1,5],[2,9],[-1,4],[-3,2],[-11,3]],[[2643,2673],[-3,0],[-1,-3],[-2,-3],[-1,-7],[-4,-9],[0,-2],[2,-2],[2,-2],[6,-3],[6,-1]],[[667,2207],[-4,1],[-29,3],[-10,3],[-2,2],[-5,8],[-6,6],[-5,4],[-5,1],[-10,0],[-3,2],[-2,3],[0,3],[0,4],[1,12],[0,5],[-1,4],[-4,6],[-3,2]],[[579,2276],[-3,0],[-2,-2],[-3,-6],[-4,-4],[-2,-3],[-2,-1],[-11,-6],[-34,-5],[-11,-6]],[[507,2243],[-27,1]],[[480,2244],[-7,-1],[-4,-2],[-3,-6],[-1,-3],[-1,-3],[-1,-4],[1,-7],[1,-3],[0,-6],[-18,-2],[-6,-4],[-3,-4],[-4,0]],[[434,2199],[-10,0]],[[424,2199],[-3,-1],[-2,-2],[-1,-3],[-2,-22],[-2,-2],[-2,-3]],[[412,2166],[-2,1],[-4,4],[-3,2],[-3,1]],[[400,2174],[-4,-1],[-3,-2],[-2,-4],[-1,-4],[-3,-6],[-3,-3],[-10,-5],[-15,-11],[-4,-5],[-1,-4],[1,-2],[3,-2],[8,-5],[2,-2],[1,-3],[0,-4],[-2,-3],[-1,-2],[-7,-4],[-2,-2],[-1,-3],[0,-4],[1,-3],[0,-8]],[[12,2031],[-5,4],[-1,2],[-6,10]],[[357,2082],[-34,11],[-21,9],[-10,2],[-17,9],[-11,2],[-2,2],[-1,3],[1,7],[0,6],[2,5],[2,4],[1,3],[1,3],[-1,4],[-3,1]],[[264,2153],[-3,-1],[-5,-3],[-2,-1],[-4,-1]],[[250,2147],[-15,2]],[[235,2149],[-4,-1],[-2,-2],[-7,-9],[-3,-2],[-2,-2],[-4,-1],[-15,-3],[-3,-1],[-3,-2],[-1,-2],[-1,-3],[-1,-4],[0,-11],[-2,-4],[-3,-3],[-8,-2],[-4,-3],[-3,-3],[-1,-3],[-4,-5],[-7,-5]],[[91,2073],[-5,1],[-6,2],[-15,12],[-7,3],[-4,0]],[[54,2091],[-3,-1],[-10,-5],[-3,-2],[-1,-3],[-1,-3],[0,-3],[-2,-2],[-2,-2],[-4,-4],[-2,-2],[0,-2],[1,-3],[6,-6],[2,-2],[2,-3],[-1,-4],[-4,-5],[-10,-6],[-6,-2],[-4,0]],[[157,2078],[-17,10],[-11,1]],[[129,2089],[-5,-2],[-11,-7],[-8,-4],[-9,-2],[-5,-1]],[[1184,2323],[34,-2],[10,-4],[23,-11]],[[1157,2312],[10,3],[14,7],[3,1]],[[1136,2316],[21,-4]],[[1066,2239],[3,0],[9,4],[19,2],[2,0],[6,2],[5,4],[5,3],[8,9],[0,3],[0,4],[-3,5],[-3,1],[-4,1],[-17,0],[-3,1],[-2,1],[-2,1],[-1,3],[1,3],[2,4],[15,8],[20,5],[1,5],[0,3],[1,3],[3,2],[5,0]],[[1048,2274],[5,-1],[3,-3],[1,-2],[1,-3],[1,-3],[3,-20],[1,-2],[3,-1]],[[986,2186],[4,1],[4,3],[14,16],[2,4],[1,2],[1,3],[1,4],[0,4],[-1,3],[0,3],[-2,6],[-1,3],[0,4],[2,4],[4,4],[7,6],[7,8],[3,5],[3,2],[5,2],[8,1]],[[702,2220],[5,-1],[8,-4],[4,-3],[3,-3],[6,-12],[3,-4],[2,-2],[2,-1],[9,-5],[4,-4],[3,-1]],[[667,2207],[31,13],[4,0]],[[937,2207],[9,0],[14,-3],[13,-6],[5,-3],[6,-7],[2,-2]],[[804,2178],[83,2],[20,9],[14,15],[16,3]],[[784,2202],[3,-3],[2,-2],[2,-7],[1,-2],[2,-3],[2,-2],[2,-2],[2,-2],[4,-1]],[[751,2180],[3,0],[4,3],[6,8],[11,6],[4,3],[3,1],[2,1]],[[1251,2306],[-5,-6],[-6,-13],[-2,-5],[-1,-8],[-1,-2],[-3,-4],[-8,-8],[-2,-6],[-3,-15],[2,-3],[1,-1],[4,0]],[[1270,2249],[13,-2],[9,-6],[17,-16],[8,-3]],[[1227,2235],[4,1],[35,13],[4,0]],[[1340,2226],[4,-2],[3,-3],[4,-13],[7,-29],[1,-3],[2,-3],[3,-1],[26,-2],[5,-5],[5,-11],[7,-26],[10,-43]],[[1317,2222],[23,4]],[[1540,2143],[21,-9],[20,-15],[2,-2],[2,-3],[1,-6],[-1,-4],[-1,-4],[-9,-13],[-1,-2],[-1,-3],[-1,-3],[0,-4],[1,-3],[2,-2],[4,0]],[[1514,2129],[5,3],[3,2],[4,4],[3,3],[2,2],[9,0]],[[1488,2134],[26,-5]],[[1471,2129],[12,4],[5,1]],[[1451,2132],[20,-3]],[[1417,2085],[11,10],[3,7],[-1,3],[0,4],[1,8],[1,3],[1,3],[5,4],[2,1],[2,2],[4,1],[5,1]],[[1603,2082],[4,-1],[3,-2],[4,-6],[2,-4],[1,-4],[0,-4],[1,-3],[0,-3],[6,-7],[1,-2],[1,-3],[2,-3],[2,-3],[5,-2],[3,0]],[[1579,2070],[4,0],[3,1],[2,2],[7,6],[2,1],[3,2],[3,0]],[[1664,2079],[5,-2],[6,-6],[10,-13],[3,-8],[1,-5],[-1,-3],[-5,-4],[-1,-2],[0,-3],[3,-5],[6,-10],[2,-5],[1,-4],[-2,-7],[1,-3],[2,-3],[5,-1]],[[1638,2035],[3,1],[2,1],[2,2],[1,4],[1,3],[1,4],[0,3],[-1,4],[-2,9],[-1,3],[1,3],[1,3],[2,1],[3,2],[13,1]],[[1713,2013],[10,-9],[29,-49],[60,-6]],[[1700,1995],[3,1],[3,2],[5,12],[2,3]],[[1820,1961],[3,-1],[4,-2],[7,-7],[3,-4],[1,-4],[1,-3],[2,-3],[4,-3],[26,-5],[30,-12],[0,-5],[-1,-6],[-1,-3],[-1,-2],[-3,-1],[-9,-2],[-2,-2],[-1,-3],[0,-3],[0,-15],[-1,-3],[0,-4],[-3,-10],[1,-3],[1,-2],[5,0]],[[1812,1949],[3,1],[1,2],[1,2],[0,3],[1,2],[2,2]],[[1938,1874],[3,0],[3,-2],[2,-4],[0,-4],[1,-7],[1,-5],[2,-4],[2,-3],[3,-3],[7,-3],[5,-2],[42,-3],[3,-2],[4,-3],[3,-6],[2,-4],[3,-2],[18,0],[15,-3],[4,-2],[5,-4],[6,-7],[4,-2],[4,-2],[3,-1],[3,-3],[1,-5],[0,-10],[-1,-7],[0,-5],[-4,-14],[-1,-8],[0,-4],[0,-7],[1,-4],[1,-4],[2,-5],[1,-4],[5,-6],[9,-15]],[[1926,1852],[3,1],[0,2],[1,10],[1,4],[2,2],[2,2],[3,1]],[[1902,1861],[4,-1],[15,-7],[5,-1]],[[1886,1853],[3,1],[3,1],[5,4],[2,1],[3,1]],[[0,1320],[2,0],[13,-3],[3,-2],[2,-3],[1,-2],[0,-12],[5,-6],[3,-2],[7,-2],[4,-1],[12,-4],[17,-11],[4,-7],[2,-4],[0,-8],[1,-3],[2,-8],[0,-1],[1,-1],[-1,-7],[0,-3],[-2,-7],[0,-4],[0,-4],[0,-3],[1,-3],[1,-2],[3,-3],[22,-17],[6,-10],[1,-3],[2,-6],[1,-7],[1,-11],[0,-7],[-1,-8],[-2,-8],[-4,-16],[-3,-6],[-5,-12],[-4,-5],[-2,-2],[-4,-4],[-5,-2],[-3,-1],[-14,-1],[-2,-2],[-2,-2],[-1,-3],[0,-3],[1,-3],[3,-2],[4,-2],[17,-5],[2,-2],[2,-2],[2,-3],[0,-3],[0,-3],[-1,-3],[-7,-10],[-2,-6],[-3,-6],[-2,-7],[0,-4],[0,-4],[1,-3],[1,-2],[3,-2],[5,-2]],[[0,1320]],[[295,1106],[14,-1],[15,-8],[34,-37],[2,-1],[3,-1],[12,-4],[3,-2],[3,-3],[1,-3],[2,-2],[4,-4],[1,-3],[0,-3],[-1,-65],[0,-4],[1,-2],[2,-3],[3,-1],[4,-1]],[[189,976],[3,1],[4,2],[7,10],[3,3],[6,2],[31,5],[2,1],[2,3],[2,6],[0,4],[-1,2],[-1,6],[-1,6],[-3,34],[0,5],[1,5],[1,4],[2,5],[3,4],[3,5],[4,4],[11,6],[15,5],[12,2]],[[577,1063],[9,-5],[11,-5],[7,-1]],[[563,1020],[3,0],[2,2],[2,6],[1,27],[1,4],[2,2],[3,2]],[[622,1057],[3,-1],[4,-3],[4,-7],[9,-10],[6,-3],[6,-2],[8,-1],[3,-2],[2,-2],[-1,-4],[-1,-3],[-4,-5],[-3,-6],[-1,-3],[-1,-3],[0,-4],[1,-4],[2,-3],[7,-5],[5,-2],[7,-1],[2,-2],[1,-4],[0,-4],[0,-8],[3,-8],[14,-11],[4,-8],[4,-2],[5,-2],[20,-3]],[[604,1052],[18,5]],[[556,1021],[4,0],[3,-1]],[[532,971],[3,1],[3,1],[1,4],[0,4],[-1,3],[-2,6],[-1,3],[-1,3],[0,7],[2,5],[4,4],[10,7],[6,2]],[[164,1012],[16,-2],[2,-1],[2,-1],[2,-1],[1,-3],[1,-3],[0,-4],[0,-15],[0,-3],[1,-3]],[[88,994],[42,2],[4,1],[3,2],[6,7],[4,3],[4,1],[13,2]],[[485,986],[3,-1],[2,-1],[2,-2],[0,-3],[2,-2],[2,-2],[3,-2],[3,-1],[30,-1]],[[398,958],[59,2],[3,1],[4,2],[3,5],[1,4],[1,5],[0,3],[2,3],[10,3],[4,0]],[[795,950],[4,-1],[3,-1],[2,-5],[0,-1],[0,-7],[0,-11],[0,-11],[0,-4],[2,-3],[2,-4],[5,-5],[2,-4],[0,-4],[0,-15],[0,-4],[14,-4]],[[731,931],[6,1],[3,1],[2,1],[2,3],[1,2],[1,4],[0,2],[1,2],[2,2],[2,1],[44,0]],[[829,866],[57,3]],[[3242,81],[-14,9],[-3,18],[-42,24],[-25,25]],[[3304,0],[-8,50],[-27,73]],[[3269,123],[-27,-42]],[[3342,412],[41,23],[1,25],[16,21],[22,22],[20,30],[5,33],[17,37],[4,24],[9,36],[-10,22],[-17,13],[-19,36],[4,63],[-16,61],[24,28],[6,30],[26,45]],[[3298,417],[44,-5]],[[3158,157],[-1,62],[17,67],[-2,37],[19,5],[15,34],[18,18],[45,14],[10,21],[19,2]],[[1254,3116],[-26,18],[-5,21],[4,25],[19,66],[0,8],[-8,19],[-2,10],[-1,12],[1,15],[6,39],[0,8],[-3,13],[3,12],[6,11],[5,7],[16,15],[17,9],[39,5],[60,-7],[5,1],[4,3],[1,7],[-1,7],[-2,8],[-2,5],[-8,13],[-2,8],[6,18],[2,12],[3,11],[10,7],[13,24],[3,9],[-2,5],[-5,4],[-3,6],[-1,6],[-5,18],[-1,11],[3,30],[2,7],[10,10],[128,70],[17,5],[4,7],[0,10],[-6,12],[-24,20],[-4,7],[-2,15],[-4,10],[-6,7],[-8,7],[-20,28],[-13,8],[-7,9],[-6,11],[-4,9],[3,4],[3,5],[2,8],[3,0],[2,-3],[2,-3],[3,-3],[6,1],[1,5],[-7,19],[7,-3],[9,-10],[8,-12],[3,-10],[3,-12],[7,-7],[9,-3],[9,0],[-5,-15],[-1,-8],[3,-5],[8,-9],[6,-10],[9,-23],[7,-8],[4,5],[0,6],[-2,5],[-4,4],[8,-1],[15,-9],[9,-1],[8,2],[5,5],[1,10],[1,13],[-5,7],[-21,8],[-8,5],[-2,10],[3,7],[8,4],[7,2],[-1,7],[-3,3],[-3,1],[-4,3],[-2,7],[0,4],[3,2],[1,1],[0,4],[1,4],[-1,4],[-4,1],[-3,2],[-2,4],[-1,5],[-1,5],[5,17],[10,14],[12,10],[11,4],[-18,-21],[-6,-14],[2,-18],[12,-18],[1,-7],[11,-24],[7,-9],[7,-1],[49,6],[2,-1],[3,-2],[2,-1],[7,4],[14,17],[8,4],[10,-2],[10,-3],[16,-12],[16,-16],[8,-6],[10,-3],[9,2],[21,9],[9,6],[4,7],[4,11],[3,12],[1,13],[5,-1],[32,15],[-7,-17],[36,0],[26,-11],[23,-1],[2,-2],[3,-12],[6,3],[8,10],[9,6],[9,3],[9,7],[7,11],[4,11],[2,0],[4,-9],[7,-5],[18,-2],[8,-2],[6,-7],[5,-9],[3,-11],[51,46],[9,5],[8,9],[4,2],[4,-1],[13,-7],[33,-9],[5,-6],[5,-4],[13,-1],[13,2],[25,13],[2,2],[6,11],[9,3],[12,3],[13,0],[8,-4],[8,-8],[30,-11],[-5,-1],[-22,1],[9,-5],[11,-3],[21,0],[6,4],[8,9],[7,10],[3,8],[0,11],[-1,4],[-3,5],[-2,5],[0,3],[2,4],[-1,7],[-4,9],[-14,23],[-9,23],[-2,13],[9,10],[-2,12],[-9,18],[0,2],[21,0],[-8,-4],[5,-11],[5,-3],[6,0],[7,-2],[-16,-24],[-3,-12],[4,-14],[6,-11],[7,-12],[9,-8],[10,-1],[6,1],[11,6],[11,2],[14,6],[4,3],[22,38],[9,9],[15,5],[11,-6],[11,-10],[12,-5],[11,5],[11,11],[12,8],[10,-3],[-17,-16],[-29,-20],[-6,-2],[-5,3],[-13,15],[-5,3],[-9,0],[-9,-7],[-7,-11],[-2,-15],[5,-6],[2,-6],[-1,-6],[-14,-22],[2,-3],[1,-2],[2,-8],[-10,0],[-8,6],[-7,6],[-7,4],[-21,1],[-11,-3],[-6,-6],[5,-6],[11,-18],[-7,-9],[-16,-11],[0,-9],[-18,-14],[-7,-3],[-8,1],[-41,13],[-27,18],[-14,-3],[0,-4],[5,0],[5,-2],[10,-6],[-34,1],[-8,-5],[11,-6],[12,-4],[12,-6],[7,-17],[-1,-16],[-7,-11],[-8,-9],[-4,-13],[-8,8],[-4,3],[-5,1],[6,7],[13,7],[5,7],[2,9],[-1,8],[-4,6],[-4,6],[-14,8],[-48,-1],[-50,19],[-18,2],[-6,-1],[-7,-4],[-6,-5],[-20,-24],[-3,-7],[8,2],[14,17],[8,1],[-6,-14],[-6,-11],[-9,-5],[-21,-3],[-13,-11],[-5,-3],[-6,-1],[-49,5],[-15,-1],[-11,-5],[-17,-11],[-17,-1],[-4,1],[-9,10],[-5,1],[-12,1],[-9,-3],[-6,-6],[-12,-16],[-9,-5],[-20,-7],[-44,-5],[-10,0],[-7,10],[-5,3],[-4,-11],[-7,-17],[-14,-17],[-31,-19],[-8,-7],[-3,-9],[-5,-8],[-11,2],[-19,8],[4,-8],[3,-8],[-5,-1],[-6,-2],[-4,-4],[-5,-5],[8,-21],[-17,6],[-5,7],[2,12],[-9,0],[-10,-3],[-10,-4],[-6,-6],[-2,-4],[-3,-14],[-3,-6],[-3,-4],[-3,-2],[-2,-3],[-2,-7],[9,4],[11,9],[6,3],[-3,-13],[-6,-10],[-18,-29],[-5,-4],[-4,3],[-3,7],[-4,5],[-50,4],[-10,4],[-4,-1],[-3,-7],[5,-3],[5,-1],[4,-2],[3,-7],[-20,-4],[-63,4],[-8,-1],[-7,-6],[-5,-9],[-2,-14],[0,-17],[3,-29],[4,-10],[1,-6],[0,-22],[4,-9],[3,3],[5,6],[6,4],[3,-1],[3,-3],[2,-1],[1,3],[1,4],[2,1],[2,1],[3,0],[19,-4],[7,-4],[6,-7],[10,-14],[0,-4],[-25,10],[-5,1],[-2,3],[-4,2],[-8,0],[-1,-2],[0,-5],[0,-11],[-6,-12],[-41,-31],[5,-2],[12,5],[8,1],[-1,-3],[0,-1],[-2,-4],[-3,-9],[6,-8],[12,-5],[9,-2],[35,3],[9,-3],[-12,-13],[-12,-5],[-33,2],[-15,6],[-5,3],[-7,13],[-4,2],[-5,-4],[3,-12],[-2,-9],[-4,-8],[-4,-22],[0,-5],[5,-2],[4,2],[4,2],[1,-1],[1,-7],[-3,-10],[-6,-6],[-8,-3],[-7,-1],[-9,-3],[3,-7],[12,-15],[-2,-4],[1,-6],[2,-6],[2,-5],[0,-3],[2,-4],[0,-3],[-1,-4],[-2,-1],[-3,1],[-3,2],[-1,2],[-4,16],[-18,3],[-3,12],[-34,-6],[-11,-7],[-18,1],[-5,-2],[-3,-3],[-6,-8],[-11,-8],[-4,-4],[-2,-5],[0,-5],[-2,-5],[-18,-2],[-5,-6],[1,-10],[29,-79],[10,-19],[6,-8],[9,-6],[10,-5],[10,-1],[10,-5],[6,-1],[9,6],[6,1],[18,-1],[-2,-3],[-7,-4],[-3,-1],[4,-9],[23,-20],[-4,-8],[-5,0],[-5,3],[-6,1],[-6,-4],[0,-3],[11,-11],[10,-4],[4,-5],[3,-6],[11,-13],[6,-12],[4,-4],[12,-6],[12,-14],[8,-2],[9,3],[57,55],[17,5],[28,27],[4,2],[6,1],[10,-1],[7,1],[2,3],[2,5],[3,7],[8,9],[7,0],[7,-2],[10,2],[8,6],[22,26],[7,6],[4,2],[4,1],[15,-6],[5,1],[7,8],[7,11],[7,7],[9,-5],[-5,-6],[-4,-6],[-6,-17],[10,-5],[23,-7],[10,-8],[-7,0],[-12,-4],[-6,-1],[-6,2],[-11,8],[-18,8],[-12,2],[-11,-4],[-10,-11],[-1,-4],[-2,-10],[-2,-3],[-2,-1],[-21,-7],[-5,-3],[-4,-5],[-4,-8],[0,-3],[30,7],[6,0],[-2,-6],[-4,-3],[-4,-3],[-5,0],[-4,-2],[-13,-14],[-27,-12],[-8,-5],[5,-7],[12,-4],[5,-5],[-10,-5],[-22,9],[-9,-6],[-7,-20],[-3,-3],[-3,2],[-2,10],[-4,4],[-7,-3],[-8,-10],[-7,-12],[-2,-9],[2,-12],[15,-36],[5,-20],[5,-11],[6,-5],[3,3],[6,14],[4,3],[4,-3],[1,-7],[0,-8],[1,-6],[6,-10],[7,-4],[5,-6],[2,-15],[-1,-4],[-6,-10],[-1,-3],[-1,-2],[-2,0],[-5,0],[-1,2],[0,3],[0,4],[0,3],[-1,6],[0,5],[-1,4],[-3,6],[-3,3],[-4,4],[-4,1],[-2,-6],[-1,-6],[-1,-6],[-3,-4],[-4,-2],[-3,2],[1,5],[1,7],[0,6],[-7,9],[-9,8],[-8,9],[-3,13],[-5,13],[-10,3],[-12,-1],[-9,-5],[-7,-10],[-1,-9],[2,-10],[2,-14],[-1,-13],[-2,-12],[-7,-22],[-6,-27],[-1,-24],[5,-22],[12,-17],[17,-11],[132,-9],[133,-9],[7,-3],[14,-12],[8,-5],[-177,4],[-27,-14],[-28,-6],[-8,-5],[-7,-8],[-3,-10],[-4,-15],[1,-14],[5,-6],[2,-2],[-2,-6],[-4,-6],[-3,-2],[-5,-2],[-11,-7],[-14,0],[-25,6],[-71,-10],[-32,4],[-16,21],[-39,33],[0,4],[17,-3],[17,-12],[30,-30],[9,-6],[11,-5],[12,-1],[13,8],[5,2],[20,2],[10,4],[37,-3],[9,5],[2,1],[2,1],[4,0],[2,1],[1,3],[1,3],[1,3],[1,5],[-3,4],[-4,3],[-3,3],[-1,9],[2,1],[4,-1],[5,3],[2,4],[3,7],[0,7],[-4,3],[-10,3],[-5,1],[-5,-3],[-2,0],[-9,2],[-3,-1],[-2,-2],[-2,-3],[-3,-2],[-9,0],[-5,6],[-4,7],[-7,4],[-11,1],[-10,3],[-10,4],[-9,8],[26,-4],[12,4],[5,14],[-5,13],[-9,12],[-33,29],[-10,5],[-3,7],[-2,9],[-6,19],[-4,17],[0,17],[4,10],[-1,23],[2,8],[7,10],[6,6],[3,4],[1,6],[-7,10],[-1,7],[5,3],[8,-4],[3,0],[2,7],[-1,7],[-1,6],[-19,48],[-4,6],[-8,2],[-9,6],[-8,7],[-13,15],[-31,27],[-4,4],[-10,18],[-3,3],[-4,1],[-9,6],[-5,1],[-5,-2],[-9,-7],[-4,-3],[-3,15],[-10,2],[-10,-1],[-5,6],[-4,9]],[[489,753],[-2,-2],[-7,0],[-2,6],[-1,9],[-2,9],[-3,3],[-14,13],[-2,3],[-1,-1],[-3,-5],[-1,-6],[0,-11],[-1,-4],[-3,-1],[-12,1],[1,4],[0,2],[1,2],[-2,8],[2,5],[3,5],[2,7],[-10,-7],[-5,-1],[-2,6],[2,11],[-1,5],[-8,2],[-4,-4],[-4,-6],[-5,-6],[-10,5],[-13,-7],[-16,11],[-13,0],[-23,-9],[-22,-14],[-8,-10],[5,-9],[-10,-8],[-10,-4],[-9,-1],[-8,5],[-12,9],[-5,2],[-4,-1],[-8,14],[3,7],[11,39],[5,9],[7,10],[8,6],[12,4],[10,11],[12,6],[3,3],[2,18],[-10,24],[-27,39],[-9,17],[-1,1],[-11,9],[-10,12],[-4,6],[-5,16],[-3,5],[4,17],[-2,36],[6,17],[4,5],[16,11],[17,6],[10,8],[7,2],[18,0],[7,3],[17,10],[9,8],[6,3],[8,1],[4,2],[7,5],[6,6],[4,7],[-10,25],[-5,8],[-9,12],[-1,6],[2,11],[3,4],[2,3],[2,4],[1,7],[-1,7],[-2,5],[-4,3],[-9,8],[-37,22],[-13,11],[-10,18],[-4,27],[-2,54],[3,23],[9,21],[42,34],[8,15],[3,27],[4,10],[17,6],[44,36],[8,3],[5,5],[2,13],[0,15],[2,12],[3,7],[1,0],[3,-2],[5,-1],[3,3],[8,12],[2,3],[-3,28],[0,15],[3,9],[3,0],[7,-7],[3,-2],[2,3],[11,16],[9,6],[10,0],[20,-4],[17,5],[14,15],[11,23],[5,27],[6,-8],[-1,-12],[-7,-25],[14,-9],[0,-3],[-16,0],[-10,-2],[-4,-5],[4,-9],[8,-2],[10,0],[38,-4],[7,-5],[5,-8],[5,-3],[14,0],[7,-4],[-9,-7],[-8,-5],[-8,-3],[-22,-1],[-21,3],[-19,10],[-5,3],[-4,6],[-6,10],[-4,3],[-3,0],[-6,-8],[-8,-8],[-17,-11],[-19,-3],[-9,-3],[-4,-8],[-3,-14],[-5,-9],[-6,-7],[-4,-10],[8,1],[14,13],[7,3],[4,-4],[-4,-8],[-7,-8],[-22,-19],[-12,-5],[-5,-7],[-8,-18],[-10,-12],[-58,-29],[-5,-6],[-5,-10],[3,-5],[6,0],[7,4],[2,-4],[3,-4],[-8,-10],[-3,-6],[-1,-6],[0,-19],[-1,-9],[-2,-7],[-17,-14],[-2,-2],[-3,-3],[-13,-18],[-7,-14],[-4,-15],[-2,-17],[0,-20],[3,-18],[6,-12],[8,-7],[36,-24],[6,-6],[5,-9],[3,-7],[0,-7],[-5,-28],[1,-8],[11,-15],[3,-11],[1,-14],[0,-14],[-3,-12],[-9,-19],[-6,-20],[-5,-6],[-10,0],[-19,4],[-5,-3],[-9,-8],[-4,-1],[-17,0],[-11,-8],[-19,-5],[-5,-8],[7,-1],[-1,-8],[-9,-20],[-3,-9],[-2,-9],[2,-10],[4,-10],[40,-54],[17,-34],[13,-40],[-1,-36],[-23,-27],[60,9],[8,7],[-3,13],[6,-1],[4,-5],[2,-6],[3,-5],[6,-1],[5,1],[5,3],[5,1],[34,-7],[10,3],[0,-13],[2,-5],[4,-2],[5,-6],[4,1],[10,17],[4,5],[8,1],[3,4],[0,7],[0,10],[1,5],[3,0],[4,-2],[2,-1],[2,3],[2,4],[2,4],[3,1],[6,3],[4,-1],[1,-4],[0,-3],[0,-2],[-1,-1],[-3,-10],[-2,-4],[-1,-3],[0,-6],[1,-3],[2,-2],[1,-3],[-2,-6],[-5,-4],[-14,-4],[-6,-4],[0,-2],[-4,-11],[-1,-2],[-1,0],[-6,-10],[20,-8],[7,0],[-4,-3],[-9,-2],[-4,-3],[-3,-5],[-3,-9]],[[1791,0],[-13,0],[-3,5],[9,-1],[7,-4]],[[652,147],[4,-9],[1,-10],[-3,-3],[-16,-22],[-29,-4],[-27,12],[-10,11],[0,18],[3,7],[6,10],[7,9],[5,3],[13,-4],[3,0],[4,1],[4,6],[4,2],[2,2],[1,1],[3,0],[2,-1],[2,-6],[2,-1],[2,-2],[4,-8],[2,-2],[5,-3],[6,-7]],[[2729,321],[5,-9],[1,-10],[-1,-6],[-3,1],[-4,3],[-2,0],[-1,-6],[3,-7],[-2,-4],[-7,-3],[-6,3],[-6,7],[-5,8],[-5,5],[-21,9],[-1,3],[0,2],[0,1],[-4,-2],[-1,-3],[1,-4],[-1,-4],[-4,-1],[-11,18],[-3,9],[7,6],[-3,7],[0,8],[4,7],[5,2],[3,-1],[3,-7],[3,-4],[4,-2],[13,-2],[19,-14],[8,-2],[6,-2],[6,-6]],[[1271,54],[-3,-4],[-5,-4],[3,-2],[2,-3],[3,-7],[-21,-1],[-3,-1],[-5,-7],[-5,-2],[-5,1],[-6,6],[-6,-3],[-11,-2],[-31,1],[-5,3],[-2,7],[-1,10],[-4,3],[-5,2],[-5,4],[-4,6],[-2,14],[-3,6],[-8,8],[-4,6],[-2,6],[2,10],[4,4],[12,0],[3,0],[3,-2],[3,-1],[12,8],[6,-1],[4,-1],[27,-17],[4,-6],[-3,-4],[6,-11],[7,-9],[-5,-4],[-9,9],[-9,8],[-8,1],[-6,-10],[-1,-17],[6,-11],[10,-6],[12,1],[4,3],[4,4],[4,2],[4,-3],[6,-5],[3,1],[8,11],[4,3],[4,1],[10,0],[6,-2],[1,-3]],[[2460,1009],[8,-21],[3,-8],[-1,-11],[-2,-10],[-7,-16],[-2,-5],[0,-4],[-1,-4],[-3,-3],[-3,-1],[-27,1],[-9,2],[-5,6],[-8,14],[-6,15],[-1,15],[8,19],[23,19],[3,1],[4,2],[4,2],[6,-5],[13,-4],[3,-4]],[[1252,2502],[7,8],[4,8],[3,7],[5,8],[8,9],[23,-3],[31,-20],[-17,-7],[-4,-4],[-4,-5],[-10,-7],[-8,-11],[1,-15],[-2,-20],[10,-16],[-1,-6],[-3,-7],[5,-9],[11,-15],[8,-18],[-3,-13],[-8,-13],[-10,-17],[-10,-15],[-19,-14],[-13,-9],[-4,-5],[-5,-13],[-5,-14],[-1,-12],[-5,-21],[8,-9],[10,9],[6,10],[14,8],[10,-5],[-4,-5],[-9,1],[-4,-8],[-5,-8],[-8,-11],[-10,-11],[-7,0],[-7,-2],[-12,-3],[-10,-2],[-15,-5],[-4,-13],[-1,-18],[-5,-10],[-8,-10],[-3,-13],[-2,-9],[-1,-9],[1,-20],[-10,-23],[-1,-10],[-4,-20],[-11,-23],[-7,-12],[3,-6],[4,-9],[5,-4],[9,2],[3,-6],[3,-8],[12,-2],[8,4],[6,0],[15,-3],[14,-2],[13,-1],[17,1],[8,1],[5,-1],[-2,-7],[-9,-1],[-10,-4],[-8,-2],[-13,1],[-14,0],[-7,-1],[-7,-4],[-9,4],[-15,4],[-14,1],[-4,9],[-6,8],[-14,-1],[-15,2],[-9,-6],[-4,-15],[-14,-14],[-5,-16],[-3,-17],[-4,-6],[-6,-7],[-7,-11],[-15,-3],[-13,-4],[-3,-6],[-6,0],[-10,1],[-8,10],[-4,9],[9,19],[16,26],[18,26],[17,11],[13,14],[16,25],[11,16],[4,10],[9,13],[6,18],[9,19],[4,22],[-3,22],[-2,14],[0,17],[5,14],[17,19],[16,23],[8,21],[10,15],[15,8],[13,5],[0,15],[0,21],[6,21],[6,16],[10,17],[12,20],[13,17],[12,13],[-2,14],[-11,27],[-10,24],[-3,13],[4,15]],[[3021,4096],[3,-2],[6,-6],[6,-5],[5,-9],[7,-10],[7,-5],[4,-2],[7,2],[2,-6],[-2,-6],[-4,-4],[2,-5],[-6,-3],[-9,10],[-8,1],[-12,9],[-11,5],[-6,14],[-9,7],[-14,3],[-9,-2],[-10,-14],[-15,-10],[-7,2],[3,3],[11,7],[3,18],[-12,6],[-9,-2],[-16,-5],[-22,0],[-9,9],[124,0]],[[2676,4096],[1,-3],[7,-12],[8,-2],[-3,-4],[-7,-12],[-6,-12],[-14,-10],[-7,-6],[-6,6],[0,7],[11,11],[6,21],[-5,16],[15,0]],[[652,147],[4,-9],[1,-10],[-3,-3],[-16,-22],[-29,-4],[-27,12],[-10,11],[0,18],[3,7],[6,10],[7,9],[5,3],[13,-4],[3,0],[4,1],[4,6],[4,2],[2,2],[1,1],[3,0],[2,-1],[2,-6],[2,-1],[2,-2],[4,-8],[2,-2],[5,-3],[6,-7]],[[1271,54],[-3,-4],[-5,-4],[3,-2],[2,-3],[3,-7],[-21,-1],[-3,-1],[-5,-7],[-5,-2],[-5,1],[-6,6],[-6,-3],[-11,-2],[-31,1],[-5,3],[-2,7],[-1,10],[-4,3],[-5,2],[-5,4],[-4,6],[-2,14],[-3,6],[-8,8],[-4,6],[-2,6],[2,10],[4,4],[12,0],[3,0],[3,-2],[3,-1],[12,8],[6,-1],[4,-1],[27,-17],[4,-6],[-3,-4],[6,-11],[7,-9],[-5,-4],[-9,9],[-9,8],[-8,1],[-6,-10],[-1,-17],[6,-11],[10,-6],[12,1],[4,3],[4,4],[4,2],[4,-3],[6,-5],[3,1],[8,11],[4,3],[4,1],[10,0],[6,-2],[1,-3]],[[1778,0],[-3,5],[9,-1],[7,-4]],[[2460,1009],[8,-21],[3,-8],[-1,-11],[-2,-10],[-7,-16],[-2,-5],[0,-4],[-1,-4],[-3,-3],[-3,-1],[-27,1],[-9,2],[-5,6],[-8,14],[-6,15],[-1,15],[8,19],[23,19],[3,1],[4,2],[4,2],[6,-5],[13,-4],[3,-4]],[[2729,321],[5,-9],[1,-10],[-1,-6],[-3,1],[-4,3],[-2,0],[-1,-6],[3,-7],[-2,-4],[-7,-3],[-6,3],[-6,7],[-5,8],[-5,5],[-21,9],[-1,3],[0,2],[0,1],[-4,-2],[-1,-3],[1,-4],[-1,-4],[-4,-1],[-11,18],[-3,9],[7,6],[-3,7],[0,8],[4,7],[5,2],[3,-1],[3,-7],[3,-4],[4,-2],[13,-2],[19,-14],[8,-2],[6,-2],[6,-6]],[[1252,2502],[7,8],[4,8],[3,7],[5,8],[8,9],[23,-3],[31,-20],[-17,-7],[-4,-4],[-4,-5],[-10,-7],[-8,-11],[1,-15],[-2,-20],[10,-16],[-1,-6],[-3,-7],[5,-9],[11,-15],[8,-18],[-3,-13],[-8,-13],[-10,-17],[-10,-15],[-19,-14],[-13,-9],[-4,-5],[-5,-13],[-5,-14],[-1,-12],[-5,-21],[8,-9],[10,9],[6,10],[14,8],[10,-5],[-4,-5],[-9,1],[-4,-8],[-5,-8],[-8,-11],[-10,-11],[-7,0],[-7,-2],[-12,-3],[-10,-2],[-15,-5],[-4,-13],[-1,-18],[-5,-10],[-8,-10],[-3,-13],[-2,-9],[-1,-9],[1,-20],[-10,-23],[-1,-10],[-4,-20],[-11,-23],[-7,-12],[3,-6],[4,-9],[5,-4],[9,2],[3,-6],[3,-8],[12,-2],[8,4],[6,0],[15,-3],[14,-2],[13,-1],[17,1],[8,1],[5,-1],[-2,-7],[-9,-1],[-10,-4],[-8,-2],[-13,1],[-14,0],[-7,-1],[-7,-4],[-9,4],[-15,4],[-14,1],[-4,9],[-6,8],[-14,-1],[-15,2],[-9,-6],[-4,-15],[-14,-14],[-5,-16],[-3,-17],[-4,-6],[-6,-7],[-7,-11],[-15,-3],[-13,-4],[-3,-6],[-6,0],[-10,1],[-8,10],[-4,9],[9,19],[16,26],[18,26],[17,11],[13,14],[16,25],[11,16],[4,10],[9,13],[6,18],[9,19],[4,22],[-3,22],[-2,14],[0,17],[5,14],[17,19],[16,23],[8,21],[10,15],[15,8],[13,5],[0,15],[0,21],[6,21],[6,16],[10,17],[12,20],[13,17],[12,13],[-2,14],[-11,27],[-10,24],[-3,13],[4,15]],[[3021,4096],[3,-2],[6,-6],[6,-5],[5,-9],[7,-10],[7,-5],[4,-2],[7,2],[2,-6],[-2,-6],[-4,-4],[2,-5],[-6,-3],[-9,10],[-8,1],[-12,9],[-11,5],[-6,14],[-9,7],[-14,3],[-9,-2],[-10,-14],[-15,-10],[-7,2],[3,3],[11,7],[3,18],[-12,6],[-9,-2],[-16,-5],[-22,0],[-9,9]],[[2676,4096],[1,-3],[7,-12],[8,-2],[-3,-4],[-7,-12],[-6,-12],[-14,-10],[-7,-6],[-6,6],[0,7],[11,11],[6,21],[-5,16]],[[1254,3116],[-26,18],[-5,21],[4,25],[19,66],[0,8],[-8,19],[-2,10],[-1,12],[1,15],[6,39],[0,8],[-3,13],[3,12],[6,11],[5,7],[16,15],[17,9],[39,5],[60,-7],[5,1],[4,3],[1,7],[-1,7],[-2,8],[-2,5],[-8,13],[-2,8],[6,18],[2,12],[3,11],[10,7],[13,24],[3,9],[-2,5],[-5,4],[-3,6],[-1,6],[-5,18],[-1,11],[3,30],[2,7],[10,10],[128,70],[17,5],[4,7],[0,10],[-6,12],[-24,20],[-4,7],[-2,15],[-4,10],[-6,7],[-8,7],[-20,28],[-13,8],[-7,9],[-6,11],[-4,9],[3,4],[3,5],[2,8],[3,0],[2,-3],[2,-3],[3,-3],[6,1],[1,5],[-7,19],[7,-3],[9,-10],[8,-12],[3,-10],[3,-12],[7,-7],[9,-3],[9,0],[-5,-15],[-1,-8],[3,-5],[8,-9],[6,-10],[9,-23],[7,-8],[4,5],[0,6],[-2,5],[-4,4],[8,-1],[15,-9],[9,-1],[8,2],[5,5],[1,10],[1,13],[-5,7],[-21,8],[-8,5],[-2,10],[3,7],[8,4],[7,2],[-1,7],[-3,3],[-3,1],[-4,3],[-2,7],[0,4],[3,2],[1,1],[0,4],[1,4],[-1,4],[-4,1],[-3,2],[-2,4],[-1,5],[-1,5],[5,17],[10,14],[12,10],[11,4],[-18,-21],[-6,-14],[2,-18],[12,-18],[1,-7],[11,-24],[7,-9],[7,-1],[49,6],[2,-1],[3,-2],[2,-1],[7,4],[14,17],[8,4],[10,-2],[10,-3],[16,-12],[16,-16],[8,-6],[10,-3],[9,2],[21,9],[9,6],[4,7],[4,11],[3,12],[1,13],[5,-1],[32,15],[-7,-17],[36,0],[26,-11],[23,-1],[2,-2],[3,-12],[6,3],[8,10],[9,6],[9,3],[9,7],[7,11],[4,11],[2,0],[4,-9],[7,-5],[18,-2],[8,-2],[6,-7],[5,-9],[3,-11],[51,46],[9,5],[8,9],[4,2],[4,-1],[13,-7],[33,-9],[5,-6],[5,-4],[13,-1],[13,2],[25,13],[2,2],[6,11],[9,3],[12,3],[13,0],[8,-4],[8,-8],[30,-11],[-5,-1],[-22,1],[9,-5],[11,-3],[21,0],[6,4],[8,9],[7,10],[3,8],[0,11],[-1,4],[-3,5],[-2,5],[0,3],[2,4],[-1,7],[-4,9],[-14,23],[-9,23],[-2,13],[9,10],[-2,12],[-9,18],[0,2]],[[2346,4096],[-8,-4],[5,-11],[5,-3],[6,0],[7,-2],[-16,-24],[-3,-12],[4,-14],[6,-11],[7,-12],[9,-8],[10,-1],[6,1],[11,6],[11,2],[14,6],[4,3],[22,38],[9,9],[15,5],[11,-6],[11,-10],[12,-5],[11,5],[11,11],[12,8],[10,-3],[-17,-16],[-29,-20],[-6,-2],[-5,3],[-13,15],[-5,3],[-9,0],[-9,-7],[-7,-11],[-2,-15],[5,-6],[2,-6],[-1,-6],[-14,-22],[2,-3],[1,-2],[2,-8],[-10,0],[-8,6],[-7,6],[-7,4],[-21,1],[-11,-3],[-6,-6],[5,-6],[11,-18],[-7,-9],[-16,-11],[0,-9],[-18,-14],[-7,-3],[-8,1],[-41,13],[-27,18],[-14,-3],[0,-4],[5,0],[5,-2],[10,-6],[-34,1],[-8,-5],[11,-6],[12,-4],[12,-6],[7,-17],[-1,-16],[-7,-11],[-8,-9],[-4,-13],[-8,8],[-4,3],[-5,1],[6,7],[13,7],[5,7],[2,9],[-1,8],[-4,6],[-4,6],[-14,8],[-48,-1],[-50,19],[-18,2],[-6,-1],[-7,-4],[-6,-5],[-20,-24],[-3,-7],[8,2],[14,17],[8,1],[-6,-14],[-6,-11],[-9,-5],[-21,-3],[-13,-11],[-5,-3],[-6,-1],[-49,5],[-15,-1],[-11,-5],[-17,-11],[-17,-1],[-4,1],[-9,10],[-5,1],[-12,1],[-9,-3],[-6,-6],[-12,-16],[-9,-5],[-20,-7],[-44,-5],[-10,0],[-7,10],[-5,3],[-4,-11],[-7,-17],[-14,-17],[-31,-19],[-8,-7],[-3,-9],[-5,-8],[-11,2],[-19,8],[4,-8],[3,-8],[-5,-1],[-6,-2],[-4,-4],[-5,-5],[8,-21],[-17,6],[-5,7],[2,12],[-9,0],[-10,-3],[-10,-4],[-6,-6],[-2,-4],[-3,-14],[-3,-6],[-3,-4],[-3,-2],[-2,-3],[-2,-7],[9,4],[11,9],[6,3],[-3,-13],[-6,-10],[-18,-29],[-5,-4],[-4,3],[-3,7],[-4,5],[-50,4],[-10,4],[-4,-1],[-3,-7],[5,-3],[5,-1],[4,-2],[3,-7],[-20,-4],[-63,4],[-8,-1],[-7,-6],[-5,-9],[-2,-14],[0,-17],[3,-29],[4,-10],[1,-6],[0,-22],[4,-9],[3,3],[5,6],[6,4],[3,-1],[3,-3],[2,-1],[1,3],[1,4],[2,1],[2,1],[3,0],[19,-4],[7,-4],[6,-7],[10,-14],[0,-4],[-25,10],[-5,1],[-2,3],[-4,2],[-8,0],[-1,-2],[0,-5],[0,-11],[-6,-12],[-41,-31],[5,-2],[12,5],[8,1],[-1,-3],[0,-1],[-2,-4],[-3,-9],[6,-8],[12,-5],[9,-2],[35,3],[9,-3],[-12,-13],[-12,-5],[-33,2],[-15,6],[-5,3],[-7,13],[-4,2],[-5,-4],[3,-12],[-2,-9],[-4,-8],[-4,-22],[0,-5],[5,-2],[4,2],[4,2],[1,-1],[1,-7],[-3,-10],[-6,-6],[-8,-3],[-7,-1],[-9,-3],[3,-7],[12,-15],[-2,-4],[1,-6],[2,-6],[2,-5],[0,-3],[2,-4],[0,-3],[-1,-4],[-2,-1],[-3,1],[-3,2],[-1,2],[-4,16],[-18,3],[-3,12],[-34,-6],[-11,-7],[-18,1],[-5,-2],[-3,-3],[-6,-8],[-11,-8],[-4,-4],[-2,-5],[0,-5],[-2,-5],[-18,-2],[-5,-6],[1,-10],[29,-79],[10,-19],[6,-8],[9,-6],[10,-5],[10,-1],[10,-5],[6,-1],[9,6],[6,1],[18,-1],[-2,-3],[-7,-4],[-3,-1],[4,-9],[23,-20],[-4,-8],[-5,0],[-5,3],[-6,1],[-6,-4],[0,-3],[11,-11],[10,-4],[4,-5],[3,-6],[11,-13],[6,-12],[4,-4],[12,-6],[12,-14],[8,-2],[9,3],[57,55],[17,5],[28,27],[4,2],[6,1],[10,-1],[7,1],[2,3],[2,5],[3,7],[8,9],[7,0],[7,-2],[10,2],[8,6],[22,26],[7,6],[4,2],[4,1],[15,-6],[5,1],[7,8],[7,11],[7,7],[9,-5],[-5,-6],[-4,-6],[-6,-17],[10,-5],[23,-7],[10,-8],[-7,0],[-12,-4],[-6,-1],[-6,2],[-11,8],[-18,8],[-12,2],[-11,-4],[-10,-11],[-1,-4],[-2,-10],[-2,-3],[-2,-1],[-21,-7],[-5,-3],[-4,-5],[-4,-8],[0,-3],[30,7],[6,0],[-2,-6],[-4,-3],[-4,-3],[-5,0],[-4,-2],[-13,-14],[-27,-12],[-8,-5],[5,-7],[12,-4],[5,-5],[-10,-5],[-22,9],[-9,-6],[-7,-20],[-3,-3],[-3,2],[-2,10],[-4,4],[-7,-3],[-8,-10],[-7,-12],[-2,-9],[2,-12],[15,-36],[5,-20],[5,-11],[6,-5],[3,3],[6,14],[4,3],[4,-3],[1,-7],[0,-8],[1,-6],[6,-10],[7,-4],[5,-6],[2,-15],[-1,-4],[-6,-10],[-1,-3],[-1,-2],[-2,0],[-5,0],[-1,2],[0,3],[0,4],[0,3],[-1,6],[0,5],[-1,4],[-3,6],[-3,3],[-4,4],[-4,1],[-2,-6],[-1,-6],[-1,-6],[-3,-4],[-4,-2],[-3,2],[1,5],[1,7],[0,6],[-7,9],[-9,8],[-8,9],[-3,13],[-5,13],[-10,3],[-12,-1],[-9,-5],[-7,-10],[-1,-9],[2,-10],[2,-14],[-1,-13],[-2,-12],[-7,-22],[-6,-27],[-1,-24],[5,-22],[12,-17],[17,-11],[132,-9],[133,-9],[7,-3],[14,-12],[8,-5],[-177,4],[-27,-14],[-28,-6],[-8,-5],[-7,-8],[-3,-10],[-4,-15],[1,-14],[5,-6],[2,-2],[-2,-6],[-4,-6],[-3,-2],[-5,-2],[-11,-7],[-14,0],[-25,6],[-71,-10],[-32,4],[-16,21],[-39,33],[0,4],[17,-3],[17,-12],[30,-30],[9,-6],[11,-5],[12,-1],[13,8],[5,2],[20,2],[10,4],[37,-3],[9,5],[2,1],[2,1],[4,0],[2,1],[1,3],[1,3],[1,3],[1,5],[-3,4],[-4,3],[-3,3],[-1,9],[2,1],[4,-1],[5,3],[2,4],[3,7],[0,7],[-4,3],[-10,3],[-5,1],[-5,-3],[-2,0],[-9,2],[-3,-1],[-2,-2],[-2,-3],[-3,-2],[-9,0],[-5,6],[-4,7],[-7,4],[-11,1],[-10,3],[-10,4],[-9,8],[26,-4],[12,4],[5,14],[-5,13],[-9,12],[-33,29],[-10,5],[-3,7],[-2,9],[-6,19],[-4,17],[0,17],[4,10],[-1,23],[2,8],[7,10],[6,6],[3,4],[1,6],[-7,10],[-1,7],[5,3],[8,-4],[3,0],[2,7],[-1,7],[-1,6],[-19,48],[-4,6],[-8,2],[-9,6],[-8,7],[-13,15],[-31,27],[-4,4],[-10,18],[-3,3],[-4,1],[-9,6],[-5,1],[-5,-2],[-9,-7],[-4,-3],[-3,15],[-10,2],[-10,-1],[-5,6],[-4,9]],[[489,753],[-2,-2],[-7,0],[-2,6],[-1,9],[-2,9],[-3,3],[-14,13],[-2,3],[-1,-1],[-3,-5],[-1,-6],[0,-11],[-1,-4],[-3,-1],[-12,1],[1,4],[0,2],[1,2],[-2,8],[2,5],[3,5],[2,7],[-10,-7],[-5,-1],[-2,6],[2,11],[-1,5],[-8,2],[-4,-4],[-4,-6],[-5,-6],[-10,5],[-13,-7],[-16,11],[-13,0],[-23,-9],[-22,-14],[-8,-10],[5,-9],[-10,-8],[-10,-4],[-9,-1],[-8,5],[-12,9],[-5,2],[-4,-1],[-8,14],[3,7],[11,39],[5,9],[7,10],[8,6],[12,4],[10,11],[12,6],[3,3],[2,18],[-10,24],[-27,39],[-9,17],[-1,1],[-11,9],[-10,12],[-4,6],[-5,16],[-3,5],[4,17],[-2,36],[6,17],[4,5],[16,11],[17,6],[10,8],[7,2],[18,0],[7,3],[17,10],[9,8],[6,3],[8,1],[4,2],[7,5],[6,6],[4,7],[-10,25],[-5,8],[-9,12],[-1,6],[2,11],[3,4],[2,3],[2,4],[1,7],[-1,7],[-2,5],[-4,3],[-9,8],[-37,22],[-13,11],[-10,18],[-4,27],[-2,54],[3,23],[9,21],[42,34],[8,15],[3,27],[4,10],[17,6],[44,36],[8,3],[5,5],[2,13],[0,15],[2,12],[3,7],[1,0],[3,-2],[5,-1],[3,3],[8,12],[2,3],[-3,28],[0,15],[3,9],[3,0],[7,-7],[3,-2],[2,3],[11,16],[9,6],[10,0],[20,-4],[17,5],[14,15],[11,23],[5,27],[6,-8],[-1,-12],[-7,-25],[14,-9],[0,-3],[-16,0],[-10,-2],[-4,-5],[4,-9],[8,-2],[10,0],[38,-4],[7,-5],[5,-8],[5,-3],[14,0],[7,-4],[-9,-7],[-8,-5],[-8,-3],[-22,-1],[-21,3],[-19,10],[-5,3],[-4,6],[-6,10],[-4,3],[-3,0],[-6,-8],[-8,-8],[-17,-11],[-19,-3],[-9,-3],[-4,-8],[-3,-14],[-5,-9],[-6,-7],[-4,-10],[8,1],[14,13],[7,3],[4,-4],[-4,-8],[-7,-8],[-22,-19],[-12,-5],[-5,-7],[-8,-18],[-10,-12],[-58,-29],[-5,-6],[-5,-10],[3,-5],[6,0],[7,4],[2,-4],[3,-4],[-8,-10],[-3,-6],[-1,-6],[0,-19],[-1,-9],[-2,-7],[-17,-14],[-2,-2],[-3,-3],[-13,-18],[-7,-14],[-4,-15],[-2,-17],[0,-20],[3,-18],[6,-12],[8,-7],[36,-24],[6,-6],[5,-9],[3,-7],[0,-7],[-5,-28],[1,-8],[11,-15],[3,-11],[1,-14],[0,-14],[-3,-12],[-9,-19],[-6,-20],[-5,-6],[-10,0],[-19,4],[-5,-3],[-9,-8],[-4,-1],[-17,0],[-11,-8],[-19,-5],[-5,-8],[7,-1],[-1,-8],[-9,-20],[-3,-9],[-2,-9],[2,-10],[4,-10],[40,-54],[17,-34],[13,-40],[-1,-36],[-23,-27],[60,9],[8,7],[-3,13],[6,-1],[4,-5],[2,-6],[3,-5],[6,-1],[5,1],[5,3],[5,1],[34,-7],[10,3],[0,-13],[2,-5],[4,-2],[5,-6],[4,1],[10,17],[4,5],[8,1],[3,4],[0,7],[0,10],[1,5],[3,0],[4,-2],[2,-1],[2,3],[2,4],[2,4],[3,1],[6,3],[4,-1],[1,-4],[0,-3],[0,-2],[-1,-1],[-3,-10],[-2,-4],[-1,-3],[0,-6],[1,-3],[2,-2],[1,-3],[-2,-6],[-5,-4],[-14,-4],[-6,-4],[0,-2],[-4,-11],[-1,-2],[-1,0],[-6,-10],[20,-8],[7,0],[-4,-3],[-9,-2],[-4,-3],[-3,-5],[-3,-9]],[[1153,4096],[7,-2],[13,0],[7,2]],[[2331,4057],[19,7],[12,0],[18,5],[14,0],[19,-2],[14,2],[4,3],[21,17],[11,5],[15,-3],[9,-5],[9,-2],[24,0],[23,0],[22,-2],[12,0],[8,4]],[[2314,4057],[9,0],[8,0]],[[2648,4072],[4,-5],[15,-13]],[[2585,4086],[25,8],[17,2]],[[2630,4096],[9,-7],[6,-12],[3,-5]],[[1580,4096],[0,-2],[9,-17],[6,-5],[18,-5],[8,-10],[9,-5],[7,0],[20,2],[13,-2],[17,-5],[16,-12],[6,-3],[12,-2],[12,0],[42,-3],[9,0],[29,-2],[7,-3],[17,0],[25,8],[32,2],[37,13],[11,0],[31,0],[24,-5],[36,0],[9,-3],[19,-10],[13,-7],[15,-7],[11,-3],[21,0],[33,5],[46,10],[15,2],[36,8],[24,7],[20,3],[9,4],[10,8]],[[2726,4044],[-2,1],[-24,7],[-13,0],[-20,2]],[[3121,3951],[-20,2],[-21,-5],[-22,-12],[-12,0],[-18,10],[-6,5],[-11,15],[-7,39],[-6,17],[-3,5],[-21,15],[-12,15],[-10,12],[-33,-12],[-6,-5],[-15,-15],[-37,-15],[-3,-2],[-23,-7],[-22,-3],[-33,5],[-20,7],[-16,10],[-18,12]],[[3238,3921],[-35,8],[-27,10],[-15,7],[-15,5],[-25,0]],[[3588,3889],[-11,5],[-21,3],[-19,2],[-38,12],[-18,10],[-13,3],[-23,-8],[-18,-12],[-12,-5],[-12,0],[-15,3],[-20,9],[-16,3],[-20,-3],[-28,3],[-20,5],[-10,-3],[-14,-2],[-9,0],[-13,7]],[[1245,3783],[12,15],[8,15],[3,17],[0,15],[-3,25],[-8,12],[-4,32],[3,12],[6,3],[12,0],[16,-5],[21,0],[11,2],[7,5],[11,10],[4,17],[0,15],[11,10],[27,17],[9,8],[3,5],[6,24],[10,22],[5,27],[1,10]],[[3766,3692],[-12,15],[-9,0],[-30,7],[-13,3],[-11,10],[-7,12],[-9,29],[-15,28],[9,32],[0,14],[-5,10],[-21,15],[-10,5],[-21,5],[-24,12]],[[1197,3613],[-1,8],[-9,56],[0,10],[1,25],[5,15],[13,22],[12,15],[27,19]],[[1200,3603],[-3,10]],[[3960,3510],[-17,18]],[[3943,3528],[-4,4],[-16,5],[-23,17],[-19,7],[-22,15],[-6,5],[-7,17],[-11,18],[-9,10],[-12,12],[-7,10],[-12,19],[-5,10],[-18,8],[-6,7]],[[1169,3492],[10,20],[6,10],[3,15],[15,44],[-3,22]],[[3981,3468],[-1,7],[-5,15],[-6,10],[-9,10]],[[3941,3444],[3,2],[15,2],[15,5],[7,5],[0,10]],[[3929,3438],[12,6]],[[3787,3441],[26,-5],[19,-5],[32,-5],[24,2],[30,5],[11,5]],[[3980,3421],[-26,5],[-18,7],[-7,5]],[[4096,3466],[-1,-1],[-12,-7],[-9,-12],[-13,-10],[-15,-10],[-20,-7],[-9,0],[-18,0],[-19,2]],[[3472,3416],[24,5],[36,5],[17,5],[19,10],[11,7],[36,17],[24,8],[16,5],[17,0],[18,-5],[25,-8],[23,-7],[43,-17],[6,0]],[[3971,3325],[1,2],[0,18],[2,9],[3,15],[-3,15],[1,12],[5,8],[-3,10],[3,7]],[[3472,3416],[-15,-5],[-30,-5],[-10,-5],[-20,0],[-8,-2],[-19,-15],[-8,-7],[-10,-8],[-20,-5],[-30,-12],[-7,-3],[-14,-12],[-3,-5],[-18,-24]],[[3083,3332],[14,-2],[12,-5],[21,-15],[10,-12],[6,-3],[9,0],[45,8],[20,2],[28,0],[12,3]],[[2965,3285],[13,15],[59,22],[13,5],[14,3],[10,0],[9,2]],[[1226,3209],[4,10],[-1,10],[-11,17]],[[1218,3246],[-6,10],[-12,5],[-13,12],[-11,0],[-3,5],[-1,20],[-3,7],[-3,17],[-2,32],[-1,23],[0,19],[-3,30],[-3,25],[3,17],[9,24]],[[3966,3167],[-1,12],[1,18],[8,32],[3,17],[3,37],[0,10],[-3,22],[-6,10]],[[48,3187],[6,-15],[2,-20]],[[0,3332],[5,-29],[10,-45],[6,-17],[12,-25],[11,-19],[4,-10]],[[57,3150],[-1,2]],[[63,3145],[-6,5]],[[72,3145],[-9,0]],[[1201,3160],[4,10],[9,24],[4,10],[8,5]],[[1178,3120],[3,5],[6,5],[9,12],[5,18]],[[2738,3105],[16,10],[17,13],[18,22],[24,24],[12,5],[16,8],[39,7],[15,5],[11,8],[9,12],[4,5],[9,15],[5,9],[12,15],[20,22]],[[2601,3073],[9,3],[26,5],[6,2],[25,3],[15,2],[24,0],[12,5],[20,12]],[[3971,3044],[0,25],[1,24],[3,25],[0,24],[-3,10],[-6,15]],[[1167,3044],[3,15],[-1,17],[1,15],[5,17],[3,12]],[[2419,3036],[15,-2],[20,0],[3,2],[33,8],[27,10],[65,12],[19,7]],[[85,3136],[-13,9]],[[128,3009],[4,3],[2,12],[6,12],[16,20],[2,8],[-3,9],[-17,20],[-12,5],[-37,35],[-4,3]],[[2283,2977],[28,25],[11,5],[21,12],[22,10],[27,7],[18,3],[9,-3]],[[1223,2894],[-3,14],[-6,13],[-17,34],[-6,15],[-10,20],[-3,12],[-11,20],[-1,12],[1,10]],[[3984,2881],[-3,27],[-1,22],[-5,18],[3,24],[0,15],[-6,42],[-1,15]],[[137,2874],[21,12],[4,5],[5,12],[12,15],[-2,8],[-9,7],[-13,15],[-17,5],[-7,10],[-5,17],[-3,24],[2,5],[3,0]],[[3993,2802],[-7,22],[-2,13],[0,24]],[[3984,2861],[0,20]],[[74,2792],[16,15],[18,15],[15,12],[6,32],[8,8]],[[1970,2728],[12,23],[5,4],[13,13],[20,7],[7,8],[11,2],[33,20],[9,7],[24,20],[5,7],[9,13],[28,39],[14,17],[13,13],[41,17],[6,5],[33,17],[30,17]],[[1948,2694],[22,34]],[[1852,2737],[24,-11],[12,-10],[4,-2]],[[1656,2734],[13,7],[21,3]],[[1640,2733],[14,0],[2,1]],[[1690,2744],[24,4],[12,3],[19,-3],[21,-5],[18,-2],[26,2],[24,0],[16,-5],[2,-1]],[[1892,2714],[12,-8],[9,-2],[18,-5],[17,-5]],[[3969,2691],[-1,5]],[[3993,2799],[0,3]],[[3968,2696],[0,3],[0,17],[6,15],[12,17],[4,12],[3,20],[0,19]],[[3977,2647],[1,10],[-3,17],[-6,17]],[[1918,2595],[4,5],[5,25],[1,10]],[[1928,2635],[0,7],[8,25],[12,27]],[[3,2606],[2,9],[3,7]],[[0,2590],[3,16]],[[8,2622],[10,27],[2,20],[-2,35],[2,7],[7,15],[15,22],[15,17],[6,15],[11,12]],[[1535,2583],[1,0],[14,5],[12,12],[15,17],[13,10],[22,10],[7,8],[4,8]],[[1409,2573],[36,10],[21,2],[28,0],[35,-2],[6,0]],[[1623,2653],[1,1],[4,15],[2,22],[9,30],[1,12]],[[1280,2568],[-3,8],[-8,17],[-6,17],[-16,22],[-11,20],[-10,27],[-6,12],[-15,18],[-5,14],[0,25],[15,22],[0,18],[5,39],[3,17],[0,17],[1,18],[-1,15]],[[1274,2568],[6,0]],[[45,2576],[23,0],[18,-3],[15,-5],[18,-2],[9,5],[9,5],[12,12],[6,5],[19,5],[17,2],[19,3],[32,2],[12,-2],[3,-3]],[[1280,2568],[18,-2]],[[1364,2566],[27,5],[18,2]],[[1298,2566],[24,2],[34,0],[8,-2]],[[2,2562],[6,-1]],[[0,2562],[2,0]],[[8,2561],[15,5],[13,7],[5,1]],[[41,2574],[4,2]],[[1277,2551],[1,4]],[[1278,2555],[2,3],[0,10]],[[1235,2548],[3,3],[7,12],[8,3]],[[1253,2566],[7,2],[14,0]],[[1215,2554],[5,-1],[15,-5]],[[1205,2556],[10,-2]],[[1265,2544],[4,0],[8,7]],[[1855,2529],[4,15],[8,9],[9,10],[24,15],[18,17]],[[991,2526],[30,5],[30,15],[15,0],[20,5],[19,5],[8,2],[16,-2],[13,-5],[19,-3],[44,8]],[[682,2504],[-15,5],[-12,2],[-24,-2],[-33,-2],[-12,0]],[[796,2494],[-25,3],[-6,2],[-12,5],[-5,10],[-9,2],[-22,-7],[-15,-5],[-20,0]],[[796,2494],[18,0],[32,3],[64,7],[32,15],[7,2],[42,5]],[[1876,2492],[-21,37]],[[494,2489],[26,18],[25,7],[8,0],[33,-7]],[[257,2600],[20,-20],[6,-14],[9,-10],[24,-17],[10,-8],[12,-10],[9,-14],[6,-5],[9,-8],[15,-7]],[[448,2482],[31,5],[15,2]],[[377,2487],[18,-5],[27,-3],[26,3]],[[1231,2466],[10,43],[6,15],[10,12],[8,8]],[[1220,2445],[10,20],[1,1]],[[3976,2643],[1,4]],[[3972,2413],[2,5],[-6,15],[-3,14],[0,27],[1,8],[5,15],[1,12],[-1,32],[3,20],[6,17],[1,20],[-7,34],[2,11]],[[3972,2332],[3,9],[2,15],[-2,13],[0,17],[-3,15],[0,12]],[[1880,2486],[-4,6]],[[2000,2327],[0,9],[-7,15],[-21,22],[-18,18],[-30,24],[-15,27],[-12,15],[-9,15],[-6,12],[-2,2]],[[0,2326],[8,-7]],[[3935,2290],[4,10],[11,2],[4,5],[18,25]],[[1188,2270],[-3,12],[-15,25],[-3,15],[6,14],[14,18],[7,12],[12,27],[2,12],[-2,18],[2,7],[12,15]],[[2657,2304],[-5,-9],[-7,-23],[-2,-5]],[[1125,2137],[-5,20],[0,9],[6,13],[11,15],[12,12],[18,34],[18,20],[3,10]],[[3927,2097],[3,8],[9,24],[5,30],[3,20],[0,15],[-2,17],[-9,29],[-3,13],[-4,10],[1,9],[6,10],[-1,8]],[[1999,2092],[15,23],[4,10],[0,9],[-6,13],[-12,19],[-3,10],[0,13],[3,17],[0,22],[0,25],[2,27],[0,32],[-2,15]],[[1991,2073],[0,10],[8,9]],[[8,2319],[16,-15],[17,-46],[18,-40],[13,-29],[18,-45],[20,-39],[13,-20],[6,-12],[0,-10],[5,-12],[4,-20]],[[3927,2097],[6,-2],[6,-10],[11,-10],[16,-12],[12,-10],[12,-15],[11,0],[7,8],[9,2],[33,3],[11,-5],[33,-23],[2,1]],[[3927,2097],[-6,-7],[-19,-12],[-24,-13],[-25,-12],[-48,-25],[-12,-7],[-16,-17],[-14,-18],[-15,-19]],[[828,1910],[13,-2]],[[843,1907],[27,-4],[16,-5],[15,-5]],[[841,1908],[2,-1]],[[901,1893],[2,0]],[[903,1893],[7,2],[11,3],[22,-5],[12,0],[20,5],[15,5],[9,7],[13,15],[26,27],[10,12],[9,15],[11,30],[7,5],[20,0],[9,19],[6,15],[6,20],[10,20],[3,17],[0,17],[-4,15]],[[138,2031],[15,-47],[5,-22],[6,-15],[4,-22],[8,-15],[0,-15],[-9,-24],[0,-5],[10,-18],[20,-37],[4,-9]],[[3690,1710],[7,18],[2,7]],[[3699,1735],[4,15],[3,27],[0,17],[-3,20],[0,7],[9,18],[6,5],[9,12],[8,22],[3,22],[1,32],[2,13],[7,22]],[[403,1708],[6,5],[22,10],[15,15],[8,2],[15,2],[9,0],[31,-7],[6,3],[15,12],[18,17],[9,10],[17,12],[6,5],[18,30],[39,49],[13,20],[12,15],[15,12],[14,7],[11,3],[16,0],[11,5],[9,7],[10,5],[20,-2],[16,-8],[12,-7],[15,-3],[8,-5],[9,-12]],[[3679,1693],[11,17]],[[3679,1671],[2,7],[-2,15]],[[3672,1674],[7,-3]],[[3640,1678],[14,0],[12,-2],[6,-2]],[[311,1625],[11,-11]],[[201,1802],[8,-18],[16,-27],[14,-17],[6,-5],[14,-20],[7,-12],[8,-20],[12,-17],[7,-10],[8,-20],[10,-11]],[[322,1614],[3,-2]],[[325,1612],[21,-8]],[[359,1597],[5,17],[1,13],[-1,14],[1,8],[8,12],[6,9]],[[379,1670],[4,6],[11,22],[9,10]],[[346,1604],[13,-7]],[[377,1563],[-1,17],[-17,17]],[[3052,1555],[7,5],[6,0],[21,-7],[30,0],[35,2],[10,-2],[26,-5],[18,0],[24,2],[13,5],[17,10],[6,2],[31,13],[29,7],[46,8],[21,9],[25,5],[9,3],[15,10],[21,7],[30,7],[16,8],[14,2],[21,5],[27,18],[7,4],[12,0],[36,0],[15,5]],[[221,1555],[-14,-2],[-22,-3],[-17,3],[-22,7],[-8,0],[-40,-7],[-75,-5],[-15,0],[-8,1]],[[377,1563],[3,-10],[8,-10],[7,-8],[12,0],[11,3]],[[257,1530],[-4,3],[-32,22]],[[257,1530],[24,-4],[8,0]],[[306,1528],[31,7],[15,8],[12,7],[13,13]],[[289,1526],[16,2],[1,0]],[[2813,1491],[43,12],[14,0],[25,-5],[5,3],[25,15],[29,5],[12,2],[47,3],[7,0],[18,-13],[9,-2],[2,5],[-3,12],[1,12]],[[418,1538],[1,-22],[1,-20]],[[420,1496],[1,-5],[3,-17],[51,-8],[19,-5],[41,-12]],[[1991,2073],[9,-8],[12,-5],[9,-9],[9,-10],[5,-10],[6,-5],[6,-10],[24,-20],[15,-14],[12,-18],[11,-22],[10,-15],[3,-10],[6,-14],[12,-25],[2,-7],[0,-10],[-3,-20],[-14,-22],[0,-15],[6,-17],[8,-12],[7,-13],[20,-27],[6,-15],[6,-17],[6,-12],[7,-25],[2,-17],[4,-13],[33,-49],[6,-15],[3,-12],[14,-12],[6,-22],[4,-15],[9,-15],[14,-12],[15,-18],[9,-17],[6,-24],[7,-15],[2,-20]],[[535,1449],[33,-15],[52,-22],[15,0],[35,-2],[29,-5],[9,-5],[7,-10],[3,-7],[9,-3],[21,0]],[[1190,1442],[-20,5],[-12,0],[-35,2],[-9,-7],[-9,-5],[-19,-3],[-23,0],[-18,3],[-16,0],[-29,-5],[-24,-5],[-31,-7],[-21,-10],[-9,-8],[-3,-12],[-38,-2],[-31,-3],[-27,-2],[-33,-3],[-35,0]],[[1368,1378],[-10,5],[-14,12],[-19,5],[-20,5],[-9,0],[-18,-3],[-13,3],[-15,7],[-17,5],[-10,12],[-8,0],[-9,3],[-16,10]],[[2293,1346],[6,5],[14,4],[6,23],[6,12]],[[3679,1671],[-1,-3]],[[3678,1668],[-3,-7],[-8,-12],[-6,-13],[-10,-17],[-5,-12],[-1,-7],[4,-10],[9,-20],[6,-25],[2,-12],[1,-27],[-10,-25],[-5,-15],[-1,-17],[1,-12],[-1,-8],[-5,-17],[-1,-15],[3,-12],[1,-10],[-3,-17],[-1,-25]],[[2364,1333],[4,0],[11,10],[21,22],[7,5],[62,0],[27,0],[23,-2],[19,5],[23,12],[21,7],[16,8],[14,5],[27,2],[25,10],[27,3],[21,5],[29,17],[16,7],[29,25],[13,10],[14,7]],[[2325,1390],[9,-12],[9,-5],[9,-8],[4,-7],[8,-25]],[[1721,1355],[-19,-7],[-24,-15],[-9,-5],[-18,-2],[-11,2],[-21,10],[-16,5],[-26,5],[-35,3],[-34,0],[-9,7],[-8,12],[-9,8],[-15,10],[-18,4],[-13,0],[-8,-2],[-16,-10],[-9,-2],[-24,-5],[-11,5]],[[2367,1323],[-3,10]],[[2293,1346],[-45,12],[-18,2],[-12,-2],[-18,-5],[-22,-15],[-6,-2],[-27,-20],[-12,-5],[-35,0],[-54,-7],[-9,2],[-41,0],[-34,-2],[-15,0],[-23,-3]],[[1922,1301],[-7,5],[-29,25],[-4,10],[-11,10],[-9,4],[-27,8],[-16,0],[-17,2],[-15,3],[-27,-3],[-18,-2],[-21,-8]],[[3645,1333],[1,-14],[8,-23],[1,-10],[-1,-9]],[[231,1259],[4,27],[4,35],[2,27],[3,17],[1,13],[-3,12],[0,5],[11,30],[15,32],[0,24],[-3,8],[1,5],[11,12],[12,20]],[[224,1205],[7,47],[0,7]],[[3654,1277],[-5,-18],[-13,-34],[-11,-35],[-4,-7],[-14,-17],[-25,-15]],[[159,870],[2,15],[4,17],[2,20],[0,34],[3,15],[7,22],[-1,27],[3,32],[7,20],[5,17],[15,57],[12,30],[6,19],[0,10]],[[2769,798],[-16,18],[-8,10],[-31,37],[-14,14],[-28,37],[-12,15],[-9,7],[-18,23],[-35,47],[-7,12],[-8,12],[-18,17],[-37,45],[-32,29],[-5,5],[-15,37],[-9,27],[-10,20],[-14,22],[-10,10],[-12,10],[-15,10],[-11,12],[-7,12],[-6,13],[-12,17],[-3,7]],[[3582,1151],[6,-7],[16,-20],[24,-32],[21,-35],[9,-10],[9,-12],[24,-39],[9,-10],[21,-32],[6,-8],[8,-29],[6,-13],[10,-9],[21,-15],[15,-15],[11,-20],[7,-7],[15,-27],[8,-22]],[[2242,761],[-12,13],[-7,12],[-17,35],[-10,22],[-9,27],[-2,22],[6,20],[5,10],[4,22],[2,20],[0,39],[1,42],[-1,15],[3,32],[3,15],[4,32],[5,19],[15,69],[4,15],[11,15],[15,17],[15,12],[10,18],[2,10],[-2,12],[6,20]],[[2769,798],[23,-4],[22,-3],[20,3],[10,-3],[35,-7],[30,-8],[34,-5],[40,-7],[16,-5],[38,-7],[48,-10],[30,-3],[13,-2],[48,5],[30,2],[42,3],[15,2],[42,15],[21,0]],[[3875,732],[40,7],[18,8],[11,5],[28,7],[26,7],[28,3],[45,12],[14,3],[11,-3]],[[3870,732],[5,0]],[[3326,764],[12,-3],[17,-4],[24,-10],[12,-3],[26,0],[13,-2],[57,-10],[21,-3],[23,-2],[19,2],[21,-2],[21,0],[21,2],[12,5],[14,0],[18,-2],[31,-3],[30,0],[15,5],[26,0],[15,0],[43,0],[20,-2],[26,-3],[7,3]],[[143,705],[-12,24],[-1,2]],[[130,731],[-11,18],[13,25],[21,42],[6,15],[2,22],[-2,17]],[[130,686],[5,2],[3,2],[5,15]],[[81,673],[6,5],[14,5],[24,2],[5,1]],[[2281,623],[-7,15],[-8,25],[-18,59],[-4,35],[-2,4]],[[0,392],[3,5],[8,7],[10,7],[14,5],[6,5],[1,15],[5,8],[9,9],[4,20],[11,30],[15,29],[1,15],[-4,15],[-12,29],[-2,25],[5,15],[3,32],[4,10]],[[4061,0],[7,10],[17,22],[0,7],[7,20],[4,5]],[[2471,0],[-1,5],[2,12],[9,37],[4,17],[3,10],[3,37],[5,17],[6,25],[-1,15],[-11,27],[-12,20],[-14,27],[-30,49],[-28,59],[-11,20],[-27,42],[-13,17],[-9,20],[-15,44],[-15,42],[-8,25],[-6,12],[-9,12],[-12,32]],[[4096,4096],[0,-4096],[-4096,0],[0,2912],[0,1184],[1807,0],[2289,0]],[[2216,2431],[39,40],[100,7],[113,-42],[-22,20],[21,-1],[35,10],[23,18],[-56,-25],[39,52],[28,-5],[-7,-23],[26,28],[118,5],[-5,27],[25,6],[41,-23],[-39,-25],[-74,-131],[-39,-11],[-41,11],[-44,54],[-49,-3],[-84,40],[-111,-4],[-37,-25]],[[2524,2406],[18,-13],[27,13],[-18,-4],[-27,4]],[[2635,2483],[7,-1],[0,5],[-7,1],[0,-5]],[[2618,2446],[8,0],[0,7],[-8,0],[0,-7]],[[1515,2596],[31,17],[-7,34],[27,36],[31,8],[12,-21],[18,24],[-16,-33],[29,-19],[5,32],[20,-7],[-8,31],[93,7],[25,0],[48,-12],[38,-19],[24,-60],[-56,-58],[-89,9],[-107,-45],[-118,76]],[[1662,2698],[10,-22],[17,13],[21,-51],[65,-3],[15,44],[33,3],[-48,20],[-113,-4]],[[165,697],[-23,-23],[-23,23],[16,51],[40,-5],[-10,-46]],[[420,1593],[-19,-38],[42,9],[37,-17],[-11,-20],[-86,-56],[-5,69],[-41,-53],[-23,7],[-24,106],[65,76],[28,-7],[37,-76]],[[3659,1764],[58,-42],[-33,-61],[-60,61],[35,42]],[[848,1859],[-5,49],[49,4],[13,-23],[-57,-30]],[[4,2625],[46,-30],[-37,-84],[-13,4],[4,110]],[[1712,2503],[16,23],[14,-83],[-46,-38],[16,98]],[[1220,2579],[74,-30],[-46,-91],[-47,23],[19,98]],[[2570,2845],[39,8],[35,-8],[-36,-33],[-38,33]],[[4010,2800],[-35,-2],[-4,47],[37,46],[32,-38],[-30,-53]],[[32,3187],[69,0],[0,-46],[-69,-23],[0,69]],[[1238,3249],[-7,-65],[-34,-28],[-28,84],[69,9]],[[2847,3338],[-46,31],[44,29],[39,-22],[-37,-38]],[[2325,2701],[14,-30],[-42,-42],[-55,-12],[46,76],[37,8]],[[1849,2572],[55,53],[-46,61],[-9,83],[27,15],[33,-151],[69,7],[-15,-65],[-31,-41],[-28,0],[-18,-46],[-102,-38],[-42,76],[35,22],[44,-14],[28,38]],[[3939,2663],[19,34],[32,-4],[4,53],[27,8],[13,-58],[-40,-63],[-55,30]],[[1670,2734],[-119,3],[-17,55],[144,0],[13,-53],[-21,-5]],[[2692,3545],[-34,-9],[-14,83],[60,-23],[-12,-51]],[[2731,4096],[15,-21],[-28,-43],[-106,-11],[54,75],[65,0]],[[1546,4096],[-2,-29],[-51,-8],[-21,37],[74,0]],[[2454,4021],[43,8],[45,-23],[-22,-37],[-47,14],[-19,38]],[[2695,3376],[-15,41],[-31,12],[0,38],[55,0],[-4,-30],[27,-23],[-32,-38]],[[4095,3507],[-115,-70],[-41,8],[4,98],[74,-7],[-41,68],[18,61],[51,-69],[32,16],[18,-105]],[[918,1380],[49,28],[149,27],[-1,-37],[-44,0],[-23,-27],[14,-20],[-106,-45],[-38,74]],[[76,3512],[12,48],[106,2],[32,-74],[-40,12],[15,-12],[-48,-12],[-14,33],[24,23],[-29,6],[10,-11],[0,-9],[-7,-11],[-1,-13],[11,-21],[-54,-7],[-17,46]]]}