{"objects":{"water":{"type":"GeometryCollection","geometries":[{"type":"MultiPolygon","properties":{"source":"naturalearthdata.com","kind":"ocean","area":1576712559132672,"sort_rank":200,"min_zoom":0.0,"id":1},"arcs":[[[12],[13],[14],[15],[16],[17],[18]]]},{"type":"MultiLineString","properties":{"source":"naturalearthdata.com","kind":"ocean","sort_rank":205,"boundary":true,"min_zoom":0.0,"id":45},"arcs":[[19],[20]]},{"type":"MultiLineString","properties":{"source":"naturalearthdata.com","kind":"ocean","sort_rank":205,"boundary":true,"min_zoom":0.0,"id":55},"arcs":[[21],[22]]},{"type":"LineString","properties":{"source":"naturalearthdata.com","kind":"ocean","sort_rank":205,"boundary":true,"min_zoom":0.0,"id":2765},"arcs":[23]},{"type":"LineString","properties":{"source":"naturalearthdata.com","kind":"ocean","sort_rank":205,"boundary":true,"min_zoom":0.0,"id":2786},"arcs":[24]},{"type":"LineString","properties":{"source":"naturalearthdata.com","kind":"ocean","sort_rank":205,"boundary":true,"min_zoom":0.0,"id":2788},"arcs":[25]},{"type":"LineString","properties":{"source":"naturalearthdata.com","kind":"ocean","sort_rank":205,"boundary":true,"min_zoom":0.0,"id":2789},"arcs":[26]},{"type":"LineString","properties":{"source":"naturalearthdata.com","kind":"ocean","sort_rank":205,"boundary":true,"min_zoom":0.0,"id":2790},"arcs":[27]},{"type":"LineString","properties":{"source":"naturalearthdata.com","kind":"ocean","sort_rank":205,"boundary":true,"min_zoom":0.0,"id":2791},"arcs":[28]},{"type":"Point","properties":{"label_placement":true,"kind":"sea","name":"Gulf of Aden","source":"openstreetmap.org","sort_rank":200,"min_zoom":3.0,"id":316793178},"coordinates":[1158,571]}]},"buildings":{"type":"GeometryCollection","geometries":[]},"places":{"type":"GeometryCollection","geometries":[{"type":"Point","properties":{"name:ka":"\u10d8\u10d4\u10db\u10d4\u10dc\u10d8","name:ko":"\uc608\uba58","name:cv":"\u0419\u0435\u043c\u0435\u043d","name:km":"\u1799\u17c1\u1798\u17c2\u1793","name:kl":"Jemen","name:cs":"Jemen","name:ki":"Yemeni","name:co":"Yemen","name:kv":"\u0419\u0435\u043c\u0435\u043d","name:ku":"Yemen","name:ti":"\u12e8\u1218\u1295","name:ks":"\u06cc\u064e\u0645\u064e\u0646","name:to":"Iemeni","name:tl":"Yemen","name:ce":"\u0419\u0435\u043c\u0435\u043d","name:ta":"\u0b8f\u0bae\u0ba9\u0bcd","name:tg":"\u042f\u043c\u0430\u043d","name:ca":"Iemen","name:te":"\u0c2f\u0c46\u0c2e\u0c46\u0c28\u0c4d","name:cy":"Yemen","name:hr":"Jemen","name:da":"Yemen","name:de":"Jemen","name:dz":"\u0f61\u0f7a\u0f0b\u0f58\u0f7a\u0f53","source":"openstreetmap.org","name:kn":"\u0caf\u0cc6\u0cae\u0ca8\u0ccd","name:dv":"\u0794\u07a6\u0789\u07a6\u0782\u07b0","name:lv":"Jemena","name:lt":"Jemenas","name:uz":"Yaman","name:kk":"\u0419\u0435\u043c\u0435\u043d","name:ur":"\u06cc\u0645\u0646","name:lb":"Jemen","name:la":"Iemenia","name:lg":"Yemeni","name:uk":"\u0404\u043c\u0435\u043d","name:ug":"\u064a\u06d5\u0645\u06d5\u0646","name:li":"Jeme","name:ln":"Yem\u025bn\u025b","name:lo":"\u0ec0\u0ea2\u0ec0\u0ea1\u0e99","name:el":"\u03a5\u03b5\u03bc\u03ad\u03bd\u03b7","name:eo":"Jemeno","name:en":"Yemen","name":"\u0627\u0644\u064a\u064e\u0645\u064e\u0646","name:tk":"\u00ddemen","name:ee":"Yemen nutome","name:th":"\u0e1b\u0e23\u0e30\u0e40\u0e17\u0e28\u0e40\u0e22\u0e40\u0e21\u0e19","name:eu":"Yemen","name:et":"Jeemen","name:es":"Yemen","name:ia":"Yemen","name:rm":"Jemen","name:rn":"Yemeni","name:az":"Yemen","name:ie":"Yemen","name:id":"Yaman","name:ar":"\u0627\u0644\u064a\u0645\u0646","name:io":"Yemen","name:ak":"Y\u025bmen","name:am":"\u12e8\u1218\u1295","name:it":"Yemen","name:an":"Yemen","name:ru":"\u0419\u0435\u043c\u0435\u043d","name:rw":"Yemeni","name:af":"Jemen","name:zu":"i-Yemen","name:ky":"\u0419\u0435\u043c\u0435\u043d","name:zh-yue":"\u4e5f\u9580","name:zh":"\u4e5f\u95e8","name:so":"Yaman","name:sn":"Yemen","name:sl":"Jemen","name:sk":"Jemen","name:ja":"\u30a4\u30a8\u30e1\u30f3","name:si":"\u0dba\u0dda\u0db8\u0db1\u0dba","name:sh":"Jemen","name:sg":"Y\u00ebm\u00eani","name:se":"Jemen","name:sa":"\u092f\u092e\u0928","name:bs":"Jemen","name:bm":"Yem\u025bni","name:bn":"\u0987\u09ae\u09c7\u09a8","name:bo":"\u0f61\u0f7a\u0f0b\u0f58\u0f7a\u0f53\u0f0d","name:br":"Yemen","name:sw":"Yemeni","name:be":"\u0419\u0435\u043c\u0435\u043d","name:su":"Yaman","name:bg":"\u0419\u0435\u043c\u0435\u043d","name:ss":"IYemeni","name:ba":"\u0419\u0435\u043c\u0435\u043d","name:sq":"Jemen","name:jv":"Yaman","name:pt":"I\u00eamen","name:ps":"\u06cc\u0645\u0646","name:oc":"Iem\u00e8n","min_zoom":2.0,"name:ro":"Yemen","name:zh-min-nan":"Yemen","name:os":"\u0419\u0435\u043c\u0435\u043d","name:or":"\u0b5f\u0b47\u0b2e\u0b47\u0b28\u0b4d","name:pl":"Jemen","name:sr":"\u0408\u0435\u043c\u0435\u043d","name:pa":"\u0a2f\u0a2e\u0a28","name:tr":"Yemen","name:hi":"\u092f\u092e\u0928","name:sv":"Jemen","name:he":"\u05ea\u05d9\u05de\u05df","name:ha":"Yamal","name:hy":"\u0535\u0574\u0565\u0576","name:ht":"Yem\u00e8n","name:hu":"Jemen","name:qu":"Yaman","population":24184000,"kind":"country","name:is":"Jemen","name:yi":"\u05ea\u05d9\u05de\u05df","name:yo":"Or\u00edl\u1eb9\u0301\u00e8de yemeni","name:mt":"Jemen","name:ms":"Yaman","name:mr":"\u092f\u0947\u092e\u0947\u0928","name:my":"\u101a\u102e\u1019\u1004\u103a","name:kw":"Yemen","name:mg":"Yemen","name:ml":"\u0d2f\u0d2e\u0d7b","name:vi":"Yemen","name:mn":"\u0419\u0435\u043c\u0435\u043d","id":249399459,"name:mk":"\u0408\u0435\u043c\u0435\u043d","name:vo":"Y\u00e4m\u00e4n","name:fa":"\u064a\u0645\u0646","name:ff":"Yemen","name:fi":"Jemen","name:fo":"Jemen","name:fr":"Y\u00e9men","name:fy":"Jemen","int_name":"Yemen","name:nl":"Jemen","name:nn":"Yemen","name:no":"Jemen","name:na":"Yemen","name:ne":"\u092f\u0947\u092e\u0947\u0928","name:wo":"Yaman","name:nv":"Sh\u00e1di\u02bc\u00e1\u00e1hj\u00ed \u00c1s\u00e1\u00ed Bik\u00e9yah","name:ga":"\u00c9imin","name:gd":"Iemen","name:gn":"Jem\u1ebd","name:gl":"Iemen","name:gv":"Yn Yeaman","name:gu":"\u0aaf\u0ac7\u0aae\u0ac7\u0aa8","name:tt":"\u0419\u04d9\u043c\u04d9\u043d"},"coordinates":[1053,1967]},{"type":"Point","properties":{"kind":"region","name:en":"Hadramaut Governorate","name":"\u0645\u062d\u0627\u0641\u0638\u0629 \u062d\u0636\u0631\u0645\u0648\u062a","kind_detail":"state","min_zoom":4.0,"name:de":"Hadramaut","source":"openstreetmap.org","name:fr":"Hadramaout","alt_name:en":"Hadramawt","name:ru":"\u0425\u0430\u0434\u0440\u0430\u043c\u0430\u0443\u0442","name:hu":"Hadramaut","id":663081632,"population":1028556},"coordinates":[1549,2356]},{"type":"Point","properties":{"kind":"region","name:en":"Al Bayda' Governorate","name":"\u0645\u062d\u0627\u0641\u0638\u0629 \u0627\u0644\u0628\u064a\u0636\u0627\u0621","kind_detail":"state","min_zoom":4.0,"source":"openstreetmap.org","name:fr":"Al Bayda'","name:ru":"\u042d\u043b\u044c-\u0411\u0435\u0439\u0434\u0430","name:hu":"El-Bajd\u00e1","id":663081627,"population":577369},"coordinates":[138,1198]},{"type":"Point","properties":{"kind":"region","name:en":"Shabwah Governorate","name":"\u0645\u062d\u0627\u0641\u0638\u0629 \u0634\u0628\u0648\u0629","kind_detail":"state","min_zoom":4.0,"name:de":"Schabwa","source":"openstreetmap.org","name:fr":"Shabwah","name:ru":"\u0428\u0430\u0431\u0432\u0430","name:hu":"Sabva","id":663081629,"population":470440},"coordinates":[659,1377]},{"type":"Point","properties":{"kind":"region","name:en":"Al Jawf Governorate","name":"\u0645\u062d\u0627\u0641\u0638\u0629 \u0627\u0644\u062c\u0648\u0641","kind_detail":"state","name:ar":"\u0627\u0644\u062c\u0648\u0641","min_zoom":4.0,"source":"openstreetmap.org","name:fr":"Al Jawf","name:ru":"\u042d\u043b\u044c-\u0414\u0436\u0430\u0443\u0444","name:hu":"El-Dzsauf","id":663081630,"population":443797},"coordinates":[224,2068]},{"type":"Point","properties":{"kind":"region","name:en":"Al Mahrah Governorate","name":"\u0645\u062d\u0627\u0641\u0638\u0629 \u0627\u0644\u0645\u0647\u0631\u0629","kind_detail":"state","min_zoom":4.0,"name:de":"al-Mahra","source":"openstreetmap.org","name:fr":"Mahra","name:ru":"\u042d\u043b\u044c-\u041c\u0430\u0445\u0440\u0430","name:hu":"El-Mahra","id":663081631,"population":88594},"coordinates":[2431,2078]},{"type":"Point","properties":{"kind":"region","name:en":"Abyan Governorate","name":"\u0623\u0628\u064a\u0646","kind_detail":"state","min_zoom":4.0,"source":"openstreetmap.org","name:fr":"Abyan","name:hu":"Abjan","id":2281453884},"coordinates":[413,910]},{"type":"Point","properties":{"source":"naturalearthdata.com","kind":"locality","name":"Aden","population":1000000,"region_capital":true,"min_zoom":5.0,"id":6830},"coordinates":[3,609]}]},"transit":{"type":"GeometryCollection","geometries":[]},"pois":{"type":"GeometryCollection","geometries":[]},"boundaries":{"type":"GeometryCollection","geometries":[{"type":"LineString","properties":{"source":"naturalearthdata.com","kind":"country","sort_rank":262,"kind_detail":"2","min_zoom":0.0,"id":339},"arcs":[0]},{"type":"LineString","properties":{"source":"naturalearthdata.com","kind":"disputed","sort_rank":261,"kind_detail":"2","min_zoom":0.0,"id":36},"arcs":[1]},{"type":"LineString","properties":{"source":"naturalearthdata.com","kind":"country","sort_rank":262,"kind_detail":"2","min_zoom":0.0,"id":340},"arcs":[2]},{"type":"LineString","properties":{"source":"naturalearthdata.com","kind":"country","sort_rank":262,"kind_detail":"2","min_zoom":0.0,"id":341},"arcs":[3]},{"type":"MultiLineString","properties":{"source":"naturalearthdata.com","kind":"country","sort_rank":262,"kind_detail":"2","min_zoom":0.0,"id":343},"arcs":[[4],[5],[6],[7]]},{"type":"MultiLineString","properties":{"source":"naturalearthdata.com","kind":"region","sort_rank":256,"kind_detail":"4","min_zoom":5.0,"id":2064},"arcs":[[8],[9]]},{"type":"LineString","properties":{"source":"naturalearthdata.com","kind":"region","sort_rank":256,"kind_detail":"4","min_zoom":5.0,"id":2066},"arcs":[10]},{"type":"LineString","properties":{"source":"naturalearthdata.com","kind":"region","sort_rank":256,"kind_detail":"4","min_zoom":5.0,"id":2067},"arcs":[11]}]},"roads":{"type":"GeometryCollection","geometries":[{"type":"LineString","properties":{"source":"naturalearthdata.com","kind":"major_road","sort_rank":379,"kind_detail":"secondary","min_zoom":4.0,"id":34142},"arcs":[29]},{"type":"LineString","properties":{"source":"naturalearthdata.com","kind":"major_road","sort_rank":379,"kind_detail":"secondary","min_zoom":4.0,"id":34165},"arcs":[30]},{"type":"LineString","properties":{"source":"naturalearthdata.com","kind":"major_road","sort_rank":379,"kind_detail":"secondary","min_zoom":4.0,"id":34291},"arcs":[31]},{"type":"LineString","properties":{"source":"naturalearthdata.com","kind":"major_road","sort_rank":379,"kind_detail":"secondary","min_zoom":4.0,"id":34369},"arcs":[32]},{"type":"LineString","properties":{"source":"naturalearthdata.com","kind":"major_road","sort_rank":379,"kind_detail":"secondary","min_zoom":4.0,"id":34532},"arcs":[33]},{"type":"LineString","properties":{"source":"naturalearthdata.com","kind":"major_road","sort_rank":379,"kind_detail":"secondary","min_zoom":4.0,"id":34770},"arcs":[34]},{"type":"LineString","properties":{"source":"naturalearthdata.com","kind":"major_road","sort_rank":379,"kind_detail":"secondary","min_zoom":4.0,"id":34782},"arcs":[35]},{"type":"LineString","properties":{"source":"naturalearthdata.com","kind":"major_road","sort_rank":379,"kind_detail":"secondary","min_zoom":4.0,"id":34827},"arcs":[36]},{"type":"LineString","properties":{"source":"naturalearthdata.com","kind":"minor_road","sort_rank":355,"kind_detail":"tertiary","min_zoom":5.0,"id":34924},"arcs":[37]},{"type":"LineString","properties":{"source":"naturalearthdata.com","kind":"minor_road","sort_rank":355,"kind_detail":"tertiary","min_zoom":5.0,"id":34928},"arcs":[38]},{"type":"LineString","properties":{"source":"naturalearthdata.com","kind":"minor_road","sort_rank":355,"kind_detail":"tertiary","min_zoom":5.0,"id":34938},"arcs":[39]},{"type":"LineString","properties":{"source":"naturalearthdata.com","kind":"major_road","sort_rank":379,"kind_detail":"secondary","min_zoom":4.0,"id":34978},"arcs":[40]},{"type":"LineString","properties":{"source":"naturalearthdata.com","kind":"minor_road","sort_rank":355,"kind_detail":"tertiary","min_zoom":5.0,"id":35032},"arcs":[41]},{"type":"LineString","properties":{"source":"naturalearthdata.com","kind":"major_road","sort_rank":379,"kind_detail":"secondary","min_zoom":4.0,"id":35041},"arcs":[42]},{"type":"LineString","properties":{"source":"naturalearthdata.com","kind":"highway","sort_rank":383,"kind_detail":"motorway","min_zoom":5.0,"id":35048},"arcs":[43]},{"type":"LineString","properties":{"source":"naturalearthdata.com","kind":"highway","sort_rank":383,"kind_detail":"motorway","min_zoom":5.0,"id":35076},"arcs":[44]},{"type":"LineString","properties":{"source":"naturalearthdata.com","kind":"minor_road","sort_rank":355,"kind_detail":"tertiary","min_zoom":5.0,"id":35563},"arcs":[45]},{"type":"LineString","properties":{"source":"naturalearthdata.com","kind":"minor_road","sort_rank":355,"kind_detail":"tertiary","min_zoom":5.0,"id":35894},"arcs":[46]},{"type":"LineString","properties":{"source":"naturalearthdata.com","kind":"major_road","sort_rank":379,"kind_detail":"secondary","min_zoom":4.0,"id":35972},"arcs":[47]},{"type":"LineString","properties":{"source":"naturalearthdata.com","kind":"major_road","sort_rank":379,"kind_detail":"secondary","min_zoom":4.0,"id":35993},"arcs":[48]},{"type":"LineString","properties":{"source":"naturalearthdata.com","kind":"minor_road","sort_rank":355,"kind_detail":"tertiary","min_zoom":5.0,"id":35994},"arcs":[49]},{"type":"LineString","properties":{"source":"naturalearthdata.com","kind":"major_road","sort_rank":379,"kind_detail":"secondary","min_zoom":4.0,"id":36066},"arcs":[50]},{"type":"LineString","properties":{"source":"naturalearthdata.com","kind":"minor_road","sort_rank":355,"kind_detail":"tertiary","min_zoom":5.0,"id":36074},"arcs":[51]},{"type":"LineString","properties":{"source":"naturalearthdata.com","kind":"major_road","sort_rank":379,"kind_detail":"secondary","min_zoom":4.0,"id":36261},"arcs":[52]},{"type":"LineString","properties":{"source":"naturalearthdata.com","kind":"major_road","sort_rank":379,"kind_detail":"secondary","min_zoom":4.0,"id":36280},"arcs":[53]},{"type":"LineString","properties":{"source":"naturalearthdata.com","kind":"major_road","sort_rank":379,"kind_detail":"secondary","min_zoom":4.0,"id":36309},"arcs":[54]},{"type":"LineString","properties":{"source":"naturalearthdata.com","kind":"major_road","sort_rank":379,"kind_detail":"secondary","min_zoom":4.0,"id":36313},"arcs":[55]},{"type":"LineString","properties":{"source":"naturalearthdata.com","kind":"major_road","sort_rank":379,"kind_detail":"secondary","min_zoom":4.0,"id":36450},"arcs":[56]},{"type":"LineString","properties":{"source":"naturalearthdata.com","kind":"major_road","sort_rank":379,"kind_detail":"secondary","min_zoom":4.0,"id":36671},"arcs":[57]},{"type":"LineString","properties":{"source":"naturalearthdata.com","kind":"major_road","kind_detail":"secondary","sort_rank":379,"landuse_kind":"urban_area","min_zoom":3.0,"id":36874},"arcs":[58]},{"type":"LineString","properties":{"source":"naturalearthdata.com","kind":"major_road","sort_rank":379,"kind_detail":"secondary","min_zoom":4.0,"id":36895},"arcs":[59]},{"type":"LineString","properties":{"source":"naturalearthdata.com","kind":"major_road","kind_detail":"secondary","sort_rank":379,"landuse_kind":"urban_area","min_zoom":3.0,"id":36896},"arcs":[60]},{"type":"LineString","properties":{"source":"naturalearthdata.com","kind":"major_road","sort_rank":379,"kind_detail":"secondary","min_zoom":3.0,"id":36896},"arcs":[61]},{"type":"LineString","properties":{"source":"naturalearthdata.com","kind":"major_road","sort_rank":379,"kind_detail":"secondary","min_zoom":3.0,"id":36900},"arcs":[62]},{"type":"LineString","properties":{"source":"naturalearthdata.com","kind":"major_road","sort_rank":379,"kind_detail":"secondary","min_zoom":3.0,"id":36912},"arcs":[63]},{"type":"LineString","properties":{"source":"naturalearthdata.com","kind":"minor_road","sort_rank":355,"kind_detail":"tertiary","min_zoom":5.0,"id":37571},"arcs":[64]},{"type":"LineString","properties":{"source":"naturalearthdata.com","kind":"minor_road","sort_rank":355,"kind_detail":"tertiary","min_zoom":5.0,"id":37636},"arcs":[65]},{"type":"LineString","properties":{"source":"naturalearthdata.com","kind":"minor_road","sort_rank":355,"kind_detail":"tertiary","min_zoom":5.0,"id":37812},"arcs":[66]},{"type":"LineString","properties":{"source":"naturalearthdata.com","kind":"minor_road","sort_rank":355,"kind_detail":"tertiary","min_zoom":5.0,"id":38044},"arcs":[67]}]},"earth":{"type":"GeometryCollection","geometries":[{"type":"MultiPolygon","properties":{"sort_rank":10,"source":"naturalearthdata.com","min_zoom":0.0,"kind":"earth","area":1539821383346},"arcs":[[[68]],[[69]],[[70]],[[71]],[[72]],[[73]],[[74]]]}]},"landuse":{"type":"GeometryCollection","geometries":[{"type":"Polygon","properties":{"source":"naturalearthdata.com","kind":"urban_area","name":"","area":286668128,"sort_rank":11,"min_zoom":4.0,"id":838},"arcs":[[75]]},{"type":"Polygon","properties":{"kind":"nature_reserve","name":"\u0645\u062d\u0645\u064a\u0629 \u062c\u0628\u0644 \u0633\u0645\u062d\u0627\u0646 \u0627\u0644\u0637\u0628\u064a\u0639\u064a\u0629","area":5347200000,"sort_rank":23,"source":"openstreetmap.org","min_zoom":4.0,"tier":2,"id":372822988},"arcs":[[76]]}]}},"type":"Topology","transform":{"translate":[45.0,11.1784018737],"scale":[0.002746582,0.0026280868]},"arcs":[[[2541,2974],[2,-6],[11,-24],[15,-36],[16,-37],[15,-37],[16,-37],[16,-36],[15,-37],[16,-37],[15,-37],[16,-36],[15,-37],[16,-37],[16,-37],[15,-36],[16,-37],[15,-37],[16,-37],[11,-27],[-2,0],[-1,0],[6,-4],[13,-1],[7,-2],[3,-5],[15,-32],[22,-51],[23,-52],[23,-52],[23,-51]],[[1434,0],[0,27]],[[2581,2989],[-40,-15]],[[3869,4096],[-10,-29],[-1,-6],[-3,-8],[-7,-21],[-10,-33],[-14,-43],[-16,-50],[-18,-57],[-19,-60],[-5,-15],[-15,-48],[-20,-62],[-19,-61],[-18,-56],[-16,-51],[-14,-43],[-10,-33],[-7,-21],[-2,-7],[-12,-37],[-55,-19],[-62,-22],[-62,-22],[-63,-21],[-62,-22],[-62,-22],[-63,-21],[-62,-22],[-62,-22],[-62,-21],[-63,-22],[-62,-22],[-62,-22],[-63,-21],[-62,-22],[-62,-22],[-63,-21]],[[775,2193],[12,2],[11,5],[44,26],[42,24],[0,1],[11,14],[24,67],[17,48],[7,11],[35,45],[54,68],[58,72],[33,41],[28,35],[8,6],[47,24],[63,32],[69,35],[63,32],[52,27],[16,8],[34,13],[47,6],[59,8],[58,9],[58,8],[59,8],[58,8],[58,8],[58,9],[59,8],[58,8],[58,8],[59,8],[58,9],[58,8],[59,8],[58,8],[58,8],[58,8]],[[0,2379],[60,-1],[21,-4],[59,-35],[17,-5],[77,-8],[90,-9],[69,-7],[89,-10]],[[623,2320],[13,-8],[24,-33],[27,-37],[30,-43],[5,-3],[5,0],[48,-3]],[[482,2300],[60,9],[81,11]],[[99,3074],[853,91],[47,13]],[[0,3082],[5,-2],[94,-6]],[[1119,4096],[-22,-169],[-98,-749]],[[884,2251],[115,927]],[[4096,2576],[0,-2576],[-1874,0],[-6,4],[-5,17],[2,16],[1,25],[2,6],[12,26],[2,9],[1,8],[0,3],[-2,6],[0,4],[1,3],[8,9],[13,16],[11,11],[6,11],[7,6],[3,11],[-3,18],[7,12],[4,16],[5,12],[-9,3],[-8,3],[-8,1],[-9,0],[-7,2],[-12,7],[-7,1],[-29,0],[-7,3],[-21,18],[-38,4],[-25,17],[-9,-1],[-4,-2],[-14,-3],[-15,-7],[-8,-2],[-2,0],[-3,2],[-2,0],[-2,-1],[-1,-2],[-2,-2],[-9,-5],[-5,0],[-5,-2],[-5,-5],[-8,-12],[-4,-7],[-2,-8],[-2,-9],[0,-8],[-2,-8],[-4,-7],[-11,-10],[-12,-14],[-7,-5],[-17,-3],[-30,-26],[-8,-5],[-15,-4],[-5,-2],[-2,-2],[-4,-2],[-13,0],[-4,-2],[-7,-6],[-21,-12],[-7,1],[-33,-1],[-1,0],[-1,1],[-3,1],[-3,0],[-2,-1],[-5,-3],[-1,-1],[-5,-1],[-6,-4],[-3,0],[-11,-9],[-17,-2],[-32,3],[-11,3],[-4,-1],[-3,-1],[-6,-3],[-2,-1],[-16,1],[-9,-1],[-6,-2],[-5,-7],[-9,-16],[-5,-3],[-7,-2],[-19,-11],[-6,-3],[-7,-1],[-23,-3],[-4,1],[-4,2],[-4,2],[-4,-3],[-5,-8],[-14,-7],[-48,-9],[-48,-9],[-14,-1],[-6,-1],[-7,0],[-5,1],[-32,11],[-14,9],[-14,5],[-25,6],[-7,-1],[-18,-4],[-24,1],[-5,-3],[-11,-6],[-12,-3],[-26,-3],[-11,-2],[-4,-3],[-5,-5],[-1,-2],[-1,-3],[-1,-3],[-2,-2],[-4,-2],[-7,-1],[-7,-2],[-3,0],[-6,0],[-4,-2],[-1,-2],[0,-3],[-7,-4],[-3,-3],[-236,0],[-7,3],[-12,2],[-19,-4],[-11,1],[-7,-1],[-2,-1],[-867,0],[0,604],[6,-2],[8,-2],[7,3],[2,5],[-2,16],[0,3],[9,23],[1,1],[1,7],[2,6],[0,1],[2,4],[2,3],[5,7],[13,11],[14,8],[63,16],[14,6],[11,11],[17,22],[5,14],[5,6],[10,7],[35,37],[12,6],[51,12],[4,3],[7,0],[15,0],[5,1],[12,5],[6,1],[63,3],[31,5],[10,3],[1,1],[2,2],[5,-1],[8,-5],[16,-3],[75,0],[8,2],[16,7],[7,2],[9,0],[13,-4],[7,-1],[6,1],[45,17],[32,22],[93,20],[84,26],[14,9],[47,42],[29,32],[8,6],[56,19],[17,9],[18,23],[5,3],[7,1],[19,6],[5,3],[33,-8],[10,-5],[2,3],[6,-4],[8,-4],[6,-6],[-2,-9],[42,12],[15,1],[-2,3],[-1,2],[29,0],[12,-2],[7,-9],[3,3],[3,1],[3,0],[4,2],[16,14],[6,2],[42,-1],[3,0],[3,0],[2,1],[4,4],[2,0],[7,5],[22,27],[13,6],[7,4],[3,11],[3,2],[3,2],[1,2],[0,9],[1,3],[1,3],[6,3],[7,1],[5,4],[2,9],[3,2],[15,6],[5,3],[1,3],[0,4],[0,4],[-3,2],[4,16],[7,14],[18,26],[5,5],[8,4],[8,1],[7,-2],[6,-3],[4,-1],[3,12],[14,11],[30,14],[15,10],[7,4],[16,3],[16,6],[43,24],[80,21],[52,18],[24,2],[5,2],[3,0],[2,-4],[3,-8],[3,0],[3,1],[7,2],[16,7],[9,2],[7,-3],[5,1],[23,16],[21,12],[15,3],[6,3],[27,23],[10,6],[34,15],[39,3],[69,20],[80,15],[72,20],[8,3],[9,6],[10,5],[9,-3],[6,3],[18,8],[4,0],[1,3],[3,1],[7,0],[9,11],[5,3],[7,4],[7,2],[38,4],[8,3],[0,2],[-3,4],[-2,8],[1,5],[5,5],[29,16],[18,4],[3,1],[4,3],[4,0],[3,-3],[2,-1],[3,-1],[2,-2],[1,1],[0,4],[0,1],[1,0],[1,0],[0,2],[0,8],[14,9],[29,12],[3,0],[6,1],[3,1],[2,2],[3,2],[3,3],[55,16],[8,1],[3,1],[2,2],[1,3],[0,3],[0,2],[2,3],[1,2],[-1,3],[-2,2],[-2,2],[-4,16],[-1,17],[3,27],[-1,5],[-12,7],[-5,5],[4,16],[-4,9],[-5,8],[-3,8],[2,6],[9,11],[3,15],[9,10],[2,7],[0,1],[-1,4],[-1,4],[0,4],[1,5],[3,4],[12,14],[6,13],[5,8],[10,10],[37,31],[41,29],[23,11],[51,13],[5,3],[14,8],[7,3],[15,3],[13,8],[9,3],[4,3],[7,7],[4,2],[4,0],[4,1],[4,4],[14,-4],[17,5],[7,4],[1,0],[31,16],[59,19],[31,5],[58,1],[12,3],[13,6],[6,4],[3,4],[4,7],[8,9],[9,7],[7,5],[7,-2],[7,3],[8,4],[6,2],[7,1],[22,5],[17,1],[9,1],[4,4],[1,3],[5,4],[1,4],[0,3],[-1,2],[0,3],[1,4],[4,3],[16,8],[7,1],[29,0],[67,8],[4,-1],[3,-1],[8,5],[9,0],[17,-5],[2,0],[8,4],[4,1],[4,0],[13,-3],[5,1],[7,1],[4,1],[5,-1],[10,-4],[15,-2],[4,-5],[2,-7],[3,-7],[3,3],[12,-8],[4,1],[7,-1],[4,2],[4,-4],[6,0],[12,4],[15,2],[7,3],[6,6],[5,-2],[5,1],[5,2],[6,1],[4,3],[5,6],[4,2],[3,-6],[3,0],[16,12],[15,17],[4,2],[3,5],[2,5],[2,4],[6,3],[11,3],[3,4],[-1,2],[4,6],[1,7],[1,3],[3,3],[3,2],[10,5],[2,2],[1,5],[0,3],[-3,1],[-2,2],[0,5],[0,5],[1,4],[15,20],[3,7],[-1,18],[-2,8],[-7,7],[-13,7],[-4,5],[-1,10],[1,9],[2,8],[11,18],[33,28],[5,6],[2,3],[5,15],[2,3],[5,7],[4,6],[5,15],[5,6],[3,2],[12,3],[1,0],[6,0],[3,1],[1,2],[2,2],[3,1],[8,0],[37,10],[93,4],[13,3],[24,10],[7,1],[31,-2],[8,1],[11,5],[8,1],[22,-3]],[[3017,361],[-7,1],[-7,-3],[5,-3],[6,0],[12,-1],[-1,3],[-4,1],[-4,2]],[[2933,361],[6,1],[5,2],[0,5],[-1,6],[-5,4],[-6,0],[-5,2],[-4,0],[-4,-2],[-5,1],[-5,-2],[-2,-3],[8,-3],[7,-6],[11,-5]],[[2669,368],[6,2],[5,1],[10,-2],[-3,7],[-3,2],[4,4],[4,2],[-2,4],[-5,1],[-20,-5],[-11,5],[-16,1],[-10,2],[-6,-1],[-8,3],[-12,8],[-10,3],[-9,0],[-6,-1],[-5,-2],[2,-5],[12,-6],[1,-1],[3,-2],[4,1],[4,1],[8,-3],[2,1],[1,-2],[4,-6],[1,-2],[4,1],[8,2],[2,0],[2,0],[4,-5],[2,-4],[16,-1],[17,-3]],[[3239,437],[16,3],[11,3],[6,-2],[8,-3],[8,7],[6,2],[6,-1],[17,1],[11,-1],[5,4],[11,8],[9,4],[3,3],[7,9],[3,4],[14,5],[16,-2],[15,6],[12,3],[16,7],[0,10],[4,3],[7,1],[8,3],[11,3],[5,5],[-5,3],[-4,0],[-7,-4],[-10,-2],[-18,12],[-7,2],[-15,9],[-15,3],[-12,6],[-6,2],[-4,6],[-8,2],[-7,0],[-2,3],[-4,5],[-2,1],[-4,-3],[-6,-1],[-8,5],[-5,4],[-5,4],[-9,0],[-4,-5],[-9,-6],[-5,-2],[-13,-8],[-13,1],[-12,-2],[-6,3],[-7,1],[-10,-2],[-4,-9],[-7,-10],[-14,4],[-17,4],[-25,19],[-14,14],[-9,-1],[-9,-1],[-11,1],[-20,4],[-7,0],[-4,-4],[-4,-6],[-3,-6],[-15,-2],[-7,-1],[-5,-3],[3,-22],[-2,-4],[-3,-7],[-1,-3],[-1,-1],[-8,-5],[-8,-1],[-9,3],[-4,-3],[1,-2],[9,-8],[38,-24],[15,-11],[10,-3],[5,-9],[6,-7],[6,-8],[7,-7],[17,-5],[20,-6],[21,-2],[16,2],[44,8]],[[3945,2402],[4,2],[11,0],[5,3],[-3,1],[-7,5],[-5,-2],[-4,-2],[-2,-3],[1,-4]],[[3995,2405],[5,-2],[16,-1],[6,1],[6,2],[12,8],[-6,1],[-4,4],[-4,4],[0,1],[-1,5],[-10,-4],[-13,-5],[-10,-6],[3,-8]],[[2222,0],[-6,4],[-5,17],[2,16],[1,25],[2,6],[12,26],[2,9],[1,8],[0,3],[-2,6],[0,4],[1,3],[8,9],[13,16],[11,11],[6,11],[7,6],[3,11],[-3,18],[7,12],[4,16],[5,12],[-9,3],[-8,3],[-8,1],[-9,0],[-7,2],[-12,7],[-7,1],[-29,0],[-7,3],[-21,18],[-38,4],[-25,17],[-9,-1],[-4,-2],[-14,-3],[-15,-7],[-8,-2],[-2,0],[-3,2],[-2,0],[-2,-1],[-1,-2],[-2,-2],[-9,-5],[-5,0],[-5,-2],[-5,-5],[-8,-12],[-4,-7],[-2,-8],[-2,-9],[0,-8],[-2,-8],[-4,-7],[-11,-10],[-12,-14],[-7,-5],[-17,-3],[-30,-26],[-8,-5],[-15,-4],[-5,-2],[-2,-2],[-4,-2],[-13,0],[-4,-2],[-7,-6],[-21,-12],[-7,1],[-33,-1],[-1,0],[-1,1],[-3,1],[-3,0],[-2,-1],[-5,-3],[-1,-1],[-5,-1],[-6,-4],[-3,0],[-11,-9],[-17,-2],[-32,3],[-11,3],[-4,-1],[-3,-1],[-6,-3],[-2,-1],[-16,1],[-9,-1],[-6,-2],[-5,-7],[-9,-16],[-5,-3],[-7,-2],[-19,-11],[-6,-3],[-7,-1],[-23,-3],[-4,1],[-4,2],[-4,2],[-4,-3],[-5,-8],[-14,-7],[-48,-9],[-48,-9],[-14,-1],[-6,-1],[-7,0],[-5,1],[-32,11],[-14,9],[-14,5],[-25,6],[-7,-1],[-18,-4],[-24,1],[-5,-3],[-11,-6],[-12,-3],[-26,-3],[-11,-2],[-4,-3],[-5,-5],[-1,-2],[-1,-3],[-1,-3],[-2,-2],[-4,-2],[-7,-1],[-7,-2],[-3,0],[-6,0],[-4,-2],[-1,-2],[0,-3],[-7,-4],[-3,-3]],[[925,0],[-7,3],[-12,2],[-19,-4],[-11,1],[-7,-1],[-2,-1]],[[0,629],[0,1],[3,4],[0,1],[0,2],[0,2],[3,0],[2,0],[0,-2],[-1,-1],[1,-2],[0,-1],[6,-8],[1,0],[-2,-7],[-7,0],[-6,0]],[[0,604],[6,-2],[8,-2],[7,3],[2,5],[-2,16],[0,3],[9,23],[1,1],[1,7],[2,6],[0,1],[2,4],[2,3],[5,7],[13,11],[14,8],[63,16],[14,6],[11,11],[17,22],[5,14],[5,6],[10,7],[35,37],[12,6],[51,12],[4,3],[7,0],[15,0],[5,1],[12,5],[6,1],[63,3],[31,5],[10,3],[1,1],[2,2],[5,-1],[8,-5],[16,-3],[75,0],[8,2],[16,7],[7,2],[9,0],[13,-4],[7,-1],[6,1],[45,17],[32,22],[93,20],[84,26],[14,9],[47,42],[29,32],[8,6],[56,19],[17,9],[18,23],[5,3],[7,1],[19,6],[5,3],[33,-8],[10,-5],[2,3],[6,-4],[8,-4],[6,-6],[-2,-9],[42,12],[15,1],[-2,3],[-1,2],[29,0],[12,-2],[7,-9],[3,3],[3,1],[3,0],[4,2],[16,14],[6,2],[42,-1],[3,0],[3,0],[2,1],[4,4],[2,0],[7,5],[22,27],[13,6],[7,4],[3,11],[3,2],[3,2],[1,2],[0,9],[1,3],[1,3],[6,3],[7,1],[5,4],[2,9],[3,2],[15,6],[5,3],[1,3],[0,4],[0,4],[-3,2],[4,16],[7,14],[18,26],[5,5],[8,4],[8,1],[7,-2],[6,-3],[4,-1],[3,12],[14,11],[30,14],[15,10],[7,4],[16,3],[16,6],[43,24],[80,21],[52,18],[24,2],[5,2],[3,0],[2,-4],[3,-8],[3,0],[3,1],[7,2],[16,7],[9,2],[7,-3],[5,1],[23,16],[21,12],[15,3],[6,3],[27,23],[10,6],[34,15],[39,3],[69,20],[80,15],[72,20],[8,3],[9,6],[10,5],[9,-3],[6,3],[18,8],[4,0],[1,3],[3,1],[7,0],[9,11],[5,3],[7,4],[7,2],[38,4],[8,3],[0,2],[-3,4],[-2,8],[1,5],[5,5],[29,16],[18,4],[3,1],[4,3],[4,0],[3,-3],[2,-1],[3,-1],[2,-2],[1,1],[0,4],[0,1],[1,0],[1,0],[0,2],[0,8],[14,9],[29,12],[3,0],[6,1],[3,1],[2,2],[3,2],[3,3],[55,16],[8,1],[3,1],[2,2],[1,3],[0,3],[0,2],[2,3],[1,2],[-1,3],[-2,2],[-2,2],[-4,16],[-1,17],[3,27],[-1,5],[-12,7],[-5,5],[4,16],[-4,9],[-5,8],[-3,8],[2,6],[9,11],[3,15],[9,10],[2,7],[0,1],[-1,4],[-1,4],[0,4],[1,5],[3,4],[12,14],[6,13],[5,8],[10,10],[37,31],[41,29],[23,11],[51,13],[5,3],[14,8],[7,3],[15,3],[13,8],[9,3],[4,3],[7,7],[4,2],[4,0],[4,1],[4,4],[14,-4],[17,5],[7,4],[1,0],[31,16],[59,19],[31,5],[58,1],[12,3],[13,6],[6,4],[3,4],[4,7],[8,9],[9,7],[7,5],[7,-2],[7,3],[8,4],[6,2],[7,1],[22,5],[17,1],[9,1],[4,4],[1,3],[5,4],[1,4],[0,3],[-1,2],[0,3],[1,4],[4,3],[16,8],[7,1],[29,0],[67,8],[4,-1],[3,-1],[8,5],[9,0],[17,-5],[2,0],[8,4],[4,1],[4,0],[13,-3],[5,1],[7,1],[4,1],[5,-1],[10,-4],[15,-2],[4,-5],[2,-7],[3,-7],[3,3],[12,-8],[4,1],[7,-1],[4,2],[4,-4],[6,0],[12,4],[15,2],[7,3],[6,6],[5,-2],[5,1],[5,2],[6,1],[4,3],[5,6],[4,2],[3,-6],[3,0],[16,12],[15,17],[4,2],[3,5],[2,5],[2,4],[6,3],[11,3],[3,4],[-1,2],[4,6],[1,7],[1,3],[3,3],[3,2],[10,5],[2,2],[1,5],[0,3],[-3,1],[-2,2],[0,5],[0,5],[1,4],[15,20],[3,7],[-1,18],[-2,8],[-7,7],[-13,7],[-4,5],[-1,10],[1,9],[2,8],[11,18],[33,28],[5,6],[2,3],[5,15],[2,3],[5,7],[4,6],[5,15],[5,6],[3,2],[12,3],[1,0],[6,0],[3,1],[1,2],[2,2],[3,1],[8,0],[37,10],[93,4],[13,3],[24,10],[7,1],[31,-2],[8,1],[11,5],[8,1],[22,-3]],[[2654,389],[-16,1],[-10,2],[-6,-1],[-8,3],[-12,8],[-10,3],[-9,0],[-6,-1],[-5,-2],[2,-5],[12,-6],[1,-1],[3,-2],[4,1],[4,1],[8,-3],[2,1],[1,-2],[4,-6],[1,-2],[4,1],[8,2],[2,0],[2,0],[4,-5],[2,-4],[16,-1],[17,-3],[6,2],[5,1],[10,-2],[-3,7],[-3,2],[4,4],[4,2],[-2,4],[-5,1],[-20,-5],[-11,5]],[[4025,2428],[-10,-4],[-13,-5],[-10,-6],[3,-8],[5,-2],[16,-1],[6,1],[6,2],[12,8],[-6,1],[-4,4],[-4,4],[0,1],[-1,5]],[[2932,379],[-5,2],[-4,0],[-4,-2],[-5,1],[-5,-2],[-2,-3],[8,-3],[7,-6],[11,-5],[6,1],[5,2],[0,5],[-1,6],[-5,4],[-6,0]],[[3003,359],[5,-3],[6,0],[12,-1],[-1,3],[-4,1],[-4,2],[-7,1],[-7,-3]],[[3945,2402],[4,2],[11,0],[5,3],[-3,1],[-7,5],[-5,-2],[-4,-2],[-2,-3],[1,-4]],[[3448,519],[-18,12],[-7,2],[-15,9],[-15,3],[-12,6],[-6,2],[-4,6],[-8,2],[-7,0],[-2,3],[-4,5],[-2,1],[-4,-3],[-6,-1],[-8,5],[-5,4],[-5,4],[-9,0],[-4,-5],[-9,-6],[-5,-2],[-13,-8],[-13,1],[-12,-2],[-6,3],[-7,1],[-10,-2],[-4,-9],[-7,-10],[-14,4],[-17,4],[-25,19],[-14,14],[-9,-1],[-9,-1],[-11,1],[-20,4],[-7,0],[-4,-4],[-4,-6],[-3,-6],[-15,-2],[-7,-1],[-5,-3],[3,-22],[-2,-4],[-3,-7],[-1,-3],[-1,-1],[-8,-5],[-8,-1],[-9,3],[-4,-3],[1,-2],[9,-8],[38,-24],[15,-11],[10,-3],[5,-9],[6,-7],[6,-8],[7,-7],[17,-5],[20,-6],[21,-2],[16,2],[44,8],[16,3],[11,3],[6,-2],[8,-3],[8,7],[6,2],[6,-1],[17,1],[11,-1],[5,4],[11,8],[9,4],[3,3],[7,9],[3,4],[14,5],[16,-2],[15,6],[12,3],[16,7],[0,10],[4,3],[7,1],[8,3],[11,3],[5,5],[-5,3],[-4,0],[-7,-4],[-10,-2]],[[549,4096],[-1,-1],[-4,-3],[-6,-8],[-15,-17],[-5,-8],[-9,-22],[-7,-13],[-17,-17],[-9,-17],[-3,-11],[-3,-6],[-6,-8],[-10,-16],[-8,-9],[-21,-21],[-27,-30],[-3,-9],[-4,-11],[-15,-24],[-3,-6],[-11,-19],[-13,-28],[-12,-22],[-5,-9],[-4,-10],[0,-17],[-3,-9],[-9,-15],[-14,-21],[-6,-10],[-6,-14],[-4,-13],[-8,-28],[-3,-11],[-7,-14],[-15,-17],[-8,-8],[-32,-27],[-7,-6]],[[206,3541],[-12,-11],[-12,-6],[-17,-7],[-10,-4],[-5,1],[-9,5],[-6,0],[-25,-8],[-27,-6]],[[4096,3334],[-8,-5],[-14,-6],[-3,-6],[-4,-21],[-2,-1]],[[4065,3295],[-9,-10],[-9,-17],[-9,-17],[-48,-11],[-19,-5],[-17,-6],[-19,-10],[-9,-4],[-11,-5],[-30,-5],[-22,-1],[-16,0],[-24,1],[-9,0],[-28,-1],[-14,3],[-15,9],[-21,-1],[-24,1],[-15,-6],[-21,-13],[-13,-6],[-17,-6],[-15,-3],[-10,0]],[[83,3505],[-21,-21],[-12,-11],[-3,-3],[-6,-23],[-5,-21],[-10,-31],[-3,-11],[0,-19],[1,-20],[2,-13],[3,-8],[12,-18],[7,-16],[2,-10],[0,-14],[-20,-45],[-1,-14],[0,-10],[3,-20],[1,-16],[-3,-14],[-6,-11],[-3,-6],[0,-13],[0,-25],[2,-20],[0,-16],[0,-9],[3,-8],[7,-19],[5,-9],[1,-13],[0,-46],[2,-17],[3,-33]],[[44,2902],[0,-9],[-5,-5],[-12,-9],[-21,-11],[-6,-7]],[[3621,3182],[-23,-5],[-13,-6],[-20,-18],[-7,-4],[-11,-3],[-24,0],[-9,-2],[-9,-3],[-4,-5],[0,-14],[0,-19],[-2,-17],[-4,-11],[-9,-13],[-12,-9],[-11,-6],[-22,-13],[-5,-3],[-21,-25],[-9,-14],[-15,-25],[-12,-26],[-11,-12],[-9,-9],[-9,-13],[-13,-11],[-15,-20],[-9,-16],[-5,-11],[-4,-13],[-3,-22],[-2,-37],[0,-13],[-1,-16],[0,-39],[0,-19],[0,-26],[-2,-13],[-7,-25],[-6,-27],[0,-18],[-2,-43],[-3,-11],[2,-12]],[[3280,2515],[7,-22],[8,-19],[1,-10]],[[401,2372],[-6,19],[-3,7],[-6,10],[-9,11],[-7,11],[-11,8],[-7,9],[-11,27],[-10,14],[-12,17],[-14,25],[-16,29],[-23,33],[-13,23],[-9,16],[-9,14],[-17,30],[-8,11],[-12,15],[-16,25],[-24,43],[-20,27],[-18,22],[-37,34],[-26,27],[-13,23]],[[401,2372],[17,0],[33,0],[33,3],[16,0],[36,-2],[14,2],[15,2],[13,6],[15,8],[11,7],[19,18],[17,14],[12,11],[7,3],[8,-2],[16,-7],[29,-15],[36,-23]],[[0,2432],[11,7],[19,2],[24,-3],[21,-3],[15,0],[11,0],[6,-4],[1,-6],[3,-14],[5,-20],[6,-14],[4,-5],[9,-3],[14,1],[30,-1],[30,0],[19,1],[29,-3],[12,-1],[33,0],[24,1],[32,3],[13,2],[15,0],[15,0]],[[3296,2464],[-4,-9],[0,-8],[6,-28],[3,-11],[-5,-16],[5,-11],[-2,-12],[2,-8],[6,-14],[3,-14],[0,-8],[-3,-11]],[[748,2397],[5,-8],[1,-17],[0,-17],[0,-11],[5,-24],[0,-13],[1,-20],[-1,-19],[0,-9],[3,-11],[4,-10],[6,-6]],[[3307,2314],[0,-7],[3,-6],[13,-16],[5,-10],[4,-7],[2,-6],[0,-8],[-5,-28]],[[3329,2226],[-16,0],[-8,-3]],[[3305,2223],[-7,-3],[-21,-11],[-3,-5],[0,-8]],[[1209,1744],[-1,-17],[-5,-8],[0,-6],[3,-13]],[[1206,1700],[2,-6],[6,-3],[7,-5],[5,-9],[10,-8],[3,-7],[5,-15],[7,-10],[5,-12],[7,-10],[8,-12],[3,-3],[7,-3],[3,-5],[3,-14],[6,-10],[8,-14],[9,-23],[-2,-24],[9,-6],[2,-10],[-2,-6],[3,-9],[5,-10],[16,-25],[9,-11]],[[1678,1364],[4,5],[14,-3],[30,8],[12,4],[21,4],[10,3],[33,17]],[[1678,1364],[-2,-3],[-9,-3],[-12,-6],[-12,-8],[-3,-2],[-12,-1],[-22,-7]],[[1350,1430],[5,-3],[9,3],[19,10],[32,17],[13,1],[18,0],[5,-4],[-2,-11],[6,-3],[2,-5],[-2,-8],[2,-2],[15,-6],[22,-15],[9,-5],[17,-5],[24,-3],[15,-6],[38,-19],[1,-3],[5,-10],[3,-19]],[[1606,1334],[-6,-3],[-10,-8],[-10,-1],[-5,-3],[-9,-10],[-13,-4],[-17,-8],[-16,-3]],[[1520,1294],[-6,-3],[-8,-8]],[[1506,1283],[-12,-7],[-9,-3],[-6,-4],[-12,-16],[-7,-17],[-6,-18],[-6,-8],[-5,-3],[-1,-8],[-6,-7],[-6,-13],[-8,-3],[-6,-3],[-4,-8],[-5,-9],[-6,-10],[-4,-5],[-14,-6],[-10,-12],[-12,-2],[-8,-6]],[[1005,1104],[-3,22],[-3,14],[-5,8],[-16,11],[-15,8],[-32,15],[-9,10],[-6,4],[-7,3],[-27,2],[-12,3],[-17,13],[-13,14],[-9,8],[-5,1],[-10,0],[-15,-3],[-15,-6],[-23,-8],[-4,-16],[-6,-12]],[[1353,1115],[-9,-8],[-10,-13],[-21,2],[-17,0],[-10,-5],[-12,-11],[-8,0],[-19,5],[-12,0],[-14,-2],[-19,0],[-23,-4],[-12,3],[-13,0],[-14,8],[-8,3],[-13,4],[-11,0],[-19,2],[-11,-2],[-7,-4],[-12,-8],[-17,3],[-9,-2],[-7,7],[-18,6],[-3,5]],[[753,1195],[1,-14],[5,-10],[0,-14],[-8,-22],[-9,-12],[-10,-10],[-18,-9],[-12,-11],[-5,-2],[-20,-1],[-25,-7],[-9,2],[-6,-5],[-9,-4],[-12,0]],[[616,1076],[-11,0],[-21,-10],[-6,-9],[-7,0],[-21,4],[-26,-1],[-25,-5],[-17,-3],[-25,-5],[-11,0],[-9,0],[-21,-8],[-3,0],[-9,2],[-6,5],[-15,-8],[-13,-10],[-14,-11],[-18,-15],[-15,-11]],[[323,991],[-9,-10],[-4,-9],[3,-17],[0,-7],[-9,-12],[-3,-8],[3,-14],[0,-8],[-9,-14],[-8,-6],[-7,-10],[-9,-6],[-6,-30],[-6,-8]],[[0,653],[2,-4]],[[259,832],[-2,-1],[-13,1],[-6,-3],[-8,-6],[-17,-19],[-16,-16],[-21,-22],[-8,-17],[-9,-3],[-13,2],[-9,-5],[-3,-8],[-2,-11],[-6,-8],[-28,-3],[-14,-3],[-19,-10],[-12,-7],[-9,-8],[-12,-14],[-5,-11],[-6,-25],[-3,-2]],[[2,649],[4,-10],[8,-6],[2,0]],[[16,633],[2,0]],[[18,633],[0,-6]],[[18,627],[0,-5]],[[1771,110],[1,-3],[6,-1],[15,4],[6,-9],[17,-14],[25,-22],[9,-3],[17,-16],[13,-8],[6,-5],[9,-3],[12,2],[11,3],[15,9],[6,0],[33,-11]],[[1176,0],[3,2],[12,5],[14,6],[19,6],[5,7],[12,6],[27,5],[21,6],[4,0],[12,3],[11,2],[18,-7],[33,-3],[25,-8],[24,-9],[26,0],[16,1],[11,4],[27,6],[10,1],[20,5]],[[1526,38],[0,-23],[-5,-11],[-4,-4]],[[1974,0],[2,21],[-4,12]],[[925,0],[-58,0],[2,1],[7,1],[11,-1],[19,4],[12,-2],[7,-3]],[[2222,0],[-1061,0],[3,3],[7,4],[0,3],[1,2],[4,2],[6,0],[3,0],[7,2],[7,1],[4,2],[2,2],[1,3],[1,3],[1,2],[5,5],[4,3],[11,2],[26,3],[12,3],[11,6],[5,3],[24,-1],[18,4],[7,1],[25,-6],[14,-5],[14,-9],[32,-11],[5,-1],[7,0],[6,1],[14,1],[48,9],[48,9],[14,7],[5,8],[4,3],[4,-2],[4,-2],[4,-1],[23,3],[7,1],[6,3],[19,11],[7,2],[5,3],[9,16],[5,7],[6,2],[9,1],[16,-1],[2,1],[6,3],[3,1],[4,1],[11,-3],[32,-3],[17,2],[11,9],[3,0],[6,4],[5,1],[1,1],[5,3],[2,1],[3,0],[3,-1],[1,-1],[1,0],[33,1],[7,-1],[21,12],[7,6],[4,2],[13,0],[4,2],[2,2],[5,2],[15,4],[8,5],[30,26],[17,3],[7,5],[12,14],[11,10],[4,7],[2,8],[0,8],[2,9],[2,8],[4,7],[8,12],[5,5],[5,2],[5,0],[9,5],[2,2],[1,2],[2,1],[2,0],[3,-2],[2,0],[8,2],[15,7],[14,3],[4,2],[9,1],[25,-17],[38,-4],[21,-18],[7,-3],[29,0],[7,-1],[12,-7],[7,-2],[9,0],[8,-1],[8,-3],[9,-3],[-5,-12],[-4,-16],[-7,-12],[3,-18],[-3,-11],[-7,-6],[-6,-11],[-11,-11],[-13,-16],[-8,-9],[-1,-3],[0,-4],[2,-6],[0,-3],[-1,-8],[-2,-9],[-12,-26],[-2,-6],[-1,-25],[-2,-16],[5,-17],[6,-4]],[[2614,394],[8,-3],[6,1],[10,-2],[16,-1],[11,-5],[20,5],[5,-1],[2,-4],[-4,-2],[-4,-4],[3,-2],[3,-7],[-10,2],[-5,-1],[-6,-2],[-17,3],[-16,1],[-2,4],[-4,5],[-2,0],[-2,0],[-8,-2],[-4,-1],[-1,2],[-4,6],[-1,2],[-2,-1],[-8,3],[-4,-1],[-4,-1],[-3,2],[-1,1],[-12,6],[-2,5],[5,2],[6,1],[9,0],[10,-3],[12,-8]],[[3122,580],[11,-1],[9,1],[9,1],[14,-14],[25,-19],[17,-4],[14,-4],[7,10],[4,9],[10,2],[7,-1],[6,-3],[12,2],[13,-1],[13,8],[5,2],[9,6],[4,5],[9,0],[5,-4],[5,-4],[8,-5],[6,1],[4,3],[2,-1],[4,-5],[2,-3],[7,0],[8,-2],[4,-6],[6,-2],[12,-6],[15,-3],[15,-9],[7,-2],[18,-12],[10,2],[7,4],[4,0],[5,-3],[-5,-5],[-11,-3],[-8,-3],[-7,-1],[-4,-3],[0,-10],[-16,-7],[-12,-3],[-15,-6],[-16,2],[-14,-5],[-3,-4],[-7,-9],[-3,-3],[-9,-4],[-11,-8],[-5,-4],[-11,1],[-17,-1],[-6,1],[-6,-2],[-8,-7],[-8,3],[-6,2],[-11,-3],[-16,-3],[-44,-8],[-16,-2],[-21,2],[-20,6],[-17,5],[-7,7],[-6,8],[-6,7],[-5,9],[-10,3],[-15,11],[-38,24],[-9,8],[-1,2],[4,3],[9,-3],[8,1],[8,5],[1,1],[1,3],[3,7],[2,4],[-3,22],[5,3],[7,1],[15,2],[3,6],[4,6],[4,4],[7,0],[20,-4]],[[2927,381],[5,-2],[6,0],[5,-4],[1,-6],[0,-5],[-5,-2],[-6,-1],[-11,5],[-7,6],[-8,3],[2,3],[5,2],[5,-1],[4,2],[4,0]],[[4022,2403],[-6,-1],[-16,1],[-5,2],[-3,8],[10,6],[13,5],[10,4],[1,-5],[0,-1],[4,-4],[4,-4],[6,-1],[-12,-8],[-6,-2]],[[4096,4096],[0,-1520],[-22,3],[-8,-1],[-11,-5],[-8,-1],[-31,2],[-7,-1],[-24,-10],[-13,-3],[-93,-4],[-37,-10],[-8,0],[-3,-1],[-2,-2],[-1,-2],[-3,-1],[-6,0],[-1,0],[-12,-3],[-3,-2],[-5,-6],[-5,-15],[-4,-6],[-5,-7],[-2,-3],[-5,-15],[-2,-3],[-5,-6],[-33,-28],[-11,-18],[-2,-8],[-1,-9],[1,-10],[4,-5],[13,-7],[7,-7],[2,-8],[1,-18],[-3,-7],[-15,-20],[-1,-4],[0,-5],[0,-5],[2,-2],[3,-1],[0,-3],[-1,-5],[-2,-2],[-10,-5],[-3,-2],[-3,-3],[-1,-3],[-1,-7],[-4,-6],[1,-2],[-3,-4],[-11,-3],[-6,-3],[-2,-4],[-2,-5],[-3,-5],[-4,-2],[-15,-17],[-16,-12],[-3,0],[-3,6],[-4,-2],[-5,-6],[-4,-3],[-6,-1],[-5,-2],[-5,-1],[-5,2],[-6,-6],[-7,-3],[-15,-2],[-12,-4],[-6,0],[-4,4],[-4,-2],[-7,1],[-4,-1],[-12,8],[-3,-3],[-3,7],[-2,7],[-4,5],[-15,2],[-10,4],[-5,1],[-4,-1],[-7,-1],[-5,-1],[-13,3],[-4,0],[-4,-1],[-8,-4],[-2,0],[-17,5],[-9,0],[-8,-5],[-3,1],[-4,1],[-67,-8],[-29,0],[-7,-1],[-16,-8],[-4,-3],[-1,-4],[0,-3],[1,-2],[0,-3],[-1,-4],[-5,-4],[-1,-3],[-4,-4],[-9,-1],[-17,-1],[-22,-5],[-7,-1],[-6,-2],[-8,-4],[-7,-3],[-7,2],[-7,-5],[-9,-7],[-8,-9],[-4,-7],[-3,-4],[-6,-4],[-13,-6],[-12,-3],[-58,-1],[-31,-5],[-59,-19],[-31,-16],[-1,0],[-7,-4],[-17,-5],[-14,4],[-4,-4],[-4,-1],[-4,0],[-4,-2],[-7,-7],[-4,-3],[-9,-3],[-13,-8],[-15,-3],[-7,-3],[-14,-8],[-5,-3],[-51,-13],[-23,-11],[-41,-29],[-37,-31],[-10,-10],[-5,-8],[-6,-13],[-12,-14],[-3,-4],[-1,-5],[0,-4],[1,-4],[1,-4],[0,-1],[-2,-7],[-9,-10],[-3,-15],[-9,-11],[-2,-6],[3,-8],[5,-8],[4,-9],[-4,-16],[5,-5],[12,-7],[1,-5],[-3,-27],[1,-17],[4,-16],[2,-2],[2,-2],[1,-3],[-1,-2],[-2,-3],[0,-2],[0,-3],[-1,-3],[-2,-2],[-3,-1],[-8,-1],[-55,-16],[-3,-3],[-3,-2],[-2,-2],[-3,-1],[-6,-1],[-3,0],[-29,-12],[-14,-9],[0,-8],[0,-2],[-1,0],[-1,0],[0,-1],[0,-4],[-1,-1],[-2,2],[-3,1],[-2,1],[-3,3],[-4,0],[-4,-3],[-3,-1],[-18,-4],[-29,-16],[-5,-5],[-1,-5],[2,-8],[3,-4],[0,-2],[-8,-3],[-38,-4],[-7,-2],[-7,-4],[-5,-3],[-9,-11],[-7,0],[-3,-1],[-1,-3],[-4,0],[-18,-8],[-6,-3],[-9,3],[-10,-5],[-9,-6],[-8,-3],[-72,-20],[-80,-15],[-69,-20],[-39,-3],[-34,-15],[-10,-6],[-27,-23],[-6,-3],[-15,-3],[-21,-12],[-23,-16],[-5,-1],[-7,3],[-9,-2],[-16,-7],[-7,-2],[-3,-1],[-3,0],[-3,8],[-2,4],[-3,0],[-5,-2],[-16,-1],[-8,-1],[-52,-18],[-80,-21],[-43,-24],[-16,-6],[-16,-3],[-7,-4],[-15,-10],[-30,-14],[-14,-11],[-3,-12],[-4,1],[-6,3],[-7,2],[-8,-1],[-8,-4],[-5,-5],[-18,-26],[-7,-14],[-4,-16],[3,-2],[0,-4],[0,-4],[-1,-3],[-5,-3],[-15,-6],[-3,-2],[-2,-9],[-5,-4],[-7,-1],[-6,-3],[-1,-3],[-1,-3],[0,-9],[-1,-2],[-3,-2],[-3,-2],[-3,-11],[-7,-4],[-13,-6],[-22,-27],[-7,-5],[-2,0],[-4,-4],[-2,-1],[-3,0],[-3,0],[-42,1],[-6,-2],[-16,-14],[-4,-2],[-3,0],[-3,-1],[-3,-3],[-7,9],[-12,2],[-29,0],[1,-2],[2,-3],[-15,-1],[-42,-12],[2,9],[-6,6],[-8,4],[-6,4],[-2,-3],[-10,5],[-33,8],[-5,-3],[-19,-6],[-7,-1],[-5,-3],[-18,-23],[-17,-9],[-56,-19],[-8,-6],[-29,-32],[-47,-42],[-14,-9],[-84,-26],[-93,-20],[-32,-22],[-45,-17],[-6,-1],[-7,1],[-13,4],[-9,0],[-7,-2],[-16,-7],[-8,-2],[-75,0],[-16,3],[-8,5],[-5,1],[-2,-2],[-1,-1],[-10,-3],[-31,-5],[-63,-3],[-6,-1],[-12,-5],[-5,-1],[-15,0],[-7,0],[-4,-3],[-51,-12],[-12,-6],[-35,-37],[-10,-7],[-5,-6],[-5,-14],[-17,-22],[-11,-11],[-14,-6],[-63,-16],[-14,-8],[-13,-11],[-5,-7],[-2,-3],[-2,-4],[0,-1],[-2,-6],[-1,-7],[-1,-1],[-9,-23],[0,-3],[2,-16],[-2,-5],[-7,-3],[-8,2],[-6,2],[0,14],[6,0],[7,0],[2,7],[-1,0],[-6,8],[0,1],[-1,2],[1,1],[0,2],[-2,0],[-3,0],[0,-2],[0,-2],[0,-1],[-3,-4],[0,-1],[0,2241],[0,1226],[1807,0],[2289,0]],[[14,623],[-14,-3],[0,56],[22,-19],[-8,-34]],[[3471,2443],[115,58],[215,25],[-58,-217],[-191,-44],[-81,178]]]}