{"objects":{"water":{"type":"GeometryCollection","geometries":[{"type":"MultiPolygon","properties":{"source":"naturalearthdata.com","kind":"ocean","area":1576712559132672,"sort_rank":200,"min_zoom":0.0,"id":1},"arcs":[[[9],[10]],[[11]],[[12]]]},{"type":"MultiLineString","properties":{"source":"naturalearthdata.com","kind":"ocean","sort_rank":205,"boundary":true,"min_zoom":0.0,"id":24},"arcs":[[13],[14],[15]]},{"type":"MultiLineString","properties":{"source":"naturalearthdata.com","kind":"ocean","sort_rank":205,"boundary":true,"min_zoom":0.0,"id":1830},"arcs":[[16],[17]]}]},"buildings":{"type":"GeometryCollection","geometries":[]},"places":{"type":"GeometryCollection","geometries":[{"type":"Point","properties":{"kind":"locality","name:en":"Kanoya","name":"\u9e7f\u5c4b\u5e02","kind_detail":"city","min_zoom":8.0,"source":"openstreetmap.org","name:fr":"Kanoya","name:uk":"\u041a\u0430\u043d\u043e\u044f","name:ru":"\u041a\u0430\u043d\u043e\u044f","name:pl":"Kanoya","population":103774,"id":739243910,"name:ja":"Kanoya-shi"},"coordinates":[221,2183]}]},"transit":{"type":"GeometryCollection","geometries":[]},"pois":{"type":"GeometryCollection","geometries":[]},"boundaries":{"type":"GeometryCollection","geometries":[{"type":"LineString","properties":{"name:ty":"T\u0101p\u014dn\u0113","name:ka":"\u10d8\u10d0\u10de\u10dd\u10dc\u10d8\u10d0","name:ko":"\uc77c\ubcf8","name:cv":"\u042f\u043f\u043e\u043d\u0438","name:cu":"\ua656\u043f\u0461\u043d\u0457\ua657","name:kl":"Japani","name:cs":"Japonsko","name:tw":"Yapan","name:ki":"Japan","name:kw":"Nihon","name:kv":"\u042f\u043f\u043e\u043d\u0438\u044f","name:th":"\u0e1b\u0e23\u0e30\u0e40\u0e17\u0e28\u0e0d\u0e35\u0e48\u0e1b\u0e38\u0e48\u0e19","name:ti":"\u1303\u1353\u1295","name:tl":"Hapon","name:ch":"Chapan","name:ce":"\u042f\u043f\u043e\u043d\u0438","name:ta":"\u0b9c\u0baa\u0bcd\u0baa\u0bbe\u0ba9\u0bcd","name:tg":"\u0416\u043e\u043f\u0443\u043d","name:ca":"Jap\u00f3","name:te":"\u0c1c\u0c2a\u0c3e\u0c28\u0c4d","name:cy":"Japan","name:qu":"Nihun","name:da":"Japan","name:de":"Japan","name:dz":"\u0f47\u0f71\u0f0b\u0f54\u0f71\u0f53\u0f0d","source":"openstreetmap.org","name:kn":"\u0c9c\u0caa\u0cbe\u0ca8\u0ccd","name:dv":"\u0796\u07a6\u0795\u07a7\u0782\u07aa","name:km":"\u1787\u1794\u17c9\u17bb\u1793","name:lv":"Jap\u0101na","name:lt":"Japonija","name:uz":"Yaponiya","name:kk":"\u0416\u0430\u043f\u043e\u043d\u0438\u044f","name:ur":"\u062c\u0627\u067e\u0627\u0646","name:lb":"Japan","name:la":"Iaponia","name:tt":"\u042f\u043f\u043e\u043d\u0438\u044f","name:uk":"\u042f\u043f\u043e\u043d\u0456\u044f","name:ug":"\u064a\u0627\u067e\u0648\u0646\u0649\u064a\u06d5","name:li":"Japan","name:ln":"Zap\u0254\u0301","name:lo":"\u0e9b\u0eb0\u0ec0\u0e97\u0e94\u0e8d\u0eb5\u0ec8\u0e9b\u0eb8\u0ec8\u0e99","name:el":"\u0399\u03b1\u03c0\u03c9\u03bd\u03af\u03b1","name:eo":"Japanujo","name:en":"Japan","name":"\u65e5\u672c","name:tk":"\u00ddaponi\u00fda","name:ee":"Japan","name:ku":"Japon","name:eu":"Japonia","name:et":"Jaapan","name:es":"Jap\u00f3n","name:ay":"Nihun","name:rm":"Giapun","name:az":"Yaponiya","name:ie":"Japan","name:id":"Jepang","name:ar":"\u0627\u0644\u064a\u0627\u0628\u0627\u0646","name:io":"Japonia","name:is":"Japan","name:am":"\u1303\u1353\u1295","name:it":"Giappone","name:an":"Chap\u00f3n","name:ru":"\u042f\u043f\u043e\u043d\u0438\u044f","name:ab":"\u0418\u0430\u043f\u043e\u043d\u0438\u0430","name:af":"Japan","name:zu":"IJapani","kind_detail":"2","name:za":"Nditbonj","name:so":"Jabaan","name:sm":"Iapani","name:sl":"Japonska","name:sk":"Japonsko","name:ja":"Nippon","name:si":"\u0da2\u0db4\u0dcf\u0db1\u0dba","name:sh":"Japan","name:se":"J\u00e1hpan","name:sd":"\u062c\u0627\u067e\u0627\u0646","name:sc":"Giappone","name:br":"Japan","name:bs":"Japan","name:bn":"\u099c\u09be\u09aa\u09be\u09a8","name:bo":"\u0f62\u0f72\u0f0b\u0f54\u0f72\u0f53\u0f0d","name:sa":"\u0938\u0942\u0930\u094d\u092f\u092e\u0942\u0932","name:sw":"Japani","name:be":"\u042f\u043f\u043e\u043d\u0456\u044f","name:su":"Jepang","name:bg":"\u042f\u043f\u043e\u043d\u0438\u044f","name:ss":"IJaphani","name:ba":"\u042f\u043f\u043e\u043d\u0438\u044f","name:sq":"Japonia","name:jv":"Jepang","name:ia":"Japon","name:pt":"Jap\u00e3o","name:ps":"\u062c\u0627\u067e\u0627\u0646","name:om":"Jaappaan","name:oc":"Japon","min_zoom":8.0,"name:ro":"Japonia","name:zh-min-nan":"Ji\u030dt-p\u00fan","name:os":"\u042f\u043f\u043e\u043d","name:or":"\u0b1c\u0b3e\u0b2a\u0b3e\u0b28","name:pl":"Japonia","sort_rank":262,"name:sr":"\u0408\u0430\u043f\u0430\u043d","osm_relation":true,"name:pa":"\u0a1c\u0a2a\u0a3e\u0a28","name:tr":"Japonya","name:hi":"\u091c\u093e\u092a\u093e\u0928","name:sv":"Japan","name:he":"\u05d9\u05e4\u05df","name:ha":"Japan","name:hy":"\u0543\u0561\u057a\u0578\u0576\u056b\u0561","name:ht":"Japon","name:hu":"Jap\u00e1n","name:hr":"Japan","kind":"country","name:yi":"\u05d9\u05d0\u05e4\u05d0\u05df","name:iu":"\u14c3\u1449\u140a\u14d0","name:yo":"Japan","name:mt":"\u0120appun","alt_name:eo":"Japanio","name:ms":"Jepun","name:mr":"\u091c\u092a\u093e\u0928","name:my":"\u1002\u103b\u1015\u1014\u103a\u1014\u102d\u102f\u1004\u103a\u1004\u1036","name:mg":"Japana","name:vi":"Nh\u1eadt B\u1ea3n","name:ml":"\u0d1c\u0d2a\u0d4d\u0d2a\u0d3e\u0d7b","name:mn":"\u042f\u043f\u043e\u043d","name:mi":"Nipono","id":-382313,"name:mk":"\u0408\u0430\u043f\u043e\u043d\u0438\u0458\u0430","name:vo":"Yap\u00e4n","name:fa":"\u0698\u0627\u067e\u0646","name:rw":"Ubuyapani","name:fi":"Japani","name:ky":"\u0416\u0430\u043f\u043e\u043d\u0438\u044f","old_name:vi":"Nh\u1eadt B\u1ed5n","name:fo":"Japan","alt_name:vi":"Nh\u1eadt","name:fr":"Japon","name:fy":"Japan","name:nl":"Japan","name:nn":"Japan","name:no":"Japan","name:na":"Djapan","name:ne":"\u091c\u093e\u092a\u093e\u0928","name:wo":"Sapo\u014b","name:nv":"Bina\u02bcadaa\u0142tz\u00f3z\u00ed Din\u00e9\u02bci\u02bc Bik\u00e9yah","name:ga":"An tSeap\u00e1in","name:gd":"An t-Seapan","name:gn":"Hap\u00f5","name:gl":"Xap\u00f3n","maritime_boundary":true,"name:gv":"Yn \u00c7hapaan","name:gu":"\u0a9c\u0abe\u0aaa\u0abe\u0aa8"},"arcs":[0]},{"type":"LineString","properties":{"name:ty":"T\u0101p\u014dn\u0113","name:ka":"\u10d8\u10d0\u10de\u10dd\u10dc\u10d8\u10d0","name:ko":"\uc77c\ubcf8","name:cv":"\u042f\u043f\u043e\u043d\u0438","name:cu":"\ua656\u043f\u0461\u043d\u0457\ua657","name:kl":"Japani","name:cs":"Japonsko","name:tw":"Yapan","name:ki":"Japan","name:kw":"Nihon","name:kv":"\u042f\u043f\u043e\u043d\u0438\u044f","name:th":"\u0e1b\u0e23\u0e30\u0e40\u0e17\u0e28\u0e0d\u0e35\u0e48\u0e1b\u0e38\u0e48\u0e19","name:ti":"\u1303\u1353\u1295","name:tl":"Hapon","name:ch":"Chapan","name:ce":"\u042f\u043f\u043e\u043d\u0438","name:ta":"\u0b9c\u0baa\u0bcd\u0baa\u0bbe\u0ba9\u0bcd","name:tg":"\u0416\u043e\u043f\u0443\u043d","name:ca":"Jap\u00f3","name:te":"\u0c1c\u0c2a\u0c3e\u0c28\u0c4d","name:cy":"Japan","name:hr":"Japan","name:da":"Japan","name:de":"Japan","name:dz":"\u0f47\u0f71\u0f0b\u0f54\u0f71\u0f53\u0f0d","source":"openstreetmap.org","name:kn":"\u0c9c\u0caa\u0cbe\u0ca8\u0ccd","name:dv":"\u0796\u07a6\u0795\u07a7\u0782\u07aa","name:km":"\u1787\u1794\u17c9\u17bb\u1793","name:lv":"Jap\u0101na","name:lt":"Japonija","name:uz":"Yaponiya","name:kk":"\u0416\u0430\u043f\u043e\u043d\u0438\u044f","name:ur":"\u062c\u0627\u067e\u0627\u0646","name:lb":"Japan","name:la":"Iaponia","name:tt":"\u042f\u043f\u043e\u043d\u0438\u044f","name:uk":"\u042f\u043f\u043e\u043d\u0456\u044f","name:ug":"\u064a\u0627\u067e\u0648\u0646\u0649\u064a\u06d5","name:li":"Japan","name:ln":"Zap\u0254\u0301","name:lo":"\u0e9b\u0eb0\u0ec0\u0e97\u0e94\u0e8d\u0eb5\u0ec8\u0e9b\u0eb8\u0ec8\u0e99","name:el":"\u0399\u03b1\u03c0\u03c9\u03bd\u03af\u03b1","name:eo":"Japanujo","name:en":"Japan","name":"\u65e5\u672c","name:tk":"\u00ddaponi\u00fda","name:ee":"Japan","name:ku":"Japon","name:eu":"Japonia","name:et":"Jaapan","name:es":"Jap\u00f3n","name:ay":"Nihun","name:rm":"Giapun","name:az":"Yaponiya","name:ie":"Japan","name:id":"Jepang","name:ar":"\u0627\u0644\u064a\u0627\u0628\u0627\u0646","name:io":"Japonia","name:is":"Japan","name:am":"\u1303\u1353\u1295","name:it":"Giappone","name:an":"Chap\u00f3n","name:ru":"\u042f\u043f\u043e\u043d\u0438\u044f","name:ab":"\u0418\u0430\u043f\u043e\u043d\u0438\u0430","name:af":"Japan","name:zu":"IJapani","kind_detail":"2","name:za":"Nditbonj","name:so":"Jabaan","name:sm":"Iapani","name:sl":"Japonska","name:sk":"Japonsko","name:ja":"Nippon","name:si":"\u0da2\u0db4\u0dcf\u0db1\u0dba","name:sh":"Japan","name:se":"J\u00e1hpan","name:sd":"\u062c\u0627\u067e\u0627\u0646","name:sc":"Giappone","name:br":"Japan","name:bs":"Japan","name:bn":"\u099c\u09be\u09aa\u09be\u09a8","name:bo":"\u0f62\u0f72\u0f0b\u0f54\u0f72\u0f53\u0f0d","name:sa":"\u0938\u0942\u0930\u094d\u092f\u092e\u0942\u0932","name:sw":"Japani","name:be":"\u042f\u043f\u043e\u043d\u0456\u044f","name:su":"Jepang","name:bg":"\u042f\u043f\u043e\u043d\u0438\u044f","name:ss":"IJaphani","name:ba":"\u042f\u043f\u043e\u043d\u0438\u044f","name:sq":"Japonia","name:jv":"Jepang","name:ia":"Japon","name:pt":"Jap\u00e3o","name:ps":"\u062c\u0627\u067e\u0627\u0646","name:om":"Jaappaan","name:oc":"Japon","min_zoom":8.0,"name:ro":"Japonia","name:zh-min-nan":"Ji\u030dt-p\u00fan","name:os":"\u042f\u043f\u043e\u043d","name:or":"\u0b1c\u0b3e\u0b2a\u0b3e\u0b28","name:pl":"Japonia","sort_rank":262,"name:sr":"\u0408\u0430\u043f\u0430\u043d","osm_relation":true,"name:pa":"\u0a1c\u0a2a\u0a3e\u0a28","name:tr":"Japonya","name:hi":"\u091c\u093e\u092a\u093e\u0928","name:sv":"Japan","name:he":"\u05d9\u05e4\u05df","name:ha":"Japan","name:hy":"\u0543\u0561\u057a\u0578\u0576\u056b\u0561","name:ht":"Japon","name:hu":"Jap\u00e1n","name:qu":"Nihun","kind":"country","name:yi":"\u05d9\u05d0\u05e4\u05d0\u05df","name:iu":"\u14c3\u1449\u140a\u14d0","name:yo":"Japan","name:mt":"\u0120appun","alt_name:eo":"Japanio","name:ms":"Jepun","name:mr":"\u091c\u092a\u093e\u0928","name:my":"\u1002\u103b\u1015\u1014\u103a\u1014\u102d\u102f\u1004\u103a\u1004\u1036","name:mg":"Japana","name:ml":"\u0d1c\u0d2a\u0d4d\u0d2a\u0d3e\u0d7b","name:vi":"Nh\u1eadt B\u1ea3n","name:mn":"\u042f\u043f\u043e\u043d","name:mi":"Nipono","id":-382313,"name:mk":"\u0408\u0430\u043f\u043e\u043d\u0438\u0458\u0430","name:vo":"Yap\u00e4n","name:fa":"\u0698\u0627\u067e\u0646","name:rw":"Ubuyapani","name:fi":"Japani","name:ky":"\u0416\u0430\u043f\u043e\u043d\u0438\u044f","old_name:vi":"Nh\u1eadt B\u1ed5n","name:fo":"Japan","alt_name:vi":"Nh\u1eadt","name:fr":"Japon","name:fy":"Japan","name:nl":"Japan","name:nn":"Japan","name:no":"Japan","name:na":"Djapan","name:ne":"\u091c\u093e\u092a\u093e\u0928","name:wo":"Sapo\u014b","name:nv":"Bina\u02bcadaa\u0142tz\u00f3z\u00ed Din\u00e9\u02bci\u02bc Bik\u00e9yah","name:ga":"An tSeap\u00e1in","name:gd":"An t-Seapan","name:gn":"Hap\u00f5","name:gl":"Xap\u00f3n","name:gv":"Yn \u00c7hapaan","name:gu":"\u0a9c\u0abe\u0aaa\u0abe\u0aa8"},"arcs":[1]},{"type":"MultiLineString","properties":{"name:ty":"T\u0101p\u014dn\u0113","name:ka":"\u10d8\u10d0\u10de\u10dd\u10dc\u10d8\u10d0","name:ko":"\uc77c\ubcf8","name:cv":"\u042f\u043f\u043e\u043d\u0438","name:cu":"\ua656\u043f\u0461\u043d\u0457\ua657","name:kl":"Japani","name:cs":"Japonsko","name:tw":"Yapan","name:ki":"Japan","name:kw":"Nihon","name:kv":"\u042f\u043f\u043e\u043d\u0438\u044f","name:th":"\u0e1b\u0e23\u0e30\u0e40\u0e17\u0e28\u0e0d\u0e35\u0e48\u0e1b\u0e38\u0e48\u0e19","name:ti":"\u1303\u1353\u1295","name:tl":"Hapon","name:ch":"Chapan","name:ce":"\u042f\u043f\u043e\u043d\u0438","name:ta":"\u0b9c\u0baa\u0bcd\u0baa\u0bbe\u0ba9\u0bcd","name:tg":"\u0416\u043e\u043f\u0443\u043d","name:ca":"Jap\u00f3","name:te":"\u0c1c\u0c2a\u0c3e\u0c28\u0c4d","name:cy":"Japan","name:qu":"Nihun","name:da":"Japan","name:de":"Japan","name:dz":"\u0f47\u0f71\u0f0b\u0f54\u0f71\u0f53\u0f0d","source":"openstreetmap.org","name:kn":"\u0c9c\u0caa\u0cbe\u0ca8\u0ccd","name:dv":"\u0796\u07a6\u0795\u07a7\u0782\u07aa","name:km":"\u1787\u1794\u17c9\u17bb\u1793","name:lv":"Jap\u0101na","name:lt":"Japonija","name:uz":"Yaponiya","name:kk":"\u0416\u0430\u043f\u043e\u043d\u0438\u044f","name:ur":"\u062c\u0627\u067e\u0627\u0646","name:lb":"Japan","name:la":"Iaponia","name:tt":"\u042f\u043f\u043e\u043d\u0438\u044f","name:uk":"\u042f\u043f\u043e\u043d\u0456\u044f","name:ug":"\u064a\u0627\u067e\u0648\u0646\u0649\u064a\u06d5","name:li":"Japan","name:ln":"Zap\u0254\u0301","name:lo":"\u0e9b\u0eb0\u0ec0\u0e97\u0e94\u0e8d\u0eb5\u0ec8\u0e9b\u0eb8\u0ec8\u0e99","name:el":"\u0399\u03b1\u03c0\u03c9\u03bd\u03af\u03b1","name:eo":"Japanujo","name:en":"Japan","name":"\u65e5\u672c","name:tk":"\u00ddaponi\u00fda","name:ee":"Japan","name:ku":"Japon","name:eu":"Japonia","name:et":"Jaapan","name:es":"Jap\u00f3n","name:ay":"Nihun","name:rm":"Giapun","name:az":"Yaponiya","name:ie":"Japan","name:id":"Jepang","name:ar":"\u0627\u0644\u064a\u0627\u0628\u0627\u0646","name:io":"Japonia","name:is":"Japan","name:am":"\u1303\u1353\u1295","name:it":"Giappone","name:an":"Chap\u00f3n","name:ru":"\u042f\u043f\u043e\u043d\u0438\u044f","name:ab":"\u0418\u0430\u043f\u043e\u043d\u0438\u0430","name:af":"Japan","name:zu":"IJapani","kind_detail":"2","name:za":"Nditbonj","name:so":"Jabaan","name:sm":"Iapani","name:sl":"Japonska","name:sk":"Japonsko","name:ja":"Nippon","name:si":"\u0da2\u0db4\u0dcf\u0db1\u0dba","name:sh":"Japan","name:se":"J\u00e1hpan","name:sd":"\u062c\u0627\u067e\u0627\u0646","name:sc":"Giappone","name:br":"Japan","name:bs":"Japan","name:bn":"\u099c\u09be\u09aa\u09be\u09a8","name:bo":"\u0f62\u0f72\u0f0b\u0f54\u0f72\u0f53\u0f0d","name:sa":"\u0938\u0942\u0930\u094d\u092f\u092e\u0942\u0932","name:sw":"Japani","name:be":"\u042f\u043f\u043e\u043d\u0456\u044f","name:su":"Jepang","name:bg":"\u042f\u043f\u043e\u043d\u0438\u044f","name:ss":"IJaphani","name:ba":"\u042f\u043f\u043e\u043d\u0438\u044f","name:sq":"Japonia","name:jv":"Jepang","name:ia":"Japon","name:pt":"Jap\u00e3o","name:ps":"\u062c\u0627\u067e\u0627\u0646","name:om":"Jaappaan","name:oc":"Japon","min_zoom":8.0,"name:ro":"Japonia","name:zh-min-nan":"Ji\u030dt-p\u00fan","name:os":"\u042f\u043f\u043e\u043d","name:or":"\u0b1c\u0b3e\u0b2a\u0b3e\u0b28","name:pl":"Japonia","sort_rank":262,"name:sr":"\u0408\u0430\u043f\u0430\u043d","osm_relation":true,"name:pa":"\u0a1c\u0a2a\u0a3e\u0a28","name:tr":"Japonya","name:hi":"\u091c\u093e\u092a\u093e\u0928","name:sv":"Japan","name:he":"\u05d9\u05e4\u05df","name:ha":"Japan","name:hy":"\u0543\u0561\u057a\u0578\u0576\u056b\u0561","name:ht":"Japon","name:hu":"Jap\u00e1n","name:hr":"Japan","kind":"country","name:yi":"\u05d9\u05d0\u05e4\u05d0\u05df","name:iu":"\u14c3\u1449\u140a\u14d0","name:yo":"Japan","name:mt":"\u0120appun","alt_name:eo":"Japanio","name:ms":"Jepun","name:mr":"\u091c\u092a\u093e\u0928","name:my":"\u1002\u103b\u1015\u1014\u103a\u1014\u102d\u102f\u1004\u103a\u1004\u1036","name:mg":"Japana","name:vi":"Nh\u1eadt B\u1ea3n","name:ml":"\u0d1c\u0d2a\u0d4d\u0d2a\u0d3e\u0d7b","name:mn":"\u042f\u043f\u043e\u043d","name:mi":"Nipono","id":-382313,"name:mk":"\u0408\u0430\u043f\u043e\u043d\u0438\u0458\u0430","name:vo":"Yap\u00e4n","name:fa":"\u0698\u0627\u067e\u0646","name:rw":"Ubuyapani","name:fi":"Japani","name:ky":"\u0416\u0430\u043f\u043e\u043d\u0438\u044f","old_name:vi":"Nh\u1eadt B\u1ed5n","name:fo":"Japan","alt_name:vi":"Nh\u1eadt","name:fr":"Japon","name:fy":"Japan","name:nl":"Japan","name:nn":"Japan","name:no":"Japan","name:na":"Djapan","name:ne":"\u091c\u093e\u092a\u093e\u0928","name:wo":"Sapo\u014b","name:nv":"Bina\u02bcadaa\u0142tz\u00f3z\u00ed Din\u00e9\u02bci\u02bc Bik\u00e9yah","name:ga":"An tSeap\u00e1in","name:gd":"An t-Seapan","name:gn":"Hap\u00f5","name:gl":"Xap\u00f3n","maritime_boundary":true,"name:gv":"Yn \u00c7hapaan","name:gu":"\u0a9c\u0abe\u0aaa\u0abe\u0aa8"},"arcs":[[2],[3]]},{"type":"LineString","properties":{"name:ja":"Kagoshima-Ken","name:eo":"Kago\u015dimo","min_zoom":8.0,"name:uk":"\u041f\u0440\u0435\u0444\u0435\u043a\u0442\u0443\u0440\u0430 \u041a\u0430\u0491\u043e\u0448\u0456\u043c\u0430","name:ru":"\u041a\u0430\u0433\u043e\u0441\u0438\u043c\u0430","name:pl":"Prefektura Kagoshima","id":-1842186,"osm_relation":true,"kind":"region","name:en":"Kagoshima Prefecture","name":"\u9e7f\u5150\u5cf6\u770c","sort_rank":256,"kind_detail":"4","name:de":"Kagoshima","source":"openstreetmap.org","maritime_boundary":true},"arcs":[4]},{"type":"LineString","properties":{"name:right:ja":"Miyazaki-ken","name:right:fr":"Pr\u00e9fecture de Miyazaki","name:right:uk":"\u041f\u0440\u0435\u0444\u0435\u043a\u0442\u0443\u0440\u0430 \u041c\u0456\u044f\u0434\u0437\u0430\u043a\u0456","name:left:ja":"Kagoshima-Ken","id:right":-1842184,"name:left:uk":"\u041f\u0440\u0435\u0444\u0435\u043a\u0442\u0443\u0440\u0430 \u041a\u0430\u0491\u043e\u0448\u0456\u043c\u0430","min_zoom":8.0,"id:left":-1842186,"name:left:en":"Kagoshima Prefecture","name:left:ru":"\u041a\u0430\u0433\u043e\u0441\u0438\u043c\u0430","name:right:ru":"\u041c\u0438\u044f\u0434\u0437\u0430\u043a\u0438","name:right:pl":"Prefektura Miyazaki","id":-1842186,"osm_relation":true,"name:right":"\u5bae\u5d0e\u770c","kind":"region","name:left:eo":"Kago\u015dimo","name":"\u9e7f\u5150\u5cf6\u770c - \u5bae\u5d0e\u770c","source":"openstreetmap.org","sort_rank":256,"name:right:eo":"Mijazako","name:left:de":"Kagoshima","name:right:en":"Miyazaki Prefecture","name:left:pl":"Prefektura Kagoshima","name:right:de":"Miyazaki","kind_detail":"4","name:left":"\u9e7f\u5150\u5cf6\u770c"},"arcs":[5]},{"type":"LineString","properties":{"name:ja":"Kagoshima-Ken","name:eo":"Kago\u015dimo","min_zoom":8.0,"name:uk":"\u041f\u0440\u0435\u0444\u0435\u043a\u0442\u0443\u0440\u0430 \u041a\u0430\u0491\u043e\u0448\u0456\u043c\u0430","name:ru":"\u041a\u0430\u0433\u043e\u0441\u0438\u043c\u0430","name:pl":"Prefektura Kagoshima","id":-1842186,"osm_relation":true,"kind":"region","name:en":"Kagoshima Prefecture","name":"\u9e7f\u5150\u5cf6\u770c","sort_rank":256,"kind_detail":"4","name:de":"Kagoshima","source":"openstreetmap.org","maritime_boundary":true},"arcs":[6]},{"type":"LineString","properties":{"name:ja":"Miyazaki-ken","name:eo":"Mijazako","min_zoom":8.0,"name:uk":"\u041f\u0440\u0435\u0444\u0435\u043a\u0442\u0443\u0440\u0430 \u041c\u0456\u044f\u0434\u0437\u0430\u043a\u0456","name:ru":"\u041c\u0438\u044f\u0434\u0437\u0430\u043a\u0438","name:pl":"Prefektura Miyazaki","id":-1842184,"osm_relation":true,"kind":"region","name:en":"Miyazaki Prefecture","name":"\u5bae\u5d0e\u770c","sort_rank":256,"kind_detail":"4","name:de":"Miyazaki","source":"openstreetmap.org","name:fr":"Pr\u00e9fecture de Miyazaki"},"arcs":[7]},{"type":"LineString","properties":{"name:ja":"Miyazaki-ken","kind":"region","min_zoom":8.0,"name:uk":"\u041f\u0440\u0435\u0444\u0435\u043a\u0442\u0443\u0440\u0430 \u041c\u0456\u044f\u0434\u0437\u0430\u043a\u0456","name:ru":"\u041c\u0438\u044f\u0434\u0437\u0430\u043a\u0438","name:pl":"Prefektura Miyazaki","id":-1842184,"osm_relation":true,"name:eo":"Mijazako","name:en":"Miyazaki Prefecture","name":"\u5bae\u5d0e\u770c","sort_rank":256,"kind_detail":"4","name:fr":"Pr\u00e9fecture de Miyazaki","name:de":"Miyazaki","source":"openstreetmap.org","maritime_boundary":true},"arcs":[8]}]},"roads":{"type":"GeometryCollection","geometries":[{"type":"LineString","properties":{"source":"openstreetmap.org","kind":"major_road","sort_rank":380,"kind_detail":"primary","ref":"27","min_zoom":8.0},"arcs":[18]},{"type":"MultiLineString","properties":{"source":"openstreetmap.org","kind":"major_road","landuse_kind":"urban_area","sort_rank":380,"kind_detail":"primary","min_zoom":8.0},"arcs":[[19],[20]]},{"type":"MultiLineString","properties":{"source":"openstreetmap.org","kind":"major_road","landuse_kind":"urban_area","sort_rank":380,"kind_detail":"primary","ref":"9","min_zoom":8.0},"arcs":[[21],[22],[23],[24],[25]]},{"type":"MultiLineString","properties":{"source":"openstreetmap.org","kind":"highway","int_name":"MIYAZAKI EXPWY","sort_rank":383,"kind_detail":"motorway","ref":"E10","min_zoom":8.0},"arcs":[[26],[27],[28],[29],[30],[31],[32],[33],[34]]},{"type":"MultiLineString","properties":{"source":"openstreetmap.org","kind":"major_road","landuse_kind":"urban_area","sort_rank":380,"kind_detail":"primary","ref":"3","min_zoom":8.0},"arcs":[[35],[36]]},{"type":"LineString","properties":{"source":"openstreetmap.org","kind":"major_road","landuse_kind":"urban_area","sort_rank":380,"kind_detail":"primary","ref":"45","min_zoom":8.0},"arcs":[37]},{"type":"MultiLineString","properties":{"source":"openstreetmap.org","kind":"major_road","sort_rank":380,"kind_detail":"primary","ref":"67","min_zoom":8.0},"arcs":[[38],[39]]},{"type":"MultiLineString","properties":{"source":"openstreetmap.org","kind":"major_road","sort_rank":380,"kind_detail":"primary","ref":"64","min_zoom":8.0},"arcs":[[40],[41],[42],[43]]},{"type":"MultiLineString","properties":{"source":"openstreetmap.org","kind":"major_road","landuse_kind":"urban_area","sort_rank":380,"kind_detail":"primary","ref":"2","min_zoom":8.0},"arcs":[[44],[45],[46],[47],[48],[49]]},{"type":"MultiLineString","properties":{"kind":"major_road","network":"JP:national","sort_rank":381,"landuse_kind":"urban_area","source":"openstreetmap.org","min_zoom":8.0,"kind_detail":"trunk","shield_text":"10","ref":"10"},"arcs":[[50],[51],[52],[53],[54],[55],[56]]},{"type":"MultiLineString","properties":{"source":"openstreetmap.org","kind":"major_road","landuse_kind":"urban_area","sort_rank":380,"kind_detail":"primary","ref":"65","min_zoom":8.0},"arcs":[[57],[58],[59],[60],[61]]},{"type":"MultiLineString","properties":{"source":"openstreetmap.org","kind":"major_road","sort_rank":380,"kind_detail":"primary","ref":"28","min_zoom":8.0},"arcs":[[62],[63]]},{"type":"MultiLineString","properties":{"source":"openstreetmap.org","kind":"major_road","sort_rank":380,"kind_detail":"primary","ref":"65","min_zoom":8.0},"arcs":[[64],[65],[66]]},{"type":"MultiLineString","properties":{"source":"openstreetmap.org","kind":"major_road","landuse_kind":"urban_area","sort_rank":380,"kind_detail":"primary","ref":"68","min_zoom":8.0},"arcs":[[67],[68]]},{"type":"MultiLineString","properties":{"source":"openstreetmap.org","kind":"major_road","kind_detail":"trunk","sort_rank":381,"landuse_kind":"urban_area","ref":"220","min_zoom":8.0},"arcs":[[69],[70],[71],[72],[73],[74],[75],[76],[77]]},{"type":"LineString","properties":{"kind":"highway","int_name":"HIGASHIKYUSHU EXPWY","network":null,"sort_rank":383,"kind_detail":"motorway","source":"openstreetmap.org","min_zoom":8.0,"all_networks":[null],"shield_text":"78","ref":"E78","all_shield_texts":["78"]},"arcs":[78]},{"type":"MultiLineString","properties":{"source":"openstreetmap.org","kind":"major_road","landuse_kind":"urban_area","sort_rank":380,"kind_detail":"primary","ref":"25","min_zoom":8.0},"arcs":[[79],[80]]},{"type":"LineString","properties":{"source":"openstreetmap.org","kind":"major_road","landuse_kind":"urban_area","sort_rank":380,"kind_detail":"primary","ref":"33","min_zoom":8.0},"arcs":[81]},{"type":"LineString","properties":{"source":"openstreetmap.org","kind":"major_road","sort_rank":380,"kind_detail":"primary","ref":"33","min_zoom":8.0},"arcs":[82]},{"type":"LineString","properties":{"source":"openstreetmap.org","kind":"major_road","sort_rank":380,"kind_detail":"primary","ref":"63","min_zoom":8.0},"arcs":[83]},{"type":"LineString","properties":{"source":"openstreetmap.org","kind":"major_road","sort_rank":380,"kind_detail":"primary","ref":"29","min_zoom":8.0},"arcs":[84]},{"type":"MultiLineString","properties":{"kind":"highway","network":null,"sort_rank":383,"kind_detail":"motorway","source":"openstreetmap.org","min_zoom":8.0,"all_networks":[null],"landuse_kind":"urban_area","shield_text":"10","ref":"E10","all_shield_texts":["10"]},"arcs":[[85],[86]]},{"type":"MultiLineString","properties":{"source":"openstreetmap.org","kind":"major_road","sort_rank":380,"kind_detail":"primary","ref":"72","min_zoom":8.0},"arcs":[[87],[88],[89]]},{"type":"MultiLineString","properties":{"source":"openstreetmap.org","kind":"major_road","landuse_kind":"urban_area","sort_rank":380,"kind_detail":"primary","ref":"12","min_zoom":8.0},"arcs":[[90],[91],[92],[93],[94],[95]]},{"type":"LineString","properties":{"source":"openstreetmap.org","kind":"major_road","landuse_kind":"urban_area","sort_rank":380,"kind_detail":"primary","ref":"52","min_zoom":8.0},"arcs":[96]},{"type":"MultiLineString","properties":{"source":"openstreetmap.org","kind":"major_road","sort_rank":381,"kind_detail":"trunk","ref":"448","min_zoom":8.0},"arcs":[[97],[98],[99],[100],[101],[102],[103],[104],[105],[106],[107],[108]]},{"type":"MultiLineString","properties":{"source":"openstreetmap.org","kind":"major_road","sort_rank":380,"kind_detail":"primary","ref":"2","min_zoom":8.0},"arcs":[[109],[110],[111],[112],[113],[114],[115],[116]]},{"type":"MultiLineString","properties":{"source":"openstreetmap.org","kind":"major_road","sort_rank":380,"kind_detail":"primary","ref":"1","min_zoom":8.0},"arcs":[[117],[118]]},{"type":"LineString","properties":{"source":"openstreetmap.org","kind":"major_road","landuse_kind":"urban_area","sort_rank":380,"kind_detail":"primary","ref":"67","min_zoom":8.0},"arcs":[119]},{"type":"LineString","properties":{"kind":"highway","int_name":"HIGASHIKYUSHU EXPWY","network":null,"sort_rank":383,"kind_detail":"motorway","source":"openstreetmap.org","min_zoom":8.0,"all_networks":[null],"shield_text":"10","ref":"E10","id":504194712,"all_shield_texts":["10"]},"arcs":[120]},{"type":"MultiLineString","properties":{"source":"openstreetmap.org","kind":"major_road","sort_rank":380,"kind_detail":"primary","ref":"68","min_zoom":8.0},"arcs":[[121],[122],[123],[124]]},{"type":"MultiLineString","properties":{"source":"openstreetmap.org","kind":"highway","landuse_kind":"urban_area","sort_rank":383,"kind_detail":"motorway","ref":"E98","min_zoom":8.0},"arcs":[[125],[126],[127],[128]]},{"type":"MultiLineString","properties":{"source":"openstreetmap.org","kind":"highway","landuse_kind":"urban_area","sort_rank":383,"kind_detail":"motorway","min_zoom":8.0},"arcs":[[129],[130],[131],[132],[133],[134]]},{"type":"MultiLineString","properties":{"source":"openstreetmap.org","kind":"major_road","sort_rank":381,"kind_detail":"trunk","ref":"222","min_zoom":8.0},"arcs":[[135],[136],[137]]},{"type":"MultiLineString","properties":{"kind":"highway","network":null,"sort_rank":383,"kind_detail":"motorway","source":"openstreetmap.org","min_zoom":8.0,"all_networks":[null],"landuse_kind":"urban_area","shield_text":"78","ref":"E78","all_shield_texts":["78"]},"arcs":[[138],[139],[140]]},{"type":"MultiLineString","properties":{"source":"openstreetmap.org","kind":"highway","landuse_kind":"urban_area","sort_rank":383,"kind_detail":"motorway","ref":"E10","min_zoom":8.0},"arcs":[[141],[142],[143],[144],[145],[146]]},{"type":"LineString","properties":{"source":"openstreetmap.org","kind":"major_road","sort_rank":380,"kind_detail":"primary","ref":"74","min_zoom":8.0},"arcs":[147]},{"type":"LineString","properties":{"source":"openstreetmap.org","kind":"major_road","landuse_kind":"urban_area","sort_rank":380,"kind_detail":"primary","ref":"47","min_zoom":8.0},"arcs":[148]},{"type":"LineString","properties":{"source":"openstreetmap.org","kind":"major_road","landuse_kind":"urban_area","sort_rank":380,"kind_detail":"primary","ref":"26","min_zoom":8.0},"arcs":[149]},{"type":"MultiLineString","properties":{"source":"openstreetmap.org","kind":"major_road","landuse_kind":"urban_area","sort_rank":380,"kind_detail":"primary","ref":"17","min_zoom":8.0},"arcs":[[150],[151],[152],[153],[154],[155],[156]]},{"type":"MultiLineString","properties":{"source":"openstreetmap.org","kind":"major_road","sort_rank":380,"kind_detail":"primary","ref":"73","min_zoom":8.0},"arcs":[[157],[158]]},{"type":"MultiLineString","properties":{"source":"openstreetmap.org","kind":"major_road","landuse_kind":"urban_area","sort_rank":380,"kind_detail":"primary","ref":"27","min_zoom":8.0},"arcs":[[159],[160],[161]]},{"type":"LineString","properties":{"source":"openstreetmap.org","kind":"ferry","name":"\u9e7f\u5150\u5cf6\uff5e\u7a2e\u5b50\u5cf6\u30fb\u5c4b\u4e45\u5cf6","sort_rank":355,"min_zoom":8.0,"id":92128518},"arcs":[162]},{"type":"LineString","properties":{"kind":"major_road","sort_rank":380,"landuse_kind":"urban_area","source":"openstreetmap.org","min_zoom":8.0,"kind_detail":"primary","ref":"32","id":113639347},"arcs":[163]},{"type":"LineString","properties":{"source":"openstreetmap.org","kind":"major_road","landuse_kind":"urban_area","sort_rank":380,"kind_detail":"primary","ref":"63","min_zoom":8.0},"arcs":[164]},{"type":"LineString","properties":{"source":"openstreetmap.org","kind":"highway","sort_rank":383,"kind_detail":"motorway","ref":"E78","min_zoom":8.0,"id":308144615},"arcs":[165]},{"type":"LineString","properties":{"sort_rank":380,"kind_detail":"primary","min_zoom":8.0,"kind":"major_road","source":"openstreetmap.org"},"arcs":[166]},{"type":"LineString","properties":{"kind":"major_road","sort_rank":381,"kind_detail":"trunk","is_bicycle_related":true,"source":"openstreetmap.org","min_zoom":8.0,"ref":"504","id":508842478},"arcs":[167]},{"type":"LineString","properties":{"source":"openstreetmap.org","kind":"major_road","landuse_kind":"urban_area","sort_rank":380,"kind_detail":"primary","ref":"42","min_zoom":8.0},"arcs":[168]},{"type":"MultiLineString","properties":{"sort_rank":381,"source":"openstreetmap.org","min_zoom":8.0,"kind":"major_road","kind_detail":"trunk"},"arcs":[[169],[170]]},{"type":"LineString","properties":{"source":"openstreetmap.org","kind":"major_road","sort_rank":380,"kind_detail":"primary","ref":"3","min_zoom":8.0},"arcs":[171]},{"type":"MultiLineString","properties":{"kind":"major_road","network":"JP:national","sort_rank":381,"kind_detail":"trunk","source":"openstreetmap.org","min_zoom":8.0,"shield_text":"10","ref":"10"},"arcs":[[172],[173]]},{"type":"LineString","properties":{"source":"openstreetmap.org","kind":"major_road","landuse_kind":"urban_area","sort_rank":380,"kind_detail":"primary","ref":"31","min_zoom":8.0},"arcs":[174]},{"type":"MultiLineString","properties":{"source":"openstreetmap.org","kind":"major_road","kind_detail":"trunk","sort_rank":381,"landuse_kind":"urban_area","ref":"222","min_zoom":8.0},"arcs":[[175],[176],[177],[178],[179]]},{"type":"MultiLineString","properties":{"kind":"highway","int_name":"HIGASHIKYUSHU EXPWY","network":null,"sort_rank":383,"landuse_kind":"urban_area","source":"openstreetmap.org","min_zoom":8.0,"all_networks":[null],"kind_detail":"motorway","shield_text":"10","ref":"E10","all_shield_texts":["10"]},"arcs":[[180],[181],[182],[183]]},{"type":"MultiLineString","properties":{"source":"openstreetmap.org","kind":"major_road","sort_rank":380,"kind_detail":"primary","ref":"71","min_zoom":8.0},"arcs":[[184],[185],[186],[187],[188],[189],[190],[191],[192],[193],[194],[195],[196]]},{"type":"MultiLineString","properties":{"source":"openstreetmap.org","kind":"major_road","sort_rank":381,"kind_detail":"trunk","ref":"504","min_zoom":8.0},"arcs":[[197],[198],[199],[200],[201],[202],[203]]},{"type":"LineString","properties":{"source":"openstreetmap.org","kind":"major_road","kind_detail":"trunk","sort_rank":381,"landuse_kind":"urban_area","ref":"221","min_zoom":8.0},"arcs":[204]},{"type":"LineString","properties":{"kind":"major_road","sort_rank":380,"landuse_kind":"park","source":"openstreetmap.org","min_zoom":8.0,"kind_detail":"primary","ref":"72","id":124020346},"arcs":[205]},{"type":"LineString","properties":{"source":"openstreetmap.org","kind":"major_road","sort_rank":380,"kind_detail":"primary","ref":"30","min_zoom":8.0,"id":180110946},"arcs":[206]},{"type":"LineString","properties":{"source":"openstreetmap.org","kind":"major_road","kind_detail":"trunk","sort_rank":381,"landuse_kind":"urban_area","min_zoom":8.0},"arcs":[207]},{"type":"MultiLineString","properties":{"source":"openstreetmap.org","kind":"major_road","landuse_kind":"urban_area","sort_rank":380,"kind_detail":"primary","ref":"10","min_zoom":8.0},"arcs":[[208],[209],[210],[211],[212],[213],[214]]},{"type":"MultiLineString","properties":{"source":"openstreetmap.org","kind":"major_road","landuse_kind":"urban_area","sort_rank":380,"kind_detail":"primary","ref":"44","min_zoom":8.0},"arcs":[[215],[216]]},{"type":"MultiLineString","properties":{"source":"openstreetmap.org","kind":"major_road","kind_detail":"trunk","sort_rank":381,"landuse_kind":"urban_area","ref":"269","min_zoom":8.0},"arcs":[[217],[218],[219],[220],[221],[222],[223],[224],[225],[226],[227],[228],[229],[230],[231],[232]]},{"type":"LineString","properties":{"source":"openstreetmap.org","kind":"major_road","landuse_kind":"urban_area","sort_rank":380,"kind_detail":"primary","ref":"35","min_zoom":8.0},"arcs":[233]},{"type":"LineString","properties":{"source":"openstreetmap.org","kind":"highway","sort_rank":383,"kind_detail":"motorway","ref":"109","min_zoom":8.0},"arcs":[234]},{"type":"MultiLineString","properties":{"sort_rank":383,"kind_detail":"motorway","min_zoom":8.0,"kind":"highway","source":"openstreetmap.org"},"arcs":[[235],[236],[237],[238],[239]]},{"type":"LineString","properties":{"kind":"highway","network":null,"sort_rank":383,"kind_detail":"motorway","source":"openstreetmap.org","min_zoom":8.0,"all_networks":[null],"landuse_kind":"urban_area","shield_text":"10","ref":"E78","id":303340893,"all_shield_texts":["10"]},"arcs":[240]},{"type":"MultiLineString","properties":{"source":"openstreetmap.org","kind":"major_road","landuse_kind":"park","sort_rank":381,"kind_detail":"trunk","ref":"220","min_zoom":8.0},"arcs":[[241],[242],[243],[244],[245],[246],[247]]},{"type":"MultiLineString","properties":{"source":"openstreetmap.org","kind":"major_road","sort_rank":381,"kind_detail":"trunk","ref":"221","min_zoom":8.0},"arcs":[[248],[249]]},{"type":"MultiLineString","properties":{"kind":"highway","int_name":"MIYAZAKI EXPWY","sort_rank":383,"landuse_kind":"urban_area","source":"openstreetmap.org","min_zoom":8.0,"kind_detail":"motorway","ref":"E10"},"arcs":[[250],[251],[252],[253],[254],[255],[256]]},{"type":"LineString","properties":{"source":"openstreetmap.org","kind":"ferry","name:en":"Kagoshima - Tanegashima \/ Yakushima","name":"\u9e7f\u5150\u5cf6\uff5e\u7a2e\u5b50\u5cf6\u30fb\u5c4b\u4e45\u5cf6","sort_rank":355,"min_zoom":8.0},"arcs":[257]},{"type":"MultiLineString","properties":{"source":"openstreetmap.org","kind":"major_road","landuse_kind":"urban_area","sort_rank":380,"kind_detail":"primary","ref":"28","min_zoom":8.0},"arcs":[[258],[259]]},{"type":"MultiLineString","properties":{"source":"openstreetmap.org","kind":"major_road","kind_detail":"trunk","sort_rank":381,"landuse_kind":"urban_area","ref":"10","min_zoom":8.0},"arcs":[[260],[261]]},{"type":"LineString","properties":{"source":"openstreetmap.org","kind":"major_road","sort_rank":380,"kind_detail":"primary","ref":"60","min_zoom":8.0},"arcs":[262]},{"type":"MultiLineString","properties":{"source":"openstreetmap.org","kind":"major_road","sort_rank":380,"kind_detail":"primary","ref":"54","min_zoom":8.0},"arcs":[[263],[264]]},{"type":"MultiLineString","properties":{"source":"openstreetmap.org","kind":"highway","sort_rank":383,"kind_detail":"motorway","ref":"E10","min_zoom":8.0},"arcs":[[265],[266],[267],[268],[269]]},{"type":"MultiLineString","properties":{"source":"openstreetmap.org","kind":"major_road","sort_rank":381,"kind_detail":"trunk","ref":"220","min_zoom":8.0},"arcs":[[270],[271],[272],[273],[274],[275],[276],[277],[278],[279],[280],[281],[282],[283],[284],[285]]},{"type":"LineString","properties":{"kind":"highway","int_name":"MIYAZAKI EXPWY","sort_rank":383,"landuse_kind":"urban_area","source":"openstreetmap.org","min_zoom":8.0,"kind_detail":"motorway","id":201109812},"arcs":[286]},{"type":"MultiLineString","properties":{"source":"openstreetmap.org","kind":"major_road","landuse_kind":"urban_area","sort_rank":380,"kind_detail":"primary","ref":"13","min_zoom":8.0},"arcs":[[287],[288],[289]]},{"type":"MultiLineString","properties":{"kind":"highway","network":null,"sort_rank":383,"kind_detail":"motorway","source":"openstreetmap.org","min_zoom":8.0,"all_networks":[null],"shield_text":"78","ref":"E78","all_shield_texts":["78"]},"arcs":[[290],[291],[292]]},{"type":"MultiLineString","properties":{"source":"openstreetmap.org","kind":"major_road","landuse_kind":"urban_area","sort_rank":380,"kind_detail":"primary","ref":"73","min_zoom":8.0},"arcs":[[293],[294]]},{"type":"LineString","properties":{"source":"openstreetmap.org","kind":"major_road","sort_rank":381,"kind_detail":"trunk","ref":"223","min_zoom":8.0},"arcs":[295]},{"type":"LineString","properties":{"source":"openstreetmap.org","kind":"major_road","kind_detail":"trunk","sort_rank":381,"landuse_kind":"urban_area","ref":"448","min_zoom":8.0},"arcs":[296]},{"type":"MultiLineString","properties":{"source":"openstreetmap.org","kind":"major_road","landuse_kind":"urban_area","sort_rank":380,"kind_detail":"primary","ref":"46","min_zoom":8.0},"arcs":[[297],[298]]},{"type":"LineString","properties":{"source":"openstreetmap.org","kind":"major_road","sort_rank":380,"kind_detail":"primary","ref":"46","min_zoom":8.0},"arcs":[299]},{"type":"MultiLineString","properties":{"source":"openstreetmap.org","kind":"major_road","sort_rank":381,"kind_detail":"trunk","ref":"269","min_zoom":8.0},"arcs":[[300],[301],[302],[303],[304],[305],[306],[307],[308],[309],[310],[311],[312],[313]]},{"type":"LineString","properties":{"source":"openstreetmap.org","kind":"major_road","sort_rank":380,"kind_detail":"primary","ref":"13","min_zoom":8.0,"id":205012971},"arcs":[314]},{"type":"LineString","properties":{"source":"openstreetmap.org","kind":"major_road","sort_rank":380,"kind_detail":"primary","ref":"36","min_zoom":8.0},"arcs":[315]},{"type":"LineString","properties":{"source":"openstreetmap.org","kind":"ferry","name:en":"Kagoshima - Tanegashima","name":"\u9e7f\u5150\u5cf6\uff5e\u7a2e\u5b50\u5cf6","sort_rank":355,"min_zoom":8.0},"arcs":[316]},{"type":"MultiLineString","properties":{"source":"openstreetmap.org","kind":"highway","landuse_kind":"urban_area","sort_rank":383,"kind_detail":"motorway","ref":"12","min_zoom":8.0},"arcs":[[317],[318]]},{"type":"MultiLineString","properties":{"source":"openstreetmap.org","kind":"major_road","sort_rank":380,"kind_detail":"primary","ref":"42","min_zoom":8.0},"arcs":[[319],[320]]},{"type":"LineString","properties":{"source":"openstreetmap.org","kind":"highway","sort_rank":383,"kind_detail":"motorway","ref":"12","min_zoom":8.0,"id":243071073},"arcs":[321]},{"type":"LineString","properties":{"sort_rank":355,"source":"openstreetmap.org","min_zoom":8.0,"name":"\u9e7f\u5150\u5cf6\u301c\u7a2e\u5b50\u30fb\u5c4b\u4e45","kind":"ferry"},"arcs":[322]},{"type":"MultiLineString","properties":{"source":"openstreetmap.org","kind":"major_road","sort_rank":380,"kind_detail":"primary","ref":"12","min_zoom":8.0},"arcs":[[323],[324]]},{"type":"MultiLineString","properties":{"source":"openstreetmap.org","kind":"major_road","landuse_kind":"urban_area","sort_rank":380,"kind_detail":"primary","ref":"11","min_zoom":8.0},"arcs":[[325],[326],[327],[328],[329]]},{"type":"MultiLineString","properties":{"source":"openstreetmap.org","kind":"major_road","sort_rank":380,"kind_detail":"primary","ref":"34","min_zoom":8.0},"arcs":[[330],[331]]},{"type":"MultiLineString","properties":{"source":"openstreetmap.org","kind":"major_road","sort_rank":380,"kind_detail":"primary","ref":"45","min_zoom":8.0},"arcs":[[332],[333]]},{"type":"LineString","properties":{"source":"openstreetmap.org","kind":"major_road","sort_rank":380,"kind_detail":"primary","ref":"31","min_zoom":8.0},"arcs":[334]},{"type":"LineString","properties":{"source":"openstreetmap.org","kind":"major_road","sort_rank":380,"kind_detail":"primary","ref":"48","min_zoom":8.0},"arcs":[335]},{"type":"MultiLineString","properties":{"source":"openstreetmap.org","kind":"major_road","sort_rank":381,"kind_detail":"trunk","ref":"268","min_zoom":8.0},"arcs":[[336],[337],[338],[339]]},{"type":"LineString","properties":{"source":"openstreetmap.org","kind":"major_road","kind_detail":"trunk","sort_rank":381,"landuse_kind":"urban_area","ref":"504","min_zoom":8.0},"arcs":[340]}]},"earth":{"type":"GeometryCollection","geometries":[{"type":"MultiPolygon","properties":{"sort_rank":10,"source":"naturalearthdata.com","min_zoom":0.0,"kind":"earth","area":12455255581},"arcs":[[[341]],[[342]]]}]},"landuse":{"type":"GeometryCollection","geometries":[{"type":"MultiPolygon","properties":{"source":"naturalearthdata.com","kind":"urban_area","name":"","area":1557972719,"sort_rank":11,"min_zoom":4.0},"arcs":[[[343]],[[344]],[[345]],[[346]],[[347]],[[348]]]},{"type":"MultiPolygon","properties":{"source":"openstreetmap.org","kind":"park","tier":2,"area":231311412,"sort_rank":24,"min_zoom":7.0,"osm_relation":true},"arcs":[[[349]]]},{"type":"MultiPolygon","properties":{"source":"openstreetmap.org","kind":"park","tier":2,"area":832590660,"sort_rank":24,"min_zoom":6.0,"osm_relation":true},"arcs":[[[350]]]}]}},"type":"Topology","transform":{"translate":[130.78125,30.7512777763],"scale":[0.0003433228,0.0002931847]},"arcs":[[[1551,0],[-5,244],[-152,410],[-440,-255],[-118,74],[-116,-17],[-121,-93],[-113,-188],[-107,-46],[-104,89],[-137,-11],[-125,-155],[-11,-52]],[[1414,1707],[11,7]],[[0,682],[1414,1025]],[[1425,1714],[1132,819],[-2,86],[119,298],[13,305],[54,237],[-4,162],[-40,155],[34,320]],[[1551,0],[-5,244],[-152,410],[-440,-255],[-118,74],[-116,-17],[-121,-93],[-113,-188],[-107,-46],[-104,89],[-137,-11],[-125,-155],[-11,-52]],[[1414,1707],[-34,77],[-185,198],[-71,137],[3,114],[-68,108],[53,95],[20,117],[90,61],[-35,136],[49,76],[-56,86],[6,67],[-70,50],[-41,-32],[-95,-2],[-112,105],[-72,-91],[-29,71],[-55,43],[10,102],[-47,56],[11,116],[-111,15],[33,89],[-172,27],[-40,63],[-96,5],[-22,35],[16,54],[-21,38],[39,20],[18,101],[55,28],[-48,4],[-42,114],[-49,44],[-70,30],[-75,-5],[-48,37]],[[0,682],[1414,1025]],[[1414,1707],[11,7]],[[1425,1714],[1132,819],[-2,86],[119,298],[13,305],[54,237],[-4,162],[-40,155],[34,320]],[[661,1602],[72,22],[80,-7],[209,185],[-21,30],[-94,-42],[-54,21],[26,51],[62,42],[9,26],[-10,40],[-60,33],[-69,22],[-100,31],[-34,31],[42,132],[50,87],[34,42],[43,34],[110,51],[61,16],[59,7],[32,-25],[49,-40],[64,17],[21,-4],[15,-5],[19,-28],[56,-61],[13,-21],[8,-35],[-2,-56],[14,-26],[47,-24],[55,3],[117,21],[-4,-14],[-3,-9],[-13,-21],[20,-8],[7,-5],[11,-13],[20,17],[7,21],[4,25],[10,31],[39,52],[15,32],[28,162],[8,25],[37,38],[14,18],[-1,73],[-6,15],[-10,13],[-8,22],[4,41],[12,33],[39,66],[8,6],[14,56],[34,41],[93,77],[-14,103],[72,379],[10,28],[42,56],[10,31],[-83,31],[-35,58],[-24,87],[7,38],[-8,62],[33,98],[48,159],[2075,0],[0,-4096],[-3252,0],[1,61],[48,46],[-41,58],[-33,85],[-3,55],[-27,-2],[-20,-11],[-18,-19],[-35,-41],[-61,-102],[6,-73],[-19,-57],[-407,0],[-3,4],[-9,48],[-18,-20],[-31,-32],[-174,0],[0,1089],[32,25],[79,32],[75,9],[74,21],[107,37],[49,21],[48,28],[46,34],[36,36],[33,48],[50,105],[27,45],[5,72]],[[1818,2634],[36,-43],[-8,58],[-3,41],[-12,9],[-13,-65]],[[0,3257],[68,-65],[17,-123],[-33,-134],[-52,-85],[0,407]],[[0,2131],[4,-11],[37,-97],[4,-65],[-20,-171],[-25,-101],[0,445]],[[0,3257],[68,-65],[17,-123],[-33,-134],[-52,-85]],[[0,2131],[4,-11],[37,-97],[4,-65],[-20,-171],[-25,-101]],[[0,1089],[32,25],[79,32],[75,9],[74,21],[107,37],[49,21],[48,28],[46,34],[36,36],[33,48],[50,105],[27,45],[5,72],[72,22],[80,-7],[209,185],[-21,30],[-94,-42],[-54,21],[26,51],[62,42],[9,26],[-10,40],[-60,33],[-69,22],[-100,31],[-34,31],[42,132],[50,87],[34,42],[43,34],[110,51],[61,16],[59,7],[32,-25],[49,-40],[64,17],[21,-4],[15,-5],[19,-28],[56,-61],[13,-21],[8,-35],[-2,-56],[14,-26],[47,-24],[55,3],[117,21],[-4,-14],[-3,-9],[-13,-21],[20,-8],[7,-5],[11,-13],[20,17],[7,21],[4,25],[10,31],[39,52],[15,32],[28,162],[8,25],[37,38],[14,18],[-1,73],[-6,15],[-10,13],[-8,22],[4,41],[12,33],[39,66],[8,6],[14,56],[34,41],[93,77],[-14,103],[72,379],[10,28],[42,56],[10,31],[-83,31],[-35,58],[-24,87],[7,38],[-8,62],[33,98],[48,159]],[[789,303],[-20,-11],[-18,-19],[-35,-41],[-61,-102],[6,-73],[-19,-57]],[[844,0],[1,61],[48,46],[-41,58],[-33,85],[-3,55],[-27,-2]],[[1606,3261],[-14,36],[27,58],[39,1],[0,43],[34,30],[-11,50],[36,29],[-24,48],[79,84],[-5,21]],[[1773,4096],[1,-26]],[[1951,3985],[0,-2]],[[1747,4038],[27,32]],[[1779,3899],[-53,82],[21,57]],[[1747,4038],[-21,-57],[53,-82]],[[1774,4071],[12,25]],[[1855,3912],[-76,-13]],[[736,3918],[-57,112],[-37,11]],[[642,4041],[-17,5]],[[625,4046],[-1,0],[-42,50]],[[583,4096],[42,-50]],[[625,4046],[0,-1],[17,-4]],[[642,4041],[37,-10],[33,-52],[39,-84],[6,-70],[98,-130]],[[1295,3657],[-79,-125],[-93,21]],[[1563,3673],[-160,-32]],[[1403,3642],[160,31]],[[947,2489],[25,38]],[[1720,2873],[38,15]],[[826,3327],[-53,253]],[[256,2466],[208,-204]],[[484,2194],[-4,12]],[[278,2657],[1,0]],[[279,2657],[-1,-1]],[[279,2657],[29,-31],[59,-2],[23,-62],[46,-8]],[[440,2559],[31,-94],[113,-64],[71,-101]],[[24,3504],[-24,-37]],[[28,3507],[-4,-3]],[[28,3508],[0,-1]],[[28,3508],[2,2]],[[30,3510],[-2,-2]],[[762,3305],[-10,-18],[-124,44]],[[78,3313],[-48,-8],[-15,-47],[-15,5]],[[1005,3658],[-30,-125],[-111,-123],[-51,-126],[-124,-42]],[[1680,4060],[-130,36]],[[1680,4060],[26,-17]],[[1706,4043],[1,-1],[20,-30],[25,-15],[118,-22],[20,121]],[[1890,4096],[0,-46],[-20,-75],[-118,22],[-25,15],[-11,12],[-9,18],[-1,1]],[[1706,4043],[-7,8],[-19,9]],[[956,2514],[-5,-36]],[[956,2514],[0,14]],[[956,2514],[0,-4]],[[969,2497],[-9,6]],[[977,2483],[-7,14]],[[1509,3687],[10,-107],[88,-83],[-5,-74],[24,-49],[-40,-93],[140,-80],[21,-189]],[[1539,4086],[67,-81],[-63,-96],[12,-73],[-44,-133]],[[1020,2946],[26,-139],[-8,-137],[-81,-89],[-1,-53]],[[1003,2978],[14,-29]],[[1017,2949],[3,-3]],[[274,2070],[-51,40],[-23,62]],[[233,2166],[102,9],[12,-105]],[[15,3258],[51,-35]],[[17,2203],[37,-22]],[[384,2187],[-49,-12],[-21,33],[-113,29],[-40,-20]],[[491,2195],[69,24]],[[813,2397],[138,81],[86,-22]],[[1864,2937],[-73,-130]],[[1931,3623],[-7,51],[5,72],[-17,58],[-49,7],[-29,39],[4,28],[32,97]],[[1870,3975],[-6,-32],[-19,-54],[-7,-11],[-4,-28],[29,-39],[49,-7],[17,-58],[2,-18],[2,-22],[-1,-9],[-2,-10],[-6,-14],[7,-50]],[[1931,3623],[63,-69]],[[542,2871],[-2,42],[-102,130],[9,188]],[[1892,3971],[-22,4]],[[1870,3975],[22,-3]],[[851,3313],[191,53],[73,-27]],[[1115,3339],[25,-10],[72,71],[153,-22],[3,31],[41,-34],[32,6],[-26,-86],[41,-45],[106,-51],[108,20]],[[223,3141],[26,-52],[68,-13],[65,-61],[41,13],[126,-37],[41,-99],[65,-37],[36,-114],[155,-121],[35,-91]],[[764,4096],[-88,-78]],[[1692,3837],[-15,-67]],[[1681,3735],[-2,9]],[[12,2838],[31,-26],[46,21],[16,-44],[101,-23],[39,-46]],[[244,2715],[125,-44],[-25,90]],[[477,2588],[-29,83],[-103,90]],[[701,3246],[35,-25]],[[747,3215],[0,1]],[[878,3194],[-102,-12]],[[883,3205],[108,57],[0,80]],[[939,3423],[41,-40],[-15,-52]],[[967,3445],[-1,30]],[[1908,3825],[2,-20],[0,-1],[0,1],[-2,20]],[[22,1686],[61,-51],[47,-84],[118,-37],[89,-69],[53,16],[61,-27],[87,54]],[[538,1488],[10,-4]],[[548,1484],[35,-11]],[[586,1475],[-3,-2]],[[593,1480],[-7,-5]],[[593,1480],[6,7]],[[610,1491],[-11,-4]],[[610,1491],[17,1]],[[627,1492],[34,55],[-10,76],[140,3],[36,31],[39,129],[-23,45],[84,106],[-14,37],[-211,85]],[[776,2366],[-66,-71]],[[850,1737]],[[1723,2675],[-7,-96],[41,-26],[1,-63],[-77,-39],[-6,-33],[41,-42],[-3,-66],[-58,-29],[-53,-85],[-75,4],[-67,124],[-57,-5],[-97,108]],[[31,3512],[-1,-2]],[[30,3510],[1,2]],[[32,3513],[-1,-1]],[[32,3513],[2,2]],[[46,3523],[-12,-8]],[[50,3525],[-4,-2]],[[50,3525],[47,-6],[105,49],[88,-45]],[[296,3520],[158,-55],[113,-117],[61,-17]],[[134,3895],[36,37],[34,-16],[-39,88],[46,92]],[[215,4096],[4,0]],[[480,2206],[-16,56]],[[1706,3878],[0,39]],[[0,1264],[30,73],[138,176],[138,115],[-40,23],[-35,71],[46,85],[29,3],[31,157]],[[0,2144],[53,-127]],[[274,2070],[62,-44]],[[347,2070],[-5,-104]],[[1917,3860],[-28,-21],[-24,-10],[-1,-1],[-11,-8]],[[1862,3826],[-9,-6]],[[1917,3860],[2,3]],[[1938,3922],[-19,-59]],[[317,2291],[-4,-83]],[[1003,3515],[79,28]],[[1104,3557],[1,1]],[[1864,3828],[-2,-2]],[[1967,3958],[2,14],[1,2],[16,33],[7,8],[23,81]],[[2017,4096],[-24,-81],[-26,-57]],[[1656,2978],[-61,-40],[-31,24],[-73,-2],[-27,68],[-37,18],[-68,-17],[-113,52],[-16,40],[-13,-27],[-89,-10],[-77,-40],[-48,-66],[-96,93],[-13,98]],[[1010,3244],[11,-6]],[[1694,2993]],[[0,3259],[35,44],[-3,39]],[[34,3364],[-2,-22]],[[34,3364],[41,25]],[[899,3541],[-11,12],[-22,49],[-11,92]],[[889,3553],[114,-38]],[[1082,3543],[22,14]],[[1105,3558],[4,1]],[[1736,3777],[5,5]],[[1741,3782],[-5,-5]],[[0,1228],[24,1],[50,-44],[29,13],[29,-31],[103,5],[150,80],[-26,38],[58,92],[179,51],[-8,33],[28,27]],[[1050,3364],[-1,61],[46,99],[-91,72]],[[1811,4096],[29,-132],[25,-17]],[[1734,4096],[6,-20]],[[1811,4048]],[[1811,4048],[-71,28]],[[1740,4076],[71,-28],[4,-99]],[[1815,3949],[-1,0],[-12,8],[-1,1],[-3,25],[10,42],[0,2],[3,21]],[[1811,4048]],[[1815,3949],[41,-31]],[[65,1968],[109,20],[150,-26],[118,60]],[[514,2151],[-25,-18],[-4,-99]],[[1793,3765],[-26,-104]],[[1784,3767],[17,22]],[[1798,3764],[18,74]],[[0,421],[564,-421]],[[854,3354],[0,3]],[[881,2529],[56,-56]],[[398,3245],[4,0]],[[290,3523],[6,-3]],[[170,3078],[-2,-24]],[[695,3479],[33,66]],[[528,1484],[11,5]],[[671,4034],[0,2]],[[972,2527],[62,77],[58,24],[239,19],[26,99],[117,91],[154,-17],[92,53]],[[689,3242],[-232,-68],[-102,-65],[-168,34],[-109,170]],[[1460,4096],[-43,-2],[-97,-105],[-41,-7],[-77,38],[-45,-153],[-39,-61],[-89,-50],[-24,-98]],[[672,3482],[40,-32],[24,-123],[39,-27],[42,12]],[[855,3281],[-4,34],[-28,7]],[[894,3169],[-39,112]],[[855,3281],[128,-13],[27,-24]],[[1656,2978],[38,15]],[[1694,2993],[117,-147]],[[1667,4078],[2,18]],[[1699,4006],[-32,72]],[[1681,3735],[25,143]],[[1706,3917],[-7,89]],[[0,2624],[41,27],[214,-23]],[[589,2865],[-135,34],[-62,-31],[-12,-31],[-62,13],[-21,-48],[-20,2]],[[589,2865],[2,2]],[[591,2867],[3,1]],[[594,2868],[3,1]],[[597,2869],[1,1]],[[598,2870],[3,2]],[[601,2872],[26,5]],[[637,2872],[18,4]],[[655,2876],[141,88]],[[655,2876],[1,0]],[[780,2974],[16,-10]],[[796,2964],[143,-17],[61,27]],[[187,3143],[-24,-154],[49,-36],[-6,-82],[70,-62],[-18,-34]],[[204,2261],[53,284]],[[245,2720],[13,55]],[[245,2720],[43,21],[-30,34]],[[264,2603],[14,52],[-33,65]],[[264,2603],[-35,-24],[28,-34]],[[261,2536],[-4,9]],[[876,3767],[46,-159],[-24,-154]],[[11,2838],[1,0]],[[135,4096],[47,-23]],[[1849,3980]],[[1938,3926],[1,18],[25,-4]],[[1964,3940]],[[1964,3940]],[[1967,3958],[-3,-18]],[[1964,3940],[-25,3],[0,-17]],[[1964,3940]],[[1964,3940],[3,18]],[[1879,4013],[-15,18],[-1,65]],[[1878,4014],[1,-1]],[[122,2112],[-24,-37]],[[327,2290],[-94,-124],[-59,4],[-52,-58]],[[126,2147],[-4,-35]],[[362,2334],[-2,-1]],[[718,3132],[-1,-2]],[[788,3268],[-41,-53]],[[838,3356],[26,-4],[168,120],[73,88]],[[1528,3697],[29,-11]],[[1548,3683],[15,3]],[[1563,3686],[-6,0]],[[1563,3686],[218,130]],[[1782,3818],[-3,22],[70,140],[-59,-123],[-8,-39]],[[1782,3818],[-1,-2]],[[1781,3816],[1,2]],[[1782,3818]],[[1782,3818],[5,6],[2,3],[24,9],[25,39]],[[1813,2835],[9,-1]],[[773,2938],[-14,-205]],[[318,2348],[-1,-57]],[[351,2382],[-33,-34]],[[318,2348],[15,28],[18,7]],[[1133,3562],[1,0]],[[1232,3555],[9,16]],[[1680,3705],[1,30]],[[0,2818],[2,3]],[[4,2825],[11,17]],[[18,2851],[-1,-5]],[[84,3033],[-40,-72]],[[91,3173],[-16,38]],[[94,3166],[3,-6]],[[121,3101],[0,2]],[[658,4096],[13,-60]],[[876,3767],[-205,267]],[[855,3695],[34,-142]],[[1123,3553],[-128,-38],[-96,26]],[[1563,3673],[173,104]],[[1736,3777],[-11,-11],[-9,-7],[-116,-71],[-37,-15]],[[1741,3782],[7,9],[5,4],[27,12],[73,13]],[[1848,3817],[-107,-35]],[[1853,3820],[-3,-2]],[[565,0],[-565,427]],[[1539,4086],[-10,10]],[[1740,2914],[43,31],[-36,67]],[[1643,4066],[15,-2]],[[1870,3975]],[[64,3533],[25,78],[167,146]],[[1520,2818],[34,-66],[-11,-57],[-37,-15]],[[1595,2938],[-38,-48],[20,-75]],[[855,3694],[-98,132],[-21,92]],[[1109,3559],[24,3]],[[1134,3562],[76,-31],[22,24]],[[1241,3571],[54,86],[16,1],[51,-4],[19,-4],[22,-8]],[[1403,3641],[-108,16]],[[17,2203],[-17,-7]],[[0,2222],[6,-18]],[[2,2821],[2,4]],[[15,2842],[2,4]],[[18,2851],[26,110]],[[161,2217],[-52,-43],[-55,7]],[[75,3211],[-9,12]],[[121,3101],[-37,-68]],[[91,3173],[3,-7]],[[97,3160],[24,-57]],[[491,2195],[-107,-8]],[[560,2219],[253,178]],[[1791,2807],[-42,-59],[4,-53],[-30,-20],[-30,43],[-90,-68],[-155,37],[-53,-35],[-36,-136],[-104,-125],[-139,25],[-79,40]],[[2007,3443],[-22,-91],[14,-44],[-37,-38],[22,-19],[-37,-85],[3,-31],[30,-9],[-29,-98],[31,-22],[-16,-28],[-102,-41]],[[1994,3554],[39,-51]],[[2033,3503],[-26,-60]],[[1850,3818],[-2,-1]],[[1651,3923],[-27,78],[19,65]],[[1683,3858],[24,-50],[54,-22]],[[1756,3779],[149,-45]],[[75,3389],[58,-6],[52,-65],[213,-73]],[[542,2871],[-110,-166],[-15,-158],[-50,-57],[-17,-98]],[[402,3245],[45,-14]],[[485,2034],[-43,-12]],[[514,2199],[0,-48]],[[0,3784],[21,2],[113,109],[50,-89],[50,-12],[22,-37],[165,-12],[84,88],[57,9],[8,31],[-28,27],[66,94],[68,24]],[[702,2059],[-39,4],[-9,46],[56,186]],[[918,3615],[-117,17]],[[922,3608],[82,-12]],[[801,3632],[-44,2]],[[0,1664],[28,37],[34,356],[36,18]],[[360,2333],[-33,-43]],[[610,2878],[31,-114],[-18,-89],[-42,-71],[-99,-12],[-62,-55],[-2,-169],[-56,-34]],[[610,2878],[2,10]],[[610,2878],[0,5],[2,5]],[[717,3130],[-77,-120],[-28,-122]],[[747,3215],[-29,-83]],[[1548,3683],[-104,-5],[-1,1]],[[1443,3679],[-64,23],[-70,-10],[-92,-153],[-80,39],[-32,-18]],[[1528,3697],[-18,-1]],[[1510,3696],[-47,-5],[-4,3],[-16,-15]],[[1443,3679],[0,-1]],[[1511,3703],[-1,-7]],[[1510,3696],[-1,-9]],[[1683,3858],[-32,65]],[[1579,2182],[-1,-58],[29,-28],[32,8]],[[0,428],[566,-428]],[[763,3208],[-58,89]],[[779,3182],[-11,21]],[[728,3545],[23,96],[69,31],[36,79],[-35,62],[26,6]],[[861,3810],[76,105],[-19,44],[28,50],[-36,57],[22,30]],[[768,3203],[-5,5]],[[0,429],[567,-429]],[[736,3221],[11,-5]],[[741,3194],[35,-12]],[[1866,3953],[7,-7]],[[1951,3983],[-12,-40],[-66,3]],[[1873,3946],[66,-2],[29,109]],[[1968,4053],[-17,-68]],[[1968,4053],[10,43]],[[1313,2651],[-45,42],[3,38],[-48,32],[29,67],[-42,69],[-20,116],[-61,39],[11,26]],[[1329,2643],[36,-51]],[[733,3597],[-177,105],[-13,135]],[[736,3589],[37,-9]],[[340,3739],[69,-95],[112,-39],[92,-101],[59,-22]],[[1346,2494],[23,-15],[48,57],[62,-5],[58,-47],[57,12],[87,-87]],[[1364,4096],[8,0]],[[1375,4096],[7,0]],[[1388,4096],[5,0]],[[1411,4096],[6,-2]],[[200,2172],[4,89]],[[844,0],[-202,0],[19,57],[-6,73],[61,102],[35,41],[18,19],[20,11],[27,2],[3,-55],[33,-85],[41,-58],[-48,-46],[-1,-61]],[[0,4096],[2021,0],[-48,-159],[-33,-98],[8,-62],[-7,-38],[24,-87],[35,-58],[83,-31],[-10,-31],[-42,-56],[-10,-28],[-72,-379],[14,-103],[-93,-77],[-34,-41],[-14,-56],[-8,-6],[-39,-66],[-12,-33],[-4,-41],[8,-22],[10,-13],[6,-15],[1,-73],[-14,-18],[-37,-38],[-8,-25],[-28,-162],[-15,-32],[-39,-52],[-10,-31],[-4,-25],[-7,-21],[-20,-17],[-11,13],[-7,5],[-20,8],[13,21],[3,9],[4,14],[-117,-21],[-55,-3],[-47,24],[-14,26],[2,56],[-8,35],[-13,21],[-56,61],[-19,28],[-15,5],[-21,4],[-64,-17],[-49,40],[-32,25],[-59,-7],[-61,-16],[-110,-51],[-43,-34],[-34,-42],[-50,-87],[-42,-132],[34,-31],[100,-31],[69,-22],[60,-33],[10,-40],[-9,-26],[-62,-42],[-26,-51],[54,-21],[94,42],[21,-30],[-209,-185],[-80,7],[-72,-22],[-5,-72],[-27,-45],[-50,-105],[-33,-48],[-36,-36],[-46,-34],[-48,-28],[-49,-21],[-107,-37],[-74,-21],[-75,-9],[-79,-32],[-32,-25],[0,597],[25,101],[20,171],[-4,65],[-37,97],[-4,11],[0,719],[52,85],[33,134],[-17,123],[-68,65],[0,839]],[[412,2306],[46,-46],[97,37],[6,-107],[26,-6],[57,28],[8,85],[109,-4],[-84,-206],[32,-29],[-187,12],[-11,106],[-86,83],[-64,-113],[27,-43],[93,-43],[9,-66],[-130,76],[-258,0],[-59,78],[-39,-2],[16,70],[17,6],[32,-76],[85,50],[19,56],[45,13],[13,32],[104,-7],[25,7],[0,38],[52,-29]],[[846,2382],[-65,29],[102,120],[157,-6],[-3,-73],[-191,-70]],[[1814,2786],[-125,116],[-34,76],[134,50],[27,-12],[70,-114],[-72,-116]],[[2021,4096],[-81,-257],[25,-187],[63,-69],[-3,-27],[-112,-8],[-32,75],[-53,-4],[-11,42],[-66,0],[0,38],[-168,-40],[-58,40],[38,60],[156,130],[-8,27],[-89,11],[-3,127],[-104,42],[506,0]],[[979,3712],[61,-126],[147,-58],[-18,-56],[-32,0],[-15,-121],[-17,-31],[-33,0],[0,-38],[-32,0],[0,-38],[-32,0],[0,-37],[-53,3],[-12,-41],[-65,0],[-84,-114],[-45,0],[-33,76],[65,38],[-15,38],[-82,37],[-65,76],[33,38],[0,76],[32,76],[97,76],[32,76],[33,0],[32,113],[56,0],[45,-63]],[[0,3257],[0,253],[69,0],[11,-243],[-21,-66],[-59,56]],[[0,1383],[0,39],[6,-16],[-6,-23]],[[0,2818],[0,433],[34,-6],[41,-35],[46,-108],[-109,-200],[7,-53],[-19,-31]]]}