{"objects":{"water":{"type":"GeometryCollection","geometries":[{"type":"Polygon","properties":{"source":"naturalearthdata.com","kind":"ocean","area":1576712559132672,"sort_rank":200,"min_zoom":0.0,"id":1},"arcs":[[12],[13],[14],[15],[16],[17],[18]]},{"type":"MultiLineString","properties":{"source":"naturalearthdata.com","kind":"ocean","sort_rank":205,"boundary":true,"min_zoom":0.0,"id":58},"arcs":[[19],[20]]},{"type":"LineString","properties":{"source":"naturalearthdata.com","kind":"ocean","sort_rank":205,"boundary":true,"min_zoom":0.0,"id":141},"arcs":[21]}]},"buildings":{"type":"GeometryCollection","geometries":[]},"places":{"type":"GeometryCollection","geometries":[{"type":"Point","properties":{"kind":"locality","name:en":"Slavyanka","name":"\u0421\u043b\u0430\u0432\u044f\u043d\u043a\u0430","kind_detail":"town","source":"openstreetmap.org","min_zoom":8.0,"population":12675,"id":1345473951,"name:ja":"\u30b9\u30e9\u30f4\u30e3\u30f3\u30ab"},"coordinates":[1780,3273]},{"type":"Point","properties":{"kind":"locality","name:en":"Zarubino","name":"\u0417\u0430\u0440\u0443\u0431\u0438\u043d\u043e","kind_detail":"town","source":"openstreetmap.org","min_zoom":8.0,"population":2918,"id":1350262677,"name:ja":"\u30b6\u30eb\u30d3\u30ce"},"coordinates":[818,2444]}]},"transit":{"type":"GeometryCollection","geometries":[{"type":"LineString","properties":{"source":"openstreetmap.org","kind":"train","sort_rank":275,"ref":"\u0423\u0441\u0441\u0443\u0440\u0438\u0439\u0441\u043a \u2014 \u041f\u0445\u0435\u043d\u044c\u044f\u043d","min_zoom":6.0,"osm_relation":true},"arcs":[10]},{"type":"LineString","properties":{"kind":"train","name":"Pyongyang \u2014 Moscow","sort_rank":275,"name:de":"Pj\u00f6ngjang \u2014 Moskau","source":"openstreetmap.org","min_zoom":6.0,"name:ko":"\ud3c9\uc591\u2013\ubaa8\uc2a4\ucf54\ubc14","name:ru":"\u041f\u0445\u0435\u043d\u044c\u044f\u043d \u2014 \u041c\u043e\u0441\u043a\u0432\u0430","ref":"002 Pyongyang - Moscow","osm_relation":true},"arcs":[11]}]},"pois":{"type":"GeometryCollection","geometries":[{"type":"Point","properties":{"kind":"nature_reserve","name":"\u0414\u0430\u043b\u044c\u043d\u0435\u0432\u043e\u0441\u0442\u043e\u0447\u043d\u044b\u0439 \u0433\u043e\u0441\u0443\u0434\u0430\u0440\u0441\u0442\u0432\u0435\u043d\u043d\u044b\u0439 \u043c\u043e\u0440\u0441\u043a\u043e\u0439 \u0437\u0430\u043f\u043e\u0432\u0435\u0434\u043d\u0438\u043a","area":274289000,"source":"openstreetmap.org","min_zoom":8.24,"tier":2,"id":-2309145,"osm_relation":true},"coordinates":[335,1805]}]},"boundaries":{"type":"GeometryCollection","geometries":[{"type":"MultiLineString","properties":{"name:kg":"Sina","name:ty":"Tinit\u014d","name:ka":"\u10e9\u10d8\u10dc\u10d4\u10d7\u10d8","name:ko":"\uc911\ud654\uc778\ubbfc\uacf5\ud654\uad6d","name:cv":"\u041a\u0438\u0442\u0430\u0439 \u0425\u0430\u043b\u0103\u0445 \u0420\u0435\u0441\u043f\u0443\u0431\u043b\u0438\u043a\u0438","name:cu":"\u0421\u0440\u0463\u0434\u0438\u043d\ua657\u043d\u0454","name:kl":"Kina","name:cs":"\u010c\u00ednsk\u00e1 lidov\u00e1 republika","name:ki":"China","name:kw":"Repoblek Werin China","name:kv":"\u041a\u0438\u0442\u0430\u0439","name:ku":"\u00c7\u00een","name:ks":"\u0686\u06cc\u0656\u0646","name:tl":"Republikang Popular ng Tsina","name:ce":"\u041a\u0438\u0442\u0430\u0439\u043d \u0425\u0430\u043b\u043a\u044a\u0430\u043d \u0420\u0435\u0441\u043f\u0443\u0431\u043b\u0438\u043a\u0430","name:ta":"\u0b9a\u0bc0\u0ba9 \u0bae\u0b95\u0bcd\u0b95\u0bb3\u0bcd \u0b95\u0bc1\u0b9f\u0bbf\u0baf\u0bb0\u0b9a\u0bc1","name:tg":"\u04b6\u0443\u043c\u04b3\u0443\u0440\u0438\u0438 \u0425\u0430\u043b\u049b\u0438\u0438 \u0427\u0438\u043d","name:ky":"\u041a\u044b\u0442\u0430\u0439","name:te":"\u0c1a\u0c48\u0c28\u0c3e","name:cy":"Gweriniaeth Pobl Tsieina","name:qu":"Chunwa Runallaqta Republika","name:de":"China","source":"openstreetmap.org","name:kn":"\u0c9a\u0cc0\u0ca8\u0cbf \u0c9c\u0ca8\u0cb0 \u0c97\u0ca3\u0cb0\u0cbe\u0c9c\u0ccd\u0caf","name:dv":"\u0790\u07a9\u0782\u07aa\u0786\u07a6\u0783\u07a6","name:lv":"\u0136\u012bna","name:lt":"Kinijos Liaudies Respublika","name:uz":"Xitoy Xalq Respublikasi","name:kk":"\u049a\u044b\u0442\u0430\u0439 \u0425\u0430\u043b\u044b\u049b \u0420\u0435\u0441\u043f\u0443\u0431\u043b\u0438\u043a\u0430\u0441\u044b","name:ur":"\u0686\u06cc\u0646","name:lb":"Volleksrepublik China","name:tt":"\u041a\u044b\u0442\u0430\u0439","name:uk":"\u041a\u0438\u0442\u0430\u0439\u0441\u044c\u043a\u0430 \u041d\u0430\u0440\u043e\u0434\u043d\u0430 \u0420\u0435\u0441\u043f\u0443\u0431\u043b\u0456\u043a\u0430","name:ug":"\u062c\u06c7\u06ad\u062e\u06c7\u0627 \u062e\u06d5\u0644\u0642 \u062c\u06c7\u0645\u06be\u06c7\u0631\u0649\u064a\u0649\u062a\u0649","name:ln":"S\u00edna","name:lo":"\u0e9b\u0eb0\u0ec0\u0e97\u0e94\u0e88\u0eb5\u0e99","name:el":"\u039b\u03b1\u03ca\u03ba\u03ae \u0394\u03b7\u03bc\u03bf\u03ba\u03c1\u03b1\u03c4\u03af\u03b1 \u03c4\u03b7\u03c2 \u039a\u03af\u03bd\u03b1\u03c2","name:eo":"\u0108inujo","name:en":"China","name":"\u4e2d\u56fd","name:tk":"Hyta\u00fd Halk Respublikasy","name:ee":"China","name:th":"\u0e1b\u0e23\u0e30\u0e40\u0e17\u0e28\u0e08\u0e35\u0e19","name:eu":"Txinako Herri Errepublika","name:et":"Hiina","name:es":"Rep\u00fablica Popular China","name:ia":"China","name:ro":"Republica Popular\u0103 Chinez\u0103","name:ie":"China","name:id":"Republik Rakyat Cina","name:pa":"\u0a1a\u0a40\u0a28 \u0a26\u0a3e \u0a32\u0a4b\u0a15 \u0a30\u0a3e\u0a1c\u0a40 \u0a17\u0a23\u0a24\u0a70\u0a24\u0a30","name:io":"Chinia","name:is":"Al\u00fe\u00fd\u00f0ul\u00fd\u00f0veldi\u00f0 K\u00edna","name:am":"\u12e8\u127b\u12ed\u1293 \u1215\u12dd\u1263\u12ca \u122a\u1350\u1265\u120a\u12ad","name:it":"Cina","name:ru":"\u041a\u0438\u0442\u0430\u0439\u0441\u043a\u0430\u044f \u041d\u0430\u0440\u043e\u0434\u043d\u0430\u044f \u0420\u0435\u0441\u043f\u0443\u0431\u043b\u0438\u043a\u0430","name:ab":"\u0410\u0447\u044b\u043d\u04ad\u0430\u0442\u04d9\u0438 \u0410\u0436\u04d9\u043b\u0430\u0440\u0442\u04d9 \u0420\u0435\u0441\u043f\u0443\u0431\u043b\u0438\u043a\u0430","alt_name:ru":"\u041a\u0438\u0442\u0430\u0439","kind_detail":"2","name:zh":"Zh\u014dnggu\u00f3","name:so":"Shiinaha","name:sn":"China","name:sm":"Saina","name:sk":"\u010c\u00ednska \u013eudov\u00e1 republika","name:si":"\u0da0\u0dd3\u0db1\u0dba","name:sg":"S\u00een\u00e4","name:se":"Kiinn\u00e1","name:sc":"Cina","name:bm":"China","name:bn":"\u0997\u09a3\u099a\u09c0\u09a8","name:bo":"\u0f40\u0fb2\u0f74\u0f44\u0f0b\u0f67\u0fad\u0f0b\u0f58\u0f72\u0f0b\u0f51\u0f58\u0f44\u0f66\u0f0b\u0f66\u0fa4\u0fb1\u0f72\u0f0b\u0f58\u0f50\u0f74\u0f53\u0f0b\u0f62\u0f92\u0fb1\u0f63\u0f0b\u0f41\u0f56\u0f0d","name:bi":"China","name:sw":"Jamhuri ya Watu wa China","name:be":"\u041a\u0456\u0442\u0430\u0439","name:st":"Tjhaena","name:ss":"IShayina","name:sr":"\u041a\u0438\u043d\u0430","name:sq":"Kina","name:pt":"Rep\u00fablica Popular da China","name:ps":"\u0686\u064a\u0646 \u062f \u062e\u0644\u06a9\u0648 \u062c\u0645\u0647\u0648\u0631\u064a\u062a","min_zoom":8.0,"int_name":"People's Republic of China","name:zh-min-nan":"Tiong-ho\u00e2 J\u00een-b\u00een Ki\u014dng-h\u00f4-kok","name:os":"\u041a\u0438\u0442\u0430\u0439","name:or":"\u0b1a\u0b40\u0b28","name:pl":"Chiny","sort_rank":262,"name:ba":"\u04a0\u044b\u0442\u0430\u0439","osm_relation":true,"name:ar":"\u0627\u0644\u0635\u064a\u0646","name:tr":"\u00c7in Halk Cumhuriyeti","name:hi":"\u091a\u0940\u0928\u0940 \u091c\u0928\u0935\u093e\u0926\u0940 \u0917\u0923\u0930\u093e\u091c\u094d\u092f","name:he":"\u05d4\u05e8\u05e4\u05d5\u05d1\u05dc\u05d9\u05e7\u05d4 \u05d4\u05e2\u05de\u05de\u05d9\u05ea \u05e9\u05dc \u05e1\u05d9\u05df","name:ha":"Sin","old_name:eo":"\u0124inujo","name:hy":"\u0549\u056b\u0576\u0561\u057d\u057f\u0561\u0576\u056b \u053a\u0578\u0572\u0578\u057e\u0580\u0564\u0561\u056f\u0561\u0576 \u0540\u0561\u0576\u0580\u0561\u057a\u0565\u057f\u0578\u0582\u0569\u0575\u0578\u0582\u0576","name:hu":"K\u00ednai N\u00e9pk\u00f6zt\u00e1rsas\u00e1g","name:hr":"Kina","kind":"country","name:ts":"China","name:yi":"\u05db\u05d9\u05e0\u05e2","name:iu":"China","name:mt":"\u010aina","alt_name:eo":"\u0108inio","name:mr":"\u091a\u0940\u0928","name:my":"\u1010\u101b\u102f\u1010\u103a\u1015\u103c\u100a\u103a\u101e\u1030\u1037\u101e\u1019\u1039\u1019\u1010\u1014\u102d\u102f\u1004\u103a\u1004\u1036","official_name":"\u4e2d\u534e\u4eba\u6c11\u5171\u548c\u56fd","name:ml":"\u0d1a\u0d48\u0d28","name:vi":"C\u1ed9ng h\u00f2a Nh\u00e2n d\u00e2n Trung Hoa","name:mn":"\u0411\u04af\u0433\u0434 \u041d\u0430\u0439\u0440\u0430\u043c\u0434\u0430\u0445 \u0425\u044f\u0442\u0430\u0434 \u0410\u0440\u0434 \u0423\u043b\u0441","name:mi":"Haina","id":-270056,"name:mk":"\u041d\u0430\u0440\u043e\u0434\u043d\u0430 \u0420\u0435\u043f\u0443\u0431\u043b\u0438\u043a\u0430 \u041a\u0438\u043d\u0430","name:vo":"Tsyin\u00e4n","name:fa":"\u062c\u0645\u0647\u0648\u0631\u06cc \u062e\u0644\u0642 \u0686\u06cc\u0646","name:rw":"Ubushinwa","name:fi":"Kiina","name:fo":"F\u00f3lkal\u00fd\u00f0veldi\u00f0 Kina","name:fr":"R\u00e9publique populaire de Chine","name:fy":"Sina","name:zu":"IShayina","name:na":"Tsiene","name:ne":"\u091c\u0928\u092c\u093e\u0926\u0940 \u0917\u0923\u0924\u0928\u094d\u0924\u094d\u0930 \u091a\u0940\u0928","name:wo":"R\u00e9ewum Popileer bu Siin","name:ga":"Daon-Phoblacht na S\u00edne","name:gd":"Sluagh-Phoblachd na S\u00ecne","name:gn":"China Tekoha Tet\u00e3","name:gv":"Deynphobblaght ny Sheen","name:gu":"\u0a9a\u0ac0\u0aa8"},"arcs":[[0],[1],[2],[3]]},{"type":"LineString","properties":{"name:cy":"Gogledd Corea","name:tr":"Kuzey Kore","name:kn":"\u0c89\u0ca4\u0ccd\u0ca4\u0cb0 \u0c95\u0cca\u0cb0\u0cbf\u0caf\u0cbe","name:km":"\u1780\u17bc\u179a\u17c9\u17c1\u1781\u17b6\u1784\u1787\u17be\u1784","name:kl":"Korea Avannarleq","name:cs":"Severn\u00ed Korea","name:tt":"\u041a\u043e\u0440\u0435\u044f \u0425\u0430\u043b\u044b\u043a \u0414\u0435\u043c\u043e\u043a\u0440\u0430\u0442\u0438\u043a \u0496\u04e9\u043c\u04bb\u04af\u0440\u0438\u044f\u0442\u0435","name:kw":"Korea Gledh","name:kv":"\u041a\u043e\u0440\u0435\u044f \u0412\u043e\u0439\u0442\u044b\u0440 \u0414\u0435\u043c\u043e\u043a\u0440\u0430\u0442\u0438\u044f \u0420\u0435\u0441\u043f\u0443\u0431\u043b\u0438\u043a\u0430","name:ku":"Kor\u00eaya Bakur","name:tl":"Hilagang Korea","name:ta":"\u0bb5\u0b9f\u0b95\u0bca\u0bb0\u0bbf\u0baf\u0bbe","name:tg":"\u041a\u0443\u0440\u0438\u0451\u0438 \u0428\u0438\u043c\u043e\u043b\u04e3","name:ca":"Corea del Nord","name:te":"\u0c09\u0c24\u0c4d\u0c24\u0c30 \u0c15\u0c4a\u0c30\u0c3f\u0c2f\u0c3e","name:ka":"\u10d9\u10dd\u10e0\u10d4\u10d8\u10e1 \u10e1\u10d0\u10ee\u10d0\u10da\u10ee\u10dd \u10d3\u10d4\u10db\u10dd\u10d9\u10e0\u10d0\u10e2\u10d8\u10e3\u10da\u10d8 \u10e0\u10d4\u10e1\u10de\u10e3\u10d1\u10da\u10d8\u10d9\u10d0","name:qu":"Chusun Runakapaq Runallaqta Republika","name:da":"Nordkorea","name:de":"Nordkorea","name:dz":"\u0f56\u0fb1\u0f44\u0f0b\u0f40\u0f7c\u0f0b\u0f62\u0f72\u0f0b\u0f61\u0f0b","source":"openstreetmap.org","name:dv":"\u0787\u07aa\u078c\u07aa\u0783\u07aa \u0786\u07ae\u0783\u07ac\u0787\u07a7","name:lv":"Zieme\u013ckoreja","name:lt":"\u0160iaur\u0117s Kor\u0117ja","name:uz":"Koreya Xalq Demokratik Respublikasi","name:kk":"\u041a\u043e\u0440\u0435\u0439 \u0425\u0430\u043b\u044b\u049b \u0414\u0435\u043c\u043e\u043a\u0440\u0430\u0442\u0438\u044f\u043b\u044b\u049b \u0420\u0435\u0441\u043f\u0443\u0431\u043b\u0438\u043a\u0430\u0441\u044b","name:ur":"\u0634\u0645\u0627\u0644\u06cc \u06a9\u0648\u0631\u06cc\u0627","name:lb":"Demokratesch Volleksrepublik Korea","name:la":"Respublica Popularis Democratica Coreana","name:uk":"\u041a\u043e\u0440\u0435\u0439\u0441\u044c\u043a\u0430 \u041d\u0430\u0440\u043e\u0434\u043d\u043e-\u0414\u0435\u043c\u043e\u043a\u0440\u0430\u0442\u0438\u0447\u043d\u0430 \u0420\u0435\u0441\u043f\u0443\u0431\u043b\u0456\u043a\u0430","name:ug":"\u0634\u0649\u0645\u0627\u0644\u0649\u064a \u0686\u0627\u06cb\u0634\u064a\u06d5\u0646","name:li":"Noord-Korea","name:ln":"Kore ya Nola","name:el":"\u0392\u03cc\u03c1\u03b5\u03b9\u03b1 \u039a\u03bf\u03c1\u03ad\u03b1","name:eo":"Nord-Koreujo","name:en":"North Korea","name":"\uc870\uc120\ubbfc\uc8fc\uc8fc\uc758\uc778\ubbfc\uacf5\ud654\uad6d","name:tk":"Demirgazyk Kore\u00fda","name:ee":"North Korea","name:th":"\u0e1b\u0e23\u0e30\u0e40\u0e17\u0e28\u0e40\u0e01\u0e32\u0e2b\u0e25\u0e35\u0e40\u0e2b\u0e19\u0e37\u0e2d","name:eu":"Ipar Korea","name:et":"P\u00f5hja-Korea","name:es":"Corea del Norte","name:ia":"Corea del Nord","name:az":"Koreya Xalq Demokratik Respublikas\u0131","name:ie":"Nord-Korea","name:id":"Korea Utara","name:ar":"\u0643\u0648\u0631\u064a\u0627 \u0627\u0644\u0634\u0645\u0627\u0644\u064a\u0629","name:io":"Nord-Korea","name:is":"Nor\u00f0ur-K\u00f3rea","name:am":"\u1230\u121c\u1295 \u12ae\u122d\u12eb","name:it":"Corea del Nord","name:an":"Coreya d'o Norte","name:ru":"\u041a\u043e\u0440\u0435\u0439\u0441\u043a\u0430\u044f \u041d\u0430\u0440\u043e\u0434\u043d\u043e-\u0414\u0435\u043c\u043e\u043a\u0440\u0430\u0442\u0438\u0447\u0435\u0441\u043a\u0430\u044f \u0420\u0435\u0441\u043f\u0443\u0431\u043b\u0438\u043a\u0430","name:rw":"Koreya y\u2019Amajyaruguru","name:af":"Noord-Korea","alt_name:ru":"\u0421\u0435\u0432\u0435\u0440\u043d\u0430\u044f \u041a\u043e\u0440\u0435\u044f","kind_detail":"2","name:zh-yue":"\u671d\u9bae\u6c11\u4e3b\u4e3b\u7fa9\u4eba\u6c11\u5171\u548c\u570b","name:zh":"\u671d\u9c9c\u6c11\u4e3b\u4e3b\u4e49\u4eba\u6c11\u5171\u548c\u56fd","name:so":"Waqooyiga Kuuriya","name:sl":"Severna Koreja","name:sk":"K\u00f3rejsk\u00e1 \u013eudovodemokratick\u00e1 republika","name:ja":"\u671d\u9bae\u6c11\u4e3b\u4e3b\u7fa9\u4eba\u6c11\u5171\u548c\u56fd","name:si":"\u0d8b\u0dad\u0dd4\u0dbb\u0dd4 \u0d9a\u0ddc\u0dbb\u0dd2\u0dba\u0dcf\u0dc0","name:sh":"Demokratska Narodna Republika Koreja","name:se":"Davvi-Korea","name:br":"Republik Poblel ha Demokratel Korea","name:bs":"Sjeverna Koreja","name:bn":"\u0989\u09a4\u09cd\u09a4\u09b0 \u0995\u09cb\u09b0\u09bf\u09af\u09bc\u09be","name:bo":"\u0f56\u0fb1\u0f44\u0f0b\u0f40\u0f7c\u0f0b\u0f62\u0f72\u0f0b\u0f61\u0f0d","name:sa":"\u0909\u0924\u094d\u0924\u0930 \u0915\u094b\u0930\u093f\u092f\u093e","name:sw":"Korea Kaskazini","name:be":"\u041a\u0430\u0440\u044d\u0439\u0441\u043a\u0430\u044f \u041d\u0430\u0440\u043e\u0434\u043d\u0430-\u0414\u044d\u043c\u0430\u043a\u0440\u0430\u0442\u044b\u0447\u043d\u0430\u044f \u0420\u044d\u0441\u043f\u0443\u0431\u043b\u0456\u043a\u0430","name:su":"Kor\u00e9a Kal\u00e9r","name:bg":"\u0421\u0435\u0432\u0435\u0440\u043d\u0430 \u041a\u043e\u0440\u0435\u044f","name:ss":"IKhoriya leseNyakatfo","name:sr":"\u0421\u0435\u0432\u0435\u0440\u043d\u0430 \u041a\u043e\u0440\u0435\u0458\u0430","name:sq":"Koreja e Veriut","name:jv":"Kor\u00e9a Lor","name:pt":"Coreia do Norte","name:ps":"\u0634\u0645\u0627\u0644\u064a \u06a9\u0648\u0631\u064a\u0627","name:oc":"Cor\u00e8a del N\u00f2rd","min_zoom":8.0,"name:ro":"Coreea de Nord","name:zh-min-nan":"Ti\u00e2u-si\u00e1n","name:os":"\u041a\u043e\u0440\u0435\u0439\u044b \u0410\u0434\u00e6\u043c\u043e\u043d \u0414\u0435\u043c\u043e\u043a\u0440\u0430\u0442\u043e\u043d \u0420\u0435\u0441\u043f\u0443\u0431\u043b\u0438\u043a\u00e6","name:or":"\u0b2a\u0b42\u0b30\u0b4d\u0b2c \u0b15\u0b4b\u0b30\u0b3f\u0b06","name:pl":"Korea P\u00f3\u0142nocna","sort_rank":262,"osm_relation":true,"name:pa":"\u0a09\u0a71\u0a24\u0a30\u0a40 \u0a15\u0a4b\u0a30\u0a40\u0a06","name:hi":"\u0909\u0924\u094d\u0924\u0930 \u0915\u094b\u0930\u093f\u092f\u093e","name:sv":"Nordkorea","name:he":"\u05e7\u05d5\u05e8\u05d9\u05d0\u05d4 \u05d4\u05e6\u05e4\u05d5\u05e0\u05d9\u05ea","name:hy":"\u053f\u0578\u0580\u0565\u0561\u0575\u056b \u053a\u0578\u0572\u0578\u057e\u0580\u0564\u0561-\u0534\u0565\u0574\u0578\u056f\u0580\u0561\u057f\u0561\u056f\u0561\u0576 \u0540\u0561\u0576\u0580\u0561\u057a\u0565\u057f\u0578\u0582\u0569\u0575\u0578\u0582\u0576","name:ht":"Kore din\u00f2","name:hu":"Koreai N\u00e9pi Demokratikus K\u00f6zt\u00e1rsas\u00e1g (\u00c9szak-Korea)","name:hr":"Sjeverna Koreja","kind":"country","name:yi":"\u05e6\u05e4\u05d5\u05df \u05e7\u05d0\u05e8\u05e2\u05e2","name:yo":"K\u00f2r\u00e9\u00e0 \u00c0r\u00edw\u00e1","alt_name:eo":"Nord-Koreo;Nord-Koreio","name:ms":"Korea Utara","name:mr":"\u0909\u0924\u094d\u0924\u0930 \u0915\u094b\u0930\u093f\u092f\u093e","name:my":"\u1000\u102d\u102f\u101b\u102e\u1038\u101a\u102c\u1038 \u1012\u102e\u1019\u102d\u102f\u1000\u101b\u1000\u103a\u1010\u1005\u103a \u1015\u103c\u100a\u103a\u101e\u1030\u1037\u101e\u1019\u1039\u1019\u1010\u1014\u102d\u102f\u1004\u103a\u1004\u1036","name:mg":"Korea Avaratra","name:vi":"B\u1eafc Tri\u1ec1u Ti\u00ean","name:ml":"\u0d09\u0d24\u0d4d\u0d24\u0d30 \u0d15\u0d4a\u0d31\u0d3f\u0d2f","name:mn":"\u0423\u043c\u0430\u0440\u0434 \u0421\u043e\u043b\u043e\u043d\u0433\u043e\u0441","name:mi":"K\u014drea-ki-te-raki","id":-192734,"name:mk":"\u0414\u0435\u043c\u043e\u043a\u0440\u0430\u0442\u0441\u043a\u0430 \u041d\u0430\u0440\u043e\u0434\u043d\u0430 \u0420\u0435\u043f\u0443\u0431\u043b\u0438\u043a\u0430 \u041a\u043e\u0440\u0435\u0458\u0430","name:vo":"Nol\u00fcda-Korey\u00e4n","name:fa":"\u06a9\u0631\u0647 \u0634\u0645\u0627\u0644\u06cc","name:fi":"Korean demokraattinen kansantasavalta","name:fo":"Nor\u00f0urkorea","alt_name:vi":"C\u1ed9ng h\u00f2a D\u00e2n ch\u1ee7 Nh\u00e2n d\u00e2n Tri\u1ec1u Ti\u00ean","name:fr":"Cor\u00e9e du Nord","name:fy":"Noard-Korea","name:nl":"Noord-Korea","name:nn":"Nord-Korea","name:no":"Nord-Korea","name:na":"Ripubrikit Engame Korea","name:ne":"\u0909\u0924\u094d\u0924\u0930 \u0915\u094b\u0930\u093f\u092f\u093e","name:wo":"Kore gu B\u00ebj-g\u00e0nnaar","name:nv":"Kol\u00edya Bik\u00e9yah N\u00e1hook\u01ebsj\u00ed Si\u02bc\u00e1n\u00edg\u00ed\u00ed","name:ga":"An Ch\u00f3ir\u00e9 Thuaidh","name:gd":"Coir\u00e8a a Tuath","name:gl":"Corea do Norte - \uc870\uc120","maritime_boundary":true,"name:gv":"Yn Chorea Twoaie","name:gu":"\u0a89\u0aa4\u0acd\u0aa4\u0ab0 \u0a95\u0acb\u0ab0\u0abf\u0aaf\u0abe"},"arcs":[4]},{"type":"MultiLineString","properties":{"name:right:nl":"Kraj Primorski","name:right:ja":"\u6cbf\u6d77\u5730\u65b9","name:right:fr":"Kra\u00ef du Primorie","name:right:uk":"\u041f\u0440\u0438\u043c\u043e\u0440\u0441\u044c\u043a\u0438\u0439 \u043a\u0440\u0430\u0439","int_name:left":"Jilin","name:right:hr":"Primorski kraj","id:right":-151225,"min_zoom":8.0,"name:left:lt":"Dzilinas","id":-198590,"name:right":"\u041f\u0440\u0438\u043c\u043e\u0440\u0441\u043a\u0438\u0439 \u043a\u0440\u0430\u0439","name:left:en":"Jilin","name:right:ca":"Territori de Prim\u00f3rie","kind_detail":"4","int_name:right":"Primorsky Krai","source":"openstreetmap.org","id:left":-198590,"name:right:cs":"P\u0159\u00edmo\u0159sk\u00fd kraj","name:left":"\u5409\u6797\u7701","name:right:es":"Krai de Primorie","name:right:pt":"Krai do Litoral","name:left:ko":"\uc9c0\ub9b0 \uc131","name:right:it":"Territorio del Litorale","name:right:ko":"\ud504\ub9ac\ubaa8\ub974\uc2a4\ud0a4 \uc9c0\ubc29","name:right:vi":"Primorsky (v\u00f9ng)","name:left:ru":"\u0413\u0438\u0440\u0438\u043d","name:right:sv":"Primorje kraj","name:right:pl":"Kraj Nadmorski","name:right:en":"Primorsky Krai","osm_relation":true,"name:left:vi":"C\u00e1t L\u00e2m","kind":"region","name":"\u5409\u6797\u7701 - \u041f\u0440\u0438\u043c\u043e\u0440\u0441\u043a\u0438\u0439 \u043a\u0440\u0430\u0439","name:right:de":"Region Primorje","name:left:de":"Jilin","sort_rank":256,"name:left:zh":"J\u00edl\u00edn","name:left:fr":"Jilin","name:right:zh":"\u6ee8\u6d77\u8fb9\u7586\u533a"},"arcs":[[5],[6],[7],[8]]},{"type":"LineString","properties":{"name:pt":"Krai do Litoral","int_name":"Primorsky Krai","name:nl":"Kraj Primorski","name:ja":"\u6cbf\u6d77\u5730\u65b9","name:ko":"\ud504\ub9ac\ubaa8\ub974\uc2a4\ud0a4 \uc9c0\ubc29","name:cs":"P\u0159\u00edmo\u0159sk\u00fd kraj","min_zoom":8.0,"name:it":"Territorio del Litorale","name:uk":"\u041f\u0440\u0438\u043c\u043e\u0440\u0441\u044c\u043a\u0438\u0439 \u043a\u0440\u0430\u0439","name:vi":"Primorsky (v\u00f9ng)","name:sv":"Primorje kraj","name:pl":"Kraj Nadmorski","name:hr":"Primorski kraj","id":-151225,"name:ca":"Territori de Prim\u00f3rie","kind":"region","name:en":"Primorsky Krai","name":"\u041f\u0440\u0438\u043c\u043e\u0440\u0441\u043a\u0438\u0439 \u043a\u0440\u0430\u0439","sort_rank":256,"kind_detail":"4","name:fr":"Kra\u00ef du Primorie","name:de":"Region Primorje","source":"openstreetmap.org","maritime_boundary":true,"osm_relation":true,"name:zh":"\u6ee8\u6d77\u8fb9\u7586\u533a","name:es":"Krai de Primorie"},"arcs":[9]}]},"roads":{"type":"GeometryCollection","geometries":[{"type":"MultiLineString","properties":{"sort_rank":381,"source":"openstreetmap.org","min_zoom":8.0,"kind":"major_road","kind_detail":"trunk"},"arcs":[[22],[23]]},{"type":"MultiLineString","properties":{"sort_rank":355,"source":"openstreetmap.org","min_zoom":8.0,"name":"\u0412\u043b\u0430\u0434\u0438\u0432\u043e\u0441\u0442\u043e\u043a - \u043e\u0441\u0442\u0440\u043e\u0432 \u0420\u0443\u0441\u0441\u043a\u0438\u0439","kind":"ferry"},"arcs":[[24],[25]]},{"type":"MultiLineString","properties":{"source":"openstreetmap.org","bus_network":null,"bus_shield_text":"29\u041a","sort_rank":381,"kind_detail":"trunk","min_zoom":8.0,"kind":"major_road"},"arcs":[[26],[27],[28]]},{"type":"LineString","properties":{"source":"openstreetmap.org","kind":"ferry","name":"\u043f\u0435\u0440\u0435\u043f\u0440\u0430\u0432\u0430 \u041f\u043e\u043f\u043e\u0432\u0430 <=> \u0420\u0443\u0441\u0441\u043a\u0438\u0439","sort_rank":355,"min_zoom":8.0,"id":387041567},"arcs":[29]},{"type":"LineString","properties":{"source":"openstreetmap.org","kind":"ferry","name":"\u0412\u043b\u0430\u0434\u0438\u0432\u043e\u0441\u0442\u043e\u043a - \u043e\u0441\u0442\u0440\u043e\u0432 \u0420\u0443\u0441\u0441\u043a\u0438\u0439","sort_rank":355,"min_zoom":8.0,"osm_relation":true,"id":-3118158},"arcs":[30]},{"type":"MultiLineString","properties":{"bus_network":"city","sort_rank":381,"kind_detail":"trunk","kind":"major_road","source":"openstreetmap.org","min_zoom":8.0,"bus_shield_text":"15","name:zh":"\u5b66\u5e9c\u5927\u9053"},"arcs":[[31],[32]]},{"type":"LineString","properties":{"kind":"ferry","name":"Sokcho - Zarubino","name:ko":"\uc18d\ucd08 - \uc790\ub8e8\ube44\ub178","landuse_kind":"protected_area","source":"openstreetmap.org","min_zoom":8.0,"name:ru":"\u0421\u043e\u043a\u0447\u043e - \u0417\u0430\u0440\u0443\u0431\u0438\u043d\u043e","id":74313291,"sort_rank":355},"arcs":[33]},{"type":"LineString","properties":{"kind":"ferry","sort_rank":355,"landuse_kind":"protected_area","source":"openstreetmap.org","min_zoom":8.0,"ref":"Sokcho - Zarubino","id":-1144889,"osm_relation":true},"arcs":[34]},{"type":"LineString","properties":{"kind":"ferry","name":"Sokcho - Vladivostok","sort_rank":355,"landuse_kind":"nature_reserve","source":"openstreetmap.org","min_zoom":8.0,"ref":"Sokcho - Vladivostok","osm_relation":true},"arcs":[35]},{"type":"LineString","properties":{"kind":"major_road","network":"ru:regional","sort_rank":381,"kind_detail":"trunk","source":"openstreetmap.org","min_zoom":8.0,"shield_text":"05\u0410","id":397130774},"arcs":[36]},{"type":"MultiLineString","properties":{"source":"openstreetmap.org","kind":"ferry","name":"Sokcho - Vladivostok","name:ko":"\uc18d\ucd08 - \ube14\ub77c\ub514\ubcf4\uc2a4\ud1a0\ud06c","sort_rank":355,"name:ru":"\u0421\u043e\u043a\u0447\u043e - \u0412\u043b\u0430\u0434\u0438\u0432\u043e\u0441\u0442\u043e\u043a","min_zoom":8.0},"arcs":[[37],[38]]},{"type":"MultiLineString","properties":{"bus_network":null,"sort_rank":381,"kind_detail":"trunk","kind":"major_road","source":"openstreetmap.org","min_zoom":8.0,"bus_shield_text":"22\u0414","name:zh":"\u5b66\u5e9c\u5927\u9053"},"arcs":[[39],[40],[41],[42],[43],[44]]},{"type":"LineString","properties":{"source":"openstreetmap.org","kind":"ferry","name":"\u0412\u043b\u0430\u0434\u0438\u0432\u043e\u0441\u0442\u043e\u043a - \u043e\u0441\u0442\u0440\u043e\u0432 \u041f\u043e\u043f\u043e\u0432\u0430","sort_rank":355,"min_zoom":8.0,"id":232238955},"arcs":[45]},{"type":"LineString","properties":{"kind":"ferry","name":"Sokcho - Vladivostok","name:ko":"\uc18d\ucd08 - \ube14\ub77c\ub514\ubcf4\uc2a4\ud1a0\ud06c","landuse_kind":"nature_reserve","source":"openstreetmap.org","min_zoom":8.0,"name:ru":"\u0421\u043e\u043a\u0447\u043e - \u0412\u043b\u0430\u0434\u0438\u0432\u043e\u0441\u0442\u043e\u043a","id":42256426,"sort_rank":355},"arcs":[46]},{"type":"MultiLineString","properties":{"sort_rank":355,"source":"openstreetmap.org","min_zoom":8.0,"kind":"ferry"},"arcs":[[47],[48]]},{"type":"MultiLineString","properties":{"source":"openstreetmap.org","kind":"ferry","name":"\u0412\u043b\u0430\u0434\u0438\u0432\u043e\u0441\u0442\u043e\u043a - \u043e\u0441\u0442\u0440\u043e\u0432 \u041f\u043e\u043f\u043e\u0432\u0430","sort_rank":355,"min_zoom":8.0,"osm_relation":true},"arcs":[[49],[50]]},{"type":"MultiLineString","properties":{"kind":"ferry","name":"Sokcho - Vladivostok","name:ko":"\uc18d\ucd08 - \ube14\ub77c\ub514\ubcf4\uc2a4\ud1a0\ud06c","landuse_kind":"protected_area","source":"openstreetmap.org","min_zoom":8.0,"name:ru":"\u0421\u043e\u043a\u0447\u043e - \u0412\u043b\u0430\u0434\u0438\u0432\u043e\u0441\u0442\u043e\u043a","id":42256426,"sort_rank":355},"arcs":[[51],[52]]},{"type":"MultiLineString","properties":{"source":"openstreetmap.org","bus_network":null,"bus_shield_text":"22\u0414","sort_rank":381,"kind_detail":"trunk","min_zoom":8.0,"kind":"major_road"},"arcs":[[53],[54],[55],[56],[57]]},{"type":"MultiLineString","properties":{"kind":"ferry","name":"Sokcho - Vladivostok","sort_rank":355,"landuse_kind":"protected_area","source":"openstreetmap.org","min_zoom":8.0,"ref":"Sokcho - Vladivostok","osm_relation":true},"arcs":[[58],[59]]},{"type":"LineString","properties":{"source":"openstreetmap.org","kind":"ferry","name":"Donghae - Vladivostok","sort_rank":355,"name:ru":"\u0414\u043e\u043d\u0445\u044d - \u0412\u043b\u0430\u0434\u0438\u0432\u043e\u0441\u0442\u043e\u043a","min_zoom":8.0,"osm_relation":true},"arcs":[60]},{"type":"MultiLineString","properties":{"source":"openstreetmap.org","kind":"ferry","sort_rank":355,"ref":"Sokcho - Zarubino","min_zoom":8.0,"osm_relation":true},"arcs":[[61],[62]]},{"type":"LineString","properties":{"source":"openstreetmap.org","kind":"major_road","sort_rank":380,"kind_detail":"primary","ref":"S201","min_zoom":8.0},"arcs":[63]},{"type":"MultiLineString","properties":{"bus_network":null,"alt_name:en":"Russian Bridge","sort_rank":381,"kind_detail":"trunk","name:pt":"Ponte da ilha Russky","name:de":"Russki-Br\u00fccke","source":"openstreetmap.org","name:fr":"Pont de l'\u00eele Rousski","name:en":"Russky Bridge","name:it":"Ponte dell'isola Russkij","bus_shield_text":"22\u0414","min_zoom":8.0,"name:zh":"\u4fc4\u7f57\u65af\u5927\u6865","kind":"major_road","name:es":"Puente de la isla Russki"},"arcs":[[64],[65]]},{"type":"MultiLineString","properties":{"kind":"major_road","name:en":"Razdolnoye - Khasan","network":"ru:regional","sort_rank":381,"kind_detail":"trunk","source":"openstreetmap.org","min_zoom":8.0,"shield_text":"05\u0410","ref":"05\u0410-214"},"arcs":[[66],[67]]},{"type":"LineString","properties":{"kind":"major_road","name:en":"Razdolnoye - Khasan","network":"ru:regional","sort_rank":380,"kind_detail":"primary","source":"openstreetmap.org","min_zoom":8.0,"shield_text":"05\u0410","ref":"05\u0410-214"},"arcs":[68]},{"type":"LineString","properties":{"source":"openstreetmap.org","kind":"ferry","name":"\ub3d9\ud574\/\u0422\u043e\u043d\u0445\u044d\/Donghae - \u0412\u043b\u0430\u0434\u0438\u0432\u043e\u0441\u0442\u043e\u043a\/\ube14\ub77c\ub514\ubcf4\uc2a4\ud1a0\ud06c\/Vladivostok","sort_rank":355,"name:ru":"\u0414\u043e\u043d\u0445\u044d - \u0412\u043b\u0430\u0434\u0438\u0432\u043e\u0441\u0442\u043e\u043a","min_zoom":8.0},"arcs":[69]},{"type":"MultiLineString","properties":{"source":"openstreetmap.org","kind":"ferry","name":"Sokcho - Zarubino","name:ko":"\uc18d\ucd08 - \uc790\ub8e8\ube44\ub178","sort_rank":355,"name:ru":"\u0421\u043e\u043a\u0447\u043e - \u0417\u0430\u0440\u0443\u0431\u0438\u043d\u043e","min_zoom":8.0},"arcs":[[70],[71]]},{"type":"MultiLineString","properties":{"source":"openstreetmap.org","kind":"ferry","name":"Sokcho - Vladivostok","sort_rank":355,"ref":"Sokcho - Vladivostok","min_zoom":8.0,"osm_relation":true},"arcs":[[72],[73]]},{"type":"MultiLineString","properties":{"bus_network":null,"sort_rank":381,"kind_detail":"trunk","kind":"major_road","source":"openstreetmap.org","min_zoom":8.0,"bus_shield_text":"29\u041a","name:zh":"\u5b66\u5e9c\u5927\u9053"},"arcs":[[74],[75],[76],[77]]}]},"earth":{"type":"GeometryCollection","geometries":[{"type":"MultiPolygon","properties":{"sort_rank":10,"source":"naturalearthdata.com","min_zoom":0.0,"kind":"earth","area":33576474669},"arcs":[[[78]],[[79]],[[80]]]}]},"landuse":{"type":"GeometryCollection","geometries":[{"type":"Polygon","properties":{"kind":"nature_reserve","area":274288992,"sort_rank":23,"source":"openstreetmap.org","min_zoom":6.0,"tier":2,"id":-2309145,"osm_relation":true},"arcs":[[81]]},{"type":"Polygon","properties":{"kind":"protected_area","protect_class":"98","area":1204130048,"sort_rank":17,"source":"openstreetmap.org","min_zoom":4.0,"tier":2,"id":-2309201,"osm_relation":true},"arcs":[[82]]},{"type":"Polygon","properties":{"kind":"protected_area","protect_class":"98","area":830513024,"sort_rank":17,"source":"openstreetmap.org","min_zoom":6.0,"tier":2,"id":-2309146,"osm_relation":true},"arcs":[[83]]},{"type":"Polygon","properties":{"kind":"nature_reserve","protect_class":"1","area":340822016,"sort_rank":23,"source":"openstreetmap.org","min_zoom":6.0,"tier":2,"id":374839012},"arcs":[[84]]},{"type":"MultiPolygon","properties":{"source":"openstreetmap.org","kind":"nature_reserve","tier":2,"area":692479975,"sort_rank":23,"min_zoom":6.0},"arcs":[[[85]],[[86]]]},{"type":"Polygon","properties":{"kind":"military","area":61001700,"sort_rank":45,"source":"openstreetmap.org","min_zoom":8.0,"tier":3,"id":-2453532,"osm_relation":true},"arcs":[[87]]}]}},"type":"Topology","transform":{"translate":[130.78125,42.0329743324],"scale":[0.0003433228,0.0002529086]},"arcs":[[[0,3260],[3,9],[-3,3]],[[0,3296],[70,51],[92,-3],[45,-75],[45,10],[46,-47],[50,26],[13,45],[106,25],[95,-80],[178,23],[-14,91],[-38,37],[-22,75],[48,56],[82,-39],[31,28],[51,-36],[72,-5],[38,61],[50,24],[-9,66],[26,57],[-96,12],[-16,85],[17,59],[-46,55],[66,121],[-14,64],[33,14]],[[1004,4096],[22,0]],[[1099,4096],[13,0]],[[0,249],[91,28],[197,123],[130,144],[-418,311]],[[0,3260],[3,9],[-3,3]],[[0,3296],[70,51],[92,-3],[45,-75],[45,10],[46,-47],[50,26],[13,45],[106,25],[95,-80],[178,23],[-14,91],[-38,37],[-22,75],[48,56],[82,-39],[31,28],[51,-36],[72,-5],[38,61],[50,24],[-9,66],[26,57],[-96,12],[-16,85],[17,59],[-46,55],[66,121],[-14,64],[33,14]],[[1004,4096],[22,0]],[[1099,4096],[13,0]],[[0,855],[418,-311],[74,179],[352,299],[786,334],[726,347],[123,82],[150,160],[166,281],[275,271],[934,-328],[92,-71]],[[0,2647],[28,-8],[213,40],[46,-68],[199,-19],[165,84],[266,-3],[118,72],[72,88],[247,63],[48,90],[-78,119],[74,111],[-64,88],[37,80],[34,39],[87,-4],[102,97],[-25,71],[13,33],[97,-26],[1,55],[48,7],[-3,58],[69,7],[25,85],[66,15],[38,146],[23,11],[68,-39],[109,10],[90,45],[78,102]],[[0,2647],[28,-8],[213,40],[46,-68],[199,-19],[165,84],[266,-3],[118,72],[72,88],[247,63],[48,90],[-78,119],[74,111],[-64,88],[37,80],[34,39],[87,-4],[102,97],[-25,71],[13,33],[97,-26],[1,55],[48,7],[-3,58],[69,7],[25,85],[66,15],[38,146],[23,11],[68,-39],[109,10],[90,45],[78,102]],[[0,1665],[16,31],[51,2],[55,10],[45,29],[19,56],[-4,30],[-16,49],[0,15],[14,38],[10,3],[12,-2],[23,18],[4,-14],[14,-15],[16,3],[8,38],[-10,31],[-42,15],[-9,34],[-29,42],[-170,82],[-7,12],[0,425],[2,2],[58,26],[69,10],[33,-31],[-14,-69],[-105,-44],[-26,-36],[48,-11],[129,40],[98,-9],[52,-17],[94,11],[53,-17],[-15,-87],[-37,-50],[-60,-6],[-64,86],[-77,8],[-71,9],[-67,-35],[49,-33],[117,-86],[50,-18],[72,8],[49,21],[62,83],[123,51],[115,18],[114,-25],[40,6],[17,57],[37,53],[43,-4],[20,-81],[-1,-117],[48,-18],[44,-45],[64,16],[-4,-43],[-23,-36],[-12,0],[0,-38],[11,-11],[25,-35],[17,-18],[27,-2],[27,-7],[27,-23],[19,13],[5,46],[9,17],[-34,53],[15,8],[47,5],[0,6],[-18,11],[2,22],[-13,30],[-47,15],[-20,21],[7,20],[18,14],[-2,55],[22,31],[22,65],[25,29],[42,-3],[20,4],[9,12],[3,16],[12,23],[3,15],[-6,12],[-27,11],[-7,15],[-38,48],[30,102],[30,75],[47,102],[78,63],[151,-75],[34,31],[-11,48],[2,49],[15,48],[39,49],[88,32],[79,65],[58,32],[45,37],[1,43],[-38,2],[-171,-44],[31,109],[-13,36],[-59,17],[5,62],[17,59],[34,22],[71,-61],[25,-4],[49,3],[64,28],[43,12],[12,-11],[10,59],[-13,53],[-9,55],[22,62],[53,37],[45,-28],[43,-37],[50,13],[8,44],[-12,65],[-2,57],[69,46],[57,75],[1693,0],[0,-4096],[-4096,0],[0,1665]],[[448,1729],[-11,22],[-39,-9],[-23,-7],[-2,-34],[-8,-13],[10,-15],[11,1],[2,-2],[27,20],[27,26],[6,11]],[[2012,2522],[-23,7],[-14,-10],[-12,-73],[-56,-31],[-46,-1],[55,-15],[64,-10],[2,0],[3,21],[4,20],[-3,31],[26,61]],[[2551,3320],[12,12],[50,-6],[-9,69],[-47,-23],[-23,-50],[-10,-9],[-11,-10],[-13,-11],[31,-24],[26,20],[-6,32]],[[2807,3507],[-2,9],[-12,-3],[-30,9],[-33,2],[-19,-21],[0,-35],[8,-33],[18,-9],[6,-8],[30,21],[35,14],[-9,42],[8,12]],[[2840,3663],[0,11],[-31,36],[-19,42],[-14,21],[-11,25],[-10,7],[-8,-44],[-26,-1],[-17,-24],[3,-33],[10,-16],[7,-23],[-8,-19],[-8,-12],[5,-11],[13,-7],[10,-11],[4,-12],[5,-28],[9,-8],[29,73],[36,9],[21,25]],[[3076,3670],[134,-2],[92,93],[17,48],[10,38],[-5,12],[-7,42],[2,18],[-83,46],[-48,60],[-61,41],[-82,15],[95,-81],[0,-29],[-56,17],[-59,30],[-61,14],[-62,-32],[18,-18],[11,-22],[11,-68],[-20,0],[-32,15],[-12,-23],[15,-39],[49,-36],[-100,-25],[98,-61],[136,-53]],[[0,1665],[16,31],[51,2],[55,10],[45,29],[19,56],[-4,30],[-16,49],[0,15],[14,38],[10,3],[12,-2],[23,18],[4,-14],[14,-15],[16,3],[8,38],[-10,31],[-42,15],[-9,34],[-29,42],[-170,82],[-7,12]],[[0,2597],[2,2],[58,26],[69,10],[33,-31],[-14,-69],[-105,-44],[-26,-36],[48,-11],[129,40],[98,-9],[52,-17],[94,11],[53,-17],[-15,-87],[-37,-50],[-60,-6],[-64,86],[-77,8],[-71,9],[-67,-35],[49,-33],[117,-86],[50,-18],[72,8],[49,21],[62,83],[123,51],[115,18],[114,-25],[40,6],[17,57],[37,53],[43,-4],[20,-81],[-1,-117],[48,-18],[44,-45],[64,16],[-4,-43],[-23,-36],[-12,0],[0,-38],[11,-11],[25,-35],[17,-18],[27,-2],[27,-7],[27,-23],[19,13],[5,46],[9,17],[-34,53],[15,8],[47,5],[0,6],[-18,11],[2,22],[-13,30],[-47,15],[-20,21],[7,20],[18,14],[-2,55],[22,31],[22,65],[25,29],[42,-3],[20,4],[9,12],[3,16],[12,23],[3,15],[-6,12],[-27,11],[-7,15],[-38,48],[30,102],[30,75],[47,102],[78,63],[151,-75],[34,31],[-11,48],[2,49],[15,48],[39,49],[88,32],[79,65],[58,32],[45,37],[1,43],[-38,2],[-171,-44],[31,109],[-13,36],[-59,17],[5,62],[17,59],[34,22],[71,-61],[25,-4],[49,3],[64,28],[43,12],[12,-11],[10,59],[-13,53],[-9,55],[22,62],[53,37],[45,-28],[43,-37],[50,13],[8,44],[-12,65],[-2,57],[69,46],[57,75]],[[3317,3901],[2,18],[-83,46],[-48,60],[-61,41],[-82,15],[95,-81],[0,-29],[-56,17],[-59,30],[-61,14],[-62,-32],[18,-18],[11,-22],[11,-68],[-20,0],[-32,15],[-12,-23],[15,-39],[49,-36],[-100,-25],[98,-61],[136,-53],[134,-2],[92,93],[17,48],[10,38],[-5,12],[-7,42]],[[3248,4039]],[[3249,4040],[-1,1]],[[3063,3999],[9,34]],[[3097,4096],[1,-29]],[[3277,3890],[-6,11]],[[3314,3826],[2,-5]],[[3316,3821],[-1,5]],[[2820,3758],[-9,-53]],[[3112,4096],[-62,-78]],[[3215,3987],[0,-4]],[[3215,3978],[0,4]],[[534,1322],[173,403]],[[534,1322],[173,403]],[[1596,2191],[160,339],[74,100]],[[1545,3354],[-1,4]],[[567,0],[933,1988]],[[1977,2831],[934,1265]],[[3215,3983],[-1,-10]],[[3214,3969],[0,4]],[[3248,4039],[-27,-32],[-6,-20]],[[3215,3982],[30,50]],[[3246,4034],[2,5]],[[3253,4049],[-4,-6]],[[3015,4096],[-96,-51],[-133,-248],[35,-63],[-9,-28],[54,-20],[188,-164],[98,27],[159,91],[107,215],[24,131],[-196,110]],[[1596,2191],[160,339],[74,100]],[[2808,3854],[-141,-112],[31,-68],[36,-8]],[[3112,4096],[-62,-78]],[[2808,3854],[-141,-112],[31,-68],[36,-8]],[[3015,4096],[-96,-51],[-133,-248],[35,-63],[-9,-28],[54,-20],[188,-164],[98,27],[159,91],[107,215],[24,131],[-196,110]],[[1500,1988],[96,203]],[[1830,2630],[147,201]],[[3214,3973],[-1,-4]],[[3214,3973],[1,5]],[[3245,4032],[1,2]],[[3249,4043],[-1,-4]],[[3248,4039],[6,10]],[[1500,1988],[96,203]],[[1830,2630],[148,201]],[[2549,0],[-44,958],[-257,2189],[15,82],[490,794],[87,73]],[[0,75],[534,1247]],[[707,1725],[252,585],[-12,59],[-67,44]],[[540,4096],[24,-168],[-36,-102],[-57,-107],[-80,3],[-64,-39],[-9,-94],[-34,-18],[-96,26],[-115,-57],[-32,9],[-25,56],[-16,-8]],[[3306,4096],[-53,-47]],[[3254,4049],[53,47]],[[1545,3354],[-47,-133],[-151,-87],[-112,-11],[-24,-54],[-125,-93],[22,-90],[-14,-46],[-129,-88],[-107,-49],[-371,41],[-174,-33],[-68,-36],[-192,-15]],[[1715,4096],[-107,-170],[-55,-261],[29,-148],[-18,-43],[22,-36],[-46,-51],[4,-29]],[[53,2660],[-53,18]],[[2549,0],[-44,958],[-257,2189],[15,82],[490,794],[87,73]],[[0,75],[534,1247]],[[707,1725],[252,611],[-79,77]],[[567,0],[933,1988]],[[1978,2831],[933,1265]],[[3213,3969],[-1,-17],[0,-10],[15,-22],[5,-3],[9,-2],[14,0],[12,-10],[4,-44],[19,-20],[24,-15]],[[3271,3901],[-15,14],[-28,5],[-14,49]],[[3315,3826],[-5,5],[-20,10],[-18,20],[5,29]],[[3316,3821],[-5,-71],[-27,-13],[-20,-18],[-6,-14],[-39,20],[25,-21],[14,1],[54,45],[4,71]],[[0,4096],[2403,0],[-57,-75],[-69,-46],[2,-57],[12,-65],[-8,-44],[-50,-13],[-43,37],[-45,28],[-53,-37],[-22,-62],[9,-55],[13,-53],[-10,-59],[-12,11],[-43,-12],[-64,-28],[-49,-3],[-25,4],[-71,61],[-34,-22],[-17,-59],[-5,-62],[59,-17],[13,-36],[-31,-109],[171,44],[38,-2],[-1,-43],[-45,-37],[-58,-32],[-79,-65],[-88,-32],[-39,-49],[-15,-48],[-2,-49],[11,-48],[-34,-31],[-151,75],[-78,-63],[-47,-102],[-30,-75],[-30,-102],[38,-48],[7,-15],[27,-11],[6,-12],[-3,-15],[-12,-23],[-3,-16],[-9,-12],[-20,-4],[-42,3],[-25,-29],[-22,-65],[-22,-31],[2,-55],[-18,-14],[-7,-20],[20,-21],[47,-15],[13,-30],[-2,-22],[18,-11],[0,-6],[-47,-5],[-15,-8],[34,-53],[-9,-17],[-5,-46],[-19,-13],[-27,23],[-27,7],[-27,2],[-17,18],[-25,35],[-11,11],[0,38],[12,0],[23,36],[4,43],[-64,-16],[-44,45],[-48,18],[1,117],[-20,81],[-43,4],[-37,-53],[-17,-57],[-40,-6],[-114,25],[-115,-18],[-123,-51],[-62,-83],[-49,-21],[-72,-8],[-50,18],[-117,86],[-49,33],[67,35],[71,-9],[77,-8],[64,-86],[60,6],[37,50],[15,87],[-53,17],[-94,-11],[-52,17],[-98,9],[-129,-40],[-48,11],[26,36],[105,44],[14,69],[-33,31],[-69,-10],[-58,-26],[-2,-2],[0,1499]],[[0,1665],[0,507],[7,-12],[170,-82],[29,-42],[9,-34],[42,-15],[10,-31],[-8,-38],[-16,-3],[-14,15],[-4,14],[-23,-18],[-12,2],[-10,-3],[-14,-38],[0,-15],[16,-49],[4,-30],[-19,-56],[-45,-29],[-55,-10],[-51,-2],[-16,-31]],[[3188,4025],[48,-60],[83,-46],[-2,-18],[7,-42],[5,-12],[-10,-38],[-17,-48],[-92,-93],[-134,2],[-136,53],[-98,61],[100,25],[-49,36],[-15,39],[12,23],[32,-15],[20,0],[-11,68],[-11,22],[-18,18],[62,32],[61,-14],[59,-30],[56,-17],[0,29],[-95,81],[82,-15],[61,-41]],[[0,1639],[6,15],[-6,32],[0,34],[71,36],[79,-34],[48,67],[-57,165],[41,36],[26,-8],[33,-71],[15,51],[-14,30],[-67,26],[0,80],[346,-329],[10,-244],[-531,-22],[0,136]],[[1199,2302],[28,48],[-22,23],[15,76],[41,26],[-16,53],[43,38],[30,-4],[20,41],[-12,42],[36,167],[748,23],[81,-28],[67,-78],[35,-552],[-42,-95],[-83,-61],[-890,-45],[8,137],[-50,66],[43,35],[0,31],[-57,15],[-23,42]],[[0,1643],[6,11],[-6,3],[0,76],[61,38],[86,-34],[25,53],[-46,150],[46,61],[-17,102],[-54,5],[-65,48],[-36,-15],[0,156],[45,74],[33,4],[102,-31],[33,-37],[71,2],[-11,-72],[46,-8],[345,-335],[39,-96],[16,-310],[-47,-100],[-116,-65],[-556,-19],[0,339]],[[2290,4096],[-72,-94],[-6,44],[-87,-98],[-111,-10],[-74,39],[-113,119],[463,0]],[[0,1635],[0,32],[21,-6],[-21,-26]],[[1215,2311],[36,21],[-28,57],[48,20],[-37,31],[59,14],[-28,75],[34,22],[28,-26],[22,14],[-15,20],[21,50],[730,32],[17,-430],[-848,-33],[61,13],[-12,66],[-31,23],[-38,-8],[-19,39]],[[1432,3081],[185,30],[65,-49],[8,-66],[63,-48],[-55,-65],[-30,4],[-59,74],[-140,-18],[-37,138]]]}