{"objects":{"water":{"type":"GeometryCollection","geometries":[{"type":"MultiPolygon","properties":{"kind":"lake","name":"Bratsk Res. (Bratskoye Vdkhr.)","reservoir":true,"area":17394216960,"sort_rank":200,"source":"naturalearthdata.com","min_zoom":0.0,"id":304},"arcs":[[[2]],[[3]]]},{"type":"Polygon","properties":{"kind":"lake","name":"Hyargas Nuur","area":2962988288,"sort_rank":200,"alkaline":true,"source":"naturalearthdata.com","min_zoom":0.0,"id":262},"arcs":[[4]]},{"type":"Polygon","properties":{"source":"naturalearthdata.com","kind":"lake","name":"Lake Baikal","area":88682364928,"sort_rank":200,"min_zoom":0.0,"id":12},"arcs":[[5],[6]]},{"type":"Polygon","properties":{"kind":"lake","name":"Uvs Nuur","area":7960373248,"sort_rank":200,"alkaline":true,"source":"naturalearthdata.com","min_zoom":0.0,"id":66},"arcs":[[7]]},{"type":"Polygon","properties":{"source":"naturalearthdata.com","kind":"playa","area":2801310720,"sort_rank":200,"min_zoom":0.0,"id":10},"arcs":[[8]]},{"type":"Polygon","properties":{"source":"naturalearthdata.com","kind":"lake","name":"\u00dc\u00fcreg Nuur","area":437194016,"sort_rank":200,"min_zoom":0.0,"id":360},"arcs":[[9]]},{"type":"Polygon","properties":{"source":"naturalearthdata.com","kind":"lake","name":"Har Us Nuur","area":3364030976,"sort_rank":200,"min_zoom":0.0,"id":141},"arcs":[[10]]},{"type":"Polygon","properties":{"source":"naturalearthdata.com","kind":"lake","name":"H\u00f6vsg\u00f6l Nuur","area":7024118784,"sort_rank":200,"min_zoom":0.0,"id":65},"arcs":[[11]]},{"type":"Point","properties":{"label_placement":true,"kind":"lake","name":"Lake Baikal","area":88682364928,"sort_rank":200,"source":"naturalearthdata.com","min_zoom":0.0,"id":12},"coordinates":[3321,3520]},{"type":"Point","properties":{"label_placement":true,"kind":"lake","name":"Bratsk Res. (Bratskoye Vdkhr.)","reservoir":true,"area":17394216960,"sort_rank":200,"source":"naturalearthdata.com","min_zoom":0.0,"id":304},"coordinates":[2389,3812]},{"type":"Point","properties":{"label_placement":true,"kind":"lake","name":"Uvs Nuur","area":7960373248,"sort_rank":200,"alkaline":true,"source":"naturalearthdata.com","min_zoom":0.0,"id":66},"coordinates":[505,2592]},{"type":"Point","properties":{"label_placement":true,"kind":"lake","name":"H\u00f6vsg\u00f6l Nuur","area":7024118784,"sort_rank":200,"source":"naturalearthdata.com","min_zoom":0.0,"id":65},"coordinates":[1911,2791]},{"type":"Point","properties":{"label_placement":true,"kind":"lake","name":"Har Us Nuur","area":3364030976,"sort_rank":200,"source":"naturalearthdata.com","min_zoom":0.0,"id":141},"coordinates":[429,1964]},{"type":"Point","properties":{"label_placement":true,"kind":"lake","name":"Hyargas Nuur","area":2962988288,"sort_rank":200,"alkaline":true,"source":"naturalearthdata.com","min_zoom":0.0,"id":262},"coordinates":[625,2261]},{"type":"Point","properties":{"label_placement":true,"kind":"lake","name":"\u00dc\u00fcreg Nuur","area":437194016,"sort_rank":200,"source":"naturalearthdata.com","min_zoom":0.0,"id":360},"coordinates":[185,2540]},{"type":"LineString","properties":{"source":"naturalearthdata.com","kind":"playa","sort_rank":367,"boundary":true,"min_zoom":0.0,"id":10},"arcs":[12]},{"type":"MultiLineString","properties":{"source":"naturalearthdata.com","kind":"lake","sort_rank":367,"boundary":true,"min_zoom":0.0,"id":12},"arcs":[[13],[14],[15]]},{"type":"LineString","properties":{"source":"naturalearthdata.com","kind":"lake","sort_rank":367,"boundary":true,"min_zoom":0.0,"id":65},"arcs":[16]},{"type":"LineString","properties":{"source":"naturalearthdata.com","kind":"lake","sort_rank":367,"alkaline":true,"boundary":true,"min_zoom":0.0,"id":66},"arcs":[17]},{"type":"LineString","properties":{"source":"naturalearthdata.com","kind":"lake","sort_rank":367,"boundary":true,"min_zoom":0.0,"id":141},"arcs":[18]},{"type":"LineString","properties":{"source":"naturalearthdata.com","kind":"lake","sort_rank":367,"alkaline":true,"boundary":true,"min_zoom":0.0,"id":262},"arcs":[19]},{"type":"MultiLineString","properties":{"source":"naturalearthdata.com","kind":"lake","reservoir":true,"sort_rank":367,"boundary":true,"min_zoom":0.0,"id":304},"arcs":[[20],[21],[22]]},{"type":"LineString","properties":{"source":"naturalearthdata.com","kind":"lake","sort_rank":367,"boundary":true,"min_zoom":0.0,"id":360},"arcs":[23]}]},"buildings":{"type":"GeometryCollection","geometries":[]},"places":{"type":"GeometryCollection","geometries":[{"type":"Point","properties":{"name:pt":"Mong\u00f3lia","name:ps":"\u0645\u063a\u0648\u0644\u0633\u062a\u0627\u0646","name:cy":"Mongolia","name:mt":"Mongolja","name:ko":"\ubabd\uace8","name:kn":"\u0cae\u0cca\u0c82\u0c97\u0ccb\u0cb2\u0cbf\u0caf\u0cbe","name:km":"\u1798\u17c9\u17bb\u1784\u17a0\u17d2\u1782\u17c4\u179b\u17b8","name:cs":"Mongolsko","alt_name:eo":"Mongolio","name:ki":"Mongolia","name:tr":"Mo\u011folistan","name:ku":"Mongolya","name:ti":"\u121e\u1295\u130e\u120a\u12eb","name:ks":"\u0645\u064e\u0646\u065b\u06af\u0648\u0644\u0650\u06cc\u0627","name:to":"Mongok\u014dlia","name:tl":"Monggolya","name:sv":"Mongoliet","name:or":"\u0b2e\u0b19\u0b4d\u0b17\u0b4b\u0b32\u0b3f\u0b06","name:pl":"Mongolia","name:ta":"\u0bae\u0b99\u0bcd\u0b95\u0bcb\u0bb2\u0bbf\u0baf\u0bbe","name:tg":"\u041c\u0443\u0493\u0443\u043b\u0438\u0441\u0442\u043e\u043d","name:ca":"Mong\u00f2lia","name:te":"\u0c2e\u0c02\u0c17\u0c4b\u0c32\u0c3f\u0c2f\u0c3e","name:hu":"Mong\u00f3lia","name:ro":"Mongolia","name:ka":"\u10db\u10dd\u10dc\u10e6\u10dd\u10da\u10d4\u10d7\u10d8","name:hr":"Mongolija","name:da":"Mongoliet","name:de":"Mongolei","name:dz":"\u0f66\u0f7c\u0f42\u0f0b\u0f54\u0f7c\u0f0b\u0f61\u0f74\u0f63","source":"openstreetmap.org","name:lv":"Mongolija","name:lt":"Mongolija","name:uz":"Mo\u02bbg\u02bbuliston","name:kk":"\u041c\u043e\u043d\u0493\u043e\u043b\u0438\u044f","name:he":"\u05de\u05d5\u05e0\u05d2\u05d5\u05dc\u05d9\u05d4","kind":"country","name:ur":"\u0645\u0646\u06af\u0648\u0644\u06cc\u0627","name:lb":"Mongolei","name:la":"Mogolia","name:lg":"Mongoliya","name:uk":"\u041c\u043e\u043d\u0433\u043e\u043b\u0456\u044f","name:hy":"\u0544\u0578\u0576\u0572\u0578\u056c\u056b\u0561","min_zoom":2.0,"name:li":"Mongoli\u00eb","name:ln":"Mongol\u00ed","name:lo":"\u0ea1\u0ebb\u0e87\u0ec2\u0e81\u0e99","population":3179997,"name:el":"\u039c\u03bf\u03b3\u03b3\u03bf\u03bb\u03af\u03b1","name:eo":"Mongolujo","name:en":"Mongolia","name":"\u041c\u043e\u043d\u0433\u043e\u043b \u0423\u043b\u0441","name:ee":"Mongolia nutome","name:th":"\u0e1b\u0e23\u0e30\u0e40\u0e17\u0e28\u0e21\u0e2d\u0e07\u0e42\u0e01\u0e40\u0e25\u0e35\u0e22","name:gu":"\u0aae\u0a82\u0a97\u0acb\u0ab2\u0abf\u0aaf\u0abe","name:eu":"Mongolia","name:et":"Mongoolia","name:nl":"Mongoli\u00eb","name:es":"Mongolia","name:ia":"Mongolia","name:rm":"Mongolia","name:rn":"Mongoliya","name:az":"Monqolustan","name:id":"Mongolia","name:ms":"Mongolia","name:mr":"\u092e\u0902\u0917\u094b\u0932\u093f\u092f\u093e","name:ar":"\u0645\u0646\u063a\u0648\u0644\u064a\u0627","name:my":"\u1019\u103d\u1014\u103a\u1002\u102d\u102f\u1038\u101c\u102e\u1038\u101a\u102c\u1038","name:io":"Mongolia","int_name":"Mongolia","name:is":"Mong\u00f3l\u00eda","name:am":"\u121e\u1295\u130e\u120a\u12eb","name:it":"Mongolia","name:vi":"M\u00f4ng C\u1ed5","name:ru":"\u041c\u043e\u043d\u0433\u043e\u043b\u0438\u044f","id":432425040,"name:mk":"\u041c\u043e\u043d\u0433\u043e\u043b\u0438\u0458\u0430","name:af":"Mongoli\u00eb","name:zu":"i-Mongolia","name:ha":"Mangoliya","name:nn":"Mongolia","name:ff":"Monngolii","name:fi":"Mongolia","name:hi":"\u092e\u0902\u0917\u094b\u0932\u093f\u092f\u093e","name:mg":"M\u00f4ng\u00f4lia","name:fo":"Mongolia","name:fr":"Mongolie","name:fy":"Mongoalje","name:vo":"Mongol\u00e4n","name:zh":"\u8499\u53e4\u56fd","name:gv":"Yn Vongoil","name:so":"Mongooliya","name:sn":"Mongolia","name:sl":"Mongolija","name:sk":"Mongolsko","name:ja":"\u30e2\u30f3\u30b4\u30eb","name:si":"\u0db8\u0ddc\u0db1\u0dca\u0d9c\u0ddd\u0dbd\u0dd2\u0dba\u0dcf\u0dc0","name:fa":"\u0645\u063a\u0648\u0644\u0633\u062a\u0627\u0646","name:sg":"Mongol\u00efi","name:se":"Mongolia","name:ne":"\u092e\u0919\u094d\u0917\u094b\u0932\u093f\u092f\u093e","name:br":"Mongolia","name:bs":"Mongolija","name:bm":"Mo\u014boli","name:bn":"\u09ae\u0999\u09cd\u0997\u09cb\u09b2\u09bf\u09af\u09bc\u09be","name:bo":"\u0f66\u0f7c\u0f42\u0f0b\u0f61\u0f74\u0f63\u0f0d","name:ml":"\u0d2e\u0d02\u0d17\u0d4b\u0d33\u0d3f\u0d2f","name:no":"Mongolia","name:sw":"Mongolia","name:be":"\u041c\u0430\u043d\u0433\u043e\u043b\u0456\u044f","name:bg":"\u041c\u043e\u043d\u0433\u043e\u043b\u0438\u044f","name:sr":"\u041c\u043e\u043d\u0433\u043e\u043b\u0438\u0458\u0430","name:sq":"Mongoli","name:ga":"An Mhong\u00f3il","name:gd":"Mong\u00f2ilia","name:gl":"Mongolia","name:yo":"Or\u00edl\u1eb9\u0301\u00e8de Mogolia","name:ak":"M\u0254ngolia"},"coordinates":[2521,1618]},{"type":"Point","properties":{"kind":"region","name:en":"Khovd","name":"\u0425\u043e\u0432\u0434","kind_detail":"state","min_zoom":4.0,"name:de":"Chowd","source":"openstreetmap.org","name:fr":"Hovd","name:pl":"Kobdoski","name:hu":"Hovd","id":2704047236,"name:ja":"\u30db\u30d6\u30c9"},"coordinates":[418,1639]},{"type":"Point","properties":{"kind":"region","name:en":"Govi-Altai","name":"\u0413\u043e\u0432\u044c-\u0410\u043b\u0442\u0430\u0439","kind_detail":"state","name:de":"Gobi-Altai","source":"openstreetmap.org","min_zoom":4.0,"name:pl":"Gobijsko-a\u0142tajski","name:hu":"G\u00f3bi-Altaj","id":2704047267,"name:ja":"\u30b4\u30d3\u30fb\u30a2\u30eb\u30bf\u30a4"},"coordinates":[1080,1209]},{"type":"Point","properties":{"kind":"region","name:en":"Uvs","name":"\u0423\u0432\u0441 \u0430\u0439\u043c\u0430\u0433","kind_detail":"state","name:de":"Uws","source":"openstreetmap.org","min_zoom":4.0,"name:ru":"\u0423\u0432\u0441","name:pl":"Uwski","name:hu":"Uvsz","id":2704047291,"name:ja":"\u30aa\u30d6\u30b9"},"coordinates":[538,2395]},{"type":"Point","properties":{"kind":"region","name:en":"Zavkhan","name":"\u0417\u0430\u0432\u0445\u0430\u043d","kind_detail":"state","name:de":"Zawchan","source":"openstreetmap.org","min_zoom":4.0,"name:pl":"Dzawcha\u0144ski","name:hu":"Dzavhan","id":2704047295,"name:ja":"\u30b6\u30d6\u30cf\u30f3"},"coordinates":[1174,2025]},{"type":"Point","properties":{"kind":"region","name:en":"Tuva","name:sk":"Tuviansko","name":"\u0422\u0443\u0432\u0430","kind_detail":"state","name:eo":"Tuvio","official_name":"\u0420\u0435\u0441\u043f\u0443\u0431\u043b\u0438\u043a\u0430 \u0422\u0443\u0432\u0430","name:de":"Tuwa","source":"openstreetmap.org","min_zoom":4.0,"name:fr":"Touva","name:hu":"Tuva","name:hr":"Tuva","id":503068230,"name:es":"Tuv\u00e1"},"coordinates":[702,2885]},{"type":"Point","properties":{"kind":"region","name:en":"Arkhangai","name":"\u0410\u0440\u0445\u0430\u043d\u0433\u0430\u0439","kind_detail":"state","name:de":"Archangai","source":"openstreetmap.org","min_zoom":4.0,"name:pl":"P\u00f3\u0142nocnochangajski","name:hu":"Arhangaj","id":2704047215,"name:ja":"\u30a2\u30eb\u30cf\u30f3\u30ac\u30a4"},"coordinates":[2008,1905]},{"type":"Point","properties":{"kind":"region","name:en":"Kh\u00f6vsg\u00f6l","name":"\u0425\u04e9\u0432\u0441\u0433\u04e9\u043b","kind_detail":"state","name:de":"Ch\u00f6wsg\u00f6l","source":"openstreetmap.org","min_zoom":4.0,"name:ru":"\u0425\u0443\u0432\u0441\u0433\u0435\u043b","name:pl":"Chubsugulski","name:hu":"H\u00f6vszg\u00f6l","id":2704047238,"name:ja":"\u30d5\u30d6\u30b9\u30b0\u30eb"},"coordinates":[1805,2558]},{"type":"Point","properties":{"kind":"region","name:en":"Bayankhongor","name":"\u0411\u0430\u044f\u043d\u0445\u043e\u043d\u0433\u043e\u0440","kind_detail":"state","name:de":"Bajanchongor","source":"openstreetmap.org","min_zoom":4.0,"name:pl":"Bajanchongorski","name:hu":"Bajanhongor","id":2704047224,"name:ja":"\u30d0\u30e4\u30f3\u30db\u30f3\u30b4\u30eb"},"coordinates":[1732,1179]},{"type":"Point","properties":{"kind":"region","name:en":"East Gobi","name":"\u0414\u043e\u0440\u043d\u043e\u0433\u043e\u0432\u044c","alt_name:de":"Dorno-Gobi","kind_detail":"state","name:eo":"Orientogobia Provinco","name:zh_PY":"X\u012bnb\u0101'\u011brh\u01d4 Y\u00f2u Q\u00ed","name:de":"Ostgobi","source":"openstreetmap.org","min_zoom":4.0,"alt_name:en":"Dornogovi","name:pl":"Wschodniogobijski","name:hu":"Dornogovi","id":2704047246,"name:ja":"\u30c9\u30eb\u30ce\u30b4\u30d3"},"coordinates":[3601,952]},{"type":"Point","properties":{"kind":"region","name:en":"Govis\u00fcmber","name":"\u0413\u043e\u0432\u044c\u0441\u04af\u043c\u0431\u044d\u0440","kind_detail":"state","name:de":"Gobi-S\u00fcmber","source":"openstreetmap.org","min_zoom":4.0,"name:ru":"\u0413\u043e\u0432\u044c-\u0421\u0443\u043c\u0431\u044d\u0440","name:pl":"Gobijsko-sumberski","name:hu":"G\u00f3bi-Sz\u00fcmber","id":2704047272,"name:ja":"\u30b4\u30d3\u30b9\u30f3\u30d9\u30eb"},"coordinates":[3371,1517]},{"type":"Point","properties":{"name:sk":"Buriatsko","name:ja":"\u30d6\u30ea\u30e4\u30fc\u30c8\u5171\u548c\u56fd","name:lt":"Buriatija","name:eo":"Burjatio","min_zoom":4.0,"name:uk":"\u0411\u0443\u0440\u044f\u0442\u0456\u044f","name:be":"\u0411\u0443\u0440\u0430\u0446\u0456\u044f","name:pl":"Buriacja","name:hu":"Burj\u00e1tf\u00f6ld","name:hr":"Burjatska","id":503080952,"kind":"region","name:en":"Buryatia","name":"\u0411\u0443\u0440\u044f\u0442\u0438\u044f","kind_detail":"state","name:de":"Burjatien","source":"openstreetmap.org","name:fr":"Bouriatie","name:es":"Buriatia"},"coordinates":[3548,3249]},{"type":"Point","properties":{"name:sk":"Chakasko","name:ja":"\u30cf\u30ab\u30b9\u5171\u548c\u56fd","name:lt":"Chakasija","kind":"region","official_name":"\u0420\u0435\u0441\u043f\u0443\u0431\u043b\u0438\u043a\u0430 \u0425\u0430\u043a\u0430\u0441\u0438\u044f","min_zoom":4.0,"name:uk":"\u0425\u0430\u043a\u0430\u0441\u0456\u044f","name:be":"\u0425\u0430\u043a\u0430\u0441\u0456\u044f","name:pl":"Chakasja","name:hu":"Hakaszf\u00f6ld","name:hr":"Hakasija","id":503064678,"name:eo":"Respubliko \u0124akasio","name:en":"Khakassia","name":"\u0425\u0430\u043a\u0430\u0441\u0438\u044f","kind_detail":"state","name:da":"Khakasien","name:de":"Chakassien","source":"openstreetmap.org","name:fr":"Khakassie","name:es":"Jakasia"},"coordinates":[12,3449]},{"type":"Point","properties":{"kind":"region","name:en":"Darkhan-Uul","name":"\u0414\u0430\u0440\u0445\u0430\u043d-\u0423\u0443\u043b","kind_detail":"state","name:de":"Darchan-Uul","source":"openstreetmap.org","min_zoom":4.0,"name:pl":"Darcha\u0144ski","name:hu":"Darhan-\u00dal","id":2704047241,"name:ja":"\u30c0\u30eb\u30cf\u30f3\u30fb\u30aa\u30fc\u30eb"},"coordinates":[2966,2324]},{"type":"Point","properties":{"kind":"region","name:en":"Middle Gobi","name":"\u0414\u0443\u043d\u0434\u0433\u043e\u0432\u044c","alt_name:de":"Dund-Gobi","kind_detail":"state","name:zh_PY":"X\u012bnb\u0101'\u011brh\u01d4 Y\u00f2u Q\u00ed","name:de":"Mittelgobi","source":"openstreetmap.org","min_zoom":4.0,"alt_name:en":"Dundgovi","name:hu":"Dundgovi","id":2704047262,"name:ja":"\u30c9\u30f3\u30c9\u30b4\u30d3"},"coordinates":[2960,1256]},{"type":"Point","properties":{"kind":"region","name:en":"Selenge","name":"\u0421\u044d\u043b\u044d\u043d\u0433\u044d","kind_detail":"state","name:de":"Selenge","source":"openstreetmap.org","min_zoom":4.0,"name:pl":"Selengijski","name:hu":"Szelenge","id":2704047282,"name:ja":"\u30bb\u30ec\u30f3\u30b2"},"coordinates":[3106,2328]},{"type":"Point","properties":{"kind":"region","name:en":"Central","name":"\u0422\u04e9\u0432","alt_name:de":"T\u00f6w","kind_detail":"state","name:de":"Zentral","source":"openstreetmap.org","min_zoom":4.0,"alt_name:en":"Tuv","name:ru":"\u0422\u0443\u0432\u0435","name:pl":"Centralny","name:hu":"T\u00f6v","id":2704047290,"name:ja":"\u30c8\u30a5\u30d6"},"coordinates":[3013,1796]},{"type":"Point","properties":{"kind":"region","name:en":"Khentii","name":"\u0425\u044d\u043d\u0442\u0438\u0439","kind_detail":"state","name:de":"Chentii","source":"openstreetmap.org","min_zoom":4.0,"name:pl":"Chentejski","name:hu":"Hentij","id":2704047232,"name:ja":"\u30d8\u30f3\u30c6\u30a3\u30fc"},"coordinates":[3717,1912]},{"type":"Point","properties":{"kind":"region","name:en":"Bulgan","name":"\u0411\u0443\u043b\u0433\u0430\u043d","kind_detail":"state","name:de":"Bulgan","source":"openstreetmap.org","min_zoom":4.0,"name:pl":"Bulga\u0144ski","name:hu":"Bulgan","id":2704047228,"name:ja":"\u30dc\u30eb\u30ac\u30f3"},"coordinates":[2439,2207]},{"type":"Point","properties":{"kind":"region","name:en":"\u00d6mn\u00f6govi","name":"\u04e8\u043c\u043d\u04e9\u0433\u043e\u0432\u044c","alt_name:de":"\u00d6mn\u00f6-Gobi","kind_detail":"state","name:eo":"Sudgobia Provinco","name:de":"S\u00fcdgobi","source":"openstreetmap.org","min_zoom":4.0,"alt_name:en":"South Gobi","name:ru":"\u0423\u043c\u043d\u0435\u0433\u043e\u0432\u044c","name:pl":"Po\u0142udniowogobijski","name:hu":"\u00d6mn\u00f6govi","id":2704047299,"name:ja":"\u30a6\u30e0\u30cc\u30b4\u30d3"},"coordinates":[2569,637]},{"type":"Point","properties":{"kind":"region","name:en":"Orkhon","name":"\u041e\u0440\u0445\u043e\u043d \u0430\u0439\u043c\u0430\u0433","kind_detail":"state","name:de":"Orchon","source":"openstreetmap.org","min_zoom":4.0,"name:ru":"\u041e\u0440\u0445\u043e\u043d","name:pl":"Orcho\u0144ski","name:hu":"Orhon","id":2704047278,"name:ja":"\u30aa\u30eb\u30db\u30f3"},"coordinates":[2603,2227]},{"type":"Point","properties":{"kind":"region","name:en":"Uvurkhangai","name":"\u04e8\u0432\u04e9\u0440\u0445\u0430\u043d\u0433\u0430\u0439","kind_detail":"state","name:de":"\u00d6w\u00f6rchangai","source":"openstreetmap.org","min_zoom":4.0,"name:ru":"\u0423\u0432\u0435\u0440\u0445\u0430\u043d\u0433\u0430\u0439","name:pl":"Po\u0142udniowochangajski","name:hu":"\u00d6v\u00f6rhangaj","id":2704047305,"name:ja":"\u30a6\u30d6\u30eb\u30cf\u30f3\u30ac\u30a4"},"coordinates":[2316,1343]}]},"transit":{"type":"GeometryCollection","geometries":[]},"pois":{"type":"GeometryCollection","geometries":[{"type":"Point","properties":{"kind":"nature_reserve","name:en":"Tunkinsky National Park","protect_class":"2","area":30419000000,"source":"openstreetmap.org","min_zoom":4.84,"tier":2,"id":-6970686,"osm_relation":true,"name":"\u0422\u0443\u043d\u043a\u0438\u043d\u0441\u043a\u0438\u0439 \u043d\u0430\u0446\u0438\u043e\u043d\u0430\u043b\u044c\u043d\u044b\u0439 \u043f\u0430\u0440\u043a"},"coordinates":[2231,2921]}]},"boundaries":{"type":"GeometryCollection","geometries":[{"type":"LineString","properties":{"source":"naturalearthdata.com","kind":"country","sort_rank":262,"kind_detail":"2","min_zoom":0.0,"id":24},"arcs":[0]},{"type":"LineString","properties":{"source":"naturalearthdata.com","kind":"country","sort_rank":262,"kind_detail":"2","min_zoom":0.0,"id":168},"arcs":[1]}]},"roads":{"type":"GeometryCollection","geometries":[]},"earth":{"type":"GeometryCollection","geometries":[{"type":"Polygon","properties":{"sort_rank":10,"source":"naturalearthdata.com","kind":"earth","min_zoom":0.0,"id":1381},"arcs":[[24]]}]},"landuse":{"type":"GeometryCollection","geometries":[{"type":"Polygon","properties":{"kind":"park","name":"\u0411\u0430\u0439\u043a\u0430\u043b\u044c\u0441\u043a\u0438\u0439 \u0437\u0430\u043f\u043e\u0432\u0435\u0434\u043d\u0438\u043a","area":4186230016,"sort_rank":24,"source":"openstreetmap.org","min_zoom":4.0,"tier":2,"id":-555786,"osm_relation":true},"arcs":[[25]]},{"type":"Polygon","properties":{"kind":"nature_reserve","name":"\u0422\u043e\u0444\u0430\u043b\u0430\u0440\u0441\u043a\u0438\u0439 \u0437\u0430\u043a\u0430\u0437\u043d\u0438\u043a","area":3661929984,"sort_rank":23,"source":"openstreetmap.org","min_zoom":4.0,"tier":2,"id":474147037},"arcs":[[26]]},{"type":"Polygon","properties":{"kind":"nature_reserve","name":"\u0417\u0430\u043f\u043e\u0432\u0435\u0434\u043d\u0438\u043a \u00ab\u0421\u0442\u043e\u043b\u0431\u044b\u00bb","area":1518470016,"sort_rank":23,"source":"openstreetmap.org","min_zoom":4.0,"tier":2,"id":-1748756,"osm_relation":true,"protect_class":"2"},"arcs":[[27]]},{"type":"Polygon","properties":{"kind":"nature_reserve","name":"\u0422\u0443\u043d\u043a\u0438\u043d\u0441\u043a\u0438\u0439 \u043d\u0430\u0446\u0438\u043e\u043d\u0430\u043b\u044c\u043d\u044b\u0439 \u043f\u0430\u0440\u043a","area":30418999296,"sort_rank":23,"source":"openstreetmap.org","min_zoom":4.0,"tier":2,"id":-6970686,"osm_relation":true,"protect_class":"2"},"arcs":[[28]]},{"type":"Polygon","properties":{"kind":"nature_reserve","name":"\u0417\u043e\u043d\u0430 \u043f\u043e\u043b\u043d\u043e\u0439 \u0437\u0430\u043f\u043e\u0432\u0435\u0434\u043d\u043e\u0441\u0442\u0438 \u0437\u0430\u043f\u043e\u0432\u0435\u0434\u043d\u0438\u043a\u0430 \u00ab\u0421\u0442\u043e\u043b\u0431\u044b\u00bb","area":1347890048,"sort_rank":23,"operator":"\u0424\u0413\u0411\u0423 \u00ab\u0413\u043e\u0441\u0443\u0434\u0430\u0440\u0441\u0442\u0432\u0435\u043d\u043d\u044b\u0439 \u0437\u0430\u043f\u043e\u0432\u0435\u0434\u043d\u0438\u043a \u00ab\u0421\u0442\u043e\u043b\u0431\u044b\u00bb","source":"openstreetmap.org","min_zoom":4.0,"tier":2,"id":-7771087,"osm_relation":true,"protect_class":"1a"},"arcs":[[29]]},{"type":"Polygon","properties":{"kind":"nature_reserve","name":"\u0421\u043d\u0435\u0436\u0438\u043d\u0441\u043a\u0438\u0439 \u0437\u0430\u043a\u0430\u0437\u043d\u0438\u043a","area":6061969920,"sort_rank":23,"source":"openstreetmap.org","min_zoom":4.0,"tier":2,"id":-6983468,"osm_relation":true,"protect_class":"7"},"arcs":[[30]]},{"type":"Polygon","properties":{"kind":"nature_reserve","name":"\u0418\u0445 \u041d\u0430\u0440\u0442\u044b\u043d","area":1357920000,"sort_rank":23,"source":"openstreetmap.org","min_zoom":4.0,"tier":2,"id":49899128},"arcs":[[31]]},{"type":"Polygon","properties":{"kind":"park","name":"\u0425\u0443\u0441\u0442\u0430\u0439\u043d \u0411\u0430\u0439\u0433\u0430\u043b\u0438\u0439\u043d \u0426\u043e\u0433\u0446\u043e\u043b\u0431\u043e\u0440\u0442 \u0413\u0430\u0437\u0430\u0440","area":1104940032,"sort_rank":24,"source":"openstreetmap.org","min_zoom":4.0,"tier":2,"id":-5973193,"osm_relation":true},"arcs":[[32]]},{"type":"Polygon","properties":{"kind":"park","name":"\u0421\u0430\u044f\u043d\u043e-\u0428\u0443\u0448\u0435\u043d\u0441\u043a\u0438\u0439 \u0437\u0430\u043f\u043e\u0432\u0435\u0434\u043d\u0438\u043a","area":10266699776,"sort_rank":24,"source":"openstreetmap.org","min_zoom":4.0,"tier":2,"id":-3087198,"osm_relation":true},"arcs":[[33]]},{"type":"Polygon","properties":{"kind":"nature_reserve","name":"\u0424\u0440\u043e\u043b\u0438\u0445\u0438\u043d\u0441\u043a\u0438\u0439 \u0437\u0430\u043a\u0430\u0437\u043d\u0438\u043a","area":3672250112,"sort_rank":23,"source":"openstreetmap.org","min_zoom":4.0,"tier":2,"id":505054362,"protect_class":"4"},"arcs":[[34]]},{"type":"MultiPolygon","properties":{"source":"naturalearthdata.com","kind":"urban_area","name":"","area":20665825762,"sort_rank":11,"min_zoom":4.0},"arcs":[[[35]],[[36]],[[37]],[[38]],[[39]],[[40]],[[41]],[[42]],[[43]]]},{"type":"Polygon","properties":{"kind":"protected_area","area":7423419904,"sort_rank":17,"source":"openstreetmap.org","min_zoom":4.0,"tier":2,"id":-7022033,"osm_relation":true},"arcs":[[44]]},{"type":"Polygon","properties":{"kind":"park","name":"\u0411\u0430\u0439\u043a\u0430\u043b\u043e-\u041b\u0435\u043d\u0441\u043a\u0438\u0439 \u0437\u0430\u043f\u043e\u0432\u0435\u0434\u043d\u0438\u043a","area":19510300672,"sort_rank":24,"source":"openstreetmap.org","min_zoom":4.0,"tier":2,"id":-530806,"osm_relation":true},"arcs":[[45]]},{"type":"Polygon","properties":{"kind":"park","name":"\u912f\u5584\u53bf\u5e93\u59c6\u5854\u683c\u6c99\u6f20\u98ce\u666f\u540d\u80dc\u533a","area":3689959936,"sort_rank":24,"source":"openstreetmap.org","min_zoom":4.0,"tier":2,"id":314095888},"arcs":[[46]]},{"type":"Polygon","properties":{"kind":"nature_reserve","name":"\u0410\u043b\u0442\u0430\u0447\u0435\u0439\u0441\u043a\u0438\u0439 \u0437\u0430\u043a\u0430\u0437\u043d\u0438\u043a","area":1937920000,"sort_rank":23,"source":"openstreetmap.org","min_zoom":4.0,"tier":2,"id":505053535,"protect_class":"4"},"arcs":[[47]]},{"type":"Polygon","properties":{"kind":"nature_reserve","name":"\u0417\u0430\u043a\u0430\u0437\u043d\u0438\u043a \u00ab\u041a\u0440\u0430\u0441\u043d\u044b\u0439 \u042f\u0440\u00bb","area":1534969984,"sort_rank":23,"source":"openstreetmap.org","min_zoom":4.0,"tier":2,"id":505054364,"protect_class":"4"},"arcs":[[48]]},{"type":"Polygon","properties":{"kind":"nature_reserve","name":"\u0421\u043e\u0445\u043e\u043d\u0434\u0438\u043d\u0441\u043a\u0438\u0439 \u0437\u0430\u043f\u043e\u0432\u0435\u0434\u043d\u0438\u043a","area":5063130112,"sort_rank":23,"source":"openstreetmap.org","min_zoom":4.0,"tier":2,"id":505053542,"protect_class":"1"},"arcs":[[49]]},{"type":"Polygon","properties":{"kind":"park","name":"\u0417\u0430\u0431\u0430\u0439\u043a\u0430\u043b\u044c\u0441\u043a\u0438\u0439 \u043d\u0430\u0446\u0438\u043e\u043d\u0430\u043b\u044c\u043d\u044b\u0439 \u043f\u0430\u0440\u043a","area":7661989888,"sort_rank":24,"source":"openstreetmap.org","min_zoom":4.0,"tier":2,"id":-900942,"osm_relation":true},"arcs":[[50]]},{"type":"Polygon","properties":{"kind":"park","name":"\u0411\u0430\u0440\u0433\u0443\u0437\u0438\u043d\u0441\u043a\u0438\u0439 \u0437\u0430\u043f\u043e\u0432\u0435\u0434\u043d\u0438\u043a","area":10732000256,"sort_rank":24,"source":"openstreetmap.org","min_zoom":4.0,"tier":2,"id":-900945,"osm_relation":true},"arcs":[[51]]},{"type":"Polygon","properties":{"kind":"park","name":"\u041f\u0440\u0438\u0431\u0430\u0439\u043a\u0430\u043b\u044c\u0441\u043a\u0438\u0439 \u043d\u0430\u0446\u0438\u043e\u043d\u0430\u043b\u044c\u043d\u044b\u0439 \u043f\u0430\u0440\u043a","area":15973600256,"sort_rank":24,"source":"openstreetmap.org","min_zoom":4.0,"tier":2,"id":-2793407,"osm_relation":true},"arcs":[[52]]},{"type":"Polygon","properties":{"kind":"national_park","name":"\u0413\u043e\u0440\u0445\u0438-\u0422\u044d\u0440\u044d\u043b\u0436","area":506567008,"sort_rank":18,"source":"openstreetmap.org","min_zoom":3.0,"tier":1,"id":455178739},"arcs":[[53]]},{"type":"Polygon","properties":{"kind":"park","name":"\u0414\u0436\u0435\u0440\u0433\u0438\u043d\u0441\u043a\u0438\u0439 \u0437\u0430\u043f\u043e\u0432\u0435\u0434\u043d\u0438\u043a","area":7178979840,"sort_rank":24,"source":"openstreetmap.org","min_zoom":4.0,"tier":2,"id":58114413},"arcs":[[54]]}]}},"type":"Topology","transform":{"translate":[90.0,40.9798980696],"scale":[0.0054931641,0.0036124695]},"arcs":[[[4096,1116],[-16,13],[-22,1],[-32,0],[-15,5],[-25,-4],[-26,-27],[-13,-19],[-11,-20],[-13,-43],[-6,-28],[-5,-16],[-14,-26],[-2,-14],[5,-13],[10,-14],[7,-22],[15,-23],[14,-19],[28,-29],[8,-15],[10,-18],[2,-18],[-2,-11],[-10,-9],[-20,-4],[-9,-12],[-14,-16],[-17,-18],[-8,-1],[-10,-5],[-48,-23],[-18,-7],[-15,-7],[-17,-24],[-13,-17],[-17,-23],[-7,-10],[-15,-23],[-19,-27],[-11,-14],[-6,-8],[-5,-11],[-21,-9],[-16,-9],[-26,-14],[-36,-15],[-29,-14],[-19,-12],[-27,-15],[-19,-5],[-38,0],[-47,-4],[-34,-2],[-26,3],[-38,2],[-30,3],[-20,-5],[-47,-6],[-10,-2],[-83,-14],[-37,-8],[-33,-3],[-25,-6],[-14,-7],[-21,-10],[-11,-4],[-37,-20],[-81,-40],[-55,-33],[-9,-6],[-37,-23],[-21,-9],[-15,-21],[-12,-13],[-13,-6],[-22,14],[-16,-1],[-50,5],[0,60],[-35,-8],[-56,-14],[-52,-12],[-48,28],[-36,23],[-32,19],[-49,13],[-42,11],[-76,18],[-33,16],[-17,21],[-31,48],[-9,10],[-15,6],[-15,5],[-33,-1],[-41,4],[-58,10],[-46,8],[-79,15],[-19,2],[-41,-13],[-52,-17],[-95,13],[-42,6],[-85,13],[-97,14],[-93,15],[-68,-8],[-38,-5],[-44,-6],[-6,7],[-1,28],[-8,22],[-24,24],[-16,23],[-31,30],[-9,20],[-3,29],[-29,78],[-17,53],[-5,10],[-7,17],[-10,9],[-21,6],[-6,9],[0,18],[4,25],[4,18],[-3,5],[-55,-5],[-33,12],[-28,13],[-40,34],[-23,13],[-31,35],[-43,8],[-17,13],[-20,30],[-18,19],[-26,12],[-40,11],[-69,10],[-23,5],[-39,-7],[-28,-1],[-45,8],[-26,9],[-33,0],[-21,0],[-28,2],[-13,6],[-13,7],[-23,-1],[-17,7],[-15,14],[-16,6],[-17,0],[-8,-6],[-6,0],[-5,19],[-16,29],[-3,14],[-10,15],[-6,14],[2,20],[7,37],[16,34],[10,9],[6,10],[14,18],[7,14],[-1,19],[-9,20],[-6,26],[1,14],[10,18],[11,39],[-1,10],[-4,9],[-1,18],[-3,24],[-13,37],[-8,20],[-13,8],[-15,6],[-13,26],[-16,32],[-11,19],[-3,13],[-2,21],[-8,27],[-8,15],[-6,11],[-3,16],[-3,6],[-22,7],[-16,12],[-7,16],[-2,13],[-5,7],[-5,1]],[[0,2512],[1,4],[9,7],[9,3],[22,3],[16,10],[9,4],[28,13],[25,2],[11,11],[8,13],[15,5],[14,11],[19,14],[7,2],[32,8],[12,3],[7,2],[14,-1],[5,15],[14,12],[14,3],[6,11],[14,14],[17,8],[28,1],[27,-2],[16,3],[13,21],[3,10],[3,10],[11,4],[13,-17],[11,-10],[16,-11],[9,-11],[10,-1],[11,8],[7,18],[14,3],[15,-3],[4,-9],[2,-9],[7,-16],[17,-14],[22,1],[8,2],[22,-2],[20,-3],[23,-3],[7,0],[24,-2],[35,-3],[16,2],[32,-5],[6,-13],[6,-29],[5,-28],[2,-23],[8,-11],[11,-4],[7,-9],[12,-13],[9,-17],[11,1],[8,4],[17,1],[22,-1],[15,-10],[5,-13],[13,-7],[9,2],[30,0],[10,0],[11,-7],[14,-2],[8,9],[26,7],[15,12],[11,1],[9,-7],[7,-8],[9,4],[6,7],[8,0],[9,-5],[21,-8],[16,-14],[12,-2],[15,4],[7,2],[7,-7],[10,-4],[8,6],[13,3],[50,-8],[11,-14],[9,-7],[7,-12],[13,-9],[28,3],[10,9],[23,20],[9,18],[11,7],[13,3],[11,0],[13,0],[15,14],[12,5],[18,17],[4,8],[8,21],[6,13],[9,21],[5,33],[3,18],[-3,13],[-11,6],[-13,3],[-12,10],[-9,11],[-5,16],[-8,19],[1,13],[-2,11],[-6,9],[-12,15],[-5,12],[1,18],[14,31],[1,15],[2,9],[-1,8],[5,19],[7,8],[9,20],[12,10],[15,0],[6,6],[4,20],[7,15],[5,11],[9,12],[52,24],[22,28],[7,15],[9,31],[8,13],[12,-4],[14,-19],[10,0],[15,-10],[43,-21],[22,-6],[15,-2],[19,-6],[13,-12],[24,-20],[21,-5],[35,-2],[44,-1],[12,-4],[32,-14],[35,-16],[33,-14],[25,-11],[15,-11],[14,-6],[15,5],[19,-1],[46,-13],[29,-10],[24,-8],[8,-11],[1,-15],[-4,-12],[2,-30],[8,-16],[3,-21],[3,-21],[-2,-19],[3,-11],[8,-6],[7,-14],[-2,-15],[-3,-8],[0,-14],[9,-11],[13,-3],[11,-3],[14,-17],[25,-21],[15,-6],[17,-9],[33,-9],[22,-3],[13,-7],[13,-18],[21,-3],[14,-6],[25,-8],[16,5],[15,6],[9,-2],[19,-4],[22,0],[18,4],[15,12],[17,17],[21,9],[23,3],[16,7],[53,11],[22,2],[17,11],[14,8],[21,4],[29,-9],[28,-7],[33,-3],[22,-10],[16,-10],[24,-8],[28,4],[37,3],[25,-5],[26,-17],[16,-15],[18,-30],[19,-15],[16,-12],[21,-1],[52,-1],[28,-6],[24,-4],[5,-6],[-2,-21],[1,-30],[-1,-14],[6,-10],[8,-2],[4,-14],[12,-9],[21,-11],[35,-35],[21,-15],[17,-6],[21,4],[34,0],[58,0],[39,-11],[14,-7],[40,-9],[45,-9],[37,-10],[22,13],[20,1],[18,-9],[19,-14],[14,2],[22,6],[68,38],[24,15],[17,-4],[15,5],[12,4],[29,6],[18,2],[18,3],[26,3],[54,25],[22,4],[1,0]],[[2464,3503],[35,-9],[2,-13],[1,-16],[-3,-4],[-8,8],[-13,11],[-22,3],[-9,-12],[-3,-13],[3,-69],[-12,-32],[-6,33],[0,96],[-12,29],[-33,18],[-41,13],[10,8],[35,-12],[17,9],[-17,36],[-21,36],[-3,24],[6,35],[16,37],[12,3],[8,17],[-6,39],[-17,23],[-10,20],[6,38],[29,35],[10,31],[-2,40],[-17,51],[-5,25],[-2,30],[-10,25],[17,0],[13,-17],[0,-12],[-4,-31],[19,-56],[6,-38],[-3,-24],[-8,-31],[-22,-40],[-5,-21],[11,-23],[11,-39],[2,-26],[11,-44],[14,-33],[7,-12],[-12,2],[-15,37],[-10,11],[-10,-9],[-11,-20],[-8,-25],[11,-41],[25,-35],[0,-9],[6,-17],[19,-28],[18,-12]],[[2170,4096],[13,-13],[17,-3],[2,-6],[-8,-9],[9,-10],[42,-11],[10,-12],[-4,-17],[-9,-13],[-1,-10],[3,-13],[3,-9],[9,-5],[7,-5],[-8,-7],[-8,-8],[-4,-10],[-7,-14],[-9,-12],[-9,-9],[-12,-4],[4,7],[8,11],[4,8],[10,10],[2,11],[11,13],[-4,8],[-5,13],[-4,17],[1,10],[7,14],[-1,10],[-15,-5],[-26,-16],[-52,-11],[-5,6],[-1,9],[41,15],[-2,11],[-11,7],[-19,18],[-3,33],[-1,1],[25,0]],[[692,2256],[-4,-7],[-18,-10],[-26,-10],[-16,-6],[-10,-6],[-13,13],[-15,17],[-11,4],[-14,8],[-23,13],[-20,11],[-6,7],[0,8],[5,7],[14,2],[22,2],[36,-8],[30,-18],[9,-6],[8,2],[8,-2],[17,3],[13,-7],[11,-9],[3,-8]],[[3616,4030],[-1,-26],[-6,-12],[-6,-20],[-2,-14],[-6,-26],[-1,-12],[5,-16],[-1,-12],[-9,-30],[-2,-8],[-4,-15],[-7,-11],[-2,-10],[-5,-27],[-11,-13],[-4,-19],[-6,-49],[1,-33],[11,-25],[0,-5],[-3,-11],[-7,-15],[-14,-17],[-33,-36],[-6,-11],[-2,-10],[1,-16],[0,-16],[-1,-5],[-4,-6],[-27,0],[-4,8],[5,26],[5,12],[0,7],[-5,8],[-7,3],[-9,-2],[-10,-6],[-10,-9],[-40,-62],[-15,-19],[2,-2],[18,11],[16,6],[20,5],[14,-6],[9,-16],[4,-16],[-1,-16],[-10,-13],[-29,-18],[-8,-1],[-4,2],[-5,6],[-3,-1],[-49,-38],[-16,-15],[-1,-5],[6,-10],[1,-5],[-9,-14],[-10,-12],[-41,-30],[-11,-15],[-33,-19],[-16,-3],[-18,0],[-35,-15],[-52,-29],[-29,-19],[-7,-8],[-11,-25],[-7,-7],[-9,-4],[-11,6],[-17,9],[-19,4],[-19,-8],[-14,-9],[-8,-11],[-2,-15],[4,-17],[-4,-18],[-13,-40],[-10,-12],[-12,-14],[-18,-25],[-31,-20],[-66,-24],[-68,-16],[-29,-10],[-14,-9],[-31,-2],[-48,5],[-43,10],[-62,27],[-13,10],[-6,7],[2,5],[4,3],[9,2],[62,11],[38,3],[35,1],[23,6],[11,12],[16,6],[10,0],[13,0],[21,3],[21,7],[14,8],[8,12],[10,8],[14,6],[27,22],[23,29],[30,48],[37,34],[42,22],[29,18],[16,14],[7,10],[22,25],[11,10],[4,10],[18,19],[3,8],[-4,8],[-18,-2],[1,6],[13,16],[40,38],[29,21],[55,34],[2,4],[1,13],[5,13],[9,18],[29,27],[50,38],[29,36],[10,16],[4,12],[12,26],[8,10],[12,19],[8,20],[5,22],[9,18],[23,29],[12,20],[7,19],[4,17],[6,14],[10,13],[2,9],[-5,5],[6,9],[18,13],[11,19],[11,27],[5,18],[3,40],[-4,16],[0,20],[8,11],[14,9],[35,34],[13,12],[12,1],[11,0],[10,-1],[16,-5],[20,-23],[-17,-27],[0,-10]],[[3234,3401],[6,35],[-10,2],[-29,-32],[-42,-20],[-48,-22],[-17,-7],[-6,-8],[0,-15],[64,12],[22,10],[37,32],[23,13]],[[422,2580],[-15,31],[20,17],[36,19],[45,21],[19,11],[13,-5],[4,-9],[-2,-19],[18,-31],[28,-17],[5,-2],[-1,-8],[13,-6],[7,-7],[-11,-7],[-16,-2],[-22,-14],[-14,-15],[-19,-25],[-35,-12],[-21,-2],[-19,14],[-21,24],[-9,24],[-3,20]],[[241,1331],[55,3],[30,-5],[2,-5],[-1,-7],[0,-15],[9,-13],[15,-7],[5,-5],[12,-12],[4,-8],[-1,-6],[-18,-10],[-22,-16],[-27,10],[-26,9],[-6,7],[-1,12],[5,4],[5,7],[-5,19],[-11,14],[-25,5],[-13,4],[-3,7],[17,8]],[[192,2555],[11,-10],[3,-12],[-10,-9],[-21,-5],[-13,15],[10,22],[20,-1]],[[507,1993],[-30,-23],[-32,-18],[-17,-19],[-13,-31],[-14,-23],[-22,13],[-17,33],[-2,21],[23,12],[26,21],[1,37],[6,25],[14,2],[11,0],[11,-6],[-15,-28],[1,-22],[13,-5],[12,0],[18,15],[1,21],[-2,17],[17,-6],[13,-16],[-3,-20]],[[1964,2884],[-3,-29],[-4,-20],[-4,-23],[-8,-33],[1,-10],[-33,-48],[-7,-19],[-5,-23],[6,-9],[-1,-6],[-5,-10],[-13,-8],[-32,-12],[-3,10],[3,17],[6,17],[4,25],[8,101],[-2,39],[13,28],[9,11],[-3,14],[-1,7],[20,25],[6,11],[6,4],[35,-46],[7,-13]],[[241,1331],[55,3],[30,-5],[2,-5],[-1,-7],[0,-15],[9,-13],[15,-7],[5,-5],[12,-12],[4,-8],[-1,-6],[-18,-10],[-22,-16],[-27,10],[-26,9],[-6,7],[-1,12],[5,4],[5,7],[-5,19],[-11,14],[-25,5],[-13,4],[-3,7],[17,8]],[[3616,4030],[-1,-26],[-6,-12],[-6,-20],[-2,-14],[-6,-26],[-1,-12],[5,-16],[-1,-12],[-9,-30],[-2,-8],[-4,-15],[-7,-11],[-2,-10],[-5,-27],[-11,-13],[-4,-19],[-6,-49],[1,-33],[11,-25],[0,-5],[-3,-11],[-7,-15],[-14,-17],[-33,-36],[-6,-11],[-2,-10],[1,-16],[0,-16],[-1,-5],[-4,-6],[-27,0],[-4,8],[5,26],[5,12],[0,7],[-5,8],[-7,3],[-9,-2],[-10,-6],[-10,-9],[-40,-62],[-15,-19],[2,-2],[18,11],[16,6],[20,5],[14,-6],[9,-16],[4,-16],[-1,-16],[-10,-13],[-29,-18],[-8,-1],[-4,2],[-5,6],[-3,-1],[-49,-38],[-16,-15],[-1,-5],[6,-10],[1,-5],[-9,-14],[-10,-12],[-41,-30],[-11,-15],[-33,-19],[-16,-3],[-18,0],[-35,-15],[-52,-29],[-29,-19],[-7,-8],[-11,-25],[-7,-7],[-9,-4],[-11,6],[-17,9],[-19,4],[-19,-8],[-14,-9],[-8,-11],[-2,-15],[4,-17],[-4,-18],[-13,-40],[-10,-12],[-12,-14],[-18,-25],[-31,-20],[-66,-24],[-68,-16],[-29,-10],[-14,-9],[-31,-2],[-48,5],[-43,10],[-62,27],[-13,10],[-6,7],[2,5],[4,3],[9,2],[62,11],[38,3],[35,1],[23,6],[11,12],[16,6],[10,0],[13,0],[21,3],[21,7],[14,8],[8,12],[10,8],[14,6],[27,22],[23,29],[30,48],[37,34],[42,22],[29,18],[16,14],[7,10],[22,25],[11,10],[4,10],[18,19],[3,8],[-4,8],[-18,-2],[1,6],[13,16],[40,38],[29,21],[55,34],[2,4],[1,13],[5,13],[9,18],[29,27],[50,38],[29,36],[10,16],[4,12],[12,26],[8,10],[12,19],[8,20],[5,22],[9,18],[23,29],[12,20],[7,19],[4,17],[6,14],[10,13],[2,9],[-5,5],[6,9],[18,13],[11,19],[11,27],[5,18],[3,40],[-4,16],[0,20],[8,11],[14,9],[35,34],[13,12],[12,1]],[[3587,4096],[10,-1],[16,-5],[20,-23],[-17,-27],[0,-10]],[[3234,3401],[6,35],[-10,2],[-29,-32],[-42,-20],[-48,-22],[-17,-7],[-6,-8],[0,-15],[64,12],[22,10],[37,32],[23,13]],[[1964,2884],[-3,-29],[-4,-20],[-4,-23],[-8,-33],[1,-10],[-33,-48],[-7,-19],[-5,-23],[6,-9],[-1,-6],[-5,-10],[-13,-8],[-32,-12],[-3,10],[3,17],[6,17],[4,25],[8,101],[-2,39],[13,28],[9,11],[-3,14],[-1,7],[20,25],[6,11],[6,4],[35,-46],[7,-13]],[[422,2580],[-15,31],[20,17],[36,19],[45,21],[19,11],[13,-5],[4,-9],[-2,-19],[18,-31],[28,-17],[5,-2],[-1,-8],[13,-6],[7,-7],[-11,-7],[-16,-2],[-22,-14],[-14,-15],[-19,-25],[-35,-12],[-21,-2],[-19,14],[-21,24],[-9,24],[-3,20]],[[507,1993],[-30,-23],[-32,-18],[-17,-19],[-13,-31],[-14,-23],[-22,13],[-17,33],[-2,21],[23,12],[26,21],[1,37],[6,25],[14,2],[11,0],[11,-6],[-15,-28],[1,-22],[13,-5],[12,0],[18,15],[1,21],[-2,17],[17,-6],[13,-16],[-3,-20]],[[692,2256],[-4,-7],[-18,-10],[-26,-10],[-16,-6],[-10,-6],[-13,13],[-15,17],[-11,4],[-14,8],[-23,13],[-20,11],[-6,7],[0,8],[5,7],[14,2],[22,2],[36,-8],[30,-18],[9,-6],[8,2],[8,-2],[17,3],[13,-7],[11,-9],[3,-8]],[[2464,3503],[35,-9],[2,-13],[1,-16],[-3,-4],[-8,8],[-13,11],[-22,3],[-9,-12],[-3,-13],[3,-69],[-12,-32],[-6,33],[0,96],[-12,29],[-33,18],[-41,13],[10,8],[35,-12],[17,9],[-17,36],[-21,36],[-3,24],[6,35],[16,37],[12,3],[8,17],[-6,39],[-17,23],[-10,20],[6,38],[29,35],[10,31],[-2,40],[-17,51],[-5,25],[-2,30],[-10,25]],[[2170,4096],[13,-13],[17,-3],[2,-6],[-8,-9],[9,-10],[42,-11],[10,-12],[-4,-17],[-9,-13],[-1,-10],[3,-13],[3,-9],[9,-5],[7,-5],[-8,-7],[-8,-8],[-4,-10],[-7,-14],[-9,-12],[-9,-9],[-12,-4],[4,7],[8,11],[4,8],[10,10],[2,11],[11,13],[-4,8],[-5,13],[-4,17],[1,10],[7,14],[-1,10],[-15,-5],[-26,-16],[-52,-11],[-5,6],[-1,9],[41,15],[-2,11],[-11,7],[-19,18],[-3,33],[-1,1]],[[2399,4096],[13,-17],[0,-12],[-4,-31],[19,-56],[6,-38],[-3,-24],[-8,-31],[-22,-40],[-5,-21],[11,-23],[11,-39],[2,-26],[11,-44],[14,-33],[7,-12],[-12,2],[-15,37],[-10,11],[-10,-9],[-11,-20],[-8,-25],[11,-41],[25,-35],[0,-9],[6,-17],[19,-28],[18,-12]],[[192,2555],[11,-10],[3,-12],[-10,-9],[-21,-5],[-13,15],[10,22],[20,-1]],[[4096,0],[-4096,0],[0,4096],[4096,0],[0,-4096]],[[2706,2905],[77,15],[45,25],[-15,-108],[-36,-24],[-43,-3],[-28,95]],[[1028,3686],[11,33],[39,-5],[25,49],[30,-9],[7,-63],[-34,-65],[-78,60]],[[560,4096],[1,-3],[-54,-14],[-8,17],[61,0]],[[1934,2975],[99,35],[15,-18],[146,26],[31,26],[99,-17],[11,19],[73,-49],[-8,-52],[30,-50],[82,-1],[2,-84],[-58,36],[-32,-11],[-9,-45],[-53,30],[-31,-29],[-61,23],[-56,-14],[-9,75],[-104,37],[-31,-12],[-136,75]],[[560,4096],[1,-3],[-54,-14],[-8,17],[61,0]],[[2414,2790],[10,45],[32,11],[46,-40],[82,46],[79,5],[1,-64],[-95,-49],[-34,0],[-4,34],[-117,12]],[[3377,1322],[17,30],[38,-138],[-33,-8],[-22,116]],[[2864,1863],[52,33],[16,-1],[-36,-80],[-32,48]],[[195,3037],[135,136],[88,40],[1,-52],[28,-23],[-95,-96],[36,-50],[-193,45]],[[3597,3961],[27,26],[-17,44],[89,12],[-10,-43],[28,-29],[-19,-40],[-98,30]],[[619,535],[20,1],[8,-26],[-9,-3],[-19,28]],[[11,598],[77,10],[41,-49],[-39,-10],[2,28],[-28,-18],[-53,39]],[[3096,1920],[-18,-14],[-17,14],[19,10],[16,-10]],[[794,2976],[11,9],[28,-21],[-44,-4],[5,16]],[[3269,3008],[-64,-27],[-19,49],[28,-17],[86,17],[-31,-22]],[[2577,3138],[-3,19],[48,-28],[-17,-21],[-28,30]],[[2543,3227],[11,-34],[-1,-25],[-40,17],[30,42]],[[2474,3280],[12,0],[4,-35],[-27,35],[11,0]],[[276,3532],[9,-23],[-44,10],[-2,48],[37,-35]],[[1194,3164],[39,59],[83,-9],[141,35],[147,-55],[-28,-25],[-93,34],[-97,-3],[-124,-58],[-68,22]],[[3107,3559],[0,55],[46,13],[14,68],[20,1],[11,53],[52,49],[76,29],[72,-53],[-108,-216],[-132,-24],[-51,25]],[[0,508],[96,15],[-1,-87],[40,-20],[-135,17],[0,75]],[[3102,2782],[45,16],[49,-59],[-57,-30],[-37,73]],[[2675,3199],[63,0],[13,32],[62,-7],[-84,-67],[-54,42]],[[3745,2420],[11,36],[31,-15],[45,51],[39,-5],[39,-66],[-35,-38],[-48,-2],[7,-40],[-52,1],[-13,69],[-24,9]],[[3371,3465],[50,82],[42,21],[27,-22],[68,96],[65,-35],[-127,-152],[-40,-8],[-38,35],[-47,-17]],[[3536,3688],[49,182],[23,0],[10,-41],[37,-22],[23,22],[28,-7],[9,-54],[-71,-45],[-22,-116],[-52,13],[-34,68]],[[2500,2976],[76,65],[85,-13],[67,76],[48,-63],[208,240],[149,132],[53,104],[41,39],[44,-6],[-42,-160],[-170,-77],[-66,-83],[-94,-48],[-125,-153],[-274,-53]],[[3152,1897],[6,39],[28,-3],[6,-42],[-40,6]],[[3843,3880],[43,134],[107,-48],[3,-48],[-67,-38],[13,-26],[-81,-14],[-18,40]]]}