{"objects":{"water":{"type":"GeometryCollection","geometries":[{"type":"Polygon","properties":{"source":"naturalearthdata.com","kind":"ocean","area":1444195503964160,"sort_rank":200,"min_zoom":0.0,"id":1},"arcs":[[0],[1],[2],[3],[4],[5],[6],[7],[8],[9],[10],[11],[12],[13],[14],[15]]},{"type":"LineString","properties":{"source":"naturalearthdata.com","kind":"ocean","sort_rank":205,"boundary":true,"min_zoom":0.0,"id":32},"arcs":[16]},{"type":"MultiLineString","properties":{"source":"naturalearthdata.com","kind":"ocean","sort_rank":205,"boundary":true,"min_zoom":0.0,"id":103},"arcs":[[17],[18]]},{"type":"LineString","properties":{"source":"naturalearthdata.com","kind":"ocean","sort_rank":205,"boundary":true,"min_zoom":0.0,"id":104},"arcs":[19]},{"type":"LineString","properties":{"source":"naturalearthdata.com","kind":"ocean","sort_rank":205,"boundary":true,"min_zoom":0.0,"id":105},"arcs":[20]},{"type":"LineString","properties":{"source":"naturalearthdata.com","kind":"ocean","sort_rank":205,"boundary":true,"min_zoom":0.0,"id":204},"arcs":[21]},{"type":"LineString","properties":{"source":"naturalearthdata.com","kind":"ocean","sort_rank":205,"boundary":true,"min_zoom":0.0,"id":601},"arcs":[22]},{"type":"LineString","properties":{"source":"naturalearthdata.com","kind":"ocean","sort_rank":205,"boundary":true,"min_zoom":0.0,"id":602},"arcs":[23]},{"type":"MultiLineString","properties":{"source":"naturalearthdata.com","kind":"ocean","sort_rank":205,"boundary":true,"min_zoom":0.0,"id":620},"arcs":[[24],[25]]},{"type":"LineString","properties":{"source":"naturalearthdata.com","kind":"ocean","sort_rank":205,"boundary":true,"min_zoom":0.0,"id":621},"arcs":[26]},{"type":"LineString","properties":{"source":"naturalearthdata.com","kind":"ocean","sort_rank":205,"boundary":true,"min_zoom":0.0,"id":622},"arcs":[27]},{"type":"LineString","properties":{"source":"naturalearthdata.com","kind":"ocean","sort_rank":205,"boundary":true,"min_zoom":0.0,"id":623},"arcs":[28]},{"type":"LineString","properties":{"source":"naturalearthdata.com","kind":"ocean","sort_rank":205,"boundary":true,"min_zoom":0.0,"id":624},"arcs":[29]},{"type":"LineString","properties":{"source":"naturalearthdata.com","kind":"ocean","sort_rank":205,"boundary":true,"min_zoom":0.0,"id":625},"arcs":[30]},{"type":"LineString","properties":{"source":"naturalearthdata.com","kind":"ocean","sort_rank":205,"boundary":true,"min_zoom":0.0,"id":626},"arcs":[31]},{"type":"LineString","properties":{"source":"naturalearthdata.com","kind":"ocean","sort_rank":205,"boundary":true,"min_zoom":0.0,"id":628},"arcs":[32]},{"type":"LineString","properties":{"source":"naturalearthdata.com","kind":"ocean","sort_rank":205,"boundary":true,"min_zoom":0.0,"id":629},"arcs":[33]},{"type":"LineString","properties":{"source":"naturalearthdata.com","kind":"ocean","sort_rank":205,"boundary":true,"min_zoom":0.0,"id":630},"arcs":[34]},{"type":"LineString","properties":{"source":"naturalearthdata.com","kind":"ocean","sort_rank":205,"boundary":true,"min_zoom":0.0,"id":631},"arcs":[35]},{"type":"LineString","properties":{"source":"naturalearthdata.com","kind":"ocean","sort_rank":205,"boundary":true,"min_zoom":0.0,"id":632},"arcs":[36]},{"type":"MultiLineString","properties":{"source":"naturalearthdata.com","kind":"ocean","sort_rank":205,"boundary":true,"min_zoom":0.0,"id":633},"arcs":[[37],[38]]},{"type":"Point","properties":{"label_placement":true,"kind":"sea","name":"Java Sea","source":"openstreetmap.org","sort_rank":200,"min_zoom":3.0,"id":305639363},"coordinates":[3641,3163]}]},"buildings":{"type":"GeometryCollection","geometries":[]},"places":{"type":"GeometryCollection","geometries":[{"type":"Point","properties":{"source":"naturalearthdata.com","kind":"locality","name":"Jakarta","country_capital":true,"population":9125000,"min_zoom":2.0,"id":7276},"coordinates":[3063,2944]},{"type":"Point","properties":{"source":"naturalearthdata.com","kind":"locality","name":"Bandung","population":2394000,"region_capital":true,"min_zoom":4.0,"id":7159},"coordinates":[3198,2799]},{"type":"Point","properties":{"kind":"region","name:en":"Central Java","name":"Jawa Tengah","kind_detail":"state","name:eo":"Centra Javo","name:de":"Zentral-Java","source":"openstreetmap.org","min_zoom":4.0,"name:fr":"Java central","name:hu":"K\u00f6z\u00e9p-J\u00e1va","name:zh":"\u4e2d\u722a\u54c7\u7701","id":1898258183},"coordinates":[3642,2733]},{"type":"Point","properties":{"kind":"region","name:en":"East Java","name":"Jawa Timur","kind_detail":"state","source":"openstreetmap.org","min_zoom":4.0,"name:zh":"\u4e1c\u722a\u54c7\u7701","id":4548425013},"coordinates":[4094,2659]},{"type":"Point","properties":{"kind":"region","name:en":"Special Region of Yogyakarta","name":"Yogyakarta","kind_detail":"state","source":"openstreetmap.org","min_zoom":4.0,"name:zh":"\u65e5\u60f9\u7279\u533a","id":4548425014,"name:id":"Kota Yogyakarta"},"coordinates":[3726,2626]},{"type":"Point","properties":{"kind":"region","name":"Banten","kind_detail":"state","name:eo":"Banteno","source":"openstreetmap.org","min_zoom":4.0,"name:zh":"\u4e07\u4e39\u7701","id":1898258173},"coordinates":[2938,2893]},{"type":"Point","properties":{"kind":"region","name:en":"West Java","name":"Jawa Barat","kind_detail":"state","name:eo":"Okcidenta Javo","name:de":"West-Java","source":"openstreetmap.org","min_zoom":4.0,"name:fr":"Java occidental","name:hu":"Nyugat-J\u00e1va","name:zh":"\u897f\u722a\u54c7\u7701","id":1898258216},"coordinates":[3211,2810]},{"type":"Point","properties":{"name:pt":"Ilhas Coco","name:cy":"Ynysoedd Cocos [Keeling]","name:ko":"\ucf54\ucf54\uc2a4\uc81c\ub3c4","name:kn":"\u0c95\u0cca\u0c95\u0cca\u0cb8\u0ccd \u0ca6\u0ccd\u0cb5\u0cc0\u0caa\u0c97\u0cb3\u0cc1","name:km":"\u1780\u17c4\u17c7\u200b\u1780\u17bc\u1780\u17bc\u179f","name:kl":"Cocos qeqertaq","name:cs":"Kokosov\u00e9 ostrovy","name:th":"\u0e2b\u0e21\u0e39\u0e48\u0e40\u0e01\u0e32\u0e30\u0e42\u0e04\u0e42\u0e04\u0e2a","name:ti":"\u12ae\u12ae\u1235 \u12ac\u120a\u1295\u130d \u12f0\u1234\u1276\u127d","name:ks":"\u06a9\u0648\u06a9\u064e\u0633 \u06a9\u06cc\u0656\u0644\u0650\u0646\u065b\u06af \u062c\u0654\u0632\u06cc\u0656\u0631\u0655","name:to":"\u02bbOtumotu Koko","name:sv":"Kokos\u00f6arna","name:or":"\u0b15\u0b4b\u0b15\u0b4b\u0b38\u0b4d \u0b06\u0b07\u0b38\u0b32\u0b4d\u0b5f\u0b3e\u0b23\u0b4d\u0b21","name:pl":"Wyspy Kokosowe","name:ta":"\u0b95\u0bbe\u0b95\u0bcb\u0bb8\u0bcd \u0ba4\u0bc0\u0bb5\u0bc1\u0b95\u0bb3\u0bcd","name:ca":"Illes Cocos","name:te":"\u0c15\u0c4b\u0c15\u0c4b\u0c38\u0c4d \u0c26\u0c40\u0c35\u0c41\u0c32\u0c41","name:ro":"Insulele Cocos","source":"openstreetmap.org","name:hr":"Kokosovi otoci","name:da":"Cocos\u00f8erne","name:de":"Kokosinseln","name:dz":"\u0f40\u0f7c\u0f0b\u0f40\u0f7c\u0f66\u0f0b\u0f42\u0fb3\u0f72\u0f44\u0f0b\u0f5a\u0f7c\u0f58","name:tr":"Cocos (Keeling) Adalar\u0131","name:lv":"Kokosu (K\u012blinga) salas","name:lt":"Kokos\u0173 (Kilingo) salos","name:hi":"\u0915\u094b\u0915\u094b\u0938 \u0926\u094d\u0935\u0940\u092a","name:he":"\u05d0\u05d9\u05d9 \u05e7\u05d5\u05e7\u05e1 [\u05e7\u05d9\u05dc\u05d9\u05e0\u05d2]","kind":"region","name:ur":"\u06a9\u0648\u06a9\u0648\u0633 [\u06a9\u06cc\u0644\u0646\u06af] \u062c\u0632\u0627\u0626\u0631","name:uk":"\u041a\u043e\u043a\u043e\u0441\u043e\u0432\u0456 \u043e\u0441\u0442\u0440\u043e\u0432\u0438","min_zoom":4.0,"name:hu":"K\u00f3kusz (Keeling)-szigetek","name:ln":"Bisanga Kokos","name:lo":"\u0eab\u0ea1\u0eb9\u0ec8\u0ec0\u0e81\u0eb2\u0eb0\u0ec2\u0e81\u0ec2\u0e81\u0eaa","name:el":"\u039d\u03b7\u03c3\u03b9\u03ac \u039a\u03cc\u03ba\u03bf\u03c2","name:eo":"Kokosinsuloj","name":"Cocos (Keeling) Islands","name:ee":"Kokos [Kiling] fudomekpo nutome","name:ku":"Girav\u00ean Cocos (Keeling)","name:eu":"Cocos (Keeling) uharteak","name:et":"Kookossaared","name:nl":"Cocoseilanden","name:es":"Islas Cocos (Keeling)","name:ml":"\u0d15\u0d4b\u0d15\u0d4d\u0d15\u0d38\u0d4d","name:rm":"Inslas Cocos","name:az":"Kokos Adalar\u0131","name:id":"Kepulauan Cocos (Keeling)","name:ms":"Cocos [Keeling] Islands","name:mr":"\u0915\u094b\u0915\u094b\u0938 \u092c\u0947\u091f\u0947","name:ar":"\u062c\u0632\u0631 \u0643\u0648\u0643\u0648\u0633 (\u0643\u064a\u0644\u064a\u0646\u063a)","name:my":"\u1000\u102d\u102f\u1000\u102d\u102f\u1038 \u1000\u103b\u103d\u1014\u103a\u1038\u1005\u102f","official_name":"Territory of the Cocos (Keeling) Islands","name:is":"K\u00f3koseyjar","name:am":"\u12ae\u12ae\u1235[\u12ac\u120a\u1295\u130d] \u12f0\u1234\u1276\u127d","name:it":"Isole Cocos e Keeling","name:vi":"Qu\u1ea7n \u0111\u1ea3o Cocos (Keeling)","name:ru":"\u041a\u043e\u043a\u043e\u0441\u043e\u0432\u044b\u0435 (\u041a\u0438\u043b\u0438\u043d\u0433) \u043e\u0441\u0442\u0440\u043e\u0432\u0430","name:mn":"\u041a\u043e\u043a\u043e\u0441\u044b\u043d (\u041a\u0438\u0439\u043b\u0438\u043d\u0433\u0438\u0439\u043d) \u0410\u0440\u043b\u0443\u0443\u0434","id":424313764,"name:mk":"\u041a\u043e\u043a\u043e\u0441\u043e\u0432\u0438 \u043e\u0441\u0442\u0440\u043e\u0432\u0438","name:af":"Cocos (Keeling) Eilande","name:zu":"i-Cocos (Keeling) Islands","name:nn":"Kokos\u00f8yane","kind_detail":"state","name:no":"Kokos\u00f8yene","name:fo":"Kokosoyggjarnar","name:fr":"\u00celes Cocos","name:fy":"de Kokoseilannen","name:zh":"\u79d1\u79d1\u65af\uff08\u57fa\u6797\uff09\u7fa4\u5cf6","name:sl":"Kokosovi otoki","name:sk":"Kokosove ostrovy","name:ja":"\u30b3\u30b3\u30b9[\u30ad\u30fc\u30ea\u30f3\u30b0]\u8af8\u5cf6","name:si":"\u0d9a\u0ddc\u0d9a\u0ddd\u0dc3\u0dca \u0daf\u0dd6\u0db4\u0dad\u0dca","name:fa":"\u062c\u0632\u0627\u06cc\u0631 \u06a9\u0648\u06a9\u0648\u0633","name:se":"Cocos-sullot","name:ne":"\u0915\u094b\u0915\u094b\u0938 [\u0915\u093f\u0932\u093f\u0902\u0917] \u091f\u093e\u092a\u0941","name:br":"Inizi Cocos (Keeling)","name:bs":"Kokos (Keling) Ostrva","name:bn":"\u0995\u09cb\u0995\u09cb\u09b8 \u09a6\u09cd\u09ac\u09c0\u09aa\u09aa\u09c1\u099e\u09cd\u099c","name:sw":"Visiwa vya Cocos [Keeling]","name:be":"\u041a\u0430\u043a\u043e\u0441\u0430\u0432\u044b\u044f (\u041a\u0456\u043b\u0456\u043d\u0433) \u0430\u0441\u0442\u0440\u0430\u0432\u044b","name:bg":"\u041a\u043e\u043a\u043e\u0441\u043e\u0432\u0438 [\u041a\u0438\u0439\u043b\u0438\u043d\u0433] \u043e\u0441\u0442\u0440\u043e\u0432\u0438","name:sr":"\u041a\u043e\u043a\u043e\u0441\u043e\u0432\u0430 (\u041a\u0438\u043b\u0438\u043d\u0433) \u041e\u0441\u0442\u0440\u0432\u0430","name:ga":"Oile\u00e1in na gC\u00f3c\u00f3nna","name:gd":"Na h-Eileanan Cocos [Keeling]","name:gl":"Illas Cocos [Keeling]","name:gu":"\u0a95\u0acb\u0a95\u0acb\u0a9d \u0a86\u0a87\u0ab2\u0ac7\u0aa8\u0acd\u0aa1","name:fi":"Kookossaaret"},"coordinates":[1243,1824]},{"type":"Point","properties":{"name:pt":"Ilha Christmas","name:cy":"Ynys y Nadolig","name:ko":"\ud06c\ub9ac\uc2a4\ub9c8\uc2a4 \uc12c","name:kn":"\u0c95\u0ccd\u0cb0\u0cbf\u0cb8\u0ccd\u0cae\u0cb8\u0ccd \u0ca6\u0ccd\u0cb5\u0cc0\u0caa","name:km":"\u1780\u17c4\u17c7\u200b\u1782\u17d2\u179a\u17b8\u179f\u17d2\u1798\u17b6\u179f","name:kl":"Jul-qeqertaq","name:cs":"V\u00e1no\u010dn\u00ed ostrov","name:kw":"Ynys Nadelik","name:tr":"Christmas Adas\u0131","name:ku":"Girava Christmas","name:ti":"\u12e8\u1308\u1293 \u12f0\u1234\u1276\u127d","name:ks":"\u06a9\u0631\u0650\u0633\u0645\u064e\u0633 \u062c\u0654\u0632\u06cc\u0656\u0631\u0655","name:to":"Motu Kilisimasi","name:zh-min-nan":"Christmas-t\u00f3","name:or":"\u0b16\u0b4d\u0b30\u0b40\u0b37\u0b4d\u0b1f\u0b2e\u0b3e\u0b38 \u0b06\u0b07\u0b32\u0b4d\u0b5f\u0b3e\u0b23\u0b4d\u0b21","name:pl":"Wyspa Bo\u017cego Narodzenia","name:ta":"\u0b95\u0bbf\u0bb1\u0bbf\u0bb8\u0bcd\u0ba4\u0bc1\u0bae\u0b9a\u0bc1 \u0ba4\u0bc0\u0bb5\u0bc1","name:ca":"Illa Christmas","name:te":"\u0c15\u0c4d\u0c30\u0c3f\u0c38\u0c4d\u0c2e\u0c38\u0c4d \u0c26\u0c40\u0c35\u0c3f","name:vi":"\u0110\u1ea3o Gi\u00e1ng Sinh","name:ro":"Insula Cr\u0103ciunului","name:ka":"\u10e8\u10dd\u10d1\u10d8\u10e1 \u10d9\u10e3\u10dc\u10eb\u10e3\u10da\u10d8","name:hr":"Bo\u017ei\u0107ni otok","name:da":"Jule\u00f8en","name:de":"Weihnachtsinsel","name:dz":"\u0f41\u0f72\u0f0b\u0f62\u0f72\u0f66\u0f9f\u0f0b\u0f58\u0f7a\u0f66\u0f0b\u0f58\u0f5a\u0f7c\u0f0b\u0f42\u0fb3\u0f72\u0f44","source":"openstreetmap.org","name:lv":"Ziemsv\u0113tku sala","name:lt":"Kal\u0117d\u0173 sala","name:hi":"\u0915\u094d\u0930\u093f\u0938\u092e\u0938 \u0906\u0908\u0932\u0948\u0902\u0921","name:kk":"\u041a\u0440\u0438\u0441\u0442\u043c\u0430\u0441 \u0430\u0440\u0430\u043b\u044b","name:sv":"Jul\u00f6n","name:he":"\u05d0\u05d9\u05d9 \u05db\u05e8\u05d9\u05e1\u05d8\u05de\u05e1","kind":"region","name:ur":"\u06a9\u0631\u0633\u0645\u0633 \u0622\u0626\u0644\u06cc\u0646\u0688","name:lb":"Chr\u00ebschtdagsinsel","name:uk":"\u041e\u0441\u0442\u0440\u0456\u0432 \u0420\u0456\u0437\u0434\u0432\u0430","min_zoom":4.0,"name:hu":"Kar\u00e1csony-sziget","name:ln":"Esenga ya Mb\u00f3tama","name:lo":"\u0ec0\u0e81\u0eb2\u0eb0\u0e84\u0ea3\u0eb4\u0eaa\u0ea1\u0eb2\u0e94","name:el":"\u039d\u03ae\u03c3\u03bf\u03c2 \u03c4\u03c9\u03bd \u03a7\u03c1\u03b9\u03c3\u03c4\u03bf\u03c5\u03b3\u03ad\u03bd\u03bd\u03c9\u03bd","name:eo":"Kristnaskinsulo","name":"Christmas Island","name:ee":"Kristmas \u0192udomekpo nutome","name:th":"\u0e40\u0e01\u0e32\u0e30\u0e04\u0e23\u0e34\u0e2a\u0e15\u0e4c\u0e21\u0e32\u0e2a","name:eu":"Christmas uhartea","name:et":"J\u00f5ulusaar","name:nl":"Christmaseiland","name:es":"Isla de Navidad","name:ia":"Insula de Natal","name:rm":"Insla da Christmas","name:az":"\u00c7ristmas Adas\u0131","name:id":"Pulau Natal","name:ms":"Pulau Krismas","name:mr":"\u0915\u094d\u0930\u093f\u0938\u092e\u0938 \u0926\u094d\u0935\u0940\u092a","name:ar":"\u062c\u0632\u064a\u0631\u0629 \u0627\u0644\u0645\u064a\u0644\u0627\u062f","name:my":"\u1001\u101b\u1005\u103a\u1005\u1019\u1010\u103a \u1000\u103b\u103d\u1014\u103a\u1038","official_name":"Territory of Christmas Island","name:is":"J\u00f3laeyja","name:am":"\u12e8\u1308\u1293 \u12f0\u1234\u1275","name:it":"Isola del Natale","name:ml":"\u0d15\u0d4d\u0d30\u0d3f\u0d38\u0d4d\u0d2e\u0d38\u0d4d \u0d26\u0d4d\u0d35\u0d40\u0d2a\u0d4d","name:ru":"\u041e\u0441\u0442\u0440\u043e\u0432 \u0420\u043e\u0436\u0434\u0435\u0441\u0442\u0432\u0430","name:mn":"\u0417\u0443\u043b \u0421\u0430\u0440\u044b\u043d \u0410\u0440\u0430\u043b","id":433483523,"name:mk":"\u0411\u043e\u0436\u0438\u045c\u043d\u0438 \u041e\u0441\u0442\u0440\u043e\u0432\u0438","name:af":"Christmas-eiland","name:zu":"i-Christmas Island","name:nn":"Christmas\u00f8ya","kind_detail":"state","name:no":"Christmas\u00f8ya","name:fo":"J\u00f3laoyggjin","alt_name:vi":"\u0110\u1ea3o Christmas","name:fr":"\u00cele Christmas","name:fy":"Krysteil\u00e2n","name:zh":"\u5723\u8bde\u5c9b","name:sl":"Bo\u017ei\u010dni otoki","name:sk":"Viano\u010dn\u00fd ostrov","name:ja":"\u30af\u30ea\u30b9\u30de\u30b9\u5cf6","name:si":"\u0d9a\u0dca\u200d\u0dbb\u0dd2\u0dc3\u0dca\u0da7\u0dca\u0db8\u0dc3\u0dca \u0daf\u0dd6\u0db4\u0dad\u0dca","name:sh":"Bo\u017ei\u0107ni otok","name:se":"Juovllat-sullot","name:ne":"\u0915\u094d\u0930\u093f\u0937\u094d\u091f\u092e\u0938 \u091f\u093e\u092a\u0941","name:br":"Enez Christmas","name:bs":"Bo\u017ei\u0107no ostrvo","name:bn":"\u0995\u09cd\u09b0\u09bf\u09b8\u09ae\u09be\u09b8 \u09a6\u09cd\u09ac\u09c0\u09aa","name:sw":"Kisiwa cha Krismasi","name:be":"\u0412\u043e\u0441\u0442\u0440\u0430\u045e \u0420\u0430\u0436\u0441\u0442\u0432\u0430","name:bg":"\u0420\u043e\u0436\u0434\u0435\u0441\u0442\u0432\u043e","name:wo":"Dunu Christmas","name:sr":"\u0411\u043e\u0436\u0438\u045b\u043d\u043e \u041e\u0441\u0442\u0440\u0432\u043e","name:ga":"Oile\u00e1n na Nollag","name:gd":"Eilean na Nollaig","name:gl":"Illa de Nadal","name:fa":"\u062c\u0632\u06cc\u0631\u0647 \u06a9\u0631\u06cc\u0633\u0645\u0633","name:gu":"\u0a95\u0acd\u0ab0\u0abf\u0ab8\u0aae\u0ab8 \u0a86\u0a87\u0ab2\u0ac7\u0a82\u0aa1","name:fi":"Joulusaari"},"coordinates":[2848,2139]},{"type":"Point","properties":{"kind":"region","name:en":"Riau Islands","name:nl":"Riau-eilanden","name":"Kepulauan Riau","kind_detail":"state","name:eo":"Riau-insuloj","name:de":"Riau-Inseln","source":"openstreetmap.org","min_zoom":4.0,"name:fr":"\u00celes Riau","name:hu":"Riau-szigetek","name:zh":"\u5ed6\u5185\u7fa4\u5c9b\u7701","id":1898333938},"coordinates":[2654,4067]},{"type":"Point","properties":{"kind":"region","name":"Bengkulu","kind_detail":"state","name:eo":"Bengkulao","source":"openstreetmap.org","min_zoom":4.0,"name:zh":"\u660e\u53e4\u9c81\u7701","id":1898283447},"coordinates":[2282,3439]},{"type":"Point","properties":{"kind":"region","name":"Lampung","kind_detail":"state","name:eo":"Lampungo","source":"openstreetmap.org","min_zoom":4.0,"name:zh":"\u6960\u699c\u7701","id":1898283456},"coordinates":[2736,3190]},{"type":"Point","properties":{"kind":"region","name":"Bangka Belitung","kind_detail":"state","name:eo":"Bangka-Belitungo","source":"openstreetmap.org","name:fr":"\u00celes Bangka Belitung","min_zoom":4.0,"name:hu":"Bangka-Belitung","name:zh":"\u90a6\u52a0-\u52ff\u91cc\u6d1e\u7701","id":1898333935},"coordinates":[2978,3591]},{"type":"Point","properties":{"kind":"region","name:en":"South Sumatra","name:nl":"Zuid-Sumatra","name":"Sumatera Selatan","name:ko":"\uc218\ub9c8\ud2b8\ub77c\uc2ac\ub77c\ud0c4 \uc8fc","kind_detail":"state","name:eo":"Suda Sumatro","name:de":"S\u00fcd-Sumatra","source":"openstreetmap.org","min_zoom":4.0,"name:fr":"Sumatra du Sud","name:hu":"D\u00e9l-Szum\u00e1tra","name:zh":"\u5357\u82cf\u95e8\u7b54\u814a\u7701","id":1898283476},"coordinates":[2566,3512]},{"type":"Point","properties":{"kind":"region","name":"Jambi","kind_detail":"state","name:eo":"\u011cambio","source":"openstreetmap.org","min_zoom":4.0,"name:zh":"\u5360\u7891\u7701","id":1898283453},"coordinates":[2326,3795]},{"type":"Point","properties":{"kind":"region","name:en":"West Kalimantan","name":"Kalimantan Barat","kind_detail":"state","name:eo":"Okcidenta Kalimantano","name:de":"West-Kalimantan","source":"openstreetmap.org","min_zoom":4.0,"name:fr":"Kalimantan occidental","name:hu":"Nyugat-Kalimantan","name:zh":"\u897f\u52a0\u91cc\u66fc\u4e39\u7701","id":1898293079},"coordinates":[3841,4071]}]},"transit":{"type":"GeometryCollection","geometries":[]},"pois":{"type":"GeometryCollection","geometries":[]},"boundaries":{"type":"GeometryCollection","geometries":[]},"roads":{"type":"GeometryCollection","geometries":[]},"earth":{"type":"GeometryCollection","geometries":[{"type":"MultiPolygon","properties":{"sort_rank":10,"source":"naturalearthdata.com","min_zoom":0.0,"kind":"earth","area":5814644535001},"arcs":[[[39]],[[40]],[[41]],[[42]],[[43]],[[44]],[[45]],[[46]],[[47]],[[48]],[[49]],[[50]],[[51]],[[52]],[[53]],[[54]],[[55]],[[56]],[[57]]]}]},"landuse":{"type":"GeometryCollection","geometries":[{"type":"Polygon","properties":{"kind":"park","name":"Taman Nasional Bukit Tiga Puluh","area":1451260032,"sort_rank":24,"source":"openstreetmap.org","min_zoom":4.0,"tier":2,"id":-7774267,"osm_relation":true},"arcs":[[58]]},{"type":"Polygon","properties":{"kind":"nature_reserve","name":"Cagar Alam Muara Kendawangan","area":1492029952,"sort_rank":23,"source":"openstreetmap.org","min_zoom":4.0,"tier":2,"id":-7759089,"osm_relation":true},"arcs":[[59]]},{"type":"Polygon","properties":{"kind":"park","name":"Taman Nasional Gunung Palung","area":1090119936,"sort_rank":24,"source":"openstreetmap.org","min_zoom":4.0,"tier":2,"id":-7759327,"osm_relation":true},"arcs":[[60]]},{"type":"Polygon","properties":{"kind":"park","name":"Taman Nasional Siberut","area":1793680000,"sort_rank":24,"source":"openstreetmap.org","min_zoom":4.0,"tier":2,"id":-7758683,"osm_relation":true},"arcs":[[61]]},{"type":"Polygon","properties":{"kind":"park","name":"Taman Nasional Berbak","area":1604690048,"sort_rank":24,"source":"openstreetmap.org","min_zoom":4.0,"tier":2,"id":-7775851,"osm_relation":true},"arcs":[[62]]},{"type":"Polygon","properties":{"kind":"park","name":"Taman Nasional Sembilang","area":2701700096,"sort_rank":24,"source":"openstreetmap.org","min_zoom":4.0,"tier":2,"id":-7775852,"osm_relation":true},"arcs":[[63]]},{"type":"Polygon","properties":{"kind":"park","name":"Taman Nasional Kepulauan Seribu","area":1089459968,"sort_rank":24,"source":"openstreetmap.org","min_zoom":4.0,"tier":2,"id":-7734319,"osm_relation":true},"arcs":[[64]]},{"type":"MultiPolygon","properties":{"source":"naturalearthdata.com","kind":"urban_area","name":"","area":4137196785,"sort_rank":11,"min_zoom":4.0},"arcs":[[[65]],[[66]]]},{"type":"Polygon","properties":{"kind":"park","name":"Taman Nasional Gunung Halimun Salak","area":1087680000,"sort_rank":24,"source":"openstreetmap.org","min_zoom":4.0,"tier":2,"id":-7735291,"osm_relation":true},"arcs":[[67],[68]]},{"type":"Polygon","properties":{"kind":"park","name":"Taman Nasional Tanjung Puting","area":3466569984,"sort_rank":24,"source":"openstreetmap.org","min_zoom":4.0,"tier":2,"id":-317390,"osm_relation":true},"arcs":[[69]]},{"type":"Polygon","properties":{"kind":"park","name":"Taman Nasional Way Kambas","area":1309040000,"sort_rank":24,"source":"openstreetmap.org","min_zoom":4.0,"tier":2,"id":-7757736,"osm_relation":true},"arcs":[[70]]},{"type":"Polygon","properties":{"kind":"park","name":"Taman Nasional Bukit Baka Bukit Raya","area":2381299968,"sort_rank":24,"source":"openstreetmap.org","min_zoom":4.0,"tier":2,"id":-7748145,"osm_relation":true},"arcs":[[71]]},{"type":"Polygon","properties":{"kind":"nature_reserve","name":"Cagar Alam Laut Karimata","area":1924480000,"sort_rank":23,"source":"openstreetmap.org","min_zoom":4.0,"tier":2,"id":-7748231,"osm_relation":true},"arcs":[[72],[73],[74]]},{"type":"Polygon","properties":{"kind":"park","name":"Taman Nasional Bukit Barisan Selatan","area":3312859904,"sort_rank":24,"source":"openstreetmap.org","min_zoom":4.0,"tier":2,"id":-7556764,"osm_relation":true},"arcs":[[75]]},{"type":"Polygon","properties":{"kind":"park","name":"Taman Nasional Karimunjawa","area":1256140032,"sort_rank":24,"source":"openstreetmap.org","min_zoom":4.0,"tier":2,"id":-7734244,"osm_relation":true},"arcs":[[76]]}]}},"type":"Topology","transform":{"translate":[90.0,-21.9430455334],"scale":[0.0054931641,0.0053571889]},"arcs":[[[3497,4096],[-3,-2],[-5,-25],[-3,-8],[-5,-14],[0,-24],[2,-10],[5,-9],[18,-16],[21,-11],[-1,-6],[-10,-2],[-8,-10],[-2,-14],[5,-7],[9,-5],[21,1],[42,-14],[19,-13],[16,-17],[12,-14],[8,-18],[6,-23],[3,-24],[-2,-22],[-11,-18],[0,-23],[21,-15],[3,-11],[6,-43],[18,-85],[1,-44],[5,-8],[8,-3],[9,7],[5,2],[35,8],[18,-21],[6,-3],[6,6],[14,9],[16,6],[-9,-7],[-4,-9],[7,-10],[11,-4],[21,3],[39,18],[20,4],[23,-7],[24,0],[6,9],[6,7],[12,-10],[9,-12],[3,-10],[2,-46],[0,-21],[-2,-21],[6,-4],[9,0],[9,4],[31,28],[29,11],[29,-9],[10,-2],[0,-660],[-12,2],[-22,2],[-32,-2],[-9,2],[-18,17],[-46,6],[-9,6],[-8,8],[-19,9],[-10,-1],[-18,-7],[-8,-2],[-29,3],[-5,3],[-28,38],[-5,6],[-25,2],[-9,-4],[-9,-5],[-7,-9],[-4,-9],[-8,-23],[-9,-21],[-11,-17],[-18,-10],[-9,0],[-10,2],[-11,5],[-11,3],[-24,-1],[-24,-3],[-21,3],[-42,11],[-16,6],[-18,-10],[-20,-1],[-50,9],[-21,2],[-22,0],[-19,3],[-13,12],[-12,40],[-4,8],[-18,17],[-16,18],[-6,4],[-8,-1],[-10,-4],[-11,-1],[-24,3],[-22,8],[-20,3],[-20,1],[-19,6],[-16,11],[-18,22],[-8,5],[-31,4],[-21,10],[-6,-20],[-15,-12],[-9,-3],[-10,-1],[-27,11],[-20,3],[-20,1],[-20,6],[-33,4],[-17,9],[-8,-4],[-17,-15],[-12,-19],[-15,-63],[-5,-5],[-10,-3],[-9,5],[-9,-27],[-5,-10],[-17,-21],[-5,-1],[-10,4],[-3,3],[-3,16],[-6,-2],[-12,-10],[-5,-9],[2,-11],[9,-1],[11,3],[10,-2],[11,-3],[22,-2],[23,3],[20,0],[20,-2],[46,-13],[58,-24],[-5,-11],[-8,-12],[-5,-11],[-1,-14],[8,-10],[14,-5],[18,-4],[80,-6],[39,-5],[47,-13],[10,-4],[17,-13],[20,-10],[21,-7],[55,-11],[21,-2],[21,0],[12,11],[10,5],[31,8],[21,0],[23,-7],[38,2],[16,-2],[104,-23],[34,-12],[103,-48],[41,-10],[41,-7],[52,-4],[31,-8],[110,-4],[43,-5],[27,-6],[0,-2531],[-4096,0],[0,4096],[1516,0],[-1,0],[19,-42],[-3,-16],[-10,-13],[-3,-16],[-5,-12],[16,-9],[11,9],[11,28],[4,23],[-10,17],[-13,28],[-5,3],[239,0],[4,-6],[25,-53],[13,-16],[15,-14],[13,-14],[37,-46],[4,-5],[15,-52],[17,-37],[67,-118],[-1,-39],[7,-20],[10,-18],[32,-45],[16,-14],[18,-12],[11,-15],[9,-17],[30,-50],[13,-15],[30,-25],[57,-41],[11,-14],[33,-55],[30,-34],[70,-60],[40,-23],[18,-15],[17,-17],[13,-9],[67,-40],[11,-9],[43,-57],[15,-15],[17,-14],[23,-28],[20,-21],[22,-19],[6,-1],[9,3],[-1,14],[-11,33],[1,13],[3,10],[53,-30],[17,-9],[10,-3],[9,4],[32,28],[8,4],[32,-23],[6,-7],[4,-9],[7,-8],[11,-3],[13,0],[10,19],[2,7],[13,125],[-1,40],[2,25],[-1,20],[-10,73],[2,8],[16,44],[0,10],[-6,9],[-8,10],[-2,21],[8,31],[3,7],[24,28],[4,8],[0,11],[-2,10],[-27,41],[-57,74],[-16,11],[-18,10],[-20,4],[-48,0],[-10,-3],[-9,-4],[-7,-5],[-26,-28],[-7,-5],[-9,1],[-4,9],[3,21],[4,9],[22,19],[7,9],[3,12],[0,14],[-9,10],[-21,10],[-20,12],[-9,19],[0,23],[-7,18],[-6,45],[-4,21],[-8,32],[-4,7],[-18,-3],[-11,0],[-25,6],[-22,8],[-40,17],[-26,17],[-8,8],[-18,34],[-1,7],[14,13],[-2,9],[-17,10],[7,17],[-5,6],[3,9],[29,23],[21,9],[4,4],[147,0],[-7,-24],[-9,-11],[5,-5],[17,-6],[24,7],[39,-21],[3,1],[4,6],[10,0],[-10,7],[-8,6],[-12,14],[-6,-10],[-6,3],[-11,14],[-12,5],[1,2],[-4,9],[-8,3],[841,0]],[[2863,2137],[-4,12],[-6,-4],[-5,0],[-9,-1],[-2,-10],[11,-3],[10,-7],[5,13]],[[2781,2871],[-3,7],[-6,-1],[-6,-3],[-13,-13],[4,-5],[8,-4],[12,4],[4,15]],[[2221,3109],[-9,0],[-7,-7],[4,-7],[28,-23],[14,1],[7,14],[-6,7],[-31,15]],[[1903,3536],[-38,40],[-8,0],[-4,-6],[5,-32],[10,-13],[13,-10],[3,-9],[-1,-13],[22,-18],[-7,27],[1,8],[6,4],[1,15],[-3,7]],[[1845,3569],[13,15],[-1,12],[-34,31],[-5,-2],[-3,-13],[0,-3],[5,-8],[-1,-22],[4,-9],[22,-1]],[[1763,3711],[-11,9],[-9,-2],[-2,-5],[-1,-12],[-4,-8],[13,-18],[14,-5],[30,-16],[-1,5],[-5,11],[-15,19],[-9,22]],[[1626,3918],[-11,7],[-36,-10],[-13,-43],[4,-11],[35,-52],[2,-14],[9,-10],[35,-22],[17,1],[20,7],[-1,21],[-10,13],[-15,22],[2,4],[-2,7],[-5,8],[-7,18],[-20,35],[-4,19]],[[3312,3517],[3,19],[15,32],[-14,25],[-26,18],[-36,7],[-7,6],[-31,-7],[-4,-31],[-8,-13],[1,-11],[-8,-11],[4,-4],[1,-7],[1,-15],[8,-12],[-4,-16],[8,1],[29,8],[3,12],[4,2],[15,-8],[5,-7],[2,-10],[14,-1],[5,6],[15,9],[5,8]],[[3034,3523],[-2,13],[-7,12],[-1,8],[12,35],[5,9],[7,7],[14,9],[-83,20],[-28,51],[-9,60],[-6,13],[-9,12],[-6,12],[-3,15],[-9,10],[-13,6],[-17,0],[-17,-5],[6,-24],[-10,-13],[-6,9],[-5,13],[-10,16],[-23,-9],[-8,-7],[-7,-8],[-2,-9],[4,-9],[-2,-11],[-11,-9],[-23,-11],[-9,-10],[-1,-13],[21,-7],[8,-7],[9,-2],[38,9],[9,-5],[19,-5],[15,-9],[4,-24],[10,-20],[8,-7],[6,-7],[-6,-28],[5,-19],[11,-15],[24,-6],[22,-7],[17,-10],[10,-4],[9,-5],[9,-6],[9,-5],[12,-3],[10,0]],[[3423,3803],[6,-17],[21,8],[1,10],[-15,5],[-13,-6]],[[3168,3560],[1,-5],[5,-5],[7,5],[5,10],[-5,2],[-10,-1],[-3,-6]],[[3078,3548],[-20,7],[-10,-6],[1,-6],[5,-5],[7,-5],[10,-2],[3,4],[4,13]],[[3586,3908],[-15,5],[-26,-1],[-4,-11],[-4,-37],[6,-6],[9,-1],[36,19],[8,6],[1,8],[-3,12],[-8,6]],[[2615,3973],[9,14],[13,-5],[4,3],[7,14],[8,10],[-4,6],[-17,19],[-20,-13],[-4,4],[-4,0],[-3,-1],[-9,-14],[14,-15],[6,-22]],[[2477,4025],[24,6],[5,6],[-8,7],[-20,9],[-11,1],[-13,-14],[-3,-11],[26,-4]],[[2979,3636],[-28,51],[-9,60],[-6,13],[-9,12],[-6,12],[-3,15],[-9,10],[-13,6],[-17,0],[-17,-5],[6,-24],[-10,-13],[-6,9],[-5,13],[-10,16],[-23,-9],[-8,-7],[-7,-8],[-2,-9],[4,-9],[-2,-11],[-11,-9],[-23,-11],[-9,-10],[-1,-13],[21,-7],[8,-7],[9,-2],[38,9],[9,-5],[19,-5],[15,-9],[4,-24],[10,-20],[8,-7],[6,-7],[-6,-28],[5,-19],[11,-15],[24,-6],[22,-7],[17,-10],[10,-4],[9,-5],[9,-6],[9,-5],[12,-3],[10,0],[-2,13],[-7,12],[-1,8],[12,35],[5,9],[7,7],[14,9],[-83,20]],[[3751,2575],[41,-10],[41,-7],[52,-4],[31,-8],[110,-4],[43,-5],[27,-6]],[[4096,2805],[-12,2],[-22,2],[-32,-2],[-9,2],[-18,17],[-46,6],[-9,6],[-8,8],[-19,9],[-10,-1],[-18,-7],[-8,-2],[-29,3],[-5,3],[-28,38],[-5,6],[-25,2],[-9,-4],[-9,-5],[-7,-9],[-4,-9],[-8,-23],[-9,-21],[-11,-17],[-18,-10],[-9,0],[-10,2],[-11,5],[-11,3],[-24,-1],[-24,-3],[-21,3],[-42,11],[-16,6],[-18,-10],[-20,-1],[-50,9],[-21,2],[-22,0],[-19,3],[-13,12],[-12,40],[-4,8],[-18,17],[-16,18],[-6,4],[-8,-1],[-10,-4],[-11,-1],[-24,3],[-22,8],[-20,3],[-20,1],[-19,6],[-16,11],[-18,22],[-8,5],[-31,4],[-21,10],[-6,-20],[-15,-12],[-9,-3],[-10,-1],[-27,11],[-20,3],[-20,1],[-20,6],[-33,4],[-17,9],[-8,-4],[-17,-15],[-12,-19],[-15,-63],[-5,-5],[-10,-3],[-9,5],[-9,-27],[-5,-10],[-17,-21],[-5,-1],[-10,4],[-3,3],[-3,16],[-6,-2],[-12,-10],[-5,-9],[2,-11],[9,-1],[11,3],[10,-2],[11,-3],[22,-2],[23,3],[20,0],[20,-2],[46,-13],[58,-24],[-5,-11],[-8,-12],[-5,-11],[-1,-14],[8,-10],[14,-5],[18,-4],[80,-6],[39,-5],[47,-13],[10,-4],[17,-13],[20,-10],[21,-7],[55,-11],[21,-2],[21,0],[12,11],[10,5],[31,8],[21,0],[23,-7],[38,2],[16,-2],[104,-23],[34,-12],[103,-48]],[[2499,4096],[-4,-4],[-21,-9],[-29,-23],[-3,-9],[5,-6],[-7,-17],[17,-10],[2,-9],[-14,-13],[1,-7],[18,-34],[8,-8],[26,-17],[40,-17],[22,-8],[25,-6],[11,0],[18,3],[4,-7],[8,-32],[4,-21],[6,-45],[7,-18],[0,-23],[9,-19],[20,-12],[21,-10],[9,-10],[0,-14],[-3,-12],[-7,-9],[-22,-19],[-4,-9],[-3,-21],[4,-9],[9,-1],[7,5],[26,28],[7,5],[9,4],[10,3],[48,0],[20,-4],[18,-10],[16,-11],[57,-74],[27,-41],[2,-10],[0,-11],[-4,-8],[-24,-28],[-3,-7],[-8,-31],[2,-21],[8,-10],[6,-9],[0,-10],[-16,-44],[-2,-8],[10,-73],[1,-20],[-2,-25],[1,-40],[-13,-125],[-2,-7],[-10,-19],[-13,0],[-11,3],[-7,8],[-4,9],[-6,7],[-32,23],[-8,-4],[-32,-28],[-9,-4],[-10,3],[-17,9],[-53,30],[-3,-10],[-1,-13],[11,-33],[1,-14],[-9,-3],[-6,1],[-22,19],[-20,21],[-23,28],[-17,14],[-15,15],[-43,57],[-11,9],[-67,40],[-13,9],[-17,17],[-18,15],[-40,23],[-70,60],[-30,34],[-33,55],[-11,14],[-57,41],[-30,25],[-13,15],[-30,50],[-9,17],[-11,15],[-18,12],[-16,14],[-32,45],[-10,18],[-7,20],[1,39],[-67,118],[-17,37],[-15,52],[-4,5],[-37,46],[-13,14],[-15,14],[-13,16],[-25,53],[-4,6]],[[3497,4096],[-3,-2],[-5,-25],[-3,-8],[-5,-14],[0,-24],[2,-10],[5,-9],[18,-16],[21,-11],[-1,-6],[-10,-2],[-8,-10],[-2,-14],[5,-7],[9,-5],[21,1],[42,-14],[19,-13],[16,-17],[12,-14],[8,-18],[6,-23],[3,-24],[-2,-22],[-11,-18],[0,-23],[21,-15],[3,-11],[6,-43],[18,-85],[1,-44],[5,-8],[8,-3],[9,7],[5,2],[35,8],[18,-21],[6,-3],[6,6],[14,9],[16,6],[-9,-7],[-4,-9],[7,-10],[11,-4],[21,3],[39,18],[20,4],[23,-7],[24,0],[6,9],[6,7],[12,-10],[9,-12],[3,-10],[2,-46],[0,-21],[-2,-21],[6,-4],[9,0],[9,4],[31,28],[29,11],[29,-9],[10,-2]],[[2848,2145],[-9,-1],[-2,-10],[11,-3],[10,-7],[5,13],[-4,12],[-6,-4],[-5,0]],[[3436,3809],[-13,-6],[6,-17],[21,8],[1,10],[-15,5]],[[3586,3908],[-15,5],[-26,-1],[-4,-11],[-4,-37],[6,-6],[9,-1],[36,19],[8,6],[1,8],[-3,12],[-8,6]],[[2702,4070],[-6,-10],[-6,3],[-11,14],[-12,5],[1,2],[-4,9],[-8,3]],[[2646,4096],[-7,-24],[-9,-11],[5,-5],[17,-6],[24,7],[39,-21],[3,1],[4,6],[10,0],[-10,7],[-8,6],[-12,14]],[[2615,4021],[-4,4],[-4,0],[-3,-1],[-9,-14],[14,-15],[6,-22],[9,14],[13,-5],[4,3],[7,14],[8,10],[-4,6],[-17,19],[-20,-13]],[[2478,4053],[-11,1],[-13,-14],[-3,-11],[26,-4],[24,6],[5,6],[-8,7],[-20,9]],[[3316,3593],[-26,18],[-36,7],[-7,6],[-31,-7],[-4,-31],[-8,-13],[1,-11],[-8,-11],[4,-4],[1,-7],[1,-15],[8,-12],[-4,-16],[8,1],[29,8],[3,12],[4,2],[15,-8],[5,-7],[2,-10],[14,-1],[5,6],[15,9],[5,8],[3,19],[15,32],[-14,25]],[[3174,3550],[7,5],[5,10],[-5,2],[-10,-1],[-3,-6],[1,-5],[5,-5]],[[3058,3555],[-10,-6],[1,-6],[5,-5],[7,-5],[10,-2],[3,4],[4,13],[-20,7]],[[2753,2861],[4,-5],[8,-4],[12,4],[4,15],[-3,7],[-6,-1],[-6,-3],[-13,-13]],[[2252,3094],[-31,15],[-9,0],[-7,-7],[4,-7],[28,-23],[14,1],[7,14],[-6,7]],[[1905,3514],[1,15],[-3,7],[-38,40],[-8,0],[-4,-6],[5,-32],[10,-13],[13,-10],[3,-9],[-1,-13],[22,-18],[-7,27],[1,8],[6,4]],[[1823,3627],[-5,-2],[-3,-13],[0,-3],[5,-8],[-1,-22],[4,-9],[22,-1],[13,15],[-1,12],[-34,31]],[[1772,3689],[-9,22],[-11,9],[-9,-2],[-2,-5],[-1,-12],[-4,-8],[13,-18],[14,-5],[30,-16],[-1,5],[-5,11],[-15,19]],[[1662,3827],[2,4],[-2,7],[-5,8],[-7,18],[-20,35],[-4,19],[-11,7],[-36,-10],[-13,-43],[4,-11],[35,-52],[2,-14],[9,-10],[35,-22],[17,1],[20,7],[-1,21],[-10,13],[-15,22]],[[1532,4093],[-5,3]],[[1516,4096],[-1,0],[19,-42],[-3,-16],[-10,-13],[-3,-16],[-5,-12],[16,-9],[11,9],[11,28],[4,23],[-10,17],[-13,28]],[[2863,2137],[-5,-13],[-10,7],[-11,3],[2,10],[9,1],[5,0],[6,4],[4,-12]],[[2777,2856],[-12,-4],[-8,4],[-4,5],[13,13],[6,3],[6,1],[3,-7],[-4,-15]],[[1898,3502],[7,-27],[-22,18],[1,13],[-3,9],[-13,10],[-10,13],[-5,32],[4,6],[8,0],[38,-40],[3,-7],[-1,-15],[-6,-4],[-1,-8]],[[1792,3659],[1,-5],[-30,16],[-14,5],[-13,18],[4,8],[1,12],[2,5],[9,2],[11,-9],[9,-22],[15,-19],[5,-11]],[[1858,3584],[-13,-15],[-22,1],[-4,9],[1,22],[-5,8],[0,3],[3,13],[5,2],[34,-31],[1,-12]],[[1668,3764],[-17,-1],[-35,22],[-9,10],[-2,14],[-35,52],[-4,11],[13,43],[36,10],[11,-7],[4,-19],[20,-35],[7,-18],[5,-8],[2,-7],[-2,-4],[15,-22],[10,-13],[1,-21],[-20,-7]],[[1540,3997],[-11,-9],[-16,9],[5,12],[3,16],[10,13],[3,16],[-19,42],[1,0],[11,0],[5,-3],[13,-28],[10,-17],[-4,-23],[-11,-28]],[[3450,3794],[-21,-8],[-6,17],[13,6],[15,-5],[-1,-10]],[[3588,3876],[-36,-19],[-9,1],[-6,6],[4,37],[4,11],[26,1],[15,-5],[8,-6],[3,-12],[-1,-8],[-8,-6]],[[2635,4034],[17,-19],[4,-6],[-8,-10],[-7,-14],[-4,-3],[-13,5],[-9,-14],[-6,22],[-14,15],[9,14],[3,1],[4,0],[4,-4],[20,13]],[[2501,4031],[-24,-6],[-26,4],[3,11],[13,14],[11,-1],[20,-9],[8,-7],[-5,-6]],[[2690,4063],[6,-3],[6,10],[12,-14],[8,-6],[10,-7],[-10,0],[-4,-6],[-3,-1],[-39,21],[-24,-7],[-17,6],[-5,5],[9,11],[7,24],[10,0],[8,-3],[4,-9],[-1,-2],[12,-5],[11,-14]],[[2251,3073],[-14,-1],[-28,23],[-4,7],[7,7],[9,0],[31,-15],[6,-7],[-7,-14]],[[3074,3535],[-3,-4],[-10,2],[-7,5],[-5,5],[-1,6],[10,6],[20,-7],[-4,-13]],[[3315,3536],[-3,-19],[-5,-8],[-15,-9],[-5,-6],[-14,1],[-2,10],[-5,7],[-15,8],[-4,-2],[-3,-12],[-29,-8],[-8,-1],[4,16],[-8,12],[-1,15],[-1,7],[-4,4],[8,11],[-1,11],[8,13],[4,31],[31,7],[7,-6],[36,-7],[26,-18],[14,-25],[-15,-32]],[[2921,3784],[6,-12],[9,-12],[6,-13],[9,-60],[28,-51],[83,-20],[-14,-9],[-7,-7],[-5,-9],[-12,-35],[1,-8],[7,-12],[2,-13],[-10,0],[-12,3],[-9,5],[-9,6],[-9,5],[-10,4],[-17,10],[-22,7],[-24,6],[-11,15],[-5,19],[6,28],[-6,7],[-8,7],[-10,20],[-4,24],[-15,9],[-19,5],[-9,5],[-38,-9],[-9,2],[-8,7],[-21,7],[1,13],[9,10],[23,11],[11,9],[2,11],[-4,9],[2,9],[7,8],[8,7],[23,9],[10,-16],[5,-13],[6,-9],[10,13],[-6,24],[17,5],[17,0],[13,-6],[9,-10],[3,-15]],[[4096,4096],[0,-631],[-10,2],[-29,9],[-29,-11],[-31,-28],[-9,-4],[-9,0],[-6,4],[2,21],[0,21],[-2,46],[-3,10],[-9,12],[-12,10],[-6,-7],[-6,-9],[-24,0],[-23,7],[-20,-4],[-39,-18],[-21,-3],[-11,4],[-7,10],[4,9],[9,7],[-16,-6],[-14,-9],[-6,-6],[-6,3],[-18,21],[-35,-8],[-5,-2],[-9,-7],[-8,3],[-5,8],[-1,44],[-18,85],[-6,43],[-3,11],[-21,15],[0,23],[11,18],[2,22],[-3,24],[-6,23],[-8,18],[-12,14],[-16,17],[-19,13],[-42,14],[-21,-1],[-9,5],[-5,7],[2,14],[8,10],[10,2],[1,6],[-21,11],[-18,16],[-5,9],[-2,10],[0,24],[5,14],[3,8],[5,25],[3,2],[599,0]],[[4096,2805],[0,-274],[-27,6],[-43,5],[-110,4],[-31,8],[-52,4],[-41,7],[-41,10],[-103,48],[-34,12],[-104,23],[-16,2],[-38,-2],[-23,7],[-21,0],[-31,-8],[-10,-5],[-12,-11],[-21,0],[-21,2],[-55,11],[-21,7],[-20,10],[-17,13],[-10,4],[-47,13],[-39,5],[-80,6],[-18,4],[-14,5],[-8,10],[1,14],[5,11],[8,12],[5,11],[-58,24],[-46,13],[-20,2],[-20,0],[-23,-3],[-22,2],[-11,3],[-10,2],[-11,-3],[-9,1],[-2,11],[5,9],[12,10],[6,2],[3,-16],[3,-3],[10,-4],[5,1],[17,21],[5,10],[9,27],[9,-5],[10,3],[5,5],[15,63],[12,19],[17,15],[8,4],[17,-9],[33,-4],[20,-6],[20,-1],[20,-3],[27,-11],[10,1],[9,3],[15,12],[6,20],[21,-10],[31,-4],[8,-5],[18,-22],[16,-11],[19,-6],[20,-1],[20,-3],[22,-8],[24,-3],[11,1],[10,4],[8,1],[6,-4],[16,-18],[18,-17],[4,-8],[12,-40],[13,-12],[19,-3],[22,0],[21,-2],[50,-9],[20,1],[18,10],[16,-6],[42,-11],[21,-3],[24,3],[24,1],[11,-3],[11,-5],[10,-2],[9,0],[18,10],[11,17],[9,21],[8,23],[4,9],[7,9],[9,5],[9,4],[25,-2],[5,-6],[28,-38],[5,-3],[29,-3],[8,2],[18,7],[10,1],[19,-9],[8,-8],[9,-6],[46,-6],[18,-17],[9,-2],[32,2],[22,-2],[12,-2]],[[2499,4096],[-4,-4],[-21,-9],[-29,-23],[-3,-9],[5,-6],[-7,-17],[17,-10],[2,-9],[-14,-13],[1,-7],[18,-34],[8,-8],[26,-17],[40,-17],[22,-8],[25,-6],[11,0],[18,3],[4,-7],[8,-32],[4,-21],[6,-45],[7,-18],[0,-23],[9,-19],[20,-12],[21,-10],[9,-10],[0,-14],[-3,-12],[-7,-9],[-22,-19],[-4,-9],[-3,-21],[4,-9],[9,-1],[7,5],[26,28],[7,5],[9,4],[10,3],[48,0],[20,-4],[18,-10],[16,-11],[57,-74],[27,-41],[2,-10],[0,-11],[-4,-8],[-24,-28],[-3,-7],[-8,-31],[2,-21],[8,-10],[6,-9],[0,-10],[-16,-44],[-2,-8],[10,-73],[1,-20],[-2,-25],[1,-40],[-13,-125],[-2,-7],[-10,-19],[-13,0],[-11,3],[-7,8],[-4,9],[-6,7],[-32,23],[-8,-4],[-32,-28],[-9,-4],[-10,3],[-17,9],[-53,30],[-3,-10],[-1,-13],[11,-33],[1,-14],[-9,-3],[-6,1],[-22,19],[-20,21],[-23,28],[-17,14],[-15,15],[-43,57],[-11,9],[-67,40],[-13,9],[-17,17],[-18,15],[-40,23],[-70,60],[-30,34],[-33,55],[-11,14],[-57,41],[-30,25],[-13,15],[-30,50],[-9,17],[-11,15],[-18,12],[-16,14],[-32,45],[-10,18],[-7,20],[1,39],[-67,118],[-17,37],[-15,52],[-4,5],[-37,46],[-13,14],[-15,14],[-13,16],[-25,53],[-4,6],[733,0]],[[2225,3933],[21,31],[39,-19],[6,-33],[36,-7],[-6,-47],[-96,75]],[[3668,3607],[49,14],[7,31],[11,-88],[-38,-27],[-29,70]],[[3624,3871],[17,3],[4,-11],[6,1],[5,36],[71,-16],[-42,-45],[-61,32]],[[1565,3872],[29,19],[45,-43],[2,-81],[-76,105]],[[2546,3817],[40,59],[25,5],[11,-87],[-24,-10],[-52,33]],[[2587,3767],[62,18],[68,-98],[-63,-45],[34,39],[-89,54],[-12,32]],[[2989,3023],[0,65],[45,0],[0,-65],[-45,0]],[[3208,2790],[-13,8],[-5,16],[34,-7],[-16,-17]],[[3035,2961],[52,6],[40,-49],[-85,-9],[-37,24],[30,28]],[[2953,2836],[35,43],[9,-26],[55,-2],[-47,-47],[-12,27],[-40,5]],[[2968,2846],[7,-7],[7,9],[-7,2],[-7,-4]],[[3951,3574],[30,1],[11,38],[43,-48],[2,-91],[-51,-37],[-20,3],[8,88],[-23,46]],[[2829,3165],[26,45],[32,22],[1,-117],[-59,50]],[[4041,3993],[55,-4],[0,-67],[-12,-1],[-43,72]],[[3395,3776],[20,7],[-7,29],[90,25],[34,-20],[-20,-37],[-103,-18],[-14,14]],[[3421,3801],[12,-18],[23,14],[-16,13],[-19,-9]],[[3400,3775],[10,-1],[10,3],[-19,1],[-1,-3]],[[2440,3233],[10,13],[33,-8],[42,-68],[108,-34],[-24,-29],[-17,31],[2,-26],[91,-127],[-40,5],[-7,42],[-27,5],[6,35],[-104,104],[-38,1],[-1,42],[-34,14]],[[3659,2992],[0,44],[77,0],[0,-44],[-77,0]]]}