{"objects":{"water":{"type":"GeometryCollection","geometries":[{"type":"Polygon","properties":{"source":"naturalearthdata.com","kind":"ocean","area":1576712559132672,"sort_rank":200,"min_zoom":0.0,"id":1},"arcs":[[6]]},{"type":"MultiLineString","properties":{"source":"naturalearthdata.com","kind":"ocean","sort_rank":205,"boundary":true,"min_zoom":0.0,"id":1554},"arcs":[[7],[8]]}]},"buildings":{"type":"GeometryCollection","geometries":[]},"places":{"type":"GeometryCollection","geometries":[{"type":"Point","properties":{"source":"naturalearthdata.com","kind":"locality","name":"Kailua-Kona","population":9870,"min_zoom":7.0,"id":4860},"coordinates":[320,1058]}]},"transit":{"type":"GeometryCollection","geometries":[]},"pois":{"type":"GeometryCollection","geometries":[{"type":"Point","properties":{"kind":"military","tier":3,"name":"Pohakuloa Training Area","area":606470000,"source":"openstreetmap.org","min_zoom":8.0,"operator":"United States Army","id":-7411335,"osm_relation":true},"coordinates":[1349,1383]},{"type":"Point","properties":{"kind":"nature_reserve","name":"Pu\u02bbu Wa\u02bbawa\u02bba Cooperative Game Management Area","area":429866000,"source":"openstreetmap.org","min_zoom":7.92,"tier":2,"id":-3403027,"osm_relation":true},"coordinates":[1008,1496]},{"type":"Point","properties":{"kind":"nature_reserve","name":"Mauna Kea Forest Reserve","area":366730000,"source":"openstreetmap.org","min_zoom":8.03,"tier":2,"id":-3398791,"osm_relation":true},"coordinates":[1643,1571]},{"type":"Point","properties":{"kind":"nature_reserve","name":"Kapapala Forest Reserve","area":169991000,"source":"openstreetmap.org","min_zoom":8.59,"tier":2,"id":-365037,"osm_relation":true},"coordinates":[1772,300]},{"type":"Point","properties":{"kind":"nature_reserve","name":"K\u012bpuka \u02bbAinahou Nene Sanctuary","area":161081000,"source":"openstreetmap.org","min_zoom":8.62,"tier":2,"id":-365033,"osm_relation":true},"coordinates":[1974,932]},{"type":"Point","properties":{"kind":"nature_reserve","name":"Hilo Watershed Forest Reserve","area":168748000,"source":"openstreetmap.org","min_zoom":8.59,"tier":2,"id":-365031,"osm_relation":true},"coordinates":[2448,1278]},{"type":"Point","properties":{"kind":"nature_reserve","name":"Kapapala Cooperative Game Management Area","area":135248000,"source":"openstreetmap.org","min_zoom":8.75,"tier":2,"id":-365029,"osm_relation":true},"coordinates":[1944,150]},{"type":"Point","properties":{"kind":"nature_reserve","name":"Hakalau Forest National Wildlife Refuge","area":116086000,"source":"openstreetmap.org","min_zoom":8.86,"tier":2,"id":-365013,"osm_relation":true},"coordinates":[2336,1581]},{"type":"Point","properties":{"kind":"nature_reserve","name":"Mauna Loa Forest Reserve","area":314666000,"source":"openstreetmap.org","min_zoom":8.14,"tier":2,"id":-365001,"osm_relation":true},"coordinates":[1541,874]},{"type":"Point","properties":{"kind":"nature_reserve","name":"Pu\u02bbu Maka\u02bbala Natural Area Reserve","area":98061000,"source":"openstreetmap.org","min_zoom":8.98,"tier":2,"id":-364996,"osm_relation":true},"coordinates":[2485,626]},{"type":"Point","properties":{"kind":"nature_reserve","name":"Upper Wai\u0101kea Forest Reserve","area":240540000,"source":"openstreetmap.org","min_zoom":8.34,"tier":2,"id":-364965,"osm_relation":true},"coordinates":[2458,904]},{"type":"Point","properties":{"kind":"military","tier":3,"name":"Pupukea Paalaa Uka Military Road","area":61045900,"source":"openstreetmap.org","min_zoom":8.0,"operator":"United States Army","id":506145652},"coordinates":[1072,2028]}]},"boundaries":{"type":"GeometryCollection","geometries":[{"type":"LineString","properties":{"name:ty":"Fenua Marite","name:cy":"Unol Daleithiau America","name:ko":"\ubbf8\uad6d","name:cv":"\u0410\u043c\u0435\u0440\u0438\u043a\u0103\u0440\u0438 \u041f\u0115\u0440\u043b\u0435\u0448\u04f3\u043b\u043b\u0115 \u0428\u0442\u0430\u0442\u0441\u0435\u043c","name:cu":"\u0410\u043c\u0454\u0440\u0438\u043a\u0430\u0301\u043d\u044c\u0441\u043a\ua651 \u0464\u0434\u044c\u043d\u0465\u043d\ua651\u0301 \u0414\u0440\u044c\u0436\u0430\u0301\u0432\ua651","name:kl":"Naalagaaffeqatigiit","name:cs":"Spojen\u00e9 st\u00e1ty americk\u00e9","name:tw":"USA","name:ki":"United States","name:co":"Stati Uniti d'America","name:kv":"\u0410\u043c\u0435\u0440\u0438\u043a\u0430\u0441\u0430 \u04e6\u0442\u0443\u0432\u0442\u04e7\u043c \u0428\u0442\u0430\u0442\u044a\u044f\u0441","name:th":"\u0e2a\u0e2b\u0e23\u0e31\u0e10\u0e2d\u0e40\u0e21\u0e23\u0e34\u0e01\u0e32","name:ks":"\u0938\u0902\u092f\u0941\u0915\u094d\u0924 \u0930\u093e\u091c\u094d\u200d\u092f \u0905\u092e\u0947\u0930\u093f\u0915\u093e","name:to":"Pule\u02bbanga Fakataha 'o 'Amelika","name:tl":"Estados Unidos","name:ce":"I\u0430\u043c\u0435\u0440\u043a\u0430 \u043f\u0430\u0447\u0445\u044c\u0430\u043b\u043a","name:ta":"\u0b85\u0bae\u0bc6\u0bb0\u0bbf\u0b95\u0bcd\u0b95 \u0b90\u0b95\u0bcd\u0b95\u0bbf\u0baf \u0ba8\u0bbe\u0b9f\u0bc1","name:tg":"\u0418\u0451\u043b\u043e\u0442\u0438 \u041c\u0443\u0442\u0442\u0430\u04b3\u0438\u0434\u0430\u0438 \u0410\u043c\u0440\u0438\u043a\u043e","name:ca":"Estats Units d'Am\u00e8rica","name:te":"\u0c05\u0c2e\u0c46\u0c30\u0c3f\u0c15\u0c3e \u0c38\u0c02\u0c2f\u0c41\u0c15\u0c4d\u0c24 \u0c30\u0c3e\u0c37\u0c4d\u0c1f\u0c4d\u0c30\u0c3e\u0c32\u0c41","name:ka":"\u10d0\u10db\u10d4\u10e0\u10d8\u10d9\u10d8\u10e1 \u10e8\u10d4\u10d4\u10e0\u10d7\u10d4\u10d1\u10e3\u10da\u10d8 \u10e8\u10e2\u10d0\u10e2\u10d4\u10d1\u10d8","name:qu":"Hukllachasqa Amirika Suyukuna","name:da":"Amerikas Forenede Stater","name:de":"Vereinigte Staaten von Amerika","name:dz":"\u0f61\u0f74\u0f0b\u0f53\u0f60\u0f72\u0f4a\u0f7a\u0f4a\u0f0b\u0f66\u0f72\u0f0b\u0f4a\u0f7a\u0f66","source":"openstreetmap.org","name:kn":"\u0c85\u0cae\u0cc7\u0cb0\u0cbf\u0c95 \u0cb8\u0c82\u0caf\u0cc1\u0c95\u0ccd\u0ca4 \u0cb8\u0c82\u0cb8\u0ccd\u0ca5\u0cbe\u0ca8","name:dv":"\u0787\u07ac\u0789\u07ac\u0783\u07a8\u0786\u07a7","name:km":"\u179f\u17a0\u179a\u178a\u17d2\u178b\u17a2\u17b6\u1798\u17c1\u179a\u17b7\u1780","name:lv":"Amerikas Savienot\u0101s Valstis","name:lt":"Jungtin\u0117s Amerikos Valstijos","name:uz":"Amerika Qo\u02bbshma Shtatlari","name:kk":"\u0410\u043c\u0435\u0440\u0438\u043a\u0430 \u049a\u04b1\u0440\u0430\u043c\u0430 \u0428\u0442\u0430\u0442\u0442\u0430\u0440\u044b","name:ur":"\u0631\u06cc\u0627\u0633\u062a\u06c1\u0627\u0626\u06d2 \u0645\u062a\u062d\u062f\u06c1 \u0627\u0645\u0631\u06cc\u06a9\u06c1","name:lb":"Vereenegt Staate vun Amerika","name:la":"Civitates Foederatae Americae","name:lg":"Amereka","name:uk":"\u0421\u043f\u043e\u043b\u0443\u0447\u0435\u043d\u0456 \u0428\u0442\u0430\u0442\u0438 \u0410\u043c\u0435\u0440\u0438\u043a\u0438","name:ug":"\u0626\u0627\u0645\u06d0\u0631\u0649\u0643\u0627 \u0642\u0648\u0634\u0645\u0627 \u0634\u062a\u0627\u062a\u0644\u0649\u0631\u0649","name:li":"Vereinegde State van Amerika","name:ln":"Lisang\u00e1 lya Amer\u00edka","name:lo":"\u0eaa\u0eb0\u0eab\u0eb0\u0ea5\u0eb1\u0e94\u0ead\u0eb2\u0ec0\u0ea1\u0ea5\u0eb4\u0e81\u0eb2","name:kw":"Statys Unys Amerika","name:eo":"Usono","name":"United States of America","name:tk":"Amerikany\u0148 Birle\u015fen \u015etatlary","name:ee":"United States","name:ku":"Dewlet\u00ean Yekb\u00fby\u00ee y\u00ean Amer\u00eekay\u00ea","name:eu":"Ameriketako Estatu Batuak","name:tn":"USA","name:es":"Estados Unidos de Am\u00e9rica","name:ay":"Istadus Unidus","name:rm":"Stadis Unids da l'America","name:rn":"Leta Zunze Ubumwe za Amerika","name:az":"Amerika Birl\u0259\u015fmi\u015f \u015etatlar\u0131","name:ie":"Unit States de America","name:id":"Amerika Serikat","name:ig":"Njikota Obodo Amerika","name:el":"\u0397\u03bd\u03c9\u03bc\u03ad\u03bd\u03b5\u03c2 \u03a0\u03bf\u03bb\u03b9\u03c4\u03b5\u03af\u03b5\u03c2 \u03c4\u03b7\u03c2 \u0391\u03bc\u03b5\u03c1\u03b9\u03ba\u03ae\u03c2","name:as":"\u09ae\u09be\u09f0\u09cd\u0995\u09bf\u09a8 \u09af\u09c1\u0995\u09cd\u09a4\u09f0\u09be\u09b7\u09cd\u099f\u09cd\u09f0","name:ar":"\u0627\u0644\u0648\u0644\u0627\u064a\u0627\u062a \u0627\u0644\u0645\u062a\u0651\u062d\u062f\u0629 \u0627\u0644\u0623\u0645\u0631\u064a\u0643\u064a\u0651\u0629","name:io":"Unionita Stati di Amerika","name:av":"\u0410\u043c\u0435\u0440\u0438\u043a\u0430\u043b\u044a\u0443\u043b \u0426\u043e\u043b\u044a\u0430\u0440\u0430\u043b \u0428\u0442\u0430\u0442\u0430\u043b","name:is":"Bandar\u00edki Nor\u00f0ur-Amer\u00edku","name:am":"\u12e8\u1270\u1263\u1260\u1229\u1275 \u12e8\u12a0\u121c\u122a\u12ab \u130d\u12db\u1276\u127d","name:it":"Stati Uniti d'America","name:an":"Estatos Unitos d'America","name:ru":"\u0421\u043e\u0435\u0434\u0438\u043d\u0451\u043d\u043d\u044b\u0435 \u0428\u0442\u0430\u0442\u044b \u0410\u043c\u0435\u0440\u0438\u043a\u0438","name:ab":"\u0410\u043c\u0435\u0440\u0438\u043a\u0430 \u0415\u0438\u0434\u0443 \u0410\u0448\u0442\u0430\u0442\u049b\u04d9\u0430","name:af":"Verenigde State van Amerika","name:zu":"IMelika","kind_detail":"2","old_name:ru":"\u0421\u0435\u0432\u0435\u0440\u043e-\u0410\u043c\u0435\u0440\u0438\u043a\u0430\u043d\u0441\u043a\u0438\u0435 \u0421\u043e\u0435\u0434\u0438\u043d\u0451\u043d\u043d\u044b\u0435 \u0428\u0442\u0430\u0442\u044b","name:za":"Meijgoz","name:zh-yue":"\u5373\u7f8e\u5229\u5805\u5408\u773e\u570b","name:zh":"\u7f8e\u5229\u575a\u5408\u4f17\u56fd","name:so":"Mareykanka","name:sm":"Iunaite Sitete o Amerika","name:sl":"Zdru\u017eene dr\u017eave Amerike","name:sk":"Spojen\u00e9 \u0161t\u00e1ty americk\u00e9","name:ja":"\u30a2\u30e1\u30ea\u30ab\u5408\u8846\u56fd","name:si":"\u0d85'\u0db8\u0dd9\u0dbb\u0dd2\u0d9a\u0dcf\u200d\u0dc0\u0dda \u0d91\u0d9a\u0dca\u0dc3\u0dad\u0dca \u0dbb\u0dcf\u0da2\u0dca\u200d\u0dba\u0dba\u0db1\u0dca","name:sh":"Sjedinjene Ameri\u010dke Dr\u017eave","name:sg":"\u00c2K\u00f6d\u00f6r\u00f6-\u00f4ko t\u00ee Amer\u00eeka","name:se":"Amerihk\u00e1 ovttastuvvan st\u00e1htat","name:sd":"\u0622\u0645\u0631\u064a\u06aa\u0627","name:sc":"Istados Unidos de America","name:sa":"\u0938\u0902\u092f\u0941\u0915\u094d\u0924\u093e\u0928\u093f \u0930\u093e\u091c\u094d\u092f\u093e\u0928\u093f","name:bs":"Sjedinjene Ameri\u010dke Dr\u017eave","name:bm":"Amerika ka Kelenyalen Jamanaw","name:bn":"\u09ae\u09be\u09b0\u09cd\u0995\u09bf\u09a8 \u09af\u09c1\u0995\u09cd\u09a4\u09b0\u09be\u09b7\u09cd\u099f\u09cd\u09b0","name:bo":"\u0f68\u0f0b\u0f58\u0f7a\u0f0b\u0f62\u0f72\u0f0b\u0f41\u0f0b\u0f62\u0f92\u0fb1\u0f63\u0f0b\u0f55\u0fb2\u0f53\u0f0b\u0f58\u0f49\u0f58\u0f0b\u0f60\u0f56\u0fb2\u0f7a\u0f63\u0f0b\u0f62\u0f92\u0fb1\u0f63\u0f0b\u0f41\u0f56\u0f0d","name:br":"Stado\u00f9-Unanet Amerika","name:et":"Ameerika \u00dchendriigid","name:sw":"Muungano wa Madola ya Amerika","name:be":"\u0417\u043b\u0443\u0447\u0430\u043d\u044b\u044f \u0428\u0442\u0430\u0442\u044b \u0410\u043c\u0435\u0440\u044b\u043a\u0456","name:su":"Am\u00e9rika Sarikat","name:bg":"\u0421\u044a\u0435\u0434\u0438\u043d\u0435\u043d\u0438 \u0430\u043c\u0435\u0440\u0438\u043a\u0430\u043d\u0441\u043a\u0438 \u0449\u0430\u0442\u0438","name:ss":"IMelika","name:ba":"\u0410\u043c\u0435\u0440\u0438\u043a\u0430 \u04a0\u0443\u0448\u043c\u0430 \u0428\u0442\u0430\u0442\u0442\u0430\u0440\u044b","name:sq":"Shtetet e Bashkuara t\u00eb Amerik\u00ebs","name:jv":"Am\u00e9rika Sar\u00e9kat","name:bi":"Yunaeted Stet blong Amerika","name:ia":"Statos Unite de America","name:pt":"Estados Unidos da Am\u00e9rica","name:ps":"\u062f \u0627\u0645\u0631\u064a\u06a9\u0627 \u0645\u062a\u062d\u062f\u0647 \u0627\u064a\u0627\u0644\u0627\u062a","name:om":"USA","name:oc":"Estats Units d'America","min_zoom":8.0,"name:ro":"Statele Unite ale Americii","name:zh-min-nan":"America Ha\u030dp-chi\u00f2ng-kok","name:os":"\u0410\u043c\u0435\u0440\u0438\u043a\u00e6\u0439\u044b \u0418\u0443\u0433\u043e\u043d\u0434 \u0428\u0442\u0430\u0442\u0442\u00e6","name:or":"\u0b2f\u0b41\u0b15\u0b4d\u0b24\u0b30\u0b3e\u0b37\u0b4d\u0b1f\u0b4d\u0b30 \u0b06\u0b2e\u0b47\u0b30\u0b3f\u0b15\u0b3e","name:pl":"Stany Zjednoczone Ameryki","sort_rank":262,"name:sr":"\u0421\u0458\u0435\u0434\u0438\u045a\u0435\u043d\u0435 \u0410\u043c\u0435\u0440\u0438\u0447\u043a\u0435 \u0414\u0440\u0436\u0430\u0432\u0435","osm_relation":true,"name:xh":"IYunayithedi Steyitsi","name:pa":"\u0a38\u0a70\u0a2f\u0a41\u0a15\u0a24 \u0a30\u0a3e\u0a1c \u0a05\u0a2e\u0a30\u0a40\u0a15\u0a3e","name:tr":"Amerika Birle\u015fik Devletleri","name:hi":"\u0938\u0902\u092f\u0941\u0915\u094d\u0924 \u0930\u093e\u091c\u094d\u092f \u0905\u092e\u0947\u0930\u093f\u0915\u093e","name:sv":"Amerikas F\u00f6renta Stater","name:he":"\u05d0\u05e8\u05e6\u05d5\u05ea \u05d4\u05d1\u05e8\u05d9\u05ea","name:ha":"kunkiyar taraiyar Amurika","name:hy":"\u0531\u0574\u0565\u0580\u056b\u056f\u0561\u0575\u056b \u0544\u056b\u0561\u0581\u0575\u0561\u056c \u0546\u0561\u0570\u0561\u0576\u0563\u0576\u0565\u0580","name:ht":"Etazini","name:hu":"Amerikai Egyes\u00fclt \u00c1llamok","name:hr":"Sjedinjene Ameri\u010dke Dr\u017eave","kind":"country","name:ts":"United States","name:yi":"\u05e4\u05d0\u05e8\u05d0\u05d9\u05d9\u05e0\u05d9\u05e7\u05d8\u05e2 \u05e9\u05d8\u05d0\u05d8\u05df \u05e4\u05d5\u05df \u05d0\u05de\u05e2\u05e8\u05d9\u05e7\u05e2","name:iu":"\u140a\u14a5\u140a\u14d5\u1472","name:yo":"\u00c0w\u1ecdn \u00ccp\u00ednl\u1eb9\u0300 A\u1e63\u1ecd\u0300kan Am\u1eb9\u0301r\u00edk\u00e0","name:mt":"Stati Uniti tal-Amerika","name:ms":"Amerika Syarikat","name:mr":"\u0905\u092e\u0947\u0930\u093f\u0915\u0947\u091a\u0940 \u0938\u0902\u092f\u0941\u0915\u094d\u0924 \u0938\u0902\u0938\u094d\u0925\u093e\u0928\u0947","name:my":"\u1021\u1019\u1031\u101b\u102d\u1000\u1014\u103a\u1015\u103c\u100a\u103a\u1011\u1031\u102c\u1004\u103a\u1005\u102f","name:mg":"Etazonia","name:vi":"Hoa K\u1ef3","name:ml":"\u0d05\u0d2e\u0d47\u0d30\u0d3f\u0d15\u0d4d\u0d15\u0d28\u0d4d\u200d \u0d10\u0d15\u0d4d\u0d2f\u0d28\u0d3e\u0d1f\u0d41\u0d15\u0d33\u0d4d\u200d","name:mn":"\u0410\u043c\u0435\u0440\u0438\u043a\u0438\u0439\u043d \u041d\u044d\u0433\u0434\u0441\u044d\u043d \u0423\u043b\u0441","name:mi":"Hononga-o-Amerika","id":-148838,"name:mk":"\u0421\u043e\u0435\u0434\u0438\u043d\u0435\u0442\u0438 \u0410\u043c\u0435\u0440\u0438\u043a\u0430\u043d\u0441\u043a\u0438 \u0414\u0440\u0436\u0430\u0432\u0438","name:vo":"Lamerik\u00e4n","name:fa":"\u0627\u06cc\u0627\u0644\u0627\u062a \u0645\u062a\u062d\u062f\u0647 \u0622\u0645\u0631\u06cc\u06a9\u0627","name:rw":"Leta Zunze Ubumwe z\u2019Amerika","name:ff":"Dowlaaji Dentu\u0257i","name:fi":"Amerikan yhdysvallat","name:ky":"\u0410\u043c\u0435\u0440\u0438\u043a\u0430 \u041a\u043e\u0448\u043c\u043e \u0428\u0442\u0430\u0442\u0442\u0430\u0440\u044b","old_name:vi":"M\u1ef9 L\u1ee3i Ki\u00ean;Ma Ly C\u0103n;Nh\u00e3 Di L\u00fd","name:fo":"Sambandsr\u00edki\u00f0 Amerika","alt_name:vi":"Hoa K\u00ec;M\u1ef9;M\u0129","name:fr":"\u00c9tats-Unis d'Am\u00e9rique","name:fy":"Feriene Steaten fan Amearika","name:nl":"Verenigde Staten van Amerika","name:nn":"USA","name:no":"Amerikas forente stater","name:na":"Eben Merika","name:ne":"\u0938\u0902\u092f\u0941\u0915\u094d\u0924 \u0930\u093e\u091c\u094d\u092f \u0905\u092e\u0947\u0930\u093f\u0915\u093e","name:wa":"Estats Unis d' Amerike","name:wo":"Diwaan-yu-Bennoo yu Aamerig","name:nv":"W\u00e1\u00e1shindoon Bik\u00e9yah A\u0142hidadiidzoo\u00edg\u00ed\u00ed","name:ga":"St\u00e1it Aontaithe Mheirice\u00e1","name:gd":"Na St\u00e0itean Aonaichte","name:gn":"Tet\u00e3 pete\u0129 reko Am\u00e9rikagua","name:gl":"Estados Unidos de Am\u00e9rica","maritime_boundary":true,"name:gv":"Steatyn Unnaneysit America","name:gu":"\u0ab8\u0a82\u0aaf\u0ac1\u0a95\u0acd\u0aa4 \u0ab0\u0abe\u0a9c\u0acd\u0aaf \u0a85\u0aae\u0ac7\u0ab0\u0abf\u0a95\u0abe","name:tt":"\u0410\u043c\u0435\u0440\u0438\u043a\u0430 \u041a\u0443\u0448\u043c\u0430 \u0428\u0442\u0430\u0442\u043b\u0430\u0440\u044b"},"arcs":[0]},{"type":"MultiLineString","properties":{"name:ty":"Fenua Marite","name:cy":"Unol Daleithiau America","name:ko":"\ubbf8\uad6d","name:cv":"\u0410\u043c\u0435\u0440\u0438\u043a\u0103\u0440\u0438 \u041f\u0115\u0440\u043b\u0435\u0448\u04f3\u043b\u043b\u0115 \u0428\u0442\u0430\u0442\u0441\u0435\u043c","name:cu":"\u0410\u043c\u0454\u0440\u0438\u043a\u0430\u0301\u043d\u044c\u0441\u043a\ua651 \u0464\u0434\u044c\u043d\u0465\u043d\ua651\u0301 \u0414\u0440\u044c\u0436\u0430\u0301\u0432\ua651","name:kl":"Naalagaaffeqatigiit","name:cs":"Spojen\u00e9 st\u00e1ty americk\u00e9","name:tw":"USA","name:ki":"United States","name:co":"Stati Uniti d'America","name:kv":"\u0410\u043c\u0435\u0440\u0438\u043a\u0430\u0441\u0430 \u04e6\u0442\u0443\u0432\u0442\u04e7\u043c \u0428\u0442\u0430\u0442\u044a\u044f\u0441","name:th":"\u0e2a\u0e2b\u0e23\u0e31\u0e10\u0e2d\u0e40\u0e21\u0e23\u0e34\u0e01\u0e32","name:ks":"\u0938\u0902\u092f\u0941\u0915\u094d\u0924 \u0930\u093e\u091c\u094d\u200d\u092f \u0905\u092e\u0947\u0930\u093f\u0915\u093e","name:to":"Pule\u02bbanga Fakataha 'o 'Amelika","name:tl":"Estados Unidos","name:ce":"I\u0430\u043c\u0435\u0440\u043a\u0430 \u043f\u0430\u0447\u0445\u044c\u0430\u043b\u043a","name:ta":"\u0b85\u0bae\u0bc6\u0bb0\u0bbf\u0b95\u0bcd\u0b95 \u0b90\u0b95\u0bcd\u0b95\u0bbf\u0baf \u0ba8\u0bbe\u0b9f\u0bc1","name:tg":"\u0418\u0451\u043b\u043e\u0442\u0438 \u041c\u0443\u0442\u0442\u0430\u04b3\u0438\u0434\u0430\u0438 \u0410\u043c\u0440\u0438\u043a\u043e","name:ca":"Estats Units d'Am\u00e8rica","name:te":"\u0c05\u0c2e\u0c46\u0c30\u0c3f\u0c15\u0c3e \u0c38\u0c02\u0c2f\u0c41\u0c15\u0c4d\u0c24 \u0c30\u0c3e\u0c37\u0c4d\u0c1f\u0c4d\u0c30\u0c3e\u0c32\u0c41","name:ka":"\u10d0\u10db\u10d4\u10e0\u10d8\u10d9\u10d8\u10e1 \u10e8\u10d4\u10d4\u10e0\u10d7\u10d4\u10d1\u10e3\u10da\u10d8 \u10e8\u10e2\u10d0\u10e2\u10d4\u10d1\u10d8","name:qu":"Hukllachasqa Amirika Suyukuna","name:da":"Amerikas Forenede Stater","name:de":"Vereinigte Staaten von Amerika","name:dz":"\u0f61\u0f74\u0f0b\u0f53\u0f60\u0f72\u0f4a\u0f7a\u0f4a\u0f0b\u0f66\u0f72\u0f0b\u0f4a\u0f7a\u0f66","source":"openstreetmap.org","name:kn":"\u0c85\u0cae\u0cc7\u0cb0\u0cbf\u0c95 \u0cb8\u0c82\u0caf\u0cc1\u0c95\u0ccd\u0ca4 \u0cb8\u0c82\u0cb8\u0ccd\u0ca5\u0cbe\u0ca8","name:dv":"\u0787\u07ac\u0789\u07ac\u0783\u07a8\u0786\u07a7","name:km":"\u179f\u17a0\u179a\u178a\u17d2\u178b\u17a2\u17b6\u1798\u17c1\u179a\u17b7\u1780","name:lv":"Amerikas Savienot\u0101s Valstis","name:lt":"Jungtin\u0117s Amerikos Valstijos","name:uz":"Amerika Qo\u02bbshma Shtatlari","name:kk":"\u0410\u043c\u0435\u0440\u0438\u043a\u0430 \u049a\u04b1\u0440\u0430\u043c\u0430 \u0428\u0442\u0430\u0442\u0442\u0430\u0440\u044b","name:ur":"\u0631\u06cc\u0627\u0633\u062a\u06c1\u0627\u0626\u06d2 \u0645\u062a\u062d\u062f\u06c1 \u0627\u0645\u0631\u06cc\u06a9\u06c1","name:lb":"Vereenegt Staate vun Amerika","name:la":"Civitates Foederatae Americae","name:lg":"Amereka","name:uk":"\u0421\u043f\u043e\u043b\u0443\u0447\u0435\u043d\u0456 \u0428\u0442\u0430\u0442\u0438 \u0410\u043c\u0435\u0440\u0438\u043a\u0438","name:ug":"\u0626\u0627\u0645\u06d0\u0631\u0649\u0643\u0627 \u0642\u0648\u0634\u0645\u0627 \u0634\u062a\u0627\u062a\u0644\u0649\u0631\u0649","name:li":"Vereinegde State van Amerika","name:ln":"Lisang\u00e1 lya Amer\u00edka","name:lo":"\u0eaa\u0eb0\u0eab\u0eb0\u0ea5\u0eb1\u0e94\u0ead\u0eb2\u0ec0\u0ea1\u0ea5\u0eb4\u0e81\u0eb2","name:kw":"Statys Unys Amerika","name:eo":"Usono","name":"United States of America","name:tk":"Amerikany\u0148 Birle\u015fen \u015etatlary","name:ee":"United States","name:ku":"Dewlet\u00ean Yekb\u00fby\u00ee y\u00ean Amer\u00eekay\u00ea","name:eu":"Ameriketako Estatu Batuak","name:tn":"USA","name:es":"Estados Unidos de Am\u00e9rica","name:ay":"Istadus Unidus","name:rm":"Stadis Unids da l'America","name:rn":"Leta Zunze Ubumwe za Amerika","name:az":"Amerika Birl\u0259\u015fmi\u015f \u015etatlar\u0131","name:ie":"Unit States de America","name:id":"Amerika Serikat","name:ig":"Njikota Obodo Amerika","name:el":"\u0397\u03bd\u03c9\u03bc\u03ad\u03bd\u03b5\u03c2 \u03a0\u03bf\u03bb\u03b9\u03c4\u03b5\u03af\u03b5\u03c2 \u03c4\u03b7\u03c2 \u0391\u03bc\u03b5\u03c1\u03b9\u03ba\u03ae\u03c2","name:as":"\u09ae\u09be\u09f0\u09cd\u0995\u09bf\u09a8 \u09af\u09c1\u0995\u09cd\u09a4\u09f0\u09be\u09b7\u09cd\u099f\u09cd\u09f0","name:ar":"\u0627\u0644\u0648\u0644\u0627\u064a\u0627\u062a \u0627\u0644\u0645\u062a\u0651\u062d\u062f\u0629 \u0627\u0644\u0623\u0645\u0631\u064a\u0643\u064a\u0651\u0629","name:io":"Unionita Stati di Amerika","name:av":"\u0410\u043c\u0435\u0440\u0438\u043a\u0430\u043b\u044a\u0443\u043b \u0426\u043e\u043b\u044a\u0430\u0440\u0430\u043b \u0428\u0442\u0430\u0442\u0430\u043b","name:is":"Bandar\u00edki Nor\u00f0ur-Amer\u00edku","name:am":"\u12e8\u1270\u1263\u1260\u1229\u1275 \u12e8\u12a0\u121c\u122a\u12ab \u130d\u12db\u1276\u127d","name:it":"Stati Uniti d'America","name:an":"Estatos Unitos d'America","name:ru":"\u0421\u043e\u0435\u0434\u0438\u043d\u0451\u043d\u043d\u044b\u0435 \u0428\u0442\u0430\u0442\u044b \u0410\u043c\u0435\u0440\u0438\u043a\u0438","name:ab":"\u0410\u043c\u0435\u0440\u0438\u043a\u0430 \u0415\u0438\u0434\u0443 \u0410\u0448\u0442\u0430\u0442\u049b\u04d9\u0430","name:af":"Verenigde State van Amerika","name:zu":"IMelika","kind_detail":"2","old_name:ru":"\u0421\u0435\u0432\u0435\u0440\u043e-\u0410\u043c\u0435\u0440\u0438\u043a\u0430\u043d\u0441\u043a\u0438\u0435 \u0421\u043e\u0435\u0434\u0438\u043d\u0451\u043d\u043d\u044b\u0435 \u0428\u0442\u0430\u0442\u044b","name:za":"Meijgoz","name:zh-yue":"\u5373\u7f8e\u5229\u5805\u5408\u773e\u570b","name:zh":"\u7f8e\u5229\u575a\u5408\u4f17\u56fd","name:so":"Mareykanka","name:sm":"Iunaite Sitete o Amerika","name:sl":"Zdru\u017eene dr\u017eave Amerike","name:sk":"Spojen\u00e9 \u0161t\u00e1ty americk\u00e9","name:ja":"\u30a2\u30e1\u30ea\u30ab\u5408\u8846\u56fd","name:si":"\u0d85'\u0db8\u0dd9\u0dbb\u0dd2\u0d9a\u0dcf\u200d\u0dc0\u0dda \u0d91\u0d9a\u0dca\u0dc3\u0dad\u0dca \u0dbb\u0dcf\u0da2\u0dca\u200d\u0dba\u0dba\u0db1\u0dca","name:sh":"Sjedinjene Ameri\u010dke Dr\u017eave","name:sg":"\u00c2K\u00f6d\u00f6r\u00f6-\u00f4ko t\u00ee Amer\u00eeka","name:se":"Amerihk\u00e1 ovttastuvvan st\u00e1htat","name:sd":"\u0622\u0645\u0631\u064a\u06aa\u0627","name:sc":"Istados Unidos de America","name:sa":"\u0938\u0902\u092f\u0941\u0915\u094d\u0924\u093e\u0928\u093f \u0930\u093e\u091c\u094d\u092f\u093e\u0928\u093f","name:bs":"Sjedinjene Ameri\u010dke Dr\u017eave","name:bm":"Amerika ka Kelenyalen Jamanaw","name:bn":"\u09ae\u09be\u09b0\u09cd\u0995\u09bf\u09a8 \u09af\u09c1\u0995\u09cd\u09a4\u09b0\u09be\u09b7\u09cd\u099f\u09cd\u09b0","name:bo":"\u0f68\u0f0b\u0f58\u0f7a\u0f0b\u0f62\u0f72\u0f0b\u0f41\u0f0b\u0f62\u0f92\u0fb1\u0f63\u0f0b\u0f55\u0fb2\u0f53\u0f0b\u0f58\u0f49\u0f58\u0f0b\u0f60\u0f56\u0fb2\u0f7a\u0f63\u0f0b\u0f62\u0f92\u0fb1\u0f63\u0f0b\u0f41\u0f56\u0f0d","name:br":"Stado\u00f9-Unanet Amerika","name:et":"Ameerika \u00dchendriigid","name:sw":"Muungano wa Madola ya Amerika","name:be":"\u0417\u043b\u0443\u0447\u0430\u043d\u044b\u044f \u0428\u0442\u0430\u0442\u044b \u0410\u043c\u0435\u0440\u044b\u043a\u0456","name:su":"Am\u00e9rika Sarikat","name:bg":"\u0421\u044a\u0435\u0434\u0438\u043d\u0435\u043d\u0438 \u0430\u043c\u0435\u0440\u0438\u043a\u0430\u043d\u0441\u043a\u0438 \u0449\u0430\u0442\u0438","name:ss":"IMelika","name:ba":"\u0410\u043c\u0435\u0440\u0438\u043a\u0430 \u04a0\u0443\u0448\u043c\u0430 \u0428\u0442\u0430\u0442\u0442\u0430\u0440\u044b","name:sq":"Shtetet e Bashkuara t\u00eb Amerik\u00ebs","name:jv":"Am\u00e9rika Sar\u00e9kat","name:bi":"Yunaeted Stet blong Amerika","name:ia":"Statos Unite de America","name:pt":"Estados Unidos da Am\u00e9rica","name:ps":"\u062f \u0627\u0645\u0631\u064a\u06a9\u0627 \u0645\u062a\u062d\u062f\u0647 \u0627\u064a\u0627\u0644\u0627\u062a","name:om":"USA","name:oc":"Estats Units d'America","min_zoom":8.0,"name:ro":"Statele Unite ale Americii","name:zh-min-nan":"America Ha\u030dp-chi\u00f2ng-kok","name:os":"\u0410\u043c\u0435\u0440\u0438\u043a\u00e6\u0439\u044b \u0418\u0443\u0433\u043e\u043d\u0434 \u0428\u0442\u0430\u0442\u0442\u00e6","name:or":"\u0b2f\u0b41\u0b15\u0b4d\u0b24\u0b30\u0b3e\u0b37\u0b4d\u0b1f\u0b4d\u0b30 \u0b06\u0b2e\u0b47\u0b30\u0b3f\u0b15\u0b3e","name:pl":"Stany Zjednoczone Ameryki","sort_rank":262,"name:sr":"\u0421\u0458\u0435\u0434\u0438\u045a\u0435\u043d\u0435 \u0410\u043c\u0435\u0440\u0438\u0447\u043a\u0435 \u0414\u0440\u0436\u0430\u0432\u0435","osm_relation":true,"name:xh":"IYunayithedi Steyitsi","name:pa":"\u0a38\u0a70\u0a2f\u0a41\u0a15\u0a24 \u0a30\u0a3e\u0a1c \u0a05\u0a2e\u0a30\u0a40\u0a15\u0a3e","name:tr":"Amerika Birle\u015fik Devletleri","name:hi":"\u0938\u0902\u092f\u0941\u0915\u094d\u0924 \u0930\u093e\u091c\u094d\u092f \u0905\u092e\u0947\u0930\u093f\u0915\u093e","name:sv":"Amerikas F\u00f6renta Stater","name:he":"\u05d0\u05e8\u05e6\u05d5\u05ea \u05d4\u05d1\u05e8\u05d9\u05ea","name:ha":"kunkiyar taraiyar Amurika","name:hy":"\u0531\u0574\u0565\u0580\u056b\u056f\u0561\u0575\u056b \u0544\u056b\u0561\u0581\u0575\u0561\u056c \u0546\u0561\u0570\u0561\u0576\u0563\u0576\u0565\u0580","name:ht":"Etazini","name:hu":"Amerikai Egyes\u00fclt \u00c1llamok","name:hr":"Sjedinjene Ameri\u010dke Dr\u017eave","kind":"country","name:ts":"United States","name:yi":"\u05e4\u05d0\u05e8\u05d0\u05d9\u05d9\u05e0\u05d9\u05e7\u05d8\u05e2 \u05e9\u05d8\u05d0\u05d8\u05df \u05e4\u05d5\u05df \u05d0\u05de\u05e2\u05e8\u05d9\u05e7\u05e2","name:iu":"\u140a\u14a5\u140a\u14d5\u1472","name:yo":"\u00c0w\u1ecdn \u00ccp\u00ednl\u1eb9\u0300 A\u1e63\u1ecd\u0300kan Am\u1eb9\u0301r\u00edk\u00e0","name:mt":"Stati Uniti tal-Amerika","name:ms":"Amerika Syarikat","name:mr":"\u0905\u092e\u0947\u0930\u093f\u0915\u0947\u091a\u0940 \u0938\u0902\u092f\u0941\u0915\u094d\u0924 \u0938\u0902\u0938\u094d\u0925\u093e\u0928\u0947","name:my":"\u1021\u1019\u1031\u101b\u102d\u1000\u1014\u103a\u1015\u103c\u100a\u103a\u1011\u1031\u102c\u1004\u103a\u1005\u102f","name:mg":"Etazonia","name:vi":"Hoa K\u1ef3","name:ml":"\u0d05\u0d2e\u0d47\u0d30\u0d3f\u0d15\u0d4d\u0d15\u0d28\u0d4d\u200d \u0d10\u0d15\u0d4d\u0d2f\u0d28\u0d3e\u0d1f\u0d41\u0d15\u0d33\u0d4d\u200d","name:mn":"\u0410\u043c\u0435\u0440\u0438\u043a\u0438\u0439\u043d \u041d\u044d\u0433\u0434\u0441\u044d\u043d \u0423\u043b\u0441","name:mi":"Hononga-o-Amerika","id":-148838,"name:mk":"\u0421\u043e\u0435\u0434\u0438\u043d\u0435\u0442\u0438 \u0410\u043c\u0435\u0440\u0438\u043a\u0430\u043d\u0441\u043a\u0438 \u0414\u0440\u0436\u0430\u0432\u0438","name:vo":"Lamerik\u00e4n","name:fa":"\u0627\u06cc\u0627\u0644\u0627\u062a \u0645\u062a\u062d\u062f\u0647 \u0622\u0645\u0631\u06cc\u06a9\u0627","name:rw":"Leta Zunze Ubumwe z\u2019Amerika","name:ff":"Dowlaaji Dentu\u0257i","name:fi":"Amerikan yhdysvallat","name:ky":"\u0410\u043c\u0435\u0440\u0438\u043a\u0430 \u041a\u043e\u0448\u043c\u043e \u0428\u0442\u0430\u0442\u0442\u0430\u0440\u044b","old_name:vi":"M\u1ef9 L\u1ee3i Ki\u00ean;Ma Ly C\u0103n;Nh\u00e3 Di L\u00fd","name:fo":"Sambandsr\u00edki\u00f0 Amerika","alt_name:vi":"Hoa K\u00ec;M\u1ef9;M\u0129","name:fr":"\u00c9tats-Unis d'Am\u00e9rique","name:fy":"Feriene Steaten fan Amearika","name:nl":"Verenigde Staten van Amerika","name:nn":"USA","name:no":"Amerikas forente stater","name:na":"Eben Merika","name:ne":"\u0938\u0902\u092f\u0941\u0915\u094d\u0924 \u0930\u093e\u091c\u094d\u092f \u0905\u092e\u0947\u0930\u093f\u0915\u093e","name:wa":"Estats Unis d' Amerike","name:wo":"Diwaan-yu-Bennoo yu Aamerig","name:nv":"W\u00e1\u00e1shindoon Bik\u00e9yah A\u0142hidadiidzoo\u00edg\u00ed\u00ed","name:ga":"St\u00e1it Aontaithe Mheirice\u00e1","name:gd":"Na St\u00e0itean Aonaichte","name:gn":"Tet\u00e3 pete\u0129 reko Am\u00e9rikagua","name:gl":"Estados Unidos de Am\u00e9rica","maritime_boundary":true,"name:gv":"Steatyn Unnaneysit America","name:gu":"\u0ab8\u0a82\u0aaf\u0ac1\u0a95\u0acd\u0aa4 \u0ab0\u0abe\u0a9c\u0acd\u0aaf \u0a85\u0aae\u0ac7\u0ab0\u0abf\u0a95\u0abe","name:tt":"\u0410\u043c\u0435\u0440\u0438\u043a\u0430 \u041a\u0443\u0448\u043c\u0430 \u0428\u0442\u0430\u0442\u043b\u0430\u0440\u044b"},"arcs":[[1],[2],[3]]},{"type":"MultiLineString","properties":{"name:ga":"Hav\u00e1\u00ed","name:pt":"Hava\u00ed","name:az":"Havay","name:ka":"\u10f0\u10d0\u10d5\u10d0\u10d8","name:mr":"\u0939\u0935\u093e\u0908","name:ko":"\ud558\uc640\uc774","name:ar":"\u0647\u0627\u0648\u0627\u064a","name:cs":"Havaj","min_zoom":8.0,"name:to":"Hauai'i","name:tl":"Haway","name:ru":"\u0413\u0430\u0432\u0430\u0439\u0438","name:ml":"\u0d39\u0d35\u0d3e\u0d2f\u0d3f","name:pl":"Hawaje","name:ta":"\u0bb9\u0bb5\u0bbe\u0baf\u0bcd","name:mi":"Hawai'i","id":-166563,"name:mk":"\u0425\u0430\u0432\u0430\u0438","name:te":"\u0c39\u0c35\u0c3e\u0c2f\u0c3f","name:fa":"\u0647\u0627\u0648\u0627\u0626\u06cc","name:mn":"\u0425\u0430\u0432\u0430\u0439","alt_name:vi":"H\u1ea1 Uy Di","sort_rank":256,"kind_detail":"4","name:hi":"\u0939\u0935\u093e\u0908","source":"openstreetmap.org","name:fr":"Hawa\u00ef","osm_relation":true,"name:fy":"Hawa\u00ef","name:zh":"\u590f\u5a01\u5937\u5dde","name:sl":"Havaji","name:lv":"Havajas","name:ja":"\u30cf\u30ef\u30a4\u5dde","name:lt":"Havajai","name:sh":"Havaji","name:qu":"Hawaii suyu","name:se":"Hawaiisullot","name:he":"\u05d4\u05d5\u05d5\u05d0\u05d9","name:eo":"Havajo","name:ur":"\u06c1\u0648\u0627\u0626\u06cc","name:bn":"\u09b9\u09be\u0993\u09af\u09bc\u09be\u0987","name:sk":"Havaj","name:uk":"\u0413\u0430\u0432\u0430\u0457","name:hy":"\u0540\u0561\u057e\u0561\u0575\u0561\u0576 \u056f\u0572\u0566\u056b\u0576\u0565\u0580","name:ht":"Awayi","name:bg":"\u0425\u0430\u0432\u0430\u0438","name:hr":"Havaji","name:sr":"\u0425\u0430\u0432\u0430\u0458\u0438","name:nv":"Haw\u00e1ai Hahoodzo","name:uz":"Gavayi","name:el":"\u03a7\u03b1\u03b2\u03ac\u03b7","kind":"region","name":"Hawaii","name:gn":"Hav\u00e1i","name:gl":"Hawai","name:th":"\u0e23\u0e31\u0e10\u0e2e\u0e32\u0e27\u0e32\u0e22","maritime_boundary":true,"name:fi":"Havaiji","name:yi":"\u05d4\u05d0\u05d5\u05d5\u05d0\u05d9","name:nl":"Hawa\u00ef","name:es":"Haw\u00e1i"},"arcs":[[4],[5]]}]},"roads":{"type":"GeometryCollection","geometries":[{"type":"LineString","properties":{"sort_rank":380,"kind_detail":"primary","min_zoom":8.0,"kind":"major_road","source":"openstreetmap.org"},"arcs":[9]},{"type":"MultiLineString","properties":{"sort_rank":381,"source":"openstreetmap.org","min_zoom":8.0,"kind":"major_road","kind_detail":"trunk"},"arcs":[[10],[11]]},{"type":"LineString","properties":{"source":"openstreetmap.org","kind":"major_road","network":"US:HI","sort_rank":380,"kind_detail":"primary","min_zoom":8.0,"shield_text":"190"},"arcs":[12]},{"type":"LineString","properties":{"cycleway_right":"lane","sort_rank":380,"kind_detail":"primary","is_bicycle_related":true,"kind":"major_road","source":"openstreetmap.org","min_zoom":8.0,"ref":"HI-19","id":430668953},"arcs":[13]},{"type":"LineString","properties":{"source":"openstreetmap.org","kind":"major_road","network":"US:HI","sort_rank":380,"kind_detail":"primary","min_zoom":8.0,"shield_text":"19"},"arcs":[14]},{"type":"MultiLineString","properties":{"source":"openstreetmap.org","kind":"major_road","sort_rank":380,"kind_detail":"primary","ref":"HI-11","min_zoom":8.0},"arcs":[[15],[16],[17],[18],[19],[20],[21]]},{"type":"MultiLineString","properties":{"source":"openstreetmap.org","kind":"major_road","sort_rank":381,"kind_detail":"trunk","ref":"HI-11","min_zoom":8.0},"arcs":[[22],[23],[24]]},{"type":"MultiLineString","properties":{"kind":"major_road","network":"US:HI","sort_rank":380,"kind_detail":"primary","source":"openstreetmap.org","min_zoom":8.0,"landuse_kind":"nature_reserve","shield_text":"19","ref":"HI-19","id":192507062},"arcs":[[25],[26]]},{"type":"MultiLineString","properties":{"kind":"major_road","network":"US:HI","sort_rank":380,"kind_detail":"primary","source":"openstreetmap.org","min_zoom":8.0,"shield_text":"19","ref":"HI-19"},"arcs":[[27],[28],[29],[30],[31],[32],[33],[34],[35],[36],[37]]},{"type":"MultiLineString","properties":{"kind":"major_road","network":"US:HI","sort_rank":380,"kind_detail":"primary","source":"openstreetmap.org","min_zoom":8.0,"landuse_kind":"nature_reserve","shield_text":"200","ref":"HI-200"},"arcs":[[38],[39],[40],[41],[42]]},{"type":"MultiLineString","properties":{"source":"openstreetmap.org","kind":"major_road","sort_rank":380,"kind_detail":"primary","ref":"HI-19","min_zoom":8.0},"arcs":[[43],[44],[45],[46],[47],[48],[49],[50],[51],[52],[53]]},{"type":"MultiLineString","properties":{"kind":"major_road","sort_rank":380,"kind_detail":"primary","is_bicycle_related":true,"cycleway":"lane","source":"openstreetmap.org","min_zoom":8.0,"ref":"HI-11"},"arcs":[[54],[55]]},{"type":"LineString","properties":{"kind":"major_road","network":"US:HI","sort_rank":380,"kind_detail":"primary","source":"openstreetmap.org","min_zoom":8.0,"landuse_kind":"residential","shield_text":"190","ref":"190"},"arcs":[56]},{"type":"LineString","properties":{"kind":"major_road","network":"US:HI","sort_rank":380,"kind_detail":"primary","source":"openstreetmap.org","min_zoom":8.0,"shield_text":"190","ref":"190"},"arcs":[57]},{"type":"MultiLineString","properties":{"kind":"major_road","network":"US:HI","sort_rank":380,"kind_detail":"primary","source":"openstreetmap.org","min_zoom":8.0,"shield_text":"200","ref":"HI-200"},"arcs":[[58],[59],[60],[61],[62],[63]]},{"type":"MultiLineString","properties":{"source":"openstreetmap.org","kind":"major_road","sort_rank":381,"kind_detail":"trunk","ref":"HI-130","min_zoom":8.0},"arcs":[[64],[65],[66],[67]]},{"type":"LineString","properties":{"kind":"major_road","sort_rank":380,"landuse_kind":"national_park","source":"openstreetmap.org","min_zoom":8.0,"kind_detail":"primary","ref":"HI-11","id":218402937},"arcs":[68]}]},"earth":{"type":"GeometryCollection","geometries":[{"type":"MultiPolygon","properties":{"sort_rank":10,"source":"naturalearthdata.com","min_zoom":0.0,"kind":"earth","area":13404243713},"arcs":[[[69]]]},{"type":"Point","properties":{"label_placement":true,"kind":"island","name:en":"Hawaii","name":"Hawai\u2018i","area":11815199744,"reg_name":"Big Island","alt_name:vi":"H\u1ea1 Uy Di","min_zoom":7.0,"source":"openstreetmap.org","id":-3403603,"osm_relation":true},"coordinates":[1875,867]}]},"landuse":{"type":"GeometryCollection","geometries":[{"type":"Polygon","properties":{"kind":"military","area":606470016,"sort_rank":45,"operator":"United States Army","source":"openstreetmap.org","min_zoom":8.0,"tier":3,"id":-7411335,"osm_relation":true},"arcs":[[70]]},{"type":"Polygon","properties":{"kind":"national_park","protect_class":"2","area":1541120000,"sort_rank":18,"source":"openstreetmap.org","min_zoom":3.0,"tier":1,"id":-2819618,"osm_relation":true},"arcs":[[71]]},{"type":"Polygon","properties":{"kind":"military","area":61045900,"sort_rank":45,"operator":"United States Army","source":"openstreetmap.org","min_zoom":8.0,"tier":3,"id":506145652},"arcs":[[72]]},{"type":"MultiPolygon","properties":{"source":"openstreetmap.org","kind":"nature_reserve","tier":2,"area":1889525392,"sort_rank":23,"min_zoom":6.0,"osm_relation":true},"arcs":[[[73]],[[74],[75],[76]],[[77],[78]],[[79],[80],[81]],[[82]],[[83],[84]]]},{"type":"MultiPolygon","properties":{"source":"openstreetmap.org","kind":"nature_reserve","tier":2,"area":383499296,"sort_rank":23,"min_zoom":7.0,"osm_relation":true},"arcs":[[[85]],[[86],[87]],[[88]]]},{"type":"Polygon","properties":{"source":"openstreetmap.org","kind":"nature_reserve","area":60241200,"tier":2,"id":46502874,"min_zoom":8.0,"sort_rank":23},"arcs":[[89]]},{"type":"Polygon","properties":{"kind":"residential","name":"Leilani Estates CDP","area":11650000,"sort_rank":20,"source":"openstreetmap.org","min_zoom":8.0,"tier":2,"id":-6526869,"osm_relation":true},"arcs":[[90]]},{"type":"MultiPolygon","properties":{"source":"openstreetmap.org","kind":"residential","tier":2,"area":44430574,"sort_rank":20,"min_zoom":8.0},"arcs":[[[91]],[[92]]]},{"type":"Polygon","properties":{"kind":"park","area":26545200,"sort_rank":24,"source":"openstreetmap.org","min_zoom":8.0,"tier":2,"id":-364995,"osm_relation":true},"arcs":[[93]]},{"type":"MultiPolygon","properties":{"source":"openstreetmap.org","kind":"nature_reserve","tier":2,"area":712744566,"sort_rank":23,"min_zoom":8.0,"osm_relation":true},"arcs":[[[94]],[[95]],[[96]],[[97]],[[98]],[[99]],[[100]],[[101]],[[102],[103]],[[104]],[[105]],[[106]],[[107]],[[108]]]}]}},"type":"Topology","transform":{"translate":[-156.09375,19.3111433551],"scale":[0.0003433228,0.0003226662]},"arcs":[[[0,3462],[63,9],[278,78],[139,56],[240,177],[167,246],[25,68]],[[4096,1183],[-233,124],[-213,452],[-288,408],[-353,352],[-408,287],[-452,213],[-481,132],[-412,297],[-134,60],[-285,73],[-301,-6],[-275,-133],[-117,-100],[-99,-128],[-45,-93]],[[0,2355],[45,-143],[-45,-28]],[[4071,0],[25,25]],[[3331,0],[456,376],[68,119],[35,169],[-60,120],[-293,162],[-78,83],[-66,94],[-9,143],[-102,171],[-82,45],[-107,9],[3,201],[-64,145],[-354,317],[-365,237],[-369,184],[-294,103],[-153,16],[-538,373],[-197,58],[-136,-18],[-123,-60],[-82,-102],[-34,-115],[40,-333],[183,-305],[-170,-214],[-57,-125],[-167,-62],[-136,-113],[-80,-130]],[[0,1097],[1,-4],[219,-299],[33,-213],[169,-463],[6,-118]],[[3045,0],[63,16],[5,35],[124,36],[185,180],[129,48],[130,159],[37,48],[9,84],[-32,64],[-62,55],[-155,68],[-146,138],[-50,77],[-38,82],[10,133],[-39,65],[-83,59],[-114,-53],[-81,-4],[-8,128],[5,162],[-2,122],[-84,113],[-152,155],[-137,89],[-341,221],[-258,134],[-205,71],[-105,41],[-104,7],[-68,-17],[-59,46],[-70,32],[-51,62],[-73,42],[-112,45],[-48,79],[-3,30],[-10,23],[-16,15],[-82,17],[-189,44],[-105,-1],[-39,-34],[-55,-110],[0,-101],[7,-109],[42,-136],[102,-156],[48,-47],[20,-60],[-12,-41],[-21,-96],[-45,-2],[-65,-74],[-66,-117],[-29,-36],[-58,-103],[-123,-45],[-41,-34],[-16,-58],[-27,-31],[-60,-42],[-62,-55],[-33,-73],[-29,-88],[69,-196],[63,-76],[44,-35],[51,-76],[31,-87],[17,-71],[34,-64],[-7,-68],[29,-64],[29,-38],[20,-60],[49,-147],[35,-98],[39,-72],[5,-79],[-10,-71],[-596,0],[0,4096],[4096,0],[0,-4096],[-1051,0]],[[3478,793],[-146,138],[-50,77],[-38,82],[10,133],[-39,65],[-83,59],[-114,-53],[-81,-4],[-8,128],[5,162],[-2,122],[-84,113],[-152,155],[-137,89],[-341,221],[-258,134],[-205,71],[-105,41],[-104,7],[-68,-17],[-59,46],[-70,32],[-51,62],[-73,42],[-112,45],[-48,79],[-3,30],[-10,23],[-16,15],[-82,17],[-189,44],[-105,-1],[-39,-34],[-55,-110],[0,-101],[7,-109],[42,-136],[102,-156],[48,-47],[20,-60],[-12,-41],[-21,-96],[-45,-2],[-65,-74],[-66,-117],[-29,-36],[-58,-103],[-123,-45],[-41,-34],[-16,-58],[-27,-31],[-60,-42],[-62,-55],[-33,-73],[-29,-88],[69,-196],[63,-76],[44,-35],[51,-76],[31,-87],[17,-71],[34,-64],[-7,-68],[29,-64],[29,-38],[20,-60],[49,-147],[35,-98],[39,-72],[5,-79],[-10,-71]],[[3045,0],[63,16],[5,35],[124,36],[185,180],[129,48],[130,159],[37,48],[9,84],[-32,64],[-62,55],[-155,68]],[[261,1057],[5,-4]],[[2995,1192],[-2,-9]],[[2997,1131],[-1,12]],[[292,1039]],[[2984,1275],[-2,0]],[[2920,1326],[0,-12]],[[292,1038],[1,0]],[[295,1037],[-3,2]],[[304,1032],[7,-3]],[[311,1029],[-6,3]],[[638,0],[-31,481],[-96,84],[-31,152],[-169,312]],[[622,327],[-1,0]],[[1988,0],[69,100]],[[2993,1183],[5,-66],[3,-10],[68,-111],[-24,-70],[24,70],[-72,135]],[[2998,1275],[-3,-83]],[[2996,1143],[-2,42],[5,33],[0,57]],[[514,1659],[-20,-14]],[[595,1817],[-55,-106]],[[289,1527],[-75,-99],[-39,-180],[55,-134]],[[230,1114],[62,-76]],[[292,1039],[-62,75]],[[322,1552],[-33,-25]],[[494,1645],[-172,-93]],[[540,1711],[-26,-52]],[[808,2127],[-50,-161],[-163,-149]],[[1109,2222],[41,-5]],[[2920,1326],[-4,134],[-36,113],[10,144],[-106,146],[-369,293],[-148,26],[-291,144],[-100,24],[-261,-22],[-272,-86]],[[2947,1278],[-27,36]],[[2947,1278],[10,-2],[0,-2],[0,2],[-10,2]],[[1958,1155],[90,-24]],[[2060,1128],[48,-13]],[[2118,1112],[7,0]],[[2195,1128],[315,72]],[[2512,1201],[39,-11]],[[179,1276],[7,41]],[[795,2044],[1,18]],[[2933,1290],[4,-6]],[[2956,1276],[1,0]],[[2957,1275],[1,-1]],[[2958,1274],[-1,1]],[[2958,1274],[11,-1]],[[2973,1274],[-4,-1]],[[2976,1274],[-3,0]],[[2976,1274],[8,1]],[[2982,1275],[-6,-1]],[[293,1038],[11,-6]],[[305,1032],[-10,5]],[[339,1267],[3,-105]],[[294,1042],[48,120]],[[1946,1158],[12,-3]],[[2048,1131],[12,-3]],[[2108,1115],[10,-3]],[[2125,1112],[70,16]],[[2510,1200],[2,1]],[[2551,1190],[156,-51],[99,25],[127,124]],[[3099,929],[0,19],[-6,22],[-1,1],[-7,18],[-4,5],[-3,2],[-9,1]],[[3069,996],[29,-47]],[[3098,949],[0,-2]],[[3098,947],[1,-18]],[[2057,100],[45,65]],[[1419,2562],[59,-46],[68,17],[104,-7],[105,-41],[205,-71],[258,-134],[341,-221],[137,-89],[152,-155],[84,-113],[2,-122],[-5,-162],[8,-128],[81,4],[114,53],[83,-59],[39,-65],[-10,-133],[38,-82],[50,-77],[146,-138],[155,-68],[62,-55],[32,-64],[-9,-84],[-37,-48],[-130,-159],[-129,-48],[-185,-180],[-124,-36],[-5,-35],[-63,-16],[-2449,0],[10,71],[-5,79],[-39,72],[-35,98],[-49,147],[-20,60],[-29,38],[-29,64],[7,68],[-34,64],[-17,71],[-31,87],[-51,76],[-44,35],[-63,76],[-69,196],[29,88],[33,73],[62,55],[60,42],[27,31],[16,58],[41,34],[123,45],[58,103],[29,36],[66,117],[65,74],[45,2],[21,96],[12,41],[-20,60],[-48,47],[-102,156],[-42,136],[-7,109],[0,101],[55,110],[39,34],[105,1],[189,-44],[82,-17],[16,-15],[10,-23],[3,-30],[48,-79],[112,-45],[73,-42],[51,-62],[70,-32]],[[991,1642],[40,21],[152,271],[68,-169],[-53,0],[6,-109],[109,-12],[28,-131],[55,-55],[89,-29],[23,25],[134,-23],[21,-52],[14,35],[48,54],[-62,-89],[-120,6],[84,-11],[-9,-23],[73,-24],[30,24],[60,-61],[-62,-131],[62,-144],[-145,-21],[-29,17],[-91,-33],[0,-145],[-286,0],[-180,282],[-25,102],[120,137],[5,80],[87,34],[-246,174]],[[1023,0],[-12,303],[314,121],[124,236],[119,-63],[215,136],[152,-39],[310,-272],[86,21],[39,-64],[72,1],[65,-56],[11,-56],[277,-55],[36,58],[184,-96],[32,-44],[7,-78],[62,5],[7,20],[17,-24],[-141,-54],[-969,0],[39,145],[185,222],[-285,96],[-469,-91],[139,-206],[-144,-166],[-472,0]],[[941,2085],[142,53],[31,-19],[100,31],[-13,-135],[-40,-103],[-219,98],[-1,75]],[[1619,0],[57,90],[-176,282],[469,91],[105,-36],[26,-41],[-314,-257],[-40,14],[122,-70],[-32,-73],[-217,0]],[[1456,1619],[103,91],[288,149],[111,3],[104,-33],[38,-45],[22,-138],[-13,-101],[-136,-150],[3,-50],[-203,-66],[-119,72],[32,28],[-207,45],[62,63],[-85,132]],[[1721,1460],[114,-39],[48,11],[-24,5],[-56,138],[-82,-115]],[[2007,1539],[23,1],[0,16],[-23,0],[0,-17]],[[1230,833],[25,102],[188,17],[180,71],[107,172],[104,-27],[208,-23],[116,-282],[-223,-169],[-152,39],[-215,-136],[-119,63],[-56,-106],[-163,279]],[[1935,694],[-147,307],[-2,-7],[149,-300]],[[2057,1136],[58,-24],[304,-3],[-16,-28],[222,-61],[162,-127],[-186,-99],[-150,-14],[13,-56],[-110,-56],[0,79],[24,24],[-94,25],[-16,44],[-61,18],[-14,30],[-39,-15],[-97,263]],[[2469,1002],[30,-34],[33,30],[-29,34],[-34,-30]],[[2141,1058],[1,-12],[13,1],[-1,13],[-13,-2]],[[2146,1125],[37,100],[39,16],[-14,51],[31,-7],[-15,24],[53,129],[341,-28],[-19,-25],[123,-54],[-39,-65],[56,-39],[-193,-38],[-46,15],[-214,-70],[-140,-9]],[[414,1590],[105,72],[63,142],[46,48],[264,-66],[100,-146],[150,-122],[98,-47],[-138,-111],[-58,-129],[6,-83],[-56,-10],[-277,97],[27,105],[-79,-22],[-112,21],[-43,115],[-96,136]],[[661,1500],[68,-110],[42,17],[-2,53],[70,55],[-52,82],[-42,-9],[-63,94],[0,-126],[49,-22],[-70,-34]],[[1495,0],[94,98],[50,68],[40,-71],[-60,-95],[-124,0]],[[1786,129],[314,257],[-31,43],[185,-62],[-185,-222],[-81,-145],[-152,0],[32,73],[-82,56]],[[2178,318],[13,-5],[5,13],[-13,5],[-5,-13]],[[2185,1456],[24,46],[6,165],[260,81],[26,-143],[-65,-38],[70,11],[27,-160],[-348,38]],[[816,992],[90,104],[144,20],[31,-212],[-196,4],[-69,84]],[[3357,474],[90,50],[55,-27],[-38,-56],[-106,8],[-1,25]],[[214,1268],[90,16],[-8,49],[46,-2],[-1,-84],[28,-3],[1,-14],[-23,4],[1,-19],[81,52],[82,-4],[-16,-34],[-166,-72],[-22,83],[-93,28]],[[683,2376],[75,71],[24,71],[42,-74],[74,29],[17,-24],[-133,-63],[-70,-62],[-29,52]],[[2492,317],[15,7],[324,-53],[-36,-58],[-277,55],[-26,49]],[[685,261],[225,-15],[-11,-85],[-212,32],[-2,68]],[[2507,324],[330,94],[232,-156],[46,-95],[-27,-11],[-25,41],[-48,-22],[-184,96],[-324,53]],[[2170,1117],[331,87],[43,-15],[-118,-23],[19,-67],[-275,18]],[[553,1339],[112,-21],[79,22],[-27,-105],[-138,33],[-26,71]],[[2308,663],[156,61],[-13,56],[151,27],[0,-12],[179,95],[-156,130],[162,75],[-40,-59],[30,-48],[45,12],[-36,-40],[52,27],[-18,27],[22,25],[43,-24],[44,14],[28,-54],[-144,-111],[-16,13],[-117,-97],[37,-41],[-94,-85],[-17,99],[8,-93],[39,-25],[-55,-111],[-123,-74],[-55,92],[-32,-19],[-80,140]],[[2496,462],[102,62],[88,-70],[-147,-66],[-43,74]],[[2196,762],[119,-113],[79,-136],[-33,-18],[-165,267]],[[1935,694],[57,44],[139,-164],[-29,-19],[-167,139]],[[1216,2404],[23,7],[57,-36],[-61,-21],[10,-20],[75,9],[-1,-46],[35,42],[10,-22],[23,23],[21,-38],[-146,-58],[-11,60],[-12,-43],[-58,25],[-42,8],[5,66],[-20,-42],[-36,15],[-19,35],[28,33],[-41,23],[-20,-16],[-56,62],[62,19],[47,-9],[59,231],[35,-25],[-6,-22],[18,23],[46,-18],[-67,-205],[-20,4],[22,-4],[81,78],[29,65],[35,1],[-59,-109],[61,102],[17,-22],[-19,2],[-17,-53],[52,53],[83,-54],[-60,-155],[-49,-4],[-19,31],[10,9],[-25,39],[1,-23],[-41,23],[-31,-14],[-9,-29]],[[1329,2416],[15,13],[10,144],[-25,-157]],[[2522,1847],[23,34],[15,-51],[58,9],[-79,-68],[-148,-59],[-176,-45],[-4,36],[-7,22],[25,40],[164,54],[42,31],[-76,-42],[-158,-52],[-9,42],[182,223],[13,-9],[147,-67],[-43,-52],[31,-46]],[[2193,1884],[124,183],[-28,9],[63,83],[65,-6],[-59,-98],[-3,1],[-31,-79],[-108,-125],[-23,32]],[[1721,1460],[82,115],[56,-138],[24,-5],[-48,-11],[-114,39]],[[1335,1554],[73,82],[61,-10],[72,-139],[-62,-63],[-86,37],[-58,93]],[[2436,1567],[257,145],[26,-31],[-28,-18],[23,-39],[35,1],[-313,-58]]]}