{"objects":{"water":{"type":"GeometryCollection","geometries":[{"type":"Polygon","properties":{"kind":"lake","name":"Kainji Reservoir","reservoir":true,"area":1281911552,"sort_rank":200,"source":"naturalearthdata.com","min_zoom":0.0,"id":1180},"arcs":[[300]]},{"type":"MultiPolygon","properties":{"kind":"lake","name":"Lake Volta","reservoir":true,"area":8153168384,"sort_rank":200,"source":"naturalearthdata.com","min_zoom":0.0,"id":1193},"arcs":[[[301]]]},{"type":"MultiPolygon","properties":{"source":"naturalearthdata.com","kind":"ocean","area":1576712559132672,"sort_rank":200,"min_zoom":0.0,"id":1},"arcs":[[[302]],[[303]],[[304]]]},{"type":"Polygon","properties":{"source":"naturalearthdata.com","kind":"lake","area":156846688,"sort_rank":200,"min_zoom":0.0,"id":716},"arcs":[[305]]},{"type":"Point","properties":{"label_placement":true,"kind":"lake","name":"Lake Volta","reservoir":true,"area":8153168384,"sort_rank":200,"source":"naturalearthdata.com","min_zoom":0.0,"id":1193},"coordinates":[49,1557]},{"type":"Point","properties":{"label_placement":true,"kind":"lake","name":"Kainji Reservoir","reservoir":true,"area":1281911552,"sort_rank":200,"source":"naturalearthdata.com","min_zoom":0.0,"id":1180},"coordinates":[3324,3416]},{"type":"MultiLineString","properties":{"source":"naturalearthdata.com","kind":"ocean","sort_rank":205,"boundary":true,"min_zoom":0.0,"id":47},"arcs":[[306],[307],[308],[309]]},{"type":"LineString","properties":{"source":"naturalearthdata.com","kind":"ocean","sort_rank":205,"boundary":true,"min_zoom":0.0,"id":56},"arcs":[310]},{"type":"LineString","properties":{"source":"naturalearthdata.com","kind":"lake","sort_rank":367,"boundary":true,"min_zoom":0.0,"id":716},"arcs":[311]},{"type":"LineString","properties":{"source":"naturalearthdata.com","kind":"lake","reservoir":true,"sort_rank":367,"boundary":true,"min_zoom":0.0,"id":1180},"arcs":[312]},{"type":"MultiLineString","properties":{"source":"naturalearthdata.com","kind":"lake","reservoir":true,"sort_rank":367,"boundary":true,"min_zoom":0.0,"id":1193},"arcs":[[313],[314],[315],[316],[317],[318],[319],[320],[321]]}]},"buildings":{"type":"GeometryCollection","geometries":[]},"places":{"type":"GeometryCollection","geometries":[{"type":"Point","properties":{"source":"naturalearthdata.com","kind":"locality","name":"Lagos","country_capital":true,"population":9466000,"min_zoom":2.0,"id":7272},"coordinates":[2468,611]},{"type":"Point","properties":{"name:kg":"Benin","name:ka":"\u10d1\u10d4\u10dc\u10d8\u10dc\u10d8","name:ko":"\ubca0\ub0c9","name:cv":"\u0411\u0435\u043d\u0438\u043d","name:km":"\u1794\u17c1\u178e\u17b6\u17c6\u1784","name:kl":"Benin","name:cs":"Benin","name:ki":"Benini","name:kw":"Benin","name:tk":"Benin","name:ku":"B\u00ean\u00een","name:ti":"\u1264\u1292\u1295","name:ks":"\u0628\u0650\u0646\u0650\u0646","name:to":"Penini","name:tl":"Benin","name:ce":"\u0411\u0435\u043d\u0438\u043d","name:ta":"\u0baa\u0bc6\u0ba9\u0bbf\u0ba9\u0bcd","name:tg":"\u0411\u0435\u043d\u0438\u043d","name:ca":"Ben\u00edn","name:te":"\u0c2c\u0c46\u0c28\u0c3f\u0c28\u0c4d","name:cy":"Benin","name:hr":"Benin","name:da":"Benin","name:de":"Benin","name:dz":"\u0f56\u0fb7\u0f7a\u0f0b\u0f53\u0f72\u0f53","source":"openstreetmap.org","name:kn":"\u0cac\u0cc6\u0ca8\u0cbf\u0ca8\u0ccd","name:dv":"\u0784\u07ac\u0782\u07a9\u0782\u07b0","name:lv":"Benina","name:lt":"Beninas","name:uz":"Benin","name:kk":"\u0411\u0435\u043d\u0438\u043d","name:ur":"\u0628\u06cc\u0646\u0646","name:lb":"Benin","name:la":"Beninum","name:lg":"Benini","name:uk":"\u0411\u0435\u043d\u0456\u043d","name:ug":"\u0628\u06d0\u0646\u0649\u0646","name:li":"Benin","name:ln":"Ben\u025b","name:lo":"\u0ec0\u0e9a\u0e99\u0eb4\u0e99","name:el":"\u039c\u03c0\u03b5\u03bd\u03af\u03bd","name:eo":"Benino","name:en":"Benin","name":"B\u00e9nin","name:ee":"Benin nutome","name:th":"\u0e1b\u0e23\u0e30\u0e40\u0e17\u0e28\u0e40\u0e1a\u0e19\u0e34\u0e19","name:eu":"Benin","name:et":"Benin","name:es":"Ben\u00edn","name:ia":"Benin","name:rm":"Benin","name:rn":"Bene","name:az":"Benin","name:ie":"Benin","name:id":"Benin","name:ig":"Binin","name:ar":"\u0628\u0646\u0646","name:io":"Benin","name:ak":"B\u025bnin","name:am":"\u1264\u1292\u1295","name:it":"Benin","name:an":"Ben\u00edn","name:ru":"\u0411\u0435\u043d\u0438\u043d","name:rw":"Bene","name:af":"Benin","name:zu":"i-Benin","name:ky":"\u0411\u0435\u043d\u0438\u043d","name:zh-yue":"\u8c9d\u5be7","name:zh":"\u8d1d\u5b81","name:so":"Biniin","name:sn":"Benini","name:sl":"Benin","name:sk":"Benin","name:ja":"\u30d9\u30ca\u30f3","name:si":"\u0db6\u0dd9\u0db1\u0dd2\u0db1\u0dca","name:sh":"Benin","name:sg":"Ben\u00eben","name:se":"Benin","name:sc":"Benin","name:sa":"\u092c\u0947\u0928\u093f\u0928\u094d","name:bs":"Benin","name:bm":"Ben\u025bn","name:bn":"\u09ac\u09c7\u09a8\u09bf\u09a8","name:bo":"\u0f56\u0f71\u0f7a\u0f0b\u0f53\u0f72\u0f53\u0f0d","name:br":"Benin","name:sw":"Benini","name:be":"\u0411\u0435\u043d\u0456\u043d","name:bg":"\u0411\u0435\u043d\u0438\u043d","name:ss":"IBhenini","name:ba":"\u0411\u0435\u043d\u0438\u043d","name:sq":"Benini","name:jv":"Benin","name:pt":"Benin","name:ps":"\u0628\u06d0\u0646\u064a\u0646","name:oc":"Benin","min_zoom":2.0,"name:ro":"Benin","name:pa":"\u0a2c\u0a47\u0a28\u0a3f\u0a28","name:os":"\u0411\u0435\u043d\u0438\u043d","name:or":"\u0b2c\u0b47\u0b28\u0b3f\u0b28\u0b4d","name:pl":"Benin","name:st":"Benin","name:sr":"\u0411\u0435\u043d\u0438\u043d","name:tr":"Benin","name:hi":"\u092c\u0947\u0928\u093f\u0928","name:sv":"Benin","name:he":"\u05d1\u05e0\u05d9\u05df","name:ha":"Binin","name:hy":"\u0532\u0565\u0576\u056b\u0576","name:ht":"Benen","name:hu":"Benin","name:qu":"Binin","population":8971944,"kind":"country","name:ts":"Benin","name:is":"Ben\u00edn","name:yi":"\u05d1\u05e2\u05e0\u05d9\u05df","name:yo":"Or\u00edl\u1eb9\u0301\u00e8de B\u1eb9\u0300n\u1eb9\u0300","name:mt":"Benin","name:ms":"Benin","name:mr":"\u092c\u0947\u0928\u093f\u0928","name:my":"\u1018\u102e\u1014\u1004\u103a\u1014\u102d\u102f\u1004\u103a\u1004\u1036","official_name":"R\u00e9publique du B\u00e9nin","int_name":"Benin","name:mg":"Benin","name:ml":"\u0d2c\u0d46\u0d28\u0d3f\u0d7b","name:vi":"Benin","name:mn":"\u0411\u0435\u043d\u0438\u043d","id":424297384,"name:mk":"\u0411\u0435\u043d\u0438\u043d","name:vo":"Benin\u00e4n","name:fa":"\u0628\u0646\u06cc\u0646","name:ff":"Benee","name:fi":"Benin","name:fo":"Benin","name:fy":"Benyn","name:nl":"Benin","name:nn":"Benin","name:no":"Benin","name:na":"Benin","name:ne":"\u092c\u0947\u0928\u093f\u0928","name:wo":"Bene","name:ga":"Beinin","name:gd":"Beinin","name:gl":"Benin","name:gv":"Benin","name:gu":"\u0aac\u0ac7\u0aa8\u0abf\u0aa8","name:tt":"\u0411\u0435\u043d\u0438\u043d"},"coordinates":[1645,2882]},{"type":"Point","properties":{"name:ka":"\u10e2\u10dd\u10d2\u10dd","name:ko":"\ud1a0\uace0","name:cv":"\u0422\u043e\u0433\u043e","name:km":"\u178f\u17bc\u17a0\u17d2\u1782\u17bc","name:kk":"\u0422\u043e\u0433\u043e","name:th":"\u0e1b\u0e23\u0e30\u0e40\u0e17\u0e28\u0e42\u0e15\u0e42\u0e01","name:ti":"\u1276\u130e","name:ks":"\u0679\u0648\u06af\u0648","name:to":"Toko","name:pa":"\u0a1f\u0a4b\u0a17\u0a4b","name:os":"\u0422\u043e\u0433\u043e","name:or":"\u0b1f\u0b4b\u0b17\u0b4b","name:ce":"\u0422\u043e\u0433\u043e","name:ta":"\u0b9f\u0bcb\u0b95\u0bcb","name:tg":"\u0422\u043e\u0433\u043e","name:te":"\u0c1f\u0c4b\u0c17\u0c4b","name:wo":"Tog\u00f3o","name:ba":"\u0422\u043e\u0433\u043e","name:dz":"\u0f4a\u0f7c\u0f0b\u0f42\u0fb7\u0f7c","source":"openstreetmap.org","name:kn":"\u0c9f\u0cca\u0c97\u0cca","name:dv":"\u0793\u07af\u078e\u07af","name:lt":"Togas","name:hi":"\u091f\u094b\u0917\u094b","name:he":"\u05d8\u05d5\u05d2\u05d5","kind":"country","name:ur":"\u0679\u0648\u06af\u0648","name:la":"Togum","name:uk":"\u0422\u043e\u0433\u043e","name:hy":"\u054f\u0578\u0563\u0578","name:ug":"\u062a\u0648\u06af\u0648","name:qu":"Tugu","name:lo":"\u0ec2\u0e95\u0ec2\u0e81","name:oc":"T\u00f2go","population":6587239,"name:el":"\u03a4\u03cc\u03b3\u03ba\u03bf","name:eo":"Togolando","name":"Togo","min_zoom":2.0,"name:yi":"\u05d8\u05d0\u05d2\u05d0","name:yo":"T\u00f3g\u00f2","alt_name:eo":"Togo;Togolo","name:az":"Toqo","name:mr":"\u091f\u094b\u0917\u094b","name:ar":"\u062a\u0648\u063a\u0648","name:my":"\u1010\u102d\u102f\u1002\u102d\u102f\u1014\u102d\u102f\u1004\u103a\u1004\u1036","official_name":"R\u00e9publique Togolaise","name:is":"T\u00f3g\u00f3","name:am":"\u1276\u130e","name:ru":"\u0422\u043e\u0433\u043e","name:ml":"\u0d1f\u0d4b\u0d17\u0d4b","name:mn":"\u0422\u043e\u0433\u043e","id":424311827,"name:mk":"\u0422\u043e\u0433\u043e","name:vo":"Togo\u00e4n","name:zu":"ITogo","name:ff":"Togoo","name:zh-yue":"\u591a\u54e5","name:zh":"\u591a\u54e5","name:ja":"\u30c8\u30fc\u30b4","name:si":"\u0da7\u0ddd\u0d9c\u0ddd","name:fa":"\u062a\u0648\u06af\u0648","name:sg":"Tog\u00f6","name:ne":"\u091f\u094b\u0917\u094b","name:sa":"\u091f\u094b\u0917\u094b","name:bn":"\u099f\u09cb\u0997\u09cb","name:bo":"\u0f4a\u0f7c\u0f0b\u0f42\u0f7c","name:be":"\u0422\u043e\u0433\u0430","name:bg":"\u0422\u043e\u0433\u043e","name:ss":"IThogo","name:sr":"\u0422\u043e\u0433\u043e","name:nv":"T\u02bc\u00f3ogo","name:ga":"T\u00f3ga","name:gd":"T\u00f2go","name:gv":"Yn Togo","name:gu":"\u0a9f\u0acb\u0a97\u0acb"},"coordinates":[743,2330]},{"type":"Point","properties":{"admin_level":"4","kind":"region","name":"Greater Accra Region","kind_detail":"state","name:de":"Gro\u00df-Accra Region","source":"openstreetmap.org","min_zoom":4.0,"name:uk":"\u0412\u0435\u043b\u0438\u043a\u0430 \u0410\u043a\u043a\u0440\u0430","name:ru":"\u0411\u043e\u043b\u044c\u0448\u0430\u044f \u0410\u043a\u043a\u0440\u0430","id":2661484221},"coordinates":[72,143]},{"type":"Point","properties":{"source":"openstreetmap.org","kind":"region","name":"Pr\u00e9fecture de Golfe","kind_detail":"state","min_zoom":4.0,"id":3101380641},"coordinates":[889,374]},{"type":"Point","properties":{"admin_level":"4","kind":"region","name":"Volta Region","kind_detail":"state","source":"openstreetmap.org","min_zoom":4.0,"name:uk":"\u0412\u043e\u043b\u044c\u0442\u0430","name:ru":"\u0412\u043e\u043b\u044c\u0442\u0430","id":2661665006},"coordinates":[296,1161]},{"type":"Point","properties":{"admin_level":"4","kind":"region","name":"Kwara","kind_detail":"state","source":"openstreetmap.org","min_zoom":4.0,"name:uk":"\u041a\u0432\u0430\u0440\u0430","name:ru":"\u041a\u0432\u0430\u0440\u0430","id":2163706710},"coordinates":[3400,2372]},{"type":"Point","properties":{"kind":"region","name":"Atakora","kind_detail":"state","min_zoom":4.0,"official_name":"D\u00e9partement d'Atacora","source":"openstreetmap.org","name:fr":"Atacora","name:uk":"\u0410\u0442\u0430\u043a\u043e\u0440\u0430","name:ru":"\u0410\u0442\u0430\u043a\u043e\u0440\u0430","id":2240079695},"coordinates":[1116,3756]},{"type":"Point","properties":{"kind":"region","name":"Borgou","kind_detail":"state","official_name":"D\u00e9partement du Borgou","source":"openstreetmap.org","min_zoom":4.0,"name:uk":"\u0411\u043e\u0440\u0433\u0443","name:ru":"\u0411\u043e\u0440\u0433\u0443","id":2240079697},"coordinates":[1997,3015]},{"type":"Point","properties":{"kind":"region","name":"Donga","kind_detail":"state","official_name":"D\u00e9partement de Donga","source":"openstreetmap.org","min_zoom":4.0,"name:uk":"\u0414\u043e\u043d\u0433\u0430","name:ru":"\u0414\u043e\u043d\u0433\u0430","id":2240079699},"coordinates":[1250,2689]},{"type":"Point","properties":{"admin_level":"4","kind":"region","name":"Oyo","kind_detail":"state","source":"openstreetmap.org","min_zoom":4.0,"name:uk":"\u041e\u0439\u043e","name:ru":"\u041e\u0439\u043e","id":2163706717},"coordinates":[2595,1914]},{"type":"Point","properties":{"admin_level":"4","kind":"region","name":"Ogun","kind_detail":"state","source":"openstreetmap.org","min_zoom":4.0,"name:uk":"\u041e\u0433\u0443\u043d","name:ru":"\u041e\u0433\u0443\u043d","id":2163706714},"coordinates":[2504,1004]},{"type":"Point","properties":{"admin_level":"4","kind":"region","name":"Lagos","kind_detail":"state","source":"openstreetmap.org","min_zoom":4.0,"name:uk":"\u041b\u0430\u0433\u043e\u0441","name:ru":"\u041b\u0430\u0433\u043e\u0441","id":2163706711},"coordinates":[2605,671]},{"type":"Point","properties":{"admin_level":"4","kind":"region","name":"Ondo","kind_detail":"state","source":"openstreetmap.org","min_zoom":4.0,"name:uk":"\u041e\u043d\u0434\u043e","name:ru":"\u041e\u043d\u0434\u043e","id":2163706715},"coordinates":[3682,1035]},{"type":"Point","properties":{"admin_level":"4","kind":"region","name":"Osun","kind_detail":"state","source":"openstreetmap.org","min_zoom":4.0,"name:uk":"\u041e\u0441\u0443\u043d","name:ru":"\u041e\u0441\u0443\u043d","id":2163706716},"coordinates":[3275,1423]},{"type":"Point","properties":{"admin_level":"4","kind":"region","name":"Ekiti","kind_detail":"state","source":"openstreetmap.org","min_zoom":4.0,"name:uk":"\u0415\u043a\u0456\u0442\u0456","name:ru":"\u042d\u043a\u0438\u0442\u0438","id":2163706700},"coordinates":[3840,1562]},{"type":"Point","properties":{"kind":"region","name":"Mono","kind_detail":"state","official_name":"D\u00e9partement de Mono","source":"openstreetmap.org","min_zoom":4.0,"name:uk":"\u041c\u043e\u043d\u043e","name:ru":"\u041c\u043e\u043d\u043e","id":2240025035},"coordinates":[1360,620]},{"type":"Point","properties":{"kind":"region","name":"Atlantique","kind_detail":"state","official_name":"D\u00e9partement de l'Atlantique","source":"openstreetmap.org","min_zoom":4.0,"name:uk":"\u0410\u0442\u043b\u0430\u043d\u0442\u0438\u0447\u043d\u0438\u0439","name:ru":"\u0410\u0442\u043b\u0430\u043d\u0442\u0438\u0447\u0435\u0441\u043a\u0430\u044f \u043f\u0440\u043e\u0432\u0438\u043d\u0446\u0438\u044f","id":2240079696},"coordinates":[1619,681]},{"type":"Point","properties":{"kind":"region","name":"Collines","kind_detail":"state","official_name":"D\u00e9partement des Collines","source":"openstreetmap.org","min_zoom":4.0,"name:uk":"\u041a\u043e\u043b\u043b\u0456\u043d","name:ru":"\u041a\u043e\u043b\u043b\u0438\u043d\u0437","id":2240079698},"coordinates":[1591,1835]},{"type":"Point","properties":{"kind":"region","name":"Kouffo","kind_detail":"state","min_zoom":4.0,"official_name":"D\u00e9partement de Couffo","source":"openstreetmap.org","name:fr":"Couffo","name:uk":"\u041a\u0443\u0444\u0444\u043e","name:ru":"\u041a\u0443\u0444\u0444\u043e","id":2240079700},"coordinates":[1279,1116]},{"type":"Point","properties":{"kind":"region","name":"Littoral","kind_detail":"state","official_name":"D\u00e9partement du Littoral","source":"openstreetmap.org","min_zoom":4.0,"name:uk":"\u041b\u0456\u0442\u043e\u0440\u0430\u043b\u044c","name:ru":"\u041b\u0438\u0442\u043e\u0440\u0430\u043b\u044c","id":2240079701},"coordinates":[1777,498]},{"type":"Point","properties":{"kind":"region","name":"Ou\u00e9m\u00e9","kind_detail":"state","official_name":"D\u00e9partement d'Ou\u00e9m\u00e9","source":"openstreetmap.org","min_zoom":4.0,"name:uk":"\u0412\u0435\u043c\u0435","name:ru":"\u0423\u044d\u043c\u0435","id":2240079703},"coordinates":[1857,726]},{"type":"Point","properties":{"kind":"region","name":"Plateau","kind_detail":"state","official_name":"D\u00e9partement du Plateau","source":"openstreetmap.org","min_zoom":4.0,"name:uk":"\u041f\u043b\u0430\u0442\u043e","name:ru":"\u041f\u043b\u0430\u0442\u043e","id":2240079704},"coordinates":[1923,1093]},{"type":"Point","properties":{"kind":"region","name":"Zou","kind_detail":"state","official_name":"D\u00e9partement de Zou","source":"openstreetmap.org","min_zoom":4.0,"name:uk":"\u0417\u0443","name:ru":"\u0417\u0443","id":2240080044},"coordinates":[1546,1228]},{"type":"Point","properties":{"source":"naturalearthdata.com","kind":"locality","name":"Ibadan","population":2628000,"min_zoom":5.0,"id":6431},"coordinates":[2860,1300]},{"type":"Point","properties":{"source":"naturalearthdata.com","kind":"locality","name":"Lome","country_capital":true,"population":1452000,"min_zoom":5.0,"id":6803},"coordinates":[889,381]},{"type":"Point","properties":{"source":"naturalearthdata.com","kind":"locality","name":"Benin City","population":1190000,"region_capital":true,"min_zoom":5.0,"id":6177},"coordinates":[4091,535]},{"type":"Point","properties":{"source":"naturalearthdata.com","kind":"locality","name":"Ogbomosho","population":951000,"min_zoom":5.0,"id":6432},"coordinates":[3086,1853]},{"type":"Point","properties":{"source":"naturalearthdata.com","kind":"locality","name":"Cotonou","country_capital":true,"population":762000,"min_zoom":5.0,"id":7072},"coordinates":[1834,579]},{"type":"Point","properties":{"source":"naturalearthdata.com","kind":"locality","name":"Porto-Novo","country_capital":true,"population":300000,"min_zoom":5.0,"id":6719},"coordinates":[1905,639]},{"type":"Point","properties":{"source":"naturalearthdata.com","kind":"locality","name":"Parakou","population":188853,"region_capital":true,"min_zoom":5.0,"id":6718},"coordinates":[1908,2742]},{"type":"Point","properties":{"source":"naturalearthdata.com","kind":"locality","name":"Atakpame","population":80683,"min_zoom":5.0,"id":6260},"coordinates":[816,1409]},{"type":"Point","properties":{"source":"naturalearthdata.com","kind":"locality","name":"Ilorin","population":771000,"region_capital":true,"min_zoom":6.0,"id":5771},"coordinates":[3312,2118]}]},"transit":{"type":"GeometryCollection","geometries":[]},"pois":{"type":"GeometryCollection","geometries":[{"type":"Point","properties":{"kind":"nature_reserve","name":"Parc National de Keran","area":1963110000,"source":"openstreetmap.org","min_zoom":6.82,"tier":2,"id":-2702083,"osm_relation":true},"coordinates":[461,3315]},{"type":"Point","properties":{"kind":"nature_reserve","name":"R\u00e9serve totale d'Oti Mandouri","area":2094540000,"source":"openstreetmap.org","min_zoom":6.77,"tier":2,"id":-2702079,"osm_relation":true},"coordinates":[470,3705]},{"type":"Point","properties":{"kind":"nature_reserve","name":"Zone cyn\u00e9g\u00e9tique de la Pendjari","area":1696630000,"source":"openstreetmap.org","min_zoom":6.93,"tier":2,"id":-2702070,"osm_relation":true},"coordinates":[945,3914]}]},"boundaries":{"type":"GeometryCollection","geometries":[{"type":"MultiLineString","properties":{"source":"naturalearthdata.com","kind":"country","sort_rank":262,"kind_detail":"2","min_zoom":0.0,"id":390},"arcs":[[0],[1]]},{"type":"MultiLineString","properties":{"source":"naturalearthdata.com","kind":"country","sort_rank":262,"kind_detail":"2","min_zoom":0.0,"id":134},"arcs":[[2],[3],[4],[5],[6],[7],[8],[9],[10],[11],[12],[13],[14],[15],[16]]},{"type":"MultiLineString","properties":{"source":"naturalearthdata.com","kind":"country","sort_rank":262,"kind_detail":"2","min_zoom":0.0,"id":281},"arcs":[[17],[18],[19],[20],[21],[22],[23],[24],[25],[26],[27],[28]]},{"type":"MultiLineString","properties":{"source":"naturalearthdata.com","kind":"country","sort_rank":262,"kind_detail":"2","min_zoom":0.0,"id":282},"arcs":[[29],[30],[31],[32],[33],[34],[35],[36],[37],[38],[39],[40],[41],[42],[43],[44],[45],[46],[47],[48],[49],[50],[51],[52],[53],[54],[55],[56],[57],[58],[59],[60],[61],[62]]},{"type":"MultiLineString","properties":{"source":"naturalearthdata.com","kind":"country","sort_rank":262,"kind_detail":"2","min_zoom":0.0,"id":391},"arcs":[[63],[64],[65],[66],[67],[68],[69]]},{"type":"MultiLineString","properties":{"source":"naturalearthdata.com","kind":"region","sort_rank":256,"kind_detail":"4","min_zoom":6.0,"id":1499},"arcs":[[70],[71],[72],[73],[74]]},{"type":"LineString","properties":{"source":"naturalearthdata.com","kind":"region","sort_rank":256,"kind_detail":"4","min_zoom":6.7,"id":2888},"arcs":[75]},{"type":"MultiLineString","properties":{"source":"naturalearthdata.com","kind":"region","sort_rank":256,"kind_detail":"4","min_zoom":5.5,"id":3930},"arcs":[[76],[77],[78]]},{"type":"MultiLineString","properties":{"source":"naturalearthdata.com","kind":"region","sort_rank":256,"kind_detail":"4","min_zoom":5.5,"id":3936},"arcs":[[79],[80]]},{"type":"MultiLineString","properties":{"source":"naturalearthdata.com","kind":"region","sort_rank":256,"kind_detail":"4","min_zoom":6.7,"id":4738},"arcs":[[81],[82],[83]]},{"type":"LineString","properties":{"source":"naturalearthdata.com","kind":"region","sort_rank":256,"kind_detail":"4","min_zoom":6.7,"id":4747},"arcs":[84]},{"type":"MultiLineString","properties":{"source":"naturalearthdata.com","kind":"region","sort_rank":256,"kind_detail":"4","min_zoom":6.7,"id":4752},"arcs":[[85],[86]]},{"type":"LineString","properties":{"source":"naturalearthdata.com","kind":"region","sort_rank":256,"kind_detail":"4","min_zoom":3.0,"id":6066},"arcs":[87]},{"type":"LineString","properties":{"source":"naturalearthdata.com","kind":"region","sort_rank":256,"kind_detail":"4","min_zoom":6.7,"id":308},"arcs":[88]},{"type":"LineString","properties":{"source":"naturalearthdata.com","kind":"region","sort_rank":256,"kind_detail":"4","min_zoom":6.7,"id":309},"arcs":[89]},{"type":"LineString","properties":{"source":"naturalearthdata.com","kind":"region","sort_rank":256,"kind_detail":"4","min_zoom":3.0,"id":380},"arcs":[90]},{"type":"LineString","properties":{"source":"naturalearthdata.com","kind":"region","sort_rank":256,"kind_detail":"4","min_zoom":3.0,"id":435},"arcs":[91]},{"type":"MultiLineString","properties":{"source":"naturalearthdata.com","kind":"region","sort_rank":256,"kind_detail":"4","min_zoom":6.0,"id":1496},"arcs":[[92],[93],[94],[95],[96],[97],[98],[99],[100]]},{"type":"MultiLineString","properties":{"source":"naturalearthdata.com","kind":"region","sort_rank":256,"kind_detail":"4","min_zoom":6.0,"id":1497},"arcs":[[101],[102],[103],[104],[105],[106],[107],[108],[109],[110],[111],[112],[113],[114],[115],[116],[117],[118]]},{"type":"MultiLineString","properties":{"source":"naturalearthdata.com","kind":"region","sort_rank":256,"kind_detail":"4","min_zoom":6.0,"id":1498},"arcs":[[119],[120],[121],[122],[123],[124]]},{"type":"MultiLineString","properties":{"source":"naturalearthdata.com","kind":"region","sort_rank":256,"kind_detail":"4","min_zoom":5.5,"id":3928},"arcs":[[125],[126],[127],[128],[129]]},{"type":"MultiLineString","properties":{"source":"naturalearthdata.com","kind":"region","sort_rank":256,"kind_detail":"4","min_zoom":5.5,"id":3929},"arcs":[[130],[131],[132],[133],[134],[135],[136],[137],[138],[139]]},{"type":"LineString","properties":{"source":"naturalearthdata.com","kind":"region","sort_rank":256,"kind_detail":"4","min_zoom":5.5,"id":3933},"arcs":[140]},{"type":"MultiLineString","properties":{"source":"naturalearthdata.com","kind":"region","sort_rank":256,"kind_detail":"4","min_zoom":5.5,"id":3934},"arcs":[[141],[142],[143],[144]]},{"type":"LineString","properties":{"source":"naturalearthdata.com","kind":"region","sort_rank":256,"kind_detail":"4","min_zoom":6.7,"id":4741},"arcs":[145]},{"type":"MultiLineString","properties":{"source":"naturalearthdata.com","kind":"region","sort_rank":256,"kind_detail":"4","min_zoom":6.7,"id":4742},"arcs":[[146],[147],[148],[149]]},{"type":"MultiLineString","properties":{"source":"naturalearthdata.com","kind":"region","sort_rank":256,"kind_detail":"4","min_zoom":6.7,"id":4743},"arcs":[[150],[151],[152],[153],[154]]},{"type":"MultiLineString","properties":{"source":"naturalearthdata.com","kind":"region","sort_rank":256,"kind_detail":"4","min_zoom":6.7,"id":4737},"arcs":[[155],[156],[157]]},{"type":"LineString","properties":{"source":"naturalearthdata.com","kind":"region","sort_rank":256,"kind_detail":"4","min_zoom":6.7,"id":4739},"arcs":[158]},{"type":"LineString","properties":{"source":"naturalearthdata.com","kind":"region","sort_rank":256,"kind_detail":"4","min_zoom":6.7,"id":4740},"arcs":[159]},{"type":"MultiLineString","properties":{"source":"naturalearthdata.com","kind":"region","sort_rank":256,"kind_detail":"4","min_zoom":6.7,"id":4744},"arcs":[[160],[161],[162],[163],[164],[165],[166],[167],[168],[169]]},{"type":"LineString","properties":{"source":"naturalearthdata.com","kind":"region","sort_rank":256,"kind_detail":"4","min_zoom":6.7,"id":4745},"arcs":[170]},{"type":"MultiLineString","properties":{"source":"naturalearthdata.com","kind":"region","sort_rank":256,"kind_detail":"4","min_zoom":6.7,"id":4746},"arcs":[[171],[172],[173]]},{"type":"LineString","properties":{"source":"naturalearthdata.com","kind":"region","sort_rank":256,"kind_detail":"4","min_zoom":6.7,"id":4748},"arcs":[174]},{"type":"MultiLineString","properties":{"source":"naturalearthdata.com","kind":"region","sort_rank":256,"kind_detail":"4","min_zoom":6.7,"id":4749},"arcs":[[175],[176],[177],[178],[179]]},{"type":"MultiLineString","properties":{"source":"naturalearthdata.com","kind":"region","sort_rank":256,"kind_detail":"4","min_zoom":6.7,"id":4750},"arcs":[[180],[181]]},{"type":"MultiLineString","properties":{"source":"naturalearthdata.com","kind":"region","sort_rank":256,"kind_detail":"4","min_zoom":6.7,"id":4751},"arcs":[[182],[183]]},{"type":"LineString","properties":{"source":"naturalearthdata.com","kind":"region","sort_rank":256,"kind_detail":"4","min_zoom":6.7,"id":4753},"arcs":[184]},{"type":"LineString","properties":{"source":"naturalearthdata.com","kind":"region","sort_rank":256,"kind_detail":"4","min_zoom":6.7,"id":4754},"arcs":[185]},{"type":"LineString","properties":{"source":"naturalearthdata.com","kind":"region","sort_rank":256,"kind_detail":"4","min_zoom":6.7,"id":4755},"arcs":[186]},{"type":"MultiLineString","properties":{"source":"naturalearthdata.com","kind":"region","sort_rank":256,"kind_detail":"4","min_zoom":3.0,"id":6064},"arcs":[[187],[188],[189],[190],[191],[192]]},{"type":"MultiLineString","properties":{"source":"naturalearthdata.com","kind":"region","sort_rank":256,"kind_detail":"4","min_zoom":3.0,"id":6082},"arcs":[[193],[194],[195],[196],[197],[198],[199],[200]]},{"type":"MultiLineString","properties":{"source":"naturalearthdata.com","kind":"region","sort_rank":256,"kind_detail":"4","min_zoom":3.0,"id":6083},"arcs":[[201],[202],[203],[204],[205],[206],[207]]},{"type":"LineString","properties":{"source":"naturalearthdata.com","kind":"region","sort_rank":256,"kind_detail":"4","min_zoom":3.0,"id":6752},"arcs":[208]},{"type":"MultiLineString","properties":{"source":"naturalearthdata.com","kind":"region","sort_rank":256,"kind_detail":"4","min_zoom":3.0,"id":6735},"arcs":[[209],[210],[211]]},{"type":"MultiLineString","properties":{"source":"naturalearthdata.com","kind":"region","sort_rank":256,"kind_detail":"4","min_zoom":3.0,"id":6756},"arcs":[[212],[213],[214],[215],[216]]},{"type":"MultiLineString","properties":{"source":"naturalearthdata.com","kind":"region","sort_rank":256,"kind_detail":"4","min_zoom":3.0,"id":6757},"arcs":[[217],[218],[219],[220]]},{"type":"LineString","properties":{"source":"naturalearthdata.com","kind":"region","sort_rank":256,"kind_detail":"4","min_zoom":3.0,"id":6758},"arcs":[221]},{"type":"MultiLineString","properties":{"source":"naturalearthdata.com","kind":"region","sort_rank":256,"kind_detail":"4","min_zoom":3.0,"id":6760},"arcs":[[222],[223],[224]]},{"type":"MultiLineString","properties":{"source":"naturalearthdata.com","kind":"region","sort_rank":256,"kind_detail":"4","min_zoom":3.0,"id":6775},"arcs":[[225],[226]]},{"type":"MultiLineString","properties":{"source":"naturalearthdata.com","kind":"region","sort_rank":256,"kind_detail":"4","min_zoom":3.0,"id":6774},"arcs":[[227],[228],[229],[230],[231],[232]]},{"type":"MultiLineString","properties":{"source":"naturalearthdata.com","kind":"region","sort_rank":256,"kind_detail":"4","min_zoom":3.0,"id":6776},"arcs":[[233],[234],[235],[236],[237],[238],[239],[240]]},{"type":"MultiLineString","properties":{"source":"naturalearthdata.com","kind":"region","sort_rank":256,"kind_detail":"4","min_zoom":3.0,"id":6777},"arcs":[[241],[242],[243],[244],[245],[246],[247]]},{"type":"MultiLineString","properties":{"source":"naturalearthdata.com","kind":"region","sort_rank":256,"kind_detail":"4","min_zoom":3.0,"id":6778},"arcs":[[248],[249],[250],[251],[252],[253],[254],[255],[256]]},{"type":"MultiLineString","properties":{"source":"naturalearthdata.com","kind":"region","sort_rank":256,"kind_detail":"4","min_zoom":3.0,"id":6779},"arcs":[[257],[258],[259],[260],[261],[262],[263],[264]]},{"type":"MultiLineString","properties":{"source":"naturalearthdata.com","kind":"region","sort_rank":256,"kind_detail":"4","min_zoom":3.0,"id":6780},"arcs":[[265],[266],[267],[268],[269],[270],[271],[272],[273],[274],[275],[276],[277]]},{"type":"MultiLineString","properties":{"source":"naturalearthdata.com","kind":"region","sort_rank":256,"kind_detail":"4","min_zoom":3.0,"id":6790},"arcs":[[278],[279],[280],[281],[282],[283],[284],[285],[286],[287]]},{"type":"MultiLineString","properties":{"source":"naturalearthdata.com","kind":"region","sort_rank":256,"kind_detail":"4","min_zoom":3.0,"id":6791},"arcs":[[288],[289],[290],[291],[292],[293],[294],[295],[296]]},{"type":"MultiLineString","properties":{"source":"naturalearthdata.com","kind":"macroregion","sort_rank":257,"kind_detail":"3","min_zoom":6.7,"id":7713},"arcs":[[297],[298],[299]]}]},"roads":{"type":"GeometryCollection","geometries":[{"type":"LineString","properties":{"source":"naturalearthdata.com","kind":"minor_road","sort_rank":355,"kind_detail":"tertiary","min_zoom":5.0,"id":37617},"arcs":[322]},{"type":"LineString","properties":{"source":"naturalearthdata.com","kind":"minor_road","sort_rank":355,"kind_detail":"tertiary","min_zoom":5.0,"id":37640},"arcs":[323]},{"type":"LineString","properties":{"source":"naturalearthdata.com","kind":"minor_road","kind_detail":"tertiary","sort_rank":355,"landuse_kind":"nature_reserve","min_zoom":5.0,"id":37692},"arcs":[324]},{"type":"LineString","properties":{"source":"naturalearthdata.com","kind":"minor_road","kind_detail":"tertiary","sort_rank":355,"landuse_kind":"protected_area","min_zoom":5.0,"id":37692},"arcs":[325]},{"type":"LineString","properties":{"source":"naturalearthdata.com","kind":"minor_road","sort_rank":355,"kind_detail":"tertiary","min_zoom":5.0,"id":37692},"arcs":[326]},{"type":"LineString","properties":{"source":"naturalearthdata.com","kind":"minor_road","kind_detail":"tertiary","sort_rank":355,"landuse_kind":"nature_reserve","min_zoom":5.0,"id":37940},"arcs":[327]},{"type":"LineString","properties":{"source":"naturalearthdata.com","kind":"minor_road","sort_rank":355,"kind_detail":"tertiary","min_zoom":5.0,"id":37940},"arcs":[328]},{"type":"LineString","properties":{"source":"naturalearthdata.com","kind":"major_road","sort_rank":379,"kind_detail":"secondary","min_zoom":3.0,"id":38082},"arcs":[329]},{"type":"LineString","properties":{"source":"naturalearthdata.com","kind":"minor_road","sort_rank":355,"kind_detail":"tertiary","min_zoom":5.0,"id":38129},"arcs":[330]},{"type":"LineString","properties":{"source":"naturalearthdata.com","kind":"minor_road","sort_rank":355,"kind_detail":"tertiary","min_zoom":5.0,"id":38192},"arcs":[331]},{"type":"LineString","properties":{"source":"naturalearthdata.com","kind":"major_road","sort_rank":379,"kind_detail":"secondary","min_zoom":3.0,"id":38224},"arcs":[332]},{"type":"LineString","properties":{"source":"naturalearthdata.com","kind":"major_road","sort_rank":379,"kind_detail":"secondary","min_zoom":3.0,"id":38324},"arcs":[333]},{"type":"LineString","properties":{"source":"naturalearthdata.com","kind":"minor_road","sort_rank":355,"kind_detail":"tertiary","min_zoom":5.0,"id":38337},"arcs":[334]},{"type":"LineString","properties":{"source":"naturalearthdata.com","kind":"minor_road","sort_rank":355,"kind_detail":"tertiary","min_zoom":5.0,"id":38416},"arcs":[335]},{"type":"LineString","properties":{"source":"naturalearthdata.com","kind":"major_road","sort_rank":379,"kind_detail":"secondary","min_zoom":3.0,"id":38461},"arcs":[336]},{"type":"LineString","properties":{"source":"naturalearthdata.com","kind":"minor_road","kind_detail":"tertiary","sort_rank":355,"landuse_kind":"urban_area","min_zoom":5.0,"id":38580},"arcs":[337]},{"type":"LineString","properties":{"source":"naturalearthdata.com","kind":"minor_road","sort_rank":355,"kind_detail":"tertiary","min_zoom":5.0,"id":38580},"arcs":[338]},{"type":"LineString","properties":{"source":"naturalearthdata.com","kind":"major_road","sort_rank":379,"kind_detail":"secondary","min_zoom":3.0,"id":38589},"arcs":[339]},{"type":"LineString","properties":{"source":"naturalearthdata.com","kind":"major_road","sort_rank":379,"kind_detail":"secondary","min_zoom":3.0,"id":38611},"arcs":[340]},{"type":"LineString","properties":{"source":"naturalearthdata.com","kind":"major_road","sort_rank":379,"kind_detail":"secondary","min_zoom":4.0,"id":38618},"arcs":[341]},{"type":"LineString","properties":{"source":"naturalearthdata.com","kind":"major_road","sort_rank":379,"kind_detail":"secondary","min_zoom":4.0,"id":38619},"arcs":[342]},{"type":"LineString","properties":{"source":"naturalearthdata.com","kind":"major_road","sort_rank":379,"kind_detail":"secondary","min_zoom":4.0,"id":38624},"arcs":[343]},{"type":"LineString","properties":{"source":"naturalearthdata.com","kind":"minor_road","sort_rank":355,"kind_detail":"tertiary","min_zoom":5.0,"id":38652},"arcs":[344]},{"type":"LineString","properties":{"source":"naturalearthdata.com","kind":"major_road","sort_rank":379,"kind_detail":"secondary","min_zoom":3.0,"id":38676},"arcs":[345]},{"type":"LineString","properties":{"source":"naturalearthdata.com","kind":"major_road","sort_rank":379,"kind_detail":"secondary","min_zoom":4.0,"id":38745},"arcs":[346]},{"type":"LineString","properties":{"source":"naturalearthdata.com","kind":"major_road","sort_rank":379,"kind_detail":"secondary","min_zoom":3.0,"id":38778},"arcs":[347]},{"type":"LineString","properties":{"source":"naturalearthdata.com","kind":"major_road","kind_detail":"secondary","sort_rank":379,"landuse_kind":"urban_area","min_zoom":4.0,"id":38790},"arcs":[348]},{"type":"LineString","properties":{"source":"naturalearthdata.com","kind":"major_road","sort_rank":379,"kind_detail":"secondary","min_zoom":4.0,"id":38790},"arcs":[349]},{"type":"LineString","properties":{"source":"naturalearthdata.com","kind":"minor_road","sort_rank":355,"kind_detail":"tertiary","min_zoom":5.0,"id":38791},"arcs":[350]},{"type":"LineString","properties":{"source":"naturalearthdata.com","kind":"major_road","kind_detail":"secondary","sort_rank":379,"landuse_kind":"urban_area","min_zoom":3.0,"id":38900},"arcs":[351]},{"type":"LineString","properties":{"source":"naturalearthdata.com","kind":"major_road","sort_rank":379,"kind_detail":"secondary","min_zoom":3.0,"id":38900},"arcs":[352]},{"type":"LineString","properties":{"source":"naturalearthdata.com","kind":"major_road","kind_detail":"secondary","sort_rank":379,"landuse_kind":"urban_area","min_zoom":3.0,"id":38933},"arcs":[353]},{"type":"LineString","properties":{"source":"naturalearthdata.com","kind":"major_road","kind_detail":"secondary","sort_rank":379,"landuse_kind":"urban_area","min_zoom":3.0,"id":39067},"arcs":[354]},{"type":"LineString","properties":{"source":"naturalearthdata.com","kind":"major_road","kind_detail":"secondary","sort_rank":379,"landuse_kind":"urban_area","min_zoom":3.0,"id":39067},"arcs":[355]},{"type":"LineString","properties":{"source":"naturalearthdata.com","kind":"major_road","sort_rank":379,"kind_detail":"secondary","min_zoom":3.0,"id":39067},"arcs":[356]},{"type":"LineString","properties":{"source":"naturalearthdata.com","kind":"major_road","sort_rank":379,"kind_detail":"secondary","min_zoom":4.0,"id":39124},"arcs":[357]},{"type":"LineString","properties":{"source":"naturalearthdata.com","kind":"minor_road","sort_rank":355,"kind_detail":"tertiary","min_zoom":6.0,"id":39149},"arcs":[358]},{"type":"LineString","properties":{"source":"naturalearthdata.com","kind":"minor_road","sort_rank":355,"kind_detail":"tertiary","min_zoom":6.0,"id":39165},"arcs":[359]},{"type":"MultiLineString","properties":{"source":"naturalearthdata.com","kind":"major_road","kind_detail":"secondary","sort_rank":379,"landuse_kind":"urban_area","min_zoom":3.0,"id":39193},"arcs":[[360],[361]]},{"type":"LineString","properties":{"source":"naturalearthdata.com","kind":"major_road","kind_detail":"secondary","sort_rank":379,"landuse_kind":"urban_area","min_zoom":3.0,"id":39193},"arcs":[362]},{"type":"LineString","properties":{"source":"naturalearthdata.com","kind":"major_road","kind_detail":"secondary","sort_rank":379,"landuse_kind":"urban_area","min_zoom":3.0,"id":39193},"arcs":[363]},{"type":"MultiLineString","properties":{"source":"naturalearthdata.com","kind":"major_road","sort_rank":379,"kind_detail":"secondary","min_zoom":3.0,"id":39193},"arcs":[[364],[365],[366]]},{"type":"MultiLineString","properties":{"source":"naturalearthdata.com","kind":"minor_road","kind_detail":"tertiary","sort_rank":355,"landuse_kind":"urban_area","min_zoom":6.0,"id":39194},"arcs":[[367],[368]]},{"type":"MultiLineString","properties":{"source":"naturalearthdata.com","kind":"minor_road","sort_rank":355,"kind_detail":"tertiary","min_zoom":6.0,"id":39194},"arcs":[[369],[370]]},{"type":"LineString","properties":{"source":"naturalearthdata.com","kind":"major_road","kind_detail":"secondary","sort_rank":379,"landuse_kind":"urban_area","min_zoom":3.0,"id":39197},"arcs":[371]},{"type":"LineString","properties":{"source":"naturalearthdata.com","kind":"major_road","sort_rank":379,"kind_detail":"secondary","min_zoom":4.0,"id":39221},"arcs":[372]},{"type":"LineString","properties":{"source":"naturalearthdata.com","kind":"minor_road","sort_rank":355,"kind_detail":"tertiary","min_zoom":6.0,"id":39222},"arcs":[373]},{"type":"LineString","properties":{"source":"naturalearthdata.com","kind":"minor_road","sort_rank":355,"kind_detail":"tertiary","min_zoom":6.0,"id":39240},"arcs":[374]},{"type":"LineString","properties":{"source":"naturalearthdata.com","kind":"major_road","sort_rank":379,"kind_detail":"secondary","min_zoom":4.0,"id":39241},"arcs":[375]},{"type":"LineString","properties":{"source":"naturalearthdata.com","kind":"minor_road","sort_rank":355,"kind_detail":"tertiary","min_zoom":6.0,"id":39251},"arcs":[376]},{"type":"LineString","properties":{"source":"naturalearthdata.com","kind":"major_road","sort_rank":379,"kind_detail":"secondary","min_zoom":4.0,"id":39336},"arcs":[377]},{"type":"LineString","properties":{"source":"naturalearthdata.com","kind":"major_road","kind_detail":"secondary","sort_rank":379,"landuse_kind":"urban_area","min_zoom":3.0,"id":39341},"arcs":[378]},{"type":"LineString","properties":{"source":"naturalearthdata.com","kind":"major_road","kind_detail":"secondary","sort_rank":379,"landuse_kind":"urban_area","min_zoom":3.0,"id":39341},"arcs":[379]},{"type":"LineString","properties":{"source":"naturalearthdata.com","kind":"major_road","sort_rank":379,"kind_detail":"secondary","min_zoom":3.0,"id":39341},"arcs":[380]},{"type":"LineString","properties":{"source":"naturalearthdata.com","kind":"major_road","kind_detail":"secondary","sort_rank":379,"landuse_kind":"urban_area","min_zoom":3.0,"id":39377},"arcs":[381]},{"type":"LineString","properties":{"source":"naturalearthdata.com","kind":"minor_road","kind_detail":"tertiary","sort_rank":355,"landuse_kind":"urban_area","min_zoom":6.0,"id":39385},"arcs":[382]},{"type":"LineString","properties":{"source":"naturalearthdata.com","kind":"minor_road","kind_detail":"tertiary","sort_rank":355,"landuse_kind":"urban_area","min_zoom":6.0,"id":39386},"arcs":[383]},{"type":"LineString","properties":{"source":"naturalearthdata.com","kind":"major_road","kind_detail":"secondary","sort_rank":379,"landuse_kind":"urban_area","min_zoom":3.0,"id":39389},"arcs":[384]},{"type":"LineString","properties":{"source":"naturalearthdata.com","kind":"minor_road","kind_detail":"tertiary","sort_rank":355,"landuse_kind":"urban_area","min_zoom":6.0,"id":39392},"arcs":[385]},{"type":"LineString","properties":{"source":"naturalearthdata.com","kind":"minor_road","kind_detail":"tertiary","sort_rank":355,"landuse_kind":"urban_area","min_zoom":6.0,"id":39393},"arcs":[386]},{"type":"LineString","properties":{"source":"naturalearthdata.com","kind":"highway","kind_detail":"motorway","sort_rank":383,"landuse_kind":"urban_area","min_zoom":3.0,"id":39411},"arcs":[387]},{"type":"LineString","properties":{"source":"naturalearthdata.com","kind":"highway","kind_detail":"motorway","sort_rank":383,"landuse_kind":"urban_area","min_zoom":6.0,"id":39412},"arcs":[388]},{"type":"LineString","properties":{"source":"naturalearthdata.com","kind":"highway","kind_detail":"motorway","sort_rank":383,"landuse_kind":"urban_area","min_zoom":3.0,"id":39432},"arcs":[389]},{"type":"LineString","properties":{"source":"naturalearthdata.com","kind":"minor_road","kind_detail":"tertiary","sort_rank":355,"landuse_kind":"urban_area","min_zoom":6.0,"id":39433},"arcs":[390]},{"type":"LineString","properties":{"source":"naturalearthdata.com","kind":"major_road","kind_detail":"secondary","sort_rank":379,"landuse_kind":"urban_area","min_zoom":4.0,"id":39488},"arcs":[391]},{"type":"LineString","properties":{"source":"naturalearthdata.com","kind":"major_road","sort_rank":379,"kind_detail":"secondary","min_zoom":4.0,"id":39488},"arcs":[392]},{"type":"LineString","properties":{"source":"naturalearthdata.com","kind":"highway","kind_detail":"motorway","sort_rank":383,"landuse_kind":"urban_area","min_zoom":3.0,"id":39587},"arcs":[393]},{"type":"LineString","properties":{"source":"naturalearthdata.com","kind":"highway","sort_rank":383,"kind_detail":"motorway","min_zoom":3.0,"id":39587},"arcs":[394]},{"type":"LineString","properties":{"source":"naturalearthdata.com","kind":"major_road","sort_rank":379,"kind_detail":"secondary","min_zoom":4.0,"id":39590},"arcs":[395]},{"type":"LineString","properties":{"source":"naturalearthdata.com","kind":"major_road","sort_rank":379,"kind_detail":"secondary","min_zoom":3.0,"id":39596},"arcs":[396]},{"type":"LineString","properties":{"source":"naturalearthdata.com","kind":"minor_road","kind_detail":"tertiary","sort_rank":355,"landuse_kind":"urban_area","min_zoom":6.0,"id":39609},"arcs":[397]},{"type":"LineString","properties":{"source":"naturalearthdata.com","kind":"minor_road","sort_rank":355,"kind_detail":"tertiary","min_zoom":6.0,"id":39609},"arcs":[398]},{"type":"LineString","properties":{"source":"naturalearthdata.com","kind":"major_road","kind_detail":"secondary","sort_rank":379,"landuse_kind":"urban_area","min_zoom":3.0,"id":39610},"arcs":[399]},{"type":"LineString","properties":{"source":"naturalearthdata.com","kind":"major_road","sort_rank":379,"kind_detail":"secondary","min_zoom":3.0,"id":39610},"arcs":[400]},{"type":"LineString","properties":{"source":"naturalearthdata.com","kind":"major_road","kind_detail":"secondary","sort_rank":379,"landuse_kind":"urban_area","min_zoom":3.0,"id":39619},"arcs":[401]},{"type":"LineString","properties":{"source":"naturalearthdata.com","kind":"major_road","kind_detail":"secondary","sort_rank":379,"landuse_kind":"urban_area","min_zoom":3.0,"id":39647},"arcs":[402]},{"type":"LineString","properties":{"source":"naturalearthdata.com","kind":"major_road","kind_detail":"secondary","sort_rank":379,"landuse_kind":"urban_area","min_zoom":3.0,"id":39647},"arcs":[403]},{"type":"LineString","properties":{"source":"naturalearthdata.com","kind":"major_road","sort_rank":379,"kind_detail":"secondary","min_zoom":3.0,"id":39647},"arcs":[404]},{"type":"LineString","properties":{"source":"naturalearthdata.com","kind":"major_road","kind_detail":"secondary","sort_rank":379,"landuse_kind":"urban_area","min_zoom":3.0,"id":39649},"arcs":[405]},{"type":"LineString","properties":{"source":"naturalearthdata.com","kind":"highway","kind_detail":"motorway","sort_rank":383,"landuse_kind":"urban_area","min_zoom":3.0,"id":39687},"arcs":[406]},{"type":"LineString","properties":{"source":"naturalearthdata.com","kind":"highway","sort_rank":383,"kind_detail":"motorway","min_zoom":3.0,"id":39687},"arcs":[407]},{"type":"LineString","properties":{"source":"naturalearthdata.com","kind":"highway","kind_detail":"motorway","sort_rank":383,"landuse_kind":"urban_area","min_zoom":3.0,"id":39696},"arcs":[408]},{"type":"LineString","properties":{"source":"naturalearthdata.com","kind":"highway","sort_rank":383,"kind_detail":"motorway","min_zoom":3.0,"id":39696},"arcs":[409]},{"type":"LineString","properties":{"source":"naturalearthdata.com","kind":"major_road","kind_detail":"secondary","sort_rank":379,"landuse_kind":"urban_area","min_zoom":4.0,"id":39723},"arcs":[410]},{"type":"LineString","properties":{"source":"naturalearthdata.com","kind":"major_road","sort_rank":379,"kind_detail":"secondary","min_zoom":4.0,"id":39723},"arcs":[411]},{"type":"LineString","properties":{"source":"naturalearthdata.com","kind":"minor_road","kind_detail":"tertiary","sort_rank":355,"landuse_kind":"urban_area","min_zoom":6.0,"id":39733},"arcs":[412]},{"type":"LineString","properties":{"source":"naturalearthdata.com","kind":"minor_road","sort_rank":355,"kind_detail":"tertiary","min_zoom":6.0,"id":39733},"arcs":[413]},{"type":"LineString","properties":{"source":"naturalearthdata.com","kind":"minor_road","kind_detail":"tertiary","sort_rank":355,"landuse_kind":"urban_area","min_zoom":6.0,"id":39734},"arcs":[414]},{"type":"LineString","properties":{"source":"naturalearthdata.com","kind":"minor_road","kind_detail":"tertiary","sort_rank":355,"landuse_kind":"urban_area","min_zoom":6.0,"id":39734},"arcs":[415]},{"type":"LineString","properties":{"source":"naturalearthdata.com","kind":"minor_road","sort_rank":355,"kind_detail":"tertiary","min_zoom":6.0,"id":39734},"arcs":[416]},{"type":"LineString","properties":{"source":"naturalearthdata.com","kind":"minor_road","sort_rank":355,"kind_detail":"tertiary","min_zoom":6.0,"id":39739},"arcs":[417]},{"type":"LineString","properties":{"source":"naturalearthdata.com","kind":"minor_road","kind_detail":"tertiary","sort_rank":355,"landuse_kind":"urban_area","min_zoom":6.0,"id":39741},"arcs":[418]},{"type":"LineString","properties":{"source":"naturalearthdata.com","kind":"minor_road","sort_rank":355,"kind_detail":"tertiary","min_zoom":6.0,"id":39741},"arcs":[419]},{"type":"LineString","properties":{"source":"naturalearthdata.com","kind":"minor_road","kind_detail":"tertiary","sort_rank":355,"landuse_kind":"urban_area","min_zoom":6.0,"id":39742},"arcs":[420]},{"type":"LineString","properties":{"source":"naturalearthdata.com","kind":"minor_road","sort_rank":355,"kind_detail":"tertiary","min_zoom":6.0,"id":39742},"arcs":[421]},{"type":"LineString","properties":{"source":"naturalearthdata.com","kind":"minor_road","kind_detail":"tertiary","sort_rank":355,"landuse_kind":"urban_area","min_zoom":6.0,"id":39747},"arcs":[422]},{"type":"LineString","properties":{"source":"naturalearthdata.com","kind":"minor_road","kind_detail":"tertiary","sort_rank":355,"landuse_kind":"urban_area","min_zoom":6.0,"id":39751},"arcs":[423]},{"type":"LineString","properties":{"source":"naturalearthdata.com","kind":"minor_road","kind_detail":"tertiary","sort_rank":355,"landuse_kind":"urban_area","min_zoom":6.0,"id":39751},"arcs":[424]},{"type":"LineString","properties":{"source":"naturalearthdata.com","kind":"minor_road","sort_rank":355,"kind_detail":"tertiary","min_zoom":6.0,"id":39751},"arcs":[425]},{"type":"LineString","properties":{"source":"naturalearthdata.com","kind":"highway","kind_detail":"motorway","sort_rank":383,"landuse_kind":"urban_area","min_zoom":3.0,"id":39752},"arcs":[426]},{"type":"LineString","properties":{"source":"naturalearthdata.com","kind":"highway","sort_rank":383,"kind_detail":"motorway","min_zoom":3.0,"id":39752},"arcs":[427]},{"type":"LineString","properties":{"source":"naturalearthdata.com","kind":"highway","kind_detail":"motorway","sort_rank":383,"landuse_kind":"urban_area","min_zoom":3.0,"id":39800},"arcs":[428]},{"type":"LineString","properties":{"source":"naturalearthdata.com","kind":"highway","kind_detail":"motorway","sort_rank":383,"landuse_kind":"urban_area","min_zoom":3.0,"id":39818},"arcs":[429]},{"type":"LineString","properties":{"source":"naturalearthdata.com","kind":"highway","sort_rank":383,"kind_detail":"motorway","min_zoom":3.0,"id":39818},"arcs":[430]},{"type":"LineString","properties":{"source":"naturalearthdata.com","kind":"highway","kind_detail":"motorway","sort_rank":383,"landuse_kind":"urban_area","min_zoom":3.0,"id":39827},"arcs":[431]},{"type":"LineString","properties":{"source":"naturalearthdata.com","kind":"highway","kind_detail":"motorway","sort_rank":383,"landuse_kind":"urban_area","min_zoom":3.0,"id":39827},"arcs":[432]},{"type":"LineString","properties":{"source":"naturalearthdata.com","kind":"highway","sort_rank":383,"kind_detail":"motorway","min_zoom":3.0,"id":39827},"arcs":[433]},{"type":"LineString","properties":{"source":"naturalearthdata.com","kind":"major_road","kind_detail":"secondary","sort_rank":379,"landuse_kind":"urban_area","min_zoom":3.0,"id":39832},"arcs":[434]},{"type":"LineString","properties":{"source":"naturalearthdata.com","kind":"major_road","sort_rank":379,"kind_detail":"secondary","min_zoom":3.0,"id":39832},"arcs":[435]},{"type":"LineString","properties":{"source":"naturalearthdata.com","kind":"major_road","kind_detail":"secondary","sort_rank":379,"landuse_kind":"urban_area","min_zoom":4.0,"id":39843},"arcs":[436]},{"type":"MultiLineString","properties":{"source":"naturalearthdata.com","kind":"major_road","sort_rank":379,"kind_detail":"secondary","min_zoom":4.0,"id":39843},"arcs":[[437],[438]]},{"type":"LineString","properties":{"source":"naturalearthdata.com","kind":"major_road","kind_detail":"secondary","sort_rank":379,"landuse_kind":"urban_area","min_zoom":3.0,"id":39848},"arcs":[439]},{"type":"LineString","properties":{"source":"naturalearthdata.com","kind":"major_road","sort_rank":379,"kind_detail":"secondary","min_zoom":3.0,"id":39848},"arcs":[440]},{"type":"LineString","properties":{"source":"naturalearthdata.com","kind":"major_road","kind_detail":"secondary","sort_rank":379,"landuse_kind":"urban_area","min_zoom":3.0,"id":39858},"arcs":[441]},{"type":"LineString","properties":{"source":"naturalearthdata.com","kind":"major_road","kind_detail":"secondary","sort_rank":379,"landuse_kind":"urban_area","min_zoom":3.0,"id":39858},"arcs":[442]},{"type":"LineString","properties":{"source":"naturalearthdata.com","kind":"major_road","kind_detail":"secondary","sort_rank":379,"landuse_kind":"urban_area","min_zoom":3.0,"id":39858},"arcs":[443]},{"type":"MultiLineString","properties":{"source":"naturalearthdata.com","kind":"major_road","sort_rank":379,"kind_detail":"secondary","min_zoom":3.0,"id":39858},"arcs":[[444],[445]]},{"type":"LineString","properties":{"source":"naturalearthdata.com","kind":"major_road","kind_detail":"secondary","sort_rank":379,"landuse_kind":"urban_area","min_zoom":4.0,"id":39859},"arcs":[446]},{"type":"LineString","properties":{"source":"naturalearthdata.com","kind":"major_road","sort_rank":379,"kind_detail":"secondary","min_zoom":4.0,"id":39859},"arcs":[447]},{"type":"MultiLineString","properties":{"source":"naturalearthdata.com","kind":"major_road","kind_detail":"secondary","sort_rank":379,"landuse_kind":"urban_area","min_zoom":3.0,"id":39860},"arcs":[[448],[449]]},{"type":"LineString","properties":{"source":"naturalearthdata.com","kind":"major_road","sort_rank":379,"kind_detail":"secondary","min_zoom":3.0,"id":39860},"arcs":[450]},{"type":"LineString","properties":{"source":"naturalearthdata.com","kind":"major_road","kind_detail":"secondary","sort_rank":379,"landuse_kind":"urban_area","min_zoom":3.0,"id":39868},"arcs":[451]},{"type":"LineString","properties":{"source":"naturalearthdata.com","kind":"major_road","sort_rank":379,"kind_detail":"secondary","min_zoom":3.0,"id":39868},"arcs":[452]},{"type":"LineString","properties":{"source":"naturalearthdata.com","kind":"highway","kind_detail":"motorway","sort_rank":383,"landuse_kind":"urban_area","min_zoom":3.0,"id":39869},"arcs":[453]},{"type":"LineString","properties":{"source":"naturalearthdata.com","kind":"highway","kind_detail":"motorway","sort_rank":383,"landuse_kind":"urban_area","min_zoom":3.0,"id":39870},"arcs":[454]},{"type":"LineString","properties":{"source":"naturalearthdata.com","kind":"highway","sort_rank":383,"kind_detail":"motorway","min_zoom":3.0,"id":39870},"arcs":[455]},{"type":"LineString","properties":{"source":"naturalearthdata.com","kind":"major_road","kind_detail":"secondary","sort_rank":379,"landuse_kind":"urban_area","min_zoom":3.0,"id":39910},"arcs":[456]},{"type":"LineString","properties":{"source":"naturalearthdata.com","kind":"major_road","sort_rank":379,"kind_detail":"secondary","min_zoom":3.0,"id":39910},"arcs":[457]},{"type":"LineString","properties":{"source":"naturalearthdata.com","kind":"major_road","kind_detail":"secondary","sort_rank":379,"landuse_kind":"urban_area","min_zoom":4.0,"id":39921},"arcs":[458]},{"type":"LineString","properties":{"source":"naturalearthdata.com","kind":"major_road","sort_rank":379,"kind_detail":"secondary","min_zoom":4.0,"id":39921},"arcs":[459]},{"type":"LineString","properties":{"source":"naturalearthdata.com","kind":"major_road","kind_detail":"secondary","sort_rank":379,"landuse_kind":"urban_area","min_zoom":3.0,"id":39932},"arcs":[460]},{"type":"MultiLineString","properties":{"source":"naturalearthdata.com","kind":"major_road","sort_rank":379,"kind_detail":"secondary","min_zoom":3.0,"id":39932},"arcs":[[461],[462]]},{"type":"LineString","properties":{"source":"naturalearthdata.com","kind":"major_road","sort_rank":379,"kind_detail":"secondary","min_zoom":3.0,"id":39936},"arcs":[463]},{"type":"LineString","properties":{"source":"naturalearthdata.com","kind":"major_road","kind_detail":"secondary","sort_rank":379,"landuse_kind":"urban_area","min_zoom":3.0,"id":39946},"arcs":[464]},{"type":"MultiLineString","properties":{"source":"naturalearthdata.com","kind":"major_road","sort_rank":379,"kind_detail":"secondary","min_zoom":3.0,"id":39946},"arcs":[[465],[466]]},{"type":"LineString","properties":{"source":"naturalearthdata.com","kind":"major_road","kind_detail":"secondary","sort_rank":379,"landuse_kind":"nature_reserve","min_zoom":3.0,"id":39947},"arcs":[467]},{"type":"MultiLineString","properties":{"source":"naturalearthdata.com","kind":"major_road","sort_rank":379,"kind_detail":"secondary","min_zoom":3.0,"id":39947},"arcs":[[468],[469]]},{"type":"MultiLineString","properties":{"source":"naturalearthdata.com","kind":"major_road","kind_detail":"secondary","sort_rank":379,"landuse_kind":"nature_reserve","min_zoom":3.0,"id":39970},"arcs":[[470],[471],[472]]},{"type":"LineString","properties":{"source":"naturalearthdata.com","kind":"major_road","kind_detail":"secondary","sort_rank":379,"landuse_kind":"urban_area","min_zoom":3.0,"id":39970},"arcs":[473]},{"type":"MultiLineString","properties":{"source":"naturalearthdata.com","kind":"major_road","sort_rank":379,"kind_detail":"secondary","min_zoom":3.0,"id":39970},"arcs":[[474],[475],[476],[477],[478]]},{"type":"LineString","properties":{"source":"naturalearthdata.com","kind":"major_road","sort_rank":379,"kind_detail":"secondary","min_zoom":3.0,"id":39975},"arcs":[479]},{"type":"LineString","properties":{"source":"naturalearthdata.com","kind":"highway","sort_rank":383,"kind_detail":"motorway","min_zoom":5.0,"id":39978},"arcs":[480]},{"type":"LineString","properties":{"source":"naturalearthdata.com","kind":"major_road","sort_rank":379,"kind_detail":"secondary","min_zoom":3.0,"id":40008},"arcs":[481]},{"type":"LineString","properties":{"source":"naturalearthdata.com","kind":"highway","kind_detail":"motorway","sort_rank":383,"landuse_kind":"urban_area","min_zoom":5.0,"id":40029},"arcs":[482]},{"type":"LineString","properties":{"source":"naturalearthdata.com","kind":"highway","sort_rank":383,"kind_detail":"motorway","min_zoom":5.0,"id":40079},"arcs":[483]},{"type":"LineString","properties":{"source":"naturalearthdata.com","kind":"major_road","kind_detail":"secondary","sort_rank":379,"landuse_kind":"urban_area","min_zoom":3.0,"id":40091},"arcs":[484]},{"type":"LineString","properties":{"source":"naturalearthdata.com","kind":"major_road","sort_rank":379,"kind_detail":"secondary","min_zoom":3.0,"id":40091},"arcs":[485]},{"type":"LineString","properties":{"source":"naturalearthdata.com","kind":"major_road","kind_detail":"secondary","sort_rank":379,"landuse_kind":"urban_area","min_zoom":3.0,"id":40123},"arcs":[486]},{"type":"LineString","properties":{"source":"naturalearthdata.com","kind":"major_road","sort_rank":379,"kind_detail":"secondary","min_zoom":3.0,"id":40123},"arcs":[487]}]},"earth":{"type":"GeometryCollection","geometries":[{"type":"MultiPolygon","properties":{"sort_rank":10,"source":"naturalearthdata.com","min_zoom":0.0,"kind":"earth","area":924430277350},"arcs":[[[488]],[[489]]]}]},"landuse":{"type":"GeometryCollection","geometries":[{"type":"MultiPolygon","properties":{"source":"openstreetmap.org","kind":"nature_reserve","tier":2,"area":1698944922,"sort_rank":23,"min_zoom":6.0},"arcs":[[[490]]]},{"type":"MultiPolygon","properties":{"source":"openstreetmap.org","kind":"park","tier":2,"area":3038380466,"sort_rank":24,"min_zoom":4.0},"arcs":[[[491]]]},{"type":"MultiPolygon","properties":{"source":"naturalearthdata.com","kind":"urban_area","name":"","area":11850972521,"sort_rank":11,"min_zoom":4.0},"arcs":[[[492]],[[493]],[[494]],[[495]],[[496]],[[497]],[[498]],[[499]],[[500]],[[501]],[[502]],[[503]],[[504]],[[505]],[[506]],[[507]],[[508]],[[509]],[[510]],[[511]],[[512]],[[513]],[[514]],[[515]],[[516]],[[517]],[[518]],[[519]],[[520]],[[521]],[[522]],[[523]],[[524]],[[525]],[[526]],[[527]],[[528]],[[529]],[[530]],[[531]],[[532]],[[533]],[[534]],[[535]],[[536]],[[537]],[[538]],[[539]],[[540]],[[541]],[[542]],[[543]],[[544]],[[545]],[[546]],[[547]],[[548]],[[549]],[[550]],[[551]],[[552]],[[553]],[[554]],[[555]],[[556]],[[557]],[[558]],[[559]],[[560]],[[561]],[[562]],[[563]],[[564]],[[565]],[[566]],[[567]],[[568]],[[569]],[[570]],[[571]],[[572]],[[573]],[[574]],[[575]],[[576]],[[577]],[[578]],[[579]],[[580]],[[581]],[[582]]]},{"type":"Polygon","properties":{"source":"openstreetmap.org","kind":"protected_area","tier":2,"area":292339961,"sort_rank":17,"min_zoom":4.0,"osm_relation":true},"arcs":[[583]]},{"type":"MultiPolygon","properties":{"source":"openstreetmap.org","kind":"nature_reserve","tier":2,"area":8380945469,"sort_rank":23,"min_zoom":4.0,"osm_relation":true},"arcs":[[[584]],[[585]],[[586]]]}]}},"type":"Topology","transform":{"translate":[0.0,5.6159858192],"scale":[0.001373291,0.0013580117]},"arcs":[[[355,3915],[9,32],[-12,3],[3,3],[1,3],[0,3],[1,3],[0,2],[-1,2],[-2,1],[-81,17],[-64,13],[-166,33],[-43,9]],[[656,3959],[-94,-1],[-70,-2],[-46,-9],[-91,-32]],[[2691,4052],[-6,1],[-18,17],[-18,26]],[[2736,3527],[11,1],[11,14],[5,14],[1,38],[6,19],[19,37],[5,20],[0,23],[0,17],[-4,22],[-6,14],[-9,5],[-11,2],[-9,3],[-7,8],[-7,25],[-3,7],[-6,7],[-6,5],[-6,6],[-4,9],[1,13],[16,39],[1,21],[-15,66],[-8,13],[-5,13],[-3,15],[0,16],[7,28],[-6,6],[-6,1],[-1,0]],[[2697,4054],[-6,-2]],[[2674,3554],[15,-3],[47,-24]],[[2558,3115],[13,12],[19,35],[24,29],[7,14],[5,63],[4,12],[12,11],[10,5],[9,7],[7,16],[1,4],[2,13],[-3,12],[-6,9],[-50,51],[-10,17],[-1,14],[15,33],[19,28],[3,9],[0,14],[2,5],[5,7],[14,14],[15,5]],[[2514,3120],[44,-5]],[[2402,2959],[24,13],[5,19],[-6,23],[-9,22],[-2,15],[1,17],[7,14],[12,9],[52,22],[28,7]],[[2375,2962],[14,-3],[13,0]],[[2164,2536],[8,1],[50,12],[18,13],[11,23],[24,76],[15,28],[5,15],[0,48],[-3,13],[-9,23],[-5,20],[3,21],[14,22],[5,4],[12,4],[5,5],[45,58],[1,4],[-4,9],[-1,5],[5,19],[12,3]],[[2133,2550],[8,-1],[8,-4],[7,-5],[8,-4]],[[2073,2529],[9,2],[7,5],[7,6],[7,5],[8,2],[22,1]],[[2016,2534],[57,-5]],[[2027,1328],[2,1],[1,4],[1,7],[2,31],[-16,27],[-21,26],[-15,27],[-4,29],[2,24],[7,99],[-2,11],[-7,10],[-17,20],[-8,21],[-6,9],[-1,3],[0,3],[2,6],[7,14],[3,7],[2,46],[10,47],[1,44],[2,13],[6,13],[7,12],[6,13],[1,17],[-5,15],[-15,31],[-5,16],[-3,18],[1,14],[5,30],[0,7],[-1,14],[0,6],[4,9],[14,17],[6,9],[6,24],[-2,22],[-14,179],[0,1],[0,8],[4,6],[12,5],[4,4],[1,7],[-4,11],[0,7],[2,11],[9,21],[1,11],[-3,5],[-4,2],[-3,1],[-1,6],[2,2],[8,12],[2,5],[4,20],[2,46],[-3,20]],[[2003,1331],[8,0],[16,-3]],[[1969,554],[0,45],[6,33],[2,15],[3,7],[13,40],[2,15],[-6,31],[0,15],[8,16],[13,12],[9,6],[4,8],[-2,34],[-2,8],[-4,3],[-9,1],[-7,2],[-6,5],[-6,7],[-4,15],[2,16],[8,30],[-4,31],[-10,29],[-2,26],[19,27],[8,4],[10,3],[7,4],[3,8],[-4,7],[-19,15],[-6,8],[-3,10],[1,5],[3,5],[6,14],[6,7],[3,7],[0,11],[-15,181],[2,8],[5,3]],[[841,4096],[3,-9]],[[844,4087],[-8,2],[-14,7]],[[813,4096],[-3,-3],[-4,-14],[-5,-3],[-24,-5],[-3,-2],[0,-11]],[[782,4063],[6,-1],[1,-3],[-1,-9],[0,-4],[3,-1],[6,-3]],[[774,4058],[3,1],[5,4]],[[799,4042],[1,-9],[0,-9],[2,-8],[4,-7],[9,-9],[-1,-12],[-3,-3]],[[797,4042],[2,0]],[[754,4001],[-2,2],[-3,7],[-3,1],[-3,2],[-4,3],[-5,4],[-16,2],[-3,2]],[[715,4024],[-4,-2],[-4,-6],[-5,-9],[-6,-9],[-2,-2],[-1,-8],[0,-8],[3,-7],[5,-2],[5,-4],[0,-9],[-1,-8],[-4,-4]],[[811,3985],[-5,5],[-5,7],[-2,4],[-8,2],[-22,3]],[[769,4006],[-3,-1],[-8,-4],[-4,0]],[[701,3946],[-13,0],[-9,1],[-23,12]],[[131,3519],[-2,2],[-37,69],[-12,13],[-38,24],[-6,7],[-9,16],[-6,7],[-6,4],[-15,5]],[[0,3944],[5,4],[5,5],[2,9],[2,26],[-2,23],[-11,17],[-1,0]],[[170,3522],[-7,1],[-19,7]],[[144,3530],[-2,-2],[-2,-5],[-3,-4],[-6,0]],[[225,3447],[6,15],[-7,12],[-13,11],[-8,13],[1,7],[2,7],[0,8],[-7,8],[-7,1]],[[192,3529],[-7,-2],[-7,-3],[-8,-2]],[[279,3250],[8,2],[0,2],[3,13],[-2,15],[-6,4],[-8,2],[-9,6],[-8,19],[4,52],[-1,25],[5,10],[2,12],[4,11],[18,14],[-15,12],[-7,3]],[[267,3452],[-32,-5],[-10,0]],[[267,3252],[12,-2]],[[232,2970],[13,1],[8,9],[2,13],[-2,13],[-3,11],[-5,8],[-5,5],[-4,8],[-1,14],[15,57],[1,9],[-4,29],[2,10],[6,12],[9,10],[5,4],[1,6],[-5,15],[-9,17],[-1,5],[1,7],[3,5],[0,4],[-4,7],[12,3]],[[200,2997],[20,-21],[12,-6]],[[225,2936],[-23,3],[-11,15],[-1,22],[10,21]],[[258,2912],[12,4],[5,10],[-6,15],[-15,3]],[[254,2944],[-29,-8]],[[235,2921],[10,-6],[13,-3]],[[204,2912],[18,1],[13,8]],[[168,2916],[36,-4]],[[185,2871],[-8,3],[-7,5],[-5,5],[-2,2],[-1,4],[4,21],[2,5]],[[182,2799],[-14,1],[-3,10],[6,9],[-5,11],[0,11],[30,6],[12,5],[9,6],[3,8],[-7,8],[-10,0]],[[203,2874],[-18,-3]],[[324,2489],[-10,23],[8,23],[12,23],[4,23],[0,12],[4,7],[17,15],[9,15],[-1,11],[-9,27],[1,14],[6,7],[8,5],[7,8],[3,9],[2,22],[6,37],[-4,17],[-13,12],[-22,7],[0,1],[-1,1],[1,0],[4,9],[2,7],[-1,7],[-5,7],[-39,14],[-13,2]],[[300,2854],[-30,-1],[-16,-3],[-11,-5],[-4,-6],[-2,-15],[-3,-6],[-5,-5],[-33,-11],[-14,-3]],[[337,2336],[8,4],[2,10],[1,11],[4,9],[16,23],[-9,36],[-35,60]],[[324,2489]],[[313,2341],[7,-1],[7,-2],[10,-2]],[[297,2314],[8,9],[4,12],[-3,3],[7,3]],[[281,2334],[8,-3],[8,-17]],[[446,1534],[-2,15],[1,38],[-6,42],[0,44],[0,4],[-7,49],[0,27],[0,14],[-7,28],[-2,34],[-4,18],[3,5],[6,5],[4,9],[-1,11],[-5,6],[-6,5],[-3,8],[1,10],[4,3],[5,0],[6,3],[25,22],[12,8],[32,14],[12,8],[5,11],[-3,18],[-3,3],[-8,1],[-3,2],[-1,4],[1,7],[-2,11],[0,9],[-1,7],[-28,23],[-9,28],[-13,27],[-48,23],[-19,14],[-17,16],[-13,14],[-29,20],[-29,41],[-21,46],[-5,27],[-2,10],[5,7],[10,1]],[[425,1538],[21,-4]],[[412,1300],[-13,1],[-23,21],[-11,32],[-4,36],[3,43],[2,9],[5,8],[7,7],[10,5],[11,3],[10,5],[4,10],[0,20],[2,23],[10,15]],[[493,713],[-6,1],[-7,12],[-10,7],[-10,9],[-4,16],[7,37],[-1,12],[-6,12],[-11,10],[-13,7],[-12,3],[-5,6],[-21,40],[-9,6],[-7,5],[-2,7],[5,15],[15,26],[2,12],[-9,16],[-21,16],[-8,11],[11,4],[10,0],[31,9],[10,5],[13,25],[1,32],[-3,33],[2,29],[18,44],[7,34],[9,27],[1,16],[-11,49],[-5,6]],[[454,1312],[-27,-10],[-15,-2]],[[863,357],[2,26],[-9,11],[-60,7],[-10,5],[-8,10],[-9,15],[-6,6],[-5,3],[-6,2],[-5,4],[-12,17],[-19,59],[-55,0],[-15,4],[-10,7],[-23,29],[-19,12],[-36,18],[-15,15],[-11,18],[-9,18],[-5,18],[1,15],[1,4],[4,10],[5,7],[1,7],[-10,9],[-6,1]],[[514,714],[-21,-1]],[[656,3959],[-18,-45],[-2,-15],[1,-8],[6,-15],[2,-8],[-12,-21],[-1,-8],[-1,-17],[-3,-8],[-9,-13],[-40,-38],[-10,-24],[6,-67],[-1,-29],[-11,-41],[-10,-75],[1,-17],[6,-11],[55,-37],[69,-46],[42,-28],[62,-42],[104,-69],[77,-51],[10,-25],[0,-6],[0,-54],[2,-81],[1,-57],[5,-34],[-1,-9],[-1,-8],[0,-14],[-1,-8],[-5,-9],[-12,-20],[-4,-10],[3,-15],[7,-18],[11,-11]],[[996,2853],[9,-21],[5,-74],[10,-30],[14,-21],[4,-6],[58,-61],[45,-47],[15,-27],[6,-18],[4,-20],[1,-92],[1,-80],[1,-68],[1,-99],[1,-22],[1,-9],[3,-8],[19,-24],[3,-7],[-2,-13],[-24,-40],[-2,-6],[0,-13],[-3,-18],[2,-3],[4,-1],[4,-7],[8,-63],[-2,-85],[-1,-117],[0,-117],[1,-146],[0,-12],[0,-64],[0,-72],[1,-110],[0,-107],[1,-108],[-13,-4]],[[984,2847],[12,6]],[[1171,1013],[-55,0]],[[1116,1013],[14,-52],[8,-12],[1,-1],[11,-8],[6,-8],[2,-11],[-6,-30],[1,-13],[3,-13],[6,-15],[4,-18],[-3,-11],[-6,-8],[-11,-14],[-6,-17],[5,-8],[9,-8],[8,-15],[1,-5],[-2,-6],[0,-7],[2,-8],[5,-6],[5,-6],[6,-5],[6,-3],[7,-1]],[[1199,705],[5,-2],[1,-8],[2,-6],[12,-10],[5,-6],[1,-7],[-2,-16],[2,-7],[4,-3],[16,-9],[6,-4],[19,-31],[14,-55],[14,-54],[-15,-1],[-94,-22],[-15,-8],[5,-16]],[[1192,704],[7,1]],[[1139,948],[-3,-2],[-7,-5],[-15,-24],[-4,-6],[-5,-4],[-13,-7],[-12,-5],[-5,0]],[[1075,895],[-8,0],[-9,2],[-17,5],[-7,0]],[[1034,902],[-8,0],[-17,-4],[-14,-5],[-50,-38],[-41,-41]],[[904,814],[-7,3],[-23,8],[-3,2],[-2,3],[-9,15],[-1,1],[-2,1],[-4,3],[-4,1],[-3,1],[-3,2],[-3,3],[-2,3],[-2,3],[-3,1],[-13,2],[-3,2],[-1,2],[1,5],[-1,2],[-3,1],[-119,7]],[[694,885],[-14,-3],[-7,-3],[-7,-4],[-4,-3],[-2,-5],[-3,-9],[-1,-9],[1,-35],[-3,-28],[-5,-16],[-3,-8],[-3,-5],[-5,-6],[-22,-20],[-7,-8],[-7,-13],[-5,-5],[-3,-3],[-25,-16],[-12,-4],[-29,-5],[-9,-1]],[[1797,574],[-3,-15],[6,-5],[4,0],[3,-2],[2,-13]],[[74,1136],[-6,1],[-8,4],[-16,8],[-7,3],[-9,2],[-28,1]],[[163,1142],[-34,13],[-5,0]],[[124,1155],[-5,-1],[-12,-4],[-13,-8],[-10,-5],[-4,-1],[-6,0]],[[292,283],[60,-3],[56,-13],[11,-5],[6,-4],[7,-8],[26,-71],[8,-10],[8,-6],[10,-7],[16,-6],[10,-5],[6,-4],[3,-2],[2,-3],[3,-4],[1,-5],[-2,-4],[-3,-3],[-14,-4],[-15,-11],[-1,0]],[[233,242],[6,11],[2,3],[5,6],[14,10],[12,7],[8,2],[7,2],[5,0]],[[1474,803],[-45,22],[-22,7],[-25,1]],[[1382,833],[-39,-9],[-46,-17],[-69,-16]],[[1228,791],[-16,0],[-12,2],[-40,19],[-3,1]],[[1598,2327],[385,-4]],[[1835,1014],[-45,0]],[[1790,1014],[-21,-2],[-11,-6],[-12,-16],[-8,-14],[-1,-15]],[[3725,376],[-81,-199],[-1,-1]],[[1447,494]],[[1718,530]],[[3643,176]],[[3162,556]],[[992,2677],[13,7],[29,23]],[[979,2677],[13,0]],[[864,2648],[14,1],[101,28]],[[819,2657],[37,-8],[8,-1]],[[636,2495],[5,0],[27,6],[13,1],[6,2],[6,4],[11,8],[9,11],[13,11],[2,4],[1,4],[-8,17],[-2,8],[0,27],[-1,14],[0,8],[2,9],[3,8],[2,3],[2,2],[2,1],[24,6],[55,8],[11,0]],[[536,2529],[5,-2],[6,-1],[6,0]],[[352,2370],[20,6],[15,6],[15,13],[4,2],[11,0],[5,1],[4,3],[3,6],[0,4],[-2,3],[-2,2],[-2,3],[-1,4],[1,3],[4,4],[30,20],[2,2],[1,4],[1,4],[1,5],[2,7],[3,3],[4,3],[13,2],[6,2],[7,8],[1,2],[2,3],[2,2],[16,11],[3,4],[3,4],[1,3],[2,4],[2,3],[3,2],[4,1]],[[562,2527],[5,-2],[2,-3],[1,-4],[1,-4],[2,-3],[23,-8],[5,-1],[10,-1],[4,0],[12,-5],[5,-1],[4,0]],[[553,2526],[9,1]],[[699,3362],[5,0],[5,3],[4,3],[13,20]],[[674,3365],[6,0],[19,-3]],[[650,3352],[4,1],[8,9],[5,2],[7,1]],[[621,3361],[16,-2],[4,-1],[6,-5],[3,-1]],[[587,3343],[4,0],[11,8],[14,8],[5,2]],[[548,3360],[22,-2],[5,-1],[3,-2],[2,-4],[2,-3],[2,-3],[3,-2]],[[494,3139],[1,0],[1,5],[-1,9],[-8,25],[-1,4],[0,4],[2,5],[2,5],[2,9],[2,5],[4,6],[2,5],[1,4],[0,3],[0,7],[0,23],[2,9],[3,8],[7,15],[21,30],[4,7],[2,9],[-2,10],[-2,4],[1,3],[3,3],[8,4]],[[287,3254],[5,-3],[5,-7],[8,-12],[1,-4],[1,-4],[0,-4],[-1,-9],[0,-4],[1,-4],[2,-3],[3,-2],[13,-2],[3,-2],[6,-4],[4,-2],[6,-1]],[[352,3188],[12,-3]],[[344,3187],[8,1]],[[371,3186],[4,-1],[3,-1],[2,-2],[0,-3],[-3,-6],[-1,-4],[1,-3],[1,-4],[2,-3],[2,-2],[7,-4],[3,-2],[3,-2],[6,-9],[3,-3],[4,-1]],[[364,3185],[7,1]],[[466,3144],[4,-1],[6,-4],[4,-1]],[[443,3142],[23,2]],[[433,3142],[10,0]],[[408,3136],[6,1],[8,2],[11,3]],[[488,3140],[6,-1]],[[480,3138],[8,2]],[[1168,2026],[-268,3]],[[900,2029],[1,-4],[-1,-3],[-3,-7],[-1,-3],[0,-32],[0,-5],[1,-3],[5,-11],[1,-4],[1,-9],[0,-4],[3,-8],[0,-4],[-1,-12],[0,-4],[2,-4],[1,-3],[3,-2],[5,-5],[2,-3],[1,-4],[1,-5],[0,-14],[-1,-4],[-3,-12],[-2,-9],[0,-14],[-4,-17],[1,-17],[-1,-5],[-1,-4],[-10,-20],[-1,-4],[0,-3],[2,-3],[4,-4],[-1,-3],[0,-1],[-1,-1],[-22,-15],[-22,-7],[-61,-12],[-14,-1]],[[784,1720],[-11,1],[-11,3],[-8,3],[-5,2],[-31,6],[-8,3],[-11,0]],[[699,1738],[-70,-9]],[[629,1729],[-10,0],[-4,2],[-3,1]],[[612,1732],[-4,-1],[-7,-11],[-3,-2],[-3,-2],[-8,-2],[-58,-8],[-6,-3],[-12,-7],[-5,-4],[-5,-4],[-11,-5],[-36,-4],[-15,-2]],[[163,1142],[3,-39],[-2,-13],[-2,-3],[-5,-13],[-5,-15],[-1,-8],[0,-6],[1,-4],[3,-17],[2,-21],[-1,-11],[-1,-8],[-2,-4],[-6,-9],[-10,-10],[-3,-2],[-13,-12],[-4,-6],[-4,-9],[-6,-19],[-2,-9],[-1,-8],[2,-7],[4,-7],[2,-3],[3,-2],[3,-2],[11,-4],[7,-3],[6,-5],[4,-5],[4,-6],[3,-7],[4,-32],[0,-8],[-1,-6],[-3,-3],[-2,-2],[-29,-17],[-3,-2],[-9,-10],[-3,-3],[-2,-3],[-2,-3],[-3,-2],[-2,-3],[-3,-9],[-12,-43],[-2,-14],[0,-9],[2,-3],[4,-1]],[[108,674],[4,-1],[3,-1],[4,-2],[2,-2],[2,-4],[2,-8],[3,-17],[1,-4],[1,-3],[4,-6],[5,-5],[10,-6],[3,-4],[3,-5],[3,-10],[0,-7],[0,-6],[-21,-64],[-2,-3],[-4,-7],[-2,-2],[-3,-3],[-11,-8],[-13,-8],[-32,-12],[-3,-5],[3,-7],[5,-14],[2,-13],[-4,-10],[-5,-9],[-2,-13],[0,-13],[5,-7],[34,-27],[13,-4]],[[87,672],[21,2]],[[168,356],[13,-2],[9,-6],[16,-13],[25,-15],[3,-5],[1,-6],[-2,-67]],[[118,354],[50,2]],[[170,2329],[4,-1],[3,-1],[17,-10],[4,-2],[5,0]],[[113,2186],[5,0],[6,3],[3,3],[0,5],[0,4],[-2,3],[-3,3],[-8,7],[-4,6],[-1,3],[-2,4],[0,4],[1,5],[3,7],[14,18],[6,12],[5,13],[3,6],[1,4],[-2,4],[-2,3],[-3,3],[1,4],[1,5],[3,2],[2,2],[18,8],[8,1],[4,1]],[[239,2320],[28,-4]],[[203,2315],[4,0],[4,0],[24,5],[4,0]],[[267,2316],[1,0]],[[99,2192],[3,-1],[7,-3],[4,-2]],[[93,2036],[-8,1],[-8,3],[-4,1],[-2,2],[-2,3],[0,3],[1,9],[0,4],[-1,8],[-3,8],[-1,4],[2,6],[3,3],[4,2],[6,2],[7,2],[4,3],[1,4],[0,4],[-2,3],[-3,3],[-13,6],[-3,2],[-2,3],[-1,4],[0,4],[0,4],[1,4],[8,23],[6,12],[7,12],[4,3],[5,1]],[[83,1932],[13,0],[29,3],[12,3],[7,5],[1,4],[0,4],[-1,3],[-1,3],[-5,30],[0,5],[2,4],[4,3],[5,0],[22,1],[5,2],[3,3],[0,4],[1,5],[-1,8],[-2,4],[-8,12],[-2,3],[-3,2],[-4,1],[-4,1],[-4,1]],[[152,2046],[-22,-3],[-16,-4],[-17,-3],[-4,0]],[[0,1993],[8,-4],[25,-16],[11,-10],[6,-8],[16,-16],[9,-6],[8,-1]],[[0,1562],[3,-2],[4,-6],[3,-7],[1,-9],[17,-49],[48,-83],[9,-21],[1,-4],[2,-44],[2,-6],[3,-9],[3,-5],[3,-3],[27,-13],[20,-6],[5,-3],[5,-3],[10,-8],[4,-5],[2,-5],[4,-22],[0,-9],[-3,-23],[-13,-39],[-1,-8],[0,-5],[4,-23]],[[67,278],[10,-1],[4,-3],[3,-3],[10,-20],[4,-6],[5,-5],[6,-4],[3,-2],[20,-9],[3,-3],[3,-3],[9,-15],[5,-5],[7,-7],[3,-2],[4,-2],[5,-1]],[[0,251],[3,0],[5,2],[9,4],[26,18],[6,1],[8,2],[10,0]],[[0,251]],[[171,187],[6,1],[4,1],[9,6],[11,11],[32,36]],[[1474,803],[-4,-19],[0,-13],[-1,-8],[-2,-5],[-6,-6],[-3,-5],[-6,-9],[-2,-6],[-1,-7],[1,-20],[2,-42],[-1,-15],[-2,-9],[-4,-10],[-16,-42],[-3,-15],[2,-23],[11,-16],[6,-20],[3,-13],[-1,-6]],[[1316,3258],[207,-7]],[[1172,3189],[37,9],[31,15],[24,20],[25,15],[27,10]],[[1029,3207],[31,-1],[35,-5],[31,-7],[46,-5]],[[979,3195],[9,3],[41,9]],[[1505,1412],[-35,6],[-27,19],[-27,24],[-40,17],[-33,7]],[[1343,1485],[-147,-9]],[[1196,1476],[-14,2]],[[1768,1333],[-131,60],[-51,16],[-43,4]],[[1543,1413],[-38,-1]],[[1493,954],[-5,1],[-6,2],[-25,19],[-4,4],[-2,3],[-3,13],[-10,15],[-12,6],[-12,17],[-15,24],[-12,9],[-4,1],[-5,4],[-9,15],[-7,32],[-9,35],[-11,19],[-10,6],[-2,5],[-4,8],[-28,37],[-11,8],[-6,7],[-3,6],[-1,14],[-1,5],[-4,6],[-3,6],[-4,19],[-38,81],[-6,10],[-15,18],[-24,5]],[[1518,960],[-6,4]],[[1512,964],[-12,-7],[-7,-3]],[[1518,960],[6,-18],[-3,-11],[-5,-9],[-11,-30],[-4,-6],[-6,-7],[-10,-19],[-3,-7],[-1,-6],[2,-9],[0,-15],[-9,-20]],[[1518,960],[219,1]],[[1598,2327],[-5,-22],[6,-9],[6,-10],[12,-66],[-10,-63],[5,-18],[4,-4],[-5,-9],[-11,-8],[-6,-4],[-9,-4],[-12,-4],[-17,0]],[[1395,2167],[-5,0],[-4,1],[-4,2],[-3,2],[-3,2],[-20,21],[-5,5],[-6,4],[-8,3],[-5,1]],[[1332,2208],[-8,0],[-12,-2],[-64,-17],[-8,-1]],[[1223,2187],[-39,1],[-14,1]],[[1240,2188],[-4,0]],[[1236,2188],[-13,-1]],[[1500,2116],[-4,1],[-3,1],[-9,7],[-3,2],[-21,6],[-7,4],[-6,4],[-6,5],[-10,14],[-3,3],[-3,2],[-4,1],[-4,1]],[[1417,2167],[-22,0]],[[1556,2106],[-5,0],[-4,1],[-20,7],[-9,2]],[[1518,2116],[-18,0]],[[1642,3610],[-16,-9],[-2,-3],[-2,-1],[-18,-24],[-9,-16],[-5,-12],[-1,-10],[0,-11],[1,-4],[0,-2],[3,-6],[4,-6],[19,-17],[4,-6],[4,-5],[11,-29],[2,-11],[11,-34],[5,-53],[0,-14],[-2,-9],[-2,-4],[-5,-5],[-6,-5],[-6,-3],[-29,-11],[-12,-2],[-40,-2],[-7,-2],[-7,-3],[-4,-2],[-4,-4],[-6,-7],[-2,-6],[-1,-4],[0,-3],[3,-14]],[[1521,2762],[4,1],[4,1],[3,2],[3,2],[4,4],[3,5],[3,9],[29,189],[0,11],[-7,13],[-12,11],[-15,16],[-9,15],[-2,3],[-14,41],[-1,10],[1,12],[6,39],[6,21],[0,14],[-7,36],[6,11],[1,1],[1,1],[1,3],[1,4],[-7,14]],[[1494,2763],[27,-1]],[[1598,2327],[6,26],[-4,5],[-2,1],[-5,2],[-73,21],[-14,7],[-7,4],[-6,5],[-4,5],[-5,6],[-3,5],[-2,6],[-3,15],[-1,12],[1,37],[2,8],[3,25],[5,18],[6,15],[1,4],[0,5],[-1,5],[-3,6],[-2,3],[-3,2],[-21,10],[-6,4],[-3,3],[-5,5],[-4,5],[-4,7],[-1,4],[-3,15],[-2,24],[0,42],[4,24],[10,32],[7,5],[5,4],[4,1],[12,2],[17,1]],[[1642,3610],[8,4],[-3,235],[1,12],[3,9],[7,13],[14,16],[44,36],[-24,23],[-9,6],[-1,1],[-4,0],[-3,1],[-4,3],[-6,3],[-9,1],[-7,1],[-36,51],[-40,71]],[[2167,3612],[176,14],[175,36],[276,31]],[[2021,3635],[39,-1],[107,-22]],[[1904,3619],[117,16]],[[1789,3628],[115,-9]],[[1642,3610],[35,0],[38,9],[37,2],[37,7]],[[1768,1333],[4,-14],[0,-33],[2,-6],[4,-6],[4,-7],[0,-11],[2,-9],[11,-44],[11,-24],[35,-24],[4,-4],[0,-5],[0,-12],[16,-82],[3,-33],[-1,-1],[-1,-2],[-3,-2],[-5,-1],[-5,0]],[[1849,1013],[-14,1]],[[1829,1505],[150,-1]],[[1768,1333],[-6,18],[-1,18],[8,16],[23,33],[7,4],[11,4],[1,8],[-5,19],[2,21],[11,30],[10,1]],[[1797,574],[11,29],[3,18],[-3,33],[-8,6],[-4,2],[-4,2],[-4,1],[-8,14],[-5,67],[-1,22],[-3,79],[-2,43],[-7,30],[-25,41]],[[1835,1014],[-1,-37],[7,-38],[35,-85],[15,-86],[14,-23],[35,-30],[11,-12],[29,-49]],[[1797,574],[-35,-4],[-15,-4],[-13,-9],[-9,-9],[-7,-18]],[[3824,213],[-15,11],[-6,39],[7,48],[-34,40],[-51,25]],[[4096,311],[-17,-1],[-41,-25],[-4,-10],[-7,-5]],[[4027,270],[-7,1],[-13,5],[-29,20],[-27,3]],[[3951,299],[-22,-4]],[[3929,295],[-47,2]],[[3882,297],[-7,-18],[4,-24],[-42,-36],[-13,-6]],[[3042,1063],[-6,33],[-16,31]],[[3020,1127],[-51,-25]],[[3199,1004],[-21,1],[-4,11],[-2,11],[-7,19],[-9,19],[-24,20]],[[3132,1085],[-33,-1],[-28,-18],[-29,-3]],[[3321,1011],[-11,14]],[[3310,1025],[-30,-3],[-13,-4],[-12,-5]],[[3255,1013],[-16,0],[-15,5]],[[3224,1018],[-25,-14]],[[3321,1011],[-16,-97],[-14,-18],[-66,-49],[-36,-39],[-18,-48],[0,-23],[11,-19],[10,-7],[23,-7],[12,-2],[37,-1]],[[3326,746],[13,-19],[0,-53],[7,-34],[-2,-10],[-8,-9],[-12,-4],[-37,-27],[-23,-3],[-12,-5],[12,-15]],[[3264,701],[32,19],[11,17],[19,9]],[[3286,567],[41,-17],[1,-20],[-12,-14]],[[3264,567],[22,0]],[[3316,516],[-44,4]],[[3272,520],[0,-1]],[[3635,1325],[-58,156],[-4,38],[8,33],[6,88],[34,45],[28,13],[22,20],[17,60]],[[4031,1807],[-14,-21],[1,-31],[14,-5]],[[4096,1715],[-5,-7],[-6,-31],[11,-32]],[[4032,1750],[19,12],[27,6],[18,2]],[[4096,1477],[-1,-1],[-10,-22],[-13,-70],[-40,-94],[-76,-65]],[[3793,1337],[-80,5]],[[3713,1342],[-27,-1],[-51,-16]],[[3956,1225],[-41,16],[-16,52],[-17,35],[-37,12]],[[3845,1340],[-52,-3]],[[4035,811],[-19,48],[7,21],[12,18],[-33,27],[-204,0]],[[3798,925],[-12,-5],[-9,-10],[0,-19],[-12,-16],[-9,-20],[-26,-25],[-23,-28],[-8,-15],[-3,-24],[-2,-11],[0,-23],[3,-6],[7,-3],[12,-20],[13,-39],[-17,-38],[-12,-19],[-6,-22],[-10,-18],[-18,-10],[-16,-5],[-10,-16],[-4,-21],[-4,-9],[-5,-5]],[[4096,842],[-9,0]],[[4087,842],[-36,-29],[-16,-2]],[[3627,498],[-1,-6],[4,-7],[15,-9],[17,-15],[15,-18],[2,-10],[7,-2],[9,0],[9,-5],[8,-6],[13,-21],[0,-23]],[[3635,1325],[-1,-30],[-35,-10],[-32,-16],[-13,-35],[-6,-35],[0,-55],[-2,-20],[2,-17],[-2,-16],[-8,-5]],[[3538,1086],[-19,1],[-9,4],[-37,25],[-27,11]],[[3446,1127],[-29,-8],[-31,-25],[-20,-34],[-5,-19],[-12,-16],[-28,-14]],[[4016,2146],[29,-11],[37,-37],[14,-5]],[[4031,1807],[-5,44],[-49,30],[-29,27],[-8,14],[-12,11],[-11,13],[-22,42],[6,24],[83,104],[32,30]],[[4031,1807],[-78,-3],[-26,-8],[-15,-19],[-5,-23],[-9,-17],[-6,-2]],[[3715,1754],[-15,6],[-4,13],[-8,5]],[[3855,1731],[-18,4],[-28,3],[-49,30]],[[3760,1768],[-45,-14]],[[3892,1735],[-6,1]],[[3886,1736],[-31,-5]],[[3568,1816],[30,-1],[15,-26],[22,-14]],[[3493,1794],[5,6],[41,3],[29,13]],[[3492,1799],[1,-5]],[[3412,1778],[41,9],[19,8],[20,4]],[[3364,1783],[48,-5]],[[3317,1781],[47,2]],[[3677,1781],[11,-3]],[[3635,1775],[42,6]],[[3317,1781],[6,-25],[-2,-26],[-6,-9],[-4,-4],[-16,-3],[-13,-5],[-14,-9],[-12,-10]],[[3204,1645],[-30,6],[-27,44],[-20,18],[-22,9]],[[3105,1722],[-16,-17],[-13,-19],[-8,-6],[-7,-6],[1,-17],[-37,-27]],[[3256,1690],[-2,3]],[[3254,1693],[-5,-6],[-5,-6],[-4,-5],[-21,-15],[-15,-16]],[[3025,1630],[-49,13]],[[2976,1643],[-12,-33],[-3,-48],[-4,-22],[-6,-21],[-12,-18],[-1,-22],[15,-16],[20,-13],[16,-20],[11,-24],[15,-17],[4,-21],[-50,-266]],[[2139,1562],[-21,3],[-12,40],[-4,83],[-18,34],[-71,3]],[[2013,1725],[-63,-45],[-5,-3]],[[2355,1263],[-40,14],[-51,46],[-33,61],[-24,30],[-30,26],[-14,38],[-1,15],[27,75],[-5,65]],[[2184,1633],[-27,-1],[-11,-32],[-7,-38]],[[2545,1315],[-21,12],[-13,36],[-26,20]],[[2485,1383],[-31,-20],[-29,-73],[-29,-25],[-41,-2]],[[2747,1052],[-44,2],[20,34],[27,37],[-9,44],[-5,11],[-2,11],[0,14],[-4,13],[-21,12],[-22,15],[-2,13],[1,41],[-25,36],[-73,2]],[[2588,1337],[-22,-10],[-21,-12]],[[2969,1102],[-22,-4],[-22,-1],[-23,-8],[-20,-14],[-45,-12],[-90,-11]],[[3086,2464],[-54,13],[-86,30],[-32,17],[-28,24],[-17,33],[-21,26],[-33,16]],[[2815,2623],[-35,-4],[-33,-24],[-18,-36],[-7,-48],[-14,-15],[-17,-12],[-150,-76],[-31,-24],[-30,-14],[-32,-25],[-86,-39],[-9,-1]],[[3317,1781],[-12,7],[-12,3],[-9,15],[-21,69],[-27,43],[-19,13],[-16,15],[-27,39],[-24,98],[-26,39],[-65,144],[-10,45],[10,45],[16,15],[12,19],[18,18],[24,14],[25,36],[-13,28]],[[3141,2486],[-35,-21],[-20,-1]],[[2353,2305],[-8,8],[-9,4],[-6,9],[-12,2]],[[2318,2328],[-11,-1],[-17,-5],[-15,-10],[-30,-26],[-15,-9],[-11,-9],[-6,-7],[-17,-7],[-39,-32],[-14,-17],[-17,-12],[-58,-13]],[[2068,2180],[-14,1]],[[2054,2181],[-14,0],[-38,-33],[-5,-4]],[[2386,802],[17,-6],[33,-17],[17,-21],[26,-2]],[[2265,663],[42,6],[11,12],[8,36],[11,15],[11,13],[10,37],[5,11],[23,9]],[[2936,791],[44,-12],[-8,-19],[-18,-14],[-6,-18],[7,-18],[1,-9],[21,-17]],[[2479,756],[14,3],[9,12],[2,11],[7,7],[425,2]],[[3045,715],[20,-7],[8,-16],[-7,-15],[-42,-24],[1,-18],[17,-10],[21,-6],[10,-10],[12,-7]],[[2977,684],[22,11],[22,15],[24,5]],[[2106,670],[159,-7]],[[2047,626],[18,1],[19,13],[14,16],[0,10],[8,4]],[[1975,632],[4,-1],[24,-2]],[[2028,632],[19,-6]],[[2003,629],[25,3]],[[3102,606],[42,-1],[20,-7],[1,-20],[-3,-20],[0,-2]],[[3085,602],[17,4]],[[3243,2805],[-24,41],[1,55],[7,59],[-12,50],[-24,0],[-12,7],[-11,9],[-245,289],[-20,17],[-50,7]],[[2853,3339],[-117,-3],[-64,-12],[-3,-1]],[[3362,2755],[1,15],[-2,28],[-1,5],[-63,9]],[[3297,2812],[-54,-7]],[[3494,2595],[-20,6],[-13,15],[-2,22],[4,22],[-1,19],[-9,15],[-20,8],[-36,6],[-12,5],[-11,8],[-6,10],[-3,12],[0,14]],[[3365,2757],[0,-1],[-1,0],[-1,0],[-1,-1]],[[3874,2483],[-70,12],[-11,3],[-8,6],[-6,10],[0,9],[0,7],[0,8],[-4,8],[-12,13],[-13,16],[-10,8],[-39,18],[-24,17],[-13,6],[-1,4],[-18,9],[-9,2]],[[3636,2639],[-10,0],[-47,-15],[-33,-19],[-29,-9],[-23,-1]],[[4096,2371],[-3,2],[-2,4],[-7,13],[-6,8],[-6,7],[-16,13],[-9,13],[-5,3],[-9,6],[-10,3],[-11,2],[-22,1],[-10,3],[-9,4],[-8,7],[-14,14],[-7,6],[-9,4],[-11,2]],[[3922,2486],[-48,-3]],[[3988,3933],[-20,7],[-9,26],[-1,29],[4,56],[-11,25],[-23,14],[-3,6]],[[3471,4096],[-3,-11],[47,-35],[52,-22],[56,-8],[12,0],[10,-6],[6,-13],[9,-6],[20,-6],[9,-21],[7,-30],[2,-29],[-35,-45],[30,-37],[16,-48],[-20,-16],[-51,-14],[-49,-24]],[[4096,3939],[-35,-6],[-73,0]],[[2955,3969],[-39,5],[-81,37],[-65,40],[-66,8]],[[2704,4059],[-6,-5]],[[3373,3301],[-50,3],[-17,16],[11,54],[4,54],[-16,17],[-18,14],[-11,26],[-3,28],[4,54],[28,47],[84,48],[2,13],[18,19],[5,10],[2,13],[0,27],[24,132],[-1,18],[-47,14],[-88,58],[-74,20]],[[3230,3986],[-76,-12],[-199,-5]],[[3589,3725],[-51,7]],[[3538,3732],[-23,-8],[-12,-49],[4,-55],[-4,-26],[4,-25],[35,-44],[22,-50],[-18,-49],[-21,-15],[-25,-8],[-84,-18],[-26,-9],[-8,-25],[0,-30],[-9,-20]],[[385,4096],[-8,-9],[-9,-14],[-4,-19],[-2,-20],[-7,-10]],[[355,4024],[-12,4],[-12,13],[-8,12],[-10,5]],[[313,4058],[-10,-10],[-28,-58],[-2,-6]],[[3401,3521],[6,-17],[12,-8],[-11,-20],[-12,10],[-5,-7],[-3,-33],[-22,-47],[-3,-14],[3,1],[7,4],[1,-10],[-8,-9],[-10,-4],[-8,8],[-11,-13],[-7,-14],[-7,-11],[-15,-2],[0,-5],[5,-3],[4,-4],[3,-4],[3,-4],[-3,-6],[-2,-7],[2,-5],[6,-3],[7,3],[4,6],[3,7],[4,5],[16,6],[6,-6],[-2,-7],[-6,2],[-5,0],[3,-19],[-2,-5],[-6,4],[-1,-10],[7,-5],[9,-5],[5,-11],[-1,-5],[-4,-6],[-7,-11],[-2,-4],[1,-5],[2,-5],[1,-6],[2,-7],[7,-7],[1,-4],[-3,-5],[-9,-2],[-3,-6],[1,-15],[4,-8],[7,-1],[13,7],[3,-14],[-4,-8],[-6,-6],[-3,-10],[-5,-5],[-11,-6],[-13,-6],[-10,-2],[1,5],[2,4],[3,4],[4,4],[0,-6],[4,9],[-1,8],[-3,8],[-6,5],[-4,-2],[-3,-1],[-3,-1],[-4,-1],[4,14],[-1,17],[-4,10],[-10,-6],[-3,13],[8,8],[11,8],[5,11],[-2,8],[-4,6],[-5,4],[-4,3],[-8,10],[-4,-1],[-9,-9],[-5,6],[9,7],[6,11],[0,12],[-10,10],[-7,-3],[-7,3],[-6,-9],[-20,-22],[2,6],[3,14],[-15,-6],[-4,-4],[8,15],[25,14],[1,12],[-3,0],[-18,8],[-1,2],[-10,2],[-6,-1],[-7,-6],[5,15],[16,4],[19,-4],[11,-10],[4,0],[4,9],[2,2],[4,4],[-3,7],[-2,8],[1,8],[4,7],[-33,-7],[-16,2],[-5,15],[26,-6],[16,10],[3,17],[-11,15],[4,9],[-10,20],[-3,14],[-5,5],[-20,30],[-3,7],[-10,5],[-18,20],[-9,6],[-11,-4],[-11,-8],[-10,-6],[-13,3],[8,3],[9,6],[15,13],[10,5],[8,-3],[12,-9],[9,-3],[10,-4],[8,-2],[6,4],[0,9],[-15,31],[3,-1],[12,-4],[-1,10],[2,9],[4,9],[4,7],[-9,4],[-8,6],[-13,16],[11,3],[6,6],[4,9],[7,9],[15,15],[4,9],[-9,4],[-8,2],[-7,5],[-5,6],[-2,7],[-1,7],[2,3],[4,5],[4,11],[11,-23],[5,-3],[5,3],[4,8],[5,15],[5,0],[3,-10],[1,-12],[3,-10],[6,-4],[7,-2],[7,-5],[6,-6],[2,-7],[9,5],[4,-1],[2,-7],[1,-10],[2,-3],[4,2],[5,4],[19,20],[9,6],[4,2],[4,0],[3,-1],[2,-3],[-1,-4],[-3,-4],[-3,-2],[-1,-4],[-16,-27],[-2,-7],[2,-9],[1,-3],[2,-3],[3,-1],[3,-1],[4,0],[11,4],[2,2],[-2,-11],[-7,-6],[-7,-4],[-4,-5],[1,-9],[4,-11],[6,-10],[7,-8],[6,-14],[4,-19]],[[234,1398],[-10,-25],[-10,-16],[6,-7],[2,-4],[-2,-1],[-6,2],[-8,-14],[5,-6],[9,-6],[4,-9],[-4,-1],[-22,-20],[-3,-5],[0,-5],[13,2],[-1,-7],[-8,-10],[-4,-11],[4,-9],[10,-7],[11,-3],[10,0],[3,-8],[1,-3],[-10,-3],[-14,8],[-10,-5],[-5,-9],[-1,-13],[1,-28],[3,0],[1,1],[0,2],[1,2],[5,-2],[1,-2],[0,1],[4,3],[4,0],[-2,-7],[-4,-5],[-13,-8],[0,-5],[14,0],[4,-7],[-7,-5],[-16,2],[14,-15],[-5,-13],[-8,-13],[4,-14],[6,7],[8,3],[8,1],[7,4],[4,-8],[-1,-7],[-5,-6],[-8,-5],[5,-2],[2,-2],[1,-3],[2,-3],[-6,-2],[-3,-1],[-1,-4],[0,-8],[-2,2],[-7,3],[-1,-5],[-3,-6],[-1,-4],[-5,0],[0,15],[-6,-16],[3,-15],[5,-16],[4,-24],[3,-8],[1,-6],[-5,-6],[-5,2],[-5,6],[-6,13],[-21,-58],[-3,-30],[15,-14],[-4,-12],[1,-15],[8,-28],[-2,-13],[-3,-15],[-1,-13],[6,-9],[-5,-9],[0,-7],[5,-5],[10,0],[9,6],[7,10],[8,20],[9,50],[7,15],[4,0],[-2,-17],[-5,-20],[-2,-16],[9,-7],[-5,-8],[-3,-7],[0,-8],[4,-8],[-6,-15],[-5,0],[1,8],[-1,7],[-10,-6],[-8,-12],[-7,-9],[-10,3],[0,-6],[-4,6],[-2,-7],[-4,-6],[-4,-4],[-5,-4],[0,8],[0,2],[-10,-2],[-7,-4],[-5,-5],[-3,-9],[-5,10],[-12,11],[-3,10],[-15,-21],[5,0],[3,-2],[3,-2],[4,-1],[-20,-35],[5,-8],[4,-4],[6,-3],[-7,-9],[-13,-7],[-5,-10],[-1,-11],[2,-6],[4,-7],[5,-11],[3,-24],[-4,-20],[-19,-32],[-5,-2],[-5,48],[5,-2],[0,-6],[0,-2],[5,0],[-3,48],[-8,16],[-19,-8],[2,-9],[0,-12],[-3,-12],[-4,-8],[-4,0],[-11,6],[-5,-1],[-2,-3],[-2,-9],[-18,-38],[-3,-2],[0,279],[5,-15],[10,30],[5,0],[3,-7],[1,-6],[-1,-6],[-3,-6],[9,4],[7,0],[5,-4],[4,-5],[0,-5],[-6,-1],[-3,-1],[-2,-2],[-4,-1],[3,0],[12,0],[-5,-10],[7,-3],[6,-1],[4,3],[3,6],[5,-5],[3,1],[2,2],[2,1],[3,1],[-5,-5],[-4,-6],[-1,-6],[0,-9],[5,0],[6,18],[15,7],[19,3],[14,8],[9,18],[-4,15],[-19,28],[-7,-10],[-2,-4],[-1,-7],[-5,5],[-1,-2],[0,-2],[-4,-1],[0,10],[-11,-3],[-4,-2],[2,3],[1,5],[2,2],[-10,0],[0,6],[7,3],[3,6],[-1,8],[-4,7],[-6,1],[-6,-1],[-4,-2],[-4,-2],[5,-11],[-10,5],[-5,-13],[-1,-7],[1,-10],[-9,4],[-5,7],[-2,9],[1,10],[-5,0],[-21,-29],[-4,-13],[0,70],[2,-2],[8,-5],[0,20],[4,-4],[4,-3],[5,-2],[7,-1],[-5,10],[5,3],[10,0],[10,2],[1,7],[9,8],[12,4],[8,-4],[5,0],[4,19],[-2,7],[-7,4],[-10,2],[-8,-3],[-7,-6],[-5,-8],[-4,1],[-4,2],[-3,3],[-4,4],[-8,-4],[-8,-3],[-9,-2],[-10,-1],[0,1],[6,9],[4,8],[5,5],[12,2],[11,5],[2,10],[-5,26],[42,-18],[8,0],[1,-12],[4,4],[4,12],[1,14],[-3,-1],[-1,-1],[1,-1],[-2,-2],[-8,7],[-2,3],[-5,-5],[-27,16],[-3,4],[5,5],[10,0],[11,-2],[9,2],[-25,15],[12,-1],[12,-2],[10,1],[6,7],[-23,15],[-7,5],[-2,-1],[0,-1],[-1,-1],[-2,-2],[4,9],[0,6],[-4,5],[-10,1],[0,5],[13,4],[5,4],[2,6],[-4,6],[-7,2],[-4,3],[5,10],[-8,3],[-8,-1],[-6,-6],[-3,-6],[-6,7],[-2,7],[0,8],[3,8],[-5,0],[-6,-9],[-7,-1],[-7,3],[-5,7],[0,12],[1,7],[5,10],[4,7],[0,-8],[-5,-15],[3,-7],[8,0],[8,4],[6,6],[3,-5],[2,2],[5,3],[3,-5],[4,-7],[3,-4],[5,0],[5,12],[7,2],[7,-6],[1,-13],[20,35],[5,-1],[10,-2],[5,-2],[0,5],[-8,5],[-1,7],[4,18],[6,-2],[4,-4],[1,-6],[-1,-8],[16,16],[7,10],[-6,4],[-1,5],[-16,25],[-2,-3],[-2,-3],[-1,-3],[0,-5],[-5,0],[-3,2],[-3,1],[-4,-2],[-5,-6],[-2,17],[-2,9],[-4,4],[-9,3],[-8,7],[-10,15],[5,5],[-9,10],[-18,29],[-13,7],[20,10],[-8,0],[-5,1],[-3,4],[-4,5],[8,1],[6,4],[2,7],[-1,9],[-3,-3],[-2,-2],[-3,-2],[-2,-4],[-30,19],[0,30],[5,1],[30,-9],[-6,10],[-10,8],[-11,6],[-8,6],[0,146],[8,0],[7,5],[5,8],[5,7],[1,-8],[3,-4],[4,-1],[7,4],[2,-3],[1,-3],[1,-3],[1,-2],[3,0],[12,0],[-8,12],[3,7],[7,5],[3,6],[-4,9],[-6,7],[-5,8],[0,12],[-7,-2],[-8,3],[-6,5],[1,8],[5,6],[5,-1],[5,-4],[5,-1],[3,9],[-6,10],[-17,22],[9,-4],[5,4],[0,8],[-9,7],[0,5],[16,1],[15,5],[10,10],[4,15],[-5,8],[-22,-10],[-13,2],[4,3],[7,8],[4,4],[-15,10],[-11,11],[0,13],[16,16],[1,-7],[4,-7],[6,-2],[10,6],[3,0],[3,0],[3,0],[5,15],[12,3],[10,-4],[3,-10],[-5,-14],[33,12],[7,4],[-5,7],[-30,27],[4,3],[1,2],[-5,5],[7,2],[5,6],[2,8],[1,10],[-10,-3],[-12,4],[-9,10],[-4,12],[-8,-1],[-12,8],[-4,7],[19,-2],[-2,4],[-3,11],[6,-7],[6,-2],[7,2],[6,7],[23,-7],[10,17],[0,26],[-9,20],[8,5],[7,4],[9,1],[9,0],[9,3],[0,6],[-4,9],[-2,9],[-9,5],[-56,-13],[-20,1],[-10,8],[-4,13],[-1,17],[-2,9],[-4,6],[-2,5],[3,8],[5,3],[25,7],[0,4],[-12,4],[-8,4],[-6,7],[-4,11],[2,6],[5,7],[2,5],[-11,5],[3,4],[6,4],[3,0],[15,28],[5,6],[10,4],[7,-4],[7,-5],[11,-5],[-4,14],[-11,12],[-8,14],[3,21],[6,8],[9,5],[7,7],[2,13],[-1,9],[-2,7],[1,4],[8,3],[8,4],[8,0],[7,-1],[7,-3],[-12,-13],[-4,-3],[6,-11],[-6,-6],[-10,-6],[-4,-9],[-5,-5],[-8,-13],[-5,-14],[5,-6],[14,-9],[1,-16],[-12,-12],[-25,6],[-12,-25],[-3,-10],[-1,-5],[1,-17],[1,-7],[5,-1],[4,0],[5,-5],[3,-9],[0,-7],[-3,-8],[-5,-7],[-4,-1],[-13,2],[-3,-3],[2,-7],[4,-6],[3,-6],[-2,-6],[2,-11],[24,-2],[67,6],[10,-2],[4,-6],[5,-19],[1,-10],[-6,-9],[7,-8],[10,-3],[9,3],[4,8],[5,0],[-2,-15],[-9,-3],[-12,2],[-12,-4],[-11,5],[-12,3],[-13,0],[-8,-3],[5,-3],[6,-2],[6,-1],[8,1],[-4,-5],[-9,-6],[-2,-4],[-1,-8],[2,-15],[-1,-8],[-9,-10],[-26,-10],[-10,-10],[13,1],[43,-8],[-2,-4],[-6,-3],[-3,-1],[-13,-23],[-8,-24],[20,-10],[46,-4],[1,2],[1,2],[3,2],[5,-1],[-9,-22],[-4,-3],[-8,2],[-12,6],[-5,2],[-12,-4],[-13,-17],[-47,-13],[-5,-1],[1,-11],[7,-14],[11,-12],[11,-3],[-7,-8],[-19,-7],[-4,-8],[-4,-3],[-23,-9],[-8,-1],[32,-5],[8,-5],[1,-7],[-8,-14],[-3,-10],[5,0],[10,10],[15,6],[14,-3],[6,-15],[-2,-2],[-11,-28],[-4,-8],[-3,-14],[-5,-6],[0,-5],[12,3],[7,11],[6,13],[9,8],[-4,11],[4,2],[2,1],[3,0],[5,-3],[-1,9],[-1,2],[-2,3],[4,8],[6,5],[8,2],[9,1],[3,3],[9,17],[6,5],[5,-15],[-4,-7],[-6,-5],[-6,-3],[-9,0],[0,-6],[3,0],[2,-1],[4,-4],[-4,0],[-10,-4],[7,0],[6,-1],[12,-4],[0,-5],[-14,-1],[-7,-4],[2,-5],[14,-1],[0,-5],[-7,-3],[0,-1],[-3,-6],[-7,3],[-6,-1],[-7,-1],[-10,-1],[9,-16],[13,-2],[13,-1],[10,-10],[0,5],[4,-4],[2,-1],[4,0],[-6,-7],[-3,-7],[0,-6],[4,-5],[5,0],[2,2],[3,2],[0,-23],[-2,-9],[-8,-4],[2,-2],[2,-3],[1,-2],[5,-2],[-7,-6],[-3,-7],[-5,-18],[11,-3],[3,-8],[-1,-9],[2,-10],[-10,5],[0,-8],[2,-7],[4,-4],[8,-1],[-4,-5],[-3,-5],[-2,-7],[0,-9],[-9,7],[-16,18],[-10,6],[4,-10],[5,-7],[3,-6],[-2,-8],[-5,-2],[-25,-8],[4,-7],[7,-6],[8,-1],[11,5],[4,-15],[-5,-10],[-8,-9],[-1,-12],[6,-11],[7,2],[7,8],[5,11],[12,3],[5,8],[0,10],[-2,10],[9,-6],[5,14],[0,6],[3,-1],[7,-4],[0,5],[1,10],[-1,5],[6,0],[0,-15],[-6,-24]],[[0,1],[25,8],[12,12],[8,13],[10,11],[28,9],[20,18],[12,8],[48,13],[14,10],[6,2],[18,1],[4,2],[3,5],[9,3],[17,4],[32,2],[261,-19],[139,16],[29,10],[23,22],[7,13],[7,35],[1,15],[4,14],[18,36],[8,13],[37,40],[25,20],[33,18],[5,2],[5,1],[5,0],[53,23],[115,36],[138,23],[193,45],[250,29],[58,13],[288,27],[1,0],[163,15],[113,-5],[96,11],[81,-4],[43,5],[3,16],[-4,4],[-1,4],[-2,4],[-3,4],[-4,6],[3,5],[5,4],[3,5],[2,9],[10,16],[3,7],[0,7],[-4,11],[-1,5],[3,6],[6,2],[8,0],[6,3],[16,17],[8,8],[13,7],[-1,-10],[-5,-16],[1,-9],[3,-10],[2,-2],[5,-4],[9,1],[9,-3],[2,-2],[9,0],[9,2],[8,3],[26,14],[7,1],[14,0],[35,12],[39,22],[41,16],[41,-10],[6,2],[4,0],[5,-2],[5,-5],[-60,-9],[-9,-3],[-4,-16],[-11,-12],[-14,-9],[-17,-6],[-9,3],[-32,-10],[-16,-4],[-30,0],[-7,-2],[0,-7],[1,-8],[-1,-8],[-10,-11],[-11,-6],[-13,-3],[-13,0],[-10,-3],[-6,0],[-2,6],[-4,0],[-26,-23],[-3,11],[-1,11],[-4,4],[-12,-11],[-4,4],[-4,1],[-5,-1],[-7,-4],[10,-8],[7,-8],[9,-6],[17,-3],[310,16],[186,-16],[158,-29],[46,-9],[64,-28],[11,-5],[28,-18],[45,-43],[24,-15],[55,-35],[22,-18],[26,-27],[18,-29],[13,-15],[29,-12],[15,-14],[88,-116],[27,-60],[8,-1],[37,35],[10,7],[55,30],[29,8],[25,23],[15,3],[-16,-29],[-60,-22],[-23,-20],[-1,-7],[3,-8],[2,-6],[-4,-5],[-5,2],[-15,11],[-8,3],[-9,-6],[-7,-13],[-4,-17],[-2,-15],[2,-17],[7,-13],[7,-10],[7,-21],[9,-15],[7,-9],[-3742,0],[0,1]],[[3842,0],[3,1],[9,10],[8,14],[20,55],[5,0],[1,-14],[-2,-11],[-13,-40],[-1,-12],[2,-3],[-32,0]],[[3937,0],[9,22],[7,7],[14,1],[12,-6],[15,-10],[13,-13],[0,-1],[-16,0],[-7,5],[-11,3],[-12,1],[-9,-4],[-3,-5],[-12,0]],[[1854,606],[6,-11],[2,-10],[-8,-5],[-19,-2],[-29,-11],[-22,-3],[-10,2],[-14,7],[-11,2],[-18,-1],[0,4],[1,24],[2,9],[5,7],[10,2],[11,4],[11,8],[10,5],[10,-2],[5,-2],[10,-4],[11,-1],[10,2],[6,-3],[7,-5],[6,-6],[8,-10]],[[3380,438],[55,-35],[22,-18],[26,-27],[18,-29],[13,-15],[29,-12],[15,-14],[88,-116],[27,-60],[8,-1],[37,35],[10,7],[55,30],[29,8],[25,23],[15,3],[-16,-29],[-60,-22],[-23,-20],[-1,-7],[3,-8],[2,-6],[-4,-5],[-5,2],[-15,11],[-8,3],[-9,-6],[-7,-13],[-4,-17],[-2,-15],[2,-17],[7,-13],[7,-10],[7,-21],[9,-15],[7,-9]],[[3842,0],[3,1],[9,10],[8,14],[20,55],[5,0],[1,-14],[-2,-11],[-13,-40],[-1,-12],[2,-3]],[[3937,0],[9,22],[7,7],[14,1],[12,-6],[15,-10],[13,-13],[0,-1]],[[3991,0],[-7,5],[-11,3],[-12,1],[-9,-4],[-3,-5]],[[0,1],[25,8],[12,12],[8,13],[10,11],[28,9],[20,18],[12,8],[48,13],[14,10],[6,2],[18,1],[4,2],[3,5],[9,3],[17,4],[32,2],[261,-19],[139,16],[29,10],[23,22],[7,13],[7,35],[1,15],[4,14],[18,36],[8,13],[37,40],[25,20],[33,18],[5,2],[5,1],[5,0],[53,23],[115,36],[138,23],[193,45],[250,29],[58,13],[288,27],[1,0],[163,15],[113,-5],[96,11],[81,-4],[43,5],[3,16],[-4,4],[-1,4],[-2,4],[-3,4],[-4,6],[3,5],[5,4],[3,5],[2,9],[10,16],[3,7],[0,7],[-4,11],[-1,5],[3,6],[6,2],[8,0],[6,3],[16,17],[8,8],[13,7],[-1,-10],[-5,-16],[1,-9],[3,-10],[2,-2],[5,-4],[9,1],[9,-3],[2,-2],[9,0],[9,2],[8,3],[26,14],[7,1],[14,0],[35,12],[39,22],[41,16],[41,-10],[6,2],[4,0],[5,-2],[5,-5],[-60,-9],[-9,-3],[-4,-16],[-11,-12],[-14,-9],[-17,-6],[-9,3],[-32,-10],[-16,-4],[-30,0],[-7,-2],[0,-7],[1,-8],[-1,-8],[-10,-11],[-11,-6],[-13,-3],[-13,0],[-10,-3],[-6,0],[-2,6],[-4,0],[-26,-23],[-3,11],[-1,11],[-4,4],[-12,-11],[-4,4],[-4,1],[-5,-1],[-7,-4],[10,-8],[7,-8],[9,-6],[17,-3],[310,16],[186,-16],[158,-29],[46,-9],[64,-28],[11,-5],[28,-18],[45,-43],[24,-15]],[[1854,606],[6,-11],[2,-10],[-8,-5],[-19,-2],[-29,-11],[-22,-3],[-10,2],[-14,7],[-11,2],[-18,-1],[0,4],[1,24],[2,9],[5,7],[10,2],[11,4],[11,8],[10,5],[10,-2],[5,-2],[10,-4],[11,-1],[10,2],[6,-3],[7,-5],[6,-6],[8,-10]],[[3401,3521],[6,-17],[12,-8],[-11,-20],[-12,10],[-5,-7],[-3,-33],[-22,-47],[-3,-14],[3,1],[7,4],[1,-10],[-8,-9],[-10,-4],[-8,8],[-11,-13],[-7,-14],[-7,-11],[-15,-2],[0,-5],[5,-3],[4,-4],[3,-4],[3,-4],[-3,-6],[-2,-7],[2,-5],[6,-3],[7,3],[4,6],[3,7],[4,5],[16,6],[6,-6],[-2,-7],[-6,2],[-5,0],[3,-19],[-2,-5],[-6,4],[-1,-10],[7,-5],[9,-5],[5,-11],[-1,-5],[-4,-6],[-7,-11],[-2,-4],[1,-5],[2,-5],[1,-6],[2,-7],[7,-7],[1,-4],[-3,-5],[-9,-2],[-3,-6],[1,-15],[4,-8],[7,-1],[13,7],[3,-14],[-4,-8],[-6,-6],[-3,-10],[-5,-5],[-11,-6],[-13,-6],[-10,-2],[1,5],[2,4],[3,4],[4,4],[0,-6],[4,9],[-1,8],[-3,8],[-6,5],[-4,-2],[-3,-1],[-3,-1],[-4,-1],[4,14],[-1,17],[-4,10],[-10,-6],[-3,13],[8,8],[11,8],[5,11],[-2,8],[-4,6],[-5,4],[-4,3],[-8,10],[-4,-1],[-9,-9],[-5,6],[9,7],[6,11],[0,12],[-10,10],[-7,-3],[-7,3],[-6,-9],[-20,-22],[2,6],[3,14],[-15,-6],[-4,-4],[8,15],[25,14],[1,12],[-3,0],[-18,8],[-1,2],[-10,2],[-6,-1],[-7,-6],[5,15],[16,4],[19,-4],[11,-10],[4,0],[4,9],[2,2],[4,4],[-3,7],[-2,8],[1,8],[4,7],[-33,-7],[-16,2],[-5,15],[26,-6],[16,10],[3,17],[-11,15],[4,9],[-10,20],[-3,14],[-5,5],[-20,30],[-3,7],[-10,5],[-18,20],[-9,6],[-11,-4],[-11,-8],[-10,-6],[-13,3],[8,3],[9,6],[15,13],[10,5],[8,-3],[12,-9],[9,-3],[10,-4],[8,-2],[6,4],[0,9],[-15,31],[3,-1],[12,-4],[-1,10],[2,9],[4,9],[4,7],[-9,4],[-8,6],[-13,16],[11,3],[6,6],[4,9],[7,9],[15,15],[4,9],[-9,4],[-8,2],[-7,5],[-5,6],[-2,7],[-1,7],[2,3],[4,5],[4,11],[11,-23],[5,-3],[5,3],[4,8],[5,15],[5,0],[3,-10],[1,-12],[3,-10],[6,-4],[7,-2],[7,-5],[6,-6],[2,-7],[9,5],[4,-1],[2,-7],[1,-10],[2,-3],[4,2],[5,4],[19,20],[9,6],[4,2],[4,0],[3,-1],[2,-3],[-1,-4],[-3,-4],[-3,-2],[-1,-4],[-16,-27],[-2,-7],[2,-9],[1,-3],[2,-3],[3,-1],[3,-1],[4,0],[11,4],[2,2],[-2,-11],[-7,-6],[-7,-4],[-4,-5],[1,-9],[4,-11],[6,-10],[7,-8],[6,-14],[4,-19]],[[234,1398],[-10,-25],[-10,-16],[6,-7],[2,-4],[-2,-1],[-6,2],[-8,-14],[5,-6],[9,-6],[4,-9],[-4,-1],[-22,-20],[-3,-5],[0,-5],[13,2],[-1,-7],[-8,-10],[-4,-11],[4,-9],[10,-7],[11,-3],[10,0],[3,-8],[1,-3],[-10,-3],[-14,8],[-10,-5],[-5,-9],[-1,-13],[1,-28],[3,0],[1,1],[0,2],[1,2],[5,-2],[1,-2],[0,1],[4,3],[4,0],[-2,-7],[-4,-5],[-13,-8],[0,-5],[14,0],[4,-7],[-7,-5],[-16,2],[14,-15],[-5,-13],[-8,-13],[4,-14],[6,7],[8,3],[8,1],[7,4],[4,-8],[-1,-7],[-5,-6],[-8,-5],[5,-2],[2,-2],[1,-3],[2,-3],[-6,-2],[-3,-1],[-1,-4],[0,-8],[-2,2],[-7,3],[-1,-5],[-3,-6],[-1,-4],[-5,0],[0,15],[-6,-16],[3,-15],[5,-16],[4,-24],[3,-8],[1,-6],[-5,-6],[-5,2],[-5,6],[-6,13],[-21,-58],[-3,-30],[15,-14],[-4,-12],[1,-15],[8,-28],[-2,-13],[-3,-15],[-1,-13],[6,-9],[-5,-9],[0,-7],[5,-5],[10,0],[9,6],[7,10],[8,20],[9,50],[7,15],[4,0],[-2,-17],[-5,-20],[-2,-16],[9,-7],[-5,-8],[-3,-7],[0,-8],[4,-8],[-6,-15],[-5,0],[1,8],[-1,7],[-10,-6],[-8,-12],[-7,-9],[-10,3],[0,-6],[-4,6],[-2,-7],[-4,-6],[-4,-4],[-5,-4],[0,8],[0,2],[-10,-2],[-7,-4],[-5,-5],[-3,-9],[-5,10],[-12,11],[-3,10],[-15,-21],[5,0],[3,-2],[3,-2],[4,-1],[-20,-35],[5,-8],[4,-4],[6,-3],[-7,-9],[-13,-7],[-5,-10],[-1,-11],[2,-6],[4,-7],[5,-11],[3,-24],[-4,-20],[-19,-32],[-5,-2],[-5,48],[5,-2],[0,-6],[0,-2],[5,0],[-3,48],[-8,16],[-19,-8],[2,-9],[0,-12],[-3,-12],[-4,-8],[-4,0],[-11,6],[-5,-1],[-2,-3],[-2,-9],[-18,-38],[-3,-2]],[[0,900],[2,-2],[8,-5],[0,20],[4,-4],[4,-3],[5,-2],[7,-1],[-5,10],[5,3],[10,0],[10,2],[1,7],[9,8],[12,4],[8,-4],[5,0],[4,19],[-2,7],[-7,4],[-10,2],[-8,-3],[-7,-6],[-5,-8],[-4,1],[-4,2],[-3,3],[-4,4],[-8,-4],[-8,-3],[-9,-2],[-10,-1]],[[0,949],[6,9],[4,8],[5,5],[12,2],[11,5],[2,10],[-5,26],[42,-18],[8,0],[1,-12],[4,4],[4,12],[1,14],[-3,-1],[-1,-1],[1,-1],[-2,-2],[-8,7],[-2,3],[-5,-5],[-27,16],[-3,4],[5,5],[10,0],[11,-2],[9,2],[-25,15],[12,-1],[12,-2],[10,1],[6,7],[-23,15],[-7,5],[-2,-1],[0,-1],[-1,-1],[-2,-2],[4,9],[0,6],[-4,5],[-10,1],[0,5],[13,4],[5,4],[2,6],[-4,6],[-7,2],[-4,3],[5,10],[-8,3],[-8,-1],[-6,-6],[-3,-6],[-6,7],[-2,7],[0,8],[3,8],[-5,0],[-6,-9],[-7,-1],[-7,3],[-5,7]],[[0,1167],[1,7],[5,10],[4,7],[0,-8],[-5,-15],[3,-7],[8,0],[8,4],[6,6],[3,-5],[2,2],[5,3],[3,-5],[4,-7],[3,-4],[5,0],[5,12],[7,2],[7,-6],[1,-13],[20,35],[5,-1],[10,-2],[5,-2],[0,5],[-8,5],[-1,7],[4,18],[6,-2],[4,-4],[1,-6],[-1,-8],[16,16],[7,10],[-6,4],[-1,5],[-16,25],[-2,-3],[-2,-3],[-1,-3],[0,-5],[-5,0],[-3,2],[-3,1],[-4,-2],[-5,-6],[-2,17],[-2,9],[-4,4],[-9,3],[-8,7],[-10,15],[5,5],[-9,10],[-18,29],[-13,7],[20,10],[-8,0],[-5,1],[-3,4],[-4,5],[8,1],[6,4],[2,7],[-1,9],[-3,-3],[-2,-2],[-3,-2],[-2,-4],[-30,19]],[[0,1421],[5,1],[30,-9],[-6,10],[-10,8],[-11,6],[-8,6]],[[0,1612],[1,1],[9,6],[5,-5],[-7,-3],[-5,-5],[-3,-5]],[[0,1589],[8,0],[7,5],[5,8],[5,7],[1,-8],[3,-4],[4,-1],[7,4],[2,-3],[1,-3],[1,-3],[1,-2],[3,0],[12,0],[-8,12],[3,7],[7,5],[3,6],[-4,9],[-6,7],[-5,8],[0,12],[-7,-2],[-8,3],[-6,5],[1,8],[5,6],[5,-1],[5,-4],[5,-1],[3,9],[-6,10],[-17,22],[9,-4],[5,4],[0,8],[-9,7],[0,5],[16,1],[15,5],[10,10],[4,15],[-5,8],[-22,-10],[-13,2],[4,3],[7,8],[4,4],[-15,10],[-11,11],[0,13],[16,16],[1,-7],[4,-7],[6,-2],[10,6],[3,0],[3,0],[3,0],[5,15],[12,3],[10,-4],[3,-10],[-5,-14],[33,12],[7,4],[-5,7],[-30,27],[4,3],[1,2],[-5,5],[7,2],[5,6],[2,8],[1,10],[-10,-3],[-12,4],[-9,10],[-4,12],[-8,-1],[-12,8],[-4,7],[19,-2],[-2,4],[-3,11],[6,-7],[6,-2],[7,2],[6,7],[23,-7],[10,17],[0,26],[-9,20],[8,5],[7,4],[9,1],[9,0],[9,3],[0,6],[-4,9],[-2,9],[-9,5],[-56,-13],[-20,1],[-10,8],[-4,13],[-1,17],[-2,9],[-4,6],[-2,5],[3,8],[5,3],[25,7],[0,4],[-12,4],[-8,4],[-6,7],[-4,11],[2,6],[5,7],[2,5],[-11,5],[3,4],[6,4],[3,0],[15,28],[5,6],[10,4],[7,-4],[7,-5],[11,-5],[-4,14],[-11,12],[-8,14],[3,21],[6,8],[9,5],[7,7],[2,13],[-1,9],[-2,7],[1,4],[8,3],[8,4],[8,0],[7,-1],[7,-3],[-12,-13],[-4,-3],[6,-11],[-6,-6],[-10,-6],[-4,-9],[-5,-5],[-8,-13],[-5,-14],[5,-6],[14,-9],[1,-16],[-12,-12],[-25,6],[-12,-25],[-3,-10],[-1,-5],[1,-17],[1,-7],[5,-1],[4,0],[5,-5],[3,-9],[0,-7],[-3,-8],[-5,-7],[-4,-1],[-13,2],[-3,-3],[2,-7],[4,-6],[3,-6],[-2,-6],[2,-11],[24,-2],[67,6],[10,-2],[4,-6],[5,-19],[1,-10],[-6,-9],[7,-8],[10,-3],[9,3],[4,8],[5,0],[-2,-15],[-9,-3],[-12,2],[-12,-4],[-11,5],[-12,3],[-13,0],[-8,-3],[5,-3],[6,-2],[6,-1],[8,1],[-4,-5],[-9,-6],[-2,-4],[-1,-8],[2,-15],[-1,-8],[-9,-10],[-26,-10],[-10,-10],[13,1],[43,-8],[-2,-4],[-6,-3],[-3,-1],[-13,-23],[-8,-24],[20,-10],[46,-4],[1,2],[1,2],[3,2],[5,-1],[-9,-22],[-4,-3],[-8,2],[-12,6],[-5,2],[-12,-4],[-13,-17],[-47,-13],[-5,-1],[1,-11],[7,-14],[11,-12],[11,-3],[-7,-8],[-19,-7],[-4,-8],[-4,-3],[-23,-9],[-8,-1],[32,-5],[8,-5],[1,-7],[-8,-14],[-3,-10],[5,0],[10,10],[15,6],[14,-3],[6,-15],[-2,-2],[-11,-28],[-4,-8],[-3,-14],[-5,-6],[0,-5],[12,3],[7,11],[6,13],[9,8],[-4,11],[4,2],[2,1],[3,0],[5,-3],[-1,9],[-1,2],[-2,3],[4,8],[6,5],[8,2],[9,1],[3,3],[9,17],[6,5],[5,-15],[-4,-7],[-6,-5],[-6,-3],[-9,0],[0,-6],[3,0],[2,-1],[4,-4],[-4,0],[-10,-4],[7,0],[6,-1],[12,-4],[0,-5],[-14,-1],[-7,-4],[2,-5],[14,-1],[0,-5],[-7,-3],[0,-1],[-3,-6],[-7,3],[-6,-1],[-7,-1],[-10,-1],[9,-16],[13,-2],[13,-1],[10,-10],[0,5],[4,-4],[2,-1],[4,0],[-6,-7],[-3,-7],[0,-6],[4,-5],[5,0],[2,2],[3,2],[0,-23],[-2,-9],[-8,-4],[2,-2],[2,-3],[1,-2],[5,-2],[-7,-6],[-3,-7],[-5,-18],[11,-3],[3,-8],[-1,-9],[2,-10],[-10,5],[0,-8],[2,-7],[4,-4],[8,-1],[-4,-5],[-3,-5],[-2,-7],[0,-9],[-9,7],[-16,18],[-10,6],[4,-10],[5,-7],[3,-6],[-2,-8],[-5,-2],[-25,-8],[4,-7],[7,-6],[8,-1],[11,5],[4,-15],[-5,-10],[-8,-9],[-1,-12],[6,-11],[7,2],[7,8],[5,11],[12,3],[5,8],[0,10],[-2,10],[9,-6],[5,14],[0,6],[3,-1],[7,-4],[0,5],[1,10],[-1,5],[6,0],[0,-15],[-6,-24]],[[124,797],[9,18],[-4,15],[-19,28],[-7,-10],[-2,-4],[-1,-7],[-5,5],[-1,-2],[0,-2],[-4,-1],[0,10],[-11,-3],[-4,-2],[2,3],[1,5],[2,2],[-10,0],[0,6],[7,3],[3,6],[-1,8],[-4,7],[-6,1],[-6,-1],[-4,-2],[-4,-2],[5,-11],[-10,5],[-5,-13],[-1,-7],[1,-10],[-9,4],[-5,7],[-2,9],[1,10],[-5,0],[-21,-29],[-4,-13]],[[0,817],[5,-15],[10,30],[5,0],[3,-7],[1,-6],[-1,-6],[-3,-6],[9,4],[7,0],[5,-4],[4,-5],[0,-5],[-6,-1],[-3,-1],[-2,-2],[-4,-1],[3,0],[12,0],[-5,-10],[7,-3],[6,-1],[4,3],[3,6],[5,-5],[3,1],[2,2],[2,1],[3,1],[-5,-5],[-4,-6],[-1,-6],[0,-9],[5,0],[6,18],[15,7],[19,3],[14,8]],[[596,4096],[4,-2],[6,-9]],[[2155,4096],[-17,-35]],[[696,4001],[6,-4]],[[648,4045],[6,-3],[12,-12],[18,-21],[12,-8]],[[606,4085],[6,-18],[18,-13],[18,-9]],[[702,3997],[24,-28],[8,-12]],[[734,3957],[7,-12],[27,-27],[12,-21],[27,-52],[15,-12],[21,-25],[24,-21],[9,-15],[9,-27],[18,-19],[12,-24],[6,-18]],[[3988,3526],[18,6]],[[921,3684],[6,-6],[12,6],[6,-3],[0,-15],[9,-6],[6,-22],[27,-30],[12,-27],[0,-22],[-9,-69],[3,-22],[6,-6]],[[999,3462],[12,-21],[3,-24],[18,-43]],[[4006,3532],[12,0],[15,-3],[15,-9],[27,-21],[21,-9],[0,-1]],[[3940,3140],[-9,34],[0,24],[3,18],[6,21],[6,34],[-12,55],[3,30],[0,21],[-6,61],[0,18],[27,40],[24,27],[6,3]],[[2138,4061],[-18,-37],[-12,-33],[-9,-31],[-9,-36],[-12,-37],[-6,-24],[-12,-30],[-15,-31],[-9,-18],[-9,-36],[-27,-49],[-3,-33],[-6,-22],[-3,-33],[6,-49],[0,-15],[-3,-24],[-6,-21],[-15,-55],[-28,-55],[-12,-33],[-3,-33],[0,-25],[3,-42],[9,-18],[37,-28],[12,-9],[6,-21],[-3,-15],[0,-28],[-6,-21]],[[1032,3374],[6,-36],[22,-55],[24,-33],[21,-25],[9,-21],[3,-30],[3,-22],[0,-33],[9,-15],[27,-37],[21,-21],[15,-18],[24,-21]],[[3880,2906],[18,25],[12,33],[15,24],[9,16],[-3,30],[0,27],[3,19],[12,33],[0,18],[-6,9]],[[1908,2761],[1,-25]],[[1985,3119],[-6,-36],[-9,-46],[-3,-18],[-9,-34],[-10,-18],[-12,-42],[-6,-13],[-12,-36],[-3,-18],[3,-28],[-3,-18],[-6,-15],[-3,-18],[2,-18]],[[3753,2724],[28,31],[21,39],[9,15],[12,18],[18,19],[9,12],[30,48]],[[3681,2694],[36,18],[36,12]],[[420,2767],[-18,-3],[-27,-12],[-36,-22],[-30,-15],[-18,-6],[-33,-3],[-21,-6],[-33,-6],[-12,-6]],[[192,2688],[-12,24],[-18,12],[-18,24],[-10,10],[-21,12],[-39,15],[-27,6],[-18,0],[-21,12],[-8,2]],[[570,2682],[-48,6],[-15,6],[-12,12],[-12,3],[-9,9],[-33,9],[-12,12],[0,25],[-9,3]],[[1216,3007],[6,0],[42,-37],[42,-39],[42,-31],[48,-21],[27,-9],[27,-15],[30,-25],[24,-21],[39,-39],[27,-43],[15,-12],[18,-49],[15,-12],[33,-15]],[[4096,2630],[-15,9],[-15,-6],[-9,-24],[-21,-18],[-9,3],[-12,12],[-18,6],[-9,18],[-15,6],[-18,-9],[-12,0],[-9,6],[-24,3],[-12,6],[-15,24],[-21,13],[-27,6],[-15,12],[-6,18],[-12,12],[-21,3],[-28,-6]],[[834,2487],[-12,15],[-21,16],[-42,54],[-15,12],[-18,19],[-24,15],[-36,3],[-21,12],[-27,12],[-18,12],[-18,22],[-12,3]],[[3495,2433],[-6,15],[12,24],[3,27],[3,25],[9,33],[3,18],[-6,22],[3,15],[12,6],[24,9],[18,24],[12,6],[15,6],[15,0],[9,-3],[15,3],[36,28],[9,3]],[[1909,2736],[-3,-15],[-1,-2]],[[1905,2719],[-14,-28],[-15,-40],[-9,-18],[-6,-21],[0,-37],[9,-36],[9,-37],[6,-27],[0,-33],[9,-31]],[[1651,2639],[15,-9],[15,-15],[12,-24],[6,-10],[6,-21],[18,-18],[15,-9],[12,-27],[12,-10],[9,-15],[21,-9],[21,0],[15,-9],[18,-12],[15,-21],[15,-16],[18,-3]],[[3369,2153],[9,25],[1,2]],[[3379,2180],[11,43],[21,61],[21,51],[15,28],[39,54],[9,16]],[[3306,2114],[33,18],[24,18],[6,3]],[[3090,1853],[9,17]],[[3287,2091],[4,5],[15,18]],[[3099,1870],[6,10],[15,27],[9,21],[12,22],[9,12],[12,9],[39,18],[24,18],[27,37],[9,12],[26,35]],[[1894,2411],[9,-18],[3,-15],[-3,-46],[-12,-79],[0,-18],[3,-27],[0,-24],[6,-34],[-3,-39],[-3,-25],[3,-24],[18,-45],[3,-19],[12,-27],[3,-27],[0,-16],[-18,-24],[-18,-18],[-21,-36],[-24,-31],[-24,-30],[-18,-15]],[[2435,1819],[3,-15],[-3,-18],[18,0],[33,6],[15,-3],[18,-12],[21,-28],[18,-12],[9,-6],[42,-6]],[[1810,1774],[24,-6],[15,3],[18,6],[15,-3],[21,-10],[18,-6],[27,0],[19,-3],[48,-30],[36,-12],[24,-9],[18,0],[24,3],[18,0],[27,-9],[18,-3],[18,3],[15,18],[18,30],[18,15],[27,13],[30,33],[18,12],[18,6],[36,0],[36,-6],[21,0]],[[2877,1622],[-12,3],[24,21],[26,29]],[[2936,1694],[5,4]],[[2975,1727],[1,1],[10,17]],[[3077,1836],[13,17]],[[2915,1675],[10,11],[11,8]],[[2941,1698],[8,6],[26,23]],[[2986,1745],[8,13],[9,13],[18,18],[36,24],[12,12],[8,11]],[[2769,1666],[14,-2],[18,-3],[29,-17]],[[2843,1636],[3,-2],[15,-12],[16,0]],[[2609,1725],[12,-3],[72,-40],[21,-9],[55,-7]],[[2830,1644],[13,-8]],[[2868,1619],[9,3]],[[1810,1774],[-21,-10],[-27,-6],[-51,6],[-36,-18],[-33,-3],[-12,-15],[-6,-42],[-12,-40],[-18,-61]],[[1438,1701],[21,-3],[39,-19],[21,-6],[18,-6],[6,-12],[6,-18],[15,-27],[18,-16],[12,-9]],[[930,1607],[-18,-3],[-12,-10],[-12,-18],[-18,-6]],[[834,2475],[0,-15],[-3,-9],[-21,-18],[-12,-16],[-6,-24],[0,-42],[-9,-28],[-15,-33],[-15,-24],[-15,-61],[-21,-37],[-6,-18],[-3,-21],[12,-30],[6,-58],[6,-24],[6,-16],[30,-12],[21,-15],[18,-21],[18,-34],[3,-21],[-3,-76],[6,-15],[9,-9],[6,-24],[18,-25],[9,-21],[-6,-42],[0,-46],[3,-49],[0,-21]],[[930,1607],[45,-31],[21,-12],[27,-6],[15,0],[28,6],[27,9],[24,12],[39,22],[15,3],[42,6],[24,3],[9,15],[12,9],[9,3],[33,3],[30,3],[27,9],[27,12],[30,16],[24,12]],[[870,1570],[0,-42],[-3,-16],[-12,-30],[0,-18],[-15,-28],[-3,-18],[-12,-12]],[[2849,1394],[-6,27],[7,23]],[[2859,1610],[2,6],[7,3]],[[2850,1444],[5,20],[3,27],[0,9],[-6,12],[0,19],[-3,15],[9,33],[0,31],[1,0]],[[2849,1394],[12,-30],[7,-25],[3,-15]],[[2871,1324],[-25,-9],[-15,-12]],[[2831,1303],[-3,18],[12,24],[9,34],[0,15]],[[2871,1324],[0,-24]],[[2871,1300],[-37,0]],[[2834,1300],[-3,3]],[[2871,1300],[-6,-21]],[[2865,1279],[-31,21]],[[2865,1279],[-13,-19],[-27,-21],[-12,-6]],[[2813,1233],[9,30],[6,16],[6,21]],[[1507,1163],[3,-15]],[[1594,1585],[0,-15],[3,-15],[24,-27],[0,-22],[-15,-24],[-18,-18],[-24,-18],[-36,-28],[-12,-15],[-3,-18],[-6,-43],[3,-27],[6,-55],[-3,-39],[-6,-37],[0,-21]],[[2813,1233],[-10,-5]],[[2803,1228],[-50,-25],[-33,-19],[-21,-21],[-18,-33],[-21,-49],[-12,-33],[-12,-43],[-9,-18]],[[825,1406],[6,-9],[9,-12],[0,-18],[3,-25],[9,-45],[3,-25],[-6,-72],[0,-55],[3,-21],[9,-34],[-3,-6],[-15,-12],[0,-27],[15,-64]],[[2627,987],[-3,-12]],[[2654,957],[6,12],[4,8]],[[2664,977],[14,31],[12,46],[6,27],[9,21],[18,16],[18,12],[15,12],[21,3],[6,6],[18,49]],[[2654,957],[-14,8]],[[2640,965],[-16,10]],[[2672,944],[-18,13]],[[2852,884],[-27,11]],[[2718,915],[-4,2],[-15,18],[-27,9]],[[2825,895],[-3,1],[-18,3],[-15,9],[-27,3],[-36,0],[-8,4]],[[2868,881],[-16,3]],[[2901,868],[-15,7],[-18,6]],[[3075,817],[-18,3],[-63,21],[-18,0],[-30,6],[-30,15],[-15,6]],[[3552,826],[-11,0]],[[3541,826],[-40,0],[-24,-6],[-27,-9],[-15,-3],[-27,0],[-45,3],[-18,0],[-63,6],[-48,-3],[-36,3],[-18,0],[-21,-9],[-12,-3],[-30,0],[-42,12]],[[1510,1148],[12,-15]],[[1522,1133],[9,-28],[15,-36],[12,-21],[18,-15],[21,-13],[30,-12],[9,-12],[9,-9],[27,-9],[3,-6],[-21,-21],[-18,-31],[-6,-27],[-21,-6],[-12,-9],[-6,-25],[0,-21],[-6,-21],[0,-15],[-9,-22],[-3,-18]],[[2549,738],[18,3],[23,11]],[[2590,752],[10,4],[27,3],[18,6],[15,3],[33,-9],[9,-3],[36,6],[24,0],[15,3]],[[2558,796],[3,-25],[-3,-18],[-9,-15]],[[2672,944],[-6,-15],[-6,-15],[-15,-15],[-11,-8]],[[2634,891],[-43,-29],[-9,-9],[-15,-27],[-9,-30]],[[2982,729],[15,15],[27,3],[12,18],[9,18],[9,16],[21,18]],[[2874,734],[24,-5]],[[2777,765],[21,0],[24,-3],[27,-18],[19,-9],[6,-1]],[[2898,729],[15,-3],[4,0]],[[2917,726],[56,0],[9,3]],[[2892,720],[6,9]],[[2514,736],[-7,-1],[-18,-12],[-15,-12]],[[2549,738],[-18,0]],[[2531,738],[-9,0],[-8,-2]],[[2474,711],[3,15],[-12,51],[2,14]],[[2467,791],[1,5],[6,21],[9,15],[54,64],[30,27],[33,28],[18,15],[6,9]],[[2474,711],[-12,-40],[0,-30]],[[3560,826],[-8,0]],[[4075,623],[-3,9],[-24,24],[-6,18],[-15,15],[-39,25],[-24,12],[-18,6],[-18,12],[-21,27],[-12,9],[-27,3],[-21,-6],[-15,0],[-12,3],[-27,16],[-40,24],[-27,12],[-39,9],[-27,0],[-36,-6],[-51,-9],[-13,0]],[[2471,612],[6,-5]],[[2387,626],[36,3],[33,-3],[12,-11]],[[2468,615],[3,-3]],[[2387,626],[-60,-3],[-32,-9]],[[2295,614],[-4,-1],[-45,-9],[-30,-3],[-15,0],[-51,3]],[[880,605],[1,-13]],[[858,981],[9,-40],[0,-15],[3,-30],[-3,-12],[-9,-19],[-3,-12],[6,-36],[-3,-24],[0,-25],[12,-54],[3,-49],[9,-30],[-3,-28],[1,-2]],[[881,592],[1,-9]],[[1952,574],[-10,-3],[-6,-3]],[[2150,604],[-24,0],[-36,-15],[-33,-3],[-45,-3],[-27,0],[-33,-9]],[[1563,548],[22,8]],[[1620,564],[4,1],[24,3],[27,-6],[21,0],[27,-6]],[[1528,541],[17,3]],[[1545,544],[13,3],[5,1]],[[1585,556],[15,6],[20,2]],[[1542,608],[-5,-10],[-9,-36],[0,-21]],[[1573,756],[-6,-39],[3,-31],[-3,-30],[-9,-18],[-16,-30]],[[1375,550],[24,6],[24,-9],[9,0],[12,6],[12,21]],[[1458,574],[7,0],[30,-21],[12,-6],[21,-6]],[[1456,574],[2,0]],[[1723,556],[27,0],[15,-6],[9,-13]],[[1774,537],[3,-6],[18,0],[15,3],[48,10],[42,0],[18,3]],[[4096,525]],[[4096,525],[-6,22],[-3,36],[-11,35]],[[4076,618],[-1,5]],[[1374,549],[1,1]],[[1186,443],[45,19],[33,3],[15,6],[45,6],[6,6],[6,15],[18,12],[9,24],[11,15]],[[889,484],[-1,-4],[0,-46],[3,-24]],[[882,583],[3,-18],[0,-18],[6,-31],[-2,-32]],[[1123,434],[9,3],[30,0]],[[897,373],[21,4],[27,12],[45,9],[51,18],[64,12],[18,6]],[[1162,437],[6,0],[18,6]],[[894,373],[3,0]],[[846,362],[3,2],[18,4]],[[837,355],[9,7]],[[867,368],[27,5]],[[823,364],[10,-6]],[[822,364],[1,0]],[[833,358],[4,-3]],[[513,297],[3,1],[2,2]],[[630,317],[3,-1],[14,1]],[[669,318],[21,-2],[15,-3],[16,6]],[[776,343],[21,11]],[[477,285],[36,12]],[[518,300],[19,19],[12,24],[21,18],[15,0],[18,-15],[15,-24],[12,-5]],[[647,317],[13,2],[9,-1]],[[721,319],[38,15],[17,9]],[[797,354],[19,10],[6,0]],[[432,273],[45,12]],[[225,698],[-30,-39],[-18,-12],[-9,-24],[-12,-19],[-12,-6],[-13,-15],[0,-9],[6,-21],[-3,-12],[-18,-31],[-12,-12],[-6,-15],[0,-12],[-6,-6],[-24,-10],[-9,-6],[-3,-18],[-12,-42],[-9,-58],[3,-27],[-3,-22],[-6,-6],[-21,-9]],[[381,200],[3,13],[0,42],[9,15],[9,3],[15,3]],[[4096,525],[0,-1]],[[8,267],[-6,-9],[-2,-2]],[[0,63],[10,9]],[[10,72],[40,34],[12,6],[39,12],[33,16],[49,21],[15,9],[27,12],[57,3],[36,9],[33,3],[30,3]],[[5,19],[-5,6]],[[0,10],[11,2],[-6,7]],[[4096,4096],[0,-4096],[-89,0],[0,1],[-13,13],[-15,10],[-12,6],[-14,-1],[-7,-7],[-9,-22],[-63,0],[-2,3],[1,12],[13,40],[2,11],[-1,14],[-5,0],[-20,-55],[-8,-14],[-9,-10],[-3,-1],[-100,0],[-7,9],[-9,15],[-7,21],[-7,10],[-7,13],[-2,17],[2,15],[4,17],[7,13],[9,6],[8,-3],[15,-11],[5,-2],[4,5],[-2,6],[-3,8],[1,7],[23,20],[60,22],[16,29],[-15,-3],[-25,-23],[-29,-8],[-55,-30],[-10,-7],[-37,-35],[-8,1],[-27,60],[-31,41],[-57,75],[-15,14],[-29,12],[-13,15],[-18,29],[-26,27],[-22,18],[-55,35],[-24,15],[-45,43],[-28,18],[-11,5],[-64,28],[-46,9],[-158,29],[-186,16],[-310,-16],[-17,3],[-9,6],[-7,8],[-10,8],[7,4],[5,1],[4,-1],[4,-4],[12,11],[4,-4],[1,-11],[3,-11],[26,23],[4,0],[2,-6],[6,0],[10,3],[13,0],[13,3],[11,6],[10,11],[1,8],[-1,8],[0,7],[7,2],[30,0],[16,4],[32,10],[9,-3],[17,6],[14,9],[11,12],[4,16],[9,3],[60,9],[-5,5],[-5,2],[-4,0],[-6,-2],[-41,10],[-41,-16],[-39,-22],[-35,-12],[-14,0],[-7,-1],[-26,-14],[-8,-3],[-9,-2],[-9,0],[-2,2],[-9,3],[-9,-1],[-5,4],[-2,2],[-3,10],[-1,9],[5,16],[1,10],[-13,-7],[-8,-8],[-16,-17],[-6,-3],[-8,0],[-6,-2],[-3,-6],[1,-5],[4,-11],[0,-7],[-3,-7],[-10,-16],[-2,-9],[-3,-5],[-5,-4],[-3,-5],[4,-6],[3,-4],[2,-4],[1,-4],[4,-4],[-3,-16],[-43,-5],[-81,4],[-96,-11],[-113,5],[-163,-15],[-1,0],[-288,-27],[-58,-13],[-250,-29],[-193,-45],[-138,-23],[-115,-36],[-53,-23],[-5,0],[-5,-1],[-5,-2],[-33,-18],[-25,-20],[-37,-40],[-8,-13],[-18,-36],[-4,-14],[-1,-15],[-7,-35],[-7,-13],[-23,-22],[-29,-10],[-139,-16],[-261,19],[-32,-2],[-17,-4],[-9,-3],[-3,-5],[-4,-2],[-18,-1],[-6,-2],[-14,-10],[-48,-13],[-12,-8],[-20,-18],[-28,-9],[-10,-11],[-8,-13],[-12,-12],[-25,-8],[0,4095],[3615,0],[481,0]],[[3991,0],[-42,0],[3,5],[9,4],[12,-1],[11,-3],[7,-5]],[[724,3393],[76,-54],[136,-83],[-129,-28],[-65,88],[-18,77]],[[0,1387],[79,-112],[39,3],[7,-53],[-51,-58],[-74,-1],[0,221]],[[0,50],[24,-8],[-24,-29],[0,37]],[[565,107],[-44,-4],[-13,48],[47,-18],[10,-26]],[[0,101],[12,-26],[-12,-20],[0,46]],[[589,151],[-21,9],[1,32],[28,0],[-8,-41]],[[725,164],[-16,15],[25,38],[-2,-18],[-7,-35]],[[658,118],[-46,-6],[-23,31],[58,-11],[11,-14]],[[638,217],[-25,41],[8,24],[26,-24],[-9,-41]],[[686,421],[-21,8],[-3,25],[21,-7],[3,-26]],[[748,447],[-10,24],[21,8],[-3,-26],[-8,-6]],[[1076,546],[-26,-35],[-48,9],[8,24],[66,2]],[[1154,524],[-32,-25],[-31,4],[40,41],[23,-20]],[[1172,439],[-52,-9],[31,40],[21,-31]],[[1079,452],[-21,27],[17,8],[24,-17],[-20,-18]],[[961,520],[-23,8],[5,16],[14,4],[4,-28]],[[1577,527],[-17,25],[6,9],[34,-9],[-23,-25]],[[800,317],[-41,-11],[27,59],[18,-17],[-4,-31]],[[581,373],[-13,6],[-3,18],[32,0],[-16,-24]],[[662,372],[-22,11],[6,22],[19,-14],[-3,-19]],[[929,430],[81,8],[-7,34],[57,-29],[-24,-28],[-212,-59],[-13,109],[69,30],[49,-65]],[[395,790],[-44,-72],[-21,-2],[33,33],[-17,32],[49,9]],[[1330,725],[-7,18],[35,14],[-4,-17],[-24,-15]],[[2905,788],[14,-72],[-33,-8],[-16,32],[35,48]],[[2587,781],[8,-73],[-50,-9],[-14,41],[19,60],[37,-19]],[[1268,755],[-8,-15],[-25,15],[20,19],[13,-19]],[[2927,986],[-18,11],[14,28],[20,-6],[-16,-33]],[[348,1109],[-18,0],[6,31],[27,10],[-15,-41]],[[2366,1028],[-10,24],[21,8],[-3,-26],[-8,-6]],[[1341,953],[-8,-49],[-57,28],[65,46],[17,-17],[-17,-8]],[[476,937],[-16,6],[-4,14],[28,4],[-8,-24]],[[2692,961],[33,-24],[-8,-25],[-75,-48],[-10,36],[28,45],[-24,25],[40,11],[16,-20]],[[2218,920],[-27,9],[8,13],[29,-4],[-10,-18]],[[2344,929],[-8,49],[25,0],[0,-17],[-17,-32]],[[2881,971],[-35,-1],[34,31],[1,-30]],[[3543,818],[-5,23],[43,9],[-1,-14],[-37,-18]],[[1480,874],[-58,-35],[-1,-33],[-31,24],[90,44]],[[2878,932],[41,-28],[-24,-49],[-70,27],[-1,36],[54,14]],[[1549,1169],[-18,14],[-4,16],[32,-12],[-10,-18]],[[3768,1249],[44,7],[28,-33],[-35,-54],[-59,45],[-2,34],[24,1]],[[2455,1523],[-34,-10],[-4,21],[24,0],[14,-11]],[[2632,1558],[20,-17],[-32,-31],[-17,16],[29,32]],[[3830,1330],[3,-25],[-41,16],[23,18],[15,-9]],[[3970,1374],[0,-20],[-40,8],[7,13],[33,-1]],[[2490,1354],[-16,0],[0,33],[22,-9],[-6,-24]],[[3820,1389],[-13,-19],[-39,1],[33,49],[19,-31]],[[3348,1428],[0,-90],[-65,24],[24,25],[-8,41],[16,-17],[33,17]],[[2498,1395],[-4,28],[29,13],[-3,-31],[-22,-10]],[[2555,1428],[-31,19],[-2,30],[37,-33],[-4,-16]],[[3477,1452],[-26,11],[-6,30],[34,-11],[-2,-30]],[[3813,1487],[-2,-30],[-35,12],[25,41],[12,-23]],[[3032,1477],[-6,12],[22,29],[12,-23],[-28,-18]],[[3542,1051],[-49,58],[73,16],[-16,-25],[-8,-49]],[[1483,1159],[39,7],[14,-33],[-65,0],[16,-73],[-24,0],[-25,106],[45,-7]],[[1719,1194],[43,13],[-16,-66],[-57,25],[8,49],[22,-21]],[[2442,1184],[16,15],[48,-33],[-24,-49],[-73,-41],[-32,82],[41,9],[-1,40],[25,-23]],[[1859,1141],[-25,8],[-7,25],[25,-7],[7,-26]],[[4096,1161],[0,-29],[-65,16],[42,49],[23,-6],[0,-8],[-4,-17],[4,-5]],[[2830,1485],[-7,-19],[47,-38],[8,-66],[41,9],[-3,-36],[35,-22],[8,82],[41,8],[-16,-32],[32,-33],[-11,-35],[11,-14],[8,41],[26,-7],[39,-59],[-203,8],[-12,-30],[-36,-5],[-19,-72],[-21,83],[-57,57],[73,33],[-33,46],[57,3],[-37,80],[29,18]],[[3006,1610],[-22,14],[6,13],[24,-5],[-8,-22]],[[3401,1679],[-21,27],[17,9],[23,-17],[-19,-19]],[[3739,1740],[-27,-1],[2,16],[38,0],[-13,-15]],[[3082,1834],[-9,3],[-9,49],[38,-17],[-20,-35]],[[3445,1853],[-25,25],[6,8],[22,-6],[-3,-27]],[[3312,2167],[36,-11],[32,25],[33,-24],[-49,-9],[40,-41],[-32,0],[-55,-52],[-10,35],[-32,1],[-16,65],[40,0],[-7,26],[20,-15]],[[3265,1633],[-14,8],[17,42],[31,-26],[-34,-24]],[[2628,1722],[-23,11],[6,22],[19,-14],[-2,-19]],[[2992,1737],[-8,-15],[-26,15],[20,19],[14,-19]],[[852,2462],[-11,7],[-1,23],[24,-1],[-12,-29]],[[1908,2712],[-9,25],[9,25],[28,-26],[-28,-24]],[[395,3694],[-15,21],[15,20],[16,-8],[-16,-33]],[[3528,3785],[-32,6],[-3,18],[46,1],[-11,-25]],[[3244,1534],[-29,25],[-5,16],[41,-8],[-7,-33]],[[2518,1618],[-19,-26],[-9,-1],[8,50],[20,-23]],[[2709,1567],[-16,13],[-1,28],[23,-15],[-6,-26]],[[3336,1588],[1,-19],[-38,14],[16,49],[47,-20],[-26,-24]],[[2836,1696],[107,2],[-32,-17],[20,-34],[-77,-39],[-16,41],[-38,-23],[-43,31],[41,33],[-9,32],[47,-26]],[[1619,643],[-27,-1],[28,24],[-1,-23]],[[1131,626],[24,-8],[-5,-13],[-28,-1],[9,22]],[[1196,641],[-8,-15],[-25,15],[19,18],[14,-18]],[[1236,550],[31,-14],[-39,-66],[-32,-8],[-30,62],[20,19],[10,-40],[14,12],[-18,84],[28,2],[16,-51]],[[888,585],[-16,17],[33,16],[-6,-28],[-11,-5]],[[4096,600],[0,-131],[-28,10],[-25,65],[25,82],[28,-26]],[[1163,553],[-16,7],[-8,25],[20,0],[4,-32]],[[3437,544],[-32,24],[-1,17],[25,0],[8,-41]],[[1731,578],[75,-11],[116,34],[42,-39],[-225,-30],[-97,9],[-34,36],[49,0],[-8,49],[71,12],[18,-4],[-7,-56]],[[1442,692],[13,-25],[-49,-57],[10,-40],[71,7],[-15,27],[31,22],[-12,-28],[20,-21],[49,49],[-16,-90],[-154,-8],[-24,32],[-29,-2],[4,60],[25,-17],[32,33],[-39,58],[83,0]],[[2620,626],[-90,-40],[-39,2],[-23,20],[-3,-32],[-185,42],[-55,52],[-10,46],[21,9],[3,-34],[114,-32],[-33,32],[25,32],[-33,58],[32,25],[0,49],[54,-7],[11,-34],[81,-33],[33,-62],[-48,-36],[-7,-72],[29,10],[8,-26],[96,50],[19,-19]],[[3484,643],[-21,13],[30,19],[13,-10],[-22,-22]],[[1147,657],[-8,-15],[-25,15],[20,19],[13,-19]],[[1212,651],[-16,16],[8,24],[16,-16],[-8,-24]],[[3153,675],[-5,10],[5,39],[20,-35],[-20,-14]],[[2037,700],[-37,-2],[-3,-31],[-33,8],[8,-41],[-64,-8],[-57,49],[-8,41],[57,25],[0,49],[74,19],[47,-11],[0,-41],[-24,-17],[40,-40]],[[764,4072],[47,-84],[-92,46],[-29,-42],[-82,104],[143,0],[74,0],[-31,-22],[-30,-2]],[[446,258],[98,57],[210,5],[73,47],[11,-17],[-75,-63],[-50,-124],[-41,-38],[-182,-8],[-44,141]],[[219,3270],[76,165],[58,-6],[-64,6],[60,180],[17,151],[165,95],[-62,89],[14,19],[174,-8],[-23,-137],[-46,-33],[-13,-165],[-89,-57],[-112,-142],[-6,0],[13,-41],[43,-9],[144,35],[135,-115],[-47,-96],[-187,-21],[-48,53],[-192,-11],[-10,48]],[[690,3992],[29,42],[92,-46],[-20,66],[-27,8],[61,34],[27,-13],[-11,13],[436,0],[274,0],[-17,-41],[-98,-45],[-171,6],[3,15],[-122,-78],[-6,8],[-200,-253],[-123,184],[-127,100]]]}