{"objects":{"water":{"type":"GeometryCollection","geometries":[{"type":"Polygon","properties":{"source":"naturalearthdata.com","kind":"ocean","area":1444195503964160,"sort_rank":200,"min_zoom":0.0,"id":1},"arcs":[[0],[1],[2],[3],[4],[5],[6],[7],[8],[9],[10],[11],[12],[13],[14],[15],[16],[17],[18],[19],[20],[21],[22],[23],[24],[25],[26],[27],[28],[29],[30],[31],[32],[33],[34],[35],[36],[37],[38],[39],[40],[41],[42],[43]]},{"type":"LineString","properties":{"source":"naturalearthdata.com","kind":"ocean","sort_rank":205,"boundary":true,"min_zoom":0.0,"id":1},"arcs":[44]},{"type":"LineString","properties":{"source":"naturalearthdata.com","kind":"ocean","sort_rank":205,"boundary":true,"min_zoom":0.0,"id":2},"arcs":[45]},{"type":"LineString","properties":{"source":"naturalearthdata.com","kind":"ocean","sort_rank":205,"boundary":true,"min_zoom":0.0,"id":8},"arcs":[46]},{"type":"LineString","properties":{"source":"naturalearthdata.com","kind":"ocean","sort_rank":205,"boundary":true,"min_zoom":0.0,"id":9},"arcs":[47]},{"type":"LineString","properties":{"source":"naturalearthdata.com","kind":"ocean","sort_rank":205,"boundary":true,"min_zoom":0.0,"id":15},"arcs":[48]},{"type":"LineString","properties":{"source":"naturalearthdata.com","kind":"ocean","sort_rank":205,"boundary":true,"min_zoom":0.0,"id":299},"arcs":[49]},{"type":"LineString","properties":{"source":"naturalearthdata.com","kind":"ocean","sort_rank":205,"boundary":true,"min_zoom":0.0,"id":329},"arcs":[50]},{"type":"LineString","properties":{"source":"naturalearthdata.com","kind":"ocean","sort_rank":205,"boundary":true,"min_zoom":0.0,"id":330},"arcs":[51]},{"type":"LineString","properties":{"source":"naturalearthdata.com","kind":"ocean","sort_rank":205,"boundary":true,"min_zoom":0.0,"id":331},"arcs":[52]},{"type":"LineString","properties":{"source":"naturalearthdata.com","kind":"ocean","sort_rank":205,"boundary":true,"min_zoom":0.0,"id":332},"arcs":[53]},{"type":"LineString","properties":{"source":"naturalearthdata.com","kind":"ocean","sort_rank":205,"boundary":true,"min_zoom":0.0,"id":333},"arcs":[54]},{"type":"LineString","properties":{"source":"naturalearthdata.com","kind":"ocean","sort_rank":205,"boundary":true,"min_zoom":0.0,"id":334},"arcs":[55]},{"type":"LineString","properties":{"source":"naturalearthdata.com","kind":"ocean","sort_rank":205,"boundary":true,"min_zoom":0.0,"id":335},"arcs":[56]},{"type":"LineString","properties":{"source":"naturalearthdata.com","kind":"ocean","sort_rank":205,"boundary":true,"min_zoom":0.0,"id":336},"arcs":[57]},{"type":"LineString","properties":{"source":"naturalearthdata.com","kind":"ocean","sort_rank":205,"boundary":true,"min_zoom":0.0,"id":337},"arcs":[58]},{"type":"LineString","properties":{"source":"naturalearthdata.com","kind":"ocean","sort_rank":205,"boundary":true,"min_zoom":0.0,"id":338},"arcs":[59]},{"type":"LineString","properties":{"source":"naturalearthdata.com","kind":"ocean","sort_rank":205,"boundary":true,"min_zoom":0.0,"id":339},"arcs":[60]},{"type":"LineString","properties":{"source":"naturalearthdata.com","kind":"ocean","sort_rank":205,"boundary":true,"min_zoom":0.0,"id":340},"arcs":[61]},{"type":"LineString","properties":{"source":"naturalearthdata.com","kind":"ocean","sort_rank":205,"boundary":true,"min_zoom":0.0,"id":341},"arcs":[62]},{"type":"LineString","properties":{"source":"naturalearthdata.com","kind":"ocean","sort_rank":205,"boundary":true,"min_zoom":0.0,"id":342},"arcs":[63]},{"type":"LineString","properties":{"source":"naturalearthdata.com","kind":"ocean","sort_rank":205,"boundary":true,"min_zoom":0.0,"id":403},"arcs":[64]},{"type":"LineString","properties":{"source":"naturalearthdata.com","kind":"ocean","sort_rank":205,"boundary":true,"min_zoom":0.0,"id":404},"arcs":[65]},{"type":"LineString","properties":{"source":"naturalearthdata.com","kind":"ocean","sort_rank":205,"boundary":true,"min_zoom":0.0,"id":405},"arcs":[66]},{"type":"LineString","properties":{"source":"naturalearthdata.com","kind":"ocean","sort_rank":205,"boundary":true,"min_zoom":0.0,"id":406},"arcs":[67]},{"type":"LineString","properties":{"source":"naturalearthdata.com","kind":"ocean","sort_rank":205,"boundary":true,"min_zoom":0.0,"id":407},"arcs":[68]},{"type":"LineString","properties":{"source":"naturalearthdata.com","kind":"ocean","sort_rank":205,"boundary":true,"min_zoom":0.0,"id":408},"arcs":[69]},{"type":"LineString","properties":{"source":"naturalearthdata.com","kind":"ocean","sort_rank":205,"boundary":true,"min_zoom":0.0,"id":409},"arcs":[70]},{"type":"LineString","properties":{"source":"naturalearthdata.com","kind":"ocean","sort_rank":205,"boundary":true,"min_zoom":0.0,"id":410},"arcs":[71]},{"type":"LineString","properties":{"source":"naturalearthdata.com","kind":"ocean","sort_rank":205,"boundary":true,"min_zoom":0.0,"id":411},"arcs":[72]},{"type":"LineString","properties":{"source":"naturalearthdata.com","kind":"ocean","sort_rank":205,"boundary":true,"min_zoom":0.0,"id":413},"arcs":[73]},{"type":"LineString","properties":{"source":"naturalearthdata.com","kind":"ocean","sort_rank":205,"boundary":true,"min_zoom":0.0,"id":414},"arcs":[74]},{"type":"LineString","properties":{"source":"naturalearthdata.com","kind":"ocean","sort_rank":205,"boundary":true,"min_zoom":0.0,"id":415},"arcs":[75]},{"type":"LineString","properties":{"source":"naturalearthdata.com","kind":"ocean","sort_rank":205,"boundary":true,"min_zoom":0.0,"id":416},"arcs":[76]},{"type":"LineString","properties":{"source":"naturalearthdata.com","kind":"ocean","sort_rank":205,"boundary":true,"min_zoom":0.0,"id":417},"arcs":[77]},{"type":"LineString","properties":{"source":"naturalearthdata.com","kind":"ocean","sort_rank":205,"boundary":true,"min_zoom":0.0,"id":418},"arcs":[78]},{"type":"LineString","properties":{"source":"naturalearthdata.com","kind":"ocean","sort_rank":205,"boundary":true,"min_zoom":0.0,"id":419},"arcs":[79]},{"type":"LineString","properties":{"source":"naturalearthdata.com","kind":"ocean","sort_rank":205,"boundary":true,"min_zoom":0.0,"id":420},"arcs":[80]},{"type":"LineString","properties":{"source":"naturalearthdata.com","kind":"ocean","sort_rank":205,"boundary":true,"min_zoom":0.0,"id":421},"arcs":[81]},{"type":"LineString","properties":{"source":"naturalearthdata.com","kind":"ocean","sort_rank":205,"boundary":true,"min_zoom":0.0,"id":422},"arcs":[82]},{"type":"MultiLineString","properties":{"source":"naturalearthdata.com","kind":"ocean","sort_rank":205,"boundary":true,"min_zoom":0.0,"id":423},"arcs":[[83],[84]]},{"type":"LineString","properties":{"source":"naturalearthdata.com","kind":"ocean","sort_rank":205,"boundary":true,"min_zoom":0.0,"id":424},"arcs":[85]},{"type":"LineString","properties":{"source":"naturalearthdata.com","kind":"ocean","sort_rank":205,"boundary":true,"min_zoom":0.0,"id":425},"arcs":[86]},{"type":"MultiLineString","properties":{"source":"naturalearthdata.com","kind":"ocean","sort_rank":205,"boundary":true,"min_zoom":0.0,"id":1317},"arcs":[[87],[88]]},{"type":"LineString","properties":{"source":"naturalearthdata.com","kind":"ocean","sort_rank":205,"boundary":true,"min_zoom":0.0,"id":1352},"arcs":[89]},{"type":"LineString","properties":{"source":"naturalearthdata.com","kind":"ocean","sort_rank":205,"boundary":true,"min_zoom":0.0,"id":1356},"arcs":[90]},{"type":"LineString","properties":{"source":"naturalearthdata.com","kind":"ocean","sort_rank":205,"boundary":true,"min_zoom":0.0,"id":1363},"arcs":[91]},{"type":"LineString","properties":{"source":"naturalearthdata.com","kind":"ocean","sort_rank":205,"boundary":true,"min_zoom":0.0,"id":1364},"arcs":[92]},{"type":"LineString","properties":{"source":"naturalearthdata.com","kind":"ocean","sort_rank":205,"boundary":true,"min_zoom":0.0,"id":1416},"arcs":[93]},{"type":"LineString","properties":{"source":"naturalearthdata.com","kind":"ocean","sort_rank":205,"boundary":true,"min_zoom":0.0,"id":1417},"arcs":[94]},{"type":"LineString","properties":{"source":"naturalearthdata.com","kind":"ocean","sort_rank":205,"boundary":true,"min_zoom":0.0,"id":1418},"arcs":[95]},{"type":"LineString","properties":{"source":"naturalearthdata.com","kind":"ocean","sort_rank":205,"boundary":true,"min_zoom":0.0,"id":1419},"arcs":[96]},{"type":"LineString","properties":{"source":"naturalearthdata.com","kind":"ocean","sort_rank":205,"boundary":true,"min_zoom":0.0,"id":1420},"arcs":[97]},{"type":"LineString","properties":{"source":"naturalearthdata.com","kind":"ocean","sort_rank":205,"boundary":true,"min_zoom":0.0,"id":1421},"arcs":[98]},{"type":"Point","properties":{"label_placement":true,"kind":"sea","name":"Koro Sea","source":"openstreetmap.org","sort_rank":200,"min_zoom":3.0,"id":4788181612},"coordinates":[4066,798]}]},"buildings":{"type":"GeometryCollection","geometries":[]},"places":{"type":"GeometryCollection","geometries":[{"type":"Point","properties":{"name:ka":"\u10e4\u10d8\u10ef\u10d8","name:mt":"Fi\u0121i","name:ko":"\ud53c\uc9c0","name:kn":"\u0cab\u0cbf\u0c9c\u0cbf","name:km":"\u17a0\u17d2\u179c\u17b8\u1787\u17b8","name:cs":"Fid\u017ei","name:ku":"F\u00eej\u00ee","name:ti":"\u134a\u1302","name:ks":"\u0641\u0650\u062c\u06cc","name:to":"Fisi","name:tl":"Pidyi","name:or":"\u0b2b\u0b3f\u0b1c\u0b3f","name:pl":"Fid\u017ci","name:ta":"\u0b83\u0baa\u0bbf\u0b9c\u0bbf","name:te":"\u0c2b\u0c3f\u0c1c\u0c3f","name:hu":"Fidzsi-szigetek","name:cy":"Ffiji","name:hr":"Fid\u017ei","name:de":"Fidschi","name:dz":"\u0f55\u0f72\u0f0b\u0f47\u0f72","source":"openstreetmap.org","name:lv":"Fid\u017ei","name:lt":"Fid\u017eis","name:hi":"\u092b\u093f\u091c\u0940","name:he":"\u05e4\u05d9\u05d2'\u05d9","kind":"country","name:ur":"\u0641\u062c\u06cc","name:lb":"Fidschi","name:la":"Viti","official_name":"Matanitu Tu-Vaka-i-koya ko Viti","name:uk":"\u0424\u0456\u0434\u0436\u0456","name:hy":"\u0556\u056b\u057b\u056b","min_zoom":2.0,"name:li":"Fidzji-eilen","name:ln":"Fidzi","name:lo":"\u0e9f\u0eb4\u0e88\u0eb4","population":931741,"name:el":"\u03a6\u03af\u03c4\u03b6\u03b9","name:eo":"Fi\u011dio","name":"Fiji","name:is":"F\u00eddjieyjar","name:ee":"Fidzi nutome","name:th":"\u0e1b\u0e23\u0e30\u0e40\u0e17\u0e28\u0e1f\u0e34\u0e08\u0e34","name:et":"Fid\u017ei","name:es":"Fiyi","name:rm":"Fidschi","name:az":"Fici","name:mr":"\u092b\u093f\u091c\u0940","name:ar":"\u0641\u064a\u062c\u064a","name:my":"\u1016\u102e\u1002\u103b\u102e","name:io":"Fidji","name:ak":"Figyi","name:am":"\u134a\u1302","name:it":"Figi","name:ml":"\u0d2b\u0d3f\u0d1c\u0d3f","name:ru":"\u0424\u0438\u0434\u0436\u0438","name:mn":"\u0424\u0438\u0436\u0438","id":424313823,"name:mk":"\u0424\u0438\u045f\u0438","name:af":"Fidji","name:zu":"i-Fiji","name:ff":"Fijji","name:fi":"Fid\u017ei","name:mg":"Fidji","name:fr":"Fidji","name:fy":"Fidzjy","name:vo":"Ficiyu\u00e4ns","name:zh":"\u6590\u6d4e\u5c9b","name:sl":"Fid\u017ei","name:sk":"Fid\u017ei","name:ja":"\u30d5\u30a3\u30b8\u30fc","name:si":"\u0dc6\u0dd3\u0da2\u0dd3","name:fa":"\u0641\u06cc\u062c\u06cc","name:sg":"Fidy\u00efi","name:se":"Fijisullot","name:ne":"\u092b\u093f\u091c\u0940","name:br":"Fidji","name:bs":"Fid\u017ei","name:bn":"\u09ab\u09bf\u099c\u09bf","name:bo":"\u0f55\u0f72\u0f0b\u0f47\u0f72\u0f0d","name:be":"\u0424\u0456\u0434\u0436\u044b","name:bg":"\u0424\u0438\u0434\u0436\u0438","name:sr":"\u0424\u0438\u045f\u0438","name:sq":"Fixhi","name:ga":"Fids\u00ed","name:gd":"F\u00ecdi","name:gl":"Fixi","name:yo":"Or\u00edl\u1eb9\u0301\u00e8de Fiji","name:gu":"\u0aab\u0ac0\u0a9c\u0ac0"},"coordinates":[3916,713]},{"type":"Point","properties":{"name:ka":"\u10e1\u10dd\u10da\u10dd\u10db\u10dd\u10dc\u10d8\u10e1 \u10d9\u10e3\u10dc\u10eb\u10e3\u10da\u10d4\u10d1\u10d8","name:ko":"\uc194\ub85c\ubaac \uc81c\ub3c4","name:cv":"\u0421\u043e\u043b\u043e\u043c\u043e\u043d \u0423\u0442\u0440\u0430\u0432\u04d7\u0441\u0435\u043c","name:km":"\u1780\u17c4\u17c7\u200b\u179f\u17ca\u17bc\u17a1\u17bc\u1798\u17c9\u17bb\u1784","name:cs":"\u0160alamounovy ostrovy","name:ki":"Visiwa vya Solomon","name:kw":"Ynysow Salamon","name:ku":"Girav\u00ean Salomon","name:ti":"\u1230\u120e\u121e\u1295 \u12f0\u1234\u1275","name:ks":"\u0633\u0648\u0644\u0627\u0645\u0627\u0646 \u062c\u0654\u0632\u06cc\u0656\u0631\u0655","name:to":"\u02bbOtumotu Solomone","name:tl":"Kapuluang Solomon","name:ce":"\u0421\u043e\u043b\u043e\u043c\u043e\u043d\u0430\u043d \u0433\u04c0\u0430\u0439\u0440\u0435\u0448","name:ta":"\u0b9a\u0bbe\u0bb2\u0bae\u0ba9\u0bcd \u0ba4\u0bc0\u0bb5\u0bc1\u0b95\u0bb3\u0bcd","name:tg":"\u04b6\u0430\u0437\u0438\u0440\u0430\u04b3\u043e\u0438 \u0421\u043e\u043b\u043e\u043c\u043e\u043d","name:ca":"Salom\u00f3","name:te":"\u0c38\u0c4b\u0c32\u0c4b\u0c2e\u0c28\u0c4d \u0c26\u0c40\u0c35\u0c41\u0c32\u0c41","name:cy":"Ynysoedd Solomon","name:hr":"Salomonski Otoci","name:da":"Salomon\u00f8erne","name:de":"Salomonen","name:dz":"\u0f66\u0f7c\u0f0b\u0f63\u0f7c\u0f0b\u0f58\u0f7c\u0f53\u0f0b \u0f42\u0fb3\u0f72\u0f44\u0f0b\u0f5a\u0f7c\u0f58","source":"openstreetmap.org","name:kn":"\u0cb8\u0cca\u0cb2\u0cca\u0cae\u0ca8\u0ccd \u0ca6\u0ccd\u0cb5\u0cc0\u0caa\u0c97\u0cb3\u0cc1","name:dv":"\u0790\u07ae\u078d\u07ae\u0789\u07ae\u0782\u07b0 \u0796\u07a6\u0792\u07a9\u0783\u07a7","name:lv":"Z\u0101lamana salas","name:lt":"Saliamono salos","name:uz":"Solomon Orollari","name:kk":"\u0421\u043e\u043b\u043e\u043c\u043e\u043d \u0410\u0440\u0430\u043b\u0434\u0430\u0440\u044b","name:ur":"\u0633\u0648\u0644\u0648\u0645\u0646 \u0622\u0626\u0644\u06cc\u0646\u0688\u0632","name:lb":"Salomonen","name:la":"Insulae Salomonis","name:lg":"Bizanga by'eSolomooni","name:uk":"\u0421\u043e\u043b\u043e\u043c\u043e\u043d\u043e\u0432\u0456 \u041e\u0441\u0442\u0440\u043e\u0432\u0438","name:ug":"\u0633\u0648\u0644\u0648\u0645\u0648\u0646 \u062a\u0627\u0642\u0649\u0645 \u0626\u0627\u0631\u0627\u0644\u0644\u0649\u0631\u0649","name:li":"Salomonseilen","name:ln":"Bisanga Solom\u0254","name:lo":"\u0eab\u0ea1\u0eb9\u0ec8\u0ec0\u0e81\u0eb2\u0eb0\u0ec2\u0e8a\u0ec2\u0ea5\u0ea1\u0ead\u0e99","name:el":"\u039d\u03ae\u03c3\u03bf\u03b9 \u03a3\u03bf\u03bb\u03bf\u03bc\u03ce\u03bd\u03c4\u03bf\u03c2","name:eo":"Salomonoj","name":"Solomon Islands","name:ee":"Solomon \u0192udomekpowo nutome","name:th":"\u0e2b\u0e21\u0e39\u0e48\u0e40\u0e01\u0e32\u0e30\u0e42\u0e0b\u0e42\u0e25\u0e21\u0e2d\u0e19","name:eu":"Salomon uharteak","name:et":"Saalomoni Saared","name:es":"Islas Salom\u00f3n","name:ia":"Insulas Solomon","name:rm":"Salomonas","name:rn":"Amazinga ya Salumoni","name:az":"Solomon Adalar\u0131","name:id":"Kepulauan Solomon","name:ar":"\u062c\u0632\u0631 \u0633\u0644\u064a\u0645\u0627\u0646","name:io":"Salomon Insuli","name:is":"Sal\u00f3monseyjar","name:am":"\u1230\u120e\u121e\u1295 \u12f0\u1234\u1275","name:it":"Isole Salomone","name:an":"Islas Salom\u00f3n","name:ru":"\u0421\u043e\u043b\u043e\u043c\u043e\u043d\u043e\u0432\u044b \u041e\u0441\u0442\u0440\u043e\u0432\u0430","name:rw":"Ibirwa bya Solomoni","name:af":"Solomon Eilande","name:zu":"i-Solomon Islands","name:zh-yue":"\u6240\u7f85\u9580\u7fa4\u5cf6","name:zh":"\u6240\u7f57\u95e8\u7fa4\u5c9b","name:so":"Jasiiradaha Solomon","name:sn":"Zvitsuwa zvaSolomon","name:sl":"Salomonovi otoki","name:sk":"\u0160alam\u00fanove ostrovy","name:ja":"\u30bd\u30ed\u30e2\u30f3\u8af8\u5cf6","name:si":"\u0dc3\u0ddc\u0dbd\u0db8\u0db1\u0dca \u0daf\u0dd6\u0db4\u0dad\u0dca","name:sh":"Solomonski Otoci","name:sg":"Z\u00fb\u00e2 Salom\u00f6on","name:se":"Salomon-sullot","name:sa":"\u0938\u094b\u0932\u094b\u092e\u0928-\u0926\u094d\u0935\u0940\u092a","name:bs":"Solomonska Ostrva","name:bm":"Salomo Gun","name:bn":"\u09b8\u09b2\u09cb\u09ae\u09a8 \u09a6\u09cd\u09ac\u09c0\u09aa\u09aa\u09c1\u099e\u09cd\u099c","name:bo":"\u0f66\u0f7c\u0f0b\u0f63\u0f7c\u0f0b\u0f58\u0f7c\u0f53\u0f0d \u0f42\u0fb3\u0f72\u0f44\u0f0b\u0f55\u0fb2\u0f53\u0f0b\u0f5a\u0f7c\u0f0b\u0f41\u0f42\u0f0d","name:br":"Inizi Solomon","name:sw":"Visiwa vya Solomon","name:be":"\u0421\u0430\u043b\u0430\u043c\u043e\u043d\u0430\u0432\u044b \u0410\u0441\u0442\u0440\u0430\u0432\u044b","name:su":"Kapuloan Solomon","name:bg":"\u0421\u043e\u043b\u043e\u043c\u043e\u043d\u043e\u0432\u0438 \u043e\u0441\u0442\u0440\u043e\u0432\u0438","name:sr":"\u0421\u043e\u043b\u043e\u043c\u043e\u043d\u0441\u043a\u0430 \u041e\u0441\u0442\u0440\u0432\u0430","name:sq":"Ishujt Solomon","name:jv":"Kapuloan Solomon","name:pt":"Ilhas Salom\u00e3o","name:mt":"G\u017cejjer Solomon","name:oc":"Illas Salamon","min_zoom":2.0,"name:ro":"Insulele Solomon","name:zh-min-nan":"S\u00f3\u0358-l\u00f4-b\u00fbn K\u00fbn-t\u00f3","name:os":"\u0421\u043e\u043b\u043e\u043c\u043e\u043d\u044b \u0441\u0430\u043a\u044a\u0430\u0434\u00e6\u0445\u0442\u00e6","name:or":"\u0b38\u0b4b\u0b32\u0b4b\u0b2e\u0b28\u0b4d \u0b26\u0b4d\u0b2c\u0b40\u0b2a\u0b2a\u0b41\u0b1e\u0b4d\u0b1c","name:pl":"Wyspy Salomona","name:pa":"\u0a38\u0a4b\u0a32\u0a4b\u0a2e\u0a28 \u0a1f\u0a3e\u0a2a\u0a42","name:tr":"Solomon Adalar\u0131","name:hi":"\u0938\u094b\u0932\u094b\u092e\u0928 \u0926\u094d\u0935\u0940\u092a","name:sv":"Solomon\u00f6arna","name:he":"\u05d0\u05d9\u05d9 \u05e9\u05dc\u05de\u05d4","name:ha":"Tsibiran Salaman","name:hy":"\u054d\u0578\u056c\u0578\u0574\u0578\u0576\u0575\u0561\u0576 \u056f\u0572\u0566\u056b\u0576\u0565\u0580","name:ht":"Salomon","name:hu":"Salamon-szigetek","name:qu":"Salumun wat'akuna","population":538000,"kind":"country","name:yo":"Or\u00edl\u1eb9\u0301\u00e8de Etikun Solomoni","alt_name:el":"\u039d\u03b7\u03c3\u03b9\u03ac \u03a3\u03bf\u03bb\u03bf\u03bc\u03ce\u03bd\u03c4\u03bf\u03c2;\u039d\u03b7\u03c3\u03b9\u03ac \u03a3\u03bf\u03bb\u03bf\u03bc\u03ce\u03bd\u03c4\u03b1;\u039d\u03ae\u03c3\u03bf\u03b9 \u03a3\u03bf\u03bb\u03bf\u03bc\u03ce\u03bd\u03c4\u03b1","name:ms":"Kepulauan Solomon","name:mr":"\u0938\u094b\u0932\u094b\u092e\u0928 \u092c\u0947\u091f\u0947","name:my":"\u1006\u1031\u102c\u103a\u101c\u1019\u103d\u1014\u103a\u1000\u103b\u103d\u1014\u103a\u1038\u1005\u102f","name:mg":"Nosy Salomona","name:ml":"\u0d38\u0d4b\u0d33\u0d2e\u0d7b\u200d \u0d26\u0d4d\u0d35\u0d40\u0d2a\u0d41\u0d15\u0d7e","name:vi":"Qu\u1ea7n \u0111\u1ea3o Solomon","id":823750101,"name:mk":"\u0421\u043e\u043b\u043e\u043c\u043e\u043d\u043e\u0432\u0438\u0442\u0435 \u041e\u0441\u0442\u0440\u043e\u0432\u0438","name:vo":"Solomonu\u00e4ns","name:fa":"\u062c\u0632\u0627\u06cc\u0631 \u0633\u0644\u06cc\u0645\u0627\u0646","name:ff":"Duu\u0257e Solomon","name:fi":"Salomonsaaret","name:fo":"S\u00e1lomonoyggjarnar","name:fr":"Salomon","name:fy":"Salomonseilannen","name:nl":"Salomonseilanden","name:nn":"Salomon\u00f8yane","name:no":"Salomon\u00f8yene","name:ne":"\u0938\u094b\u0932\u094b\u092e\u094b\u0928 \u091f\u093e\u092a\u0941","name:wo":"Duni Solomon","name:nv":"S\u00f3lomon T\u00f3 Bin\u00e1haazy\u00edn\u00edg\u00ed\u00ed","name:ga":"Oile\u00e1in Sholaimh","name:gd":"Eileanan Sholaimh","name:gl":"Illas Salom\u00f3n","name:gv":"Ny h-Ellanyn Holomon","name:gu":"\u0ab8\u0acb\u0ab2\u0acb\u0aae\u0aa8 \u0a86\u0a87\u0ab2\u0ac7\u0aa8\u0acd\u0aa1"},"coordinates":[970,2279]},{"type":"Point","properties":{"name:ka":"\u10d5\u10d0\u10dc\u10e3\u10d0\u10e2\u10e3","name:ko":"\ubc14\ub204\uc544\ud22c","name:kn":"\u0cb5\u0ca8\u0ccc\u0c9f\u0cc1","name:km":"\u179c\u17c9\u17b6\u1793\u17cb\u178e\u17c5\u1791\u17bc","name:kk":"\u0412\u0430\u043d\u0443\u0430\u0442\u0443","name:tt":"\u0412\u0430\u043d\u0443\u0430\u0442\u0443","min_zoom":2.0,"name:ti":"\u126b\u1291\u12a0\u1271","name:ks":"\u0648\u0627\u0646\u0648\u0657\u062a\u0648\u0657","name:pa":"\u0a35\u0a28\u0a41\u0a06\u0a24\u0a42","name:os":"\u0412\u0430\u043d\u0443\u0430\u0442\u0443","name:or":"\u0b2d\u0b3e\u0b28\u0b41\u0b06\u0b24\u0b41","name:ce":"\u0412\u0430\u043d\u0443\u0430\u0442\u0443","name:ta":"\u0bb5\u0ba9\u0bc1\u0bb5\u0bbe\u0b9f\u0bcd\u0b9f\u0bc1","name:tg":"\u0412\u0430\u043d\u0443\u0430\u0442\u0443","name:ky":"\u0412\u0430\u043d\u0443\u0430\u0442\u0443","name:te":"\u0c35\u0c28\u0c4c\u0c1f\u0c41","name:bg":"\u0412\u0430\u043d\u0443\u0430\u0442\u0443","name:dz":"\u0f5d\u0f0b\u0f53\u0f74\u0f0b\u0f68\u0f0b\u0f4f\u0f74","source":"openstreetmap.org","name:dv":"\u0788\u07a6\u0782\u07aa\u0787\u07a7\u0793\u07ab","name:ku":"Van\u00fbat\u00fb","name:hi":"\u0935\u093e\u0928\u0941\u0905\u0924\u0941","name:he":"\u05d5\u05e0\u05d5\u05d0\u05d8\u05d5","kind":"country","name:ha":"Banuwatu","name:lg":"Vanawuwatu","name:uk":"\u0412\u0430\u043d\u0443\u0430\u0442\u0443","name:hy":"\u054e\u0561\u0576\u0578\u0582\u0561\u057f\u0578\u0582","name:ug":"\u06cb\u0627\u0646\u06c7\u0626\u0627\u062a\u06c7","name:qu":"Wanwatu","name:lo":"\u0ea7\u0eb2\u0e99\u0ebb\u0ea7\u0e95\u0eb9","population":215446,"name:el":"\u0392\u03b1\u03bd\u03bf\u03c5\u03ac\u03c4\u03bf\u03c5","name:eo":"Vanuatuo","name":"Vanuatu","name:ee":"Vanuatu nutome","name:zh":"\u74e6\u52aa\u963f\u56fe","name:is":"Van\u00faat\u00fa","name:th":"\u0e1b\u0e23\u0e30\u0e40\u0e17\u0e28\u0e27\u0e32\u0e19\u0e39\u0e2d\u0e32\u0e15\u0e39","name:yo":"Or\u00edl\u1eb9\u0301\u00e8de Faniatu","name:mt":"Vanwatu","name:rn":"Vanuwatu","name:mr":"\u0935\u093e\u0928\u094c\u091f\u0941","name:ar":"\u0641\u0627\u0646\u0648\u0627\u062a\u0648","name:my":"\u1017\u1014\u103d\u102c\u1038\u1010\u1030\u1014\u102d\u102f\u1004\u103a\u1004\u1036","official_name":"Ripablik blong Vanuatu","name:mg":"Vanoat\u00f2","name:am":"\u126b\u1291\u12a0\u1271","name:ru":"\u0412\u0430\u043d\u0443\u0430\u0442\u0443","name:ml":"\u0d35\u0d28\u0d4d\u0d35\u0d3e\u0d24\u0d4d\u0d24\u0d41","name:ab":"\u0412\u0430\u043d\u0443\u0430\u0442\u0443","id":424313466,"name:mk":"\u0412\u0430\u043d\u0430\u0442\u0443","name:vo":"Vanuatu\u00e4ns","name:zu":"i-Vanuatu","name:rw":"Vanuwatu","name:ff":"Wanuwaatuu","name:fy":"Fanuat\u00fb","name:mn":"\u0412\u0430\u043d\u0443\u0430\u0442\u0443","name:ja":"\u30d0\u30cc\u30a2\u30c4","name:si":"\u0dc0\u0db1\u0dd4\u0dc0\u0dcf\u0da7\u0dd4","name:fa":"\u0648\u0627\u0646\u0648\u0627\u062a\u0648","name:sg":"Vanuat\u00fc","name:na":"Banuatu","name:ne":"\u092d\u093e\u0928\u0941\u0906\u0924\u0941","name:bm":"Vanuwatu","name:bn":"\u09ad\u09be\u09a8\u09c1\u09af\u09bc\u09be\u099f\u09c1","name:bo":"\u0f5d\u0f0b\u0f53\u0f74\u0f0b\u0f68\u0f0b\u0f50\u0f74\u0f0d","name:be":"\u0412\u0430\u043d\u0443\u0430\u0442\u0443","name:ur":"\u0648\u06cc\u0646\u0648\u0622\u0679\u0648","name:wo":"Wanuatu","name:sr":"\u0412\u0430\u043d\u0443\u0430\u0442\u0443","name:nv":"Bano\u02bc\u00e1\u00e1t\u02bcoo","name:ga":"Vanuat\u00fa","name:gd":"Bhanuatu","name:ht":"Vanwatou","name:gu":"\u0ab5\u0abe\u0aa8\u0ac1\u0a86\u0aa4\u0ac1"},"coordinates":[1931,1011]},{"type":"Point","properties":{"name:ka":"\u10dc\u10d0\u10e3\u10e0\u10e3","name:ko":"\ub098\uc6b0\ub8e8","name:kn":"\u0ca8\u0ccc\u0cb0\u0cc1","name:km":"\u178e\u17bc\u179a\u17bc","name:tt":"\u041d\u0430\u0443\u0440\u0443","name:th":"\u0e1b\u0e23\u0e30\u0e40\u0e17\u0e28\u0e19\u0e32\u0e2d\u0e39\u0e23\u0e39","name:ti":"\u1293\u12a1\u1229","name:ks":"\u0646\u0627\u0631\u0648\u0648\u0657","name:to":"Naulu","name:or":"\u0b28\u0b3e\u0b09\u0b30\u0b41","name:ta":"\u0ba8\u0bcc\u0bb0\u0bc1","name:te":"\u0c28\u0c4c\u0c30\u0c41","name:cy":"Nawrw","name:dz":"\u0f53\u0f60\u0f74\u0f0b\u0f62\u0f74\u0f0b","source":"openstreetmap.org","name:ku":"Na\u00fbr\u00fb","name:hi":"\u0928\u093e\u0909\u0930\u0941","name:he":"\u05e0\u05d0\u05d5\u05e8\u05d5","kind":"country","name:ur":"\u0646\u0624\u0631\u0648","name:lg":"Nawuru","name:uk":"\u041d\u0430\u0443\u0440\u0443","name:hy":"\u0546\u0561\u0578\u0582\u0580\u0578\u0582","min_zoom":2.0,"name:li":"Naoeroe","name:lo":"\u0e99\u0eb2\u0ead\u0eb9\u0ea3\u0eb9","population":10175,"name:el":"\u039d\u03b1\u03bf\u03c5\u03c1\u03bf\u03cd","name:eo":"Nauro","name":"Nauru","name:is":"N\u00e1r\u00fa","name:ee":"Nauru nutome","name:ak":"Naworu","name:yo":"Or\u00edl\u1eb9\u0301\u00e8de Nauru","name:rn":"Nawuru","name:mr":"\u0928\u090a\u0930\u0941","name:ar":"\u0646\u0627\u0648\u0631\u0648","official_name":"Republic of Nauru;Republik Naoero","name:mg":"Naor\u00f2","name:am":"\u1293\u12a1\u1229","name:ru":"\u041d\u0430\u0443\u0440\u0443","name:ml":"\u0d28\u0d57\u0d31\u0d42","name:mn":"\u041d\u0430\u0443\u0440\u0443","id":424297917,"name:mk":"\u041d\u0430\u0443\u0440\u0443","name:af":"Naoeroe","name:zu":"i-Nauru","name:ff":"Nawuru","name:fy":"Naur\u00fb","name:vo":"Naure\u00e4n","name:zh":"\u7459\u9b6f","name:ja":"\u30ca\u30a6\u30eb","name:si":"\u0db1\u0dcf\u0dc0\u0dd4\u0dbb\u0dd4","name:fa":"\u0646\u0627\u0626\u0648\u0631\u0648","name:ne":"\u0928\u093e\u0909\u0930\u0942","name:bm":"Nawuru","name:bn":"\u09a8\u09be\u0989\u09b0\u09c1","name:bo":"\u0f53\u0f7d\u0f0b\u0f62\u0f74\u0f0d","name:be":"\u041d\u0430\u045e\u0440\u0443","name:bg":"\u041d\u0430\u0443\u0440\u0443","name:sr":"\u041d\u0430\u0443\u0440\u0443","name:ga":"N\u00e1r\u00fa","name:gd":"Nabhru","name:gu":"\u0aa8\u0acc\u0ab0\u0ac1"},"coordinates":[1717,3998]},{"type":"Point","properties":{"name:ka":"\u10e2\u10e3\u10d5\u10d0\u10da\u10e3","name:mr":"\u091f\u0941\u0935\u093e\u0932\u0941","name:ko":"\ud22c\ubc1c\ub8e8","name:kn":"\u0c9f\u0cc1\u0cb5\u0cbe\u0cb2\u0cc1","name:km":"\u1791\u17bc\u179c\u17c9\u17b6\u179b\u17bc","name:ar":"\u062a\u0648\u0641\u0627\u0644\u0648","name:th":"\u0e1b\u0e23\u0e30\u0e40\u0e17\u0e28\u0e15\u0e39\u0e27\u0e32\u0e25\u0e39","name:ti":"\u1271\u126b\u1209","name:ks":"\u062a\u0648\u0657\u0648\u0627\u0644\u0648\u0657","name:to":"T\u016bvalu","name:ru":"\u0422\u0443\u0432\u0430\u043b\u0443","name:ml":"\u0d24\u0d41\u0d35\u0d3e\u0d32\u0d41","name:ta":"\u0ba4\u0bc1\u0bb5\u0bbe\u0bb2\u0bc2","id":424317372,"name:mk":"\u0422\u0443\u0432\u0430\u043b\u0443","name:te":"\u0c1f\u0c41\u0c35\u0c3e\u0c32\u0c41","name:zu":"i-Tuvalu","name:mn":"\u0422\u0443\u0432\u0430\u043b\u0443","name:cy":"Twfalw","name:ff":"Tuwaluu","name:bg":"\u0422\u0443\u0432\u0430\u043b\u0443","kind":"country","name:sr":"\u0422\u0443\u0432\u0430\u043b\u0443","name:dz":"\u0f4f\u0f74\u0f0b\u0f5d\u0f0b\u0f63\u0f74","source":"openstreetmap.org","name:fy":"T\u00fbval\u00fb","name:vo":"Tuvalu\u00e4ns","name:zh":"\u5410\u74e6\u9c81","name:hy":"\u054f\u0578\u0582\u057e\u0561\u056c\u0578\u0582","name:ku":"T\u00fbval\u00fb","name:ja":"\u30c4\u30d0\u30eb","name:si":"\u0da7\u0dd4\u0dc0\u0dcf\u0dbd\u0dd6","name:hi":"\u0924\u0941\u0935\u093e\u0932\u0941","name:sg":"T\u00fcval\u00fc","name:he":"\u05d8\u05d5\u05d1\u05dc\u05d5","name:ne":"\u0924\u0941\u092d\u093e\u0932\u0941","name:ha":"Tubalu","name:bn":"\u099f\u09c1\u09ad\u09be\u09b2\u09c1","name:bo":"\u0f50\u0f74\u0f0b\u0f5d\u0f0b\u0f63\u0f74\u0f0d","old_name:eo":"Insuloj Ellices","name:uk":"\u0422\u0443\u0432\u0430\u043b\u0443","old_name":"Ellice Islands","name:be":"\u0422\u0443\u0432\u0430\u043b\u0443","min_zoom":2.0,"name:ur":"\u0679\u0648\u0648\u0627\u0644\u0648","name:or":"\u0b1f\u0b41\u0b2d\u0b3e\u0b32\u0b41","name:lo":"\u0e95\u0eb9\u0ea7\u0eb2\u0ea5\u0eb9","population":10000,"name:el":"\u03a4\u03bf\u03c5\u03b2\u03b1\u03bb\u03bf\u03cd","name:eo":"Tuvalo","name":"Tuvalu","name:is":"T\u00faval\u00fa","name:gd":"Tubhalu","name:ee":"Tuvalu nutome","name:mg":"Toval\u00f2","name:fa":"\u062a\u0648\u0648\u0627\u0644\u0648","name:gu":"\u0aa4\u0ac1\u0ab5\u0abe\u0ab2\u0ac1","name:am":"\u1271\u126b\u1209","name:yo":"Or\u00edl\u1eb9\u0301\u00e8de Tufalu"},"coordinates":[3753,2646]},{"type":"Point","properties":{"name:pt":"Nova Caled\u00f4nia","name:cy":"Caledonia Newydd","name:mt":"New Caledonia","name:ko":"\ub274 \uce7c\ub808\ub3c4\ub2c8\uc544","name:kn":"\u0ca8\u0ccd\u0caf\u0cc2 \u0c95\u0ccd\u0caf\u0cbe\u0cb2\u0cbf\u0ca1\u0ccb\u0ca8\u0cbf\u0caf\u0cbe","name:km":"\u1789\u17bc\u1780\u17b6\u17a1\u17c1\u178a\u17bc\u1793\u17c0","name:kl":"Nutaaq Caledonia","name:cs":"Nov\u00e1 Kaledonie","name:ki":"Nyukaledonia","name:tr":"Yeni Kaledonya","name:ku":"Kaledonyaya N\u00fb","name:ti":"\u1292\u12cd \u12ab\u120c\u12f6\u1292\u12eb","name:ks":"\u0646\u0650\u0648 \u06a9\u06cc\u0644\u0650\u0691\u0648\u0646\u0650\u06cc\u0627","name:to":"Niu Kalet\u014dnia","name:sv":"Nya Kaledonien","name:or":"\u0b28\u0b42\u0b24\u0b28 \u0b15\u0b3e\u0b32\u0b47\u0b21\u0b4b\u0b28\u0b3f\u0b06","name:pl":"Nowa Kaledonia","name:ta":"\u0ba8\u0bbf\u0baf\u0bc2 \u0b95\u0bc7\u0bb2\u0bbf\u0b9f\u0bcb\u0ba9\u0bbf\u0baf\u0bbe","name:ca":"Nova Caled\u00f2nia","name:te":"\u0c15\u0c4d\u0c30\u0c4a\u0c24\u0c4d\u0c24 \u0c15\u0c3e\u0c32\u0c46\u0c21\u0c4b\u0c28\u0c3f\u0c2f\u0c3e","name:ro":"Noua Caledonie","name:ka":"\u10d0\u10ee\u10d0\u10da\u10d8 \u10d9\u10d0\u10da\u10d4\u10d3\u10dd\u10dc\u10d8\u10d0","name:hr":"Nova Kaledonija","name:da":"Ny Kaledonien","name:de":"Neukaledonien","name:dz":"\u0f53\u0f72\u0f60\u0f74\u0f0b\u0f40\u0f0b\u0f63\u0f72\u0f0b\u0f51\u0f7c\u0f0b\u0f53\u0f72\u0f0b\u0f61","source":"openstreetmap.org","name:lv":"Jaunkaledonija","name:lt":"Naujoji Kaledonija","name:hi":"\u0928\u094d\u092f\u0942 \u0915\u0948\u0932\u0947\u0921\u094b\u0928\u093f\u092f\u093e","name:he":"\u05e7\u05dc\u05d3\u05d5\u05e0\u05d9\u05d4 \u05d4\u05d7\u05d3\u05e9\u05d4","kind":"region","name:ur":"\u0646\u06cc\u0648 \u06a9\u0644\u06cc\u0688\u0648\u0646\u06cc\u0627","name:la":"Nova Caledonia","name:lg":"Kaledonya mupya","name:uk":"\u041d\u043e\u0432\u0430 \u041a\u0430\u043b\u0435\u0434\u043e\u043d\u0456\u044f","min_zoom":4.0,"name:hu":"\u00daj-Kaled\u00f3nia","name:ln":"Kaledoni ya sika","name:lo":"\u0e99\u0eb4\u0ea7\u0e84\u0eb2\u0ea5\u0eb4\u0ec2\u0e94\u0ec0\u0e99\u0e8d","population":245580,"name:el":"\u039d\u03ad\u03b1 \u039a\u03b1\u03bb\u03b7\u03b4\u03bf\u03bd\u03af\u03b1","name:eo":"Nov-Kaledonio","name:en":"New Caledonia","name":"Nouvelle-Cal\u00e9donie","name:ee":"New Kaledonia nutome","name:th":"\u0e19\u0e34\u0e27\u0e41\u0e04\u0e25\u0e34\u0e42\u0e14\u0e40\u0e19\u0e35\u0e22","name:gu":"\u0aa8\u0acd\u0aaf\u0ac1 \u0ab8\u0ac7\u0ab2\u0ac7\u0aa1\u0acb\u0aa8\u0abf\u0aaf\u0abe","name:eu":"Kaledonia Berria","name:et":"Uus-Kaledoonia","name:nl":"Nieuw-Caledoni\u00eb","name:es":"Nueva Caledonia","name:ia":"Nove Caledonia","name:rm":"Nova Caledonia","name:rn":"Niyukaledoniya","name:az":"Yeni Kaledoniya","name:id":"Kaledonia Baru","name:ms":"New Caledonia","name:mr":"\u0928\u094d\u092f\u0942 \u0915\u0945\u0932\u0947\u0921\u094b\u0928\u093f\u092f\u093e","name:ar":"\u0643\u0627\u0644\u064a\u062f\u0648\u0646\u064a\u0627 \u0627\u0644\u062c\u062f\u064a\u062f\u0629","name:my":"\u1014\u101a\u1030\u1038 \u1000\u101a\u103a\u101c\u102e\u1012\u102d\u102f\u1014\u102e\u1038\u101a\u102c\u1038","int_name":"New Caledonia","name:is":"N\u00fdja-Kaled\u00f3n\u00eda","name:am":"\u1292\u12cd \u12ab\u120c\u12f6\u1292\u12eb","name:it":"Nuova Caledonia","name:vi":"T\u00e2n \u0110\u1ea3o","name:ru":"\u041d\u043e\u0432\u0430\u044f \u041a\u0430\u043b\u0435\u0434\u043e\u043d\u0438\u044f","name:mn":"\u0428\u0438\u043d\u044d \u041a\u0430\u043b\u0435\u0434\u043e\u043d\u0438","id":1367931778,"name:mk":"\u041d\u043e\u0432\u0430 \u041a\u0430\u043b\u0435\u0434\u043e\u043d\u0438\u0458\u0430","name:af":"Nieu-Caledonia","name:zu":"i-New Caledonia","name:ha":"Kaledoniya Sabuwa","name:nn":"Ny-Caledonia","name:ff":"Nuwel Kaledonii","kind_detail":"state","name:no":"Ny-Caledonia","name:fo":"N\u00fd-Kaledonia","name:zh":"\u65b0\u5580\u91cc\u591a\u5c3c\u4e9a","name:so":"New Caledonia","name:sn":"New Caledonia","name:sl":"Nova Kaledonija","name:sk":"Nov\u00e1 Kaled\u00f3nia","name:ja":"\u30cb\u30e5\u30fc\u30ab\u30ec\u30c9\u30cb\u30a2","name:si":"\u0db1\u0dc0 \u0d9a\u0dd0\u0dbd\u0dd2\u0da9\u0ddd\u0db1\u0dd2\u0dba\u0dcf\u0dc0","name:fa":"\u06a9\u0627\u0644\u062f\u0648\u0646\u06cc\u0627\u06cc \u062c\u062f\u06cc\u062f","name:sg":"Fin\u00ee Kaledon\u00efi","name:se":"O\u0111\u0111a-Kaledonia","name:ne":"\u0928\u092f\u093e\u0901 \u0915\u093e\u0932\u0947\u0921\u094b\u0928\u093f\u092f\u093e","name:br":"Kaledonia Nevez","name:bs":"Nova Kaledonija","name:bm":"Kaledoni Koura","name:bn":"\u09a8\u09bf\u0989 \u0995\u09cd\u09af\u09be\u09b2\u09c7\u09a1\u09cb\u09a8\u09bf\u09af\u09bc\u09be","name:ml":"\u0d2a\u0d41\u0d24\u0d3f\u0d2f \u0d15\u0d3e\u0d32\u0d3f\u0d21\u0d4b\u0d23\u0d3f\u0d2f","name:sw":"Nyukaledonia","name:be":"\u041d\u043e\u0432\u0430\u044f \u041a\u0430\u043b\u0435\u0434\u043e\u043d\u0456\u044f","name:bg":"\u041d\u043e\u0432\u0430 \u041a\u0430\u043b\u0435\u0434\u043e\u043d\u0438\u044f","name:sr":"\u041d\u043e\u0432\u0430 \u041a\u0430\u043b\u0435\u0434\u043e\u043d\u0438\u0458\u0430","name:ga":"An Nua-Chalad\u00f3in","name:gd":"Cailleann Nuadh","name:gl":"Nova Caledonia","name:yo":"Or\u00edl\u1eb9\u0301\u00e8de Kaledonia Titun","name:ak":"Kaledonia Foforo","name:fi":"Uusi-Kaledonia"},"coordinates":[1454,120]}]},"transit":{"type":"GeometryCollection","geometries":[]},"pois":{"type":"GeometryCollection","geometries":[]},"boundaries":{"type":"GeometryCollection","geometries":[]},"roads":{"type":"GeometryCollection","geometries":[]},"earth":{"type":"GeometryCollection","geometries":[{"type":"MultiPolygon","properties":{"sort_rank":10,"source":"naturalearthdata.com","min_zoom":0.0,"kind":"earth","area":5859420640058},"arcs":[[[99]],[[100]],[[101]],[[102]],[[103]],[[104]],[[105]],[[106]],[[107]],[[108]],[[109]],[[110]],[[111]],[[112]],[[113]],[[114]],[[115]],[[116]],[[117]],[[118]],[[119]],[[120]],[[121]],[[122]],[[123]],[[124]],[[125]],[[126]],[[127]],[[128]],[[129]],[[130]],[[131]],[[132]],[[133]],[[134]],[[135]],[[136]],[[137]]]}]},"landuse":{"type":"GeometryCollection","geometries":[]}},"type":"Topology","transform":{"translate":[157.5,-21.9430455334],"scale":[0.0054931641,0.0053571889]},"arcs":[[[4096,4096],[0,-131],[0,-131],[0,-132],[0,-131],[0,-131],[0,-131],[0,-132],[0,-131],[0,-131],[0,-131],[0,-132],[0,-131],[0,-131],[0,-131],[0,-132],[0,-131],[0,-131],[0,-131],[0,-132],[0,-131],[0,-131],[0,-131],[0,-128],[-28,-12],[-10,-1],[-14,3],[-14,-3],[-16,-5],[-14,-9],[-21,-16],[-12,-3],[-12,-1],[-24,-6],[-24,-9],[-17,-10],[-12,-18],[-11,0],[-10,-6],[-10,3],[-9,5],[-3,-8],[-4,-6],[-6,-5],[-3,-12],[20,-2],[6,-10],[5,-12],[8,-11],[17,5],[15,12],[12,-3],[10,0],[9,16],[27,19],[18,1],[4,-2],[4,-9],[5,-4],[8,-3],[9,0],[22,3],[23,9],[19,1],[20,-2],[-7,15],[3,15],[4,6],[0,6],[-8,1],[-8,-4],[-26,-18],[-24,-21],[0,20],[10,21],[23,15],[8,14],[10,13],[28,25],[0,-1],[0,-59],[-3,-6],[1,-4],[2,1],[0,-46],[-13,-17],[-6,-17],[6,-6],[13,7],[0,-115],[0,-131],[0,-132],[0,-131],[0,-131],[0,-131],[0,-132],[0,-27],[-2425,0],[-17,13],[-17,17],[-34,27],[-45,29],[-20,7],[-11,10],[-12,5],[-9,10],[-20,8],[-15,16],[-24,19],[-5,7],[-2,12],[-5,8],[-14,9],[-10,13],[-11,9],[-14,5],[-25,12],[-71,56],[-27,18],[-22,-5],[-21,12],[-26,19],[-3,-6],[-1,-11],[5,-8],[11,-5],[6,-8],[-1,-13],[3,-12],[26,-28],[11,-20],[15,-17],[19,-14],[18,-16],[36,-40],[13,-16],[15,-7],[42,-37],[16,-10],[18,-7],[35,-20],[23,-10],[14,-14],[20,-10],[22,-7],[-1557,0],[0,2463],[16,-6],[10,-3],[0,7],[-4,5],[-8,5],[-9,2],[-5,-1],[0,82],[1,0],[10,-2],[1,-12],[4,-20],[12,-11],[17,-4],[13,-17],[3,8],[9,0],[3,12],[-14,34],[-11,15],[-20,5],[-8,10],[-2,30],[-18,6],[0,110],[3,3],[-3,4],[0,1371],[4096,0]],[[1714,3994],[4,-1],[4,7],[-1,3],[-3,2],[-4,-2],[-2,-5],[2,-4]],[[3086,3975],[5,-23],[-3,-6],[2,-5],[6,5],[-2,15],[-4,15],[-6,3],[-9,7],[-2,0],[5,-8],[8,-3]],[[3139,3875],[1,-10],[1,-4],[5,-1],[-2,10],[-1,4],[-4,8],[-5,2],[5,-9]],[[174,2688],[4,-6],[16,-14],[6,-20],[16,-11],[17,-17],[9,-4],[5,-6],[16,-15],[26,-12],[28,-17],[9,-1],[12,-11],[52,-21],[19,-19],[24,-15],[0,4],[-5,13],[-10,11],[9,15],[-75,55],[-12,7],[-15,3],[-16,13],[-16,1],[-18,12],[-7,9],[-20,13],[-23,22],[-51,11]],[[583,2544],[-3,-4],[-7,0],[-9,1],[-1,-8],[22,-31],[-9,-15],[20,-64],[18,-36],[28,-22],[3,-6],[27,-16],[24,-37],[8,-4],[2,7],[-2,15],[-20,33],[0,23],[-9,11],[-1,8],[-8,24],[-21,20],[-12,3],[-6,8],[2,18],[6,7],[2,9],[-45,56],[-9,0]],[[3950,2503],[3,2],[0,2],[-1,5],[-1,4],[-1,-1],[0,-4],[1,-4],[-1,-4]],[[712,2304],[0,-15],[6,-7],[6,5],[14,-15],[1,7],[-2,20],[-26,48],[-8,3],[7,-18],[3,-12],[-1,-16]],[[600,2273],[-8,10],[-13,4],[-10,19],[-18,10],[-31,21],[-53,1],[-17,-3],[-40,30],[-12,1],[-11,-8],[-3,-8],[1,-22],[1,-11],[11,-20],[14,-17],[8,-6],[9,-6],[28,-4],[58,-1],[29,-14],[30,-6],[12,2],[16,7],[3,3],[-4,18]],[[296,2395],[9,-3],[2,1],[9,6],[-1,11],[-10,2],[-4,4],[-4,1],[-10,-6],[-7,-9],[6,-6],[10,-1]],[[501,2393],[3,-7],[1,-1],[5,1],[13,-4],[6,8],[-16,15],[-12,10],[-5,-1],[-10,3],[-13,-7],[1,-9],[13,-1],[14,-7]],[[134,2460],[-5,16],[-10,-20],[5,-7],[4,0],[9,5],[-3,6]],[[377,2512],[13,-7],[8,3],[-7,11],[-1,6],[-9,7],[-7,-4],[-3,-10],[6,-6]],[[110,2502],[-19,6],[-6,-7],[-5,-3],[-5,-1],[-2,-4],[-4,-15],[11,-13],[13,-5],[18,15],[-1,7],[-3,4],[-4,3],[12,10],[-5,3]],[[693,2191],[-4,-14],[2,-9],[19,-1],[16,-5],[2,-18],[7,-6],[0,-14],[45,-28],[22,-9],[25,-4],[15,-8],[14,4],[18,-5],[13,2],[-15,8],[-1,13],[-23,38],[-10,10],[-15,-5],[-19,8],[-14,-2],[-23,11],[-3,3],[-8,4],[-32,21],[-17,6],[-14,0]],[[1522,2098],[-4,-11],[-9,1],[0,-5],[5,-11],[7,0],[9,-2],[12,14],[10,2],[5,-1],[15,3],[-1,2],[6,10],[-7,2],[-18,4],[-21,-3],[-9,-5]],[[473,1929],[9,-7],[22,-3],[16,-9],[7,-15],[9,-4],[11,-4],[13,7],[-7,7],[-16,12],[-68,38],[-14,4],[-2,-5],[-2,-8],[5,-8],[15,-2],[2,-3]],[[1694,1916],[6,0],[17,3],[-10,6],[-4,10],[-12,1],[-8,-4],[11,-16]],[[3553,1761],[12,-1],[7,2],[1,2],[-2,2],[-9,1],[-7,-2],[-4,-1],[2,-3]],[[1812,1500],[4,-2],[2,2],[2,4],[8,2],[2,5],[0,6],[-1,7],[-12,13],[-14,-7],[-2,-8],[11,-22]],[[1804,1446],[-1,-16],[5,-2],[20,-3],[8,9],[2,14],[-16,8],[-13,-5],[-5,-5]],[[1685,1178],[13,0],[20,10],[29,0],[19,17],[0,8],[-3,10],[-10,48],[-4,2],[-7,10],[-3,18],[4,7],[-9,2],[-7,-3],[-3,-22],[-9,-15],[-6,-3],[-14,0],[-12,61],[-15,17],[-10,19],[-7,-1],[-8,-22],[0,-17],[22,-67],[-3,-37],[13,-20],[11,-10],[-1,-12]],[[1930,1293],[5,-57],[8,-13],[3,12],[-1,24],[-9,40],[-4,-1],[-2,-5]],[[1895,1215],[17,28],[-32,-5],[-28,-26],[9,-5],[22,-1],[12,9]],[[1941,1210],[-7,-41],[10,-46],[3,-8],[3,0],[8,3],[2,11],[-15,72],[-4,9]],[[1791,1125],[-15,7],[-10,-1],[-3,-8],[-6,-29],[12,-14],[5,1],[13,7],[6,-7],[6,-18],[3,-28],[9,-19],[-2,-3],[2,-7],[14,-4],[16,14],[27,-3],[14,12],[-8,11],[-3,10],[-12,5],[-6,10],[-7,-1],[-26,18],[-3,9],[-4,0],[-8,4],[-14,34]],[[1941,1094],[-18,-18],[-14,-3],[-10,-6],[5,-8],[11,-9],[30,-5],[20,2],[1,7],[-4,6],[-8,6],[-6,21],[-7,7]],[[1772,1176],[-21,4],[-4,-12],[19,-12],[3,5],[3,15]],[[1944,959],[6,0],[20,3],[25,-9],[3,8],[-5,3],[-15,4],[-13,14],[-5,2],[-6,6],[-6,9],[-3,-2],[-9,-7],[-2,-9],[5,-15],[5,-7]],[[3588,907],[-5,-15],[9,3],[8,8],[2,11],[-5,-1],[-4,-1],[-5,-5]],[[3982,875],[3,-26],[6,5],[4,12],[-2,6],[-5,3],[-6,0]],[[3777,861],[-11,3],[-11,-5],[-34,-10],[-22,1],[-37,-13],[-20,-15],[-19,-17],[1,-10],[3,-10],[-2,-3],[-5,-2],[-3,-4],[-2,-6],[-8,-5],[-9,-3],[-2,-10],[2,-10],[10,-20],[12,-9],[13,-5],[33,-6],[24,-7],[14,-7],[20,-1],[20,2],[17,0],[15,13],[16,9],[17,2],[7,-3],[5,5],[20,1],[12,5],[-9,28],[-2,17],[-5,17],[3,9],[0,9],[-13,10],[-20,14],[-13,16],[-6,0],[-5,4],[0,8],[-6,8]],[[3868,795],[5,-12],[10,4],[4,9],[-4,11],[-8,-1],[-7,-11]],[[3960,730],[16,-15],[2,2],[2,7],[-5,14],[-5,8],[-7,-5],[-2,-5],[-1,-6]],[[2011,795],[-18,26],[-19,-1],[-4,1],[-4,0],[-5,-1],[-15,-18],[-6,-12],[5,-1],[9,3],[8,-1],[5,-8],[-10,-6],[27,-5],[23,2],[11,19],[-7,2]],[[2139,552],[7,-1],[8,10],[-7,13],[-17,13],[10,7],[-14,7],[-6,17],[-10,3],[-14,-5],[-5,-12],[2,-22],[-2,-9],[48,-21]],[[3770,555],[-10,-11],[-9,-7],[-10,1],[-9,-8],[-8,-3],[12,-6],[25,6],[4,2],[1,3],[4,5],[14,12],[5,-2],[8,-6],[24,5],[0,8],[-13,5],[-15,3],[-10,-5],[-13,-2]],[[451,505],[-3,23],[-6,-11],[2,-30],[2,4],[5,14]],[[2147,489],[-8,-4],[-6,-25],[8,-12],[16,-15],[16,-5],[10,21],[-24,15],[-4,24],[-8,1]],[[2240,318],[10,0],[7,10],[-8,7],[-4,1],[-15,-2],[-2,-9],[12,-7]],[[1649,248],[-12,-18],[10,2],[8,7],[6,12],[-4,2],[0,12],[3,9],[9,5],[-8,6],[-8,1],[1,-7],[-5,-21],[0,-10]],[[1767,237],[-27,-9],[-2,-7],[16,-1],[10,-7],[-14,-19],[-15,-4],[8,-13],[11,-12],[25,-7],[13,-13],[10,1],[6,14],[0,6],[-13,21],[-12,9],[1,30],[-6,6],[-11,5]],[[1905,56],[8,0],[20,5],[4,32],[-15,-1],[-9,4],[-3,4],[-1,7],[0,6],[-11,-7],[-20,-3],[11,-25],[0,-11],[12,-4],[4,-7]],[[3112,45],[5,-1],[1,2],[0,4],[-4,1],[-3,-2],[1,-4]],[[4096,1081],[-28,-12],[-10,-1],[-14,3],[-14,-3],[-16,-5],[-14,-9],[-21,-16],[-12,-3],[-12,-1],[-24,-6],[-24,-9],[-17,-10],[-12,-18],[-11,0],[-10,-6],[-10,3],[-9,5],[-3,-8],[-4,-6],[-6,-5],[-3,-12],[20,-2],[6,-10],[5,-12],[8,-11],[17,5],[15,12],[12,-3],[10,0],[9,16],[27,19],[18,1],[4,-2],[4,-9],[5,-4],[8,-3],[9,0],[22,3],[23,9],[19,1],[20,-2],[-7,15],[3,15],[4,6],[0,6],[-8,1],[-8,-4],[-26,-18],[-24,-21],[0,20],[10,21],[23,15],[8,14],[10,13],[28,25]],[[3597,913],[5,1],[-2,-11],[-8,-8],[-9,-3],[5,15],[5,5],[4,1]],[[3837,783],[3,9],[0,9],[-13,10],[-20,14],[-13,16],[-6,0],[-5,4],[0,8],[-6,8],[-11,3],[-11,-5],[-34,-10],[-22,1],[-37,-13],[-20,-15],[-19,-17],[1,-10],[3,-10],[-2,-3],[-5,-2],[-3,-4],[-2,-6],[-8,-5],[-9,-3],[-2,-10],[2,-10],[10,-20],[12,-9],[13,-5],[33,-6],[24,-7],[14,-7],[20,-1],[20,2],[17,0],[15,13],[16,9],[17,2],[7,-3],[5,5],[20,1],[12,5],[-9,28],[-2,17],[-5,17]],[[1671,0],[-17,13],[-17,17],[-34,27],[-45,29],[-20,7],[-11,10],[-12,5],[-9,10],[-20,8],[-15,16],[-24,19],[-5,7],[-2,12],[-5,8],[-14,9],[-10,13],[-11,9],[-14,5],[-25,12],[-71,56],[-27,18],[-22,-5],[-21,12],[-26,19],[-3,-6],[-1,-11],[5,-8],[11,-5],[6,-8],[-1,-13],[3,-12],[26,-28],[11,-20],[15,-17],[19,-14],[18,-16],[36,-40],[13,-16],[15,-7],[42,-37],[16,-10],[18,-7],[35,-20],[23,-10],[14,-14],[20,-10],[22,-7]],[[579,2287],[-10,19],[-18,10],[-31,21],[-53,1],[-17,-3],[-40,30],[-12,1],[-11,-8],[-3,-8],[1,-22],[1,-11],[11,-20],[14,-17],[8,-6],[9,-6],[28,-4],[58,-1],[29,-14],[30,-6],[12,2],[16,7],[3,3],[-4,18],[-8,10],[-13,4]],[[4096,930],[-13,-7],[-6,6],[6,17],[13,17]],[[3982,875],[3,-26],[6,5],[4,12],[-2,6],[-5,3],[-6,0]],[[3970,746],[-7,-5],[-2,-5],[-1,-6],[16,-15],[2,2],[2,7],[-5,14],[-5,8]],[[3868,795],[5,-12],[10,4],[4,9],[-4,11],[-8,-1],[-7,-11]],[[1970,962],[25,-9],[3,8],[-5,3],[-15,4],[-13,14],[-5,2],[-6,6],[-6,9],[-3,-2],[-9,-7],[-2,-9],[5,-15],[5,-7],[6,0],[20,3]],[[1965,1047],[1,7],[-4,6],[-8,6],[-6,21],[-7,7],[-18,-18],[-14,-3],[-10,-6],[5,-8],[11,-9],[30,-5],[20,2]],[[1993,821],[-19,-1],[-4,1],[-4,0],[-5,-1],[-15,-18],[-6,-12],[5,-1],[9,3],[8,-1],[5,-8],[-10,-6],[27,-5],[23,2],[11,19],[-7,2],[-18,26]],[[1912,1243],[-32,-5],[-28,-26],[9,-5],[22,-1],[12,9],[17,28]],[[1763,1223],[-10,48],[-4,2],[-7,10],[-3,18],[4,7],[-9,2],[-7,-3],[-3,-22],[-9,-15],[-6,-3],[-14,0],[-12,61],[-15,17],[-10,19],[-7,-1],[-8,-22],[0,-17],[22,-67],[-3,-37],[13,-20],[11,-10],[-1,-12],[13,0],[20,10],[29,0],[19,17],[0,8],[-3,10]],[[1941,1210],[-7,-41],[10,-46],[3,-8],[3,0],[8,3],[2,11],[-15,72],[-4,9]],[[1935,1236],[8,-13],[3,12],[-1,24],[-9,40],[-4,-1],[-2,-5],[5,-57]],[[1874,1036],[-3,10],[-12,5],[-6,10],[-7,-1],[-26,18],[-3,9],[-4,0],[-8,4],[-14,34],[-15,7],[-10,-1],[-3,-8],[-6,-29],[12,-14],[5,1],[13,7],[6,-7],[6,-18],[3,-28],[9,-19],[-2,-3],[2,-7],[14,-4],[16,14],[27,-3],[14,12],[-8,11]],[[1772,1176],[-21,4],[-4,-12],[19,-12],[3,5],[3,15]],[[418,2527],[9,15],[-75,55],[-12,7],[-15,3],[-16,13],[-16,1],[-18,12],[-7,9],[-20,13],[-23,22],[-51,11],[4,-6],[16,-14],[6,-20],[16,-11],[17,-17],[9,-4],[5,-6],[16,-15],[26,-12],[28,-17],[9,-1],[12,-11],[52,-21],[19,-19],[24,-15],[0,4],[-5,13],[-10,11]],[[0,2718],[3,3],[-3,4]],[[3793,562],[-10,-5],[-13,-2],[-10,-11],[-9,-7],[-10,1],[-9,-8],[-8,-3],[12,-6],[25,6],[4,2],[1,3],[4,5],[14,12],[5,-2],[8,-6],[24,5],[0,8],[-13,5],[-15,3]],[[1809,1451],[-5,-5],[-1,-16],[5,-2],[20,-3],[8,9],[2,14],[-16,8],[-13,-5]],[[1820,1504],[8,2],[2,5],[0,6],[-1,7],[-12,13],[-14,-7],[-2,-8],[11,-22],[4,-2],[2,2],[2,4]],[[2230,334],[-2,-9],[12,-7],[10,0],[7,10],[-8,7],[-4,1],[-15,-2]],[[2159,464],[-4,24],[-8,1],[-8,-4],[-6,-25],[8,-12],[16,-15],[16,-5],[10,21],[-24,15]],[[2147,574],[-17,13],[10,7],[-14,7],[-6,17],[-10,3],[-14,-5],[-5,-12],[2,-22],[-2,-9],[48,-21],[7,-1],[8,10],[-7,13]],[[1913,96],[-3,4],[-1,7],[0,6],[-11,-7],[-20,-3],[11,-25],[0,-11],[12,-4],[4,-7],[8,0],[20,5],[4,32],[-15,-1],[-9,4]],[[1649,258],[0,-10],[-12,-18],[10,2],[8,7],[6,12],[-4,2],[0,12],[3,9],[9,5],[-8,6],[-8,1],[1,-7],[-5,-21]],[[1783,196],[1,30],[-6,6],[-11,5],[-27,-9],[-2,-7],[16,-1],[10,-7],[-14,-19],[-15,-4],[8,-13],[11,-12],[25,-7],[13,-13],[10,1],[6,14],[0,6],[-13,21],[-12,9]],[[442,517],[2,-30],[2,4],[5,14],[-3,23],[-6,-11]],[[1703,1935],[-12,1],[-8,-4],[11,-16],[6,0],[17,3],[-10,6],[-4,10]],[[1552,2106],[-21,-3],[-9,-5],[-4,-11],[-9,1],[0,-5],[5,-11],[7,0],[9,-2],[12,14],[10,2],[5,-1],[15,3],[-1,2],[6,10],[-7,2],[-18,4]],[[469,1951],[-14,4],[-2,-5],[-2,-8],[5,-8],[15,-2],[2,-3],[9,-7],[22,-3],[16,-9],[7,-15],[9,-4],[11,-4],[13,7],[-7,7],[-16,12],[-68,38]],[[704,2324],[-20,33],[0,23],[-9,11],[-1,8],[-8,24],[-21,20],[-12,3],[-6,8],[2,18],[6,7],[2,9],[-45,56],[-9,0],[-3,-4],[-7,0],[-9,1],[-1,-8],[22,-31],[-9,-15],[20,-64],[18,-36],[28,-22],[3,-6],[27,-16],[24,-37],[8,-4],[2,7],[-2,15]],[[872,2084],[-1,13],[-23,38],[-10,10],[-15,-5],[-19,8],[-14,-2],[-23,11],[-3,3],[-8,4],[-32,21],[-17,6],[-14,0],[-4,-14],[2,-9],[19,-1],[16,-5],[2,-18],[7,-6],[0,-14],[45,-28],[22,-9],[25,-4],[15,-8],[14,4],[18,-5],[13,2],[-15,8]],[[712,2304],[0,-15],[6,-7],[6,5],[14,-15],[1,7],[-2,20],[-26,48],[-8,3],[7,-18],[3,-12],[-1,-16]],[[305,2392],[2,1],[9,6],[-1,11],[-10,2],[-4,4],[-4,1],[-10,-6],[-7,-9],[6,-6],[10,-1],[9,-3]],[[513,2405],[-12,10],[-5,-1],[-10,3],[-13,-7],[1,-9],[13,-1],[14,-7],[3,-7],[1,-1],[5,1],[13,-4],[6,8],[-16,15]],[[391,2519],[-1,6],[-9,7],[-7,-4],[-3,-10],[6,-6],[13,-7],[8,3],[-7,11]],[[70,2496],[3,12],[-14,34],[-11,15],[-20,5],[-8,10],[-2,30],[-18,6]],[[0,2554],[1,0],[10,-2],[1,-12],[4,-20],[12,-11],[17,-4],[13,-17],[3,8],[9,0]],[[129,2476],[-10,-20],[5,-7],[4,0],[9,5],[-3,6],[-5,16]],[[75,2497],[-2,-4],[-4,-15],[11,-13],[13,-5],[18,15],[-1,7],[-3,4],[-4,3],[12,10],[-5,3],[-19,6],[-6,-7],[-5,-3],[-5,-1]],[[22,2466],[-8,5],[-9,2],[-5,-1]],[[0,2463],[16,-6],[10,-3],[0,7],[-4,5]],[[4096,1009],[-2,-1],[-1,4],[3,6]],[[1718,4005],[-4,-2],[-2,-5],[2,-4],[4,-1],[4,7],[-1,3],[-3,2]],[[3086,3975],[-8,3],[-5,8],[2,0],[9,-7],[6,-3],[4,-15],[2,-15],[-6,-5],[-2,5],[3,6],[-5,23]],[[3143,3874],[-4,8],[-5,2],[5,-9],[1,-10],[1,-4],[5,-1],[-2,10],[-1,4]],[[3571,1766],[-9,1],[-7,-2],[-4,-1],[2,-3],[12,-1],[7,2],[1,2],[-2,2]],[[3112,45],[-1,4],[3,2],[4,-1],[0,-4],[-1,-2],[-5,1]],[[3950,2503],[3,2],[0,2],[-1,5],[-1,4],[-1,-1],[0,-4],[1,-4],[-1,-4]],[[3853,2704],[2,-1],[2,-2],[1,-2],[0,-2],[-1,0],[-2,3],[-2,4]],[[3802,2597],[-1,-3],[-2,-3],[2,-1],[2,4],[-1,3]],[[2189,3934],[0,3],[3,1],[3,-2],[-1,-3],[-2,-1],[-3,2]],[[1913,96],[9,-4],[15,1],[-4,-32],[-20,-5],[-8,0],[-4,7],[-12,4],[0,11],[-11,25],[20,3],[11,7],[0,-6],[1,-7],[3,-4]],[[1802,146],[-10,-1],[-13,13],[-25,7],[-11,12],[-8,13],[15,4],[14,19],[-10,7],[-16,1],[2,7],[27,9],[11,-5],[6,-6],[-1,-30],[12,-9],[13,-21],[0,-6],[-6,-14]],[[1647,232],[-10,-2],[12,18],[0,10],[5,21],[-1,7],[8,-1],[8,-6],[-9,-5],[-3,-9],[0,-12],[4,-2],[-6,-12],[-8,-7]],[[3883,787],[-10,-4],[-5,12],[7,11],[8,1],[4,-11],[-4,-9]],[[3978,717],[-2,-2],[-16,15],[1,6],[2,5],[7,5],[5,-8],[5,-14],[-2,-7]],[[4096,930],[-13,-7],[-6,6],[6,17],[13,17],[0,-14],[0,-19]],[[1671,0],[-114,0],[-22,7],[-20,10],[-14,14],[-23,10],[-35,20],[-18,7],[-16,10],[-42,37],[-15,7],[-13,16],[-36,40],[-18,16],[-19,14],[-15,17],[-11,20],[-26,28],[-3,12],[1,13],[-6,8],[-11,5],[-5,8],[1,11],[3,6],[26,-19],[21,-12],[22,5],[27,-18],[71,-56],[25,-12],[14,-5],[11,-9],[10,-13],[14,-9],[5,-8],[2,-12],[5,-7],[24,-19],[15,-16],[20,-8],[9,-10],[12,-5],[11,-10],[20,-7],[45,-29],[34,-27],[17,-17],[17,-13]],[[2257,328],[-7,-10],[-10,0],[-12,7],[2,9],[15,2],[4,-1],[8,-7]],[[2183,449],[-10,-21],[-16,5],[-16,15],[-8,12],[6,25],[8,4],[8,-1],[4,-24],[24,-15]],[[3821,554],[0,-8],[-24,-5],[-8,6],[-5,2],[-14,-12],[-4,-5],[-1,-3],[-4,-2],[-25,-6],[-12,6],[8,3],[9,8],[10,-1],[9,7],[10,11],[13,2],[10,5],[15,-3],[13,-5]],[[2154,561],[-8,-10],[-7,1],[-48,21],[2,9],[-2,22],[5,12],[14,5],[10,-3],[6,-17],[14,-7],[-10,-7],[17,-13],[7,-13]],[[1993,821],[18,-26],[7,-2],[-11,-19],[-23,-2],[-27,5],[10,6],[-5,8],[-8,1],[-9,-3],[-5,1],[6,12],[15,18],[5,1],[4,0],[4,-1],[19,1]],[[3783,853],[0,-8],[5,-4],[6,0],[13,-16],[20,-14],[13,-10],[0,-9],[-3,-9],[5,-17],[2,-17],[9,-28],[-12,-5],[-20,-1],[-5,-5],[-7,3],[-17,-2],[-16,-9],[-15,-13],[-17,0],[-20,-2],[-20,1],[-14,7],[-24,7],[-33,6],[-13,5],[-12,9],[-10,20],[-2,10],[2,10],[9,3],[8,5],[2,6],[3,4],[5,2],[2,3],[-3,10],[-1,10],[19,17],[20,15],[37,13],[22,-1],[34,10],[11,5],[11,-3],[6,-8]],[[1993,964],[5,-3],[-3,-8],[-25,9],[-20,-3],[-6,0],[-5,7],[-5,15],[2,9],[9,7],[3,2],[6,-9],[6,-6],[5,-2],[13,-14],[15,-4]],[[4096,1078],[-28,-25],[-10,-13],[-8,-14],[-23,-15],[-10,-21],[0,-20],[24,21],[26,18],[8,4],[8,-1],[0,-6],[-4,-6],[-3,-15],[7,-15],[-20,2],[-19,-1],[-23,-9],[-22,-3],[-9,0],[-8,3],[-5,4],[-4,9],[-4,2],[-18,-1],[-27,-19],[-9,-16],[-10,0],[-12,3],[-15,-12],[-17,-5],[-8,11],[-5,12],[-6,10],[-20,2],[3,12],[6,5],[4,6],[3,8],[9,-5],[10,-3],[10,6],[11,0],[12,18],[17,10],[24,9],[24,6],[12,1],[12,3],[21,16],[14,9],[16,5],[14,3],[14,-3],[10,1],[28,12],[0,-3]],[[1805,1091],[8,-4],[4,0],[3,-9],[26,-18],[7,1],[6,-10],[12,-5],[3,-10],[8,-11],[-14,-12],[-27,3],[-16,-14],[-14,4],[-2,7],[2,3],[-9,19],[-3,28],[-6,18],[-6,7],[-13,-7],[-5,-1],[-12,14],[6,29],[3,8],[10,1],[15,-7],[14,-34]],[[1965,1047],[-20,-2],[-30,5],[-11,9],[-5,8],[10,6],[14,3],[18,18],[7,-7],[6,-21],[8,-6],[4,-6],[-1,-7]],[[1946,1235],[-3,-12],[-8,13],[-5,57],[2,5],[4,1],[9,-40],[1,-24]],[[1950,1115],[-3,0],[-3,8],[-10,46],[7,41],[4,-9],[15,-72],[-2,-11],[-8,-3]],[[1895,1215],[-12,-9],[-22,1],[-9,5],[28,26],[32,5],[-17,-28]],[[1769,1161],[-3,-5],[-19,12],[4,12],[21,-4],[-3,-15]],[[1683,1328],[12,-61],[14,0],[6,3],[9,15],[3,22],[7,3],[9,-2],[-4,-7],[3,-18],[7,-10],[4,-2],[10,-48],[3,-10],[0,-8],[-19,-17],[-29,0],[-20,-10],[-13,0],[1,12],[-11,10],[-13,20],[3,37],[-22,67],[0,17],[8,22],[7,1],[10,-19],[15,-17]],[[737,2299],[2,-20],[-1,-7],[-14,15],[-6,-5],[-6,7],[0,15],[1,16],[-3,12],[-7,18],[8,-3],[26,-48]],[[410,2365],[40,-30],[17,3],[53,-1],[31,-21],[18,-10],[10,-19],[13,-4],[8,-10],[4,-18],[-3,-3],[-16,-7],[-12,-2],[-30,6],[-29,14],[-58,1],[-28,4],[-9,6],[-8,6],[-14,17],[-11,20],[-1,11],[-1,22],[3,8],[11,8],[12,-1]],[[486,2417],[10,-3],[5,1],[12,-10],[16,-15],[-6,-8],[-13,4],[-5,-1],[-1,1],[-3,7],[-14,7],[-13,1],[-1,9],[13,7]],[[307,2393],[-2,-1],[-9,3],[-10,1],[-6,6],[7,9],[10,6],[4,-1],[4,-4],[10,-2],[1,-11],[-9,-6]],[[0,2463],[0,9],[5,1],[9,-2],[8,-5],[4,-5],[0,-7],[-10,3],[-16,6]],[[111,2475],[-18,-15],[-13,5],[-11,13],[4,15],[2,4],[5,1],[5,3],[6,7],[19,-6],[5,-3],[-12,-10],[4,-3],[3,-4],[1,-7]],[[592,2544],[45,-56],[-2,-9],[-6,-7],[-2,-18],[6,-8],[12,-3],[21,-20],[8,-24],[1,-8],[9,-11],[0,-23],[20,-33],[2,-15],[-2,-7],[-8,4],[-24,37],[-27,16],[-3,6],[-28,22],[-18,36],[-20,64],[9,15],[-22,31],[1,8],[9,-1],[7,0],[3,4],[9,0]],[[398,2508],[-8,-3],[-13,7],[-6,6],[3,10],[7,4],[9,-7],[1,-6],[7,-11]],[[0,2554],[0,54],[18,-6],[2,-30],[8,-10],[20,-5],[11,-15],[14,-34],[-3,-12],[-9,0],[-3,-8],[-13,17],[-17,4],[-12,11],[-4,20],[-1,12],[-10,2],[-1,0]],[[433,2503],[0,-4],[-24,15],[-19,19],[-52,21],[-12,11],[-9,1],[-28,17],[-26,12],[-16,15],[-5,6],[-9,4],[-17,17],[-16,11],[-6,20],[-16,14],[-4,6],[51,-11],[23,-22],[20,-13],[7,-9],[18,-12],[16,-1],[16,-13],[15,-3],[12,-7],[75,-55],[-9,-15],[10,-11],[5,-13]],[[0,2718],[0,7],[3,-4],[-3,-3]],[[1836,1434],[-8,-9],[-20,3],[-5,2],[1,16],[5,5],[13,5],[16,-8],[-2,-14]],[[1818,1500],[-2,-2],[-4,2],[-11,22],[2,8],[14,7],[12,-13],[1,-7],[0,-6],[-2,-5],[-8,-2],[-2,-4]],[[1717,1919],[-17,-3],[-6,0],[-11,16],[8,4],[12,-1],[4,-10],[10,-6]],[[1572,2088],[-15,-3],[-5,1],[-10,-2],[-12,-14],[-9,2],[-7,0],[-5,11],[0,5],[9,-1],[4,11],[9,5],[21,3],[18,-4],[7,-2],[-6,-10],[1,-2]],[[560,1894],[-13,-7],[-11,4],[-9,4],[-7,15],[-16,9],[-22,3],[-9,7],[-2,3],[-15,2],[-5,8],[2,8],[2,5],[14,-4],[68,-38],[16,-12],[7,-7]],[[767,2157],[23,-11],[14,2],[19,-8],[15,5],[10,-10],[23,-38],[1,-13],[15,-8],[-13,-2],[-18,5],[-14,-4],[-15,8],[-25,4],[-22,9],[-45,28],[0,14],[-7,6],[-2,18],[-16,5],[-19,1],[-2,9],[4,14],[14,0],[17,-6],[32,-21],[8,-4],[3,-3]]]}