{"objects":{"water":{"type":"GeometryCollection","geometries":[{"type":"MultiPolygon","properties":{"source":"naturalearthdata.com","kind":"ocean","area":1576712559132672,"sort_rank":200,"min_zoom":0.0,"id":1},"arcs":[[[0],[1],[2],[3],[4],[5],[6],[7],[8],[9],[10],[11],[12],[13],[14],[15],[16],[17],[18],[19],[20],[21],[22],[23],[24],[25],[26],[27],[28],[29],[30],[31],[32],[33],[34]]]},{"type":"LineString","properties":{"source":"naturalearthdata.com","kind":"ocean","sort_rank":205,"boundary":true,"min_zoom":0.0,"id":2065},"arcs":[35]},{"type":"LineString","properties":{"source":"naturalearthdata.com","kind":"ocean","sort_rank":205,"boundary":true,"min_zoom":0.0,"id":2066},"arcs":[36]},{"type":"LineString","properties":{"source":"naturalearthdata.com","kind":"ocean","sort_rank":205,"boundary":true,"min_zoom":0.0,"id":2067},"arcs":[37]},{"type":"LineString","properties":{"source":"naturalearthdata.com","kind":"ocean","sort_rank":205,"boundary":true,"min_zoom":0.0,"id":2202},"arcs":[38]},{"type":"LineString","properties":{"source":"naturalearthdata.com","kind":"ocean","sort_rank":205,"boundary":true,"min_zoom":0.0,"id":2498},"arcs":[39]},{"type":"LineString","properties":{"source":"naturalearthdata.com","kind":"ocean","sort_rank":205,"boundary":true,"min_zoom":0.0,"id":2499},"arcs":[40]},{"type":"MultiLineString","properties":{"source":"naturalearthdata.com","kind":"ocean","sort_rank":205,"boundary":true,"min_zoom":0.0,"id":2500},"arcs":[[41],[42]]},{"type":"MultiLineString","properties":{"source":"naturalearthdata.com","kind":"ocean","sort_rank":205,"boundary":true,"min_zoom":0.0,"id":2501},"arcs":[[43],[44]]},{"type":"LineString","properties":{"source":"naturalearthdata.com","kind":"ocean","sort_rank":205,"boundary":true,"min_zoom":0.0,"id":2502},"arcs":[45]},{"type":"LineString","properties":{"source":"naturalearthdata.com","kind":"ocean","sort_rank":205,"boundary":true,"min_zoom":0.0,"id":2503},"arcs":[46]},{"type":"LineString","properties":{"source":"naturalearthdata.com","kind":"ocean","sort_rank":205,"boundary":true,"min_zoom":0.0,"id":2504},"arcs":[47]},{"type":"LineString","properties":{"source":"naturalearthdata.com","kind":"ocean","sort_rank":205,"boundary":true,"min_zoom":0.0,"id":2505},"arcs":[48]},{"type":"LineString","properties":{"source":"naturalearthdata.com","kind":"ocean","sort_rank":205,"boundary":true,"min_zoom":0.0,"id":2506},"arcs":[49]},{"type":"LineString","properties":{"source":"naturalearthdata.com","kind":"ocean","sort_rank":205,"boundary":true,"min_zoom":0.0,"id":2507},"arcs":[50]},{"type":"LineString","properties":{"source":"naturalearthdata.com","kind":"ocean","sort_rank":205,"boundary":true,"min_zoom":0.0,"id":2508},"arcs":[51]},{"type":"LineString","properties":{"source":"naturalearthdata.com","kind":"ocean","sort_rank":205,"boundary":true,"min_zoom":0.0,"id":2509},"arcs":[52]},{"type":"LineString","properties":{"source":"naturalearthdata.com","kind":"ocean","sort_rank":205,"boundary":true,"min_zoom":0.0,"id":2510},"arcs":[53]},{"type":"LineString","properties":{"source":"naturalearthdata.com","kind":"ocean","sort_rank":205,"boundary":true,"min_zoom":0.0,"id":2511},"arcs":[54]},{"type":"LineString","properties":{"source":"naturalearthdata.com","kind":"ocean","sort_rank":205,"boundary":true,"min_zoom":0.0,"id":2512},"arcs":[55]},{"type":"LineString","properties":{"source":"naturalearthdata.com","kind":"ocean","sort_rank":205,"boundary":true,"min_zoom":0.0,"id":2513},"arcs":[56]},{"type":"LineString","properties":{"source":"naturalearthdata.com","kind":"ocean","sort_rank":205,"boundary":true,"min_zoom":0.0,"id":2514},"arcs":[57]},{"type":"LineString","properties":{"source":"naturalearthdata.com","kind":"ocean","sort_rank":205,"boundary":true,"min_zoom":0.0,"id":2517},"arcs":[58]},{"type":"MultiLineString","properties":{"source":"naturalearthdata.com","kind":"ocean","sort_rank":205,"boundary":true,"min_zoom":0.0,"id":2724},"arcs":[[59],[60]]},{"type":"MultiLineString","properties":{"source":"naturalearthdata.com","kind":"ocean","sort_rank":205,"boundary":true,"min_zoom":0.0,"id":2725},"arcs":[[61],[62]]},{"type":"LineString","properties":{"source":"naturalearthdata.com","kind":"ocean","sort_rank":205,"boundary":true,"min_zoom":0.0,"id":2726},"arcs":[63]},{"type":"LineString","properties":{"source":"naturalearthdata.com","kind":"ocean","sort_rank":205,"boundary":true,"min_zoom":0.0,"id":2727},"arcs":[64]},{"type":"LineString","properties":{"source":"naturalearthdata.com","kind":"ocean","sort_rank":205,"boundary":true,"min_zoom":0.0,"id":2728},"arcs":[65]},{"type":"LineString","properties":{"source":"naturalearthdata.com","kind":"ocean","sort_rank":205,"boundary":true,"min_zoom":0.0,"id":2729},"arcs":[66]},{"type":"LineString","properties":{"source":"naturalearthdata.com","kind":"ocean","sort_rank":205,"boundary":true,"min_zoom":0.0,"id":2730},"arcs":[67]},{"type":"LineString","properties":{"source":"naturalearthdata.com","kind":"ocean","sort_rank":205,"boundary":true,"min_zoom":0.0,"id":3373},"arcs":[68]},{"type":"LineString","properties":{"source":"naturalearthdata.com","kind":"ocean","sort_rank":205,"boundary":true,"min_zoom":0.0,"id":3374},"arcs":[69]},{"type":"LineString","properties":{"source":"naturalearthdata.com","kind":"ocean","sort_rank":205,"boundary":true,"min_zoom":0.0,"id":3780},"arcs":[70]}]},"buildings":{"type":"GeometryCollection","geometries":[]},"places":{"type":"GeometryCollection","geometries":[{"type":"Point","properties":{"name:ka":"\u10e1\u10dd\u10da\u10dd\u10db\u10dd\u10dc\u10d8\u10e1 \u10d9\u10e3\u10dc\u10eb\u10e3\u10da\u10d4\u10d1\u10d8","name:ko":"\uc194\ub85c\ubaac \uc81c\ub3c4","name:cv":"\u0421\u043e\u043b\u043e\u043c\u043e\u043d \u0423\u0442\u0440\u0430\u0432\u04d7\u0441\u0435\u043c","name:km":"\u1780\u17c4\u17c7\u200b\u179f\u17ca\u17bc\u17a1\u17bc\u1798\u17c9\u17bb\u1784","name:cs":"\u0160alamounovy ostrovy","name:ki":"Visiwa vya Solomon","name:kw":"Ynysow Salamon","name:ku":"Girav\u00ean Salomon","name:ti":"\u1230\u120e\u121e\u1295 \u12f0\u1234\u1275","name:ks":"\u0633\u0648\u0644\u0627\u0645\u0627\u0646 \u062c\u0654\u0632\u06cc\u0656\u0631\u0655","name:to":"\u02bbOtumotu Solomone","name:tl":"Kapuluang Solomon","name:ce":"\u0421\u043e\u043b\u043e\u043c\u043e\u043d\u0430\u043d \u0433\u04c0\u0430\u0439\u0440\u0435\u0448","name:ta":"\u0b9a\u0bbe\u0bb2\u0bae\u0ba9\u0bcd \u0ba4\u0bc0\u0bb5\u0bc1\u0b95\u0bb3\u0bcd","name:tg":"\u04b6\u0430\u0437\u0438\u0440\u0430\u04b3\u043e\u0438 \u0421\u043e\u043b\u043e\u043c\u043e\u043d","name:ca":"Salom\u00f3","name:te":"\u0c38\u0c4b\u0c32\u0c4b\u0c2e\u0c28\u0c4d \u0c26\u0c40\u0c35\u0c41\u0c32\u0c41","name:cy":"Ynysoedd Solomon","name:hr":"Salomonski Otoci","name:da":"Salomon\u00f8erne","name:de":"Salomonen","name:dz":"\u0f66\u0f7c\u0f0b\u0f63\u0f7c\u0f0b\u0f58\u0f7c\u0f53\u0f0b \u0f42\u0fb3\u0f72\u0f44\u0f0b\u0f5a\u0f7c\u0f58","source":"openstreetmap.org","name:kn":"\u0cb8\u0cca\u0cb2\u0cca\u0cae\u0ca8\u0ccd \u0ca6\u0ccd\u0cb5\u0cc0\u0caa\u0c97\u0cb3\u0cc1","name:dv":"\u0790\u07ae\u078d\u07ae\u0789\u07ae\u0782\u07b0 \u0796\u07a6\u0792\u07a9\u0783\u07a7","name:lv":"Z\u0101lamana salas","name:lt":"Saliamono salos","name:uz":"Solomon Orollari","name:kk":"\u0421\u043e\u043b\u043e\u043c\u043e\u043d \u0410\u0440\u0430\u043b\u0434\u0430\u0440\u044b","name:ur":"\u0633\u0648\u0644\u0648\u0645\u0646 \u0622\u0626\u0644\u06cc\u0646\u0688\u0632","name:lb":"Salomonen","name:la":"Insulae Salomonis","name:lg":"Bizanga by'eSolomooni","name:uk":"\u0421\u043e\u043b\u043e\u043c\u043e\u043d\u043e\u0432\u0456 \u041e\u0441\u0442\u0440\u043e\u0432\u0438","name:ug":"\u0633\u0648\u0644\u0648\u0645\u0648\u0646 \u062a\u0627\u0642\u0649\u0645 \u0626\u0627\u0631\u0627\u0644\u0644\u0649\u0631\u0649","name:li":"Salomonseilen","name:ln":"Bisanga Solom\u0254","name:lo":"\u0eab\u0ea1\u0eb9\u0ec8\u0ec0\u0e81\u0eb2\u0eb0\u0ec2\u0e8a\u0ec2\u0ea5\u0ea1\u0ead\u0e99","name:el":"\u039d\u03ae\u03c3\u03bf\u03b9 \u03a3\u03bf\u03bb\u03bf\u03bc\u03ce\u03bd\u03c4\u03bf\u03c2","name:eo":"Salomonoj","name":"Solomon Islands","name:ee":"Solomon \u0192udomekpowo nutome","name:th":"\u0e2b\u0e21\u0e39\u0e48\u0e40\u0e01\u0e32\u0e30\u0e42\u0e0b\u0e42\u0e25\u0e21\u0e2d\u0e19","name:eu":"Salomon uharteak","name:et":"Saalomoni Saared","name:es":"Islas Salom\u00f3n","name:ia":"Insulas Solomon","name:rm":"Salomonas","name:rn":"Amazinga ya Salumoni","name:az":"Solomon Adalar\u0131","name:id":"Kepulauan Solomon","name:ar":"\u062c\u0632\u0631 \u0633\u0644\u064a\u0645\u0627\u0646","name:io":"Salomon Insuli","name:is":"Sal\u00f3monseyjar","name:am":"\u1230\u120e\u121e\u1295 \u12f0\u1234\u1275","name:it":"Isole Salomone","name:an":"Islas Salom\u00f3n","name:ru":"\u0421\u043e\u043b\u043e\u043c\u043e\u043d\u043e\u0432\u044b \u041e\u0441\u0442\u0440\u043e\u0432\u0430","name:rw":"Ibirwa bya Solomoni","name:af":"Solomon Eilande","name:zu":"i-Solomon Islands","name:zh-yue":"\u6240\u7f85\u9580\u7fa4\u5cf6","name:zh":"\u6240\u7f57\u95e8\u7fa4\u5c9b","name:so":"Jasiiradaha Solomon","name:sn":"Zvitsuwa zvaSolomon","name:sl":"Salomonovi otoki","name:sk":"\u0160alam\u00fanove ostrovy","name:ja":"\u30bd\u30ed\u30e2\u30f3\u8af8\u5cf6","name:si":"\u0dc3\u0ddc\u0dbd\u0db8\u0db1\u0dca \u0daf\u0dd6\u0db4\u0dad\u0dca","name:sh":"Solomonski Otoci","name:sg":"Z\u00fb\u00e2 Salom\u00f6on","name:se":"Salomon-sullot","name:sa":"\u0938\u094b\u0932\u094b\u092e\u0928-\u0926\u094d\u0935\u0940\u092a","name:bs":"Solomonska Ostrva","name:bm":"Salomo Gun","name:bn":"\u09b8\u09b2\u09cb\u09ae\u09a8 \u09a6\u09cd\u09ac\u09c0\u09aa\u09aa\u09c1\u099e\u09cd\u099c","name:bo":"\u0f66\u0f7c\u0f0b\u0f63\u0f7c\u0f0b\u0f58\u0f7c\u0f53\u0f0d \u0f42\u0fb3\u0f72\u0f44\u0f0b\u0f55\u0fb2\u0f53\u0f0b\u0f5a\u0f7c\u0f0b\u0f41\u0f42\u0f0d","name:br":"Inizi Solomon","name:sw":"Visiwa vya Solomon","name:be":"\u0421\u0430\u043b\u0430\u043c\u043e\u043d\u0430\u0432\u044b \u0410\u0441\u0442\u0440\u0430\u0432\u044b","name:su":"Kapuloan Solomon","name:bg":"\u0421\u043e\u043b\u043e\u043c\u043e\u043d\u043e\u0432\u0438 \u043e\u0441\u0442\u0440\u043e\u0432\u0438","name:sr":"\u0421\u043e\u043b\u043e\u043c\u043e\u043d\u0441\u043a\u0430 \u041e\u0441\u0442\u0440\u0432\u0430","name:sq":"Ishujt Solomon","name:jv":"Kapuloan Solomon","name:pt":"Ilhas Salom\u00e3o","name:mt":"G\u017cejjer Solomon","name:oc":"Illas Salamon","min_zoom":2.0,"name:ro":"Insulele Solomon","name:zh-min-nan":"S\u00f3\u0358-l\u00f4-b\u00fbn K\u00fbn-t\u00f3","name:os":"\u0421\u043e\u043b\u043e\u043c\u043e\u043d\u044b \u0441\u0430\u043a\u044a\u0430\u0434\u00e6\u0445\u0442\u00e6","name:or":"\u0b38\u0b4b\u0b32\u0b4b\u0b2e\u0b28\u0b4d \u0b26\u0b4d\u0b2c\u0b40\u0b2a\u0b2a\u0b41\u0b1e\u0b4d\u0b1c","name:pl":"Wyspy Salomona","name:pa":"\u0a38\u0a4b\u0a32\u0a4b\u0a2e\u0a28 \u0a1f\u0a3e\u0a2a\u0a42","name:tr":"Solomon Adalar\u0131","name:hi":"\u0938\u094b\u0932\u094b\u092e\u0928 \u0926\u094d\u0935\u0940\u092a","name:sv":"Solomon\u00f6arna","name:he":"\u05d0\u05d9\u05d9 \u05e9\u05dc\u05de\u05d4","name:ha":"Tsibiran Salaman","name:hy":"\u054d\u0578\u056c\u0578\u0574\u0578\u0576\u0575\u0561\u0576 \u056f\u0572\u0566\u056b\u0576\u0565\u0580","name:ht":"Salomon","name:hu":"Salamon-szigetek","name:qu":"Salumun wat'akuna","population":538000,"kind":"country","name:yo":"Or\u00edl\u1eb9\u0301\u00e8de Etikun Solomoni","alt_name:el":"\u039d\u03b7\u03c3\u03b9\u03ac \u03a3\u03bf\u03bb\u03bf\u03bc\u03ce\u03bd\u03c4\u03bf\u03c2;\u039d\u03b7\u03c3\u03b9\u03ac \u03a3\u03bf\u03bb\u03bf\u03bc\u03ce\u03bd\u03c4\u03b1;\u039d\u03ae\u03c3\u03bf\u03b9 \u03a3\u03bf\u03bb\u03bf\u03bc\u03ce\u03bd\u03c4\u03b1","name:ms":"Kepulauan Solomon","name:mr":"\u0938\u094b\u0932\u094b\u092e\u0928 \u092c\u0947\u091f\u0947","name:my":"\u1006\u1031\u102c\u103a\u101c\u1019\u103d\u1014\u103a\u1000\u103b\u103d\u1014\u103a\u1038\u1005\u102f","name:mg":"Nosy Salomona","name:ml":"\u0d38\u0d4b\u0d33\u0d2e\u0d7b\u200d \u0d26\u0d4d\u0d35\u0d40\u0d2a\u0d41\u0d15\u0d7e","name:vi":"Qu\u1ea7n \u0111\u1ea3o Solomon","id":823750101,"name:mk":"\u0421\u043e\u043b\u043e\u043c\u043e\u043d\u043e\u0432\u0438\u0442\u0435 \u041e\u0441\u0442\u0440\u043e\u0432\u0438","name:vo":"Solomonu\u00e4ns","name:fa":"\u062c\u0632\u0627\u06cc\u0631 \u0633\u0644\u06cc\u0645\u0627\u0646","name:ff":"Duu\u0257e Solomon","name:fi":"Salomonsaaret","name:fo":"S\u00e1lomonoyggjarnar","name:fr":"Salomon","name:fy":"Salomonseilannen","name:nl":"Salomonseilanden","name:nn":"Salomon\u00f8yane","name:no":"Salomon\u00f8yene","name:ne":"\u0938\u094b\u0932\u094b\u092e\u094b\u0928 \u091f\u093e\u092a\u0941","name:wo":"Duni Solomon","name:nv":"S\u00f3lomon T\u00f3 Bin\u00e1haazy\u00edn\u00edg\u00ed\u00ed","name:ga":"Oile\u00e1in Sholaimh","name:gd":"Eileanan Sholaimh","name:gl":"Illas Salom\u00f3n","name:gv":"Ny h-Ellanyn Holomon","name:gu":"\u0ab8\u0acb\u0ab2\u0acb\u0aae\u0aa8 \u0a86\u0a87\u0ab2\u0ac7\u0aa8\u0acd\u0aa1"},"coordinates":[1940,529]},{"type":"Point","properties":{"name:ka":"\u10dc\u10d0\u10e3\u10e0\u10e3","name:ko":"\ub098\uc6b0\ub8e8","name:kn":"\u0ca8\u0ccc\u0cb0\u0cc1","name:km":"\u178e\u17bc\u179a\u17bc","name:tt":"\u041d\u0430\u0443\u0440\u0443","name:th":"\u0e1b\u0e23\u0e30\u0e40\u0e17\u0e28\u0e19\u0e32\u0e2d\u0e39\u0e23\u0e39","name:ti":"\u1293\u12a1\u1229","name:ks":"\u0646\u0627\u0631\u0648\u0648\u0657","name:to":"Naulu","name:or":"\u0b28\u0b3e\u0b09\u0b30\u0b41","name:ta":"\u0ba8\u0bcc\u0bb0\u0bc1","name:te":"\u0c28\u0c4c\u0c30\u0c41","name:cy":"Nawrw","name:dz":"\u0f53\u0f60\u0f74\u0f0b\u0f62\u0f74\u0f0b","source":"openstreetmap.org","name:ku":"Na\u00fbr\u00fb","name:hi":"\u0928\u093e\u0909\u0930\u0941","name:he":"\u05e0\u05d0\u05d5\u05e8\u05d5","kind":"country","name:ur":"\u0646\u0624\u0631\u0648","name:lg":"Nawuru","name:uk":"\u041d\u0430\u0443\u0440\u0443","name:hy":"\u0546\u0561\u0578\u0582\u0580\u0578\u0582","min_zoom":2.0,"name:li":"Naoeroe","name:lo":"\u0e99\u0eb2\u0ead\u0eb9\u0ea3\u0eb9","population":10175,"name:el":"\u039d\u03b1\u03bf\u03c5\u03c1\u03bf\u03cd","name:eo":"Nauro","name":"Nauru","name:is":"N\u00e1r\u00fa","name:ee":"Nauru nutome","name:ak":"Naworu","name:yo":"Or\u00edl\u1eb9\u0301\u00e8de Nauru","name:rn":"Nawuru","name:mr":"\u0928\u090a\u0930\u0941","name:ar":"\u0646\u0627\u0648\u0631\u0648","official_name":"Republic of Nauru;Republik Naoero","name:mg":"Naor\u00f2","name:am":"\u1293\u12a1\u1229","name:ru":"\u041d\u0430\u0443\u0440\u0443","name:ml":"\u0d28\u0d57\u0d31\u0d42","name:mn":"\u041d\u0430\u0443\u0440\u0443","id":424297917,"name:mk":"\u041d\u0430\u0443\u0440\u0443","name:af":"Naoeroe","name:zu":"i-Nauru","name:ff":"Nawuru","name:fy":"Naur\u00fb","name:vo":"Naure\u00e4n","name:zh":"\u7459\u9b6f","name:ja":"\u30ca\u30a6\u30eb","name:si":"\u0db1\u0dcf\u0dc0\u0dd4\u0dbb\u0dd4","name:fa":"\u0646\u0627\u0626\u0648\u0631\u0648","name:ne":"\u0928\u093e\u0909\u0930\u0942","name:bm":"Nawuru","name:bn":"\u09a8\u09be\u0989\u09b0\u09c1","name:bo":"\u0f53\u0f7d\u0f0b\u0f62\u0f74\u0f0d","name:be":"\u041d\u0430\u045e\u0440\u0443","name:bg":"\u041d\u0430\u0443\u0440\u0443","name:sr":"\u041d\u0430\u0443\u0440\u0443","name:ga":"N\u00e1r\u00fa","name:gd":"Nabhru","name:gu":"\u0aa8\u0acc\u0ab0\u0ac1"},"coordinates":[3435,3904]},{"type":"Point","properties":{"source":"naturalearthdata.com","kind":"locality","name":"Honiara","country_capital":true,"population":76328,"min_zoom":5.0,"id":6861},"coordinates":[892,638]}]},"transit":{"type":"GeometryCollection","geometries":[]},"pois":{"type":"GeometryCollection","geometries":[]},"boundaries":{"type":"GeometryCollection","geometries":[]},"roads":{"type":"GeometryCollection","geometries":[]},"earth":{"type":"GeometryCollection","geometries":[{"type":"MultiPolygon","properties":{"sort_rank":10,"source":"naturalearthdata.com","min_zoom":0.0,"kind":"earth","area":73899892872},"arcs":[[[71]],[[72]],[[73]],[[74]],[[75]],[[76]],[[77]],[[78]],[[79]],[[80]],[[81]],[[82]],[[83]],[[84]],[[85]],[[86]],[[87]],[[88]],[[89]],[[90]],[[91]],[[92]],[[93]],[[94]],[[95]],[[96]]]}]},"landuse":{"type":"GeometryCollection","geometries":[]}},"type":"Topology","transform":{"translate":[157.5,-11.1784018737],"scale":[0.002746582,0.002729102]},"arcs":[[[4096,4096],[0,-4096],[-4096,0],[0,890],[11,-5],[17,-4],[13,-7],[4,-1],[9,4],[1,7],[-6,8],[-7,4],[-3,1],[-2,4],[-4,3],[-6,2],[-2,1],[-1,2],[-3,1],[-3,1],[-2,-1],[-2,-2],[-3,-5],[-2,3],[-6,-2],[-3,0],[0,163],[1,-1],[6,1],[3,2],[4,1],[4,-1],[6,-6],[6,-8],[4,-9],[4,-12],[8,-8],[2,-4],[-1,-4],[-3,-4],[-2,0],[-1,3],[-2,4],[-9,2],[-2,4],[0,11],[-2,4],[-2,4],[0,-22],[1,-6],[3,-8],[0,-5],[2,-1],[8,-11],[16,-11],[10,-4],[20,-2],[9,-5],[8,-8],[3,-6],[2,-5],[1,-1],[3,-3],[2,-4],[1,-6],[3,0],[2,7],[-1,6],[-4,5],[-5,3],[0,2],[10,-1],[23,-9],[-2,3],[-1,3],[0,3],[0,3],[1,5],[1,2],[7,12],[1,3],[0,3],[-1,3],[-2,1],[-3,0],[-1,1],[-3,7],[-2,12],[-3,7],[-2,2],[-6,4],[-2,4],[0,3],[0,9],[-4,5],[-9,7],[-4,6],[-2,8],[-1,2],[-2,3],[-1,1],[-10,8],[-6,2],[-6,0],[-7,-2],[-3,-1],[-5,-3],[-2,-1],[-3,1],[-3,1],[-2,1],[-2,-3],[-1,5],[2,4],[1,4],[-3,6],[-9,8],[-1,4],[3,7],[-2,6],[-1,6],[1,14],[-2,6],[-2,5],[-1,4],[2,7],[-9,1],[-26,14],[-1,0],[-1,0],[0,1],[0,1],[-1,0],[0,200],[4,1],[3,-1],[4,-2],[14,-4],[-2,-2],[-3,-2],[-2,-1],[0,-3],[11,0],[4,2],[0,6],[10,-8],[-2,4],[-1,5],[1,3],[2,3],[-2,3],[-3,-3],[-6,7],[-9,0],[-10,-1],[-10,2],[-3,-2],[0,7],[5,0],[5,2],[1,5],[0,9],[-2,8],[-5,4],[-4,0],[0,2675],[4096,0]],[[3427,3913],[-2,-9],[3,-9],[9,-1],[4,4],[3,8],[-1,8],[-6,2],[-10,-3]],[[722,2424],[-1,-9],[1,1],[1,1],[1,0],[1,1],[-5,18],[-2,2],[2,-3],[2,-11]],[[676,2108],[-2,-1],[3,-4],[3,-2],[2,1],[-2,3],[-4,3]],[[81,1390],[-12,-14],[-4,-9],[7,-4],[2,-1],[3,-4],[2,0],[3,0],[3,1],[2,1],[6,-3],[5,0],[10,1],[-2,5],[-5,13],[0,6],[-3,2],[-17,6]],[[273,1386],[-9,-9],[-4,1],[-2,0],[-5,-5],[0,-3],[7,0],[5,-4],[3,-5],[5,-3],[2,12],[2,-1],[6,-4],[-1,4],[1,4],[1,4],[1,3],[-1,-1],[-2,0],[-2,-1],[0,10],[-7,-2]],[[304,1350],[-4,2],[-5,-2],[-2,4],[-3,2],[-4,2],[-3,2],[-3,0],[-2,-4],[1,-4],[3,-2],[4,-1],[8,-5],[11,-3],[4,-4],[3,-4],[3,-3],[4,-1],[16,-4],[-1,5],[0,3],[3,3],[3,2],[-6,4],[-9,4],[-8,0],[-4,-3],[-9,7]],[[345,1326],[3,-6],[19,-10],[28,-24],[0,-15],[-1,-4],[-1,-4],[0,-3],[2,-5],[6,-5],[16,-9],[3,-7],[6,2],[7,-2],[5,-4],[4,-5],[5,-13],[4,-5],[4,5],[2,0],[4,-3],[4,-5],[-3,-5],[6,-3],[11,-3],[6,2],[3,-7],[2,-14],[21,-10],[7,-1],[5,-3],[4,-6],[0,-7],[8,3],[2,2],[1,-6],[2,-2],[3,0],[4,-2],[1,-2],[2,-5],[0,-1],[2,0],[5,0],[3,0],[10,-5],[2,0],[1,2],[2,1],[2,0],[1,-2],[0,-3],[0,-3],[2,-2],[2,-1],[6,1],[2,0],[34,-25],[7,-4],[8,-2],[8,3],[1,-5],[3,-3],[5,-2],[5,0],[4,-2],[3,-5],[4,-8],[6,2],[7,-2],[12,-8],[5,2],[6,-1],[6,-4],[8,-6],[9,-4],[13,-8],[30,-6],[17,-15],[5,-3],[5,-1],[1,-2],[-1,-3],[1,-4],[4,-4],[11,-9],[5,-6],[3,-3],[7,-2],[4,-7],[7,-2],[1,-3],[1,-2],[2,-2],[1,0],[5,0],[1,0],[12,-7],[3,0],[5,4],[-4,6],[-11,8],[0,8],[-1,5],[-3,5],[-11,16],[-3,3],[-3,-4],[-4,-1],[-3,0],[-3,6],[-6,4],[0,2],[3,2],[4,1],[4,-1],[3,-2],[3,2],[8,11],[7,8],[-1,3],[-71,53],[-33,20],[-17,14],[-1,1],[-1,3],[0,1],[-5,2],[-1,0],[-4,4],[-11,6],[-6,4],[-3,6],[-4,8],[-3,4],[-6,-4],[-3,2],[-3,2],[-6,3],[-2,-4],[-5,-2],[-12,1],[-4,3],[-3,6],[-3,3],[-7,-4],[-2,4],[-2,4],[-3,1],[-6,1],[-4,1],[-4,3],[-1,4],[5,2],[-8,2],[-7,0],[-6,-1],[-9,-4],[-10,8],[-5,-2],[-2,3],[-1,5],[-3,5],[-4,3],[-15,6],[-5,-2],[-6,3],[-2,7],[3,7],[-7,4],[-11,10],[-7,4],[-13,4],[-4,3],[-3,3],[-6,8],[-7,4],[-5,10],[-3,3],[-3,1],[-5,3],[-7,7],[-2,4],[-1,5],[-2,4],[-5,1],[-2,-1],[-3,-2],[-2,-2],[-2,-3],[-14,6],[-5,5],[-3,7],[-2,0],[-1,0],[-1,-1],[-1,-2],[-5,2],[-4,-3],[-3,-5],[-4,0],[-3,2],[-36,13],[-7,4],[-6,1],[-3,-4],[1,-6]],[[1131,1205],[2,-4],[7,-10],[4,0],[2,0],[-4,14],[-2,3],[-3,3],[-4,-1],[-2,-5]],[[1164,1047],[11,-7],[1,-3],[-2,-3],[-4,-2],[-4,-1],[-3,1],[-7,7],[-13,5],[-14,1],[-7,-5],[4,-16],[4,-6],[13,-12],[4,-2],[2,-4],[15,-19],[8,-19],[0,-3],[-6,-2],[-11,-9],[-6,-5],[11,-26],[1,-3],[0,-20],[2,-5],[15,-30],[5,-8],[5,-18],[1,-5],[1,-3],[1,-2],[-1,-2],[-1,-3],[4,-9],[7,-18],[26,-49],[8,-8],[21,-9],[8,-8],[1,-2],[-1,-6],[2,-3],[2,-1],[6,0],[3,0],[5,-4],[10,-11],[-2,-7],[17,-2],[9,-10],[25,-13],[17,-18],[4,-6],[1,-4],[0,-7],[1,-4],[2,-3],[15,-19],[2,-5],[1,-7],[4,0],[19,-13],[5,-3],[4,1],[2,5],[0,8],[-4,29],[-7,12],[-5,7],[-4,3],[-3,4],[-12,28],[-4,6],[-14,15],[-3,4],[-1,4],[3,2],[4,-2],[2,-3],[2,-2],[5,2],[-5,4],[-2,14],[-2,2],[-2,2],[-1,5],[-1,4],[2,2],[3,0],[10,2],[0,3],[-7,2],[-3,0],[2,5],[-3,4],[-4,1],[-5,-2],[-1,3],[-2,1],[-7,3],[9,8],[1,1],[0,4],[-3,2],[-2,2],[-2,1],[-3,2],[-2,0],[-2,1],[-1,3],[0,4],[0,3],[-1,3],[-4,1],[2,6],[-2,6],[-4,4],[-5,2],[-3,2],[1,5],[4,2],[5,-1],[-7,9],[-8,8],[-9,6],[-9,4],[-2,-1],[-2,0],[-3,1],[-2,4],[1,2],[1,2],[0,2],[-3,4],[-10,8],[-4,1],[-8,-4],[-5,-1],[-3,4],[-1,3],[-7,6],[-2,6],[0,5],[-2,5],[0,5],[6,10],[0,4],[-1,5],[-3,5],[7,4],[8,3],[7,4],[3,8],[-1,6],[-4,7],[-8,12],[-15,12],[-19,20],[-12,19],[-2,1],[-5,3],[-1,2],[0,4],[-1,3],[-1,5],[-4,6],[-3,3],[-4,2],[-5,4],[-6,10],[-5,2],[-8,0],[0,3],[-4,0],[-3,-2],[-2,-2],[-1,-3]],[[1904,1026],[3,-4],[2,1],[2,0],[2,1],[1,2],[-4,1],[-4,1],[-2,-2]],[[1411,652],[0,-8],[1,1],[4,1],[2,1],[1,-8],[3,-6],[1,-6],[-6,-10],[0,-5],[1,-8],[0,-21],[0,-23],[2,-7],[5,-9],[7,-9],[6,-6],[4,6],[2,10],[4,2],[4,-2],[2,-4],[4,-9],[15,-17],[1,-7],[4,1],[3,7],[2,8],[-1,8],[-5,12],[-2,6],[1,14],[-1,6],[-2,7],[-5,8],[-3,4],[-3,4],[-3,4],[-3,8],[-2,3],[-4,5],[-10,19],[-10,15],[-2,6],[-3,4],[-12,7],[-5,5],[-3,5],[-2,0],[-2,-2],[7,-13],[3,-7]],[[1630,547],[-4,-2],[-5,0],[-4,0],[-4,-6],[-1,-5],[5,-25],[3,-10],[5,-8],[5,-5],[2,7],[0,6],[-5,30],[-2,5],[2,1],[0,1],[1,3],[2,3],[1,2],[-1,3]],[[1204,503],[0,8],[0,4],[-2,1],[-4,2],[-1,5],[0,5],[-1,4],[-3,1],[-12,4],[-8,5],[-3,1],[-5,1],[-6,-2],[-4,0],[-2,3],[0,16],[-2,7],[-2,6],[-10,11],[-15,11],[-17,7],[-13,-1],[-11,15],[-6,7],[-14,5],[-8,11],[-7,3],[-2,1],[-2,2],[0,1],[-3,0],[-3,-2],[-2,-1],[-27,0],[-2,1],[-3,2],[-2,0],[-2,-1],[-3,-3],[-3,-1],[-7,1],[-12,3],[-7,1],[-4,-1],[-6,-5],[-4,-2],[-4,0],[-4,1],[-7,2],[-8,3],[-5,1],[-3,0],[-3,-2],[-3,-2],[-3,-2],[-4,-1],[-14,0],[-8,1],[-6,2],[-5,4],[-5,6],[-4,6],[-2,5],[-2,3],[-15,11],[-19,18],[-13,8],[-13,4],[-23,-13],[-5,-2],[-6,-2],[-2,-5],[-1,-13],[-4,-4],[-1,-2],[1,-1],[4,-4],[0,-4],[2,-5],[1,-4],[-3,-9],[0,-5],[2,-3],[5,-8],[0,-4],[-1,-3],[-4,-3],[-5,-3],[1,-3],[3,-3],[5,-4],[6,-6],[5,-6],[5,-8],[3,-8],[0,-4],[-1,-3],[1,-2],[6,-1],[3,-2],[0,-3],[1,-3],[1,-4],[2,-1],[3,-1],[2,-1],[0,-2],[-1,-4],[1,-2],[9,-5],[7,-4],[17,-17],[7,-6],[6,1],[6,2],[7,1],[6,-1],[12,-7],[8,-1],[8,-1],[8,-2],[8,-1],[3,-2],[3,2],[4,0],[10,-2],[16,1],[31,4],[41,-1],[6,-2],[3,-2],[10,-5],[2,-1],[2,-5],[1,-1],[2,-1],[4,1],[2,0],[3,-4],[3,-4],[3,-4],[5,-1],[14,3],[8,-2],[24,-11],[26,-6],[7,5],[7,4],[15,5],[27,5],[9,6],[1,11],[-2,4],[-3,2],[-1,2],[-1,4]],[[3522,473],[4,-3],[3,1],[1,3],[-1,4],[-4,5],[-4,0],[-2,-3],[3,-7]],[[1390,358],[-6,-2],[-3,-7],[0,-8],[2,-6],[-1,0],[-1,-1],[-1,-2],[-2,-1],[2,-4],[-3,-8],[1,-6],[3,-3],[4,-1],[9,-1],[3,-2],[3,0],[2,0],[2,2],[2,1],[2,2],[8,0],[5,0],[2,-2],[2,-2],[4,-1],[10,0],[5,-1],[2,-2],[2,-3],[2,-2],[3,0],[5,1],[2,-1],[3,-2],[1,-2],[-2,-1],[-3,-2],[-2,-4],[-4,-9],[6,-2],[0,-5],[-3,-6],[-3,-5],[4,1],[7,1],[3,0],[2,-4],[-1,-4],[1,-4],[4,-2],[-8,-23],[5,-2],[6,0],[4,1],[3,4],[3,-3],[2,-2],[1,-3],[-1,-2],[3,-1],[3,-2],[1,-2],[0,-3],[7,-7],[4,-2],[2,3],[2,1],[5,-3],[5,-5],[2,-2],[5,-1],[2,-4],[1,-4],[3,-3],[5,-2],[5,1],[4,0],[3,-5],[0,-2],[1,-4],[3,-3],[4,2],[1,-2],[3,-3],[1,-3],[5,2],[4,-1],[8,-6],[1,3],[2,5],[3,-6],[2,-3],[4,-1],[1,-1],[4,-3],[2,-1],[5,1],[2,1],[-1,1],[15,-5],[4,-2],[3,-1],[11,4],[4,1],[4,-2],[5,-4],[17,-7],[2,-2],[3,-2],[2,-2],[4,-1],[10,0],[4,-1],[4,-2],[8,8],[9,1],[26,-10],[5,-1],[6,0],[4,-1],[3,-2],[5,3],[4,-1],[4,-1],[5,-1],[5,2],[0,5],[-2,3],[-4,-2],[-12,2],[-14,0],[-12,1],[-2,10],[1,2],[3,2],[2,2],[3,1],[1,2],[0,20],[-2,6],[-4,5],[-13,8],[-4,5],[-3,5],[-2,12],[-2,2],[-2,0],[-3,3],[-2,2],[-7,20],[-3,5],[-4,3],[-4,3],[-10,14],[-7,3],[-4,0],[-3,-1],[-3,-2],[-1,-8],[-2,0],[-6,1],[-12,-2],[-4,2],[-4,3],[-6,6],[-3,3],[-5,-2],[-6,0],[-14,5],[-5,-3],[-9,-2],[-7,0],[-4,4],[-2,2],[-11,7],[-4,2],[-5,0],[-5,0],[-6,0],[-5,4],[-8,11],[-4,3],[-7,-3],[-22,18],[-39,24],[-39,17],[-20,-4],[-1,2],[-3,2],[-2,0],[-2,1]],[[1544,326],[3,0],[8,4],[-1,9],[-6,11],[-8,6],[-5,-4],[0,-5],[5,-9],[2,-1],[2,0],[2,-2],[-2,-3],[-1,-3],[0,-1],[1,-2]],[[3182,353],[0,-7],[-1,-8],[-3,-7],[1,-3],[2,0],[0,-5],[0,-5],[5,1],[7,6],[4,7],[-5,3],[-5,0],[-2,-1],[-2,-1],[0,18],[-1,2]],[[1627,348],[-3,4],[-2,-3],[2,-4],[4,-2],[0,-1],[-2,-1],[0,-1],[1,-1],[1,0],[1,2],[2,-3],[-1,-5],[2,8],[-5,7]],[[2994,285],[0,-4],[2,-4],[2,-1],[4,1],[3,2],[1,4],[-4,5],[-5,1],[-2,-2],[-1,-2]],[[3104,195],[-11,-5],[-26,2],[-17,-1],[-11,-10],[-6,-9],[-1,-9],[0,-6],[-2,-4],[-4,1],[-5,6],[2,12],[-4,0],[-4,-6],[-3,-5],[-7,-5],[0,-7],[1,-15],[5,-8],[11,-1],[10,9],[5,-1],[4,-5],[-1,-10],[4,-4],[11,16],[16,18],[13,2],[4,-2],[3,3],[5,3],[9,-3],[3,0],[7,0],[4,3],[6,3],[5,4],[13,5],[2,7],[4,4],[-2,10],[-10,0],[-11,-1],[-2,1],[-1,2],[-6,3],[-13,3]],[[1811,120],[6,6],[-3,6],[-5,4],[-5,-2],[0,-6],[-2,-3],[1,-5],[4,-1],[4,1]],[[3030,189],[-6,4],[-2,-1],[-2,-5],[1,-3],[-2,-4],[-4,-3],[0,-2],[5,1],[5,0],[3,2],[4,7],[-2,4]],[[939,806],[-1,-5],[-3,-4],[-1,-4],[5,-3],[4,10],[3,2],[5,-2],[1,8],[-2,4],[-6,8],[-6,-1],[-1,-3],[2,-10]],[[962,800],[1,-3],[1,-2],[-1,-2],[-1,-3],[-3,3],[-4,-6],[-6,-2],[-7,0],[-3,-1],[0,-3],[2,-2],[2,-1],[2,-1],[2,-1],[1,-3],[0,-3],[1,-2],[5,-3],[7,-2],[6,1],[6,2],[5,2],[5,-3],[6,-10],[2,0],[-1,5],[-1,2],[4,0],[4,-2],[2,-3],[0,-4],[3,1],[2,0],[1,-1],[2,-3],[5,6],[6,9],[2,11],[-2,8],[-7,6],[-7,5],[-6,1],[-4,-6],[-3,0],[-5,7],[-6,1],[-7,-1],[-6,3],[-3,2],[-1,0],[-1,-2]],[[1017,750],[-3,-3],[-3,-3],[-4,-3],[-4,-1],[-9,0],[-3,-1],[-2,-4],[4,-1],[3,-1],[0,-3],[-2,-3],[8,1],[8,2],[6,3],[-2,4],[7,3],[7,-3],[8,-4],[8,-3],[2,2],[5,4],[6,9],[4,5],[-3,3],[-3,1],[-5,1],[-5,0],[-4,3],[-10,17],[-6,1],[-4,-8],[-4,-18]],[[853,738],[1,7],[-2,8],[-3,7],[-2,-2],[-1,0],[-2,0],[-2,0],[-3,-7],[1,-8],[3,-6],[5,-2],[5,3]],[[626,755],[5,6],[1,9],[-5,-1],[-2,2],[1,3],[4,3],[-1,3],[1,1],[0,4],[0,1],[1,1],[1,1],[0,2],[-4,-3],[-7,-9],[-4,-1],[-6,-13],[-1,-7],[0,-10],[16,8]],[[617,790],[-7,2],[-3,0],[-3,-4],[-2,0],[-3,3],[-1,3],[-1,4],[-2,4],[-2,-2],[-2,-2],[-3,0],[-3,2],[-5,0],[3,-2],[2,-3],[2,-4],[0,-3],[-6,1],[-1,1],[0,-5],[-5,2],[-4,-1],[-1,-4],[2,-5],[-11,0],[-1,-4],[10,-13],[4,3],[3,-2],[2,-4],[3,-2],[18,5],[5,5],[12,25]],[[907,829],[1,4],[2,5],[0,-2],[1,-1],[1,0],[0,4],[-2,1],[1,0],[1,0],[1,-1],[0,-1],[3,0],[4,-4],[1,-2],[2,0],[3,1],[-2,8],[-3,4],[-5,-1],[-2,-1],[-2,1],[-3,-1],[0,-1],[-2,-1],[-1,-2],[-2,-6],[3,-3],[0,-1]],[[260,908],[0,8],[-2,0],[-1,-5],[-1,-5],[-1,-4],[-2,-4],[-11,-8],[-2,-3],[-2,-10],[0,-4],[4,-2],[1,-2],[7,-11],[6,2],[8,6],[8,3],[2,2],[1,2],[1,4],[-11,4],[2,5],[-1,8],[-3,9],[-3,5]],[[314,1321],[2,-4],[-2,-1],[-3,1],[-1,1],[-2,0],[-6,2],[-3,0],[-2,-1],[1,-3],[2,-2],[1,-2],[8,-2],[4,-5],[1,-5],[0,-3],[9,0],[9,-2],[3,0],[-4,9],[-1,3],[14,-8],[7,-1],[4,4],[2,-4],[5,-6],[5,-3],[6,1],[1,4],[-4,6],[-6,5],[-5,2],[-6,1],[-7,2],[-6,3],[-4,6],[-9,1],[-4,2],[-3,3],[-4,0],[-2,-2],[0,-2]],[[752,989],[5,-6],[5,4],[3,-1],[5,-7],[5,-6],[3,-2],[4,-2],[4,-2],[4,-1],[4,1],[3,2],[4,3],[0,3],[-4,4],[-11,9],[-4,5],[-3,8],[2,17],[-3,6],[-11,2],[-10,-1],[-8,-3],[-4,-6],[-3,-10],[0,-10],[4,-4],[6,-3]],[[219,973],[-9,0],[-7,-2],[-4,-3],[-3,-3],[-4,-2],[-5,2],[-2,3],[-1,3],[1,3],[3,2],[0,3],[-2,2],[-2,-1],[-1,-1],[-2,0],[-13,-5],[-2,-3],[0,-6],[2,-3],[1,-4],[-3,-5],[-2,4],[-1,1],[-2,1],[-2,-7],[-4,1],[-9,6],[0,-6],[-2,-3],[-2,-2],[-1,-2],[-3,-13],[0,-18],[2,-3],[10,-9],[2,-2],[2,-4],[2,-1],[4,-3],[2,-1],[1,-3],[3,-1],[8,-3],[8,-2],[5,1],[3,2],[6,1],[3,2],[2,2],[5,7],[15,13],[3,9],[-9,8],[3,2],[3,2],[4,6],[-4,0],[-1,-1],[-2,-1],[-3,2],[-7,1],[-2,2],[1,2],[7,3],[1,1],[2,3],[3,0],[4,0],[4,1],[3,3],[0,3],[-1,8],[-3,5],[-8,3]],[[1796,102],[7,0],[-3,6],[-6,-2],[-1,-1],[3,-3]],[[3492,504],[5,0],[1,-1],[-1,0],[-5,1]],[[3522,473],[-3,7],[2,3],[4,0],[4,-5],[1,-4],[-1,-3],[-3,-1],[-4,3]],[[1907,1022],[-3,4],[2,2],[4,-1],[4,-1],[-1,-2],[-2,-1],[-2,0],[-2,-1]],[[3437,3916],[-10,-3],[-2,-9],[3,-9],[9,-1],[4,4],[3,8],[-1,8],[-6,2]],[[203,971],[-4,-3],[-3,-3],[-4,-2],[-5,2],[-2,3],[-1,3],[1,3],[3,2],[0,3],[-2,2],[-2,-1],[-1,-1],[-2,0],[-13,-5],[-2,-3],[0,-6],[2,-3],[1,-4],[-3,-5],[-2,4],[-1,1],[-2,1],[-2,-7],[-4,1],[-9,6],[0,-6],[-2,-3],[-2,-2],[-1,-2],[-3,-13],[0,-18],[2,-3],[10,-9],[2,-2],[2,-4],[2,-1],[4,-3],[2,-1],[1,-3],[3,-1],[8,-3],[8,-2],[5,1],[3,2],[6,1],[3,2],[2,2],[5,7],[15,13],[3,9],[-9,8],[3,2],[3,2],[4,6],[-4,0],[-1,-1],[-2,-1],[-3,2],[-7,1],[-2,2],[1,2],[7,3],[1,1],[2,3],[3,0],[4,0],[4,1],[3,3],[0,3],[-1,8],[-3,5],[-8,3],[-9,0],[-7,-2]],[[265,881],[2,5],[-1,8],[-3,9],[-3,5],[0,8],[-2,0],[-1,-5],[-1,-5],[-1,-4],[-2,-4],[-11,-8],[-2,-3],[-2,-10],[0,-4],[4,-2],[1,-2],[7,-11],[6,2],[8,6],[8,3],[2,2],[1,2],[1,4],[-11,4]],[[42,896],[-3,1],[-2,4],[-4,3],[-6,2],[-2,1],[-1,2],[-3,1],[-3,1],[-2,-1],[-2,-2],[-3,-5],[-2,3],[-6,-2],[-3,0]],[[0,890],[11,-5],[17,-4],[13,-7],[4,-1],[9,4],[1,7],[-6,8],[-7,4]],[[108,959],[0,2],[10,-1],[23,-9],[-2,3],[-1,3],[0,3],[0,3],[1,5],[1,2],[7,12],[1,3],[0,3],[-1,3],[-2,1],[-3,0],[-1,1],[-3,7],[-2,12],[-3,7],[-2,2],[-6,4],[-2,4],[0,3],[0,9],[-4,5],[-9,7],[-4,6],[-2,8],[-1,2],[-2,3],[-1,1],[-10,8],[-6,2],[-6,0],[-7,-2],[-3,-1],[-5,-3],[-2,-1],[-3,1],[-3,1],[-2,1],[-2,-3],[-1,5],[2,4],[1,4],[-3,6],[-9,8],[-1,4],[3,7],[-2,6],[-1,6],[1,14],[-2,6],[-2,5],[-1,4],[2,7],[-9,1],[-26,14],[-1,0],[-1,0],[0,1],[0,1],[-1,0]],[[0,1067],[1,-1],[6,1],[3,2],[4,1],[4,-1],[6,-6],[6,-8],[4,-9],[4,-12],[8,-8],[2,-4],[-1,-4],[-3,-4],[-2,0],[-1,3],[-2,4],[-9,2],[-2,4],[0,11],[-2,4],[-2,4],[0,-22],[1,-6],[3,-8],[0,-5],[2,-1],[8,-11],[16,-11],[10,-4],[20,-2],[9,-5],[8,-8],[3,-6],[2,-5],[1,-1],[3,-3],[2,-4],[1,-6],[3,0],[2,7],[-1,6],[-4,5],[-5,3]],[[797,979],[-11,9],[-4,5],[-3,8],[2,17],[-3,6],[-11,2],[-10,-1],[-8,-3],[-4,-6],[-3,-10],[0,-10],[4,-4],[6,-3],[5,-6],[5,4],[3,-1],[5,-7],[5,-6],[3,-2],[4,-2],[4,-2],[4,-1],[4,1],[3,2],[4,3],[0,3],[-4,4]],[[939,790],[4,10],[3,2],[5,-2],[1,8],[-2,4],[-6,8],[-6,-1],[-1,-3],[2,-10],[-1,-5],[-3,-4],[-1,-4],[5,-3]],[[848,735],[5,3],[1,7],[-2,8],[-3,7],[-2,-2],[-1,0],[-2,0],[-2,0],[-3,-7],[1,-8],[3,-6],[5,-2]],[[945,777],[2,-1],[1,-3],[0,-3],[1,-2],[5,-3],[7,-2],[6,1],[6,2],[5,2],[5,-3],[6,-10],[2,0],[-1,5],[-1,2],[4,0],[4,-2],[2,-3],[0,-4],[3,1],[2,0],[1,-1],[2,-3],[5,6],[6,9],[2,11],[-2,8],[-7,6],[-7,5],[-6,1],[-4,-6],[-3,0],[-5,7],[-6,1],[-7,-1],[-6,3],[-3,2],[-1,0],[-1,-2],[1,-3],[1,-2],[-1,-2],[-1,-3],[-3,3],[-4,-6],[-6,-2],[-7,0],[-3,-1],[0,-3],[2,-2],[2,-1],[2,-1]],[[1003,740],[-9,0],[-3,-1],[-2,-4],[4,-1],[3,-1],[0,-3],[-2,-3],[8,1],[8,2],[6,3],[-2,4],[7,3],[7,-3],[8,-4],[8,-3],[2,2],[5,4],[6,9],[4,5],[-3,3],[-3,1],[-5,1],[-5,0],[-4,3],[-10,17],[-6,1],[-4,-8],[-4,-18],[-3,-3],[-3,-3],[-4,-3],[-4,-1]],[[607,792],[-3,-4],[-2,0],[-3,3],[-1,3],[-1,4],[-2,4],[-2,-2],[-2,-2],[-3,0],[-3,2],[-5,0],[3,-2],[2,-3],[2,-4],[0,-3],[-6,1],[-1,1],[0,-5],[-5,2],[-4,-1],[-1,-4],[2,-5],[-11,0],[-1,-4],[10,-13],[4,3],[3,-2],[2,-4],[3,-2],[18,5],[5,5],[12,25],[-7,2],[-3,0]],[[1211,491],[-2,4],[-3,2],[-1,2],[-1,4],[0,8],[0,4],[-2,1],[-4,2],[-1,5],[0,5],[-1,4],[-3,1],[-12,4],[-8,5],[-3,1],[-5,1],[-6,-2],[-4,0],[-2,3],[0,16],[-2,7],[-2,6],[-10,11],[-15,11],[-17,7],[-13,-1],[-11,15],[-6,7],[-14,5],[-8,11],[-7,3],[-2,1],[-2,2],[0,1],[-3,0],[-3,-2],[-2,-1],[-27,0],[-2,1],[-3,2],[-2,0],[-2,-1],[-3,-3],[-3,-1],[-7,1],[-12,3],[-7,1],[-4,-1],[-6,-5],[-4,-2],[-4,0],[-4,1],[-7,2],[-8,3],[-5,1],[-3,0],[-3,-2],[-3,-2],[-3,-2],[-4,-1],[-14,0],[-8,1],[-6,2],[-5,4],[-5,6],[-4,6],[-2,5],[-2,3],[-15,11],[-19,18],[-13,8],[-13,4],[-23,-13],[-5,-2],[-6,-2],[-2,-5],[-1,-13],[-4,-4],[-1,-2],[1,-1],[4,-4],[0,-4],[2,-5],[1,-4],[-3,-9],[0,-5],[2,-3],[5,-8],[0,-4],[-1,-3],[-4,-3],[-5,-3],[1,-3],[3,-3],[5,-4],[6,-6],[5,-6],[5,-8],[3,-8],[0,-4],[-1,-3],[1,-2],[6,-1],[3,-2],[0,-3],[1,-3],[1,-4],[2,-1],[3,-1],[2,-1],[0,-2],[-1,-4],[1,-2],[9,-5],[7,-4],[17,-17],[7,-6],[6,1],[6,2],[7,1],[6,-1],[12,-7],[8,-1],[8,-1],[8,-2],[8,-1],[3,-2],[3,2],[4,0],[10,-2],[16,1],[31,4],[41,-1],[6,-2],[3,-2],[10,-5],[2,-1],[2,-5],[1,-1],[2,-1],[4,1],[2,0],[3,-4],[3,-4],[3,-4],[5,-1],[14,3],[8,-2],[24,-11],[26,-6],[7,5],[7,4],[15,5],[27,5],[9,6],[1,11]],[[617,777],[-6,-13],[-1,-7],[0,-10],[16,8],[5,6],[1,9],[-5,-1],[-2,2],[1,3],[4,3],[-1,3],[1,1],[0,4],[0,1],[1,1],[1,1],[0,2],[-4,-3],[-7,-9],[-4,-1]],[[1544,332],[-1,-3],[0,-1],[1,-2],[3,0],[8,4],[-1,9],[-6,11],[-8,6],[-5,-4],[0,-5],[5,-9],[2,-1],[2,0],[2,-2],[-2,-3]],[[1630,486],[2,7],[0,6],[-5,30],[-2,5],[2,1],[0,1],[1,3],[2,3],[1,2],[-1,3],[-4,-2],[-5,0],[-4,0],[-4,-6],[-1,-5],[5,-25],[3,-10],[5,-8],[5,-5]],[[1418,647],[1,-8],[3,-6],[1,-6],[-6,-10],[0,-5],[1,-8],[0,-21],[0,-23],[2,-7],[5,-9],[7,-9],[6,-6],[4,6],[2,10],[4,2],[4,-2],[2,-4],[4,-9],[15,-17],[1,-7],[4,1],[3,7],[2,8],[-1,8],[-5,12],[-2,6],[1,14],[-1,6],[-2,7],[-5,8],[-3,4],[-3,4],[-3,4],[-3,8],[-2,3],[-4,5],[-10,19],[-10,15],[-2,6],[-3,4],[-12,7],[-5,5],[-3,5],[-2,0],[-2,-2],[7,-13],[3,-7],[0,-8],[1,1],[4,1],[2,1]],[[1775,130],[-12,2],[-14,0],[-12,1],[-2,10],[1,2],[3,2],[2,2],[3,1],[1,2],[0,20],[-2,6],[-4,5],[-13,8],[-4,5],[-3,5],[-2,12],[-2,2],[-2,0],[-3,3],[-2,2],[-7,20],[-3,5],[-4,3],[-4,3],[-10,14],[-7,3],[-4,0],[-3,-1],[-3,-2],[-1,-8],[-2,0],[-6,1],[-12,-2],[-4,2],[-4,3],[-6,6],[-3,3],[-5,-2],[-6,0],[-14,5],[-5,-3],[-9,-2],[-7,0],[-4,4],[-2,2],[-11,7],[-4,2],[-5,0],[-5,0],[-6,0],[-5,4],[-8,11],[-4,3],[-7,-3],[-22,18],[-39,24],[-39,17],[-20,-4],[-1,2],[-3,2],[-2,0],[-2,1],[-6,-2],[-3,-7],[0,-8],[2,-6],[-1,0],[-1,-1],[-1,-2],[-2,-1],[2,-4],[-3,-8],[1,-6],[3,-3],[4,-1],[9,-1],[3,-2],[3,0],[2,0],[2,2],[2,1],[2,2],[8,0],[5,0],[2,-2],[2,-2],[4,-1],[10,0],[5,-1],[2,-2],[2,-3],[2,-2],[3,0],[5,1],[2,-1],[3,-2],[1,-2],[-2,-1],[-3,-2],[-2,-4],[-4,-9],[6,-2],[0,-5],[-3,-6],[-3,-5],[4,1],[7,1],[3,0],[2,-4],[-1,-4],[1,-4],[4,-2],[-8,-23],[5,-2],[6,0],[4,1],[3,4],[3,-3],[2,-2],[1,-3],[-1,-2],[3,-1],[3,-2],[1,-2],[0,-3],[7,-7],[4,-2],[2,3],[2,1],[5,-3],[5,-5],[2,-2],[5,-1],[2,-4],[1,-4],[3,-3],[5,-2],[5,1],[4,0],[3,-5],[0,-2],[1,-4],[3,-3],[4,2],[1,-2],[3,-3],[1,-3],[5,2],[4,-1],[8,-6],[1,3],[2,5],[3,-6],[2,-3],[4,-1],[1,-1],[4,-3],[2,-1],[5,1],[2,1],[-1,1],[15,-5],[4,-2],[3,-1],[11,4],[4,1],[4,-2],[5,-4],[17,-7],[2,-2],[3,-2],[2,-2],[4,-1],[10,0],[4,-1],[4,-2],[8,8],[9,1],[26,-10],[5,-1],[6,0],[4,-1],[3,-2],[5,3],[4,-1],[4,-1],[5,-1],[5,2],[0,5],[-2,3],[-4,-2]],[[1406,572],[5,-3],[4,1],[2,5],[0,8],[-4,29],[-7,12],[-5,7],[-4,3],[-3,4],[-12,28],[-4,6],[-14,15],[-3,4],[-1,4],[3,2],[4,-2],[2,-3],[2,-2],[5,2],[-5,4],[-2,14],[-2,2],[-2,2],[-1,5],[-1,4],[2,2],[3,0],[10,2],[0,3],[-7,2],[-3,0],[2,5],[-3,4],[-4,1],[-5,-2],[-1,3],[-2,1],[-7,3],[9,8],[1,1],[0,4],[-3,2],[-2,2],[-2,1],[-3,2],[-2,0],[-2,1],[-1,3],[0,4],[0,3],[-1,3],[-4,1],[2,6],[-2,6],[-4,4],[-5,2],[-3,2],[1,5],[4,2],[5,-1],[-7,9],[-8,8],[-9,6],[-9,4],[-2,-1],[-2,0],[-3,1],[-2,4],[1,2],[1,2],[0,2],[-3,4],[-10,8],[-4,1],[-8,-4],[-5,-1],[-3,4],[-1,3],[-7,6],[-2,6],[0,5],[-2,5],[0,5],[6,10],[0,4],[-1,5],[-3,5],[7,4],[8,3],[7,4],[3,8],[-1,6],[-4,7],[-8,12],[-15,12],[-19,20],[-12,19],[-2,1],[-5,3],[-1,2],[0,4],[-1,3],[-1,5],[-4,6],[-3,3],[-4,2],[-5,4],[-6,10],[-5,2],[-8,0],[0,3],[-4,0],[-3,-2],[-2,-2],[-1,-3],[11,-7],[1,-3],[-2,-3],[-4,-2],[-4,-1],[-3,1],[-7,7],[-13,5],[-14,1],[-7,-5],[4,-16],[4,-6],[13,-12],[4,-2],[2,-4],[15,-19],[8,-19],[0,-3],[-6,-2],[-11,-9],[-6,-5],[11,-26],[1,-3],[0,-20],[2,-5],[15,-30],[5,-8],[5,-18],[1,-5],[1,-3],[1,-2],[-1,-2],[-1,-3],[4,-9],[7,-18],[26,-49],[8,-8],[21,-9],[8,-8],[1,-2],[-1,-6],[2,-3],[2,-1],[6,0],[3,0],[5,-4],[10,-11],[-2,-7],[17,-2],[9,-10],[25,-13],[17,-18],[4,-6],[1,-4],[0,-7],[1,-4],[2,-3],[15,-19],[2,-5],[1,-7],[4,0],[19,-13]],[[3149,177],[-2,10],[-10,0],[-11,-1],[-2,1],[-1,2],[-6,3],[-13,3],[-11,-5],[-26,2],[-17,-1],[-11,-10],[-6,-9],[-1,-9],[0,-6],[-2,-4],[-4,1],[-5,6],[2,12],[-4,0],[-4,-6],[-3,-5],[-7,-5],[0,-7],[1,-15],[5,-8],[11,-1],[10,9],[5,-1],[4,-5],[-1,-10],[4,-4],[11,16],[16,18],[13,2],[4,-2],[3,3],[5,3],[9,-3],[3,0],[7,0],[4,3],[6,3],[5,4],[13,5],[2,7],[4,4]],[[41,1383],[-3,-3],[-6,7],[-9,0],[-10,-1],[-10,2],[-3,-2]],[[0,1379],[4,1],[3,-1],[4,-2],[14,-4],[-2,-2],[-3,-2],[-2,-1],[0,-3],[11,0],[4,2],[0,6],[10,-8],[-2,4],[-1,5],[1,3],[2,3],[-2,3]],[[11,1409],[-2,8],[-5,4],[-4,0]],[[0,1393],[5,0],[5,2],[1,5],[0,9]],[[101,1382],[-3,2],[-17,6],[-12,-14],[-4,-9],[7,-4],[2,-1],[3,-4],[2,0],[3,0],[3,1],[2,1],[6,-3],[5,0],[10,1],[-2,5],[-5,13],[0,6]],[[315,1330],[4,-1],[16,-4],[-1,5],[0,3],[3,3],[3,2],[-6,4],[-9,4],[-8,0],[-4,-3],[-9,7],[-4,2],[-5,-2],[-2,4],[-3,2],[-4,2],[-3,2],[-3,0],[-2,-4],[1,-4],[3,-2],[4,-1],[8,-5],[11,-3],[4,-4],[3,-4],[3,-3]],[[285,1380],[-1,-1],[-2,0],[-2,-1],[0,10],[-7,-2],[-9,-9],[-4,1],[-2,0],[-5,-5],[0,-3],[7,0],[5,-4],[3,-5],[5,-3],[2,12],[2,-1],[6,-4],[-1,4],[1,4],[1,4],[1,3]],[[359,1307],[-6,1],[-7,2],[-6,3],[-4,6],[-9,1],[-4,2],[-3,3],[-4,0],[-2,-2],[0,-2],[2,-4],[-2,-1],[-3,1],[-1,1],[-2,0],[-6,2],[-3,0],[-2,-1],[1,-3],[2,-2],[1,-2],[8,-2],[4,-5],[1,-5],[0,-3],[9,0],[9,-2],[3,0],[-4,9],[-1,3],[14,-8],[7,-1],[4,4],[2,-4],[5,-6],[5,-3],[6,1],[1,4],[-4,6],[-6,5],[-5,2]],[[859,977],[0,8],[-1,5],[-3,5],[-11,16],[-3,3],[-3,-4],[-4,-1],[-3,0],[-3,6],[-6,4],[0,2],[3,2],[4,1],[4,-1],[3,-2],[3,2],[8,11],[7,8],[-1,3],[-71,53],[-33,20],[-17,14],[-1,1],[-1,3],[0,1],[-5,2],[-1,0],[-4,4],[-11,6],[-6,4],[-3,6],[-4,8],[-3,4],[-6,-4],[-3,2],[-3,2],[-6,3],[-2,-4],[-5,-2],[-12,1],[-4,3],[-3,6],[-3,3],[-7,-4],[-2,4],[-2,4],[-3,1],[-6,1],[-4,1],[-4,3],[-1,4],[5,2],[-8,2],[-7,0],[-6,-1],[-9,-4],[-10,8],[-5,-2],[-2,3],[-1,5],[-3,5],[-4,3],[-15,6],[-5,-2],[-6,3],[-2,7],[3,7],[-7,4],[-11,10],[-7,4],[-13,4],[-4,3],[-3,3],[-6,8],[-7,4],[-5,10],[-3,3],[-3,1],[-5,3],[-7,7],[-2,4],[-1,5],[-2,4],[-5,1],[-2,-1],[-3,-2],[-2,-2],[-2,-3],[-14,6],[-5,5],[-3,7],[-2,0],[-1,0],[-1,-1],[-1,-2],[-5,2],[-4,-3],[-3,-5],[-4,0],[-3,2],[-36,13],[-7,4],[-6,1],[-3,-4],[1,-6],[3,-6],[19,-10],[28,-24],[0,-15],[-1,-4],[-1,-4],[0,-3],[2,-5],[6,-5],[16,-9],[3,-7],[6,2],[7,-2],[5,-4],[4,-5],[5,-13],[4,-5],[4,5],[2,0],[4,-3],[4,-5],[-3,-5],[6,-3],[11,-3],[6,2],[3,-7],[2,-14],[21,-10],[7,-1],[5,-3],[4,-6],[0,-7],[8,3],[2,2],[1,-6],[2,-2],[3,0],[4,-2],[1,-2],[2,-5],[0,-1],[2,0],[5,0],[3,0],[10,-5],[2,0],[1,2],[2,1],[2,0],[1,-2],[0,-3],[0,-3],[2,-2],[2,-1],[6,1],[2,0],[34,-25],[7,-4],[8,-2],[8,3],[1,-5],[3,-3],[5,-2],[5,0],[4,-2],[3,-5],[4,-8],[6,2],[7,-2],[12,-8],[5,2],[6,-1],[6,-4],[8,-6],[9,-4],[13,-8],[30,-6],[17,-15],[5,-3],[5,-1],[1,-2],[-1,-3],[1,-4],[4,-4],[11,-9],[5,-6],[3,-3],[7,-2],[4,-7],[7,-2],[1,-3],[1,-2],[2,-2],[1,0],[5,0],[1,0],[12,-7],[3,0],[5,4],[-4,6],[-11,8]],[[3002,277],[3,2],[1,4],[-4,5],[-5,1],[-2,-2],[-1,-2],[0,-4],[2,-4],[2,-1],[4,1]],[[1142,1205],[-2,3],[-3,3],[-4,-1],[-2,-5],[2,-4],[7,-10],[4,0],[2,0],[-4,14]],[[3187,335],[-2,-1],[-2,-1],[0,18],[-1,2],[0,-7],[-1,-8],[-3,-7],[1,-3],[2,0],[0,-5],[0,-5],[5,1],[7,6],[4,7],[-5,3],[-5,0]],[[1555,330],[-8,-4],[-3,0],[-1,2],[0,1],[1,3],[2,3],[-2,2],[-2,0],[-2,1],[-5,9],[0,5],[5,4],[8,-6],[6,-11],[1,-9]],[[3117,192],[6,-3],[1,-2],[2,-1],[11,1],[10,0],[2,-10],[-4,-4],[-2,-7],[-13,-5],[-5,-4],[-6,-3],[-4,-3],[-7,0],[-3,0],[-9,3],[-5,-3],[-3,-3],[-4,2],[-13,-2],[-16,-18],[-11,-16],[-4,4],[1,10],[-4,5],[-5,1],[-10,-9],[-11,1],[-5,8],[-1,15],[0,7],[7,5],[3,5],[4,6],[4,0],[-2,-12],[5,-6],[4,-1],[2,4],[0,6],[1,9],[6,9],[11,10],[17,1],[26,-2],[11,5],[13,-3]],[[1397,355],[1,-2],[20,4],[39,-17],[39,-24],[22,-18],[7,3],[4,-3],[8,-11],[5,-4],[6,0],[5,0],[5,0],[4,-2],[11,-7],[2,-2],[4,-4],[7,0],[9,2],[5,3],[14,-5],[6,0],[5,2],[3,-3],[6,-6],[4,-3],[4,-2],[12,2],[6,-1],[2,0],[1,8],[3,2],[3,1],[4,0],[7,-3],[10,-14],[4,-3],[4,-3],[3,-5],[7,-20],[2,-2],[3,-3],[2,0],[2,-2],[2,-12],[3,-5],[4,-5],[13,-8],[4,-5],[2,-6],[0,-20],[-1,-2],[-3,-1],[-2,-2],[-3,-2],[-1,-2],[2,-10],[12,-1],[14,0],[12,-2],[4,2],[2,-3],[0,-5],[-5,-2],[-5,1],[-4,1],[-4,1],[-5,-3],[-3,2],[-4,1],[-6,0],[-5,1],[-26,10],[-9,-1],[-8,-8],[-4,2],[-4,1],[-10,0],[-4,1],[-2,2],[-3,2],[-2,2],[-17,7],[-5,4],[-4,2],[-4,-1],[-11,-4],[-3,1],[-4,2],[-15,5],[1,-1],[-2,-1],[-5,-1],[-2,1],[-4,3],[-1,1],[-4,1],[-2,3],[-3,6],[-2,-5],[-1,-3],[-8,6],[-4,1],[-5,-2],[-1,3],[-3,3],[-1,2],[-4,-2],[-3,3],[-1,4],[0,2],[-3,5],[-4,0],[-5,-1],[-5,2],[-3,3],[-1,4],[-2,4],[-5,1],[-2,2],[-5,5],[-5,3],[-2,-1],[-2,-3],[-4,2],[-7,7],[0,3],[-1,2],[-3,2],[-3,1],[1,2],[-1,3],[-2,2],[-3,3],[-3,-4],[-4,-1],[-6,0],[-5,2],[8,23],[-4,2],[-1,4],[1,4],[-2,4],[-3,0],[-7,-1],[-4,-1],[3,5],[3,6],[0,5],[-6,2],[4,9],[2,4],[3,2],[2,1],[-1,2],[-3,2],[-2,1],[-5,-1],[-3,0],[-2,2],[-2,3],[-2,2],[-5,1],[-10,0],[-4,1],[-2,2],[-2,2],[-5,0],[-8,0],[-2,-2],[-2,-1],[-2,-2],[-2,0],[-3,0],[-3,2],[-9,1],[-4,1],[-3,3],[-1,6],[3,8],[-2,4],[2,1],[1,2],[1,1],[1,0],[-2,6],[0,8],[3,7],[6,2],[2,-1],[2,0],[3,-2]],[[1630,547],[1,-3],[-1,-2],[-2,-3],[-1,-3],[0,-1],[-2,-1],[2,-5],[5,-30],[0,-6],[-2,-7],[-5,5],[-5,8],[-3,10],[-5,25],[1,5],[4,6],[4,0],[5,0],[4,2]],[[625,771],[2,-2],[5,1],[-1,-9],[-5,-6],[-16,-8],[0,10],[1,7],[6,13],[4,1],[7,9],[4,3],[0,-2],[-1,-1],[-1,-1],[0,-1],[0,-4],[-1,-1],[1,-3],[-4,-3],[-1,-3]],[[595,802],[2,-4],[1,-4],[1,-3],[3,-3],[2,0],[3,4],[3,0],[7,-2],[-12,-25],[-5,-5],[-18,-5],[-3,2],[-2,4],[-3,2],[-4,-3],[-10,13],[1,4],[11,0],[-2,5],[1,4],[4,1],[5,-2],[0,5],[1,-1],[6,-1],[0,3],[-2,4],[-2,3],[-3,2],[5,0],[3,-2],[3,0],[2,2],[2,2]],[[952,808],[-1,-8],[-5,2],[-3,-2],[-4,-10],[-5,3],[1,4],[3,4],[1,5],[-2,10],[1,3],[6,1],[6,-8],[2,-4]],[[256,860],[-6,-2],[-7,11],[-1,2],[-4,2],[0,4],[2,10],[2,3],[11,8],[2,4],[1,4],[1,5],[1,5],[2,0],[0,-8],[3,-5],[3,-9],[1,-8],[-2,-5],[11,-4],[-1,-4],[-1,-2],[-2,-2],[-8,-3],[-8,-6]],[[33,904],[4,-3],[2,-4],[3,-1],[7,-4],[6,-8],[-1,-7],[-9,-4],[-4,1],[-13,7],[-17,4],[-11,5],[0,14],[3,0],[6,2],[2,-3],[3,5],[2,2],[2,1],[3,-1],[3,-1],[1,-2],[2,-1],[6,-2]],[[187,965],[5,-2],[4,2],[3,3],[4,3],[7,2],[9,0],[8,-3],[3,-5],[1,-8],[0,-3],[-3,-3],[-4,-1],[-4,0],[-3,0],[-2,-3],[-1,-1],[-7,-3],[-1,-2],[2,-2],[7,-1],[3,-2],[2,1],[1,1],[4,0],[-4,-6],[-3,-2],[-3,-2],[9,-8],[-3,-9],[-15,-13],[-5,-7],[-2,-2],[-3,-2],[-6,-1],[-3,-2],[-5,-1],[-8,2],[-8,3],[-3,1],[-1,3],[-2,1],[-4,3],[-2,1],[-2,4],[-2,2],[-10,9],[-2,3],[0,18],[3,13],[1,2],[2,2],[2,3],[0,6],[9,-6],[4,-1],[2,7],[2,-1],[1,-1],[2,-4],[3,5],[-1,4],[-2,3],[0,6],[2,3],[13,5],[2,0],[1,1],[2,1],[2,-2],[0,-3],[-3,-2],[-1,-3],[1,-3],[2,-3]],[[786,988],[11,-9],[4,-4],[0,-3],[-4,-3],[-3,-2],[-4,-1],[-4,1],[-4,2],[-4,2],[-3,2],[-5,6],[-5,7],[-3,1],[-5,-4],[-5,6],[-6,3],[-4,4],[0,10],[3,10],[4,6],[8,3],[10,1],[11,-2],[3,-6],[-2,-17],[3,-8],[4,-5]],[[50,1095],[3,-6],[-1,-4],[-2,-4],[1,-5],[2,3],[2,-1],[3,-1],[3,-1],[2,1],[5,3],[3,1],[7,2],[6,0],[6,-2],[10,-8],[1,-1],[2,-3],[1,-2],[2,-8],[4,-6],[9,-7],[4,-5],[0,-9],[0,-3],[2,-4],[6,-4],[2,-2],[3,-7],[2,-12],[3,-7],[1,-1],[3,0],[2,-1],[1,-3],[0,-3],[-1,-3],[-7,-12],[-1,-2],[-1,-5],[0,-3],[0,-3],[1,-3],[2,-3],[-23,9],[-10,1],[0,-2],[5,-3],[4,-5],[1,-6],[-2,-7],[-3,0],[-1,6],[-2,4],[-3,3],[-1,1],[-2,5],[-3,6],[-8,8],[-9,5],[-20,2],[-10,4],[-16,11],[-8,11],[-2,1],[0,5],[-3,8],[-1,6],[0,22],[2,-4],[2,-4],[0,-11],[2,-4],[9,-2],[2,-4],[1,-3],[2,0],[3,4],[1,4],[-2,4],[-8,8],[-4,12],[-4,9],[-6,8],[-6,6],[-4,1],[-4,-1],[-3,-2],[-6,-1],[-1,1],[0,112],[1,0],[0,-1],[0,-1],[1,0],[1,0],[26,-14],[9,-1],[-2,-7],[1,-4],[2,-5],[2,-6],[-1,-14],[1,-6],[2,-6],[-3,-7],[1,-4],[9,-8]],[[849,760],[3,-7],[2,-8],[-1,-7],[-5,-3],[-5,2],[-3,6],[-1,8],[3,7],[2,0],[2,0],[1,0],[2,2]],[[888,640],[8,-1],[14,0],[4,1],[3,2],[3,2],[3,2],[3,0],[5,-1],[8,-3],[7,-2],[4,-1],[4,0],[4,2],[6,5],[4,1],[7,-1],[12,-3],[7,-1],[3,1],[3,3],[2,1],[2,0],[3,-2],[2,-1],[27,0],[2,1],[3,2],[3,0],[0,-1],[2,-2],[2,-1],[7,-3],[8,-11],[14,-5],[6,-7],[11,-15],[13,1],[17,-7],[15,-11],[10,-11],[2,-6],[2,-7],[0,-16],[2,-3],[4,0],[6,2],[5,-1],[3,-1],[8,-5],[12,-4],[3,-1],[1,-4],[0,-5],[1,-5],[4,-2],[2,-1],[0,-4],[0,-8],[1,-4],[1,-2],[3,-2],[2,-4],[-1,-11],[-9,-6],[-27,-5],[-15,-5],[-7,-4],[-7,-5],[-26,6],[-24,11],[-8,2],[-14,-3],[-5,1],[-3,4],[-3,4],[-3,4],[-2,0],[-4,-1],[-2,1],[-1,1],[-2,5],[-2,1],[-10,5],[-3,2],[-6,2],[-41,1],[-31,-4],[-16,-1],[-10,2],[-4,0],[-3,-2],[-3,2],[-8,1],[-8,2],[-8,1],[-8,1],[-12,7],[-6,1],[-7,-1],[-6,-2],[-6,-1],[-7,6],[-17,17],[-7,4],[-9,5],[-1,2],[1,4],[0,2],[-2,1],[-3,1],[-2,1],[-1,4],[-1,3],[0,3],[-3,2],[-6,1],[-1,2],[1,3],[0,4],[-3,8],[-5,8],[-5,6],[-6,6],[-5,4],[-3,3],[-1,3],[5,3],[4,3],[1,3],[0,4],[-5,8],[-2,3],[0,5],[3,9],[-1,4],[-2,5],[0,4],[-4,4],[-1,1],[1,2],[4,4],[1,13],[2,5],[6,2],[5,2],[23,13],[13,-4],[13,-8],[19,-18],[15,-11],[2,-3],[2,-5],[4,-6],[5,-6],[5,-4],[6,-2]],[[1430,647],[10,-15],[10,-19],[4,-5],[2,-3],[3,-8],[3,-4],[3,-4],[3,-4],[5,-8],[2,-7],[1,-6],[-1,-14],[2,-6],[5,-12],[1,-8],[-2,-8],[-3,-7],[-4,-1],[-1,7],[-15,17],[-4,9],[-2,4],[-4,2],[-4,-2],[-2,-10],[-4,-6],[-6,6],[-7,9],[-5,9],[-2,7],[0,23],[0,21],[-1,8],[0,5],[6,10],[-1,6],[-3,6],[-1,8],[-2,-1],[-4,-1],[-1,-1],[0,8],[-3,7],[-7,13],[2,2],[2,0],[3,-5],[5,-5],[12,-7],[3,-4],[2,-6]],[[1057,745],[-6,-9],[-5,-4],[-2,-2],[-8,3],[-8,4],[-7,3],[-7,-3],[2,-4],[-6,-3],[-8,-2],[-8,-1],[2,3],[0,3],[-3,1],[-4,1],[2,4],[3,1],[9,0],[4,1],[4,3],[3,3],[3,3],[4,18],[4,8],[6,-1],[10,-17],[4,-3],[5,0],[5,-1],[3,-1],[3,-3],[-4,-5]],[[967,800],[6,-3],[7,1],[6,-1],[5,-7],[3,0],[4,6],[6,-1],[7,-5],[7,-6],[2,-8],[-2,-11],[-6,-9],[-5,-6],[-2,3],[-1,1],[-2,0],[-3,-1],[0,4],[-2,3],[-4,2],[-4,0],[1,-2],[1,-5],[-2,0],[-6,10],[-5,3],[-5,-2],[-6,-2],[-6,-1],[-7,2],[-5,3],[-1,2],[0,3],[-1,3],[-2,1],[-2,1],[-2,1],[-2,2],[0,3],[3,1],[7,0],[6,2],[4,6],[3,-3],[1,3],[1,2],[-1,2],[-1,3],[1,2],[1,0],[3,-2]],[[1202,1033],[3,-3],[4,-6],[1,-5],[1,-3],[0,-4],[1,-2],[5,-3],[2,-1],[12,-19],[19,-20],[15,-12],[8,-12],[4,-7],[1,-6],[-3,-8],[-7,-4],[-8,-3],[-7,-4],[3,-5],[1,-5],[0,-4],[-6,-10],[0,-5],[2,-5],[0,-5],[2,-6],[7,-6],[1,-3],[3,-4],[5,1],[8,4],[4,-1],[10,-8],[3,-4],[0,-2],[-1,-2],[-1,-2],[2,-4],[3,-1],[2,0],[2,1],[9,-4],[9,-6],[8,-8],[7,-9],[-5,1],[-4,-2],[-1,-5],[3,-2],[5,-2],[4,-4],[2,-6],[-2,-6],[4,-1],[1,-3],[0,-3],[0,-4],[1,-3],[2,-1],[2,0],[3,-2],[2,-1],[2,-2],[3,-2],[0,-4],[-1,-1],[-9,-8],[7,-3],[2,-1],[1,-3],[5,2],[4,-1],[3,-4],[-2,-5],[3,0],[7,-2],[0,-3],[-10,-2],[-3,0],[-2,-2],[1,-4],[1,-5],[2,-2],[2,-2],[2,-14],[5,-4],[-5,-2],[-2,2],[-2,3],[-4,2],[-3,-2],[1,-4],[3,-4],[14,-15],[4,-6],[12,-28],[3,-4],[4,-3],[5,-7],[7,-12],[4,-29],[0,-8],[-2,-5],[-4,-1],[-5,3],[-19,13],[-4,0],[-1,7],[-2,5],[-15,19],[-2,3],[-1,4],[0,7],[-1,4],[-4,6],[-17,18],[-25,13],[-9,10],[-17,2],[2,7],[-10,11],[-5,4],[-3,0],[-6,0],[-2,1],[-2,3],[1,6],[-1,2],[-8,8],[-21,9],[-8,8],[-26,49],[-7,18],[-4,9],[1,3],[1,2],[-1,2],[-1,3],[-1,5],[-5,18],[-5,8],[-15,30],[-2,5],[0,20],[-1,3],[-11,26],[6,5],[11,9],[6,2],[0,3],[-8,19],[-15,19],[-2,4],[-4,2],[-13,12],[-4,6],[-4,16],[7,5],[14,-1],[13,-5],[7,-7],[3,-1],[4,1],[4,2],[2,3],[-1,3],[-11,7],[1,3],[2,2],[3,2],[4,0],[0,-3],[8,0],[5,-2],[6,-10],[5,-4],[4,-2]],[[106,1363],[2,-5],[-10,-1],[-5,0],[-6,3],[-2,-1],[-3,-1],[-3,0],[-2,0],[-3,4],[-2,1],[-7,4],[4,9],[12,14],[17,-6],[3,-2],[0,-6],[5,-13]],[[3,1388],[10,-2],[10,1],[9,0],[6,-7],[3,3],[2,-3],[-2,-3],[-1,-3],[1,-5],[2,-4],[-10,8],[0,-6],[-4,-2],[-11,0],[0,3],[2,1],[3,2],[2,2],[-14,4],[-4,2],[-3,1],[-4,-1],[0,7],[3,2]],[[0,1421],[4,0],[5,-4],[2,-8],[0,-9],[-1,-5],[-5,-2],[-5,0],[0,28]],[[280,1388],[0,-10],[2,1],[2,0],[1,1],[-1,-3],[-1,-4],[-1,-4],[1,-4],[-6,4],[-2,1],[-2,-12],[-5,3],[-3,5],[-5,4],[-7,0],[0,3],[5,5],[2,0],[4,-1],[9,9],[7,2]],[[3441,3898],[-4,-4],[-9,1],[-3,9],[2,9],[10,3],[6,-2],[1,-8],[-3,-8]],[[399,1316],[4,0],[3,5],[4,3],[5,-2],[1,2],[1,1],[1,0],[2,0],[3,-7],[5,-5],[14,-6],[2,3],[2,2],[3,2],[2,1],[5,-1],[2,-4],[1,-5],[2,-4],[7,-7],[5,-3],[3,-1],[3,-3],[5,-10],[7,-4],[6,-8],[3,-3],[4,-3],[13,-4],[7,-4],[11,-10],[7,-4],[-3,-7],[2,-7],[6,-3],[5,2],[15,-6],[4,-3],[3,-5],[1,-5],[2,-3],[5,2],[10,-8],[9,4],[6,1],[7,0],[8,-2],[-5,-2],[1,-4],[4,-3],[4,-1],[6,-1],[3,-1],[2,-4],[2,-4],[7,4],[3,-3],[3,-6],[4,-3],[12,-1],[5,2],[2,4],[6,-3],[3,-2],[3,-2],[6,4],[3,-4],[4,-8],[3,-6],[6,-4],[11,-6],[4,-4],[1,0],[5,-2],[0,-1],[1,-3],[1,-1],[17,-14],[33,-20],[71,-53],[1,-3],[-7,-8],[-8,-11],[-3,-2],[-3,2],[-4,1],[-4,-1],[-3,-2],[0,-2],[6,-4],[3,-6],[3,0],[4,1],[3,4],[3,-3],[11,-16],[3,-5],[1,-5],[0,-8],[11,-8],[4,-6],[-5,-4],[-3,0],[-12,7],[-1,0],[-5,0],[-1,0],[-2,2],[-1,2],[-1,3],[-7,2],[-4,7],[-7,2],[-3,3],[-5,6],[-11,9],[-4,4],[-1,4],[1,3],[-1,2],[-5,1],[-5,3],[-17,15],[-30,6],[-13,8],[-9,4],[-8,6],[-6,4],[-6,1],[-5,-2],[-12,8],[-7,2],[-6,-2],[-4,8],[-3,5],[-4,2],[-5,0],[-5,2],[-3,3],[-1,5],[-8,-3],[-8,2],[-7,4],[-34,25],[-2,0],[-6,-1],[-2,1],[-2,2],[0,3],[0,3],[-1,2],[-2,0],[-2,-1],[-1,-2],[-2,0],[-10,5],[-3,0],[-5,0],[-2,0],[0,1],[-2,5],[-1,2],[-4,2],[-3,0],[-2,2],[-1,6],[-2,-2],[-8,-3],[0,7],[-4,6],[-5,3],[-7,1],[-21,10],[-2,14],[-3,7],[-6,-2],[-11,3],[-6,3],[3,5],[-4,5],[-4,3],[-2,0],[-4,-5],[-4,5],[-5,13],[-4,5],[-5,4],[-7,2],[-6,-2],[-3,7],[-16,9],[-6,5],[-2,5],[0,3],[1,4],[1,4],[0,15],[-28,24],[-19,10],[-3,6],[-1,6],[3,4],[6,-1],[7,-4],[36,-13],[3,-2]],[[336,1319],[4,-6],[6,-3],[7,-2],[6,-1],[5,-2],[6,-5],[4,-6],[-1,-4],[-6,-1],[-5,3],[-5,6],[-2,4],[-4,-4],[-7,1],[-14,8],[1,-3],[4,-9],[-3,0],[-9,2],[-9,0],[0,3],[-1,5],[-4,5],[-8,2],[-1,2],[-2,2],[-1,3],[2,1],[3,0],[6,-2],[2,0],[1,-1],[3,-1],[2,1],[-2,4],[0,2],[2,2],[4,0],[3,-3],[4,-2],[9,-1]],[[293,1354],[2,-4],[5,2],[4,-2],[9,-7],[4,3],[8,0],[9,-4],[6,-4],[-3,-2],[-3,-3],[0,-3],[1,-5],[-16,4],[-4,1],[-3,3],[-3,4],[-4,4],[-11,3],[-8,5],[-4,1],[-3,2],[-1,4],[2,4],[3,0],[3,-2],[4,-2],[3,-2]]]}