{"objects":{"water":{"type":"GeometryCollection","geometries":[{"type":"Polygon","properties":{"source":"naturalearthdata.com","kind":"lake","area":762649280,"sort_rank":200,"min_zoom":0.0,"id":632},"arcs":[[35]]},{"type":"MultiLineString","properties":{"source":"naturalearthdata.com","kind":"lake","sort_rank":367,"boundary":true,"min_zoom":0.0,"id":632},"arcs":[[36],[37]]}]},"buildings":{"type":"GeometryCollection","geometries":[]},"places":{"type":"GeometryCollection","geometries":[{"type":"Point","properties":{"name:kg":"Kazakhstan","name:ka":"\u10e7\u10d0\u10d6\u10d0\u10ee\u10d4\u10d7\u10d8","name:ko":"\uce74\uc790\ud750\uc2a4\ud0c4","name:kn":"\u0c95\u0c9d\u0cbe\u0c95\u0cbf\u0cb8\u0ccd\u0ca5\u0cbe\u0ca8\u0ccd","name:cu":"\u041a\u0430\ua641\u0430\u0445\u0441\u0442\u0430\u043d\u044a","name:kl":"Kasakhstani","name:cs":"Kazachst\u00e1n","name:ki":"Kazakistani","name:kw":"Pow Kazagh","name:tk":"Gazagystan","name:ku":"Qazaxistan","name:ks":"\u06a9\u064e\u0632\u0627\u06a9\u0650\u0633\u062a\u0627\u0646","name:to":"Kasakiteni","name:tl":"Kazakhstan","name:ce":"\u041a\u0430\u0437\u0430\u0445\u0438\u0439\u043d \u041f\u0430\u0447\u0445\u044c\u0430\u043b\u043a\u0445","name:ta":"\u0b95\u0bb8\u0b95\u0bb8\u0bcd\u0ba4\u0bbe\u0ba9\u0bcd","name:tg":"\u049a\u0430\u0437\u043e\u049b\u0438\u0441\u0442\u043e\u043d","name:ca":"Kazakhstan","name:te":"\u0c15\u0c1c\u0c3e\u0c16\u0c38\u0c4d\u0c24\u0c3e\u0c28\u0c4d","name:cy":"Kazakstan","name:hr":"Kazahstan","name:da":"Kasakhstan","name:de":"Kasachstan","name:dz":"\u0f40\u0f0b\u0f5b\u0f42\u0f66\u0f0b\u0f66\u0f4f\u0f71\u0f53","source":"openstreetmap.org","name:dv":"\u0786\u07a6\u0792\u07a6\u0786\u07a8\u0790\u07b0\u078c\u07a7\u0782\u07b0","name:km":"\u1780\u17b6\u17a0\u17d2\u179f\u17b6\u1780\u17cb\u179f\u17d2\u178f\u17b6\u1784\u17cb\u17cb","name:lv":"Kazahst\u0101na","name:lt":"Kazachstanas","name:uz":"Qozog\u2019iston","name:kk":"\u049a\u0430\u0437\u0430\u049b\u0441\u0442\u0430\u043d","name:ur":"\u0642\u0632\u0627\u062e\u0633\u062a\u0627\u0646","name:lb":"Kasachstan","name:la":"Casachia","name:lg":"Kazakisitaani","name:ug":"\u0642\u0627\u0632\u0627\u0642\u0649\u0633\u062a\u0627\u0646","name:li":"Kazachstan","name:ln":"Kazakisit\u00e1","name:lo":"\u0e84\u0eb2\u0e8a\u0eb1\u0e94\u0eaa\u0eb0\u0e96\u0eb2\u0e99","name:el":"\u039a\u03b1\u03b6\u03b1\u03ba\u03c3\u03c4\u03ac\u03bd","name:eo":"Kaza\u0125ujo","name:en":"Kazakhstan","name":"\u041a\u0430\u0437\u0430\u0445\u0441\u0442\u0430\u043d","name:ee":"Kazakstan nutome","name:th":"\u0e1b\u0e23\u0e30\u0e40\u0e17\u0e28\u0e04\u0e32\u0e0b\u0e31\u0e04\u0e2a\u0e16\u0e32\u0e19","name:eu":"Kazakhstan","name:et":"Kasahstan","name:es":"Kazajist\u00e1n","name:ia":"Kazakhstan","name:rm":"Kasachstan","name:rn":"Kazakisitani","name:az":"Qazax\u0131stan","name:ie":"Kazakstan","name:id":"Kazakstan","name:ar":"\u0643\u0627\u0632\u0627\u062e\u0633\u062a\u0627\u0646","name:io":"Kazakstan","name:av":"\u0425\u044a\u0430\u0437\u0430\u0445\u044a\u0438\u0441\u0442\u0430\u043d","name:ak":"Kazakstan","name:am":"\u12ab\u12db\u12aa\u1235\u1273\u1295","name:it":"Kazakistan","name:an":"Cazaquist\u00e1n","name:ab":"\u049e\u0430\u0437\u0430\u049f\u0441\u04ad\u0430\u043d","name:af":"Kasakstan","name:zu":"i-Kazakhstan","name:za":"Hahsazgwswhdanj","name:zh":"\u54c8\u8428\u514b\u65af\u5766","name:so":"Kasaakhistaan","name:sn":"Kazakhstan","name:sl":"Kazahstan","name:sk":"Kazachstan","name:ja":"\u30ab\u30b6\u30d5\u30b9\u30bf\u30f3","name:si":"\u0d9a\u0dc3\u0d9a\u0dc3\u0dca\u0dad\u0dcf\u0db1\u0dba","name:sg":"Kazakisit\u00e4an","name:se":"Kasakstan","name:br":"Kazakstan","name:bs":"Kazahstan","name:bm":"Kazakista\u014b","name:bn":"\u0995\u09be\u099c\u09be\u0995\u09b8\u09cd\u09a5\u09be\u09a8","name:bo":"\u0f41\u0f0b\u0f5b\u0f71\u0f42\u0f0b\u0f66\u0f9f\u0f71\u0f53\u0f0d","name:bi":"Kazakhstan","name:sw":"Kazakistani","name:sv":"Kazakstan","name:su":"Kazastan","name:ss":"IKhazakhi","name:ba":"\u04a0\u0430\u0499\u0430\u0493\u0441\u0442\u0430\u043d","name:sq":"Kazakistan","name:jv":"Kazakhstan","name:sa":"\u0915\u091c\u093e\u0915\u0938\u094d\u0925\u093e\u0928","name:pt":"Casaquist\u00e3o","name:ps":"\u0642\u0632\u0627\u0642\u0633\u062a\u0627\u0646","name:oc":"Cazacstan","min_zoom":2.0,"name:ro":"Kazahstan","name:pa":"\u0a15\u0a1c\u0a3c\u0a3e\u0a16\u0a3c\u0a38\u0a24\u0a3e\u0a28","name:os":"\u0425\u044a\u0430\u0437\u0430\u0445\u0441\u0442\u0430\u043d","name:or":"\u0b15\u0b3e\u0b1c\u0b3e\u0b15\u0b3e\u0b38\u0b4d\u0b25\u0b3e\u0b28\u0b4d","name:pl":"Kazachstan","name:tr":"Kazakistan","name:hi":"\u0915\u091c\u093e\u0916\u0938\u094d\u0924\u093e\u0928","name:he":"\u05e7\u05d6\u05d7\u05e1\u05d8\u05df","name:ha":"Kazakistan","name:hy":"\u0542\u0561\u0566\u0561\u056d\u057d\u057f\u0561\u0576","name:ht":"Kazakstan","name:hu":"Kazahszt\u00e1n","name:qu":"Qasaqsuyu","population":15217711,"kind":"country","name:is":"Kasakstan","name:yi":"\u05e7\u05d0\u05d6\u05d0\u05db\u05e1\u05d8\u05d0\u05df","name:yo":"Or\u00edl\u1eb9\u0301\u00e8de Ka\u1e63a\u1e63atani","name:mt":"Ka\u017cakstan","alt_name:eo":"Kaza\u0125stano;Kaza\u0125io","name:ms":"Kazakhstan","name:mr":"\u0915\u091d\u093e\u0915\u0938\u094d\u0924\u093e\u0928","name:my":"\u1000\u102c\u1007\u1000\u103a\u1005\u1010\u1014\u103a","official_name":"Republic of Kazakhstan","int_name":"Kazakhstan","name:mg":"Kazakhstan","name:ml":"\u0d15\u0d38\u0d3e\u0d16\u0d3f\u0d38\u0d4d\u0d25\u0d3e\u0d7b","name:vi":"Kazakhstan","name:mi":"Katat\u0101nga","id":424311521,"name:vo":"Kazakist\u00e4n","name:fa":"\u0642\u0632\u0627\u0642\u0633\u062a\u0627\u0646","name:rw":"Kazakisitani","name:ff":"Kasakstaan","name:fi":"Kazakstan","name:ky":"\u041a\u0430\u0437\u0430\u043a\u0441\u0442\u0430\u043d \u0420\u0435\u0441\u043f\u0443\u0431\u043b\u0438\u043a\u0430\u0441\u044b","name:fo":"Kasakstan","name:fr":"Kazakhstan","name:fy":"Kazachstan","name:nl":"Kazachstan","name:nn":"Kasakhstan","name:no":"Kasakhstan","name:na":"Kadaketan","name:ne":"\u0915\u093e\u091c\u093e\u0915\u0938\u094d\u0925\u093e\u0928","name:wo":"Kasakistaan","name:nv":"K\u02bcazah Bik\u00e9yah","name:ga":"An Chasacst\u00e1in","name:gd":"Casachstan","name:gn":"Kazajist\u00e1n","name:gl":"Kazakhstan","name:gv":"Yn Chassaghstaan","name:gu":"\u0a95\u0a9d\u0abe\u0a95\u0abf\u0ab8\u0acd\u0aa4\u0abe\u0aa8","name:tt":"\u041a\u0430\u0437\u0430\u043a\u044a\u0441\u0442\u0430\u043d"},"coordinates":[2428,2286]},{"type":"Point","properties":{"kind":"region","name:en":"Kyzylorda Province","name":"\u041a\u044b\u0437\u044b\u043b\u043e\u0440\u0434\u0438\u043d\u0441\u043a\u0430\u044f \u043e\u0431\u043b\u0430\u0441\u0442\u044c","kind_detail":"state","name:kk":"\u049a\u044b\u0437\u044b\u043b\u043e\u0440\u0434\u0430 \u043e\u0431\u043b\u044b\u0441\u044b","name:eo":"Kizilordo","name:de":"Gebiet Qysylorda","source":"openstreetmap.org","min_zoom":4.0,"name:fr":"Oblys de Kyzylorda","name:uk":"\u041a\u0438\u0437\u0438\u043b\u043e\u0440\u0434\u0438\u043d\u0441\u044c\u043a\u0430 \u043e\u0431\u043b\u0430\u0441\u0442\u044c","name:et":"K\u00f5z\u00f5lorda oblast","name:hu":"Kizilordai ter\u00fclet","id":974359207,"population":636900},"coordinates":[1486,125]},{"type":"Point","properties":{"source":"naturalearthdata.com","kind":"locality","name":"Baykonur","population":36175,"min_zoom":6.0,"id":5360},"coordinates":[995,644]},{"type":"Point","properties":{"source":"naturalearthdata.com","kind":"locality","name":"Qazaly","population":6582,"min_zoom":6.0,"id":5968},"coordinates":[169,720]}]},"transit":{"type":"GeometryCollection","geometries":[{"type":"MultiLineString","properties":{"kind":"train","network":"\u049a\u0422\u0416","sort_rank":275,"name:de":"49\/50 Aktobe<=>Almaty","source":"openstreetmap.org","min_zoom":6.0,"ref":"49\/50","osm_relation":true,"name":"49\/50 \u0410\u043a\u0442\u043e\u0431\u0435<=>\u0410\u043b\u043c\u0430\u0442\u044b"},"arcs":[[20],[21],[22]]},{"type":"MultiLineString","properties":{"kind":"train","name":"7 \u041c\u043e\u0441\u043a\u0432\u0430 \u2014 \u0410\u043b\u043c\u0430\u0442\u044b","sort_rank":275,"name:de":"7 Moskau - Almaty","source":"openstreetmap.org","min_zoom":6.0,"ref":"7","osm_relation":true,"description":"7 Moskau -> Almaty \/ 7 Almaty -> Moskau"},"arcs":[[23],[24],[25]]},{"type":"MultiLineString","properties":{"kind":"train","network":"\u0423\u0422\u0419","sort_rank":275,"description":"381\/382 \u0423\u0444\u0430 \u2014 \u0422\u0430\u0448\u043a\u0435\u043d\u0442","name:de":"381 Ufa<=>Taschkent","source":"openstreetmap.org","min_zoom":6.0,"ref":"381","osm_relation":true,"name":"381 \u0423\u0444\u0430<=>\u0422\u0430\u0448\u043a\u0435\u043d\u0442"},"arcs":[[26],[27],[28]]},{"type":"MultiLineString","properties":{"kind":"train","name":"5\/6 \u0422\u0430\u0448\u043a\u0435\u043d\u0442<=>\u041c\u043e\u0441\u043a\u0432\u0430","sort_rank":275,"name:de":"5\/6 Taschkent<=>Moskau","source":"openstreetmap.org","min_zoom":6.0,"network":"\u0423\u0422\u0419","ref":"5\/6","osm_relation":true,"description":"5 \u0422\u0430\u0448\u043a\u0435\u043d\u0442 -> \u041c\u043e\u0441\u043a\u0432\u0430 \/ 6 \u041c\u043e\u0441\u043a\u0432\u0430 -> \u0422\u0430\u0448\u043a\u0435\u043d\u0442"},"arcs":[[29],[30],[31]]},{"type":"MultiLineString","properties":{"kind":"train","network":"\u049a\u0422\u0416","sort_rank":275,"name:de":"77 Almaty<=>Atyrau","source":"openstreetmap.org","min_zoom":6.0,"ref":"77","osm_relation":true,"name":"77 A\u043b\u043c\u0430\u0442\u044b<=>\u0410\u0442\u044b\u0440\u0430\u0443"},"arcs":[[32],[33],[34]]}]},"pois":{"type":"GeometryCollection","geometries":[]},"boundaries":{"type":"GeometryCollection","geometries":[{"type":"MultiLineString","properties":{"source":"naturalearthdata.com","kind":"lease_limit","sort_rank":259,"kind_detail":"2","min_zoom":0.0,"id":437},"arcs":[[0],[1]]},{"type":"LineString","properties":{"source":"naturalearthdata.com","kind":"region","sort_rank":256,"kind_detail":"4","min_zoom":5.0,"id":7323},"arcs":[2]},{"type":"MultiLineString","properties":{"source":"naturalearthdata.com","kind":"region","sort_rank":256,"kind_detail":"4","min_zoom":5.0,"id":7303},"arcs":[[3],[4],[5]]},{"type":"MultiLineString","properties":{"source":"naturalearthdata.com","kind":"region","sort_rank":256,"kind_detail":"4","min_zoom":5.0,"id":7322},"arcs":[[6],[7]]},{"type":"MultiLineString","properties":{"source":"naturalearthdata.com","kind":"region","sort_rank":256,"kind_detail":"4","min_zoom":5.0,"id":7316},"arcs":[[8],[9],[10]]},{"type":"LineString","properties":{"source":"naturalearthdata.com","kind":"region","sort_rank":256,"kind_detail":"4","min_zoom":5.0,"id":7318},"arcs":[11]},{"type":"MultiLineString","properties":{"source":"naturalearthdata.com","kind":"region","sort_rank":256,"kind_detail":"4","min_zoom":5.0,"id":7321},"arcs":[[12],[13],[14],[15],[16],[17],[18]]},{"type":"LineString","properties":{"source":"naturalearthdata.com","kind":"region","sort_rank":256,"kind_detail":"4","min_zoom":5.0,"id":7325},"arcs":[19]}]},"roads":{"type":"GeometryCollection","geometries":[{"type":"LineString","properties":{"source":"naturalearthdata.com","kind":"major_road","sort_rank":379,"kind_detail":"secondary","min_zoom":4.0,"id":15727},"arcs":[38]},{"type":"LineString","properties":{"source":"naturalearthdata.com","kind":"major_road","sort_rank":379,"kind_detail":"secondary","min_zoom":4.0,"id":15983},"arcs":[39]},{"type":"LineString","properties":{"source":"naturalearthdata.com","kind":"major_road","kind_detail":"secondary","sort_rank":379,"landuse_kind":"urban_area","min_zoom":4.0,"id":16131},"arcs":[40]},{"type":"MultiLineString","properties":{"source":"naturalearthdata.com","kind":"major_road","sort_rank":379,"kind_detail":"secondary","min_zoom":4.0,"id":16131},"arcs":[[41],[42]]},{"type":"LineString","properties":{"source":"naturalearthdata.com","kind":"major_road","sort_rank":379,"kind_detail":"secondary","min_zoom":3.0,"id":16825},"arcs":[43]},{"type":"LineString","properties":{"source":"naturalearthdata.com","kind":"major_road","sort_rank":379,"kind_detail":"secondary","min_zoom":4.0,"id":16897},"arcs":[44]},{"type":"LineString","properties":{"source":"naturalearthdata.com","kind":"major_road","sort_rank":379,"kind_detail":"secondary","min_zoom":4.0,"id":16934},"arcs":[45]},{"type":"LineString","properties":{"source":"naturalearthdata.com","kind":"major_road","sort_rank":379,"kind_detail":"secondary","min_zoom":3.0,"id":16979},"arcs":[46]},{"type":"LineString","properties":{"source":"naturalearthdata.com","kind":"major_road","kind_detail":"secondary","sort_rank":379,"landuse_kind":"urban_area","min_zoom":3.0,"id":17086},"arcs":[47]},{"type":"LineString","properties":{"source":"naturalearthdata.com","kind":"major_road","sort_rank":379,"kind_detail":"secondary","min_zoom":3.0,"id":17086},"arcs":[48]},{"type":"LineString","properties":{"source":"naturalearthdata.com","kind":"major_road","kind_detail":"secondary","sort_rank":379,"landuse_kind":"urban_area","min_zoom":3.0,"id":17142},"arcs":[49]},{"type":"LineString","properties":{"source":"naturalearthdata.com","kind":"major_road","sort_rank":379,"kind_detail":"secondary","min_zoom":3.0,"id":17142},"arcs":[50]},{"type":"LineString","properties":{"source":"naturalearthdata.com","kind":"major_road","sort_rank":379,"kind_detail":"secondary","min_zoom":3.0,"id":17302},"arcs":[51]},{"type":"LineString","properties":{"source":"naturalearthdata.com","kind":"major_road","sort_rank":379,"kind_detail":"secondary","min_zoom":3.0,"id":17364},"arcs":[52]},{"type":"LineString","properties":{"source":"naturalearthdata.com","kind":"major_road","sort_rank":379,"kind_detail":"secondary","min_zoom":4.0,"id":17430},"arcs":[53]}]},"earth":{"type":"GeometryCollection","geometries":[{"type":"Polygon","properties":{"sort_rank":10,"source":"naturalearthdata.com","min_zoom":0.0,"kind":"earth","area":1568366174169},"arcs":[[54]]}]},"landuse":{"type":"GeometryCollection","geometries":[{"type":"MultiPolygon","properties":{"source":"naturalearthdata.com","kind":"urban_area","name":"","area":1577405981,"sort_rank":11,"min_zoom":4.0},"arcs":[[[55]],[[56]]]}]}},"type":"Topology","transform":{"translate":[61.875,45.0890355648],"scale":[0.001373291,0.0009359042]},"arcs":[[[1099,1391],[43,-2],[42,-7],[41,-11],[39,-15],[37,-18],[35,-22],[33,-26],[30,-28],[27,-31],[25,-34],[21,-37],[18,-38],[14,-41],[11,-42],[6,-44],[2,-45],[-2,-45],[-6,-44],[-11,-42],[-14,-40],[-18,-39],[-21,-36],[-25,-34],[-27,-31],[-30,-29],[-33,-25],[-35,-22],[-37,-19],[-39,-15],[-41,-11],[-42,-6],[-43,-3]],[[1099,509],[-44,3],[-42,6],[-41,11],[-39,15],[-37,19],[-35,22],[-32,25],[-31,29],[-27,31],[-24,34],[-22,36],[-18,39],[-14,40],[-10,42],[-7,44],[-2,45],[2,45],[7,44],[10,42],[14,41],[18,38],[22,37],[24,34],[27,31],[31,28],[32,26],[35,22],[37,18],[39,15],[41,11],[42,7],[44,2]],[[3933,928],[163,-3]],[[2865,4096],[-54,-65],[-154,-31]],[[2657,4000],[-329,47]],[[2328,4047],[-241,-39],[-85,-196],[-86,-3],[5,-30],[-7,-57],[32,-75],[-84,-27],[-157,-80],[-5,-110],[-174,-158]],[[639,2235],[-84,41],[-69,11],[-67,20],[12,47],[-107,164],[-109,105],[-89,29],[-126,201]],[[704,2238],[-65,-3]],[[686,4020],[-111,29],[-41,47]],[[1526,3272],[-225,340],[-460,238],[19,104],[-18,78],[-91,22]],[[751,4054],[-65,-34]],[[704,2238],[921,665],[71,78],[-31,63],[-139,228]],[[566,2093],[13,47],[125,98]],[[1353,1890],[-96,9],[-183,87],[-102,14],[-189,127]],[[783,2127],[-217,-34]],[[3717,1033],[-1039,251],[-153,75],[-177,161],[-63,6],[-870,356],[-22,20]],[[1393,1902],[-40,-12]],[[3933,928],[-21,106],[-73,7]],[[3839,1041],[-122,-8]],[[3933,928],[9,-103],[79,-65],[28,-109],[-56,-96],[-46,-254],[-2,-125],[67,-60],[84,-54]],[[1984,0],[-42,26],[-20,107],[-47,13],[-178,217],[-202,178],[-102,168],[-66,11],[-296,-123],[-434,149],[-61,50],[-313,13],[-56,23],[-167,164]],[[0,1005],[57,158],[1,81],[-58,172]],[[0,1452],[12,76],[-12,13]],[[1984,0],[-42,26],[-20,107],[-47,13],[-178,217],[-202,178],[-102,168],[-66,11],[-296,-123],[-434,149],[-61,50],[-313,13],[-56,23],[-167,164]],[[0,1005],[57,158],[1,81],[-58,172]],[[0,1452],[12,76],[-12,13]],[[1984,0],[-42,26],[-20,107],[-47,13],[-178,217],[-202,178],[-102,168],[-66,11],[-296,-123],[-434,149],[-61,50],[-313,13],[-56,23],[-167,164]],[[0,1005],[57,158],[1,81],[-58,172]],[[0,1452],[12,76],[-12,13]],[[1984,0],[-42,26],[-20,107],[-47,13],[-178,217],[-202,178],[-102,168],[-66,11],[-296,-123],[-434,149],[-61,50],[-313,13],[-56,23],[-167,164]],[[0,1005],[57,158],[1,81],[-58,172]],[[0,1452],[12,76],[-12,13]],[[1984,0],[-42,26],[-20,107],[-47,13],[-178,217],[-202,178],[-102,168],[-66,11],[-296,-123],[-434,149],[-61,50],[-313,13],[-56,23],[-167,164]],[[0,1005],[57,158],[1,81],[-58,172]],[[0,1452],[12,76],[-12,13]],[[56,1251],[12,4],[1,-9],[0,-5],[-1,-5],[-2,-3],[-5,-4],[-3,-3],[-1,-2],[-5,-22],[-1,-3],[-3,-5],[-4,-4],[-4,-3],[-4,-2],[-8,-2],[-2,-4],[2,-6],[1,-3],[1,-2],[1,-3],[-1,-4],[-1,-2],[-2,-2],[-3,-2],[-2,-1],[-4,0],[-13,7],[-3,0],[-2,0],[0,87],[2,1],[6,0],[11,-1],[25,0],[12,3]],[[56,1251],[12,4],[1,-9],[0,-5],[-1,-5],[-2,-3],[-5,-4],[-3,-3],[-1,-2],[-5,-22],[-1,-3],[-3,-5],[-4,-4],[-4,-3],[-4,-2],[-8,-2],[-2,-4],[2,-6],[1,-3],[1,-2],[1,-3],[-1,-4],[-1,-2],[-2,-2],[-3,-2],[-2,-1],[-4,0],[-13,7],[-3,0],[-2,0]],[[0,1248],[2,1],[6,0],[11,-1],[25,0],[12,3]],[[0,4039],[35,26],[33,31]],[[3612,4096],[-12,-31],[-24,-57],[-15,-49],[0,-48],[-21,-71],[0,-17],[0,-49],[9,-57],[12,-40],[21,-48],[3,-36],[6,-13],[18,-26],[9,-31],[3,-44],[24,-57],[33,-62],[27,-35],[6,-18],[9,-31],[0,-26],[9,-36],[9,-22],[18,-22]],[[4047,2981],[22,0],[12,13],[7,11]],[[3756,3170],[39,-35],[27,-13],[21,-18],[21,-13],[21,-18],[12,-13],[39,-39],[33,-23],[66,-17],[12,0]],[[4088,3005],[8,12]],[[0,1366],[8,-7],[15,-9],[18,-22],[9,-26],[24,-79],[3,-40]],[[3744,1029],[-3,30],[-6,45],[6,39],[9,31],[12,35],[18,40],[15,22],[24,31],[24,26],[21,27],[42,48],[57,57],[15,18],[70,66],[33,40],[15,17]],[[3816,918],[-24,40],[-33,49],[-15,22]],[[77,1183],[18,-22],[27,-13],[36,-22],[9,-14],[0,-53],[3,-88],[18,-66],[3,-57],[3,-22],[12,-27]],[[1025,576],[13,-6],[3,22]],[[206,799],[9,-4],[75,0],[78,-4],[94,-5],[48,-4],[21,13],[12,-4],[12,-14],[15,-48],[15,-22],[30,-13],[24,-5],[72,0],[27,5],[36,-5],[21,-9],[9,-4],[24,-4],[21,-9],[30,-22],[60,-27],[86,-38]],[[1041,592],[1,1]],[[1042,593],[11,13],[60,22],[18,4],[33,22],[27,22],[66,35],[27,14],[30,13],[40,4],[36,-4],[21,-22],[18,-49],[9,-22],[27,-31],[36,-44],[6,-9],[39,-44],[21,-17],[9,-13],[15,-31],[21,-31]],[[1612,425],[3,-18],[-27,-44],[-3,-13],[24,-110],[3,-27],[33,-97],[6,-13],[27,-31],[12,-17],[6,-31]],[[1696,24],[6,-18],[5,-6]],[[3816,918],[0,-26],[-3,-22],[-18,-75],[-15,-35],[-9,-35],[-27,-111],[-15,-30],[-15,-27],[-39,-48],[-21,-14],[-24,-13],[-51,-62],[-18,-22],[-33,-44],[-21,-31],[-30,-35],[-30,-26],[-33,-27],[-84,-75],[-33,-35],[-18,-17],[-15,-18],[-36,-31],[-33,-18],[-39,-30],[-17,-11]],[[4096,1628],[0,-1628],[-4096,0],[0,4096],[4096,0],[0,-2468]],[[1048,557],[-23,15],[-3,21],[40,0],[-14,-36]],[[4096,2947],[-16,32],[-17,-59],[-24,11],[16,107],[41,-41],[0,-50]]]}