{"objects":{"water":{"type":"GeometryCollection","geometries":[{"type":"Polygon","properties":{"kind":"lake","name":"Aydar Ko\u0091l","area":3803178496,"sort_rank":200,"alkaline":true,"source":"naturalearthdata.com","min_zoom":0.0,"id":1328},"arcs":[[38]]},{"type":"LineString","properties":{"source":"naturalearthdata.com","kind":"lake","sort_rank":367,"alkaline":true,"boundary":true,"min_zoom":0.0,"id":1328},"arcs":[39]}]},"buildings":{"type":"GeometryCollection","geometries":[]},"places":{"type":"GeometryCollection","geometries":[{"type":"Point","properties":{"name:ka":"\u10e3\u10d6\u10d1\u10d4\u10d9\u10d4\u10d7\u10d8","name:ko":"\uc6b0\uc988\ubca0\ud0a4\uc2a4\ud0c4","name:cv":"\u04f2\u0441\u043f\u0435\u043a\u0441\u0442\u0430\u043d","name:km":"\u17a2\u17ca\u17bc\u17a0\u17d2\u179f\u1794\u17c1\u1782\u17b8\u179f\u17d2\u178f\u1784\u17cb","name:kl":"Uzbekistani","name:cs":"Uzbekist\u00e1n","name:ki":"Uzibekistani","name:kw":"Pow Ousbek","name:kv":"\u0423\u0437\u0431\u0435\u043a\u0438\u0441\u0442\u0430\u043d","name:ku":"\u00dbzb\u00eakistan","name:ti":"\u12e9\u12dd\u1260\u12aa\u1235\u1273\u1295","name:ks":"\u0627\u064f\u0632\u0628\u0650\u06a9\u0650\u0633\u062a\u0627\u0646","name:to":"\u02bbUsipekit\u0113ni","name:tl":"Uzbekistan","name:ce":"\u0423\u0437\u0431\u0435\u043a\u0438\u0441\u0442\u0430\u043d","name:ta":"\u0b89\u0bb8\u0bcd\u0baa\u0bc6\u0b95\u0bbf\u0bb8\u0bcd\u0ba4\u0bbe\u0ba9\u0bcd","name:tg":"\u04ee\u0437\u0431\u0435\u043a\u0438\u0441\u0442\u043e\u043d","name:ca":"Uzbekistan","name:te":"\u0c09\u0c1c\u0c4d\u0c2c\u0c46\u0c15\u0c3f\u0c38\u0c4d\u0c24\u0c3e\u0c28\u0c4d","name:cy":"Uzbekistan","name:hr":"Uzbekistan","name:da":"Usbekistan","name:de":"Usbekistan","name:dz":"\u0f68\u0f74\u0f66\u0f0b\u0f56\u0f7a\u0f42\u0f0b\u0f42\u0f72\u0f0b\u0f66\u0f4f\u0f71\u0f53","source":"openstreetmap.org","name:kn":"\u0c89\u0c9c\u0ccd\u0cac\u0cc7\u0c95\u0cbf\u0cb8\u0ccd\u0ca5\u0cbe\u0ca8\u0ccd","name:dv":"\u0787\u07aa\u0792\u07b0\u0784\u07ac\u0786\u07a8\u0790\u07b0\u078c\u07a7\u0782\u07b0","name:lv":"Uzbekist\u0101na","name:lt":"Uzbekija","name:uz":"O\u2018zbekiston","name:kk":"\u04e8\u0437\u0431\u0435\u043a\u0441\u0442\u0430\u043d","name:ur":"\u0627\u0632\u0628\u06a9\u0633\u062a\u0627\u0646","name:lb":"Usbekistan","name:la":"Uzbecia","name:lg":"Wuzibekisitaani","name:uk":"\u0423\u0437\u0431\u0435\u043a\u0438\u0441\u0442\u0430\u043d","name:ug":"\u0626\u06c6\u0632\u0628\u06d0\u0643\u0649\u0633\u062a\u0627\u0646","name:li":"Oesbekistan","name:ln":"Uzib\u025bkisit\u00e1","name:lo":"\u0ead\u0eb8\u0e94\u0ec0\u0e9a\u0e81\u0eb4\u0eaa\u0eb0\u0e96\u0eb2\u0e99","name:el":"\u039f\u03c5\u03b6\u03bc\u03c0\u03b5\u03ba\u03b9\u03c3\u03c4\u03ac\u03bd","name:eo":"Uzbekujo","name:en":"Uzbekistan","name":"O'zbekiston","name:tk":"\u00d6zbegistan","name:ee":"Uzbekistan nutome","alt_name:uz":"\u040e\u0437\u0431\u0435\u043a\u0438\u0441\u0442\u043e\u043d","name:th":"\u0e1b\u0e23\u0e30\u0e40\u0e17\u0e28\u0e2d\u0e38\u0e0b\u0e40\u0e1a\u0e01\u0e34\u0e2a\u0e16\u0e32\u0e19","name:eu":"Uzbekistan","name:et":"Usbekistan","name:es":"Uzbekist\u00e1n","name:ia":"Uzbekistan","name:rm":"Usbekistan","name:rn":"Uzubekisitani","name:az":"\u00d6zb\u0259kistan","name:ie":"Uzbekistan","name:id":"Uzbekistan","name:ar":"\u0623\u0648\u0632\u0628\u0643\u0633\u062a\u0627\u0646","name:io":"Uzbekistan","name:ak":"Uzb\u025bkistan","name:am":"\u12e9\u12dd\u1260\u12aa\u1235\u1273\u1295","name:it":"Uzbekistan","name:an":"Uzbekist\u00e1n","name:ru":"\u0423\u0437\u0431\u0435\u043a\u0438\u0441\u0442\u0430\u043d","name:rw":"Uzubekisitani","name:af":"Oesbekistan","name:zu":"i-Uzbekistan","name:ky":"\u04e8\u0437\u0431\u0435\u043a\u0441\u0442\u0430\u043d","name:zh-yue":"\u6708\u5373\u5225","name:zh":"\u4e4c\u5179\u522b\u514b\u65af\u5766","name:so":"Uusbakistaan","name:sn":"Uzbekistan","name:sl":"Uzbekistan","name:sk":"Uzbekistan","name:ja":"\u30a6\u30ba\u30d9\u30ad\u30b9\u30bf\u30f3","name:si":"\u0d8b\u0dc3\u0dca\u0db6\u0dd9\u0d9a\u0dd2\u0dc3\u0dca\u0dae\u0dcf\u0db1\u0dba","name:sh":"Uzbekistan","name:sg":"Uzbekist\u00e4an","name:se":"Usbekistan","name:sa":"\u0909\u091c\u092c\u0947\u0915\u093f\u0938\u094d\u0925\u093e\u0928","name:bs":"Uzbekistan","name:bm":"Uzebekisitani","name:bn":"\u0989\u099c\u09cd\u09ac\u09c7\u0995\u09bf\u09b8\u09cd\u09a5\u09be\u09a8","name:bo":"\u0f68\u0f74\u0f5b\u0f0b\u0f56\u0f7a\u0f0b\u0f40\u0f72\u0f66\u0f9f\u0f71\u0f53\u0f0d","name:br":"Ouzbekistan","name:sw":"Uzibekistani","name:be":"\u0423\u0437\u0431\u0435\u043a\u0456\u0441\u0442\u0430\u043d","name:su":"Uzb\u00e9kistan","name:bg":"\u0423\u0437\u0431\u0435\u043a\u0438\u0441\u0442\u0430\u043d","name:ss":"IZubekhi","name:ba":"\u04ae\u0437\u0431\u04d9\u043a\u0441\u0442\u0430\u043d","name:sq":"Uzbekistani","name:jv":"Uzbekistan","name:pt":"Uzbequist\u00e3o","name:ps":"\u0627\u0648\u0632\u0628\u06a9\u0633\u062a\u0627\u0646","name:oc":"Ozbequistan","min_zoom":2.0,"name:ro":"Uzbekistan","name:zh-min-nan":"Uzbekistan","name:os":"\u0423\u0437\u0431\u0435\u043a\u0438\u0441\u0442\u0430\u043d","name:or":"\u0b09\u0b1c\u0b2c\u0b47\u0b15\u0b3f\u0b38\u0b4d\u0b25\u0b3e\u0b28\u0b4d","name:pl":"Uzbekistan","name:sr":"\u0423\u0437\u0431\u0435\u043a\u0438\u0441\u0442\u0430\u043d","name:pa":"\u0a09\u0a1c\u0a3c\u0a2c\u0a47\u0a15\u0a3f\u0a38\u0a24\u0a3e\u0a28","name:tr":"\u00d6zbekistan","name:hi":"\u0909\u091c\u092c\u0947\u0915\u093f\u0938\u094d\u0924\u093e\u0928","name:sv":"Uzbekistan","name:he":"\u05d0\u05d5\u05d6\u05d1\u05e7\u05d9\u05e1\u05d8\u05df","name:ha":"Uzubekistan","name:hy":"\u0548\u0582\u0566\u0562\u0565\u056f\u057d\u057f\u0561\u0576","name:ht":"Ouzbekistan","name:hu":"\u00dczbegiszt\u00e1n","name:qu":"Usbiksuyu","population":29735700,"kind":"country","name:is":"\u00dasbekistan","name:yi":"\u05d0\u05d5\u05d6\u05d1\u05e2\u05e7\u05d9\u05e1\u05d8\u05d0\u05df","name:yo":"Or\u00edl\u1eb9\u0301\u00e8de N\u1e63ib\u1eb9kisitani","name:mt":"U\u017cbekistan","alt_name:eo":"Uzbekistano;Uzbekio","name:ms":"Uzbekistan","name:mr":"\u0909\u091d\u092c\u0947\u0915\u093f\u0938\u094d\u0924\u093e\u0928","name:my":"\u1025\u1018\u1000\u103a\u1000\u1005\u1039\u1005\u1010\u1014\u103a","official_name":"O\u2018zbekiston Respublikasi","int_name":"Uzbekistan","name:mg":"Ozbekistan","name:ml":"\u0d09\u0d38\u0d4d\u0d2c\u0d46\u0d15\u0d4d\u0d15\u0d3f\u0d38\u0d4d\u0d25\u0d3e\u0d7b","name:vi":"Uzbekistan","name:mn":"\u0423\u0437\u0431\u0435\u043a\u0438\u0441\u0442\u0430\u043d","id":424317428,"name:mk":"\u0423\u0437\u0431\u0435\u043a\u0438\u0441\u0442\u0430\u043d","name:vo":"Lusbek\u00e4n","name:fa":"\u0627\u0632\u0628\u06a9\u0633\u062a\u0627\u0646","name:ff":"Usbekistaan","name:fi":"Uzbekistan","name:fo":"Usbekistan","alt_name:vi":"Ozbekistan","name:fr":"Ouzb\u00e9kistan","name:fy":"Oezbekistan","name:nl":"Oezbekistan","name:nn":"Usbekistan","name:no":"Usbekistan","name:na":"Uzbekistan","name:ne":"\u0909\u091c\u094d\u092c\u0947\u0915\u093f\u0938\u094d\u0924\u093e\u0928","name:wo":"Usbekistaan","name:nv":"\u00d3zbe\u02bc Bik\u00e9yah","name:ga":"An \u00daisb\u00e9iceast\u00e1in","name:gd":"Usbagast\u00e0n","name:gl":"Uzbekist\u00e1n","name:gv":"Yn Oosbeckistaan","name:gu":"\u0a89\u0a9d\u0acd\u0aac\u0ac7\u0a95\u0abf\u0ab8\u0acd\u0aa4\u0abe\u0aa8","name:tt":"\u04ae\u0437\u0431\u04d9\u043a\u0441\u0442\u0430\u043d"},"coordinates":[1513,343]},{"type":"Point","properties":{"kind":"region","name:en":"Navoiy Province","name":"Navoiy Viloyati","name:uz":"\u041d\u0430\u0432\u043e\u0438\u0439 \u0432\u0438\u043b\u043e\u044f\u0442\u0438","kind_detail":"state","min_zoom":4.0,"name:de":"Provinz Navoiy","source":"openstreetmap.org","name:fr":"Province de Navo\u00ef","name:ru":"\u041d\u0430\u0432\u043e\u0438\u0439\u0441\u043a\u0430\u044f \u043e\u0431\u043b\u0430\u0441\u0442\u044c","name:hu":"Navoiyi vilajet","id":309346339,"population":767500},"coordinates":[1547,1017]},{"type":"Point","properties":{"source":"naturalearthdata.com","kind":"locality","name":"Qyzylorda","population":300000,"region_capital":true,"min_zoom":5.0,"id":6614},"coordinates":[2614,3808]}]},"transit":{"type":"GeometryCollection","geometries":[{"type":"LineString","properties":{"kind":"train","network":"\u0422\u0435\u043c\u0438\u0440\u0436\u043e\u043b \u0436\u043e\u043b\u0430\u0443\u0448\u044b\u043b\u0430\u0440 \u0442\u0430\u0441\u044b\u043c\u0430\u043b\u044b","sort_rank":275,"source":"openstreetmap.org","min_zoom":6.0,"operator":"\u0422\u0435\u043c\u0438\u0440\u0436\u043e\u043b \u0436\u043e\u043b\u0430\u0443\u0448\u044b\u043b\u0430\u0440 \u0442\u0430\u0441\u044b\u043c\u0430\u043b\u044b","id":-2882571,"osm_relation":true,"name":"41\/42 \u0410\u0422\u042b\u0420\u0410\u0423-\u0410\u041b\u041c\u0410\u0422\u042b"},"arcs":[25]},{"type":"LineString","properties":{"kind":"train","network":"\u049a\u0422\u0416","sort_rank":275,"name:de":"49\/50 Aktobe<=>Almaty","source":"openstreetmap.org","min_zoom":6.0,"ref":"49\/50","osm_relation":true,"name":"49\/50 \u0410\u043a\u0442\u043e\u0431\u0435<=>\u0410\u043b\u043c\u0430\u0442\u044b"},"arcs":[26]},{"type":"LineString","properties":{"kind":"train","name":"7 \u041c\u043e\u0441\u043a\u0432\u0430 \u2014 \u0410\u043b\u043c\u0430\u0442\u044b","sort_rank":275,"name:de":"7 Moskau - Almaty","source":"openstreetmap.org","min_zoom":6.0,"ref":"7","osm_relation":true,"description":"7 Moskau -> Almaty \/ 7 Almaty -> Moskau"},"arcs":[27]},{"type":"MultiLineString","properties":{"kind":"train","network":"unknown","sort_rank":275,"name:de":"56 Kokchetau=>Ksyl Orda","source":"openstreetmap.org","min_zoom":6.0,"name:ru":"56 \u041a\u043e\u043a\u0448\u0435\u0442\u0430\u0443=>\u041a\u0437\u044b\u043b-\u041e\u0440\u0434\u0430","ref":"56","osm_relation":true,"name":"56 \u041a\u043e\u043a\u0448\u0435\u0442\u0430\u0443=>\u041a\u044b\u0437\u044b\u043b\u043e\u0440\u0434\u0430"},"arcs":[[28],[29],[30]]},{"type":"LineString","properties":{"kind":"train","network":"\u049a\u0422\u0416","sort_rank":275,"name:de":"90 Astana<=>Kzyl-Orda","source":"openstreetmap.org","min_zoom":6.0,"ref":"90","osm_relation":true,"name":"90 \u0410\u0441\u0442\u0430\u043d\u0430<=>\u041a\u044b\u0437\u044b\u043b\u043e\u0440\u0434\u0430"},"arcs":[31]},{"type":"LineString","properties":{"kind":"train","name":"Toshkent-Kungrad","sort_rank":275,"source":"openstreetmap.org","min_zoom":6.0,"name:ru":"\u0422\u0430\u0448\u043a\u0435\u043d\u0442-\u041a\u0443\u043d\u0433\u0440\u0430\u0434","ref":"Toshkent-Kungrad","osm_relation":true},"arcs":[32]},{"type":"LineString","properties":{"source":"openstreetmap.org","kind":"train","name":"\u0414\u0443\u0448\u0430\u043d\u0431\u0435 \u2014 \u041c\u043e\u0441\u043a\u0432\u0430","sort_rank":275,"ref":"329\u0417","min_zoom":6.0,"osm_relation":true},"arcs":[33]},{"type":"LineString","properties":{"kind":"train","network":"\u0423\u0422\u0419","sort_rank":275,"description":"381\/382 \u0423\u0444\u0430 \u2014 \u0422\u0430\u0448\u043a\u0435\u043d\u0442","name:de":"381 Ufa<=>Taschkent","source":"openstreetmap.org","min_zoom":6.0,"ref":"381","osm_relation":true,"name":"381 \u0423\u0444\u0430<=>\u0422\u0430\u0448\u043a\u0435\u043d\u0442"},"arcs":[34]},{"type":"LineString","properties":{"source":"openstreetmap.org","kind":"train","name":"Toshkent-Shovot","sort_rank":275,"ref":"Toshkent-Shavat","min_zoom":6.0,"osm_relation":true},"arcs":[35]},{"type":"LineString","properties":{"kind":"train","name":"5\/6 \u0422\u0430\u0448\u043a\u0435\u043d\u0442<=>\u041c\u043e\u0441\u043a\u0432\u0430","sort_rank":275,"name:de":"5\/6 Taschkent<=>Moskau","source":"openstreetmap.org","min_zoom":6.0,"network":"\u0423\u0422\u0419","ref":"5\/6","osm_relation":true,"description":"5 \u0422\u0430\u0448\u043a\u0435\u043d\u0442 -> \u041c\u043e\u0441\u043a\u0432\u0430 \/ 6 \u041c\u043e\u0441\u043a\u0432\u0430 -> \u0422\u0430\u0448\u043a\u0435\u043d\u0442"},"arcs":[36]},{"type":"LineString","properties":{"kind":"train","network":"\u049a\u0422\u0416","sort_rank":275,"name:de":"77 Almaty<=>Atyrau","source":"openstreetmap.org","min_zoom":6.0,"ref":"77","osm_relation":true,"name":"77 A\u043b\u043c\u0430\u0442\u044b<=>\u0410\u0442\u044b\u0440\u0430\u0443"},"arcs":[37]}]},"pois":{"type":"GeometryCollection","geometries":[]},"boundaries":{"type":"GeometryCollection","geometries":[{"type":"MultiLineString","properties":{"source":"naturalearthdata.com","kind":"country","sort_rank":262,"kind_detail":"2","min_zoom":0.0,"id":323},"arcs":[[0],[1],[2],[3],[4],[5],[6],[7],[8],[9]]},{"type":"LineString","properties":{"source":"naturalearthdata.com","kind":"country","sort_rank":262,"kind_detail":"2","min_zoom":0.0,"id":324},"arcs":[10]},{"type":"MultiLineString","properties":{"source":"naturalearthdata.com","kind":"region","sort_rank":256,"kind_detail":"4","min_zoom":5.0,"id":822},"arcs":[[11],[12]]},{"type":"LineString","properties":{"source":"naturalearthdata.com","kind":"region","sort_rank":256,"kind_detail":"4","min_zoom":5.0,"id":824},"arcs":[13]},{"type":"MultiLineString","properties":{"source":"naturalearthdata.com","kind":"region","sort_rank":256,"kind_detail":"4","min_zoom":5.0,"id":825},"arcs":[[14],[15],[16]]},{"type":"LineString","properties":{"source":"naturalearthdata.com","kind":"region","sort_rank":256,"kind_detail":"4","min_zoom":5.0,"id":826},"arcs":[17]},{"type":"MultiLineString","properties":{"source":"naturalearthdata.com","kind":"region","sort_rank":256,"kind_detail":"4","min_zoom":5.0,"id":827},"arcs":[[18],[19]]},{"type":"LineString","properties":{"source":"naturalearthdata.com","kind":"region","sort_rank":256,"kind_detail":"4","min_zoom":5.0,"id":836},"arcs":[20]},{"type":"MultiLineString","properties":{"source":"naturalearthdata.com","kind":"region","sort_rank":256,"kind_detail":"4","min_zoom":5.0,"id":7325},"arcs":[[21],[22],[23],[24]]}]},"roads":{"type":"GeometryCollection","geometries":[{"type":"LineString","properties":{"source":"naturalearthdata.com","kind":"major_road","sort_rank":379,"kind_detail":"secondary","min_zoom":3.0,"id":17364},"arcs":[40]},{"type":"LineString","properties":{"source":"naturalearthdata.com","kind":"major_road","sort_rank":379,"kind_detail":"secondary","min_zoom":3.0,"id":17423},"arcs":[41]},{"type":"LineString","properties":{"source":"naturalearthdata.com","kind":"major_road","sort_rank":379,"kind_detail":"secondary","min_zoom":4.0,"id":17430},"arcs":[42]},{"type":"LineString","properties":{"source":"naturalearthdata.com","kind":"major_road","sort_rank":379,"kind_detail":"secondary","min_zoom":3.0,"id":17473},"arcs":[43]},{"type":"LineString","properties":{"source":"naturalearthdata.com","kind":"major_road","sort_rank":379,"kind_detail":"secondary","min_zoom":3.0,"id":17585},"arcs":[44]},{"type":"LineString","properties":{"source":"naturalearthdata.com","kind":"minor_road","sort_rank":355,"kind_detail":"tertiary","min_zoom":6.0,"id":17698},"arcs":[45]},{"type":"LineString","properties":{"source":"naturalearthdata.com","kind":"major_road","sort_rank":379,"kind_detail":"secondary","min_zoom":3.0,"id":17719},"arcs":[46]},{"type":"LineString","properties":{"source":"naturalearthdata.com","kind":"major_road","sort_rank":379,"kind_detail":"secondary","min_zoom":3.0,"id":17867},"arcs":[47]},{"type":"LineString","properties":{"source":"naturalearthdata.com","kind":"major_road","sort_rank":379,"kind_detail":"secondary","min_zoom":3.0,"id":18184},"arcs":[48]},{"type":"LineString","properties":{"source":"naturalearthdata.com","kind":"minor_road","sort_rank":355,"kind_detail":"tertiary","min_zoom":6.0,"id":18263},"arcs":[49]},{"type":"LineString","properties":{"source":"naturalearthdata.com","kind":"minor_road","sort_rank":355,"kind_detail":"tertiary","min_zoom":6.0,"id":18701},"arcs":[50]},{"type":"LineString","properties":{"source":"naturalearthdata.com","kind":"minor_road","sort_rank":355,"kind_detail":"tertiary","min_zoom":6.0,"id":18703},"arcs":[51]},{"type":"LineString","properties":{"source":"naturalearthdata.com","kind":"minor_road","kind_detail":"tertiary","sort_rank":355,"landuse_kind":"urban_area","min_zoom":6.0,"id":18725},"arcs":[52]},{"type":"MultiLineString","properties":{"source":"naturalearthdata.com","kind":"minor_road","sort_rank":355,"kind_detail":"tertiary","min_zoom":6.0,"id":18725},"arcs":[[53],[54]]},{"type":"LineString","properties":{"source":"naturalearthdata.com","kind":"minor_road","sort_rank":355,"kind_detail":"tertiary","min_zoom":6.0,"id":18727},"arcs":[55]},{"type":"LineString","properties":{"source":"naturalearthdata.com","kind":"minor_road","sort_rank":355,"kind_detail":"tertiary","min_zoom":6.0,"id":19333},"arcs":[56]},{"type":"LineString","properties":{"source":"naturalearthdata.com","kind":"major_road","sort_rank":379,"kind_detail":"secondary","min_zoom":3.0,"id":19342},"arcs":[57]},{"type":"LineString","properties":{"source":"naturalearthdata.com","kind":"major_road","sort_rank":379,"kind_detail":"secondary","min_zoom":3.0,"id":19890},"arcs":[58]}]},"earth":{"type":"GeometryCollection","geometries":[{"type":"Polygon","properties":{"sort_rank":10,"source":"naturalearthdata.com","min_zoom":0.0,"kind":"earth","area":1568366174169},"arcs":[[59]]}]},"landuse":{"type":"GeometryCollection","geometries":[{"type":"MultiPolygon","properties":{"source":"naturalearthdata.com","kind":"urban_area","name":"","area":1577405981,"sort_rank":11,"min_zoom":4.0},"arcs":[[[60]],[[61]],[[62]],[[63]],[[64]]]}]}},"type":"Topology","transform":{"translate":[61.875,40.9798980696],"scale":[0.001373291,0.0010032074]},"arcs":[[[110,2493],[-15,6],[-14,6],[-55,63],[-26,29]],[[2867,1890],[-6,1],[-6,0],[-47,97],[-55,113],[-39,81],[-62,128],[-14,13],[-15,12],[-75,47],[-75,47],[-36,38],[-36,39],[-79,101],[-78,102],[-12,11],[-13,10],[-11,2],[-12,2]],[[2196,2734],[-13,-5],[-13,-5],[-71,-39],[-72,-40],[-70,-38],[-74,-41],[-12,-3],[-13,-4]],[[1858,2559],[-40,3],[-101,10],[-101,9],[-101,9],[-101,9],[-110,10],[-111,10],[-111,10],[-111,10]],[[971,2639],[-67,-11],[-66,-10],[-67,-11],[-66,-11],[-67,-11],[-66,-10],[-67,-11],[-66,-11],[-41,-7],[-41,-8],[-41,-8],[-42,-7],[-25,-5],[-26,-5],[-26,-4],[-25,-5],[-60,-11],[-2,0]],[[3351,1013],[-88,0],[-79,1],[-80,0],[-88,0],[-3,3],[-3,2],[-1,6],[-1,5],[3,194],[2,165],[1,30],[2,6],[2,7],[9,4],[8,3],[4,9],[3,8],[2,27],[2,26],[16,247],[15,248]],[[3077,2004],[-105,-57],[-105,-57]],[[3597,161],[-30,9],[-11,3],[-19,5],[-16,20],[-16,21],[-31,146],[-31,147],[-24,123],[-23,123],[-13,126],[-12,126],[-2,1],[-2,1],[-2,1],[-3,1],[-2,0],[-3,0]],[[3357,1014],[-3,-1],[-3,0]],[[4096,192],[-7,0],[-59,-4],[-93,-6],[-78,-4],[-106,-7],[-71,-4],[-85,-6]],[[0,146],[2,-1],[14,-17],[54,-93],[6,-16],[2,-19]],[[480,512],[62,-2],[23,-55],[18,-32],[122,-149],[99,-180],[17,-10],[64,-15],[96,-39],[52,-30]],[[222,411],[258,101]],[[222,411],[207,-297],[1,-13],[-165,-82]],[[222,411],[-222,314]],[[0,938],[76,44],[9,10],[3,5],[-14,31],[-74,138]],[[0,1352],[5,60],[40,95],[187,362],[198,375],[4,12],[0,10],[-11,6],[-197,55],[-37,33],[-77,133]],[[282,0],[-17,19]],[[0,294],[116,-132],[87,-143],[3,-3],[10,-6],[11,-4]],[[227,6],[38,13]],[[3460,0],[-9,104],[9,12],[6,16],[89,37],[1,4]],[[4096,2022],[-48,-23],[-353,-235],[-155,-140]],[[3540,1624],[-65,26]],[[3475,1650],[-110,-56],[-227,-225]],[[3138,1369],[-56,9],[-69,11]],[[2658,3858],[-102,65],[-19,46]],[[4096,2673],[-147,140],[-45,116],[-562,399],[-318,331],[-231,147],[-87,10],[-84,50],[-99,121],[-64,11],[-43,49],[-85,-11],[-87,37],[-235,9],[-25,14]],[[4096,2673],[-147,140],[-45,116],[-562,399],[-318,331],[-231,147],[-87,10],[-84,50],[-99,121],[-64,11],[-43,49],[-85,-11],[-87,37],[-235,9],[-25,14]],[[4096,2673],[-147,140],[-45,116],[-505,369],[-57,30],[-318,331],[-230,146],[-88,11],[-70,46]],[[3349,3323],[1,-1]],[[3543,3180],[-5,3]],[[4096,2673],[-147,140],[-45,116],[-562,399],[-318,331],[-230,146],[-88,11],[-70,46]],[[1830,0],[-59,136],[-94,125],[-98,50],[-83,141],[-2,227],[-149,369],[-181,-37],[-140,-122],[-76,-28],[-603,-114],[-345,-164]],[[1830,0],[-59,136],[-94,125],[-98,50],[-83,141],[-2,227],[-148,369],[-182,-37],[-140,-122],[-76,-28],[-603,-114],[-345,-164]],[[4096,2673],[-147,140],[-45,116],[-562,399],[-318,331],[-231,147],[-87,10],[-84,50],[-99,121],[-64,11],[-43,49],[-85,-11],[-87,37],[-235,9],[-25,14]],[[0,588],[345,159],[603,114],[76,28],[140,122],[181,38],[149,-370],[2,-227],[83,-141],[98,-50],[94,-125],[59,-136]],[[4096,2673],[-147,140],[-45,116],[-562,399],[-318,331],[-231,147],[-87,10],[-84,50],[-99,121],[-64,11],[-43,49],[-85,-11],[-87,37],[-235,9],[-25,14]],[[4096,2673],[-147,140],[-45,116],[-562,399],[-318,331],[-231,147],[-87,10],[-84,50],[-99,121],[-64,11],[-43,49],[-85,-11],[-87,37],[-235,9],[-25,14]],[[3171,0],[-70,13],[-14,11],[5,12],[5,2],[20,-2],[-5,0],[59,-2],[33,12],[19,-3],[34,-14],[70,-6],[10,2],[17,11],[9,3],[11,0],[27,-13],[163,-12],[48,8],[109,0],[37,-9],[30,-13],[-617,0]],[[3171,0],[-70,13],[-14,11],[5,12],[5,2],[20,-2],[-5,0],[59,-2],[33,12],[19,-3],[34,-14],[70,-6],[10,2],[17,11],[9,3],[11,0],[27,-13],[163,-12],[48,8],[109,0],[37,-9],[30,-13]],[[1707,4096],[16,-19],[39,-16],[36,-13],[45,-16],[51,-25],[21,-12],[33,-12]],[[1948,3983],[30,-17],[42,-33],[87,-57],[24,-4],[27,0],[15,4]],[[3139,4096],[-38,-23],[-84,-41],[-21,-8],[-42,-29],[-57,-37],[-24,-8],[-30,-9],[-21,0],[-30,-8],[-30,-16],[-21,-8],[-42,-5],[-15,-8],[-27,-37]],[[2173,3876],[27,12],[46,8],[57,8],[27,-20],[12,0],[21,12],[12,-4],[15,4],[36,25],[15,4],[15,-4],[54,-25],[12,-8],[39,-25],[30,-28],[18,-25],[15,-37],[15,-12],[21,0],[9,4],[3,45],[-3,20],[-12,29]],[[3213,3477],[-33,33],[-33,41],[-28,41],[-54,53],[-42,21],[-57,4],[-33,8],[-33,17],[-18,29],[-12,24],[-9,17],[-15,16],[-36,21],[-60,20],[-30,8],[-45,13],[-18,16]],[[1768,3238],[30,-4],[24,13],[21,-4],[36,12],[24,-4],[27,8],[12,0],[30,-8],[21,4],[12,8],[15,29],[18,4],[21,-12],[33,-4],[18,0],[15,8],[27,24],[33,29],[9,0],[24,0],[16,-4],[21,-16],[15,-4],[9,8],[45,45],[18,8],[9,17],[-18,12],[-6,21],[6,12],[33,25],[42,37],[45,69],[18,21],[18,33],[9,16],[21,9],[15,8],[21,41],[12,29],[9,12],[12,4],[42,0],[24,4],[6,13]],[[3543,3177],[-48,49],[-24,17],[-48,57],[-24,25],[-9,4],[-30,8],[-36,29],[-21,8],[-15,12],[-60,79],[-15,12]],[[3543,3177],[27,16],[18,4],[15,0],[36,-4],[18,-8],[45,-33],[18,-16],[30,-25],[54,-21],[21,-12],[24,-25],[36,-61],[27,-58],[15,-16]],[[3927,2918],[48,-17],[24,-16],[39,-37],[28,-29],[30,-49]],[[1747,2198],[21,58],[12,66],[6,65],[3,29],[0,45],[3,37],[-9,58],[-3,8],[-3,41],[15,54],[0,33],[-6,41],[0,49],[3,49],[0,46],[-3,53],[0,70],[-3,25],[-12,16],[-9,33],[9,70],[-3,94]],[[0,1605],[65,-28],[72,-24],[63,-29],[24,-8],[87,-41],[69,-37],[46,-17],[81,-24],[93,-37],[39,-17],[42,-12],[108,-45],[69,-21],[36,-16],[30,-13],[18,-4],[102,-12],[51,4],[33,-4],[27,4],[30,0],[42,4]],[[1227,1228],[21,-25],[3,-20]],[[1463,1288],[-1,6],[-9,30]],[[1317,1129],[10,46],[36,0],[15,8],[30,37],[51,45],[6,12],[-2,11]],[[1453,1324],[0,3],[-3,28],[-21,54],[-18,33],[-24,53],[3,13],[30,12],[30,20],[81,46],[21,12],[45,25],[15,12],[0,41],[9,41],[3,87],[0,32],[3,37],[6,17],[15,25],[12,28],[6,54],[6,16],[24,66],[33,82],[18,37]],[[1251,1183],[0,-13],[30,-41],[18,4],[18,-4]],[[0,166],[17,-15],[12,-21],[21,-41]],[[50,89],[-50,-3]],[[194,0],[-45,44],[-42,41],[-18,4],[-39,0]],[[4096,4096],[0,-4096],[-4096,0],[0,4096],[4096,0]],[[1879,595],[130,-33],[0,-66],[-57,-41],[-73,96],[0,44]],[[1224,1214],[33,-65],[-1,-11],[-48,11],[-25,41],[41,24]],[[1681,570],[-45,70],[60,33],[22,-26],[-12,-66],[-25,-11]],[[1475,1306],[32,9],[-16,-30],[-46,4],[5,37],[25,-20]],[[2648,3841],[-49,22],[11,32],[45,-8],[-7,-46]]]}