{"objects":{"water":{"type":"GeometryCollection","geometries":[{"type":"MultiPolygon","properties":{"source":"naturalearthdata.com","kind":"ocean","area":1576712559132672,"sort_rank":200,"min_zoom":0.0,"id":1},"arcs":[[[9]],[[10]]]},{"type":"MultiLineString","properties":{"source":"naturalearthdata.com","kind":"ocean","sort_rank":205,"boundary":true,"min_zoom":0.0,"id":70},"arcs":[[11],[12]]}]},"buildings":{"type":"GeometryCollection","geometries":[]},"places":{"type":"GeometryCollection","geometries":[{"type":"Point","properties":{"source":"naturalearthdata.com","kind":"locality","name":"Beaufort","population":31626,"min_zoom":7.0,"id":2015},"coordinates":[2543,1659]},{"type":"Point","properties":{"kind":"locality","name":"Savannah","kind_detail":"city","source":"openstreetmap.org","min_zoom":8.0,"name:uk":"\u0421\u0430\u0432\u0430\u043d\u043d\u0430","name:ru":"\u0421\u0430\u0432\u0430\u043d\u043d\u0430","id":154392895,"population":127889},"coordinates":[1373,445]},{"type":"Point","properties":{"source":"openstreetmap.org","kind":"locality","name":"Hilton Head Island","kind_detail":"town","population":33838,"min_zoom":8.0,"id":154203359},"coordinates":[2363,725]},{"type":"Point","properties":{"source":"openstreetmap.org","kind":"locality","name":"Beaufort","kind_detail":"town","population":12029,"min_zoom":8.0,"id":154186172},"coordinates":[2600,1657]},{"type":"Point","properties":{"source":"openstreetmap.org","kind":"locality","name":"Pooler","kind_detail":"town","population":11782,"min_zoom":8.0,"id":154150996},"coordinates":[912,566]},{"type":"Point","properties":{"source":"openstreetmap.org","kind":"locality","name":"Walterboro","kind_detail":"town","population":5545,"min_zoom":8.0,"id":154155029},"coordinates":[2608,3283]},{"type":"Point","properties":{"source":"openstreetmap.org","kind":"locality","name":"Allendale","kind_detail":"town","population":3814,"min_zoom":8.0,"id":154012410},"coordinates":[740,3648]},{"type":"Point","properties":{"source":"openstreetmap.org","kind":"locality","name":"Fairfax","kind_detail":"town","population":3170,"min_zoom":8.0,"id":154029263},"coordinates":[947,3477]},{"type":"Point","properties":{"source":"openstreetmap.org","kind":"locality","name":"Hampton","kind_detail":"town","population":2786,"min_zoom":8.0,"id":154010027},"coordinates":[1267,3199]},{"type":"Point","properties":{"source":"openstreetmap.org","kind":"locality","name":"Ridgeland","kind_detail":"town","population":2637,"min_zoom":8.0,"id":154052389},"coordinates":[1696,1826]}]},"transit":{"type":"GeometryCollection","geometries":[{"type":"LineString","properties":{"kind":"train","network":"Amtrak Intercity","service":"long_distance","sort_rank":275,"colour":"#005480","name":"Palmetto","source":"openstreetmap.org","min_zoom":5.0,"operator":"Amtrak","ref":"89-90","osm_relation":true,"colour_name":"teal"},"arcs":[5]},{"type":"LineString","properties":{"kind":"train","network":"Amtrak","service":"car","sort_rank":275,"colour":"yellow","name":"Auto Train","source":"openstreetmap.org","min_zoom":6.0,"operator":"Amtrak","ref":"52-53","osm_relation":true,"colour_name":"yellow"},"arcs":[6]},{"type":"LineString","properties":{"kind":"train","network":"Amtrak Intercity","service":"long_distance","sort_rank":275,"colour":"#005480","name":"Silver Meteor","source":"openstreetmap.org","min_zoom":5.0,"operator":"Amtrak","ref":"97-98","osm_relation":true,"colour_name":"teal"},"arcs":[7]},{"type":"LineString","properties":{"kind":"train","network":"Amtrak Intercity","service":"long_distance","sort_rank":275,"colour":"#005480","name":"Silver Star","source":"openstreetmap.org","min_zoom":5.0,"operator":"Amtrak","ref":"91-92","osm_relation":true,"colour_name":"teal"},"arcs":[8]}]},"pois":{"type":"GeometryCollection","geometries":[{"type":"Point","properties":{"kind":"aerodrome","name":"Marine Corps Air Station Beaufort","area":30238500,"source":"openstreetmap.org","min_zoom":8.95,"tier":3,"id":-4867637,"osm_relation":true},"coordinates":[2467,1809]},{"type":"Point","properties":{"kind":"military","name":"Marine Corps Recruit Depot Parris Island","area":46114500,"source":"openstreetmap.org","min_zoom":8.0,"tier":3,"id":-4867532,"osm_relation":true},"coordinates":[2533,1331]},{"type":"Point","properties":{"kind":"aerodrome","tier":3,"name":"Hunter Army Airfield","area":30486300,"iata":"SVN","source":"openstreetmap.org","min_zoom":8.95,"operator":"U.S. Army","id":-4843744,"osm_relation":true},"coordinates":[1199,198]}]},"boundaries":{"type":"GeometryCollection","geometries":[{"type":"LineString","properties":{"name:ty":"Fenua Marite","name:cy":"Unol Daleithiau America","name:ko":"\ubbf8\uad6d","name:cv":"\u0410\u043c\u0435\u0440\u0438\u043a\u0103\u0440\u0438 \u041f\u0115\u0440\u043b\u0435\u0448\u04f3\u043b\u043b\u0115 \u0428\u0442\u0430\u0442\u0441\u0435\u043c","name:cu":"\u0410\u043c\u0454\u0440\u0438\u043a\u0430\u0301\u043d\u044c\u0441\u043a\ua651 \u0464\u0434\u044c\u043d\u0465\u043d\ua651\u0301 \u0414\u0440\u044c\u0436\u0430\u0301\u0432\ua651","name:kl":"Naalagaaffeqatigiit","name:cs":"Spojen\u00e9 st\u00e1ty americk\u00e9","name:tw":"USA","name:ki":"United States","name:co":"Stati Uniti d'America","name:kv":"\u0410\u043c\u0435\u0440\u0438\u043a\u0430\u0441\u0430 \u04e6\u0442\u0443\u0432\u0442\u04e7\u043c \u0428\u0442\u0430\u0442\u044a\u044f\u0441","name:th":"\u0e2a\u0e2b\u0e23\u0e31\u0e10\u0e2d\u0e40\u0e21\u0e23\u0e34\u0e01\u0e32","name:ks":"\u0938\u0902\u092f\u0941\u0915\u094d\u0924 \u0930\u093e\u091c\u094d\u200d\u092f \u0905\u092e\u0947\u0930\u093f\u0915\u093e","name:to":"Pule\u02bbanga Fakataha 'o 'Amelika","name:tl":"Estados Unidos","name:ce":"I\u0430\u043c\u0435\u0440\u043a\u0430 \u043f\u0430\u0447\u0445\u044c\u0430\u043b\u043a","name:ta":"\u0b85\u0bae\u0bc6\u0bb0\u0bbf\u0b95\u0bcd\u0b95 \u0b90\u0b95\u0bcd\u0b95\u0bbf\u0baf \u0ba8\u0bbe\u0b9f\u0bc1","name:tg":"\u0418\u0451\u043b\u043e\u0442\u0438 \u041c\u0443\u0442\u0442\u0430\u04b3\u0438\u0434\u0430\u0438 \u0410\u043c\u0440\u0438\u043a\u043e","name:ca":"Estats Units d'Am\u00e8rica","name:te":"\u0c05\u0c2e\u0c46\u0c30\u0c3f\u0c15\u0c3e \u0c38\u0c02\u0c2f\u0c41\u0c15\u0c4d\u0c24 \u0c30\u0c3e\u0c37\u0c4d\u0c1f\u0c4d\u0c30\u0c3e\u0c32\u0c41","name:ka":"\u10d0\u10db\u10d4\u10e0\u10d8\u10d9\u10d8\u10e1 \u10e8\u10d4\u10d4\u10e0\u10d7\u10d4\u10d1\u10e3\u10da\u10d8 \u10e8\u10e2\u10d0\u10e2\u10d4\u10d1\u10d8","name:qu":"Hukllachasqa Amirika Suyukuna","name:da":"Amerikas Forenede Stater","name:de":"Vereinigte Staaten von Amerika","name:dz":"\u0f61\u0f74\u0f0b\u0f53\u0f60\u0f72\u0f4a\u0f7a\u0f4a\u0f0b\u0f66\u0f72\u0f0b\u0f4a\u0f7a\u0f66","source":"openstreetmap.org","name:kn":"\u0c85\u0cae\u0cc7\u0cb0\u0cbf\u0c95 \u0cb8\u0c82\u0caf\u0cc1\u0c95\u0ccd\u0ca4 \u0cb8\u0c82\u0cb8\u0ccd\u0ca5\u0cbe\u0ca8","name:dv":"\u0787\u07ac\u0789\u07ac\u0783\u07a8\u0786\u07a7","name:km":"\u179f\u17a0\u179a\u178a\u17d2\u178b\u17a2\u17b6\u1798\u17c1\u179a\u17b7\u1780","name:lv":"Amerikas Savienot\u0101s Valstis","name:lt":"Jungtin\u0117s Amerikos Valstijos","name:uz":"Amerika Qo\u02bbshma Shtatlari","name:kk":"\u0410\u043c\u0435\u0440\u0438\u043a\u0430 \u049a\u04b1\u0440\u0430\u043c\u0430 \u0428\u0442\u0430\u0442\u0442\u0430\u0440\u044b","name:ur":"\u0631\u06cc\u0627\u0633\u062a\u06c1\u0627\u0626\u06d2 \u0645\u062a\u062d\u062f\u06c1 \u0627\u0645\u0631\u06cc\u06a9\u06c1","name:lb":"Vereenegt Staate vun Amerika","name:la":"Civitates Foederatae Americae","name:lg":"Amereka","name:uk":"\u0421\u043f\u043e\u043b\u0443\u0447\u0435\u043d\u0456 \u0428\u0442\u0430\u0442\u0438 \u0410\u043c\u0435\u0440\u0438\u043a\u0438","name:ug":"\u0626\u0627\u0645\u06d0\u0631\u0649\u0643\u0627 \u0642\u0648\u0634\u0645\u0627 \u0634\u062a\u0627\u062a\u0644\u0649\u0631\u0649","name:li":"Vereinegde State van Amerika","name:ln":"Lisang\u00e1 lya Amer\u00edka","name:lo":"\u0eaa\u0eb0\u0eab\u0eb0\u0ea5\u0eb1\u0e94\u0ead\u0eb2\u0ec0\u0ea1\u0ea5\u0eb4\u0e81\u0eb2","name:kw":"Statys Unys Amerika","name:eo":"Usono","name":"United States of America","name:tk":"Amerikany\u0148 Birle\u015fen \u015etatlary","name:ee":"United States","name:ku":"Dewlet\u00ean Yekb\u00fby\u00ee y\u00ean Amer\u00eekay\u00ea","name:eu":"Ameriketako Estatu Batuak","name:tn":"USA","name:es":"Estados Unidos de Am\u00e9rica","name:ay":"Istadus Unidus","name:rm":"Stadis Unids da l'America","name:rn":"Leta Zunze Ubumwe za Amerika","name:az":"Amerika Birl\u0259\u015fmi\u015f \u015etatlar\u0131","name:ie":"Unit States de America","name:id":"Amerika Serikat","name:ig":"Njikota Obodo Amerika","name:el":"\u0397\u03bd\u03c9\u03bc\u03ad\u03bd\u03b5\u03c2 \u03a0\u03bf\u03bb\u03b9\u03c4\u03b5\u03af\u03b5\u03c2 \u03c4\u03b7\u03c2 \u0391\u03bc\u03b5\u03c1\u03b9\u03ba\u03ae\u03c2","name:as":"\u09ae\u09be\u09f0\u09cd\u0995\u09bf\u09a8 \u09af\u09c1\u0995\u09cd\u09a4\u09f0\u09be\u09b7\u09cd\u099f\u09cd\u09f0","name:ar":"\u0627\u0644\u0648\u0644\u0627\u064a\u0627\u062a \u0627\u0644\u0645\u062a\u0651\u062d\u062f\u0629 \u0627\u0644\u0623\u0645\u0631\u064a\u0643\u064a\u0651\u0629","name:io":"Unionita Stati di Amerika","name:av":"\u0410\u043c\u0435\u0440\u0438\u043a\u0430\u043b\u044a\u0443\u043b \u0426\u043e\u043b\u044a\u0430\u0440\u0430\u043b \u0428\u0442\u0430\u0442\u0430\u043b","name:is":"Bandar\u00edki Nor\u00f0ur-Amer\u00edku","name:am":"\u12e8\u1270\u1263\u1260\u1229\u1275 \u12e8\u12a0\u121c\u122a\u12ab \u130d\u12db\u1276\u127d","name:it":"Stati Uniti d'America","name:an":"Estatos Unitos d'America","name:ru":"\u0421\u043e\u0435\u0434\u0438\u043d\u0451\u043d\u043d\u044b\u0435 \u0428\u0442\u0430\u0442\u044b \u0410\u043c\u0435\u0440\u0438\u043a\u0438","name:ab":"\u0410\u043c\u0435\u0440\u0438\u043a\u0430 \u0415\u0438\u0434\u0443 \u0410\u0448\u0442\u0430\u0442\u049b\u04d9\u0430","name:af":"Verenigde State van Amerika","name:zu":"IMelika","kind_detail":"2","old_name:ru":"\u0421\u0435\u0432\u0435\u0440\u043e-\u0410\u043c\u0435\u0440\u0438\u043a\u0430\u043d\u0441\u043a\u0438\u0435 \u0421\u043e\u0435\u0434\u0438\u043d\u0451\u043d\u043d\u044b\u0435 \u0428\u0442\u0430\u0442\u044b","name:za":"Meijgoz","name:zh-yue":"\u5373\u7f8e\u5229\u5805\u5408\u773e\u570b","name:zh":"\u7f8e\u5229\u575a\u5408\u4f17\u56fd","name:so":"Mareykanka","name:sm":"Iunaite Sitete o Amerika","name:sl":"Zdru\u017eene dr\u017eave Amerike","name:sk":"Spojen\u00e9 \u0161t\u00e1ty americk\u00e9","name:ja":"\u30a2\u30e1\u30ea\u30ab\u5408\u8846\u56fd","name:si":"\u0d85'\u0db8\u0dd9\u0dbb\u0dd2\u0d9a\u0dcf\u200d\u0dc0\u0dda \u0d91\u0d9a\u0dca\u0dc3\u0dad\u0dca \u0dbb\u0dcf\u0da2\u0dca\u200d\u0dba\u0dba\u0db1\u0dca","name:sh":"Sjedinjene Ameri\u010dke Dr\u017eave","name:sg":"\u00c2K\u00f6d\u00f6r\u00f6-\u00f4ko t\u00ee Amer\u00eeka","name:se":"Amerihk\u00e1 ovttastuvvan st\u00e1htat","name:sd":"\u0622\u0645\u0631\u064a\u06aa\u0627","name:sc":"Istados Unidos de America","name:sa":"\u0938\u0902\u092f\u0941\u0915\u094d\u0924\u093e\u0928\u093f \u0930\u093e\u091c\u094d\u092f\u093e\u0928\u093f","name:bs":"Sjedinjene Ameri\u010dke Dr\u017eave","name:bm":"Amerika ka Kelenyalen Jamanaw","name:bn":"\u09ae\u09be\u09b0\u09cd\u0995\u09bf\u09a8 \u09af\u09c1\u0995\u09cd\u09a4\u09b0\u09be\u09b7\u09cd\u099f\u09cd\u09b0","name:bo":"\u0f68\u0f0b\u0f58\u0f7a\u0f0b\u0f62\u0f72\u0f0b\u0f41\u0f0b\u0f62\u0f92\u0fb1\u0f63\u0f0b\u0f55\u0fb2\u0f53\u0f0b\u0f58\u0f49\u0f58\u0f0b\u0f60\u0f56\u0fb2\u0f7a\u0f63\u0f0b\u0f62\u0f92\u0fb1\u0f63\u0f0b\u0f41\u0f56\u0f0d","name:br":"Stado\u00f9-Unanet Amerika","name:et":"Ameerika \u00dchendriigid","name:sw":"Muungano wa Madola ya Amerika","name:be":"\u0417\u043b\u0443\u0447\u0430\u043d\u044b\u044f \u0428\u0442\u0430\u0442\u044b \u0410\u043c\u0435\u0440\u044b\u043a\u0456","name:su":"Am\u00e9rika Sarikat","name:bg":"\u0421\u044a\u0435\u0434\u0438\u043d\u0435\u043d\u0438 \u0430\u043c\u0435\u0440\u0438\u043a\u0430\u043d\u0441\u043a\u0438 \u0449\u0430\u0442\u0438","name:ss":"IMelika","name:ba":"\u0410\u043c\u0435\u0440\u0438\u043a\u0430 \u04a0\u0443\u0448\u043c\u0430 \u0428\u0442\u0430\u0442\u0442\u0430\u0440\u044b","name:sq":"Shtetet e Bashkuara t\u00eb Amerik\u00ebs","name:jv":"Am\u00e9rika Sar\u00e9kat","name:bi":"Yunaeted Stet blong Amerika","name:ia":"Statos Unite de America","name:pt":"Estados Unidos da Am\u00e9rica","name:ps":"\u062f \u0627\u0645\u0631\u064a\u06a9\u0627 \u0645\u062a\u062d\u062f\u0647 \u0627\u064a\u0627\u0644\u0627\u062a","name:om":"USA","name:oc":"Estats Units d'America","min_zoom":8.0,"name:ro":"Statele Unite ale Americii","name:zh-min-nan":"America Ha\u030dp-chi\u00f2ng-kok","name:os":"\u0410\u043c\u0435\u0440\u0438\u043a\u00e6\u0439\u044b \u0418\u0443\u0433\u043e\u043d\u0434 \u0428\u0442\u0430\u0442\u0442\u00e6","name:or":"\u0b2f\u0b41\u0b15\u0b4d\u0b24\u0b30\u0b3e\u0b37\u0b4d\u0b1f\u0b4d\u0b30 \u0b06\u0b2e\u0b47\u0b30\u0b3f\u0b15\u0b3e","name:pl":"Stany Zjednoczone Ameryki","sort_rank":262,"name:sr":"\u0421\u0458\u0435\u0434\u0438\u045a\u0435\u043d\u0435 \u0410\u043c\u0435\u0440\u0438\u0447\u043a\u0435 \u0414\u0440\u0436\u0430\u0432\u0435","osm_relation":true,"name:xh":"IYunayithedi Steyitsi","name:pa":"\u0a38\u0a70\u0a2f\u0a41\u0a15\u0a24 \u0a30\u0a3e\u0a1c \u0a05\u0a2e\u0a30\u0a40\u0a15\u0a3e","name:tr":"Amerika Birle\u015fik Devletleri","name:hi":"\u0938\u0902\u092f\u0941\u0915\u094d\u0924 \u0930\u093e\u091c\u094d\u092f \u0905\u092e\u0947\u0930\u093f\u0915\u093e","name:sv":"Amerikas F\u00f6renta Stater","name:he":"\u05d0\u05e8\u05e6\u05d5\u05ea \u05d4\u05d1\u05e8\u05d9\u05ea","name:ha":"kunkiyar taraiyar Amurika","name:hy":"\u0531\u0574\u0565\u0580\u056b\u056f\u0561\u0575\u056b \u0544\u056b\u0561\u0581\u0575\u0561\u056c \u0546\u0561\u0570\u0561\u0576\u0563\u0576\u0565\u0580","name:ht":"Etazini","name:hu":"Amerikai Egyes\u00fclt \u00c1llamok","name:hr":"Sjedinjene Ameri\u010dke Dr\u017eave","kind":"country","name:ts":"United States","name:yi":"\u05e4\u05d0\u05e8\u05d0\u05d9\u05d9\u05e0\u05d9\u05e7\u05d8\u05e2 \u05e9\u05d8\u05d0\u05d8\u05df \u05e4\u05d5\u05df \u05d0\u05de\u05e2\u05e8\u05d9\u05e7\u05e2","name:iu":"\u140a\u14a5\u140a\u14d5\u1472","name:yo":"\u00c0w\u1ecdn \u00ccp\u00ednl\u1eb9\u0300 A\u1e63\u1ecd\u0300kan Am\u1eb9\u0301r\u00edk\u00e0","name:mt":"Stati Uniti tal-Amerika","name:ms":"Amerika Syarikat","name:mr":"\u0905\u092e\u0947\u0930\u093f\u0915\u0947\u091a\u0940 \u0938\u0902\u092f\u0941\u0915\u094d\u0924 \u0938\u0902\u0938\u094d\u0925\u093e\u0928\u0947","name:my":"\u1021\u1019\u1031\u101b\u102d\u1000\u1014\u103a\u1015\u103c\u100a\u103a\u1011\u1031\u102c\u1004\u103a\u1005\u102f","name:mg":"Etazonia","name:vi":"Hoa K\u1ef3","name:ml":"\u0d05\u0d2e\u0d47\u0d30\u0d3f\u0d15\u0d4d\u0d15\u0d28\u0d4d\u200d \u0d10\u0d15\u0d4d\u0d2f\u0d28\u0d3e\u0d1f\u0d41\u0d15\u0d33\u0d4d\u200d","name:mn":"\u0410\u043c\u0435\u0440\u0438\u043a\u0438\u0439\u043d \u041d\u044d\u0433\u0434\u0441\u044d\u043d \u0423\u043b\u0441","name:mi":"Hononga-o-Amerika","id":-148838,"name:mk":"\u0421\u043e\u0435\u0434\u0438\u043d\u0435\u0442\u0438 \u0410\u043c\u0435\u0440\u0438\u043a\u0430\u043d\u0441\u043a\u0438 \u0414\u0440\u0436\u0430\u0432\u0438","name:vo":"Lamerik\u00e4n","name:fa":"\u0627\u06cc\u0627\u0644\u0627\u062a \u0645\u062a\u062d\u062f\u0647 \u0622\u0645\u0631\u06cc\u06a9\u0627","name:rw":"Leta Zunze Ubumwe z\u2019Amerika","name:ff":"Dowlaaji Dentu\u0257i","name:fi":"Amerikan yhdysvallat","name:ky":"\u0410\u043c\u0435\u0440\u0438\u043a\u0430 \u041a\u043e\u0448\u043c\u043e \u0428\u0442\u0430\u0442\u0442\u0430\u0440\u044b","old_name:vi":"M\u1ef9 L\u1ee3i Ki\u00ean;Ma Ly C\u0103n;Nh\u00e3 Di L\u00fd","name:fo":"Sambandsr\u00edki\u00f0 Amerika","alt_name:vi":"Hoa K\u00ec;M\u1ef9;M\u0129","name:fr":"\u00c9tats-Unis d'Am\u00e9rique","name:fy":"Feriene Steaten fan Amearika","name:nl":"Verenigde Staten van Amerika","name:nn":"USA","name:no":"Amerikas forente stater","name:na":"Eben Merika","name:ne":"\u0938\u0902\u092f\u0941\u0915\u094d\u0924 \u0930\u093e\u091c\u094d\u092f \u0905\u092e\u0947\u0930\u093f\u0915\u093e","name:wa":"Estats Unis d' Amerike","name:wo":"Diwaan-yu-Bennoo yu Aamerig","name:nv":"W\u00e1\u00e1shindoon Bik\u00e9yah A\u0142hidadiidzoo\u00edg\u00ed\u00ed","name:ga":"St\u00e1it Aontaithe Mheirice\u00e1","name:gd":"Na St\u00e0itean Aonaichte","name:gn":"Tet\u00e3 pete\u0129 reko Am\u00e9rikagua","name:gl":"Estados Unidos de Am\u00e9rica","maritime_boundary":true,"name:gv":"Steatyn Unnaneysit America","name:gu":"\u0ab8\u0a82\u0aaf\u0ac1\u0a95\u0acd\u0aa4 \u0ab0\u0abe\u0a9c\u0acd\u0aaf \u0a85\u0aae\u0ac7\u0ab0\u0abf\u0a95\u0abe","name:tt":"\u0410\u043c\u0435\u0440\u0438\u043a\u0430 \u041a\u0443\u0448\u043c\u0430 \u0428\u0442\u0430\u0442\u043b\u0430\u0440\u044b"},"arcs":[0]},{"type":"LineString","properties":{"name:left:la":"Carolina Meridionalis","name:right:qu":"Georgia suyu","name:right:yi":"\u05d3\u05d6\u05e9\u05d0\u05e8\u05d6\u05e9\u05d9\u05e2","name:right:hy":"\u054b\u0578\u0580\u057b\u056b\u0561","name:right:uk":"\u0414\u0436\u043e\u0440\u0434\u0436\u0456\u044f","name:left:he":"\u05e7\u05e8\u05d5\u05dc\u05d9\u05d9\u05e0\u05d4 \u05d4\u05d3\u05e8\u05d5\u05de\u05d9\u05ea","name:right:ht":"Dj\u00f2dji","name:left:sr":"\u0408\u0443\u0436\u043d\u0430 \u041a\u0430\u0440\u043e\u043b\u0438\u043d\u0430","name:right:lt":"D\u017eord\u017eija","name:right:hi":"\u091c\u093e\u0930\u094d\u091c\u093f\u092f\u093e","name:right:lv":"D\u017eord\u017eija","name:left:lt":"Piet\u0173 Karolina","name:left:hy":"\u0540\u0561\u0580\u0561\u057e\u0561\u0575\u056b\u0576 \u053f\u0561\u0580\u0578\u056c\u056b\u0576\u0561","name:left:lv":"Dienvidkarol\u012bna","name:left:an":"Carolina d'o Sur","name:left:ht":"Karolin disid","name:right:uz":"Jorjiya","name:right:gl":"Xeorxia","name:right:he":"\u05d2'\u05d5\u05e8\u05d2'\u05d9\u05d4","name:left:hr":"Ju\u017ena Karolina","name:left:ga":"Carolina Theas","sort_rank":256,"name:right:an":"Cheorchia","name:right:gd":"Se\u00f2irsia","name:left:ca":"Carolina del Sud","name:left:gl":"Carolina do Sur","source":"openstreetmap.org","name:left:cy":"De Carolina","name:right:ar":"\u062c\u0648\u0631\u062c\u064a\u0627","name:left:gv":"Carolina Yiass","name:left:cv":"\u041a\u0103\u043d\u0442\u0103\u0440 \u041a\u0430\u0440\u043e\u043b\u0438\u043d\u0430","name:right:az":"Corciya","name:left:cs":"Ji\u017en\u00ed Karol\u00edna","name:left":"South Carolina","name:right:mk":"\u040f\u043e\u0440\u045f\u0438\u0458\u0430","name:right:sr":"\u040f\u043e\u0440\u045f\u0438\u0458\u0430","name:left:ka":"\u10e1\u10d0\u10db\u10ee\u10e0\u10d4\u10d7\u10d8 \u10d9\u10d0\u10e0\u10dd\u10da\u10d8\u10dc\u10d0","name:right:mn":"\u0416\u043e\u0440\u0436\u0438\u0430","name:right:ml":"\u0d1c\u0d4b\u0d30\u0d4d\u200d\u0d1c\u0d3f\u0d2f","name:left:ko":"\uc0ac\uc6b0\uc2a4\uce90\ub864\ub77c\uc774\ub098","name:right:is":"Georg\u00eda","name:right:ru":"\u0414\u0436\u043e\u0440\u0434\u0436\u0438\u044f","name:left:kw":"Karolina Dheghow","name:left:ru":"\u042e\u0436\u043d\u0430\u044f \u041a\u0430\u0440\u043e\u043b\u0438\u043d\u0430","name:left:uz":"Janubiy Karolina","name:right:mr":"\u091c\u0949\u0930\u094d\u091c\u093f\u092f\u093e","name:left:oc":"Carolina del Sud","name:right:eo":"Georgio","name:left:vi":"Nam Carolina","kind":"region","name:right:bn":"\u099c\u09b0\u09cd\u099c\u09bf\u09af\u09bc\u09be","name":"South Carolina - Georgia","name:left:sl":"Ju\u017ena Karolina","name:left:fa":"\u06a9\u0627\u0631\u0648\u0644\u06cc\u0646\u0627\u06cc \u062c\u0646\u0648\u0628\u06cc","name:right:fa":"\u062c\u0648\u0631\u062c\u06cc\u0627","min_zoom":8.0,"osm_relation":true,"name:left:fi":"Etel\u00e4-Carolina","name:right:te":"\u0c1c\u0c3e\u0c30\u0c4d\u0c1c\u0c3f\u0c2f\u0c3e","name:left:fr":"Caroline du Sud","name:right:br":"Jorjia","name:right:zh":"\u55ac\u6cbb\u4e9e\u5dde","name:left:et":"L\u00f5una-Carolina","name:left:fy":"S\u00fad Karolina","name:left:bs":"Ju\u017ena Carolina","name:right:ja":"\u30b8\u30e7\u30fc\u30b8\u30a2\u5dde","name:right:fr":"G\u00e9orgie","name:left:sk":"Ju\u017en\u00e1 Karol\u00edna","name:left:nv":"Sh\u00e1di\u02bc\u00e1\u00e1hj\u00ed K\u00e9\u00e9l\u00e1anah Hahoodzo","name:left:ja":"\u30b5\u30a6\u30b9\u30ab\u30ed\u30e9\u30a4\u30ca\u5dde","id:right":-161957,"name:left:uk":"\u041f\u0456\u0432\u0434\u0435\u043d\u043d\u0430 \u041a\u0430\u0440\u043e\u043b\u0456\u043d\u0430","name:left:no":"S\u00f8r-Carolina","name:left:bg":"\u042e\u0436\u043d\u0430 \u041a\u0430\u0440\u043e\u043b\u0438\u043d\u0430","name:left:hu":"D\u00e9l-Karolina","name:right:nv":"J\u00f3ojah Hahoodzo","name:right:pt":"Ge\u00f3rgia","name:left:bn":"\u09b8\u09be\u0989\u09a5 \u0995\u09cd\u09af\u09be\u09b0\u09cb\u09b2\u09be\u0987\u09a8\u09be","id":-224040,"name:right":"Georgia","name:left:eo":"Suda Karolino","name:right:kn":"\u0c9c\u0cbe\u0cb0\u0ccd\u0c9c\u0cbf\u0caf","name:left:el":"\u039d\u03cc\u03c4\u03b9\u03b1 \u039a\u03b1\u03c1\u03bf\u03bb\u03af\u03bd\u03b1","name:right:ca":"Ge\u00f2rgia","kind_detail":"4","name:left:zh":"\u5357\u5361\u7f57\u6765\u7eb3\u5dde","name:left:mk":"\u0408\u0443\u0436\u043d\u0430 \u041a\u0430\u0440\u043e\u043b\u0438\u043d\u0430","name:left:yi":"\u05d3\u05e8\u05d5\u05dd \u05e7\u05d0\u05e8\u05d0\u05dc\u05d9\u05d9\u05e0\u05e2","id:left":-224040,"name:left:es":"Carolina del Sur","name:right:cs":"Georgie","name:left:os":"\u0425\u0443\u0441\u0441\u0430\u0440 \u041a\u0430\u0440\u043e\u043b\u0438\u043d\u00e6","name:left:eu":"Hego Carolina","name:right:cv":"\u0414\u0436\u043e\u0440\u0434\u0436\u0438","name:right:ka":"\u10ef\u10dd\u10e0\u10ef\u10d8\u10d0","name:right:gv":"Yn \u00c7horshey","name:left:mg":"Kar\u00f4lina Antsimo","name:left:ar":"\u0643\u0627\u0631\u0648\u0644\u0627\u064a\u0646\u0627 \u0627\u0644\u062c\u0646\u0648\u0628\u064a\u0629","name:left:pl":"Karolina Po\u0142udniowa","name:left:tr":"\u0e23\u0e31\u0e10\u0e40\u0e0b\u0e32\u0e17\u0e4c\u0e41\u0e04\u0e42\u0e23\u0e44\u0e25\u0e19\u0e32","name:left:id":"Carolina Selatan","name:left:tt":"\u041a\u04e9\u043d\u044c\u044f\u043a \u041a\u0430\u0440\u043e\u043b\u0438\u043d\u0430","name:left:az":"C\u0259nubi Karolina","name:right:ko":"\uc870\uc9c0\uc544","name:left:ml":"\u0d24\u0d46\u0d15\u0d4d\u0d15\u0d28\u0d4d\u200d \u0d15\u0d30\u0d4a\u0d32\u0d48\u0d28","name:left:ms":"Carolina Selatan","name:left:af":"Suid-Carolina","name:right:th":"\u0e23\u0e31\u0e10\u0e08\u0e2d\u0e23\u0e4c\u0e40\u0e08\u0e35\u0e22","name:left:ta":"\u0ba4\u0bc6\u0ba9\u0bcd \u0b95\u0bb0\u0bca\u0bb2\u0bc8\u0ba9\u0bbe","name:right:bg":"\u0414\u0436\u043e\u0440\u0434\u0436\u0438\u044f","name:left:it":"Carolina del Sud","name:left:is":"Su\u00f0ur-Kar\u00f3l\u00edna","name:right:ta":"\u0b9c\u0bcb\u0bb0\u0bcd\u0b9c\u0bbf\u0baf\u0bbe","name:right:os":"\u0414\u0436\u043e\u0440\u0434\u0436\u0438","name:left:pt":"Carolina do Sul","name:left:mr":"\u0938\u093e\u0909\u0925 \u0915\u0945\u0930\u094b\u0932\u093f\u0928\u093e","name:left:de":"S\u00fcd-Carolina","name:right:el":"\u03a4\u03b6\u03cc\u03c1\u03c4\u03b6\u03b9\u03b1"},"arcs":[1]},{"type":"LineString","properties":{"name:left:bs":"Ju\u017ena Carolina","name:left:la":"Carolina Meridionalis","name:right:qu":"Georgia suyu","name:right:yi":"\u05d3\u05d6\u05e9\u05d0\u05e8\u05d6\u05e9\u05d9\u05e2","name:right:hy":"\u054b\u0578\u0580\u057b\u056b\u0561","name:right:uk":"\u0414\u0436\u043e\u0440\u0434\u0436\u0456\u044f","name:left:he":"\u05e7\u05e8\u05d5\u05dc\u05d9\u05d9\u05e0\u05d4 \u05d4\u05d3\u05e8\u05d5\u05de\u05d9\u05ea","name:right:ht":"Dj\u00f2dji","name:left:sr":"\u0408\u0443\u0436\u043d\u0430 \u041a\u0430\u0440\u043e\u043b\u0438\u043d\u0430","name:right:lt":"D\u017eord\u017eija","name:right:hi":"\u091c\u093e\u0930\u094d\u091c\u093f\u092f\u093e","name:right:lv":"D\u017eord\u017eija","name:left:lt":"Piet\u0173 Karolina","name:left:hy":"\u0540\u0561\u0580\u0561\u057e\u0561\u0575\u056b\u0576 \u053f\u0561\u0580\u0578\u056c\u056b\u0576\u0561","name:left:lv":"Dienvidkarol\u012bna","name:left:ta":"\u0ba4\u0bc6\u0ba9\u0bcd \u0b95\u0bb0\u0bca\u0bb2\u0bc8\u0ba9\u0bbe","name:left:ht":"Karolin disid","name:right:uz":"Jorjiya","name:left:hu":"D\u00e9l-Karolina","name:right:he":"\u05d2'\u05d5\u05e8\u05d2'\u05d9\u05d4","name:left:hr":"Ju\u017ena Karolina","name:left:ga":"Carolina Theas","name:left:it":"Carolina del Sud","sort_rank":256,"name:right:an":"Cheorchia","name:left:ca":"Carolina del Sud","name:left:gl":"Carolina do Sur","source":"openstreetmap.org","name:left:cy":"De Carolina","name:right:ar":"\u062c\u0648\u0631\u062c\u064a\u0627","name:left:gv":"Carolina Yiass","name:left:cv":"\u041a\u0103\u043d\u0442\u0103\u0440 \u041a\u0430\u0440\u043e\u043b\u0438\u043d\u0430","name:left:oc":"Carolina del Sud","name:right:az":"Corciya","name:left:cs":"Ji\u017en\u00ed Karol\u00edna","name:left":"South Carolina","name:right:mk":"\u040f\u043e\u0440\u045f\u0438\u0458\u0430","name:left:an":"Carolina d'o Sur","name:left:ja":"\u30b5\u30a6\u30b9\u30ab\u30ed\u30e9\u30a4\u30ca\u5dde","name:left:ka":"\u10e1\u10d0\u10db\u10ee\u10e0\u10d4\u10d7\u10d8 \u10d9\u10d0\u10e0\u10dd\u10da\u10d8\u10dc\u10d0","name:right:mn":"\u0416\u043e\u0440\u0436\u0438\u0430","name:right:ml":"\u0d1c\u0d4b\u0d30\u0d4d\u200d\u0d1c\u0d3f\u0d2f","name:left:ko":"\uc0ac\uc6b0\uc2a4\uce90\ub864\ub77c\uc774\ub098","name:right:is":"Georg\u00eda","name:right:ru":"\u0414\u0436\u043e\u0440\u0434\u0436\u0438\u044f","name:left:kw":"Karolina Dheghow","name:left:ru":"\u042e\u0436\u043d\u0430\u044f \u041a\u0430\u0440\u043e\u043b\u0438\u043d\u0430","name:right:mr":"\u091c\u0949\u0930\u094d\u091c\u093f\u092f\u093e","name:right:te":"\u0c1c\u0c3e\u0c30\u0c4d\u0c1c\u0c3f\u0c2f\u0c3e","name:right:eo":"Georgio","name:left:vi":"Nam Carolina","kind":"region","name:right:bn":"\u099c\u09b0\u09cd\u099c\u09bf\u09af\u09bc\u09be","name":"South Carolina - Georgia","name:left:sl":"Ju\u017ena Karolina","name:left:fa":"\u06a9\u0627\u0631\u0648\u0644\u06cc\u0646\u0627\u06cc \u062c\u0646\u0648\u0628\u06cc","min_zoom":8.0,"name:left:fi":"Etel\u00e4-Carolina","name:left:zh":"\u5357\u5361\u7f57\u6765\u7eb3\u5dde","name:left:fr":"Caroline du Sud","name:right:br":"Jorjia","name:left:af":"Suid-Carolina","name:right:zh":"\u55ac\u6cbb\u4e9e\u5dde","name:right:cv":"\u0414\u0436\u043e\u0440\u0434\u0436\u0438","name:left:fy":"S\u00fad Karolina","name:left:uz":"Janubiy Karolina","name:right:ja":"\u30b8\u30e7\u30fc\u30b8\u30a2\u5dde","name:right:fr":"G\u00e9orgie","name:left:sk":"Ju\u017en\u00e1 Karol\u00edna","name:left:nv":"Sh\u00e1di\u02bc\u00e1\u00e1hj\u00ed K\u00e9\u00e9l\u00e1anah Hahoodzo","name:right:sr":"\u040f\u043e\u0440\u045f\u0438\u0458\u0430","id:right":-161957,"name:left:uk":"\u041f\u0456\u0432\u0434\u0435\u043d\u043d\u0430 \u041a\u0430\u0440\u043e\u043b\u0456\u043d\u0430","name:left:no":"S\u00f8r-Carolina","name:left:bg":"\u042e\u0436\u043d\u0430 \u041a\u0430\u0440\u043e\u043b\u0438\u043d\u0430","name:right:fa":"\u062c\u0648\u0631\u062c\u06cc\u0627","name:right:nv":"J\u00f3ojah Hahoodzo","name:left:mg":"Kar\u00f4lina Antsimo","name:left:bn":"\u09b8\u09be\u0989\u09a5 \u0995\u09cd\u09af\u09be\u09b0\u09cb\u09b2\u09be\u0987\u09a8\u09be","id":-224040,"name:right":"Georgia","name:left:eo":"Suda Karolino","name:left:el":"\u039d\u03cc\u03c4\u03b9\u03b1 \u039a\u03b1\u03c1\u03bf\u03bb\u03af\u03bd\u03b1","name:right:ca":"Ge\u00f2rgia","kind_detail":"4","name:right:el":"\u03a4\u03b6\u03cc\u03c1\u03c4\u03b6\u03b9\u03b1","name:left:pl":"Karolina Po\u0142udniowa","name:left:yi":"\u05d3\u05e8\u05d5\u05dd \u05e7\u05d0\u05e8\u05d0\u05dc\u05d9\u05d9\u05e0\u05e2","id:left":-224040,"name:left:es":"Carolina del Sur","name:right:cs":"Georgie","name:left:os":"\u0425\u0443\u0441\u0441\u0430\u0440 \u041a\u0430\u0440\u043e\u043b\u0438\u043d\u00e6","name:left:eu":"Hego Carolina","name:left:et":"L\u00f5una-Carolina","name:right:ka":"\u10ef\u10dd\u10e0\u10ef\u10d8\u10d0","name:right:os":"\u0414\u0436\u043e\u0440\u0434\u0436\u0438","name:right:gv":"Yn \u00c7horshey","name:right:pt":"Ge\u00f3rgia","name:left:ar":"\u0643\u0627\u0631\u0648\u0644\u0627\u064a\u0646\u0627 \u0627\u0644\u062c\u0646\u0648\u0628\u064a\u0629","name:left:mk":"\u0408\u0443\u0436\u043d\u0430 \u041a\u0430\u0440\u043e\u043b\u0438\u043d\u0430","name:left:tr":"\u0e23\u0e31\u0e10\u0e40\u0e0b\u0e32\u0e17\u0e4c\u0e41\u0e04\u0e42\u0e23\u0e44\u0e25\u0e19\u0e32","name:left:id":"Carolina Selatan","name:left:tt":"\u041a\u04e9\u043d\u044c\u044f\u043a \u041a\u0430\u0440\u043e\u043b\u0438\u043d\u0430","name:left:az":"C\u0259nubi Karolina","name:right:ko":"\uc870\uc9c0\uc544","name:left:ml":"\u0d24\u0d46\u0d15\u0d4d\u0d15\u0d28\u0d4d\u200d \u0d15\u0d30\u0d4a\u0d32\u0d48\u0d28","name:left:ms":"Carolina Selatan","name:left:mr":"\u0938\u093e\u0909\u0925 \u0915\u0945\u0930\u094b\u0932\u093f\u0928\u093e","name:right:th":"\u0e23\u0e31\u0e10\u0e08\u0e2d\u0e23\u0e4c\u0e40\u0e08\u0e35\u0e22","name:right:gl":"Xeorxia","name:right:bg":"\u0414\u0436\u043e\u0440\u0434\u0436\u0438\u044f","name:right:kn":"\u0c9c\u0cbe\u0cb0\u0ccd\u0c9c\u0cbf\u0caf","name:left:is":"Su\u00f0ur-Kar\u00f3l\u00edna","name:right:ta":"\u0b9c\u0bcb\u0bb0\u0bcd\u0b9c\u0bbf\u0baf\u0bbe","osm_relation":true,"name:left:pt":"Carolina do Sul","name:right:gd":"Se\u00f2irsia","name:left:de":"S\u00fcd-Carolina","maritime_boundary":true},"arcs":[2]},{"type":"LineString","properties":{"name:pt":"Carolina do Sul","name:cy":"De Carolina","name:ko":"\uc0ac\uc6b0\uc2a4\uce90\ub864\ub77c\uc774\ub098","name:cv":"\u041a\u0103\u043d\u0442\u0103\u0440 \u041a\u0430\u0440\u043e\u043b\u0438\u043d\u0430","name:cs":"Ji\u017en\u00ed Karol\u00edna","name:tt":"\u041a\u04e9\u043d\u044c\u044f\u043a \u041a\u0430\u0440\u043e\u043b\u0438\u043d\u0430","name:kw":"Karolina Dheghow","min_zoom":8.0,"name:os":"\u0425\u0443\u0441\u0441\u0430\u0440 \u041a\u0430\u0440\u043e\u043b\u0438\u043d\u00e6","name:pl":"Karolina Po\u0142udniowa","name:ta":"\u0ba4\u0bc6\u0ba9\u0bcd \u0b95\u0bb0\u0bca\u0bb2\u0bc8\u0ba9\u0bbe","name:ca":"Carolina del Sud","name:ka":"\u10e1\u10d0\u10db\u10ee\u10e0\u10d4\u10d7\u10d8 \u10d9\u10d0\u10e0\u10dd\u10da\u10d8\u10dc\u10d0","sort_rank":256,"name:de":"S\u00fcd-Carolina","source":"openstreetmap.org","osm_relation":true,"name:lv":"Dienvidkarol\u012bna","name:tr":"\u0e23\u0e31\u0e10\u0e40\u0e0b\u0e32\u0e17\u0e4c\u0e41\u0e04\u0e42\u0e23\u0e44\u0e25\u0e19\u0e32","name:uz":"Janubiy Karolina","name:he":"\u05e7\u05e8\u05d5\u05dc\u05d9\u05d9\u05e0\u05d4 \u05d4\u05d3\u05e8\u05d5\u05de\u05d9\u05ea","name:eo":"Suda Karolino","name:la":"Carolina Meridionalis","name:uk":"\u041f\u0456\u0432\u0434\u0435\u043d\u043d\u0430 \u041a\u0430\u0440\u043e\u043b\u0456\u043d\u0430","name:hy":"\u0540\u0561\u0580\u0561\u057e\u0561\u0575\u056b\u0576 \u053f\u0561\u0580\u0578\u056c\u056b\u0576\u0561","name:ht":"Karolin disid","name:hu":"D\u00e9l-Karolina","name:hr":"Ju\u017ena Karolina","name:oc":"Carolina del Sud","name:el":"\u039d\u03cc\u03c4\u03b9\u03b1 \u039a\u03b1\u03c1\u03bf\u03bb\u03af\u03bd\u03b1","kind":"region","name":"South Carolina","name:mg":"Kar\u00f4lina Antsimo","name:yi":"\u05d3\u05e8\u05d5\u05dd \u05e7\u05d0\u05e8\u05d0\u05dc\u05d9\u05d9\u05e0\u05e2","name:et":"L\u00f5una-Carolina","name:es":"Carolina del Sur","name:ml":"\u0d24\u0d46\u0d15\u0d4d\u0d15\u0d28\u0d4d\u200d \u0d15\u0d30\u0d4a\u0d32\u0d48\u0d28","name:az":"C\u0259nubi Karolina","name:id":"Carolina Selatan","name:ms":"Carolina Selatan","name:mr":"\u0938\u093e\u0909\u0925 \u0915\u0945\u0930\u094b\u0932\u093f\u0928\u093e","name:ar":"\u0643\u0627\u0631\u0648\u0644\u0627\u064a\u0646\u0627 \u0627\u0644\u062c\u0646\u0648\u0628\u064a\u0629","name:is":"Su\u00f0ur-Kar\u00f3l\u00edna","name:it":"Carolina del Sud","name:an":"Carolina d'o Sur","name:vi":"Nam Carolina","id":-224040,"name:mk":"\u0408\u0443\u0436\u043d\u0430 \u041a\u0430\u0440\u043e\u043b\u0438\u043d\u0430","name:af":"Suid-Carolina","name:fa":"\u06a9\u0627\u0631\u0648\u0644\u06cc\u0646\u0627\u06cc \u062c\u0646\u0648\u0628\u06cc","name:lt":"Piet\u0173 Karolina","kind_detail":"4","name:fr":"Caroline du Sud","name:fy":"S\u00fad Karolina","name:zh":"\u5357\u5361\u7f57\u6765\u7eb3\u5dde","name:sl":"Ju\u017ena Karolina","name:sk":"Ju\u017en\u00e1 Karol\u00edna","name:ja":"\u30b5\u30a6\u30b9\u30ab\u30ed\u30e9\u30a4\u30ca\u5dde","name:no":"S\u00f8r-Carolina","name:bs":"Ju\u017ena Carolina","name:eu":"Hego Carolina","name:bn":"\u09b8\u09be\u0989\u09a5 \u0995\u09cd\u09af\u09be\u09b0\u09cb\u09b2\u09be\u0987\u09a8\u09be","name:ru":"\u042e\u0436\u043d\u0430\u044f \u041a\u0430\u0440\u043e\u043b\u0438\u043d\u0430","name:bg":"\u042e\u0436\u043d\u0430 \u041a\u0430\u0440\u043e\u043b\u0438\u043d\u0430","name:sr":"\u0408\u0443\u0436\u043d\u0430 \u041a\u0430\u0440\u043e\u043b\u0438\u043d\u0430","name:nv":"Sh\u00e1di\u02bc\u00e1\u00e1hj\u00ed K\u00e9\u00e9l\u00e1anah Hahoodzo","name:ga":"Carolina Theas","name:gl":"Carolina do Sur","maritime_boundary":true,"name:gv":"Carolina Yiass","name:fi":"Etel\u00e4-Carolina"},"arcs":[3]},{"type":"LineString","properties":{"name:pt":"Ge\u00f3rgia","name:az":"Corciya","name:ka":"\u10ef\u10dd\u10e0\u10ef\u10d8\u10d0","name:mr":"\u091c\u0949\u0930\u094d\u091c\u093f\u092f\u093e","name:ko":"\uc870\uc9c0\uc544","name:cv":"\u0414\u0436\u043e\u0440\u0434\u0436\u0438","name:ar":"\u062c\u0648\u0631\u062c\u064a\u0627","name:cs":"Georgie","min_zoom":8.0,"name:an":"Cheorchia","name:os":"\u0414\u0436\u043e\u0440\u0434\u0436\u0438","name:ml":"\u0d1c\u0d4b\u0d30\u0d4d\u200d\u0d1c\u0d3f\u0d2f","name:ta":"\u0b9c\u0bcb\u0bb0\u0bcd\u0b9c\u0bbf\u0baf\u0bbe","id":-161957,"name:mk":"\u040f\u043e\u0440\u045f\u0438\u0458\u0430","name:te":"\u0c1c\u0c3e\u0c30\u0c4d\u0c1c\u0c3f\u0c2f\u0c3e","name:fa":"\u062c\u0648\u0631\u062c\u06cc\u0627","name:mn":"\u0416\u043e\u0440\u0436\u0438\u0430","sort_rank":256,"kind_detail":"4","name:uz":"Jorjiya","source":"openstreetmap.org","name:fr":"G\u00e9orgie","name:ca":"Ge\u00f2rgia","name:kn":"\u0c9c\u0cbe\u0cb0\u0ccd\u0c9c\u0cbf\u0caf","name:zh":"\u55ac\u6cbb\u4e9e\u5dde","osm_relation":true,"name:lv":"D\u017eord\u017eija","name:ja":"\u30b8\u30e7\u30fc\u30b8\u30a2\u5dde","name:lt":"D\u017eord\u017eija","name:hi":"\u091c\u093e\u0930\u094d\u091c\u093f\u092f\u093e","name:he":"\u05d2'\u05d5\u05e8\u05d2'\u05d9\u05d4","name:eo":"Georgio","name:br":"Jorjia","name:bn":"\u099c\u09b0\u09cd\u099c\u09bf\u09af\u09bc\u09be","name:uk":"\u0414\u0436\u043e\u0440\u0434\u0436\u0456\u044f","name:hy":"\u054b\u0578\u0580\u057b\u056b\u0561","name:ru":"\u0414\u0436\u043e\u0440\u0434\u0436\u0438\u044f","name:ht":"Dj\u00f2dji","name:bg":"\u0414\u0436\u043e\u0440\u0434\u0436\u0438\u044f","name:qu":"Georgia suyu","name:sr":"\u040f\u043e\u0440\u045f\u0438\u0458\u0430","name:nv":"J\u00f3ojah Hahoodzo","name:th":"\u0e23\u0e31\u0e10\u0e08\u0e2d\u0e23\u0e4c\u0e40\u0e08\u0e35\u0e22","name:el":"\u03a4\u03b6\u03cc\u03c1\u03c4\u03b6\u03b9\u03b1","kind":"region","name":"Georgia","name:gd":"Se\u00f2irsia","name:is":"Georg\u00eda","name:gl":"Xeorxia","maritime_boundary":true,"name:gv":"Yn \u00c7horshey","name:yi":"\u05d3\u05d6\u05e9\u05d0\u05e8\u05d6\u05e9\u05d9\u05e2"},"arcs":[4]}]},"roads":{"type":"GeometryCollection","geometries":[{"type":"MultiLineString","properties":{"kind":"major_road","network":"US:US","sort_rank":380,"kind_detail":"primary","source":"openstreetmap.org","min_zoom":8.0,"landuse_kind":"urban_area","shield_text":"80","ref":"US 80;GA 26"},"arcs":[[13],[14],[15],[16],[17],[18],[19],[20],[21]]},{"type":"MultiLineString","properties":{"kind":"major_road","sort_rank":379,"kind_detail":"secondary","is_bicycle_related":true,"bicycle_shield_text":"ECG","bicycle_network":"ncn","source":"openstreetmap.org","min_zoom":8.0,"ref":"S-27-424"},"arcs":[[22],[23],[24]]},{"type":"MultiLineString","properties":{"kind":"major_road","network":"US:SC","sort_rank":379,"kind_detail":"secondary","is_bicycle_related":true,"bicycle_shield_text":"ECG","bicycle_network":"ncn","source":"openstreetmap.org","min_zoom":8.0,"shield_text":"64","ref":"SC 64"},"arcs":[[25],[26],[27]]},{"type":"MultiLineString","properties":{"kind":"major_road","network":"US:US","sort_rank":381,"kind_detail":"trunk","source":"openstreetmap.org","min_zoom":8.0,"shield_text":"21","ref":"US 21"},"arcs":[[28],[29],[30],[31],[32]]},{"type":"LineString","properties":{"kind":"major_road","network":"US:US","sort_rank":380,"kind_detail":"primary","is_bicycle_related":true,"bicycle_shield_text":"35","bicycle_network":"rcn","source":"openstreetmap.org","min_zoom":8.0,"shield_text":"80","ref":"US 80;GA 26;GA 30"},"arcs":[33]},{"type":"MultiLineString","properties":{"kind":"major_road","sort_rank":377,"landuse_kind":"urban_area","is_bicycle_related":true,"bicycle_shield_text":"ECG","bicycle_network":"ncn","source":"openstreetmap.org","min_zoom":8.0,"kind_detail":"tertiary"},"arcs":[[34],[35],[36],[37]]},{"type":"LineString","properties":{"kind":"major_road","network":"US:US:Business","sort_rank":380,"kind_detail":"primary","is_bicycle_related":true,"cycleway":"lane","source":"openstreetmap.org","min_zoom":8.0,"shield_text":"21","ref":"US 21 Business","id":45095689},"arcs":[38]},{"type":"MultiLineString","properties":{"kind":"major_road","network":"US:US","sort_rank":381,"landuse_kind":"urban_area","source":"openstreetmap.org","min_zoom":8.0,"kind_detail":"trunk","shield_text":"21","ref":"US 21"},"arcs":[[39],[40],[41],[42]]},{"type":"MultiLineString","properties":{"kind":"major_road","network":"US:US","sort_rank":380,"kind_detail":"primary","source":"openstreetmap.org","min_zoom":8.0,"shield_text":"601","ref":"US 601"},"arcs":[[43],[44],[45]]},{"type":"LineString","properties":{"kind":"major_road","network":"US:GA","sort_rank":380,"kind_detail":"primary","source":"openstreetmap.org","min_zoom":8.0,"landuse_kind":"urban_area","shield_text":"25","ref":"GA 25"},"arcs":[46]},{"type":"LineString","properties":{"kind":"major_road","network":"US:US:Alternate","sort_rank":380,"kind_detail":"primary","is_bicycle_related":true,"bicycle_shield_text":"ECG","bicycle_network":"ncn","source":"openstreetmap.org","min_zoom":8.0,"shield_text":"17","ref":"US 17 Alt; US 21","id":41157702},"arcs":[47]},{"type":"LineString","properties":{"kind":"major_road","network":"US:US","sort_rank":380,"kind_detail":"primary","source":"openstreetmap.org","min_zoom":8.0,"shield_text":"278","ref":"US 278;SC 363","id":51475389},"arcs":[48]},{"type":"LineString","properties":{"kind":"major_road","network":"US:US","sort_rank":380,"kind_detail":"primary","is_bicycle_related":true,"bicycle_shield_text":"ECG","bicycle_network":"ncn","source":"openstreetmap.org","min_zoom":8.0,"shield_text":"80","ref":"US 80;GA 17;GA 26"},"arcs":[49]},{"type":"MultiLineString","properties":{"kind":"major_road","network":"US:US","sort_rank":380,"kind_detail":"primary","source":"openstreetmap.org","min_zoom":8.0,"shield_text":"301","ref":"US 301"},"arcs":[[50],[51],[52],[53],[54]]},{"type":"MultiLineString","properties":{"kind":"major_road","network":"US:auto_trail","sort_rank":381,"kind_detail":"trunk","source":"openstreetmap.org","min_zoom":8.0,"shield_text":null,"ref":"GA 21;GA 30"},"arcs":[[55],[56]]},{"type":"MultiLineString","properties":{"kind":"highway","network":"US:GA:Chatham","sort_rank":383,"landuse_kind":"residential","source":"openstreetmap.org","min_zoom":8.0,"all_networks":["US:GA:Chatham"],"kind_detail":"motorway","shield_text":null,"all_shield_texts":[null]},"arcs":[[57],[58],[59],[60]]},{"type":"LineString","properties":{"kind":"major_road","network":"US:SC","sort_rank":380,"kind_detail":"primary","source":"openstreetmap.org","min_zoom":8.0,"shield_text":"61","ref":"US 17 Alt; SC 61","id":12386587},"arcs":[61]},{"type":"LineString","properties":{"kind":"major_road","network":"US:US:Alternate","sort_rank":380,"kind_detail":"primary","is_bicycle_related":true,"bicycle_shield_text":"ECG","bicycle_network":"ncn","source":"openstreetmap.org","min_zoom":8.0,"shield_text":"17","ref":"US 17 Alt"},"arcs":[62]},{"type":"MultiLineString","properties":{"kind":"major_road","network":"US:GA","sort_rank":381,"kind_detail":"trunk","source":"openstreetmap.org","min_zoom":8.0,"shield_text":"21","ref":"GA 21;GA 30"},"arcs":[[63],[64]]},{"type":"LineString","properties":{"kind":"major_road","network":"US:US","sort_rank":380,"kind_detail":"primary","is_bicycle_related":true,"bicycle_shield_text":"35","bicycle_network":"rcn","source":"openstreetmap.org","min_zoom":8.0,"shield_text":"80","ref":"US 80;GA 26"},"arcs":[65]},{"type":"MultiLineString","properties":{"kind":"highway","network":"US:US","sort_rank":383,"landuse_kind":"urban_area","source":"openstreetmap.org","min_zoom":8.0,"all_networks":["US:US","US:GA:Spur"],"kind_detail":"motorway","shield_text":"17","ref":"US 17;GA 404 Spur","all_shield_texts":["17","404"]},"arcs":[[66],[67],[68]]},{"type":"MultiLineString","properties":{"sort_rank":380,"kind_detail":"primary","min_zoom":8.0,"kind":"major_road","source":"openstreetmap.org"},"arcs":[[69],[70],[71],[72]]},{"type":"MultiLineString","properties":{"kind":"highway","network":"US:I","sort_rank":383,"kind_detail":"motorway","source":"openstreetmap.org","min_zoom":8.0,"all_networks":["US:I","US:US","US:US","US:GA","US:GA","US:GA"],"landuse_kind":"urban_area","shield_text":"516","ref":"I 516;US 17;US 80;GA 21;GA 25;GA 26","all_shield_texts":["516","17","80","21","25","26"]},"arcs":[[73],[74]]},{"type":"LineString","properties":{"source":"openstreetmap.org","kind":"ferry","name":"Enjoy Daufuskie Island Ferry","sort_rank":355,"min_zoom":8.0,"id":487117290},"arcs":[75]},{"type":"LineString","properties":{"kind":"major_road","network":"US:SC","sort_rank":379,"kind_detail":"secondary","is_bicycle_related":true,"bicycle_shield_text":"ECG","bicycle_network":"ncn","source":"openstreetmap.org","min_zoom":8.0,"shield_text":"336","ref":"SC 336"},"arcs":[76]},{"type":"LineString","properties":{"kind":"major_road","network":"US:SC","sort_rank":380,"kind_detail":"primary","source":"openstreetmap.org","min_zoom":8.0,"landuse_kind":"urban_area","shield_text":"165","ref":"SC 165"},"arcs":[77]},{"type":"MultiLineString","properties":{"kind":"major_road","network":"US:US","sort_rank":381,"kind_detail":"trunk","source":"openstreetmap.org","min_zoom":8.0,"shield_text":"80","ref":"US 80;GA 26"},"arcs":[[78],[79],[80],[81],[82]]},{"type":"LineString","properties":{"kind":"major_road","network":"US:auto_trail","sort_rank":379,"kind_detail":"secondary","is_bicycle_related":true,"bicycle_shield_text":"ECG","bicycle_network":"ncn","source":"openstreetmap.org","min_zoom":8.0,"shield_text":null,"ref":"GA 17","id":112313191},"arcs":[83]},{"type":"MultiLineString","properties":{"kind":"major_road","network":"US:US","sort_rank":380,"kind_detail":"primary","source":"openstreetmap.org","min_zoom":8.0,"shield_text":"80","ref":"US 80;GA 26"},"arcs":[[84],[85],[86],[87],[88],[89],[90],[91],[92]]},{"type":"LineString","properties":{"kind":"highway","network":"US:US","sort_rank":383,"landuse_kind":"urban_area","source":"openstreetmap.org","min_zoom":8.0,"all_networks":["US:US"],"kind_detail":"motorway","shield_text":"17","ref":"US 17","all_shield_texts":["17"]},"arcs":[93]},{"type":"LineString","properties":{"kind":"major_road","network":"US:US","sort_rank":381,"kind_detail":"trunk","is_bicycle_related":true,"bicycle_shield_text":"95","bicycle_network":"rcn","source":"openstreetmap.org","min_zoom":8.0,"shield_text":"17","ref":"US 17;GA 25"},"arcs":[94]},{"type":"MultiLineString","properties":{"kind":"major_road","network":"US:SC","sort_rank":379,"kind_detail":"secondary","is_bicycle_related":true,"bicycle_shield_text":"ECG","bicycle_network":"ncn","source":"openstreetmap.org","min_zoom":8.0,"shield_text":"462","ref":"SC 462"},"arcs":[[95],[96]]},{"type":"MultiLineString","properties":{"kind":"major_road","network":"US:US","sort_rank":380,"kind_detail":"primary","is_bicycle_related":true,"bicycle_shield_text":"ECG","bicycle_network":"ncn","source":"openstreetmap.org","min_zoom":8.0,"shield_text":"80","ref":"US 80;GA 26"},"arcs":[[97],[98],[99]]},{"type":"MultiLineString","properties":{"kind":"major_road","network":"US:US:Alternate","sort_rank":380,"kind_detail":"primary","is_bicycle_related":true,"bicycle_shield_text":"CR","bicycle_network":"rcn","source":"openstreetmap.org","min_zoom":8.0,"shield_text":"17","ref":"US 17 Alt"},"arcs":[[100],[101]]},{"type":"MultiLineString","properties":{"kind":"major_road","network":"US:auto_trail","sort_rank":381,"kind_detail":"trunk","is_bicycle_related":true,"bicycle_shield_text":"85","bicycle_network":"rcn","source":"openstreetmap.org","min_zoom":8.0,"shield_text":null,"ref":"GA 21"},"arcs":[[102],[103],[104]]},{"type":"MultiLineString","properties":{"kind":"highway","network":"US:I","sort_rank":383,"landuse_kind":"urban_area","source":"openstreetmap.org","min_zoom":8.0,"all_networks":["US:I","US:NHS High Priority Corridors"],"kind_detail":"motorway","shield_text":"16","ref":"I 16","all_shield_texts":["16","6"]},"arcs":[[105],[106],[107],[108],[109],[110]]},{"type":"MultiLineString","properties":{"kind":"minor_road","sort_rank":360,"kind_detail":"residential","is_bicycle_related":true,"bicycle_shield_text":"ECG","bicycle_network":"ncn","source":"openstreetmap.org","min_zoom":8.0},"arcs":[[111],[112],[113]]},{"type":"LineString","properties":{"kind":"major_road","network":"US:GA","sort_rank":381,"kind_detail":"trunk","is_bicycle_related":true,"bicycle_shield_text":"85","bicycle_network":"rcn","source":"openstreetmap.org","min_zoom":8.0,"shield_text":"21","id":161591116},"arcs":[114]},{"type":"MultiLineString","properties":{"kind":"major_road","network":"US:US","sort_rank":380,"kind_detail":"primary","is_bicycle_related":true,"bicycle_shield_text":"95","bicycle_network":"rcn","source":"openstreetmap.org","min_zoom":8.0,"shield_text":"17","ref":"US 17;GA 25"},"arcs":[[115],[116],[117]]},{"type":"MultiLineString","properties":{"kind":"highway","network":"US:US","sort_rank":383,"kind_detail":"motorway","source":"openstreetmap.org","min_zoom":8.0,"all_networks":["US:US"],"shield_text":"278","ref":"US 278","all_shield_texts":["278"]},"arcs":[[118],[119],[120],[121],[122],[123]]},{"type":"MultiLineString","properties":{"kind":"major_road","network":"US:US","sort_rank":380,"kind_detail":"primary","source":"openstreetmap.org","min_zoom":8.0,"landuse_kind":"urban_area","shield_text":"80","ref":"US 80;26"},"arcs":[[124],[125]]},{"type":"MultiLineString","properties":{"kind":"major_road","network":"US:SC","sort_rank":381,"kind_detail":"trunk","source":"openstreetmap.org","min_zoom":8.0,"shield_text":"642","ref":"SC 642"},"arcs":[[126],[127],[128]]},{"type":"LineString","properties":{"kind":"major_road","network":"US:US","sort_rank":380,"kind_detail":"primary","source":"openstreetmap.org","min_zoom":8.0,"shield_text":"21","ref":"US 17 Alt; US 21","id":41157709},"arcs":[129]},{"type":"LineString","properties":{"kind":"major_road","network":"US:US","sort_rank":380,"kind_detail":"primary","source":"openstreetmap.org","min_zoom":8.0,"shield_text":"278","ref":"US 278;SC 462","id":191952953},"arcs":[130]},{"type":"MultiLineString","properties":{"kind":"major_road","network":"US:GA","sort_rank":381,"kind_detail":"trunk","source":"openstreetmap.org","min_zoom":8.0,"shield_text":"21","ref":"GA 21"},"arcs":[[131],[132],[133],[134],[135],[136],[137],[138],[139]]},{"type":"LineString","properties":{"kind":"major_road","network":"US:US:Alternate","sort_rank":380,"kind_detail":"primary","source":"openstreetmap.org","min_zoom":8.0,"landuse_kind":"urban_area","shield_text":"17","ref":"US 17 Alt","id":127909357},"arcs":[140]},{"type":"LineString","properties":{"kind":"major_road","network":"US:US","sort_rank":380,"kind_detail":"primary","is_bicycle_related":true,"bicycle_shield_text":"ECG","bicycle_network":"ncn","source":"openstreetmap.org","min_zoom":8.0,"shield_text":"21","ref":"US 17 Alternate;US 21","id":12135770},"arcs":[141]},{"type":"MultiLineString","properties":{"kind":"major_road","network":"US:GA","sort_rank":381,"landuse_kind":"urban_area","source":"openstreetmap.org","min_zoom":8.0,"kind_detail":"trunk","shield_text":"21","ref":"GA 21;GA 30"},"arcs":[[142],[143]]},{"type":"MultiLineString","properties":{"kind":"major_road","network":"US:GA","sort_rank":381,"kind_detail":"trunk","source":"openstreetmap.org","min_zoom":8.0,"shield_text":"204","ref":"GA 204"},"arcs":[[144],[145],[146]]},{"type":"LineString","properties":{"kind":"major_road","network":"US:US:Alternate","sort_rank":355,"kind_detail":"trunk_link","is_bicycle_related":true,"bicycle_shield_text":"ECG","bicycle_network":"ncn","source":"openstreetmap.org","min_zoom":8.0,"is_link":true,"shield_text":"17","ref":"US 17 Alternate","id":51248435},"arcs":[147]},{"type":"LineString","properties":{"kind":"major_road","network":"US:auto_trail","sort_rank":379,"kind_detail":"secondary","is_bicycle_related":true,"bicycle_shield_text":"ECG","bicycle_network":"ncn","source":"openstreetmap.org","min_zoom":8.0,"shield_text":null,"ref":"GA 17;GA 30"},"arcs":[148]},{"type":"MultiLineString","properties":{"kind":"major_road","network":"US:US","sort_rank":380,"kind_detail":"primary","is_bicycle_related":true,"bicycle_shield_text":"CC","bicycle_network":"rcn","source":"openstreetmap.org","min_zoom":8.0,"shield_text":"601","ref":"US 601"},"arcs":[[149],[150]]},{"type":"LineString","properties":{"kind":"major_road","network":"US:US:Business","sort_rank":380,"kind_detail":"primary","is_bicycle_related":true,"cycleway":"track","source":"openstreetmap.org","min_zoom":8.0,"shield_text":"21","ref":"US 21 Business"},"arcs":[151]},{"type":"MultiLineString","properties":{"kind":"highway","network":"US:I","sort_rank":383,"landuse_kind":"urban_area","source":"openstreetmap.org","min_zoom":8.0,"all_networks":["US:I"],"kind_detail":"motorway","shield_text":"95","ref":"I 95","all_shield_texts":["95"]},"arcs":[[152],[153],[154],[155]]},{"type":"MultiLineString","properties":{"kind":"highway","network":"US:GA:Chatham","sort_rank":383,"landuse_kind":"urban_area","source":"openstreetmap.org","min_zoom":8.0,"all_networks":["US:GA:Chatham"],"kind_detail":"motorway","shield_text":null,"all_shield_texts":[null]},"arcs":[[156],[157],[158],[159],[160],[161],[162],[163],[164],[165]]},{"type":"MultiLineString","properties":{"kind":"major_road","network":"US:US","sort_rank":380,"kind_detail":"primary","is_bicycle_related":true,"bicycle_shield_text":"ECG","bicycle_network":"ncn","source":"openstreetmap.org","min_zoom":8.0,"shield_text":"17","ref":"US 17"},"arcs":[[166],[167],[168]]},{"type":"MultiLineString","properties":{"kind":"major_road","network":"US:US","sort_rank":380,"kind_detail":"primary","is_bicycle_related":true,"bicycle_shield_text":"ECG","bicycle_network":"ncn","source":"openstreetmap.org","min_zoom":8.0,"landuse_kind":"urban_area","shield_text":"80","ref":"US 80;GA 26"},"arcs":[[169],[170],[171],[172]]},{"type":"MultiLineString","properties":{"kind":"highway","network":"US:I","sort_rank":383,"landuse_kind":"urban_area","source":"openstreetmap.org","min_zoom":8.0,"all_networks":["US:I","US:US","US:NHS High Priority Corridors"],"kind_detail":"motorway","shield_text":"16","ref":"I 16;US 17","all_shield_texts":["16","17","6"]},"arcs":[[173],[174]]},{"type":"MultiLineString","properties":{"kind":"major_road","network":"US:auto_trail","sort_rank":380,"kind_detail":"primary","source":"openstreetmap.org","min_zoom":8.0,"landuse_kind":"urban_area","shield_text":null,"ref":"GA 25 Connector"},"arcs":[[175],[176],[177]]},{"type":"LineString","properties":{"kind":"major_road","network":"US:US","sort_rank":380,"kind_detail":"primary","source":"openstreetmap.org","min_zoom":8.0,"shield_text":"280","ref":"US 280;GA 30"},"arcs":[178]},{"type":"LineString","properties":{"kind":"major_road","network":"US:US:Business","sort_rank":380,"kind_detail":"primary","source":"openstreetmap.org","min_zoom":8.0,"landuse_kind":"urban_area","shield_text":"21","ref":"US 21"},"arcs":[179]},{"type":"LineString","properties":{"kind":"major_road","network":"US:US","sort_rank":380,"kind_detail":"primary","is_bicycle_related":true,"bicycle_shield_text":"CC","bicycle_network":"rcn","source":"openstreetmap.org","min_zoom":8.0,"shield_text":"278","ref":"US 278"},"arcs":[180]},{"type":"LineString","properties":{"kind":"major_road","network":"US:US","sort_rank":380,"kind_detail":"primary","source":"openstreetmap.org","min_zoom":8.0,"shield_text":"278","ref":"US 278;US 301","id":173012300},"arcs":[181]},{"type":"LineString","properties":{"kind":"major_road","network":"US:US","sort_rank":380,"kind_detail":"primary","is_bicycle_related":true,"bicycle_shield_text":"ECG","bicycle_network":"ncn","source":"openstreetmap.org","min_zoom":8.0,"shield_text":"17","ref":"US 17;GA 25"},"arcs":[182]},{"type":"MultiLineString","properties":{"kind":"major_road","network":"US:US","sort_rank":381,"kind_detail":"trunk","source":"openstreetmap.org","min_zoom":8.0,"shield_text":"301","ref":"US 301;US 321"},"arcs":[[183],[184],[185]]},{"type":"MultiLineString","properties":{"kind":"major_road","network":"US:US","sort_rank":380,"kind_detail":"primary","source":"openstreetmap.org","min_zoom":8.0,"shield_text":"321","ref":"US 321"},"arcs":[[186],[187],[188],[189],[190],[191]]},{"type":"MultiLineString","properties":{"kind":"major_road","network":"US:US","sort_rank":380,"kind_detail":"primary","source":"openstreetmap.org","min_zoom":8.0,"shield_text":"280","ref":"US 280; GA 30"},"arcs":[[192],[193]]},{"type":"LineString","properties":{"kind":"major_road","network":"US:US:Business","sort_rank":380,"kind_detail":"primary","source":"openstreetmap.org","min_zoom":8.0,"shield_text":"21","ref":"US 21 Business"},"arcs":[194]},{"type":"MultiLineString","properties":{"kind":"major_road","network":"US:auto_trail","sort_rank":381,"kind_detail":"trunk","source":"openstreetmap.org","min_zoom":8.0,"shield_text":null,"ref":"GA 21"},"arcs":[[195],[196],[197],[198],[199],[200]]},{"type":"LineString","properties":{"kind":"major_road","network":"US:US","sort_rank":381,"landuse_kind":"urban_area","source":"openstreetmap.org","min_zoom":8.0,"kind_detail":"trunk","shield_text":"17","ref":"US 17"},"arcs":[201]},{"type":"LineString","properties":{"kind":"major_road","network":"US:US","sort_rank":381,"kind_detail":"trunk","is_bicycle_related":true,"bicycle_shield_text":"ECG","bicycle_network":"ncn","source":"openstreetmap.org","min_zoom":8.0,"landuse_kind":"urban_area","shield_text":"17","ref":"US 17;GA 25","id":9041516},"arcs":[202]},{"type":"MultiLineString","properties":{"kind":"major_road","network":"US:US","sort_rank":380,"kind_detail":"primary","source":"openstreetmap.org","min_zoom":8.0,"shield_text":"21","ref":"US 21"},"arcs":[[203],[204],[205],[206],[207]]},{"type":"LineString","properties":{"kind":"major_road","network":"US:US","sort_rank":380,"kind_detail":"primary","is_bicycle_related":true,"bicycle_shield_text":"CC","bicycle_network":"rcn","source":"openstreetmap.org","min_zoom":8.0,"shield_text":"278","ref":"US 278;SC 363"},"arcs":[208]},{"type":"LineString","properties":{"kind":"major_road","network":"US:US","sort_rank":380,"kind_detail":"primary","source":"openstreetmap.org","min_zoom":8.0,"landuse_kind":"urban_area","shield_text":"17","ref":"US 17;25"},"arcs":[209]},{"type":"LineString","properties":{"kind":"minor_road","sort_rank":360,"kind_detail":"unclassified","is_bicycle_related":true,"bicycle_shield_text":"ECG","bicycle_network":"ncn","source":"openstreetmap.org","min_zoom":8.0},"arcs":[210]},{"type":"MultiLineString","properties":{"kind":"major_road","network":"US:US","sort_rank":381,"kind_detail":"trunk","source":"openstreetmap.org","min_zoom":8.0,"shield_text":"301","ref":"US 301"},"arcs":[[211],[212],[213],[214],[215],[216]]},{"type":"LineString","properties":{"kind":"major_road","network":"US:US","sort_rank":380,"kind_detail":"primary","is_bicycle_related":true,"bicycle_shield_text":"95","bicycle_network":"rcn","source":"openstreetmap.org","min_zoom":8.0,"landuse_kind":"urban_area","shield_text":"17","ref":"US 17;GA 25"},"arcs":[217]},{"type":"LineString","properties":{"kind":"major_road","network":"US:auto_trail","sort_rank":379,"landuse_kind":"urban_area","is_bicycle_related":true,"bicycle_shield_text":"ECG","bicycle_network":"ncn","source":"openstreetmap.org","min_zoom":8.0,"kind_detail":"secondary","shield_text":null},"arcs":[218]},{"type":"MultiLineString","properties":{"kind":"major_road","network":"US:US","sort_rank":381,"kind_detail":"trunk","source":"openstreetmap.org","min_zoom":8.0,"shield_text":"278","ref":"US 278"},"arcs":[[219],[220],[221],[222],[223],[224],[225],[226]]},{"type":"MultiLineString","properties":{"kind":"major_road","network":"US:US","sort_rank":381,"kind_detail":"trunk","source":"openstreetmap.org","min_zoom":8.0,"shield_text":"17","ref":"US 17;US 21"},"arcs":[[227],[228]]},{"type":"MultiLineString","properties":{"kind":"major_road","sort_rank":379,"kind_detail":"secondary","is_bicycle_related":true,"bicycle_shield_text":"ECG","bicycle_network":"ncn","source":"openstreetmap.org","min_zoom":8.0},"arcs":[[229],[230],[231]]},{"type":"MultiLineString","properties":{"kind":"major_road","network":"US:US","sort_rank":380,"kind_detail":"primary","source":"openstreetmap.org","min_zoom":8.0,"shield_text":"78","ref":"US 78"},"arcs":[[232],[233]]},{"type":"MultiLineString","properties":{"kind":"major_road","network":"US:auto_trail","sort_rank":377,"landuse_kind":"urban_area","is_bicycle_related":true,"bicycle_shield_text":"ECG","bicycle_network":"ncn","source":"openstreetmap.org","min_zoom":8.0,"kind_detail":"tertiary","shield_text":null},"arcs":[[234],[235],[236]]},{"type":"LineString","properties":{"kind":"major_road","network":"US:US","sort_rank":381,"kind_detail":"trunk","source":"openstreetmap.org","min_zoom":8.0,"landuse_kind":"aerodrome","shield_text":"21","ref":"US 21","id":158603745},"arcs":[237]},{"type":"MultiLineString","properties":{"kind":"highway","network":"US:I","sort_rank":383,"kind_detail":"motorway","source":"openstreetmap.org","min_zoom":8.0,"all_networks":["US:I","US:US"],"shield_text":"95","ref":"I 95;US 17","all_shield_texts":["95","17"]},"arcs":[[238],[239]]},{"type":"LineString","properties":{"kind":"major_road","sort_rank":380,"kind_detail":"primary","is_bicycle_related":true,"bicycle_shield_text":"ECG","bicycle_network":"ncn","source":"openstreetmap.org","min_zoom":8.0,"landuse_kind":"urban_area"},"arcs":[240]},{"type":"MultiLineString","properties":{"kind":"major_road","sort_rank":377,"kind_detail":"tertiary","is_bicycle_related":true,"bicycle_shield_text":"ECG","bicycle_network":"ncn","source":"openstreetmap.org","min_zoom":8.0},"arcs":[[241],[242],[243],[244],[245],[246],[247],[248],[249],[250]]},{"type":"LineString","properties":{"kind":"major_road","network":"US:US","sort_rank":380,"kind_detail":"primary","is_bicycle_related":true,"bicycle_shield_text":"CC","bicycle_network":"rcn","source":"openstreetmap.org","min_zoom":8.0,"shield_text":"321","ref":"US 321","id":172467994},"arcs":[251]},{"type":"LineString","properties":{"kind":"major_road","sort_rank":379,"kind_detail":"secondary","is_bicycle_related":true,"bicycle_shield_text":"ECG","bicycle_network":"ncn","source":"openstreetmap.org","min_zoom":8.0,"ref":"SC 119"},"arcs":[252]},{"type":"MultiLineString","properties":{"kind":"highway","network":"US:I","sort_rank":383,"kind_detail":"motorway","source":"openstreetmap.org","min_zoom":8.0,"all_networks":["US:I"],"landuse_kind":"urban_area","shield_text":"26","ref":"I 26","all_shield_texts":["26"]},"arcs":[[253],[254]]},{"type":"MultiLineString","properties":{"kind":"highway","network":"US:I","sort_rank":383,"kind_detail":"motorway","source":"openstreetmap.org","min_zoom":8.0,"all_networks":["US:I"],"shield_text":"26","ref":"I 26","all_shield_texts":["26"]},"arcs":[[255],[256]]},{"type":"MultiLineString","properties":{"sort_rank":381,"source":"openstreetmap.org","min_zoom":8.0,"kind":"major_road","kind_detail":"trunk"},"arcs":[[257],[258],[259],[260],[261],[262],[263],[264],[265],[266],[267],[268],[269]]},{"type":"LineString","properties":{"kind":"major_road","network":"US:US","sort_rank":380,"kind_detail":"primary","source":"openstreetmap.org","min_zoom":8.0,"shield_text":"321","ref":"US 321;SC 3","id":176415076},"arcs":[270]},{"type":"MultiLineString","properties":{"kind":"major_road","network":"US:US:Alternate","sort_rank":380,"kind_detail":"primary","source":"openstreetmap.org","min_zoom":8.0,"landuse_kind":"urban_area","shield_text":"17","ref":"US 17 Alternate"},"arcs":[[271],[272],[273]]},{"type":"LineString","properties":{"kind":"major_road","network":"US:US","sort_rank":380,"kind_detail":"primary","source":"openstreetmap.org","min_zoom":8.0,"landuse_kind":"park","shield_text":"21","ref":"US 21","id":12134462},"arcs":[274]},{"type":"LineString","properties":{"kind":"major_road","network":"US:US","sort_rank":380,"kind_detail":"primary","source":"openstreetmap.org","min_zoom":8.0,"landuse_kind":"urban_area","shield_text":"17","ref":"US 17;GA 25"},"arcs":[275]},{"type":"MultiLineString","properties":{"kind":"major_road","network":"US:GA","sort_rank":381,"kind_detail":"trunk","source":"openstreetmap.org","min_zoom":8.0,"landuse_kind":"residential","shield_text":"204","ref":"GA 204"},"arcs":[[276],[277],[278],[279],[280],[281],[282],[283],[284],[285],[286],[287]]},{"type":"MultiLineString","properties":{"kind":"highway","network":"US:GA:Chatham","sort_rank":383,"kind_detail":"motorway","source":"openstreetmap.org","min_zoom":8.0,"all_networks":["US:GA:Chatham"],"shield_text":null,"all_shield_texts":[null]},"arcs":[[288],[289],[290],[291]]},{"type":"MultiLineString","properties":{"kind":"major_road","network":"US:SC","sort_rank":380,"kind_detail":"primary","source":"openstreetmap.org","min_zoom":8.0,"landuse_kind":"urban_area","shield_text":"170","ref":"SC 170"},"arcs":[[292],[293]]},{"type":"MultiLineString","properties":{"source":"openstreetmap.org","kind":"highway","landuse_kind":"urban_area","sort_rank":383,"kind_detail":"motorway","min_zoom":8.0},"arcs":[[294],[295]]},{"type":"LineString","properties":{"kind":"major_road","network":"US:SC","sort_rank":380,"kind_detail":"primary","is_bicycle_related":true,"bicycle_shield_text":"CR","bicycle_network":"rcn","source":"openstreetmap.org","min_zoom":8.0,"shield_text":"63","ref":"SC 63","id":12329317},"arcs":[296]},{"type":"LineString","properties":{"kind":"path","sort_rank":354,"kind_detail":"track","is_bicycle_related":true,"bicycle_shield_text":"ECG","bicycle_network":"ncn","source":"openstreetmap.org","min_zoom":8.0,"id":197609230},"arcs":[297]},{"type":"LineString","properties":{"kind":"major_road","network":"US:US","sort_rank":380,"kind_detail":"primary","source":"openstreetmap.org","min_zoom":8.0,"shield_text":"80","ref":"US 80;GA 26;GA 119","id":112548443},"arcs":[298]},{"type":"MultiLineString","properties":{"kind":"major_road","network":"US:auto_trail","sort_rank":380,"kind_detail":"primary","source":"openstreetmap.org","min_zoom":8.0,"landuse_kind":"urban_area","shield_text":null},"arcs":[[299],[300]]},{"type":"LineString","properties":{"kind":"major_road","network":"US:US:Alternate","sort_rank":380,"kind_detail":"primary","is_bicycle_related":true,"bicycle_shield_text":"CR","bicycle_network":"rcn","source":"openstreetmap.org","min_zoom":8.0,"shield_text":"17","ref":"US 17 Alt; SC 64 Business","id":189606027},"arcs":[301]},{"type":"LineString","properties":{"kind":"major_road","network":"US:auto_trail","sort_rank":379,"kind_detail":"secondary","is_bicycle_related":true,"bicycle_shield_text":"ECG","bicycle_network":"ncn","source":"openstreetmap.org","min_zoom":8.0,"shield_text":null,"ref":"119"},"arcs":[302]},{"type":"MultiLineString","properties":{"kind":"major_road","network":"US:US:Business","sort_rank":381,"kind_detail":"trunk","source":"openstreetmap.org","min_zoom":8.0,"shield_text":"278","ref":"US 278 Business"},"arcs":[[303],[304],[305],[306],[307]]},{"type":"LineString","properties":{"kind":"major_road","network":"US:GA","sort_rank":379,"kind_detail":"secondary","is_bicycle_related":true,"bicycle_shield_text":"ECG","bicycle_network":"ncn","source":"openstreetmap.org","min_zoom":8.0,"shield_text":"119","ref":"GA 119"},"arcs":[308]},{"type":"MultiLineString","properties":{"source":"openstreetmap.org","kind":"major_road","kind_detail":"trunk","sort_rank":381,"landuse_kind":"urban_area","min_zoom":8.0},"arcs":[[309],[310],[311],[312],[313],[314],[315],[316]]},{"type":"MultiLineString","properties":{"kind":"major_road","network":"US:US","sort_rank":380,"kind_detail":"primary","is_bicycle_related":true,"bicycle_shield_text":"ECG","bicycle_network":"ncn","source":"openstreetmap.org","min_zoom":8.0,"shield_text":"21","ref":"US 17 Alt; US 21"},"arcs":[[317],[318],[319],[320]]},{"type":"MultiLineString","properties":{"kind":"major_road","network":"US:auto_trail","sort_rank":381,"landuse_kind":"urban_area","source":"openstreetmap.org","min_zoom":8.0,"kind_detail":"trunk","shield_text":null,"ref":"GA 21"},"arcs":[[321],[322],[323]]},{"type":"MultiLineString","properties":{"kind":"major_road","sort_rank":379,"kind_detail":"secondary","is_bicycle_related":true,"bicycle_shield_text":"ECG","bicycle_network":"ncn","source":"openstreetmap.org","min_zoom":8.0,"ref":"S-27-425"},"arcs":[[324],[325],[326]]},{"type":"LineString","properties":{"kind":"major_road","network":"US:US","sort_rank":380,"kind_detail":"primary","source":"openstreetmap.org","min_zoom":8.0,"shield_text":"301","ref":"US 301;73"},"arcs":[327]},{"type":"MultiLineString","properties":{"kind":"highway","network":"US:I","sort_rank":383,"landuse_kind":"urban_area","source":"openstreetmap.org","min_zoom":8.0,"all_networks":["US:I","US:GA"],"kind_detail":"motorway","shield_text":"516","ref":"I 516;GA 21","all_shield_texts":["516","21"]},"arcs":[[328],[329],[330],[331]]},{"type":"LineString","properties":{"kind":"major_road","network":"US:US","sort_rank":380,"kind_detail":"primary","is_bicycle_related":true,"cycleway":"lane","source":"openstreetmap.org","min_zoom":8.0,"shield_text":"21","ref":"US 21"},"arcs":[332]},{"type":"MultiLineString","properties":{"kind":"major_road","network":"US:US","sort_rank":381,"kind_detail":"trunk","source":"openstreetmap.org","min_zoom":8.0,"shield_text":"17","ref":"US 17"},"arcs":[[333],[334],[335],[336],[337],[338],[339],[340],[341],[342],[343],[344],[345],[346],[347],[348],[349],[350],[351],[352],[353],[354],[355]]},{"type":"LineString","properties":{"kind":"major_road","network":"US:US","sort_rank":380,"kind_detail":"primary","source":"openstreetmap.org","min_zoom":8.0,"shield_text":"15","ref":"US 15"},"arcs":[356]},{"type":"LineString","properties":{"kind":"major_road","network":"US:US","sort_rank":380,"kind_detail":"primary","source":"openstreetmap.org","min_zoom":8.0,"landuse_kind":"urban_area","shield_text":"17","ref":"US 17;US 80;GA 25;GA 26"},"arcs":[357]},{"type":"MultiLineString","properties":{"kind":"major_road","network":"US:US","sort_rank":380,"kind_detail":"primary","source":"openstreetmap.org","min_zoom":8.0,"shield_text":"17","ref":"US 17"},"arcs":[[358],[359],[360]]},{"type":"MultiLineString","properties":{"kind":"major_road","network":"US:auto_trail","sort_rank":377,"kind_detail":"tertiary","is_bicycle_related":true,"bicycle_shield_text":"ECG","bicycle_network":"ncn","source":"openstreetmap.org","min_zoom":8.0,"shield_text":null},"arcs":[[361],[362]]},{"type":"MultiLineString","properties":{"kind":"major_road","network":"US:GA","sort_rank":381,"landuse_kind":"urban_area","source":"openstreetmap.org","min_zoom":8.0,"kind_detail":"trunk","shield_text":"204","ref":"GA 204"},"arcs":[[363],[364],[365],[366],[367],[368],[369],[370],[371],[372],[373],[374],[375]]},{"type":"LineString","properties":{"kind":"major_road","network":"US:US","sort_rank":380,"kind_detail":"primary","source":"openstreetmap.org","min_zoom":8.0,"landuse_kind":"urban_area","shield_text":"80","id":455435162},"arcs":[376]},{"type":"MultiLineString","properties":{"kind":"major_road","network":"US:US:Alternate","sort_rank":380,"kind_detail":"primary","source":"openstreetmap.org","min_zoom":8.0,"shield_text":"17","ref":"US 17 Alt"},"arcs":[[377],[378],[379],[380]]},{"type":"LineString","properties":{"kind":"major_road","network":"US:US","sort_rank":380,"kind_detail":"primary","is_bicycle_related":true,"bicycle_shield_text":"CC","bicycle_network":"rcn","source":"openstreetmap.org","min_zoom":8.0,"shield_text":"278","ref":"US 278;US 601;SC 363","id":51475387},"arcs":[381]},{"type":"MultiLineString","properties":{"source":"openstreetmap.org","kind":"major_road","landuse_kind":"urban_area","sort_rank":380,"kind_detail":"primary","min_zoom":8.0},"arcs":[[382],[383],[384],[385],[386],[387],[388],[389]]},{"type":"MultiLineString","properties":{"kind":"major_road","network":"US:GA","sort_rank":381,"landuse_kind":"urban_area","source":"openstreetmap.org","min_zoom":8.0,"kind_detail":"trunk","shield_text":"21","ref":"GA 21"},"arcs":[[390],[391]]},{"type":"LineString","properties":{"kind":"major_road","network":"US:US","sort_rank":380,"kind_detail":"primary","source":"openstreetmap.org","min_zoom":8.0,"shield_text":"21","ref":"US 21;SC 802"},"arcs":[392]},{"type":"LineString","properties":{"kind":"major_road","network":"US:SC","sort_rank":380,"kind_detail":"primary","is_bicycle_related":true,"bicycle_shield_text":"CR","bicycle_network":"rcn","source":"openstreetmap.org","min_zoom":8.0,"shield_text":"63","ref":"US 17 Alt; SC 63"},"arcs":[393]},{"type":"LineString","properties":{"kind":"major_road","network":"US:US","sort_rank":380,"kind_detail":"primary","source":"openstreetmap.org","min_zoom":8.0,"landuse_kind":"military","shield_text":"21","ref":"SC 802","id":12134904},"arcs":[394]},{"type":"LineString","properties":{"kind":"major_road","network":"US:US","sort_rank":380,"kind_detail":"primary","source":"openstreetmap.org","min_zoom":8.0,"landuse_kind":"urban_area","shield_text":"78","ref":"US 78"},"arcs":[395]},{"type":"LineString","properties":{"kind":"major_road","network":"US:GA","sort_rank":381,"kind_detail":"trunk","is_bicycle_related":true,"bicycle_network":"rcn","source":"openstreetmap.org","min_zoom":8.0,"shield_text":"21","ref":"GA 21","id":258796497},"arcs":[396]},{"type":"LineString","properties":{"kind":"highway","network":"US:I","sort_rank":383,"landuse_kind":"urban_area","source":"openstreetmap.org","min_zoom":8.0,"all_networks":["US:I","US:US","US:NHS High Priority Corridors","US:GA:Spur"],"kind_detail":"motorway","shield_text":"16","ref":"I 16;US 17","all_shield_texts":["16","17","6","404"]},"arcs":[397]},{"type":"LineString","properties":{"source":"openstreetmap.org","kind":"major_road","sort_rank":381,"kind_detail":"trunk","ref":"US 17","min_zoom":8.0},"arcs":[398]},{"type":"LineString","properties":{"kind":"major_road","network":"US:US:Business","sort_rank":380,"kind_detail":"primary","source":"openstreetmap.org","min_zoom":8.0,"shield_text":"21","ref":"US 21","id":81058444},"arcs":[399]},{"type":"MultiLineString","properties":{"kind":"major_road","network":"US:auto_trail","sort_rank":381,"landuse_kind":"urban_area","source":"openstreetmap.org","min_zoom":8.0,"kind_detail":"trunk","shield_text":null,"ref":"GA 21;GA 30"},"arcs":[[400],[401]]},{"type":"LineString","properties":{"kind":"major_road","network":"US:US","sort_rank":380,"kind_detail":"primary","source":"openstreetmap.org","min_zoom":8.0,"landuse_kind":"urban_area","shield_text":"80","ref":"US 80;GA 25 Connector;GA 26"},"arcs":[402]},{"type":"MultiLineString","properties":{"kind":"minor_road","sort_rank":360,"landuse_kind":"urban_area","is_bicycle_related":true,"bicycle_shield_text":"ECG","bicycle_network":"ncn","source":"openstreetmap.org","min_zoom":8.0,"kind_detail":"residential"},"arcs":[[403],[404],[405],[406],[407],[408],[409],[410]]},{"type":"MultiLineString","properties":{"kind":"major_road","network":"US:US","sort_rank":380,"kind_detail":"primary","source":"openstreetmap.org","min_zoom":8.0,"shield_text":"21","ref":"SC 802"},"arcs":[[411],[412]]},{"type":"LineString","properties":{"kind":"major_road","network":"US:US","sort_rank":381,"kind_detail":"trunk","is_bicycle_related":true,"bicycle_shield_text":"ECG","bicycle_network":"ncn","source":"openstreetmap.org","min_zoom":8.0,"shield_text":"17","ref":"US 17;GA 25"},"arcs":[413]},{"type":"MultiLineString","properties":{"kind":"highway","network":"US:I","sort_rank":383,"kind_detail":"motorway","source":"openstreetmap.org","min_zoom":8.0,"all_networks":["US:I","US:NHS High Priority Corridors"],"shield_text":"16","ref":"I 16","all_shield_texts":["16","6"]},"arcs":[[414],[415],[416],[417]]},{"type":"MultiLineString","properties":{"kind":"major_road","network":"US:US","sort_rank":381,"kind_detail":"trunk","is_bicycle_related":true,"bicycle_shield_text":"ECG","bicycle_network":"ncn","source":"openstreetmap.org","min_zoom":8.0,"shield_text":"17","ref":"US 17"},"arcs":[[418],[419],[420],[421],[422],[423],[424],[425],[426],[427],[428],[429],[430]]},{"type":"LineString","properties":{"kind":"major_road","network":"US:US","sort_rank":380,"kind_detail":"primary","source":"openstreetmap.org","min_zoom":8.0,"shield_text":"17","ref":"US 17;US 278"},"arcs":[431]},{"type":"MultiLineString","properties":{"kind":"highway","network":"US:I","sort_rank":383,"kind_detail":"motorway","source":"openstreetmap.org","min_zoom":8.0,"all_networks":["US:I","US:US","US:GA","US:GA","US:GA"],"landuse_kind":"urban_area","shield_text":"516","ref":"I 516;US 80;GA 21;GA 25;GA 26","all_shield_texts":["516","80","21","25","26"]},"arcs":[[432],[433]]},{"type":"MultiLineString","properties":{"kind":"major_road","network":"US:GA","sort_rank":379,"kind_detail":"secondary","is_bicycle_related":true,"bicycle_shield_text":"ECG","bicycle_network":"ncn","source":"openstreetmap.org","min_zoom":8.0,"shield_text":"119","ref":"119"},"arcs":[[434],[435]]},{"type":"MultiLineString","properties":{"kind":"major_road","network":"US:SC","sort_rank":380,"kind_detail":"primary","source":"openstreetmap.org","min_zoom":8.0,"shield_text":"170","ref":"SC 170"},"arcs":[[436],[437],[438],[439],[440],[441],[442],[443],[444],[445],[446],[447],[448],[449],[450],[451],[452],[453],[454],[455]]},{"type":"LineString","properties":{"kind":"major_road","network":"US:US","sort_rank":380,"kind_detail":"primary","source":"openstreetmap.org","min_zoom":8.0,"landuse_kind":"urban_area","shield_text":"21","ref":"US 21"},"arcs":[456]},{"type":"LineString","properties":{"kind":"major_road","network":"US:US","sort_rank":381,"kind_detail":"trunk","source":"openstreetmap.org","min_zoom":8.0,"landuse_kind":"urban_area","shield_text":"17","ref":"US 17;GA 404 Spur","id":430114713},"arcs":[457]},{"type":"MultiLineString","properties":{"kind":"major_road","network":"US:SC","sort_rank":381,"landuse_kind":"urban_area","source":"openstreetmap.org","min_zoom":8.0,"kind_detail":"trunk","shield_text":"642","ref":"SC 642"},"arcs":[[458],[459],[460],[461]]},{"type":"MultiLineString","properties":{"kind":"major_road","network":"US:US:Alternate","sort_rank":380,"kind_detail":"primary","source":"openstreetmap.org","min_zoom":8.0,"shield_text":"17","ref":"US 17 Alternate"},"arcs":[[462],[463]]},{"type":"LineString","properties":{"kind":"major_road","network":"US:US","sort_rank":380,"kind_detail":"primary","is_bicycle_related":true,"bicycle_shield_text":"ECG","bicycle_network":"ncn","source":"openstreetmap.org","min_zoom":8.0,"shield_text":"17","ref":"US 17;US 278","id":12426500},"arcs":[464]},{"type":"MultiLineString","properties":{"kind":"major_road","network":"US:US","sort_rank":380,"kind_detail":"primary","source":"openstreetmap.org","min_zoom":8.0,"shield_text":"278","ref":"US 278"},"arcs":[[465],[466],[467],[468],[469]]},{"type":"MultiLineString","properties":{"kind":"highway","network":"US:I","sort_rank":383,"kind_detail":"motorway","source":"openstreetmap.org","min_zoom":8.0,"all_networks":["US:I"],"shield_text":"95","ref":"I 95","all_shield_texts":["95"]},"arcs":[[470],[471],[472],[473],[474],[475],[476],[477],[478],[479]]},{"type":"LineString","properties":{"kind":"major_road","network":"US:US","sort_rank":380,"kind_detail":"primary","source":"openstreetmap.org","min_zoom":8.0,"landuse_kind":"military","shield_text":"21","ref":"US 21","id":45144832},"arcs":[480]},{"type":"MultiLineString","properties":{"kind":"highway","network":"US:I","sort_rank":383,"landuse_kind":"urban_area","source":"openstreetmap.org","min_zoom":8.0,"all_networks":["US:I","US:GA","US:GA"],"kind_detail":"motorway","shield_text":"516","ref":"I 516;GA 21;GA 25","all_shield_texts":["516","21","25"]},"arcs":[[481],[482]]},{"type":"MultiLineString","properties":{"kind":"major_road","network":"US:GA","sort_rank":381,"kind_detail":"trunk","is_bicycle_related":true,"bicycle_shield_text":"85","bicycle_network":"rcn","source":"openstreetmap.org","min_zoom":8.0,"shield_text":"21","ref":"GA 21"},"arcs":[[483],[484],[485],[486],[487]]},{"type":"MultiLineString","properties":{"kind":"major_road","network":"US:US","sort_rank":380,"kind_detail":"primary","source":"openstreetmap.org","min_zoom":8.0,"shield_text":"21","ref":"US 21, SC 802"},"arcs":[[488],[489]]}]},"earth":{"type":"GeometryCollection","geometries":[{"type":"MultiPolygon","properties":{"sort_rank":10,"source":"naturalearthdata.com","min_zoom":0.0,"kind":"earth","area":69634495762},"arcs":[[[490]]]}]},"landuse":{"type":"GeometryCollection","geometries":[{"type":"MultiPolygon","properties":{"source":"openstreetmap.org","kind":"park","tier":2,"area":97425243,"sort_rank":24,"min_zoom":8.0},"arcs":[[[491]]]},{"type":"Polygon","properties":{"kind":"aerodrome","area":11262600,"sort_rank":60,"operator":"Savannah Airport Commission","source":"openstreetmap.org","min_zoom":8.0,"tier":3,"id":224524339},"arcs":[[492]]},{"type":"MultiPolygon","properties":{"kind":"residential","area":41160300,"sort_rank":20,"source":"openstreetmap.org","min_zoom":8.0,"tier":2,"id":-84623,"osm_relation":true},"arcs":[[[493],[494],[495],[496],[497],[498]]]},{"type":"MultiPolygon","properties":{"kind":"military","area":1152550016,"sort_rank":45,"operator":"United States Department of Energy","source":"openstreetmap.org","min_zoom":8.0,"tier":3,"id":-5671512,"osm_relation":true},"arcs":[[[499]],[[500]]]},{"type":"MultiPolygon","properties":{"source":"openstreetmap.org","kind":"military","tier":3,"area":413908824,"sort_rank":45,"min_zoom":8.0},"arcs":[[[501]]]},{"type":"MultiPolygon","properties":{"source":"naturalearthdata.com","kind":"urban_area","name":"","area":3035183414,"sort_rank":11,"min_zoom":4.0},"arcs":[[[502]],[[503]],[[504]],[[505]]]},{"type":"Polygon","properties":{"kind":"aerodrome","area":30238500,"sort_rank":60,"source":"openstreetmap.org","min_zoom":8.0,"tier":3,"id":-4867637,"osm_relation":true},"arcs":[[506]]},{"type":"Polygon","properties":{"kind":"aerodrome","area":30486300,"sort_rank":60,"operator":"U.S. Army","source":"openstreetmap.org","min_zoom":8.0,"tier":3,"id":-4843744,"osm_relation":true},"arcs":[[507]]},{"type":"MultiPolygon","properties":{"source":"openstreetmap.org","kind":"military","tier":3,"area":521242148,"sort_rank":45,"min_zoom":8.0,"osm_relation":true},"arcs":[[[508]],[[509]]]}]}},"type":"Topology","transform":{"translate":[-81.5625,31.952162238],"scale":[0.0003433228,0.0002894016]},"arcs":[[[2795,0],[88,175],[325,168],[188,218],[183,64],[169,120],[128,163],[77,199],[143,138]],[[0,3813],[16,-36],[37,6],[96,-66],[-23,-16],[26,-7],[-1,-38],[19,21],[35,-25],[-25,-23],[28,-16],[-25,-117],[-34,10],[35,-75],[-9,-34],[56,-46],[7,-81],[26,-16],[3,24],[19,-8],[-44,-60],[77,-28],[-23,-93],[50,16],[10,-33],[54,-21],[-25,-25],[24,-22],[-15,-16],[27,5],[-30,-60],[25,-27],[-23,-19],[14,-15],[-25,3],[49,-21],[-51,-32],[38,-4],[4,-26],[16,13],[-6,-29],[18,1],[-34,-23],[43,-12],[-40,-45],[25,-37],[-30,-3],[15,-26],[-36,-40],[44,-34],[10,15],[35,-121],[-30,-3],[42,-31],[-57,-35],[28,-15],[-13,-19],[-32,10],[19,-56],[78,-90],[44,-4],[9,-49],[38,9],[-3,-29],[86,-38],[80,10],[3,-33],[17,32],[5,-40],[23,18],[19,-42],[-15,-25],[79,-65],[55,1],[1,-69],[137,-118],[-32,-56],[-25,7],[21,-23],[-28,-26],[9,-44],[79,-105],[-10,-47],[41,-38],[-19,-19],[57,-45],[-16,-32],[47,38],[45,-37],[-27,-47],[21,-6],[-9,-59],[31,-4],[10,-71],[-21,-16],[11,-23],[-55,-13],[12,-24],[-55,-72],[38,-53],[-25,-24],[39,-7],[48,-82],[24,-2],[-23,-12],[5,-48],[28,-16],[-29,7],[-26,-33],[50,-53],[-20,-29],[6,-84],[75,-24],[120,-88],[51,1],[89,50],[56,-71],[83,-38],[107,-107],[228,-15]],[[2106,280],[256,1]],[[2362,281],[15,156],[149,94],[727,607],[182,321],[228,318],[72,63],[361,230]],[[2228,0],[49,205],[85,76]],[[4096,2859],[-95,-31],[-415,-55],[-406,27],[-288,-86],[-775,-128],[-284,-402],[-395,-966],[-90,-136],[-255,-235],[-5,-80],[116,-313]],[[4096,2859],[-95,-31],[-415,-55],[-406,27],[-288,-86],[-775,-128],[-284,-402],[-395,-966],[-90,-136],[-256,-237],[-4,-78],[130,-337],[-33,-86],[-275,-267],[-121,-77]],[[4096,2859],[-95,-31],[-415,-55],[-406,27],[-288,-86],[-775,-128],[-284,-402],[-395,-966],[-90,-136],[-256,-237],[-4,-78],[130,-337],[-33,-86],[-275,-267],[-121,-77]],[[789,0],[121,77],[272,263],[36,88],[-224,427],[-145,1065],[50,118],[25,209],[26,1285],[114,564]],[[1753,0],[17,18],[18,13],[13,28],[20,25],[39,4],[1,-12],[12,-31],[20,-32],[18,-13],[-158,0]],[[4096,2155],[0,-2155],[-2169,0],[137,104],[53,71],[-36,67],[-50,15],[-40,0],[-30,13],[-3,8],[-17,49],[5,42],[20,36],[133,161],[28,64],[12,85],[14,23],[66,71],[21,37],[7,48],[1,46],[8,40],[24,31],[7,-130],[-100,-216],[-27,-126],[244,152],[95,133],[78,83],[1,37],[-40,67],[-26,34],[-35,29],[-44,10],[-52,-24],[-90,162],[-22,27],[-45,21],[1,48],[33,83],[-28,86],[-55,127],[-38,124],[23,79],[0,24],[-22,37],[-42,99],[-35,31],[0,21],[55,3],[25,-31],[14,-45],[25,-44],[47,-25],[36,-5],[7,-18],[-40,-60],[3,-72],[33,-128],[73,-192],[197,-177],[39,-24],[32,9],[13,63],[-7,36],[-29,55],[-6,27],[1,235],[12,47],[29,40],[-17,10],[-3,11],[-19,-4],[-9,-4],[-4,7],[-8,27],[77,-6],[17,-59],[-54,-249],[16,-18],[103,47],[-38,-217],[-2,-90],[17,-91],[32,-14],[112,56],[21,1],[47,-7],[32,6],[240,151],[32,51],[-54,34],[10,4],[8,-1],[5,4],[-1,18],[18,0],[38,-15],[30,55],[22,84],[11,67],[-21,0],[-13,-29],[-23,-25],[-44,-42],[-36,-36],[-72,-44],[-78,-34],[-54,-6],[-2,34],[50,57],[69,53],[126,53],[15,65],[-33,66],[-74,30],[-269,21],[70,30],[83,18],[86,5],[79,-5],[0,25],[-40,17],[-70,43],[-39,9],[-33,-3],[-54,-15],[-34,-4],[-258,50],[-52,-28],[-2,47],[24,33],[29,16],[90,0],[207,-33],[73,10],[-18,30],[-15,35],[-9,38],[1,40],[21,0],[21,-44],[22,-26],[108,-96],[35,-9],[40,-2],[55,-13],[45,-28],[26,-32],[28,-24],[49,-11],[42,21],[26,51],[9,62],[-9,57],[40,-22],[12,-35],[4,-40],[16,-36],[38,-29],[24,7],[22,21],[35,12],[210,154],[31,15],[28,18],[20,29],[10,31],[-3,7],[-16,6],[-136,122],[-34,45],[42,8],[55,-38],[92,-99],[69,-59],[41,11],[20,19]],[[1753,0],[17,18],[18,13],[13,28],[20,25],[39,4],[1,-12],[12,-31],[20,-32],[18,-13]],[[1927,0],[137,104],[53,71],[-36,67],[-50,15],[-40,0],[-30,13],[-3,8],[-17,49],[5,42],[20,36],[133,161],[28,64],[12,85],[14,23],[66,71],[21,37],[7,48],[1,46],[8,40],[24,31],[7,-130],[-100,-216],[-27,-126],[244,152],[95,133],[78,83],[1,37],[-40,67],[-26,34],[-35,29],[-44,10],[-52,-24],[-90,162],[-22,27],[-45,21],[1,48],[33,83],[-28,86],[-55,127],[-38,124],[23,79],[0,24],[-22,37],[-42,99],[-35,31],[0,21],[55,3],[25,-31],[14,-45],[25,-44],[47,-25],[36,-5],[7,-18],[-40,-60],[3,-72],[33,-128],[73,-192],[197,-177],[39,-24],[32,9],[13,63],[-7,36],[-29,55],[-6,27],[1,235],[12,47],[29,40],[-17,10],[-3,11],[-19,-4],[-9,-4],[-4,7],[-8,27],[77,-6],[17,-59],[-54,-249],[16,-18],[103,47],[-38,-217],[-2,-90],[17,-91],[32,-14],[112,56],[21,1],[47,-7],[32,6],[240,151],[32,51],[-54,34],[10,4],[8,-1],[5,4],[-1,18],[18,0],[38,-15],[30,55],[22,84],[11,67],[-21,0],[-13,-29],[-23,-25],[-44,-42],[-36,-36],[-72,-44],[-78,-34],[-54,-6],[-2,34],[50,57],[69,53],[126,53],[15,65],[-33,66],[-74,30],[-269,21],[70,30],[83,18],[86,5],[79,-5],[0,25],[-40,17],[-70,43],[-39,9],[-33,-3],[-54,-15],[-34,-4],[-258,50],[-52,-28],[-2,47],[24,33],[29,16],[90,0],[207,-33],[73,10],[-18,30],[-15,35],[-9,38],[1,40],[21,0],[21,-44],[22,-26],[108,-96],[35,-9],[40,-2],[55,-13],[45,-28],[26,-32],[28,-24],[49,-11],[42,21],[26,51],[9,62],[-9,57],[40,-22],[12,-35],[4,-40],[16,-36],[38,-29],[24,7],[22,21],[35,12],[210,154],[31,15],[28,18],[20,29],[10,31],[-3,7],[-16,6],[-136,122],[-34,45],[42,8],[55,-38],[92,-99],[69,-59],[41,11],[20,19]],[[1174,466],[-4,-2],[-9,0]],[[1161,464],[-13,0],[-114,31]],[[1035,493],[121,-31],[5,2]],[[1161,464],[29,12],[36,26],[12,-6]],[[1238,496],[-12,7],[-23,-17]],[[1473,292],[-187,72],[-58,-12]],[[1258,482],[-20,14]],[[1258,482],[5,-2]],[[1263,480],[-5,2]],[[1872,2213],[-19,-11],[-2,-3]],[[1851,2199],[21,14]],[[1895,2225],[-23,-12]],[[3207,2844],[-83,75],[-271,130]],[[3207,2844],[4,-5]],[[3211,2840],[-4,4]],[[2387,2181],[-49,65]],[[2341,2239],[46,-58]],[[2384,2051],[-25,-105],[24,-81]],[[2384,2051],[3,130]],[[2384,1865],[-25,81],[21,82],[4,23]],[[644,673],[-132,78],[-59,75],[-91,20]],[[1203,486],[28,-22]],[[1373,422],[-10,3]],[[1366,423],[7,-1]],[[1375,429],[-2,-7]],[[2657,1595],[-52,36]],[[2383,1865],[22,-71]],[[2405,1794],[-21,71]],[[2405,1792],[0,2]],[[2450,1692],[-15,34]],[[1147,2077],[28,153],[-110,384],[119,366],[136,181]],[[1517,3722],[81,233]],[[1598,3964],[0,132]],[[1221,508],[-61,186],[22,43],[79,1]],[[2066,2379],[2,5]],[[1300,3181],[-5,6]],[[762,624],[-118,49]],[[174,3407],[126,58]],[[300,3465],[219,59],[137,100]],[[656,3624],[-137,-99],[-219,-60]],[[656,3624],[84,25]],[[777,3685],[-27,-23]],[[1063,851],[16,-48]],[[1077,808],[-14,44]],[[1270,83],[-25,7]],[[1245,89],[26,-7]],[[1353,93],[-39,-15]],[[1314,77],[18,-3],[21,18]],[[3724,3497],[20,2]],[[2209,2652],[262,181]],[[1086,794],[-9,14]],[[1079,803],[6,-9]],[[362,846],[-203,91]],[[1313,399],[12,6],[8,16]],[[1333,421],[-4,8],[40,71],[1,4],[-36,-56],[-6,-19],[5,-8]],[[1333,421],[0,-3],[-6,-10]],[[1107,4026],[-2,-5]],[[1657,1699],[-10,25]],[[1719,1894],[-4,-6]],[[2399,905],[3,8]],[[1245,415],[-16,-53]],[[1231,365],[11,35]],[[2017,626],[56,53],[141,3],[55,100],[78,22]],[[1326,1767],[233,3],[137,56]],[[4084,3739],[-72,-109]],[[1743,276],[-111,41]],[[1640,311],[103,-35]],[[1985,219],[-206,85],[-36,-28]],[[1985,219],[63,15]],[[2049,234],[-1,0]],[[583,878],[-23,116],[-54,87]],[[153,944],[-52,101],[-47,207],[-54,41]],[[971,535],[31,-32]],[[1002,503],[2,-2],[31,-8]],[[1034,495],[-32,8]],[[1002,503],[-3,1]],[[1473,292],[59,1]],[[1532,293],[108,18]],[[1632,317],[-100,-24]],[[2077,139],[23,69],[-51,26]],[[1383,523],[5,6]],[[853,151],[-50,-53]],[[1851,2199],[-17,-24]],[[1834,2175],[17,24]],[[859,588],[-97,36]],[[940,555],[31,-20]],[[999,504],[-28,31],[-31,20]],[[2608,3282],[11,9]],[[2717,3339],[-69,-48]],[[92,2321],[-74,67],[-18,51]],[[146,2232],[-33,56]],[[260,2053],[-55,96]],[[1061,409],[147,9]],[[1208,418],[4,0],[50,-11]],[[1244,415],[-32,3],[-4,0]],[[1208,418],[-78,-19],[-68,8]],[[1313,399],[32,16],[7,9]],[[1348,419],[-15,-7],[-6,-4]],[[496,1243],[-2,63]],[[506,1081],[-6,3]],[[1983,2329],[18,21]],[[689,1474],[-77,96]],[[1025,300],[-114,-138],[-58,-11]],[[960,214],[65,86]],[[1081,310],[-56,-10]],[[2377,909],[18,1],[4,-3],[1,-2]],[[2400,905],[-19,-19]],[[2381,886],[-58,-55],[-23,-68]],[[2301,762],[5,8],[15,30],[3,31],[57,55]],[[2381,886],[19,19]],[[2400,905],[1,1],[-6,4],[-14,-1]],[[1238,355],[-9,-2]],[[1326,351],[-38,13]],[[4029,3474],[-89,44],[89,-43]],[[4069,3455],[27,-22]],[[4096,3443],[-10,9],[-15,6]],[[2067,2384],[2,-5]],[[1660,2233],[-20,35]],[[688,1474],[38,-84],[31,-9],[31,-4]],[[764,1381],[-38,9],[-18,48],[-19,36]],[[928,1211],[15,-15]],[[943,1196],[8,-7]],[[961,1138],[-10,51]],[[1072,945],[1,4],[-8,14]],[[1065,963],[-22,44],[-72,111]],[[1057,995],[8,-32]],[[1065,963],[6,-21]],[[3906,3600],[95,36]],[[2086,2440],[-35,53]],[[1085,794],[8,-38]],[[1095,750],[-2,13],[-7,31]],[[810,182],[10,-3],[9,-2],[84,-11],[92,-50],[18,-3],[70,-4]],[[993,123],[-79,43],[-104,17]],[[1092,110],[-70,3]],[[2067,2384],[-4,-4]],[[644,673],[-61,205]],[[1300,3181],[194,258],[-11,145],[34,138]],[[1598,3955],[0,9]],[[2605,1631],[-5,21]],[[666,7],[-5,-7]],[[663,0],[6,10]],[[1064,817],[-120,-127],[-5,-69],[5,-63]],[[945,558],[0,130],[120,129]],[[1054,151],[1,-13]],[[1056,137],[-2,16]],[[1058,175],[68,45],[70,90]],[[1190,311],[-9,1],[-55,-92],[-68,-44]],[[1234,93],[11,-4]],[[1245,90],[-8,3]],[[1314,78],[-44,5]],[[1271,82],[43,-5]],[[1421,422],[-1,-35],[16,-69],[-1,-3],[-54,-70],[-1,-2],[28,-74],[-55,-76]],[[1353,92],[55,76],[-27,75],[54,72],[1,3],[-4,103]],[[1698,1833],[8,18]],[[1706,1851],[8,32]],[[1714,1883],[-8,-32]],[[887,578],[-28,10]],[[887,578],[53,-23]],[[940,555],[-53,23]],[[1203,486],[-29,-20]],[[1300,398],[-56,17]],[[1262,407],[37,-10],[14,2]],[[1270,478],[-7,2]],[[1264,480],[6,-2]],[[1357,450],[-87,28]],[[319,805],[43,41]],[[2534,1687],[-84,5]],[[1404,3103],[-77,52]],[[740,3649],[10,13]],[[853,150],[58,12],[49,52]],[[1039,3955],[65,63]],[[1104,4018],[3,4]],[[1107,4024],[-3,-6]],[[1398,1148],[-72,619],[-261,420],[-138,83]],[[930,2517],[6,253]],[[936,2783],[13,645],[63,244],[-23,57],[50,226]],[[1107,4022],[-18,74]],[[1398,1148],[2,-7]],[[1400,1145],[-2,3]],[[287,785],[-242,-169],[-45,4]],[[287,785],[26,15],[2,2],[4,3],[-32,-20]],[[2600,1652],[-1,32],[-45,2]],[[920,1260],[-55,97],[-77,21],[-24,3]],[[788,1377],[77,-20],[55,-97]],[[928,1211],[-8,49]],[[961,1138],[96,-143]],[[1071,942],[-8,-91]],[[1063,852],[9,93]],[[1388,529],[59,63]],[[778,65],[-44,-65]],[[2209,2652],[-152,297],[19,157],[-27,359],[24,83],[102,86],[22,212],[-9,250]],[[2459,1464],[-50,26],[-12,49],[39,112]],[[2461,1465],[36,22]],[[2501,1489],[37,6],[15,33]],[[3272,1515],[-18,37],[-103,44],[-218,-48]],[[1327,3155],[-7,6]],[[1222,351],[-3,-2]],[[1976,2330],[7,-1]],[[810,3736],[-33,-51]],[[810,3736],[76,69],[43,101],[71,37]],[[1000,3943],[-72,-37],[-42,-100],[-76,-70]],[[1000,3943],[39,12]],[[1140,4096],[-33,-72]],[[1107,4022],[34,74]],[[1156,332],[-75,-22]],[[1247,459],[103,-32]],[[1461,1244],[30,-1]],[[1491,1243],[18,-23],[55,-3],[142,12],[134,-63],[142,-20],[85,-82],[231,-144],[79,-11]],[[2381,909],[-99,23],[-17,21],[-197,112],[-86,82],[-114,22],[-27,-3],[-20,16],[-115,49],[-84,-2],[-37,-7],[-75,-2],[-5,7],[-14,16]],[[2300,763],[14,-38]],[[2314,725],[-13,37]],[[2314,725],[13,-18]],[[2327,707],[1,-2]],[[2328,706],[-1,1]],[[2069,2379],[72,-53],[66,-70],[22,-12],[88,-9],[11,4]],[[2332,2240],[-103,5],[-87,82],[-68,52]],[[845,501],[-25,-51]],[[821,450],[25,51]],[[1714,1883]],[[3405,4096],[17,-5],[27,5]],[[3553,4096],[218,-155],[122,-153]],[[1148,489],[-117,17]],[[1231,464],[16,-5]],[[1363,425],[3,-2]],[[2435,1726],[-30,66]],[[1969,2323],[-46,-83],[-62,-40],[-2,-3],[-136,-287]],[[1728,1918],[132,279],[63,42],[54,95]],[[1379,443],[19,-7]],[[820,450],[-3,-10],[6,-14]],[[823,426],[-2,24]],[[823,426],[3,-4]],[[826,422],[10,-17]],[[960,214],[-84,96],[-40,95]],[[992,512],[-73,-36],[-74,25]],[[1326,1767],[-226,94],[-130,91],[-50,81],[-43,7]],[[1895,2225],[81,105]],[[2001,2351],[0,-1]],[[2471,2833],[217,28],[165,188]],[[927,2270],[3,247]],[[857,1992],[20,48]],[[3984,3862],[112,-98]],[[4096,3778],[-110,84]],[[3635,4096],[349,-234]],[[3986,3862],[-134,102],[-211,132]],[[807,682],[-59,-14],[-9,-35]],[[739,633],[9,35],[59,14]],[[807,682],[23,15]],[[830,697],[105,27]],[[938,729],[-108,-32]],[[1567,369],[58,-50],[15,-8]],[[1632,317],[-64,53]],[[2338,2246],[1,0]],[[2338,2245],[3,-6]],[[2359,1949]],[[2359,1945],[1,0]],[[2386,1887]],[[2329,702],[2,0],[-1,2],[-2,-1],[1,-1]],[[936,2770],[0,13]],[[4084,3739],[-83,-103]],[[4084,3739],[12,4]],[[4096,3743],[-12,-4]],[[3259,1482],[13,33]],[[1224,351],[-68,-19]],[[1112,108],[9,-2],[3,0]],[[1124,106],[3,0]],[[1128,106],[-4,0]],[[1124,106],[-1,0],[-1,1],[-10,2]],[[1147,105],[12,-1]],[[1159,104],[-12,1]],[[1217,98],[-35,5]],[[1183,103],[35,-6]],[[1240,98],[26,60]],[[1266,158],[2,4],[0,1],[9,10]],[[1275,174],[-7,-8],[0,-3],[-1,0],[-1,-5]],[[1266,158],[-14,-49],[-11,-12]],[[1058,176],[-5,-14],[1,-11]],[[1054,153],[4,22]],[[1055,138],[2,-13]],[[1057,128],[-1,9]],[[1261,738],[26,5]],[[2442,1649],[59,39]],[[1161,600],[-52,132]],[[1109,732],[51,-132]],[[2537,3233],[2,0]],[[497,1180],[-1,63]],[[159,937],[-6,7]],[[1263,480],[1,0]],[[1376,444],[-19,6]],[[2648,3291],[-29,0]],[[726,1446],[-9,11]],[[2487,828],[-155,-124]],[[2332,704],[99,75],[56,49]],[[2377,909],[127,0],[20,-8],[-9,-39]],[[2515,862],[12,30],[-3,10],[-20,8],[-123,-1]],[[2515,862],[-28,-34]],[[843,1739],[14,253]],[[935,724],[98,5]],[[1033,729],[-24,13],[-71,-13]],[[1033,729],[22,4]],[[1055,733],[54,-1]],[[1109,732],[-54,1]],[[1237,93],[-18,4]],[[1326,262],[56,-19]],[[1568,370],[-26,16],[-22,7],[-117,31],[164,-55]],[[2051,2493],[31,78],[127,81]],[[2069,2388],[-2,-4]],[[2068,2384],[1,4]],[[2069,2388],[17,52]],[[1111,698],[40,-118]],[[1151,580],[-40,119]],[[1202,524],[-51,56]],[[1714,1883],[106,264]],[[1820,2147],[14,28]],[[1834,2175],[-14,-28]],[[0,3317],[102,84],[72,6]],[[1229,504],[-17,12]],[[1215,513],[10,-7]],[[1229,362],[-18,-51],[37,-24],[42,-13]],[[1290,274],[-78,36],[19,55]],[[2933,1548],[-178,-7],[-98,54]],[[1405,1093],[-2,22]],[[1405,1093],[20,-225],[-17,-77],[6,-12]],[[1414,779],[-4,16],[15,72],[3,43],[-23,183]],[[1447,592],[36,39],[-24,91],[-45,57]],[[2001,2351],[-20,-4],[-12,-24]],[[1977,2334],[24,17]],[[2074,2379],[-11,1]],[[2066,2379],[3,0]],[[2328,2239],[4,2]],[[2332,2241],[7,3],[132,126],[97,52],[3,2]],[[2571,2424],[96,62]],[[2667,2486],[1,0],[101,124],[23,39],[5,10]],[[2797,2659],[14,28],[13,14]],[[2824,2701],[2,2],[1,2],[11,7]],[[2838,2712],[-11,-7],[-2,-2],[-1,-2]],[[2824,2701],[-27,-42]],[[2797,2659],[-4,-7],[-24,-41],[-102,-125]],[[2667,2486],[-16,-21],[-80,-41]],[[2571,2424],[-3,-1],[-50,-20],[-44,-29],[-124,-119],[-11,-10],[0,-1],[-7,-3]],[[2332,2241],[0,-1]],[[2838,2712],[14,-1]],[[2852,2711],[44,6],[37,19],[105,63],[173,40]],[[3211,2840],[-189,-44],[-170,-85]],[[2609,3291],[92,251],[1,125],[130,381],[38,46],[0,2]],[[1224,351],[4,1]],[[1403,1115],[48,129]],[[1715,1888],[-1,-5]],[[1714,1883],[14,22]],[[500,1084],[-3,96]],[[1031,506],[-39,6]],[[1112,109],[-20,1]],[[1093,109],[19,-1]],[[1127,106],[10,-1]],[[1137,105],[10,0]],[[1147,105],[-10,0]],[[1137,105],[-9,1]],[[1159,104],[24,-1]],[[1182,103],[-23,1]],[[1219,97],[-2,1]],[[1218,97],[22,1]],[[1241,97],[-3,-3],[-1,-1]],[[1323,263],[-48,-89]],[[1277,173],[31,38],[16,52]],[[1288,364],[-2,0]],[[2471,2833],[-31,85],[51,46],[46,183]],[[2539,3233],[3,1]],[[2863,3376],[212,54],[168,-63],[195,5],[194,66],[92,59]],[[3744,3499],[69,13],[93,88]],[[1320,3161],[-20,20]],[[1221,500],[0,8]],[[1229,353],[-7,-2]],[[1224,514],[4,-12]],[[1376,444],[3,-1]],[[1398,436],[4,-8]],[[1402,428],[1,-4]],[[1405,424],[-3,4]],[[3995,3738],[-27,1]],[[1212,516],[3,-3]],[[1290,274],[24,-8],[12,-4],[-36,12]],[[2569,1528],[40,-2]],[[2539,3233],[69,49]],[[2461,1464]],[[3893,3788],[203,-100]],[[528,1680],[83,-110]],[[1327,408],[-27,-10]],[[1976,2342],[21,7]],[[2554,1686],[-20,1]],[[1093,756],[18,-58]],[[1111,699],[-16,51]],[[1263,480],[6,-9]],[[1174,466],[-26,23]],[[1344,465],[42,-21]],[[1376,432],[-1,-3]],[[1376,434],[0,-2]],[[1378,438],[-2,-4]],[[1379,440],[-1,-2]],[[1379,443],[0,-3]],[[1398,436],[-3,4]],[[2459,1464],[2,0]],[[2497,1487],[4,2]],[[778,65],[75,85]],[[0,941],[203,-65],[217,-210],[50,-38],[104,-66],[308,-132],[28,-7],[134,-15],[6,0]],[[1050,408],[11,1]],[[1062,407],[-12,1]],[[1050,408],[-83,9],[-60,7],[-24,7],[-309,131],[-153,105],[-218,210],[-203,67]],[[2063,2380],[-62,-29]],[[2001,2351],[65,28]],[[3211,2839],[7,-5]],[[3218,2834],[-7,6]],[[3228,2826],[-10,8]],[[3228,2826],[34,-23],[245,-25]],[[3507,2778],[-245,26],[-34,22]],[[3507,2778],[60,-4]],[[3567,2774],[63,14],[204,61]],[[3834,2849],[-20,-5],[-177,-52],[-8,-3],[-62,-15]],[[3935,2871],[-101,-22]],[[3935,2871],[90,-10],[71,17]],[[4096,2878],[-71,-17],[-86,11],[-4,-1]],[[1451,1244],[245,582]],[[1242,400],[22,64]],[[1263,465],[-18,-50]],[[494,1306],[232,140]],[[717,1457],[94,86],[32,196]],[[1287,743],[115,41]],[[1411,804],[-9,-20]],[[1402,784],[8,11]],[[1822,1179],[6,24]],[[1917,1389],[-55,-10],[-1,-8]],[[1861,1371],[-33,-168]],[[1828,1203],[28,167],[5,1]],[[1861,1371],[56,18]],[[1983,1397],[-66,-8]],[[1983,1397],[39,25],[11,4],[17,8]],[[2050,1434],[55,23],[4,0]],[[2109,1457],[1,1],[18,1],[1,0]],[[2129,1459],[8,1],[52,-19]],[[2189,1441],[-60,18]],[[2129,1459],[-1,0],[-18,-1],[-1,-1]],[[2109,1457],[-59,-23]],[[2050,1434],[-29,-12],[-38,-25]],[[2189,1441],[113,78]],[[2302,1519],[10,9]],[[2312,1528],[130,121]],[[2436,1651],[14,41]],[[1370,504],[13,19]],[[4029,3475],[5,-2]],[[4034,3473],[35,-18]],[[4071,3458],[-37,15]],[[4034,3473],[-5,1]],[[2537,3147],[1,84]],[[2717,3339],[146,37]],[[1696,1826],[2,7]],[[750,3662],[-131,434]],[[1295,3187],[-555,462]],[[1640,2268],[-16,137],[-65,111],[-14,173],[-42,61],[-34,133],[19,149],[-84,71]],[[1451,1244],[10,0]],[[1698,1833],[-99,177],[-10,105],[71,118]],[[944,558],[4,-42],[-9,-34]],[[939,482],[-11,-45],[-3,-8]],[[925,429],[-3,-6],[-1,-3],[-62,-147],[-46,-91],[-134,-155],[-13,-20]],[[669,10],[145,172],[20,32],[89,210],[2,5]],[[925,429],[14,53]],[[939,482],[10,34],[-4,42]],[[1723,1910],[-2,-95],[-69,-118],[-65,-135],[-70,-173],[-90,-255],[-81,-81],[-70,-11],[-27,-18],[-82,-70],[-73,-94],[-30,-43]],[[1065,817],[103,136],[109,88],[75,13],[76,80],[161,428],[133,254],[6,102]],[[2712,4096],[-37,-95],[-71,-258],[-62,-362],[-254,-479],[-198,-195],[-75,-106],[-29,-52],[-17,-226]],[[1977,2334],[9,208],[28,56],[278,306],[214,392],[37,84],[60,251],[2,113],[65,217],[8,39],[38,96]],[[2461,1464],[0,1]],[[1225,506],[38,-41]],[[1264,464],[2,16],[-37,24]],[[0,2436],[17,-48],[123,-134],[14,-71],[50,-35],[55,-96],[269,-372]],[[113,2288],[-21,33]],[[205,2149],[-50,35],[-9,48]],[[612,1570],[-352,483]],[[611,1570],[77,-96]],[[2553,1528],[16,0]],[[2609,1526],[48,69]],[[0,4096],[4096,0],[0,-1941],[-20,-19],[-41,-11],[-69,59],[-92,99],[-55,38],[-42,-8],[34,-45],[136,-122],[16,-6],[3,-7],[-10,-31],[-20,-29],[-28,-18],[-31,-15],[-210,-154],[-35,-12],[-22,-21],[-24,-7],[-38,29],[-16,36],[-4,40],[-12,35],[-40,22],[9,-57],[-9,-62],[-26,-51],[-42,-21],[-49,11],[-28,24],[-26,32],[-45,28],[-55,13],[-40,2],[-35,9],[-108,96],[-22,26],[-21,44],[-21,0],[-1,-40],[9,-38],[15,-35],[18,-30],[-73,-10],[-207,33],[-90,0],[-29,-16],[-24,-33],[2,-47],[52,28],[258,-50],[34,4],[54,15],[33,3],[39,-9],[70,-43],[40,-17],[0,-25],[-79,5],[-86,-5],[-83,-18],[-70,-30],[269,-21],[74,-30],[33,-66],[-15,-65],[-126,-53],[-69,-53],[-50,-57],[2,-34],[54,6],[78,34],[72,44],[36,36],[44,42],[23,25],[13,29],[21,0],[-11,-67],[-22,-84],[-30,-55],[-38,15],[-18,0],[1,-18],[-5,-4],[-8,1],[-10,-4],[54,-34],[-32,-51],[-240,-151],[-32,-6],[-47,7],[-21,-1],[-112,-56],[-32,14],[-17,91],[2,90],[38,217],[-103,-47],[-16,18],[54,249],[-17,59],[-77,6],[8,-27],[4,-7],[9,4],[19,4],[3,-11],[17,-10],[-29,-40],[-12,-47],[-1,-235],[6,-27],[29,-55],[7,-36],[-13,-63],[-32,-9],[-39,24],[-197,177],[-73,192],[-33,128],[-3,72],[40,60],[-7,18],[-36,5],[-47,25],[-25,44],[-14,45],[-25,31],[-55,-3],[0,-21],[35,-31],[42,-99],[22,-37],[0,-24],[-23,-79],[38,-124],[55,-127],[28,-86],[-33,-83],[-1,-48],[45,-21],[22,-27],[90,-162],[52,24],[44,-10],[35,-29],[26,-34],[40,-67],[-1,-37],[-78,-83],[-95,-133],[-244,-152],[27,126],[100,216],[-7,130],[-24,-31],[-8,-40],[-1,-46],[-7,-48],[-21,-37],[-66,-71],[-14,-23],[-12,-85],[-28,-64],[-133,-161],[-20,-36],[-5,-42],[17,-49],[3,-8],[30,-13],[40,0],[50,-15],[36,-67],[-53,-71],[-137,-104],[-16,0],[-18,13],[-20,32],[-12,31],[-1,12],[-39,-4],[-20,-25],[-13,-28],[-18,-13],[-17,-18],[-1753,0],[0,4096]],[[3120,1447],[39,-13],[-6,43],[38,14],[46,67],[35,-43],[27,10],[-78,-195],[-67,42],[-34,75]],[[990,618],[38,35],[51,3],[19,-108],[-51,-11],[-57,81]],[[1088,77],[42,56],[10,-17],[12,1],[-9,15],[77,40],[25,-20],[27,22],[44,-8],[59,-15],[5,-24],[-35,-28],[16,-14],[-25,-8],[5,-55],[48,-15],[-70,6],[18,31],[-32,46],[24,37],[-61,-40],[30,-47],[-34,-21],[-18,29],[-18,-48],[-46,7],[-27,61],[32,29],[-18,23],[-23,-36],[-58,-7]],[[1177,119],[16,-13],[23,21],[-19,12],[-20,-20]],[[1215,101],[10,-13],[24,-6],[-14,25],[-20,-6]],[[1122,107],[23,-7],[4,12],[-23,7],[-4,-12]],[[1344,136],[4,-4],[7,6],[-7,4],[-4,-6]],[[1171,60],[20,-2],[2,9],[-12,3],[-10,-10]],[[332,4096],[1,-3],[5,-185],[32,-1],[-159,-66],[-45,-85],[36,-49],[-48,-16],[-49,46],[60,70],[-23,15],[66,55],[90,14],[34,85],[-25,120],[25,0]],[[3,4096],[-3,-2],[0,2],[3,0]],[[2394,1845],[47,47],[37,-17],[44,41],[14,-78],[-31,32],[-3,-22],[32,-20],[7,-77],[-94,-52],[-6,28],[-21,-5],[-26,123]],[[655,0],[96,66],[75,-2],[-18,-64],[-153,0]],[[1212,823],[99,-107],[65,-115],[65,0],[46,-64],[43,-19],[72,6],[-32,-153],[-97,-77],[0,-77],[-32,0],[0,-36],[-97,-117],[-73,-15],[-148,37],[-71,54],[33,193],[-82,262],[-113,-71],[-32,39],[1,41],[142,225],[51,2],[33,-38],[93,40],[34,-10]],[[2517,1723],[25,-30],[-66,-56],[-60,21],[-46,59],[-17,76],[26,75],[102,-71],[36,-74]],[[4096,3859],[0,-356],[-34,-61],[-183,186],[21,236],[196,-5]],[[2394,1845],[47,47],[37,-17],[44,41],[14,-78],[-31,32],[-3,-22],[32,-20],[7,-77],[-94,-52],[-6,28],[-21,-5],[-26,123]],[[1059,169],[187,117],[62,-45],[-41,-77],[-44,12],[-101,-68],[-42,14],[-21,47]],[[0,515],[165,-27],[89,6],[19,26],[21,-39],[75,22],[87,-22],[108,-78],[-18,-8],[20,-61],[87,-56],[8,-38],[33,-1],[6,-48],[20,14],[30,-35],[-11,-66],[-84,-103],[-655,-1],[0,515]],[[2376,1406],[45,37],[27,-41],[26,12],[-16,59],[18,-57],[87,3],[57,-90],[-12,-135],[-87,40],[-145,172]]]}