{"objects":{"water":{"type":"GeometryCollection","geometries":[{"type":"MultiPolygon","properties":{"source":"naturalearthdata.com","kind":"ocean","area":1576712559132672,"sort_rank":200,"min_zoom":0.0,"id":1},"arcs":[[[45],[46],[47],[48],[49],[50],[51],[52],[53],[54],[55],[56],[57],[58],[59],[60],[61],[62],[63],[64],[65],[66],[67],[68],[69],[70],[71],[72],[73],[74],[75],[76],[77],[78],[79]],[[80]],[[81]],[[82]]]},{"type":"LineString","properties":{"source":"naturalearthdata.com","kind":"ocean","sort_rank":205,"boundary":true,"min_zoom":0.0,"id":70},"arcs":[83]},{"type":"LineString","properties":{"source":"naturalearthdata.com","kind":"ocean","sort_rank":205,"boundary":true,"min_zoom":0.0,"id":589},"arcs":[84]},{"type":"LineString","properties":{"source":"naturalearthdata.com","kind":"ocean","sort_rank":205,"boundary":true,"min_zoom":0.0,"id":591},"arcs":[85]},{"type":"LineString","properties":{"source":"naturalearthdata.com","kind":"ocean","sort_rank":205,"boundary":true,"min_zoom":0.0,"id":592},"arcs":[86]},{"type":"LineString","properties":{"source":"naturalearthdata.com","kind":"ocean","sort_rank":205,"boundary":true,"min_zoom":0.0,"id":600},"arcs":[87]},{"type":"MultiLineString","properties":{"source":"naturalearthdata.com","kind":"ocean","sort_rank":205,"boundary":true,"min_zoom":0.0,"id":605},"arcs":[[88],[89]]},{"type":"MultiLineString","properties":{"source":"naturalearthdata.com","kind":"ocean","sort_rank":205,"boundary":true,"min_zoom":0.0,"id":609},"arcs":[[90],[91],[92],[93]]},{"type":"LineString","properties":{"source":"naturalearthdata.com","kind":"ocean","sort_rank":205,"boundary":true,"min_zoom":0.0,"id":612},"arcs":[94]},{"type":"LineString","properties":{"source":"naturalearthdata.com","kind":"ocean","sort_rank":205,"boundary":true,"min_zoom":0.0,"id":616},"arcs":[95]},{"type":"LineString","properties":{"source":"naturalearthdata.com","kind":"ocean","sort_rank":205,"boundary":true,"min_zoom":0.0,"id":3681},"arcs":[96]},{"type":"LineString","properties":{"source":"naturalearthdata.com","kind":"ocean","sort_rank":205,"boundary":true,"min_zoom":0.0,"id":3682},"arcs":[97]},{"type":"LineString","properties":{"source":"naturalearthdata.com","kind":"ocean","sort_rank":205,"boundary":true,"min_zoom":0.0,"id":3683},"arcs":[98]},{"type":"LineString","properties":{"source":"naturalearthdata.com","kind":"ocean","sort_rank":205,"boundary":true,"min_zoom":0.0,"id":3684},"arcs":[99]},{"type":"LineString","properties":{"source":"naturalearthdata.com","kind":"ocean","sort_rank":205,"boundary":true,"min_zoom":0.0,"id":3685},"arcs":[100]},{"type":"LineString","properties":{"source":"naturalearthdata.com","kind":"ocean","sort_rank":205,"boundary":true,"min_zoom":0.0,"id":3686},"arcs":[101]},{"type":"LineString","properties":{"source":"naturalearthdata.com","kind":"ocean","sort_rank":205,"boundary":true,"min_zoom":0.0,"id":3687},"arcs":[102]},{"type":"LineString","properties":{"source":"naturalearthdata.com","kind":"ocean","sort_rank":205,"boundary":true,"min_zoom":0.0,"id":3688},"arcs":[103]},{"type":"LineString","properties":{"source":"naturalearthdata.com","kind":"ocean","sort_rank":205,"boundary":true,"min_zoom":0.0,"id":3689},"arcs":[104]},{"type":"LineString","properties":{"source":"naturalearthdata.com","kind":"ocean","sort_rank":205,"boundary":true,"min_zoom":0.0,"id":3690},"arcs":[105]}]},"buildings":{"type":"GeometryCollection","geometries":[]},"places":{"type":"GeometryCollection","geometries":[{"type":"Point","properties":{"kind":"locality","name":"Miami","name:lt":"Majamis","kind_detail":"city","name:ar":"\u0645\u064a\u0627\u0645\u064a","name:eo":"Miamio","official_name":"City of Miami","source":"openstreetmap.org","min_zoom":8.0,"name:uk":"\u041c\u0430\u044f\u043c\u0456","name:ru":"\u041c\u0430\u0439\u0430\u043c\u0438","name:zh":"\u8fc8\u963f\u5bc6","id":154158458,"population":404048},"coordinates":[3987,4014]},{"type":"Point","properties":{"source":"openstreetmap.org","kind":"locality","name":"Kendall","kind_detail":"city","population":114736,"min_zoom":8.0,"id":154217372},"coordinates":[3627,3708]},{"type":"Point","properties":{"kind":"locality","name":"Homestead","kind_detail":"town","source":"openstreetmap.org","min_zoom":8.0,"name:ru":"\u0425\u043e\u043c\u0441\u0442\u0435\u0434","id":154062914,"population":60512},"coordinates":[3165,3040]},{"type":"Point","properties":{"source":"openstreetmap.org","kind":"locality","name":"Marathon","kind_detail":"town","population":9789,"min_zoom":8.0,"id":154362926},"coordinates":[1375,601]}]},"transit":{"type":"GeometryCollection","geometries":[{"type":"MultiLineString","properties":{"kind":"subway","name":"Green Line","sort_rank":275,"colour":"#62bb46","source":"openstreetmap.org","min_zoom":8.0,"operator":"Miami-Dade Transit","osm_relation":true,"colour_name":"limegreen"},"arcs":[[4],[5],[6],[7],[8],[9],[10],[11],[12],[13],[14],[15],[16],[17],[18],[19],[20],[21],[22],[23],[24],[25],[26],[27],[28],[29],[30],[31],[32],[33],[34],[35],[36],[37]]},{"type":"MultiLineString","properties":{"kind":"train","name":"Tri-Rail","sort_rank":275,"colour":"#1E90FF","source":"openstreetmap.org","min_zoom":6.0,"operator":"South Florida Regional Transportation Authority","osm_relation":true,"colour_name":"dodgerblue"},"arcs":[[38],[39],[40]]},{"type":"MultiLineString","properties":{"kind":"subway","name":"Orange Line","sort_rank":275,"colour":"#f78f1e","source":"openstreetmap.org","min_zoom":8.0,"network":"Metrorail","operator":"Miami-Dade Transit","ref":"Orange","osm_relation":true,"colour_name":"goldenrod"},"arcs":[[41],[42],[43],[44]]}]},"pois":{"type":"GeometryCollection","geometries":[{"type":"Point","properties":{"kind":"nature_reserve","name":"National Key Deer Refuge","area":331436000,"source":"openstreetmap.org","min_zoom":8.1,"tier":2,"id":-4438875,"osm_relation":true},"coordinates":[461,678]},{"type":"Point","properties":{"kind":"national_park","tier":1,"protect_class":"2","area":778799000,"source":"openstreetmap.org","min_zoom":5.99,"operator":"United States National Park Service","id":160032399,"name":"Biscayne National Park"},"coordinates":[3867,3141]}]},"boundaries":{"type":"GeometryCollection","geometries":[{"type":"MultiLineString","properties":{"name:ty":"Fenua Marite","name:cy":"Unol Daleithiau America","name:ko":"\ubbf8\uad6d","name:cv":"\u0410\u043c\u0435\u0440\u0438\u043a\u0103\u0440\u0438 \u041f\u0115\u0440\u043b\u0435\u0448\u04f3\u043b\u043b\u0115 \u0428\u0442\u0430\u0442\u0441\u0435\u043c","name:cu":"\u0410\u043c\u0454\u0440\u0438\u043a\u0430\u0301\u043d\u044c\u0441\u043a\ua651 \u0464\u0434\u044c\u043d\u0465\u043d\ua651\u0301 \u0414\u0440\u044c\u0436\u0430\u0301\u0432\ua651","name:kl":"Naalagaaffeqatigiit","name:cs":"Spojen\u00e9 st\u00e1ty americk\u00e9","name:tw":"USA","name:ki":"United States","name:co":"Stati Uniti d'America","name:kv":"\u0410\u043c\u0435\u0440\u0438\u043a\u0430\u0441\u0430 \u04e6\u0442\u0443\u0432\u0442\u04e7\u043c \u0428\u0442\u0430\u0442\u044a\u044f\u0441","name:th":"\u0e2a\u0e2b\u0e23\u0e31\u0e10\u0e2d\u0e40\u0e21\u0e23\u0e34\u0e01\u0e32","name:ks":"\u0938\u0902\u092f\u0941\u0915\u094d\u0924 \u0930\u093e\u091c\u094d\u200d\u092f \u0905\u092e\u0947\u0930\u093f\u0915\u093e","name:to":"Pule\u02bbanga Fakataha 'o 'Amelika","name:tl":"Estados Unidos","name:ce":"I\u0430\u043c\u0435\u0440\u043a\u0430 \u043f\u0430\u0447\u0445\u044c\u0430\u043b\u043a","name:ta":"\u0b85\u0bae\u0bc6\u0bb0\u0bbf\u0b95\u0bcd\u0b95 \u0b90\u0b95\u0bcd\u0b95\u0bbf\u0baf \u0ba8\u0bbe\u0b9f\u0bc1","name:tg":"\u0418\u0451\u043b\u043e\u0442\u0438 \u041c\u0443\u0442\u0442\u0430\u04b3\u0438\u0434\u0430\u0438 \u0410\u043c\u0440\u0438\u043a\u043e","name:ca":"Estats Units d'Am\u00e8rica","name:te":"\u0c05\u0c2e\u0c46\u0c30\u0c3f\u0c15\u0c3e \u0c38\u0c02\u0c2f\u0c41\u0c15\u0c4d\u0c24 \u0c30\u0c3e\u0c37\u0c4d\u0c1f\u0c4d\u0c30\u0c3e\u0c32\u0c41","name:ka":"\u10d0\u10db\u10d4\u10e0\u10d8\u10d9\u10d8\u10e1 \u10e8\u10d4\u10d4\u10e0\u10d7\u10d4\u10d1\u10e3\u10da\u10d8 \u10e8\u10e2\u10d0\u10e2\u10d4\u10d1\u10d8","name:qu":"Hukllachasqa Amirika Suyukuna","name:da":"Amerikas Forenede Stater","name:de":"Vereinigte Staaten von Amerika","name:dz":"\u0f61\u0f74\u0f0b\u0f53\u0f60\u0f72\u0f4a\u0f7a\u0f4a\u0f0b\u0f66\u0f72\u0f0b\u0f4a\u0f7a\u0f66","source":"openstreetmap.org","name:kn":"\u0c85\u0cae\u0cc7\u0cb0\u0cbf\u0c95 \u0cb8\u0c82\u0caf\u0cc1\u0c95\u0ccd\u0ca4 \u0cb8\u0c82\u0cb8\u0ccd\u0ca5\u0cbe\u0ca8","name:dv":"\u0787\u07ac\u0789\u07ac\u0783\u07a8\u0786\u07a7","name:km":"\u179f\u17a0\u179a\u178a\u17d2\u178b\u17a2\u17b6\u1798\u17c1\u179a\u17b7\u1780","name:lv":"Amerikas Savienot\u0101s Valstis","name:lt":"Jungtin\u0117s Amerikos Valstijos","name:uz":"Amerika Qo\u02bbshma Shtatlari","name:kk":"\u0410\u043c\u0435\u0440\u0438\u043a\u0430 \u049a\u04b1\u0440\u0430\u043c\u0430 \u0428\u0442\u0430\u0442\u0442\u0430\u0440\u044b","name:ur":"\u0631\u06cc\u0627\u0633\u062a\u06c1\u0627\u0626\u06d2 \u0645\u062a\u062d\u062f\u06c1 \u0627\u0645\u0631\u06cc\u06a9\u06c1","name:lb":"Vereenegt Staate vun Amerika","name:la":"Civitates Foederatae Americae","name:lg":"Amereka","name:uk":"\u0421\u043f\u043e\u043b\u0443\u0447\u0435\u043d\u0456 \u0428\u0442\u0430\u0442\u0438 \u0410\u043c\u0435\u0440\u0438\u043a\u0438","name:ug":"\u0626\u0627\u0645\u06d0\u0631\u0649\u0643\u0627 \u0642\u0648\u0634\u0645\u0627 \u0634\u062a\u0627\u062a\u0644\u0649\u0631\u0649","name:li":"Vereinegde State van Amerika","name:ln":"Lisang\u00e1 lya Amer\u00edka","name:lo":"\u0eaa\u0eb0\u0eab\u0eb0\u0ea5\u0eb1\u0e94\u0ead\u0eb2\u0ec0\u0ea1\u0ea5\u0eb4\u0e81\u0eb2","name:kw":"Statys Unys Amerika","name:eo":"Usono","name":"United States of America","name:tk":"Amerikany\u0148 Birle\u015fen \u015etatlary","name:ee":"United States","name:ku":"Dewlet\u00ean Yekb\u00fby\u00ee y\u00ean Amer\u00eekay\u00ea","name:eu":"Ameriketako Estatu Batuak","name:tn":"USA","name:es":"Estados Unidos de Am\u00e9rica","name:ay":"Istadus Unidus","name:rm":"Stadis Unids da l'America","name:rn":"Leta Zunze Ubumwe za Amerika","name:az":"Amerika Birl\u0259\u015fmi\u015f \u015etatlar\u0131","name:ie":"Unit States de America","name:id":"Amerika Serikat","name:ig":"Njikota Obodo Amerika","name:el":"\u0397\u03bd\u03c9\u03bc\u03ad\u03bd\u03b5\u03c2 \u03a0\u03bf\u03bb\u03b9\u03c4\u03b5\u03af\u03b5\u03c2 \u03c4\u03b7\u03c2 \u0391\u03bc\u03b5\u03c1\u03b9\u03ba\u03ae\u03c2","name:as":"\u09ae\u09be\u09f0\u09cd\u0995\u09bf\u09a8 \u09af\u09c1\u0995\u09cd\u09a4\u09f0\u09be\u09b7\u09cd\u099f\u09cd\u09f0","name:ar":"\u0627\u0644\u0648\u0644\u0627\u064a\u0627\u062a \u0627\u0644\u0645\u062a\u0651\u062d\u062f\u0629 \u0627\u0644\u0623\u0645\u0631\u064a\u0643\u064a\u0651\u0629","name:io":"Unionita Stati di Amerika","name:av":"\u0410\u043c\u0435\u0440\u0438\u043a\u0430\u043b\u044a\u0443\u043b \u0426\u043e\u043b\u044a\u0430\u0440\u0430\u043b \u0428\u0442\u0430\u0442\u0430\u043b","name:is":"Bandar\u00edki Nor\u00f0ur-Amer\u00edku","name:am":"\u12e8\u1270\u1263\u1260\u1229\u1275 \u12e8\u12a0\u121c\u122a\u12ab \u130d\u12db\u1276\u127d","name:it":"Stati Uniti d'America","name:an":"Estatos Unitos d'America","name:ru":"\u0421\u043e\u0435\u0434\u0438\u043d\u0451\u043d\u043d\u044b\u0435 \u0428\u0442\u0430\u0442\u044b \u0410\u043c\u0435\u0440\u0438\u043a\u0438","name:ab":"\u0410\u043c\u0435\u0440\u0438\u043a\u0430 \u0415\u0438\u0434\u0443 \u0410\u0448\u0442\u0430\u0442\u049b\u04d9\u0430","name:af":"Verenigde State van Amerika","name:zu":"IMelika","kind_detail":"2","old_name:ru":"\u0421\u0435\u0432\u0435\u0440\u043e-\u0410\u043c\u0435\u0440\u0438\u043a\u0430\u043d\u0441\u043a\u0438\u0435 \u0421\u043e\u0435\u0434\u0438\u043d\u0451\u043d\u043d\u044b\u0435 \u0428\u0442\u0430\u0442\u044b","name:za":"Meijgoz","name:zh-yue":"\u5373\u7f8e\u5229\u5805\u5408\u773e\u570b","name:zh":"\u7f8e\u5229\u575a\u5408\u4f17\u56fd","name:so":"Mareykanka","name:sm":"Iunaite Sitete o Amerika","name:sl":"Zdru\u017eene dr\u017eave Amerike","name:sk":"Spojen\u00e9 \u0161t\u00e1ty americk\u00e9","name:ja":"\u30a2\u30e1\u30ea\u30ab\u5408\u8846\u56fd","name:si":"\u0d85'\u0db8\u0dd9\u0dbb\u0dd2\u0d9a\u0dcf\u200d\u0dc0\u0dda \u0d91\u0d9a\u0dca\u0dc3\u0dad\u0dca \u0dbb\u0dcf\u0da2\u0dca\u200d\u0dba\u0dba\u0db1\u0dca","name:sh":"Sjedinjene Ameri\u010dke Dr\u017eave","name:sg":"\u00c2K\u00f6d\u00f6r\u00f6-\u00f4ko t\u00ee Amer\u00eeka","name:se":"Amerihk\u00e1 ovttastuvvan st\u00e1htat","name:sd":"\u0622\u0645\u0631\u064a\u06aa\u0627","name:sc":"Istados Unidos de America","name:sa":"\u0938\u0902\u092f\u0941\u0915\u094d\u0924\u093e\u0928\u093f \u0930\u093e\u091c\u094d\u092f\u093e\u0928\u093f","name:bs":"Sjedinjene Ameri\u010dke Dr\u017eave","name:bm":"Amerika ka Kelenyalen Jamanaw","name:bn":"\u09ae\u09be\u09b0\u09cd\u0995\u09bf\u09a8 \u09af\u09c1\u0995\u09cd\u09a4\u09b0\u09be\u09b7\u09cd\u099f\u09cd\u09b0","name:bo":"\u0f68\u0f0b\u0f58\u0f7a\u0f0b\u0f62\u0f72\u0f0b\u0f41\u0f0b\u0f62\u0f92\u0fb1\u0f63\u0f0b\u0f55\u0fb2\u0f53\u0f0b\u0f58\u0f49\u0f58\u0f0b\u0f60\u0f56\u0fb2\u0f7a\u0f63\u0f0b\u0f62\u0f92\u0fb1\u0f63\u0f0b\u0f41\u0f56\u0f0d","name:br":"Stado\u00f9-Unanet Amerika","name:et":"Ameerika \u00dchendriigid","name:sw":"Muungano wa Madola ya Amerika","name:be":"\u0417\u043b\u0443\u0447\u0430\u043d\u044b\u044f \u0428\u0442\u0430\u0442\u044b \u0410\u043c\u0435\u0440\u044b\u043a\u0456","name:su":"Am\u00e9rika Sarikat","name:bg":"\u0421\u044a\u0435\u0434\u0438\u043d\u0435\u043d\u0438 \u0430\u043c\u0435\u0440\u0438\u043a\u0430\u043d\u0441\u043a\u0438 \u0449\u0430\u0442\u0438","name:ss":"IMelika","name:ba":"\u0410\u043c\u0435\u0440\u0438\u043a\u0430 \u04a0\u0443\u0448\u043c\u0430 \u0428\u0442\u0430\u0442\u0442\u0430\u0440\u044b","name:sq":"Shtetet e Bashkuara t\u00eb Amerik\u00ebs","name:jv":"Am\u00e9rika Sar\u00e9kat","name:bi":"Yunaeted Stet blong Amerika","name:ia":"Statos Unite de America","name:pt":"Estados Unidos da Am\u00e9rica","name:ps":"\u062f \u0627\u0645\u0631\u064a\u06a9\u0627 \u0645\u062a\u062d\u062f\u0647 \u0627\u064a\u0627\u0644\u0627\u062a","name:om":"USA","name:oc":"Estats Units d'America","min_zoom":8.0,"name:ro":"Statele Unite ale Americii","name:zh-min-nan":"America Ha\u030dp-chi\u00f2ng-kok","name:os":"\u0410\u043c\u0435\u0440\u0438\u043a\u00e6\u0439\u044b \u0418\u0443\u0433\u043e\u043d\u0434 \u0428\u0442\u0430\u0442\u0442\u00e6","name:or":"\u0b2f\u0b41\u0b15\u0b4d\u0b24\u0b30\u0b3e\u0b37\u0b4d\u0b1f\u0b4d\u0b30 \u0b06\u0b2e\u0b47\u0b30\u0b3f\u0b15\u0b3e","name:pl":"Stany Zjednoczone Ameryki","sort_rank":262,"name:sr":"\u0421\u0458\u0435\u0434\u0438\u045a\u0435\u043d\u0435 \u0410\u043c\u0435\u0440\u0438\u0447\u043a\u0435 \u0414\u0440\u0436\u0430\u0432\u0435","osm_relation":true,"name:xh":"IYunayithedi Steyitsi","name:pa":"\u0a38\u0a70\u0a2f\u0a41\u0a15\u0a24 \u0a30\u0a3e\u0a1c \u0a05\u0a2e\u0a30\u0a40\u0a15\u0a3e","name:tr":"Amerika Birle\u015fik Devletleri","name:hi":"\u0938\u0902\u092f\u0941\u0915\u094d\u0924 \u0930\u093e\u091c\u094d\u092f \u0905\u092e\u0947\u0930\u093f\u0915\u093e","name:sv":"Amerikas F\u00f6renta Stater","name:he":"\u05d0\u05e8\u05e6\u05d5\u05ea \u05d4\u05d1\u05e8\u05d9\u05ea","name:ha":"kunkiyar taraiyar Amurika","name:hy":"\u0531\u0574\u0565\u0580\u056b\u056f\u0561\u0575\u056b \u0544\u056b\u0561\u0581\u0575\u0561\u056c \u0546\u0561\u0570\u0561\u0576\u0563\u0576\u0565\u0580","name:ht":"Etazini","name:hu":"Amerikai Egyes\u00fclt \u00c1llamok","name:hr":"Sjedinjene Ameri\u010dke Dr\u017eave","kind":"country","name:ts":"United States","name:yi":"\u05e4\u05d0\u05e8\u05d0\u05d9\u05d9\u05e0\u05d9\u05e7\u05d8\u05e2 \u05e9\u05d8\u05d0\u05d8\u05df \u05e4\u05d5\u05df \u05d0\u05de\u05e2\u05e8\u05d9\u05e7\u05e2","name:iu":"\u140a\u14a5\u140a\u14d5\u1472","name:yo":"\u00c0w\u1ecdn \u00ccp\u00ednl\u1eb9\u0300 A\u1e63\u1ecd\u0300kan Am\u1eb9\u0301r\u00edk\u00e0","name:mt":"Stati Uniti tal-Amerika","name:ms":"Amerika Syarikat","name:mr":"\u0905\u092e\u0947\u0930\u093f\u0915\u0947\u091a\u0940 \u0938\u0902\u092f\u0941\u0915\u094d\u0924 \u0938\u0902\u0938\u094d\u0925\u093e\u0928\u0947","name:my":"\u1021\u1019\u1031\u101b\u102d\u1000\u1014\u103a\u1015\u103c\u100a\u103a\u1011\u1031\u102c\u1004\u103a\u1005\u102f","name:mg":"Etazonia","name:vi":"Hoa K\u1ef3","name:ml":"\u0d05\u0d2e\u0d47\u0d30\u0d3f\u0d15\u0d4d\u0d15\u0d28\u0d4d\u200d \u0d10\u0d15\u0d4d\u0d2f\u0d28\u0d3e\u0d1f\u0d41\u0d15\u0d33\u0d4d\u200d","name:mn":"\u0410\u043c\u0435\u0440\u0438\u043a\u0438\u0439\u043d \u041d\u044d\u0433\u0434\u0441\u044d\u043d \u0423\u043b\u0441","name:mi":"Hononga-o-Amerika","id":-148838,"name:mk":"\u0421\u043e\u0435\u0434\u0438\u043d\u0435\u0442\u0438 \u0410\u043c\u0435\u0440\u0438\u043a\u0430\u043d\u0441\u043a\u0438 \u0414\u0440\u0436\u0430\u0432\u0438","name:vo":"Lamerik\u00e4n","name:fa":"\u0627\u06cc\u0627\u0644\u0627\u062a \u0645\u062a\u062d\u062f\u0647 \u0622\u0645\u0631\u06cc\u06a9\u0627","name:rw":"Leta Zunze Ubumwe z\u2019Amerika","name:ff":"Dowlaaji Dentu\u0257i","name:fi":"Amerikan yhdysvallat","name:ky":"\u0410\u043c\u0435\u0440\u0438\u043a\u0430 \u041a\u043e\u0448\u043c\u043e \u0428\u0442\u0430\u0442\u0442\u0430\u0440\u044b","old_name:vi":"M\u1ef9 L\u1ee3i Ki\u00ean;Ma Ly C\u0103n;Nh\u00e3 Di L\u00fd","name:fo":"Sambandsr\u00edki\u00f0 Amerika","alt_name:vi":"Hoa K\u00ec;M\u1ef9;M\u0129","name:fr":"\u00c9tats-Unis d'Am\u00e9rique","name:fy":"Feriene Steaten fan Amearika","name:nl":"Verenigde Staten van Amerika","name:nn":"USA","name:no":"Amerikas forente stater","name:na":"Eben Merika","name:ne":"\u0938\u0902\u092f\u0941\u0915\u094d\u0924 \u0930\u093e\u091c\u094d\u092f \u0905\u092e\u0947\u0930\u093f\u0915\u093e","name:wa":"Estats Unis d' Amerike","name:wo":"Diwaan-yu-Bennoo yu Aamerig","name:nv":"W\u00e1\u00e1shindoon Bik\u00e9yah A\u0142hidadiidzoo\u00edg\u00ed\u00ed","name:ga":"St\u00e1it Aontaithe Mheirice\u00e1","name:gd":"Na St\u00e0itean Aonaichte","name:gn":"Tet\u00e3 pete\u0129 reko Am\u00e9rikagua","name:gl":"Estados Unidos de Am\u00e9rica","maritime_boundary":true,"name:gv":"Steatyn Unnaneysit America","name:gu":"\u0ab8\u0a82\u0aaf\u0ac1\u0a95\u0acd\u0aa4 \u0ab0\u0abe\u0a9c\u0acd\u0aaf \u0a85\u0aae\u0ac7\u0ab0\u0abf\u0a95\u0abe","name:tt":"\u0410\u043c\u0435\u0440\u0438\u043a\u0430 \u041a\u0443\u0448\u043c\u0430 \u0428\u0442\u0430\u0442\u043b\u0430\u0440\u044b"},"arcs":[[0],[1]]},{"type":"MultiLineString","properties":{"name:pt":"Fl\u00f3rida","name:ka":"\u10e4\u10da\u10dd\u10e0\u10d8\u10d3\u10d0","name:ko":"\ud50c\ub85c\ub9ac\ub2e4","name:kn":"\u0cab\u0ccd\u0cb2\u0ccb\u0cb0\u0cbf\u0ca1\u0cbe","name:ar":"\u0641\u0644\u0648\u0631\u064a\u062f\u0627","min_zoom":8.0,"name:tl":"Plorida","name:ru":"\u0424\u043b\u043e\u0440\u0438\u0434\u0430","name:pl":"Floryda","name:ta":"\u0baa\u0bc1\u0bb3\u0bcb\u0bb0\u0bbf\u0b9f\u0bbe","id":-162050,"name:fa":"\u0641\u0644\u0648\u0631\u06cc\u062f\u0627","sort_rank":256,"kind_detail":"4","source":"openstreetmap.org","name:fr":"Floride","osm_relation":true,"name:zh":"\u4f5b\u7f57\u91cc\u8fbe\u5dde","name:ja":"\u30d5\u30ed\u30ea\u30c0\u5dde","name:he":"\u05e4\u05dc\u05d5\u05e8\u05d9\u05d3\u05d4","name:eo":"Florido","name:uk":"\u0424\u043b\u043e\u0440\u0438\u0434\u0430","name:hy":"\u0556\u056c\u0578\u0580\u056b\u0564\u0561","name:be":"\u0424\u043b\u0430\u0440\u044b\u0434\u0430","name:qu":"Florida suyu","name:nv":"\u0141\u00f3odah Hahoodzo","name:th":"\u0e23\u0e31\u0e10\u0e1f\u0e25\u0e2d\u0e23\u0e34\u0e14\u0e32","name:el":"\u03a6\u03bb\u03cc\u03c1\u03b9\u03bd\u03c4\u03b1","kind":"region","name":"Florida","name:is":"Fl\u00f3r\u00edda","maritime_boundary":true,"name:yi":"\u05e4\u05dc\u05d0\u05e8\u05d9\u05d3\u05e2"},"arcs":[[2],[3]]}]},"roads":{"type":"GeometryCollection","geometries":[{"type":"LineString","properties":{"kind":"major_road","network":"US:US","sort_rank":380,"kind_detail":"primary","is_bicycle_related":true,"bicycle_shield_text":"1","bicycle_network":"ncn","source":"openstreetmap.org","min_zoom":8.0,"shield_text":"1","ref":"US 1"},"arcs":[106]},{"type":"LineString","properties":{"kind":"major_road","sort_rank":379,"kind_detail":"secondary","is_bicycle_related":true,"bicycle_shield_text":"1","bicycle_network":"ncn","source":"openstreetmap.org","min_zoom":8.0},"arcs":[107]},{"type":"LineString","properties":{"kind":"major_road","network":"US:US","sort_rank":380,"kind_detail":"primary","bus_network":null,"source":"openstreetmap.org","min_zoom":8.0,"bus_shield_text":"95","shield_text":"41","ref":"US 41","id":47472963},"arcs":[108]},{"type":"LineString","properties":{"bus_network":null,"network":"US:FL","sort_rank":380,"kind_detail":"primary","kind":"major_road","source":"openstreetmap.org","min_zoom":8.0,"bus_shield_text":"344","shield_text":"9336","ref":"FL 9336"},"arcs":[109]},{"type":"MultiLineString","properties":{"bus_network":null,"sort_rank":380,"kind_detail":"primary","kind":"major_road","source":"openstreetmap.org","min_zoom":8.0,"bus_shield_text":"238","landuse_kind":"urban_area"},"arcs":[[110],[111]]},{"type":"MultiLineString","properties":{"bus_network":null,"network":"US:US","sort_rank":381,"kind_detail":"trunk","kind":"major_road","source":"openstreetmap.org","min_zoom":8.0,"bus_shield_text":"38","shield_text":"1","ref":"US 1"},"arcs":[[112],[113]]},{"type":"MultiLineString","properties":{"kind":"major_road","sort_rank":377,"landuse_kind":"urban_area","is_bicycle_related":true,"bicycle_shield_text":"1","cycleway":"lane","source":"openstreetmap.org","min_zoom":8.0,"kind_detail":"tertiary","bicycle_network":"ncn"},"arcs":[[114],[115]]},{"type":"LineString","properties":{"kind":"major_road","network":"US:FL","sort_rank":380,"kind_detail":"primary","source":"openstreetmap.org","min_zoom":8.0,"landuse_kind":"urban_area","shield_text":"997","ref":"FL997","id":129125788},"arcs":[116]},{"type":"LineString","properties":{"bus_network":null,"network":"US:FL","sort_rank":380,"kind_detail":"primary","kind":"major_road","source":"openstreetmap.org","min_zoom":8.0,"bus_shield_text":"22","shield_text":null,"landuse_kind":"urban_area","ref":"FL 9"},"arcs":[117]},{"type":"LineString","properties":{"kind":"major_road","network":"US:FL","sort_rank":380,"kind_detail":"primary","bus_network":null,"source":"openstreetmap.org","min_zoom":8.0,"bus_shield_text":"344","shield_text":"997","landuse_kind":"urban_area","ref":"FL 997","id":546332379},"arcs":[118]},{"type":"MultiLineString","properties":{"kind":"major_road","sort_rank":377,"kind_detail":"tertiary","is_bicycle_related":true,"bicycle_shield_text":"1","bicycle_network":"ncn","source":"openstreetmap.org","min_zoom":8.0},"arcs":[[119],[120]]},{"type":"LineString","properties":{"bus_network":null,"network":"US:US","sort_rank":380,"kind_detail":"primary","is_bicycle_related":true,"kind":"major_road","bicycle_shield_text":"1","bicycle_network":"ncn","source":"openstreetmap.org","min_zoom":8.0,"bus_shield_text":"95","shield_text":"1","ref":"US 1"},"arcs":[121]},{"type":"LineString","properties":{"kind":"highway","network":"US:FL","sort_rank":383,"landuse_kind":"urban_area","source":"openstreetmap.org","min_zoom":8.0,"all_networks":["US:FL","US:FL:Toll"],"kind_detail":"motorway","shield_text":"836","ref":"FL 836","all_shield_texts":["836","836"]},"arcs":[122]},{"type":"MultiLineString","properties":{"kind":"highway","network":"US:FL","sort_rank":383,"kind_detail":"motorway","source":"openstreetmap.org","min_zoom":8.0,"all_networks":["US:FL"],"shield_text":"970","ref":"FL 970","all_shield_texts":["970"]},"arcs":[[123],[124]]},{"type":"MultiLineString","properties":{"kind":"highway","network":"US:I","sort_rank":383,"kind_detail":"motorway","source":"openstreetmap.org","min_zoom":8.0,"all_networks":["US:I","US:FL"],"shield_text":"395","ref":"I 395","all_shield_texts":["395",null]},"arcs":[[125],[126]]},{"type":"MultiLineString","properties":{"bus_network":null,"sort_rank":377,"kind_detail":"tertiary","is_bicycle_related":true,"kind":"major_road","bicycle_shield_text":"ECG","bicycle_network":"ncn","source":"openstreetmap.org","min_zoom":8.0,"bus_shield_text":"A","cycleway":"lane"},"arcs":[[127],[128],[129],[130],[131],[132],[133],[134],[135],[136],[137]]},{"type":"LineString","properties":{"kind":"major_road","network":"US:FL","sort_rank":380,"kind_detail":"primary","bus_network":null,"source":"openstreetmap.org","min_zoom":8.0,"bus_shield_text":"48","shield_text":"953","landuse_kind":"urban_area","ref":"FL 953","id":83144620},"arcs":[138]},{"type":"MultiLineString","properties":{"bus_network":null,"network":"US:US","sort_rank":381,"kind_detail":"trunk","kind":"major_road","source":"openstreetmap.org","min_zoom":8.0,"bus_shield_text":"35","shield_text":"1","ref":"US 1"},"arcs":[[139],[140]]},{"type":"MultiLineString","properties":{"bus_network":null,"network":"US:US","sort_rank":381,"landuse_kind":"urban_area","kind":"major_road","source":"openstreetmap.org","min_zoom":8.0,"bus_shield_text":"57","shield_text":"1","kind_detail":"trunk","ref":"US 1"},"arcs":[[141],[142],[143]]},{"type":"MultiLineString","properties":{"bus_network":null,"network":"US:US","sort_rank":381,"landuse_kind":"urban_area","kind":"major_road","source":"openstreetmap.org","min_zoom":8.0,"bus_shield_text":"1","shield_text":"1","kind_detail":"trunk","ref":"US 1"},"arcs":[[144],[145],[146],[147]]},{"type":"MultiLineString","properties":{"bus_network":null,"network":"US:FL","sort_rank":380,"kind_detail":"primary","kind":"major_road","source":"openstreetmap.org","min_zoom":8.0,"bus_shield_text":"42A","shield_text":"953","landuse_kind":"urban_area","ref":"FL 953"},"arcs":[[148],[149],[150],[151],[152]]},{"type":"LineString","properties":{"kind":"major_road","sort_rank":380,"kind_detail":"primary","bus_network":null,"source":"openstreetmap.org","min_zoom":8.0,"bus_shield_text":"136","landuse_kind":"urban_area","id":83144619},"arcs":[153]},{"type":"MultiLineString","properties":{"bus_network":null,"network":"US:US","sort_rank":380,"kind_detail":"primary","is_bicycle_related":true,"kind":"major_road","bicycle_shield_text":"1","bicycle_network":"ncn","source":"openstreetmap.org","min_zoom":8.0,"bus_shield_text":"B","shield_text":"1","ref":"US 1"},"arcs":[[154],[155]]},{"type":"MultiLineString","properties":{"sort_rank":380,"kind_detail":"primary","min_zoom":8.0,"kind":"major_road","source":"openstreetmap.org"},"arcs":[[156],[157],[158]]},{"type":"MultiLineString","properties":{"bus_network":null,"network":"US:US","sort_rank":380,"kind_detail":"primary","is_bicycle_related":true,"kind":"major_road","bicycle_shield_text":"ECG","bicycle_network":"ncn","source":"openstreetmap.org","min_zoom":8.0,"bus_shield_text":"C","shield_text":"1","ref":"US 1"},"arcs":[[159],[160],[161]]},{"type":"LineString","properties":{"bus_network":null,"network":"US:US","sort_rank":380,"kind_detail":"primary","is_bicycle_related":true,"kind":"major_road","bicycle_shield_text":"ECG","bicycle_network":"ncn","source":"openstreetmap.org","min_zoom":8.0,"bus_shield_text":"8A","shield_text":"41","ref":"US 41"},"arcs":[162]},{"type":"MultiLineString","properties":{"kind":"path","sort_rank":354,"landuse_kind":"urban_area","is_bicycle_related":true,"bicycle_shield_text":"ECG","bicycle_network":"ncn","source":"openstreetmap.org","min_zoom":8.0,"kind_detail":"cycleway"},"arcs":[[163],[164],[165],[166],[167],[168],[169],[170],[171],[172]]},{"type":"LineString","properties":{"kind":"major_road","network":"US:FL","sort_rank":380,"kind_detail":"primary","is_bicycle_related":true,"cycleway":"lane","source":"openstreetmap.org","min_zoom":8.0,"shield_text":"9336","ref":"FL 9336"},"arcs":[173]},{"type":"MultiLineString","properties":{"kind":"path","sort_rank":354,"kind_detail":"footway","is_bicycle_related":true,"bicycle_shield_text":"ECG","bicycle_network":"ncn","source":"openstreetmap.org","min_zoom":8.0},"arcs":[[174],[175],[176],[177]]},{"type":"MultiLineString","properties":{"bus_network":null,"network":"US:FL","sort_rank":380,"kind_detail":"primary","kind":"major_road","source":"openstreetmap.org","min_zoom":8.0,"bus_shield_text":"52","shield_text":"992","landuse_kind":"urban_area","ref":"FL 992"},"arcs":[[178],[179]]},{"type":"MultiLineString","properties":{"kind":"highway","network":"US:FL","sort_rank":383,"landuse_kind":"urban_area","source":"openstreetmap.org","min_zoom":8.0,"all_networks":["US:FL"],"kind_detail":"motorway","shield_text":"953","ref":"FL 953","all_shield_texts":["953"]},"arcs":[[180],[181]]},{"type":"MultiLineString","properties":{"bus_network":null,"network":"US:US","sort_rank":381,"landuse_kind":"urban_area","kind":"major_road","source":"openstreetmap.org","min_zoom":8.0,"bus_shield_text":"70","shield_text":"1","kind_detail":"trunk","ref":"US 1"},"arcs":[[182],[183]]},{"type":"MultiLineString","properties":{"kind":"major_road","network":"US:FL","sort_rank":380,"kind_detail":"primary","source":"openstreetmap.org","min_zoom":8.0,"landuse_kind":"urban_area","shield_text":null},"arcs":[[184],[185]]},{"type":"LineString","properties":{"kind":"highway","network":"US:I","sort_rank":383,"kind_detail":"motorway","source":"openstreetmap.org","min_zoom":8.0,"all_networks":["US:I"],"landuse_kind":"urban_area","shield_text":"395","ref":"I 395","all_shield_texts":["395"]},"arcs":[186]},{"type":"LineString","properties":{"bus_network":null,"sort_rank":380,"kind_detail":"primary","kind":"major_road","source":"openstreetmap.org","min_zoom":8.0,"bus_shield_text":"252","landuse_kind":"urban_area"},"arcs":[187]},{"type":"MultiLineString","properties":{"bus_network":null,"network":"US:US","sort_rank":381,"landuse_kind":"urban_area","kind":"major_road","source":"openstreetmap.org","min_zoom":8.0,"bus_shield_text":"48","shield_text":"1","kind_detail":"trunk","ref":"US 1"},"arcs":[[188],[189],[190]]},{"type":"MultiLineString","properties":{"kind":"minor_road","sort_rank":360,"kind_detail":"residential","is_bicycle_related":true,"bicycle_shield_text":"ECG","bicycle_network":"ncn","source":"openstreetmap.org","min_zoom":8.0},"arcs":[[191],[192],[193],[194],[195],[196],[197],[198],[199],[200],[201],[202],[203],[204],[205],[206]]},{"type":"MultiLineString","properties":{"kind":"major_road","network":"US:US","sort_rank":381,"kind_detail":"trunk","is_bicycle_related":true,"bicycle_shield_text":"ECG","bicycle_network":"ncn","source":"openstreetmap.org","min_zoom":8.0,"shield_text":"1","ref":"US 1"},"arcs":[[207],[208],[209],[210],[211],[212],[213],[214],[215],[216],[217]]},{"type":"MultiLineString","properties":{"kind":"major_road","network":"US:US","sort_rank":380,"kind_detail":"primary","is_bicycle_related":true,"bicycle_shield_text":"ECG","bicycle_network":"ncn","source":"openstreetmap.org","min_zoom":8.0,"shield_text":"1","ref":"US 1"},"arcs":[[218],[219]]},{"type":"MultiLineString","properties":{"source":"openstreetmap.org","kind":"major_road","landuse_kind":"urban_area","sort_rank":380,"kind_detail":"primary","ref":"FL 976","min_zoom":8.0},"arcs":[[220],[221],[222],[223]]},{"type":"MultiLineString","properties":{"kind":"major_road","network":"US:US","sort_rank":380,"kind_detail":"primary","source":"openstreetmap.org","min_zoom":8.0,"shield_text":"41","ref":"US 41"},"arcs":[[224],[225],[226],[227],[228],[229]]},{"type":"MultiLineString","properties":{"kind":"highway","network":"US:FL:Toll","sort_rank":383,"landuse_kind":"urban_area","source":"openstreetmap.org","min_zoom":8.0,"all_networks":["US:FL:Toll"],"kind_detail":"motorway","shield_text":"878","ref":"FL 878 Toll","all_shield_texts":["878"]},"arcs":[[230],[231],[232]]},{"type":"MultiLineString","properties":{"kind":"highway","network":"US:FL:Toll","sort_rank":383,"landuse_kind":"urban_area","source":"openstreetmap.org","min_zoom":8.0,"all_networks":["US:FL:Toll"],"kind_detail":"motorway","shield_text":null,"all_shield_texts":[null]},"arcs":[[233],[234],[235],[236],[237],[238]]},{"type":"LineString","properties":{"kind":"major_road","network":"US:FL","sort_rank":380,"kind_detail":"primary","source":"openstreetmap.org","min_zoom":8.0,"landuse_kind":"urban_area","shield_text":"992","ref":"FL 992"},"arcs":[239]},{"type":"LineString","properties":{"kind":"major_road","network":"US:FL","sort_rank":380,"kind_detail":"primary","bus_network":null,"source":"openstreetmap.org","min_zoom":8.0,"bus_shield_text":"35","shield_text":"992","landuse_kind":"urban_area","ref":"FL 992","id":190545159},"arcs":[240]},{"type":"MultiLineString","properties":{"bus_network":null,"network":"US:US","sort_rank":380,"kind_detail":"primary","is_bicycle_related":true,"kind":"major_road","source":"openstreetmap.org","min_zoom":8.0,"bus_shield_text":"B","shield_text":"1","ref":"US 1"},"arcs":[[241],[242]]},{"type":"LineString","properties":{"bus_network":null,"network":"US:US","sort_rank":380,"kind_detail":"primary","kind":"major_road","source":"openstreetmap.org","min_zoom":8.0,"bus_shield_text":"40","shield_text":"41","landuse_kind":"urban_area","ref":"US 41"},"arcs":[243]},{"type":"MultiLineString","properties":{"bus_network":null,"sort_rank":380,"kind_detail":"primary","kind":"major_road","source":"openstreetmap.org","min_zoom":8.0,"bus_shield_text":"1","landuse_kind":"urban_area"},"arcs":[[244],[245],[246],[247]]},{"type":"MultiLineString","properties":{"bus_network":null,"network":"US:US","sort_rank":380,"kind_detail":"primary","kind":"major_road","source":"openstreetmap.org","min_zoom":8.0,"bus_shield_text":"48","shield_text":"1","landuse_kind":"urban_area","ref":"US 1"},"arcs":[[248],[249]]},{"type":"MultiLineString","properties":{"kind":"major_road","sort_rank":355,"kind_detail":"trunk_link","is_bicycle_related":true,"bicycle_shield_text":"1","bicycle_network":"ncn","source":"openstreetmap.org","min_zoom":8.0,"is_link":true},"arcs":[[250],[251]]},{"type":"LineString","properties":{"kind":"major_road","network":"US:US","sort_rank":380,"kind_detail":"primary","source":"openstreetmap.org","min_zoom":8.0,"landuse_kind":"urban_area","shield_text":"1","ref":"US 1"},"arcs":[252]},{"type":"LineString","properties":{"bus_network":null,"network":"US:US","sort_rank":380,"kind_detail":"primary","is_bicycle_related":true,"kind":"major_road","bicycle_shield_text":"ECG","bicycle_network":"ncn","source":"openstreetmap.org","min_zoom":8.0,"bus_shield_text":"3","shield_text":"1","ref":"US 1","id":190525031},"arcs":[253]},{"type":"MultiLineString","properties":{"kind":"major_road","network":"US:US","sort_rank":381,"landuse_kind":"urban_area","source":"openstreetmap.org","min_zoom":8.0,"kind_detail":"trunk","shield_text":"1","ref":"US 1"},"arcs":[[254],[255],[256],[257],[258],[259],[260],[261],[262],[263],[264],[265],[266],[267]]},{"type":"MultiLineString","properties":{"bus_network":null,"network":"US:US","sort_rank":381,"kind_detail":"trunk","kind":"major_road","source":"openstreetmap.org","min_zoom":8.0,"bus_shield_text":"301","shield_text":"1","ref":"US 1"},"arcs":[[268],[269],[270],[271],[272],[273],[274],[275],[276],[277],[278],[279],[280],[281],[282],[283],[284],[285],[286]]},{"type":"MultiLineString","properties":{"bus_network":null,"network":"US:FL","sort_rank":380,"kind_detail":"primary","kind":"major_road","source":"openstreetmap.org","min_zoom":8.0,"bus_shield_text":"204","shield_text":"94","landuse_kind":"urban_area","ref":"FL 94"},"arcs":[[287],[288]]},{"type":"MultiLineString","properties":{"kind":"minor_road","sort_rank":360,"kind_detail":"residential","is_bicycle_related":true,"bicycle_shield_text":"ECG","cycleway":"lane","source":"openstreetmap.org","min_zoom":8.0,"bicycle_network":"ncn"},"arcs":[[289],[290],[291],[292],[293]]},{"type":"MultiLineString","properties":{"bus_network":null,"network":"US:FL","sort_rank":380,"kind_detail":"primary","kind":"major_road","source":"openstreetmap.org","min_zoom":8.0,"bus_shield_text":"42A","shield_text":"976","landuse_kind":"urban_area","ref":"FL 976"},"arcs":[[294],[295],[296]]},{"type":"MultiLineString","properties":{"bus_network":null,"network":"US:FL","sort_rank":380,"kind_detail":"primary","is_bicycle_related":true,"kind":"major_road","cycleway":"shared_lane","source":"openstreetmap.org","min_zoom":8.0,"bus_shield_text":"344","shield_text":"997","landuse_kind":"urban_area","ref":"FL 997"},"arcs":[[297],[298]]},{"type":"LineString","properties":{"bus_network":null,"network":"US:US","sort_rank":380,"kind_detail":"primary","is_bicycle_related":true,"kind":"major_road","source":"openstreetmap.org","min_zoom":8.0,"bus_shield_text":"8A","shield_text":"41","ref":"US 41","id":190659980},"arcs":[299]},{"type":"LineString","properties":{"bus_network":null,"cycleway_left":"shared_lane","network":"US:FL","sort_rank":380,"kind_detail":"primary","is_bicycle_related":true,"cycleway_right":"lane","kind":"major_road","source":"openstreetmap.org","min_zoom":8.0,"bus_shield_text":"344","shield_text":"997","landuse_kind":"urban_area","ref":"FL 997","id":546332321},"arcs":[300]},{"type":"MultiLineString","properties":{"bus_network":null,"sort_rank":380,"kind_detail":"primary","kind":"major_road","source":"openstreetmap.org","min_zoom":8.0,"bus_shield_text":"137","landuse_kind":"urban_area"},"arcs":[[301],[302],[303],[304],[305],[306]]},{"type":"LineString","properties":{"bus_network":null,"network":"US:FL","sort_rank":380,"kind_detail":"primary","is_bicycle_related":true,"kind":"major_road","cycleway":"lane","source":"openstreetmap.org","min_zoom":8.0,"bus_shield_text":"34","shield_text":"9336","ref":"FL 9336","id":132683306},"arcs":[307]},{"type":"LineString","properties":{"kind":"major_road","network":"US:US","sort_rank":380,"kind_detail":"primary","bus_network":null,"source":"openstreetmap.org","min_zoom":8.0,"bus_shield_text":"48","shield_text":"41","ref":"US 41","id":190525259},"arcs":[308]},{"type":"LineString","properties":{"kind":"major_road","network":"US:US","sort_rank":381,"kind_detail":"trunk","is_bicycle_related":true,"source":"openstreetmap.org","min_zoom":8.0,"landuse_kind":"urban_area","shield_text":"1","ref":"US 1","id":42595964},"arcs":[309]},{"type":"LineString","properties":{"bus_network":null,"sort_rank":379,"kind_detail":"secondary","is_bicycle_related":true,"kind":"major_road","bicycle_shield_text":"ECG","bicycle_network":"ncn","source":"openstreetmap.org","min_zoom":8.0,"bus_shield_text":"8A"},"arcs":[310]},{"type":"LineString","properties":{"bus_network":null,"network":"US:US","sort_rank":381,"kind_detail":"trunk","is_bicycle_related":true,"kind":"major_road","bicycle_shield_text":"ECG","cycleway":"lane","source":"openstreetmap.org","min_zoom":8.0,"bus_shield_text":"301","shield_text":"1","bicycle_network":"ncn","ref":"US 1"},"arcs":[311]},{"type":"LineString","properties":{"bus_network":null,"network":"US:US","sort_rank":380,"kind_detail":"primary","is_bicycle_related":true,"kind":"major_road","bicycle_shield_text":"1","bicycle_network":"ncn","source":"openstreetmap.org","min_zoom":8.0,"bus_shield_text":"C","shield_text":"1","ref":"US 1"},"arcs":[312]},{"type":"LineString","properties":{"kind":"major_road","network":"US:FL","sort_rank":380,"kind_detail":"primary","bus_network":null,"source":"openstreetmap.org","min_zoom":8.0,"bus_shield_text":"104","shield_text":"94","landuse_kind":"urban_area","ref":"FL 94","id":190638192},"arcs":[313]},{"type":"MultiLineString","properties":{"kind":"major_road","network":"US:US","sort_rank":380,"kind_detail":"primary","source":"openstreetmap.org","min_zoom":8.0,"landuse_kind":"nature_reserve","shield_text":"41","ref":"US 41"},"arcs":[[314],[315]]},{"type":"MultiLineString","properties":{"kind":"path","footway":"crossing","sort_rank":354,"landuse_kind":"urban_area","is_bicycle_related":true,"bicycle_shield_text":"ECG","bicycle_network":"ncn","source":"openstreetmap.org","min_zoom":8.0,"kind_detail":"footway"},"arcs":[[316],[317]]},{"type":"MultiLineString","properties":{"bus_network":null,"sort_rank":380,"kind_detail":"primary","kind":"major_road","source":"openstreetmap.org","min_zoom":8.0,"bus_shield_text":"7A","landuse_kind":"urban_area"},"arcs":[[318],[319]]},{"type":"LineString","properties":{"kind":"major_road","network":"US:FL","sort_rank":380,"kind_detail":"primary","bus_network":null,"source":"openstreetmap.org","min_zoom":8.0,"bus_shield_text":"243","shield_text":"886","ref":"FL 886","id":11169964},"arcs":[320]},{"type":"LineString","properties":{"kind":"major_road","network":"US:FL","sort_rank":380,"kind_detail":"primary","source":"openstreetmap.org","min_zoom":8.0,"landuse_kind":"urban_area","shield_text":"953","ref":"FL 953","id":83144624},"arcs":[321]},{"type":"MultiLineString","properties":{"kind":"minor_road","sort_rank":358,"landuse_kind":"urban_area","is_bicycle_related":true,"bicycle_shield_text":"ECG","bicycle_network":"ncn","source":"openstreetmap.org","min_zoom":8.0,"kind_detail":"service"},"arcs":[[322],[323]]},{"type":"LineString","properties":{"bus_network":null,"network":"US:FL","sort_rank":380,"kind_detail":"primary","is_bicycle_related":true,"cycleway_right":"lane","source":"openstreetmap.org","min_zoom":8.0,"bus_shield_text":"35","shield_text":"9336","ref":"FL 9336","kind":"major_road"},"arcs":[324]},{"type":"LineString","properties":{"source":"openstreetmap.org","bus_network":null,"bus_shield_text":"7A","sort_rank":380,"kind_detail":"primary","min_zoom":8.0,"kind":"major_road"},"arcs":[325]},{"type":"MultiLineString","properties":{"bus_network":null,"network":"US:US","sort_rank":381,"landuse_kind":"urban_area","kind":"major_road","source":"openstreetmap.org","min_zoom":8.0,"bus_shield_text":"500","shield_text":"1","kind_detail":"trunk","ref":"US 1"},"arcs":[[326],[327],[328],[329],[330],[331],[332],[333],[334]]},{"type":"MultiLineString","properties":{"bus_network":null,"network":"US:FL","sort_rank":380,"kind_detail":"primary","kind":"major_road","source":"openstreetmap.org","min_zoom":8.0,"bus_shield_text":"27A","shield_text":null,"landuse_kind":"urban_area","ref":"FL 9"},"arcs":[[335],[336]]},{"type":"MultiLineString","properties":{"kind":"minor_road","sort_rank":360,"kind_detail":"unclassified","is_bicycle_related":true,"bicycle_shield_text":"ECG","bicycle_network":"ncn","source":"openstreetmap.org","min_zoom":8.0},"arcs":[[337],[338]]},{"type":"MultiLineString","properties":{"kind":"highway","network":"US:FL:Toll","sort_rank":383,"kind_detail":"motorway","source":"openstreetmap.org","min_zoom":8.0,"all_networks":["US:FL:Toll"],"shield_text":null,"all_shield_texts":[null]},"arcs":[[339],[340],[341],[342],[343],[344]]},{"type":"LineString","properties":{"bus_network":null,"sort_rank":380,"kind_detail":"primary","kind":"major_road","source":"openstreetmap.org","min_zoom":8.0,"bus_shield_text":"95","landuse_kind":"urban_area"},"arcs":[345]},{"type":"LineString","properties":{"kind":"path","sort_rank":354,"kind_detail":"path","is_bicycle_related":true,"bicycle_shield_text":"ECG","bicycle_network":"ncn","source":"openstreetmap.org","min_zoom":8.0},"arcs":[346]},{"type":"LineString","properties":{"kind":"major_road","network":"US:US","sort_rank":381,"kind_detail":"trunk","bus_network":null,"source":"openstreetmap.org","min_zoom":8.0,"bus_shield_text":"72A","shield_text":"1","landuse_kind":"urban_area","ref":"US 1","id":190854582},"arcs":[347]},{"type":"LineString","properties":{"kind":"major_road","sort_rank":379,"kind_detail":"secondary","is_bicycle_related":true,"bicycle_shield_text":"ECG","bicycle_network":"ncn","source":"openstreetmap.org","min_zoom":8.0,"id":120108978},"arcs":[348]},{"type":"MultiLineString","properties":{"bus_network":null,"network":"US:FL","sort_rank":380,"kind_detail":"primary","is_bicycle_related":true,"kind":"major_road","cycleway":"lane","source":"openstreetmap.org","min_zoom":8.0,"bus_shield_text":"70","shield_text":"997","landuse_kind":"urban_area","ref":"FL 997"},"arcs":[[349],[350]]},{"type":"MultiLineString","properties":{"bus_network":null,"network":"US:US","sort_rank":381,"landuse_kind":"urban_area","kind":"major_road","source":"openstreetmap.org","min_zoom":8.0,"bus_shield_text":"38","shield_text":"1","kind_detail":"trunk","ref":"US 1"},"arcs":[[351],[352],[353]]},{"type":"LineString","properties":{"bus_network":null,"network":"US:US","sort_rank":380,"kind_detail":"primary","is_bicycle_related":true,"kind":"major_road","source":"openstreetmap.org","min_zoom":8.0,"bus_shield_text":"8A","shield_text":"41","landuse_kind":"urban_area","ref":"US 41","id":190659980},"arcs":[354]},{"type":"LineString","properties":{"bus_network":null,"network":"US:FL","sort_rank":380,"kind_detail":"primary","kind":"major_road","source":"openstreetmap.org","min_zoom":8.0,"bus_shield_text":"136","shield_text":"953","landuse_kind":"urban_area","ref":"FL 953"},"arcs":[355]},{"type":"MultiLineString","properties":{"kind":"highway","network":"US:FL:Toll","sort_rank":383,"landuse_kind":"urban_area","source":"openstreetmap.org","min_zoom":8.0,"all_networks":["US:FL:Toll"],"kind_detail":"motorway","shield_text":"836","ref":"FL 836 Toll","all_shield_texts":["836"]},"arcs":[[356],[357]]},{"type":"LineString","properties":{"kind":"major_road","sort_rank":355,"kind_detail":"trunk_link","is_bicycle_related":true,"bicycle_shield_text":"ECG","bicycle_network":"ncn","source":"openstreetmap.org","min_zoom":8.0,"is_link":true,"id":132683348},"arcs":[358]},{"type":"MultiLineString","properties":{"bus_network":null,"network":"US:FL","sort_rank":381,"landuse_kind":"urban_area","kind":"major_road","source":"openstreetmap.org","min_zoom":8.0,"bus_shield_text":"42A","shield_text":"953","kind_detail":"trunk","ref":"FL 953"},"arcs":[[359],[360],[361]]},{"type":"LineString","properties":{"kind":"major_road","network":"US:FL","sort_rank":380,"kind_detail":"primary","bus_network":null,"source":"openstreetmap.org","min_zoom":8.0,"bus_shield_text":"137","shield_text":null,"landuse_kind":"urban_area","id":190659915},"arcs":[362]},{"type":"LineString","properties":{"kind":"highway","network":"US:FL","sort_rank":383,"landuse_kind":"urban_area","source":"openstreetmap.org","min_zoom":8.0,"all_networks":["US:FL"],"kind_detail":"motorway","shield_text":"836","ref":"FL 836","all_shield_texts":["836"]},"arcs":[363]},{"type":"LineString","properties":{"bus_network":null,"sort_rank":377,"kind_detail":"tertiary","is_bicycle_related":true,"kind":"major_road","bicycle_shield_text":"ECG","bicycle_network":"ncn","source":"openstreetmap.org","min_zoom":8.0,"bus_shield_text":"A"},"arcs":[364]},{"type":"MultiLineString","properties":{"kind":"major_road","sort_rank":377,"kind_detail":"tertiary","is_bicycle_related":true,"bicycle_shield_text":"ECG","bicycle_network":"ncn","source":"openstreetmap.org","min_zoom":8.0},"arcs":[[365],[366]]},{"type":"MultiLineString","properties":{"kind":"highway","network":"US:FL","sort_rank":383,"kind_detail":"motorway","source":"openstreetmap.org","min_zoom":8.0,"all_networks":["US:FL"],"shield_text":"887","ref":"FL 887","all_shield_texts":["887"]},"arcs":[[367],[368]]},{"type":"MultiLineString","properties":{"bus_network":null,"sort_rank":380,"kind_detail":"primary","kind":"major_road","source":"openstreetmap.org","min_zoom":8.0,"bus_shield_text":"88","landuse_kind":"urban_area"},"arcs":[[369],[370]]},{"type":"LineString","properties":{"bus_network":null,"network":"US:US","sort_rank":381,"landuse_kind":"urban_area","kind":"major_road","source":"openstreetmap.org","min_zoom":8.0,"bus_shield_text":"200","shield_text":"1","kind_detail":"trunk","ref":"US 1"},"arcs":[371]},{"type":"MultiLineString","properties":{"kind":"minor_road","sort_rank":358,"kind_detail":"service","is_bicycle_related":true,"bicycle_shield_text":"ECG","bicycle_network":"ncn","source":"openstreetmap.org","min_zoom":8.0},"arcs":[[372],[373],[374],[375],[376],[377],[378],[379],[380],[381],[382]]},{"type":"LineString","properties":{"kind":"path","footway":"sidewalk","sort_rank":354,"kind_detail":"footway","is_bicycle_related":true,"bicycle_shield_text":"ECG","bicycle_network":"ncn","source":"openstreetmap.org","min_zoom":8.0},"arcs":[383]},{"type":"LineString","properties":{"kind":"major_road","network":"US:FL:CR:Monroe","sort_rank":379,"kind_detail":"secondary","is_bicycle_related":true,"bicycle_shield_text":"ECG","bicycle_network":"ncn","source":"openstreetmap.org","min_zoom":8.0,"shield_text":"905","ref":"CR 905"},"arcs":[384]},{"type":"MultiLineString","properties":{"sort_rank":381,"source":"openstreetmap.org","min_zoom":8.0,"kind":"major_road","kind_detail":"trunk"},"arcs":[[385],[386],[387],[388],[389],[390],[391],[392],[393],[394],[395],[396],[397],[398],[399],[400]]},{"type":"LineString","properties":{"kind":"major_road","network":"US:US","sort_rank":381,"kind_detail":"trunk","is_bicycle_related":true,"bicycle_shield_text":"ECG","cycleway":"lane","source":"openstreetmap.org","min_zoom":8.0,"shield_text":"1","bicycle_network":"ncn","ref":"US 1","id":83148065},"arcs":[401]},{"type":"LineString","properties":{"kind":"highway","network":"US:FL:Toll","sort_rank":383,"kind_detail":"motorway","source":"openstreetmap.org","min_zoom":8.0,"all_networks":["US:FL:Toll"],"landuse_kind":"urban_area","shield_text":"878","ref":"878 Toll","id":129125811,"all_shield_texts":["878"]},"arcs":[402]},{"type":"LineString","properties":{"kind":"highway","network":"US:I","sort_rank":383,"landuse_kind":"urban_area","source":"openstreetmap.org","min_zoom":8.0,"all_networks":["US:I","US:FL"],"kind_detail":"motorway","shield_text":"395","ref":"I 395","all_shield_texts":["395",null]},"arcs":[403]},{"type":"LineString","properties":{"bus_network":null,"network":"US:FL","sort_rank":380,"kind_detail":"primary","kind":"major_road","source":"openstreetmap.org","min_zoom":8.0,"bus_shield_text":"6","shield_text":null,"landuse_kind":"urban_area","ref":"FL 9"},"arcs":[404]},{"type":"MultiLineString","properties":{"bus_network":null,"network":"US:US","sort_rank":380,"kind_detail":"primary","is_bicycle_related":true,"kind":"major_road","bicycle_shield_text":"1","bicycle_network":"ncn","source":"openstreetmap.org","min_zoom":8.0,"bus_shield_text":"24","shield_text":"1","ref":"US 1"},"arcs":[[405],[406]]},{"type":"LineString","properties":{"bus_network":null,"network":"US:US","short_name":"NE 1st Avenue","sort_rank":381,"landuse_kind":"urban_area","kind":"major_road","source":"openstreetmap.org","min_zoom":8.0,"bus_shield_text":"38","shield_text":"1","kind_detail":"trunk","ref":"US 1"},"arcs":[407]},{"type":"MultiLineString","properties":{"bus_network":null,"network":"US:US","sort_rank":380,"kind_detail":"primary","is_bicycle_related":true,"kind":"major_road","bicycle_shield_text":"ECG","bicycle_network":"ncn","source":"openstreetmap.org","min_zoom":8.0,"bus_shield_text":"24","shield_text":"1","ref":"US 1"},"arcs":[[408],[409]]},{"type":"LineString","properties":{"kind":"major_road","network":"US:US","sort_rank":380,"kind_detail":"primary","bus_network":null,"source":"openstreetmap.org","min_zoom":8.0,"bus_shield_text":"7A","shield_text":"441","landuse_kind":"urban_area","ref":"US 441","id":184336544},"arcs":[410]},{"type":"LineString","properties":{"bus_network":null,"network":"US:FL","sort_rank":380,"kind_detail":"primary","kind":"major_road","source":"openstreetmap.org","min_zoom":8.0,"bus_shield_text":"73","shield_text":"94","landuse_kind":"urban_area","ref":"FL 94"},"arcs":[411]},{"type":"LineString","properties":{"kind":"major_road","sort_rank":380,"kind_detail":"primary","bus_network":null,"source":"openstreetmap.org","min_zoom":8.0,"bus_shield_text":"48","landuse_kind":"urban_area","id":83144623},"arcs":[412]},{"type":"MultiLineString","properties":{"source":"openstreetmap.org","kind":"major_road","kind_detail":"trunk","sort_rank":381,"landuse_kind":"urban_area","ref":"US 1","min_zoom":8.0},"arcs":[[413],[414]]},{"type":"MultiLineString","properties":{"bus_network":null,"network":"US:FL","sort_rank":380,"kind_detail":"primary","kind":"major_road","source":"openstreetmap.org","min_zoom":8.0,"bus_shield_text":"72A","shield_text":"94","landuse_kind":"urban_area","ref":"FL 94"},"arcs":[[415],[416]]},{"type":"LineString","properties":{"kind":"highway","network":"US:FL","sort_rank":383,"kind_detail":"motorway","is_bicycle_related":true,"source":"openstreetmap.org","min_zoom":8.0,"all_networks":["US:FL"],"shield_text":"1A","ref":"FL A1A","id":419667703,"all_shield_texts":["1A"]},"arcs":[417]},{"type":"LineString","properties":{"kind":"major_road","sort_rank":380,"kind_detail":"primary","bus_network":null,"source":"openstreetmap.org","min_zoom":8.0,"bus_shield_text":"8A","id":87573094},"arcs":[418]},{"type":"MultiLineString","properties":{"bus_network":null,"sort_rank":380,"kind_detail":"primary","kind":"major_road","source":"openstreetmap.org","min_zoom":8.0,"bus_shield_text":"72","landuse_kind":"urban_area"},"arcs":[[419],[420]]},{"type":"LineString","properties":{"bus_network":null,"network":"US:US","sort_rank":380,"kind_detail":"primary","is_bicycle_related":true,"kind":"major_road","bicycle_shield_text":"ECG","bicycle_network":"ncn","source":"openstreetmap.org","min_zoom":8.0,"bus_shield_text":"95","shield_text":"1","ref":"US 1"},"arcs":[421]},{"type":"MultiLineString","properties":{"source":"openstreetmap.org","kind":"major_road","kind_detail":"trunk","sort_rank":381,"landuse_kind":"urban_area","min_zoom":8.0},"arcs":[[422],[423]]},{"type":"LineString","properties":{"bus_network":null,"network":"US:FL","sort_rank":380,"kind_detail":"primary","kind":"major_road","source":"openstreetmap.org","min_zoom":8.0,"bus_shield_text":"57","shield_text":"992","landuse_kind":"urban_area","ref":"FL 992"},"arcs":[424]},{"type":"LineString","properties":{"bus_network":null,"cycleway_left":"shared_lane","network":"US:FL","sort_rank":380,"kind_detail":"primary","is_bicycle_related":true,"cycleway_right":"lane","kind":"major_road","source":"openstreetmap.org","min_zoom":8.0,"bus_shield_text":"70","shield_text":"997","landuse_kind":"urban_area","ref":"FL 997","id":546332318},"arcs":[425]},{"type":"MultiLineString","properties":{"kind":"highway","network":"US:FL","sort_rank":383,"landuse_kind":"urban_area","source":"openstreetmap.org","min_zoom":8.0,"all_networks":["US:FL"],"kind_detail":"motorway","shield_text":"826","ref":"FL 826","all_shield_texts":["826"]},"arcs":[[426],[427]]},{"type":"MultiLineString","properties":{"kind":"highway","network":"US:I","sort_rank":383,"landuse_kind":"urban_area","source":"openstreetmap.org","min_zoom":8.0,"all_networks":["US:I","US:FL"],"kind_detail":"motorway","shield_text":"95","ref":"I 95","all_shield_texts":["95",null]},"arcs":[[428],[429]]},{"type":"LineString","properties":{"bus_network":null,"sort_rank":380,"kind_detail":"primary","kind":"major_road","source":"openstreetmap.org","min_zoom":8.0,"bus_shield_text":"37","landuse_kind":"urban_area"},"arcs":[430]},{"type":"LineString","properties":{"kind":"major_road","network":"US:US","sort_rank":380,"kind_detail":"primary","source":"openstreetmap.org","min_zoom":8.0,"landuse_kind":"park","shield_text":"41","ref":"US 41"},"arcs":[431]},{"type":"MultiLineString","properties":{"bus_network":null,"network":"US:US","sort_rank":381,"kind_detail":"trunk","is_bicycle_related":true,"kind":"major_road","bicycle_shield_text":"ECG","bicycle_network":"ncn","source":"openstreetmap.org","min_zoom":8.0,"bus_shield_text":"301","shield_text":"1","ref":"US 1"},"arcs":[[432],[433],[434],[435],[436],[437],[438],[439],[440],[441],[442],[443],[444],[445],[446],[447]]},{"type":"MultiLineString","properties":{"kind":"major_road","network":"US:US","sort_rank":380,"kind_detail":"primary","source":"openstreetmap.org","min_zoom":8.0,"landuse_kind":"urban_area","shield_text":"41","ref":"US 41"},"arcs":[[448],[449],[450],[451],[452]]},{"type":"MultiLineString","properties":{"bus_network":null,"network":"US:US","sort_rank":380,"kind_detail":"primary","kind":"major_road","source":"openstreetmap.org","min_zoom":8.0,"bus_shield_text":"8A","shield_text":"41","ref":"US 41"},"arcs":[[453],[454]]},{"type":"MultiLineString","properties":{"bus_network":null,"network":"US:FL","sort_rank":380,"kind_detail":"primary","kind":"major_road","source":"openstreetmap.org","min_zoom":8.0,"bus_shield_text":"88A","shield_text":"94","landuse_kind":"urban_area","ref":"FL 94"},"arcs":[[455],[456]]},{"type":"LineString","properties":{"kind":"major_road","sort_rank":355,"kind_detail":"primary_link","is_bicycle_related":true,"bicycle_shield_text":"ECG","bicycle_network":"ncn","source":"openstreetmap.org","min_zoom":8.0,"is_link":true},"arcs":[457]},{"type":"MultiLineString","properties":{"bus_network":null,"network":"US:US","sort_rank":381,"landuse_kind":"urban_area","kind":"major_road","source":"openstreetmap.org","min_zoom":8.0,"bus_shield_text":"35","shield_text":"1","kind_detail":"trunk","ref":"US 1"},"arcs":[[458],[459],[460],[461],[462],[463]]},{"type":"LineString","properties":{"bus_network":null,"network":"US:US","sort_rank":380,"kind_detail":"primary","kind":"major_road","source":"openstreetmap.org","min_zoom":8.0,"bus_shield_text":"77","shield_text":"441","landuse_kind":"urban_area","ref":"US 441"},"arcs":[464]},{"type":"LineString","properties":{"bus_network":null,"network":"US:FL","sort_rank":380,"kind_detail":"primary","is_bicycle_related":true,"kind":"major_road","bicycle_shield_text":"ECG","bicycle_network":"ncn","source":"openstreetmap.org","min_zoom":8.0,"bus_shield_text":"35","shield_text":"9336","ref":"FL 9336"},"arcs":[465]},{"type":"MultiLineString","properties":{"kind":"major_road","sort_rank":377,"kind_detail":"tertiary","is_bicycle_related":true,"bicycle_shield_text":"1","cycleway":"lane","source":"openstreetmap.org","min_zoom":8.0,"bicycle_network":"ncn"},"arcs":[[466],[467]]},{"type":"LineString","properties":{"kind":"major_road","cycleway_left":"lane","sort_rank":377,"kind_detail":"tertiary","is_bicycle_related":true,"bus_network":null,"bicycle_shield_text":"ECG","bicycle_network":"ncn","source":"openstreetmap.org","min_zoom":8.0,"bus_shield_text":"A","id":39028111},"arcs":[468]},{"type":"MultiLineString","properties":{"sort_rank":355,"source":"openstreetmap.org","min_zoom":8.0,"name":"Water Taxi Miami - Yellow","kind":"ferry"},"arcs":[[469],[470]]},{"type":"MultiLineString","properties":{"kind":"major_road","network":"US:FL","sort_rank":380,"kind_detail":"primary","source":"openstreetmap.org","min_zoom":8.0,"landuse_kind":"urban_area","shield_text":"976","ref":"FL 976"},"arcs":[[471],[472],[473]]},{"type":"LineString","properties":{"kind":"major_road","sort_rank":380,"kind_detail":"primary","bus_network":null,"source":"openstreetmap.org","min_zoom":8.0,"bus_shield_text":"243","id":11169301},"arcs":[474]},{"type":"LineString","properties":{"kind":"major_road","network":"US:US","sort_rank":381,"kind_detail":"trunk","bus_network":null,"source":"openstreetmap.org","min_zoom":8.0,"bus_shield_text":"73","shield_text":"1","landuse_kind":"urban_area","ref":"US 1","id":190638014},"arcs":[475]},{"type":"LineString","properties":{"kind":"major_road","sort_rank":380,"kind_detail":"primary","bus_network":null,"source":"openstreetmap.org","min_zoom":8.0,"bus_shield_text":"95","id":190525160},"arcs":[476]},{"type":"MultiLineString","properties":{"kind":"major_road","network":"US:US","sort_rank":381,"kind_detail":"trunk","source":"openstreetmap.org","min_zoom":8.0,"shield_text":"1","ref":"US 1"},"arcs":[[477],[478],[479],[480],[481],[482],[483]]},{"type":"MultiLineString","properties":{"bus_network":null,"network":"US:US","sort_rank":380,"kind_detail":"primary","is_bicycle_related":true,"cycleway_right":"lane","source":"openstreetmap.org","min_zoom":8.0,"bus_shield_text":"8A","shield_text":"41","landuse_kind":"urban_area","ref":"US 41","kind":"major_road"},"arcs":[[484],[485]]},{"type":"LineString","properties":{"kind":"major_road","sort_rank":355,"kind_detail":"secondary_link","is_bicycle_related":true,"bicycle_shield_text":"ECG","bicycle_network":"ncn","source":"openstreetmap.org","min_zoom":8.0,"is_link":true},"arcs":[486]},{"type":"LineString","properties":{"kind":"major_road","network":"US:FL","sort_rank":380,"kind_detail":"primary","bus_network":null,"source":"openstreetmap.org","min_zoom":8.0,"bus_shield_text":"252","shield_text":"992","landuse_kind":"urban_area","ref":"FL 992","id":190545160},"arcs":[487]},{"type":"LineString","properties":{"bus_network":null,"network":"US:US","sort_rank":380,"kind_detail":"primary","kind":"major_road","source":"openstreetmap.org","min_zoom":8.0,"bus_shield_text":"51","shield_text":"41","landuse_kind":"urban_area","ref":"US 41"},"arcs":[488]},{"type":"MultiLineString","properties":{"bus_network":null,"network":"US:US","sort_rank":381,"landuse_kind":"urban_area","kind":"major_road","source":"openstreetmap.org","min_zoom":8.0,"bus_shield_text":"52","shield_text":"1","kind_detail":"trunk","ref":"US 1"},"arcs":[[489],[490]]},{"type":"MultiLineString","properties":{"kind":"highway","network":"US:FL","sort_rank":383,"kind_detail":"motorway","source":"openstreetmap.org","min_zoom":8.0,"all_networks":["US:FL"],"shield_text":"1A","ref":"FL A1A","all_shield_texts":["1A"]},"arcs":[[491],[492]]},{"type":"MultiLineString","properties":{"bus_network":null,"network":"US:FL","sort_rank":381,"kind_detail":"trunk","kind":"major_road","source":"openstreetmap.org","min_zoom":8.0,"bus_shield_text":"243","shield_text":"886","ref":"FL 886"},"arcs":[[493],[494]]},{"type":"LineString","properties":{"kind":"highway","network":"US:I","sort_rank":383,"kind_detail":"motorway","source":"openstreetmap.org","min_zoom":8.0,"all_networks":["US:I"],"shield_text":"395","ref":"I 395","all_shield_texts":["395"]},"arcs":[495]},{"type":"MultiLineString","properties":{"kind":"major_road","network":"US:FL","sort_rank":380,"kind_detail":"primary","source":"openstreetmap.org","min_zoom":8.0,"landuse_kind":"urban_area","shield_text":"997","ref":"FL 997"},"arcs":[[496],[497],[498],[499]]},{"type":"MultiLineString","properties":{"source":"openstreetmap.org","kind":"major_road","landuse_kind":"urban_area","sort_rank":380,"kind_detail":"primary","min_zoom":8.0},"arcs":[[500],[501],[502],[503],[504],[505],[506],[507],[508],[509],[510],[511],[512],[513],[514],[515],[516],[517],[518]]},{"type":"MultiLineString","properties":{"bus_network":null,"network":"US:FL","sort_rank":380,"kind_detail":"primary","kind":"major_road","source":"openstreetmap.org","min_zoom":8.0,"bus_shield_text":"40B","shield_text":"976","landuse_kind":"urban_area","ref":"FL 976"},"arcs":[[519],[520],[521],[522],[523],[524]]},{"type":"MultiLineString","properties":{"kind":"major_road","network":"US:FL","sort_rank":380,"kind_detail":"primary","source":"openstreetmap.org","min_zoom":8.0,"shield_text":"9336","ref":"FL 9336"},"arcs":[[525],[526],[527]]},{"type":"LineString","properties":{"kind":"path","footway":"sidewalk","sort_rank":354,"kind_detail":"footway","is_bicycle_related":true,"bicycle_shield_text":"ECG","bicycle_network":"ncn","source":"openstreetmap.org","min_zoom":8.0,"landuse_kind":"urban_area","id":546332317},"arcs":[528]},{"type":"LineString","properties":{"bus_network":null,"network":"US:FL","sort_rank":380,"kind_detail":"primary","kind":"major_road","source":"openstreetmap.org","min_zoom":8.0,"bus_shield_text":"35","shield_text":"9336","ref":"FL 9336"},"arcs":[529]},{"type":"MultiLineString","properties":{"bus_network":null,"sort_rank":380,"kind_detail":"primary","kind":"major_road","source":"openstreetmap.org","min_zoom":8.0,"bus_shield_text":"40B","landuse_kind":"urban_area"},"arcs":[[530],[531]]},{"type":"MultiLineString","properties":{"bus_network":null,"cycleway_left":"lane","network":"US:FL","sort_rank":380,"kind_detail":"primary","is_bicycle_related":true,"cycleway_right":"shared_lane","source":"openstreetmap.org","min_zoom":8.0,"bus_shield_text":"344","shield_text":"997","landuse_kind":"urban_area","ref":"FL 997","kind":"major_road"},"arcs":[[532],[533]]},{"type":"MultiLineString","properties":{"sort_rank":355,"source":"openstreetmap.org","min_zoom":8.0,"name":"Water Taxi Miami - Green","kind":"ferry"},"arcs":[[534],[535]]},{"type":"MultiLineString","properties":{"bus_network":null,"sort_rank":380,"kind_detail":"primary","kind":"major_road","source":"openstreetmap.org","min_zoom":8.0,"bus_shield_text":"51","landuse_kind":"urban_area"},"arcs":[[536],[537]]},{"type":"LineString","properties":{"kind":"major_road","sort_rank":377,"kind_detail":"tertiary","is_bicycle_related":true,"bus_network":null,"bicycle_shield_text":"ECG","bicycle_network":"ncn","source":"openstreetmap.org","min_zoom":8.0,"bus_shield_text":"10","id":83041271},"arcs":[538]},{"type":"LineString","properties":{"bus_network":null,"network":"US:US","sort_rank":381,"landuse_kind":"urban_area","kind":"major_road","source":"openstreetmap.org","min_zoom":8.0,"bus_shield_text":"88A","shield_text":"1","kind_detail":"trunk","ref":"US 1"},"arcs":[539]},{"type":"LineString","properties":{"source":"openstreetmap.org","kind":"major_road","landuse_kind":"urban_area","sort_rank":380,"kind_detail":"primary","ref":"FL 825","min_zoom":8.0},"arcs":[540]},{"type":"LineString","properties":{"kind":"major_road","network":"US:US","sort_rank":380,"kind_detail":"primary","is_bicycle_related":true,"bicycle_shield_text":"ECG","bicycle_network":"ncn","source":"openstreetmap.org","min_zoom":8.0,"shield_text":"41","ref":"US 41","id":132683252},"arcs":[541]},{"type":"LineString","properties":{"bus_network":null,"network":"US:FL","sort_rank":380,"kind_detail":"primary","is_bicycle_related":true,"kind":"major_road","bicycle_shield_text":"ECG","cycleway":"lane","source":"openstreetmap.org","min_zoom":8.0,"bus_shield_text":"34","shield_text":"9336","bicycle_network":"ncn","ref":"FL 9336","id":190545400},"arcs":[542]},{"type":"MultiLineString","properties":{"bus_network":null,"network":"US:US","sort_rank":380,"kind_detail":"primary","kind":"major_road","source":"openstreetmap.org","min_zoom":8.0,"bus_shield_text":"8A","shield_text":"41","landuse_kind":"urban_area","ref":"US 41"},"arcs":[[543],[544],[545],[546],[547]]},{"type":"LineString","properties":{"bus_network":null,"sort_rank":380,"kind_detail":"primary","kind":"major_road","source":"openstreetmap.org","min_zoom":8.0,"bus_shield_text":"208","landuse_kind":"urban_area"},"arcs":[548]},{"type":"LineString","properties":{"bus_network":null,"network":"US:US","sort_rank":380,"kind_detail":"primary","kind":"major_road","source":"openstreetmap.org","min_zoom":8.0,"bus_shield_text":"3","shield_text":"1","ref":"US 1"},"arcs":[549]},{"type":"LineString","properties":{"bus_network":null,"network":"US:FL","sort_rank":380,"kind_detail":"primary","is_bicycle_related":true,"kind":"major_road","bicycle_shield_text":"ECG","cycleway":"lane","source":"openstreetmap.org","min_zoom":8.0,"bus_shield_text":"35","shield_text":"9336","bicycle_network":"ncn","ref":"FL 9336","id":86912689},"arcs":[550]},{"type":"MultiLineString","properties":{"kind":"highway","network":"US:I","sort_rank":383,"landuse_kind":"urban_area","source":"openstreetmap.org","min_zoom":8.0,"all_networks":["US:I","US:FL","US:NHS High Priority Corridors"],"kind_detail":"motorway","shield_text":"95","ref":"I 95","all_shield_texts":["95",null,"49"]},"arcs":[[551],[552],[553]]},{"type":"MultiLineString","properties":{"bus_network":null,"network":"US:US","sort_rank":380,"kind_detail":"primary","kind":"major_road","source":"openstreetmap.org","min_zoom":8.0,"bus_shield_text":"B","shield_text":"1","landuse_kind":"urban_area","ref":"US 1"},"arcs":[[554],[555]]},{"type":"LineString","properties":{"kind":"major_road","network":"US:FL","sort_rank":380,"kind_detail":"primary","source":"openstreetmap.org","min_zoom":8.0,"landuse_kind":"urban_area","shield_text":"94","ref":"FL 94"},"arcs":[556]},{"type":"MultiLineString","properties":{"kind":"highway","network":"US:FL:Toll","sort_rank":383,"landuse_kind":"urban_area","source":"openstreetmap.org","min_zoom":8.0,"all_networks":["US:FL:Toll"],"kind_detail":"motorway","shield_text":"874","ref":"FL 874 Toll","all_shield_texts":["874"]},"arcs":[[557],[558],[559],[560]]},{"type":"LineString","properties":{"bus_network":null,"network":"US:US","sort_rank":380,"kind_detail":"primary","is_bicycle_related":true,"cycleway_right":"lane","source":"openstreetmap.org","min_zoom":8.0,"bus_shield_text":"137","shield_text":"41","landuse_kind":"urban_area","ref":"US 41","kind":"major_road"},"arcs":[561]},{"type":"LineString","properties":{"bus_network":null,"network":"US:FL","sort_rank":380,"kind_detail":"primary","is_bicycle_related":true,"kind":"major_road","cycleway":"lane","source":"openstreetmap.org","min_zoom":8.0,"bus_shield_text":"35","shield_text":"9336","ref":"FL 9336"},"arcs":[562]},{"type":"MultiLineString","properties":{"cycleway_right":"lane","network":"US:US","sort_rank":380,"kind_detail":"primary","is_bicycle_related":true,"kind":"major_road","source":"openstreetmap.org","min_zoom":8.0,"landuse_kind":"urban_area","shield_text":"41","ref":"US 41"},"arcs":[[563],[564],[565],[566]]},{"type":"MultiLineString","properties":{"bus_network":null,"sort_rank":380,"kind_detail":"primary","kind":"major_road","source":"openstreetmap.org","min_zoom":8.0,"bus_shield_text":"35","landuse_kind":"urban_area"},"arcs":[[567],[568]]},{"type":"LineString","properties":{"kind":"path","sort_rank":354,"landuse_kind":"urban_area","is_bicycle_related":true,"bicycle_shield_text":"ECG","bicycle_network":"ncn","source":"openstreetmap.org","min_zoom":8.0,"kind_detail":"footway"},"arcs":[569]},{"type":"MultiLineString","properties":{"bus_network":null,"network":"US:FL","sort_rank":380,"kind_detail":"primary","kind":"major_road","source":"openstreetmap.org","min_zoom":8.0,"bus_shield_text":"136","shield_text":"825","landuse_kind":"urban_area","ref":"FL 825"},"arcs":[[570],[571]]},{"type":"MultiLineString","properties":{"bus_network":null,"network":"US:FL","sort_rank":380,"kind_detail":"primary","kind":"major_road","source":"openstreetmap.org","min_zoom":8.0,"bus_shield_text":"56A","shield_text":"953","landuse_kind":"urban_area","ref":"FL 953"},"arcs":[[572],[573],[574]]},{"type":"MultiLineString","properties":{"bus_network":null,"network":"US:FL","sort_rank":381,"kind_detail":"trunk","is_bicycle_related":true,"kind":"major_road","cycleway":"lane","source":"openstreetmap.org","min_zoom":8.0,"bus_shield_text":"C","shield_text":"1A","ref":"FL A1A"},"arcs":[[575],[576]]},{"type":"MultiLineString","properties":{"bus_network":null,"network":"US:US","sort_rank":380,"kind_detail":"primary","is_bicycle_related":true,"kind":"major_road","source":"openstreetmap.org","min_zoom":8.0,"bus_shield_text":"B","shield_text":"1","landuse_kind":"urban_area","ref":"US 1"},"arcs":[[577],[578]]},{"type":"MultiLineString","properties":{"bus_network":null,"network":"US:FL","sort_rank":380,"kind_detail":"primary","is_bicycle_related":true,"kind":"major_road","cycleway":"lane","source":"openstreetmap.org","min_zoom":8.0,"bus_shield_text":"344","shield_text":"997","landuse_kind":"urban_area","ref":"FL 997"},"arcs":[[579],[580]]},{"type":"MultiLineString","properties":{"kind":"highway","network":"US:FL","sort_rank":383,"kind_detail":"motorway","is_bicycle_related":true,"cycleway":"lane","source":"openstreetmap.org","min_zoom":8.0,"all_networks":["US:FL"],"shield_text":"1A","ref":"FL A1A","all_shield_texts":["1A"]},"arcs":[[581],[582],[583],[584]]},{"type":"LineString","properties":{"bus_network":null,"sort_rank":380,"kind_detail":"primary","kind":"major_road","source":"openstreetmap.org","min_zoom":8.0,"bus_shield_text":"136","landuse_kind":"urban_area","ref":"FL 825"},"arcs":[585]},{"type":"MultiLineString","properties":{"bus_network":null,"network":"US:FL","sort_rank":380,"kind_detail":"primary","kind":"major_road","source":"openstreetmap.org","min_zoom":8.0,"bus_shield_text":"137","shield_text":"825","landuse_kind":"urban_area","ref":"FL 825"},"arcs":[[586],[587],[588],[589]]},{"type":"MultiLineString","properties":{"kind":"path","sort_rank":354,"kind_detail":"cycleway","is_bicycle_related":true,"bicycle_shield_text":"ECG","bicycle_network":"ncn","source":"openstreetmap.org","min_zoom":8.0},"arcs":[[590],[591],[592],[593],[594],[595],[596],[597],[598],[599],[600],[601],[602],[603],[604],[605],[606],[607],[608],[609],[610],[611],[612],[613],[614]]},{"type":"LineString","properties":{"kind":"highway","network":"US:FL:Toll","sort_rank":383,"kind_detail":"motorway","source":"openstreetmap.org","min_zoom":8.0,"all_networks":["US:FL:Toll"],"shield_text":"836","ref":"FL 836 Toll","all_shield_texts":["836"]},"arcs":[615]},{"type":"LineString","properties":{"kind":"path","sort_rank":354,"kind_detail":"cycleway","is_bicycle_related":true,"bicycle_shield_text":"1","bicycle_network":"ncn","source":"openstreetmap.org","min_zoom":8.0},"arcs":[616]},{"type":"MultiLineString","properties":{"kind":"major_road","network":"US:FL","sort_rank":380,"kind_detail":"primary","source":"openstreetmap.org","min_zoom":8.0,"shield_text":"997","ref":"FL 997"},"arcs":[[617],[618],[619],[620],[621]]},{"type":"LineString","properties":{"cycleway_right":"lane","network":"US:US","sort_rank":381,"kind_detail":"trunk","is_bicycle_related":true,"kind":"major_road","bicycle_shield_text":"ECG","bicycle_network":"ncn","source":"openstreetmap.org","min_zoom":8.0,"shield_text":"1","ref":"US 1","id":83148066},"arcs":[622]}]},"earth":{"type":"GeometryCollection","geometries":[{"type":"MultiPolygon","properties":{"sort_rank":10,"source":"naturalearthdata.com","min_zoom":0.0,"kind":"earth","area":33650669966},"arcs":[[[623]],[[624]],[[625]],[[626]],[[627]],[[628]],[[629]],[[630]],[[631]],[[632]],[[633]],[[634]],[[635]],[[636]],[[637]],[[638]],[[639]],[[640]],[[641]]]}]},"landuse":{"type":"GeometryCollection","geometries":[{"type":"MultiPolygon","properties":{"source":"openstreetmap.org","kind":"nature_reserve","tier":2,"area":1465247751,"sort_rank":23,"min_zoom":6.0,"osm_relation":true},"arcs":[[[642]]]},{"type":"Polygon","properties":{"source":"openstreetmap.org","kind":"nature_reserve","tier":2,"area":6994351170,"sort_rank":23,"min_zoom":4.0,"osm_relation":true},"arcs":[[643]]},{"type":"Polygon","properties":{"kind":"nature_reserve","protect_class":"2","area":36433500,"sort_rank":23,"source":"openstreetmap.org","min_zoom":8.0,"tier":2,"id":145077261},"arcs":[[644]]},{"type":"Polygon","properties":{"kind":"national_park","protect_class":"2","area":778798976,"sort_rank":18,"operator":"United States National Park Service","source":"openstreetmap.org","min_zoom":3.0,"tier":1,"id":160032399},"arcs":[[645]]},{"type":"Polygon","properties":{"source":"naturalearthdata.com","kind":"urban_area","name":"","area":4069822976,"sort_rank":11,"min_zoom":4.0,"id":4082},"arcs":[[646]]},{"type":"MultiPolygon","properties":{"kind":"protected_area","natural":"wetland","area":1205419124,"sort_rank":17,"operator":"South Florida Water Management District","source":"openstreetmap.org","min_zoom":6.0,"tier":2,"osm_relation":true},"arcs":[[[647]]]},{"type":"Polygon","properties":{"source":"openstreetmap.org","kind":"aerodrome","area":12817000,"tier":3,"id":113657169,"min_zoom":8.0,"sort_rank":60},"arcs":[[648]]},{"type":"Polygon","properties":{"kind":"park","area":7664560128,"sort_rank":24,"source":"openstreetmap.org","min_zoom":4.0,"tier":2,"id":-2163707,"osm_relation":true},"arcs":[[649]]}]}},"type":"Topology","transform":{"translate":[-81.5625,24.5271348226],"scale":[0.0003433228,0.0003107315]},"arcs":[[[0,3508],[100,-171],[182,-157],[89,-122],[63,-188],[100,-154],[19,-64],[-61,-271],[-1,-169],[39,-183],[132,-309],[-367,-44],[-131,-63],[-164,-126]],[[1867,0],[25,48],[153,90],[256,128],[268,89],[379,241],[390,311],[80,38],[247,25],[199,102],[112,109],[78,124],[42,118]],[[0,3701],[127,-65],[91,-209],[181,-130],[119,-176],[78,-223],[95,-119],[30,-126],[-81,-360],[41,-203],[147,-347],[261,-238],[53,-105],[-106,53],[-124,25],[-294,-51],[-192,24],[-210,-38],[-216,-106]],[[127,0],[-26,84],[38,37],[145,-38],[129,57],[134,3],[321,89],[72,57],[103,46],[102,11],[63,46],[79,-43],[177,1],[109,95],[66,11],[236,142],[93,22],[101,94],[236,55],[76,73],[305,160],[160,164],[138,75],[69,90],[106,25],[72,49],[41,110],[77,40],[47,58],[18,93],[95,50],[71,85],[105,203],[96,18],[77,88],[25,97],[-40,97],[49,101],[25,27],[85,-13],[73,32],[21,33]],[[3626,3711],[0,1]],[[3626,3712],[3,6]],[[3629,3718],[1,1]],[[3626,3712],[4,7]],[[3630,3719],[11,10]],[[3641,3729],[3,3]],[[3644,3732],[152,136]],[[3630,3719],[-2,-2],[-1,-3]],[[3630,3719],[-1,-1]],[[3796,3869],[-153,-137]],[[3643,3732],[-2,-2]],[[3641,3730],[-11,-11]],[[3641,3730],[1,1]],[[3642,3731],[2,1]],[[3643,3732],[-1,-1]],[[3642,3731],[-1,-2]],[[3797,3869],[-1,0]],[[3803,3875],[-7,-6]],[[3796,3868],[7,7]],[[3803,3875],[-1,-1]],[[3802,3874],[-5,-5]],[[3797,3869],[-1,-1]],[[3802,3874],[1,1]],[[3924,4096],[0,-1],[1,-36],[0,-3],[1,-2],[2,-1],[6,-5],[2,-2],[2,0],[40,-3],[-8,-83]],[[3970,3960],[-7,-6]],[[3963,3954],[-22,-17],[-122,-49],[-5,-3],[-11,-10]],[[3803,3875],[137,62],[23,16]],[[3963,3953],[8,6]],[[3971,3959],[7,84],[-52,12],[-1,41]],[[3963,3954],[1,1]],[[3970,3960],[-1,-2]],[[3969,3958],[-5,-3]],[[3964,3955],[-1,-2]],[[3971,3959],[-2,-1]],[[3798,4096],[1,-13]],[[3798,4096]],[[3798,4096],[1,-13]],[[3626,3712],[189,173],[125,52],[4,2],[32,25],[3,2],[2,4],[1,5],[0,10],[-3,54],[0,3],[-3,3],[-2,2],[-2,0],[-20,0],[-15,-1],[-11,9],[-1,41]],[[3797,4096],[1,-12]],[[3798,4084],[3,12]],[[3923,4096],[3,-42],[11,-8],[42,-5],[1,-72],[-165,-83],[-188,-172]],[[4096,3873],[0,-3873],[-4096,0],[0,245],[92,38],[73,52],[0,24],[-100,118],[-20,34],[-9,4],[-9,-1],[-5,4],[1,17],[-18,0],[-5,-18],[0,3579],[445,0],[8,-10],[11,-10],[10,-6],[0,10],[8,9],[5,7],[24,0],[-10,-7],[2,-15],[77,-31],[21,5],[22,22],[-11,23],[-14,3],[61,0],[20,-30],[22,-25],[-76,-58],[-27,-36],[36,-16],[13,-19],[35,-86],[19,-27],[25,-5],[98,-6],[3,-59],[11,-36],[24,-26],[0,-44],[60,-112],[31,-145],[11,-30],[33,-14],[67,16],[28,-13],[4,-23],[-11,-25],[-17,-21],[-55,-36],[33,-63],[95,-107],[41,-124],[4,-31],[14,-67],[4,-34],[23,-34],[134,-108],[111,-22],[16,-7],[51,-31],[102,-18],[53,-28],[165,-176],[20,-57],[-29,-70],[-50,-38],[-63,-18],[-64,3],[-51,21],[0,20],[16,5],[27,14],[16,5],[0,22],[-222,95],[-38,27],[-9,1],[-51,99],[-19,26],[-30,29],[-35,23],[-35,8],[18,45],[-54,-42],[-48,-107],[-32,-126],[-3,-100],[33,-98],[48,-102],[137,-132],[45,-11],[136,33],[118,11],[94,21],[112,2],[54,10],[67,75],[13,3],[81,54],[43,-41],[86,-18],[-10,-27],[0,-24],[26,-9],[14,-3],[10,10],[10,26],[15,-18],[16,-10],[15,-8],[14,-10],[3,15],[6,9],[6,9],[6,13],[29,-35],[46,-15],[49,-3],[35,7],[58,57],[38,16],[44,-27],[18,0],[17,27],[-2,20],[-10,21],[-5,30],[16,10],[107,24],[-6,-14],[-3,-2],[-4,1],[-9,-7],[46,-16],[26,47],[20,71],[29,52],[44,14],[117,2],[38,6],[11,-21],[4,-9],[3,-14],[-26,-5],[-13,-8],[-8,-12],[-11,-21],[20,-10],[16,-14],[13,-18],[9,-22],[50,32],[58,-8],[44,-41],[9,-71],[22,0],[-10,66],[-35,50],[-53,30],[-63,6],[36,42],[58,27],[45,4],[0,-49],[40,-14],[57,-84],[44,-36],[1,30],[-37,36],[-35,48],[8,64],[3,35],[50,57],[10,30],[5,27],[14,24],[132,151],[106,93],[3,40],[-21,26],[-37,21],[-23,25],[21,61],[24,45],[-12,17],[-20,13],[-13,18],[-10,69],[6,59],[24,59],[48,68],[18,54],[3,158],[10,62],[86,84],[60,137],[5,78],[10,31],[32,29],[28,5],[29,0],[30,12],[43,61],[2,135],[5,13],[109,0],[0,-209],[-19,0],[-9,-22],[-12,-17],[-17,-14],[-22,-15],[0,-20],[13,-4],[8,-5],[8,-6],[11,-7],[-31,-29],[-4,-34],[18,-25],[37,-2],[13,21],[6,165]],[[127,516],[-4,-43],[12,-28],[7,-7],[8,-6],[13,-4],[12,8],[15,4],[18,-5],[17,-17],[11,-23],[9,14],[-4,59],[-8,34],[-9,11],[-22,18],[-23,10],[-17,2],[-14,8],[-10,-2],[-11,-33]],[[385,733],[192,-302],[5,-96],[64,50],[-43,127],[-94,133],[-86,68],[-21,4],[-9,5],[-8,11]],[[1768,778],[-226,-155],[216,92],[43,40],[35,6],[12,7],[12,11],[0,20],[-92,-21]],[[1520,644],[2,23],[-63,-10],[-157,-50],[-60,-28],[94,-1],[32,-19],[15,-48],[15,44],[19,30],[26,22],[68,28],[9,9]],[[679,567],[-22,2],[-12,-12],[9,-22],[9,-11],[27,-18],[23,-30],[6,15],[-15,48],[-25,28]],[[830,420],[4,-7],[29,16],[23,23],[-6,13],[-14,-1],[-36,-44]],[[442,413],[-20,13],[-20,-15],[8,-10],[20,-13],[12,25]],[[353,397],[6,32],[-9,36],[-17,29],[-21,2],[-6,-11],[10,-1],[-4,-5],[-19,-16],[4,-21],[33,-30],[7,-14],[16,-1]],[[2259,962],[-1,14],[-18,0],[-18,-17],[-8,6],[1,22],[5,31],[-130,-94],[-29,-35],[106,8],[48,13],[25,22],[15,20],[4,10]],[[2514,1124],[-4,15],[-59,-46],[-25,-13],[-19,-17],[-6,-22],[13,-1],[45,29],[22,16],[33,39]],[[2753,1323],[-3,11],[-21,-17],[-92,-113],[30,11],[60,63],[25,38],[1,7]],[[2525,1208],[-14,13],[2,-17],[12,4]],[[2269,1320],[-13,10],[11,-13],[2,3]],[[3178,1757],[20,34],[32,-9],[31,18],[237,235],[0,20],[-12,50],[36,78],[95,138],[86,110],[14,33],[6,25],[14,38],[20,36],[20,22],[12,7],[10,8],[10,13],[9,17],[-63,27],[-50,-32],[-79,-115],[-38,-24],[-93,-24],[-19,-19],[11,-37],[22,-17],[22,-21],[7,-47],[-28,-68],[-107,-117],[-56,-140],[-132,28],[-17,-57],[41,17],[33,-12],[17,-31],[-11,-38],[-23,12],[-11,0],[2,-12],[14,-24],[-27,-38],[-31,-17],[-62,-9],[10,-41],[-19,-38],[-72,-76],[-41,-68],[-23,-17],[-46,-5],[-16,-19],[-35,-113],[-33,-13],[-44,-11],[-28,-17],[16,-36],[57,1],[66,66],[107,142],[90,79],[23,33],[26,75]],[[2437,1524],[-18,4],[-1,-21],[19,17]],[[2358,1627],[-10,28],[-10,-11],[20,-32],[0,15]],[[2035,1624],[-11,9],[7,-11],[4,2]],[[2683,1775],[-8,19],[-13,-9],[8,-19],[13,9]],[[2670,1834],[0,23],[-8,13],[-15,9],[-14,-5],[1,-9],[12,-12],[4,-18],[8,-5],[6,-10],[6,14]],[[2602,1850],[-30,4],[40,-24],[-10,20]],[[3101,1847],[6,-9],[37,40],[17,2],[-9,45],[-12,-31],[-21,-18],[-5,-13],[-7,-3],[-6,-13]],[[2699,1916],[-12,39],[-2,7],[-12,-10],[-2,-33],[11,-35],[12,0],[5,32]],[[2570,1913],[-13,7],[-3,-32],[8,4],[11,4],[-3,17]],[[2490,1938],[5,26],[-21,-1],[16,-25]],[[2820,2075],[-22,9],[-11,-15],[9,-14],[33,-14],[10,22],[-19,12]],[[3878,2820],[41,39],[39,68],[28,73],[11,70],[5,14],[6,25],[-5,17],[-26,-12],[-8,-16],[-46,-186],[-25,-51],[-40,-33],[8,-3],[8,-1],[4,-4]],[[2982,2112],[11,27],[-10,-2],[-4,-13],[-13,-4],[-9,-12],[3,-1],[22,5]],[[1317,2631],[103,-6],[3,9],[-46,8],[-55,21],[-17,-9],[-9,-16],[21,-7]],[[1346,2546],[28,-18],[8,31],[7,15],[-2,14],[-8,24],[-24,4],[-33,-8],[-12,2],[7,7],[-18,5],[-17,-17],[40,-41],[24,-18]],[[1447,2539],[14,-13],[32,8],[26,21],[-6,12],[-50,14],[-18,-5],[-5,-18],[7,-19]],[[1444,2412],[23,-8],[21,13],[9,22],[26,38],[-9,34],[-14,6],[-36,8],[-38,-5],[-16,-27],[11,-42],[23,-39]],[[1831,2377],[-17,-19],[-3,-25],[6,-3],[10,2],[10,-20],[5,-46],[6,2],[11,20],[6,27],[-16,42],[-18,20]],[[1794,2295],[-17,1],[7,-10],[-7,-15],[-24,-36],[28,-8],[3,0],[-2,25],[21,11],[14,8],[-6,6],[2,12],[-19,6]],[[1699,2327],[18,14],[20,3],[-18,23],[-16,3],[-1,-5],[3,-7],[1,-3],[-12,-16],[5,-12]],[[546,4096],[18,0],[-2,-1],[-12,-6],[-4,7]],[[0,465],[15,-2],[20,-7],[4,-13],[-16,-18],[0,-24],[53,4],[31,-16],[10,-32],[-14,-44],[-18,0],[-16,39],[-37,25],[-32,9],[0,79]],[[0,351],[23,-16],[-21,-27],[-2,-2],[0,45]],[[659,4096],[20,-30],[22,-25],[-76,-58],[-27,-36],[36,-16],[13,-19],[35,-86],[19,-27],[25,-5],[98,-6],[3,-59],[11,-36],[24,-26],[0,-44],[60,-112],[31,-145],[11,-30],[33,-14],[67,16],[28,-13],[4,-23],[-11,-25],[-17,-21],[-55,-36],[33,-63],[95,-107],[41,-124],[4,-31],[14,-67],[4,-34],[23,-34],[134,-108],[111,-22],[16,-7],[51,-31],[102,-18],[53,-28],[165,-176],[20,-57],[-29,-70],[-50,-38],[-63,-18],[-64,3],[-51,21],[0,20],[16,5],[27,14],[16,5],[0,22],[-222,95],[-38,27],[-9,1],[-51,99],[-19,26],[-30,29],[-35,23],[-35,8],[18,45],[-54,-42],[-48,-107],[-32,-126],[-3,-100],[33,-98],[48,-102],[137,-132],[45,-11],[136,33],[118,11],[94,21],[112,2],[54,10],[67,75],[13,3],[81,54],[43,-41],[86,-18],[-10,-27],[0,-24],[26,-9],[14,-3],[10,10],[10,26],[15,-18],[16,-10],[15,-8],[14,-10],[3,15],[6,9],[6,9],[6,13],[29,-35],[46,-15],[49,-3],[35,7],[58,57],[38,16],[44,-27],[18,0],[17,27],[-2,20],[-10,21],[-5,30],[16,10],[107,24],[-6,-14],[-3,-2],[-4,1],[-9,-7],[46,-16],[26,47],[20,71],[29,52],[44,14],[117,2],[38,6],[11,-21],[4,-9],[3,-14],[-26,-5],[-13,-8],[-8,-12],[-11,-21],[20,-10],[16,-14],[13,-18],[9,-22],[50,32],[58,-8],[44,-41],[9,-71],[22,0],[-10,66],[-35,50],[-53,30],[-63,6],[36,42],[58,27],[45,4],[0,-49],[40,-14],[57,-84],[44,-36],[1,30],[-37,36],[-35,48],[8,64],[3,35],[50,57],[10,30],[5,27],[14,24],[132,151],[106,93],[3,40],[-21,26],[-37,21],[-23,25],[21,61],[24,45],[-12,17],[-20,13],[-13,18],[-10,69],[6,59],[24,59],[48,68],[18,54],[3,158],[10,62],[86,84],[60,137],[5,78],[10,31],[32,29],[28,5],[29,0],[30,12],[43,61],[2,135],[5,13]],[[2220,1018],[-130,-94],[-29,-35],[106,8],[48,13],[25,22],[15,20],[4,10],[-1,14],[-18,0],[-18,-17],[-8,6],[1,22],[5,31]],[[3617,2321],[86,110],[14,33],[6,25],[14,38],[20,36],[20,22],[12,7],[10,8],[10,13],[9,17],[-63,27],[-50,-32],[-79,-115],[-38,-24],[-93,-24],[-19,-19],[11,-37],[22,-17],[22,-21],[7,-47],[-28,-68],[-107,-117],[-56,-140],[-132,28],[-17,-57],[41,17],[33,-12],[17,-31],[-11,-38],[-23,12],[-11,0],[2,-12],[14,-24],[-27,-38],[-31,-17],[-62,-9],[10,-41],[-19,-38],[-72,-76],[-41,-68],[-23,-17],[-46,-5],[-16,-19],[-35,-113],[-33,-13],[-44,-11],[-28,-17],[16,-36],[57,1],[66,66],[107,142],[90,79],[23,33],[26,75],[20,34],[32,-9],[31,18],[237,235],[0,20],[-12,50],[36,78],[95,138]],[[3997,3070],[5,14],[6,25],[-5,17],[-26,-12],[-8,-16],[-46,-186],[-25,-51],[-40,-33],[8,-3],[8,-1],[4,-4],[41,39],[39,68],[28,73],[11,70]],[[385,733],[192,-302],[5,-96],[64,50],[-43,127],[-94,133],[-86,68],[-21,4],[-9,5],[-8,11]],[[4077,3687],[13,21],[6,165]],[[4096,3887],[-19,0],[-9,-22],[-12,-17],[-17,-14],[-22,-15],[0,-20],[13,-4],[8,-5],[8,-6],[11,-7],[-31,-29],[-4,-34],[18,-25],[37,-2]],[[165,359],[-100,118],[-20,34],[-9,4],[-9,-1],[-5,4],[1,17],[-18,0],[-5,-18]],[[0,465],[15,-2],[20,-7],[4,-13],[-16,-18],[0,-24],[53,4],[31,-16],[10,-32],[-14,-44],[-18,0],[-16,39],[-37,25],[-32,9]],[[0,351],[23,-16],[-21,-27],[-2,-2]],[[0,245],[92,38],[73,52],[0,24]],[[1383,511],[15,44],[19,30],[26,22],[68,28],[9,9],[2,23],[-63,-10],[-157,-50],[-60,-28],[94,-1],[32,-19],[15,-48]],[[1860,779],[0,20],[-92,-21],[-226,-155],[216,92],[43,40],[35,6],[12,7],[12,11]],[[445,4096],[8,-10],[11,-10],[10,-6],[0,10],[8,9],[5,7]],[[1379,2612],[-24,4],[-33,-8],[-12,2],[7,7],[-18,5],[-17,-17],[40,-41],[24,-18],[28,-18],[8,31],[7,15],[-2,14],[-8,24]],[[1500,2517],[-36,8],[-38,-5],[-16,-27],[11,-42],[23,-39],[23,-8],[21,13],[9,22],[26,38],[-9,34],[-14,6]],[[2729,1317],[-92,-113],[30,11],[60,63],[25,38],[1,7],[-3,11],[-21,-17]],[[2510,1139],[-59,-46],[-25,-13],[-19,-17],[-6,-22],[13,-1],[45,29],[22,16],[33,39],[-4,15]],[[679,567],[-22,2],[-12,-12],[9,-22],[9,-11],[27,-18],[23,-30],[6,15],[-15,48],[-25,28]],[[233,502],[-9,11],[-22,18],[-23,10],[-17,2],[-14,8],[-10,-2],[-11,-33],[-4,-43],[12,-28],[7,-7],[8,-6],[13,-4],[12,8],[15,4],[18,-5],[17,-17],[11,-23],[9,14],[-4,59],[-8,34]],[[333,494],[-21,2],[-6,-11],[10,-1],[-4,-5],[-19,-16],[4,-21],[33,-30],[7,-14],[16,-1],[6,32],[-9,36],[-17,29]],[[866,464],[-36,-44],[4,-7],[29,16],[23,23],[-6,13],[-14,-1]],[[402,411],[8,-10],[20,-13],[12,25],[-20,13],[-20,-15]],[[4004,4020],[1,-12]],[[3986,3964],[-1,-1],[1,0],[0,1]],[[3995,3988],[1,-1]],[[3080,2868],[10,48]],[[3798,4080],[7,0]],[[3805,4079],[0,-10]],[[3167,2982],[0,-19]],[[3168,2963],[-1,19]],[[3980,3967]],[[3980,3967]],[[3160,3107],[0,-3]],[[3858,3906],[0,-3]],[[3161,3030],[0,1]],[[3986,3963],[3,-2]],[[3989,3961],[-3,2]],[[4006,4005],[0,6]],[[3933,4054],[-143,-3]],[[3997,4007],[-14,0]],[[3992,4005],[5,0]],[[4011,4055],[-30,-1]],[[3992,4050],[18,4]],[[4011,4063],[19,1]],[[4034,4064],[4,1]],[[4047,4065],[-9,0]],[[4047,4065],[8,0]],[[4055,4065]],[[4055,4065]],[[4063,4067],[-6,0]],[[4058,4064],[6,1]],[[4067,4066],[-1,0]],[[4066,4066],[1,0]],[[4096,4068],[-29,-2]],[[3789,3860]],[[3412,3314],[-24,-27]],[[3388,3287],[25,27]],[[3567,3570],[-10,-24]],[[3719,3799],[-6,-6]],[[3714,3794],[6,5]],[[3477,3387],[-11,-12]],[[3466,3374],[12,13]],[[3533,3480],[-1,-2]],[[3536,3473],[6,25]],[[3782,4040],[2,-58]],[[3784,3982],[-2,58]],[[3784,3982],[2,-52]],[[3786,3928],[0,2]],[[3786,3928],[2,-42]],[[3793,3863],[-4,0]],[[3992,3973],[-3,-12]],[[3989,3961],[5,20]],[[3982,4029],[20,1]],[[4000,4052],[-9,-1]],[[3996,4050],[4,0]],[[4000,4052],[0,7]],[[4000,4052],[3,-29]],[[4003,4026],[-3,26]],[[3981,3988],[1,0]],[[3156,2980],[5,51]],[[3161,3031],[227,257]],[[3411,3314],[96,115],[132,298]],[[3719,3799],[-72,-64]],[[3720,3800],[8,8]],[[3736,3814],[23,23]],[[3759,3836],[10,9]],[[3769,3845],[19,17]],[[3789,3863],[39,28]],[[3827,3891],[153,79]],[[3137,2963],[24,0]],[[3458,2069],[1,-1]],[[4003,4023],[2,-3]],[[4007,4023],[-1,0]],[[4012,4009],[1,10]],[[3548,3546],[-40,-2]],[[3557,3546],[-1,0]],[[3781,4096],[1,-44]],[[3782,4052],[-1,39]],[[3304,3189],[-18,-20]],[[3286,3168],[19,21]],[[3336,4030],[0,-59]],[[3337,3970],[-1,60]],[[3967,4059],[14,-6]],[[3444,3541],[-100,-4]],[[3754,3830],[-19,-17]],[[3793,3863],[-4,-3]],[[3789,3860],[4,3]],[[566,460],[0,-1]],[[629,459],[0,-1]],[[1280,579],[0,1]],[[1773,750],[-1,1]],[[2183,963],[0,1]],[[2446,1070],[-6,-2]],[[2483,1093],[-36,-22]],[[2495,1105],[-9,-9]],[[2504,1114],[-4,-4]],[[2527,1136],[7,4]],[[2989,1526],[0,1]],[[2998,1530],[-1,0]],[[3458,2069]],[[3981,3988],[0,3]],[[3998,3995],[-14,-3]],[[4012,4021],[-9,5]],[[57,409],[-57,-21]],[[126,431],[-58,-19]],[[468,438],[-326,-2]],[[566,459],[-79,-16]],[[666,398],[-37,60]],[[666,398],[12,-9]],[[759,408],[-81,-19]],[[759,408],[13,7],[58,11],[20,6],[6,3]],[[856,435],[-84,-20],[-13,-7]],[[905,458],[-49,-23]],[[1280,579],[-322,-88]],[[4005,4008],[-4,0]],[[4003,4023],[1,-3]],[[3744,3885],[-25,-1]],[[3744,3885],[3,0]],[[3749,3885],[-2,0]],[[3750,3885],[1,0]],[[2091,4025],[68,-52]],[[2992,3970],[-416,3]],[[3139,3971],[-95,0]],[[3253,3971],[-114,0]],[[3139,3971],[114,-1]],[[3997,3990],[-14,1]],[[3672,3756],[-22,5],[-97,1],[-7,-4],[-16,-21]],[[3544,3753],[34,7],[47,-1],[25,2],[7,-2]],[[3661,3757],[4,-3]],[[3235,3033],[-68,-51]],[[3180,2985],[51,44]],[[3399,3217],[-50,-52],[-23,-58]],[[3328,3107],[5,5],[16,51],[50,53]],[[3427,4096],[7,-284],[-17,-81],[4,-94],[8,-74],[16,-23],[6,-82],[43,-144]],[[3495,3315],[-1,37],[-5,27],[-13,46],[-7,12],[-16,19],[-7,84],[-16,25],[-12,164],[16,47],[1,36],[-7,284]],[[3444,3541],[112,5]],[[3508,3544],[-24,-1]],[[3980,3953],[9,8]],[[3989,3961],[-9,-7]],[[3357,3970],[18,0]],[[3478,3387],[0,1]],[[3487,3379],[4,-12]],[[3491,3378],[-3,1]],[[3494,3366],[-3,10]],[[3950,3936],[5,0],[3,1]],[[3956,3937],[-6,-1]],[[3167,2928],[1,-4]],[[3169,2926],[-1,2]],[[3932,3933],[18,3]],[[4000,4059],[0,4]],[[3286,3169],[-80,-91],[-39,-68]],[[3167,2991],[36,83],[83,94]],[[3314,3201],[-10,-12]],[[3305,3189],[10,12]],[[3466,3375],[-27,-31]],[[3440,3344],[26,30]],[[3527,3467],[-11,-27]],[[3520,3448],[11,17]],[[3557,3546],[-24,-66]],[[3542,3498],[98,228]],[[3637,3722],[-70,-152]],[[3736,3813],[18,16]],[[3911,3924],[-53,-21]],[[3858,3903],[74,30]],[[1414,607],[10,3]],[[1424,610],[-6,-1]],[[1424,610],[32,10]],[[1456,620],[155,53]],[[1611,673],[-60,-19],[-95,-34]],[[1773,750],[-162,-77]],[[1875,810],[-19,-7]],[[1914,825],[-18,-7]],[[2183,964],[-39,-42],[-180,-77]],[[2534,1140],[-213,-145]],[[2558,1153],[-10,-6]],[[2607,1180],[-33,-18]],[[2628,1192],[-15,-8]],[[2633,1195],[129,121]],[[2891,1391],[92,120]],[[3458,2069],[-61,-81]],[[3397,1988],[-18,-22],[0,-1],[-37,-49],[-59,-74],[-81,-81],[-108,-128],[-31,-39],[-54,-64],[-3,0],[-23,-19]],[[2983,1511],[26,19],[276,312],[57,73],[38,50],[17,23]],[[3397,1988],[65,89],[-1,4]],[[3229,3724],[-23,-1]],[[3206,3722],[23,1]],[[615,459],[14,0]],[[4055,4065],[3,-1]],[[4057,4067],[-2,-2]],[[4066,4066],[-3,1]],[[4064,4065],[2,1]],[[3798,3887],[-10,0]],[[3788,3886],[10,1]],[[3798,3887],[13,0]],[[3161,3031],[0,15]],[[3161,3029],[0,1]],[[3980,3988],[1,0]],[[3161,3046],[0,4]],[[3338,3733],[0,-5]],[[3338,3728],[1,10]],[[3341,3868],[-2,47]],[[3340,3608],[4,-71]],[[3344,3537],[-3,71]],[[3342,3821],[-1,24]],[[3155,2963],[-8,0]],[[3988,3988],[7,0]],[[3938,3935],[-27,-11]],[[3984,3992],[-2,-4]],[[2843,1370],[40,18]],[[4006,4011],[-3,15]],[[3252,3724],[14,1]],[[2013,4096],[78,-71]],[[2576,3973],[-417,0]],[[3161,3031]],[[3719,3799],[1,1]],[[3981,4032],[-32,-2]],[[3950,4027],[25,1]],[[4002,4030],[0,1]],[[3789,3863]],[[3639,3727],[8,8]],[[3728,3808],[7,5]],[[3137,2963],[-3,0]],[[3987,4032],[-6,0]],[[3653,3739],[-13,-13]],[[3640,3726],[74,68]],[[3708,3789],[-49,-44]],[[3735,3813],[-16,-14]],[[3720,3799],[16,14]],[[3789,3860],[-35,-30]],[[3754,3829],[35,31]],[[3858,3903],[-38,-15],[-27,-25]],[[3793,3863],[65,40]],[[3852,4096],[6,-190]],[[3858,3906],[-6,190]],[[2534,1140]],[[2891,1392],[0,-1]],[[3167,2982],[0,-13]],[[3167,2971],[13,14]],[[3231,3029],[97,78]],[[3326,3107],[-91,-74]],[[3494,3314],[-10,-65],[-85,-32]],[[3399,3216],[68,19],[18,14],[10,44],[0,22]],[[3975,4028],[6,1]],[[4005,4003],[7,6]],[[3713,3793],[-5,-4]],[[3465,2078],[-3,2]],[[3160,3063],[0,18]],[[3161,3057],[-1,5]],[[3167,3010],[0,-15]],[[3167,2987],[0,-5]],[[3167,2982],[0,9]],[[3976,3988],[4,0]],[[3789,3863],[0,-3]],[[3790,4051],[-120,-5],[-35,-14],[-40,5],[-83,0],[-36,-3],[-61,5],[-9,3],[-22,2],[-32,0],[-12,-3],[-11,-12],[6,-14]],[[3336,4030],[14,13],[114,-14],[170,1],[347,23]],[[3462,2080],[-1,1]],[[3781,4091],[0,5]],[[3782,4052],[0,-12]],[[3782,4040],[0,12]],[[3336,3971],[0,-1]],[[3962,4062],[-29,-8]],[[4011,4063],[-5,0]],[[2997,1530],[-8,-4]],[[4004,4020],[1,0]],[[4027,4055],[20,-38]],[[4047,4017],[-18,39]],[[3343,3774],[-4,-36]],[[3339,3738],[5,36]],[[3516,3440],[4,8]],[[920,466],[-3,-1]],[[1856,803],[5,1]],[[1875,810],[-2,-1]],[[1896,818],[5,2]],[[1914,825],[-3,-1]],[[1964,845]],[[2076,889],[3,1]],[[2321,995]],[[2633,1195]],[[2762,1316],[-1,0]],[[4013,4019],[0,2]],[[3982,3991]],[[3462,2074],[3,4]],[[4041,4022],[-9,3]],[[4052,4016],[-9,4],[-1,0]],[[4042,4020],[-1,1],[-5,1]],[[4045,4020],[-3,0]],[[4042,4020],[-6,1],[17,-8]],[[4052,4016],[-6,3]],[[4047,4017],[4,-2]],[[4048,4017],[-1,0]],[[4048,4018],[15,-6]],[[4053,4014],[-5,3]],[[4056,4014],[-8,3]],[[4051,4015],[2,-2]],[[4051,4015],[2,-1]],[[4056,4014],[-4,2]],[[4053,4013],[16,-7]],[[4064,4010],[-8,4]],[[487,443],[-7,-2]],[[3657,3759],[4,-2]],[[3981,4054],[-19,8]],[[3858,3903],[0,3]],[[3997,3995],[-5,-22]],[[3994,3981],[4,14]],[[3167,2995],[0,-8]],[[4001,4008],[-4,0],[0,-13]],[[3998,3995],[3,8]],[[3949,4030]],[[3647,3738],[6,0]],[[3793,3863]],[[3504,3418],[-5,-6]],[[3499,3412],[5,5],[7,10]],[[3229,3723],[23,1]],[[3266,3725],[-37,-1]],[[4044,4043],[-3,5]],[[3991,4032],[-4,0]],[[3342,3821],[1,-47]],[[3344,3774],[0,5]],[[4001,4003],[5,2]],[[3618,4087],[36,-11]],[[3654,4077],[-36,10]],[[3558,3546],[-1,0]],[[3160,3062],[0,1]],[[3612,4096],[9,-400]],[[3624,3702],[10,15],[-15,379]],[[3945,3939],[-7,-4]],[[3969,3961],[1,10]],[[3806,4050],[-1,30]],[[3044,3971],[-52,-1]],[[1856,803],[-83,-53]],[[1964,845],[-50,-20]],[[2321,995],[-59,15],[-79,-46]],[[2548,1147],[-14,-7]],[[2574,1162],[-16,-9]],[[2613,1184],[-6,-4]],[[2633,1195],[-5,-3]],[[2762,1316],[81,54]],[[2883,1388],[8,3]],[[3167,2963],[0,-31],[4,-51],[117,-599],[46,-117]],[[3334,2165],[2,-5]],[[3336,2160],[122,-91]],[[3461,2081],[-58,48],[-18,7],[-49,24]],[[3336,2160],[-2,5]],[[3334,2165],[-45,117],[-122,681]],[[1875,810],[18,7],[3,1],[-21,-8]],[[3253,3970],[83,0]],[[3284,3971],[-31,0]],[[3375,3971],[-10,0]],[[3375,3970],[81,1]],[[3449,3971],[-32,0]],[[3981,3991],[-1,0]],[[3982,3988],[6,0]],[[3266,3725],[381,13]],[[3653,3739],[-387,-14]],[[4006,4005],[-1,3]],[[3388,3287],[-74,-86]],[[3315,3201],[73,86]],[[3439,3344],[-27,-30]],[[3413,3314],[27,30]],[[3516,3440],[-39,-53]],[[3478,3387],[38,53]],[[3949,4030],[-2,66]],[[3168,2963],[-7,0]],[[3980,3967],[5,-4]],[[3985,3964],[-5,3]],[[4030,4064],[4,0]],[[4015,4067],[81,-22]],[[4096,3988],[-13,-5],[-71,42]],[[3811,3887],[5,1]],[[3821,3888],[-5,0]],[[3816,3888],[5,0]],[[4000,4032],[-9,0]],[[3640,3726],[-3,-4]],[[3981,4029],[1,0]],[[68,412],[-11,-3]],[[142,436],[-16,-5]],[[629,458],[-63,1]],[[958,491],[-53,-33]],[[1418,609],[-138,-30]],[[3167,2963]],[[3167,2963],[1,0]],[[3607,3975],[-129,-3]],[[3479,3971],[127,4]],[[3461,2072],[1,2]],[[3484,3543],[-40,-2]],[[3336,3970],[21,0]],[[3532,3478],[-5,-11]],[[3531,3465],[5,8]],[[4027,4055],[13,-8]],[[4041,4048],[-9,8]],[[4036,4022],[-5,4],[-21,7],[-10,-1]],[[4002,4031],[34,-10]],[[3981,4053],[11,-3]],[[3151,3908],[5,-189]],[[3159,3193],[1,-86]],[[3160,3104],[0,-23]],[[3161,2981],[0,29]],[[3339,3738],[-1,-5]],[[3338,3938],[4,-117]],[[3344,3779],[-2,42]],[[3344,3537],[100,4]],[[3434,3887],[1,-15]],[[3435,3872],[0,15]],[[3477,3387],[12,-9]],[[3488,3379],[-10,8]],[[3491,3376],[-4,22]],[[3491,3367],[0,-4]],[[3630,3738],[0,-1]],[[3790,4080],[10,0]],[[3798,4080],[-7,0]],[[3805,4080],[0,-1]],[[3808,4053],[-2,0]],[[3966,3991],[0,-4]],[[3967,4037],[1,-18]],[[3970,4019],[-1,18]],[[3971,3986],[0,5]],[[3427,3877],[195,3],[122,5]],[[3719,3884],[-292,-6]],[[3747,3885],[-3,0]],[[3747,3885],[3,0]],[[3788,3887],[-39,-2]],[[3751,3885],[37,1]],[[3080,2868],[-201,-67]],[[3090,2916],[0,47],[21,0]],[[3161,2963],[6,0]],[[3161,3031]],[[3111,2963],[23,0]],[[3427,3878],[-86,-9]],[[3341,3845],[0,23],[86,9]],[[3161,3056],[0,1]],[[3161,3027],[0,2]],[[3995,4001],[17,24]],[[4036,3927],[11,31],[49,23]],[[3336,3970],[2,-32]],[[3339,3915],[-2,55]],[[4006,4063],[-6,0]],[[3659,3745],[-6,-6]],[[3338,3669],[1,-12]],[[3983,3991],[-2,0]],[[3155,2963]],[[3606,3975],[28,1]],[[3634,3976],[-27,-1]],[[3858,3984],[-224,-8]],[[3858,3984],[118,4]],[[3980,3991],[-122,-7]],[[3860,3987],[-5,0]],[[4000,4063],[0,33]],[[3161,2963],[-6,0]],[[3932,3933],[12,4],[20,15],[5,9]],[[3952,4096],[1,-20],[1,-11],[13,-27],[2,-19],[-2,-32],[2,-27],[-24,-21]],[[3970,3971],[-1,64],[-16,42],[0,19]],[[3960,3939],[-4,-2]],[[3958,3937],[2,1]],[[3206,3723],[-48,15],[48,-16]],[[3623,3865],[1,-11],[-3,-4]],[[3621,3850],[-13,-18],[-29,-31],[-146,-184],[-5,-28]],[[3429,3594],[191,250],[1,6]],[[3621,3850],[3,22]],[[3357,3971],[-21,0]],[[3147,2963],[-10,0]],[[3336,3971],[-52,0]],[[3417,3971],[-60,0]],[[3478,3972],[-29,-1]],[[3456,3971],[23,0]],[[3491,3363],[1,-16]],[[3495,3344],[-1,22]],[[3788,3862],[1,1]],[[3339,3657],[1,-23]],[[3340,3634],[-1,33]],[[3788,3886],[0,-6]],[[3788,3880],[0,-10]],[[3788,3870],[1,-7]],[[4074,4023],[22,-10]],[[4096,4015],[-21,9]],[[3980,3954],[-20,-15]],[[3960,3938],[20,15]],[[3161,3050],[0,6]],[[3161,3010],[0,17]],[[4010,4054],[17,1]],[[4032,4056],[-21,-1]],[[4040,4047],[10,-12],[24,-12]],[[4075,4024],[-31,19]],[[3339,3667],[0,14]],[[3338,3728],[0,-59]],[[3339,3681],[-1,47]],[[3340,3634],[0,-26]],[[3341,3608],[-1,26]],[[57,409],[11,3]],[[126,431],[31,9]],[[566,460],[49,-1]],[[917,465],[-12,-7]],[[958,491],[-38,-25]],[[1280,580],[274,75],[218,96]],[[1873,809],[-12,-5]],[[1911,824],[-10,-4]],[[1964,845],[112,44]],[[2079,890],[104,73]],[[2440,1068],[-119,-73]],[[2447,1071],[-1,-1]],[[2486,1096],[-3,-3]],[[2500,1110],[-5,-5]],[[2504,1114],[23,22]],[[2761,1316],[-128,-121]],[[2633,1195],[129,121]],[[2989,1527],[-98,-135]],[[2998,1530],[463,542]],[[3155,2963],[1,17]],[[3388,3288],[23,26]],[[3980,3970],[1,18]],[[2548,1147],[10,6]],[[2574,1162],[33,18]],[[2613,1184],[15,8]],[[3981,4053],[11,-3]],[[3155,2963],[11,-34]],[[3147,3998],[-2,98]],[[3145,4096],[2,-98]],[[3147,3998],[4,-90]],[[3156,3719],[3,-526]],[[3168,2928],[-7,53]],[[480,441],[-12,-3]],[[1398,555],[-15,-44],[-15,48],[-32,19],[-94,1],[60,28],[157,50],[63,10],[-2,-23],[-9,-9],[-68,-28],[-26,-22],[-19,-30]],[[22,518],[5,-4],[9,1],[9,-4],[20,-34],[100,-118],[0,-24],[-73,-52],[-92,-38],[0,61],[2,2],[21,27],[-23,16],[0,35],[32,-9],[37,-25],[16,-39],[18,0],[14,44],[-10,32],[-31,16],[-53,-4],[0,24],[16,18],[-4,13],[-20,7],[-15,2],[0,52],[5,18],[18,0],[-1,-17]],[[863,429],[-29,-16],[-4,7],[36,44],[14,1],[6,-13],[-23,-23]],[[442,413],[-12,-25],[-20,13],[-8,10],[20,15],[20,-13]],[[359,429],[-6,-32],[-16,1],[-7,14],[-33,30],[-4,21],[19,16],[4,5],[-10,1],[6,11],[21,-2],[17,-29],[9,-36]],[[241,468],[4,-59],[-9,-14],[-11,23],[-17,17],[-18,5],[-15,-4],[-12,-8],[-13,4],[-8,6],[-7,7],[-12,28],[4,43],[11,33],[10,2],[14,-8],[17,-2],[23,-10],[22,-18],[9,-11],[8,-34]],[[719,491],[-6,-15],[-23,30],[-27,18],[-9,11],[-9,22],[12,12],[22,-2],[25,-28],[15,-48]],[[646,385],[-64,-50],[-5,96],[-192,302],[8,-11],[9,-5],[21,-4],[86,-68],[94,-133],[43,-127]],[[1758,715],[-216,-92],[226,155],[92,21],[0,-20],[-12,-11],[-12,-7],[-35,-6],[-43,-40]],[[2214,965],[8,-6],[18,17],[18,0],[1,-14],[-4,-10],[-15,-20],[-25,-22],[-48,-13],[-106,-8],[29,35],[130,94],[-5,-31],[-1,-22]],[[2459,1069],[-45,-29],[-13,1],[6,22],[19,17],[25,13],[59,46],[4,-15],[-33,-39],[-22,-16]],[[2667,1215],[-30,-11],[92,113],[21,17],[3,-11],[-1,-7],[-25,-38],[-60,-63]],[[4096,3887],[0,-14],[-6,-165],[-13,-21],[-37,2],[-18,25],[4,34],[31,29],[-11,7],[-8,6],[-8,5],[-13,4],[0,20],[22,15],[17,14],[12,17],[9,22],[19,0]],[[445,4096],[42,0],[-5,-7],[-8,-9],[0,-10],[-10,6],[-11,10],[-8,10]],[[3919,2859],[-41,-39],[-4,4],[-8,1],[-8,3],[40,33],[25,51],[46,186],[8,16],[26,12],[5,-17],[-6,-25],[-5,-14],[-11,-70],[-28,-73],[-39,-68]],[[3498,2035],[-237,-235],[-31,-18],[-32,9],[-20,-34],[-26,-75],[-23,-33],[-90,-79],[-107,-142],[-66,-66],[-57,-1],[-16,36],[28,17],[44,11],[33,13],[35,113],[16,19],[46,5],[23,17],[41,68],[72,76],[19,38],[-10,41],[62,9],[31,17],[27,38],[-14,24],[-2,12],[11,0],[23,-12],[11,38],[-17,31],[-33,12],[-41,-17],[17,57],[132,-28],[56,140],[107,117],[28,68],[-7,47],[-22,21],[-22,17],[-11,37],[19,19],[93,24],[38,24],[79,115],[50,32],[63,-27],[-9,-17],[-10,-13],[-10,-8],[-12,-7],[-20,-22],[-20,-36],[-14,-38],[-6,-25],[-14,-33],[-86,-110],[-95,-138],[-36,-78],[12,-50],[0,-20]],[[1488,2417],[-21,-13],[-23,8],[-23,39],[-11,42],[16,27],[38,5],[36,-8],[14,-6],[9,-34],[-26,-38],[-9,-22]],[[1310,2610],[12,-2],[33,8],[24,-4],[8,-24],[2,-14],[-7,-15],[-8,-31],[-28,18],[-24,18],[-40,41],[17,17],[18,-5],[-7,-7]],[[659,4096],[3328,0],[-5,-13],[-2,-135],[-43,-61],[-30,-12],[-29,0],[-28,-5],[-32,-29],[-10,-31],[-5,-78],[-60,-137],[-86,-84],[-10,-62],[-3,-158],[-18,-54],[-48,-68],[-24,-59],[-6,-59],[10,-69],[13,-18],[20,-13],[12,-17],[-24,-45],[-21,-61],[23,-25],[37,-21],[21,-26],[-3,-40],[-106,-93],[-132,-151],[-14,-24],[-5,-27],[-10,-30],[-50,-57],[-3,-35],[-8,-64],[35,-48],[37,-36],[-1,-30],[-44,36],[-57,84],[-40,14],[0,49],[-45,-4],[-58,-27],[-36,-42],[63,-6],[53,-30],[35,-50],[10,-66],[-22,0],[-9,71],[-44,41],[-58,8],[-50,-32],[-9,22],[-13,18],[-16,14],[-20,10],[11,21],[8,12],[13,8],[26,5],[-3,14],[-4,9],[-11,21],[-38,-6],[-117,-2],[-44,-14],[-29,-52],[-20,-71],[-26,-47],[-46,16],[9,7],[4,-1],[3,2],[6,14],[-107,-24],[-16,-10],[5,-30],[10,-21],[2,-20],[-17,-27],[-18,0],[-44,27],[-38,-16],[-58,-57],[-35,-7],[-49,3],[-46,15],[-29,35],[-6,-13],[-6,-9],[-6,-9],[-3,-15],[-14,10],[-15,8],[-16,10],[-15,18],[-10,-26],[-10,-10],[-14,3],[-26,9],[0,24],[10,27],[-86,18],[-43,41],[-81,-54],[-13,-3],[-67,-75],[-54,-10],[-112,-2],[-94,-21],[-118,-11],[-136,-33],[-45,11],[-137,132],[-48,102],[-33,98],[3,100],[32,126],[48,107],[54,42],[-18,-45],[35,-8],[35,-23],[30,-29],[19,-26],[51,-99],[9,-1],[38,-27],[222,-95],[0,-22],[-16,-5],[-27,-14],[-16,-5],[0,-20],[51,-21],[64,-3],[63,18],[50,38],[29,70],[-20,57],[-165,176],[-53,28],[-102,18],[-51,31],[-16,7],[-111,22],[-134,108],[-23,34],[-4,34],[-14,67],[-4,31],[-41,124],[-95,107],[-33,63],[55,36],[17,21],[11,25],[-4,23],[-28,13],[-67,-16],[-33,14],[-11,30],[-31,145],[-60,112],[0,44],[-24,26],[-11,36],[-3,59],[-98,6],[-25,5],[-19,27],[-35,86],[-13,19],[-36,16],[27,36],[76,58],[-22,25],[-20,30]],[[300,854],[552,-1],[92,2],[-1,94],[279,-3],[1,-280],[-278,2],[0,-47],[-91,0],[0,-47],[-219,-1],[0,24],[0,-72],[-168,4],[0,-77],[-40,18],[-34,-37],[-170,23],[6,23],[-114,0],[-46,0],[0,47],[-69,0],[0,420],[668,2],[0,-95],[-368,1]],[[3141,4096],[2,-79],[-46,-44],[-939,0],[-100,103],[-1,-12],[82,-95],[-85,0],[0,-466],[-560,-9],[-3,120],[-46,-2],[-2,71],[-48,0],[0,47],[-47,-1],[-1,95],[-48,-1],[0,48],[-138,-2],[-1,96],[-47,0],[0,47],[-47,1],[-1,48],[-47,0],[1,35],[2122,0]],[[3299,1812],[157,246],[78,13],[-113,-225],[-66,-46],[-56,12]],[[3540,3007],[35,220],[32,19],[-19,26],[57,51],[-22,40],[4,36],[23,6],[-23,0],[-1,32],[58,95],[228,-47],[43,203],[115,-77],[26,-2],[0,-882],[-61,-154],[-216,54],[-170,101],[-24,-13],[-41,57],[0,99],[33,53],[-30,35],[-47,0],[0,48]],[[3985,4096],[-3,-13],[-2,-135],[-43,-61],[-119,-46],[-14,-92],[-79,40],[-51,-34],[0,-82],[62,-85],[-79,-77],[-11,-127],[-190,-87],[-74,28],[33,-214],[-109,-5],[-118,-120],[-97,-18],[-22,107],[22,108],[33,21],[66,-22],[51,19],[75,206],[-13,53],[-83,8],[0,179],[-27,52],[-102,56],[12,73],[85,141],[65,0],[0,127],[732,0]],[[2602,4096],[539,0],[1,-80],[-43,-43],[-511,2],[1,102],[13,19]],[[3622,4051],[33,10],[5,35],[111,0],[-17,-47],[-132,2]],[[1019,4096],[-1,-35],[47,0],[1,-48],[47,-1],[0,-47],[47,0],[1,-96],[138,2],[0,-48],[48,1],[1,-95],[47,1],[0,-47],[48,0],[2,-71],[46,2],[3,-120],[560,9],[0,466],[1045,2],[0,-296],[-48,-1],[1,-48],[-71,-1],[1,-41],[-26,0],[13,-175],[-72,-22],[1,-96],[-21,-1],[0,-23],[23,0],[0,-71],[-23,1],[0,-47],[41,0],[-26,-36],[29,0],[-9,-37],[-33,0],[0,-66],[-47,-2],[0,-140],[47,-1],[-2,-424],[379,4],[40,-212],[41,-85],[82,-43],[-108,-128],[9,-50],[-58,6],[-93,-151],[-120,-76],[-4,-100],[-92,-38],[-52,-65],[-198,-96],[-73,-76],[-507,-292],[-156,69],[-147,130],[-420,510],[0,47],[-233,228],[-125,226],[84,341],[-60,336],[-187,419],[-311,399],[-382,349],[833,0]]]}