{"objects":{"water":{"type":"GeometryCollection","geometries":[{"type":"MultiPolygon","properties":{"source":"naturalearthdata.com","kind":"ocean","area":1576712559132672,"sort_rank":200,"min_zoom":0.0,"id":1},"arcs":[[[25],[26],[27],[28],[29],[30],[31],[32]],[[33],[34]]]},{"type":"MultiLineString","properties":{"source":"naturalearthdata.com","kind":"ocean","sort_rank":205,"boundary":true,"min_zoom":0.0,"id":585},"arcs":[[35],[36]]},{"type":"LineString","properties":{"source":"naturalearthdata.com","kind":"ocean","sort_rank":205,"boundary":true,"min_zoom":0.0,"id":586},"arcs":[37]},{"type":"LineString","properties":{"source":"naturalearthdata.com","kind":"ocean","sort_rank":205,"boundary":true,"min_zoom":0.0,"id":588},"arcs":[38]},{"type":"LineString","properties":{"source":"naturalearthdata.com","kind":"ocean","sort_rank":205,"boundary":true,"min_zoom":0.0,"id":590},"arcs":[39]},{"type":"MultiLineString","properties":{"source":"naturalearthdata.com","kind":"ocean","sort_rank":205,"boundary":true,"min_zoom":0.0,"id":2907},"arcs":[[40],[41],[42]]},{"type":"LineString","properties":{"source":"naturalearthdata.com","kind":"ocean","sort_rank":205,"boundary":true,"min_zoom":0.0,"id":3703},"arcs":[43]},{"type":"LineString","properties":{"source":"naturalearthdata.com","kind":"ocean","sort_rank":205,"boundary":true,"min_zoom":0.0,"id":3704},"arcs":[44]},{"type":"LineString","properties":{"source":"naturalearthdata.com","kind":"ocean","sort_rank":205,"boundary":true,"min_zoom":0.0,"id":3705},"arcs":[45]},{"type":"LineString","properties":{"source":"naturalearthdata.com","kind":"ocean","sort_rank":205,"boundary":true,"min_zoom":0.0,"id":3706},"arcs":[46]},{"type":"LineString","properties":{"source":"naturalearthdata.com","kind":"ocean","sort_rank":205,"boundary":true,"min_zoom":0.0,"id":3707},"arcs":[47]},{"type":"MultiLineString","properties":{"source":"naturalearthdata.com","kind":"ocean","sort_rank":205,"boundary":true,"min_zoom":0.0,"id":3799},"arcs":[[48],[49]]}]},"buildings":{"type":"GeometryCollection","geometries":[]},"places":{"type":"GeometryCollection","geometries":[{"type":"Point","properties":{"name:ps":"\u06a9\u06cc\u0648\u0628\u0627","name:cy":"Ciwba","name:tr":"K\u00fcba","name:kn":"\u0c95\u0ccd\u0caf\u0cc2\u0cac\u0cbe","name:km":"\u1782\u17bb\u1799\u1794\u17b6","name:kl":"Kuba","name:cs":"Kuba","name:ki":"Kiumba","name:ku":"K\u00fbba","name:ti":"\u12a9\u1263","name:ks":"\u06a9\u06cc\u0648\u0657\u0628\u0627","name:to":"Kiupa","name:tl":"Kuba","name:sv":"Kuba","name:or":"\u0b15\u0b4d\u0b71\u0b3f\u0b2c\u0b3e","name:pl":"Kuba","name:ta":"\u0b95\u0bbf\u0baf\u0bc2\u0baa\u0bbe","name:tg":"\u041a\u0443\u0431\u0430","name:te":"\u0c15\u0c4d\u0c2f\u0c42\u0c2c\u0c3e","name:ka":"\u10d9\u10e3\u10d1\u10d0","name:hr":"Kuba","name:de":"Kuba","name:dz":"\u0f40\u0f72\u0f60\u0f74\u0f0b\u0f56\u0fb7","source":"openstreetmap.org","name:iu":"\u1582\u1439 \/ quupaa","name:lv":"Kuba","name:lt":"Kuba","name:hi":"\u0915\u094d\u092f\u0942\u092c\u093e","name:kk":"\u041a\u0443\u0431\u0430","name:he":"\u05e7\u05d5\u05d1\u05d4","kind":"country","name:ur":"\u06a9\u06cc\u0648\u0628\u0627","name:lb":"Kuba","official_name":"Rep\u00fablica de Cuba","name:uk":"\u041a\u0443\u0431\u0430","name:hy":"\u053f\u0578\u0582\u0562\u0561","min_zoom":2.0,"name:hu":"Kuba","name:ln":"Kiba","name:lo":"\u0e84\u0eb4\u0ea7\u0e9a\u0eb2","population":11451652,"name:el":"\u039a\u03bf\u03cd\u03b2\u03b1","name:eo":"Kubo","name":"Cuba","name:ee":"Kuba nutome","name:th":"\u0e1b\u0e23\u0e30\u0e40\u0e17\u0e28\u0e04\u0e34\u0e27\u0e1a\u0e32","name:gu":"\u0a95\u0acd\u0aaf\u0ac1\u0aac\u0abe","name:eu":"Kuba","name:et":"Kuuba","name:yo":"Or\u00edl\u1eb9\u0301\u00e8de K\u00fab\u00e0","name:mt":"Kuba","name:rn":"Kiba","name:az":"Kuba","name:id":"Kuba","name:mr":"\u0915\u094d\u092f\u0942\u092c\u093e","name:ar":"\u0643\u0648\u0628\u0627","name:my":"\u1000\u103b\u1030\u1038\u1018\u102c\u1038","name:io":"Kuba","name:is":"K\u00faba","name:am":"\u12a9\u1263","name:ml":"\u0d15\u0d4d\u0d2f\u0d42\u0d2c","name:ru":"\u041a\u0443\u0431\u0430","name:mn":"\u041a\u0443\u0431\u0430","id":249399313,"name:mk":"\u041a\u0443\u0431\u0430","name:af":"Kuba","name:zu":"i-Cuba","name:ha":"Kyuba","name:ff":"Kubaa","name:fi":"Kuuba","old_name:vi":"Quy Ba","name:mg":"Kiob\u00e0","name:fo":"Kuba","alt_name:vi":"Cu-ba","name:fy":"Kuba","name:vo":"Kube\u00e4n","name:zh":"\u53e4\u5df4","name:so":"Kuuba","name:sl":"Kuba","name:sk":"Kuba","name:ja":"\u30ad\u30e5\u30fc\u30d0","name:si":"\u0d9a\u0dd2\u0dba\u0dd4\u0db6\u0dcf\u0dc0","name:fa":"\u06a9\u0648\u0628\u0627","name:sg":"Kub\u00e4a","name:se":"Kuba","name:ne":"\u0915\u094d\u092f\u0941\u092c\u093e","name:br":"Kuba","name:bs":"Kuba","name:bm":"Kuba","name:bn":"\u0995\u09bf\u0989\u09ac\u09be","name:bo":"\u0f41\u0fb1\u0f74\u0f60\u0f74\u0f0b\u0f56\u0f0d","name:sw":"Kuba","name:be":"\u041a\u0443\u0431\u0430","name:bg":"\u041a\u0443\u0431\u0430","name:sr":"\u041a\u0443\u0431\u0430","name:sq":"Kub\u00eb","name:ko":"\ucfe0\ubc14","name:ga":"C\u00faba","name:gd":"C\u00f9ba","name:gv":"Yn Choobey","name:ak":"Kuba"},"coordinates":[2125,3376]},{"type":"Point","properties":{"kind":"locality","name":"Cienfuegos","kind_detail":"city","source":"openstreetmap.org","min_zoom":8.0,"name:uk":"\u0421\u044c\u0454\u043d\u0444\u0443\u0435\u0433\u043e\u0441","name:ru":"\u0421\u044c\u0435\u043d\u0444\u0443\u044d\u0433\u043e\u0441","id":259846360,"population":147110},"coordinates":[3258,652]},{"type":"Point","properties":{"kind":"locality","name":"C\u00e1rdenas","kind_detail":"city","source":"openstreetmap.org","min_zoom":8.0,"name:ru":"\u041a\u0430\u0440\u0434\u0435\u043d\u0430\u0441","id":259846345,"population":88987},"coordinates":[1042,3456]},{"type":"Point","properties":{"kind":"locality","name":"Col\u00f3n","kind_detail":"town","source":"openstreetmap.org","min_zoom":8.0,"name:uk":"\u041a\u043e\u043b\u043e\u043d","name:ru":"\u041a\u043e\u043b\u043e\u043d","id":4855758731,"population":44520},"coordinates":[1918,2462]},{"type":"Point","properties":{"source":"openstreetmap.org","kind":"locality","name":"Palmira","kind_detail":"town","population":32968,"min_zoom":8.0,"id":482499435},"coordinates":[3408,947]},{"type":"Point","properties":{"source":"openstreetmap.org","kind":"locality","name":"Abreus","kind_detail":"town","population":30330,"min_zoom":8.0,"id":482490344},"coordinates":[2890,1056]},{"type":"Point","properties":{"kind":"locality","name":"Jag\u00fcey Grande","kind_detail":"town","source":"openstreetmap.org","min_zoom":8.0,"name:ru":"\u0425\u0430\u0433\u0443\u044d\u0439-\u0413\u0440\u0430\u043d\u0434\u0435","id":3477033728,"population":28870},"coordinates":[1260,1840]},{"type":"Point","properties":{"kind":"locality","name":"Varadero","kind_detail":"town","source":"openstreetmap.org","min_zoom":8.0,"name:ru":"\u0412\u0430\u0440\u0430\u0434\u0435\u0440\u043e","name:zh":"\u5df4\u62c9\u5fb7\u7f57","id":299133497,"population":27170},"coordinates":[881,3806]},{"type":"Point","properties":{"kind":"locality","name":"Jovellanos","kind_detail":"town","source":"openstreetmap.org","min_zoom":8.0,"name:ru":"\u0425\u043e\u0432\u0435\u043b\u044c\u044f\u043d\u043e\u0441","id":3581427400,"population":26319},"coordinates":[1072,2716]},{"type":"Point","properties":{"source":"openstreetmap.org","kind":"locality","name":"Cumanayagua","kind_detail":"town","population":25031,"min_zoom":8.0,"id":482488265},"coordinates":[3963,661]},{"type":"Point","properties":{"source":"openstreetmap.org","kind":"locality","name":"Lajas","kind_detail":"town","population":21999,"min_zoom":8.0,"id":449590035},"coordinates":[3696,1488]},{"type":"Point","properties":{"source":"openstreetmap.org","kind":"locality","name":"Perico","kind_detail":"town","population":12136,"min_zoom":8.0,"id":4855739101},"coordinates":[1590,2611]},{"type":"Point","properties":{"kind":"locality","name":"Agramonte","kind_detail":"town","source":"openstreetmap.org","min_zoom":8.0,"name:ru":"\u0410\u0433\u0440\u0430\u043c\u043e\u043d\u0442\u0435","id":4855758730,"population":10502},"coordinates":[1302,2321]}]},"transit":{"type":"GeometryCollection","geometries":[{"type":"MultiLineString","properties":{"kind":"train","name":"Tren Habana-Bayamo-Manzanillo","service":"long distance","sort_rank":275,"source":"openstreetmap.org","min_zoom":6.0,"operator":"Ferrocarriles de Cuba (FC)","ref":"13\/14","osm_relation":true},"arcs":[[8],[9]]},{"type":"LineString","properties":{"kind":"train","name":"Tren Habana- Cienfuegos (Linea Sur)","service":"Long Distance","sort_rank":275,"source":"openstreetmap.org","min_zoom":6.0,"operator":"Ferrocarriles de Cuba (FC)","ref":"73\/74","osm_relation":true},"arcs":[10]},{"type":"MultiLineString","properties":{"kind":"train","name":"Tren Habana-Sancti Spiritus","service":"long distance","sort_rank":275,"source":"openstreetmap.org","min_zoom":6.0,"operator":"Ferrocarriles de Cuba (FC)","ref":"7\/8","osm_relation":true},"arcs":[[11],[12]]},{"type":"MultiLineString","properties":{"kind":"train","name":"Tren Habana-Holgu\u00edn","service":"long distance","sort_rank":275,"source":"openstreetmap.org","min_zoom":6.0,"operator":"Ferrocarriles de Cuba (FC)","ref":"5\/6","osm_relation":true},"arcs":[[13],[14]]},{"type":"MultiLineString","properties":{"kind":"train","name":"Tren C\u00e1rdenas Col\u00f3n","service":"local","sort_rank":275,"source":"openstreetmap.org","min_zoom":6.0,"operator":"Ferrocarriles de Cuba (FC)","ref":"C\u00e1rdenas","osm_relation":true},"arcs":[[15],[16]]},{"type":"LineString","properties":{"kind":"train","name":"Tren Cienfuegos Santa Clara Santi Spiritus","service":"local","sort_rank":275,"source":"openstreetmap.org","min_zoom":6.0,"operator":"Ferrocarriles de Cuba (FC)","ref":"311\/312","osm_relation":true},"arcs":[17]},{"type":"MultiLineString","properties":{"kind":"train","name":"Tren Habana-Santiago Nro 1\/2","service":"long distance","sort_rank":275,"source":"openstreetmap.org","min_zoom":6.0,"operator":"Ferrocarriles de Cuba (FC)","ref":"1\/2","osm_relation":true},"arcs":[[18],[19]]},{"type":"MultiLineString","properties":{"kind":"train","name":"Tren Habana-Santiago Nro3\/4","service":"long distance","sort_rank":275,"source":"openstreetmap.org","min_zoom":6.0,"operator":"Ferrocarriles de Cuba (FC)","ref":"3\/4","osm_relation":true},"arcs":[[20],[21]]},{"type":"MultiLineString","properties":{"kind":"train","name":"Tren Habana-Guant\u00e1namo","service":"long distance","sort_rank":275,"source":"openstreetmap.org","min_zoom":6.0,"operator":"Ferrocarriles de Cuba (FC)","ref":"15\/16","osm_relation":true},"arcs":[[22],[23]]},{"type":"LineString","properties":{"kind":"train","name":"Tren Cienfuegos Santa Clara","service":"local","sort_rank":275,"source":"openstreetmap.org","min_zoom":6.0,"operator":"Ferrocarriles de Cuba (FC)","ref":"CF-VC","id":-6532470,"osm_relation":true},"arcs":[24]}]},"pois":{"type":"GeometryCollection","geometries":[{"type":"Point","properties":{"kind":"national_park","name:en":"Zapata Swamp National Park","protect_class":"2","area":5238170000,"name:de":"Nationalpark Sumpf von Zapata","source":"openstreetmap.org","min_zoom":4.61,"tier":1,"name:ru":"\u041d\u0430\u0446\u0438\u043e\u043d\u0430\u043b\u044c\u043d\u044b\u0439 \u043f\u0430\u0440\u043a \u0411\u043e\u043b\u043e\u0442\u043e \u0421\u0430\u043f\u0430\u0442\u0430","id":361290872,"name":"Parque Nacional Ci\u00e9naga de Zapata"},"coordinates":[125,821]}]},"boundaries":{"type":"GeometryCollection","geometries":[{"type":"LineString","properties":{"name:left":"Cienfuegos","kind":"region","name":"Cienfuegos - Matanzas","sort_rank":256,"kind_detail":"4","id:left":-1854632,"name:right:ru":"\u041c\u0430\u0442\u0430\u043d\u0441\u0430\u0441","source":"openstreetmap.org","min_zoom":8.0,"name:left:ru":"\u0421\u044c\u0435\u043d\u0444\u0443\u044d\u0433\u043e\u0441","id:right":-1854616,"id":-1854632,"osm_relation":true,"name:right":"Matanzas"},"arcs":[0]},{"type":"LineString","properties":{"kind":"region","name:right":"Matanzas","name":"Cienfuegos - Matanzas","sort_rank":256,"kind_detail":"4","name:left:ru":"\u0421\u044c\u0435\u043d\u0444\u0443\u044d\u0433\u043e\u0441","min_zoom":8.0,"name:right:ru":"\u041c\u0430\u0442\u0430\u043d\u0441\u0430\u0441","source":"openstreetmap.org","maritime_boundary":true,"id:left":-1854632,"id:right":-1854616,"id":-1854632,"osm_relation":true,"name:left":"Cienfuegos"},"arcs":[1]},{"type":"MultiLineString","properties":{"kind":"region","name":"Cienfuegos","sort_rank":256,"kind_detail":"4","source":"openstreetmap.org","min_zoom":8.0,"name:ru":"\u0421\u044c\u0435\u043d\u0444\u0443\u044d\u0433\u043e\u0441","id":-1854632,"osm_relation":true},"arcs":[[2],[3],[4]]},{"type":"LineString","properties":{"name:right:fr":"\u00cele de la Jeunesse","name:right:la":"Insula Iuventutis","old_name:right":"Isla de Pinos","name:right:it":"Isola della Giovent\u00f9","kind":"region","id:right":-1854614,"min_zoom":8.0,"name:left:ru":"\u041c\u0430\u0442\u0430\u043d\u0441\u0430\u0441","name:right:pt":"Ilha da Juventude","old_name:right:es":"Isla de Pinos","old_name:right:de":"Kieferninsel","id":-1854616,"osm_relation":true,"name:right":"Isla de la Juventud","old_name:right:fr":"\u00cele des Pins","name":"Matanzas - Isla de la Juventud","sort_rank":256,"kind_detail":"4","name:right:ru":"\u041e\u0441\u0442\u0440\u043e\u0432 \u0425\u0443\u0432\u0435\u043d\u0442\u0443\u0434","name:right:en":"Isle of Youth","source":"openstreetmap.org","maritime_boundary":true,"name:right:de":"Insel der Jugend","id:left":-1854616,"official_name:right":"Municipio Especial Isla de la Juventud","name:left":"Matanzas"},"arcs":[5]},{"type":"LineString","properties":{"kind":"region","name":"Matanzas","sort_rank":256,"kind_detail":"4","source":"openstreetmap.org","min_zoom":8.0,"name:ru":"\u041c\u0430\u0442\u0430\u043d\u0441\u0430\u0441","id":-1854616,"osm_relation":true},"arcs":[6]},{"type":"LineString","properties":{"kind":"region","name":"Matanzas","sort_rank":256,"kind_detail":"4","min_zoom":8.0,"source":"openstreetmap.org","maritime_boundary":true,"name:ru":"\u041c\u0430\u0442\u0430\u043d\u0441\u0430\u0441","id":-1854616,"osm_relation":true},"arcs":[7]}]},"roads":{"type":"GeometryCollection","geometries":[{"type":"MultiLineString","properties":{"sort_rank":380,"kind_detail":"primary","min_zoom":8.0,"kind":"major_road","source":"openstreetmap.org"},"arcs":[[50],[51],[52],[53],[54],[55],[56],[57],[58],[59],[60],[61],[62],[63],[64],[65],[66],[67],[68],[69],[70],[71],[72]]},{"type":"MultiLineString","properties":{"source":"openstreetmap.org","kind":"major_road","sort_rank":381,"kind_detail":"trunk","ref":"CN","min_zoom":8.0},"arcs":[[73],[74],[75],[76],[77],[78],[79],[80],[81],[82],[83],[84],[85],[86],[87],[88],[89],[90],[91]]},{"type":"MultiLineString","properties":{"source":"openstreetmap.org","kind":"major_road","kind_detail":"trunk","sort_rank":381,"landuse_kind":"urban_area","ref":"CN","min_zoom":8.0},"arcs":[[92],[93],[94],[95]]},{"type":"LineString","properties":{"source":"openstreetmap.org","kind":"ferry","name":"Patana Cayo Carena","sort_rank":355,"min_zoom":8.0,"id":280679994},"arcs":[96]},{"type":"MultiLineString","properties":{"sort_rank":381,"source":"openstreetmap.org","min_zoom":8.0,"kind":"major_road","kind_detail":"trunk"},"arcs":[[97],[98],[99],[100],[101],[102],[103],[104],[105],[106],[107],[108],[109]]},{"type":"MultiLineString","properties":{"source":"openstreetmap.org","kind":"major_road","sort_rank":380,"kind_detail":"primary","ref":"3-252","min_zoom":8.0},"arcs":[[110],[111]]},{"type":"MultiLineString","properties":{"kind":"major_road","network":"cu:national","sort_rank":380,"kind_detail":"primary","source":"openstreetmap.org","min_zoom":8.0,"shield_text":"S","ref":"3-252"},"arcs":[[112],[113],[114],[115]]},{"type":"LineString","properties":{"source":"openstreetmap.org","kind":"ferry","name":"Patana Castillo-Cienfuegos","sort_rank":355,"min_zoom":8.0,"id":349663129},"arcs":[116]},{"type":"MultiLineString","properties":{"source":"openstreetmap.org","kind":"major_road","sort_rank":380,"kind_detail":"primary","ref":"4-112","min_zoom":8.0},"arcs":[[117],[118],[119],[120]]},{"type":"MultiLineString","properties":{"bus_network":null,"sort_rank":381,"landuse_kind":"urban_area","kind":"major_road","source":"openstreetmap.org","min_zoom":8.0,"bus_shield_text":"local","kind_detail":"trunk"},"arcs":[[121],[122]]},{"type":"MultiLineString","properties":{"source":"openstreetmap.org","bus_network":null,"bus_shield_text":"VBT","sort_rank":381,"kind_detail":"trunk","min_zoom":8.0,"kind":"major_road"},"arcs":[[123],[124],[125],[126],[127],[128],[129],[130],[131]]},{"type":"MultiLineString","properties":{"kind":"highway","network":"cu:national","sort_rank":383,"kind_detail":"motorway","source":"openstreetmap.org","min_zoom":8.0,"all_networks":["cu:national"],"shield_text":"1","ref":"A1","all_shield_texts":["1"]},"arcs":[[132],[133],[134],[135],[136],[137],[138],[139],[140],[141],[142],[143],[144],[145]]},{"type":"MultiLineString","properties":{"kind":"major_road","network":"cu:national","sort_rank":381,"kind_detail":"trunk","source":"openstreetmap.org","min_zoom":8.0,"shield_text":"C","ref":"CC"},"arcs":[[146],[147]]},{"type":"MultiLineString","properties":{"source":"openstreetmap.org","kind":"major_road","kind_detail":"trunk","sort_rank":381,"landuse_kind":"urban_area","min_zoom":8.0},"arcs":[[148],[149],[150],[151],[152],[153]]},{"type":"LineString","properties":{"sort_rank":355,"source":"openstreetmap.org","min_zoom":8.0,"kind":"ferry"},"arcs":[154]},{"type":"MultiLineString","properties":{"kind":"major_road","network":"cu:national","sort_rank":380,"kind_detail":"primary","source":"openstreetmap.org","min_zoom":8.0,"shield_text":"N","ref":"CN"},"arcs":[[155],[156],[157],[158]]},{"type":"MultiLineString","properties":{"source":"openstreetmap.org","bus_network":"Ruteros Cienfuegos","bus_shield_text":"Ruta 1","sort_rank":380,"kind_detail":"primary","min_zoom":8.0,"kind":"major_road"},"arcs":[[159],[160]]},{"type":"MultiLineString","properties":{"bus_network":null,"network":"cu:national","sort_rank":380,"kind_detail":"primary","kind":"major_road","source":"openstreetmap.org","min_zoom":8.0,"bus_shield_text":"local","shield_text":"N","landuse_kind":"urban_area","ref":"CN"},"arcs":[[161],[162]]},{"type":"LineString","properties":{"kind":"major_road","sort_rank":380,"kind_detail":"primary","bus_network":null,"source":"openstreetmap.org","min_zoom":8.0,"bus_shield_text":"local","landuse_kind":"urban_area","ref":"CN","id":391960823},"arcs":[163]},{"type":"LineString","properties":{"kind":"major_road","network":"cu:national","sort_rank":381,"landuse_kind":"urban_area","source":"openstreetmap.org","min_zoom":8.0,"kind_detail":"trunk","shield_text":"N","ref":"CN"},"arcs":[164]},{"type":"MultiLineString","properties":{"kind":"major_road","network":"cu:national","sort_rank":380,"kind_detail":"primary","source":"openstreetmap.org","min_zoom":8.0,"landuse_kind":"urban_area","shield_text":"N","ref":"CN"},"arcs":[[165],[166],[167]]},{"type":"MultiLineString","properties":{"kind":"major_road","network":"cu:national","sort_rank":380,"kind_detail":"primary","source":"openstreetmap.org","min_zoom":8.0,"shield_text":"C","ref":"CC"},"arcs":[[168],[169],[170],[171],[172],[173],[174],[175],[176],[177],[178],[179],[180]]},{"type":"LineString","properties":{"source":"openstreetmap.org","bus_network":null,"bus_shield_text":"local","sort_rank":381,"kind_detail":"trunk","min_zoom":8.0,"kind":"major_road"},"arcs":[181]},{"type":"LineString","properties":{"kind":"major_road","network":"cu:national","sort_rank":380,"kind_detail":"primary","bus_network":null,"source":"openstreetmap.org","min_zoom":8.0,"bus_shield_text":"local","shield_text":"N","ref":"CN","id":391960868},"arcs":[182]},{"type":"LineString","properties":{"kind":"major_road","network":"cu:national","sort_rank":381,"kind_detail":"trunk","source":"openstreetmap.org","min_zoom":8.0,"shield_text":"N","ref":"CN"},"arcs":[183]},{"type":"MultiLineString","properties":{"bus_network":"Ruteros Cienfuegos","network":"cu:national","sort_rank":380,"kind_detail":"primary","kind":"major_road","source":"openstreetmap.org","min_zoom":8.0,"bus_shield_text":"Ruta 1","shield_text":"S","ref":"CS"},"arcs":[[184],[185],[186],[187]]},{"type":"LineString","properties":{"kind":"major_road","sort_rank":381,"kind_detail":"trunk","bus_network":null,"source":"openstreetmap.org","min_zoom":8.0,"bus_shield_text":"local","ref":"CN","id":391960837},"arcs":[188]},{"type":"MultiLineString","properties":{"source":"openstreetmap.org","kind":"major_road","sort_rank":380,"kind_detail":"primary","ref":"CS","min_zoom":8.0},"arcs":[[189],[190],[191],[192]]},{"type":"MultiLineString","properties":{"kind":"major_road","network":"cu:national","sort_rank":380,"kind_detail":"primary","source":"openstreetmap.org","min_zoom":8.0,"shield_text":"S","ref":"CS"},"arcs":[[193],[194],[195],[196],[197],[198],[199],[200],[201],[202],[203],[204],[205]]},{"type":"LineString","properties":{"kind":"major_road","network":"cu:national","sort_rank":380,"kind_detail":"primary","is_bicycle_related":true,"source":"openstreetmap.org","min_zoom":8.0,"shield_text":"N","ref":"CN"},"arcs":[206]}]},"earth":{"type":"GeometryCollection","geometries":[{"type":"MultiPolygon","properties":{"sort_rank":10,"source":"naturalearthdata.com","min_zoom":0.0,"kind":"earth","area":31063065320},"arcs":[[[207]],[[208]],[[209]],[[210]],[[211]],[[212]],[[213]],[[214]],[[215]],[[216]],[[217]],[[218]]]}]},"landuse":{"type":"GeometryCollection","geometries":[{"type":"MultiPolygon","properties":{"kind":"national_park","protect_class":"2","area":5238170112,"sort_rank":18,"source":"openstreetmap.org","min_zoom":3.0,"tier":1,"id":361290872},"arcs":[[[219]],[[220]]]},{"type":"Polygon","properties":{"source":"naturalearthdata.com","kind":"urban_area","name":"","area":42032396,"sort_rank":11,"min_zoom":4.0,"id":4045},"arcs":[[221]]},{"type":"Polygon","properties":{"kind":"nature_reserve","protect_class":"4","area":34043900,"sort_rank":23,"operator":"Jard\u00edn Bot\u00e1nico de Cienfuegos","source":"openstreetmap.org","min_zoom":8.0,"tier":2,"id":371542553},"arcs":[[222]]},{"type":"Polygon","properties":{"source":"openstreetmap.org","kind":"nature_reserve","area":235811008,"tier":2,"id":371986864,"min_zoom":6.0,"sort_rank":23},"arcs":[[223]]}]}},"type":"Topology","transform":{"translate":[-81.5625,21.9430455334],"scale":[0.0003433228,0.0003169679]},"arcs":[[[3029,1880],[-65,-22],[-19,-66],[-68,-88],[-113,-43],[-42,-43],[-73,24],[-167,-6],[-61,30],[-114,-18],[-73,21],[-32,41],[-86,13],[-224,-150],[-50,-71],[65,-27],[-27,-52],[32,-44],[-102,-67],[53,-19],[34,32],[15,-38],[-26,-47],[22,-67],[-50,-85],[28,-119],[49,1],[-15,-93],[290,-250],[46,-14],[23,69],[27,4],[-33,-74],[113,-13],[-25,-30],[39,-18],[13,36],[90,-18],[27,42],[20,-42],[117,16],[85,-36],[29,-27],[38,-254]],[[2819,268],[-11,-268]],[[4096,1154],[-7,6],[7,8]],[[4096,1189],[-9,0],[-5,25],[14,1]],[[4096,1229],[-35,-7],[-19,-30],[-72,64],[-43,-1],[0,21],[-54,-3],[-9,83],[-16,-13],[-35,58],[91,37],[6,140],[-58,4],[42,72],[-32,1],[22,65],[-14,99],[-54,-14],[39,81],[-49,69],[8,20],[-99,38],[-48,-48],[-34,7],[-16,-127],[-85,13],[-53,-24],[-11,-48],[-54,20],[7,100],[-64,-2],[22,65],[-59,-11],[-61,65],[-103,-113],[-127,-30]],[[0,16],[32,-16]],[[3029,1880],[14,33],[-23,75],[-44,14],[-25,47],[2,86],[-41,21],[34,214],[-74,63],[22,65],[76,-2],[3,41],[-35,69],[-58,36],[5,57],[-58,97],[-90,-17],[-103,-83],[-244,192],[-42,81],[42,40],[32,-23],[35,92],[-63,114],[28,72],[106,-18],[242,17],[17,107],[-43,74],[64,154],[63,38]],[[2871,3636],[332,210],[4,196],[29,54]],[[0,3436],[97,-8],[141,-119],[114,-4],[122,-132],[207,-107],[129,-31],[71,-49],[114,-179],[115,-67]],[[4096,1804],[-117,108],[-1448,556],[-114,-6],[-296,-125],[-214,79],[-469,263],[-275,34],[-54,28]],[[3264,641],[90,137],[2,72],[96,161],[-146,324],[-140,-12],[-57,36],[-55,-62],[-128,-29],[-41,91],[-281,38],[-66,-81],[-38,-12],[-315,-10],[-203,184],[-89,125],[26,326],[-94,316],[-203,53],[-332,7],[-66,101],[-166,-21],[-104,95],[-243,-25],[-50,37],[-122,5],[-450,183],[-36,40],[-53,2]],[[0,3436],[97,-8],[141,-119],[114,-4],[122,-132],[207,-107],[129,-31],[71,-49],[114,-179],[115,-67]],[[1109,2741],[54,-28],[275,-34],[469,-263],[214,-79],[296,125],[114,6],[1448,-556],[117,-108]],[[0,3436],[97,-8],[141,-119],[114,-4],[122,-132],[207,-107],[129,-31],[71,-49],[114,-179],[115,-67]],[[1109,2741],[54,-28],[275,-34],[469,-263],[214,-79],[296,125],[114,6],[1448,-556],[117,-108]],[[1067,3465],[16,-94],[77,-155],[-81,-456],[83,-47],[276,-34],[457,-257]],[[1088,2753],[22,-13]],[[3264,641],[93,144],[1,70],[110,173],[292,229],[190,37],[146,60]],[[0,3436],[97,-8],[141,-119],[114,-4],[122,-132],[207,-107],[129,-31],[71,-49],[114,-179],[115,-67]],[[1109,2741],[54,-28],[275,-34],[469,-263],[214,-79],[296,125],[114,6],[1448,-556],[117,-108]],[[0,3436],[97,-8],[141,-119],[114,-4],[122,-132],[207,-107],[129,-31],[71,-49],[114,-179],[115,-67]],[[1109,2741],[54,-28],[275,-34],[469,-263],[214,-79],[296,125],[114,6],[1448,-556],[117,-108]],[[0,3436],[97,-8],[141,-119],[114,-4],[122,-132],[207,-107],[129,-31],[71,-49],[114,-179],[115,-67]],[[1109,2741],[54,-28],[275,-34],[469,-263],[214,-79],[296,125],[114,6],[1448,-556],[117,-108]],[[3264,641],[93,144],[1,70],[108,171],[294,231],[190,37],[146,60]],[[4096,3143],[0,-2],[-173,-68],[-90,-19],[-96,3],[-50,12],[-49,17],[-46,27],[-44,39],[-37,11],[-164,0],[-53,14],[-38,33],[-30,36],[-28,26],[-45,17],[-118,23],[-46,4],[-60,42],[-105,191],[-4,7],[-81,61],[76,151],[25,23],[0,20],[-29,16],[-36,7],[-40,-5],[-38,-18],[54,-61],[-16,-59],[-55,-48],[-60,-26],[-73,-3],[-136,29],[-72,-2],[-457,-89],[-59,-19],[-66,-12],[-54,17],[-22,69],[-1,50],[-5,12],[-12,-6],[-20,-1],[-121,22],[-18,-3],[-60,-15],[-33,-4],[-15,-16],[-31,-77],[-14,-26],[-44,-53],[-20,-32],[-25,-15],[-58,2],[-104,54],[-166,194],[-129,34],[0,19],[41,37],[158,96],[132,35],[81,34],[41,35],[-54,22],[-48,-15],[-129,-76],[-71,-54],[-108,-54],[-43,-15],[-138,-20],[-72,-21],[-31,-34],[-33,-14],[-245,-43],[-26,-1],[-22,-7],[-24,-22],[-10,-27],[-18,-77],[-12,-16],[-43,-17],[-33,-9],[-33,5],[-36,18],[0,10],[18,12],[18,24],[14,55],[10,72],[-11,64],[-61,36],[-17,13],[0,304],[1612,0],[-7,-14],[-1,-29],[13,0],[30,43],[225,0],[19,-8],[35,-5],[32,-11],[34,-5],[22,26],[-1,3],[2083,0],[0,-477],[-30,7],[-39,25],[-31,35],[-19,41],[-21,0],[-19,-31],[-19,-23],[-15,-24],[-7,-32],[123,-59],[59,-11],[18,8],[0,-338],[-21,-1],[21,-73]],[[2192,3955],[31,-2],[54,5],[20,-3],[34,-11],[62,-28],[12,8],[13,20],[21,-1],[21,-12],[18,6],[2,19],[-4,9],[-182,21],[-102,23],[-81,31],[-57,7],[-12,-17],[17,-9],[21,-29],[29,-7],[83,-30]],[[2498,3944],[2,-41],[10,-9],[6,21],[22,12],[33,-7],[15,4],[3,23],[9,2],[13,-1],[7,22],[-6,25],[-8,9],[-27,-6],[-50,-20],[-29,-34]],[[2890,3968],[-19,-26],[-11,-43],[35,20],[13,-2],[11,-18],[50,10],[59,-17],[51,-22],[30,-4],[24,17],[23,11],[17,13],[7,23],[-8,23],[-17,1],[-21,-8],[-16,-4],[-74,-2],[-25,2],[-16,9],[-23,28],[-12,6],[-47,-3],[-31,-14]],[[2189,3853],[-29,46],[-21,0],[0,-43],[-45,41],[-13,22],[-20,-20],[12,-17],[16,-32],[12,-18],[-62,14],[-57,2],[-52,-11],[-176,-117],[-33,-36],[144,73],[71,25],[94,9],[36,-9],[31,-16],[35,-3],[48,28],[27,26],[0,15],[-18,21]],[[3237,3792],[5,-28],[-26,3],[-11,-6],[7,-21],[5,-5],[40,10],[44,19],[28,23],[75,10],[23,-2],[23,6],[5,14],[-40,7],[-33,0],[-67,-5],[-22,-1],[-41,-6],[-15,-18]],[[3661,3759],[8,-26],[19,-12],[5,-6],[5,-15],[13,-6],[43,-24],[23,-8],[12,-24],[13,-22],[20,-14],[17,2],[15,18],[3,21],[-11,21],[-8,10],[-18,24],[-42,39],[-21,22],[1,17],[-26,8],[-21,-2],[-22,-4],[-28,-19]],[[3876,3335],[-52,34],[-65,-7],[-142,-70],[-24,18],[-20,4],[-17,-8],[-18,-14],[45,-35],[293,-51],[-2,31],[-11,24],[-18,19],[-27,12],[15,9],[28,25],[15,9]],[[0,753],[1,1],[6,8],[7,4],[34,10],[43,41],[23,10],[31,-10],[56,-41],[33,-10],[140,0],[111,-48],[64,-210],[105,-47],[36,8],[8,19],[4,22],[21,15],[24,-7],[20,-19],[23,-12],[34,16],[13,25],[-4,58],[9,27],[18,13],[82,30],[27,-22],[42,-92],[12,-99],[-41,-69],[60,-4],[23,98],[-2,382],[-41,135],[-1,39],[20,33],[32,11],[40,-8],[39,-26],[77,-120],[13,-9],[-22,-134],[2,-50],[10,-31],[75,-159],[29,-49],[45,-31],[114,-24],[110,-56],[56,-20],[253,-26],[420,47],[359,-25],[362,10],[125,-47],[18,74],[-18,77],[-39,72],[-42,59],[-88,64],[-28,43],[16,67],[42,-19],[43,-5],[36,11],[20,33],[23,-38],[27,-27],[70,-43],[-42,-48],[3,-39],[37,-23],[58,0],[-4,-41],[26,-2],[36,10],[23,-10],[0,-25],[-12,-26],[-16,-27],[-12,-28],[17,8],[45,12],[-39,-33],[-50,-16],[-51,-2],[-41,8],[-1,-38],[9,-20],[32,-28],[11,-4],[35,6],[13,-2],[12,-17],[2,-18],[0,-16],[6,-14],[227,-245],[-3584,0],[0,332],[22,-13],[23,1],[-7,44],[-20,24],[-14,10],[-4,2],[0,353]],[[737,288],[-21,3],[-16,-7],[-13,-8],[-12,0],[-15,7],[-18,14],[-11,21],[-1,19],[4,13],[-21,39],[-10,-10],[2,-21],[-7,-7],[-12,4],[-5,10],[-12,0],[3,-23],[12,-33],[-10,-24],[-31,-11],[-28,-1],[-18,9],[-12,36],[-8,-10],[-18,3],[-56,44],[-14,20],[-7,22],[-12,9],[-13,-2],[-11,-5],[-23,20],[-11,-14],[10,-16],[34,-13],[150,-123],[34,-2],[32,15],[25,4],[15,-11],[8,-10],[11,-7],[110,37],[-4,9]],[[3977,3727],[-21,0],[-19,-31],[-19,-23],[-15,-24],[-7,-32],[123,-59],[59,-11],[18,8]],[[4096,3619],[-30,7],[-39,25],[-31,35],[-19,41]],[[2139,3899],[0,-43],[-45,41],[-13,22],[-20,-20],[12,-17],[16,-32],[12,-18],[-62,14],[-57,2],[-52,-11],[-176,-117],[-33,-36],[144,73],[71,25],[94,9],[36,-9],[31,-16],[35,-3],[48,28],[27,26],[0,15],[-18,21],[-29,46],[-21,0]],[[3617,3292],[-24,18],[-20,4],[-17,-8],[-18,-14],[45,-35],[293,-51],[-2,31],[-11,24],[-18,19],[-27,12],[15,9],[28,25],[15,9],[-52,34],[-65,-7],[-142,-70]],[[3118,3942],[-74,-2],[-25,2],[-16,9],[-23,28],[-12,6],[-47,-3],[-31,-14],[-19,-26],[-11,-43],[35,20],[13,-2],[11,-18],[50,10],[59,-17],[51,-22],[30,-4],[24,17],[23,11],[17,13],[7,23],[-8,23],[-17,1],[-21,-8],[-16,-4]],[[4096,3217],[-21,-1],[21,-73]],[[4096,3141],[-173,-68],[-90,-19],[-96,3],[-50,12],[-49,17],[-46,27],[-44,39],[-37,11],[-164,0],[-53,14],[-38,33],[-30,36],[-28,26],[-45,17],[-118,23],[-46,4],[-60,42],[-105,191],[-4,7],[-81,61],[76,151],[25,23],[0,20],[-29,16],[-36,7],[-40,-5],[-38,-18],[54,-61],[-16,-59],[-55,-48],[-60,-26],[-73,-3],[-136,29],[-72,-2],[-457,-89],[-59,-19],[-66,-12],[-54,17],[-22,69],[-1,50],[-5,12],[-12,-6],[-20,-1],[-121,22],[-18,-3],[-60,-15],[-33,-4],[-15,-16],[-31,-77],[-14,-26],[-44,-53],[-20,-32],[-25,-15],[-58,2],[-104,54],[-166,194],[-129,34],[0,19],[41,37],[158,96],[132,35],[81,34],[41,35],[-54,22],[-48,-15],[-129,-76],[-71,-54],[-108,-54],[-43,-15],[-138,-20],[-72,-21],[-31,-34],[-33,-14],[-245,-43],[-26,-1],[-22,-7],[-24,-22],[-10,-27],[-18,-77],[-12,-16],[-43,-17],[-33,-9],[-33,5],[-36,18],[0,10],[18,12],[18,24],[14,55],[10,72],[-11,64],[-61,36],[-17,13]],[[0,753],[1,1],[6,8],[7,4],[34,10],[43,41],[23,10],[31,-10],[56,-41],[33,-10],[140,0],[111,-48],[64,-210],[105,-47],[36,8],[8,19],[4,22],[21,15],[24,-7],[20,-19],[23,-12],[34,16],[13,25],[-4,58],[9,27],[18,13],[82,30],[27,-22],[42,-92],[12,-99],[-41,-69],[60,-4],[23,98],[-2,382],[-41,135],[-1,39],[20,33],[32,11],[40,-8],[39,-26],[77,-120],[13,-9],[-22,-134],[2,-50],[10,-31],[75,-159],[29,-49],[45,-31],[114,-24],[110,-56],[56,-20],[253,-26],[420,47],[359,-25],[362,10],[125,-47],[18,74],[-18,77],[-39,72],[-42,59],[-88,64],[-28,43],[16,67],[42,-19],[43,-5],[36,11],[20,33],[23,-38],[27,-27],[70,-43],[-42,-48],[3,-39],[37,-23],[58,0],[-4,-41],[26,-2],[36,10],[23,-10],[0,-25],[-12,-26],[-16,-27],[-12,-28],[17,8],[45,12],[-39,-33],[-50,-16],[-51,-2],[-41,8],[-1,-38],[9,-20],[32,-28],[11,-4],[35,6],[13,-2],[12,-17],[2,-18],[0,-16],[6,-14],[227,-245]],[[1872,4096],[19,-8],[35,-5],[32,-11],[34,-5],[22,26],[-1,3]],[[2294,3986],[-102,23],[-81,31],[-57,7],[-12,-17],[17,-9],[21,-29],[29,-7],[83,-30],[31,-2],[54,5],[20,-3],[34,-11],[62,-28],[12,8],[13,20],[21,-1],[21,-12],[18,6],[2,19],[-4,9],[-182,21]],[[2604,4004],[-27,-6],[-50,-20],[-29,-34],[2,-41],[10,-9],[6,21],[22,12],[33,-7],[15,4],[3,23],[9,2],[13,-1],[7,22],[-6,25],[-8,9]],[[3382,3822],[-67,-5],[-22,-1],[-41,-6],[-15,-18],[5,-28],[-26,3],[-11,-6],[7,-21],[5,-5],[40,10],[44,19],[28,23],[75,10],[23,-2],[23,6],[5,14],[-40,7],[-33,0]],[[3838,3674],[-18,24],[-42,39],[-21,22],[1,17],[-26,8],[-21,-2],[-22,-4],[-28,-19],[8,-26],[19,-12],[5,-6],[5,-15],[13,-6],[43,-24],[23,-8],[12,-24],[13,-22],[20,-14],[17,2],[15,18],[3,21],[-11,21],[-8,10]],[[18,388],[-14,10],[-4,2]],[[0,332],[22,-13],[23,1],[-7,44],[-20,24]],[[155,3304],[-155,13]],[[125,3418],[2,-2]],[[743,3052],[17,-4]],[[971,3505],[8,8]],[[1884,2490],[2,-3]],[[1892,2398]],[[1962,2418],[14,-7]],[[3024,2285],[-34,13]],[[3237,562]],[[3246,720],[1,1]],[[3253,707],[-1,-3]],[[3253,710],[5,24]],[[3277,662],[-22,-12]],[[3258,696],[2,-2]],[[3260,694],[-1,2]],[[3260,694],[17,-32]],[[3277,662],[47,27]],[[3416,950],[-9,-7]],[[3413,2949],[-2,17]],[[3546,1075]],[[3578,2075],[-12,5]],[[3855,2025],[-19,-4]],[[3904,1968],[2,0]],[[0,3452],[22,-6]],[[21,3446],[-21,7]],[[0,3526],[9,30]],[[9,3556],[12,40]],[[21,3596],[0,1],[-21,30]],[[0,3626],[21,-30]],[[21,3596],[-12,-40]],[[9,3556],[-9,-30]],[[66,3454],[70,11],[15,-7],[2,0]],[[153,3458],[32,-5]],[[185,3453],[2,0]],[[193,3461],[-4,-6],[-4,-2]],[[185,3453],[-12,-5],[-20,10]],[[153,3458],[-15,7],[-2,1],[-70,-12]],[[189,3455],[4,6],[6,15]],[[199,3477],[62,102],[102,11],[43,39],[170,54],[64,46]],[[640,3729],[-64,-46],[-39,1]],[[806,3748],[0,-2]],[[808,3748],[-1,1]],[[642,3731],[-2,-2]],[[640,3729],[2,1]],[[807,3749],[0,1],[-165,-19]],[[643,3730],[163,18]],[[3208,450],[-4,-66]],[[187,3453],[2,2]],[[199,3476],[0,1]],[[352,3589],[0,-1]],[[807,3748],[1,0]],[[811,3750],[-2,0]],[[828,3765],[95,51]],[[966,3839],[-85,-40],[-51,-31]],[[923,3816],[43,22]],[[923,3816],[2,3]],[[1051,3888],[-21,-12]],[[1030,3876],[20,11]],[[1218,3951],[-1,-1]],[[1247,3959],[-6,-2]],[[1890,2394],[2,4]],[[1892,2398],[10,22]],[[1848,2207],[10,142],[32,45]],[[1852,2186],[-4,21]],[[1890,1992],[-37,193]],[[1902,2420],[8,15]],[[3226,626],[-34,-164],[16,-12]],[[3246,722],[160,219]],[[3408,942],[138,133]],[[3408,942],[-1,1],[-2,-2],[2,-1],[1,2]],[[3546,1075],[282,254],[158,87],[65,-6],[45,-36]],[[817,3759],[-3,-5]],[[815,3755],[2,3]],[[1030,3876],[-64,-37]],[[966,3838],[64,38]],[[1050,3887],[73,25],[43,30],[17,3],[6,1]],[[1189,3946],[40,8]],[[1229,3954],[19,3]],[[1217,3950],[-28,-4]],[[1189,3946],[-8,-1],[-21,-4],[-109,-53]],[[1241,3957],[-12,-3]],[[1229,3954],[-11,-3]],[[0,2299],[181,-72],[207,-21],[214,-64],[304,-131]],[[906,2011],[12,-5],[94,-64]],[[1012,1942],[186,-126],[20,-8]],[[1218,1808],[8,-3]],[[1226,1805],[305,-119],[322,-173],[145,-50],[38,-10],[2,0]],[[2038,1453],[43,0]],[[2081,1453],[9,0],[113,66],[628,63],[231,-10],[287,7],[44,-7],[304,38],[119,-21],[280,-153]],[[4096,1436],[-285,156],[-114,18],[-146,-6],[-158,-31],[-44,7],[-93,1],[-106,-4],[-88,-5],[-117,12],[-114,-2],[-630,-63],[-111,-66],[-9,0]],[[2081,1453],[-36,-1],[-7,1]],[[2038,1453],[-23,6],[-1,0],[-15,4],[-1,0],[-144,51],[-326,174],[-272,107],[-11,3],[-19,7]],[[1226,1805],[-7,2],[-1,1]],[[1218,1808],[-206,134]],[[1012,1942],[-106,69]],[[906,2011],[-5,4],[-310,132],[-203,60],[-207,21],[-181,72]],[[66,3454],[-46,-8]],[[22,3446],[44,8]],[[642,3731]],[[642,3730],[1,0]],[[806,3749],[1,-1]],[[809,3750],[-2,0]],[[830,3768],[-13,-9]],[[817,3758],[11,7]],[[1162,1338],[188,-74]],[[3411,2966],[-75,122],[-243,110],[-45,-13],[-127,83],[-95,13],[-121,-35],[-465,18],[-151,-90],[-152,-20],[-132,14],[-50,-86],[-84,-52],[-234,7],[-274,233],[-22,79],[-64,34],[-96,4],[-32,33],[22,85]],[[979,3513],[-6,6]],[[3839,2694],[-32,-23],[-213,117],[-52,87],[-129,74]],[[3999,2801],[97,-49]],[[3252,704],[-15,-142]],[[3237,562],[16,148]],[[799,3732],[2,5]],[[801,3737],[4,6]],[[801,3737]],[[847,3642],[-42,61]],[[800,3726],[-1,6]],[[800,3735],[0,-9]],[[805,3703],[-5,23]],[[0,3449],[19,-4]],[[19,3445],[3,1]],[[20,3445],[-1,0]],[[70,3453],[55,-35]],[[127,3416],[39,-152],[42,-49],[181,-51],[61,33],[293,-145]],[[1880,2495],[-425,176],[-411,46],[-103,90],[-181,241]],[[1880,2495],[4,-5]],[[1886,2487],[26,-46],[50,-23]],[[1976,2411],[50,-23],[132,4],[301,104],[531,-198]],[[3566,2080],[-542,205]],[[3836,2021],[-258,54]],[[3855,2025],[49,-57]],[[3906,1968],[142,-86],[39,-60],[-9,-30],[18,-19]],[[814,3754],[1,1]],[[805,3743],[1,3]],[[959,3532],[-112,110]],[[3246,721],[6,-11]],[[3254,706],[-7,16]],[[3247,721],[0,1]],[[3247,722],[-1,0],[1,-1]],[[806,3746],[2,2]],[[3049,815],[-190,-22],[-192,35],[-187,159]],[[3049,815],[85,-42],[90,-3]],[[3224,770],[-90,4],[-85,41]],[[3252,710],[6,-13]],[[1848,2207]],[[1853,2185],[-1,1]],[[2035,1460],[-144,224],[27,230],[-28,78]],[[2035,1460],[6,-17]],[[2041,1443],[73,-41],[266,-266],[100,-149]],[[3224,770],[15,-32]],[[3239,738],[7,-17]],[[3247,722],[-8,16]],[[3324,689]],[[3324,689],[-8,6],[-20,1],[-37,1],[-5,9]],[[3259,696],[65,-7]],[[3324,689],[37,21],[120,-14],[121,-62],[-13,-118],[53,-96],[56,-38],[2,-37],[-77,-139],[-14,-122],[30,-84]],[[3258,696],[1,0],[-1,1],[0,-1]],[[3839,2694],[19,56],[78,61],[63,-10]],[[38,364],[7,-44],[-23,-1],[-22,13],[0,68],[4,-2],[14,-10],[20,-24]],[[3818,3292],[27,-12],[18,-19],[11,-24],[2,-31],[-293,51],[-45,35],[18,14],[17,8],[20,-4],[24,-18],[142,70],[65,7],[52,-34],[-15,-9],[-28,-25],[-15,-9]],[[1872,4096],[141,0],[1,-3],[-22,-26],[-34,5],[-32,11],[-35,5],[-19,8]],[[4096,3141],[0,-3141],[-512,0],[-227,245],[-6,14],[0,16],[-2,18],[-12,17],[-13,2],[-35,-6],[-11,4],[-32,28],[-9,20],[1,38],[41,-8],[51,2],[50,16],[39,33],[-45,-12],[-17,-8],[12,28],[16,27],[12,26],[0,25],[-23,10],[-36,-10],[-26,2],[4,41],[-58,0],[-37,23],[-3,39],[42,48],[-70,43],[-27,27],[-23,38],[-20,-33],[-36,-11],[-43,5],[-42,19],[-16,-67],[28,-43],[88,-64],[42,-59],[39,-72],[18,-77],[-18,-74],[-125,47],[-362,-10],[-359,25],[-420,-47],[-253,26],[-56,20],[-110,56],[-114,24],[-45,31],[-29,49],[-75,159],[-10,31],[-2,50],[22,134],[-13,9],[-77,120],[-39,26],[-40,8],[-32,-11],[-20,-33],[1,-39],[41,-135],[2,-382],[-23,-98],[-60,4],[41,69],[-12,99],[-42,92],[-27,22],[-82,-30],[-18,-13],[-9,-27],[4,-58],[-13,-25],[-34,-16],[-23,12],[-20,19],[-24,7],[-21,-15],[-4,-22],[-8,-19],[-36,-8],[-105,47],[-64,210],[-111,48],[-140,0],[-33,10],[-56,41],[-31,10],[-23,-10],[-43,-41],[-34,-10],[-7,-4],[-6,-8],[-1,-1],[0,3039],[17,-13],[61,-36],[11,-64],[-10,-72],[-14,-55],[-18,-24],[-18,-12],[0,-10],[36,-18],[33,-5],[33,9],[43,17],[12,16],[18,77],[10,27],[24,22],[22,7],[26,1],[245,43],[33,14],[31,34],[72,21],[138,20],[43,15],[108,54],[71,54],[129,76],[48,15],[54,-22],[-41,-35],[-81,-34],[-132,-35],[-158,-96],[-41,-37],[0,-19],[129,-34],[166,-194],[104,-54],[58,-2],[25,15],[20,32],[44,53],[14,26],[31,77],[15,16],[33,4],[60,15],[18,3],[121,-22],[20,1],[12,6],[5,-12],[1,-50],[22,-69],[54,-17],[66,12],[59,19],[457,89],[72,2],[136,-29],[73,3],[60,26],[55,48],[16,59],[-54,61],[38,18],[40,5],[36,-7],[29,-16],[0,-20],[-25,-23],[-76,-151],[81,-61],[4,-7],[105,-191],[60,-42],[46,-4],[118,-23],[45,-17],[28,-26],[30,-36],[38,-33],[53,-14],[164,0],[37,-11],[44,-39],[46,-27],[49,-17],[50,-12],[96,-3],[90,19],[173,68]],[[4096,3217],[0,-74],[-21,73],[21,1]],[[3019,3942],[25,-2],[74,2],[16,4],[21,8],[17,-1],[8,-23],[-7,-23],[-17,-13],[-23,-11],[-24,-17],[-30,4],[-51,22],[-59,17],[-50,-10],[-11,18],[-13,2],[-35,-20],[11,43],[19,26],[31,14],[47,3],[12,-6],[23,-28],[16,-9]],[[2094,3897],[45,-41],[0,43],[21,0],[29,-46],[18,-21],[0,-15],[-27,-26],[-48,-28],[-35,3],[-31,16],[-36,9],[-94,-9],[-71,-25],[-144,-73],[33,36],[176,117],[52,11],[57,-2],[62,-14],[-12,18],[-16,32],[-12,17],[20,20],[13,-22]],[[2618,3970],[-7,-22],[-13,1],[-9,-2],[-3,-23],[-15,-4],[-33,7],[-22,-12],[-6,-21],[-10,9],[-2,41],[29,34],[50,20],[27,6],[8,-9],[6,-25]],[[2476,3965],[4,-9],[-2,-19],[-18,-6],[-21,12],[-21,1],[-13,-20],[-12,-8],[-62,28],[-34,11],[-20,3],[-54,-5],[-31,2],[-83,30],[-29,7],[-21,29],[-17,9],[12,17],[57,-7],[81,-31],[102,-23],[182,-21]],[[4096,3619],[0,-64],[-18,-8],[-59,11],[-123,59],[7,32],[15,24],[19,23],[19,31],[21,0],[19,-41],[31,-35],[39,-25],[30,-7]],[[3839,3604],[-17,-2],[-20,14],[-13,22],[-12,24],[-23,8],[-43,24],[-13,6],[-5,15],[-5,6],[-19,12],[-8,26],[28,19],[22,4],[21,2],[26,-8],[-1,-17],[21,-22],[42,-39],[18,-24],[8,-10],[11,-21],[-3,-21],[-15,-18]],[[3450,3801],[-23,-6],[-23,2],[-75,-10],[-28,-23],[-44,-19],[-40,-10],[-5,5],[-7,21],[11,6],[26,-3],[-5,28],[15,18],[41,6],[22,1],[67,5],[33,0],[40,-7],[-5,-14]],[[0,2060],[151,44],[-34,-43],[91,-53],[127,92],[135,7],[143,-43],[26,-39],[64,-5],[1,-55],[99,-45],[352,-385],[65,-22],[-178,-388],[-67,-14],[-41,145],[-74,49],[-2,-21],[-132,10],[-49,60],[-145,28],[-89,108],[-193,0],[-61,-37],[-92,38],[-97,-39],[0,608]],[[0,1361],[18,22],[23,-61],[130,-51],[9,-78],[433,-23],[2,-210],[58,8],[92,-50],[59,35],[42,-16],[94,119],[10,-35],[53,-2],[68,-151],[5,-133],[-28,-68],[58,-226],[90,-242],[53,-43],[57,-156],[-1088,0],[-60,89],[-178,109],[0,1163]],[[789,3635],[-95,39],[-80,82],[191,35],[118,53],[-118,-98],[0,-19],[118,-31],[-42,-51],[-92,-10]],[[4047,143],[13,86],[36,-5],[0,-109],[-49,28]],[[1208,4053],[0,43],[819,0],[-6,-52],[-374,0],[-54,-40],[-4,-34],[-71,-5],[-3,89],[-307,-1]]]}