{"objects":{"water":{"type":"GeometryCollection","geometries":[{"type":"Polygon","properties":{"source":"naturalearthdata.com","kind":"lake","name":"Ulansuhai Nur","area":343578080,"sort_rank":200,"min_zoom":0.0,"id":651},"arcs":[[304]]},{"type":"Polygon","properties":{"kind":"lake","name":"Danjiangkou Shuiku","reservoir":true,"area":1093483392,"sort_rank":200,"source":"naturalearthdata.com","min_zoom":0.0,"id":1219},"arcs":[[305]]},{"type":"Point","properties":{"label_placement":true,"kind":"lake","name":"Danjiangkou Shuiku","reservoir":true,"area":1093483392,"sort_rank":200,"source":"naturalearthdata.com","min_zoom":0.0,"id":1219},"coordinates":[3756,379]},{"type":"Point","properties":{"label_placement":true,"kind":"lake","name":"Ulansuhai Nur","area":343578080,"sort_rank":200,"source":"naturalearthdata.com","min_zoom":0.0,"id":651},"coordinates":[2761,4068]},{"type":"LineString","properties":{"source":"naturalearthdata.com","kind":"lake","sort_rank":367,"boundary":true,"min_zoom":0.0,"id":651},"arcs":[306]},{"type":"LineString","properties":{"source":"naturalearthdata.com","kind":"lake","sort_rank":367,"boundary":true,"min_zoom":0.0,"id":802},"arcs":[307]},{"type":"LineString","properties":{"source":"naturalearthdata.com","kind":"lake","reservoir":true,"sort_rank":367,"boundary":true,"min_zoom":0.0,"id":1219},"arcs":[308]}]},"buildings":{"type":"GeometryCollection","geometries":[]},"places":{"type":"GeometryCollection","geometries":[{"type":"Point","properties":{"name:kg":"Sina","name:ty":"Tinit\u014d","name:cy":"Tsieina","name:ko":"\uc911\uad6d","name:cv":"\u041a\u0438\u0442\u0430\u0439 \u0425\u0430\u043b\u04d1\u0445 \u0420\u0435\u0441\u043f\u0443\u0431\u043b\u0438\u043a\u0438","name:cu":"\u0421\u0440\u0463\u0434\u0438\u043d\ua657\u043d\u0454","name:kl":"Kina","name:cs":"\u010c\u00edna","name:ki":"Caina","name:kw":"China","name:kv":"\u041a\u0438\u0442\u0430\u0439","name:ku":"\u00c7\u00een","name:ti":"\u127b\u12ed\u1293","name:ks":"\u0686\u06cc\u0656\u0646","name:to":"Siaina","name:tl":"Tsina","name:ce":"\u041a\u0438\u0442\u0430\u0439\u043d \u0425\u0430\u043b\u043a\u044a\u0430\u043d \u0420\u0435\u0441\u043f\u0443\u0431\u043b\u0438\u043a\u0430","name:ta":"\u0b9a\u0bc0\u0ba9\u0bbe","name:tg":"\u0425\u0438\u0442\u043e\u0439","name:ca":"Xina","name:te":"\u0c1a\u0c48\u0c28\u0c3e","name:ka":"\u10e9\u10d8\u10dc\u10d4\u10d7\u10d8","name:hr":"Kina","name:da":"Kina","name:de":"China","name:dz":"\u0f62\u0f92\u0fb1\u0f0b\u0f53\u0f42","source":"openstreetmap.org","name:kn":"\u0c9a\u0cc0\u0ca8","name:dv":"\u0790\u07a9\u0782\u07aa\u0786\u07a6\u0783\u07a6","name:km":"\u1785\u17b7\u1793","name:lv":"\u0136\u012bna","name:lt":"Kinija","name:uz":"Xitoy","name:kk":"\u049a\u044b\u0442\u0430\u0439","name:ur":"\u0686\u06cc\u0646","name:lb":"Volleksrepublik China","name:la":"Sinae","name:lg":"Cayina","name:uk":"\u041a\u0438\u0442\u0430\u0439","name:ug":"\u062c\u06c7\u06ad\u062e\u06c7\u0627 \u062e\u06d5\u0644\u0642 \u062c\u06c7\u0645\u06be\u06c7\u0631\u0649\u064a\u0649\u062a\u0649","name:li":"Sjina","name:ln":"Sin\u025b","name:lo":"\u0eaa\u0e9b \u0e88\u0eb5\u0e99","name:el":"\u039a\u03af\u03bd\u03b1","name:eo":"\u0108inujo","name:en":"China","name":"\u4e2d\u56fd","name:tk":"Hyta\u00fd Halk Respublikasy","name:ee":"Tsaina nutome","name:th":"\u0e1b\u0e23\u0e30\u0e40\u0e17\u0e28\u0e08\u0e35\u0e19","name:eu":"Txinako Herri Errepublika","name:et":"Hiina","name:es":"China","name:ay":"Markani Republika China","name:rm":"China","name:rn":"Ubushinwa","name:az":"\u00c7in","name:ie":"China","name:id":"Cina","name:ig":"Chaina","name:ii":"\ua34f\ua1e9","name:ar":"\u0627\u0644\u0635\u064a\u0646","name:io":"Populala Republiko di Chinia","name:ak":"Kyaena","name:am":"\u127b\u12ed\u1293","name:it":"Cina","name:an":"Republica Popular de China","name:aa":"China","name:ru":"\u041a\u0438\u0442\u0430\u0439\u0441\u043a\u0430\u044f \u041d\u0430\u0440\u043e\u0434\u043d\u0430\u044f \u0420\u0435\u0441\u043f\u0443\u0431\u043b\u0438\u043a\u0430","name:ab":"\u0410\u0447\u044b\u043d\u04ad\u0430\u0442\u04d9\u0438 \u0410\u0436\u04d9\u043b\u0430\u0440\u0442\u04d9 \u0420\u0435\u0441\u043f\u0443\u0431\u043b\u0438\u043a\u0430","name:af":"Sjina","name:zu":"i-China","name:no":"Kina","name:za":"Cunghvaz Yinzminz Gunghozgoz","name:zh-yue":"\u4e2d\u83ef\u4eba\u6c11\u5171\u548c\u570b","name:zh":"Zh\u014dnggu\u00f3","name:so":"Shiinaha","name:sn":"China","name:sm":"Saina","name:sl":"Kitajska","name:sk":"\u010c\u00edna","name:ja":"\u4e2d\u83ef\u4eba\u6c11\u5171\u548c\u56fd","name:si":"\u0da0\u0dd3\u0db1\u0dba","name:sh":"Narodna Republika Kina","name:sg":"Sh\u00eena","name:se":"Kiinn\u00e1","name:sc":"Cina","name:br":"Sina","name:bs":"Kina","name:bm":"Siniwajamana","name:bn":"\u099a\u09c0\u09a8","name:bo":"\u0f62\u0f92\u0fb1\u0f0b\u0f53\u0f42","name:bi":"China","name:sw":"China","name:be":"\u041a\u0456\u0442\u0430\u0439","name:bg":"\u041a\u0438\u0442\u0430\u0439","name:ss":"IShayina","name:ba":"\u04a0\u044b\u0442\u0430\u0439","name:sq":"Kin\u00eb","name:jv":"R\u00e9publik Rakyat Cina","name:ia":"China","name:pt":"China","name:ps":"\u0686\u06cc\u0646","name:om":"China","name:oc":"China","min_zoom":2.0,"name:ro":"China","name:zh-min-nan":"Tiong-ho\u00e2 J\u00een-b\u00een Ki\u014dng-h\u00f4-kok","name:os":"\u041a\u0438\u0442\u0430\u0439","name:or":"\u0b1a\u0b3f\u0b28\u0b4d","name:pl":"Chiny","name:st":"Tjhaena","name:sr":"\u041a\u0438\u043d\u0430","name:pa":"\u0a1a\u0a40\u0a28 \u0a26\u0a3e \u0a32\u0a4b\u0a15 \u0a30\u0a3e\u0a1c\u0a40 \u0a17\u0a23\u0a24\u0a70\u0a24\u0a30","name:tr":"\u00c7in Halk Cumhuriyeti","name:hi":"\u091a\u0940\u0928","name:sv":"Kina","name:he":"\u05e1\u05d9\u05df","name:ha":"Caina, Sin","old_name:eo":"\u0124inujo","name:hy":"\u0549\u056b\u0576\u0561\u057d\u057f\u0561\u0576","name:hu":"K\u00edna","name:qu":"Chunwa Runallaqta Republika","population":1300000000,"kind":"country","name:ts":"China","name:is":"Al\u00fe\u00fd\u00f0ul\u00fd\u00f0veldi\u00f0 K\u00edna","name:yi":"\u05db\u05d9\u05e0\u05e2","name:iu":"China","name:yo":"Or\u00edl\u1eb9\u0301\u00e8de \u1e63\u00e1\u00edn\u00e0","name:mt":"\u010aina","alt_name:eo":"\u0108inio","alt_name:en":"People's Republic of China","name:ms":"China","name:mr":"\u091a\u0940\u0928","name:my":"\u1010\u101b\u102f\u1010\u103a","official_name":"\u4e2d\u534e\u4eba\u6c11\u5171\u548c\u56fd","int_name":"China","name:mg":"Sina","name:ml":"\u0d1a\u0d48\u0d28","name:vi":"Trung Qu\u1ed1c","name:mn":"\u0425\u044f\u0442\u0430\u0434","name:mi":"Haina","id":424313582,"name:mk":"\u041a\u0438\u043d\u0430","name:vo":"Tsyin\u00e4n","name:fa":"\u0686\u06cc\u0646","name:rw":"Ubushinwa","name:ff":"Siin","name:fi":"Kiina","name:ky":"\u041a\u044b\u0442\u0430\u0439","old_name:vi":"Trung C\u1ed9ng","name:fo":"Kina","alt_name:vi":"Trung Qu\u1ed1c","name:fr":"Chine","name:fy":"Sina","name:nl":"China","name:nn":"Kina","alt_name:ru":"\u041a\u0438\u0442\u0430\u0439","name:na":"Tsiene","name:nb":"Kina","name:ne":"\u091a\u0940\u0928","name:wo":"R\u00e9ewum Popileer bu Siin","name:ga":"An tS\u00edn","name:gd":"S\u00econa","name:gn":"China Tekoha Tet\u00e3","name:gl":"China","name:gv":"Deynphobblaght ny Sheen","name:gu":"\u0a9a\u0ac0\u0aa8","name:tt":"\u041a\u044b\u0442\u0430\u0439"},"coordinates":[1365,1383]},{"type":"Point","properties":{"source":"naturalearthdata.com","kind":"locality","name":"Xian","population":4009000,"min_zoom":4.0,"id":7171},"coordinates":[2783,1055]},{"type":"Point","properties":{"source":"naturalearthdata.com","kind":"locality","name":"Lanzhou","population":2561000,"region_capital":true,"min_zoom":4.0,"id":7152},"coordinates":[925,1863]},{"type":"Point","properties":{"source":"naturalearthdata.com","kind":"locality","name":"Baotou","population":2036000,"min_zoom":4.0,"id":7185},"coordinates":[3120,3948]},{"type":"Point","properties":{"name:ja":"\u965d\u897f\u7701","name:lt":"\u0160aansi","name:he":"\u05e9\u05d0\u05d0\u05e0\u05e9\u05d9","kind":"region","min_zoom":4.0,"name:uk":"\u0428\u0435\u043d\u044c\u0441\u0456","name:vi":"Thi\u1ec3m T\u00e2y","name:ru":"\u0428\u044d\u043d\u044c\u0441\u0438","name:pl":"Shaanxi","name:hr":"\u0160aansji","id":244081655,"name:eo":"\u015cen\u015djio","name:en":"Shaanxi Province","name":"\u9655\u897f\u7701","kind_detail":"state","name:da":"Shaanxi","name:de":"Shaanxi","source":"openstreetmap.org","name:fr":"Sh\u01cenx\u012b","name:zh":"Shaanxi Sheng","name:es":"Shaanxi"},"coordinates":[2822,1837]},{"type":"Point","properties":{"name:ja":"\u7518\u7c9b\u7701","name:lt":"Gansu","name:he":"\u05d2\u05d0\u05e0\u05e1\u05d5","kind":"region","min_zoom":4.0,"name:uk":"\u0490\u0430\u043d\u044c\u0441\u0443","name:vi":"Cam T\u00fac","name:ru":"\u0413\u0430\u043d\u044c\u0441\u0443","name:pl":"Gansu","name:hu":"Kanszu","name:hr":"Gansu","id":244079544,"name:eo":"Gansuo","name:en":"Gansu Province","name":"\u7518\u8083\u7701","kind_detail":"state","name:da":"Gansu","name:de":"Gansu","source":"openstreetmap.org","name:fr":"G\u0101ns\u00f9","name:zh":"Gansu Sheng","name:es":"Gansu"},"coordinates":[273,2744]},{"type":"Point","properties":{"name:eo":"Ning\u015djao","min_zoom":4.0,"name:bo":"\u0f49\u0f72\u0f44\u0f0b\u0f64\u0f0b\u0f67\u0f74\u0f60\u0f72\u0f0b\u0f62\u0f72\u0f42\u0f66\u0f0b\u0f62\u0f44\u0f0b\u0f66\u0f90\u0fb1\u0f7c\u0f44\u0f0b\u0f63\u0f97\u0f7c\u0f44\u0f66\u0f0d","name:uk":"\u041d\u0456\u043d\u0441\u044f-\u0425\u0443\u0435\u0439\u0441\u044c\u043a\u0438\u0439 \u0430\u0432\u0442\u043e\u043d\u043e\u043c\u043d\u0438\u0439 \u0440\u0430\u0439\u043e\u043d","name:vi":"Ninh H\u1ea1","name:ru":"\u041d\u0438\u043d\u0441\u044f-\u0425\u0443\u044d\u0439\u0441\u043a\u0438\u0439 \u0430\u0432\u0442\u043e\u043d\u043e\u043c\u043d\u044b\u0439 \u0440\u0430\u0439\u043e\u043d","name:pl":"Ningxia","name:hu":"Ninghszia","name:hr":"Ningsja-Huej","id":244081311,"kind":"region","name:en":"Ningxia Hui Autonomous Region","name":"\u5b81\u590f\u56de\u65cf\u81ea\u6cbb\u533a","kind_detail":"state","name:de":"Ningxia","source":"openstreetmap.org","name:fr":"R\u00e9gion autonome hui du N\u00edngxi\u00e0","name:zh":"Ningxia Huizu Zizhiqu","name:es":"Ningxia"},"coordinates":[1729,2290]},{"type":"Point","properties":{"name:eo":"\u015can\u015dio","min_zoom":4.0,"name:uk":"\u0428\u0430\u043d\u044c\u0441\u0456","name:vi":"S\u01a1n T\u00e2y","name:ru":"\u0428\u0430\u043d\u044c\u0441\u0438","name:pl":"Shanxi","name:hu":"Sanhszi","name:hr":"\u0160ansji","id":244081618,"kind":"region","name:en":"Shanxi Province","name":"\u5c71\u897f\u7701","kind_detail":"state","name:de":"Shanxi","source":"openstreetmap.org","name:fr":"Sh\u0101nx\u012b","name:zh":"Shanxi Sheng","name:es":"Shanxi"},"coordinates":[3914,2290]},{"type":"Point","properties":{"source":"naturalearthdata.com","kind":"locality","name":"Hohhot","population":1726000,"region_capital":true,"min_zoom":5.0,"id":6539},"coordinates":[3789,4024]},{"type":"Point","properties":{"source":"naturalearthdata.com","kind":"locality","name":"Tianshui","population":1225000,"min_zoom":5.0,"id":6465},"coordinates":[1700,1202]},{"type":"Point","properties":{"source":"naturalearthdata.com","kind":"locality","name":"Ankang","population":1100000,"min_zoom":5.0,"id":6516},"coordinates":[2829,330]},{"type":"Point","properties":{"source":"naturalearthdata.com","kind":"locality","name":"Xining","population":1048000,"region_capital":true,"min_zoom":5.0,"id":6929},"coordinates":[189,2119]},{"type":"Point","properties":{"source":"naturalearthdata.com","kind":"locality","name":"Yinchuan","population":991000,"region_capital":true,"min_zoom":5.0,"id":6960},"coordinates":[1828,2957]},{"type":"Point","properties":{"source":"naturalearthdata.com","kind":"locality","name":"Wuwei","population":493092,"min_zoom":5.0,"id":6463},"coordinates":[506,2711]},{"type":"Point","properties":{"source":"naturalearthdata.com","kind":"locality","name":"Yulin","population":155960,"min_zoom":5.0,"id":6515},"coordinates":[3089,2873]},{"type":"Point","properties":{"source":"naturalearthdata.com","kind":"locality","name":"Shizuishan","population":136570,"min_zoom":5.0,"id":6514},"coordinates":[2009,3304]},{"type":"Point","properties":{"source":"naturalearthdata.com","kind":"locality","name":"Houma","population":102400,"min_zoom":5.0,"id":6517},"coordinates":[3626,1664]}]},"transit":{"type":"GeometryCollection","geometries":[]},"pois":{"type":"GeometryCollection","geometries":[]},"boundaries":{"type":"GeometryCollection","geometries":[{"type":"MultiLineString","properties":{"source":"naturalearthdata.com","kind":"region","sort_rank":256,"kind_detail":"4","min_zoom":2.0,"id":4444},"arcs":[[0],[1],[2],[3],[4],[5],[6],[7],[8],[9],[10],[11],[12],[13],[14],[15],[16],[17],[18],[19],[20],[21],[22],[23],[24],[25],[26],[27],[28],[29]]},{"type":"LineString","properties":{"source":"naturalearthdata.com","kind":"region","sort_rank":256,"kind_detail":"4","min_zoom":2.0,"id":4445},"arcs":[30]},{"type":"MultiLineString","properties":{"source":"naturalearthdata.com","kind":"region","sort_rank":256,"kind_detail":"4","min_zoom":2.0,"id":4448},"arcs":[[31],[32],[33],[34],[35],[36],[37],[38],[39],[40],[41],[42],[43],[44],[45],[46],[47],[48],[49],[50],[51],[52],[53],[54],[55],[56],[57],[58],[59],[60],[61],[62],[63],[64],[65],[66],[67],[68],[69],[70],[71],[72]]},{"type":"MultiLineString","properties":{"source":"naturalearthdata.com","kind":"region","sort_rank":256,"kind_detail":"4","min_zoom":2.0,"id":4449},"arcs":[[73],[74],[75]]},{"type":"MultiLineString","properties":{"source":"naturalearthdata.com","kind":"region","sort_rank":256,"kind_detail":"4","min_zoom":2.0,"id":4453},"arcs":[[76],[77],[78],[79],[80],[81],[82],[83],[84],[85],[86],[87],[88],[89],[90],[91],[92],[93],[94],[95],[96],[97],[98],[99],[100],[101],[102],[103],[104],[105],[106],[107],[108],[109],[110],[111],[112],[113],[114],[115],[116]]},{"type":"MultiLineString","properties":{"source":"naturalearthdata.com","kind":"region","sort_rank":256,"kind_detail":"4","min_zoom":2.0,"id":4455},"arcs":[[117],[118],[119],[120],[121],[122],[123],[124]]},{"type":"LineString","properties":{"source":"naturalearthdata.com","kind":"region","sort_rank":256,"kind_detail":"4","min_zoom":2.0,"id":4429},"arcs":[125]},{"type":"MultiLineString","properties":{"source":"naturalearthdata.com","kind":"region","sort_rank":256,"kind_detail":"4","min_zoom":2.0,"id":4447},"arcs":[[126],[127],[128],[129],[130],[131],[132],[133],[134],[135],[136],[137],[138],[139],[140],[141],[142],[143],[144],[145],[146],[147],[148]]},{"type":"MultiLineString","properties":{"source":"naturalearthdata.com","kind":"region","sort_rank":256,"kind_detail":"4","min_zoom":2.0,"id":4441},"arcs":[[149],[150],[151],[152],[153],[154],[155],[156],[157],[158],[159]]},{"type":"MultiLineString","properties":{"source":"naturalearthdata.com","kind":"region","sort_rank":256,"kind_detail":"4","min_zoom":2.0,"id":4442},"arcs":[[160],[161],[162],[163],[164],[165],[166],[167],[168],[169],[170],[171],[172],[173],[174],[175],[176],[177],[178],[179],[180],[181],[182],[183],[184],[185],[186],[187],[188],[189],[190],[191],[192],[193]]},{"type":"MultiLineString","properties":{"source":"naturalearthdata.com","kind":"region","sort_rank":256,"kind_detail":"4","min_zoom":2.0,"id":4443},"arcs":[[194],[195],[196],[197],[198],[199],[200],[201],[202],[203],[204],[205]]},{"type":"MultiLineString","properties":{"source":"naturalearthdata.com","kind":"region","sort_rank":256,"kind_detail":"4","min_zoom":2.0,"id":4446},"arcs":[[206],[207],[208],[209],[210],[211],[212],[213],[214],[215],[216],[217],[218],[219],[220],[221],[222],[223]]},{"type":"MultiLineString","properties":{"source":"naturalearthdata.com","kind":"region","sort_rank":256,"kind_detail":"4","min_zoom":2.0,"id":4452},"arcs":[[224],[225],[226],[227],[228]]},{"type":"MultiLineString","properties":{"source":"naturalearthdata.com","kind":"region","sort_rank":256,"kind_detail":"4","min_zoom":2.0,"id":4456},"arcs":[[229],[230],[231],[232],[233],[234],[235],[236],[237],[238],[239],[240],[241],[242]]},{"type":"MultiLineString","properties":{"source":"naturalearthdata.com","kind":"region","sort_rank":256,"kind_detail":"4","min_zoom":2.0,"id":4463},"arcs":[[243],[244],[245]]},{"type":"MultiLineString","properties":{"source":"naturalearthdata.com","kind":"region","sort_rank":256,"kind_detail":"4","min_zoom":2.0,"id":4464},"arcs":[[246],[247],[248],[249],[250],[251],[252],[253],[254],[255],[256],[257],[258],[259],[260],[261],[262],[263],[264],[265],[266],[267],[268]]},{"type":"MultiLineString","properties":{"source":"naturalearthdata.com","kind":"region","sort_rank":256,"kind_detail":"4","min_zoom":2.0,"id":4467},"arcs":[[269],[270],[271],[272],[273],[274],[275],[276],[277],[278],[279],[280],[281],[282],[283],[284],[285],[286],[287],[288],[289],[290],[291],[292],[293]]},{"type":"MultiLineString","properties":{"source":"naturalearthdata.com","kind":"region","sort_rank":256,"kind_detail":"4","min_zoom":2.0,"id":4469},"arcs":[[294],[295],[296],[297],[298],[299],[300],[301],[302],[303]]}]},"roads":{"type":"GeometryCollection","geometries":[{"type":"LineString","properties":{"source":"naturalearthdata.com","kind":"highway","sort_rank":383,"kind_detail":"motorway","min_zoom":3.0,"id":9286},"arcs":[309]},{"type":"LineString","properties":{"source":"naturalearthdata.com","kind":"highway","sort_rank":383,"kind_detail":"motorway","min_zoom":5.0,"id":10550},"arcs":[310]},{"type":"LineString","properties":{"source":"naturalearthdata.com","kind":"highway","sort_rank":383,"kind_detail":"motorway","min_zoom":5.0,"id":10551},"arcs":[311]},{"type":"LineString","properties":{"source":"naturalearthdata.com","kind":"highway","sort_rank":383,"kind_detail":"motorway","min_zoom":3.0,"id":10552},"arcs":[312]},{"type":"LineString","properties":{"source":"naturalearthdata.com","kind":"highway","sort_rank":383,"kind_detail":"motorway","min_zoom":5.0,"id":10553},"arcs":[313]},{"type":"LineString","properties":{"source":"naturalearthdata.com","kind":"highway","sort_rank":383,"kind_detail":"motorway","min_zoom":3.0,"id":10554},"arcs":[314]},{"type":"LineString","properties":{"source":"naturalearthdata.com","kind":"highway","sort_rank":383,"kind_detail":"motorway","min_zoom":4.0,"id":10555},"arcs":[315]},{"type":"LineString","properties":{"source":"naturalearthdata.com","kind":"highway","sort_rank":383,"kind_detail":"motorway","min_zoom":4.0,"id":10556},"arcs":[316]},{"type":"LineString","properties":{"source":"naturalearthdata.com","kind":"highway","sort_rank":383,"kind_detail":"motorway","min_zoom":3.0,"id":10558},"arcs":[317]},{"type":"LineString","properties":{"source":"naturalearthdata.com","kind":"highway","sort_rank":383,"kind_detail":"motorway","min_zoom":3.0,"id":10559},"arcs":[318]},{"type":"LineString","properties":{"source":"naturalearthdata.com","kind":"highway","sort_rank":355,"kind_detail":"trunk","min_zoom":3.0,"id":10560},"arcs":[319]},{"type":"LineString","properties":{"source":"naturalearthdata.com","kind":"highway","sort_rank":355,"kind_detail":"trunk","min_zoom":3.0,"id":10561},"arcs":[320]},{"type":"LineString","properties":{"source":"naturalearthdata.com","kind":"highway","kind_detail":"motorway","sort_rank":383,"landuse_kind":"urban_area","min_zoom":3.0,"id":10562},"arcs":[321]},{"type":"LineString","properties":{"source":"naturalearthdata.com","kind":"highway","sort_rank":383,"kind_detail":"motorway","min_zoom":3.0,"id":10562},"arcs":[322]},{"type":"LineString","properties":{"source":"naturalearthdata.com","kind":"highway","kind_detail":"motorway","sort_rank":383,"landuse_kind":"urban_area","min_zoom":3.0,"id":10563},"arcs":[323]},{"type":"LineString","properties":{"source":"naturalearthdata.com","kind":"highway","sort_rank":383,"kind_detail":"motorway","min_zoom":3.0,"id":10563},"arcs":[324]},{"type":"LineString","properties":{"source":"naturalearthdata.com","kind":"highway","kind_detail":"motorway","sort_rank":383,"landuse_kind":"urban_area","min_zoom":3.0,"id":10565},"arcs":[325]},{"type":"LineString","properties":{"source":"naturalearthdata.com","kind":"highway","sort_rank":383,"kind_detail":"motorway","min_zoom":3.0,"id":10565},"arcs":[326]},{"type":"LineString","properties":{"source":"naturalearthdata.com","kind":"highway","kind_detail":"motorway","sort_rank":383,"landuse_kind":"urban_area","min_zoom":3.0,"id":10566},"arcs":[327]},{"type":"LineString","properties":{"source":"naturalearthdata.com","kind":"highway","sort_rank":383,"kind_detail":"motorway","min_zoom":3.0,"id":10566},"arcs":[328]},{"type":"LineString","properties":{"source":"naturalearthdata.com","kind":"highway","sort_rank":383,"kind_detail":"motorway","min_zoom":4.0,"id":10568},"arcs":[329]},{"type":"LineString","properties":{"source":"naturalearthdata.com","kind":"highway","sort_rank":383,"kind_detail":"motorway","min_zoom":4.0,"id":10569},"arcs":[330]},{"type":"LineString","properties":{"source":"naturalearthdata.com","kind":"highway","sort_rank":383,"kind_detail":"motorway","min_zoom":4.0,"id":10570},"arcs":[331]},{"type":"LineString","properties":{"source":"naturalearthdata.com","kind":"highway","sort_rank":383,"kind_detail":"motorway","min_zoom":3.0,"id":10572},"arcs":[332]},{"type":"LineString","properties":{"source":"naturalearthdata.com","kind":"highway","kind_detail":"motorway","sort_rank":383,"landuse_kind":"urban_area","min_zoom":3.0,"id":10573},"arcs":[333]},{"type":"MultiLineString","properties":{"source":"naturalearthdata.com","kind":"highway","sort_rank":383,"kind_detail":"motorway","min_zoom":3.0,"id":10573},"arcs":[[334],[335]]},{"type":"LineString","properties":{"source":"naturalearthdata.com","kind":"highway","sort_rank":383,"kind_detail":"motorway","min_zoom":3.0,"id":10574},"arcs":[336]},{"type":"LineString","properties":{"source":"naturalearthdata.com","kind":"highway","kind_detail":"motorway","sort_rank":383,"landuse_kind":"urban_area","min_zoom":3.0,"id":10576},"arcs":[337]},{"type":"LineString","properties":{"source":"naturalearthdata.com","kind":"highway","kind_detail":"motorway","sort_rank":383,"landuse_kind":"urban_area","min_zoom":3.0,"id":10576},"arcs":[338]},{"type":"LineString","properties":{"source":"naturalearthdata.com","kind":"highway","kind_detail":"motorway","sort_rank":383,"landuse_kind":"urban_area","min_zoom":3.0,"id":10576},"arcs":[339]},{"type":"MultiLineString","properties":{"source":"naturalearthdata.com","kind":"highway","sort_rank":383,"kind_detail":"motorway","min_zoom":3.0,"id":10576},"arcs":[[340],[341]]},{"type":"LineString","properties":{"source":"naturalearthdata.com","kind":"highway","kind_detail":"motorway","sort_rank":383,"landuse_kind":"urban_area","min_zoom":3.0,"id":10581},"arcs":[342]},{"type":"LineString","properties":{"source":"naturalearthdata.com","kind":"highway","sort_rank":383,"kind_detail":"motorway","min_zoom":3.0,"id":10581},"arcs":[343]},{"type":"LineString","properties":{"source":"naturalearthdata.com","kind":"highway","sort_rank":383,"kind_detail":"motorway","min_zoom":3.0,"id":10583},"arcs":[344]},{"type":"LineString","properties":{"source":"naturalearthdata.com","kind":"highway","kind_detail":"motorway","sort_rank":383,"landuse_kind":"urban_area","min_zoom":3.0,"id":10593},"arcs":[345]},{"type":"MultiLineString","properties":{"source":"naturalearthdata.com","kind":"highway","sort_rank":383,"kind_detail":"motorway","min_zoom":3.0,"id":10593},"arcs":[[346],[347]]},{"type":"LineString","properties":{"source":"naturalearthdata.com","kind":"highway","sort_rank":383,"kind_detail":"motorway","min_zoom":3.0,"id":10594},"arcs":[348]},{"type":"LineString","properties":{"source":"naturalearthdata.com","kind":"highway","sort_rank":383,"kind_detail":"motorway","min_zoom":3.0,"id":10596},"arcs":[349]},{"type":"LineString","properties":{"source":"naturalearthdata.com","kind":"highway","kind_detail":"motorway","sort_rank":383,"landuse_kind":"urban_area","min_zoom":3.0,"id":10600},"arcs":[350]},{"type":"MultiLineString","properties":{"source":"naturalearthdata.com","kind":"highway","kind_detail":"motorway","sort_rank":383,"landuse_kind":"urban_area","min_zoom":3.0,"id":10600},"arcs":[[351],[352]]},{"type":"MultiLineString","properties":{"source":"naturalearthdata.com","kind":"highway","sort_rank":383,"kind_detail":"motorway","min_zoom":3.0,"id":10600},"arcs":[[353],[354],[355]]},{"type":"LineString","properties":{"source":"naturalearthdata.com","kind":"highway","kind_detail":"motorway","sort_rank":383,"landuse_kind":"urban_area","min_zoom":3.0,"id":10601},"arcs":[356]},{"type":"LineString","properties":{"source":"naturalearthdata.com","kind":"highway","kind_detail":"motorway","sort_rank":383,"landuse_kind":"urban_area","min_zoom":3.0,"id":10602},"arcs":[357]},{"type":"LineString","properties":{"source":"naturalearthdata.com","kind":"highway","sort_rank":383,"kind_detail":"motorway","min_zoom":3.0,"id":10603},"arcs":[358]},{"type":"LineString","properties":{"source":"naturalearthdata.com","kind":"highway","sort_rank":383,"kind_detail":"motorway","min_zoom":3.0,"id":10605},"arcs":[359]},{"type":"LineString","properties":{"source":"naturalearthdata.com","kind":"highway","sort_rank":383,"kind_detail":"motorway","min_zoom":3.0,"id":10606},"arcs":[360]},{"type":"LineString","properties":{"source":"naturalearthdata.com","kind":"highway","sort_rank":383,"kind_detail":"motorway","min_zoom":3.0,"id":10607},"arcs":[361]},{"type":"LineString","properties":{"source":"naturalearthdata.com","kind":"highway","sort_rank":383,"kind_detail":"motorway","min_zoom":3.0,"id":10608},"arcs":[362]},{"type":"LineString","properties":{"source":"naturalearthdata.com","kind":"highway","sort_rank":383,"kind_detail":"motorway","min_zoom":3.0,"id":10609},"arcs":[363]},{"type":"LineString","properties":{"source":"naturalearthdata.com","kind":"highway","kind_detail":"motorway","sort_rank":383,"landuse_kind":"urban_area","min_zoom":3.0,"id":10611},"arcs":[364]},{"type":"LineString","properties":{"source":"naturalearthdata.com","kind":"highway","sort_rank":383,"kind_detail":"motorway","min_zoom":3.0,"id":10611},"arcs":[365]},{"type":"LineString","properties":{"source":"naturalearthdata.com","kind":"highway","sort_rank":383,"kind_detail":"motorway","min_zoom":3.0,"id":10613},"arcs":[366]},{"type":"LineString","properties":{"source":"naturalearthdata.com","kind":"highway","sort_rank":383,"kind_detail":"motorway","min_zoom":3.0,"id":10617},"arcs":[367]},{"type":"LineString","properties":{"source":"naturalearthdata.com","kind":"highway","sort_rank":383,"kind_detail":"motorway","min_zoom":4.0,"id":10619},"arcs":[368]},{"type":"LineString","properties":{"source":"naturalearthdata.com","kind":"highway","sort_rank":383,"kind_detail":"motorway","min_zoom":3.0,"id":10620},"arcs":[369]},{"type":"LineString","properties":{"source":"naturalearthdata.com","kind":"highway","sort_rank":383,"kind_detail":"motorway","min_zoom":3.0,"id":10621},"arcs":[370]},{"type":"LineString","properties":{"source":"naturalearthdata.com","kind":"highway","sort_rank":383,"kind_detail":"motorway","min_zoom":4.0,"id":10622},"arcs":[371]},{"type":"LineString","properties":{"source":"naturalearthdata.com","kind":"highway","sort_rank":383,"kind_detail":"motorway","min_zoom":3.0,"id":10623},"arcs":[372]},{"type":"LineString","properties":{"source":"naturalearthdata.com","kind":"highway","sort_rank":383,"kind_detail":"motorway","min_zoom":3.0,"id":10624},"arcs":[373]},{"type":"LineString","properties":{"source":"naturalearthdata.com","kind":"highway","sort_rank":383,"kind_detail":"motorway","min_zoom":3.0,"id":10625},"arcs":[374]},{"type":"LineString","properties":{"source":"naturalearthdata.com","kind":"highway","sort_rank":383,"kind_detail":"motorway","min_zoom":3.0,"id":10626},"arcs":[375]},{"type":"LineString","properties":{"source":"naturalearthdata.com","kind":"highway","kind_detail":"motorway","sort_rank":383,"landuse_kind":"urban_area","min_zoom":4.0,"id":10627},"arcs":[376]},{"type":"LineString","properties":{"source":"naturalearthdata.com","kind":"highway","kind_detail":"motorway","sort_rank":383,"landuse_kind":"urban_area","min_zoom":4.0,"id":10628},"arcs":[377]},{"type":"LineString","properties":{"source":"naturalearthdata.com","kind":"highway","kind_detail":"motorway","sort_rank":383,"landuse_kind":"urban_area","min_zoom":4.0,"id":10630},"arcs":[378]},{"type":"LineString","properties":{"source":"naturalearthdata.com","kind":"highway","kind_detail":"motorway","sort_rank":383,"landuse_kind":"urban_area","min_zoom":4.0,"id":10631},"arcs":[379]},{"type":"LineString","properties":{"source":"naturalearthdata.com","kind":"highway","kind_detail":"motorway","sort_rank":383,"landuse_kind":"urban_area","min_zoom":4.0,"id":10632},"arcs":[380]},{"type":"LineString","properties":{"source":"naturalearthdata.com","kind":"highway","kind_detail":"motorway","sort_rank":383,"landuse_kind":"urban_area","min_zoom":4.0,"id":10633},"arcs":[381]},{"type":"LineString","properties":{"source":"naturalearthdata.com","kind":"highway","kind_detail":"motorway","sort_rank":383,"landuse_kind":"urban_area","min_zoom":3.0,"id":10634},"arcs":[382]},{"type":"LineString","properties":{"source":"naturalearthdata.com","kind":"highway","sort_rank":383,"kind_detail":"motorway","min_zoom":3.0,"id":10634},"arcs":[383]},{"type":"LineString","properties":{"source":"naturalearthdata.com","kind":"highway","kind_detail":"motorway","sort_rank":383,"landuse_kind":"urban_area","min_zoom":3.0,"id":10635},"arcs":[384]},{"type":"LineString","properties":{"source":"naturalearthdata.com","kind":"highway","sort_rank":383,"kind_detail":"motorway","min_zoom":3.0,"id":10635},"arcs":[385]},{"type":"LineString","properties":{"source":"naturalearthdata.com","kind":"highway","kind_detail":"motorway","sort_rank":383,"landuse_kind":"urban_area","min_zoom":3.0,"id":10636},"arcs":[386]},{"type":"LineString","properties":{"source":"naturalearthdata.com","kind":"highway","sort_rank":383,"kind_detail":"motorway","min_zoom":3.0,"id":10636},"arcs":[387]},{"type":"LineString","properties":{"source":"naturalearthdata.com","kind":"highway","kind_detail":"motorway","sort_rank":383,"landuse_kind":"urban_area","min_zoom":4.0,"id":10637},"arcs":[388]},{"type":"LineString","properties":{"source":"naturalearthdata.com","kind":"highway","kind_detail":"motorway","sort_rank":383,"landuse_kind":"urban_area","min_zoom":4.0,"id":10638},"arcs":[389]},{"type":"LineString","properties":{"source":"naturalearthdata.com","kind":"highway","kind_detail":"motorway","sort_rank":383,"landuse_kind":"urban_area","min_zoom":4.0,"id":10639},"arcs":[390]},{"type":"LineString","properties":{"source":"naturalearthdata.com","kind":"highway","kind_detail":"motorway","sort_rank":383,"landuse_kind":"urban_area","min_zoom":3.0,"id":10640},"arcs":[391]},{"type":"LineString","properties":{"source":"naturalearthdata.com","kind":"highway","sort_rank":383,"kind_detail":"motorway","min_zoom":3.0,"id":10640},"arcs":[392]},{"type":"LineString","properties":{"source":"naturalearthdata.com","kind":"highway","kind_detail":"motorway","sort_rank":383,"landuse_kind":"urban_area","min_zoom":4.0,"id":10641},"arcs":[393]},{"type":"LineString","properties":{"source":"naturalearthdata.com","kind":"highway","kind_detail":"motorway","sort_rank":383,"landuse_kind":"urban_area","min_zoom":5.0,"id":10642},"arcs":[394]},{"type":"LineString","properties":{"source":"naturalearthdata.com","kind":"highway","kind_detail":"motorway","sort_rank":383,"landuse_kind":"urban_area","min_zoom":4.0,"id":10643},"arcs":[395]},{"type":"LineString","properties":{"source":"naturalearthdata.com","kind":"highway","kind_detail":"motorway","sort_rank":383,"landuse_kind":"urban_area","min_zoom":4.0,"id":10644},"arcs":[396]},{"type":"LineString","properties":{"source":"naturalearthdata.com","kind":"highway","kind_detail":"motorway","sort_rank":383,"landuse_kind":"urban_area","min_zoom":4.0,"id":10645},"arcs":[397]},{"type":"LineString","properties":{"source":"naturalearthdata.com","kind":"highway","kind_detail":"motorway","sort_rank":383,"landuse_kind":"urban_area","min_zoom":5.0,"id":10646},"arcs":[398]},{"type":"LineString","properties":{"source":"naturalearthdata.com","kind":"highway","sort_rank":383,"kind_detail":"motorway","min_zoom":5.0,"id":10646},"arcs":[399]},{"type":"MultiLineString","properties":{"source":"naturalearthdata.com","kind":"highway","kind_detail":"motorway","sort_rank":383,"landuse_kind":"urban_area","min_zoom":4.0,"id":10647},"arcs":[[400],[401]]},{"type":"LineString","properties":{"source":"naturalearthdata.com","kind":"highway","sort_rank":383,"kind_detail":"motorway","min_zoom":4.0,"id":10647},"arcs":[402]},{"type":"LineString","properties":{"source":"naturalearthdata.com","kind":"highway","kind_detail":"motorway","sort_rank":383,"landuse_kind":"urban_area","min_zoom":5.0,"id":10649},"arcs":[403]},{"type":"MultiLineString","properties":{"source":"naturalearthdata.com","kind":"highway","kind_detail":"motorway","sort_rank":383,"landuse_kind":"urban_area","min_zoom":4.0,"id":10650},"arcs":[[404],[405]]},{"type":"LineString","properties":{"source":"naturalearthdata.com","kind":"highway","sort_rank":383,"kind_detail":"motorway","min_zoom":4.0,"id":10650},"arcs":[406]},{"type":"LineString","properties":{"source":"naturalearthdata.com","kind":"highway","sort_rank":383,"kind_detail":"motorway","min_zoom":4.0,"id":10651},"arcs":[407]},{"type":"LineString","properties":{"source":"naturalearthdata.com","kind":"highway","sort_rank":383,"kind_detail":"motorway","min_zoom":3.0,"id":10653},"arcs":[408]},{"type":"LineString","properties":{"source":"naturalearthdata.com","kind":"highway","sort_rank":383,"kind_detail":"motorway","min_zoom":3.0,"id":10655},"arcs":[409]},{"type":"LineString","properties":{"source":"naturalearthdata.com","kind":"highway","sort_rank":383,"kind_detail":"motorway","min_zoom":3.0,"id":10657},"arcs":[410]},{"type":"LineString","properties":{"source":"naturalearthdata.com","kind":"highway","sort_rank":383,"kind_detail":"motorway","min_zoom":3.0,"id":10661},"arcs":[411]},{"type":"LineString","properties":{"source":"naturalearthdata.com","kind":"highway","sort_rank":383,"kind_detail":"motorway","min_zoom":3.0,"id":10665},"arcs":[412]},{"type":"LineString","properties":{"source":"naturalearthdata.com","kind":"highway","sort_rank":383,"kind_detail":"motorway","min_zoom":3.0,"id":10674},"arcs":[413]},{"type":"LineString","properties":{"source":"naturalearthdata.com","kind":"highway","sort_rank":383,"kind_detail":"motorway","min_zoom":3.0,"id":10679},"arcs":[414]},{"type":"LineString","properties":{"source":"naturalearthdata.com","kind":"highway","sort_rank":383,"kind_detail":"motorway","min_zoom":3.0,"id":10772},"arcs":[415]},{"type":"LineString","properties":{"source":"naturalearthdata.com","kind":"highway","sort_rank":383,"kind_detail":"motorway","min_zoom":3.0,"id":10808},"arcs":[416]},{"type":"LineString","properties":{"source":"naturalearthdata.com","kind":"highway","sort_rank":383,"kind_detail":"motorway","min_zoom":3.0,"id":10814},"arcs":[417]},{"type":"LineString","properties":{"source":"naturalearthdata.com","kind":"highway","sort_rank":383,"kind_detail":"motorway","min_zoom":3.0,"id":10822},"arcs":[418]},{"type":"LineString","properties":{"source":"naturalearthdata.com","kind":"highway","sort_rank":355,"kind_detail":"trunk","min_zoom":3.0,"id":10823},"arcs":[419]},{"type":"LineString","properties":{"source":"naturalearthdata.com","kind":"highway","sort_rank":355,"kind_detail":"trunk","min_zoom":3.0,"id":10824},"arcs":[420]},{"type":"LineString","properties":{"source":"naturalearthdata.com","kind":"highway","sort_rank":355,"kind_detail":"trunk","min_zoom":3.0,"id":10825},"arcs":[421]},{"type":"LineString","properties":{"source":"naturalearthdata.com","kind":"highway","sort_rank":355,"kind_detail":"trunk","min_zoom":3.0,"id":10840},"arcs":[422]},{"type":"LineString","properties":{"source":"naturalearthdata.com","kind":"highway","sort_rank":383,"kind_detail":"motorway","min_zoom":3.0,"id":11032},"arcs":[423]},{"type":"LineString","properties":{"source":"naturalearthdata.com","kind":"highway","sort_rank":383,"kind_detail":"motorway","min_zoom":5.0,"id":11033},"arcs":[424]},{"type":"LineString","properties":{"source":"naturalearthdata.com","kind":"highway","sort_rank":383,"kind_detail":"motorway","min_zoom":3.0,"id":11034},"arcs":[425]},{"type":"LineString","properties":{"source":"naturalearthdata.com","kind":"highway","sort_rank":383,"kind_detail":"motorway","min_zoom":3.0,"id":11035},"arcs":[426]},{"type":"LineString","properties":{"source":"naturalearthdata.com","kind":"highway","sort_rank":383,"kind_detail":"motorway","min_zoom":3.0,"id":11036},"arcs":[427]},{"type":"LineString","properties":{"source":"naturalearthdata.com","kind":"highway","sort_rank":383,"kind_detail":"motorway","min_zoom":3.0,"id":11037},"arcs":[428]},{"type":"LineString","properties":{"source":"naturalearthdata.com","kind":"highway","sort_rank":383,"kind_detail":"motorway","min_zoom":4.0,"id":11038},"arcs":[429]},{"type":"LineString","properties":{"source":"naturalearthdata.com","kind":"highway","sort_rank":383,"kind_detail":"motorway","min_zoom":5.0,"id":11039},"arcs":[430]},{"type":"LineString","properties":{"source":"naturalearthdata.com","kind":"highway","sort_rank":383,"kind_detail":"motorway","min_zoom":3.0,"id":11040},"arcs":[431]},{"type":"LineString","properties":{"source":"naturalearthdata.com","kind":"highway","sort_rank":383,"kind_detail":"motorway","min_zoom":3.0,"id":11041},"arcs":[432]},{"type":"LineString","properties":{"source":"naturalearthdata.com","kind":"highway","kind_detail":"motorway","sort_rank":383,"landuse_kind":"urban_area","min_zoom":3.0,"id":11042},"arcs":[433]},{"type":"MultiLineString","properties":{"source":"naturalearthdata.com","kind":"highway","sort_rank":383,"kind_detail":"motorway","min_zoom":3.0,"id":11042},"arcs":[[434],[435]]},{"type":"LineString","properties":{"source":"naturalearthdata.com","kind":"highway","sort_rank":383,"kind_detail":"motorway","min_zoom":3.0,"id":11043},"arcs":[436]},{"type":"LineString","properties":{"source":"naturalearthdata.com","kind":"highway","sort_rank":383,"kind_detail":"motorway","min_zoom":3.0,"id":11044},"arcs":[437]},{"type":"LineString","properties":{"source":"naturalearthdata.com","kind":"highway","sort_rank":383,"kind_detail":"motorway","min_zoom":3.0,"id":11045},"arcs":[438]},{"type":"LineString","properties":{"source":"naturalearthdata.com","kind":"highway","sort_rank":383,"kind_detail":"motorway","min_zoom":3.0,"id":11046},"arcs":[439]},{"type":"LineString","properties":{"source":"naturalearthdata.com","kind":"highway","sort_rank":383,"kind_detail":"motorway","min_zoom":5.0,"id":11047},"arcs":[440]},{"type":"LineString","properties":{"source":"naturalearthdata.com","kind":"highway","sort_rank":383,"kind_detail":"motorway","min_zoom":5.0,"id":11068},"arcs":[441]},{"type":"LineString","properties":{"source":"naturalearthdata.com","kind":"highway","kind_detail":"motorway","sort_rank":383,"landuse_kind":"urban_area","min_zoom":3.0,"id":19454},"arcs":[442]},{"type":"LineString","properties":{"source":"naturalearthdata.com","kind":"highway","sort_rank":383,"kind_detail":"motorway","min_zoom":3.0,"id":19454},"arcs":[443]},{"type":"LineString","properties":{"source":"naturalearthdata.com","kind":"highway","kind_detail":"motorway","sort_rank":383,"landuse_kind":"urban_area","min_zoom":3.0,"id":19482},"arcs":[444]},{"type":"LineString","properties":{"source":"naturalearthdata.com","kind":"major_road","sort_rank":379,"kind_detail":"secondary","min_zoom":3.0,"id":19534},"arcs":[445]},{"type":"LineString","properties":{"source":"naturalearthdata.com","kind":"major_road","kind_detail":"secondary","sort_rank":379,"landuse_kind":"urban_area","min_zoom":4.0,"id":19540},"arcs":[446]},{"type":"LineString","properties":{"source":"naturalearthdata.com","kind":"major_road","kind_detail":"secondary","sort_rank":379,"landuse_kind":"urban_area","min_zoom":3.0,"id":19556},"arcs":[447]},{"type":"LineString","properties":{"source":"naturalearthdata.com","kind":"major_road","sort_rank":379,"kind_detail":"secondary","min_zoom":3.0,"id":19556},"arcs":[448]},{"type":"LineString","properties":{"source":"naturalearthdata.com","kind":"major_road","kind_detail":"secondary","sort_rank":379,"landuse_kind":"urban_area","min_zoom":3.0,"id":19571},"arcs":[449]},{"type":"LineString","properties":{"source":"naturalearthdata.com","kind":"minor_road","kind_detail":"tertiary","sort_rank":355,"landuse_kind":"urban_area","min_zoom":5.0,"id":19575},"arcs":[450]},{"type":"LineString","properties":{"source":"naturalearthdata.com","kind":"minor_road","sort_rank":355,"kind_detail":"tertiary","min_zoom":5.0,"id":19575},"arcs":[451]},{"type":"LineString","properties":{"source":"naturalearthdata.com","kind":"major_road","sort_rank":379,"kind_detail":"secondary","min_zoom":3.0,"id":19611},"arcs":[452]},{"type":"LineString","properties":{"source":"naturalearthdata.com","kind":"highway","kind_detail":"motorway","sort_rank":383,"landuse_kind":"urban_area","min_zoom":3.0,"id":19657},"arcs":[453]},{"type":"LineString","properties":{"source":"naturalearthdata.com","kind":"highway","sort_rank":383,"kind_detail":"motorway","min_zoom":3.0,"id":19657},"arcs":[454]},{"type":"LineString","properties":{"source":"naturalearthdata.com","kind":"minor_road","kind_detail":"tertiary","sort_rank":355,"landuse_kind":"urban_area","min_zoom":5.0,"id":19671},"arcs":[455]},{"type":"LineString","properties":{"source":"naturalearthdata.com","kind":"highway","sort_rank":383,"kind_detail":"motorway","min_zoom":3.0,"id":19700},"arcs":[456]},{"type":"LineString","properties":{"source":"naturalearthdata.com","kind":"highway","kind_detail":"motorway","sort_rank":383,"landuse_kind":"urban_area","min_zoom":3.0,"id":19727},"arcs":[457]},{"type":"LineString","properties":{"source":"naturalearthdata.com","kind":"highway","kind_detail":"motorway","sort_rank":383,"landuse_kind":"urban_area","min_zoom":3.0,"id":19727},"arcs":[458]},{"type":"LineString","properties":{"source":"naturalearthdata.com","kind":"highway","kind_detail":"motorway","sort_rank":383,"landuse_kind":"urban_area","min_zoom":3.0,"id":19727},"arcs":[459]},{"type":"MultiLineString","properties":{"source":"naturalearthdata.com","kind":"highway","sort_rank":383,"kind_detail":"motorway","min_zoom":3.0,"id":19727},"arcs":[[460],[461]]},{"type":"LineString","properties":{"source":"naturalearthdata.com","kind":"highway","kind_detail":"motorway","sort_rank":383,"landuse_kind":"urban_area","min_zoom":3.0,"id":19732},"arcs":[462]},{"type":"MultiLineString","properties":{"source":"naturalearthdata.com","kind":"highway","kind_detail":"motorway","sort_rank":383,"landuse_kind":"urban_area","min_zoom":3.0,"id":19740},"arcs":[[463],[464]]},{"type":"LineString","properties":{"source":"naturalearthdata.com","kind":"highway","kind_detail":"motorway","sort_rank":383,"landuse_kind":"urban_area","min_zoom":3.0,"id":19740},"arcs":[465]},{"type":"MultiLineString","properties":{"source":"naturalearthdata.com","kind":"highway","sort_rank":383,"kind_detail":"motorway","min_zoom":3.0,"id":19740},"arcs":[[466],[467]]},{"type":"LineString","properties":{"source":"naturalearthdata.com","kind":"major_road","kind_detail":"secondary","sort_rank":379,"landuse_kind":"urban_area","min_zoom":3.0,"id":19750},"arcs":[468]},{"type":"LineString","properties":{"source":"naturalearthdata.com","kind":"major_road","sort_rank":379,"kind_detail":"secondary","min_zoom":3.0,"id":19750},"arcs":[469]},{"type":"LineString","properties":{"source":"naturalearthdata.com","kind":"major_road","kind_detail":"secondary","sort_rank":379,"landuse_kind":"urban_area","min_zoom":4.0,"id":19816},"arcs":[470]},{"type":"LineString","properties":{"source":"naturalearthdata.com","kind":"major_road","sort_rank":379,"kind_detail":"secondary","min_zoom":4.0,"id":19816},"arcs":[471]},{"type":"LineString","properties":{"source":"naturalearthdata.com","kind":"major_road","sort_rank":379,"kind_detail":"secondary","min_zoom":3.0,"id":19877},"arcs":[472]},{"type":"LineString","properties":{"source":"naturalearthdata.com","kind":"major_road","sort_rank":379,"kind_detail":"secondary","min_zoom":4.0,"id":19902},"arcs":[473]},{"type":"LineString","properties":{"source":"naturalearthdata.com","kind":"major_road","kind_detail":"secondary","sort_rank":379,"landuse_kind":"urban_area","min_zoom":4.0,"id":19903},"arcs":[474]},{"type":"LineString","properties":{"source":"naturalearthdata.com","kind":"major_road","sort_rank":379,"kind_detail":"secondary","min_zoom":4.0,"id":19903},"arcs":[475]},{"type":"LineString","properties":{"source":"naturalearthdata.com","kind":"major_road","sort_rank":379,"kind_detail":"secondary","min_zoom":4.0,"id":19907},"arcs":[476]},{"type":"LineString","properties":{"source":"naturalearthdata.com","kind":"major_road","sort_rank":379,"kind_detail":"secondary","min_zoom":3.0,"id":20000},"arcs":[477]},{"type":"LineString","properties":{"source":"naturalearthdata.com","kind":"major_road","sort_rank":379,"kind_detail":"secondary","min_zoom":4.0,"id":20230},"arcs":[478]},{"type":"MultiLineString","properties":{"source":"naturalearthdata.com","kind":"major_road","kind_detail":"secondary","sort_rank":379,"landuse_kind":"urban_area","min_zoom":4.0,"id":20390},"arcs":[[479],[480]]},{"type":"MultiLineString","properties":{"source":"naturalearthdata.com","kind":"major_road","sort_rank":379,"kind_detail":"secondary","min_zoom":4.0,"id":20390},"arcs":[[481],[482],[483]]},{"type":"LineString","properties":{"source":"naturalearthdata.com","kind":"minor_road","sort_rank":355,"kind_detail":"tertiary","min_zoom":5.0,"id":20405},"arcs":[484]},{"type":"LineString","properties":{"source":"naturalearthdata.com","kind":"minor_road","sort_rank":355,"kind_detail":"tertiary","min_zoom":5.0,"id":20509},"arcs":[485]},{"type":"LineString","properties":{"source":"naturalearthdata.com","kind":"major_road","kind_detail":"secondary","sort_rank":379,"landuse_kind":"urban_area","min_zoom":3.0,"id":20517},"arcs":[486]},{"type":"LineString","properties":{"source":"naturalearthdata.com","kind":"major_road","sort_rank":379,"kind_detail":"secondary","min_zoom":3.0,"id":20517},"arcs":[487]},{"type":"LineString","properties":{"source":"naturalearthdata.com","kind":"minor_road","sort_rank":355,"kind_detail":"tertiary","min_zoom":5.0,"id":20548},"arcs":[488]},{"type":"LineString","properties":{"source":"naturalearthdata.com","kind":"highway","sort_rank":383,"kind_detail":"motorway","min_zoom":4.0,"id":20588},"arcs":[489]},{"type":"LineString","properties":{"source":"naturalearthdata.com","kind":"major_road","sort_rank":379,"kind_detail":"secondary","min_zoom":4.0,"id":20612},"arcs":[490]},{"type":"LineString","properties":{"source":"naturalearthdata.com","kind":"major_road","kind_detail":"secondary","sort_rank":379,"landuse_kind":"urban_area","min_zoom":3.0,"id":20646},"arcs":[491]},{"type":"LineString","properties":{"source":"naturalearthdata.com","kind":"major_road","sort_rank":379,"kind_detail":"secondary","min_zoom":3.0,"id":20646},"arcs":[492]},{"type":"LineString","properties":{"source":"naturalearthdata.com","kind":"minor_road","sort_rank":355,"kind_detail":"tertiary","min_zoom":5.0,"id":20705},"arcs":[493]},{"type":"LineString","properties":{"source":"naturalearthdata.com","kind":"minor_road","sort_rank":355,"kind_detail":"tertiary","min_zoom":5.0,"id":20718},"arcs":[494]},{"type":"LineString","properties":{"source":"naturalearthdata.com","kind":"highway","sort_rank":383,"kind_detail":"motorway","min_zoom":4.0,"id":20749},"arcs":[495]},{"type":"LineString","properties":{"source":"naturalearthdata.com","kind":"major_road","sort_rank":379,"kind_detail":"secondary","min_zoom":3.0,"id":20767},"arcs":[496]},{"type":"LineString","properties":{"source":"naturalearthdata.com","kind":"minor_road","sort_rank":355,"kind_detail":"tertiary","min_zoom":5.0,"id":20801},"arcs":[497]},{"type":"LineString","properties":{"source":"naturalearthdata.com","kind":"highway","sort_rank":383,"kind_detail":"motorway","min_zoom":4.0,"id":20811},"arcs":[498]},{"type":"LineString","properties":{"source":"naturalearthdata.com","kind":"minor_road","sort_rank":355,"kind_detail":"tertiary","min_zoom":5.0,"id":20817},"arcs":[499]},{"type":"LineString","properties":{"source":"naturalearthdata.com","kind":"minor_road","sort_rank":355,"kind_detail":"tertiary","min_zoom":5.0,"id":20818},"arcs":[500]},{"type":"LineString","properties":{"source":"naturalearthdata.com","kind":"minor_road","sort_rank":355,"kind_detail":"tertiary","min_zoom":5.0,"id":20822},"arcs":[501]},{"type":"LineString","properties":{"source":"naturalearthdata.com","kind":"minor_road","sort_rank":355,"kind_detail":"tertiary","min_zoom":5.0,"id":20854},"arcs":[502]},{"type":"LineString","properties":{"source":"naturalearthdata.com","kind":"major_road","sort_rank":379,"kind_detail":"secondary","min_zoom":4.0,"id":20866},"arcs":[503]},{"type":"LineString","properties":{"source":"naturalearthdata.com","kind":"minor_road","sort_rank":355,"kind_detail":"tertiary","min_zoom":5.0,"id":20894},"arcs":[504]},{"type":"LineString","properties":{"source":"naturalearthdata.com","kind":"minor_road","sort_rank":355,"kind_detail":"tertiary","min_zoom":5.0,"id":20917},"arcs":[505]},{"type":"LineString","properties":{"source":"naturalearthdata.com","kind":"minor_road","sort_rank":355,"kind_detail":"tertiary","min_zoom":5.0,"id":20918},"arcs":[506]},{"type":"LineString","properties":{"source":"naturalearthdata.com","kind":"minor_road","sort_rank":355,"kind_detail":"tertiary","min_zoom":5.0,"id":20919},"arcs":[507]},{"type":"LineString","properties":{"source":"naturalearthdata.com","kind":"minor_road","sort_rank":355,"kind_detail":"tertiary","min_zoom":5.0,"id":20921},"arcs":[508]},{"type":"LineString","properties":{"source":"naturalearthdata.com","kind":"minor_road","sort_rank":355,"kind_detail":"tertiary","min_zoom":5.0,"id":20971},"arcs":[509]},{"type":"LineString","properties":{"source":"naturalearthdata.com","kind":"minor_road","sort_rank":355,"kind_detail":"tertiary","min_zoom":5.0,"id":20989},"arcs":[510]},{"type":"LineString","properties":{"source":"naturalearthdata.com","kind":"minor_road","kind_detail":"tertiary","sort_rank":355,"landuse_kind":"urban_area","min_zoom":5.0,"id":20990},"arcs":[511]},{"type":"MultiLineString","properties":{"source":"naturalearthdata.com","kind":"minor_road","sort_rank":355,"kind_detail":"tertiary","min_zoom":5.0,"id":20990},"arcs":[[512],[513]]},{"type":"LineString","properties":{"source":"naturalearthdata.com","kind":"minor_road","sort_rank":355,"kind_detail":"tertiary","min_zoom":5.0,"id":20991},"arcs":[514]},{"type":"LineString","properties":{"source":"naturalearthdata.com","kind":"major_road","sort_rank":379,"kind_detail":"secondary","min_zoom":3.0,"id":21002},"arcs":[515]},{"type":"LineString","properties":{"source":"naturalearthdata.com","kind":"highway","kind_detail":"motorway","sort_rank":383,"landuse_kind":"urban_area","min_zoom":5.0,"id":21003},"arcs":[516]},{"type":"LineString","properties":{"source":"naturalearthdata.com","kind":"highway","sort_rank":383,"kind_detail":"motorway","min_zoom":5.0,"id":21003},"arcs":[517]},{"type":"LineString","properties":{"source":"naturalearthdata.com","kind":"minor_road","kind_detail":"tertiary","sort_rank":355,"landuse_kind":"urban_area","min_zoom":5.0,"id":21017},"arcs":[518]},{"type":"LineString","properties":{"source":"naturalearthdata.com","kind":"minor_road","sort_rank":355,"kind_detail":"tertiary","min_zoom":5.0,"id":21017},"arcs":[519]},{"type":"LineString","properties":{"source":"naturalearthdata.com","kind":"minor_road","kind_detail":"tertiary","sort_rank":355,"landuse_kind":"urban_area","min_zoom":5.0,"id":21024},"arcs":[520]},{"type":"LineString","properties":{"source":"naturalearthdata.com","kind":"minor_road","kind_detail":"tertiary","sort_rank":355,"landuse_kind":"urban_area","min_zoom":5.0,"id":21047},"arcs":[521]},{"type":"LineString","properties":{"source":"naturalearthdata.com","kind":"minor_road","sort_rank":355,"kind_detail":"tertiary","min_zoom":5.0,"id":21047},"arcs":[522]},{"type":"LineString","properties":{"source":"naturalearthdata.com","kind":"minor_road","kind_detail":"tertiary","sort_rank":355,"landuse_kind":"urban_area","min_zoom":5.0,"id":21093},"arcs":[523]},{"type":"MultiLineString","properties":{"source":"naturalearthdata.com","kind":"minor_road","sort_rank":355,"kind_detail":"tertiary","min_zoom":5.0,"id":21093},"arcs":[[524],[525]]},{"type":"LineString","properties":{"source":"naturalearthdata.com","kind":"highway","sort_rank":383,"kind_detail":"motorway","min_zoom":3.0,"id":21119},"arcs":[526]},{"type":"LineString","properties":{"source":"naturalearthdata.com","kind":"highway","sort_rank":383,"kind_detail":"motorway","min_zoom":3.0,"id":21232},"arcs":[527]},{"type":"LineString","properties":{"source":"naturalearthdata.com","kind":"highway","kind_detail":"motorway","sort_rank":383,"landuse_kind":"urban_area","min_zoom":3.0,"id":21261},"arcs":[528]},{"type":"LineString","properties":{"source":"naturalearthdata.com","kind":"highway","sort_rank":383,"kind_detail":"motorway","min_zoom":3.0,"id":21261},"arcs":[529]},{"type":"LineString","properties":{"source":"naturalearthdata.com","kind":"highway","sort_rank":383,"kind_detail":"motorway","min_zoom":4.0,"id":21313},"arcs":[530]},{"type":"LineString","properties":{"source":"naturalearthdata.com","kind":"minor_road","sort_rank":355,"kind_detail":"tertiary","min_zoom":5.0,"id":21350},"arcs":[531]},{"type":"LineString","properties":{"source":"naturalearthdata.com","kind":"highway","sort_rank":383,"kind_detail":"motorway","min_zoom":4.0,"id":21351},"arcs":[532]},{"type":"LineString","properties":{"source":"naturalearthdata.com","kind":"highway","sort_rank":383,"kind_detail":"motorway","min_zoom":4.0,"id":21394},"arcs":[533]},{"type":"LineString","properties":{"source":"naturalearthdata.com","kind":"highway","sort_rank":383,"kind_detail":"motorway","min_zoom":3.0,"id":21430},"arcs":[534]},{"type":"LineString","properties":{"source":"naturalearthdata.com","kind":"highway","kind_detail":"motorway","sort_rank":383,"landuse_kind":"urban_area","min_zoom":3.0,"id":21468},"arcs":[535]},{"type":"LineString","properties":{"source":"naturalearthdata.com","kind":"highway","sort_rank":383,"kind_detail":"motorway","min_zoom":3.0,"id":21468},"arcs":[536]},{"type":"LineString","properties":{"source":"naturalearthdata.com","kind":"major_road","sort_rank":379,"kind_detail":"secondary","min_zoom":4.0,"id":21470},"arcs":[537]},{"type":"LineString","properties":{"source":"naturalearthdata.com","kind":"major_road","sort_rank":379,"kind_detail":"secondary","min_zoom":4.0,"id":21480},"arcs":[538]},{"type":"LineString","properties":{"source":"naturalearthdata.com","kind":"minor_road","sort_rank":355,"kind_detail":"tertiary","min_zoom":5.0,"id":21545},"arcs":[539]},{"type":"LineString","properties":{"source":"naturalearthdata.com","kind":"highway","sort_rank":383,"kind_detail":"motorway","min_zoom":4.0,"id":21547},"arcs":[540]},{"type":"LineString","properties":{"source":"naturalearthdata.com","kind":"major_road","sort_rank":379,"kind_detail":"secondary","min_zoom":4.0,"id":21550},"arcs":[541]},{"type":"LineString","properties":{"source":"naturalearthdata.com","kind":"highway","sort_rank":383,"kind_detail":"motorway","min_zoom":3.0,"id":21571},"arcs":[542]},{"type":"LineString","properties":{"source":"naturalearthdata.com","kind":"minor_road","sort_rank":355,"kind_detail":"tertiary","min_zoom":5.0,"id":21583},"arcs":[543]},{"type":"LineString","properties":{"source":"naturalearthdata.com","kind":"highway","sort_rank":383,"kind_detail":"motorway","min_zoom":3.0,"id":21593},"arcs":[544]},{"type":"LineString","properties":{"source":"naturalearthdata.com","kind":"highway","kind_detail":"motorway","sort_rank":383,"landuse_kind":"urban_area","min_zoom":3.0,"id":21607},"arcs":[545]},{"type":"MultiLineString","properties":{"source":"naturalearthdata.com","kind":"highway","sort_rank":383,"kind_detail":"motorway","min_zoom":3.0,"id":21607},"arcs":[[546],[547]]},{"type":"LineString","properties":{"source":"naturalearthdata.com","kind":"highway","sort_rank":383,"kind_detail":"motorway","min_zoom":3.0,"id":21642},"arcs":[548]},{"type":"LineString","properties":{"source":"naturalearthdata.com","kind":"major_road","sort_rank":379,"kind_detail":"secondary","min_zoom":4.0,"id":21684},"arcs":[549]},{"type":"LineString","properties":{"source":"naturalearthdata.com","kind":"highway","sort_rank":383,"kind_detail":"motorway","min_zoom":4.0,"id":21697},"arcs":[550]},{"type":"LineString","properties":{"source":"naturalearthdata.com","kind":"major_road","sort_rank":379,"kind_detail":"secondary","min_zoom":4.0,"id":21772},"arcs":[551]},{"type":"LineString","properties":{"source":"naturalearthdata.com","kind":"highway","sort_rank":383,"kind_detail":"motorway","min_zoom":3.0,"id":21777},"arcs":[552]},{"type":"LineString","properties":{"source":"naturalearthdata.com","kind":"major_road","sort_rank":379,"kind_detail":"secondary","min_zoom":4.0,"id":21798},"arcs":[553]},{"type":"MultiLineString","properties":{"source":"naturalearthdata.com","kind":"highway","kind_detail":"motorway","sort_rank":383,"landuse_kind":"urban_area","min_zoom":3.0,"id":21804},"arcs":[[554],[555]]},{"type":"LineString","properties":{"source":"naturalearthdata.com","kind":"highway","sort_rank":383,"kind_detail":"motorway","min_zoom":3.0,"id":21811},"arcs":[556]},{"type":"LineString","properties":{"source":"naturalearthdata.com","kind":"highway","sort_rank":383,"kind_detail":"motorway","min_zoom":3.0,"id":21812},"arcs":[557]},{"type":"LineString","properties":{"source":"naturalearthdata.com","kind":"highway","sort_rank":383,"kind_detail":"motorway","min_zoom":3.0,"id":21827},"arcs":[558]},{"type":"LineString","properties":{"source":"naturalearthdata.com","kind":"major_road","sort_rank":379,"kind_detail":"secondary","min_zoom":4.0,"id":21851},"arcs":[559]},{"type":"LineString","properties":{"source":"naturalearthdata.com","kind":"major_road","sort_rank":379,"kind_detail":"secondary","min_zoom":4.0,"id":21858},"arcs":[560]},{"type":"LineString","properties":{"source":"naturalearthdata.com","kind":"major_road","sort_rank":379,"kind_detail":"secondary","min_zoom":4.0,"id":21897},"arcs":[561]},{"type":"LineString","properties":{"source":"naturalearthdata.com","kind":"major_road","sort_rank":379,"kind_detail":"secondary","min_zoom":4.0,"id":21898},"arcs":[562]},{"type":"LineString","properties":{"source":"naturalearthdata.com","kind":"major_road","sort_rank":379,"kind_detail":"secondary","min_zoom":4.0,"id":21906},"arcs":[563]},{"type":"LineString","properties":{"source":"naturalearthdata.com","kind":"major_road","sort_rank":379,"kind_detail":"secondary","min_zoom":3.0,"id":21908},"arcs":[564]},{"type":"LineString","properties":{"source":"naturalearthdata.com","kind":"highway","kind_detail":"motorway","sort_rank":383,"landuse_kind":"urban_area","min_zoom":4.0,"id":21910},"arcs":[565]},{"type":"LineString","properties":{"source":"naturalearthdata.com","kind":"highway","kind_detail":"motorway","sort_rank":383,"landuse_kind":"urban_area","min_zoom":3.0,"id":21920},"arcs":[566]},{"type":"LineString","properties":{"source":"naturalearthdata.com","kind":"major_road","sort_rank":379,"kind_detail":"secondary","min_zoom":4.0,"id":21926},"arcs":[567]},{"type":"LineString","properties":{"source":"naturalearthdata.com","kind":"major_road","sort_rank":379,"kind_detail":"secondary","min_zoom":4.0,"id":21936},"arcs":[568]},{"type":"LineString","properties":{"source":"naturalearthdata.com","kind":"major_road","sort_rank":379,"kind_detail":"secondary","min_zoom":4.0,"id":21954},"arcs":[569]},{"type":"LineString","properties":{"source":"naturalearthdata.com","kind":"highway","sort_rank":383,"kind_detail":"motorway","min_zoom":3.0,"id":21970},"arcs":[570]},{"type":"LineString","properties":{"source":"naturalearthdata.com","kind":"highway","sort_rank":383,"kind_detail":"motorway","min_zoom":3.0,"id":21971},"arcs":[571]},{"type":"LineString","properties":{"source":"naturalearthdata.com","kind":"highway","kind_detail":"motorway","sort_rank":383,"landuse_kind":"urban_area","min_zoom":4.0,"id":21986},"arcs":[572]},{"type":"LineString","properties":{"source":"naturalearthdata.com","kind":"highway","kind_detail":"motorway","sort_rank":383,"landuse_kind":"urban_area","min_zoom":4.0,"id":21986},"arcs":[573]},{"type":"MultiLineString","properties":{"source":"naturalearthdata.com","kind":"highway","sort_rank":383,"kind_detail":"motorway","min_zoom":4.0,"id":21986},"arcs":[[574],[575]]},{"type":"LineString","properties":{"source":"naturalearthdata.com","kind":"highway","kind_detail":"motorway","sort_rank":383,"landuse_kind":"urban_area","min_zoom":3.0,"id":21987},"arcs":[576]},{"type":"LineString","properties":{"source":"naturalearthdata.com","kind":"highway","kind_detail":"motorway","sort_rank":383,"landuse_kind":"urban_area","min_zoom":4.0,"id":22004},"arcs":[577]},{"type":"LineString","properties":{"source":"naturalearthdata.com","kind":"highway","sort_rank":383,"kind_detail":"motorway","min_zoom":4.0,"id":22004},"arcs":[578]},{"type":"LineString","properties":{"source":"naturalearthdata.com","kind":"minor_road","kind_detail":"tertiary","sort_rank":355,"landuse_kind":"urban_area","min_zoom":5.0,"id":22015},"arcs":[579]},{"type":"LineString","properties":{"source":"naturalearthdata.com","kind":"minor_road","sort_rank":355,"kind_detail":"tertiary","min_zoom":5.0,"id":22015},"arcs":[580]},{"type":"LineString","properties":{"source":"naturalearthdata.com","kind":"highway","sort_rank":383,"kind_detail":"motorway","min_zoom":3.0,"id":22016},"arcs":[581]},{"type":"LineString","properties":{"source":"naturalearthdata.com","kind":"highway","sort_rank":383,"kind_detail":"motorway","min_zoom":3.0,"id":22022},"arcs":[582]},{"type":"LineString","properties":{"source":"naturalearthdata.com","kind":"highway","sort_rank":383,"kind_detail":"motorway","min_zoom":4.0,"id":22044},"arcs":[583]},{"type":"LineString","properties":{"source":"naturalearthdata.com","kind":"minor_road","kind_detail":"tertiary","sort_rank":355,"landuse_kind":"urban_area","min_zoom":5.0,"id":22056},"arcs":[584]},{"type":"LineString","properties":{"source":"naturalearthdata.com","kind":"minor_road","sort_rank":355,"kind_detail":"tertiary","min_zoom":5.0,"id":22056},"arcs":[585]},{"type":"LineString","properties":{"source":"naturalearthdata.com","kind":"highway","kind_detail":"motorway","sort_rank":383,"landuse_kind":"urban_area","min_zoom":4.0,"id":22097},"arcs":[586]},{"type":"LineString","properties":{"source":"naturalearthdata.com","kind":"highway","kind_detail":"motorway","sort_rank":383,"landuse_kind":"urban_area","min_zoom":4.0,"id":22097},"arcs":[587]},{"type":"LineString","properties":{"source":"naturalearthdata.com","kind":"highway","sort_rank":383,"kind_detail":"motorway","min_zoom":4.0,"id":22097},"arcs":[588]},{"type":"LineString","properties":{"source":"naturalearthdata.com","kind":"highway","kind_detail":"motorway","sort_rank":383,"landuse_kind":"urban_area","min_zoom":4.0,"id":22118},"arcs":[589]},{"type":"LineString","properties":{"source":"naturalearthdata.com","kind":"highway","sort_rank":383,"kind_detail":"motorway","min_zoom":3.0,"id":22122},"arcs":[590]},{"type":"LineString","properties":{"source":"naturalearthdata.com","kind":"highway","kind_detail":"motorway","sort_rank":383,"landuse_kind":"urban_area","min_zoom":4.0,"id":22130},"arcs":[591]},{"type":"LineString","properties":{"source":"naturalearthdata.com","kind":"highway","sort_rank":383,"kind_detail":"motorway","min_zoom":4.0,"id":22130},"arcs":[592]},{"type":"LineString","properties":{"source":"naturalearthdata.com","kind":"major_road","sort_rank":379,"kind_detail":"secondary","min_zoom":4.0,"id":22134},"arcs":[593]},{"type":"LineString","properties":{"source":"naturalearthdata.com","kind":"highway","kind_detail":"motorway","sort_rank":383,"landuse_kind":"urban_area","min_zoom":4.0,"id":22343},"arcs":[594]},{"type":"LineString","properties":{"source":"naturalearthdata.com","kind":"highway","sort_rank":383,"kind_detail":"motorway","min_zoom":3.0,"id":22356},"arcs":[595]},{"type":"LineString","properties":{"source":"naturalearthdata.com","kind":"highway","sort_rank":383,"kind_detail":"motorway","min_zoom":3.0,"id":22440},"arcs":[596]},{"type":"LineString","properties":{"source":"naturalearthdata.com","kind":"highway","sort_rank":383,"kind_detail":"motorway","min_zoom":3.0,"id":22506},"arcs":[597]},{"type":"LineString","properties":{"source":"naturalearthdata.com","kind":"highway","sort_rank":383,"kind_detail":"motorway","min_zoom":3.0,"id":22605},"arcs":[598]},{"type":"LineString","properties":{"source":"naturalearthdata.com","kind":"highway","sort_rank":383,"kind_detail":"motorway","min_zoom":3.0,"id":22662},"arcs":[599]},{"type":"LineString","properties":{"source":"naturalearthdata.com","kind":"major_road","sort_rank":379,"kind_detail":"secondary","min_zoom":3.0,"id":22793},"arcs":[600]},{"type":"LineString","properties":{"source":"naturalearthdata.com","kind":"minor_road","sort_rank":355,"kind_detail":"tertiary","min_zoom":5.0,"id":22826},"arcs":[601]},{"type":"LineString","properties":{"source":"naturalearthdata.com","kind":"major_road","kind_detail":"secondary","sort_rank":379,"landuse_kind":"urban_area","min_zoom":4.0,"id":22833},"arcs":[602]},{"type":"LineString","properties":{"source":"naturalearthdata.com","kind":"major_road","sort_rank":379,"kind_detail":"secondary","min_zoom":4.0,"id":22833},"arcs":[603]},{"type":"LineString","properties":{"source":"naturalearthdata.com","kind":"major_road","kind_detail":"secondary","sort_rank":379,"landuse_kind":"urban_area","min_zoom":3.0,"id":22834},"arcs":[604]},{"type":"LineString","properties":{"source":"naturalearthdata.com","kind":"major_road","sort_rank":379,"kind_detail":"secondary","min_zoom":3.0,"id":22834},"arcs":[605]},{"type":"LineString","properties":{"source":"naturalearthdata.com","kind":"minor_road","sort_rank":355,"kind_detail":"tertiary","min_zoom":5.0,"id":22836},"arcs":[606]},{"type":"LineString","properties":{"source":"naturalearthdata.com","kind":"highway","kind_detail":"motorway","sort_rank":383,"landuse_kind":"urban_area","min_zoom":3.0,"id":22907},"arcs":[607]},{"type":"MultiLineString","properties":{"source":"naturalearthdata.com","kind":"highway","sort_rank":383,"kind_detail":"motorway","min_zoom":3.0,"id":22907},"arcs":[[608],[609]]},{"type":"LineString","properties":{"source":"naturalearthdata.com","kind":"highway","kind_detail":"motorway","sort_rank":383,"landuse_kind":"urban_area","min_zoom":3.0,"id":22914},"arcs":[610]},{"type":"LineString","properties":{"source":"naturalearthdata.com","kind":"highway","sort_rank":383,"kind_detail":"motorway","min_zoom":3.0,"id":22914},"arcs":[611]},{"type":"LineString","properties":{"source":"naturalearthdata.com","kind":"highway","kind_detail":"motorway","sort_rank":383,"landuse_kind":"urban_area","min_zoom":3.0,"id":22919},"arcs":[612]},{"type":"LineString","properties":{"source":"naturalearthdata.com","kind":"highway","sort_rank":383,"kind_detail":"motorway","min_zoom":3.0,"id":22919},"arcs":[613]},{"type":"LineString","properties":{"source":"naturalearthdata.com","kind":"minor_road","sort_rank":355,"kind_detail":"tertiary","min_zoom":5.0,"id":22960},"arcs":[614]},{"type":"LineString","properties":{"source":"naturalearthdata.com","kind":"highway","sort_rank":383,"kind_detail":"motorway","min_zoom":3.0,"id":22970},"arcs":[615]},{"type":"LineString","properties":{"source":"naturalearthdata.com","kind":"highway","sort_rank":383,"kind_detail":"motorway","min_zoom":3.0,"id":22977},"arcs":[616]},{"type":"LineString","properties":{"source":"naturalearthdata.com","kind":"major_road","sort_rank":379,"kind_detail":"secondary","min_zoom":3.0,"id":22991},"arcs":[617]},{"type":"LineString","properties":{"source":"naturalearthdata.com","kind":"highway","kind_detail":"motorway","sort_rank":383,"landuse_kind":"urban_area","min_zoom":3.0,"id":23098},"arcs":[618]},{"type":"LineString","properties":{"source":"naturalearthdata.com","kind":"highway","sort_rank":383,"kind_detail":"motorway","min_zoom":3.0,"id":23098},"arcs":[619]},{"type":"LineString","properties":{"source":"naturalearthdata.com","kind":"highway","kind_detail":"motorway","sort_rank":383,"landuse_kind":"urban_area","min_zoom":3.0,"id":23099},"arcs":[620]},{"type":"LineString","properties":{"source":"naturalearthdata.com","kind":"highway","sort_rank":383,"kind_detail":"motorway","min_zoom":3.0,"id":23099},"arcs":[621]},{"type":"LineString","properties":{"source":"naturalearthdata.com","kind":"highway","kind_detail":"motorway","sort_rank":383,"landuse_kind":"urban_area","min_zoom":3.0,"id":23111},"arcs":[622]},{"type":"LineString","properties":{"source":"naturalearthdata.com","kind":"highway","sort_rank":383,"kind_detail":"motorway","min_zoom":3.0,"id":23259},"arcs":[623]},{"type":"LineString","properties":{"source":"naturalearthdata.com","kind":"highway","sort_rank":383,"kind_detail":"motorway","min_zoom":3.0,"id":23315},"arcs":[624]},{"type":"LineString","properties":{"source":"naturalearthdata.com","kind":"highway","kind_detail":"motorway","sort_rank":383,"landuse_kind":"urban_area","min_zoom":3.0,"id":23316},"arcs":[625]},{"type":"LineString","properties":{"source":"naturalearthdata.com","kind":"highway","sort_rank":383,"kind_detail":"motorway","min_zoom":3.0,"id":23316},"arcs":[626]},{"type":"LineString","properties":{"source":"naturalearthdata.com","kind":"highway","kind_detail":"motorway","sort_rank":383,"landuse_kind":"urban_area","min_zoom":3.0,"id":23318},"arcs":[627]},{"type":"LineString","properties":{"source":"naturalearthdata.com","kind":"highway","sort_rank":383,"kind_detail":"motorway","min_zoom":3.0,"id":23318},"arcs":[628]},{"type":"LineString","properties":{"source":"naturalearthdata.com","kind":"major_road","kind_detail":"secondary","sort_rank":379,"landuse_kind":"urban_area","min_zoom":3.0,"id":23328},"arcs":[629]},{"type":"LineString","properties":{"source":"naturalearthdata.com","kind":"minor_road","sort_rank":355,"kind_detail":"tertiary","min_zoom":5.0,"id":23329},"arcs":[630]},{"type":"LineString","properties":{"source":"naturalearthdata.com","kind":"highway","kind_detail":"motorway","sort_rank":383,"landuse_kind":"urban_area","min_zoom":3.0,"id":23375},"arcs":[631]},{"type":"LineString","properties":{"source":"naturalearthdata.com","kind":"highway","sort_rank":383,"kind_detail":"motorway","min_zoom":3.0,"id":23375},"arcs":[632]},{"type":"LineString","properties":{"source":"naturalearthdata.com","kind":"highway","kind_detail":"motorway","sort_rank":383,"landuse_kind":"urban_area","min_zoom":3.0,"id":23376},"arcs":[633]},{"type":"LineString","properties":{"source":"naturalearthdata.com","kind":"major_road","sort_rank":379,"kind_detail":"secondary","min_zoom":3.0,"id":23402},"arcs":[634]},{"type":"LineString","properties":{"source":"naturalearthdata.com","kind":"highway","kind_detail":"motorway","sort_rank":383,"landuse_kind":"urban_area","min_zoom":3.0,"id":23437},"arcs":[635]},{"type":"LineString","properties":{"source":"naturalearthdata.com","kind":"highway","sort_rank":383,"kind_detail":"motorway","min_zoom":3.0,"id":23437},"arcs":[636]},{"type":"LineString","properties":{"source":"naturalearthdata.com","kind":"minor_road","sort_rank":355,"kind_detail":"tertiary","min_zoom":5.0,"id":23440},"arcs":[637]},{"type":"LineString","properties":{"source":"naturalearthdata.com","kind":"highway","sort_rank":383,"kind_detail":"motorway","min_zoom":3.0,"id":23549},"arcs":[638]},{"type":"LineString","properties":{"source":"naturalearthdata.com","kind":"highway","kind_detail":"motorway","sort_rank":383,"landuse_kind":"urban_area","min_zoom":5.0,"id":23650},"arcs":[639]},{"type":"LineString","properties":{"source":"naturalearthdata.com","kind":"highway","sort_rank":383,"kind_detail":"motorway","min_zoom":5.0,"id":23650},"arcs":[640]},{"type":"LineString","properties":{"source":"naturalearthdata.com","kind":"highway","sort_rank":383,"kind_detail":"motorway","min_zoom":3.0,"id":23665},"arcs":[641]},{"type":"LineString","properties":{"source":"naturalearthdata.com","kind":"highway","sort_rank":383,"kind_detail":"motorway","min_zoom":5.0,"id":23669},"arcs":[642]},{"type":"LineString","properties":{"source":"naturalearthdata.com","kind":"highway","sort_rank":383,"kind_detail":"motorway","min_zoom":5.0,"id":23674},"arcs":[643]},{"type":"LineString","properties":{"source":"naturalearthdata.com","kind":"minor_road","sort_rank":355,"kind_detail":"tertiary","min_zoom":5.0,"id":23716},"arcs":[644]},{"type":"LineString","properties":{"source":"naturalearthdata.com","kind":"minor_road","kind_detail":"tertiary","sort_rank":355,"landuse_kind":"urban_area","min_zoom":5.0,"id":23795},"arcs":[645]},{"type":"LineString","properties":{"source":"naturalearthdata.com","kind":"minor_road","sort_rank":355,"kind_detail":"tertiary","min_zoom":5.0,"id":23795},"arcs":[646]},{"type":"LineString","properties":{"source":"naturalearthdata.com","kind":"minor_road","sort_rank":355,"kind_detail":"tertiary","min_zoom":5.0,"id":23806},"arcs":[647]},{"type":"LineString","properties":{"source":"naturalearthdata.com","kind":"major_road","sort_rank":379,"kind_detail":"secondary","min_zoom":3.0,"id":23807},"arcs":[648]},{"type":"LineString","properties":{"source":"naturalearthdata.com","kind":"major_road","sort_rank":379,"kind_detail":"secondary","min_zoom":3.0,"id":23852},"arcs":[649]},{"type":"LineString","properties":{"source":"naturalearthdata.com","kind":"minor_road","sort_rank":355,"kind_detail":"tertiary","min_zoom":5.0,"id":23864},"arcs":[650]},{"type":"LineString","properties":{"source":"naturalearthdata.com","kind":"minor_road","sort_rank":355,"kind_detail":"tertiary","min_zoom":5.0,"id":23885},"arcs":[651]},{"type":"LineString","properties":{"source":"naturalearthdata.com","kind":"minor_road","sort_rank":355,"kind_detail":"tertiary","min_zoom":5.0,"id":23893},"arcs":[652]},{"type":"LineString","properties":{"source":"naturalearthdata.com","kind":"highway","kind_detail":"motorway","sort_rank":383,"landuse_kind":"urban_area","min_zoom":5.0,"id":23899},"arcs":[653]},{"type":"MultiLineString","properties":{"source":"naturalearthdata.com","kind":"highway","sort_rank":383,"kind_detail":"motorway","min_zoom":5.0,"id":23899},"arcs":[[654],[655]]},{"type":"LineString","properties":{"source":"naturalearthdata.com","kind":"highway","kind_detail":"motorway","sort_rank":383,"landuse_kind":"urban_area","min_zoom":5.0,"id":23902},"arcs":[656]},{"type":"LineString","properties":{"source":"naturalearthdata.com","kind":"highway","sort_rank":383,"kind_detail":"motorway","min_zoom":5.0,"id":23902},"arcs":[657]},{"type":"LineString","properties":{"source":"naturalearthdata.com","kind":"minor_road","sort_rank":355,"kind_detail":"tertiary","min_zoom":5.0,"id":23907},"arcs":[658]},{"type":"LineString","properties":{"source":"naturalearthdata.com","kind":"minor_road","sort_rank":355,"kind_detail":"tertiary","min_zoom":5.0,"id":23912},"arcs":[659]},{"type":"LineString","properties":{"source":"naturalearthdata.com","kind":"minor_road","sort_rank":355,"kind_detail":"tertiary","min_zoom":5.0,"id":23921},"arcs":[660]},{"type":"LineString","properties":{"source":"naturalearthdata.com","kind":"minor_road","sort_rank":355,"kind_detail":"tertiary","min_zoom":5.0,"id":23988},"arcs":[661]},{"type":"LineString","properties":{"source":"naturalearthdata.com","kind":"major_road","sort_rank":379,"kind_detail":"secondary","min_zoom":3.0,"id":23994},"arcs":[662]},{"type":"LineString","properties":{"source":"naturalearthdata.com","kind":"minor_road","sort_rank":355,"kind_detail":"tertiary","min_zoom":5.0,"id":24033},"arcs":[663]},{"type":"LineString","properties":{"source":"naturalearthdata.com","kind":"highway","sort_rank":383,"kind_detail":"motorway","min_zoom":5.0,"id":24066},"arcs":[664]},{"type":"LineString","properties":{"source":"naturalearthdata.com","kind":"highway","sort_rank":383,"kind_detail":"motorway","min_zoom":5.0,"id":24100},"arcs":[665]},{"type":"LineString","properties":{"source":"naturalearthdata.com","kind":"highway","sort_rank":383,"kind_detail":"motorway","min_zoom":5.0,"id":24131},"arcs":[666]},{"type":"LineString","properties":{"source":"naturalearthdata.com","kind":"minor_road","sort_rank":355,"kind_detail":"tertiary","min_zoom":5.0,"id":24138},"arcs":[667]},{"type":"LineString","properties":{"source":"naturalearthdata.com","kind":"minor_road","sort_rank":355,"kind_detail":"tertiary","min_zoom":5.0,"id":24281},"arcs":[668]},{"type":"LineString","properties":{"source":"naturalearthdata.com","kind":"highway","sort_rank":383,"kind_detail":"motorway","min_zoom":5.0,"id":24318},"arcs":[669]},{"type":"LineString","properties":{"source":"naturalearthdata.com","kind":"highway","sort_rank":383,"kind_detail":"motorway","min_zoom":5.0,"id":24320},"arcs":[670]},{"type":"LineString","properties":{"source":"naturalearthdata.com","kind":"highway","sort_rank":383,"kind_detail":"motorway","min_zoom":5.0,"id":24374},"arcs":[671]},{"type":"LineString","properties":{"source":"naturalearthdata.com","kind":"minor_road","sort_rank":355,"kind_detail":"tertiary","min_zoom":5.0,"id":24407},"arcs":[672]},{"type":"LineString","properties":{"source":"naturalearthdata.com","kind":"highway","sort_rank":383,"kind_detail":"motorway","min_zoom":5.0,"id":24467},"arcs":[673]},{"type":"LineString","properties":{"source":"naturalearthdata.com","kind":"minor_road","sort_rank":355,"kind_detail":"tertiary","min_zoom":5.0,"id":24489},"arcs":[674]},{"type":"LineString","properties":{"source":"naturalearthdata.com","kind":"major_road","sort_rank":379,"kind_detail":"secondary","min_zoom":3.0,"id":24535},"arcs":[675]},{"type":"LineString","properties":{"source":"naturalearthdata.com","kind":"minor_road","sort_rank":355,"kind_detail":"tertiary","min_zoom":5.0,"id":24537},"arcs":[676]},{"type":"LineString","properties":{"source":"naturalearthdata.com","kind":"minor_road","sort_rank":355,"kind_detail":"tertiary","min_zoom":5.0,"id":24568},"arcs":[677]},{"type":"LineString","properties":{"source":"naturalearthdata.com","kind":"minor_road","sort_rank":355,"kind_detail":"tertiary","min_zoom":5.0,"id":24582},"arcs":[678]},{"type":"LineString","properties":{"source":"naturalearthdata.com","kind":"minor_road","sort_rank":355,"kind_detail":"tertiary","min_zoom":5.0,"id":24599},"arcs":[679]},{"type":"LineString","properties":{"source":"naturalearthdata.com","kind":"major_road","sort_rank":379,"kind_detail":"secondary","min_zoom":3.0,"id":24649},"arcs":[680]},{"type":"LineString","properties":{"source":"naturalearthdata.com","kind":"minor_road","sort_rank":355,"kind_detail":"tertiary","min_zoom":5.0,"id":24704},"arcs":[681]},{"type":"LineString","properties":{"source":"naturalearthdata.com","kind":"minor_road","sort_rank":355,"kind_detail":"tertiary","min_zoom":5.0,"id":24850},"arcs":[682]},{"type":"LineString","properties":{"source":"naturalearthdata.com","kind":"major_road","sort_rank":379,"kind_detail":"secondary","min_zoom":3.0,"id":24867},"arcs":[683]},{"type":"LineString","properties":{"source":"naturalearthdata.com","kind":"minor_road","sort_rank":355,"kind_detail":"tertiary","min_zoom":5.0,"id":24887},"arcs":[684]},{"type":"LineString","properties":{"source":"naturalearthdata.com","kind":"major_road","sort_rank":379,"kind_detail":"secondary","min_zoom":4.0,"id":24919},"arcs":[685]},{"type":"LineString","properties":{"source":"naturalearthdata.com","kind":"highway","sort_rank":383,"kind_detail":"motorway","min_zoom":5.0,"id":24920},"arcs":[686]},{"type":"LineString","properties":{"source":"naturalearthdata.com","kind":"minor_road","sort_rank":355,"kind_detail":"tertiary","min_zoom":5.0,"id":24959},"arcs":[687]},{"type":"LineString","properties":{"source":"naturalearthdata.com","kind":"highway","sort_rank":383,"kind_detail":"motorway","min_zoom":5.0,"id":24974},"arcs":[688]},{"type":"LineString","properties":{"source":"naturalearthdata.com","kind":"highway","sort_rank":383,"kind_detail":"motorway","min_zoom":5.0,"id":24976},"arcs":[689]},{"type":"LineString","properties":{"source":"naturalearthdata.com","kind":"highway","sort_rank":383,"kind_detail":"motorway","min_zoom":5.0,"id":24979},"arcs":[690]},{"type":"LineString","properties":{"source":"naturalearthdata.com","kind":"minor_road","sort_rank":355,"kind_detail":"tertiary","min_zoom":5.0,"id":25023},"arcs":[691]},{"type":"LineString","properties":{"source":"naturalearthdata.com","kind":"major_road","sort_rank":379,"kind_detail":"secondary","min_zoom":3.0,"id":25052},"arcs":[692]},{"type":"LineString","properties":{"source":"naturalearthdata.com","kind":"major_road","kind_detail":"secondary","sort_rank":379,"landuse_kind":"urban_area","min_zoom":3.0,"id":25079},"arcs":[693]},{"type":"LineString","properties":{"source":"naturalearthdata.com","kind":"major_road","sort_rank":379,"kind_detail":"secondary","min_zoom":3.0,"id":25079},"arcs":[694]},{"type":"LineString","properties":{"source":"naturalearthdata.com","kind":"highway","kind_detail":"motorway","sort_rank":383,"landuse_kind":"urban_area","min_zoom":5.0,"id":25080},"arcs":[695]},{"type":"LineString","properties":{"source":"naturalearthdata.com","kind":"highway","sort_rank":383,"kind_detail":"motorway","min_zoom":5.0,"id":25080},"arcs":[696]},{"type":"LineString","properties":{"source":"naturalearthdata.com","kind":"minor_road","kind_detail":"tertiary","sort_rank":355,"landuse_kind":"urban_area","min_zoom":5.0,"id":25089},"arcs":[697]},{"type":"LineString","properties":{"source":"naturalearthdata.com","kind":"minor_road","sort_rank":355,"kind_detail":"tertiary","min_zoom":5.0,"id":25089},"arcs":[698]},{"type":"LineString","properties":{"source":"naturalearthdata.com","kind":"major_road","kind_detail":"secondary","sort_rank":379,"landuse_kind":"urban_area","min_zoom":3.0,"id":25117},"arcs":[699]},{"type":"LineString","properties":{"source":"naturalearthdata.com","kind":"highway","kind_detail":"motorway","sort_rank":383,"landuse_kind":"urban_area","min_zoom":3.0,"id":25140},"arcs":[700]},{"type":"LineString","properties":{"source":"naturalearthdata.com","kind":"highway","sort_rank":383,"kind_detail":"motorway","min_zoom":3.0,"id":25140},"arcs":[701]},{"type":"LineString","properties":{"source":"naturalearthdata.com","kind":"major_road","sort_rank":379,"kind_detail":"secondary","min_zoom":3.0,"id":25163},"arcs":[702]},{"type":"LineString","properties":{"source":"naturalearthdata.com","kind":"major_road","kind_detail":"secondary","sort_rank":379,"landuse_kind":"urban_area","min_zoom":3.0,"id":25167},"arcs":[703]},{"type":"LineString","properties":{"source":"naturalearthdata.com","kind":"highway","sort_rank":383,"kind_detail":"motorway","min_zoom":3.0,"id":25171},"arcs":[704]},{"type":"LineString","properties":{"source":"naturalearthdata.com","kind":"highway","sort_rank":383,"kind_detail":"motorway","min_zoom":3.0,"id":25194},"arcs":[705]},{"type":"LineString","properties":{"source":"naturalearthdata.com","kind":"highway","kind_detail":"motorway","sort_rank":383,"landuse_kind":"urban_area","min_zoom":4.0,"id":25231},"arcs":[706]},{"type":"LineString","properties":{"source":"naturalearthdata.com","kind":"highway","sort_rank":383,"kind_detail":"motorway","min_zoom":4.0,"id":25231},"arcs":[707]},{"type":"LineString","properties":{"source":"naturalearthdata.com","kind":"highway","sort_rank":383,"kind_detail":"motorway","min_zoom":3.0,"id":25274},"arcs":[708]},{"type":"LineString","properties":{"source":"naturalearthdata.com","kind":"major_road","sort_rank":379,"kind_detail":"secondary","min_zoom":3.0,"id":25276},"arcs":[709]},{"type":"LineString","properties":{"source":"naturalearthdata.com","kind":"highway","sort_rank":383,"kind_detail":"motorway","min_zoom":3.0,"id":25281},"arcs":[710]},{"type":"LineString","properties":{"source":"naturalearthdata.com","kind":"minor_road","sort_rank":355,"kind_detail":"tertiary","min_zoom":5.0,"id":25282},"arcs":[711]},{"type":"LineString","properties":{"source":"naturalearthdata.com","kind":"major_road","kind_detail":"secondary","sort_rank":379,"landuse_kind":"urban_area","min_zoom":3.0,"id":25298},"arcs":[712]},{"type":"LineString","properties":{"source":"naturalearthdata.com","kind":"major_road","sort_rank":379,"kind_detail":"secondary","min_zoom":3.0,"id":25298},"arcs":[713]},{"type":"LineString","properties":{"source":"naturalearthdata.com","kind":"minor_road","sort_rank":355,"kind_detail":"tertiary","min_zoom":5.0,"id":25299},"arcs":[714]},{"type":"LineString","properties":{"source":"naturalearthdata.com","kind":"minor_road","sort_rank":355,"kind_detail":"tertiary","min_zoom":5.0,"id":25324},"arcs":[715]},{"type":"LineString","properties":{"source":"naturalearthdata.com","kind":"minor_road","sort_rank":355,"kind_detail":"tertiary","min_zoom":5.0,"id":25329},"arcs":[716]},{"type":"LineString","properties":{"source":"naturalearthdata.com","kind":"minor_road","sort_rank":355,"kind_detail":"tertiary","min_zoom":5.0,"id":25416},"arcs":[717]},{"type":"LineString","properties":{"source":"naturalearthdata.com","kind":"major_road","sort_rank":379,"kind_detail":"secondary","min_zoom":3.0,"id":25442},"arcs":[718]},{"type":"LineString","properties":{"source":"naturalearthdata.com","kind":"minor_road","sort_rank":355,"kind_detail":"tertiary","min_zoom":5.0,"id":25474},"arcs":[719]},{"type":"LineString","properties":{"source":"naturalearthdata.com","kind":"major_road","sort_rank":379,"kind_detail":"secondary","min_zoom":3.0,"id":25476},"arcs":[720]},{"type":"LineString","properties":{"source":"naturalearthdata.com","kind":"major_road","sort_rank":379,"kind_detail":"secondary","min_zoom":3.0,"id":25478},"arcs":[721]},{"type":"LineString","properties":{"source":"naturalearthdata.com","kind":"major_road","sort_rank":379,"kind_detail":"secondary","min_zoom":3.0,"id":25525},"arcs":[722]},{"type":"LineString","properties":{"source":"naturalearthdata.com","kind":"major_road","sort_rank":379,"kind_detail":"secondary","min_zoom":3.0,"id":25560},"arcs":[723]},{"type":"LineString","properties":{"source":"naturalearthdata.com","kind":"major_road","sort_rank":379,"kind_detail":"secondary","min_zoom":3.0,"id":25561},"arcs":[724]},{"type":"LineString","properties":{"source":"naturalearthdata.com","kind":"minor_road","sort_rank":355,"kind_detail":"tertiary","min_zoom":5.0,"id":25642},"arcs":[725]},{"type":"LineString","properties":{"source":"naturalearthdata.com","kind":"minor_road","sort_rank":355,"kind_detail":"tertiary","min_zoom":5.0,"id":25654},"arcs":[726]},{"type":"LineString","properties":{"source":"naturalearthdata.com","kind":"minor_road","sort_rank":355,"kind_detail":"tertiary","min_zoom":5.0,"id":25687},"arcs":[727]},{"type":"LineString","properties":{"source":"naturalearthdata.com","kind":"minor_road","sort_rank":355,"kind_detail":"tertiary","min_zoom":5.0,"id":25731},"arcs":[728]},{"type":"LineString","properties":{"source":"naturalearthdata.com","kind":"minor_road","sort_rank":355,"kind_detail":"tertiary","min_zoom":5.0,"id":25822},"arcs":[729]},{"type":"LineString","properties":{"source":"naturalearthdata.com","kind":"minor_road","sort_rank":355,"kind_detail":"tertiary","min_zoom":5.0,"id":25830},"arcs":[730]},{"type":"LineString","properties":{"source":"naturalearthdata.com","kind":"minor_road","sort_rank":355,"kind_detail":"tertiary","min_zoom":5.0,"id":25856},"arcs":[731]},{"type":"LineString","properties":{"source":"naturalearthdata.com","kind":"minor_road","sort_rank":355,"kind_detail":"tertiary","min_zoom":5.0,"id":25857},"arcs":[732]},{"type":"LineString","properties":{"source":"naturalearthdata.com","kind":"minor_road","sort_rank":355,"kind_detail":"tertiary","min_zoom":5.0,"id":25858},"arcs":[733]},{"type":"LineString","properties":{"source":"naturalearthdata.com","kind":"minor_road","sort_rank":355,"kind_detail":"tertiary","min_zoom":5.0,"id":25927},"arcs":[734]},{"type":"LineString","properties":{"source":"naturalearthdata.com","kind":"minor_road","sort_rank":355,"kind_detail":"tertiary","min_zoom":5.0,"id":26040},"arcs":[735]},{"type":"LineString","properties":{"source":"naturalearthdata.com","kind":"minor_road","sort_rank":355,"kind_detail":"tertiary","min_zoom":5.0,"id":26050},"arcs":[736]},{"type":"LineString","properties":{"source":"naturalearthdata.com","kind":"minor_road","sort_rank":355,"kind_detail":"tertiary","min_zoom":5.0,"id":26051},"arcs":[737]},{"type":"LineString","properties":{"source":"naturalearthdata.com","kind":"minor_road","sort_rank":355,"kind_detail":"tertiary","min_zoom":5.0,"id":26052},"arcs":[738]},{"type":"LineString","properties":{"source":"naturalearthdata.com","kind":"minor_road","sort_rank":355,"kind_detail":"tertiary","min_zoom":5.0,"id":26108},"arcs":[739]},{"type":"LineString","properties":{"source":"naturalearthdata.com","kind":"minor_road","sort_rank":355,"kind_detail":"tertiary","min_zoom":5.0,"id":26123},"arcs":[740]},{"type":"LineString","properties":{"source":"naturalearthdata.com","kind":"minor_road","sort_rank":355,"kind_detail":"tertiary","min_zoom":5.0,"id":26134},"arcs":[741]},{"type":"LineString","properties":{"source":"naturalearthdata.com","kind":"minor_road","sort_rank":355,"kind_detail":"tertiary","min_zoom":5.0,"id":26163},"arcs":[742]},{"type":"LineString","properties":{"source":"naturalearthdata.com","kind":"major_road","sort_rank":379,"kind_detail":"secondary","min_zoom":4.0,"id":26193},"arcs":[743]},{"type":"LineString","properties":{"source":"naturalearthdata.com","kind":"major_road","sort_rank":379,"kind_detail":"secondary","min_zoom":4.0,"id":26218},"arcs":[744]},{"type":"LineString","properties":{"source":"naturalearthdata.com","kind":"highway","sort_rank":383,"kind_detail":"motorway","min_zoom":4.0,"id":26256},"arcs":[745]},{"type":"LineString","properties":{"source":"naturalearthdata.com","kind":"highway","sort_rank":383,"kind_detail":"motorway","min_zoom":4.0,"id":26328},"arcs":[746]},{"type":"LineString","properties":{"source":"naturalearthdata.com","kind":"major_road","sort_rank":379,"kind_detail":"secondary","min_zoom":4.0,"id":26353},"arcs":[747]},{"type":"LineString","properties":{"source":"naturalearthdata.com","kind":"major_road","sort_rank":379,"kind_detail":"secondary","min_zoom":4.0,"id":26378},"arcs":[748]},{"type":"LineString","properties":{"source":"naturalearthdata.com","kind":"highway","sort_rank":383,"kind_detail":"motorway","min_zoom":4.0,"id":26396},"arcs":[749]},{"type":"LineString","properties":{"source":"naturalearthdata.com","kind":"major_road","sort_rank":379,"kind_detail":"secondary","min_zoom":4.0,"id":26411},"arcs":[750]},{"type":"LineString","properties":{"source":"naturalearthdata.com","kind":"minor_road","sort_rank":355,"kind_detail":"tertiary","min_zoom":5.0,"id":26425},"arcs":[751]},{"type":"LineString","properties":{"source":"naturalearthdata.com","kind":"highway","sort_rank":383,"kind_detail":"motorway","min_zoom":4.0,"id":26454},"arcs":[752]},{"type":"LineString","properties":{"source":"naturalearthdata.com","kind":"major_road","kind_detail":"secondary","sort_rank":379,"landuse_kind":"urban_area","min_zoom":4.0,"id":26456},"arcs":[753]},{"type":"LineString","properties":{"source":"naturalearthdata.com","kind":"major_road","sort_rank":379,"kind_detail":"secondary","min_zoom":4.0,"id":26456},"arcs":[754]},{"type":"LineString","properties":{"source":"naturalearthdata.com","kind":"highway","kind_detail":"motorway","sort_rank":383,"landuse_kind":"urban_area","min_zoom":4.0,"id":26494},"arcs":[755]},{"type":"LineString","properties":{"source":"naturalearthdata.com","kind":"minor_road","sort_rank":355,"kind_detail":"tertiary","min_zoom":5.0,"id":26590},"arcs":[756]},{"type":"LineString","properties":{"source":"naturalearthdata.com","kind":"highway","sort_rank":383,"kind_detail":"motorway","min_zoom":4.0,"id":26605},"arcs":[757]},{"type":"LineString","properties":{"source":"naturalearthdata.com","kind":"highway","sort_rank":383,"kind_detail":"motorway","min_zoom":3.0,"id":26608},"arcs":[758]},{"type":"LineString","properties":{"source":"naturalearthdata.com","kind":"highway","kind_detail":"motorway","sort_rank":383,"landuse_kind":"urban_area","min_zoom":4.0,"id":26626},"arcs":[759]},{"type":"LineString","properties":{"source":"naturalearthdata.com","kind":"highway","sort_rank":383,"kind_detail":"motorway","min_zoom":4.0,"id":26626},"arcs":[760]},{"type":"LineString","properties":{"source":"naturalearthdata.com","kind":"highway","sort_rank":383,"kind_detail":"motorway","min_zoom":4.0,"id":26652},"arcs":[761]},{"type":"LineString","properties":{"source":"naturalearthdata.com","kind":"minor_road","sort_rank":355,"kind_detail":"tertiary","min_zoom":5.0,"id":26654},"arcs":[762]},{"type":"LineString","properties":{"source":"naturalearthdata.com","kind":"highway","sort_rank":383,"kind_detail":"motorway","min_zoom":5.0,"id":26665},"arcs":[763]},{"type":"LineString","properties":{"source":"naturalearthdata.com","kind":"major_road","sort_rank":379,"kind_detail":"secondary","min_zoom":4.0,"id":26672},"arcs":[764]},{"type":"LineString","properties":{"source":"naturalearthdata.com","kind":"major_road","sort_rank":379,"kind_detail":"secondary","min_zoom":4.0,"id":26678},"arcs":[765]},{"type":"LineString","properties":{"source":"naturalearthdata.com","kind":"major_road","sort_rank":379,"kind_detail":"secondary","min_zoom":4.0,"id":26704},"arcs":[766]},{"type":"LineString","properties":{"source":"naturalearthdata.com","kind":"major_road","sort_rank":379,"kind_detail":"secondary","min_zoom":4.0,"id":26743},"arcs":[767]},{"type":"LineString","properties":{"source":"naturalearthdata.com","kind":"highway","sort_rank":383,"kind_detail":"motorway","min_zoom":4.0,"id":26750},"arcs":[768]},{"type":"LineString","properties":{"source":"naturalearthdata.com","kind":"highway","sort_rank":383,"kind_detail":"motorway","min_zoom":4.0,"id":26754},"arcs":[769]},{"type":"LineString","properties":{"source":"naturalearthdata.com","kind":"highway","sort_rank":383,"kind_detail":"motorway","min_zoom":4.0,"id":26759},"arcs":[770]},{"type":"LineString","properties":{"source":"naturalearthdata.com","kind":"minor_road","sort_rank":355,"kind_detail":"tertiary","min_zoom":5.0,"id":26800},"arcs":[771]},{"type":"LineString","properties":{"source":"naturalearthdata.com","kind":"highway","sort_rank":383,"kind_detail":"motorway","min_zoom":4.0,"id":26877},"arcs":[772]},{"type":"LineString","properties":{"source":"naturalearthdata.com","kind":"major_road","sort_rank":379,"kind_detail":"secondary","min_zoom":4.0,"id":26934},"arcs":[773]},{"type":"LineString","properties":{"source":"naturalearthdata.com","kind":"major_road","sort_rank":379,"kind_detail":"secondary","min_zoom":4.0,"id":26969},"arcs":[774]},{"type":"LineString","properties":{"source":"naturalearthdata.com","kind":"major_road","kind_detail":"secondary","sort_rank":379,"landuse_kind":"urban_area","min_zoom":4.0,"id":26991},"arcs":[775]},{"type":"LineString","properties":{"source":"naturalearthdata.com","kind":"major_road","sort_rank":379,"kind_detail":"secondary","min_zoom":4.0,"id":26991},"arcs":[776]},{"type":"LineString","properties":{"source":"naturalearthdata.com","kind":"minor_road","sort_rank":355,"kind_detail":"tertiary","min_zoom":5.0,"id":27062},"arcs":[777]},{"type":"LineString","properties":{"source":"naturalearthdata.com","kind":"major_road","sort_rank":379,"kind_detail":"secondary","min_zoom":4.0,"id":27484},"arcs":[778]},{"type":"LineString","properties":{"source":"naturalearthdata.com","kind":"minor_road","sort_rank":355,"kind_detail":"tertiary","min_zoom":5.0,"id":48519},"arcs":[779]},{"type":"LineString","properties":{"source":"naturalearthdata.com","kind":"highway","kind_detail":"motorway","sort_rank":383,"landuse_kind":"urban_area","min_zoom":3.0,"id":48552},"arcs":[780]},{"type":"LineString","properties":{"source":"naturalearthdata.com","kind":"highway","sort_rank":383,"kind_detail":"motorway","min_zoom":5.0,"id":48587},"arcs":[781]},{"type":"LineString","properties":{"source":"naturalearthdata.com","kind":"highway","kind_detail":"motorway","sort_rank":383,"landuse_kind":"urban_area","min_zoom":3.0,"id":48588},"arcs":[782]},{"type":"LineString","properties":{"source":"naturalearthdata.com","kind":"highway","kind_detail":"motorway","sort_rank":383,"landuse_kind":"urban_area","min_zoom":3.0,"id":48589},"arcs":[783]},{"type":"LineString","properties":{"source":"naturalearthdata.com","kind":"highway","kind_detail":"motorway","sort_rank":383,"landuse_kind":"urban_area","min_zoom":3.0,"id":48590},"arcs":[784]},{"type":"LineString","properties":{"source":"naturalearthdata.com","kind":"highway","sort_rank":383,"kind_detail":"motorway","min_zoom":3.0,"id":48590},"arcs":[785]},{"type":"LineString","properties":{"source":"naturalearthdata.com","kind":"highway","sort_rank":383,"kind_detail":"motorway","min_zoom":3.0,"id":48591},"arcs":[786]},{"type":"LineString","properties":{"source":"naturalearthdata.com","kind":"highway","sort_rank":383,"kind_detail":"motorway","min_zoom":3.0,"id":48592},"arcs":[787]},{"type":"LineString","properties":{"source":"naturalearthdata.com","kind":"highway","sort_rank":383,"kind_detail":"motorway","min_zoom":3.0,"id":48593},"arcs":[788]},{"type":"LineString","properties":{"source":"naturalearthdata.com","kind":"highway","sort_rank":383,"kind_detail":"motorway","min_zoom":5.0,"id":48595},"arcs":[789]},{"type":"LineString","properties":{"source":"naturalearthdata.com","kind":"highway","sort_rank":383,"kind_detail":"motorway","min_zoom":5.0,"id":48596},"arcs":[790]}]},"earth":{"type":"GeometryCollection","geometries":[{"type":"MultiPolygon","properties":{"sort_rank":10,"source":"naturalearthdata.com","min_zoom":0.0,"kind":"earth","area":6262103258179},"arcs":[[[791]]]}]},"landuse":{"type":"GeometryCollection","geometries":[{"type":"Polygon","properties":{"kind":"park","name":"\u9ec4\u9f99\u98ce\u666f\u540d\u80dc\u533a","area":1181500032,"sort_rank":24,"source":"openstreetmap.org","min_zoom":4.0,"tier":2,"id":-6213328,"osm_relation":true},"arcs":[[792]]},{"type":"MultiPolygon","properties":{"source":"naturalearthdata.com","kind":"urban_area","name":"","area":32611169696,"sort_rank":11,"min_zoom":4.0},"arcs":[[[793]],[[794]],[[795]],[[796]],[[797]],[[798]],[[799]],[[800]],[[801]],[[802]],[[803]],[[804]],[[805]],[[806]],[[807]],[[808]],[[809]],[[810]],[[811]],[[812]],[[813]],[[814]],[[815]],[[816]],[[817]],[[818]],[[819]],[[820]],[[821]],[[822]],[[823]],[[824]],[[825]],[[826]],[[827]],[[828]],[[829]],[[830]],[[831]],[[832]],[[833]],[[834]],[[835]],[[836]],[[837]],[[838]],[[839]],[[840]],[[841]],[[842]]]},{"type":"Polygon","properties":{"kind":"park","name":"\u0f42\u0f5f\u0f72\u0f0b\u0f62\u0fa9\u0f0b\u0f66\u0fa1\u0f7a\u0f0b\u0f51\u0f42\u0f74\u0f0d \u4e5d\u5be8\u6c9f\u98ce\u666f\u540d\u80dc\u533a","area":1035980032,"sort_rank":24,"source":"openstreetmap.org","min_zoom":4.0,"tier":2,"id":-7516592,"osm_relation":true},"arcs":[[843]]},{"type":"Polygon","properties":{"kind":"nature_reserve","name":"\u592a\u5b50\u5c71 \u56fd\u5bb6\u7ea7\u81ea\u7136\u4fdd\u62a4\u533a","area":1139910016,"sort_rank":23,"source":"openstreetmap.org","min_zoom":4.0,"tier":2,"id":-2697651,"osm_relation":true},"arcs":[[844]]}]}},"type":"Topology","transform":{"translate":[101.25,31.952162238],"scale":[0.002746582,0.0022040371]},"arcs":[[[1240,2416],[3,1],[1,1],[2,2],[1,2],[2,4],[1,2],[2,1],[7,3],[3,3],[1,2],[1,2],[0,5],[-1,3],[-4,3],[-7,5],[-3,5],[2,5],[6,4],[7,3],[-1,3],[-11,2],[-57,6],[-15,8],[-5,1]],[[1175,2492],[-5,-2],[-20,-18],[-18,0]],[[1235,2417],[5,-1]],[[1254,2387],[-4,1],[-9,3],[-4,3],[-4,3],[-6,6],[0,3],[0,3],[2,1],[1,3],[1,2],[2,1],[2,1]],[[1585,1699],[-8,0],[-7,1],[-34,21],[-4,3],[-2,1],[-3,0],[-2,0],[-2,1],[-2,1],[-1,3],[-2,4],[-1,2],[-3,4],[-1,2],[-1,2],[-1,3],[-4,12],[-2,4],[-3,2],[-2,2],[-1,1],[-2,2],[-3,9],[-11,20],[-1,3],[-1,4],[-1,7],[0,11],[1,10],[3,13],[2,4],[4,9],[1,1],[2,2],[24,13],[4,3],[1,2],[3,4],[0,5],[0,7],[-2,14],[0,7],[1,4],[2,4],[1,2],[1,3],[1,8],[-1,6],[0,7],[-7,32],[-2,7],[-5,11],[-6,9],[-10,9],[-6,6],[-1,2],[-3,6],[-10,25],[-15,27],[-17,65],[-1,4],[0,7],[1,4],[3,4],[2,2],[31,19],[0,7],[-6,11],[-37,47],[-6,17],[-2,5],[-10,10],[-23,14],[-27,7],[-8,3],[-10,7],[-16,15],[-1,2],[-1,2],[-1,5],[-2,5],[-4,9],[-4,8],[-5,5],[-1,2],[0,3],[-2,8],[0,2],[-2,3],[-1,1],[-20,12],[-6,2],[-7,1]],[[1280,2404],[-3,-1],[-2,-2],[-8,-8],[-3,-3],[-2,-1],[-3,-1],[-2,-1],[-3,0]],[[2069,2339],[-5,1],[-11,5],[-15,10],[-21,21],[-3,3],[-4,2],[-9,3],[-20,0]],[[1981,2384],[-8,-2],[-2,-1],[-2,-1],[-3,-3],[-1,-2],[-1,-2],[-1,-4],[-1,-5],[0,-17],[-1,-3],[-1,-4],[-3,-12],[-2,-6],[0,-6],[1,-3],[1,-3],[4,-6],[0,-2],[1,-3],[0,-3],[-1,-3],[-1,-4],[-7,-16],[-2,-3],[-2,-2],[-2,-2],[-6,-3],[-1,-2],[-1,-2],[0,-3],[1,-3],[2,-2],[8,-7],[2,-2],[1,-2],[13,-25],[0,-2],[1,-3],[0,-3],[0,-3],[-1,-4],[-10,-27],[-2,-2],[-2,-3],[-3,-2],[-3,-1]],[[2197,2321],[-10,11],[-5,3],[-20,8],[-23,4]],[[2139,2347],[-12,0],[-11,-2],[-2,0],[-11,-5],[-7,-1]],[[2096,2339],[-7,1]],[[2089,2340],[-20,-1]],[[1946,2165],[-3,0],[-7,3],[-2,0],[-3,1]],[[1931,2169],[-2,-1],[-2,-1],[-15,-10],[-1,-1],[-1,-2],[-1,-3],[-1,-3],[-1,-8],[0,-9],[1,-21],[1,-19],[0,-8],[-1,-2],[-2,-2],[-8,-5],[-8,-4],[-2,-1],[-1,-2],[-1,-3],[3,-4],[2,-2],[4,-4],[5,-3],[4,-3],[3,-4],[1,-2],[1,-3],[1,-4],[3,-34],[0,-3],[-1,-3],[0,-2],[-1,-2],[0,-1],[-1,-2],[-5,-4],[-2,-1],[-1,-2],[-1,-4],[1,-4],[4,-8],[2,-4],[2,-3],[3,-1],[4,-2],[5,-1]],[[1947,1963],[2,0],[2,-1],[2,0],[4,-3],[19,-15],[8,-5],[17,-9],[4,-1],[3,0]],[[1922,1954],[3,0],[3,1],[2,1],[10,5],[5,1],[2,1]],[[2026,1933],[2,0],[2,-1],[1,-2],[2,-1],[5,-11],[2,-2],[8,-7],[2,-1],[3,-4],[3,-9],[2,-2],[3,-3],[1,-2],[3,-3],[7,-9],[1,-5],[0,-4],[-1,-6],[-3,-13],[-1,-7],[0,-4],[1,-3],[2,-3],[1,-3],[-1,-2],[-3,-4],[-4,-3],[-1,-2],[-1,-2],[1,-3],[1,-2],[5,-3],[2,-2],[0,-3],[-1,-3],[-4,-3],[-3,-2],[-14,-2],[-5,-2],[-2,-1],[-2,-1],[-1,-2],[-2,-1],[-1,-2],[1,-2],[1,-1],[6,-7],[2,-2],[1,-2],[0,-2],[2,-5],[0,-3],[1,-2],[2,-2],[7,-8],[1,-2],[1,-2],[1,-2],[-1,-3],[-2,-3],[-10,-6],[-3,-4],[-3,-6],[-1,-2],[-1,-1],[-2,0],[-3,-1],[-10,-2],[-14,-7],[-3,-3],[-2,-4],[-1,-3],[-2,-3],[-1,-1],[-8,-2]],[[2008,1929],[6,0],[12,4]],[[1995,1690],[-5,4],[-9,9],[-4,2],[-16,2],[-9,3],[-1,1],[-5,2],[-14,3],[-12,0]],[[1920,1716],[-20,-3],[-4,-2],[-4,-2],[-2,-1],[-1,-1],[-2,-2],[-1,-2],[0,-3],[0,-3],[0,-2],[1,-5],[2,-8],[4,-18],[2,-4],[3,-6],[3,-3],[11,-7],[1,-1],[1,-1],[1,-2],[0,-3],[0,-2],[-2,-1],[-3,0]],[[1673,1604],[-6,3],[-9,12],[-7,10],[-22,28],[-8,13],[-3,6],[-3,7],[-1,5],[1,4],[4,1],[4,1],[4,2],[4,3],[-1,6],[-7,3]],[[1623,1708],[-15,0],[-10,-3],[-8,-3],[-5,-3]],[[1910,1634],[-24,1]],[[1886,1635],[-4,0],[-1,-2],[-1,-2],[0,-3],[1,-2],[1,-5],[5,-8],[1,-2],[1,-1],[1,0],[1,-1],[9,-2],[4,-2],[1,0],[3,-3],[1,-2],[1,-2],[1,-2],[-1,-3],[-2,-13],[0,-13],[-3,-14],[-4,-14],[-2,-5],[-3,-4],[-4,-5],[-25,-24],[-7,-2]],[[1696,1566],[-4,2],[-3,3],[-2,7],[3,4],[3,4],[5,1],[53,6],[5,2],[2,2],[-1,3],[-4,4],[-47,17]],[[1706,1621],[-6,-1],[-6,-2],[-5,-4],[-7,-7],[-4,-3],[-5,0]],[[1747,1574],[-10,3],[-7,1]],[[1730,1578],[-6,-1],[-19,-9],[-5,-1],[-4,-1]],[[1860,1499],[-7,1],[-9,7],[-6,7],[-6,12],[-4,6],[-6,6],[-8,11],[-8,13],[-5,5],[-7,3],[-24,6]],[[1770,1576],[-23,-2]],[[2832,0],[-28,14],[-15,5],[-8,3],[-12,8],[-24,12],[-4,5],[-6,8],[-3,4],[-1,1],[-4,3],[-9,3],[-6,1],[-6,2],[-7,4],[-18,18],[-10,7],[-25,13]],[[2255,2239],[-52,9],[-5,2],[-2,2],[4,14],[1,6],[0,14],[-1,7],[-2,5],[0,2],[-1,1],[-2,9],[2,11]],[[2335,2209],[-17,2],[-25,7],[-6,3],[-3,3],[1,1],[3,3],[0,3],[-1,2],[-4,5],[-4,2],[-3,1],[-5,0]],[[2271,2241],[-16,-2]],[[2516,2095],[-2,0],[-5,2],[-14,5],[-5,2],[-11,1],[-3,1],[-3,2],[-4,4],[-2,3],[0,3],[0,3],[0,3],[2,7],[1,2],[-2,3],[-4,2],[-8,2],[-11,0],[-3,1],[-3,3],[-4,4],[-4,6],[-8,18],[-1,2],[-3,3],[-3,2],[-17,8],[-30,8],[-6,3],[-6,4],[-2,2],[-2,3],[-2,2],[-4,2]],[[2347,2211],[-12,-2]],[[2629,2044],[-6,0],[-5,2],[-3,1],[-3,3],[-6,5],[-2,3],[-2,3],[-2,2],[-3,9],[-1,2],[-2,4],[-3,3],[-4,3],[-3,2],[-4,2],[-15,4],[-13,2],[-3,1],[-3,2],[-3,3],[-1,2],[-3,5],[-2,1],[-2,1]],[[2535,2109],[-4,-1],[-2,-1],[-2,-2],[-4,-8],[-2,-1],[-2,-1],[-3,0]],[[2620,1505],[17,1],[4,2],[3,1],[3,3],[4,3],[11,14],[12,19],[6,7],[1,2],[1,4],[0,13],[-4,25],[-1,32],[-20,29],[-11,25],[-2,5],[-1,5],[0,3],[0,3],[5,34],[0,6],[0,3],[-1,5],[-3,10],[-6,12],[-1,4],[-1,3],[0,2],[1,3],[1,2],[1,1],[3,2],[3,3],[7,5],[6,3],[4,3],[2,1],[11,15],[2,1],[3,3],[5,2],[7,1],[4,2],[3,3],[3,4],[1,2],[1,3],[3,19],[2,8],[2,11],[1,17],[0,4],[-1,11],[-1,5],[-1,2],[-3,6],[-4,6],[-5,7],[-3,4],[-1,5],[-1,2],[0,3],[1,3],[0,3],[1,2],[6,7],[6,7],[3,3],[2,5],[3,9],[0,3],[0,3],[0,3],[0,2],[-3,4],[-5,5],[-11,8],[-8,8],[-1,2],[-1,2],[-1,2],[-3,1],[-3,2],[-11,2],[-3,1],[-3,2],[-3,3],[-3,2],[-3,1],[-5,1]],[[2647,2045],[-4,0],[-8,-1],[-6,0]],[[2366,1528],[14,-4],[27,-17],[23,-3],[5,-3],[3,-2],[2,-7],[0,-1],[1,-2],[2,-2],[2,-2],[0,-1],[2,0]],[[2352,1361],[5,1],[3,0],[8,4],[14,2],[14,4],[4,5],[0,5],[0,2],[0,2],[-1,2],[-2,4],[-3,3],[-12,10],[-12,14],[-20,45],[-9,13],[-3,6],[0,3],[0,3],[2,1],[13,3],[4,2],[1,1],[1,1],[1,2],[2,3],[1,4],[-1,4],[0,3],[-2,4],[0,3],[0,2],[0,1],[4,4],[2,1]],[[2528,1516],[4,0],[4,-1],[1,0],[3,-2],[7,-8],[5,-2],[3,-1]],[[2447,1484],[3,0],[6,3],[2,2],[4,3],[1,1],[2,1],[10,2],[9,4],[15,10],[6,2],[3,1],[6,2],[14,1]],[[2586,1509],[34,-4]],[[2555,1502],[3,0],[15,5],[4,1],[9,1]],[[2010,1426],[4,-1],[11,-2]],[[1957,1418],[53,8]],[[2058,1424],[5,-1],[2,-1],[3,-3],[4,-5],[1,-2],[2,-1],[2,-1],[27,-5],[5,-2],[3,-3],[3,-3],[5,-7],[10,-16],[3,-4],[15,-10],[3,-3],[4,-5],[2,-1],[3,-6],[4,-6],[2,-3],[4,-2],[3,0]],[[2025,1423],[33,1]],[[1942,1421],[15,-3]],[[1864,1165],[-3,2],[-4,3],[-8,13],[-3,6],[-1,5],[1,2],[1,2],[2,4],[3,3],[4,3],[8,5],[3,3],[1,2],[1,2],[2,7],[6,11],[3,5],[3,4],[4,3],[12,6],[4,2],[3,3],[1,2],[1,2],[6,17],[2,4],[3,4],[2,3],[2,2],[2,3],[2,3],[2,8],[1,5],[0,4],[0,2],[-18,29],[-1,2],[-1,5],[0,3],[0,3],[3,11],[0,4],[0,2],[-3,4],[-2,6],[-1,2],[1,6],[15,7],[5,6],[2,3],[5,6],[4,2],[3,0]],[[2301,1367],[19,-4],[32,-2]],[[2274,1349],[4,1],[2,0],[2,2],[3,3],[6,7],[2,2],[3,2],[5,1]],[[2207,1357],[3,0],[4,-2],[5,-2],[4,0]],[[2173,1334],[2,1],[3,3],[2,1],[2,1],[8,2],[2,1],[1,1],[5,9],[1,2],[3,1],[5,1]],[[2240,1357],[8,0],[18,-6],[8,-2]],[[2223,1353],[3,0],[5,2],[3,1],[6,1]],[[1968,1044],[5,1],[4,2],[2,4],[1,5],[1,5],[-7,36],[0,4],[1,3],[-5,4],[-7,5],[-5,7],[-2,9],[-3,8],[-6,7],[-9,4],[-9,2],[-5,2],[-4,4],[-5,5],[-4,4],[-4,2],[-4,0]],[[1903,1167],[-10,-2],[-29,0]],[[1931,1057],[6,-2],[11,-6],[8,-1],[12,-4]],[[1934,985],[3,0],[3,2],[3,4],[1,6],[-1,5],[-12,37],[-3,3],[-4,2],[-8,2],[-6,4],[9,5],[4,1],[8,1]],[[1925,987],[9,-2]],[[1910,722],[17,9],[6,16],[1,5],[0,6],[-2,5],[-1,5],[-2,4],[-3,4],[-6,6],[-6,5],[-6,3],[-3,3],[-4,6],[-2,5],[0,6],[0,6],[0,7],[-1,8],[-3,9],[0,5],[1,4],[3,2],[6,4],[3,3],[0,6],[-1,3],[-3,2],[-2,1],[-2,1],[-4,0],[-4,1],[-4,4],[-4,7],[-1,6],[1,6],[0,4],[1,2],[1,2],[9,13],[16,33],[3,12],[2,16],[4,7],[5,3]],[[1872,756],[5,0],[5,-2],[3,-3],[3,-3],[2,-4],[2,-10],[3,-3],[6,-7],[9,-2]],[[1850,750],[5,1],[13,4],[4,1]],[[1756,756],[5,-1],[3,-3],[2,-4],[2,-6],[2,-3],[3,-3],[8,-4],[5,-1],[6,0]],[[1678,459],[4,1],[3,2],[3,3],[2,4],[1,2],[1,5],[3,6],[1,4],[1,4],[0,12],[-5,41],[0,5],[1,5],[1,4],[7,14],[1,4],[0,2],[-2,2],[-2,2],[-5,2],[-5,1],[-10,1],[-5,1],[-36,23],[-4,5],[-3,4],[-1,5],[-1,3],[-1,2],[0,2],[-1,6],[-1,6],[1,3],[1,7],[2,3],[3,3],[3,0],[10,1],[6,1],[6,5],[3,7],[8,29],[3,4],[5,2],[4,1],[4,2],[11,9],[8,4],[9,3],[4,3],[5,5],[3,4],[1,6],[1,5],[1,3],[2,2],[2,0],[25,2]],[[1841,753],[4,-1],[5,-2]],[[1792,731],[27,12],[10,7],[7,3],[5,0]],[[1673,460],[5,-1]],[[1598,423],[10,1],[11,3],[14,6],[5,5],[12,14],[7,4],[8,3],[8,1]],[[1547,433],[51,-10]],[[2302,2636],[12,2],[7,2],[7,4],[4,7],[2,7],[-1,19]],[[2279,2637],[23,-1]],[[2197,2321],[15,35],[1,5],[-1,3],[-3,8],[-2,11],[-9,26],[-18,18],[0,2],[1,7],[4,15],[2,11],[5,22],[19,46],[0,9],[-3,7],[-1,7],[2,5],[16,12],[7,8],[20,13],[5,6],[6,6],[3,4],[1,5],[1,9],[0,6],[3,5],[3,4],[5,1]],[[195,2526],[-7,2],[-7,6],[-5,7],[-10,16],[-5,5],[-17,6],[-128,85],[-16,13]],[[329,2475],[-4,0],[-32,21],[-5,5],[-3,7],[0,6],[1,2],[0,2],[9,13],[3,8],[-2,8],[-3,6],[-21,16],[-6,24],[-3,24],[-2,7],[-4,2]],[[257,2626],[-3,-1],[-4,-3],[-29,-39],[-8,-8],[-3,-4],[-3,-7],[-2,-27],[-4,-8],[-6,-3]],[[575,1983],[-2,0],[-2,1],[-2,6],[-2,7],[-2,16],[-4,13],[-8,36],[-12,15],[-6,12],[-3,14],[-5,10],[-5,5],[-7,5],[-12,6],[-8,6],[-4,7],[-2,6],[-1,7],[2,5],[3,5],[4,2],[9,3],[5,1],[5,2],[3,4],[2,7],[0,9],[-1,4],[-1,3],[-5,5],[-12,11],[-12,7],[-3,3],[-12,19],[-2,3],[-2,1],[-2,1],[-22,13],[-4,3],[-2,2],[0,2],[7,22],[5,24],[1,15],[8,4],[6,4],[5,5],[4,7],[-1,7],[-2,7],[-12,16],[-21,19],[-6,9],[-7,7],[-8,5],[-9,2],[-10,5],[-39,35],[-11,8],[-10,4],[-7,1]],[[334,2476],[-5,-1]],[[628,1761],[2,3],[1,3],[0,4],[-1,9],[-4,21],[0,5],[0,5],[3,5],[7,11],[1,3],[0,2],[-1,3],[0,1],[-1,2],[-4,5],[-4,4],[-7,6],[-5,5],[-3,3],[-1,3],[0,3],[1,5],[1,4],[31,51],[3,4],[5,4],[-9,8],[-2,1],[-4,4],[-4,4],[-1,2],[-2,1],[-4,1],[-8,2],[-2,1],[-3,2],[-3,3],[-11,13],[-14,6],[-1,0]],[[584,1983],[-9,0]],[[578,1773],[8,-1],[5,-5]],[[541,1760],[5,0],[4,3],[10,10],[18,0]],[[601,1768],[27,-7]],[[591,1767],[10,1]],[[530,1764],[4,-1],[3,-2],[4,-1]],[[523,1616],[6,5],[6,19],[1,10],[0,14],[-4,19],[-8,22],[-2,11],[-1,10],[5,32],[2,6],[2,0]],[[475,1627],[8,-1],[24,-8],[16,-2]],[[413,1577],[9,1],[6,2],[10,11],[10,19],[4,5],[6,5],[4,3],[6,3],[7,1]],[[396,1578],[17,-1]],[[375,1509],[-5,1],[-2,5],[2,7],[8,12],[4,8],[1,7],[-4,12],[-1,6],[4,7],[6,3],[8,1]],[[228,1270],[7,0],[4,2],[3,4],[2,5],[1,5],[0,5],[0,5],[-1,5],[-1,5],[-2,6],[2,8],[5,8],[21,17],[4,4],[1,4],[2,4],[4,1],[9,1],[6,1],[9,4],[6,4],[5,4],[10,13],[19,15],[6,3],[13,2],[7,3],[4,6],[7,17],[9,14],[6,7],[13,10],[2,6],[-1,7],[-5,7],[-10,10],[-3,5],[-1,6],[-2,5],[-3,2],[-6,0]],[[380,1510],[-5,-1]],[[219,1275],[9,-5]],[[207,1212],[-5,1],[-4,3],[-4,4],[-4,4],[-3,5],[-2,4],[-2,5],[0,5],[1,5],[3,5],[5,3],[10,3],[5,3],[4,4],[6,8],[2,1]],[[278,1172],[-3,1],[-3,1],[-4,2],[-5,3],[-5,3],[-4,5],[-3,5],[-3,5],[-1,4],[-1,5],[0,14],[-2,5],[-2,4],[-5,2]],[[237,1231],[-4,-1],[-3,-3],[-10,-11],[-4,-2],[-4,-2],[-5,0]],[[324,1057],[5,2],[3,4],[3,12],[2,5],[4,3],[7,4],[2,2],[1,2],[1,3],[-1,5],[-1,4],[-1,4],[-11,18],[-6,14],[-1,5],[-1,4],[-1,4],[-1,2],[-2,2],[-15,11],[-12,6],[-3,1],[-4,0]],[[292,1174],[-14,-2]],[[2,1065],[4,-1],[5,-6],[2,-2],[5,-1],[3,-2],[3,-4],[3,-2],[4,-1],[11,-2],[22,-9],[14,-1],[3,-2],[3,-2],[3,-2],[3,0]],[[0,1065],[2,0]],[[312,1057],[12,0]],[[273,1008],[4,2],[4,4],[0,5],[-1,5],[0,4],[3,4],[8,3],[5,2],[3,3],[2,10],[4,5],[7,2]],[[97,1029],[5,-1],[14,-4],[16,-8],[1,-6],[2,-3],[4,-2],[3,-5],[-1,-5],[4,-4],[12,-6],[10,-3],[2,-2],[0,-3],[2,-1]],[[90,1028],[7,1]],[[267,1009],[6,-1]],[[248,989],[6,1],[5,3],[2,5],[1,4],[1,4],[4,3]],[[227,996],[5,-1],[16,-6]],[[193,960],[3,3],[5,5],[8,6],[4,4],[5,6],[2,5],[3,4],[4,3]],[[174,978],[4,-9],[8,-7],[7,-2]],[[171,976],[3,2]],[[167,704],[-25,0],[-6,2],[-4,2],[-6,31],[-7,22],[-4,10],[-7,11],[-8,8],[-3,4],[-3,1]],[[94,795],[-5,0],[-4,-2],[-7,-6],[-4,-1],[-2,-2],[-1,-1],[-10,-11],[-3,-2],[-4,-2],[-3,-1],[-5,-1],[-10,-2]],[[36,764],[-11,1],[-10,4],[-15,8]],[[192,716],[-9,0],[-2,-1],[-3,-2],[-2,-2],[-4,-4],[-2,-2],[-3,-1]],[[4096,3771],[-3,2],[-5,4],[-4,2],[-5,1],[-11,3],[-5,0]],[[4063,3783],[-4,-1],[-17,-12],[-23,-11],[-2,-2],[-1,-2],[-4,-6],[-5,-8],[-9,-14],[-4,-12],[-20,-37],[-2,-2],[-6,-6],[-12,-11],[-4,-5],[-27,-53],[-10,-25],[-2,-5],[-2,-3],[-10,-12],[-2,-3],[-2,-4],[-2,-18],[-1,-5],[-2,-8],[-3,-5],[-2,-3],[-14,-13],[-13,-14],[-2,-1],[-3,-1],[-7,-2],[-5,-2],[-10,-6],[-4,-2],[-4,0]],[[3823,3469],[-4,0],[-8,3],[-3,2],[-3,2],[-4,6],[-2,1],[-3,3],[-68,8]],[[3728,3494],[-8,-2],[-5,-2],[-2,-2],[0,-2],[6,-7],[-4,-1]],[[3715,3478],[-10,3]],[[3705,3481],[-1,-3],[1,-37],[-2,-6],[-17,-15],[-11,-21],[-10,-6],[-12,-3]],[[3653,3390],[-31,2]],[[3622,3392],[-12,-2],[-11,-6],[-9,-12]],[[2646,111],[-47,-6],[-5,-3],[-5,-4],[1,-5],[3,-4],[13,-14],[3,-4],[1,-4],[-1,-5],[-2,-2],[-3,-2],[-13,0],[-4,-1],[-4,-2],[-9,-17],[-19,-29],[-2,-4],[-1,-4],[0,-1]],[[1589,340],[-5,1],[-5,2],[-4,4],[-3,6],[-2,10],[0,8],[-4,16],[-11,23],[-8,23]],[[1822,290],[-9,0],[-7,3],[-7,3],[-28,20],[-12,13],[-5,7],[-2,3],[-1,3],[-1,3],[-1,5],[0,5],[0,6],[1,6],[2,5],[3,9],[9,16],[2,5],[1,5],[0,5],[-3,4],[-5,2]],[[1759,418],[-15,0],[-10,-3],[-14,-5],[-5,-1],[-22,-1],[-9,-3],[-8,-7],[-3,-4],[-3,-5],[-3,-6],[-1,-5],[-5,-11],[-2,-3],[-4,0]],[[1655,364],[-5,0],[-9,3],[-6,1]],[[1635,368],[-6,-2],[-7,-4],[-26,-19],[-3,-2],[-4,-1]],[[2036,347],[-10,2],[-21,9],[-7,1]],[[1998,359],[-5,-1],[-4,-2],[-19,-17],[-13,-9],[-8,-2],[-26,-1],[-5,-1],[-26,-11],[-5,-1],[-16,0],[-5,-1],[-4,-2],[-22,-15],[-8,-4],[-5,-1],[-5,-1]],[[2178,223],[-5,2],[-6,2],[-20,14],[-18,10],[-7,4],[-3,4],[-1,4],[1,5],[7,19],[1,5],[2,28],[0,5],[-5,8],[-7,10],[-4,3],[-5,1],[-11,1]],[[2097,348],[-27,-3]],[[2070,345],[-21,3]],[[2049,348],[-13,-1]],[[2303,199],[-10,1],[-28,6],[-4,1],[0,1],[0,1],[0,1],[-1,1],[0,2],[0,2],[0,2],[1,1],[1,1],[0,2],[-1,3],[0,2],[-1,2],[-1,2],[-1,2],[0,3],[-1,0],[0,3],[-2,11],[1,0],[0,2],[0,2],[1,3],[0,3],[-1,2],[-2,2],[-4,2],[-5,0]],[[2245,265],[-5,-1],[-4,-2],[-4,-2],[-4,-2],[-5,-6],[-3,-3],[-13,-13],[-3,-3],[-7,-6],[-5,-2],[-5,-2],[-9,0]],[[2454,88],[-4,1],[-7,5],[-20,17],[-16,8],[-4,3],[-2,3],[-14,24],[-8,10],[-4,4],[-18,11],[-4,3],[-11,13],[-8,8],[-8,4],[-6,1]],[[2320,203],[-5,-1],[-4,-2],[-8,-1]],[[2646,111],[-3,5],[-8,16],[-3,3],[-6,3],[-8,2],[-27,2]],[[2591,142],[-8,-1],[-14,-5],[-5,0]],[[2564,136],[-6,2],[-4,3],[-5,1]],[[2549,142],[-5,-1],[-8,-6],[-5,-4],[-5,-3]],[[2526,128],[-13,3]],[[2513,131],[-13,-4]],[[2500,127],[-13,1]],[[2487,128],[-6,-1],[-5,-2],[-7,-5],[-3,-3],[-3,-3],[-2,-4],[-1,-5],[0,-11],[-1,-4],[-2,-2],[-3,0]],[[1097,2467],[-5,2],[-8,5],[-18,14],[-5,2],[-8,3],[-12,7],[-89,74],[-68,68],[-8,5],[-79,25],[-4,4],[-3,5],[-12,63],[-1,24],[0,13],[1,9],[4,4],[6,3],[39,10],[3,4],[0,6],[-15,77],[-3,7],[-4,7],[-9,14],[-2,6],[0,4],[2,3],[10,7],[117,70],[29,24],[15,16],[14,20],[10,16],[23,53],[6,9],[8,7],[7,5],[17,7],[2,2],[3,3],[4,5],[16,34],[3,8],[1,7],[0,6],[-1,5],[-2,5],[-4,8],[-54,85],[-3,7],[-1,6],[-1,5],[1,6],[6,20],[0,6],[-2,5],[-4,3],[-4,2],[-5,1]],[[1010,3398],[-100,-8],[-104,-30],[-65,-29],[-19,-14],[-35,-17],[-14,-9],[-10,-9],[-24,-25],[-5,-3],[-9,-2]],[[625,3252],[-50,5],[-45,14],[-41,7],[-8,3],[-9,5],[-27,17],[-7,3],[-7,1]],[[431,3307],[-8,0],[-7,-2],[-137,-53],[-59,-13],[-5,-2],[-4,-2],[-2,-3],[0,-1],[-1,-2],[2,-2],[12,-15],[33,-34],[12,-15],[14,-14],[3,-6],[-4,-10],[-10,-13],[-27,-25],[-12,-14],[-14,-19],[-5,-5],[-27,-1]],[[36,3085],[-6,1],[-5,2],[-3,5],[-1,4],[2,4],[6,6],[2,3],[0,5],[-3,4],[-17,7],[-5,4],[-6,8]],[[125,3056],[-5,0],[-60,28],[-9,2]],[[51,3086],[-15,-1]],[[185,3056],[-39,6]],[[146,3062],[-7,0],[-5,-2],[-4,-3],[-5,-1]],[[1132,2472],[-12,3]],[[1120,2475],[-4,0],[-6,-2],[-8,-5],[-5,-1]],[[765,818],[-20,2],[-9,3],[-16,8],[-9,6],[-2,3],[-3,4],[-2,4],[1,5],[2,11],[1,7],[-1,5],[-1,4],[-2,4],[-12,10],[-1,3],[-1,7],[-1,8],[0,8],[1,9],[2,8],[1,14],[0,16],[0,11],[-2,11],[-3,7],[-3,5],[-4,5],[-29,9],[-6,4],[-5,4],[-4,3],[-11,16],[-5,10],[-4,6],[-5,5],[-7,2]],[[605,1065],[-8,0],[-13,-7],[-14,-3],[-5,0],[-7,-1],[-7,-3],[-5,-5],[-9,-14],[-6,-6],[-17,-10],[-23,-12],[-4,-2],[-3,-4],[-2,-6],[2,-4],[5,-3],[10,-3],[3,-1],[3,-2],[1,-3],[1,-4],[-3,-3],[-6,-2],[-51,-4],[-7,-2],[-7,-5],[-5,-9],[-7,-18],[-5,-6],[-8,-5],[-4,-2],[-3,-1]],[[394,917],[-2,1],[-2,4],[-1,1],[-2,1]],[[387,924],[-5,-2],[-2,-1]],[[380,921],[-3,1]],[[377,922],[-3,-1],[-3,-1],[-4,-1],[-3,-1],[-17,-7],[-10,-6],[-2,-2],[9,-10],[23,-37],[2,-6],[-1,-2],[-4,-2],[-2,-4],[1,-5],[5,-2],[7,-1],[7,-4],[6,-6],[3,-7],[-3,-4],[-3,-2],[-3,-2],[-3,-5],[5,-2]],[[401,915],[-4,2],[-1,0]],[[396,917],[-2,0]],[[838,794],[-7,2],[-4,3],[0,6],[2,6],[9,19],[2,6],[1,6],[-3,3],[-4,1]],[[834,846],[-8,-3],[-30,-18],[-8,-3],[-9,-3],[-14,-1]],[[395,809],[3,-5],[0,-3],[-2,-4],[-2,-5],[-2,-10],[-1,-10],[1,-3],[6,-7],[1,-3],[4,-7],[17,-7],[4,-7],[3,-1],[21,-17],[-2,-3]],[[384,802],[5,3],[3,4],[3,0]],[[930,780],[-14,0],[-8,2],[-18,7],[-4,3],[-6,4],[-3,2],[-5,1],[-8,0]],[[864,799],[-26,-5]],[[1135,613],[3,1],[3,4],[1,3],[-1,3],[-3,3],[-3,2],[-4,2],[-13,4],[-5,2],[-5,3],[-4,5],[-9,14],[-3,2],[-8,6],[-19,31],[-3,8],[-1,6],[0,5],[2,5],[2,8],[-1,13],[-3,8],[-3,8],[-4,7],[-5,5],[-5,5],[-9,3],[-65,6]],[[970,785],[-40,-5]],[[221,530],[-2,1],[1,5],[1,4],[0,5],[0,8],[0,6],[-4,10],[-3,4],[-2,4],[-2,5],[-1,6],[3,10],[4,7],[4,4],[5,3],[2,2],[3,4],[3,7],[6,20],[3,6],[2,4],[1,5],[1,7],[0,5],[-1,5],[-3,6],[-1,4],[-8,10],[-1,4],[0,5],[2,4],[0,4],[-3,9],[-12,12],[-2,6],[-3,0],[-7,6],[-3,2],[-3,1]],[[201,750],[-2,0],[-2,-2],[-1,-3],[1,-15],[-5,-14]],[[446,717],[-5,4]],[[441,721],[-3,-3],[0,-5],[1,-5],[1,-6],[3,-6],[5,-10],[-2,0]],[[446,686],[-1,2],[-2,1],[-4,1]],[[439,690],[1,-5],[1,-2],[-8,-4],[-19,-18],[-4,0],[-5,-2],[-4,0],[0,-2],[-17,-4],[-6,-3],[-3,-3],[-9,-16],[-2,-4],[-4,-3],[-4,-2],[-21,-4],[-5,-2],[-4,-3],[-3,-4],[-2,-4],[-6,-18],[-6,-11],[-4,-2],[-4,-1]],[[1123,614],[12,-1]],[[1278,314],[-20,2],[-22,4],[-9,3],[-13,5],[-9,6],[-28,23],[-20,25],[-4,3],[-4,4],[-23,5],[-11,4],[-5,4],[-4,4],[-2,5],[-1,4],[-1,7],[5,19],[5,7],[6,6],[7,2],[14,1],[3,3],[3,4],[5,13],[2,9],[1,5],[-1,5],[-1,4],[-2,4],[-28,35],[-5,8],[-7,16],[-2,9],[-2,11],[-2,16],[1,4],[1,4],[3,2],[2,2],[3,2],[3,1],[7,0]],[[301,573],[-17,3]],[[284,576],[-9,-1],[-3,-1],[-3,-2],[-7,-5],[-25,-25],[-14,-11],[-2,-1]],[[1547,433],[-3,6],[-3,1]],[[1541,440],[-7,0],[-6,-2],[-6,-3],[-6,-4],[-5,-5],[-5,-8],[-3,-6],[-1,-6],[1,-5],[3,-6],[18,-22],[1,-3],[0,-3],[0,-7],[-4,-4],[-4,-3],[-11,-3],[-6,-4],[-8,-7],[-13,-15],[-8,-7],[-7,-4]],[[1464,313],[-4,0],[-6,2],[-8,6],[-3,2],[-3,0]],[[1440,323],[-4,-1],[-4,-3],[-7,-12],[-6,-9],[-7,-5],[-6,-2]],[[1335,299],[-7,0],[-4,2],[-17,11],[-4,2],[-5,1]],[[1298,315],[-20,-1]],[[1406,291],[-4,1],[-5,2],[-3,3],[-3,3],[-2,6],[-2,3],[-4,2],[-6,0]],[[1377,311],[-34,-11],[-8,-1]],[[2011,3367],[3,-2],[3,-4],[1,-3],[2,-8],[2,-4],[2,-8],[-4,-31],[1,-9],[3,-10],[4,-8],[6,-4],[4,-4],[13,-27],[-2,-1],[1,-4],[1,-2],[2,-2],[8,-7],[9,-4],[15,-11],[2,-2],[0,-3],[0,-5],[-2,-5],[-6,-18],[-10,-19],[-58,-93],[-22,-29],[-1,-3],[-2,-4],[-22,-81],[-7,-11],[-20,-25],[-36,-40],[38,-23],[20,-7],[17,-5],[5,-2],[42,-24],[8,-3],[60,-14],[25,-2]],[[1894,3325],[16,2],[4,2],[14,7],[8,5],[17,19],[5,2],[44,1],[6,3],[3,1]],[[1848,3331],[8,0],[26,-5],[12,-1]],[[1804,3253],[3,0],[5,1],[5,1],[3,2],[3,2],[5,4],[3,3],[2,3],[1,2],[0,3],[0,3],[0,2],[0,3],[-1,2],[-2,7],[-2,9],[-1,2],[0,9],[1,5],[0,2],[1,2],[1,2],[2,2],[6,5],[4,1],[5,1]],[[1785,3257],[5,0],[3,-1],[6,-2],[5,-1]],[[1549,2619],[11,0],[22,5],[17,0],[4,1],[2,1],[12,11],[35,19],[4,3],[1,3],[0,2],[-1,24],[0,6],[6,30],[3,11],[1,6],[0,3],[0,2],[-1,2],[-1,2],[-5,8],[-11,20],[-6,18],[-1,4],[-1,5],[0,6],[1,6],[1,5],[2,6],[3,6],[3,3],[3,3],[2,1],[8,3],[4,3],[1,1],[2,3],[1,2],[2,8],[1,3],[0,5],[0,6],[0,4],[-1,3],[-1,2],[-1,2],[-4,8],[-1,2],[-1,2],[0,3],[0,14],[0,9],[7,79],[20,75],[5,12],[19,31],[8,11],[5,8],[2,4],[3,18],[2,5],[4,6],[9,11],[2,4],[2,5],[2,5],[4,27],[1,3],[10,23],[1,2],[2,1],[4,2],[8,1]],[[2146,2808],[7,-1],[52,-28],[7,-5],[15,-25],[10,-12],[3,-9],[1,-8],[0,-12],[3,-4],[5,-2],[24,-1],[3,-1],[20,-12],[26,-8],[11,-3]],[[2116,2796],[30,12]],[[1500,2632],[10,-1],[5,-1],[19,-7],[15,-4]],[[1237,2520],[6,0],[50,12],[52,6],[9,3],[9,5],[3,3],[3,3],[2,4],[5,9],[4,9],[6,8],[3,3],[7,5],[59,29],[39,13],[6,0]],[[1210,2531],[6,-1],[21,-10]],[[1132,2472],[24,44],[2,3],[2,2],[3,2],[11,4],[17,4],[19,0]],[[3588,3371],[-18,11],[-3,4],[-2,4],[0,2],[3,4],[11,15],[5,10],[6,7],[5,9],[2,6],[3,11],[0,4],[-2,2],[-2,1],[-2,0]],[[3594,3461],[-2,-1],[-7,-3],[-3,-3],[-2,-1],[-3,-1],[-2,0],[-3,0]],[[3572,3452],[-3,1],[-8,3]],[[3561,3456],[-2,0],[-3,-1],[-1,-1],[-3,-3],[-2,-3],[-6,-6],[-1,-2],[-8,-5],[-5,-2],[-12,-3],[-2,-1],[-2,-1],[-20,-19],[-9,-11],[-1,-2],[-1,-2],[-1,-2],[-31,-41],[-5,-8],[-3,-7],[-2,-5],[-5,-11],[-1,-2],[-2,-3],[-3,-2],[-5,-4],[-4,0]],[[3317,3341],[-5,0],[-3,1],[-23,18],[-5,5],[-2,4],[-9,18],[-2,3],[-4,3],[-5,3],[-10,2],[-5,1],[-5,0]],[[3239,3399],[-4,0],[-3,-2],[-3,-2],[-2,-1],[-1,-2],[-1,-1],[0,-2],[0,-3],[0,-3],[2,-2],[12,-20],[7,-17],[3,-8],[1,-4],[0,-5],[-1,-2],[-2,-2],[-17,-8],[-31,-21],[-17,-8],[-10,-6],[-43,-38],[-1,-2],[-1,-3],[-1,-2],[-1,-3],[0,-3],[-2,-3],[-3,-4],[-7,-5],[-10,-3],[-26,-6],[-6,-2],[-4,-3],[-14,-48],[-3,-5],[-4,-5],[-8,-6],[-4,-4],[-3,-4],[-3,-6],[-4,-16],[-2,-4],[-4,-5],[-5,-1]],[[3590,3372],[-2,-1]],[[3421,3309],[-3,0],[-2,1],[-3,2],[-6,5],[-2,2],[-8,13],[-8,17],[-3,4],[-4,5],[-2,2],[-3,3],[-2,2],[-2,1],[-5,2]],[[3368,3368],[-2,0],[-10,-6],[-14,-3],[-4,-1],[-1,-2],[-4,-6],[-3,-3],[-2,-2],[-4,-2],[-7,-2]],[[3013,3099],[-4,1],[-3,3],[-3,1]],[[3003,3104],[-4,0],[-9,-3],[-14,-8],[-7,-7],[-5,-7],[-4,-15],[-2,-4],[-3,-3],[-12,-4],[-4,-2],[-2,-4],[-1,-6],[0,-11],[0,-4],[-7,-6],[-33,-18],[-10,-6],[-6,-6],[-6,-17],[-3,-4],[-20,-18],[-8,-8],[-5,-7],[-4,-14],[-4,-8],[-11,-13],[-2,-5],[-1,-4],[-1,-13],[0,-7],[-2,-7],[-8,-19],[-1,-6],[1,-6],[2,-7],[4,-7],[8,-12],[13,-14],[2,-4],[2,-5],[-1,-7],[-13,-39],[-5,-9],[-12,-20],[-4,-3],[-4,-2]],[[2797,2705],[-4,2],[-4,4],[-8,12],[-4,10],[-2,3],[-3,2],[-4,2]],[[2768,2740],[-6,-1],[-4,-3],[-3,-4],[-10,-14],[-2,-9],[-1,-8],[1,-57],[-1,-5],[-2,-6],[-2,-6],[0,-7],[0,-14],[-2,-6],[-4,-3],[-6,-2],[-32,-4]],[[2472,2577],[-9,2],[-4,2],[-2,2],[3,14],[0,9],[-3,7],[-3,7],[-16,21],[-6,6],[-8,4],[-8,3],[-67,14],[-9,5],[-7,4]],[[2694,2591],[-20,0],[-27,4]],[[2647,2595],[-9,-1],[-59,-16],[-10,-1]],[[2569,2577],[-26,4]],[[2543,2581],[-71,-4]],[[192,716],[-4,-27],[-7,-9],[-13,-7],[-7,-7],[-5,-7],[-4,-10],[-3,-15],[0,-7],[2,-6],[5,-6],[12,-6],[4,-4],[2,-8],[-1,-6],[-3,-6],[-8,-13],[-19,-39],[-6,-5]],[[137,528],[-6,1],[-6,5],[-13,17],[-12,13],[-16,13],[-6,3],[-7,2],[-6,1]],[[65,583],[-7,-2],[-3,-3],[-1,-5],[-1,-7],[-3,-7],[-5,-3]],[[45,556],[-4,3],[-4,5],[-5,3],[-5,0]],[[27,567],[-10,-4],[-17,-6]],[[3605,3360],[-4,4],[-8,4],[-3,4]],[[3341,2295],[7,5],[-7,3],[-3,0],[0,3],[10,4],[5,4],[2,3],[2,5],[3,5],[4,5],[3,2],[4,2],[3,6],[4,14],[3,5],[12,10],[24,33],[1,3],[1,6],[1,2],[2,1],[4,1],[2,1],[2,4],[0,2],[0,3],[0,4],[6,15],[0,6],[-7,3],[-8,2],[-5,5],[-1,8],[3,10],[6,7],[15,3],[7,4],[9,9],[3,5],[8,28],[2,5],[3,2],[2,2],[-1,6],[-3,13],[-2,5],[-2,4],[0,7],[1,1],[7,5],[2,3],[-6,9],[-18,10],[-8,6],[14,9],[3,6],[-4,8],[-5,4],[-20,11],[-7,7],[-24,48],[-4,6],[-5,5],[-7,3],[-7,1],[-4,2],[0,2],[0,4],[0,5],[0,1],[0,8],[-1,2],[-1,2],[0,1],[-3,36],[3,17],[0,8],[-3,9],[4,17],[2,2],[6,0],[5,2],[5,2],[3,5],[0,2],[4,25],[4,5],[5,2],[11,1],[5,1],[4,2],[4,3],[11,13],[2,4],[2,1],[13,9],[3,6],[7,16],[6,6],[15,3],[7,5],[3,5],[2,10],[2,6],[2,3],[5,7],[2,5],[1,4],[1,13],[0,3],[-9,13],[-1,2],[-1,4],[12,26],[4,13],[2,4],[6,7],[2,3],[2,15],[3,6],[5,6],[4,9],[5,31],[3,7],[0,7],[-3,9],[-8,17],[8,13],[10,7],[24,11],[11,11],[6,15],[9,33],[23,50],[1,6],[0,7],[-4,2],[-5,2],[-6,5],[-2,5],[-1,7],[-3,3]],[[3611,3363],[-6,-3]],[[3328,2300],[6,-3],[7,-2]],[[3329,2191],[2,0],[4,7],[2,4],[1,5],[-1,3],[-3,3],[-1,3],[2,6],[-3,5],[-9,8],[-3,6],[10,7],[6,14],[2,13],[-4,6],[-3,2],[-5,5],[-4,6],[0,4],[6,2]],[[3326,2191],[3,0]],[[3338,2169],[-1,2],[-1,4],[0,4],[2,0],[-7,3],[-2,2],[-5,2],[-1,2],[1,2],[2,1]],[[3339,2151],[4,5],[3,10],[0,7]],[[3346,2173],[-8,-4]],[[3332,2154],[3,-2],[4,-1]],[[3375,1784],[-3,1],[-1,7],[-1,5],[-2,9],[-1,21],[-18,74],[-1,20],[2,9],[7,17],[1,9],[-1,10],[-4,19],[0,10],[6,25],[2,20],[5,16],[2,11],[-1,8],[-3,24],[-2,7],[-33,40],[-1,3],[1,5],[3,0]],[[3308,1209],[-14,2],[-10,7],[-6,12],[-4,25],[-2,38],[2,10],[8,12],[3,14],[0,15],[-5,14],[4,6],[5,23],[3,19],[7,18],[2,16],[4,11],[3,22],[8,18],[6,8],[16,14],[2,3],[3,7],[2,6],[3,6],[5,4],[3,5],[11,22],[4,2],[5,4],[6,5],[3,5],[2,5],[3,9],[1,10],[-2,4],[-1,4],[6,8],[11,12],[6,20],[-3,18],[-13,34],[-5,62],[-7,16],[-4,1]],[[3379,1785],[-4,-1]],[[3308,1209]],[[3308,1209],[0,-2],[3,-32],[-1,-11],[-1,-5],[-2,-5],[-2,-4],[0,-3],[0,-4],[1,-4],[3,-9],[1,-3],[3,-5],[9,-10],[4,-2],[25,-8],[2,-1],[2,-2],[1,-1],[2,-3],[1,-4],[2,-7],[0,-4],[-1,-3],[-11,-8],[-3,-3],[-1,-2],[-1,-2],[0,-3],[-1,-3],[0,-3],[0,-2],[1,-3],[1,-4],[3,-4],[9,-9],[2,-2],[20,-9],[2,-1],[2,-2],[4,-4],[2,-2],[2,-1],[3,-1],[13,-3],[2,-1],[2,-2],[1,-5],[0,-3],[-1,-3],[-3,-4],[-1,-4],[-1,-3],[-4,-22],[0,-3],[0,-6],[0,-3],[1,-1],[4,-1]],[[3408,946],[1,-1],[1,-2],[2,-6],[8,-17],[0,-2],[0,-3],[0,-2],[-2,-5],[-13,-21],[-2,-5],[-1,-2],[0,-3],[0,-2],[2,-3],[2,-3],[7,-5],[7,-3],[12,-3],[5,-2],[22,-16],[2,-3],[4,-5],[9,-16],[0,-1],[-1,-9],[0,-3],[0,-3],[1,-5],[3,-4],[18,-16],[10,-8],[16,-6],[8,-5],[4,-4],[5,-5],[4,-7],[4,-18],[3,-7],[1,-4],[4,-9],[0,-2],[-1,-4],[-2,-7],[-2,-6],[-2,-4],[0,-2],[-1,-3],[0,-3],[2,-4],[6,-14],[1,-2],[1,-6],[-3,-12],[-12,-37]],[[3407,945],[1,1]],[[4096,1483],[-4,-1]],[[3959,1486],[-4,1],[-12,3]],[[3943,1490],[-8,-1],[1,-28],[0,-8],[0,-21],[-1,-8],[-7,-19],[0,-1]],[[4036,1482],[-65,8]],[[3971,1490],[-8,-3],[-4,-1]],[[4092,1482],[-18,3],[-4,2],[-4,2],[-3,1],[-3,0]],[[4060,1490],[-4,-1],[-8,-2],[-5,-3],[-7,-2]],[[3883,1424],[-6,2]],[[3877,1426],[-6,-3],[-13,-1],[-6,-2],[-5,-4],[-3,-5],[-4,-5],[-7,-1],[-5,-3],[-8,-11],[-7,-2],[-7,0],[-7,-3],[-5,-4],[3,-9],[-4,-3],[-10,-3],[-3,-3],[-4,-5],[-4,-12],[-2,-5],[-3,-2],[-3,-2],[-2,-2],[-1,-3],[-3,-7],[-1,-3],[-4,-2],[-41,-12],[-9,-1],[-10,-5],[-3,-1]],[[3928,1404],[-1,1],[-16,11],[-6,6],[-6,4]],[[3899,1426],[-16,-2]],[[3690,1302],[-4,2],[-8,6],[-3,1]],[[3675,1311],[-5,0],[-4,-2],[-4,-3],[-8,-6]],[[3654,1300],[-3,0],[-3,3],[-5,2]],[[3643,1305],[-4,-2],[-1,-4],[-2,-4],[-1,-3],[-4,-1]],[[3631,1291],[-3,1],[-6,4],[-15,6]],[[3607,1302],[-7,-1],[-5,-19],[-5,-4],[-31,-10],[-6,-4],[-7,-7],[-6,-3]],[[3540,1254],[-14,9]],[[3526,1263],[-9,-2],[5,-21],[-14,-9],[-43,-2],[-9,-3],[-6,-5],[-2,-8],[-4,-2],[-22,-9],[-23,0],[-9,-2],[-4,-3],[-4,-3],[-3,0]],[[3335,1196],[-4,2],[-2,3],[-2,4],[-4,4],[-3,0]],[[3320,1209],[-12,0]],[[3379,1194],[-5,4],[-6,7],[-3,2],[-3,2]],[[3362,1209],[-9,-1],[-4,-1],[-4,-2],[-3,-2],[-1,-3],[-1,-3],[-5,-1]],[[3541,596],[-7,-3],[-5,-4],[-1,0],[0,-1],[-2,-3],[-3,-7],[-1,-2],[-1,-2],[-3,-3],[-1,-2],[-3,0]],[[3095,585],[-10,2],[-10,3],[-8,4],[-5,1]],[[3062,595],[-3,0],[-3,-1],[-6,-8],[-3,-2],[-5,-2],[-4,0]],[[3413,541],[-5,2],[-2,2],[-1,3],[-1,2],[-2,11],[-1,5],[-1,2],[-7,14],[-2,1],[-2,2],[-4,2],[-3,0]],[[3382,587],[-3,0],[-5,-2],[-3,-2],[-2,-2],[-1,-2],[-2,-2],[-3,-5],[-10,-13],[-3,-2],[-5,-2],[-2,-1],[-72,-8]],[[3038,582],[-3,0],[-12,4],[-3,0],[-3,1]],[[3017,587],[-2,-1],[-3,-1],[-3,-2],[-19,-22],[-4,-6],[-1,-3],[-1,-3],[3,-6],[13,-2],[8,-2],[8,-4],[11,-8],[3,-1],[5,-1]],[[3271,546],[-12,2],[-4,1],[-3,2],[-2,1],[-10,11],[-4,3],[-3,3],[-5,2],[-2,0],[-6,1],[-49,1],[-16,9],[-4,1],[-11,3]],[[3140,586],[-45,-1]],[[3514,569],[-19,0]],[[3495,569],[-6,-2],[-3,-1],[-3,-2],[-1,-2],[-2,-7],[-1,-3],[-1,-1],[-1,-1],[-3,-2],[-7,-5],[-8,-4],[-2,-2],[-1,-1],[-1,-2],[0,-3],[0,-2],[1,-2],[2,-2],[1,-2],[1,-1],[0,-2],[-2,-1]],[[3458,519],[-3,0],[-5,2],[-3,2],[-2,1],[-10,12],[-7,6],[-3,1],[-2,0]],[[3423,543],[-7,-2],[-3,0]],[[3059,527],[16,-4],[17,-7],[2,-1],[2,-2],[1,-1],[8,-12],[1,-2],[0,-2],[0,-5],[-1,-8],[-4,-22],[-2,-4],[-1,-3],[-5,-7],[-2,-3],[7,-7],[9,-6],[9,-4]],[[3035,525],[2,0],[11,2],[11,0]],[[3143,437],[6,0],[10,-7],[4,-2],[20,-3],[4,-2],[14,-10],[15,-6],[5,-4],[3,-3],[4,-7],[0,-4],[1,-1],[1,-5],[8,-16],[1,-2],[3,-12],[0,-4],[-1,-6],[-2,-12],[0,-7],[2,-5],[3,-2],[3,-3],[1,-5],[-1,-5],[-6,-7],[-6,-1]],[[3116,427],[10,1],[12,8],[5,1]],[[3235,296],[-7,2],[-6,3],[-5,1]],[[3217,302],[-4,-1],[-4,-2],[-1,-2],[0,-4],[1,-2],[1,-3],[0,-2],[-2,-3],[-12,-10],[-3,-2],[-2,0]],[[3121,281],[-2,0],[-3,0],[-2,1],[-2,1],[-2,2],[-5,7],[-2,1],[-1,1]],[[3102,294],[-3,0],[-4,-2],[-8,-4],[-5,-1],[-2,0]],[[3080,287],[-3,1],[-2,0],[-11,5],[-3,1]],[[3061,294],[-2,-1],[-2,0],[-2,-1],[-2,-2],[-2,-3],[-1,-3],[-1,-8],[-2,-3],[-1,-1],[-2,-1],[-4,-2],[-5,-1],[-2,-1],[-2,-6],[-4,-49],[-1,-7],[-2,-1],[-20,-15],[-3,-2],[-1,-2],[-1,-2],[0,-4],[0,-5],[3,-9],[2,-6],[7,-8],[2,-4],[1,-2],[2,-12],[2,-2],[1,-2],[2,-1],[20,-10],[1,-1],[2,-1],[1,-2],[1,-2],[1,-5],[2,-19],[2,-10],[3,-6],[11,-14],[2,-2],[0,-3],[0,-4],[-3,-8],[-1,-4],[-2,-3],[-3,-3],[-1,-4],[-7,-23],[-3,-4]],[[3191,271],[-3,0],[-1,1],[-1,0],[-12,8],[-6,3],[-26,7],[-4,0]],[[3138,290],[-2,0],[-6,-6],[-2,-1],[-4,-2],[-3,0]],[[3541,596],[7,-21],[3,-5],[3,-3],[12,-11],[4,-2],[3,-2],[7,-1],[5,-4],[3,-2],[1,-2],[3,-7],[2,-10],[3,-9],[11,-22],[6,-8],[11,-11],[1,-2],[1,-2],[1,-5],[1,-2],[-1,-3],[0,-2],[-2,-5],[-1,-3],[0,-4],[1,-4],[2,-3],[2,-1],[5,-2],[4,-2],[4,-3],[13,-14],[2,-1],[4,-3],[2,-1],[3,-2],[8,-7],[7,-9],[11,-22],[5,-7],[13,-14],[13,-10],[7,-7],[2,-3],[2,-2],[3,-7],[1,-5],[1,-11],[1,-4],[2,-5],[2,-3],[2,-2],[2,-2],[4,-2]],[[3779,306],[5,0],[5,-2],[20,-10],[6,-4],[6,-7],[11,-22],[2,-3],[8,-4],[58,-17],[6,-4],[10,-14]],[[3753,290],[4,2],[3,3],[3,3],[3,3],[6,3],[4,2],[3,0]],[[3933,228],[3,-1],[4,-2],[11,-12],[16,-12],[2,-1],[3,-1]],[[3916,219],[6,2],[2,1],[2,2],[1,1],[2,2],[2,1],[2,0]],[[3986,201],[11,-3],[2,-2],[7,-6],[12,-9],[4,-2],[3,-1]],[[3972,199],[10,2],[4,0]],[[4072,185],[6,4],[4,1],[2,0],[12,0]],[[4048,187],[24,-2]],[[4025,178],[3,0],[5,3],[3,2],[2,1],[1,1],[4,1],[5,1]],[[2802,4096],[0,-4],[-7,-8],[-8,-9],[-3,-3],[-5,-7],[-2,-2],[-9,-7],[-5,-7],[-8,-7],[-17,-11],[-15,-15],[-5,-1],[-3,5],[4,12],[3,7],[1,3],[1,5],[0,5],[-1,6],[-4,11],[4,0],[4,-1],[3,-3],[1,-5],[6,5],[5,7],[7,5],[5,1],[8,-3],[9,-1],[0,8],[-1,8],[-2,4],[-4,2],[38,0]],[[3797,324],[4,-4],[1,-4],[-3,-3],[-5,0],[-17,3],[-7,0],[-30,-5],[-6,-5],[-5,-9],[-4,-12],[-2,-6],[-4,-4],[-3,-1],[-4,2],[-4,1],[-4,-2],[-6,-4],[-7,-3],[-8,-2],[-5,0],[-3,3],[-2,4],[-3,4],[-5,1],[-4,-3],[-5,-5],[-6,-10],[-7,-8],[-2,5],[2,10],[5,11],[5,9],[0,3],[-4,1],[-9,4],[-12,17],[-8,5],[-7,-10],[-6,-31],[-6,-12],[-13,0],[-5,4],[-3,5],[-1,6],[3,4],[4,0],[4,-3],[4,-2],[4,3],[2,6],[-2,5],[-3,6],[-2,5],[1,6],[5,17],[-7,-3],[-14,10],[-9,1],[-9,6],[-8,10],[-2,8],[8,-2],[3,-4],[1,-4],[2,-3],[5,-1],[5,2],[5,4],[4,4],[6,-1],[6,-2],[11,-3],[4,-3],[1,-2],[1,-7],[1,-2],[3,-3],[77,-41],[7,-1],[3,3],[0,4],[-2,4],[2,2],[4,-1],[9,-8],[5,-1],[3,4],[1,7],[0,7],[-1,5],[-2,6],[-8,12],[-2,6],[0,5],[1,6],[2,3],[4,-2],[9,-6],[1,2],[-3,17],[3,11],[9,26],[0,13],[-4,6],[-7,8],[-15,11],[-46,22],[-23,16],[-11,25],[6,-4],[22,-21],[8,-6],[7,-3],[16,-4],[12,-6],[7,-2],[5,1],[2,4],[0,10],[2,3],[2,-2],[15,-18],[0,-3],[-3,-1],[-1,-2],[2,-9],[9,-11],[4,-9],[2,-11],[1,-7],[3,-4],[19,-8],[7,-6],[6,-9],[1,-12],[-3,-7],[-5,-9],[-1,-6],[6,4],[3,0],[1,-4],[1,-6],[1,-4],[8,-6]],[[2802,4096],[0,-4],[-7,-8],[-8,-9],[-3,-3],[-5,-7],[-2,-2],[-9,-7],[-5,-7],[-8,-7],[-17,-11],[-15,-15],[-5,-1],[-3,5],[4,12],[3,7],[1,3],[1,5],[0,5],[-1,6],[-4,11],[4,0],[4,-1],[3,-3],[1,-5],[6,5],[5,7],[7,5],[5,1],[8,-3],[9,-1],[0,8],[-1,8],[-2,4],[-4,2]],[[4096,631],[-2,1],[-4,4],[-3,6],[0,6],[2,7],[3,-9],[4,-7]],[[3797,324],[4,-4],[1,-4],[-3,-3],[-5,0],[-17,3],[-7,0],[-30,-5],[-6,-5],[-5,-9],[-4,-12],[-2,-6],[-4,-4],[-3,-1],[-4,2],[-4,1],[-4,-2],[-6,-4],[-7,-3],[-8,-2],[-5,0],[-3,3],[-2,4],[-3,4],[-5,1],[-4,-3],[-5,-5],[-6,-10],[-7,-8],[-2,5],[2,10],[5,11],[5,9],[0,3],[-4,1],[-9,4],[-12,17],[-8,5],[-7,-10],[-6,-31],[-6,-12],[-13,0],[-5,4],[-3,5],[-1,6],[3,4],[4,0],[4,-3],[4,-2],[4,3],[2,6],[-2,5],[-3,6],[-2,5],[1,6],[5,17],[-7,-3],[-14,10],[-9,1],[-9,6],[-8,10],[-2,8],[8,-2],[3,-4],[1,-4],[2,-3],[5,-1],[5,2],[5,4],[4,4],[6,-1],[6,-2],[11,-3],[4,-3],[1,-2],[1,-7],[1,-2],[3,-3],[77,-41],[7,-1],[3,3],[0,4],[-2,4],[2,2],[4,-1],[9,-8],[5,-1],[3,4],[1,7],[0,7],[-1,5],[-2,6],[-8,12],[-2,6],[0,5],[1,6],[2,3],[4,-2],[9,-6],[1,2],[-3,17],[3,11],[9,26],[0,13],[-4,6],[-7,8],[-15,11],[-46,22],[-23,16],[-11,25],[6,-4],[22,-21],[8,-6],[7,-3],[16,-4],[12,-6],[7,-2],[5,1],[2,4],[0,10],[2,3],[2,-2],[15,-18],[0,-3],[-3,-1],[-1,-2],[2,-9],[9,-11],[4,-9],[2,-11],[1,-7],[3,-4],[19,-8],[7,-6],[6,-9],[1,-12],[-3,-7],[-5,-9],[-1,-6],[6,4],[3,0],[1,-4],[1,-6],[1,-4],[8,-6]],[[1744,338],[36,23],[6,10],[33,23]],[[4096,1158]],[[4096,1162],[0,-1]],[[4096,446],[-41,20],[-48,12],[-17,-1],[-22,8],[-35,0],[-17,3],[-55,25]],[[4096,1184],[-4,-9],[4,-13]],[[4096,1280],[-10,0],[-16,-6]],[[4037,89],[25,-7],[22,-3],[12,-3]],[[4070,1274],[-24,-2],[-22,-6]],[[4013,2453],[4,11],[-4,21]],[[4013,2485],[4,-21],[-4,-10]],[[4013,2485],[0,1]],[[4013,2486],[0,-1]],[[4000,2517],[-2,15],[-6,10]],[[4013,2486],[-9,15],[-4,16]],[[3990,2545],[8,-14],[3,-13]],[[4001,2518],[4,-22],[8,-10]],[[3980,2367],[12,8],[13,21],[1,8]],[[4006,2404],[2,27],[5,22]],[[4006,2404],[-4,-15],[-10,-14],[-13,-8]],[[4013,2454],[-5,-23],[1,-13],[-3,-14]],[[3951,110],[36,-7],[36,-3],[11,-9]],[[3938,42],[2,38],[10,29]],[[3938,0],[0,23]],[[4024,1266],[-34,6],[-24,-8],[-28,10],[-22,1],[-25,-5]],[[3881,1274],[-11,4],[-36,8],[-16,-3],[-15,-8]],[[3803,1275],[-19,-11],[-9,-14],[-33,-6]],[[3891,1270],[-10,4]],[[3859,513],[-25,10],[-10,13],[-12,5],[-15,16],[-16,10],[-20,20],[-4,11],[-17,21],[-20,9]],[[3755,1954],[-18,-15],[-13,-24],[-10,-31]],[[3827,2017],[-3,-4],[-6,-20],[-6,-4],[-33,-7],[-14,-19]],[[3888,2290],[2,-11]],[[3765,1963],[-1,-1],[-9,-8]],[[3890,2279],[1,-2],[-5,-31],[-35,-44],[-9,-19],[1,-26],[-3,-34],[4,-52],[-11,-44],[-6,-10]],[[3714,1884],[-1,-17],[-11,-19],[-16,-46],[-12,-24],[-2,-6]],[[3672,1772],[-5,-19],[-8,-17],[-9,-39]],[[3650,1697],[-23,-15],[-17,-7]],[[3641,1258],[-11,9],[-19,7],[-16,-3],[-7,-8],[-21,-4]],[[3567,1259],[-5,-1]],[[3742,1244],[-27,4],[-36,7],[-19,-2],[-18,5],[-1,0]],[[3720,628],[-41,10],[-46,19],[-48,9],[-29,18]],[[3562,1258],[-16,-22],[-38,-16],[-18,-23],[-7,-2]],[[3557,1676],[-14,-2],[-6,0]],[[3412,1653],[-2,-1]],[[3469,1676],[-29,-11],[-9,-7],[-8,-3]],[[3423,1655],[-11,-2]],[[3537,1674],[-64,4],[-4,-2]],[[3610,1675],[-30,3],[-23,-2]],[[3410,1652],[-10,1]],[[3400,1653],[-4,1]],[[3540,692],[-35,-1],[-32,-19],[-24,4],[-22,-1],[-51,11],[-19,0]],[[3483,1195],[-32,-8],[-30,2],[-14,3],[-30,-2],[-27,3],[-31,-4]],[[3357,686],[-11,6],[-7,28],[-9,23],[-19,20],[-6,18]],[[3295,791],[-28,12]],[[3319,1189],[-16,13],[-48,5],[-11,-2]],[[3249,806],[-12,5],[-6,9]],[[3396,1654],[-16,-8],[-8,-10],[-15,-29],[0,-11],[-4,-10]],[[3353,1586],[-8,-25],[-37,-41],[-35,-5],[-20,-15],[-11,-24],[-14,-5],[-10,-11],[-19,-37]],[[3219,825],[-18,11],[-36,25],[-11,-1],[-23,7]],[[3244,1205],[-25,-27],[-28,-6],[-28,3],[-27,-3],[-35,-14],[-21,-3],[-34,2],[-35,-5]],[[3011,1152],[-26,-1]],[[3199,1423],[-12,-5],[-3,-10],[-16,-17],[-24,-10],[-12,-16],[-25,-13],[-34,-1],[-18,-8],[-24,-4],[-11,-5],[-24,-3],[-24,-19],[-11,-5]],[[3131,867],[-21,-11],[-59,11],[-7,13],[-15,14],[-26,6],[-24,15],[-15,18],[-10,21]],[[2954,954],[-6,1],[-13,39]],[[2886,1097],[26,27],[20,14],[21,9],[33,4]],[[2985,1151],[-31,-3],[-19,-9],[-20,-13],[-29,-28]],[[2935,994],[-4,9],[-16,13],[-39,19]],[[2876,1035],[0,1]],[[2854,1070],[0,-8]],[[2854,1062],[0,-2]],[[2854,1073],[0,-3]],[[2854,1060],[-2,-4]],[[2852,1056],[-2,-2]],[[2850,1054],[-1,-1]],[[2860,1052],[-11,1]],[[2876,1036],[-15,16],[-1,0]],[[2870,1085],[-21,-17]],[[2886,1098],[-16,-13]],[[2849,1068],[22,17]],[[2871,1085],[15,12]],[[2849,1068],[-1,-1]],[[2848,1066],[1,2]],[[2846,1087],[8,-14]],[[2845,1089],[7,5]],[[2852,1094],[9,7],[3,66],[-2,22],[17,15],[21,53],[19,13],[9,13],[13,6],[20,18]],[[2844,1089],[2,-2]],[[2825,1093],[19,-4]],[[2849,1053],[-7,-22],[-20,-12]],[[2820,1022],[2,-4]],[[2820,1018],[0,3]],[[2821,1017],[0,-11]],[[2821,1006],[-1,-20],[10,-16],[-6,-25],[-14,-7]],[[2801,1015],[14,0],[20,8]],[[2836,1024],[9,19]],[[2835,1023],[1,0],[0,1]],[[2744,1070],[7,11],[37,11]],[[2749,1028],[-7,36]],[[2779,1016],[-10,0]],[[2769,1016],[-12,1],[-7,9],[-1,2]],[[2729,998],[28,19]],[[2655,945],[16,21],[20,4],[11,8],[12,16],[14,4]],[[2655,945],[-8,-31],[2,-6],[-10,-41],[6,-18],[-21,-46],[-13,-24],[9,-17]],[[2620,762],[-30,-32],[-10,-21],[-14,-11],[-11,-2],[-7,-9]],[[2548,687],[-8,-31],[-9,-3],[-26,-22],[-12,-4],[-24,-19],[-14,6]],[[2455,614],[-17,-8],[-49,-5],[-29,-8],[-23,-22],[-20,-1],[-49,-9],[-31,-24]],[[2237,537],[-56,-21],[-17,-11],[-27,-9],[-18,-9],[-30,-2],[-34,16],[-30,-1]],[[2025,500],[-3,5],[-24,7],[-24,-7]],[[1974,505],[-11,-5],[-2,-10],[-39,-12],[-3,-14]],[[1919,464],[-21,1],[-8,-8],[-2,-23],[-12,-16],[-18,-10]],[[1858,408],[-28,-13],[-11,-1],[-8,-8]],[[1672,240],[-27,-19],[-5,-9]],[[1640,211],[-1,-1]],[[1639,210],[-9,-21],[-11,-5]],[[1619,184],[-1,0]],[[1618,184],[-21,-3],[-12,-7],[-27,-21],[-1,-6],[-17,1],[-17,-10],[-30,-28],[-37,-27],[-42,-43],[-6,-13],[-12,-11],[-9,-16]],[[2952,1717],[-16,-11]],[[2809,1124],[0,1]],[[3011,2014],[5,-13],[-1,-18],[-8,-21],[12,-14],[4,-41],[-10,-23],[-29,-37],[7,-9],[8,-20],[-5,-18],[-9,-15],[-13,-10],[3,-33],[-23,-24]],[[2982,2122],[-9,-17],[3,-19],[14,-8],[-4,-27],[25,-37]],[[2935,2233],[4,-15],[10,-17],[0,-18],[16,-15],[15,-26],[2,-20]],[[2927,2272],[8,-39]],[[2936,1705],[-26,-23]],[[3072,2882],[-14,-18],[-21,-6],[-34,-22],[-37,-14],[-13,-8],[-8,-17],[-15,-16],[-37,-28],[-7,-11],[-15,-6]],[[2910,1682],[-8,-29],[2,-7],[-16,-12],[-17,-37],[-17,-22],[-3,-23],[-7,-15],[-12,-7],[-3,-11]],[[2835,1423],[2,23],[13,11],[-4,15],[-11,11],[-10,19],[4,17]],[[2826,1380],[17,28],[-6,10]],[[2810,1333],[5,7],[9,37],[2,3]],[[2837,1418],[-2,5]],[[2807,1171],[-5,19],[4,19],[1,30],[5,22],[-8,35],[5,10],[1,27]],[[2792,2428],[1,-21],[10,-8],[50,-75],[11,-7],[25,-27],[32,-13],[6,-5]],[[2772,2513],[13,-12],[-6,-7],[11,-14],[-2,-8],[16,-27],[-12,-17]],[[2769,2563],[0,-18],[7,-23],[-4,-9]],[[2871,2736],[-4,-12],[-11,-8],[-8,-25],[-10,-19],[-3,-17],[-7,-11],[-11,-5],[-27,-3],[-18,-21],[-7,-21],[-2,-18],[6,-13]],[[2808,1129],[6,14],[-7,28]],[[3844,4054]],[[3844,4054],[20,2],[15,4],[15,9],[16,17],[20,8],[14,2]],[[3778,4039],[17,10],[9,2],[31,3],[9,0]],[[2685,4017],[-8,13],[-12,13],[-7,22],[-6,6],[-15,8],[-16,17]],[[3778,4039],[5,-11],[1,-13]],[[2252,4006],[8,5],[2,1]],[[2262,4012],[10,7],[22,11],[17,13],[31,17],[6,2],[24,5],[23,4],[33,8],[15,3],[17,10],[4,4]],[[2234,4000],[11,2],[7,4]],[[2224,4001],[3,-1],[7,0]],[[2147,4051],[8,-8],[27,-13],[13,-9],[23,-17],[6,-3]],[[2694,3978],[-3,26],[-6,13]],[[3083,3953],[3,0],[18,-5]],[[3059,3948],[13,5],[11,0]],[[3104,3948],[1,-4]],[[2694,3978],[7,-6],[18,-15],[14,-8],[27,-11],[15,-5],[21,-2],[18,0],[6,2],[16,0],[9,2],[29,5],[8,0],[16,0],[33,-9],[17,-2],[19,0],[24,4],[9,3],[11,0],[27,6],[21,6]],[[3370,3914],[27,4],[5,1]],[[3583,3981],[22,0],[15,2],[4,1]],[[3725,4010],[6,3],[14,9],[15,10],[18,7]],[[3402,3919],[38,8],[24,6],[11,3],[19,12],[9,3],[17,10],[16,11],[9,4],[11,3],[19,2],[8,0]],[[3624,3984],[40,7],[28,5],[23,8],[10,6]],[[3104,3948],[13,-6],[42,-15],[20,-7],[18,-6]],[[3316,3910],[30,2],[5,0]],[[3356,3913],[14,1]],[[3197,3914],[9,0],[56,-5]],[[3262,3909],[11,-1],[24,0],[19,2]],[[3351,3912],[5,1]],[[2227,3987],[1,2],[6,11]],[[2129,3903],[12,22],[12,19],[6,5],[12,10],[8,2],[24,13],[18,9],[6,4]],[[3105,3944],[9,-9],[8,-12],[17,-21]],[[3139,3902],[7,-9],[12,-9],[25,-17]],[[2102,3835],[2,8],[3,13],[9,24],[13,23]],[[3200,3822],[-2,11],[-12,21],[-3,13]],[[3784,4015],[0,-6],[3,-13],[4,-10]],[[3791,3986],[4,-8],[7,-23],[6,-22],[2,-13],[4,-23],[5,-11],[10,-28],[9,-21],[3,-15]],[[3874,3818],[-33,4]],[[2116,3760],[1,10],[0,5],[-6,14],[-1,7],[-8,6],[3,11],[0,11],[-3,11]],[[4078,3637],[-4,4],[-24,43],[-20,41],[-9,24],[-6,23],[-3,3],[-9,2],[-19,-3],[-14,-4],[-18,-2],[-21,7],[-7,6],[-12,13],[-14,11],[-16,10],[-8,3]],[[3169,3582],[-1,-3]],[[3171,3575],[5,-5],[0,-1]],[[3168,3579],[3,-4]],[[3200,3822],[-5,-9],[-13,-17],[-5,-7],[-3,-10],[-1,-17],[1,-11],[8,-9],[7,-6],[8,-9],[3,-13],[-3,-19],[-2,-9],[-7,-6],[-3,-11],[3,-6],[13,-11],[8,-15],[-3,-11],[-24,-11],[-11,-12],[-2,-21]],[[3176,3569],[-2,-5]],[[3174,3564],[-3,-6]],[[3174,3564],[-18,4],[-15,2],[-22,9],[-24,2],[-14,-4],[-9,2],[-19,-6],[-9,4],[-14,9],[-13,8],[-18,9],[-9,2],[-14,-5],[-9,-8],[-10,-13],[-5,-4],[-13,-7],[-9,-10],[-5,-9],[-9,-4],[-10,-13],[-9,-2],[-20,-9],[-18,-4],[-9,-9],[-11,-2],[-13,4],[-15,7],[-14,10],[-4,0]],[[2025,3530],[4,-20],[4,-10]],[[2116,3760],[-9,-9],[-12,-9],[-17,-21],[-12,-9],[-9,-10],[-10,-11],[-18,-24],[-3,-6],[-2,-15],[-6,-20],[-4,-19],[0,-15],[7,-28],[0,-9],[4,-25]],[[2793,3527],[-9,-6],[-6,-9],[0,-14],[-6,-7],[-11,-9],[-10,-6]],[[3171,3558],[-6,-11],[-10,-5],[-9,-17],[-9,-8],[-11,-13],[-19,-26],[-6,-9],[-3,-14]],[[4072,3631],[9,-20],[8,-10],[-2,-13],[2,-5],[7,-7]],[[2033,3500],[7,-10]],[[2040,3490],[5,-8],[8,-17],[3,-28],[1,-8],[-3,-13],[-3,-13]],[[2751,3476],[-29,-13],[-27,-19],[-7,-15],[-9,-7],[-23,-10],[-18,-5],[-19,-11],[-9,-4],[-45,-11],[-8,-4],[-12,-8]],[[2104,3364],[-5,5],[-34,28],[-14,6]],[[3098,3455],[-3,-22],[-6,-15],[-2,-15],[3,-17],[8,-13],[7,-9],[9,-19]],[[2051,3403],[-21,-47],[-3,-15],[-3,-7]],[[2414,3308],[-4,-2]],[[3114,3345],[5,-11],[0,-8],[-3,-5],[-12,-13],[-3,-8]],[[2545,3369],[-7,-5],[-18,-25],[-14,-15],[-13,-11],[-11,-7],[-7,-10]],[[2475,3296],[-5,6],[-22,7],[-17,2],[-17,-3]],[[2410,3306],[-18,-4],[-9,-2],[-21,0],[-20,2],[-28,6],[-14,0],[-13,-2],[-26,2],[-39,-2],[-15,0],[-10,-2],[-20,-9],[-9,0],[-18,11],[-9,9],[-4,9],[-6,17],[-5,10],[-10,9],[-12,4]],[[3792,3266],[9,6]],[[3101,3300],[1,-11],[6,-8],[0,-7],[-6,-11]],[[3757,3244],[3,0],[32,22]],[[3464,3227],[21,6],[6,0]],[[3921,3225],[33,13],[24,4],[18,2],[9,4],[4,0],[9,-6]],[[3801,3272],[9,4],[4,0],[18,-13],[17,-10],[18,-7],[22,-9],[29,-8],[3,-4]],[[3682,3225],[7,4],[29,11],[7,0],[21,0],[11,4]],[[4012,3188],[9,13],[2,9],[-5,4],[-1,9],[3,14],[-2,5]],[[3616,3173],[6,4],[4,5],[5,4],[13,-4],[9,2],[11,13],[3,13],[7,10],[8,5]],[[3552,3231],[4,-4],[16,-13],[1,-1]],[[3491,3233],[14,-4],[7,2],[14,9],[9,2],[12,-5],[5,-6]],[[3573,3213],[25,-40],[3,-2]],[[3601,3171],[4,0],[11,2]],[[1929,3164],[3,7],[6,13],[12,15],[8,4],[26,28],[15,26],[3,8],[7,35],[2,2],[13,32]],[[1871,3214],[1,-4],[29,-22],[11,-9]],[[1912,3179],[14,-10],[3,-5]],[[4071,3160],[-3,2],[-9,0],[-7,4]],[[4052,3166],[-7,3],[-13,0],[-14,10],[-6,9]],[[4084,3160],[-9,-2],[-4,2]],[[4090,3163],[-6,-3]],[[4096,3166],[-1,-1],[-5,-2]],[[3411,3204],[5,3],[5,-6],[6,2],[6,11],[6,5]],[[3364,3111],[0,13],[3,13],[6,12],[21,33],[9,13],[6,8],[2,1]],[[3439,3219],[3,3],[7,3],[15,2]],[[1887,3085],[5,2],[12,13],[10,15],[8,15],[4,13],[5,15],[-2,6]],[[1854,3006],[12,34],[6,19],[11,13],[4,13]],[[1839,2965],[5,15],[9,24],[1,2]],[[1854,3006]],[[3102,3263],[-3,-10],[-1,-11],[3,-11],[6,-15],[-2,-11],[-9,-13],[-7,-10],[-11,-20],[-1,-17],[-3,-11],[4,-10],[-1,-11],[-5,-22],[-3,-6],[-6,-9],[-3,-8],[-3,-47],[0,-37],[2,-17],[6,-17],[16,-17]],[[3090,2907],[21,10],[14,9],[18,13],[10,9],[24,15],[20,6],[13,2],[20,-4],[12,0],[10,0],[35,8],[4,3],[-4,8],[0,5],[3,6],[12,11],[3,8],[1,17],[-1,20],[0,9],[4,14],[0,7],[5,15],[9,9],[12,6],[12,2],[17,-4]],[[3081,2933],[5,-11],[4,-15]],[[3090,2907],[3,-20],[5,-4],[6,-4],[1,-4]],[[267,2847],[-22,8],[-33,17],[-39,22],[-6,4],[-12,4],[-13,9],[-10,11],[-18,11],[-32,15],[-31,23],[-9,9],[-6,24],[-18,21],[-18,10]],[[1839,2933],[0,10],[0,22]],[[1781,2791],[10,11],[11,19],[12,15],[0,8],[4,9],[11,15],[9,56],[1,9]],[[1996,2797],[-18,7],[-40,6],[-6,0],[-9,-4],[-13,-15],[-5,-2],[-13,-2],[-36,4]],[[1856,2791],[-20,4],[-9,-4],[-7,-13],[-5,-2],[-16,2],[-8,4],[-10,9]],[[1812,2739],[23,20],[1,2],[20,30]],[[3105,2875],[5,-28],[0,-9],[1,-21],[8,-28],[6,-11],[0,-4],[6,-13],[1,-11],[6,-6],[-4,-7]],[[2939,2759],[6,8],[7,0],[8,-6],[19,2],[11,9],[10,-1],[14,-6],[28,-6],[12,-3],[11,-2],[16,2],[11,0],[15,-10],[12,-13],[15,4]],[[482,2724],[-2,7],[-19,11],[-21,14],[-24,13],[-21,13],[-20,9],[-33,19],[-16,13],[-21,15],[-9,4],[-29,5]],[[1778,2718],[16,10],[18,11]],[[504,2714],[-22,10]],[[1757,2709],[-15,-8],[-5,0],[-4,10],[-2,5],[6,6],[8,7]],[[1745,2729],[10,8],[5,7],[-8,10],[3,3],[8,14],[4,7],[9,9],[5,4]],[[1778,2718],[-6,-2],[-15,-7]],[[1782,2683],[-4,35]],[[2237,2645],[-7,6],[-11,4],[-21,9],[-12,6],[-13,9],[-20,19],[-22,26],[-5,9],[-7,11],[-32,32],[-27,21],[-10,3],[-17,4],[-9,0],[-9,-2],[-9,-5],[-10,0]],[[3134,2737],[13,-8],[12,-3],[14,2],[13,-2],[12,-13],[6,-14],[8,-15],[3,-1],[16,-12],[12,-20],[11,-13]],[[34,2583],[0,4],[-10,17],[-12,15],[-12,10]],[[1764,2583],[2,4],[6,36],[4,26],[5,11],[3,17],[-2,6]],[[2754,2567],[3,3],[7,8],[8,4],[13,1],[24,2],[12,-3],[11,-8],[13,-2],[9,0],[5,2],[15,11],[3,6],[2,11],[6,30],[9,13],[12,15],[4,8],[14,22],[6,8],[6,13],[1,11],[-1,22],[3,15]],[[4095,2681],[1,-7]],[[4096,2669],[-3,-16],[-4,-13],[-8,-10],[-10,-28],[-11,-17],[-4,-3],[-24,-19]],[[1764,2583],[-9,-13],[-10,-9],[-5,-2]],[[1740,2559],[-13,2],[-23,4]],[[504,2714],[-4,-11],[0,-15],[1,-15],[8,-17],[9,-16],[10,-14],[12,-13],[18,-18],[14,-17],[6,-13],[6,-13]],[[2237,2645],[21,-24],[21,-17],[0,-4],[-4,-5],[1,-6],[17,-9],[4,-10],[5,-15],[4,-11],[3,-4]],[[2655,2544],[16,-5],[12,-2],[8,2],[13,7],[12,0],[15,-6],[11,2],[7,10],[5,15]],[[2309,2540],[9,-9],[12,-7]],[[2655,2544],[-5,4],[-9,2],[-9,0],[-10,-4],[-9,-4],[-23,-20]],[[3285,2520],[0,11],[-10,17],[1,15],[-3,7],[-10,10],[0,26],[-5,17],[-4,15]],[[3275,2518],[10,2]],[[3574,2518],[21,11]],[[3993,2553],[-26,-7],[-18,-9],[-9,-8],[-10,-11],[-2,-6]],[[2330,2524],[32,-2],[18,-2],[15,0],[13,2],[11,-2],[12,-6],[9,-4]],[[2440,2510],[14,-1],[19,7],[8,-2],[12,-5],[9,-2],[31,2],[6,0],[9,1],[24,10],[18,2]],[[66,2501],[3,21],[-9,22],[-11,15],[-6,15],[-4,8],[-5,1]],[[1704,2565],[-10,-10],[-6,-7],[-6,-15],[-6,-6],[-17,-13],[-13,-9],[-20,-8],[-12,-2]],[[1455,2503],[18,4],[16,0],[26,0],[9,-4],[35,-2],[22,-2],[33,-4]],[[3492,2488],[2,0],[14,-2],[12,6],[4,1]],[[3568,2517],[6,1]],[[3285,2520],[6,0],[11,5],[35,8],[6,0],[4,-8],[3,-1],[21,5],[9,-2],[11,6],[15,-4],[6,2],[9,-4],[4,-3],[11,-19],[16,0],[3,-8],[14,-11],[4,0],[19,2]],[[3524,2493],[5,1],[13,7],[14,13],[12,3]],[[3928,2512],[-9,-26]],[[3595,2529],[16,6],[15,0],[14,-2],[4,-5]],[[3644,2528],[5,-6],[19,-12],[23,-9],[34,-20],[8,-4]],[[4093,2473],[-12,-2],[-12,-4]],[[4096,2474],[-3,-1]],[[1449,2466],[4,13],[2,24]],[[584,2552],[1,-8],[6,-24],[6,-19],[0,-11],[-3,-4],[3,-7],[8,-8],[0,-7]],[[3733,2477],[1,-13],[3,-10]],[[4069,2467],[-33,-11],[-10,-5],[-1,0]],[[4025,2451],[-13,0]],[[3846,2428],[4,6],[6,5],[12,5]],[[3909,2469],[6,6],[4,11]],[[3868,2444],[3,1],[29,15],[9,9]],[[3835,2413],[8,9],[3,6]],[[1444,2411],[0,6],[-3,9],[-1,6],[4,22],[5,12]],[[3789,2413],[4,-2],[14,-3],[12,1],[16,4]],[[3737,2454],[18,-5],[9,-6],[16,-24],[3,-2],[6,-4]],[[78,2406],[-8,3],[-7,10],[-3,11],[0,19],[3,30],[-2,7],[5,15]],[[3984,2368],[-18,-2],[-15,-15],[-36,-31],[-9,-8],[-14,-6],[-12,6],[8,-19]],[[605,2464],[-2,-15],[2,-13],[0,-10],[-5,-7],[-10,-10],[-6,-7],[-5,-13],[0,-13],[2,-8],[4,-5],[5,-4],[12,-4],[9,-4],[14,-16],[21,-12],[13,-13],[5,-9]],[[1459,2271],[0,15],[-1,7],[1,10],[6,11],[2,7],[-5,8],[-1,6],[4,29],[-4,21],[-3,6],[-8,11],[0,6],[-6,3]],[[664,2301],[9,-11],[12,-25],[0,-24]],[[712,2200],[-2,9],[-19,13],[-6,10],[0,9]],[[1273,2175],[-1,6],[-12,13],[-9,11],[-3,8],[-6,13],[0,9],[1,6],[8,4],[31,5],[12,6],[8,6],[4,15],[8,7],[7,17],[2,5],[4,6],[5,2],[10,0],[17,-6],[19,-7],[2,-2],[24,-15],[16,-11],[15,-4],[9,-2],[14,0],[1,4]],[[106,2131],[-16,3],[-9,4],[-23,8],[-21,0],[-24,-4],[-7,-4]],[[3003,2114],[18,20],[8,6],[18,7],[16,10],[0,2]],[[185,2112],[1,7],[-1,13],[1,17]],[[186,2149],[0,4],[9,4],[3,5],[2,25],[-2,15],[-7,18],[-8,17],[-15,19],[0,6],[-4,3],[-8,8],[-20,19],[-10,9],[-12,7],[0,6],[7,6],[3,9],[-6,13],[-7,28],[-6,13],[-8,10],[-19,13]],[[185,2112],[-11,7],[-12,6],[-14,5]],[[148,2130],[-3,1],[-39,0]],[[3000,2108],[3,6]],[[1271,2156],[2,18]],[[1252,2082],[14,0],[7,7],[5,10],[4,13],[2,15],[-2,7],[-12,12],[0,7],[1,3]],[[1273,2174],[0,1]],[[217,2083],[-17,18],[-15,11]],[[221,2080],[-4,3]],[[1077,2078],[7,0]],[[1084,2078],[11,0],[6,6],[12,19],[9,5],[19,15],[9,8],[23,7],[13,8],[9,0],[8,-6],[13,-13],[9,-10],[8,-1],[13,-10],[3,-5],[3,-8],[0,-11]],[[2987,2058],[4,9],[3,13],[0,11],[6,17]],[[296,2052],[-8,2],[-19,9],[-9,2],[-12,6],[-15,2],[-12,7]],[[790,2050],[-6,15],[-8,6],[-4,5],[-9,19],[-20,34],[-10,15],[-9,15],[-9,20],[-3,21]],[[0,2123],[4,9],[2,6]],[[566,1992],[-6,2]],[[560,1994],[-12,4],[-8,5],[-9,12],[-10,5],[-3,4],[-39,9],[-12,15],[-8,2],[-10,-4],[-6,2],[-5,4],[-10,4],[-8,11],[-9,0],[-21,-4],[-6,-2],[-12,-13],[-7,0],[-8,8],[-10,-2],[-5,5],[-13,-7],[-33,0]],[[1051,2072],[0,4],[4,4],[22,-2]],[[991,1992],[-3,13],[0,6],[4,15],[3,5],[15,15],[8,2],[12,0],[6,2],[10,8],[5,5],[0,9]],[[599,1986],[-5,2],[-28,4]],[[790,2050],[-2,-19],[3,-18],[9,-30],[5,-15],[-3,-8],[-3,-5],[0,-8],[9,-13],[3,-7],[0,-6]],[[811,1921],[-8,-2],[-15,-13],[-12,-11],[-6,0]],[[602,1985],[-3,1]],[[770,1895],[-6,11],[-12,9],[-7,2],[-15,2],[-12,-2],[-14,6],[-13,13],[-12,7],[-14,4],[-7,8],[-5,9],[-7,8],[-6,0],[-17,-4],[-7,5],[-8,8],[-6,4]],[[819,1916],[1,-1],[6,-3],[12,-17],[4,-2],[6,2]],[[811,1921],[8,-5]],[[848,1895],[5,-10]],[[3466,1955],[-8,-2],[-4,-6],[-5,-9],[-9,-39],[-4,-14],[-5,0]],[[928,1861],[7,6],[0,9],[-2,21]],[[933,1897],[-2,28],[-6,13],[4,11],[-4,4],[10,5],[12,17],[9,-2],[14,-9],[13,13],[9,4],[0,9],[-1,2]],[[853,1885],[7,2],[18,-7],[9,-10],[8,-5],[13,0],[20,-4]],[[2987,1854],[-12,-4]],[[928,1861],[7,-4],[35,-7],[4,-4],[2,0]],[[976,1846],[4,-2],[23,-13]],[[2948,1827],[4,2],[9,6],[12,11],[2,4]],[[1003,1831],[15,-19],[9,-13],[9,-18],[10,-4]],[[3839,1723],[-1,0],[-18,-10]],[[3919,1715],[-22,2],[-14,4],[-18,2],[-13,-2],[-13,2]],[[1046,1777],[31,20],[12,0],[3,-3],[1,-8],[17,-26],[12,-17],[16,-13],[24,-11],[6,-6],[20,-2],[7,-7]],[[3982,1702],[-21,6],[-7,3],[-15,4],[-20,0]],[[3996,1698],[-14,4]],[[2661,1680],[0,5]],[[930,1830],[-2,14],[-3,10],[3,7]],[[934,1644],[1,8],[-1,13],[-8,11],[-16,13],[-21,11],[-5,8],[0,7],[5,6],[12,7],[6,10],[3,5],[3,21],[7,11],[8,9],[1,8],[3,22],[-2,16]],[[701,1640],[12,10],[8,3]],[[1195,1704],[0,-2],[9,-17],[20,-41],[1,-6]],[[1225,1638],[12,-16],[0,-2]],[[956,1616],[-3,2],[-19,26]],[[662,1601],[8,6],[3,5],[21,17],[7,11]],[[2044,1599],[-14,8],[-13,1],[-30,15]],[[4049,1616],[2,-3]],[[3996,1698],[0,-9],[7,-8],[14,0],[3,-5],[6,-17],[13,-9],[3,-6],[6,-26],[1,-2]],[[4051,1613],[6,-14],[5,-4]],[[4074,1598],[7,1],[15,-4]],[[4062,1595],[12,3]],[[2056,1592],[-12,7]],[[721,1653],[4,-3],[3,-19],[5,-30],[3,-4],[9,-3],[18,-2],[9,-2]],[[772,1590],[12,-4],[15,-2],[15,0],[6,4],[39,13],[22,6],[9,3],[9,8],[8,11],[7,8],[18,7],[2,0]],[[959,1552],[6,23],[0,22],[-9,19]],[[1237,1620],[3,0],[14,-10],[9,-7],[9,-4],[13,-4],[27,-1],[8,1],[4,10],[11,7],[6,4],[7,-2],[14,-9],[12,-13],[1,-10],[-6,-20],[6,-10]],[[2225,1534],[-31,7],[-63,26],[-56,19],[-4,2],[-15,4]],[[2245,1517],[-20,17]],[[2353,1502],[-15,5],[-20,12],[-7,0],[-9,-8],[-9,-2],[-12,6],[-11,0],[-7,-2],[-12,2],[-6,2]],[[2378,1485],[-6,6],[-18,9],[-1,2]],[[576,1483],[0,11],[-9,27],[-1,11],[3,7],[13,11],[20,10],[6,2],[15,11],[17,13],[13,6],[9,9]],[[1001,1433],[0,5],[-3,10],[-9,15],[-16,22],[-9,9],[-9,13],[-3,8],[0,11],[7,26]],[[2455,1414],[-1,4],[-26,28],[-17,18],[-12,10],[-21,11]],[[2466,1414],[-11,0]],[[2493,1395],[-11,10],[-4,7],[-12,2]],[[614,1382],[2,32],[-2,4],[-24,13],[-5,9],[-3,19],[-3,22],[-3,2]],[[2484,1352],[4,24],[3,2],[3,17],[-1,0]],[[614,1382],[0,-11],[2,-21],[0,-7]],[[1619,1322],[-5,4],[2,19],[-2,7],[-7,6],[-15,0],[-6,2],[-6,3],[-6,6],[-20,9],[-12,2],[-9,6],[-7,7],[-8,10],[-3,7],[-6,26],[-6,10],[-9,0],[-8,2],[-9,15],[-15,1],[-9,6],[-10,9],[-11,6],[-15,-4],[-12,0],[-12,8],[-7,13],[-11,9],[-7,15],[-2,8],[3,11],[6,7]],[[1111,1320],[26,12]],[[584,1309],[4,4],[8,13],[11,4],[6,5],[3,8]],[[534,1303],[29,8],[21,-2]],[[1107,1296],[1,19],[3,5]],[[1655,1277],[-11,-2],[-9,2],[-6,15],[-6,23],[-4,7]],[[1321,1259],[15,-2],[17,2],[16,3],[11,12]],[[452,1206],[1,4],[0,13],[2,19],[4,9],[11,8],[1,9],[17,6],[6,3],[18,8],[13,7],[9,11]],[[1635,1195],[8,9],[7,15],[5,15],[1,32],[-1,11]],[[1037,1186],[8,13],[6,15],[7,15],[0,11],[4,9],[9,11],[7,14],[6,3],[18,6],[5,4],[0,9]],[[2769,1176],[1,-2],[12,-2],[35,6],[12,2],[22,-2],[2,2]],[[2550,1171],[0,9],[-8,22],[-15,25],[-9,9],[-18,6],[-10,15],[-6,18],[-3,10],[-2,20],[6,43],[-1,4]],[[1045,1156],[0,9],[-3,13],[-5,8]],[[2610,1148],[-6,2],[-3,4],[-18,9],[-26,4],[-7,4]],[[2613,1148],[-3,0]],[[2617,1146],[-4,2]],[[1027,1126],[12,15],[3,7],[3,8]],[[1644,1114],[-4,15],[-3,8],[-12,28],[-2,15],[3,6],[9,9]],[[2713,1101],[2,8],[4,3]],[[2719,1112],[3,2],[14,6],[6,8],[4,24],[8,13],[7,7],[8,4]],[[2713,1101],[-5,2]],[[2708,1103],[-1,0],[-30,13],[-15,12],[-16,7],[-27,9],[-2,2]],[[2155,1098],[0,16],[-4,11]],[[2151,1125],[-1,4],[-4,12],[-12,16],[-5,12],[-4,3]],[[2710,1086],[3,15]],[[2150,1088],[48,-5],[6,-2]],[[2204,1081],[12,-4]],[[1673,1064],[0,4],[-12,18],[-3,8],[-14,20]],[[2749,1062],[-13,0],[-26,4],[-3,7],[3,13]],[[2216,1077],[39,-6],[17,-3],[15,-8],[21,0],[13,-2]],[[2321,1058],[6,0],[18,2],[14,-5],[10,-8],[5,-2]],[[2728,1041],[8,6],[13,15]],[[2694,1025],[13,5],[17,8],[4,3]],[[2374,1045],[33,-11],[12,-2],[8,0],[7,-2],[20,-7],[25,-4],[50,-7],[10,-6]],[[2539,1006],[3,-4]],[[2542,1002],[24,-2],[14,4],[31,2],[23,4],[45,15],[15,0]],[[1102,998],[-3,12],[-4,13],[-14,13],[-15,19],[-6,1],[-17,6],[-4,8],[-2,24],[-1,7],[-9,25]],[[2144,1075],[5,8],[1,5]],[[2012,993],[11,9],[9,6],[24,9],[12,8],[16,11],[12,7],[26,12],[18,13],[4,7]],[[504,991],[-6,4],[-9,7],[-13,13],[-33,10],[-6,2],[-8,3],[-16,8],[-17,13],[-6,11],[-3,9],[2,8],[-3,6],[-2,13],[6,43],[12,11],[15,7],[8,8],[18,24],[9,15]],[[537,972],[-9,4],[-6,6],[-4,5],[-14,4]],[[537,972],[9,-2]],[[1170,933],[-11,11],[-10,-4],[-21,4],[-12,8],[-9,11],[-9,4],[-6,5],[-2,10],[11,13],[1,3]],[[1970,912],[11,21],[15,19],[4,9],[8,22],[4,10]],[[1197,892],[-5,15],[-18,22],[-4,4]],[[1925,890],[22,7],[12,8],[11,7]],[[1673,886],[-8,17],[-12,36],[-12,26],[-4,15],[1,2],[3,18],[-7,10],[0,7],[12,8],[7,3],[9,10],[5,15],[4,3],[2,8]],[[1722,858],[-3,17],[-9,11],[-9,2],[-15,-4],[-13,2]],[[1760,838],[3,1],[7,12],[2,11],[10,11],[9,0],[5,-4],[10,0],[9,4],[5,15],[4,6],[9,3],[26,-5],[4,4],[0,7],[6,6],[17,-8],[6,2],[9,-11],[7,4],[12,-6],[5,0]],[[1722,858],[2,-7],[3,0],[6,5],[12,-7],[15,-11]],[[1191,794],[-2,2],[5,8],[3,9],[3,15],[1,19],[-1,26],[-3,19]],[[2014,789],[-11,15],[-10,5],[-20,4],[-6,4],[-12,15],[-17,13],[-6,11],[-3,13],[-4,21]],[[1210,763],[-1,5],[-8,11],[-6,6],[-4,9]],[[622,740],[6,36],[3,15],[0,2],[0,30],[-6,28],[-8,13],[-9,20],[-9,13],[-8,10],[-25,17],[-9,5],[-14,15],[2,10],[3,5],[-2,11]],[[1293,682],[-17,19],[-3,4],[-10,13],[-12,5],[-8,10],[-7,13],[-12,4],[-9,5],[-5,8]],[[1500,686],[-20,-4],[-16,-4],[-23,-1],[-9,3],[-15,8],[-25,22],[-3,0],[-11,-2]],[[1535,665],[-11,19],[-10,4],[-14,-2]],[[1378,708],[-13,-9],[-6,-2],[-14,-11],[-9,-15],[-1,-8]],[[1335,663],[-20,8],[-22,11]],[[1587,628],[-13,6],[0,9],[-3,4],[-14,7],[-18,4],[-4,7]],[[2014,789],[7,-6],[21,-5],[11,-8],[16,-22],[8,-15],[6,-19],[6,-26],[4,-17],[-4,-37],[-5,-10],[-9,-13],[-7,-7],[4,-17],[11,-2],[1,-6],[-6,-28]],[[1949,547],[29,2]],[[1949,547],[-2,4],[-34,8],[-5,3],[-13,2],[-8,8],[-6,13],[-3,4],[-22,9],[-17,2],[-24,4],[-18,13],[-7,7],[0,6],[-5,4],[-18,5],[-9,2],[-12,-9],[-7,-2],[-11,-2],[-18,4],[-19,11],[-9,0],[-14,-11],[-6,-8],[-6,0],[-6,10],[-4,0],[-18,-2],[-14,2],[-16,7],[-8,0],[0,-9],[-3,-4]],[[2078,551],[-3,0],[-37,-5],[-35,0],[-25,3]],[[503,523],[1,8],[-3,7],[-9,11],[-12,23],[-9,22],[-12,41],[-1,8],[3,5],[30,14],[15,3],[9,8],[15,24],[9,11],[9,4],[27,4],[21,15],[12,7],[12,0],[2,2]],[[2078,551],[12,-19],[9,-9],[9,-5],[5,-8]],[[1838,499],[6,5],[7,6],[17,8],[9,13],[6,3],[10,-2],[8,-3],[9,2],[21,11],[16,4],[2,1]],[[2105,484],[0,9],[3,11],[5,6]],[[2395,465],[12,8],[21,9],[18,6],[21,-2],[15,2],[15,-2],[32,0],[15,0],[7,5]],[[2231,527],[6,-4],[11,-13],[10,-15],[12,-2],[14,-2],[3,-9],[-3,-19],[0,-4],[6,-3],[15,-2],[40,4],[26,3],[24,4]],[[4068,441],[-11,-4]],[[4057,437],[-24,-13],[-10,-9],[-6,-8],[-3,-2],[-9,-13]],[[3228,383],[18,4],[18,-2],[11,-2],[6,-6]],[[2737,360],[-10,4],[-11,8],[-18,11],[-34,28],[-12,11],[-5,4],[-16,11],[-26,8],[-6,1],[-18,12],[-10,9],[-9,17],[-11,7]],[[4005,392],[-3,-7],[-12,-19],[-9,-9],[-11,-6]],[[2835,345],[-8,-2],[-19,0],[-15,4],[-21,6],[-35,7]],[[1817,392],[7,11],[2,23],[0,20],[3,32],[9,21]],[[3970,351],[-4,-4],[-8,-13],[-7,-7],[-17,-6]],[[3463,325],[-8,0],[-8,-4]],[[3447,321],[-5,-2],[-8,2],[-33,15],[-12,2],[-10,-4],[-12,2],[-5,2],[-13,13],[-12,0],[-14,-8],[-9,2],[-11,12],[-6,9],[-6,6],[-10,5]],[[3484,297],[-5,9],[-3,11],[-7,8],[-6,0]],[[404,248],[3,8],[-3,31],[-5,23],[2,11],[4,9],[21,23],[24,17],[5,2],[22,11],[11,11],[9,19],[1,13],[11,15],[1,4],[-3,18],[-3,15],[2,15],[-3,11],[0,19]],[[3838,237],[5,7],[15,15],[19,17],[12,9],[18,14],[8,0],[6,9],[13,13]],[[1743,338],[-9,-4],[-6,-2],[-15,-5],[-15,-12],[-4,-1],[-3,-6],[0,-8],[-8,-22],[-3,-6],[5,-26],[-5,-11]],[[3501,291],[-4,0],[-9,2],[-4,4]],[[3679,222],[-5,5],[-12,2],[-12,0],[-9,4],[-7,4],[-6,5],[-11,6],[-21,4],[-12,-4],[-10,4],[-12,17],[-36,15],[-11,7],[-14,0]],[[3799,207],[8,0],[6,4],[9,7],[16,19]],[[3799,207],[-4,-2]],[[3795,205],[-12,-4],[-3,-3]],[[2838,338],[16,-8],[2,-5],[-2,-17],[0,-6],[22,-35],[4,-4],[12,-2],[9,0],[2,-4],[10,-22],[0,-2],[6,-7],[14,-10],[10,-17],[5,-1],[13,-4]],[[3228,383],[-9,-6],[-9,-5],[-4,-10],[-12,-15],[-5,-9],[-3,-11],[0,-12],[5,-31],[-2,-12],[-13,-11],[-12,-7],[-11,-2],[-3,-8],[-6,-2],[-6,0],[-6,-3],[-7,-19],[7,-8],[-1,-20]],[[2451,175],[3,11],[0,23],[-15,41],[-8,13],[-4,11],[-3,25],[0,33],[4,32],[-3,28],[-1,11],[-3,6],[-13,9],[-1,4],[0,17],[-3,11],[-9,15]],[[2961,194],[6,-2],[24,-15],[29,-8],[36,-5],[30,-4],[24,2],[7,2],[5,4],[6,15],[3,9]],[[3724,154],[-3,6],[-6,15],[-5,6],[-9,17],[-7,11],[-9,9],[-6,4]],[[3780,198],[-2,-2],[-2,-17],[-3,-13],[-4,-6],[-9,-7]],[[3760,153],[-14,-2],[-22,3]],[[455,119],[-2,13],[2,13],[0,9],[-5,6],[-12,11],[-4,12],[-2,15],[-6,9],[-18,20],[-4,10],[0,11]],[[3840,80],[-6,3],[-15,17],[-15,21],[0,20],[-3,17],[-2,6],[-7,7],[-12,25],[0,2]],[[3903,57],[-2,0],[-13,15],[-9,0],[-11,-5],[-7,1],[-17,8],[-4,4]],[[2451,175],[-5,-6],[0,-5],[9,-19],[14,-22],[1,-8],[14,-19],[4,-18],[12,-21],[-1,-9],[-8,-10]],[[3957,31],[-12,2]],[[3945,33],[-9,2],[-6,3],[-14,17],[-13,2]],[[506,0],[0,1],[-2,15],[-3,9],[-9,17],[-30,45],[-6,17],[-1,15]],[[2491,38],[-9,-7],[-12,-26],[-8,-5]],[[2113,510],[16,0],[15,4],[9,5],[12,10],[14,5],[39,4],[13,-11]],[[4032,2563],[-11,-4],[-28,-6]],[[1743,338],[17,7],[19,15],[6,12],[15,9],[8,4],[9,7]],[[2781,1012],[21,0]],[[2824,1094],[-13,0],[-18,-2]],[[2805,1094],[-3,15],[3,8]],[[2805,1117],[3,9]],[[3251,804],[16,-2]],[[3300,787],[9,-9]],[[3216,826],[17,-7]],[[2812,937],[-7,-15],[-3,-13],[12,-17],[15,-25],[0,-20]],[[2888,770],[-3,6],[-9,7],[-7,8],[-7,5],[-12,19],[-8,8],[-3,7],[-6,9],[-6,4]],[[4096,2895],[0,-2895],[-4096,0],[0,4096],[1807,0],[2289,0],[0,-1201]],[[863,360],[9,23],[64,5],[-25,21],[63,32],[19,-46],[44,12],[17,-39],[-40,-49],[-42,-8],[-109,49]],[[3979,7],[-37,17],[22,61],[43,-15],[-28,-63]],[[3507,278],[-45,7],[-29,27],[46,31],[28,-65]],[[4096,459],[-16,26],[16,20],[0,-46]],[[2783,1106],[7,19],[93,-46],[-74,-87],[-125,75],[31,45],[68,-6]],[[2155,1125],[61,-22],[20,-19],[-111,-11],[-10,52],[40,0]],[[4025,1378],[35,5],[25,-22],[-20,-28],[-35,5],[-5,40]],[[2874,1447],[-15,-47],[-36,-22],[28,75],[23,-6]],[[3530,1384],[14,42],[32,-7],[-27,-47],[-19,12]],[[4094,1200],[-48,6],[-21,40],[71,31],[-2,-77]],[[3891,1246],[-88,28],[5,22],[67,-7],[16,-43]],[[3637,1257],[-70,-23],[0,40],[46,58],[30,-24],[12,-45],[-18,-6]],[[4096,1584],[-48,30],[48,44],[0,-74]],[[3355,1586],[-33,5],[6,28],[45,47],[23,58],[-18,52],[16,-1],[85,-63],[-27,-98],[-33,47],[-64,-75]],[[3646,1551],[-14,-17],[-19,23],[65,29],[-32,-35]],[[3544,1703],[32,-8],[-46,-46],[14,54]],[[3715,1661],[-28,-29],[-74,40],[47,-6],[14,35],[37,-3],[27,-14],[-23,-23]],[[221,2148],[26,-50],[-30,-15],[-44,4],[-37,63],[85,-2]],[[4003,2343],[-29,-43],[-115,-29],[9,-46],[-19,-13],[-27,-4],[-14,29],[23,63],[-19,29],[-69,-40],[23,109],[73,48],[29,-2],[-9,-46],[32,-40],[60,11],[14,41],[42,-6],[-4,-61]],[[3955,2093],[24,0],[4,-98],[-41,86],[13,12]],[[1289,2195],[31,-39],[-60,0],[29,39]],[[622,2035],[-23,-58],[-42,6],[28,98],[37,-46]],[[1093,2098],[-17,-37],[-33,14],[18,34],[32,-11]],[[3660,1989],[-33,133],[23,17],[56,-58],[5,-40],[46,6],[-9,-64],[-88,6]],[[1746,2691],[-38,-5],[-27,58],[14,19],[27,4],[0,-29],[42,-17],[-18,-30]],[[1852,2934],[-70,-6],[-32,58],[120,23],[-18,-75]],[[4071,3130],[-32,-23],[14,63],[41,0],[-23,-40]],[[3919,2663],[-23,52],[24,44],[54,8],[56,-58],[-111,-46]],[[3265,3315],[-21,40],[55,-23],[-34,-17]],[[4094,3447],[2,-109],[-20,-12],[-74,109],[46,52],[19,-40],[27,0]],[[3683,3625],[-14,-40],[42,-6],[-14,-46],[-70,64],[56,28]],[[2048,3490],[-44,-3],[10,46],[41,-11],[-7,-32]],[[3167,3581],[35,21],[-9,-57],[-26,36]],[[1916,3170],[-83,0],[3,50],[53,14],[27,-64]],[[3549,3228],[27,27],[47,-4],[-31,-50],[-43,27]],[[3466,3291],[-33,-88],[-28,-27],[24,121],[37,-6]],[[3581,3965],[5,38],[46,-3],[-15,-30],[-36,-5]],[[2268,3988],[-30,-6],[-26,12],[47,29],[9,-35]],[[3355,3914],[-37,-12],[-10,52],[-27,-12],[-10,35],[144,-40],[-28,-41],[-32,18]],[[3294,3919],[-92,-29],[-130,24],[21,75],[67,11],[28,-52],[106,-29]],[[3845,4058],[-14,-87],[-111,40],[41,52],[56,12],[28,-17]],[[4085,2450],[-34,-8],[-31,2],[27,37],[49,3],[-11,-34]],[[3539,2450],[-50,17],[5,34],[22,12],[23,-63]],[[3589,2476],[-22,43],[89,35],[-33,-70],[-34,-8]],[[4096,2548],[-76,-6],[-55,-69],[-79,-6],[28,75],[106,81],[42,6],[-21,78],[55,67],[0,-226]],[[858,1856],[-56,47],[11,12],[72,11],[116,-70],[-65,-28],[-78,28]],[[243,1908],[-12,-31],[-35,-3],[3,37],[44,-3]],[[3754,1733],[-6,43],[-121,-6],[-9,81],[42,-12],[66,114],[35,1],[-4,-40],[28,0],[-37,-86],[92,-93],[-6,-59],[-36,-21],[10,29],[-33,51],[-21,-2]],[[2342,1937],[41,-11],[-18,-35],[-74,58],[30,19],[21,-31]],[[3923,2018],[-16,-58],[-35,-34],[11,64],[40,28]],[[3835,2122],[-18,-87],[37,-69],[-42,11],[-4,-40],[-47,29],[24,23],[-5,92],[-46,29],[-28,81],[46,11],[70,-29],[13,-51]],[[918,530],[36,96],[72,-54],[-33,-50],[-10,-87],[-25,-1],[-40,96]],[[618,1521],[7,38],[74,-20],[13,25],[-11,-42],[126,-28],[42,-29],[25,-62],[-75,48],[-119,23],[-32,33],[-42,-10],[-8,24]]]}