{"objects":{"water":{"type":"GeometryCollection","geometries":[{"type":"Polygon","properties":{"source":"naturalearthdata.com","kind":"ocean","area":1576712559132672,"sort_rank":200,"min_zoom":0.0,"id":1},"arcs":[[121],[122],[123],[124],[125],[126],[127],[128],[129],[130],[131],[132],[133],[134],[135],[136],[137],[138],[139],[140],[141],[142],[143],[144],[145],[146],[147],[148],[149],[150],[151],[152],[153],[154],[155],[156],[157],[158],[159],[160],[161],[162],[163],[164],[165],[166],[167],[168]]},{"type":"LineString","properties":{"source":"naturalearthdata.com","kind":"ocean","sort_rank":205,"boundary":true,"min_zoom":0.0,"id":31},"arcs":[169]},{"type":"LineString","properties":{"source":"naturalearthdata.com","kind":"ocean","sort_rank":205,"boundary":true,"min_zoom":0.0,"id":32},"arcs":[170]},{"type":"MultiLineString","properties":{"source":"naturalearthdata.com","kind":"ocean","sort_rank":205,"boundary":true,"min_zoom":0.0,"id":33},"arcs":[[171],[172]]},{"type":"LineString","properties":{"source":"naturalearthdata.com","kind":"ocean","sort_rank":205,"boundary":true,"min_zoom":0.0,"id":168},"arcs":[173]},{"type":"LineString","properties":{"source":"naturalearthdata.com","kind":"ocean","sort_rank":205,"boundary":true,"min_zoom":0.0,"id":176},"arcs":[174]},{"type":"LineString","properties":{"source":"naturalearthdata.com","kind":"ocean","sort_rank":205,"boundary":true,"min_zoom":0.0,"id":177},"arcs":[175]},{"type":"LineString","properties":{"source":"naturalearthdata.com","kind":"ocean","sort_rank":205,"boundary":true,"min_zoom":0.0,"id":178},"arcs":[176]},{"type":"LineString","properties":{"source":"naturalearthdata.com","kind":"ocean","sort_rank":205,"boundary":true,"min_zoom":0.0,"id":1651},"arcs":[177]},{"type":"LineString","properties":{"source":"naturalearthdata.com","kind":"ocean","sort_rank":205,"boundary":true,"min_zoom":0.0,"id":1652},"arcs":[178]},{"type":"LineString","properties":{"source":"naturalearthdata.com","kind":"ocean","sort_rank":205,"boundary":true,"min_zoom":0.0,"id":1664},"arcs":[179]},{"type":"LineString","properties":{"source":"naturalearthdata.com","kind":"ocean","sort_rank":205,"boundary":true,"min_zoom":0.0,"id":2016},"arcs":[180]},{"type":"LineString","properties":{"source":"naturalearthdata.com","kind":"ocean","sort_rank":205,"boundary":true,"min_zoom":0.0,"id":2018},"arcs":[181]},{"type":"LineString","properties":{"source":"naturalearthdata.com","kind":"ocean","sort_rank":205,"boundary":true,"min_zoom":0.0,"id":2019},"arcs":[182]},{"type":"LineString","properties":{"source":"naturalearthdata.com","kind":"ocean","sort_rank":205,"boundary":true,"min_zoom":0.0,"id":2020},"arcs":[183]},{"type":"LineString","properties":{"source":"naturalearthdata.com","kind":"ocean","sort_rank":205,"boundary":true,"min_zoom":0.0,"id":2021},"arcs":[184]},{"type":"LineString","properties":{"source":"naturalearthdata.com","kind":"ocean","sort_rank":205,"boundary":true,"min_zoom":0.0,"id":2022},"arcs":[185]},{"type":"LineString","properties":{"source":"naturalearthdata.com","kind":"ocean","sort_rank":205,"boundary":true,"min_zoom":0.0,"id":2023},"arcs":[186]},{"type":"LineString","properties":{"source":"naturalearthdata.com","kind":"ocean","sort_rank":205,"boundary":true,"min_zoom":0.0,"id":2024},"arcs":[187]},{"type":"LineString","properties":{"source":"naturalearthdata.com","kind":"ocean","sort_rank":205,"boundary":true,"min_zoom":0.0,"id":2025},"arcs":[188]},{"type":"LineString","properties":{"source":"naturalearthdata.com","kind":"ocean","sort_rank":205,"boundary":true,"min_zoom":0.0,"id":2026},"arcs":[189]},{"type":"MultiLineString","properties":{"source":"naturalearthdata.com","kind":"ocean","sort_rank":205,"boundary":true,"min_zoom":0.0,"id":2027},"arcs":[[190],[191]]},{"type":"LineString","properties":{"source":"naturalearthdata.com","kind":"ocean","sort_rank":205,"boundary":true,"min_zoom":0.0,"id":3161},"arcs":[192]},{"type":"LineString","properties":{"source":"naturalearthdata.com","kind":"ocean","sort_rank":205,"boundary":true,"min_zoom":0.0,"id":3776},"arcs":[193]},{"type":"Point","properties":{"label_placement":true,"kind":"sea","name":"Java Sea","source":"openstreetmap.org","sort_rank":200,"min_zoom":3.0,"id":305639363},"coordinates":[3186,2264]}]},"buildings":{"type":"GeometryCollection","geometries":[]},"places":{"type":"GeometryCollection","geometries":[{"type":"Point","properties":{"source":"naturalearthdata.com","kind":"locality","name":"Jakarta","country_capital":true,"population":9125000,"min_zoom":2.0,"id":7276},"coordinates":[2031,1834]},{"type":"Point","properties":{"source":"naturalearthdata.com","kind":"locality","name":"Bandung","population":2394000,"region_capital":true,"min_zoom":4.0,"id":7159},"coordinates":[2300,1550]},{"type":"Point","properties":{"kind":"region","name:en":"Riau Islands","name:nl":"Riau-eilanden","name":"Kepulauan Riau","kind_detail":"state","name:eo":"Riau-insuloj","name:de":"Riau-Inseln","source":"openstreetmap.org","min_zoom":4.0,"name:fr":"\u00celes Riau","name:hu":"Riau-szigetek","name:zh":"\u5ed6\u5185\u7fa4\u5c9b\u7701","id":1898333938},"coordinates":[1213,4039]},{"type":"Point","properties":{"kind":"region","name":"Bengkulu","kind_detail":"state","name:eo":"Bengkulao","source":"openstreetmap.org","min_zoom":4.0,"name:zh":"\u660e\u53e4\u9c81\u7701","id":1898283447},"coordinates":[468,2807]},{"type":"Point","properties":{"kind":"region","name":"Lampung","kind_detail":"state","name:eo":"Lampungo","source":"openstreetmap.org","min_zoom":4.0,"name:zh":"\u6960\u699c\u7701","id":1898283456},"coordinates":[1375,2317]},{"type":"Point","properties":{"kind":"region","name":"Bangka Belitung","kind_detail":"state","name:eo":"Bangka-Belitungo","source":"openstreetmap.org","name:fr":"\u00celes Bangka Belitung","min_zoom":4.0,"name:hu":"Bangka-Belitung","name:zh":"\u90a6\u52a0-\u52ff\u91cc\u6d1e\u7701","id":1898333935},"coordinates":[1860,3105]},{"type":"Point","properties":{"kind":"region","name:en":"South Sumatra","name:nl":"Zuid-Sumatra","name":"Sumatera Selatan","name:ko":"\uc218\ub9c8\ud2b8\ub77c\uc2ac\ub77c\ud0c4 \uc8fc","kind_detail":"state","name:eo":"Suda Sumatro","name:de":"S\u00fcd-Sumatra","source":"openstreetmap.org","min_zoom":4.0,"name:fr":"Sumatra du Sud","name:hu":"D\u00e9l-Szum\u00e1tra","name:zh":"\u5357\u82cf\u95e8\u7b54\u814a\u7701","id":1898283476},"coordinates":[1035,2950]},{"type":"Point","properties":{"kind":"region","name":"Jambi","kind_detail":"state","name:eo":"\u011cambio","source":"openstreetmap.org","min_zoom":4.0,"name:zh":"\u5360\u7891\u7701","id":1898283453},"coordinates":[557,3505]},{"type":"Point","properties":{"kind":"region","name:en":"West Kalimantan","name":"Kalimantan Barat","kind_detail":"state","name:eo":"Okcidenta Kalimantano","name:de":"West-Kalimantan","source":"openstreetmap.org","min_zoom":4.0,"name:fr":"Kalimantan occidental","name:hu":"Nyugat-Kalimantan","name:zh":"\u897f\u52a0\u91cc\u66fc\u4e39\u7701","id":1898293079},"coordinates":[3585,4048]},{"type":"Point","properties":{"kind":"region","name:en":"Central Java","name":"Jawa Tengah","kind_detail":"state","name:eo":"Centra Javo","name:de":"Zentral-Java","source":"openstreetmap.org","min_zoom":4.0,"name:fr":"Java central","name:hu":"K\u00f6z\u00e9p-J\u00e1va","name:zh":"\u4e2d\u722a\u54c7\u7701","id":1898258183},"coordinates":[3187,1420]},{"type":"Point","properties":{"kind":"region","name:en":"East Java","name":"Jawa Timur","kind_detail":"state","source":"openstreetmap.org","min_zoom":4.0,"name:zh":"\u4e1c\u722a\u54c7\u7701","id":4548425013},"coordinates":[4093,1275]},{"type":"Point","properties":{"kind":"region","name:en":"Special Region of Yogyakarta","name":"Yogyakarta","kind_detail":"state","source":"openstreetmap.org","min_zoom":4.0,"name:zh":"\u65e5\u60f9\u7279\u533a","id":4548425014,"name:id":"Kota Yogyakarta"},"coordinates":[3356,1210]},{"type":"Point","properties":{"kind":"region","name":"Banten","kind_detail":"state","name:eo":"Banteno","source":"openstreetmap.org","min_zoom":4.0,"name:zh":"\u4e07\u4e39\u7701","id":1898258173},"coordinates":[1780,1734]},{"type":"Point","properties":{"kind":"region","name:en":"West Java","name":"Jawa Barat","kind_detail":"state","name:eo":"Okcidenta Javo","name:de":"West-Java","source":"openstreetmap.org","min_zoom":4.0,"name:fr":"Java occidental","name:hu":"Nyugat-J\u00e1va","name:zh":"\u897f\u722a\u54c7\u7701","id":1898258216},"coordinates":[2327,1572]},{"type":"Point","properties":{"name:pt":"Ilha Christmas","name:cy":"Ynys y Nadolig","name:ko":"\ud06c\ub9ac\uc2a4\ub9c8\uc2a4 \uc12c","name:kn":"\u0c95\u0ccd\u0cb0\u0cbf\u0cb8\u0ccd\u0cae\u0cb8\u0ccd \u0ca6\u0ccd\u0cb5\u0cc0\u0caa","name:km":"\u1780\u17c4\u17c7\u200b\u1782\u17d2\u179a\u17b8\u179f\u17d2\u1798\u17b6\u179f","name:kl":"Jul-qeqertaq","name:cs":"V\u00e1no\u010dn\u00ed ostrov","name:kw":"Ynys Nadelik","name:tr":"Christmas Adas\u0131","name:ku":"Girava Christmas","name:ti":"\u12e8\u1308\u1293 \u12f0\u1234\u1276\u127d","name:ks":"\u06a9\u0631\u0650\u0633\u0645\u064e\u0633 \u062c\u0654\u0632\u06cc\u0656\u0631\u0655","name:to":"Motu Kilisimasi","name:zh-min-nan":"Christmas-t\u00f3","name:or":"\u0b16\u0b4d\u0b30\u0b40\u0b37\u0b4d\u0b1f\u0b2e\u0b3e\u0b38 \u0b06\u0b07\u0b32\u0b4d\u0b5f\u0b3e\u0b23\u0b4d\u0b21","name:pl":"Wyspa Bo\u017cego Narodzenia","name:ta":"\u0b95\u0bbf\u0bb1\u0bbf\u0bb8\u0bcd\u0ba4\u0bc1\u0bae\u0b9a\u0bc1 \u0ba4\u0bc0\u0bb5\u0bc1","name:ca":"Illa Christmas","name:te":"\u0c15\u0c4d\u0c30\u0c3f\u0c38\u0c4d\u0c2e\u0c38\u0c4d \u0c26\u0c40\u0c35\u0c3f","name:vi":"\u0110\u1ea3o Gi\u00e1ng Sinh","name:ro":"Insula Cr\u0103ciunului","name:ka":"\u10e8\u10dd\u10d1\u10d8\u10e1 \u10d9\u10e3\u10dc\u10eb\u10e3\u10da\u10d8","name:hr":"Bo\u017ei\u0107ni otok","name:da":"Jule\u00f8en","name:de":"Weihnachtsinsel","name:dz":"\u0f41\u0f72\u0f0b\u0f62\u0f72\u0f66\u0f9f\u0f0b\u0f58\u0f7a\u0f66\u0f0b\u0f58\u0f5a\u0f7c\u0f0b\u0f42\u0fb3\u0f72\u0f44","source":"openstreetmap.org","name:lv":"Ziemsv\u0113tku sala","name:lt":"Kal\u0117d\u0173 sala","name:hi":"\u0915\u094d\u0930\u093f\u0938\u092e\u0938 \u0906\u0908\u0932\u0948\u0902\u0921","name:kk":"\u041a\u0440\u0438\u0441\u0442\u043c\u0430\u0441 \u0430\u0440\u0430\u043b\u044b","name:sv":"Jul\u00f6n","name:he":"\u05d0\u05d9\u05d9 \u05db\u05e8\u05d9\u05e1\u05d8\u05de\u05e1","kind":"region","name:ur":"\u06a9\u0631\u0633\u0645\u0633 \u0622\u0626\u0644\u06cc\u0646\u0688","name:lb":"Chr\u00ebschtdagsinsel","name:uk":"\u041e\u0441\u0442\u0440\u0456\u0432 \u0420\u0456\u0437\u0434\u0432\u0430","min_zoom":4.0,"name:hu":"Kar\u00e1csony-sziget","name:ln":"Esenga ya Mb\u00f3tama","name:lo":"\u0ec0\u0e81\u0eb2\u0eb0\u0e84\u0ea3\u0eb4\u0eaa\u0ea1\u0eb2\u0e94","name:el":"\u039d\u03ae\u03c3\u03bf\u03c2 \u03c4\u03c9\u03bd \u03a7\u03c1\u03b9\u03c3\u03c4\u03bf\u03c5\u03b3\u03ad\u03bd\u03bd\u03c9\u03bd","name:eo":"Kristnaskinsulo","name":"Christmas Island","name:ee":"Kristmas \u0192udomekpo nutome","name:th":"\u0e40\u0e01\u0e32\u0e30\u0e04\u0e23\u0e34\u0e2a\u0e15\u0e4c\u0e21\u0e32\u0e2a","name:eu":"Christmas uhartea","name:et":"J\u00f5ulusaar","name:nl":"Christmaseiland","name:es":"Isla de Navidad","name:ia":"Insula de Natal","name:rm":"Insla da Christmas","name:az":"\u00c7ristmas Adas\u0131","name:id":"Pulau Natal","name:ms":"Pulau Krismas","name:mr":"\u0915\u094d\u0930\u093f\u0938\u092e\u0938 \u0926\u094d\u0935\u0940\u092a","name:ar":"\u062c\u0632\u064a\u0631\u0629 \u0627\u0644\u0645\u064a\u0644\u0627\u062f","name:my":"\u1001\u101b\u1005\u103a\u1005\u1019\u1010\u103a \u1000\u103b\u103d\u1014\u103a\u1038","official_name":"Territory of Christmas Island","name:is":"J\u00f3laeyja","name:am":"\u12e8\u1308\u1293 \u12f0\u1234\u1275","name:it":"Isola del Natale","name:ml":"\u0d15\u0d4d\u0d30\u0d3f\u0d38\u0d4d\u0d2e\u0d38\u0d4d \u0d26\u0d4d\u0d35\u0d40\u0d2a\u0d4d","name:ru":"\u041e\u0441\u0442\u0440\u043e\u0432 \u0420\u043e\u0436\u0434\u0435\u0441\u0442\u0432\u0430","name:mn":"\u0417\u0443\u043b \u0421\u0430\u0440\u044b\u043d \u0410\u0440\u0430\u043b","id":433483523,"name:mk":"\u0411\u043e\u0436\u0438\u045c\u043d\u0438 \u041e\u0441\u0442\u0440\u043e\u0432\u0438","name:af":"Christmas-eiland","name:zu":"i-Christmas Island","name:nn":"Christmas\u00f8ya","kind_detail":"state","name:no":"Christmas\u00f8ya","name:fo":"J\u00f3laoyggjin","alt_name:vi":"\u0110\u1ea3o Christmas","name:fr":"\u00cele Christmas","name:fy":"Krysteil\u00e2n","name:zh":"\u5723\u8bde\u5c9b","name:sl":"Bo\u017ei\u010dni otoki","name:sk":"Viano\u010dn\u00fd ostrov","name:ja":"\u30af\u30ea\u30b9\u30de\u30b9\u5cf6","name:si":"\u0d9a\u0dca\u200d\u0dbb\u0dd2\u0dc3\u0dca\u0da7\u0dca\u0db8\u0dc3\u0dca \u0daf\u0dd6\u0db4\u0dad\u0dca","name:sh":"Bo\u017ei\u0107ni otok","name:se":"Juovllat-sullot","name:ne":"\u0915\u094d\u0930\u093f\u0937\u094d\u091f\u092e\u0938 \u091f\u093e\u092a\u0941","name:br":"Enez Christmas","name:bs":"Bo\u017ei\u0107no ostrvo","name:bn":"\u0995\u09cd\u09b0\u09bf\u09b8\u09ae\u09be\u09b8 \u09a6\u09cd\u09ac\u09c0\u09aa","name:sw":"Kisiwa cha Krismasi","name:be":"\u0412\u043e\u0441\u0442\u0440\u0430\u045e \u0420\u0430\u0436\u0441\u0442\u0432\u0430","name:bg":"\u0420\u043e\u0436\u0434\u0435\u0441\u0442\u0432\u043e","name:wo":"Dunu Christmas","name:sr":"\u0411\u043e\u0436\u0438\u045b\u043d\u043e \u041e\u0441\u0442\u0440\u0432\u043e","name:ga":"Oile\u00e1n na Nollag","name:gd":"Eilean na Nollaig","name:gl":"Illa de Nadal","name:fa":"\u062c\u0632\u06cc\u0631\u0647 \u06a9\u0631\u06cc\u0633\u0645\u0633","name:gu":"\u0a95\u0acd\u0ab0\u0abf\u0ab8\u0aae\u0ab8 \u0a86\u0a87\u0ab2\u0ac7\u0a82\u0aa1","name:fi":"Joulusaari"},"coordinates":[1601,255]},{"type":"Point","properties":{"source":"naturalearthdata.com","kind":"locality","name":"Palembang","population":1749000,"region_capital":true,"min_zoom":5.0,"id":6938},"coordinates":[1274,3005]},{"type":"Point","properties":{"source":"naturalearthdata.com","kind":"locality","name":"Semarang","population":1396000,"region_capital":true,"min_zoom":5.0,"id":6937},"coordinates":[3338,1544]},{"type":"Point","properties":{"source":"naturalearthdata.com","kind":"locality","name":"Bandar Lampung","population":865000,"min_zoom":5.0,"id":6484},"coordinates":[1463,2107]},{"type":"Point","properties":{"source":"naturalearthdata.com","kind":"locality","name":"Surakarta","population":555308,"min_zoom":5.0,"id":6483},"coordinates":[3486,1324]},{"type":"Point","properties":{"source":"naturalearthdata.com","kind":"locality","name":"Tanjungpandan","population":62374,"min_zoom":5.0,"id":6485},"coordinates":[2330,3088]}]},"transit":{"type":"GeometryCollection","geometries":[]},"pois":{"type":"GeometryCollection","geometries":[]},"boundaries":{"type":"GeometryCollection","geometries":[{"type":"LineString","properties":{"source":"naturalearthdata.com","kind":"region","sort_rank":256,"kind_detail":"4","min_zoom":2.0,"id":3708},"arcs":[0]},{"type":"MultiLineString","properties":{"source":"naturalearthdata.com","kind":"region","sort_rank":256,"kind_detail":"4","min_zoom":2.0,"id":3713},"arcs":[[1],[2],[3],[4]]},{"type":"LineString","properties":{"source":"naturalearthdata.com","kind":"region","sort_rank":256,"kind_detail":"4","min_zoom":2.0,"id":3725},"arcs":[5]},{"type":"LineString","properties":{"source":"naturalearthdata.com","kind":"region","sort_rank":256,"kind_detail":"4","min_zoom":2.0,"id":208},"arcs":[6]},{"type":"LineString","properties":{"source":"naturalearthdata.com","kind":"region","sort_rank":256,"kind_detail":"4","min_zoom":2.0,"id":212},"arcs":[7]},{"type":"LineString","properties":{"source":"naturalearthdata.com","kind":"region","sort_rank":256,"kind_detail":"4","min_zoom":2.0,"id":240},"arcs":[8]},{"type":"LineString","properties":{"source":"naturalearthdata.com","kind":"region","sort_rank":256,"kind_detail":"4","min_zoom":2.0,"id":241},"arcs":[9]},{"type":"LineString","properties":{"source":"naturalearthdata.com","kind":"region","sort_rank":256,"kind_detail":"4","min_zoom":2.0,"id":247},"arcs":[10]},{"type":"LineString","properties":{"source":"naturalearthdata.com","kind":"region","sort_rank":256,"kind_detail":"4","min_zoom":2.0,"id":248},"arcs":[11]},{"type":"LineString","properties":{"source":"naturalearthdata.com","kind":"region","sort_rank":256,"kind_detail":"4","min_zoom":2.0,"id":249},"arcs":[12]},{"type":"LineString","properties":{"source":"naturalearthdata.com","kind":"region","sort_rank":256,"kind_detail":"4","min_zoom":2.0,"id":250},"arcs":[13]},{"type":"LineString","properties":{"source":"naturalearthdata.com","kind":"region","sort_rank":256,"kind_detail":"4","min_zoom":2.0,"id":251},"arcs":[14]},{"type":"LineString","properties":{"source":"naturalearthdata.com","kind":"region","sort_rank":256,"kind_detail":"4","min_zoom":2.0,"id":3709},"arcs":[15]},{"type":"MultiLineString","properties":{"source":"naturalearthdata.com","kind":"region","sort_rank":256,"kind_detail":"4","min_zoom":2.0,"id":3704},"arcs":[[16],[17],[18],[19],[20],[21],[22]]},{"type":"MultiLineString","properties":{"source":"naturalearthdata.com","kind":"region","sort_rank":256,"kind_detail":"4","min_zoom":2.0,"id":3710},"arcs":[[23],[24],[25],[26],[27],[28],[29],[30],[31],[32],[33],[34],[35],[36],[37],[38],[39],[40],[41],[42],[43]]},{"type":"MultiLineString","properties":{"source":"naturalearthdata.com","kind":"region","sort_rank":256,"kind_detail":"4","min_zoom":2.0,"id":3711},"arcs":[[44],[45],[46],[47],[48],[49],[50],[51],[52],[53],[54],[55],[56],[57],[58]]},{"type":"MultiLineString","properties":{"source":"naturalearthdata.com","kind":"region","sort_rank":256,"kind_detail":"4","min_zoom":2.0,"id":3712},"arcs":[[59],[60],[61],[62],[63],[64]]},{"type":"MultiLineString","properties":{"source":"naturalearthdata.com","kind":"region","sort_rank":256,"kind_detail":"4","min_zoom":2.0,"id":3714},"arcs":[[65],[66],[67],[68],[69],[70],[71],[72],[73],[74],[75],[76],[77],[78],[79]]},{"type":"LineString","properties":{"source":"naturalearthdata.com","kind":"region","sort_rank":256,"kind_detail":"4","min_zoom":2.0,"id":3715},"arcs":[80]},{"type":"MultiLineString","properties":{"source":"naturalearthdata.com","kind":"region","sort_rank":256,"kind_detail":"4","min_zoom":2.0,"id":3716},"arcs":[[81],[82],[83],[84],[85],[86],[87]]},{"type":"MultiLineString","properties":{"source":"naturalearthdata.com","kind":"region","sort_rank":256,"kind_detail":"4","min_zoom":2.0,"id":3720},"arcs":[[88],[89],[90],[91],[92],[93],[94]]},{"type":"MultiLineString","properties":{"source":"naturalearthdata.com","kind":"region","sort_rank":256,"kind_detail":"4","min_zoom":2.0,"id":3721},"arcs":[[95],[96],[97],[98],[99]]},{"type":"MultiLineString","properties":{"source":"naturalearthdata.com","kind":"region","sort_rank":256,"kind_detail":"4","min_zoom":2.0,"id":3722},"arcs":[[100],[101],[102],[103]]},{"type":"MultiLineString","properties":{"source":"naturalearthdata.com","kind":"region","sort_rank":256,"kind_detail":"4","min_zoom":2.0,"id":3723},"arcs":[[104],[105],[106],[107],[108],[109],[110],[111],[112],[113],[114],[115]]},{"type":"MultiLineString","properties":{"source":"naturalearthdata.com","kind":"region","sort_rank":256,"kind_detail":"4","min_zoom":2.0,"id":3724},"arcs":[[116],[117],[118],[119],[120]]}]},"roads":{"type":"GeometryCollection","geometries":[{"type":"LineString","properties":{"source":"naturalearthdata.com","kind":"major_road","sort_rank":379,"kind_detail":"secondary","min_zoom":4.0,"id":41545},"arcs":[194]},{"type":"LineString","properties":{"source":"naturalearthdata.com","kind":"major_road","sort_rank":379,"kind_detail":"secondary","min_zoom":4.0,"id":41564},"arcs":[195]},{"type":"LineString","properties":{"source":"naturalearthdata.com","kind":"major_road","sort_rank":379,"kind_detail":"secondary","min_zoom":4.0,"id":41617},"arcs":[196]},{"type":"LineString","properties":{"source":"naturalearthdata.com","kind":"major_road","sort_rank":379,"kind_detail":"secondary","min_zoom":3.0,"id":41730},"arcs":[197]},{"type":"LineString","properties":{"source":"naturalearthdata.com","kind":"major_road","sort_rank":379,"kind_detail":"secondary","min_zoom":4.0,"id":41838},"arcs":[198]},{"type":"LineString","properties":{"source":"naturalearthdata.com","kind":"major_road","sort_rank":379,"kind_detail":"secondary","min_zoom":3.0,"id":41906},"arcs":[199]},{"type":"MultiLineString","properties":{"source":"naturalearthdata.com","kind":"major_road","kind_detail":"secondary","sort_rank":379,"landuse_kind":"park","min_zoom":4.0,"id":41918},"arcs":[[200],[201]]},{"type":"MultiLineString","properties":{"source":"naturalearthdata.com","kind":"major_road","sort_rank":379,"kind_detail":"secondary","min_zoom":4.0,"id":41918},"arcs":[[202],[203],[204]]},{"type":"LineString","properties":{"source":"naturalearthdata.com","kind":"minor_road","sort_rank":355,"kind_detail":"tertiary","min_zoom":5.0,"id":42038},"arcs":[205]},{"type":"LineString","properties":{"source":"naturalearthdata.com","kind":"major_road","sort_rank":379,"kind_detail":"secondary","min_zoom":4.0,"id":42122},"arcs":[206]},{"type":"LineString","properties":{"source":"naturalearthdata.com","kind":"major_road","sort_rank":379,"kind_detail":"secondary","min_zoom":3.0,"id":42189},"arcs":[207]},{"type":"LineString","properties":{"source":"naturalearthdata.com","kind":"major_road","sort_rank":379,"kind_detail":"secondary","min_zoom":3.0,"id":42269},"arcs":[208]},{"type":"LineString","properties":{"source":"naturalearthdata.com","kind":"minor_road","sort_rank":355,"kind_detail":"tertiary","min_zoom":5.0,"id":42287},"arcs":[209]},{"type":"LineString","properties":{"source":"naturalearthdata.com","kind":"minor_road","sort_rank":355,"kind_detail":"tertiary","min_zoom":5.0,"id":42288},"arcs":[210]},{"type":"LineString","properties":{"source":"naturalearthdata.com","kind":"minor_road","sort_rank":355,"kind_detail":"tertiary","min_zoom":5.0,"id":42369},"arcs":[211]},{"type":"LineString","properties":{"source":"naturalearthdata.com","kind":"major_road","sort_rank":379,"kind_detail":"secondary","min_zoom":3.0,"id":42385},"arcs":[212]},{"type":"LineString","properties":{"source":"naturalearthdata.com","kind":"minor_road","sort_rank":355,"kind_detail":"tertiary","min_zoom":5.0,"id":42435},"arcs":[213]},{"type":"LineString","properties":{"source":"naturalearthdata.com","kind":"major_road","sort_rank":379,"kind_detail":"secondary","min_zoom":3.0,"id":42438},"arcs":[214]},{"type":"LineString","properties":{"source":"naturalearthdata.com","kind":"minor_road","sort_rank":355,"kind_detail":"tertiary","min_zoom":5.0,"id":42444},"arcs":[215]},{"type":"LineString","properties":{"source":"naturalearthdata.com","kind":"major_road","sort_rank":379,"kind_detail":"secondary","min_zoom":3.0,"id":42651},"arcs":[216]},{"type":"LineString","properties":{"source":"naturalearthdata.com","kind":"major_road","sort_rank":379,"kind_detail":"secondary","min_zoom":3.0,"id":42664},"arcs":[217]},{"type":"MultiLineString","properties":{"source":"naturalearthdata.com","kind":"major_road","kind_detail":"secondary","sort_rank":379,"landuse_kind":"park","min_zoom":3.0,"id":42710},"arcs":[[218],[219]]},{"type":"MultiLineString","properties":{"source":"naturalearthdata.com","kind":"major_road","sort_rank":379,"kind_detail":"secondary","min_zoom":3.0,"id":42710},"arcs":[[220],[221],[222]]},{"type":"LineString","properties":{"source":"naturalearthdata.com","kind":"major_road","sort_rank":379,"kind_detail":"secondary","min_zoom":3.0,"id":42752},"arcs":[223]},{"type":"LineString","properties":{"source":"naturalearthdata.com","kind":"major_road","sort_rank":379,"kind_detail":"secondary","min_zoom":3.0,"id":42826},"arcs":[224]},{"type":"LineString","properties":{"source":"naturalearthdata.com","kind":"minor_road","sort_rank":355,"kind_detail":"tertiary","min_zoom":5.0,"id":42839},"arcs":[225]},{"type":"LineString","properties":{"source":"naturalearthdata.com","kind":"minor_road","sort_rank":355,"kind_detail":"tertiary","min_zoom":5.0,"id":42847},"arcs":[226]},{"type":"LineString","properties":{"source":"naturalearthdata.com","kind":"highway","sort_rank":383,"kind_detail":"motorway","min_zoom":3.0,"id":42863},"arcs":[227]},{"type":"LineString","properties":{"source":"naturalearthdata.com","kind":"highway","kind_detail":"motorway","sort_rank":383,"landuse_kind":"urban_area","min_zoom":3.0,"id":42886},"arcs":[228]},{"type":"LineString","properties":{"source":"naturalearthdata.com","kind":"highway","sort_rank":383,"kind_detail":"motorway","min_zoom":3.0,"id":42886},"arcs":[229]},{"type":"LineString","properties":{"source":"naturalearthdata.com","kind":"minor_road","kind_detail":"tertiary","sort_rank":355,"landuse_kind":"urban_area","min_zoom":5.0,"id":42890},"arcs":[230]},{"type":"LineString","properties":{"source":"naturalearthdata.com","kind":"highway","kind_detail":"motorway","sort_rank":383,"landuse_kind":"urban_area","min_zoom":5.0,"id":42891},"arcs":[231]},{"type":"LineString","properties":{"source":"naturalearthdata.com","kind":"highway","kind_detail":"motorway","sort_rank":383,"landuse_kind":"urban_area","min_zoom":3.0,"id":42922},"arcs":[232]},{"type":"LineString","properties":{"source":"naturalearthdata.com","kind":"highway","sort_rank":383,"kind_detail":"motorway","min_zoom":3.0,"id":42922},"arcs":[233]},{"type":"LineString","properties":{"source":"naturalearthdata.com","kind":"highway","kind_detail":"motorway","sort_rank":383,"landuse_kind":"urban_area","min_zoom":3.0,"id":42947},"arcs":[234]},{"type":"LineString","properties":{"source":"naturalearthdata.com","kind":"highway","sort_rank":383,"kind_detail":"motorway","min_zoom":3.0,"id":42947},"arcs":[235]},{"type":"LineString","properties":{"source":"naturalearthdata.com","kind":"major_road","sort_rank":379,"kind_detail":"secondary","min_zoom":3.0,"id":42956},"arcs":[236]},{"type":"LineString","properties":{"source":"naturalearthdata.com","kind":"major_road","sort_rank":379,"kind_detail":"secondary","min_zoom":4.0,"id":42957},"arcs":[237]},{"type":"LineString","properties":{"source":"naturalearthdata.com","kind":"minor_road","sort_rank":355,"kind_detail":"tertiary","min_zoom":5.0,"id":42965},"arcs":[238]},{"type":"LineString","properties":{"source":"naturalearthdata.com","kind":"minor_road","sort_rank":355,"kind_detail":"tertiary","min_zoom":5.0,"id":42990},"arcs":[239]},{"type":"LineString","properties":{"source":"naturalearthdata.com","kind":"major_road","sort_rank":379,"kind_detail":"secondary","min_zoom":3.0,"id":43000},"arcs":[240]},{"type":"LineString","properties":{"source":"naturalearthdata.com","kind":"highway","sort_rank":383,"kind_detail":"motorway","min_zoom":5.0,"id":43003},"arcs":[241]},{"type":"LineString","properties":{"source":"naturalearthdata.com","kind":"major_road","sort_rank":379,"kind_detail":"secondary","min_zoom":3.0,"id":43004},"arcs":[242]},{"type":"LineString","properties":{"source":"naturalearthdata.com","kind":"major_road","sort_rank":379,"kind_detail":"secondary","min_zoom":3.0,"id":43010},"arcs":[243]},{"type":"LineString","properties":{"source":"naturalearthdata.com","kind":"minor_road","sort_rank":355,"kind_detail":"tertiary","min_zoom":5.0,"id":43013},"arcs":[244]},{"type":"LineString","properties":{"source":"naturalearthdata.com","kind":"minor_road","sort_rank":355,"kind_detail":"tertiary","min_zoom":5.0,"id":43016},"arcs":[245]},{"type":"LineString","properties":{"source":"naturalearthdata.com","kind":"major_road","sort_rank":379,"kind_detail":"secondary","min_zoom":3.0,"id":43023},"arcs":[246]},{"type":"LineString","properties":{"source":"naturalearthdata.com","kind":"major_road","sort_rank":379,"kind_detail":"secondary","min_zoom":3.0,"id":43029},"arcs":[247]},{"type":"LineString","properties":{"source":"naturalearthdata.com","kind":"highway","sort_rank":383,"kind_detail":"motorway","min_zoom":3.0,"id":43034},"arcs":[248]},{"type":"LineString","properties":{"source":"naturalearthdata.com","kind":"major_road","sort_rank":379,"kind_detail":"secondary","min_zoom":3.0,"id":43035},"arcs":[249]},{"type":"LineString","properties":{"source":"naturalearthdata.com","kind":"major_road","sort_rank":379,"kind_detail":"secondary","min_zoom":3.0,"id":43037},"arcs":[250]},{"type":"LineString","properties":{"source":"naturalearthdata.com","kind":"major_road","sort_rank":379,"kind_detail":"secondary","min_zoom":3.0,"id":43055},"arcs":[251]},{"type":"LineString","properties":{"source":"naturalearthdata.com","kind":"major_road","sort_rank":379,"kind_detail":"secondary","min_zoom":3.0,"id":43056},"arcs":[252]},{"type":"LineString","properties":{"source":"naturalearthdata.com","kind":"minor_road","sort_rank":355,"kind_detail":"tertiary","min_zoom":5.0,"id":43069},"arcs":[253]},{"type":"LineString","properties":{"source":"naturalearthdata.com","kind":"major_road","sort_rank":379,"kind_detail":"secondary","min_zoom":3.0,"id":43070},"arcs":[254]},{"type":"LineString","properties":{"source":"naturalearthdata.com","kind":"major_road","sort_rank":379,"kind_detail":"secondary","min_zoom":3.0,"id":43072},"arcs":[255]},{"type":"LineString","properties":{"source":"naturalearthdata.com","kind":"minor_road","sort_rank":355,"kind_detail":"tertiary","min_zoom":5.0,"id":43085},"arcs":[256]},{"type":"LineString","properties":{"source":"naturalearthdata.com","kind":"minor_road","sort_rank":355,"kind_detail":"tertiary","min_zoom":5.0,"id":43139},"arcs":[257]},{"type":"LineString","properties":{"source":"naturalearthdata.com","kind":"minor_road","sort_rank":355,"kind_detail":"tertiary","min_zoom":5.0,"id":43145},"arcs":[258]}]},"earth":{"type":"GeometryCollection","geometries":[{"type":"MultiPolygon","properties":{"sort_rank":10,"source":"naturalearthdata.com","min_zoom":0.0,"kind":"earth","area":483505616775},"arcs":[[[259]],[[260]],[[261]],[[262]],[[263]],[[264]],[[265]],[[266]],[[267]],[[268]],[[269]],[[270]],[[271]],[[272]],[[273]],[[274]],[[275]],[[276]],[[277]],[[278]]]}]},"landuse":{"type":"GeometryCollection","geometries":[{"type":"Polygon","properties":{"kind":"park","name":"Taman Nasional Bukit Tiga Puluh","area":1451260032,"sort_rank":24,"source":"openstreetmap.org","min_zoom":4.0,"tier":2,"id":-7774267,"osm_relation":true},"arcs":[[279]]},{"type":"Polygon","properties":{"kind":"park","name":"Taman Nasional Gunung Palung","area":1090119936,"sort_rank":24,"source":"openstreetmap.org","min_zoom":4.0,"tier":2,"id":-7759327,"osm_relation":true},"arcs":[[280]]},{"type":"Polygon","properties":{"kind":"park","name":"Taman Nasional Bukit Baka Bukit Raya","area":2381299968,"sort_rank":24,"source":"openstreetmap.org","min_zoom":4.0,"tier":2,"id":-7748145,"osm_relation":true},"arcs":[[281]]},{"type":"Polygon","properties":{"kind":"park","name":"Taman Nasional Berbak","area":1604690048,"sort_rank":24,"source":"openstreetmap.org","min_zoom":4.0,"tier":2,"id":-7775851,"osm_relation":true},"arcs":[[282]]},{"type":"MultiPolygon","properties":{"source":"naturalearthdata.com","kind":"urban_area","name":"","area":1932614404,"sort_rank":11,"min_zoom":4.0},"arcs":[[[283]],[[284]]]},{"type":"Polygon","properties":{"kind":"nature_reserve","name":"Cagar Alam Laut Karimata","area":1924480000,"sort_rank":23,"source":"openstreetmap.org","min_zoom":4.0,"tier":2,"id":-7748231,"osm_relation":true},"arcs":[[285],[286],[287]]},{"type":"Polygon","properties":{"kind":"park","name":"Taman Nasional Gunung Halimun Salak","area":1087680000,"sort_rank":24,"source":"openstreetmap.org","min_zoom":4.0,"tier":2,"id":-7735291,"osm_relation":true},"arcs":[[288],[289],[290],[291]]},{"type":"Polygon","properties":{"kind":"park","name":"Taman Nasional Bukit Barisan Selatan","area":3312859904,"sort_rank":24,"source":"openstreetmap.org","min_zoom":4.0,"tier":2,"id":-7556764,"osm_relation":true},"arcs":[[292]]},{"type":"Polygon","properties":{"kind":"park","name":"Taman Nasional Karimunjawa","area":1256140032,"sort_rank":24,"source":"openstreetmap.org","min_zoom":4.0,"tier":2,"id":-7734244,"osm_relation":true},"arcs":[[293]]},{"type":"Polygon","properties":{"kind":"nature_reserve","name":"Cagar Alam Muara Kendawangan","area":1492029952,"sort_rank":23,"source":"openstreetmap.org","min_zoom":4.0,"tier":2,"id":-7759089,"osm_relation":true},"arcs":[[294]]},{"type":"Polygon","properties":{"kind":"park","name":"Taman Nasional Sembilang","area":2701700096,"sort_rank":24,"source":"openstreetmap.org","min_zoom":4.0,"tier":2,"id":-7775852,"osm_relation":true},"arcs":[[295]]},{"type":"Polygon","properties":{"kind":"park","name":"Taman Nasional Tanjung Puting","area":3466569984,"sort_rank":24,"source":"openstreetmap.org","min_zoom":4.0,"tier":2,"id":-317390,"osm_relation":true},"arcs":[[296]]},{"type":"Polygon","properties":{"kind":"park","name":"Taman Nasional Kepulauan Seribu","area":1089459968,"sort_rank":24,"source":"openstreetmap.org","min_zoom":4.0,"tier":2,"id":-7734319,"osm_relation":true},"arcs":[[297]]},{"type":"Polygon","properties":{"kind":"park","name":"Taman Nasional Way Kambas","area":1309040000,"sort_rank":24,"source":"openstreetmap.org","min_zoom":4.0,"tier":2,"id":-7757736,"osm_relation":true},"arcs":[[298]]}]}},"type":"Topology","transform":{"translate":[101.25,-11.1784018737],"scale":[0.002746582,0.002729102]},"arcs":[[[31,3254],[-11,-3],[-16,-11],[-4,-2]],[[240,3090],[-3,2],[-8,9],[-4,4],[-9,2],[-6,2],[-20,11],[-13,10],[-12,13],[-8,12],[-13,12],[-2,9],[-3,4],[-5,5],[-12,4],[-4,4],[-4,5],[-9,37],[-6,10],[-1,4],[-1,2],[-2,3],[-4,3],[-6,3],[-9,8],[-2,4],[-4,3],[-2,2]],[[68,3277],[-7,-1],[-30,-22]],[[297,3076],[-3,3],[-9,2],[-5,2],[-9,6],[-12,5]],[[259,3094],[-5,0],[-2,-1],[-8,-3],[-4,0]],[[2007,1787],[-3,1],[-4,5],[-5,15],[-10,12],[-6,40],[3,6],[12,9],[2,1]],[[797,3823]],[[3493,1091]],[[859,2294],[-16,-21],[-21,-38],[-5,-39],[-4,-42]],[[2551,3372],[129,-71]],[[1001,4006],[-9,-57]],[[1085,3798],[52,-13]],[[1367,3695],[57,36]],[[1351,3404],[4,-31],[9,-29],[15,-33],[24,-21],[36,-6],[39,-3],[50,-4],[45,-4],[30,-11],[17,-26],[11,-38],[15,-28],[20,-34],[11,-30],[6,-26],[13,-30],[22,-11],[38,-12],[29,-22],[30,-34],[15,-30],[21,-38]],[[1623,1884],[102,103]],[[916,2335],[-11,-12],[-12,-9],[-9,-5],[-14,-10],[-6,-1],[-5,-3],[0,-1]],[[4047,3819],[5,1],[34,13],[9,6],[1,0]],[[3957,3827],[44,-1],[18,-3],[9,-1],[6,0],[9,-3],[4,0]],[[3594,3533],[5,2],[13,14],[6,4],[13,15],[7,7],[10,6],[9,4],[12,8],[8,15],[4,6],[4,2],[7,8],[9,7],[21,10],[6,7],[20,6],[12,7],[5,4],[3,7],[-1,5],[-3,10],[0,5],[1,5],[2,5],[12,14],[8,8],[36,24],[20,10],[5,2],[16,8],[39,26],[32,10],[10,9],[2,7],[2,4],[3,2],[5,1]],[[3569,3539],[4,-1],[4,-1],[4,0],[3,-1],[5,-3],[5,0]],[[3536,3486],[-4,0],[-5,3],[-3,5],[-3,4],[-1,4],[1,3],[2,3],[4,4],[7,10],[7,6],[13,9],[9,2],[6,0]],[[3535,3039],[10,4],[4,1],[3,2],[2,3],[5,9],[6,15],[4,6],[5,4],[21,9],[5,3],[4,3],[3,4],[2,5],[0,6],[-1,6],[-3,7],[-3,5],[-2,4],[-2,5],[-1,11],[-1,34],[2,8],[3,13],[-1,9],[-46,101],[-3,12],[-3,9],[-1,25],[1,7],[11,43],[1,14],[-1,6],[1,6],[3,14],[-1,5],[-2,4],[-3,3],[-2,2],[0,3],[2,9],[0,5],[-1,5],[-2,2],[-3,1]],[[3551,3491],[-1,0],[-3,-1],[-5,-2],[-6,-2]],[[297,3076],[8,-10],[10,-7],[3,-4],[4,-5],[5,-12],[4,-5],[17,-15],[7,-5],[2,-3],[2,-5],[2,-8],[-1,-1],[0,-1],[-2,-1],[-7,0],[-2,-1],[1,-5],[11,-13],[4,-3],[3,0]],[[403,2973],[4,-1],[23,-7],[9,-9],[6,-4],[3,-4],[3,-3],[0,-4],[0,-3],[-3,-7],[-2,-12],[-1,-3],[-2,-2],[-2,-3],[-1,-1],[0,-3],[1,-2],[3,-2],[3,-2],[5,-3],[4,-4],[4,-5],[3,-4],[6,-5],[5,-6],[4,-3],[4,-2],[3,-1],[11,-6],[7,-2]],[[392,2966],[2,1],[4,4],[3,2],[2,0]],[[371,2972],[5,-1],[7,-4],[6,-1],[3,0]],[[368,2972],[3,0]],[[552,2895],[3,-2],[3,-3],[3,-11],[4,-5],[20,-13],[5,-2],[21,-4],[7,-2],[10,-1],[5,-2],[4,-3],[2,-2],[2,-4],[0,-3],[2,-10],[0,-9],[-3,-29],[-5,-7]],[[503,2860],[3,2],[4,2],[12,12],[15,12],[8,4],[7,3]],[[612,2782],[-5,1],[-9,3]],[[598,2786],[-3,0],[-1,-2],[1,-3],[3,-5],[2,-5],[0,-5],[-5,-4],[-7,-6],[-8,-3],[-8,-6],[-43,-40],[-7,-3],[-10,-3],[-10,-2],[3,-5],[9,-7],[4,-5],[4,-6],[5,-4],[13,-9],[4,-5],[9,-14],[5,-3],[6,-4],[17,-7],[4,-1]],[[635,2783],[-9,1]],[[626,2784],[-4,0],[-5,-2],[-5,0]],[[604,2634],[7,-2],[3,-2],[16,-13]],[[585,2629],[6,1],[13,4]],[[674,2624],[2,-1],[6,-4],[2,-1],[3,-2],[2,-3],[2,-12],[10,-22],[2,-8],[2,-30],[5,-8]],[[650,2621],[7,1],[9,0],[4,1],[4,1]],[[645,2622],[5,-1]],[[630,2617],[7,4],[8,1]],[[715,2534],[3,-1],[7,-2],[10,-6],[16,-3],[17,-10],[12,-4],[20,-2],[17,-11],[10,-3]],[[710,2533],[5,1]],[[832,2492],[17,-1],[4,-1],[4,-3],[3,-4],[1,-6],[3,-32],[2,-9],[3,-6],[11,-13],[5,-13],[3,-3],[2,-5],[9,-33],[0,-5],[1,-5],[3,-3],[6,-5],[4,-3],[3,-7]],[[827,2492],[5,0]],[[1496,2703],[-4,2],[-3,3],[-3,9],[-3,4],[-3,0]],[[1480,2721],[-2,-1],[-2,-3],[-1,-3],[-1,-4],[1,-4],[-1,-2],[-1,-2],[-2,-1],[-1,-1],[-1,-1],[0,-2],[0,-6],[-1,-4],[-4,-12],[-2,-3],[-5,-5],[-4,-3],[-4,-1],[-5,0]],[[1586,2609],[-1,1],[0,3],[2,7],[1,3],[0,4],[-2,3],[-1,1],[-3,6],[-1,4],[-3,5],[-5,4],[-3,5],[-4,6],[-4,2],[-4,0],[-2,2],[-1,2],[0,3],[-1,3],[-2,6],[-3,2],[-11,5],[-12,2],[-3,3],[-7,11],[-4,3],[-4,1]],[[1508,2706],[-4,0],[-5,-2],[-3,-1]],[[1444,2663],[-5,2]],[[1439,2665],[-4,0],[-3,-2],[-6,-6],[-3,-3],[-6,-2],[-3,-2],[-2,-4],[0,-3],[0,-8],[-1,-2],[0,-2],[-6,-8],[-2,-3],[0,-1],[1,-2],[4,-4],[0,-2],[-2,-3],[-11,-6],[-3,-3],[-3,-4],[-3,-5],[-2,-5],[-2,-4],[-6,-5],[-4,-4],[-3,-4],[-13,-6],[-18,-3],[-15,-6],[-16,-4],[-60,-27],[-27,-7],[-18,0],[-9,-2],[-22,-10],[-9,-6],[-12,-10],[-4,-5],[-32,-13],[-4,-10],[-2,-10],[1,-11],[5,-26],[0,-5],[0,-7],[-3,-5],[-3,-3],[-2,-2],[-6,-4],[-1,-2],[-1,-6],[-1,-2],[0,-3],[1,-2],[2,-3],[4,-3],[1,-1],[1,-9],[1,-4],[1,-3],[6,-6],[2,-3],[4,-4],[2,-1],[2,-2],[1,-2],[-1,-5],[0,-3],[-6,-11],[-6,-6],[-2,-2],[-4,-1],[-4,0]],[[1604,2592],[-2,2],[-1,4],[0,3],[0,3],[-3,4],[-2,1],[-3,1]],[[1593,2610],[-7,-1]],[[1624,2575],[-4,3],[-2,9],[-3,3],[-3,2]],[[1612,2592],[-8,0]],[[1667,2572],[-14,8]],[[1653,2580],[-9,-2],[-6,-3],[-14,0]],[[1031,2283],[-11,1],[-11,1],[-13,0],[-21,3],[-14,0],[-6,2],[-3,2],[-1,4],[-2,4],[-1,3],[0,4],[1,3],[0,4],[-1,3],[-2,3],[-4,2],[-6,2],[-20,11]],[[1102,2302],[-11,2]],[[1091,2304],[-13,-1],[-20,-14],[-27,-6]],[[206,3674],[-7,3],[-5,4],[1,8],[0,9],[-1,8],[-5,10]],[[72,3467],[5,2],[5,3],[9,14],[7,9],[14,13],[30,23],[8,9],[5,6],[4,12],[0,3],[-2,2],[-2,3],[0,4],[3,10],[1,5],[-6,21],[1,11],[2,7],[3,4],[3,1],[3,0],[3,0],[13,3],[10,4],[7,6],[9,11],[5,8],[3,8],[1,4],[-1,2],[-2,1]],[[213,3676],[-2,-1],[-2,-1],[-3,0]],[[56,3472],[4,-4],[12,-1]],[[0,3464],[56,8]],[[31,3254],[-13,43],[-14,36],[-4,7]],[[1189,3458],[-3,0],[-4,1],[-4,2],[-11,8],[-10,6],[-6,2]],[[1151,3477],[-5,0],[-3,-3],[-3,-2],[-2,-4],[-10,-25],[-4,-4],[-6,-4],[-31,-9],[-22,-3]],[[1195,3461],[-6,-3]],[[1065,3423],[-18,2],[-61,15],[-15,0]],[[971,3440],[-11,-2],[-128,-63],[-5,-4],[3,-7],[-4,-45],[1,-11],[4,-9],[2,-2],[4,-4],[1,-2],[0,-2],[-1,-3],[-4,-3],[-5,-2],[-6,-2],[-14,-1],[-3,-2],[-3,-3],[-1,-5],[0,-3],[0,-3],[4,-18],[1,-10],[0,-2],[-1,-3],[-1,-2],[0,-2],[1,-2],[0,-3],[0,-2],[-1,-2],[-3,-1]],[[801,3215],[-4,0],[-7,4],[-42,40],[-3,6],[-3,8],[-6,14],[-5,5],[-4,4],[-5,1]],[[722,3297],[-6,-2],[-8,-15],[-6,-8],[-3,-8],[0,-6],[3,-4],[3,-3],[4,-5],[2,-5],[1,-6],[0,-4],[-2,-3],[-5,-3],[-16,-6],[-7,-2]],[[643,3223],[-11,1],[-12,4],[-11,2],[-10,3],[-8,1]],[[591,3234],[-4,-1],[-4,-4],[-3,-5],[-1,-7],[0,-4],[3,-4],[3,-3],[3,-3],[1,-4],[-2,-5],[-26,-39],[-4,-6],[-6,-5],[-7,-3],[-4,-1]],[[682,3217],[-9,3],[-20,8]],[[653,3228],[-10,-5]],[[540,3140],[-2,1],[-1,2]],[[537,3143],[-2,-1],[-7,-6],[-7,-5],[-17,-9],[-6,-5],[-3,-5],[-2,-5],[-3,-4],[-6,-2],[-23,-2],[-5,-2],[-6,-1],[-6,0]],[[444,3096],[-8,0],[-10,3],[-8,4],[-17,11],[-19,5],[-14,10]],[[368,3129],[-10,-17],[-20,-12],[-6,-3],[-16,-3],[-4,-3],[-15,-15]],[[0,3834],[29,-26],[38,-22],[21,-23],[12,-8],[20,-7],[34,-7],[18,-6],[4,-2],[3,-2],[4,-4],[1,-2],[2,-2],[3,-7]],[[797,3823],[-4,-1],[-119,-9]],[[674,3813],[-52,4]],[[622,3817],[-15,-1],[-41,-11],[-5,-2],[-4,-3],[-5,-5],[-14,-17],[-3,-3],[-11,-8],[-3,-2],[-3,-5],[-2,-3],[-4,-11],[-4,-5],[-2,-2],[-3,-3],[-11,-7],[-2,-4],[-7,-19],[-5,-6],[-8,-2]],[[470,3698],[-32,7],[-8,3],[-4,3],[-5,6],[-2,3],[-3,2],[-4,2],[-9,2],[-2,1],[-1,2],[-1,3],[-1,3],[-4,5],[-19,17],[-2,3],[-3,9],[-2,4],[-3,3],[-4,2],[-15,4],[-4,0]],[[342,3782],[-4,0],[-5,-1],[-10,-4],[-6,-2],[-18,-2]],[[299,3773],[-21,0]],[[278,3773],[-4,0],[-3,-1],[-4,-1],[-3,-2],[-7,-6],[-8,-7],[-3,-4],[-2,-3],[-2,-4],[-3,-8],[-3,-3],[-3,-3],[-3,-1],[-41,-14]],[[3795,1629],[-2,-2],[-14,-23],[-3,-9],[0,-7],[-6,-33],[-2,-10],[1,-31],[-1,-13],[0,-4],[4,-16],[0,-4],[-1,-2],[-6,-4],[-14,-13],[-6,-7],[-5,-4],[-10,-8],[-8,-4],[-3,-3],[-2,-1],[-2,-2],[-3,-5],[-1,-2],[1,-5]],[[3651,1432],[-5,2],[-7,3],[-9,2]],[[3630,1439],[-6,-6],[-2,-15],[0,-17],[2,-11],[-1,-7],[-6,-46],[5,-19],[3,-7],[4,-5],[-2,-4],[-9,-7],[-2,-3],[0,-2],[1,-2],[1,-3],[0,-7],[1,-6],[7,-3],[12,-1],[4,-2],[4,-3],[10,-11],[3,-4],[3,-4],[1,-6],[-1,-14],[-2,-8],[-6,-16],[-2,-13],[-3,-2],[-3,-3]],[[3712,1417],[-15,3],[-23,8],[-5,3],[-5,3],[-3,0]],[[3661,1434],[-3,0],[-3,-1],[-4,-1]],[[3646,1182],[-4,1],[-3,1],[-3,2],[-3,1]],[[3633,1187],[-4,0],[-9,-7],[-6,-3],[-10,-4],[-18,-11],[-23,-19],[-13,-9],[-7,-6],[-6,-6],[-1,-4],[-1,-3],[1,-8],[0,-3],[-1,-2],[-5,-18],[0,-2]],[[2784,1599],[-1,0],[-26,-30],[-8,-14],[-2,-6],[-2,-18],[0,-11],[1,-6],[-1,-5],[-3,-5],[-4,-4],[-5,-5],[-5,-5],[-9,-7],[-4,-2],[-4,-1],[-10,-1]],[[2701,1479],[-13,2]],[[2688,1481],[-7,0],[-7,-2],[-4,-3],[-3,-5],[-1,-5],[-1,-9],[-8,-28],[2,-12],[9,-2],[9,-2],[3,-6],[2,-3],[4,-1]],[[2699,1406],[2,-1],[1,-5],[2,-8],[2,-1],[4,-1],[4,-2],[2,-3],[1,-3],[1,-5],[2,-16],[8,-27],[0,-5],[0,-5],[-2,-6],[-1,-3],[0,-5],[1,-3],[2,-2],[21,-18]],[[2686,1403],[8,3],[5,0]],[[2066,1758],[6,3],[4,10],[7,25],[3,5],[1,5],[1,5],[0,13],[1,20],[1,23],[-1,1]],[[2007,1787],[5,-3],[1,-3],[2,-3],[2,-2],[5,-3],[4,-4],[4,0]],[[2040,1774],[12,-5],[14,-11]],[[2030,1769],[3,1],[7,4]],[[3396,1230],[-15,4],[-11,10],[-6,10],[-5,13],[-13,56],[-1,3]],[[3345,1326],[-9,-11],[-41,-29],[-5,-5],[-7,-9],[-3,-3]],[[3269,1284],[-3,0],[-22,2]],[[3244,1286],[-9,-3],[-2,-3],[-1,-5],[1,-9],[-2,-8],[-3,-6],[-19,-28],[-5,-6],[-1,-4],[-2,-9]],[[3280,1269],[-1,1],[-1,3],[-1,10],[-2,2],[-2,0]],[[3273,1285],[-2,-1],[-2,0]],[[3481,1114],[-3,2],[-1,4],[-3,64],[-1,10],[-1,17],[-1,4],[-1,3],[-3,4],[-7,4],[-17,3],[-6,2]],[[3437,1231],[-13,-2]],[[3424,1229],[-8,1]],[[3416,1230],[-20,0]],[[3493,1091],[-2,25],[-3,0]],[[3488,1116],[-2,0],[-2,-2],[-3,0]],[[2007,1787],[0,-19],[1,-6],[-9,-6]],[[1908,1759],[-4,2],[-2,5],[-2,5],[-2,3],[-4,0]],[[1894,1774],[-3,-2],[-5,-3],[-3,-7],[2,-7],[2,-9],[0,-9],[-3,-9],[-5,-11],[-2,-12],[8,-63],[3,-9],[3,-5],[12,-3],[5,-3],[7,-6],[-1,-6],[-20,-19],[-14,-25],[-4,-10],[-2,-8],[0,-5],[1,-4],[2,-5]],[[1999,1756],[-40,1],[-11,3],[-7,4],[-8,3],[-10,1]],[[1923,1768],[-6,-3],[-5,-3],[-4,-3]],[[4096,1564],[-5,3],[-5,5],[-6,5],[-8,1],[-2,0],[-2,-3],[-3,-1],[-5,2],[-14,2],[-8,0],[-15,-6],[-8,-1],[-15,0],[-4,-1],[-12,-4],[-15,-2],[-16,0],[-8,1],[-6,5],[-21,28],[-13,12],[-6,2],[-8,-2],[-12,-6],[-8,-3],[-6,0],[-6,2],[-15,2],[-25,6],[-8,4],[-8,6],[-8,8],[-7,6],[-12,15],[-4,4],[-12,5],[-21,4],[-9,6],[-6,-6],[-12,-18],[-6,-4],[-8,-1],[-15,-3],[-8,-1],[-68,8],[-2,0],[-3,0],[-2,2],[-7,13],[-13,39],[-6,13],[-3,14],[-2,5],[-4,4],[-5,3],[0,1],[-3,3],[-3,2],[-2,-2],[-1,-2],[-4,0],[-7,0],[-4,2],[-10,6],[-4,3],[-7,-3],[-23,-3],[-3,-1],[-5,-2],[-4,-2],[-10,-1],[-18,-8],[-5,-3],[-6,-9],[-3,-2],[-8,-2],[4,-8],[-1,-4],[-3,-5],[-2,-7],[-1,-15],[-2,-13],[-4,-17],[-27,-54],[-16,-22],[-15,-15],[-5,-3],[-6,-2],[-8,-1],[-7,-1],[-6,-4],[-6,-3],[-10,1],[-7,4],[-16,11],[-12,4],[-17,8],[-5,3],[-2,4],[0,4],[-2,3],[-4,2],[-2,-2],[-7,-8],[-1,-2],[-4,-3],[-9,-3],[-47,-7],[-16,0],[-16,2],[-62,20],[-71,10],[-14,13],[-20,-22],[-31,-5],[-64,7],[-10,-1],[-2,1],[-10,6],[-9,3],[-14,11],[-4,2],[-8,2],[-7,0],[-3,-6],[-1,-8],[-2,-5],[-6,-2],[-8,-1],[-8,2],[-4,4],[-3,4],[-3,3],[-2,2],[-5,2],[-7,0],[-5,2],[-3,4],[-16,-9],[-16,0],[-16,6],[-15,10],[-21,2],[-11,34],[-13,67],[-19,11],[-5,2],[-7,3],[-30,38],[-3,25],[-1,9],[-8,-1],[-2,-4],[-8,4],[-23,1],[-12,3],[-6,4],[-4,-1],[4,-4],[2,-3],[1,-5],[-1,-5],[-3,-4],[-3,-2],[-2,-1],[-9,-6],[-6,-4],[-4,-1],[-6,0],[-7,0],[-7,3],[-9,3],[-22,10],[-16,7],[-18,12],[0,8],[-4,8],[-3,-2],[-5,-5],[-5,0],[-1,5],[-8,3],[-5,-2],[1,-5],[-1,-3],[-3,0],[-4,1],[-3,1],[-4,-1],[-2,-2],[-8,-3],[-5,-4],[-6,-1],[-6,3],[-8,-4],[-8,5],[-12,14],[-21,1],[-20,7],[-14,7],[-9,15],[-12,15],[-12,20],[-10,12],[-12,5],[-14,3],[-28,-8],[-6,-1],[-7,0],[-7,2],[-5,5],[-4,4],[-4,4],[-12,6],[-13,3],[-9,-4],[2,-12],[-8,-11],[-2,-6],[2,-4],[4,-5],[0,-4],[-2,-5],[-2,-7],[-4,-2],[-2,-1],[-55,-8],[-16,-1],[-15,3],[-5,5],[-2,6],[0,3],[-1,4],[-3,6],[-6,4],[-7,3],[-8,2],[-42,0],[-7,-2],[-6,-5],[-6,-3],[-9,0],[-23,11],[-8,1],[-9,3],[-23,18],[-15,1],[-9,-9],[-8,-12],[-12,-6],[-7,2],[-11,7],[-4,2],[-2,4],[-2,23],[-8,9],[-11,2],[-12,-4],[-9,-9],[-7,-24],[-4,-4],[-3,-2],[-25,-26],[-8,-15],[-10,-30],[-3,-13],[-4,-64],[1,-12],[-5,-15],[-10,-13],[-16,-7],[-10,-1],[-4,5],[-6,3],[-2,13],[-8,1],[-4,-3],[-9,-19],[3,-30],[-2,-6],[-6,-7],[-28,-27],[-4,-7],[-6,-17],[-4,-7],[-7,-2],[-7,2],[-4,5],[-2,6],[-9,15],[0,3],[0,4],[-1,5],[-3,4],[-4,5],[-5,4],[-4,2],[-7,-2],[-3,-5],[-3,-7],[-3,-6],[-10,-11],[-7,-5],[-5,-2],[-12,2],[-3,-1],[-1,-2],[2,-3],[5,-3],[4,-14],[4,-6],[6,-3],[4,1],[2,2],[2,3],[2,7],[3,2],[17,-1],[15,-6],[2,-1],[2,-3],[2,-2],[1,-3],[1,-1],[4,1],[3,2],[1,2],[7,-1],[4,-3],[5,-5],[5,2],[13,-4],[7,6],[16,2],[38,5],[8,-1],[11,-2],[7,-2],[7,2],[11,2],[11,0],[7,2],[4,-5],[5,2],[2,5],[6,2],[7,1],[8,1],[7,0],[10,-2],[17,-5],[26,-22],[16,-7],[12,1],[13,-10],[2,-2],[2,-3],[1,-2],[1,-2],[5,-1],[2,-1],[4,-5],[1,-1],[6,-1],[3,-1],[3,-2],[5,-1],[7,-1],[9,1],[9,3],[1,0],[7,11],[10,3],[11,-5],[10,1],[10,-7],[2,-12],[-1,-14],[-9,-9],[-15,-18],[-6,-6],[6,-8],[-2,-4],[-7,-1],[-6,1],[-7,-4],[-6,-7],[-4,-8],[-2,-7],[1,-7],[-3,-16],[9,-9],[0,-9],[-1,-7],[4,2],[9,4],[10,-1],[7,-4],[16,-13],[31,-2],[66,-6],[30,-1],[85,-7],[15,-4],[12,-3],[12,-4],[12,-1],[19,-3],[23,-3],[18,3],[3,-3],[3,-1],[2,0],[7,-2],[7,-1],[4,-8],[17,-4],[10,-5],[13,-3],[12,-10],[13,-6],[6,-9],[3,-9],[11,-3],[23,-3],[10,-3],[8,-5],[1,-10],[12,-6],[15,2],[18,0],[67,-17],[69,-11],[46,-1],[15,10],[3,10],[1,16],[12,10],[7,2],[24,1],[5,-1],[3,-2],[2,-8],[7,-2],[2,1],[1,3],[-2,7],[3,3],[3,4],[5,2],[4,0],[2,-2],[3,-2],[2,-1],[10,-5],[10,7],[4,3],[2,3],[5,7],[3,3],[9,4],[2,2],[6,1],[3,-8],[3,-17],[4,-4],[6,-2],[7,-1],[9,-1],[4,0],[4,-2],[11,-9],[2,0],[5,4],[5,7],[18,5],[36,-3],[63,-6],[10,-4],[3,-1],[0,-2],[-3,-4],[0,-2],[2,-2],[2,-1],[3,-1],[1,-2],[3,-4],[7,1],[15,4],[62,-7],[35,-11],[21,-5],[13,-5],[13,-3],[9,3],[9,-6],[37,-11],[92,-48],[12,-1],[3,-1],[7,-7],[2,-1],[9,-9],[1,-2],[4,-1],[4,0],[3,0],[24,-13],[7,-2],[10,-1],[10,-3],[19,-9],[0,3],[14,-7],[7,-3],[8,-1],[3,-1],[6,-5],[3,-1],[48,-3],[31,-7],[24,-11],[7,-2],[15,0],[3,1],[2,2],[4,5],[2,3],[1,4],[2,2],[2,1],[3,-3],[0,-5],[2,-5],[4,-2],[4,-1],[4,-1],[2,-3],[1,-4],[2,-4],[3,0],[30,9],[1,2],[4,1],[3,1],[3,-1],[4,-4],[2,-1],[4,1],[19,0],[3,-1],[5,-3],[2,-1],[3,0],[7,2],[3,0],[6,-3],[0,-3],[0,-4],[2,-6],[25,-6],[6,1],[5,4],[5,0],[13,-7],[6,-1],[4,5],[2,0],[4,-7],[5,-6],[7,-3],[8,-1],[4,1],[2,2],[-1,3],[-5,3],[1,3],[2,4],[1,1],[2,8],[2,3],[3,2],[4,-2],[2,-5],[2,-4],[1,-2],[7,2],[1,6],[0,7],[3,8],[4,2],[4,-1],[3,-2],[4,-2],[4,-1],[10,1],[5,-2],[9,-8],[7,-2],[3,0],[2,1],[2,2],[9,6],[3,0],[12,-7],[8,-3],[67,-7],[7,-2],[2,-2],[1,-1],[3,-2],[5,0],[10,4],[3,1],[8,0],[9,-1],[9,-4],[7,-5],[-1,-2],[-2,-3],[8,-1],[6,-2],[4,-3],[6,-2],[21,0],[0,-1021],[-4096,0],[0,3115],[5,-2],[13,-9],[10,-12],[30,-53],[4,-16],[53,-86],[7,-5],[10,-18],[9,-9],[87,-63],[69,-47],[57,-34],[4,-6],[3,-7],[0,-13],[1,-5],[2,-4],[3,-3],[2,-4],[0,-3],[-1,-2],[0,-4],[1,-4],[4,-6],[11,-13],[2,-7],[-1,-7],[-7,-12],[-2,-5],[3,-13],[8,-10],[10,-7],[9,-5],[59,-46],[63,-44],[64,-55],[5,-7],[5,-14],[6,-5],[47,-19],[45,-27],[41,-36],[7,-7],[4,-15],[5,-7],[6,-2],[5,5],[7,-4],[3,-3],[2,-3],[6,-17],[2,-3],[4,-1],[4,2],[5,2],[4,2],[5,0],[5,-1],[4,-2],[4,-2],[3,-3],[5,-5],[4,-2],[2,-2],[0,-1],[2,-2],[3,0],[8,0],[3,0],[9,-4],[5,-5],[8,-16],[7,6],[3,2],[4,2],[5,-2],[4,-2],[4,-3],[2,-1],[1,-2],[-4,-11],[1,-3],[3,-3],[5,-1],[9,0],[7,-1],[5,-4],[9,-10],[22,-13],[6,-7],[1,-3],[1,-3],[0,-8],[-1,-4],[-5,-7],[-1,-4],[2,-6],[7,-2],[8,0],[8,-1],[4,-2],[6,-5],[4,-6],[-1,-6],[-4,-7],[2,-6],[16,-16],[27,-33],[5,-5],[7,-5],[12,-3],[3,-4],[1,-4],[2,-3],[5,-3],[3,-1],[3,0],[4,-1],[8,-5],[16,-17],[5,-7],[-9,-7],[3,-7],[25,-15],[6,-3],[24,-22],[3,-7],[2,-4],[6,-3],[3,-2],[19,-17],[5,-6],[2,-9],[-2,-13],[3,-3],[50,-1],[4,1],[2,2],[-1,4],[-4,9],[-2,15],[-3,14],[-57,91],[-1,7],[2,6],[6,6],[6,2],[7,1],[9,0],[-1,6],[-1,1],[2,0],[4,-4],[7,-3],[14,-3],[7,-3],[4,-4],[21,-24],[8,-6],[18,-6],[22,-17],[63,-28],[16,-13],[5,-2],[12,1],[7,1],[7,3],[5,6],[-5,2],[-9,1],[-7,3],[-1,6],[7,4],[10,3],[5,3],[-1,2],[-2,2],[-3,3],[-1,4],[0,10],[-3,9],[-3,7],[0,6],[8,4],[6,-2],[4,0],[2,1],[1,1],[4,11],[-1,1],[4,7],[-4,14],[2,8],[10,5],[11,-8],[24,-33],[8,-9],[19,-16],[12,-13],[4,-2],[3,-1],[2,-2],[3,-1],[4,-1],[1,1],[4,5],[2,2],[8,-8],[5,-12],[2,-29],[6,-7],[28,-3],[12,-5],[2,-6],[0,-14],[4,-4],[1,3],[12,12],[6,10],[4,12],[5,29],[2,8],[6,15],[2,8],[0,15],[-4,23],[5,14],[1,8],[-2,31],[2,17],[9,30],[1,16],[-2,32],[2,31],[5,12],[6,12],[5,12],[-1,12],[-13,22],[-2,9],[1,16],[4,31],[4,7],[5,3],[-5,18],[-1,7],[1,6],[4,7],[2,7],[-3,13],[2,15],[-1,7],[-2,-1],[0,-1],[-1,-1],[-6,13],[-4,4],[-5,3],[2,9],[-5,10],[-6,10],[-3,9],[-2,10],[-1,13],[6,29],[1,7],[9,25],[2,13],[3,12],[24,34],[6,15],[0,13],[-7,12],[-30,21],[-9,12],[-2,14],[22,81],[7,17],[11,15],[12,13],[12,11],[24,12],[4,4],[0,4],[2,8],[0,4],[-1,4],[-4,8],[-2,3],[-2,16],[0,30],[-3,12],[-6,11],[-5,5],[-5,2],[-4,1],[-6,3],[-4,1],[-4,0],[-7,-2],[-4,-1],[-16,3],[-14,7],[-11,12],[-6,13],[1,51],[-6,12],[-4,2],[-4,1],[-9,0],[-4,1],[-7,3],[-11,3],[-6,5],[-6,7],[-4,6],[-4,7],[-2,8],[-1,8],[-1,8],[2,9],[6,15],[2,8],[0,10],[-4,5],[-5,2],[-7,0],[-4,-2],[-5,-5],[-6,-2],[-4,4],[2,0],[2,0],[1,0],[0,3],[-6,2],[-9,2],[-16,1],[-31,5],[-18,0],[-9,2],[-14,8],[-8,2],[-8,-1],[-8,-1],[-23,-11],[-8,-1],[-2,1],[-5,4],[-4,2],[-4,0],[-8,-2],[-3,0],[-6,3],[-5,5],[-5,5],[-8,2],[-8,-1],[-6,-3],[-4,-6],[-1,-8],[-6,5],[-1,9],[0,9],[-3,7],[-6,3],[-8,-2],[-6,-5],[-5,-15],[-6,-8],[-11,-11],[-5,-7],[-1,-5],[1,-16],[-1,-8],[-7,-24],[-6,-11],[-11,-7],[-25,-12],[-12,-8],[-6,-5],[-2,-6],[-2,-8],[-4,-8],[-6,-8],[-5,-5],[0,4],[1,2],[1,-1],[-1,15],[5,12],[8,11],[12,11],[11,7],[4,2],[6,1],[7,3],[7,3],[3,3],[2,6],[0,17],[5,12],[1,9],[0,16],[-7,14],[-13,0],[-25,-11],[6,5],[13,9],[5,4],[5,2],[15,1],[6,1],[5,4],[26,31],[11,17],[6,13],[3,14],[-3,17],[-9,15],[-13,11],[-15,4],[-16,-5],[-7,-7],[-2,-1],[-2,0],[-1,-2],[-1,-2],[-1,-1],[-2,1],[-1,1],[-1,0],[-1,1],[-5,3],[-1,6],[-1,9],[-1,7],[-5,-4],[-8,-11],[-5,-3],[-6,0],[-1,2],[3,4],[3,3],[4,6],[5,11],[3,10],[-5,4],[-6,4],[-7,8],[-8,7],[-10,2],[-4,-5],[-5,-19],[-6,-6],[-4,9],[-1,5],[0,6],[2,7],[9,15],[2,4],[5,10],[2,4],[0,4],[-1,7],[-1,3],[-5,16],[-14,27],[-6,15],[-3,16],[0,56],[-2,23],[-2,4],[-11,12],[-1,3],[-4,12],[-1,14],[5,24],[-11,32],[-1,3],[-21,-1],[-21,-6],[-3,-2],[-15,-6],[-9,2],[-23,13],[-6,1],[-19,0],[-6,3],[-7,5],[-24,11],[-5,-2],[-15,-3],[-8,-3],[-8,-5],[-6,-7],[-4,-15],[-3,3],[-6,14],[-4,6],[-5,4],[-6,2],[-9,1],[-5,2],[-8,9],[-5,4],[-14,2],[-2,2],[-2,4],[-2,3],[-8,3],[-3,3],[-2,3],[-2,3],[-1,1],[-1,3],[-1,1],[-1,0],[-5,-1],[-1,1],[-5,4],[-5,12],[-4,5],[-7,4],[-8,0],[-16,-3],[2,5],[6,6],[2,6],[-2,3],[-5,3],[-4,2],[-1,0],[-13,2],[-9,5],[-7,5],[-4,6],[9,1],[6,4],[1,6],[-6,4],[0,3],[7,5],[6,10],[3,11],[-1,9],[-3,4],[-8,6],[-1,4],[-3,23],[6,-15],[4,-7],[6,-3],[36,7],[11,4],[10,5],[7,7],[2,7],[-3,4],[-14,9],[-8,1],[-4,3],[-3,2],[-3,2],[-3,1],[-4,1],[-19,0],[-5,-1],[-6,-3],[-8,2],[-12,5],[0,2],[23,4],[10,4],[4,8],[3,10],[14,13],[3,9],[-5,6],[-11,-2],[-12,-6],[-10,-3],[-6,-2],[-11,-4],[-7,-2],[-6,1],[-10,2],[-6,0],[11,7],[41,8],[10,5],[9,7],[6,9],[2,10],[2,5],[5,1],[13,0],[5,1],[7,3],[4,3],[-3,8],[0,4],[2,4],[0,3],[-1,2],[-3,0],[-2,1],[-1,4],[1,2],[3,2],[4,1],[2,0],[3,-2],[4,-8],[3,-2],[3,-2],[3,0],[3,1],[5,1],[2,1],[0,7],[3,2],[31,2],[8,-1],[4,0],[4,2],[2,3],[263,0],[-2,-3],[-2,-30],[-3,-9],[-6,-8],[-14,-12],[-5,-2],[-2,-2],[0,-4],[0,-5],[1,-4],[3,-2],[4,-1],[9,0],[6,-2],[3,-3],[4,-5],[1,-3],[1,-2],[2,-2],[4,0],[4,1],[4,5],[3,2],[3,3],[2,1],[6,-2],[2,0],[4,1],[8,6],[6,3],[6,1],[15,1],[8,-2],[6,-4],[4,-6],[6,-5],[19,-9],[7,-7],[5,-2],[6,-1],[20,-9],[-2,7],[-4,5],[-1,5],[7,3],[8,-1],[9,-4],[7,-1],[4,5],[-31,16],[-18,26],[-11,10],[-8,-3],[-2,-8],[0,-6],[-2,-3],[-10,-1],[-8,3],[-4,6],[-7,16],[-11,12],[-5,3],[-3,-1],[-3,-2],[-4,-1],[-2,1],[-2,2],[-2,3],[0,3],[12,3],[-2,4],[-20,18],[-4,2],[1656,0],[0,-3],[1,-6],[7,-11],[3,-10],[1,-20],[-1,-15],[1,-4],[3,-5],[7,-7],[3,-6],[-3,0],[-6,5],[-9,4],[-11,3],[-10,1],[-12,-2],[-6,-2],[-3,-1],[-4,-5],[-1,-6],[1,-6],[6,-3],[0,6],[4,1],[4,-1],[5,-1],[0,-3],[-4,-8],[4,-10],[12,-17],[-8,0],[-4,0],[-1,-3],[1,-15],[8,-33],[2,-6],[3,-5],[8,-7],[4,-3],[3,0],[3,1],[4,1],[3,0],[2,0],[1,-1],[4,-2],[1,-1],[1,-3],[1,-2],[6,-2],[2,-3],[2,-1],[6,2],[24,1],[11,-1],[10,-4],[8,-6],[0,-2],[-6,0],[-12,2],[-7,0],[0,-2],[2,-2],[1,-2],[2,-1],[-3,-2],[-2,-1],[0,-2],[3,-2],[6,0],[4,-1],[8,-3],[8,-6],[3,-3],[7,-9],[3,-2],[10,2],[3,-2],[1,-3],[-3,-2],[-8,-2],[-4,0],[-2,1],[-2,1],[-10,2],[-11,8],[-6,3],[-25,0],[-6,4],[-7,6],[-6,0],[-4,-3],[-2,-7],[10,-58],[4,-3],[13,-8],[3,0],[3,-2],[15,-7],[5,-1],[6,0],[4,3],[2,7],[-1,4],[-2,2],[-1,3],[3,3],[3,2],[3,0],[19,-2],[13,-4],[13,-5],[7,-7],[7,-19],[2,-4],[4,1],[3,1],[2,0],[7,-5],[10,-6],[10,8],[4,5],[1,8],[1,8],[1,5],[4,4],[11,3],[0,-1],[-2,-5],[-3,-5],[-3,-3],[-3,-3],[-1,-6],[1,-8],[2,-5],[7,-8],[6,-10],[4,-6],[9,-4],[4,-11],[5,-4],[8,0],[4,0],[9,-5],[2,0],[9,-1],[4,-4],[1,-5],[-5,-17],[-1,-10],[3,-8],[8,-3],[-1,-7],[6,-6],[9,-3],[7,-1],[8,-3],[5,-7],[6,-15],[4,-16],[-1,-16],[-10,-47],[-1,-24],[-2,-7],[-11,-24],[-3,-7],[-5,-3],[-5,-2],[-17,-9],[-4,-4],[0,-4],[0,-4],[2,-2],[3,-2],[-2,-1],[-3,-3],[-2,-1],[18,-18],[5,-2],[7,-2],[17,-9],[12,-3],[3,-1],[6,-10],[2,-4],[10,-24],[2,-16],[-4,-16],[-5,-15],[-3,-16],[-1,-7],[1,-7],[3,-6],[5,-3],[5,-3],[3,-8],[5,-32],[1,-16],[1,-6],[15,-26],[7,-9],[10,-3],[12,8],[-6,-14],[-12,0],[-12,2],[-5,-9],[-2,-5],[-7,-8],[-1,-3],[4,-5],[13,-2],[3,-5],[1,-6],[3,-12],[2,-15],[6,-16],[1,-11],[-4,-11],[-6,-11],[-6,-7],[7,-13],[6,-15],[9,-11],[13,1],[38,29],[38,17],[15,2],[14,-3],[10,-12],[5,-15],[2,-9],[1,-7],[2,-9],[0,-4],[-1,-3],[-3,-1],[-2,-1],[1,-4],[12,-10],[13,7],[29,37],[6,6],[6,3],[7,1],[18,6],[6,3],[14,9],[8,2],[3,-7],[-3,-1],[-31,-13],[-12,-3],[-12,-5],[-11,-10],[-4,-4],[-3,-6],[-1,-5],[6,-2],[13,0],[7,-2],[30,-17],[13,-3],[16,2],[27,9],[86,46],[10,4],[14,1],[31,-3],[14,-4],[10,-8],[3,-6],[1,-6],[3,-6],[7,-2],[6,1],[6,2],[23,18],[16,5],[1,2],[3,-1],[1,2],[-1,3],[-1,1],[-2,1],[-3,3],[-2,1],[-2,1],[-2,3],[1,3],[2,3],[2,2],[1,1],[1,2],[3,2],[4,3],[2,4],[-1,5],[-2,17],[2,5],[4,6],[6,5],[5,3],[0,-7],[-6,-10],[-1,-7],[1,-4],[3,-1],[2,-1],[1,-2],[0,-16],[3,-14],[22,-41],[4,-16],[-5,-30],[-1,-17],[10,-63],[0,-8],[-3,-23],[-2,-8],[-8,-16],[0,-8],[5,-4],[17,-6],[7,-3],[6,-1],[10,5],[15,12],[53,53],[31,19],[36,6],[17,-4],[15,-6],[40,-29],[0,-1279]],[[1626,272],[-4,2],[-7,-4],[-6,-5],[-5,-5],[-10,0],[-8,4],[-4,1],[0,-4],[2,-5],[-3,-7],[-4,-2],[1,-4],[8,2],[8,0],[8,-1],[5,-2],[1,-6],[3,-5],[1,-7],[6,1],[2,4],[-1,9],[3,5],[0,8],[2,9],[1,7],[1,5]],[[2837,1246],[2,4],[-2,2],[-7,0],[-1,1],[-3,3],[-20,11],[-12,4],[-18,2],[-19,9],[-6,-2],[-3,-6],[-1,-7],[2,-5],[5,-1],[16,2],[5,-2],[5,-3],[22,-3],[19,-7],[10,-2],[4,-1],[2,1]],[[1569,1530],[-9,2],[-2,0],[-1,-1],[-2,-1],[-1,-3],[11,-3],[6,3],[-2,3]],[[1662,1548],[-2,1],[-5,-1],[-3,-2],[-4,-1],[-5,-2],[3,-3],[3,1],[3,1],[3,1],[3,2],[4,3]],[[1440,1651],[6,9],[7,2],[6,5],[2,13],[1,15],[0,9],[-4,0],[-5,0],[-3,-1],[-1,-3],[-2,1],[-3,-1],[-4,-2],[-3,-4],[-3,3],[-18,-15],[-8,-9],[1,-7],[4,2],[16,16],[3,-9],[2,-4],[5,-2],[-3,-5],[-3,-7],[-1,-6],[3,-2],[5,2]],[[376,2081],[4,8],[2,2],[2,0],[3,0],[3,0],[1,1],[3,-1],[17,-4],[4,2],[-3,4],[-4,5],[-2,4],[8,4],[5,5],[2,5],[-4,10],[-11,6],[-22,6],[-7,8],[-4,3],[-5,2],[-7,1],[-5,1],[-10,6],[-10,2],[-9,-3],[-18,-17],[11,-5],[43,-34],[4,-6],[5,-11],[4,-4]],[[3350,1943],[5,7],[0,6],[-2,3],[-10,-2],[-4,-2],[0,-3],[2,-4],[1,-4],[3,-3],[5,2]],[[3357,1958],[3,-1],[1,1],[0,2],[4,2],[0,2],[-1,3],[-1,1],[-3,2],[0,4],[1,5],[-4,-3],[-6,-8],[-1,-3],[4,2],[2,-2],[1,-1],[2,2],[-1,2],[1,-1],[1,-3],[-4,-4],[1,-2]],[[3277,1988],[0,5],[0,2],[-2,0],[-2,0],[-2,-2],[0,-3],[2,-3],[2,-4],[3,2],[1,1],[-2,2]],[[2286,2907],[1,2],[2,2],[2,4],[0,2],[2,1],[0,1],[1,1],[-2,2],[-3,1],[-4,2],[-3,-1],[-1,-7],[1,-9],[2,-4],[1,2],[1,1]],[[2313,2913],[10,-5],[10,3],[10,13],[25,0],[22,11],[10,8],[0,14],[-6,10],[0,5],[7,3],[5,1],[2,1],[2,1],[5,-3],[2,-4],[1,-3],[0,-3],[-1,0],[19,-18],[9,-6],[2,-7],[0,-17],[4,-8],[4,-1],[7,2],[9,2],[10,0],[4,2],[0,13],[1,7],[5,4],[6,1],[9,0],[7,2],[13,6],[8,0],[-2,4],[-6,5],[-1,2],[0,4],[2,3],[2,2],[1,1],[0,4],[3,7],[1,3],[0,4],[-2,5],[0,4],[4,10],[15,19],[3,10],[2,3],[3,4],[4,5],[2,6],[-1,8],[-6,12],[-3,14],[-25,29],[-6,1],[-7,-3],[-2,6],[-3,6],[-5,4],[-6,2],[-2,1],[-3,7],[-3,1],[-11,5],[-5,-3],[-3,-4],[-2,-10],[-3,0],[-6,19],[-4,4],[-6,2],[-19,4],[-6,-2],[-13,1],[-13,6],[-5,9],[-6,-3],[-10,-8],[-6,-2],[-6,0],[-11,2],[-5,1],[-15,-4],[-6,-8],[-6,-37],[1,-23],[-2,-4],[-5,-4],[-5,-4],[-5,-2],[4,-9],[1,-12],[-2,-10],[-7,-4],[-5,-1],[-4,-3],[-4,-4],[0,-5],[2,-4],[3,0],[9,4],[7,1],[2,-1],[-1,-13],[-1,-4],[-7,-8],[-2,-5],[0,-4],[2,-4],[1,-3],[2,-4],[0,-4],[0,-4],[0,-5],[1,-3],[10,-8],[2,-3],[2,-1],[2,-2],[0,-2],[0,-2],[-13,-16],[-4,-11],[3,-8]],[[1923,2958],[8,4],[1,-1],[4,-2],[2,10],[10,2],[20,-4],[2,-1],[2,-3],[2,-1],[6,3],[2,-1],[2,-1],[3,-1],[4,2],[4,3],[2,2],[3,-2],[3,3],[-1,2],[-4,5],[3,6],[0,6],[-3,6],[-6,2],[-6,1],[-2,3],[-2,3],[-4,3],[-3,2],[-5,0],[-4,1],[-13,8],[-4,12],[3,14],[23,63],[17,26],[6,5],[6,2],[4,1],[12,7],[4,1],[4,-1],[2,0],[3,3],[0,5],[-7,2],[-17,0],[-7,1],[-24,9],[-47,8],[-41,14],[-4,0],[-4,-5],[-8,2],[-10,3],[-6,4],[-12,11],[-11,14],[-9,15],[-24,64],[-13,63],[0,16],[4,23],[2,4],[-2,3],[-19,22],[0,3],[1,4],[1,4],[-4,2],[-4,1],[-3,2],[-1,3],[-1,5],[0,3],[-2,2],[-3,2],[-2,2],[-1,3],[-2,6],[-2,3],[-2,2],[-4,2],[-3,3],[-1,5],[0,15],[1,4],[4,3],[0,4],[-1,4],[-3,3],[-17,12],[-3,1],[-8,0],[-4,0],[-3,1],[-4,6],[-2,6],[-3,3],[-7,2],[-7,0],[-15,-10],[-9,-3],[-33,1],[-8,-3],[4,-4],[3,-4],[3,-5],[2,-5],[1,-3],[1,-6],[1,-4],[6,-10],[1,-1],[-2,-14],[0,-7],[3,-7],[12,-12],[4,-7],[3,-7],[-10,0],[-2,0],[-2,2],[-3,7],[-2,1],[-7,-1],[-5,-2],[-4,0],[-7,3],[-5,4],[-7,6],[-5,6],[1,6],[14,13],[4,5],[-10,3],[-10,6],[-7,7],[-3,8],[0,9],[-3,10],[-6,5],[-11,-2],[-4,-4],[-3,-3],[-3,-2],[-7,-2],[-17,1],[-4,-2],[-15,-15],[-2,-1],[-5,0],[-2,0],[-2,-2],[-2,-6],[-1,-2],[-4,-2],[-4,-1],[-3,-2],[-2,-4],[2,-7],[0,-3],[-3,-1],[-3,-3],[8,-6],[14,-9],[3,-16],[-10,-15],[-28,-19],[-42,-15],[-10,-7],[-7,-11],[-4,-14],[1,-15],[7,-13],[5,2],[6,2],[13,1],[6,-2],[14,-6],[1,-3],[8,-11],[2,-2],[3,-1],[18,5],[24,0],[7,-1],[3,0],[8,6],[7,3],[19,6],[8,6],[5,-4],[6,-10],[4,-4],[4,-1],[11,-1],[2,0],[4,2],[2,0],[2,-1],[3,-3],[2,-1],[22,-3],[6,-2],[5,-3],[4,-3],[2,-5],[1,-10],[0,-13],[1,-4],[3,-7],[2,-6],[3,-6],[1,-3],[0,-5],[-2,-10],[3,-18],[11,-9],[14,-6],[12,-7],[5,-16],[-4,-15],[-7,-16],[-4,-16],[2,-17],[5,-15],[24,-39],[5,-3],[26,-2],[8,-2],[75,-26],[18,-18],[7,-2],[17,0],[7,-2],[4,-3],[5,-9],[2,-4],[8,-5],[4,-4],[2,-4],[1,-8],[4,-8],[5,-4]],[[1656,3215],[-4,2],[-3,-1],[1,-1],[1,-4],[1,-3],[1,2],[3,2],[0,3]],[[2783,3534],[-2,-2],[-4,-3],[-17,-3],[-9,-3],[-5,-6],[4,-2],[7,1],[2,-1],[1,-3],[1,-4],[-1,-4],[-2,-3],[-1,-3],[1,-5],[1,-4],[1,-2],[10,-1],[4,1],[23,8],[6,3],[3,5],[3,5],[1,6],[-1,5],[-3,4],[-10,7],[-5,2],[-6,2],[-2,0]],[[2704,3468],[17,-2],[13,1],[7,5],[-8,3],[-12,0],[-12,-2],[-5,-5]],[[2245,3073],[-3,-1],[-3,1],[-2,-2],[-2,-1],[-2,-2],[2,0],[1,0],[2,0],[2,-1],[0,-2],[-4,-1],[-1,0],[-2,0],[-1,-3],[3,-3],[5,-1],[7,4],[3,1],[1,3],[-1,2],[-1,1],[-4,5]],[[2260,3061],[-11,-4],[-10,-6],[-2,-6],[-5,-3],[-5,-2],[-7,2],[-2,-4],[10,-7],[11,-12],[4,-3],[6,8],[13,4],[7,6],[5,8],[3,8],[-2,3],[-2,3],[1,5],[-4,2],[-10,-2]],[[2249,3016],[-1,-1],[0,-3],[2,-1],[1,2],[1,-1],[-2,-4],[-1,-3],[1,0],[1,-1],[0,-1],[2,1],[-1,-1],[1,-2],[2,0],[2,2],[2,1],[0,2],[1,0],[1,1],[0,1],[1,1],[0,2],[0,2],[0,2],[1,0],[1,2],[-2,7],[-3,-1],[-2,-1],[-3,-1],[-3,-2],[-2,-3]],[[2280,3006],[1,-5],[2,-6],[1,3],[2,4],[0,2],[0,1],[0,2],[-2,1],[-4,-2]],[[2054,2999],[9,16],[-3,7],[-7,4],[-16,3],[-7,3],[-5,4],[-7,-1],[-7,-4],[-9,-6],[-1,-1],[-3,-7],[-1,-1],[-3,-3],[-1,-4],[12,-4],[15,-12],[6,-3],[17,-4],[2,1],[10,3],[-1,9]],[[2000,3036],[1,3],[-1,2],[-2,1],[0,2],[-2,-1],[0,-3],[-5,-2],[0,-5],[4,-2],[2,1],[3,4]],[[2106,3038],[4,-3],[5,-2],[4,-2],[5,-1],[3,2],[2,7],[1,9],[-5,7],[-3,6],[-2,2],[-3,-1],[-1,-2],[-1,-2],[-5,-3],[-5,-7],[-5,-7],[6,-3]],[[2040,3052],[-6,2],[-2,-4],[7,-2],[1,4]],[[3212,3085],[2,0],[5,0],[9,4],[1,1],[1,1],[-1,3],[0,2],[-1,2],[0,7],[1,2],[-1,5],[-1,2],[-4,2],[-1,0],[-2,-1],[-6,-7],[-2,-2],[-3,-9],[-2,-3],[-4,-3],[-1,-1],[10,-5]],[[3235,3034],[2,-2],[3,1],[2,-1],[4,-4],[2,0],[3,1],[3,0],[3,1],[1,4],[0,4],[-3,5],[-3,3],[-1,2],[-3,1],[-3,-1],[-2,-5],[-8,-7],[0,-2]],[[2874,3615],[12,13],[2,4],[-4,3],[-4,1],[-6,-7],[-4,-1],[-4,0],[-3,-1],[-2,-2],[-2,-3],[-1,-3],[3,-1],[3,0],[0,2],[2,0],[2,1],[2,0],[1,-5],[1,-2],[2,1]],[[2991,3622],[5,-2],[9,3],[12,12],[12,4],[12,6],[26,12],[5,1],[4,2],[17,13],[8,3],[4,2],[1,3],[-1,4],[-3,2],[-3,2],[-1,2],[0,27],[-3,6],[-4,6],[-6,4],[-7,2],[-3,-2],[-3,-3],[-5,-3],[-6,0],[-6,3],[-13,8],[-6,1],[-4,-1],[-8,-5],[-4,-1],[-7,1],[-12,3],[-6,1],[-6,-3],[-3,-7],[-2,-60],[-9,-23],[-1,-9],[3,-4],[7,-6],[7,-4]],[[2918,3665],[-4,3],[-2,-1],[-2,-1],[-7,-7],[-1,-2],[-1,-3],[0,-5],[2,-3],[4,1],[4,3],[3,2],[2,3],[2,6],[0,4]],[[1127,3884],[4,-30],[7,0],[3,3],[4,14],[9,14],[10,-4],[11,-10],[12,0],[4,6],[2,18],[3,7],[14,11],[7,6],[2,7],[-2,6],[-16,18],[-3,3],[-3,6],[-3,3],[-2,1],[-8,3],[-3,2],[-7,6],[-19,-18],[-12,-7],[-9,5],[-2,0],[-2,-7],[-1,-8],[-2,0],[-2,9],[4,15],[-2,6],[-3,0],[-3,-7],[-4,-5],[-10,-8],[-3,-4],[-5,-13],[-3,-5],[0,-5],[21,-21],[5,1],[4,-5],[3,-13]],[[1084,3949],[-1,2],[-3,-2],[-2,0],[-3,3],[-2,0],[-3,-1],[0,-2],[2,-7],[3,-3],[5,0],[2,2],[2,8]],[[1085,3959],[-3,2],[-3,-1],[-4,-1],[0,1],[-2,1],[-3,1],[-3,0],[-1,-1],[-1,-3],[2,-3],[2,-1],[5,-1],[6,0],[3,0],[2,2],[0,4]],[[877,3962],[4,1],[10,5],[6,1],[13,-1],[3,1],[3,8],[-4,9],[-7,7],[-8,4],[-16,3],[-7,3],[-4,5],[-4,2],[-20,4],[-6,0],[-13,-7],[-13,-16],[-9,-17],[0,-12],[11,2],[20,-8],[8,2],[4,2],[5,-2],[4,-3],[3,-1],[5,1],[9,5],[3,2]],[[1305,4078],[4,-4],[5,-3],[4,-2],[2,-3],[-2,5],[-1,2],[-1,1],[-3,1],[-1,2],[-3,3],[-4,2],[0,-4]],[[1261,4072],[-5,4],[-1,-3],[5,-4],[5,-5],[-4,8]],[[1087,3973],[-1,2],[-4,-3],[0,-3],[3,-3],[1,-1],[1,1],[1,5],[-1,2]],[[1064,3967],[-6,5],[-2,-1],[-3,-2],[0,-3],[2,-3],[3,-1],[2,3],[2,1],[2,1]],[[1172,3982],[4,0],[2,0],[3,1],[1,4],[0,3],[-1,3],[-2,3],[-3,1],[-21,-3],[-6,-2],[-2,-5],[2,-5],[5,-3],[10,0],[3,0],[5,3]],[[1077,3716],[1,-2],[-1,-2],[0,-5],[8,3],[3,7],[-11,-1]],[[1559,1951],[-3,2],[-2,-1],[-2,-4],[-2,2],[-3,-1],[0,-1],[1,-3],[-4,-4],[3,-3],[1,-5],[7,3],[2,0],[0,3],[1,2],[0,2],[2,2],[2,2],[-3,0],[-2,3],[2,1]],[[1472,1971],[-3,2],[-2,-4],[-2,-3],[-3,1],[-4,-2],[-2,-1],[-1,1],[-5,-3],[-2,-2],[1,-1],[0,-1],[3,1],[13,-3],[3,1],[3,5],[4,1],[1,2],[-1,2],[-2,3],[-1,1]],[[1306,1963],[3,4],[2,10],[-2,4],[-5,4],[-2,1],[-7,1],[-7,5],[-4,0],[-2,-4],[0,-3],[2,-4],[5,-6],[11,-9],[6,-3]],[[1449,2014],[1,2],[1,3],[1,1],[-2,1],[-1,1],[-3,0],[-1,1],[-3,-2],[-1,-3],[0,-3],[0,-1],[2,-1],[2,-1],[2,0],[2,2]],[[1537,1924],[-3,-3],[-1,-2],[-1,-2],[1,-3],[1,-3],[4,-2],[5,-1],[5,2],[3,5],[1,3],[-1,1],[0,3],[-2,2],[-4,2],[-4,0],[-4,-2]],[[1669,1914],[0,-1],[2,0],[3,-4],[1,-4],[1,2],[2,0],[1,6],[-2,5],[-7,-1],[-3,-2],[2,-1]],[[1494,1857],[3,-2],[2,3],[3,1],[7,5],[1,2],[1,3],[-3,2],[-2,0],[3,2],[-2,3],[-1,-3],[-5,-7],[-4,-5],[-3,-4]],[[1525,1847],[-4,-3],[-3,2],[-2,-2],[0,-3],[3,-3],[5,-2],[7,-2],[1,4],[1,6],[-1,3],[-1,1],[-2,-1],[-3,1],[-1,-1]],[[1780,1923],[4,-5],[3,2],[1,1],[-1,3],[-2,1],[-5,-2]],[[2879,4096],[0,-3],[1,-6],[7,-11],[3,-10],[1,-20],[-1,-15],[1,-4],[3,-5],[7,-7],[3,-6],[-3,0],[-6,5],[-9,4],[-11,3],[-10,1],[-12,-2],[-6,-2],[-3,-1],[-4,-5],[-1,-6],[1,-6],[6,-3],[0,6],[4,1],[4,-1],[5,-1],[0,-3],[-4,-8],[4,-10],[12,-17],[-8,0],[-4,0],[-1,-3],[1,-15],[8,-33],[2,-6],[3,-5],[8,-7],[4,-3],[3,0],[3,1],[4,1],[3,0],[2,0],[1,-1],[4,-2],[1,-1],[1,-3],[1,-2],[6,-2],[2,-3],[2,-1],[6,2],[24,1],[11,-1],[10,-4],[8,-6],[0,-2],[-6,0],[-12,2],[-7,0],[0,-2],[2,-2],[1,-2],[2,-1],[-3,-2],[-2,-1],[0,-2],[3,-2],[6,0],[4,-1],[8,-3],[8,-6],[3,-3],[7,-9],[3,-2],[10,2],[3,-2],[1,-3],[-3,-2],[-8,-2],[-4,0],[-2,1],[-2,1],[-10,2],[-11,8],[-6,3],[-25,0],[-6,4],[-7,6],[-6,0],[-4,-3],[-2,-7],[10,-58],[4,-3],[13,-8],[3,0],[3,-2],[15,-7],[5,-1],[6,0],[4,3],[2,7],[-1,4],[-2,2],[-1,3],[3,3],[3,2],[3,0],[19,-2],[13,-4],[13,-5],[7,-7],[7,-19],[2,-4],[4,1],[3,1],[2,0],[7,-5],[10,-6],[10,8],[4,5],[1,8],[1,8],[1,5],[4,4],[11,3],[0,-1],[-2,-5],[-3,-5],[-3,-3],[-3,-3],[-1,-6],[1,-8],[2,-5],[7,-8],[6,-10],[4,-6],[9,-4],[4,-11],[5,-4],[8,0],[4,0],[9,-5],[2,0],[9,-1],[4,-4],[1,-5],[-5,-17],[-1,-10],[3,-8],[8,-3],[-1,-7],[6,-6],[9,-3],[7,-1],[8,-3],[5,-7],[6,-15],[4,-16],[-1,-16],[-10,-47],[-1,-24],[-2,-7],[-11,-24],[-3,-7],[-5,-3],[-5,-2],[-17,-9],[-4,-4],[0,-4],[0,-4],[2,-2],[3,-2],[-2,-1],[-3,-3],[-2,-1],[18,-18],[5,-2],[7,-2],[17,-9],[12,-3],[3,-1],[6,-10],[2,-4],[10,-24],[2,-16],[-4,-16],[-5,-15],[-3,-16],[-1,-7],[1,-7],[3,-6],[5,-3],[5,-3],[3,-8],[5,-32],[1,-16],[1,-6],[15,-26],[7,-9],[10,-3],[12,8],[-6,-14],[-12,0],[-12,2],[-5,-9],[-2,-5],[-7,-8],[-1,-3],[4,-5],[13,-2],[3,-5],[1,-6],[3,-12],[2,-15],[6,-16],[1,-11],[-4,-11],[-6,-11],[-6,-7],[7,-13],[6,-15],[9,-11],[13,1],[38,29],[38,17],[15,2],[14,-3],[10,-12],[5,-15],[2,-9],[1,-7],[2,-9],[0,-4],[-1,-3],[-3,-1],[-2,-1],[1,-4],[12,-10],[13,7],[29,37],[6,6],[6,3],[7,1],[18,6],[6,3],[14,9],[8,2],[3,-7],[-3,-1],[-31,-13],[-12,-3],[-12,-5],[-11,-10],[-4,-4],[-3,-6],[-1,-5],[6,-2],[13,0],[7,-2],[30,-17],[13,-3],[16,2],[27,9],[86,46],[10,4],[14,1],[31,-3],[14,-4],[10,-8],[3,-6],[1,-6],[3,-6],[7,-2],[6,1],[6,2],[23,18],[16,5],[1,2],[3,-1],[1,2],[-1,3],[-1,1],[-2,1],[-3,3],[-2,1],[-2,1],[-2,3],[1,3],[2,3],[2,2],[1,1],[1,2],[3,2],[4,3],[2,4],[-1,5],[-2,17],[2,5],[4,6],[6,5],[5,3],[0,-7],[-6,-10],[-1,-7],[1,-4],[3,-1],[2,-1],[1,-2],[0,-16],[3,-14],[22,-41],[4,-16],[-5,-30],[-1,-17],[10,-63],[0,-8],[-3,-23],[-2,-8],[-8,-16],[0,-8],[5,-4],[17,-6],[7,-3],[6,-1],[10,5],[15,12],[53,53],[31,19],[36,6],[17,-4],[15,-6],[40,-29]],[[931,4096],[-2,-3],[-4,-2],[-4,0],[-8,1],[-31,-2],[-3,-2],[0,-7],[-2,-1],[-5,-1],[-3,-1],[-3,0],[-3,2],[-3,2],[-4,8],[-3,2],[-2,0],[-4,-1],[-3,-2],[-1,-2],[1,-4],[2,-1],[3,0],[1,-2],[0,-3],[-2,-4],[0,-4],[3,-8],[-4,-3],[-7,-3],[-5,-1],[-13,0],[-5,-1],[-2,-5],[-2,-10],[-6,-9],[-9,-7],[-10,-5],[-41,-8],[-11,-7],[6,0],[10,-2],[6,-1],[7,2],[11,4],[6,2],[10,3],[12,6],[11,2],[5,-6],[-3,-9],[-14,-13],[-3,-10],[-4,-8],[-10,-4],[-23,-4],[0,-2],[12,-5],[8,-2],[6,3],[5,1],[19,0],[4,-1],[3,-1],[3,-2],[3,-2],[4,-3],[8,-1],[14,-9],[3,-4],[-2,-7],[-7,-7],[-10,-5],[-11,-4],[-36,-7],[-6,3],[-4,7],[-6,15],[3,-23],[1,-4],[8,-6],[3,-4],[1,-9],[-3,-11],[-6,-10],[-7,-5],[0,-3],[6,-4],[-1,-6],[-6,-4],[-9,-1],[4,-6],[7,-5],[9,-5],[13,-2],[1,0],[4,-2],[5,-3],[2,-3],[-2,-6],[-6,-6],[-2,-5],[16,3],[8,0],[7,-4],[4,-5],[5,-12],[5,-4],[1,-1],[5,1],[1,0],[1,-1],[1,-3],[1,-1],[2,-3],[2,-3],[3,-3],[8,-3],[2,-3],[2,-4],[2,-2],[14,-2],[5,-4],[8,-9],[5,-2],[9,-1],[6,-2],[5,-4],[4,-6],[6,-14],[3,-3],[4,15],[6,7],[8,5],[8,3],[15,3],[5,2],[24,-11],[7,-5],[6,-3],[19,0],[6,-1],[23,-13],[9,-2],[15,6],[3,2],[21,6],[21,1],[1,-3],[11,-32],[-5,-24],[1,-14],[4,-12],[1,-3],[11,-12],[2,-4],[2,-23],[0,-56],[3,-16],[6,-15],[14,-27],[5,-16],[1,-3],[1,-7],[0,-4],[-2,-4],[-5,-10],[-2,-4],[-9,-15],[-2,-7],[0,-6],[1,-5],[4,-9],[6,6],[5,19],[4,5],[10,-2],[8,-7],[7,-8],[6,-4],[5,-4],[-3,-10],[-5,-11],[-4,-6],[-3,-3],[-3,-4],[1,-2],[6,0],[5,3],[8,11],[5,4],[1,-7],[1,-9],[1,-6],[5,-3],[1,-1],[1,0],[1,-1],[2,-1],[1,1],[1,2],[1,2],[2,0],[2,1],[7,7],[16,5],[15,-4],[13,-11],[9,-15],[3,-17],[-3,-14],[-6,-13],[-11,-17],[-26,-31],[-5,-4],[-6,-1],[-15,-1],[-5,-2],[-5,-4],[-13,-9],[-6,-5],[25,11],[13,0],[7,-14],[0,-16],[-1,-9],[-5,-12],[0,-17],[-2,-6],[-3,-3],[-7,-3],[-7,-3],[-6,-1],[-4,-2],[-11,-7],[-12,-11],[-8,-11],[-5,-12],[1,-15],[-1,1],[-1,-2],[0,-4],[5,5],[6,8],[4,8],[2,8],[2,6],[6,5],[12,8],[25,12],[11,7],[6,11],[7,24],[1,8],[-1,16],[1,5],[5,7],[11,11],[6,8],[5,15],[6,5],[8,2],[6,-3],[3,-7],[0,-9],[1,-9],[6,-5],[1,8],[4,6],[6,3],[8,1],[8,-2],[5,-5],[5,-5],[6,-3],[3,0],[8,2],[4,0],[4,-2],[5,-4],[2,-1],[8,1],[23,11],[8,1],[8,1],[8,-2],[14,-8],[9,-2],[18,0],[31,-5],[16,-1],[9,-2],[6,-2],[0,-3],[-1,0],[-2,0],[-2,0],[4,-4],[6,2],[5,5],[4,2],[7,0],[5,-2],[4,-5],[0,-10],[-2,-8],[-6,-15],[-2,-9],[1,-8],[1,-8],[2,-8],[4,-7],[4,-6],[6,-7],[6,-5],[11,-3],[7,-3],[4,-1],[9,0],[4,-1],[4,-2],[6,-12],[-1,-51],[6,-13],[11,-12],[14,-7],[16,-3],[4,1],[7,2],[4,0],[4,-1],[6,-3],[4,-1],[5,-2],[5,-5],[6,-11],[3,-12],[0,-30],[2,-16],[2,-3],[4,-8],[1,-4],[0,-4],[-2,-8],[0,-4],[-4,-4],[-24,-12],[-12,-11],[-12,-13],[-11,-15],[-7,-17],[-22,-81],[2,-14],[9,-12],[30,-21],[7,-12],[0,-13],[-6,-15],[-24,-34],[-3,-12],[-2,-13],[-9,-25],[-1,-7],[-6,-29],[1,-13],[2,-10],[3,-9],[6,-10],[5,-10],[-2,-9],[5,-3],[4,-4],[6,-13],[1,1],[0,1],[2,1],[1,-7],[-2,-15],[3,-13],[-2,-7],[-4,-7],[-1,-6],[1,-7],[5,-18],[-5,-3],[-4,-7],[-4,-31],[-1,-16],[2,-9],[13,-22],[1,-12],[-5,-12],[-6,-12],[-5,-12],[-2,-31],[2,-32],[-1,-16],[-9,-30],[-2,-17],[2,-31],[-1,-8],[-5,-14],[4,-23],[0,-15],[-2,-8],[-6,-15],[-2,-8],[-5,-29],[-4,-12],[-6,-10],[-12,-12],[-1,-3],[-4,4],[0,14],[-2,6],[-12,5],[-28,3],[-6,7],[-2,29],[-5,12],[-8,8],[-2,-2],[-4,-5],[-1,-1],[-4,1],[-3,1],[-2,2],[-3,1],[-4,2],[-12,13],[-19,16],[-8,9],[-24,33],[-11,8],[-10,-5],[-2,-8],[4,-14],[-4,-7],[1,-1],[-4,-11],[-1,-1],[-2,-1],[-4,0],[-6,2],[-8,-4],[0,-6],[3,-7],[3,-9],[0,-10],[1,-4],[3,-3],[2,-2],[1,-2],[-5,-3],[-10,-3],[-7,-4],[1,-6],[7,-3],[9,-1],[5,-2],[-5,-6],[-7,-3],[-7,-1],[-12,-1],[-5,2],[-16,13],[-63,28],[-22,17],[-18,6],[-8,6],[-21,24],[-4,4],[-7,3],[-14,3],[-7,3],[-4,4],[-2,0],[1,-1],[1,-6],[-9,0],[-7,-1],[-6,-2],[-6,-6],[-2,-6],[1,-7],[57,-91],[3,-14],[2,-15],[4,-9],[1,-4],[-2,-2],[-4,-1],[-50,1],[-3,3],[2,13],[-2,9],[-5,6],[-19,17],[-3,2],[-6,3],[-2,4],[-3,7],[-24,22],[-6,3],[-25,15],[-3,7],[9,7],[-5,7],[-16,17],[-8,5],[-4,1],[-3,0],[-3,1],[-5,3],[-2,3],[-1,4],[-3,4],[-12,3],[-7,5],[-5,5],[-27,33],[-16,16],[-2,6],[4,7],[1,6],[-4,6],[-6,5],[-4,2],[-8,1],[-8,0],[-7,2],[-2,6],[1,4],[5,7],[1,4],[0,8],[-1,3],[-1,3],[-6,7],[-22,13],[-9,10],[-5,4],[-7,1],[-9,0],[-5,1],[-3,3],[-1,3],[4,11],[-1,2],[-2,1],[-4,3],[-4,2],[-5,2],[-4,-2],[-3,-2],[-7,-6],[-8,16],[-5,5],[-9,4],[-3,0],[-8,0],[-3,0],[-2,2],[0,1],[-2,2],[-4,2],[-5,5],[-3,3],[-4,2],[-4,2],[-5,1],[-5,0],[-4,-2],[-5,-2],[-4,-2],[-4,1],[-2,3],[-6,17],[-2,3],[-3,3],[-7,4],[-5,-5],[-6,2],[-5,7],[-4,15],[-7,7],[-41,36],[-45,27],[-47,19],[-6,5],[-5,14],[-5,7],[-64,55],[-63,44],[-59,46],[-9,5],[-10,7],[-8,10],[-3,13],[2,5],[7,12],[1,7],[-2,7],[-11,13],[-4,6],[-1,4],[0,4],[1,2],[0,3],[-2,4],[-3,3],[-2,4],[-1,5],[0,13],[-3,7],[-4,6],[-57,34],[-69,47],[-87,63],[-9,9],[-10,18],[-7,5],[-53,86],[-4,16],[-30,53],[-10,12],[-13,9],[-5,2]],[[3152,1224],[9,-6],[37,-11],[92,-48],[12,-1],[3,-1],[7,-7],[2,-1],[9,-9],[1,-2],[4,-1],[4,0],[3,0],[24,-13],[7,-2],[10,-1],[10,-3],[19,-9],[0,3],[14,-7],[7,-3],[8,-1],[3,-1],[6,-5],[3,-1],[48,-3],[31,-7],[24,-11],[7,-2],[15,0],[3,1],[2,2],[4,5],[2,3],[1,4],[2,2],[2,1],[3,-3],[0,-5],[2,-5],[4,-2],[4,-1],[4,-1],[2,-3],[1,-4],[2,-4],[3,0],[30,9],[1,2],[4,1],[3,1],[3,-1],[4,-4],[2,-1],[4,1],[19,0],[3,-1],[5,-3],[2,-1],[3,0],[7,2],[3,0],[6,-3],[0,-3],[0,-4],[2,-6],[25,-6],[6,1],[5,4],[5,0],[13,-7],[6,-1],[4,5],[2,0],[4,-7],[5,-6],[7,-3],[8,-1],[4,1],[2,2],[-1,3],[-5,3],[1,3],[2,4],[1,1],[2,8],[2,3],[3,2],[4,-2],[2,-5],[2,-4],[1,-2],[7,2],[1,6],[0,7],[3,8],[4,2],[4,-1],[3,-2],[4,-2],[4,-1],[10,1],[5,-2],[9,-8],[7,-2],[3,0],[2,1],[2,2],[9,6],[3,0],[12,-7],[8,-3],[67,-7],[7,-2],[2,-2],[1,-1],[3,-2],[5,0],[10,4],[3,1],[8,0],[9,-1],[9,-4],[7,-5],[-1,-2],[-2,-3],[8,-1],[6,-2],[4,-3],[6,-2],[21,0]],[[4096,1564],[-5,3],[-5,5],[-6,5],[-8,1],[-2,0],[-2,-3],[-3,-1],[-5,2],[-14,2],[-8,0],[-15,-6],[-8,-1],[-15,0],[-4,-1],[-12,-4],[-15,-2],[-16,0],[-8,1],[-6,5],[-21,28],[-13,12],[-6,2],[-8,-2],[-12,-6],[-8,-3],[-6,0],[-6,2],[-15,2],[-25,6],[-8,4],[-8,6],[-8,8],[-7,6],[-12,15],[-4,4],[-12,5],[-21,4],[-9,6],[-6,-6],[-12,-18],[-6,-4],[-8,-1],[-15,-3],[-8,-1],[-68,8],[-2,0],[-3,0],[-2,2],[-7,13],[-13,39],[-6,13],[-3,14],[-2,5],[-4,4],[-5,3],[0,1],[-3,3],[-3,2],[-2,-2],[-1,-2],[-4,0],[-7,0],[-4,2],[-10,6],[-4,3],[-7,-3],[-23,-3],[-3,-1],[-5,-2],[-4,-2],[-10,-1],[-18,-8],[-5,-3],[-6,-9],[-3,-2],[-8,-2],[4,-8],[-1,-4],[-3,-5],[-2,-7],[-1,-15],[-2,-13],[-4,-17],[-27,-54],[-16,-22],[-15,-15],[-5,-3],[-6,-2],[-8,-1],[-7,-1],[-6,-4],[-6,-3],[-10,1],[-7,4],[-16,11],[-12,4],[-17,8],[-5,3],[-2,4],[0,4],[-2,3],[-4,2],[-2,-2],[-7,-8],[-1,-2],[-4,-3],[-9,-3],[-47,-7],[-16,0],[-16,2],[-62,20],[-71,10],[-14,13],[-20,-22],[-31,-5],[-64,7],[-10,-1],[-2,1],[-10,6],[-9,3],[-14,11],[-4,2],[-8,2],[-7,0],[-3,-6],[-1,-8],[-2,-5],[-6,-2],[-8,-1],[-8,2],[-4,4],[-3,4],[-3,3],[-2,2],[-5,2],[-7,0],[-5,2],[-3,4],[-16,-9],[-16,0],[-16,6],[-15,10],[-21,2],[-11,34],[-13,67],[-19,11],[-5,2],[-7,3],[-30,38],[-3,25],[-1,9],[-8,-1],[-2,-4],[-8,4],[-23,1],[-12,3],[-6,4],[-4,-1],[4,-4],[2,-3],[1,-5],[-1,-5],[-3,-4],[-3,-2],[-2,-1],[-9,-6],[-6,-4],[-4,-1],[-6,0],[-7,0],[-7,3],[-9,3],[-22,10],[-16,7],[-18,12],[0,8],[-4,8],[-3,-2],[-5,-5],[-5,0],[-1,5],[-8,3],[-5,-2],[1,-5],[-1,-3],[-3,0],[-4,1],[-3,1],[-4,-1],[-2,-2],[-8,-3],[-5,-4],[-6,-1],[-6,3],[-8,-4],[-8,5],[-12,14],[-21,1],[-20,7],[-14,7],[-9,15],[-12,15],[-12,20],[-10,12],[-12,5],[-14,3],[-28,-8],[-6,-1],[-7,0],[-7,2],[-5,5],[-4,4],[-4,4],[-12,6],[-13,3],[-9,-4],[2,-12],[-8,-11],[-2,-6],[2,-4],[4,-5],[0,-4],[-2,-5],[-2,-7],[-4,-2],[-2,-1],[-55,-8],[-16,-1],[-15,3],[-5,5],[-2,6],[0,3],[-1,4],[-3,6],[-6,4],[-7,3],[-8,2],[-42,0],[-7,-2],[-6,-5],[-6,-3],[-9,0],[-23,11],[-8,1],[-9,3],[-23,18],[-15,1],[-9,-9],[-8,-12],[-12,-6],[-7,2],[-11,7],[-4,2],[-2,4],[-2,23],[-8,9],[-11,2],[-12,-4],[-9,-9],[-7,-24],[-4,-4],[-3,-2],[-25,-26],[-8,-15],[-10,-30],[-3,-13],[-4,-64],[1,-12],[-5,-15],[-10,-13],[-16,-7],[-10,-1],[-4,5],[-6,3],[-2,13],[-8,1],[-4,-3],[-9,-19],[3,-30],[-2,-6],[-6,-7],[-28,-27],[-4,-7],[-6,-17],[-4,-7],[-7,-2],[-7,2],[-4,5],[-2,6],[-9,15],[0,3],[0,4],[-1,5],[-3,4],[-4,5],[-5,4],[-4,2],[-7,-2],[-3,-5],[-3,-7],[-3,-6],[-10,-11],[-7,-5],[-5,-2],[-12,2],[-3,-1],[-1,-2],[2,-3],[5,-3],[4,-14],[4,-6],[6,-3],[4,1],[2,2],[2,3],[2,7],[3,2],[17,-1],[15,-6],[2,-1],[2,-3],[2,-2],[1,-3],[1,-1],[4,1],[3,2],[1,2],[7,-1],[4,-3],[5,-5],[5,2],[13,-4],[7,6],[16,2],[38,5],[8,-1],[11,-2],[7,-2],[7,2],[11,2],[11,0],[7,2],[4,-5],[5,2],[2,5],[6,2],[7,1],[8,1],[7,0],[10,-2],[17,-5],[26,-22],[16,-7],[12,1],[13,-10],[2,-2],[2,-3],[1,-2],[1,-2],[5,-1],[2,-1],[4,-5],[1,-1],[6,-1],[3,-1],[3,-2],[5,-1],[7,-1],[9,1],[9,3],[1,0],[7,11],[10,3],[11,-5],[10,1],[10,-7],[2,-12],[-1,-14],[-9,-9],[-15,-18],[-6,-6],[6,-8],[-2,-4],[-7,-1],[-6,1],[-7,-4],[-6,-7],[-4,-8],[-2,-7],[1,-7],[-3,-16],[9,-9],[0,-9],[-1,-7],[4,2],[9,4],[10,-1],[7,-4],[16,-13],[31,-2],[66,-6],[30,-1],[85,-7],[15,-4],[12,-3],[12,-4],[12,-1],[19,-3],[23,-3],[18,3],[3,-3],[3,-1],[2,0],[7,-2],[7,-1],[4,-8],[17,-4],[10,-5],[13,-3],[12,-10],[13,-6],[6,-9],[3,-9],[11,-3],[23,-3],[10,-3],[8,-5],[1,-10],[12,-6],[15,2],[18,0],[67,-17],[69,-11],[46,-1],[15,10],[3,10],[1,16],[12,10],[7,2],[24,1],[5,-1],[3,-2],[2,-8],[7,-2],[2,1],[1,3],[-2,7],[3,3],[3,4],[5,2],[4,0],[2,-2],[3,-2],[2,-1],[10,-5],[10,7],[4,3],[2,3],[5,7],[3,3],[9,4],[2,2],[6,1],[3,-8],[3,-17],[4,-4],[6,-2],[7,-1],[9,-1],[4,0],[4,-2],[11,-9],[2,0],[5,4],[5,7],[18,5],[36,-3],[63,-6],[10,-4],[3,-1],[0,-2],[-3,-4],[0,-2],[2,-2],[2,-1],[3,-1],[1,-2],[3,-4],[7,1],[15,4],[62,-7],[35,-11],[21,-5],[13,-5],[13,-3],[9,3]],[[1176,3997],[-21,-3],[-6,-2],[-2,-5],[2,-5],[5,-3],[10,0],[3,0],[5,3],[4,0],[2,0],[3,1],[1,4],[0,3],[-1,3],[-2,3],[-3,1]],[[2914,3668],[-2,-1],[-2,-1],[-7,-7],[-1,-2],[-1,-3],[0,-5],[2,-3],[4,1],[4,3],[3,2],[2,3],[2,6],[0,4],[-4,3]],[[2884,3635],[-4,1],[-6,-7],[-4,-1],[-4,0],[-3,-1],[-2,-2],[-2,-3],[-1,-3],[3,-1],[3,0],[0,2],[2,0],[2,1],[2,0],[1,-5],[1,-2],[2,1],[12,13],[2,4],[-4,3]],[[2704,3468],[17,-2],[13,1],[7,5],[-8,3],[-12,0],[-12,-2],[-5,-5]],[[3098,3691],[0,27],[-3,6],[-4,6],[-6,4],[-7,2],[-3,-2],[-3,-3],[-5,-3],[-6,0],[-6,3],[-13,8],[-6,1],[-4,-1],[-8,-5],[-4,-1],[-7,1],[-12,3],[-6,1],[-6,-3],[-3,-7],[-2,-60],[-9,-23],[-1,-9],[3,-4],[7,-6],[7,-4],[5,-2],[9,3],[12,12],[12,4],[12,6],[26,12],[5,1],[4,2],[17,13],[8,3],[4,2],[1,3],[-1,4],[-3,2],[-3,2],[-1,2]],[[2809,3519],[-3,4],[-10,7],[-5,2],[-6,2],[-2,0],[-2,-2],[-4,-3],[-17,-3],[-9,-3],[-5,-6],[4,-2],[7,1],[2,-1],[1,-3],[1,-4],[-1,-4],[-2,-3],[-1,-3],[1,-5],[1,-4],[1,-2],[10,-1],[4,1],[23,8],[6,3],[3,5],[3,5],[1,6],[-1,5]],[[2829,1253],[-3,3],[-20,11],[-12,4],[-18,2],[-19,9],[-6,-2],[-3,-6],[-1,-7],[2,-5],[5,-1],[16,2],[5,-2],[5,-3],[22,-3],[19,-7],[10,-2],[4,-1],[2,1],[2,4],[-2,2],[-7,0],[-1,1]],[[421,2116],[-4,10],[-11,6],[-22,6],[-7,8],[-4,3],[-5,2],[-7,1],[-5,1],[-10,6],[-10,2],[-9,-3],[-18,-17],[11,-5],[43,-34],[4,-6],[5,-11],[4,-4],[4,8],[2,2],[2,0],[3,0],[3,0],[1,1],[3,-1],[17,-4],[4,2],[-3,4],[-4,5],[-2,4],[8,4],[5,5],[2,5]],[[1304,1985],[-2,1],[-7,1],[-7,5],[-4,0],[-2,-4],[0,-3],[2,-4],[5,-6],[11,-9],[6,-3],[3,4],[2,10],[-2,4],[-5,4]],[[1462,1704],[-4,0],[-5,0],[-3,-1],[-1,-3],[-2,1],[-3,-1],[-4,-2],[-3,-4],[-3,3],[-18,-15],[-8,-9],[1,-7],[4,2],[16,16],[3,-9],[2,-4],[5,-2],[-3,-5],[-3,-7],[-1,-6],[3,-2],[5,2],[6,9],[7,2],[6,5],[2,13],[1,15],[0,9]],[[2060,3022],[-7,4],[-16,3],[-7,3],[-5,4],[-7,-1],[-7,-4],[-9,-6],[-1,-1],[-3,-7],[-1,-1],[-3,-3],[-1,-4],[12,-4],[15,-12],[6,-3],[17,-4],[2,1],[10,3],[-1,9],[9,16],[-3,7]],[[2130,3048],[-5,7],[-3,6],[-2,2],[-3,-1],[-1,-2],[-1,-2],[-5,-3],[-5,-7],[-5,-7],[6,-3],[4,-3],[5,-2],[4,-2],[5,-1],[3,2],[2,7],[1,9]],[[2009,3158],[-7,1],[-24,9],[-47,8],[-41,14],[-4,0],[-4,-5],[-8,2],[-10,3],[-6,4],[-12,11],[-11,14],[-9,15],[-24,64],[-13,63],[0,16],[4,23],[2,4],[-2,3],[-19,22],[0,3],[1,4],[1,4],[-4,2],[-4,1],[-3,2],[-1,3],[-1,5],[0,3],[-2,2],[-3,2],[-2,2],[-1,3],[-2,6],[-2,3],[-2,2],[-4,2],[-3,3],[-1,5],[0,15],[1,4],[4,3],[0,4],[-1,4],[-3,3],[-17,12],[-3,1],[-8,0],[-4,0],[-3,1],[-4,6],[-2,6],[-3,3],[-7,2],[-7,0],[-15,-10],[-9,-3],[-33,1],[-8,-3],[4,-4],[3,-4],[3,-5],[2,-5],[1,-3],[1,-6],[1,-4],[6,-10],[1,-1],[-2,-14],[0,-7],[3,-7],[12,-12],[4,-7],[3,-7],[-10,0],[-2,0],[-2,2],[-3,7],[-2,1],[-7,-1],[-5,-2],[-4,0],[-7,3],[-5,4],[-7,6],[-5,6],[1,6],[14,13],[4,5],[-10,3],[-10,6],[-7,7],[-3,8],[0,9],[-3,10],[-6,5],[-11,-2],[-4,-4],[-3,-3],[-3,-2],[-7,-2],[-17,1],[-4,-2],[-15,-15],[-2,-1],[-5,0],[-2,0],[-2,-2],[-2,-6],[-1,-2],[-4,-2],[-4,-1],[-3,-2],[-2,-4],[2,-7],[0,-3],[-3,-1],[-3,-3],[8,-6],[14,-9],[3,-16],[-10,-15],[-28,-19],[-42,-15],[-10,-7],[-7,-11],[-4,-14],[1,-15],[7,-13],[5,2],[6,2],[13,1],[6,-2],[14,-6],[1,-3],[8,-11],[2,-2],[3,-1],[18,5],[24,0],[7,-1],[3,0],[8,6],[7,3],[19,6],[8,6],[5,-4],[6,-10],[4,-4],[4,-1],[11,-1],[2,0],[4,2],[2,0],[2,-1],[3,-3],[2,-1],[22,-3],[6,-2],[5,-3],[4,-3],[2,-5],[1,-10],[0,-13],[1,-4],[3,-7],[2,-6],[3,-6],[1,-3],[0,-5],[-2,-10],[3,-18],[11,-9],[14,-6],[12,-7],[5,-16],[-4,-15],[-7,-16],[-4,-16],[2,-17],[5,-15],[24,-39],[5,-3],[26,-2],[8,-2],[75,-26],[18,-18],[7,-2],[17,0],[7,-2],[4,-3],[5,-9],[2,-4],[8,-5],[4,-4],[2,-4],[1,-8],[4,-8],[5,-4],[8,4],[1,-1],[4,-2],[2,10],[10,2],[20,-4],[2,-1],[2,-3],[2,-1],[6,3],[2,-1],[2,-1],[3,-1],[4,2],[4,3],[2,2],[3,-2],[3,3],[-1,2],[-4,5],[3,6],[0,6],[-3,6],[-6,2],[-6,1],[-2,3],[-2,3],[-4,3],[-3,2],[-5,0],[-4,1],[-13,8],[-4,12],[3,14],[23,63],[17,26],[6,5],[6,2],[4,1],[12,7],[4,1],[4,-1],[2,0],[3,3],[0,5],[-7,2],[-17,0]],[[2237,3045],[-5,-3],[-5,-2],[-7,2],[-2,-4],[10,-7],[11,-12],[4,-3],[6,8],[13,4],[7,6],[5,8],[3,8],[-2,3],[-2,3],[1,5],[-4,2],[-10,-2],[-11,-4],[-10,-6],[-2,-6]],[[2565,3052],[-1,8],[-6,12],[-3,14],[-25,29],[-6,1],[-7,-3],[-2,6],[-3,6],[-5,4],[-6,2],[-2,1],[-3,7],[-3,1],[-11,5],[-5,-3],[-3,-4],[-2,-10],[-3,0],[-6,19],[-4,4],[-6,2],[-19,4],[-6,-2],[-13,1],[-13,6],[-5,9],[-6,-3],[-10,-8],[-6,-2],[-6,0],[-11,2],[-5,1],[-15,-4],[-6,-8],[-6,-37],[1,-23],[-2,-4],[-5,-4],[-5,-4],[-5,-2],[4,-9],[1,-12],[-2,-10],[-7,-4],[-5,-1],[-4,-3],[-4,-4],[0,-5],[2,-4],[3,0],[9,4],[7,1],[2,-1],[-1,-13],[-1,-4],[-7,-8],[-2,-5],[0,-4],[2,-4],[1,-3],[2,-4],[0,-4],[0,-4],[0,-5],[1,-3],[10,-8],[2,-3],[2,-1],[2,-2],[0,-2],[0,-2],[-13,-16],[-4,-11],[3,-8],[10,-5],[10,3],[10,13],[25,0],[22,11],[10,8],[0,14],[-6,10],[0,5],[7,3],[5,1],[2,1],[2,1],[5,-3],[2,-4],[1,-3],[0,-3],[-1,0],[19,-18],[9,-6],[2,-7],[0,-17],[4,-8],[4,-1],[7,2],[9,2],[10,0],[4,2],[0,13],[1,7],[5,4],[6,1],[9,0],[7,2],[13,6],[8,0],[-2,4],[-6,5],[-1,2],[0,4],[2,3],[2,2],[1,1],[0,4],[3,7],[1,3],[0,4],[-2,5],[0,4],[4,10],[15,19],[3,10],[2,3],[3,4],[4,5],[2,6]],[[897,3997],[-16,3],[-7,3],[-4,5],[-4,2],[-20,4],[-6,0],[-13,-7],[-13,-16],[-9,-17],[0,-12],[11,2],[20,-8],[8,2],[4,2],[5,-2],[4,-3],[3,-1],[5,1],[9,5],[3,2],[4,1],[10,5],[6,1],[13,-1],[3,1],[3,8],[-4,9],[-7,7],[-8,4]],[[1201,3950],[-3,3],[-3,6],[-3,3],[-2,1],[-8,3],[-3,2],[-7,6],[-19,-18],[-12,-7],[-9,5],[-2,0],[-2,-7],[-1,-8],[-2,0],[-2,9],[4,15],[-2,6],[-3,0],[-3,-7],[-4,-5],[-10,-8],[-3,-4],[-5,-13],[-3,-5],[0,-5],[21,-21],[5,1],[4,-5],[3,-13],[4,-30],[7,0],[3,3],[4,14],[9,14],[10,-4],[11,-10],[12,0],[4,6],[2,18],[3,7],[14,11],[7,6],[2,7],[-2,6],[-16,18]],[[1339,4009],[-18,26],[-11,10],[-8,-3],[-2,-8],[0,-6],[-2,-3],[-10,-1],[-8,3],[-4,6],[-7,16],[-11,12],[-5,3],[-3,-1],[-3,-2],[-4,-1],[-2,1],[-2,2],[-2,3],[0,3],[12,3],[-2,4],[-20,18],[-4,2]],[[1194,4096],[-2,-3],[-2,-30],[-3,-9],[-6,-8],[-14,-12],[-5,-2],[-2,-2],[0,-4],[0,-5],[1,-4],[3,-2],[4,-1],[9,0],[6,-2],[3,-3],[4,-5],[1,-3],[1,-2],[2,-2],[4,0],[4,1],[4,5],[3,2],[3,3],[2,1],[6,-2],[2,0],[4,1],[8,6],[6,3],[6,1],[15,1],[8,-2],[6,-4],[4,-6],[6,-5],[19,-9],[7,-7],[5,-2],[6,-1],[20,-9],[-2,7],[-4,5],[-1,5],[7,3],[8,-1],[9,-4],[7,-1],[4,5],[-31,16]],[[1622,274],[-7,-4],[-6,-5],[-5,-5],[-10,0],[-8,4],[-4,1],[0,-4],[2,-5],[-3,-7],[-4,-2],[1,-4],[8,2],[8,0],[8,-1],[5,-2],[1,-6],[3,-5],[1,-7],[6,1],[2,4],[-1,9],[3,5],[0,8],[2,9],[1,7],[1,5],[-4,2]],[[3343,1957],[-4,-2],[0,-3],[2,-4],[1,-4],[3,-3],[5,2],[5,7],[0,6],[-2,3],[-10,-2]],[[2945,4096],[3,-2]],[[3328,4096],[0,-1],[-16,-7],[-4,-5],[-8,-13],[-4,-3],[-5,-9]],[[3361,3958],[-17,4],[-9,5],[-11,3],[-12,5],[-9,6],[-9,7],[-1,15],[-5,8],[-3,7],[-4,5],[0,6],[-3,7],[3,8],[9,9],[1,5]],[[0,3790],[1,-1],[11,-8],[12,-6],[12,-3]],[[3361,3958],[-5,-8],[2,-6],[-3,-3],[-2,-9],[-1,-4],[-8,-6],[-3,-5],[-1,-7],[6,-8],[10,-2],[5,-1],[0,-12],[7,-18],[0,-17],[-1,-10],[7,-8],[3,-6],[0,-11],[-6,-6],[0,-4],[8,-6],[-6,-9],[0,-8],[7,-14],[0,-4],[-3,-9],[3,-11],[-1,-9],[7,-6],[3,-9],[6,-7],[5,-5],[18,-1],[10,-2],[9,-3],[11,-2],[3,-4],[-6,-11],[-2,-10],[-9,-6],[-10,-2],[-9,-3],[-11,-1],[-7,-5],[-9,-1],[-6,-6],[-3,-8],[3,-6]],[[36,3772],[6,-5],[10,-9],[17,-4],[3,-3],[15,-3],[4,-3],[6,-9],[6,-5],[24,-13],[5,-5],[15,-12],[6,-8],[12,-9],[24,-28],[21,-19],[3,-4],[36,-33],[5,-3],[9,-8],[4,-4],[18,-17],[21,-17],[3,0]],[[3249,3604],[2,0],[7,-3],[10,-6]],[[3270,3594],[5,-1]],[[3212,3604],[15,-3],[12,3],[10,0]],[[3268,3595],[1,-1],[1,0]],[[3275,3593],[7,-1],[15,-10],[9,-13],[9,-3],[14,-15],[12,-4],[12,-3],[24,-5],[9,2]],[[309,3551],[-3,-18],[-3,-7],[0,-5],[8,-12],[7,-14],[2,-6],[-2,-21],[2,-4],[4,-3],[15,-2],[5,-1],[13,-20],[8,-8],[7,-6],[5,-9],[-2,-30],[-7,-15],[-2,-23],[-3,-9]],[[3212,3604],[6,-16],[3,-5],[-2,-6],[2,-8],[-5,-10],[2,-5],[-5,-6],[-4,-9],[-3,-10],[0,-11],[-3,-12],[0,-6],[-5,-15],[-6,-11],[-6,-12],[-13,-15],[-5,-3],[2,-7],[-2,-14],[14,-12],[15,-8],[15,-6],[3,-1],[4,-11],[8,-9],[3,-6],[4,-21],[2,-18],[0,-6],[-8,-18],[-3,-8],[8,-5],[3,-6],[-5,-4],[-7,-3],[10,-11],[6,-16],[3,-11],[2,-7],[4,-10],[0,-7],[-1,-15],[7,-12],[8,-14]],[[309,3551],[5,5],[10,-2],[11,3],[10,-7],[14,0],[18,3],[15,4],[18,0],[10,2],[11,-5],[4,0],[5,5],[3,10],[3,2],[12,-2],[10,-7],[15,3],[9,-3],[14,-2],[3,-1],[3,-12],[3,-3],[16,-11],[8,-9],[12,-1],[4,-5],[15,-4],[11,-8],[4,-3],[9,-5],[19,0],[10,2],[11,-5],[12,-9],[13,2],[9,-3],[11,-14],[9,-6],[16,-4],[14,-2],[9,0],[19,12],[5,6],[6,15],[6,6],[4,3],[14,0],[4,5],[5,9],[7,2],[6,-3],[5,-5],[12,-6],[13,-2],[23,4],[-3,-23],[-5,-12],[-9,-18],[-4,-5],[-8,-3],[-3,-3],[3,-6],[5,-6],[4,-18],[9,-5],[5,-4],[4,-11],[14,-12],[4,-12],[5,-23],[1,-22],[-4,-9],[0,-8],[3,-6],[7,-8],[15,-12],[27,-16],[15,-6],[8,-6],[3,-6],[4,-5],[11,-1],[6,-5],[1,-9],[3,-15],[6,-12],[14,-14],[13,-10],[11,-3],[10,-2],[5,-3],[1,-6],[2,-12],[-2,-6],[-12,-12],[-7,-14],[0,-10],[3,-16],[3,-4],[9,-5],[4,-4],[11,-6],[10,-2],[11,-1],[6,-5],[2,-10]],[[1231,2920],[6,3],[5,4],[7,18],[5,6],[6,14],[3,11],[3,6],[1,7],[0,11],[-4,9],[-6,9],[-11,24],[-3,-1],[-7,-13],[-12,-3],[-23,-3],[-19,3],[-24,-1],[-8,3],[-4,3],[-14,12],[-4,2],[-23,4],[-21,2],[-7,3]],[[650,2903],[-9,-3],[-15,-8],[-6,-1],[-13,1],[-13,-1],[-12,-3]],[[582,2888],[-4,7],[-8,26],[-6,17],[-1,4],[7,18],[0,6],[-3,7],[-7,7],[-17,0],[-18,12],[-3,3],[-3,9],[0,5],[6,19],[11,-1],[13,11],[3,4],[12,6],[3,9],[11,14],[4,3],[17,15],[3,10],[-2,7],[-12,6],[-12,7],[-13,12],[-5,3],[-10,0],[-11,18],[-7,11],[-2,8],[2,24],[-2,4],[-4,14],[-3,4],[1,3],[14,11],[3,6],[0,8],[-5,7],[-4,2],[-12,0],[-14,1],[-15,9],[-9,8],[-10,3],[-11,0],[-10,4],[-3,12],[1,8],[6,11],[0,9],[-10,7],[-5,8],[-6,3],[-13,1],[-26,2],[-6,-2],[-10,-6],[-8,0],[-6,6]],[[650,2903],[5,-11],[4,-28],[0,-12],[-4,-12],[0,-20],[1,-23],[3,-15]],[[1231,2920],[-16,3],[-17,0],[-15,-5],[-19,-3],[-9,-4],[-5,-6],[-6,-17],[-6,-9],[-10,-11],[-26,-13],[-15,-15],[-4,-5],[-26,-14],[-12,-4],[-8,0],[-7,3],[-11,7],[-9,3],[-12,0],[-13,5],[-6,0],[-11,-6],[-10,-2],[-20,0],[-10,-1],[-11,-6],[-7,-24],[-9,-14],[4,-17],[3,-3]],[[823,2710],[-23,0],[-6,0],[-7,10],[-12,18],[-6,5],[-3,0],[-14,-3],[-12,-5],[-6,0],[-7,6],[-8,5],[-12,23],[-7,4],[-26,6],[-6,2],[-9,1]],[[0,3118],[4,-2],[9,-4],[9,-6],[8,-10],[19,-39],[8,-15],[7,-18],[11,-14],[3,-9],[6,-7],[4,-11],[15,-18],[5,-14],[15,-21],[15,-19],[6,-5],[15,-9],[3,-5],[14,-10],[10,-5],[15,-12],[11,-7],[19,-15],[17,-14],[13,-8],[11,-7],[10,-3],[23,-12],[10,-12],[35,-23],[6,-5],[4,-7],[5,-12],[-2,-12],[8,-6],[0,-5],[-2,-10]],[[823,2710],[12,-5],[10,0],[15,-4],[3,1],[2,12],[4,6],[5,18],[6,12],[12,11],[7,3],[9,-2]],[[908,2762],[6,-4],[-1,-20],[0,-10],[1,-5],[8,-9],[4,-23],[0,-9],[0,-25],[2,-15],[0,-9],[-6,-16],[0,-4],[6,-3],[18,3],[21,4],[6,-3],[7,-6],[9,0],[14,2],[7,-2],[12,-3],[20,-7],[10,-11],[14,-7],[17,-19],[10,-13],[6,-8],[17,-25],[13,-25],[11,-1],[4,-8],[2,-10],[6,-15],[6,-11],[7,-10],[11,-10],[7,-9],[8,-18],[6,-21],[-2,-7],[-12,-25],[-4,-10],[0,-11],[4,-6]],[[1183,2318],[8,-7],[10,0],[8,3],[27,3],[15,-2],[22,-6],[15,-9],[8,5],[4,7],[12,15],[20,-15],[12,-6],[21,-7],[9,0],[18,3],[4,1],[20,5],[18,4]],[[854,2297],[10,-5]],[[1004,2232],[6,3],[11,10]],[[369,2707],[9,-13],[8,-9],[6,-15],[9,-9],[4,-4],[14,-17],[4,-6],[6,-3],[11,-3],[4,-3],[11,-12],[6,-5],[6,-1],[21,-17],[21,-6],[9,-9],[1,-12],[3,-8],[8,0],[10,-7],[5,-12],[0,-5],[-3,-10],[9,-11],[12,-7],[12,-10],[16,-15],[6,-6],[0,-4],[5,-6],[8,-5],[10,-6],[14,-3],[24,-13],[37,-19],[6,-4],[20,-20],[10,-13],[5,-3],[12,-13],[6,-10],[3,-3],[7,-2],[18,-15],[8,-10],[4,-3],[18,-3],[6,-3],[18,-14],[11,-3],[7,0]],[[864,2292],[2,-1],[8,-9],[18,1],[6,-1],[7,-6],[2,-14],[9,-6],[7,-3],[14,-9],[13,-12],[9,-5],[9,-7],[3,-6],[2,-11],[16,17],[3,6],[12,6]],[[1021,2245],[0,1],[12,7],[6,2],[12,-2],[4,2],[11,9],[6,-2],[8,-7],[9,0],[21,-9],[10,1],[12,3],[9,9],[8,3],[21,17],[9,12],[0,20],[4,7]],[[1434,2312],[1,0],[-1,-20],[0,-21],[-2,-12],[-6,-22],[-6,-44],[0,-8],[9,-39],[9,-14],[8,-9],[3,-4]],[[1449,2119],[24,-18],[21,-28],[4,-9],[17,5],[5,-3],[7,-14],[9,-6],[9,-13],[11,-5],[13,-6],[11,-15],[1,-8],[-1,-10],[0,-9],[4,-6],[6,-5],[8,-1],[12,0],[16,-7],[15,-10]],[[1643,1948],[9,-8],[19,-10],[12,-3],[39,6],[8,-3]],[[1730,1928],[3,-12]],[[1733,1916],[3,-3],[9,-13],[7,-7],[5,-6],[3,-12],[3,-3],[6,-3],[15,-3],[6,-3]],[[1917,1815],[17,1],[19,-1],[26,-2],[27,0],[20,3]],[[1790,1863],[7,-4],[17,-6],[6,0],[7,-11],[12,-6],[17,-3],[13,-4],[24,-13],[14,-1],[10,0]],[[2050,1804],[-2,17],[6,24]],[[2026,1816],[3,-6],[4,-3],[11,-3],[6,0]],[[2050,1804],[7,0],[9,-6],[14,-4],[16,0],[23,-2],[7,0],[30,-8]],[[2156,1784],[20,-5],[24,-8],[12,-6],[7,-8],[6,-4],[8,-6],[12,-6],[13,-5],[9,-1]],[[2054,1755],[-1,18],[-3,28],[0,3]],[[2041,1676],[3,16],[6,20],[3,21],[1,18],[0,4]],[[2038,1647],[3,29]],[[2267,1735],[2,10],[6,9],[6,5],[7,3],[9,-2],[8,-3],[9,-1],[10,4],[15,4],[11,10],[7,5],[27,7],[8,2],[19,1],[6,-1],[22,-8],[7,-1],[14,0],[15,-2],[16,-7],[9,-5],[11,-9],[7,-5],[20,-6],[10,0],[14,3],[4,5],[8,15],[9,2],[9,-6],[27,-37],[15,-24],[7,-14],[8,-25],[9,-18],[1,-5]],[[3601,1626],[31,6],[23,2],[21,-2]],[[3499,1599],[18,1],[24,3],[16,5],[11,7],[13,6],[20,5]],[[2141,1593],[-3,0],[-12,4],[-4,8],[-6,10],[-6,8],[-8,6],[-4,6],[-9,5],[-11,0],[-4,3],[-5,6],[-7,1],[-11,0],[-13,-3]],[[2272,1584],[1,12],[-3,6],[-6,6],[-3,7],[-9,25],[-4,9],[-6,6],[12,15],[1,7],[-3,11],[-3,4],[0,5],[14,5],[4,4],[2,6],[3,11],[-5,12]],[[2272,1584],[-23,7],[-7,-1],[-23,-8],[-7,0],[-8,2],[-6,6],[-31,4],[-14,-1],[-12,0]],[[2665,1628],[6,-10],[8,-7],[27,-15],[10,-5],[18,-3],[21,-3],[23,-6],[19,-4],[14,1],[21,2],[16,1],[21,-1],[10,-3]],[[3416,1564],[24,3],[20,3],[18,6],[6,3],[6,5],[9,15]],[[3676,1632],[21,0],[16,2],[3,1],[11,14],[10,7],[12,0],[12,-12],[26,-15],[12,-14],[12,-10],[17,-3],[16,-5],[15,-1],[24,4],[8,0],[7,-6],[12,-7],[14,-15],[9,-9]],[[2371,1550],[13,11],[12,8],[15,6],[20,9],[11,12],[7,3],[27,6],[12,1],[20,9],[10,-1],[5,1],[4,6],[6,5],[9,2],[8,1],[7,3],[6,5],[8,4],[19,5],[9,-2],[9,-1],[18,1],[14,2],[19,-5]],[[3209,1537],[-11,0],[-12,1],[-15,3],[-6,0],[-15,-4],[-6,0],[-6,1],[-15,9],[-12,2],[-6,3],[-12,11],[-10,0],[-14,4],[-7,5],[-29,1],[-9,0],[-13,-4],[-9,0],[-24,1],[-23,-1],[-31,0],[-23,1],[-16,3],[-6,2]],[[2371,1550],[-18,-12],[-8,-3],[-19,-3],[-6,-1],[-11,3],[-7,4],[-14,12],[-10,17],[-6,17]],[[3340,1531],[13,9],[29,13],[21,8],[13,3]],[[3340,1531],[-11,-3],[-20,-2],[-12,2],[-12,3],[-12,4],[-22,20],[-5,1],[-13,-1],[-11,-8],[-10,-9],[-3,-1]],[[3514,1499],[-6,-3],[-11,2],[-7,3],[-27,18],[-20,16],[-4,6],[-11,9],[-12,14]],[[3706,1540],[-18,3],[-9,-2],[-6,-4],[-8,-6],[-4,-8],[-8,-3],[-10,-1],[-9,-2],[-12,-1],[-8,-6],[-12,-11],[-9,-3],[-12,5],[-10,3],[-35,1],[-10,-1],[-12,-5]],[[4096,1545],[-9,8],[-9,11],[-7,6],[-12,2],[-15,-2],[-17,0],[-12,-1],[-18,-8],[-6,0],[-25,0],[-33,2]],[[4096,1483],[-1,1],[-11,4],[-18,5],[-13,6],[-9,2],[-51,-2],[-6,-1],[-15,-10]],[[3972,1488],[-20,-1],[-12,-6],[-6,-6],[-12,-8],[-22,-7],[-11,0],[-9,7],[-21,0],[-15,6],[-12,3],[-12,2],[-24,-8],[-10,-1],[-5,3],[-11,12],[-15,9],[-4,6],[-6,20],[-3,9],[-11,10],[-6,5],[-7,0],[-12,-3]],[[3340,1446],[-8,15],[-4,15],[1,14],[8,27],[3,14]],[[3451,1333],[-5,1],[-33,2],[-6,1],[-4,6],[-11,15],[-4,11],[-8,17],[-9,25],[-1,2],[-18,18],[-12,15]],[[3491,1325],[-1,0],[-24,2],[-15,6]],[[1624,260],[-2,-9],[0,-8],[-3,-5],[1,-9],[-2,-4],[-6,-1],[-1,7],[-3,5],[-1,6],[-5,2],[-8,1],[-8,0],[-8,-2],[-1,4],[4,2],[3,7],[-2,5],[0,4],[4,-1],[8,-4],[10,0],[5,5],[6,5],[7,4],[4,-2],[-1,-5],[-1,-7]],[[1462,1704],[0,-9],[-1,-15],[-2,-13],[-6,-5],[-7,-2],[-6,-9],[-5,-2],[-3,2],[1,6],[3,7],[3,5],[-5,2],[-2,4],[-3,9],[-16,-16],[-4,-2],[-1,7],[8,9],[18,15],[3,-3],[3,4],[4,2],[3,1],[2,-1],[1,3],[3,1],[5,0],[4,0]],[[2806,1267],[20,-11],[3,-3],[1,-1],[7,0],[2,-2],[-2,-4],[-2,-1],[-4,1],[-10,2],[-19,7],[-22,3],[-5,3],[-5,2],[-16,-2],[-5,1],[-2,5],[1,7],[3,6],[6,2],[19,-9],[18,-2],[12,-4]],[[412,2093],[3,-4],[-4,-2],[-17,4],[-3,1],[-1,-1],[-3,0],[-3,0],[-2,0],[-2,-2],[-4,-8],[-4,4],[-5,11],[-4,6],[-43,34],[-11,5],[18,17],[9,3],[10,-2],[10,-6],[5,-1],[7,-1],[5,-2],[4,-3],[7,-8],[22,-6],[11,-6],[4,-10],[-2,-5],[-5,-5],[-8,-4],[2,-4],[4,-5]],[[1309,1967],[-3,-4],[-6,3],[-11,9],[-5,6],[-2,4],[0,3],[2,4],[4,0],[7,-5],[7,-1],[2,-1],[5,-4],[2,-4],[-2,-10]],[[1787,1894],[7,-2],[12,6],[8,12],[9,9],[15,-1],[23,-18],[9,-3],[8,-1],[23,-11],[9,0],[6,3],[6,5],[7,2],[42,0],[8,-2],[7,-3],[6,-4],[3,-6],[1,-4],[0,-3],[2,-6],[5,-5],[15,-3],[16,1],[55,8],[2,1],[4,2],[2,7],[2,5],[0,4],[-4,5],[-2,4],[2,6],[8,11],[-2,12],[9,4],[13,-3],[12,-6],[4,-4],[4,-4],[5,-5],[7,-2],[7,0],[6,1],[28,8],[14,-3],[12,-5],[10,-12],[12,-20],[12,-15],[9,-15],[14,-7],[20,-7],[21,-1],[12,-14],[8,-5],[8,4],[6,-3],[6,1],[5,4],[8,3],[2,2],[4,1],[3,-1],[4,-1],[3,0],[1,3],[-1,5],[5,2],[8,-3],[1,-5],[5,0],[5,5],[3,2],[4,-8],[0,-8],[18,-12],[16,-7],[22,-10],[9,-3],[7,-3],[7,0],[6,0],[4,1],[6,4],[9,6],[2,1],[3,2],[3,4],[1,5],[-1,5],[-2,3],[-4,4],[4,1],[6,-4],[12,-3],[23,-1],[8,-4],[2,4],[8,1],[1,-9],[3,-25],[30,-38],[7,-3],[5,-2],[19,-11],[13,-67],[11,-34],[21,-2],[15,-10],[16,-6],[16,0],[16,9],[3,-4],[5,-2],[7,0],[5,-2],[2,-2],[3,-3],[3,-4],[4,-4],[8,-2],[8,1],[6,2],[2,5],[1,8],[3,6],[7,0],[8,-2],[4,-2],[14,-11],[9,-3],[10,-6],[2,-1],[10,1],[64,-7],[31,5],[20,22],[14,-13],[71,-10],[62,-20],[16,-2],[16,0],[47,7],[9,3],[4,3],[1,2],[7,8],[2,2],[4,-2],[2,-3],[0,-4],[2,-4],[5,-3],[17,-8],[12,-4],[16,-11],[7,-4],[10,-1],[6,3],[6,4],[7,1],[8,1],[6,2],[5,3],[15,15],[16,22],[27,54],[4,17],[2,13],[1,15],[2,7],[3,5],[1,4],[-4,8],[8,2],[3,2],[6,9],[5,3],[18,8],[10,1],[4,2],[5,2],[3,1],[23,3],[7,3],[4,-3],[10,-6],[4,-2],[7,0],[4,0],[1,2],[2,2],[3,-2],[3,-3],[0,-1],[5,-3],[4,-4],[2,-5],[3,-14],[6,-13],[13,-39],[7,-13],[2,-2],[3,0],[2,0],[68,-8],[8,1],[15,3],[8,1],[6,4],[12,18],[6,6],[9,-6],[21,-4],[12,-5],[4,-4],[12,-15],[7,-6],[8,-8],[8,-6],[8,-4],[25,-6],[15,-2],[6,-2],[6,0],[8,3],[12,6],[8,2],[6,-2],[13,-12],[21,-28],[6,-5],[8,-1],[16,0],[15,2],[12,4],[4,1],[15,0],[8,1],[15,6],[8,0],[14,-2],[5,-2],[3,1],[2,3],[2,0],[8,-1],[6,-5],[5,-5],[5,-3],[0,-543],[-21,0],[-6,2],[-4,3],[-6,2],[-8,1],[2,3],[1,2],[-7,5],[-9,4],[-9,1],[-8,0],[-3,-1],[-10,-4],[-5,0],[-3,2],[-1,1],[-2,2],[-7,2],[-67,7],[-8,3],[-12,7],[-3,0],[-9,-6],[-2,-2],[-2,-1],[-3,0],[-7,2],[-9,8],[-5,2],[-10,-1],[-4,1],[-4,2],[-3,2],[-4,1],[-4,-2],[-3,-8],[0,-7],[-1,-6],[-7,-2],[-1,2],[-2,4],[-2,5],[-4,2],[-3,-2],[-2,-3],[-2,-8],[-1,-1],[-2,-4],[-1,-3],[5,-3],[1,-3],[-2,-2],[-4,-1],[-8,1],[-7,3],[-5,6],[-4,7],[-2,0],[-4,-5],[-6,1],[-13,7],[-5,0],[-5,-4],[-6,-1],[-25,6],[-2,6],[0,4],[0,3],[-6,3],[-3,0],[-7,-2],[-3,0],[-2,1],[-5,3],[-3,1],[-19,0],[-4,-1],[-2,1],[-4,4],[-3,1],[-3,-1],[-4,-1],[-1,-2],[-30,-9],[-3,0],[-2,4],[-1,4],[-2,3],[-4,1],[-4,1],[-4,2],[-2,5],[0,5],[-3,3],[-2,-1],[-2,-2],[-1,-4],[-2,-3],[-4,-5],[-2,-2],[-3,-1],[-15,0],[-7,2],[-24,11],[-31,7],[-48,3],[-3,1],[-6,5],[-3,1],[-8,1],[-7,3],[-14,7],[0,-3],[-19,9],[-10,3],[-10,1],[-7,2],[-24,13],[-3,0],[-4,0],[-4,1],[-1,2],[-9,9],[-2,1],[-7,7],[-3,1],[-12,1],[-92,48],[-37,11],[-9,6],[-9,-3],[-13,3],[-13,5],[-21,5],[-35,11],[-62,7],[-15,-4],[-7,-1],[-3,4],[-1,2],[-3,1],[-2,1],[-2,2],[0,2],[3,4],[0,2],[-3,1],[-10,4],[-63,6],[-36,3],[-18,-5],[-5,-7],[-5,-4],[-2,0],[-11,9],[-4,2],[-4,0],[-9,1],[-7,1],[-6,2],[-4,4],[-3,17],[-3,8],[-6,-1],[-2,-2],[-9,-4],[-3,-3],[-5,-7],[-2,-3],[-4,-3],[-10,-7],[-10,5],[-2,1],[-3,2],[-2,2],[-4,0],[-5,-2],[-3,-4],[-3,-3],[2,-7],[-1,-3],[-2,-1],[-7,2],[-2,8],[-3,2],[-5,1],[-24,-1],[-7,-2],[-12,-10],[-1,-16],[-3,-10],[-15,-10],[-46,1],[-69,11],[-67,17],[-18,0],[-15,-2],[-12,6],[-1,10],[-8,5],[-10,3],[-23,3],[-11,3],[-3,9],[-6,9],[-13,6],[-12,10],[-13,3],[-10,5],[-17,4],[-4,8],[-7,1],[-7,2],[-2,0],[-3,1],[-3,3],[-18,-3],[-23,3],[-19,3],[-12,1],[-12,4],[-12,3],[-15,4],[-85,7],[-30,1],[-66,6],[-31,2],[-16,13],[-7,4],[-10,1],[-9,-4],[-4,-2],[1,7],[0,9],[-9,9],[3,16],[-1,7],[2,7],[4,8],[6,7],[7,4],[6,-1],[7,1],[2,4],[-6,8],[6,6],[15,18],[9,9],[1,14],[-2,12],[-10,7],[-10,-1],[-11,5],[-10,-3],[-7,-11],[-1,0],[-9,-3],[-9,-1],[-7,1],[-5,1],[-3,2],[-3,1],[-6,1],[-1,1],[-4,5],[-2,1],[-5,1],[-1,2],[-1,2],[-2,3],[-2,2],[-13,10],[-12,-1],[-16,7],[-26,22],[-17,5],[-10,2],[-7,0],[-8,-1],[-7,-1],[-6,-2],[-2,-5],[-5,-2],[-4,5],[-7,-2],[-11,0],[-11,-2],[-7,-2],[-7,2],[-11,2],[-8,1],[-38,-5],[-16,-2],[-7,-6],[-13,4],[-5,-2],[-5,5],[-4,3],[-7,1],[-1,-2],[-3,-2],[-4,-1],[-1,1],[-1,3],[-2,2],[-2,3],[-2,1],[-15,6],[-17,1],[-3,-2],[-2,-7],[-2,-3],[-2,-2],[-4,-1],[-6,3],[-4,6],[-4,14],[-5,3],[-2,3],[1,2],[3,1],[12,-2],[5,2],[7,5],[10,11],[3,6],[3,7],[3,5],[7,2],[4,-2],[5,-4],[4,-5],[3,-4],[1,-5],[0,-4],[0,-3],[9,-15],[2,-6],[4,-5],[7,-2],[7,2],[4,7],[6,17],[4,7],[28,27],[6,7],[2,6],[-3,30],[9,19],[4,3],[8,-1],[2,-13],[6,-3],[4,-5],[10,1],[16,7],[10,13],[5,15],[-1,12],[4,64],[3,13],[10,30],[8,15],[25,26],[3,2],[4,4],[7,24],[9,9],[12,4],[11,-2],[8,-9],[2,-23],[2,-4],[4,-2],[11,-7]],[[2045,2987],[-2,-1],[-17,4],[-6,3],[-15,12],[-12,4],[1,4],[3,3],[1,1],[3,7],[1,1],[9,6],[7,4],[7,1],[5,-4],[7,-3],[16,-3],[7,-4],[3,-7],[-9,-16],[1,-9],[-10,-3]],[[2274,3042],[-5,-8],[-7,-6],[-13,-4],[-6,-8],[-4,3],[-11,12],[-10,7],[2,4],[7,-2],[5,2],[5,3],[2,6],[10,6],[11,4],[10,2],[4,-2],[-1,-5],[2,-3],[2,-3],[-3,-8]],[[2402,3162],[13,-6],[13,-1],[6,2],[19,-4],[6,-2],[4,-4],[6,-19],[3,0],[2,10],[3,4],[5,3],[11,-5],[3,-1],[3,-7],[2,-1],[6,-2],[5,-4],[3,-6],[2,-6],[7,3],[6,-1],[25,-29],[3,-14],[6,-12],[1,-8],[-2,-6],[-4,-5],[-3,-4],[-2,-3],[-3,-10],[-15,-19],[-4,-10],[0,-4],[2,-5],[0,-4],[-1,-3],[-3,-7],[0,-4],[-1,-1],[-2,-2],[-2,-3],[0,-4],[1,-2],[6,-5],[2,-4],[-8,0],[-13,-6],[-7,-2],[-9,0],[-6,-1],[-5,-4],[-1,-7],[0,-13],[-4,-2],[-10,0],[-9,-2],[-7,-2],[-4,1],[-4,8],[0,17],[-2,7],[-9,6],[-19,18],[1,0],[0,3],[-1,3],[-2,4],[-5,3],[-2,-1],[-2,-1],[-5,-1],[-7,-3],[0,-5],[6,-10],[0,-14],[-10,-8],[-22,-11],[-25,0],[-10,-13],[-10,-3],[-10,5],[-3,8],[4,11],[13,16],[0,2],[0,2],[-2,2],[-2,1],[-2,3],[-10,8],[-1,3],[0,5],[0,4],[0,4],[-2,4],[-1,3],[-2,4],[0,4],[2,5],[7,8],[1,4],[1,13],[-2,1],[-7,-1],[-9,-4],[-3,0],[-2,4],[0,5],[4,4],[4,3],[5,1],[7,4],[2,10],[-1,12],[-4,9],[5,2],[5,4],[5,4],[2,4],[-1,23],[6,37],[6,8],[15,4],[5,-1],[11,-2],[6,0],[6,2],[10,8],[6,3],[5,-9]],[[0,4096],[931,0],[-2,-3],[-4,-2],[-4,0],[-8,1],[-31,-2],[-3,-2],[0,-7],[-2,-1],[-5,-1],[-3,-1],[-3,0],[-3,2],[-3,2],[-4,8],[-3,2],[-2,0],[-4,-1],[-3,-2],[-1,-2],[1,-4],[2,-1],[3,0],[1,-2],[0,-3],[-2,-4],[0,-4],[3,-8],[-4,-3],[-7,-3],[-5,-1],[-13,0],[-5,-1],[-2,-5],[-2,-10],[-6,-9],[-9,-7],[-10,-5],[-41,-8],[-11,-7],[6,0],[10,-2],[6,-1],[7,2],[11,4],[6,2],[10,3],[12,6],[11,2],[5,-6],[-3,-9],[-14,-13],[-3,-10],[-4,-8],[-10,-4],[-23,-4],[0,-2],[12,-5],[8,-2],[6,3],[5,1],[19,0],[4,-1],[3,-1],[3,-2],[3,-2],[4,-3],[8,-1],[14,-9],[3,-4],[-2,-7],[-7,-7],[-10,-5],[-11,-4],[-36,-7],[-6,3],[-4,7],[-6,15],[3,-23],[1,-4],[8,-6],[3,-4],[1,-9],[-3,-11],[-6,-10],[-7,-5],[0,-3],[6,-4],[-1,-6],[-6,-4],[-9,-1],[4,-6],[7,-5],[9,-5],[13,-2],[1,0],[4,-2],[5,-3],[2,-3],[-2,-6],[-6,-6],[-2,-5],[16,3],[8,0],[7,-4],[4,-5],[5,-12],[5,-4],[1,-1],[5,1],[1,0],[1,-1],[1,-3],[1,-1],[2,-3],[2,-3],[3,-3],[8,-3],[2,-3],[2,-4],[2,-2],[14,-2],[5,-4],[8,-9],[5,-2],[9,-1],[6,-2],[5,-4],[4,-6],[6,-14],[3,-3],[4,15],[6,7],[8,5],[8,3],[15,3],[5,2],[24,-11],[7,-5],[6,-3],[19,0],[6,-1],[23,-13],[9,-2],[15,6],[3,2],[21,6],[21,1],[1,-3],[11,-32],[-5,-24],[1,-14],[4,-12],[1,-3],[11,-12],[2,-4],[2,-23],[0,-56],[3,-16],[6,-15],[14,-27],[5,-16],[1,-3],[1,-7],[0,-4],[-2,-4],[-5,-10],[-2,-4],[-9,-15],[-2,-7],[0,-6],[1,-5],[4,-9],[6,6],[5,19],[4,5],[10,-2],[8,-7],[7,-8],[6,-4],[5,-4],[-3,-10],[-5,-11],[-4,-6],[-3,-3],[-3,-4],[1,-2],[6,0],[5,3],[8,11],[5,4],[1,-7],[1,-9],[1,-6],[5,-3],[1,-1],[1,0],[1,-1],[2,-1],[1,1],[1,2],[1,2],[2,0],[2,1],[7,7],[16,5],[15,-4],[13,-11],[9,-15],[3,-17],[-3,-14],[-6,-13],[-11,-17],[-26,-31],[-5,-4],[-6,-1],[-15,-1],[-5,-2],[-5,-4],[-13,-9],[-6,-5],[25,11],[13,0],[7,-14],[0,-16],[-1,-9],[-5,-12],[0,-17],[-2,-6],[-3,-3],[-7,-3],[-7,-3],[-6,-1],[-4,-2],[-11,-7],[-12,-11],[-8,-11],[-5,-12],[1,-15],[-1,1],[-1,-2],[0,-4],[5,5],[6,8],[4,8],[2,8],[2,6],[6,5],[12,8],[25,12],[11,7],[6,11],[7,24],[1,8],[-1,16],[1,5],[5,7],[11,11],[6,8],[5,15],[6,5],[8,2],[6,-3],[3,-7],[0,-9],[1,-9],[6,-5],[1,8],[4,6],[6,3],[8,1],[8,-2],[5,-5],[5,-5],[6,-3],[3,0],[8,2],[4,0],[4,-2],[5,-4],[2,-1],[8,1],[23,11],[8,1],[8,1],[8,-2],[14,-8],[9,-2],[18,0],[31,-5],[16,-1],[9,-2],[6,-2],[0,-3],[-1,0],[-2,0],[-2,0],[4,-4],[6,2],[5,5],[4,2],[7,0],[5,-2],[4,-5],[0,-10],[-2,-8],[-6,-15],[-2,-9],[1,-8],[1,-8],[2,-8],[4,-7],[4,-6],[6,-7],[6,-5],[11,-3],[7,-3],[4,-1],[9,0],[4,-1],[4,-2],[6,-12],[-1,-51],[6,-13],[11,-12],[14,-7],[16,-3],[4,1],[7,2],[4,0],[4,-1],[6,-3],[4,-1],[5,-2],[5,-5],[6,-11],[3,-12],[0,-30],[2,-16],[2,-3],[4,-8],[1,-4],[0,-4],[-2,-8],[0,-4],[-4,-4],[-24,-12],[-12,-11],[-12,-13],[-11,-15],[-7,-17],[-22,-81],[2,-14],[9,-12],[30,-21],[7,-12],[0,-13],[-6,-15],[-24,-34],[-3,-12],[-2,-13],[-9,-25],[-1,-7],[-6,-29],[1,-13],[2,-10],[3,-9],[6,-10],[5,-10],[-2,-9],[5,-3],[4,-4],[6,-13],[1,1],[0,1],[2,1],[1,-7],[-2,-15],[3,-13],[-2,-7],[-4,-7],[-1,-6],[1,-7],[5,-18],[-5,-3],[-4,-7],[-4,-31],[-1,-16],[2,-9],[13,-22],[1,-12],[-5,-12],[-6,-12],[-5,-12],[-2,-31],[2,-32],[-1,-16],[-9,-30],[-2,-17],[2,-31],[-1,-8],[-5,-14],[4,-23],[0,-15],[-2,-8],[-6,-15],[-2,-8],[-5,-29],[-4,-12],[-6,-10],[-12,-12],[-1,-3],[-4,4],[0,14],[-2,6],[-12,5],[-28,3],[-6,7],[-2,29],[-5,12],[-8,8],[-2,-2],[-4,-5],[-1,-1],[-4,1],[-3,1],[-2,2],[-3,1],[-4,2],[-12,13],[-19,16],[-8,9],[-24,33],[-11,8],[-10,-5],[-2,-8],[4,-14],[-4,-7],[1,-1],[-4,-11],[-1,-1],[-2,-1],[-4,0],[-6,2],[-8,-4],[0,-6],[3,-7],[3,-9],[0,-10],[1,-4],[3,-3],[2,-2],[1,-2],[-5,-3],[-10,-3],[-7,-4],[1,-6],[7,-3],[9,-1],[5,-2],[-5,-6],[-7,-3],[-7,-1],[-12,-1],[-5,2],[-16,13],[-63,28],[-22,17],[-18,6],[-8,6],[-21,24],[-4,4],[-7,3],[-14,3],[-7,3],[-4,4],[-2,0],[1,-1],[1,-6],[-9,0],[-7,-1],[-6,-2],[-6,-6],[-2,-6],[1,-7],[57,-91],[3,-14],[2,-15],[4,-9],[1,-4],[-2,-2],[-4,-1],[-50,1],[-3,3],[2,13],[-2,9],[-5,6],[-19,17],[-3,2],[-6,3],[-2,4],[-3,7],[-24,22],[-6,3],[-25,15],[-3,7],[9,7],[-5,7],[-16,17],[-8,5],[-4,1],[-3,0],[-3,1],[-5,3],[-2,3],[-1,4],[-3,4],[-12,3],[-7,5],[-5,5],[-27,33],[-16,16],[-2,6],[4,7],[1,6],[-4,6],[-6,5],[-4,2],[-8,1],[-8,0],[-7,2],[-2,6],[1,4],[5,7],[1,4],[0,8],[-1,3],[-1,3],[-6,7],[-22,13],[-9,10],[-5,4],[-7,1],[-9,0],[-5,1],[-3,3],[-1,3],[4,11],[-1,2],[-2,1],[-4,3],[-4,2],[-5,2],[-4,-2],[-3,-2],[-7,-6],[-8,16],[-5,5],[-9,4],[-3,0],[-8,0],[-3,0],[-2,2],[0,1],[-2,2],[-4,2],[-5,5],[-3,3],[-4,2],[-4,2],[-5,1],[-5,0],[-4,-2],[-5,-2],[-4,-2],[-4,1],[-2,3],[-6,17],[-2,3],[-3,3],[-7,4],[-5,-5],[-6,2],[-5,7],[-4,15],[-7,7],[-41,36],[-45,27],[-47,19],[-6,5],[-5,14],[-5,7],[-64,55],[-63,44],[-59,46],[-9,5],[-10,7],[-8,10],[-3,13],[2,5],[7,12],[1,7],[-2,7],[-11,13],[-4,6],[-1,4],[0,4],[1,2],[0,3],[-2,4],[-3,3],[-2,4],[-1,5],[0,13],[-3,7],[-4,6],[-57,34],[-69,47],[-87,63],[-9,9],[-10,18],[-7,5],[-53,86],[-4,16],[-30,53],[-10,12],[-13,9],[-5,2],[0,981]],[[4096,2843],[-40,29],[-15,6],[-17,4],[-36,-6],[-31,-19],[-53,-53],[-15,-12],[-10,-5],[-6,1],[-7,3],[-17,6],[-5,4],[0,8],[8,16],[2,8],[3,23],[0,8],[-10,63],[1,17],[5,30],[-4,16],[-22,41],[-3,14],[0,16],[-1,2],[-2,1],[-3,1],[-1,4],[1,7],[6,10],[0,7],[-5,-3],[-6,-5],[-4,-6],[-2,-5],[2,-17],[1,-5],[-2,-4],[-4,-3],[-3,-2],[-1,-2],[-1,-1],[-2,-2],[-2,-3],[-1,-3],[2,-3],[2,-1],[2,-1],[3,-3],[2,-1],[1,-1],[1,-3],[-1,-2],[-3,1],[-1,-2],[-16,-5],[-23,-18],[-6,-2],[-6,-1],[-7,2],[-3,6],[-1,6],[-3,6],[-10,8],[-14,4],[-31,3],[-14,-1],[-10,-4],[-86,-46],[-27,-9],[-16,-2],[-13,3],[-30,17],[-7,2],[-13,0],[-6,2],[1,5],[3,6],[4,4],[11,10],[12,5],[12,3],[31,13],[3,1],[-3,7],[-8,-2],[-14,-9],[-6,-3],[-18,-6],[-7,-1],[-6,-3],[-6,-6],[-29,-37],[-13,-7],[-12,10],[-1,4],[2,1],[3,1],[1,3],[0,4],[-2,9],[-1,7],[-2,9],[-5,15],[-10,12],[-14,3],[-15,-2],[-38,-17],[-38,-29],[-13,-1],[-9,11],[-6,15],[-7,13],[6,7],[6,11],[4,11],[-1,11],[-6,16],[-2,15],[-3,12],[-1,6],[-3,5],[-13,2],[-4,5],[1,3],[7,8],[2,5],[5,9],[12,-2],[12,0],[6,14],[-12,-8],[-10,3],[-7,9],[-15,26],[-1,6],[-1,16],[-5,32],[-3,8],[-5,3],[-5,3],[-3,6],[-1,7],[1,7],[3,16],[5,15],[4,16],[-2,16],[-10,24],[-2,4],[-6,10],[-3,1],[-12,3],[-17,9],[-7,2],[-5,2],[-18,18],[2,1],[3,3],[2,1],[-3,2],[-2,2],[0,4],[0,4],[4,4],[17,9],[5,2],[5,3],[3,7],[11,24],[2,7],[1,24],[10,47],[1,16],[-4,16],[-6,15],[-5,7],[-8,3],[-7,1],[-9,3],[-6,6],[1,7],[-8,3],[-3,8],[1,10],[5,17],[-1,5],[-4,4],[-9,1],[-2,0],[-9,5],[-4,0],[-8,0],[-5,4],[-4,11],[-9,4],[-4,6],[-6,10],[-7,8],[-2,5],[-1,8],[1,6],[3,3],[3,3],[3,5],[2,5],[0,1],[-11,-3],[-4,-4],[-1,-5],[-1,-8],[-1,-8],[-4,-5],[-10,-8],[-10,6],[-7,5],[-2,0],[-3,-1],[-4,-1],[-2,4],[-7,19],[-7,7],[-13,5],[-13,4],[-19,2],[-3,0],[-3,-2],[-3,-3],[1,-3],[2,-2],[1,-4],[-2,-7],[-4,-3],[-6,0],[-5,1],[-15,7],[-3,2],[-3,0],[-13,8],[-4,3],[-10,58],[2,7],[4,3],[6,0],[7,-6],[6,-4],[25,0],[6,-3],[11,-8],[10,-2],[2,-1],[2,-1],[4,0],[8,2],[3,2],[-1,3],[-3,2],[-10,-2],[-3,2],[-7,9],[-3,3],[-8,6],[-8,3],[-4,1],[-6,0],[-3,2],[0,2],[2,1],[3,2],[-2,1],[-1,2],[-2,2],[0,2],[7,0],[12,-2],[6,0],[0,2],[-8,6],[-10,4],[-11,1],[-24,-1],[-6,-2],[-2,1],[-2,3],[-6,2],[-1,2],[-1,3],[-1,1],[-4,2],[-1,1],[-2,0],[-3,0],[-4,-1],[-3,-1],[-3,0],[-4,3],[-8,7],[-3,5],[-2,6],[-8,33],[-1,15],[1,3],[4,0],[8,0],[-12,17],[-4,10],[4,8],[0,3],[-5,1],[-4,1],[-4,-1],[0,-6],[-6,3],[-1,6],[1,6],[4,5],[3,1],[6,2],[12,2],[10,-1],[11,-3],[9,-4],[6,-5],[3,0],[-3,6],[-7,7],[-3,5],[-1,4],[1,15],[-1,20],[-3,10],[-7,11],[-1,6],[0,3],[1217,0],[0,-1253]],[[2809,3519],[1,-5],[-1,-6],[-3,-5],[-3,-5],[-6,-3],[-23,-8],[-4,-1],[-10,1],[-1,2],[-1,4],[-1,5],[1,3],[2,3],[1,4],[-1,4],[-1,3],[-2,1],[-7,-1],[-4,2],[5,6],[9,3],[17,3],[4,3],[2,2],[2,0],[6,-2],[5,-2],[10,-7],[3,-4]],[[2886,3628],[-12,-13],[-2,-1],[-1,2],[-1,5],[-2,0],[-2,-1],[-2,0],[0,-2],[-3,0],[-3,1],[1,3],[2,3],[2,2],[3,1],[4,0],[4,1],[6,7],[4,-1],[4,-3],[-2,-4]],[[3042,3739],[13,-8],[6,-3],[6,0],[5,3],[3,3],[3,2],[7,-2],[6,-4],[4,-6],[3,-6],[0,-27],[1,-2],[3,-2],[3,-2],[1,-4],[-1,-3],[-4,-2],[-8,-3],[-17,-13],[-4,-2],[-5,-1],[-26,-12],[-12,-6],[-12,-4],[-12,-12],[-9,-3],[-5,2],[-7,4],[-7,6],[-3,4],[1,9],[9,23],[2,60],[3,7],[6,3],[6,-1],[12,-3],[7,-1],[4,1],[8,5],[4,1],[6,-1]],[[1201,3950],[16,-18],[2,-6],[-2,-7],[-7,-6],[-14,-11],[-3,-7],[-2,-18],[-4,-6],[-12,0],[-11,10],[-10,4],[-9,-14],[-4,-14],[-3,-3],[-7,0],[-4,30],[-3,13],[-4,5],[-5,-1],[-21,21],[0,5],[3,5],[5,13],[3,4],[10,8],[4,5],[3,7],[3,0],[2,-6],[-4,-15],[2,-9],[2,0],[1,8],[2,7],[2,0],[9,-5],[12,7],[19,18],[7,-6],[3,-2],[8,-3],[2,-1],[3,-3],[3,-6],[3,-3]],[[913,3969],[-3,-1],[-13,1],[-6,-1],[-10,-5],[-4,-1],[-3,-2],[-9,-5],[-5,-1],[-3,1],[-4,3],[-5,2],[-4,-2],[-8,-2],[-20,8],[-11,-2],[0,12],[9,17],[13,16],[13,7],[6,0],[20,-4],[4,-2],[4,-5],[7,-3],[16,-3],[8,-4],[7,-7],[4,-9],[-3,-8]],[[1181,3983],[-3,-1],[-2,0],[-4,0],[-5,-3],[-3,0],[-10,0],[-5,3],[-2,5],[2,5],[6,2],[21,3],[3,-1],[2,-3],[1,-3],[0,-3],[-1,-4]],[[1223,4096],[4,-2],[20,-18],[2,-4],[-12,-3],[0,-3],[2,-3],[2,-2],[2,-1],[4,1],[3,2],[3,1],[5,-3],[11,-12],[7,-16],[4,-6],[8,-3],[10,1],[2,3],[0,6],[2,8],[8,3],[11,-10],[18,-26],[31,-16],[-4,-5],[-7,1],[-9,4],[-8,1],[-7,-3],[1,-5],[4,-5],[2,-7],[-20,9],[-6,1],[-5,2],[-7,7],[-19,9],[-6,5],[-4,6],[-6,4],[-8,2],[-15,-1],[-6,-1],[-6,-3],[-8,-6],[-4,-1],[-2,0],[-6,2],[-2,-1],[-3,-3],[-3,-2],[-4,-5],[-4,-1],[-4,0],[-2,2],[-1,2],[-1,3],[-4,5],[-3,3],[-6,2],[-9,0],[-4,1],[-3,2],[-1,4],[0,5],[0,4],[2,2],[5,2],[14,12],[6,8],[3,9],[2,30],[2,3],[29,0]],[[2127,3032],[-3,-2],[-5,1],[-4,2],[-5,2],[-4,3],[-6,3],[5,7],[5,7],[5,3],[1,2],[1,2],[3,1],[2,-2],[3,-6],[5,-7],[-1,-9],[-2,-7]],[[1684,3550],[7,0],[7,-2],[3,-3],[2,-6],[4,-6],[3,-1],[4,0],[8,0],[3,-1],[17,-12],[3,-3],[1,-4],[0,-4],[-4,-3],[-1,-4],[0,-15],[1,-5],[3,-3],[4,-2],[2,-2],[2,-3],[2,-6],[1,-3],[2,-2],[3,-2],[2,-2],[0,-3],[1,-5],[1,-3],[3,-2],[4,-1],[4,-2],[-1,-4],[-1,-4],[0,-3],[19,-22],[2,-3],[-2,-4],[-4,-23],[0,-16],[13,-63],[24,-64],[9,-15],[11,-14],[12,-11],[6,-4],[10,-3],[8,-2],[4,5],[4,0],[41,-14],[47,-8],[24,-9],[7,-1],[17,0],[7,-2],[0,-5],[-3,-3],[-2,0],[-4,1],[-4,-1],[-12,-7],[-4,-1],[-6,-2],[-6,-5],[-17,-26],[-23,-63],[-3,-14],[4,-12],[13,-8],[4,-1],[5,0],[3,-2],[4,-3],[2,-3],[2,-3],[6,-1],[6,-2],[3,-6],[0,-6],[-3,-6],[4,-5],[1,-2],[-3,-3],[-3,2],[-2,-2],[-4,-3],[-4,-2],[-3,1],[-2,1],[-2,1],[-6,-3],[-2,1],[-2,3],[-2,1],[-20,4],[-10,-2],[-2,-10],[-4,2],[-1,1],[-8,-4],[-5,4],[-4,8],[-1,8],[-2,4],[-4,4],[-8,5],[-2,4],[-5,9],[-4,3],[-7,2],[-17,0],[-7,2],[-18,18],[-75,26],[-8,2],[-26,2],[-5,3],[-24,39],[-5,15],[-2,17],[4,16],[7,16],[4,15],[-5,16],[-12,7],[-14,6],[-11,9],[-3,18],[2,10],[0,5],[-1,3],[-3,6],[-2,6],[-3,7],[-1,4],[0,13],[-1,10],[-2,5],[-4,3],[-5,3],[-6,2],[-22,3],[-2,1],[-3,3],[-2,1],[-2,0],[-4,-2],[-2,0],[-11,1],[-4,1],[-4,4],[-6,10],[-5,4],[-8,-6],[-19,-6],[-7,-3],[-8,-6],[-3,0],[-7,1],[-24,0],[-18,-5],[-3,1],[-2,2],[-8,11],[-1,3],[-14,6],[-6,2],[-13,-1],[-6,-2],[-5,-2],[-7,13],[-1,15],[4,14],[7,11],[10,7],[42,15],[28,19],[10,15],[-3,16],[-14,9],[-8,6],[3,3],[3,1],[0,3],[-2,7],[2,4],[3,2],[4,1],[4,2],[1,2],[2,6],[2,2],[2,0],[5,0],[2,1],[15,15],[4,2],[17,-1],[7,2],[3,2],[3,3],[4,4],[11,2],[6,-5],[3,-10],[0,-9],[3,-8],[7,-7],[10,-6],[10,-3],[-4,-5],[-14,-13],[-1,-6],[5,-6],[7,-6],[5,-4],[7,-3],[4,0],[5,2],[7,1],[2,-1],[3,-7],[2,-2],[2,0],[10,0],[-3,7],[-4,7],[-12,12],[-3,7],[0,7],[2,14],[-1,1],[-6,10],[-1,4],[-1,6],[-1,3],[-2,5],[-3,5],[-3,4],[-4,4],[8,3],[33,-1],[9,3],[15,10]],[[354,3777],[42,4],[0,56],[40,-42],[39,5],[11,-65],[72,-14],[-28,-36],[16,-57],[-27,-10],[-20,66],[-36,-11],[-56,28],[-53,76]],[[3152,3655],[35,4],[8,-21],[10,2],[-21,28],[24,1],[9,42],[29,-24],[111,-7],[-26,-16],[14,-30],[-57,-11],[-14,-32],[-65,34],[-3,-19],[-54,49]],[[3986,3894],[110,5],[0,-144],[-32,4],[-11,76],[-33,-2],[-34,61]],[[996,3548],[81,117],[49,9],[39,-103],[-17,-68],[-47,-20],[-17,47],[-88,18]],[[2320,1533],[-27,15],[-10,32],[70,-14],[-33,-33]],[[1974,1869],[105,10],[80,-95],[-88,-9],[-28,-32],[-55,23],[-74,46],[60,57]],[[2694,3468],[40,13],[-25,31],[11,27],[179,48],[68,-39],[-39,-73],[-122,7],[-85,-42],[-27,28]],[[2745,3516],[29,2],[-4,-36],[45,27],[-31,25],[-39,-18]],[[2704,3466],[19,-3],[21,7],[-37,2],[-3,-6]],[[1810,1623],[17,32],[42,6],[-30,-1],[-15,28],[45,-5],[10,24],[31,-1],[-25,-22],[14,-28],[15,15],[44,-34],[50,15],[-31,-46],[-45,15],[28,-36],[-46,-25],[-23,53],[-81,10]],[[1839,1641],[15,-13],[13,18],[-12,5],[-16,-10]],[[1910,1632],[8,-1],[6,-3],[-9,13],[-5,-9]],[[1868,1671],[8,-6],[5,4],[-7,6],[-6,-4]],[[783,2401],[21,27],[65,-17],[13,-49],[70,-43],[-18,-21],[20,-20],[121,-59],[44,25],[51,-32],[-47,-57],[-34,61],[4,-51],[135,-150],[46,-100],[-79,9],[20,7],[4,13],[-50,27],[11,36],[-54,9],[23,24],[-10,46],[-77,34],[-61,74],[6,37],[-46,7],[-32,53],[-75,1],[-2,83],[-41,-17],[-28,43]],[[3222,1928],[0,88],[153,0],[0,-88],[-153,0]],[[3240,3135],[99,28],[14,62],[30,-103],[-10,-70],[-76,-54],[-30,40],[15,35],[-18,52],[-24,10]],[[1078,3450],[3,27],[57,19],[63,-11],[11,-59],[102,-57],[25,-76],[-128,-88],[-14,21],[58,17],[26,39],[-26,32],[-48,-11],[9,37],[-45,-1],[-29,41],[-41,6],[-23,64]],[[3806,3072],[60,2],[22,74],[87,-95],[24,-115],[-22,-62],[-55,-10],[5,-22],[-52,-42],[-40,7],[20,32],[-4,139],[-45,92]],[[1881,1989],[0,128],[91,0],[0,-128],[-91,0]],[[1563,2268],[51,89],[47,-2],[16,44],[3,-228],[-63,77],[-54,20]]]}