{"objects":{"water":{"type":"GeometryCollection","geometries":[{"type":"Polygon","properties":{"source":"naturalearthdata.com","kind":"ocean","area":1576712559132672,"sort_rank":200,"min_zoom":0.0,"id":1},"arcs":[[1]]},{"type":"LineString","properties":{"source":"naturalearthdata.com","kind":"ocean","sort_rank":205,"boundary":true,"min_zoom":0.0,"id":56},"arcs":[2]}]},"buildings":{"type":"GeometryCollection","geometries":[]},"places":{"type":"GeometryCollection","geometries":[{"type":"Point","properties":{"source":"openstreetmap.org","kind":"region","name":"Dakar","kind_detail":"state","name:ar":"\u062f\u0627\u0643\u0627\u0631","min_zoom":4.0,"id":2242821238},"coordinates":[2792,2568]},{"type":"Point","properties":{"source":"openstreetmap.org","kind":"region","name":"Thi\u00e8s","kind_detail":"state","name:ar":"\u062b\u064a\u0633","min_zoom":4.0,"id":2242821252},"coordinates":[3869,2623]},{"type":"Point","properties":{"name:ka":"\u10d3\u10d0\u10d9\u10d0\u10e0\u10d8","name:mr":"\u0921\u0915\u093e\u0930","name:ko":"\ub2e4\uce74\ub974","name:cv":"\u0414\u0430\u043a\u0430\u0440","name:ar":"\u062f\u0643\u0627\u0631","name:kk":"\u0414\u0430\u043a\u0430\u0440","name:th":"\u0e14\u0e32\u0e01\u0e32\u0e23\u0e4c","name:am":"\u12f3\u12ab\u122d","name:ml":"\u0d21\u0d3e\u0d15\u0d4d\u0d15\u0d7c","name:os":"\u0414\u0430\u043a\u0430\u0440","name:ru":"\u0414\u0430\u043a\u0430\u0440","name:ta":"\u0b9f\u0b95\u0bcd\u0b95\u0bbe\u0bb0\u0bcd","name:tg":"\u0414\u0430\u043a\u0430\u0440","name:mk":"\u0414\u0430\u043a\u0430\u0440","name:fa":"\u062f\u0627\u06a9\u0627\u0631","kind_detail":"city","kind":"locality","id":27565045,"source":"openstreetmap.org","name:ky":"\u0414\u0430\u043a\u0430\u0440","name:kn":"\u0ca1\u0c95\u0cbe\u0cb0\u0ccd","name:zh":"\u9054\u5580\u723e","admin_level":"2","name:lv":"Dakara","name:ja":"\u30c0\u30ab\u30fc\u30eb","name:lt":"Dakaras","name:hi":"\u0921\u0915\u093e\u0930","name:he":"\u05d3\u05e7\u05d0\u05e8","name:eo":"Dakaro","name:ur":"\u0688\u0627\u06a9\u0627\u0631","name:bn":"\u09a1\u09be\u0995\u09be\u09b0","name:bo":"\u0f4c\u0f0b\u0f40\u0f62\u0f0d","name:uk":"\u0414\u0430\u043a\u0430\u0440","name:hy":"\u0534\u0561\u056f\u0561\u0580","country_capital":true,"name:be":"\u0414\u0430\u043a\u0430\u0440","name:bg":"\u0414\u0430\u043a\u0430\u0440","name:wo":"Ndakaaru","name:sr":"\u0414\u0430\u043a\u0430\u0440","population":2396800,"name:el":"\u039d\u03c4\u03b1\u03ba\u03ac\u03c1","name:ga":"Dac\u00e1r","name":"Dakar","min_zoom":8.0,"name:gl":"Dacar - Dakar","name:yi":"\u05d3\u05d0\u05e7\u05d0\u05e8"},"coordinates":[2427,2318]},{"type":"Point","properties":{"source":"openstreetmap.org","kind":"locality","name":"Keur Massar","kind_detail":"town","population":337611,"min_zoom":8.0,"id":662915731},"coordinates":[2826,2586]},{"type":"Point","properties":{"kind":"locality","name":"Thi\u00e8s","name:lt":"Tiesas","kind_detail":"city","min_zoom":8.0,"source":"openstreetmap.org","name:fr":"\u062b\u064a\u0633","name:ru":"\u0422\u0438\u0435\u0441","id":671824694,"population":320000},"coordinates":[3949,2613]},{"type":"Point","properties":{"source":"openstreetmap.org","kind":"locality","name":"Gu\u00e9diawaye","kind_detail":"city","population":286989,"min_zoom":8.0,"id":1158142391},"coordinates":[2596,2570]},{"type":"Point","properties":{"source":"openstreetmap.org","kind":"locality","name":"Kayar","kind_detail":"town","population":18010,"min_zoom":8.0,"id":281170165},"coordinates":[3384,2995]}]},"transit":{"type":"GeometryCollection","geometries":[]},"pois":{"type":"GeometryCollection","geometries":[]},"boundaries":{"type":"GeometryCollection","geometries":[{"type":"LineString","properties":{"name:kg":"Senangale","name:ka":"\u10e1\u10d4\u10dc\u10d4\u10d2\u10d0\u10da\u10d8","name:ko":"\uc138\ub124\uac08","name:cv":"\u0421\u0435\u043d\u0435\u0433\u0430\u043b","name:cs":"Senegal","name:tt":"\u0421\u0435\u043d\u0435\u0433\u0430\u043b","name:kw":"Senegal","name:tk":"Senegal","name:ku":"Senegal","name:ti":"\u1234\u1294\u130b\u120d","name:tl":"Senegal","name:ce":"\u0421\u0435\u043d\u0435\u0433\u0430\u043b","name:ta":"\u0b9a\u0bc6\u0ba9\u0bbf\u0b95\u0bb2\u0bcd","name:tg":"\u0421\u0435\u043d\u0435\u0433\u0430\u043b","name:ca":"Senegal","name:te":"\u0c38\u0c46\u0c28\u0c46\u0c17\u0c32\u0c4d","name:qu":"Sinigal","name:da":"Senegal","name:de":"Senegal","source":"openstreetmap.org","name:kn":"\u0cb8\u0cc6\u0ca8\u0cc6\u0c97\u0cb2\u0ccd","name:dv":"\u0790\u07ac\u0782\u07ac\u078e\u07a7\u078d\u07b0","name:lv":"Seneg\u0101la","name:lt":"Senegalas","name:uz":"Senegal","name:kk":"\u0421\u0435\u043d\u0435\u0433\u0430\u043b","name:ur":"\u0633\u06cc\u0646\u06cc\u06af\u0627\u0644","name:lb":"Senegal","name:la":"Senegalia","name:uk":"\u0421\u0435\u043d\u0435\u0433\u0430\u043b","name:ug":"\u0633\u06d0\u0646\u06d0\u06af\u0627\u0644","name:li":"Senegal","name:ln":"Senegale","name:el":"\u03a3\u03b5\u03bd\u03b5\u03b3\u03ac\u03bb\u03b7","name:eo":"Senegalo","name:en":"Senegal","name":"S\u00e9n\u00e9gal","name:ee":"Senegal","name:th":"\u0e1b\u0e23\u0e30\u0e40\u0e17\u0e28\u0e40\u0e0b\u0e40\u0e19\u0e01\u0e31\u0e25","name:eu":"Senegal","name:et":"Senegal","name:es":"Senegal","name:ia":"Senegal","name:az":"Seneqal","name:ie":"Senegal","name:id":"Senegal","name:ar":"\u0627\u0644\u0633\u0646\u063a\u0627\u0644","name:io":"Senegal","name:is":"Senegal","name:am":"\u1234\u1294\u130b\u120d","name:it":"Senegal","name:an":"Senegal","name:ru":"\u0421\u0435\u043d\u0435\u0433\u0430\u043b","name:rw":"Senegali","name:af":"Senegal","name:zu":"ISenegal","kind_detail":"2","name:ky":"\u0421\u0435\u043d\u0435\u0433\u0430\u043b","name:zh-yue":"\u585e\u5167\u52a0\u723e","name:zh":"\u585e\u5185\u52a0\u5c14","name:so":"Sinigaal","name:sn":"Senegal","name:sl":"Senegal","name:sk":"Senegal","name:ja":"\u30bb\u30cd\u30ac\u30eb","name:sh":"Senegal","name:sg":"Seneg\u00e4le","name:se":"Senegal","name:sc":"Seneg\u00e0l","name:br":"Senegal","name:bs":"Senegal","name:bm":"Senegal","name:bn":"\u09b8\u09c7\u09a8\u09c7\u0997\u09be\u09b2","name:bo":"\u0f66\u0f72\u0f0b\u0f53\u0f72\u0f0b\u0f42\u0f71\u0f63\u0f0d","name:sa":"\u0938\u0947\u0928\u0947\u0917\u0932","name:sw":"Senegal","name:be":"\u0421\u0435\u043d\u0435\u0433\u0430\u043b","name:bg":"\u0421\u0435\u043d\u0435\u0433\u0430\u043b","name:ba":"\u0421\u0435\u043d\u0435\u0433\u0430\u043b","name:sq":"Senegali","name:jv":"Senegal","name:pt":"Senegal","name:ps":"\u0633\u06d0\u0646\u06d0\u06ab\u0627\u0644","name:oc":"Senegal","min_zoom":8.0,"name:ro":"Senegal","name:zh-min-nan":"Senegal","name:os":"\u0421\u0435\u043d\u0435\u0433\u0430\u043b","name:or":"\u0b38\u0b47\u0b28\u0b47\u0b17\u0b3e\u0b32","name:pl":"Senegal","name:st":"Senegal","sort_rank":262,"name:sr":"\u0421\u0435\u043d\u0435\u0433\u0430\u043b","osm_relation":true,"name:pa":"\u0a38\u0a47\u0a28\u0a47\u0a17\u0a32","name:tr":"Senegal","name:hi":"\u0938\u0947\u0928\u0947\u0917\u0932","name:sv":"Senegal","name:he":"\u05e1\u05e0\u05d2\u05dc","name:ha":"Senegal","name:hy":"\u054d\u0565\u0576\u0565\u0563\u0561\u056c","name:ht":"Senegal","name:hu":"Szeneg\u00e1l","name:hr":"Senegal","kind":"country","name:ts":"Senegal","name:yi":"\u05e1\u05e2\u05e0\u05e2\u05d2\u05d0\u05dc","name:yo":"S\u1eb9\u0300n\u1eb9\u0300g\u00e0l","name:mt":"Senegal","name:ms":"Senegal","name:mr":"\u0938\u0947\u0928\u0947\u0917\u093e\u0932","name:my":"\u1006\u102e\u1014\u102e\u1002\u1031\u102b\u1014\u102d\u102f\u1004\u103a\u1004\u1036","name:ml":"\u0d38\u0d46\u0d28\u0d46\u0d17\u0d7d","id":-192775,"name:mk":"\u0421\u0435\u043d\u0435\u0433\u0430\u043b","name:vo":"Senegal\u00e4n","name:fa":"\u0633\u0646\u06af\u0627\u0644","name:ff":"Senegaal","name:fi":"Senegal","name:fo":"Senegal","name:fy":"Senegal","name:nl":"Senegal","name:nn":"Senegal","name:no":"Senegal","name:na":"Senegal","name:wa":"Senegal","name:wo":"Senegaal","name:ga":"An tSeineag\u00e1il","name:gd":"Seanagal","name:gl":"Senegal","maritime_boundary":true,"name:gv":"Yn Tenegaal"},"arcs":[0]}]},"roads":{"type":"GeometryCollection","geometries":[{"type":"MultiLineString","properties":{"kind":"major_road","network":"Route Nationale du S\u00e9n\u00e9gal","sort_rank":380,"kind_detail":"primary","source":"openstreetmap.org","min_zoom":8.0,"landuse_kind":"residential","shield_text":"3"},"arcs":[[3],[4],[5],[6],[7],[8],[9],[10],[11],[12],[13],[14],[15],[16],[17],[18]]},{"type":"LineString","properties":{"kind":"major_road","network":"Trans-African Highways","sort_rank":380,"kind_detail":"primary","bus_network":"lcn","source":"openstreetmap.org","min_zoom":8.0,"bus_shield_text":"L23","shield_text":null,"landuse_kind":"residential","id":26604383},"arcs":[19]},{"type":"LineString","properties":{"kind":"major_road","sort_rank":381,"kind_detail":"trunk","bus_network":"lcn","source":"openstreetmap.org","min_zoom":8.0,"bus_shield_text":"L23","loc_name":"V.D.N.","landuse_kind":"residential","id":172445001},"arcs":[20]},{"type":"MultiLineString","properties":{"bus_network":"lcn","sort_rank":380,"kind_detail":"primary","kind":"major_road","source":"openstreetmap.org","min_zoom":8.0,"bus_shield_text":"L 23","landuse_kind":"residential"},"arcs":[[21],[22]]},{"type":"MultiLineString","properties":{"kind":"major_road","network":"Trans-African Highways","sort_rank":380,"kind_detail":"primary","source":"openstreetmap.org","min_zoom":8.0,"landuse_kind":"residential","shield_text":null,"ref":"N 1"},"arcs":[[23],[24],[25],[26],[27],[28]]},{"type":"MultiLineString","properties":{"bus_network":null,"sort_rank":380,"kind_detail":"primary","kind":"major_road","source":"openstreetmap.org","min_zoom":8.0,"bus_shield_text":"9","landuse_kind":"residential"},"arcs":[[29],[30],[31],[32]]},{"type":"LineString","properties":{"source":"openstreetmap.org","kind":"highway","landuse_kind":"residential","sort_rank":383,"kind_detail":"motorway","min_zoom":8.0,"id":107904534},"arcs":[33]},{"type":"MultiLineString","properties":{"bus_network":"lcn","sort_rank":380,"kind_detail":"primary","kind":"major_road","source":"openstreetmap.org","min_zoom":8.0,"bus_shield_text":"L23","landuse_kind":"residential"},"arcs":[[34],[35],[36],[37],[38]]},{"type":"LineString","properties":{"kind":"major_road","network":"Trans-African Highways","sort_rank":380,"kind_detail":"primary","source":"openstreetmap.org","min_zoom":8.0,"shield_text":null,"ref":"N 1","id":169003595},"arcs":[39]},{"type":"LineString","properties":{"kind":"major_road","network":"Trans-African Highways","sort_rank":380,"kind_detail":"primary","source":"openstreetmap.org","min_zoom":8.0,"shield_text":null,"ref":"Route nationale 1","id":404128618},"arcs":[40]},{"type":"MultiLineString","properties":{"source":"openstreetmap.org","kind":"major_road","landuse_kind":"residential","sort_rank":380,"kind_detail":"primary","ref":"P 101","min_zoom":8.0},"arcs":[[41],[42]]},{"type":"MultiLineString","properties":{"kind":"major_road","network":"Trans-African Highways","sort_rank":380,"kind_detail":"primary","source":"openstreetmap.org","min_zoom":8.0,"shield_text":null,"ref":"N1"},"arcs":[[43],[44],[45],[46],[47]]},{"type":"LineString","properties":{"kind":"major_road","network":"Trans-African Highways","sort_rank":380,"kind_detail":"primary","source":"openstreetmap.org","min_zoom":8.0,"landuse_kind":"nature_reserve","shield_text":null,"id":149783222},"arcs":[48]},{"type":"LineString","properties":{"kind":"major_road","network":"Trans African Highway","sort_rank":381,"kind_detail":"trunk","source":"openstreetmap.org","min_zoom":8.0,"landuse_kind":"residential","shield_text":null,"id":474345629},"arcs":[49]},{"type":"LineString","properties":{"kind":"major_road","network":"Route Nationale du S\u00e9n\u00e9gal","sort_rank":380,"kind_detail":"primary","source":"openstreetmap.org","min_zoom":8.0,"landuse_kind":"residential","shield_text":"2","ref":"ES-01","id":157033727},"arcs":[50]},{"type":"MultiLineString","properties":{"bus_network":null,"sort_rank":380,"kind_detail":"primary","kind":"major_road","source":"openstreetmap.org","min_zoom":8.0,"bus_shield_text":"121","landuse_kind":"residential"},"arcs":[[51],[52],[53]]},{"type":"MultiLineString","properties":{"kind":"major_road","network":"Route Nationale du S\u00e9n\u00e9gal","sort_rank":380,"kind_detail":"primary","source":"openstreetmap.org","min_zoom":8.0,"landuse_kind":"urban_area","shield_text":"2"},"arcs":[[54],[55],[56]]},{"type":"LineString","properties":{"kind":"major_road","sort_rank":380,"kind_detail":"primary","bus_network":"Dakar Dem Dikk","source":"openstreetmap.org","min_zoom":8.0,"bus_shield_text":"10","landuse_kind":"residential","id":472431995},"arcs":[57]},{"type":"MultiLineString","properties":{"bus_network":"Dakar Dem Dikk","sort_rank":380,"kind_detail":"primary","kind":"major_road","source":"openstreetmap.org","min_zoom":8.0,"bus_shield_text":"4","landuse_kind":"residential"},"arcs":[[58],[59]]},{"type":"LineString","properties":{"kind":"major_road","network":"Trans-African Highways","sort_rank":381,"kind_detail":"trunk","source":"openstreetmap.org","min_zoom":8.0,"shield_text":null,"ref":"N1"},"arcs":[60]},{"type":"LineString","properties":{"kind":"major_road","network":"Route Nationale du S\u00e9n\u00e9gal","sort_rank":380,"kind_detail":"primary","source":"openstreetmap.org","min_zoom":8.0,"shield_text":"3","id":-5380772,"osm_relation":true},"arcs":[61]},{"type":"MultiLineString","properties":{"source":"openstreetmap.org","kind":"major_road","network":"Route Nationale du S\u00e9n\u00e9gal","sort_rank":380,"kind_detail":"primary","min_zoom":8.0,"shield_text":"2"},"arcs":[[62],[63],[64],[65],[66],[67],[68],[69],[70],[71],[72],[73],[74],[75],[76],[77],[78]]},{"type":"MultiLineString","properties":{"kind":"major_road","network":"Trans-African Highways","sort_rank":381,"landuse_kind":"urban_area","source":"openstreetmap.org","min_zoom":8.0,"kind_detail":"trunk","shield_text":null},"arcs":[[79],[80]]},{"type":"LineString","properties":{"kind":"major_road","network":"Route Nationale du S\u00e9n\u00e9gal","sort_rank":380,"kind_detail":"primary","source":"openstreetmap.org","min_zoom":8.0,"landuse_kind":"urban_area","shield_text":"3","id":-5380772,"osm_relation":true},"arcs":[81]},{"type":"LineString","properties":{"kind":"major_road","network":"TAH - Trans African Highways","sort_rank":380,"kind_detail":"primary","bus_network":"lcn","source":"openstreetmap.org","min_zoom":8.0,"bus_shield_text":"L 23","shield_text":null,"landuse_kind":"residential","id":441226491},"arcs":[82]},{"type":"MultiLineString","properties":{"kind":"major_road","network":"Trans-African Highways","sort_rank":381,"kind_detail":"trunk","source":"openstreetmap.org","min_zoom":8.0,"landuse_kind":"residential","shield_text":null},"arcs":[[83],[84],[85],[86],[87],[88],[89],[90],[91],[92],[93],[94],[95],[96],[97],[98],[99],[100],[101],[102],[103],[104],[105],[106],[107]]},{"type":"MultiLineString","properties":{"bus_network":"Dakar Dem Dikk","sort_rank":380,"kind_detail":"primary","kind":"major_road","source":"openstreetmap.org","min_zoom":8.0,"bus_shield_text":"1","landuse_kind":"residential"},"arcs":[[108],[109],[110]]},{"type":"MultiLineString","properties":{"kind":"major_road","network":"Route Nationale du S\u00e9n\u00e9gal","sort_rank":380,"kind_detail":"primary","source":"openstreetmap.org","min_zoom":8.0,"landuse_kind":"residential","shield_text":"2","osm_relation":true},"arcs":[[111],[112],[113],[114],[115],[116],[117],[118],[119],[120],[121],[122],[123],[124],[125],[126],[127],[128],[129],[130],[131],[132]]},{"type":"MultiLineString","properties":{"source":"openstreetmap.org","kind":"major_road","landuse_kind":"urban_area","sort_rank":380,"kind_detail":"primary","min_zoom":8.0},"arcs":[[133],[134],[135],[136]]},{"type":"LineString","properties":{"kind":"major_road","sort_rank":380,"kind_detail":"primary","source":"openstreetmap.org","min_zoom":8.0,"old_name":"Avenue de La Libert\u00e9","landuse_kind":"residential","id":8598117},"arcs":[137]},{"type":"MultiLineString","properties":{"source":"openstreetmap.org","kind":"highway","sort_rank":383,"kind_detail":"motorway","ref":"A2","min_zoom":8.0},"arcs":[[138],[139],[140],[141],[142],[143],[144],[145],[146],[147]]},{"type":"LineString","properties":{"bus_network":"lcn","sort_rank":380,"kind_detail":"primary","bus_shield_text":"L 23","kind":"major_road","source":"openstreetmap.org","min_zoom":8.0,"old_name":"Route du Front de Terre","landuse_kind":"residential"},"arcs":[148]},{"type":"MultiLineString","properties":{"kind":"major_road","network":"Trans-African Highways","sort_rank":380,"kind_detail":"primary","source":"openstreetmap.org","min_zoom":8.0,"landuse_kind":"urban_area","shield_text":null},"arcs":[[149],[150],[151],[152],[153],[154],[155],[156],[157]]},{"type":"MultiLineString","properties":{"kind":"major_road","network":"TAH - Trans African Highways","sort_rank":380,"kind_detail":"primary","source":"openstreetmap.org","min_zoom":8.0,"landuse_kind":"urban_area","shield_text":null},"arcs":[[158],[159],[160],[161],[162]]},{"type":"LineString","properties":{"kind":"major_road","network":"Trans-African Highways","sort_rank":380,"kind_detail":"primary","bus_shield_text":"L 23","bus_network":"lcn","source":"openstreetmap.org","min_zoom":8.0,"old_name":"Avenue Gambetta","shield_text":null,"landuse_kind":"residential","id":233379472},"arcs":[163]},{"type":"LineString","properties":{"kind":"major_road","network":"Trans-African Highways","sort_rank":380,"kind_detail":"primary","source":"openstreetmap.org","min_zoom":8.0,"landuse_kind":"residential","shield_text":null,"ref":"N1"},"arcs":[164]},{"type":"LineString","properties":{"kind":"ferry","name":"Liaison Maritime Dakar - Gor\u00e9e","sort_rank":355,"landuse_kind":"residential","source":"openstreetmap.org","min_zoom":8.0,"id":-7004022,"osm_relation":true},"arcs":[165]},{"type":"MultiLineString","properties":{"kind":"major_road","network":"Route Nationale du S\u00e9n\u00e9gal","sort_rank":380,"kind_detail":"primary","source":"openstreetmap.org","min_zoom":8.0,"shield_text":"2","ref":"N2"},"arcs":[[166],[167]]},{"type":"MultiLineString","properties":{"source":"openstreetmap.org","kind":"highway","landuse_kind":"urban_area","sort_rank":383,"kind_detail":"motorway","ref":"A 1","min_zoom":8.0},"arcs":[[168],[169]]},{"type":"MultiLineString","properties":{"bus_network":null,"sort_rank":380,"kind_detail":"primary","kind":"major_road","source":"openstreetmap.org","min_zoom":8.0,"bus_shield_text":"L8","landuse_kind":"residential"},"arcs":[[170],[171]]},{"type":"MultiLineString","properties":{"source":"openstreetmap.org","kind":"major_road","network":"Trans-African Highways","sort_rank":380,"kind_detail":"primary","min_zoom":8.0,"shield_text":null},"arcs":[[172],[173],[174],[175],[176],[177]]},{"type":"MultiLineString","properties":{"kind":"highway","network":null,"sort_rank":383,"kind_detail":"motorway","source":"openstreetmap.org","min_zoom":8.0,"all_networks":[null],"landuse_kind":"residential","shield_text":"1","all_shield_texts":["1"]},"arcs":[[178],[179],[180],[181]]},{"type":"MultiLineString","properties":{"kind":"major_road","network":"Trans-African Highways","sort_rank":380,"kind_detail":"primary","source":"openstreetmap.org","min_zoom":8.0,"old_name":"Avenue Gambetta","shield_text":null,"landuse_kind":"residential"},"arcs":[[182],[183]]},{"type":"LineString","properties":{"bus_network":"lcn","sort_rank":380,"kind_detail":"primary","bus_shield_text":"L23","kind":"major_road","source":"openstreetmap.org","min_zoom":8.0,"old_name":"Route du Front de Terre","landuse_kind":"residential"},"arcs":[184]},{"type":"LineString","properties":{"bus_network":"lcn","sort_rank":380,"kind_detail":"primary","bus_shield_text":"L23","kind":"major_road","source":"openstreetmap.org","min_zoom":8.0,"old_name":"Avenue de La Libert\u00e9","landuse_kind":"residential"},"arcs":[185]},{"type":"MultiLineString","properties":{"bus_network":"Dakar Dem Dikk","sort_rank":381,"kind_detail":"trunk","kind":"major_road","source":"openstreetmap.org","min_zoom":8.0,"bus_shield_text":"1","landuse_kind":"residential"},"arcs":[[186],[187]]},{"type":"LineString","properties":{"kind":"ferry","name":"Ferry Aline Sito\u00e9 Diatta","sort_rank":355,"landuse_kind":"residential","is_bicycle_related":true,"source":"openstreetmap.org","min_zoom":8.0,"id":-5385485,"osm_relation":true},"arcs":[188]},{"type":"MultiLineString","properties":{"bus_network":"Dakar Dem Dikk","sort_rank":380,"kind_detail":"primary","kind":"major_road","source":"openstreetmap.org","min_zoom":8.0,"bus_shield_text":"7","landuse_kind":"residential"},"arcs":[[189],[190]]},{"type":"MultiLineString","properties":{"kind":"major_road","network":"TAH - Trans African Highways","sort_rank":381,"kind_detail":"trunk","source":"openstreetmap.org","min_zoom":8.0,"landuse_kind":"residential","shield_text":null},"arcs":[[191],[192]]},{"type":"MultiLineString","properties":{"sort_rank":380,"kind_detail":"primary","min_zoom":8.0,"kind":"major_road","source":"openstreetmap.org"},"arcs":[[193],[194],[195],[196],[197],[198],[199],[200],[201],[202],[203],[204],[205],[206],[207],[208]]},{"type":"LineString","properties":{"bus_network":null,"sort_rank":380,"kind_detail":"primary","kind":"major_road","source":"openstreetmap.org","min_zoom":8.0,"bus_shield_text":"7","landuse_kind":"residential"},"arcs":[209]},{"type":"MultiLineString","properties":{"source":"openstreetmap.org","kind":"highway","landuse_kind":"residential","sort_rank":383,"kind_detail":"motorway","ref":"A 1","min_zoom":8.0},"arcs":[[210],[211]]},{"type":"LineString","properties":{"kind":"major_road","network":"TAH - Trans African Highways","sort_rank":380,"kind_detail":"primary","source":"openstreetmap.org","min_zoom":8.0,"landuse_kind":"residential","shield_text":null,"id":373849467},"arcs":[212]},{"type":"MultiLineString","properties":{"kind":"highway","network":"Trans-African Highways","sort_rank":383,"landuse_kind":"residential","source":"openstreetmap.org","min_zoom":8.0,"all_networks":["Trans-African Highways","TAH - Trans African Highways",null],"kind_detail":"motorway","shield_text":null,"all_shield_texts":[null,null,"1"]},"arcs":[[213],[214],[215],[216]]},{"type":"MultiLineString","properties":{"kind":"major_road","network":null,"sort_rank":380,"kind_detail":"primary","source":"openstreetmap.org","min_zoom":8.0,"landuse_kind":"residential","shield_text":"710"},"arcs":[[217],[218]]},{"type":"MultiLineString","properties":{"kind":"major_road","network":"Route Nationale du S\u00e9n\u00e9gal","sort_rank":380,"kind_detail":"primary","source":"openstreetmap.org","min_zoom":8.0,"landuse_kind":"urban_area","shield_text":"2","osm_relation":true},"arcs":[[219],[220],[221],[222]]},{"type":"LineString","properties":{"kind":"major_road","network":"Trans-African Highways","sort_rank":380,"kind_detail":"primary","source":"openstreetmap.org","min_zoom":8.0,"landuse_kind":"residential","shield_text":null,"ref":"Route nationale 1","id":404128618},"arcs":[223]},{"type":"LineString","properties":{"source":"openstreetmap.org","kind":"ferry","name":"Ferry Aline Sito\u00e9 Diatta","sort_rank":355,"is_bicycle_related":true,"min_zoom":8.0,"osm_relation":true},"arcs":[224]},{"type":"MultiLineString","properties":{"bus_network":null,"sort_rank":380,"kind_detail":"primary","kind":"major_road","source":"openstreetmap.org","min_zoom":8.0,"bus_shield_text":"6","landuse_kind":"residential"},"arcs":[[225],[226],[227],[228]]},{"type":"MultiLineString","properties":{"kind":"major_road","network":"Trans-African Highways","sort_rank":380,"kind_detail":"primary","source":"openstreetmap.org","min_zoom":8.0,"landuse_kind":"residential","shield_text":null},"arcs":[[229],[230],[231],[232]]},{"type":"LineString","properties":{"bus_network":"lcn","sort_rank":381,"kind_detail":"trunk","kind":"major_road","source":"openstreetmap.org","min_zoom":8.0,"bus_shield_text":"L23","landuse_kind":"residential"},"arcs":[233]},{"type":"MultiLineString","properties":{"source":"openstreetmap.org","kind":"major_road","landuse_kind":"residential","sort_rank":381,"kind_detail":"trunk","ref":"P 101","min_zoom":8.0},"arcs":[[234],[235]]},{"type":"MultiLineString","properties":{"source":"openstreetmap.org","kind":"major_road","landuse_kind":"residential","sort_rank":380,"kind_detail":"primary","min_zoom":8.0},"arcs":[[236],[237],[238],[239],[240],[241],[242],[243],[244],[245],[246],[247],[248],[249],[250],[251],[252],[253],[254],[255],[256],[257],[258],[259],[260],[261],[262],[263],[264],[265],[266],[267],[268],[269],[270],[271],[272],[273],[274],[275],[276],[277],[278]]},{"type":"MultiLineString","properties":{"sort_rank":383,"kind_detail":"motorway","min_zoom":8.0,"kind":"highway","source":"openstreetmap.org"},"arcs":[[279],[280],[281],[282],[283],[284]]},{"type":"LineString","properties":{"kind":"major_road","sort_rank":380,"landuse_kind":"residential","source":"openstreetmap.org","min_zoom":8.0,"kind_detail":"primary","ref":"N2","id":169003602},"arcs":[285]},{"type":"MultiLineString","properties":{"source":"openstreetmap.org","kind":"major_road","kind_detail":"trunk","sort_rank":381,"landuse_kind":"residential","loc_name":"V.D.N.","min_zoom":8.0},"arcs":[[286],[287]]},{"type":"LineString","properties":{"kind":"major_road","network":"TAH - Trans African Highways","sort_rank":380,"kind_detail":"primary","source":"openstreetmap.org","min_zoom":8.0,"landuse_kind":"residential","shield_text":null,"ref":"N 1","id":264628324},"arcs":[288]},{"type":"LineString","properties":{"bus_network":"lcn","sort_rank":381,"landuse_kind":"residential","kind":"major_road","source":"openstreetmap.org","min_zoom":8.0,"bus_shield_text":"L 23","kind_detail":"trunk"},"arcs":[289]},{"type":"LineString","properties":{"bus_network":"lcn","network":"TAH - Trans African Highways","sort_rank":380,"kind_detail":"primary","kind":"major_road","source":"openstreetmap.org","min_zoom":8.0,"bus_shield_text":"L23","shield_text":null,"landuse_kind":"residential"},"arcs":[290]},{"type":"MultiLineString","properties":{"kind":"major_road","network":"Route Nationale du S\u00e9n\u00e9gal","sort_rank":380,"kind_detail":"primary","source":"openstreetmap.org","min_zoom":8.0,"landuse_kind":"residential","shield_text":"3","osm_relation":true},"arcs":[[291],[292],[293],[294],[295],[296],[297],[298],[299],[300],[301],[302],[303],[304],[305],[306],[307]]},{"type":"MultiLineString","properties":{"source":"openstreetmap.org","kind":"highway","sort_rank":383,"kind_detail":"motorway","ref":"A 1","min_zoom":8.0},"arcs":[[308],[309]]},{"type":"MultiLineString","properties":{"source":"openstreetmap.org","kind":"major_road","network":"Trans-African Highways","sort_rank":381,"kind_detail":"trunk","min_zoom":8.0,"shield_text":null},"arcs":[[310],[311]]},{"type":"MultiLineString","properties":{"kind":"highway","network":"Trans-African Highways","sort_rank":383,"kind_detail":"motorway","source":"openstreetmap.org","min_zoom":8.0,"all_networks":["Trans-African Highways","TAH - Trans African Highways"],"landuse_kind":"residential","shield_text":null,"all_shield_texts":[null,null]},"arcs":[[312],[313],[314]]},{"type":"MultiLineString","properties":{"bus_network":"Dakar Dem Dikk","sort_rank":381,"kind_detail":"trunk","kind":"major_road","source":"openstreetmap.org","min_zoom":8.0,"bus_shield_text":"1","loc_name":"V.D.N.","landuse_kind":"residential"},"arcs":[[315],[316],[317],[318]]},{"type":"MultiLineString","properties":{"kind":"major_road","network":"Route Nationale du S\u00e9n\u00e9gal","sort_rank":380,"kind_detail":"primary","source":"openstreetmap.org","min_zoom":8.0,"landuse_kind":"residential","shield_text":"2"},"arcs":[[319],[320],[321],[322],[323],[324],[325],[326],[327],[328],[329],[330],[331],[332],[333],[334],[335]]},{"type":"LineString","properties":{"bus_network":"Tata","sort_rank":380,"kind_detail":"primary","kind":"major_road","source":"openstreetmap.org","min_zoom":8.0,"bus_shield_text":"40","landuse_kind":"residential"},"arcs":[336]},{"type":"LineString","properties":{"kind":"major_road","network":"Route Nationale du S\u00e9n\u00e9gal","sort_rank":380,"kind_detail":"primary","source":"openstreetmap.org","min_zoom":8.0,"shield_text":"3","id":393523753},"arcs":[337]},{"type":"MultiLineString","properties":{"kind":"major_road","network":"Route Nationale du S\u00e9n\u00e9gal","sort_rank":380,"kind_detail":"primary","source":"openstreetmap.org","min_zoom":8.0,"shield_text":"2","osm_relation":true},"arcs":[[338],[339],[340],[341],[342],[343],[344],[345],[346],[347],[348],[349],[350],[351],[352],[353],[354],[355],[356],[357],[358],[359],[360],[361],[362],[363],[364]]},{"type":"MultiLineString","properties":{"kind":"major_road","network":"Trans-African Highways","sort_rank":380,"kind_detail":"primary","source":"openstreetmap.org","min_zoom":8.0,"landuse_kind":"nature_reserve","shield_text":null,"ref":"N1"},"arcs":[[365],[366]]},{"type":"LineString","properties":{"source":"openstreetmap.org","kind":"ferry","name":"Liaison Maritime Dakar - Gor\u00e9e","sort_rank":355,"min_zoom":8.0,"osm_relation":true,"id":-7004022},"arcs":[367]},{"type":"MultiLineString","properties":{"source":"openstreetmap.org","kind":"major_road","landuse_kind":"residential","sort_rank":381,"kind_detail":"trunk","min_zoom":8.0},"arcs":[[368],[369],[370],[371],[372],[373],[374],[375],[376],[377],[378],[379],[380]]},{"type":"MultiLineString","properties":{"source":"openstreetmap.org","kind":"highway","sort_rank":383,"kind_detail":"motorway","ref":"A1","min_zoom":8.0},"arcs":[[381],[382],[383]]},{"type":"MultiLineString","properties":{"kind":"major_road","network":null,"sort_rank":380,"kind_detail":"primary","source":"openstreetmap.org","min_zoom":8.0,"landuse_kind":"residential","shield_text":"101"},"arcs":[[384],[385],[386],[387],[388],[389],[390],[391],[392],[393]]},{"type":"MultiLineString","properties":{"source":"openstreetmap.org","kind":"major_road","old_name":"Route du Front de Terre","sort_rank":380,"kind_detail":"primary","landuse_kind":"residential","min_zoom":8.0},"arcs":[[394],[395]]},{"type":"LineString","properties":{"kind":"major_road","network":"Trans-African Highways","sort_rank":380,"kind_detail":"primary","bus_shield_text":"6","bus_network":null,"source":"openstreetmap.org","min_zoom":8.0,"old_name":"Avenue Gambetta","shield_text":null,"landuse_kind":"residential","id":299647509},"arcs":[396]},{"type":"MultiLineString","properties":{"kind":"highway","sort_rank":383,"kind_detail":"motorway","source":"openstreetmap.org","min_zoom":8.0,"landuse_kind":"residential","ref":"A 1","osm_relation":true},"arcs":[[397],[398],[399],[400],[401],[402],[403],[404],[405],[406],[407]]},{"type":"MultiLineString","properties":{"bus_network":null,"sort_rank":381,"kind_detail":"trunk","kind":"major_road","source":"openstreetmap.org","min_zoom":8.0,"bus_shield_text":"L8","landuse_kind":"residential"},"arcs":[[408],[409],[410],[411],[412],[413],[414],[415],[416],[417],[418]]}]},"earth":{"type":"GeometryCollection","geometries":[{"type":"Polygon","properties":{"sort_rank":10,"source":"naturalearthdata.com","kind":"earth","min_zoom":0.0,"id":4700},"arcs":[[419]]}]},"landuse":{"type":"GeometryCollection","geometries":[{"type":"MultiPolygon","properties":{"source":"openstreetmap.org","kind":"residential","tier":2,"area":79818880,"sort_rank":20,"min_zoom":8.0},"arcs":[[[420]],[[421]]]},{"type":"MultiPolygon","properties":{"source":"naturalearthdata.com","kind":"urban_area","name":"","area":367497392,"sort_rank":11,"min_zoom":4.0},"arcs":[[[422]],[[423]],[[424]],[[425]]]},{"type":"Polygon","properties":{"source":"openstreetmap.org","kind":"aerodrome","area":13445400,"tier":3,"id":321817547,"min_zoom":8.0,"sort_rank":60},"arcs":[[426]]},{"type":"Polygon","properties":{"kind":"residential","area":217162000,"sort_rank":20,"source":"openstreetmap.org","min_zoom":6.0,"tier":2,"id":-7284072,"osm_relation":true},"arcs":[[427]]},{"type":"Polygon","properties":{"source":"openstreetmap.org","kind":"nature_reserve","area":34655400,"tier":2,"id":177844036,"min_zoom":8.0,"sort_rank":23},"arcs":[[428]]}]}},"type":"Topology","transform":{"translate":[-18.28125,13.9234038977],"scale":[0.0003433228,0.000332222]},"arcs":[[[3144,4096],[-454,-570],[-989,-410],[-229,-445],[-30,-375],[204,-402],[407,-254],[563,273],[377,-640],[664,-894],[-7,-379]],[[4096,3959],[-9,-17],[-203,-226],[-93,-139],[-463,-554],[-100,-81],[-434,-186],[-143,-117],[-480,-129],[46,-43],[196,-244],[38,-25],[10,18],[10,3],[18,43],[-10,9],[-18,22],[-10,10],[38,18],[21,44],[-35,10],[-24,29],[65,47],[73,5],[84,-10],[96,1],[19,-22],[124,-66],[47,-13],[63,-11],[57,-26],[50,-35],[84,-77],[117,-163],[77,-207],[103,-156],[17,-40],[32,-34],[208,-99],[92,-93],[35,-54],[14,-49],[-3,-35],[-15,-59],[-4,-31],[5,-39],[12,-13],[20,-4],[25,-14],[55,-56],[23,-38],[19,-51],[25,-163],[15,-43],[11,-10],[0,-746],[-4096,0],[0,4096],[4096,0],[0,-137]],[[4096,3959],[-9,-17],[-203,-226],[-93,-139],[-463,-554],[-100,-81],[-434,-186],[-143,-117],[-480,-129],[46,-43],[196,-244],[38,-25],[10,18],[10,3],[18,43],[-10,9],[-18,22],[-10,10],[38,18],[21,44],[-35,10],[-24,29],[65,47],[73,5],[84,-10],[96,1],[19,-22],[124,-66],[47,-13],[63,-11],[57,-26],[50,-35],[84,-77],[117,-163],[77,-207],[103,-156],[17,-40],[32,-34],[208,-99],[92,-93],[35,-54],[14,-49],[-3,-35],[-15,-59],[-4,-31],[5,-39],[12,-13],[20,-4],[25,-14],[55,-56],[23,-38],[19,-51],[25,-163],[15,-43],[11,-10]],[[3949,2611],[2,0]],[[3951,2611],[-1,2]],[[3970,2597],[-19,14]],[[3970,2597],[1,0]],[[3971,2597],[-1,0]],[[3971,2597],[0,-1]],[[3971,2596],[1,1],[-1,0]],[[3971,2596],[1,0]],[[3972,2596],[0,1]],[[3983,2584],[-11,12]],[[3983,2584],[1,0]],[[3984,2584],[-1,0]],[[3984,2583],[1,0]],[[3985,2583],[-1,1]],[[3985,2583],[74,-44]],[[3984,2584],[0,-1],[0,1]],[[2457,2226],[1,0]],[[2373,2328],[1,-1]],[[2448,2253],[-60,63]],[[2401,2424]],[[3788,1574],[26,-76]],[[3814,1498],[1,-1]],[[3815,1497],[-1,1]],[[3815,1497],[1,0]],[[3816,1497],[-1,0]],[[3816,1497],[147,20]],[[2382,2403],[-9,-12]],[[2374,2391],[9,12]],[[2383,2403],[-1,1]],[[2434,2269],[-1,0]],[[2458,2460],[10,6]],[[2369,2335],[-1,-2]],[[2387,2315],[23,-24]],[[2400,2425],[1,-2]],[[2434,2269],[0,-1]],[[2454,2236],[1,-1]],[[3963,1517]],[[3757,1671],[23,-71]],[[2809,2557],[-6,-10]],[[2803,2547],[6,10]],[[3216,2397],[45,-50]],[[3271,2334],[245,-183]],[[3525,2147],[53,-63]],[[3587,2059],[104,-200]],[[3699,1840],[45,-119]],[[3693,1857],[0,-1]],[[2851,2430],[-1,0],[1,0]],[[3949,2616],[-1,13]],[[2382,2404],[0,-1]],[[2399,2423],[-17,-19]],[[2386,2442],[14,-18]],[[3891,2583],[5,0]],[[3993,2728],[9,4]],[[4002,2732],[-9,-4]],[[2368,2333],[1,0]],[[2401,2424],[-1,1]],[[2410,2292]],[[3187,2397],[17,4],[-18,-4]],[[4058,2541],[38,-22]],[[3204,2401],[59,29]],[[3263,2430],[1,1]],[[3264,2431],[-1,-1]],[[3265,2431],[0,1]],[[3270,2435],[0,-1]],[[3271,2435]],[[3445,2536],[241,-5],[152,57]],[[3993,2728],[-47,-18]],[[3946,2708],[18,6],[29,14]],[[4019,2738],[-4,-1],[-13,-5]],[[4002,2732],[13,4]],[[4016,2736],[3,2]],[[4019,2738],[77,149]],[[3265,2431],[0,1]],[[3265,2432],[-1,0],[0,-1],[1,0]],[[3942,2707],[2,0],[2,3],[-3,1],[-1,-4]],[[4015,2737],[0,-1],[1,0],[0,1],[-1,0]],[[3114,2351],[-51,-22]],[[3063,2328],[12,4],[39,19]],[[4057,2542],[1,-1]],[[2458,2226]],[[2460,2462],[35,11]],[[2494,2474],[-33,-9]],[[2538,2478],[-43,-3]],[[2495,2475],[-1,-1]],[[2494,2474],[1,-1],[1,1],[-1,1]],[[2496,2474],[42,4]],[[2539,2478],[33,-9]],[[2539,2478],[-1,1],[0,-1]],[[2538,2478],[1,-1],[0,1]],[[2572,2470],[-33,8]],[[2573,2469],[8,-2]],[[2582,2468],[-5,2],[-4,-1]],[[2573,2469],[-1,1]],[[2572,2470],[0,-1]],[[2572,2469],[1,0]],[[2583,2467],[122,15]],[[2705,2483],[-72,-8],[-50,-8]],[[2706,2483],[-1,0]],[[2705,2483],[1,-1],[1,0],[-1,1]],[[2850,2430],[-60,50],[-84,3]],[[2706,2482],[84,-2],[60,-50]],[[2851,2430],[58,-32]],[[2909,2398],[-58,32]],[[2910,2398],[-1,0]],[[2909,2398],[0,-1],[1,1]],[[2358,2462],[0,-1]],[[2360,2460],[1,1]],[[2411,2291]],[[3838,2587],[59,-6],[44,27]],[[3941,2608],[5,2]],[[3943,2686],[1,-45]],[[3945,2641],[-1,45]],[[3944,2640],[1,-1]],[[3945,2639],[0,1]],[[3945,2634],[0,5]],[[3945,2641],[-1,0],[0,-1]],[[3944,2640],[1,0]],[[3945,2640],[0,1]],[[3946,2633],[-1,1]],[[3946,2610],[1,1]],[[3948,2631],[-2,2]],[[3947,2611],[1,0]],[[3948,2612],[-1,-1]],[[3948,2629],[0,2]],[[3949,2616],[-1,13]],[[3948,2611],[2,3]],[[3949,2615],[-1,-4]],[[3949,2616],[0,-1]],[[3950,2614],[-1,1]],[[3950,2614],[-1,2]],[[3861,2599],[9,-10]],[[3870,2589],[-9,11]],[[3924,1317],[-55,94]],[[3987,2687],[23,39]],[[2455,2235],[2,-8]],[[3600,2220],[-17,-150],[-14,-25]],[[3569,2045],[-16,-31]],[[3553,2014],[-1,-1],[27,-52]],[[3580,1961],[-27,53]],[[3553,2014],[-1,0],[17,31]],[[3569,2045],[14,25],[17,150]],[[3600,2221],[19,89],[-8,13]],[[3611,2323],[-18,30]],[[3613,2334],[-2,-11]],[[3611,2323],[-11,-102]],[[2438,2418],[-37,6]],[[2987,2358],[7,-3]],[[2994,2355],[1,-1]],[[2995,2355],[-1,0]],[[2996,2354],[40,-27]],[[2996,2354],[-1,1]],[[2995,2355],[0,-1]],[[2995,2354],[1,0]],[[3036,2327],[-40,27]],[[3062,2328],[-26,-1]],[[3063,2329],[0,-1]],[[3063,2328]],[[3063,2328],[0,1]],[[3063,2329],[0,-1]],[[3063,2328]],[[2459,2234],[-1,11]],[[2456,2277],[1,0]],[[2478,2261],[22,-4]],[[3266,2432],[3,2]],[[3272,2435],[173,101]],[[3076,2440],[-106,22]],[[2974,2460],[102,-20]],[[2410,2291],[1,0]],[[2411,2291],[23,-22]],[[3204,2401],[12,-4]],[[3261,2347],[10,-13]],[[3578,2084],[9,-25]],[[3744,1721],[13,-50]],[[3963,1517],[133,20]],[[3516,2151],[9,-4],[-4,2],[-5,2]],[[2735,2519],[-11,-1],[-75,-22],[-66,-25],[-8,-4],[-37,9],[-20,0],[-23,-4],[-2,-1]],[[2493,2471],[-41,-18]],[[2468,2466],[25,5]],[[2493,2471],[2,1],[1,0],[42,3],[36,-9],[162,52]],[[2457,2276],[1,-13]],[[2459,2234],[-1,-7]],[[2401,2423],[35,-5]],[[2448,2253],[6,-17]],[[2396,2488],[-2,0]],[[2395,2487]],[[2501,2258],[-19,2]],[[2367,2335],[-38,33]],[[2369,2334],[0,1]],[[2458,2460],[2,2]],[[2582,2468],[-1,-1],[1,-1],[1,1],[-1,1]],[[3582,1961],[-2,0]],[[3580,1960],[2,1]],[[3582,1961],[48,23]],[[3841,2554],[-20,36]],[[3941,2708],[-54,-1],[-42,-75]],[[3845,2632],[6,-20],[10,-13]],[[3861,2600],[-16,32]],[[3866,2509],[-11,20]],[[3892,2499],[36,-6]],[[4096,1029],[-134,159],[-38,129]],[[3940,2491],[76,-13],[80,37]],[[3942,2709],[-1,-1]],[[3941,2708],[1,0]],[[4010,2726],[11,13]],[[3271,2434],[0,1],[-1,0],[0,-1],[1,0]],[[3580,1961],[-1,-1],[1,0],[0,1]],[[2329,2368],[38,-34]],[[2970,2462],[-235,57]],[[2736,2518],[175,-45],[63,-13]],[[2457,2277],[0,1]],[[2448,2289],[1,124]],[[2449,2414],[-1,-125]],[[2448,2289],[7,-10]],[[2449,2415],[2,30]],[[3945,2640],[0,1]],[[3950,2615],[-1,0]],[[3943,2704],[0,-18]],[[3944,2686],[0,18]],[[3993,2727],[10,4]],[[4002,2732],[-9,-4]],[[3780,1600],[8,-26]],[[3048,0],[-273,1673],[-152,572],[-122,13]],[[2400,2424],[-39,37]],[[2383,2403],[17,20]],[[2401,2423],[0,1]],[[2455,2236],[-1,0]],[[2457,2278],[-1,-1]],[[2910,2398],[1,-1]],[[2911,2397],[-1,1]],[[2911,2397],[76,-39]],[[2374,2327],[13,-12]],[[2803,2547],[-8,-29]],[[2796,2518],[7,29]],[[2329,2368]],[[2329,2367]],[[2356,2383],[-26,-15]],[[2330,2367],[26,15]],[[2349,2348]],[[2350,2347],[0,1]],[[2356,2382],[1,1]],[[2359,2384],[-2,-1]],[[2357,2382],[2,2]],[[2358,2461],[0,1]],[[2358,2461],[2,-1]],[[2360,2461],[-1,1]],[[2373,2392],[-13,-7]],[[2360,2384],[13,7]],[[2361,2461],[-1,-1]],[[2361,2460],[25,-18]],[[2369,2333],[0,1]],[[2373,2391],[1,0]],[[2374,2392],[-1,0]],[[2382,2403]],[[2411,2291]],[[2434,2269]],[[2447,2415],[1,1]],[[2451,2413],[-1,0]],[[2451,2412],[0,1]],[[2455,2235],[0,1]],[[2457,2278],[0,-1]],[[2891,2476],[0,-1]],[[2892,2475],[-1,1]],[[2893,2480],[0,1]],[[3815,1497]],[[3869,1411],[-33,46]],[[3855,2529],[-14,25]],[[3866,2509],[26,-10]],[[3870,2589]],[[3928,2493],[12,-2]],[[3946,2641],[41,46]],[[2359,2385],[0,-1]],[[2374,2453]],[[2795,2517],[1,1],[-1,0],[0,-1]],[[2809,2558],[0,-1],[0,1]],[[2868,2515]],[[3928,2601],[-2,-1],[2,-2],[1,1],[-1,2]],[[3107,2434],[78,23],[83,-24]],[[3515,2354],[29,0]],[[3559,1988],[4,-6]],[[3563,1983],[-4,5]],[[3600,2221],[0,-1]],[[3600,2220],[0,1]],[[3815,1496],[21,-39]],[[2364,2471],[-2,-4],[-6,-16]],[[2356,2450],[9,21]],[[3815,1497]],[[2388,2316],[-14,12]],[[2458,2226],[-1,0]],[[3949,2611],[1,4],[-2,0],[0,-3],[1,-1]],[[3949,2611],[2,0]],[[3951,2611],[-1,2]],[[3970,2597],[-19,14]],[[3970,2597],[1,0]],[[3971,2597],[-1,0]],[[3971,2597],[0,-1]],[[3971,2596],[1,1],[-1,0]],[[3971,2596],[1,0]],[[3972,2596],[0,1]],[[3983,2584],[-11,12]],[[3983,2584],[1,0]],[[3984,2584],[-1,0]],[[3984,2583],[1,0]],[[3985,2583],[-1,1]],[[3985,2583],[72,-41]],[[3984,2584],[0,-1],[0,1]],[[3107,2434],[-31,6]],[[3076,2440],[31,-6]],[[3186,2397],[-72,-46]],[[3114,2351],[42,19],[31,27]],[[2452,2453],[-3,-39]],[[2449,2413],[0,2]],[[2451,2445],[7,15]],[[2356,2451],[1,-75],[7,-31],[5,-12],[3,-4],[1,-1]],[[2374,2328],[-18,122]],[[2394,2488],[-10,-6],[-20,-11]],[[2365,2471],[30,16]],[[3838,2588],[53,-5]],[[3896,2583],[45,25]],[[3941,2608],[5,2]],[[3944,2640],[1,-1]],[[3945,2639],[0,1]],[[3945,2634],[0,5]],[[3946,2633],[-1,1]],[[3946,2610],[1,1]],[[3948,2631],[-2,2]],[[3947,2611],[1,0]],[[3948,2612],[-1,-1]],[[3948,2631],[0,-2]],[[3948,2611],[1,5]],[[3949,2615],[-1,-4]],[[3945,2641],[-1,0],[0,-1]],[[3944,2640],[1,0]],[[3945,2640],[0,1]],[[2451,2413],[0,-1]],[[4059,2539],[37,-20]],[[3204,2401],[59,29]],[[3263,2430],[1,1]],[[3264,2431],[-1,-1]],[[3266,2432],[-1,0]],[[3265,2431],[1,1]],[[3266,2432],[3,2]],[[3269,2434],[1,0]],[[3270,2435],[-1,-1]],[[3272,2435],[-1,0]],[[3271,2435],[1,0]],[[3272,2435],[173,101],[241,-5],[113,59],[39,-3]],[[3942,2707],[2,0],[2,3],[-3,1],[-1,-4]],[[3942,2707],[1,-3]],[[3944,2704],[0,3]],[[3993,2728],[-47,-18]],[[3946,2708],[47,19]],[[4019,2738],[-3,-1]],[[4016,2737],[-1,-1]],[[4015,2736],[-13,-4]],[[4003,2731],[12,5]],[[4016,2736],[3,2]],[[4019,2738],[77,149]],[[3265,2431],[0,1]],[[3265,2432],[-1,0],[0,-1],[1,0]],[[4015,2737],[0,-1]],[[4015,2736],[1,0],[0,1]],[[4016,2737],[-1,0]],[[3691,1859],[2,-2]],[[3693,1856],[6,-16]],[[2500,2257],[71,-13]],[[2461,2465],[-114,40]],[[2387,2315],[1,1]],[[2394,2488],[1,-1]],[[2395,2487],[1,1]],[[2436,2468],[22,-8]],[[2790,2500],[-6,-18]],[[2785,2482],[6,18]],[[2795,2517],[-5,-16]],[[2791,2500],[0,1],[-1,0]],[[2790,2501],[1,-1]],[[2791,2501],[2,7],[2,9]],[[2785,2481],[0,1]],[[2785,2482],[-1,0],[0,-1],[1,0]],[[3593,2353],[-49,2],[-31,0],[-247,80],[-80,22],[-79,-23]],[[3268,2433],[245,-79],[2,0]],[[3544,2354],[69,-20]],[[2809,2557],[7,-8]],[[2868,2515],[-59,43]],[[2900,2489],[-32,26]],[[2899,2488],[-4,-3],[-2,-4],[-2,-5]],[[2891,2476],[2,4]],[[2893,2481],[6,6]],[[2900,2489],[-1,-1]],[[2900,2488],[0,1]],[[2891,2474],[1,0],[0,1],[-1,0],[0,-1]],[[2899,2487],[1,1],[-1,0],[0,-1]],[[2436,2418],[10,-2]],[[2447,2416],[-9,2]],[[2458,2263],[0,-18]],[[2448,2289],[1,124]],[[2449,2414],[-1,-125]],[[2448,2289],[7,-10]],[[2449,2415],[14,41]],[[2463,2456],[3,9],[37,0]],[[2503,2465],[67,1],[166,52]],[[2735,2519],[-232,-54]],[[2503,2465],[-40,-9]],[[2463,2456],[-11,-3]],[[2538,2478],[-43,-3]],[[2496,2474],[42,4]],[[2346,2505],[-24,9],[0,-1]],[[2322,2513],[-3,-5]],[[2319,2508],[-14,-25],[-1,-3]],[[2304,2479],[15,29]],[[2319,2508],[3,5]],[[2322,2513],[24,-9]],[[2347,2504],[89,-36]],[[2387,2316]],[[2304,2480],[0,-1],[0,1]],[[2346,2505],[0,-1],[1,0]],[[2347,2504],[0,1],[-1,0]],[[4096,746],[-11,10],[-15,43],[-25,163],[-19,51],[-23,38],[-55,56],[-25,14],[-20,4],[-12,13],[-5,39],[4,31],[15,59],[3,35],[-14,49],[-35,54],[-92,93],[-208,99],[-32,34],[-17,40],[-103,156],[-77,207],[-117,163],[-84,77],[-50,35],[-57,26],[-63,11],[-47,13],[-124,66],[-19,22],[-96,-1],[-84,10],[-73,-5],[-65,-47],[24,-29],[35,-10],[-21,-44],[-38,-18],[10,-10],[18,-22],[10,-9],[-18,-43],[-10,-3],[-10,-18],[-38,25],[-196,244],[-46,43],[480,129],[143,117],[434,186],[100,81],[463,554],[93,139],[203,226],[9,17],[0,-3213]],[[3641,1588],[44,-5],[14,41],[50,-39],[43,21],[52,-29],[29,16],[44,-66],[32,15],[14,-26],[-94,-106],[-228,178]],[[3837,2597],[59,-15],[9,103],[101,3],[29,-56],[-49,-23],[75,-72],[-22,13],[-42,-45],[-58,39],[-17,-22],[19,-34],[-44,15],[-39,-33],[12,54],[-27,9],[-6,64]],[[3953,1459],[-3,-89],[-44,-88],[-12,69],[-90,110],[81,32],[68,-34]],[[2835,2554],[58,-84],[78,20],[19,47],[59,-33],[111,-258],[-81,63],[-167,50],[-143,88],[-180,9],[-73,-5],[-65,-47],[59,-39],[-59,-62],[38,-41],[-38,-64],[-280,312],[512,155],[152,-111]],[[3993,2738],[97,-67],[-32,-34],[0,-100],[-40,-12],[-154,45],[-4,28],[69,106],[64,0],[0,34]],[[3185,2704],[129,0],[-2,-56],[-160,-78],[-65,34],[-32,-34],[-97,67],[33,54],[64,-20],[55,16],[34,101],[41,-17],[0,-67]],[[3492,2292],[0,44],[51,14],[1,-177],[-20,-20],[-31,26],[-1,113]],[[2183,2462],[15,28],[73,6],[64,40],[111,4],[302,122],[9,-27],[46,-12],[118,0],[2,-27],[-11,4],[-12,-13],[4,-8],[23,11],[12,23],[1,-45],[33,-2],[11,-44],[-48,-18],[-9,-30],[47,-14],[39,-85],[-33,-20],[-68,14],[-232,86],[-156,-18],[-46,-46],[39,-49],[-24,-17],[16,-31],[0,-8],[-2,-12],[-26,41],[-15,-14],[8,-39],[34,5],[-41,-51],[12,-27],[-5,-11],[-4,-1],[-42,75],[-38,21],[-27,-14],[-11,70],[-48,51],[-38,15],[-35,57],[-48,10]],[[3679,1908],[126,232],[27,-4],[22,-47],[-98,-233],[-59,-17],[-18,69]]]}