{"objects":{"water":{"type":"GeometryCollection","geometries":[{"type":"Polygon","properties":{"source":"naturalearthdata.com","kind":"ocean","area":1576712559132672,"sort_rank":200,"min_zoom":0.0,"id":1},"arcs":[[3]]}]},"buildings":{"type":"GeometryCollection","geometries":[]},"places":{"type":"GeometryCollection","geometries":[]},"transit":{"type":"GeometryCollection","geometries":[]},"pois":{"type":"GeometryCollection","geometries":[]},"boundaries":{"type":"GeometryCollection","geometries":[{"type":"LineString","properties":{"name:right:yo":"S\u1eb9\u0300n\u1eb9\u0300g\u00e0l","name:left:la":"Guinea Bissaviensis","name:left:lb":"Guinea-Bissau","name:right:dv":"\u0790\u07ac\u0782\u07ac\u078e\u07a7\u078d\u07b0","name:right:yi":"\u05e1\u05e2\u05e0\u05e2\u05d2\u05d0\u05dc","name:right:hy":"\u054d\u0565\u0576\u0565\u0563\u0561\u056c","name:left:su":"Guin\u00e9a-Bissau","name:left:li":"Guinee-Bissau","name:right:hr":"Senegal","name:left:sv":"Guinea-Bissau","name:left:sq":"Guinea Bisau","name:right:hu":"Szeneg\u00e1l","name:left:ln":"Gine-Bisau","name:left:sr":"\u0413\u0432\u0438\u043d\u0435\u0458\u0430 \u0411\u0438\u0441\u0430\u043e","name:right:kk":"\u0421\u0435\u043d\u0435\u0433\u0430\u043b","name:left:sl":"Gvineja Bissau","name:left:so":"Guinea-Bissau","name:left:sn":"Guinea-Bissau","name:left:lt":"Bisau Gvin\u0117ja","name:left:sh":"Gvineja Bisau","name:left:lv":"Gvineja-Bisava","name:right:mr":"\u0938\u0947\u0928\u0947\u0917\u093e\u0932","name:left:se":"Guinea-Bissau","name:right:ha":"Senegal","name:left:sg":"Gin\u00ebe-Bisau","name:right:he":"\u05e1\u05e0\u05d2\u05dc","name:left:sc":"Guinea-Bissau","name:right:la":"Senegalia","name:right:af":"Senegal","name:left:co":"Guinea-Bissau","name:left:ce":"\u0413\u0432\u0438\u043d\u0435-\u0411\u0438\u0441\u0430\u0443","name:right:an":"Senegal","name:right:am":"\u1234\u1294\u130b\u120d","name:left:ca":"Guinea Bissau","source":"openstreetmap.org","name:right:ar":"\u0627\u0644\u0633\u0646\u063a\u0627\u0644","name:left:st":"Guinea-Bissau","name:right:el":"\u03a3\u03b5\u03bd\u03b5\u03b3\u03ac\u03bb\u03b7","name:right:az":"Seneqal","name:left:cs":"Guinea-Bissau","name:left:kg":"Ginea-Bisau","name:left:ka":"\u10d2\u10d5\u10d8\u10dc\u10d4\u10d0-\u10d1\u10d8\u10e1\u10d0\u10e3","name:left:yi":"\u05d2\u05d9\u05e0\u05e2-\u05d1\u05d9\u05e1\u05d0\u05d5","name:right:ht":"Senegal","name:left:ko":"\uae30\ub2c8\ube44\uc0ac\uc6b0","name:right:it":"Senegal","name:right:is":"Senegal","name:right:rw":"Senegali","name:left:kk":"\u0413\u0432\u0438\u043d\u0435\u044f-\u0411\u0438\u0441\u0430\u0443","name:right:ru":"\u0421\u0435\u043d\u0435\u0433\u0430\u043b","name:right:io":"Senegal","name:left:kw":"Gyni-Bissaw","name:left:rw":"Gineya-Biso","name:left:ru":"\u0413\u0432\u0438\u043d\u0435\u044f-\u0411\u0438\u0441\u0430\u0443","name:right:ro":"Senegal","name:right:ie":"Senegal","name:right:id":"Senegal","name:left:ky":"\u0413\u0432\u0438\u043d\u0435\u044f-\u0411\u0438\u0441\u0430\u0443","name:right:ia":"Senegal","name:right:bo":"\u0f66\u0f72\u0f0b\u0f53\u0f72\u0f0b\u0f42\u0f71\u0f63\u0f0d","name:right:bn":"\u09b8\u09c7\u09a8\u09c7\u0997\u09be\u09b2","name":"Guin\u00e9-Bissau - S\u00e9n\u00e9gal","name:right:bm":"Senegal","name:right:ba":"\u0421\u0435\u043d\u0435\u0433\u0430\u043b","name:right:bg":"\u0421\u0435\u043d\u0435\u0433\u0430\u043b","name:right:be":"\u0421\u0435\u043d\u0435\u0433\u0430\u043b","name:left:zh":"\u5e7e\u5167\u4e9e\u6bd4\u7d22","name:right:br":"Senegal","name:right:bs":"Senegal","name:right:zh":"\u585e\u5185\u52a0\u5c14","name:right:nn":"Senegal","name:left:uz":"Gvineya-Bissau","name:right:nl":"Senegal","name:right:wa":"Senegal","name:left:sk":"Guinea-Bissau","name:left:nv":"G\u00edn\u00ed Bis\u00f3","name:left:ur":"\u06af\u0646\u06cc \u0628\u0633\u0627\u0624","name:right:wo":"Senegaal","id:right":-192775,"name:left:uk":"\u0413\u0432\u0456\u043d\u0435\u044f-\u0411\u0456\u0441\u0430\u0443","name:left:no":"Guinea-Bissau","name:left:nl":"Guinee-Bissau","name:right:ps":"\u0633\u06d0\u0646\u06d0\u06ab\u0627\u0644","name:right:hi":"\u0938\u0947\u0928\u0947\u0917\u0932","name:right:fa":"\u0633\u0646\u06af\u0627\u0644","id":-192776,"name:right:fo":"Senegal","name:left:zu":"IGini Bisawu","name:left:ug":"\u06af\u06cb\u0649\u0646\u06d0\u064a\u06d5 \u0628\u0649\u0633\u0633\u0627\u0626\u06c7","name:left:na":"Gini-Bitau","name:left:eo":"Gvineo Bisa\u016da","name:left:en":"Guinea-Bissau","name:left:el":"\u0393\u03bf\u03c5\u03b9\u03bd\u03ad\u03b1-\u039c\u03c0\u03b9\u03c3\u03c3\u03ac\u03bf\u03c5","kind_detail":"2","name:left:ee":"Guinea-Bissau","name:left:pl":"Gwinea Bissau","name:left:hr":"Gvineja Bisau","name:left:es":"Guinea-Bis\u00e1u","name:left:ss":"IGiniya-Bhasawu","name:left:tr":"Gine-Bissau","name:left:eu":"Ginea-Bissau","name:left:et":"Guinea-Bissau","name:right:zh-min-nan":"Senegal","name:right:gv":"Yn Tenegaal","name:right:pt":"Senegal","name:left:mk":"\u0413\u0432\u0438\u043d\u0435\u0458\u0430-\u0411\u0438\u0441\u0430\u0443","name:left:mi":"Kini Pih\u014d","name:left:ts":"Guinea-Bissau","name:left:tt":"\u0413\u0432\u0438\u043d\u0435\u044f-\u0411\u0438\u0441\u0430\u0443","name:right:oc":"Senegal","name:left:ml":"\u0d17\u0d3f\u0d28\u0d3f-\u0d2c\u0d3f\u0d38\u0d57","name:left:ms":"Guinea-Bissau","name:right:pa":"\u0a38\u0a47\u0a28\u0a47\u0a17\u0a32","name:left:tk":"Gwine\u00fda-Bisau","name:left:tl":"Ginea-Bissau","name:left:ia":"Guinea-Bissau","name:right:gl":"Senegal","name:left:my":"\u1002\u1004\u103a\u1038\u1014\u102e\u1017\u1005\u103a\u1006\u1031\u102c\u1014\u102d\u102f\u1004\u103a\u1004\u1036","name:right:kn":"\u0cb8\u0cc6\u0ca8\u0cc6\u0c97\u0cb2\u0ccd","name:right:pl":"Senegal","name:right:os":"\u0421\u0435\u043d\u0435\u0433\u0430\u043b","name:right:or":"\u0b38\u0b47\u0b28\u0b47\u0b17\u0b3e\u0b32","name:left:th":"\u0e1b\u0e23\u0e30\u0e40\u0e17\u0e28\u0e01\u0e34\u0e19\u0e35-\u0e1a\u0e34\u0e2a\u0e40\u0e0b\u0e32","name:right:ka":"\u10e1\u10d4\u10dc\u10d4\u10d2\u10d0\u10da\u10d8","name:left:mr":"\u0917\u093f\u0928\u0940-\u092c\u093f\u0938\u093e\u0909","name:left:da":"Guinea-Bissau","name:left:de":"Guinea-Bissau","name:right:ga":"An tSeineag\u00e1il","name:left:dv":"\u078e\u07a9\u0782\u07a9-\u0784\u07a8\u0790\u07a7\u0787\u07ab","name:right:ug":"\u0633\u06d0\u0646\u06d0\u06af\u0627\u0644","name:left:hi":"\u0917\u093f\u0928\u0940-\u092c\u093f\u0938\u093e\u090a","name:right:lb":"Senegal","name:right:no":"Senegal","name:right:uk":"\u0421\u0435\u043d\u0435\u0433\u0430\u043b","name:left:he":"\u05d2\u05d9\u05e0\u05d0\u05d4 \u05d1\u05d9\u05e1\u05d0\u05d5","name:right:ln":"Senegale","name:right:ko":"\uc138\ub124\uac08","name:right:li":"Senegal","name:right:lt":"Senegalas","name:right:ur":"\u0633\u06cc\u0646\u06cc\u06af\u0627\u0644","name:right:lv":"Seneg\u0101la","name:left:hy":"\u0533\u057e\u056b\u0576\u0565\u0561 \u0532\u056b\u057d\u0561\u0578\u0582","name:left:ta":"\u0b95\u0bbf\u0ba9\u0bbf-\u0baa\u0bbf\u0b9a\u0bbe\u0bb5\u0bc1","name:left:ht":"Gine-Bisao","name:left:hu":"Bissau-Guinea","name:left:wo":"Gine Bisaaw\u00f3o","name:left:ga":"Guine-Bissau","name:left:it":"Guinea-Bissau","name:left:gd":"Gini-Bissau","sort_rank":262,"name:right:gd":"Seanagal","name:left:gl":"Guinea-Bisau","name:right:sk":"Senegal","osm_relation":true,"name:left:gv":"Yn Ghuinea-Bissau","name:left:tg":"\u0413\u0432\u0438\u043d\u0435\u044f \u0411\u0438\u0441\u0430\u0443","name:right:ku":"Senegal","name:left":"Guin\u00e9-Bissau","name:right:es":"Senegal","name:right:sr":"\u0421\u0435\u043d\u0435\u0433\u0430\u043b","name:right":"S\u00e9n\u00e9gal","name:right:eu":"Senegal","name:right:et":"Senegal","name:right:vo":"Senegal\u00e4n","name:left:os":"\u0413\u0432\u0438\u043d\u0435\u0439-\u0411\u0438\u0441\u0430\u0443","name:left:sw":"Guinea Bisau","name:right:my":"\u1006\u102e\u1014\u102e\u1002\u1031\u102b\u1014\u102d\u102f\u1004\u103a\u1004\u1036","name:left:be":"\u0413\u0432\u0456\u043d\u0435\u044f-\u0411\u0456\u0441\u0430\u0443","name:right:ee":"Senegal","name:right:uz":"Senegal","name:left:vo":"Giney\u00e4n-Bisau\u00e4n","name:left:oc":"Guin\u00e8a Bissau","name:right:na":"Senegal","name:right:eo":"Senegalo","name:right:en":"Senegal","name:right:mt":"Senegal","name:left:ff":"Gine-Bisaawo","name:left:nn":"Guinea-Bissau","kind":"country","name:left:cv":"\u0413\u0432\u0438\u043d\u0435\u0439-\u0411\u0438\u0441\u0430\u0443","name:left:fa":"\u06af\u06cc\u0646\u0647 \u0628\u06cc\u0633\u0627\u0626\u0648","name:left:fo":"Guinea-Bissau","name:left:qu":"Khiniya-Wisaw","name:left:fi":"Guinea-Bissau","name:right:te":"\u0c38\u0c46\u0c28\u0c46\u0c17\u0c32\u0c4d","name:left:fr":"Guin\u00e9e-Bissau","name:right:fy":"Senegal","name:left:fy":"Guinee-Bissau","name:left:br":"Ginea-Bissau","name:left:bs":"Gvineja-Bisau","name:right:ja":"\u30bb\u30cd\u30ac\u30eb","name:right:sq":"Senegali","name:left:ja":"\u30ae\u30cb\u30a2\u30d3\u30b5\u30a6","name:right:st":"Senegal","name:right:sw":"Senegal","name:right:sv":"Senegal","name:right:sh":"Senegal","name:right:ms":"Senegal","name:left:ba":"\u0413\u0432\u0438\u043d\u0435\u044f-\u0411\u0438\u0441\u0430\u0443","name:right:jv":"Senegal","name:left:bg":"\u0413\u0432\u0438\u043d\u0435\u044f-\u0411\u0438\u0441\u0430\u0443","name:right:so":"Sinigaal","name:right:sn":"Senegal","name:right:sa":"\u0938\u0947\u0928\u0947\u0917\u0932","name:right:sl":"Senegal","name:right:ff":"Senegaal","name:left:jv":"Guinea-Bissau","name:right:sc":"Seneg\u00e0l","name:right:sg":"Seneg\u00e4le","name:left:bm":"Gine Bisau","name:left:ne":"\u0917\u093f\u0928\u0940-\u092c\u093f\u0938\u093e\u0909","name:right:ca":"Senegal","name:left:bn":"\u0997\u09bf\u09a8\u09bf-\u09ac\u09bf\u09b8\u09be\u0989","name:right:zu":"ISenegal","name:right:ce":"\u0421\u0435\u043d\u0435\u0433\u0430\u043b","name:left:bo":"\u0f42\u0f72\u0f0b\u0f53\u0f7a\u0f0b-\u0f56\u0f72\u0f0b\u0f66\u0f60\u0f7c\u0f0d","name:left:yo":"Guinea-Bissau","name:right:se":"Senegal","name:right:zh-yue":"\u585e\u5167\u52a0\u723e","id:left":-192776,"min_zoom":8.0,"name:right:cs":"Senegal","name:right:fi":"Senegal","name:right:cv":"\u0421\u0435\u043d\u0435\u0433\u0430\u043b","name:right:mk":"\u0421\u0435\u043d\u0435\u0433\u0430\u043b","name:left:io":"Guinea Bisau","name:left:ar":"\u063a\u064a\u0646\u064a\u0627 \u0628\u064a\u0633\u0627\u0648","name:right:kg":"Senangale","name:right:tt":"\u0421\u0435\u043d\u0435\u0433\u0430\u043b","name:left:ie":"Guinea-Bissau","name:left:id":"Guinea-Bissau","name:right:qu":"Sinigal","name:left:az":"Qvineya-Bisau","name:right:tr":"Senegal","name:right:ts":"Senegal","name:right:tl":"Senegal","name:left:af":"Guinee-Bissau","name:right:th":"\u0e1b\u0e23\u0e30\u0e40\u0e17\u0e28\u0e40\u0e0b\u0e40\u0e19\u0e01\u0e31\u0e25","name:right:ti":"\u1234\u1294\u130b\u120d","name:right:kw":"Senegal","name:right:tk":"Senegal","name:right:ky":"\u0421\u0435\u043d\u0435\u0433\u0430\u043b","name:left:an":"Guinea-Bissau","name:left:am":"\u130a\u1294-\u1262\u1233\u12cd","name:right:tg":"\u0421\u0435\u043d\u0435\u0433\u0430\u043b","name:left:is":"G\u00ednea-Biss\u00e1","name:right:ta":"\u0b9a\u0bc6\u0ba9\u0bbf\u0b95\u0bb2\u0bcd","name:left:ku":"G\u00eene-Bissau","name:right:de":"Senegal","name:right:da":"Senegal","maritime_boundary":true,"name:right:ml":"\u0d38\u0d46\u0d28\u0d46\u0d17\u0d7d","name:left:zh-yue":"\u757f\u5167\u4e9e\u6bd4\u7d39","name:left:pa":"\u0a17\u0a3f\u0a28\u0a40-\u0a2c\u0a3f\u0a38\u0a3e\u0a0a","name:left:ro":"Guineea-Bissau"},"arcs":[0]},{"type":"LineString","properties":{"name:kg":"Ginea-Bisau","name:ka":"\u10d2\u10d5\u10d8\u10dc\u10d4\u10d0-\u10d1\u10d8\u10e1\u10d0\u10e3","name:ko":"\uae30\ub2c8\ube44\uc0ac\uc6b0","name:cv":"\u0413\u0432\u0438\u043d\u0435\u0439-\u0411\u0438\u0441\u0430\u0443","name:cs":"Guinea-Bissau","name:tt":"\u0413\u0432\u0438\u043d\u0435\u044f-\u0411\u0438\u0441\u0430\u0443","name:co":"Guinea-Bissau","name:tk":"Gwine\u00fda-Bisau","name:ku":"G\u00eene-Bissau","name:tl":"Ginea-Bissau","name:ce":"\u0413\u0432\u0438\u043d\u0435-\u0411\u0438\u0441\u0430\u0443","name:ta":"\u0b95\u0bbf\u0ba9\u0bbf-\u0baa\u0bbf\u0b9a\u0bbe\u0bb5\u0bc1","name:tg":"\u0413\u0432\u0438\u043d\u0435\u044f \u0411\u0438\u0441\u0430\u0443","name:ca":"Guinea Bissau","name:qu":"Khiniya-Wisaw","name:da":"Guinea-Bissau","name:de":"Guinea-Bissau","source":"openstreetmap.org","name:ts":"Guinea-Bissau","name:be":"\u0413\u0432\u0456\u043d\u0435\u044f-\u0411\u0456\u0441\u0430\u0443","name:dv":"\u078e\u07a9\u0782\u07a9-\u0784\u07a8\u0790\u07a7\u0787\u07ab","name:lv":"Gvineja-Bisava","name:lt":"Bisau Gvin\u0117ja","name:uz":"Gvineya-Bissau","name:kk":"\u0413\u0432\u0438\u043d\u0435\u044f-\u0411\u0438\u0441\u0430\u0443","name:ur":"\u06af\u0646\u06cc \u0628\u0633\u0627\u0624","name:lb":"Guinea-Bissau","name:la":"Guinea Bissaviensis","name:uk":"\u0413\u0432\u0456\u043d\u0435\u044f-\u0411\u0456\u0441\u0430\u0443","name:ug":"\u06af\u06cb\u0649\u0646\u06d0\u064a\u06d5 \u0628\u0649\u0633\u0633\u0627\u0626\u06c7","name:li":"Guinee-Bissau","name:ln":"Gine-Bisau","name:el":"\u0393\u03bf\u03c5\u03b9\u03bd\u03ad\u03b1-\u039c\u03c0\u03b9\u03c3\u03c3\u03ac\u03bf\u03c5","name:eo":"Gvineo Bisa\u016da","name:en":"Guinea-Bissau","name":"Guin\u00e9-Bissau","name:ee":"Guinea-Bissau","name:th":"\u0e1b\u0e23\u0e30\u0e40\u0e17\u0e28\u0e01\u0e34\u0e19\u0e35-\u0e1a\u0e34\u0e2a\u0e40\u0e0b\u0e32","name:eu":"Ginea-Bissau","name:et":"Guinea-Bissau","name:es":"Guinea-Bis\u00e1u","name:ia":"Guinea-Bissau","name:ro":"Guineea-Bissau","name:ie":"Guinea-Bissau","name:id":"Guinea-Bissau","name:ar":"\u063a\u064a\u0646\u064a\u0627 \u0628\u064a\u0633\u0627\u0648","name:io":"Guinea Bisau","name:is":"G\u00ednea-Biss\u00e1","name:am":"\u130a\u1294-\u1262\u1233\u12cd","name:it":"Guinea-Bissau","name:an":"Guinea-Bissau","name:ru":"\u0413\u0432\u0438\u043d\u0435\u044f-\u0411\u0438\u0441\u0430\u0443","name:rw":"Gineya-Biso","name:af":"Guinee-Bissau","name:zu":"IGini Bisawu","kind_detail":"2","name:ky":"\u0413\u0432\u0438\u043d\u0435\u044f-\u0411\u0438\u0441\u0430\u0443","name:zh-yue":"\u757f\u5167\u4e9e\u6bd4\u7d39","name:zh":"\u5e7e\u5167\u4e9e\u6bd4\u7d22","name:so":"Guinea-Bissau","name:sn":"Guinea-Bissau","name:sl":"Gvineja Bissau","name:sk":"Guinea-Bissau","name:ja":"\u30ae\u30cb\u30a2\u30d3\u30b5\u30a6","name:sh":"Gvineja Bisau","name:sg":"Gin\u00ebe-Bisau","name:se":"Guinea-Bissau","name:sc":"Guinea-Bissau","name:br":"Ginea-Bissau","name:bs":"Gvineja-Bisau","name:bm":"Gine Bisau","name:bn":"\u0997\u09bf\u09a8\u09bf-\u09ac\u09bf\u09b8\u09be\u0989","name:bo":"\u0f42\u0f72\u0f0b\u0f53\u0f7a\u0f0b-\u0f56\u0f72\u0f0b\u0f66\u0f60\u0f7c\u0f0d","name:sw":"Guinea Bisau","name:sv":"Guinea-Bissau","name:su":"Guin\u00e9a-Bissau","name:bg":"\u0413\u0432\u0438\u043d\u0435\u044f-\u0411\u0438\u0441\u0430\u0443","name:ss":"IGiniya-Bhasawu","name:ba":"\u0413\u0432\u0438\u043d\u0435\u044f-\u0411\u0438\u0441\u0430\u0443","osm_relation":true,"name:jv":"Guinea-Bissau","name:oc":"Guin\u00e8a Bissau","min_zoom":8.0,"name:az":"Qvineya-Bisau","name:pa":"\u0a17\u0a3f\u0a28\u0a40-\u0a2c\u0a3f\u0a38\u0a3e\u0a0a","name:os":"\u0413\u0432\u0438\u043d\u0435\u0439-\u0411\u0438\u0441\u0430\u0443","name:pl":"Gwinea Bissau","name:st":"Guinea-Bissau","sort_rank":262,"name:sr":"\u0413\u0432\u0438\u043d\u0435\u0458\u0430 \u0411\u0438\u0441\u0430\u043e","name:sq":"Guinea Bisau","name:tr":"Gine-Bissau","name:hi":"\u0917\u093f\u0928\u0940-\u092c\u093f\u0938\u093e\u090a","name:he":"\u05d2\u05d9\u05e0\u05d0\u05d4 \u05d1\u05d9\u05e1\u05d0\u05d5","name:hy":"\u0533\u057e\u056b\u0576\u0565\u0561 \u0532\u056b\u057d\u0561\u0578\u0582","name:ht":"Gine-Bisao","name:hu":"Bissau-Guinea","name:hr":"Gvineja Bisau","kind":"country","name:yi":"\u05d2\u05d9\u05e0\u05e2-\u05d1\u05d9\u05e1\u05d0\u05d5","name:yo":"Guinea-Bissau","name:ms":"Guinea-Bissau","name:mr":"\u0917\u093f\u0928\u0940-\u092c\u093f\u0938\u093e\u0909","name:my":"\u1002\u1004\u103a\u1038\u1014\u102e\u1017\u1005\u103a\u1006\u1031\u102c\u1014\u102d\u102f\u1004\u103a\u1004\u1036","name:kw":"Gyni-Bissaw","name:ml":"\u0d17\u0d3f\u0d28\u0d3f-\u0d2c\u0d3f\u0d38\u0d57","name:mi":"Kini Pih\u014d","id":-192776,"name:mk":"\u0413\u0432\u0438\u043d\u0435\u0458\u0430-\u0411\u0438\u0441\u0430\u0443","name:vo":"Giney\u00e4n-Bisau\u00e4n","name:fa":"\u06af\u06cc\u0646\u0647 \u0628\u06cc\u0633\u0627\u0626\u0648","name:ff":"Gine-Bisaawo","name:fi":"Guinea-Bissau","name:fo":"Guinea-Bissau","name:fr":"Guin\u00e9e-Bissau","name:fy":"Guinee-Bissau","name:nl":"Guinee-Bissau","name:nn":"Guinea-Bissau","name:no":"Guinea-Bissau","name:na":"Gini-Bitau","name:ne":"\u0917\u093f\u0928\u0940-\u092c\u093f\u0938\u093e\u0909","name:wo":"Gine Bisaaw\u00f3o","name:nv":"G\u00edn\u00ed Bis\u00f3","name:ga":"Guine-Bissau","name:gd":"Gini-Bissau","name:gl":"Guinea-Bisau","maritime_boundary":true,"name:gv":"Yn Ghuinea-Bissau"},"arcs":[1]},{"type":"LineString","properties":{"name:kg":"Senangale","name:ka":"\u10e1\u10d4\u10dc\u10d4\u10d2\u10d0\u10da\u10d8","name:ko":"\uc138\ub124\uac08","name:cv":"\u0421\u0435\u043d\u0435\u0433\u0430\u043b","name:cs":"Senegal","name:tt":"\u0421\u0435\u043d\u0435\u0433\u0430\u043b","name:kw":"Senegal","name:tk":"Senegal","name:ku":"Senegal","name:ti":"\u1234\u1294\u130b\u120d","name:tl":"Senegal","name:ce":"\u0421\u0435\u043d\u0435\u0433\u0430\u043b","name:ta":"\u0b9a\u0bc6\u0ba9\u0bbf\u0b95\u0bb2\u0bcd","name:tg":"\u0421\u0435\u043d\u0435\u0433\u0430\u043b","name:ca":"Senegal","name:te":"\u0c38\u0c46\u0c28\u0c46\u0c17\u0c32\u0c4d","name:qu":"Sinigal","name:da":"Senegal","name:de":"Senegal","source":"openstreetmap.org","name:kn":"\u0cb8\u0cc6\u0ca8\u0cc6\u0c97\u0cb2\u0ccd","name:dv":"\u0790\u07ac\u0782\u07ac\u078e\u07a7\u078d\u07b0","name:lv":"Seneg\u0101la","name:lt":"Senegalas","name:uz":"Senegal","name:kk":"\u0421\u0435\u043d\u0435\u0433\u0430\u043b","name:ur":"\u0633\u06cc\u0646\u06cc\u06af\u0627\u0644","name:lb":"Senegal","name:la":"Senegalia","name:uk":"\u0421\u0435\u043d\u0435\u0433\u0430\u043b","name:ug":"\u0633\u06d0\u0646\u06d0\u06af\u0627\u0644","name:li":"Senegal","name:ln":"Senegale","name:el":"\u03a3\u03b5\u03bd\u03b5\u03b3\u03ac\u03bb\u03b7","name:eo":"Senegalo","name:en":"Senegal","name":"S\u00e9n\u00e9gal","name:ee":"Senegal","name:th":"\u0e1b\u0e23\u0e30\u0e40\u0e17\u0e28\u0e40\u0e0b\u0e40\u0e19\u0e01\u0e31\u0e25","name:eu":"Senegal","name:et":"Senegal","name:es":"Senegal","name:ia":"Senegal","name:az":"Seneqal","name:ie":"Senegal","name:id":"Senegal","name:ar":"\u0627\u0644\u0633\u0646\u063a\u0627\u0644","name:io":"Senegal","name:is":"Senegal","name:am":"\u1234\u1294\u130b\u120d","name:it":"Senegal","name:an":"Senegal","name:ru":"\u0421\u0435\u043d\u0435\u0433\u0430\u043b","name:rw":"Senegali","name:af":"Senegal","name:zu":"ISenegal","kind_detail":"2","name:ky":"\u0421\u0435\u043d\u0435\u0433\u0430\u043b","name:zh-yue":"\u585e\u5167\u52a0\u723e","name:zh":"\u585e\u5185\u52a0\u5c14","name:so":"Sinigaal","name:sn":"Senegal","name:sl":"Senegal","name:sk":"Senegal","name:ja":"\u30bb\u30cd\u30ac\u30eb","name:sh":"Senegal","name:sg":"Seneg\u00e4le","name:se":"Senegal","name:sc":"Seneg\u00e0l","name:br":"Senegal","name:bs":"Senegal","name:bm":"Senegal","name:bn":"\u09b8\u09c7\u09a8\u09c7\u0997\u09be\u09b2","name:bo":"\u0f66\u0f72\u0f0b\u0f53\u0f72\u0f0b\u0f42\u0f71\u0f63\u0f0d","name:sa":"\u0938\u0947\u0928\u0947\u0917\u0932","name:sw":"Senegal","name:be":"\u0421\u0435\u043d\u0435\u0433\u0430\u043b","name:bg":"\u0421\u0435\u043d\u0435\u0433\u0430\u043b","name:ba":"\u0421\u0435\u043d\u0435\u0433\u0430\u043b","name:sq":"Senegali","name:jv":"Senegal","name:pt":"Senegal","name:ps":"\u0633\u06d0\u0646\u06d0\u06ab\u0627\u0644","name:oc":"Senegal","min_zoom":8.0,"name:ro":"Senegal","name:zh-min-nan":"Senegal","name:os":"\u0421\u0435\u043d\u0435\u0433\u0430\u043b","name:or":"\u0b38\u0b47\u0b28\u0b47\u0b17\u0b3e\u0b32","name:pl":"Senegal","name:st":"Senegal","sort_rank":262,"name:sr":"\u0421\u0435\u043d\u0435\u0433\u0430\u043b","osm_relation":true,"name:pa":"\u0a38\u0a47\u0a28\u0a47\u0a17\u0a32","name:tr":"Senegal","name:hi":"\u0938\u0947\u0928\u0947\u0917\u0932","name:sv":"Senegal","name:he":"\u05e1\u05e0\u05d2\u05dc","name:ha":"Senegal","name:hy":"\u054d\u0565\u0576\u0565\u0563\u0561\u056c","name:ht":"Senegal","name:hu":"Szeneg\u00e1l","name:hr":"Senegal","kind":"country","name:ts":"Senegal","name:yi":"\u05e1\u05e2\u05e0\u05e2\u05d2\u05d0\u05dc","name:yo":"S\u1eb9\u0300n\u1eb9\u0300g\u00e0l","name:mt":"Senegal","name:ms":"Senegal","name:mr":"\u0938\u0947\u0928\u0947\u0917\u093e\u0932","name:my":"\u1006\u102e\u1014\u102e\u1002\u1031\u102b\u1014\u102d\u102f\u1004\u103a\u1004\u1036","name:ml":"\u0d38\u0d46\u0d28\u0d46\u0d17\u0d7d","id":-192775,"name:mk":"\u0421\u0435\u043d\u0435\u0433\u0430\u043b","name:vo":"Senegal\u00e4n","name:fa":"\u0633\u0646\u06af\u0627\u0644","name:ff":"Senegaal","name:fi":"Senegal","name:fo":"Senegal","name:fy":"Senegal","name:nl":"Senegal","name:nn":"Senegal","name:no":"Senegal","name:na":"Senegal","name:wa":"Senegal","name:wo":"Senegaal","name:ga":"An tSeineag\u00e1il","name:gd":"Seanagal","name:gl":"Senegal","maritime_boundary":true,"name:gv":"Yn Tenegaal"},"arcs":[2]}]},"roads":{"type":"GeometryCollection","geometries":[]},"earth":{"type":"GeometryCollection","geometries":[]},"landuse":{"type":"GeometryCollection","geometries":[]}},"type":"Topology","transform":{"translate":[-18.28125,11.1784018737],"scale":[0.0003433228,0.000335977]},"arcs":[[[4096,3185],[-57,-33]],[[4039,3152],[57,-344]],[[3789,4096],[-40,-124],[4,-226],[103,-345],[183,-249]],[[4096,0],[-4096,0],[0,4096],[4096,0],[0,-4096]]]}