{"objects":{"water":{"type":"GeometryCollection","geometries":[]},"buildings":{"type":"GeometryCollection","geometries":[]},"places":{"type":"GeometryCollection","geometries":[{"type":"Point","properties":{"name:kg":"Fwalansa","name:ty":"Far\u0101ni","name:ka":"\u10e1\u10d0\u10e4\u10e0\u10d0\u10dc\u10d2\u10d4\u10d7\u10d8","name:ko":"\ud504\ub791\uc2a4","name:cv":"\u0424\u0440\u0430\u043d\u0446\u0438","name:cu":"\u0424\u0440\u0430\u043d\u043a\u0457\ua657","name:kl":"Frankrigi","name:cs":"Francie","name:ki":"Ubaranja","name:co":"Francia","name:kv":"\u0424\u0440\u0430\u043d\u0446\u0438\u044f","name:ku":"Fransa","name:ti":"\u1348\u1228\u1295\u1233\u12ed","name:ks":"\u0641\u0631\u065b\u0627\u0646\u0633","name:to":"Falanis\u0113","name:tl":"Pransiya","name:ce":"\u0424\u0440\u0430\u043d\u0446\u0438","name:ta":"\u0baa\u0bbf\u0bb0\u0bbe\u0ba9\u0bcd\u0b9a\u0bc1","name:tg":"\u0424\u0430\u0440\u043e\u043d\u0441\u0430","name:ca":"Fran\u00e7a","name:te":"\u0c2b\u0c4d\u0c30\u0c3e\u0c28\u0c4d\u0c38\u0c4d","name:cy":"Ffrainc","name:hr":"Francuska","name:da":"Frankrig","name:de":"Frankreich","name:dz":"\u0f55\u0f62\u0f71\u0f53\u0f66\u0f72\u0f0b","source":"openstreetmap.org","name:kn":"\u0cab\u0ccd\u0cb0\u0cbe\u0ca8\u0ccd\u0cb8\u0ccd","name:dv":"\u078a\u07a6\u0783\u07a6\u0782\u07b0\u0790\u07ad\u0790\u07a8\u0788\u07a8\u078d\u07a7\u078c\u07b0","name:km":"\u1794\u17b6\u179a\u17b6\u17c6\u1784","name:lv":"Francija","name:lt":"Pranc\u016bzija","name:uz":"Fransiya","name:kk":"\u0424\u0440\u0430\u043d\u0446\u0438\u044f","name:ur":"\u0641\u0631\u0627\u0646\u0633","name:lb":"Frankr\u00e4ich","name:la":"Francia","name:lg":"Bufalansa","name:uk":"\u0424\u0440\u0430\u043d\u0446\u0456\u044f","name:ug":"\u0641\u0631\u0627\u0646\u0633\u0649\u064a\u06d5","name:li":"Frankriek","name:ln":"Falansia","name:lo":"\u0e9b\u0eb0\u0ec0\u0e97\u0e94\u0e9d\u0eb0\u0ea5\u0eb1\u0ec8\u0e87","name:el":"\u0393\u03b1\u03bb\u03bb\u03af\u03b1","name:eo":"Francujo","name":"France","name:tk":"Fransi\u00fda","name:th":"\u0e1b\u0e23\u0e30\u0e40\u0e17\u0e28\u0e1d\u0e23\u0e31\u0e48\u0e07\u0e40\u0e28\u0e2a","name:eu":"Frantzia","name:et":"Prantsusmaa","name:es":"Francia","name:ay":"Phransiya","name:rm":"Frantscha","name:rn":"Francia","name:az":"Fransa","name:ie":"Francia","name:id":"Perancis","name:ii":"\ua0d4\ua1e9","name:as":"\u09ab\u09cd\u09f0\u09be\u09a8\u09cd\u09b8","name:ar":"\u0641\u0631\u0646\u0633\u0627","name:io":"Francia","name:ak":"Fr\u025bnkyeman","name:am":"\u1348\u1228\u1295\u1223\u12ed","name:it":"Francia","name:an":"Francia","name:ru":"\u0424\u0440\u0430\u043d\u0446\u0438\u044f","name:rw":"Ubufaransa","name:af":"Frankryk","name:zu":"IFulansi","name:za":"Fazgoz","name:zh-yue":"\u6cd5\u570b","name:zh":"\u6cd5\u56fd","name:so":"Faransiiska","name:sm":"Farani","name:sl":"Francija","name:sk":"Franc\u00fazsko","name:ja":"\u30d5\u30e9\u30f3\u30b9","name:si":"\u0db4\u0dca\u200d\u0dbb\u0d82\u0dc1\u0dba","name:sh":"Francuska","name:sg":"Far\u00e2nzi","name:se":"Frankriika","name:sc":"Frantza","name:br":"Bro-C'hall","name:bs":"Francuska","name:bn":"\u09ab\u09cd\u09b0\u09be\u09a8\u09cd\u09b8","name:bo":"\u0f67\u0fa5\u0f0b\u0f62\u0f53\u0f0b\u0f66\u0f72\u0f0d","name:bi":"Franis","name:sw":"Ufaransa","name:be":"\u0424\u0440\u0430\u043d\u0446\u044b\u044f","name:su":"Perancis","name:bg":"\u0424\u0440\u0430\u043d\u0446\u0438\u044f","name:ss":"IFulansi","name:ba":"\u0424\u0440\u0430\u043d\u0446\u0438\u044f","name:sq":"Franca","name:jv":"Prancis","name:sa":"\u092b\u094d\u0930\u093e\u0928\u094d\u0938\u0926\u0947\u0936\u0903","name:ia":"Francia","name:pt":"Fran\u00e7a","name:ps":"\u0641\u0631\u0627\u0646\u0633\u0647","name:oc":"Fran\u00e7a","min_zoom":2.0,"name:ro":"Fran\u021ba","name:zh-min-nan":"Hoat-kok","name:os":"\u0424\u0440\u0430\u043d\u0446","name:or":"\u0b2b\u0b4d\u0b30\u0b3e\u0b28\u0b4d\u0b38","name:pl":"Francja","name:st":"Fora","name:sr":"\u0424\u0440\u0430\u043d\u0446\u0443\u0441\u043a\u0430","name:pa":"\u0a2b\u0a4d\u0a30\u0a3e\u0a02\u0a38","name:tr":"Fransa","name:hi":"\u092b\u093c\u094d\u0930\u093e\u0928\u094d\u0938","name:sv":"Frankrike","name:he":"\u05e6\u05e8\u05e4\u05ea","name:ha":"Faransa","name:hy":"\u0556\u0580\u0561\u0576\u057d\u056b\u0561","name:ht":"Frans","name:hu":"Franciaorsz\u00e1g","name:qu":"Ransiya","population":65073482,"kind":"country","name:is":"Frakkland","name:yi":"\u05e4\u05e8\u05d0\u05e0\u05e7\u05e8\u05d9\u05d9\u05da","name:yo":"Fr\u00e1ns\u00ec","name:mt":"Franza","alt_name:eo":"Francio","alt_name:en":"Metropolitan France","name:ms":"Perancis","name:mr":"\u092b\u094d\u0930\u093e\u0928\u094d\u0938","name:my":"\u1015\u103c\u1004\u103a\u101e\u1005\u103a\u1014\u102d\u102f\u1004\u103a\u1004\u1036","official_name":"R\u00e9publique fran\u00e7aise","name:kw":"Pow Frynk","name:mg":"Frantsa","name:ml":"\u0d2b\u0d4d\u0d30\u0d3e\u0d7b\u0d38\u0d4d","name:vi":"Ph\u00e1p","name:mn":"\u0424\u0440\u0430\u043d\u0446","name:mi":"W\u012bw\u012b","id":1363947712,"name:mk":"\u0424\u0440\u0430\u043d\u0446\u0438\u0458\u0430","name:vo":"Frans\u00e4n","name:fa":"\u0641\u0631\u0627\u0646\u0633\u0647","name:ff":"Faransi","name:fi":"Ranska","name:ky":"\u0424\u0440\u0430\u043d\u0446\u0438\u044f","name:fo":"Frakland","name:fy":"Frankryk","name:nl":"Frankrijk","name:nn":"Frankrike","name:no":"Frankrike","name:na":"Prant","name:ne":"\u092b\u094d\u0930\u093e\u0928\u094d\u0938","name:wo":"Faraas","name:nv":"D\u00e1\u00e1ghahii Din\u00e9\u02bci\u02bc Bik\u00e9yah","name:ga":"An Fhrainc","name:gd":"An Fhraing","name:gn":"Hy\u00e3sia","name:gl":"Francia","name:gv":"Yn Rank","name:gu":"\u0aab\u0acd\u0ab0\u0abe\u0aa8\u0acd\u0ab8","name:tt":"\u0424\u0440\u0430\u043d\u0446\u0438\u044f"},"coordinates":[1404,2246]},{"type":"Point","properties":{"name:ja":"\u30b7\u30e3\u30c8\u30fc\u30eb\u30fc","name:lt":"\u0160atoru","name:ko":"\uc0e4\ud1a0\ub8e8","min_zoom":8.0,"name:la":"Castrum Radulphi","name:uk":"\u0428\u0430\u0442\u043e\u0440\u0443","name:be":"\u0428\u0430\u0442\u0430\u0440\u0443","name:ru":"\u0428\u0430\u0442\u043e\u0440\u0443","id":26691551,"population":44960,"name:fa":"\u0634\u0627\u062a\u0648\u0631\u0648","kind":"locality","name":"Ch\u00e2teauroux","kind_detail":"town","name:sr":"\u0428\u0430\u0442\u043e\u0440\u0443","source":"openstreetmap.org","name:zh":"\u6c99\u6258\u9c81"},"coordinates":[843,3098]},{"type":"Point","properties":{"kind":"locality","name":"Montlu\u00e7on","kind_detail":"town","source":"openstreetmap.org","min_zoom":8.0,"name:ru":"\u041c\u043e\u043d\u043b\u044e\u0441\u043e\u043d","id":26691389,"population":38402},"coordinates":[3497,1130]},{"type":"Point","properties":{"kind":"locality","name":"Gu\u00e9ret","kind_detail":"town","source":"openstreetmap.org","min_zoom":8.0,"name:uk":"\u0413\u0435\u0440\u0435","name:ru":"\u0413\u0435\u0440\u0435","population":13573,"id":26691599,"name:ja":"\u30b2\u30ec"},"coordinates":[1355,404]},{"type":"Point","properties":{"source":"openstreetmap.org","kind":"locality","name":"Issoudun","kind_detail":"town","population":13090,"min_zoom":8.0,"id":26692320},"coordinates":[1697,3705]},{"type":"Point","properties":{"source":"openstreetmap.org","kind":"locality","name":"Saint-Amand-Montrond","kind_detail":"town","population":10761,"min_zoom":8.0,"id":26691961},"coordinates":[3199,2751]},{"type":"Point","properties":{"kind":"locality","name":"Argenton-sur-Creuse","kind_detail":"town","source":"openstreetmap.org","min_zoom":8.0,"name:uk":"\u0410\u0440\u0436\u0430\u043d\u0442\u043e\u043d-\u0441\u044e\u0440-\u041a\u0440\u0435\u0437","id":476028381,"population":5120},"coordinates":[327,2186]},{"type":"Point","properties":{"source":"openstreetmap.org","kind":"locality","name":"La Ch\u00e2tre","kind_detail":"town","population":4352,"min_zoom":8.0,"id":26696219},"coordinates":[1698,2153]}]},"transit":{"type":"GeometryCollection","geometries":[{"type":"MultiLineString","properties":{"kind":"train","network":"Intercit\u00e9s","service":"national","sort_rank":275,"colour":"#ff0050","name":"IC 400 : Paris \u2212 Bourges \u2212 Montlu\u00e7on","source":"openstreetmap.org","min_zoom":6.0,"operator":"SNCF","ref":"IC 400","osm_relation":true,"colour_name":"crimson"},"arcs":[[4],[5],[6],[7],[8],[9],[10],[11],[12],[13],[14],[15],[16]]},{"type":"MultiLineString","properties":{"kind":"train","name":"TER 3.1 : (Paris) \u2212 Vierzon\/Bourges \u2212 Montlu\u00e7on","service":"regional","sort_rank":275,"colour":"#039fe0","source":"openstreetmap.org","min_zoom":6.0,"osm_relation":true,"network":"TER Centre \u2212 Val de Loire","operator":"SNCF","ref":"TER 3.1","colour_name":"dodgerblue","description":"Voir aussi la relation 10 TER Auvergne et la relation 400 Intercit\u00e9s"},"arcs":[[17],[18],[19],[20],[21],[22],[23],[24],[25],[26],[27],[28],[29]]},{"type":"LineString","properties":{"kind":"train","network":"TER Centre \u2212 Val de Loire","service":"regional","sort_rank":275,"colour":"#039fe0","name":"TER 2.2 : Tours \u2212 Vierzon \u2212 Bourges \u2212 Nevers \u2212 (Dijon\/Lyon)","source":"openstreetmap.org","min_zoom":6.0,"operator":"SNCF","ref":"TER 2.2","id":-3232333,"osm_relation":true,"colour_name":"dodgerblue"},"arcs":[30]},{"type":"MultiLineString","properties":{"kind":"train","description":"Voir aussi la relation 36 TER Centre et la relation 400 Intercit\u00e9s","service":"regional","sort_rank":275,"colour":"#008be0","name":"TER 17 : Montlu\u00e7on \u2212 Vierzon\/Bourges \u2212 (Paris)","source":"openstreetmap.org","min_zoom":6.0,"osm_relation":true,"operator":"SNCF","ref":"TER 17","colour_name":"dodgerblue","network":"TER Auvergne-Rh\u00f4ne-Alpes"},"arcs":[[31],[32],[33],[34],[35],[36],[37],[38],[39],[40],[41],[42]]},{"type":"MultiLineString","properties":{"kind":"train","name":"IC 410 : Paris \u2212 Andorre \u2212 Latour-de-Carol","service":"national","sort_rank":275,"colour":"#92004c","source":"openstreetmap.org","min_zoom":6.0,"network":"Intercit\u00e9s","operator":"SNCF","ref":"IC 410","osm_relation":true,"colour_name":"purple"},"arcs":[[43],[44],[45],[46],[47],[48],[49],[50],[51],[52],[53],[54],[55],[56]]},{"type":"MultiLineString","properties":{"kind":"train","network":"Intercit\u00e9s 100% \u00c9co","service":"national","sort_rank":275,"colour":"#79bb02","name":"ICE 408 : Paris \u2212 Toulouse","source":"openstreetmap.org","min_zoom":6.0,"operator":"SNCF","ref":"ICE 408","osm_relation":true,"colour_name":"olivedrab"},"arcs":[[57],[58],[59],[60],[61],[62],[63],[64],[65],[66],[67],[68],[69],[70],[71]]},{"type":"MultiLineString","properties":{"kind":"train","name":"TER 10 : Limoges - Gu\u00e9ret - Felletin\/Montlu\u00e7on","sort_rank":275,"colour":"#00abe6","source":"openstreetmap.org","min_zoom":6.0,"network":"TER Limousin","operator":"SNCF","ref":"TER 10","osm_relation":true,"colour_name":"dodgerblue"},"arcs":[[72],[73],[74],[75],[76],[77],[78],[79],[80],[81],[82],[83],[84],[85],[86],[87],[88],[89],[90],[91],[92],[93],[94],[95],[96],[97]]},{"type":"MultiLineString","properties":{"kind":"train","network":"Intercit\u00e9s","service":"national","sort_rank":275,"colour":"#92004c","name":"IC 408 : Paris \u2212 Limoges \u2212 Toulouse","source":"openstreetmap.org","min_zoom":6.0,"operator":"SNCF","ref":"IC 408","osm_relation":true,"colour_name":"purple"},"arcs":[[98],[99],[100],[101],[102],[103],[104],[105],[106],[107],[108],[109],[110],[111],[112]]},{"type":"LineString","properties":{"kind":"train","network":"Intercit\u00e9s","service":"national","sort_rank":275,"colour":"#e55c00","name":"IC 732 : Nantes \u2212 Tours \u2212 Bourges \u2212 Lyon","source":"openstreetmap.org","min_zoom":6.0,"operator":"SNCF","ref":"IC 732","id":-407260,"osm_relation":true,"colour_name":"orangered"},"arcs":[113]},{"type":"MultiLineString","properties":{"kind":"train","name":"TER 1.3 : (Orl\u00e9ans) \u2212 Vierzon \u2212 Ch\u00e2teauroux \u2212 (Limoges)","sort_rank":275,"colour":"#039fe0","source":"openstreetmap.org","min_zoom":6.0,"network":"TER Centre \u2212 Val de Loire","operator":"SNCF","ref":"TER 1.3","osm_relation":true,"colour_name":"dodgerblue"},"arcs":[[114],[115],[116],[117],[118],[119],[120],[121],[122],[123],[124],[125],[126],[127]]},{"type":"MultiLineString","properties":{"kind":"train","network":"Intercit\u00e9s","service":"national","sort_rank":275,"colour":"#92004c","name":"IC 412 : Paris \u2212 Toulouse \u2212 Port-Bou","source":"openstreetmap.org","min_zoom":6.0,"operator":"SNCF","ref":"IC 412","osm_relation":true,"colour_name":"purple"},"arcs":[[128],[129],[130],[131],[132],[133],[134],[135],[136],[137],[138],[139],[140]]},{"type":"MultiLineString","properties":{"kind":"train","description":"La varainte via Brive est int\u00e9rompue entre Ussel et Clermont-Ferrand pour cause de voie d\u00e9grad\u00e9e. La variante via Montlu\u00e7on est suspendue de Limoges \u00e0 Lyon pour travaux.","service":"national","sort_rank":275,"colour":"#e55c00","source":"openstreetmap.org","min_zoom":6.0,"osm_relation":true,"network":"Intercit\u00e9s","operator":"SNCF","ref":"IC 741","colour_name":"orangered","name":"IC 741 : Bordeaux \u2212 Limoges \u2212 Montlu\u00e7on \/ Brive \u2212 Clermont-Ferrand \u2212 Lyon"},"arcs":[[141],[142],[143],[144],[145],[146],[147],[148],[149],[150],[151],[152],[153],[154],[155],[156],[157],[158],[159],[160],[161],[162],[163],[164],[165]]},{"type":"MultiLineString","properties":{"kind":"train","name":"TER 1.2 : (Ch\u00e2teauroux) \u2212 Vierzon \u2212 Orl\u00e9ans \u2212 (Paris)","service":"regional","sort_rank":275,"colour":"#039fe0","source":"openstreetmap.org","min_zoom":6.0,"network":"TER Centre \u2212 Val de Loire","operator":"SNCF","ref":"TER 1.2","osm_relation":true,"colour_name":"dodgerblue"},"arcs":[[166],[167],[168],[169],[170],[171],[172],[173],[174],[175],[176]]},{"type":"MultiLineString","properties":{"kind":"train","network":"Intercit\u00e9s","service":"national","sort_rank":275,"colour":"#92004c","name":"IC 409 : Paris \u2212 Tarbes \u2212 Hendaye","source":"openstreetmap.org","min_zoom":6.0,"operator":"SNCF","ref":"IC 409","osm_relation":true,"colour_name":"purple"},"arcs":[[177],[178],[179],[180],[181],[182],[183],[184],[185],[186],[187],[188],[189]]},{"type":"MultiLineString","properties":{"kind":"train","name":"IC 413 : Paris \u2212 Rodez \u2212 Albi","service":"national","sort_rank":275,"colour":"#92004c","source":"openstreetmap.org","min_zoom":6.0,"network":"Intercit\u00e9s","operator":"SNCF","ref":"IC 413","osm_relation":true,"colour_name":"purple"},"arcs":[[190],[191],[192],[193],[194],[195],[196],[197],[198],[199],[200],[201],[202],[203]]},{"type":"MultiLineString","properties":{"kind":"train","network":"TER Auvergne-Rh\u00f4ne-Alpes","service":"regional","sort_rank":275,"colour":"#008be0","name":"TER 16 : Montlu\u00e7on \u2212 Grannat \u2212 Clermont-Ferrand","source":"openstreetmap.org","min_zoom":6.0,"operator":"SNCF","ref":"TER 16","osm_relation":true,"colour_name":"dodgerblue"},"arcs":[[204],[205],[206],[207],[208],[209],[210]]},{"type":"LineString","properties":{"kind":"train","network":"TER Centre \u2212 Val de Loire","service":"regional","sort_rank":275,"colour":"#039fe0","name":"TER 1.4 : Orl\u00e9ans \u2212 Vierzon \u2212 Bourges \u2212 Nevers \u2212 (Dijon\/Lyon)","source":"openstreetmap.org","min_zoom":6.0,"operator":"SNCF","ref":"TER 1.4","id":-5149356,"osm_relation":true,"colour_name":"dodgerblue"},"arcs":[211]},{"type":"MultiLineString","properties":{"kind":"train","name":"TER 1 : Limoges - Ch\u00e2teauroux - Vierzon - (Paris)","sort_rank":275,"colour":"#c22d0b","source":"openstreetmap.org","min_zoom":6.0,"network":"TER Limousin","operator":"SNCF","ref":"TER 1","osm_relation":true,"colour_name":"brown"},"arcs":[[212],[213],[214],[215],[216],[217],[218],[219],[220],[221],[222],[223],[224],[225]]},{"type":"MultiLineString","properties":{"kind":"train","network":"TGV","service":"national","sort_rank":275,"colour":"#e55c00","name":"TGV 727 : Lille \u2212 Brive","source":"openstreetmap.org","min_zoom":6.0,"operator":"SNCF","ref":"TGV 727","osm_relation":true,"colour_name":"orangered"},"arcs":[[226],[227],[228],[229],[230],[231],[232],[233],[234],[235],[236],[237],[238],[239],[240]]},{"type":"LineString","properties":{"kind":"train","network":"TER Bourgogne","service":"regional","sort_rank":275,"colour":"orange","name":"TER 06 : Dijon \u2013 Autun \u2013 Nevers \u2013 (Tours)","source":"openstreetmap.org","min_zoom":6.0,"operator":"SNCF","ref":"TER 06","id":-3165672,"osm_relation":true,"colour_name":"orange"},"arcs":[241]}]},"pois":{"type":"GeometryCollection","geometries":[{"type":"Point","properties":{"source":"openstreetmap.org","kind":"military","name":"Champs de tir du polygone","area":221036000,"tier":3,"min_zoom":8.0,"id":378174285},"coordinates":[3659,3967]}]},"boundaries":{"type":"GeometryCollection","geometries":[{"type":"LineString","properties":{"name:left":"Nouvelle-Aquitaine","name:left:ar":"\u0622\u0643\u064a\u062a\u0646 \u062c\u062f\u064a\u062f","id:right":-3792877,"min_zoom":8.0,"name:left:oc":"N\u00f2va Aquit\u00e0nia","name:left:it":"Nuova Aquitania","id":-3792880,"osm_relation":true,"name:right":"Auvergne-Rh\u00f4ne-Alpes","kind":"region","name:left:en":"New Aquitaine","source":"openstreetmap.org","name:right:ca":"Alv\u00e8rnia-Roine-Alps","kind_detail":"4","old_name:left:fr":"Aquitaine-Limousin-Poitou-Charentes","name:left:ca":"Nova Aquit\u00e0nia","name:left:de":"Neu-Aquitanien","name":"Nouvelle-Aquitaine - Auvergne-Rh\u00f4ne-Alpes","sort_rank":256,"old_name:left:es":"Aquitania-Lemos\u00edn-Poitou-Charentes","name:right:ar":"\u0623\u0648\u0641\u0631\u0646-\u0631\u0648\u0646 \u0623\u0644\u0628","name:left:nl":"Nieuw-Aquitani\u00eb","id:left":-3792880,"name:left:es":"Nueva Aquitania","name:left:cs":"Nov\u00e1 Akvit\u00e1nie","old_name:left":"Aquitaine-Limousin-Poitou-Charentes","name:left:eu":"Akitania Berria","old_name:left:ar":"\u0622\u0643\u064a\u062a\u0646-\u0644\u064a\u0645\u0648\u0632\u064a\u0646-\u0628\u0648\u0627\u062a\u0648-\u0634\u0627\u0631\u0627\u0646\u062a"},"arcs":[0]},{"type":"LineString","properties":{"old_name:right:eo":"Centro","old_name:right:it":"Centro","id:right":-8640,"old_name:right:pt":"Centro","old_name:right:oc":"Centre","old_name:right:ru":"\u0426\u0435\u043d\u0442\u0440","old_name:right:es":"Centro","old_name:right:eu":"Centre","id":-3792880,"name:right":"Centre-Val de Loire","old_name:right:fr":"Centre","name:left:en":"New Aquitaine","name:right:ca":"Centre \u2013 Vall del Loira","kind_detail":"4","name:left:ca":"Nova Aquit\u00e0nia","old_name:right:br":"Centre","source":"openstreetmap.org","old_name:left:es":"Aquitania-Lemos\u00edn-Poitou-Charentes","name:right:ar":"\u0645\u0631\u0643\u0632-\u0648\u0627\u062f\u064a \u0627\u0644\u0644\u0648\u0627\u0631","name:left:nl":"Nieuw-Aquitani\u00eb","id:left":-3792880,"name:left:es":"Nueva Aquitania","old_name:right:be":"\u0426\u044d\u043d\u0442\u0440","name:left:cs":"Nov\u00e1 Akvit\u00e1nie","old_name:left:ar":"\u0622\u0643\u064a\u062a\u0646-\u0644\u064a\u0645\u0648\u0632\u064a\u0646-\u0628\u0648\u0627\u062a\u0648-\u0634\u0627\u0631\u0627\u0646\u062a","name:left:ar":"\u0622\u0643\u064a\u062a\u0646 \u062c\u062f\u064a\u062f","old_name:right":"Centre","old_name:right:de":"Zentrum","old_name:right:uk":"\u0426\u0435\u043d\u0442\u0440","old_name:right:la":"Centrum","name:right:ro":"Centru - Valea Loarei","name:left:oc":"N\u00f2va Aquit\u00e0nia","name:left:it":"Nuova Aquitania","name:right:en":"Centre-Loire Valley","osm_relation":true,"kind":"region","name":"Nouvelle-Aquitaine - Centre-Val de Loire","old_name:right:ar":"\u0645\u0631\u0643\u0632","name:right:de":"Zentrum-Loiretal","old_name:left:fr":"Aquitaine-Limousin-Poitou-Charentes","min_zoom":8.0,"name:left:de":"Neu-Aquitanien","sort_rank":256,"name:left:eu":"Akitania Berria","old_name:right:ca":"Centre","name:left":"Nouvelle-Aquitaine","old_name:left":"Aquitaine-Limousin-Poitou-Charentes"},"arcs":[1]},{"type":"LineString","properties":{"old_name:right:eo":"Centro","old_name:right:it":"Centro","id:right":-8640,"old_name:right:pt":"Centro","old_name:right:oc":"Centre","old_name:right:ru":"\u0426\u0435\u043d\u0442\u0440","old_name:right:es":"Centro","old_name:right:eu":"Centre","id":-3792877,"name:right":"Centre-Val de Loire","old_name:right:fr":"Centre","name:right:ca":"Centre \u2013 Vall del Loira","kind_detail":"4","name:left:ca":"Alv\u00e8rnia-Roine-Alps","old_name:right:br":"Centre","source":"openstreetmap.org","name:right:ar":"\u0645\u0631\u0643\u0632-\u0648\u0627\u062f\u064a \u0627\u0644\u0644\u0648\u0627\u0631","id:left":-3792877,"old_name:right:be":"\u0426\u044d\u043d\u0442\u0440","name:left":"Auvergne-Rh\u00f4ne-Alpes","name:left:ar":"\u0623\u0648\u0641\u0631\u0646-\u0631\u0648\u0646 \u0623\u0644\u0628","old_name:right":"Centre","old_name:right:de":"Zentrum","old_name:right:uk":"\u0426\u0435\u043d\u0442\u0440","old_name:right:la":"Centrum","name:right:ro":"Centru - Valea Loarei","name:right:en":"Centre-Loire Valley","osm_relation":true,"kind":"region","name":"Auvergne-Rh\u00f4ne-Alpes - Centre-Val de Loire","old_name:right:ar":"\u0645\u0631\u0643\u0632","name:right:de":"Zentrum-Loiretal","min_zoom":8.0,"sort_rank":256,"old_name:right:ca":"Centre"},"arcs":[2]},{"type":"LineString","properties":{"old_name:right:eo":"Centro","old_name:right:it":"Centro","id:right":-8640,"old_name:right:pt":"Centro","old_name:right:oc":"Centre","old_name:right:ru":"\u0426\u0435\u043d\u0442\u0440","old_name:right:es":"Centro","old_name:right:eu":"Centre","id":-3792877,"name:right":"Centre-Val de Loire","old_name:right:fr":"Centre","name:right:ca":"Centre \u2013 Vall del Loira","kind_detail":"4","name:left:ca":"Alv\u00e8rnia-Roine-Alps","old_name:right:br":"Centre","source":"openstreetmap.org","name:right:ar":"\u0645\u0631\u0643\u0632-\u0648\u0627\u062f\u064a \u0627\u0644\u0644\u0648\u0627\u0631","id:left":-3792877,"old_name:right:be":"\u0426\u044d\u043d\u0442\u0440","name:left":"Auvergne-Rh\u00f4ne-Alpes","name:left:ar":"\u0623\u0648\u0641\u0631\u0646-\u0631\u0648\u0646 \u0623\u0644\u0628","old_name:right":"Centre","old_name:right:de":"Zentrum","old_name:right:uk":"\u0426\u0435\u043d\u0442\u0440","old_name:right:la":"Centrum","name:right:ro":"Centru - Valea Loarei","name:right:en":"Centre-Loire Valley","osm_relation":true,"kind":"region","name":"Auvergne-Rh\u00f4ne-Alpes - Centre-Val de Loire","old_name:right:ar":"\u0645\u0631\u0643\u0632","name:right:de":"Zentrum-Loiretal","min_zoom":8.0,"sort_rank":256,"old_name:right:ca":"Centre"},"arcs":[3]}]},"roads":{"type":"GeometryCollection","geometries":[{"type":"LineString","properties":{"kind":"minor_road","sort_rank":360,"kind_detail":"unclassified","is_bicycle_related":true,"bicycle_shield_text":"V75","bicycle_network":"ncn","source":"openstreetmap.org","min_zoom":8.0,"id":359180279},"arcs":[242]},{"type":"MultiLineString","properties":{"kind":"major_road","sort_rank":379,"kind_detail":"secondary","is_bicycle_related":true,"bicycle_shield_text":"V90","bicycle_network":"ncn","source":"openstreetmap.org","min_zoom":8.0},"arcs":[[243],[244],[245],[246],[247]]},{"type":"MultiLineString","properties":{"kind":"highway","network":"e-road","sort_rank":383,"landuse_kind":"protected_area","source":"openstreetmap.org","min_zoom":8.0,"all_networks":["e-road","FR:A-road"],"kind_detail":"motorway","shield_text":"09","ref":"A 20","all_shield_texts":["09","20"]},"arcs":[[248],[249],[250],[251]]},{"type":"MultiLineString","properties":{"bus_network":"TER Limousin","network":"e-road","sort_rank":381,"kind_detail":"trunk","kind":"major_road","source":"openstreetmap.org","min_zoom":8.0,"bus_shield_text":"TER 15","shield_text":"62","ref":"N 145"},"arcs":[[252],[253],[254],[255],[256],[257]]},{"type":"MultiLineString","properties":{"source":"openstreetmap.org","kind":"major_road","landuse_kind":"urban_area","sort_rank":380,"kind_detail":"primary","ref":"D 2371","min_zoom":8.0},"arcs":[[258],[259],[260]]},{"type":"MultiLineString","properties":{"source":"openstreetmap.org","kind":"major_road","landuse_kind":"urban_area","sort_rank":380,"kind_detail":"primary","ref":"D 940","min_zoom":8.0},"arcs":[[261],[262],[263],[264],[265],[266],[267],[268],[269],[270],[271],[272],[273]]},{"type":"LineString","properties":{"bus_network":"Agglobus","sort_rank":380,"kind_detail":"primary","kind":"major_road","source":"openstreetmap.org","min_zoom":8.0,"bus_shield_text":"P","landuse_kind":"urban_area"},"arcs":[274]},{"type":"MultiLineString","properties":{"bus_network":"TER Limousin","network":"e-road","sort_rank":381,"landuse_kind":"urban_area","kind":"major_road","source":"openstreetmap.org","min_zoom":8.0,"bus_shield_text":"TER 15","shield_text":"62","kind_detail":"trunk","ref":"N 145"},"arcs":[[275],[276]]},{"type":"LineString","properties":{"kind":"major_road","sort_rank":380,"kind_detail":"primary","bus_network":"Horizon","source":"openstreetmap.org","min_zoom":8.0,"bus_shield_text":"1","landuse_kind":"residential","ref":"D 943","id":29241408},"arcs":[277]},{"type":"MultiLineString","properties":{"bus_network":"TER Limousin","sort_rank":380,"kind_detail":"primary","kind":"major_road","source":"openstreetmap.org","min_zoom":8.0,"bus_shield_text":"TER 14","landuse_kind":"urban_area","ref":"D 745"},"arcs":[[278],[279],[280],[281]]},{"type":"LineString","properties":{"kind":"path","sort_rank":354,"kind_detail":"path","is_bicycle_related":true,"bicycle_shield_text":"V75","bicycle_network":"ncn","source":"openstreetmap.org","min_zoom":8.0,"landuse_kind":"urban_area","id":240809497},"arcs":[282]},{"type":"MultiLineString","properties":{"source":"openstreetmap.org","kind":"major_road","sort_rank":380,"kind_detail":"primary","ref":"D 927","min_zoom":8.0},"arcs":[[283],[284],[285],[286],[287],[288],[289],[290]]},{"type":"LineString","properties":{"kind":"major_road","sort_rank":379,"kind_detail":"secondary","is_bicycle_related":true,"bicycle_shield_text":"V87","bicycle_network":"ncn","source":"openstreetmap.org","min_zoom":8.0,"ref":"D 4"},"arcs":[291]},{"type":"LineString","properties":{"source":"openstreetmap.org","kind":"highway","sort_rank":383,"kind_detail":"motorway","ref":"A 714","min_zoom":8.0},"arcs":[292]},{"type":"MultiLineString","properties":{"bus_network":"Agglobus","sort_rank":380,"kind_detail":"primary","kind":"major_road","source":"openstreetmap.org","min_zoom":8.0,"bus_shield_text":"A","landuse_kind":"urban_area"},"arcs":[[293],[294],[295],[296]]},{"type":"MultiLineString","properties":{"bus_network":"TER Limousin","sort_rank":380,"kind_detail":"primary","kind":"major_road","source":"openstreetmap.org","min_zoom":8.0,"bus_shield_text":"TER 15","landuse_kind":"urban_area"},"arcs":[[297],[298],[299],[300],[301]]},{"type":"MultiLineString","properties":{"source":"openstreetmap.org","kind":"major_road","sort_rank":381,"kind_detail":"trunk","ref":"N 151","min_zoom":8.0},"arcs":[[302],[303]]},{"type":"LineString","properties":{"kind":"major_road","sort_rank":380,"kind_detail":"primary","bus_network":"Horizon","source":"openstreetmap.org","min_zoom":8.0,"bus_shield_text":"3","landuse_kind":"residential","id":142802026},"arcs":[304]},{"type":"MultiLineString","properties":{"kind":"minor_road","sort_rank":360,"landuse_kind":"urban_area","is_bicycle_related":true,"bicycle_shield_text":"V75","bicycle_network":"ncn","source":"openstreetmap.org","min_zoom":8.0,"kind_detail":"unclassified"},"arcs":[[305],[306],[307],[308],[309],[310],[311],[312],[313]]},{"type":"LineString","properties":{"source":"openstreetmap.org","kind":"major_road","sort_rank":380,"kind_detail":"primary","ref":"D 952","min_zoom":8.0},"arcs":[314]},{"type":"LineString","properties":{"kind":"major_road","sort_rank":380,"kind_detail":"primary","is_bicycle_related":true,"cycleway":"lane","source":"openstreetmap.org","min_zoom":8.0,"ref":"D 925"},"arcs":[315]},{"type":"LineString","properties":{"kind":"major_road","sort_rank":379,"kind_detail":"secondary","is_bicycle_related":true,"bus_network":"TER Limousin","bicycle_shield_text":"V87","bicycle_network":"ncn","source":"openstreetmap.org","min_zoom":8.0,"bus_shield_text":"TER 12","landuse_kind":"residential","id":13870213},"arcs":[316]},{"type":"MultiLineString","properties":{"kind":"major_road","sort_rank":379,"kind_detail":"secondary","is_bicycle_related":true,"bicycle_shield_text":"V90","bicycle_network":"ncn","source":"openstreetmap.org","min_zoom":8.0,"ref":"D 912"},"arcs":[[317],[318]]},{"type":"MultiLineString","properties":{"source":"openstreetmap.org","kind":"major_road","landuse_kind":"urban_area","sort_rank":380,"kind_detail":"primary","ref":"D 925","min_zoom":8.0},"arcs":[[319],[320],[321],[322],[323],[324],[325],[326]]},{"type":"MultiLineString","properties":{"kind":"major_road","sort_rank":380,"kind_detail":"primary","bus_network":"TER Auvergne-Rh\u00f4ne-Alpes","source":"openstreetmap.org","min_zoom":8.0,"bus_shield_text":"TER 18","ref":"D 2144"},"arcs":[[327],[328],[329],[330],[331],[332]]},{"type":"MultiLineString","properties":{"source":"openstreetmap.org","bus_network":"TER Limousin","bus_shield_text":"TER 15","sort_rank":380,"kind_detail":"primary","min_zoom":8.0,"kind":"major_road"},"arcs":[[333],[334]]},{"type":"MultiLineString","properties":{"kind":"minor_road","sort_rank":360,"kind_detail":"unclassified","is_bicycle_related":true,"bicycle_shield_text":"V87","bicycle_network":"ncn","source":"openstreetmap.org","min_zoom":8.0},"arcs":[[335],[336]]},{"type":"MultiLineString","properties":{"kind":"minor_road","sort_rank":360,"landuse_kind":"urban_area","is_bicycle_related":true,"bicycle_shield_text":"V75","bicycle_network":"ncn","source":"openstreetmap.org","min_zoom":8.0,"kind_detail":"residential"},"arcs":[[337],[338],[339]]},{"type":"LineString","properties":{"kind":"major_road","sort_rank":377,"kind_detail":"tertiary","is_bicycle_related":true,"bicycle_shield_text":"V75","cycleway":"lane","source":"openstreetmap.org","min_zoom":8.0,"landuse_kind":"urban_area","bicycle_network":"ncn","id":262684130},"arcs":[340]},{"type":"MultiLineString","properties":{"kind":"highway","network":"e-road","sort_rank":383,"kind_detail":"motorway","source":"openstreetmap.org","min_zoom":8.0,"all_networks":["e-road","e-road","FR:A-road"],"shield_text":"11","ref":"A 71","all_shield_texts":["11","62","71"]},"arcs":[[341],[342]]},{"type":"MultiLineString","properties":{"source":"openstreetmap.org","kind":"major_road","landuse_kind":"residential","sort_rank":380,"kind_detail":"primary","ref":"D 943","min_zoom":8.0},"arcs":[[343],[344]]},{"type":"MultiLineString","properties":{"kind":"path","sort_rank":354,"landuse_kind":"residential","is_bicycle_related":true,"bicycle_shield_text":"V90","bicycle_network":"ncn","source":"openstreetmap.org","min_zoom":8.0,"kind_detail":"cycleway"},"arcs":[[345],[346]]},{"type":"LineString","properties":{"kind":"major_road","sort_rank":380,"kind_detail":"primary","bus_network":"Agglobus","source":"openstreetmap.org","min_zoom":8.0,"bus_shield_text":"D - extension","landuse_kind":"urban_area","ref":"D 942","id":73244549},"arcs":[347]},{"type":"LineString","properties":{"kind":"major_road","sort_rank":380,"landuse_kind":"urban_area","is_bicycle_related":true,"bicycle_shield_text":"V87","bicycle_network":"ncn","source":"openstreetmap.org","min_zoom":8.0,"kind_detail":"primary","ref":"D 2144"},"arcs":[348]},{"type":"MultiLineString","properties":{"bus_network":"TER Limousin","sort_rank":380,"kind_detail":"primary","kind":"major_road","source":"openstreetmap.org","min_zoom":8.0,"bus_shield_text":"TER 14","ref":"D 997"},"arcs":[[349],[350]]},{"type":"MultiLineString","properties":{"sort_rank":380,"kind_detail":"primary","min_zoom":8.0,"kind":"major_road","source":"openstreetmap.org"},"arcs":[[351],[352],[353],[354],[355],[356],[357],[358],[359],[360],[361],[362],[363],[364],[365],[366],[367],[368],[369],[370],[371],[372],[373],[374],[375],[376],[377],[378],[379],[380],[381],[382],[383],[384],[385],[386],[387],[388],[389],[390],[391],[392],[393],[394],[395],[396],[397],[398],[399],[400],[401],[402]]},{"type":"LineString","properties":{"kind":"major_road","sort_rank":380,"kind_detail":"primary","bus_network":"TER Limousin","source":"openstreetmap.org","min_zoom":8.0,"bus_shield_text":"TER 14","landuse_kind":"urban_area","ref":"D 943","id":240351188},"arcs":[403]},{"type":"MultiLineString","properties":{"source":"openstreetmap.org","kind":"major_road","sort_rank":380,"kind_detail":"primary","ref":"D 990","min_zoom":8.0},"arcs":[[404],[405],[406],[407],[408],[409],[410],[411],[412],[413],[414],[415],[416],[417],[418]]},{"type":"MultiLineString","properties":{"bus_network":"Agglobus","sort_rank":380,"kind_detail":"primary","kind":"major_road","source":"openstreetmap.org","min_zoom":8.0,"bus_shield_text":"B","landuse_kind":"urban_area"},"arcs":[[419],[420]]},{"type":"MultiLineString","properties":{"source":"openstreetmap.org","kind":"major_road","sort_rank":380,"kind_detail":"primary","ref":"D 918","min_zoom":8.0},"arcs":[[421],[422],[423],[424],[425],[426]]},{"type":"LineString","properties":{"kind":"major_road","sort_rank":380,"landuse_kind":"urban_area","is_bicycle_related":true,"source":"openstreetmap.org","min_zoom":8.0,"kind_detail":"primary","id":13864589},"arcs":[427]},{"type":"MultiLineString","properties":{"source":"openstreetmap.org","kind":"major_road","bus_shield_text":"TER 2.4","sort_rank":380,"kind_detail":"primary","min_zoom":8.0,"bus_network":"Car TER Centre \u2212 Val de Loire"},"arcs":[[428],[429],[430]]},{"type":"MultiLineString","properties":{"source":"openstreetmap.org","kind":"major_road","sort_rank":381,"kind_detail":"trunk","ref":"N 142","min_zoom":8.0},"arcs":[[431],[432],[433],[434],[435],[436],[437],[438],[439],[440],[441],[442],[443]]},{"type":"MultiLineString","properties":{"source":"openstreetmap.org","kind":"major_road","sort_rank":380,"kind_detail":"primary","ref":"D 997","min_zoom":8.0},"arcs":[[444],[445]]},{"type":"MultiLineString","properties":{"kind":"path","sort_rank":354,"landuse_kind":"urban_area","is_bicycle_related":true,"bicycle_shield_text":"V87","bicycle_network":"ncn","source":"openstreetmap.org","min_zoom":8.0,"kind_detail":"footway"},"arcs":[[446],[447]]},{"type":"MultiLineString","properties":{"kind":"minor_road","sort_rank":360,"landuse_kind":"residential","is_bicycle_related":true,"bicycle_shield_text":"V87","bicycle_network":"ncn","source":"openstreetmap.org","min_zoom":8.0,"kind_detail":"unclassified"},"arcs":[[448],[449],[450],[451],[452]]},{"type":"LineString","properties":{"cycleway_right":"lane","sort_rank":380,"kind_detail":"primary","is_bicycle_related":true,"kind":"major_road","cycleway":"lane","source":"openstreetmap.org","min_zoom":8.0,"landuse_kind":"urban_area","id":8559704},"arcs":[453]},{"type":"MultiLineString","properties":{"kind":"path","sort_rank":354,"landuse_kind":"protected_area","is_bicycle_related":true,"bicycle_shield_text":"V94","bicycle_network":"ncn","source":"openstreetmap.org","min_zoom":8.0,"kind_detail":"path"},"arcs":[[454],[455]]},{"type":"LineString","properties":{"kind":"major_road","sort_rank":377,"kind_detail":"tertiary","is_bicycle_related":true,"bicycle_shield_text":"V75","bicycle_network":"ncn","source":"openstreetmap.org","min_zoom":8.0,"ref":"D 252"},"arcs":[456]},{"type":"LineString","properties":{"kind":"major_road","sort_rank":377,"kind_detail":"tertiary","is_bicycle_related":true,"bicycle_shield_text":"V75","bicycle_network":"ncn","source":"openstreetmap.org","min_zoom":8.0,"ref":"D 307"},"arcs":[457]},{"type":"LineString","properties":{"kind":"minor_road","sort_rank":360,"kind_detail":"residential","is_bicycle_related":true,"bicycle_shield_text":"V87","bicycle_network":"ncn","source":"openstreetmap.org","min_zoom":8.0,"landuse_kind":"residential","id":13870214},"arcs":[458]},{"type":"LineString","properties":{"source":"openstreetmap.org","kind":"major_road","landuse_kind":"protected_area","sort_rank":380,"kind_detail":"primary","min_zoom":8.0},"arcs":[459]},{"type":"LineString","properties":{"kind":"major_road","sort_rank":379,"kind_detail":"secondary","is_bicycle_related":true,"bicycle_shield_text":"V87","bicycle_network":"ncn","source":"openstreetmap.org","min_zoom":8.0,"ref":"D 1089","id":352845111},"arcs":[460]},{"type":"MultiLineString","properties":{"source":"openstreetmap.org","kind":"major_road","landuse_kind":"urban_area","sort_rank":380,"kind_detail":"primary","ref":"N 151","min_zoom":8.0},"arcs":[[461],[462],[463],[464],[465],[466],[467],[468],[469],[470],[471],[472],[473],[474],[475],[476],[477],[478],[479],[480],[481],[482],[483],[484],[485],[486],[487],[488]]},{"type":"LineString","properties":{"kind":"major_road","sort_rank":377,"kind_detail":"tertiary","is_bicycle_related":true,"bicycle_shield_text":"V87","bicycle_network":"ncn","source":"openstreetmap.org","min_zoom":8.0,"ref":"D 55","id":321279000},"arcs":[489]},{"type":"MultiLineString","properties":{"source":"openstreetmap.org","kind":"major_road","sort_rank":380,"kind_detail":"primary","ref":"D 976","min_zoom":8.0},"arcs":[[490],[491]]},{"type":"MultiLineString","properties":{"kind":"major_road","network":"e-road","sort_rank":381,"kind_detail":"trunk","source":"openstreetmap.org","min_zoom":8.0,"shield_text":"62","ref":"N 145"},"arcs":[[492],[493],[494],[495],[496],[497],[498],[499],[500],[501],[502],[503]]},{"type":"MultiLineString","properties":{"bus_network":"Horizon","sort_rank":380,"kind_detail":"primary","kind":"major_road","source":"openstreetmap.org","min_zoom":8.0,"bus_shield_text":"1","landuse_kind":"urban_area"},"arcs":[[504],[505],[506]]},{"type":"LineString","properties":{"kind":"major_road","sort_rank":379,"kind_detail":"secondary","is_bicycle_related":true,"bicycle_shield_text":"V75","bicycle_network":"ncn","source":"openstreetmap.org","min_zoom":8.0,"ref":"D 39"},"arcs":[507]},{"type":"MultiLineString","properties":{"source":"openstreetmap.org","kind":"major_road","landuse_kind":"urban_area","sort_rank":380,"kind_detail":"primary","ref":"D 942","min_zoom":8.0},"arcs":[[508],[509],[510]]},{"type":"LineString","properties":{"kind":"major_road","sort_rank":380,"kind_detail":"primary","is_bicycle_related":true,"bus_network":"TER Limousin","bicycle_shield_text":"V87","bicycle_network":"ncn","source":"openstreetmap.org","min_zoom":8.0,"bus_shield_text":"TER 14","landuse_kind":"urban_area","id":80340863},"arcs":[511]},{"type":"MultiLineString","properties":{"kind":"path","sort_rank":354,"kind_detail":"path","is_bicycle_related":true,"bicycle_shield_text":"V94","bicycle_network":"ncn","source":"openstreetmap.org","min_zoom":8.0,"old_name":"Ligne de Port-de-Piles \u00e0 Argenton-sur-Creuse"},"arcs":[[512],[513]]},{"type":"MultiLineString","properties":{"source":"openstreetmap.org","kind":"major_road","landuse_kind":"urban_area","sort_rank":380,"kind_detail":"primary","ref":"N 2145","min_zoom":8.0},"arcs":[[514],[515]]},{"type":"MultiLineString","properties":{"kind":"highway","network":"e-road","sort_rank":383,"kind_detail":"motorway","source":"openstreetmap.org","min_zoom":8.0,"all_networks":["e-road","FR:A-road"],"shield_text":"62","ref":"A 714","all_shield_texts":["62","714"]},"arcs":[[516],[517],[518],[519],[520],[521]]},{"type":"LineString","properties":{"kind":"major_road","network":null,"sort_rank":380,"kind_detail":"primary","source":"openstreetmap.org","min_zoom":8.0,"shield_text":"13","ref":"D 13","id":78507273},"arcs":[522]},{"type":"MultiLineString","properties":{"bus_network":"Agglobus","sort_rank":380,"kind_detail":"primary","kind":"major_road","source":"openstreetmap.org","min_zoom":8.0,"bus_shield_text":"A","landuse_kind":"urban_area","ref":"D 940"},"arcs":[[523],[524],[525],[526]]},{"type":"MultiLineString","properties":{"source":"openstreetmap.org","kind":"major_road","sort_rank":380,"kind_detail":"primary","ref":"D 67","min_zoom":8.0},"arcs":[[527],[528],[529],[530]]},{"type":"MultiLineString","properties":{"source":"openstreetmap.org","bus_network":"AggloBus","bus_shield_text":"d4","sort_rank":380,"kind_detail":"primary","min_zoom":8.0,"kind":"major_road"},"arcs":[[531],[532]]},{"type":"MultiLineString","properties":{"kind":"minor_road","sort_rank":360,"kind_detail":"unclassified","is_bicycle_related":true,"bicycle_shield_text":"V94","bicycle_network":"ncn","source":"openstreetmap.org","min_zoom":8.0},"arcs":[[533],[534]]},{"type":"MultiLineString","properties":{"source":"openstreetmap.org","kind":"major_road","sort_rank":380,"kind_detail":"primary","ref":"D 39","min_zoom":8.0},"arcs":[[535],[536],[537],[538],[539],[540],[541],[542]]},{"type":"MultiLineString","properties":{"source":"openstreetmap.org","kind":"major_road","landuse_kind":"urban_area","sort_rank":380,"kind_detail":"primary","ref":"D 943","min_zoom":8.0},"arcs":[[543],[544],[545],[546],[547],[548],[549],[550],[551],[552],[553],[554],[555],[556]]},{"type":"LineString","properties":{"kind":"highway","network":"FR:A-road","sort_rank":383,"kind_detail":"motorway","source":"openstreetmap.org","min_zoom":8.0,"all_networks":["FR:A-road"],"shield_text":"714","ref":"A 714","id":209231499,"all_shield_texts":["714"]},"arcs":[557]},{"type":"MultiLineString","properties":{"source":"openstreetmap.org","kind":"major_road","sort_rank":380,"kind_detail":"primary","ref":"D 300","min_zoom":8.0},"arcs":[[558],[559],[560]]},{"type":"LineString","properties":{"bus_network":"TER Limousin","sort_rank":380,"kind_detail":"primary","kind":"major_road","source":"openstreetmap.org","min_zoom":8.0,"bus_shield_text":"TER 14","ref":"D 990"},"arcs":[561]},{"type":"LineString","properties":{"kind":"major_road","sort_rank":377,"landuse_kind":"urban_area","is_bicycle_related":true,"bicycle_shield_text":"V87","bicycle_network":"ncn","source":"openstreetmap.org","min_zoom":8.0,"kind_detail":"tertiary"},"arcs":[562]},{"type":"MultiLineString","properties":{"kind":"minor_road","sort_rank":360,"landuse_kind":"residential","is_bicycle_related":true,"bicycle_shield_text":"V90","bicycle_network":"ncn","source":"openstreetmap.org","min_zoom":8.0,"kind_detail":"residential"},"arcs":[[563],[564]]},{"type":"LineString","properties":{"kind":"major_road","sort_rank":380,"kind_detail":"primary","is_bicycle_related":true,"bicycle_shield_text":"V46","bicycle_network":"rcn","source":"openstreetmap.org","min_zoom":8.0,"landuse_kind":"residential"},"arcs":[565]},{"type":"LineString","properties":{"kind":"major_road","sort_rank":377,"kind_detail":"tertiary","is_bicycle_related":true,"bicycle_shield_text":"V87","bicycle_network":"ncn","source":"openstreetmap.org","min_zoom":8.0,"ref":"D 54"},"arcs":[566]},{"type":"LineString","properties":{"kind":"major_road","sort_rank":379,"kind_detail":"secondary","is_bicycle_related":true,"bus_network":"TER Limousin","bicycle_shield_text":"V87","bicycle_network":"ncn","source":"openstreetmap.org","min_zoom":8.0,"bus_shield_text":"TER 12","ref":"D 993","id":338040846},"arcs":[567]},{"type":"MultiLineString","properties":{"source":"openstreetmap.org","kind":"major_road","landuse_kind":"urban_area","sort_rank":380,"kind_detail":"primary","ref":"D 67","min_zoom":8.0},"arcs":[[568],[569],[570]]},{"type":"LineString","properties":{"kind":"major_road","sort_rank":377,"kind_detail":"tertiary","is_bicycle_related":true,"bicycle_shield_text":"V90","bicycle_network":"ncn","source":"openstreetmap.org","min_zoom":8.0,"ref":"D 30"},"arcs":[571]},{"type":"LineString","properties":{"source":"openstreetmap.org","kind":"major_road","sort_rank":380,"kind_detail":"primary","ref":"D 16","min_zoom":8.0,"id":37674786},"arcs":[572]},{"type":"LineString","properties":{"source":"openstreetmap.org","kind":"major_road","sort_rank":380,"kind_detail":"primary","ref":"D 533","min_zoom":8.0,"id":49415014},"arcs":[573]},{"type":"MultiLineString","properties":{"source":"openstreetmap.org","kind":"major_road","landuse_kind":"protected_area","sort_rank":380,"kind_detail":"primary","ref":"D 951","min_zoom":8.0},"arcs":[[574],[575],[576],[577],[578]]},{"type":"MultiLineString","properties":{"source":"openstreetmap.org","kind":"major_road","landuse_kind":"protected_area","sort_rank":380,"kind_detail":"primary","ref":"D 927b","min_zoom":8.0},"arcs":[[579],[580],[581],[582],[583]]},{"type":"MultiLineString","properties":{"source":"openstreetmap.org","kind":"major_road","landuse_kind":"protected_area","sort_rank":380,"kind_detail":"primary","ref":"D 927","min_zoom":8.0},"arcs":[[584],[585],[586]]},{"type":"LineString","properties":{"source":"openstreetmap.org","kind":"major_road","sort_rank":380,"kind_detail":"primary","ref":"D 61e","min_zoom":8.0,"id":57841014},"arcs":[587]},{"type":"LineString","properties":{"kind":"major_road","sort_rank":377,"kind_detail":"tertiary","is_bicycle_related":true,"bicycle_shield_text":"V87","bicycle_network":"ncn","source":"openstreetmap.org","min_zoom":8.0,"ref":"D 109","id":80391132},"arcs":[588]},{"type":"MultiLineString","properties":{"kind":"highway","network":"e-road","sort_rank":383,"kind_detail":"motorway","source":"openstreetmap.org","min_zoom":8.0,"all_networks":["e-road","FR:A-road"],"shield_text":"11","ref":"A 71","all_shield_texts":["11","71"]},"arcs":[[589],[590],[591],[592],[593],[594],[595],[596],[597],[598],[599],[600],[601],[602],[603],[604],[605],[606],[607],[608],[609],[610]]},{"type":"LineString","properties":{"source":"openstreetmap.org","kind":"major_road","sort_rank":380,"kind_detail":"primary","ref":"D 951b","min_zoom":8.0},"arcs":[611]},{"type":"MultiLineString","properties":{"sort_rank":381,"source":"openstreetmap.org","min_zoom":8.0,"kind":"major_road","kind_detail":"trunk"},"arcs":[[612],[613]]},{"type":"LineString","properties":{"bus_network":"TER Limousin","sort_rank":380,"kind_detail":"primary","kind":"major_road","source":"openstreetmap.org","min_zoom":8.0,"bus_shield_text":"TER 14","landuse_kind":"residential","ref":"N 2145"},"arcs":[614]},{"type":"LineString","properties":{"kind":"major_road","sort_rank":377,"kind_detail":"tertiary","is_bicycle_related":true,"bicycle_shield_text":"V87","bicycle_network":"ncn","source":"openstreetmap.org","min_zoom":8.0,"ref":"D 155"},"arcs":[615]},{"type":"LineString","properties":{"kind":"major_road","sort_rank":377,"kind_detail":"tertiary","is_bicycle_related":true,"bicycle_shield_text":"V94","cycleway":"lane","source":"openstreetmap.org","min_zoom":8.0,"bicycle_network":"ncn","ref":"D 48b"},"arcs":[616]},{"type":"LineString","properties":{"bus_network":"TER Limousin","sort_rank":379,"kind_detail":"secondary","is_bicycle_related":true,"kind":"major_road","bicycle_shield_text":"V87","bicycle_network":"ncn","source":"openstreetmap.org","min_zoom":8.0,"bus_shield_text":"TER 12","ref":"D 996"},"arcs":[617]},{"type":"MultiLineString","properties":{"kind":"path","sort_rank":354,"kind_detail":"path","is_bicycle_related":true,"bicycle_shield_text":"V94","bicycle_network":"ncn","source":"openstreetmap.org","min_zoom":8.0},"arcs":[[618],[619],[620],[621]]},{"type":"LineString","properties":{"kind":"major_road","sort_rank":381,"kind_detail":"trunk","bus_network":"AggloBus","source":"openstreetmap.org","min_zoom":8.0,"bus_shield_text":"13","id":56203089},"arcs":[622]},{"type":"MultiLineString","properties":{"bus_network":"TER Centre \u2212 Val de Loire","network":null,"sort_rank":380,"kind_detail":"primary","kind":"major_road","source":"openstreetmap.org","min_zoom":8.0,"bus_shield_text":"TER 3.3","shield_text":"951","ref":"D 951"},"arcs":[[623],[624]]},{"type":"LineString","properties":{"kind":"major_road","sort_rank":380,"kind_detail":"primary","bus_network":"Horizon","source":"openstreetmap.org","min_zoom":8.0,"bus_shield_text":"3","id":142802026},"arcs":[625]},{"type":"LineString","properties":{"bus_network":"Horizon","sort_rank":380,"kind_detail":"primary","kind":"major_road","source":"openstreetmap.org","min_zoom":8.0,"bus_shield_text":"3","ref":"D 956"},"arcs":[626]},{"type":"LineString","properties":{"kind":"major_road","sort_rank":379,"kind_detail":"secondary","is_bicycle_related":true,"bicycle_shield_text":"V90","bicycle_network":"ncn","source":"openstreetmap.org","min_zoom":8.0,"ref":"D 1"},"arcs":[627]},{"type":"LineString","properties":{"kind":"path","sort_rank":354,"kind_detail":"steps","is_bicycle_related":true,"bicycle_shield_text":"V94","bicycle_network":"ncn","source":"openstreetmap.org","min_zoom":8.0,"id":232835432},"arcs":[628]},{"type":"MultiLineString","properties":{"kind":"major_road","network":null,"sort_rank":380,"kind_detail":"primary","source":"openstreetmap.org","min_zoom":8.0,"shield_text":"2144","ref":"D 2144"},"arcs":[[629],[630]]},{"type":"MultiLineString","properties":{"kind":"highway","network":"e-road","sort_rank":383,"landuse_kind":"urban_area","source":"openstreetmap.org","min_zoom":8.0,"all_networks":["e-road","FR:A-road"],"kind_detail":"motorway","shield_text":"09","ref":"A 20","all_shield_texts":["09","20"]},"arcs":[[631],[632]]},{"type":"LineString","properties":{"kind":"major_road","sort_rank":377,"kind_detail":"tertiary","is_bicycle_related":true,"bicycle_shield_text":"V90","bicycle_network":"ncn","source":"openstreetmap.org","min_zoom":8.0,"ref":"D 74"},"arcs":[633]},{"type":"MultiLineString","properties":{"bus_network":"Horizon","sort_rank":380,"kind_detail":"primary","kind":"major_road","source":"openstreetmap.org","min_zoom":8.0,"bus_shield_text":"1","landuse_kind":"urban_area","ref":"D 943"},"arcs":[[634],[635],[636],[637],[638],[639],[640],[641],[642]]},{"type":"MultiLineString","properties":{"bus_network":"TER Centre \u2212 Val de Loire","network":null,"sort_rank":380,"kind_detail":"primary","kind":"major_road","source":"openstreetmap.org","min_zoom":8.0,"bus_shield_text":"TER 3.3","shield_text":"951","landuse_kind":"protected_area","ref":"D 951"},"arcs":[[643],[644],[645],[646],[647]]},{"type":"MultiLineString","properties":{"kind":"major_road","sort_rank":377,"kind_detail":"tertiary","is_bicycle_related":true,"bicycle_shield_text":"V87","bicycle_network":"ncn","source":"openstreetmap.org","min_zoom":8.0},"arcs":[[648],[649]]},{"type":"MultiLineString","properties":{"source":"openstreetmap.org","kind":"major_road","sort_rank":380,"kind_detail":"primary","ref":"D 2076","min_zoom":8.0},"arcs":[[650],[651],[652],[653],[654]]},{"type":"LineString","properties":{"source":"openstreetmap.org","kind":"major_road","sort_rank":380,"kind_detail":"primary","ref":"D 953","min_zoom":8.0},"arcs":[655]},{"type":"MultiLineString","properties":{"source":"openstreetmap.org","kind":"major_road","landuse_kind":"urban_area","sort_rank":380,"kind_detail":"primary","ref":"D 956","min_zoom":8.0},"arcs":[[656],[657],[658],[659],[660],[661]]},{"type":"LineString","properties":{"kind":"major_road","sort_rank":377,"kind_detail":"tertiary","is_bicycle_related":true,"bicycle_shield_text":"V87","bicycle_network":"ncn","source":"openstreetmap.org","min_zoom":8.0,"ref":"D 55A5","id":353675122},"arcs":[662]},{"type":"MultiLineString","properties":{"source":"openstreetmap.org","kind":"major_road","kind_detail":"trunk","sort_rank":381,"landuse_kind":"urban_area","ref":"D 920","min_zoom":8.0},"arcs":[[663],[664]]},{"type":"MultiLineString","properties":{"bus_network":"TER Limousin","sort_rank":380,"kind_detail":"primary","kind":"major_road","source":"openstreetmap.org","min_zoom":8.0,"bus_shield_text":"TER 14","landuse_kind":"residential","ref":"D 745"},"arcs":[[665],[666],[667]]},{"type":"MultiLineString","properties":{"kind":"major_road","sort_rank":379,"kind_detail":"secondary","is_bicycle_related":true,"bicycle_shield_text":"V87","bicycle_network":"ncn","source":"openstreetmap.org","min_zoom":8.0},"arcs":[[668],[669],[670]]},{"type":"LineString","properties":{"cycleway_right":"lane","sort_rank":380,"kind_detail":"primary","is_bicycle_related":true,"bus_network":"TER Limousin","bicycle_shield_text":"V87","bicycle_network":"ncn","source":"openstreetmap.org","min_zoom":8.0,"bus_shield_text":"TER 14","landuse_kind":"urban_area","id":78760629,"kind":"major_road"},"arcs":[671]},{"type":"MultiLineString","properties":{"bus_network":"Agglobus","sort_rank":380,"kind_detail":"primary","kind":"major_road","source":"openstreetmap.org","min_zoom":8.0,"bus_shield_text":"D","landuse_kind":"urban_area","ref":"D 940"},"arcs":[[672],[673]]},{"type":"MultiLineString","properties":{"kind":"major_road","sort_rank":379,"kind_detail":"secondary","is_bicycle_related":true,"bicycle_shield_text":"V87","bicycle_network":"ncn","source":"openstreetmap.org","min_zoom":8.0,"ref":"D 993"},"arcs":[[674],[675]]},{"type":"LineString","properties":{"kind":"major_road","sort_rank":380,"landuse_kind":"urban_area","source":"openstreetmap.org","min_zoom":8.0,"kind_detail":"primary","ref":"d 2144","id":22274167},"arcs":[676]},{"type":"MultiLineString","properties":{"kind":"path","sort_rank":354,"landuse_kind":"protected_area","is_bicycle_related":true,"bicycle_shield_text":"V94","bicycle_network":"ncn","source":"openstreetmap.org","min_zoom":8.0,"old_name":"Ligne de Port-de-Piles \u00e0 Argenton-sur-Creuse","kind_detail":"path"},"arcs":[[677],[678]]},{"type":"LineString","properties":{"kind":"major_road","sort_rank":379,"kind_detail":"secondary","is_bicycle_related":true,"bicycle_shield_text":"V75","bicycle_network":"ncn","source":"openstreetmap.org","min_zoom":8.0,"ref":"D 302"},"arcs":[679]},{"type":"MultiLineString","properties":{"bus_network":"TER Limousin","sort_rank":380,"kind_detail":"primary","kind":"major_road","source":"openstreetmap.org","min_zoom":8.0,"bus_shield_text":"TER 14","landuse_kind":"urban_area","ref":"N 2145"},"arcs":[[680],[681],[682],[683]]},{"type":"MultiLineString","properties":{"source":"openstreetmap.org","kind":"major_road","landuse_kind":"residential","sort_rank":380,"kind_detail":"primary","ref":"D 920","min_zoom":8.0},"arcs":[[684],[685],[686],[687],[688],[689],[690]]},{"type":"LineString","properties":{"kind":"major_road","sort_rank":377,"kind_detail":"tertiary","is_bicycle_related":true,"bicycle_shield_text":"V87","bicycle_network":"ncn","source":"openstreetmap.org","min_zoom":8.0,"ref":"D 350","id":100776724},"arcs":[691]},{"type":"MultiLineString","properties":{"kind":"highway","network":"e-road","sort_rank":383,"kind_detail":"motorway","source":"openstreetmap.org","min_zoom":8.0,"all_networks":["e-road"],"shield_text":"09","ref":"A 20","all_shield_texts":["09"]},"arcs":[[692],[693]]},{"type":"LineString","properties":{"kind":"major_road","sort_rank":379,"kind_detail":"secondary","is_bicycle_related":true,"bicycle_shield_text":"V87","bicycle_network":"ncn","source":"openstreetmap.org","min_zoom":8.0,"ref":"D 40"},"arcs":[694]},{"type":"MultiLineString","properties":{"kind":"path","sort_rank":354,"landuse_kind":"urban_area","is_bicycle_related":true,"bicycle_shield_text":"V75","bicycle_network":"ncn","source":"openstreetmap.org","min_zoom":8.0,"kind_detail":"cycleway"},"arcs":[[695],[696],[697]]},{"type":"LineString","properties":{"kind":"major_road","sort_rank":380,"kind_detail":"primary","is_bicycle_related":true,"bicycle_shield_text":"V90","bicycle_network":"ncn","source":"openstreetmap.org","min_zoom":8.0,"landuse_kind":"residential","id":360687770},"arcs":[698]},{"type":"LineString","properties":{"bus_network":"Agglobus","sort_rank":380,"kind_detail":"primary","kind":"major_road","source":"openstreetmap.org","min_zoom":8.0,"bus_shield_text":"A","landuse_kind":"urban_area","ref":"D940"},"arcs":[699]},{"type":"LineString","properties":{"kind":"major_road","sort_rank":377,"kind_detail":"tertiary","is_bicycle_related":true,"bicycle_shield_text":"V87","bicycle_network":"ncn","source":"openstreetmap.org","min_zoom":8.0,"ref":"D 152"},"arcs":[700]},{"type":"LineString","properties":{"kind":"major_road","sort_rank":380,"kind_detail":"primary","is_bicycle_related":true,"bicycle_shield_text":"V75","bicycle_network":"ncn","source":"openstreetmap.org","min_zoom":8.0,"landuse_kind":"urban_area","id":23955278},"arcs":[701]},{"type":"LineString","properties":{"kind":"path","sort_rank":354,"kind_detail":"cycleway","is_bicycle_related":true,"bicycle_shield_text":"V87","bicycle_network":"ncn","source":"openstreetmap.org","min_zoom":8.0,"landuse_kind":"urban_area","id":80340862},"arcs":[702]},{"type":"LineString","properties":{"bus_network":"TER Centre \u2212 Val de Loire","sort_rank":380,"kind_detail":"primary","kind":"major_road","source":"openstreetmap.org","min_zoom":8.0,"bus_shield_text":"TER 3.3","landuse_kind":"protected_area"},"arcs":[703]},{"type":"MultiLineString","properties":{"source":"openstreetmap.org","kind":"major_road","sort_rank":380,"kind_detail":"primary","ref":"D 2144","min_zoom":8.0},"arcs":[[704],[705],[706],[707],[708],[709],[710],[711],[712],[713],[714],[715],[716],[717],[718],[719],[720],[721],[722],[723],[724],[725]]},{"type":"LineString","properties":{"kind":"major_road","sort_rank":377,"kind_detail":"tertiary","is_bicycle_related":true,"bicycle_shield_text":"V90","bicycle_network":"ncn","source":"openstreetmap.org","min_zoom":8.0,"ref":"D 69","id":320178627},"arcs":[726]},{"type":"LineString","properties":{"kind":"major_road","sort_rank":380,"kind_detail":"primary","bus_network":"Horizon","source":"openstreetmap.org","min_zoom":8.0,"bus_shield_text":"3","landuse_kind":"urban_area","id":188873466},"arcs":[727]},{"type":"MultiLineString","properties":{"source":"openstreetmap.org","kind":"major_road","sort_rank":380,"kind_detail":"primary","ref":"D 940","min_zoom":8.0},"arcs":[[728],[729],[730],[731],[732],[733],[734],[735],[736],[737],[738],[739],[740]]},{"type":"LineString","properties":{"kind":"major_road","sort_rank":377,"kind_detail":"tertiary","is_bicycle_related":true,"bicycle_shield_text":"V75","bicycle_network":"ncn","source":"openstreetmap.org","min_zoom":8.0,"landuse_kind":"urban_area","ref":"D 302","id":79262217},"arcs":[741]},{"type":"MultiLineString","properties":{"kind":"major_road","sort_rank":380,"kind_detail":"primary","bus_network":"TER Auvergne-Rh\u00f4ne-Alpes","source":"openstreetmap.org","min_zoom":8.0,"bus_shield_text":"TER 18","landuse_kind":"urban_area","ref":"D 2144"},"arcs":[[742],[743],[744],[745]]},{"type":"LineString","properties":{"kind":"major_road","sort_rank":379,"kind_detail":"secondary","is_bicycle_related":true,"bus_network":"TER Limousin","bicycle_shield_text":"V87","bicycle_network":"ncn","source":"openstreetmap.org","min_zoom":8.0,"bus_shield_text":"TER 12","landuse_kind":"residential","ref":"D 72","id":13870220},"arcs":[746]},{"type":"LineString","properties":{"bus_network":null,"sort_rank":380,"kind_detail":"primary","kind":"major_road","source":"openstreetmap.org","min_zoom":8.0,"bus_shield_text":"F","landuse_kind":"urban_area","ref":"D 940"},"arcs":[747]},{"type":"MultiLineString","properties":{"kind":"highway","network":"e-road","sort_rank":383,"landuse_kind":"urban_area","source":"openstreetmap.org","min_zoom":8.0,"all_networks":["e-road"],"kind_detail":"motorway","shield_text":"09","ref":"A 20","all_shield_texts":["09"]},"arcs":[[748],[749]]},{"type":"LineString","properties":{"source":"openstreetmap.org","kind":"major_road","sort_rank":380,"kind_detail":"primary","ref":"D 3","min_zoom":8.0,"id":235642330},"arcs":[750]},{"type":"LineString","properties":{"kind":"major_road","sort_rank":380,"kind_detail":"primary","bus_network":"TER Limousin","source":"openstreetmap.org","min_zoom":8.0,"bus_shield_text":"TER 15","landuse_kind":"urban_area","ref":"D 942","id":73244425},"arcs":[751]},{"type":"LineString","properties":{"source":"openstreetmap.org","kind":"major_road","sort_rank":380,"kind_detail":"primary","ref":"D 925e","min_zoom":8.0,"id":57844952},"arcs":[752]},{"type":"LineString","properties":{"kind":"major_road","sort_rank":379,"kind_detail":"secondary","is_bicycle_related":true,"bicycle_shield_text":"V90","bicycle_network":"ncn","source":"openstreetmap.org","min_zoom":8.0,"ref":"D 15","id":353920796},"arcs":[753]},{"type":"MultiLineString","properties":{"kind":"path","sort_rank":354,"kind_detail":"cycleway","is_bicycle_related":true,"bicycle_shield_text":"V90","bicycle_network":"ncn","source":"openstreetmap.org","min_zoom":8.0},"arcs":[[754],[755]]},{"type":"MultiLineString","properties":{"source":"openstreetmap.org","kind":"major_road","landuse_kind":"urban_area","sort_rank":380,"kind_detail":"primary","ref":"D 920","min_zoom":8.0},"arcs":[[756],[757],[758],[759],[760],[761],[762],[763],[764],[765],[766]]},{"type":"LineString","properties":{"kind":"major_road","sort_rank":380,"kind_detail":"primary","bus_network":"Car TER Centre \u2212 Val de Loire","source":"openstreetmap.org","min_zoom":8.0,"bus_shield_text":"TER 2.4","landuse_kind":"residential","ref":"D 943"},"arcs":[767]},{"type":"MultiLineString","properties":{"bus_network":"TER Centre \u2212 Val de Loire","sort_rank":380,"kind_detail":"primary","kind":"major_road","source":"openstreetmap.org","min_zoom":8.0,"bus_shield_text":"TER 3.2","landuse_kind":"urban_area"},"arcs":[[768],[769],[770],[771],[772],[773],[774]]},{"type":"MultiLineString","properties":{"source":"openstreetmap.org","kind":"major_road","sort_rank":380,"kind_detail":"primary","ref":"D 951","min_zoom":8.0},"arcs":[[775],[776],[777],[778],[779],[780],[781]]},{"type":"LineString","properties":{"kind":"major_road","sort_rank":379,"kind_detail":"secondary","is_bicycle_related":true,"bicycle_shield_text":"V90","bicycle_network":"ncn","source":"openstreetmap.org","min_zoom":8.0,"ref":"D 912A1"},"arcs":[782]},{"type":"LineString","properties":{"kind":"major_road","sort_rank":379,"kind_detail":"secondary","is_bicycle_related":true,"bicycle_shield_text":"V87","bicycle_network":"ncn","source":"openstreetmap.org","min_zoom":8.0,"ref":"D 915"},"arcs":[783]},{"type":"MultiLineString","properties":{"source":"openstreetmap.org","kind":"major_road","kind_detail":"trunk","sort_rank":381,"landuse_kind":"urban_area","min_zoom":8.0},"arcs":[[784],[785]]},{"type":"MultiLineString","properties":{"bus_network":"AggloBus","sort_rank":380,"kind_detail":"primary","kind":"major_road","source":"openstreetmap.org","min_zoom":8.0,"bus_shield_text":"d4","ref":"N 151"},"arcs":[[786],[787],[788]]},{"type":"MultiLineString","properties":{"source":"openstreetmap.org","kind":"major_road","sort_rank":380,"kind_detail":"primary","ref":"D 978a","min_zoom":8.0},"arcs":[[789],[790]]},{"type":"LineString","properties":{"kind":"major_road","network":null,"sort_rank":380,"kind_detail":"primary","bus_network":"AggloBus","source":"openstreetmap.org","min_zoom":8.0,"bus_shield_text":"VitaBus V13","shield_text":"2144","ref":"D 2144","id":518437194},"arcs":[791]},{"type":"MultiLineString","properties":{"kind":"major_road","network":"e-road","sort_rank":381,"landuse_kind":"urban_area","source":"openstreetmap.org","min_zoom":8.0,"kind_detail":"trunk","shield_text":"62","ref":"N 145"},"arcs":[[792],[793],[794],[795]]},{"type":"MultiLineString","properties":{"kind":"highway","network":"e-road","sort_rank":383,"kind_detail":"motorway","source":"openstreetmap.org","min_zoom":8.0,"all_networks":["e-road","FR:A-road"],"shield_text":"09","ref":"A 20","all_shield_texts":["09","20"]},"arcs":[[796],[797],[798],[799],[800],[801],[802],[803],[804],[805],[806],[807],[808],[809],[810],[811],[812],[813],[814],[815],[816]]},{"type":"MultiLineString","properties":{"source":"openstreetmap.org","kind":"major_road","landuse_kind":"residential","sort_rank":380,"kind_detail":"primary","min_zoom":8.0},"arcs":[[817],[818],[819],[820],[821],[822]]},{"type":"LineString","properties":{"source":"openstreetmap.org","kind":"major_road","landuse_kind":"military","sort_rank":380,"kind_detail":"primary","ref":"D 976","min_zoom":8.0},"arcs":[823]},{"type":"MultiLineString","properties":{"source":"openstreetmap.org","kind":"major_road","sort_rank":380,"kind_detail":"primary","ref":"D 2371","min_zoom":8.0},"arcs":[[824],[825],[826],[827],[828],[829],[830],[831],[832]]},{"type":"MultiLineString","properties":{"kind":"major_road","sort_rank":381,"kind_detail":"trunk","bus_network":"Car TER Centre \u2212 Val de Loire","source":"openstreetmap.org","min_zoom":8.0,"bus_shield_text":"TER 2.4","ref":"D 943"},"arcs":[[833],[834]]},{"type":"MultiLineString","properties":{"bus_network":"TER Limousin","sort_rank":380,"kind_detail":"primary","kind":"major_road","source":"openstreetmap.org","min_zoom":8.0,"bus_shield_text":"TER 14","landuse_kind":"urban_area"},"arcs":[[835],[836],[837]]},{"type":"MultiLineString","properties":{"bus_network":"Agglobus","sort_rank":380,"kind_detail":"primary","kind":"major_road","source":"openstreetmap.org","min_zoom":8.0,"bus_shield_text":"B","landuse_kind":"urban_area","ref":"D 940"},"arcs":[[838],[839]]},{"type":"MultiLineString","properties":{"source":"openstreetmap.org","kind":"major_road","landuse_kind":"urban_area","sort_rank":380,"kind_detail":"primary","ref":"D 918","min_zoom":8.0},"arcs":[[840],[841],[842],[843],[844],[845],[846],[847],[848],[849]]},{"type":"LineString","properties":{"kind":"major_road","sort_rank":377,"kind_detail":"tertiary","is_bicycle_related":true,"bicycle_shield_text":"V75","bicycle_network":"ncn","source":"openstreetmap.org","min_zoom":8.0,"ref":"D 302"},"arcs":[850]},{"type":"MultiLineString","properties":{"kind":"major_road","sort_rank":377,"kind_detail":"tertiary","is_bicycle_related":true,"bicycle_shield_text":"V90","bicycle_network":"ncn","source":"openstreetmap.org","min_zoom":8.0,"ref":"D 72"},"arcs":[[851],[852],[853],[854],[855],[856]]},{"type":"LineString","properties":{"kind":"major_road","sort_rank":380,"landuse_kind":"urban_area","source":"openstreetmap.org","min_zoom":8.0,"kind_detail":"primary","ref":"D 927","id":49837636},"arcs":[857]},{"type":"MultiLineString","properties":{"bus_network":"TER Centre \u2212 Val de Loire","sort_rank":380,"kind_detail":"primary","kind":"major_road","source":"openstreetmap.org","min_zoom":8.0,"bus_shield_text":"TER 3.3","ref":"D 920"},"arcs":[[858],[859],[860],[861],[862],[863],[864]]},{"type":"MultiLineString","properties":{"kind":"major_road","sort_rank":380,"kind_detail":"primary","bus_network":"Car TER Centre \u2212 Val de Loire","source":"openstreetmap.org","min_zoom":8.0,"bus_shield_text":"TER 2.4","ref":"D 943"},"arcs":[[865],[866],[867],[868],[869],[870],[871],[872]]},{"type":"MultiLineString","properties":{"bus_network":"TER Limousin","sort_rank":380,"kind_detail":"primary","kind":"major_road","source":"openstreetmap.org","min_zoom":8.0,"bus_shield_text":"TER 15","landuse_kind":"urban_area","ref":"D 940"},"arcs":[[873],[874],[875],[876],[877],[878]]},{"type":"LineString","properties":{"kind":"path","sort_rank":354,"kind_detail":"footway","is_bicycle_related":true,"bicycle_shield_text":"V87","bicycle_network":"ncn","source":"openstreetmap.org","min_zoom":8.0},"arcs":[879]},{"type":"LineString","properties":{"source":"openstreetmap.org","kind":"major_road","sort_rank":380,"kind_detail":"primary","ref":"D 61","min_zoom":8.0},"arcs":[880]},{"type":"LineString","properties":{"kind":"major_road","sort_rank":380,"kind_detail":"primary","bus_network":"TER Auvergne-Rh\u00f4ne-Alpes","source":"openstreetmap.org","min_zoom":8.0,"bus_shield_text":"TER 18","id":13867336},"arcs":[881]},{"type":"LineString","properties":{"kind":"minor_road","sort_rank":360,"kind_detail":"residential","is_bicycle_related":true,"bicycle_shield_text":"V90","bicycle_network":"ncn","source":"openstreetmap.org","min_zoom":8.0},"arcs":[882]},{"type":"LineString","properties":{"kind":"major_road","sort_rank":377,"kind_detail":"tertiary","is_bicycle_related":true,"bicycle_shield_text":"V90","bicycle_network":"ncn","source":"openstreetmap.org","min_zoom":8.0,"ref":"D 10"},"arcs":[883]},{"type":"MultiLineString","properties":{"source":"openstreetmap.org","kind":"major_road","sort_rank":380,"kind_detail":"primary","ref":"D 925","min_zoom":8.0},"arcs":[[884],[885],[886],[887],[888],[889],[890],[891],[892],[893],[894],[895],[896],[897],[898],[899],[900],[901],[902],[903]]},{"type":"MultiLineString","properties":{"bus_network":"Horizon","sort_rank":380,"kind_detail":"primary","kind":"major_road","source":"openstreetmap.org","min_zoom":8.0,"bus_shield_text":"3","ref":"D 990"},"arcs":[[904],[905]]},{"type":"LineString","properties":{"bus_network":"TER Limousin","sort_rank":379,"kind_detail":"secondary","is_bicycle_related":true,"kind":"major_road","bicycle_shield_text":"V87","bicycle_network":"ncn","source":"openstreetmap.org","min_zoom":8.0,"bus_shield_text":"TER 12","ref":"D 915"},"arcs":[906]},{"type":"MultiLineString","properties":{"kind":"major_road","sort_rank":380,"kind_detail":"primary","bus_network":"Car TER Centre \u2212 Val de Loire","source":"openstreetmap.org","min_zoom":8.0,"bus_shield_text":"TER 2.4","landuse_kind":"urban_area","ref":"D 943"},"arcs":[[907],[908],[909],[910],[911],[912]]},{"type":"LineString","properties":{"kind":"major_road","sort_rank":377,"kind_detail":"tertiary","is_bicycle_related":true,"bicycle_shield_text":"V87","bicycle_network":"ncn","source":"openstreetmap.org","min_zoom":8.0,"ref":"D 84","id":298757398},"arcs":[913]},{"type":"LineString","properties":{"kind":"major_road","sort_rank":379,"kind_detail":"secondary","is_bicycle_related":true,"bicycle_shield_text":"V90","bicycle_network":"ncn","source":"openstreetmap.org","min_zoom":8.0,"ref":"D 913"},"arcs":[914]},{"type":"LineString","properties":{"kind":"major_road","sort_rank":380,"kind_detail":"primary","bus_network":"TER Centre \u2212 Val de Loire","source":"openstreetmap.org","min_zoom":8.0,"bus_shield_text":"TER 3.2","id":351412286},"arcs":[915]},{"type":"MultiLineString","properties":{"bus_network":"TER Centre \u2212 Val de Loire","sort_rank":380,"kind_detail":"primary","kind":"major_road","source":"openstreetmap.org","min_zoom":8.0,"bus_shield_text":"TER 3.2","ref":"N 151"},"arcs":[[916],[917],[918],[919],[920],[921],[922],[923],[924],[925]]},{"type":"LineString","properties":{"kind":"major_road","sort_rank":380,"kind_detail":"primary","bus_network":"Agglobus","source":"openstreetmap.org","min_zoom":8.0,"bus_shield_text":"D","landuse_kind":"urban_area","ref":"D 942","id":544368937},"arcs":[926]},{"type":"LineString","properties":{"kind":"minor_road","sort_rank":360,"kind_detail":"residential","is_bicycle_related":true,"bicycle_shield_text":"V87","bicycle_network":"ncn","source":"openstreetmap.org","min_zoom":8.0,"landuse_kind":"urban_area","id":13870214},"arcs":[927]},{"type":"LineString","properties":{"kind":"major_road","sort_rank":379,"kind_detail":"secondary","is_bicycle_related":true,"bicycle_shield_text":"V75","bicycle_network":"ncn","source":"openstreetmap.org","min_zoom":8.0,"landuse_kind":"urban_area","ref":"D 302","id":23955268},"arcs":[928]},{"type":"MultiLineString","properties":{"kind":"major_road","network":null,"sort_rank":380,"kind_detail":"primary","source":"openstreetmap.org","min_zoom":8.0,"shield_text":"2076","ref":"D 2076"},"arcs":[[929],[930]]},{"type":"LineString","properties":{"kind":"major_road","sort_rank":380,"kind_detail":"primary","bus_network":"Car TER Centre \u2212 Val de Loire","source":"openstreetmap.org","min_zoom":8.0,"bus_shield_text":"TER 2.4","landuse_kind":"urban_area","id":343936932},"arcs":[931]},{"type":"MultiLineString","properties":{"source":"openstreetmap.org","kind":"major_road","kind_detail":"trunk","sort_rank":381,"landuse_kind":"urban_area","ref":"N 151","min_zoom":8.0},"arcs":[[932],[933],[934],[935]]},{"type":"LineString","properties":{"kind":"highway","network":"e-road","sort_rank":383,"kind_detail":"motorway","source":"openstreetmap.org","min_zoom":8.0,"all_networks":["e-road"],"shield_text":"62","ref":"A 714","all_shield_texts":["62"]},"arcs":[936]},{"type":"MultiLineString","properties":{"source":"openstreetmap.org","kind":"major_road","landuse_kind":"urban_area","sort_rank":380,"kind_detail":"primary","ref":"D 2144","min_zoom":8.0},"arcs":[[937],[938],[939],[940],[941],[942],[943],[944],[945],[946],[947],[948],[949],[950],[951],[952],[953],[954],[955],[956],[957],[958],[959],[960],[961],[962],[963],[964],[965],[966],[967],[968],[969],[970]]},{"type":"LineString","properties":{"kind":"major_road","sort_rank":377,"kind_detail":"tertiary","is_bicycle_related":true,"bicycle_shield_text":"V87","bicycle_network":"ncn","source":"openstreetmap.org","min_zoom":8.0,"ref":"D 993"},"arcs":[971]},{"type":"LineString","properties":{"kind":"major_road","sort_rank":379,"kind_detail":"secondary","is_bicycle_related":true,"bus_network":"TER Limousin","bicycle_shield_text":"V90","bicycle_network":"ncn","source":"openstreetmap.org","min_zoom":8.0,"bus_shield_text":"TER 15","ref":"D 912"},"arcs":[972]},{"type":"LineString","properties":{"kind":"major_road","sort_rank":377,"kind_detail":"tertiary","is_bicycle_related":true,"bicycle_shield_text":"V90","bicycle_network":"ncn","source":"openstreetmap.org","min_zoom":8.0,"ref":"D 56","id":354135734},"arcs":[973]},{"type":"LineString","properties":{"source":"openstreetmap.org","kind":"major_road","landuse_kind":"protected_area","sort_rank":380,"kind_detail":"primary","ref":"D 925","min_zoom":8.0},"arcs":[974]},{"type":"MultiLineString","properties":{"source":"openstreetmap.org","kind":"major_road","sort_rank":380,"kind_detail":"primary","ref":"D 956","min_zoom":8.0},"arcs":[[975],[976],[977],[978],[979],[980],[981],[982]]},{"type":"LineString","properties":{"kind":"minor_road","sort_rank":360,"landuse_kind":"urban_area","is_bicycle_related":true,"bicycle_shield_text":"V87","bicycle_network":"ncn","source":"openstreetmap.org","min_zoom":8.0,"kind_detail":"unclassified"},"arcs":[983]},{"type":"MultiLineString","properties":{"source":"openstreetmap.org","kind":"major_road","landuse_kind":"urban_area","sort_rank":380,"kind_detail":"primary","min_zoom":8.0},"arcs":[[984],[985],[986],[987],[988],[989],[990],[991],[992],[993],[994],[995],[996],[997],[998],[999],[1000],[1001],[1002],[1003],[1004],[1005],[1006],[1007],[1008],[1009],[1010],[1011],[1012],[1013],[1014],[1015],[1016],[1017]]},{"type":"LineString","properties":{"kind":"major_road","sort_rank":379,"kind_detail":"secondary","is_bicycle_related":true,"bicycle_shield_text":"V90","bicycle_network":"ncn","source":"openstreetmap.org","min_zoom":8.0,"ref":"D 914","id":142947026},"arcs":[1018]},{"type":"MultiLineString","properties":{"source":"openstreetmap.org","kind":"major_road","sort_rank":380,"kind_detail":"primary","ref":"D 94","min_zoom":8.0},"arcs":[[1019],[1020],[1021],[1022],[1023],[1024],[1025],[1026],[1027],[1028],[1029],[1030]]},{"type":"MultiLineString","properties":{"bus_network":"TER Limousin","network":"e-road","sort_rank":381,"kind_detail":"trunk","kind":"major_road","source":"openstreetmap.org","min_zoom":8.0,"bus_shield_text":"TER 14","shield_text":"62","ref":"N 145"},"arcs":[[1031],[1032]]},{"type":"LineString","properties":{"kind":"minor_road","service":"parking_aisle","sort_rank":356,"kind_detail":"service","is_bicycle_related":true,"bicycle_shield_text":"V87","bicycle_network":"ncn","source":"openstreetmap.org","min_zoom":8.0,"landuse_kind":"urban_area","id":311450881},"arcs":[1033]},{"type":"MultiLineString","properties":{"kind":"highway","network":"e-road","sort_rank":383,"landuse_kind":"urban_area","source":"openstreetmap.org","min_zoom":8.0,"all_networks":["e-road","FR:A-road"],"kind_detail":"motorway","shield_text":"62","ref":"A 714","all_shield_texts":["62","714"]},"arcs":[[1034],[1035],[1036],[1037],[1038],[1039]]},{"type":"LineString","properties":{"kind":"major_road","sort_rank":377,"kind_detail":"tertiary","is_bicycle_related":true,"bicycle_shield_text":"V87","bicycle_network":"ncn","source":"openstreetmap.org","min_zoom":8.0,"ref":"D 452"},"arcs":[1040]},{"type":"MultiLineString","properties":{"kind":"minor_road","sort_rank":360,"kind_detail":"residential","is_bicycle_related":true,"bicycle_shield_text":"V87","bicycle_network":"ncn","source":"openstreetmap.org","min_zoom":8.0},"arcs":[[1041],[1042]]},{"type":"MultiLineString","properties":{"source":"openstreetmap.org","kind":"major_road","sort_rank":380,"kind_detail":"primary","ref":"D 920","min_zoom":8.0},"arcs":[[1043],[1044],[1045],[1046],[1047],[1048],[1049],[1050],[1051],[1052],[1053]]},{"type":"MultiLineString","properties":{"bus_network":"Agglobus","sort_rank":380,"kind_detail":"primary","kind":"major_road","source":"openstreetmap.org","min_zoom":8.0,"bus_shield_text":"D","landuse_kind":"urban_area"},"arcs":[[1054],[1055]]},{"type":"MultiLineString","properties":{"bus_network":"TER Centre \u2212 Val de Loire","sort_rank":380,"kind_detail":"primary","kind":"major_road","source":"openstreetmap.org","min_zoom":8.0,"bus_shield_text":"TER 3.2","landuse_kind":"urban_area","ref":"N 151"},"arcs":[[1056],[1057],[1058],[1059],[1060],[1061],[1062],[1063],[1064],[1065],[1066],[1067],[1068],[1069]]},{"type":"LineString","properties":{"kind":"path","sort_rank":354,"kind_detail":"track","is_bicycle_related":true,"bicycle_shield_text":"V90","bicycle_network":"ncn","source":"openstreetmap.org","min_zoom":8.0,"landuse_kind":"residential","id":348346518},"arcs":[1070]},{"type":"MultiLineString","properties":{"bus_network":"TER Limousin","sort_rank":380,"kind_detail":"primary","kind":"major_road","source":"openstreetmap.org","min_zoom":8.0,"bus_shield_text":"TER 15","ref":"D 942"},"arcs":[[1071],[1072]]},{"type":"MultiLineString","properties":{"kind":"major_road","sort_rank":380,"kind_detail":"primary","is_bicycle_related":true,"cycleway":"lane","source":"openstreetmap.org","min_zoom":8.0,"landuse_kind":"urban_area","ref":"D 943"},"arcs":[[1073],[1074]]},{"type":"LineString","properties":{"kind":"major_road","sort_rank":377,"kind_detail":"tertiary","is_bicycle_related":true,"bicycle_shield_text":"V87","bicycle_network":"ncn","source":"openstreetmap.org","min_zoom":8.0,"ref":"D 50"},"arcs":[1075]},{"type":"MultiLineString","properties":{"kind":"major_road","network":null,"sort_rank":380,"kind_detail":"primary","source":"openstreetmap.org","min_zoom":8.0,"landuse_kind":"protected_area","shield_text":"951","ref":"D 951"},"arcs":[[1076],[1077],[1078],[1079],[1080],[1081],[1082],[1083],[1084]]},{"type":"LineString","properties":{"bus_network":"AggloBus","sort_rank":381,"kind_detail":"trunk","kind":"major_road","source":"openstreetmap.org","min_zoom":8.0,"bus_shield_text":"8","ref":"N 151"},"arcs":[1085]},{"type":"MultiLineString","properties":{"source":"openstreetmap.org","kind":"major_road","landuse_kind":"residential","sort_rank":380,"kind_detail":"primary","ref":"D 300","min_zoom":8.0},"arcs":[[1086],[1087]]},{"type":"MultiLineString","properties":{"source":"openstreetmap.org","bus_network":"TER Limousin","bus_shield_text":"TER 14","sort_rank":380,"kind_detail":"primary","min_zoom":8.0,"kind":"major_road"},"arcs":[[1088],[1089],[1090],[1091],[1092],[1093],[1094]]},{"type":"MultiLineString","properties":{"source":"openstreetmap.org","kind":"major_road","sort_rank":380,"kind_detail":"primary","ref":"D 943","min_zoom":8.0},"arcs":[[1095],[1096],[1097],[1098],[1099],[1100],[1101],[1102],[1103],[1104],[1105],[1106],[1107],[1108],[1109],[1110],[1111],[1112],[1113],[1114],[1115],[1116],[1117],[1118],[1119],[1120],[1121],[1122],[1123],[1124],[1125],[1126],[1127]]},{"type":"LineString","properties":{"kind":"major_road","sort_rank":380,"kind_detail":"primary","is_bicycle_related":true,"cycleway":"lane","source":"openstreetmap.org","min_zoom":8.0,"landuse_kind":"urban_area","ref":"N 2145","id":354560313},"arcs":[1128]},{"type":"LineString","properties":{"kind":"major_road","sort_rank":379,"kind_detail":"secondary","is_bicycle_related":true,"bicycle_shield_text":"V90","bicycle_network":"ncn","source":"openstreetmap.org","min_zoom":8.0,"ref":"D 5"},"arcs":[1129]},{"type":"LineString","properties":{"kind":"path","sort_rank":354,"kind_detail":"cycleway","is_bicycle_related":true,"bicycle_shield_text":"V75","bicycle_network":"ncn","source":"openstreetmap.org","min_zoom":8.0,"id":329310390},"arcs":[1130]},{"type":"MultiLineString","properties":{"source":"openstreetmap.org","kind":"major_road","landuse_kind":"residential","sort_rank":380,"kind_detail":"primary","ref":"D 2144","min_zoom":8.0},"arcs":[[1131],[1132],[1133],[1134],[1135],[1136]]},{"type":"MultiLineString","properties":{"bus_network":"Horizon","sort_rank":380,"kind_detail":"primary","kind":"major_road","source":"openstreetmap.org","min_zoom":8.0,"bus_shield_text":"3","landuse_kind":"urban_area","ref":"D 956"},"arcs":[[1137],[1138]]},{"type":"LineString","properties":{"kind":"major_road","network":null,"sort_rank":380,"kind_detail":"primary","source":"openstreetmap.org","min_zoom":8.0,"landuse_kind":"protected_area","shield_text":"951","id":29408384},"arcs":[1139]},{"type":"MultiLineString","properties":{"kind":"path","sort_rank":354,"kind_detail":"track","is_bicycle_related":true,"bicycle_shield_text":"V90","bicycle_network":"ncn","source":"openstreetmap.org","min_zoom":8.0,"id":348346518},"arcs":[[1140],[1141]]},{"type":"LineString","properties":{"kind":"major_road","sort_rank":377,"kind_detail":"tertiary","is_bicycle_related":true,"bicycle_shield_text":"V90","bicycle_network":"ncn","source":"openstreetmap.org","min_zoom":8.0,"ref":"D 49","id":122563388},"arcs":[1142]},{"type":"MultiLineString","properties":{"bus_network":"TER Limousin","sort_rank":380,"kind_detail":"primary","kind":"major_road","source":"openstreetmap.org","min_zoom":8.0,"bus_shield_text":"TER 15","ref":"D 951"},"arcs":[[1143],[1144],[1145]]},{"type":"MultiLineString","properties":{"source":"openstreetmap.org","bus_network":"TER Centre \u2212 Val de Loire","bus_shield_text":"TER 3.3","sort_rank":380,"kind_detail":"primary","min_zoom":8.0,"kind":"major_road"},"arcs":[[1146],[1147],[1148],[1149]]},{"type":"MultiLineString","properties":{"bus_network":"TER Limousin","sort_rank":380,"kind_detail":"primary","kind":"major_road","source":"openstreetmap.org","min_zoom":8.0,"bus_shield_text":"TER 14","ref":"D 745"},"arcs":[[1150],[1151],[1152],[1153],[1154]]},{"type":"LineString","properties":{"kind":"major_road","sort_rank":380,"kind_detail":"primary","bus_network":null,"source":"openstreetmap.org","min_zoom":8.0,"bus_shield_text":"F","landuse_kind":"urban_area","id":544370845},"arcs":[1155]}]},"earth":{"type":"GeometryCollection","geometries":[{"type":"Polygon","properties":{"sort_rank":10,"source":"naturalearthdata.com","min_zoom":0.0,"kind":"earth","area":98022885885},"arcs":[[1156]]}]},"landuse":{"type":"GeometryCollection","geometries":[{"type":"MultiPolygon","properties":{"source":"openstreetmap.org","kind":"residential","tier":2,"area":107308688,"sort_rank":20,"min_zoom":8.0,"osm_relation":true},"arcs":[[[1157],[1158],[1159]]]},{"type":"MultiPolygon","properties":{"source":"openstreetmap.org","kind":"military","tier":3,"area":357735987,"sort_rank":45,"min_zoom":8.0},"arcs":[[[1160]]]},{"type":"MultiPolygon","properties":{"source":"naturalearthdata.com","kind":"urban_area","name":"","area":999604610,"sort_rank":11,"min_zoom":4.0},"arcs":[[[1161]],[[1162]],[[1163]],[[1164]],[[1165]]]},{"type":"MultiPolygon","properties":{"source":"openstreetmap.org","kind":"residential","tier":2,"area":105571494,"sort_rank":20,"min_zoom":8.0},"arcs":[[[1166]],[[1167]]]},{"type":"MultiPolygon","properties":{"kind":"protected_area","protect_class":"5","area":17478034971,"sort_rank":17,"source":"openstreetmap.org","min_zoom":4.0,"tier":2,"osm_relation":true},"arcs":[[[1168]]]}]}},"type":"Topology","transform":{"translate":[1.40625,46.0732306254],"scale":[0.0003433228,0.0002360721]},"arcs":[[[3352,0],[-19,53],[-9,115],[56,131],[-3,47],[-20,84],[-50,6],[-46,49],[-29,217],[-76,37],[-37,94],[10,47],[-31,30],[-109,30],[-15,-50],[-17,4],[-21,55],[17,53],[-83,87],[-36,-12],[-8,-45],[-34,-27],[-29,65],[-56,-10],[-68,50],[-2,28],[-30,2],[29,41],[-24,11],[59,55],[42,-14],[-6,34],[-13,28],[-46,-16],[-49,37],[-32,-6],[-19,161]],[[2548,1471],[-243,33],[-60,-25],[-180,-1],[-35,-53],[-41,-2],[-44,46],[-231,45],[-47,47],[-156,-42],[-45,50],[-34,-32],[-37,21],[-4,-35],[-85,5],[-44,-34],[-59,17],[-5,42],[-56,63],[-39,3],[-108,-22],[32,-42],[4,-56],[-28,-92],[-70,-63],[-69,27],[-56,90],[-124,-143],[-77,62],[25,81],[-40,21],[-31,-15],[-10,-47],[-49,9],[-94,-73],[-6,109],[-57,33],[-40,-27],[-39,-110],[-12,16],[-45,-18],[-33,-79],[-63,-4],[-6,-40],[-24,0],[16,-36],[-68,-40],[-31,54]],[[3436,2315],[5,-21],[-56,-24],[27,-6],[11,-61],[37,17],[29,-8],[-23,-6],[38,-96],[-18,-28],[34,-49],[-228,-141],[-16,41],[-31,6],[-67,-40],[-2,51],[-136,-55],[-60,25],[-36,-25],[-151,-11],[-120,-119],[22,-45],[-25,-40],[-51,24],[-16,-18],[-48,-92],[-7,-123]],[[4096,2802],[-58,-1],[-20,-51],[-78,-21],[-74,126],[-54,-9],[-29,-24],[-8,-90],[-48,19],[1,-35],[-42,-25],[17,-16],[-93,-74],[-66,10],[-9,-42],[14,-28],[26,10],[-16,-70],[-61,7],[-3,46],[-103,-52],[-9,-30],[71,-21],[12,-32],[-30,-84]],[[2463,3884],[4,12],[1,7],[2,38]],[[2470,3941],[-7,-57]],[[2463,3884],[22,-118],[36,-45],[65,-242],[35,-51],[-13,-58],[37,-120],[131,-110],[92,-140],[98,-55],[-1,-67],[63,-76],[110,-25],[5,-76],[84,-85],[99,-49],[0,-64],[28,-41],[98,-53],[-33,-85],[96,-378],[-42,-220],[13,-66],[-32,-63],[24,-138],[-24,-285]],[[2602,4096],[-132,-155]],[[3454,1174],[-1,-2],[-6,-19],[0,-3],[-1,-4],[1,-4],[2,-5],[4,-4],[5,-5]],[[3458,1128],[7,-7]],[[3454,1174],[3,-45]],[[3457,1129],[1,-1]],[[3458,1128],[7,-7]],[[3457,1129],[4,-4],[5,-4]],[[3458,1128],[11,-11]],[[3458,1128],[8,-7]],[[3468,1120],[-3,3],[0,-1],[3,-2]],[[2463,3884],[7,57]],[[2463,3884],[22,-118],[36,-45],[65,-242],[35,-51],[-13,-58],[37,-120],[131,-110],[92,-140],[98,-55],[-1,-67],[63,-76],[110,-25],[5,-76],[84,-85],[99,-49],[0,-64],[28,-41],[98,-53],[-33,-85],[96,-378],[-42,-220],[13,-66],[-32,-63],[24,-138],[-24,-285]],[[2602,4096],[-132,-155]],[[3454,1174],[-8,-28],[3,-9],[9,-9]],[[3458,1128],[7,-7]],[[3454,1174],[3,-45]],[[3457,1129],[1,-1]],[[3458,1128],[7,-7]],[[3457,1129],[9,-8]],[[3458,1128],[11,-11]],[[3458,1128],[8,-7]],[[2531,3651],[-1,0],[1,0]],[[3468,1120],[-3,3],[0,-1],[3,-2]],[[3499,4096],[148,-25],[143,-59],[138,-95],[168,16]],[[2463,3884],[7,57]],[[2463,3884],[22,-118],[36,-45],[65,-242],[35,-51],[-13,-58],[37,-120],[131,-110],[92,-140],[98,-55],[-1,-67],[63,-76],[110,-25],[5,-76],[84,-85],[99,-49],[0,-64],[28,-41],[98,-53],[-33,-85],[96,-378],[-42,-220],[13,-66],[-32,-63],[24,-138],[-24,-285]],[[2602,4096],[-132,-155]],[[3454,1174],[-8,-28],[3,-9],[9,-9]],[[3458,1128],[7,-7]],[[3454,1174],[3,-45]],[[3457,1129],[1,-1]],[[3458,1128],[7,-7]],[[3457,1129],[9,-8]],[[3458,1128],[11,-11]],[[3458,1128],[8,-7]],[[3468,1120],[-3,3],[0,-1],[3,-2]],[[67,173],[-1,5],[-1,4],[1,5],[0,5]],[[223,749],[9,-12],[4,-5],[15,-26],[5,-10],[2,-4],[2,-7],[1,-4],[2,-15],[-3,-16],[-65,-119],[-147,-145],[-13,-53],[47,-88],[-10,-245]],[[261,683],[-59,99],[-6,91],[186,233],[0,154],[34,82],[-4,106],[31,51],[-26,116],[-48,57],[11,95],[-109,76],[11,36],[87,60],[26,66],[-43,61],[-11,111],[-51,50]],[[1751,3833],[-78,-157],[-112,-95],[-57,-23],[-235,-180],[-296,-188],[-113,-68]],[[860,3122],[-21,-13]],[[839,3109],[-7,-4]],[[832,3105],[-257,-190],[-132,-310],[-112,-136],[-69,-174],[13,-54],[10,-10],[25,-14],[5,-5],[4,-2],[4,-5],[11,-16],[6,-9],[2,-4]],[[788,3079],[46,27]],[[834,3106],[5,3]],[[839,3109],[22,14]],[[834,3106],[-2,-1]],[[839,3109],[17,11],[5,3]],[[861,3123],[37,22]],[[1673,3677],[26,59],[49,92],[4,7],[7,10],[25,29],[33,64],[36,102],[-24,56]],[[67,173],[-1,19]],[[223,749],[9,-12],[4,-5],[15,-26],[5,-10],[2,-4],[2,-7],[1,-4],[2,-15],[-3,-16],[-65,-119],[-147,-145],[-13,-53],[47,-88],[-10,-245]],[[261,683],[-59,99],[-6,91],[186,233],[0,154],[34,82],[-4,106],[31,51],[-26,116],[-48,57],[11,95],[-109,76],[11,36],[87,60],[26,66],[-43,61],[-11,111],[-51,50]],[[1751,3833],[-78,-157],[-112,-95],[-57,-23],[-235,-180],[-296,-188],[-113,-68]],[[860,3122],[-21,-13]],[[839,3109],[-7,-4]],[[832,3105],[-257,-190],[-132,-310],[-112,-136],[-69,-174],[13,-54],[44,-31],[15,-21],[6,-9],[2,-4]],[[788,3079],[46,27]],[[834,3106],[5,3]],[[839,3109],[22,14]],[[834,3106],[-2,-1]],[[839,3109],[17,11],[5,3]],[[861,3123],[37,22]],[[1673,3677],[26,59],[49,92],[4,7],[7,10],[25,29],[33,64],[36,102],[-24,56]],[[853,3119],[0,-1],[3,2],[-1,0],[-2,-1]],[[1779,217],[-81,-15],[-117,75],[-61,-10],[-39,86],[-86,68]],[[1395,421],[-10,4]],[[1385,425],[-13,5],[-8,1]],[[1364,431],[-94,-15],[-137,29],[-55,-45],[21,-88],[-26,-47],[-174,0],[-151,-230],[-108,-7],[-134,63],[-52,-19],[-61,18],[-61,-50],[-72,-8],[-5,-32]],[[1395,421],[-3,1]],[[1392,422],[-19,8],[-7,1]],[[1366,431],[-2,0]],[[1366,431],[9,-1],[17,-8]],[[1372,430],[13,-5]],[[1779,217],[23,-6]],[[1802,211],[14,2]],[[1816,213],[11,6],[5,1],[60,-13],[70,31],[75,-18],[68,37],[30,108],[100,115],[11,149],[184,177],[96,258],[363,175],[111,5],[57,34],[91,-10],[56,-68],[62,-20],[149,-10],[40,-39]],[[3455,1131],[3,-3]],[[3458,1128],[7,-7]],[[1816,213],[24,3],[68,-115],[75,-62],[16,-39]],[[3455,1131],[2,-2]],[[3457,1129],[1,-1]],[[3458,1128],[7,-7]],[[3457,1129],[9,-8]],[[3458,1128],[11,-11]],[[3458,1128],[8,-7]],[[955,269],[-1,0],[1,0]],[[1377,428],[0,-1],[1,0],[1,0],[-2,1]],[[1989,27],[0,-1],[0,1]],[[2516,1051],[0,-1],[0,1]],[[3468,1120],[-3,3],[0,-1],[3,-2]],[[67,173],[-1,19]],[[223,749],[35,-57],[2,-7],[1,-4],[2,-15],[-3,-16],[-65,-119],[-147,-145],[-13,-53],[47,-88],[-10,-245]],[[261,683],[-59,99],[-6,91],[186,233],[0,154],[34,82],[-4,106],[31,51],[-26,116],[-48,57],[11,95],[-109,76],[11,36],[87,60],[26,66],[-43,61],[-11,111],[-51,50]],[[1751,3833],[-78,-157],[-112,-95],[-57,-23],[-235,-180],[-296,-188],[-113,-68]],[[860,3122],[-21,-13]],[[839,3109],[-7,-4]],[[832,3105],[-257,-190],[-132,-310],[-112,-136],[-69,-174],[13,-54],[44,-31],[15,-21],[6,-9],[2,-4]],[[788,3079],[46,27]],[[834,3106],[5,3]],[[839,3109],[22,14]],[[834,3106],[-2,-1]],[[839,3109],[17,11],[5,3]],[[861,3123],[37,22]],[[1673,3677],[26,59],[49,92],[4,7],[7,10],[25,29],[33,64],[36,102],[-24,56]],[[853,3119],[0,-1],[3,2],[-1,0],[-2,-1]],[[3499,4096],[148,-25],[143,-59],[138,-95],[168,16]],[[67,173],[-1,19]],[[223,749],[35,-57],[2,-7],[1,-4],[2,-15],[-3,-16],[-65,-119],[-147,-145],[-13,-53],[47,-88],[-10,-245]],[[261,683],[-59,99],[-6,91],[186,233],[0,154],[34,82],[-4,106],[31,51],[-26,116],[-48,57],[11,95],[-109,76],[11,36],[87,60],[26,66],[-43,61],[-11,111],[-51,50]],[[1751,3833],[-78,-157],[-112,-95],[-57,-23],[-235,-180],[-296,-188],[-113,-68]],[[860,3122],[-21,-13]],[[839,3109],[-7,-4]],[[832,3105],[-257,-190],[-132,-310],[-112,-136],[-69,-174],[13,-54],[10,-10],[25,-14],[5,-5],[4,-2],[4,-5],[11,-16],[6,-9],[2,-4]],[[788,3079],[46,27]],[[834,3106],[5,3]],[[839,3109],[22,14]],[[834,3106],[-2,-1]],[[861,3123],[37,22]],[[1673,3677],[26,59],[49,92],[4,7],[7,10],[25,29],[33,64],[36,102],[-24,56]],[[853,3119],[0,-1],[3,2],[-1,0],[-2,-1]],[[67,173],[-1,5],[-1,4],[1,5],[0,5]],[[223,749],[35,-57],[2,-7],[1,-4],[2,-15],[-3,-16],[-65,-119],[-147,-145],[-13,-53],[47,-88],[-10,-245]],[[261,683],[-59,99],[-6,91],[186,233],[0,154],[34,82],[-4,106],[31,51],[-26,116],[-48,57],[11,95],[-109,76],[11,36],[87,60],[26,66],[-43,61],[-11,111],[-51,50]],[[1751,3833],[-78,-157],[-112,-95],[-57,-23],[-235,-180],[-296,-188],[-113,-68]],[[860,3122],[-21,-13]],[[839,3109],[-7,-4]],[[832,3105],[-257,-190],[-132,-310],[-112,-136],[-69,-174],[13,-54],[44,-31],[15,-21],[6,-9],[2,-4]],[[788,3079],[46,27]],[[834,3106],[5,3]],[[839,3109],[22,14]],[[834,3106],[-2,-1]],[[861,3123],[37,22]],[[1673,3677],[26,59],[49,92],[4,7],[7,10],[25,29],[33,64],[36,102],[-24,56]],[[1779,217],[-81,-15],[-117,75],[-61,-10],[-39,86],[-86,68]],[[1395,421],[-10,4]],[[1385,425],[-13,5],[-8,1]],[[1364,431],[-94,-15],[-137,29],[-55,-45],[21,-88],[-26,-47],[-174,0],[-151,-230],[-108,-7],[-134,63],[-52,-19],[-61,18],[-61,-50],[-72,-8],[-5,-32]],[[1395,421],[-3,1]],[[1392,422],[-19,8],[-7,1]],[[1366,431],[-2,0]],[[1366,431],[2,1],[7,-2],[17,-8]],[[1372,430],[13,-5]],[[1779,217],[23,-6]],[[1802,211],[90,-4],[66,31],[79,-18],[68,37],[30,108],[100,115],[11,149],[184,177],[96,258],[363,175],[111,5],[57,34],[91,-10],[56,-68],[62,-20],[149,-10],[40,-39]],[[3455,1131],[3,-3]],[[3458,1128],[21,-20],[9,-4],[6,0],[5,1],[31,14],[96,-12],[13,-9],[43,-24],[54,-49],[75,-13],[61,-69],[116,-7],[108,-85]],[[3455,1131],[2,-2]],[[3457,1129],[1,-1]],[[3458,1128],[15,-14]],[[3473,1114],[21,-10],[7,2],[19,11],[4,1],[2,1],[4,0],[25,-2],[68,-8],[3,-1],[2,-1],[2,-2],[9,-7]],[[3457,1129],[4,-4],[8,-7],[1,-1]],[[3470,1117],[3,-3]],[[3458,1128],[11,-11]],[[3458,1128],[12,-11]],[[955,269],[-1,0],[1,0]],[[1377,428],[0,-1],[1,0],[1,0],[-2,1]],[[2516,1051],[0,-1],[0,1]],[[3468,1120],[-3,3],[0,-1],[3,-2]],[[1751,3833],[-78,-157],[-112,-95],[-57,-23],[-235,-180],[-296,-188],[-113,-68]],[[860,3122],[-21,-13]],[[839,3109],[-7,-4]],[[832,3105],[-77,-46]],[[788,3079],[46,27]],[[834,3106],[5,3]],[[839,3109],[22,14]],[[834,3106],[-2,-1]],[[861,3123],[37,22]],[[1673,3677],[26,59],[49,92],[4,7],[7,10],[25,29],[33,64],[36,102],[-24,56]],[[853,3119],[0,-1],[3,2],[-1,0],[-2,-1]],[[67,173],[-1,5],[-1,4],[1,5],[0,5]],[[223,749],[9,-12],[4,-5],[15,-26],[5,-10],[2,-4],[2,-7],[1,-4],[2,-15],[-3,-16],[-65,-119],[-147,-145],[-13,-53],[47,-88],[-10,-245]],[[261,683],[-59,99],[-6,91],[186,233],[0,154],[34,82],[-4,106],[31,51],[-26,116],[-48,57],[11,95],[-109,76],[11,36],[87,60],[26,66],[-43,61],[-11,111],[-51,50]],[[1751,3833],[-78,-157],[-112,-95],[-57,-23],[-235,-180],[-296,-188],[-113,-68]],[[860,3122],[-21,-13]],[[839,3109],[-7,-4]],[[832,3105],[-257,-190],[-132,-310],[-112,-136],[-69,-174],[13,-54],[10,-10],[25,-14],[5,-5],[4,-2],[4,-5],[11,-16],[6,-9],[2,-4]],[[788,3079],[46,27]],[[834,3106],[5,3]],[[839,3109],[22,14]],[[834,3106],[-2,-1]],[[861,3123],[37,22]],[[1673,3677],[26,59],[49,92],[4,7],[7,10],[25,29],[33,64],[36,102],[-24,56]],[[67,173],[-1,5],[-1,4],[1,5],[0,5]],[[223,749],[35,-57],[2,-7],[1,-4],[2,-15],[-3,-16],[-65,-119],[-147,-145],[-13,-53],[47,-88],[-10,-245]],[[261,683],[-59,99],[-6,91],[186,233],[0,154],[34,82],[-4,106],[31,51],[-26,116],[-48,57],[11,95],[-109,76],[11,36],[87,60],[26,66],[-43,61],[-11,111],[-51,50]],[[1751,3833],[-78,-157],[-112,-95],[-57,-23],[-235,-180],[-296,-188],[-113,-68]],[[860,3122],[-21,-13]],[[839,3109],[-7,-4]],[[832,3105],[-257,-190],[-132,-310],[-112,-136],[-69,-174],[13,-54],[10,-10],[25,-14],[5,-5],[4,-2],[4,-5],[11,-16],[6,-9],[2,-4]],[[788,3079],[46,27]],[[834,3106],[5,3]],[[839,3109],[22,14]],[[834,3106],[-2,-1]],[[839,3109],[17,11],[5,3]],[[861,3123],[37,22]],[[1673,3677],[26,59],[49,92],[4,7],[7,10],[25,29],[33,64],[36,102],[-24,56]],[[3465,1121],[13,-12],[2,-2],[4,-2],[5,-1],[5,0],[3,0],[2,1],[31,14],[44,-12],[2,0],[2,1],[12,4],[4,-1],[5,-3],[2,-1],[2,0],[23,0],[13,-9],[43,-24],[54,-49],[75,-13],[61,-69],[116,-7],[108,-85]],[[3465,1121],[8,-7]],[[3473,1114],[21,-10],[32,15],[4,0],[25,-2],[68,-8],[3,-1],[4,-3],[9,-7]],[[3466,1121],[4,-4]],[[3466,1121],[4,-4]],[[3470,1117],[3,-3]],[[3468,1120],[-3,3],[0,-1],[3,-2]],[[3499,4096],[148,-25],[143,-59],[138,-95],[168,16]],[[67,173],[-1,5],[-1,4],[1,5],[0,5]],[[223,749],[9,-12],[4,-5],[15,-26],[5,-10],[2,-4],[2,-7],[1,-4],[2,-15],[-3,-16],[-65,-119],[-147,-145],[-13,-53],[47,-88],[-10,-245]],[[261,683],[-59,99],[-6,91],[186,233],[0,154],[34,82],[-4,106],[31,51],[-26,116],[-48,57],[11,95],[-109,76],[11,36],[87,60],[26,66],[-43,61],[-11,111],[-51,50]],[[1751,3833],[-18,-42],[-2,-4],[-19,-30],[-6,-9],[-7,-12],[-22,-53],[-2,-3],[-2,-4],[-112,-95],[-57,-23],[-235,-180],[-296,-188],[-113,-68]],[[860,3122],[-21,-13]],[[839,3109],[-7,-4]],[[832,3105],[-257,-190],[-132,-310],[-112,-136],[-69,-174],[13,-54],[10,-10],[25,-14],[5,-5],[4,-2],[4,-5],[11,-16],[6,-9],[2,-4]],[[788,3079],[46,27]],[[834,3106],[5,3]],[[839,3109],[22,14]],[[834,3106],[-2,-1]],[[861,3123],[37,22]],[[1673,3677],[26,59],[49,92],[4,7],[7,10],[25,29],[33,64],[36,102],[-24,56]],[[853,3119],[0,-1],[3,2],[-1,0],[-2,-1]],[[67,173],[-1,5],[-1,4],[1,5],[0,5]],[[223,749],[35,-57],[2,-7],[1,-4],[2,-15],[-3,-16],[-65,-119],[-147,-145],[-13,-53],[47,-88],[-10,-245]],[[261,683],[-59,99],[-6,91],[186,233],[0,154],[34,82],[-4,106],[31,51],[-26,116],[-48,57],[11,95],[-109,76],[11,36],[87,60],[26,66],[-43,61],[-11,111],[-51,50]],[[1751,3833],[-78,-157],[-112,-95],[-57,-23],[-235,-180],[-296,-188],[-113,-68]],[[860,3122],[-21,-13]],[[839,3109],[-7,-4]],[[832,3105],[-257,-190],[-132,-310],[-112,-136],[-69,-174],[13,-54],[10,-10],[25,-14],[5,-5],[4,-2],[4,-5],[11,-16],[6,-9],[2,-4]],[[788,3079],[46,27]],[[834,3106],[5,3]],[[839,3109],[22,14]],[[834,3106],[-2,-1]],[[839,3109],[17,11],[5,3]],[[861,3123],[37,22]],[[1673,3677],[26,59],[49,92],[4,7],[7,10],[25,29],[33,64],[36,102],[-24,56]],[[853,3119],[0,-1],[3,2],[-1,0],[-2,-1]],[[3499,4096],[148,-25],[143,-59],[138,-95],[168,16]],[[3971,1662],[125,33]],[[248,698],[1,1]],[[649,187],[-2,-9]],[[649,192],[0,-3]],[[241,687],[-1,0],[0,-1],[1,1]],[[259,725],[1,-2],[1,0],[0,2],[-2,0]],[[282,1830],[-3,-5],[-9,-178]],[[271,1646],[11,183]],[[592,2785],[-74,-121],[-8,-37]],[[511,2627],[73,140]],[[301,668],[58,32]],[[359,700],[1,0]],[[360,700],[79,-55],[246,-49],[128,32],[168,-37],[21,-40],[34,-23],[174,-47],[66,-9],[61,-1]],[[1337,471],[-301,57],[-56,63],[-167,38],[-128,-32],[-246,48],[-78,56],[-1,-1]],[[360,700],[-1,0]],[[359,700],[-52,-24]],[[3517,1148],[3,1]],[[3520,1149],[-2,0]],[[3520,1149],[84,-24]],[[1352,348],[5,15]],[[1359,428],[-1,1]],[[1371,462],[-1,-1]],[[1372,465],[0,-1]],[[1398,460],[2,1]],[[1402,462],[-2,1]],[[1400,462],[2,0]],[[1402,462],[25,29]],[[1682,2146],[4,0]],[[1686,2168],[-1,-13]],[[1686,2141],[1,4]],[[1707,2172],[-21,-4]],[[1709,2172],[37,31]],[[1362,400],[-1,0]],[[1337,471],[24,-5]],[[1359,467],[-22,4]],[[812,3127],[-23,-2]],[[3373,1121],[12,1]],[[3385,1122],[-12,0]],[[3401,1123],[-15,-1]],[[3386,1122],[15,1]],[[3476,1146],[1,0]],[[126,2386],[113,-50]],[[243,2331],[52,-64]],[[295,2267],[2,-2]],[[298,2266],[-3,1]],[[299,2264],[5,-2]],[[304,2262],[-5,3]],[[304,2262],[121,-58],[392,94],[155,-74],[95,2]],[[1679,2152],[-184,-41],[-57,19],[-138,-17],[-137,106],[-86,6]],[[2564,38],[-90,24]],[[3810,1372],[2,1]],[[1356,364],[1,0]],[[1361,400],[1,0]],[[1363,404],[1,4]],[[1360,376],[1,3]],[[1357,430],[0,19]],[[1370,461],[0,-1]],[[1370,459],[1,2]],[[1373,465],[-1,1]],[[1406,390],[0,-1],[1,1],[-1,0]],[[860,3297],[0,-1]],[[2553,3991],[128,105]],[[867,3028],[0,1]],[[3465,1205],[0,7]],[[3465,1212],[0,1]],[[3465,1213],[-1,0],[1,-1]],[[3468,1254],[-3,-41]],[[3480,1206],[-1,0]],[[3479,1205],[1,1]],[[3497,1203],[-17,3]],[[3478,1205],[1,0]],[[3479,1205],[0,1],[-1,-1]],[[670,3064],[0,1]],[[788,3112],[-55,-19]],[[3477,1092],[1,0],[0,1],[-1,-1]],[[249,699],[-8,-12]],[[256,701],[-2,0]],[[957,3164],[-1,-1]],[[956,3162],[1,2]],[[957,3164],[8,4]],[[965,3168],[1,0]],[[966,3169],[-1,-1]],[[968,3170],[-1,-1]],[[967,3169],[1,1]],[[968,3170],[15,1]],[[3510,1064],[134,-148]],[[3644,916],[1,-1]],[[3646,916],[-2,0]],[[3646,915],[1,-1]],[[3647,914],[-1,1]],[[3647,914],[26,-19]],[[289,672],[-1,1],[-1,-1],[1,-1],[1,1]],[[1456,297],[-1,0],[1,-1],[1,1],[-1,0]],[[2797,434],[-68,32]],[[3410,548],[-3,-27]],[[3465,1205],[0,-10]],[[3465,1195]],[[3465,1195]],[[3465,1195],[0,-1],[1,0],[-1,1]],[[3812,1364],[2,-9],[119,-151],[163,-18]],[[4096,1186],[-40,15],[-10,2],[-113,1],[-119,154]],[[3434,1204],[-8,11]],[[3448,1185],[-13,19]],[[3172,2734],[-15,-17]],[[3208,2732],[14,0]],[[1394,396],[12,-6]],[[3503,1089],[-1,-9]],[[2425,527],[-183,-358]],[[2425,537],[0,-8]],[[241,2335],[0,-1]],[[241,2334],[2,-3],[-1,3]],[[779,3259],[1,-2]],[[780,3257],[0,2]],[[780,3257],[19,-59]],[[2432,505],[-4,-2]],[[3252,2745],[21,2]],[[3396,1256],[-9,14]],[[3396,1256],[1,0]],[[3396,1257],[0,-1]],[[241,2334],[1,0],[0,1],[-1,0],[0,-1]],[[297,2265],[0,-1],[2,0],[0,2],[-2,-1]],[[670,3065],[-1,0],[0,-1],[1,0],[0,1]],[[763,985],[0,1],[-1,-1],[1,0]],[[780,3260],[-1,1],[0,-2],[1,0]],[[780,3259],[0,1]],[[830,3031],[0,-1],[2,1],[-1,1],[-1,-1]],[[917,2904],[-1,0],[1,-1],[1,0],[-1,1]],[[936,2819],[-1,-1],[1,-1],[1,1],[-1,1]],[[1002,2682],[1,-1],[0,1],[-1,0]],[[1012,3066],[1,-1],[0,1],[0,1],[-1,-1]],[[1044,3030],[1,-1],[1,0],[-1,1],[-1,0]],[[1067,3190],[0,2],[-2,0],[0,-2],[2,0]],[[1073,2225],[-1,2],[-1,-2],[1,-1],[1,1]],[[1208,2873],[0,1],[-1,0],[0,-1],[1,0]],[[1438,506],[-1,0],[-1,0],[1,-1],[1,1]],[[2225,2053],[1,1],[-2,0],[0,-1],[1,0]],[[2235,2879],[0,-1],[0,1]],[[2313,2040],[0,2],[-2,0],[0,-2],[2,0]],[[2363,2065],[1,1],[-1,1],[-1,-2],[1,0]],[[3020,1676],[0,1],[-2,0],[0,-1],[2,0]],[[3068,2757],[1,0],[0,1],[-2,0],[1,-1]],[[3116,4012],[0,-2],[2,0],[0,2],[-2,0]],[[3152,2771],[1,1],[0,1],[-2,-1],[1,-1]],[[3158,2803],[0,1],[-1,0],[0,-1],[1,0]],[[3215,1481],[2,0],[0,1],[-1,0],[-1,-1]],[[3242,1435],[0,-1],[1,0],[0,1],[-1,0]],[[3274,2747],[0,1],[-1,-1],[1,-1],[0,1]],[[3284,3831],[-1,1],[-1,-1],[1,-1],[1,1]],[[3397,1257],[-1,0],[1,-1]],[[3397,1256],[0,1]],[[3582,2369],[1,-1],[1,1],[-1,1],[-1,-1]],[[3738,1199],[0,-1],[1,1],[-1,1],[0,-1]],[[3744,1311],[-1,0],[-1,0],[1,-1],[1,1]],[[3757,1332],[0,1],[-1,0],[0,-1],[1,0]],[[3761,1328],[0,1],[-1,0],[0,-1],[1,0]],[[3773,755],[0,1],[-1,0],[0,-1],[1,0]],[[3773,1102],[0,-1],[0,1]],[[3816,1097],[0,1],[-1,0],[0,-1],[1,0]],[[3865,1409],[1,0],[0,1],[-1,0],[0,-1]],[[3898,2442],[1,-1],[0,1],[-1,1],[0,-1]],[[4064,473],[-1,1],[0,-1],[1,0]],[[3476,1146]],[[909,2928],[-1,0]],[[909,2925],[1,0]],[[910,2924],[7,-18]],[[917,2906],[0,-2]],[[917,2904],[0,2]],[[917,2903],[0,-1]],[[917,2902],[0,1]],[[935,2821],[-18,81]],[[935,2821],[0,-2]],[[936,2819],[-1,2]],[[936,2817],[1,-1]],[[937,2816],[-1,2]],[[937,2816],[65,-134]],[[1003,2681],[-4,-260],[79,-109],[-5,-83]],[[1070,2222],[-42,-86],[-29,-186],[57,-215],[168,-208]],[[1373,443],[-1,-1]],[[1399,462],[0,-1]],[[1594,3123],[0,3]],[[1646,2352],[17,89],[-39,100],[6,242],[-36,340]],[[1594,3126],[40,286],[79,236]],[[1646,2352],[-1,-2]],[[1645,2350],[1,2]],[[1747,3873],[56,104],[-2,119]],[[3484,1145],[2,1]],[[132,3422],[-1,1],[-1,-1],[1,-1],[1,1]],[[499,3245],[-1,2],[-2,-2],[2,-1],[1,1]],[[662,3197],[-2,0],[-1,-2],[2,0],[1,2]],[[2758,4096],[47,-19]],[[2805,4077],[16,-14]],[[2822,4064],[-17,13]],[[2822,4062],[11,-19]],[[2833,4043],[-10,19]],[[2853,4037],[-20,6]],[[2853,4037],[12,0]],[[2865,4038],[-12,-1]],[[2874,4038],[-6,1]],[[2868,4037],[6,1]],[[2937,4089],[-63,-51]],[[2937,4089],[5,7]],[[2941,4096],[-4,-7]],[[2425,535],[1,2]],[[2463,527],[-31,-22]],[[3461,1140],[18,2]],[[3503,1087],[24,-20]],[[3454,1126],[22,-33]],[[3457,1131],[-2,-5]],[[3476,1093],[1,-1]],[[3477,1092],[-1,1]],[[3455,1126],[-1,0],[1,-1],[0,1]],[[3484,1147],[-3,3]],[[47,2364],[-5,1]],[[193,2332],[-3,0]],[[3810,1645],[129,60]],[[3939,1705],[32,-43]],[[3478,1092],[2,-1]],[[88,2401],[-1,-1],[1,-1],[1,1],[-1,1]],[[3593,822],[1,1]],[[1682,3685],[2,0]],[[1684,3685],[-2,1]],[[1684,3685],[7,-5]],[[1691,3680],[1,-1]],[[1693,3680],[-2,0]],[[1693,3679],[1,-1]],[[1694,3678],[-1,1]],[[1694,3678],[4,-2]],[[1698,3676],[2,-2]],[[1700,3674],[17,-2]],[[1717,3672],[2,0]],[[1719,3672],[-2,0]],[[1719,3672]],[[1719,3672]],[[1719,3672],[13,7]],[[1732,3679],[1,0]],[[1732,3679]],[[1734,3680],[-1,0]],[[1734,3680]],[[1734,3680],[13,17]],[[1747,3697]],[[1747,3697]],[[1748,3698],[-1,0]],[[1748,3697],[0,1]],[[1748,3698],[4,14]],[[1750,3727],[1,-2]],[[1751,3725],[0,2]],[[1752,3713],[-1,12]],[[2721,462],[-76,-60],[-38,-73],[-87,-61]],[[3420,4096],[158,-34]],[[3810,3990],[101,-54],[185,-21]],[[307,676],[-29,-25],[-1,-1],[-3,-1]],[[274,649],[-28,-14],[-8,0]],[[238,635],[-2,0],[-2,0],[-33,14],[-97,-45],[-64,6],[-3,-2]],[[37,608],[-37,-23]],[[0,585],[36,23],[1,0]],[[37,608],[67,-4],[97,44],[34,-14],[2,0],[1,1]],[[238,635],[36,14]],[[274,649],[4,1],[23,18]],[[1432,443],[2,0],[37,8],[87,38],[69,45],[143,33],[467,-56],[147,8],[85,13]],[[2436,534],[-199,-23],[-467,57],[-143,-33],[-195,-91]],[[3438,1283],[-108,-73],[-38,-109]],[[3293,1092],[37,118],[108,73]],[[937,3070],[-1,-1],[2,-1],[0,1],[-1,1]],[[949,3060],[1,0],[0,1],[-1,-1]],[[965,3050],[0,-1],[1,0],[0,1],[-1,0]],[[3710,1417],[100,228]],[[1362,399],[0,1]],[[1363,400],[21,10]],[[1393,398],[1,-2]],[[3479,1143],[0,-1]],[[197,2332],[-3,0]],[[261,2274],[-64,58]],[[3479,1142],[3,2]],[[3483,1145],[1,0]],[[3810,1372],[-5,-3]],[[3805,1369],[-11,-5]],[[3794,1364],[-5,-2],[-31,-32],[-150,-81]],[[3608,1249],[150,81],[31,31],[5,3]],[[3794,1364],[10,6],[1,-1]],[[3805,1369],[7,-5]],[[4056,476],[36,48]],[[1357,366],[3,10]],[[1364,408],[-5,20]],[[1361,379],[0,20]],[[1362,400],[1,4]],[[996,3094],[16,-28]],[[1013,3065],[31,-33]],[[1044,3032],[0,-2]],[[1045,3030],[-1,2]],[[2505,3942],[1,0],[0,1],[-1,0],[0,-1]],[[2552,3991],[-1,0],[0,-2],[2,1],[-1,1]],[[274,2259],[-8,10]],[[317,2221],[-1,11]],[[3737,1202],[6,108]],[[3737,1202],[1,-3]],[[3738,1200],[-1,2]],[[3738,1198],[2,-2]],[[3740,1196],[-1,3]],[[3816,1101],[-76,95]],[[3816,1101],[-1,-3]],[[3816,1098],[0,3]],[[788,3125],[-3,0]],[[950,3060],[4,-2]],[[966,3049],[1,-1]],[[968,3048],[-1,1]],[[1675,2309],[53,-74],[-21,-62]],[[1716,2165],[-9,7]],[[1735,2154],[-19,10]],[[1746,2146],[-11,8]],[[1747,2145],[4,-2]],[[3426,1215],[-5,8]],[[3474,1150],[-26,35]],[[3474,1150],[2,-4]],[[3488,1146],[15,10]],[[3503,1156],[-15,-9]],[[3804,1370],[6,2]],[[3069,2758],[20,24]],[[3091,2783],[61,-10]],[[3153,2772],[21,7]],[[2242,169],[50,-166],[0,-3]],[[3493,1084],[9,-4]],[[3172,2734],[29,-2]],[[3202,2732],[6,0]],[[3202,2732],[-1,0]],[[2509,188],[-30,-120]],[[2972,487],[4,0]],[[990,3104],[1,-1]],[[991,3103],[-1,2]],[[991,3103],[5,-9]],[[640,1360],[7,-17],[6,48]],[[4017,2114],[56,-66],[23,-109]],[[4092,524],[4,-47]],[[53,2412],[1,0]],[[56,2411],[2,-1]],[[518,2652],[6,0]],[[524,2652],[2,-1]],[[526,2651],[-2,1]],[[88,2399],[1,0]],[[89,2399],[0,1]],[[89,2399],[4,-2]],[[93,2397],[2,-1]],[[96,2396],[-3,1]],[[97,2395],[3,-2]],[[100,2393],[-3,3]],[[100,2393],[26,-7]],[[2235,2878],[-4,-8]],[[3333,443],[-19,3],[31,39],[62,36]],[[2750,4096],[35,-13],[147,-217],[2,-3],[6,-7],[2,-3]],[[2942,3853],[9,-10],[6,-8],[-1,-6]],[[2956,3829],[-14,-127],[28,-92],[-27,-96],[33,-189],[-43,-103],[-15,-236],[3,-32]],[[2921,2954],[5,-54]],[[2926,2900],[0,-2],[62,-127],[56,-28],[9,-7],[1,-1],[8,-9]],[[3062,2726],[4,-89]],[[3066,2637],[2,-68],[94,-161],[60,-190],[108,-195],[13,-21]],[[3343,2002],[70,-115]],[[3413,1887],[1,-2],[3,-3],[5,-2]],[[3422,1880],[77,-33]],[[3499,1847],[8,-3],[80,-2],[98,-129],[127,-349]],[[3814,1358],[-5,25],[-37,108],[-6,34],[-80,186],[-35,66],[-65,66],[-3,2],[-76,0],[-8,2]],[[3499,1847],[-51,18],[-10,4],[-4,2],[-12,9]],[[3422,1880],[-9,7]],[[3413,1887],[-1,1],[-9,9],[-60,105]],[[3343,2002],[-12,21],[-108,195],[-61,190],[-94,161],[-2,68]],[[3066,2637],[-4,89]],[[3062,2726],[0,1],[-8,9],[-11,8],[-54,28],[-23,80],[-37,42],[-3,6]],[[2926,2900],[-1,1],[-4,53]],[[2921,2954],[-3,32],[15,236],[44,103],[-34,189],[28,96],[-28,92],[23,109],[-10,18]],[[2956,3829],[-14,24]],[[2942,3853],[-1,3],[-58,93],[-43,64],[-55,71],[-34,12]],[[1710,1869],[-140,-63],[4,-56],[-224,-154],[13,-31],[-151,-54]],[[859,3300],[1,-1]],[[2867,4039],[-2,-1],[1,-2],[2,2],[-1,1]],[[3449,1141],[-3,-2]],[[3630,894],[-36,-71]],[[285,2253],[-11,6]],[[3143,438],[-15,25]],[[194,2332],[-1,0]],[[197,2332]],[[266,2269],[-5,5]],[[321,2215],[-4,6]],[[2823,4062],[-1,1],[-1,0],[0,-1],[2,0]],[[146,2458],[182,136]],[[434,2637],[21,8]],[[867,3029],[0,-1]],[[799,3198],[3,-9]],[[236,632],[5,54]],[[320,2210],[1,5]],[[2874,3953],[13,-151]],[[2889,3779],[100,-815]],[[859,3302],[70,129]],[[930,3435],[-1,-4]],[[374,542],[69,41],[45,-3]],[[789,3125],[-1,0]],[[938,3068],[4,-2]],[[942,3066],[-4,3]],[[942,3066],[4,-3]],[[946,3063],[3,-3]],[[949,3061],[-3,2]],[[950,3060],[13,-9]],[[963,3051],[2,-1]],[[965,3050],[-2,1]],[[107,2415],[-4,-6]],[[104,2410],[3,5]],[[107,2415],[39,43]],[[328,2594],[106,43]],[[455,2645],[63,7]],[[2721,462],[4,1]],[[3151,435],[-4,0]],[[3053,4080],[-14,16]],[[3053,4080],[43,-46]],[[3116,4012],[-20,22]],[[3286,3828],[52,-57]],[[3708,3564],[58,-30]],[[3899,2441],[75,-80],[122,-47]],[[802,3188],[7,-23]],[[809,3165],[0,-2]],[[810,3164],[-1,1]],[[810,3162],[1,-11]],[[811,3151],[-1,0]],[[811,3150],[0,1]],[[2729,466],[-4,-3]],[[908,3225],[81,-119]],[[990,3106],[-82,119]],[[3409,1124],[-8,-1]],[[3401,1123],[8,1]],[[3446,1139],[-37,-15]],[[3146,436],[-3,2]],[[3147,435],[-1,1]],[[3146,436],[-1,0],[1,-1],[0,1]],[[3476,1146],[3,-3]],[[1359,427],[2,-3]],[[1362,404],[2,4]],[[2561,38],[1,0]],[[2972,487],[-58,-3],[-74,-64],[-43,14]],[[3509,1125],[-2,1]],[[42,2365],[-42,20]],[[190,2332],[-111,42],[-32,-10]],[[3502,1378],[-31,-30]],[[3455,1143],[-6,-2]],[[3455,1143],[1,0]],[[3458,1144],[-3,-1]],[[3461,1140],[18,2]],[[872,3032],[-5,-3]],[[870,3031],[2,1]],[[887,3041],[-15,-9]],[[887,3041],[1,1]],[[890,3044],[-3,-3]],[[896,3047],[-5,-2]],[[892,3044]],[[3304,636],[19,-45],[87,-43]],[[859,3302],[-77,-47]],[[930,3434],[202,662]],[[2513,188],[7,80]],[[3478,1206],[-13,-11]],[[3468,1254],[3,85]],[[3497,1203],[-20,-57]],[[3201,2732],[1,0]],[[1357,364],[-1,0]],[[3564,775],[29,47]],[[3506,1382],[-1,1],[0,-1],[1,0]],[[3488,1155],[1,0]],[[96,2396],[0,-1],[1,0],[0,1],[-1,0]],[[2861,4096],[2,-16]],[[2864,4066],[-1,14]],[[2864,4066],[2,-23]],[[2866,4043],[0,-4]],[[2867,4039],[-1,4]],[[2866,4036],[1,1]],[[2867,4033],[5,-56]],[[2872,3977],[0,-8]],[[2872,3969]],[[2872,3969],[1,-7]],[[2873,3962],[1,-9]],[[2989,2964],[85,-105],[83,-55]],[[3158,2803],[16,-19]],[[3202,2755],[-3,-6]],[[3219,2697],[178,-155],[8,-75],[63,-45],[-21,-100],[76,-119],[36,-356],[-54,-277],[1,-186]],[[3673,895],[98,-135]],[[3771,760],[1,-4]],[[3773,756],[-2,4]],[[3773,755],[2,-5]],[[3775,750],[-2,5]],[[3775,750],[158,-235],[130,-42]],[[4064,473],[32,-42]],[[494,1206],[-1,8]],[[810,3164],[0,-1],[1,0],[-1,1]],[[1351,0],[4,12],[-75,154],[42,49],[30,133]],[[1427,491],[9,13]],[[1436,504],[1,1]],[[1436,505],[0,-1]],[[1439,507],[-2,-1]],[[1438,506],[1,1]],[[1439,507],[50,137]],[[1686,2141],[40,-379],[43,-106],[-95,-309],[31,-77],[-19,-48],[31,-46],[-117,-225],[-45,-144],[-112,-57],[-1,-47],[45,-53]],[[1487,650],[2,-6]],[[1674,2147],[8,-1]],[[1746,2203],[289,284],[205,345],[-3,35]],[[2234,2868],[3,-1]],[[2237,2867],[183,139],[202,312],[58,12],[245,267]],[[3506,1382],[2,1]],[[3502,1077],[8,-13]],[[3503,1115],[0,-26]],[[3503,1118],[0,-3]],[[3503,1115],[2,11]],[[3477,1092]],[[1372,442],[-10,-11]],[[929,3431],[-70,-129]],[[929,3431],[1,3]],[[4017,2114],[79,53]],[[1407,390],[24,-27]],[[2251,2877],[-8,-1]],[[388,1013],[8,-12]],[[3157,2717],[42,-27]],[[3222,2732],[46,-1]],[[888,3042],[2,1]],[[892,3044],[5,3]],[[897,3047],[-1,0]],[[897,3047],[34,17]],[[931,3064],[6,4]],[[936,3069],[-5,-5]],[[944,3073],[-6,-3]],[[938,3069],[6,4]],[[985,3101],[-41,-28]],[[985,3101],[4,3]],[[988,3105],[-3,-4]],[[811,3134],[1,-7]],[[1681,3686],[0,-1]],[[909,3218],[0,-1],[2,0],[-1,2],[-1,-1]],[[916,3221],[-2,1],[0,-2],[1,0],[1,1]],[[972,3256],[-2,0],[0,-1],[2,0],[0,1]],[[1682,3686],[-1,0],[1,-1],[0,1]],[[1751,3729],[-1,0],[0,-2],[2,0],[-1,2]],[[1781,3747],[0,2],[-1,0],[0,-2],[1,0]],[[290,674],[-2,-1]],[[289,672],[1,2]],[[762,985],[-236,-84],[-236,-227]],[[764,985],[-1,1]],[[763,985],[1,0]],[[764,985],[174,92],[-2,67],[138,53],[15,55],[41,37],[-2,102],[60,51],[24,69]],[[3274,2747],[183,40],[164,-7],[341,72],[134,64]],[[686,404],[7,-89],[-44,-123]],[[3151,435],[19,-10],[48,51],[115,-33]],[[860,3299],[-1,1]],[[880,3273],[1,-2],[2,1],[-1,2],[-2,-1]],[[2433,3887],[11,7]],[[2445,3895],[60,47]],[[2506,3943],[45,46]],[[3470,2392],[19,-23],[93,0]],[[3584,2369],[233,34],[81,39]],[[2887,3802],[2,-23]],[[1432,444],[-38,13],[-22,7],[-13,3]],[[1361,466],[71,-23]],[[3438,1283],[79,16]],[[3525,1301],[-87,-18]],[[270,1647],[-45,-79],[-161,-364],[-5,-20],[-1,-8],[-2,-14]],[[56,1162],[-27,-236],[-29,-40]],[[0,893],[26,66],[30,203]],[[56,1162],[3,17],[6,25],[146,325],[31,64],[5,6],[23,34],[1,13]],[[510,2627],[-29,-132],[-49,-74],[-16,-64],[-3,-7]],[[413,2350],[-25,-48],[-3,-2]],[[385,2300],[-38,-16],[-63,-25],[-14,-16],[-1,-5],[0,-31],[-1,-2]],[[268,2205],[-13,-46]],[[255,2159],[-1,-2],[62,-247],[-34,-80]],[[282,1829],[19,34],[15,45],[0,2],[-61,249]],[[255,2159],[-1,2],[11,37],[3,7]],[[268,2205],[4,8],[-3,25],[114,59],[2,3]],[[385,2300],[28,50]],[[413,2350],[4,7],[15,64],[50,73],[29,133]],[[584,2767],[50,85],[39,81],[-2,9]],[[671,2942],[-6,22]],[[665,2964],[-2,11],[-1,1],[-50,107],[13,55],[234,164]],[[782,3255],[-105,-65],[-50,-47],[-10,-21],[-5,-39],[50,-107],[0,-1],[3,-11]],[[665,2964],[6,-21],[0,-1]],[[671,2942],[-37,-89],[-42,-68]],[[1131,4096],[-201,-661]],[[892,3044],[-2,-1]],[[3205,2761],[-1,0],[1,0]],[[3205,2761],[47,-16]],[[3177,2780],[0,1],[-1,0],[0,-1],[1,0]],[[3186,2770],[1,0],[-1,0]],[[3434,1204],[1,0],[-1,0]],[[3578,4062],[232,-72]],[[3773,1102],[-169,23]],[[3813,1098],[-40,4]],[[3813,1098],[2,-1]],[[3815,1098],[-2,0]],[[3816,1097],[3,0]],[[3819,1097],[-3,0]],[[3941,1090],[-122,7]],[[3949,1093],[-8,-3]],[[4096,1106],[-147,-13]],[[499,3245],[151,-46]],[[650,3199],[-151,46]],[[3456,1143],[5,-3]],[[3476,1146],[-18,-2]],[[3385,1122],[0,-1],[1,1],[0,1],[-1,-1]],[[1357,430]],[[1399,461],[-26,-18]],[[1701,3778],[-1,0]],[[1701,3776],[6,-2]],[[1701,3781],[46,92]],[[1707,3774],[-6,3]],[[1730,3760],[-23,14]],[[1719,3672],[-6,-24]],[[1744,3744],[-13,15]],[[1748,3734],[-3,8]],[[1748,3734],[2,-5]],[[1750,3729],[-2,5]],[[3508,1383],[41,23],[135,-29],[26,40]],[[261,725],[39,136],[96,140]],[[388,1013],[106,193]],[[553,512],[-71,51]],[[493,1214],[105,81]],[[686,404],[-133,106]],[[612,1288],[28,72]],[[1684,2154],[-5,-2]],[[704,2972],[-18,-24]],[[704,2972],[1,2]],[[705,2974],[-1,-2]],[[721,3002],[-15,-27]],[[706,2975],[16,27]],[[739,3030],[-17,-27]],[[723,3003],[17,27]],[[132,3421],[2,0]],[[134,3421],[-2,1]],[[134,3421],[181,-83],[42,-46],[138,-46]],[[495,3246],[1,-1]],[[497,3246],[-2,0]],[[662,3195],[1,0]],[[663,3195],[-1,1]],[[663,3195],[129,-39]],[[1360,430],[-3,0]],[[1362,431],[-2,-1]],[[1369,459],[-9,-29]],[[1369,459],[1,0]],[[1370,460],[-1,-1]],[[1371,461],[2,4]],[[3527,1067],[101,-111],[2,-40]],[[2234,2868],[-3,2]],[[3645,915],[1,0],[0,1],[-1,-1]],[[256,701],[4,22]],[[236,632],[33,11],[105,-101]],[[281,3057],[52,10],[161,-37],[173,35]],[[667,3065],[2,0]],[[669,3065],[-2,0]],[[733,3093],[-62,-28]],[[983,3171],[38,9]],[[1021,3180],[1,0],[1,1]],[[1023,3181],[-1,0],[-1,-1]],[[1023,3181],[41,10]],[[1067,3192],[263,19],[193,-44]],[[1529,3163],[-4,2]],[[1525,3165],[-2,2]],[[1525,3165]],[[1525,3165],[1,0]],[[1529,3163],[58,-33]],[[1587,3130],[15,-13]],[[1602,3117],[104,-70],[238,-26],[101,-80],[189,-63]],[[2243,2876],[-8,2]],[[3066,2757],[-676,116],[-104,-10],[-16,21]],[[3067,2758],[-1,-1]],[[3066,2757],[2,0]],[[866,3027],[42,-97]],[[908,2930],[2,-6]],[[2976,487],[152,-24]],[[792,3156],[18,-5]],[[810,3151],[0,-1]],[[810,3150],[0,1]],[[810,3150],[1,-2]],[[811,3148],[0,2]],[[811,3148],[0,-14]],[[2513,188],[-4,0]],[[598,1295],[14,-7]],[[2411,3873],[6,-1]],[[980,3261],[423,262]],[[1403,3523],[70,42]],[[1473,3565],[191,118]],[[1664,3683],[11,4]],[[1675,3687],[-2,1],[-9,-5]],[[2404,3874],[-278,36],[-320,-149]],[[2404,3874],[7,-1]],[[2433,3887],[-29,-13]],[[2444,3894],[1,1]],[[2549,3987],[3,2]],[[1384,410],[9,-12]],[[3480,1091],[13,-7]],[[3505,1382],[-3,-4]],[[3118,4010],[165,-178]],[[3284,3830],[179,-192],[245,-74],[388,-210]],[[810,3150],[1,0],[-1,0]],[[860,3296],[7,-8],[13,-15]],[[881,3274],[-20,24]],[[882,3271],[26,-46]],[[908,3225],[-25,47]],[[3814,1358],[-4,14]],[[3502,1080],[0,-3]],[[3505,1159],[-2,-4]],[[3504,1119],[-1,-1]],[[3503,1155],[2,4]],[[3504,1156],[12,-8]],[[3517,1148],[-1,1],[-12,7]],[[3505,1159],[21,46]],[[3505,1124],[0,2]],[[3505,1382],[1,-1]],[[3506,1381],[0,1]],[[3523,1314],[-17,67]],[[3506,1384],[0,-1]],[[3509,1128],[-1,-3]],[[3509,1125],[0,3]],[[3512,1146],[-3,-18]],[[3512,1146],[5,2]],[[3517,1148]],[[3516,1148],[-4,-2]],[[3515,1147],[1,1]],[[3516,1149],[1,-1]],[[3518,1149],[-1,-1]],[[3517,1148],[-1,0]],[[3516,1148],[1,0]],[[3523,1314],[0,-1]],[[3523,1313],[0,1]],[[3523,1312],[1,-1]],[[3524,1311],[0,1]],[[3526,1306],[-2,5]],[[3526,1205],[4,10]],[[3526,1306],[0,-1]],[[3527,1305],[-1,1]],[[3527,1304],[0,-1]],[[3527,1303],[0,1]],[[3530,1215],[16,37],[-19,51]],[[2551,0],[10,38]],[[254,701],[-5,-2]],[[553,512],[0,-2]],[[0,3078],[96,-3],[118,-41],[67,23]],[[586,4096],[-1,-265],[194,-569]],[[779,3262],[0,-1]],[[779,3261],[0,1]],[[782,3261],[-2,-1]],[[781,3260],[1,1]],[[857,3301],[-75,-40]],[[857,3301],[1,-1]],[[858,3301],[-1,0]],[[3461,1140],[-4,-9]],[[810,3163],[0,-1]],[[890,3043],[2,1]],[[1356,363],[1,-3]],[[1357,364],[-1,0]],[[1371,461],[-1,0]],[[1370,460],[0,-1]],[[1372,466],[1,-1]],[[1373,442],[0,1]],[[1399,461],[0,1]],[[1685,2154],[2,-9]],[[3459,1143],[-1,1]],[[3481,1150],[-5,-4]],[[3503,1156],[1,0]],[[3504,1156],[-1,0]],[[3518,1149],[-2,0]],[[956,3162],[0,1],[-1,0],[0,-1],[1,0]],[[966,3168],[1,1],[0,1],[-1,-1],[0,-1]],[[989,3106],[-1,-1],[2,-1],[0,2],[-1,0]],[[1685,2155],[-1,0],[0,-1],[1,0],[0,1]],[[1686,2169],[-1,-1],[1,0],[0,1]],[[1693,3680],[-1,-1],[1,0],[0,1]],[[1700,3778],[-1,-1],[1,-1],[1,0],[-1,2]],[[1707,2172],[1,1],[-1,0],[0,-1]],[[1716,2165],[-1,-1],[1,0],[0,1]],[[1719,3672]],[[1731,3759],[0,1],[-1,0],[1,-1]],[[1733,3680],[0,-1],[1,0],[-1,1]],[[1735,2155],[0,-1],[0,1]],[[1744,3744],[-1,-1],[2,-1],[0,1],[-1,1]],[[1746,2146],[1,-1],[0,1],[-1,0]],[[1747,3697],[1,0],[-1,0]],[[1751,3713],[0,-1],[1,0],[0,1],[-1,0]],[[3524,1312],[0,1],[-1,0],[0,-1],[1,0]],[[3526,1305],[1,-1],[1,0],[-1,1],[-1,0]],[[649,189],[0,-2]],[[3745,1312],[-1,-1]],[[3744,1311],[1,1]],[[3761,1326],[-16,-14]],[[3756,1334],[108,75]],[[3757,1332],[3,-3]],[[3760,1328],[1,-2]],[[3761,1326],[0,2]],[[3864,1409],[1,0]],[[3865,1409],[-1,0]],[[3867,1411],[-1,-1]],[[3866,1410],[1,1]],[[3867,1411],[229,143]],[[3292,1101],[-10,-31],[-62,-26],[-96,-18],[-14,-5],[-181,-105],[-54,-44],[-43,-38],[-137,-128],[-60,-39],[-125,-106],[-74,-27]],[[2469,532],[41,28],[126,107],[59,39],[234,210],[181,104],[110,23],[63,27],[10,22]],[[3503,1089],[0,-2]],[[3517,1299],[12,-1]],[[3529,1298],[21,-1],[48,-52]],[[3598,1245],[1,-1],[9,5]],[[3608,1249],[-9,-4],[-1,0]],[[3598,1245],[-69,53]],[[3529,1298],[-4,3]],[[3456,815],[108,-40]],[[2479,68],[-5,-6]],[[3630,916],[0,-22]],[[741,3030],[2,1]],[[743,3031],[-2,0]],[[743,3031],[78,-2]],[[821,3029],[9,1]],[[830,3031],[-9,-2]],[[839,3031],[-7,0]],[[832,3030],[7,1]],[[857,3027],[-18,4]],[[857,3027],[9,0]],[[865,3028],[-8,-1]],[[867,3028],[3,3]],[[1362,402],[-1,-2]],[[1362,404],[1,0]],[[910,3218],[4,2]],[[917,3222],[-2,-1]],[[916,3221],[1,1]],[[917,3222],[53,33]],[[970,3256],[-1,-2]],[[971,3256],[9,5]],[[972,3256],[2,1]],[[1677,3687],[-2,0]],[[1675,3687],[2,0]],[[1677,3687],[4,-1]],[[1752,3730],[-1,-1]],[[1752,3729],[0,1]],[[1780,3747],[-28,-17]],[[1806,3761],[-25,-13]],[[3207,2680],[13,-15]],[[1431,363],[32,-35],[-7,-31]],[[1456,296],[144,-64],[177,-159],[131,-26],[65,-41],[4,-6]],[[3488,1147],[-4,0]],[[3486,1146],[2,0]],[[3304,636],[93,49],[59,130]],[[0,2405],[55,7]],[[56,2411],[29,-10]],[[87,2401],[-2,0]],[[85,2401],[2,-1]],[[90,2401],[-2,0]],[[89,2400],[1,1]],[[90,2401],[10,4]],[[100,2405],[4,5]],[[103,2409],[-3,-4]],[[2681,4096],[-129,-104]],[[3089,2782],[2,1]],[[3174,2779],[2,1]],[[3287,1099],[17,9]],[[2426,527],[0,1],[-1,1],[-1,-1],[2,-1]],[[2426,537],[0,1],[-1,0],[0,-1],[1,0]],[[2464,528],[-1,0],[0,-1],[1,1]],[[3287,1098],[0,2],[-2,0],[0,-2],[2,0]],[[3304,1109],[0,-1],[1,0],[0,1],[-1,0]],[[3368,1121],[-1,0],[0,-1],[1,1]],[[0,3449],[38,-39],[91,12]],[[130,3422],[0,-1]],[[785,3125],[-1,0]],[[784,3125],[5,-12]],[[789,3113],[-5,12]],[[784,3121],[1,0]],[[967,3048],[5,-3]],[[972,3045],[-4,3]],[[1043,3029],[-71,16]],[[1044,3030],[-1,-1]],[[1043,3029],[1,0]],[[1046,3029],[2,-1]],[[1048,3028],[-2,1]],[[1048,3028],[159,-154]],[[1208,2873],[467,-564]],[[2223,2053],[-165,-42],[-307,132]],[[2225,2052],[86,-11]],[[2313,2041],[50,24]],[[3018,1678],[-258,328],[-396,60]],[[3216,1482],[-49,26],[-46,55],[1,35],[-102,78]],[[3217,1481],[0,-1]],[[3217,1480],[0,1]],[[3217,1480],[25,-43]],[[3242,1437],[0,-2]],[[3243,1435],[-1,2]],[[3242,1434],[1,-2]],[[3243,1432],[0,2]],[[3243,1432],[152,-174]],[[3395,1258],[1,-1]],[[3397,1257],[-2,1]],[[3397,1256],[1,-1]],[[3398,1255],[-1,2]],[[3421,1223],[-23,32]],[[3482,1144],[1,1]],[[647,178],[51,-153],[-1,-25]],[[3471,1339],[0,9]],[[3174,2784],[2,-3]],[[3177,2780],[9,-10]],[[3187,2770],[17,-9]],[[3199,2749],[2,-16]],[[3202,2732],[17,-35]],[[3205,2760],[-3,-5]],[[802,3189],[0,-1]],[[809,3163],[1,0]],[[56,2411],[0,2],[-1,-1],[0,-1],[1,0]],[[3199,2690],[8,-10]],[[3220,2665],[38,-46]],[[488,580],[-6,-17]],[[288,671],[1,0]],[[289,671],[0,1]],[[300,667],[-11,4]],[[705,2975],[0,-1],[1,0],[0,1],[-1,0]],[[721,3003],[1,-1],[1,1],[-1,0],[-1,0]],[[740,3032],[-1,-2],[2,0],[0,1],[-1,1]],[[789,3113],[0,-1],[1,0],[-1,1]],[[3305,1108],[59,13]],[[3367,1121],[-3,0]],[[3364,1121],[3,0]],[[3373,1122],[-5,-1]],[[3368,1121],[5,0]],[[1372,442],[1,0]],[[4096,2284],[0,-2284],[-4096,0],[0,4096],[4096,0],[0,-1812]],[[3327,1054],[78,41],[-26,6],[23,21],[-37,36],[48,16],[-7,34],[43,16],[-2,-82],[31,-36],[13,-85],[-35,-21],[-11,27],[19,-9],[6,38],[-31,-13],[18,9],[7,20],[-30,-22],[-23,25],[-84,-21]],[[3429,1130],[7,-5],[7,6],[-9,2],[-5,-3]],[[3414,1137],[3,-3],[3,11],[-2,1],[-4,-9]],[[3349,4096],[283,-42],[210,-76],[18,-12],[-17,-70],[215,-122],[-32,-83],[-199,79],[-190,116],[-137,38],[-63,64],[-68,22],[-27,-50],[-35,5],[-215,131],[257,0]],[[1431,350],[-95,-2],[-28,65],[35,70],[89,9],[-1,-142]],[[3542,1367],[73,-130],[17,-87],[-87,-81],[-85,-12],[-87,46],[0,57],[65,85],[0,94],[64,0],[0,47],[40,-19]],[[1755,2092],[-39,1],[-58,93],[-49,23],[-16,71],[61,32],[53,-7],[36,-67],[12,-146]],[[897,3025],[-78,26],[-35,76],[24,83],[73,11],[-53,192],[21,91],[44,-1],[23,-34],[63,-154],[4,-166],[28,-22],[-35,-76],[-79,-26]],[[1658,3840],[89,33],[73,-87],[-75,-132],[-55,-9],[-67,184],[-62,4],[45,48],[52,-41]],[[3078,2765],[32,-7],[-21,25],[21,6],[116,-52],[-52,38],[-1,41],[91,-8],[-29,-40],[23,-31],[-37,-5],[28,-20],[-42,1],[41,-16],[-37,0],[10,-37],[-39,58],[15,4],[1,7],[-46,-13],[18,39],[-44,-24],[9,28],[-34,-17],[-23,23]],[[785,3124],[53,21],[9,39],[20,-20],[49,20],[4,-23],[-39,-25],[41,-20],[-13,-27],[26,-18],[-68,-43],[-14,69],[-68,27]],[[0,1713],[0,1493],[28,-23],[32,19],[26,-100],[57,23],[40,-21],[28,23],[16,-63],[67,-9],[28,-41],[30,-105],[120,-42],[32,-57],[59,45],[46,15],[-14,-20],[21,-14],[-98,-212],[-68,23],[-95,-60],[-85,21],[-168,-203],[115,-92],[-46,-74],[-55,-29],[-6,-39],[20,-17],[-3,-83],[53,24],[92,-64],[-48,-78],[9,-54],[59,-83],[12,12],[-24,-103],[25,-39],[-7,-44],[-64,11],[-89,112],[10,24],[-47,6],[-55,-100],[-53,18]]]}