{"objects":{"water":{"type":"GeometryCollection","geometries":[]},"buildings":{"type":"GeometryCollection","geometries":[]},"places":{"type":"GeometryCollection","geometries":[{"type":"Point","properties":{"name:ka":"\u10d0\u10dc\u10d3\u10dd\u10e0\u10d0","name:ko":"\uc548\ub3c4\ub77c","name:kn":"\u0c85\u0c82\u0ca1\u0ccb\u0cb0\u0cbe","name:km":"\u17a2\u1784\u17cb\u178a\u17bc\u179a\u17c9\u17b6","name:kk":"\u0410\u043d\u0434\u043e\u0440\u0440\u0430","name:ki":"Andora","min_zoom":2.0,"name:ti":"\u12a0\u1295\u12f6\u122b","name:ks":"\u0627\u066e\u06ea\u0646\u0691\u0648\u0631\u0627","name:to":"\u02bbEnitola","name:or":"\u0b06\u0b23\u0b4d\u0b21\u0b4b\u0b30\u0b3e","name:pl":"Andora","name:ta":"\u0b85\u0ba9\u0bcd\u0b9f\u0bcb\u0bb0\u0bbe","name:tg":"\u0410\u043d\u0434\u043e\u0440\u0440\u0430","name:te":"\u0c05\u0c28\u0c4d\u0c21\u0c4b\u0c30\u0c3e","name:bg":"\u0410\u043d\u0434\u043e\u0440\u0430","name:hr":"Andora","name:ru":"\u0410\u043d\u0434\u043e\u0440\u0440\u0430","name:dz":"\u0f68\u0f71\u0f53\u0f0b\u0f51\u0f7c\u0f0b\u0f62","source":"openstreetmap.org","name:lv":"Andora","name:lt":"Andora","name:hi":"\u0905\u0928\u094d\u0921\u094b\u0930\u093e","name:he":"\u05d0\u05e0\u05d3\u05d5\u05e8\u05d4","kind":"country","name:ur":"\u0627\u0646\u0688\u0648\u0631\u0627","name:tt":"\u0410\u043d\u0434\u043e\u0440\u0440\u0430","name:uk":"\u0410\u043d\u0434\u043e\u0440\u0430","name:hy":"\u0531\u0576\u0564\u0578\u0580\u0580\u0561","name:ln":"Andor\u025b","name:lo":"\u0ead\u0eb1\u0e99\u0e94\u0ecd\u0ea5\u0eb2","name:oc":"And\u00f2rra","population":83888,"name:el":"\u0391\u03bd\u03b4\u03cc\u03c1\u03c1\u03b1","name:eo":"Andoro","name":"Andorra","name:ee":"Andorra nutome","name:th":"\u0e1b\u0e23\u0e30\u0e40\u0e17\u0e28\u0e2d\u0e31\u0e19\u0e14\u0e2d\u0e23\u0e4c\u0e23\u0e32","name:yo":"Or\u00edl\u1eb9\u0301\u00e8de \u00c0\u00e0nd\u00f3r\u00e0","alt_name:el":"\u0391\u03bd\u03b4\u03cc\u03c1\u03b1","name:rn":"Andora","name:id":"Andora","name:mr":"\u0905\u0901\u0921\u094b\u0930\u093e","name:ar":"\u0623\u0646\u062f\u0648\u0631\u0627","official_name":"Principat d'Andorra","name:ak":"Andora","name:am":"\u12a0\u1295\u12f6\u122b","name:vi":"Andora","name:ml":"\u0d05\u0d7b\u0d31\u0d4b\u0d31","name:mn":"\u0410\u043d\u0434\u043e\u0440\u0440\u0430","id":148874198,"name:mk":"\u0410\u043d\u0434\u043e\u0440\u0430","name:vo":"Landor\u00e4n","name:zu":"i-Andorra","name:ff":"Anndoora","name:fr":"Andorre","name:zh":"\u5b89\u9053\u5c14","name:so":"Andora","name:sn":"Andora","name:sl":"Andora","name:ja":"\u30a2\u30f3\u30c9\u30e9","name:si":"\u0d87\u0db1\u0dca\u0da9\u0ddd\u0dbb\u0dcf\u0dc0","name:fa":"\u0622\u0646\u062f\u0648\u0631\u0627","name:sg":"And\u00f4ro","name:ne":"\u0905\u0928\u094d\u0921\u094b\u0930\u094d\u0930\u093e","name:bs":"Andora","name:bm":"And\u0254r","name:bn":"\u098f\u09cd\u09af\u09be\u09a8\u09cd\u09a1\u09cb\u09b0\u09be","name:bo":"\u0f68\u0f7a\u0f53\u0f0b\u0f4c\u0f7c\u0f0b\u0f62\u0f0d","name:sw":"Andora","name:be":"\u0410\u043d\u0434\u043e\u0440\u0430","name:ha":"Andora","name:sr":"\u0410\u043d\u0434\u043e\u0440\u0430","name:sq":"Andorr\u00eb","name:ga":"And\u00f3ra","name:io":"Andora","name:gu":"\u0a8d\u0a82\u0aa1\u0acb\u0ab0\u0abe","name:lg":"Andora"},"coordinates":[486,2008]},{"type":"Point","properties":{"name:pt":"Andorra-a-Velha","name:ka":"\u10d0\u10dc\u10d3\u10dd\u10e0\u10d0-\u10da\u10d0-\u10d5\u10d4\u10da\u10d0","name:mr":"\u0905\u0901\u0921\u094b\u0930\u093e \u0932\u093e \u0935\u094d\u0939\u0947\u0932\u094d\u092f\u093e","name:ko":"\uc548\ub3c4\ub77c\ub77c\ubca8\ub7b4","name:cv":"\u0410\u043d\u0434\u043e\u0440\u0440\u0430-\u043b\u0430-\u0412\u044c\u0435\u0445\u0430","name:ar":"\u0623\u0646\u062f\u0648\u0631\u0627 \u0644\u0627 \u0641\u064a\u0644\u0627","name:kk":"\u0410\u043d\u0434\u043e\u0440\u0440\u0430-\u043b\u0430-\u0412\u0435\u043b\u044c\u044f","name:kv":"\u0410\u043d\u0434\u043e\u0440\u0440\u0430-\u043b\u0430-\u0412\u0435\u043b\u044c\u044f","name:th":"\u0e2d\u0e31\u0e19\u0e14\u0e2d\u0e23\u0e4c\u0e23\u0e32\u0e25\u0e32\u0e40\u0e1a\u0e22\u0e32","name:am":"\u12a0\u1295\u12f6\u122b \u120b \u126c\u120b","name:tl":"Lungsod ng Andorra la Vella","name:an":"Andorra la Biella","name:os":"\u0410\u043d\u0434\u043e\u0440\u0440\u00e6-\u043b\u0430-\u0412\u0435\u043b\u044c\u044f","name:ml":"\u0d05\u0d7b\u0d21\u0d4b\u0d31 \u0d32 \u0d35\u0d46\u0d32\u0d4d\u0d32","name:pl":"Andora","name:ta":"\u0b85\u0ba9\u0bcd\u0b9f\u0bcb\u0bb0\u0bbe \u0bb2\u0bbe \u0bb5\u0bc6\u0bb2\u0bcd\u0bb2\u0bbe","name:ce":"\u0410\u043d\u0434\u043e\u0440\u0440\u0430-\u043b\u0430-\u0412\u0435\u043b\u044c\u044f","name:mk":"\u0410\u043d\u0434\u043e\u0440\u0430 \u043b\u0430 \u0412\u0435\u043b\u0458\u0430","name:fa":"\u0622\u0646\u062f\u0648\u0631\u0627 \u0644\u0627\u0648\u0644\u0627","kind_detail":"town","id":58957648,"name:tg":"\u0410\u043d\u0434\u043e\u0440\u0440\u0430-\u043b\u0430-\u0412\u0435\u043b\u044f","country_capital":true,"source":"openstreetmap.org","name:fr":"Andorre-la-Vieille","name:zh":"\u5b89\u9053\u723e\u57ce","admin_level":"2","name:lv":"Andora la Velja","name:ja":"\u30a2\u30f3\u30c9\u30e9\u30fb\u30e9\u30fb\u30d9\u30ea\u30e3","name:lt":"Andora","name:he":"\u05d0\u05e0\u05d3\u05d5\u05e8\u05d4 \u05dc\u05d4 \u05d5\u05dc\u05d4","kind":"locality","name:bn":"\u0986\u09a8\u09cd\u09a6\u09b0\u09be \u09b2\u09be \u09ad\u09c7\u09b2\u09bf\u09af\u09bc\u09be","name:la":"Andorra Vetus","name:sk":"Andorra","name:uk":"\u0410\u043d\u0434\u043e\u0440\u0440\u0430-\u043b\u0430-\u0412\u0435\u043b\u044c\u044f","name:hy":"\u0531\u0576\u0564\u0578\u0580\u0561 \u056c\u0561 \u054e\u0565\u056c\u0575\u0561","name:ru":"\u0410\u043d\u0434\u043e\u0440\u0440\u0430-\u043b\u0430-\u0412\u0435\u043b\u044c\u044f","name:be":"\u0410\u043d\u0434\u043e\u0440\u0430-\u043b\u0430-\u0412\u0435\u043b\u044c\u044f","name:ug":"\u0626\u0627\u0646\u062f\u0648\u0631\u0631\u0627 \u0643\u06d5\u0646\u062a\u0649","name:bg":"\u0410\u043d\u0434\u043e\u0440\u0430 \u043b\u0430 \u0412\u0435\u043b\u044f","name:sr":"\u0410\u043d\u0434\u043e\u0440\u0430 \u043b\u0430 \u0412\u0435\u0459\u0430","name:oc":"And\u00f2rra la Vi\u00e8lha","population":24678,"name:el":"\u0391\u03bd\u03b4\u03cc\u03c1\u03c1\u03b1 \u03bb\u03b1 \u0392\u03ad\u03b3\u03b9\u03b1","name:eo":"Andoro Malnova","name":"Andorra la Vella","name:ht":"And\u00f2-la-Vy\u00e8y","min_zoom":8.0,"name:gl":"Andorra a Vella - Andorra la Vella","name:bo":"\u0f68\u0f53\u0f0b\u0f4c\u0f7c\u0f62\u0f0b\u0f62\u0f0b\u0f42\u0fb2\u0f7c\u0f44\u0f0b\u0f41\u0fb1\u0f7a\u0f62\u0f0d","name:nl":"Andorra","name:es":"Andorra la Vieja"},"coordinates":[335,1874]},{"type":"Point","properties":{"admin_level":"8","kind":"locality","name":"Olot","kind_detail":"town","source":"openstreetmap.org","min_zoom":8.0,"id":1470838619,"population":24070},"coordinates":[3154,590]},{"type":"Point","properties":{"admin_level":"8","kind":"locality","name":"Banyoles","kind_detail":"town","source":"openstreetmap.org","min_zoom":8.0,"id":1470838085,"name:es":"Ba\u00f1olas","population":18576},"coordinates":[3959,336]},{"type":"Point","properties":{"admin_level":"8","kind":"locality","name":"Berga","kind_detail":"town","source":"openstreetmap.org","min_zoom":8.0,"id":1470838103,"population":15753},"coordinates":[1279,270]},{"type":"Point","properties":{"admin_level":"8","kind":"locality","name":"Torell\u00f3","kind_detail":"town","source":"openstreetmap.org","min_zoom":8.0,"id":1470839496,"population":13944},"coordinates":[2499,59]},{"type":"Point","properties":{"admin_level":"8","kind":"locality","name":"la Seu d'Urgell","kind_detail":"town","source":"openstreetmap.org","min_zoom":8.0,"name:uk":"\u041b\u0430-\u0421\u0435\u0443-\u0434'\u0423\u0440\u0436\u0435\u043b\u044c","name:ru":"\u0421\u0435\u043e-\u0434\u0435-\u0423\u0440\u0436\u0435\u043b\u044c","id":1470839447,"name:es":"Seo de Urgel","population":12317},"coordinates":[145,1283]},{"type":"Point","properties":{"kind":"locality","name":"Limoux","name:oc":"Lim\u00f3s","kind_detail":"town","source":"openstreetmap.org","min_zoom":8.0,"old_name":"Lim\u00f3s","id":26696128,"name:ca":"Lim\u00f3s","population":10130},"coordinates":[2363,4036]},{"type":"Point","properties":{"kind":"locality","name":"Foix","name:oc":"Fois","kind_detail":"town","source":"openstreetmap.org","min_zoom":8.0,"name:ru":"\u0424\u0443\u0430","population":9885,"id":26691393,"name:ja":"\u30d5\u30a9\u30ef"},"coordinates":[592,3689]},{"type":"Point","properties":{"admin_level":"8","kind":"locality","name":"Ripoll","kind_detail":"town","source":"openstreetmap.org","min_zoom":8.0,"id":1470838807,"population":9688},"coordinates":[2292,653]},{"type":"Point","properties":{"admin_level":"8","kind":"locality","name":"Puigcerd\u00e0","kind_detail":"town","source":"openstreetmap.org","min_zoom":8.0,"id":1470838793,"population":7020},"coordinates":[1519,1577]}]},"transit":{"type":"GeometryCollection","geometries":[{"type":"MultiLineString","properties":{"kind":"train","name":"TER 11 : Toulouse - Foix - Latour-de-Carol","service":"regional","sort_rank":275,"colour":"#e20227","source":"openstreetmap.org","min_zoom":6.0,"network":"TER Midi-Pyr\u00e9n\u00e9es","operator":"SNCF","ref":"TER 11","osm_relation":true,"colour_name":"crimson"},"arcs":[[10],[11],[12],[13],[14],[15],[16],[17],[18],[19],[20],[21],[22],[23],[24],[25]]},{"type":"MultiLineString","properties":{"kind":"train","name":"IC 410 : Paris \u2212 Andorre \u2212 Latour-de-Carol","service":"national","sort_rank":275,"colour":"#92004c","source":"openstreetmap.org","min_zoom":6.0,"network":"Intercit\u00e9s","operator":"SNCF","ref":"IC 410","osm_relation":true,"colour_name":"purple"},"arcs":[[26],[27],[28],[29],[30],[31],[32],[33],[34],[35],[36],[37],[38],[39],[40],[41]]},{"type":"MultiLineString","properties":{"kind":"train","network":"TER Languedoc-Roussillon","service":"regional;touristic","sort_rank":275,"colour":"#edc700","description":"Correspondance \u00e0 Villefranche-Vernet-les-Bains avec le r\u00e9seau classique \u00e0 destination de Perpignan","source":"openstreetmap.org","min_zoom":6.0,"osm_relation":true,"operator":"SNCF","colour_name":"gold","ref":"TER 6","name:ca":"Tren Groc","name":"Le Train Jaune"},"arcs":[[42],[43],[44],[45],[46],[47],[48],[49],[50],[51],[52],[53],[54],[55],[56],[57],[58],[59],[60],[61],[62],[63],[64],[65],[66],[67],[68],[69]]},{"type":"LineString","properties":{"source":"openstreetmap.org","kind":"train","sort_rank":275,"min_zoom":6.0,"osm_relation":true,"id":-6085893},"arcs":[70]},{"type":"MultiLineString","properties":{"kind":"train","name":"TER 6 : Perpignan - Villefranche-Vernet-les-Bains","service":"regional","sort_rank":275,"colour":"#e9980b","description":"Est pronlong\u00e9 par le train jaune jusqu'\u00e0 Latour-de-Carol","source":"openstreetmap.org","min_zoom":6.0,"osm_relation":true,"operator":"SNCF","ref":"TER 6","colour_name":"orange","network":"TER Languedoc-Roussillon"},"arcs":[[71],[72],[73],[74],[75],[76],[77],[78],[79],[80],[81],[82],[83],[84]]},{"type":"MultiLineString","properties":{"kind":"train","name":"TER 11 : Carcassone - Limoux - Quillan","service":"regional","sort_rank":275,"colour":"#2f3f72","source":"openstreetmap.org","min_zoom":6.0,"network":"TER Languedoc-Roussillon","operator":"SNCF","ref":"TER 11","osm_relation":true,"colour_name":"darkgrey"},"arcs":[[85],[86]]}]},"pois":{"type":"GeometryCollection","geometries":[{"type":"Point","properties":{"kind":"nature_reserve","protect_class":"2","area":754565000,"source":"openstreetmap.org","min_zoom":7.51,"name:es":"Parque natural de Cad\u00ed-Moixer\u00f3","tier":2,"id":-6014910,"osm_relation":true,"name":"Parc Natural del Cad\u00ed-Moixer\u00f3"},"coordinates":[764,1011]},{"type":"Point","properties":{"kind":"nature_reserve","protect_class":"4","area":227347000,"source":"openstreetmap.org","min_zoom":8.38,"tier":2,"id":-5525761,"osm_relation":true,"name":"Parc Natural de les Cap\u00e7aleres del Ter i del Freser"},"coordinates":[2320,1388]},{"type":"Point","properties":{"kind":"protected_area","protect_class":"5","area":2558210000,"source":"openstreetmap.org","min_zoom":7.0,"tier":2,"id":-5488773,"osm_relation":true,"name":"Parc naturel r\u00e9gional des Pyr\u00e9n\u00e9es catalanes"},"coordinates":[2026,1961]},{"type":"Point","properties":{"kind":"nature_reserve","protect_class":"97","area":691888000,"source":"openstreetmap.org","min_zoom":7.57,"tier":2,"id":-4613952,"osm_relation":true,"name":"Alta Garrotxa-Mass\u00eds de les Salines"},"coordinates":[3482,1171]},{"type":"Point","properties":{"kind":"nature_reserve","protect_class":"5","area":277311000,"source":"openstreetmap.org","min_zoom":8.23,"tier":2,"id":-4594406,"osm_relation":true,"name":"Parc Natural de la Zona Volc\u00e0nica de la Garrotxa"},"coordinates":[3235,441]},{"type":"Point","properties":{"source":"openstreetmap.org","kind":"military","name":"Complexe de Tir du Puig de la Tossa","area":12637300,"tier":3,"min_zoom":8.0,"id":180306109},"coordinates":[2199,1990]}]},"boundaries":{"type":"GeometryCollection","geometries":[{"type":"MultiLineString","properties":{"name:right:yo":"Sp\u00e9\u00ecn","name:right:yi":"\u05e9\u05e4\u05d0\u05e0\u05d9\u05e2","name:left:la":"Francia","name:right:qu":"Ispa\u00f1a","name:left:li":"Frankriek","name:left:vi":"Ph\u00e1p","name:left:sw":"Ufaransa","name:left:kg":"Fwalansa","name:left:ka":"\u10e1\u10d0\u10e4\u10e0\u10d0\u10dc\u10d2\u10d4\u10d7\u10d8","name:left:km":"\u1794\u17b6\u179a\u17b6\u17c6\u1784","name:left:kl":"Frankrigi","name:left:ko":"\ud504\ub791\uc2a4","name:left:kn":"\u0cab\u0ccd\u0cb0\u0cbe\u0ca8\u0ccd\u0cb8\u0ccd","name:left:ki":"Ubaranja","name:right:rw":"Esipanye","name:left:kk":"\u0424\u0440\u0430\u043d\u0446\u0438\u044f","name:left:rm":"Frantscha","name:left:ku":"Fransa","name:left:kw":"Pow Frynk","name:left:kv":"\u0424\u0440\u0430\u043d\u0446\u0438\u044f","name:right:rn":"Esipanye","name:left:rw":"Ubufaransa","name:left:ks":"\u0641\u0631\u065b\u0627\u0646\u0633","name:left:ru":"\u0424\u0440\u0430\u043d\u0446\u0438\u044f","name:right:ig":"Spain","name:right:ie":"Hispania","name:right:id":"Spanyol","name:left:ky":"\u0424\u0440\u0430\u043d\u0446\u0438\u044f","name:right:ia":"Espania","name:right:bi":"Spain","name:right:bn":"\u09b8\u09cd\u09aa\u09c7\u09a8","name:right:bo":"\u0f5e\u0f72\u0f0b\u0f54\u0f53\u0f0b\u0f61\u0f0d","name:left:sl":"Francija","name:right:ba":"\u0418\u0441\u043f\u0430\u043d\u0438\u044f","name:right:bg":"\u0418\u0441\u043f\u0430\u043d\u0438\u044f","name:right:be":"\u0406\u0441\u043f\u0430\u043d\u0456\u044f","name:right:br":"Spagn","name:left:lt":"Pranc\u016bzija","name:right:nn":"Spania","name:right:no":"Spania","name:right:nl":"Spanje","name:right:wa":"Espagne","name:left:lv":"Francija","name:right:wo":"Ispaa\u00f1","name:right:ne":"\u0938\u094d\u092a\u0947\u0928","name:right:na":"Pain","name:right:gv":"Yn Spaainey","name:right:nv":"Dib\u00e9 Din\u00ed\u00ed Bik\u00e9yah","name:left:mg":"Frantsa","kind_detail":"2","name:left:tr":"Fransa","name:right:gu":"\u0ab8\u0acd\u0aaa\u0ac7\u0aa8","name:left:ty":"Far\u0101ni","name:right:ps":"\u0627\u0633\u067e\u0627\u0646\u06cc\u0627","name:right:pt":"Espanha","name:left:mk":"\u0424\u0440\u0430\u043d\u0446\u0438\u0458\u0430","name:left:mi":"W\u012bw\u012b","name:left:tt":"\u0424\u0440\u0430\u043d\u0446\u0438\u044f","name:left:mn":"\u0424\u0440\u0430\u043d\u0446","name:left:ml":"\u0d2b\u0d4d\u0d30\u0d3e\u0d7b\u0d38\u0d4d","name:left:th":"\u0e1b\u0e23\u0e30\u0e40\u0e17\u0e28\u0e1d\u0e23\u0e31\u0e48\u0e07\u0e40\u0e28\u0e2a","name:left:mr":"\u092b\u094d\u0930\u093e\u0928\u094d\u0938","name:left:tk":"Fransi\u00fda","name:left:tl":"Pransiya","name:left:to":"Falanis\u0113","name:left:ta":"\u0baa\u0bbf\u0bb0\u0bbe\u0ba9\u0bcd\u0b9a\u0bc1","name:left:my":"\u1015\u103c\u1004\u103a\u101e\u1005\u103a\u1014\u102d\u102f\u1004\u103a\u1004\u1036","name:right:pl":"Hiszpania","name:left:te":"\u0c2b\u0c4d\u0c30\u0c3e\u0c28\u0c4d\u0c38\u0c4d","name:left:tg":"\u0424\u0430\u0440\u043e\u043d\u0441\u0430","name:left:ms":"Perancis","name:left:ti":"\u1348\u1228\u1295\u1233\u12ed","name:right:tr":"\u0130spanya","name:left:da":"Frankrig","name:left:de":"Frankreich","name:left:dz":"\u0f55\u0f62\u0f71\u0f53\u0f66\u0f72\u0f0b","name:right:ga":"An Sp\u00e1inn","name:left:dv":"\u078a\u07a6\u0783\u07a6\u0782\u07b0\u0790\u07ad\u0790\u07a8\u0788\u07a8\u078d\u07a7\u078c\u07b0","name:right:ug":"Ispaniye","name:left:hi":"\u092b\u093c\u094d\u0930\u093e\u0928\u094d\u0938","name:right:lb":"Spuenien","name:right:uk":"\u0406\u0441\u043f\u0430\u043d\u0456\u044f","name:left:he":"\u05e6\u05e8\u05e4\u05ea","name:right:ln":"Espania","name:left:mt":"Franza","name:left:ha":"Faransa","name:right:lt":"Ispanija","name:right:ur":"\u06c1\u0633\u067e\u0627\u0646\u06cc\u06c1","name:right:lv":"Sp\u0101nija","name:left:hy":"\u0556\u0580\u0561\u0576\u057d\u056b\u0561","name:left:ht":"Frans","name:left:hu":"Franciaorsz\u00e1g","name:left:hr":"Francuska","sort_rank":262,"name:right:gd":"An Sp\u00e0inn","name:right:os":"\u0418\u0441\u043f\u0430\u043d\u0438","name:right:sr":"\u0428\u043f\u0430\u043d\u0438\u0458\u0430","name:right:eu":"Espainia","name:right:et":"Hispaania","name:left:os":"\u0424\u0440\u0430\u043d\u0446","name:left:or":"\u0b2b\u0b4d\u0b30\u0b3e\u0b28\u0b4d\u0b38","name:right:pa":"\u0a38\u0a2a\u0a47\u0a28","name:right:ee":"Spain","name:left:vo":"Frans\u00e4n","name:left:oc":"Fran\u00e7a","name:right:eo":"Hispanujo","name:right:en":"Spain","name:right:el":"\u0399\u03c3\u03c0\u03b1\u03bd\u03af\u03b1","name:left:ff":"Faransi","name:left:fa":"\u0641\u0631\u0627\u0646\u0633\u0647","name:left:fo":"Frakland","name:right:sk":"\u0160panielsko","name:left:fi":"Ranska","name:left:cs":"Francie","name:right:jv":"Spanyol","name:left:fy":"Frankryk","name:right:ja":"\u30b9\u30da\u30a4\u30f3","name:right:sq":"Spanja","name:right:ss":"Sipeyini","name:left:ja":"\u30d5\u30e9\u30f3\u30b9","name:right:su":"Spanyol","name:right:st":"Spain","name:right:sw":"Hispania","name:right:sv":"Spanien","name:right:sh":"\u0160panija","name:left:qu":"Ransiya","name:right:sm":"Spania","name:right:sl":"\u0160panija","name:right:so":"Isbania","name:right:sa":"\u0938\u094d\u092a\u0947\u0928\u094d","name:right:sc":"Ispagna","name:left:jv":"Prancis","id":-2202162,"name:right:co":"Spagna","name:right:ca":"Espanya","name:right:se":"Sp\u00e1nia","name:right:ce":"\u0418\u0441\u043f\u0430\u043d\u0438","name:right:cy":"Sbaen","name:right:zh-yue":"\u897f\u73ed\u7259","name:right:cs":"\u0160pan\u011blsko","name:right:cu":"\u0407\u0441\u043f\u0430\u043d\u0457\ua657","name:right:iu":"\u14ef\u1438\u1403\u14d0","name:right:cv":"\u0418\u0441\u043f\u0430\u043d\u0438","name:right:it":"Spagna","name:left:as":"\u09ab\u09cd\u09f0\u09be\u09a8\u09cd\u09b8","name:left:ar":"\u0641\u0631\u0646\u0633\u0627","name:right:is":"Sp\u00e1nn","name:left:az":"Fransa","name:left:ay":"Phransiya","name:left:ro":"Fran\u021ba","name:left:af":"Frankryk","name:left:an":"Francia","name:left:am":"\u1348\u1228\u1295\u1223\u12ed","name:right:ru":"\u0418\u0441\u043f\u0430\u043d\u0438\u044f","name:left:ak":"Fr\u025bnkyeman","name:right:io":"Hispania","name:left:zh-yue":"\u6cd5\u570b","name:right:ik":"Spa\u00f1a","name:right:ro":"Spania","name:right:hy":"\u053b\u057d\u057a\u0561\u0576\u056b\u0561","name:left:lb":"Frankr\u00e4ich","alt_name:left:eo":"Francio","name:left:lg":"Bufalansa","name:left:su":"Perancis","name:left:st":"Fora","name:right:hr":"\u0160panjolska","name:left:sv":"Frankrike","name:left:sq":"Franca","name:right:hu":"Spanyolorsz\u00e1g","name:left:ln":"Falansia","name:left:lo":"\u0e9b\u0eb0\u0ec0\u0e97\u0e94\u0e9d\u0eb0\u0ea5\u0eb1\u0ec8\u0e87","name:left:sm":"Farani","name:right:hi":"\u0938\u094d\u092a\u0947\u0928","name:left:so":"Faransiiska","name:left:si":"\u0db4\u0dca\u200d\u0dbb\u0d82\u0dc1\u0dba","name:left:sh":"Francuska","name:left:sk":"Franc\u00fazsko","name:left:se":"Frankriika","name:left:sg":"Far\u00e2nzi","name:left:sa":"\u092b\u094d\u0930\u093e\u0928\u094d\u0938\u0926\u0947\u0936\u0903","name:right:he":"\u05e1\u05e4\u05e8\u05d3","name:left:sc":"Frantza","name:right:la":"Hispania","name:right:af":"Spanje","name:left:co":"Francia","name:left:ce":"\u0424\u0440\u0430\u043d\u0446\u0438","name:right:an":"Espanya","name:right:am":"\u12a5\u1235\u1353\u1295\u12eb","name:left:ca":"Fran\u00e7a","source":"openstreetmap.org","name:left:cy":"Ffrainc","name:right:ar":"\u0625\u0633\u0628\u0627\u0646\u064a\u0627","name:left:cu":"\u0424\u0440\u0430\u043d\u043a\u0457\ua657","name:left:cv":"\u0424\u0440\u0430\u043d\u0446\u0438","name:right:az":"\u0130spaniya","name:right:ay":"Ispa\u00f1a","name:right:li":"Spanje","name:right:rm":"Spagna","name":"France - Espa\u00f1a","name:right:zu":"ISpeyini","name:left:zu":"IFulansi","name:left:zh":"\u6cd5\u570b","name:right:za":"Sihbanhyaz","name:right:zh":"\u897f\u73ed\u7259","name:left:za":"Fazgoz","official_name:left":"R\u00e9publique fran\u00e7aise","name:left:uz":"Fransiya","name:right:fr":"Espagne","name:left:nv":"D\u00e1\u00e1ghahii Din\u00e9\u02bci\u02bc Bik\u00e9yah","name:left:ur":"\u0641\u0631\u0627\u0646\u0633","id:right":-1311341,"name:left:uk":"\u0424\u0440\u0430\u043d\u0446\u0456\u044f","name:left:no":"Frankrike","name:left:nl":"Frankrijk","alt_name:right:eo":"Hispanio","name:right:fa":"\u0627\u0633\u067e\u0627\u0646\u06cc\u0627","name:right:fo":"Spania","name:left:ne":"\u092b\u094d\u0930\u093e\u0928\u094d\u0938","name:left:ug":"\u0641\u0631\u0627\u0646\u0633\u0649\u064a\u06d5","name:left:na":"Prant","name:left:eo":"Francujo","name:left:ii":"\ua0d4\ua1e9","name:left:el":"\u0393\u03b1\u03bb\u03bb\u03af\u03b1","name:right:tt":"\u0418\u0441\u043f\u0430\u043d\u0438\u044f","name:left:es":"Francia","name:left:ss":"IFulansi","name:left:ie":"Francia","name:left:eu":"Frantzia","name:left:et":"Prantsusmaa","name:right:zh-min-nan":"Se-pan-g\u00e2","name:right:oc":"Espanha","name:right:ko":"\uc2a4\ud398\uc778","name:right:bs":"\u0160panija","name:left:sr":"\u0424\u0440\u0430\u043d\u0446\u0443\u0441\u043a\u0430","name:right:ts":"Spaniya","name:right:uz":"Ispaniya","osm_relation":true,"name:right:or":"\u0b38\u0b4d\u0b2a\u0b47\u0b28","name:left:pt":"Fran\u00e7a","name:right:th":"\u0e1b\u0e23\u0e30\u0e40\u0e17\u0e28\u0e2a\u0e40\u0e1b\u0e19","name:right:kv":"\u0418\u0441\u043f\u0430\u043d\u0438\u044f","name:left:gl":"Francia","min_zoom":8.0,"name:left:zh-min-nan":"Hoat-kok","name:left:wo":"Faraas","name:left:ga":"An Fhrainc","name:left:it":"Francia","name:left:gd":"An Fhraing","int_name:right":"Spain","name:left:gn":"Hy\u00e3sia","name:left:gu":"\u0aab\u0acd\u0ab0\u0abe\u0aa8\u0acd\u0ab8","name:right:tk":"Ispani\u00fda","name:left:gv":"Yn Rank","official_name:right":"Reino de Espa\u00f1a","name:left":"France","name:right:mk":"\u0428\u043f\u0430\u043d\u0438\u0458\u0430","name:right:mi":"P\u0101niora","name:right:mn":"\u0418\u0441\u043f\u0430\u043d\u0438","name:right:ml":"\u0d38\u0d4d\u0d2a\u0d46\u0d2f\u0d3f\u0d7b","name:right:vo":"Spany\u00e4n","name:right:mg":"Espaina","name:right:vi":"T\u00e2y Ban Nha","name:right:my":"\u1005\u1015\u102d\u1014\u103a\u1014\u102d\u102f\u1004\u103a\u1004\u1036","name:right:ms":"Sepanyol","name:right:mr":"\u0938\u094d\u092a\u0947\u0928","name:right:fy":"Spanje","name:right:mt":"Spanja","name:left:nn":"Frankrike","kind":"country","name:left:br":"Bro-C'hall","name:left:bs":"Francuska","name:left:ba":"\u0424\u0440\u0430\u043d\u0446\u0438\u044f","name:left:bg":"\u0424\u0440\u0430\u043d\u0446\u0438\u044f","name:left:be":"\u0424\u0440\u0430\u043d\u0446\u044b\u044f","name:left:bi":"Franis","name:left:bn":"\u09ab\u09cd\u09b0\u09be\u09a8\u09cd\u09b8","name:left:bo":"\u0f67\u0fa5\u0f0b\u0f62\u0f53\u0f0b\u0f66\u0f72\u0f0d","name:right":"Espa\u00f1a","name:left:yo":"Fr\u00e1ns\u00ec","name:left:yi":"\u05e4\u05e8\u05d0\u05e0\u05e7\u05e8\u05d9\u05d9\u05da","id:left":-2202162,"name:right:fi":"Espanja","name:right:ka":"\u10d4\u10e1\u10de\u10d0\u10dc\u10d4\u10d7\u10d8","name:left:io":"Francia","name:right:ty":"Paniora","name:right:kg":"Espania","name:left:pl":"Francja","name:right:kk":"\u0418\u0441\u043f\u0430\u043d\u0438\u044f","name:left:id":"Perancis","name:right:km":"\u17a2\u17c1\u179f\u17d2\u1794\u17c9\u17b6\u1789","name:right:kl":"Spania","name:left:ia":"Francia","name:right:kn":"\u0cb8\u0ccd\u0caa\u0cc7\u0ca8\u0ccd","name:right:tl":"Espanya","name:right:to":"Sepeni","name:right:ku":"Spanya","name:right:kw":"Spayn","name:left:ps":"\u0641\u0631\u0627\u0646\u0633\u0647","name:right:ky":"\u0418\u0441\u043f\u0430\u043d\u0438\u044f","name:right:te":"\u0c38\u0c4d\u0c2a\u0c46\u0c2f\u0c3f\u0c28\u0c4d","name:right:tg":"\u0418\u0441\u043f\u043e\u043d\u0438\u0451","name:left:is":"Frakkland","name:right:ta":"\u0b8e\u0b9a\u0bc1\u0baa\u0bcd\u0baa\u0bbe\u0ba9\u0bbf\u0baf\u0bbe","name:right:de":"Spanien","name:right:da":"Spanien","name:left:rn":"Francia","name:right:dz":"\u0f66\u0f72\u0f54\u0f71\u0f7a\u0f53\u0f0b","name:left:pa":"\u0a2b\u0a4d\u0a30\u0a3e\u0a02\u0a38","name:right:dv":"\u0787\u07a8\u0790\u07b0\u0795\u07ac\u0787\u07a8\u0782\u07b0","name:right:ht":"Espay"},"arcs":[[0],[1]]},{"type":"MultiLineString","properties":{"name:kg":"Fwalansa","name:ty":"Far\u0101ni","name:ka":"\u10e1\u10d0\u10e4\u10e0\u10d0\u10dc\u10d2\u10d4\u10d7\u10d8","name:ko":"\ud504\ub791\uc2a4","name:cv":"\u0424\u0440\u0430\u043d\u0446\u0438","name:cu":"\u0424\u0440\u0430\u043d\u043a\u0457\ua657","name:kl":"Frankrigi","name:cs":"Francie","name:ki":"Ubaranja","name:co":"Francia","name:kv":"\u0424\u0440\u0430\u043d\u0446\u0438\u044f","name:ku":"Fransa","name:ti":"\u1348\u1228\u1295\u1233\u12ed","name:ks":"\u0641\u0631\u065b\u0627\u0646\u0633","name:to":"Falanis\u0113","name:tl":"Pransiya","name:ce":"\u0424\u0440\u0430\u043d\u0446\u0438","name:ta":"\u0baa\u0bbf\u0bb0\u0bbe\u0ba9\u0bcd\u0b9a\u0bc1","name:tg":"\u0424\u0430\u0440\u043e\u043d\u0441\u0430","name:ca":"Fran\u00e7a","name:te":"\u0c2b\u0c4d\u0c30\u0c3e\u0c28\u0c4d\u0c38\u0c4d","name:cy":"Ffrainc","name:hr":"Francuska","name:da":"Frankrig","name:de":"Frankreich","name:dz":"\u0f55\u0f62\u0f71\u0f53\u0f66\u0f72\u0f0b","source":"openstreetmap.org","name:kn":"\u0cab\u0ccd\u0cb0\u0cbe\u0ca8\u0ccd\u0cb8\u0ccd","name:dv":"\u078a\u07a6\u0783\u07a6\u0782\u07b0\u0790\u07ad\u0790\u07a8\u0788\u07a8\u078d\u07a7\u078c\u07b0","name:km":"\u1794\u17b6\u179a\u17b6\u17c6\u1784","name:lv":"Francija","name:lt":"Pranc\u016bzija","name:uz":"Fransiya","name:kk":"\u0424\u0440\u0430\u043d\u0446\u0438\u044f","name:ur":"\u0641\u0631\u0627\u0646\u0633","name:lb":"Frankr\u00e4ich","name:la":"Francia","name:lg":"Bufalansa","name:uk":"\u0424\u0440\u0430\u043d\u0446\u0456\u044f","name:ug":"\u0641\u0631\u0627\u0646\u0633\u0649\u064a\u06d5","name:li":"Frankriek","name:ln":"Falansia","name:lo":"\u0e9b\u0eb0\u0ec0\u0e97\u0e94\u0e9d\u0eb0\u0ea5\u0eb1\u0ec8\u0e87","name:el":"\u0393\u03b1\u03bb\u03bb\u03af\u03b1","name:eo":"Francujo","name":"France","name:tk":"Fransi\u00fda","name:th":"\u0e1b\u0e23\u0e30\u0e40\u0e17\u0e28\u0e1d\u0e23\u0e31\u0e48\u0e07\u0e40\u0e28\u0e2a","name:eu":"Frantzia","name:et":"Prantsusmaa","name:es":"Francia","name:ay":"Phransiya","name:rm":"Frantscha","name:rn":"Francia","name:az":"Fransa","name:ie":"Francia","name:id":"Perancis","name:ii":"\ua0d4\ua1e9","name:as":"\u09ab\u09cd\u09f0\u09be\u09a8\u09cd\u09b8","name:ar":"\u0641\u0631\u0646\u0633\u0627","name:io":"Francia","name:ak":"Fr\u025bnkyeman","name:am":"\u1348\u1228\u1295\u1223\u12ed","name:it":"Francia","name:an":"Francia","name:ru":"\u0424\u0440\u0430\u043d\u0446\u0438\u044f","name:rw":"Ubufaransa","name:af":"Frankryk","name:zu":"IFulansi","kind_detail":"2","name:za":"Fazgoz","name:zh-yue":"\u6cd5\u570b","name:zh":"\u6cd5\u570b","name:so":"Faransiiska","name:sm":"Farani","name:sl":"Francija","name:sk":"Franc\u00fazsko","name:ja":"\u30d5\u30e9\u30f3\u30b9","name:si":"\u0db4\u0dca\u200d\u0dbb\u0d82\u0dc1\u0dba","name:sh":"Francuska","name:sg":"Far\u00e2nzi","name:se":"Frankriika","name:sc":"Frantza","name:br":"Bro-C'hall","name:bs":"Francuska","name:bn":"\u09ab\u09cd\u09b0\u09be\u09a8\u09cd\u09b8","name:bo":"\u0f67\u0fa5\u0f0b\u0f62\u0f53\u0f0b\u0f66\u0f72\u0f0d","name:bi":"Franis","name:sw":"Ufaransa","name:be":"\u0424\u0440\u0430\u043d\u0446\u044b\u044f","name:su":"Perancis","name:bg":"\u0424\u0440\u0430\u043d\u0446\u0438\u044f","name:ss":"IFulansi","name:ba":"\u0424\u0440\u0430\u043d\u0446\u0438\u044f","name:sq":"Franca","name:jv":"Prancis","name:sa":"\u092b\u094d\u0930\u093e\u0928\u094d\u0938\u0926\u0947\u0936\u0903","name:ia":"Francia","name:pt":"Fran\u00e7a","name:ps":"\u0641\u0631\u0627\u0646\u0633\u0647","name:oc":"Fran\u00e7a","min_zoom":8.0,"name:ro":"Fran\u021ba","name:zh-min-nan":"Hoat-kok","name:os":"\u0424\u0440\u0430\u043d\u0446","name:or":"\u0b2b\u0b4d\u0b30\u0b3e\u0b28\u0b4d\u0b38","name:pl":"Francja","name:st":"Fora","sort_rank":262,"name:sr":"\u0424\u0440\u0430\u043d\u0446\u0443\u0441\u043a\u0430","osm_relation":true,"name:pa":"\u0a2b\u0a4d\u0a30\u0a3e\u0a02\u0a38","name:tr":"Fransa","name:hi":"\u092b\u093c\u094d\u0930\u093e\u0928\u094d\u0938","name:sv":"Frankrike","name:he":"\u05e6\u05e8\u05e4\u05ea","name:ha":"Faransa","name:hy":"\u0556\u0580\u0561\u0576\u057d\u056b\u0561","name:ht":"Frans","name:hu":"Franciaorsz\u00e1g","name:qu":"Ransiya","kind":"country","name:is":"Frakkland","name:yi":"\u05e4\u05e8\u05d0\u05e0\u05e7\u05e8\u05d9\u05d9\u05da","name:yo":"Fr\u00e1ns\u00ec","name:mt":"Franza","alt_name:eo":"Francio","name:ms":"Perancis","name:mr":"\u092b\u094d\u0930\u093e\u0928\u094d\u0938","name:my":"\u1015\u103c\u1004\u103a\u101e\u1005\u103a\u1014\u102d\u102f\u1004\u103a\u1004\u1036","official_name":"R\u00e9publique fran\u00e7aise","name:kw":"Pow Frynk","name:mg":"Frantsa","name:ml":"\u0d2b\u0d4d\u0d30\u0d3e\u0d7b\u0d38\u0d4d","name:vi":"Ph\u00e1p","name:mn":"\u0424\u0440\u0430\u043d\u0446","name:mi":"W\u012bw\u012b","id":-2202162,"name:mk":"\u0424\u0440\u0430\u043d\u0446\u0438\u0458\u0430","name:vo":"Frans\u00e4n","name:fa":"\u0641\u0631\u0627\u0646\u0633\u0647","name:ff":"Faransi","name:fi":"Ranska","name:ky":"\u0424\u0440\u0430\u043d\u0446\u0438\u044f","name:fo":"Frakland","name:fy":"Frankryk","name:nl":"Frankrijk","name:nn":"Frankrike","name:no":"Frankrike","name:na":"Prant","name:ne":"\u092b\u094d\u0930\u093e\u0928\u094d\u0938","name:wo":"Faraas","name:nv":"D\u00e1\u00e1ghahii Din\u00e9\u02bci\u02bc Bik\u00e9yah","name:ga":"An Fhrainc","name:gd":"An Fhraing","name:gn":"Hy\u00e3sia","name:gl":"Francia","name:gv":"Yn Rank","name:gu":"\u0aab\u0acd\u0ab0\u0abe\u0aa8\u0acd\u0ab8","name:tt":"\u0424\u0440\u0430\u043d\u0446\u0438\u044f"},"arcs":[[2],[3]]},{"type":"LineString","properties":{"name:kg":"Espania","name:ty":"Paniora","name:ka":"\u10d4\u10e1\u10de\u10d0\u10dc\u10d4\u10d7\u10d8","name:ko":"\uc2a4\ud398\uc778","name:cv":"\u0418\u0441\u043f\u0430\u043d\u0438","name:cu":"\u0407\u0441\u043f\u0430\u043d\u0457\ua657","name:kl":"Spania","name:cs":"\u0160pan\u011blsko","name:tt":"\u0418\u0441\u043f\u0430\u043d\u0438\u044f","name:co":"Spagna","name:kv":"\u0418\u0441\u043f\u0430\u043d\u0438\u044f","name:ku":"Spanya","name:to":"Sepeni","name:tl":"Espanya","name:ce":"\u0418\u0441\u043f\u0430\u043d\u0438","name:ta":"\u0b8e\u0b9a\u0bc1\u0baa\u0bcd\u0baa\u0bbe\u0ba9\u0bbf\u0baf\u0bbe","name:tg":"\u0418\u0441\u043f\u043e\u043d\u0438\u0451","name:ca":"Espanya","name:te":"\u0c38\u0c4d\u0c2a\u0c46\u0c2f\u0c3f\u0c28\u0c4d","name:cy":"Sbaen","name:hr":"\u0160panjolska","name:da":"Spanien","name:de":"Spanien","name:dz":"\u0f66\u0f72\u0f54\u0f71\u0f7a\u0f53\u0f0b","source":"openstreetmap.org","name:kn":"\u0cb8\u0ccd\u0caa\u0cc7\u0ca8\u0ccd","name:dv":"\u0787\u07a8\u0790\u07b0\u0795\u07ac\u0787\u07a8\u0782\u07b0","name:km":"\u17a2\u17c1\u179f\u17d2\u1794\u17c9\u17b6\u1789","name:lv":"Sp\u0101nija","name:lt":"Ispanija","name:uz":"Ispaniya","name:kk":"\u0418\u0441\u043f\u0430\u043d\u0438\u044f","name:ur":"\u06c1\u0633\u067e\u0627\u0646\u06cc\u06c1","name:lb":"Spuenien","name:la":"Hispania","name:uk":"\u0406\u0441\u043f\u0430\u043d\u0456\u044f","name:ug":"Ispaniye","name:li":"Spanje","name:ln":"Espania","name:el":"\u0399\u03c3\u03c0\u03b1\u03bd\u03af\u03b1","name:eo":"Hispanujo","name:en":"Spain","name":"Espa\u00f1a","name:tk":"Ispani\u00fda","name:ee":"Spain","name:th":"\u0e1b\u0e23\u0e30\u0e40\u0e17\u0e28\u0e2a\u0e40\u0e1b\u0e19","name:eu":"Espainia","name:et":"Hispaania","name:ay":"Ispa\u00f1a","name:rm":"Spagna","name:rn":"Esipanye","name:az":"\u0130spaniya","name:ie":"Hispania","name:id":"Spanyol","name:ig":"Spain","name:ik":"Spa\u00f1a","name:ar":"\u0625\u0633\u0628\u0627\u0646\u064a\u0627","name:io":"Hispania","name:is":"Sp\u00e1nn","name:am":"\u12a5\u1235\u1353\u1295\u12eb","name:it":"Spagna","name:an":"Espanya","name:ru":"\u0418\u0441\u043f\u0430\u043d\u0438\u044f","name:rw":"Esipanye","name:af":"Spanje","name:zu":"ISpeyini","kind_detail":"2","name:za":"Sihbanhyaz","name:zh-yue":"\u897f\u73ed\u7259","name:zh":"\u897f\u73ed\u7259","name:so":"Isbania","name:sm":"Spania","name:sl":"\u0160panija","name:sk":"\u0160panielsko","name:ja":"\u30b9\u30da\u30a4\u30f3","name:sh":"\u0160panija","name:se":"Sp\u00e1nia","name:sc":"Ispagna","name:br":"Spagn","name:bs":"\u0160panija","name:bn":"\u09b8\u09cd\u09aa\u09c7\u09a8","name:bo":"\u0f5e\u0f72\u0f0b\u0f54\u0f53\u0f0b\u0f61\u0f0d","name:bi":"Spain","name:sw":"Hispania","name:be":"\u0406\u0441\u043f\u0430\u043d\u0456\u044f","name:su":"Spanyol","name:bg":"\u0418\u0441\u043f\u0430\u043d\u0438\u044f","name:ss":"Sipeyini","name:ba":"\u0418\u0441\u043f\u0430\u043d\u0438\u044f","name:sq":"Spanja","name:jv":"Spanyol","name:sa":"\u0938\u094d\u092a\u0947\u0928\u094d","name:ia":"Espania","name:pt":"Espanha","name:ps":"\u0627\u0633\u067e\u0627\u0646\u06cc\u0627","name:oc":"Espanha","min_zoom":8.0,"name:ro":"Spania","name:zh-min-nan":"Se-pan-g\u00e2","name:os":"\u0418\u0441\u043f\u0430\u043d\u0438","name:or":"\u0b38\u0b4d\u0b2a\u0b47\u0b28","name:pl":"Hiszpania","name:st":"Spain","sort_rank":262,"name:sr":"\u0428\u043f\u0430\u043d\u0438\u0458\u0430","osm_relation":true,"name:pa":"\u0a38\u0a2a\u0a47\u0a28","name:tr":"\u0130spanya","name:hi":"\u0938\u094d\u092a\u0947\u0928","name:sv":"Spanien","name:he":"\u05e1\u05e4\u05e8\u05d3","name:hy":"\u053b\u057d\u057a\u0561\u0576\u056b\u0561","name:ht":"Espay","name:hu":"Spanyolorsz\u00e1g","name:qu":"Ispa\u00f1a","kind":"country","name:ts":"Spaniya","name:yi":"\u05e9\u05e4\u05d0\u05e0\u05d9\u05e2","name:iu":"\u14ef\u1438\u1403\u14d0","name:yo":"Sp\u00e9\u00ecn","name:mt":"Spanja","alt_name:eo":"Hispanio","name:ms":"Sepanyol","name:mr":"\u0938\u094d\u092a\u0947\u0928","name:my":"\u1005\u1015\u102d\u1014\u103a\u1014\u102d\u102f\u1004\u103a\u1004\u1036","official_name":"Reino de Espa\u00f1a","name:kw":"Spayn","name:mg":"Espaina","name:ml":"\u0d38\u0d4d\u0d2a\u0d46\u0d2f\u0d3f\u0d7b","name:vi":"T\u00e2y Ban Nha","name:mn":"\u0418\u0441\u043f\u0430\u043d\u0438","name:mi":"P\u0101niora","id":-1311341,"name:mk":"\u0428\u043f\u0430\u043d\u0438\u0458\u0430","name:vo":"Spany\u00e4n","name:fa":"\u0627\u0633\u067e\u0627\u0646\u06cc\u0627","name:fi":"Espanja","name:ky":"\u0418\u0441\u043f\u0430\u043d\u0438\u044f","name:fo":"Spania","name:fr":"Espagne","name:fy":"Spanje","int_name":"Spain","name:nl":"Spanje","name:nn":"Spania","name:no":"Spania","name:na":"Pain","name:ne":"\u0938\u094d\u092a\u0947\u0928","name:wa":"Espagne","name:wo":"Ispaa\u00f1","name:nv":"Dib\u00e9 Din\u00ed\u00ed Bik\u00e9yah","name:ga":"An Sp\u00e1inn","name:gd":"An Sp\u00e0inn","name:gv":"Yn Spaainey","name:gu":"\u0ab8\u0acd\u0aaa\u0ac7\u0aa8"},"arcs":[4]},{"type":"MultiLineString","properties":{"name:left:br":"Okitania","name:right:nl":"Cataloni\u00eb","name:right:fr":"Catalogne","name:right:hr":"Katalonija","name:left:sv":"Occitanien","id:right":-349053,"name:right:lt":"Katalonija","name:left:no":"Oksitania","min_zoom":8.0,"alt_name:right:eo":"Katalunio","name:right:sl":"Katalonija","name:right:eo":"Katalunujo","id":-3792883,"name:right":"Catalunya","name:left:eo":"Okcitanio","name:left:en":"Occitania","sort_rank":256,"kind_detail":"4","name:left:ca":"Occit\u00e0nia","source":"openstreetmap.org","name:right:ar":"\u0643\u062a\u0627\u0644\u0648\u0646\u064a\u0627","name:left:nl":"Occitani\u00eb","id:left":-3792883,"name:left:es":"Occitania","name:right:cs":"Autonomn\u00ed spole\u010denstv\u00ed Katal\u00e1nsko","name:right:fi":"Katalonia","name:left:cs":"Okcit\u00e1nie","name:left":"Occitanie","name:right:es":"Catalu\u00f1a","name:right:pt":"Catalunha","name:left:ar":"\u0627\u0644\u0623\u0648\u0643\u064a\u062a\u0627\u0646\u064a\u0629","name:right:eu":"Katalunia","name:left:pl":"Oksytania","name:right:vo":"Katalon\u00e4n","name:left:ro":"Occitania","name:right:oc":"Catalonha","name:right:ru":"\u041a\u0430\u0442\u0430\u043b\u043e\u043d\u0438\u044f","name:right:io":"Katalunia","name:right:sv":"Katalonien","name:left:ru":"\u041e\u043a\u0441\u0438\u0442\u0430\u043d\u0438\u044f","short_name:right":"CAT","name:left:oc":"Occit\u00e0nia","name:left:it":"Occitania","name:right:pl":"Katalonia","name:right:en":"Catalonia","osm_relation":true,"name:left:pt":"Occit\u00e2nia","kind":"region","name":"Occitanie - Catalunya","name:left:da":"Occitanien","name:left:de":"Okzitanien","name:right:be":"\u041a\u0430\u0442\u0430\u043b\u043e\u043d\u0456\u044f","name:right:de":"Katalonien","name:left:lt":"Oksitanija","name:right:fy":"Kataloanje"},"arcs":[[5],[6]]},{"type":"MultiLineString","properties":{"name:pt":"Occit\u00e2nia","name:ro":"Occitania","name:nl":"Occitani\u00eb","name:lt":"Oksitanija","name:no":"Oksitania","name:oc":"Occit\u00e0nia","name:ar":"\u0627\u0644\u0623\u0648\u0643\u064a\u062a\u0627\u0646\u064a\u0629","name:cs":"Okcit\u00e1nie","kind":"region","name:br":"Okitania","min_zoom":8.0,"name:it":"Occitania","name:sv":"Occitanien","name:ru":"\u041e\u043a\u0441\u0438\u0442\u0430\u043d\u0438\u044f","name:pl":"Oksytania","id":-3792883,"name:ca":"Occit\u00e0nia","name:eo":"Okcitanio","name:en":"Occitania","name":"Occitanie","sort_rank":256,"kind_detail":"4","name:da":"Occitanien","name:de":"Okzitanien","source":"openstreetmap.org","osm_relation":true,"name:es":"Occitania"},"arcs":[[7],[8]]},{"type":"LineString","properties":{"name:pt":"Catalunha","name:oc":"Catalonha","name:ar":"\u0643\u062a\u0627\u0644\u0648\u0646\u064a\u0627","name:cs":"Autonomn\u00ed spole\u010denstv\u00ed Katal\u00e1nsko","alt_name:eo":"Katalunio","name:io":"Katalunia","min_zoom":8.0,"name:be":"\u041a\u0430\u0442\u0430\u043b\u043e\u043d\u0456\u044f","name:ru":"\u041a\u0430\u0442\u0430\u043b\u043e\u043d\u0438\u044f","name:pl":"Katalonia","id":-349053,"name:vo":"Katalon\u00e4n","name:lt":"Katalonija","sort_rank":256,"name:fi":"Katalonia","name:de":"Katalonien","source":"openstreetmap.org","name:fr":"Catalogne","name:fy":"Kataloanje","name:sl":"Katalonija","name:nl":"Cataloni\u00eb","short_name":"CAT","kind":"region","name:sv":"Katalonien","name:hr":"Katalonija","osm_relation":true,"name:eo":"Katalunujo","name:en":"Catalonia","name":"Catalunya","kind_detail":"4","name:eu":"Katalunia","name:es":"Catalu\u00f1a"},"arcs":[9]}]},"roads":{"type":"GeometryCollection","geometries":[{"type":"MultiLineString","properties":{"source":"openstreetmap.org","kind":"major_road","landuse_kind":"nature_reserve","sort_rank":380,"kind_detail":"primary","ref":"C-153","min_zoom":8.0},"arcs":[[87],[88],[89]]},{"type":"MultiLineString","properties":{"kind":"major_road","network":"e-road","sort_rank":381,"kind_detail":"trunk","is_bicycle_related":true,"source":"openstreetmap.org","min_zoom":8.0,"shield_text":"09","ref":"C-16"},"arcs":[[90],[91],[92],[93],[94],[95]]},{"type":"MultiLineString","properties":{"bus_network":null,"sort_rank":380,"kind_detail":"primary","kind":"major_road","source":"openstreetmap.org","min_zoom":8.0,"bus_shield_text":"390","landuse_kind":"urban_area","ref":"D 612a"},"arcs":[[96],[97],[98],[99],[100],[101],[102],[103],[104],[105]]},{"type":"LineString","properties":{"kind":"major_road","network":null,"sort_rank":380,"kind_detail":"primary","bus_network":"Navettes Urbaines Foix","source":"openstreetmap.org","min_zoom":8.0,"bus_shield_text":"4","shield_text":"117","ref":"D 117","id":171280985},"arcs":[106]},{"type":"MultiLineString","properties":{"kind":"major_road","sort_rank":379,"landuse_kind":"protected_area","is_bicycle_related":true,"bicycle_network":"ncn","source":"openstreetmap.org","min_zoom":8.0,"kind_detail":"secondary","ref":"D 10"},"arcs":[[107],[108]]},{"type":"MultiLineString","properties":{"source":"openstreetmap.org","kind":"major_road","sort_rank":380,"kind_detail":"primary","ref":"CG-1","min_zoom":8.0},"arcs":[[109],[110],[111],[112],[113],[114],[115],[116],[117],[118],[119],[120],[121]]},{"type":"MultiLineString","properties":{"source":"openstreetmap.org","kind":"major_road","landuse_kind":"urban_area","sort_rank":380,"kind_detail":"primary","ref":"D 615","min_zoom":8.0},"arcs":[[122],[123],[124],[125],[126],[127],[128],[129],[130],[131],[132],[133]]},{"type":"MultiLineString","properties":{"source":"openstreetmap.org","kind":"major_road","sort_rank":380,"kind_detail":"primary","ref":"N-260","min_zoom":8.0},"arcs":[[134],[135],[136],[137],[138],[139],[140],[141],[142],[143],[144],[145]]},{"type":"LineString","properties":{"kind":"major_road","network":null,"sort_rank":380,"kind_detail":"primary","source":"openstreetmap.org","min_zoom":8.0,"shield_text":"92","ref":"D 92","id":23841316},"arcs":[146]},{"type":"LineString","properties":{"kind":"major_road","sort_rank":379,"kind_detail":"secondary","is_bicycle_related":true,"bicycle_shield_text":"V81","bicycle_network":"ncn","source":"openstreetmap.org","min_zoom":8.0,"ref":"D 613"},"arcs":[147]},{"type":"LineString","properties":{"kind":"major_road","network":"e-road","sort_rank":380,"kind_detail":"primary","is_bicycle_related":true,"source":"openstreetmap.org","min_zoom":8.0,"shield_text":"09"},"arcs":[148]},{"type":"MultiLineString","properties":{"kind":"major_road","network":null,"sort_rank":380,"kind_detail":"primary","source":"openstreetmap.org","min_zoom":8.0,"shield_text":"625","ref":"D 625"},"arcs":[[149],[150],[151],[152],[153],[154],[155],[156],[157],[158],[159],[160],[161],[162],[163],[164],[165],[166],[167]]},{"type":"MultiLineString","properties":{"source":"openstreetmap.org","kind":"major_road","sort_rank":380,"kind_detail":"primary","ref":"D 117","min_zoom":8.0},"arcs":[[168],[169],[170]]},{"type":"LineString","properties":{"kind":"major_road","sort_rank":380,"landuse_kind":"protected_area","source":"openstreetmap.org","min_zoom":8.0,"kind_detail":"primary","ref":"D618","id":374539669},"arcs":[171]},{"type":"LineString","properties":{"kind":"major_road","sort_rank":377,"kind_detail":"tertiary","is_bicycle_related":true,"bicycle_shield_text":"EV8","bicycle_network":"icn","source":"openstreetmap.org","min_zoom":8.0,"ref":"D 13c"},"arcs":[172]},{"type":"MultiLineString","properties":{"kind":"major_road","network":"e-road","sort_rank":380,"kind_detail":"primary","source":"openstreetmap.org","min_zoom":8.0,"landuse_kind":"urban_area","shield_text":"09","ref":"N-152"},"arcs":[[173],[174],[175],[176],[177],[178],[179],[180],[181],[182],[183],[184],[185]]},{"type":"MultiLineString","properties":{"kind":"major_road","network":null,"sort_rank":380,"kind_detail":"primary","source":"openstreetmap.org","min_zoom":8.0,"shield_text":"919","ref":"D 919"},"arcs":[[186],[187],[188],[189],[190],[191],[192],[193],[194]]},{"type":"LineString","properties":{"kind":"major_road","network":null,"sort_rank":380,"kind_detail":"primary","bus_network":"Agglo","source":"openstreetmap.org","min_zoom":8.0,"bus_shield_text":"12","shield_text":"117","id":5116120},"arcs":[195]},{"type":"MultiLineString","properties":{"kind":"major_road","network":null,"sort_rank":381,"landuse_kind":"urban_area","source":"openstreetmap.org","min_zoom":8.0,"kind_detail":"trunk","shield_text":"16","ref":"C-16"},"arcs":[[196],[197]]},{"type":"LineString","properties":{"kind":"major_road","sort_rank":380,"kind_detail":"primary","is_bicycle_related":true,"bicycle_network":"ncn","source":"openstreetmap.org","min_zoom":8.0,"landuse_kind":"protected_area","ref":"N 116","id":95571217},"arcs":[198]},{"type":"LineString","properties":{"kind":"major_road","sort_rank":380,"kind_detail":"primary","is_bicycle_related":true,"bicycle_shield_text":null,"bicycle_network":"rcn","source":"openstreetmap.org","min_zoom":8.0,"landuse_kind":"urban_area","id":281136225},"arcs":[199]},{"type":"LineString","properties":{"kind":"major_road","sort_rank":377,"kind_detail":"tertiary","is_bicycle_related":true,"bicycle_network":"ncn","source":"openstreetmap.org","min_zoom":8.0,"landuse_kind":"protected_area","ref":"D 60","id":206389390},"arcs":[200]},{"type":"MultiLineString","properties":{"kind":"major_road","network":null,"sort_rank":380,"kind_detail":"primary","source":"openstreetmap.org","min_zoom":8.0,"landuse_kind":"urban_area","shield_text":"260","ref":"N-260"},"arcs":[[201],[202],[203],[204],[205],[206],[207],[208],[209],[210],[211],[212],[213],[214],[215],[216],[217],[218],[219],[220],[221],[222],[223],[224],[225],[226],[227],[228],[229],[230],[231],[232],[233],[234],[235],[236],[237],[238],[239],[240],[241],[242],[243],[244],[245],[246],[247],[248],[249],[250],[251],[252],[253],[254],[255],[256],[257],[258],[259],[260],[261]]},{"type":"MultiLineString","properties":{"kind":"path","sort_rank":354,"kind_detail":"track","is_bicycle_related":true,"bicycle_shield_text":"V81","bicycle_network":"ncn","source":"openstreetmap.org","min_zoom":8.0},"arcs":[[262],[263]]},{"type":"MultiLineString","properties":{"source":"openstreetmap.org","kind":"major_road","sort_rank":380,"kind_detail":"primary","ref":"D 612","min_zoom":8.0},"arcs":[[264],[265],[266],[267]]},{"type":"LineString","properties":{"kind":"major_road","sort_rank":380,"landuse_kind":"urban_area","source":"openstreetmap.org","min_zoom":8.0,"kind_detail":"primary","ref":"C-16","id":15077401},"arcs":[268]},{"type":"MultiLineString","properties":{"kind":"path","sort_rank":354,"landuse_kind":"protected_area","is_bicycle_related":true,"bicycle_shield_text":"V81","bicycle_network":"ncn","source":"openstreetmap.org","min_zoom":8.0,"kind_detail":"path"},"arcs":[[269],[270],[271]]},{"type":"LineString","properties":{"kind":"path","sort_rank":354,"kind_detail":"cycleway","is_bicycle_related":true,"bicycle_shield_text":"EV8","bicycle_network":"icn","source":"openstreetmap.org","min_zoom":8.0,"landuse_kind":"urban_area","id":186611948},"arcs":[272]},{"type":"LineString","properties":{"kind":"major_road","sort_rank":381,"landuse_kind":"urban_area","is_bicycle_related":true,"source":"openstreetmap.org","min_zoom":8.0,"kind_detail":"trunk","ref":"N-145"},"arcs":[273]},{"type":"MultiLineString","properties":{"source":"openstreetmap.org","kind":"major_road","ref":"N-145","sort_rank":380,"kind_detail":"primary","is_bicycle_related":true,"min_zoom":8.0},"arcs":[[274],[275]]},{"type":"MultiLineString","properties":{"kind":"major_road","sort_rank":377,"landuse_kind":"nature_reserve","is_bicycle_related":true,"bicycle_network":"ncn","source":"openstreetmap.org","min_zoom":8.0,"kind_detail":"tertiary","ref":"D 6"},"arcs":[[276],[277],[278],[279],[280],[281]]},{"type":"LineString","properties":{"source":"openstreetmap.org","kind":"major_road","sort_rank":380,"kind_detail":"primary","ref":"CG-3i4","min_zoom":8.0},"arcs":[282]},{"type":"MultiLineString","properties":{"source":"openstreetmap.org","kind":"major_road","ref":"CG-2","sort_rank":380,"kind_detail":"primary","is_bicycle_related":true,"min_zoom":8.0},"arcs":[[283],[284],[285],[286],[287],[288],[289],[290],[291],[292],[293],[294],[295],[296],[297],[298],[299],[300],[301],[302],[303],[304],[305],[306],[307],[308],[309],[310],[311],[312],[313],[314],[315],[316],[317],[318],[319],[320],[321],[322],[323],[324],[325],[326],[327],[328],[329],[330],[331],[332],[333],[334],[335],[336],[337],[338],[339],[340],[341],[342],[343],[344],[345],[346],[347]]},{"type":"MultiLineString","properties":{"source":"openstreetmap.org","kind":"minor_road","sort_rank":360,"kind_detail":"unclassified","is_bicycle_related":true,"min_zoom":8.0,"bicycle_network":"ncn"},"arcs":[[348],[349],[350]]},{"type":"MultiLineString","properties":{"source":"openstreetmap.org","kind":"major_road","landuse_kind":"protected_area","sort_rank":380,"kind_detail":"primary","ref":"CG-2","min_zoom":8.0},"arcs":[[351],[352],[353],[354],[355],[356]]},{"type":"LineString","properties":{"source":"openstreetmap.org","kind":"major_road","landuse_kind":"urban_area","sort_rank":380,"kind_detail":"primary","is_bicycle_related":true,"min_zoom":8.0},"arcs":[357]},{"type":"MultiLineString","properties":{"source":"openstreetmap.org","kind":"major_road","landuse_kind":"urban_area","sort_rank":380,"kind_detail":"primary","ref":"C-153","min_zoom":8.0},"arcs":[[358],[359],[360]]},{"type":"MultiLineString","properties":{"source":"openstreetmap.org","kind":"major_road","landuse_kind":"nature_reserve","sort_rank":380,"kind_detail":"primary","ref":"C-63","min_zoom":8.0},"arcs":[[361],[362]]},{"type":"LineString","properties":{"kind":"major_road","network":null,"sort_rank":380,"kind_detail":"primary","is_bicycle_related":true,"bicycle_shield_text":null,"bicycle_network":"rcn","source":"openstreetmap.org","min_zoom":8.0,"landuse_kind":"urban_area","shield_text":"260","ref":"N-260"},"arcs":[363]},{"type":"MultiLineString","properties":{"source":"openstreetmap.org","kind":"major_road","sort_rank":380,"kind_detail":"primary","ref":"C-63","min_zoom":8.0},"arcs":[[364],[365],[366],[367],[368],[369]]},{"type":"MultiLineString","properties":{"source":"openstreetmap.org","kind":"major_road","network":null,"sort_rank":380,"kind_detail":"primary","min_zoom":8.0,"shield_text":"919"},"arcs":[[370],[371]]},{"type":"MultiLineString","properties":{"kind":"major_road","network":null,"sort_rank":380,"kind_detail":"primary","source":"openstreetmap.org","min_zoom":8.0,"landuse_kind":"protected_area","shield_text":"320","ref":"N 320"},"arcs":[[372],[373],[374],[375],[376]]},{"type":"MultiLineString","properties":{"source":"openstreetmap.org","kind":"major_road","landuse_kind":"protected_area","sort_rank":380,"kind_detail":"primary","min_zoom":8.0},"arcs":[[377],[378],[379],[380],[381],[382],[383],[384],[385],[386],[387],[388],[389],[390],[391]]},{"type":"MultiLineString","properties":{"source":"openstreetmap.org","kind":"major_road","landuse_kind":"urban_area","sort_rank":380,"kind_detail":"primary","ref":"N-154","min_zoom":8.0},"arcs":[[392],[393],[394],[395],[396],[397],[398]]},{"type":"LineString","properties":{"kind":"major_road","network":null,"sort_rank":381,"kind_detail":"trunk","source":"openstreetmap.org","min_zoom":8.0,"shield_text":"16","ref":"C-16","id":154070433},"arcs":[399]},{"type":"LineString","properties":{"kind":"minor_road","sort_rank":360,"kind_detail":"unclassified","is_bicycle_related":true,"bicycle_shield_text":"EV8","bicycle_network":"icn","source":"openstreetmap.org","min_zoom":8.0,"id":48807769},"arcs":[400]},{"type":"MultiLineString","properties":{"bus_network":null,"sort_rank":381,"landuse_kind":"urban_area","kind":"major_road","source":"openstreetmap.org","min_zoom":8.0,"bus_shield_text":"106","kind_detail":"trunk","ref":"C-66"},"arcs":[[401],[402],[403]]},{"type":"MultiLineString","properties":{"kind":"major_road","network":"e-road","sort_rank":380,"kind_detail":"primary","source":"openstreetmap.org","min_zoom":8.0,"landuse_kind":"protected_area","shield_text":"09","ref":"N 116"},"arcs":[[404],[405],[406]]},{"type":"MultiLineString","properties":{"kind":"major_road","network":null,"sort_rank":380,"kind_detail":"primary","source":"openstreetmap.org","min_zoom":8.0,"shield_text":"260","ref":"N-260"},"arcs":[[407],[408],[409],[410],[411],[412],[413],[414],[415],[416],[417],[418],[419],[420],[421],[422],[423],[424],[425],[426],[427],[428],[429],[430],[431],[432],[433],[434],[435],[436],[437],[438],[439],[440],[441],[442],[443],[444],[445],[446],[447],[448]]},{"type":"MultiLineString","properties":{"source":"openstreetmap.org","kind":"major_road","sort_rank":380,"kind_detail":"primary","ref":"N-145","min_zoom":8.0},"arcs":[[449],[450]]},{"type":"MultiLineString","properties":{"source":"openstreetmap.org","kind":"major_road","sort_rank":380,"kind_detail":"primary","ref":"C-62","min_zoom":8.0},"arcs":[[451],[452],[453],[454],[455],[456],[457],[458],[459]]},{"type":"MultiLineString","properties":{"kind":"major_road","network":null,"sort_rank":380,"kind_detail":"primary","source":"openstreetmap.org","min_zoom":8.0,"shield_text":"17","ref":"C-17"},"arcs":[[460],[461],[462],[463],[464],[465],[466],[467],[468],[469],[470],[471],[472],[473],[474],[475]]},{"type":"MultiLineString","properties":{"kind":"highway","network":"e-road","sort_rank":383,"landuse_kind":"urban_area","source":"openstreetmap.org","min_zoom":8.0,"all_networks":["e-road",null],"kind_detail":"motorway","shield_text":"09","ref":"C-16","all_shield_texts":["09","16"]},"arcs":[[476],[477],[478],[479]]},{"type":"MultiLineString","properties":{"kind":"major_road","network":null,"sort_rank":379,"kind_detail":"secondary","is_bicycle_related":true,"bicycle_shield_text":"V81","bicycle_network":"ncn","source":"openstreetmap.org","min_zoom":8.0,"shield_text":"12","ref":"D 12"},"arcs":[[480],[481]]},{"type":"MultiLineString","properties":{"source":"openstreetmap.org","kind":"major_road","landuse_kind":"protected_area","sort_rank":380,"kind_detail":"primary","ref":"D 10f","min_zoom":8.0},"arcs":[[482],[483],[484]]},{"type":"LineString","properties":{"kind":"major_road","network":null,"sort_rank":380,"kind_detail":"primary","source":"openstreetmap.org","min_zoom":8.0,"landuse_kind":"urban_area","shield_text":"17","ref":"C-17"},"arcs":[485]},{"type":"LineString","properties":{"kind":"path","sort_rank":354,"kind_detail":"cycleway","is_bicycle_related":true,"bicycle_shield_text":"EV8","bicycle_network":"icn","source":"openstreetmap.org","min_zoom":8.0,"id":186611948},"arcs":[486]},{"type":"MultiLineString","properties":{"kind":"minor_road","sort_rank":358,"kind_detail":"service","is_bicycle_related":true,"bicycle_shield_text":"V81","bicycle_network":"ncn","source":"openstreetmap.org","min_zoom":8.0},"arcs":[[487],[488]]},{"type":"MultiLineString","properties":{"kind":"major_road","sort_rank":380,"kind_detail":"primary","is_bicycle_related":true,"bicycle_shield_text":null,"bicycle_network":"rcn","source":"openstreetmap.org","min_zoom":8.0,"ref":"C-38"},"arcs":[[489],[490],[491],[492],[493],[494],[495]]},{"type":"MultiLineString","properties":{"kind":"major_road","sort_rank":380,"kind_detail":"primary","source":"openstreetmap.org","min_zoom":8.0,"landuse_kind":"urban_area","ref":"D 612","name:ca":"Cami de Tu\u00efr"},"arcs":[[496],[497],[498],[499],[500],[501]]},{"type":"LineString","properties":{"kind":"major_road","network":"ES:A-road","sort_rank":380,"kind_detail":"primary","source":"openstreetmap.org","min_zoom":8.0,"landuse_kind":"nature_reserve","shield_text":"26","ref":"A-26"},"arcs":[502]},{"type":"LineString","properties":{"kind":"major_road","network":null,"sort_rank":380,"kind_detail":"primary","is_bicycle_related":true,"bicycle_shield_text":null,"bicycle_network":"rcn","source":"openstreetmap.org","min_zoom":8.0,"shield_text":"260","ref":"N-260"},"arcs":[503]},{"type":"MultiLineString","properties":{"kind":"major_road","sort_rank":379,"kind_detail":"secondary","is_bicycle_related":true,"bicycle_shield_text":"V81","bicycle_network":"ncn","source":"openstreetmap.org","min_zoom":8.0,"ref":"D 14"},"arcs":[[504],[505]]},{"type":"MultiLineString","properties":{"bus_network":null,"sort_rank":380,"kind_detail":"primary","kind":"major_road","source":"openstreetmap.org","min_zoom":8.0,"bus_shield_text":"390","landuse_kind":"urban_area","ref":"D 612"},"arcs":[[506],[507],[508],[509],[510],[511],[512],[513],[514],[515]]},{"type":"MultiLineString","properties":{"kind":"major_road","network":"e-road","sort_rank":381,"kind_detail":"trunk","source":"openstreetmap.org","min_zoom":8.0,"shield_text":"09","ref":"C-16"},"arcs":[[516],[517],[518],[519],[520]]},{"type":"MultiLineString","properties":{"source":"openstreetmap.org","kind":"minor_road","sort_rank":358,"kind_detail":"service","is_bicycle_related":true,"min_zoom":8.0,"bicycle_network":"ncn"},"arcs":[[521],[522]]},{"type":"LineString","properties":{"kind":"major_road","sort_rank":380,"landuse_kind":"urban_area","source":"openstreetmap.org","min_zoom":8.0,"kind_detail":"primary","ref":"GI-524","id":24376305},"arcs":[523]},{"type":"MultiLineString","properties":{"kind":"major_road","sort_rank":377,"landuse_kind":"protected_area","is_bicycle_related":true,"bicycle_network":"ncn","source":"openstreetmap.org","min_zoom":8.0,"kind_detail":"tertiary","ref":"D 10c"},"arcs":[[524],[525],[526]]},{"type":"MultiLineString","properties":{"kind":"major_road","sort_rank":379,"kind_detail":"secondary","is_bicycle_related":true,"bicycle_shield_text":"EV8","bicycle_network":"icn","source":"openstreetmap.org","min_zoom":8.0,"ref":"D 618"},"arcs":[[527],[528]]},{"type":"MultiLineString","properties":{"source":"openstreetmap.org","kind":"major_road","landuse_kind":"urban_area","sort_rank":380,"kind_detail":"primary","ref":"D 115","min_zoom":8.0},"arcs":[[529],[530],[531],[532],[533],[534],[535],[536],[537],[538],[539],[540],[541],[542],[543],[544],[545],[546],[547],[548],[549],[550],[551],[552],[553],[554],[555],[556],[557],[558],[559],[560],[561],[562],[563],[564],[565],[566],[567],[568],[569],[570],[571]]},{"type":"LineString","properties":{"kind":"minor_road","sort_rank":360,"kind_detail":"residential","is_bicycle_related":true,"bicycle_shield_text":"V81","bicycle_network":"ncn","source":"openstreetmap.org","min_zoom":8.0,"id":287014870},"arcs":[572]},{"type":"MultiLineString","properties":{"source":"openstreetmap.org","kind":"major_road","sort_rank":380,"kind_detail":"primary","ref":"N 22","min_zoom":8.0},"arcs":[[573],[574],[575]]},{"type":"MultiLineString","properties":{"source":"openstreetmap.org","kind":"major_road","kind_detail":"trunk","sort_rank":381,"landuse_kind":"urban_area","ref":"C-66","min_zoom":8.0},"arcs":[[576],[577]]},{"type":"MultiLineString","properties":{"kind":"major_road","sort_rank":380,"kind_detail":"primary","is_bicycle_related":true,"source":"openstreetmap.org","min_zoom":8.0,"landuse_kind":"urban_area","ref":"CG-2"},"arcs":[[578],[579],[580],[581],[582],[583],[584],[585],[586],[587],[588],[589],[590],[591],[592]]},{"type":"MultiLineString","properties":{"kind":"major_road","network":null,"sort_rank":380,"kind_detail":"primary","bus_network":"Navettes Urbaines Foix","source":"openstreetmap.org","min_zoom":8.0,"bus_shield_text":"3","shield_text":"117","ref":"D 117"},"arcs":[[593],[594]]},{"type":"MultiLineString","properties":{"source":"openstreetmap.org","kind":"major_road","landuse_kind":"urban_area","sort_rank":380,"kind_detail":"primary","ref":"C-66","min_zoom":8.0},"arcs":[[595],[596],[597]]},{"type":"LineString","properties":{"bus_network":"Bus Ari\u00e8ge","sort_rank":380,"kind_detail":"primary","kind":"major_road","source":"openstreetmap.org","min_zoom":8.0,"bus_shield_text":"104","landuse_kind":"protected_area","ref":"D 117"},"arcs":[598]},{"type":"MultiLineString","properties":{"source":"openstreetmap.org","kind":"major_road","ref":"CG-1","sort_rank":380,"kind_detail":"primary","is_bicycle_related":true,"min_zoom":8.0},"arcs":[[599],[600],[601],[602],[603],[604],[605],[606],[607],[608],[609],[610],[611],[612],[613],[614],[615],[616],[617],[618],[619],[620],[621],[622],[623],[624],[625],[626],[627],[628],[629],[630],[631],[632]]},{"type":"MultiLineString","properties":{"bus_network":"Agglo","network":null,"sort_rank":380,"kind_detail":"primary","kind":"major_road","source":"openstreetmap.org","min_zoom":8.0,"bus_shield_text":"12","shield_text":"117","ref":"D 117"},"arcs":[[633],[634],[635],[636],[637],[638],[639],[640]]},{"type":"MultiLineString","properties":{"source":"openstreetmap.org","kind":"major_road","sort_rank":380,"kind_detail":"primary","ref":"CG-5","min_zoom":8.0},"arcs":[[641],[642],[643]]},{"type":"MultiLineString","properties":{"source":"openstreetmap.org","kind":"major_road","sort_rank":380,"kind_detail":"primary","ref":"CG3a","min_zoom":8.0},"arcs":[[644],[645]]},{"type":"LineString","properties":{"kind":"major_road","sort_rank":380,"kind_detail":"primary","is_bicycle_related":true,"source":"openstreetmap.org","min_zoom":8.0,"ref":"CG3a","id":173167308},"arcs":[646]},{"type":"LineString","properties":{"source":"openstreetmap.org","kind":"major_road","sort_rank":380,"kind_detail":"primary","ref":"C-154","min_zoom":8.0},"arcs":[647]},{"type":"LineString","properties":{"kind":"minor_road","sort_rank":360,"landuse_kind":"protected_area","is_bicycle_related":true,"bicycle_shield_text":"V81","bicycle_network":"ncn","source":"openstreetmap.org","min_zoom":8.0,"kind_detail":"unclassified"},"arcs":[648]},{"type":"LineString","properties":{"kind":"major_road","network":"e-road","sort_rank":380,"kind_detail":"primary","is_bicycle_related":true,"bicycle_network":"ncn","source":"openstreetmap.org","min_zoom":8.0,"shield_text":"09","ref":"N 20","id":130575014},"arcs":[649]},{"type":"LineString","properties":{"kind":"major_road","sort_rank":379,"kind_detail":"secondary","is_bicycle_related":true,"bicycle_shield_text":"V81","bicycle_network":"ncn","source":"openstreetmap.org","min_zoom":8.0,"id":109074772},"arcs":[650]},{"type":"LineString","properties":{"source":"openstreetmap.org","kind":"major_road","sort_rank":380,"kind_detail":"primary","ref":"CG-3a","min_zoom":8.0,"id":208585090},"arcs":[651]},{"type":"MultiLineString","properties":{"source":"openstreetmap.org","kind":"minor_road","sort_rank":360,"kind_detail":"residential","is_bicycle_related":true,"min_zoom":8.0,"bicycle_network":"ncn"},"arcs":[[652],[653]]},{"type":"MultiLineString","properties":{"kind":"major_road","network":"e-road","sort_rank":380,"kind_detail":"primary","source":"openstreetmap.org","min_zoom":8.0,"landuse_kind":"protected_area","shield_text":"09","ref":"N 20"},"arcs":[[654],[655],[656],[657],[658]]},{"type":"MultiLineString","properties":{"source":"openstreetmap.org","kind":"major_road","landuse_kind":"protected_area","sort_rank":380,"kind_detail":"primary","ref":"D 118","min_zoom":8.0},"arcs":[[659],[660],[661],[662],[663],[664],[665],[666],[667],[668],[669],[670],[671],[672],[673],[674]]},{"type":"MultiLineString","properties":{"source":"openstreetmap.org","kind":"path","sort_rank":354,"kind_detail":"path","is_bicycle_related":true,"min_zoom":8.0,"bicycle_network":"ncn"},"arcs":[[675],[676],[677],[678]]},{"type":"LineString","properties":{"kind":"major_road","name:en":"Cad\u00ed Tunnel","network":"e-road","sort_rank":381,"kind_detail":"trunk","source":"openstreetmap.org","min_zoom":8.0,"landuse_kind":"nature_reserve","shield_text":"09","ref":"C-16","id":14603600},"arcs":[679]},{"type":"MultiLineString","properties":{"kind":"path","sort_rank":354,"landuse_kind":"protected_area","is_bicycle_related":true,"bicycle_network":"ncn","source":"openstreetmap.org","min_zoom":8.0,"kind_detail":"track"},"arcs":[[680],[681],[682],[683],[684],[685],[686],[687],[688],[689],[690],[691],[692],[693],[694],[695],[696]]},{"type":"LineString","properties":{"kind":"major_road","network":null,"sort_rank":380,"kind_detail":"primary","source":"openstreetmap.org","min_zoom":8.0,"shield_text":"117C1","id":30342099},"arcs":[697]},{"type":"MultiLineString","properties":{"kind":"minor_road","sort_rank":360,"landuse_kind":"protected_area","is_bicycle_related":true,"bicycle_network":"ncn","source":"openstreetmap.org","min_zoom":8.0,"kind_detail":"residential"},"arcs":[[698],[699],[700],[701]]},{"type":"MultiLineString","properties":{"source":"openstreetmap.org","kind":"major_road","network":null,"sort_rank":380,"kind_detail":"primary","min_zoom":8.0,"shield_text":"117"},"arcs":[[702],[703],[704],[705],[706],[707],[708],[709],[710]]},{"type":"LineString","properties":{"kind":"major_road","network":null,"sort_rank":381,"landuse_kind":"urban_area","source":"openstreetmap.org","min_zoom":8.0,"kind_detail":"trunk","shield_text":"15;C-37","ref":"C-37"},"arcs":[711]},{"type":"MultiLineString","properties":{"source":"openstreetmap.org","kind":"major_road","sort_rank":380,"kind_detail":"primary","ref":"D 916","min_zoom":8.0},"arcs":[[712],[713],[714],[715],[716],[717]]},{"type":"LineString","properties":{"kind":"major_road","sort_rank":377,"kind_detail":"tertiary","is_bicycle_related":true,"bicycle_shield_text":"EV8","bicycle_network":"icn","source":"openstreetmap.org","min_zoom":8.0,"ref":"D 13"},"arcs":[718]},{"type":"LineString","properties":{"kind":"major_road","network":"e-road","sort_rank":380,"kind_detail":"primary","source":"openstreetmap.org","min_zoom":8.0,"shield_text":"09","ref":"N 20","id":5229595,"name:ca":"T\u00fanel del Pimorent"},"arcs":[719]},{"type":"MultiLineString","properties":{"source":"openstreetmap.org","kind":"major_road","landuse_kind":"urban_area","sort_rank":380,"kind_detail":"primary","ref":"N-152","min_zoom":8.0},"arcs":[[720],[721]]},{"type":"LineString","properties":{"source":"openstreetmap.org","kind":"major_road","landuse_kind":"urban_area","sort_rank":380,"kind_detail":"primary","ref":"C-16F","min_zoom":8.0},"arcs":[722]},{"type":"MultiLineString","properties":{"source":"openstreetmap.org","kind":"major_road","landuse_kind":"urban_area","sort_rank":380,"kind_detail":"primary","ref":"N 116","min_zoom":8.0},"arcs":[[723],[724],[725],[726],[727],[728],[729],[730],[731],[732],[733],[734],[735],[736],[737],[738],[739],[740],[741],[742],[743],[744],[745],[746]]},{"type":"MultiLineString","properties":{"bus_network":null,"sort_rank":380,"kind_detail":"primary","kind":"major_road","source":"openstreetmap.org","min_zoom":8.0,"bus_shield_text":"390","landuse_kind":"urban_area"},"arcs":[[747],[748],[749],[750],[751],[752],[753],[754],[755],[756]]},{"type":"LineString","properties":{"kind":"major_road","network":null,"sort_rank":380,"kind_detail":"primary","source":"openstreetmap.org","min_zoom":8.0,"landuse_kind":"urban_area","shield_text":"118"},"arcs":[757]},{"type":"MultiLineString","properties":{"source":"openstreetmap.org","kind":"major_road","landuse_kind":"protected_area","sort_rank":380,"kind_detail":"primary","ref":"D 618","min_zoom":8.0},"arcs":[[758],[759],[760],[761],[762],[763],[764],[765],[766],[767],[768],[769],[770],[771],[772],[773],[774],[775],[776],[777],[778],[779],[780],[781],[782],[783],[784],[785],[786],[787],[788],[789],[790],[791],[792],[793],[794],[795],[796],[797],[798],[799],[800],[801],[802],[803],[804],[805],[806],[807]]},{"type":"MultiLineString","properties":{"kind":"major_road","sort_rank":380,"kind_detail":"primary","is_bicycle_related":true,"bicycle_shield_text":null,"bicycle_network":"rcn","source":"openstreetmap.org","min_zoom":8.0},"arcs":[[808],[809]]},{"type":"MultiLineString","properties":{"kind":"major_road","network":"e-road","sort_rank":380,"kind_detail":"primary","source":"openstreetmap.org","min_zoom":8.0,"landuse_kind":"protected_area","shield_text":"09"},"arcs":[[810],[811],[812],[813]]},{"type":"MultiLineString","properties":{"source":"openstreetmap.org","kind":"major_road","sort_rank":380,"kind_detail":"primary","ref":"C-152","min_zoom":8.0},"arcs":[[814],[815],[816],[817],[818],[819],[820]]},{"type":"MultiLineString","properties":{"source":"openstreetmap.org","kind":"major_road","sort_rank":380,"kind_detail":"primary","ref":"CG-2","min_zoom":8.0},"arcs":[[821],[822],[823],[824],[825],[826],[827],[828],[829],[830],[831],[832],[833],[834],[835],[836],[837],[838],[839],[840],[841],[842]]},{"type":"MultiLineString","properties":{"kind":"highway","network":"e-road","sort_rank":383,"kind_detail":"motorway","source":"openstreetmap.org","min_zoom":8.0,"all_networks":["e-road",null],"shield_text":"09","ref":"C-16","all_shield_texts":["09","16"]},"arcs":[[843],[844],[845],[846]]},{"type":"MultiLineString","properties":{"kind":"major_road","network":"e-road","sort_rank":380,"kind_detail":"primary","source":"openstreetmap.org","min_zoom":8.0,"shield_text":"09","ref":"N 20"},"arcs":[[847],[848],[849],[850],[851],[852],[853],[854],[855],[856],[857],[858],[859],[860],[861],[862],[863]]},{"type":"LineString","properties":{"kind":"major_road","network":null,"sort_rank":380,"kind_detail":"primary","source":"openstreetmap.org","min_zoom":8.0,"landuse_kind":"protected_area","shield_text":"117","ref":"D 117"},"arcs":[864]},{"type":"MultiLineString","properties":{"kind":"major_road","network":null,"sort_rank":380,"kind_detail":"primary","source":"openstreetmap.org","min_zoom":8.0,"shield_text":"117","ref":"D 117"},"arcs":[[865],[866],[867],[868],[869],[870],[871],[872],[873],[874],[875],[876],[877],[878],[879],[880],[881],[882],[883],[884],[885],[886],[887],[888],[889],[890],[891],[892],[893],[894],[895],[896],[897],[898],[899],[900],[901],[902],[903],[904],[905],[906],[907],[908],[909],[910],[911],[912],[913],[914]]},{"type":"MultiLineString","properties":{"source":"openstreetmap.org","kind":"major_road","landuse_kind":"urban_area","sort_rank":380,"kind_detail":"primary","ref":"N-260","min_zoom":8.0},"arcs":[[915],[916]]},{"type":"LineString","properties":{"kind":"major_road","sort_rank":379,"kind_detail":"secondary","is_bicycle_related":true,"bicycle_shield_text":"V81","bicycle_network":"ncn","source":"openstreetmap.org","min_zoom":8.0,"ref":"D 10"},"arcs":[917]},{"type":"MultiLineString","properties":{"kind":"major_road","sort_rank":380,"kind_detail":"primary","is_bicycle_related":true,"bicycle_shield_text":null,"bicycle_network":"rcn","source":"openstreetmap.org","min_zoom":8.0,"ref":"D 115"},"arcs":[[918],[919],[920],[921],[922]]},{"type":"LineString","properties":{"kind":"major_road","network":null,"sort_rank":380,"kind_detail":"primary","is_bicycle_related":true,"bicycle_shield_text":"4","bicycle_network":"lcn","source":"openstreetmap.org","min_zoom":8.0,"shield_text":"117","ref":"D 117"},"arcs":[923]},{"type":"MultiLineString","properties":{"kind":"major_road","network":"e-road","sort_rank":380,"kind_detail":"primary","source":"openstreetmap.org","min_zoom":8.0,"landuse_kind":"urban_area","shield_text":"09","ref":"C-16"},"arcs":[[924],[925],[926],[927],[928],[929],[930],[931],[932]]},{"type":"LineString","properties":{"kind":"minor_road","sort_rank":358,"kind_detail":"service","is_bicycle_related":true,"bicycle_network":"ncn","source":"openstreetmap.org","min_zoom":8.0,"landuse_kind":"protected_area","id":369020632},"arcs":[933]},{"type":"MultiLineString","properties":{"source":"openstreetmap.org","kind":"major_road","sort_rank":380,"kind_detail":"primary","ref":"C-38","min_zoom":8.0},"arcs":[[934],[935],[936],[937],[938],[939],[940],[941],[942],[943],[944],[945],[946],[947],[948],[949],[950],[951],[952],[953],[954],[955],[956]]},{"type":"MultiLineString","properties":{"kind":"major_road","network":null,"sort_rank":380,"kind_detail":"primary","bus_network":"Navettes Urbaines Foix","source":"openstreetmap.org","min_zoom":8.0,"bus_shield_text":"3","shield_text":"117"},"arcs":[[957],[958]]},{"type":"LineString","properties":{"kind":"major_road","sort_rank":379,"kind_detail":"secondary","is_bicycle_related":true,"bicycle_shield_text":"V81","bicycle_network":"ncn","source":"openstreetmap.org","min_zoom":8.0,"ref":"D 16","id":33837452},"arcs":[959]},{"type":"MultiLineString","properties":{"kind":"major_road","network":null,"sort_rank":380,"kind_detail":"primary","bus_network":"Navettes Urbaines Foix","source":"openstreetmap.org","min_zoom":8.0,"bus_shield_text":"5","shield_text":"117","ref":"D 117"},"arcs":[[960],[961],[962],[963],[964],[965],[966],[967],[968],[969],[970],[971],[972],[973],[974]]},{"type":"MultiLineString","properties":{"kind":"major_road","network":null,"sort_rank":380,"kind_detail":"primary","is_bicycle_related":true,"cycleway":"lane","source":"openstreetmap.org","min_zoom":8.0,"landuse_kind":"urban_area","shield_text":"118","ref":"D 118"},"arcs":[[975],[976],[977]]},{"type":"MultiLineString","properties":{"source":"openstreetmap.org","kind":"major_road","sort_rank":380,"kind_detail":"primary","is_bicycle_related":true,"min_zoom":8.0},"arcs":[[978],[979],[980],[981],[982],[983],[984],[985],[986],[987]]},{"type":"MultiLineString","properties":{"source":"openstreetmap.org","kind":"major_road","landuse_kind":"nature_reserve","sort_rank":380,"kind_detail":"primary","min_zoom":8.0},"arcs":[[988],[989],[990],[991],[992],[993],[994],[995],[996],[997],[998],[999],[1000],[1001],[1002],[1003],[1004],[1005],[1006],[1007],[1008],[1009],[1010],[1011],[1012],[1013],[1014],[1015]]},{"type":"MultiLineString","properties":{"source":"openstreetmap.org","kind":"major_road","landuse_kind":"protected_area","sort_rank":380,"kind_detail":"primary","ref":"D 68","min_zoom":8.0},"arcs":[[1016],[1017],[1018],[1019],[1020],[1021]]},{"type":"LineString","properties":{"kind":"major_road","name:en":"Cad\u00ed Tunnel","network":"e-road","sort_rank":381,"kind_detail":"trunk","source":"openstreetmap.org","min_zoom":8.0,"shield_text":"09","ref":"C-16","id":14603600},"arcs":[1022]},{"type":"MultiLineString","properties":{"kind":"major_road","network":"e-road","sort_rank":380,"kind_detail":"primary","source":"openstreetmap.org","min_zoom":8.0,"landuse_kind":"urban_area","shield_text":"09","ref":"C-162"},"arcs":[[1023],[1024],[1025]]},{"type":"MultiLineString","properties":{"source":"openstreetmap.org","kind":"major_road","landuse_kind":"nature_reserve","sort_rank":380,"kind_detail":"primary","ref":"N-260","min_zoom":8.0},"arcs":[[1026],[1027],[1028]]},{"type":"MultiLineString","properties":{"source":"openstreetmap.org","kind":"major_road","sort_rank":380,"kind_detail":"primary","ref":"D 115","min_zoom":8.0},"arcs":[[1029],[1030],[1031],[1032],[1033],[1034],[1035],[1036],[1037],[1038],[1039],[1040],[1041],[1042],[1043],[1044],[1045],[1046],[1047],[1048],[1049],[1050],[1051],[1052],[1053]]},{"type":"LineString","properties":{"kind":"major_road","sort_rank":377,"kind_detail":"tertiary","is_bicycle_related":true,"bicycle_network":"ncn","source":"openstreetmap.org","min_zoom":8.0,"landuse_kind":"protected_area","id":369253070},"arcs":[1054]},{"type":"LineString","properties":{"kind":"major_road","sort_rank":377,"kind_detail":"tertiary","is_bicycle_related":true,"bicycle_shield_text":"EV8","bicycle_network":"icn","source":"openstreetmap.org","min_zoom":8.0,"ref":"D 13a"},"arcs":[1055]},{"type":"MultiLineString","properties":{"bus_network":"Bus Ari\u00e8ge","network":null,"sort_rank":380,"landuse_kind":"protected_area","kind":"major_road","source":"openstreetmap.org","min_zoom":8.0,"bus_shield_text":"104","shield_text":"117","kind_detail":"primary","ref":"D 117"},"arcs":[[1056],[1057],[1058],[1059],[1060],[1061],[1062],[1063],[1064],[1065],[1066],[1067],[1068]]},{"type":"LineString","properties":{"kind":"major_road","network":"e-road","sort_rank":380,"kind_detail":"primary","source":"openstreetmap.org","min_zoom":8.0,"landuse_kind":"protected_area","shield_text":"09","ref":"N 20","id":5229595,"name:ca":"T\u00fanel del Pimorent"},"arcs":[1069]},{"type":"MultiLineString","properties":{"kind":"major_road","network":null,"sort_rank":380,"kind_detail":"primary","is_bicycle_related":true,"source":"openstreetmap.org","min_zoom":8.0,"landuse_kind":"urban_area","shield_text":"260","ref":"N-260"},"arcs":[[1070],[1071]]},{"type":"MultiLineString","properties":{"source":"openstreetmap.org","kind":"major_road","sort_rank":380,"kind_detail":"primary","ref":"D 615","min_zoom":8.0},"arcs":[[1072],[1073],[1074],[1075],[1076],[1077],[1078]]},{"type":"MultiLineString","properties":{"sort_rank":381,"source":"openstreetmap.org","min_zoom":8.0,"kind":"major_road","kind_detail":"trunk"},"arcs":[[1079],[1080],[1081]]},{"type":"MultiLineString","properties":{"kind":"major_road","sort_rank":377,"landuse_kind":"protected_area","is_bicycle_related":true,"bicycle_network":"ncn","source":"openstreetmap.org","min_zoom":8.0,"kind_detail":"tertiary","ref":"D 32"},"arcs":[[1082],[1083]]},{"type":"MultiLineString","properties":{"source":"openstreetmap.org","kind":"major_road","network":null,"sort_rank":380,"kind_detail":"primary","min_zoom":8.0,"shield_text":"118"},"arcs":[[1084],[1085],[1086]]},{"type":"MultiLineString","properties":{"source":"openstreetmap.org","bus_network":"Perpignan - Corb\u00e8re","bus_shield_text":"220","sort_rank":380,"kind_detail":"primary","min_zoom":8.0,"kind":"major_road"},"arcs":[[1087],[1088],[1089]]},{"type":"MultiLineString","properties":{"kind":"major_road","network":null,"sort_rank":381,"kind_detail":"trunk","source":"openstreetmap.org","min_zoom":8.0,"shield_text":"260","ref":"N-260"},"arcs":[[1090],[1091]]},{"type":"LineString","properties":{"source":"openstreetmap.org","kind":"major_road","sort_rank":380,"kind_detail":"primary","ref":"CG3i4; CG-3","min_zoom":8.0,"id":6182542},"arcs":[1092]},{"type":"LineString","properties":{"kind":"major_road","sort_rank":380,"landuse_kind":"urban_area","source":"openstreetmap.org","min_zoom":8.0,"kind_detail":"primary","id":4988138,"name:ca":"Giratori de les Boixeres"},"arcs":[1093]},{"type":"MultiLineString","properties":{"kind":"major_road","network":null,"sort_rank":380,"kind_detail":"primary","bus_network":"Navettes Urbaines Foix","source":"openstreetmap.org","min_zoom":8.0,"bus_shield_text":"5","shield_text":"117"},"arcs":[[1094],[1095],[1096],[1097]]},{"type":"MultiLineString","properties":{"kind":"major_road","network":null,"sort_rank":380,"kind_detail":"primary","is_bicycle_related":true,"bicycle_shield_text":"5","bicycle_network":"lcn","source":"openstreetmap.org","min_zoom":8.0,"shield_text":"117","ref":"D 117"},"arcs":[[1098],[1099]]},{"type":"MultiLineString","properties":{"source":"openstreetmap.org","kind":"major_road","landuse_kind":"urban_area","sort_rank":380,"kind_detail":"primary","ref":"C-26","min_zoom":8.0},"arcs":[[1100],[1101],[1102],[1103],[1104],[1105],[1106],[1107],[1108],[1109],[1110],[1111],[1112],[1113],[1114],[1115],[1116],[1117],[1118],[1119],[1120],[1121],[1122]]},{"type":"LineString","properties":{"kind":"major_road","sort_rank":380,"landuse_kind":"protected_area","is_bicycle_related":true,"source":"openstreetmap.org","min_zoom":8.0,"kind_detail":"primary","id":19799719},"arcs":[1123]},{"type":"MultiLineString","properties":{"kind":"major_road","network":"e-road","sort_rank":381,"kind_detail":"trunk","source":"openstreetmap.org","min_zoom":8.0,"landuse_kind":"nature_reserve","shield_text":"09","ref":"C-16"},"arcs":[[1124],[1125]]},{"type":"MultiLineString","properties":{"kind":"highway","network":"ES:A-road","sort_rank":383,"landuse_kind":"urban_area","source":"openstreetmap.org","min_zoom":8.0,"all_networks":["ES:A-road"],"kind_detail":"motorway","shield_text":"26","ref":"A-26","all_shield_texts":["26"]},"arcs":[[1126],[1127]]},{"type":"MultiLineString","properties":{"kind":"highway","network":"ES:A-road","sort_rank":383,"landuse_kind":"nature_reserve","source":"openstreetmap.org","min_zoom":8.0,"all_networks":["ES:A-road"],"kind_detail":"motorway","shield_text":"26","ref":"A-26","all_shield_texts":["26"]},"arcs":[[1128],[1129],[1130],[1131],[1132],[1133]]},{"type":"MultiLineString","properties":{"kind":"major_road","sort_rank":379,"kind_detail":"secondary","is_bicycle_related":true,"bicycle_shield_text":"EV8","bicycle_network":"icn","source":"openstreetmap.org","min_zoom":8.0},"arcs":[[1134],[1135]]},{"type":"MultiLineString","properties":{"kind":"major_road","network":null,"sort_rank":380,"kind_detail":"primary","bus_network":"Navettes Urbaines Foix","source":"openstreetmap.org","min_zoom":8.0,"bus_shield_text":"2","shield_text":"117C","ref":"D 117C"},"arcs":[[1136],[1137]]},{"type":"LineString","properties":{"kind":"major_road","network":null,"sort_rank":380,"kind_detail":"primary","is_bicycle_related":true,"source":"openstreetmap.org","min_zoom":8.0,"shield_text":"260","ref":"N-260"},"arcs":[1138]},{"type":"MultiLineString","properties":{"kind":"major_road","network":"e-road","sort_rank":380,"kind_detail":"primary","source":"openstreetmap.org","min_zoom":8.0,"landuse_kind":"urban_area","shield_text":"09","ref":"N-260"},"arcs":[[1139],[1140],[1141],[1142]]},{"type":"MultiLineString","properties":{"source":"openstreetmap.org","kind":"major_road","sort_rank":381,"kind_detail":"trunk","ref":"N 116","min_zoom":8.0},"arcs":[[1143],[1144],[1145],[1146],[1147],[1148],[1149],[1150]]},{"type":"MultiLineString","properties":{"source":"openstreetmap.org","kind":"major_road","sort_rank":380,"kind_detail":"primary","ref":"N-1411","min_zoom":8.0},"arcs":[[1151],[1152],[1153],[1154],[1155]]},{"type":"MultiLineString","properties":{"kind":"highway","network":null,"sort_rank":383,"landuse_kind":"nature_reserve","source":"openstreetmap.org","min_zoom":8.0,"all_networks":[null],"kind_detail":"motorway","shield_text":"17","ref":"C-17","all_shield_texts":["17"]},"arcs":[[1156],[1157]]},{"type":"MultiLineString","properties":{"kind":"highway","network":null,"sort_rank":383,"kind_detail":"motorway","source":"openstreetmap.org","min_zoom":8.0,"all_networks":[null],"shield_text":"17","ref":"C-17","all_shield_texts":["17"]},"arcs":[[1158],[1159],[1160],[1161],[1162],[1163],[1164],[1165],[1166],[1167],[1168],[1169],[1170],[1171]]},{"type":"MultiLineString","properties":{"kind":"highway","network":null,"sort_rank":383,"kind_detail":"motorway","is_bicycle_related":true,"source":"openstreetmap.org","min_zoom":8.0,"all_networks":[null],"shield_text":"17","ref":"C-17","all_shield_texts":["17"]},"arcs":[[1172],[1173],[1174],[1175]]},{"type":"MultiLineString","properties":{"kind":"major_road","network":null,"sort_rank":381,"kind_detail":"trunk","source":"openstreetmap.org","min_zoom":8.0,"shield_text":"15;C-37","ref":"C-37"},"arcs":[[1176],[1177],[1178]]},{"type":"LineString","properties":{"kind":"major_road","network":null,"sort_rank":380,"kind_detail":"primary","is_bicycle_related":true,"bicycle_shield_text":"9","bicycle_network":"lcn","source":"openstreetmap.org","min_zoom":8.0,"shield_text":"118","ref":"D 118"},"arcs":[1179]},{"type":"LineString","properties":{"kind":"major_road","cycleway_left":"lane","network":null,"sort_rank":380,"kind_detail":"primary","is_bicycle_related":true,"source":"openstreetmap.org","min_zoom":8.0,"landuse_kind":"urban_area","shield_text":"118","ref":"D 118","id":246677829},"arcs":[1180]},{"type":"MultiLineString","properties":{"source":"openstreetmap.org","kind":"major_road","sort_rank":380,"kind_detail":"primary","ref":"N 116","min_zoom":8.0},"arcs":[[1181],[1182],[1183],[1184],[1185],[1186],[1187],[1188],[1189]]},{"type":"LineString","properties":{"kind":"major_road","sort_rank":377,"kind_detail":"tertiary","is_bicycle_related":true,"bicycle_shield_text":"V81","bicycle_network":"ncn","source":"openstreetmap.org","min_zoom":8.0,"ref":"D121"},"arcs":[1190]},{"type":"LineString","properties":{"kind":"path","sort_rank":354,"kind_detail":"path","is_bicycle_related":true,"bicycle_network":"ncn","source":"openstreetmap.org","min_zoom":8.0,"landuse_kind":"protected_area","id":38099972,"name:ca":"cam\u00ed de l'Esgl\u00e9sia"},"arcs":[1191]},{"type":"MultiLineString","properties":{"source":"openstreetmap.org","kind":"major_road","sort_rank":380,"kind_detail":"primary","ref":"D 118","min_zoom":8.0},"arcs":[[1192],[1193]]},{"type":"MultiLineString","properties":{"kind":"major_road","network":null,"sort_rank":380,"kind_detail":"primary","source":"openstreetmap.org","min_zoom":8.0,"shield_text":"118","ref":"D 118"},"arcs":[[1194],[1195],[1196],[1197],[1198],[1199],[1200],[1201],[1202],[1203],[1204],[1205],[1206],[1207],[1208],[1209]]},{"type":"LineString","properties":{"kind":"minor_road","service":"driveway","sort_rank":356,"kind_detail":"service","is_bicycle_related":true,"bicycle_network":"ncn","source":"openstreetmap.org","min_zoom":8.0,"landuse_kind":"protected_area","id":119135658},"arcs":[1210]},{"type":"LineString","properties":{"kind":"major_road","sort_rank":380,"kind_detail":"primary","is_bicycle_related":true,"bicycle_shield_text":null,"bicycle_network":"rcn","source":"openstreetmap.org","min_zoom":8.0,"ref":"C-152","id":126342805},"arcs":[1211]},{"type":"MultiLineString","properties":{"source":"openstreetmap.org","kind":"major_road","sort_rank":380,"kind_detail":"primary","ref":"CG-3","min_zoom":8.0},"arcs":[[1212],[1213],[1214],[1215],[1216],[1217],[1218],[1219],[1220],[1221],[1222],[1223],[1224],[1225],[1226],[1227],[1228],[1229],[1230],[1231],[1232],[1233],[1234],[1235],[1236],[1237],[1238],[1239],[1240],[1241],[1242],[1243],[1244]]},{"type":"MultiLineString","properties":{"source":"openstreetmap.org","kind":"major_road","landuse_kind":"urban_area","sort_rank":380,"kind_detail":"primary","ref":"C-152","min_zoom":8.0},"arcs":[[1245],[1246],[1247],[1248]]},{"type":"LineString","properties":{"kind":"major_road","network":null,"sort_rank":380,"kind_detail":"primary","bus_network":"Navettes Urbaines Foix","source":"openstreetmap.org","min_zoom":8.0,"bus_shield_text":"2","shield_text":"117","ref":"D 117"},"arcs":[1249]},{"type":"LineString","properties":{"kind":"major_road","network":null,"sort_rank":380,"kind_detail":"primary","is_bicycle_related":true,"bicycle_shield_text":"5","bicycle_network":"lcn","source":"openstreetmap.org","min_zoom":8.0,"shield_text":"117","id":23619144},"arcs":[1250]},{"type":"LineString","properties":{"source":"openstreetmap.org","kind":"major_road","sort_rank":380,"kind_detail":"primary","ref":"C-16F","min_zoom":8.0,"id":219572489},"arcs":[1251]},{"type":"LineString","properties":{"kind":"major_road","network":"e-road","sort_rank":380,"kind_detail":"primary","source":"openstreetmap.org","min_zoom":8.0,"landuse_kind":"protected_area","shield_text":"09","ref":"N-152"},"arcs":[1252]},{"type":"LineString","properties":{"bus_network":"Bus Ari\u00e8ge","network":null,"sort_rank":380,"kind_detail":"primary","kind":"major_road","source":"openstreetmap.org","min_zoom":8.0,"bus_shield_text":"104","shield_text":"117","ref":"D 117"},"arcs":[1253]},{"type":"MultiLineString","properties":{"kind":"major_road","network":"e-road","sort_rank":381,"kind_detail":"trunk","source":"openstreetmap.org","min_zoom":8.0,"shield_text":"09","ref":"N 20"},"arcs":[[1254],[1255],[1256],[1257],[1258],[1259],[1260],[1261],[1262],[1263],[1264]]},{"type":"LineString","properties":{"kind":"highway","network":"ES:A-road","sort_rank":383,"kind_detail":"motorway","source":"openstreetmap.org","min_zoom":8.0,"all_networks":["ES:A-road"],"shield_text":"26","ref":"A-26","all_shield_texts":["26"]},"arcs":[1265]},{"type":"LineString","properties":{"kind":"major_road","sort_rank":380,"kind_detail":"primary","is_bicycle_related":true,"bicycle_shield_text":null,"bicycle_network":"rcn","source":"openstreetmap.org","min_zoom":8.0,"ref":"D 115S2","id":23608096},"arcs":[1266]},{"type":"MultiLineString","properties":{"kind":"major_road","network":null,"sort_rank":380,"kind_detail":"primary","bus_network":"Navettes Urbaines Foix","source":"openstreetmap.org","min_zoom":8.0,"bus_shield_text":"3","shield_text":"919","ref":"D 919"},"arcs":[[1267],[1268]]},{"type":"LineString","properties":{"kind":"major_road","sort_rank":381,"kind_detail":"trunk","bus_network":null,"source":"openstreetmap.org","min_zoom":8.0,"bus_shield_text":"106","ref":"C-66","id":308701632},"arcs":[1269]},{"type":"LineString","properties":{"kind":"major_road","network":"e-road","short_name":"RN 20","sort_rank":380,"kind_detail":"primary","source":"openstreetmap.org","min_zoom":8.0,"shield_text":"09","ref":"N 20"},"arcs":[1270]},{"type":"LineString","properties":{"bus_network":"Pla de l'Estany","sort_rank":381,"landuse_kind":"urban_area","kind":"major_road","source":"openstreetmap.org","min_zoom":8.0,"bus_shield_text":"107","kind_detail":"trunk","ref":"C-66"},"arcs":[1271]},{"type":"LineString","properties":{"kind":"major_road","sort_rank":380,"landuse_kind":"protected_area","source":"openstreetmap.org","min_zoom":8.0,"kind_detail":"primary","ref":"D 117","id":481006991},"arcs":[1272]},{"type":"MultiLineString","properties":{"source":"openstreetmap.org","kind":"major_road","landuse_kind":"urban_area","sort_rank":380,"kind_detail":"primary","ref":"D 623","min_zoom":8.0},"arcs":[[1273],[1274],[1275]]},{"type":"MultiLineString","properties":{"source":"openstreetmap.org","kind":"major_road","network":null,"sort_rank":380,"kind_detail":"primary","min_zoom":8.0,"shield_text":"625"},"arcs":[[1276],[1277]]},{"type":"MultiLineString","properties":{"source":"openstreetmap.org","kind":"major_road","landuse_kind":"protected_area","sort_rank":380,"kind_detail":"primary","ref":"N-154","min_zoom":8.0},"arcs":[[1278],[1279]]},{"type":"MultiLineString","properties":{"bus_network":"Perpignan - Corb\u00e8re","sort_rank":381,"landuse_kind":"urban_area","kind":"major_road","source":"openstreetmap.org","min_zoom":8.0,"bus_shield_text":"220","kind_detail":"trunk","ref":"N 116"},"arcs":[[1280],[1281]]},{"type":"LineString","properties":{"kind":"path","sort_rank":354,"kind_detail":"path","is_bicycle_related":true,"bicycle_shield_text":"V81","bicycle_network":"ncn","source":"openstreetmap.org","min_zoom":8.0},"arcs":[1282]},{"type":"LineString","properties":{"kind":"major_road","sort_rank":380,"landuse_kind":"protected_area","source":"openstreetmap.org","min_zoom":8.0,"kind_detail":"primary","ref":"N 320","id":183901229},"arcs":[1283]},{"type":"MultiLineString","properties":{"kind":"major_road","network":"e-road","sort_rank":381,"landuse_kind":"protected_area","source":"openstreetmap.org","min_zoom":8.0,"kind_detail":"trunk","shield_text":"09","ref":"N 20"},"arcs":[[1284],[1285],[1286],[1287],[1288]]},{"type":"LineString","properties":{"kind":"major_road","network":null,"sort_rank":380,"kind_detail":"primary","is_bicycle_related":true,"bicycle_shield_text":"V81","bicycle_network":"ncn","source":"openstreetmap.org","min_zoom":8.0,"shield_text":"118","ref":"D 118"},"arcs":[1289]},{"type":"MultiLineString","properties":{"kind":"major_road","sort_rank":380,"landuse_kind":"urban_area","source":"openstreetmap.org","min_zoom":8.0,"kind_detail":"primary","ref":"D 618","id":30857595},"arcs":[[1290],[1291]]},{"type":"MultiLineString","properties":{"source":"openstreetmap.org","kind":"major_road","landuse_kind":"urban_area","sort_rank":380,"kind_detail":"primary","ref":"D 612","min_zoom":8.0},"arcs":[[1292],[1293],[1294],[1295],[1296],[1297],[1298],[1299],[1300],[1301],[1302],[1303],[1304],[1305],[1306],[1307]]},{"type":"MultiLineString","properties":{"kind":"major_road","network":"e-road","sort_rank":380,"kind_detail":"primary","source":"openstreetmap.org","min_zoom":8.0,"shield_text":"09","ref":"C-16"},"arcs":[[1308],[1309],[1310],[1311],[1312],[1313],[1314],[1315]]},{"type":"LineString","properties":{"kind":"major_road","network":"e-road","sort_rank":381,"kind_detail":"trunk","source":"openstreetmap.org","min_zoom":8.0,"shield_text":"09","id":31030540},"arcs":[1316]},{"type":"LineString","properties":{"kind":"major_road","network":null,"sort_rank":380,"kind_detail":"primary","bus_network":"Agglo","source":"openstreetmap.org","min_zoom":8.0,"bus_shield_text":"12","shield_text":"117","landuse_kind":"urban_area","id":25996637},"arcs":[1317]},{"type":"MultiLineString","properties":{"kind":"highway","network":null,"sort_rank":383,"landuse_kind":"urban_area","source":"openstreetmap.org","min_zoom":8.0,"all_networks":[null],"kind_detail":"motorway","shield_text":"17","ref":"C-17","all_shield_texts":["17"]},"arcs":[[1318],[1319]]},{"type":"LineString","properties":{"kind":"major_road","network":null,"sort_rank":380,"kind_detail":"primary","source":"openstreetmap.org","min_zoom":8.0,"shield_text":"320","ref":"N 320"},"arcs":[1320]},{"type":"LineString","properties":{"kind":"minor_road","sort_rank":360,"landuse_kind":"protected_area","is_bicycle_related":true,"bicycle_shield_text":"V81","bicycle_network":"ncn","source":"openstreetmap.org","min_zoom":8.0,"kind_detail":"residential"},"arcs":[1321]},{"type":"MultiLineString","properties":{"source":"openstreetmap.org","kind":"major_road","kind_detail":"trunk","sort_rank":381,"landuse_kind":"urban_area","ref":"N 116","min_zoom":8.0},"arcs":[[1322],[1323],[1324],[1325],[1326],[1327]]},{"type":"MultiLineString","properties":{"source":"openstreetmap.org","kind":"major_road","landuse_kind":"urban_area","sort_rank":380,"kind_detail":"primary","ref":"CG-2","min_zoom":8.0},"arcs":[[1328],[1329],[1330],[1331]]},{"type":"LineString","properties":{"kind":"major_road","network":null,"sort_rank":380,"kind_detail":"primary","bus_network":"Navettes Urbaines Foix","source":"openstreetmap.org","min_zoom":8.0,"bus_shield_text":"3","shield_text":"117C"},"arcs":[1332]},{"type":"LineString","properties":{"kind":"major_road","sort_rank":380,"kind_detail":"primary","is_bicycle_related":true,"bicycle_shield_text":"3","bicycle_network":"lcn","source":"openstreetmap.org","min_zoom":8.0,"landuse_kind":"urban_area","id":72570630},"arcs":[1333]},{"type":"MultiLineString","properties":{"source":"openstreetmap.org","kind":"major_road","landuse_kind":"urban_area","sort_rank":380,"kind_detail":"primary","min_zoom":8.0},"arcs":[[1334],[1335],[1336],[1337],[1338],[1339],[1340],[1341],[1342],[1343],[1344],[1345],[1346],[1347],[1348],[1349],[1350],[1351],[1352],[1353],[1354],[1355],[1356],[1357],[1358],[1359],[1360],[1361],[1362],[1363],[1364],[1365],[1366],[1367],[1368],[1369],[1370],[1371],[1372],[1373],[1374],[1375],[1376],[1377],[1378],[1379]]},{"type":"LineString","properties":{"kind":"major_road","network":null,"sort_rank":380,"kind_detail":"primary","source":"openstreetmap.org","min_zoom":8.0,"landuse_kind":"protected_area","shield_text":"118","ref":"D 118","id":5214215},"arcs":[1380]},{"type":"MultiLineString","properties":{"source":"openstreetmap.org","kind":"major_road","sort_rank":380,"kind_detail":"primary","ref":"CG-6","min_zoom":8.0},"arcs":[[1381],[1382],[1383],[1384]]},{"type":"MultiLineString","properties":{"kind":"minor_road","sort_rank":360,"landuse_kind":"nature_reserve","is_bicycle_related":true,"bicycle_network":"ncn","source":"openstreetmap.org","min_zoom":8.0,"kind_detail":"unclassified"},"arcs":[[1385],[1386]]},{"type":"MultiLineString","properties":{"bus_network":"Perpignan - Corb\u00e8re","sort_rank":380,"kind_detail":"primary","kind":"major_road","source":"openstreetmap.org","min_zoom":8.0,"bus_shield_text":"220","ref":"D 615"},"arcs":[[1387],[1388],[1389],[1390],[1391],[1392],[1393],[1394],[1395],[1396],[1397],[1398],[1399],[1400],[1401],[1402]]},{"type":"MultiLineString","properties":{"kind":"major_road","network":null,"sort_rank":380,"kind_detail":"primary","source":"openstreetmap.org","min_zoom":8.0,"landuse_kind":"nature_reserve","shield_text":"260","ref":"N-260"},"arcs":[[1403],[1404]]},{"type":"MultiLineString","properties":{"source":"openstreetmap.org","kind":"major_road","sort_rank":380,"kind_detail":"primary","ref":"C-66","min_zoom":8.0},"arcs":[[1405],[1406],[1407],[1408],[1409],[1410]]},{"type":"MultiLineString","properties":{"source":"openstreetmap.org","kind":"major_road","sort_rank":380,"kind_detail":"primary","ref":"CG-4","min_zoom":8.0},"arcs":[[1411],[1412],[1413],[1414],[1415],[1416],[1417],[1418],[1419],[1420],[1421],[1422],[1423],[1424],[1425],[1426]]},{"type":"LineString","properties":{"source":"openstreetmap.org","kind":"major_road","sort_rank":381,"kind_detail":"trunk","ref":"N-260","min_zoom":8.0},"arcs":[1427]},{"type":"LineString","properties":{"source":"openstreetmap.org","kind":"major_road","sort_rank":381,"kind_detail":"trunk","ref":"N-145","min_zoom":8.0,"id":107833151},"arcs":[1428]},{"type":"LineString","properties":{"kind":"major_road","sort_rank":380,"kind_detail":"primary","is_bicycle_related":true,"bicycle_shield_text":"3","bicycle_network":"lcn","source":"openstreetmap.org","min_zoom":8.0,"ref":"D 117"},"arcs":[1429]},{"type":"MultiLineString","properties":{"source":"openstreetmap.org","kind":"major_road","ref":"N-145","sort_rank":381,"kind_detail":"trunk","is_bicycle_related":true,"min_zoom":8.0},"arcs":[[1430],[1431]]},{"type":"LineString","properties":{"kind":"major_road","sort_rank":380,"kind_detail":"primary","is_bicycle_related":true,"bicycle_shield_text":null,"bicycle_network":"rcn","source":"openstreetmap.org","min_zoom":8.0,"landuse_kind":"nature_reserve","ref":"N-260a"},"arcs":[1432]},{"type":"MultiLineString","properties":{"kind":"path","sort_rank":354,"landuse_kind":"nature_reserve","is_bicycle_related":true,"bicycle_network":"ncn","source":"openstreetmap.org","min_zoom":8.0,"kind_detail":"path"},"arcs":[[1433],[1434],[1435],[1436],[1437]]},{"type":"MultiLineString","properties":{"sort_rank":380,"kind_detail":"primary","min_zoom":8.0,"kind":"major_road","source":"openstreetmap.org"},"arcs":[[1438],[1439],[1440],[1441],[1442],[1443],[1444],[1445],[1446],[1447],[1448],[1449],[1450],[1451],[1452],[1453],[1454],[1455],[1456],[1457],[1458],[1459],[1460],[1461],[1462],[1463],[1464],[1465],[1466],[1467],[1468],[1469],[1470],[1471],[1472],[1473],[1474],[1475],[1476],[1477],[1478],[1479],[1480],[1481],[1482],[1483],[1484],[1485],[1486],[1487],[1488],[1489],[1490],[1491],[1492],[1493],[1494],[1495],[1496],[1497],[1498],[1499],[1500],[1501],[1502],[1503],[1504],[1505],[1506],[1507],[1508],[1509],[1510],[1511],[1512],[1513],[1514],[1515],[1516],[1517],[1518],[1519],[1520],[1521],[1522],[1523],[1524],[1525],[1526]]},{"type":"LineString","properties":{"kind":"minor_road","sort_rank":360,"landuse_kind":"nature_reserve","is_bicycle_related":true,"bicycle_network":"ncn","source":"openstreetmap.org","min_zoom":8.0,"kind_detail":"residential"},"arcs":[1527]},{"type":"MultiLineString","properties":{"source":"openstreetmap.org","kind":"major_road","landuse_kind":"protected_area","sort_rank":380,"kind_detail":"primary","ref":"N 20","min_zoom":8.0},"arcs":[[1528],[1529]]},{"type":"MultiLineString","properties":{"kind":"major_road","network":"e-road","sort_rank":380,"kind_detail":"primary","is_bicycle_related":true,"source":"openstreetmap.org","min_zoom":8.0,"shield_text":"09","ref":"C-16"},"arcs":[[1530],[1531],[1532]]},{"type":"LineString","properties":{"bus_network":"Perpignan - Corb\u00e8re","sort_rank":380,"kind_detail":"primary","kind":"major_road","source":"openstreetmap.org","min_zoom":8.0,"bus_shield_text":"220","landuse_kind":"urban_area","ref":"D 615"},"arcs":[1533]},{"type":"LineString","properties":{"kind":"major_road","sort_rank":380,"kind_detail":"primary","is_bicycle_related":true,"bicycle_shield_text":null,"bicycle_network":"rcn","source":"openstreetmap.org","min_zoom":8.0,"ref":"C-63","id":126342211},"arcs":[1534]},{"type":"MultiLineString","properties":{"bus_network":"Agglo","network":null,"sort_rank":380,"kind_detail":"primary","kind":"major_road","source":"openstreetmap.org","min_zoom":8.0,"bus_shield_text":"12","shield_text":"117","landuse_kind":"urban_area","ref":"D 117"},"arcs":[[1535],[1536],[1537],[1538],[1539],[1540]]},{"type":"MultiLineString","properties":{"kind":"major_road","sort_rank":377,"landuse_kind":"protected_area","is_bicycle_related":true,"bicycle_network":"ncn","source":"openstreetmap.org","min_zoom":8.0,"kind_detail":"tertiary","ref":"D 6"},"arcs":[[1541],[1542],[1543],[1544]]},{"type":"MultiLineString","properties":{"kind":"major_road","network":null,"sort_rank":380,"kind_detail":"primary","source":"openstreetmap.org","min_zoom":8.0,"landuse_kind":"urban_area","shield_text":"118","ref":"D 118"},"arcs":[[1545],[1546],[1547],[1548],[1549]]},{"type":"MultiLineString","properties":{"kind":"major_road","network":"e-road","sort_rank":380,"kind_detail":"primary","source":"openstreetmap.org","min_zoom":8.0,"shield_text":"09","ref":"C-162"},"arcs":[[1550],[1551],[1552],[1553],[1554],[1555],[1556]]},{"type":"MultiLineString","properties":{"source":"openstreetmap.org","kind":"major_road","landuse_kind":"urban_area","sort_rank":380,"kind_detail":"primary","ref":"D 900","min_zoom":8.0},"arcs":[[1557],[1558],[1559],[1560],[1561],[1562],[1563],[1564],[1565]]},{"type":"MultiLineString","properties":{"source":"openstreetmap.org","kind":"major_road","sort_rank":380,"kind_detail":"primary","ref":"CG3i4","min_zoom":8.0},"arcs":[[1566],[1567],[1568],[1569],[1570],[1571]]},{"type":"MultiLineString","properties":{"kind":"major_road","network":"e-road","sort_rank":380,"kind_detail":"primary","is_bicycle_related":true,"source":"openstreetmap.org","min_zoom":8.0,"shield_text":"09","ref":"N 20"},"arcs":[[1572],[1573],[1574]]},{"type":"MultiLineString","properties":{"source":"openstreetmap.org","kind":"major_road","sort_rank":381,"kind_detail":"trunk","ref":"C-66","min_zoom":8.0},"arcs":[[1575],[1576],[1577],[1578],[1579],[1580],[1581]]},{"type":"MultiLineString","properties":{"kind":"major_road","network":null,"sort_rank":380,"kind_detail":"primary","bus_network":"Navettes Urbaines Foix","source":"openstreetmap.org","min_zoom":8.0,"bus_shield_text":"3","shield_text":"117C","ref":"D 117C"},"arcs":[[1582],[1583],[1584]]},{"type":"MultiLineString","properties":{"source":"openstreetmap.org","kind":"major_road","landuse_kind":"protected_area","sort_rank":380,"kind_detail":"primary","ref":"N 116","min_zoom":8.0},"arcs":[[1585],[1586],[1587],[1588],[1589],[1590],[1591],[1592],[1593],[1594],[1595],[1596],[1597],[1598],[1599],[1600],[1601],[1602],[1603],[1604],[1605],[1606],[1607],[1608],[1609],[1610],[1611],[1612],[1613],[1614],[1615],[1616],[1617],[1618],[1619],[1620],[1621],[1622],[1623],[1624],[1625],[1626],[1627]]},{"type":"MultiLineString","properties":{"kind":"minor_road","sort_rank":360,"landuse_kind":"protected_area","is_bicycle_related":true,"bicycle_network":"ncn","source":"openstreetmap.org","min_zoom":8.0,"kind_detail":"unclassified"},"arcs":[[1628],[1629],[1630],[1631],[1632]]},{"type":"MultiLineString","properties":{"kind":"major_road","network":"e-road","sort_rank":381,"landuse_kind":"urban_area","source":"openstreetmap.org","min_zoom":8.0,"kind_detail":"trunk","shield_text":"09","ref":"C-16"},"arcs":[[1633],[1634]]},{"type":"MultiLineString","properties":{"source":"openstreetmap.org","kind":"major_road","network":"e-road","sort_rank":380,"kind_detail":"primary","min_zoom":8.0,"shield_text":"09"},"arcs":[[1635],[1636],[1637],[1638],[1639],[1640]]},{"type":"LineString","properties":{"kind":"major_road","sort_rank":379,"kind_detail":"secondary","is_bicycle_related":true,"bicycle_network":"ncn","source":"openstreetmap.org","min_zoom":8.0,"landuse_kind":"protected_area","ref":"D 33","id":31115890},"arcs":[1641]},{"type":"MultiLineString","properties":{"source":"openstreetmap.org","kind":"major_road","landuse_kind":"nature_reserve","sort_rank":380,"kind_detail":"primary","ref":"C-152","min_zoom":8.0},"arcs":[[1642],[1643],[1644],[1645],[1646]]},{"type":"LineString","properties":{"kind":"major_road","sort_rank":380,"kind_detail":"primary","is_bicycle_related":true,"bicycle_shield_text":"4","bicycle_network":"lcn","source":"openstreetmap.org","min_zoom":8.0,"ref":"D 117"},"arcs":[1647]},{"type":"MultiLineString","properties":{"kind":"major_road","network":"e-road","sort_rank":380,"kind_detail":"primary","source":"openstreetmap.org","min_zoom":8.0,"shield_text":"09","ref":"N-260"},"arcs":[[1648],[1649],[1650]]},{"type":"LineString","properties":{"kind":"major_road","sort_rank":380,"landuse_kind":"urban_area","source":"openstreetmap.org","min_zoom":8.0,"kind_detail":"primary","id":4974384,"name:ca":"Giratori de l'Europe"},"arcs":[1651]},{"type":"MultiLineString","properties":{"kind":"path","sort_rank":354,"landuse_kind":"protected_area","is_bicycle_related":true,"bicycle_network":"ncn","source":"openstreetmap.org","min_zoom":8.0,"kind_detail":"path"},"arcs":[[1652],[1653],[1654],[1655],[1656],[1657],[1658],[1659],[1660],[1661],[1662],[1663],[1664],[1665],[1666],[1667],[1668],[1669],[1670],[1671],[1672],[1673],[1674],[1675],[1676],[1677],[1678],[1679]]},{"type":"MultiLineString","properties":{"source":"openstreetmap.org","kind":"major_road","landuse_kind":"nature_reserve","sort_rank":380,"kind_detail":"primary","ref":"N-260a","min_zoom":8.0},"arcs":[[1680],[1681],[1682],[1683],[1684]]},{"type":"MultiLineString","properties":{"source":"openstreetmap.org","kind":"major_road","landuse_kind":"protected_area","sort_rank":380,"kind_detail":"primary","ref":"N 22","min_zoom":8.0},"arcs":[[1685],[1686],[1687],[1688],[1689],[1690],[1691]]},{"type":"MultiLineString","properties":{"source":"openstreetmap.org","kind":"major_road","sort_rank":380,"kind_detail":"primary","ref":"N 20","min_zoom":8.0},"arcs":[[1692],[1693],[1694],[1695],[1696]]}]},"earth":{"type":"GeometryCollection","geometries":[{"type":"Polygon","properties":{"sort_rank":10,"source":"naturalearthdata.com","kind":"earth","min_zoom":0.0,"id":4739},"arcs":[[1697]]}]},"landuse":{"type":"GeometryCollection","geometries":[{"type":"Polygon","properties":{"kind":"nature_reserve","protect_class":"5","area":277311008,"sort_rank":23,"source":"openstreetmap.org","min_zoom":6.0,"tier":2,"id":-4594406,"osm_relation":true},"arcs":[[1698],[1699],[1700],[1701],[1702],[1703],[1704],[1705],[1706],[1707],[1708],[1709],[1710],[1711],[1712],[1713]]},{"type":"MultiPolygon","properties":{"source":"openstreetmap.org","kind":"nature_reserve","tier":2,"protect_class":"3","area":21094261,"sort_rank":23,"min_zoom":8.0},"arcs":[[[1714]]]},{"type":"MultiPolygon","properties":{"kind":"protected_area","protect_class":"5","area":7733391994,"sort_rank":17,"source":"openstreetmap.org","min_zoom":4.0,"tier":2,"osm_relation":true},"arcs":[[[1715],[1716]],[[1717]]]},{"type":"Polygon","properties":{"kind":"nature_reserve","protect_class":"2","area":1308179968,"sort_rank":23,"source":"openstreetmap.org","min_zoom":4.0,"tier":2,"id":-2800131,"osm_relation":true},"arcs":[[1718],[1719]]},{"type":"MultiPolygon","properties":{"source":"openstreetmap.org","kind":"park","tier":2,"area":108615099,"sort_rank":24,"min_zoom":8.0,"osm_relation":true},"arcs":[[[1720]],[[1721]]]},{"type":"Polygon","properties":{"kind":"nature_reserve","protect_class":"4","area":227347008,"sort_rank":23,"source":"openstreetmap.org","min_zoom":6.0,"tier":2,"id":-5525761,"osm_relation":true},"arcs":[[1722],[1723],[1724]]},{"type":"MultiPolygon","properties":{"kind":"nature_reserve","protect_class":"7","area":71243463,"sort_rank":23,"source":"openstreetmap.org","min_zoom":8.0,"tier":2,"osm_relation":true},"arcs":[[[1725]],[[1726]]]},{"type":"Polygon","properties":{"source":"openstreetmap.org","kind":"park","area":31980200,"tier":2,"id":190871730,"min_zoom":8.0,"sort_rank":24},"arcs":[[1727]]},{"type":"Polygon","properties":{"source":"openstreetmap.org","kind":"military","area":12637300,"tier":3,"id":180306109,"min_zoom":8.0,"sort_rank":45},"arcs":[[1728]]},{"type":"MultiPolygon","properties":{"source":"naturalearthdata.com","kind":"urban_area","name":"","area":11222062648,"sort_rank":11,"min_zoom":4.0},"arcs":[[[1729]],[[1730]],[[1731]],[[1732]],[[1733]],[[1734]],[[1735]],[[1736]],[[1737]],[[1738]],[[1739]],[[1740]],[[1741]],[[1742]],[[1743]],[[1744]],[[1745]]]},{"type":"MultiPolygon","properties":{"kind":"nature_reserve","protect_class":"4","area":417898039,"sort_rank":23,"source":"openstreetmap.org","min_zoom":8.0,"tier":2,"osm_relation":true},"arcs":[[[1746]],[[1747]],[[1748]],[[1749]],[[1750]]]},{"type":"MultiPolygon","properties":{"kind":"nature_reserve","protect_class":"2","area":1006401830,"sort_rank":23,"source":"openstreetmap.org","min_zoom":6.0,"tier":2,"osm_relation":true},"arcs":[[[1751]]]},{"type":"Polygon","properties":{"kind":"nature_reserve","protect_class":"97","area":691888000,"sort_rank":23,"source":"openstreetmap.org","min_zoom":6.0,"tier":2,"id":-4613952,"osm_relation":true},"arcs":[[1752],[1753],[1754],[1755],[1756]]}]}},"type":"Topology","transform":{"translate":[1.40625,42.0329743324],"scale":[0.0003433228,0.0002529086]},"arcs":[[[0,2476],[22,-14],[19,-121],[63,-84]],[[931,1857],[12,-40],[50,11],[43,-31],[179,-4],[87,-85],[80,-19],[30,-49],[74,-6],[60,29],[11,-93],[52,-23],[20,-170],[147,-135],[49,43],[75,0],[41,30],[35,-15],[14,48],[80,37],[-6,45],[52,79],[102,41],[37,-27],[76,-3],[116,45],[31,39],[99,-59],[62,19],[34,-42],[58,-4],[9,-36],[40,-20],[212,-37],[6,-71],[56,-23],[83,-118],[49,14],[122,-37],[37,82],[48,15],[114,-46],[179,-24],[10,65],[-69,113],[58,4],[8,73],[56,5],[118,72],[61,3],[64,-54],[68,30],[36,64]],[[104,2257],[41,-7],[60,44],[-20,88],[26,63],[43,9],[38,-33],[125,42],[38,-10],[117,-110],[100,19],[78,-45],[57,24],[94,-41],[60,13],[-25,-117],[151,-26],[20,-31],[-138,-74],[-20,-128],[-28,-20],[10,-60]],[[1603,1680],[19,82],[44,29],[1,35],[32,-5],[26,-33],[-32,-61],[74,-85],[-88,-6],[-76,44]],[[931,1857],[-66,-51],[-69,20],[-30,44],[-36,-148],[-60,-2],[-13,-21],[-100,20],[-54,-71],[-54,35],[-27,-103],[-112,-14],[-176,31],[-28,31],[14,61],[-19,61],[-69,27],[26,42],[123,67],[-51,119],[-36,14],[-73,-32],[34,89],[58,40],[-54,59],[45,82]],[[0,2476],[22,-14],[19,-121],[63,-84]],[[931,1857],[12,-40],[50,11],[43,-31],[179,-4],[87,-85],[80,-19],[30,-49],[74,-6],[60,29],[11,-93],[52,-23],[20,-170],[147,-135],[49,43],[75,0],[41,30],[35,-15],[14,48],[80,37],[-6,45],[52,79],[102,41],[37,-27],[76,-3],[116,45],[31,39],[99,-59],[62,19],[34,-42],[58,-4],[9,-36],[40,-20],[212,-37],[6,-71],[56,-23],[83,-118],[49,14],[122,-37],[37,82],[48,15],[114,-46],[179,-24],[10,65],[-69,113],[58,4],[8,73],[56,5],[118,72],[61,3],[64,-54],[68,30],[36,64]],[[104,2257],[41,-7],[60,44],[-20,88],[26,63],[43,9],[38,-33],[125,42],[38,-10],[117,-110],[100,19],[78,-45],[57,24],[94,-41],[60,13],[-25,-117],[151,-26],[20,-31],[-138,-74],[-20,-128],[-28,-20],[10,-60]],[[1603,1680],[19,82],[44,29],[1,35],[32,-5],[26,-33],[-32,-61],[74,-85],[-88,-6],[-76,44]],[[931,1857],[-66,-51],[-69,20],[-30,44],[-36,-148],[-60,-2],[-13,-21],[-100,20],[-54,-71],[-54,35],[-27,-103],[-112,-14],[-176,31],[-28,31],[14,61],[-19,61],[-69,27],[26,42],[123,67],[-51,119],[-36,14],[-73,-32],[34,89],[58,40],[-54,59],[45,82]],[[586,3698],[44,-49],[61,-173],[-52,-148],[-78,-86]],[[566,3222],[-5,20]],[[566,3222],[64,-113],[90,-75],[155,-101],[71,4],[56,-41]],[[641,3985],[-55,-90],[-2,-177]],[[586,3698],[-2,20]],[[674,4096],[17,-76],[-34,-28]],[[657,3992],[-16,-7]],[[1015,2890],[-13,6]],[[1015,2890],[91,-93],[128,-52]],[[1249,2732],[-15,13]],[[1249,2732],[33,-51],[-65,-99],[36,-38],[1,-59]],[[1254,2485],[-1,-15]],[[1253,2470],[-62,-208]],[[1191,2262],[18,-5],[6,10],[-11,6],[-13,-11]],[[1191,2262],[-54,-75],[82,-180],[-6,-96],[120,-166],[136,-74]],[[1450,1686],[0,-1],[2,-1],[1,0],[-3,2]],[[586,3698],[44,-49],[61,-173],[-52,-148],[-78,-86]],[[566,3222],[-5,20]],[[566,3222],[64,-113],[90,-75],[155,-101],[71,4],[56,-41]],[[641,3985],[-55,-90],[-2,-177]],[[586,3698],[-2,20]],[[674,4096],[17,-76],[-34,-28]],[[657,3992],[-16,-7]],[[1015,2890],[-13,6]],[[1015,2890],[91,-93],[128,-52]],[[1249,2732],[-15,13]],[[1249,2732],[33,-51],[-65,-99],[36,-38],[1,-59]],[[1254,2485],[-1,-15]],[[1253,2470],[-62,-208]],[[1191,2262],[18,-5],[6,10],[-11,6],[-13,-11]],[[1191,2262],[-54,-75],[82,-180],[-6,-96],[120,-166],[136,-74]],[[1450,1686],[0,-1],[2,-1],[1,0],[-3,2]],[[1453,1684],[4,-4]],[[1457,1680],[5,-4]],[[1462,1676],[70,-8],[20,22],[25,-108]],[[1453,1684],[3,-3]],[[1456,1681],[6,-5]],[[1456,1681],[1,-1]],[[1577,1582],[5,-4],[2,-1]],[[1584,1577],[93,-41],[13,41],[47,31],[77,8],[12,60]],[[1826,1676],[-1,0]],[[1825,1676],[-5,0]],[[1820,1676],[-1,-1]],[[1819,1675],[-47,29],[110,31],[-4,48],[-40,29]],[[1838,1812],[6,0]],[[1844,1812],[2,0]],[[1846,1812],[210,43]],[[1577,1582],[7,-5]],[[1819,1675],[7,1]],[[1838,1812],[5,0],[1,0]],[[1838,1812],[8,0]],[[2064,1855],[-8,0]],[[2274,1901],[-149,-56],[-61,10]],[[2281,1901],[-5,0],[-2,0]],[[2281,1901],[-7,0]],[[2518,2063],[-64,-105],[-173,-57]],[[2518,2063],[6,1]],[[2809,2217],[-115,-102],[-170,-51]],[[1450,1686],[0,-1],[2,-1],[1,0],[-3,2]],[[2808,2210],[0,-1],[0,1]],[[2230,1092],[-3,107]],[[2803,2197],[2,2]],[[2805,2199],[1,4]],[[2806,2203],[1,3],[1,8],[1,1],[1,2]],[[2810,2217],[0,1]],[[2810,2218],[1,1]],[[2811,2219],[233,130]],[[2810,2218],[-1,-2],[-1,-2],[-1,-7]],[[2807,2207],[-1,-6],[-1,-2]],[[2806,2203],[2,11],[2,3]],[[2807,2204],[1,5]],[[2808,2209],[3,10]],[[2807,2207],[1,2]],[[3045,2350],[113,66],[320,43],[109,83],[141,53],[191,-58],[177,26]],[[2808,2210],[0,-1],[0,1]],[[2366,4096],[16,-78],[40,2],[45,-49],[13,-91],[-28,-46],[45,-87],[-37,-145],[-111,-37],[15,-38],[-89,-73],[10,-76],[-27,-54]],[[2378,4046],[1,0],[0,1],[-1,0],[0,-1]],[[3184,645],[1,-2]],[[3184,641],[1,2]],[[3185,643],[0,2]],[[1330,471],[-3,0]],[[1330,471],[10,-16],[-8,-7],[-2,-10],[1,-1]],[[1331,437],[6,-16],[-5,-9]],[[1332,412],[-1,25]],[[1331,437],[0,1],[1,10],[3,1],[6,6],[-3,12],[-8,4]],[[1332,392],[0,20]],[[3969,2409],[-16,-9]],[[3954,2399],[15,10]],[[3972,2410],[16,9]],[[3988,2419],[9,4]],[[3996,2424],[-8,-5]],[[4001,2426],[-3,-2]],[[3998,2424],[3,2]],[[4001,2426],[84,52]],[[4085,2478],[11,7]],[[4096,2485],[-11,-7]],[[569,3683],[5,-1]],[[1999,1833],[-7,7]],[[2057,1848],[7,1]],[[245,1698],[4,16]],[[245,1753],[1,-1]],[[246,1754],[-1,1]],[[246,1756],[0,26]],[[246,1752],[0,2]],[[246,1747],[0,5]],[[248,1717],[1,-3]],[[249,1714],[1,2]],[[259,1801],[-9,-14]],[[250,1786],[9,14]],[[275,1823],[9,4]],[[313,1855],[15,6]],[[304,1839],[1,0],[0,1],[-1,0],[0,-1]],[[3542,2519],[-3,0]],[[3779,2436],[-12,8]],[[3781,2436],[0,-1]],[[3782,2435]],[[3785,2434],[-2,1]],[[3787,2433],[-1,0]],[[3787,2432],[0,1]],[[3881,2391],[-93,40]],[[3889,2390],[-8,1]],[[3913,2389],[-24,1]],[[3914,2389],[-1,0]],[[3913,2389],[1,-1]],[[529,1303],[-5,-7]],[[566,1337],[11,0]],[[819,1295],[11,-1]],[[831,1293],[7,-2]],[[979,1345],[14,0]],[[1110,1347],[8,-4]],[[1252,1428],[6,3]],[[1274,1446],[2,6]],[[1313,1513],[8,7]],[[2034,1129]],[[2919,827],[11,3]],[[3988,681],[-19,1]],[[2265,3339],[1,1]],[[2473,3598],[174,-6]],[[1143,2198],[1,1]],[[1289,3559],[-1,-1]],[[1289,3559],[14,25]],[[1289,3558],[0,1]],[[1306,3589],[-3,-5]],[[1306,3589],[9,17]],[[1315,3606],[3,8]],[[1318,3614],[1,6]],[[1321,3630],[-2,-10]],[[1321,3630],[13,45]],[[1334,3675],[1,2]],[[1334,3678],[0,-3]],[[1335,3680],[0,-2]],[[1335,3678],[0,2]],[[1335,3680],[10,50]],[[1345,3732],[0,-2]],[[1345,3730],[1,2]],[[1346,3735],[-1,-2]],[[1346,3733],[0,2]],[[1346,3735],[82,202],[-49,159]],[[1957,3494],[-90,16]],[[3794,2935],[1,-1]],[[3797,2934],[1,1]],[[1717,1843],[3,0]],[[4081,1797],[6,-34]],[[1509,1553],[-2,0]],[[1508,1551],[1,2]],[[1509,1553],[9,4]],[[1518,1557],[4,2]],[[1522,1559],[19,19]],[[1541,1578],[2,2]],[[1542,1580],[-1,-2]],[[1545,1583],[-3,-1]],[[1543,1581],[2,1]],[[1548,1582],[8,2]],[[1542,1581],[1,-1]],[[1543,1580],[0,1],[-1,1],[0,-1]],[[1545,1583],[0,-1],[0,1]],[[587,3715],[1,-18]],[[596,3684],[0,-1]],[[603,3834],[3,-10]],[[605,3834],[0,1]],[[607,3834],[-1,0]],[[606,3824],[2,9]],[[606,3824],[4,-52]],[[607,3834]],[[608,3834],[-1,0]],[[3795,2935],[1,-1],[1,0],[-1,1],[-1,0]],[[1192,1307],[-1,-37]],[[1207,1249],[29,1]],[[1998,1833],[1,0]],[[4022,1905],[0,-1]],[[1752,2072],[-14,9]],[[139,1295],[-2,1]],[[144,1303],[-2,-6]],[[146,1302],[1,1]],[[147,1303],[-1,0]],[[187,1297],[-40,6]],[[190,1297],[-3,0]],[[187,1297],[3,0]],[[191,1296],[12,2]],[[203,1298],[-12,-1]],[[261,1288],[-58,10]],[[1228,1397],[-49,-55]],[[1479,1554],[-57,-30]],[[1479,1554],[1,0]],[[1480,1554],[-1,0]],[[1483,1555],[-2,0]],[[1481,1554],[2,1]],[[1504,1553],[-21,2]],[[1506,1553],[-2,0]],[[1504,1553],[2,-1]],[[2209,828],[1,9]],[[2226,745],[-16,79]],[[2224,738],[2,7]],[[2227,750],[-1,-3],[0,-2]],[[2260,675],[-3,2]],[[2331,726],[-1,0]],[[2330,725],[1,1]],[[2331,726],[9,2]],[[3031,711],[9,-4]],[[3050,704],[8,-1]],[[3065,703],[35,-4]],[[3100,699],[1,0]],[[3101,699],[-1,0]],[[3102,698],[1,1]],[[3103,699],[-1,0]],[[3103,699],[35,-4]],[[3148,694],[30,-2]],[[3179,692],[-1,0]],[[3178,692],[1,-1]],[[3179,691],[0,-2]],[[3179,689],[0,1]],[[3179,689],[1,-20]],[[3181,668],[-1,0]],[[3180,668]],[[3180,668]],[[3180,666],[1,0]],[[3181,666]],[[3181,666]],[[3181,665],[2,-15]],[[146,1304],[-2,0],[1,-2],[1,0]],[[146,1302],[0,2]],[[191,1297],[-1,1],[0,-1]],[[190,1297],[0,-1],[1,1]],[[1480,1554],[1,0],[-1,1],[0,-1]],[[2330,724],[0,1],[-1,1],[-1,-1],[2,-1]],[[3101,699],[0,-1],[1,1],[0,1],[-1,-1]],[[3179,692],[0,-1],[1,0],[0,1],[-1,0]],[[3180,668]],[[3180,668],[0,-1],[1,-1]],[[3181,666]],[[3181,666],[0,1],[-1,1]],[[3180,668]],[[1735,3782],[0,1]],[[1738,3764],[-3,13]],[[4020,2323],[69,-18]],[[4093,2302],[-4,3]],[[4093,2302],[3,-4]],[[4096,2298],[-3,4]],[[1192,1307],[-2,-3]],[[61,3889],[-61,1]],[[81,3878],[-17,9]],[[96,3876],[284,4],[209,-77]],[[4096,1865],[-5,-10]],[[145,1305],[20,148]],[[166,1559],[12,21]],[[183,1583],[11,8]],[[2644,1772]],[[2670,1790],[0,-1]],[[2693,1804],[-2,-1]],[[2725,1819],[0,-1]],[[2752,1829],[-5,-3]],[[2768,1839],[-6,-6]],[[343,1921],[28,-34]],[[246,1782],[1,1]],[[380,1874],[-7,-1]],[[373,1872],[7,2]],[[380,1874],[1,1]],[[382,1875],[31,10]],[[413,1885],[1,1]],[[413,1886],[0,-1]],[[416,1891],[-3,-5]],[[414,1886],[2,5]],[[414,1886],[-1,0]],[[413,1886],[1,0]],[[416,1891],[4,3]],[[420,1894],[0,1]],[[420,1895],[0,-1]],[[421,1896],[-1,-1]],[[420,1895],[1,1]],[[424,1899],[-3,-3]],[[424,1899],[3,1]],[[433,1917],[-9,-18]],[[434,1918],[0,-1]],[[434,1917],[1,0],[0,1]],[[435,1918],[-1,0],[0,-1]],[[459,1945],[-24,-27]],[[459,1945],[2,1]],[[460,1946],[-1,-1]],[[462,1946],[-1,0]],[[461,1946],[1,0]],[[462,1946],[8,7]],[[470,1953],[11,9]],[[481,1963],[-11,-10]],[[482,1962],[1,1]],[[483,1963],[-1,0]],[[505,1972],[-22,-9]],[[520,1978],[-14,-6]],[[520,1978],[2,1]],[[521,1979],[-1,-1]],[[522,1979],[-1,0]],[[522,1979],[7,6]],[[530,1986],[3,7]],[[531,2059],[6,-11]],[[538,2048],[-6,11]],[[540,2013],[-7,-20]],[[538,2047],[1,-1]],[[539,2046],[-1,1]],[[540,2013],[-1,33]],[[645,2153],[7,4]],[[663,2156],[-11,1]],[[652,2157],[11,-2]],[[664,2155],[0,1]],[[665,2156],[29,6]],[[694,2162],[3,0]],[[697,2163],[-3,-1]],[[698,2163],[29,-9],[24,24],[87,-124]],[[838,2054],[6,-9]],[[838,2054],[3,-2]],[[841,2052],[1,-2]],[[842,2051],[-1,1]],[[842,2050],[0,-1]],[[842,2049],[1,1]],[[844,2045],[-2,4]],[[854,2032],[-10,13]],[[420,1895],[1,0],[-1,0]],[[481,1963],[0,-1],[1,1]],[[482,1963],[-1,0]],[[538,2048],[-1,0],[1,-1],[0,1]],[[1250,2465],[-2,-1]],[[1257,2468],[-6,-3]],[[1280,2462],[1,-4]],[[956,2035],[0,1]],[[957,2037],[-1,-1]],[[956,2036],[1,1]],[[957,2037],[7,4]],[[965,2041],[-1,0]],[[964,2041],[1,-1]],[[565,2111],[-1,-1],[1,0],[0,1]],[[3182,618],[-1,-2]],[[3182,618],[2,23]],[[3182,616],[0,2]],[[3181,206],[-25,137]],[[3264,134],[-25,24]],[[3040,707],[10,-3]],[[3038,377],[1,0]],[[3039,377],[-1,0]],[[3156,343],[-117,34]],[[3239,158],[-58,48]],[[3312,85],[-48,49]],[[3424,0],[-12,18],[-99,67]],[[605,3834],[-1,1],[-1,0],[0,-1],[2,0]],[[607,3834],[1,-1],[1,0],[-1,1],[-1,0]],[[1115,2135],[-39,-32],[68,9],[73,-53],[-29,5],[81,-20],[-41,-5]],[[1215,1989],[2,3]],[[1218,1994],[8,44]],[[1218,1994],[-2,-2]],[[1226,2038],[2,1]],[[1022,2082],[1,-1]],[[1566,1585]],[[1566,1585]],[[1841,1864],[-5,1]],[[1572,1633],[1,0],[-1,0]],[[1592,1761],[0,-1],[1,1],[-1,0]],[[1599,1652],[0,1],[-1,0],[1,-1]],[[1703,1837],[1,0],[0,1],[-1,0],[0,-1]],[[1770,1839],[-1,-1],[1,-1],[1,1],[-1,1]],[[1877,1894],[-1,0],[1,-1],[0,1]],[[1905,1904],[-1,1],[0,-1],[1,0]],[[2059,2042],[0,-1],[1,0],[0,1],[-1,0]],[[2063,1889],[0,1],[-1,1],[0,-1],[1,-1]],[[2067,1876],[-1,0],[0,-1],[1,1]],[[2807,2189],[1,0],[0,1],[-1,0],[0,-1]],[[1554,1598],[-8,-15]],[[1669,1700],[-47,-31]],[[1670,1701],[-1,-1]],[[1669,1700],[1,0]],[[1674,1701],[-3,0]],[[1671,1701],[3,0]],[[1693,1697],[-19,4]],[[1191,1270],[16,-21]],[[4068,1808],[10,18]],[[4096,127],[0,-3]],[[4096,124],[0,-8]],[[4096,116],[0,-3]],[[1567,1587],[-1,-2]],[[1566,1585],[1,1]],[[1567,1587],[1,50]],[[282,1283],[-21,5]],[[292,1283],[-10,0]],[[641,1343],[-75,-6],[-42,-41],[-232,-13]],[[651,1344],[-10,-1]],[[1072,1344],[-93,1],[-122,-55],[-206,54]],[[1073,1344],[-1,0]],[[1072,1344],[1,-1]],[[1075,1346],[-1,-2]],[[1074,1344],[1,2]],[[1140,1335],[-65,11]],[[1140,1335],[5,-2]],[[1145,1334],[-5,1]],[[1151,1334],[-5,0]],[[1146,1333],[5,1]],[[1179,1342],[-28,-8]],[[1422,1524],[-103,-4],[-91,-123]],[[1483,1454],[2,-2]],[[1485,1452],[-1,3]],[[2034,1129],[-94,31],[-1,32],[-96,-34],[7,39],[-20,-7],[-11,28],[-30,-54],[-27,34],[-19,-20],[-77,63],[47,15],[-69,23],[-33,43],[-21,-61],[-55,3],[-99,94],[49,94]],[[2210,837],[-2,250],[-174,42]],[[2210,824],[-1,4]],[[2257,677],[-33,61]],[[2340,728],[222,66]],[[2572,796],[7,5]],[[2579,801],[2,0]],[[2581,801],[-2,0]],[[2583,802],[-1,0]],[[2582,801],[1,1]],[[2583,802],[95,41]],[[2678,843],[2,0]],[[2679,844],[-1,-1]],[[2680,843],[2,-1]],[[2682,842],[-1,1]],[[2682,842],[77,-43],[87,33],[96,-6],[89,-115]],[[3833,681],[73,4]],[[3906,685],[16,-1]],[[3922,684],[66,-3],[108,58]],[[1074,1344],[-1,0],[1,-1],[0,1]],[[1146,1332],[0,2],[-1,-1],[0,-1],[1,0]],[[2581,802],[0,-1],[1,1],[-1,0]],[[2681,844],[-1,1],[-1,-2],[1,0]],[[2680,843],[1,1]],[[176,1570],[8,13]],[[183,1583],[-5,-3]],[[1373,58],[-1,-1]],[[1372,57],[1,1]],[[1373,58],[41,2]],[[1414,60],[1,1]],[[1415,61],[-1,-1]],[[1417,62],[-1,0]],[[1416,61],[1,1]],[[1417,62],[85,16],[25,-28],[55,5],[101,-55]],[[1415,61],[1,0],[-1,1],[0,-1]],[[2294,622],[-29,42]],[[2294,568],[-2,-3]],[[2294,568],[8,41]],[[2310,524],[-16,44]],[[2294,622],[1,-1]],[[2295,621],[-1,1]],[[2295,620],[1,-1]],[[2296,620],[0,1],[-1,0],[0,-1],[1,0]],[[2296,619],[0,1]],[[2301,611],[-5,8]],[[2301,611],[0,-1]],[[2302,610],[-1,1]],[[2302,609]],[[2302,609],[0,1],[-1,0],[1,-1]],[[2302,609]],[[2309,523],[0,1],[-1,0],[0,-1],[1,0]],[[1304,247],[0,-1],[1,-1]],[[1305,245],[23,-34]],[[1321,203],[-15,25],[-1,12],[0,5]],[[1305,245],[-1,2]],[[1836,3606],[-85,150]],[[2454,3586],[-106,-23],[-111,34],[-95,-22],[-116,10],[-78,-29]],[[1772,1839],[-2,0]],[[1771,1838],[1,1]],[[1841,1862],[-23,11],[-46,-34]],[[2265,664],[-3,6]],[[4091,1855],[-13,-29]],[[1735,3777],[0,5]],[[1736,3753],[2,11]],[[2715,869],[77,23]],[[2776,1074],[8,12]],[[2803,930],[3,13]],[[2818,1110],[69,52],[-3,50],[30,38]],[[2914,1251],[-1,64],[25,-48],[51,68],[23,-21],[46,7]],[[2818,1109],[0,1],[-1,0],[1,-1]],[[2914,1251],[0,-1],[0,1]],[[3955,2349],[5,-4]],[[3960,2345],[-4,4]],[[3961,2345],[7,-5]],[[3968,2340],[-7,5]],[[3968,2340],[5,-4]],[[3973,2336],[-5,4]],[[3192,642],[0,-1]],[[2562,794],[10,2]],[[2647,3592],[2,-24]],[[2649,3567],[14,-53],[-22,-83],[27,-86],[90,-18],[19,20],[110,-4],[86,-60],[96,-5]],[[3943,2367],[4,-12]],[[3947,2377],[-4,-8]],[[3949,2396],[-3,-5]],[[3946,2391],[1,-1]],[[3947,2390],[0,1]],[[3947,2390],[1,-1]],[[3948,2388],[0,-10]],[[3952,2398],[-3,-2]],[[3952,2398],[1,1]],[[3952,2399],[0,-1]],[[1253,1219],[7,-17]],[[1331,1035],[-32,-50]],[[1303,946],[-2,-40],[47,-58]],[[1310,329],[5,35],[17,28],[0,-17],[-22,-46]],[[1310,329],[2,-5]],[[1257,2468],[2,-1]],[[1277,2462],[-2,1]],[[3161,565],[0,1]],[[1956,1888],[-22,20]],[[1957,1864],[4,12]],[[1961,1881]],[[4068,1808],[8,-3]],[[4076,1805],[5,6]],[[3845,1826],[14,1]],[[3859,1827],[1,0]],[[3858,1828],[1,-1]],[[3859,1827],[1,0]],[[3860,1827],[1,-1]],[[3861,1826],[19,-4]],[[3860,1827]],[[3862,1825],[-1,1]],[[3861,1826],[-1,1]],[[3891,1825],[-31,2]],[[3880,1822],[4,0]],[[3884,1822],[6,2]],[[3890,1824],[1,0]],[[3891,1825],[-1,-1]],[[3892,1826],[-1,-1]],[[3892,1825],[0,1]],[[3892,1826],[5,4]],[[3897,1830],[2,1]],[[3899,1831],[12,7]],[[3911,1838],[1,1]],[[3912,1839],[-1,-1]],[[3913,1840],[-1,-1]],[[3912,1839],[1,1]],[[3913,1840],[10,6]],[[3923,1846],[13,7]],[[3923,1846]],[[3923,1846],[-5,-3]],[[3936,1853],[4,2]],[[3940,1855],[-4,-2]],[[3942,1857],[-1,-1]],[[3941,1855],[1,2]],[[3942,1857],[41,25]],[[3990,1886],[-7,-4]],[[3990,1886],[9,6]],[[4011,1898],[-12,-6]],[[4011,1898],[7,4]],[[4018,1902],[3,2]],[[4021,1905],[-3,-3]],[[4026,1908],[-4,-3]],[[4022,1905],[4,3]],[[4026,1908],[44,19]],[[4070,1927],[7,1]],[[4077,1929],[-7,-2]],[[1868,3512],[-1,-2]],[[1142,2196],[27,17],[-41,-67]],[[1142,2197],[0,-1]],[[1142,2196],[0,1]],[[3905,490],[55,-69]],[[4035,316],[-52,80]],[[554,2107],[10,3]],[[564,2110],[1,0]],[[564,2111],[0,-1]],[[566,2111],[-1,0]],[[565,2110],[1,1]],[[566,2111],[1,1]],[[567,2112],[1,0]],[[568,2113],[-1,-1]],[[569,2114],[-1,-1]],[[568,2113],[1,1]],[[568,2113],[0,-1]],[[568,2112],[0,1]],[[569,2114],[19,14]],[[588,2128],[23,7]],[[611,2135],[34,18]],[[574,3682],[2,-2]],[[577,3680],[6,1]],[[3895,531],[2,-3]],[[3897,528],[-2,3]],[[3897,528],[8,-38]],[[304,3863],[14,1]],[[194,1591],[10,10]],[[204,1602],[0,-1]],[[204,1601],[1,1]],[[205,1604],[-1,-1]],[[205,1604],[30,56]],[[205,1603],[0,1]],[[235,1659],[0,1]],[[235,1660],[3,22]],[[239,1683],[6,11]],[[247,1784],[0,1]],[[247,1784]],[[259,1800],[1,2]],[[260,1802],[16,20],[-13,-11],[-4,-10]],[[260,1803],[0,-1]],[[260,1802],[0,-1]],[[263,1806],[-1,0]],[[285,1827],[19,12]],[[305,1840],[8,15]],[[328,1861],[1,0]],[[331,1862],[-1,0]],[[330,1861],[1,1]],[[331,1862],[6,3]],[[338,1865],[15,3]],[[353,1867],[12,3]],[[365,1871],[-12,-3]],[[366,1870],[6,2]],[[372,1873],[-6,-2]],[[245,1754],[0,-1],[1,1],[0,1],[-1,-1]],[[284,1827],[1,0]],[[285,1827],[-1,1],[0,-1]],[[329,1861],[1,0],[-1,1],[0,-1]],[[353,1868],[0,-1],[0,1]],[[365,1871]],[[365,1871],[1,-1],[0,1],[-1,0]],[[3723,2972],[4,-3]],[[3727,2969],[-4,3]],[[3752,2949],[-25,20]],[[3752,2949],[4,-3]],[[3795,2935],[-28,-11],[-11,22]],[[3868,2938],[-71,-3]],[[3868,2938],[62,-17]],[[3982,2943],[-52,-22]],[[211,2156],[50,-64]],[[261,2092],[2,-2]],[[263,2090],[-2,2]],[[358,1882],[-6,-7]],[[354,1876],[0,-1]],[[352,1875],[-15,-4]],[[1370,57],[1,-1],[1,1],[-2,0]],[[81,3878],[15,-2]],[[1251,2465]],[[2649,3568],[0,-1]],[[359,1882],[-1,0]],[[1248,2464],[-8,-4]],[[1250,2465],[1,0]],[[1214,1987],[4,10]],[[1568,1638],[-21,56],[-5,-28],[-145,49],[-141,134],[-38,56],[-4,82]],[[1216,2008],[0,-1]],[[1217,1999],[-1,8]],[[1217,1999],[1,-2]],[[2130,2504],[-76,-88]],[[2054,2416],[1,-6]],[[2055,2410],[15,-39],[-41,-76],[33,-128],[-25,-98],[22,-26]],[[2059,2043],[0,-1]],[[2060,2042],[-1,1]],[[2059,1907],[5,4]],[[2059,1907],[4,-15]],[[2060,2041],[2,-4]],[[2062,2037],[-2,4]],[[2062,2037],[13,-24]],[[2083,1939],[-19,-28]],[[2080,2004],[-5,9]],[[2080,2004],[14,-26]],[[2083,1939],[2,2]],[[2097,1972],[-12,-31]],[[2097,1972],[-3,6]],[[1240,2460],[-35,-13]],[[1275,2463],[-16,4]],[[1280,2462],[-3,0]],[[1435,2284],[-89,-29],[29,105],[-94,98]],[[1256,1195],[72,-153]],[[1752,2072],[-6,-4]],[[1753,2024],[124,-27],[57,-73]],[[1933,1912],[1,-4]],[[2005,1859],[-39,-1]],[[2002,1851],[-10,-11]],[[2051,1843],[-52,-15]],[[2112,1823],[-2,0]],[[2241,1691],[19,62]],[[2294,1763],[10,-1]],[[2339,1736],[1,0]],[[2360,1731],[1,0]],[[2376,1724],[1,1]],[[2388,1718],[-6,-11]],[[2616,1754],[-4,-3]],[[2917,1851],[0,1]],[[2920,1847],[-1,1]],[[2994,1994],[4,-30]],[[595,3683],[0,-1]],[[1966,1858],[-9,6]],[[2064,1849],[9,3]],[[2140,1810],[0,4]],[[2625,1757],[-2,-1]],[[682,3501],[0,-1],[1,0],[-1,1]],[[703,3493],[0,1],[-1,1],[0,-1],[1,-1]],[[774,3485],[1,1],[-1,1],[-1,-1],[1,-1]],[[1289,3558],[-1,0],[0,-1],[1,0],[0,1]],[[2424,3081],[-1,0],[1,0]],[[2849,3075],[-1,0],[0,-1],[1,0],[0,1]],[[3214,3079],[-1,-1],[1,0],[0,1]],[[3431,3074],[0,1],[0,-1]],[[3476,3071],[0,-1],[1,1],[-1,0]],[[2724,127],[-81,-21],[-99,-90],[-4,-16]],[[3482,2489],[3,-2]],[[3485,2488],[-3,1]],[[3486,2487],[0,1]],[[3487,2488],[28,19]],[[3522,2511],[-7,-4]],[[3522,2511],[15,8]],[[4081,1811],[0,-14]],[[1125,2154],[8,-13]],[[1519,1558],[0,-1]],[[1521,1558],[-1,1]],[[1183,1306],[10,-3]],[[2928,2300],[13,25]],[[2941,2325],[1,0]],[[2942,2325],[-1,0]],[[2945,2327],[-2,0]],[[2943,2326],[2,1]],[[2971,2338],[-26,-11]],[[2971,2338],[2,-1]],[[2973,2338],[-2,0]],[[2975,2337],[3,0]],[[2978,2337],[-3,0]],[[2978,2337],[28,-5]],[[3008,2332],[-2,0]],[[3006,2332],[1,-1]],[[3009,2331],[1,1]],[[3010,2332],[-1,0]],[[3010,2332],[15,7]],[[3025,2339],[6,3]],[[3031,2342],[26,21]],[[3057,2363],[11,6]],[[3068,2369],[50,29]],[[3118,2398],[8,5]],[[3126,2403],[13,5]],[[3139,2408],[5,2]],[[3155,2414],[-11,-4]],[[3949,2396]],[[3970,2409],[2,1],[-2,0]],[[3943,2368],[0,1],[-1,0],[1,-2],[0,1]],[[3947,2391],[-1,0],[1,0]],[[3947,2377],[1,0],[0,1],[-1,0],[0,-1]],[[3948,2355],[-1,0],[0,-1],[1,1]],[[3948,2389],[0,-1],[0,1]],[[3953,2400],[-1,0],[1,-1],[1,0],[-1,1]],[[3969,2410],[0,-1],[1,0],[-1,1]],[[3998,2424],[-1,1],[-1,-1],[1,-1],[1,1]],[[2350,4039]],[[1591,1760],[-44,-66]],[[1591,1760],[1,0]],[[1592,1761],[-1,-1]],[[1593,1760],[1,0]],[[1594,1760],[-1,1]],[[1632,1769],[-7,23],[-31,-32]],[[1667,1825],[-33,-55]],[[1703,1837],[-35,-11]],[[1703,1837]],[[1703,1837]],[[1705,1838],[-1,0]],[[1704,1837],[1,1]],[[1768,1839],[-63,-1]],[[1769,1839],[0,-1]],[[1841,1862],[2,0],[1,2]],[[1844,1864],[-3,0]],[[1843,1863]],[[1858,1867],[-14,-3]],[[1858,1867],[5,5]],[[1863,1872],[1,2]],[[1863,1881],[1,10]],[[1863,1881],[1,-7]],[[1864,1891],[4,3]],[[1868,1894],[7,-2]],[[1875,1892],[2,1]],[[1876,1894],[-1,-2]],[[1877,1897],[0,-3]],[[1877,1894],[0,3]],[[1877,1897],[26,8]],[[1904,1905],[0,-1]],[[1905,1904],[9,-2]],[[1914,1902],[-9,3]],[[1914,1902],[112,-5]],[[2036,1900],[-10,-3]],[[2036,1900],[20,-7]],[[2062,1891],[-3,1]],[[2059,1892]],[[2059,1892],[-3,1]],[[2056,1893],[2,0],[1,-1]],[[2059,1892],[1,0]],[[2060,1892],[2,-2]],[[2059,1892]],[[2059,1892],[1,0]],[[2060,1892],[3,-8]],[[2062,1890],[0,-3]],[[2062,1887],[1,2]],[[2062,1887],[2,-6]],[[2063,1890],[-1,1]],[[2064,1881],[2,-5]],[[2066,1876],[-2,5]],[[3126,1459],[0,1]],[[3584,1692],[0,1]],[[1566,1585]],[[1566,1585]],[[1567,1587],[0,-1],[0,1]],[[1567,1638],[1,-1],[-1,1]],[[3039,379],[-1,-1]],[[3038,378],[1,1]],[[3039,379],[25,59]],[[3065,440],[21,50]],[[3091,497],[5,9]],[[3038,377],[0,1]],[[3038,378],[-1,0],[0,-1],[1,0]],[[427,1900],[3,14]],[[435,1918],[3,4]],[[530,1986],[-1,-1],[1,1]],[[531,2061],[7,38]],[[531,2061],[0,-2]],[[532,2059],[-1,2]],[[538,2099],[5,1],[1,1]],[[544,2102],[-6,-3]],[[544,2102]],[[544,2102]],[[545,2103],[-1,-1]],[[544,2102]],[[544,2102],[1,1]],[[545,2104],[0,-1]],[[854,2032],[99,1]],[[953,2033],[2,1]],[[955,2035],[-2,-2]],[[956,2036],[0,-1]],[[956,2036]],[[382,1875],[-1,0],[1,-1],[0,1]],[[530,1986]],[[697,2163],[1,0]],[[1381,0],[-18,155],[-4,13],[-5,6],[-1,1]],[[1353,175],[-32,28]],[[1328,211],[25,-36]],[[1353,175],[1,-2],[5,-5],[4,-13],[1,-145],[1,-10]],[[540,3240],[2,0]],[[542,3240],[-2,2]],[[542,3240],[20,-9]],[[562,3231],[5,-19]],[[576,3182],[-9,29]],[[650,3094],[-73,88]],[[650,3094],[61,-55]],[[774,3016],[-63,23]],[[774,3016],[11,-5]],[[843,2954],[-58,57]],[[843,2954],[3,-15]],[[846,2939]],[[1123,2776],[-86,101]],[[1125,2154],[18,44]],[[1246,2439],[5,26]],[[1246,2439],[-3,-7],[-11,-47],[11,47],[3,7]],[[1251,2465],[-33,125],[35,75]],[[100,3871],[-11,0]],[[634,3646],[1,1]],[[644,3611],[2,-6]],[[664,3561],[18,-60]],[[682,3501]],[[682,3501]],[[682,3500],[1,0]],[[683,3500],[0,1]],[[683,3500],[17,-5]],[[700,3495],[2,-1]],[[702,3494],[-2,1]],[[704,3494],[-1,0]],[[703,3494],[1,0]],[[704,3494],[19,6]],[[731,3496],[-8,4]],[[731,3496],[42,-10]],[[775,3486],[117,75],[188,-82],[152,22]],[[1236,3505],[-4,-4]],[[1232,3501],[3,3]],[[1254,3524],[-1,-2]],[[1258,3528],[-3,-3]],[[1258,3528],[29,29]],[[1288,3558],[-1,-1]],[[1287,3557],[1,0]],[[1289,3557],[1,0]],[[1290,3557],[-1,1]],[[1311,3545],[-21,12]],[[1311,3545],[11,-8]],[[1322,3537],[27,-17]],[[1359,3519],[-10,1]],[[1359,3519],[77,-23]],[[1957,3494],[173,-141],[48,-5],[0,-33],[61,37],[25,-10],[75,-184],[45,-11],[8,-52],[31,-14]],[[2846,3075],[-422,6]],[[2848,3075],[-2,0]],[[2846,3075],[2,-1]],[[2849,3074],[3,0]],[[2852,3074],[-3,1]],[[2914,3056],[-62,18]],[[2921,3051],[-7,5]],[[2971,3048],[-50,3]],[[2971,3048],[11,1]],[[3213,3078],[-231,-29]],[[3430,3074],[-216,5]],[[3474,3071],[-43,3]],[[3476,3071],[-2,0]],[[3474,3071],[2,0]],[[3476,3071],[3,-1]],[[3479,3070],[-2,1]],[[3719,2976],[-240,94]],[[3719,2976],[4,-4]],[[3723,2972],[-4,4]],[[3184,649],[-1,0]],[[2260,675],[2,-5]],[[3127,3205],[-34,16],[-24,57]],[[3058,1321],[15,30],[10,-16],[15,24],[73,11],[23,18],[-20,-10],[-12,57],[-54,-11],[18,35]],[[3126,1460],[19,5]],[[3142,1464],[3,1]],[[3145,1465],[235,46],[27,38],[28,-8],[75,122],[17,-19],[57,48]],[[3584,1693],[12,10]],[[1436,3496],[101,-55],[25,26],[136,7]],[[1303,255],[1,3],[0,1]],[[1304,259],[1,1],[15,17]],[[1320,277],[1,9],[-4,10],[0,3]],[[1317,299],[0,2],[1,2]],[[1318,303],[4,5],[-4,-5]],[[1318,303],[-1,-4]],[[1317,299],[-1,-2],[4,-20]],[[1320,277],[-5,-8],[-11,-10]],[[1304,259],[0,-1],[-1,-3]],[[2625,1760],[4,0]],[[2682,844],[-1,0]],[[2681,844],[1,0]],[[2682,844],[33,25]],[[2806,943],[-30,131]],[[2783,1087],[-1,-3]],[[2782,1084],[-1,-1]],[[2781,1084],[1,0]],[[2782,1084]],[[2784,1086],[2,1]],[[2786,1087],[-2,0]],[[2786,1087],[31,22]],[[2792,892],[3,5]],[[2795,898],[0,-1]],[[2795,897],[0,1]],[[2795,899]],[[2795,898]],[[2795,899],[8,31]],[[2795,898],[0,1]],[[2817,1109],[1,0]],[[2817,1109]],[[2818,1111],[0,-1]],[[2914,1250]],[[2915,1251],[-1,0]],[[597,3682],[0,1]],[[576,3680],[0,-1],[0,1]],[[1867,3510],[-31,96]],[[595,3683],[-6,-1]],[[597,3682],[1,0]],[[598,3682],[-1,0]],[[598,3682],[32,-30]],[[630,3652],[4,-4]],[[635,3648],[-5,4]],[[634,3647],[2,-18]],[[636,3629],[3,-6]],[[639,3623],[-3,6]],[[639,3622],[1,-1]],[[640,3621],[-1,1]],[[647,3605],[-7,16]],[[646,3605],[1,-2]],[[647,3603],[0,2]],[[647,3603],[17,-42]],[[2351,4038],[6,-6]],[[2364,4092],[-12,-41]],[[2368,4020],[5,-12]],[[259,1810],[-9,-23]],[[259,1810],[9,15]],[[275,1823]],[[337,1866],[-1,5]],[[205,1602],[0,1]],[[246,1696],[-1,0],[1,0]],[[259,1811],[0,-1],[1,0],[-1,1]],[[371,1886],[0,-1],[1,1],[-1,1],[0,-1]],[[380,1894],[0,1],[0,-1]],[[843,2051],[-1,0],[0,-1],[1,0],[0,1]],[[3126,531],[6,0]],[[3132,532],[0,-1]],[[3132,531]],[[3134,532],[-1,0]],[[3133,532],[1,0]],[[3134,532],[6,10]],[[3141,543]],[[3141,543]],[[3141,543]],[[3142,544],[-1,0]],[[3141,544]],[[3141,544]],[[3142,544],[7,12]],[[3149,556],[1,0]],[[3149,557],[0,-1]],[[3150,558],[-1,-1]],[[3150,557],[0,1]],[[3150,558],[4,4]],[[3183,647],[8,-5]],[[3133,531],[0,1]],[[3133,532],[-1,0]],[[3132,532],[1,-1]],[[3141,543]],[[3141,543],[1,0],[-1,1]],[[3141,544]],[[3141,544],[0,-1]],[[3141,543]],[[3149,557],[0,-1],[1,1],[-1,0]],[[1596,1651],[-23,-18]],[[1596,1651],[2,1]],[[1598,1653],[-2,-2]],[[1601,1654],[-2,-1]],[[1599,1652],[2,2]],[[1612,1662],[-11,-8]],[[1328,1042],[3,-7]],[[1246,1250],[-10,-2]],[[1244,1250],[2,0]],[[1246,1250],[64,17]],[[3183,649],[0,-1]],[[3184,648],[0,1]],[[3185,647],[-2,1],[1,-3],[1,0],[0,2]],[[3142,1464],[0,1]],[[3584,1692],[-10,-18]],[[3596,1703],[63,30]],[[3659,1733],[0,6]],[[3659,1739],[2,3]],[[3691,1741],[-30,1]],[[3661,1742],[30,-2]],[[3692,1741],[9,30]],[[3692,1740],[1,1]],[[3701,1771],[4,1]],[[3704,1773],[-3,-2]],[[3709,1774],[-4,-1]],[[3705,1772],[4,2]],[[3709,1774],[20,3]],[[3729,1777],[2,1]],[[3731,1778],[-2,-1]],[[3732,1779],[-1,-1]],[[3731,1778],[1,1]],[[3732,1779],[60,51],[27,-6]],[[3823,1824],[-4,0]],[[3823,1824],[17,0]],[[3842,1825],[0,-1]],[[3844,1826],[-2,-1]],[[3842,1825],[2,1]],[[3844,1826],[1,0]],[[1934,1908]],[[4087,1763],[9,-9]],[[0,3882],[21,-19]],[[32,3858],[-11,5]],[[32,3858],[14,2]],[[52,3861],[-6,-1]],[[52,3861],[14,10]],[[68,3872],[-2,-1]],[[68,3872],[9,-2]],[[77,3870],[6,-1]],[[83,3869],[71,-11]],[[154,3858],[8,-2]],[[162,3856],[88,-5]],[[264,3855],[-14,-4]],[[531,3714],[-213,150],[-54,-9]],[[1133,2141],[83,-133]],[[137,1296],[-79,-69]],[[142,1297],[3,5]],[[3539,2519],[-2,0]],[[3677,2476],[-3,0]],[[3702,2483],[0,1]],[[3703,2483],[14,-5]],[[3718,2477],[0,-1]],[[3718,2476],[1,0]],[[3767,2444],[-48,29]],[[3767,687],[25,-13]],[[3796,674],[-28,13]],[[3809,674],[10,-3]],[[2051,1843],[6,5]],[[2135,1816],[-14,4]],[[2384,4002],[-1,0]],[[2415,3571],[0,2]],[[2416,3574],[0,1]],[[3574,2495],[0,1],[-1,-1],[1,0]],[[3678,2476],[0,1],[-1,-1],[1,0]],[[3702,2483],[0,1],[-1,0],[0,-1],[1,0]],[[3807,679],[-11,-5]],[[3801,673],[32,8]],[[333,1952],[-1,2]],[[2974,2338],[-1,-1],[1,-1],[1,1],[-1,1]],[[597,3683],[-2,0]],[[634,3648],[0,-1],[1,0],[0,1],[-1,0]],[[639,3622],[0,1],[-1,0],[1,-1]],[[646,3605],[1,0],[-1,0]],[[1235,3504],[20,20]],[[1255,3525],[3,3]],[[1230,220],[-1,-1]],[[1229,218],[1,2]],[[1230,220],[2,2]],[[1232,222],[2,0]],[[1233,223],[-1,-1]],[[1234,222],[1,1]],[[1235,223]],[[1292,241],[-57,-18]],[[1292,241],[1,0]],[[1293,242],[-1,-1]],[[1303,255],[-9,-13]],[[1294,242],[-1,0],[0,-1]],[[1293,241],[1,0],[0,1]],[[1295,242],[11,1]],[[2290,662],[8,11]],[[2298,673],[1,0],[0,1]],[[2299,674],[-1,0],[0,-1]],[[2299,674],[31,49]],[[2329,724],[1,-1]],[[2330,723],[0,2]],[[1228,218],[1,0],[0,1]],[[1229,219],[-1,0],[0,-1]],[[1233,223],[2,0],[-1,1],[-1,-1]],[[966,2041],[-1,0],[1,-1],[1,0],[-1,1]],[[1260,1202],[-4,-7]],[[1299,985],[4,-39]],[[3406,745],[-19,-5],[-29,-19]],[[3358,721],[49,15]],[[3192,641],[19,-3],[3,-1],[47,0],[1,3]],[[3262,640],[40,67],[1,2]],[[3303,709],[2,3],[4,4],[40,0],[9,5]],[[3358,721],[-47,-2],[-6,-6],[-2,-4]],[[3303,709],[-6,-21],[-35,-48]],[[3262,640],[-48,-2],[-22,4]],[[4068,1808],[-1,0],[1,0]],[[4076,1805],[1,0],[-1,0]],[[583,3680],[1,-1]],[[590,3680],[0,1]],[[58,1227],[-58,-51]],[[1494,1505],[12,45]],[[1506,1551],[0,-1]],[[1506,1550],[1,1]],[[1508,1552],[-1,1],[-1,0],[0,-2],[2,1]],[[3514,2530],[-26,-9]],[[3488,2521],[-2,-1],[-5,-35],[-25,-8],[-20,-11]],[[3436,2465],[45,20],[3,4],[4,32]],[[3488,2521],[21,12]],[[3702,2633],[-95,-22],[-2,-2]],[[3605,2609],[-14,-17]],[[3592,2595],[11,14],[2,0]],[[3605,2609],[62,11],[38,10]],[[1145,1332],[3,-2]],[[1148,1330],[-2,2]],[[1148,1330],[3,-13]],[[1151,1317],[9,-12]],[[1160,1305],[22,1]],[[2313,356],[2,-42]],[[2316,314],[-1,41]],[[2292,565],[38,-126],[0,-5],[1,-13]],[[2331,421],[1,-5],[-2,-4]],[[2330,412],[-4,-5],[-3,-3],[-7,-14],[-3,-34]],[[2315,355],[2,34],[11,16],[2,7]],[[2330,412],[1,9]],[[2331,421],[3,14],[-25,88]],[[2315,314],[20,-56],[43,-12]],[[2378,246],[1,0]],[[2380,242],[-2,4]],[[2378,246],[-4,8],[-39,4],[-19,56]],[[2404,184],[-8,13],[-1,2]],[[2395,199],[-11,14]],[[2394,201],[1,-2]],[[2395,199],[1,-3],[4,-9],[2,-3],[2,-1]],[[2379,246],[1,-14],[1,-3]],[[2381,229],[13,-28]],[[2384,213],[-3,16]],[[2381,229],[-1,2],[0,11]],[[2724,127],[40,27],[13,72],[157,117],[103,35]],[[3037,378]],[[3037,378]],[[2502,3747],[-29,-149]],[[2357,4032],[6,-7]],[[3155,2414],[31,3]],[[3186,2417],[16,1]],[[3203,2418],[-1,0]],[[3203,2418],[142,26]],[[3345,2444],[8,-12]],[[3353,2432],[8,-9]],[[3361,2423],[73,41]],[[3434,2464],[2,1]],[[3435,2465],[-1,-1]],[[1948,3556],[-65,-4],[-15,-40]],[[2135,1816],[5,-2]],[[2289,3452],[-1,0]],[[2288,3452],[1,0]],[[2129,2510],[10,176],[-155,110],[6,86],[198,58],[133,-20],[45,24],[58,137]],[[2276,3341],[-10,-1]],[[2276,3341],[2,2]],[[2295,3404],[-17,-61]],[[2305,3469],[-25,-31]],[[2280,3438],[15,-33]],[[2415,3573],[-110,-104]],[[2375,4005],[9,-3]],[[2385,4001],[2,1]],[[2387,4002],[-2,0]],[[2387,4002],[18,-3]],[[2406,3999],[40,-32]],[[2454,3586],[-39,-12]],[[2446,3967],[14,-32]],[[2460,3935],[16,-54],[-23,-48],[49,-86]],[[2475,3645],[-6,-30]],[[2121,1820],[-1,1]],[[3064,438],[1,2]],[[327,2138],[70,186],[-85,45],[-59,-19],[8,20],[-44,-4]],[[313,2032],[7,-11]],[[315,2033],[35,16]],[[320,2021],[3,-4]],[[323,2017],[-3,4]],[[323,2017],[6,-14]],[[329,2003],[-6,14]],[[353,2097],[-26,40]],[[329,2003],[2,-10]],[[332,1994],[-3,9]],[[330,1976],[1,-8]],[[331,1993],[-1,-17]],[[331,1977],[1,16]],[[332,1968],[-1,8]],[[331,1965],[2,-1]],[[333,1962],[-1,-9]],[[332,1954],[2,8]],[[333,1952],[0,-7]],[[333,1944],[4,-7]],[[350,2050],[0,-1]],[[350,2051],[0,-1]],[[350,2049],[0,1]],[[356,2059],[-6,-8]],[[350,2050],[0,1]],[[368,2071],[-14,25]],[[356,2059]],[[357,2059],[-1,0]],[[357,2060],[12,7]],[[369,2067],[-1,4]],[[327,2137],[0,1],[0,-1]],[[354,2097],[-1,0],[0,-1],[1,1]],[[368,2071]],[[368,2071]],[[3105,520]],[[3109,528],[-4,-7]],[[3105,521],[5,7]],[[3111,528],[-1,2],[-1,-1],[1,-1],[1,0]],[[589,3682],[-6,-1]],[[1255,3525],[-1,-1],[1,0],[0,1]],[[1182,1306],[1,0]],[[1556,1584],[1,1]],[[531,3714],[38,-31]],[[541,3250],[-3,-6]],[[540,3243],[4,6]],[[658,3419],[-40,-95]],[[618,3323],[9,8],[33,90]],[[633,3753],[-3,-118]],[[630,3635],[46,-133]],[[633,3753],[0,14],[-27,66],[9,102],[89,77],[-15,84]],[[689,4096],[14,-84],[-88,-77],[-9,-102],[27,-80]],[[676,3502],[1,-12]],[[1166,2751],[-6,5],[-5,4],[-32,16],[43,-25]],[[1253,2666],[-13,61],[-74,24]],[[3407,736],[102,-22],[88,13],[111,-39],[7,-2],[49,2],[23,-12],[14,-3],[-37,15],[-54,0],[-103,38],[-10,1],[-87,-13],[-104,31]],[[3127,1466],[15,-2]],[[610,3772],[-23,-57]],[[588,3697],[9,-14]],[[4083,228],[-20,17]],[[1037,2877],[-191,62]],[[3983,396],[-23,25]],[[410,3798],[5,-2]],[[2332,4095],[22,-24]],[[2354,4071],[1,-3]],[[2355,4069],[-1,2]],[[1335,3678],[-1,0],[1,-1],[0,1]],[[1346,3733],[-1,0],[0,-1],[1,0],[0,1]],[[1563,1629],[-9,-31]],[[1622,1669],[-10,-7]],[[4096,2589],[-172,-21]],[[3926,2568],[66,-4],[104,25]],[[1735,3783],[-44,68],[-65,9],[-2,53],[-63,51],[5,132]],[[1217,1994],[-1,-2]],[[618,3324],[-60,-55],[-17,-19]],[[544,3249],[74,74]],[[678,3478],[-20,-59]],[[660,3421],[18,57]],[[677,3490],[1,-12]],[[2473,3598],[-19,-12]],[[1634,1770],[-2,-1]],[[1668,1826],[-1,-1]],[[3916,2389],[-1,0]],[[3915,2388],[1,1]],[[3916,2389],[2,1]],[[3919,2390],[7,7]],[[3927,2397],[5,3]],[[3933,2400],[0,-1]],[[3934,2399],[0,1]],[[3935,2400],[6,0]],[[3942,2400],[7,0]],[[3947,2391],[0,1]],[[3948,2354],[7,-5]],[[3955,2349],[-7,6]],[[3953,2400],[-4,0]],[[3949,2400],[3,-1]],[[3974,2335],[0,1]],[[3974,2335],[46,-12]],[[1308,526],[18,31]],[[1326,564],[0,-7]],[[1326,564],[22,67]],[[1348,725],[3,11]],[[1350,637],[-2,88]],[[1350,637],[-2,-6]],[[1351,838],[-3,8],[0,2],[1,-6],[2,-4]],[[1351,736],[40,53],[-40,49]],[[540,3240],[0,3],[-3,0],[0,-3],[3,0]],[[4035,2954],[-1,0],[0,-1],[1,0],[0,1]],[[2404,183],[21,-17],[-19,-122],[22,-44]],[[2429,0],[-22,44],[3,16],[15,106],[0,2],[-5,6],[-3,3],[-13,7]],[[1115,2135],[13,26]],[[61,3889],[3,-2]],[[3509,2533],[83,62]],[[3591,2592],[-77,-62]],[[3924,2568],[-25,6],[-17,7]],[[3882,2581],[-44,16],[-123,36],[-13,0]],[[3705,2630],[10,2],[123,-35],[37,-14],[7,-2]],[[3882,2581],[44,-13]],[[548,2108],[-3,-4]],[[548,2108],[6,-1]],[[554,2107],[-6,1]],[[554,2107]],[[595,3682],[2,0]],[[3154,562]],[[1306,243],[-3,12]],[[2302,642],[-12,20]],[[2331,4096],[1,0]],[[2355,4069]],[[2356,4069],[-1,1]],[[3110,528],[4,1]],[[3114,529],[-3,0]],[[3114,529],[12,2]],[[3154,562]],[[3154,562],[5,3]],[[3159,565],[2,0]],[[3160,566],[-1,-1]],[[3162,567],[-1,-1]],[[3161,566],[1,1]],[[3162,567],[21,41]],[[3182,616],[0,-1]],[[3182,615],[0,1]],[[3183,610],[-1,5]],[[3183,609]],[[3183,609],[0,-1]],[[3183,610],[0,-1]],[[3183,608],[0,1]],[[3183,609],[0,1]],[[3918,2390],[1,0]],[[3941,2400],[1,0]],[[4022,1904],[0,1]],[[1671,1701],[-1,0],[0,-1],[1,0],[0,1]],[[2331,721],[-1,0],[1,-1],[0,1]],[[2333,713],[0,-1],[0,-1],[1,1],[-1,1]],[[2350,4039],[0,1],[-1,0],[0,-1],[1,0]],[[3007,2332],[1,-1],[1,0],[-1,1],[-1,0]],[[3182,617],[-1,-1],[1,0],[0,1]],[[3781,2436],[0,-1],[1,0],[0,1],[-1,0]],[[3786,2433],[1,-1],[0,1],[-1,0]],[[3891,1824],[0,1],[0,-1]],[[3912,1839]],[[3914,2388],[1,1],[-1,0],[0,-1]],[[3926,2397],[1,0],[-1,0]],[[3933,2400],[0,-1],[1,1],[-1,0]],[[3941,1855],[0,1],[-1,-1],[0,-1],[1,1]],[[3956,2349],[-1,0],[1,0]],[[3961,2345],[-1,0],[1,0]],[[3968,2340]],[[3973,2336],[0,-1],[1,1],[-1,0]],[[4078,1927],[1,2],[-2,0],[0,-1],[1,-1]],[[4078,1946],[0,2],[-1,0],[0,-2],[1,0]],[[2129,2510],[1,-6]],[[130,1803],[-21,25]],[[132,1800],[-1,3]],[[244,1754],[-79,7],[-32,39]],[[245,1754]],[[2752,1829],[10,4]],[[2768,1839],[10,15]],[[3556,2509],[-3,4]],[[3556,2509],[5,-4]],[[3567,2500],[-6,5]],[[3567,2500],[3,-2]],[[3572,2496],[-2,2]],[[3572,2496],[1,-1]],[[3573,2496],[-1,0]],[[3574,2495],[2,-1]],[[3576,2494],[-2,1]],[[3576,2494],[23,-23]],[[3600,2471],[77,5]],[[3680,2479],[-2,-2]],[[3678,2476],[2,3]],[[3699,2483],[-19,-4]],[[3701,2484],[-2,-1]],[[3699,2483],[2,0]],[[3058,703],[7,0]],[[3138,695],[10,-1]],[[3864,619],[-5,5],[-5,5],[4,-4],[6,-6]],[[3864,619],[7,-7]],[[3871,612],[4,-13]],[[3875,599],[22,-16],[-5,-49]],[[3892,534],[3,-3]],[[3895,531],[-3,3]],[[260,2086],[-76,-76],[38,-17],[-47,-13],[-75,104],[-61,-54]],[[260,2086],[3,3]],[[263,2090],[-3,-4]],[[263,2089],[3,1]],[[266,2090],[-3,0]],[[306,2045],[-40,45]],[[306,2045],[1,-1]],[[307,2044],[-1,1]],[[307,2044],[1,-2]],[[308,2042],[-1,2]],[[311,2038],[-3,4]],[[311,2038],[1,-1]],[[312,2037],[-1,1]],[[312,2037],[0,-3]],[[313,2034],[-1,3]],[[312,2035],[2,-3]],[[3792,674],[29,3]],[[164,1455],[0,1]],[[1867,3510],[-14,9]],[[164,1456],[19,24],[-21,73]],[[165,1453],[-1,2]],[[3109,633],[-6,1]],[[2598,1734],[-47,-52],[-109,24]],[[2644,1772],[26,17]],[[2693,1804],[32,14]],[[2725,1819],[19,7]],[[2778,1854],[7,10]],[[131,1803],[-1,0]],[[133,1800],[-1,0]],[[248,1717],[-2,30]],[[268,1823],[1,1]],[[269,1824],[2,0]],[[270,1825],[-1,2],[-1,1],[0,-3],[2,0]],[[271,1824],[-1,1]],[[275,1823],[-4,1]],[[314,2032],[-2,3]],[[314,2030],[0,2]],[[333,1964],[-1,1]],[[334,1966],[4,-5],[93,-41],[3,-2]],[[434,1919],[-100,47]],[[337,1865],[0,1]],[[340,1932],[1,-2]],[[341,1930],[2,-6]],[[343,1924],[0,-1],[12,-10]],[[342,1927],[-1,3]],[[341,1930],[-4,7],[6,-13]],[[343,1924],[-1,3]],[[355,1913],[-13,14]],[[352,1875],[19,11]],[[356,1913],[-1,0],[0,-1],[1,0],[0,1]],[[356,1913]],[[361,1881],[1,2]],[[366,1884],[14,10]],[[378,1897],[-6,4]],[[376,1897],[1,0]],[[377,1897],[1,0]],[[377,1897],[1,0]],[[378,1897]],[[378,1897],[2,-2]],[[432,1917],[-2,-4]],[[431,1910],[3,7]],[[432,1919],[0,-2]],[[433,1918],[-1,-1]],[[435,1918],[0,1]],[[435,1918],[-1,1]],[[434,1919],[0,-2],[1,0],[0,1]],[[606,3834],[-1,0]],[[1141,2196],[1,0]],[[1366,52],[4,4]],[[1442,72],[16,-1]],[[2296,621]],[[2297,621],[9,3]],[[2308,625],[-6,17]],[[2306,624]],[[2308,625],[-1,0]],[[2307,624],[1,1]],[[2450,3963],[0,-1]],[[3126,1460],[0,-1]],[[3584,1693],[0,-1]],[[238,1682],[1,1]],[[250,1716],[-1,0],[1,0]],[[263,2090],[0,-1],[0,1]],[[307,2044]],[[312,2037]],[[323,2017],[0,-1],[0,1]],[[329,2003]],[[330,1977],[0,-1],[1,0],[-1,1]],[[331,1993],[1,0],[0,1],[-1,-1]],[[332,1968],[-1,-2],[2,-1],[1,2],[-2,1]],[[336,1872],[0,-1],[1,0],[-1,1]],[[338,1865],[-1,0],[1,0]],[[350,2050],[1,0],[-1,0]],[[357,2059],[-1,0],[1,0]],[[369,2066],[0,1],[0,-1]],[[372,1872],[1,0],[0,1],[-1,-1]],[[461,1946],[-1,1],[0,-1],[1,0]],[[506,1972],[-1,0],[1,0]],[[521,1979],[0,-1],[0,1]],[[646,1343],[0,-1],[1,0],[-1,1]],[[663,2156],[1,-1],[0,1],[-1,0]],[[1367,49],[1,2],[-1,-2]],[[2295,3405],[0,-1],[1,0],[0,1],[-1,0]],[[2306,624],[1,0],[0,1],[-1,0],[0,-1]],[[2385,4002],[-1,0],[1,-1],[0,1]],[[2406,3999],[-1,0],[0,-1],[1,1]],[[2415,3574],[0,-1],[1,0],[-1,1]],[[3436,2465],[0,1],[-1,-1],[1,0]],[[3482,2489]],[[3486,2488],[-1,0],[0,-1],[1,0],[0,1]],[[3599,2471],[1,0],[0,1],[-1,-1]],[[3661,1742]],[[3692,1740],[0,1],[-1,0],[0,-1],[1,0]],[[3705,1773],[-1,-1],[1,0],[0,1]],[[3719,2477],[-1,-1],[1,0],[0,1]],[[3731,1778],[0,-1],[0,1]],[[3842,1825],[0,-1],[0,1]],[[2747,1826],[-3,0]],[[1572,1633],[-9,-4]],[[1568,1637],[4,-4]],[[1311,517],[-3,9],[1,-5],[2,-4]],[[1317,487],[-6,30]],[[1327,471],[-12,10]],[[3553,2513],[-11,6]],[[3313,85],[-1,0]],[[4025,2935],[-43,8]],[[4025,2935],[2,5]],[[4034,2953],[-7,-13]],[[4059,2962],[-24,-8]],[[4059,2962],[14,-5]],[[4096,2951],[-23,6]],[[2636,1767],[-1,0]],[[2644,1772],[-1,0]],[[2673,1796],[-3,-6]],[[2691,1803]],[[2350,4040],[-1,0]],[[2352,4051],[-2,-10]],[[2363,4025],[5,-5]],[[2365,4096]],[[2373,4008],[2,-3]],[[1310,1267],[72,70]],[[1382,1341],[5,12]],[[1387,1353],[9,5]],[[1396,1358],[34,71],[49,17]],[[1479,1446],[5,9]],[[1483,1454],[-4,-8]],[[1381,1338],[1,0],[-1,1],[-1,0],[1,-1]],[[4077,1946],[0,-17]],[[4096,1965],[-19,-17]],[[4078,1929],[0,17]],[[4084,1932],[-6,-3]],[[4078,1948],[18,16]],[[4079,1928],[5,4]],[[4084,1932],[9,3]],[[4093,1935],[3,0]],[[4096,1936],[-3,-1]],[[332,1953],[1,-1]],[[333,1964],[0,-2]],[[334,1962],[-1,2]],[[333,1945],[0,-1]],[[343,1924],[0,-3]],[[371,1886],[-12,-4]],[[1144,2199],[23,22]],[[1167,2221],[17,36]],[[1184,2257],[48,128]],[[3815,674],[-8,5]],[[3815,674],[24,-28]],[[3839,646],[15,-17]],[[4053,256],[-18,60]],[[4053,256],[43,-43]],[[4063,245],[-10,11]],[[4096,214],[-13,14]],[[581,3680],[2,0]],[[584,3679],[6,1]],[[590,3681],[5,1]],[[1566,1585],[1,0]],[[1567,1585]],[[1751,1617],[-184,-32]],[[1751,1617],[9,6]],[[1809,1650],[-49,-27]],[[1815,1658],[-6,-8]],[[1998,1833],[-91,-49],[-25,-51],[-52,-4],[17,-41],[-32,-30]],[[1999,1833],[66,41]],[[2065,1874],[1,1]],[[2066,1876],[-1,-2]],[[2068,1879],[-1,-3]],[[2067,1876],[1,3]],[[2166,1881],[-98,-2]],[[2166,1881],[6,-1]],[[2273,1899],[-50,-26],[-51,7]],[[2273,1899],[6,-1]],[[2309,1913],[-30,-15]],[[2309,1913],[6,1]],[[2326,1924],[-9,-8],[-8,-3]],[[2315,1914],[8,7]],[[2323,1921],[3,3]],[[2708,2129],[-189,-64],[-73,-106],[-120,-35]],[[2708,2129],[53,45]],[[2761,2174],[28,11]],[[2789,2185],[5,2]],[[2794,2187],[12,2]],[[2807,2189],[-1,0]],[[2806,2189],[1,0]],[[2809,2195],[-2,-5]],[[2808,2190],[1,5]],[[2828,2230],[-19,-35]],[[2872,2260],[-44,-30]],[[2880,2264],[-8,-4]],[[2880,2264],[4,1]],[[2884,2265],[14,5]],[[2898,2270],[3,1]],[[2901,2271],[4,2]],[[2905,2273],[4,3]],[[2909,2276],[10,8]],[[2919,2284],[2,2]],[[2921,2286],[3,4]],[[2924,2290],[3,6]],[[2927,2296],[1,4]],[[1724,2085],[2,-2]],[[1740,2084],[-2,-3]],[[2073,1852],[3,1]],[[2149,1811],[-1,2]],[[2160,1797],[1,1]],[[1236,1250],[17,-31]],[[1312,324],[10,-16]],[[1141,2195],[2,3]],[[562,3231]],[[567,3212],[0,-1],[1,1],[-1,0]],[[577,3183],[-1,-1],[1,0],[0,1]],[[1252,2665],[1,0],[0,1],[-1,-1]],[[1315,481],[2,6],[-1,-3],[-1,-3]],[[1998,1833],[1,-5]],[[3086,490],[5,7]],[[3096,506],[7,12]],[[3103,518],[2,2]],[[3105,520],[-2,-2]],[[3105,520]],[[1853,3519],[-65,-54],[-90,9]],[[1483,1460],[11,45]],[[1483,1460],[0,-6]],[[1484,1455],[-1,5]],[[2943,2325],[0,1],[-1,1],[0,-1],[1,-1]],[[1724,2085],[-17,91],[-122,72],[-88,-16],[-62,52]],[[1726,2083],[14,1]],[[1746,2068],[7,-44]],[[1933,1912],[1,12]],[[1961,1881],[-5,7]],[[1961,1876],[0,5]],[[2005,1859],[-3,-8]],[[2110,1823],[-34,30]],[[2120,1821],[-8,2]],[[2148,1813],[-8,-3]],[[2161,1798],[-12,13]],[[2241,1691],[-6,53],[-75,53]],[[2260,1753],[34,10]],[[2304,1762],[35,-26]],[[2340,1736],[20,-5]],[[2361,1731],[15,-7]],[[2377,1725],[11,-7]],[[2382,1707],[60,-1]],[[2612,1751],[-14,-17]],[[2616,1754],[7,2]],[[2625,1757],[0,3]],[[2629,1760],[6,7]],[[2636,1767],[7,5]],[[2673,1796],[18,7]],[[2917,1851],[-78,55],[-54,-42]],[[2919,1848],[-2,4]],[[2920,1847],[8,-22],[81,20],[-17,35],[-38,-3],[61,82],[-17,5]],[[2994,1994],[94,-1]],[[3103,634],[9,-3]],[[3112,631],[-3,2]],[[3112,631],[17,1]],[[3138,638],[-9,-6]],[[3138,638],[45,9]],[[966,2043],[0,-2]],[[966,2043],[47,37]],[[966,2041],[0,2]],[[1013,2080],[13,4]],[[1014,2080],[9,3]],[[1025,2083],[-10,-3]],[[1026,2084],[29,-13],[40,30]],[[666,3515],[6,1]],[[678,3509],[-6,7]],[[678,3509],[3,-8]],[[681,3501],[1,-1]],[[682,3501],[-1,0]],[[0,4096],[4096,0],[0,-4096],[-4096,0],[0,4096]],[[3031,652],[112,18],[-11,61],[46,54],[51,-34],[106,14],[58,-111],[-15,-64],[48,-45],[53,-7],[55,-75],[-46,-120],[29,-85],[-25,-33],[-35,2],[-36,42],[-18,-16],[30,-21],[-37,-29],[21,-11],[-22,-19],[-65,76],[-45,-3],[-18,-65],[-43,-11],[24,14],[-26,44],[-16,-47],[-27,27],[-13,-19],[43,-34],[67,6],[-28,-62],[-50,28],[-25,-16],[-16,26],[-49,-15],[-19,40],[42,46],[-22,83],[56,62],[-28,57],[-41,-30],[-45,23],[35,9],[-11,36],[30,22],[-58,62],[-16,120]],[[3058,599],[67,-15],[-37,-58],[42,-15],[-6,32],[35,22],[38,-32],[-14,77],[37,7],[-44,29],[-118,-47]],[[3145,697],[34,-26],[-8,-23],[15,1],[10,47],[-51,1]],[[3206,692],[60,24],[2,7],[-26,-12],[-14,20],[-22,-39]],[[3283,661],[31,-2],[-12,43],[-7,-31],[-12,-10]],[[3298,731],[8,-3],[7,8],[9,-3],[24,1],[-16,10],[-32,-13]],[[3211,656],[10,-10],[8,0],[-11,12],[-7,-2]],[[3110,633],[7,-4],[6,8],[-8,0],[-5,-4]],[[3376,445],[16,-13],[10,23],[-18,4],[-8,-14]],[[3236,628],[7,-13],[5,0],[1,15],[-13,-2]],[[3193,704],[11,-4],[9,15],[-14,0],[-6,-11]],[[3211,499],[6,-12],[12,6],[-11,16],[-7,-10]],[[3274,458],[3,-6],[8,4],[-2,4],[-9,-2]],[[3089,498],[7,-2],[0,11],[-2,1],[-5,-10]],[[3307,645],[7,-3],[0,8],[-6,1],[-1,-6]],[[3367,454],[3,-4],[7,6],[-2,4],[-8,-6]],[[2273,333],[16,27],[39,-7],[26,78],[49,-21],[8,-41],[-63,-70],[-75,34]],[[921,1917],[28,20],[7,103],[40,56],[260,86],[109,-13],[10,36],[42,18],[24,80],[96,-42],[47,50],[63,-1],[78,175],[85,-36],[126,57],[86,-9],[81,32],[47,-35],[62,0],[35,-60],[189,119],[64,121],[74,-37],[93,34],[108,-31],[10,17],[41,-68],[97,-20],[18,-101],[54,-10],[34,-72],[-128,-64],[50,-40],[53,-140],[75,-64],[29,-131],[-36,-34],[13,-88],[-264,-209],[-132,-61],[-64,11],[-32,-24],[-115,62],[-31,-39],[-130,-48],[-130,27],[-82,-42],[-41,-72],[6,-45],[-80,-37],[-14,-48],[-35,15],[-41,-30],[-75,0],[-49,-43],[-147,135],[-20,170],[-52,23],[-11,93],[-60,-29],[-74,6],[-30,49],[-80,19],[-87,85],[-179,4],[-43,31],[-50,-11],[-22,100]],[[1603,1680],[76,-44],[88,6],[-74,85],[32,61],[-26,33],[-32,5],[-1,-35],[-44,-29],[-19,-82]],[[0,4096],[348,0],[67,-60],[85,24],[25,-23],[-15,-37],[-23,2],[-32,-89],[132,-42],[21,-100],[-127,-93],[37,-21],[17,-105],[91,78],[-9,-71],[34,-13],[34,-71],[-13,-47],[-71,-42],[20,-74],[-58,-66],[-100,15],[-15,-32],[9,-34],[32,-2],[27,47],[45,-17],[6,-48],[-29,-27],[74,-35],[-8,-57],[56,-147],[-57,-76],[0,-96],[-87,-48],[37,-112],[-53,-77],[10,-46],[-25,-26],[-68,35],[-89,-41],[-57,2],[-17,30],[-43,-9],[-31,-81],[25,-70],[-60,-44],[-52,3],[-52,88],[-19,121],[-22,14],[0,1188],[1,-4],[14,-73],[43,49],[-1,72],[-40,62],[-17,-11],[0,337]],[[0,2476],[22,-14],[19,-121],[65,-88],[-47,-78],[54,-59],[-58,-40],[-34,-89],[73,32],[36,-14],[51,-119],[-72,-57],[-102,-35],[-7,-19],[0,282],[25,18],[-4,38],[29,6],[-50,1],[0,356]],[[44,1886],[63,-16],[28,28],[-29,26],[-62,-38]],[[59,2175],[45,82],[79,11],[71,-35],[26,-96],[-16,-18],[-29,24],[14,19],[-12,20],[-2,-22],[-60,33],[24,-30],[-87,-32],[-53,44]],[[413,2337],[93,52],[66,-46],[14,-47],[-94,-44],[-79,85]],[[1883,1286],[58,29],[35,-15],[14,48],[80,37],[-6,45],[41,72],[82,42],[130,-27],[130,48],[31,39],[99,-59],[62,19],[34,-42],[60,-10],[-1,-68],[-19,25],[-49,-76],[-37,33],[23,30],[-38,1],[-14,-35],[-42,38],[-16,-5],[68,-55],[-42,-20],[-5,-27],[29,-11],[-32,-5],[19,-25],[-44,43],[-52,-84],[-32,15],[-33,74],[-47,-27],[2,-118],[-85,-44],[-22,37],[65,52],[-50,-3],[3,35],[-45,-6],[0,21],[-46,16],[-75,5],[-15,-45],[46,-59],[-13,-34],[-135,61],[-45,46],[-61,-28],[-10,17]],[[2438,1544],[39,-27],[62,1],[-27,31],[11,26],[-48,7],[-37,-38]],[[2157,1453],[39,-36],[25,32],[-14,16],[-50,-12]],[[3810,0],[-15,0],[-94,52],[-9,-35],[-49,19],[35,46],[5,75],[-118,68],[45,16],[43,-17],[18,29],[5,-24],[49,-7],[19,24],[73,-13],[21,-60],[110,-49],[-37,-7],[-43,34],[-21,-15],[14,-51],[-45,38],[-14,75],[-37,-4],[16,-44],[18,3],[10,-4],[-12,-45],[31,-20],[-24,-8],[14,-25],[-37,11],[-7,-42],[72,-5],[-36,-15]],[[3821,315],[54,123],[67,-15],[20,-37],[-39,-77],[-52,-25],[-50,31]],[[800,795],[11,89],[49,37],[112,-20],[-65,-166],[-52,0],[-55,60]],[[2140,1943],[16,59],[89,53],[0,-105],[-105,-7]],[[3308,617],[-65,-131],[-97,43],[-97,-43],[-34,153],[34,154],[356,-44],[6,-52],[-103,-80]],[[2316,633],[-53,32],[-40,74],[-15,98],[39,-1],[58,-87],[66,-40],[-1,-48],[-54,-28]],[[1235,1215],[-49,62],[-14,131],[51,-8],[111,-79],[-41,-93],[-58,-13]],[[427,1378],[-24,-32],[-301,-124],[-94,11],[0,175],[79,50],[83,-6],[97,-87],[122,128],[39,-41],[-1,-74]],[[602,2178],[73,-42],[44,19],[-24,-48],[-81,11],[-24,-51],[-162,132],[33,77],[161,143],[33,-132],[-82,-45],[29,-64]],[[1862,1940],[8,-54],[-18,5],[32,-87],[95,-56],[3,-76],[-259,0],[-186,-154],[-74,-22],[-64,44],[1,111],[-33,65],[100,73],[262,61],[58,129],[46,14],[29,-53]],[[2429,4096],[-6,-43],[-53,-53],[-54,9],[-62,87],[175,0]],[[3567,2506],[-194,88],[37,72],[146,42],[43,62],[28,-47],[-60,-217]],[[4096,1857],[-185,-100],[-53,3],[-20,36],[62,259],[196,101],[0,-299]],[[4096,2352],[-11,-21],[-65,0],[0,-44],[-65,0],[0,-44],[-97,88],[-58,17],[-39,71],[32,131],[-97,88],[40,139],[-7,81],[91,-98],[70,10],[24,23],[9,109],[129,88],[44,110],[0,-748]],[[3100,2557],[79,-94],[-65,-132],[-129,-44],[-119,-126],[-43,-6],[19,104],[-37,163],[18,85],[41,20],[136,-5],[49,29],[0,44],[51,-38]],[[493,0],[-219,0],[0,33],[25,57],[63,-1],[131,-87],[0,-2]],[[4096,176],[0,-176],[-173,0],[0,90],[173,86]],[[3696,0],[-119,0],[22,90],[97,-88],[0,-2]],[[2770,0],[-446,0],[-8,19],[21,71],[33,0],[0,88],[32,0],[32,88],[65,-44],[65,44],[86,-43],[69,-84],[47,-119],[4,-20]],[[3967,570],[129,-48],[0,-145],[-92,-92],[-77,-33],[-101,58],[14,137],[83,127],[44,-4]],[[1257,187],[-52,35],[24,55],[138,77],[-6,-102],[-44,-55],[-60,-10]],[[2620,2294],[67,-19],[28,17],[89,-30],[-89,-32],[-71,6],[-23,11],[-1,47]],[[2315,2405],[1,40],[25,13],[49,-29],[57,25],[10,-71],[156,-74],[7,-63],[-44,-19],[-57,26],[-164,146],[-40,6]],[[1441,2303],[71,39],[14,38],[-41,41],[-1,161],[113,-41],[78,32],[2,-46],[71,-2],[-101,-215],[-63,1],[-47,-50],[-96,42]],[[1984,1705],[128,-52],[75,-109],[-75,-33],[-128,194]],[[2658,1550],[24,10],[-105,-15],[-99,59],[-21,44],[-58,215],[47,4],[73,-37],[28,32],[-17,111],[25,-54],[31,10],[86,-48],[-40,-84],[-99,-15],[65,-13],[-17,-48],[31,23],[29,-13],[3,41],[168,109],[96,-66],[36,-92],[54,47],[27,-93],[-79,-28],[11,-38],[-37,-21],[-36,21],[-108,-146],[-36,17],[-9,36],[-53,2],[-20,30]],[[223,986],[38,57],[-11,81],[47,-26],[-9,83],[47,-9],[83,-73],[41,45],[88,-24],[49,31],[43,-1],[-1,-29],[26,-2],[29,31],[26,-36],[47,10],[16,65],[54,26],[78,-1],[13,31],[25,-20],[-2,43],[28,-4],[-22,-9],[26,-51],[70,-10],[108,29],[12,-20],[30,28],[66,-33],[100,108],[45,-50],[-14,-68],[18,-51],[62,-8],[3,-80],[26,6],[22,75],[32,-44],[20,32],[100,-70],[101,49],[21,-24],[-36,-69],[31,-74],[-48,-63],[-96,20],[29,18],[-20,9],[-11,-27],[-104,7],[-48,-37],[-66,59],[-127,-10],[-10,83],[40,46],[-10,8],[-40,-48],[8,-86],[-41,-1],[89,-60],[2,-46],[-86,-51],[-140,50],[-103,6],[-36,-32],[-6,24],[-48,-18],[-17,-54],[-26,-11],[-80,34],[-18,59],[-55,52],[-23,-2],[7,-77],[-108,-6],[-80,-36],[-66,88],[-32,-22],[-56,26],[59,71],[-17,11],[-96,-41],[-18,18],[-58,-14],[2,51],[42,29],[-6,36],[-58,-7]],[[2822,917],[52,104],[-45,46],[141,79],[71,13],[32,61],[113,7],[122,-37],[37,82],[48,15],[114,-46],[179,-24],[10,65],[-69,113],[58,4],[8,73],[56,5],[118,72],[61,3],[64,-54],[68,30],[36,64],[0,-105],[-33,-5],[-20,31],[-74,-95],[-107,16],[-1,-59],[-33,23],[-84,-4],[-9,-39],[-37,-18],[110,-15],[6,-23],[31,0],[-11,-28],[85,-52],[20,10],[-28,-80],[-49,9],[-57,-33],[-9,-37],[18,-4],[7,-14],[22,2],[6,-2],[7,5],[31,4],[5,7],[3,2],[7,0],[14,-5],[17,5],[21,-2],[-3,6],[2,4],[16,6],[22,1],[6,16],[5,1],[-10,-17],[-38,-17],[-105,-17],[-28,1],[-34,17],[49,-96],[97,-42],[-17,-27],[30,-29],[-23,-14],[2,-52],[-156,-6],[-28,22],[-42,-24],[-24,33],[-29,-21],[-128,50],[-30,-33],[-27,16],[4,-29],[-23,4],[-43,-56],[-53,11],[-11,-28],[-4,12],[5,15],[-2,2],[-19,-14],[18,-16],[-88,-15],[-67,35],[-24,-38],[-11,37],[-22,-13],[4,24],[-65,16],[13,-63],[17,-4],[10,-5],[6,-6],[-1,-9],[8,5],[19,-10],[-19,9],[-27,-17],[-18,7],[-3,-17],[-9,-4],[-61,-9],[-7,5],[-3,-3],[-9,6],[-15,-38],[0,39],[-20,-41],[3,20],[-30,-9],[46,32],[96,0],[11,20],[38,13],[-54,17],[-5,11],[4,52],[-22,16],[-56,-2],[-32,27],[-33,-15],[-13,23],[-24,-14],[-48,70]],[[3221,932],[34,-31],[60,47],[-49,22],[-14,-20],[-25,11],[-6,-29]],[[3099,1143],[50,-57],[28,2],[-28,77],[-50,-22]],[[3047,760],[24,-13],[-13,24],[-2,33],[2,7],[-8,-4],[2,-44],[-5,-3]],[[3449,932],[22,2],[-9,22],[-12,-6],[-1,-18]]]}