{"objects":{"water":{"type":"GeometryCollection","geometries":[{"type":"Polygon","properties":{"source":"naturalearthdata.com","kind":"ocean","area":1576712559132672,"sort_rank":200,"min_zoom":0.0,"id":1},"arcs":[[42]]},{"type":"LineString","properties":{"source":"naturalearthdata.com","kind":"ocean","sort_rank":205,"boundary":true,"min_zoom":0.0,"id":1133},"arcs":[43]},{"type":"MultiLineString","properties":{"source":"naturalearthdata.com","kind":"ocean","sort_rank":205,"boundary":true,"min_zoom":0.0,"id":1134},"arcs":[[44],[45]]}]},"buildings":{"type":"GeometryCollection","geometries":[]},"places":{"type":"GeometryCollection","geometries":[{"type":"Point","properties":{"alt_name:el":"\u03a0\u03ac\u03bb\u03bc\u03b1 \u03bd\u03c4\u03b5 \u039c\u03b1\u03b3\u03b9\u03cc\u03c1\u03ba\u03b1","int_name":"Palma de Mallorca","name:ka":"\u10de\u10d0\u10da\u10db\u10d0","name:mr":"\u092a\u093e\u0932\u094d\u092e\u093e","name:ko":"\ud314\ub9c8\ub370","name:ar":"\u0645\u064a\u0648\u0631\u0642\u0629","name:th":"\u0e1b\u0e31\u0e25\u0e21\u0e32","alt_name:eu":"Palma Mallorcakoa","name:ru":"\u041f\u0430\u043b\u044c\u043c\u0430","alt_name:pt":"Palma de Maiorca","id":289643197,"admin_level":"8","alt_name:ru":"\u041f\u0430\u043b\u044c\u043c\u0430-\u0434\u0435-\u041c\u0430\u043b\u044c\u043e\u0440\u043a\u0430","alt_name:he":"\u05e4\u05dc\u05de\u05d4 \u05d3\u05d4 \u05de\u05d9\u05d5\u05e8\u05e7\u05d4","kind_detail":"city","alt_name:mr":"\u092a\u093e\u0932\u094d\u092e\u093e \u0926\u0947 \u092e\u093e\u092f\u094b\u0930\u094d\u0915\u093e","alt_name:ja":"\u30d1\u30eb\u30de\u30fb\u30c7\u30fb\u30de\u30ea\u30e7\u30eb\u30ab","name":"Palma","source":"openstreetmap.org","name:zh":"\u5e15\u723e\u99ac","alt_name:lt":"Maljorkos Palma","alt_name:be":"\u041f\u0430\u043b\u044c\u043c\u0430-\u0434\u044d-\u041c\u0430\u043b\u044c\u0451\u0440\u043a\u0430","alt_name:bg":"\u041f\u0430\u043b\u043c\u0430 \u0434\u0435 \u041c\u0430\u0439\u043e\u0440\u043a\u0430","alt_name:ar":"\u0645\u062f\u064a\u0646\u0629 \u0645\u064e\u064a\u064f\u0648\u0631\u064e\u0642\u064e\u0629","name:ja":"\u30d1\u30eb\u30de","name:lt":"Maljorkos Palma","name:fa":"\u067e\u0627\u0644\u0645\u0627","alt_name:fa":"\u067e\u0627\u0644\u0645\u0627 \u062f \u0645\u0627\u06cc\u0648\u0631\u06a9\u0627","name:he":"\u05e4\u05dc\u05de\u05d4","name:uk":"\u041f\u0430\u043b\u044c\u043c\u0430","name:be":"\u041f\u0430\u043b\u044c\u043c\u0430","alt_name:fr":"Palma de Majorque","name:bg":"\u041f\u0430\u043b\u043c\u0430","name:sr":"\u041f\u0430\u043b\u043c\u0430","population":405318,"alt_name:ko":"\ud314\ub9c8\ub370\ub9c8\uc694\ub974\uce74","name:el":"\u03a0\u03ac\u03bb\u03bc\u03b1","kind":"locality","alt_name:sr":"\u041f\u0430\u043b\u043c\u0430 \u0434\u0435 \u041c\u0430\u0458\u043e\u0440\u043a\u0430","alt_name:lv":"Palma de Ma\u013corka","min_zoom":8.0,"alt_name:it":"Palma di Maiorca"},"coordinates":[3623,2814]},{"type":"Point","properties":{"admin_level":"8","kind":"locality","name:en":"Ibiza city","name:nl":"Ibiza","name":"Eivissa","kind_detail":"town","min_zoom":8.0,"name:de":"Ibiza Stadt","source":"openstreetmap.org","name:fr":"Ibiza (ville)","int_name":"Ibiza","loc_name":"Vila","id":308207026,"name:es":"Ibiza","population":49516},"coordinates":[81,327]},{"type":"Point","properties":{"kind":"locality","name":"Santa Eul\u00e0ria des Riu","kind_detail":"town","source":"openstreetmap.org","min_zoom":8.0,"id":2487094876,"name:es":"Santa Eulalia del R\u00edo","population":35812},"coordinates":[373,611]},{"type":"Point","properties":{"admin_level":"8","kind":"locality","name":"S\u00f3ller","kind_detail":"town","source":"openstreetmap.org","min_zoom":8.0,"id":624674984,"population":8986},"coordinates":[3812,3556]},{"type":"Point","properties":{"admin_level":"8","kind":"locality","name":"Andratx","kind_detail":"town","source":"openstreetmap.org","min_zoom":8.0,"id":253262064,"population":7157},"coordinates":[2953,2833]},{"type":"Point","properties":{"admin_level":"8","kind":"locality","name":"Santa Maria del Cam\u00ed","kind_detail":"town","source":"openstreetmap.org","min_zoom":8.0,"id":251717463,"name:es":"Santa Mar\u00eda del Camino","population":6500},"coordinates":[3995,3110]},{"type":"Point","properties":{"admin_level":"8","kind":"locality","name":"Calvi\u00e0","kind_detail":"town","source":"openstreetmap.org","min_zoom":8.0,"id":303622304,"population":2534},"coordinates":[3199,2797]}]},"transit":{"type":"GeometryCollection","geometries":[{"type":"MultiLineString","properties":{"source":"openstreetmap.org","kind":"train","name":"Palma - Manacor","sort_rank":275,"min_zoom":6.0,"osm_relation":true},"arcs":[[3],[4],[5],[6],[7],[8],[9],[10],[11],[12],[13],[14],[15],[16],[17],[18],[19],[20],[21],[22]]},{"type":"LineString","properties":{"kind":"train","description":"Picturesque preserved electric train running between Palma & S\u00f3ller.","sort_rank":275,"source":"openstreetmap.org","min_zoom":6.0,"id":-1664230,"osm_relation":true,"name":"Tren de S\u00f3ller"},"arcs":[23]},{"type":"MultiLineString","properties":{"source":"openstreetmap.org","kind":"train","name":"Palma - Sa Pobla","sort_rank":275,"min_zoom":6.0,"osm_relation":true},"arcs":[[24],[25],[26],[27],[28],[29],[30],[31],[32],[33],[34],[35],[36],[37],[38],[39],[40],[41]]}]},"pois":{"type":"GeometryCollection","geometries":[]},"boundaries":{"type":"GeometryCollection","geometries":[{"type":"LineString","properties":{"name:kg":"Espania","name:ty":"Paniora","name:ka":"\u10d4\u10e1\u10de\u10d0\u10dc\u10d4\u10d7\u10d8","name:ko":"\uc2a4\ud398\uc778","name:cv":"\u0418\u0441\u043f\u0430\u043d\u0438","name:cu":"\u0407\u0441\u043f\u0430\u043d\u0457\ua657","name:kl":"Spania","name:cs":"\u0160pan\u011blsko","name:tt":"\u0418\u0441\u043f\u0430\u043d\u0438\u044f","name:co":"Spagna","name:kv":"\u0418\u0441\u043f\u0430\u043d\u0438\u044f","name:ku":"Spanya","name:to":"Sepeni","name:tl":"Espanya","name:ce":"\u0418\u0441\u043f\u0430\u043d\u0438","name:ta":"\u0b8e\u0b9a\u0bc1\u0baa\u0bcd\u0baa\u0bbe\u0ba9\u0bbf\u0baf\u0bbe","name:tg":"\u0418\u0441\u043f\u043e\u043d\u0438\u0451","name:ca":"Espanya","name:te":"\u0c38\u0c4d\u0c2a\u0c46\u0c2f\u0c3f\u0c28\u0c4d","name:cy":"Sbaen","name:qu":"Ispa\u00f1a","name:da":"Spanien","name:de":"Spanien","name:dz":"\u0f66\u0f72\u0f54\u0f71\u0f7a\u0f53\u0f0b","source":"openstreetmap.org","name:kn":"\u0cb8\u0ccd\u0caa\u0cc7\u0ca8\u0ccd","name:dv":"\u0787\u07a8\u0790\u07b0\u0795\u07ac\u0787\u07a8\u0782\u07b0","name:km":"\u17a2\u17c1\u179f\u17d2\u1794\u17c9\u17b6\u1789","name:lv":"Sp\u0101nija","name:lt":"Ispanija","name:uz":"Ispaniya","name:kk":"\u0418\u0441\u043f\u0430\u043d\u0438\u044f","name:ur":"\u06c1\u0633\u067e\u0627\u0646\u06cc\u06c1","name:lb":"Spuenien","name:la":"Hispania","name:uk":"\u0406\u0441\u043f\u0430\u043d\u0456\u044f","name:ug":"Ispaniye","name:li":"Spanje","name:ln":"Espania","name:el":"\u0399\u03c3\u03c0\u03b1\u03bd\u03af\u03b1","name:eo":"Hispanujo","name:en":"Spain","name":"Espa\u00f1a","name:tk":"Ispani\u00fda","name:ee":"Spain","name:th":"\u0e1b\u0e23\u0e30\u0e40\u0e17\u0e28\u0e2a\u0e40\u0e1b\u0e19","name:eu":"Espainia","name:et":"Hispaania","name:ay":"Ispa\u00f1a","name:rm":"Spagna","name:rn":"Esipanye","name:az":"\u0130spaniya","name:ie":"Hispania","name:id":"Spanyol","name:ig":"Spain","name:ik":"Spa\u00f1a","name:ar":"\u0625\u0633\u0628\u0627\u0646\u064a\u0627","name:io":"Hispania","name:is":"Sp\u00e1nn","name:am":"\u12a5\u1235\u1353\u1295\u12eb","name:it":"Spagna","name:an":"Espanya","name:ru":"\u0418\u0441\u043f\u0430\u043d\u0438\u044f","name:rw":"Esipanye","name:af":"Spanje","name:zu":"ISpeyini","kind_detail":"2","name:za":"Sihbanhyaz","name:zh-yue":"\u897f\u73ed\u7259","name:zh":"\u897f\u73ed\u7259","name:so":"Isbania","name:sm":"Spania","name:sl":"\u0160panija","name:sk":"\u0160panielsko","name:ja":"\u30b9\u30da\u30a4\u30f3","name:sh":"\u0160panija","name:se":"Sp\u00e1nia","name:sc":"Ispagna","name:br":"Spagn","name:bs":"\u0160panija","name:bn":"\u09b8\u09cd\u09aa\u09c7\u09a8","name:bo":"\u0f5e\u0f72\u0f0b\u0f54\u0f53\u0f0b\u0f61\u0f0d","name:bi":"Spain","name:sw":"Hispania","name:be":"\u0406\u0441\u043f\u0430\u043d\u0456\u044f","name:su":"Spanyol","name:bg":"\u0418\u0441\u043f\u0430\u043d\u0438\u044f","name:ss":"Sipeyini","name:ba":"\u0418\u0441\u043f\u0430\u043d\u0438\u044f","name:sq":"Spanja","name:jv":"Spanyol","name:sa":"\u0938\u094d\u092a\u0947\u0928\u094d","name:ia":"Espania","name:pt":"Espanha","name:ps":"\u0627\u0633\u067e\u0627\u0646\u06cc\u0627","name:oc":"Espanha","min_zoom":8.0,"name:ro":"Spania","name:zh-min-nan":"Se-pan-g\u00e2","name:os":"\u0418\u0441\u043f\u0430\u043d\u0438","name:or":"\u0b38\u0b4d\u0b2a\u0b47\u0b28","name:pl":"Hiszpania","name:st":"Spain","sort_rank":262,"name:sr":"\u0428\u043f\u0430\u043d\u0438\u0458\u0430","osm_relation":true,"name:pa":"\u0a38\u0a2a\u0a47\u0a28","name:tr":"\u0130spanya","name:hi":"\u0938\u094d\u092a\u0947\u0928","name:sv":"Spanien","name:he":"\u05e1\u05e4\u05e8\u05d3","name:hy":"\u053b\u057d\u057a\u0561\u0576\u056b\u0561","name:ht":"Espay","name:hu":"Spanyolorsz\u00e1g","name:hr":"\u0160panjolska","kind":"country","name:ts":"Spaniya","name:yi":"\u05e9\u05e4\u05d0\u05e0\u05d9\u05e2","name:iu":"\u14ef\u1438\u1403\u14d0","name:yo":"Sp\u00e9\u00ecn","name:mt":"Spanja","alt_name:eo":"Hispanio","name:ms":"Sepanyol","name:mr":"\u0938\u094d\u092a\u0947\u0928","name:my":"\u1005\u1015\u102d\u1014\u103a\u1014\u102d\u102f\u1004\u103a\u1004\u1036","official_name":"Reino de Espa\u00f1a","name:kw":"Spayn","name:mg":"Espaina","name:vi":"T\u00e2y Ban Nha","name:ml":"\u0d38\u0d4d\u0d2a\u0d46\u0d2f\u0d3f\u0d7b","name:mn":"\u0418\u0441\u043f\u0430\u043d\u0438","name:mi":"P\u0101niora","id":-1311341,"name:mk":"\u0428\u043f\u0430\u043d\u0438\u0458\u0430","name:vo":"Spany\u00e4n","name:fa":"\u0627\u0633\u067e\u0627\u0646\u06cc\u0627","name:fi":"Espanja","name:ky":"\u0418\u0441\u043f\u0430\u043d\u0438\u044f","name:fo":"Spania","name:fr":"Espagne","name:fy":"Spanje","int_name":"Spain","name:nl":"Spanje","name:nn":"Spania","name:no":"Spania","name:na":"Pain","name:ne":"\u0938\u094d\u092a\u0947\u0928","name:wa":"Espagne","name:wo":"Ispaa\u00f1","name:nv":"Dib\u00e9 Din\u00ed\u00ed Bik\u00e9yah","name:ga":"An Sp\u00e1inn","name:gd":"An Sp\u00e0inn","maritime_boundary":true,"name:gv":"Yn Spaainey","name:gu":"\u0ab8\u0acd\u0aaa\u0ac7\u0aa8"},"arcs":[0]},{"type":"LineString","properties":{"name:kg":"Espania","name:ty":"Paniora","name:ka":"\u10d4\u10e1\u10de\u10d0\u10dc\u10d4\u10d7\u10d8","name:ko":"\uc2a4\ud398\uc778","name:cv":"\u0418\u0441\u043f\u0430\u043d\u0438","name:cu":"\u0407\u0441\u043f\u0430\u043d\u0457\ua657","name:kl":"Spania","name:cs":"\u0160pan\u011blsko","name:tt":"\u0418\u0441\u043f\u0430\u043d\u0438\u044f","name:co":"Spagna","name:kv":"\u0418\u0441\u043f\u0430\u043d\u0438\u044f","name:ku":"Spanya","name:to":"Sepeni","name:tl":"Espanya","name:ce":"\u0418\u0441\u043f\u0430\u043d\u0438","name:ta":"\u0b8e\u0b9a\u0bc1\u0baa\u0bcd\u0baa\u0bbe\u0ba9\u0bbf\u0baf\u0bbe","name:tg":"\u0418\u0441\u043f\u043e\u043d\u0438\u0451","name:ca":"Espanya","name:te":"\u0c38\u0c4d\u0c2a\u0c46\u0c2f\u0c3f\u0c28\u0c4d","name:cy":"Sbaen","name:qu":"Ispa\u00f1a","name:da":"Spanien","name:de":"Spanien","name:dz":"\u0f66\u0f72\u0f54\u0f71\u0f7a\u0f53\u0f0b","source":"openstreetmap.org","name:kn":"\u0cb8\u0ccd\u0caa\u0cc7\u0ca8\u0ccd","name:dv":"\u0787\u07a8\u0790\u07b0\u0795\u07ac\u0787\u07a8\u0782\u07b0","name:km":"\u17a2\u17c1\u179f\u17d2\u1794\u17c9\u17b6\u1789","name:lv":"Sp\u0101nija","name:lt":"Ispanija","name:uz":"Ispaniya","name:kk":"\u0418\u0441\u043f\u0430\u043d\u0438\u044f","name:ur":"\u06c1\u0633\u067e\u0627\u0646\u06cc\u06c1","name:lb":"Spuenien","name:la":"Hispania","name:uk":"\u0406\u0441\u043f\u0430\u043d\u0456\u044f","name:ug":"Ispaniye","name:li":"Spanje","name:ln":"Espania","name:el":"\u0399\u03c3\u03c0\u03b1\u03bd\u03af\u03b1","name:eo":"Hispanujo","name:en":"Spain","name":"Espa\u00f1a","name:tk":"Ispani\u00fda","name:ee":"Spain","name:th":"\u0e1b\u0e23\u0e30\u0e40\u0e17\u0e28\u0e2a\u0e40\u0e1b\u0e19","name:eu":"Espainia","name:et":"Hispaania","name:ay":"Ispa\u00f1a","name:rm":"Spagna","name:rn":"Esipanye","name:az":"\u0130spaniya","name:ie":"Hispania","name:id":"Spanyol","name:ig":"Spain","name:ik":"Spa\u00f1a","name:ar":"\u0625\u0633\u0628\u0627\u0646\u064a\u0627","name:io":"Hispania","name:is":"Sp\u00e1nn","name:am":"\u12a5\u1235\u1353\u1295\u12eb","name:it":"Spagna","name:an":"Espanya","name:ru":"\u0418\u0441\u043f\u0430\u043d\u0438\u044f","name:rw":"Esipanye","name:af":"Spanje","name:zu":"ISpeyini","kind_detail":"2","name:za":"Sihbanhyaz","name:zh-yue":"\u897f\u73ed\u7259","name:zh":"\u897f\u73ed\u7259","name:so":"Isbania","name:sm":"Spania","name:sl":"\u0160panija","name:sk":"\u0160panielsko","name:ja":"\u30b9\u30da\u30a4\u30f3","name:sh":"\u0160panija","name:se":"Sp\u00e1nia","name:sc":"Ispagna","name:br":"Spagn","name:bs":"\u0160panija","name:bn":"\u09b8\u09cd\u09aa\u09c7\u09a8","name:bo":"\u0f5e\u0f72\u0f0b\u0f54\u0f53\u0f0b\u0f61\u0f0d","name:bi":"Spain","name:sw":"Hispania","name:be":"\u0406\u0441\u043f\u0430\u043d\u0456\u044f","name:su":"Spanyol","name:bg":"\u0418\u0441\u043f\u0430\u043d\u0438\u044f","name:ss":"Sipeyini","name:ba":"\u0418\u0441\u043f\u0430\u043d\u0438\u044f","name:sq":"Spanja","name:jv":"Spanyol","name:sa":"\u0938\u094d\u092a\u0947\u0928\u094d","name:ia":"Espania","name:pt":"Espanha","name:ps":"\u0627\u0633\u067e\u0627\u0646\u06cc\u0627","name:oc":"Espanha","min_zoom":8.0,"name:ro":"Spania","name:zh-min-nan":"Se-pan-g\u00e2","name:os":"\u0418\u0441\u043f\u0430\u043d\u0438","name:or":"\u0b38\u0b4d\u0b2a\u0b47\u0b28","name:pl":"Hiszpania","name:st":"Spain","sort_rank":262,"name:sr":"\u0428\u043f\u0430\u043d\u0438\u0458\u0430","osm_relation":true,"name:pa":"\u0a38\u0a2a\u0a47\u0a28","name:tr":"\u0130spanya","name:hi":"\u0938\u094d\u092a\u0947\u0928","name:sv":"Spanien","name:he":"\u05e1\u05e4\u05e8\u05d3","name:hy":"\u053b\u057d\u057a\u0561\u0576\u056b\u0561","name:ht":"Espay","name:hu":"Spanyolorsz\u00e1g","name:hr":"\u0160panjolska","kind":"country","name:ts":"Spaniya","name:yi":"\u05e9\u05e4\u05d0\u05e0\u05d9\u05e2","name:iu":"\u14ef\u1438\u1403\u14d0","name:yo":"Sp\u00e9\u00ecn","name:mt":"Spanja","alt_name:eo":"Hispanio","name:ms":"Sepanyol","name:mr":"\u0938\u094d\u092a\u0947\u0928","name:my":"\u1005\u1015\u102d\u1014\u103a\u1014\u102d\u102f\u1004\u103a\u1004\u1036","official_name":"Reino de Espa\u00f1a","name:kw":"Spayn","name:mg":"Espaina","name:vi":"T\u00e2y Ban Nha","name:ml":"\u0d38\u0d4d\u0d2a\u0d46\u0d2f\u0d3f\u0d7b","name:mn":"\u0418\u0441\u043f\u0430\u043d\u0438","name:mi":"P\u0101niora","id":-1311341,"name:mk":"\u0428\u043f\u0430\u043d\u0438\u0458\u0430","name:vo":"Spany\u00e4n","name:fa":"\u0627\u0633\u067e\u0627\u0646\u06cc\u0627","name:fi":"Espanja","name:ky":"\u0418\u0441\u043f\u0430\u043d\u0438\u044f","name:fo":"Spania","name:fr":"Espagne","name:fy":"Spanje","int_name":"Spain","name:nl":"Spanje","name:nn":"Spania","name:no":"Spania","name:na":"Pain","name:ne":"\u0938\u094d\u092a\u0947\u0928","name:wa":"Espagne","name:wo":"Ispaa\u00f1","name:nv":"Dib\u00e9 Din\u00ed\u00ed Bik\u00e9yah","name:ga":"An Sp\u00e1inn","name:gd":"An Sp\u00e0inn","maritime_boundary":true,"name:gv":"Yn Spaainey","name:gu":"\u0ab8\u0acd\u0aaa\u0ac7\u0aa8"},"arcs":[1]},{"type":"LineString","properties":{"name:pt":"Ilhas Baleares","name:ka":"\u10d1\u10d0\u10da\u10d4\u10d0\u10e0\u10d8\u10e1 \u10d9\u10e3\u10dc\u10eb\u10e3\u10da\u10d4\u10d1\u10d8","name:ko":"\ubc1c\ub808\uc544\ub808\uc2a4 \uc81c\ub3c4","name:kk":"\u0411\u0430\u043b\u0435\u0430\u0440 \u0430\u0440\u0430\u043b\u0434\u0430\u0440\u044b","name:co":"Baleare","name:th":"\u0e2b\u0e21\u0e39\u0e48\u0e40\u0e01\u0e32\u0e30\u0e41\u0e1a\u0e25\u0e35\u0e41\u0e2d\u0e23\u0e34\u0e01","alt_name:cs":"Bale\u00e1rsk\u00e9 ostrovy","name:sv":"Balearerna","name:pl":"Baleary","name:cy":"Ynysoedd Balearig","sort_rank":256,"name:da":"Baleariske \u00d8er","name:de":"Balearische Inseln","source":"openstreetmap.org","name:lv":"Bale\u0101ru Salas","name:tr":"Balear Adalar\u0131","name:cs":"Bale\u00e1ry","name:he":"\u05d4\u05d0\u05d9\u05d9\u05dd \u05d4\u05d1\u05dc\u05d0\u05e8\u05d9\u05d9\u05dd","name:lb":"Balearesch Inselen","name:la":"Insulae Baliares","name:uk":"\u0411\u0430\u043b\u0435\u0430\u0440\u0441\u044c\u043a\u0456 \u043e\u0441\u0442\u0440\u043e\u0432\u0438","name:hy":"\u0532\u0561\u056c\u0565\u0561\u0580\u0575\u0561\u0576 \u056f\u0572\u0566\u056b\u0576\u0565\u0580","name:hu":"Bale\u00e1r-szigetek","name:hr":"Balearski otoci","name:oc":"Illas Balearas","name:el":"\u0392\u03b1\u03bb\u03b5\u03b1\u03c1\u03af\u03b4\u03b5\u03c2 \u039d\u03ae\u03c3\u03bf\u03b9","kind":"region","name:en":"Balearic Islands","name":"Illes Balears","min_zoom":8.0,"name:eu":"Balear uharteak","name:et":"Baleaarid","name:es":"Islas Baleares","name:ro":"Insulele Baleare","name:id":"Kepulauan Balears","name:ms":"Kepulauan Balearic","name:mr":"\u092c\u093e\u0932\u0947\u0906\u0930\u093f\u0915 \u0926\u094d\u0935\u0940\u092a\u0938\u092e\u0942\u0939","name:ar":"\u0645\u0646\u0637\u0642\u0629 \u062c\u0632\u0631 \u0627\u0644\u0628\u0644\u064a\u0627\u0631","name:kw":"Ynysow Balearek","name:is":"Baleareyjar","name:it":"Isole Baleari","name:an":"Islas Balears","name:vi":"Qu\u1ea7n \u0111\u1ea3o Baleares","id":-348981,"name:mk":"\u0411\u0430\u043b\u0435\u0430\u0440\u0441\u043a\u0438 \u041e\u0441\u0442\u0440\u043e\u0432\u0438","name:fa":"\u062c\u0632\u0627\u06cc\u0631 \u0628\u0627\u0644\u0626\u0627\u0631\u0633","name:lt":"Balear\u0173 salos","kind_detail":"4","name:fr":"\u00celes Bal\u00e9ares","name:fy":"Balearen","name:zh":"\u5df4\u5229\u963f\u91cc\u7fa4\u5c9b","name:sl":"Balearski otoki","name:nl":"Balearen","name:ja":"\u30d0\u30ec\u30a2\u30ec\u30b9\u8af8\u5cf6","name:nn":"Balearane","name:no":"Balearene","name:br":"Belearez","name:bs":"Balearska ostrva","name:sk":"Bale\u00e1ry","name:ru":"\u0411\u0430\u043b\u0435\u0430\u0440\u0441\u043a\u0438\u0435 \u043e\u0441\u0442\u0440\u043e\u0432\u0430","name:be":"\u0411\u0430\u043b\u0435\u0430\u0440\u0441\u043a\u0456\u044f \u0430\u0441\u0442\u0440\u0430\u0432\u044b","alt_name:fr":"Bal\u00e9ares","name:bg":"\u0411\u0430\u043b\u0435\u0430\u0440\u0441\u043a\u0438 \u043e\u0441\u0442\u0440\u043e\u0432\u0438","osm_relation":true,"name:ga":"Na hOile\u00e1in Bhail\u00e9aracha","name:gd":"Na h-Eileanan Bal\u00e8arach","name:gl":"Illas Baleares","maritime_boundary":true,"name:gv":"Ny h-Ellanyn Balearagh","name:fi":"Baleaarit"},"arcs":[2]}]},"roads":{"type":"GeometryCollection","geometries":[{"type":"LineString","properties":{"kind":"major_road","sort_rank":380,"kind_detail":"primary","bus_network":"Transports p\u00fablics de Mallorca","source":"openstreetmap.org","min_zoom":8.0,"bus_shield_text":"301","ref":"Ma-13A","id":488510911},"arcs":[46]},{"type":"LineString","properties":{"kind":"major_road","sort_rank":380,"kind_detail":"primary","bus_network":"Bus de Palma","source":"openstreetmap.org","min_zoom":8.0,"bus_shield_text":"14","ref":"Ma-15D"},"arcs":[47]},{"type":"MultiLineString","properties":{"source":"openstreetmap.org","kind":"major_road","sort_rank":380,"kind_detail":"primary","ref":"PM-804","min_zoom":8.0},"arcs":[[48],[49],[50],[51],[52],[53],[54],[55]]},{"type":"MultiLineString","properties":{"kind":"major_road","sort_rank":380,"kind_detail":"primary","bus_network":"Bus de Palma","source":"openstreetmap.org","min_zoom":8.0,"bus_shield_text":"14","ref":"Ma-5013"},"arcs":[[56],[57],[58]]},{"type":"LineString","properties":{"source":"openstreetmap.org","kind":"ferry","name":"Port d\u2019Andratx - Sa Dragonera","sort_rank":355,"min_zoom":8.0,"id":55448850},"arcs":[59]},{"type":"LineString","properties":{"source":"openstreetmap.org","kind":"major_road","bus_shield_text":"5","sort_rank":380,"kind_detail":"primary","min_zoom":8.0,"bus_network":"Bus de Palma"},"arcs":[60]},{"type":"MultiLineString","properties":{"kind":"major_road","sort_rank":380,"kind_detail":"primary","bus_network":"Bus de Palma","source":"openstreetmap.org","min_zoom":8.0,"bus_shield_text":"1","ref":"Ma-1"},"arcs":[[61],[62],[63],[64],[65],[66]]},{"type":"MultiLineString","properties":{"source":"openstreetmap.org","kind":"ferry","name":"port d'Eivissa - marina Botafoc","sort_rank":355,"min_zoom":8.0,"id":378162012},"arcs":[[67],[68]]},{"type":"MultiLineString","properties":{"source":"openstreetmap.org","kind":"major_road","bus_shield_text":"10","sort_rank":380,"kind_detail":"primary","min_zoom":8.0,"bus_network":"Bus de Palma"},"arcs":[[69],[70]]},{"type":"MultiLineString","properties":{"source":"openstreetmap.org","kind":"major_road","sort_rank":380,"kind_detail":"primary","ref":"Ma-15","min_zoom":8.0},"arcs":[[71],[72]]},{"type":"LineString","properties":{"source":"openstreetmap.org","kind":"ferry","name":"Sant Elm - Sa Dragonera","sort_rank":355,"landuse_kind":"nature_reserve","min_zoom":8.0,"id":176849648},"arcs":[73]},{"type":"LineString","properties":{"bus_network":"Transport de les Illes Balears - Eivissa","sort_rank":380,"kind_detail":"primary","kind":"major_road","source":"openstreetmap.org","min_zoom":8.0,"bus_shield_text":"L13","ref":"C-733"},"arcs":[74]},{"type":"MultiLineString","properties":{"bus_network":"Transports p\u00fablics de Mallorca","sort_rank":380,"kind_detail":"primary","kind":"major_road","source":"openstreetmap.org","min_zoom":8.0,"bus_shield_text":"411","ref":"Ma-15"},"arcs":[[75],[76]]},{"type":"MultiLineString","properties":{"kind":"major_road","sort_rank":380,"kind_detail":"primary","bus_network":"Bus de Palma","source":"openstreetmap.org","min_zoom":8.0,"bus_shield_text":"25","ref":"Ma-19"},"arcs":[[77],[78]]},{"type":"MultiLineString","properties":{"kind":"major_road","sort_rank":380,"kind_detail":"primary","bus_network":"Bus de Palma","source":"openstreetmap.org","min_zoom":8.0,"bus_shield_text":"1","ref":"Ma-19"},"arcs":[[79],[80]]},{"type":"MultiLineString","properties":{"source":"openstreetmap.org","kind":"major_road","sort_rank":380,"kind_detail":"primary","ref":"Ma-1","min_zoom":8.0},"arcs":[[81],[82],[83],[84],[85],[86]]},{"type":"MultiLineString","properties":{"source":"openstreetmap.org","kind":"highway","sort_rank":383,"kind_detail":"motorway","ref":"Ma-1","min_zoom":8.0},"arcs":[[87],[88],[89],[90],[91],[92],[93],[94]]},{"type":"LineString","properties":{"source":"openstreetmap.org","kind":"ferry","name":"Valencia - Mallorca - Mah\u00f3n","sort_rank":355,"min_zoom":8.0,"osm_relation":true},"arcs":[95]},{"type":"MultiLineString","properties":{"kind":"ferry","name":"Puerto de Ibiza - Estaci\u00f3n Mar\u00edtima Botafoc","sort_rank":355,"landuse_kind":"urban_area","source":"openstreetmap.org","min_zoom":8.0,"id":-5637399,"osm_relation":true},"arcs":[[96],[97]]},{"type":"LineString","properties":{"source":"openstreetmap.org","kind":"ferry","name":"D\u00e9nia - Eivissa","sort_rank":355,"landuse_kind":"urban_area","min_zoom":8.0,"name:es":"Denia - Ibiza"},"arcs":[98]},{"type":"LineString","properties":{"kind":"major_road","sort_rank":380,"kind_detail":"primary","is_bicycle_related":true,"bicycle_shield_text":null,"cycleway":"track","source":"openstreetmap.org","min_zoom":8.0,"bicycle_network":"lcn","ref":"Ma-3010","id":24712672},"arcs":[99]},{"type":"LineString","properties":{"kind":"major_road","sort_rank":380,"kind_detail":"primary","is_bicycle_related":true,"bus_network":"Transports p\u00fablics de Mallorca","cycleway":"lane","source":"openstreetmap.org","min_zoom":8.0,"bus_shield_text":"301","ref":"Ma-3010","id":488501833},"arcs":[100]},{"type":"MultiLineString","properties":{"source":"openstreetmap.org","kind":"major_road","sort_rank":380,"kind_detail":"primary","ref":"C-731","min_zoom":8.0},"arcs":[[101],[102]]},{"type":"MultiLineString","properties":{"source":"openstreetmap.org","kind":"ferry","name":"Val\u00e8ncia - Eivissa","sort_rank":355,"min_zoom":8.0,"name:es":"Valencia - Ibiza"},"arcs":[[103],[104]]},{"type":"MultiLineString","properties":{"bus_network":"Transport de les Illes Balears - Eivissa","sort_rank":380,"kind_detail":"primary","kind":"major_road","source":"openstreetmap.org","min_zoom":8.0,"bus_shield_text":"L22","ref":"PM-804"},"arcs":[[105],[106],[107],[108],[109],[110],[111],[112],[113],[114],[115],[116],[117],[118],[119],[120],[121],[122]]},{"type":"LineString","properties":{"kind":"ferry","name":"Val\u00e8ncia - Eivissa","sort_rank":355,"landuse_kind":"urban_area","source":"openstreetmap.org","min_zoom":8.0,"id":133872930,"name:es":"Valencia - Ibiza"},"arcs":[123]},{"type":"MultiLineString","properties":{"kind":"major_road","sort_rank":380,"kind_detail":"primary","bus_network":"Bus de Palma","source":"openstreetmap.org","min_zoom":8.0,"bus_shield_text":"14","ref":"Ma-15"},"arcs":[[124],[125]]},{"type":"MultiLineString","properties":{"kind":"major_road","sort_rank":380,"kind_detail":"primary","bus_network":"Bus de Palma","source":"openstreetmap.org","min_zoom":8.0,"bus_shield_text":"28","ref":"Ma 3011"},"arcs":[[126],[127]]},{"type":"MultiLineString","properties":{"kind":"major_road","network":null,"sort_rank":381,"landuse_kind":"urban_area","source":"openstreetmap.org","min_zoom":8.0,"kind_detail":"trunk","shield_text":"20","ref":"E-20"},"arcs":[[128],[129]]},{"type":"MultiLineString","properties":{"source":"openstreetmap.org","kind":"major_road","sort_rank":380,"kind_detail":"primary","ref":"Ma-11","min_zoom":8.0},"arcs":[[130],[131],[132],[133],[134],[135]]},{"type":"MultiLineString","properties":{"source":"openstreetmap.org","kind":"major_road","bus_shield_text":"19","sort_rank":380,"kind_detail":"primary","min_zoom":8.0,"bus_network":"Bus de Palma"},"arcs":[[136],[137],[138]]},{"type":"MultiLineString","properties":{"source":"openstreetmap.org","kind":"major_road","sort_rank":380,"kind_detail":"primary","ref":"Ma-19A","min_zoom":8.0},"arcs":[[139],[140],[141],[142]]},{"type":"MultiLineString","properties":{"bus_network":"Transports p\u00fablics de Mallorca","sort_rank":380,"kind_detail":"primary","kind":"major_road","source":"openstreetmap.org","min_zoom":8.0,"bus_shield_text":"211","ref":"Ma-11"},"arcs":[[143],[144],[145],[146],[147],[148],[149],[150],[151],[152],[153],[154],[155],[156],[157],[158],[159],[160]]},{"type":"LineString","properties":{"source":"openstreetmap.org","kind":"major_road","bus_shield_text":"2","sort_rank":380,"kind_detail":"primary","min_zoom":8.0,"bus_network":"Bus de Palma"},"arcs":[161]},{"type":"MultiLineString","properties":{"kind":"major_road","sort_rank":380,"kind_detail":"primary","bus_network":"Bus de Palma","source":"openstreetmap.org","min_zoom":8.0,"bus_shield_text":"29","ref":"Ma-1"},"arcs":[[162],[163],[164],[165]]},{"type":"LineString","properties":{"kind":"ferry","name":"Formentera - Eivissa","sort_rank":355,"landuse_kind":"nature_reserve","source":"openstreetmap.org","min_zoom":8.0,"id":25617017,"name:es":"Formentera - Ibiza"},"arcs":[166]},{"type":"MultiLineString","properties":{"source":"openstreetmap.org","kind":"major_road","sort_rank":380,"kind_detail":"primary","ref":"Ma-3018","min_zoom":8.0},"arcs":[[167],[168],[169]]},{"type":"LineString","properties":{"bus_network":"Transports p\u00fablics de Mallorca","sort_rank":380,"kind_detail":"primary","kind":"major_road","source":"openstreetmap.org","min_zoom":8.0,"bus_shield_text":"320","ref":"Ma-2050"},"arcs":[170]},{"type":"MultiLineString","properties":{"source":"openstreetmap.org","kind":"major_road","sort_rank":380,"kind_detail":"primary","ref":"Ma-6014","min_zoom":8.0},"arcs":[[171],[172],[173],[174],[175],[176],[177]]},{"type":"LineString","properties":{"source":"openstreetmap.org","kind":"major_road","sort_rank":380,"kind_detail":"primary","ref":"Ma-2020","min_zoom":8.0,"id":488431117},"arcs":[178]},{"type":"LineString","properties":{"kind":"major_road","sort_rank":380,"kind_detail":"primary","bus_network":"Bus de Palma","source":"openstreetmap.org","min_zoom":8.0,"bus_shield_text":"14","ref":"Ma-30"},"arcs":[179]},{"type":"LineString","properties":{"source":"openstreetmap.org","kind":"ferry","name":"D\u00e9nia - Palma","sort_rank":355,"min_zoom":8.0,"name:es":"Denia - Palma"},"arcs":[180]},{"type":"LineString","properties":{"bus_network":"Transports p\u00fablics de Mallorca","sort_rank":380,"kind_detail":"primary","kind":"major_road","source":"openstreetmap.org","min_zoom":8.0,"bus_shield_text":"301V","ref":"Ma-13A"},"arcs":[181]},{"type":"LineString","properties":{"kind":"major_road","network":null,"sort_rank":381,"kind_detail":"trunk","bus_network":"Transport de les Illes Balears - Eivissa","source":"openstreetmap.org","min_zoom":8.0,"bus_shield_text":"L30","shield_text":"20","landuse_kind":"urban_area","ref":"EI-20","id":48199376},"arcs":[182]},{"type":"LineString","properties":{"sort_rank":381,"source":"openstreetmap.org","min_zoom":8.0,"kind":"major_road","kind_detail":"trunk"},"arcs":[183]},{"type":"LineString","properties":{"sort_rank":355,"source":"openstreetmap.org","min_zoom":8.0,"name":"Val\u00e8ncia - Palma","kind":"ferry"},"arcs":[184]},{"type":"LineString","properties":{"kind":"major_road","sort_rank":380,"kind_detail":"primary","bus_network":"Transports p\u00fablics de Mallorca","source":"openstreetmap.org","min_zoom":8.0,"bus_shield_text":"310","ref":"Ma 3011","id":23545067},"arcs":[185]},{"type":"MultiLineString","properties":{"kind":"major_road","sort_rank":380,"kind_detail":"primary","bus_network":"Bus de Palma","source":"openstreetmap.org","min_zoom":8.0,"bus_shield_text":"28","ref":"Ma-30"},"arcs":[[186],[187],[188],[189],[190],[191],[192],[193],[194],[195]]},{"type":"LineString","properties":{"kind":"major_road","sort_rank":380,"kind_detail":"primary","bus_network":"Bus de Palma","source":"openstreetmap.org","min_zoom":8.0,"bus_shield_text":"14","ref":"Ma 30"},"arcs":[196]},{"type":"MultiLineString","properties":{"bus_network":"Transport de les Illes Balears - Eivissa","sort_rank":380,"kind_detail":"primary","kind":"major_road","source":"openstreetmap.org","min_zoom":8.0,"bus_shield_text":"L13","ref":"PM-810"},"arcs":[[197],[198],[199],[200]]},{"type":"LineString","properties":{"kind":"major_road","sort_rank":381,"kind_detail":"trunk","bus_network":"Transports p\u00fablics de Mallorca","source":"openstreetmap.org","min_zoom":8.0,"bus_shield_text":"102","id":26418961},"arcs":[201]},{"type":"MultiLineString","properties":{"bus_network":"Transports p\u00fablics de Mallorca","sort_rank":380,"kind_detail":"primary","kind":"major_road","source":"openstreetmap.org","min_zoom":8.0,"bus_shield_text":"310","ref":"Ma-3018"},"arcs":[[202],[203],[204],[205]]},{"type":"LineString","properties":{"source":"openstreetmap.org","kind":"major_road","sort_rank":381,"kind_detail":"trunk","ref":"Ma 30","min_zoom":8.0},"arcs":[206]},{"type":"LineString","properties":{"kind":"major_road","sort_rank":380,"kind_detail":"primary","bus_network":"Bus de Palma","source":"openstreetmap.org","min_zoom":8.0,"bus_shield_text":"20","id":93260782,"name:es":"Avenida Alemania"},"arcs":[207]},{"type":"LineString","properties":{"kind":"major_road","sort_rank":380,"kind_detail":"primary","bus_network":"Bus de Palma","source":"openstreetmap.org","min_zoom":8.0,"bus_shield_text":"34","ref":"Ma-11","id":461476642},"arcs":[208]},{"type":"MultiLineString","properties":{"source":"openstreetmap.org","kind":"major_road","bus_shield_text":"11","sort_rank":380,"kind_detail":"primary","min_zoom":8.0,"bus_network":"Bus de Palma"},"arcs":[[209],[210]]},{"type":"MultiLineString","properties":{"source":"openstreetmap.org","kind":"major_road","sort_rank":381,"kind_detail":"trunk","ref":"Ma-30","min_zoom":8.0},"arcs":[[211],[212],[213]]},{"type":"MultiLineString","properties":{"kind":"major_road","sort_rank":380,"kind_detail":"primary","bus_network":"Bus de Palma","source":"openstreetmap.org","min_zoom":8.0,"bus_shield_text":"3","ref":"Ma-1"},"arcs":[[214],[215],[216],[217]]},{"type":"MultiLineString","properties":{"source":"openstreetmap.org","kind":"major_road","bus_shield_text":"29","sort_rank":380,"kind_detail":"primary","min_zoom":8.0,"bus_network":"Bus de Palma"},"arcs":[[218],[219],[220]]},{"type":"LineString","properties":{"source":"openstreetmap.org","kind":"ferry","name":"Marseille - \u0648\u0647\u0631\u0627\u0646","sort_rank":355,"name:ar":"\u0648\u0647\u0631\u0627\u0646 - \u0645\u0631\u0633\u064a\u0644\u064a\u0627","min_zoom":8.0,"name:fr":"Marseille - Oran"},"arcs":[221]},{"type":"MultiLineString","properties":{"kind":"major_road","sort_rank":380,"kind_detail":"primary","bus_network":"Bus de Palma","source":"openstreetmap.org","min_zoom":8.0,"bus_shield_text":"9","ref":"Ma-1110"},"arcs":[[222],[223],[224],[225],[226],[227],[228]]},{"type":"LineString","properties":{"bus_network":"Transports p\u00fablics de Mallorca","sort_rank":380,"kind_detail":"primary","kind":"major_road","source":"openstreetmap.org","min_zoom":8.0,"bus_shield_text":"320","ref":"Ma-13A"},"arcs":[229]},{"type":"LineString","properties":{"source":"openstreetmap.org","kind":"ferry","name":"Formentera - Eivissa","sort_rank":355,"min_zoom":8.0,"name:es":"Formentera - Ibiza","id":25617017},"arcs":[230]},{"type":"MultiLineString","properties":{"bus_network":"Transport de les Illes Balears - Eivissa","sort_rank":380,"kind_detail":"primary","kind":"major_road","source":"openstreetmap.org","min_zoom":8.0,"bus_shield_text":"L30","ref":"PMV-812.2"},"arcs":[[231],[232]]},{"type":"MultiLineString","properties":{"kind":"major_road","sort_rank":380,"kind_detail":"primary","bus_network":"Bus de Palma","source":"openstreetmap.org","min_zoom":8.0,"bus_shield_text":"1","ref":"Ma-30"},"arcs":[[233],[234]]},{"type":"MultiLineString","properties":{"kind":"major_road","sort_rank":380,"kind_detail":"primary","bus_network":"Bus de Palma","source":"openstreetmap.org","min_zoom":8.0,"bus_shield_text":"1","name:es":"Avenida Alemania"},"arcs":[[235],[236]]},{"type":"MultiLineString","properties":{"bus_network":"Transport de les Illes Balears - Eivissa","network":null,"sort_rank":381,"landuse_kind":"urban_area","kind":"major_road","source":"openstreetmap.org","min_zoom":8.0,"bus_shield_text":"L13","shield_text":"20","kind_detail":"trunk","ref":"EI-20"},"arcs":[[237],[238]]},{"type":"MultiLineString","properties":{"kind":"major_road","network":null,"sort_rank":381,"landuse_kind":"urban_area","source":"openstreetmap.org","min_zoom":8.0,"kind_detail":"trunk","shield_text":"20","ref":"E 20"},"arcs":[[239],[240]]},{"type":"LineString","properties":{"source":"openstreetmap.org","kind":"major_road","sort_rank":380,"kind_detail":"primary","ref":"Ma-3020","min_zoom":8.0,"id":51556659},"arcs":[241]},{"type":"MultiLineString","properties":{"source":"openstreetmap.org","kind":"major_road","sort_rank":380,"kind_detail":"primary","ref":"Ma-1110","min_zoom":8.0},"arcs":[[242],[243],[244],[245],[246],[247],[248],[249],[250],[251],[252]]},{"type":"LineString","properties":{"kind":"major_road","sort_rank":380,"kind_detail":"primary","bus_network":"Bus de Palma","source":"openstreetmap.org","min_zoom":8.0,"bus_shield_text":"5","id":390464409,"name:es":"Avenida Portugal"},"arcs":[253]},{"type":"LineString","properties":{"kind":"major_road","sort_rank":380,"kind_detail":"primary","is_bicycle_related":true,"bicycle_shield_text":null,"bicycle_network":"lcn","source":"openstreetmap.org","min_zoom":8.0,"ref":"Ma-3010"},"arcs":[254]},{"type":"LineString","properties":{"kind":"major_road","sort_rank":380,"kind_detail":"primary","bus_network":"Transport de les Illes Balears - Eivissa","source":"openstreetmap.org","min_zoom":8.0,"bus_shield_text":"L13","landuse_kind":"urban_area","id":16001521},"arcs":[255]},{"type":"LineString","properties":{"source":"openstreetmap.org","kind":"ferry","name":"Sant Elm - Sa Dragonera","sort_rank":355,"min_zoom":8.0,"id":176849648},"arcs":[256]},{"type":"MultiLineString","properties":{"kind":"major_road","network":null,"sort_rank":381,"landuse_kind":"urban_area","source":"openstreetmap.org","min_zoom":8.0,"kind_detail":"trunk","shield_text":"20","ref":"EI-300"},"arcs":[[257],[258]]},{"type":"LineString","properties":{"kind":"major_road","sort_rank":380,"kind_detail":"primary","bus_network":"Transports p\u00fablics de Mallorca","source":"openstreetmap.org","min_zoom":8.0,"bus_shield_text":"321V","ref":"Ma-2050","id":365164741},"arcs":[259]},{"type":"LineString","properties":{"kind":"major_road","sort_rank":380,"kind_detail":"primary","bus_network":"Bus de Palma","source":"openstreetmap.org","min_zoom":8.0,"bus_shield_text":"28","ref":"Ma-15D","id":461976359},"arcs":[260]},{"type":"MultiLineString","properties":{"bus_network":"Transport de les Illes Balears - Eivissa","sort_rank":380,"kind_detail":"primary","kind":"major_road","source":"openstreetmap.org","min_zoom":8.0,"bus_shield_text":"L03","ref":"C-731"},"arcs":[[261],[262],[263],[264],[265],[266],[267],[268],[269],[270],[271],[272]]},{"type":"MultiLineString","properties":{"bus_network":"Transports p\u00fablics de Mallorca","sort_rank":380,"kind_detail":"primary","kind":"major_road","source":"openstreetmap.org","min_zoom":8.0,"bus_shield_text":"200","ref":"Ma-1110"},"arcs":[[273],[274],[275],[276],[277],[278],[279],[280],[281],[282],[283],[284]]},{"type":"MultiLineString","properties":{"bus_network":"Transport de les Illes Balears - Eivissa","sort_rank":380,"kind_detail":"primary","kind":"major_road","source":"openstreetmap.org","min_zoom":8.0,"bus_shield_text":"L03","landuse_kind":"urban_area","ref":"C-731"},"arcs":[[285],[286],[287],[288],[289],[290],[291],[292],[293]]},{"type":"MultiLineString","properties":{"source":"openstreetmap.org","kind":"highway","sort_rank":383,"kind_detail":"motorway","ref":"Ma-13","min_zoom":8.0},"arcs":[[294],[295]]},{"type":"MultiLineString","properties":{"source":"openstreetmap.org","kind":"highway","sort_rank":383,"kind_detail":"motorway","ref":"Ma-20","min_zoom":8.0},"arcs":[[296],[297],[298]]},{"type":"MultiLineString","properties":{"kind":"major_road","network":null,"sort_rank":381,"landuse_kind":"urban_area","source":"openstreetmap.org","min_zoom":8.0,"kind_detail":"trunk","shield_text":"20","ref":"PM-801"},"arcs":[[299],[300]]},{"type":"LineString","properties":{"source":"openstreetmap.org","kind":"major_road","sort_rank":380,"kind_detail":"primary","ref":"PM-S\/N-2","min_zoom":8.0},"arcs":[301]},{"type":"MultiLineString","properties":{"source":"openstreetmap.org","kind":"ferry","name":"port d'Eivissa - marina Botafoc","sort_rank":355,"landuse_kind":"urban_area","min_zoom":8.0,"id":378162012},"arcs":[[302],[303]]},{"type":"LineString","properties":{"bus_network":"Transports p\u00fablics de Mallorca","sort_rank":380,"kind_detail":"primary","kind":"major_road","source":"openstreetmap.org","min_zoom":8.0,"bus_shield_text":"354","ref":"Ma-10"},"arcs":[304]},{"type":"LineString","properties":{"kind":"major_road","sort_rank":380,"kind_detail":"primary","bus_network":"Bus de Palma","source":"openstreetmap.org","min_zoom":8.0,"bus_shield_text":"1","name:es":"Plaza de Espa\u00f1a"},"arcs":[305]},{"type":"MultiLineString","properties":{"kind":"major_road","network":null,"sort_rank":381,"landuse_kind":"urban_area","source":"openstreetmap.org","min_zoom":8.0,"kind_detail":"trunk","shield_text":"20","ref":"EI-20"},"arcs":[[306],[307],[308],[309],[310]]},{"type":"MultiLineString","properties":{"source":"openstreetmap.org","kind":"major_road","bus_shield_text":"1","sort_rank":380,"kind_detail":"primary","min_zoom":8.0,"bus_network":"Bus de Palma"},"arcs":[[311],[312],[313],[314],[315]]},{"type":"LineString","properties":{"sort_rank":355,"source":"openstreetmap.org","min_zoom":8.0,"name":"Palma - Eivissa","kind":"ferry"},"arcs":[316]},{"type":"MultiLineString","properties":{"bus_network":"Transports p\u00fablics de Mallorca","sort_rank":380,"kind_detail":"primary","kind":"major_road","source":"openstreetmap.org","min_zoom":8.0,"bus_shield_text":"100","ref":"Ma-1"},"arcs":[[317],[318],[319]]},{"type":"LineString","properties":{"source":"openstreetmap.org","kind":"ferry","name":"S\u00e8te - Tanger \/ \u0637\u0646\u062c\u0629 - \u0633\u064a\u062a","sort_rank":355,"min_zoom":8.0,"name:ar":"\u0637\u0646\u062c\u0629 - \u0633\u064a\u062a","name:fr":"S\u00e8te - Tanger"},"arcs":[320]},{"type":"MultiLineString","properties":{"bus_network":"Transports p\u00fablics de Mallorca","sort_rank":381,"kind_detail":"trunk","kind":"major_road","source":"openstreetmap.org","min_zoom":8.0,"bus_shield_text":"411","ref":"Ma-15"},"arcs":[[321],[322],[323],[324]]},{"type":"MultiLineString","properties":{"bus_network":"Transports p\u00fablics de Mallorca","sort_rank":380,"kind_detail":"primary","kind":"major_road","source":"openstreetmap.org","min_zoom":8.0,"bus_shield_text":"210","ref":"Ma-1110"},"arcs":[[325],[326],[327],[328],[329],[330]]},{"type":"LineString","properties":{"source":"openstreetmap.org","kind":"major_road","sort_rank":380,"kind_detail":"primary","ref":"Ma-3030","min_zoom":8.0},"arcs":[331]},{"type":"MultiLineString","properties":{"bus_network":"Transports p\u00fablics de Mallorca","sort_rank":380,"kind_detail":"primary","kind":"major_road","source":"openstreetmap.org","min_zoom":8.0,"bus_shield_text":"210","ref":"Ma 11"},"arcs":[[332],[333],[334]]},{"type":"MultiLineString","properties":{"sort_rank":380,"kind_detail":"primary","min_zoom":8.0,"kind":"major_road","source":"openstreetmap.org"},"arcs":[[335],[336],[337],[338],[339],[340],[341],[342],[343],[344],[345],[346],[347],[348],[349],[350],[351],[352],[353]]},{"type":"MultiLineString","properties":{"bus_network":"Transport de les Illes Balears - Eivissa","sort_rank":380,"kind_detail":"primary","kind":"major_road","source":"openstreetmap.org","min_zoom":8.0,"bus_shield_text":"L19","ref":"C-733"},"arcs":[[354],[355],[356]]},{"type":"LineString","properties":{"kind":"major_road","sort_rank":380,"kind_detail":"primary","bus_network":"Transports p\u00fablics de Mallorca","source":"openstreetmap.org","min_zoom":8.0,"bus_shield_text":"210","ref":"Ma-6014","id":473378221},"arcs":[357]},{"type":"MultiLineString","properties":{"source":"openstreetmap.org","kind":"ferry","name":"Port d'Eivissa - Estaci\u00f3 Mar\u00edtima Botafoc","sort_rank":355,"landuse_kind":"urban_area","min_zoom":8.0,"id":378155496},"arcs":[[358],[359]]},{"type":"MultiLineString","properties":{"kind":"major_road","sort_rank":380,"kind_detail":"primary","bus_network":"Bus de Palma","source":"openstreetmap.org","min_zoom":8.0,"bus_shield_text":"23","ref":"Ma-6014"},"arcs":[[360],[361],[362],[363],[364],[365]]},{"type":"MultiLineString","properties":{"bus_network":"Transport de les Illes Balears - Eivissa","sort_rank":380,"kind_detail":"primary","kind":"major_road","source":"openstreetmap.org","min_zoom":8.0,"bus_shield_text":"L13","landuse_kind":"urban_area","ref":"E-10"},"arcs":[[366],[367],[368],[369]]},{"type":"LineString","properties":{"kind":"major_road","sort_rank":380,"kind_detail":"primary","bus_network":"Transports p\u00fablics de Mallorca","source":"openstreetmap.org","min_zoom":8.0,"bus_shield_text":"310","ref":"Ma-3011","id":488744814},"arcs":[370]},{"type":"LineString","properties":{"bus_network":"Transport de les Illes Balears - Eivissa","sort_rank":380,"kind_detail":"primary","kind":"major_road","source":"openstreetmap.org","min_zoom":8.0,"bus_shield_text":"L38","landuse_kind":"urban_area","ref":"EI-700"},"arcs":[371]},{"type":"LineString","properties":{"kind":"major_road","sort_rank":380,"kind_detail":"primary","bus_network":"Bus de Palma","source":"openstreetmap.org","min_zoom":8.0,"bus_shield_text":"7","id":33169288},"arcs":[372]},{"type":"MultiLineString","properties":{"source":"openstreetmap.org","kind":"major_road","sort_rank":380,"kind_detail":"primary","ref":"Ma-3010","min_zoom":8.0},"arcs":[[373],[374],[375],[376],[377],[378]]},{"type":"MultiLineString","properties":{"kind":"ferry","name":"Puerto de Ibiza - Marina Botafoc","sort_rank":355,"landuse_kind":"urban_area","source":"openstreetmap.org","min_zoom":8.0,"id":-5637390,"osm_relation":true},"arcs":[[379],[380]]},{"type":"LineString","properties":{"source":"openstreetmap.org","kind":"major_road","sort_rank":380,"kind_detail":"primary","ref":"PM-811","min_zoom":8.0},"arcs":[381]},{"type":"MultiLineString","properties":{"kind":"major_road","sort_rank":380,"kind_detail":"primary","is_bicycle_related":true,"cycleway":"lane","source":"openstreetmap.org","min_zoom":8.0,"ref":"Ma-3010"},"arcs":[[382],[383],[384],[385]]},{"type":"MultiLineString","properties":{"source":"openstreetmap.org","kind":"major_road","sort_rank":380,"kind_detail":"primary","ref":"Ma-5013","min_zoom":8.0},"arcs":[[386],[387],[388],[389],[390],[391],[392],[393],[394],[395],[396],[397],[398]]},{"type":"LineString","properties":{"kind":"major_road","sort_rank":380,"kind_detail":"primary","bus_network":"Bus de Palma","source":"openstreetmap.org","min_zoom":8.0,"bus_shield_text":"31","ref":"Ma-15","id":478094247},"arcs":[399]},{"type":"MultiLineString","properties":{"bus_network":"Transport de les Illes Balears - Eivissa","sort_rank":380,"kind_detail":"primary","kind":"major_road","source":"openstreetmap.org","min_zoom":8.0,"bus_shield_text":"L19","ref":"PMV-812.2"},"arcs":[[400],[401],[402],[403],[404]]},{"type":"MultiLineString","properties":{"source":"openstreetmap.org","kind":"major_road","sort_rank":380,"kind_detail":"primary","ref":"Ma-13A","min_zoom":8.0},"arcs":[[405],[406],[407],[408],[409],[410],[411],[412],[413],[414],[415],[416],[417],[418],[419],[420],[421],[422],[423],[424],[425],[426],[427],[428]]},{"type":"LineString","properties":{"source":"openstreetmap.org","kind":"ferry","name":"Port d'Eivissa - Estaci\u00f3 Mar\u00edtima Botafoc","sort_rank":355,"min_zoom":8.0,"id":378155496},"arcs":[429]},{"type":"MultiLineString","properties":{"source":"openstreetmap.org","kind":"major_road","landuse_kind":"urban_area","sort_rank":380,"kind_detail":"primary","ref":"E-10","min_zoom":8.0},"arcs":[[430],[431],[432]]},{"type":"LineString","properties":{"kind":"major_road","int_name":"Plaza de Espa\u00f1a","sort_rank":380,"kind_detail":"primary","bus_network":"Bus de Palma","source":"openstreetmap.org","min_zoom":8.0,"bus_shield_text":"1","name:es":"Plaza de Espa\u00f1a"},"arcs":[433]},{"type":"MultiLineString","properties":{"kind":"major_road","sort_rank":380,"kind_detail":"primary","bus_network":"Bus de Palma","source":"openstreetmap.org","min_zoom":8.0,"bus_shield_text":"6","ref":"Ma-1110"},"arcs":[[434],[435]]},{"type":"MultiLineString","properties":{"source":"openstreetmap.org","kind":"major_road","sort_rank":380,"kind_detail":"primary","ref":"Ma-19","min_zoom":8.0},"arcs":[[436],[437]]},{"type":"LineString","properties":{"source":"openstreetmap.org","kind":"major_road","sort_rank":380,"kind_detail":"primary","ref":"Ma-1012","min_zoom":8.0,"id":26837131},"arcs":[438]},{"type":"LineString","properties":{"kind":"major_road","sort_rank":380,"kind_detail":"primary","bus_network":"Transports p\u00fablics de Mallorca","source":"openstreetmap.org","min_zoom":8.0,"bus_shield_text":"220","ref":"Ma-2020","id":488431114},"arcs":[439]},{"type":"MultiLineString","properties":{"bus_network":"Transports p\u00fablics de Mallorca","sort_rank":380,"kind_detail":"primary","kind":"major_road","source":"openstreetmap.org","min_zoom":8.0,"bus_shield_text":"102","ref":"Ma-1"},"arcs":[[440],[441],[442],[443],[444],[445],[446],[447],[448],[449]]},{"type":"LineString","properties":{"source":"openstreetmap.org","kind":"ferry","name":"S\u00e8te - Tanger","sort_rank":355,"min_zoom":8.0,"osm_relation":true,"id":-4139974},"arcs":[450]},{"type":"LineString","properties":{"bus_network":"Transport de les Illes Balears - Eivissa","sort_rank":380,"kind_detail":"primary","kind":"major_road","source":"openstreetmap.org","min_zoom":8.0,"bus_shield_text":"L13","landuse_kind":"urban_area","ref":"C-731"},"arcs":[451]},{"type":"MultiLineString","properties":{"source":"openstreetmap.org","kind":"major_road","landuse_kind":"urban_area","sort_rank":380,"kind_detail":"primary","ref":"C-731","min_zoom":8.0},"arcs":[[452],[453]]},{"type":"MultiLineString","properties":{"source":"openstreetmap.org","kind":"major_road","sort_rank":380,"kind_detail":"primary","ref":"C-733","min_zoom":8.0},"arcs":[[454],[455],[456],[457],[458],[459],[460],[461],[462],[463],[464],[465],[466],[467],[468],[469],[470]]},{"type":"LineString","properties":{"kind":"major_road","sort_rank":380,"kind_detail":"primary","bus_network":"Ibizabus","source":"openstreetmap.org","min_zoom":8.0,"bus_shield_text":"L38","landuse_kind":"urban_area","id":243649403},"arcs":[471]},{"type":"LineString","properties":{"source":"openstreetmap.org","kind":"highway","sort_rank":383,"kind_detail":"motorway","ref":"M-20","min_zoom":8.0},"arcs":[472]},{"type":"MultiLineString","properties":{"bus_network":"Transport de les Illes Balears - Eivissa","sort_rank":380,"kind_detail":"primary","kind":"major_road","source":"openstreetmap.org","min_zoom":8.0,"bus_shield_text":"L30","landuse_kind":"urban_area","ref":"C-731"},"arcs":[[473],[474]]},{"type":"MultiLineString","properties":{"kind":"major_road","sort_rank":380,"kind_detail":"primary","bus_network":"Bus de Palma","source":"openstreetmap.org","min_zoom":8.0,"bus_shield_text":"28","ref":"Ma-15"},"arcs":[[475],[476]]},{"type":"LineString","properties":{"source":"openstreetmap.org","kind":"ferry","name":"Port d\u2019Andratx - Sa Dragonera","sort_rank":355,"landuse_kind":"nature_reserve","min_zoom":8.0,"id":55448850},"arcs":[477]},{"type":"LineString","properties":{"source":"openstreetmap.org","kind":"major_road","bus_shield_text":"25","sort_rank":380,"kind_detail":"primary","min_zoom":8.0,"bus_network":"Bus de Palma"},"arcs":[478]},{"type":"MultiLineString","properties":{"source":"openstreetmap.org","kind":"ferry","name":"D\u00e9nia - Eivissa","sort_rank":355,"min_zoom":8.0,"name:es":"Denia - Ibiza"},"arcs":[[479],[480]]},{"type":"LineString","properties":{"source":"openstreetmap.org","kind":"ferry","name":"Barcelona - Palma","sort_rank":355,"min_zoom":8.0,"osm_relation":true,"id":-1185892},"arcs":[481]},{"type":"MultiLineString","properties":{"kind":"major_road","sort_rank":380,"kind_detail":"primary","is_bicycle_related":true,"cycleway":"opposite_track","source":"openstreetmap.org","min_zoom":8.0,"ref":"PM-804"},"arcs":[[482],[483],[484]]},{"type":"MultiLineString","properties":{"kind":"major_road","sort_rank":380,"kind_detail":"primary","bus_network":"Bus de Palma","source":"openstreetmap.org","min_zoom":8.0,"bus_shield_text":"1","name:es":"Avenida Portugal"},"arcs":[[485],[486]]},{"type":"LineString","properties":{"source":"openstreetmap.org","kind":"major_road","sort_rank":380,"kind_detail":"primary","ref":"PM-S\/N-1","min_zoom":8.0,"id":23972804},"arcs":[487]},{"type":"MultiLineString","properties":{"bus_network":"Transports p\u00fablics de Mallorca","sort_rank":380,"kind_detail":"primary","kind":"major_road","source":"openstreetmap.org","min_zoom":8.0,"bus_shield_text":"354","ref":"Ma-11"},"arcs":[[488],[489]]},{"type":"MultiLineString","properties":{"kind":"major_road","sort_rank":380,"kind_detail":"primary","bus_network":"Bus de Palma","source":"openstreetmap.org","min_zoom":8.0,"bus_shield_text":"29","ref":"Ma-19"},"arcs":[[490],[491],[492]]},{"type":"MultiLineString","properties":{"kind":"ferry","name":"Val\u00e8ncia - Eivissa","sort_rank":355,"landuse_kind":"nature_reserve","source":"openstreetmap.org","min_zoom":8.0,"id":133872930,"name:es":"Valencia - Ibiza"},"arcs":[[493],[494]]},{"type":"LineString","properties":{"kind":"major_road","sort_rank":380,"kind_detail":"primary","bus_network":"Bus de Palma","source":"openstreetmap.org","min_zoom":8.0,"bus_shield_text":"41","ref":"Ma-1","id":374836861},"arcs":[495]},{"type":"MultiLineString","properties":{"source":"openstreetmap.org","kind":"major_road","sort_rank":380,"kind_detail":"primary","ref":"Ma-2040","min_zoom":8.0},"arcs":[[496],[497],[498],[499],[500],[501],[502]]},{"type":"LineString","properties":{"bus_network":"Transport de les Illes Balears - Eivissa","sort_rank":380,"kind_detail":"primary","kind":"major_road","source":"openstreetmap.org","min_zoom":8.0,"bus_shield_text":"L38","landuse_kind":"urban_area","ref":"E-10"},"arcs":[503]},{"type":"MultiLineString","properties":{"kind":"major_road","sort_rank":380,"kind_detail":"primary","bus_network":"Bus de Palma","source":"openstreetmap.org","min_zoom":8.0,"bus_shield_text":"11","ref":"Ma-11"},"arcs":[[504],[505],[506],[507]]},{"type":"MultiLineString","properties":{"kind":"major_road","sort_rank":380,"kind_detail":"primary","bus_network":"Bus de Palma","source":"openstreetmap.org","min_zoom":8.0,"bus_shield_text":"18","ref":"Ma-30"},"arcs":[[508],[509],[510],[511],[512],[513],[514]]},{"type":"MultiLineString","properties":{"source":"openstreetmap.org","kind":"ferry","name":"Puerto de Ibiza - Marina Botafoc","sort_rank":355,"min_zoom":8.0,"osm_relation":true,"id":-5637390},"arcs":[[515],[516]]},{"type":"MultiLineString","properties":{"source":"openstreetmap.org","kind":"major_road","sort_rank":380,"kind_detail":"primary","ref":"Ma-30","min_zoom":8.0},"arcs":[[517],[518],[519]]},{"type":"LineString","properties":{"bus_network":"Transport de les Illes Balears - Eivissa","network":null,"sort_rank":380,"kind_detail":"primary","kind":"major_road","source":"openstreetmap.org","min_zoom":8.0,"bus_shield_text":"L13","shield_text":"20","landuse_kind":"urban_area","ref":"C-733"},"arcs":[520]},{"type":"LineString","properties":{"bus_network":"Transports p\u00fablics de Mallorca","sort_rank":381,"kind_detail":"trunk","kind":"major_road","source":"openstreetmap.org","min_zoom":8.0,"bus_shield_text":"102","ref":"Ma-1"},"arcs":[521]},{"type":"MultiLineString","properties":{"kind":"major_road","sort_rank":380,"kind_detail":"primary","bus_network":"Bus de Palma","source":"openstreetmap.org","min_zoom":8.0,"bus_shield_text":"24","ref":"Ma-15"},"arcs":[[522],[523]]},{"type":"LineString","properties":{"bus_network":"Transports p\u00fablics de Mallorca","sort_rank":380,"kind_detail":"primary","kind":"major_road","source":"openstreetmap.org","min_zoom":8.0,"bus_shield_text":"311","ref":"Ma-3020"},"arcs":[524]},{"type":"MultiLineString","properties":{"source":"openstreetmap.org","kind":"highway","sort_rank":383,"kind_detail":"motorway","ref":"Ma-19","min_zoom":8.0},"arcs":[[525],[526]]},{"type":"LineString","properties":{"kind":"ferry","name":"\u0627\u0644\u062c\u0632\u0627\u0626\u0631 - Barcelona","sort_rank":355,"name:ar":"\u0627\u0644\u062c\u0632\u0627\u0626\u0631 - \u0628\u0631\u0634\u0644\u0648\u0646\u0629","name:fr":"Alger - Barcelone","source":"openstreetmap.org","min_zoom":8.0,"name:es":"Argel - Barcelona"},"arcs":[527]},{"type":"LineString","properties":{"sort_rank":355,"source":"openstreetmap.org","min_zoom":8.0,"name":"Barcelona - Palma","kind":"ferry"},"arcs":[528]},{"type":"LineString","properties":{"kind":"major_road","sort_rank":380,"kind_detail":"primary","bus_network":"Bus de Palma","source":"openstreetmap.org","min_zoom":8.0,"bus_shield_text":"3","ref":"Ma-13A"},"arcs":[529]},{"type":"LineString","properties":{"bus_network":"Ibizabus","sort_rank":380,"kind_detail":"primary","kind":"major_road","source":"openstreetmap.org","min_zoom":8.0,"bus_shield_text":"L38","landuse_kind":"urban_area","ref":"C-731"},"arcs":[530]},{"type":"MultiLineString","properties":{"bus_network":"Transport de les Illes Balears - Eivissa","sort_rank":380,"kind_detail":"primary","kind":"major_road","source":"openstreetmap.org","min_zoom":8.0,"bus_shield_text":"L13","landuse_kind":"urban_area","ref":"C-733"},"arcs":[[531],[532],[533],[534],[535]]},{"type":"LineString","properties":{"source":"openstreetmap.org","kind":"ferry","name":"Barcelona - Eivissa","sort_rank":355,"min_zoom":8.0,"name:es":"Barcelona - Ibiza"},"arcs":[536]},{"type":"LineString","properties":{"kind":"major_road","sort_rank":380,"kind_detail":"primary","bus_network":"Bus de Palma","source":"openstreetmap.org","min_zoom":8.0,"bus_shield_text":"14","ref":"Ma-3011"},"arcs":[537]},{"type":"MultiLineString","properties":{"bus_network":"Transport de les Illes Balears - Eivissa","sort_rank":380,"kind_detail":"primary","kind":"major_road","source":"openstreetmap.org","min_zoom":8.0,"bus_shield_text":"L22","ref":"PMV-812.2"},"arcs":[[538],[539],[540]]},{"type":"LineString","properties":{"kind":"major_road","sort_rank":380,"kind_detail":"primary","bus_network":"Bus de Palma","source":"openstreetmap.org","min_zoom":8.0,"bus_shield_text":"14","ref":"Ma 3011","id":23955186},"arcs":[541]},{"type":"MultiLineString","properties":{"kind":"ferry","name":"D\u00e9nia - Eivissa","sort_rank":355,"landuse_kind":"nature_reserve","source":"openstreetmap.org","min_zoom":8.0,"id":309920246,"name:es":"Denia - Ibiza"},"arcs":[[542],[543]]},{"type":"MultiLineString","properties":{"kind":"major_road","sort_rank":381,"kind_detail":"trunk","bus_network":"Bus de Palma","source":"openstreetmap.org","min_zoom":8.0,"bus_shield_text":"14","ref":"Ma-15"},"arcs":[[544],[545]]},{"type":"MultiLineString","properties":{"source":"openstreetmap.org","kind":"major_road","sort_rank":380,"kind_detail":"primary","ref":"PM-810","min_zoom":8.0},"arcs":[[546],[547],[548],[549],[550],[551],[552]]},{"type":"MultiLineString","properties":{"kind":"major_road","sort_rank":380,"kind_detail":"primary","is_bicycle_related":true,"cycleway":"lane","source":"openstreetmap.org","min_zoom":8.0,"ref":"Ma-2040"},"arcs":[[553],[554],[555]]},{"type":"LineString","properties":{"kind":"major_road","sort_rank":380,"kind_detail":"primary","bus_network":"Transport de les Illes Balears - Eivissa","source":"openstreetmap.org","min_zoom":8.0,"bus_shield_text":"L08","landuse_kind":"urban_area","id":511356069},"arcs":[556]},{"type":"MultiLineString","properties":{"kind":"major_road","sort_rank":380,"kind_detail":"primary","bus_network":"Bus de Palma","source":"openstreetmap.org","min_zoom":8.0,"bus_shield_text":"19","ref":"Ma-1110"},"arcs":[[557],[558],[559],[560],[561],[562],[563],[564],[565],[566],[567]]},{"type":"MultiLineString","properties":{"kind":"major_road","sort_rank":380,"kind_detail":"primary","bus_network":"Bus de Palma","source":"openstreetmap.org","min_zoom":8.0,"bus_shield_text":"28","ref":"Ma 30"},"arcs":[[568],[569],[570],[571]]},{"type":"LineString","properties":{"source":"openstreetmap.org","kind":"major_road","bus_shield_text":"20","sort_rank":380,"kind_detail":"primary","min_zoom":8.0,"bus_network":"Bus de Palma"},"arcs":[572]},{"type":"LineString","properties":{"source":"openstreetmap.org","kind":"ferry","name":"Puerto de Ibiza - Estaci\u00f3n Mar\u00edtima Botafoc","sort_rank":355,"min_zoom":8.0,"osm_relation":true,"id":-5637399},"arcs":[573]},{"type":"LineString","properties":{"source":"openstreetmap.org","kind":"ferry","name":"ferry: Port de S\u00f3ller - Sa Calobra","sort_rank":355,"min_zoom":8.0,"id":4387538},"arcs":[574]},{"type":"LineString","properties":{"kind":"major_road","sort_rank":380,"kind_detail":"primary","bus_network":"Bus de Palma","source":"openstreetmap.org","min_zoom":8.0,"bus_shield_text":"34","ref":"Ma-1110","id":472990054},"arcs":[575]},{"type":"MultiLineString","properties":{"source":"openstreetmap.org","kind":"major_road","landuse_kind":"urban_area","sort_rank":380,"kind_detail":"primary","ref":"C-733","min_zoom":8.0},"arcs":[[576],[577],[578]]},{"type":"MultiLineString","properties":{"bus_network":"Transport de les Illes Balears - Eivissa","sort_rank":380,"kind_detail":"primary","kind":"major_road","source":"openstreetmap.org","min_zoom":8.0,"bus_shield_text":"L38","landuse_kind":"urban_area","ref":"PM-803"},"arcs":[[579],[580]]},{"type":"MultiLineString","properties":{"bus_network":"Transports p\u00fablics de Mallorca","sort_rank":380,"kind_detail":"primary","kind":"major_road","source":"openstreetmap.org","min_zoom":8.0,"bus_shield_text":"210","ref":"Ma-11"},"arcs":[[581],[582],[583],[584],[585],[586],[587],[588],[589]]},{"type":"LineString","properties":{"kind":"ferry","name":"Formentera - Eivissa","sort_rank":355,"landuse_kind":"urban_area","source":"openstreetmap.org","min_zoom":8.0,"id":25617017,"name:es":"Formentera - Ibiza"},"arcs":[590]},{"type":"LineString","properties":{"kind":"major_road","sort_rank":381,"kind_detail":"trunk","bus_network":"Bus de Palma","source":"openstreetmap.org","min_zoom":8.0,"bus_shield_text":"14","ref":"Ma-30","id":352895275},"arcs":[591]},{"type":"MultiLineString","properties":{"source":"openstreetmap.org","kind":"major_road","sort_rank":380,"kind_detail":"primary","ref":"Ma 30","min_zoom":8.0},"arcs":[[592],[593],[594],[595]]},{"type":"MultiLineString","properties":{"kind":"major_road","sort_rank":380,"kind_detail":"primary","bus_network":"Bus de Palma","source":"openstreetmap.org","min_zoom":8.0,"bus_shield_text":"24","ref":"Ma-3018"},"arcs":[[596],[597],[598],[599]]},{"type":"MultiLineString","properties":{"bus_network":"Transport de les Illes Balears - Eivissa","sort_rank":380,"kind_detail":"primary","kind":"major_road","source":"openstreetmap.org","min_zoom":8.0,"bus_shield_text":"L30","landuse_kind":"urban_area","ref":"E-10"},"arcs":[[600],[601]]},{"type":"LineString","properties":{"kind":"major_road","sort_rank":381,"landuse_kind":"urban_area","source":"openstreetmap.org","min_zoom":8.0,"kind_detail":"trunk","ref":"PM-803","id":48083360},"arcs":[602]},{"type":"MultiLineString","properties":{"kind":"major_road","sort_rank":381,"kind_detail":"trunk","bus_network":"Bus de Palma","source":"openstreetmap.org","min_zoom":8.0,"bus_shield_text":"31","ref":"Ma-15"},"arcs":[[603],[604]]},{"type":"LineString","properties":{"kind":"major_road","sort_rank":380,"kind_detail":"primary","bus_network":"Bus de Palma","source":"openstreetmap.org","min_zoom":8.0,"bus_shield_text":"12","ref":"Ma-11"},"arcs":[605]},{"type":"MultiLineString","properties":{"bus_network":"Transport de les Illes Balears - Eivissa","sort_rank":380,"kind_detail":"primary","kind":"major_road","source":"openstreetmap.org","min_zoom":8.0,"bus_shield_text":"L16","ref":"PM-810"},"arcs":[[606],[607],[608],[609],[610],[611],[612],[613],[614],[615],[616]]},{"type":"LineString","properties":{"kind":"major_road","sort_rank":380,"kind_detail":"primary","bus_network":"Transports p\u00fablics de Mallorca","source":"openstreetmap.org","min_zoom":8.0,"bus_shield_text":"311","ref":"Ma 13A","id":365105437},"arcs":[617]},{"type":"LineString","properties":{"source":"openstreetmap.org","kind":"major_road","ref":"Ma-3010","sort_rank":380,"kind_detail":"primary","is_bicycle_related":true,"min_zoom":8.0},"arcs":[618]},{"type":"LineString","properties":{"source":"openstreetmap.org","kind":"ferry","name":"Palma- Ma\u00f3","sort_rank":355,"min_zoom":8.0,"name:es":"Palma - Mah\u00f3n","id":188594378},"arcs":[619]},{"type":"LineString","properties":{"kind":"major_road","sort_rank":380,"kind_detail":"primary","bus_network":"Transports p\u00fablics de Mallorca","source":"openstreetmap.org","min_zoom":8.0,"bus_shield_text":"102","id":363597715},"arcs":[620]},{"type":"LineString","properties":{"source":"openstreetmap.org","kind":"ferry","name":"Barcelona - Eivissa","sort_rank":355,"min_zoom":8.0,"osm_relation":true,"id":-1664348},"arcs":[621]},{"type":"LineString","properties":{"kind":"major_road","sort_rank":380,"kind_detail":"primary","bus_network":"Transports p\u00fablics de Mallorca","source":"openstreetmap.org","min_zoom":8.0,"bus_shield_text":"311","ref":"Ma-3030","id":24712654},"arcs":[622]},{"type":"MultiLineString","properties":{"bus_network":"Transports p\u00fablics de Mallorca","sort_rank":380,"kind_detail":"primary","kind":"major_road","source":"openstreetmap.org","min_zoom":8.0,"bus_shield_text":"220","ref":"Ma-11"},"arcs":[[623],[624]]}]},"earth":{"type":"GeometryCollection","geometries":[{"type":"MultiPolygon","properties":{"sort_rank":10,"source":"naturalearthdata.com","min_zoom":0.0,"kind":"earth","area":10995381710},"arcs":[[[625]],[[626]]]},{"type":"Point","properties":{"label_placement":true,"kind":"island","name:en":"Ibiza","name":"Eivissa","area":943153024,"name:fr":"Ibiza","name:de":"Ibiza","source":"openstreetmap.org","min_zoom":8.0,"osm_relation":true,"id":-6076060,"name:es":"Ibiza"},"coordinates":[39,573]}]},"landuse":{"type":"GeometryCollection","geometries":[{"type":"MultiPolygon","properties":{"source":"naturalearthdata.com","kind":"urban_area","name":"","area":1433759146,"sort_rank":11,"min_zoom":4.0},"arcs":[[[627]]]},{"type":"Polygon","properties":{"source":"openstreetmap.org","kind":"nature_reserve","area":267330000,"tier":2,"id":174630254,"min_zoom":6.0,"sort_rank":23},"arcs":[[628]]},{"type":"Polygon","properties":{"kind":"nature_reserve","area":16040600,"sort_rank":23,"source":"openstreetmap.org","min_zoom":8.0,"tier":2,"id":-2176748,"osm_relation":true},"arcs":[[629]]}]}},"type":"Topology","transform":{"translate":[1.40625,38.8225909762],"scale":[0.0003433228,0.0002654163]},"arcs":[[[3038,4096],[-94,-92],[-187,-118],[-165,-144],[-416,-257],[-145,-144],[-96,-150],[-68,-188],[-20,-162],[53,-307],[160,-252],[1828,-1700],[208,-138]],[[1368,0],[108,773],[-22,199],[-72,186],[-225,339],[-187,167],[-327,161],[-265,52],[-253,-30],[-125,-45]],[[4096,3903],[-23,15],[-12,-43],[-65,16],[-7,-58],[-25,12],[-14,-40],[-42,-18],[-18,19],[-123,-83],[-31,-48],[17,-25],[-43,27],[-31,-23],[-18,-75],[-63,-47],[-17,20],[-30,-49],[-4,16],[-12,-2],[8,-30],[-103,-116],[-93,-65],[-80,6],[-192,-188],[-113,-49],[-3,-33],[-78,-47],[-77,-13],[-70,-101],[28,-40],[-23,-45],[25,-6],[-3,-21],[35,-9],[18,-41],[53,7],[-78,-55],[39,23],[32,-14],[-2,-49],[50,22],[2,37],[24,10],[30,-9],[-13,-52],[96,51],[42,-66],[37,-3],[-68,-51],[34,-54],[33,7],[-9,-98],[42,25],[31,-44],[60,-17],[-5,69],[48,49],[-7,63],[38,24],[-28,22],[10,30],[60,27],[84,-4],[30,76],[53,-24],[40,1],[20,20],[0,9],[-29,-27],[-28,15],[22,12],[16,1],[7,4],[-32,2],[23,52],[35,-5],[-29,-30],[32,25],[70,-12],[224,-184],[14,-54],[-12,12],[-73,-100],[74,-131],[-22,-114],[139,-181],[73,0]],[[3636,2841],[5,4],[1,1]],[[3642,2846]],[[3642,2846],[1,1]],[[3643,2847],[1,0]],[[3644,2847],[32,29]],[[3636,2840],[5,6]],[[3641,2846],[1,0]],[[3636,2840],[6,6]],[[3642,2846]],[[3636,2840],[7,6]],[[3643,2846],[0,1]],[[3636,2840],[7,7]],[[3643,2847],[1,0]],[[3641,2845],[0,1]],[[3641,2846],[1,0]],[[3642,2846],[1,0]],[[3643,2846],[0,1]],[[3643,2847],[189,155],[85,128],[87,9],[92,94]],[[3641,2845],[-5,-4]],[[3636,2841]],[[3633,2841],[22,25],[0,145],[102,291],[-16,70],[49,155],[-31,26],[-10,30],[49,-46],[16,13]],[[3636,2841],[5,4],[1,1]],[[3642,2846]],[[3642,2846],[1,1]],[[3643,2847],[1,0]],[[3644,2847],[2,2],[24,22],[37,33],[5,4],[4,3],[3,2],[3,2],[23,7],[7,5],[81,76],[5,7],[6,18],[1,2],[1,2],[2,2],[2,1],[16,6],[8,8],[23,52],[1,2],[1,1],[9,8],[5,12],[2,3],[1,2],[3,2],[3,2],[3,1],[5,1],[4,0],[4,-1],[23,-9],[8,-1],[36,15],[91,95]],[[3636,2840],[5,6]],[[3641,2846],[1,0]],[[3636,2840],[6,6]],[[3642,2846]],[[3636,2840],[7,6]],[[3643,2846],[0,1]],[[3636,2840],[7,7]],[[3643,2847],[1,0]],[[3641,2845],[0,1]],[[3641,2846],[1,0]],[[3642,2846],[1,0]],[[3643,2846],[0,1]],[[3643,2847],[3,2],[71,62],[28,11],[7,4],[80,76],[42,46],[3,5],[20,48],[12,11],[8,18],[17,5],[27,-11],[9,0],[34,15],[7,5],[85,89]],[[4096,4096],[0,-142],[-9,-6],[-18,-33],[-10,-8],[-44,-11],[-33,-26],[-34,-35],[-42,-33],[-85,-44],[-22,-6],[-19,-16],[-59,-68],[-13,-8],[-9,-19],[-71,-71],[-13,-3],[-33,6],[-14,-3],[-6,-12],[-21,-47],[-12,-18],[-91,-97],[-49,-41],[-51,-16],[-58,-9],[-43,-24],[-144,-153],[-52,-34],[-61,-14],[-209,-131],[-17,-57],[-3,-77],[14,-67],[53,-43],[24,-68],[29,-20],[19,4],[80,47],[15,-36],[21,-10],[22,14],[24,32],[77,-80],[-24,-15],[-10,-24],[8,-30],[6,-8],[55,-96],[81,10],[72,76],[31,102],[39,43],[188,105],[63,20],[77,-23],[97,-57],[83,-76],[33,-78],[-45,-92],[-8,-61],[43,-27],[30,-206],[73,-91],[75,-31],[0,-2054],[-4096,0],[0,154],[25,102],[40,23],[48,62],[10,-16],[19,-18],[11,-15],[31,38],[81,44],[37,31],[91,142],[102,68],[15,23],[10,58],[25,49],[38,30],[48,3],[-46,125],[-18,76],[15,33],[-24,26],[-24,18],[-33,8],[-52,3],[-20,7],[-48,39],[-42,3],[-41,-17],[-26,-35],[-61,10],[-82,-22],[-80,-42],[-49,-42],[0,3128],[4096,0]],[[4096,3954],[-9,-6],[-18,-33],[-10,-8],[-44,-11],[-33,-26],[-34,-35],[-42,-33],[-85,-44],[-22,-6],[-19,-16],[-59,-68],[-13,-8],[-9,-19],[-71,-71],[-13,-3],[-33,6],[-14,-3],[-6,-12],[-21,-47],[-12,-18],[-91,-97],[-49,-41],[-51,-16],[-58,-9],[-43,-24],[-144,-153],[-52,-34],[-61,-14],[-209,-131],[-17,-57],[-3,-77],[14,-67],[53,-43],[24,-68],[29,-20],[19,4],[80,47],[15,-36],[21,-10],[22,14],[24,32],[77,-80],[-24,-15],[-10,-24],[8,-30],[6,-8],[55,-96],[81,10],[72,76],[31,102],[39,43],[188,105],[63,20],[77,-23],[97,-57],[83,-76],[33,-78],[-45,-92],[-8,-61],[43,-27],[30,-206],[73,-91],[75,-31]],[[582,1012],[-24,26],[-24,18],[-33,8],[-52,3],[-20,7],[-48,39],[-42,3],[-41,-17],[-26,-35],[-61,10],[-82,-22],[-80,-42],[-49,-42]],[[0,154],[25,102],[40,23],[48,62],[10,-16],[19,-18],[11,-15],[31,38],[81,44],[37,31],[91,142],[102,68],[15,23],[10,58],[25,49],[38,30],[48,3],[-46,125],[-18,76],[15,33]],[[3852,3021],[-1,0]],[[3797,2821],[0,1]],[[98,968],[1,-5]],[[98,968],[0,1],[0,-1]],[[99,963],[-1,5]],[[99,956],[0,7]],[[109,578],[0,1]],[[115,502]],[[116,502],[-1,0]],[[116,501],[-1,1]],[[3987,2799],[-15,-23]],[[3972,2776],[0,-1]],[[3972,2775],[0,1]],[[2864,2724],[-92,-13],[-62,125]],[[3607,2840],[-4,-1]],[[3591,2814],[-15,-2],[-1,-1]],[[3575,2811],[-11,-6]],[[3564,2805],[-2,-2],[-27,-59]],[[3546,2755],[2,3],[5,11],[7,29],[4,7]],[[3564,2805],[1,1],[6,4],[4,1]],[[3575,2811],[4,0],[7,1],[5,1]],[[124,328],[-22,2]],[[110,339],[10,-7]],[[3633,2840]],[[3643,2821],[-1,0]],[[3700,2819],[-1,0]],[[3700,2818],[0,1]],[[2687,2882],[58,-31]],[[160,567],[-45,-68],[-4,-72]],[[3699,2819],[0,-1]],[[3799,2808],[1,0]],[[3658,2790],[-14,6],[-34,5]],[[3643,2795],[14,-6]],[[3657,2789],[4,0],[13,0],[3,1]],[[3680,2792],[-22,-2]],[[2944,2802],[-2,0]],[[2945,2802],[-1,0]],[[2945,2801],[1,1]],[[2946,2802],[-1,0]],[[2959,2805],[-13,-3]],[[2959,2805],[2,-3],[0,-14],[1,13],[0,1],[-3,3]],[[3089,2674],[56,-15],[10,-7]],[[3155,2652],[5,-2],[3,-11],[9,-4]],[[3172,2635],[11,-6]],[[3183,2629],[68,-1],[135,74],[89,68],[50,-21]],[[3525,2750],[-24,21],[-15,2],[-13,-3],[-8,-4],[-62,-45],[-17,-17],[-94,-41],[-41,-35],[-14,5],[-54,-4]],[[3183,2629],[-1,0],[-10,6]],[[3172,2635],[-8,5],[-3,7],[-1,3],[-5,2]],[[3155,2652],[-14,7],[-45,13]],[[0,2327],[3274,42],[324,343],[-2,45],[-34,-4],[32,8],[13,-15],[287,-628],[126,-144],[76,-37]],[[88,331],[13,-2]],[[126,326],[6,-1]],[[131,320],[1,1]],[[4007,2996],[-1,0]],[[4006,2995]],[[6,475],[9,-20]],[[29,426],[4,-9]],[[72,159],[21,86]],[[94,252],[37,68]],[[68,676],[0,-1]],[[68,676],[9,235],[22,45]],[[69,675],[-1,1]],[[68,674],[1,-1]],[[69,673],[0,1]],[[72,656],[-3,17]],[[72,656]],[[72,656]],[[72,655]],[[72,655]],[[108,580],[-36,75]],[[108,580],[0,-1]],[[109,579],[-1,1]],[[68,674],[1,0],[0,1]],[[69,675],[-1,-1]],[[71,656],[1,-1],[0,1],[-1,0]],[[108,578],[1,1]],[[109,579],[-1,0],[0,-1]],[[131,320],[1,1]],[[3699,2818],[29,-1]],[[3728,2818],[-28,1]],[[3799,2848],[-73,-16]],[[3800,2848],[1,0]],[[105,399],[-3,-10]],[[102,389],[3,10]],[[3784,3595],[1,0]],[[3786,3574]],[[3786,3573],[1,0]],[[3792,3557],[0,1]],[[3801,3535]],[[3801,3534],[1,1]],[[3615,2918],[0,-3]],[[3615,2915],[0,3]],[[3643,2801]],[[3917,2724],[-42,-41]],[[3917,2724],[8,7]],[[3924,2732],[-7,-8]],[[3925,2733],[-1,-1],[2,0],[0,1],[-1,0]],[[3637,2927],[0,20]],[[3639,2960],[-1,-2]],[[3639,2958],[0,2]],[[3639,2960],[60,223]],[[3699,3183],[2,5]],[[3701,3188],[40,176]],[[3740,3366],[1,-2]],[[3741,3364],[0,2]],[[3743,3374],[-2,-7]],[[3741,3367],[0,-1]],[[3741,3367],[2,7]],[[3743,3374],[19,105],[40,54]],[[3779,3602],[2,-1]],[[3791,3558]],[[3791,3557],[1,-1]],[[3792,3556],[0,1]],[[3800,3536],[-8,20]],[[3800,3536],[2,-3]],[[3603,2839],[2,0]],[[3592,2814],[-1,0]],[[3591,2813],[1,0]],[[3608,2805],[-15,9]],[[3593,2814],[15,-10]],[[42,0],[42,145]],[[3700,2833],[9,4]],[[3709,2837]],[[3710,2836],[0,1]],[[4090,3251],[6,-3]],[[3896,2495],[-1,0]],[[3909,2218],[34,95],[-47,180]],[[3897,2498],[35,33]],[[3932,2531],[1,0]],[[3932,2532],[0,-1]],[[3934,2532],[-1,1]],[[3945,2556],[0,-1]],[[3807,3179]],[[3800,2850],[2,19]],[[3562,2753],[35,5],[2,-47],[-324,-346],[-3275,-1060]],[[3851,3021],[1,0]],[[53,366],[7,3]],[[3756,2984],[-27,-28]],[[3562,2753],[34,4],[2,-45],[-324,-343],[-3274,-42]],[[3799,2849],[-1,-1]],[[3775,2752]],[[3790,2765],[10,42]],[[3797,2821],[1,-1]],[[3797,2822],[2,25]],[[3798,2820],[0,1]],[[3799,2812],[-1,8]],[[3799,2812],[-1,-1]],[[3799,2808],[1,-1]],[[3800,2811],[-1,1]],[[3800,2807],[0,1]],[[3800,2849],[0,1]],[[160,567],[103,45],[83,-4]],[[346,608],[1,-1]],[[348,607],[-2,1]],[[347,607],[1,-1],[0,1],[-1,0]],[[3079,2685],[2,-5]],[[3710,2837],[-9,-2]],[[3709,2837],[2,0]],[[3711,2837],[-1,0]],[[3725,2832],[-14,5]],[[3806,2893],[-16,88]],[[3616,2843],[3,4]],[[3638,2957],[1,-1]],[[3636,2921],[0,-3]],[[3637,2920],[0,1]],[[3767,2986],[41,-24],[-7,-93]],[[3790,2981],[-23,5]],[[3803,2881],[3,12]],[[3529,2746],[-1,0]],[[3528,2746],[-3,4]],[[3527,2747],[1,-1]],[[3528,2746],[3,-2]],[[3593,2814],[-1,0]],[[3592,2813],[1,1]],[[3642,2796],[1,5]],[[1046,0],[1503,2877],[765,1219]],[[3610,2990],[1,-14]],[[3615,3017],[-3,-9]],[[3625,3058],[-10,-41]],[[3615,3017],[1,-1],[9,42]],[[3624,3069],[1,-3]],[[3625,3066],[-1,3]],[[3625,3066],[0,-8]],[[4071,3172],[25,15]],[[84,145],[28,97],[-5,93]],[[0,554],[23,35]],[[24,590],[0,-1],[1,0],[0,1],[-1,0]],[[3776,2752],[6,6]],[[3783,2758],[-1,1]],[[3621,2848],[-9,-8]],[[3613,2840],[8,8]],[[31,357],[22,9]],[[60,369],[23,2]],[[0,299],[3,5]],[[3,304],[-3,-4]],[[4096,3073],[-5,0]],[[3596,3137],[-1,1]],[[3611,2989],[1,0]],[[3615,2920]],[[3615,2913]],[[3615,2915]],[[3615,2918]],[[3615,2961],[1,-3]],[[3616,2960],[0,1]],[[3617,3020],[-1,0]],[[3624,3055],[1,-1]],[[3625,3057]],[[3610,2840],[-3,0]],[[4000,3072],[7,-76]],[[90,359],[-1,-1],[1,-1],[1,1],[-1,1]],[[2745,2851],[4,-2]],[[102,389],[-3,-6]],[[99,383],[3,6]],[[4090,3251]],[[3797,2822],[0,-1]],[[0,490],[5,-10]],[[6,480],[-6,12]],[[5,479],[1,-4]],[[17,454],[-11,25]],[[15,455],[1,-2]],[[16,452],[13,-26]],[[41,401],[-24,52]],[[33,417],[7,-16]],[[6,480],[-1,0]],[[5,480],[0,-1],[1,0],[0,1]],[[17,454],[-1,0],[0,-2],[1,1]],[[17,453],[0,1]],[[3595,3138],[0,-2]],[[3595,3136],[0,1]],[[3595,3136],[1,-1]],[[3595,3137],[1,0]],[[3596,3135],[-1,2]],[[3595,3138],[3,16]],[[3596,3135],[17,-33]],[[3611,2992],[0,1]],[[3613,3102],[3,-9]],[[3616,3093],[6,-17]],[[3622,3076],[2,-7]],[[3624,3069],[-2,7]],[[40,401],[1,-2]],[[42,400],[-1,1]],[[42,398],[14,-30]],[[55,372],[-12,26]],[[56,366],[7,-14]],[[41,398],[2,0]],[[43,398],[-1,2],[-1,-1]],[[41,399],[0,-1]],[[55,368],[1,-1],[1,1],[-1,1],[-1,-1]],[[4096,3165],[-97,-85],[-169,-40],[-155,-156]],[[3682,2886],[152,154],[43,1],[11,3],[99,29],[17,9],[92,82]],[[3701,2804],[1,5],[-2,35],[-12,19],[-47,51],[-16,4],[-18,-5],[-4,-2],[-88,-67],[-6,-8],[-2,-15],[-18,-33],[0,-8]],[[3490,2779],[17,39],[3,18],[31,19],[11,13],[25,16],[32,30],[32,-1],[59,-74]],[[3700,2824],[0,-21]],[[4,306],[-1,-2]],[[3,304],[1,2]],[[0,836],[89,32]],[[102,330],[8,9]],[[120,332],[4,-4]],[[3781,3601],[0,1]],[[3635,2837],[-2,3]],[[99,383],[-9,-8],[-30,-5],[-22,-9],[-8,-4]],[[30,357],[-3,-1],[-1,-2],[-16,-27],[-6,-21]],[[4,306],[7,21],[15,27],[2,1],[2,2]],[[30,357],[1,0]],[[83,371],[6,3],[10,9]],[[3605,2839],[2,0]],[[3621,2848],[12,-8]],[[3633,2840],[-2,3],[-10,5]],[[3643,2801],[2,5],[-1,10],[-1,10],[-5,9],[-3,2]],[[3636,2836],[6,-35]],[[133,316],[-16,-24],[28,-8],[600,466],[2531,1611],[324,349],[-3,48],[-35,-5]],[[2900,2783],[-3,-3]],[[2899,2783],[1,0]],[[2945,2802],[-45,-19]],[[563,4096],[-563,-881]],[[3784,2813],[-11,3],[-10,0]],[[3763,2815],[21,-2]],[[3802,2809],[26,-5],[268,14]],[[4096,2818],[-226,-2],[-42,-11],[-25,4]],[[3598,3154],[0,3]],[[3611,2976],[5,-19]],[[3616,2957],[-5,20]],[[3615,2938],[0,-3]],[[3615,2933],[0,5]],[[3615,2938],[1,19]],[[4067,3073],[-65,1]],[[3764,3628],[8,48]],[[3771,3677],[1,-1]],[[3772,3676],[-1,1]],[[454,791],[10,3]],[[465,800],[-1,-6]],[[3636,2920],[1,0]],[[3637,2921],[-1,0]],[[3771,2941],[0,-1]],[[3772,2942],[1,0]],[[3780,2950]],[[3781,2951],[1,1]],[[3787,2957]],[[3788,2957],[0,1],[-1,-1]],[[3796,2965],[2,2]],[[464,794]],[[3642,2812],[1,0],[-1,0]],[[3772,2942],[0,-1],[1,0],[-1,1]],[[3781,2951],[0,-1],[1,0],[-1,1]],[[3787,2957],[1,0],[-1,0]],[[3806,2966],[-1,-2],[2,-1],[1,2],[-2,1]],[[3985,2812],[1,-1],[3,0],[-1,2],[-3,-1]],[[3998,3090],[1,0],[-1,0]],[[168,574],[2,-1]],[[174,576],[-5,-1]],[[168,574],[1,1],[-1,0],[0,-1]],[[3945,2555],[1,-1]],[[88,331],[13,-2]],[[126,326],[6,-1]],[[3896,2495],[1,3]],[[3896,2495],[-1,0],[0,-1],[1,1]],[[3934,2533],[11,20]],[[3934,2533],[-1,0],[-1,-1],[2,0],[0,1]],[[3945,2555],[0,-2]],[[3945,2553],[0,3]],[[47,328],[6,13]],[[53,341],[0,1],[-1,1],[-1,-2],[2,0]],[[89,358],[-25,-6]],[[64,352],[-1,-1],[1,-1],[1,2],[-1,0]],[[4096,2926],[-126,-50],[-109,0]],[[2,306],[-2,-1]],[[3642,2821],[1,0]],[[3992,3103],[6,-12]],[[3998,3091],[0,-1]],[[3998,3090],[0,1]],[[3998,3090],[2,-7]],[[4001,3074],[-1,-2]],[[4002,3075],[-1,0]],[[102,330],[8,9]],[[120,332],[4,-4]],[[291,954],[95,-13],[97,36],[43,-17]],[[4000,3072],[1,2]],[[4000,3083],[1,-1]],[[4006,2995]],[[4001,3075],[0,-1],[1,0],[0,1],[-1,0]],[[3928,2735],[-1,-1]],[[3927,2734],[-4,-4]],[[3931,2736],[-4,-2]],[[3927,2734],[-2,-1]],[[3926,2732],[5,4]],[[3971,2774],[-40,-38]],[[3971,2774],[0,1]],[[3971,2775],[0,-1]],[[3972,2775]],[[3972,2776]],[[3986,2810],[1,-1]],[[3987,2809],[0,-10]],[[3987,2809],[1,1]],[[3800,2811],[-2,0]],[[110,579],[-1,0]],[[109,579],[1,0]],[[110,579],[57,-3]],[[167,576],[1,-1]],[[168,575],[-1,1]],[[3758,2929],[14,12]],[[3772,2942],[9,8]],[[3781,2951],[6,6]],[[3788,2958],[8,7]],[[3796,2965],[2,1]],[[3798,2967],[-2,-2]],[[3799,2967],[5,6]],[[3802,2971],[2,2]],[[3818,2985],[-14,-12]],[[3818,2985],[1,1]],[[3819,2986],[-1,-1]],[[3819,2986],[4,5]],[[3824,2991],[-1,0]],[[3824,2990],[0,1]],[[3824,2991],[27,29]],[[3851,3021],[26,25]],[[3879,3050],[-1,-2]],[[3879,3050],[23,48],[89,29]],[[3879,3047],[0,3]],[[3991,3127],[80,45]],[[3799,2966],[0,1]],[[3799,2967],[-1,0],[0,-1],[1,0]],[[3877,3047],[1,-1],[1,1],[-1,1]],[[3878,3048],[-1,-1]],[[101,329],[25,-3]],[[42,317]],[[63,352],[-11,-9]],[[65,351],[24,6]],[[3633,2840],[3,-4]],[[3616,2950]],[[3617,2949],[-1,2]],[[3609,2802],[2,-2]],[[3637,2795],[6,0]],[[3066,2719],[-1,-1],[0,-1],[1,1],[0,1]],[[3807,3179]],[[2894,2775],[-22,-51]],[[2894,2775],[5,8]],[[2897,2780],[-3,-5]],[[2955,2755],[6,33]],[[2955,2755],[43,-1]],[[2963,2752],[-8,3]],[[3000,2755],[-1,-1]],[[3525,2749],[2,-2]],[[3535,2744],[-6,2]],[[3531,2744],[2,-1]],[[563,4096],[-563,-881]],[[64,350],[9,-19]],[[62,350],[2,0]],[[65,349],[0,2]],[[114,496],[3,8]],[[160,567],[7,7]],[[167,574],[1,0]],[[168,575],[-1,-1]],[[169,577],[-1,-1]],[[169,575],[0,2]],[[170,573],[-1,1]],[[169,577],[60,58]],[[229,635],[9,56]],[[229,635]],[[229,635],[1,0],[-1,0]],[[238,691],[9,172]],[[248,864],[11,63],[31,26]],[[291,954],[-32,28],[22,27],[-12,28],[64,33],[2,28]],[[239,691],[-1,0],[1,0]],[[246,863],[1,0],[1,1],[-1,0],[-1,-1]],[[291,953],[0,1],[0,-1]],[[41,315],[1,1],[0,1],[-2,0],[1,-2]],[[3700,2839],[0,-15]],[[56,369],[-1,3]],[[64,352],[-7,15]],[[3798,2811],[1,-3]],[[3800,2808],[0,3]],[[2710,2836],[-23,46]],[[3642,2801],[0,-5]],[[75,156],[22,96]],[[98,254],[33,66]],[[3562,2753],[34,4],[1,-44],[-324,-340],[-211,27],[-527,412],[-52,1284]],[[110,578],[5,-76]],[[115,502],[0,-3]],[[115,502],[1,-1]],[[3607,2839],[6,1]],[[3612,2840],[-2,0]],[[90,872],[173,62]],[[3781,3602],[0,-1]],[[3781,3601],[1,-2]],[[3608,2804],[1,-2]],[[3610,2801],[-2,4]],[[3611,2800],[26,-5]],[[35,0],[37,159]],[[93,245],[1,7]],[[3533,2743],[13,12]],[[3871,3049],[0,1],[0,-1]],[[3872,3049],[-1,0],[0,-1],[1,0],[0,1]],[[3873,3048],[-1,1]],[[3872,3048],[1,0]],[[3876,3048],[-3,0]],[[3876,3048],[1,-1]],[[3877,3048],[-1,0]],[[51,341],[-9,-23]],[[3639,2958],[-3,-37]],[[3636,2918],[0,-3]],[[3637,2921],[0,6]],[[3637,2947],[1,7]],[[3776,2754],[-1,-2]],[[3775,2752],[1,0]],[[3782,2759],[0,-1]],[[3782,2758],[1,0]],[[3783,2759],[-1,0]],[[3783,2758],[0,1]],[[3783,2759],[7,6]],[[124,328],[-22,2]],[[110,339],[10,-7]],[[3776,2752],[-1,1]],[[3798,2822],[0,1]],[[3801,2869],[0,-3]],[[105,399]],[[3081,2680],[-81,75]],[[3727,2818],[-1,-1]],[[3728,2817],[0,1]],[[4091,3073],[-23,0]],[[3677,2790],[64,-2],[44,-67],[165,-106],[57,-78],[89,-29]],[[4096,2509],[-89,29],[-61,84],[-147,92],[-56,74],[-46,9],[-17,-5]],[[2715,0],[-519,1709],[-45,1427],[15,960]],[[3562,2753],[34,4],[1,-44],[-324,-340],[-211,27],[-527,412],[-52,1284]],[[3756,2927],[2,2]],[[76,325],[-3,6]],[[105,399],[-15,-40]],[[91,358],[11,31]],[[102,389],[2,7]],[[105,397],[0,2]],[[106,403],[5,24]],[[134,308],[-13,-16],[24,-6],[583,476],[583,3334]],[[3861,2876],[-60,-28]],[[26,591],[81,-12]],[[108,579],[-1,0]],[[107,579],[1,0]],[[3801,2848],[-1,1]],[[39,0],[36,156]],[[97,252],[1,2]],[[3763,2816],[-34,2]],[[3730,2817],[21,-2],[12,0]],[[348,606],[42,24]],[[390,630],[1,0]],[[391,631],[-1,-1]],[[525,959],[4,-42],[-64,-117]],[[525,960],[0,-1]],[[525,959],[1,0]],[[526,960],[-1,-1]],[[3808,3178],[0,-1]],[[3808,3177],[0,1]],[[3871,3050],[-63,127]],[[40,316],[-2,-1]],[[3612,3008],[-2,-18]],[[3611,2977],[0,15]],[[3611,2993],[5,23]],[[3615,2915],[0,-2]],[[3617,2949],[-2,-31]],[[3615,2913],[0,2]],[[3615,2918],[2,31]],[[3616,2958],[0,-7]],[[3617,2951],[-1,9]],[[3616,2951],[0,-1]],[[3616,2950],[1,-1]],[[3800,2849],[-1,0]],[[3799,2848]],[[3799,2848],[1,0]],[[3799,2848],[0,-1]],[[3619,2847],[2,2]],[[101,329],[25,-3]],[[3752,3671],[-21,2],[9,29],[54,55],[166,89],[30,-10],[4,59],[57,6],[10,-25]],[[3612,2990],[-1,0]],[[100,383],[1,1]],[[102,389],[-1,0]],[[104,396],[1,1]],[[6,306],[32,9]],[[5,305],[0,1],[-2,0],[0,-1],[2,0]],[[3779,3602],[-15,26]],[[3779,3602],[5,-19]],[[3785,3579],[0,15],[-6,8]],[[3784,3583],[2,-10],[1,-1]],[[3785,3579],[-1,4]],[[3787,3572],[-2,7]],[[3791,3558],[-4,14]],[[3791,3558],[0,-1],[1,0]],[[3792,3558],[-1,0]],[[107,335],[-23,4]],[[3802,2869],[1,12]],[[3799,2849],[0,-1]],[[3799,2847],[1,1]],[[3800,2850],[0,-1]],[[3800,2848],[0,1]],[[3726,2831],[0,1],[-1,0],[1,-1]],[[3726,2831],[1,-11]],[[3727,2820],[0,-2]],[[3728,2819],[-1,1]],[[42,317],[5,11]],[[53,342],[10,8]],[[0,299],[4,6]],[[3784,2813],[12,-3]],[[3796,2811],[-12,2]],[[3639,2956],[0,2]],[[392,633],[-1,-2]],[[392,631],[0,2]],[[392,633],[42,123]],[[434,758],[0,-2]],[[434,756],[1,2]],[[435,760],[0,-1]],[[435,759],[0,1]],[[454,791],[-19,-31]],[[391,631],[0,-1],[1,1],[-1,0]],[[434,758],[1,0],[0,1]],[[435,759],[-1,0],[0,-1]],[[3991,3127]],[[4001,3082],[1,-6]],[[3562,2753],[45,-6],[289,-632],[124,-141],[76,-37]],[[2966,2752],[-3,0]],[[134,308],[-13,-16],[24,-6],[583,476],[583,3334]],[[4068,3073],[-1,0]],[[3699,3185],[1,-1]],[[3701,3186],[-1,0]],[[0,154],[0,814],[49,42],[80,42],[82,22],[61,-10],[26,35],[41,17],[42,-3],[48,-39],[20,-7],[52,-3],[33,-8],[24,-18],[24,-26],[-15,-33],[18,-76],[46,-125],[-48,-3],[-38,-30],[-25,-49],[-10,-58],[-15,-23],[-102,-68],[-91,-142],[-37,-31],[-81,-44],[-31,-38],[-11,15],[-19,18],[-10,16],[-48,-62],[-40,-23],[-25,-102]],[[4096,2054],[-75,31],[-73,91],[-30,206],[-43,27],[8,61],[45,92],[-33,78],[-83,76],[-97,57],[-77,23],[-63,-20],[-188,-105],[-39,-43],[-31,-102],[-72,-76],[-81,-10],[-55,96],[-6,8],[-8,30],[10,24],[24,15],[-77,80],[-24,-32],[-22,-14],[-21,10],[-15,36],[-80,-47],[-19,-4],[-29,20],[-24,68],[-53,43],[-14,67],[3,77],[17,57],[209,131],[61,14],[52,34],[144,153],[43,24],[58,9],[51,16],[49,41],[91,97],[12,18],[21,47],[6,12],[14,3],[33,-6],[13,3],[71,71],[9,19],[13,8],[59,68],[19,16],[22,6],[85,44],[42,33],[34,35],[33,26],[44,11],[10,8],[18,33],[9,6],[0,-1900]],[[0,260],[0,126],[179,66],[-6,-101],[-28,-48],[-32,38],[-90,-93],[-23,12]],[[0,192],[99,63],[-46,-73],[152,-182],[-205,0],[0,192]],[[2601,2829],[63,85],[58,20],[21,-28],[2,-67],[-144,-10]]]}