{"objects":{"water":{"type":"GeometryCollection","geometries":[{"type":"Polygon","properties":{"source":"naturalearthdata.com","kind":"ocean","area":1576712559132672,"sort_rank":200,"min_zoom":0.0,"id":1},"arcs":[[12]]},{"type":"MultiLineString","properties":{"source":"naturalearthdata.com","kind":"ocean","sort_rank":205,"boundary":true,"min_zoom":0.0,"id":56},"arcs":[[13],[14]]}]},"buildings":{"type":"GeometryCollection","geometries":[]},"places":{"type":"GeometryCollection","geometries":[{"type":"Point","properties":{"kind":"locality","name":"Kolea","kind_detail":"town","name:ar":"\u0627\u0644\u0642\u0644\u064a\u0639\u0629","source":"openstreetmap.org","min_zoom":8.0,"id":313438448,"population":54401},"coordinates":[3970,144]},{"type":"Point","properties":{"kind":"locality","name":"Fouka","kind_detail":"town","name:ar":"\u0641\u0648\u0643\u0629","source":"openstreetmap.org","min_zoom":8.0,"id":981700025,"population":48959},"coordinates":[3891,233]},{"type":"Point","properties":{"kind":"locality","name":"Cherchell","kind_detail":"town","name:ar":"\u0634\u0631\u0634\u0627\u0644","source":"openstreetmap.org","min_zoom":8.0,"id":424966632,"population":48056},"coordinates":[2283,35]},{"type":"Point","properties":{"kind":"locality","name:en":"Bou Ismail","name":"Bou Isma\u00efl","kind_detail":"town","name:ar":"\u0628\u0648\u0627\u0633\u0645\u0627\u0639\u064a\u0644","source":"openstreetmap.org","min_zoom":8.0,"old_name":"Castiglione","id":313438452,"population":41684},"coordinates":[3756,165]},{"type":"Point","properties":{"kind":"locality","name":"Douaouda","kind_detail":"town","name:ar":"\u062f\u0648\u0627\u0648\u062f\u0629","source":"openstreetmap.org","min_zoom":8.0,"id":981700021,"population":22408},"coordinates":[4031,277]},{"type":"Point","properties":{"kind":"locality","name":"Khemisti","kind_detail":"town","name:ar":"\u062e\u0645\u064a\u0633\u062a\u064a","source":"openstreetmap.org","min_zoom":8.0,"old_name":"Tefeschoun","id":1033320728,"population":15128},"coordinates":[3709,101]}]},"transit":{"type":"GeometryCollection","geometries":[]},"pois":{"type":"GeometryCollection","geometries":[]},"boundaries":{"type":"GeometryCollection","geometries":[{"type":"LineString","properties":{"name:kg":"Algeria","name:ka":"\u10d0\u10da\u10df\u10d8\u10e0\u10d8","name:tr":"Cezayir","name:ts":"Algeriya","name:km":"\u1794\u17d2\u179a\u1791\u17c1\u179f\u17a2\u17b6\u179b\u17cb\u17a0\u17d2\u179f\u17c1\u179a\u17b8","name:kl":"Algeriet","name:kk":"\u0410\u043b\u0436\u0438\u0440","name:tw":"Algeria","name:tt":"\u04d8\u043b\u0497\u04d9\u0437\u0430\u0438\u0301\u0440","name:kw":"Aljeri","name:tk":"Al\u017eir","name:ku":"Cezayir","name:ti":"\u12a0\u120d\u1300\u122a\u12eb","name:ks":"\u0627\u066e\u06ea\u0644\u062c\u06cc\u0631\u0650\u06cc\u0627","name:to":"\u02bbAisilia","name:tl":"Arhelya","name:ce":"\u0410\u043b\u0436\u0438\u0301\u0440","name:ta":"\u0b85\u0bb2\u0bcd\u0b9a\u0bc0\u0bb0\u0bbf\u0baf\u0bbe","name:tg":"\u0410\u043b\u04b7\u0430\u0437\u043e\u0438\u0440","name:ky":"\u0410\u043b\u0436\u0438\u0440","name:te":"\u0c05\u0c32\u0c4d\u0c1c\u0c40\u0c30\u0c3f\u0c2f\u0c3e","name:cy":"Algeria","name:qu":"Alhirya","name:da":"Algeriet","name:de":"Algerien","name:dz":"\u0f68\u0f71\u0f63\u0f0b\u0f47\u0f72\u0f0b\u0f62\u0f72\u0f0b\u0f61","source":"openstreetmap.org","name:kn":"\u0c85\u0cb2\u0ccd\u0c9c\u0cc0\u0cb0\u0cbf\u0caf","name:dv":"\u0796\u07a6\u0792\u07a7\u0787\u07a8\u0783\u07aa","name:za":"Algeria","name:lv":"Al\u017e\u012brija","name:lt":"Al\u017eyras","name:uz":"Jazoir","name:cs":"Al\u017e\u00edrsko","name:ur":"\u0627\u0644\u062c\u0632\u0627\u0626\u0631","name:lb":"Algerien","name:la":"Algerium","name:ki":"Algeria","name:uk":"\u0410\u043b\u0436\u0438\u0440","name:ug":"\u0626\u0627\u0644\u062c\u0649\u0631\u0649\u064a\u06d5","name:li":"Algerie\u00eb","name:ln":"Aljeria","name:lo":"\u0ec1\u0ead\u0ea5\u0e88\u0eb4\u0ec0\u0ea5\u0e8d","name:el":"\u0391\u03bb\u03b3\u03b5\u03c1\u03af\u03b1","name:eo":"Al\u011derio","name:en":"Algeria","name":"\u2d4d\u2d63\u2d63\u2d30\u2d62\u2d3b\u2d54 \u0627\u0644\u062c\u0632\u0627\u0626\u0631","name:ee":"\u0186ldzeria","name:th":"\u0e1b\u0e23\u0e30\u0e40\u0e17\u0e28\u0e41\u0e2d\u0e25\u0e08\u0e35\u0e40\u0e23\u0e35\u0e22","name:eu":"Aljeria","name:et":"Al\u017eeeria","name:es":"Argelia","name:ia":"Algeria","name:rm":"Algeria","name:rn":"Alijeriya","name:az":"\u018flc\u0259zair","name:ie":"Algeria","name:id":"Aljazair","name:ig":"Algeria","name:as":"\u0986\u09b2\u099c\u09c7\u09f0\u09bf\u09af\u09bc\u09be","name:ar":"\u0627\u0644\u062c\u0632\u0627\u0626\u0631","name:io":"Aljeria","name:is":"Als\u00edr","name:am":"\u12a0\u120d\u1304\u122a\u12eb","name:it":"Algeria","name:an":"Alcheria","name:ru":"\u0410\u043b\u0436\u0438\u0301\u0440","name:rw":"Aligeriya","name:af":"Algeri\u00eb","name:zu":"iAljiriya","kind_detail":"2","name:ca":"Alg\u00e8ria","name:zh-yue":"\u963f\u723e\u53ca\u5229\u4e9e","name:zh":"\u963f\u5c14\u53ca\u5229\u4e9a","name:so":"Aljeeriya","name:sn":"Algeria","name:sm":"Algeria","name:sl":"Al\u017eirija","name:sk":"Al\u017e\u00edrsko","name:ja":"\u30a2\u30eb\u30b8\u30a7\u30ea\u30a2","name:si":"\u0d87\u0dbd\u0dca\u0da2\u0dd3\u0dbb\u0dd2\u0dba\u0dcf\u0dc0","name:sh":"Al\u017eir","name:sg":"Alaz\u00ebri","name:se":"Algeria","name:sd":"\u0627\u0644\u062c\u0632\u0627\u0626\u0631","name:sc":"Alger\u00eca","name:br":"Aljeria","name:bs":"Al\u017eir","name:bm":"Algeri","name:bn":"\u0986\u09b2\u099c\u09c7\u09b0\u09bf\u09af\u09bc\u09be","name:bo":"\u0f68\u0f71\u0f63\u0f0b\u0f47\u0f72\u0f0b\u0f62\u0f72\u0f0b\u0f61\u0f0d","name:sa":"\u0905\u0932\u094d\u091c\u0940\u0930\u093f\u092f\u093e","name:sw":"Algeria","name:be":"\u0410\u043b\u0436\u044b\u0301\u0440","name:su":"Aljazair","name:bg":"\u0410\u043b\u0436\u045d\u0440","name:ss":"i-Alijeriya","name:sr":"\u0410\u043b\u0436\u0438\u0440","name:sq":"Algjeria","name:jv":"Aljazair","alt_name:sc":"Jas\u00ecria","alt_name:so":"Jasaa'ir","name:pt":"Arg\u00e9lia","name:ps":"\u0627\u0644\u062c\u0632\u0627\u064a\u0631","name:om":"Aljeeriyaa","name:oc":"Argeria","min_zoom":8.0,"name:ro":"Algeria","name:ko":"\uc54c\uc81c\ub9ac","name:zh-min-nan":"Algeria","name:os":"\u0410\u043b\u0436\u0438\u0440","name:or":"\u0b06\u0b32\u0b1c\u0b47\u0b30\u0b3f\u0b06","name:pl":"Algieria","name:pi":"\u0905\u0932\u094d\u091c\u0940\u0930\u093f\u092f\u093e","name:st":"Algeria","sort_rank":262,"name:ba":"\u0410\u043b\u0436\u0438\u0301\u0440","osm_relation":true,"name:xh":"I-Algeria","name:pa":"\u0a05\u0a32\u0a1c\u0a40\u0a30\u0a40\u0a06","name:cv":"\u0410\u043b\u0436\u0438\u0440","name:hi":"\u0905\u0932\u094d\u091c\u0940\u0930\u093f\u092f\u093e","name:sv":"Algeriet","name:he":"\u05d0\u05dc\u05d2'\u05d9\u05e8\u05d9\u05d4","name:ha":"Aljeriya","name:hy":"\u0531\u056c\u056a\u056b\u0580","name:ht":"Aljeri","name:hu":"Alg\u00e9ria","name:hr":"Al\u017eir","kind":"country","name:yi":"\u05d0\u05b7\u05dc\u05d6\u05e9\u05d9\u05e8","name:yo":"\u00c0lg\u00e9r\u00ed\u00e0","name:mt":"Al\u0121erija","name:ms":"Algeria","name:mr":"\u0905\u0932\u094d\u091c\u0940\u0930\u093f\u092f\u093e","name:my":"\u1021\u101a\u103a\u101c\u103a\u1002\u103b\u102e\u1038\u101b\u102e\u1038\u101a\u102c\u1038\u1014\u102d\u102f\u1004\u103a\u1004\u1036","official_name":"\u0627\u0644\u062c\u0645\u0647\u0648\u0631\u064a\u0629 \u0627\u0644\u062c\u0632\u0627\u0626\u0631\u064a\u0629 \u0627\u0644\u062f\u064a\u0645\u0642\u0631\u0627\u0637\u064a\u0629 \u0627\u0644\u0634\u0639\u0628\u064a\u0629","int_name":"Algeria","name:mg":"Aljeria","name:ml":"\u0d05\u0d7e\u0d1c\u0d40\u0d31\u0d3f\u0d2f","name:vi":"Alg\u00e9rie","name:mn":"\u0410\u043b\u0436\u0438\u0440","id":-192756,"name:mk":"\u0410\u043b\u0436\u0438\u0440","name:vo":"Laljer\u00e4n","name:fa":"\u0627\u0644\u062c\u0632\u0627\u06cc\u0631","name:ff":"Aljeri","name:fi":"Algeria","name:fo":"Algeria","name:fr":"Alg\u00e9rie","name:fy":"Algerije","alt_name:qu":"Arhilya","name:nl":"Algerije","name:nn":"Algerie","name:no":"Algerie","name:na":"Ardjiriya","name:ne":"\u0905\u0932\u094d\u091c\u0947\u0930\u093f\u092f\u093e","name:ny":"Algeria","name:wa":"Aldjereye","name:wo":"Alseeri","name:nv":"Alj\u00ed\u00edya","name:ga":"An Ailg\u00e9ir","name:gd":"Aildiria","name:gn":"Ayhelia","name:gl":"Alxeria","maritime_boundary":true,"name:gv":"Yn Algear","name:gu":"\u0a85\u0ab2\u0acd\u0a9c\u0ac0\u0ab0\u0abf\u0aaf\u0abe","name:lg":"Algeria"},"arcs":[0]},{"type":"MultiLineString","properties":{"name:right:ja":"\ube14\ub9ac\ub2e4","name:right:fr":"Blida","name:left:ar":"\u062a\u064a\u0628\u0627\u0632\u0629","name:right:uk":"\u0411\u043b\u0456\u0434\u0430","id:right":-1283683,"min_zoom":8.0,"name:right:fa":"\u0627\u0644\u0628\u0644\u06cc\u062f\u0647","name:right:ru":"\u0411\u043b\u0438\u0434\u0430","alt_name:left:fr":"Tipasa","id":-1286213,"osm_relation":true,"name:right":"Blida - \u0627\u0644\u0628\u0644\u064a\u062f\u0629","kind":"region","name":"Tipaza - \u062a\u064a\u0628\u0627\u0632\u0629 - Blida - \u0627\u0644\u0628\u0644\u064a\u062f\u0629","source":"openstreetmap.org","sort_rank":256,"kind_detail":"4","name:right:en":"Blida","name:left:en":"Tipaza","name:left:fr":"Tipaza","name:right:ar":"\u0627\u0644\u0628\u0644\u064a\u062f\u0629","id:left":-1286213,"name:right:zh":"\u535c\u5229\u8fbe","name:left":"Tipaza - \u062a\u064a\u0628\u0627\u0632\u0629"},"arcs":[[1],[2]]},{"type":"MultiLineString","properties":{"name:right:yo":"Algiers","name:right:hy":"\u0531\u056c\u056a\u056b\u0580","name:right:ug":"\u0626\u0627\u0644\u062c\u0649\u0631","name:right:la":"Algeria","name:right:lb":"Alger","name:right:uk":"\u0410\u043b\u0436\u0438\u0440","name:right:hr":"Al\u017eir","name:right:ht":"Alje","name:right:hu":"Alg\u00edr","name:right:lt":"Al\u017eyras","name:right:hi":"\u0906\u0932\u094d\u091c\u0947\u0930","name:right:lv":"Al\u017e\u012bra","name:right:he":"\u05d0\u05dc\u05d2'\u05d9\u05e8","name:right:os":"\u0410\u043b\u0436\u0438\u0440","name:right:af":"Algiers","name:right:vi":"Algiers","sort_rank":256,"name:right:an":"Alcher","name:right:am":"\u12a0\u120d\u1300\u122d\u1235","name":"Tipaza - \u062a\u064a\u0628\u0627\u0632\u0629 - Alger - \u0627\u0644\u062c\u0632\u0627\u0626\u0631","source":"openstreetmap.org","name:right:ar":"\u0627\u0644\u062c\u0632\u0627\u0626\u0631","name:right:az":"\u018flc\u0259zair","name:left":"Tipaza - \u062a\u064a\u0628\u0627\u0632\u0629","name:right:mk":"\u0410\u043b\u0436\u0438\u0440","name:right:eu":"Aljer","name:right:ml":"\u0d05\u0d7e\u0d1c\u0d3f\u0d2f\u0d47\u0d34\u0d4d\u0d38\u0d4d","name:right:vo":"C\u00e4sair","name:right:it":"Algeri","name:right:is":"Algeirsborg","name:right:ru":"\u0410\u043b\u0436\u0438\u0440","name:right:io":"Aljer","name:right:ro":"Alger","name:right:ms":"Algiers","name:right:mr":"\u0905\u0932\u094d\u091c\u0940\u092f\u0930\u094d\u0938","name:right:ie":"Alger","name:right:id":"Aljir","name:right:eo":"Al\u011dero","name:right:en":"Algiers","name:right:el":"\u0391\u03bb\u03b3\u03ad\u03c1\u03b9","kind":"region","name:right:bn":"\u0986\u09b2\u099c\u09bf\u09af\u09bc\u09be\u09b0\u09cd\u09b8","name:right:bo":"\u0f68\u0f71\u0f63\u0f0b\u0f47\u0f72\u0f0b\u0f61\u0f62\u0f0b\u0f66\u0f72\u0f0d","name:right:zu":"Algiers","min_zoom":8.0,"name:right:be":"\u0410\u043b\u0436\u044b\u0440","name:left:fr":"Tipaza","name:right:bs":"Al\u017eir","name:right:zh":"\u963f\u723e\u53ca\u723e","name:right:fy":"Algiers","name:right:nn":"Alger","name:right:no":"Alger","name:right:nl":"Algiers","name:right:ja":"\u30a2\u30eb\u30b8\u30a7","name:right:fr":"Alger","name:right:wo":"Alse","name:right:sr":"\u0410\u043b\u0436\u0438\u0440","name:right:su":"Aljir","name:right:sw":"Algiers","name:right:sv":"Alger","name:right:sh":"Al\u017eir","name:right:sk":"Al\u017e\u00edr","name:right:jv":"Aljir","name:right:sl":"Al\u017eir","name:right:so":"Algiers","name:right:fa":"\u0627\u0644\u062c\u0632\u06cc\u0631\u0647","name:right:fo":"Alger","id":-1286213,"name:right:fi":"Alger","name:left:en":"Tipaza","name:right:ca":"Alger","kind_detail":"4","name:right:et":"Al\u017eiir","name:right:cy":"Alger","name:right:zh-yue":"\u963f\u723e\u53ca\u723e","id:left":-1286213,"name:right:cs":"Al\u017e\u00edr","name:right":"Alger - \u0627\u0644\u062c\u0632\u0627\u0626\u0631","id:right":-157062,"name:right:cv":"\u0410\u043b\u0436\u0438\u0440","name:right:ka":"\u10d0\u10da\u10df\u10d8\u10e0\u10d8","name:right:zh-min-nan":"Algiers","name:right:ps":"\u0627\u0644\u062c\u0632\u064a\u0631\u0647","name:right:pt":"Argel","name:left:ar":"\u062a\u064a\u0628\u0627\u0632\u0629","old_name:right":"Icosium","name:right:kk":"\u0410\u043b\u0436\u0438\u0440","name:right:ko":"\uc54c\uc81c","name:right:kn":"\u0c86\u0cb2\u0ccd\u0c9c\u0cc7\u0cb0\u0ccd","name:right:tl":"Algiers","name:right:gd":"Algiers","name:right:th":"\u0e41\u0e2d\u0e25\u0e40\u0e08\u0e35\u0e22\u0e23\u0e4c","name:right:oc":"Argi\u00e8r","name:right:es":"Argel","name:right:ky":"\u0410\u043b\u0436\u0438\u0440 \u0448\u0430\u0430\u0440\u044b","name:right:gl":"Alxer","name:right:bg":"\u0410\u043b\u0436\u0438\u0440","name:right:tg":"\u0410\u043b\u04b7\u0430\u0437\u043e\u0438\u0440","name:right:pl":"Algier","name:right:ta":"\u0b85\u0bb2\u0bcd\u0b9c\u0bbf\u0baf\u0bb0\u0bcd\u0bb8\u0bcd","osm_relation":true,"name:right:tr":"Cezayir","name:right:de":"Algier","name:right:ur":"\u0627\u0644\u062c\u0632\u0627\u0626\u0631 \u0634\u06c1\u0631","name:right:da":"Algier","alt_name:left:fr":"Tipasa","name:right:ln":"Alje","name:right:ku":"Cezayir"},"arcs":[[3],[4]]},{"type":"LineString","properties":{"kind":"region","name:en":"Tipaza","name":"Tipaza - \u062a\u064a\u0628\u0627\u0632\u0629","sort_rank":256,"kind_detail":"4","name:ar":"\u062a\u064a\u0628\u0627\u0632\u0629","min_zoom":8.0,"source":"openstreetmap.org","name:fr":"Tipaza","alt_name:fr":"Tipasa","id":-1286213,"osm_relation":true},"arcs":[5]},{"type":"MultiLineString","properties":{"kind":"region","name:en":"Tipaza","name":"Tipaza - \u062a\u064a\u0628\u0627\u0632\u0629","sort_rank":256,"kind_detail":"4","name:ar":"\u062a\u064a\u0628\u0627\u0632\u0629","min_zoom":8.0,"name:fr":"Tipaza","source":"openstreetmap.org","maritime_boundary":true,"alt_name:fr":"Tipasa","id":-1286213,"osm_relation":true},"arcs":[[6],[7],[8]]},{"type":"LineString","properties":{"name:right:yo":"Algiers","name:right:hy":"\u0531\u056c\u056a\u056b\u0580","name:right:ug":"\u0626\u0627\u0644\u062c\u0649\u0631","name:right:la":"Algeria","name:right:lb":"Alger","name:right:uk":"\u0410\u043b\u0436\u0438\u0440","name:right:hr":"Al\u017eir","name:right:ht":"Alje","name:right:hu":"Alg\u00edr","name:right:lt":"Al\u017eyras","name:right:hi":"\u0906\u0932\u094d\u091c\u0947\u0930","name:right:lv":"Al\u017e\u012bra","name:right:he":"\u05d0\u05dc\u05d2'\u05d9\u05e8","name:right:os":"\u0410\u043b\u0436\u0438\u0440","name:right:af":"Algiers","name:right:vi":"Algiers","sort_rank":256,"name:right:an":"Alcher","name:right:am":"\u12a0\u120d\u1300\u122d\u1235","name":"Blida - \u0627\u0644\u0628\u0644\u064a\u062f\u0629 - Alger - \u0627\u0644\u062c\u0632\u0627\u0626\u0631","source":"openstreetmap.org","name:right:ar":"\u0627\u0644\u062c\u0632\u0627\u0626\u0631","name:right:az":"\u018flc\u0259zair","name:left":"Blida - \u0627\u0644\u0628\u0644\u064a\u062f\u0629","name:right:mk":"\u0410\u043b\u0436\u0438\u0440","name:right:sr":"\u0410\u043b\u0436\u0438\u0440","name:right:eu":"Aljer","name:right:ml":"\u0d05\u0d7e\u0d1c\u0d3f\u0d2f\u0d47\u0d34\u0d4d\u0d38\u0d4d","name:right:vo":"C\u00e4sair","name:right:it":"Algeri","name:right:is":"Algeirsborg","name:right:ru":"\u0410\u043b\u0436\u0438\u0440","name:right:io":"Aljer","name:right:ro":"Alger","name:left:ru":"\u0411\u043b\u0438\u0434\u0430","name:right:ms":"Algiers","name:right:mr":"\u0905\u0932\u094d\u091c\u0940\u092f\u0930\u094d\u0938","name:right:ie":"Alger","name:right:id":"Aljir","name:right:eo":"Al\u011dero","name:right:en":"Algiers","name:right:el":"\u0391\u03bb\u03b3\u03ad\u03c1\u03b9","kind":"region","name:right:bn":"\u0986\u09b2\u099c\u09bf\u09af\u09bc\u09be\u09b0\u09cd\u09b8","name:right:bo":"\u0f68\u0f71\u0f63\u0f0b\u0f47\u0f72\u0f0b\u0f61\u0f62\u0f0b\u0f66\u0f72\u0f0d","name:right:zu":"Algiers","name:left:fa":"\u0627\u0644\u0628\u0644\u06cc\u062f\u0647","min_zoom":8.0,"name:right:be":"\u0410\u043b\u0436\u044b\u0440","name:left:zh":"\u535c\u5229\u8fbe","name:left:fr":"Blida","name:right:bs":"Al\u017eir","name:right:zh":"\u963f\u723e\u53ca\u723e","name:right:fy":"Algiers","name:right:nn":"Alger","name:right:no":"Alger","name:right:nl":"Algiers","name:right:ja":"\u30a2\u30eb\u30b8\u30a7","name:right:fr":"Alger","name:right:wo":"Alse","name:left:ja":"\ube14\ub9ac\ub2e4","name:right:su":"Aljir","name:right:sw":"Algiers","name:right:sv":"Alger","name:left:uk":"\u0411\u043b\u0456\u0434\u0430","name:right:sh":"Al\u017eir","name:right:sk":"Al\u017e\u00edr","name:right:jv":"Aljir","name:right:sl":"Al\u017eir","name:right:so":"Algiers","name:right:fa":"\u0627\u0644\u062c\u0632\u06cc\u0631\u0647","name:right:fo":"Alger","id":-1283683,"name:right:fi":"Alger","name:left:en":"Blida","name:right:ca":"Alger","kind_detail":"4","name:right:et":"Al\u017eiir","name:right:cy":"Alger","name:right:zh-yue":"\u963f\u723e\u53ca\u723e","id:left":-1283683,"name:right:cs":"Al\u017e\u00edr","name:right":"Alger - \u0627\u0644\u062c\u0632\u0627\u0626\u0631","id:right":-157062,"name:right:cv":"\u0410\u043b\u0436\u0438\u0440","name:right:ka":"\u10d0\u10da\u10df\u10d8\u10e0\u10d8","name:right:zh-min-nan":"Algiers","name:right:ps":"\u0627\u0644\u062c\u0632\u064a\u0631\u0647","name:right:pt":"Argel","name:left:ar":"\u0627\u0644\u0628\u0644\u064a\u062f\u0629","old_name:right":"Icosium","name:right:kk":"\u0410\u043b\u0436\u0438\u0440","name:right:ko":"\uc54c\uc81c","name:right:kn":"\u0c86\u0cb2\u0ccd\u0c9c\u0cc7\u0cb0\u0ccd","name:right:tl":"Algiers","name:right:gd":"Algiers","name:right:th":"\u0e41\u0e2d\u0e25\u0e40\u0e08\u0e35\u0e22\u0e23\u0e4c","name:right:oc":"Argi\u00e8r","name:right:es":"Argel","name:right:ky":"\u0410\u043b\u0436\u0438\u0440 \u0448\u0430\u0430\u0440\u044b","name:right:gl":"Alxer","name:right:bg":"\u0410\u043b\u0436\u0438\u0440","name:right:tg":"\u0410\u043b\u04b7\u0430\u0437\u043e\u0438\u0440","name:right:pl":"Algier","name:right:ta":"\u0b85\u0bb2\u0bcd\u0b9c\u0bbf\u0baf\u0bb0\u0bcd\u0bb8\u0bcd","osm_relation":true,"name:right:tr":"Cezayir","name:right:de":"Algier","name:right:ur":"\u0627\u0644\u062c\u0632\u0627\u0626\u0631 \u0634\u06c1\u0631","name:right:da":"Algier","name:right:ln":"Alje","name:right:ku":"Cezayir"},"arcs":[9]},{"type":"LineString","properties":{"name:pt":"Argel","name:ps":"\u0627\u0644\u062c\u0632\u064a\u0631\u0647","name:ka":"\u10d0\u10da\u10df\u10d8\u10e0\u10d8","name:ko":"\uc54c\uc81c","name:kn":"\u0c86\u0cb2\u0ccd\u0c9c\u0cc7\u0cb0\u0ccd","name:hy":"\u0531\u056c\u056a\u056b\u0580","name:cs":"Al\u017e\u00edr","name:ku":"Cezayir","name:ro":"Alger","name:tl":"Algiers","name:zh-min-nan":"Algiers","name:os":"\u0410\u043b\u0436\u0438\u0440","name:pl":"Algier","name:ta":"\u0b85\u0bb2\u0bcd\u0b9c\u0bbf\u0baf\u0bb0\u0bcd\u0bb8\u0bcd","name:tg":"\u0410\u043b\u04b7\u0430\u0437\u043e\u0438\u0440","name:ca":"Alger","name:vi":"Algiers","name:cy":"Alger","sort_rank":256,"name:hr":"Al\u017eir","name:da":"Algier","name:de":"Algier","source":"openstreetmap.org","name:cv":"\u0410\u043b\u0436\u0438\u0440","name:lv":"Al\u017e\u012bra","name:tr":"Cezayir","name:hi":"\u0906\u0932\u094d\u091c\u0947\u0930","name:kk":"\u0410\u043b\u0436\u0438\u0440","name:sv":"Alger","name:he":"\u05d0\u05dc\u05d2'\u05d9\u05e8","kind":"region","name:ur":"\u0627\u0644\u062c\u0632\u0627\u0626\u0631 \u0634\u06c1\u0631","name:lb":"Alger","name:la":"Algeria","name:uk":"\u0410\u043b\u0436\u0438\u0440","old_name":"Icosium","name:ug":"\u0626\u0627\u0644\u062c\u0649\u0631","name:hu":"Alg\u00edr","name:ln":"Alje","name:oc":"Argi\u00e8r","name:el":"\u0391\u03bb\u03b3\u03ad\u03c1\u03b9","name:eo":"Al\u011dero","name:en":"Algiers","name":"Alger - \u0627\u0644\u062c\u0632\u0627\u0626\u0631","min_zoom":8.0,"name:th":"\u0e41\u0e2d\u0e25\u0e40\u0e08\u0e35\u0e22\u0e23\u0e4c","name:eu":"Aljer","name:et":"Al\u017eiir","name:ru":"\u0410\u043b\u0436\u0438\u0440","name:es":"Argel","name:az":"\u018flc\u0259zair","name:ie":"Alger","name:id":"Aljir","name:ms":"Algiers","name:mr":"\u0905\u0932\u094d\u091c\u0940\u092f\u0930\u094d\u0938","name:ar":"\u0627\u0644\u062c\u0632\u0627\u0626\u0631","name:io":"Aljer","name:is":"Algeirsborg","name:am":"\u12a0\u120d\u1300\u122d\u1235","name:it":"Algeri","name:an":"Alcher","name:ml":"\u0d05\u0d7e\u0d1c\u0d3f\u0d2f\u0d47\u0d34\u0d4d\u0d38\u0d4d","id":-157062,"name:mk":"\u0410\u043b\u0436\u0438\u0440","name:af":"Algiers","name:zu":"Algiers","name:lt":"Al\u017eyras","kind_detail":"4","name:no":"Alger","name:fo":"Alger","name:fr":"Alger","name:ky":"\u0410\u043b\u0436\u0438\u0440 \u0448\u0430\u0430\u0440\u044b","name:zh-yue":"\u963f\u723e\u53ca\u723e","name:fy":"Algiers","name:vo":"C\u00e4sair","name:zh":"\u963f\u723e\u53ca\u723e","name:so":"Algiers","name:sl":"Al\u017eir","name:nl":"Algiers","name:ja":"\u30a2\u30eb\u30b8\u30a7","name:nn":"Alger","name:sh":"Al\u017eir","name:bs":"Al\u017eir","name:bn":"\u0986\u09b2\u099c\u09bf\u09af\u09bc\u09be\u09b0\u09cd\u09b8","name:bo":"\u0f68\u0f71\u0f63\u0f0b\u0f47\u0f72\u0f0b\u0f61\u0f62\u0f0b\u0f66\u0f72\u0f0d","name:sk":"Al\u017e\u00edr","name:sw":"Algiers","name:be":"\u0410\u043b\u0436\u044b\u0440","name:su":"Aljir","name:bg":"\u0410\u043b\u0436\u0438\u0440","name:wo":"Alse","name:sr":"\u0410\u043b\u0436\u0438\u0440","osm_relation":true,"name:gd":"Algiers","name:ht":"Alje","name:jv":"Aljir","name:gl":"Alxer","name:fa":"\u0627\u0644\u062c\u0632\u06cc\u0631\u0647","name:yo":"Algiers","name:fi":"Alger"},"arcs":[10]},{"type":"LineString","properties":{"name:pt":"Argel","name:ps":"\u0627\u0644\u062c\u0632\u064a\u0631\u0647","name:ka":"\u10d0\u10da\u10df\u10d8\u10e0\u10d8","name:ko":"\uc54c\uc81c","name:kn":"\u0c86\u0cb2\u0ccd\u0c9c\u0cc7\u0cb0\u0ccd","old_name":"Icosium","name:cs":"Al\u017e\u00edr","name:sw":"Algiers","name:ku":"Cezayir","name:az":"\u018flc\u0259zair","name:tl":"Algiers","name:zh-min-nan":"Algiers","name:os":"\u0410\u043b\u0436\u0438\u0440","name:pl":"Algier","name:ta":"\u0b85\u0bb2\u0bcd\u0b9c\u0bbf\u0baf\u0bb0\u0bcd\u0bb8\u0bcd","name:tg":"\u0410\u043b\u04b7\u0430\u0437\u043e\u0438\u0440","name:ca":"Alger","name:cy":"Alger","source":"openstreetmap.org","sort_rank":256,"name:ln":"Alje","name:da":"Algier","name:de":"Algier","name:tr":"Cezayir","name:cv":"\u0410\u043b\u0436\u0438\u0440","name:be":"\u0410\u043b\u0436\u044b\u0440","name:lv":"Al\u017e\u012bra","name:lt":"Al\u017eyras","name:hi":"\u0906\u0932\u094d\u091c\u0947\u0930","name:kk":"\u0410\u043b\u0436\u0438\u0440","name:he":"\u05d0\u05dc\u05d2'\u05d9\u05e8","name:eo":"Al\u011dero","name:ur":"\u0627\u0644\u062c\u0632\u0627\u0626\u0631 \u0634\u06c1\u0631","name:lb":"Alger","name:la":"Algeria","name:uk":"\u0410\u043b\u0436\u0438\u0440","name:hy":"\u0531\u056c\u056a\u056b\u0580","name:ug":"\u0626\u0627\u0644\u062c\u0649\u0631","name:hu":"Alg\u00edr","name:hr":"Al\u017eir","name:oc":"Argi\u00e8r","name:el":"\u0391\u03bb\u03b3\u03ad\u03c1\u03b9","kind":"region","name:en":"Algiers","name":"Alger - \u0627\u0644\u062c\u0632\u0627\u0626\u0631","min_zoom":8.0,"name:th":"\u0e41\u0e2d\u0e25\u0e40\u0e08\u0e35\u0e22\u0e23\u0e4c","name:eu":"Aljer","name:et":"Al\u017eiir","name:es":"Argel","name:ro":"Alger","name:ie":"Alger","name:id":"Aljir","name:ms":"Algiers","name:mr":"\u0905\u0932\u094d\u091c\u0940\u092f\u0930\u094d\u0938","name:ar":"\u0627\u0644\u062c\u0632\u0627\u0626\u0631","name:an":"Alcher","name:io":"Aljer","name:is":"Algeirsborg","name:am":"\u12a0\u120d\u1300\u122d\u1235","name:it":"Algeri","name:ml":"\u0d05\u0d7e\u0d1c\u0d3f\u0d2f\u0d47\u0d34\u0d4d\u0d38\u0d4d","name:vi":"Algiers","id":-157062,"name:mk":"\u0410\u043b\u0436\u0438\u0440","name:af":"Algiers","name:zu":"Algiers","kind_detail":"4","name:sh":"Al\u017eir","name:fo":"Alger","name:fr":"Alger","name:ky":"\u0410\u043b\u0436\u0438\u0440 \u0448\u0430\u0430\u0440\u044b","name:zh-yue":"\u963f\u723e\u53ca\u723e","name:fy":"Algiers","name:vo":"C\u00e4sair","name:zh":"\u963f\u723e\u53ca\u723e","name:so":"Algiers","name:sl":"Al\u017eir","name:nl":"Algiers","name:ja":"\u30a2\u30eb\u30b8\u30a7","name:nn":"Alger","name:no":"Alger","name:bs":"Al\u017eir","name:bn":"\u0986\u09b2\u099c\u09bf\u09af\u09bc\u09be\u09b0\u09cd\u09b8","name:bo":"\u0f68\u0f71\u0f63\u0f0b\u0f47\u0f72\u0f0b\u0f61\u0f62\u0f0b\u0f66\u0f72\u0f0d","name:sk":"Al\u017e\u00edr","name:ru":"\u0410\u043b\u0436\u0438\u0440","name:sv":"Alger","name:su":"Aljir","name:bg":"\u0410\u043b\u0436\u0438\u0440","name:wo":"Alse","name:sr":"\u0410\u043b\u0436\u0438\u0440","osm_relation":true,"name:gd":"Algiers","name:ht":"Alje","name:jv":"Aljir","name:gl":"Alxer","name:fa":"\u0627\u0644\u062c\u0632\u06cc\u0631\u0647","maritime_boundary":true,"name:yo":"Algiers","name:fi":"Alger"},"arcs":[11]}]},"roads":{"type":"GeometryCollection","geometries":[{"type":"MultiLineString","properties":{"sort_rank":380,"kind_detail":"primary","min_zoom":8.0,"kind":"major_road","source":"openstreetmap.org"},"arcs":[[15],[16],[17],[18],[19],[20],[21],[22],[23],[24],[25],[26],[27]]},{"type":"LineString","properties":{"kind":"ferry","name":"Alger - Alicante","sort_rank":355,"name:ar":"\u0627\u0644\u062c\u0632\u0627\u0626\u0631 - \u0627\u0644\u064a\u0643\u0627\u0646\u062a","source":"openstreetmap.org","min_zoom":8.0,"id":-4140123,"osm_relation":true},"arcs":[28]},{"type":"MultiLineString","properties":{"kind":"major_road","network":"DZ:national","sort_rank":380,"kind_detail":"primary","source":"openstreetmap.org","min_zoom":8.0,"landuse_kind":"residential","shield_text":"69","ref":"RN 69"},"arcs":[[29],[30],[31]]},{"type":"LineString","properties":{"kind":"ferry","name":"\u0627\u0644\u062c\u0632\u0627\u0626\u0631 - Barcelona","sort_rank":355,"name:ar":"\u0627\u0644\u062c\u0632\u0627\u0626\u0631 - \u0628\u0631\u0634\u0644\u0648\u0646\u0629","name:fr":"Alger - Barcelone","source":"openstreetmap.org","min_zoom":8.0,"name:es":"Argel - Barcelona"},"arcs":[32]},{"type":"MultiLineString","properties":{"kind":"major_road","network":"DZ:national","sort_rank":380,"kind_detail":"primary","source":"openstreetmap.org","min_zoom":8.0,"landuse_kind":"urban_area","shield_text":"69"},"arcs":[[33],[34],[35],[36],[37],[38],[39]]},{"type":"LineString","properties":{"kind":"major_road","network":"DZ:national","sort_rank":380,"kind_detail":"primary","source":"openstreetmap.org","min_zoom":8.0,"shield_text":"69","ref":"RN 69"},"arcs":[40]},{"type":"MultiLineString","properties":{"source":"openstreetmap.org","kind":"major_road","sort_rank":380,"kind_detail":"primary","ref":"RN 69A","min_zoom":8.0},"arcs":[[41],[42],[43],[44],[45],[46]]},{"type":"MultiLineString","properties":{"source":"openstreetmap.org","kind":"major_road","landuse_kind":"urban_area","sort_rank":380,"kind_detail":"primary","ref":"RN 69A","min_zoom":8.0},"arcs":[[47],[48],[49],[50]]},{"type":"MultiLineString","properties":{"source":"openstreetmap.org","kind":"major_road","landuse_kind":"urban_area","sort_rank":380,"kind_detail":"primary","min_zoom":8.0},"arcs":[[51],[52],[53],[54],[55],[56],[57],[58],[59]]},{"type":"MultiLineString","properties":{"source":"openstreetmap.org","kind":"highway","landuse_kind":"urban_area","sort_rank":383,"kind_detail":"motorway","min_zoom":8.0},"arcs":[[60],[61],[62],[63],[64],[65],[66],[67],[68],[69],[70]]},{"type":"MultiLineString","properties":{"kind":"major_road","network":"DZ:national","sort_rank":381,"kind_detail":"trunk","source":"openstreetmap.org","min_zoom":8.0,"shield_text":"11","ref":"RN 11"},"arcs":[[71],[72],[73]]},{"type":"MultiLineString","properties":{"kind":"major_road","network":"DZ:national","sort_rank":380,"kind_detail":"primary","source":"openstreetmap.org","min_zoom":8.0,"shield_text":"11","osm_relation":true},"arcs":[[74],[75],[76],[77],[78],[79],[80],[81],[82],[83],[84],[85],[86],[87],[88],[89],[90],[91],[92],[93],[94],[95]]},{"type":"MultiLineString","properties":{"kind":"major_road","network":"DZ:national","sort_rank":380,"kind_detail":"primary","source":"openstreetmap.org","min_zoom":8.0,"landuse_kind":"urban_area","shield_text":"11","ref":"RN 11"},"arcs":[[96],[97],[98]]},{"type":"MultiLineString","properties":{"kind":"major_road","network":"DZ:national","sort_rank":380,"kind_detail":"primary","source":"openstreetmap.org","min_zoom":8.0,"landuse_kind":"residential","shield_text":"69"},"arcs":[[99],[100]]},{"type":"MultiLineString","properties":{"kind":"major_road","network":"DZ:national","sort_rank":380,"kind_detail":"primary","source":"openstreetmap.org","min_zoom":8.0,"shield_text":"67","ref":"RN 67"},"arcs":[[101],[102],[103],[104],[105],[106],[107]]},{"type":"LineString","properties":{"kind":"ferry","name":"Alicante - \u0627\u0644\u064a\u0643\u0627\u0646\u062a\u064a","sort_rank":355,"name:ar":"\u0627\u0644\u062c\u0632\u0627\u0626\u0631 - \u0627\u0644\u064a\u0643\u0627\u0646\u062a\u064a","name:fr":"Alicante - Alger","source":"openstreetmap.org","min_zoom":8.0,"name:es":"Alicante - Alger"},"arcs":[108]},{"type":"MultiLineString","properties":{"kind":"major_road","network":"DZ:national","sort_rank":380,"kind_detail":"primary","source":"openstreetmap.org","min_zoom":8.0,"landuse_kind":"urban_area","shield_text":"69","ref":"RN 69"},"arcs":[[109],[110],[111],[112],[113],[114],[115],[116],[117],[118],[119]]},{"type":"LineString","properties":{"kind":"major_road","network":"DZ:national","sort_rank":380,"kind_detail":"primary","is_bicycle_related":true,"source":"openstreetmap.org","min_zoom":8.0,"landuse_kind":"residential","shield_text":"69","ref":"RN 69","id":172092545},"arcs":[120]},{"type":"LineString","properties":{"source":"openstreetmap.org","kind":"major_road","landuse_kind":"residential","sort_rank":380,"kind_detail":"primary","min_zoom":8.0,"id":510022657},"arcs":[121]},{"type":"LineString","properties":{"kind":"major_road","network":"DZ:national","sort_rank":380,"kind_detail":"primary","name:ar":"\u0646\u0647\u062c \u0627\u0644\u062c\u0645\u0647\u0648\u0631\u064a\u0629","source":"openstreetmap.org","min_zoom":8.0,"landuse_kind":"residential","shield_text":"69","ref":"RN 69","id":37283717},"arcs":[122]},{"type":"MultiLineString","properties":{"sort_rank":383,"kind_detail":"motorway","min_zoom":8.0,"kind":"highway","source":"openstreetmap.org"},"arcs":[[123],[124],[125],[126]]},{"type":"MultiLineString","properties":{"kind":"major_road","network":"DZ:national","sort_rank":380,"kind_detail":"primary","source":"openstreetmap.org","min_zoom":8.0,"landuse_kind":"urban_area","shield_text":"11","osm_relation":true},"arcs":[[127],[128],[129]]},{"type":"LineString","properties":{"kind":"highway","sort_rank":383,"landuse_kind":"urban_area","source":"openstreetmap.org","min_zoom":8.0,"kind_detail":"motorway","ref":"N61","id":25982534},"arcs":[130]},{"type":"MultiLineString","properties":{"kind":"major_road","network":"DZ:national","sort_rank":380,"kind_detail":"primary","source":"openstreetmap.org","min_zoom":8.0,"shield_text":"11","ref":"RN 11"},"arcs":[[131],[132],[133],[134],[135],[136],[137],[138],[139],[140],[141],[142],[143],[144],[145],[146],[147],[148],[149]]},{"type":"LineString","properties":{"kind":"major_road","network":"DZ:national","sort_rank":380,"kind_detail":"primary","name:ar":"\u0646\u0647\u062c \u0627\u0644\u062c\u0645\u0647\u0648\u0631\u064a\u0629","source":"openstreetmap.org","min_zoom":8.0,"shield_text":"69","ref":"RN 69","id":37283717},"arcs":[150]}]},"earth":{"type":"GeometryCollection","geometries":[{"type":"MultiPolygon","properties":{"sort_rank":10,"source":"naturalearthdata.com","min_zoom":0.0,"kind":"earth","area":895429497},"arcs":[[[151]],[[152]]]}]},"landuse":{"type":"GeometryCollection","geometries":[{"type":"Polygon","properties":{"source":"openstreetmap.org","kind":"residential","area":11236600,"tier":2,"id":521191240,"min_zoom":8.0,"sort_rank":20},"arcs":[[153]]},{"type":"MultiPolygon","properties":{"source":"naturalearthdata.com","kind":"urban_area","name":"","area":136346419,"sort_rank":11,"min_zoom":4.0},"arcs":[[[154]]]}]}},"type":"Topology","transform":{"translate":[1.40625,36.5978891331],"scale":[0.0003433228,0.0002736087]},"arcs":[[[4096,1453],[-151,-73],[-148,-126],[-924,-348],[-266,1],[-1108,-217],[-283,26],[-530,-138],[-477,-45],[-209,31]],[[4003,0],[93,5]],[[4096,165],[-4,1]],[[4096,270],[-28,13],[1,85]],[[4092,166],[-33,26],[19,35],[18,-7]],[[4069,368],[-11,-10]],[[2958,0],[-41,28],[-14,103],[-162,43],[-249,-64],[-20,-30],[-46,4],[-31,-28],[-109,0],[-44,-45],[-52,-11]],[[3428,0],[-3,0]],[[4058,358],[-335,-177],[-108,-104],[-185,-77]],[[4096,167],[-4,-1]],[[4078,377],[-9,-9]],[[4096,394],[-18,-17]],[[4096,4096],[0,-3699],[-57,-50],[-190,-101],[-276,-220],[-77,-26],[-574,0],[-16,5],[-11,25],[-6,34],[-18,32],[-54,35],[-64,17],[-64,-4],[-57,-25],[-394,-119],[-2238,0],[0,4096],[4096,0]],[[4096,397],[-57,-50],[-190,-101],[-276,-220],[-77,-26]],[[2922,0],[-16,5],[-11,25],[-6,34],[-18,32],[-54,35],[-64,17],[-64,-4],[-57,-25],[-394,-119]],[[2271,28],[1,1]],[[2272,29]],[[2272,29],[1,0]],[[2272,30],[11,5]],[[2272,30],[0,-1]],[[2272,29]],[[2272,29],[0,1]],[[2272,36],[36,7]],[[2283,35]],[[2284,35],[-1,0]],[[3691,127],[3,-2]],[[3694,125],[-2,3]],[[3698,126],[-4,-1]],[[4096,1243],[-4096,2150]],[[3967,151],[25,24]],[[3995,188],[-1,-7]],[[3995,181],[0,7]],[[4096,3668],[-131,428]],[[4000,216]],[[4051,324],[0,2]],[[4053,319],[-2,5]],[[4058,313],[-5,6]],[[4058,313],[1,-5],[0,2]],[[4059,311],[-1,2]],[[4059,311],[0,-1],[1,0],[-1,1]],[[4003,0],[3,86]],[[3889,63],[27,-22]],[[3916,41],[0,-1]],[[3917,40],[-1,1]],[[3917,39],[1,-1]],[[3918,38],[-1,1]],[[3918,38],[63,-38]],[[3757,151],[2,-1]],[[3759,150],[-1,2]],[[3759,150],[130,-87]],[[3757,151],[1,0],[0,1],[-1,0],[0,-1]],[[3712,127],[-1,1]],[[3711,128],[-13,-2]],[[3711,128]],[[3711,128],[1,-1]],[[3714,126],[41,24]],[[3755,150],[2,1]],[[3757,152],[-2,-2]],[[4051,326],[-1,0]],[[3712,127]],[[4075,333],[-188,-74],[-55,-36],[-51,-109],[-76,-51]],[[3705,63],[77,51],[51,108],[228,105]],[[3793,161],[3,3]],[[3796,164],[6,6]],[[3801,171],[-5,-7]],[[3796,164],[-1,-2]],[[3804,184],[-2,-12]],[[3803,171],[2,13]],[[3804,172],[-1,1]],[[4068,329],[7,4]],[[3802,172],[0,-2],[1,0],[0,2],[-1,0]],[[2445,1],[3,-1]],[[2448,0],[-2,2]],[[2446,2],[-1,0],[0,-1],[1,0],[0,1]],[[2273,30],[-53,-30]],[[2441,5],[-51,41],[-117,-17]],[[2441,5],[4,-3]],[[2446,2],[-5,3]],[[2445,1],[3,-1]],[[2448,0],[-2,2]],[[3690,127],[-246,-127]],[[3690,127],[1,0]],[[3691,128],[-1,-1]],[[3692,129],[-1,-1]],[[3692,128],[0,1]],[[3692,128],[-1,0],[0,-1],[1,1]],[[3692,129],[132,100]],[[3824,229],[3,1]],[[3826,230],[-2,-1]],[[3830,232],[-3,-1]],[[3827,230],[3,2]],[[3827,230],[0,1]],[[3827,231],[-1,0],[0,-1],[1,0]],[[3830,232],[4,2]],[[4074,338],[22,14]],[[2446,2],[-1,0],[0,-1],[1,0],[0,1]],[[3835,236],[221,95]],[[4056,331],[3,-2]],[[4059,329],[16,5]],[[3994,180],[0,1]],[[3994,180],[1,0]],[[3851,0],[63,39]],[[3916,40],[-2,-1]],[[3914,39],[3,0]],[[3920,40],[-3,0]],[[3917,39],[3,1]],[[3920,40],[176,127]],[[3917,40],[-1,-1],[1,0],[0,1]],[[4096,1243],[-4096,2150]],[[3998,213],[-3,-25]],[[3995,188],[4,25]],[[3999,214],[1,2],[-1,-2]],[[4000,216],[19,47]],[[4019,264],[0,-1]],[[4020,266],[-1,-1]],[[4019,263],[1,1]],[[4020,264],[0,2]],[[4020,266],[39,42]],[[3998,214],[0,-1],[1,0],[0,1],[-1,0]],[[4020,264],[-1,1],[0,-1],[1,0]],[[3969,145],[-2,6]],[[3970,145],[-1,-1],[1,0],[0,1]],[[3970,144],[15,-25]],[[3705,63],[-115,-63]],[[3591,0],[114,63]],[[4096,351],[-21,-18]],[[4075,333],[7,3],[14,15]],[[3834,234],[222,97]],[[4056,331],[3,-2]],[[4059,329],[15,9]],[[4061,327],[7,2]],[[2273,30],[-53,-30]],[[2441,5],[-27,28],[-141,-4]],[[2441,5],[4,-3]],[[2446,2],[-5,3]],[[3690,127],[-246,-127]],[[3690,127],[1,0]],[[3691,128],[-1,-1]],[[3692,129],[-1,-1]],[[3692,128],[0,1]],[[3692,128],[-1,0],[0,-1],[1,1]],[[3692,129],[132,100]],[[3824,229],[3,1]],[[3826,230],[-2,-1]],[[3830,232],[-3,-1]],[[3827,230],[3,2]],[[3827,230],[0,1]],[[3827,231],[-1,0],[0,-1],[1,0]],[[3830,232],[5,4]],[[4075,334],[21,18]],[[3985,119],[21,-33]],[[2238,0],[394,119],[57,25],[64,4],[64,-17],[54,-35],[18,-32],[6,-34],[11,-25],[16,-5],[-684,0]],[[3496,0],[77,26],[276,220],[190,101],[57,50],[0,-397],[-600,0]],[[3889,157],[48,51],[62,-22],[7,-33],[21,33],[25,-22],[-77,-51],[-86,44]],[[3711,0],[-8,88],[-28,20],[174,138],[218,115],[15,-49],[-62,-60],[0,-82],[-97,-40],[0,-41],[-115,-89],[-97,0]]]}