{"objects":{"water":{"type":"GeometryCollection","geometries":[{"type":"Polygon","properties":{"source":"naturalearthdata.com","kind":"ocean","area":1576712559132672,"sort_rank":200,"min_zoom":0.0,"id":1},"arcs":[[3],[4],[5]]},{"type":"MultiLineString","properties":{"source":"naturalearthdata.com","kind":"ocean","sort_rank":205,"boundary":true,"min_zoom":0.0,"id":75},"arcs":[[6],[7],[8],[9],[10],[11],[12]]},{"type":"LineString","properties":{"source":"naturalearthdata.com","kind":"ocean","sort_rank":205,"boundary":true,"min_zoom":0.0,"id":309},"arcs":[13]},{"type":"MultiLineString","properties":{"source":"naturalearthdata.com","kind":"ocean","sort_rank":205,"boundary":true,"min_zoom":0.0,"id":310},"arcs":[[14],[15],[16]]},{"type":"LineString","properties":{"source":"naturalearthdata.com","kind":"ocean","sort_rank":205,"boundary":true,"min_zoom":0.0,"id":3934},"arcs":[17]},{"type":"LineString","properties":{"source":"naturalearthdata.com","kind":"ocean","sort_rank":205,"boundary":true,"min_zoom":0.0,"id":3935},"arcs":[18]}]},"buildings":{"type":"GeometryCollection","geometries":[]},"places":{"type":"GeometryCollection","geometries":[{"type":"Point","properties":{"name:ka":"\u10e1\u10d0\u10dc-\u10da\u10e3\u10d8\u10e1\u10d8","name:mr":"\u0938\u093e\u0913 \u0932\u0941\u0908\u0938","name:ko":"\uc0c1\ub8e8\uc774\uc2a4","name:ar":"\u0633\u0627\u0648 \u0644\u0648\u064a\u0632","name:kk":"\u0421\u0430\u043d-\u041b\u0443\u0438\u0441","min_zoom":8.0,"name:ru":"\u0421\u0430\u043d-\u041b\u0443\u0438\u0441","name:tg":"\u0421\u0430\u043d-\u041b\u0443\u0438\u0441","name:mk":"\u0421\u0430\u043e \u041b\u0443\u0438\u0448","name:fa":"\u0633\u0627\u0626\u0648 \u0644\u0648\u0626\u06cc\u0633","kind_detail":"city","name:sh":"Sao Luis","id":155590820,"source":"openstreetmap.org","name:zh":"\u5723\u8def\u6613\u65af","name:lv":"Sanluisa","name:ja":"\u30b5\u30f3\u30fb\u30eb\u30a4\u30b9","name:lt":"San Luisas","name:uz":"San-Luis","name:he":"\u05e1\u05d0\u05d5 \u05dc\u05d5\u05d0\u05d9\u05e1","kind":"locality","name:uk":"\u0421\u0430\u043d-\u041b\u0443\u0457\u0441","name:hy":"\u054d\u0561\u0576 \u053c\u0578\u0582\u056b\u057d","name:be":"\u0421\u0430\u043d-\u041b\u0443\u0456\u0441","name:bg":"\u0421\u0430\u043e \u041b\u0443\u0438\u0441","name:sr":"\u0421\u0430\u043e \u041b\u0443\u0438\u0441","population":1053919,"name:eo":"San-Luiso","name":"S\u00e3o Lu\u00eds","region_capital":true,"name:gl":"San Lu\u00eds","name:es":"San Luis"},"coordinates":[2058,815]},{"type":"Point","properties":{"kind":"locality","name":"S\u00e3o Jos\u00e9 de Ribamar","name:lt":"San \u017doze de Ribamaras","kind_detail":"city","name:kk":"\u0421\u0430\u043d-\u0416\u043e\u0437\u0435-\u0434\u0438-\u0420\u0438\u0431\u0430\u043c\u0430\u0440","source":"openstreetmap.org","min_zoom":8.0,"name:ru":"\u0421\u0430\u043d-\u0416\u043e\u0437\u0435-\u0434\u0438-\u0420\u0438\u0431\u0430\u043c\u0430\u0440","name:zh":"\u5723\u82e5\u6cfd-\u8fea\u91cc\u5df4\u9a6c\u5c14","id":415524245,"population":162925},"coordinates":[2750,730]},{"type":"Point","properties":{"source":"openstreetmap.org","kind":"locality","name":"Pa\u00e7o do Lumiar","kind_detail":"city","population":101452,"min_zoom":8.0,"id":415524244},"coordinates":[2603,846]},{"type":"Point","properties":{"source":"openstreetmap.org","kind":"locality","name":"S\u00e3o Bento","kind_detail":"town","population":38645,"min_zoom":8.0,"id":415524225},"coordinates":[486,325]},{"type":"Point","properties":{"source":"openstreetmap.org","kind":"locality","name":"Cururupu","kind_detail":"town","population":35009,"min_zoom":8.0,"id":415524253},"coordinates":[370,2877]},{"type":"Point","properties":{"source":"openstreetmap.org","kind":"locality","name":"Icatu","kind_detail":"town","population":25198,"min_zoom":8.0,"id":415524233},"coordinates":[2767,115]},{"type":"Point","properties":{"source":"openstreetmap.org","kind":"locality","name":"Raposa","kind_detail":"town","population":25042,"min_zoom":8.0,"id":415524174},"coordinates":[2565,1065]},{"type":"Point","properties":{"source":"openstreetmap.org","kind":"locality","name":"Alc\u00e2ntara","kind_detail":"town","population":21969,"min_zoom":8.0,"id":415524232},"coordinates":[1702,1186]},{"type":"Point","properties":{"source":"openstreetmap.org","kind":"locality","name":"Bequim\u00e3o","kind_detail":"town","population":21356,"min_zoom":8.0,"id":415524223},"coordinates":[616,1055]},{"type":"Point","properties":{"source":"openstreetmap.org","kind":"locality","name":"Palmeir\u00e2ndia","kind_detail":"town","population":18646,"min_zoom":8.0,"id":415524227},"coordinates":[296,478]},{"type":"Point","properties":{"source":"openstreetmap.org","kind":"locality","name":"Mirinzal","kind_detail":"town","population":14201,"min_zoom":8.0,"id":415524250},"coordinates":[630,2171]},{"type":"Point","properties":{"source":"openstreetmap.org","kind":"locality","name":"Guimar\u00e3es","kind_detail":"town","population":12741,"min_zoom":8.0,"id":415524234},"coordinates":[1159,1993]},{"type":"Point","properties":{"source":"openstreetmap.org","kind":"locality","name":"Peri Mirim","kind_detail":"town","population":12556,"min_zoom":8.0,"id":415524224},"coordinates":[421,684]},{"type":"Point","properties":{"source":"openstreetmap.org","kind":"locality","name":"Cedral","kind_detail":"town","population":10127,"min_zoom":8.0,"id":415524248},"coordinates":[1374,2364]}]},"transit":{"type":"GeometryCollection","geometries":[{"type":"LineString","properties":{"kind":"train","name":"Trem de Passageiros da Estrada de Ferro Caraj\u00e1s","sort_rank":275,"source":"openstreetmap.org","min_zoom":6.0,"operator":"Vale","id":-4845213,"osm_relation":true},"arcs":[2]}]},"pois":{"type":"GeometryCollection","geometries":[{"type":"Point","properties":{"kind":"nature_reserve","tier":2,"protect_class":"6","area":1874380000,"source":"openstreetmap.org","min_zoom":6.85,"operator":"Instituto Chico Mendes de Conserva\u00e7\u00e3o da Biodiversidade","id":-3424551,"osm_relation":true,"name":"Reserva Extrativista de Cururupu"},"coordinates":[573,3724]}]},"boundaries":{"type":"GeometryCollection","geometries":[{"type":"LineString","properties":{"name:kg":"Brazil","name:ty":"Brazil","name:ka":"\u10d1\u10e0\u10d0\u10d6\u10d8\u10da\u10d8\u10d0","name:ko":"\ube0c\ub77c\uc9c8","name:cv":"\u0411\u0440\u0430\u0437\u0438\u043b\u0438","name:cu":"\u0411\u0440\u0430\ua641\u0457\u043b\u0457\ua657","name:kl":"Brazil","name:cs":"Braz\u00edlie","name:ki":"Brazil","name:co":"Brasile","name:kv":"\u0411\u0440\u0430\u0437\u0438\u043b\u0438\u044f","name:ku":"Braz\u00eel","name:ce":"\u0411\u0440\u0430\u0437\u0438\u043b\u0438\u044f","name:ta":"\u0baa\u0bbf\u0bb0\u0bc7\u0b9a\u0bbf\u0bb2\u0bcd","name:tg":"\u0411\u0440\u0430\u0437\u0438\u043b\u0438\u044f","name:ky":"\u0411\u0440\u0430\u0437\u0438\u043b\u0438\u044f","name:te":"\u0c2c\u0c4d\u0c30\u0c46\u0c1c\u0c3f\u0c32\u0c4d","name:da":"Brasilien","name:de":"Brasilien","name:dz":"\u0f56\u0f71\u0f62\u0f71\u0f0b\u0f5b\u0f72\u0f63\u0f0b","source":"openstreetmap.org","name:kn":"\u0cac\u0ccd\u0cb0\u0cc6\u0c9c\u0cbf\u0cb2\u0ccd","name:dv":"\u0784\u07aa\u0783\u07ac\u0792\u07a8\u078d\u07b0","name:km":"\u1794\u17d2\u179a\u17c1\u179f\u17ca\u17b8\u179b","name:lv":"Braz\u012blija","name:lt":"Brazilija","name:uz":"Braziliya","name:kk":"\u0411\u0440\u0430\u0437\u0438\u043b\u0438\u044f","name:ur":"\u0628\u0631\u0627\u0632\u06cc\u0644","name:lb":"Brasilien","name:la":"Brasilia","name:tt":"\u0411\u0440\u0430\u0437\u0438\u043b\u0438\u044f","name:uk":"\u0411\u0440\u0430\u0437\u0438\u043b\u0456\u044f","name:ug":"\u0628\u0631\u0627\u0632\u0649\u0644\u0649\u064a\u06d5","name:li":"Braziel","name:ln":"Brazil","name:el":"\u0392\u03c1\u03b1\u03b6\u03b9\u03bb\u03af\u03b1","name:eo":"Brazilo","name:en":"Brazil","name":"Brasil","name:tk":"Brazili\u00fda","name:ee":"Brazil","name:th":"\u0e1b\u0e23\u0e30\u0e40\u0e17\u0e28\u0e1a\u0e23\u0e32\u0e0b\u0e34\u0e25","name:et":"Brasiilia","name:ay":"Wrasil","name:rm":"Brasilia","name:rn":"Brazil","name:az":"Braziliya","name:ig":"Brazil","name:as":"\u09ac\u09cd\u09f0\u09be\u099c\u09bf\u09b2","name:zh-min-nan":"Pa-se","name:io":"Brazilia","name:is":"Brasil\u00eda","name:am":"\u1265\u122b\u12da\u120d","name:it":"Brasile","name:ru":"\u0411\u0440\u0430\u0437\u0438\u043b\u0438\u044f","name:rw":"Burezile","name:af":"Brasili\u00eb","name:zu":"IBrazili","kind_detail":"2","name:za":"Bahsih","name:zh-yue":"\u5df4\u897f","name:zh":"\u5df4\u897f","name:so":"Barasiil","name:sl":"Brazilija","name:sk":"Braz\u00edlia","name:ja":"\u30d6\u30e9\u30b8\u30eb","name:sh":"Brazil","name:se":"Brasilia","name:sc":"Brasile","name:br":"Brazil","name:bs":"Brazil","name:bm":"Brazil","name:bn":"\u09ac\u09cd\u09b0\u09be\u099c\u09bf\u09b2","name:bo":"\u0f54\u0f74\u0f0b\u0f62\u0f74\u0f0b\u0f5f\u0f72\u0f63\u0f0d","name:bi":"Brazil","name:sw":"Brazil","name:be":"\u0411\u0440\u0430\u0437\u0456\u043b\u0456\u044f","name:bg":"\u0411\u0440\u0430\u0437\u0438\u043b\u0438\u044f","name:ba":"\u0411\u0440\u0430\u0437\u0438\u043b\u0438\u044f","name:sq":"Brazili","name:sa":"\u092c\u094d\u0930\u093e\u0938\u0940\u0932","name:ps":"\u0628\u0631\u0627\u0632\u06cc\u0644","min_zoom":8.0,"name:ro":"Brazilia","name:pa":"\u0a2c\u0a4d\u0a30\u0a3e\u0a1c\u0a3c\u0a40\u0a32","name:os":"\u0411\u0440\u0430\u0437\u0438\u043b\u0438","name:or":"\u0b2c\u0b4d\u0b30\u0b3e\u0b1c\u0b3f\u0b32","name:pl":"Brazylia","name:st":"Brazil","sort_rank":262,"name:sr":"\u0411\u0440\u0430\u0437\u0438\u043b","osm_relation":true,"name:ar":"\u0627\u0644\u0628\u0631\u0627\u0632\u064a\u0644","name:tr":"Brezilya","name:hi":"\u092c\u094d\u0930\u093e\u091c\u093c\u0940\u0932","name:sv":"Brasilien","name:he":"\u05d1\u05e8\u05d6\u05d9\u05dc","name:hy":"\u0532\u0580\u0561\u0566\u056b\u056c\u056b\u0561","name:ht":"Brezil","name:hu":"Braz\u00edlia","name:hr":"Brazil","kind":"country","name:yi":"\u05d1\u05e8\u05d0\u05d6\u05d9\u05dc","name:mt":"Bra\u017cil","name:ms":"Brazil","name:mr":"\u092c\u094d\u0930\u093e\u091d\u0940\u0932","name:my":"\u1018\u101b\u102c\u1007\u102e\u1038\u1014\u102d\u102f\u1004\u103a\u1004\u1036","official_name":"Rep\u00fablica Federativa do Brasil","name:mg":"Brazila","name:ml":"\u0d2c\u0d4d\u0d30\u0d38\u0d40\u0d7d","name:mn":"\u0411\u0440\u0430\u0437\u0438\u043b","name:mi":"Par\u012bhi","id":-59470,"name:mk":"\u0411\u0440\u0430\u0437\u0438\u043b","name:vo":"Brasil\u00e4n","name:fa":"\u0628\u0631\u0632\u06cc\u0644","name:fi":"Brasilia","old_name:vi":"Ba T\u00e2y","alt_name:vi":"Brazil;Bra-xin","name:fr":"Br\u00e9sil","name:fy":"Brazylje","name:nl":"Brazili\u00eb","name:na":"Bradir","name:ne":"\u092c\u094d\u0930\u093e\u091c\u093f\u0932","name:wa":"Braezi","name:wo":"Breesil","name:nv":"Bwaz\u00ed\u00edl","name:ga":"An Bhrasa\u00edl","name:gd":"Braisil","name:gn":"Pindorama","maritime_boundary":true,"name:gv":"Yn Vrasseel","name:gu":"\u0aac\u0acd\u0ab0\u0abe\u0a9d\u0abf\u0ab2"},"arcs":[0]},{"type":"LineString","properties":{"name:ka":"\u10db\u10d0\u10e0\u10d0\u10dc\u10d8\u10d0\u10dc\u10d8","name:mr":"\u092e\u0930\u093e\u0928\u094d\u092f\u093e\u0935","name:ko":"\ub9c8\ub77c\ub0e5","name:ar":"\u0645\u0627\u0631\u0627\u0646\u0647\u0627\u0648","name:kk":"\u041c\u0430\u0440\u0430\u043d\u044c\u044f\u043d","name:th":"\u0e21\u0e32\u0e23\u0e31\u0e19\u0e40\u0e22\u0e32","name:os":"\u041c\u0430\u0440\u0430\u043d\u044c\u044f\u043d","name:ru":"\u041c\u0430\u0440\u0430\u043d\u044c\u044f\u043d","name:uz":"Maranyan","name:tg":"\u041c\u0430\u0440\u0430\u043d\u044f\u043d","name:mk":"\u041c\u0430\u0440\u0430\u045a\u0430\u043e","name:fa":"\u0645\u0627\u0631\u0627\u0646\u06cc\u0627\u0626\u0648","short_name":"MA","sort_rank":256,"kind_detail":"4","name:hi":"\u092e\u0930\u093e\u0928\u094d\u0939\u093e\u0913","id":-332924,"source":"openstreetmap.org","name:zh":"\u9a6c\u62c9\u5c3c\u6602","name:lv":"Mara\u0146auna","name:ja":"\u30de\u30e9\u30cb\u30e7\u30f3","name:lt":"Maranjanas","name:sh":"Maranjao","name:he":"\u05de\u05e8\u05e0\u05d9\u05d0\u05d5","name:eo":"Maranjo","name:la":"Maragnanum","name:uk":"\u041c\u0430\u0440\u0430\u043d\u044c\u044f\u043d","name:hy":"\u0544\u0561\u0580\u0561\u0576\u0575\u0561\u0576","name:be":"\u041c\u0430\u0440\u0430\u043d\u044c\u044f\u043d","name:bg":"\u041c\u0430\u0440\u0430\u043d\u044f\u043e","name:sr":"\u041c\u0430\u0440\u0430\u045a\u0430\u043eps a","osm_relation":true,"kind":"region","name":"Maranh\u00e3o","min_zoom":8.0,"name:gl":"Mara\u00f1\u00f3n","maritime_boundary":true},"arcs":[1]}]},"roads":{"type":"GeometryCollection","geometries":[{"type":"MultiLineString","properties":{"sort_rank":380,"kind_detail":"primary","min_zoom":8.0,"kind":"major_road","source":"openstreetmap.org"},"arcs":[[19],[20],[21],[22],[23],[24],[25],[26],[27],[28],[29],[30],[31],[32],[33],[34],[35],[36],[37],[38],[39],[40],[41],[42],[43],[44],[45],[46],[47],[48],[49],[50],[51],[52],[53],[54],[55],[56],[57],[58],[59],[60],[61],[62],[63],[64],[65],[66],[67],[68],[69],[70],[71],[72],[73],[74],[75],[76],[77],[78],[79],[80],[81],[82],[83],[84],[85],[86],[87],[88],[89],[90],[91],[92],[93],[94],[95],[96],[97],[98],[99],[100],[101],[102],[103],[104],[105],[106],[107],[108],[109]]},{"type":"LineString","properties":{"source":"openstreetmap.org","kind":"major_road","sort_rank":381,"kind_detail":"trunk","ref":"BR-135","min_zoom":8.0},"arcs":[110]},{"type":"LineString","properties":{"kind":"major_road","network":"BR:MA","sort_rank":380,"kind_detail":"primary","source":"openstreetmap.org","min_zoom":8.0,"shield_text":"201","ref":"MA-201"},"arcs":[111]},{"type":"LineString","properties":{"kind":"major_road","network":"BR","sort_rank":380,"kind_detail":"primary","source":"openstreetmap.org","min_zoom":8.0,"shield_text":"308","ref":"BR-308"},"arcs":[112]},{"type":"MultiLineString","properties":{"source":"openstreetmap.org","kind":"major_road","landuse_kind":"urban_area","sort_rank":380,"kind_detail":"primary","ref":"BR-135","min_zoom":8.0},"arcs":[[113],[114],[115],[116],[117],[118],[119],[120],[121]]},{"type":"MultiLineString","properties":{"source":"openstreetmap.org","kind":"major_road","network":"BR","sort_rank":380,"kind_detail":"primary","min_zoom":8.0,"shield_text":"308"},"arcs":[[122],[123]]},{"type":"LineString","properties":{"kind":"major_road","network":"BR","sort_rank":380,"kind_detail":"primary","source":"openstreetmap.org","min_zoom":8.0,"landuse_kind":"nature_reserve","shield_text":"308","id":31484976},"arcs":[124]},{"type":"MultiLineString","properties":{"kind":"major_road","network":"BR","sort_rank":380,"kind_detail":"primary","source":"openstreetmap.org","min_zoom":8.0,"shield_text":"308","ref":"MA-211"},"arcs":[[125],[126],[127],[128]]},{"type":"LineString","properties":{"source":"openstreetmap.org","kind":"ferry","name":"FerryBoat: Ponta da Espera - Cujupe","sort_rank":355,"landuse_kind":"urban_area","min_zoom":8.0,"id":507577791},"arcs":[129]},{"type":"MultiLineString","properties":{"source":"openstreetmap.org","kind":"major_road","landuse_kind":"urban_area","sort_rank":380,"kind_detail":"primary","min_zoom":8.0},"arcs":[[130],[131],[132],[133],[134],[135],[136],[137],[138],[139],[140],[141],[142],[143],[144],[145],[146],[147],[148],[149],[150],[151],[152],[153],[154],[155],[156],[157],[158],[159],[160],[161],[162],[163],[164],[165],[166],[167],[168],[169],[170],[171],[172],[173],[174],[175],[176],[177],[178],[179],[180],[181],[182],[183],[184],[185],[186],[187],[188],[189],[190],[191],[192],[193],[194],[195],[196],[197],[198],[199],[200],[201],[202],[203],[204],[205],[206],[207],[208],[209],[210],[211],[212],[213],[214],[215],[216],[217],[218],[219],[220],[221],[222],[223],[224],[225],[226],[227],[228],[229],[230],[231],[232],[233],[234],[235],[236],[237],[238],[239],[240],[241],[242],[243],[244],[245],[246],[247],[248],[249],[250],[251],[252],[253],[254],[255],[256],[257],[258],[259],[260],[261],[262],[263],[264],[265],[266],[267],[268],[269],[270],[271],[272],[273],[274],[275],[276],[277],[278],[279],[280],[281],[282],[283],[284],[285],[286],[287],[288],[289],[290],[291],[292],[293],[294],[295],[296],[297],[298],[299],[300],[301],[302],[303],[304],[305],[306],[307],[308],[309],[310],[311],[312],[313],[314],[315],[316],[317],[318],[319],[320],[321],[322],[323],[324],[325],[326],[327],[328],[329],[330],[331],[332],[333],[334],[335],[336],[337],[338],[339],[340],[341],[342],[343],[344],[345],[346],[347],[348],[349],[350],[351],[352],[353],[354],[355],[356],[357],[358],[359],[360],[361],[362],[363],[364],[365],[366],[367],[368],[369],[370],[371],[372],[373],[374],[375],[376],[377],[378],[379],[380],[381],[382],[383],[384],[385],[386],[387],[388],[389],[390],[391],[392]]},{"type":"MultiLineString","properties":{"source":"openstreetmap.org","kind":"major_road","kind_detail":"trunk","sort_rank":381,"landuse_kind":"urban_area","min_zoom":8.0},"arcs":[[393],[394]]},{"type":"LineString","properties":{"kind":"major_road","network":"BR","sort_rank":380,"kind_detail":"primary","source":"openstreetmap.org","min_zoom":8.0,"shield_text":"402","ref":"BR-402"},"arcs":[395]},{"type":"MultiLineString","properties":{"source":"openstreetmap.org","kind":"major_road","sort_rank":380,"kind_detail":"primary","ref":"MA-304","min_zoom":8.0},"arcs":[[396],[397]]},{"type":"MultiLineString","properties":{"source":"openstreetmap.org","kind":"major_road","sort_rank":380,"kind_detail":"primary","ref":"MA-204","min_zoom":8.0},"arcs":[[398],[399],[400]]},{"type":"LineString","properties":{"kind":"major_road","network":"BR","sort_rank":380,"kind_detail":"primary","source":"openstreetmap.org","min_zoom":8.0,"shield_text":"308","ref":"MA-006","id":31484821},"arcs":[401]},{"type":"LineString","properties":{"source":"openstreetmap.org","kind":"major_road","sort_rank":380,"kind_detail":"primary","ref":"MA-014","min_zoom":8.0},"arcs":[402]},{"type":"LineString","properties":{"kind":"major_road","sort_rank":380,"landuse_kind":"nature_reserve","source":"openstreetmap.org","min_zoom":8.0,"kind_detail":"primary","ref":"MA-304","id":31484982},"arcs":[403]},{"type":"MultiLineString","properties":{"source":"openstreetmap.org","kind":"major_road","sort_rank":380,"kind_detail":"primary","ref":"MA-106","min_zoom":8.0},"arcs":[[404],[405],[406],[407],[408]]},{"type":"LineString","properties":{"source":"openstreetmap.org","kind":"major_road","sort_rank":380,"kind_detail":"primary","ref":"MA-006","min_zoom":8.0,"id":31546119},"arcs":[409]},{"type":"LineString","properties":{"source":"openstreetmap.org","kind":"major_road","old_name":"Avenida Jo\u00e3o Pessoa","sort_rank":380,"kind_detail":"primary","landuse_kind":"urban_area","min_zoom":8.0},"arcs":[410]},{"type":"MultiLineString","properties":{"kind":"major_road","network":"BR","sort_rank":381,"kind_detail":"trunk","source":"openstreetmap.org","min_zoom":8.0,"shield_text":"135","ref":"BR-135"},"arcs":[[411],[412],[413],[414],[415],[416]]},{"type":"LineString","properties":{"source":"openstreetmap.org","kind":"major_road","sort_rank":380,"kind_detail":"primary","ref":"BR-135","min_zoom":8.0,"id":534991308},"arcs":[417]},{"type":"MultiLineString","properties":{"source":"openstreetmap.org","kind":"major_road","sort_rank":380,"kind_detail":"primary","ref":"MA-203","min_zoom":8.0},"arcs":[[418],[419],[420],[421]]},{"type":"LineString","properties":{"kind":"major_road","network":"BR","sort_rank":380,"kind_detail":"primary","source":"openstreetmap.org","min_zoom":8.0,"landuse_kind":"urban_area","shield_text":"135"},"arcs":[422]},{"type":"MultiLineString","properties":{"kind":"major_road","network":"BR","sort_rank":381,"landuse_kind":"urban_area","source":"openstreetmap.org","min_zoom":8.0,"kind_detail":"trunk","shield_text":"135","ref":"BR-135"},"arcs":[[423],[424]]},{"type":"MultiLineString","properties":{"kind":"major_road","network":"BR:MA","sort_rank":380,"kind_detail":"primary","source":"openstreetmap.org","min_zoom":8.0,"landuse_kind":"urban_area","shield_text":"201","ref":"MA-201"},"arcs":[[425],[426],[427],[428],[429],[430],[431]]},{"type":"LineString","properties":{"source":"openstreetmap.org","kind":"major_road","sort_rank":380,"kind_detail":"primary","ref":"MA-305","min_zoom":8.0},"arcs":[432]},{"type":"LineString","properties":{"source":"openstreetmap.org","kind":"ferry","name":"FerryBoat: Ponta da Espera - Cujupe","sort_rank":355,"min_zoom":8.0,"id":507577791},"arcs":[433]},{"type":"MultiLineString","properties":{"source":"openstreetmap.org","kind":"major_road","landuse_kind":"urban_area","sort_rank":380,"kind_detail":"primary","ref":"MA-205","min_zoom":8.0},"arcs":[[434],[435]]}]},"earth":{"type":"GeometryCollection","geometries":[{"type":"MultiPolygon","properties":{"sort_rank":10,"source":"naturalearthdata.com","min_zoom":0.0,"kind":"earth","area":14169109745},"arcs":[[[436]],[[437]],[[438]],[[439]],[[440]],[[441]],[[442]],[[443]],[[444]],[[445]],[[446]],[[447]]]}]},"landuse":{"type":"GeometryCollection","geometries":[{"type":"Polygon","properties":{"kind":"nature_reserve","protect_class":"6","area":94130200,"sort_rank":23,"operator":"Instituto Chico Mendes de Conserva\u00e7\u00e3o da Biodiversidade","source":"openstreetmap.org","min_zoom":8.0,"tier":2,"id":255739511},"arcs":[[448]]},{"type":"Polygon","properties":{"source":"openstreetmap.org","kind":"nature_reserve","area":14465200,"tier":2,"id":84198675,"min_zoom":8.0,"sort_rank":23},"arcs":[[449]]},{"type":"MultiPolygon","properties":{"source":"naturalearthdata.com","kind":"urban_area","name":"","area":196331401,"sort_rank":11,"min_zoom":4.0},"arcs":[[[450]],[[451]]]},{"type":"Polygon","properties":{"kind":"nature_reserve","protect_class":"6","area":1874380032,"sort_rank":23,"operator":"Instituto Chico Mendes de Conserva\u00e7\u00e3o da Biodiversidade","source":"openstreetmap.org","min_zoom":4.0,"tier":2,"id":-3424551,"osm_relation":true},"arcs":[[452]]}]}},"type":"Topology","transform":{"translate":[-45.0,-2.8113711933],"scale":[0.0003433228,0.0003430816]},"arcs":[[[4096,2591],[-2204,1505]],[[4096,2591],[-2204,1505]],[[1946,711],[112,-293],[-36,-78],[-91,-106],[-47,-15],[-60,-103],[-4,-116]],[[4096,856],[-11,4],[-58,-26],[-13,58],[-40,21],[-49,-10],[-39,-30],[25,52],[15,25],[22,24],[-70,-18],[-40,-62],[4,-73],[66,-48],[-54,2],[-23,6],[-24,12],[-14,-28],[-4,-14],[0,-19],[-22,0],[0,21],[-20,0],[0,-21],[-22,0],[0,21],[37,39],[5,75],[-17,74],[-34,33],[-46,-28],[4,-89],[-23,-35],[-18,16],[-42,-7],[-43,-18],[-67,-49],[-32,-7],[-16,2],[-18,0],[-19,-12],[-13,-3],[-23,-1],[-20,-8],[-76,-35],[-16,-36],[8,-44],[14,-37],[9,-33],[-11,-36],[-40,101],[-80,148],[-12,8],[-27,-26],[-40,-53],[-35,-78],[2,-34],[33,-26],[0,-21],[-86,53],[-13,-4],[-11,-11],[-88,-56],[-25,-41],[-37,-81],[-49,-74],[-23,-46],[-10,-50],[3,-123],[-16,-53],[-43,-34],[32,51],[10,30],[-4,40],[-8,-10],[-4,-9],[-8,-20],[-5,19],[-3,9],[0,8],[8,22],[-18,19],[-17,-19],[-11,-8],[-35,-11],[0,19],[19,30],[-23,-3],[-35,-24],[-19,-32],[-6,-50],[-18,-51],[-12,-23],[-116,0],[6,13],[-40,84],[5,56],[-92,-26],[-23,-27],[18,-47],[-76,56],[-27,25],[-18,-21],[-12,-23],[-6,-28],[-2,-39],[-8,-11],[-18,1],[-20,4],[-14,-4],[-3,-13],[-49,0],[4,3],[26,50],[-46,42],[-30,-18],[-17,-56],[-1,-21],[-54,0],[-3,3],[29,74],[74,66],[80,29],[16,12],[83,79],[34,19],[81,20],[35,31],[-19,14],[-11,17],[-10,51],[47,-47],[19,-11],[33,-4],[37,9],[47,21],[40,29],[76,140],[13,57],[-52,23],[20,21],[22,8],[20,3],[18,10],[41,58],[51,26],[47,-5],[35,60],[13,56],[-4,58],[-22,67],[-22,0],[-15,-47],[-3,-23],[-2,-31],[-11,29],[-2,68],[-9,25],[-17,7],[-80,12],[14,38],[61,16],[73,-2],[50,-12],[-16,81],[-54,44],[-58,1],[-29,-49],[-83,2],[-316,-159],[-172,-15],[-40,-16],[-23,-40],[-1,-40],[3,-37],[-8,-33],[31,-21],[11,-34],[-2,-84],[-38,94],[-30,47],[-41,19],[-55,-2],[-21,-9],[-15,-22],[-30,-38],[49,-330],[-20,0],[2,29],[-4,24],[-7,23],[-10,24],[-19,-114],[-103,-324],[19,-9],[8,-10],[5,-11],[10,-12],[-36,-34],[-3,-19],[-225,0],[5,53],[-47,-53],[-39,0],[8,7],[29,6],[40,133],[9,166],[-133,-68],[-62,-48],[-83,-163],[-9,-33],[-195,0],[-4,70],[4,56],[21,68],[36,76],[5,35],[-19,28],[70,80],[149,300],[10,13],[23,34],[14,36],[-17,17],[-45,-8],[-17,-21],[-11,-29],[-26,-33],[-55,-30],[-133,-56],[-43,-44],[10,44],[55,39],[70,28],[55,10],[18,13],[34,87],[33,33],[25,3],[27,-4],[34,9],[40,53],[32,88],[28,147],[-18,87],[-47,8],[-136,-86],[21,34],[34,40],[38,33],[50,21],[16,11],[14,5],[6,-12],[4,-6],[10,-9],[11,-8],[7,-4],[20,-8],[31,-39],[18,-16],[60,-16],[66,2],[103,14],[38,21],[26,51],[29,127],[3,68],[-6,31],[-13,21],[-37,44],[-8,6],[-3,109],[-13,57],[-26,62],[-82,102],[-101,51],[-104,-9],[-93,-83],[-12,-14],[-19,-13],[-8,-12],[-7,-42],[7,2],[-33,-38],[-24,-15],[-32,-7],[-34,-18],[-136,-121],[-35,-56],[-18,-52],[-7,-56],[-1,-68],[7,-22],[12,-22],[6,-24],[-30,-58],[-6,-38],[2,-37],[9,-27],[-32,26],[-3,48],[15,116],[-13,22],[-30,-10],[-79,-63],[-17,-19],[-12,-25],[-8,-35],[-20,20],[17,27],[12,71],[20,30],[35,29],[11,14],[24,66],[17,25],[20,20],[16,26],[7,40],[-18,34],[-40,-8],[-40,-34],[-22,-42],[-21,0],[-29,100],[-121,-27],[-131,-49],[-57,36],[66,-19],[48,31],[44,45],[53,22],[53,-4],[115,-35],[-11,44],[-10,18],[-20,20],[92,-7],[61,25],[111,121],[67,45],[16,26],[-27,28],[-16,-4],[-38,-7],[-46,-1],[-38,12],[18,20],[91,-14],[85,91],[72,103],[54,21],[102,74],[18,25],[-6,30],[-24,11],[-50,-1],[-56,9],[-59,-1],[-57,-15],[-50,-33],[-14,14],[-12,4],[-13,0],[-17,2],[85,24],[39,20],[33,36],[41,-13],[60,-5],[55,7],[25,20],[6,14],[13,11],[13,13],[6,23],[-6,28],[-26,48],[-6,24],[-4,46],[-12,51],[-19,45],[-25,28],[-43,9],[-101,-25],[-57,-4],[36,44],[119,64],[46,51],[-12,22],[-13,18],[-16,12],[-20,10],[-11,-34],[-21,-20],[-25,-18],[-23,-30],[-18,20],[21,28],[14,40],[-2,36],[-24,16],[-34,-14],[-13,-32],[-7,-34],[-18,-20],[-14,7],[-12,22],[-16,22],[-25,11],[-34,-6],[-48,-26],[-30,-8],[0,18],[43,7],[12,27],[-1,40],[5,45],[18,50],[23,36],[32,28],[47,26],[-159,79],[-6,-94],[-23,-104],[-49,-75],[-83,-5],[-28,28],[-16,35],[-22,16],[-41,-30],[-36,-16],[-111,-17],[-45,-16],[0,21],[174,95],[88,69],[37,93],[-50,-17],[-50,12],[-97,45],[22,-67],[-18,-40],[-124,-72],[-15,18],[-4,8],[-2,14],[38,11],[9,-2],[14,-9],[23,26],[25,14],[39,40],[-13,10],[-52,31],[-22,18],[51,57],[9,5],[-16,28],[-54,40],[-12,21],[16,36],[27,28],[11,34],[-32,51],[-2,-24],[-20,-55],[2,54],[-12,53],[-26,45],[-41,29],[-3,-20],[-6,-13],[-7,-12],[-6,-15],[22,0],[-25,-41],[-15,-45],[9,-38],[51,-17],[-51,-18],[-40,32],[-35,50],[-35,35],[-44,-26],[-10,-21],[2,-22],[-25,-84],[-19,-12],[-45,6],[54,24],[-19,52],[-51,54],[-42,29],[28,11],[52,-12],[41,1],[-22,60],[0,51],[19,44],[47,58],[16,46],[18,22],[28,18],[55,26],[16,16],[5,23],[-5,87],[-9,27],[-20,29],[-20,17],[-9,-12],[-20,-46],[-49,-44],[-60,-36],[-53,-24],[0,-21],[21,0],[0,-20],[-60,-6],[-20,-26],[1,-88],[-17,-50],[-23,-45],[-13,-43],[13,-43],[-83,35],[-12,0],[0,47],[44,14],[51,26],[0,18],[-38,29],[-43,2],[-14,2],[0,33],[6,-2],[4,45],[-10,18],[0,281],[4096,0],[0,-2807],[-41,-12],[-11,-34],[13,-35],[16,-43],[23,-5],[0,-304]],[[3680,1213],[-19,-22],[2,-26],[28,-24],[23,-6],[36,-13],[14,4],[10,28],[9,12],[24,7],[18,23],[33,2],[57,0],[48,-12],[13,13],[-3,21],[-15,29],[25,19],[5,49],[3,77],[10,49],[49,43],[28,52],[-12,52],[-9,28],[-59,12],[-33,-3],[-51,-13],[-37,-3],[-45,-14],[-50,-33],[-40,-42],[-35,-84],[-27,-47],[7,-59],[11,-59],[-18,-60]],[[3457,1172],[-30,5],[-49,-23],[-4,-3],[-21,-22],[25,-24],[19,-29],[2,-35],[-14,-27],[-19,-49],[5,-36],[0,-3],[13,-40],[36,-19],[49,3],[80,22],[32,27],[11,58],[16,44],[13,39],[-22,55],[-31,0],[-43,-32],[-3,-6],[-29,-38],[-7,-5],[-30,6],[0,1],[4,55],[11,42],[-14,34]],[[0,3815],[10,-18],[-4,-45],[-6,2]],[[0,3721],[14,-2],[43,-2],[38,-29],[0,-18],[-51,-26],[-44,-14]],[[0,3583],[12,0],[83,-35],[-13,43],[13,43],[23,45],[17,50],[-1,88],[20,26],[60,6],[0,20],[-21,0],[0,21],[53,24],[60,36],[49,44],[20,46],[9,12],[20,-17],[20,-29],[9,-27],[5,-87],[-5,-23],[-16,-16],[-55,-26],[-28,-18],[-18,-22],[-16,-46],[-47,-58],[-19,-44],[0,-51],[22,-60],[-41,-1],[-52,12],[-28,-11],[42,-29],[51,-54],[19,-52],[-54,-24],[45,-6],[19,12],[25,84],[-2,22],[10,21],[44,26],[35,-35],[35,-50],[40,-32],[51,18],[-51,17],[-9,38],[15,45],[25,41],[-22,0],[6,15],[7,12],[6,13],[3,20],[41,-29],[26,-45],[12,-53],[-2,-54],[20,55],[2,24],[32,-51],[-11,-34],[-27,-28],[-16,-36],[12,-21],[54,-40],[16,-28],[-9,-5],[-51,-57],[22,-18],[52,-31],[13,-10],[-39,-40],[-25,-14],[-23,-26],[-14,9],[-9,2],[-38,-11],[2,-14],[4,-8],[15,-18],[124,72],[18,40],[-22,67],[97,-45],[50,-12],[50,17],[-37,-93],[-88,-69],[-174,-95],[0,-21],[45,16],[111,17],[36,16],[41,30],[22,-16],[16,-35],[28,-28],[83,5],[49,75],[23,104],[6,94],[159,-79],[-47,-26],[-32,-28],[-23,-36],[-18,-50],[-5,-45],[1,-40],[-12,-27],[-43,-7],[0,-18],[30,8],[48,26],[34,6],[25,-11],[16,-22],[12,-22],[14,-7],[18,20],[7,34],[13,32],[34,14],[24,-16],[2,-36],[-14,-40],[-21,-28],[18,-20],[23,30],[25,18],[21,20],[11,34],[20,-10],[16,-12],[13,-18],[12,-22],[-46,-51],[-119,-64],[-36,-44],[57,4],[101,25],[43,-9],[25,-28],[19,-45],[12,-51],[4,-46],[6,-24],[26,-48],[6,-28],[-6,-23],[-13,-13],[-13,-11],[-6,-14],[-25,-20],[-55,-7],[-60,5],[-41,13],[-33,-36],[-39,-20],[-85,-24],[17,-2],[13,0],[12,-4],[14,-14],[50,33],[57,15],[59,1],[56,-9],[50,1],[24,-11],[6,-30],[-18,-25],[-102,-74],[-54,-21],[-72,-103],[-85,-91],[-91,14],[-18,-20],[38,-12],[46,1],[38,7],[16,4],[27,-28],[-16,-26],[-67,-45],[-111,-121],[-61,-25],[-92,7],[20,-20],[10,-18],[11,-44],[-115,35],[-53,4],[-53,-22],[-44,-45],[-48,-31],[-66,19],[57,-36],[131,49],[121,27],[29,-100],[21,0],[22,42],[40,34],[40,8],[18,-34],[-7,-40],[-16,-26],[-20,-20],[-17,-25],[-24,-66],[-11,-14],[-35,-29],[-20,-30],[-12,-71],[-17,-27],[20,-20],[8,35],[12,25],[17,19],[79,63],[30,10],[13,-22],[-15,-116],[3,-48],[32,-26],[-9,27],[-2,37],[6,38],[30,58],[-6,24],[-12,22],[-7,22],[1,68],[7,56],[18,52],[35,56],[136,121],[34,18],[32,7],[24,15],[33,38],[-7,-2],[7,42],[8,12],[19,13],[12,14],[93,83],[104,9],[101,-51],[82,-102],[26,-62],[13,-57],[3,-109],[8,-6],[37,-44],[13,-21],[6,-31],[-3,-68],[-29,-127],[-26,-51],[-38,-21],[-103,-14],[-66,-2],[-60,16],[-18,16],[-31,39],[-20,8],[-7,4],[-11,8],[-10,9],[-4,6],[-6,12],[-14,-5],[-16,-11],[-50,-21],[-38,-33],[-34,-40],[-21,-34],[136,86],[47,-8],[18,-87],[-28,-147],[-32,-88],[-40,-53],[-34,-9],[-27,4],[-25,-3],[-33,-33],[-34,-87],[-18,-13],[-55,-10],[-70,-28],[-55,-39],[-10,-44],[43,44],[133,56],[55,30],[26,33],[11,29],[17,21],[45,8],[17,-17],[-14,-36],[-23,-34],[-10,-13],[-149,-300],[-70,-80],[19,-28],[-5,-35],[-36,-76],[-21,-68],[-4,-56],[4,-70]],[[1732,0],[3,19],[36,34],[-10,12],[-5,11],[-8,10],[-19,9],[103,324],[19,114],[10,-24],[7,-23],[4,-24],[-2,-29],[20,0],[-49,330],[30,38],[15,22],[21,9],[55,2],[41,-19],[30,-47],[38,-94],[2,84],[-11,34],[-31,21],[8,33],[-3,37],[1,40],[23,40],[40,16],[172,15],[316,159],[83,-2],[29,49],[58,-1],[54,-44],[16,-81],[-50,12],[-73,2],[-61,-16],[-14,-38],[80,-12],[17,-7],[9,-25],[2,-68],[11,-29],[2,31],[3,23],[15,47],[22,0],[22,-67],[4,-58],[-13,-56],[-35,-60],[-47,5],[-51,-26],[-41,-58],[-18,-10],[-20,-3],[-22,-8],[-20,-21],[52,-23],[-13,-57],[-76,-140],[-40,-29],[-47,-21],[-37,-9],[-33,4],[-19,11],[-47,47],[10,-51],[11,-17],[19,-14],[-35,-31],[-81,-20],[-34,-19],[-83,-79],[-16,-12],[-80,-29],[-74,-66],[-29,-74],[3,-3]],[[1955,0],[1,21],[17,56],[30,18],[46,-42],[-26,-50],[-4,-3]],[[2068,0],[3,13],[14,4],[20,-4],[18,-1],[8,11],[2,39],[6,28],[12,23],[18,21],[27,-25],[76,-56],[-18,47],[23,27],[92,26],[-5,-56],[40,-84],[-6,-13]],[[2514,0],[12,23],[18,51],[6,50],[19,32],[35,24],[23,3],[-19,-30],[0,-19],[35,11],[11,8],[17,19],[18,-19],[-8,-22],[0,-8],[3,-9],[5,-19],[8,20],[4,9],[8,10],[4,-40],[-10,-30],[-32,-51],[43,34],[16,53],[-3,123],[10,50],[23,46],[49,74],[37,81],[25,41],[88,56],[11,11],[13,4],[86,-53],[0,21],[-33,26],[-2,34],[35,78],[40,53],[27,26],[12,-8],[80,-148],[40,-101],[11,36],[-9,33],[-14,37],[-8,44],[16,36],[76,35],[20,8],[23,1],[13,3],[19,12],[18,0],[16,-2],[32,7],[67,49],[43,18],[42,7],[18,-16],[23,35],[-4,89],[46,28],[34,-33],[17,-74],[-5,-75],[-37,-39],[0,-21],[22,0],[0,21],[20,0],[0,-21],[22,0],[0,19],[4,14],[14,28],[24,-12],[23,-6],[54,-2],[-66,48],[-4,73],[40,62],[70,18],[-22,-24],[-15,-25],[-25,-52],[39,30],[49,10],[40,-21],[13,-58],[58,26],[11,-4]],[[3998,1630],[-33,-3],[-51,-13],[-37,-3],[-45,-14],[-50,-33],[-40,-42],[-35,-84],[-27,-47],[7,-59],[11,-59],[-18,-60],[-19,-22],[2,-26],[28,-24],[23,-6],[36,-13],[14,4],[10,28],[9,12],[24,7],[18,23],[33,2],[57,0],[48,-12],[13,13],[-3,21],[-15,29],[25,19],[5,49],[3,77],[10,49],[49,43],[28,52],[-12,52],[-9,28],[-59,12]],[[1463,13],[40,133],[9,166],[-133,-68],[-62,-48],[-83,-163],[-9,-33]],[[1507,0],[5,53],[-47,-53]],[[1426,0],[8,7],[29,6]],[[3399,1041],[-2,35],[-19,29],[-25,24],[21,22],[4,3],[49,23],[30,-5],[14,-34],[-11,-42],[-4,-55],[0,-1],[30,-6],[7,5],[29,38],[3,6],[43,32],[31,0],[22,-55],[-13,-39],[-16,-44],[-11,-58],[-32,-27],[-80,-22],[-49,-3],[-36,19],[-13,40],[0,3],[-5,36],[19,49],[14,27]],[[4096,1160],[-23,5],[-16,43],[-13,35],[11,34],[41,12]],[[464,320],[-166,-2],[-111,81],[-30,100],[-124,202]],[[267,839],[-2,0]],[[267,841],[162,-167]],[[482,1796],[15,-4]],[[1142,903],[2,-5]],[[1716,1190]],[[1719,1195],[1,0]],[[1720,1197]],[[1928,651],[114,-236]],[[2042,415],[-114,236]],[[2011,885],[1,-1]],[[2012,886],[-1,0]],[[2012,872]],[[2012,871],[1,0]],[[2021,808]],[[2023,903],[-8,9],[3,5]],[[2018,917],[3,6],[22,8]],[[2043,931],[8,2],[3,0]],[[2023,901],[1,1]],[[2024,902],[-2,1],[0,-1],[1,-1]],[[2041,860],[-14,-4]],[[2027,856],[-3,-1],[-13,26],[12,20]],[[2023,901],[5,-19]],[[2030,884],[-6,18]],[[2026,858],[20,30]],[[2028,882],[-2,-24]],[[2033,835],[-2,1],[-4,20]],[[2027,856]],[[2027,856],[-1,2]],[[2038,781],[-12,-14]],[[2027,932]],[[2027,767],[13,13]],[[2028,833],[-1,0]],[[2033,800],[-6,33]],[[2027,833],[9,2]],[[2030,884],[-2,-2]],[[2046,889],[-16,-5]],[[2033,835],[-11,-3],[-5,-5],[-1,-2],[2,-6],[14,-19]],[[2036,836],[-3,-1]],[[2033,798],[3,-10]],[[2039,782],[-2,7],[-1,3]],[[2036,792],[-1,3],[-1,3]],[[2035,792],[1,0]],[[2036,792]],[[2036,788],[2,-7]],[[2039,782],[-3,6]],[[2038,781],[2,-1]],[[2053,785],[-14,-3]],[[2040,780],[6,-3]],[[2051,935],[-8,-4]],[[2043,931],[-25,-14]],[[2018,917],[-3,-1],[0,-4],[7,-10],[-11,-21],[12,-27],[4,2]],[[2027,856],[13,4]],[[2042,414],[15,-20]],[[2055,397],[-12,17]],[[2046,777],[0,1]],[[2046,777],[1,-1]],[[2047,776],[4,2]],[[2047,776],[4,-2]],[[2051,774],[13,-4]],[[2051,772],[-1,0]],[[2065,769],[-14,5]],[[2051,774],[-1,1],[0,1]],[[2055,937],[-4,-2]],[[2055,933],[-4,2]],[[2052,777],[4,3]],[[2346,975],[-1,0]],[[2345,975],[-30,-9]],[[2316,965],[34,10]],[[2319,974]],[[2324,974]],[[2335,975],[0,-1]],[[2345,975]],[[2345,975]],[[2421,756],[-3,0]],[[2432,903],[-1,0]],[[2465,877],[15,-11],[15,-12],[85,-63]],[[2580,791],[18,-13],[18,-6]],[[2556,761],[24,30]],[[2580,791],[17,19]],[[2597,814]],[[2597,814]],[[2597,814],[-1,0]],[[2597,810],[0,4]],[[2597,814],[0,2]],[[2597,816],[0,2]],[[2597,810],[0,4]],[[2597,814],[2,41],[33,145]],[[2597,815],[0,1]],[[2597,816]],[[2033,798],[1,1],[-1,1],[-1,-1],[1,-1]],[[1863,138]],[[2713,754],[-295,2]],[[606,958],[92,-4],[80,-79],[73,13],[141,-100],[91,21],[94,131],[219,-46]],[[1860,728],[42,22],[31,-32]],[[2025,766],[-28,-31]],[[1997,735],[-17,-19]],[[1980,716],[-28,1]],[[1952,717],[-8,0],[-11,1]],[[1933,718],[19,-1]],[[1952,717],[27,-2],[1,1]],[[1980,716],[17,19]],[[1997,735],[28,30]],[[676,2348],[0,141],[-277,279],[-21,103],[-263,-53],[-70,-61],[-45,22]],[[633,2184],[8,19]],[[641,2203],[35,145]],[[563,1972],[-73,-219]],[[612,1036],[-5,-76]],[[617,1042],[-5,-6]],[[625,1054],[-8,-12]],[[1872,805],[1,0]],[[1858,719],[2,8]],[[1858,719],[70,-68]],[[1928,651],[-70,68]],[[1941,717],[-1,0]],[[1988,723],[-1,-2]],[[1995,731]],[[2002,739]],[[2003,740]],[[2026,767],[-1,-1]],[[2025,765],[2,2]],[[2036,835],[38,-13],[0,-32]],[[2075,789],[4,26],[-8,11],[-35,10]],[[2040,860],[12,4]],[[2052,864]],[[2052,864]],[[2051,864],[-10,-4]],[[2046,888],[8,3],[30,18],[2,0],[2,0]],[[2088,909],[19,0],[3,-2]],[[2110,907],[1,0]],[[2111,907],[7,-3],[10,-5]],[[2128,899],[1,-1]],[[2129,898],[3,-2],[3,-4],[25,-28]],[[2160,864],[9,-9],[18,-9],[1,0]],[[2188,846],[1,-1]],[[2189,845]],[[2189,845]],[[2189,845],[1,0],[19,-13],[44,-28],[-29,-35]],[[2178,853],[-18,11]],[[2160,864],[-12,9],[-2,5],[-17,20]],[[2129,898],[0,1],[-1,0]],[[2128,899],[-19,5]],[[2109,904]],[[2109,904],[-21,5]],[[2088,909],[-2,1],[-3,0],[-37,-21]],[[2072,873],[-20,-8]],[[2052,865],[19,7]],[[2074,790],[-21,-5]],[[2054,933],[2,-1]],[[2056,932],[10,-2]],[[2066,930],[8,-2]],[[2074,928],[1,-1],[23,-1]],[[2098,927],[-24,1]],[[2074,928],[-2,0],[-6,2]],[[2066,930],[-10,3]],[[2056,933],[-1,0]],[[2139,950],[61,8],[11,3],[-147,-20],[-9,-4]],[[2056,781],[0,-1]],[[2056,931],[0,1]],[[2056,932],[0,1]],[[2056,933],[1,5],[7,3],[25,0],[50,9]],[[2056,780],[19,9]],[[2058,817],[4,-16],[12,-11]],[[2074,790],[-15,27]],[[2070,839],[-8,0]],[[2062,839]],[[2062,839],[-3,0]],[[2067,863],[-1,-5],[-2,-8],[-1,-7],[-1,-4]],[[2062,839],[-1,-5]],[[2061,834],[1,5]],[[2062,839],[1,4],[4,20]],[[2064,770],[61,-23],[51,5]],[[2176,752],[3,0],[1,0]],[[2178,755],[0,-2],[-2,-1]],[[2176,752],[-30,-16],[-81,33]],[[2119,799],[-17,28]],[[2102,827],[-4,6],[-26,6],[-2,0],[-5,-7]],[[2065,832],[33,0],[4,-5]],[[2102,827],[17,-25],[3,-4],[2,-1]],[[2067,864],[0,-1]],[[2067,863]],[[2071,872],[-4,-8]],[[2067,864],[1,-1]],[[2067,863],[1,0]],[[2068,863],[4,10],[1,1]],[[2073,874],[3,3],[8,5]],[[2084,882],[6,5],[5,2],[14,15]],[[2109,904],[1,1],[1,2]],[[2111,907],[0,3],[-11,16],[44,2]],[[2144,928],[-9,-36]],[[2086,911],[13,14],[11,-16],[0,-1],[0,-1]],[[2110,907],[0,-2],[-1,-1]],[[2109,904],[-14,-14],[-5,-3],[-6,-5]],[[2084,882],[-11,-8]],[[2073,874],[-2,-2]],[[2074,790]],[[2074,790],[1,-1]],[[2075,789],[-1,1]],[[2075,789]],[[2075,789],[7,-3],[28,-2]],[[2109,784]],[[2109,784],[-27,2],[-7,3]],[[2085,841],[0,-1]],[[2098,926],[-13,-15]],[[2088,840],[0,1]],[[2098,926],[2,1]],[[2138,950],[6,-21]],[[2144,929],[-44,-2]],[[2106,798],[37,-9]],[[2143,789],[1,-1]],[[2144,788],[1,-1],[4,-2],[25,-24]],[[2174,761]],[[2174,761],[2,-1]],[[2176,760],[-1,1]],[[2175,761],[0,1]],[[2175,762],[-25,23],[-4,2],[-2,1]],[[2144,788],[-1,1]],[[2143,789],[-7,4],[-30,5]],[[2109,785],[0,-1]],[[2109,784]],[[2109,784],[1,0]],[[2228,701],[-13,65],[-2,-1]],[[2213,765],[-10,-8],[-25,4]],[[2178,761],[-2,1],[-1,0]],[[2175,762],[-1,-1]],[[2174,761],[-3,0],[-61,23]],[[2121,926],[0,-1]],[[2135,892],[15,10],[1,20]],[[2172,935],[43,4],[-16,-71],[-8,-16],[-1,-4],[-1,-2]],[[2189,846]],[[2189,846],[0,-1]],[[2189,845],[-1,0]],[[2188,845],[-1,-3],[-48,-51]],[[2171,936],[-27,-7]],[[2144,929],[-5,21]],[[2143,757],[27,3]],[[2170,760],[4,1]],[[2174,761],[1,0]],[[2175,761],[1,0],[2,0]],[[2178,761],[35,4]],[[2213,765],[3,-9],[12,-55]],[[2144,789],[43,53],[1,3]],[[2188,845],[1,0]],[[2189,845]],[[2189,845],[0,1]],[[2189,846],[1,2],[8,17],[6,12],[9,21],[4,41],[25,-6]],[[2145,929],[-1,0]],[[2144,929]],[[2144,929],[0,-1]],[[2144,928],[1,1]],[[2151,922],[-6,7]],[[2145,929],[6,1]],[[2151,930],[20,5]],[[2151,922],[0,6],[0,2]],[[2151,930],[0,1]],[[2152,865],[-1,-1]],[[2154,808]],[[2155,811],[1,0]],[[2158,754],[0,-1]],[[2158,857],[0,2]],[[2169,761],[1,-1]],[[2170,760]],[[2215,940],[-43,-3]],[[2172,937],[-1,0],[0,-2]],[[2171,935],[1,0]],[[2172,935],[0,2]],[[2176,760]],[[2176,760],[15,-29],[19,-52]],[[2244,719],[-33,-38]],[[2211,681],[-1,0]],[[2210,681],[-18,51],[-16,28]],[[2178,852],[0,1]],[[2248,808],[-41,26],[-17,11],[-1,0]],[[2189,845]],[[2189,845],[0,1]],[[2189,846],[-1,0]],[[2188,846],[-4,3],[-6,4]],[[2188,846]],[[2193,941],[0,-1]],[[2211,681]],[[2211,681],[-1,0]],[[2210,681]],[[2211,680],[34,39]],[[2242,934],[-25,6]],[[2224,769],[30,35],[19,-48]],[[2242,933],[4,-19]],[[2267,951],[-24,-16]],[[2246,914],[-3,20]],[[2243,934],[25,16]],[[2246,913],[2,-105]],[[2254,805],[-8,108]],[[2258,802],[-3,2]],[[2255,804],[-1,0]],[[2254,804]],[[2254,804],[-1,1]],[[2253,805],[-5,3]],[[2248,807],[5,-2]],[[2253,805],[0,-1]],[[2253,804],[1,0]],[[2254,804],[1,-1]],[[2255,803],[3,-2]],[[2253,805]],[[2253,805]],[[2253,805]],[[2253,806],[0,-1]],[[2279,772],[-24,31]],[[2255,803],[0,1]],[[2255,804],[-1,0]],[[2254,804],[0,1]],[[2254,804]],[[2254,804]],[[2254,804]],[[2254,804]],[[2265,745],[0,-1]],[[2268,950],[1,1],[-1,0]],[[2268,951],[-1,0],[1,-1]],[[2315,966],[-47,-15]],[[2269,951],[47,14]],[[2272,754],[-2,-1]],[[2270,751],[3,2]],[[2273,753],[-1,1]],[[2276,759],[3,12]],[[2280,768],[0,6]],[[2280,779]],[[2287,754],[-2,-1]],[[2292,755],[-5,-1]],[[2287,754],[0,-3]],[[2296,968],[0,1]],[[2296,969]],[[2327,749],[0,1]],[[2329,750],[-1,-1]],[[2352,750],[1,1]],[[2355,751],[-1,0]],[[2375,755]],[[2375,755]],[[2403,756],[0,1]],[[2403,757],[0,-1]],[[2418,756],[-1,0]],[[2417,756],[-1,0]],[[2417,755],[0,1]],[[2417,756]],[[2052,864]],[[2052,864],[0,1]],[[2052,865]],[[2052,865],[-1,-1],[1,0]],[[2052,864]],[[2109,785],[0,-1]],[[2109,784],[1,0]],[[2110,784]],[[2110,784],[-1,1]],[[2144,788]],[[2144,788]],[[2144,788],[0,1],[-1,0]],[[2143,789]],[[2143,789],[1,-1]],[[2189,845]],[[2189,845]],[[2189,845],[0,1]],[[2189,846]],[[2189,846],[-1,0]],[[2188,846]],[[2188,846],[0,-1]],[[2188,845]],[[2188,845],[1,0]],[[2217,940],[-2,0],[1,-1],[1,0],[0,1]],[[2242,933],[1,1]],[[2243,934],[0,1],[-1,-1]],[[2242,934],[0,-1]],[[2246,913],[0,1]],[[2246,914]],[[2246,914],[0,-1]],[[2253,805],[0,-1]],[[2253,804],[1,0]],[[2254,804]],[[2085,895],[8,-12],[25,-12],[7,-2],[0,-15],[16,-24],[25,-10]],[[2166,820],[-25,10],[-16,40],[-40,26]],[[3430,0],[139,91],[104,33],[38,44],[73,5],[142,61],[52,7],[118,-37]],[[633,2184],[46,16]],[[774,2290],[124,118],[118,-14],[133,85],[250,-118],[13,-32]],[[2401,986],[8,-6]],[[2409,980],[-6,7]],[[2409,980],[23,-76],[33,-27]],[[563,1972],[70,212]],[[178,0],[152,195],[76,20],[58,105]],[[679,2200],[95,90]],[[0,757],[35,-58],[109,-38],[63,28],[25,117],[195,157],[179,-5]],[[1142,903],[-45,91],[0,87],[41,38],[25,102],[58,79],[102,-3],[121,80],[67,-87],[184,-3],[35,-33],[-10,-55]],[[1713,1189],[-16,-2]],[[1713,1189],[7,10]],[[1716,1190]],[[0,1506],[171,91],[112,159],[154,60],[64,-10]],[[2110,784],[33,-27]],[[2207,667],[-13,-68],[-4,-6]],[[2190,593],[-132,-196],[-13,-27]],[[2045,370],[-4,-8],[-178,-224]],[[1863,138],[10,7],[16,15],[6,7],[13,13],[133,181],[4,9]],[[2045,370],[36,88],[109,135]],[[2190,593],[4,6],[14,67]],[[1822,0],[1,107],[31,25]],[[2414,994],[-68,-19]],[[2350,975],[51,11]],[[2410,990],[4,4]],[[2414,994],[196,94],[4,44]],[[2211,679],[-1,0]],[[2210,679],[-3,-12]],[[2208,666],[3,13]],[[2285,753],[-5,0]],[[2280,753],[-7,0]],[[2273,753],[7,0]],[[2280,753],[128,3]],[[2408,756],[10,0]],[[2416,756],[-8,0]],[[2408,756],[-114,-8]],[[563,1972],[233,44],[309,16],[58,-62]],[[1397,890],[-13,-84],[38,-16],[300,31],[150,-16]],[[2273,756],[-29,-37]],[[2245,719],[31,40]],[[0,3721],[14,-2],[43,-2],[38,-29],[0,-18],[-51,-26],[-44,-14],[0,91]],[[0,3815],[10,-18],[-4,-45],[-6,2],[0,61]],[[1465,0],[47,53],[-5,-53],[-42,0]],[[1955,0],[1,21],[17,56],[30,18],[46,-42],[-26,-50],[-4,-3],[-64,0]],[[1225,0],[9,33],[83,163],[62,48],[133,68],[-9,-166],[-40,-133],[-29,-6],[-8,-7],[-201,0]],[[4096,856],[0,-856],[-1582,0],[12,23],[18,51],[6,50],[19,32],[35,24],[23,3],[-19,-30],[0,-19],[35,11],[11,8],[17,19],[18,-19],[-8,-22],[0,-8],[3,-9],[5,-19],[8,20],[4,9],[8,10],[4,-40],[-10,-30],[-32,-51],[43,34],[16,53],[-3,123],[10,50],[23,46],[49,74],[37,81],[25,41],[88,56],[11,11],[13,4],[86,-53],[0,21],[-33,26],[-2,34],[35,78],[40,53],[27,26],[12,-8],[80,-148],[40,-101],[11,36],[-9,33],[-14,37],[-8,44],[16,36],[76,35],[20,8],[23,1],[13,3],[19,12],[18,0],[16,-2],[32,7],[67,49],[43,18],[42,7],[18,-16],[23,35],[-4,89],[46,28],[34,-33],[17,-74],[-5,-75],[-37,-39],[0,-21],[22,0],[0,21],[20,0],[0,-21],[22,0],[0,19],[4,14],[14,28],[24,-12],[23,-6],[54,-2],[-66,48],[-4,73],[40,62],[70,18],[-22,-24],[-15,-25],[-25,-52],[39,30],[49,10],[40,-21],[13,-58],[58,26],[11,-4]],[[2068,0],[3,13],[14,4],[20,-4],[18,-1],[8,11],[2,39],[6,28],[12,23],[18,21],[27,-25],[76,-56],[-18,47],[23,27],[92,26],[-5,-56],[40,-84],[-6,-13],[-330,0]],[[1732,0],[3,19],[36,34],[-10,12],[-5,11],[-8,10],[-19,9],[55,172],[48,152],[19,114],[10,-24],[7,-23],[4,-24],[-2,-29],[20,0],[-49,330],[30,38],[15,22],[21,9],[55,2],[41,-19],[30,-47],[38,-94],[2,84],[-11,34],[-31,21],[8,33],[-3,37],[1,40],[23,40],[40,16],[172,15],[316,159],[83,-2],[29,49],[58,-1],[54,-44],[16,-81],[-50,12],[-73,2],[-61,-16],[-14,-38],[80,-12],[17,-7],[9,-25],[2,-68],[11,-29],[2,31],[3,23],[15,47],[22,0],[22,-67],[4,-58],[-13,-56],[-35,-60],[-47,5],[-51,-26],[-41,-58],[-18,-10],[-20,-3],[-22,-8],[-20,-21],[52,-23],[-13,-57],[-76,-140],[-40,-29],[-47,-21],[-37,-9],[-33,4],[-19,11],[-47,47],[10,-51],[11,-17],[19,-14],[-35,-31],[-81,-20],[-34,-19],[-83,-79],[-16,-12],[-80,-29],[-74,-66],[-29,-74],[3,-3],[-117,0],[-52,0]],[[1784,1697],[6,-26],[3,-109],[8,-6],[37,-44],[13,-21],[6,-31],[-3,-68],[-29,-127],[-26,-51],[-15,-8],[-23,-13],[-103,-14],[-66,-2],[-60,16],[-18,16],[-31,39],[-20,8],[-7,4],[-11,8],[-10,9],[-4,6],[-6,12],[-14,-5],[-16,-11],[-50,-21],[-38,-33],[-34,-40],[-21,-34],[136,86],[47,-8],[18,-87],[-28,-147],[-32,-88],[-40,-53],[-34,-9],[-27,4],[-25,-3],[-33,-33],[-34,-87],[-18,-13],[-55,-10],[-70,-28],[-55,-39],[-10,-44],[43,44],[133,56],[55,30],[26,33],[11,29],[17,21],[45,8],[17,-17],[-14,-36],[-23,-34],[-10,-13],[-149,-300],[-70,-80],[19,-28],[-5,-35],[-36,-76],[-21,-68],[-4,-56],[4,-70],[-1030,0],[0,3583],[12,0],[83,-35],[-13,43],[13,43],[23,45],[17,50],[-1,88],[20,26],[60,6],[0,20],[-21,0],[0,21],[53,24],[60,36],[49,44],[20,46],[9,12],[20,-17],[20,-29],[9,-27],[5,-87],[-5,-23],[-16,-16],[-55,-26],[-28,-18],[-18,-22],[-16,-46],[-47,-58],[-19,-44],[0,-51],[22,-60],[-41,-1],[-52,12],[-28,-11],[42,-29],[51,-54],[19,-52],[-54,-24],[45,-6],[19,12],[25,84],[-2,22],[10,21],[44,26],[35,-35],[35,-50],[40,-32],[51,18],[-51,17],[-9,38],[15,45],[25,41],[-22,0],[6,15],[7,12],[6,13],[3,20],[41,-29],[26,-45],[12,-53],[-2,-54],[20,55],[2,24],[32,-51],[-11,-34],[-27,-28],[-16,-36],[12,-21],[54,-40],[16,-28],[-9,-5],[-51,-57],[22,-18],[52,-31],[13,-10],[-39,-40],[-25,-14],[-23,-26],[-14,9],[-9,2],[-38,-11],[2,-14],[4,-8],[15,-18],[124,72],[18,40],[-22,67],[97,-45],[50,-12],[50,17],[-37,-93],[-88,-69],[-174,-95],[0,-21],[45,16],[111,17],[36,16],[41,30],[22,-16],[16,-35],[28,-28],[83,5],[49,75],[23,104],[6,94],[159,-79],[-47,-26],[-32,-28],[-23,-36],[-18,-50],[-5,-45],[1,-40],[-12,-27],[-43,-7],[0,-18],[30,8],[48,26],[34,6],[25,-11],[16,-22],[12,-22],[14,-7],[18,20],[7,34],[13,32],[34,14],[24,-16],[2,-36],[-14,-40],[-21,-28],[18,-20],[23,30],[25,18],[21,20],[11,34],[20,-10],[16,-12],[13,-18],[12,-22],[-46,-51],[-119,-64],[-36,-44],[57,4],[101,25],[43,-9],[25,-28],[19,-45],[12,-51],[4,-46],[6,-24],[26,-48],[6,-28],[-6,-23],[-13,-13],[-13,-11],[-6,-14],[-25,-20],[-55,-7],[-60,5],[-41,13],[-33,-36],[-39,-20],[-85,-24],[17,-2],[13,0],[12,-4],[14,-14],[50,33],[57,15],[59,1],[56,-9],[50,1],[24,-11],[6,-30],[-18,-25],[-102,-74],[-54,-21],[-72,-103],[-85,-91],[-91,14],[-18,-20],[38,-12],[46,1],[38,7],[16,4],[27,-28],[-16,-26],[-67,-45],[-111,-121],[-61,-25],[-92,7],[20,-20],[10,-18],[11,-44],[-115,35],[-53,4],[-53,-22],[-44,-45],[-48,-31],[-66,19],[57,-36],[131,49],[121,27],[29,-100],[21,0],[22,42],[40,34],[40,8],[18,-34],[-7,-40],[-16,-26],[-20,-20],[-17,-25],[-24,-66],[-11,-14],[-35,-29],[-20,-30],[-12,-71],[-17,-27],[20,-20],[8,35],[12,25],[17,19],[79,63],[30,10],[13,-22],[-15,-116],[3,-48],[32,-26],[-9,27],[-2,37],[6,38],[30,58],[-6,24],[-12,22],[-7,22],[1,68],[7,56],[18,52],[35,56],[136,121],[34,18],[32,7],[24,15],[33,38],[-7,-2],[7,42],[8,12],[19,13],[12,14],[93,83],[104,9],[101,-51],[82,-102],[26,-62],[7,-31]],[[3456,1040],[30,-6],[7,5],[29,38],[3,6],[43,32],[31,0],[22,-55],[-13,-39],[-16,-44],[-11,-58],[-32,-27],[-80,-22],[-49,-3],[-36,19],[-13,40],[0,3],[-5,36],[19,49],[14,27],[-2,35],[-19,29],[-25,24],[21,22],[4,3],[49,23],[30,-5],[14,-34],[-11,-42],[-4,-55],[0,-1]],[[4096,1289],[0,-129],[-23,5],[-16,43],[-13,35],[11,34],[41,12]],[[3976,1199],[-13,-13],[-48,12],[-57,0],[-33,-2],[-18,-23],[-24,-7],[-9,-12],[-10,-28],[-14,-4],[-36,13],[-23,6],[-28,24],[-2,26],[19,22],[18,60],[-11,59],[-7,59],[27,47],[35,84],[40,42],[50,33],[45,14],[37,3],[51,13],[33,3],[59,-12],[9,-28],[12,-52],[-28,-52],[-49,-43],[-10,-49],[-3,-77],[-5,-49],[-25,-19],[15,-29],[3,-21]],[[378,2336],[402,16],[-18,-186],[-97,39],[-172,-16],[-115,-41],[0,188]],[[2072,604],[18,60],[73,27],[21,51],[19,-43],[-32,-100],[-99,5]],[[1860,635],[-19,128],[45,60],[76,11],[41,-19],[64,-132],[-207,-48]],[[2406,734],[-111,-102],[-39,0],[-91,65],[-94,-23],[2,84],[-42,55],[29,150],[248,49],[20,-120],[128,-66],[-50,-92]],[[609,4096],[12,-60],[77,14],[66,-26],[59,-82],[26,-148],[178,-95],[102,-221],[-27,-118],[-44,-73],[179,-80],[80,-136],[-81,-51],[-55,28],[-64,-65],[-4,-91],[-29,-27],[-20,4],[24,26],[-35,4],[39,7],[-30,68],[7,93],[17,-31],[66,75],[33,5],[-114,68],[-67,12],[18,-37],[48,-12],[15,-16],[-57,19],[-17,-27],[29,-77],[-19,-49],[22,-21],[-28,21],[7,68],[-45,-120],[-52,14],[-35,-63],[-46,13],[-22,-19],[19,22],[46,-12],[10,23],[-59,29],[-7,29],[-64,-47],[-63,-25],[-21,0],[112,49],[31,57],[-130,-44],[-68,4],[-49,-64],[-183,-52],[28,33],[124,46],[-271,-43],[-92,12],[128,15],[-20,35],[147,-12],[67,24],[16,42],[59,-13],[1,-21],[35,41],[47,-12],[6,36],[20,-14],[89,49],[-86,6],[76,55],[1,25],[-39,16],[18,-37],[-98,-69],[-170,-28],[-29,-26],[0,25],[-26,1],[-53,-61],[19,60],[-103,4],[-17,-21],[-19,22],[-73,-28],[57,47],[223,11],[-15,35],[111,-17],[49,80],[-93,-49],[-43,16],[106,61],[-109,-18],[53,84],[-50,3],[-77,-103],[-16,48],[-60,-29],[17,38],[-135,-50],[-37,-39],[-137,9],[111,56],[28,-16],[86,34],[41,44],[48,-6],[37,45],[102,22],[-73,9],[28,22],[-59,-1],[66,57],[-62,9],[-30,-31],[-2,35],[-31,10],[-14,-82],[-35,15],[-16,-53],[-27,27],[-38,-42],[-63,3],[-9,27],[-113,-32],[17,45],[52,9],[-69,-4],[0,22],[46,17],[-46,49],[77,20],[-26,-38],[46,-14],[113,66],[-30,30],[-12,-47],[-53,-13],[-4,23],[35,5],[-15,38],[-111,-42],[30,54],[-50,15],[0,69],[32,-19],[97,28],[42,63],[-127,196],[-44,21],[0,203],[609,0]]]}