{"objects":{"water":{"type":"GeometryCollection","geometries":[{"type":"MultiPolygon","properties":{"source":"naturalearthdata.com","kind":"ocean","area":1576712559132672,"sort_rank":200,"min_zoom":0.0,"id":1},"arcs":[[[5]],[[6]],[[7]]]},{"type":"MultiLineString","properties":{"source":"naturalearthdata.com","kind":"ocean","sort_rank":205,"boundary":true,"min_zoom":0.0,"id":75},"arcs":[[8],[9],[10]]}]},"buildings":{"type":"GeometryCollection","geometries":[]},"places":{"type":"GeometryCollection","geometries":[]},"transit":{"type":"GeometryCollection","geometries":[]},"pois":{"type":"GeometryCollection","geometries":[{"type":"Point","properties":{"kind":"protected_area","tier":2,"protect_class":"5","area":371581000,"source":"openstreetmap.org","min_zoom":7.0,"operator":"Instituto Chico Mendes de Conserva\u00e7\u00e3o da Biodiversidade","id":-3424557,"osm_relation":true,"name":"\u00c1rea de Prote\u00e7\u00e3o Ambiental de Cairu\u00e7u"},"coordinates":[772,3982]},{"type":"Point","properties":{"kind":"nature_reserve","protect_class":"5","area":1471020000,"source":"openstreetmap.org","min_zoom":7.03,"tier":2,"id":493746478,"name":"APA Marinha do Litoral Norte - Setor Cunhambebe"},"coordinates":[335,3352]}]},"boundaries":{"type":"GeometryCollection","geometries":[{"type":"LineString","properties":{"name:kg":"Brazil","name:ty":"Brazil","name:ka":"\u10d1\u10e0\u10d0\u10d6\u10d8\u10da\u10d8\u10d0","name:ko":"\ube0c\ub77c\uc9c8","name:cv":"\u0411\u0440\u0430\u0437\u0438\u043b\u0438","name:cu":"\u0411\u0440\u0430\ua641\u0457\u043b\u0457\ua657","name:kl":"Brazil","name:cs":"Braz\u00edlie","name:ki":"Brazil","name:co":"Brasile","name:kv":"\u0411\u0440\u0430\u0437\u0438\u043b\u0438\u044f","name:ku":"Braz\u00eel","name:ce":"\u0411\u0440\u0430\u0437\u0438\u043b\u0438\u044f","name:ta":"\u0baa\u0bbf\u0bb0\u0bc7\u0b9a\u0bbf\u0bb2\u0bcd","name:tg":"\u0411\u0440\u0430\u0437\u0438\u043b\u0438\u044f","name:ky":"\u0411\u0440\u0430\u0437\u0438\u043b\u0438\u044f","name:te":"\u0c2c\u0c4d\u0c30\u0c46\u0c1c\u0c3f\u0c32\u0c4d","name:da":"Brasilien","name:de":"Brasilien","name:dz":"\u0f56\u0f71\u0f62\u0f71\u0f0b\u0f5b\u0f72\u0f63\u0f0b","source":"openstreetmap.org","name:kn":"\u0cac\u0ccd\u0cb0\u0cc6\u0c9c\u0cbf\u0cb2\u0ccd","name:dv":"\u0784\u07aa\u0783\u07ac\u0792\u07a8\u078d\u07b0","name:km":"\u1794\u17d2\u179a\u17c1\u179f\u17ca\u17b8\u179b","name:lv":"Braz\u012blija","name:lt":"Brazilija","name:uz":"Braziliya","name:kk":"\u0411\u0440\u0430\u0437\u0438\u043b\u0438\u044f","name:ur":"\u0628\u0631\u0627\u0632\u06cc\u0644","name:lb":"Brasilien","name:la":"Brasilia","name:tt":"\u0411\u0440\u0430\u0437\u0438\u043b\u0438\u044f","name:uk":"\u0411\u0440\u0430\u0437\u0438\u043b\u0456\u044f","name:ug":"\u0628\u0631\u0627\u0632\u0649\u0644\u0649\u064a\u06d5","name:li":"Braziel","name:ln":"Brazil","name:el":"\u0392\u03c1\u03b1\u03b6\u03b9\u03bb\u03af\u03b1","name:eo":"Brazilo","name:en":"Brazil","name":"Brasil","name:tk":"Brazili\u00fda","name:ee":"Brazil","name:th":"\u0e1b\u0e23\u0e30\u0e40\u0e17\u0e28\u0e1a\u0e23\u0e32\u0e0b\u0e34\u0e25","name:et":"Brasiilia","name:ay":"Wrasil","name:rm":"Brasilia","name:rn":"Brazil","name:az":"Braziliya","name:ig":"Brazil","name:as":"\u09ac\u09cd\u09f0\u09be\u099c\u09bf\u09b2","name:zh-min-nan":"Pa-se","name:io":"Brazilia","name:is":"Brasil\u00eda","name:am":"\u1265\u122b\u12da\u120d","name:it":"Brasile","name:ru":"\u0411\u0440\u0430\u0437\u0438\u043b\u0438\u044f","name:rw":"Burezile","name:af":"Brasili\u00eb","name:zu":"IBrazili","kind_detail":"2","name:za":"Bahsih","name:zh-yue":"\u5df4\u897f","name:zh":"\u5df4\u897f","name:so":"Barasiil","name:sl":"Brazilija","name:sk":"Braz\u00edlia","name:ja":"\u30d6\u30e9\u30b8\u30eb","name:sh":"Brazil","name:se":"Brasilia","name:sc":"Brasile","name:br":"Brazil","name:bs":"Brazil","name:bm":"Brazil","name:bn":"\u09ac\u09cd\u09b0\u09be\u099c\u09bf\u09b2","name:bo":"\u0f54\u0f74\u0f0b\u0f62\u0f74\u0f0b\u0f5f\u0f72\u0f63\u0f0d","name:bi":"Brazil","name:sw":"Brazil","name:be":"\u0411\u0440\u0430\u0437\u0456\u043b\u0456\u044f","name:bg":"\u0411\u0440\u0430\u0437\u0438\u043b\u0438\u044f","name:ba":"\u0411\u0440\u0430\u0437\u0438\u043b\u0438\u044f","name:sq":"Brazili","name:sa":"\u092c\u094d\u0930\u093e\u0938\u0940\u0932","name:ps":"\u0628\u0631\u0627\u0632\u06cc\u0644","min_zoom":8.0,"name:ro":"Brazilia","name:pa":"\u0a2c\u0a4d\u0a30\u0a3e\u0a1c\u0a3c\u0a40\u0a32","name:os":"\u0411\u0440\u0430\u0437\u0438\u043b\u0438","name:or":"\u0b2c\u0b4d\u0b30\u0b3e\u0b1c\u0b3f\u0b32","name:pl":"Brazylia","name:st":"Brazil","sort_rank":262,"name:sr":"\u0411\u0440\u0430\u0437\u0438\u043b","osm_relation":true,"name:ar":"\u0627\u0644\u0628\u0631\u0627\u0632\u064a\u0644","name:tr":"Brezilya","name:hi":"\u092c\u094d\u0930\u093e\u091c\u093c\u0940\u0932","name:sv":"Brasilien","name:he":"\u05d1\u05e8\u05d6\u05d9\u05dc","name:hy":"\u0532\u0580\u0561\u0566\u056b\u056c\u056b\u0561","name:ht":"Brezil","name:hu":"Braz\u00edlia","name:hr":"Brazil","kind":"country","name:yi":"\u05d1\u05e8\u05d0\u05d6\u05d9\u05dc","name:mt":"Bra\u017cil","name:ms":"Brazil","name:mr":"\u092c\u094d\u0930\u093e\u091d\u0940\u0932","name:my":"\u1018\u101b\u102c\u1007\u102e\u1038\u1014\u102d\u102f\u1004\u103a\u1004\u1036","official_name":"Rep\u00fablica Federativa do Brasil","name:mg":"Brazila","name:ml":"\u0d2c\u0d4d\u0d30\u0d38\u0d40\u0d7d","name:mn":"\u0411\u0440\u0430\u0437\u0438\u043b","name:mi":"Par\u012bhi","id":-59470,"name:mk":"\u0411\u0440\u0430\u0437\u0438\u043b","name:vo":"Brasil\u00e4n","name:fa":"\u0628\u0631\u0632\u06cc\u0644","name:fi":"Brasilia","old_name:vi":"Ba T\u00e2y","alt_name:vi":"Brazil;Bra-xin","name:fr":"Br\u00e9sil","name:fy":"Brazylje","name:nl":"Brazili\u00eb","name:na":"Bradir","name:ne":"\u092c\u094d\u0930\u093e\u091c\u093f\u0932","name:wa":"Braezi","name:wo":"Breesil","name:nv":"Bwaz\u00ed\u00edl","name:ga":"An Bhrasa\u00edl","name:gd":"Braisil","name:gn":"Pindorama","maritime_boundary":true,"name:gv":"Yn Vrasseel","name:gu":"\u0aac\u0acd\u0ab0\u0abe\u0a9d\u0abf\u0ab2"},"arcs":[0]},{"type":"LineString","properties":{"name:left:la":"Sanctus Paulus","name:right:ug":"Rio d\u00e9 Jan\u00e9yro","name:right:la":"Flumen Ianuarii","name:right:yi":"\u05e8\u05d9\u05d0 \u05d3\u05e2 \u05d6\u05e9\u05d0\u05e0\u05e2\u05e8\u05d0","name:right:hy":"\u054c\u056b\u0578 \u0564\u0565 \u053a\u0561\u0576\u0565\u0575\u0580\u0578","name:right:uk":"\u0420\u0456\u043e-\u0434\u0435-\u0416\u0430\u043d\u0435\u0439\u0440\u043e","name:left:he":"\u05e1\u05d0\u05d5 \u05e4\u05d0\u05d5\u05dc\u05d5","name:left:sr":"\u0421\u0430\u043e \u041f\u0430\u0443\u043b\u043e","name:left:wa":"Sawo P\u00e5lo","name:right:hi":"\u0930\u093f\u092f\u094b \u0921\u093f \u091c\u0947\u0928\u0947\u0930\u094b","name:right:lv":"Riode\u017eaneiro","name:left:lt":"San Paulas","name:left:sh":"Sao Paulo","name:left:lv":"Sanpaulu","name:left:ta":"\u0b9a\u0bbe\u0bb5\u0bcb \u0baa\u0bbe\u0bb5\u0bc1\u0bb2\u0bcb","name:right:uz":"Rio-de-Janeyro","name:left:sa":"\u0938\u093e\u0913 \u092a\u093e\u0913\u0932\u094b","name:right:he":"\u05e8\u05d9\u05d5 \u05d3\u05d4 \u05d6'\u05e0\u05d9\u05d9\u05e8\u05d5","name:left:hi":"\u0938\u093e\u0913 \u092a\u093e\u0909\u0932\u094b","name:right:os":"\u0420\u0438\u043e-\u0434\u0435-\u0416\u0430\u043d\u0435\u0439\u0440\u043e","name:left:az":"San Paulo","short_name:left":"SP","name:right:tg":"\u0420\u0438\u043e-\u0434\u0435-\u0416\u0430\u043d\u0435\u0439\u0440\u043e","name:left:ce":"\u0421\u0430\u043d-\u041f\u0430\u0443\u043b\u0443","name:right:am":"\u122a\u12ee \u12f4 \u1303\u1294\u12ed\u122e","name:left:gl":"San Paulo","source":"openstreetmap.org","name:right:ar":"\u0631\u064a\u0648 \u062f\u064a \u062c\u0627\u0646\u064a\u0631\u0648","name:left:cv":"\u0421\u0430\u043d-\u041f\u0430\u0443\u043b\u0443","name:right:az":"Rio de Janeyro","name:left":"S\u00e3o Paulo","name:right:mk":"\u0420\u0438\u043e \u0434\u0435 \u0416\u0430\u043d\u0435\u0438\u0440\u043e","name:right:sr":"\u0420\u0438\u043e \u0434\u0435 \u0416\u0430\u043d\u0435\u0438\u0440\u043e","name:left:ka":"\u10e1\u10d0\u10dc-\u10de\u10d0\u10e3\u10da\u10e3","name:right:mn":"\u0420\u0438\u043e-\u0434\u0435-\u0416\u0430\u043d\u0435\u0439\u0440\u043e","name:right:ml":"\u0d31\u0d3f\u0d2f\u0d4b \u0d21\u0d3f \u0d1c\u0d28\u0d40\u0d31\u0d4b","name:left:ko":"\uc0c1\ud30c\uc6b8\ub8e8","name:left:kk":"\u0421\u0430\u043d-\u041f\u0430\u0443\u043b\u0443","name:right:ru":"\u0420\u0438\u043e-\u0434\u0435-\u0416\u0430\u043d\u0435\u0439\u0440\u043e","name:left:kv":"\u0421\u0430\u043d-\u041f\u0430\u0443\u043b\u0443","name:left:ru":"\u0421\u0430\u043d-\u041f\u0430\u0443\u043b\u0443","name:left:uz":"San-Paulu","name:right:mr":"\u0930\u093f\u092f\u094b \u0926\u093f \u091c\u093e\u0928\u0947\u0930\u094b","id:right":-57963,"name:right:eo":"Rio-de-\u0134anejro","name:right:el":"\u03a1\u03af\u03bf \u03bd\u03c4\u03b5 \u03a4\u03b6\u03b1\u03bd\u03ad\u03b9\u03c1\u03bf","name:right:lt":"Rio de \u017daneiras","kind":"region","name:right:bn":"\u09b0\u09bf\u0989 \u09a6\u09bf \u099c\u09be\u09a8\u09c7\u0987\u09b0\u09c1","name":"S\u00e3o Paulo - Rio de Janeiro","name:left:fa":"\u0633\u0627\u0626\u0648\u067e\u0627\u0626\u0648\u0644\u0648","name:right:ba":"\u0420\u0438\u043e-\u0434\u0435-\u0416\u0430\u043d\u0435\u0439\u0440\u043e","name:right:fa":"\u0631\u06cc\u0648\u062f\u0648 \u0698\u0627\u0646\u06cc\u0631\u0648","min_zoom":8.0,"name:right:be":"\u0420\u044b\u0430-\u0434\u044d-\u0416\u0430\u043d\u044d\u0439\u0440\u0430","name:left:zh":"\u5723\u4fdd\u7f57","name:right:zh":"\u91cc\u7d04\u71b1\u5167\u76e7","name:left:hy":"\u054d\u0561\u0576 \u054a\u0561\u0578\u0582\u056c\u0578","name:right:es":"R\u00edo de Janeiro","name:right:ja":"\u30ea\u30aa \u30c7 \u30b8\u30e3\u30cd\u30a4\u30ed","name:right:sq":"Rio de Zhaneiro","name:left:ur":"\u0633\u0627\u0624 \u067e\u0627\u0644\u0648","name:left:ja":"\u30b5\u30f3\u30d1\u30a6\u30ed","name:right:fy":"Rio de Jan\u00earo","name:left:uk":"\u0421\u0430\u043d-\u041f\u0430\u0443\u043b\u0443","name:right:sh":"Rio de \u017daneiro","name:left:tr":"\u0421\u0430\u043d \u041f\u0430\u0443\u043b\u0443","name:left:ba":"\u0421\u0430\u043d-\u041f\u0430\u0443\u043b\u0443","name:left:bg":"\u0421\u0430\u043e \u041f\u0430\u0443\u043b\u043e","name:left:be":"\u0421\u0430\u043d-\u041f\u0430\u045e\u043b\u0443","name:left:ne":"\u0938\u093e\u0913 \u092a\u093e\u0909\u0932\u094b","name:left:ug":"San Pawlo","id":-298204,"name:right":"Rio de Janeiro","name:left:ml":"\u0d38\u0d3e\u0d35\u0d4b \u0d2a\u0d4b\u0d33\u0d4b","name:left:eo":"San-Pa\u016dlo","name:left:el":"\u03a3\u03ac\u03bf \u03a0\u03ac\u03bf\u03bb\u03bf","kind_detail":"4","name:right:ce":"\u0420\u0438\u043e-\u0434\u0435-\u0416\u0430\u043d\u0435\u0439\u0440\u043e","name:left:yo":"Sao Paulo","name:left:mk":"\u0421\u0430\u043e \u041f\u0430\u043e\u043b\u043e","name:left:yi":"\u05e1\u05d0\u05d5 \u05e4\u05d0\u05d5\u05dc\u05d0","id:left":-298204,"name:left:es":"San Pablo","name:left:os":"\u0421\u0430\u043d-\u041f\u0430\u0443\u043b\u0443","name:right:cv":"\u0420\u0438\u043e-\u0434\u0435-\u0416\u0430\u043d\u0435\u0439\u0440\u043e","name:left:io":"Sao Paulo","name:left:ar":"\u0633\u0627\u0648 \u0628\u0627\u0648\u0644\u0648","short_name:right":"RJ","name:right:tt":"\u0420\u0438\u043e-\u0434\u0435-\u0416\u0430\u043d\u0435\u0439\u0440\u043e","name:right:kk":"\u0420\u0438\u043e-\u0434\u0435-\u0416\u0430\u043d\u0435\u0439\u0440\u043e","name:left:tt":"\u0421\u0430\u043d-\u041f\u0430\u0443\u043b\u0443","name:left:mn":"\u0421\u0430\u043d-\u041f\u0430\u0443\u043b\u0443","name:left:ay":"San Pauluw","name:right:bg":"\u0420\u0438\u043e \u0434\u0435 \u0416\u0430\u043d\u0435\u0439\u0440\u043e","name:left:th":"\u0e40\u0e0b\u0e32\u0e40\u0e1b\u0e32\u0e25\u0e39","name:left:mr":"\u0938\u093e\u0913 \u092a\u093e\u0909\u0932\u094b","name:left:tk":"San-Paulu","name:right:th":"\u0e23\u0e35\u0e42\u0e2d\u0e40\u0e14\u0e08\u0e32\u0e40\u0e19\u0e42\u0e23","name:right:ko":"\ub9ac\uc6b0\ub370\uc790\ub124\uc774\ub8e8","name:right:tk":"Rio-de-\u017dane\u00fdro","name:right:ky":"\u0420\u0438\u043e-\u0434\u0435-\u0416\u0430\u043d\u0435\u0439\u0440\u043e","name:right:gl":"R\u00edo de Xaneiro","name:left:am":"\u1233\u12cd \u1353\u12cd\u1209","name:left:it":"San Paolo","name:right:ta":"\u0b87\u0bb0\u0bbf\u0baf\u0bcb \u0b9f\u0bbf \u0b9a\u0bc6\u0ba9\u0bc0\u0bb0\u0bcb","osm_relation":true,"name:left:tg":"\u0421\u0430\u043d-\u041f\u0430\u0443\u043b\u0443","name:right:ka":"\u10e0\u10d8\u10dd-\u10d3\u10d4-\u10df\u10d0\u10dc\u10d4\u10d8\u10e0\u10dd","name:right:pa":"\u0a30\u0a3f\u0a13 \u0a21\u0a40 \u0a1c\u0a28\u0a47\u0a30\u0a4b","name:right:ur":"\u0631\u06cc\u0648 \u062f\u06d2 \u062c\u06cc\u0646\u06cc\u0631\u0648","sort_rank":256,"name:left:pa":"\u0a38\u0a3e\u0a13 \u0a2a\u0a3e\u0a13\u0a32\u0a4b","name:left:bn":"\u09b8\u09be\u0981\u0989 \u09aa\u09be\u0989\u09b2\u09c1","name:left:dv":"\u0790\u07a6\u0787\u07ae \u0795\u07a6\u0787\u07aa\u078d\u07af","name:left:ab":"\u0421\u0430\u043d-\u041f\u0430\u0443\u043b\u0443"},"arcs":[1]},{"type":"LineString","properties":{"name:left:la":"Sanctus Paulus","name:right:ug":"Rio d\u00e9 Jan\u00e9yro","name:right:la":"Flumen Ianuarii","name:right:yi":"\u05e8\u05d9\u05d0 \u05d3\u05e2 \u05d6\u05e9\u05d0\u05e0\u05e2\u05e8\u05d0","name:right:hy":"\u054c\u056b\u0578 \u0564\u0565 \u053a\u0561\u0576\u0565\u0575\u0580\u0578","name:right:uk":"\u0420\u0456\u043e-\u0434\u0435-\u0416\u0430\u043d\u0435\u0439\u0440\u043e","name:left:he":"\u05e1\u05d0\u05d5 \u05e4\u05d0\u05d5\u05dc\u05d5","name:left:sr":"\u0421\u0430\u043e \u041f\u0430\u0443\u043b\u043e","name:left:wa":"Sawo P\u00e5lo","name:right:hi":"\u0930\u093f\u092f\u094b \u0921\u093f \u091c\u0947\u0928\u0947\u0930\u094b","name:right:lv":"Riode\u017eaneiro","name:left:lt":"San Paulas","name:left:sh":"Sao Paulo","name:left:lv":"Sanpaulu","name:right:gl":"R\u00edo de Xaneiro","name:right:uz":"Rio-de-Janeyro","name:left:sa":"\u0938\u093e\u0913 \u092a\u093e\u0913\u0932\u094b","name:right:he":"\u05e8\u05d9\u05d5 \u05d3\u05d4 \u05d6'\u05e0\u05d9\u05d9\u05e8\u05d5","name:left:hi":"\u0938\u093e\u0913 \u092a\u093e\u0909\u0932\u094b","short_name:left":"SP","name:left:it":"San Paolo","name:left:ce":"\u0421\u0430\u043d-\u041f\u0430\u0443\u043b\u0443","name:right:am":"\u122a\u12ee \u12f4 \u1303\u1294\u12ed\u122e","name:left:gl":"San Paulo","name:left:io":"Sao Paulo","source":"openstreetmap.org","name:right:ar":"\u0631\u064a\u0648 \u062f\u064a \u062c\u0627\u0646\u064a\u0631\u0648","name:left:cv":"\u0421\u0430\u043d-\u041f\u0430\u0443\u043b\u0443","name:right:az":"Rio de Janeyro","name:left":"S\u00e3o Paulo","name:right:mk":"\u0420\u0438\u043e \u0434\u0435 \u0416\u0430\u043d\u0435\u0438\u0440\u043e","name:left:fa":"\u0633\u0627\u0626\u0648\u067e\u0627\u0626\u0648\u0644\u0648","name:left:ka":"\u10e1\u10d0\u10dc-\u10de\u10d0\u10e3\u10da\u10e3","name:right:mn":"\u0420\u0438\u043e-\u0434\u0435-\u0416\u0430\u043d\u0435\u0439\u0440\u043e","name:right:ml":"\u0d31\u0d3f\u0d2f\u0d4b \u0d21\u0d3f \u0d1c\u0d28\u0d40\u0d31\u0d4b","name:left:ko":"\uc0c1\ud30c\uc6b8\ub8e8","name:left:kk":"\u0421\u0430\u043d-\u041f\u0430\u0443\u043b\u0443","name:right:ru":"\u0420\u0438\u043e-\u0434\u0435-\u0416\u0430\u043d\u0435\u0439\u0440\u043e","name:right:es":"R\u00edo de Janeiro","name:left:kv":"\u0421\u0430\u043d-\u041f\u0430\u0443\u043b\u0443","name:left:ru":"\u0421\u0430\u043d-\u041f\u0430\u0443\u043b\u0443","name:right:mr":"\u0930\u093f\u092f\u094b \u0926\u093f \u091c\u093e\u0928\u0947\u0930\u094b","name:right:fy":"Rio de Jan\u00earo","name:right:eo":"Rio-de-\u0134anejro","name:right:el":"\u03a1\u03af\u03bf \u03bd\u03c4\u03b5 \u03a4\u03b6\u03b1\u03bd\u03ad\u03b9\u03c1\u03bf","name:left:am":"\u1233\u12cd \u1353\u12cd\u1209","name:right:lt":"Rio de \u017daneiras","kind":"region","name:right:bn":"\u09b0\u09bf\u0989 \u09a6\u09bf \u099c\u09be\u09a8\u09c7\u0987\u09b0\u09c1","name":"S\u00e3o Paulo - Rio de Janeiro","name:right:ur":"\u0631\u06cc\u0648 \u062f\u06d2 \u062c\u06cc\u0646\u06cc\u0631\u0648","name:right:ba":"\u0420\u0438\u043e-\u0434\u0435-\u0416\u0430\u043d\u0435\u0439\u0440\u043e","min_zoom":8.0,"osm_relation":true,"name:right:be":"\u0420\u044b\u0430-\u0434\u044d-\u0416\u0430\u043d\u044d\u0439\u0440\u0430","name:left:zh":"\u5723\u4fdd\u7f57","name:right:bg":"\u0420\u0438\u043e \u0434\u0435 \u0416\u0430\u043d\u0435\u0439\u0440\u043e","name:right:zh":"\u91cc\u7d04\u71b1\u5167\u76e7","name:left:hy":"\u054d\u0561\u0576 \u054a\u0561\u0578\u0582\u056c\u0578","name:left:uz":"San-Paulu","name:right:ja":"\u30ea\u30aa \u30c7 \u30b8\u30e3\u30cd\u30a4\u30ed","name:right:sq":"Rio de Zhaneiro","name:left:ur":"\u0633\u0627\u0624 \u067e\u0627\u0644\u0648","name:left:ja":"\u30b5\u30f3\u30d1\u30a6\u30ed","id:right":-57963,"name:left:uk":"\u0421\u0430\u043d-\u041f\u0430\u0443\u043b\u0443","name:right:sh":"Rio de \u017daneiro","name:left:ba":"\u0421\u0430\u043d-\u041f\u0430\u0443\u043b\u0443","name:left:be":"\u0421\u0430\u043d-\u041f\u0430\u045e\u043b\u0443","name:left:bg":"\u0421\u0430\u043e \u041f\u0430\u0443\u043b\u043e","name:right:fa":"\u0631\u06cc\u0648\u062f\u0648 \u0698\u0627\u0646\u06cc\u0631\u0648","name:left:ne":"\u0938\u093e\u0913 \u092a\u093e\u0909\u0932\u094b","name:left:ug":"San Pawlo","id":-298204,"name:right":"Rio de Janeiro","name:left:eo":"San-Pa\u016dlo","name:left:el":"\u03a3\u03ac\u03bf \u03a0\u03ac\u03bf\u03bb\u03bf","kind_detail":"4","name:right:ce":"\u0420\u0438\u043e-\u0434\u0435-\u0416\u0430\u043d\u0435\u0439\u0440\u043e","name:left:yo":"Sao Paulo","name:right:tt":"\u0420\u0438\u043e-\u0434\u0435-\u0416\u0430\u043d\u0435\u0439\u0440\u043e","name:right:kk":"\u0420\u0438\u043e-\u0434\u0435-\u0416\u0430\u043d\u0435\u0439\u0440\u043e","name:right:ky":"\u0420\u0438\u043e-\u0434\u0435-\u0416\u0430\u043d\u0435\u0439\u0440\u043e","name:left:yi":"\u05e1\u05d0\u05d5 \u05e4\u05d0\u05d5\u05dc\u05d0","id:left":-298204,"name:left:es":"San Pablo","name:left:os":"\u0421\u0430\u043d-\u041f\u0430\u0443\u043b\u0443","name:right:cv":"\u0420\u0438\u043e-\u0434\u0435-\u0416\u0430\u043d\u0435\u0439\u0440\u043e","name:right:ka":"\u10e0\u10d8\u10dd-\u10d3\u10d4-\u10df\u10d0\u10dc\u10d4\u10d8\u10e0\u10dd","name:right:sr":"\u0420\u0438\u043e \u0434\u0435 \u0416\u0430\u043d\u0435\u0438\u0440\u043e","name:left:ar":"\u0633\u0627\u0648 \u0628\u0627\u0648\u0644\u0648","name:left:mk":"\u0421\u0430\u043e \u041f\u0430\u043e\u043b\u043e","name:left:tr":"\u0421\u0430\u043d \u041f\u0430\u0443\u043b\u0443","name:left:tt":"\u0421\u0430\u043d-\u041f\u0430\u0443\u043b\u0443","name:left:mn":"\u0421\u0430\u043d-\u041f\u0430\u0443\u043b\u0443","name:left:ay":"San Pauluw","name:left:ml":"\u0d38\u0d3e\u0d35\u0d4b \u0d2a\u0d4b\u0d33\u0d4b","name:left:th":"\u0e40\u0e0b\u0e32\u0e40\u0e1b\u0e32\u0e25\u0e39","name:left:mr":"\u0938\u093e\u0913 \u092a\u093e\u0909\u0932\u094b","name:left:tk":"San-Paulu","name:right:th":"\u0e23\u0e35\u0e42\u0e2d\u0e40\u0e14\u0e08\u0e32\u0e40\u0e19\u0e42\u0e23","name:right:ko":"\ub9ac\uc6b0\ub370\uc790\ub124\uc774\ub8e8","name:right:tk":"Rio-de-\u017dane\u00fdro","short_name:right":"RJ","name:left:ta":"\u0b9a\u0bbe\u0bb5\u0bcb \u0baa\u0bbe\u0bb5\u0bc1\u0bb2\u0bcb","name:left:az":"San Paulo","name:right:tg":"\u0420\u0438\u043e-\u0434\u0435-\u0416\u0430\u043d\u0435\u0439\u0440\u043e","name:right:ta":"\u0b87\u0bb0\u0bbf\u0baf\u0bcb \u0b9f\u0bbf \u0b9a\u0bc6\u0ba9\u0bc0\u0bb0\u0bcb","name:right:os":"\u0420\u0438\u043e-\u0434\u0435-\u0416\u0430\u043d\u0435\u0439\u0440\u043e","name:left:tg":"\u0421\u0430\u043d-\u041f\u0430\u0443\u043b\u0443","name:right:pa":"\u0a30\u0a3f\u0a13 \u0a21\u0a40 \u0a1c\u0a28\u0a47\u0a30\u0a4b","sort_rank":256,"maritime_boundary":true,"name:left:pa":"\u0a38\u0a3e\u0a13 \u0a2a\u0a3e\u0a13\u0a32\u0a4b","name:left:bn":"\u09b8\u09be\u0981\u0989 \u09aa\u09be\u0989\u09b2\u09c1","name:left:dv":"\u0790\u07a6\u0787\u07ae \u0795\u07a6\u0787\u07aa\u078d\u07af","name:left:ab":"\u0421\u0430\u043d-\u041f\u0430\u0443\u043b\u0443"},"arcs":[2]},{"type":"LineString","properties":{"name:ka":"\u10e1\u10d0\u10dc-\u10de\u10d0\u10e3\u10da\u10e3","name:ko":"\uc0c1\ud30c\uc6b8\ub8e8","name:cv":"\u0421\u0430\u043d-\u041f\u0430\u0443\u043b\u0443","name:kk":"\u0421\u0430\u043d-\u041f\u0430\u0443\u043b\u0443","name:tt":"\u0421\u0430\u043d-\u041f\u0430\u0443\u043b\u0443","name:kv":"\u0421\u0430\u043d-\u041f\u0430\u0443\u043b\u0443","name:th":"\u0e40\u0e0b\u0e32\u0e40\u0e1b\u0e32\u0e25\u0e39","name:pa":"\u0a38\u0a3e\u0a13 \u0a2a\u0a3e\u0a13\u0a32\u0a4b","name:os":"\u0421\u0430\u043d-\u041f\u0430\u0443\u043b\u0443","name:ce":"\u0421\u0430\u043d-\u041f\u0430\u0443\u043b\u0443","name:ta":"\u0b9a\u0bbe\u0bb5\u0bcb \u0baa\u0bbe\u0bb5\u0bc1\u0bb2\u0bcb","name:tg":"\u0421\u0430\u043d-\u041f\u0430\u0443\u043b\u0443","source":"openstreetmap.org","sort_rank":256,"name:sr":"\u0421\u0430\u043e \u041f\u0430\u0443\u043b\u043e","name:tr":"\u0421\u0430\u043d \u041f\u0430\u0443\u043b\u0443","name:dv":"\u0790\u07a6\u0787\u07ae \u0795\u07a6\u0787\u07aa\u078d\u07af","name:lv":"Sanpaulu","name:lt":"San Paulas","name:uz":"San-Paulu","name:he":"\u05e1\u05d0\u05d5 \u05e4\u05d0\u05d5\u05dc\u05d5","name:eo":"San-Pa\u016dlo","name:ur":"\u0633\u0627\u0624 \u067e\u0627\u0644\u0648","name:la":"Sanctus Paulus","name:uk":"\u0421\u0430\u043d-\u041f\u0430\u0443\u043b\u0443","name:hy":"\u054d\u0561\u0576 \u054a\u0561\u0578\u0582\u056c\u0578","name:ug":"San Pawlo","name:el":"\u03a3\u03ac\u03bf \u03a0\u03ac\u03bf\u03bb\u03bf","kind":"region","name":"S\u00e3o Paulo","name:tk":"San-Paulu","min_zoom":8.0,"name:yi":"\u05e1\u05d0\u05d5 \u05e4\u05d0\u05d5\u05dc\u05d0","name:yo":"Sao Paulo","name:ay":"San Pauluw","name:az":"San Paulo","name:mr":"\u0938\u093e\u0913 \u092a\u093e\u0909\u0932\u094b","name:ar":"\u0633\u0627\u0648 \u0628\u0627\u0648\u0644\u0648","name:io":"Sao Paulo","name:am":"\u1233\u12cd \u1353\u12cd\u1209","name:it":"San Paolo","name:ml":"\u0d38\u0d3e\u0d35\u0d4b \u0d2a\u0d4b\u0d33\u0d4b","name:ru":"\u0421\u0430\u043d-\u041f\u0430\u0443\u043b\u0443","name:ab":"\u0421\u0430\u043d-\u041f\u0430\u0443\u043b\u0443","id":-298204,"name:mk":"\u0421\u0430\u043e \u041f\u0430\u043e\u043b\u043e","name:fa":"\u0633\u0627\u0626\u0648\u067e\u0627\u0626\u0648\u0644\u0648","name:mn":"\u0421\u0430\u043d-\u041f\u0430\u0443\u043b\u0443","short_name":"SP","kind_detail":"4","name:hi":"\u0938\u093e\u0913 \u092a\u093e\u0909\u0932\u094b","name:zh":"\u5723\u4fdd\u7f57","name:ja":"\u30b5\u30f3\u30d1\u30a6\u30ed","name:sh":"Sao Paulo","name:ne":"\u0938\u093e\u0913 \u092a\u093e\u0909\u0932\u094b","name:sa":"\u0938\u093e\u0913 \u092a\u093e\u0913\u0932\u094b","name:wa":"Sawo P\u00e5lo","name:be":"\u0421\u0430\u043d-\u041f\u0430\u045e\u043b\u0443","name:bg":"\u0421\u0430\u043e \u041f\u0430\u0443\u043b\u043e","name:ba":"\u0421\u0430\u043d-\u041f\u0430\u0443\u043b\u0443","osm_relation":true,"name:bn":"\u09b8\u09be\u0981\u0989 \u09aa\u09be\u0989\u09b2\u09c1","name:gl":"San Paulo","maritime_boundary":true,"name:es":"San Pablo"},"arcs":[3]},{"type":"LineString","properties":{"name:az":"Rio de Janeyro","name:ka":"\u10e0\u10d8\u10dd-\u10d3\u10d4-\u10df\u10d0\u10dc\u10d4\u10d8\u10e0\u10dd","name:mr":"\u0930\u093f\u092f\u094b \u0926\u093f \u091c\u093e\u0928\u0947\u0930\u094b","name:ko":"\ub9ac\uc6b0\ub370\uc790\ub124\uc774\ub8e8","name:cv":"\u0420\u0438\u043e-\u0434\u0435-\u0416\u0430\u043d\u0435\u0439\u0440\u043e","name:ar":"\u0631\u064a\u0648 \u062f\u064a \u062c\u0627\u0646\u064a\u0631\u0648","name:kk":"\u0420\u0438\u043e-\u0434\u0435-\u0416\u0430\u043d\u0435\u0439\u0440\u043e","name:tt":"\u0420\u0438\u043e-\u0434\u0435-\u0416\u0430\u043d\u0435\u0439\u0440\u043e","name:tk":"Rio-de-\u017dane\u00fdro","name:th":"\u0e23\u0e35\u0e42\u0e2d\u0e40\u0e14\u0e08\u0e32\u0e40\u0e19\u0e42\u0e23","name:am":"\u122a\u12ee \u12f4 \u1303\u1294\u12ed\u122e","name:pa":"\u0a30\u0a3f\u0a13 \u0a21\u0a40 \u0a1c\u0a28\u0a47\u0a30\u0a4b","name:os":"\u0420\u0438\u043e-\u0434\u0435-\u0416\u0430\u043d\u0435\u0439\u0440\u043e","name:ml":"\u0d31\u0d3f\u0d2f\u0d4b \u0d21\u0d3f \u0d1c\u0d28\u0d40\u0d31\u0d4b","name:ce":"\u0420\u0438\u043e-\u0434\u0435-\u0416\u0430\u043d\u0435\u0439\u0440\u043e","name:ta":"\u0b87\u0bb0\u0bbf\u0baf\u0bcb \u0b9f\u0bbf \u0b9a\u0bc6\u0ba9\u0bc0\u0bb0\u0bcb","name:tg":"\u0420\u0438\u043e-\u0434\u0435-\u0416\u0430\u043d\u0435\u0439\u0440\u043e","name:mk":"\u0420\u0438\u043e \u0434\u0435 \u0416\u0430\u043d\u0435\u0438\u0440\u043e","name:fa":"\u0631\u06cc\u0648\u062f\u0648 \u0698\u0627\u0646\u06cc\u0631\u0648","name:mn":"\u0420\u0438\u043e-\u0434\u0435-\u0416\u0430\u043d\u0435\u0439\u0440\u043e","short_name":"RJ","sort_rank":256,"kind_detail":"4","name:hi":"\u0930\u093f\u092f\u094b \u0921\u093f \u091c\u0947\u0928\u0947\u0930\u094b","id":-57963,"source":"openstreetmap.org","name:ky":"\u0420\u0438\u043e-\u0434\u0435-\u0416\u0430\u043d\u0435\u0439\u0440\u043e","name:fy":"Rio de Jan\u00earo","name:zh":"\u91cc\u7d04\u71b1\u5167\u76e7","name:sr":"\u0420\u0438\u043e \u0434\u0435 \u0416\u0430\u043d\u0435\u0438\u0440\u043e","name:lv":"Riode\u017eaneiro","name:ja":"\u30ea\u30aa \u30c7 \u30b8\u30e3\u30cd\u30a4\u30ed","name:lt":"Rio de \u017daneiras","name:sh":"Rio de \u017daneiro","name:he":"\u05e8\u05d9\u05d5 \u05d3\u05d4 \u05d6'\u05e0\u05d9\u05d9\u05e8\u05d5","name:eo":"Rio-de-\u0134anejro","name:ur":"\u0631\u06cc\u0648 \u062f\u06d2 \u062c\u06cc\u0646\u06cc\u0631\u0648","name:bn":"\u09b0\u09bf\u0989 \u09a6\u09bf \u099c\u09be\u09a8\u09c7\u0987\u09b0\u09c1","name:la":"Flumen Ianuarii","name:uk":"\u0420\u0456\u043e-\u0434\u0435-\u0416\u0430\u043d\u0435\u0439\u0440\u043e","name:hy":"\u054c\u056b\u0578 \u0564\u0565 \u053a\u0561\u0576\u0565\u0575\u0580\u0578","name:ru":"\u0420\u0438\u043e-\u0434\u0435-\u0416\u0430\u043d\u0435\u0439\u0440\u043e","name:be":"\u0420\u044b\u0430-\u0434\u044d-\u0416\u0430\u043d\u044d\u0439\u0440\u0430","name:ug":"Rio d\u00e9 Jan\u00e9yro","name:bg":"\u0420\u0438\u043e \u0434\u0435 \u0416\u0430\u043d\u0435\u0439\u0440\u043e","name:ba":"\u0420\u0438\u043e-\u0434\u0435-\u0416\u0430\u043d\u0435\u0439\u0440\u043e","osm_relation":true,"name:uz":"Rio-de-Janeyro","name:sq":"Rio de Zhaneiro","name:el":"\u03a1\u03af\u03bf \u03bd\u03c4\u03b5 \u03a4\u03b6\u03b1\u03bd\u03ad\u03b9\u03c1\u03bf","kind":"region","name":"Rio de Janeiro","min_zoom":8.0,"name:gl":"R\u00edo de Xaneiro","maritime_boundary":true,"name:yi":"\u05e8\u05d9\u05d0 \u05d3\u05e2 \u05d6\u05e9\u05d0\u05e0\u05e2\u05e8\u05d0","name:es":"R\u00edo de Janeiro"},"arcs":[4]}]},"roads":{"type":"GeometryCollection","geometries":[{"type":"MultiLineString","properties":{"source":"openstreetmap.org","kind":"ferry","name":"Travessia Praia do Sono - Ancoradouro","sort_rank":355,"landuse_kind":"protected_area","min_zoom":8.0,"id":255975107},"arcs":[[11],[12]]},{"type":"MultiLineString","properties":{"source":"openstreetmap.org","kind":"ferry","name":"Travessia Praia do Sono - Ancoradouro","sort_rank":355,"min_zoom":8.0,"id":255975107},"arcs":[[13],[14]]},{"type":"LineString","properties":{"kind":"major_road","network":"BR","sort_rank":380,"kind_detail":"primary","source":"openstreetmap.org","min_zoom":8.0,"shield_text":"101","ref":"BR-101"},"arcs":[15]},{"type":"LineString","properties":{"kind":"major_road","network":"BR","sort_rank":380,"kind_detail":"primary","source":"openstreetmap.org","min_zoom":8.0,"landuse_kind":"nature_reserve","shield_text":"101","ref":"BR-101"},"arcs":[16]},{"type":"MultiLineString","properties":{"source":"openstreetmap.org","kind":"ferry","name":"Travessia Martins de S\u00e1","sort_rank":355,"landuse_kind":"protected_area","min_zoom":8.0,"id":255975106},"arcs":[[17],[18]]},{"type":"MultiLineString","properties":{"source":"openstreetmap.org","kind":"ferry","name":"Travessia Martins de S\u00e1","sort_rank":355,"min_zoom":8.0,"id":255975106},"arcs":[[19],[20]]},{"type":"LineString","properties":{"kind":"major_road","network":"BR","sort_rank":380,"kind_detail":"primary","source":"openstreetmap.org","min_zoom":8.0,"landuse_kind":"protected_area","shield_text":"101","ref":"BR-101"},"arcs":[21]}]},"earth":{"type":"GeometryCollection","geometries":[{"type":"MultiPolygon","properties":{"sort_rank":10,"source":"naturalearthdata.com","min_zoom":0.0,"kind":"earth","area":40678496162},"arcs":[[[22]]]}]},"landuse":{"type":"GeometryCollection","geometries":[{"type":"Polygon","properties":{"kind":"nature_reserve","area":138382000,"sort_rank":23,"operator":"Governo do Estado de S\u00e3o Paulo","source":"openstreetmap.org","min_zoom":7.0,"tier":2,"id":480875772},"arcs":[[23]]},{"type":"Polygon","properties":{"kind":"nature_reserve","protect_class":"5","area":1471020032,"sort_rank":23,"source":"openstreetmap.org","min_zoom":4.0,"tier":2,"id":493746478},"arcs":[[24]]},{"type":"Polygon","properties":{"kind":"nature_reserve","protect_class":"2","area":1233580032,"sort_rank":23,"operator":"Instituto Chico Mendes de Conserva\u00e7\u00e3o da Biodiversidade","source":"openstreetmap.org","min_zoom":4.0,"tier":2,"id":-2634128,"osm_relation":true},"arcs":[[25]]},{"type":"Polygon","properties":{"kind":"protected_area","protect_class":"5","area":371580992,"sort_rank":17,"operator":"Instituto Chico Mendes de Conserva\u00e7\u00e3o da Biodiversidade","source":"openstreetmap.org","min_zoom":6.0,"tier":2,"id":-3424557,"osm_relation":true},"arcs":[[26]]}]}},"type":"Topology","transform":{"translate":[-45.0,-24.5271348226],"scale":[0.0003433228,0.0003139133]},"arcs":[[[0,1580],[2687,1995],[1409,241]],[[821,3671],[-94,51],[-27,51],[-55,14],[-23,125],[-59,53],[-59,-29],[8,37],[-47,54],[11,25],[-111,21],[-12,23]],[[1505,2693],[-684,978]],[[0,1580],[1505,1113]],[[1505,2693],[1118,836],[163,72],[1310,219]],[[0,3579],[35,5],[20,9],[16,16],[19,41],[14,7],[34,35],[97,62],[80,25],[-19,-76],[41,17],[20,4],[27,1],[28,-12],[13,-26],[11,-30],[17,-19],[51,-1],[40,26],[39,19],[51,-25],[47,20],[54,6],[43,16],[16,44],[1,4],[66,27],[87,14],[80,-2],[45,-20],[44,8],[45,-25],[50,-9],[60,50],[64,109],[51,40],[66,-19],[-27,74],[-66,20],[-73,12],[-53,47],[23,13],[8,10],[2831,0],[0,-4096],[-4096,0],[0,3579]],[[1135,4096],[-10,-8],[-42,-46],[-55,-78],[-13,-6],[-3,40],[11,32],[26,37],[26,29],[60,0]],[[953,4096],[-21,-23],[8,23],[13,0]],[[940,4096],[-8,-23],[21,23]],[[1075,4096],[-26,-29],[-26,-37],[-11,-32],[3,-40],[13,6],[55,78],[42,46],[10,8]],[[1265,4096],[-8,-10],[-23,-13],[53,-47],[73,-12],[66,-20],[27,-74],[-66,19],[-51,-40],[-64,-109],[-60,-50],[-50,9],[-45,25],[-44,-8],[-45,20],[-80,2],[-87,-14],[-66,-27],[-1,-4],[-16,-44],[-43,-16],[-54,-6],[-47,-20],[-51,25],[-39,-19],[-40,-26],[-51,1],[-17,19],[-11,30],[-13,26],[-28,12],[-27,-1],[-20,-4],[-41,-17],[19,76],[-80,-25],[-97,-62],[-34,-35],[-14,-7],[-19,-41],[-16,-16],[-20,-9],[-35,-5]],[[983,3776],[-6,-1]],[[1015,3781],[-24,-4]],[[991,3777],[-8,-1]],[[1074,3790],[-59,-9]],[[586,3706],[-63,-19],[-143,70],[-54,84],[-34,12],[-138,-101],[-16,-74],[-36,-7],[-6,-27],[-96,-27]],[[753,3784],[-167,-78]],[[1071,3758],[-2,-11]],[[1078,3795],[-1,-3]],[[1069,3747],[78,-53],[55,19],[70,80],[35,102]],[[1077,3792],[-6,-34]],[[872,4096],[1,-29],[47,-66],[-49,-105],[-118,-112]],[[1135,4096],[130,0],[-8,-10],[-23,-13],[53,-47],[73,-12],[66,-20],[27,-74],[-66,19],[-51,-40],[-64,-109],[-60,-50],[-50,9],[-45,25],[-44,-8],[-45,20],[-80,2],[-87,-14],[-66,-27],[-1,-4],[-16,-44],[-43,-16],[-54,-6],[-47,-20],[-51,25],[-39,-19],[-40,-26],[-51,1],[-17,19],[-11,30],[-13,26],[-28,12],[-27,-1],[-20,-4],[-41,-17],[19,76],[-80,-25],[-97,-62],[-34,-35],[-14,-7],[-19,-41],[-16,-16],[-20,-9],[-35,-5],[0,517],[940,0],[-8,-23],[21,23],[122,0],[-26,-29],[-26,-37],[-11,-32],[3,-40],[13,6],[55,78],[42,46],[10,8]],[[0,4094],[2,2],[94,0],[15,-11],[10,11],[90,0],[-78,-61],[-65,11],[-23,32],[-45,-23],[0,39]],[[0,3588],[67,2],[81,70],[21,67],[67,25],[36,47],[68,-37],[-22,-83],[62,44],[55,-10],[41,-27],[-11,-59],[98,29],[31,33],[33,-5],[0,-23],[101,38],[76,-5],[88,-125],[-77,-680],[-815,-3],[0,702]],[[240,3877],[25,96],[-16,25],[39,98],[260,0],[-22,-29],[108,-3],[-13,-76],[63,-35],[-11,-32],[54,20],[-13,-87],[62,-111],[41,-15],[-16,-42],[-69,12],[-105,-36],[54,59],[-133,-22],[30,87],[-48,-25],[-29,19],[30,66],[-102,-60],[-12,-32],[-30,4],[-45,77],[21,27],[65,9],[-21,35],[14,37],[-25,-12],[-13,20],[-18,-33],[-19,25],[-54,1],[-31,-37],[60,-32],[-81,2]],[[465,4029],[237,67],[222,0],[11,-14],[-40,-21],[68,26],[5,-4],[-8,-10],[4,-6],[30,29],[115,0],[-111,-162],[24,-31],[34,3],[-26,35],[47,25],[27,76],[68,42],[0,12],[70,0],[-14,-17],[-13,-70],[104,-18],[27,24],[103,-91],[-20,-19],[-55,45],[-35,-56],[-46,2],[-21,-92],[-81,-94],[-16,13],[-30,-26],[0,59],[-31,-9],[-15,37],[-34,-42],[17,46],[-33,22],[-44,-38],[-44,15],[24,-12],[7,-17],[-36,6],[-10,31],[-32,-51],[-42,36],[-47,-16],[-13,-38],[-32,-6],[16,-30],[-69,32],[-27,51],[-55,14],[-23,125],[-59,53],[-59,-29],[8,37],[-47,56]]]}