{"objects":{"water":{"type":"GeometryCollection","geometries":[{"type":"Polygon","properties":{"source":"naturalearthdata.com","kind":"lake","name":"Ngangz Co","area":588341440,"sort_rank":200,"min_zoom":0.0,"id":875},"arcs":[[611]]},{"type":"Polygon","properties":{"source":"naturalearthdata.com","kind":"lake","name":"Tangra Yumco","area":1092639616,"sort_rank":200,"min_zoom":0.0,"id":571},"arcs":[[612]]},{"type":"Polygon","properties":{"source":"naturalearthdata.com","kind":"lake","name":"Siling Co","area":2188776704,"sort_rank":200,"min_zoom":0.0,"id":534},"arcs":[[613]]},{"type":"Polygon","properties":{"source":"naturalearthdata.com","kind":"lake","name":"Langa Co","area":369932736,"sort_rank":200,"min_zoom":0.0,"id":559},"arcs":[[614]]},{"type":"MultiPolygon","properties":{"source":"naturalearthdata.com","kind":"ocean","area":1576712559132672,"sort_rank":200,"min_zoom":0.0,"id":1},"arcs":[[[615]],[[616]],[[617]],[[618]],[[619]],[[620]]]},{"type":"Polygon","properties":{"source":"naturalearthdata.com","kind":"lake","name":"Gyaring Co","area":670922176,"sort_rank":200,"min_zoom":0.0,"id":874},"arcs":[[621]]},{"type":"MultiPolygon","properties":{"sort_rank":200,"source":"naturalearthdata.com","min_zoom":0.0,"kind":"lake","area":9150043145},"arcs":[[[622]],[[623]],[[624]],[[625]],[[626]],[[627]],[[628]],[[629]],[[630]],[[631]],[[632]],[[633]],[[634]],[[635]]]},{"type":"Polygon","properties":{"source":"naturalearthdata.com","kind":"lake","name":"Ngangla Ringeo","area":719657408,"sort_rank":200,"min_zoom":0.0,"id":570},"arcs":[[636]]},{"type":"Polygon","properties":{"source":"naturalearthdata.com","kind":"lake","name":"Mapam Yumco","area":539470784,"sort_rank":200,"min_zoom":0.0,"id":560},"arcs":[[637]]},{"type":"Point","properties":{"label_placement":true,"kind":"lake","name":"Siling Co","area":2188776704,"sort_rank":200,"source":"naturalearthdata.com","min_zoom":0.0,"id":534},"coordinates":[3712,4013]},{"type":"Point","properties":{"label_placement":true,"kind":"lake","name":"Tangra Yumco","area":1092639616,"sort_rank":200,"source":"naturalearthdata.com","min_zoom":0.0,"id":571},"coordinates":[2849,3735]},{"type":"Point","properties":{"label_placement":true,"kind":"lake","name":"Ngangla Ringeo","area":719657408,"sort_rank":200,"source":"naturalearthdata.com","min_zoom":0.0,"id":570},"coordinates":[1560,3930]},{"type":"Point","properties":{"label_placement":true,"kind":"lake","name":"Gyaring Co","area":670922176,"sort_rank":200,"source":"naturalearthdata.com","min_zoom":0.0,"id":874},"coordinates":[3498,3768]},{"type":"Point","properties":{"label_placement":true,"kind":"lake","name":"Ngangz Co","area":588341440,"sort_rank":200,"source":"naturalearthdata.com","min_zoom":0.0,"id":875},"coordinates":[3054,3714]},{"type":"Point","properties":{"label_placement":true,"kind":"lake","name":"Mapam Yumco","area":539470784,"sort_rank":200,"source":"naturalearthdata.com","min_zoom":0.0,"id":560},"coordinates":[995,3573]},{"type":"Point","properties":{"label_placement":true,"kind":"lake","name":"Langa Co","area":369932736,"sort_rank":200,"source":"naturalearthdata.com","min_zoom":0.0,"id":559},"coordinates":[899,3598]},{"type":"MultiLineString","properties":{"source":"naturalearthdata.com","kind":"ocean","sort_rank":205,"boundary":true,"min_zoom":0.0,"id":79},"arcs":[[638],[639],[640],[641],[642],[643],[644],[645],[646],[647],[648],[649]]},{"type":"LineString","properties":{"source":"naturalearthdata.com","kind":"lake","sort_rank":367,"boundary":true,"min_zoom":0.0,"id":534},"arcs":[650]},{"type":"LineString","properties":{"source":"naturalearthdata.com","kind":"lake","sort_rank":367,"boundary":true,"min_zoom":0.0,"id":559},"arcs":[651]},{"type":"LineString","properties":{"source":"naturalearthdata.com","kind":"lake","sort_rank":367,"boundary":true,"min_zoom":0.0,"id":560},"arcs":[652]},{"type":"LineString","properties":{"source":"naturalearthdata.com","kind":"lake","sort_rank":367,"boundary":true,"min_zoom":0.0,"id":570},"arcs":[653]},{"type":"LineString","properties":{"source":"naturalearthdata.com","kind":"lake","sort_rank":367,"boundary":true,"min_zoom":0.0,"id":571},"arcs":[654]},{"type":"LineString","properties":{"source":"naturalearthdata.com","kind":"lake","sort_rank":367,"boundary":true,"min_zoom":0.0,"id":598},"arcs":[655]},{"type":"LineString","properties":{"source":"naturalearthdata.com","kind":"lake","sort_rank":367,"boundary":true,"min_zoom":0.0,"id":622},"arcs":[656]},{"type":"LineString","properties":{"source":"naturalearthdata.com","kind":"lake","sort_rank":367,"boundary":true,"min_zoom":0.0,"id":673},"arcs":[657]},{"type":"LineString","properties":{"source":"naturalearthdata.com","kind":"lake","sort_rank":367,"boundary":true,"min_zoom":0.0,"id":865},"arcs":[658]},{"type":"LineString","properties":{"source":"naturalearthdata.com","kind":"lake","sort_rank":367,"boundary":true,"min_zoom":0.0,"id":866},"arcs":[659]},{"type":"LineString","properties":{"source":"naturalearthdata.com","kind":"lake","sort_rank":367,"boundary":true,"min_zoom":0.0,"id":873},"arcs":[660]},{"type":"LineString","properties":{"source":"naturalearthdata.com","kind":"lake","sort_rank":367,"boundary":true,"min_zoom":0.0,"id":874},"arcs":[661]},{"type":"LineString","properties":{"source":"naturalearthdata.com","kind":"lake","sort_rank":367,"boundary":true,"min_zoom":0.0,"id":875},"arcs":[662]},{"type":"LineString","properties":{"source":"naturalearthdata.com","kind":"lake","sort_rank":367,"boundary":true,"min_zoom":0.0,"id":876},"arcs":[663]},{"type":"LineString","properties":{"source":"naturalearthdata.com","kind":"lake","sort_rank":367,"boundary":true,"min_zoom":0.0,"id":877},"arcs":[664]},{"type":"LineString","properties":{"source":"naturalearthdata.com","kind":"lake","sort_rank":367,"boundary":true,"min_zoom":0.0,"id":878},"arcs":[665]},{"type":"LineString","properties":{"source":"naturalearthdata.com","kind":"lake","sort_rank":367,"boundary":true,"min_zoom":0.0,"id":879},"arcs":[666]},{"type":"LineString","properties":{"source":"naturalearthdata.com","kind":"lake","sort_rank":367,"boundary":true,"min_zoom":0.0,"id":880},"arcs":[667]},{"type":"LineString","properties":{"source":"naturalearthdata.com","kind":"lake","sort_rank":367,"boundary":true,"min_zoom":0.0,"id":881},"arcs":[668]},{"type":"LineString","properties":{"source":"naturalearthdata.com","kind":"lake","sort_rank":367,"boundary":true,"min_zoom":0.0,"id":882},"arcs":[669]},{"type":"LineString","properties":{"source":"naturalearthdata.com","kind":"lake","sort_rank":367,"boundary":true,"min_zoom":0.0,"id":883},"arcs":[670]},{"type":"LineString","properties":{"source":"naturalearthdata.com","kind":"lake","sort_rank":367,"boundary":true,"min_zoom":0.0,"id":884},"arcs":[671]},{"type":"LineString","properties":{"source":"naturalearthdata.com","kind":"ocean","sort_rank":205,"boundary":true,"min_zoom":0.0,"id":1559},"arcs":[672]}]},"buildings":{"type":"GeometryCollection","geometries":[]},"places":{"type":"GeometryCollection","geometries":[{"type":"Point","properties":{"name:ps":"\u0646\u06cc\u067e\u0627\u0644","name:ka":"\u10dc\u10d4\u10de\u10d0\u10da\u10d8","name:ko":"\ub124\ud314","name:cv":"\u041d\u0435\u043f\u0430\u043b","name:km":"\u1793\u17c1\u1794\u17c9\u17b6\u179b\u17cb","name:cs":"Nep\u00e1l","name:ki":"Nepali","name:kv":"\u041d\u0435\u043f\u0430\u043b","name:th":"\u0e1b\u0e23\u0e30\u0e40\u0e17\u0e28\u0e40\u0e19\u0e1b\u0e32\u0e25","name:ti":"\u1294\u1353\u120d","name:ks":"\u0646\u06cc\u067e\u0627\u0644","name:to":"Nepali","name:pa":"\u0a28\u0a47\u0a2a\u0a3e\u0a32","name:os":"\u041d\u0435\u043f\u0430\u043b","name:or":"\u0b28\u0b47\u0b2a\u0b3e\u0b33","name:ce":"\u041d\u0435\u043f\u0430\u043b","name:ta":"\u0ba8\u0bc7\u0baa\u0bbe\u0bb3\u0bae\u0bcd","name:tg":"\u041d\u0435\u043f\u0430\u043b","name:ky":"\u041d\u0435\u043f\u0430\u043b","name:te":"\u0c28\u0c47\u0c2a\u0c3e\u0c32\u0c4d","name:qu":"Nipal","name:sr":"\u041d\u0435\u043f\u0430\u043b","name:dz":"\u0f56\u0f63\u0f0b\u0f61\u0f74\u0f63","source":"openstreetmap.org","name:nv":"Dzi\u0142gaiitsoh Honeezk\u02bcazii Bik\u00e9yah","name:kn":"\u0ca8\u0cc7\u0caa\u0cbe\u0cb3","name:dv":"\u0782\u07ad\u0795\u07a7\u078d\u07b0","name:lv":"Nep\u0101la","name:lt":"Nepalas","name:hi":"\u0928\u0947\u092a\u093e\u0932","name:kk":"\u041d\u0435\u043f\u0430\u043b","name:he":"\u05e0\u05e4\u05d0\u05dc","kind":"country","name:ur":"\u0646\u06cc\u067e\u0627\u0644","name:la":"Nepalia","name:lg":"Nepalo","name:uk":"\u041d\u0435\u043f\u0430\u043b","name:hy":"\u0546\u0565\u057a\u0561\u056c","name:ug":"\u0646\u06d0\u067e\u0627\u0644","name:hu":"Nep\u00e1l","name:ln":"Nep\u00e1l\u025b","name:lo":"\u0ec0\u0e99\u0e9b\u0eb2\u0e99","population":29519114,"name:el":"\u039d\u03b5\u03c0\u03ac\u03bb","name:eo":"Nepalo","name":"Nepal","name:ee":"Nepal nutome","min_zoom":2.0,"name:yi":"\u05e0\u05e2\u05e4\u05d0\u05dc","name:yo":"Or\u00edl\u1eb9\u0301\u00e8de Nepa","name:rn":"Nepali","name:mr":"\u0928\u0947\u092a\u093e\u0933","name:as":"\u09a8\u09c7\u09aa\u09be\u09b2","name:ar":"\u0646\u064a\u0628\u0627\u0644","name:my":"\u1014\u102e\u1015\u1031\u102b","official_name":"Sanghiya Loktantrik Ganatantratmak Nep\u0101l","name:ak":"N\u025bp\u0254l","name:am":"\u1294\u1353\u120d","name:ml":"\u0d28\u0d47\u0d2a\u0d4d\u0d2a\u0d3e\u0d7e","name:ru":"\u041d\u0435\u043f\u0430\u043b","name:rw":"Nepali","id":249399402,"name:mk":"\u041d\u0435\u043f\u0430\u043b","name:vo":"Nepal\u00e4n","name:zu":"i-Nepal","name:ha":"Nefal","name:mn":"\u0411\u0430\u043b\u0431\u0430","name:ff":"Nepaal","name:mg":"Nepala","name:fr":"N\u00e9pal","name:zh-yue":"\u5c3c\u6cca\u723e","name:pi":"\u0928\u0947\u092a\u093e\u0932","name:zh":"\u5c3c\u6cca\u5c14","name:so":"Nebaal","name:sk":"Nep\u00e1l","name:ja":"\u30cd\u30d1\u30fc\u30eb","name:si":"\u0db1\u0dda\u0db4\u0dcf\u0dbd\u0dba","name:fa":"\u0646\u067e\u0627\u0644","name:sg":"N\u00ebp\u00e2li","name:na":"Nepar","name:sd":"\u0646\u064a\u067e\u0627\u0644","name:ne":"\u0928\u0947\u092a\u093e\u0932","name:sa":"\u0928\u0947\u092a\u093e\u0932\u0926\u0947\u0936\u0903","name:bm":"Nepali","name:bn":"\u09a8\u09c7\u09aa\u09be\u09b2","name:bo":"\u0f56\u0f62\u0f0b\u0f61\u0f74\u0f63\u0f0b","name:sw":"Nepali","name:be":"\u041d\u0435\u043f\u0430\u043b","name:bg":"\u041d\u0435\u043f\u0430\u043b","name:ss":"INephali","name:ba":"\u041d\u0435\u043f\u0430\u043b","name:sq":"Nepali","name:ga":"Neipeal","name:gd":"Neap\u00e0l","name:wo":"Nepaal","name:gv":"Nepaal","name:gu":"\u0aa8\u0ac7\u0aaa\u0abe\u0ab3","name:tt":"\u041d\u0435\u043f\u0430\u043b"},"coordinates":[1945,2523]},{"type":"Point","properties":{"source":"naturalearthdata.com","kind":"locality","name":"Kolkata","population":14787000,"region_capital":true,"min_zoom":2.0,"id":7284},"coordinates":[3485,227]},{"type":"Point","properties":{"source":"naturalearthdata.com","kind":"locality","name":"Kanpur","population":3162000,"min_zoom":4.0,"id":7199},"coordinates":[571,1849]},{"type":"Point","properties":{"source":"naturalearthdata.com","kind":"locality","name":"Patna","population":2158000,"region_capital":true,"min_zoom":4.0,"id":7200},"coordinates":[2322,1508]},{"type":"Point","properties":{"admin_level":"4","kind":"region","name:en":"Samtse District","name":"\u0f56\u0f66\u0f58\u0f0b\u0f62\u0fa9\u0f7a\u0f0b\u0f62\u0fab\u0f7c\u0f44\u0f0b\u0f41\u0f42\u0f0b","kind_detail":"state","name:de":"Samtse","source":"openstreetmap.org","min_zoom":4.0,"name:ru":"\u0421\u0430\u043c\u0446\u0435","id":4353326227,"name:ja":"\u30b5\u30e0\u30c4\u30a7"},"coordinates":[3737,2084]},{"type":"Point","properties":{"kind":"region","name":"Bihar","name:hi":"\u092c\u093f\u0939\u093e\u0930","kind_detail":"state","name:eo":"Biharo","source":"openstreetmap.org","min_zoom":4.0,"name:uk":"\u0411\u0456\u0445\u0430\u0440","name:kn":"\u0cac\u0cbf\u0cb9\u0cbe\u0cb0","name:ru":"\u0411\u0438\u0445\u0430\u0440","name:hu":"Bih\u00e1r","id":2240945362,"name:ja":"\u30d3\u30cf\u30fc\u30eb"},"coordinates":[2606,1515]},{"type":"Point","properties":{"kind":"region","name":"West Bengal","name:hi":"\u092a\u0936\u094d\u091a\u093f\u092e \u092c\u0902\u0917\u093e\u0932","kind_detail":"state","name:eo":"Okcidenta Bengalio","name:fr":"Bengale occidental","source":"openstreetmap.org","name:bn":"\u09aa\u09b6\u09cd\u099a\u09bf\u09ae\u09ac\u0999\u09cd\u0997","name:uk":"\u0417\u0430\u0445\u0456\u0434\u043d\u0438\u0439 \u0411\u0435\u043d\u0433\u0430\u043b","name:kn":"\u0caa\u0cb6\u0ccd\u0c9a\u0cbf\u0cae \u0cac\u0c82\u0c97\u0cbe\u0cb3","name:ru":"\u0417\u0430\u043f\u0430\u0434\u043d\u0430\u044f \u0411\u0435\u043d\u0433\u0430\u043b\u0438\u044f","min_zoom":4.0,"name:hu":"Nyugat-Beng\u00e1l","id":2240991970,"name:ja":"\u897f\u30d9\u30f3\u30ac\u30eb"},"coordinates":[3253,431]},{"type":"Point","properties":{"admin_level":"4","kind":"region","name:en":"Khulna Division","name":"\u0996\u09c1\u09b2\u09a8\u09be \u09ac\u09bf\u09ad\u09be\u0997","kind_detail":"state","name:de":"Division Khulna","source":"openstreetmap.org","min_zoom":4.0,"id":4354647294,"name:ja":"\u30af\u30eb\u30ca"},"coordinates":[3836,407]},{"type":"Point","properties":{"admin_level":"4","kind":"region","name:en":"Rajshahi Division","name":"\u09b0\u09be\u099c\u09b6\u09be\u09b9\u09c0 \u09ac\u09bf\u09ad\u09be\u0997","kind_detail":"state","name:de":"Division Rajshahi","source":"openstreetmap.org","min_zoom":4.0,"id":4353304997,"name:ja":"\u30e9\u30b8\u30b7\u30e3\u30d2"},"coordinates":[3619,1030]},{"type":"Point","properties":{"admin_level":"4","kind":"region","name:en":"Eastern Development Region","name":"\u092a\u0941\u0930\u094d\u0935\u093e\u091e\u094d\u091a\u0932 \u0935\u093f\u0915\u093e\u0938 \u0915\u094d\u0937\u0947\u0924\u094d\u0930","kind_detail":"state","name:de":"Entwicklungsregion Ost","source":"openstreetmap.org","min_zoom":4.0,"int_name":"Eastern Development Region","name:ru":"\u0412\u043e\u0441\u0442\u043e\u0447\u043d\u044b\u0439 \u0440\u0435\u0433\u0438\u043e\u043d","id":4353346868,"name:ja":"\u6771\u90e8\u958b\u767a\u533a\u57df"},"coordinates":[3152,2240]},{"type":"Point","properties":{"admin_level":"4","kind":"region","name:en":"Haa District","name":"\u0f67\u0f71\u0f0b\u0f62\u0fab\u0f7c\u0f44\u0f0b\u0f41\u0f42\u0f0b","kind_detail":"state","name:de":"Haa","source":"openstreetmap.org","min_zoom":4.0,"name:ru":"Xaa","id":4353316628,"name:ja":"\u30cf"},"coordinates":[3818,2217]},{"type":"Point","properties":{"admin_level":"4","kind":"region","name:en":"Chukha District","name":"\u0f46\u0f74\u0f0b\u0f41\u0f0b\u0f62\u0fab\u0f7c\u0f44\u0f0b\u0f41\u0f42\u0f0b","kind_detail":"state","name:de":"Chukha","source":"openstreetmap.org","min_zoom":4.0,"id":4353311789,"name:ja":"\u30c1\u30e5\u30ab"},"coordinates":[3869,2046]},{"type":"Point","properties":{"admin_level":"4","kind":"region","name:en":"Dagana District","name":"\u0f51\u0f62\u0f0b\u0f51\u0f40\u0f62\u0f0b\u0f53\u0f0b\u0f62\u0fab\u0f7c\u0f44\u0f0b\u0f41\u0f42\u0f0b","kind_detail":"state","name:de":"Dagana","source":"openstreetmap.org","min_zoom":4.0,"id":4353314828,"name:ja":"\u30c0\u30ac\u30ca"},"coordinates":[4031,2099]},{"type":"Point","properties":{"admin_level":"4","kind":"region","name:en":"Paro District","name":"\u0f66\u0fa4\u0f0b\u0f62\u0f7c\u0f0b\u0f62\u0fab\u0f7c\u0f44\u0f0b\u0f41\u0f42\u0f0b","kind_detail":"state","name:de":"Paro","source":"openstreetmap.org","min_zoom":4.0,"name:ru":"\u041f\u0430\u0440\u043e","id":4353319279,"name:ja":"\u30d1\u30ed"},"coordinates":[3848,2260]},{"type":"Point","properties":{"admin_level":"4","kind":"region","name:en":"Thimphu District","name":"\u0f50\u0f72\u0f58\u0f0b\u0f55\u0f74\u0f0b\u0f62\u0fab\u0f7c\u0f44\u0f0b\u0f41\u0f42\u0f0b","kind_detail":"state","name:de":"Thimphu","source":"openstreetmap.org","min_zoom":4.0,"name:ru":"\u0422\u0445\u0438\u043c\u043f\u0445\u0443","id":4353325729,"name:ja":"\u30c6\u30a3\u30f3\u30d7\u30fc"},"coordinates":[3933,2298]},{"type":"Point","properties":{"admin_level":"4","kind":"region","name:en":"Wangdue Phodrang District","name":"\u0f51\u0f56\u0f44\u0f0b\u0f60\u0f51\u0f74\u0f66\u0f0b\u0f55\u0f7c\u0f0b\u0f56\u0fb2\u0f44\u0f0b\u0f62\u0fab\u0f7c\u0f44\u0f0b\u0f41\u0f42\u0f0b","kind_detail":"state","name:de":"Wangdue Phodrang","source":"openstreetmap.org","min_zoom":4.0,"name:ru":"\u0412\u0430\u043d\u0433\u0434\u0438-\u041f\u0445\u043e\u0434\u0440\u0430\u043d\u0433","id":4353339390,"name:ja":"\u30ef\u30f3\u30c7\u30fb\u30dd\u30c9\u30e9\u30f3"},"coordinates":[4080,2292]},{"type":"Point","properties":{"admin_level":"4","kind":"region","name:en":"Punakha District","name":"\u0f66\u0fa4\u0f74\u0f0b\u0f53\u0f0b\u0f41\u0f0b\u0f62\u0fab\u0f7c\u0f44\u0f0b\u0f41\u0f42\u0f0b","kind_detail":"state","name:de":"Punakha","source":"openstreetmap.org","min_zoom":4.0,"id":4353323820},"coordinates":[3990,2343]},{"type":"Point","properties":{"admin_level":"4","kind":"region","name:en":"Gasa District","name":"\u0f58\u0f42\u0f62\u0f0b\u0f66\u0f0b\u0f62\u0fab\u0f7c\u0f44\u0f0b\u0f41\u0f42\u0f0b","kind_detail":"state","name:de":"Gasa","source":"openstreetmap.org","min_zoom":4.0,"name:ru":"\u0413\u0430\u0441\u0430","id":4353314874,"name:ja":"\u30ac\u30b5"},"coordinates":[4019,2446]},{"type":"Point","properties":{"kind":"region","name":"Uttarakhand","name:hi":"\u0909\u0924\u094d\u0924\u0930\u093e\u0916\u0923\u094d\u0921","kind_detail":"state","name:eo":"Utarakando","source":"openstreetmap.org","min_zoom":4.0,"name:kn":"\u0c89\u0ca4\u0ccd\u0ca4\u0cb0\u0cbe\u0c96\u0c82\u0ca1","id":2240945388},"coordinates":[124,3314]},{"type":"Point","properties":{"admin_level":"4","kind":"region","name:en":"Far-Western Development Region","name":"\u0938\u0941\u0926\u0941\u0930 \u092a\u0936\u094d\u091a\u093f\u092e\u093e\u091e\u094d\u091a\u0932 \u0935\u093f\u0915\u093e\u0938 \u0915\u094d\u0937\u0947\u0924\u094d\u0930","kind_detail":"state","name:de":"Entwicklungsregion Fernwest","source":"openstreetmap.org","min_zoom":4.0,"int_name":"Far-Western Development Region","name:ru":"\u0414\u0430\u043b\u044c\u043d\u0435\u0437\u0430\u043f\u0430\u0434\u043d\u044b\u0439 \u0440\u0435\u0433\u0438\u043e\u043d","id":4353360396,"name:ja":"\u6975\u897f\u90e8\u958b\u767a\u533a\u57df"},"coordinates":[676,3122]},{"type":"Point","properties":{"admin_level":"4","kind":"region","name:en":"Mid-Western Development Region","name":"\u092e\u0927\u094d\u092f-\u092a\u0936\u094d\u091a\u093f\u092e\u093e\u091e\u094d\u091a\u0932 \u0935\u093f\u0915\u093e\u0938 \u0915\u094d\u0937\u0947\u0924\u094d\u0930","kind_detail":"state","name:de":"Entwicklungsregion Mittelwest","source":"openstreetmap.org","min_zoom":4.0,"int_name":"Mid-Western Development Region","name:ru":"\u0421\u0440\u0435\u0434\u043d\u0435\u0437\u0430\u043f\u0430\u0434\u043d\u044b\u0439 \u0440\u0435\u0433\u0438\u043e\u043d","id":4353359686},"coordinates":[1070,2740]},{"type":"Point","properties":{"admin_level":"4","kind":"region","name:en":"Western Development Region","name":"\u092a\u0936\u094d\u091a\u093f\u092e\u093e\u091e\u094d\u091a\u0932 \u0935\u093f\u0915\u093e\u0938 \u0915\u094d\u0937\u0947\u0924\u094d\u0930","kind_detail":"state","name:de":"Entwicklungsregion West","source":"openstreetmap.org","min_zoom":4.0,"int_name":"Western Development Region","name:ru":"\u0417\u0430\u043f\u0430\u0434\u043d\u044b\u0439 \u0440\u0435\u0433\u0438\u043e\u043d","id":4353358280,"name:ja":"\u897f\u90e8\u958b\u767a\u533a\u57df"},"coordinates":[1731,2748]},{"type":"Point","properties":{"admin_level":"4","kind":"region","name:en":"Rangpur Division","name":"\u09b0\u0982\u09aa\u09c1\u09b0 \u09ac\u09bf\u09ad\u09be\u0997","kind_detail":"state","name:de":"Division Rangpur","source":"openstreetmap.org","min_zoom":4.0,"id":4344821767,"name:ja":"\u30ed\u30f3\u30d7\u30fc\u30eb"},"coordinates":[3730,1592]},{"type":"Point","properties":{"kind":"region","name":"Uttar Pradesh","name:hi":"\u0909\u0924\u094d\u0924\u0930 \u092a\u094d\u0930\u0926\u0947\u0936","kind_detail":"state","name:eo":"Utar-Prade\u015do","name:ur":"\u0627\u062a\u0631 \u067e\u0631\u062f\u06cc\u0634","source":"openstreetmap.org","min_zoom":4.0,"name:uk":"\u0423\u0442\u0442\u0430\u0440-\u041f\u0440\u0430\u0434\u0435\u0448","name:kn":"\u0c89\u0ca4\u0ccd\u0ca4\u0cb0 \u0caa\u0ccd\u0cb0\u0ca6\u0cc7\u0cb6","name:ru":"\u0423\u0442\u0442\u0430\u0440-\u041f\u0440\u0430\u0434\u0435\u0448","name:hu":"Uttar Prades","id":2240945383,"name:ja":"\u30a6\u30c3\u30bf\u30eb\u30fb\u30d7\u30e9\u30c7\u30fc\u30b7\u30e5"},"coordinates":[768,2123]},{"type":"Point","properties":{"kind":"region","name:hu":"Dzsh\u00e1rkhand","name":"Jharkhand","name:hi":"\u091d\u093e\u0930\u0916\u0923\u094d\u0921","kind_detail":"state","name:eo":"\u011charkhando","source":"openstreetmap.org","min_zoom":4.0,"name:uk":"\u0414\u0436\u0445\u0430\u0440\u043a\u0445\u0430\u043d\u0434","name:kn":"\u0c9c\u0cbe\u0cb0\u0c96\u0c82\u0ca1","name:ru":"\u0414\u0436\u0430\u0440\u043a\u0445\u0430\u043d\u0434","name:ta":"\u0b9a\u0bbe\u0bb0\u0bcd\u0b95\u0bcd\u0b95\u0ba3\u0bcd\u0b9f\u0bcd","id":2240991958,"name:ja":"\u30b8\u30e3\u30fc\u30eb\u30ab\u30f3\u30c9"},"coordinates":[2369,619]},{"type":"Point","properties":{"source":"naturalearthdata.com","kind":"locality","name":"Lucknow","population":2695000,"region_capital":true,"min_zoom":5.0,"id":6631},"coordinates":[788,2011]},{"type":"Point","properties":{"source":"naturalearthdata.com","kind":"locality","name":"Khulna","population":1553000,"region_capital":true,"min_zoom":5.0,"id":6722},"coordinates":[3935,368]},{"type":"Point","properties":{"source":"naturalearthdata.com","kind":"locality","name":"Varanasi","population":1352000,"min_zoom":5.0,"id":7000},"coordinates":[1547,1387]},{"type":"Point","properties":{"source":"naturalearthdata.com","kind":"locality","name":"Asansol","population":1328000,"min_zoom":5.0,"id":7001},"coordinates":[2997,713]},{"type":"Point","properties":{"source":"naturalearthdata.com","kind":"locality","name":"Jamshedpur","population":1300000,"min_zoom":5.0,"id":6773},"coordinates":[2711,346]},{"type":"Point","properties":{"source":"naturalearthdata.com","kind":"locality","name":"Jabalpur","population":1285000,"min_zoom":5.0,"id":6636},"coordinates":[438,505]},{"type":"Point","properties":{"source":"naturalearthdata.com","kind":"locality","name":"Dhanbad","population":1246000,"min_zoom":5.0,"id":6202},"coordinates":[2792,761]},{"type":"Point","properties":{"source":"naturalearthdata.com","kind":"locality","name":"Allahabad","population":1201000,"min_zoom":5.0,"id":6196},"coordinates":[1124,1438]},{"type":"Point","properties":{"source":"naturalearthdata.com","kind":"locality","name":"Ranchi","population":1044000,"region_capital":true,"min_zoom":5.0,"id":6633},"coordinates":[2395,585]},{"type":"Point","properties":{"source":"naturalearthdata.com","kind":"locality","name":"Kathmandu","country_capital":true,"population":895000,"min_zoom":5.0,"id":6856},"coordinates":[2390,2364]},{"type":"Point","properties":{"source":"naturalearthdata.com","kind":"locality","name":"Rajshahi","population":810000,"region_capital":true,"min_zoom":5.0,"id":6752},"coordinates":[3587,996]},{"type":"Point","properties":{"source":"naturalearthdata.com","kind":"locality","name":"Moradabad","population":787000,"min_zoom":5.0,"id":6197},"coordinates":[2,2824]},{"type":"Point","properties":{"source":"naturalearthdata.com","kind":"locality","name":"Bhagalpur","population":361548,"min_zoom":5.0,"id":6634},"coordinates":[2996,1345]},{"type":"Point","properties":{"source":"naturalearthdata.com","kind":"locality","name":"Thimphu","country_capital":true,"population":98676,"min_zoom":5.0,"id":7077},"coordinates":[3965,2263]},{"type":"Point","properties":{"source":"naturalearthdata.com","kind":"locality","name":"Xigaze","population":80000,"min_zoom":5.0,"id":6509},"coordinates":[3689,2990]}]},"transit":{"type":"GeometryCollection","geometries":[]},"pois":{"type":"GeometryCollection","geometries":[{"type":"Point","properties":{"kind":"nature_reserve","protect_class":"5","area":9877550000,"name:ne":"\u0905\u0928\u094d\u0928\u092a\u0941\u0930\u094d\u0923 \u0915\u0928\u091c\u0930\u094d\u0935\u0947\u0936\u0928 \u090f\u0930\u093f\u092f\u093e","source":"openstreetmap.org","min_zoom":5.66,"tier":2,"id":-4497739,"osm_relation":true,"name":"Annapurna Conservation Area"},"coordinates":[1904,2801]},{"type":"Point","properties":{"name:ml":"\u0d15\u0d3e\u0d1e\u0d4d\u0d1a\u0d7b\u0d1c\u0d02\u0d17 \u0d26\u0d47\u0d36\u0d40\u0d2f\u0d4b\u0d26\u0d4d\u0d2f\u0d3e\u0d28\u0d02","name:pt":"Parque Nacional de Khangchendzonga","name:nl":"Nationaal park Khangchendzonga","name:ka":"\u10d9\u10d0\u10dc\u10e9\u10d4\u10dc\u10ef\u10d0\u10dc\u10d2\u10d8\u10e1 \u10d4\u10e0\u10dd\u10d5\u10dc\u10e3\u10da\u10d8 \u10de\u10d0\u10e0\u10d9\u10d8","name:lt":"Kan\u010dend\u017eangos nacionalinis parkas","min_zoom":5.24,"name:uk":"\u041d\u0430\u0446\u0456\u043e\u043d\u0430\u043b\u044c\u043d\u0438\u0439 \u043f\u0430\u0440\u043a \u041a\u0430\u043d\u0447\u0435\u043d\u0434\u0436\u0430\u043d\u0491\u0430","name:pa":"\u0a15\u0a70\u0a1a\u0a28\u0a1c\u0a70\u0a17\u0a3e \u0a30\u0a3e\u0a38\u0a3c\u0a1f\u0a30\u0a40 \u0a2a\u0a3e\u0a30\u0a15","tier":1,"name:ru":"\u041a\u0430\u043d\u0447\u0435\u043d\u0434\u0436\u0430\u043d\u0433\u0430 (\u043d\u0430\u0446\u0438\u043e\u043d\u0430\u043b\u044c\u043d\u044b\u0439 \u043f\u0430\u0440\u043a)","name:ta":"\u0b95\u0b9e\u0bcd\u0b9a\u0ba9\u0bcd\u0b9a\u0bc1\u0b99\u0bcd\u0b95\u0bbe \u0ba4\u0bc7\u0b9a\u0bbf\u0baf\u0baa\u0bcd \u0baa\u0bc2\u0b99\u0bcd\u0b95\u0bbe","name:hr":"Nacionalni park Khangchendzonga","id":-3895850,"osm_relation":true,"name":"Khangchendzonga National Park","name:vi":"V\u01b0\u1eddn qu\u1ed1c gia Khangchendzonga","kind":"national_park","protect_class":"2","area":2208800000,"name:fi":"Khangchendzongan kansallispuisto","name:de":"Kangchendz\u00f6nga-Nationalpark","source":"openstreetmap.org","name:fr":"Parc national de Khangchendzonga","name:nn":"Kantjendjunga nasjonalpark","name:es":"Parque nacional de Khangchendzonga"},"coordinates":[3472,2338]},{"type":"Point","properties":{"kind":"national_park","protect_class":"2","area":1457910000,"name:de":"Sagarmatha-Nationalpark","source":"openstreetmap.org","min_zoom":5.54,"tier":1,"id":-3531450,"osm_relation":true,"name":"Sagarmatha National Park"},"coordinates":[2913,2455]},{"type":"Point","properties":{"kind":"national_park","protect_class":"2","area":2335250000,"name:de":"Langtang-Nationalpark","source":"openstreetmap.org","min_zoom":5.2,"tier":1,"id":-1268964,"osm_relation":true,"name":"Langtang National Park"},"coordinates":[2493,2550]}]},"boundaries":{"type":"GeometryCollection","geometries":[{"type":"MultiLineString","properties":{"source":"naturalearthdata.com","kind":"country","sort_rank":262,"kind_detail":"2","min_zoom":0.0,"id":187},"arcs":[[0],[1],[2],[3]]},{"type":"LineString","properties":{"source":"naturalearthdata.com","kind":"country","sort_rank":262,"kind_detail":"2","min_zoom":0.0,"id":295},"arcs":[4]},{"type":"LineString","properties":{"source":"naturalearthdata.com","kind":"country","sort_rank":262,"kind_detail":"2","min_zoom":0.0,"id":9},"arcs":[5]},{"type":"MultiLineString","properties":{"source":"naturalearthdata.com","kind":"country","sort_rank":262,"kind_detail":"2","min_zoom":0.0,"id":152},"arcs":[[6],[7],[8],[9],[10],[11],[12],[13]]},{"type":"MultiLineString","properties":{"source":"naturalearthdata.com","kind":"disputed","sort_rank":261,"kind_detail":"2","min_zoom":0.0,"id":413},"arcs":[[14],[15],[16],[17]]},{"type":"MultiLineString","properties":{"source":"naturalearthdata.com","kind":"disputed","sort_rank":261,"kind_detail":"2","min_zoom":0.0,"id":414},"arcs":[[18],[19],[20],[21],[22]]},{"type":"MultiLineString","properties":{"source":"naturalearthdata.com","kind":"country","sort_rank":262,"kind_detail":"2","min_zoom":0.0,"id":145},"arcs":[[23],[24],[25],[26],[27],[28],[29],[30],[31],[32],[33],[34],[35],[36],[37],[38],[39],[40]]},{"type":"MultiLineString","properties":{"source":"naturalearthdata.com","kind":"country","sort_rank":262,"kind_detail":"2","min_zoom":0.0,"id":254},"arcs":[[41],[42],[43],[44],[45],[46],[47],[48],[49],[50],[51],[52],[53],[54],[55],[56],[57],[58],[59],[60],[61],[62],[63],[64],[65],[66],[67],[68],[69],[70],[71],[72],[73],[74],[75],[76],[77],[78],[79],[80],[81],[82],[83],[84],[85],[86],[87],[88],[89],[90],[91],[92],[93],[94],[95],[96],[97],[98],[99],[100],[101],[102],[103],[104],[105],[106],[107],[108],[109],[110],[111],[112],[113],[114],[115],[116],[117],[118],[119],[120],[121],[122],[123]]},{"type":"MultiLineString","properties":{"source":"naturalearthdata.com","kind":"country","sort_rank":262,"kind_detail":"2","min_zoom":0.0,"id":255},"arcs":[[124],[125],[126],[127],[128],[129],[130],[131],[132],[133],[134],[135],[136],[137],[138],[139],[140],[141],[142],[143],[144],[145],[146],[147],[148],[149],[150],[151],[152],[153],[154],[155],[156],[157],[158],[159],[160],[161],[162],[163],[164],[165],[166],[167],[168],[169],[170],[171],[172],[173],[174],[175],[176],[177],[178],[179],[180],[181],[182],[183],[184],[185],[186],[187],[188],[189],[190],[191],[192],[193]]},{"type":"MultiLineString","properties":{"source":"naturalearthdata.com","kind":"country","sort_rank":262,"kind_detail":"2","min_zoom":0.0,"id":409},"arcs":[[194],[195],[196],[197],[198],[199]]},{"type":"MultiLineString","properties":{"source":"naturalearthdata.com","kind":"country","sort_rank":262,"kind_detail":"2","min_zoom":0.0,"id":410},"arcs":[[200],[201],[202],[203],[204]]},{"type":"LineString","properties":{"source":"naturalearthdata.com","kind":"country","sort_rank":262,"kind_detail":"2","min_zoom":0.0,"id":455},"arcs":[205]},{"type":"LineString","properties":{"source":"naturalearthdata.com","kind":"country","sort_rank":262,"kind_detail":"2","min_zoom":0.0,"id":456},"arcs":[206]},{"type":"MultiLineString","properties":{"source":"naturalearthdata.com","kind":"disputed","sort_rank":261,"kind_detail":"2","min_zoom":0.0,"id":457},"arcs":[[207],[208],[209],[210],[211]]},{"type":"LineString","properties":{"source":"naturalearthdata.com","kind":"country","sort_rank":262,"kind_detail":"2","min_zoom":0.0,"id":459},"arcs":[212]},{"type":"MultiLineString","properties":{"source":"naturalearthdata.com","kind":"disputed","sort_rank":261,"kind_detail":"2","min_zoom":0.0,"id":460},"arcs":[[213],[214]]},{"type":"LineString","properties":{"source":"naturalearthdata.com","kind":"disputed","sort_rank":261,"kind_detail":"2","min_zoom":0.0,"id":461},"arcs":[215]},{"type":"MultiLineString","properties":{"source":"naturalearthdata.com","kind":"macroregion","sort_rank":257,"kind_detail":"3","min_zoom":5.5,"id":2964},"arcs":[[216],[217],[218],[219],[220]]},{"type":"MultiLineString","properties":{"source":"naturalearthdata.com","kind":"macroregion","sort_rank":257,"kind_detail":"3","min_zoom":5.5,"id":2966},"arcs":[[221],[222],[223],[224]]},{"type":"MultiLineString","properties":{"source":"naturalearthdata.com","kind":"region","sort_rank":256,"kind_detail":"4","min_zoom":2.0,"id":4827},"arcs":[[225],[226],[227],[228],[229]]},{"type":"MultiLineString","properties":{"source":"naturalearthdata.com","kind":"region","sort_rank":256,"kind_detail":"4","min_zoom":2.0,"id":7455},"arcs":[[230],[231],[232],[233],[234],[235],[236],[237]]},{"type":"LineString","properties":{"source":"naturalearthdata.com","kind":"region","sort_rank":256,"kind_detail":"4","min_zoom":2.0,"id":7457},"arcs":[238]},{"type":"MultiLineString","properties":{"source":"naturalearthdata.com","kind":"region","sort_rank":256,"kind_detail":"4","min_zoom":2.0,"id":7465},"arcs":[[239],[240],[241],[242],[243],[244],[245],[246],[247],[248],[249],[250],[251],[252],[253],[254],[255]]},{"type":"MultiLineString","properties":{"source":"naturalearthdata.com","kind":"region","sort_rank":256,"kind_detail":"4","min_zoom":2.0,"id":1155},"arcs":[[256],[257],[258],[259]]},{"type":"MultiLineString","properties":{"source":"naturalearthdata.com","kind":"region","sort_rank":256,"kind_detail":"4","min_zoom":2.0,"id":1156},"arcs":[[260],[261],[262],[263],[264],[265],[266],[267],[268],[269],[270],[271],[272],[273],[274],[275],[276],[277],[278],[279],[280]]},{"type":"MultiLineString","properties":{"source":"naturalearthdata.com","kind":"region","sort_rank":256,"kind_detail":"4","min_zoom":2.0,"id":1167},"arcs":[[281],[282],[283],[284],[285],[286],[287],[288],[289],[290],[291],[292],[293],[294],[295],[296],[297],[298],[299],[300],[301],[302],[303],[304],[305],[306],[307],[308],[309],[310],[311],[312],[313],[314],[315],[316],[317],[318],[319],[320],[321],[322],[323],[324],[325],[326],[327],[328],[329],[330],[331],[332],[333],[334],[335],[336],[337],[338],[339],[340],[341],[342],[343],[344],[345],[346],[347],[348],[349],[350],[351],[352],[353],[354],[355],[356],[357],[358],[359],[360],[361],[362],[363],[364],[365],[366]]},{"type":"LineString","properties":{"source":"naturalearthdata.com","kind":"region","sort_rank":256,"kind_detail":"4","min_zoom":2.0,"id":1163},"arcs":[367]},{"type":"LineString","properties":{"source":"naturalearthdata.com","kind":"region","sort_rank":256,"kind_detail":"4","min_zoom":2.0,"id":2553},"arcs":[368]},{"type":"MultiLineString","properties":{"source":"naturalearthdata.com","kind":"region","sort_rank":256,"kind_detail":"4","min_zoom":2.0,"id":2554},"arcs":[[369],[370]]},{"type":"LineString","properties":{"source":"naturalearthdata.com","kind":"region","sort_rank":256,"kind_detail":"4","min_zoom":2.0,"id":2555},"arcs":[371]},{"type":"MultiLineString","properties":{"source":"naturalearthdata.com","kind":"region","sort_rank":256,"kind_detail":"4","min_zoom":2.0,"id":2557},"arcs":[[372],[373],[374],[375],[376],[377],[378],[379],[380],[381],[382],[383],[384]]},{"type":"MultiLineString","properties":{"source":"naturalearthdata.com","kind":"macroregion","sort_rank":257,"kind_detail":"3","min_zoom":5.5,"id":2949},"arcs":[[385],[386],[387],[388],[389],[390],[391],[392],[393],[394],[395],[396],[397]]},{"type":"MultiLineString","properties":{"source":"naturalearthdata.com","kind":"macroregion","sort_rank":257,"kind_detail":"3","min_zoom":5.5,"id":2950},"arcs":[[398],[399],[400],[401],[402],[403],[404]]},{"type":"MultiLineString","properties":{"source":"naturalearthdata.com","kind":"macroregion","sort_rank":257,"kind_detail":"3","min_zoom":5.5,"id":2951},"arcs":[[405],[406],[407],[408]]},{"type":"MultiLineString","properties":{"source":"naturalearthdata.com","kind":"macroregion","sort_rank":257,"kind_detail":"3","min_zoom":5.5,"id":2953},"arcs":[[409],[410]]},{"type":"MultiLineString","properties":{"source":"naturalearthdata.com","kind":"macroregion","sort_rank":257,"kind_detail":"3","min_zoom":5.5,"id":2960},"arcs":[[411],[412],[413],[414],[415]]},{"type":"MultiLineString","properties":{"source":"naturalearthdata.com","kind":"macroregion","sort_rank":257,"kind_detail":"3","min_zoom":5.5,"id":2963},"arcs":[[416],[417],[418]]},{"type":"MultiLineString","properties":{"source":"naturalearthdata.com","kind":"macroregion","sort_rank":257,"kind_detail":"3","min_zoom":5.5,"id":2967},"arcs":[[419],[420],[421],[422],[423],[424],[425],[426],[427],[428],[429]]},{"type":"MultiLineString","properties":{"source":"naturalearthdata.com","kind":"region","sort_rank":256,"kind_detail":"4","min_zoom":2.0,"id":4826},"arcs":[[430],[431],[432],[433],[434]]},{"type":"MultiLineString","properties":{"source":"naturalearthdata.com","kind":"region","sort_rank":256,"kind_detail":"4","min_zoom":2.0,"id":7430},"arcs":[[435],[436],[437],[438]]},{"type":"MultiLineString","properties":{"source":"naturalearthdata.com","kind":"region","sort_rank":256,"kind_detail":"4","min_zoom":2.0,"id":7431},"arcs":[[439],[440],[441],[442],[443],[444],[445],[446],[447],[448],[449],[450],[451]]},{"type":"MultiLineString","properties":{"source":"naturalearthdata.com","kind":"region","sort_rank":256,"kind_detail":"4","min_zoom":2.0,"id":7432},"arcs":[[452],[453],[454],[455],[456],[457],[458],[459],[460],[461],[462],[463],[464],[465],[466],[467],[468],[469],[470],[471],[472]]},{"type":"MultiLineString","properties":{"source":"naturalearthdata.com","kind":"region","sort_rank":256,"kind_detail":"4","min_zoom":2.0,"id":7434},"arcs":[[473],[474],[475],[476],[477],[478],[479],[480],[481],[482],[483],[484],[485],[486],[487],[488],[489],[490],[491],[492],[493],[494],[495],[496],[497]]},{"type":"MultiLineString","properties":{"source":"naturalearthdata.com","kind":"region","sort_rank":256,"kind_detail":"4","min_zoom":2.0,"id":7435},"arcs":[[498],[499],[500],[501],[502],[503],[504],[505],[506],[507],[508],[509],[510],[511],[512],[513],[514],[515],[516],[517],[518],[519],[520],[521],[522],[523],[524],[525],[526],[527],[528],[529],[530],[531],[532],[533],[534],[535],[536],[537],[538],[539],[540],[541],[542],[543],[544],[545]]},{"type":"MultiLineString","properties":{"source":"naturalearthdata.com","kind":"region","sort_rank":256,"kind_detail":"4","min_zoom":2.0,"id":7446},"arcs":[[546],[547],[548],[549]]},{"type":"MultiLineString","properties":{"source":"naturalearthdata.com","kind":"region","sort_rank":256,"kind_detail":"4","min_zoom":2.0,"id":7454},"arcs":[[550],[551],[552],[553],[554],[555],[556],[557],[558],[559],[560],[561],[562],[563],[564],[565],[566],[567],[568],[569],[570],[571],[572],[573],[574],[575],[576],[577],[578],[579],[580],[581],[582],[583],[584],[585],[586],[587],[588]]},{"type":"MultiLineString","properties":{"source":"naturalearthdata.com","kind":"region","sort_rank":256,"kind_detail":"4","min_zoom":2.0,"id":7456},"arcs":[[589],[590],[591],[592],[593],[594],[595],[596],[597]]},{"type":"LineString","properties":{"source":"naturalearthdata.com","kind":"region","sort_rank":256,"kind_detail":"4","min_zoom":2.0,"id":7466},"arcs":[598]},{"type":"MultiLineString","properties":{"source":"naturalearthdata.com","kind":"region","sort_rank":256,"kind_detail":"4","min_zoom":2.0,"id":7467},"arcs":[[599],[600],[601],[602],[603]]},{"type":"MultiLineString","properties":{"source":"naturalearthdata.com","kind":"region","sort_rank":256,"kind_detail":"4","min_zoom":2.0,"id":9006},"arcs":[[604],[605],[606],[607],[608],[609],[610]]}]},"roads":{"type":"GeometryCollection","geometries":[{"type":"LineString","properties":{"source":"naturalearthdata.com","kind":"major_road","sort_rank":379,"kind_detail":"secondary","min_zoom":3.0,"id":27059},"arcs":[673]},{"type":"LineString","properties":{"source":"naturalearthdata.com","kind":"major_road","sort_rank":379,"kind_detail":"secondary","min_zoom":4.0,"id":27118},"arcs":[674]},{"type":"LineString","properties":{"source":"naturalearthdata.com","kind":"minor_road","sort_rank":355,"kind_detail":"tertiary","min_zoom":5.0,"id":27199},"arcs":[675]},{"type":"MultiLineString","properties":{"source":"naturalearthdata.com","kind":"major_road","sort_rank":379,"kind_detail":"secondary","min_zoom":4.0,"id":27229},"arcs":[[676],[677],[678],[679]]},{"type":"LineString","properties":{"source":"naturalearthdata.com","kind":"major_road","sort_rank":379,"kind_detail":"secondary","min_zoom":4.0,"id":27249},"arcs":[680]},{"type":"LineString","properties":{"source":"naturalearthdata.com","kind":"major_road","sort_rank":379,"kind_detail":"secondary","min_zoom":4.0,"id":27264},"arcs":[681]},{"type":"LineString","properties":{"source":"naturalearthdata.com","kind":"major_road","sort_rank":379,"kind_detail":"secondary","min_zoom":3.0,"id":27266},"arcs":[682]},{"type":"LineString","properties":{"source":"naturalearthdata.com","kind":"minor_road","sort_rank":355,"kind_detail":"tertiary","min_zoom":5.0,"id":27310},"arcs":[683]},{"type":"LineString","properties":{"source":"naturalearthdata.com","kind":"major_road","sort_rank":379,"kind_detail":"secondary","min_zoom":3.0,"id":27377},"arcs":[684]},{"type":"LineString","properties":{"source":"naturalearthdata.com","kind":"minor_road","sort_rank":355,"kind_detail":"tertiary","min_zoom":5.0,"id":27494},"arcs":[685]},{"type":"LineString","properties":{"source":"naturalearthdata.com","kind":"minor_road","sort_rank":355,"kind_detail":"tertiary","min_zoom":5.0,"id":27571},"arcs":[686]},{"type":"LineString","properties":{"source":"naturalearthdata.com","kind":"minor_road","sort_rank":355,"kind_detail":"tertiary","min_zoom":5.0,"id":27586},"arcs":[687]},{"type":"LineString","properties":{"source":"naturalearthdata.com","kind":"major_road","sort_rank":379,"kind_detail":"secondary","min_zoom":3.0,"id":27741},"arcs":[688]},{"type":"LineString","properties":{"source":"naturalearthdata.com","kind":"major_road","sort_rank":379,"kind_detail":"secondary","min_zoom":3.0,"id":27960},"arcs":[689]},{"type":"LineString","properties":{"source":"naturalearthdata.com","kind":"minor_road","sort_rank":355,"kind_detail":"tertiary","min_zoom":5.0,"id":28009},"arcs":[690]},{"type":"LineString","properties":{"source":"naturalearthdata.com","kind":"major_road","sort_rank":379,"kind_detail":"secondary","min_zoom":3.0,"id":28067},"arcs":[691]},{"type":"LineString","properties":{"source":"naturalearthdata.com","kind":"minor_road","sort_rank":355,"kind_detail":"tertiary","min_zoom":5.0,"id":28142},"arcs":[692]},{"type":"LineString","properties":{"source":"naturalearthdata.com","kind":"minor_road","sort_rank":355,"kind_detail":"tertiary","min_zoom":5.0,"id":28156},"arcs":[693]},{"type":"LineString","properties":{"source":"naturalearthdata.com","kind":"major_road","sort_rank":379,"kind_detail":"secondary","min_zoom":3.0,"id":28208},"arcs":[694]},{"type":"LineString","properties":{"source":"naturalearthdata.com","kind":"minor_road","sort_rank":355,"kind_detail":"tertiary","min_zoom":5.0,"id":28372},"arcs":[695]},{"type":"LineString","properties":{"source":"naturalearthdata.com","kind":"minor_road","sort_rank":355,"kind_detail":"tertiary","min_zoom":5.0,"id":28393},"arcs":[696]},{"type":"LineString","properties":{"source":"naturalearthdata.com","kind":"minor_road","sort_rank":355,"kind_detail":"tertiary","min_zoom":5.0,"id":28627},"arcs":[697]},{"type":"LineString","properties":{"source":"naturalearthdata.com","kind":"minor_road","sort_rank":355,"kind_detail":"tertiary","min_zoom":5.0,"id":28663},"arcs":[698]},{"type":"LineString","properties":{"source":"naturalearthdata.com","kind":"major_road","sort_rank":379,"kind_detail":"secondary","min_zoom":3.0,"id":28776},"arcs":[699]},{"type":"LineString","properties":{"source":"naturalearthdata.com","kind":"minor_road","sort_rank":355,"kind_detail":"tertiary","min_zoom":5.0,"id":28826},"arcs":[700]},{"type":"LineString","properties":{"source":"naturalearthdata.com","kind":"minor_road","sort_rank":355,"kind_detail":"tertiary","min_zoom":5.0,"id":29088},"arcs":[701]},{"type":"LineString","properties":{"source":"naturalearthdata.com","kind":"major_road","sort_rank":379,"kind_detail":"secondary","min_zoom":3.0,"id":29144},"arcs":[702]},{"type":"LineString","properties":{"source":"naturalearthdata.com","kind":"minor_road","sort_rank":355,"kind_detail":"tertiary","min_zoom":5.0,"id":29210},"arcs":[703]},{"type":"LineString","properties":{"source":"naturalearthdata.com","kind":"major_road","sort_rank":379,"kind_detail":"secondary","min_zoom":3.0,"id":29262},"arcs":[704]},{"type":"LineString","properties":{"source":"naturalearthdata.com","kind":"major_road","sort_rank":379,"kind_detail":"secondary","min_zoom":3.0,"id":29378},"arcs":[705]},{"type":"LineString","properties":{"source":"naturalearthdata.com","kind":"minor_road","sort_rank":355,"kind_detail":"tertiary","min_zoom":5.0,"id":29380},"arcs":[706]},{"type":"LineString","properties":{"source":"naturalearthdata.com","kind":"major_road","sort_rank":379,"kind_detail":"secondary","min_zoom":3.0,"id":29394},"arcs":[707]},{"type":"LineString","properties":{"source":"naturalearthdata.com","kind":"minor_road","sort_rank":355,"kind_detail":"tertiary","min_zoom":5.0,"id":29444},"arcs":[708]},{"type":"LineString","properties":{"source":"naturalearthdata.com","kind":"major_road","sort_rank":379,"kind_detail":"secondary","min_zoom":3.0,"id":29472},"arcs":[709]},{"type":"LineString","properties":{"source":"naturalearthdata.com","kind":"major_road","sort_rank":379,"kind_detail":"secondary","min_zoom":3.0,"id":29547},"arcs":[710]},{"type":"LineString","properties":{"source":"naturalearthdata.com","kind":"major_road","sort_rank":379,"kind_detail":"secondary","min_zoom":3.0,"id":29563},"arcs":[711]},{"type":"LineString","properties":{"source":"naturalearthdata.com","kind":"major_road","sort_rank":379,"kind_detail":"secondary","min_zoom":3.0,"id":29586},"arcs":[712]},{"type":"LineString","properties":{"source":"naturalearthdata.com","kind":"major_road","sort_rank":379,"kind_detail":"secondary","min_zoom":3.0,"id":29608},"arcs":[713]},{"type":"LineString","properties":{"source":"naturalearthdata.com","kind":"major_road","sort_rank":379,"kind_detail":"secondary","min_zoom":3.0,"id":29636},"arcs":[714]},{"type":"LineString","properties":{"source":"naturalearthdata.com","kind":"major_road","sort_rank":379,"kind_detail":"secondary","min_zoom":3.0,"id":29640},"arcs":[715]},{"type":"LineString","properties":{"source":"naturalearthdata.com","kind":"minor_road","sort_rank":355,"kind_detail":"tertiary","min_zoom":5.0,"id":29750},"arcs":[716]},{"type":"LineString","properties":{"source":"naturalearthdata.com","kind":"major_road","sort_rank":379,"kind_detail":"secondary","min_zoom":3.0,"id":29754},"arcs":[717]},{"type":"LineString","properties":{"source":"naturalearthdata.com","kind":"minor_road","sort_rank":355,"kind_detail":"tertiary","min_zoom":5.0,"id":29792},"arcs":[718]},{"type":"LineString","properties":{"source":"naturalearthdata.com","kind":"minor_road","kind_detail":"tertiary","sort_rank":355,"landuse_kind":"park","min_zoom":5.0,"id":29798},"arcs":[719]},{"type":"MultiLineString","properties":{"source":"naturalearthdata.com","kind":"minor_road","sort_rank":355,"kind_detail":"tertiary","min_zoom":5.0,"id":29798},"arcs":[[720],[721]]},{"type":"LineString","properties":{"source":"naturalearthdata.com","kind":"major_road","sort_rank":379,"kind_detail":"secondary","min_zoom":3.0,"id":29823},"arcs":[722]},{"type":"LineString","properties":{"source":"naturalearthdata.com","kind":"major_road","sort_rank":379,"kind_detail":"secondary","min_zoom":3.0,"id":29840},"arcs":[723]},{"type":"LineString","properties":{"source":"naturalearthdata.com","kind":"major_road","sort_rank":379,"kind_detail":"secondary","min_zoom":3.0,"id":29919},"arcs":[724]},{"type":"LineString","properties":{"source":"naturalearthdata.com","kind":"major_road","sort_rank":379,"kind_detail":"secondary","min_zoom":3.0,"id":29937},"arcs":[725]},{"type":"LineString","properties":{"source":"naturalearthdata.com","kind":"major_road","sort_rank":379,"kind_detail":"secondary","min_zoom":3.0,"id":29948},"arcs":[726]},{"type":"LineString","properties":{"source":"naturalearthdata.com","kind":"major_road","sort_rank":379,"kind_detail":"secondary","min_zoom":3.0,"id":29968},"arcs":[727]},{"type":"LineString","properties":{"source":"naturalearthdata.com","kind":"major_road","sort_rank":379,"kind_detail":"secondary","min_zoom":3.0,"id":29970},"arcs":[728]},{"type":"LineString","properties":{"source":"naturalearthdata.com","kind":"major_road","sort_rank":379,"kind_detail":"secondary","min_zoom":3.0,"id":29975},"arcs":[729]},{"type":"LineString","properties":{"source":"naturalearthdata.com","kind":"major_road","sort_rank":379,"kind_detail":"secondary","min_zoom":3.0,"id":29977},"arcs":[730]},{"type":"LineString","properties":{"source":"naturalearthdata.com","kind":"major_road","sort_rank":379,"kind_detail":"secondary","min_zoom":3.0,"id":29979},"arcs":[731]},{"type":"LineString","properties":{"source":"naturalearthdata.com","kind":"major_road","sort_rank":379,"kind_detail":"secondary","min_zoom":3.0,"id":30042},"arcs":[732]},{"type":"LineString","properties":{"source":"naturalearthdata.com","kind":"minor_road","kind_detail":"tertiary","sort_rank":355,"landuse_kind":"urban_area","min_zoom":5.0,"id":30134},"arcs":[733]},{"type":"LineString","properties":{"source":"naturalearthdata.com","kind":"minor_road","sort_rank":355,"kind_detail":"tertiary","min_zoom":5.0,"id":30134},"arcs":[734]},{"type":"LineString","properties":{"source":"naturalearthdata.com","kind":"minor_road","kind_detail":"tertiary","sort_rank":355,"landuse_kind":"urban_area","min_zoom":5.0,"id":30135},"arcs":[735]},{"type":"LineString","properties":{"source":"naturalearthdata.com","kind":"major_road","kind_detail":"secondary","sort_rank":379,"landuse_kind":"urban_area","min_zoom":3.0,"id":30136},"arcs":[736]},{"type":"LineString","properties":{"source":"naturalearthdata.com","kind":"major_road","sort_rank":379,"kind_detail":"secondary","min_zoom":3.0,"id":30136},"arcs":[737]},{"type":"LineString","properties":{"source":"naturalearthdata.com","kind":"minor_road","sort_rank":355,"kind_detail":"tertiary","min_zoom":5.0,"id":30207},"arcs":[738]},{"type":"LineString","properties":{"source":"naturalearthdata.com","kind":"minor_road","sort_rank":355,"kind_detail":"tertiary","min_zoom":5.0,"id":30348},"arcs":[739]},{"type":"LineString","properties":{"source":"naturalearthdata.com","kind":"minor_road","sort_rank":355,"kind_detail":"tertiary","min_zoom":5.0,"id":30349},"arcs":[740]},{"type":"LineString","properties":{"source":"naturalearthdata.com","kind":"major_road","sort_rank":379,"kind_detail":"secondary","min_zoom":3.0,"id":30389},"arcs":[741]},{"type":"LineString","properties":{"source":"naturalearthdata.com","kind":"major_road","sort_rank":379,"kind_detail":"secondary","min_zoom":3.0,"id":30415},"arcs":[742]},{"type":"LineString","properties":{"source":"naturalearthdata.com","kind":"minor_road","sort_rank":355,"kind_detail":"tertiary","min_zoom":5.0,"id":30419},"arcs":[743]},{"type":"LineString","properties":{"source":"naturalearthdata.com","kind":"minor_road","kind_detail":"tertiary","sort_rank":355,"landuse_kind":"urban_area","min_zoom":5.0,"id":30439},"arcs":[744]},{"type":"LineString","properties":{"source":"naturalearthdata.com","kind":"minor_road","sort_rank":355,"kind_detail":"tertiary","min_zoom":5.0,"id":30439},"arcs":[745]},{"type":"LineString","properties":{"source":"naturalearthdata.com","kind":"minor_road","sort_rank":355,"kind_detail":"tertiary","min_zoom":5.0,"id":30443},"arcs":[746]},{"type":"LineString","properties":{"source":"naturalearthdata.com","kind":"major_road","sort_rank":379,"kind_detail":"secondary","min_zoom":3.0,"id":30460},"arcs":[747]},{"type":"LineString","properties":{"source":"naturalearthdata.com","kind":"minor_road","sort_rank":355,"kind_detail":"tertiary","min_zoom":5.0,"id":30517},"arcs":[748]},{"type":"LineString","properties":{"source":"naturalearthdata.com","kind":"minor_road","sort_rank":355,"kind_detail":"tertiary","min_zoom":5.0,"id":30540},"arcs":[749]},{"type":"LineString","properties":{"source":"naturalearthdata.com","kind":"major_road","sort_rank":379,"kind_detail":"secondary","min_zoom":3.0,"id":30550},"arcs":[750]},{"type":"LineString","properties":{"source":"naturalearthdata.com","kind":"major_road","sort_rank":379,"kind_detail":"secondary","min_zoom":3.0,"id":30555},"arcs":[751]},{"type":"LineString","properties":{"source":"naturalearthdata.com","kind":"minor_road","sort_rank":355,"kind_detail":"tertiary","min_zoom":5.0,"id":30585},"arcs":[752]},{"type":"LineString","properties":{"source":"naturalearthdata.com","kind":"major_road","sort_rank":379,"kind_detail":"secondary","min_zoom":3.0,"id":30597},"arcs":[753]},{"type":"LineString","properties":{"source":"naturalearthdata.com","kind":"minor_road","sort_rank":355,"kind_detail":"tertiary","min_zoom":5.0,"id":30643},"arcs":[754]},{"type":"LineString","properties":{"source":"naturalearthdata.com","kind":"minor_road","sort_rank":355,"kind_detail":"tertiary","min_zoom":5.0,"id":30672},"arcs":[755]},{"type":"LineString","properties":{"source":"naturalearthdata.com","kind":"minor_road","sort_rank":355,"kind_detail":"tertiary","min_zoom":5.0,"id":30693},"arcs":[756]},{"type":"LineString","properties":{"source":"naturalearthdata.com","kind":"major_road","sort_rank":379,"kind_detail":"secondary","min_zoom":3.0,"id":30698},"arcs":[757]},{"type":"LineString","properties":{"source":"naturalearthdata.com","kind":"minor_road","sort_rank":355,"kind_detail":"tertiary","min_zoom":5.0,"id":30699},"arcs":[758]},{"type":"LineString","properties":{"source":"naturalearthdata.com","kind":"minor_road","sort_rank":355,"kind_detail":"tertiary","min_zoom":5.0,"id":30724},"arcs":[759]},{"type":"LineString","properties":{"source":"naturalearthdata.com","kind":"minor_road","sort_rank":355,"kind_detail":"tertiary","min_zoom":5.0,"id":30752},"arcs":[760]},{"type":"LineString","properties":{"source":"naturalearthdata.com","kind":"minor_road","sort_rank":355,"kind_detail":"tertiary","min_zoom":5.0,"id":30756},"arcs":[761]},{"type":"LineString","properties":{"source":"naturalearthdata.com","kind":"major_road","sort_rank":379,"kind_detail":"secondary","min_zoom":3.0,"id":30834},"arcs":[762]},{"type":"LineString","properties":{"source":"naturalearthdata.com","kind":"minor_road","sort_rank":355,"kind_detail":"tertiary","min_zoom":5.0,"id":30982},"arcs":[763]},{"type":"LineString","properties":{"source":"naturalearthdata.com","kind":"minor_road","sort_rank":355,"kind_detail":"tertiary","min_zoom":5.0,"id":31023},"arcs":[764]},{"type":"LineString","properties":{"source":"naturalearthdata.com","kind":"highway","kind_detail":"motorway","sort_rank":383,"landuse_kind":"urban_area","min_zoom":3.0,"id":31032},"arcs":[765]},{"type":"LineString","properties":{"source":"naturalearthdata.com","kind":"highway","sort_rank":383,"kind_detail":"motorway","min_zoom":3.0,"id":31032},"arcs":[766]},{"type":"LineString","properties":{"source":"naturalearthdata.com","kind":"major_road","kind_detail":"secondary","sort_rank":379,"landuse_kind":"urban_area","min_zoom":3.0,"id":31033},"arcs":[767]},{"type":"LineString","properties":{"source":"naturalearthdata.com","kind":"major_road","kind_detail":"secondary","sort_rank":379,"landuse_kind":"urban_area","min_zoom":3.0,"id":31033},"arcs":[768]},{"type":"LineString","properties":{"source":"naturalearthdata.com","kind":"major_road","sort_rank":379,"kind_detail":"secondary","min_zoom":3.0,"id":31033},"arcs":[769]},{"type":"LineString","properties":{"source":"naturalearthdata.com","kind":"minor_road","sort_rank":355,"kind_detail":"tertiary","min_zoom":5.0,"id":31068},"arcs":[770]},{"type":"LineString","properties":{"source":"naturalearthdata.com","kind":"highway","sort_rank":383,"kind_detail":"motorway","min_zoom":3.0,"id":31086},"arcs":[771]},{"type":"LineString","properties":{"source":"naturalearthdata.com","kind":"highway","kind_detail":"motorway","sort_rank":383,"landuse_kind":"urban_area","min_zoom":3.0,"id":31113},"arcs":[772]},{"type":"MultiLineString","properties":{"source":"naturalearthdata.com","kind":"highway","sort_rank":383,"kind_detail":"motorway","min_zoom":3.0,"id":31113},"arcs":[[773],[774]]},{"type":"LineString","properties":{"source":"naturalearthdata.com","kind":"major_road","sort_rank":379,"kind_detail":"secondary","min_zoom":3.0,"id":31115},"arcs":[775]},{"type":"LineString","properties":{"source":"naturalearthdata.com","kind":"minor_road","kind_detail":"tertiary","sort_rank":355,"landuse_kind":"national_park","min_zoom":5.0,"id":31118},"arcs":[776]},{"type":"LineString","properties":{"source":"naturalearthdata.com","kind":"minor_road","sort_rank":355,"kind_detail":"tertiary","min_zoom":5.0,"id":31118},"arcs":[777]},{"type":"LineString","properties":{"source":"naturalearthdata.com","kind":"minor_road","sort_rank":355,"kind_detail":"tertiary","min_zoom":5.0,"id":31136},"arcs":[778]},{"type":"LineString","properties":{"source":"naturalearthdata.com","kind":"minor_road","sort_rank":355,"kind_detail":"tertiary","min_zoom":5.0,"id":31137},"arcs":[779]},{"type":"LineString","properties":{"source":"naturalearthdata.com","kind":"minor_road","sort_rank":355,"kind_detail":"tertiary","min_zoom":5.0,"id":31145},"arcs":[780]},{"type":"LineString","properties":{"source":"naturalearthdata.com","kind":"minor_road","sort_rank":355,"kind_detail":"tertiary","min_zoom":5.0,"id":31162},"arcs":[781]},{"type":"LineString","properties":{"source":"naturalearthdata.com","kind":"highway","sort_rank":383,"kind_detail":"motorway","min_zoom":3.0,"id":31175},"arcs":[782]},{"type":"LineString","properties":{"source":"naturalearthdata.com","kind":"highway","sort_rank":383,"kind_detail":"motorway","min_zoom":3.0,"id":31176},"arcs":[783]},{"type":"LineString","properties":{"source":"naturalearthdata.com","kind":"major_road","sort_rank":379,"kind_detail":"secondary","min_zoom":3.0,"id":31210},"arcs":[784]},{"type":"LineString","properties":{"source":"naturalearthdata.com","kind":"minor_road","kind_detail":"tertiary","sort_rank":355,"landuse_kind":"national_park","min_zoom":5.0,"id":31214},"arcs":[785]},{"type":"LineString","properties":{"source":"naturalearthdata.com","kind":"minor_road","sort_rank":355,"kind_detail":"tertiary","min_zoom":5.0,"id":31214},"arcs":[786]},{"type":"LineString","properties":{"source":"naturalearthdata.com","kind":"minor_road","sort_rank":355,"kind_detail":"tertiary","min_zoom":5.0,"id":31215},"arcs":[787]},{"type":"LineString","properties":{"source":"naturalearthdata.com","kind":"major_road","kind_detail":"secondary","sort_rank":379,"landuse_kind":"urban_area","min_zoom":4.0,"id":31264},"arcs":[788]},{"type":"LineString","properties":{"source":"naturalearthdata.com","kind":"major_road","sort_rank":379,"kind_detail":"secondary","min_zoom":4.0,"id":31264},"arcs":[789]},{"type":"LineString","properties":{"source":"naturalearthdata.com","kind":"highway","kind_detail":"motorway","sort_rank":383,"landuse_kind":"urban_area","min_zoom":4.0,"id":31268},"arcs":[790]},{"type":"LineString","properties":{"source":"naturalearthdata.com","kind":"highway","kind_detail":"motorway","sort_rank":383,"landuse_kind":"urban_area","min_zoom":4.0,"id":31268},"arcs":[791]},{"type":"LineString","properties":{"source":"naturalearthdata.com","kind":"highway","sort_rank":383,"kind_detail":"motorway","min_zoom":4.0,"id":31268},"arcs":[792]},{"type":"LineString","properties":{"source":"naturalearthdata.com","kind":"major_road","kind_detail":"secondary","sort_rank":379,"landuse_kind":"urban_area","min_zoom":3.0,"id":31269},"arcs":[793]},{"type":"LineString","properties":{"source":"naturalearthdata.com","kind":"highway","kind_detail":"motorway","sort_rank":383,"landuse_kind":"urban_area","min_zoom":3.0,"id":31320},"arcs":[794]},{"type":"MultiLineString","properties":{"source":"naturalearthdata.com","kind":"highway","sort_rank":383,"kind_detail":"motorway","min_zoom":3.0,"id":31320},"arcs":[[795],[796]]},{"type":"LineString","properties":{"source":"naturalearthdata.com","kind":"minor_road","sort_rank":355,"kind_detail":"tertiary","min_zoom":5.0,"id":31327},"arcs":[797]},{"type":"LineString","properties":{"source":"naturalearthdata.com","kind":"highway","sort_rank":383,"kind_detail":"motorway","min_zoom":3.0,"id":31328},"arcs":[798]},{"type":"LineString","properties":{"source":"naturalearthdata.com","kind":"highway","sort_rank":383,"kind_detail":"motorway","min_zoom":3.0,"id":31340},"arcs":[799]},{"type":"LineString","properties":{"source":"naturalearthdata.com","kind":"minor_road","sort_rank":355,"kind_detail":"tertiary","min_zoom":5.0,"id":31350},"arcs":[800]},{"type":"LineString","properties":{"source":"naturalearthdata.com","kind":"highway","sort_rank":383,"kind_detail":"motorway","min_zoom":3.0,"id":31402},"arcs":[801]},{"type":"LineString","properties":{"source":"naturalearthdata.com","kind":"highway","kind_detail":"motorway","sort_rank":383,"landuse_kind":"urban_area","min_zoom":3.0,"id":31403},"arcs":[802]},{"type":"LineString","properties":{"source":"naturalearthdata.com","kind":"highway","sort_rank":383,"kind_detail":"motorway","min_zoom":3.0,"id":31403},"arcs":[803]},{"type":"LineString","properties":{"source":"naturalearthdata.com","kind":"major_road","sort_rank":379,"kind_detail":"secondary","min_zoom":4.0,"id":31458},"arcs":[804]},{"type":"LineString","properties":{"source":"naturalearthdata.com","kind":"highway","sort_rank":383,"kind_detail":"motorway","min_zoom":3.0,"id":31470},"arcs":[805]},{"type":"LineString","properties":{"source":"naturalearthdata.com","kind":"highway","sort_rank":383,"kind_detail":"motorway","min_zoom":3.0,"id":31473},"arcs":[806]},{"type":"LineString","properties":{"source":"naturalearthdata.com","kind":"minor_road","sort_rank":355,"kind_detail":"tertiary","min_zoom":5.0,"id":31510},"arcs":[807]},{"type":"LineString","properties":{"source":"naturalearthdata.com","kind":"highway","sort_rank":383,"kind_detail":"motorway","min_zoom":4.0,"id":31519},"arcs":[808]},{"type":"LineString","properties":{"source":"naturalearthdata.com","kind":"highway","sort_rank":383,"kind_detail":"motorway","min_zoom":3.0,"id":31575},"arcs":[809]},{"type":"LineString","properties":{"source":"naturalearthdata.com","kind":"minor_road","sort_rank":355,"kind_detail":"tertiary","min_zoom":5.0,"id":31678},"arcs":[810]},{"type":"LineString","properties":{"source":"naturalearthdata.com","kind":"minor_road","sort_rank":355,"kind_detail":"tertiary","min_zoom":5.0,"id":31702},"arcs":[811]},{"type":"LineString","properties":{"source":"naturalearthdata.com","kind":"minor_road","kind_detail":"tertiary","sort_rank":355,"landuse_kind":"urban_area","min_zoom":5.0,"id":31772},"arcs":[812]},{"type":"LineString","properties":{"source":"naturalearthdata.com","kind":"minor_road","sort_rank":355,"kind_detail":"tertiary","min_zoom":5.0,"id":31772},"arcs":[813]},{"type":"LineString","properties":{"source":"naturalearthdata.com","kind":"highway","sort_rank":383,"kind_detail":"motorway","min_zoom":4.0,"id":31774},"arcs":[814]},{"type":"LineString","properties":{"source":"naturalearthdata.com","kind":"major_road","kind_detail":"secondary","sort_rank":379,"landuse_kind":"urban_area","min_zoom":3.0,"id":31778},"arcs":[815]},{"type":"LineString","properties":{"source":"naturalearthdata.com","kind":"highway","kind_detail":"motorway","sort_rank":383,"landuse_kind":"urban_area","min_zoom":3.0,"id":31779},"arcs":[816]},{"type":"LineString","properties":{"source":"naturalearthdata.com","kind":"highway","kind_detail":"motorway","sort_rank":383,"landuse_kind":"urban_area","min_zoom":3.0,"id":31779},"arcs":[817]},{"type":"LineString","properties":{"source":"naturalearthdata.com","kind":"highway","sort_rank":383,"kind_detail":"motorway","min_zoom":3.0,"id":31779},"arcs":[818]},{"type":"LineString","properties":{"source":"naturalearthdata.com","kind":"major_road","sort_rank":379,"kind_detail":"secondary","min_zoom":3.0,"id":31827},"arcs":[819]},{"type":"LineString","properties":{"source":"naturalearthdata.com","kind":"highway","kind_detail":"motorway","sort_rank":383,"landuse_kind":"urban_area","min_zoom":3.0,"id":31898},"arcs":[820]},{"type":"LineString","properties":{"source":"naturalearthdata.com","kind":"highway","sort_rank":383,"kind_detail":"motorway","min_zoom":3.0,"id":31898},"arcs":[821]},{"type":"LineString","properties":{"source":"naturalearthdata.com","kind":"major_road","kind_detail":"secondary","sort_rank":379,"landuse_kind":"urban_area","min_zoom":4.0,"id":32102},"arcs":[822]},{"type":"MultiLineString","properties":{"source":"naturalearthdata.com","kind":"major_road","sort_rank":379,"kind_detail":"secondary","min_zoom":4.0,"id":32102},"arcs":[[823],[824]]},{"type":"LineString","properties":{"source":"naturalearthdata.com","kind":"highway","kind_detail":"motorway","sort_rank":383,"landuse_kind":"urban_area","min_zoom":3.0,"id":32107},"arcs":[825]},{"type":"MultiLineString","properties":{"source":"naturalearthdata.com","kind":"highway","sort_rank":383,"kind_detail":"motorway","min_zoom":3.0,"id":32107},"arcs":[[826],[827]]},{"type":"LineString","properties":{"source":"naturalearthdata.com","kind":"minor_road","sort_rank":355,"kind_detail":"tertiary","min_zoom":5.0,"id":32121},"arcs":[828]},{"type":"LineString","properties":{"source":"naturalearthdata.com","kind":"highway","sort_rank":383,"kind_detail":"motorway","min_zoom":3.0,"id":32223},"arcs":[829]},{"type":"LineString","properties":{"source":"naturalearthdata.com","kind":"minor_road","sort_rank":355,"kind_detail":"tertiary","min_zoom":5.0,"id":32267},"arcs":[830]},{"type":"LineString","properties":{"source":"naturalearthdata.com","kind":"major_road","sort_rank":379,"kind_detail":"secondary","min_zoom":4.0,"id":32288},"arcs":[831]},{"type":"LineString","properties":{"source":"naturalearthdata.com","kind":"minor_road","kind_detail":"tertiary","sort_rank":355,"landuse_kind":"urban_area","min_zoom":5.0,"id":32289},"arcs":[832]},{"type":"LineString","properties":{"source":"naturalearthdata.com","kind":"minor_road","sort_rank":355,"kind_detail":"tertiary","min_zoom":5.0,"id":32289},"arcs":[833]},{"type":"LineString","properties":{"source":"naturalearthdata.com","kind":"minor_road","kind_detail":"tertiary","sort_rank":355,"landuse_kind":"urban_area","min_zoom":5.0,"id":32317},"arcs":[834]},{"type":"LineString","properties":{"source":"naturalearthdata.com","kind":"minor_road","sort_rank":355,"kind_detail":"tertiary","min_zoom":5.0,"id":32317},"arcs":[835]},{"type":"LineString","properties":{"source":"naturalearthdata.com","kind":"minor_road","kind_detail":"tertiary","sort_rank":355,"landuse_kind":"national_park","min_zoom":5.0,"id":32318},"arcs":[836]},{"type":"MultiLineString","properties":{"source":"naturalearthdata.com","kind":"minor_road","sort_rank":355,"kind_detail":"tertiary","min_zoom":5.0,"id":32318},"arcs":[[837],[838]]},{"type":"LineString","properties":{"source":"naturalearthdata.com","kind":"major_road","sort_rank":379,"kind_detail":"secondary","min_zoom":4.0,"id":32364},"arcs":[839]},{"type":"LineString","properties":{"source":"naturalearthdata.com","kind":"minor_road","kind_detail":"tertiary","sort_rank":355,"landuse_kind":"urban_area","min_zoom":5.0,"id":32365},"arcs":[840]},{"type":"LineString","properties":{"source":"naturalearthdata.com","kind":"minor_road","sort_rank":355,"kind_detail":"tertiary","min_zoom":5.0,"id":32365},"arcs":[841]},{"type":"LineString","properties":{"source":"naturalearthdata.com","kind":"highway","sort_rank":383,"kind_detail":"motorway","min_zoom":3.0,"id":32441},"arcs":[842]},{"type":"LineString","properties":{"source":"naturalearthdata.com","kind":"minor_road","sort_rank":355,"kind_detail":"tertiary","min_zoom":5.0,"id":32560},"arcs":[843]},{"type":"LineString","properties":{"source":"naturalearthdata.com","kind":"minor_road","sort_rank":355,"kind_detail":"tertiary","min_zoom":5.0,"id":32598},"arcs":[844]},{"type":"LineString","properties":{"source":"naturalearthdata.com","kind":"highway","sort_rank":383,"kind_detail":"motorway","min_zoom":3.0,"id":32660},"arcs":[845]},{"type":"LineString","properties":{"source":"naturalearthdata.com","kind":"major_road","sort_rank":379,"kind_detail":"secondary","min_zoom":4.0,"id":32673},"arcs":[846]},{"type":"LineString","properties":{"source":"naturalearthdata.com","kind":"major_road","sort_rank":379,"kind_detail":"secondary","min_zoom":4.0,"id":32728},"arcs":[847]},{"type":"LineString","properties":{"source":"naturalearthdata.com","kind":"highway","kind_detail":"motorway","sort_rank":383,"landuse_kind":"urban_area","min_zoom":3.0,"id":32747},"arcs":[848]},{"type":"LineString","properties":{"source":"naturalearthdata.com","kind":"highway","sort_rank":383,"kind_detail":"motorway","min_zoom":3.0,"id":32747},"arcs":[849]},{"type":"LineString","properties":{"source":"naturalearthdata.com","kind":"minor_road","sort_rank":355,"kind_detail":"tertiary","min_zoom":5.0,"id":32776},"arcs":[850]},{"type":"LineString","properties":{"source":"naturalearthdata.com","kind":"major_road","sort_rank":379,"kind_detail":"secondary","min_zoom":3.0,"id":32812},"arcs":[851]},{"type":"LineString","properties":{"source":"naturalearthdata.com","kind":"major_road","kind_detail":"secondary","sort_rank":379,"landuse_kind":"national_park","min_zoom":4.0,"id":32899},"arcs":[852]},{"type":"MultiLineString","properties":{"source":"naturalearthdata.com","kind":"major_road","sort_rank":379,"kind_detail":"secondary","min_zoom":4.0,"id":32899},"arcs":[[853],[854]]},{"type":"LineString","properties":{"source":"naturalearthdata.com","kind":"major_road","kind_detail":"secondary","sort_rank":379,"landuse_kind":"urban_area","min_zoom":4.0,"id":33009},"arcs":[855]},{"type":"LineString","properties":{"source":"naturalearthdata.com","kind":"major_road","sort_rank":379,"kind_detail":"secondary","min_zoom":4.0,"id":33009},"arcs":[856]},{"type":"LineString","properties":{"source":"naturalearthdata.com","kind":"major_road","sort_rank":379,"kind_detail":"secondary","min_zoom":4.0,"id":33019},"arcs":[857]},{"type":"MultiLineString","properties":{"source":"naturalearthdata.com","kind":"minor_road","kind_detail":"tertiary","sort_rank":355,"landuse_kind":"urban_area","min_zoom":5.0,"id":33141},"arcs":[[858],[859]]},{"type":"MultiLineString","properties":{"source":"naturalearthdata.com","kind":"minor_road","sort_rank":355,"kind_detail":"tertiary","min_zoom":5.0,"id":33141},"arcs":[[860],[861],[862]]},{"type":"LineString","properties":{"source":"naturalearthdata.com","kind":"minor_road","sort_rank":355,"kind_detail":"tertiary","min_zoom":5.0,"id":33142},"arcs":[863]},{"type":"LineString","properties":{"source":"naturalearthdata.com","kind":"minor_road","sort_rank":355,"kind_detail":"tertiary","min_zoom":5.0,"id":33168},"arcs":[864]},{"type":"LineString","properties":{"source":"naturalearthdata.com","kind":"highway","sort_rank":383,"kind_detail":"motorway","min_zoom":3.0,"id":33180},"arcs":[865]},{"type":"LineString","properties":{"source":"naturalearthdata.com","kind":"major_road","kind_detail":"secondary","sort_rank":379,"landuse_kind":"urban_area","min_zoom":4.0,"id":33269},"arcs":[866]},{"type":"LineString","properties":{"source":"naturalearthdata.com","kind":"major_road","sort_rank":379,"kind_detail":"secondary","min_zoom":4.0,"id":33269},"arcs":[867]},{"type":"LineString","properties":{"source":"naturalearthdata.com","kind":"major_road","kind_detail":"secondary","sort_rank":379,"landuse_kind":"urban_area","min_zoom":3.0,"id":33270},"arcs":[868]},{"type":"LineString","properties":{"source":"naturalearthdata.com","kind":"major_road","sort_rank":379,"kind_detail":"secondary","min_zoom":3.0,"id":33270},"arcs":[869]},{"type":"LineString","properties":{"source":"naturalearthdata.com","kind":"highway","kind_detail":"motorway","sort_rank":383,"landuse_kind":"urban_area","min_zoom":3.0,"id":33324},"arcs":[870]},{"type":"LineString","properties":{"source":"naturalearthdata.com","kind":"highway","kind_detail":"motorway","sort_rank":383,"landuse_kind":"urban_area","min_zoom":3.0,"id":33324},"arcs":[871]},{"type":"LineString","properties":{"source":"naturalearthdata.com","kind":"highway","sort_rank":383,"kind_detail":"motorway","min_zoom":3.0,"id":33324},"arcs":[872]},{"type":"LineString","properties":{"source":"naturalearthdata.com","kind":"major_road","kind_detail":"secondary","sort_rank":379,"landuse_kind":"urban_area","min_zoom":4.0,"id":33326},"arcs":[873]},{"type":"LineString","properties":{"source":"naturalearthdata.com","kind":"major_road","sort_rank":379,"kind_detail":"secondary","min_zoom":4.0,"id":33326},"arcs":[874]},{"type":"LineString","properties":{"source":"naturalearthdata.com","kind":"highway","sort_rank":383,"kind_detail":"motorway","min_zoom":3.0,"id":33327},"arcs":[875]},{"type":"LineString","properties":{"source":"naturalearthdata.com","kind":"major_road","kind_detail":"secondary","sort_rank":379,"landuse_kind":"urban_area","min_zoom":3.0,"id":33330},"arcs":[876]},{"type":"LineString","properties":{"source":"naturalearthdata.com","kind":"major_road","kind_detail":"secondary","sort_rank":379,"landuse_kind":"urban_area","min_zoom":3.0,"id":33334},"arcs":[877]},{"type":"LineString","properties":{"source":"naturalearthdata.com","kind":"minor_road","sort_rank":355,"kind_detail":"tertiary","min_zoom":5.0,"id":33353},"arcs":[878]},{"type":"LineString","properties":{"source":"naturalearthdata.com","kind":"major_road","sort_rank":379,"kind_detail":"secondary","min_zoom":4.0,"id":33355},"arcs":[879]},{"type":"LineString","properties":{"source":"naturalearthdata.com","kind":"highway","kind_detail":"motorway","sort_rank":383,"landuse_kind":"urban_area","min_zoom":3.0,"id":33435},"arcs":[880]},{"type":"LineString","properties":{"source":"naturalearthdata.com","kind":"highway","kind_detail":"motorway","sort_rank":383,"landuse_kind":"urban_area","min_zoom":3.0,"id":33435},"arcs":[881]},{"type":"LineString","properties":{"source":"naturalearthdata.com","kind":"highway","sort_rank":383,"kind_detail":"motorway","min_zoom":3.0,"id":33435},"arcs":[882]},{"type":"LineString","properties":{"source":"naturalearthdata.com","kind":"minor_road","kind_detail":"tertiary","sort_rank":355,"landuse_kind":"urban_area","min_zoom":5.0,"id":33444},"arcs":[883]},{"type":"LineString","properties":{"source":"naturalearthdata.com","kind":"minor_road","sort_rank":355,"kind_detail":"tertiary","min_zoom":5.0,"id":33444},"arcs":[884]},{"type":"LineString","properties":{"source":"naturalearthdata.com","kind":"minor_road","sort_rank":355,"kind_detail":"tertiary","min_zoom":5.0,"id":33469},"arcs":[885]},{"type":"LineString","properties":{"source":"naturalearthdata.com","kind":"highway","kind_detail":"motorway","sort_rank":383,"landuse_kind":"urban_area","min_zoom":3.0,"id":33493},"arcs":[886]},{"type":"LineString","properties":{"source":"naturalearthdata.com","kind":"highway","sort_rank":383,"kind_detail":"motorway","min_zoom":3.0,"id":33493},"arcs":[887]},{"type":"LineString","properties":{"source":"naturalearthdata.com","kind":"minor_road","sort_rank":355,"kind_detail":"tertiary","min_zoom":5.0,"id":33494},"arcs":[888]},{"type":"LineString","properties":{"source":"naturalearthdata.com","kind":"highway","sort_rank":383,"kind_detail":"motorway","min_zoom":3.0,"id":33510},"arcs":[889]},{"type":"LineString","properties":{"source":"naturalearthdata.com","kind":"minor_road","sort_rank":355,"kind_detail":"tertiary","min_zoom":5.0,"id":33536},"arcs":[890]},{"type":"LineString","properties":{"source":"naturalearthdata.com","kind":"minor_road","sort_rank":355,"kind_detail":"tertiary","min_zoom":5.0,"id":33559},"arcs":[891]},{"type":"LineString","properties":{"source":"naturalearthdata.com","kind":"minor_road","sort_rank":355,"kind_detail":"tertiary","min_zoom":5.0,"id":33563},"arcs":[892]},{"type":"LineString","properties":{"source":"naturalearthdata.com","kind":"major_road","sort_rank":379,"kind_detail":"secondary","min_zoom":3.0,"id":33593},"arcs":[893]},{"type":"LineString","properties":{"source":"naturalearthdata.com","kind":"minor_road","sort_rank":355,"kind_detail":"tertiary","min_zoom":5.0,"id":33692},"arcs":[894]},{"type":"LineString","properties":{"source":"naturalearthdata.com","kind":"major_road","sort_rank":379,"kind_detail":"secondary","min_zoom":3.0,"id":33721},"arcs":[895]},{"type":"LineString","properties":{"source":"naturalearthdata.com","kind":"major_road","sort_rank":379,"kind_detail":"secondary","min_zoom":4.0,"id":33722},"arcs":[896]},{"type":"LineString","properties":{"source":"naturalearthdata.com","kind":"minor_road","sort_rank":355,"kind_detail":"tertiary","min_zoom":5.0,"id":33896},"arcs":[897]},{"type":"LineString","properties":{"source":"naturalearthdata.com","kind":"highway","sort_rank":383,"kind_detail":"motorway","min_zoom":3.0,"id":33936},"arcs":[898]},{"type":"LineString","properties":{"source":"naturalearthdata.com","kind":"highway","sort_rank":383,"kind_detail":"motorway","min_zoom":3.0,"id":34014},"arcs":[899]}]},"earth":{"type":"GeometryCollection","geometries":[{"type":"MultiPolygon","properties":{"sort_rank":10,"source":"naturalearthdata.com","min_zoom":0.0,"kind":"earth","area":6230319401777},"arcs":[[[900]],[[901]]]}]},"landuse":{"type":"GeometryCollection","geometries":[{"type":"Polygon","properties":{"kind":"park","name":"Gangotri National Park","area":3336950016,"sort_rank":24,"source":"openstreetmap.org","min_zoom":4.0,"tier":2,"id":-2713675,"osm_relation":true},"arcs":[[902]]},{"type":"Polygon","properties":{"kind":"park","name":"Kanha National Park","area":1096839936,"sort_rank":24,"source":"openstreetmap.org","min_zoom":4.0,"tier":2,"id":155457513},"arcs":[[903]]},{"type":"Polygon","properties":{"kind":"national_park","name":"Dudhwa National Park","area":721750016,"sort_rank":18,"source":"openstreetmap.org","min_zoom":3.0,"tier":1,"id":136086033,"protect_class":"2"},"arcs":[[904]]},{"type":"Polygon","properties":{"kind":"park","name":"Shey Phoksundo National Park","area":4723440128,"sort_rank":24,"source":"openstreetmap.org","min_zoom":4.0,"tier":2,"id":-4464442,"osm_relation":true},"arcs":[[905]]},{"type":"Polygon","properties":{"kind":"nature_reserve","name":"Kedarnath Wildlife Sanctuary","area":1348199936,"sort_rank":23,"source":"openstreetmap.org","min_zoom":4.0,"tier":2,"id":-3014915,"osm_relation":true},"arcs":[[906]]},{"type":"Polygon","properties":{"kind":"national_park","name":"Valmiki National park","area":503804992,"sort_rank":18,"source":"openstreetmap.org","min_zoom":3.0,"tier":1,"id":-2640059,"osm_relation":true,"protect_class":"2"},"arcs":[[907]]},{"type":"MultiPolygon","properties":{"source":"naturalearthdata.com","kind":"urban_area","name":"","area":43810010683,"sort_rank":11,"min_zoom":4.0},"arcs":[[[908]],[[909]],[[910]],[[911]],[[912]],[[913]],[[914]],[[915]],[[916]],[[917]],[[918]],[[919]],[[920]],[[921]],[[922]],[[923]],[[924]],[[925]],[[926]]]},{"type":"Polygon","properties":{"kind":"park","name":"Jigme Dorji National Park","area":5299999744,"sort_rank":24,"source":"openstreetmap.org","min_zoom":4.0,"tier":2,"id":-6089721,"osm_relation":true},"arcs":[[927]]},{"type":"Polygon","properties":{"kind":"nature_reserve","name":"Dhorpatan Hunting Reserve","area":1723970048,"sort_rank":23,"source":"openstreetmap.org","min_zoom":4.0,"tier":2,"id":323146126,"protect_class":"4"},"arcs":[[928]]},{"type":"Polygon","properties":{"kind":"national_park","name":"Hazaribag National Park","area":152012992,"sort_rank":18,"source":"openstreetmap.org","min_zoom":5.0,"tier":1,"id":155440967,"protect_class":"2"},"arcs":[[929]]},{"type":"Polygon","properties":{"kind":"nature_reserve","name":"Manaslu Conservation Area","area":2127650048,"sort_rank":23,"source":"openstreetmap.org","min_zoom":4.0,"tier":2,"id":-4497740,"osm_relation":true,"protect_class":"5"},"arcs":[[930]]},{"type":"Polygon","properties":{"kind":"national_park","name":"Panna National Park","area":686118016,"sort_rank":18,"source":"openstreetmap.org","min_zoom":3.0,"tier":1,"id":160695615,"protect_class":"2"},"arcs":[[931]]},{"type":"Polygon","properties":{"kind":"national_park","name":"Langtang National Park","area":2335249920,"sort_rank":18,"source":"openstreetmap.org","min_zoom":3.0,"tier":1,"id":-1268964,"osm_relation":true,"protect_class":"2"},"arcs":[[932]]},{"type":"Polygon","properties":{"kind":"national_park","name":"Khangchendzonga National Park","area":2208800000,"sort_rank":18,"source":"openstreetmap.org","min_zoom":3.0,"tier":1,"id":-3895850,"osm_relation":true,"protect_class":"2"},"arcs":[[933]]},{"type":"Polygon","properties":{"kind":"national_park","name":"Buxa National Park","area":204483008,"sort_rank":18,"source":"openstreetmap.org","min_zoom":5.0,"tier":1,"id":134485840,"protect_class":"2"},"arcs":[[934]]},{"type":"Polygon","properties":{"kind":"national_park","name":"Sagarmatha National Park","area":1457910016,"sort_rank":18,"source":"openstreetmap.org","min_zoom":3.0,"tier":1,"id":-3531450,"osm_relation":true,"protect_class":"2"},"arcs":[[935]]},{"type":"Polygon","properties":{"kind":"nature_reserve","name":"Annapurna Conservation Area","area":9877550080,"sort_rank":23,"source":"openstreetmap.org","min_zoom":4.0,"tier":2,"id":-4497739,"osm_relation":true,"protect_class":"5"},"arcs":[[936]]},{"type":"Polygon","properties":{"kind":"national_park","name":"Simlipal National Park","area":3007539968,"sort_rank":18,"source":"openstreetmap.org","min_zoom":3.0,"tier":1,"id":71890925,"protect_class":"2"},"arcs":[[937]]}]}},"type":"Topology","transform":{"translate":[78.75,21.9430455334],"scale":[0.002746582,0.002443632]},"arcs":[[[534,3529],[13,-1],[27,-7],[36,-20],[18,-7],[12,-8],[6,-1]],[[521,3526],[13,3]],[[665,3488],[7,-3],[36,-19],[10,-8],[5,-6],[7,-13],[4,-6],[6,-5],[31,-13],[28,-7],[11,-6],[8,-12],[2,-6],[-2,-6]],[[646,3485],[8,1],[5,1],[6,1]],[[4096,1358],[-33,14],[-14,0],[-13,-5],[-6,1],[-4,8],[-3,14],[-2,14],[2,12],[0,4],[3,11],[6,20],[0,31],[4,29],[-4,16],[-8,21],[-7,36],[1,10],[16,29],[2,9],[-3,3],[-6,0],[-7,4],[7,3],[6,4],[1,6],[-5,6],[-1,1],[-1,0],[0,-1],[-1,0],[-2,-2],[-2,-2],[-3,1],[-2,3],[-2,6],[-8,9],[-2,4],[0,7],[0,5],[0,6],[-5,6],[-3,6],[-1,7],[-2,6],[-5,3],[-3,1],[-7,-1],[-3,0],[-4,2],[-1,1],[0,2],[0,9],[1,8],[-2,6],[-7,2],[-8,-3],[-2,-3],[0,-13],[3,-5],[0,-2],[-8,3],[-2,-1],[-3,-1],[-2,-2],[-4,-7],[2,-6],[6,-2],[7,-1],[-4,-3],[-6,-3],[-4,-3],[0,-5],[4,-2],[5,1],[5,0],[2,-5],[-3,-7],[-16,-14],[-3,-11],[1,-5],[-1,-6],[-3,-3],[-5,-1],[-3,2],[-4,4],[-5,9],[-1,1],[-2,1],[-2,0],[-20,-2],[-2,-1],[-2,0],[-1,0],[-2,1],[-6,9],[-4,-1],[-4,-4],[-6,-3],[-6,1],[-7,3],[-7,5],[-9,10],[-13,6],[-3,4],[-2,8],[-4,5],[-5,3],[-24,11],[-5,5],[-2,8],[-3,24],[-3,7],[-7,12],[-3,7],[0,11],[4,0],[5,-2],[4,2],[-1,5],[-2,3],[-9,3],[-6,2],[0,3],[1,4],[-2,5],[-3,2],[-8,2],[-4,2],[-3,3],[-6,6],[-4,2],[-6,5],[-3,3],[-4,1],[-6,-3],[-4,-4],[-5,-7],[-3,-8],[1,-7],[7,-8],[11,-4],[9,-4],[3,-12],[2,-3],[3,-1],[3,1],[4,2],[-1,-9],[2,-3],[4,0],[4,-1],[2,-8],[-7,-5],[-16,-4],[-10,4],[-17,16],[-9,2],[-8,-5],[-5,-14],[-6,-2],[-6,3],[-3,6],[-3,6],[-3,7],[-13,5],[-31,-12],[-6,5],[3,3],[13,7],[5,4],[3,8],[-1,5],[-5,4],[-8,4],[-2,3],[0,7],[-2,1],[-4,1],[-1,3],[1,4],[2,3],[-9,2],[-4,2],[-4,3],[-2,3],[-2,5],[-3,4],[-4,2],[-8,0],[-3,0],[-8,4],[-8,5],[-3,3],[-4,4],[-4,4],[-5,6],[-6,2],[-13,4],[-4,6],[-1,8],[0,9],[-1,7],[-3,2],[-5,-4],[-4,-8],[-3,-6],[-7,-26],[-5,-8],[-2,-6],[1,-6],[2,-6],[5,-1],[2,2],[1,9],[1,3],[3,1],[8,-4],[21,-4],[10,-5],[5,-9],[7,-22],[1,-10],[-8,1],[-3,-1],[-3,0],[-4,0],[-2,1],[-4,2],[-2,-1],[-2,-4],[-3,-4],[-17,-11],[-5,-5],[-6,-7],[-1,-6],[1,-15],[-3,-6],[-7,-4],[-21,-8],[-8,-1],[-3,-2],[-3,-3],[-2,-3],[-3,-2],[-13,-8],[-3,-5],[-4,-14],[-1,-2],[0,-2],[0,-4],[2,-2],[2,-1],[2,-3],[0,-4],[-2,-8],[-9,-7],[-7,-14],[-7,-23],[-2,-3],[-2,-1],[-1,-2],[3,-19],[2,-6],[0,-3],[0,-4],[5,-7],[2,-3],[3,-8],[4,-5],[7,0],[7,4],[6,3],[17,5],[11,-6],[22,-26],[27,-18],[10,-11],[1,-26],[5,-5],[14,-7],[4,-8],[10,-8],[2,-6],[4,-3],[7,-2],[16,0],[7,-4],[12,-8],[7,-2],[5,2],[3,3],[3,4],[4,3],[3,1],[3,-1],[4,0],[3,2],[0,7],[11,-5],[3,-2],[5,-6],[4,-4],[4,-5],[0,-9],[-6,-15],[0,-2],[4,-3],[1,-3],[0,-4],[2,-5],[8,-11],[3,-2],[4,-1],[7,-1],[2,-1],[7,-7],[8,-1],[18,1],[3,-4],[0,-3],[-1,-5],[-2,-3],[-14,-11],[-3,-4],[0,-6],[1,-5],[-1,-4],[-7,-2],[5,-8],[-9,0],[-25,9],[-2,2],[-3,1],[-3,-1],[-2,-3],[-4,-9],[-3,-2],[-21,2],[-22,8],[-11,3],[-13,0],[-3,-1],[-5,-5],[-2,-2],[-5,-1],[-1,0],[-2,1],[-10,3],[-11,4],[-6,2],[-13,-2],[-3,-7],[1,-23],[-3,-27],[-4,-12],[-9,-11],[-1,-11],[-4,-9],[-13,-17],[-7,-12],[-3,-3],[-6,1],[-15,4],[-5,0],[0,8],[-3,8],[-6,6],[-5,5],[-8,0],[-6,-2],[-18,-10],[0,-2],[2,-2],[1,-4],[5,-14],[1,-8],[-3,-5],[-5,-5],[-4,-7],[-5,0],[-2,-2],[-1,-5],[-1,-6],[-2,-4],[-5,-1],[-4,-1],[-2,-18],[-4,-7],[-3,-8],[-2,-12],[7,-2],[6,-3],[3,-8],[6,-6],[1,-2],[0,-22],[0,-2],[2,-1],[3,-4],[3,-6],[1,-3],[10,-3],[96,-51],[27,-22],[8,-2],[24,-1],[18,-6],[8,0],[5,9],[4,9],[8,-2],[12,-7],[8,-12],[2,-16],[1,-2],[1,-6],[1,-2],[-1,-4],[-5,-6],[-1,-4],[-6,-2],[-8,-3],[-3,-4],[-2,-5],[0,-4],[1,-8],[0,-5],[-2,-9],[-1,-3],[2,-5],[7,-6],[1,-5],[9,-3],[0,-3],[-4,-6],[-5,-8],[3,-5],[2,-8],[1,-9],[-1,-7],[-4,-5],[-14,-14],[-4,-4],[-7,-1],[-8,1],[-7,-1],[-6,-5],[-1,-3],[0,-4],[1,-4],[0,-4],[-2,-4],[-5,-9],[-2,-4],[0,-4],[3,-6],[0,-4],[-8,-37],[1,-5],[3,-2],[4,-1],[2,-1],[-1,-5],[-1,-3],[0,-3],[4,-4],[4,-2],[7,1],[3,-1],[5,-6],[9,-15],[6,-7],[10,-8],[4,-2],[6,-11],[4,2],[5,7],[4,4],[5,-4],[-1,-9],[-17,-49],[-9,-15],[-3,-7],[0,-9],[3,-8],[5,-5],[24,-8],[4,0],[3,2],[2,2],[4,2],[4,1],[7,-1],[25,-10],[3,-1],[3,-1],[10,0],[2,-2],[0,-3],[-2,-4],[-3,-4],[-10,-9],[-19,-21],[-5,-11],[-1,-21],[-4,-11],[0,-8],[2,-5],[7,-9],[3,-6],[8,-20],[4,-5],[11,-4],[4,-4],[1,-5],[-1,-8],[-1,-8],[-2,-6],[-4,-6],[-4,-5],[-3,-6],[1,-7],[5,-12],[1,-5],[1,-9],[5,-9],[3,-10],[2,-11],[-2,-10],[-8,-5],[11,-5],[4,-4],[4,-15],[6,-16],[2,-10],[-1,-3],[-3,-5],[-1,-4],[0,-4],[4,-22],[2,-5],[6,-11],[-5,-4],[4,-8],[16,-22],[3,-7],[2,-8],[0,-10],[-6,-8],[0,-1]],[[3754,76],[-2,-5],[-1,-6],[-1,-9],[2,-11],[3,-8],[3,-7],[2,-10],[-1,-14],[-1,-6]],[[3584,2522],[6,0],[8,-9],[7,-6],[21,-3],[10,-3],[16,-11],[8,-7],[5,-6]],[[3551,2490],[5,5],[5,8],[8,8],[15,11]],[[3541,2494],[10,-4]],[[3427,2457],[4,1],[9,4],[66,10],[7,5],[21,15],[7,2]],[[3666,2477],[0,-8],[-3,-13],[0,-7],[3,-5],[9,-9],[3,-7],[1,-7],[0,-6],[-18,-77],[-8,-14],[-6,-15],[-7,-10],[-2,-6],[0,-6],[6,-8],[0,-7],[-2,-13],[2,-12],[5,-10],[8,-10],[5,-3],[4,-2],[4,-2],[8,-10],[5,-5],[10,-6]],[[3665,2477],[1,0]],[[3414,2458],[9,-1],[4,0]],[[3411,2422],[-5,7],[-3,10],[1,10],[6,8],[4,1]],[[114,3884],[5,-3],[10,-8],[13,-8],[2,-5],[1,-7],[4,-6],[3,-1],[7,-1],[3,-1],[1,-5],[0,-3],[-1,-4],[0,-5],[1,-3],[6,-4],[2,-3],[0,-4],[-1,-3],[0,-4],[1,-4],[6,-4],[6,-2],[5,-3],[2,-8],[0,-8],[1,-8],[3,-6],[5,-6],[9,-5],[10,-3],[9,-4],[3,-7],[2,-3]],[[82,3837],[5,10],[2,18],[7,15],[18,4]],[[61,3851],[6,-3],[9,-9],[6,-2]],[[36,3825],[5,1],[5,2],[1,1],[4,4],[4,6],[6,12]],[[424,3659],[2,-1],[5,-4],[26,-10],[9,-7],[5,-10],[7,-9],[11,-4]],[[506,3622],[6,0],[5,-4],[9,-15],[11,-5],[2,-4],[-9,-16],[-2,-2],[-3,-1]],[[489,3614],[6,2],[11,6]],[[525,3575],[-4,0]],[[521,3575],[-3,0],[-2,-2],[0,-5],[4,-5],[5,-5],[3,-5],[1,-8],[-2,-6],[-3,-6],[-3,-7]],[[3693,2199],[-3,-12],[-3,-3],[-6,-4],[-21,-6],[-10,-6],[-8,-12],[-5,-13],[-3,-12],[1,-1],[3,-2],[23,-12],[8,-7],[5,-9],[2,-10],[0,-23],[2,-20]],[[3698,2062],[6,-8],[1,-5],[0,-5],[0,-3],[2,-5],[4,-2],[4,0]],[[3678,2047],[6,8],[7,6],[7,1]],[[3731,2038],[9,-4],[8,-7],[6,-6],[5,-10],[3,-9],[5,-6],[12,-3],[20,-1]],[[3715,2034],[4,1],[4,2],[8,1]],[[3856,2010],[10,-7],[14,-10],[13,-7]],[[3841,2006],[15,4]],[[4056,1953],[8,1],[23,6],[9,1]],[[3836,2006],[5,0]],[[3799,1992],[10,1],[11,3],[4,3],[4,3],[4,4],[4,0]],[[3916,1989],[15,-2],[14,-6],[9,-7],[1,-7],[-6,-12],[5,-3]],[[3893,1986],[23,3]],[[4036,1960],[1,-1],[3,-2],[2,-1],[3,0],[7,-3],[4,0]],[[4028,1945],[1,0],[2,2],[1,3],[1,2],[0,1],[0,1],[0,2],[1,2],[2,2]],[[3973,1957],[8,0],[20,-9],[6,-1],[2,0]],[[3954,1952],[7,0],[12,5]],[[4023,1947],[2,0],[3,-2]],[[4009,1947],[14,0]],[[1043,3468],[8,-3],[44,-19],[8,-2]],[[1005,3432],[4,1],[4,16],[2,3],[2,2],[7,1],[5,2],[2,4],[1,3],[3,3],[8,1]],[[968,3452],[6,-2],[14,-13],[7,-4],[10,-1]],[[932,3351],[5,1],[5,4],[5,5],[2,7],[2,13],[5,7],[1,4],[-1,4],[-2,6],[0,4],[-1,14],[1,7],[4,6],[2,5],[-1,7],[1,5],[8,2]],[[1127,3449],[15,-7]],[[1103,3444],[8,1],[8,3],[8,1]],[[1155,3443],[7,-1],[3,-2],[4,-6],[3,-3],[4,0]],[[1142,3442],[13,1]],[[1201,3436],[9,-1],[6,-3],[1,-6],[-4,-24],[1,-10],[4,-8],[7,-4],[9,-3],[6,-6],[-2,-7],[-8,-16],[0,-6],[3,-8],[3,-8],[3,-5],[8,-1]],[[1176,3431],[3,1],[4,2],[3,1],[15,1]],[[818,3378],[4,-4],[4,-6],[4,-8],[5,-14],[8,-13],[3,-6],[4,-18],[0,-1],[5,-4]],[[926,3351],[6,0]],[[890,3299],[8,1],[4,6],[-1,12],[5,3],[7,2],[3,3],[1,1],[1,3],[2,6],[-1,3],[-3,6],[0,3],[4,3],[6,0]],[[1260,3323],[16,-10],[8,-1],[7,0],[8,-2],[3,-2],[5,-7],[3,-2],[6,-1]],[[1247,3320],[6,2],[7,1]],[[873,3307],[17,-8]],[[855,3304],[10,2],[8,1]],[[1321,3298],[6,0],[5,-3],[5,-6],[6,-6],[7,-5],[7,-3],[17,-6],[7,-3],[27,-34],[7,-5]],[[1316,3298],[5,0]],[[1426,3230],[4,-1],[4,-2],[0,-4],[-1,-4],[-1,-5],[3,-7],[22,-17],[7,-10],[4,-4],[4,-2],[4,-1],[4,-3],[3,-5],[5,-7]],[[1415,3227],[4,0],[7,3]],[[1511,3170],[3,-2],[6,-6],[3,-2],[3,-1]],[[1488,3158],[7,3],[9,6],[7,3]],[[1534,3160],[5,0],[20,-18],[3,-4],[5,-10],[4,-3]],[[1526,3159],[8,1]],[[1602,3144],[4,0],[5,-2],[5,-4],[1,-2],[1,-5],[1,-2],[3,-2],[6,-2],[3,-1],[8,-9],[3,-5],[1,-6],[-1,-4],[-2,-2],[-2,-3],[-1,-5],[6,-9]],[[1571,3125],[5,0],[3,4],[1,6],[1,5],[3,1],[10,2],[8,1]],[[1667,3086],[10,-10],[1,-7],[-1,-6],[0,-5],[11,-9],[1,-5],[0,-5],[2,-5],[4,-4],[4,-3],[4,-3],[4,-11],[4,-4],[10,-4],[6,-4],[4,-6],[3,-16],[1,-9],[1,-4],[2,-3],[5,-2],[9,-1],[4,-3],[4,-3],[15,-2],[5,-1]],[[1643,3081],[24,5]],[[1892,3007],[4,-1],[4,-2],[2,-3],[1,-5]],[[1828,2983],[8,1],[16,8],[9,2],[3,2],[3,5],[2,2],[11,3],[7,1],[5,0]],[[1912,2999],[4,-1],[3,-4],[5,-5]],[[1903,2996],[4,2],[5,1]],[[1938,2993],[6,0],[4,-4],[2,-11],[2,-5],[5,-1]],[[1924,2989],[7,1],[7,3]],[[1819,2984],[9,-1]],[[1780,2951],[6,3],[3,5],[1,8],[3,6],[8,7],[8,3],[10,1]],[[1963,2973],[5,-1],[2,-5],[-2,-7],[-5,-7],[-3,-6],[2,-8],[8,-8],[2,-3],[1,-4],[2,-13],[9,-5],[8,-2],[4,-5],[-9,-35],[6,-11],[4,-6],[19,-11],[24,-5],[5,-2],[4,-3],[6,-10],[7,-7],[3,-3],[6,-19],[5,-8],[9,-3]],[[1957,2972],[6,1]],[[2093,2777],[6,-3],[6,-4],[7,-2],[21,-4],[3,-1],[3,-8],[3,-3],[7,-2],[7,-2],[4,-3],[-2,-19],[5,-3],[17,-1],[7,-4],[9,-11],[6,-5],[5,-2],[4,0]],[[2085,2776],[8,1]],[[2296,2740],[7,-3],[13,-9],[18,-6],[3,-5],[-4,-20],[-1,-4],[-3,-3],[-2,-2],[-7,-3],[-2,-3],[0,-2],[0,-8],[-3,-5],[-9,-6],[-2,-4],[3,-22],[0,-8],[-2,-13],[0,-5],[2,-6],[8,-5],[9,0]],[[2246,2698],[4,1],[2,3],[5,9],[2,3],[11,6],[3,0],[3,2],[3,3],[3,7],[3,4],[2,2],[9,2]],[[2232,2701],[4,-1],[6,-2],[4,0]],[[2211,2700],[21,1]],[[2528,2616],[2,-9],[0,-18],[6,-11],[7,-9],[8,-7],[10,-6],[16,-8],[7,-4],[6,-7],[1,-4],[2,-9],[6,-8],[1,-4],[0,-4],[0,-5],[3,-10],[3,-5],[13,-11],[5,-8],[0,-8],[-2,-8],[0,-9],[4,-10],[6,-2]],[[2494,2581],[4,0],[10,15],[3,3],[8,3],[2,2],[1,4],[0,4],[1,3],[5,1]],[[2339,2603],[11,-10],[7,-3],[7,-2],[6,0]],[[2324,2598],[8,4],[7,1]],[[2433,2600],[5,-2],[11,-5]],[[2408,2585],[5,3],[9,9],[5,3],[6,0]],[[2465,2594],[9,-1],[7,-2],[8,-5],[5,-5]],[[2449,2593],[8,1],[8,0]],[[2389,2594],[5,-2],[3,-3],[4,-3],[7,-1]],[[2370,2588],[5,1],[10,5],[4,0]],[[2696,2543],[8,-2],[3,-8],[1,-10],[-3,-8],[-3,-7],[1,-4],[3,-3],[3,-4],[2,-12],[3,-5],[5,-3],[7,-3],[8,0],[7,-2],[6,-5],[9,-11],[3,-2],[4,-1]],[[2672,2477],[-4,2],[0,3],[1,2],[0,4],[1,6],[0,3],[-1,3],[-4,6],[0,4],[31,33]],[[2881,2522],[6,0],[7,-3],[7,-4],[5,-5],[2,-5],[-2,-12],[3,-6],[11,-3]],[[2863,2512],[5,1],[8,7],[5,2]],[[2847,2522],[5,-3],[5,-5],[6,-2]],[[2794,2442],[5,0],[14,7],[8,4],[4,6],[3,8],[0,10],[0,7],[2,4],[3,4],[3,6],[1,6],[0,7],[1,6],[3,4],[6,1]],[[2946,2485],[10,-8],[3,-10],[6,-7],[8,-4],[9,-1]],[[2920,2484],[26,1]],[[2658,2433],[2,0],[2,0],[5,3],[12,11],[2,2],[0,4],[-2,3],[-3,2],[-2,3],[0,5],[1,3],[0,4],[-3,4]],[[2672,2477]],[[3000,2459],[6,0],[9,-6],[11,-12],[20,-26],[14,-8],[10,0]],[[2982,2455],[11,2],[4,1],[3,1]],[[2772,2457],[3,-2],[12,-10],[7,-3]],[[2763,2453],[2,1],[3,2],[4,1]],[[3308,2441],[7,-4],[29,-1],[4,-1],[8,-4],[4,-1]],[[3259,2399],[9,1],[11,5],[9,8],[7,10],[5,11],[4,6],[4,1]],[[3379,2435],[8,-3],[16,-8],[8,-2]],[[3360,2430],[5,1],[9,4],[5,0]],[[2649,2434],[9,-1]],[[2632,2432],[17,2]],[[3136,2419],[8,-2],[-2,-6],[-4,-6],[0,-7]],[[3110,2403],[8,6],[8,7],[10,3]],[[3197,2412],[7,-2],[2,-2],[2,-3],[1,-4],[3,-2],[7,0]],[[3138,2398],[7,1],[32,9],[14,3],[6,1]],[[3089,2409],[21,-6]],[[3070,2407],[19,2]],[[3235,2407],[9,-2],[7,-3],[8,-3]],[[3219,2399],[11,6],[5,2]],[[777,3383],[3,-5],[4,-7],[6,-2]],[[551,3017],[-3,0],[-2,5],[-3,16],[-7,14],[-3,6],[1,8],[4,3],[11,3],[2,4],[1,5],[3,3],[3,2],[3,4],[8,6],[3,3],[2,4],[0,2],[-1,2],[0,3],[1,2],[2,2],[5,2],[2,2],[8,9],[4,8],[1,9],[-3,11],[-5,11],[-4,10],[0,11],[5,11],[10,8],[22,5],[7,7],[19,23],[8,13],[5,14],[3,7],[6,3],[13,2],[7,2],[4,3],[10,9],[13,9],[3,3],[11,18],[5,5],[22,16],[7,11],[-4,11],[5,5],[6,7],[6,4]],[[790,3369],[25,9],[3,0]],[[549,2971],[8,27],[1,9],[-1,8],[-3,2]],[[554,3017],[-3,0]],[[541,2975],[5,-3],[3,-1]],[[528,2937],[7,2],[5,6],[-1,6],[-6,17],[2,6],[6,1]],[[515,2938],[6,0],[7,-1]],[[582,2732],[-7,3],[-4,6],[-10,20],[-3,2],[-6,2],[-3,1],[-3,3],[-4,7],[-2,3],[-6,3],[-13,2],[-7,3],[-5,4],[-12,16],[-12,7],[-3,1],[-7,1],[-7,5],[-2,17],[0,8],[1,7],[3,7],[4,7],[6,5],[6,3],[5,4],[3,7],[-1,13],[3,18],[7,16],[12,5]],[[805,2656],[-7,0],[-7,1],[-6,2],[-7,5],[-2,6],[0,6],[-3,6],[-6,2],[-14,0],[-7,2],[-6,3],[-14,15],[-6,4],[-12,3],[-6,3],[-4,5],[-7,13],[-4,4],[-14,2],[-6,2],[-7,3],[-2,4],[0,4],[1,3],[-2,3],[-7,0],[-6,0]],[[644,2757],[-8,-4],[-3,-6],[-1,-7],[3,-26],[-2,-5]],[[633,2709],[-7,4],[-16,18],[-6,4],[-8,0]],[[596,2735],[-7,-2],[-7,-1]],[[931,2529],[-4,2],[1,6],[-6,1],[-2,4],[1,3],[6,2],[-5,10],[-21,24],[-5,12],[-7,24],[-8,10],[-9,4],[-36,7],[-17,3],[-2,5],[-1,5],[-1,4],[-5,2]],[[810,2657],[-5,-1]],[[1141,2417],[-10,1],[-10,6],[-10,7],[-19,11],[-14,15],[-8,7],[-9,3],[-18,4],[-7,6],[-5,7],[-7,5],[-32,17],[-6,4],[-1,4],[-1,4],[-2,6],[-4,8],[-7,7],[-8,5],[-8,3]],[[955,2547],[-5,0],[-3,-4],[-1,-5],[-4,-5],[-5,-3],[-6,-1]],[[1344,2342],[-14,5],[-20,20],[-28,14],[-44,36],[-16,6],[-6,3],[-7,8],[-7,6],[-9,3],[-18,2]],[[1175,2445],[-11,-5],[-15,-17],[-8,-6]],[[3411,2422],[9,-2],[5,-2],[3,-3],[0,-4],[-4,-8],[2,-17],[-4,-10],[-5,-11],[-9,-34],[-22,-38],[-10,-21],[0,-4],[0,-4],[2,-8],[1,-2],[3,-4],[1,-1],[-1,-4],[-2,-2],[-1,-2],[-2,-3],[-3,-9],[-1,-5],[1,-6],[1,-4],[5,-8],[1,-5],[-3,-10],[-8,-20],[-6,-12],[-1,-29],[-6,-12],[0,-3],[0,-4],[2,-3],[6,-5],[6,-15],[7,-4],[5,-3],[5,-4],[8,-11],[7,-13],[6,-15],[3,-6],[8,-12],[3,-7],[1,-7],[2,-17],[3,-17],[0,-7],[0,-8],[-2,-8],[-6,-18],[-16,-33],[-5,-17],[-3,-9],[0,-4],[1,-5],[-3,-17],[-11,-20],[-14,-14],[-11,-2]],[[1551,2251],[-23,6],[-17,9],[-9,3],[-45,3],[-8,9],[-4,16],[-3,31],[-5,15],[-6,11],[-2,0],[-8,4]],[[1421,2358],[-46,-12],[-31,-4]],[[1983,2248],[-4,1],[-4,10],[-3,4],[-9,3],[-4,2],[-3,4],[-2,7],[-6,2]],[[1948,2281],[-8,-3],[-18,-23],[-8,-5],[-11,-1]],[[1859,2211],[-1,0],[-2,2],[-17,6],[-50,27],[-27,10],[-40,6],[-34,0]],[[1688,2262],[-9,-3],[-2,-4],[-1,-5],[1,-5],[5,-8],[0,-5],[-3,-5],[-7,-11],[-7,-7],[-7,-4],[-8,0]],[[1903,2249],[-15,3],[-5,2]],[[1883,2254],[0,-1],[-8,-2],[-17,-1],[-7,-3],[3,-6],[11,-12],[0,-4],[2,-4],[0,-4],[-4,-1],[-2,-1],[-2,-4]],[[1650,2205],[-8,3],[-4,4],[-2,6],[-4,7],[-5,6],[-18,15],[-13,5]],[[1596,2251],[-45,0]],[[2188,2069],[-43,12],[-5,3],[-2,9],[3,10],[5,9],[4,9],[2,16],[-1,16],[-4,15],[-5,15],[-10,13],[-10,8],[-105,19],[-8,5],[-7,10],[-4,8],[-4,4]],[[1994,2250],[-11,-2]],[[2292,2005],[-10,1],[0,6],[0,6],[-6,3],[-5,1],[-4,1],[-9,5],[-3,7],[-2,8],[-5,8],[-8,5],[-18,6],[-9,5],[-4,7],[-6,1]],[[2203,2075],[-6,-2],[-4,-4],[-5,0]],[[2380,1962],[-33,9],[-11,11],[0,14],[-1,12],[-15,6]],[[2320,2014],[-8,0],[-20,-9]],[[2563,1905],[-3,0],[-20,16],[-5,7],[-4,14],[3,30],[-3,14],[-5,6],[-29,16],[-4,2]],[[2493,2010],[-28,-12],[-16,-8],[-13,-7],[-7,-3]],[[2429,1980],[-7,3],[-6,0]],[[2416,1983],[-6,-6],[-5,-6],[-1,-1],[-6,-4],[-12,-4],[-6,0]],[[2684,1906],[-2,1],[-2,2],[-25,15],[-11,4]],[[2644,1928],[-13,-4],[-9,-1],[-6,-4],[-25,-21],[-8,-5],[-6,-1]],[[2757,1898],[-2,0],[-3,3],[0,6],[-3,2],[-6,2]],[[2743,1911],[-8,-2],[-13,-4],[-8,-6],[-3,0]],[[2577,1892],[-2,2],[-1,3],[0,4],[-1,3],[-3,3]],[[2570,1907],[-3,-1],[-4,-1]],[[2711,1899],[-4,0],[-2,2],[-2,2],[-2,1],[-6,2],[-2,0],[-1,0]],[[2692,1906],[-8,0]],[[2835,1863],[-4,6],[-5,4],[-6,3],[-7,2],[-11,4],[-23,13],[-11,4]],[[2768,1899],[-3,0],[-8,-1]],[[3024,1863],[-4,20],[0,7],[-1,8]],[[3019,1898],[-4,-1],[-6,-4],[-11,-12],[-4,-3],[-14,-5],[-10,-3],[-11,-7],[-4,-9],[-7,-9],[-9,-5],[-9,-3]],[[3053,1822],[-11,4],[-8,11],[-6,14],[-4,12]],[[3024,1863]],[[2899,1830],[-6,1],[-26,16],[-24,11],[-7,5]],[[2836,1863],[-1,0]],[[3330,1841],[-9,8],[-1,1]],[[3320,1850],[-6,-1],[-11,-10],[-6,0]],[[3297,1839],[-7,4],[-6,2]],[[3284,1845],[-5,-2],[-2,-9],[-3,-6],[-5,-3]],[[2930,1837],[-4,0],[-13,6]],[[2913,1843],[-5,-1],[-2,-4],[-3,-5],[-4,-3]],[[3359,1810],[-5,5],[-12,7],[-5,5],[-2,4],[-3,7],[-2,4]],[[3330,1842],[0,-1]],[[3217,1815],[-12,3],[-26,15],[-12,3]],[[3167,1836],[-12,-1],[-11,-3],[-11,-7],[-4,-5],[-6,-15],[-5,-4]],[[3269,1825],[-6,1],[-5,5],[-6,3]],[[3252,1834],[-8,-3],[-4,-3],[-9,-7],[-14,-6]],[[3118,1801],[-5,1],[-15,7],[-5,3],[-3,5],[-3,6],[-3,4]],[[3084,1827],[-12,-3],[-19,-2]],[[3,3979],[14,-13],[8,-11],[-2,-5],[-6,-7],[-17,-13]],[[0,3892],[5,-3],[-1,-14],[-4,-11]],[[0,3831],[1,-1],[12,-6],[4,0]],[[0,3979],[3,0]],[[26,3827],[10,-2]],[[17,3824],[9,3]],[[232,3735],[3,-14],[2,-5],[5,-1]],[[254,3716],[5,-1],[5,-3],[2,-2],[1,-1],[1,-3],[1,-2],[3,-5],[6,-6],[6,-6],[5,-2],[8,-2],[4,-2]],[[242,3715],[6,1],[6,0]],[[360,3698],[8,-1],[26,-6],[7,-3],[4,-6],[7,-11],[8,-10],[4,-2]],[[301,3681],[5,1],[15,9],[6,1],[15,1],[18,5]],[[3814,2400],[-3,-15],[-7,-17],[-15,-26],[-11,-16],[-1,-5]],[[4022,2577],[-6,-5],[-2,-6],[-7,-12],[-14,-6],[-43,-8],[-7,-2],[-7,-4],[-17,-22],[-7,-6],[-7,-2],[-6,-6],[-5,-7],[-9,-14],[-1,-3],[-17,-32],[-13,-17],[-13,-10],[-15,-7],[-12,-8]],[[4096,2611],[-3,-1],[-7,-1],[-7,-4]],[[4079,2605],[-14,3]],[[4065,2608],[-12,-8]],[[4053,2600],[-3,2]],[[4050,2602],[-4,-2],[-3,-4],[-6,-8],[-3,-3],[-12,-8]],[[3726,2271],[-6,-6],[-4,-9],[-2,-9],[5,-17],[6,-15],[6,-10],[-9,-8],[-8,7],[-13,1],[-8,-6]],[[3770,2324],[2,0],[3,-2],[2,-1]],[[3726,2271],[-1,2]],[[3725,2273],[-2,4],[-1,4],[2,5],[5,3],[5,5],[-1,5],[5,6],[6,1],[2,7],[4,5],[5,4],[10,4],[4,-1],[1,-1]],[[1580,2579],[-5,-5],[-16,-8],[-5,-4],[-3,-4],[0,-4],[1,-4],[7,-10],[2,-3],[0,-5],[-1,-4],[-3,-3],[-10,-8],[-4,-14],[-2,-11],[-4,-13],[1,-7],[3,-4],[3,-2],[2,-3],[2,-2],[1,-4],[-2,-3],[-2,-2],[-12,-4],[-11,-6],[-4,-2],[-5,-1]],[[1513,2439],[-4,1],[-9,1]],[[1500,2441],[-9,-2],[-16,-14],[-12,-14],[-1,-2],[-1,-2],[4,-3],[17,-8],[9,-9],[-16,-5]],[[1475,2382],[-18,2]],[[1457,2384],[-6,-1],[-7,-2],[-4,-2],[-2,-2],[-2,-3],[-2,-2],[-2,-5],[-2,-9],[-1,-3],[0,-1]],[[2150,2414],[-4,7],[-5,5],[-3,2],[-3,2],[-4,1],[-4,0]],[[2127,2431],[-3,0],[-2,-1],[-8,-6],[-20,-14],[-16,-7],[-3,-3],[-1,-6],[2,-4],[1,-3],[2,-2],[2,-1],[0,-3],[-2,-1]],[[2079,2380],[-12,2]],[[2067,2382],[-5,-2]],[[3634,919],[0,-3],[2,-3],[6,-9],[2,-2],[9,-5],[5,-4],[3,-1],[7,-1]],[[3711,912],[3,0],[3,-2],[4,-2],[3,-2],[8,-12],[8,-8],[4,-3],[1,-2],[2,-4],[0,-3],[2,-3],[2,-4],[3,-3],[2,-3],[1,-4],[0,-4],[-1,-5],[0,-4],[1,-4],[3,-4],[14,-12],[8,-6],[8,-3],[10,-2]],[[3668,891],[7,1],[23,12],[5,3],[4,5],[4,0]],[[3830,816],[10,-1],[9,-2],[8,-4]],[[3800,813],[30,3]],[[3422,2126],[-11,0],[-7,2],[-4,4],[-1,3],[-1,4],[-1,8],[-1,4],[-3,4],[-12,8],[-5,6],[-6,2]],[[3591,2138],[-26,4]],[[3565,2142],[-9,0],[-25,-26],[-9,-6],[-7,-3],[-12,-3]],[[3630,2129],[-10,4],[-8,7],[-2,0]],[[3610,2140],[-19,-2]],[[3635,2130],[-5,-1]],[[3503,2104],[-5,0],[-3,1],[-2,2],[-3,3],[-37,16],[-15,2]],[[3438,2128],[-16,-2]],[[3971,1737],[11,2],[8,3],[7,3],[3,2],[1,3],[0,4],[-2,3],[-1,3],[1,3],[3,1],[6,4],[6,14],[1,3],[1,2],[10,4],[5,2],[3,1],[0,3],[-2,3],[-3,3],[0,3],[0,2],[1,1],[3,3],[4,2],[1,1],[1,2],[4,28],[1,8],[5,12],[0,1],[0,2],[1,1],[5,9],[-3,43],[-2,7],[-7,23],[2,5]],[[2654,251],[4,0],[3,-2],[2,-2],[14,-19],[60,-32],[8,-5],[6,-5],[6,-12],[4,-5],[5,-5],[7,-6],[6,-2],[7,-2]],[[2579,18],[16,4],[7,4],[7,6],[18,26],[2,5],[1,3],[0,3],[0,3],[0,6],[1,7],[3,9],[1,6],[0,6],[-6,11],[-2,7],[0,7],[2,5],[7,10],[1,7],[0,7],[-2,24],[-2,7],[-3,6],[-8,12],[-4,6],[-1,7],[0,4],[0,2],[3,2],[7,3],[3,1],[5,1],[3,0],[1,1],[3,2],[5,10],[4,2],[3,1]],[[1901,244],[13,-3],[11,-6],[11,-7],[21,-30],[2,-6],[2,-5],[4,-5],[11,-10],[4,-1],[3,0]],[[2299,229],[9,-23],[4,-21],[2,-15],[0,-11],[-2,-11],[-2,-6],[-2,-4],[-18,-26],[-11,-27],[-4,-6],[-2,-3],[-3,-7],[1,-2],[1,-1]],[[2242,196],[3,0],[2,1],[6,7],[2,2],[3,0],[12,2],[1,0],[18,13],[10,8]],[[2203,208],[6,-1],[22,-6],[11,-5]],[[2025,156],[35,2],[5,1],[23,13],[2,1],[3,3],[1,1],[1,4],[0,3],[0,4],[0,3],[1,3],[4,2],[4,0],[75,2],[5,2],[3,1],[2,3],[2,2],[4,1],[8,1]],[[1991,171],[5,-1],[22,-12],[7,-2]],[[1983,171],[8,0]],[[2817,161],[4,-1],[3,-1],[35,-24],[16,-16],[15,-6]],[[2786,154],[6,1],[6,1],[13,4],[6,1]],[[2430,91],[5,0],[4,-1],[4,-2],[33,-21],[21,-6],[17,-3],[9,-4]],[[2356,35],[2,1],[2,2],[17,20],[17,17],[4,3],[16,5],[6,5],[5,2],[5,1]],[[2564,76],[2,-1],[1,-4],[0,-4],[-1,-4],[-6,-7],[-1,-3],[0,-4],[0,-4],[0,-5],[1,-8],[1,-4],[18,-10]],[[2523,54],[2,1],[8,4],[4,2],[6,2],[4,2],[4,2],[4,4],[5,4],[4,1]],[[2298,73],[6,-1],[7,-2],[4,-2],[29,-20],[7,-10],[3,-2],[2,-1]],[[2272,66],[5,1],[14,5],[3,1],[4,0]],[[67,3755],[5,1],[5,0],[12,4],[1,7],[-1,6],[-11,16],[-10,16],[-11,11],[-3,3],[-7,10]],[[0,3792],[1,0]],[[10,3792],[6,-1],[2,-3],[7,-14],[5,-8],[5,-4],[9,-6],[23,-1]],[[1,3792],[9,0]],[[0,3085],[21,-12],[9,-3],[27,-6],[5,-3],[0,-4],[-2,-5],[-3,-5],[-17,-16],[-4,-2]],[[36,3029],[-4,1],[-2,1],[-3,1]],[[27,3032],[-3,-1],[-2,-3],[-5,-9],[-3,-1]],[[14,3018],[-4,2],[-4,2],[-2,1]],[[4,3023],[-2,-1],[-2,-1]],[[0,2999],[43,-23],[6,-7],[5,-9],[2,-7],[4,-22]],[[107,2951],[4,-1],[27,-15],[4,-3],[1,-4],[0,-4],[1,-4],[3,-5],[6,-6],[46,-33],[9,-3],[7,0]],[[60,2931],[13,9],[23,6],[8,5],[3,0]],[[223,2876],[3,0],[3,-3],[2,-4],[6,-5],[3,-4],[3,-4],[5,-19],[5,-11]],[[215,2873],[4,1],[4,2]],[[362,2841],[7,0],[18,-3],[7,-5],[3,-4],[-1,-5],[-3,-8],[-1,-4],[3,-4],[3,0]],[[346,2827],[9,3],[2,3],[0,3],[0,3],[5,2]],[[297,2839],[3,-4],[2,-5],[3,-4],[5,0]],[[253,2826],[30,12],[14,1]],[[321,2832],[25,-5]],[[310,2826],[4,2],[7,4]],[[445,2779],[5,0],[5,1],[5,3],[5,4],[10,10],[4,7],[1,4],[2,7]],[[414,2813],[2,-1],[1,-4],[-2,-5],[0,-4],[2,-3]],[[398,2808],[11,5],[5,0]],[[430,2799],[1,-3],[-1,-3],[-1,-4],[2,-4],[7,-5],[7,-1]],[[417,2796],[4,0],[5,2],[4,1]],[[8,1973],[-4,0],[-1,4],[-1,5],[-2,0]],[[45,1947],[-4,0],[-7,5],[-11,14],[-8,6],[-3,1]],[[12,1973],[-4,0]],[[0,1516],[1,1],[0,2],[1,1],[0,3],[-1,4],[-1,5]],[[0,1579],[4,3],[5,3],[6,4],[6,6],[6,15],[4,12],[16,20],[3,6],[1,4],[1,8],[8,18],[12,18],[2,5],[0,4],[-2,2],[-5,4],[-3,4],[-2,4],[-1,8],[1,4],[2,2],[7,3],[3,3],[1,2],[0,3],[-4,6],[-2,5],[-1,5],[1,4],[1,3],[5,5],[3,2],[3,1],[3,1],[10,3],[4,1],[3,3],[3,4],[8,14],[1,2],[0,3],[-1,1],[-2,1],[-1,1],[-4,5],[5,15],[-1,12],[-3,11],[-5,12],[-19,30],[-6,10],[-5,16],[-2,14],[0,3],[-1,1],[0,3],[0,3],[-4,5],[-2,1],[-6,0]],[[56,1950],[-11,-3]],[[61,1430],[-3,2],[-1,2],[1,3],[1,3],[2,5],[1,5],[0,7],[-1,4],[-2,5],[-4,4],[-4,1]],[[51,1471],[-4,-2],[-3,-3],[-3,-4],[-3,-6],[0,-2],[-1,-2],[0,-4],[1,-15],[0,-4],[-3,-4],[-4,-2],[-7,-1]],[[24,1422],[-3,1],[-3,3],[0,5],[0,15],[-1,10],[0,1],[-2,3],[-3,5]],[[12,1465],[-7,-5],[-3,-1],[-2,0]],[[47,1323],[-3,2],[-3,4],[0,7],[0,5],[2,7],[3,6],[3,6],[5,4],[9,6],[2,2],[3,3],[0,4],[0,4],[-1,6],[0,4],[1,4],[7,12],[1,5],[0,12],[0,2],[0,2],[-2,2],[-2,0]],[[72,1432],[-3,0],[-4,-1],[-4,-1]],[[592,1351],[-1,1],[-4,6],[-1,2],[-1,1],[-5,3],[-6,2],[-2,3],[-1,4],[0,16],[-2,13],[-1,4],[-2,2],[-5,9],[-3,4],[-2,0],[-3,1]],[[553,1422],[-6,-1],[-6,-2],[-3,-1]],[[538,1418],[-2,1],[-6,2],[-3,0]],[[527,1421],[-2,-1],[-2,-2],[-2,-6],[-2,-3],[-3,-2],[-16,-12],[-1,-1],[-1,0]],[[0,1100]],[[207,1350],[-3,1],[-2,2],[-4,4],[-1,4],[-1,4],[1,4],[1,2],[1,4],[9,15],[1,4],[0,3],[-2,2],[-3,1],[-3,0]],[[201,1400],[-10,-12],[-4,-11],[-1,-5],[0,-3],[1,-6],[9,-28],[1,-7],[0,-4],[-2,-4],[-2,-2],[-4,0]],[[498,1394],[-3,1],[-8,4]],[[487,1399],[-26,-13],[-6,-4],[-10,-9],[-14,-11],[-7,-5],[-5,-1],[-9,-1],[-9,-3],[-4,-3],[-2,-2],[0,-2],[0,-3],[0,-2],[1,-3],[1,-3],[3,-3],[6,-7],[1,-3],[0,-3],[0,-3],[-2,-1],[-4,-1],[-5,-2],[-8,-5],[-5,-1]],[[221,1280],[-4,2],[-3,2],[-2,3],[-1,5],[0,5],[1,6],[1,5],[1,3],[2,3],[9,9],[4,5],[4,11],[13,17],[5,12],[1,5],[-2,2]],[[250,1375],[-2,-2],[-3,-2],[-7,-6],[-2,-2]],[[100,1322],[-3,2],[-2,2],[-1,3],[0,5],[1,5],[3,4],[9,11],[1,2],[0,2],[-1,1],[-4,2],[-2,1],[0,1],[-2,2],[-3,1],[-5,1]],[[91,1367],[-3,-1],[-2,-2],[0,-3],[0,-4],[0,-5],[-1,-4],[-4,-4],[-4,-1],[-5,0],[-4,-2],[-2,-3],[-5,-7],[-4,-4],[-6,-4],[-4,0]],[[236,1363],[-3,1],[-4,1],[-3,1]],[[226,1366],[-4,-1],[-4,-2],[-3,-3],[-2,-3],[-1,-2],[-1,-3],[-2,-1],[-2,-1]],[[560,1286],[6,2],[3,2],[3,4],[7,8],[2,3],[2,3],[1,2],[2,1],[3,1],[2,1],[5,3],[6,3],[4,2],[2,2],[1,2],[0,2],[-1,2],[-3,6],[-1,3],[0,7],[-1,2],[-1,2],[-1,2],[-2,1],[-2,0]],[[597,1352],[-2,0],[-1,-1],[-2,0]],[[748,1238],[-9,1],[-5,3],[-2,2],[1,3],[0,4],[1,0],[4,4],[2,4],[1,2],[2,3],[0,3],[1,5],[0,2],[1,2],[1,2],[2,2],[6,5],[1,2],[1,11],[1,4],[11,26],[0,5],[-1,3],[-3,3],[-2,0],[-3,1],[-2,0]],[[757,1340],[-3,0],[-3,-1],[-2,-1],[-2,-1],[-1,-1],[-1,-2],[-1,-2],[-2,-10],[-2,-2],[-2,-2],[-3,-2],[-3,0],[-27,-1],[-4,-1],[-2,-1],[-1,-1],[0,-1],[0,-2],[2,-1],[16,-11],[3,-3],[2,-4],[-1,-3],[-4,-2],[-3,-1],[-8,0],[-4,-1],[-7,-3],[-3,0]],[[1061,1277],[-14,4],[-10,1],[-5,2],[-2,2],[-2,2],[0,3],[1,2],[1,2],[1,2],[-1,2],[-1,3],[-3,4],[-2,4],[-1,11],[-8,12]],[[1015,1333],[-34,-11],[-7,-4],[1,-1],[2,-2],[10,-7],[3,-2],[0,-3],[-1,-4],[-3,-2],[-5,-2],[-9,-1]],[[137,1310],[-3,1],[-1,3],[-1,13],[-1,4],[-3,0]],[[128,1331],[-6,0],[-12,-6],[-6,-2],[-4,-1]],[[167,1322],[-6,3],[-4,1]],[[157,1326],[-4,-1],[-4,-3],[-2,-3],[-4,-6],[-3,-3],[-3,0]],[[332,1312],[-5,0],[-11,3],[-14,7],[-5,2],[-2,0]],[[295,1324],[-2,0],[-5,-1],[-4,-3],[-3,-4],[-6,-13],[-2,-3],[-2,-2],[-5,-4],[-5,-1]],[[189,1318],[-9,4],[-4,1],[-3,0]],[[173,1323],[-2,-1],[-4,0]],[[972,1294],[-10,0],[-5,1],[-3,2],[-2,1],[0,3],[1,3],[1,5],[0,1],[0,2],[-1,2],[-3,1],[-8,3],[-4,2],[-6,1]],[[932,1321],[-5,0],[-5,-3]],[[922,1318],[-5,0],[-4,2],[-5,0]],[[908,1320],[-3,-1],[-1,-4],[3,-13],[0,-4],[0,-4],[-1,-3],[-1,-4],[-5,-8],[-6,-8],[-9,-10],[-1,-2],[-1,-3],[-1,-4],[0,-1],[1,0],[1,-3],[1,-3],[1,-2],[0,-3],[0,-3],[-1,-3],[-2,-2],[-2,-1],[-8,0],[-4,-1],[-2,-1],[-3,-3],[-9,-12]],[[383,1305],[-4,1],[-4,6],[-2,2],[-3,1],[-1,0]],[[369,1315],[-10,-2],[-27,-1]],[[691,1280],[-3,1],[-3,2],[-9,9],[-3,4],[-1,4],[-3,8],[-3,4],[-2,1],[-3,0]],[[661,1313],[-2,0],[-3,-2],[0,-2],[0,-3],[1,-3],[0,-4],[-1,-2],[-2,-2],[-3,-1],[-3,0],[-3,-1]],[[261,1293],[-3,1],[-2,2],[-1,3],[0,3],[-1,2],[-1,3],[-2,2],[-5,1]],[[246,1310],[-6,0],[-4,-1],[-2,-2],[0,-3],[0,-6],[1,-6],[0,-6],[-1,-5],[-13,-1]],[[645,1293],[-12,3],[-6,2],[-3,1]],[[624,1299],[-2,0],[0,-1],[0,-2],[1,-5],[1,-2],[1,-5],[1,-3],[3,-2],[10,-5],[2,-1],[1,-1],[1,-4],[-14,-10],[-3,0],[-4,-1]],[[555,1288],[1,-1],[2,-1],[2,0]],[[567,1256],[-4,0],[-3,2],[-4,6],[-2,4],[-2,9],[0,4],[0,5],[1,1],[2,1]],[[1093,1259],[-6,2],[-3,2],[-2,4],[-1,4],[-2,5],[-2,2]],[[1077,1278],[-16,-1]],[[622,1257],[-2,2],[-2,2],[-6,9],[-6,7],[-3,0]],[[603,1277],[-1,-1],[0,-2],[0,-2],[3,-10],[0,-3],[-2,-3],[-2,0]],[[1183,1194],[-7,0],[-4,2],[-5,2],[-27,21],[-3,3],[-2,3],[0,3],[0,2],[1,2],[1,3],[1,4],[-1,4],[-4,7],[-1,1],[-2,6],[-4,5],[-4,2],[-5,2]],[[1117,1266],[-4,0],[-3,-1],[-2,-1],[-6,-3],[-4,-2],[-5,0]],[[601,1256],[-3,0],[-3,1],[-3,1],[-3,1],[-6,1]],[[583,1260],[-5,0],[-11,-4]],[[799,1232],[-4,1],[-3,3],[-4,5],[-2,2],[-3,1],[-3,0]],[[780,1244],[-19,-5],[-3,0],[-10,-1]],[[855,1214],[-11,5],[-14,13],[-5,4],[-4,1]],[[821,1237],[-2,0],[-10,-4],[-4,-1],[-6,0]],[[1231,1172],[-3,0],[-2,1],[-4,2],[-18,14],[-9,4],[-3,1]],[[1192,1194],[-9,0]],[[1266,1151],[-3,1],[-4,3],[-1,2],[0,3],[1,3],[2,4],[1,5],[0,8],[-1,4],[-2,3],[-1,1],[-1,0]],[[1257,1188],[-3,-1],[-14,-11],[-3,-2],[-4,-1],[-2,-1]],[[1286,1130],[-2,0],[-3,3],[-1,2],[-1,2],[2,18],[-1,8],[-1,3],[-2,0]],[[1277,1166],[-2,-2],[-1,-2],[-2,-6],[-2,-2],[-2,-2],[-2,-1]],[[1400,1123],[-17,2],[-35,12]],[[1348,1137],[-4,0],[-5,-1],[-1,-3],[-1,-4],[0,-4],[1,-3],[1,-7],[0,-4],[-1,-4],[-6,-5],[-5,-2]],[[1468,1071],[5,0],[5,3],[3,5],[0,4],[-1,3],[-5,4],[-2,4],[-2,5],[-2,9],[-2,4],[-3,3],[-2,1],[-12,1],[-3,0],[-3,3],[0,3],[1,10],[-2,2],[-2,2]],[[1441,1137],[-3,0],[-3,-1],[-25,-11],[-4,-1],[-6,-1]],[[1295,1100],[-1,3],[2,3],[6,14],[-1,6],[-2,3],[-3,2],[-3,1],[-2,0]],[[1291,1132],[-2,-1],[-2,-1],[-1,0]],[[28,1107],[6,-1],[5,-3],[5,-5],[3,-5],[2,-6],[1,-7],[2,-4],[7,-10],[4,-6],[-1,-4],[-2,-6],[0,-2],[0,-1],[0,-1],[0,-2],[1,-3],[1,-2],[3,-1],[4,0],[7,-1],[7,-4],[0,-11],[-2,-7],[-3,-7],[-3,-6],[-3,-3],[-4,-4],[-13,-11],[-4,-10],[-4,-11],[-4,-10],[-6,-7],[-9,-10],[-6,-4],[-7,-1]],[[0,1100],[4,0],[11,5],[8,1],[5,1]],[[1327,1100],[-14,2]],[[1313,1102],[-18,-2]],[[1459,1074],[9,-3]],[[1475,841],[-11,18],[-8,7],[-3,1],[-2,2],[-1,2],[1,4],[1,5],[0,6],[-1,3],[-2,2],[-4,3],[-7,6],[-5,6],[-2,4],[-2,6],[0,2],[2,2],[3,1],[7,0],[5,3],[4,5],[3,26],[6,11],[2,6],[1,5],[1,23],[-2,5],[-2,3],[-6,3],[-2,3],[-1,3],[0,5],[4,19],[0,8],[-3,9],[-1,6],[1,4],[2,3],[2,2],[1,1],[3,0]],[[15,931],[-6,3],[-5,4],[-2,6],[-1,4],[0,4],[0,3],[-1,0]],[[1738,1059],[-31,-4],[-6,-4],[-5,-3],[-2,-2],[-2,-2],[0,-3],[-1,-2],[0,-3],[0,-3],[1,-4],[4,-10],[3,-4],[2,-4],[5,-6],[5,-8],[1,-3],[1,-4],[-1,-4],[-2,-3],[-10,-13],[-1,-3],[0,-4],[0,-3],[0,-5],[-2,-4],[-1,-3],[-10,-11],[-5,-9],[-2,-5],[-9,-24]],[[4070,379],[13,3],[6,1],[5,3],[2,2]],[[3934,766],[7,2],[11,7],[6,3],[20,2],[8,2],[0,5],[-4,19],[-1,6],[2,9],[5,13],[31,26],[4,5],[4,5],[2,6],[1,14],[4,7],[-1,1],[1,6],[1,6],[-1,2],[-1,2],[1,4],[-1,4],[-7,1],[0,9],[0,3],[-1,1],[-4,3],[-10,11],[-1,1],[-2,2],[-1,0],[0,1],[0,4],[0,16],[-2,15],[0,4],[3,30],[0,15],[3,13],[1,8],[0,8],[-1,5],[2,4],[4,5],[2,10],[0,6],[-2,7],[1,5],[4,19],[0,8],[-2,8],[-2,4],[-3,4],[-7,6],[-11,6],[-6,4],[-4,5],[-5,10],[-3,8],[-9,44],[0,3],[2,35],[3,21],[5,22]],[[3857,809],[1,0],[12,-8],[32,-15],[8,-4],[15,-14],[9,-2]],[[3980,1316],[8,18],[4,5],[4,6],[5,8],[2,10],[-3,22],[8,20],[1,3],[3,3],[5,4],[6,1]],[[3860,707],[-15,20],[-1,4],[19,51],[0,8],[0,3],[-6,16]],[[3915,632],[-1,2],[-1,3],[-1,3],[1,3],[2,1],[5,4],[3,4],[-2,2],[-3,2],[-3,5],[-1,5],[-2,4],[-5,5],[-22,34],[-3,2]],[[3882,711],[-5,-1],[-6,-2],[-11,-1]],[[3960,584],[-7,34],[-3,8],[-7,7],[-11,7],[-11,1]],[[3921,641],[-6,-9]],[[3953,590],[1,-2],[1,-2],[5,-2]],[[3964,551],[-9,11],[-5,15],[0,13],[3,0]],[[3990,502],[-5,1],[-5,7],[1,8],[-1,7],[-19,6],[3,6],[7,7],[4,7]],[[3975,551],[-11,0]],[[3991,481],[3,6],[5,8],[2,2],[5,2],[1,3],[-2,4],[-5,2]],[[4000,508],[-4,-1],[-3,-3],[-3,-2]],[[3980,489],[7,-6],[4,-2]],[[4070,379],[0,1],[-15,8],[-3,2],[-7,9],[-2,2],[-6,2],[-2,2],[-1,3],[-3,7],[-1,4],[-5,7],[-12,11],[-5,7],[-9,20],[-4,5],[-3,2],[-6,1],[-3,3],[-2,3],[-1,3],[0,3],[0,5]],[[1019,2939],[-24,-17],[-5,-2],[-4,-3],[-17,-19],[-1,-9],[2,-9],[5,-7],[5,-3],[19,-28],[13,-14],[5,-9],[2,-10],[3,-6],[5,-5],[0,-4],[-8,-6],[-6,-2],[-3,-1]],[[895,2850],[-8,2],[-18,15],[-15,7],[-8,3],[-7,1]],[[839,2878],[-7,-2],[-8,-4],[-6,-6],[-2,-5],[18,-18],[14,-11],[6,-4]],[[942,2845],[-3,1],[-9,5],[-4,2],[-8,0]],[[918,2853],[-23,-3]],[[1010,2785],[-4,0],[0,3],[5,4],[-1,2],[-4,3],[1,12],[-15,18],[-6,12],[-6,7],[-6,2]],[[974,2848],[-32,-3]],[[869,2833],[4,-4],[5,-11]],[[854,2828],[5,2],[5,2],[5,1]],[[889,2830],[5,-2],[5,-5],[3,-6],[2,-14],[4,-13],[12,-26],[1,-8],[-1,-8],[-2,-9],[-3,-4],[-3,-3],[-51,-55],[-4,-4],[-12,-7],[-4,-5],[-4,-16],[-1,-7]],[[896,2811],[-1,5],[-5,9],[-1,5]],[[881,2819],[15,-8]],[[878,2818],[3,1]],[[950,3307],[-3,1],[-3,2],[-5,4],[-3,2],[-8,3],[-8,6],[-3,2]],[[999,3253],[-3,1],[-3,2],[-8,5],[-1,4],[-1,3],[1,8],[1,4],[-1,4],[-2,4],[-1,3],[-2,2],[-3,8],[-3,6],[-1,1],[-2,1]],[[970,3309],[-8,0],[-12,-2]],[[1064,3026],[6,1],[13,4],[2,7],[-4,7],[-4,7],[-1,10],[0,9],[1,8],[2,7],[4,6],[15,9],[6,6],[2,8],[0,7],[0,8],[-2,4],[-2,3],[-7,2],[-2,0],[-6,3],[-4,3],[-4,4],[-4,5],[-2,7],[-1,5],[1,3],[10,32],[2,10],[0,13],[1,5],[2,4],[2,2],[4,4],[3,2],[2,3],[2,3],[1,3],[-1,5],[-1,4],[-4,3],[-5,1],[-14,3],[-6,2],[-5,4],[-4,2],[-7,1]],[[1055,3275],[-27,-1],[-4,0],[-4,-2],[-8,-4],[-9,-13],[-2,-2],[-2,0]],[[1041,3038],[2,-1],[3,-1],[9,-8],[4,-2],[5,0]],[[1019,2939],[-5,5],[-5,4],[-10,7],[-3,2],[-2,5],[-1,7],[3,25],[-3,6],[-1,5],[0,4],[1,4],[4,4],[11,11],[6,4],[15,5],[5,1],[7,0]],[[1647,2773],[7,0],[17,4],[8,3],[8,4],[33,13],[5,6],[12,34],[7,12],[20,25],[3,3],[2,4],[2,6],[3,32],[2,5],[3,4],[4,4],[4,4],[1,3],[-2,14],[0,1]],[[1601,2780],[11,-1],[9,-4],[6,0]],[[1636,2775],[11,-2]],[[1627,2775],[9,0]],[[2170,2400],[3,0],[3,1],[3,1],[3,2],[2,4],[1,9],[-1,5],[-1,6],[-7,13],[-2,3],[-1,3],[1,5],[2,3],[11,11],[5,7],[19,36],[3,3],[4,4],[6,4],[7,2],[10,2],[4,3],[4,4],[4,9],[6,23],[4,6],[5,6],[14,12],[4,4],[7,14],[5,6],[7,3]],[[2150,2414],[4,-3],[1,-1],[2,-2],[1,-2],[3,-3],[2,-1],[3,-1],[4,-1]],[[2828,2467],[6,-7],[11,-17],[3,-10],[0,-11],[2,-21],[3,-12],[0,-8],[1,-7],[-1,-4],[-2,-3],[-2,-4],[-3,-6],[-4,-12],[-4,-9],[-4,-5],[-4,-3],[-9,-3],[-8,-2],[-3,-1],[-3,-1],[-12,-12],[-5,-4],[-18,-20],[-33,-31],[-5,-8],[-6,-14],[-3,-9],[-1,-4],[0,-3],[0,-3],[4,-9],[0,-3],[-1,-6],[-2,-6],[-9,-16],[0,-3],[6,-2]],[[2742,2169],[12,-3],[6,-2],[3,-2],[2,-3],[3,-3],[1,-2],[12,-7],[1,-1],[1,-2],[-2,-4],[-11,-13],[-10,-9],[0,-2],[1,-2],[2,-2],[2,-1],[1,-3],[4,-10],[2,-12],[0,-12],[-1,-6],[-2,-3],[-15,-5],[-10,-7],[-11,-15],[-8,-3]],[[2722,2168],[20,1]],[[2725,2035],[-4,0],[-5,1],[-9,5]],[[2707,2041],[-3,0],[-4,-2],[-5,-6],[-1,-3],[-1,-2],[0,-3],[0,-3],[3,-8],[1,-5],[0,-21],[1,-4],[0,-4],[2,-5],[2,-5],[7,-10],[2,-3],[1,-5],[0,-4],[-2,-4],[-17,-37],[0,-1]],[[1534,2703],[3,1],[2,5],[-1,3],[-1,3],[-4,5],[-1,3],[4,3],[9,4],[19,5],[20,9],[11,16],[5,9],[1,11]],[[1530,2703],[4,0]],[[1580,2579],[-2,11],[-5,7],[-8,7],[-34,26],[-4,12],[-2,3],[-5,4],[-3,4],[-4,10],[-4,3],[-2,4],[9,13],[-5,4],[0,3],[2,4],[7,7],[5,2],[5,0]],[[2062,2380],[3,-8],[2,-4],[-2,-6],[-4,-5],[-10,-6]],[[2051,2351],[-10,4]],[[2041,2355],[-9,-5],[-9,-7],[-10,-4]],[[2013,2339],[-6,1],[-5,1],[-4,0]],[[1998,2341],[-4,-2],[-7,-9],[-4,-4]],[[1983,2326],[-6,2]],[[1977,2328],[-9,-9],[-14,-25],[-5,-5]],[[1949,2289],[-12,9]],[[1937,2298],[-8,-5],[-8,-1]],[[1921,2292],[-24,3],[-5,0]],[[1892,2295],[-3,0],[-3,-3],[-2,-4],[0,-3],[4,-1],[8,0],[1,-2],[-4,-5],[-3,-5],[0,-5],[0,-4],[-1,-5],[-6,-4],[0,-1]],[[4070,379],[5,-5],[7,-12],[-5,-4],[-1,-1]],[[4076,357],[-3,1]],[[4073,358],[-1,0],[-1,-1],[-1,-2],[-1,-3],[-1,-2],[1,-1],[1,0],[1,-2],[0,-1],[-1,-2],[-1,-1],[-2,-1],[-2,-1],[-1,-3],[0,-3],[0,-2],[1,-2],[3,-2],[2,-2],[0,-1],[-2,-2],[-11,-8],[-3,-4],[0,-2],[2,-1],[9,-1],[4,-1],[1,-3],[1,-3],[-1,-3],[-1,-1],[-1,0]],[[4068,297],[-2,1],[-2,0]],[[4064,298],[-2,0],[-2,-1],[0,-2],[4,-4],[3,-3],[4,-13],[1,-1],[5,-3],[2,-2],[1,-3],[2,-6],[0,-5],[-1,-4],[0,-2],[-3,-8],[-1,-3],[-1,-3],[1,-2],[1,-2],[6,-3],[1,-2],[0,-1],[4,-9]],[[1670,899],[-4,-6],[-4,-13],[-2,-4],[-3,-2],[-12,-8],[-3,-5],[-2,-5],[0,-12],[-1,-2],[-1,-3],[-8,-13],[-2,-3],[-2,-2],[-4,-2],[-8,-3],[-10,-3],[-3,-1],[-11,-5],[-5,-1],[-5,-1]],[[1538,806],[-4,1],[-10,2],[-9,4],[-6,5],[-20,20],[-14,3]],[[1580,805],[-18,3],[-13,0]],[[1549,808],[-11,-2]],[[1670,899],[20,-6],[18,-1],[4,-1],[3,-2],[5,-6],[13,-7],[3,-3],[1,-4],[1,-6],[0,-16],[0,-5],[1,-7],[2,-5],[3,-6],[6,-9],[51,-47],[6,-8],[6,-16],[2,-5],[0,-4],[-1,-4],[-4,-12],[-1,-3],[0,-3],[1,-4],[4,-8],[4,-14],[3,-7],[4,-3],[3,-3],[4,-1],[2,-1]],[[1903,696],[3,-2],[2,-3],[1,-4],[0,-5],[2,-4],[6,-13],[0,-3],[0,-3],[-2,-4],[-2,-4],[-4,-5],[-11,-13],[-2,-3],[-2,-3],[0,-3],[0,-4],[0,-3],[0,-4],[0,-4],[-3,-11],[0,-4],[0,-5],[1,-5],[2,-3],[2,-2]],[[1880,663],[1,0],[1,1],[1,2],[0,2],[-1,9],[0,5],[0,2],[1,2],[1,2],[1,1],[2,1],[4,1],[2,1],[5,3],[2,1],[3,0]],[[1848,674],[4,0],[3,-1],[22,-9],[3,-1]],[[1834,672],[3,0],[9,2],[2,0]],[[1911,592],[2,0],[4,-3],[3,-4],[2,-6],[4,-20],[-3,-32],[-4,-18],[3,-17],[6,-9],[12,-11],[4,-5],[2,-5],[1,-5],[2,-11],[2,-8],[1,-4],[1,-2],[2,-1],[2,-1],[3,-1]],[[1896,579],[1,0],[2,2],[9,10],[3,1]],[[1967,443],[3,-1],[12,-8],[2,-1],[7,-2],[3,-1]],[[1960,429],[2,0],[2,1],[1,1],[1,1],[0,1],[-1,6],[0,2],[2,2]],[[2007,433],[4,0],[3,0],[4,-2],[9,-4],[3,-3],[2,-4],[1,-8],[1,-5],[4,-7],[1,-5],[1,-5],[0,-4],[-2,-5],[-4,-5],[-4,-5],[-15,-11],[-2,-2],[-4,-5],[-3,-3],[-6,-2],[-3,-2],[-2,-2],[-2,-3],[-2,-4],[-6,-21],[-2,-3],[-2,-3],[-19,-14],[-7,-7],[-3,-2],[-3,-1],[-4,-1]],[[1994,430],[3,0],[3,1],[3,1],[0,1],[4,0]],[[1945,285],[-11,1]],[[1934,286],[-2,-1],[-5,-4],[-6,-8],[-2,-3],[-3,-1],[-6,-3],[-1,-1],[-2,-2],[-1,-2],[-1,-3],[-2,-8],[-2,-6]],[[1475,841],[-5,-7],[0,-3],[-1,-4],[0,-6],[-2,-4],[-4,-4],[-11,-6],[-7,-3],[-10,-1],[-8,-4],[-4,-4],[-2,-6],[0,-6],[-1,-5],[-3,-3],[-11,-7],[-16,-6],[-5,-5],[-3,-4],[-5,-3],[-12,-1]],[[1114,758],[-11,3],[-13,9],[-15,19],[-8,6],[-14,0]],[[1053,795],[-8,-7],[3,-4],[1,-5],[-3,-5],[1,-4],[5,-7],[9,-24],[6,-10],[2,-7],[0,-7],[-2,-5],[-4,-4],[-5,-8],[-3,-2],[-8,-3],[-2,-4],[-2,-14],[-2,-6],[-3,-2],[-2,-3],[-1,-2],[1,-5],[2,-5],[5,-8],[2,-7],[3,-5],[6,-2]],[[1222,759],[-11,1],[-17,11],[-9,4],[-25,2]],[[1160,777],[-9,-4],[-18,-11],[-9,-4],[-10,0]],[[1365,749],[-30,4],[-56,1],[-7,1],[-15,5]],[[1257,760],[-35,-1]],[[1096,655],[7,-3],[8,-2],[21,-10],[17,-1],[8,-4],[8,-11],[9,-20],[6,-8],[5,-3]],[[1054,630],[5,2],[10,8],[10,5],[7,7],[4,3],[6,0]],[[1190,593],[3,-2],[1,-5],[2,-3],[3,-2]],[[1185,593],[5,0]],[[1219,585],[6,-2],[4,-2],[4,-5],[14,-10],[4,-7],[1,-8],[-9,-32],[-2,-17],[-1,-9],[-5,-14],[-5,-7]],[[1199,581],[20,4]],[[1230,472],[-6,2],[-8,1]],[[1216,475],[-7,-1],[-18,-12],[-20,-7],[-7,-5],[-5,-10],[0,-8],[4,-15],[-1,-7],[-13,-13],[-15,-13],[-7,-4],[-14,-4],[-7,-4],[-3,-7],[-1,-9],[2,-13],[1,-15],[-6,-8],[-2,-4],[-1,-5],[2,-9],[0,-7],[-5,-5],[-9,-2],[-21,-15],[-5,-8],[-2,-6],[-1,-6],[-2,-4],[-7,-4],[-7,-3],[-9,-1],[-7,-3],[-7,-2],[-10,-7],[-8,-9],[-5,-3],[-6,-5],[-5,-5],[-5,-3],[-6,-2]],[[971,202],[-5,5],[-7,13],[-4,5],[-5,2]],[[950,227],[-5,0],[-9,-8],[-10,-1],[-6,-2],[-7,-7],[-8,-4]],[[905,205],[-5,1],[-4,2],[-2,9],[-2,3],[-4,1]],[[888,221],[-4,-2],[-5,-5],[-12,-18],[-3,-9],[-1,-14],[1,-12],[0,-10],[-2,-7],[-8,-16],[-15,-9],[-4,-3],[-5,-6],[-2,-7],[-1,-22],[-2,-5],[-3,-2],[-6,-2],[-2,-2],[1,-2],[4,-8],[1,-5],[0,-6],[-3,-4],[-3,-1]],[[814,44],[-3,1],[-10,16],[-6,3]],[[795,64],[-5,-1],[-6,-5],[-7,-11],[-14,-33],[-4,-11],[0,-3]],[[1857,2203],[-1,1],[0,2],[1,2],[1,3]],[[1966,2019],[-10,7],[-4,5],[-5,2],[-4,2],[-6,3],[-4,6],[-12,25],[0,1],[1,12],[0,6],[-2,6],[-3,4],[-6,5],[-2,4],[-5,11],[-3,4],[-8,6],[-3,4],[-1,5],[0,10],[1,7],[0,6],[-4,9],[-2,2],[-4,4],[-3,2],[-5,4],[-2,3],[-1,3],[3,11],[0,4],[-1,2],[-2,1]],[[1869,2205],[-12,-2]],[[2005,1969],[-4,1],[-1,3],[-1,3],[2,20],[1,6],[-1,7],[-2,9],[-2,4],[-3,3],[-4,1],[-3,1]],[[1987,2027],[-4,0],[-3,-1],[-3,-1],[-3,-2],[-2,-2],[-3,-2],[-3,0]],[[1995,1922],[56,1],[4,3],[0,2],[-1,3],[-1,3],[-3,3],[-27,28],[-5,3],[-3,1],[-4,1]],[[2011,1970],[-6,-1]],[[1968,1928],[4,0],[9,-3],[14,-3]],[[1962,1926],[6,2]],[[1950,1927],[12,-1]],[[1898,1871],[2,1],[1,1],[4,8],[2,2],[1,1],[1,0],[15,4],[4,1],[3,2],[2,3],[3,4],[1,4],[4,14],[2,5],[2,3],[3,2],[2,1]],[[1889,1886],[2,-1],[1,-1],[2,-2],[0,-3],[1,-3],[1,-3],[1,-1],[1,-1]],[[1900,1846],[-5,0],[-5,1],[-5,3],[-3,4],[0,5],[0,6],[0,13],[1,3],[1,3],[3,1],[2,1]],[[1972,1773],[7,4],[0,1],[1,2],[-6,8],[-3,7],[-1,4],[1,3],[6,9],[2,6],[0,5],[0,2],[-3,2],[-27,6],[-6,3],[-7,4],[-10,9],[-5,4],[-4,2]],[[1917,1854],[-2,-1],[-1,-1],[-2,-2],[-1,-1],[-3,-2],[-4,-1],[-4,0]],[[1958,1775],[4,-1],[3,-1],[7,0]],[[2013,1630],[-6,2],[-7,5],[-5,6],[-1,2],[-3,5],[-3,13],[-2,4],[-3,1],[-4,1],[-3,1],[-3,8],[-3,5],[-4,4],[-3,2],[-4,1],[-8,6],[-5,2],[-3,0],[-5,3],[-3,2],[-10,23],[-5,9],[-9,7],[-4,4],[-1,3],[0,4],[1,3],[2,3],[2,2],[1,1],[2,1],[6,2],[21,1],[3,1],[2,2],[5,4],[2,1],[2,1],[3,0]],[[2083,1605],[-5,2],[-14,8],[-2,3],[-2,5],[-4,6],[-5,5],[-3,2],[-11,0]],[[2037,1636],[-4,-1],[-13,-4],[-7,-1]],[[2093,1537],[9,1],[5,1],[2,1],[16,12],[2,1],[3,4],[0,5],[4,6],[0,5],[0,2],[-2,3],[-27,26],[-4,2],[-7,0]],[[2094,1606],[-11,-1]],[[2047,1564],[6,-2],[11,-12],[7,-5],[9,-3],[6,-3],[3,-1],[4,-1]],[[2012,1514],[5,0],[7,3],[3,2],[2,2],[1,1],[1,2],[0,3],[0,2],[-1,3],[0,2],[-5,12],[1,9],[4,2],[5,2],[6,3],[6,2]],[[1977,1556],[12,-7],[1,-3],[0,-5],[-1,-4],[0,-2],[0,-2],[0,-2],[1,-3],[0,-2],[1,-3],[1,-2],[2,-1],[1,-2],[3,-2],[2,-1],[3,-1],[3,0],[6,0]],[[1738,1059],[1,11],[-2,14],[1,10],[1,5],[-1,4],[-4,9],[-1,3],[1,3],[7,12],[0,4],[-1,5],[-2,8],[-2,4],[-3,3],[-14,3],[-5,2],[-5,3],[-4,4],[-3,4],[-7,12],[-3,2],[-2,2],[-4,1],[-7,8],[-2,5],[-1,5],[1,4],[1,2],[2,5],[1,7],[0,15],[-1,12],[0,1],[-2,4],[-8,12],[-4,8],[-1,4],[0,4],[1,5],[1,23],[2,11],[1,4],[2,3],[1,3],[4,6],[6,6],[4,4],[12,7],[19,9],[5,3],[12,10],[6,3],[50,30],[38,23],[10,8],[2,5],[2,4],[2,2],[14,4],[11,7],[7,5],[1,3],[4,5],[23,16],[8,8],[20,27],[31,25],[13,4]],[[3194,1383],[5,-1],[1,-1],[4,-1],[3,-1],[4,-4],[4,-5],[3,-6],[4,-4],[22,-5],[8,-4]],[[3152,1325],[6,3],[2,6],[3,11],[1,2],[5,4],[1,3],[1,6],[4,7],[14,13],[5,3]],[[3268,1354],[9,-1],[3,-2],[4,-3],[3,-4],[2,-5]],[[3252,1351],[16,3]],[[3133,1332],[3,-1],[5,-2],[6,-3],[5,-1]],[[3096,1277],[3,0],[2,4],[5,23],[1,8],[3,10],[4,4],[5,2],[8,0],[1,1],[3,1],[2,2]],[[3083,1281],[5,-1],[8,-3]],[[3015,1081],[4,2],[3,3],[1,9],[1,5],[5,15],[-1,13],[4,19],[-1,6],[-1,4],[-1,3],[1,2],[2,3],[3,3],[6,12],[4,5],[2,5],[1,5],[-2,44],[2,6],[2,7],[9,12],[8,9],[4,3],[12,5]],[[2578,1157],[7,-2],[6,-6],[16,-21]],[[2501,1067],[9,0],[5,3],[2,5],[0,15],[-1,4],[-1,4],[-2,4],[-2,3],[0,2],[3,2],[9,2],[3,4],[2,6],[1,12],[2,5],[2,6],[4,6],[5,5],[5,2],[31,0]],[[2654,1149],[3,-5],[-1,-3],[-3,-4],[-1,-4],[1,-1],[4,-1],[6,0],[6,-2],[6,-5],[4,-7],[3,-31],[3,-7],[4,-4],[7,-6],[7,-1]],[[2607,1128],[18,2],[15,10],[6,6],[8,3]],[[1919,1103],[3,-1],[5,-5],[12,-25],[7,-24],[4,-8],[5,-4],[4,-2]],[[1857,1061],[4,0],[7,2],[14,1],[7,2],[6,4],[4,7],[5,3],[3,2],[2,2],[1,1],[1,2],[5,14],[1,1],[2,1]],[[2977,1093],[13,-4],[19,-7],[6,-1]],[[2964,1059],[0,2],[0,9],[0,3],[3,5],[6,8],[1,6],[3,1]],[[2915,1082],[4,-1],[5,-3],[12,-9],[28,-10]],[[2882,1064],[9,2],[4,0],[10,5],[3,8],[3,3],[4,0]],[[2721,1074],[14,-6],[10,-1],[3,-3],[1,-4],[2,-13],[-1,-4],[-2,-4],[-9,-11],[-1,-4],[2,-4],[29,-16],[22,-18],[8,-5]],[[2703,1068],[6,0],[8,5],[4,1]],[[2853,1072],[8,-1],[8,-3],[7,-4],[6,0]],[[2799,981],[4,1],[3,4],[2,4],[0,5],[0,4],[0,3],[2,3],[3,2],[4,3],[-1,14],[4,14],[3,5],[12,10],[18,19]],[[2486,1070],[3,0],[6,-2],[6,-1]],[[2464,1046],[3,1],[11,11],[1,2],[4,3],[2,2],[1,5]],[[1842,1064],[4,-1],[7,-2],[4,0]],[[1801,1049],[20,1],[6,2],[7,10],[8,2]],[[2018,1060],[5,-1],[3,-3],[4,-8],[0,-14],[-3,-3],[-2,-5],[1,-3],[9,-9],[5,-8],[5,-5],[5,-5],[11,-5],[9,-7],[2,-4],[2,-4],[3,-3],[6,-5],[5,-2],[4,-1]],[[2009,1054],[3,1],[4,4],[2,1]],[[1744,1059],[35,-6],[22,-4]],[[1738,1059],[6,0]],[[2001,1057],[3,-1],[3,-2],[2,0]],[[1993,1055],[4,0],[2,2],[2,0]],[[1989,1056],[4,-1]],[[1978,1036],[3,1],[2,2],[1,3],[-1,9],[0,3],[2,1],[4,1]],[[1969,1051],[2,0],[2,-2],[1,-4],[-1,-3],[2,-4],[3,-2]],[[1959,1034],[3,1],[2,2],[2,3],[0,4],[0,3],[1,3],[2,1]],[[2418,1050],[17,-1]],[[2308,982],[3,1],[14,14],[5,4],[3,3],[1,3],[-1,3],[1,4],[4,4],[33,13],[3,2],[2,2],[1,4],[1,2],[5,2],[29,3],[6,4]],[[2451,1050],[5,0],[4,-2],[4,-2]],[[2435,1049],[9,0],[7,1]],[[2202,1045],[6,-1],[4,-4],[4,-19],[3,-2]],[[2151,995],[2,3],[4,12],[5,8],[6,5],[16,9],[5,4],[5,3],[4,3],[4,3]],[[2228,1022],[3,-2],[1,-4],[3,-22],[3,-4],[4,-4],[20,-2]],[[2219,1019],[5,1],[4,2]],[[2126,1003],[2,-1],[3,-2],[3,-2],[5,-1],[7,-2],[5,0]],[[2092,965],[4,1],[5,2],[7,7],[1,3],[1,4],[2,4],[8,8],[2,4],[2,4],[2,1]],[[2305,1003],[2,-1],[1,-3],[-2,-10],[0,-5],[2,-2]],[[2262,984],[7,2],[6,4],[6,4],[24,9]],[[4096,1592],[-4,-3],[-3,-5],[-2,-5],[-1,-9],[-1,-4],[-1,-3],[-2,-3],[-4,-8],[-2,-4],[-1,-4],[-1,-5],[1,-5],[2,-11],[2,-4],[2,-4],[3,-3],[10,-9],[2,-2]],[[4096,1490],[-1,-1],[-2,-3],[-4,-3],[-5,-2],[-6,-1]],[[4078,1480],[-11,0]],[[4067,1480],[-6,-2],[-2,-5],[-1,-6],[0,-12],[-1,-5],[-1,-5],[-2,-3],[-3,-3],[-15,-5],[-10,-3]],[[3313,1164],[2,1],[1,3],[0,1],[2,21],[1,5],[5,6],[1,6],[-1,9],[-1,10],[-7,29],[-3,9],[-2,4],[-3,2],[-14,15],[-2,1],[-2,1],[-2,1],[-2,3],[0,2],[0,6],[0,3],[-2,10],[0,4],[0,6],[1,4],[2,4],[2,3],[0,6]],[[3304,1168],[2,-1],[4,-3],[3,0]],[[3308,1079],[5,0],[5,1],[5,3],[4,3],[3,3],[1,7],[-4,2],[-2,0],[-3,1],[-1,2],[1,4],[2,3],[4,2],[2,3],[0,3],[-3,4],[-2,3],[-1,3],[-1,3],[0,6],[-1,4],[-2,4],[-3,6],[-1,2],[-2,1],[-8,1],[-3,1],[-2,2],[-1,3],[-1,4],[2,4],[3,1]],[[3283,1088],[6,-1],[3,-1],[4,-2],[3,-2],[4,-2],[5,-1]],[[3233,932],[-2,1],[0,3],[0,4],[-1,4],[1,4],[3,4],[7,3],[5,1],[10,7],[10,9],[5,7],[15,34],[2,7],[-1,4],[-1,4],[0,4],[2,3],[3,3],[2,3],[1,3],[1,3],[0,3],[-1,3],[-3,4],[-1,3],[2,12],[-1,3],[-2,2],[-4,1],[-5,2],[-2,2],[-1,3],[3,2],[3,1]],[[3235,915],[6,0],[4,3],[0,6],[-4,7],[-2,2]],[[3239,933],[-2,0],[-2,-1],[-2,0]],[[3224,916],[11,-1]],[[3209,888],[3,2],[4,8],[1,5],[1,9],[2,3],[4,1]],[[3188,899],[4,0],[5,-3],[8,-8],[4,0]],[[3166,849],[5,1],[5,6],[3,2],[3,3],[1,4],[-1,10],[1,7],[-2,11],[1,3],[3,2],[3,1]],[[3114,865],[2,0],[3,-2],[2,-4],[1,-5],[0,-5],[1,-4],[2,-2],[2,0]],[[3101,805],[3,2],[3,5],[1,5],[-1,6],[-3,5],[-7,6],[-1,2],[-1,3],[0,3],[-1,2],[-6,6],[-2,3],[0,3],[3,2],[7,3],[18,4]],[[3156,852],[10,-3]],[[3127,843],[21,8],[8,1]],[[2959,806],[5,0],[6,-3],[19,-13],[7,-4],[6,-1],[5,0],[2,-1],[8,-8],[7,-6],[9,-4],[19,-5]],[[2723,614],[5,0],[11,4],[11,10],[4,3],[3,4],[2,1],[1,1],[1,1],[1,3],[2,4],[0,4],[0,5],[0,5],[2,6],[5,6],[7,6],[11,8],[18,9],[30,9],[15,7],[23,8],[43,7],[13,4],[6,11],[2,10],[-2,8],[-2,5],[0,2],[-1,2],[2,8],[3,5],[2,3],[7,5],[3,4],[1,2],[1,2],[0,3],[1,3],[2,2],[3,2]],[[3097,805],[4,0]],[[3088,779],[4,2],[1,5],[1,5],[0,9],[1,3],[2,2]],[[3060,793],[4,-1],[7,-2],[4,-1],[4,-1],[2,-2],[5,-7],[2,0]],[[3052,761],[12,3],[2,6],[-1,2],[-2,3],[-6,6],[-3,3],[0,4],[0,2],[2,2],[4,1]],[[2654,681],[6,-2],[15,-10],[12,0],[2,-8],[-4,-18],[-1,-5],[0,-1],[0,-1],[2,-2],[3,-2],[5,0],[3,-1],[10,-5],[7,-5],[4,-5],[5,-2]],[[2610,638],[9,0],[19,4],[3,1],[3,2],[1,4],[0,4],[-5,14],[0,3],[0,2],[2,3],[3,4],[4,2],[5,0]],[[2604,638],[6,0]],[[2584,607],[-2,2],[-2,3],[-2,4],[-3,2],[0,7],[1,4],[1,1],[8,4],[19,4]],[[2599,499],[-1,2],[-2,4],[-1,5],[-2,9],[-12,12],[-3,8],[1,9],[4,10],[5,9],[6,7],[2,4],[1,5],[1,10],[1,4],[2,3],[0,3],[-3,4],[-3,1]],[[2595,608],[-11,-1]],[[2704,435],[-5,2],[-7,7],[-45,51],[-7,5],[-7,4],[-8,2],[-6,0]],[[2619,506],[-16,-5],[-4,-2]],[[2815,327],[-4,0],[-7,1],[-19,17],[-2,5],[1,6],[1,11],[1,9],[0,5],[3,9],[2,4],[-1,4],[-1,4],[0,4],[2,3],[9,9],[5,2],[5,1],[6,1],[4,1],[2,1],[2,2],[0,2],[-1,1],[-3,1],[-6,1],[-4,1],[-1,0],[-1,1],[-1,1],[-3,0],[-50,2],[-20,5],[-15,0]],[[2719,441],[-4,-3],[-5,-2],[-6,-1]],[[2910,229],[3,0],[2,1],[1,3],[0,3],[-1,3],[-3,7],[-3,6],[-5,5],[-9,6],[-6,2],[-16,0],[-6,2],[-5,4],[-3,6],[-3,5],[-3,20],[-22,20],[-10,5],[-3,1]],[[2818,328],[-3,-1]],[[2902,230],[8,-1]],[[2929,140],[14,1],[6,3],[1,3],[-1,3],[-7,7],[-5,4],[-5,5],[-2,7],[-1,13],[-2,7],[-6,7],[-4,4],[-12,6],[-2,2],[-2,3],[-2,6],[0,4],[0,2],[0,1],[0,1],[1,1],[2,0]],[[2924,141],[5,-1]],[[2913,122],[4,0],[2,2],[1,5],[-1,8],[2,2],[3,2]],[[2907,124],[6,-2]],[[2890,113],[2,2],[5,4],[6,3],[2,2],[2,0]],[[3438,1885],[4,-1],[1,-3],[-4,-11],[0,-5],[1,-2],[4,-3],[3,-1],[4,-2],[3,-3],[12,-12],[3,-4],[2,-2],[-2,-2],[-1,-2],[-4,-2],[-2,-2],[-2,-3],[0,-3],[2,-2],[7,-3],[5,-3],[3,-3],[1,-3],[0,-4],[0,-3],[-1,-2],[-1,-1],[-2,-1],[-6,0],[-4,-1],[-5,-2],[-11,-11],[-4,-3],[-10,-3],[-5,-3],[-5,-5],[-13,-16],[-8,-6],[-6,-8],[-5,-3],[-7,-3],[-3,-3],[-8,-8],[-4,-2],[-2,0]],[[3412,1877],[4,1],[7,1],[15,6]],[[3400,1881],[6,-2],[6,-2]],[[3368,1720],[-3,0],[-2,0]],[[3363,1720],[-3,0],[-3,-3],[-12,-16],[-25,-21],[-11,-11],[-3,-4],[0,-5],[0,-5],[-1,-5],[-1,-4],[-3,-12],[-1,-2],[-1,-1],[-4,-1],[-2,-1],[-2,-2],[-1,-3],[1,-2],[0,-2],[2,-3],[1,-2],[0,-1],[0,-2],[1,-1],[2,-2],[7,-5],[11,-5],[4,-3],[4,-8],[2,-2],[2,-2],[2,-4],[2,-7],[2,-6],[2,-3],[8,-6],[4,-6],[23,-10],[10,-8],[3,-5],[2,-4],[1,-10],[2,-7],[0,-3],[0,-3],[-1,-12],[-3,-11],[0,-4],[1,-2],[1,-2],[3,-3],[2,-2],[0,-2],[1,-6],[0,-6]],[[3392,1452],[-22,4],[-6,3],[0,3],[0,1],[-5,4],[-7,3]],[[3352,1470],[-5,-4],[-7,-4],[-14,-5],[-2,-1],[-1,0],[-3,-6],[-2,-3],[-5,-3],[-11,-6],[-12,-4],[-7,-4],[0,-2],[0,-1],[0,-2],[-1,-1],[-2,-2],[-3,-3],[-2,-2],[0,-1],[0,-2],[1,0],[4,-2],[1,-1],[1,-1],[1,-3],[1,-4],[1,-1],[1,-1],[1,0]],[[3292,1402],[2,0],[1,-1],[3,-5],[2,-3],[1,-2],[2,-8],[3,-8],[3,-6],[0,-4],[-8,-13],[-12,-13]],[[3287,1401],[1,0],[3,1],[1,0]],[[1901,244],[-1,-7],[1,-3],[7,-13],[2,-6],[0,-7],[0,-4],[0,-4],[-1,-3],[-1,-3],[-2,-3],[-11,-13],[-3,-3],[-5,-2],[-5,-1],[-15,-2],[-13,-4],[-9,-7],[-31,-28],[-4,-3],[-21,-9],[-9,-4],[-6,-4],[-6,-7],[-18,-28],[-3,-6],[-1,-5],[2,-3],[4,-4],[1,-2],[2,-2],[1,-3],[-1,-4],[-2,-2],[-3,-2],[-4,-2],[-6,-3],[-3,-3],[-1,-3],[-2,-16],[0,-4],[1,-3],[2,-4],[3,-2],[5,-3]],[[2890,113],[6,-12],[4,-3],[6,-2],[6,-1],[7,-3],[5,-5],[19,-14],[5,-1]],[[2953,73],[6,-1],[6,-1],[18,-8],[10,-7],[6,-5],[3,-5],[2,-2],[0,-2],[1,-8],[1,-5],[0,-4],[-1,-2],[-4,-11],[1,-6],[3,-6]],[[2948,72],[5,1]],[[3053,14],[7,-2],[13,-7],[5,-5]],[[3038,0],[2,3],[2,5],[3,4],[3,2],[5,0]],[[3723,1375],[36,-1]],[[3798,1374],[15,-4],[1,-16],[10,-21],[11,-11]],[[3759,1374],[39,0]],[[3860,1336],[22,-5],[34,-12]],[[3835,1322],[25,14]],[[3952,1319],[28,-3]],[[3916,1319],[36,0]],[[3110,3736],[4,-5],[2,-20],[-11,-5],[-31,5],[-14,-3],[-13,-7],[-20,-18],[-8,-9],[-6,-5],[-6,-3],[-7,0],[-7,3],[-3,4],[2,7],[4,9],[1,2],[-1,5],[-3,6],[-1,5],[1,10],[5,5],[22,9],[6,4],[13,14],[6,3],[3,3],[3,3],[2,4],[2,3],[4,2],[6,-2],[15,-10],[6,-2],[6,-3],[18,-14]],[[2920,3798],[3,-18],[6,-16],[-8,-7],[-9,-2],[-22,1],[-10,-3],[-9,-6],[-8,-8],[-6,-11],[4,-11],[0,-10],[-4,-9],[-5,-7],[-6,-7],[-3,-4],[-2,-9],[-9,-8],[-2,-5],[-1,-5],[3,-8],[0,-6],[-1,-5],[-4,-4],[-15,-13],[-8,-5],[-8,0],[-6,6],[-2,7],[-12,26],[1,3],[5,1],[6,0],[3,1],[2,3],[2,4],[2,6],[4,17],[1,15],[3,5],[17,16],[5,6],[2,3],[3,2],[9,4],[5,3],[1,3],[2,9],[11,24],[4,17],[2,22],[3,8],[1,4],[-1,5],[-2,9],[0,4],[8,12],[16,0],[16,-9],[10,-14],[2,-8],[1,-28]],[[3855,4041],[2,-1],[1,-4],[-6,-9],[-12,-2],[-10,5],[3,15],[-11,-10],[-2,-16],[0,-19],[-2,-17],[-4,-6],[-14,-16],[-3,-3],[-7,-3],[-5,-8],[-3,-7],[-4,-5],[-7,2],[-7,6],[-6,8],[-3,6],[-4,1],[-28,-6],[-5,3],[-8,6],[-5,7],[-1,5],[8,14],[5,7],[8,3],[-16,10],[-8,3],[-8,-5],[-5,3],[-7,0],[-7,-1],[-6,-2],[-5,-3],[-9,-9],[-2,-2],[-6,1],[-11,4],[-6,1],[-12,0],[-6,2],[-5,4],[0,-3],[-2,7],[-1,9],[1,8],[1,4],[-12,-3],[-2,0],[-4,3],[0,3],[1,3],[-1,4],[-6,3],[-6,-1],[-4,1],[0,9],[1,8],[4,4],[5,3],[7,2],[12,2],[18,0],[16,-1],[7,-5],[-2,-5],[-2,-5],[-1,-5],[5,-6],[6,-4],[7,0],[8,1],[6,3],[-7,5],[-3,7],[3,7],[7,6],[3,-3],[2,3],[3,-3],[7,4],[23,8],[29,14],[8,-8],[13,-1],[26,6],[6,-2],[9,-10],[5,-2],[5,-1],[13,-4],[10,-2],[6,-2],[5,-4],[4,-4],[5,-11],[3,-3],[2,-1]],[[933,3573],[3,-9],[3,-4],[-5,-10],[-6,-4],[-8,-1],[-9,1],[-2,-1],[-2,-2],[-2,0],[-3,1],[-1,2],[-2,4],[0,1],[-5,0],[-4,-2],[-4,0],[-5,2],[-9,4],[-4,7],[-3,8],[-6,4],[8,5],[2,0],[3,-1],[1,-1],[1,-2],[3,-1],[5,2],[3,2],[1,3],[-1,4],[-1,2],[0,1],[0,1],[4,4],[5,24],[0,13],[-5,14],[5,2],[4,2],[4,0],[8,-6],[10,0],[3,-3],[5,-6],[2,-4],[-1,-5],[-3,-5],[-3,0],[-4,1],[-4,-2],[-6,-7],[-1,-9],[3,-8],[5,-8],[4,-3],[8,-4],[4,-3],[2,-3]],[[3377,0],[3,6],[5,7],[1,4],[0,4],[-2,5],[0,4],[2,2],[13,0],[9,6],[11,10],[9,12],[3,11],[-5,16],[-10,10],[-13,5],[-14,3],[-12,1],[-6,1],[-6,5],[-10,11],[-4,8],[-2,6],[-5,32],[-4,17],[-6,9],[0,2],[8,0],[4,-5],[2,-7],[1,-9],[1,-7],[5,-15],[1,-9],[2,-6],[4,-7],[9,-10],[7,-5],[6,-2],[6,2],[6,5],[1,-10],[14,-7],[17,-6],[12,-7],[2,-7],[3,-21],[4,-9],[-6,-10],[-15,-20],[-3,-5],[-3,-6],[-1,-7],[2,-7],[-11,0],[-1,1],[-5,1],[-2,-2],[-27,0]],[[3586,0],[0,2],[0,17],[1,7],[7,10],[2,7],[0,5],[-2,7],[-1,10],[0,3],[1,3],[4,4],[1,8],[3,7],[1,2],[1,1],[3,5],[2,7],[-1,2],[7,0],[2,-8],[-4,-9],[-6,-5],[-6,-17],[0,-5],[2,-9],[1,-12],[1,-6],[1,-5],[-3,-8],[-5,-8],[-2,-4],[0,-6],[2,-4],[2,-1],[-14,0]],[[3618,0],[1,1],[3,7],[1,5],[8,16],[3,10],[-5,4],[-7,2],[-2,5],[1,7],[2,6],[4,5],[5,5],[7,3],[7,1],[-12,-11],[-6,-7],[-2,-6],[3,-6],[14,-8],[3,-9],[-2,-7],[-4,-5],[-5,-4],[-4,-5],[-2,-5],[0,-4],[-11,0]],[[3754,0],[2,10],[-3,26],[-1,5],[-6,11],[-1,6],[1,7],[3,4],[1,5],[-2,6],[6,-3],[0,-1],[1,-7],[-2,-19],[1,-6],[9,-12],[2,-9],[0,-9],[-3,-14],[-8,0]],[[3921,0],[1,8],[-1,3],[-2,3],[-5,10],[-1,5],[-2,2],[-1,2],[0,3],[1,1],[4,1],[2,2],[3,11],[1,5],[-2,5],[-3,4],[-1,5],[-2,5],[0,3],[-1,1],[-2,-3],[-2,-5],[0,-6],[-3,0],[-3,52],[3,27],[3,0],[3,-9],[1,-8],[-2,-18],[1,-9],[16,-40],[0,-6],[-4,-8],[-1,-4],[1,-19],[3,-6],[7,4],[2,6],[2,26],[1,4],[4,8],[1,5],[0,9],[-1,4],[-2,5],[-8,14],[0,5],[4,8],[7,5],[2,4],[-3,9],[1,4],[5,4],[5,11],[3,6],[4,3],[-3,-7],[-3,-8],[-1,-9],[0,-9],[-3,-6],[-12,-16],[1,-5],[5,-6],[4,-8],[3,-9],[2,-8],[-2,-9],[-9,-17],[-2,-8],[-3,-24],[1,-12],[-17,0]],[[4046,0],[-5,8],[-1,4],[0,4],[2,8],[0,4],[-1,9],[-5,7],[-6,4],[-8,3],[0,3],[7,0],[6,-1],[5,-1],[6,4],[3,5],[1,7],[0,14],[-4,28],[-4,14],[-5,9],[15,30],[2,9],[-1,7],[-3,7],[0,9],[11,-9],[6,-2],[3,6],[2,7],[5,6],[12,13],[1,1],[6,4],[-1,-1],[-2,-4],[-1,-5],[-2,-5],[-30,-46],[-8,-19],[-1,-5],[0,-5],[0,-4],[1,-5],[2,-4],[5,-8],[1,-4],[1,-10],[3,-17],[1,-30],[1,-5],[3,-10],[1,-4],[2,-8],[6,-7],[6,-2],[6,5],[1,5],[-1,19],[2,3],[4,4],[0,-22],[-1,-4],[1,0],[0,-23],[-50,0]],[[3574,3734],[4,-6],[1,-7],[-2,-6],[-10,-11],[-3,-2],[-7,-1],[-4,-1],[-13,4],[-2,3],[-1,6],[-3,3],[-4,3],[-17,2],[-8,5],[-5,9],[-1,14],[-5,5],[-33,21],[-4,1],[-11,0],[-9,-2],[-3,2],[-3,5],[-18,20],[-6,3],[-1,2],[-9,14],[-5,2],[-5,2],[-4,2],[-4,8],[5,2],[24,-3],[7,-4],[11,-9],[110,-58],[27,-16],[8,-7],[3,-5]],[[2547,3252],[3,-6],[0,-7],[-5,-26],[-6,-8],[-10,-6],[-11,-4],[2,14],[0,-2],[6,29],[2,4],[0,3],[-3,6],[-1,4],[-1,8],[-2,5],[-6,12],[0,4],[7,2],[5,-6],[3,-7],[0,-3],[4,-6],[4,-3],[9,-7]],[[2808,3449],[2,-4],[0,-5],[-2,-7],[-1,-12],[-9,-26],[-1,-2],[1,-14],[-1,-5],[-4,-8],[-5,0],[-5,3],[-6,5],[-6,5],[-3,2],[-1,3],[0,8],[-1,4],[-1,4],[-2,4],[-7,17],[0,5],[6,13],[5,6],[13,5],[7,4],[8,2],[6,-2],[3,-2],[2,-1],[2,-2]],[[2761,3535],[-2,-3],[-3,-1],[-6,-4],[-4,-1],[-3,2],[-3,4],[0,5],[-5,11],[-3,2],[-17,2],[-3,2],[-2,4],[-2,8],[-5,9],[-1,8],[2,7],[2,5],[17,-3],[4,-1],[5,-7],[3,-16],[5,-6],[6,0],[7,3],[7,0],[2,-7],[0,-15],[-1,-8]],[[2210,3389],[13,-10],[3,-19],[-6,-17],[-7,-2],[-10,6],[-2,2],[-1,5],[0,4],[1,4],[0,4],[-6,17],[-22,42],[-5,15],[6,8],[3,-4],[8,-12],[4,-4],[20,-35],[1,-4]],[[1934,3504],[11,-17],[1,-5],[0,-10],[-2,-8],[-1,-6],[1,-13],[-1,-5],[-2,-2],[0,-3],[0,-1],[-3,-1],[-3,1],[-1,3],[0,4],[0,4],[-4,19],[-5,2],[-1,5],[0,13],[-2,6],[-7,10],[-1,5],[3,4],[6,-1],[7,-2],[4,-2]],[[2027,3784],[4,-3],[1,-4],[-3,-6],[-4,-5],[-3,-8],[-4,-3],[-12,-5],[-20,-14],[-11,-3],[-9,6],[-8,-3],[-10,-2],[-17,-1],[-1,3],[-2,2],[-3,1],[-2,0],[-4,-2],[-16,-4],[-4,-2],[0,3],[-2,8],[-11,16],[-2,6],[7,19],[2,4],[23,4],[12,-1],[9,-9],[10,9],[11,2],[30,-4],[11,-3],[6,-1],[14,1],[8,-1]],[[1740,3814],[-11,-8],[-1,-3],[1,-4],[0,-3],[-3,-1],[-10,0],[-4,0],[-4,0],[-3,1],[-2,2],[-2,8],[-3,0],[-3,1],[-3,2],[0,2],[0,4],[-1,4],[-3,1],[-4,-1],[-6,-3],[-3,-1],[-8,0],[-1,2],[2,5],[10,9],[6,5],[27,13],[7,1],[7,-2],[5,-3],[6,-5],[6,-6],[2,-5],[0,-9],[-4,-6]],[[1894,3824],[-2,3],[-1,3],[0,4],[14,-1],[-3,9],[-6,12],[7,6],[12,7],[3,0],[11,-5],[7,-1],[6,2],[3,3],[-6,5],[-7,-2],[-8,3],[-7,5],[-3,7],[-1,2],[-2,1],[-1,1],[-1,1],[0,2],[1,2],[1,1],[6,16],[12,7],[11,-10],[8,-17],[4,-16],[-1,-11],[1,-3],[4,-9],[2,-5],[-3,-5],[-7,-3],[-15,3],[-7,-4],[-3,-7],[0,-9],[-3,-6],[-7,-3],[-4,-1],[-4,-1],[-4,-1],[-3,2],[-1,2],[1,6],[-1,4],[-3,1]],[[1781,3680],[-1,-3],[2,-21],[-3,2],[-6,-3],[-6,-4],[-4,-3],[-2,-6],[-3,-15],[-2,-3],[-7,1],[-4,2],[-3,5],[-3,6],[-3,13],[2,13],[5,11],[13,19],[4,3],[7,0],[5,-4],[5,-6],[4,-7]],[[2601,3688],[2,-4],[1,-5],[-1,-4],[-5,-4],[-3,1],[-2,4],[2,4],[-2,-2],[-4,0],[-3,0],[-4,0],[5,-7],[2,-11],[0,-13],[-2,-17],[-4,-15],[-3,-5],[-8,-7],[-5,1],[-6,3],[-8,0],[1,4],[2,1],[3,1],[4,0],[0,3],[-6,1],[-1,3],[1,3],[1,0],[2,-1],[4,3],[4,4],[2,3],[-8,0],[-9,5],[-7,9],[-3,9],[-6,-3],[-5,2],[-5,2],[-6,2],[-6,-1],[-17,-8],[-5,5],[-3,-3],[-2,-7],[0,-7],[-3,-4],[-7,2],[-12,9],[-40,9],[-13,8],[-3,3],[-4,5],[-10,20],[1,7],[3,8],[4,6],[16,11],[3,4],[0,4],[-2,6],[1,3],[4,2],[4,-1],[5,-1],[3,-2],[13,-9],[6,-4],[9,-1],[5,-2],[11,-7],[7,-2],[10,-4],[6,-1],[3,2],[-1,4],[-3,3],[0,3],[9,4],[2,-3],[3,-3],[3,-2],[2,4],[2,4],[5,0],[18,-4],[13,-9],[7,-4],[19,-2],[9,-3],[4,-7],[1,-5]],[[3487,4038],[3,-2],[3,-1],[3,-4],[-5,-1],[-7,-4],[-4,-1],[-4,1],[-10,4],[-2,2],[-2,4],[-3,-1],[-9,-7],[-4,-2],[-3,0],[-20,-1],[-6,3],[3,7],[6,6],[7,6],[7,3],[8,-3],[16,-5],[6,3],[1,11],[4,-1],[5,-3],[4,-4],[2,-5],[1,-5]],[[3180,4096],[44,0],[0,-3],[4,-9],[-2,-8],[-5,-7],[-10,-10],[-5,-4],[-6,-3],[-7,-2],[-14,1],[-7,-1],[-5,-3],[-11,5],[-3,13],[3,15],[24,16]],[[3666,3978],[3,-7],[2,-10],[-1,-10],[-6,-4],[0,-6],[-1,-11],[-4,-12],[-7,-5],[-9,-1],[-7,-4],[-4,-7],[1,-13],[5,-10],[1,-6],[-2,-5],[-3,-4],[-6,-18],[-2,4],[-2,8],[-3,5],[6,8],[3,4],[-1,4],[-3,2],[-4,2],[-2,2],[1,4],[-1,8],[-2,10],[-3,9],[-8,5],[-3,5],[-2,5],[-1,4],[-2,1],[-13,0],[4,6],[7,0],[7,-2],[4,-4],[2,-4],[1,-3],[1,-3],[4,-4],[3,-2],[4,0],[9,0],[2,3],[-4,9],[-6,9],[-5,4],[-7,1],[-15,4],[-9,1],[6,7],[9,6],[10,3],[10,0],[-6,10],[-1,5],[3,2],[4,-1],[4,-3],[5,-6],[6,-2],[10,2],[18,5]],[[3414,3989],[-15,-5],[-32,-7],[-29,-11],[-7,-2],[-9,-1],[-15,-4],[-4,1],[3,9],[2,0],[2,1],[2,2],[2,6],[0,5],[-2,8],[-1,5],[3,6],[6,5],[14,7],[8,5],[4,2],[5,1],[9,-2],[12,0],[11,2],[17,10],[7,-6],[1,-8],[-9,-4],[5,-6],[16,6],[7,-1],[4,-9],[-4,-7],[-7,-5],[-6,-3]],[[1674,3885],[-11,3],[-12,5],[-9,6],[-1,-3],[-1,-2],[-2,0],[-3,2],[-4,-1],[-7,-1],[-7,0],[-5,2],[-12,-6],[-4,5],[-13,12],[-3,5],[-3,7],[-7,5],[-7,2],[-3,-1],[-2,-6],[-6,-1],[-6,3],[-6,0],[-3,-2],[-5,-7],[-3,-2],[-4,1],[-10,5],[-7,1],[-5,4],[-4,4],[-13,5],[-3,5],[0,6],[6,3],[36,0],[7,-1],[5,-2],[-1,3],[-1,2],[-1,1],[-3,0],[-1,1],[1,2],[-1,2],[-1,1],[-1,4],[-2,2],[-6,1],[-3,0],[4,6],[5,3],[6,1],[8,-1],[7,-3],[7,-4],[6,-2],[2,5],[4,5],[8,4],[9,2],[7,-1],[3,-6],[-2,-4],[-3,-4],[-3,-3],[-4,-2],[-1,-2],[2,-2],[2,0],[3,1],[4,4],[4,1],[2,-4],[1,-5],[1,-2],[18,-4],[4,-2],[3,-2],[1,-2],[1,-4],[4,-2],[7,-1],[6,-4],[16,-14],[6,-11],[15,-10],[5,-6],[-11,0]],[[1030,3603],[9,-10],[0,-13],[-11,-15],[-12,-8],[-11,-11],[-4,-3],[-17,-14],[-3,0],[-7,0],[2,0],[-7,5],[-6,2],[-6,4],[-6,9],[6,11],[-3,33],[2,17],[11,10],[16,-1],[31,-9],[16,-7]],[[3377,0],[3,6],[5,7],[1,4],[0,4],[-2,5],[0,4],[2,2],[13,0],[9,6],[11,10],[9,12],[3,11],[-5,16],[-10,10],[-13,5],[-14,3],[-12,1],[-6,1],[-6,5],[-10,11],[-4,8],[-2,6],[-5,32],[-4,17],[-6,9],[0,2],[8,0],[4,-5],[2,-7],[1,-9],[1,-7],[5,-15],[1,-9],[2,-6],[4,-7],[9,-10],[7,-5],[6,-2],[6,2],[6,5],[1,-10],[14,-7],[17,-6],[12,-7],[2,-7],[3,-21],[4,-9],[-6,-10],[-15,-20],[-3,-5],[-3,-6],[-1,-7],[2,-7]],[[3549,0],[-1,4],[5,-4]],[[3586,0],[0,2],[0,17],[1,7],[7,10],[2,7],[0,5],[-2,7],[-1,10],[0,3],[1,3],[4,4],[1,8],[3,7],[1,2],[1,1],[3,5],[2,7],[-1,2],[7,0],[2,-8],[-4,-9],[-6,-5],[-6,-17],[0,-5],[2,-9],[1,-12],[1,-6],[1,-5],[-3,-8],[-5,-8],[-2,-4],[0,-6],[2,-4],[2,-1]],[[3609,0],[2,1],[1,-1]],[[3618,0],[1,1],[3,7],[1,5],[8,16],[3,10],[-5,4],[-7,2],[-2,5],[1,7],[2,6],[4,5],[5,5],[7,3],[7,1],[-12,-11],[-6,-7],[-2,-6],[3,-6],[14,-8],[3,-9],[-2,-7],[-4,-5],[-5,-4],[-4,-5],[-2,-5],[0,-4]],[[3700,0],[-1,1],[-2,10],[4,7],[5,0],[2,-7],[1,-9],[2,-2]],[[3754,0],[2,10],[-3,26],[-1,5],[-6,11],[-1,6],[1,7],[3,4],[1,5],[-2,6],[6,-3],[0,-1],[1,-7],[-2,-19],[1,-6],[9,-12],[2,-9],[0,-9],[-3,-14]],[[3859,0],[-1,6],[2,6],[3,0],[1,-7],[3,-5]],[[3921,0],[1,8],[-1,3],[-2,3],[-5,10],[-1,5],[-2,2],[-1,2],[0,3],[1,1],[4,1],[2,2],[3,11],[1,5],[-2,5],[-3,4],[-1,5],[-2,5],[0,3],[-1,1],[-2,-3],[-2,-5],[0,-6],[-3,0],[-3,52],[3,27],[3,0],[3,-9],[1,-8],[-2,-18],[1,-9],[16,-40],[0,-6],[-4,-8],[-1,-4],[1,-19],[3,-6],[7,4],[2,6],[2,26],[1,4],[4,8],[1,5],[0,9],[-1,4],[-2,5],[-8,14],[0,5],[4,8],[7,5],[2,4],[-3,9],[1,4],[5,4],[5,11],[3,6],[4,3],[-3,-7],[-3,-8],[-1,-9],[0,-9],[-3,-6],[-12,-16],[1,-5],[5,-6],[4,-8],[3,-9],[2,-8],[-2,-9],[-9,-17],[-2,-8],[-3,-24],[1,-12]],[[4046,0],[-5,8],[-1,4],[0,4],[2,8],[0,4],[-1,9],[-5,7],[-6,4],[-8,3],[0,3],[7,0],[6,-1],[5,-1],[6,4],[3,5],[1,7],[0,14],[-4,28],[-4,14],[-5,9],[15,30],[2,9],[-1,7],[-3,7],[0,9],[11,-9],[6,-2],[3,6],[2,7],[5,6],[12,13],[1,1],[6,4]],[[4096,221],[-1,-1],[-2,-4],[-1,-5],[-2,-5],[-30,-46],[-8,-19],[-1,-5],[0,-5],[0,-4],[1,-5],[2,-4],[5,-8],[1,-4],[1,-10],[3,-17],[1,-30],[1,-5],[3,-10],[1,-4],[2,-8],[6,-7],[6,-2],[6,5],[1,5],[-1,19],[2,3],[4,4]],[[4096,27],[-1,-4],[1,0]],[[3855,4041],[2,-1],[1,-4],[-6,-9],[-12,-2],[-10,5],[3,15],[-11,-10],[-2,-16],[0,-19],[-2,-17],[-4,-6],[-14,-16],[-3,-3],[-7,-3],[-5,-8],[-3,-7],[-4,-5],[-7,2],[-7,6],[-6,8],[-3,6],[-4,1],[-28,-6],[-5,3],[-8,6],[-5,7],[-1,5],[8,14],[5,7],[8,3],[-16,10],[-8,3],[-8,-5],[-5,3],[-7,0],[-7,-1],[-6,-2],[-5,-3],[-9,-9],[-2,-2],[-6,1],[-11,4],[-6,1],[-12,0],[-6,2],[-5,4],[0,-3],[-2,7],[-1,9],[1,8],[1,4],[-12,-3],[-2,0],[-4,3],[0,3],[1,3],[-1,4],[-6,3],[-6,-1],[-4,1],[0,9],[1,8],[4,4],[5,3],[7,2],[12,2],[18,0],[16,-1],[7,-5],[-2,-5],[-2,-5],[-1,-5],[5,-6],[6,-4],[7,0],[8,1],[6,3],[-7,5],[-3,7],[3,7],[7,6],[3,-3],[2,3],[3,-3],[7,4],[23,8],[29,14],[8,-8],[13,-1],[26,6],[6,-2],[9,-10],[5,-2],[5,-1],[13,-4],[10,-2],[6,-2],[5,-4],[4,-4],[5,-11],[3,-3],[2,-1]],[[933,3573],[3,-9],[3,-4],[-5,-10],[-6,-4],[-8,-1],[-9,1],[-2,-1],[-2,-2],[-2,0],[-3,1],[-1,2],[-2,4],[0,1],[-5,0],[-4,-2],[-4,0],[-5,2],[-9,4],[-4,7],[-3,8],[-6,4],[8,5],[2,0],[3,-1],[1,-1],[1,-2],[3,-1],[5,2],[3,2],[1,3],[-1,4],[-1,2],[0,1],[0,1],[4,4],[5,24],[0,13],[-5,14],[5,2],[4,2],[4,0],[8,-6],[10,0],[3,-3],[5,-6],[2,-4],[-1,-5],[-3,-5],[-3,0],[-4,1],[-4,-2],[-6,-7],[-1,-9],[3,-8],[5,-8],[4,-3],[8,-4],[4,-3],[2,-3]],[[1030,3603],[9,-10],[0,-13],[-11,-15],[-12,-8],[-11,-11],[-4,-3],[-17,-14],[-3,0],[-7,0],[2,0],[-7,5],[-6,2],[-6,4],[-6,9],[6,11],[-3,33],[2,17],[11,10],[16,-1],[31,-9],[16,-7]],[[1674,3885],[-11,3],[-12,5],[-9,6],[-1,-3],[-1,-2],[-2,0],[-3,2],[-4,-1],[-7,-1],[-7,0],[-5,2],[-12,-6],[-4,5],[-13,12],[-3,5],[-3,7],[-7,5],[-7,2],[-3,-1],[-2,-6],[-6,-1],[-6,3],[-6,0],[-3,-2],[-5,-7],[-3,-2],[-4,1],[-10,5],[-7,1],[-5,4],[-4,4],[-13,5],[-3,5],[0,6],[6,3],[36,0],[7,-1],[5,-2],[-1,3],[-1,2],[-1,1],[-3,0],[-1,1],[1,2],[-1,2],[-1,1],[-1,4],[-2,2],[-6,1],[-3,0],[4,6],[5,3],[6,1],[8,-1],[7,-3],[7,-4],[6,-2],[2,5],[4,5],[8,4],[9,2],[7,-1],[3,-6],[-2,-4],[-3,-4],[-3,-3],[-4,-2],[-1,-2],[2,-2],[2,0],[3,1],[4,4],[4,1],[2,-4],[1,-5],[1,-2],[18,-4],[4,-2],[3,-2],[1,-2],[1,-4],[4,-2],[7,-1],[6,-4],[16,-14],[6,-11],[15,-10],[5,-6],[-11,0]],[[2920,3798],[3,-18],[6,-16],[-8,-7],[-9,-2],[-22,1],[-10,-3],[-9,-6],[-8,-8],[-6,-11],[4,-11],[0,-10],[-4,-9],[-5,-7],[-6,-7],[-3,-4],[-2,-9],[-9,-8],[-2,-5],[-1,-5],[3,-8],[0,-6],[-1,-5],[-4,-4],[-15,-13],[-8,-5],[-8,0],[-6,6],[-2,7],[-12,26],[1,3],[5,1],[6,0],[3,1],[2,3],[2,4],[2,6],[4,17],[1,15],[3,5],[17,16],[5,6],[2,3],[3,2],[9,4],[5,3],[1,3],[2,9],[11,24],[4,17],[2,22],[3,8],[1,4],[-1,5],[-2,9],[0,4],[8,12],[16,0],[16,-9],[10,-14],[2,-8],[1,-28]],[[2601,3688],[2,-4],[1,-5],[-1,-4],[-5,-4],[-3,1],[-2,4],[2,4],[-2,-2],[-4,0],[-3,0],[-4,0],[5,-7],[2,-11],[0,-13],[-2,-17],[-4,-15],[-3,-5],[-8,-7],[-5,1],[-6,3],[-8,0],[1,4],[2,1],[3,1],[4,0],[0,3],[-6,1],[-1,3],[1,3],[1,0],[2,-1],[4,3],[4,4],[2,3],[-8,0],[-9,5],[-7,9],[-3,9],[-6,-3],[-5,2],[-5,2],[-6,2],[-6,-1],[-17,-8],[-5,5],[-3,-3],[-2,-7],[0,-7],[-3,-4],[-7,2],[-12,9],[-40,9],[-13,8],[-3,3],[-4,5],[-10,20],[1,7],[3,8],[4,6],[16,11],[3,4],[0,4],[-2,6],[1,3],[4,2],[4,-1],[5,-1],[3,-2],[13,-9],[6,-4],[9,-1],[5,-2],[11,-7],[7,-2],[10,-4],[6,-1],[3,2],[-1,4],[-3,3],[0,3],[9,4],[2,-3],[3,-3],[3,-2],[2,4],[2,4],[5,0],[18,-4],[13,-9],[7,-4],[19,-2],[9,-3],[4,-7],[1,-5]],[[3224,4096],[0,-3],[4,-9],[-2,-8],[-5,-7],[-10,-10],[-5,-4],[-6,-3],[-7,-2],[-14,1],[-7,-1],[-5,-3],[-11,5],[-3,13],[3,15],[24,16]],[[1934,3504],[11,-17],[1,-5],[0,-10],[-2,-8],[-1,-6],[1,-13],[-1,-5],[-2,-2],[0,-3],[0,-1],[-3,-1],[-3,1],[-1,3],[0,4],[0,4],[-4,19],[-5,2],[-1,5],[0,13],[-2,6],[-7,10],[-1,5],[3,4],[6,-1],[7,-2],[4,-2]],[[3487,4038],[3,-2],[3,-1],[3,-4],[-5,-1],[-7,-4],[-4,-1],[-4,1],[-10,4],[-2,2],[-2,4],[-3,-1],[-9,-7],[-4,-2],[-3,0],[-20,-1],[-6,3],[3,7],[6,6],[7,6],[7,3],[8,-3],[16,-5],[6,3],[1,11],[4,-1],[5,-3],[4,-4],[2,-5],[1,-5]],[[3414,3989],[-15,-5],[-32,-7],[-29,-11],[-7,-2],[-9,-1],[-15,-4],[-4,1],[3,9],[2,0],[2,1],[2,2],[2,6],[0,5],[-2,8],[-1,5],[3,6],[6,5],[14,7],[8,5],[4,2],[5,1],[9,-2],[12,0],[11,2],[17,10],[7,-6],[1,-8],[-9,-4],[5,-6],[16,6],[7,-1],[4,-9],[-4,-7],[-7,-5],[-6,-3]],[[3666,3978],[3,-7],[2,-10],[-1,-10],[-6,-4],[0,-6],[-1,-11],[-4,-12],[-7,-5],[-9,-1],[-7,-4],[-4,-7],[1,-13],[5,-10],[1,-6],[-2,-5],[-3,-4],[-6,-18],[-2,4],[-2,8],[-3,5],[6,8],[3,4],[-1,4],[-3,2],[-4,2],[-2,2],[1,4],[-1,8],[-2,10],[-3,9],[-8,5],[-3,5],[-2,5],[-1,4],[-2,1],[-13,0],[4,6],[7,0],[7,-2],[4,-4],[2,-4],[1,-3],[1,-3],[4,-4],[3,-2],[4,0],[9,0],[2,3],[-4,9],[-6,9],[-5,4],[-7,1],[-15,4],[-9,1],[6,7],[9,6],[10,3],[10,0],[-6,10],[-1,5],[3,2],[4,-1],[4,-3],[5,-6],[6,-2],[10,2],[18,5]],[[3574,3734],[4,-6],[1,-7],[-2,-6],[-10,-11],[-3,-2],[-7,-1],[-4,-1],[-13,4],[-2,3],[-1,6],[-3,3],[-4,3],[-17,2],[-8,5],[-5,9],[-1,14],[-5,5],[-33,21],[-4,1],[-11,0],[-9,-2],[-3,2],[-3,5],[-18,20],[-6,3],[-1,2],[-9,14],[-5,2],[-5,2],[-4,2],[-4,8],[5,2],[24,-3],[7,-4],[11,-9],[110,-58],[27,-16],[8,-7],[3,-5]],[[3110,3736],[4,-5],[2,-20],[-11,-5],[-31,5],[-14,-3],[-13,-7],[-20,-18],[-8,-9],[-6,-5],[-6,-3],[-7,0],[-7,3],[-3,4],[2,7],[4,9],[1,2],[-1,5],[-3,6],[-1,5],[1,10],[5,5],[22,9],[6,4],[13,14],[6,3],[3,3],[3,3],[2,4],[2,3],[4,2],[6,-2],[15,-10],[6,-2],[6,-3],[18,-14]],[[2761,3535],[-2,-3],[-3,-1],[-6,-4],[-4,-1],[-3,2],[-3,4],[0,5],[-5,11],[-3,2],[-17,2],[-3,2],[-2,4],[-2,8],[-5,9],[-1,8],[2,7],[2,5],[17,-3],[4,-1],[5,-7],[3,-16],[5,-6],[6,0],[7,3],[7,0],[2,-7],[0,-15],[-1,-8]],[[2808,3449],[2,-4],[0,-5],[-2,-7],[-1,-12],[-9,-26],[-1,-2],[1,-14],[-1,-5],[-4,-8],[-5,0],[-5,3],[-6,5],[-6,5],[-3,2],[-1,3],[0,8],[-1,4],[-1,4],[-2,4],[-7,17],[0,5],[6,13],[5,6],[13,5],[7,4],[8,2],[6,-2],[3,-2],[2,-1],[2,-2]],[[1894,3824],[-2,3],[-1,3],[0,4],[14,-1],[-3,9],[-6,12],[7,6],[12,7],[3,0],[11,-5],[7,-1],[6,2],[3,3],[-6,5],[-7,-2],[-8,3],[-7,5],[-3,7],[-1,2],[-2,1],[-1,1],[-1,1],[0,2],[1,2],[1,1],[6,16],[12,7],[11,-10],[8,-17],[4,-16],[-1,-11],[1,-3],[4,-9],[2,-5],[-3,-5],[-7,-3],[-15,3],[-7,-4],[-3,-7],[0,-9],[-3,-6],[-7,-3],[-4,-1],[-4,-1],[-4,-1],[-3,2],[-1,2],[1,6],[-1,4],[-3,1]],[[2027,3784],[4,-3],[1,-4],[-3,-6],[-4,-5],[-3,-8],[-4,-3],[-12,-5],[-20,-14],[-11,-3],[-9,6],[-8,-3],[-10,-2],[-17,-1],[-1,3],[-2,2],[-3,1],[-2,0],[-4,-2],[-16,-4],[-4,-2],[0,3],[-2,8],[-11,16],[-2,6],[7,19],[2,4],[23,4],[12,-1],[9,-9],[10,9],[11,2],[30,-4],[11,-3],[6,-1],[14,1],[8,-1]],[[1781,3680],[-1,-3],[2,-21],[-3,2],[-6,-3],[-6,-4],[-4,-3],[-2,-6],[-3,-15],[-2,-3],[-7,1],[-4,2],[-3,5],[-3,6],[-3,13],[2,13],[5,11],[13,19],[4,3],[7,0],[5,-4],[5,-6],[4,-7]],[[1740,3814],[-11,-8],[-1,-3],[1,-4],[0,-3],[-3,-1],[-10,0],[-4,0],[-4,0],[-3,1],[-2,2],[-2,8],[-3,0],[-3,1],[-3,2],[0,2],[0,4],[-1,4],[-3,1],[-4,-1],[-6,-3],[-3,-1],[-8,0],[-1,2],[2,5],[10,9],[6,5],[27,13],[7,1],[7,-2],[5,-3],[6,-5],[6,-6],[2,-5],[0,-9],[-4,-6]],[[2210,3389],[13,-10],[3,-19],[-6,-17],[-7,-2],[-10,6],[-2,2],[-1,5],[0,4],[1,4],[0,4],[-6,17],[-22,42],[-5,15],[6,8],[3,-4],[8,-12],[4,-4],[20,-35],[1,-4]],[[2214,3341],[-3,0],[2,0],[1,0]],[[2547,3252],[3,-6],[0,-7],[-5,-26],[-6,-8],[-10,-6],[-11,-4],[2,14],[0,-2],[6,29],[2,4],[0,3],[-3,6],[-1,4],[-1,8],[-2,5],[-6,12],[0,4],[7,2],[5,-6],[3,-7],[0,-3],[4,-6],[4,-3],[9,-7]],[[3412,0],[-1,1],[-5,1],[-2,-2]],[[500,4095],[1,1]],[[2521,4096],[14,-6],[24,-2],[21,-3],[20,-5],[13,-5],[14,-7]],[[403,4067],[9,1],[9,-3],[12,-7],[18,-17],[7,-3],[12,15],[9,15],[18,26],[3,1]],[[2627,4068],[18,-10],[18,-7],[10,0],[8,2],[10,8],[9,9],[17,12],[15,8],[16,0],[11,-2],[9,-3],[10,-2],[12,0],[24,4],[30,5],[41,3],[3,1]],[[2956,4096],[6,-2],[12,0],[19,-6],[11,0],[13,-6],[29,-19],[22,-13],[23,-14],[9,-3],[12,-2],[25,3],[20,2],[24,4],[15,1],[33,-1],[24,5],[9,1],[27,14],[28,3],[17,9],[15,1],[11,0],[15,4],[9,6],[12,5],[15,2],[33,0],[9,2],[8,4]],[[3530,4096],[2,-1],[15,-5],[23,-3],[22,-2],[11,-3],[15,0],[18,5],[7,5],[6,4]],[[3850,4096],[8,-6],[14,-5],[18,-5],[9,-5],[19,-10],[26,-14]],[[3944,4051],[52,-28]],[[3996,4023],[6,-4],[17,-3],[15,2],[9,1],[16,14],[8,8],[9,10],[9,2],[9,2],[2,0]],[[500,4095],[3,-15],[20,-32],[9,-8],[4,-7],[17,-19]],[[355,3997],[7,10],[12,11],[8,5],[10,13],[0,9],[-4,13],[0,3],[15,6]],[[553,4014],[1,-5],[5,-18],[4,-12],[14,-15]],[[389,3906],[2,7],[-3,3],[-11,4],[-3,1],[-7,11],[-2,8],[-1,20],[-2,22],[-3,10],[-4,5]],[[350,3859],[6,3],[2,5],[0,11],[-3,13],[0,5],[7,5],[20,4],[7,1]],[[314,3851],[2,3],[7,5],[27,0]],[[577,3964],[4,-7],[12,-29],[9,-18],[5,-9],[22,-29],[16,-15],[12,-10],[13,-17],[9,-6],[21,-16],[8,-3],[7,-5],[8,-10],[4,-2]],[[727,3788],[11,-7],[15,-3],[19,-5],[12,-5],[8,-5],[9,-9],[13,-10],[24,-15],[11,-8],[21,-14],[24,-12],[6,-1]],[[314,3851],[-4,-7],[-9,-10],[-8,-10],[-7,-4],[-8,-5],[-3,-8],[-3,-19],[-6,-13],[-7,-16],[-11,-11],[-9,-7],[-3,-10],[-10,-16],[3,-10],[16,-13],[5,-9],[9,-13]],[[900,3694],[9,0],[10,-7],[9,-10],[11,-7],[13,-5],[15,-9],[5,-6],[3,1]],[[259,3670],[9,-22],[3,-5],[3,-25]],[[975,3651],[-3,-5],[-14,-20],[-7,-12]],[[975,3651],[7,0],[8,-3],[10,-14],[5,-6],[9,-4],[7,5],[6,-1],[23,-34],[6,-2]],[[274,3618],[-2,-16],[0,-11],[6,-12],[0,-7],[5,-8],[12,-14],[9,-12],[-2,-6],[-4,-2]],[[951,3614],[-2,-8],[-3,-15],[-4,-12],[-3,-27],[-3,-4],[-15,-15],[-24,-13]],[[897,3520],[-15,-15],[-8,-11],[-4,-13],[-2,-10],[2,-10],[3,-14],[10,-18],[2,-11]],[[298,3530],[-9,-10],[-6,-7],[-8,-5],[-9,-14],[-12,-5],[-4,-5],[-2,-7],[-4,-5],[-11,-5],[-7,4],[-9,-2],[-8,-7],[2,-8],[-5,-10],[3,-7],[0,-5],[-6,-12],[-18,-7],[-15,-8]],[[1056,3592],[1,-1],[18,0],[8,-4],[6,-7],[6,0],[54,11],[11,0],[12,-5],[10,0],[9,1],[5,-1],[7,-6],[42,-16],[14,-4],[9,-3],[10,-7],[9,-3],[5,0],[9,1],[24,5],[10,2],[11,-2],[4,-1],[12,-10],[5,-7],[4,-2],[11,-13],[15,-14],[9,-15],[4,-5],[21,-10],[9,-2],[12,0],[9,-3],[11,0],[10,-2],[20,-5],[7,-3],[5,-7],[13,-25],[8,-22],[9,-14],[8,-5],[10,-8],[8,-4],[19,-3],[41,-9],[16,-8],[8,-2]],[[170,3405],[-5,2],[-10,-4],[-8,4],[-3,5],[-21,5],[-7,-2],[-15,3],[-24,-10],[-5,-8],[-7,0],[-12,-5],[-8,0],[-15,-4],[-19,-10],[-8,2],[-3,5]],[[4076,3186],[10,6],[10,14]],[[1654,3354],[12,-1],[13,-4],[8,-5],[16,-18],[20,-11],[12,-10],[12,-6],[15,-14],[10,-7],[26,-22],[12,-6],[13,-4],[11,-6],[21,-16],[10,-11],[20,-11],[13,-5],[26,-13],[12,-5],[19,-9],[9,-5],[5,-7],[1,-10]],[[885,3418],[3,-5],[1,-8],[6,-12],[18,-17],[20,-10],[12,-3],[10,-9],[17,-10],[7,-3],[8,1],[10,-5],[12,-3],[3,-8],[11,-4],[7,-8],[6,0],[5,-5],[3,-7],[-8,-7],[-1,-5],[9,-5],[3,-5],[1,-10],[5,-3],[4,-16],[8,-10],[13,-1],[12,-6],[5,-6],[0,-5],[-6,-4],[-3,-5],[1,-13],[-1,-9],[-8,-10],[-6,-15],[-3,-12],[9,-12],[5,-1],[18,-4],[5,-3],[4,-7],[2,-12]],[[1970,3148],[8,0],[15,2],[14,-3],[10,3],[12,-5],[18,-12],[17,-5],[22,-24],[11,-6],[10,-2],[9,2],[9,1],[15,14],[23,12],[13,3],[15,-3],[12,-5],[33,-5]],[[2236,3115],[15,-7],[9,-10],[8,-10],[9,0],[16,5],[6,-2],[14,-5],[18,-10],[12,-10],[9,-10],[0,-26],[1,-7]],[[3953,3023],[0,16],[4,27],[2,11],[-2,9],[-3,29],[3,8],[12,14],[18,15],[15,20],[12,17],[6,5],[14,5],[16,-7],[17,-8],[9,2]],[[2733,3089],[-13,0],[-38,-6],[-15,0],[-33,-7],[-10,1],[-14,-3],[-4,-2],[-12,-16],[-5,-2],[-21,0],[-13,5],[-21,5],[-21,2],[-15,-2],[-9,-3],[-26,-12],[-10,-7],[-16,-15],[-13,-5],[-18,-2],[-24,-2],[-27,4],[-2,1]],[[3690,3000],[9,10],[9,8],[25,7],[6,-2],[14,-5],[19,-3],[17,0],[18,3],[14,5],[13,2],[56,-8],[13,3],[47,0],[3,3]],[[3067,2991],[-5,5],[-9,21],[-4,6],[-6,0],[-9,-1],[-29,-4],[-22,2],[-11,2],[-19,5],[-30,12],[-28,8],[-7,5],[-11,12],[-12,7],[-7,3],[-15,10],[-9,2],[-20,-3],[-7,3],[-11,2],[-12,-5],[-12,0],[-19,10],[-11,1],[-9,-5]],[[3432,2969],[7,6],[11,0],[10,-4],[15,-2],[14,4],[10,0],[15,-10],[24,-5],[12,-2]],[[3550,2956],[15,-2],[15,-3],[17,-3],[15,1],[9,2],[15,7],[10,5],[20,22],[7,5],[11,5],[6,5]],[[3218,2934],[-19,14],[-20,20],[-10,7],[-21,3],[-11,0],[-18,-3],[-16,0],[-11,1],[-12,5],[-13,10]],[[3218,2934],[18,-10]],[[3308,2909],[27,5],[26,1],[9,2],[11,7],[1,5],[-1,13],[4,7],[11,0],[12,-7],[10,2],[6,5],[3,15],[5,5]],[[3236,2924],[6,-5],[23,-7],[12,-2],[21,-3],[10,2]],[[443,2853],[8,5],[7,12],[12,7],[5,1],[7,9]],[[3690,3000],[6,-9],[10,-22],[8,-10],[10,-6],[5,-2],[9,2],[12,5],[21,6],[16,-1],[14,-5],[6,-5],[8,-11],[7,-10],[8,-8],[19,-5],[11,-2],[10,-2],[9,-3],[8,-5],[15,-13],[13,-16],[12,-6],[12,-11],[6,-10]],[[287,2845],[30,-14],[12,2],[5,3],[7,15],[6,7],[8,2],[19,1],[26,0],[12,0],[10,0],[21,-8]],[[1502,2879],[2,-2]],[[1112,3116],[0,-5],[9,-1],[4,-4],[24,0],[8,2],[9,-2],[7,2],[11,-4],[7,4],[6,-2],[9,5],[14,2],[13,0],[6,-3],[11,5],[3,-4],[-3,-12],[6,-10],[7,-8],[3,-12],[5,-3],[4,-16],[8,-10],[9,-8],[4,-2],[3,-10],[8,-5],[4,-2],[5,-3],[0,-8],[4,-6],[8,-10],[1,-8],[-12,-7],[2,-5],[9,-8],[9,-16],[6,4],[9,0],[6,3],[3,0],[4,-7],[15,-1],[5,-2],[7,0],[6,-2],[3,-5],[15,-6],[21,-9],[24,-7],[9,-10],[6,-3],[5,-9],[6,0],[4,-5],[8,0],[3,-4]],[[1504,2877],[7,-9],[3,-8],[7,-4],[8,-10],[1,-17],[2,0],[7,5],[7,2],[4,3]],[[17,2816],[-8,0]],[[3945,2851],[8,-1],[12,-5],[16,-14],[11,-7],[21,-5],[25,0],[9,2],[15,8],[6,0],[9,-8],[8,-9],[10,-6],[1,0]],[[0,2816],[9,0]],[[3218,2934],[-6,-8],[-13,-11],[-11,-18],[-7,-10],[-11,-12],[-6,-7],[-7,-22],[-3,-3],[-17,-5],[-7,-10],[-5,-14],[-3,-3],[-12,1],[-10,-6],[-8,-9],[-6,-12],[-9,-20],[-15,-25]],[[2699,2777],[-5,-5],[-4,-12],[-2,-10],[-4,-8],[-14,-9]],[[2816,2721],[-15,10],[-17,19],[-24,37],[-9,9],[-7,5],[-11,1],[-12,-10],[-12,-7],[-10,-8]],[[3062,2740],[-13,-12],[-11,-5],[-7,-3]],[[2868,2721],[-9,-3]],[[2859,2718],[-25,0],[-18,3]],[[3031,2720],[-14,-4],[-10,0],[-29,2],[-10,2],[-27,3],[-18,0],[-15,2],[-16,0],[-24,-4]],[[2670,2733],[15,-8],[6,-5],[5,-17],[3,-14],[-5,-3],[5,-5],[-2,-9]],[[244,2627],[4,17],[2,8]],[[250,2652],[3,9],[6,18],[6,24],[3,22],[6,25],[0,14],[4,16],[3,26],[2,13],[3,19],[1,7]],[[242,2627],[2,0]],[[242,2627],[-9,14]],[[233,2641],[-7,11],[-5,5],[-16,7],[-22,22],[-15,13],[-7,22],[-15,26],[-8,10],[-6,13],[-6,7],[-18,20],[-21,9],[-10,3],[-21,-2],[-8,2],[-19,7],[-12,0]],[[3945,2851],[11,-23],[6,-21],[4,-11],[3,-24],[2,-56],[1,-28],[-3,-9],[-4,-7],[-6,-5],[-15,-8],[-8,-9],[-7,-11],[-5,-14],[-10,-13],[-17,-10],[-10,-7],[-8,-10]],[[482,2887],[23,-4],[3,-6],[13,-4],[20,-3],[10,0],[11,-7],[9,-3],[13,-7],[21,-17],[20,-18],[7,-4],[13,2],[4,-10],[12,-5],[3,-5],[0,-21],[3,-10],[11,0],[10,-10],[6,-2],[14,-3],[6,-5],[4,-8],[8,-7],[4,-10],[18,-9],[29,-20],[19,-10],[12,-4],[14,-8],[7,0],[8,-5],[9,-8],[10,-2],[12,-7],[12,-8],[9,-4],[12,-10],[18,-7],[18,-5],[2,-6],[3,-5],[7,-2],[9,-2],[6,-5],[17,-27],[6,-3],[9,-12],[7,-5],[15,-9],[15,-13],[12,-15],[5,-4]],[[1072,2561],[-1,-3],[-6,-19],[-8,-7],[-1,-5],[3,-10],[-9,-12]],[[2697,2672],[2,-15],[-2,-5],[-13,-10],[-11,-17],[-12,-13],[-15,-10],[-9,-16],[-10,-13],[-6,-7],[-6,-17],[-2,-10],[2,-8],[13,-5],[5,-7],[1,-15],[-4,-16],[-2,-10]],[[2628,2478],[-1,-10],[-3,-15]],[[3879,2585],[-9,-16],[-3,-8],[-6,-7],[-15,-6],[-6,-6],[-6,-10],[-3,-10],[-6,-23],[-6,-29],[-11,-25]],[[242,2627],[-2,-9]],[[240,2618],[-2,-8],[-6,-7],[-5,-7],[-3,-10],[-3,-5],[-13,-10],[-9,-8],[-6,-10],[-16,-17],[-10,-16],[-6,-5],[-17,-8],[-16,-14],[-5,-3],[-22,-5],[-8,-5],[-21,-14],[-21,-10],[-4,-5],[-12,-13],[-5,-4],[-9,-1],[-15,-2],[-6,-1]],[[1359,2429],[-7,0],[-8,4],[-12,0],[-9,3],[-15,2],[-9,15],[-28,10],[-8,0],[-7,7],[-9,5],[-17,7],[-12,3],[-12,7],[-19,1],[-15,6],[-17,8],[-13,24],[-5,3],[-6,-2],[-12,-5],[-15,2],[-6,8],[-9,9],[-6,12],[-3,3],[-8,0]],[[2603,2421],[4,8],[11,14],[6,10]],[[3808,2445],[-10,-27],[-12,-24],[-3,-9],[-2,-8]],[[1715,2358],[6,12],[-1,5],[-6,4],[1,6],[9,0],[9,11],[3,1],[8,5],[1,9],[9,5],[6,-4],[11,0],[7,6],[-1,16],[1,9],[9,8],[15,4],[6,3],[5,5],[9,5],[12,15],[12,26],[6,5],[10,3],[6,5],[2,7],[7,8],[8,4],[7,12],[9,5],[14,5],[6,-4],[15,-10],[6,-8],[4,-10],[0,-11],[-4,-15],[1,-8],[2,-7],[22,-10],[23,-7],[12,0],[38,0],[7,-1],[14,0],[15,1],[24,-3],[30,-2],[6,-5],[18,-17],[4,-3],[8,-2],[6,2],[9,7],[10,1],[9,4],[9,-2],[6,-2],[5,-12],[1,-6],[6,-12],[6,-5],[5,-2],[13,4],[5,-2],[12,-14],[3,-3],[19,-7],[20,-10],[9,-3],[3,-5],[0,-10]],[[2379,2350],[12,8]],[[2322,2364],[12,-2],[13,0],[3,-2],[2,-7],[4,-3],[12,-2],[11,2]],[[1359,2429],[9,0],[12,-8],[14,-3],[33,-6],[27,0],[6,-5],[-5,-6],[2,-4],[4,-3],[11,0],[16,-9],[3,-5],[0,-5],[-3,-23],[0,-5],[6,-17],[6,0],[20,3],[7,-2],[22,2],[-2,2],[32,5],[10,5],[5,0],[12,7],[12,1],[13,0],[6,-1],[6,1],[18,-1],[9,-2],[24,0],[12,3],[9,5]],[[2379,2350],[7,-5],[14,-3],[22,3],[18,-3],[13,-9],[25,-10],[6,0],[8,5],[6,0],[6,10],[4,4],[12,-4],[14,-8],[4,3],[14,17],[7,5],[3,7],[11,7],[13,1],[11,4],[6,5],[4,15],[-7,17],[3,10]],[[1715,2358],[11,-8],[6,-7],[3,-1],[19,-7],[14,-10],[18,-7],[9,-8],[6,-6],[12,-5],[33,-11],[3,0],[9,16],[7,2],[8,9],[10,3],[11,3],[13,-3],[9,-2],[26,7],[18,3],[10,4],[15,12],[8,3],[14,2],[6,1],[13,9],[9,0],[21,3],[8,-5],[6,-8]],[[3781,2377],[0,-13],[0,-6],[-9,-8],[-18,-10],[-6,-5],[-3,-9],[-3,-16],[-4,-7],[-8,-4],[-15,-18],[-13,-10],[-2,-4]],[[3963,2271],[5,-10],[7,-5],[5,-6]],[[2289,2245],[7,24],[0,10],[-7,12],[7,3],[11,10],[4,11],[-6,8],[0,8],[3,4],[6,0],[2,5],[-5,5],[2,3],[-3,7],[1,7],[6,3],[5,-1]],[[2070,2347],[7,-4],[21,-18],[9,-4],[17,-3],[13,0],[20,-3],[9,-4],[12,0],[4,-12],[9,-5],[9,0],[9,-5],[5,-6],[13,-9],[9,-12],[6,2],[8,-3],[18,-2],[13,-12],[8,-2]],[[3700,2267],[2,-18],[-6,-5],[-9,-2],[-6,-7],[-5,-6],[-4,-2]],[[3980,2250],[-12,-6],[-14,-12],[-7,-10],[0,-10]],[[3672,2227],[-12,-4],[-11,2],[-16,-3],[-6,3],[-11,-5],[-9,-2],[-7,-5],[-3,-5]],[[2272,2158],[2,11],[0,16],[3,8],[-2,17],[2,5],[7,7],[5,12],[0,11]],[[1050,2505],[-5,-12],[-6,-10],[-7,-10],[-14,-13],[-4,-9],[-8,-13],[-4,-14],[0,-8],[3,-10],[12,-19],[3,-23],[1,-17],[3,-12],[9,-25],[2,-6],[-3,-8],[-6,-12],[-11,-25],[-4,-19],[1,-23],[3,-15],[3,-14],[2,-25],[-2,-9],[-4,-15],[-8,-7],[-1,-18],[-5,-5],[-7,-2],[-17,0],[-7,-3],[-12,-11],[-12,-15],[-17,-20],[-12,-8],[-13,-11]],[[3597,2208],[-5,-8],[-4,-5],[-3,-10],[-2,-5],[-9,-2],[-4,-4],[-15,-6],[-3,-5],[0,-9],[6,-8],[9,-7],[3,-5],[-3,-5],[-6,-5],[-11,-7],[-7,-8],[-18,-14],[-3,-7],[4,-11],[0,-5],[-3,-11],[0,-6],[12,-21],[6,-16]],[[837,2019],[-11,-1],[-30,-4]],[[903,2039],[-42,-11],[-24,-9]],[[796,2014],[-3,9],[-5,22]],[[259,2608],[-17,19]],[[788,2045],[-2,11],[-6,26],[-5,15],[-15,54],[-3,17],[-3,20],[-4,29],[-5,22],[-6,17],[-19,27],[-8,6],[-7,7],[-15,10],[-32,15],[-32,16],[-31,16],[-27,16],[-24,3],[-20,7],[-15,6],[-36,17],[-46,27],[-15,7],[-17,5],[-19,14],[-18,8],[-14,14],[-12,18],[-9,17],[-3,10],[-6,12],[-7,12],[-11,13],[-7,7],[-8,15],[-7,12],[-15,15]],[[2769,1984],[-3,1],[-28,4],[-12,5],[-9,7],[-5,11],[-7,7],[-11,5],[-25,2],[-11,2],[-12,6],[-9,2],[-10,2],[-9,8],[-23,12],[-19,10],[-12,4],[-20,8],[-10,8],[-9,4],[-24,3],[-9,10],[-8,5],[-25,7],[-10,5],[-6,-2],[-10,-6],[-9,0],[-26,12],[-12,3],[-16,-2],[-8,2],[-7,2],[-12,10],[-5,3],[-6,0],[-18,-5],[-10,0],[-15,14],[-9,3],[-8,2]],[[1241,1980],[-24,-3],[-33,-5],[-41,3],[-13,2],[-24,3],[-16,0],[-27,-1],[-24,0],[-10,1],[-12,5],[-47,27],[-21,12],[-16,9],[-30,6]],[[3509,1954],[4,1],[9,0],[13,-3],[3,12],[-1,8]],[[3505,1953],[4,1]],[[3537,1972],[-3,17],[3,25],[4,4]],[[3487,1948],[5,2],[13,3]],[[3945,1975],[0,-1],[-6,-5],[5,-11],[7,-6],[2,-5]],[[3947,2212],[-2,-9],[-10,-5],[-3,-12],[-6,-18],[1,-15],[6,-4],[-1,-7],[4,-15],[-3,-15],[2,-8],[12,-22],[-5,-4],[0,-8],[-9,-17],[-1,-3],[-2,-21],[0,-10],[3,-8],[3,-7],[8,-12],[1,-5],[0,-12]],[[3107,1933],[-42,10],[-4,-1]],[[3224,1935],[-18,-4],[-30,-1],[-28,5],[-20,-4],[-10,0],[-11,2]],[[3487,1948],[-16,-5],[-18,-1],[-5,-2],[-10,-17]],[[3438,1923],[-14,2],[-21,5],[-7,1],[-9,-3],[-11,-8],[-15,-7],[-24,0],[-11,2],[-49,13],[-18,5],[-24,4],[-11,-2]],[[3475,1903],[30,50]],[[3475,1903],[8,15],[1,8],[2,21],[1,1]],[[2251,1884],[-3,7],[-4,25],[-5,12],[-7,9],[-11,5],[-19,10],[-12,8],[-3,4],[-3,11],[1,10],[11,26],[3,5],[10,10],[11,15],[13,31],[11,20],[7,13],[6,9],[5,6],[6,16],[4,22]],[[3953,1947],[-11,-4],[-6,-3],[-4,-4]],[[3932,1936],[0,-1],[-5,-17],[-1,-35]],[[3061,1942],[-11,-9],[-10,-18],[-6,-5],[-18,-2],[-6,-5],[-11,-12],[-3,-8],[-9,0],[-19,6],[-2,4],[9,18],[-1,14],[-9,1],[-14,-3],[-21,-2],[-16,-1],[-22,1],[-9,2],[-15,5],[-21,9],[-25,11],[-29,17],[-24,19]],[[574,1847],[-5,7],[-13,3],[-5,5],[-6,10],[-3,7],[0,3]],[[542,1882],[-3,14],[-3,8],[-15,19],[-4,5],[-8,19],[-13,17],[-3,10],[-5,17],[-4,15],[-12,17],[-21,38],[-6,11],[-8,8],[-19,17],[-15,8],[-17,7],[-10,3],[-17,2],[-36,5],[-43,10],[-11,2],[-9,7],[-12,3],[-15,5],[-43,15],[-19,5],[-18,9],[-18,13],[-15,16],[-13,10],[-53,30],[-36,22],[-9,5],[-9,6]],[[595,1853],[-15,-8]],[[796,2014],[0,-7],[-7,-13],[-10,-12]],[[779,1982],[-2,-3],[-9,-15],[-3,-9],[-12,-20],[-6,-10],[-8,-2],[-12,-7],[-15,-5],[-21,-3],[-9,-2],[-13,-7],[-20,-11],[-21,-12],[-18,-9],[-14,-13],[-1,-1]],[[580,1845],[-6,2]],[[1693,1964],[-26,-4],[-3,0]],[[1664,1960],[-12,0],[-25,7],[-15,-2],[-26,7],[-12,0],[-25,3],[-2,4],[-8,3],[-7,2],[-5,0],[-12,-9],[-9,-1],[-7,1],[-11,7],[-10,3],[-23,-1],[-18,-9],[-19,-3],[-17,-2],[-28,5],[-8,4],[-10,5],[-20,-7],[-16,2],[-24,10],[-11,3],[-19,9],[-8,-21],[-16,0]],[[2251,1884],[-1,-1],[-15,-7],[-17,-5],[-19,-24],[-6,-7],[1,-6],[0,-9],[-3,-5],[-10,-10],[-9,-5],[-2,2],[-7,20],[-3,1],[-23,-1],[-33,7],[-15,6],[-27,17],[-10,15],[-14,14],[-7,3],[-6,9],[-8,10],[-13,10],[-8,5],[-14,17],[-18,2],[-10,0],[-12,-4],[-8,0],[-9,5],[-16,4],[-6,3],[-20,15],[-4,0],[-20,-5],[-13,-2],[-11,0],[-15,2],[-81,0],[-22,4],[-24,0]],[[3926,1883],[1,-2],[-4,-27],[-9,-31],[-11,-5],[-4,-5],[-3,-12]],[[3896,1801],[-11,2],[-4,9],[-9,22],[-5,10],[-3,10],[6,10],[-4,2],[-45,5],[-13,0],[-7,5],[-12,20],[-2,12],[3,13],[0,10],[-3,16],[-7,1],[-9,2],[-15,-3],[-9,0],[-3,-7],[0,-9],[0,-13],[-6,-7],[1,-8],[-4,-5],[-6,1],[-27,-10],[-9,0],[-26,2],[-4,7],[-6,10],[-5,15],[-1,7],[0,15],[3,13],[6,14],[4,25],[-1,12],[-5,7],[-6,0],[-25,-5],[-23,1],[-15,6],[-16,-2],[-20,2],[-12,0]],[[3471,1793],[10,12],[-1,10],[-9,12],[-5,8],[-7,12],[-3,7],[1,8],[6,19],[9,13],[3,9]],[[3514,1783],[-16,3],[-27,7]],[[386,1744],[-10,7],[-18,17],[-14,13],[-13,19],[-12,12],[-38,33],[-7,5],[-21,7],[-18,10],[-14,10],[-10,9],[-5,7],[-23,13],[-28,24],[-20,22],[-10,6],[-17,9],[-22,17],[-6,7],[-17,25],[-13,13],[-50,44]],[[574,1847],[-12,2],[-30,-5]],[[532,1844],[-5,-2],[-19,-10],[-18,-7],[-14,-3],[-9,-4],[-7,-1],[-5,-4],[-10,-12],[-15,-8],[-12,-10],[-17,-17],[-15,-22]],[[386,1744],[-19,-20],[-2,-5],[0,-14]],[[4096,1704],[-1,0],[-9,-7],[-10,3],[-9,2],[-5,-2],[-13,0],[-12,2],[-9,5],[-6,17],[-2,17],[0,13],[-6,20],[-1,14],[-11,2],[-16,0],[-20,-4],[-39,-1],[-18,1],[-3,4],[-6,8],[-4,3]],[[2415,1695],[-9,9],[-3,3],[0,15],[-5,7],[-9,10],[-12,12],[-9,5],[-28,12],[-9,8],[-8,12],[-12,22],[-9,12],[-9,18],[-6,7],[-16,15],[-17,17],[-3,5]],[[3543,1670],[-3,7],[-2,11],[-4,9],[0,8],[-6,7],[-5,8],[-3,14],[0,25],[-3,17],[-3,7]],[[365,1705],[-7,2],[-8,-2],[-45,-22],[-40,-20],[-6,-5]],[[3307,1607],[-2,7],[8,34],[4,8],[8,14],[21,22],[12,10],[20,12],[12,6],[19,17],[21,19],[15,15],[15,10],[11,12]],[[3735,1525],[12,-2],[7,5],[8,14],[9,10],[15,5],[18,0],[30,-4],[6,-3]],[[3735,1525],[-14,3],[-19,-5],[-17,3],[-18,2],[-12,-3],[-24,-10],[-28,-7],[-2,1],[2,12],[7,21],[9,22],[0,5],[-3,11],[-9,19],[-6,10],[-9,9],[-10,1],[-5,4],[-10,18],[-24,29]],[[1131,1464],[3,-2],[2,-1],[0,-12],[-2,-12]],[[1241,1980],[-8,-35],[-3,-14],[0,-45],[3,-12],[0,-7],[-6,-27],[-1,-28],[-5,-22],[-3,-10],[-6,-11],[-1,-8],[-9,-25],[-5,-22],[-3,-17],[-1,-20],[-2,-14],[-1,-12],[-3,-10],[-9,-22],[-14,-35],[-1,-27],[-3,-7],[-6,-12],[-8,-12],[-10,-13],[-6,-14],[-6,-18],[0,-12],[7,-5]],[[259,1658],[-15,-15],[-14,-10],[-16,-9],[-17,-3],[-14,-5],[-22,-10],[-38,-12],[-7,-5],[-9,-9],[-20,-20],[-7,-7],[-15,-18],[-11,-12],[-15,-24],[-4,-5],[-9,-8],[-11,-17],[-13,-14],[-2,-1]],[[1134,1437],[-3,2],[-7,-4]],[[1124,1435],[-9,-1],[-15,1],[-16,3]],[[599,1827],[-13,10],[-6,8]],[[1084,1438],[-4,1],[-11,5],[-15,10],[-22,12],[-15,13],[-12,9],[-23,10],[-33,17],[-18,13],[-16,7],[-27,18],[-12,7],[-26,12],[-40,27],[-9,3],[-24,16],[-23,11],[-9,9],[-25,28],[-15,16],[-9,6],[-8,9],[-13,12],[-15,18],[-9,14],[-16,39],[-10,18],[-5,7],[-16,18],[-5,4]],[[3307,1607],[-6,-10],[-18,5],[-12,0],[-9,-3],[-9,-7],[-9,-7],[-12,-5],[-32,-5],[-16,-5],[-6,-8],[-8,-22],[-4,-9],[-8,-6],[-3,-7],[-1,-12],[-5,-20],[-3,-7],[-22,-15],[-21,-14],[-6,-11],[0,-11],[-9,-13],[-9,-5],[-12,0],[-5,-2],[-16,-7],[-18,-1],[-27,3],[-8,4],[-1,10],[-8,1],[-13,-1],[-38,1],[-21,2],[-15,5],[-15,12],[-11,8],[-13,12],[-5,4],[-7,1],[-21,-1],[-11,-6],[-12,-13],[-6,-19],[-4,-5],[-9,-3],[-17,2],[-13,1],[-41,-5],[-10,0],[-12,4],[-12,6],[-8,7],[-9,5],[-37,14],[-8,3],[-6,9],[-9,11],[-13,27],[-24,34],[-9,19],[-5,10],[-4,8],[-14,15],[-27,29],[-9,10],[-10,14],[-9,10],[-11,7],[-20,11],[-13,12],[-14,14],[-4,3]],[[1155,1431],[-3,1],[-18,5]],[[1388,1359],[-23,2],[-30,8],[-22,9],[-11,3],[-30,12],[-10,3],[-27,0],[-15,4],[-8,3],[-15,15],[-15,7],[-27,6]],[[2364,1516],[-6,-15],[-8,-10],[-7,-3],[-14,-2],[-36,7],[-8,0]],[[2285,1493],[-7,0],[-15,-5],[-24,-6],[-21,-3],[-12,2],[-10,5],[-9,3],[-18,-5],[-12,-7],[-6,-6],[-9,-12],[-12,-20],[-6,-14],[-6,-5],[-11,-5],[-4,-5],[-11,-5],[-4,-5],[-11,-7],[-6,-5],[-9,-3],[-10,-16],[-11,-10],[-13,-10],[-15,-7],[-6,-6],[-13,-14],[-30,-29],[-22,-18],[-12,-10],[-5,-9],[-6,-10],[-4,-13]],[[2415,1695],[-5,-10],[-7,-13],[-9,-16],[-6,-11],[-5,-21],[-6,-37],[0,-18],[-3,-11],[-10,-22],[3,-8],[0,-5],[-3,-7]],[[1572,1377],[-7,3],[-15,13],[-11,-8],[-16,-14],[-1,0]],[[1522,1371],[-7,-2],[-28,-5],[-14,2],[-10,0],[-8,-5],[-36,-5],[-10,0],[-21,3]],[[1915,1233],[-14,0],[-16,1],[-9,4],[-17,10],[-13,10],[-12,8],[-18,12],[-6,4],[-17,17],[-15,15],[-15,3],[-15,17],[-10,5],[-27,3],[-24,5],[-26,6],[-10,1],[-38,0],[-13,4],[-23,16],[-5,3]],[[4096,1254],[-19,-20],[-3,-10]],[[1915,1233],[6,0],[18,-5],[18,-5],[22,-16],[28,-23],[18,-15],[4,-11],[9,-3],[8,-5]],[[3840,1550],[0,-8],[-3,-11],[-4,-16],[-2,-16],[6,-35],[8,-32],[6,-9],[4,-18],[6,-12],[2,-8],[0,-16],[1,-15],[5,-10],[6,-12],[1,-22],[-3,-6],[0,-12],[-4,-27],[1,-19],[-1,-8],[-5,-9],[-1,-8],[1,-20],[9,-27],[5,-27],[0,-17],[4,-12]],[[1388,1359],[-8,-13],[-1,-5],[10,-37],[-3,-4],[-10,-5],[-11,-12],[-4,-3],[-18,-10],[-11,-10],[-12,-4],[-6,-3],[-16,-15],[-36,-24],[-18,-17],[-5,-7],[-10,-3],[-2,-13],[-1,-5],[-12,-16],[-12,-6],[-15,-17],[-2,-2],[-18,-2],[-15,-8],[-12,-3],[-13,1],[-12,0],[-23,4],[-29,-2],[-15,-3],[-15,-4],[-13,-7]],[[1124,1435],[3,-7],[1,-8],[-2,-6]],[[1126,1414],[-2,-11],[-8,-32],[-3,-10],[-10,-25],[-5,-14],[-6,-29],[-8,-23],[-3,-14],[-10,-15],[-2,-5],[-1,-22],[-11,-35],[-6,-17],[-9,-15],[-10,-16],[-8,-15],[-4,-12]],[[743,1077],[14,-3]],[[666,1072],[36,2],[22,5],[11,0],[8,-2]],[[449,1143],[8,-1],[13,-2],[8,-4],[6,0]],[[0,1405],[9,-5],[18,-2],[23,-8],[27,-5],[9,-4],[21,-13],[30,-9],[16,-6],[18,-11],[12,-5],[14,7],[5,0],[4,-7],[3,-11],[17,-17],[6,-7],[12,-20],[13,-12],[11,-14],[9,-11],[13,-14],[3,-5],[11,-9],[4,-10],[9,-10],[26,-20],[21,-10],[18,-7],[22,-7],[45,-10]],[[484,1136],[9,-1],[19,-4],[17,-10],[24,-10],[16,-8],[26,-12],[42,-14],[15,-3],[14,-2]],[[1020,1104],[-14,-6],[-16,-17],[-8,-2],[-10,-8],[-9,-4],[-14,-3],[-13,-3],[-18,-2],[-6,-2],[-11,-8],[-10,-7],[-11,-3]],[[757,1074],[19,-5]],[[776,1069],[8,-2],[21,-1],[8,-4],[36,-15],[30,-8],[1,0]],[[2046,1150],[7,-7],[20,-12],[27,-13],[31,-14],[17,-6],[24,-10],[13,-6],[33,-16],[21,-9],[9,-3],[23,-5],[25,-9],[41,-17],[16,-8],[15,-10],[8,-9],[9,-8],[12,-7],[33,-15]],[[4074,1224],[3,-12],[2,-6],[-3,-21],[-5,-32],[0,-5],[9,-17],[3,-11],[-4,-21],[0,-6],[-8,-34],[-1,-10],[-2,-31],[3,-15],[0,-12],[2,-23],[-3,-12],[-2,-7],[8,-23],[3,-7],[7,-9],[10,-4]],[[3882,1118],[3,-3],[8,-17],[6,-14],[4,-7],[17,-16],[-2,-7],[-1,-12],[3,-7],[9,-10],[4,-13],[5,-34],[1,-36],[0,-8],[6,-15],[2,-7],[-6,-15],[0,-10],[10,-21],[2,-11],[0,-14]],[[2430,966],[9,-5],[12,-8],[27,-31],[9,-8],[8,-4],[30,-11],[12,-11],[4,-3],[14,-3],[13,-7],[12,-4],[12,0],[14,-6],[21,-10],[13,-9],[6,-7],[11,-3],[9,-7],[15,-12],[16,-8],[26,-8],[15,-2],[45,-10],[42,-14]],[[4096,776],[-10,1],[-16,5],[-14,2],[-21,-4],[-15,-3]],[[4016,750],[-5,-14],[-12,-11],[-3,-5],[0,-7]],[[2919,743],[14,-3],[18,-9],[18,-10],[23,-6],[15,-6],[10,0],[9,-3],[23,-12]],[[2825,775],[24,-10],[10,-3],[17,-4],[16,-3],[8,-2],[18,-10],[1,0]],[[3996,713],[12,-17],[11,-7],[13,-7],[2,-5]],[[3307,1607],[10,-1],[12,-2],[9,-3],[5,-4],[0,-5],[-3,-12],[1,-6],[8,-5],[7,-11],[13,-5],[4,-1],[14,-16],[12,-6],[4,-12],[12,-12],[6,-27],[6,-17],[6,-10],[2,-13],[-5,-49],[0,-19],[0,-22],[5,-13],[0,-12],[-5,-10],[-7,-12],[-3,-10],[1,-10],[-3,-7],[-1,-9],[4,-16],[-1,-11],[-8,-16],[-15,-17],[-9,-5],[-9,-7],[-10,-7],[-5,-12],[-4,-1],[-11,0],[-6,-2],[-5,-10],[2,-19],[1,-17],[6,-17],[9,-11],[11,-7],[6,-7],[3,-10],[2,-13],[6,-22],[9,-19],[1,-8],[-3,-11],[-6,-10],[-4,-10],[-2,-7],[3,-10],[12,-11],[9,-12],[12,-12],[8,-7],[7,-7],[21,-22],[11,-13],[10,0],[-9,-14],[-3,-8],[0,-20],[-3,-14],[-1,-20],[3,-12],[0,-10],[4,-13],[2,-14],[9,-12],[1,-5],[3,-18],[5,-12],[13,-17],[14,-9],[7,-13],[6,-5],[8,-17]],[[2418,913],[-2,-4],[0,-16]],[[2416,893],[0,-1],[3,-12],[0,-10],[-3,-19],[-4,-17],[3,-15],[13,-20],[8,-9],[1,-5],[3,-13],[6,-9],[3,-8],[5,-5],[11,-25],[-2,-12],[3,-7],[2,-17],[3,-8],[0,-7],[-3,-10],[-6,-9],[-2,-11],[-7,-7],[-5,-9],[-9,-6],[-15,-19],[-9,-8],[-15,-10]],[[2430,966],[-5,-10],[0,-19],[-7,-24]],[[439,525],[-2,-5],[-4,-10],[3,-8]],[[880,1039],[-7,-7],[-15,-17],[-30,-35],[-12,-7],[-11,-7],[-10,-8],[-6,-4],[-15,2],[-5,0],[-10,-5],[-11,-2],[-18,-7],[-12,-15],[-7,-7],[-29,-18],[-19,-10],[-6,-7],[0,-2],[-23,-18],[-9,-9],[-15,-15],[-5,-2],[-3,-6],[0,-19],[-1,-17],[-3,-18],[-3,-5],[-12,-19],[-5,-12],[-4,-13],[-24,-34],[-11,-12],[-16,-15],[-9,-12],[-18,-18],[-9,-14],[-2,-13],[-9,-12],[-12,-15],[-1,-12],[-3,-5],[-8,-10],[-4,-7],[-6,-17],[-3,-9]],[[4034,677],[-8,-5],[-4,-3],[-8,-15],[-7,-9],[-15,-6],[-5,-4],[-13,-25],[-9,-7],[-12,-7],[-8,-10],[-19,-15],[-12,-2],[-12,-6],[-11,-2],[-7,-7],[-17,-7],[-6,-8],[0,-14],[-3,-5],[-7,-3],[-9,-5],[-9,-10],[-17,-5]],[[2731,740],[-13,-5],[-3,-4],[0,-3],[4,-9]],[[2809,766],[-2,-1],[-32,-18],[-13,-7],[-8,2],[-8,-3]],[[2719,719],[1,-3],[0,-5],[-8,-13],[-1,-7],[0,-10],[4,-17],[-1,-15],[1,-12],[5,-20],[3,-10],[9,-9],[18,-7],[4,-1],[14,-16],[4,-10],[-1,-8],[-14,-14],[-4,-11],[-2,-11],[-3,-8],[-7,-12],[-9,-10],[-2,-7],[-4,-6],[-3,-9],[-6,-7],[-12,-8],[-20,-27],[-6,-5],[-7,-4],[-8,-1],[-3,-9]],[[2746,739],[-2,-1],[-9,4],[-4,-2]],[[2825,775],[-2,-1],[-14,-8]],[[2400,585],[12,-11],[4,-3],[9,-19],[11,-10],[6,-1],[7,-14],[5,-5],[11,0],[6,-2],[4,4],[8,-9],[6,-5],[15,-25],[1,-8],[6,-11],[3,-8],[21,-10],[9,0],[6,-5],[14,-5],[12,-9],[7,-3],[18,-3],[14,-4],[7,-2],[6,2],[8,0],[10,-7],[15,-5]],[[2046,1150],[-9,-10],[-12,-19],[-6,-13],[-2,-7],[3,-25],[-1,-7],[-12,-15],[-3,-7],[-7,-27],[-4,-7],[-3,-8],[-6,-10],[-6,-10],[-8,-9],[-1,-12],[-6,-5],[-17,-13],[-6,-15],[-6,-7],[-10,-4],[-9,2],[-36,14],[-8,-2],[-13,-14],[-11,-5],[-10,-16],[4,-7],[6,-2],[5,-5],[1,-14],[-3,-6],[-4,-4],[-5,-15],[-16,-17],[0,-6],[-8,-11],[-3,-11],[-7,-9],[-6,-12],[-2,-10],[2,-10],[-5,-12],[-3,-12],[-1,-18],[-5,-2],[-4,-17],[0,-6],[-9,-11],[-15,-5],[-6,-3],[-9,-13],[-3,-11],[0,-23],[-3,-10],[-3,-7],[-17,-12],[-6,-12],[-10,-10],[-9,-3],[-15,-10],[-8,-5],[-4,-16],[-6,-10],[-8,-7],[-7,-13],[-9,-7],[-5,-7],[-6,-6],[-4,-7],[-9,-12],[-18,-8],[-9,-10],[-8,-14],[-6,-7],[-7,-6],[-8,-11],[-3,-6],[0,-14],[-3,-7],[-6,-5]],[[0,787],[3,-5],[14,-5],[3,-8],[3,-9],[3,-44],[4,-17],[2,-8],[4,-12],[12,-13],[8,-11],[10,-8],[3,-5],[9,-7],[6,-8],[3,-9],[8,-11],[3,-11],[6,-22],[7,-27],[0,-20],[-1,-10],[-6,-12],[0,-13],[0,-29],[-3,-20],[-2,-15],[0,-11],[2,-3],[12,-15],[1,-2],[18,5],[32,14],[6,0],[9,-9],[8,-5],[19,-28],[9,-4]],[[3553,320],[-12,-7]],[[3816,497],[-24,-10],[-17,-7],[-7,-5],[-9,-2],[-11,-8],[-10,-5],[-20,0],[-19,-5],[-9,-2],[-14,3],[-4,-3],[-12,-17],[-6,-13],[-27,-31],[-15,-22],[-15,-17],[-14,-11],[-16,-14],[-11,-7],[-3,-1]],[[3546,326],[-5,-13]],[[3531,647],[4,-29],[5,-10],[9,-8],[0,-2],[-8,-13],[-13,-31],[3,-8],[-3,-12],[28,-10],[8,-7],[12,-12],[1,-5],[0,-10],[-3,-8],[-6,-11],[-4,-33],[4,-7],[0,-10],[3,-19],[-1,-10],[-5,-12],[-9,-28],[-7,-21],[-3,-5]],[[3496,448],[2,-2],[10,-15],[5,-10],[-5,-20],[-9,-29],[-6,-27],[0,-12],[2,-22],[0,-15],[-3,-15],[-5,-12]],[[3049,694],[10,-10],[12,-3],[21,-12],[21,-17],[22,-14]],[[3135,638],[13,-8],[27,-8],[6,-5],[16,-17],[9,-5],[30,-15],[27,-12],[44,-26],[9,-6],[4,-7],[8,-5],[44,-7],[13,-3],[26,-12],[9,-7],[10,-13],[5,-4],[15,-1],[18,-6],[13,-8],[8,-7],[7,-8]],[[436,502],[-4,-8]],[[432,494],[-1,-2],[-1,-14],[-12,-34],[-3,-11],[-14,-26],[-4,-6],[-5,-12],[-3,-5],[-7,-4],[-8,-10],[-19,-40],[-2,-4],[-12,-22],[-6,-6],[-3,-12],[-16,-15],[-2,-4]],[[215,370],[11,-1],[6,-4],[9,-2],[4,-6],[9,-24],[11,-3],[3,-10],[6,0],[4,-2],[2,-20],[1,-9],[12,-5],[8,-7],[12,-6],[1,-4]],[[3541,313],[-9,-20],[-7,-9],[-20,-13],[-4,-7]],[[3487,269],[0,-5],[14,0]],[[1544,385],[-8,-3],[-13,2],[-14,5],[-9,0],[-7,-2],[-8,-7],[-16,-30],[-15,-24],[-29,-3],[-18,2],[-6,-5],[-4,-11],[-5,-15],[-6,-8],[-1,-5],[0,-14],[-2,-17]],[[2400,585],[-3,-2],[-2,-14],[0,-10],[-3,-17],[-6,-17],[-12,-25],[0,-5],[2,-12],[3,-25],[3,-20],[0,-19],[-6,-12],[3,-11],[6,-6],[6,-3],[3,-5],[7,-12],[8,-8],[0,-9],[-2,-8],[5,-3],[10,-2],[8,2],[6,0],[9,-4],[9,-10],[3,-7],[8,-3],[22,-3],[15,-14],[5,-2],[10,-1],[5,-2],[22,-15],[11,-10],[16,-22]],[[3134,177],[-10,-3]],[[3487,269],[-18,5],[-4,0],[-9,-7],[-6,-1]],[[3450,266],[-12,-4],[-5,-1],[-6,-9],[-6,-19],[-4,-6],[-5,-4],[-24,0],[-15,-6],[-32,-2],[-7,0],[-8,-7],[-4,-5],[-11,0],[-22,-10],[-29,-3],[-10,0],[-18,-5],[-63,0],[-21,-6],[-14,-2]],[[436,502],[1,0],[4,-10]],[[441,492],[1,-2],[6,-8],[7,-2],[24,-3],[5,-6],[1,-11],[12,-14],[6,-8],[11,-14],[1,-10],[5,-8],[10,-9],[3,-13],[6,-9],[3,-20],[15,-8],[3,-5],[5,-12],[10,-7],[6,-7],[3,-8],[-4,-9],[0,-6],[6,-5],[6,-19],[7,-12],[6,-5],[21,-8],[13,-14],[19,-8],[27,-9],[11,0],[22,-3],[9,-2],[5,-2],[7,-15],[9,-6],[21,-11],[8,-1],[6,-4]],[[1383,250],[0,-20],[-4,-8],[-20,-12],[-9,-4],[-13,-3],[-5,-5],[-10,-12],[-6,-5],[-6,-2],[-8,-3],[-4,-7],[-2,-5],[2,-12]],[[3124,174],[-11,-3],[-7,-3]],[[3106,168],[-2,0],[-4,-9],[-12,-1],[-5,-6],[-13,7],[-8,0],[-9,2],[-13,5],[-33,-12],[-14,-3],[-15,-2],[-21,-2],[-16,-3],[-29,-5],[-8,-2]],[[2661,407],[14,-10],[6,-7],[4,-5],[30,-5],[3,-8],[14,-9],[13,-3],[18,-17],[8,-13],[9,-7],[3,-7],[3,-13],[4,-10],[5,-7],[15,-10],[6,-12],[6,-9],[19,-16],[8,-12],[9,-17],[9,-14],[16,-23],[9,-7],[2,-8],[6,-11],[4,-10]],[[2904,137],[-28,-18],[-2,-2]],[[783,169],[12,-8],[16,-12],[18,-15],[9,-12],[3,-10],[-3,-15],[12,-10],[6,0],[8,3],[15,10],[9,2],[18,-9]],[[1298,152],[-2,-6],[-3,-4],[-15,-5],[-16,4],[-11,-2],[-6,3],[-6,-5],[-1,-3],[-3,-24],[-5,-20],[3,-10],[8,-15],[0,-7]],[[906,93],[13,-5],[26,-6],[30,-7],[40,-4],[9,-3],[26,-8],[9,-5],[6,0],[6,0],[12,5],[23,8],[28,10],[15,0],[12,2],[17,-3],[28,-2],[14,-5],[21,-12]],[[2874,117],[-3,0],[-27,-27],[-7,-2],[-21,9],[-11,-4],[-15,-5],[-24,-11],[-12,-6],[-21,-10],[-19,-13],[-11,-10],[-12,-15],[-10,-9],[-8,-2]],[[1241,58],[24,-24],[19,-17],[18,-17]],[[2673,12],[-4,-1],[-12,-11]],[[2571,249],[2,-7],[0,-12],[-3,-12],[-5,-12],[-4,-6],[-5,-17],[-6,-14],[0,-18],[-1,-12],[-3,-10],[0,-22],[-5,-22],[-9,-8],[-15,-29],[-4,-7],[-8,-18],[-7,-23]],[[1241,58],[-2,-3],[-9,-7],[-15,-22],[-18,-20],[-3,-6]],[[286,0],[1,7],[3,24],[2,19],[-2,20],[-1,15],[-2,22],[3,18],[2,19],[0,12],[-3,18],[3,21],[6,6],[6,14],[0,17],[1,10],[6,5],[3,17],[0,3]],[[2907,0],[-9,17],[-9,14],[-7,13],[-5,11],[2,8],[3,10],[1,9],[-3,15],[-6,17],[0,3]],[[4096,49],[-4,-4],[-2,-3],[1,-19],[-1,-5],[-6,-5],[-6,2],[-6,7],[-2,8],[-1,4],[-3,10],[-1,5],[-1,30],[-3,17],[-1,10],[-1,4],[-5,8],[-2,4],[-1,5],[0,4],[0,5],[1,5],[8,19],[30,46],[2,5],[1,5],[2,4],[1,1],[0,-172]],[[4096,2884],[0,-2663],[-6,-4],[-1,-1],[-12,-13],[-5,-6],[-2,-7],[-3,-6],[-6,2],[-11,9],[0,-9],[3,-7],[1,-7],[-2,-9],[-15,-30],[5,-9],[4,-14],[4,-28],[0,-14],[-1,-7],[-3,-5],[-6,-4],[-5,1],[-6,1],[-7,0],[0,-3],[8,-3],[6,-4],[5,-7],[1,-9],[0,-4],[-2,-8],[0,-4],[1,-4],[5,-8],[-108,0],[-1,12],[3,24],[2,8],[9,17],[2,9],[-2,8],[-3,9],[-4,8],[-5,6],[-1,5],[12,16],[3,6],[0,9],[1,9],[3,8],[3,7],[-4,-3],[-3,-6],[-5,-11],[-5,-4],[-1,-4],[3,-9],[-2,-4],[-7,-5],[-4,-8],[0,-5],[8,-14],[2,-5],[1,-4],[0,-9],[-1,-5],[-4,-8],[-1,-4],[-2,-26],[-2,-6],[-7,-4],[-3,6],[-1,19],[1,4],[4,8],[0,6],[-16,40],[-1,9],[2,18],[-1,8],[-3,9],[-3,0],[-3,-27],[3,-52],[3,0],[0,6],[2,5],[2,3],[1,-1],[0,-3],[2,-5],[1,-5],[3,-4],[2,-5],[-1,-5],[-3,-11],[-2,-2],[-4,-1],[-1,-1],[0,-3],[1,-2],[2,-2],[1,-5],[5,-10],[2,-3],[1,-3],[-1,-8],[-54,0],[-3,5],[-1,7],[-3,0],[-2,-6],[1,-6],[-97,0],[3,14],[0,9],[-2,9],[-9,12],[-1,6],[2,19],[-1,7],[0,1],[-6,3],[2,-6],[-1,-5],[-3,-4],[-1,-7],[1,-6],[6,-11],[1,-5],[3,-26],[-2,-10],[-43,0],[-2,2],[-1,9],[-2,7],[-5,0],[-4,-7],[2,-10],[1,-1],[-71,0],[0,4],[2,5],[4,5],[5,4],[4,5],[2,7],[-3,9],[-14,8],[-3,6],[2,6],[6,7],[12,11],[-7,-1],[-7,-3],[-5,-5],[-4,-5],[-2,-6],[-1,-7],[2,-5],[7,-2],[5,-4],[-3,-10],[-8,-16],[-1,-5],[-3,-7],[-1,-1],[-6,0],[-1,1],[-2,-1],[-9,0],[-2,1],[-2,4],[0,6],[2,4],[5,8],[3,8],[-1,5],[-1,6],[-1,12],[-2,9],[0,5],[6,17],[6,5],[4,9],[-2,8],[-7,0],[1,-2],[-2,-7],[-3,-5],[-1,-1],[-1,-2],[-3,-7],[-1,-8],[-4,-4],[-1,-3],[0,-3],[1,-10],[2,-7],[0,-5],[-2,-7],[-7,-10],[-1,-7],[0,-17],[0,-2],[-33,0],[-5,4],[1,-4],[-126,0],[-2,7],[1,7],[3,6],[3,5],[15,20],[6,10],[-4,9],[-3,21],[-2,7],[-12,7],[-17,6],[-14,7],[-1,10],[-6,-5],[-6,-2],[-6,2],[-7,5],[-9,10],[-4,7],[-2,6],[-1,9],[-5,15],[-1,7],[-1,9],[-2,7],[-4,5],[-8,0],[0,-2],[6,-9],[4,-17],[5,-32],[2,-6],[4,-8],[10,-11],[6,-5],[6,-1],[12,-1],[14,-3],[13,-5],[10,-10],[5,-16],[-3,-11],[-9,-12],[-11,-10],[-9,-6],[-13,0],[-2,-2],[0,-4],[2,-5],[0,-4],[-1,-4],[-5,-7],[-3,-6],[-1570,0],[-1807,0],[0,4096],[4096,0],[0,-1212]],[[33,3662],[3,35],[29,-10],[-21,63],[44,17],[-39,56],[78,69],[50,-49],[28,-76],[37,-17],[-55,-62],[-14,-60],[23,-25],[-53,0],[-51,45],[-59,14]],[[640,144],[24,46],[42,-1],[31,-103],[81,51],[-1,-82],[-128,24],[-49,65]],[[638,2751],[101,-81],[3,22],[25,-13],[19,-39],[-70,-22],[4,22],[-73,60],[-9,51]],[[1363,3092],[6,37],[49,34],[0,38],[188,-60],[-33,-53],[26,-58],[-28,-39],[13,-41],[-81,-73],[-9,39],[-111,58],[15,45],[-35,73]],[[58,3570],[16,27],[50,-10],[15,21],[59,-16],[52,-87],[-23,-3],[14,-26],[-114,28],[11,28],[-24,9],[4,-10],[-1,-6],[-33,36],[-15,-21],[-11,30]],[[1883,2239],[81,43],[59,-70],[-80,33],[44,-51],[-26,-6],[-78,51]],[[2195,135],[26,11],[30,-5],[-28,-42],[-28,36]],[[3111,151],[-11,38],[38,4],[-7,-28],[-20,-14]],[[3545,416],[-32,-78],[41,-16],[-46,-119],[-60,31],[0,26],[51,140],[-9,47],[33,5],[18,37],[4,-73]],[[427,525],[34,0],[-20,-33],[-35,7],[21,26]],[[1422,199],[5,20],[27,-30],[-8,-38],[-51,5],[27,43]],[[2671,354],[31,20],[39,-15],[0,-26],[-70,21]],[[1478,925],[-37,-52],[-46,26],[22,16],[61,10]],[[739,1060],[12,46],[38,-14],[-16,-26],[-34,-6]],[[1561,1413],[38,-46],[-24,16],[-18,-32],[-37,11],[14,62],[27,-11]],[[2292,1481],[-23,37],[88,21],[18,-58],[-83,0]],[[1081,1440],[32,27],[42,-6],[0,-63],[-74,42]],[[3136,671],[2,-32],[-32,-10],[-97,68],[-74,10],[-28,62],[74,26],[-28,-31],[14,-31],[83,-16],[70,26],[-23,-41],[39,-31]],[[2838,697],[-54,4],[-48,48],[-37,-63],[-69,57],[-47,-10],[-4,42],[88,-26],[138,26],[33,-78]],[[277,1941],[31,-7],[-46,-26],[-14,31],[29,2]],[[3540,1967],[-9,-33],[-27,5],[18,52],[18,-24]],[[1700,1975],[-11,-18],[-26,-3],[8,43],[29,-22]],[[609,1824],[-83,21],[14,36],[37,11],[32,-68]],[[267,2629],[-9,-25],[-39,30],[39,22],[9,-27]],[[822,1996],[-37,-21],[-33,42],[42,33],[51,-18],[-23,-36]],[[3824,2325],[5,83],[45,26],[75,112],[62,7],[11,27],[73,-29],[-11,-203],[-82,-1],[-12,-53],[-44,26],[-47,-25],[-11,22],[-64,8]],[[1458,2722],[50,37],[-27,60],[171,-57],[-35,-12],[-12,-69],[-57,-12],[-90,53]],[[2359,899],[39,15],[52,-2],[-54,-31],[-37,18]],[[2089,2775],[50,5],[26,-41],[58,-27],[94,48],[31,-25],[-4,-38],[-99,-78],[-46,19],[-34,-14],[-46,54],[-30,97]],[[364,1099],[37,-1],[31,41],[69,16],[-42,-48],[45,-9],[-10,-23],[-54,10],[-29,-54],[-47,68]],[[2346,2491],[81,121],[66,-8],[4,-20],[31,52],[71,-110],[-54,-60],[-199,25]],[[3384,2272],[56,121],[-24,44],[21,8],[91,-22],[68,-104],[-37,-27],[-31,8],[0,38],[-82,-108],[-62,42]],[[3929,1968],[18,8],[29,-55],[-39,-36],[-8,83]],[[2826,2465],[19,59],[55,-1],[97,-77],[-34,-42],[-83,-19],[-43,17],[-11,63]],[[1724,2815],[82,173],[92,35],[84,-35],[12,-144],[79,-40],[-47,-57],[32,-39],[2,-100],[-89,-30],[-52,35],[-63,-22],[-43,15],[-39,56],[11,51],[-28,9],[-6,72],[-27,21]],[[2693,0],[39,53],[72,28],[-42,-48],[51,18],[53,-47],[-173,-4]]]}