{"objects":{"water":{"type":"GeometryCollection","geometries":[{"type":"Polygon","properties":{"source":"naturalearthdata.com","kind":"ocean","area":1576712559132672,"sort_rank":200,"min_zoom":0.0,"id":1},"arcs":[[84],[85],[86],[87],[88],[89],[90],[91]]},{"type":"Polygon","properties":{"kind":"lake","name":"Professor Doctor Ingenieur W. J. Van Blommestein Meer","reservoir":true,"area":1872013696,"sort_rank":200,"source":"naturalearthdata.com","min_zoom":0.0,"id":1191},"arcs":[[92]]},{"type":"Point","properties":{"label_placement":true,"kind":"lake","name":"Professor Doctor Ingenieur W. J. Van Blommestein Meer","reservoir":true,"area":1872013696,"sort_rank":200,"source":"naturalearthdata.com","min_zoom":0.0,"id":1191},"coordinates":[414,1734]},{"type":"LineString","properties":{"source":"naturalearthdata.com","kind":"ocean","sort_rank":205,"boundary":true,"min_zoom":0.0,"id":75},"arcs":[93]},{"type":"LineString","properties":{"source":"naturalearthdata.com","kind":"ocean","sort_rank":205,"boundary":true,"min_zoom":0.0,"id":76},"arcs":[94]},{"type":"LineString","properties":{"source":"naturalearthdata.com","kind":"ocean","sort_rank":205,"boundary":true,"min_zoom":0.0,"id":287},"arcs":[95]},{"type":"LineString","properties":{"source":"naturalearthdata.com","kind":"ocean","sort_rank":205,"boundary":true,"min_zoom":0.0,"id":288},"arcs":[96]},{"type":"LineString","properties":{"source":"naturalearthdata.com","kind":"ocean","sort_rank":205,"boundary":true,"min_zoom":0.0,"id":289},"arcs":[97]},{"type":"LineString","properties":{"source":"naturalearthdata.com","kind":"ocean","sort_rank":205,"boundary":true,"min_zoom":0.0,"id":290},"arcs":[98]},{"type":"LineString","properties":{"source":"naturalearthdata.com","kind":"ocean","sort_rank":205,"boundary":true,"min_zoom":0.0,"id":291},"arcs":[99]},{"type":"LineString","properties":{"source":"naturalearthdata.com","kind":"ocean","sort_rank":205,"boundary":true,"min_zoom":0.0,"id":292},"arcs":[100]},{"type":"LineString","properties":{"source":"naturalearthdata.com","kind":"ocean","sort_rank":205,"boundary":true,"min_zoom":0.0,"id":294},"arcs":[101]},{"type":"LineString","properties":{"source":"naturalearthdata.com","kind":"ocean","sort_rank":205,"boundary":true,"min_zoom":0.0,"id":295},"arcs":[102]},{"type":"MultiLineString","properties":{"source":"naturalearthdata.com","kind":"ocean","sort_rank":205,"boundary":true,"min_zoom":0.0,"id":297},"arcs":[[103],[104]]},{"type":"LineString","properties":{"source":"naturalearthdata.com","kind":"ocean","sort_rank":205,"boundary":true,"min_zoom":0.0,"id":298},"arcs":[105]},{"type":"MultiLineString","properties":{"source":"naturalearthdata.com","kind":"ocean","sort_rank":205,"boundary":true,"min_zoom":0.0,"id":299},"arcs":[[106],[107]]},{"type":"LineString","properties":{"source":"naturalearthdata.com","kind":"lake","reservoir":true,"sort_rank":367,"boundary":true,"min_zoom":0.0,"id":1191},"arcs":[108]}]},"buildings":{"type":"GeometryCollection","geometries":[]},"places":{"type":"GeometryCollection","geometries":[{"type":"Point","properties":{"name:ps":"\u0633\u0648\u0631\u064a\u0646\u0627\u0645","name:ka":"\u10e1\u10e3\u10e0\u10d8\u10dc\u10d0\u10db\u10d8","name:mt":"Surinam","name:ko":"\uc218\ub9ac\ub0a8","name:cv":"\u0421\u0443\u0440\u0438\u043d\u0430\u043c","name:km":"\u179f\u17bc\u179a\u17b8\u178e\u17b6\u1798","name:cs":"Surinam","name:ki":"Surinamu","name:kw":"Surinam","name:tr":"Surinam","name:ku":"S\u00fbr\u00eenam","name:ti":"\u1231\u122a\u1293\u121d","name:ks":"\u0633\u064f\u0631\u0650\u0646\u0627\u0645","name:to":"Sulinami","name:tl":"Surinam","name:pa":"\u0a38\u0a42\u0a30\u0a40\u0a28\u0a3e\u0a2e","name:os":"\u0421\u0443\u0440\u0438\u043d\u0430\u043c","name:or":"\u0b38\u0b41\u0b30\u0b3f\u0b28\u0b3e\u0b2e","name:ce":"\u0421\u0443\u0440\u0438\u043d\u0430\u043c","name:ta":"\u0b9a\u0bc2\u0bb0\u0bbf\u0ba9\u0bbe\u0bae\u0bcd","name:ht":"Sirinam","name:ca":"Surinam","name:te":"\u0c38\u0c41\u0c30\u0c3f\u0c28\u0c3e\u0c2e\u0c4d","name:vi":"Surinam","name:ro":"Surinam","name:cy":"Swrinam","old_name:pl":"Gujana Holenderska","name:ln":"Surinam\u025b","name:da":"Surinam","name:de":"Surinam","name:dz":"\u0f66\u0f74\u0f0b\u0f62\u0f72\u0f0b\u0f53\u0f71\u0f58","source":"openstreetmap.org","name:nv":"S\u00f3winam","name:kn":"\u0cb8\u0cc1\u0cb0\u0cbf\u0ca8\u0cbe\u0cae","name:yi":"\u05e1\u05d5\u05e8\u05d9\u05e0\u05d0\u05dd","name:dv":"\u0790\u07aa\u0783\u07a8\u0782\u07a7\u0789\u07b0","name:lv":"Surinama","name:lt":"Surinamas","name:uz":"Surinam","old_name:es":"Guyana Holandesa","name:kk":"\u0421\u0443\u0440\u0438\u043d\u0430\u043c","name:sv":"Surinam","name:he":"\u05e1\u05d5\u05e8\u05d9\u05e0\u05d0\u05dd","min_zoom":2.0,"kind":"country","name:ur":"\u0633\u0648\u0631\u06cc\u0646\u0627\u0645","name:la":"Surinamia","name:lg":"Surinaamu","name:uk":"\u0421\u0443\u0440\u0438\u043d\u0430\u043c","name:hy":"\u054d\u0578\u0582\u0580\u056b\u0576\u0561\u0574","name:ug":"\u0633\u06c7\u0631\u0649\u0646\u0627\u0645","name:qu":"Surinam","name:lo":"\u0e8a\u0eb9\u0ea5\u0eb4\u0e99\u0eb2\u0ea1\u0eb4","name:oc":"Surinam","population":492829,"name:el":"\u03a3\u03bf\u03c5\u03c1\u03b9\u03bd\u03ac\u03bc","name:eo":"Surinamo","name":"Suriname","official_name":"Republiek van Suriname","name:ee":"Suriname nutome","name:th":"\u0e1b\u0e23\u0e30\u0e40\u0e17\u0e28\u0e0b\u0e39\u0e23\u0e34\u0e19\u0e32\u0e40\u0e21","name:eu":"Surinam","name:es":"Surinam","name:ml":"\u0d38\u0d41\u0d31\u0d3f\u0d28\u0d3e\u0d02","name:rm":"Surinam","name:az":"surinam\u0259","name:ie":"Surinam","name:ms":"Surinam","name:mr":"\u0938\u0941\u0930\u093f\u0928\u093e\u092e","name:ar":"\u0633\u0648\u0631\u064a\u0646\u0627\u0645","name:my":"\u1006\u1030\u101b\u102c\u1014\u1019\u103a\u1014\u102d\u102f\u1004\u103a\u1004\u1036","name:io":"Surinam","name:is":"S\u00far\u00ednam","name:am":"\u1231\u122a\u1293\u121d","name:fo":"Surinam","name:an":"Surinam","name:ru":"\u0421\u0443\u0440\u0438\u043d\u0430\u043c","name:rw":"Surinamu","name:pl":"Surinam","name:mk":"\u0421\u0443\u0440\u0438\u043d\u0430\u043c","name:vo":"Surin\u00e4n","name:zu":"i-Suriname","name:mn":"\u0421\u0443\u0440\u0438\u043d\u0430\u043c","name:nn":"Surinam","name:ff":"Surinaam","name:hi":"\u0938\u0941\u0930\u093f\u0928\u093e\u092e","name:mg":"Sorinam","id":432425087,"name:zh-yue":"\u8607\u91cc\u5357","name:gv":"Yn Toorinam","name:zh":"\u82cf\u91cc\u5357","name:hr":"Surinam","name:so":"Surinam","name:sr":"\u0421\u0443\u0440\u0438\u043d\u0430\u043c","name:sl":"Surinam","name:sk":"Surinam","name:ja":"\u30b9\u30ea\u30ca\u30e0","name:si":"\u0dc3\u0dd4\u0dbb\u0dd2\u0db1\u0dcf\u0db8\u0dba","name:sh":"Surinam","name:sg":"Surin\u00e4m","name:se":"Surinam","name:ne":"\u0938\u0941\u0930\u093f\u0928\u0947\u092e","name:br":"Surinam","name:bs":"Surinam","name:bm":"Surinami","name:bn":"\u09b8\u09c1\u09b0\u09bf\u09a8\u09be\u09ae","name:bo":"\u0f66\u0f74\u0f0b\u0f62\u0f72\u0f0b\u0f53\u0f71\u0f58\u0f0d","name:no":"Surinam","name:sw":"Surinamu","name:be":"\u0421\u0443\u0440\u044b\u043d\u0430\u043c","name:bg":"\u0421\u0443\u0440\u0438\u043d\u0430\u043c","name:wo":"Surinaam","name:ba":"\u0421\u0443\u0440\u0438\u043d\u0430\u043c","name:sq":"Surinami","name:ga":"Suranam","name:gd":"Suranam","name:gn":"Surinam","name:gl":"Surinam","name:fa":"\u0633\u0648\u0631\u06cc\u0646\u0627\u0645","name:yo":"Or\u00edl\u1eb9\u0301\u00e8de Surinami","name:gu":"\u0ab8\u0ac1\u0ab0\u0ac0\u0aa8\u0abe\u0aae","name:tt":"\u0421\u0443\u0440\u0438\u043d\u0430\u043c"},"coordinates":[63,1517]},{"type":"Point","properties":{"old_name:fr":"Guyane fran\u00e7aise","name:pt":"Guiana Francesa","name:mt":"Gujana Fran\u010bi\u017ca","name:ko":"\ud504\ub791\uc2a4\ub839 \uae30\uc544\ub098","name:kn":"\u0cab\u0ccd\u0cb0\u0cc6\u0c82\u0c9a\u0ccd \u0c97\u0caf\u0cbe\u0ca8\u0cbe","name:km":"\u17a0\u17d2\u179c\u17d2\u179c\u17c1\u1793\u200b\u17a0\u17d2\u1782\u17c0\u178e\u17b6","name:cs":"Francouzsk\u00e1 Guyana","name:ki":"Gwiyana ya Ufaransa","name:tr":"Frans\u0131z Guyanas\u0131","name:th":"\u0e40\u0e1f\u0e23\u0e19\u0e0a\u0e4c\u0e40\u0e01\u0e35\u0e22\u0e19\u0e32","name:ti":"\u12e8\u1348\u1228\u1295\u1233\u12ed \u1309\u12ca\u12a0\u1293","name:ks":"\u0641\u0631\u065b\u0627\u0646\u0633\u0650\u0633\u06cc \u06af\u0650\u0627\u0646\u0627","name:to":"Falanise Kuiana","name:sv":"Franska Guyana","name:or":"\u0b2b\u0b4d\u0b30\u0b47\u0b1e\u0b4d\u0b1a \u0b17\u0b41\u0b07\u0b28\u0b3e","name:pl":"Gujana Francuska","name:ta":"\u0b83\u0baa\u0bcd\u0bb0\u0bc6\u0ba9\u0bcd\u0b9a\u0bcd \u0b95\u0baf\u0bbe\u0ba9\u0bbe","name:ca":"Guaiana Francesa","name:te":"\u0c2b\u0c4d\u0c30\u0c46\u0c02\u0c1a\u0c4d \u0c17\u0c3f\u0c2f\u0c3e\u0c28\u0c3e","name:hu":"Francia Guyana","name:ro":"Guyana Francez\u0103","name:hr":"Francuska Gvajana","name:da":"Fransk Guyana","name:de":"Franz\u00f6sisch-Guayana","name:dz":"\u0f42\u0f74\u0f60\u0f72\u0f0b\u0f61\u0f0b\u0f53\u0f0b \u0f55\u0fb2\u0f53\u0f66\u0f84\u0f0b\u0f58\u0f44\u0f60\u0f0b\u0f41\u0f7c\u0f44\u0f66","source":"openstreetmap.org","name:lv":"Fran\u010du Gvi\u0101na","name:lt":"Pranc\u016bzijos Gviana","name:hi":"\u092b\u093c\u094d\u0930\u093e\u0902\u0938\u0940\u0938\u0940 \u0917\u093f\u0906\u0928\u093e","name:he":"\u05d2\u05d9\u05d0\u05e0\u05d4 \u05d4\u05e6\u05e8\u05e4\u05ea\u05d9\u05ea","kind":"region","name:ur":"\u0641\u0631\u06cc\u0646\u0686 \u06af\u06cc\u0627\u0646\u0627","name:la":"Guiana Francica","name:lg":"Guyana enfalansa","name:uk":"\u0424\u0440\u0430\u043d\u0446\u0443\u0437\u044c\u043a\u0430 \u0413\u0432\u0456\u0430\u043d\u0430","name:li":"Frans Guyana","name:ln":"Giyan\u025b ya Fal\u00e1ns\u025b","name:lo":"\u0ec0\u0e9f\u0eb1\u0e99\u0eaa\u0e81\u0eb4\u0ea7\u0e99\u0eb2","population":237549,"name:el":"\u0393\u03b1\u03bb\u03bb\u03b9\u03ba\u03ae \u0393\u03bf\u03c5\u03b9\u03ac\u03bd\u03b1","name:eo":"Gujano","name:en":"French Guiana","name":"Guyane","name:ee":"Frentsi Gayana nutome","min_zoom":4.0,"name:gu":"\u0aab\u0acd\u0ab0\u0ac7\u0a82\u0a9a \u0a97\u0aaf\u0abe\u0aa8\u0abe","name:eu":"Guyana Frantsesa","name:et":"Prantsuse Guajaana","name:nl":"Frans-Guyana","name:es":"Guayana Francesa","name:ia":"Guyana francese","name:rm":"Guyana Franzosa","name:rn":"Gwayana y'Abafaransa","name:az":"Frans\u0131z Quyanas\u0131","name:id":"Guyana Perancis","name:ms":"French Guiana","name:mr":"\u092b\u094d\u0930\u0947\u0902\u091a \u0917\u092f\u093e\u0928\u093e","name:ar":"\u063a\u064a\u0627\u0646\u0627","name:my":"\u1015\u103c\u1004\u103a\u101e\u1005\u103a \u1002\u102e\u101a\u102c\u1014\u102c","int_name":"French Guiana","name:is":"Franska Gv\u00e6jana","name:am":"\u12e8\u1348\u1228\u1295\u1233\u12ed \u1309\u12ca\u12a0\u1293","name:it":"Guyana francese","name:vi":"Guyane thu\u1ed9c Ph\u00e1p","name:ru":"\u0424\u0440\u0430\u043d\u0446\u0443\u0437\u0441\u043a\u0430\u044f \u0413\u0432\u0438\u0430\u043d\u0430","name:mn":"\u0424\u0440\u0430\u043d\u0446 \u0413\u0432\u0438\u0430\u043d\u0430","id":313753808,"name:mk":"\u0424\u0440\u0430\u043d\u0446\u0443\u0441\u043a\u0430 \u0413\u0432\u0430\u0458\u0430\u043d\u0430","name:af":"Frans-Guyana","name:zu":"isi-French Guiana","name:ha":"Gini Ta Faransa","name:nn":"Fransk Guyana","name:ff":"Giyaan Farayse","kind_detail":"state","name:no":"Fransk Guyana","name:mg":"Guyana frantsay","name:fo":"Fransk Gujana","name:fy":"Fr\u00e2nsk Guyana","name:zh":"\u6cd5\u5c5e\u572d\u4e9a\u90a3","name:so":"French Guiana","name:sn":"French Guiana","name:sl":"Francoska Gvajana","name:sk":"Franc\u00fazska Guyana","name:ja":"\u4ecf\u9818\u30ae\u30a2\u30ca","name:si":"\u0db4\u0dca\u200d\u0dbb\u0d82\u0dc1 \u0d9c\u0dba\u0db1\u0dcf\u0dc0","alt_name:ru":"\u0424\u0440\u0430\u043d\u0446\u0443\u0437\u0441\u043a\u0430\u044f \u0413\u0432\u0438\u0430\u043d\u0430","name:sg":"G\u00fcy\u00e2ni t\u00ee far\u00e2nzi","name:se":"Frankriikka Guayana","name:ne":"\u092b\u094d\u0930\u093e\u0928\u094d\u0938\u0947\u0932\u0940 \u0917\u093e\u092f\u0928\u093e","name:br":"Gwiana c\u2019hall","name:bs":"Francuska Gvajana","name:bm":"Faransi ka gwiyani","name:bn":"\u09ab\u09b0\u09be\u09b8\u09c0 \u0997\u09be\u09af\u09bc\u09be\u09a8\u09be","name:ml":"\u0d2b\u0d4d\u0d30\u0d1e\u0d4d\u0d1a\u0d4d \u0d17\u0d2f\u0d3e\u0d28","name:sw":"Gwiyana ya Ufaransa","name:be":"\u0424\u0440\u0430\u043d\u0446\u0443\u0437\u0441\u043a\u0430\u044f \u0413\u0432\u0456\u044f\u043d\u0430","name:bg":"\u0424\u0440\u0435\u043d\u0441\u043a\u0430 \u0413\u0432\u0438\u0430\u043d\u0430","name:sr":"\u0424\u0440\u0430\u043d\u0446\u0443\u0441\u043a\u0430 \u0413\u0432\u0430\u0458\u0430\u043d\u0430","name:ga":"Gu\u00e1in na Fraince","name:gd":"Guiana Fhrangach","name:gl":"G\u00fciana Francesa","name:fa":"\u06af\u0648\u06cc\u0627\u0646 \u0641\u0631\u0627\u0646\u0633\u0647","name:yo":"Or\u00edl\u1eb9\u0301\u00e8de Firen\u1e63i Guana","name:ak":"Fr\u025bnkye Gayana","name:fi":"Ranskan Guayana","name:tt":"\u0424\u0440\u0430\u043d\u0446\u0443\u0437 \u0413\u0432\u0438\u0430\u043d\u0430\u0441\u044b"},"coordinates":[1183,1467]},{"type":"Point","properties":{"kind":"region","name":"Amap\u00e1","kind_detail":"state","name:eo":"Amapao","source":"openstreetmap.org","min_zoom":4.0,"name:uk":"\u0410\u043c\u0430\u043f\u0430","name:ru":"\u0410\u043c\u0430\u043f\u0430","id":539680936,"name:ja":"\u30a2\u30de\u30d1\u30fc"},"coordinates":[1578,496]},{"type":"Point","properties":{"source":"naturalearthdata.com","kind":"locality","name":"Macap\u00e1","population":499166,"region_capital":true,"min_zoom":5.0,"id":7035},"coordinates":[1893,12]},{"type":"Point","properties":{"source":"naturalearthdata.com","kind":"locality","name":"Paramaribo","country_capital":true,"population":254169,"min_zoom":5.0,"id":6831},"coordinates":[394,2138]},{"type":"Point","properties":{"source":"naturalearthdata.com","kind":"locality","name":"Cayenne","population":61550,"min_zoom":5.0,"id":6970},"coordinates":[1427,1808]},{"type":"Point","properties":{"source":"naturalearthdata.com","kind":"locality","name":"Cottica","population":29210,"min_zoom":5.0,"id":6293},"coordinates":[734,1411]}]},"transit":{"type":"GeometryCollection","geometries":[]},"pois":{"type":"GeometryCollection","geometries":[{"type":"Point","properties":{"kind":"nature_reserve","tier":2,"protect_class":"24","area":6161020000,"source":"openstreetmap.org","min_zoom":6.0,"operator":"Funda\u00e7\u00e3o Nacional do \u00cdndio","id":-3811320,"osm_relation":true,"name":"Terra Ind\u00edgena Wai\u00e3pi"},"coordinates":[1219,456]},{"type":"Point","properties":{"kind":"nature_reserve","tier":2,"protect_class":"24","area":12026500000,"source":"openstreetmap.org","min_zoom":5.51,"operator":"Funda\u00e7\u00e3o Nacional do \u00cdndio","id":-3810821,"osm_relation":true,"name":"Terra Ind\u00edgena Rio Paru d'Este"},"coordinates":[628,243]},{"type":"Point","properties":{"kind":"nature_reserve","tier":2,"protect_class":"24","area":30932600000,"source":"openstreetmap.org","min_zoom":4.83,"operator":"Funda\u00e7\u00e3o Nacional do \u00cdndio","id":-3810776,"osm_relation":true,"name":"Terra Ind\u00edgena Parque do Tumucumaque"},"coordinates":[285,552]},{"type":"Point","properties":{"kind":"nature_reserve","tier":2,"protect_class":"2","area":38257700000,"source":"openstreetmap.org","min_zoom":4.68,"operator":"Instituto Chico Mendes de Conserva\u00e7\u00e3o da Biodiversidade","id":-3425868,"osm_relation":true,"name":"Parque Nacional Montanhas do Tumucumaque"},"coordinates":[1130,770]},{"type":"Point","properties":{"kind":"nature_reserve","tier":2,"protect_class":"2","area":6637970000,"source":"openstreetmap.org","min_zoom":5.94,"operator":"Instituto Chico Mendes de Conserva\u00e7\u00e3o da Biodiversidade","id":-3425637,"osm_relation":true,"name":"Parque Nacional do Cabo Orange"},"coordinates":[1866,1346]}]},"boundaries":{"type":"GeometryCollection","geometries":[{"type":"MultiLineString","properties":{"source":"naturalearthdata.com","kind":"disputed","sort_rank":261,"kind_detail":"2","min_zoom":0.0,"id":37},"arcs":[[0],[1],[2],[3],[4]]},{"type":"MultiLineString","properties":{"source":"naturalearthdata.com","kind":"country","sort_rank":262,"kind_detail":"2","min_zoom":0.0,"id":126},"arcs":[[5],[6],[7],[8],[9],[10],[11],[12],[13],[14],[15],[16],[17],[18],[19],[20],[21],[22],[23],[24],[25]]},{"type":"MultiLineString","properties":{"source":"naturalearthdata.com","kind":"country","sort_rank":262,"kind_detail":"2","min_zoom":0.0,"id":132},"arcs":[[26],[27],[28],[29],[30],[31],[32],[33],[34],[35],[36],[37],[38],[39],[40],[41],[42],[43],[44],[45],[46],[47]]},{"type":"MultiLineString","properties":{"source":"naturalearthdata.com","kind":"country","sort_rank":262,"kind_detail":"2","min_zoom":0.0,"id":196},"arcs":[[48],[49],[50],[51],[52]]},{"type":"MultiLineString","properties":{"source":"naturalearthdata.com","kind":"region","sort_rank":256,"kind_detail":"4","min_zoom":2.0,"id":4619},"arcs":[[53],[54],[55],[56],[57],[58],[59],[60],[61],[62],[63],[64],[65],[66],[67],[68],[69],[70],[71],[72],[73],[74],[75],[76],[77],[78],[79],[80],[81],[82],[83]]}]},"roads":{"type":"GeometryCollection","geometries":[{"type":"LineString","properties":{"source":"naturalearthdata.com","kind":"major_road","sort_rank":379,"kind_detail":"secondary","min_zoom":3.0,"id":40025},"arcs":[109]},{"type":"LineString","properties":{"source":"naturalearthdata.com","kind":"major_road","sort_rank":379,"kind_detail":"secondary","min_zoom":3.0,"id":40032},"arcs":[110]},{"type":"LineString","properties":{"source":"naturalearthdata.com","kind":"major_road","sort_rank":379,"kind_detail":"secondary","min_zoom":3.0,"id":40038},"arcs":[111]},{"type":"LineString","properties":{"source":"naturalearthdata.com","kind":"major_road","sort_rank":379,"kind_detail":"secondary","min_zoom":3.0,"id":40045},"arcs":[112]},{"type":"LineString","properties":{"source":"naturalearthdata.com","kind":"major_road","sort_rank":379,"kind_detail":"secondary","min_zoom":3.0,"id":40047},"arcs":[113]},{"type":"LineString","properties":{"source":"naturalearthdata.com","kind":"major_road","sort_rank":379,"kind_detail":"secondary","min_zoom":3.0,"id":40051},"arcs":[114]},{"type":"LineString","properties":{"source":"naturalearthdata.com","kind":"major_road","sort_rank":379,"kind_detail":"secondary","min_zoom":3.0,"id":40059},"arcs":[115]},{"type":"LineString","properties":{"source":"naturalearthdata.com","kind":"major_road","sort_rank":379,"kind_detail":"secondary","min_zoom":3.0,"id":40103},"arcs":[116]},{"type":"LineString","properties":{"source":"naturalearthdata.com","kind":"major_road","sort_rank":379,"kind_detail":"secondary","min_zoom":3.0,"id":40143},"arcs":[117]},{"type":"LineString","properties":{"source":"naturalearthdata.com","kind":"major_road","sort_rank":379,"kind_detail":"secondary","min_zoom":3.0,"id":40148},"arcs":[118]},{"type":"MultiLineString","properties":{"source":"naturalearthdata.com","kind":"major_road","kind_detail":"secondary","sort_rank":379,"landuse_kind":"protected_area","min_zoom":3.0,"id":40173},"arcs":[[119],[120],[121]]},{"type":"MultiLineString","properties":{"source":"naturalearthdata.com","kind":"major_road","sort_rank":379,"kind_detail":"secondary","min_zoom":3.0,"id":40173},"arcs":[[122],[123],[124]]},{"type":"MultiLineString","properties":{"source":"naturalearthdata.com","kind":"major_road","kind_detail":"secondary","sort_rank":379,"landuse_kind":"protected_area","min_zoom":3.0,"id":40178},"arcs":[[125],[126],[127]]},{"type":"MultiLineString","properties":{"source":"naturalearthdata.com","kind":"major_road","sort_rank":379,"kind_detail":"secondary","min_zoom":3.0,"id":40178},"arcs":[[128],[129]]},{"type":"LineString","properties":{"source":"naturalearthdata.com","kind":"major_road","kind_detail":"secondary","sort_rank":379,"landuse_kind":"protected_area","min_zoom":3.0,"id":40254},"arcs":[130]},{"type":"LineString","properties":{"source":"naturalearthdata.com","kind":"major_road","sort_rank":379,"kind_detail":"secondary","min_zoom":3.0,"id":40254},"arcs":[131]},{"type":"LineString","properties":{"source":"naturalearthdata.com","kind":"major_road","sort_rank":379,"kind_detail":"secondary","min_zoom":3.0,"id":40294},"arcs":[132]},{"type":"LineString","properties":{"source":"naturalearthdata.com","kind":"major_road","sort_rank":379,"kind_detail":"secondary","min_zoom":3.0,"id":40312},"arcs":[133]},{"type":"LineString","properties":{"source":"naturalearthdata.com","kind":"major_road","sort_rank":379,"kind_detail":"secondary","min_zoom":3.0,"id":40350},"arcs":[134]},{"type":"LineString","properties":{"source":"naturalearthdata.com","kind":"major_road","sort_rank":379,"kind_detail":"secondary","min_zoom":3.0,"id":40351},"arcs":[135]},{"type":"LineString","properties":{"source":"naturalearthdata.com","kind":"major_road","sort_rank":379,"kind_detail":"secondary","min_zoom":3.0,"id":40385},"arcs":[136]},{"type":"LineString","properties":{"source":"naturalearthdata.com","kind":"major_road","sort_rank":379,"kind_detail":"secondary","min_zoom":3.0,"id":40394},"arcs":[137]},{"type":"LineString","properties":{"source":"naturalearthdata.com","kind":"major_road","kind_detail":"secondary","sort_rank":379,"landuse_kind":"protected_area","min_zoom":3.0,"id":40441},"arcs":[138]},{"type":"LineString","properties":{"source":"naturalearthdata.com","kind":"major_road","sort_rank":379,"kind_detail":"secondary","min_zoom":3.0,"id":40441},"arcs":[139]},{"type":"LineString","properties":{"source":"naturalearthdata.com","kind":"major_road","kind_detail":"secondary","sort_rank":379,"landuse_kind":"nature_reserve","min_zoom":3.0,"id":40966},"arcs":[140]},{"type":"MultiLineString","properties":{"source":"naturalearthdata.com","kind":"major_road","sort_rank":379,"kind_detail":"secondary","min_zoom":3.0,"id":40966},"arcs":[[141],[142]]},{"type":"LineString","properties":{"source":"naturalearthdata.com","kind":"major_road","sort_rank":379,"kind_detail":"secondary","min_zoom":3.0,"id":41357},"arcs":[143]},{"type":"LineString","properties":{"source":"naturalearthdata.com","kind":"major_road","sort_rank":379,"kind_detail":"secondary","min_zoom":3.0,"id":41440},"arcs":[144]},{"type":"LineString","properties":{"source":"naturalearthdata.com","kind":"major_road","sort_rank":379,"kind_detail":"secondary","min_zoom":3.0,"id":41482},"arcs":[145]},{"type":"LineString","properties":{"source":"naturalearthdata.com","kind":"major_road","sort_rank":379,"kind_detail":"secondary","min_zoom":3.0,"id":41512},"arcs":[146]},{"type":"LineString","properties":{"source":"naturalearthdata.com","kind":"major_road","sort_rank":379,"kind_detail":"secondary","min_zoom":3.0,"id":41530},"arcs":[147]}]},"earth":{"type":"GeometryCollection","geometries":[{"type":"MultiPolygon","properties":{"sort_rank":10,"source":"naturalearthdata.com","min_zoom":0.0,"kind":"earth","area":1668572162659},"arcs":[[[148]],[[149]],[[150]],[[151]],[[152]],[[153]],[[154]],[[155]],[[156]],[[157]],[[158]],[[159]]]}]},"landuse":{"type":"GeometryCollection","geometries":[{"type":"MultiPolygon","properties":{"kind":"park","name":"Parc amazonien de Guyane (c\u0153ur)","area":19609618382,"sort_rank":24,"source":"openstreetmap.org","min_zoom":4.0,"tier":2,"osm_relation":true},"arcs":[[[160]],[[161]]]},{"type":"Polygon","properties":{"kind":"nature_reserve","name":"Terra Ind\u00edgena Rio Paru d'Este","area":12026500096,"sort_rank":23,"operator":"Funda\u00e7\u00e3o Nacional do \u00cdndio","source":"openstreetmap.org","min_zoom":4.0,"tier":2,"id":-3810821,"osm_relation":true,"protect_class":"24"},"arcs":[[162]]},{"type":"Polygon","properties":{"kind":"nature_reserve","name":"Parque Nacional do Cabo Orange","area":6637969920,"sort_rank":23,"operator":"Instituto Chico Mendes de Conserva\u00e7\u00e3o da Biodiversidade","source":"openstreetmap.org","min_zoom":4.0,"tier":2,"id":-3425637,"osm_relation":true,"protect_class":"2"},"arcs":[[163]]},{"type":"Polygon","properties":{"kind":"park","name":"Central Suriname Nature Reserve","area":16350799872,"sort_rank":24,"source":"openstreetmap.org","min_zoom":4.0,"tier":2,"id":485687931},"arcs":[[164]]},{"type":"MultiPolygon","properties":{"kind":"protected_area","protect_class":"5","area":6087669265,"sort_rank":17,"source":"openstreetmap.org","min_zoom":4.0,"tier":2,"osm_relation":true,"name":"Parc naturel r\u00e9gional de Guyane"},"arcs":[[[165]],[[166]],[[167]]]},{"type":"Polygon","properties":{"kind":"nature_reserve","name":"Floresta Nacional do Amap\u00e1","area":4694459904,"sort_rank":23,"operator":"Instituto Chico Mendes de Conserva\u00e7\u00e3o da Biodiversidade","source":"openstreetmap.org","min_zoom":4.0,"tier":2,"id":-3425634,"osm_relation":true,"protect_class":"6"},"arcs":[[168]]},{"type":"Polygon","properties":{"kind":"nature_reserve","name":"R\u00e9serve biologique int\u00e9grale de Lucifer D\u00e9kou D\u00e9kou","area":1121069952,"sort_rank":23,"source":"openstreetmap.org","min_zoom":4.0,"tier":2,"id":-1106366,"osm_relation":true},"arcs":[[169]]},{"type":"Polygon","properties":{"kind":"nature_reserve","name":"Terra Ind\u00edgena Zoe","area":6685570048,"sort_rank":23,"operator":"Funda\u00e7\u00e3o Nacional do \u00cdndio","source":"openstreetmap.org","min_zoom":4.0,"tier":2,"id":-3810655,"osm_relation":true,"protect_class":"24"},"arcs":[[170]]},{"type":"Polygon","properties":{"kind":"nature_reserve","name":"R\u00e9serve Naturelle des Nouragues","area":1074620032,"sort_rank":23,"source":"openstreetmap.org","min_zoom":4.0,"tier":2,"id":-1106386,"osm_relation":true},"arcs":[[171]]},{"type":"Polygon","properties":{"kind":"nature_reserve","name":"Parque Nacional Montanhas do Tumucumaque","area":38257700864,"sort_rank":23,"operator":"Instituto Chico Mendes de Conserva\u00e7\u00e3o da Biodiversidade","source":"openstreetmap.org","min_zoom":4.0,"tier":2,"id":-3425868,"osm_relation":true,"protect_class":"2"},"arcs":[[172]]},{"type":"Polygon","properties":{"kind":"nature_reserve","name":"Terra Ind\u00edgena Wai\u00e3pi","area":6161019904,"sort_rank":23,"operator":"Funda\u00e7\u00e3o Nacional do \u00cdndio","source":"openstreetmap.org","min_zoom":4.0,"tier":2,"id":-3811320,"osm_relation":true,"protect_class":"24"},"arcs":[[173]]},{"type":"Polygon","properties":{"kind":"nature_reserve","name":"Reserva Biol\u00f3gica do Lago Piratuba","area":3953880064,"sort_rank":23,"operator":"Instituto Chico Mendes de Conserva\u00e7\u00e3o da Biodiversidade","source":"openstreetmap.org","min_zoom":4.0,"tier":2,"id":-3904016,"osm_relation":true,"protect_class":"1"},"arcs":[[174]]},{"type":"Polygon","properties":{"kind":"nature_reserve","name":"Central Suriname Nature Reserve","area":16350799872,"sort_rank":23,"source":"openstreetmap.org","min_zoom":4.0,"tier":2,"id":-7146620,"osm_relation":true},"arcs":[[175]]},{"type":"MultiPolygon","properties":{"kind":"protected_area","name":"Aire d'adh\u00e9sion du Parc amazonien de Guyane","area":13826546733,"sort_rank":17,"source":"openstreetmap.org","min_zoom":4.0,"tier":2,"osm_relation":true},"arcs":[[[176]],[[177]],[[178]]]},{"type":"Polygon","properties":{"kind":"nature_reserve","name":"Terra Ind\u00edgena Ua\u00e7a","area":4719190016,"sort_rank":23,"operator":"Funda\u00e7\u00e3o Nacional do \u00cdndio","source":"openstreetmap.org","min_zoom":4.0,"tier":2,"id":-3811201,"osm_relation":true,"protect_class":"24"},"arcs":[[179]]},{"type":"Polygon","properties":{"kind":"nature_reserve","name":"Terra Ind\u00edgena Parque do Tumucumaque","area":30932600832,"sort_rank":23,"operator":"Funda\u00e7\u00e3o Nacional do \u00cdndio","source":"openstreetmap.org","min_zoom":4.0,"tier":2,"id":-3810776,"osm_relation":true,"protect_class":"24"},"arcs":[[180]]}]}},"type":"Topology","transform":{"translate":[-56.25,-0.0],"scale":[0.002746582,0.002729102]},"arcs":[[[742,1146],[8,19],[5,8],[13,16],[10,15],[12,9]],[[619,857],[7,0],[4,4],[10,25],[3,2],[4,2],[8,0],[6,1],[4,2],[17,17],[6,9],[15,36],[12,26],[27,36],[3,6],[5,17],[3,3],[4,2],[-5,4],[-2,3],[0,2],[0,4],[1,4],[5,8],[1,2],[3,11],[0,5],[-2,1],[-4,4],[-2,5],[4,3],[2,2],[-1,5],[-2,9],[-1,1],[-3,3],[-1,0],[1,2],[1,1],[2,1],[1,1],[1,8],[-1,8],[-4,5]],[[751,1147],[-9,-1]],[[606,860],[13,-3]],[[595,852],[6,8],[5,0]],[[513,892],[-14,5],[-36,35],[-2,3],[2,5],[7,7],[2,5],[-2,4]],[[470,956],[-6,-1],[-15,-6],[-8,-4],[-14,-12],[-13,-7],[-3,-1]],[[411,925],[-3,0],[-3,3],[2,7],[-2,4]],[[405,939],[-12,-1],[-30,-23]],[[191,878],[-7,2],[-4,3],[-4,8],[-3,3],[-3,2],[-26,6],[-6,3],[-20,17],[-8,4],[-8,1]],[[102,927],[-5,-1],[-2,-2],[-3,-7],[-4,-15],[0,-17],[-2,-6],[-10,-16],[-3,-3],[-5,-2]],[[363,915],[-8,1],[-4,5],[-6,2]],[[345,923],[-7,0],[-6,-3],[-6,-6],[-2,-7],[-1,-6],[-3,-6],[-10,-5]],[[564,878],[1,0],[1,3],[-1,2],[-1,4],[-1,2],[0,7],[-1,2],[-5,3],[-8,3]],[[549,904],[-6,0],[-6,-4],[-6,-3],[-18,-5]],[[310,890],[-13,1],[-15,2],[-13,0]],[[269,893],[-21,-2]],[[248,891],[-7,1],[-7,0]],[[234,892],[-14,-6],[-29,-8]],[[562,878],[2,0]],[[574,849],[-7,1],[-4,2],[-1,3],[0,3],[0,4],[-3,9],[2,7],[1,0]],[[68,858],[-4,0],[-3,2],[-3,2]],[[58,862],[-5,-1],[-5,-6],[-5,-11],[-4,-10],[-1,-7],[4,-3],[16,-1],[6,-2],[7,-6],[4,-14],[5,-8],[9,-7],[4,-3],[13,-17],[12,-11],[3,-4],[1,-4],[-1,-4],[-1,-3],[-1,-5],[0,-16],[2,-15],[-2,-13],[-11,-12],[-24,-7]],[[595,852],[-7,-2],[-7,-1],[-7,0]],[[84,672],[-23,5],[-23,9],[-23,6]],[[15,692],[-15,-1]],[[1563,1365],[3,0],[3,3],[1,3],[-1,8],[1,4],[3,3],[11,5],[23,26],[6,9],[5,9],[3,12],[5,12],[10,8],[27,13]],[[1561,1365],[2,0]],[[1456,1188],[5,3],[3,4],[50,81],[0,3],[-1,3],[0,3],[7,4],[3,4],[5,10],[15,23],[3,9],[3,15],[3,7],[5,7],[4,1]],[[1450,1189],[3,-1],[3,0]],[[1211,804],[2,1],[4,3],[3,3],[2,9],[5,8],[6,5],[16,7],[41,24],[6,6],[5,6],[8,15],[13,12],[10,15],[8,17],[2,3],[2,2],[2,3],[0,5],[-1,4],[-6,9],[-1,4],[1,2],[8,3],[3,2],[1,2],[2,12],[29,64],[2,3],[3,3],[3,2],[4,1],[4,3],[0,3],[-3,3],[-1,5],[2,5],[23,43],[0,2],[-3,16],[0,9],[2,7],[13,9],[7,18],[8,6],[4,1]],[[905,868],[6,-2],[4,-5],[0,-4],[-4,-7],[0,-3],[2,-1],[11,-1],[24,-10],[6,-1],[13,-1],[5,-1],[12,-7],[6,-2]],[[855,830],[5,3],[3,6],[5,6],[8,0],[5,1],[3,5],[4,7],[4,4],[6,4],[7,2]],[[1058,861],[5,-1],[3,-3],[9,-13],[23,-19],[0,-4],[-7,-2],[-7,-6],[-3,-5],[5,-3]],[[990,823],[7,2],[14,1],[4,2],[13,10],[13,4],[4,4],[10,12],[1,2],[2,1]],[[595,852],[10,0],[9,-4],[7,-5],[7,-7],[-9,-1],[1,-4],[13,-9],[7,-8],[6,-3],[15,-1],[3,-1],[5,-3],[4,-1],[5,0]],[[844,832],[4,-2],[7,0]],[[809,798],[2,1],[4,4],[2,1],[15,6],[7,4],[3,7],[0,9],[2,2]],[[1142,813],[8,-3],[11,-9],[15,-1],[14,-4]],[[1086,805],[5,0],[44,8],[7,0]],[[681,805],[2,0],[5,-3],[9,-9],[5,-3],[3,0],[18,-3]],[[678,805],[3,0]],[[1207,805],[4,-1]],[[1190,796],[8,1],[2,1],[4,5],[1,2],[2,0]],[[802,802],[1,0],[4,-3],[2,-1]],[[770,773],[9,2],[4,5],[6,15],[2,5],[3,2],[8,0]],[[748,793],[3,-1],[11,-15],[3,-2],[5,-2]],[[723,787],[6,1],[7,2],[7,2],[5,1]],[[740,1414],[-2,3],[-7,3],[-9,17],[-2,3],[-5,4],[-3,3],[-3,13],[-3,4],[-12,11],[-4,6],[0,9],[1,6],[5,12],[1,6],[-1,8],[-4,3],[-12,3],[-5,3],[-4,5],[-1,6],[4,7],[2,6],[0,10],[-4,15],[-11,24],[-6,39],[1,9],[7,14],[2,6],[0,15],[-1,4],[-4,12],[0,9],[1,7],[0,7],[-5,6],[-3,2],[-4,1],[-3,2],[-1,5],[0,46],[-2,5],[-1,4],[2,3],[9,7],[2,2],[1,5],[-3,15],[1,6],[2,6],[7,11],[19,22],[2,2],[1,5],[1,2],[6,4],[2,2],[4,15],[4,6],[4,5],[15,16],[29,20],[7,9]],[[801,1332],[0,2],[-9,13],[-7,26],[-4,4],[-7,11],[-4,3],[-13,4],[-4,1],[-2,2],[-4,4],[-3,7],[-3,5]],[[741,1414],[-1,0]],[[790,1213],[4,6],[2,7],[1,7],[2,5],[13,13],[6,15],[-1,28],[3,15],[3,9],[0,5],[-2,5],[-5,5],[-3,1]],[[813,1334],[-4,0],[-4,-2],[-4,0]],[[537,900],[12,-10],[3,-5],[0,-10],[0,-7],[6,-27],[1,-7],[-1,-4],[-4,-6],[-1,-3],[-5,-15],[-2,-3],[-1,-2],[-2,-1],[-1,0],[-5,0],[-2,-2],[-1,-4],[-2,-7],[0,-4],[1,-3],[0,-2],[2,-1],[1,-1],[5,-3],[1,-2],[1,-3],[2,-5],[0,-3],[0,-3],[-1,-1],[-1,-2],[-1,-1],[-9,-6],[-2,-2],[-1,-2],[-1,-3],[0,-2],[1,-1],[5,-2],[2,-1],[1,-1],[2,-4],[1,-4],[1,-3],[-2,-27],[1,-3],[1,-4],[3,-27],[1,-3],[2,-4],[3,-5],[2,-1],[2,0]],[[605,654],[2,0],[2,-1],[6,-3],[4,-2],[10,-2],[2,-1],[2,-1],[3,-2],[1,-1],[2,-1]],[[569,646],[11,2],[1,0],[5,3],[4,1],[13,2],[2,0]],[[561,649],[2,0],[2,-2],[2,-1],[2,0]],[[555,648],[4,1],[2,0]],[[667,646],[2,0],[8,-4],[2,0],[2,0]],[[660,644],[2,0],[4,2],[1,0]],[[686,646],[2,0],[1,-1],[4,-3],[2,-1],[4,-1],[4,-3],[2,-1],[2,-1],[2,-1],[3,-1],[4,-4],[2,-2],[2,-1],[2,-1],[3,-1],[1,-2],[1,-2],[2,-1],[2,-1],[1,0],[3,-2],[6,-4],[5,-5],[2,-2]],[[681,642],[1,1],[2,2],[2,1]],[[655,644],[2,0],[1,0],[2,0]],[[639,640],[1,1],[3,1],[6,1],[4,1],[2,0]],[[754,609],[3,-1],[6,-5],[3,-3],[2,-3],[1,-4],[2,-2],[2,-1],[2,0]],[[748,605],[2,0],[2,3],[2,1]],[[779,591],[2,-1],[1,-1],[-1,-1],[-1,-1],[-1,-2],[-1,-2],[0,-2],[1,-4],[2,-3],[5,-4],[1,-3],[1,-2],[0,-2],[-1,-2],[0,-3],[1,-4],[1,-2],[2,-1],[2,0]],[[775,590],[4,1]],[[817,558],[2,0],[2,0],[3,-2],[1,-2],[2,-2],[1,-4],[3,-1],[6,-3],[2,-2],[2,-3],[2,-2],[1,0],[2,0],[1,-1],[0,-2],[0,-2],[1,-3],[1,-1],[3,-1],[5,-3],[2,-2],[1,-3],[-1,-4],[1,-1],[2,0],[7,0],[2,-1],[1,-1],[0,-2],[-1,-2],[1,0],[1,-1]],[[805,551],[2,1],[1,0],[6,5],[1,1],[2,0]],[[798,552],[7,-1]],[[793,551],[5,1]],[[917,527],[2,0],[3,-1],[1,-1],[-1,-2],[-2,-2],[1,-1],[1,-1],[4,-1],[2,-1],[2,0]],[[907,511],[2,0],[1,1],[3,4],[0,2],[1,1],[-1,3],[0,2],[1,2],[1,1],[2,0]],[[938,523],[3,0],[1,-1],[1,-2],[0,-2],[0,-2],[-1,-5],[0,-2],[0,-3],[1,-4],[1,-2],[2,-1]],[[930,517],[2,0],[1,1],[1,2],[1,1],[2,1],[1,1]],[[885,519],[4,-2],[2,-1],[8,-1],[3,-2],[3,-2],[2,0]],[[873,507],[7,0],[2,1],[1,1],[0,1],[0,2],[-1,2],[0,2],[0,2],[1,1],[2,0]],[[961,504],[2,0],[2,-1],[2,0],[5,-3],[2,0]],[[946,499],[2,0],[2,1],[3,2],[4,1],[2,0],[2,1]],[[979,501],[2,-1],[1,-1],[1,-1],[1,-2],[-1,-2],[-1,-2],[-2,-2],[-2,-1],[0,-2],[0,-2],[0,-2],[1,-3],[6,-7],[1,-2],[0,-2],[0,-2],[0,-2],[-1,-1],[-1,-2],[0,-2],[0,-3],[2,-1],[2,-1]],[[974,500],[5,1]],[[1017,463],[3,0],[4,-1],[1,-2],[1,-1],[1,-2],[1,-5],[1,-2],[1,-3],[4,-7],[1,-3],[0,-2],[0,-1],[-2,-2],[-1,0],[-8,-3],[-6,0],[-2,-1],[-1,-1],[-1,-2],[0,-2],[-1,-4],[0,-5],[2,-9],[0,-2],[11,-19],[0,-2],[0,-2],[-2,-3],[0,-3],[1,-2],[3,-6],[0,-1],[1,-11],[1,-5],[2,-4],[2,-2],[6,-7],[14,-10],[2,-2],[2,-2],[3,-7],[3,-6],[5,-8],[5,-6],[7,-5],[6,-4],[15,-5],[33,-6],[3,-1],[2,-2],[1,-2],[1,-2],[0,-4],[1,-10],[-1,-4],[-5,-22],[-1,-9],[0,-7],[0,-3],[-4,-12],[0,-2],[0,-2],[0,-4],[3,-8],[1,-4],[0,-10],[0,-21],[1,-4],[16,-36],[2,-2],[2,-2],[8,-7],[2,-2],[1,-2],[1,-2],[1,-9],[2,-8],[6,-14],[3,-8],[0,-4],[0,-5],[0,-7],[-4,-14],[1,-3],[1,-2],[8,-15]],[[988,455],[4,1],[13,5],[10,2],[2,0]],[[1890,0],[15,26],[14,18],[18,13],[28,7],[12,0],[7,-2],[4,0],[35,43],[31,32],[17,27],[23,40],[12,33],[4,6],[8,6],[24,13],[5,4],[3,4],[12,29],[3,3],[15,17],[5,3],[29,14],[5,4],[5,5],[13,20],[3,3],[13,5],[6,13],[2,13],[3,6],[6,-13],[13,1],[15,9],[11,13],[7,12],[0,3],[-1,5],[-5,7],[-6,4],[-8,1],[-12,-8],[-8,1],[-10,-1],[-15,-4],[-11,3],[-8,-4],[-7,3],[-3,5],[-1,5],[3,2],[4,-2],[5,-1],[5,-1],[13,4],[15,2],[19,5],[12,5],[10,5],[7,7],[4,6],[4,19],[0,12],[-1,15],[-5,13],[-2,23],[-2,10],[0,7],[0,13],[-3,17],[-1,2],[-4,9],[-10,12],[-20,11],[-32,11],[-17,6],[-9,6],[-7,1],[-9,-1],[-5,0],[-13,-3],[-4,2],[-8,0],[-6,1],[-9,1],[-8,-5],[-15,-2],[-14,1],[-12,5],[-9,7],[-4,4],[-3,5],[-2,5],[-3,15],[-4,6],[-9,12],[-11,20],[-2,4],[-2,17],[-7,11],[-15,10],[-7,1],[-8,-1],[-7,-4],[-5,-6],[-3,-7],[-1,-3],[0,-5],[0,-4],[-2,-3],[-4,0],[-2,3],[-2,3],[-2,4],[0,4],[3,9],[2,4],[0,2],[-1,3],[-2,1],[-3,1],[-2,2],[-1,3],[-1,2],[0,2],[2,0],[3,-4],[5,-3],[10,-3],[3,2],[6,0],[4,1],[2,2],[6,9],[-2,10],[-4,6],[-6,8],[-2,8],[-1,12],[-5,8],[-2,14],[-1,5],[0,5],[-3,6],[-4,8],[0,9],[-4,8],[-7,11],[-5,4],[-2,-1],[-2,-3],[-2,-2],[-4,1],[-2,2],[0,3],[1,3],[2,2],[3,3],[1,9],[-5,15],[-4,13],[-1,7],[-2,7],[-5,7],[-2,7],[-1,9],[-3,7],[-4,5],[-2,6],[-1,6],[-5,2],[-2,3],[-5,2],[-3,3],[-2,5],[0,5],[1,5],[1,5],[-3,5],[-5,10],[-5,8],[-3,7],[0,8],[-4,9],[-2,7],[-5,4],[-1,8],[2,6],[-1,7],[-6,13],[-2,9],[4,11],[-3,17],[-20,54],[-2,27],[6,14],[1,2],[-2,36],[-2,49],[3,58],[-4,9],[-9,-1],[-7,-14],[-5,-15],[-2,-32],[-7,-25],[-1,-8],[-7,19],[6,38],[0,44],[0,37],[-3,20],[-13,31],[-27,34],[-33,37],[-24,16],[-13,9],[-10,5],[-7,-3],[-4,-4],[-4,-19],[-1,-4],[5,-38],[18,-55],[13,-27],[10,-16],[3,-11],[-4,-10],[-5,15],[-22,40],[-10,25],[-5,22],[-2,6],[-5,4],[-5,-1],[-4,-6],[1,-21],[-14,-33],[-7,-8],[-11,-3],[4,8],[7,22],[1,12],[0,13],[-3,10],[-4,9],[-14,22],[-3,6],[-1,6],[2,7],[3,4],[4,3],[1,5],[-3,3],[-6,1],[-6,1],[-2,5],[-2,6],[-1,3],[1,-1],[2,2],[2,3],[0,3],[-6,0],[-4,8],[-2,10],[0,9],[-3,8],[-10,14],[3,4],[-3,4],[-17,16],[-6,3],[-6,1],[-6,-1],[-5,-3],[-5,-11],[-3,-13],[4,-52],[-1,-7],[-4,-10],[-1,-4],[-5,-7],[-12,-7],[-22,-7],[9,12],[12,7],[9,8],[4,17],[-2,15],[-8,28],[-2,15],[-4,15],[-11,15],[-13,13],[-12,10],[-24,14],[-3,5],[-3,8],[-6,7],[-7,6],[-7,3],[-4,-7],[-16,-9],[-5,-6],[-3,-10],[-2,-9],[-1,-3],[-3,-2],[-2,-4],[-1,-5],[-3,0],[-1,14],[11,18],[14,18],[6,12],[-2,7],[-5,7],[-8,5],[-8,2],[-8,-3],[-10,-13],[-6,-4],[3,15],[-8,14],[-28,24],[-9,5],[-2,0],[-5,-1],[-1,1],[-1,1],[1,3],[0,2],[-2,1],[-4,2],[-51,48],[-26,21],[-11,18],[-16,9],[-25,24],[-25,14],[-11,5],[-2,0],[-2,-3],[-15,4],[-13,4],[-17,12],[-9,3],[-8,4],[-16,5],[-11,4],[-8,4],[-3,1],[-4,-3],[1,-2],[2,1],[7,-2],[7,-6],[7,-4],[7,-2],[0,-4],[-8,-2],[-7,5],[-6,7],[-5,3],[-9,-1],[-12,3],[-26,7],[-15,0],[-12,3],[-5,1],[-8,3],[-11,7],[-13,6],[-41,17],[-7,4],[-6,4],[-7,4],[-10,7],[-12,6],[-5,1],[-3,-1],[8,-4],[1,-2],[-3,0],[-7,3],[-8,4],[-12,2],[-16,2],[-4,0],[-3,-7],[-7,-12],[-7,-12],[-5,-37],[-3,-7],[-7,-13],[-10,-25],[-7,-10],[-10,-10],[-11,-8],[-12,-4],[15,24],[3,7],[1,3],[3,4],[7,6],[6,8],[5,8],[4,14],[5,29],[2,14],[4,8],[9,16],[3,4],[-2,7],[-9,17],[1,4],[-2,3],[-4,2],[-2,3],[-9,-1],[-5,2],[-8,1],[-26,7],[-31,10],[-35,7],[-45,10],[-73,10],[-14,3],[-16,2],[-6,1],[-88,3],[-11,0],[-15,-1],[-11,-2],[-10,-4],[-4,-2],[-2,-4],[2,-2],[1,-4],[3,-4],[6,-4],[8,-4],[21,-6],[6,-3],[5,-4],[6,-1],[5,4],[5,-1],[6,-4],[8,1],[5,2],[3,3],[3,1],[5,-1],[3,-2],[3,-3],[2,-2],[2,-3],[-6,4],[-4,2],[-4,1],[-4,-1],[-2,-2],[-2,-3],[-3,-1],[-4,-2],[-3,0],[-3,0],[-8,5],[-3,0],[-3,-2],[-5,-1],[-7,1],[-12,9],[-8,0],[-2,-3],[0,-8],[-4,-9],[-10,-3],[5,6],[5,11],[-3,5],[-7,5],[-7,5],[-6,-1],[-4,-2],[-4,-1],[-6,0],[-3,1],[-4,0],[-3,1],[-1,0],[-3,2],[-4,3],[-4,4],[-2,1],[-8,2],[-6,3],[-10,7],[-22,4],[-88,4],[-15,0],[-18,-1],[-33,-2],[-9,0],[-9,-3],[-6,-2],[-6,-4],[-3,-4],[-5,-5],[-3,-4],[-6,-7],[-1,-6],[1,-7],[5,-5],[4,1],[5,0],[3,-3],[-5,-8],[4,-9],[6,-14],[1,-6],[1,-12],[-1,-6],[-2,-6],[-3,0],[0,32],[-2,5],[-5,3],[-7,7],[-23,2],[-14,5],[-7,1],[-9,3],[-15,5],[-25,5],[-11,3],[-10,3],[0,1942],[4096,0],[0,-4096],[-1591,0],[-1,3],[1,3],[0,4],[-4,6],[-4,3],[-13,7],[-5,2],[-5,-1],[-5,-1],[-5,-3],[-1,2],[-3,4],[-1,2],[-10,-4],[-38,-6],[-18,-11],[-23,-10],[-39,0],[7,4],[8,14],[7,16],[8,15],[27,26],[18,10],[15,12],[26,13],[0,20],[-11,11],[-33,1],[-35,-12],[-29,-12],[-12,-8],[-23,-3],[-14,6],[-16,1],[-12,-4],[-9,-14],[-17,-15],[-7,0],[-26,1],[-12,0],[-8,2],[-9,0],[-9,-5],[-23,0],[-4,-3],[-1,-5],[-1,-23],[1,-7],[5,-7],[3,9],[3,3],[4,3],[-1,-7],[-4,-13],[1,-7],[2,-5],[8,-7],[9,-6],[9,1],[9,4],[8,2],[2,1],[5,2],[6,1],[3,-3],[3,-1],[17,3],[11,-3],[10,-5],[8,-6],[-142,0],[2,6],[0,7],[-3,10],[-1,7],[0,10],[-1,6],[-8,7],[-8,5],[-9,3],[-11,2],[-6,2],[-8,2],[-10,0],[-9,-6],[-5,-6],[1,-4],[3,-8],[2,-4],[0,-4],[-1,-3],[-1,-2],[2,-4],[3,-4],[3,0],[3,-2],[0,-8],[2,-3],[5,-5],[6,-3],[2,-1],[-51,0],[-6,3],[-6,10],[-9,4],[-19,-4],[-26,-13],[-2,0],[-60,0]],[[2081,786],[3,-3],[2,-8],[4,-2],[4,-1],[5,1],[4,-1],[3,3],[3,2],[6,-1],[6,1],[3,2],[-1,7],[-4,7],[-7,4],[-5,4],[-11,0],[-7,0],[-11,-7],[-4,-4],[0,-2],[4,-2],[3,0]],[[2126,774],[-6,-1],[-5,-1],[-5,1],[-6,-4],[-6,0],[-6,-1],[-3,-6],[0,-9],[-3,-9],[-1,-11],[6,-2],[3,-4],[1,-6],[7,-9],[7,-23],[6,-4],[8,-2],[9,2],[6,3],[14,13],[7,8],[3,4],[-1,8],[-4,9],[-5,6],[-5,9],[-1,10],[-4,3],[-7,10],[-5,7],[-4,-1]],[[2249,341],[4,-3],[11,4],[2,1],[7,2],[1,1],[3,3],[12,8],[2,4],[2,4],[3,4],[3,6],[7,12],[-4,5],[-7,-3],[-7,-7],[-12,-3],[-7,-3],[-5,-4],[-2,-3],[-4,-8],[-9,-3],[-10,-7],[0,-7],[10,-3]],[[2267,320],[3,7],[-4,4],[-12,-1],[-10,6],[-9,0],[-8,-1],[-9,-10],[-25,-10],[-18,-19],[-3,-14],[3,-9],[13,0],[14,2],[18,0],[11,0],[4,1],[3,1],[7,9],[3,7],[3,3],[6,5],[5,11],[5,8]],[[2231,230],[-4,-6],[-1,-5],[8,-4],[-2,-6],[-11,10],[-6,3],[-3,-4],[-4,-1],[-21,0],[-5,-3],[2,-3],[-2,-2],[-8,-4],[-9,-10],[-4,-13],[-1,-14],[2,-16],[4,-14],[7,-7],[12,1],[7,6],[11,6],[12,8],[45,35],[2,6],[4,3],[1,2],[-1,3],[-2,3],[0,2],[0,8],[-1,3],[-1,5],[-10,15],[-6,0],[-8,-3],[-7,-4]],[[2120,62],[3,0],[1,3],[-1,4],[0,5],[2,9],[7,5],[6,2],[5,1],[5,2],[4,6],[6,6],[2,8],[-2,12],[-5,10],[-4,8],[-2,4],[-1,4],[4,42],[-1,16],[-5,13],[0,1],[-1,1],[-1,1],[0,2],[-5,-3],[-15,-17],[-3,-6],[-1,-5],[1,-10],[0,-11],[1,-4],[2,-7],[2,-2],[2,-2],[1,-2],[0,-4],[-2,0],[-3,0],[-4,-2],[-2,-6],[-12,-45],[0,-2],[-2,-2],[-1,0],[-2,1],[-3,1],[-5,-1],[-2,-4],[-1,-5],[-1,-10],[0,-3],[6,-6],[3,-2],[4,-1],[8,-1],[4,-1],[8,-3]],[[2243,112],[1,6],[-2,6],[-8,0],[-9,-4],[-22,-14],[-7,-10],[-1,-6],[20,6],[21,11],[7,5]],[[503,1760],[-7,4],[-1,-2],[0,-5],[0,-4],[-4,-2],[-2,-1],[0,-3],[0,-4],[-1,-4],[-8,3],[-4,-4],[-2,-8],[1,-9],[2,-3],[3,-2],[2,-2],[1,-9],[2,-3],[3,0],[3,3],[10,12],[2,1],[3,-1],[1,-3],[-1,-4],[-2,-3],[-1,-3],[2,-17],[0,-2],[0,-2],[-3,-1],[-2,2],[-2,2],[-2,1],[-2,-2],[-1,-2],[-1,-2],[-2,0],[-1,3],[-1,3],[-1,2],[-3,0],[-1,-2],[-2,-2],[-2,-6],[-2,-11],[-2,-4],[-2,2],[0,2],[0,4],[0,2],[-1,6],[0,17],[-1,4],[-3,2],[-3,-1],[-3,-3],[-2,-3],[-1,8],[-3,9],[-4,4],[-4,-6],[4,-11],[2,-3],[0,-2],[-1,-3],[-3,-6],[-2,-8],[-2,-3],[-2,-2],[-4,1],[-7,2],[-3,0],[-4,-5],[2,-7],[4,-5],[8,-1],[-2,-4],[-2,-4],[-3,-2],[-3,3],[-2,0],[-3,-7],[-6,-6],[-8,-4],[-8,-1],[2,6],[-2,4],[-5,2],[-5,1],[-4,-1],[-8,-4],[-4,-1],[-4,0],[-1,2],[1,2],[4,5],[-1,1],[0,2],[-1,1],[-1,1],[0,1],[0,2],[1,2],[2,1],[2,1],[3,0],[2,1],[-2,1],[-3,2],[-3,1],[-9,2],[-9,0],[-6,-1],[-5,-2],[-4,-13],[-7,-3],[-16,-3],[0,2],[7,4],[8,6],[6,8],[-1,10],[-2,2],[-3,0],[-3,0],[-1,0],[-1,3],[0,3],[0,4],[1,2],[1,0],[3,-1],[2,-2],[2,-1],[3,-1],[3,1],[2,1],[3,2],[2,4],[2,1],[2,0],[2,0],[1,-2],[4,-6],[2,-2],[1,1],[2,3],[0,4],[-1,3],[-2,3],[-6,5],[-2,3],[-1,4],[-1,4],[-1,0],[-4,0],[-2,0],[0,3],[2,4],[5,6],[-1,2],[-2,0],[-4,1],[6,3],[1,1],[1,2],[0,3],[1,2],[2,1],[14,5],[5,4],[4,12],[3,3],[4,2],[4,3],[3,8],[3,24],[-1,6],[2,5],[0,4],[-2,3],[0,4],[1,4],[2,2],[7,3],[3,-1],[8,-1],[4,0],[3,-3],[2,-3],[3,-1],[4,2],[4,-2],[6,-1],[9,0],[4,-1],[3,-1],[4,-6],[3,-5],[-1,-8],[-2,-8],[0,-6],[4,1],[3,-2],[1,-1],[4,1],[2,3],[2,4],[3,2],[3,1],[9,-2],[3,1],[4,1],[9,5],[1,0],[2,-1],[2,-2],[3,-1],[4,3],[3,1],[1,-2],[0,-3],[-1,-4],[0,-3],[1,0],[5,0],[-6,-10],[-1,-4],[-1,-7],[-1,-1],[-6,0],[-2,-1],[-1,-3],[1,-3],[3,-3],[1,-4],[-4,-5],[-1,-4],[-1,-4],[-2,-4],[-5,1],[-2,5],[0,9],[-2,7]],[[1883,1280],[-7,-16],[2,-27],[20,-54],[3,-17],[-4,-11],[2,-9],[6,-13],[1,-7],[-2,-6],[1,-8],[5,-4],[2,-7],[4,-9],[0,-8],[3,-7],[5,-8],[5,-10],[3,-5],[-1,-5],[-1,-5],[0,-5],[2,-5],[3,-3],[5,-2],[2,-3],[5,-2],[1,-6],[2,-6],[4,-5],[3,-7],[1,-9],[2,-7],[5,-7],[2,-7],[1,-7],[4,-13],[5,-15],[-1,-9],[-3,-3],[-2,-2],[-1,-3],[0,-3],[2,-2],[4,-1],[2,2],[2,3],[2,1],[5,-4],[7,-11],[4,-8],[0,-9],[4,-8],[3,-6],[0,-5],[1,-5],[2,-14],[5,-8],[1,-12],[2,-8],[6,-8],[4,-6],[2,-10],[-6,-9],[-2,-2],[-4,-1],[-6,0],[-3,-2],[-10,3],[-5,3],[-3,4],[-2,0],[0,-2],[1,-2],[1,-3],[2,-2],[3,-1],[2,-1],[1,-3],[0,-2],[-2,-4],[-3,-9],[0,-4],[2,-4],[2,-3],[2,-3],[4,0],[2,3],[0,4],[0,5],[1,3],[3,7],[5,6],[7,4],[8,1],[7,-1],[15,-10],[7,-11],[2,-17],[2,-4],[11,-20],[9,-12],[4,-6],[3,-15],[2,-5],[3,-5],[4,-4],[9,-7],[12,-5],[14,-1],[15,2],[8,5],[9,-1],[6,-1],[8,0],[4,-2],[13,3],[5,0],[9,1],[7,-1],[9,-6],[17,-6],[32,-11],[20,-11],[10,-12],[4,-9],[4,-19],[0,-13],[0,-7],[2,-10],[2,-23],[5,-13],[1,-15],[0,-12],[-4,-19],[-4,-6],[-7,-7],[-10,-5],[-12,-5],[-19,-5],[-15,-2],[-13,-4],[-5,1],[-5,1],[-4,2],[-3,-2],[1,-5],[3,-5],[7,-3],[8,4],[11,-3],[15,4],[10,1],[8,-1],[12,8],[8,-1],[6,-4],[5,-7],[1,-5],[0,-3],[-7,-12],[-11,-13],[-15,-9],[-13,-1],[-6,13],[-3,-6],[-2,-13],[-6,-13],[-13,-5],[-3,-3],[-13,-20],[-5,-5],[-5,-4],[-29,-14],[-5,-3],[-15,-17],[-3,-3],[-12,-29],[-3,-4],[-5,-4],[-24,-13],[-8,-6],[-4,-6],[-12,-33],[-23,-40],[-17,-27],[-31,-32],[-35,-43],[-4,0],[-7,2],[-12,0],[-28,-7],[-18,-13],[-14,-18],[-15,-26]],[[0,2154],[10,-3],[11,-3],[25,-5],[15,-5],[9,-3],[7,-1],[14,-5],[23,-2],[7,-7],[5,-3],[2,-5],[0,-32],[3,0],[2,6],[1,6],[-1,12],[-1,6],[-6,14],[-4,9],[5,8],[-3,3],[-5,0],[-4,-1],[-5,5],[-1,7],[1,6],[6,7],[3,4],[5,5],[3,4],[6,4],[6,2],[9,3],[9,0],[33,2],[18,1],[15,0],[88,-4],[22,-4],[10,-7],[6,-3],[8,-2],[2,-1],[4,-4],[4,-3],[3,-2],[1,0],[3,-1],[4,0],[3,-1],[6,0],[4,1],[4,2],[6,1],[7,-5],[7,-5],[3,-5],[-5,-11],[-5,-6],[10,3],[4,9],[0,8],[2,3],[8,0],[12,-9],[7,-1],[5,1],[3,2],[3,0],[8,-5],[3,0],[3,0],[4,2],[3,1],[2,3],[2,2],[4,1],[4,-1],[4,-2],[6,-4],[-2,3],[-2,2],[-3,3],[-3,2],[-5,1],[-3,-1],[-3,-3],[-5,-2],[-8,-1],[-6,4],[-5,1],[-5,-4],[-6,1],[-5,4],[-6,3],[-21,6],[-8,4],[-6,4],[-3,4],[-1,4],[-2,2],[2,4],[4,2],[10,4],[11,2],[15,1],[11,0],[88,-3],[6,-1],[16,-2],[14,-3],[73,-10],[45,-10],[35,-7],[31,-10],[26,-7],[8,-1],[5,-2],[9,1],[2,-3],[4,-2],[2,-3],[-1,-4],[9,-17],[2,-7],[-3,-4],[-9,-16],[-4,-8],[-2,-14],[-5,-29],[-4,-14],[-5,-8],[-6,-8],[-7,-6],[-3,-4],[-1,-3],[-3,-7],[-15,-24],[12,4],[11,8],[10,10],[7,10],[10,25],[7,13],[3,7],[5,37],[7,12],[7,12],[3,7],[4,0],[16,-2],[12,-2],[8,-4],[7,-3],[3,0],[-1,2],[-8,4],[3,1],[5,-1],[12,-6],[10,-7],[7,-4],[6,-4],[7,-4],[41,-17],[13,-6],[11,-7],[8,-3],[5,-1],[12,-3],[15,0],[26,-7],[12,-3],[9,1],[5,-3],[6,-7],[7,-5],[8,2],[0,4],[-7,2],[-7,4],[-7,6],[-7,2],[-2,-1],[-1,2],[4,3],[3,-1],[8,-4],[11,-4],[16,-5],[8,-4],[9,-3],[17,-12],[13,-4],[15,-4],[2,3],[2,0],[11,-5],[25,-14],[25,-24],[16,-9],[11,-18],[26,-21],[51,-48],[4,-2],[2,-1],[0,-2],[-1,-3],[1,-1],[1,-1],[5,1],[2,0],[9,-5],[28,-24],[8,-14],[-3,-15],[6,4],[10,13],[8,3],[8,-2],[8,-5],[5,-7],[2,-7],[-6,-12],[-14,-18],[-11,-18],[1,-14],[3,0],[1,5],[2,4],[3,2],[1,3],[2,9],[3,10],[5,6],[16,9],[4,7],[7,-3],[7,-6],[6,-7],[3,-8],[3,-5],[24,-14],[12,-10],[13,-13],[11,-15],[4,-15],[2,-15],[8,-28],[2,-15],[-4,-17],[-9,-8],[-12,-7],[-9,-12],[22,7],[12,7],[5,7],[1,4],[4,10],[1,7],[-4,52],[3,13],[5,11],[5,3],[6,1],[6,-1],[6,-3],[17,-16],[3,-4],[-3,-4],[10,-14],[3,-8],[0,-9],[2,-10],[4,-8],[6,0],[0,-3],[-2,-3],[-2,-2],[-1,1],[1,-3],[2,-6],[2,-5],[6,-1],[6,-1],[3,-3],[-1,-5],[-4,-3],[-3,-4],[-2,-7],[1,-6],[3,-6],[14,-22],[4,-9],[3,-10],[0,-13],[-1,-12],[-7,-22],[-4,-8],[11,3],[7,8],[14,33],[-1,21],[4,6],[5,1],[5,-4],[2,-6],[5,-22],[10,-25],[22,-40],[5,-15],[4,10],[-3,11],[-10,16],[-13,27],[-18,55],[-5,38],[1,4],[4,19],[4,4],[7,3],[10,-5],[13,-9],[24,-16],[33,-37],[27,-34],[13,-31],[3,-20],[0,-37],[0,-44],[-6,-38],[7,-19],[1,8],[7,25],[2,32],[5,15],[7,14],[9,1],[4,-9],[-3,-58],[2,-49],[2,-36]],[[2243,112],[1,6],[-2,6],[-8,0],[-9,-4],[-22,-14],[-7,-10],[-1,-6],[20,6],[21,11],[7,5]],[[2253,338],[11,4],[2,1],[7,2],[1,1],[3,3],[12,8],[2,4],[2,4],[3,4],[3,6],[7,12],[-4,5],[-7,-3],[-7,-7],[-12,-3],[-7,-3],[-5,-4],[-2,-3],[-4,-8],[-9,-3],[-10,-7],[0,-7],[10,-3],[4,-3]],[[2202,275],[18,0],[11,0],[4,1],[3,1],[7,9],[3,7],[3,3],[6,5],[5,11],[5,8],[3,7],[-4,4],[-12,-1],[-10,6],[-9,0],[-8,-1],[-9,-10],[-25,-10],[-18,-19],[-3,-14],[3,-9],[13,0],[14,2]],[[2162,152],[4,-14],[7,-7],[12,1],[7,6],[11,6],[12,8],[45,35],[2,6],[4,3],[1,2],[-1,3],[-2,3],[0,2],[0,8],[-1,3],[-1,5],[-10,15],[-6,0],[-8,-3],[-7,-4],[-4,-6],[-1,-5],[8,-4],[-2,-6],[-11,10],[-6,3],[-3,-4],[-4,-1],[-21,0],[-5,-3],[2,-3],[-2,-2],[-8,-4],[-9,-10],[-4,-13],[-1,-14],[2,-16]],[[2138,90],[5,1],[5,2],[4,6],[6,6],[2,8],[-2,12],[-5,10],[-4,8],[-2,4],[-1,4],[4,42],[-1,16],[-5,13],[0,1],[-1,1],[-1,1],[0,2],[-5,-3],[-15,-17],[-3,-6],[-1,-5],[1,-10],[0,-11],[1,-4],[2,-7],[2,-2],[2,-2],[1,-2],[0,-4],[-2,0],[-3,0],[-4,-2],[-2,-6],[-12,-45],[0,-2],[-2,-2],[-1,0],[-2,1],[-3,1],[-5,-1],[-2,-4],[-1,-5],[-1,-10],[0,-3],[6,-6],[3,-2],[4,-1],[8,-1],[4,-1],[8,-3],[3,0],[1,3],[-1,4],[0,5],[2,9],[7,5],[6,2]],[[2505,0],[-1,3],[1,3],[0,4],[-4,6],[-4,3],[-13,7],[-5,2],[-5,-1],[-5,-1],[-5,-3],[-1,2],[-3,4],[-1,2],[-10,-4],[-38,-6],[-18,-11],[-23,-10]],[[2018,0],[-6,3],[-6,10],[-9,4],[-19,-4],[-26,-13],[-2,0]],[[2110,773],[-6,-4],[-6,0],[-6,-1],[-3,-6],[0,-9],[-3,-9],[-1,-11],[6,-2],[3,-4],[1,-6],[7,-9],[7,-23],[6,-4],[8,-2],[9,2],[6,3],[14,13],[7,8],[3,4],[-1,8],[-4,9],[-5,6],[-5,9],[-1,10],[-4,3],[-7,10],[-5,7],[-4,-1],[-6,-1],[-5,-1],[-5,1]],[[2045,26],[3,-4],[3,0],[3,-2],[0,-8],[2,-3],[5,-5],[6,-3],[2,-1]],[[2116,0],[2,6],[0,7],[-3,10],[-1,7],[0,10],[-1,6],[-8,7],[-8,5],[-9,3],[-11,2],[-6,2],[-8,2],[-10,0],[-9,-6],[-5,-6],[1,-4],[3,-8],[2,-4],[0,-4],[-1,-3],[-1,-2],[2,-4]],[[2078,786],[3,0],[3,-3],[2,-8],[4,-2],[4,-1],[5,1],[4,-1],[3,3],[3,2],[6,-1],[6,1],[3,2],[-1,7],[-4,7],[-7,4],[-5,4],[-11,0],[-7,0],[-11,-7],[-4,-4],[0,-2],[4,-2]],[[2262,110],[-9,-14],[-17,-15],[-7,0],[-26,1],[-12,0],[-8,2],[-9,0],[-9,-5],[-23,0],[-4,-3],[-1,-5],[-1,-23],[1,-7],[5,-7],[3,9],[3,3],[4,3],[-1,-7],[-4,-13],[1,-7],[2,-5],[8,-7],[9,-6],[9,1],[9,4],[8,2],[2,1],[5,2],[6,1],[3,-3],[3,-1],[17,3],[11,-3],[10,-5],[8,-6]],[[2331,0],[7,4],[8,14],[7,16],[8,15],[27,26],[18,10],[15,12],[26,13],[0,20],[-11,11],[-33,1],[-35,-12],[-29,-12],[-12,-8],[-23,-3],[-14,6],[-16,1],[-12,-4]],[[503,1760],[-7,4],[-1,-2],[0,-5],[0,-4],[-4,-2],[-2,-1],[0,-3],[0,-4],[-1,-4],[-8,3],[-4,-4],[-2,-8],[1,-9],[2,-3],[3,-2],[2,-2],[1,-9],[2,-3],[3,0],[3,3],[10,12],[2,1],[3,-1],[1,-3],[-1,-4],[-2,-3],[-1,-3],[2,-17],[0,-2],[0,-2],[-3,-1],[-2,2],[-2,2],[-2,1],[-2,-2],[-1,-2],[-1,-2],[-2,0],[-1,3],[-1,3],[-1,2],[-3,0],[-1,-2],[-2,-2],[-2,-6],[-2,-11],[-2,-4],[-2,2],[0,2],[0,4],[0,2],[-1,6],[0,17],[-1,4],[-3,2],[-3,-1],[-3,-3],[-2,-3],[-1,8],[-3,9],[-4,4],[-4,-6],[4,-11],[2,-3],[0,-2],[-1,-3],[-3,-6],[-2,-8],[-2,-3],[-2,-2],[-4,1],[-7,2],[-3,0],[-4,-5],[2,-7],[4,-5],[8,-1],[-2,-4],[-2,-4],[-3,-2],[-3,3],[-2,0],[-3,-7],[-6,-6],[-8,-4],[-8,-1],[2,6],[-2,4],[-5,2],[-5,1],[-4,-1],[-8,-4],[-4,-1],[-4,0],[-1,2],[1,2],[4,5],[-1,1],[0,2],[-1,1],[-1,1],[0,1],[0,2],[1,2],[2,1],[2,1],[3,0],[2,1],[-2,1],[-3,2],[-3,1],[-9,2],[-9,0],[-6,-1],[-5,-2],[-4,-13],[-7,-3],[-16,-3],[0,2],[7,4],[8,6],[6,8],[-1,10],[-2,2],[-3,0],[-3,0],[-1,0],[-1,3],[0,3],[0,4],[1,2],[1,0],[3,-1],[2,-2],[2,-1],[3,-1],[3,1],[2,1],[3,2],[2,4],[2,1],[2,0],[2,0],[1,-2],[4,-6],[2,-2],[1,1],[2,3],[0,4],[-1,3],[-2,3],[-6,5],[-2,3],[-1,4],[-1,4],[-1,0],[-4,0],[-2,0],[0,3],[2,4],[5,6],[-1,2],[-2,0],[-4,1],[6,3],[1,1],[1,2],[0,3],[1,2],[2,1],[14,5],[5,4],[4,12],[3,3],[4,2],[4,3],[3,8],[3,24],[-1,6],[2,5],[0,4],[-2,3],[0,4],[1,4],[2,2],[7,3],[3,-1],[8,-1],[4,0],[3,-3],[2,-3],[3,-1],[4,2],[4,-2],[6,-1],[9,0],[4,-1],[3,-1],[4,-6],[3,-5],[-1,-8],[-2,-8],[0,-6],[4,1],[3,-2],[1,-1],[4,1],[2,3],[2,4],[3,2],[3,1],[9,-2],[3,1],[4,1],[9,5],[1,0],[2,-1],[2,-2],[3,-1],[4,3],[3,1],[1,-2],[0,-3],[-1,-4],[0,-3],[1,0],[5,0],[-6,-10],[-1,-4],[-1,-7],[-1,-1],[-6,0],[-2,-1],[-1,-3],[1,-3],[3,-3],[1,-4],[-4,-5],[-1,-4],[-1,-4],[-2,-4],[-5,1],[-2,5],[0,9],[-2,7]],[[374,2141],[-15,3],[-14,-2]],[[394,2138],[-20,3]],[[345,2142],[-28,0],[-11,2],[-9,-2],[-24,-6],[-7,0]],[[412,2126],[-14,4],[2,5],[-6,3]],[[266,2136],[-17,3],[-16,-1],[-14,1],[-25,-1],[-20,-3],[-22,-3],[-17,-5],[-4,-3],[-5,0]],[[448,2121],[-20,-1],[-10,0],[-6,6]],[[122,2115],[-5,-3],[-4,0],[-11,2],[-21,9],[-34,10],[-26,8],[-4,0],[-17,5]],[[673,2059],[-8,3],[-9,-3],[-7,2],[-15,-2],[-12,0],[-8,2],[-6,4],[-12,12],[-27,26],[-9,6],[-10,5],[-18,0],[-29,1],[-40,5],[-15,1]],[[797,2018],[-10,2],[-9,3],[-9,5],[-17,12],[-13,7],[-27,2],[-17,0],[-10,1],[-6,3],[-6,6]],[[827,2015],[-12,3],[-4,0]],[[843,2006],[0,1]],[[945,1982],[-15,2],[-19,-2]],[[988,2026],[-5,-15]],[[843,2007],[-6,5],[-10,3]],[[911,1982],[-10,-1],[-12,0],[-10,4],[-18,8],[-9,6],[-9,7]],[[983,2011],[-1,-2],[-3,-7],[-10,-8],[-3,-4],[-8,-2],[-4,-4],[-6,-2],[-3,0]],[[1012,2033],[-10,2],[-8,0],[-6,-9]],[[1170,1990],[-3,1],[-18,2],[-8,1],[-37,18],[-8,0]],[[1191,1976],[-13,10]],[[1096,2012],[-6,-3],[-9,0],[-22,9],[-12,7],[-15,3],[-12,4],[-8,1]],[[1178,1986],[-5,4],[-3,0]],[[1207,1966],[-4,4],[-12,6]],[[1299,1893],[-18,14],[-12,9],[-21,18],[-14,13],[-19,13],[-8,6]],[[1349,1857],[-6,-2],[-8,3],[-15,14],[-15,10],[-6,11]],[[1376,1837],[-14,9],[-7,3],[-6,8]],[[1427,1811],[1,-7],[-3,-9]],[[1425,1795],[-24,13],[-7,6],[-6,7],[-12,16]],[[1425,1795],[0,-14],[-6,-7],[-6,-9]],[[1413,1765],[-19,-8],[-2,-3]],[[1392,1749],[0,-6],[3,-9],[12,-9],[3,-4],[8,-15]],[[1392,1754],[0,-5]],[[1642,1254],[1,-5],[3,-10],[12,-8],[10,-9],[18,-18],[17,-20],[18,-25],[2,-4]],[[1604,1402],[3,-3],[7,-3],[2,-3],[1,-18],[3,-15],[5,-8],[0,-11],[-3,-18],[1,-18],[8,-18],[7,-11],[3,-12],[1,-10]],[[1723,1155],[2,-4],[12,-20],[8,-12],[6,-10],[6,-15],[2,-16],[0,-27],[-2,-24],[2,-20],[3,-7],[16,-20],[11,-18],[7,-20],[11,-37]],[[1807,905],[4,-2],[8,0],[10,3],[14,0],[24,-3],[18,8],[25,7],[8,0],[1,-3],[-3,-7],[2,-12],[3,-11],[0,-12],[-2,-12],[2,-11],[6,-15],[13,-26],[3,-16],[3,-15],[-1,-8],[0,-6],[3,-3],[15,-4],[21,-5],[1,-5],[-1,-4],[-9,-9],[-14,-11],[-7,-7],[-2,-5],[-3,-28],[-1,-19],[3,-25],[-2,-8],[-13,-13],[-5,-8],[-1,-18],[6,-27],[7,-23],[2,-8],[-3,-7],[-6,-8],[-3,-7],[-5,-26],[-3,-12],[-4,-8],[-5,-3],[-19,-7],[-2,-5],[2,-10],[-2,-9],[-7,-20],[-5,-12],[-7,-14],[-8,-7],[-1,-5],[0,-10],[-3,-5],[-14,-10],[-10,-13],[-2,-27],[-4,-6],[-5,-4],[-19,-11],[-14,-9],[-22,-17],[0,-1]],[[1774,261],[7,-6],[24,-11],[18,-12],[20,-12],[10,-6],[6,-12],[8,-12],[7,-6],[11,-5],[3,-4],[1,-11],[-1,-4],[-8,-6],[-3,-10]],[[1877,144],[2,-10],[-2,-14],[-4,-21]],[[1873,99],[-11,-23],[-6,-10],[-1,-8],[6,-6],[18,-10],[10,-8],[2,-7]],[[1891,27],[0,-9],[-5,-10]],[[2463,25],[1,-2],[5,3],[5,1],[5,1],[5,-2],[13,-7],[4,-3],[4,-6],[0,-4],[-1,-3],[1,-3],[-135,0],[23,10],[18,11],[38,6],[10,4],[1,-2],[3,-4]],[[2264,342],[-11,-4],[-4,3],[-10,3],[0,7],[10,7],[9,3],[4,8],[2,3],[5,4],[7,3],[12,3],[7,7],[7,3],[4,-5],[-7,-12],[-3,-6],[-3,-4],[-2,-4],[-2,-4],[-12,-8],[-3,-3],[-1,-1],[-7,-2],[-2,-1]],[[2130,775],[5,-7],[7,-10],[4,-3],[1,-10],[5,-9],[5,-6],[4,-9],[1,-8],[-3,-4],[-7,-8],[-14,-13],[-6,-3],[-9,-2],[-8,2],[-6,4],[-7,23],[-7,9],[-1,6],[-3,4],[-6,2],[1,11],[3,9],[0,9],[3,6],[6,1],[6,0],[6,4],[5,-1],[5,1],[6,1],[4,1]],[[2089,801],[7,0],[11,0],[5,-4],[7,-4],[4,-7],[1,-7],[-3,-2],[-6,-1],[-6,1],[-3,-2],[-3,-3],[-4,1],[-5,-1],[-4,1],[-4,2],[-2,8],[-3,3],[-3,0],[-4,2],[0,2],[4,4],[11,7]],[[1950,0],[2,0],[26,13],[19,4],[9,-4],[6,-10],[6,-3],[-68,0]],[[2244,336],[10,-6],[12,1],[4,-4],[-3,-7],[-5,-8],[-5,-11],[-6,-5],[-3,-3],[-3,-7],[-7,-9],[-3,-1],[-4,-1],[-11,0],[-18,0],[-14,-2],[-13,0],[-3,9],[3,14],[18,19],[25,10],[9,10],[8,1],[9,0]],[[2069,0],[-2,1],[-6,3],[-5,5],[-2,3],[0,8],[-3,2],[-3,0],[-3,4],[-2,4],[1,2],[1,3],[0,4],[-2,4],[-3,8],[-1,4],[5,6],[9,6],[10,0],[8,-2],[6,-2],[11,-2],[9,-3],[8,-5],[8,-7],[1,-6],[0,-10],[1,-7],[3,-10],[0,-7],[-2,-6],[-47,0]],[[2447,110],[-26,-13],[-15,-12],[-18,-10],[-27,-26],[-8,-15],[-7,-16],[-8,-14],[-7,-4],[-73,0],[-8,6],[-10,5],[-11,3],[-17,-3],[-3,1],[-3,3],[-6,-1],[-5,-2],[-2,-1],[-8,-2],[-9,-4],[-9,-1],[-9,6],[-8,7],[-2,5],[-1,7],[4,13],[1,7],[-4,-3],[-3,-3],[-3,-9],[-5,7],[-1,7],[1,23],[1,5],[4,3],[23,0],[9,5],[9,0],[8,-2],[12,0],[26,-1],[7,0],[17,15],[9,14],[12,4],[16,-1],[14,-6],[23,3],[12,8],[29,12],[35,12],[33,-1],[11,-11],[0,-20]],[[2215,96],[-20,-6],[1,6],[7,10],[22,14],[9,4],[8,0],[2,-6],[-1,-6],[-7,-5],[-21,-11]],[[2150,193],[-4,-42],[1,-4],[2,-4],[4,-8],[5,-10],[2,-12],[-2,-8],[-6,-6],[-4,-6],[-5,-2],[-5,-1],[-6,-2],[-7,-5],[-2,-9],[0,-5],[1,-4],[-1,-3],[-3,0],[-8,3],[-4,1],[-8,1],[-4,1],[-3,2],[-6,6],[0,3],[1,10],[1,5],[2,4],[5,1],[3,-1],[2,-1],[1,0],[2,2],[0,2],[12,45],[2,6],[4,2],[3,0],[2,0],[0,4],[-1,2],[-2,2],[-2,2],[-2,7],[-1,4],[0,11],[-1,10],[1,5],[3,6],[15,17],[5,3],[0,-2],[1,-1],[1,-1],[0,-1],[5,-13],[1,-16]],[[2264,214],[0,-8],[0,-2],[2,-3],[1,-3],[-1,-2],[-4,-3],[-2,-6],[-45,-35],[-12,-8],[-11,-6],[-7,-6],[-12,-1],[-7,7],[-4,14],[-2,16],[1,14],[4,13],[9,10],[8,4],[2,2],[-2,3],[5,3],[21,0],[4,1],[3,4],[6,-3],[11,-10],[2,6],[-8,4],[1,5],[4,6],[7,4],[8,3],[6,0],[10,-15],[1,-5],[1,-3]],[[0,0],[0,2154],[10,-3],[11,-3],[25,-5],[15,-5],[9,-3],[7,-1],[14,-5],[23,-2],[7,-7],[5,-3],[2,-5],[0,-32],[3,0],[2,6],[1,6],[-1,12],[-1,6],[-6,14],[-4,9],[5,8],[-3,3],[-5,0],[-4,-1],[-5,5],[-1,7],[1,6],[6,7],[3,4],[5,5],[3,4],[6,4],[6,2],[9,3],[9,0],[33,2],[18,1],[15,0],[88,-4],[22,-4],[10,-7],[6,-3],[8,-2],[2,-1],[4,-4],[4,-3],[3,-2],[1,0],[3,-1],[4,0],[3,-1],[6,0],[4,1],[4,2],[6,1],[7,-5],[7,-5],[3,-5],[-5,-11],[-5,-6],[10,3],[4,9],[0,8],[2,3],[8,0],[12,-9],[7,-1],[5,1],[3,2],[3,0],[8,-5],[3,0],[3,0],[4,2],[3,1],[2,3],[2,2],[4,1],[4,-1],[4,-2],[6,-4],[-2,3],[-2,2],[-3,3],[-3,2],[-5,1],[-3,-1],[-3,-3],[-5,-2],[-8,-1],[-6,4],[-5,1],[-5,-4],[-6,1],[-5,4],[-6,3],[-21,6],[-8,4],[-6,4],[-3,4],[-1,4],[-2,2],[2,4],[4,2],[10,4],[11,2],[15,1],[11,0],[88,-3],[6,-1],[16,-2],[14,-3],[73,-10],[45,-10],[35,-7],[31,-10],[26,-7],[8,-1],[5,-2],[9,1],[2,-3],[4,-2],[2,-3],[-1,-4],[9,-17],[2,-7],[-3,-4],[-9,-16],[-4,-8],[-2,-14],[-5,-29],[-4,-14],[-5,-8],[-6,-8],[-7,-6],[-3,-4],[-1,-3],[-3,-7],[-15,-24],[12,4],[11,8],[10,10],[7,10],[10,25],[7,13],[3,7],[5,37],[7,12],[7,12],[3,7],[4,0],[16,-2],[12,-2],[8,-4],[7,-3],[3,0],[-1,2],[-8,4],[3,1],[5,-1],[12,-6],[10,-7],[7,-4],[6,-4],[7,-4],[41,-17],[13,-6],[11,-7],[8,-3],[5,-1],[12,-3],[15,0],[26,-7],[12,-3],[9,1],[5,-3],[6,-7],[7,-5],[8,2],[0,4],[-7,2],[-7,4],[-7,6],[-7,2],[-2,-1],[-1,2],[4,3],[3,-1],[8,-4],[11,-4],[16,-5],[8,-4],[9,-3],[17,-12],[13,-4],[15,-4],[2,3],[2,0],[11,-5],[25,-14],[25,-24],[16,-9],[11,-18],[26,-21],[51,-48],[4,-2],[2,-1],[0,-2],[-1,-3],[1,-1],[1,-1],[5,1],[2,0],[9,-5],[28,-24],[8,-14],[-3,-15],[6,4],[10,13],[8,3],[8,-2],[8,-5],[5,-7],[2,-7],[-6,-12],[-14,-18],[-11,-18],[1,-14],[3,0],[1,5],[2,4],[3,2],[1,3],[2,9],[3,10],[5,6],[16,9],[4,7],[7,-3],[7,-6],[6,-7],[3,-8],[3,-5],[24,-14],[12,-10],[13,-13],[11,-15],[4,-15],[2,-15],[8,-28],[2,-15],[-4,-17],[-9,-8],[-12,-7],[-9,-12],[22,7],[12,7],[5,7],[1,4],[4,10],[1,7],[-4,52],[3,13],[5,11],[5,3],[6,1],[6,-1],[6,-3],[17,-16],[3,-4],[-3,-4],[10,-14],[3,-8],[0,-9],[2,-10],[4,-8],[6,0],[0,-3],[-2,-3],[-2,-2],[-1,1],[1,-3],[2,-6],[2,-5],[6,-1],[6,-1],[3,-3],[-1,-5],[-4,-3],[-3,-4],[-2,-7],[1,-6],[3,-6],[14,-22],[4,-9],[3,-10],[0,-13],[-1,-12],[-7,-22],[-4,-8],[11,3],[7,8],[14,33],[-1,21],[4,6],[5,1],[5,-4],[2,-6],[5,-22],[10,-25],[22,-40],[5,-15],[4,10],[-3,11],[-10,16],[-13,27],[-18,55],[-5,38],[1,4],[4,19],[4,4],[7,3],[10,-5],[13,-9],[24,-16],[33,-37],[27,-34],[13,-31],[3,-20],[0,-37],[0,-44],[-6,-38],[7,-19],[1,8],[7,25],[2,32],[5,15],[7,14],[9,1],[4,-9],[-3,-58],[2,-49],[2,-36],[-1,-2],[-6,-14],[2,-27],[13,-35],[7,-19],[3,-17],[-4,-11],[2,-9],[6,-13],[1,-7],[-2,-6],[1,-8],[5,-4],[2,-7],[4,-9],[0,-8],[3,-7],[5,-8],[5,-10],[3,-5],[-1,-5],[-1,-5],[0,-5],[2,-5],[3,-3],[5,-2],[2,-3],[5,-2],[1,-6],[2,-6],[4,-5],[3,-7],[1,-9],[2,-7],[5,-7],[2,-7],[1,-7],[4,-13],[5,-15],[-1,-9],[-3,-3],[-2,-2],[-1,-3],[0,-3],[2,-2],[4,-1],[2,2],[2,3],[2,1],[5,-4],[7,-11],[4,-8],[0,-9],[4,-8],[3,-6],[0,-5],[1,-5],[2,-14],[5,-8],[1,-12],[2,-8],[6,-8],[4,-6],[2,-10],[-6,-9],[-2,-2],[-4,-1],[-6,0],[-3,-2],[-10,3],[-5,3],[-3,4],[-2,0],[0,-2],[1,-2],[1,-3],[2,-2],[3,-1],[2,-1],[1,-3],[0,-2],[-2,-4],[-3,-9],[0,-4],[2,-4],[2,-3],[2,-3],[4,0],[2,3],[0,4],[0,5],[1,3],[3,7],[5,6],[7,4],[8,1],[7,-1],[15,-10],[7,-11],[2,-17],[2,-4],[11,-20],[9,-12],[4,-6],[3,-15],[2,-5],[3,-5],[4,-4],[9,-7],[12,-5],[14,-1],[15,2],[8,5],[9,-1],[6,-1],[8,0],[4,-2],[13,3],[5,0],[9,1],[7,-1],[9,-6],[17,-6],[32,-11],[20,-11],[10,-12],[4,-9],[1,-2],[3,-17],[0,-13],[0,-7],[2,-10],[2,-23],[5,-13],[1,-15],[0,-12],[-4,-19],[-4,-6],[-7,-7],[-10,-5],[-12,-5],[-19,-5],[-15,-2],[-13,-4],[-5,1],[-5,1],[-4,2],[-3,-2],[1,-5],[3,-5],[7,-3],[8,4],[11,-3],[15,4],[10,1],[8,-1],[12,8],[8,-1],[6,-4],[5,-7],[1,-5],[0,-3],[-7,-12],[-11,-13],[-15,-9],[-13,-1],[-6,13],[-3,-6],[-2,-13],[-6,-13],[-13,-5],[-3,-3],[-13,-20],[-5,-5],[-5,-4],[-29,-14],[-5,-3],[-15,-17],[-3,-3],[-12,-29],[-3,-4],[-5,-4],[-24,-13],[-8,-6],[-4,-6],[-12,-33],[-23,-40],[-17,-27],[-31,-32],[-35,-43],[-4,0],[-7,2],[-12,0],[-28,-7],[-18,-13],[-14,-18],[-15,-26],[-1667,0],[-223,0]],[[600,855],[35,2],[45,55],[35,-14],[133,92],[67,-13],[37,-46],[58,15],[-23,86],[104,67],[-72,58],[16,56],[-40,46],[-114,49],[8,19],[52,-18],[74,20],[-14,66],[65,-41],[-40,0],[16,-30],[89,-47],[-11,-63],[29,-40],[10,35],[26,2],[68,-3],[45,-39],[28,30],[-12,23],[32,11],[0,42],[72,-28],[109,59],[-68,-103],[-71,-7],[-112,-62],[84,30],[43,-75],[-102,-213],[-50,23],[-96,-88],[-73,-10],[22,25],[-40,36],[-74,-38],[-74,23],[-6,23],[-131,-96],[-129,36],[-50,45]],[[1017,1545],[46,-14],[26,20],[-22,8],[-9,67],[21,-14],[26,25],[87,-106],[1,-52],[-67,-48],[-31,62],[12,25],[-40,-40],[-44,21],[-6,46]],[[375,259],[7,57],[192,62],[45,-12],[23,64],[-49,64],[40,7],[102,-90],[-32,-20],[105,-87],[2,-45],[75,-93],[-120,-58],[-22,-38],[24,-32],[-135,-8],[-46,-30],[-79,132],[-36,-1],[-32,-47],[-5,164],[-59,11]],[[1703,1592],[12,64],[40,-10],[158,-204],[0,-188],[52,-223],[-145,3],[0,135],[22,15],[-52,0],[46,88],[-20,103],[-73,91],[-40,126]],[[0,1777],[24,11],[88,-16],[-16,-77],[54,-35],[-57,-48],[-3,-39],[32,-32],[15,-132],[-133,-163],[37,-75],[0,-64],[-41,-8],[0,678]],[[1543,1500],[74,31],[-20,89],[42,9],[41,-90],[-8,-54],[-61,-53],[-68,68]],[[1235,1615],[86,114],[56,-22],[16,45],[31,-16],[41,44],[22,-19],[-25,-68],[18,-64],[-49,-24],[-14,-37],[-75,-39],[-36,32],[-54,-22],[-17,76]],[[810,2063],[17,10],[33,-21],[23,44],[18,-10],[-16,13],[129,-61],[79,-17],[-8,18],[112,-64],[-15,26],[21,-3],[17,-32],[-46,2],[-18,-56],[-18,26],[13,52],[-39,18],[-99,26],[-80,-60],[-91,33],[18,31],[-50,25]],[[1544,436],[16,72],[90,86],[27,106],[59,5],[17,-147],[29,-35],[-35,-116],[-48,-28],[-5,-41],[-28,32],[-51,-14],[-11,25],[-52,5],[-8,50]],[[794,1690],[9,72],[37,51],[53,9],[17,-106],[-40,-39],[-76,13]],[[29,73],[27,71],[70,-16],[37,-42],[82,43],[45,-29],[11,-39],[-11,-61],[-227,0],[-34,73]],[[1202,1481],[38,52],[55,24],[46,-26],[3,-71],[-74,-45],[-19,42],[-49,24]],[[531,895],[37,4],[-1,-46],[55,-4],[27,-38],[125,-37],[138,96],[4,-23],[74,-23],[74,38],[40,-36],[-22,-25],[137,0],[127,122],[73,224],[107,143],[49,-395],[129,-120],[-59,-190],[-94,-100],[-70,83],[-50,-59],[-14,-68],[-78,1],[-67,69],[-11,-32],[-49,14],[14,69],[-58,-19],[-12,138],[-55,-50],[4,-112],[26,-18],[-28,-56],[24,-14],[-16,-52],[45,-52],[-24,-74],[-102,88],[-16,75],[22,21],[-11,21],[-41,-12],[0,47],[-38,-4],[-26,36],[-59,-11],[-46,45],[-26,-12],[-23,58],[-84,45],[-134,5],[26,41],[-17,67],[16,46],[-42,86]],[[1096,574],[5,57],[55,50],[12,-138],[58,19],[-14,-69],[49,-14],[11,32],[66,-68],[41,-5],[-16,-61],[36,-28],[-183,-118],[-73,6],[13,90],[-45,52],[16,52],[-24,14],[28,56],[-35,73]],[[2069,527],[8,59],[35,0],[0,80],[137,-10],[26,-13],[0,-45],[36,0],[1,-109],[-41,-38],[-43,-3],[1,43],[-33,3],[-28,-15],[-4,-46],[-52,-4],[-43,98]],[[0,1777],[24,11],[88,-16],[-16,-77],[54,-35],[-57,-48],[-3,-39],[32,-32],[15,-132],[-133,-163],[37,-75],[0,-64],[-41,-8],[0,678]],[[1155,811],[52,63],[28,-8],[6,29],[33,9],[27,-28],[16,34],[22,17],[1,47],[57,96],[-28,91],[-76,-32],[-16,6],[111,61],[71,7],[75,102],[-56,-96],[-51,-48],[-17,-92],[-65,-103],[2,-42],[-40,-54],[-72,-34],[-16,-35],[-64,10]],[[681,910],[73,136],[-12,109],[53,57],[31,110],[-79,73],[-53,112],[36,19],[50,-61],[20,11],[-33,40],[0,34],[132,20],[9,-39],[0,-15],[-71,25],[-33,-42],[5,-40],[52,-36],[-39,-22],[21,-55],[33,-6],[37,-60],[82,-21],[40,-46],[-16,-56],[73,-62],[-105,-63],[23,-86],[-58,-15],[-37,46],[-67,13],[-133,-92],[-34,12]],[[983,1539],[4,38],[67,22],[35,-48],[-26,-20],[-46,17],[2,-26],[48,-44],[40,40],[-11,-31],[38,-64],[-36,-30],[53,-73],[-20,-43],[-100,60],[-4,17],[40,-1],[-55,32],[57,1],[16,17],[-102,136]],[[1626,1308],[20,105],[110,58],[82,-154],[-34,-144],[-122,-27],[-51,88],[19,34],[-24,40]],[[0,699],[91,-28],[35,21],[0,56],[-86,82],[18,39],[25,-11],[16,68],[98,-47],[118,7],[24,36],[133,25],[31,-53],[28,1],[42,-86],[-16,-46],[17,-67],[-85,-51],[153,-215],[-23,-64],[-45,12],[-473,-157],[-17,-24],[-84,90],[0,177],[29,146],[-29,23],[0,66]]]}