{"objects":{"water":{"type":"GeometryCollection","geometries":[{"type":"Polygon","properties":{"source":"naturalearthdata.com","kind":"lake","name":"Lago de  Erepecu","area":615952128,"sort_rank":200,"min_zoom":0.0,"id":649},"arcs":[[103]]},{"type":"MultiPolygon","properties":{"source":"naturalearthdata.com","kind":"ocean","area":1576712559132672,"sort_rank":200,"min_zoom":0.0,"id":1},"arcs":[[[104],[105],[106],[107],[108],[109],[110],[111],[112],[113],[114],[115]]]},{"type":"Polygon","properties":{"kind":"lake","name":"Represa de Tucuru\u00ed","reservoir":true,"area":3637319680,"sort_rank":200,"source":"naturalearthdata.com","min_zoom":0.0,"id":1195},"arcs":[[116]]},{"type":"Polygon","properties":{"source":"naturalearthdata.com","kind":"lake","name":"Lago Grande","area":212760672,"sort_rank":200,"min_zoom":0.0,"id":682},"arcs":[[117]]},{"type":"Point","properties":{"label_placement":true,"kind":"lake","name":"Represa de Tucuru\u00ed","reservoir":true,"area":3637319680,"sort_rank":200,"source":"naturalearthdata.com","min_zoom":0.0,"id":1195},"coordinates":[2462,2409]},{"type":"Point","properties":{"label_placement":true,"kind":"lake","name":"Lago de  Erepecu","area":615952128,"sort_rank":200,"source":"naturalearthdata.com","min_zoom":0.0,"id":649},"coordinates":[34,3534]},{"type":"Point","properties":{"label_placement":true,"kind":"lake","name":"Lago Grande","area":212760672,"sort_rank":200,"source":"naturalearthdata.com","min_zoom":0.0,"id":682},"coordinates":[732,3270]},{"type":"MultiLineString","properties":{"source":"naturalearthdata.com","kind":"ocean","sort_rank":205,"boundary":true,"min_zoom":0.0,"id":75},"arcs":[[118],[119],[120]]},{"type":"MultiLineString","properties":{"source":"naturalearthdata.com","kind":"ocean","sort_rank":205,"boundary":true,"min_zoom":0.0,"id":292},"arcs":[[121],[122]]},{"type":"MultiLineString","properties":{"source":"naturalearthdata.com","kind":"ocean","sort_rank":205,"boundary":true,"min_zoom":0.0,"id":294},"arcs":[[123],[124]]},{"type":"LineString","properties":{"source":"naturalearthdata.com","kind":"ocean","sort_rank":205,"boundary":true,"min_zoom":0.0,"id":297},"arcs":[125]},{"type":"LineString","properties":{"source":"naturalearthdata.com","kind":"ocean","sort_rank":205,"boundary":true,"min_zoom":0.0,"id":299},"arcs":[126]},{"type":"LineString","properties":{"source":"naturalearthdata.com","kind":"ocean","sort_rank":205,"boundary":true,"min_zoom":0.0,"id":300},"arcs":[127]},{"type":"LineString","properties":{"source":"naturalearthdata.com","kind":"ocean","sort_rank":205,"boundary":true,"min_zoom":0.0,"id":301},"arcs":[128]},{"type":"LineString","properties":{"source":"naturalearthdata.com","kind":"ocean","sort_rank":205,"boundary":true,"min_zoom":0.0,"id":302},"arcs":[129]},{"type":"LineString","properties":{"source":"naturalearthdata.com","kind":"ocean","sort_rank":205,"boundary":true,"min_zoom":0.0,"id":303},"arcs":[130]},{"type":"LineString","properties":{"source":"naturalearthdata.com","kind":"ocean","sort_rank":205,"boundary":true,"min_zoom":0.0,"id":304},"arcs":[131]},{"type":"LineString","properties":{"source":"naturalearthdata.com","kind":"ocean","sort_rank":205,"boundary":true,"min_zoom":0.0,"id":305},"arcs":[132]},{"type":"LineString","properties":{"source":"naturalearthdata.com","kind":"ocean","sort_rank":205,"boundary":true,"min_zoom":0.0,"id":308},"arcs":[133]},{"type":"LineString","properties":{"source":"naturalearthdata.com","kind":"ocean","sort_rank":205,"boundary":true,"min_zoom":0.0,"id":314},"arcs":[134]},{"type":"LineString","properties":{"source":"naturalearthdata.com","kind":"ocean","sort_rank":205,"boundary":true,"min_zoom":0.0,"id":320},"arcs":[135]},{"type":"LineString","properties":{"source":"naturalearthdata.com","kind":"ocean","sort_rank":205,"boundary":true,"min_zoom":0.0,"id":325},"arcs":[136]},{"type":"LineString","properties":{"source":"naturalearthdata.com","kind":"lake","sort_rank":367,"boundary":true,"min_zoom":0.0,"id":649},"arcs":[137]},{"type":"LineString","properties":{"source":"naturalearthdata.com","kind":"lake","sort_rank":367,"boundary":true,"min_zoom":0.0,"id":682},"arcs":[138]},{"type":"LineString","properties":{"source":"naturalearthdata.com","kind":"lake","reservoir":true,"sort_rank":367,"boundary":true,"min_zoom":0.0,"id":1195},"arcs":[139]},{"type":"LineString","properties":{"source":"naturalearthdata.com","kind":"ocean","sort_rank":205,"boundary":true,"min_zoom":0.0,"id":3936},"arcs":[140]}]},"buildings":{"type":"GeometryCollection","geometries":[]},"places":{"type":"GeometryCollection","geometries":[{"type":"Point","properties":{"name:kg":"Brazil","name:ty":"Brazil","name:ka":"\u10d1\u10e0\u10d0\u10d6\u10d8\u10da\u10d8\u10d0","name:ko":"\ube0c\ub77c\uc9c8","name:cv":"\u0411\u0440\u0430\u0437\u0438\u043b\u0438","name:cu":"\u0411\u0440\u0430\ua641\u0457\u043b\u0457\ua657","name:kl":"Brazil","name:cs":"Braz\u00edlie","name:ki":"Brazili","name:co":"Brasile","name:kv":"\u0411\u0440\u0430\u0437\u0438\u043b\u0438\u044f","name:ku":"Braz\u00eel","name:ti":"\u1265\u122b\u12da\u120d","name:ks":"\u0628\u0631\u065b\u0627\u0632\u0650\u0644","name:to":"Pal\u0101sili","name:ce":"\u0411\u0440\u0430\u0437\u0438\u043b\u0438\u044f","name:ta":"\u0baa\u0bbf\u0bb0\u0bc7\u0bb8\u0bbf\u0bb2\u0bcd","name:tg":"\u0411\u0440\u0430\u0437\u0438\u043b\u0438\u044f","name:ky":"\u0411\u0440\u0430\u0437\u0438\u043b\u0438\u044f","name:te":"\u0c2c\u0c4d\u0c30\u0c1c\u0c3f\u0c32\u0c4d","name:da":"Brasilien","name:de":"Brasilien","name:dz":"\u0f56\u0fb2\u0f0b\u0f5b\u0f72\u0f63","source":"openstreetmap.org","name:kn":"\u0cac\u0ccd\u0cb0\u0cc6\u0c9c\u0cbf\u0cb2\u0ccd","name:dv":"\u0784\u07aa\u0783\u07ac\u0792\u07a8\u078d\u07b0","name:km":"\u1794\u17d2\u179a\u17c1\u179f\u17ca\u17b8\u179b","name:lv":"Braz\u012blija","name:lt":"Brazilija","name:uz":"Braziliya","name:kk":"\u0411\u0440\u0430\u0437\u0438\u043b\u0438\u044f","name:ur":"\u0628\u0631\u0627\u0632\u06cc\u0644\u06cc","name:lb":"Brasilien","name:la":"Brasilia","name:lg":"Buraziiri","name:uk":"\u0411\u0440\u0430\u0437\u0438\u043b\u0456\u044f","name:ug":"\u0628\u0631\u0627\u0632\u0649\u0644\u0649\u064a\u06d5","name:li":"'t Braziel","name:ln":"Brez\u00edl\u025b","name:lo":"\u0e9a\u0ebc\u0eb2\u0e8a\u0eb4\u0ea7","name:el":"\u0392\u03c1\u03b1\u03b6\u03b9\u03bb\u03af\u03b1","name:eo":"Brazilo","name:en":"Brazil","name":"Brasil","name:tk":"Brazili\u00fda","name:ee":"Brazil nutome","name:th":"\u0e1a\u0e23\u0e32\u0e0b\u0e34\u0e25","name:et":"Brasiilia","name:ay":"Wrasil","name:rm":"Brasila","name:rn":"Burezili","name:az":"Braziliya","name:ig":"Brazil","name:ii":"\ua020\ua46d","name:as":"\u09ac\u09cd\u09f0\u09be\u099c\u09bf\u09b2","name:ar":"\u0627\u0644\u0628\u0631\u0627\u0632\u064a\u0644","name:io":"Brazilia","name:ak":"Brazil","name:am":"\u1265\u122b\u12da\u120d","name:it":"Brasile","name:aa":"Brazil","name:ru":"\u0411\u0440\u0430\u0437\u0438\u043b\u0438\u044f","name:rw":"Burezile","name:af":"Brasili\u00eb","name:zu":"i-Brazil","name:za":"Bahsih","name:zh-yue":"\u5df4\u897f","name:zh":"\u5df4\u897f","name:so":"Braasiil","name:sn":"Brazil","name:sl":"Brazilija","name:sk":"Braz\u00edlia","name:ja":"\u30d6\u30e9\u30b8\u30eb","name:si":"\u0db6\u0dca\u200d\u0dbb\u0dc3\u0dd3\u0dbd\u0dba","name:sh":"Brazil","name:sg":"Brez\u00eeli","name:se":"Brasilia","name:sc":"Brasile","name:br":"Brazil","name:bs":"Brazil","name:bm":"Berezili","name:bn":"\u09ac\u09cd\u09b0\u09be\u099c\u09bf\u09b2","name:bo":"\u0f56\u0f0b\u0f62\u0f71\u0f0b\u0f5b\u0f72\u0f63\u0f0d","name:bi":"Brazil","name:sw":"Brazili","name:be":"\u0411\u0440\u0430\u0437\u0456\u043b\u0456\u044f","name:bg":"\u0411\u0440\u0430\u0437\u0438\u043b\u0438\u044f","name:ba":"\u0411\u0440\u0430\u0437\u0438\u043b\u0438\u044f","name:sq":"Brazili","name:sa":"\u0938\u0902\u0938\u094d\u0915\u0943\u0924\u092e\u094d","name:ps":"\u0628\u0631\u0627\u0632\u06cc\u0644","name:om":"Brazil","min_zoom":2.0,"name:ro":"Brazilia","name:zh-min-nan":"Pa-se","name:os":"\u0411\u0440\u0430\u0437\u0438\u043b\u0438","name:or":"\u0b2c\u0b4d\u0b30\u0b3e\u0b1c\u0b3f\u0b32\u0b4d","name:pl":"Brazylia","name:st":"Brazil","name:sr":"\u0411\u0440\u0430\u0437\u0438\u043b","name:pa":"\u0a2c\u0a4d\u0a30\u0a3e\u0a1c\u0a3c\u0a40\u0a32","name:tr":"Brezilya","name:hi":"\u092c\u094d\u0930\u093e\u091c\u0940\u0932","name:sv":"Brasilien","name:he":"\u05d1\u05e8\u05d6\u05d9\u05dc","name:ha":"Birazil","name:hy":"\u0532\u0580\u0561\u0566\u056b\u056c\u056b\u0561","name:ht":"Brezil","name:hu":"Braz\u00edlia","name:hr":"Brazil","population":204450649,"kind":"country","name:is":"Brasil\u00eda","name:yi":"\u05d1\u05e8\u05d0\u05d6\u05d9\u05dc","name:yo":"Or\u00edl\u1eb9\u0301\u00e8de B\u00e0r\u00e0s\u00edl\u00ec","name:mt":"Bra\u017cil","name:ms":"Brazil","name:mr":"\u092c\u094d\u0930\u093e\u091d\u093f\u0932","name:my":"\u1018\u101b\u102c\u1007\u102e\u1038","official_name":"Rep\u00fablica Federativa do Brasil","int_name":"Brazil","name:mg":"Brezila","name:ml":"\u0d2c\u0d4d\u0d30\u0d38\u0d40\u0d7d","name:vi":"Brazil","name:mn":"\u0411\u0440\u0430\u0437\u0438\u043b","name:mi":"Par\u012bhi","id":424313734,"name:mk":"\u0411\u0440\u0430\u0437\u0438\u043b","name:vo":"Brasil\u00e4n","name:fa":"\u0628\u0631\u0632\u06cc\u0644","name:ff":"Beresiil","name:fi":"Brasilia","old_name:vi":"Ba T\u00e2y","name:fo":"Brasilia","alt_name:vi":"Brazil; Bra-xin","name:fr":"Br\u00e9sil","name:fy":"Brazylje","name:nl":"Brazili\u00eb","name:na":"Bradir","name:ne":"\u092c\u094d\u0930\u093e\u091c\u093f\u0932","name:wa":"Braezi","name:wo":"Breesil","name:nv":"Bwaz\u00ed\u00edl","name:ga":"An Bhrasa\u00edl","name:gd":"Braisil","name:gn":"Pindorama","name:gv":"Yn Vrasseel","name:gu":"\u0aac\u0acd\u0ab0\u0abe\u0a9d\u0abf\u0ab2","name:tt":"\u0411\u0440\u0430\u0437\u0438\u043b\u0438\u044f"},"coordinates":[1110,310]},{"type":"Point","properties":{"source":"naturalearthdata.com","kind":"locality","name":"Belem","population":2167000,"region_capital":true,"min_zoom":4.0,"id":7206},"coordinates":[2828,3565]},{"type":"Point","properties":{"kind":"region","name":"Maranh\u00e3o","kind_detail":"state","name:eo":"Maranjo","source":"openstreetmap.org","min_zoom":4.0,"name:uk":"\u041c\u0430\u0440\u0430\u043d\u044c\u044f\u043d","name:ru":"\u041c\u0430\u0440\u0430\u043d\u044c\u044f\u043d","id":541426952,"name:ja":"\u30de\u30e9\u30cb\u30e7\u30f3"},"coordinates":[3953,2187]},{"type":"Point","properties":{"kind":"region","name":"Tocantins","kind_detail":"state","name:eo":"Tokantinso","source":"openstreetmap.org","min_zoom":4.0,"name:uk":"\u0422\u043e\u043a\u0430\u043d\u0442\u0456\u043d\u0441","name:ru":"\u0422\u043e\u043a\u0430\u043d\u0442\u0438\u043d\u0441","id":565545457,"name:ja":"\u30c8\u30ab\u30f3\u30c6\u30a3\u30f3\u30b9"},"coordinates":[2868,107]},{"type":"Point","properties":{"kind":"region","name":"Par\u00e1","kind_detail":"state","name:eo":"Parao","source":"openstreetmap.org","min_zoom":4.0,"name:uk":"\u041f\u0430\u0440\u0430","name:ru":"\u041f\u0430\u0440\u0430","id":539676406,"name:ja":"\u30d1\u30e9\u30fc"},"coordinates":[1221,2356]},{"type":"Point","properties":{"source":"naturalearthdata.com","kind":"locality","name":"Santarem","population":230428,"min_zoom":5.0,"id":7014},"coordinates":[564,3204]},{"type":"Point","properties":{"source":"naturalearthdata.com","kind":"locality","name":"Maraba","population":166182,"min_zoom":5.0,"id":7015},"coordinates":[2597,2136]},{"type":"Point","properties":{"source":"naturalearthdata.com","kind":"locality","name":"Alta Floresta","population":40466,"min_zoom":5.0,"id":6655},"coordinates":[124,468]},{"type":"Point","properties":{"source":"naturalearthdata.com","kind":"locality","name":"Colider","population":27139,"min_zoom":5.0,"id":6654},"coordinates":[291,132]}]},"transit":{"type":"GeometryCollection","geometries":[]},"pois":{"type":"GeometryCollection","geometries":[{"type":"Point","properties":{"kind":"nature_reserve","tier":2,"protect_class":"24","area":7412540000,"source":"openstreetmap.org","min_zoom":5.86,"operator":"Funda\u00e7\u00e3o Nacional do \u00cdndio","id":-6618922,"osm_relation":true,"name":"Terra Ind\u00edgena Cachoeira Seca"},"coordinates":[757,2506]},{"type":"Point","properties":{"kind":"nature_reserve","tier":2,"protect_class":"6","area":12999100000,"source":"openstreetmap.org","min_zoom":5.46,"operator":"Instituto Chico Mendes de Conserva\u00e7\u00e3o da Biodiversidade","id":-4722293,"osm_relation":true,"name":"Reserva Extrativista Verde para Sempre"},"coordinates":[1269,3311]},{"type":"Point","properties":{"kind":"nature_reserve","tier":2,"protect_class":"6","area":6837930000,"source":"openstreetmap.org","min_zoom":5.92,"operator":"Instituto Chico Mendes de Conserva\u00e7\u00e3o da Biodiversidade","id":-4722292,"osm_relation":true,"name":"Reserva Extrativista Tapaj\u00f3s-Arapiuns"},"coordinates":[263,2994]},{"type":"Point","properties":{"kind":"nature_reserve","tier":2,"protect_class":"24","area":6685570000,"source":"openstreetmap.org","min_zoom":5.94,"operator":"Funda\u00e7\u00e3o Nacional do \u00cdndio","id":-3810655,"osm_relation":true,"name":"Terra Ind\u00edgena Zoe"},"coordinates":[168,4012]},{"type":"Point","properties":{"kind":"nature_reserve","tier":2,"protect_class":"24","area":16775300000,"source":"openstreetmap.org","min_zoom":5.27,"operator":"Funda\u00e7\u00e3o Nacional do \u00cdndio","id":-3542573,"osm_relation":true,"name":"Terra Ind\u00edgena Trincheira Bacaja"},"coordinates":[1729,2405]},{"type":"Point","properties":{"kind":"nature_reserve","tier":2,"protect_class":"24","area":50765900000,"source":"openstreetmap.org","min_zoom":4.47,"operator":"Funda\u00e7\u00e3o Nacional do \u00cdndio","id":-3542570,"osm_relation":true,"name":"Terra Ind\u00edgena Menkragnoti"},"coordinates":[970,979]},{"type":"Point","properties":{"kind":"nature_reserve","tier":2,"protect_class":"24","area":33679000000,"source":"openstreetmap.org","min_zoom":4.77,"operator":"Funda\u00e7\u00e3o Nacional do \u00cdndio","id":-3542567,"osm_relation":true,"name":"Terra Ind\u00edgena Kayap\u00f3"},"coordinates":[1619,1243]},{"type":"Point","properties":{"kind":"nature_reserve","tier":2,"protect_class":"24","area":6599280000,"source":"openstreetmap.org","min_zoom":5.95,"operator":"Funda\u00e7\u00e3o Nacional do \u00cdndio","id":-3542565,"osm_relation":true,"name":"Terra Ind\u00edgena Capoto\/Jarina"},"coordinates":[1141,347]},{"type":"Point","properties":{"kind":"nature_reserve","tier":2,"protect_class":"24","area":15745800000,"source":"openstreetmap.org","min_zoom":5.32,"operator":"Funda\u00e7\u00e3o Nacional do \u00cdndio","id":-3542564,"osm_relation":true,"name":"Terra Ind\u00edgena Ba\u00fa"},"coordinates":[670,1420]},{"type":"Point","properties":{"kind":"nature_reserve","tier":2,"protect_class":"24","area":9540260000,"source":"openstreetmap.org","min_zoom":5.68,"operator":"Funda\u00e7\u00e3o Nacional do \u00cdndio","id":-3542562,"osm_relation":true,"name":"Terra Ind\u00edgena Arawet\u00e9 Igarap\u00e9 Ipixuna"},"coordinates":[1363,2329]},{"type":"Point","properties":{"kind":"nature_reserve","tier":2,"protect_class":"24","area":7871300000,"source":"openstreetmap.org","min_zoom":5.82,"operator":"Funda\u00e7\u00e3o Nacional do \u00cdndio","id":-3542560,"osm_relation":true,"name":"Terra Ind\u00edgena Apyterewa"},"coordinates":[1495,2033]},{"type":"Point","properties":{"kind":"nature_reserve","tier":2,"protect_class":"6","area":7466130000,"source":"openstreetmap.org","min_zoom":5.86,"operator":"Instituto Chico Mendes de Conserva\u00e7\u00e3o da Biodiversidade","id":-3542537,"osm_relation":true,"name":"Reserva Extrativista Riozinho do Anfr\u00edsio"},"coordinates":[447,2298]},{"type":"Point","properties":{"kind":"nature_reserve","tier":2,"protect_class":"6","area":7381290000,"source":"openstreetmap.org","min_zoom":5.87,"operator":"Instituto Chico Mendes de Conserva\u00e7\u00e3o da Biodiversidade","id":-3542534,"osm_relation":true,"name":"Floresta Nacional de Altamira"},"coordinates":[434,1921]},{"type":"Point","properties":{"kind":"nature_reserve","tier":2,"protect_class":"1","area":34310800000,"source":"openstreetmap.org","min_zoom":4.76,"operator":"Instituto Chico Mendes de Conserva\u00e7\u00e3o da Biodiversidade","id":-3542533,"osm_relation":true,"name":"Esta\u00e7\u00e3o Ecol\u00f3gica da Terra do Meio"},"coordinates":[779,1993]},{"type":"Point","properties":{"kind":"nature_reserve","tier":2,"protect_class":"6","area":13324500000,"source":"openstreetmap.org","min_zoom":5.44,"operator":"Instituto Chico Mendes de Conserva\u00e7\u00e3o da Biodiversidade","id":-3426614,"osm_relation":true,"name":"Floresta Nacional do Jamanxim"},"coordinates":[144,1353]},{"type":"Point","properties":{"kind":"nature_reserve","tier":2,"protect_class":"2","area":8740650000,"source":"openstreetmap.org","min_zoom":5.74,"operator":"Instituto Chico Mendes de Conserva\u00e7\u00e3o da Biodiversidade","id":-3426357,"osm_relation":true,"name":"Parque Nacional do Jamanxim"},"coordinates":[41,2042]},{"type":"Point","properties":{"kind":"nature_reserve","tier":2,"protect_class":"1","area":7356050000,"source":"openstreetmap.org","min_zoom":5.87,"operator":"Instituto Chico Mendes de Conserva\u00e7\u00e3o da Biodiversidade","id":-3424871,"osm_relation":true,"name":"Esta\u00e7\u00e3o Ecol\u00f3gica Serra Geral do Tocantins"},"coordinates":[3471,106]},{"type":"Point","properties":{"kind":"nature_reserve","name:en":"Parna\u00edba River Springs National Park","tier":2,"protect_class":"2","area":7515800000,"source":"openstreetmap.org","min_zoom":5.85,"operator":"Instituto Chico Mendes de Conserva\u00e7\u00e3o da Biodiversidade","id":-2634124,"osm_relation":true,"name":"Parque Nacional das Nascentes do Rio Parnaiba"},"coordinates":[3622,469]}]},"boundaries":{"type":"GeometryCollection","geometries":[{"type":"MultiLineString","properties":{"source":"naturalearthdata.com","kind":"region","sort_rank":256,"kind_detail":"4","min_zoom":2.0,"id":4603},"arcs":[[0],[1]]},{"type":"MultiLineString","properties":{"source":"naturalearthdata.com","kind":"region","sort_rank":256,"kind_detail":"4","min_zoom":2.0,"id":4627},"arcs":[[2],[3],[4],[5],[6],[7],[8],[9],[10],[11],[12],[13],[14],[15],[16],[17],[18],[19],[20],[21],[22],[23],[24],[25],[26],[27],[28],[29],[30],[31],[32],[33]]},{"type":"LineString","properties":{"source":"naturalearthdata.com","kind":"region","sort_rank":256,"kind_detail":"4","min_zoom":2.0,"id":4629},"arcs":[34]},{"type":"MultiLineString","properties":{"source":"naturalearthdata.com","kind":"region","sort_rank":256,"kind_detail":"4","min_zoom":2.0,"id":4631},"arcs":[[35],[36],[37]]},{"type":"LineString","properties":{"source":"naturalearthdata.com","kind":"region","sort_rank":256,"kind_detail":"4","min_zoom":2.0,"id":306},"arcs":[38]},{"type":"MultiLineString","properties":{"source":"naturalearthdata.com","kind":"region","sort_rank":256,"kind_detail":"4","min_zoom":2.0,"id":4619},"arcs":[[39],[40],[41],[42],[43],[44],[45],[46],[47],[48],[49]]},{"type":"LineString","properties":{"source":"naturalearthdata.com","kind":"region","sort_rank":256,"kind_detail":"4","min_zoom":2.0,"id":4602},"arcs":[50]},{"type":"MultiLineString","properties":{"source":"naturalearthdata.com","kind":"region","sort_rank":256,"kind_detail":"4","min_zoom":2.0,"id":4628},"arcs":[[51],[52],[53],[54],[55],[56],[57],[58],[59]]},{"type":"MultiLineString","properties":{"source":"naturalearthdata.com","kind":"region","sort_rank":256,"kind_detail":"4","min_zoom":2.0,"id":4616},"arcs":[[60],[61],[62]]},{"type":"LineString","properties":{"source":"naturalearthdata.com","kind":"region","sort_rank":256,"kind_detail":"4","min_zoom":2.0,"id":4621},"arcs":[63]},{"type":"MultiLineString","properties":{"source":"naturalearthdata.com","kind":"region","sort_rank":256,"kind_detail":"4","min_zoom":2.0,"id":4630},"arcs":[[64],[65],[66],[67],[68],[69],[70],[71],[72],[73],[74],[75],[76],[77],[78],[79],[80],[81],[82],[83],[84],[85],[86],[87],[88],[89],[90],[91],[92],[93],[94],[95],[96],[97],[98],[99],[100],[101],[102]]}]},"roads":{"type":"GeometryCollection","geometries":[{"type":"LineString","properties":{"source":"naturalearthdata.com","kind":"major_road","sort_rank":379,"kind_detail":"secondary","min_zoom":3.0,"id":41827},"arcs":[141]},{"type":"LineString","properties":{"source":"naturalearthdata.com","kind":"major_road","sort_rank":379,"kind_detail":"secondary","min_zoom":3.0,"id":41845},"arcs":[142]},{"type":"LineString","properties":{"source":"naturalearthdata.com","kind":"major_road","sort_rank":379,"kind_detail":"secondary","min_zoom":3.0,"id":41855},"arcs":[143]},{"type":"LineString","properties":{"source":"naturalearthdata.com","kind":"major_road","sort_rank":379,"kind_detail":"secondary","min_zoom":3.0,"id":41856},"arcs":[144]},{"type":"LineString","properties":{"source":"naturalearthdata.com","kind":"major_road","sort_rank":379,"kind_detail":"secondary","min_zoom":3.0,"id":41862},"arcs":[145]},{"type":"LineString","properties":{"source":"naturalearthdata.com","kind":"major_road","sort_rank":379,"kind_detail":"secondary","min_zoom":3.0,"id":41864},"arcs":[146]},{"type":"LineString","properties":{"source":"naturalearthdata.com","kind":"major_road","sort_rank":379,"kind_detail":"secondary","min_zoom":3.0,"id":41865},"arcs":[147]},{"type":"LineString","properties":{"source":"naturalearthdata.com","kind":"major_road","sort_rank":379,"kind_detail":"secondary","min_zoom":3.0,"id":41866},"arcs":[148]},{"type":"LineString","properties":{"source":"naturalearthdata.com","kind":"major_road","kind_detail":"secondary","sort_rank":379,"landuse_kind":"urban_area","min_zoom":3.0,"id":41893},"arcs":[149]},{"type":"MultiLineString","properties":{"source":"naturalearthdata.com","kind":"major_road","sort_rank":379,"kind_detail":"secondary","min_zoom":3.0,"id":41893},"arcs":[[150],[151]]},{"type":"LineString","properties":{"source":"naturalearthdata.com","kind":"major_road","sort_rank":379,"kind_detail":"secondary","min_zoom":3.0,"id":41913},"arcs":[152]},{"type":"LineString","properties":{"source":"naturalearthdata.com","kind":"major_road","sort_rank":379,"kind_detail":"secondary","min_zoom":3.0,"id":41942},"arcs":[153]},{"type":"LineString","properties":{"source":"naturalearthdata.com","kind":"major_road","sort_rank":379,"kind_detail":"secondary","min_zoom":3.0,"id":41976},"arcs":[154]},{"type":"LineString","properties":{"source":"naturalearthdata.com","kind":"major_road","sort_rank":379,"kind_detail":"secondary","min_zoom":4.0,"id":41985},"arcs":[155]},{"type":"LineString","properties":{"source":"naturalearthdata.com","kind":"major_road","sort_rank":379,"kind_detail":"secondary","min_zoom":4.0,"id":42022},"arcs":[156]},{"type":"LineString","properties":{"source":"naturalearthdata.com","kind":"major_road","sort_rank":379,"kind_detail":"secondary","min_zoom":3.0,"id":42039},"arcs":[157]},{"type":"LineString","properties":{"source":"naturalearthdata.com","kind":"major_road","sort_rank":379,"kind_detail":"secondary","min_zoom":3.0,"id":42052},"arcs":[158]},{"type":"LineString","properties":{"source":"naturalearthdata.com","kind":"major_road","sort_rank":379,"kind_detail":"secondary","min_zoom":4.0,"id":42124},"arcs":[159]},{"type":"LineString","properties":{"source":"naturalearthdata.com","kind":"major_road","sort_rank":379,"kind_detail":"secondary","min_zoom":3.0,"id":42127},"arcs":[160]},{"type":"LineString","properties":{"source":"naturalearthdata.com","kind":"major_road","sort_rank":379,"kind_detail":"secondary","min_zoom":3.0,"id":42197},"arcs":[161]},{"type":"LineString","properties":{"source":"naturalearthdata.com","kind":"major_road","sort_rank":379,"kind_detail":"secondary","min_zoom":3.0,"id":42207},"arcs":[162]},{"type":"LineString","properties":{"source":"naturalearthdata.com","kind":"major_road","sort_rank":379,"kind_detail":"secondary","min_zoom":3.0,"id":42262},"arcs":[163]},{"type":"LineString","properties":{"source":"naturalearthdata.com","kind":"major_road","sort_rank":379,"kind_detail":"secondary","min_zoom":4.0,"id":42383},"arcs":[164]},{"type":"LineString","properties":{"source":"naturalearthdata.com","kind":"major_road","sort_rank":379,"kind_detail":"secondary","min_zoom":3.0,"id":42387},"arcs":[165]},{"type":"LineString","properties":{"source":"naturalearthdata.com","kind":"major_road","sort_rank":379,"kind_detail":"secondary","min_zoom":3.0,"id":42402},"arcs":[166]},{"type":"LineString","properties":{"source":"naturalearthdata.com","kind":"major_road","sort_rank":379,"kind_detail":"secondary","min_zoom":3.0,"id":42412},"arcs":[167]},{"type":"LineString","properties":{"source":"naturalearthdata.com","kind":"major_road","sort_rank":379,"kind_detail":"secondary","min_zoom":3.0,"id":42468},"arcs":[168]},{"type":"LineString","properties":{"source":"naturalearthdata.com","kind":"minor_road","sort_rank":355,"kind_detail":"tertiary","min_zoom":5.0,"id":42510},"arcs":[169]},{"type":"LineString","properties":{"source":"naturalearthdata.com","kind":"major_road","kind_detail":"secondary","sort_rank":379,"landuse_kind":"nature_reserve","min_zoom":3.0,"id":42511},"arcs":[170]},{"type":"MultiLineString","properties":{"source":"naturalearthdata.com","kind":"major_road","sort_rank":379,"kind_detail":"secondary","min_zoom":3.0,"id":42511},"arcs":[[171],[172]]},{"type":"LineString","properties":{"source":"naturalearthdata.com","kind":"major_road","kind_detail":"secondary","sort_rank":379,"landuse_kind":"nature_reserve","min_zoom":3.0,"id":42514},"arcs":[173]},{"type":"MultiLineString","properties":{"source":"naturalearthdata.com","kind":"major_road","sort_rank":379,"kind_detail":"secondary","min_zoom":3.0,"id":42514},"arcs":[[174],[175]]},{"type":"LineString","properties":{"source":"naturalearthdata.com","kind":"major_road","sort_rank":379,"kind_detail":"secondary","min_zoom":3.0,"id":42520},"arcs":[176]},{"type":"LineString","properties":{"source":"naturalearthdata.com","kind":"major_road","sort_rank":379,"kind_detail":"secondary","min_zoom":3.0,"id":42533},"arcs":[177]},{"type":"LineString","properties":{"source":"naturalearthdata.com","kind":"major_road","sort_rank":379,"kind_detail":"secondary","min_zoom":3.0,"id":42545},"arcs":[178]},{"type":"LineString","properties":{"source":"naturalearthdata.com","kind":"major_road","sort_rank":379,"kind_detail":"secondary","min_zoom":3.0,"id":42548},"arcs":[179]},{"type":"LineString","properties":{"source":"naturalearthdata.com","kind":"minor_road","sort_rank":355,"kind_detail":"tertiary","min_zoom":5.0,"id":42676},"arcs":[180]},{"type":"LineString","properties":{"source":"naturalearthdata.com","kind":"major_road","sort_rank":379,"kind_detail":"secondary","min_zoom":3.0,"id":42677},"arcs":[181]},{"type":"LineString","properties":{"source":"naturalearthdata.com","kind":"major_road","sort_rank":379,"kind_detail":"secondary","min_zoom":4.0,"id":42717},"arcs":[182]},{"type":"LineString","properties":{"source":"naturalearthdata.com","kind":"major_road","sort_rank":379,"kind_detail":"secondary","min_zoom":4.0,"id":42741},"arcs":[183]},{"type":"LineString","properties":{"source":"naturalearthdata.com","kind":"major_road","sort_rank":379,"kind_detail":"secondary","min_zoom":3.0,"id":42742},"arcs":[184]},{"type":"LineString","properties":{"source":"naturalearthdata.com","kind":"major_road","sort_rank":379,"kind_detail":"secondary","min_zoom":3.0,"id":42743},"arcs":[185]},{"type":"LineString","properties":{"source":"naturalearthdata.com","kind":"major_road","sort_rank":379,"kind_detail":"secondary","min_zoom":3.0,"id":42748},"arcs":[186]},{"type":"LineString","properties":{"source":"naturalearthdata.com","kind":"major_road","sort_rank":379,"kind_detail":"secondary","min_zoom":4.0,"id":42771},"arcs":[187]},{"type":"LineString","properties":{"source":"naturalearthdata.com","kind":"major_road","kind_detail":"secondary","sort_rank":379,"landuse_kind":"nature_reserve","min_zoom":4.0,"id":42815},"arcs":[188]},{"type":"MultiLineString","properties":{"source":"naturalearthdata.com","kind":"major_road","sort_rank":379,"kind_detail":"secondary","min_zoom":4.0,"id":42815},"arcs":[[189],[190]]},{"type":"LineString","properties":{"source":"naturalearthdata.com","kind":"minor_road","sort_rank":355,"kind_detail":"tertiary","min_zoom":5.0,"id":42855},"arcs":[191]},{"type":"LineString","properties":{"source":"naturalearthdata.com","kind":"major_road","sort_rank":379,"kind_detail":"secondary","min_zoom":4.0,"id":42898},"arcs":[192]},{"type":"LineString","properties":{"source":"naturalearthdata.com","kind":"major_road","sort_rank":379,"kind_detail":"secondary","min_zoom":3.0,"id":42899},"arcs":[193]},{"type":"LineString","properties":{"source":"naturalearthdata.com","kind":"major_road","kind_detail":"secondary","sort_rank":379,"landuse_kind":"nature_reserve","min_zoom":3.0,"id":42905},"arcs":[194]},{"type":"MultiLineString","properties":{"source":"naturalearthdata.com","kind":"major_road","sort_rank":379,"kind_detail":"secondary","min_zoom":3.0,"id":42905},"arcs":[[195],[196]]},{"type":"LineString","properties":{"source":"naturalearthdata.com","kind":"major_road","sort_rank":379,"kind_detail":"secondary","min_zoom":3.0,"id":42940},"arcs":[197]},{"type":"LineString","properties":{"source":"naturalearthdata.com","kind":"major_road","sort_rank":379,"kind_detail":"secondary","min_zoom":3.0,"id":42941},"arcs":[198]},{"type":"LineString","properties":{"source":"naturalearthdata.com","kind":"major_road","sort_rank":379,"kind_detail":"secondary","min_zoom":3.0,"id":42942},"arcs":[199]},{"type":"LineString","properties":{"source":"naturalearthdata.com","kind":"major_road","sort_rank":379,"kind_detail":"secondary","min_zoom":3.0,"id":42998},"arcs":[200]},{"type":"LineString","properties":{"source":"naturalearthdata.com","kind":"major_road","sort_rank":379,"kind_detail":"secondary","min_zoom":3.0,"id":43027},"arcs":[201]},{"type":"LineString","properties":{"source":"naturalearthdata.com","kind":"minor_road","sort_rank":355,"kind_detail":"tertiary","min_zoom":5.0,"id":43038},"arcs":[202]},{"type":"LineString","properties":{"source":"naturalearthdata.com","kind":"major_road","sort_rank":379,"kind_detail":"secondary","min_zoom":3.0,"id":43068},"arcs":[203]},{"type":"LineString","properties":{"source":"naturalearthdata.com","kind":"major_road","sort_rank":379,"kind_detail":"secondary","min_zoom":3.0,"id":43089},"arcs":[204]},{"type":"LineString","properties":{"source":"naturalearthdata.com","kind":"major_road","sort_rank":379,"kind_detail":"secondary","min_zoom":3.0,"id":43099},"arcs":[205]},{"type":"LineString","properties":{"source":"naturalearthdata.com","kind":"major_road","sort_rank":379,"kind_detail":"secondary","min_zoom":3.0,"id":43101},"arcs":[206]},{"type":"LineString","properties":{"source":"naturalearthdata.com","kind":"major_road","sort_rank":379,"kind_detail":"secondary","min_zoom":3.0,"id":43127},"arcs":[207]},{"type":"LineString","properties":{"source":"naturalearthdata.com","kind":"major_road","sort_rank":379,"kind_detail":"secondary","min_zoom":3.0,"id":43131},"arcs":[208]},{"type":"LineString","properties":{"source":"naturalearthdata.com","kind":"minor_road","sort_rank":355,"kind_detail":"tertiary","min_zoom":5.0,"id":43243},"arcs":[209]},{"type":"LineString","properties":{"source":"naturalearthdata.com","kind":"major_road","sort_rank":379,"kind_detail":"secondary","min_zoom":3.0,"id":43379},"arcs":[210]},{"type":"LineString","properties":{"source":"naturalearthdata.com","kind":"major_road","sort_rank":379,"kind_detail":"secondary","min_zoom":3.0,"id":43474},"arcs":[211]},{"type":"LineString","properties":{"source":"naturalearthdata.com","kind":"minor_road","sort_rank":355,"kind_detail":"tertiary","min_zoom":5.0,"id":43515},"arcs":[212]},{"type":"LineString","properties":{"source":"naturalearthdata.com","kind":"major_road","sort_rank":379,"kind_detail":"secondary","min_zoom":4.0,"id":43541},"arcs":[213]},{"type":"MultiLineString","properties":{"source":"naturalearthdata.com","kind":"major_road","kind_detail":"secondary","sort_rank":379,"landuse_kind":"nature_reserve","min_zoom":4.0,"id":43566},"arcs":[[214],[215]]},{"type":"MultiLineString","properties":{"source":"naturalearthdata.com","kind":"major_road","kind_detail":"secondary","sort_rank":379,"landuse_kind":"nature_reserve","min_zoom":4.0,"id":43566},"arcs":[[216],[217]]},{"type":"LineString","properties":{"source":"naturalearthdata.com","kind":"major_road","kind_detail":"secondary","sort_rank":379,"landuse_kind":"nature_reserve","min_zoom":4.0,"id":43566},"arcs":[218]},{"type":"MultiLineString","properties":{"source":"naturalearthdata.com","kind":"major_road","sort_rank":379,"kind_detail":"secondary","min_zoom":4.0,"id":43566},"arcs":[[219],[220],[221],[222]]},{"type":"LineString","properties":{"source":"naturalearthdata.com","kind":"minor_road","sort_rank":355,"kind_detail":"tertiary","min_zoom":5.0,"id":43580},"arcs":[223]},{"type":"LineString","properties":{"source":"naturalearthdata.com","kind":"minor_road","kind_detail":"tertiary","sort_rank":355,"landuse_kind":"nature_reserve","min_zoom":5.0,"id":43591},"arcs":[224]},{"type":"MultiLineString","properties":{"source":"naturalearthdata.com","kind":"minor_road","sort_rank":355,"kind_detail":"tertiary","min_zoom":5.0,"id":43591},"arcs":[[225],[226]]},{"type":"LineString","properties":{"source":"naturalearthdata.com","kind":"major_road","sort_rank":379,"kind_detail":"secondary","min_zoom":4.0,"id":43609},"arcs":[227]},{"type":"LineString","properties":{"source":"naturalearthdata.com","kind":"major_road","sort_rank":379,"kind_detail":"secondary","min_zoom":3.0,"id":43636},"arcs":[228]},{"type":"LineString","properties":{"source":"naturalearthdata.com","kind":"minor_road","sort_rank":355,"kind_detail":"tertiary","min_zoom":5.0,"id":43646},"arcs":[229]},{"type":"LineString","properties":{"source":"naturalearthdata.com","kind":"major_road","sort_rank":379,"kind_detail":"secondary","min_zoom":4.0,"id":43647},"arcs":[230]},{"type":"LineString","properties":{"source":"naturalearthdata.com","kind":"major_road","sort_rank":379,"kind_detail":"secondary","min_zoom":4.0,"id":43648},"arcs":[231]},{"type":"LineString","properties":{"source":"naturalearthdata.com","kind":"major_road","sort_rank":379,"kind_detail":"secondary","min_zoom":4.0,"id":43662},"arcs":[232]},{"type":"LineString","properties":{"source":"naturalearthdata.com","kind":"major_road","sort_rank":379,"kind_detail":"secondary","min_zoom":3.0,"id":43701},"arcs":[233]},{"type":"LineString","properties":{"source":"naturalearthdata.com","kind":"minor_road","sort_rank":355,"kind_detail":"tertiary","min_zoom":5.0,"id":43708},"arcs":[234]},{"type":"LineString","properties":{"source":"naturalearthdata.com","kind":"minor_road","sort_rank":355,"kind_detail":"tertiary","min_zoom":5.0,"id":43729},"arcs":[235]},{"type":"LineString","properties":{"source":"naturalearthdata.com","kind":"minor_road","kind_detail":"tertiary","sort_rank":355,"landuse_kind":"nature_reserve","min_zoom":5.0,"id":43733},"arcs":[236]},{"type":"LineString","properties":{"source":"naturalearthdata.com","kind":"minor_road","kind_detail":"tertiary","sort_rank":355,"landuse_kind":"nature_reserve","min_zoom":5.0,"id":43733},"arcs":[237]},{"type":"MultiLineString","properties":{"source":"naturalearthdata.com","kind":"minor_road","sort_rank":355,"kind_detail":"tertiary","min_zoom":5.0,"id":43733},"arcs":[[238],[239]]},{"type":"LineString","properties":{"source":"naturalearthdata.com","kind":"major_road","sort_rank":379,"kind_detail":"secondary","min_zoom":4.0,"id":43734},"arcs":[240]}]},"earth":{"type":"GeometryCollection","geometries":[{"type":"MultiPolygon","properties":{"sort_rank":10,"source":"naturalearthdata.com","min_zoom":0.0,"kind":"earth","area":6210523849991},"arcs":[[[241]],[[242]],[[243]],[[244]],[[245]],[[246]],[[247]],[[248]],[[249]],[[250]],[[251]],[[252]],[[253]],[[254]]]}]},"landuse":{"type":"GeometryCollection","geometries":[{"type":"Polygon","properties":{"kind":"nature_reserve","name":"Terra Ind\u00edgena Arara","area":2776229888,"sort_rank":23,"operator":"Funda\u00e7\u00e3o Nacional do \u00cdndio","source":"openstreetmap.org","min_zoom":4.0,"tier":2,"id":-3542561,"osm_relation":true,"protect_class":"24"},"arcs":[[255]]},{"type":"Polygon","properties":{"kind":"nature_reserve","name":"Terra Ind\u00edgena Apyterewa","area":7871300096,"sort_rank":23,"operator":"Funda\u00e7\u00e3o Nacional do \u00cdndio","source":"openstreetmap.org","min_zoom":4.0,"tier":2,"id":-3542560,"osm_relation":true,"protect_class":"24"},"arcs":[[256]]},{"type":"Polygon","properties":{"kind":"nature_reserve","name":"Terra Ind\u00edgena Kayap\u00f3","area":33678999552,"sort_rank":23,"operator":"Funda\u00e7\u00e3o Nacional do \u00cdndio","source":"openstreetmap.org","min_zoom":4.0,"tier":2,"id":-3542567,"osm_relation":true,"protect_class":"24"},"arcs":[[257]]},{"type":"Polygon","properties":{"kind":"nature_reserve","name":"Terra Ind\u00edgena Inawebohona","area":3930500096,"sort_rank":23,"operator":"Funda\u00e7\u00e3o Nacional do \u00cdndio","source":"openstreetmap.org","min_zoom":4.0,"tier":2,"id":-3914880,"osm_relation":true,"protect_class":"24"},"arcs":[[258]]},{"type":"Polygon","properties":{"kind":"nature_reserve","name":"Floresta Nacional do Trair\u00e3o","area":2611059968,"sort_rank":23,"operator":"Instituto Chico Mendes de Conserva\u00e7\u00e3o da Biodiversidade","source":"openstreetmap.org","min_zoom":4.0,"tier":2,"id":255809565,"protect_class":"6"},"arcs":[[259]]},{"type":"MultiPolygon","properties":{"kind":"nature_reserve","name":"Reserva Extrativista de Cururupu","area":1874380032,"sort_rank":23,"operator":"Instituto Chico Mendes de Conserva\u00e7\u00e3o da Biodiversidade","source":"openstreetmap.org","min_zoom":4.0,"tier":2,"id":-3424551,"osm_relation":true,"protect_class":"6"},"arcs":[[[260]]]},{"type":"Polygon","properties":{"kind":"nature_reserve","name":"Terra Ind\u00edgena Krikati","area":1475840000,"sort_rank":23,"operator":"Funda\u00e7\u00e3o Nacional do \u00cdndio","source":"openstreetmap.org","min_zoom":4.0,"tier":2,"id":-4287073,"osm_relation":true,"protect_class":"24"},"arcs":[[261]]},{"type":"Polygon","properties":{"kind":"nature_reserve","name":"Reserva Extrativista Verde para Sempre","area":12999100416,"sort_rank":23,"operator":"Instituto Chico Mendes de Conserva\u00e7\u00e3o da Biodiversidade","source":"openstreetmap.org","min_zoom":4.0,"tier":2,"id":-4722293,"osm_relation":true,"protect_class":"6"},"arcs":[[262]]},{"type":"Polygon","properties":{"kind":"nature_reserve","name":"Terra Ind\u00edgena Trincheira Bacaja","area":16775300096,"sort_rank":23,"operator":"Funda\u00e7\u00e3o Nacional do \u00cdndio","source":"openstreetmap.org","min_zoom":4.0,"tier":2,"id":-3542573,"osm_relation":true,"protect_class":"24"},"arcs":[[263]]},{"type":"Polygon","properties":{"kind":"nature_reserve","name":"Terra Ind\u00edgena Parakan\u00e3","area":3560839936,"sort_rank":23,"operator":"Funda\u00e7\u00e3o Nacional do \u00cdndio","source":"openstreetmap.org","min_zoom":4.0,"tier":2,"id":-4287117,"osm_relation":true,"protect_class":"24"},"arcs":[[264]]},{"type":"Polygon","properties":{"kind":"nature_reserve","name":"Terra Ind\u00edgena Capoto\/Jarina","area":6599280128,"sort_rank":23,"operator":"Funda\u00e7\u00e3o Nacional do \u00cdndio","source":"openstreetmap.org","min_zoom":4.0,"tier":2,"id":-3542565,"osm_relation":true,"protect_class":"24"},"arcs":[[265]]},{"type":"Polygon","properties":{"kind":"nature_reserve","name":"Esta\u00e7\u00e3o Ecol\u00f3gica do Jari","area":2326850048,"sort_rank":23,"operator":"Instituto Chico Mendes de Conserva\u00e7\u00e3o da Biodiversidade","source":"openstreetmap.org","min_zoom":4.0,"tier":2,"id":255726272,"protect_class":"1"},"arcs":[[266]]},{"type":"Polygon","properties":{"kind":"nature_reserve","name":"Terra Ind\u00edgena Arawet\u00e9 Igarap\u00e9 Ipixuna","area":9540259840,"sort_rank":23,"operator":"Funda\u00e7\u00e3o Nacional do \u00cdndio","source":"openstreetmap.org","min_zoom":4.0,"tier":2,"id":-3542562,"osm_relation":true,"protect_class":"24"},"arcs":[[267]]},{"type":"Polygon","properties":{"kind":"nature_reserve","name":"Esta\u00e7\u00e3o Ecol\u00f3gica da Terra do Meio","area":34310799360,"sort_rank":23,"operator":"Instituto Chico Mendes de Conserva\u00e7\u00e3o da Biodiversidade","source":"openstreetmap.org","min_zoom":4.0,"tier":2,"id":-3542533,"osm_relation":true,"protect_class":"1"},"arcs":[[268]]},{"type":"Polygon","properties":{"kind":"nature_reserve","name":"Terra Ind\u00edgena Arariboia","area":4198309888,"sort_rank":23,"operator":"Funda\u00e7\u00e3o Nacional do \u00cdndio","source":"openstreetmap.org","min_zoom":4.0,"tier":2,"id":-4287230,"osm_relation":true,"protect_class":"24"},"arcs":[[269]]},{"type":"Polygon","properties":{"kind":"nature_reserve","name":"Terra Ind\u00edgena Awa","area":1187239936,"sort_rank":23,"operator":"Funda\u00e7\u00e3o Nacional do \u00cdndio","source":"openstreetmap.org","min_zoom":4.0,"tier":2,"id":-4287114,"osm_relation":true,"protect_class":"24"},"arcs":[[270]]},{"type":"Polygon","properties":{"kind":"nature_reserve","name":"Floresta Nacional do Tapirap\u00e9-Aquiri","area":1998419968,"sort_rank":23,"operator":"Instituto Chico Mendes de Conserva\u00e7\u00e3o da Biodiversidade","source":"openstreetmap.org","min_zoom":4.0,"tier":2,"id":-3425867,"osm_relation":true,"protect_class":"6"},"arcs":[[271]]},{"type":"Polygon","properties":{"kind":"nature_reserve","name":"Floresta Nacional do Itacaiunas","area":1390759936,"sort_rank":23,"operator":"Instituto Chico Mendes de Conserva\u00e7\u00e3o da Biodiversidade","source":"openstreetmap.org","min_zoom":4.0,"tier":2,"id":-4722282,"osm_relation":true,"protect_class":"6"},"arcs":[[272]]},{"type":"Polygon","properties":{"kind":"nature_reserve","name":"Reserva Extrativista Rio Xingu","area":3073840128,"sort_rank":23,"operator":"Instituto Chico Mendes de Conserva\u00e7\u00e3o da Biodiversidade","source":"openstreetmap.org","min_zoom":4.0,"tier":2,"id":255845120,"protect_class":"6"},"arcs":[[273]]},{"type":"Polygon","properties":{"kind":"nature_reserve","name":"Terra Ind\u00edgena Caru","area":1732300032,"sort_rank":23,"operator":"Funda\u00e7\u00e3o Nacional do \u00cdndio","source":"openstreetmap.org","min_zoom":4.0,"tier":2,"id":-4287200,"osm_relation":true,"protect_class":"24"},"arcs":[[274]]},{"type":"Polygon","properties":{"kind":"protected_area","name":"Utaria Wyhyna\/Ir\u00f2du Ir\u00e0na","area":1844450048,"sort_rank":17,"source":"openstreetmap.org","min_zoom":4.0,"tier":2,"id":-2670422,"osm_relation":true},"arcs":[[275]]},{"type":"Polygon","properties":{"kind":"nature_reserve","name":"Reserva Extrativista Gurup\u00e1-Melga\u00e7o","area":1466240000,"sort_rank":23,"operator":"Instituto Chico Mendes de Conserva\u00e7\u00e3o da Biodiversidade","source":"openstreetmap.org","min_zoom":4.0,"tier":2,"id":255739497,"protect_class":"6"},"arcs":[[276]]},{"type":"MultiPolygon","properties":{"kind":"protected_area","protect_class":"5","area":20204587977,"sort_rank":17,"operator":"Instituto Chico Mendes de Conserva\u00e7\u00e3o da Biodiversidade","source":"openstreetmap.org","min_zoom":4.0,"tier":2,"osm_relation":true,"name":"\u00c1rea de Prote\u00e7\u00e3o Ambiental do Tapaj\u00f3s"},"arcs":[[[277]],[[278]],[[279]]]},{"type":"Polygon","properties":{"kind":"nature_reserve","name":"Terra Ind\u00edgena Apinay\u00e9","area":1441720064,"sort_rank":23,"operator":"Funda\u00e7\u00e3o Nacional do \u00cdndio","source":"openstreetmap.org","min_zoom":4.0,"tier":2,"id":-4287227,"osm_relation":true,"protect_class":"24"},"arcs":[[280]]},{"type":"Polygon","properties":{"kind":"nature_reserve","name":"Terra Ind\u00edgena Cachoeira Seca","area":7412539904,"sort_rank":23,"operator":"Funda\u00e7\u00e3o Nacional do \u00cdndio","source":"openstreetmap.org","min_zoom":4.0,"tier":2,"id":-6618922,"osm_relation":true,"protect_class":"24"},"arcs":[[281]]},{"type":"Polygon","properties":{"kind":"nature_reserve","name":"Parque Estadual do Cant\u00e3o","area":1093760000,"sort_rank":23,"source":"openstreetmap.org","min_zoom":4.0,"tier":2,"id":379620247},"arcs":[[282]]},{"type":"Polygon","properties":{"kind":"nature_reserve","name":"Terra Ind\u00edgena Xerente","area":1777280000,"sort_rank":23,"operator":"Funda\u00e7\u00e3o Nacional do \u00cdndio","source":"openstreetmap.org","min_zoom":4.0,"tier":2,"id":-4287105,"osm_relation":true,"protect_class":"24"},"arcs":[[283]]},{"type":"Polygon","properties":{"kind":"protected_area","name":"Porquinhos","area":3068300032,"sort_rank":17,"source":"openstreetmap.org","min_zoom":4.0,"tier":2,"id":-2670417,"osm_relation":true},"arcs":[[284]]},{"type":"Polygon","properties":{"kind":"nature_reserve","name":"Floresta Nacional de Altamira","area":7381289984,"sort_rank":23,"operator":"Instituto Chico Mendes de Conserva\u00e7\u00e3o da Biodiversidade","source":"openstreetmap.org","min_zoom":4.0,"tier":2,"id":-3542534,"osm_relation":true,"protect_class":"6"},"arcs":[[285]]},{"type":"MultiPolygon","properties":{"source":"naturalearthdata.com","kind":"urban_area","name":"","area":3350711926,"sort_rank":11,"min_zoom":4.0},"arcs":[[[286]]]},{"type":"Polygon","properties":{"kind":"nature_reserve","name":"Terra Ind\u00edgena Zoe","area":6685570048,"sort_rank":23,"operator":"Funda\u00e7\u00e3o Nacional do \u00cdndio","source":"openstreetmap.org","min_zoom":4.0,"tier":2,"id":-3810655,"osm_relation":true,"protect_class":"24"},"arcs":[[287]]},{"type":"Polygon","properties":{"kind":"nature_reserve","name":"Parque Nacional da Chapada das Mesas","area":1438880000,"sort_rank":23,"operator":"Instituto Chico Mendes de Conserva\u00e7\u00e3o da Biodiversidade","source":"openstreetmap.org","min_zoom":4.0,"tier":2,"id":-2653525,"osm_relation":true,"protect_class":"2"},"arcs":[[288]]},{"type":"Polygon","properties":{"kind":"nature_reserve","name":"Terra Ind\u00edgena Cana Brava\/Guajajara","area":1376880000,"sort_rank":23,"operator":"Funda\u00e7\u00e3o Nacional do \u00cdndio","source":"openstreetmap.org","min_zoom":4.0,"tier":2,"id":-4287233,"osm_relation":true,"protect_class":"24"},"arcs":[[289]]},{"type":"Polygon","properties":{"kind":"nature_reserve","name":"Reserva Extrativista Rio Iriri","area":4022020096,"sort_rank":23,"operator":"Instituto Chico Mendes de Conserva\u00e7\u00e3o da Biodiversidade","source":"openstreetmap.org","min_zoom":4.0,"tier":2,"id":-3542536,"osm_relation":true,"protect_class":"6"},"arcs":[[290]]},{"type":"Polygon","properties":{"kind":"nature_reserve","name":"Terra Ind\u00edgena Menkragnoti","area":50765901824,"sort_rank":23,"operator":"Funda\u00e7\u00e3o Nacional do \u00cdndio","source":"openstreetmap.org","min_zoom":4.0,"tier":2,"id":-3542570,"osm_relation":true,"protect_class":"24"},"arcs":[[291]]},{"type":"Polygon","properties":{"kind":"nature_reserve","name":"Parque Nacional do Jamanxim","area":8740649984,"sort_rank":23,"operator":"Instituto Chico Mendes de Conserva\u00e7\u00e3o da Biodiversidade","source":"openstreetmap.org","min_zoom":4.0,"tier":2,"id":-3426357,"osm_relation":true,"protect_class":"2"},"arcs":[[292],[293]]},{"type":"Polygon","properties":{"kind":"nature_reserve","name":"Parque Nacional da Serra do Pardo","area":4530010112,"sort_rank":23,"operator":"Instituto Chico Mendes de Conserva\u00e7\u00e3o da Biodiversidade","source":"openstreetmap.org","min_zoom":4.0,"tier":2,"id":255809568,"protect_class":"2"},"arcs":[[294]]},{"type":"Polygon","properties":{"kind":"nature_reserve","name":"Floresta Nacional de Caxiuan\u00e3","area":3204620032,"sort_rank":23,"operator":"Instituto Chico Mendes de Conserva\u00e7\u00e3o da Biodiversidade","source":"openstreetmap.org","min_zoom":4.0,"tier":2,"id":255739405,"protect_class":"6"},"arcs":[[295]]},{"type":"Polygon","properties":{"kind":"nature_reserve","name":"Reserva Extrativista Terra Grande - Pracu\u00faba","area":1957810048,"sort_rank":23,"operator":"Instituto Chico Mendes de Conserva\u00e7\u00e3o da Biodiversidade","source":"openstreetmap.org","min_zoom":4.0,"tier":2,"id":-5587855,"osm_relation":true,"protect_class":"6"},"arcs":[[296]]},{"type":"Polygon","properties":{"kind":"nature_reserve","name":"Esta\u00e7\u00e3o Ecol\u00f3gica de Uru\u00e7ui-Una","area":1392999936,"sort_rank":23,"operator":"Instituto Chico Mendes de Conserva\u00e7\u00e3o da Biodiversidade","source":"openstreetmap.org","min_zoom":4.0,"tier":2,"id":255739399,"protect_class":"1"},"arcs":[[297]]},{"type":"Polygon","properties":{"kind":"nature_reserve","name":"Parque Nacional da Amaz\u00f4nia","area":10797500416,"sort_rank":23,"operator":"Instituto Chico Mendes de Conserva\u00e7\u00e3o da Biodiversidade","source":"openstreetmap.org","min_zoom":4.0,"tier":2,"id":-3426353,"osm_relation":true,"protect_class":"2"},"arcs":[[298]]},{"type":"Polygon","properties":{"kind":"nature_reserve","name":"Floresta Nacional de Caraj\u00e1s","area":4001900032,"sort_rank":23,"operator":"Instituto Chico Mendes de Conserva\u00e7\u00e3o da Biodiversidade","source":"openstreetmap.org","min_zoom":4.0,"tier":2,"id":-3424874,"osm_relation":true,"protect_class":"6"},"arcs":[[299]]},{"type":"Polygon","properties":{"kind":"nature_reserve","name":"Terra Ind\u00edgena Kanela","area":1278589952,"sort_rank":23,"operator":"Funda\u00e7\u00e3o Nacional do \u00cdndio","source":"openstreetmap.org","min_zoom":4.0,"tier":2,"id":-4287187,"osm_relation":true,"protect_class":"24"},"arcs":[[300]]},{"type":"Polygon","properties":{"kind":"nature_reserve","name":"Terra Ind\u00edgena Xipaya","area":1807110016,"sort_rank":23,"operator":"Funda\u00e7\u00e3o Nacional do \u00cdndio","source":"openstreetmap.org","min_zoom":4.0,"tier":2,"id":-3542576,"osm_relation":true,"protect_class":"24"},"arcs":[[301]]},{"type":"Polygon","properties":{"kind":"nature_reserve","name":"Parque Estadual do Jalap\u00e3o","area":4369920000,"sort_rank":23,"operator":"Instituto Natureza do Tocantins","source":"openstreetmap.org","min_zoom":4.0,"tier":2,"id":354606074},"arcs":[[302]]},{"type":"Polygon","properties":{"kind":"nature_reserve","name":"Terra Ind\u00edgena Parque do Xingu","area":27802699776,"sort_rank":23,"operator":"Funda\u00e7\u00e3o Nacional do \u00cdndio","source":"openstreetmap.org","min_zoom":4.0,"tier":2,"id":-3542572,"osm_relation":true,"protect_class":"24"},"arcs":[[303]]},{"type":"MultiPolygon","properties":{"kind":"nature_reserve","name":"Floresta Nacional de Itaituba II","area":4032979968,"sort_rank":23,"operator":"Instituto Chico Mendes de Conserva\u00e7\u00e3o da Biodiversidade","source":"openstreetmap.org","min_zoom":4.0,"tier":2,"id":-3426613,"osm_relation":true,"protect_class":"6"},"arcs":[[[304]],[[305]]]},{"type":"Polygon","properties":{"kind":"nature_reserve","name":"Esta\u00e7\u00e3o Ecol\u00f3gica Serra Geral do Tocantins","area":7356049920,"sort_rank":23,"operator":"Instituto Chico Mendes de Conserva\u00e7\u00e3o da Biodiversidade","source":"openstreetmap.org","min_zoom":4.0,"tier":2,"id":-3424871,"osm_relation":true,"protect_class":"1"},"arcs":[[306]]},{"type":"Polygon","properties":{"kind":"nature_reserve","name":"Reserva Biol\u00f3gica do Gurupi","area":2934640128,"sort_rank":23,"operator":"Instituto Chico Mendes de Conserva\u00e7\u00e3o da Biodiversidade","source":"openstreetmap.org","min_zoom":4.0,"tier":2,"id":-4287113,"osm_relation":true,"protect_class":"1"},"arcs":[[307]]},{"type":"Polygon","properties":{"kind":"nature_reserve","name":"Terra Ind\u00edgena Parque do Araguaia","area":14284199936,"sort_rank":23,"operator":"Funda\u00e7\u00e3o Nacional do \u00cdndio","source":"openstreetmap.org","min_zoom":4.0,"tier":2,"id":-3914875,"osm_relation":true,"protect_class":"24"},"arcs":[[308]]},{"type":"Polygon","properties":{"kind":"nature_reserve","name":"Reserva Extrativista Tapaj\u00f3s-Arapiuns","area":6837929984,"sort_rank":23,"operator":"Instituto Chico Mendes de Conserva\u00e7\u00e3o da Biodiversidade","source":"openstreetmap.org","min_zoom":4.0,"tier":2,"id":-4722292,"osm_relation":true,"protect_class":"6"},"arcs":[[309]]},{"type":"MultiPolygon","properties":{"kind":"nature_reserve","name":"Floresta Nacional de Mulata","area":2105773166,"sort_rank":23,"operator":"Instituto Chico Mendes de Conserva\u00e7\u00e3o da Biodiversidade","source":"openstreetmap.org","min_zoom":4.0,"tier":2,"osm_relation":true,"protect_class":"6"},"arcs":[[[310]],[[311]]]},{"type":"Polygon","properties":{"kind":"protected_area","name":"Bacurizinho","area":1363970048,"sort_rank":17,"source":"openstreetmap.org","min_zoom":4.0,"tier":2,"id":-2670409,"osm_relation":true},"arcs":[[312]]},{"type":"Polygon","properties":{"kind":"nature_reserve","name":"Terra Ind\u00edgena Karara\u00f4","area":3349029888,"sort_rank":23,"operator":"Funda\u00e7\u00e3o Nacional do \u00cdndio","source":"openstreetmap.org","min_zoom":4.0,"tier":2,"id":-3542566,"osm_relation":true,"protect_class":"24"},"arcs":[[313]]},{"type":"Polygon","properties":{"kind":"nature_reserve","name":"Parque Nacional do Rio Novo","area":5516499968,"sort_rank":23,"operator":"Instituto Chico Mendes de Conserva\u00e7\u00e3o da Biodiversidade","source":"openstreetmap.org","min_zoom":4.0,"tier":2,"id":-3424548,"osm_relation":true,"protect_class":"2"},"arcs":[[314]]},{"type":"Polygon","properties":{"kind":"nature_reserve","name":"Reserva Biol\u00f3gica Nascentes da Serra do Cachimbo","area":3531770112,"sort_rank":23,"operator":"Instituto Chico Mendes de Conserva\u00e7\u00e3o da Biodiversidade","source":"openstreetmap.org","min_zoom":4.0,"tier":2,"id":-3542535,"osm_relation":true,"protect_class":"1"},"arcs":[[315]]},{"type":"Polygon","properties":{"kind":"nature_reserve","name":"Terra Ind\u00edgena Alto Turia\u00e7u","area":5344309760,"sort_rank":23,"operator":"Funda\u00e7\u00e3o Nacional do \u00cdndio","source":"openstreetmap.org","min_zoom":4.0,"tier":2,"id":-4287112,"osm_relation":true,"protect_class":"24"},"arcs":[[316]]},{"type":"Polygon","properties":{"kind":"nature_reserve","name":"Terra Ind\u00edgena Ba\u00fa","area":15745800192,"sort_rank":23,"operator":"Funda\u00e7\u00e3o Nacional do \u00cdndio","source":"openstreetmap.org","min_zoom":4.0,"tier":2,"id":-3542564,"osm_relation":true,"protect_class":"24"},"arcs":[[317]]},{"type":"Polygon","properties":{"kind":"nature_reserve","name":"Floresta Nacional do Jamanxim","area":13324499968,"sort_rank":23,"operator":"Instituto Chico Mendes de Conserva\u00e7\u00e3o da Biodiversidade","source":"openstreetmap.org","min_zoom":4.0,"tier":2,"id":-3426614,"osm_relation":true,"protect_class":"6"},"arcs":[[318]]},{"type":"Polygon","properties":{"kind":"nature_reserve","name":"Parque Nacional das Nascentes do Rio Parnaiba","area":7515800064,"sort_rank":23,"operator":"Instituto Chico Mendes de Conserva\u00e7\u00e3o da Biodiversidade","source":"openstreetmap.org","min_zoom":4.0,"tier":2,"id":-2634124,"osm_relation":true,"protect_class":"2"},"arcs":[[319]]},{"type":"Polygon","properties":{"kind":"nature_reserve","name":"Terra Ind\u00edgena Alto Rio Guam\u00e1","area":2864090112,"sort_rank":23,"operator":"Funda\u00e7\u00e3o Nacional do \u00cdndio","source":"openstreetmap.org","min_zoom":4.0,"tier":2,"id":-4287100,"osm_relation":true,"protect_class":"24"},"arcs":[[320]]},{"type":"Polygon","properties":{"kind":"nature_reserve","name":"Floresta Nacional de Itaituba I","area":2162010112,"sort_rank":23,"operator":"Instituto Chico Mendes de Conserva\u00e7\u00e3o da Biodiversidade","source":"openstreetmap.org","min_zoom":4.0,"tier":2,"id":-3426342,"osm_relation":true,"protect_class":"6"},"arcs":[[321]]},{"type":"Polygon","properties":{"kind":"nature_reserve","name":"Terra Ind\u00edgena Kuru\u00e1ya","area":1685110016,"sort_rank":23,"operator":"Funda\u00e7\u00e3o Nacional do \u00cdndio","source":"openstreetmap.org","min_zoom":4.0,"tier":2,"id":-3542569,"osm_relation":true,"protect_class":"24"},"arcs":[[322]]},{"type":"Polygon","properties":{"kind":"nature_reserve","name":"Parque Nacional do Araguaia","area":5783249920,"sort_rank":23,"operator":"Instituto Chico Mendes de Conserva\u00e7\u00e3o da Biodiversidade","source":"openstreetmap.org","min_zoom":4.0,"tier":2,"id":-3424545,"osm_relation":true,"protect_class":"2"},"arcs":[[323]]},{"type":"Polygon","properties":{"kind":"nature_reserve","name":"Terra Ind\u00edgena Kraolandia","area":3144839936,"sort_rank":23,"operator":"Funda\u00e7\u00e3o Nacional do \u00cdndio","source":"openstreetmap.org","min_zoom":4.0,"tier":2,"id":-4287072,"osm_relation":true,"protect_class":"24"},"arcs":[[324]]},{"type":"Polygon","properties":{"kind":"nature_reserve","name":"Floresta Nacional de Sarac\u00e1-Taquera","area":4446260224,"sort_rank":23,"operator":"Instituto Chico Mendes de Conserva\u00e7\u00e3o da Biodiversidade","source":"openstreetmap.org","min_zoom":4.0,"tier":2,"id":-3424876,"osm_relation":true,"protect_class":"6"},"arcs":[[325]]},{"type":"Polygon","properties":{"kind":"nature_reserve","name":"Terra Ind\u00edgena Koatinemo","area":3928389888,"sort_rank":23,"operator":"Funda\u00e7\u00e3o Nacional do \u00cdndio","source":"openstreetmap.org","min_zoom":4.0,"tier":2,"id":-3542568,"osm_relation":true,"protect_class":"24"},"arcs":[[326]]},{"type":"Polygon","properties":{"kind":"nature_reserve","name":"Terra Ind\u00edgena Badjonkore","area":2285669888,"sort_rank":23,"operator":"Funda\u00e7\u00e3o Nacional do \u00cdndio","source":"openstreetmap.org","min_zoom":4.0,"tier":2,"id":-3542563,"osm_relation":true,"protect_class":"24"},"arcs":[[327]]},{"type":"Polygon","properties":{"kind":"nature_reserve","name":"Reserva Extrativista do Rio Cajari","area":5360629760,"sort_rank":23,"operator":"Instituto Chico Mendes de Conserva\u00e7\u00e3o da Biodiversidade","source":"openstreetmap.org","min_zoom":4.0,"tier":2,"id":255739512,"protect_class":"6"},"arcs":[[328]]},{"type":"Polygon","properties":{"kind":"nature_reserve","name":"Reserva Extrativista Riozinho do Anfr\u00edsio","area":7466129920,"sort_rank":23,"operator":"Instituto Chico Mendes de Conserva\u00e7\u00e3o da Biodiversidade","source":"openstreetmap.org","min_zoom":4.0,"tier":2,"id":-3542537,"osm_relation":true,"protect_class":"6"},"arcs":[[329]]},{"type":"Polygon","properties":{"kind":"nature_reserve","name":"Reserva Extrativista Renascer","area":2113980032,"sort_rank":23,"operator":"Instituto Chico Mendes de Conserva\u00e7\u00e3o da Biodiversidade","source":"openstreetmap.org","min_zoom":4.0,"tier":2,"id":-3426366,"osm_relation":true,"protect_class":"6"},"arcs":[[330],[331]]},{"type":"Polygon","properties":{"kind":"nature_reserve","name":"Terra Ind\u00edgena Urubu Branco","area":1747440000,"sort_rank":23,"operator":"Funda\u00e7\u00e3o Nacional do \u00cdndio","source":"openstreetmap.org","min_zoom":4.0,"tier":2,"id":-3914933,"osm_relation":true,"protect_class":"24"},"arcs":[[332]]},{"type":"Polygon","properties":{"kind":"nature_reserve","name":"Floresta Nacional do Tapaj\u00f3s","area":5280119808,"sort_rank":23,"operator":"Instituto Chico Mendes de Conserva\u00e7\u00e3o da Biodiversidade","source":"openstreetmap.org","min_zoom":4.0,"tier":2,"id":-3426349,"osm_relation":true,"protect_class":"6"},"arcs":[[333]]},{"type":"Polygon","properties":{"kind":"nature_reserve","name":"Terra Ind\u00edgena Xikrin do Rio Catete","area":4447439872,"sort_rank":23,"operator":"Funda\u00e7\u00e3o Nacional do \u00cdndio","source":"openstreetmap.org","min_zoom":4.0,"tier":2,"id":-3542575,"osm_relation":true,"protect_class":"24"},"arcs":[[334]]},{"type":"Polygon","properties":{"kind":"nature_reserve","name":"Terra Ind\u00edgena Panar\u00e1","area":5156639744,"sort_rank":23,"operator":"Funda\u00e7\u00e3o Nacional do \u00cdndio","source":"openstreetmap.org","min_zoom":4.0,"tier":2,"id":-3542571,"osm_relation":true,"protect_class":"24"},"arcs":[[335]]},{"type":"Polygon","properties":{"kind":"nature_reserve","name":"Reserva Biol\u00f3gica do Tapirap\u00e9","area":1008990016,"sort_rank":23,"operator":"Instituto Chico Mendes de Conserva\u00e7\u00e3o da Biodiversidade","source":"openstreetmap.org","min_zoom":4.0,"tier":2,"id":-3424886,"osm_relation":true,"protect_class":"1"},"arcs":[[336]]}]}},"type":"Topology","transform":{"translate":[-56.25,-11.1784018737],"scale":[0.002746582,0.002729102]},"arcs":[[[3796,310],[-44,5]],[[3820,311],[-24,-1]],[[2881,2204],[2,-1],[1,-2],[6,-4],[58,-27],[15,-4],[17,0]],[[2782,2143],[3,3],[5,5],[2,3],[10,24],[4,6],[4,5],[12,7],[15,4],[15,3],[29,1]],[[3004,2179],[8,-1],[14,-2],[14,-5],[8,-4],[5,-6],[2,-9],[1,-16],[2,-7],[5,-6],[7,-2]],[[2980,2166],[8,3],[9,8],[7,2]],[[2770,2153],[7,-2],[3,-6],[2,-2]],[[2740,2134],[13,15],[4,2],[13,2]],[[3091,2123],[7,0],[7,-3],[34,-20],[7,-5],[6,-3],[14,-2],[6,-2],[8,-6],[7,-11],[10,-23],[-5,-56],[1,-3],[9,-6],[2,-3],[2,-4],[1,-3],[0,-4],[1,-4],[3,-5],[2,-7],[3,-4],[1,-4],[0,-15],[-4,-23],[0,-48],[3,-13],[1,-8],[2,-7],[10,-12],[3,-7],[-1,-16],[-13,-27],[4,-12],[-7,-18],[0,-9],[5,-8],[-3,-6],[-10,-12],[-3,-6],[-1,-5],[-1,-14],[-9,-24],[-3,-13],[5,-13],[-5,-11],[-2,-10],[-1,-23],[0,-2],[1,-3],[1,-3],[2,-2],[1,-3],[0,-3],[-2,-3],[-4,-22],[-1,-7],[-4,-9],[-26,-22],[-20,-33]],[[3070,2121],[8,0],[13,2]],[[3135,1473],[-17,4]],[[3118,1477],[-14,-5],[-6,-12],[9,-12],[14,-7],[6,-6],[6,-17]],[[3154,1433],[14,-1],[13,-4],[10,-8],[4,-14],[-5,-15],[-12,-8],[-14,-6],[-12,-9],[6,-3]],[[3133,1418],[7,3],[8,8],[6,4]],[[3180,1368],[2,0],[2,-1],[1,0],[1,-1],[1,-2],[1,-2],[1,-9],[1,-2],[0,-1],[6,-10],[2,-3],[3,-2],[3,-1]],[[3158,1365],[4,0],[1,1],[9,1],[8,1]],[[3210,1337],[7,0],[2,-1],[2,-2],[1,-5],[0,-3],[-1,-4],[0,-2],[2,-1],[3,-1],[4,0],[2,0],[2,-2],[2,-4],[5,-12],[1,-4],[-1,-2],[0,-2],[1,-2],[2,-2],[2,0]],[[3204,1334],[1,1],[2,1],[1,0],[2,1]],[[3251,1298],[1,0],[2,-2],[6,-8],[1,-1],[-1,-3],[0,-1],[-1,-1],[0,-2],[1,-1],[4,-3],[1,-1],[1,-2],[0,-3],[0,-2],[-1,-3],[0,-1],[1,-2],[3,-2],[2,0],[2,-1],[2,0],[2,-1],[2,0],[2,-2],[2,-3],[3,-5],[6,-15],[6,-7],[4,-3],[8,-2],[1,-2],[2,-1],[19,-28],[2,-5],[3,-8],[2,-4],[3,-2],[5,-1],[2,-1],[1,-1],[2,-2],[2,-3],[0,-4],[1,-3],[2,-3],[3,-3],[2,-1],[3,-1]],[[3246,1288],[1,0],[1,1],[1,2],[0,2],[-1,3],[1,1],[2,1]],[[3513,1202],[3,0],[2,-1],[2,0],[2,-1],[1,-1],[2,-2],[4,-7],[2,-2],[2,-2],[20,-8],[2,-3],[1,-4],[2,-16],[1,-5],[2,-7],[1,-4],[0,-4],[-2,-2],[-3,-3],[-1,-1],[0,-2],[-1,-7],[-3,-10],[-1,-1],[-2,-4],[-1,-1],[0,-3],[2,-3],[3,-3],[1,-2],[0,-2],[-1,-3],[-4,-9],[-1,-4],[-1,-12],[-1,-2],[-1,-2],[-1,-1],[-1,-2],[-1,-1],[-6,-2],[-1,-1],[-1,-2],[0,-2],[2,-4],[4,-5],[3,-7],[2,-2],[1,-2],[1,0],[1,-1],[4,-3],[1,-1],[0,-2],[-1,-1],[-1,-1],[-2,0],[-35,0],[-9,-1]],[[3430,1181],[19,3],[3,2],[2,1],[1,1],[2,2],[3,3],[13,2],[24,1],[4,1],[4,1],[2,1],[1,1],[2,1],[1,1],[2,0]],[[3427,1181],[2,0],[1,0]],[[3406,1173],[2,1],[1,1],[3,3],[1,1],[2,0],[10,2],[2,0]],[[3402,1174],[4,-1]],[[3365,1148],[2,0],[7,2],[7,3],[1,1],[1,1],[5,6],[1,3],[1,1],[3,1],[3,2],[5,5],[1,1]],[[3505,1018],[-2,0],[-9,1]],[[3494,1019],[-2,0],[-22,-3],[-26,-11],[-2,-1],[-11,-11],[-2,-3],[-2,-3],[-2,-3],[-1,-5],[-5,-10],[-3,-4],[-5,-14],[-4,-17],[0,-8],[-1,-2],[-1,-4],[-1,-9],[-1,-3],[-6,-12],[-1,-1],[0,-2],[8,-26],[0,-2],[0,-2],[-1,-1],[-1,-2],[-3,-4],[-7,-6],[-5,-2],[-3,-2],[-1,-2],[-7,-5],[-3,-2],[-3,-5],[-3,-3],[-4,-5],[-6,-5],[-4,-5],[-8,-7],[-2,-2],[-1,-1],[0,-2],[-2,-4],[-1,-3],[-1,-4],[-1,-3],[1,-3],[3,-3],[6,-4],[3,-2],[3,-2],[5,-1],[4,0]],[[3378,774],[5,0],[5,-1],[1,-1],[19,-12],[2,-3],[14,-20],[1,-4],[6,-19],[0,-5],[-1,-14],[0,-10],[1,-4],[0,-2],[7,-14],[6,-6],[14,-11],[31,-17],[30,-12],[6,-2],[3,-1],[5,-3],[2,-2],[1,-2],[2,-5],[0,-3],[0,-3],[0,-2],[-1,-1],[-2,-2],[-1,-1],[-4,-3],[-8,-8],[-2,-2],[-2,-3],[0,-2],[-3,-11],[-2,-4],[-1,-1],[-1,-1],[-2,-1],[-2,0],[-2,-1],[-1,0]],[[3362,773],[16,1]],[[3504,555],[-4,0]],[[3500,555],[-2,0],[-2,0],[-2,-1],[-1,-2],[-1,-1],[-2,-3],[-2,-6],[-1,-4],[0,-4],[1,-9],[1,-2],[3,-3],[4,-2],[3,0],[4,-2],[4,-2],[14,-14],[26,-16],[5,-4],[4,-6],[6,-13],[1,-4],[0,-6],[-1,-10],[-1,-8],[0,-1],[0,-1],[0,-1],[0,-1],[1,-2],[1,-2],[10,-10],[3,-2],[2,-3],[5,-13],[4,-5],[7,-4],[5,-5],[6,-13],[3,-2],[4,-2],[9,-2],[5,-1],[3,0]],[[3654,368],[9,-1],[37,-12],[6,-5],[14,-17],[2,-3],[1,-1],[7,-4],[22,-10]],[[3629,363],[22,5],[3,0]],[[2033,0],[1,13],[1,4],[6,9],[1,2],[1,1],[3,2],[2,1],[1,1],[2,2],[1,3],[1,5],[-1,11],[0,3],[-1,3],[-4,19],[-3,10],[0,3],[1,2],[4,6],[1,2],[1,2],[1,4],[0,2],[0,3],[-3,7],[-2,6],[0,3],[0,2],[3,4],[3,3],[1,1],[3,3],[0,1],[3,6],[2,7],[0,15],[-1,3],[-4,10],[0,5],[1,2],[4,6],[2,3],[1,5],[2,3],[3,1],[3,1],[3,1],[6,12],[1,2],[4,2],[-1,5],[-2,8],[3,4],[5,7],[2,4],[1,4],[-1,13],[2,7],[4,6],[12,11],[8,11],[8,15],[4,17],[2,14],[-3,14],[0,9],[2,6],[2,3],[3,8],[3,4],[20,21],[4,6],[2,6],[0,7],[7,24],[7,15],[9,13]],[[3898,1194],[3,13],[-1,2],[-2,3],[0,2],[1,1],[2,1],[1,1],[1,2],[1,6],[7,18],[5,26],[8,15],[13,10],[30,16],[20,17],[8,3],[22,1],[15,4],[27,10],[28,5],[6,2],[3,2]],[[3896,1197],[2,-3]],[[3752,315],[-1,13],[1,7],[2,11],[1,5],[0,3],[-1,3],[-3,6],[-2,3],[1,6],[19,29],[0,6],[-1,9],[0,7],[4,3],[11,5],[2,13],[-4,26],[3,23],[3,12],[6,9],[-4,14],[-1,17],[3,32],[-1,16],[1,10],[4,4],[4,3],[3,6],[3,7],[1,6],[-1,12],[-2,8],[-4,5],[-4,6],[-3,2],[-11,5],[-11,11],[-4,12],[0,32],[-1,3],[-1,2],[0,1],[2,2],[0,2],[-4,5],[-3,4],[-2,6],[-1,8],[0,25],[-2,8],[-1,5],[-11,22],[-3,9],[1,9],[4,10],[4,9],[6,3],[-1,10],[5,11],[8,7],[5,0],[2,3],[1,2],[1,3],[1,2],[7,7],[1,1],[9,4],[4,3],[4,8],[4,15],[4,5],[8,7],[1,3],[-7,2],[0,3],[12,8],[4,16],[1,31],[8,13],[5,7],[4,3],[1,3],[10,19],[0,4],[0,8],[0,3],[1,5],[2,2],[2,1],[6,6],[5,3],[1,2],[5,14],[2,2],[4,5],[2,3],[4,28],[1,17],[1,3],[5,2],[1,3],[-1,3],[-2,2],[-2,2],[3,3],[0,2],[-3,5],[1,5],[2,6],[0,7]],[[1582,3672]],[[1187,4096],[6,-6],[18,-58],[3,-6],[7,-3],[4,-1],[3,0]],[[1248,4031],[3,-1],[2,-2],[4,-4],[1,-1],[1,-2],[2,-5],[32,-32],[1,-1],[4,-11],[2,-4],[2,-2],[13,-10],[3,-3],[1,-3],[0,-28],[0,-4],[-3,-8],[0,-5],[0,-5],[0,-4],[1,-4],[6,-14],[3,-4],[1,-2],[2,-1],[2,-1],[2,0],[5,0],[4,-1],[4,-1],[6,-4],[2,-3],[2,-2],[1,-4],[0,-12],[1,-2],[4,-13],[1,-2],[0,-3],[0,-4],[-1,-5],[-1,-3],[-2,-4],[-1,-2],[0,-2],[1,-2],[2,-6],[1,-2],[-1,-2],[0,-2],[-2,-4],[0,-1],[-1,-3],[0,-3],[1,-3],[1,-1],[2,-1]],[[1228,4022],[2,0],[2,0],[1,1],[13,7],[2,1]],[[1392,3781],[2,0],[2,-1],[2,0],[2,-1],[2,-1],[7,-7],[1,-3],[2,-2],[1,-4],[0,-2],[0,-2],[0,-2],[-1,-2],[-6,-7],[-1,-1],[0,-3],[1,-3],[5,-11],[0,-1],[0,-8],[0,-2],[3,-11],[1,-2],[2,-1],[6,-1],[7,-4],[1,-1],[4,-3],[11,-12],[3,-2],[2,-1],[7,-3],[2,0],[40,-3],[2,-1],[3,-1],[4,-3],[2,-2],[2,-2],[5,-12],[2,-2],[2,-2]],[[1362,3773],[2,0],[1,0],[22,7],[2,1],[3,0]],[[1555,3678],[2,0],[3,-3],[3,-1],[2,-1]],[[1545,3668],[3,1],[1,0],[1,1],[1,2],[2,5],[2,1]],[[1574,3676],[7,-3],[1,-1]],[[1565,3673],[1,1],[2,0],[1,1],[1,1],[4,0]],[[1538,3669],[2,0],[3,-1],[2,0]],[[1522,3649],[2,0],[2,1],[1,2],[1,1],[0,2],[-1,7],[1,2],[1,2],[1,1],[2,1],[2,0],[2,1],[2,0]],[[3563,0],[11,30],[18,39],[5,7],[3,3],[6,4],[10,5],[13,4],[6,2],[3,1],[3,1],[5,4],[1,3],[1,2],[-1,2],[0,2],[-12,15],[-2,4],[0,2],[0,2],[0,2],[-1,2],[-1,1],[-2,1],[-3,2],[-4,1],[-2,1],[-1,2],[0,5],[1,3],[2,2],[11,9],[5,3],[7,6],[14,15],[2,3],[2,1],[19,8],[3,3],[15,15],[1,1],[6,2],[8,2],[3,0],[12,9],[18,10],[10,7],[4,2],[10,4],[6,4],[6,2],[1,1],[4,3],[9,8],[2,3],[2,3],[0,1],[1,5],[1,7],[1,4],[3,6],[2,4],[2,2],[4,2],[4,2]],[[2801,2113],[-6,1],[-6,3],[-16,4],[-19,12],[-14,1]],[[2913,2068],[-8,0],[-9,6],[-8,11],[-18,31],[-3,4],[-8,1]],[[2859,2121],[-48,-5],[-10,-3]],[[2862,1765],[3,1],[2,8],[-1,3],[-2,4],[-6,4],[-3,3],[-2,4],[-4,16],[-1,27],[1,5],[4,5],[33,8],[14,9],[0,15],[-6,7],[-7,2],[-5,3],[-2,10],[2,7],[5,5],[7,3],[22,4],[5,3],[2,8],[-4,8],[-16,16],[-5,7],[-2,8],[0,21],[3,8],[7,3],[14,1],[10,2],[6,4],[10,12],[6,8],[0,7],[-2,6],[-5,6],[-9,7],[-4,4],[-2,5],[-2,5],[-7,1]],[[2921,2068],[-8,0]],[[2835,1772],[27,-7]],[[2696,1626],[10,8],[49,21],[5,5],[4,6],[2,9],[-1,16],[-1,7],[-3,1],[2,7],[4,7],[12,15],[2,4],[1,3],[1,3],[10,6],[19,18],[9,7],[14,3]],[[2688,1627],[8,-1]],[[2190,489],[6,9],[6,13],[3,12],[2,4],[2,2],[6,4],[2,4],[2,2],[2,3],[1,3],[0,5],[2,7],[3,10],[8,16],[2,7],[2,32],[8,28],[4,7],[1,4],[0,8],[2,8],[2,4],[8,11],[11,11],[2,3],[2,7],[4,6],[11,8],[8,9],[22,32],[13,13],[5,7],[2,8],[1,4],[7,7],[2,2],[1,3],[1,3],[3,5],[6,6],[20,16],[6,3],[23,5],[7,4],[7,6],[6,7],[3,10],[1,4],[18,24],[2,4],[1,5],[-3,4],[10,20],[4,3],[14,23],[11,29],[6,12],[10,8],[10,7],[6,5],[2,5],[1,8],[26,81],[1,11],[2,4],[2,3],[3,3],[3,3],[2,5],[0,24],[2,7],[5,15],[2,7],[0,10],[0,13],[0,4],[2,6],[0,3],[-1,2],[-5,4],[-16,5],[-31,22],[-14,12],[-10,14],[-6,16],[1,19],[2,9],[3,8],[57,70],[11,22],[1,9],[-1,52],[-12,43],[2,15],[6,8],[55,34],[8,6],[6,4],[43,14],[9,2]],[[3865,311],[11,-1],[4,-2],[5,-4],[23,-24],[12,-18],[4,-7],[0,-1],[2,-9],[1,-9],[2,-13],[0,-2],[6,-14],[1,-3],[22,-24],[14,-25],[5,-7],[2,-2],[2,-1],[5,0],[3,-1],[4,-2],[13,-8],[16,-4],[8,-4],[14,-10],[2,-1],[6,-2],[20,-9],[3,0],[3,-1]],[[3820,311],[45,0]],[[4078,103],[2,0],[4,1],[4,1],[2,1],[2,1],[4,3]],[[2190,489],[-340,18],[-47,2],[-1382,82],[-421,31]],[[3629,3462],[15,2],[5,3],[2,6],[2,3],[5,2],[1,3],[0,16],[-1,5],[0,3],[1,4],[2,3],[4,4],[2,3],[-4,10],[-4,23],[2,6],[9,12],[1,9],[3,7],[11,9],[1,8],[-3,4],[-9,7],[-3,5],[2,4],[2,2],[3,2],[1,2],[0,5],[0,4],[2,3],[3,4],[3,2],[14,5]],[[3621,3462],[8,0]],[[3627,3435],[-6,1],[-2,7],[-3,15],[2,3],[3,1]],[[3604,3281],[10,7],[9,10],[7,14],[8,31],[12,30],[4,16],[0,15],[-1,2],[-1,3],[-1,3],[1,2],[4,4],[0,3],[0,7],[-2,6],[-5,4],[-8,1]],[[3641,3439],[-14,-4]],[[3595,3271],[3,1],[5,7],[3,2]],[[3606,3281],[-2,0]],[[3582,3276],[4,-1],[4,-3],[5,-1]],[[3567,3225],[0,1],[2,5],[12,13],[-2,5],[3,8],[1,9],[-7,5],[0,2],[6,3]],[[3532,3128],[2,0],[7,4],[3,2],[3,4],[5,13],[1,2],[-2,2],[1,3],[1,4],[2,1],[9,0],[4,1],[3,2],[4,4],[1,6],[0,14],[-2,15],[0,7],[4,4],[2,1],[2,2],[1,3],[1,3],[-1,5]],[[3583,3230],[-2,0],[-3,-3],[-4,-1],[-4,-1],[-3,0]],[[3528,3128],[4,0]],[[3513,3120],[2,0],[2,1],[9,7],[2,0]],[[3509,3123],[4,-3]],[[3507,3068],[-18,25],[3,8],[14,13],[3,9]],[[3524,3051],[-1,3],[-3,1],[-3,1],[-3,2],[-1,4],[0,5],[-1,3]],[[3512,3070],[-5,-2]],[[3522,3052],[2,-1]],[[3507,3032],[-2,5],[0,4],[2,2],[3,3],[3,2],[5,2],[4,2]],[[3497,3036],[10,-4]],[[3477,2942],[2,6],[10,14],[4,26],[2,4],[3,1],[1,2],[1,3],[0,3],[-5,28],[2,7]],[[3473,2947],[2,-2],[2,-3]],[[3467,2945],[3,1],[3,1]],[[3421,2875],[4,0],[4,1],[3,1],[2,3],[1,8],[2,4],[2,3],[7,4],[3,3],[1,2],[-1,2],[0,3],[1,0],[3,1],[2,1],[0,1],[2,2],[-4,1],[-1,3],[0,3],[2,3],[8,2],[6,6],[3,6],[-7,1],[0,3],[5,3]],[[3469,2945],[-2,0]],[[3418,2875],[3,0]],[[3396,2857],[4,4],[5,7],[7,5],[4,2],[2,0]],[[3394,2858],[2,-1]],[[3355,2771],[1,1],[2,3],[1,2],[0,2],[-2,1],[0,1],[0,4],[0,2],[0,1],[2,4],[2,0],[6,1],[2,1],[0,4],[3,3],[4,1],[3,2],[1,5],[-1,4],[1,3],[4,1],[-1,3],[2,4],[4,10],[-1,3],[-1,3],[0,8],[1,3],[5,4],[1,3]],[[3354,2771],[1,0]],[[3272,2611],[23,20],[7,11],[9,10],[5,4],[10,6],[6,4],[7,10],[5,12],[4,33],[3,11],[1,7],[0,3],[-2,5],[0,3],[0,3],[4,4],[0,3],[0,9],[0,2]],[[3268,2613],[4,-2]],[[3262,2601],[1,5],[2,5],[3,2]],[[3255,2606],[1,-2],[6,-3]],[[3113,2406],[10,1],[4,1],[3,0],[26,22],[8,10],[1,1],[3,6],[0,1],[0,1],[1,1],[6,6],[1,2],[3,5],[2,3],[8,9],[1,2],[1,1],[2,6],[6,10],[0,2],[1,2],[1,4],[1,4],[1,3],[8,9],[6,5],[12,7],[3,3],[3,4],[0,3],[-1,3],[1,5],[4,8],[5,7],[2,7],[-4,8],[5,0],[0,6],[1,8],[3,8],[4,6]],[[3098,2414],[3,0],[1,-1],[1,-2],[1,-1],[2,-1],[5,-2],[2,-1]],[[3083,2410],[2,0],[5,1],[5,2],[3,1]],[[3076,2412],[6,-2],[1,0]],[[2740,2134],[-7,1],[1,1],[3,4],[174,141],[165,131]],[[0,3540],[4,-3],[8,-2],[5,4],[4,6],[6,2],[4,-1],[2,-2],[1,-3],[2,-1],[4,-1],[4,1],[7,2],[29,5],[7,3],[2,8],[0,8],[2,6],[10,-10],[4,-7],[0,-3],[-4,-1],[-5,-3],[-4,-4],[0,-3],[5,-11],[2,-11],[5,-9],[16,-4],[3,-1],[1,-2],[-1,-4],[-1,-1],[-6,0],[-3,-1],[-2,-1],[-2,-1],[-1,-1],[0,-5],[2,-2],[2,-1],[2,0],[2,-2],[22,-40],[-9,3],[-5,5],[-4,7],[-5,6],[-2,4],[-4,8],[-2,4],[-11,9],[-3,4],[-11,25],[-8,8],[-16,2],[-28,-2],[-9,-4],[-4,-1],[-11,1],[-5,-1],[-1,0],[0,18]],[[4096,3545],[-2,5],[-5,1],[-3,-1],[-4,1],[-4,2],[-3,2],[-1,4],[-1,13],[-3,-7],[0,-8],[-3,-5],[-9,0],[8,1],[0,4],[-3,3],[-3,-2],[-2,-2],[-4,-1],[-4,-4],[-2,-6],[-2,0],[-4,8],[-5,0],[-5,-7],[-1,-9],[-9,0],[-9,-8],[-7,-12],[-3,-10],[2,-6],[9,-12],[1,-6],[-2,-4],[-12,-4],[-6,-3],[2,-7],[-5,-4],[-14,-4],[-5,2],[-4,3],[-4,4],[-2,6],[0,7],[1,6],[3,5],[4,15],[1,11],[-4,8],[-12,5],[0,-3],[-1,-3],[-2,-6],[-3,7],[3,5],[5,2],[3,2],[0,6],[2,6],[2,5],[3,5],[-3,2],[-3,-1],[-4,-2],[-2,-4],[-3,2],[10,7],[9,5],[7,6],[4,10],[2,-1],[3,-2],[-4,29],[-1,4],[-6,5],[-7,0],[-5,-3],[2,-6],[0,-5],[-9,-16],[-2,-6],[-6,-10],[-1,-2],[-2,-1],[-5,-5],[-4,-1],[3,2],[2,5],[1,4],[-2,1],[-3,-1],[-4,-4],[-3,-4],[-2,-2],[3,-16],[-1,-9],[-4,-7],[-1,5],[1,6],[-1,6],[-6,4],[-2,-3],[-2,-2],[-2,-1],[-4,1],[3,4],[1,4],[-2,4],[-5,3],[0,-5],[-2,-3],[-3,-2],[-5,0],[9,9],[5,3],[9,-2],[-2,6],[1,6],[3,10],[1,4],[-1,3],[1,3],[2,3],[1,1],[9,3],[1,1],[7,0],[2,1],[0,3],[2,6],[0,4],[-1,7],[-2,3],[-5,0],[-7,-2],[10,0],[-12,-5],[-3,-2],[-2,-4],[-1,-4],[0,-3],[-1,-3],[-15,-19],[-6,-5],[0,4],[2,7],[4,9],[1,3],[-2,15],[-2,0],[-1,-4],[-4,-5],[0,-3],[-4,-2],[-1,-1],[-1,6],[3,4],[3,3],[2,4],[-2,0],[-3,-1],[-2,-1],[-1,5],[1,3],[3,2],[4,0],[-5,6],[-6,-5],[-9,-16],[-1,2],[-1,2],[1,3],[1,3],[-1,1],[-1,0],[-1,1],[-2,0],[5,2],[2,2],[-1,3],[-6,1],[-4,-1],[-4,-4],[-1,-4],[3,-5],[2,-4],[-1,-5],[-1,-5],[-2,-3],[-4,-4],[-3,-1],[-13,1],[2,5],[2,3],[3,4],[2,6],[0,7],[-3,2],[2,7],[-4,2],[-4,4],[1,5],[-1,6],[-1,7],[-4,2],[-5,-7],[-7,-5],[-2,-4],[0,-2],[-2,0],[2,10],[12,24],[-2,9],[-8,0],[-9,-25],[-6,-3],[-2,-6],[-2,-13],[-3,-5],[-4,3],[-6,-2],[-3,-8],[3,-11],[-4,4],[-5,7],[-2,6],[5,3],[2,3],[0,8],[-2,9],[-4,5],[0,-11],[-3,-9],[-6,-5],[-8,-5],[1,3],[4,5],[2,2],[0,2],[-1,3],[1,3],[0,2],[-3,-2],[-10,-8],[2,8],[5,6],[3,6],[-4,7],[1,2],[1,6],[-5,-3],[-2,-4],[-3,-11],[0,5],[0,9],[2,2],[4,5],[2,5],[11,15],[0,12],[-5,1],[-8,-10],[-7,-18],[-5,-12],[-3,-10],[2,-6],[-2,-1],[-1,0],[-1,-1],[-1,0],[2,-4],[0,-2],[-2,-3],[-3,-2],[-3,4],[0,8],[-2,3],[-4,2],[-5,1],[-4,1],[-2,3],[1,15],[14,2],[5,2],[-3,1],[-3,1],[-3,-1],[-3,-1],[1,8],[2,3],[4,1],[-5,6],[2,2],[3,0],[-1,5],[0,3],[-6,3],[-4,-4],[-1,-4],[1,-10],[-4,-1],[-1,2],[-1,1],[0,1],[0,1],[-3,0],[0,-7],[-3,-5],[-2,-4],[-2,-4],[0,-6],[2,-7],[-1,-6],[-6,-4],[2,5],[1,4],[0,4],[-3,5],[-5,-10],[-3,-4],[-5,-4],[-4,6],[1,6],[3,6],[4,3],[3,2],[-1,7],[-6,11],[-1,3],[-1,3],[-1,3],[-3,1],[-2,-2],[-3,-3],[-3,-3],[-1,-4],[0,-15],[-2,-7],[-5,-4],[0,5],[3,13],[-1,5],[-3,0],[-3,-5],[-4,-8],[-5,-2],[-5,2],[-5,2],[-5,1],[-3,-3],[-12,-13],[19,40],[-4,6],[2,2],[2,3],[1,2],[-1,2],[0,1],[-1,1],[0,1],[5,3],[1,3],[-3,1],[-6,-2],[2,6],[5,7],[5,7],[3,0],[3,0],[0,14],[-10,4],[-12,-3],[-6,-5],[-5,-7],[-2,-8],[-4,-5],[-1,-4],[3,-3],[4,-5],[-7,-2],[0,-2],[1,-3],[1,-1],[2,-5],[6,-9],[2,-6],[-2,6],[-9,11],[-4,6],[-2,0],[0,-10],[-2,-7],[-3,-7],[-5,-4],[0,4],[2,6],[0,3],[0,14],[-2,5],[-4,-1],[-4,-4],[-2,-5],[-1,-8],[-1,-2],[-2,3],[-1,8],[-1,7],[1,7],[-7,-1],[-3,-6],[-5,-5],[-3,1],[-4,3],[-4,2],[-1,-2],[-2,-3],[-3,-2],[-4,-1],[-4,0],[4,5],[-1,3],[-5,0],[2,6],[1,8],[-6,3],[0,4],[4,5],[2,6],[-3,6],[7,5],[8,1],[7,3],[1,5],[-4,5],[-7,-2],[-7,-1],[-3,-3],[-5,2],[-5,-2],[-6,-6],[-10,-5],[-5,-5],[-2,-8],[-6,-8],[-8,5],[-8,-2],[-10,-1],[-9,0],[-1,1],[-7,-2],[-7,-6],[-7,-6],[-4,-6],[1,7],[3,5],[5,5],[16,9],[3,4],[2,5],[3,0],[1,-6],[4,-2],[5,0],[5,3],[2,4],[1,5],[-1,3],[-2,-2],[-3,0],[1,4],[9,11],[-6,20],[-8,4],[-7,0],[0,-4],[8,-15],[1,-3],[-4,-2],[-5,1],[-1,3],[-1,4],[-2,5],[-8,2],[-3,-6],[-1,-9],[1,-5],[-4,-3],[-9,-15],[-6,-5],[11,18],[2,6],[-2,5],[-9,13],[-4,4],[0,-12],[-2,-4],[-3,-2],[0,8],[-3,0],[-3,-6],[1,-4],[1,-5],[-1,-5],[-1,2],[-4,8],[-1,3],[0,1],[1,1],[2,20],[-2,0],[-1,-4],[-2,-3],[-3,-2],[-4,-1],[2,3],[0,4],[-1,2],[-4,1],[0,2],[4,1],[3,2],[0,2],[-2,3],[0,3],[2,0],[6,2],[-4,3],[-1,3],[1,3],[4,1],[-2,4],[-3,3],[-3,2],[-5,1],[5,-3],[0,-2],[-5,-3],[-10,-13],[-5,-4],[3,-1],[3,-2],[2,-2],[2,-3],[-3,0],[-2,-1],[-1,-1],[-1,-3],[-3,0],[0,4],[-2,2],[-2,3],[-3,1],[0,-18],[0,-4],[-3,2],[0,-6],[-4,-1],[-8,2],[-6,-3],[-1,-3],[2,-5],[0,-6],[-6,3],[-2,5],[2,5],[3,4],[4,2],[5,2],[3,3],[-2,6],[-1,-1],[-1,-1],[-3,-1],[1,2],[3,6],[1,2],[-7,0],[2,3],[0,3],[-2,3],[-3,2],[-2,-6],[-3,0],[4,19],[1,9],[-5,5],[-3,-13],[-3,-7],[-3,-2],[-5,0],[-3,-1],[0,-4],[0,-8],[-4,1],[-1,1],[-2,-2],[-3,-3],[-2,-4],[-1,-3],[-1,-14],[-1,-4],[-2,4],[-5,7],[-1,4],[2,4],[7,5],[4,4],[-6,1],[-2,4],[0,7],[-2,5],[-3,-4],[-2,2],[2,5],[0,10],[3,3],[-1,1],[-1,0],[-1,1],[2,3],[0,5],[-1,3],[-4,2],[-4,-2],[-2,-3],[-1,-8],[-1,-3],[-3,-3],[-1,-3],[1,-4],[1,-2],[0,-2],[-2,-3],[0,2],[-2,3],[0,2],[-5,-4],[0,-6],[2,-8],[-2,-7],[-1,5],[-2,4],[-3,4],[-4,3],[-2,-3],[-4,-2],[-3,0],[-1,3],[1,2],[7,3],[2,1],[3,6],[2,6],[-1,5],[-2,6],[-2,-2],[-2,-2],[-1,-2],[0,-4],[-6,2],[-6,2],[-5,-1],[-3,-6],[-2,0],[-5,6],[0,2],[4,1],[3,2],[2,3],[1,4],[2,0],[3,-5],[3,2],[2,5],[-1,4],[-17,12],[2,-6],[1,-6],[-1,-5],[-6,-4],[2,6],[0,5],[-3,2],[-4,-2],[-3,0],[-1,5],[1,7],[-1,5],[-5,3],[-5,-2],[-3,-4],[-5,-2],[-6,3],[2,-5],[3,-4],[2,-3],[1,-6],[-8,6],[-5,3],[-5,-1],[-3,-5],[0,-4],[3,-5],[3,-2],[0,-2],[-5,1],[-3,2],[-1,5],[-1,5],[-4,-2],[-1,-3],[-1,-4],[1,-4],[-3,8],[2,12],[-2,5],[2,2],[2,3],[1,3],[-5,4],[-6,0],[-6,-1],[-5,-3],[5,-5],[-6,-1],[-2,-5],[0,-40],[3,3],[2,2],[2,4],[1,4],[3,-3],[9,-12],[8,-4],[0,-3],[1,-2],[2,-2],[2,-1],[-3,-4],[-1,-3],[-1,-4],[0,-5],[-5,4],[-1,11],[-6,3],[-26,0],[3,7],[0,6],[-2,6],[-6,9],[-3,4],[-2,3],[-1,4],[-1,4],[-2,3],[-3,4],[2,6],[-8,7],[-5,3],[-4,2],[-1,-13],[3,-8],[-3,-2],[-4,-13],[-4,-6],[-6,-5],[-10,-6],[-27,-12],[-3,0],[-3,4],[3,4],[5,4],[2,4],[0,16],[-3,9],[-8,4],[-9,-1],[1,6],[-2,7],[-6,7],[-7,6],[-1,-3],[-1,-6],[-3,-6],[-1,-12],[1,-10],[6,-4],[2,-5],[-7,4],[-11,3],[-6,-1],[-4,-8],[-25,-16],[-5,-15],[-3,0],[-12,12],[-3,5],[-1,1],[-3,2],[-1,1],[0,3],[2,5],[0,2],[-1,5],[-1,2],[-5,6],[-27,-23],[-15,-21],[-2,-6],[-1,-7],[1,-2],[3,-2],[2,-2],[2,-4],[-1,-4],[-2,-10],[1,-2],[2,-5],[-1,-2],[-2,-2],[-2,-1],[-2,-8],[-1,-9],[-1,-1],[-4,-6],[-1,-1],[-2,-2],[-1,-4],[0,-4],[-1,-3],[-3,-5],[-6,-2],[-6,-1],[-17,0],[-5,-1],[-2,-5],[2,-9],[5,-10],[1,-2],[10,2],[4,0],[5,-2],[-5,-1],[-5,-2],[-4,-2],[-4,2],[-3,-3],[3,-2],[-2,-5],[3,-5],[4,-4],[3,-6],[-12,8],[-8,-7],[-6,-16],[-2,-18],[-2,-5],[-1,-7],[-2,-1],[-25,5],[-6,2],[-1,11],[2,12],[-5,5],[-7,-9],[-10,-13],[-3,-17],[-2,-30],[-2,-8],[-1,-7],[3,-4],[7,-4],[8,-1],[7,1],[7,2],[3,3],[4,-2],[3,-1],[4,-1],[4,-1],[12,1],[3,-1],[-5,-6],[-6,-5],[-7,-3],[-19,-5],[-7,-1],[-7,1],[-6,4],[2,-8],[12,-13],[4,-8],[1,-6],[2,-7],[1,-7],[-2,-6],[-2,5],[-3,4],[-4,4],[-5,2],[-9,1],[-4,2],[-8,12],[-4,0],[-3,5],[-3,8],[-4,6],[-5,6],[-11,20],[-4,11],[-5,8],[-4,7],[-5,1],[-8,-12],[-6,-17],[-2,-4],[-2,-2],[-4,-4],[-1,-1],[-4,0],[-1,-1],[-1,-1],[0,-2],[0,-1],[-1,-2],[-27,-40],[0,-2],[0,-3],[-1,-1],[-2,-1],[-3,0],[-3,-1],[-2,0],[-1,1],[-1,-2],[0,-1],[-2,-5],[-1,-1],[-3,-2],[-7,-3],[-3,-3],[1,-3],[3,-7],[-1,-1],[-3,-2],[-3,-5],[-4,-2],[-2,-8],[-5,-9],[-10,-6],[-9,-4],[-3,-7],[-4,-3],[-6,-2],[-5,0],[0,3],[5,4],[2,8],[6,5],[10,3],[5,7],[4,8],[1,9],[-2,5],[1,2],[3,2],[2,3],[7,5],[3,13],[3,5],[1,9],[6,5],[7,7],[0,3],[-3,-1],[-5,-4],[-9,-4],[-8,-4],[-15,-2],[-9,-13],[-7,-17],[-14,-15],[-14,-10],[-13,-7],[-2,-12],[-5,-14],[-1,-6],[-6,-7],[-3,-1],[-2,-1],[-11,-10],[-10,-15],[-25,-52],[-1,-5],[-1,-7],[-3,-14],[-6,-16],[-35,-59],[-3,-11],[0,-7],[0,-13],[0,-7],[-3,-8],[-3,-6],[-9,-9],[-1,-2],[-1,-7],[-2,-1],[-1,-1],[-8,-4],[-2,-2],[-2,-8],[0,-5],[-1,-5],[-7,-5],[-27,-10],[-16,-3],[-9,3],[4,7],[6,7],[7,4],[9,2],[3,4],[23,32],[1,7],[-1,20],[-2,7],[0,4],[1,3],[6,9],[1,3],[1,8],[1,3],[2,3],[2,2],[2,3],[1,3],[1,19],[1,3],[1,2],[10,16],[2,2],[4,2],[2,3],[2,8],[4,7],[1,4],[1,30],[1,4],[3,4],[9,8],[3,5],[-5,0],[0,3],[4,4],[3,6],[2,6],[1,5],[-1,8],[-3,3],[-13,3],[-8,3],[-4,4],[-3,5],[0,7],[1,4],[9,10],[2,7],[-5,-2],[-6,-6],[-4,-2],[2,10],[-3,6],[-7,0],[-9,-6],[-5,-6],[-5,-24],[-9,10],[-13,-3],[-12,-9],[-9,-10],[2,-5],[1,-3],[5,2],[15,-20],[5,-11],[-5,-6],[-1,8],[-3,8],[-6,6],[-13,11],[-8,5],[-6,0],[-3,-5],[-3,5],[-4,1],[-2,-2],[1,-7],[-5,5],[-3,4],[-5,3],[-9,1],[-9,-2],[-4,-5],[-1,-6],[-3,-7],[0,11],[-1,5],[-5,1],[0,-3],[4,-6],[-1,-29],[4,-19],[6,-18],[-5,3],[-4,6],[-4,7],[-2,6],[-3,0],[-7,-15],[-3,0],[3,8],[7,14],[3,8],[1,9],[0,7],[-1,7],[-3,8],[-5,-8],[-7,-7],[9,16],[1,5],[-1,6],[-2,3],[-21,14],[-7,3],[-9,3],[-9,1],[-9,-1],[-31,-9],[-9,-4],[-7,-8],[-2,-12],[-8,4],[-9,3],[-9,0],[-7,-2],[-11,3],[-11,-5],[-11,-10],[-8,-10],[-3,-4],[-1,-5],[-1,-4],[0,-3],[-2,-4],[-4,-3],[-3,-4],[-3,-4],[-2,-10],[-4,4],[-3,7],[-3,12],[-4,7],[-1,3],[1,4],[3,3],[1,3],[1,4],[-1,4],[-5,-3],[-5,-10],[-5,-3],[2,4],[5,8],[1,2],[-1,5],[-4,0],[-5,-1],[-5,0],[-8,3],[-8,5],[-6,6],[-10,18],[-7,10],[-8,1],[-10,3],[-3,-2],[-3,-8],[-5,-4],[-3,-4],[0,-7],[0,-6],[-1,-8],[-4,-2],[-9,-2],[-20,-2],[-9,1],[-3,-2],[1,-6],[2,-8],[-5,2],[-5,3],[-4,8],[1,9],[-6,2],[-4,7],[-4,1],[1,4],[3,6],[8,-5],[8,-6],[8,-5],[10,0],[7,5],[0,7],[3,7],[7,4],[8,4],[3,12],[-3,8],[-3,3],[-4,8],[17,-10],[6,0],[7,10],[-3,7],[-3,8],[-3,25],[-3,6],[-24,20],[-5,6],[-4,16],[-11,15],[-4,8],[1,4],[1,4],[3,4],[-1,5],[-3,3],[-2,2],[-1,2],[-1,21],[4,22],[-1,8],[-4,6],[-6,6],[-40,25],[12,1],[4,1],[4,1],[4,3],[9,12],[4,3],[4,2],[4,3],[3,5],[0,5],[0,18],[1,12],[0,5],[-1,5],[-5,4],[-5,0],[-10,-1],[-18,3],[-5,-1],[-3,-4],[-1,-4],[3,-4],[4,-3],[0,-3],[-8,3],[-7,11],[-8,-1],[-4,-5],[1,-6],[4,-7],[2,-6],[-5,-9],[-11,-9],[-46,-24],[-10,-7],[-9,-9],[-5,-6],[-9,-14],[-6,-7],[-6,-4],[-8,-5],[-8,-3],[-7,-2],[1,3],[2,2],[2,1],[2,2],[0,2],[-18,-3],[-8,-4],[-4,-7],[-3,-8],[-7,-8],[-9,-6],[-8,-4],[-27,-9],[-7,-5],[-6,-3],[-27,-6],[-90,-62],[-16,-8],[-16,-5],[-4,0],[-8,0],[-3,0],[-4,-1],[-6,-3],[-2,-1],[-17,1],[-6,-2],[-8,-4],[-12,-13],[-1,-1],[-1,-4],[-1,-2],[-2,-1],[-5,0],[-9,-4],[-4,3],[-1,7],[1,7],[3,4],[5,7],[2,4],[0,5],[-1,3],[-1,3],[-2,9],[-3,7],[-5,6],[-5,3],[-5,-2],[-13,-9],[-6,-2],[-29,-5],[-62,-3],[-23,-6],[-8,-1],[-4,-1],[-4,-1],[-2,0],[-2,3],[0,5],[1,4],[1,2],[3,3],[6,3],[23,7],[16,1],[6,2],[30,12],[4,4],[3,6],[5,5],[8,5],[7,3],[25,5],[9,5],[8,2],[4,2],[10,11],[4,3],[8,2],[7,-2],[6,-4],[5,-5],[5,-4],[24,-8],[7,-1],[21,1],[5,2],[11,13],[11,8],[5,5],[2,6],[-5,32],[0,16],[8,8],[27,8],[4,4],[8,12],[6,3],[12,10],[7,4],[3,2],[2,2],[1,2],[1,3],[1,3],[0,12],[-5,37],[4,31],[4,13],[2,4],[14,19],[3,2],[5,3],[3,2],[18,27],[17,19],[-6,2],[-1,-3],[-4,-2],[-4,0],[-5,0],[0,3],[6,0],[6,2],[0,3],[-4,2],[-2,0],[-4,0],[0,3],[7,-1],[9,-3],[5,-1],[6,2],[7,5],[12,12],[3,5],[1,6],[-1,6],[1,4],[5,5],[10,9],[5,6],[6,11],[3,7],[3,13],[7,10],[5,17],[26,32],[-6,0],[-2,2],[-1,4],[-2,3],[-5,3],[-8,2],[-4,2],[0,2],[7,1],[16,-3],[9,4],[9,2],[2,2],[1,4],[2,1],[15,4],[23,0],[6,2],[4,5],[4,7],[60,0],[-11,-2],[-8,-2],[-9,-12],[-4,-15],[-18,-31],[7,-4],[3,-1],[0,-2],[-13,-4],[1,-13],[9,-14],[14,-7],[1,-1],[1,-4],[1,-3],[9,-3],[3,-2],[3,-1],[11,9],[14,8],[7,6],[20,21],[8,5],[23,11],[7,4],[14,13],[4,6],[0,7],[-1,1],[-4,6],[0,2],[0,4],[0,2],[-2,4],[-3,3],[-3,3],[-5,2],[-9,3],[-2,1],[51,0],[3,-1],[13,0],[2,-2],[1,-1],[3,-1],[4,-1],[3,0],[15,0],[3,6],[142,0],[1,-1],[8,-8],[4,-8],[3,-2],[4,1],[3,2],[4,2],[4,2],[11,1],[24,7],[7,4],[39,0],[-22,-17],[-8,-9],[-3,-12],[42,-16],[11,4],[71,1],[10,2],[9,3],[4,4],[3,5],[12,9],[2,7],[2,-1],[4,-1],[2,0],[0,5],[2,2],[2,3],[1,3],[-1,4],[-1,1],[-3,0],[-4,3],[1591,0],[0,-484],[-1,1],[-5,2],[-2,-4],[-2,-6],[0,-8],[3,-6],[6,-4],[1,0],[0,-42]],[[2554,4042],[-10,-1],[-4,-2],[-4,0],[-5,0],[-3,-1],[-2,-1],[-2,0],[-3,2],[-22,-11],[-7,-5],[-1,-7],[4,-7],[4,-5],[0,-2],[-4,1],[-8,7],[-2,2],[-9,2],[-4,0],[-8,-1],[-14,-3],[-48,-2],[-52,15],[-77,17],[-11,-1],[-21,9],[-64,6],[-21,5],[-8,1],[-6,-3],[-4,-5],[-2,-7],[-4,-6],[-6,-3],[-6,0],[-6,2],[-8,1],[-9,-1],[-6,-4],[-5,-4],[-7,-3],[-4,0],[-4,0],[-5,0],[-3,-1],[-6,-10],[-1,-2],[-4,-2],[-12,-10],[-3,-3],[-5,-12],[-2,-8],[-1,-6],[-1,-2],[-4,-5],[-2,-2],[-1,-4],[-1,-14],[-7,-20],[-1,-6],[1,-8],[2,-7],[9,-24],[2,-8],[1,-6],[3,-2],[22,-4],[20,-7],[2,-2],[1,-3],[1,-1],[-1,-1],[-10,-1],[-4,0],[-7,2],[-28,14],[-4,3],[-2,7],[-3,9],[-5,8],[-5,5],[-15,-40],[-3,-15],[1,-2],[4,-1],[0,-3],[0,-1],[-4,-3],[-1,-2],[0,-11],[0,-2],[6,-6],[6,-2],[5,-4],[1,-9],[-3,5],[-4,2],[-5,0],[-3,-4],[2,-4],[-2,-5],[-3,-5],[-2,-6],[-2,-14],[0,-27],[2,-12],[2,-6],[7,-10],[1,-3],[3,-5],[8,-2],[26,-2],[3,0],[3,2],[8,5],[3,1],[7,1],[8,2],[6,5],[6,6],[5,3],[6,1],[6,-2],[7,-4],[-8,0],[-6,1],[-5,-1],[-6,-5],[-3,-7],[7,-2],[4,-3],[0,-4],[-6,-4],[-1,1],[-10,2],[-2,-1],[-5,-3],[-10,-3],[16,-15],[5,-9],[-20,11],[-6,2],[-17,3],[-22,10],[-15,9],[-5,1],[-5,-6],[3,-9],[5,-9],[2,-8],[0,-7],[-12,-45],[0,-8],[0,-5],[5,-11],[0,-1],[2,0],[2,-2],[0,-2],[-4,-3],[-2,-8],[0,-4],[3,-4],[10,-12],[1,-3],[3,-8],[5,-8],[57,-56],[7,-17],[-7,-2],[-5,-5],[-2,-6],[1,-2],[2,-2],[9,-6],[5,-2],[56,-12],[10,0],[11,1],[10,3],[8,6],[-5,4],[-11,3],[-9,5],[8,-2],[10,-1],[8,2],[4,7],[-1,9],[-7,27],[3,0],[9,-25],[1,-7],[2,0],[2,7],[2,18],[2,6],[2,7],[-6,5],[-8,5],[-4,6],[1,3],[2,3],[2,2],[3,3],[1,1],[1,0],[1,0],[2,1],[0,2],[-1,1],[-1,1],[-5,13],[0,6],[7,5],[-1,-3],[-2,-7],[0,-2],[1,-4],[3,-6],[2,-5],[0,-2],[-3,-6],[-2,-2],[-3,0],[-2,-1],[-1,-3],[2,-5],[4,-1],[5,-1],[4,-2],[1,-5],[-1,-26],[1,-7],[4,-5],[13,-4],[4,-4],[3,-4],[5,-3],[23,11],[2,4],[10,8],[3,5],[0,9],[-1,5],[1,3],[8,0],[1,-2],[-2,-17],[0,-3],[1,-1],[8,-8],[2,-2],[8,1],[4,-1],[7,-4],[9,-2],[3,-2],[4,-4],[4,-2],[4,-1],[7,-1],[4,-1],[4,-3],[3,-3],[4,-3],[5,-1],[3,1],[9,4],[12,10],[2,3],[2,3],[1,4],[0,4],[0,4],[-11,22],[-2,9],[2,6],[4,11],[2,7],[1,-5],[-3,-11],[-1,-7],[2,-4],[7,-9],[3,-16],[5,-10],[6,-7],[7,-1],[5,4],[12,13],[7,3],[16,-3],[3,1],[2,9],[0,4],[-5,1],[0,3],[5,0],[-3,5],[-1,6],[2,5],[6,1],[5,3],[2,5],[1,6],[-4,4],[2,-1],[2,0],[1,0],[2,-1],[0,18],[-1,5],[-3,3],[-3,3],[-3,3],[4,-1],[3,-1],[3,1],[3,1],[2,-21],[2,-5],[1,-12],[5,-8],[9,-4],[7,1],[7,-2],[12,-3],[5,3],[2,8],[-8,11],[-12,8],[-2,8],[3,9],[4,8],[3,4],[1,-4],[-1,-3],[-2,-4],[-1,-5],[2,-4],[13,-13],[8,-5],[6,-6],[8,-5],[7,-1],[6,0],[13,0],[12,5],[7,8],[-5,-2],[-2,-1],[-3,-3],[-2,6],[-3,1],[-4,0],[-3,3],[3,1],[3,1],[2,1],[2,2],[2,-2],[0,-1],[0,-2],[2,1],[3,2],[-7,5],[-1,9],[8,27],[0,9],[-3,8],[-6,5],[4,2],[2,-1],[1,-2],[2,-2],[12,0],[0,-2],[8,-16],[1,-4],[5,-12],[2,-3],[2,-2],[1,0],[3,-1],[3,0],[3,-1],[0,-2],[0,-3],[3,-1],[6,-1],[4,2],[5,2],[18,3],[7,2],[2,3],[2,4],[3,-1],[6,-4],[3,1],[2,3],[0,3],[2,3],[5,4],[5,2],[6,2],[6,2],[0,2],[-12,9],[-4,1],[-1,1],[-2,6],[-2,1],[-1,0],[-8,2],[-2,4],[-1,5],[-2,5],[-3,2],[-3,-2],[-9,-7],[-5,-2],[4,4],[1,3],[0,3],[-2,3],[0,3],[10,3],[3,5],[-4,5],[-12,1],[10,4],[8,-5],[30,-38],[7,-6],[2,0],[12,28],[3,22],[-1,4],[-6,4],[-5,1],[-10,0],[-5,1],[0,3],[8,-2],[3,6],[-2,7],[-5,4],[-7,3],[-7,5],[-6,8],[-4,7],[3,2],[6,-8],[8,-9],[9,-6],[12,-2],[8,4],[14,15],[6,4],[8,2],[17,13],[5,2],[6,4],[5,7],[0,6],[-9,-2],[0,3],[8,6],[1,1],[0,6],[-3,1],[-3,-2],[-3,0],[-4,3],[0,1],[2,1],[4,3],[6,8],[1,4],[-2,3],[8,6],[19,7],[8,7],[4,8],[1,10],[-1,9],[-4,8],[5,10],[-5,10],[-8,11],[-5,12],[13,-13],[7,-6],[8,-4],[1,8],[2,8],[1,6],[-4,3],[3,4],[1,5],[1,9],[6,14],[1,5],[1,22],[2,11],[9,14],[4,12],[3,2],[4,2],[4,3],[4,4],[2,4],[1,5],[1,16],[-1,7],[-2,3],[-3,3],[-4,4],[-2,0],[-10,4],[-42,6],[-21,6],[-8,1],[-9,-1],[-13,-4],[-7,0],[-42,11],[-15,-1],[-12,-2],[0,4],[4,5],[0,10],[-5,4],[-12,-2],[-7,-5],[-5,-4],[-7,-1],[-5,5],[-6,4],[-6,0],[-24,3],[-10,-3],[-4,3],[-5,1],[-5,-1],[-4,-1],[-5,2],[-4,3],[-4,1],[-4,-1],[-7,-2]],[[3096,3890],[-3,-2],[-2,-3],[3,-11],[0,-6],[13,-5],[4,-14],[2,-7],[-1,-6],[6,1],[10,0],[4,2],[2,3],[0,6],[0,7],[-2,4],[3,7],[0,7],[-4,6],[-4,5],[-10,-2],[-5,2],[-2,7],[-3,4],[-7,2],[-3,-2],[-1,-5]],[[3016,3855],[-2,-3],[-2,-3],[-2,-1],[2,-5],[5,-9],[1,-6],[16,8],[8,7],[3,8],[-3,6],[-7,4],[-8,2],[-5,-2],[0,2],[-2,1],[-2,0],[-3,0],[-1,-2],[-2,-2],[0,-3],[4,-2]],[[2888,3732],[1,-6],[3,-4],[7,-2],[18,-1],[6,1],[5,3],[2,2],[3,11],[12,23],[2,12],[-9,5],[0,2],[9,1],[-3,5],[-11,12],[-18,-8],[-2,-4],[-2,-4],[-7,-12],[-4,-10],[-10,-11],[-2,-8],[0,-7]],[[2853,3657],[4,-2],[3,5],[0,-3],[1,-2],[1,-3],[3,-2],[6,3],[6,0],[5,1],[6,6],[0,3],[-1,8],[2,2],[6,9],[-4,6],[-5,14],[-6,3],[-16,1],[-8,-2],[-6,-4],[-2,-13],[-2,-3],[-8,-6],[-4,-6],[2,-3],[4,-1],[6,-3],[7,-8]],[[2465,3489],[-4,-2],[-4,1],[-4,-1],[-5,-4],[-1,-4],[0,-7],[0,-5],[2,-7],[5,-3],[5,0],[6,5],[4,4],[9,2],[4,2],[3,4],[1,5],[0,4],[-5,3],[-11,4],[-5,-1]],[[2511,3465],[-7,-11],[-11,-6],[-3,-3],[-2,-3],[-1,-7],[-1,-3],[-9,-9],[-2,-5],[4,-6],[5,-4],[15,-4],[7,-2],[3,4],[10,11],[8,13],[3,2],[3,3],[4,7],[2,7],[-4,3],[-5,1],[-3,4],[-3,5],[0,5],[-7,1],[-6,-3]],[[2401,3435],[-4,-10],[0,-8],[6,1],[9,6],[7,2],[13,2],[7,1],[2,6],[-2,5],[-9,1],[-12,0],[-9,-2],[-8,-4]],[[1827,3788],[5,14],[23,44],[2,9],[-1,8],[-4,6],[-8,2],[-7,3],[-7,18],[-5,7],[-6,2],[-20,5],[-4,-1],[-1,-3],[-1,-1],[-1,-2],[0,-5],[2,-4],[8,-11],[-3,1],[-3,1],[-3,2],[-3,3],[0,-7],[-3,0],[0,7],[-4,-3],[0,-3],[2,-4],[0,-5],[-3,-4],[-7,-7],[-2,-4],[-3,0],[1,4],[5,5],[2,4],[1,3],[-1,2],[0,2],[0,2],[0,5],[1,7],[3,7],[3,4],[-3,0],[-5,-1],[-20,-7],[-6,-3],[-5,-5],[-18,-11],[-11,-11],[-9,-11],[-8,-12],[-16,-34],[-19,-20],[-3,-14],[-2,-49],[8,-15],[-6,-14],[-12,-12],[-12,-7],[-8,-1],[-3,-1],[-2,-2],[0,-1],[-3,-8],[-1,-2],[-3,-1],[-24,-19],[-4,-4],[-2,-5],[-2,-13],[-1,-8],[-2,-5],[-14,-19],[-5,-11],[4,-13],[5,-5],[6,-4],[8,-1],[14,8],[17,2],[7,3],[17,11],[14,13],[2,1],[6,1],[1,1],[1,2],[1,5],[1,1],[2,1],[10,4],[3,3],[3,3],[3,3],[5,1],[15,9],[44,37],[9,12],[29,53],[7,3],[9,-11],[4,2],[2,3],[7,21],[7,44]],[[1969,3891],[-12,-20],[-2,0],[0,5],[7,13],[-18,-7],[-17,-8],[-8,-7],[-14,-16],[-8,-5],[-2,0],[-5,3],[-3,-1],[-1,-1],[-1,-5],[-1,-1],[-2,-2],[-7,-11],[-3,-9],[-1,-10],[1,-9],[3,-7],[2,0],[6,5],[9,6],[10,5],[9,2],[9,3],[15,14],[11,3],[12,0],[11,3],[7,6],[4,11],[0,5],[-3,13],[-3,13],[-2,4],[0,3],[-1,1],[-2,1]],[[1838,3970],[13,14],[6,15],[0,13],[2,7],[5,3],[-2,2],[0,6],[1,7],[2,5],[1,0],[1,0],[1,1],[-1,2],[-16,0],[0,-2],[-6,-7],[-3,-2],[-3,-1],[-10,-1],[-2,-2],[-4,-7],[-8,-7],[-24,-54],[-2,-4],[-5,-3],[-2,-2],[-2,-6],[-5,-4],[-6,-3],[-4,-4],[-1,-8],[4,-3],[7,2],[12,10],[23,12],[28,21]],[[2322,2514],[-9,6],[-3,4],[3,3],[5,0],[33,-6],[9,-3],[3,0],[3,4],[-3,7],[-11,10],[-12,17],[-7,7],[-3,5],[0,4],[3,2],[4,0],[4,-2],[3,-1],[4,-3],[3,-4],[4,-8],[3,-3],[3,-1],[4,1],[10,6],[2,3],[0,4],[-3,3],[-7,5],[-3,2],[-2,4],[0,3],[5,6],[2,4],[-1,4],[-2,4],[-3,4],[-7,5],[-2,3],[0,3],[4,2],[5,0],[29,-4],[-1,4],[-4,5],[-10,8],[-3,4],[-1,4],[-1,11],[1,4],[4,9],[1,5],[0,22],[3,1],[21,-1],[2,0],[2,-1],[2,-2],[1,0],[2,1],[4,1],[2,1],[4,4],[2,2],[3,0],[2,1],[3,1],[2,2],[2,-2],[1,-3],[-1,-7],[-4,-7],[-10,-10],[-2,-7],[3,-15],[0,-26],[-3,-12],[1,-5],[1,-4],[5,-7],[1,-4],[1,-4],[-1,-3],[-4,-9],[-1,-4],[1,-4],[3,-4],[5,-2],[5,-2],[5,0],[35,2],[10,-1],[-3,-3],[-4,0],[-4,0],[-5,-1],[-3,-3],[-3,-2],[-4,-2],[-4,-1],[-12,1],[-5,-1],[-5,-3],[-3,-3],[-1,-4],[1,-4],[3,-3],[8,-4],[10,-3],[4,-1],[4,-1],[5,1],[4,1],[10,4],[6,1],[5,-2],[1,-3],[-3,-3],[-9,-1],[2,-4],[-1,-4],[-1,-9],[-9,-3],[-7,-7],[-2,-7],[8,-6],[14,-8],[13,-9],[2,-3],[2,-3],[-1,-2],[-3,-3],[-2,0],[-2,0],[-4,1],[-3,1],[-6,3],[-3,0],[-2,-2],[0,-4],[4,-8],[0,-2],[0,-4],[1,-2],[3,-7],[11,1],[3,-1],[3,-2],[2,-2],[2,-3],[1,-4],[7,0],[4,-1],[3,-2],[1,-4],[-1,-7],[1,-4],[3,-3],[8,-6],[21,-11],[4,-4],[0,-3],[-2,-1],[-3,0],[-4,1],[-4,1],[-48,29],[-8,3],[0,-6],[3,-6],[5,-6],[5,-3],[8,-4],[1,-3],[-3,-4],[-4,-1],[-5,-1],[-4,-2],[-3,-4],[5,-2],[3,-2],[2,-2],[1,-2],[0,-2],[1,-2],[2,-2],[2,-1],[2,-1],[3,0],[2,0],[2,2],[4,4],[2,1],[3,1],[2,-1],[3,-2],[1,-2],[1,-2],[0,-5],[0,-2],[3,-3],[9,-3],[3,-3],[-8,-3],[-4,-3],[-2,-3],[-1,-3],[2,-5],[1,-2],[-3,-3],[-6,2],[-6,3],[-5,2],[-4,-5],[-13,1],[-6,-3],[-1,-6],[5,-4],[13,-4],[3,-3],[2,-3],[2,-6],[2,-3],[15,-16],[3,-1],[6,-3],[3,-2],[2,-2],[-6,-5],[-3,-1],[-4,-1],[-9,1],[-4,0],[5,-12],[2,-12],[1,-17],[1,-6],[5,-10],[32,-41],[4,-4],[5,-2],[5,-1],[23,3],[5,1],[15,-3],[5,0],[5,1],[16,9],[8,0],[8,-7],[-8,-1],[-3,0],[-20,-10],[-3,-1],[-3,1],[-6,0],[-3,0],[-3,-1],[-9,-6],[-10,-4],[-2,-2],[-6,-7],[-2,-1],[-3,0],[-3,2],[-2,1],[-1,3],[-6,1],[-5,1],[-5,1],[-5,4],[-2,4],[-4,9],[-15,18],[-4,7],[-1,5],[-3,11],[-1,2],[-2,3],[-9,8],[-3,6],[-4,10],[-8,10],[-1,5],[-3,11],[-2,6],[-1,2],[-3,2],[-2,1],[-4,0],[-3,1],[-3,3],[-1,2],[-1,3],[1,7],[0,3],[-1,2],[-3,1],[-3,1],[-2,0],[-2,0],[-3,1],[-5,5],[-5,7],[-3,7],[-1,7],[2,14],[-1,5],[-5,14],[-3,4],[-3,2],[-4,2],[-3,1],[-2,4],[1,5],[4,4],[5,4],[5,2],[1,3],[-1,3],[-9,24],[-3,6],[-5,2],[-5,-3],[-1,-3],[-2,-7],[-2,-3],[-4,-2],[-3,-1],[-2,2],[-1,4],[-2,6],[-1,7],[1,14],[-7,-4],[-37,-11],[-7,-1],[-5,2],[-1,2],[3,2],[6,2],[12,8],[42,14],[2,3],[-1,5],[-4,4],[-9,7],[-4,4],[1,5],[3,5],[3,5],[-2,5],[-3,2],[-8,1],[-3,1],[-5,4],[-2,1],[-3,-1],[-4,-4],[-2,-10],[-5,-4],[-8,-3],[-3,-2],[-11,-9],[-5,-3],[-5,-1],[-6,3],[0,6],[3,6],[4,5],[17,11],[7,6],[2,9],[-4,0],[-5,-2],[-8,-5],[-9,-4],[-5,-1],[-5,0],[5,8],[9,6],[5,6],[-4,5],[-18,10]],[[761,3276],[2,-2],[4,-1],[0,-2],[-5,-2],[-3,-3],[-2,-3],[-3,-2],[-2,1],[-4,1],[-5,1],[-4,-3],[-1,-4],[2,-3],[2,-3],[0,-3],[-2,-2],[-3,-1],[-4,-1],[-3,0],[-6,4],[5,12],[-7,4],[-9,-3],[-17,-15],[-9,-5],[-4,0],[-4,0],[-3,2],[-1,3],[-1,3],[3,2],[4,1],[13,9],[4,4],[2,5],[-2,5],[-4,1],[-5,-2],[-4,-3],[-5,4],[-4,0],[-4,0],[-5,1],[-1,3],[-4,12],[7,-4],[7,-2],[4,3],[0,11],[2,0],[3,-10],[5,-2],[6,3],[4,6],[2,0],[1,-8],[3,-7],[6,-3],[8,3],[7,-4],[6,-2],[7,1],[7,2],[6,5],[5,1],[1,-2],[1,-3],[1,-3]],[[1890,4096],[-4,-7],[-4,-5],[-6,-2],[-23,0],[-15,-4],[-2,-1],[-1,-4],[-2,-2],[-9,-2],[-9,-4],[-16,3],[-7,-1],[0,-2],[4,-2],[8,-2],[5,-3],[2,-3],[1,-4],[2,-2],[6,0],[-26,-32],[-5,-17],[-7,-10],[-3,-13],[-3,-7],[-6,-11],[-5,-6],[-10,-9],[-5,-5],[-1,-4],[1,-6],[-1,-6],[-3,-5],[-12,-12],[-7,-5],[-6,-2],[-5,1],[-9,3],[-7,1],[0,-3],[4,0],[2,0],[4,-2],[0,-3],[-6,-2],[-6,0],[0,-3],[5,0],[4,0],[4,2],[1,3],[6,-2],[-17,-19],[-18,-27],[-3,-2],[-5,-3],[-3,-2],[-14,-19],[-2,-4],[-4,-13],[-4,-31],[5,-37],[0,-12],[-1,-3],[-1,-3],[-1,-2],[-2,-2],[-3,-2],[-7,-4],[-12,-10],[-6,-3],[-8,-12],[-4,-4],[-27,-8],[-8,-8],[0,-16],[5,-32],[-2,-6],[-5,-5],[-11,-8],[-11,-13],[-5,-2],[-21,-1],[-7,1],[-24,8],[-5,4],[-5,5],[-6,4],[-7,2],[-8,-2],[-4,-3],[-10,-11],[-4,-2],[-8,-2],[-9,-5],[-25,-5],[-7,-3],[-8,-5],[-5,-5],[-3,-6],[-4,-4],[-30,-12],[-6,-2],[-16,-1],[-23,-7],[-6,-3],[-3,-3],[-1,-2],[-1,-4],[0,-5],[2,-3],[2,0],[4,1],[4,1],[8,1],[23,6],[62,3],[29,5],[6,2],[13,9],[5,2],[5,-3],[5,-6],[3,-7],[2,-9],[1,-3],[1,-3],[0,-5],[-2,-4],[-5,-7],[-3,-4],[-1,-7],[1,-7],[4,-3],[9,4],[5,0],[2,1],[1,2],[1,4],[1,1],[12,13],[8,4],[6,2],[17,-1],[2,1],[6,3],[4,1],[3,0],[8,0],[4,0],[16,5],[16,8],[90,62],[27,6],[6,3],[7,5],[27,9],[8,4],[9,6],[7,8],[3,8],[4,7],[8,4],[18,3],[0,-2],[-2,-2],[-2,-1],[-2,-2],[-1,-3],[7,2],[8,3],[8,5],[6,4],[6,7],[9,14],[5,6],[9,9],[10,7],[46,24],[11,9],[5,9],[-2,6],[-4,7],[-1,6],[4,5],[8,1],[7,-11],[8,-3],[0,3],[-4,3],[-3,4],[1,4],[3,4],[5,1],[18,-3],[10,1],[5,0],[5,-4],[1,-5],[0,-5],[-1,-12],[0,-18],[0,-5],[-3,-5],[-4,-3],[-4,-2],[-4,-3],[-9,-12],[-4,-3],[-4,-1],[-4,-1],[-12,-1],[40,-25],[6,-6],[4,-6],[1,-8],[-4,-22],[1,-21],[1,-2],[2,-2],[3,-3],[1,-5],[-3,-4],[-1,-4],[-1,-4],[4,-8],[11,-15],[4,-16],[5,-6],[24,-20],[3,-6],[3,-25],[3,-8],[3,-7],[-7,-10],[-6,0],[-17,10],[4,-8],[3,-3],[3,-8],[-3,-12],[-8,-4],[-7,-4],[-3,-7],[0,-7],[-7,-5],[-10,0],[-8,5],[-8,6],[-8,5],[-3,-6],[-1,-4],[4,-1],[4,-7],[6,-2],[-1,-9],[4,-8],[5,-3],[5,-2],[-2,8],[-1,6],[3,2],[9,-1],[20,2],[9,2],[4,2],[1,8],[0,6],[0,7],[3,4],[5,4],[3,8],[3,2],[10,-3],[8,-1],[7,-10],[10,-18],[6,-6],[8,-5],[8,-3],[5,0],[5,1],[4,0],[1,-5],[-1,-2],[-5,-8],[-2,-4],[5,3],[5,10],[5,3],[1,-4],[-1,-4],[-1,-3],[-3,-3],[-1,-4],[1,-3],[4,-7],[3,-12],[3,-7],[4,-4],[2,10],[3,4],[3,4],[4,3],[2,4],[0,3],[1,4],[1,5],[3,4],[8,10],[11,10],[11,5],[11,-3],[7,2],[9,0],[9,-3],[8,-4],[2,12],[7,8],[9,4],[31,9],[9,1],[9,-1],[9,-3],[7,-3],[21,-14],[2,-3],[1,-6],[-1,-5],[-9,-16],[7,7],[5,8],[3,-8],[1,-7],[0,-7],[-1,-9],[-3,-8],[-7,-14],[-3,-8],[3,0],[7,15],[3,0],[2,-6],[4,-7],[4,-6],[5,-3],[-6,18],[-4,19],[1,29],[-4,6],[0,3],[5,-1],[1,-5],[0,-11],[3,7],[1,6],[4,5],[9,2],[9,-1],[5,-3],[3,-4],[5,-5],[-1,7],[2,2],[4,-1],[3,-5],[3,5],[6,0],[8,-5],[13,-11],[6,-6],[3,-8],[1,-8],[5,6],[-5,11],[-15,20],[-5,-2],[-1,3],[-2,5],[9,10],[12,9],[13,3],[9,-10],[5,24],[5,6],[9,6],[7,0],[3,-6],[-2,-10],[4,2],[6,6],[5,2],[-2,-7],[-9,-10],[-1,-4],[0,-7],[3,-5],[4,-4],[8,-3],[13,-3],[3,-3],[1,-8],[-1,-5],[-2,-6],[-3,-6],[-4,-4],[0,-3],[5,0],[-3,-5],[-9,-8],[-3,-4],[-1,-4],[-1,-30],[-1,-4],[-4,-7],[-2,-8],[-2,-3],[-4,-2],[-2,-2],[-10,-16],[-1,-2],[-1,-3],[-1,-19],[-1,-3],[-2,-3],[-2,-2],[-2,-3],[-1,-3],[-1,-8],[-1,-3],[-6,-9],[-1,-3],[0,-4],[2,-7],[1,-20],[-1,-7],[-23,-32],[-3,-4],[-9,-2],[-7,-4],[-6,-7],[-4,-7],[9,-3],[16,3],[27,10],[7,5],[1,5],[0,5],[2,8],[2,2],[8,4],[1,1],[2,1],[1,7],[1,2],[9,9],[3,6],[3,8],[0,7],[0,13],[0,7],[3,11],[35,59],[6,16],[3,14],[1,7],[1,5],[25,52],[10,15],[11,10],[2,1],[3,1],[6,7],[1,6],[5,14],[2,12],[13,7],[14,10],[14,15],[7,17],[9,13],[15,2],[8,4],[9,4],[5,4],[3,1],[0,-3],[-7,-7],[-6,-5],[-1,-9],[-3,-5],[-3,-13],[-7,-5],[-2,-3],[-3,-2],[-1,-2],[2,-5],[-1,-9],[-4,-8],[-5,-7],[-10,-3],[-6,-5],[-2,-8],[-5,-4],[0,-3],[5,0],[6,2],[4,3],[3,7],[9,4],[10,6],[5,9],[2,8],[4,2],[3,5],[3,2],[1,1],[-3,7],[-1,3],[3,3],[7,3],[3,2],[1,1],[2,5],[0,1],[1,2],[1,-1],[2,0],[3,1],[3,0],[2,1],[1,1],[0,3],[0,2],[27,40],[1,2],[0,1],[0,2],[1,1],[1,1],[4,0],[1,1],[4,4],[2,2],[2,4],[6,17],[8,12],[5,-1],[4,-7],[5,-8],[4,-11],[11,-20],[5,-6],[4,-6],[3,-8],[3,-5],[4,0],[8,-12],[4,-2],[9,-1],[5,-2],[4,-4],[3,-4],[2,-5],[2,6],[-1,7],[-2,7],[-1,6],[-4,8],[-12,13],[-2,8],[6,-4],[7,-1],[7,1],[19,5],[7,3],[6,5],[5,6],[-3,1],[-12,-1],[-4,1],[-4,1],[-3,1],[-4,2],[-3,-3],[-7,-2],[-7,-1],[-8,1],[-7,4],[-3,4],[1,7],[2,8],[2,30],[3,17],[10,13],[7,9],[5,-5],[-2,-12],[1,-11],[6,-2],[25,-5],[2,1],[1,7],[2,5],[2,18],[6,16],[8,7],[12,-8],[-3,6],[-4,4],[-3,5],[2,5],[-3,2],[3,3],[4,-2],[4,2],[5,2],[5,1],[-5,2],[-4,0],[-10,-2],[-1,2],[-5,10],[-2,9],[2,5],[5,1],[17,0],[6,1],[6,2],[3,5],[1,3],[0,4],[1,4],[2,2],[1,1],[4,6],[1,1],[1,9],[2,8],[2,1],[2,2],[1,2],[-2,5],[-1,2],[2,10],[1,4],[-2,4],[-2,2],[-3,2],[-1,2],[1,7],[2,6],[15,21],[27,23],[5,-6],[1,-2],[1,-5],[0,-2],[-2,-5],[0,-3],[1,-1],[3,-2],[1,-1],[3,-5],[12,-12],[3,0],[5,15],[25,16],[4,8],[6,1],[11,-3],[7,-4],[-2,5],[-6,4],[-1,10],[1,12],[3,6],[1,6],[1,3],[7,-6],[6,-7],[2,-7],[-1,-6],[9,1],[8,-4],[3,-9],[0,-16],[-2,-4],[-5,-4],[-3,-4],[3,-4],[3,0],[27,12],[10,6],[6,5],[4,6],[4,13],[3,2],[-3,8],[1,13],[4,-2],[5,-3],[8,-7],[-2,-6],[3,-4],[2,-3],[1,-4],[1,-4],[2,-3],[3,-4],[6,-9],[2,-6],[0,-6],[-3,-7],[26,0],[6,-3],[1,-11],[5,-4],[0,5],[1,4],[1,3],[3,4],[-2,1],[-2,2],[-1,2],[0,3],[-8,4],[-9,12],[-3,3],[-1,-4],[-2,-4],[-2,-2],[-3,-3],[0,40],[2,5],[6,1],[-5,5],[5,3],[6,1],[6,0],[5,-4],[-1,-3],[-2,-3],[-2,-2],[2,-5],[-2,-12],[3,-8],[-1,4],[1,4],[1,3],[4,2],[1,-5],[1,-5],[3,-2],[5,-1],[0,2],[-3,2],[-3,5],[0,4],[3,5],[5,1],[5,-3],[8,-6],[-1,6],[-2,3],[-3,4],[-2,5],[6,-3],[5,2],[3,4],[5,2],[5,-3],[1,-5],[-1,-7],[1,-5],[3,0],[4,2],[3,-2],[0,-5],[-2,-6],[6,4],[1,5],[-1,6],[-2,6],[17,-12],[1,-4],[-2,-5],[-3,-2],[-3,5],[-2,0],[-1,-4],[-2,-3],[-3,-2],[-4,-1],[0,-2],[5,-6],[2,0],[3,6],[5,1],[6,-2],[6,-2],[0,4],[1,2],[2,2],[2,2],[2,-6],[1,-5],[-2,-6],[-3,-6],[-2,-1],[-7,-3],[-1,-2],[1,-3],[3,0],[4,2],[2,3],[4,-3],[3,-4],[2,-4],[1,-5],[2,7],[-2,8],[0,6],[5,4],[0,-2],[2,-3],[0,-2],[2,3],[0,2],[-1,2],[-1,4],[1,3],[3,3],[1,3],[1,8],[2,3],[4,2],[4,-2],[1,-3],[0,-5],[-2,-3],[1,-1],[1,0],[1,-1],[-3,-3],[0,-10],[-2,-5],[2,-2],[3,4],[2,-5],[0,-7],[2,-4],[6,-1],[-4,-4],[-7,-5],[-2,-4],[1,-4],[5,-7],[2,-4],[1,4],[1,14],[1,3],[2,4],[3,3],[2,2],[1,-1],[4,-1],[0,8],[0,4],[3,1],[5,0],[3,2],[3,7],[3,13],[5,-5],[-1,-9],[-4,-19],[3,0],[2,6],[3,-2],[2,-3],[0,-3],[-2,-3],[7,0],[-1,-2],[-3,-6],[-1,-2],[3,1],[1,1],[1,1],[2,-6],[-3,-3],[-5,-2],[-4,-2],[-3,-4],[-2,-5],[2,-5],[6,-3],[0,6],[-2,5],[1,3],[6,3],[8,-2],[4,1],[0,6],[3,-2],[0,4],[0,18],[3,-1],[2,-3],[2,-2],[0,-4],[3,0],[1,3],[1,1],[2,1],[3,0],[-2,3],[-2,2],[-3,2],[-3,1],[5,4],[10,13],[5,3],[0,2],[-5,3],[5,-1],[3,-2],[3,-3],[2,-4],[-4,-1],[-1,-3],[1,-3],[4,-3],[-6,-2],[-2,0],[0,-3],[2,-3],[0,-2],[-3,-2],[-4,-1],[0,-2],[4,-1],[1,-2],[0,-4],[-2,-3],[4,1],[3,2],[2,3],[1,4],[2,0],[-2,-20],[-1,-1],[0,-1],[1,-3],[4,-8],[1,-2],[1,5],[-1,5],[-1,4],[3,6],[3,0],[0,-8],[3,2],[2,4],[0,12],[4,-4],[9,-13],[2,-5],[-2,-6],[-11,-18],[6,5],[9,15],[4,3],[-1,5],[1,9],[3,6],[8,-2],[2,-5],[1,-4],[1,-3],[5,-1],[4,2],[-1,3],[-8,15],[0,4],[7,0],[8,-4],[6,-20],[-9,-11],[-1,-4],[3,0],[2,2],[1,-3],[-1,-5],[-2,-4],[-5,-3],[-5,0],[-4,2],[-1,6],[-3,0],[-2,-5],[-3,-4],[-16,-9],[-5,-5],[-3,-5],[-1,-7],[4,6],[7,6],[7,6],[7,2],[1,-1],[9,0],[10,1],[8,2],[8,-5],[6,8],[2,8],[5,5],[10,5],[6,6],[5,2],[5,-2],[3,3],[7,1],[7,2],[4,-5],[-1,-5],[-7,-3],[-8,-1],[-7,-5],[3,-6],[-2,-6],[-4,-5],[0,-4],[6,-3],[-1,-8],[-2,-6],[5,0],[1,-3],[-4,-5],[4,0],[4,1],[3,2],[2,3],[1,2],[4,-2],[4,-3],[3,-1],[5,5],[3,6],[7,1],[-1,-7],[1,-7],[1,-8],[2,-3],[1,2],[1,8],[2,5],[4,4],[4,1],[2,-5],[0,-14],[0,-3],[-2,-6],[0,-4],[5,4],[3,7],[2,7],[0,10],[2,0],[4,-6],[9,-11],[2,-6],[-2,6],[-6,9],[-2,5],[-1,1],[-1,3],[0,2],[7,2],[-4,5],[-3,3],[1,4],[4,5],[2,8],[5,7],[6,5],[12,3],[10,-4],[0,-14],[-3,0],[-3,0],[-5,-7],[-5,-7],[-2,-6],[6,2],[3,-1],[-1,-3],[-5,-3],[0,-1],[1,-1],[0,-1],[1,-2],[-1,-2],[-2,-3],[-2,-2],[4,-6],[-19,-40],[12,13],[3,3],[5,-1],[5,-2],[5,-2],[5,2],[4,8],[3,5],[3,0],[1,-5],[-3,-13],[0,-5],[5,4],[2,7],[0,15],[1,4],[3,3],[3,3],[2,2],[3,-1],[1,-3],[1,-3],[1,-3],[6,-11],[1,-7],[-3,-2],[-4,-3],[-3,-6],[-1,-6],[4,-6],[5,4],[3,4],[5,10],[3,-5],[0,-4],[-1,-4],[-2,-5],[6,4],[1,6],[-2,7],[0,6],[2,4],[2,4],[3,5],[0,7],[3,0],[0,-1],[0,-1],[1,-1],[1,-2],[4,1],[-1,10],[1,4],[4,4],[6,-3],[0,-3],[1,-5],[-3,0],[-2,-2],[5,-6],[-4,-1],[-2,-3],[-1,-8],[3,1],[3,1],[3,-1],[3,-1],[-5,-2],[-14,-2],[-1,-15],[2,-3],[4,-1],[5,-1],[4,-2],[2,-3],[0,-8],[3,-4],[3,2],[2,3],[0,2],[-2,4],[1,0],[1,1],[1,0],[2,1],[-2,6],[3,10],[5,12],[7,18],[8,10],[5,-1],[0,-12],[-11,-15],[-2,-5],[-4,-5],[-2,-2],[0,-9],[0,-5],[3,11],[2,4],[5,3],[-1,-6],[-1,-2],[4,-7],[-3,-6],[-5,-6],[-2,-8],[10,8],[3,2],[0,-2],[-1,-3],[1,-3],[0,-2],[-2,-2],[-4,-5],[-1,-3],[8,5],[6,5],[3,9],[0,11],[4,-5],[2,-9],[0,-8],[-2,-3],[-5,-3],[2,-6],[5,-7],[4,-4],[-3,11],[3,8],[6,2],[4,-3],[3,5],[2,13],[2,6],[6,3],[9,25],[8,0],[2,-9],[-12,-24],[-2,-10],[2,0],[0,2],[2,4],[7,5],[5,7],[4,-2],[1,-7],[1,-6],[-1,-5],[4,-4],[4,-2],[-2,-7],[3,-2],[0,-7],[-2,-6],[-3,-4],[-2,-3],[-2,-5],[13,-1],[3,1],[4,4],[2,3],[1,5],[1,5],[-2,4],[-3,5],[1,4],[4,4],[4,1],[6,-1],[1,-3],[-2,-2],[-5,-2],[2,0],[1,-1],[1,0],[1,-1],[-1,-3],[-1,-3],[1,-2],[1,-2],[9,16],[6,5],[5,-6],[-4,0],[-3,-2],[-1,-3],[1,-5],[2,1],[3,1],[2,0],[-2,-4],[-3,-3],[-3,-4],[1,-6],[1,1],[4,2],[0,3],[4,5],[1,4],[2,0],[2,-15],[-1,-3],[-4,-9],[-2,-7],[0,-4],[6,5],[15,19],[1,3],[0,3],[1,4],[2,4],[3,2],[12,5],[-10,0],[7,2],[5,0],[2,-3],[1,-7],[0,-4],[-2,-6],[0,-3],[-2,-1],[-7,0],[-1,-1],[-9,-3],[-1,-1],[-2,-3],[-1,-3],[1,-3],[-1,-4],[-3,-10],[-1,-6],[2,-6],[-9,2],[-5,-3],[-9,-9],[5,0],[3,2],[2,3],[0,5],[5,-3],[2,-4],[-1,-4],[-3,-4],[4,-1],[2,1],[2,2],[2,3],[6,-4],[1,-6],[-1,-6],[1,-5],[4,7],[1,9],[-3,16],[2,2],[3,4],[4,4],[3,1],[2,-1],[-1,-4],[-2,-5],[-3,-2],[4,1],[5,5],[2,1],[1,2],[6,10],[2,6],[9,16],[0,5],[-2,6],[5,3],[7,0],[6,-5],[1,-4],[4,-29],[-3,2],[-2,1],[-4,-10],[-7,-6],[-9,-5],[-10,-7],[3,-2],[2,4],[4,2],[3,1],[3,-2],[-3,-5],[-2,-5],[-2,-6],[0,-6],[-3,-2],[-5,-2],[-3,-5],[3,-7],[2,6],[1,3],[0,3],[12,-5],[4,-8],[-1,-11],[-4,-15],[-3,-5],[-1,-6],[0,-7],[2,-6],[4,-4],[4,-3],[5,-2],[14,4],[5,4],[-2,7],[6,3],[12,4],[2,4],[-1,6],[-9,12],[-2,6],[3,10],[7,12],[9,8],[9,0],[1,9],[5,7],[5,0],[4,-8],[2,0],[2,6],[4,4],[4,1],[2,2],[3,2],[3,-3],[0,-4],[-8,-1],[9,0],[3,5],[0,8],[3,7],[1,-13],[1,-4],[3,-2],[4,-2],[4,-1],[3,1],[5,-1],[2,-5]],[[4096,3538],[-8,2],[4,-6],[4,0]],[[4096,3522],[-2,0],[-5,-4],[-1,-9],[2,0],[3,7],[3,0]],[[2337,4058],[42,-16],[11,4],[71,1],[10,2],[9,3],[4,4],[3,5],[12,9],[2,7],[2,-1],[4,-1],[2,0],[0,5],[2,2],[2,3],[1,3],[-1,4],[-1,1],[-3,0],[-4,3]],[[2370,4096],[-22,-17],[-8,-9],[-3,-12]],[[1921,3989],[1,-1],[1,-4],[1,-3],[9,-3],[3,-2],[3,-1],[11,9],[14,8],[7,6],[20,21],[8,5],[23,11],[7,4],[14,13],[4,6],[0,7],[-1,1],[-4,6],[0,2],[0,4],[0,2],[-2,4],[-3,3],[-3,3],[-5,2],[-9,3],[-2,1]],[[1950,4096],[-11,-2],[-8,-2],[-9,-12],[-4,-15],[-18,-31],[7,-4],[3,-1],[0,-2],[-13,-4],[1,-13],[9,-14],[14,-7]],[[2069,4096],[3,-1],[13,0],[2,-2],[1,-1],[3,-1],[4,-1],[3,0],[15,0],[3,6]],[[2258,4096],[1,-1],[8,-8],[4,-8],[3,-2],[4,1],[3,2],[4,2],[4,2],[11,1],[24,7],[7,4]],[[3022,3861],[0,2],[-2,1],[-2,0],[-3,0],[-1,-2],[-2,-2],[0,-3],[4,-2],[-2,-3],[-2,-3],[-2,-1],[2,-5],[5,-9],[1,-6],[16,8],[8,7],[3,8],[-3,6],[-7,4],[-8,2],[-5,-2]],[[2933,3796],[-18,-8],[-2,-4],[-2,-4],[-7,-12],[-4,-10],[-10,-11],[-2,-8],[0,-7],[1,-6],[3,-4],[7,-2],[18,-1],[6,1],[5,3],[2,2],[3,11],[12,23],[2,12],[-9,5],[0,2],[9,1],[-3,5],[-11,12]],[[3127,3884],[-10,-2],[-5,2],[-2,7],[-3,4],[-7,2],[-3,-2],[-1,-5],[-3,-2],[-2,-3],[3,-11],[0,-6],[13,-5],[4,-14],[2,-7],[-1,-6],[6,1],[10,0],[4,2],[2,3],[0,6],[0,7],[-2,4],[3,7],[0,7],[-4,6],[-4,5]],[[2880,3705],[-16,1],[-8,-2],[-6,-4],[-2,-13],[-2,-3],[-8,-6],[-4,-6],[2,-3],[4,-1],[6,-3],[7,-8],[4,-2],[3,5],[0,-3],[1,-2],[1,-3],[3,-2],[6,3],[6,0],[5,1],[6,6],[0,3],[-1,8],[2,2],[6,9],[-4,6],[-5,14],[-6,3]],[[4096,3612],[-1,1],[-5,2],[-2,-4],[-2,-6],[0,-8],[3,-6],[6,-4],[1,0]],[[2535,3452],[-5,1],[-3,4],[-3,5],[0,5],[-7,1],[-6,-3],[-7,-11],[-11,-6],[-3,-3],[-2,-3],[-1,-7],[-1,-3],[-9,-9],[-2,-5],[4,-6],[5,-4],[15,-4],[7,-2],[3,4],[10,11],[8,13],[3,2],[3,3],[4,7],[2,7],[-4,3]],[[1977,3869],[-3,13],[-2,4],[0,3],[-1,1],[-2,1],[-12,-20],[-2,0],[0,5],[7,13],[-18,-7],[-17,-8],[-8,-7],[-14,-16],[-8,-5],[-2,0],[-5,3],[-3,-1],[-1,-1],[-1,-5],[-1,-1],[-2,-2],[-7,-11],[-3,-9],[-1,-10],[1,-9],[3,-7],[2,0],[6,5],[9,6],[10,5],[9,2],[9,3],[15,14],[11,3],[12,0],[11,3],[7,6],[4,11],[0,5],[-3,13]],[[1851,4045],[0,-2],[-6,-7],[-3,-2],[-3,-1],[-10,-1],[-2,-2],[-4,-7],[-8,-7],[-24,-54],[-2,-4],[-5,-3],[-2,-2],[-2,-6],[-5,-4],[-6,-3],[-4,-4],[-1,-8],[4,-3],[7,2],[12,10],[23,12],[28,21],[13,14],[6,15],[0,13],[2,7],[5,3],[-2,2],[0,6],[1,7],[2,5],[1,0],[1,0],[1,1],[-1,2],[-16,0]],[[1844,3871],[-7,3],[-7,18],[-5,7],[-6,2],[-20,5],[-4,-1],[-1,-3],[-1,-1],[-1,-2],[0,-5],[2,-4],[8,-11],[-3,1],[-3,1],[-3,2],[-3,3],[0,-7],[-3,0],[0,7],[-4,-3],[0,-3],[2,-4],[0,-5],[-3,-4],[-7,-7],[-2,-4],[-3,0],[1,4],[5,5],[2,4],[1,3],[-1,2],[0,2],[0,2],[0,5],[1,7],[3,7],[3,4],[-3,0],[-5,-1],[-20,-7],[-6,-3],[-5,-5],[-18,-11],[-11,-11],[-9,-11],[-8,-12],[-16,-34],[-19,-20],[-3,-14],[-2,-49],[8,-15],[-6,-14],[-12,-12],[-12,-7],[-8,-1],[-3,-1],[-2,-2],[0,-1],[-3,-8],[-1,-2],[-3,-1],[-24,-19],[-4,-4],[-2,-5],[-2,-13],[-1,-8],[-2,-5],[-14,-19],[-5,-11],[4,-13],[5,-5],[6,-4],[8,-1],[14,8],[17,2],[7,3],[17,11],[14,13],[2,1],[6,1],[1,1],[1,2],[1,5],[1,1],[2,1],[10,4],[3,3],[3,3],[3,3],[5,1],[15,9],[44,37],[9,12],[29,53],[7,3],[9,-11],[4,2],[2,3],[7,21],[7,44],[5,14],[23,44],[2,9],[-1,8],[-4,6],[-8,2]],[[2835,3885],[1,22],[2,11],[9,14],[4,12],[3,2],[4,2],[4,3],[4,4],[2,4],[1,5],[1,16],[-1,7],[-2,3],[-3,3],[-4,4],[-2,0],[-10,4],[-42,6],[-21,6],[-8,1],[-9,-1],[-13,-4],[-7,0],[-42,11],[-15,-1],[-12,-2],[0,4],[4,5],[0,10],[-5,4],[-12,-2],[-7,-5],[-5,-4],[-7,-1],[-5,5],[-6,4],[-6,0],[-24,3],[-10,-3],[-4,3],[-5,1],[-5,-1],[-4,-1],[-5,2],[-4,3],[-4,1],[-4,-1],[-7,-2],[-10,-1],[-4,-2],[-4,0],[-5,0],[-3,-1],[-2,-1],[-2,0],[-3,2],[-22,-11],[-7,-5],[-1,-7],[4,-7],[4,-5],[0,-2],[-4,1],[-8,7],[-2,2],[-9,2],[-4,0],[-8,-1],[-14,-3],[-48,-2],[-52,15],[-77,17],[-11,-1],[-21,9],[-64,6],[-21,5],[-8,1],[-6,-3],[-4,-5],[-2,-7],[-4,-6],[-6,-3],[-6,0],[-6,2],[-8,1],[-9,-1],[-6,-4],[-5,-4],[-7,-3],[-4,0],[-4,0],[-5,0],[-3,-1],[-6,-10],[-1,-2],[-4,-2],[-12,-10],[-3,-3],[-5,-12],[-2,-8],[-1,-6],[-1,-2],[-4,-5],[-2,-2],[-1,-4],[-1,-14],[-7,-20],[-1,-6],[1,-8],[2,-7],[9,-24],[2,-8],[1,-6],[3,-2],[22,-4],[20,-7],[2,-2],[1,-3],[1,-1],[-1,-1],[-10,-1],[-4,0],[-7,2],[-28,14],[-4,3],[-2,7],[-3,9],[-5,8],[-5,5],[-15,-40],[-3,-15],[1,-2],[4,-1],[0,-3],[0,-1],[-4,-3],[-1,-2],[0,-11],[0,-2],[6,-6],[6,-2],[5,-4],[1,-9],[-3,5],[-4,2],[-5,0],[-3,-4],[2,-4],[-2,-5],[-3,-5],[-2,-6],[-2,-14],[0,-27],[2,-12],[2,-6],[7,-10],[1,-3],[3,-5],[8,-2],[26,-2],[3,0],[3,2],[8,5],[3,1],[7,1],[8,2],[6,5],[6,6],[5,3],[6,1],[6,-2],[7,-4],[-8,0],[-6,1],[-5,-1],[-6,-5],[-3,-7],[7,-2],[4,-3],[0,-4],[-6,-4],[-1,1],[-10,2],[-2,-1],[-5,-3],[-10,-3],[16,-15],[5,-9],[-20,11],[-6,2],[-17,3],[-22,10],[-15,9],[-5,1],[-5,-6],[3,-9],[5,-9],[2,-8],[0,-7],[-12,-45],[0,-8],[0,-5],[5,-11],[0,-1],[2,0],[2,-2],[0,-2],[-4,-3],[-2,-8],[0,-4],[3,-4],[10,-12],[1,-3],[3,-8],[5,-8],[57,-56],[7,-17],[-7,-2],[-5,-5],[-2,-6],[1,-2],[2,-2],[9,-6],[5,-2],[56,-12],[10,0],[11,1],[10,3],[8,6],[-5,4],[-11,3],[-9,5],[8,-2],[10,-1],[8,2],[4,7],[-1,9],[-7,27],[3,0],[9,-25],[1,-7],[2,0],[2,7],[2,18],[2,6],[2,7],[-6,5],[-8,5],[-4,6],[1,3],[2,3],[2,2],[3,3],[1,1],[1,0],[1,0],[2,1],[0,2],[-1,1],[-1,1],[-5,13],[0,6],[7,5],[-1,-3],[-2,-7],[0,-2],[1,-4],[3,-6],[2,-5],[0,-2],[-3,-6],[-2,-2],[-3,0],[-2,-1],[-1,-3],[2,-5],[4,-1],[5,-1],[4,-2],[1,-5],[-1,-26],[1,-7],[4,-5],[13,-4],[4,-4],[3,-4],[5,-3],[23,11],[2,4],[10,8],[3,5],[0,9],[-1,5],[1,3],[8,0],[1,-2],[-2,-17],[0,-3],[1,-1],[8,-8],[2,-2],[8,1],[4,-1],[7,-4],[9,-2],[3,-2],[4,-4],[4,-2],[4,-1],[7,-1],[4,-1],[4,-3],[3,-3],[4,-3],[5,-1],[3,1],[9,4],[12,10],[2,3],[2,3],[1,4],[0,4],[0,4],[-11,22],[-2,9],[2,6],[4,11],[2,7],[1,-5],[-3,-11],[-1,-7],[2,-4],[7,-9],[3,-16],[5,-10],[6,-7],[7,-1],[5,4],[12,13],[7,3],[16,-3],[3,1],[2,9],[0,4],[-5,1],[0,3],[5,0],[-3,5],[-1,6],[2,5],[6,1],[5,3],[2,5],[1,6],[-4,4],[2,-1],[2,0],[1,0],[2,-1],[0,18],[-1,5],[-3,3],[-3,3],[-3,3],[4,-1],[3,-1],[3,1],[3,1],[2,-21],[2,-5],[1,-12],[5,-8],[9,-4],[7,1],[7,-2],[12,-3],[5,3],[2,8],[-8,11],[-12,8],[-2,8],[3,9],[4,8],[3,4],[1,-4],[-1,-3],[-2,-4],[-1,-5],[2,-4],[13,-13],[8,-5],[6,-6],[8,-5],[7,-1],[6,0],[13,0],[12,5],[7,8],[-5,-2],[-2,-1],[-3,-3],[-2,6],[-3,1],[-4,0],[-3,3],[3,1],[3,1],[2,1],[2,2],[2,-2],[0,-1],[0,-2],[2,1],[3,2],[-7,5],[-1,9],[8,27],[0,9],[-3,8],[-6,5],[4,2],[2,-1],[1,-2],[2,-2],[12,0],[0,-2],[8,-16],[1,-4],[5,-12],[2,-3],[2,-2],[1,0],[3,-1],[3,0],[3,-1],[0,-2],[0,-3],[3,-1],[6,-1],[4,2],[5,2],[18,3],[7,2],[2,3],[2,4],[3,-1],[6,-4],[3,1],[2,3],[0,3],[2,3],[5,4],[5,2],[6,2],[6,2],[0,2],[-12,9],[-4,1],[-1,1],[-2,6],[-2,1],[-1,0],[-8,2],[-2,4],[-1,5],[-2,5],[-3,2],[-3,-2],[-9,-7],[-5,-2],[4,4],[1,3],[0,3],[-2,3],[0,3],[10,3],[3,5],[-4,5],[-12,1],[10,4],[8,-5],[30,-38],[7,-6],[2,0],[12,28],[3,22],[-1,4],[-6,4],[-5,1],[-10,0],[-5,1],[0,3],[8,-2],[3,6],[-2,7],[-5,4],[-7,3],[-7,5],[-6,8],[-4,7],[3,2],[6,-8],[8,-9],[9,-6],[12,-2],[8,4],[14,15],[6,4],[8,2],[17,13],[5,2],[6,4],[5,7],[0,6],[-9,-2],[0,3],[8,6],[1,1],[0,6],[-3,1],[-3,-2],[-3,0],[-4,3],[0,1],[2,1],[4,3],[6,8],[1,4],[-2,3],[8,6],[19,7],[8,7],[4,8],[1,10],[-1,9],[-4,8],[5,10],[-5,10],[-8,11],[-5,12],[13,-13],[7,-6],[8,-4],[1,8],[2,8],[1,6],[-4,3],[3,4],[1,5],[1,9],[6,14],[1,5]],[[0,3540],[4,-3],[8,-2],[5,4],[4,6],[6,2],[4,-1],[2,-2],[1,-3],[2,-1],[4,-1],[4,1],[7,2],[29,5],[7,3],[2,8],[0,8],[2,6],[10,-10],[4,-7],[0,-3],[-4,-1],[-5,-3],[-4,-4],[0,-3],[5,-11],[2,-11],[5,-9],[16,-4],[3,-1],[1,-2],[-1,-4],[-1,-1],[-6,0],[-3,-1],[-2,-1],[-2,-1],[-1,-1],[0,-5],[2,-2],[2,-1],[2,0],[2,-2],[22,-40],[-9,3],[-5,5],[-4,7],[-5,6],[-2,4],[-4,8],[-2,4],[-11,9],[-3,4],[-11,25],[-8,8],[-16,2],[-28,-2],[-9,-4],[-4,-1],[-11,1],[-5,-1],[-1,0]],[[761,3276],[2,-2],[4,-1],[0,-2],[-5,-2],[-3,-3],[-2,-3],[-3,-2],[-2,1],[-4,1],[-5,1],[-4,-3],[-1,-4],[2,-3],[2,-3],[0,-3],[-2,-2],[-3,-1],[-4,-1],[-3,0],[-6,4],[5,12],[-7,4],[-9,-3],[-17,-15],[-9,-5],[-4,0],[-4,0],[-3,2],[-1,3],[-1,3],[3,2],[4,1],[13,9],[4,4],[2,5],[-2,5],[-4,1],[-5,-2],[-4,-3],[-5,4],[-4,0],[-4,0],[-5,1],[-1,3],[-4,12],[7,-4],[7,-2],[4,3],[0,11],[2,0],[3,-10],[5,-2],[6,3],[4,6],[2,0],[1,-8],[3,-7],[6,-3],[8,3],[7,-4],[6,-2],[7,1],[7,2],[6,5],[5,1],[1,-2],[1,-3],[1,-3]],[[2322,2514],[-9,6],[-3,4],[3,3],[5,0],[33,-6],[9,-3],[3,0],[3,4],[-3,7],[-11,10],[-12,17],[-7,7],[-3,5],[0,4],[3,2],[4,0],[4,-2],[3,-1],[4,-3],[3,-4],[4,-8],[3,-3],[3,-1],[4,1],[10,6],[2,3],[0,4],[-3,3],[-7,5],[-3,2],[-2,4],[0,3],[5,6],[2,4],[-1,4],[-2,4],[-3,4],[-7,5],[-2,3],[0,3],[4,2],[5,0],[29,-4],[-1,4],[-4,5],[-10,8],[-3,4],[-1,4],[-1,11],[1,4],[4,9],[1,5],[0,22],[3,1],[21,-1],[2,0],[2,-1],[2,-2],[1,0],[2,1],[4,1],[2,1],[4,4],[2,2],[3,0],[2,1],[3,1],[2,2],[2,-2],[1,-3],[-1,-7],[-4,-7],[-10,-10],[-2,-7],[3,-15],[0,-26],[-3,-12],[1,-5],[1,-4],[5,-7],[1,-4],[1,-4],[-1,-3],[-4,-9],[-1,-4],[1,-4],[3,-4],[5,-2],[5,-2],[5,0],[35,2],[10,-1],[-3,-3],[-4,0],[-4,0],[-5,-1],[-3,-3],[-3,-2],[-4,-2],[-4,-1],[-12,1],[-5,-1],[-5,-3],[-3,-3],[-1,-4],[1,-4],[3,-3],[8,-4],[10,-3],[4,-1],[4,-1],[5,1],[4,1],[10,4],[6,1],[5,-2],[1,-3],[-3,-3],[-9,-1],[2,-4],[-1,-4],[-1,-9],[-9,-3],[-7,-7],[-2,-7],[8,-6],[14,-8],[13,-9],[2,-3],[2,-3],[-1,-2],[-3,-3],[-2,0],[-2,0],[-4,1],[-3,1],[-6,3],[-3,0],[-2,-2],[0,-4],[4,-8],[0,-2],[0,-4],[1,-2],[3,-7],[11,1],[3,-1],[3,-2],[2,-2],[2,-3],[1,-4],[7,0],[4,-1],[3,-2],[1,-4],[-1,-7],[1,-4],[3,-3],[8,-6],[21,-11],[4,-4],[0,-3],[-2,-1],[-3,0],[-4,1],[-4,1],[-48,29],[-8,3],[0,-6],[3,-6],[5,-6],[5,-3],[8,-4],[1,-3],[-3,-4],[-4,-1],[-5,-1],[-4,-2],[-3,-4],[5,-2],[3,-2],[2,-2],[1,-2],[0,-2],[1,-2],[2,-2],[2,-1],[2,-1],[3,0],[2,0],[2,2],[4,4],[2,1],[3,1],[2,-1],[3,-2],[1,-2],[1,-2],[0,-5],[0,-2],[3,-3],[9,-3],[3,-3],[-8,-3],[-4,-3],[-2,-3],[-1,-3],[2,-5],[1,-2],[-3,-3],[-6,2],[-6,3],[-5,2],[-4,-5],[-13,1],[-6,-3],[-1,-6],[5,-4],[13,-4],[3,-3],[2,-3],[2,-6],[2,-3],[15,-16],[3,-1],[6,-3],[3,-2],[2,-2],[-6,-5],[-3,-1],[-4,-1],[-9,1],[-4,0],[5,-12],[2,-12],[1,-17],[1,-6],[5,-10],[32,-41],[4,-4],[5,-2],[5,-1],[23,3],[5,1],[15,-3],[5,0],[5,1],[16,9],[8,0],[8,-7],[-8,-1],[-3,0],[-20,-10],[-3,-1],[-3,1],[-6,0],[-3,0],[-3,-1],[-9,-6],[-10,-4],[-2,-2],[-6,-7],[-2,-1],[-3,0],[-3,2],[-2,1],[-1,3],[-6,1],[-5,1],[-5,1],[-5,4],[-2,4],[-4,9],[-15,18],[-4,7],[-1,5],[-3,11],[-1,2],[-2,3],[-9,8],[-3,6],[-4,10],[-8,10],[-1,5],[-3,11],[-2,6],[-1,2],[-3,2],[-2,1],[-4,0],[-3,1],[-3,3],[-1,2],[-1,3],[1,7],[0,3],[-1,2],[-3,1],[-3,1],[-2,0],[-2,0],[-3,1],[-5,5],[-5,7],[-3,7],[-1,7],[2,14],[-1,5],[-5,14],[-3,4],[-3,2],[-4,2],[-3,1],[-2,4],[1,5],[4,4],[5,4],[5,2],[1,3],[-1,3],[-9,24],[-3,6],[-5,2],[-5,-3],[-1,-3],[-2,-7],[-2,-3],[-4,-2],[-3,-1],[-2,2],[-1,4],[-2,6],[-1,7],[1,14],[-7,-4],[-37,-11],[-7,-1],[-5,2],[-1,2],[3,2],[6,2],[12,8],[42,14],[2,3],[-1,5],[-4,4],[-9,7],[-4,4],[1,5],[3,5],[3,5],[-2,5],[-3,2],[-8,1],[-3,1],[-5,4],[-2,1],[-3,-1],[-4,-4],[-2,-10],[-5,-4],[-8,-3],[-3,-2],[-11,-9],[-5,-3],[-5,-1],[-6,3],[0,6],[3,6],[4,5],[17,11],[7,6],[2,9],[-4,0],[-5,-2],[-8,-5],[-9,-4],[-5,-1],[-5,0],[5,8],[9,6],[5,6],[-4,5],[-18,10]],[[2465,3489],[5,1],[11,-4],[5,-3],[0,-4],[-1,-5],[-3,-4],[-4,-2],[-9,-2],[-4,-4],[-6,-5],[-5,0],[-5,3],[-2,7],[0,5],[0,7],[1,4],[5,4],[4,1],[4,-1],[4,2]],[[3295,3651],[9,5]],[[3030,3634],[6,0]],[[3036,3634],[26,-1],[10,-5],[9,-1],[20,0],[14,0]],[[2948,3636],[12,3],[7,-2],[11,-7],[7,-5],[15,2],[20,3],[10,4]],[[3115,3627],[21,-6],[19,-5]],[[3155,3616],[15,-1]],[[3170,3615],[20,1],[16,6],[12,3],[6,3],[12,2],[23,6],[15,8],[21,7]],[[2918,3613],[19,18],[11,5]],[[2838,3586],[11,11],[12,6],[15,4],[2,0]],[[2823,3568],[12,15],[3,3]],[[2878,3607],[16,-1],[18,3],[6,4]],[[3304,3656],[7,-6],[8,-9],[10,-13],[6,-4],[20,-24],[15,-15],[3,-6],[19,-22],[9,-6],[5,-7]],[[3406,3544],[18,-24],[10,-9]],[[3155,3616],[3,-18],[12,-45],[5,-9],[12,-17],[3,-9],[0,-7],[-6,-22],[0,-7],[0,-17]],[[2781,3557],[2,-9],[4,-12],[-1,-7],[-5,-12],[-9,-16],[-9,-12],[-16,-12],[-3,-4],[-12,-11],[-5,-4],[-12,-12]],[[2715,3446],[6,-13],[2,-7],[3,-24],[-2,-17],[0,-17]],[[3184,3465],[0,-10],[-3,-26],[-2,-15],[-1,-15],[-3,-31],[-2,-15],[-4,-16]],[[3434,3511],[14,-10],[7,-4],[12,-8],[23,-10],[6,-2],[7,-3],[12,-4],[12,-6],[17,-8],[3,-4],[20,-9],[16,-8],[8,-2],[10,2],[9,3],[18,9],[6,3],[9,2],[18,-3],[15,-5],[8,-4],[9,-16],[10,-10],[3,-5],[12,-15],[17,-26],[6,-12],[9,-16],[12,-9],[10,-9],[0,-5]],[[2724,3368],[-1,-12],[-3,-25],[-2,-38],[-1,-20],[-2,-6],[-4,-27],[-5,-27],[-3,-29],[-1,-7]],[[563,3201],[-12,-12],[-18,-22]],[[3169,3337],[-2,-11],[2,-18],[1,-11],[0,-16],[-1,-20],[1,-12],[2,-7],[9,-23],[7,-11],[6,-12],[0,-16],[0,-17],[0,-21],[5,-21],[1,-3],[6,-20],[3,-11],[2,-16],[-2,-32]],[[3209,3039],[-1,-12]],[[3772,3317],[3,-4],[3,-13],[3,-15],[5,-19],[3,-8],[4,-18],[2,-15],[3,-26],[13,-24],[9,-23],[8,-43],[4,-16],[11,-39],[6,-12],[9,-17],[4,-12],[3,-12],[0,-18],[0,-23],[0,-4],[0,-24]],[[2702,3177],[-3,-5],[-8,-8],[-4,-7],[-6,-27],[-2,-11],[-9,-45],[-1,-17],[-3,-22],[-3,-19],[-2,-12],[-4,-21],[-2,-17],[-3,-24],[-1,-19],[-5,-18],[-2,-26],[-7,-27],[-6,-28],[-17,-62]],[[3865,2932],[-3,-5],[0,-25],[-3,-23],[-3,-29],[2,-21],[4,-9],[6,-8],[17,-16],[12,-8],[6,-6],[7,-10],[9,-7],[21,-7],[12,-3]],[[3952,2755],[18,-5],[15,-6],[3,-3]],[[3208,3027],[-11,-45],[-1,-8],[-5,-17],[0,-12],[2,-16],[3,-14],[7,-27],[3,-15],[3,-14],[-3,-16],[-9,-22],[-6,-15],[2,-24],[1,-21],[0,-18],[0,-8]],[[3988,2741],[8,-4],[27,-23],[6,-9],[3,-8],[2,-10],[9,-21]],[[3952,2755],[-12,-20],[-12,-19],[-13,-19],[-8,-7],[-10,-6],[-12,-15],[-5,-5],[-7,-3],[-12,-9],[-6,-7],[-9,-6],[-35,-22],[-12,-10],[-9,-6],[-12,-2],[-15,2],[-15,1],[-9,-4],[-7,1],[-5,8],[-21,4],[-12,8],[-10,3],[-8,-2],[-7,-7],[-5,-5],[-9,0],[-7,-4],[-8,-8],[-10,-7],[-5,0]],[[486,3087],[1,-3],[-2,-19],[-7,-18],[-15,-34],[-5,-12],[-13,-39],[-6,-15],[-11,-32],[-4,-13],[-3,-11],[-12,-36],[-5,-14],[-4,-12],[-8,-23],[-4,-19],[0,-12],[-3,-14],[-2,-17],[2,-15],[1,-6],[6,-10],[9,-11],[12,-12],[3,-6],[3,-14],[-1,-18],[-3,-9],[-9,-18],[-17,-21],[-6,-11]],[[383,2593],[-3,-6]],[[533,3167],[-1,-1],[-11,-6],[-6,-9],[-19,-14],[-18,-9],[6,-16],[1,-13],[1,-12]],[[1133,2801],[-4,-2],[-21,-23],[-12,-6],[-7,-1],[-15,-2],[-17,1]],[[1057,2768],[-4,1],[-24,-8],[-33,-8],[-17,3],[-15,2],[-12,-3],[-16,-6],[-15,-5],[-33,-13],[-27,-17],[-20,-15],[-12,-9],[-23,-11],[-10,-4],[-24,-6],[-20,-2],[-36,-6],[-16,2],[-30,-9],[-15,-3],[-8,0],[-12,3],[-7,1],[-12,-3],[-8,-4],[-16,-17],[-8,-6],[-19,-12],[-6,-5],[-17,-4],[-39,-15],[-18,1],[-15,-1],[-15,1],[-9,-3],[-12,-7],[-9,-3],[-12,-2],[-12,2],[-21,10]],[[1490,2939],[-35,-15],[-24,-12],[-27,-9],[-24,-9],[-12,-8],[-13,-4],[-15,-9],[-21,-9],[-23,-9],[-15,-8],[-17,-7],[-39,-14],[-10,-6],[-8,-3],[-15,-2],[-27,0],[-12,-1],[-12,-6],[-8,-7]],[[380,2587],[-21,8],[-21,3],[-9,-2],[-15,-3],[-14,-4],[-12,-6],[-21,-12],[-10,-10]],[[4043,2666],[4,-14],[8,-10],[4,-11],[8,-18],[9,-11],[15,-10],[5,-5]],[[3194,2735],[0,-7],[-4,-24],[-6,-22],[0,-15],[-6,-12],[-5,-16],[-1,-25],[-2,-37],[0,-28],[-1,-9],[-3,-7],[-2,-11]],[[1490,2939],[24,8],[6,1],[34,-3],[8,2],[30,10],[15,8],[19,6],[8,2],[15,-2],[16,-8],[8,0],[7,-1],[12,-6],[24,-14],[11,-10],[24,-23],[18,-17],[15,-12],[15,-12],[39,-21],[27,-20],[24,-19],[12,-11],[26,-16],[10,-9],[15,-10],[15,-7],[27,-15],[12,-5],[26,-12],[13,-9],[12,-7],[17,-14],[10,-11],[11,-13],[10,-11],[9,-6],[11,-6],[13,-3],[17,-9],[9,-8],[16,-16],[20,-18],[15,-14],[9,-6],[18,-6],[14,-15],[7,-6],[11,-3],[7,-5],[20,-16]],[[3625,2589],[-7,-2],[-12,-13],[-11,-3],[-27,-19],[-13,-7],[-8,-5],[-3,-3],[-3,-7],[-5,-9],[-4,-3],[-11,-5],[-7,-6],[-6,-9],[-8,-6],[-7,-2],[-14,0],[-9,-3],[-13,-13],[-8,-5],[-13,-4],[-8,0],[-3,-5],[-4,-7],[0,-6],[-8,-12],[-10,-23],[-18,-20],[-11,-16],[-4,-9],[-11,-13],[-9,-6],[-9,-3],[-19,0],[-18,-4],[-8,-3],[-28,-17],[-20,-12],[-15,-7],[-25,-16],[-20,-9]],[[3164,2522],[3,-4],[8,-6],[3,-8],[0,-23],[1,-9],[9,-15],[0,-7],[-1,-9],[1,-8],[5,-11],[1,-21],[0,-57],[-4,-17],[-3,-12],[4,-30],[-3,-8]],[[2614,2762],[-4,-12],[0,-9],[-6,-27],[-3,-20],[-8,-27],[-3,-16],[-4,-40],[-5,-27],[-6,-29],[-3,-18],[-1,-18],[0,-15],[-2,-11],[0,-30],[-1,-13],[3,-18],[3,-22],[7,-33],[3,-12],[5,-24],[1,-8],[3,-15],[2,-16],[3,-29],[3,-17],[6,-10],[22,-46]],[[2629,2200],[-9,-10],[-7,-20],[-3,-12],[0,-12],[1,-12]],[[2301,2521],[12,-6],[7,-2],[12,-1],[9,-6],[6,-8],[8,-18],[4,-9],[11,-12],[7,-6],[17,-9],[12,-9],[16,-20],[14,-24],[4,-17],[5,-48],[10,-32],[6,-12],[11,-14],[7,-12],[9,-21],[17,-29],[10,-16],[12,-18],[17,-22],[10,-10],[17,-8],[12,-1]],[[2583,2131],[12,0],[16,3]],[[2611,2134],[14,1],[15,-3],[18,-6],[14,-4]],[[4096,2114],[-8,-6],[-20,-1],[-9,-5],[-9,-1],[-9,0],[-7,-3],[-12,-11],[-9,-6],[-8,0]],[[3909,2086],[-20,-11],[-9,-5],[-22,-13],[-18,-8]],[[3840,2049],[-9,-4],[-23,-12],[-25,-13],[-15,-9],[-26,-13],[-16,-8],[-17,-6],[-12,-6],[-16,-10]],[[4005,2081],[-6,3],[-11,15],[-4,2],[-9,3],[-11,7],[-7,2],[-9,-5],[-20,-12],[-19,-10]],[[2583,2131],[6,-12],[4,-14],[12,-27],[3,-17],[8,-39],[1,-24],[-1,-15],[-6,-15],[-26,-35],[-13,-23],[-8,-13],[-3,-10]],[[3681,1968],[-12,-7],[-11,2],[-4,-3],[-15,-14],[-23,-13],[-15,-8],[-18,-7],[-22,-9],[-8,-8],[-9,-8],[-8,-4],[-7,-2],[-14,0],[-19,-4],[-12,-5],[-8,0],[-12,-4],[-21,-9],[-9,-8],[-7,-3],[-6,-1],[-12,3],[-12,-3],[-8,-3],[-22,-14],[-24,-12],[-26,-15],[-7,-3],[-23,0],[-7,-5],[-20,-13],[-22,-9],[-5,-5]],[[3188,2277],[-16,-12],[-2,-4],[-1,-8],[-5,-15],[2,-9],[10,-27],[8,-17],[7,-26],[6,-45],[0,-7],[-3,-23],[0,-3],[3,-9],[29,-38],[4,-8],[6,-16],[2,-20],[1,-27],[-4,-23],[-3,-10],[-6,-14],[0,-13],[1,-17],[3,-17],[11,-40],[0,-13],[-3,-21],[-5,-21]],[[3055,1897],[5,-7],[20,-13],[7,-8],[11,-10],[3,-8],[5,-16],[6,-13],[9,-7],[12,-5],[15,-9],[9,-7],[12,-12],[4,-8],[5,-12]],[[2672,2122],[19,-8],[18,-6],[56,-23],[21,-9],[18,-9],[13,-6],[27,-9],[9,-1],[21,-8],[24,-10],[30,-16],[11,-4],[16,-8],[20,-10],[10,-9],[6,-9],[9,-22],[6,-9],[11,-10],[19,-17],[9,-9],[8,-10],[2,-3]],[[3178,1762],[1,-3]],[[3179,1759],[2,-12],[4,-30],[0,-18]],[[3233,1774],[-4,-14],[-3,-12],[-3,-24],[-8,-16],[-9,-11],[0,-5]],[[3206,1692],[-15,5],[-6,2]],[[3185,1699],[-9,-7],[-12,-12],[-16,-10],[-30,-8],[-12,-3],[-19,-6],[-6,-6],[-10,-16],[-15,-38]],[[0,2486],[3,3],[11,7],[30,13],[16,10],[12,9],[9,3],[12,-3],[17,-9],[13,-4],[14,-2],[15,-1],[7,1],[18,5],[17,9],[21,16],[15,8],[13,4],[14,6]],[[2301,1525],[3,24],[3,9],[12,11],[9,10],[12,12],[12,9],[19,14],[17,7],[18,5],[7,6],[12,9],[15,11],[20,10],[6,6],[12,20],[7,12],[8,11],[9,16],[7,26],[5,7],[18,32],[7,24],[6,17],[12,29],[2,10],[1,15]],[[3056,1593],[-18,-38],[-6,-8],[-9,-12],[-17,-16],[-18,-14],[-27,-17],[-18,-9],[-18,-9]],[[3756,1436],[9,6],[25,9],[8,3],[16,9],[26,16],[15,11],[16,8],[18,9],[20,9],[21,10],[34,21],[17,11],[27,18],[12,8],[18,3],[12,4],[9,2],[30,6],[7,1]],[[3206,1692],[6,-18],[0,-12],[-3,-7],[-10,-18],[-2,-9],[3,-8],[6,-15],[2,-8],[-3,-10],[-6,-8],[-5,-9],[0,-6],[2,-8],[6,-12],[3,-10],[0,-15],[1,-14],[5,-10],[6,-22],[0,-7],[-3,-15],[-9,-20],[-2,-8],[-1,-10]],[[3202,1413],[1,-5]],[[3715,1352],[11,20],[10,24],[11,20],[6,17],[3,3]],[[3203,1408],[2,-4],[15,-6],[9,-2],[12,-1],[15,3],[3,-2],[4,-7],[17,-6],[16,-5],[21,0],[21,3],[11,3],[12,2],[19,-3],[15,1],[12,2],[36,10],[15,2],[32,1],[12,-1],[16,-6],[23,-3],[12,-8],[5,0],[15,3],[9,-1],[12,-6],[16,-9],[5,0],[25,-3],[26,-10],[16,-4],[27,-3],[6,4]],[[2235,1136],[-2,14],[0,11],[2,12],[6,16],[13,30],[6,20],[3,17],[2,30],[4,30],[5,29],[6,33],[4,12],[2,11],[1,21],[3,20],[3,12],[3,19],[2,31],[3,21]],[[2925,1470],[-10,-6],[-12,-7],[-6,-8],[-5,-6],[-1,-13],[-2,-16],[-3,-16],[-3,-11],[-7,-15],[-8,-12],[-13,-15],[-8,-17],[-3,-12],[0,-24],[-3,-35],[-3,-10],[-4,-15],[-5,-22],[0,-16],[-4,-24],[1,-25],[2,-15],[0,-36],[-2,-21],[-3,-33],[-4,-29],[-2,-23],[0,-16],[3,-14],[3,-21],[-3,-15],[-4,-17],[-3,-10],[0,-8],[1,-23]],[[2814,864],[5,-21],[0,-9],[-2,-15],[-4,-23],[-8,-41],[-3,-24],[2,-18],[-2,-12],[-3,-15],[-1,-8],[-2,-31],[3,-37]],[[4096,596],[-5,-4],[-11,-9],[-22,-12],[-3,-15],[-5,-6],[-13,-14],[-15,-1],[-11,-2],[-8,0],[-7,-1],[-12,-17],[-14,-18]],[[149,444],[6,-13]],[[255,2104],[2,-3],[18,-34]],[[325,1899],[1,-6],[4,-86],[0,-10],[1,-3]],[[199,2238],[10,-32],[12,-31],[16,-34],[18,-37]],[[275,2067],[4,-9],[9,-19],[12,-29],[3,-9],[5,-8],[7,-22],[3,-14],[3,-17],[4,-32]],[[185,2331],[0,-28],[3,-18],[1,-12],[3,-8],[6,-22],[1,-4]],[[257,2561],[-9,-18],[-12,-18],[-6,-15],[-11,-27],[-10,-23],[-11,-24],[-6,-18],[-3,-17],[-3,-16],[-1,-20],[0,-34]],[[199,2239],[0,-1]],[[325,1908],[0,-9]],[[331,1794],[10,-74],[7,-59],[2,-9],[6,-40],[1,-12],[-1,-27],[3,-18],[6,-29],[9,-38],[3,-15],[3,-34],[2,-37],[1,-24],[6,-38],[5,-19],[3,-17],[0,-77],[1,-73],[2,-31],[0,-49],[-2,-16],[-1,-23],[-6,-33],[-5,-39],[-1,-16],[1,-13],[2,-11],[4,-18],[11,-33],[3,-8],[18,-47],[9,-27],[16,-54],[12,-35],[9,-35],[9,-19],[5,-9],[15,-32],[4,-17],[0,-3],[-7,-7],[-3,-6],[0,-5],[12,0],[3,-7],[-3,-16],[3,-13],[-2,-11],[-4,-9],[-8,-10],[0,-6],[6,-10],[5,-12],[0,-7],[-8,-21],[-1,-14],[1,-21],[0,-17],[-3,-10],[-6,-15],[-3,-12],[-1,-5]],[[2235,1136],[-12,-1],[-62,-3],[0,-12],[1,-14],[8,-32],[3,-28],[0,-12],[-3,-16],[-5,-15],[-19,-48],[-6,-20],[-12,-28],[-9,-23],[-8,-23],[-6,-24],[-6,-24],[-4,-12],[-6,-26],[-3,-7],[-9,-28],[-15,-43],[-5,-13],[-7,-18],[-8,-15],[-4,-9],[-14,-24],[-7,-11],[-12,-21],[-3,-3],[-36,-62],[-12,-16],[-6,-6],[-15,-9],[-33,-16],[-18,-10],[-8,-6],[-7,-11],[-5,-7],[-3,-15],[2,-13],[1,-7],[9,-15],[6,-11],[0,-13],[-3,-11],[-6,-8],[-15,-15],[-21,-16]],[[4019,330],[4,-7],[1,-5]],[[3970,497],[-4,-11],[-2,-4],[2,-18],[-2,-15],[2,-15],[1,-22],[2,-3],[16,-27],[2,-4],[21,-29],[8,-12],[3,-7]],[[4024,318],[2,-11],[8,-18],[4,-13]],[[484,352],[-21,-20],[-6,-4],[-9,-14],[-3,-12],[-3,-15],[-5,-24],[-3,-11],[-6,-19],[0,-17],[-4,-11],[-11,-7],[-3,-5]],[[2799,610],[2,-12],[-2,-13],[-1,-11],[-5,-13],[-4,-8],[-8,-9],[-16,-14],[-20,-16],[-10,-12],[-6,-14],[-3,-11],[-6,-28],[-2,-14],[-3,-13],[-6,-13],[-6,-6],[-19,-10],[-3,-5],[-5,-7],[-6,-20],[-9,-11],[-4,-9],[-3,-12],[-6,-28],[-4,-17],[-4,-11],[-9,-16],[-2,-6],[2,-20],[3,-12],[6,-15],[6,-12],[11,-20],[4,-15]],[[4038,276],[8,-10],[9,-12],[4,-6],[2,-8],[-3,-7],[-9,-25],[-3,-21],[0,-18],[-3,-15],[0,-8],[7,-16],[-1,-12]],[[410,193],[-4,-15],[-2,-6],[9,-9],[0,-6],[-9,-11],[-4,-9],[-5,-13],[-7,-11]],[[155,431],[0,-16],[1,-16],[2,-24],[4,-32],[3,-20],[2,-6],[6,-24],[6,-27],[0,-18],[3,-6],[4,-31],[5,-15],[4,-10],[6,-12],[6,0],[6,9],[6,12],[6,7],[8,3],[6,0],[7,-3],[23,-18],[4,-7],[5,-14],[6,-24],[4,-11],[8,0],[19,-6],[8,3],[12,6],[6,2],[7,-2],[20,-10],[20,-8]],[[388,113],[-3,-10],[-5,-23],[-3,-6],[-6,-9]],[[2661,157],[0,-18],[-1,-18],[0,-11],[6,-19],[1,-14],[2,-14],[0,-13],[-3,-50]],[[4049,118],[1,-8],[-3,-12],[-10,-26],[-11,-43],[0,-11],[7,-18]],[[1832,316],[-9,-6],[-7,-8],[-8,-6],[-7,-4],[-20,-5],[-19,-8],[-8,-6],[-1,-3],[0,-7],[-5,-11],[0,-15],[-3,-4],[-11,-3],[-7,-3],[-5,-13],[-6,-6],[-7,-10],[-12,-26],[-12,-35],[-2,-15],[-1,-15],[9,-23],[0,-3],[-5,-7],[-7,-11],[-5,-7],[-7,-8],[-6,-7],[-3,-6],[-3,-23],[1,-12]],[[1141,148],[9,-3],[18,-3],[18,0],[15,1],[23,11],[7,2]],[[1026,217],[10,-4],[15,-6],[33,-21],[15,-11],[12,-9],[12,-7],[15,-10],[3,-1]],[[484,352],[9,-12],[13,-9],[39,-15],[8,-3],[7,-5],[6,-9],[11,-10],[6,-2],[10,0],[21,6],[12,-4],[12,-7],[23,-13],[10,-3],[12,0],[8,3],[15,10],[7,2],[8,0],[9,-2],[15,-6],[12,-4],[12,-3],[18,3],[7,-5],[8,-10],[16,-6],[17,-14],[6,-4],[9,-2],[20,-1],[6,3],[15,6],[18,0],[30,6],[7,0],[26,-8],[27,-7],[27,-10]],[[1231,156],[6,3],[8,0],[7,-3],[9,-10],[15,-7],[22,-5],[10,0],[30,-6],[15,-6],[23,-13],[3,-3],[0,-32],[7,-26],[18,-38],[4,-10]],[[357,39],[-6,-15],[-7,-11],[-2,-9],[0,-4]],[[2509,3406],[-3,-4],[-7,2],[-15,4],[-5,4],[-4,6],[2,5],[9,9],[1,3],[1,7],[2,3],[3,3],[11,6],[7,11],[6,3],[7,-1],[0,-5],[3,-5],[3,-4],[5,-1],[4,-3],[-2,-7],[-4,-7],[-3,-3],[-3,-2],[-8,-13],[-10,-11]],[[2470,3490],[11,-4],[5,-3],[0,-4],[-1,-5],[-3,-4],[-4,-2],[-9,-2],[-4,-4],[-6,-5],[-5,0],[-5,3],[-2,7],[0,5],[0,7],[1,4],[5,4],[4,1],[4,-1],[4,2],[5,1]],[[4096,1186],[0,-1186],[-4096,0],[0,4096],[1890,0],[-4,-7],[-4,-5],[-6,-2],[-23,0],[-15,-4],[-2,-1],[-1,-4],[-2,-2],[-9,-2],[-9,-4],[-16,3],[-7,-1],[0,-2],[4,-2],[8,-2],[5,-3],[2,-3],[1,-4],[2,-2],[6,0],[-26,-32],[-5,-17],[-7,-10],[-3,-13],[-3,-7],[-6,-11],[-5,-6],[-10,-9],[-5,-5],[-1,-4],[1,-6],[-1,-6],[-3,-5],[-12,-12],[-7,-5],[-6,-2],[-5,1],[-9,3],[-7,1],[0,-3],[4,0],[2,0],[4,-2],[0,-3],[-6,-2],[-6,0],[0,-3],[5,0],[4,0],[4,2],[1,3],[6,-2],[-17,-19],[-18,-27],[-3,-2],[-5,-3],[-3,-2],[-14,-19],[-2,-4],[-4,-13],[-4,-31],[5,-37],[0,-12],[-1,-3],[-1,-3],[-1,-2],[-2,-2],[-3,-2],[-7,-4],[-12,-10],[-6,-3],[-8,-12],[-4,-4],[-27,-8],[-8,-8],[0,-16],[5,-32],[-2,-6],[-5,-5],[-11,-8],[-11,-13],[-5,-2],[-21,-1],[-7,1],[-24,8],[-5,4],[-5,5],[-6,4],[-7,2],[-8,-2],[-4,-3],[-10,-11],[-4,-2],[-8,-2],[-9,-5],[-25,-5],[-7,-3],[-8,-5],[-5,-5],[-3,-6],[-4,-4],[-30,-12],[-6,-2],[-16,-1],[-23,-7],[-6,-3],[-3,-3],[-1,-2],[-1,-4],[0,-5],[2,-3],[2,0],[4,1],[4,1],[8,1],[23,6],[62,3],[29,5],[6,2],[13,9],[5,2],[5,-3],[5,-6],[3,-7],[2,-9],[1,-3],[1,-3],[0,-5],[-2,-4],[-5,-7],[-3,-4],[-1,-7],[1,-7],[4,-3],[9,4],[5,0],[2,1],[1,2],[1,4],[1,1],[12,13],[8,4],[6,2],[17,-1],[2,1],[6,3],[4,1],[3,0],[8,0],[4,0],[16,5],[16,8],[90,62],[27,6],[6,3],[7,5],[27,9],[8,4],[9,6],[7,8],[3,8],[4,7],[8,4],[18,3],[0,-2],[-2,-2],[-2,-1],[-2,-2],[-1,-3],[7,2],[8,3],[8,5],[6,4],[6,7],[9,14],[5,6],[9,9],[10,7],[46,24],[11,9],[5,9],[-2,6],[-4,7],[-1,6],[4,5],[8,1],[7,-11],[8,-3],[0,3],[-4,3],[-3,4],[1,4],[3,4],[5,1],[18,-3],[10,1],[5,0],[5,-4],[1,-5],[0,-5],[-1,-12],[0,-18],[0,-5],[-3,-5],[-4,-3],[-4,-2],[-4,-3],[-9,-12],[-4,-3],[-4,-1],[-4,-1],[-12,-1],[40,-25],[6,-6],[4,-6],[1,-8],[-4,-22],[1,-21],[1,-2],[2,-2],[3,-3],[1,-5],[-3,-4],[-1,-4],[-1,-4],[4,-8],[11,-15],[4,-16],[5,-6],[24,-20],[3,-6],[3,-25],[3,-8],[3,-7],[-7,-10],[-6,0],[-17,10],[4,-8],[3,-3],[3,-8],[-3,-12],[-8,-4],[-7,-4],[-3,-7],[0,-7],[-7,-5],[-10,0],[-8,5],[-8,6],[-8,5],[-3,-6],[-1,-4],[4,-1],[4,-7],[6,-2],[-1,-9],[4,-8],[5,-3],[5,-2],[-2,8],[-1,6],[3,2],[9,-1],[20,2],[9,2],[4,2],[1,8],[0,6],[0,7],[3,4],[5,4],[3,8],[3,2],[10,-3],[8,-1],[7,-10],[10,-18],[6,-6],[8,-5],[8,-3],[5,0],[5,1],[4,0],[1,-5],[-1,-2],[-5,-8],[-2,-4],[5,3],[5,10],[5,3],[1,-4],[-1,-4],[-1,-3],[-3,-3],[-1,-4],[1,-3],[4,-7],[3,-12],[3,-7],[4,-4],[2,10],[3,4],[3,4],[4,3],[2,4],[0,3],[1,4],[1,5],[3,4],[8,10],[11,10],[11,5],[11,-3],[7,2],[9,0],[9,-3],[8,-4],[2,12],[7,8],[9,4],[31,9],[9,1],[9,-1],[9,-3],[7,-3],[21,-14],[2,-3],[1,-6],[-1,-5],[-9,-16],[7,7],[5,8],[3,-8],[1,-7],[0,-7],[-1,-9],[-3,-8],[-7,-14],[-3,-8],[3,0],[7,15],[3,0],[2,-6],[4,-7],[4,-6],[5,-3],[-6,18],[-4,19],[1,29],[-4,6],[0,3],[5,-1],[1,-5],[0,-11],[3,7],[1,6],[4,5],[9,2],[9,-1],[5,-3],[3,-4],[5,-5],[-1,7],[2,2],[4,-1],[3,-5],[3,5],[6,0],[8,-5],[13,-11],[6,-6],[3,-8],[1,-8],[5,6],[-5,11],[-15,20],[-5,-2],[-1,3],[-2,5],[9,10],[12,9],[13,3],[9,-10],[5,24],[5,6],[9,6],[7,0],[3,-6],[-2,-10],[4,2],[6,6],[5,2],[-2,-7],[-9,-10],[-1,-4],[0,-7],[3,-5],[4,-4],[8,-3],[13,-3],[3,-3],[1,-8],[-1,-5],[-2,-6],[-3,-6],[-4,-4],[0,-3],[5,0],[-3,-5],[-9,-8],[-3,-4],[-1,-4],[-1,-30],[-1,-4],[-4,-7],[-2,-8],[-2,-3],[-4,-2],[-2,-2],[-10,-16],[-1,-2],[-1,-3],[-1,-19],[-1,-3],[-2,-3],[-2,-2],[-2,-3],[-1,-3],[-1,-8],[-1,-3],[-6,-9],[-1,-3],[0,-4],[2,-7],[1,-20],[-1,-7],[-23,-32],[-3,-4],[-9,-2],[-7,-4],[-6,-7],[-4,-7],[9,-3],[16,3],[27,10],[7,5],[1,5],[0,5],[2,8],[2,2],[8,4],[1,1],[2,1],[1,7],[1,2],[9,9],[3,6],[3,8],[0,7],[0,13],[0,7],[3,11],[35,59],[6,16],[3,14],[1,7],[1,5],[25,52],[10,15],[11,10],[2,1],[3,1],[6,7],[1,6],[5,14],[2,12],[13,7],[14,10],[14,15],[7,17],[9,13],[15,2],[8,4],[9,4],[5,4],[3,1],[0,-3],[-7,-7],[-6,-5],[-1,-9],[-3,-5],[-3,-13],[-7,-5],[-2,-3],[-3,-2],[-1,-2],[2,-5],[-1,-9],[-4,-8],[-5,-7],[-10,-3],[-6,-5],[-2,-8],[-5,-4],[0,-3],[5,0],[6,2],[4,3],[3,7],[9,4],[10,6],[5,9],[2,8],[4,2],[3,5],[3,2],[1,1],[-3,7],[-1,3],[3,3],[7,3],[3,2],[1,1],[2,5],[0,1],[1,2],[1,-1],[2,0],[3,1],[3,0],[2,1],[1,1],[0,3],[0,2],[27,40],[1,2],[0,1],[0,2],[1,1],[1,1],[4,0],[1,1],[4,4],[2,2],[2,4],[6,17],[8,12],[5,-1],[4,-7],[5,-8],[4,-11],[11,-20],[5,-6],[4,-6],[3,-8],[3,-5],[4,0],[8,-12],[4,-2],[9,-1],[5,-2],[4,-4],[3,-4],[2,-5],[2,6],[-1,7],[-2,7],[-1,6],[-4,8],[-12,13],[-2,8],[6,-4],[7,-1],[7,1],[19,5],[7,3],[6,5],[5,6],[-3,1],[-12,-1],[-4,1],[-4,1],[-3,1],[-4,2],[-3,-3],[-7,-2],[-7,-1],[-8,1],[-7,4],[-3,4],[1,7],[2,8],[2,30],[3,17],[10,13],[7,9],[5,-5],[-2,-12],[1,-11],[6,-2],[25,-5],[2,1],[1,7],[2,5],[2,18],[6,16],[8,7],[12,-8],[-3,6],[-4,4],[-3,5],[2,5],[-3,2],[3,3],[4,-2],[4,2],[5,2],[5,1],[-5,2],[-4,0],[-10,-2],[-1,2],[-5,10],[-2,9],[2,5],[5,1],[17,0],[6,1],[6,2],[3,5],[1,3],[0,4],[1,4],[2,2],[1,1],[4,6],[1,1],[1,9],[2,8],[2,1],[2,2],[1,2],[-2,5],[-1,2],[2,10],[1,4],[-2,4],[-2,2],[-3,2],[-1,2],[1,7],[2,6],[15,21],[27,23],[5,-6],[1,-2],[1,-5],[0,-2],[-2,-5],[0,-3],[1,-1],[3,-2],[1,-1],[3,-5],[12,-12],[3,0],[5,15],[25,16],[4,8],[6,1],[11,-3],[7,-4],[-2,5],[-6,4],[-1,10],[1,12],[3,6],[1,6],[1,3],[7,-6],[6,-7],[2,-7],[-1,-6],[9,1],[8,-4],[3,-9],[0,-16],[-2,-4],[-5,-4],[-3,-4],[3,-4],[3,0],[27,12],[10,6],[6,5],[4,6],[4,13],[3,2],[-3,8],[1,13],[4,-2],[5,-3],[8,-7],[-2,-6],[3,-4],[2,-3],[1,-4],[1,-4],[2,-3],[3,-4],[6,-9],[2,-6],[0,-6],[-3,-7],[26,0],[6,-3],[1,-11],[5,-4],[0,5],[1,4],[1,3],[3,4],[-2,1],[-2,2],[-1,2],[0,3],[-8,4],[-9,12],[-3,3],[-1,-4],[-2,-4],[-2,-2],[-3,-3],[0,40],[2,5],[6,1],[-5,5],[5,3],[6,1],[6,0],[5,-4],[-1,-3],[-2,-3],[-2,-2],[2,-5],[-2,-12],[3,-8],[-1,4],[1,4],[1,3],[4,2],[1,-5],[1,-5],[3,-2],[5,-1],[0,2],[-3,2],[-3,5],[0,4],[3,5],[5,1],[5,-3],[8,-6],[-1,6],[-2,3],[-3,4],[-2,5],[6,-3],[5,2],[3,4],[5,2],[5,-3],[1,-5],[-1,-7],[1,-5],[3,0],[4,2],[3,-2],[0,-5],[-2,-6],[6,4],[1,5],[-1,6],[-2,6],[17,-12],[1,-4],[-2,-5],[-3,-2],[-3,5],[-2,0],[-1,-4],[-2,-3],[-3,-2],[-4,-1],[0,-2],[5,-6],[2,0],[3,6],[5,1],[6,-2],[6,-2],[0,4],[1,2],[2,2],[2,2],[2,-6],[1,-5],[-2,-6],[-3,-6],[-2,-1],[-7,-3],[-1,-2],[1,-3],[3,0],[4,2],[2,3],[4,-3],[3,-4],[2,-4],[1,-5],[2,7],[-2,8],[0,6],[5,4],[0,-2],[2,-3],[0,-2],[2,3],[0,2],[-1,2],[-1,4],[1,3],[3,3],[1,3],[1,8],[2,3],[4,2],[4,-2],[1,-3],[0,-5],[-2,-3],[1,-1],[1,0],[1,-1],[-3,-3],[0,-10],[-2,-5],[2,-2],[3,4],[2,-5],[0,-7],[2,-4],[6,-1],[-4,-4],[-7,-5],[-2,-4],[1,-4],[5,-7],[2,-4],[1,4],[1,14],[1,3],[2,4],[3,3],[2,2],[1,-1],[4,-1],[0,8],[0,4],[3,1],[5,0],[3,2],[3,7],[3,13],[5,-5],[-1,-9],[-4,-19],[3,0],[2,6],[3,-2],[2,-3],[0,-3],[-2,-3],[7,0],[-1,-2],[-3,-6],[-1,-2],[3,1],[1,1],[1,1],[2,-6],[-3,-3],[-5,-2],[-4,-2],[-3,-4],[-2,-5],[2,-5],[6,-3],[0,6],[-2,5],[1,3],[6,3],[8,-2],[4,1],[0,6],[3,-2],[0,4],[0,18],[3,-1],[2,-3],[2,-2],[0,-4],[3,0],[1,3],[1,1],[2,1],[3,0],[-2,3],[-2,2],[-3,2],[-3,1],[5,4],[10,13],[5,3],[0,2],[-5,3],[5,-1],[3,-2],[3,-3],[2,-4],[-4,-1],[-1,-3],[1,-3],[4,-3],[-6,-2],[-2,0],[0,-3],[2,-3],[0,-2],[-3,-2],[-4,-1],[0,-2],[4,-1],[1,-2],[0,-4],[-2,-3],[4,1],[3,2],[2,3],[1,4],[2,0],[-2,-20],[-1,-1],[0,-1],[1,-3],[4,-8],[1,-2],[1,5],[-1,5],[-1,4],[3,6],[3,0],[0,-8],[3,2],[2,4],[0,12],[4,-4],[9,-13],[2,-5],[-2,-6],[-11,-18],[6,5],[9,15],[4,3],[-1,5],[1,9],[3,6],[8,-2],[2,-5],[1,-4],[1,-3],[5,-1],[4,2],[-1,3],[-8,15],[0,4],[7,0],[8,-4],[6,-20],[-9,-11],[-1,-4],[3,0],[2,2],[1,-3],[-1,-5],[-2,-4],[-5,-3],[-5,0],[-4,2],[-1,6],[-3,0],[-2,-5],[-3,-4],[-16,-9],[-5,-5],[-3,-5],[-1,-7],[4,6],[7,6],[7,6],[7,2],[1,-1],[9,0],[10,1],[8,2],[8,-5],[6,8],[2,8],[5,5],[10,5],[6,6],[5,2],[5,-2],[3,3],[7,1],[7,2],[4,-5],[-1,-5],[-7,-3],[-8,-1],[-7,-5],[3,-6],[-2,-6],[-4,-5],[0,-4],[6,-3],[-1,-8],[-2,-6],[5,0],[1,-3],[-4,-5],[4,0],[4,1],[3,2],[2,3],[1,2],[4,-2],[4,-3],[3,-1],[5,5],[3,6],[7,1],[-1,-7],[1,-7],[1,-8],[2,-3],[1,2],[1,8],[2,5],[4,4],[4,1],[2,-5],[0,-14],[0,-3],[-2,-6],[0,-4],[5,4],[3,7],[2,7],[0,10],[2,0],[4,-6],[9,-11],[2,-6],[-2,6],[-6,9],[-2,5],[-1,1],[-1,3],[0,2],[7,2],[-4,5],[-3,3],[1,4],[4,5],[2,8],[5,7],[6,5],[12,3],[10,-4],[0,-14],[-3,0],[-3,0],[-5,-7],[-5,-7],[-2,-6],[6,2],[3,-1],[-1,-3],[-5,-3],[0,-1],[1,-1],[0,-1],[1,-2],[-1,-2],[-2,-3],[-2,-2],[4,-6],[-19,-40],[12,13],[3,3],[5,-1],[5,-2],[5,-2],[5,2],[4,8],[3,5],[3,0],[1,-5],[-3,-13],[0,-5],[5,4],[2,7],[0,15],[1,4],[3,3],[3,3],[2,2],[3,-1],[1,-3],[1,-3],[1,-3],[6,-11],[1,-7],[-3,-2],[-4,-3],[-3,-6],[-1,-6],[4,-6],[5,4],[3,4],[5,10],[3,-5],[0,-4],[-1,-4],[-2,-5],[6,4],[1,6],[-2,7],[0,6],[2,4],[2,4],[3,5],[0,7],[3,0],[0,-1],[0,-1],[1,-1],[1,-2],[4,1],[-1,10],[1,4],[4,4],[6,-3],[0,-3],[1,-5],[-3,0],[-2,-2],[5,-6],[-4,-1],[-2,-3],[-1,-8],[3,1],[3,1],[3,-1],[3,-1],[-5,-2],[-14,-2],[-1,-15],[2,-3],[4,-1],[5,-1],[4,-2],[2,-3],[0,-8],[3,-4],[3,2],[2,3],[0,2],[-2,4],[1,0],[1,1],[1,0],[2,1],[-2,6],[3,10],[5,12],[7,18],[8,10],[5,-1],[0,-12],[-11,-15],[-2,-5],[-4,-5],[-2,-2],[0,-9],[0,-5],[3,11],[2,4],[5,3],[-1,-6],[-1,-2],[4,-7],[-3,-6],[-5,-6],[-2,-8],[10,8],[3,2],[0,-2],[-1,-3],[1,-3],[0,-2],[-2,-2],[-4,-5],[-1,-3],[8,5],[6,5],[3,9],[0,11],[4,-5],[2,-9],[0,-8],[-2,-3],[-5,-3],[2,-6],[5,-7],[4,-4],[-3,11],[3,8],[6,2],[4,-3],[3,5],[2,13],[2,6],[6,3],[9,25],[8,0],[2,-9],[-12,-24],[-2,-10],[2,0],[0,2],[2,4],[7,5],[5,7],[4,-2],[1,-7],[1,-6],[-1,-5],[4,-4],[4,-2],[-2,-7],[3,-2],[0,-7],[-2,-6],[-3,-4],[-2,-3],[-2,-5],[13,-1],[3,1],[4,4],[2,3],[1,5],[1,5],[-2,4],[-3,5],[1,4],[4,4],[4,1],[6,-1],[1,-3],[-2,-2],[-5,-2],[2,0],[1,-1],[1,0],[1,-1],[-1,-3],[-1,-3],[1,-2],[1,-2],[9,16],[6,5],[5,-6],[-4,0],[-3,-2],[-1,-3],[1,-5],[2,1],[3,1],[2,0],[-2,-4],[-3,-3],[-3,-4],[1,-6],[1,1],[4,2],[0,3],[4,5],[1,4],[2,0],[2,-15],[-1,-3],[-4,-9],[-2,-7],[0,-4],[6,5],[15,19],[1,3],[0,3],[1,4],[2,4],[3,2],[12,5],[-10,0],[7,2],[5,0],[2,-3],[1,-7],[0,-4],[-2,-6],[0,-3],[-2,-1],[-7,0],[-1,-1],[-9,-3],[-1,-1],[-2,-3],[-1,-3],[1,-3],[-1,-4],[-3,-10],[-1,-6],[2,-6],[-9,2],[-5,-3],[-9,-9],[5,0],[3,2],[2,3],[0,5],[5,-3],[2,-4],[-1,-4],[-3,-4],[4,-1],[2,1],[2,2],[2,3],[6,-4],[1,-6],[-1,-6],[1,-5],[4,7],[1,9],[-3,16],[2,2],[3,4],[4,4],[3,1],[2,-1],[-1,-4],[-2,-5],[-3,-2],[4,1],[5,5],[2,1],[1,2],[6,10],[2,6],[9,16],[0,5],[-2,6],[5,3],[7,0],[6,-5],[1,-4],[4,-29],[-3,2],[-2,1],[-4,-10],[-7,-6],[-9,-5],[-10,-7],[3,-2],[2,4],[4,2],[3,1],[3,-2],[-3,-5],[-2,-5],[-2,-6],[0,-6],[-3,-2],[-5,-2],[-3,-5],[3,-7],[2,6],[1,3],[0,3],[12,-5],[4,-8],[-1,-11],[-4,-15],[-3,-5],[-1,-6],[0,-7],[2,-6],[4,-4],[4,-3],[5,-2],[14,4],[5,4],[-2,7],[6,3],[12,4],[2,4],[-1,6],[-9,12],[-2,6],[3,10],[7,12],[9,8],[9,0],[1,9],[5,7],[5,0],[4,-8],[2,0],[2,6],[4,4],[4,1],[2,2],[3,2],[3,-3],[0,-4],[-8,-1],[9,0],[3,5],[0,8],[3,7],[1,-13],[1,-4],[3,-2],[4,-2],[4,-1],[3,1],[5,-1],[2,-5],[0,-7],[-8,2],[4,-6],[4,0],[0,-12],[-2,0],[-5,-4],[-1,-9],[2,0],[3,7],[3,0],[0,-2330]],[[2888,3660],[-6,-6],[-5,-1],[-6,0],[-6,-3],[-3,2],[-1,3],[-1,2],[0,3],[-3,-5],[-4,2],[-7,8],[-6,3],[-4,1],[-2,3],[4,6],[8,6],[2,3],[2,13],[6,4],[8,2],[16,-1],[6,-3],[5,-14],[4,-6],[-6,-9],[-2,-2],[1,-8],[0,-3]],[[3112,3884],[5,-2],[10,2],[4,-5],[4,-6],[0,-7],[-3,-7],[2,-4],[0,-7],[0,-6],[-2,-3],[-4,-2],[-10,0],[-6,-1],[1,6],[-2,7],[-4,14],[-13,5],[0,6],[-3,11],[2,3],[3,2],[1,5],[3,2],[7,-2],[3,-4],[2,-7]],[[3022,3863],[0,-2],[5,2],[8,-2],[7,-4],[3,-6],[-3,-8],[-8,-7],[-16,-8],[-1,6],[-5,9],[-2,5],[2,1],[2,3],[2,3],[-4,2],[0,3],[2,2],[1,2],[3,0],[2,0],[2,-1]],[[2331,4096],[-7,-4],[-24,-7],[-11,-1],[-4,-2],[-4,-2],[-3,-2],[-4,-1],[-3,2],[-4,8],[-8,8],[-1,1],[73,0]],[[1830,3892],[7,-18],[7,-3],[8,-2],[4,-6],[1,-8],[-2,-9],[-23,-44],[-5,-14],[-7,-44],[-7,-21],[-2,-3],[-4,-2],[-9,11],[-7,-3],[-29,-53],[-9,-12],[-44,-37],[-15,-9],[-5,-1],[-3,-3],[-3,-3],[-3,-3],[-10,-4],[-2,-1],[-1,-1],[-1,-5],[-1,-2],[-1,-1],[-6,-1],[-2,-1],[-14,-13],[-17,-11],[-7,-3],[-17,-2],[-14,-8],[-8,1],[-6,4],[-5,5],[-4,13],[5,11],[14,19],[2,5],[1,8],[2,13],[2,5],[4,4],[24,19],[3,1],[1,2],[3,8],[0,1],[2,2],[3,1],[8,1],[12,7],[12,12],[6,14],[-8,15],[2,49],[3,14],[19,20],[16,34],[8,12],[9,11],[11,11],[18,11],[5,5],[6,3],[20,7],[5,1],[3,0],[-3,-4],[-3,-7],[-1,-7],[0,-5],[0,-2],[0,-2],[1,-2],[-1,-3],[-2,-4],[-5,-5],[-1,-4],[3,0],[2,4],[7,7],[3,4],[0,5],[-2,4],[0,3],[4,3],[0,-7],[3,0],[0,7],[3,-3],[3,-2],[3,-1],[3,-1],[-8,11],[-2,4],[0,5],[1,2],[1,1],[1,3],[4,1],[20,-5],[6,-2],[5,-7]],[[2241,4048],[21,-9],[11,1],[77,-17],[52,-15],[48,2],[14,3],[8,1],[4,0],[9,-2],[2,-2],[8,-7],[4,-1],[0,2],[-4,5],[-4,7],[1,7],[7,5],[22,11],[3,-2],[2,0],[2,1],[3,1],[5,0],[4,0],[4,2],[10,1],[7,2],[4,1],[4,-1],[4,-3],[5,-2],[4,1],[5,1],[5,-1],[4,-3],[10,3],[24,-3],[6,0],[6,-4],[5,-5],[7,1],[5,4],[7,5],[12,2],[5,-4],[0,-10],[-4,-5],[0,-4],[12,2],[15,1],[42,-11],[7,0],[13,4],[9,1],[8,-1],[21,-6],[42,-6],[10,-4],[2,0],[4,-4],[3,-3],[2,-3],[1,-7],[-1,-16],[-1,-5],[-2,-4],[-4,-4],[-4,-3],[-4,-2],[-3,-2],[-4,-12],[-9,-14],[-2,-11],[-1,-22],[-1,-5],[-6,-14],[-1,-9],[-1,-5],[-3,-4],[4,-3],[-1,-6],[-2,-8],[-1,-8],[-8,4],[-7,6],[-13,13],[5,-12],[8,-11],[5,-10],[-5,-10],[4,-8],[1,-9],[-1,-10],[-4,-8],[-8,-7],[-19,-7],[-8,-6],[2,-3],[-1,-4],[-6,-8],[-4,-3],[-2,-1],[0,-1],[4,-3],[3,0],[3,2],[3,-1],[0,-6],[-1,-1],[-8,-6],[0,-3],[9,2],[0,-6],[-5,-7],[-6,-4],[-5,-2],[-17,-13],[-8,-2],[-6,-4],[-14,-15],[-8,-4],[-12,2],[-9,6],[-8,9],[-6,8],[-3,-2],[4,-7],[6,-8],[7,-5],[7,-3],[5,-4],[2,-7],[-3,-6],[-8,2],[0,-3],[5,-1],[10,0],[5,-1],[6,-4],[1,-4],[-3,-22],[-12,-28],[-2,0],[-7,6],[-30,38],[-8,5],[-10,-4],[12,-1],[4,-5],[-3,-5],[-10,-3],[0,-3],[2,-3],[0,-3],[-1,-3],[-4,-4],[5,2],[9,7],[3,2],[3,-2],[2,-5],[1,-5],[2,-4],[8,-2],[1,0],[2,-1],[2,-6],[1,-1],[4,-1],[12,-9],[0,-2],[-6,-2],[-6,-2],[-5,-2],[-5,-4],[-2,-3],[0,-3],[-2,-3],[-3,-1],[-6,4],[-3,1],[-2,-4],[-2,-3],[-7,-2],[-18,-3],[-5,-2],[-4,-2],[-6,1],[-3,1],[0,3],[0,2],[-3,1],[-3,0],[-3,1],[-1,0],[-2,2],[-2,3],[-5,12],[-1,4],[-8,16],[0,2],[-12,0],[-2,2],[-1,2],[-2,1],[-4,-2],[6,-5],[3,-8],[0,-9],[-8,-27],[1,-9],[7,-5],[-3,-2],[-2,-1],[0,2],[0,1],[-2,2],[-2,-2],[-2,-1],[-3,-1],[-3,-1],[3,-3],[4,0],[3,-1],[2,-6],[3,3],[2,1],[5,2],[-7,-8],[-12,-5],[-13,0],[-6,0],[-7,1],[-8,5],[-6,6],[-8,5],[-13,13],[-2,4],[1,5],[2,4],[1,3],[-1,4],[-3,-4],[-4,-8],[-3,-9],[2,-8],[12,-8],[8,-11],[-2,-8],[-5,-3],[-12,3],[-7,2],[-7,-1],[-9,4],[-5,8],[-1,12],[-2,5],[-2,21],[-3,-1],[-3,-1],[-3,1],[-4,1],[3,-3],[3,-3],[3,-3],[1,-5],[0,-18],[-2,1],[-1,0],[-2,0],[-2,1],[4,-4],[-1,-6],[-2,-5],[-5,-3],[-6,-1],[-2,-5],[1,-6],[3,-5],[-5,0],[0,-3],[5,-1],[0,-4],[-2,-9],[-3,-1],[-16,3],[-7,-3],[-12,-13],[-5,-4],[-7,1],[-6,7],[-5,10],[-3,16],[-7,9],[-2,4],[1,7],[3,11],[-1,5],[-2,-7],[-4,-11],[-2,-6],[2,-9],[11,-22],[0,-4],[0,-4],[-1,-4],[-2,-3],[-2,-3],[-12,-10],[-9,-4],[-3,-1],[-5,1],[-4,3],[-3,3],[-4,3],[-4,1],[-7,1],[-4,1],[-4,2],[-4,4],[-3,2],[-9,2],[-7,4],[-4,1],[-8,-1],[-2,2],[-8,8],[-1,1],[0,3],[2,17],[-1,2],[-8,0],[-1,-3],[1,-5],[0,-9],[-3,-5],[-10,-8],[-2,-4],[-23,-11],[-5,3],[-3,4],[-4,4],[-13,4],[-4,5],[-1,7],[1,26],[-1,5],[-4,2],[-5,1],[-4,1],[-2,5],[1,3],[2,1],[3,0],[2,2],[3,6],[0,2],[-2,5],[-3,6],[-1,4],[0,2],[2,7],[1,3],[-7,-5],[0,-6],[5,-13],[1,-1],[1,-1],[0,-2],[-2,-1],[-1,0],[-1,0],[-1,-1],[-3,-3],[-2,-2],[-2,-3],[-1,-3],[4,-6],[8,-5],[6,-5],[-2,-7],[-2,-6],[-2,-18],[-2,-7],[-2,0],[-1,7],[-9,25],[-3,0],[7,-27],[1,-9],[-4,-7],[-8,-2],[-10,1],[-8,2],[9,-5],[11,-3],[5,-4],[-8,-6],[-10,-3],[-11,-1],[-10,0],[-56,12],[-5,2],[-9,6],[-2,2],[-1,2],[2,6],[5,5],[7,2],[-7,17],[-57,56],[-5,8],[-3,8],[-1,3],[-10,12],[-3,4],[0,4],[2,8],[4,3],[0,2],[-2,2],[-2,0],[0,1],[-5,11],[0,5],[0,8],[12,45],[0,7],[-2,8],[-5,9],[-3,9],[5,6],[5,-1],[15,-9],[22,-10],[17,-3],[6,-2],[20,-11],[-5,9],[-16,15],[10,3],[5,3],[2,1],[10,-2],[1,-1],[6,4],[0,4],[-4,3],[-7,2],[3,7],[6,5],[5,1],[6,-1],[8,0],[-7,4],[-6,2],[-6,-1],[-5,-3],[-6,-6],[-6,-5],[-8,-2],[-7,-1],[-3,-1],[-8,-5],[-3,-2],[-3,0],[-26,2],[-8,2],[-3,5],[-1,3],[-7,10],[-2,6],[-2,12],[0,27],[2,14],[2,6],[3,5],[2,5],[-2,4],[3,4],[5,0],[4,-2],[3,-5],[-1,9],[-5,4],[-6,2],[-6,6],[0,2],[0,11],[1,2],[4,3],[0,1],[0,3],[-4,1],[-1,2],[3,15],[15,40],[5,-5],[5,-8],[3,-9],[2,-7],[4,-3],[28,-14],[7,-2],[4,0],[10,1],[1,1],[-1,1],[-1,3],[-2,2],[-20,7],[-22,4],[-3,2],[-1,6],[-2,8],[-9,24],[-2,7],[-1,8],[1,6],[7,20],[1,14],[1,4],[2,2],[4,5],[1,2],[1,6],[2,8],[5,12],[3,3],[12,10],[4,2],[1,2],[6,10],[3,1],[5,0],[4,0],[4,0],[7,3],[5,4],[6,4],[9,1],[8,-1],[6,-2],[6,0],[6,3],[4,6],[2,7],[4,5],[6,3],[8,-1],[21,-5],[64,-6]],[[2923,3720],[-6,-1],[-18,1],[-7,2],[-3,4],[-1,6],[0,7],[2,8],[10,11],[4,10],[7,12],[2,4],[2,4],[18,8],[11,-12],[3,-5],[-9,-1],[0,-2],[9,-5],[-2,-12],[-12,-23],[-3,-11],[-2,-2],[-5,-3]],[[1775,3927],[-7,-2],[-4,3],[1,8],[4,4],[6,3],[5,4],[2,6],[2,2],[5,3],[2,4],[24,54],[8,7],[4,7],[2,2],[10,1],[3,1],[3,2],[6,7],[0,2],[16,0],[1,-2],[-1,-1],[-1,0],[-1,0],[-2,-5],[-1,-7],[0,-6],[2,-2],[-5,-3],[-2,-7],[0,-13],[-6,-15],[-13,-14],[-28,-21],[-23,-12],[-12,-10]],[[1974,3882],[3,-13],[3,-13],[0,-5],[-4,-11],[-7,-6],[-11,-3],[-12,0],[-11,-3],[-15,-14],[-9,-3],[-9,-2],[-10,-5],[-9,-6],[-6,-5],[-2,0],[-3,7],[-1,9],[1,10],[3,9],[7,11],[2,2],[1,1],[1,5],[1,1],[3,1],[5,-3],[2,0],[8,5],[14,16],[8,7],[17,8],[18,7],[-7,-13],[0,-5],[2,0],[12,20],[2,-1],[1,-1],[0,-3],[2,-4]],[[1950,3984],[-11,-9],[-3,1],[-3,2],[-9,3],[-1,3],[-1,4],[-1,1],[-14,7],[-9,14],[-1,13],[13,4],[0,2],[-3,1],[-7,4],[18,31],[4,15],[9,12],[8,2],[11,2],[68,0],[2,-1],[9,-3],[5,-2],[3,-3],[3,-3],[2,-4],[0,-2],[0,-4],[0,-2],[4,-6],[1,-1],[0,-7],[-4,-6],[-14,-13],[-7,-4],[-23,-11],[-8,-5],[-20,-21],[-7,-6],[-14,-8]],[[2505,4096],[4,-3],[3,0],[1,-1],[1,-4],[-1,-3],[-2,-3],[-2,-2],[0,-5],[-2,0],[-4,1],[-2,1],[-2,-7],[-12,-9],[-3,-5],[-4,-4],[-9,-3],[-10,-2],[-71,-1],[-11,-4],[-42,16],[3,12],[8,9],[22,17],[135,0]],[[1001,2698],[4,6],[69,19],[-18,47],[76,37],[1,-40],[149,37],[28,-108],[-81,0],[-24,-34],[-61,6],[-55,-38],[-52,32],[2,29],[-38,7]],[[1296,2042],[25,57],[219,-2],[4,39],[115,43],[98,-9],[15,-28],[-18,-59],[-58,-19],[-31,-127],[-76,-42],[-164,2],[-76,54],[-53,91]],[[1137,1454],[28,46],[36,-2],[31,-37],[98,-8],[313,90],[22,-22],[120,-10],[91,64],[94,-67],[0,-95],[-44,-50],[1,-48],[45,-45],[-20,-67],[-151,-122],[-115,9],[18,-66],[-78,-111],[-184,21],[-90,32],[-38,42],[8,70],[-61,138],[20,71],[-81,-44],[-63,211]],[[2135,4],[1,122],[50,0],[14,25],[-28,43],[29,154],[92,11],[-16,-278],[21,-55],[-24,-21],[-139,-1]],[[109,2226],[2,37],[57,17],[-5,35],[69,52],[-6,54],[144,39],[30,-35],[0,-29],[-39,-12],[-87,19],[12,-27],[-24,-38],[64,-90],[-107,5],[-50,-38],[-7,-52],[-53,63]],[[4064,3614],[32,24],[0,-83],[-8,4],[-24,55]],[[3305,1885],[15,61],[42,-5],[22,75],[56,-17],[26,-120],[-161,6]],[[1043,3178],[60,52],[-45,130],[71,15],[88,114],[241,48],[10,-40],[-41,-17],[29,-46],[-20,-59],[72,-166],[-43,-97],[-217,-28],[-205,94]],[[1543,2402],[10,104],[31,28],[-13,58],[28,4],[42,71],[81,47],[-2,-35],[88,-10],[12,-50],[49,-19],[43,-82],[0,-416],[-109,-7],[-35,26],[-11,48],[-67,11],[-146,-44],[-1,266]],[[2116,2251],[26,149],[53,29],[26,-11],[58,62],[79,-70],[-106,-132],[20,-34],[-26,-38],[-44,-14],[-86,59]],[[1001,532],[13,24],[81,-12],[42,-12],[-1,-25],[141,-28],[-69,-81],[34,-4],[-44,-250],[-61,4],[-112,64],[35,205],[-59,25],[0,90]],[[1034,3957],[78,44],[35,-64],[132,13],[15,-19],[6,53],[-59,59],[-34,2],[148,-4],[2,-37],[-62,-96],[-124,-20],[-42,-31],[-29,-76],[-30,59],[37,41],[-73,76]],[[1215,2242],[83,161],[18,81],[-21,27],[32,69],[109,-106],[44,-175],[63,103],[-3,-305],[-191,8],[-53,-27],[-21,39],[-52,13],[16,70],[-24,42]],[[661,1999],[2,90],[28,1],[-20,23],[34,12],[-44,166],[19,51],[123,11],[62,47],[89,13],[-14,55],[62,21],[49,97],[118,-112],[62,40],[46,-4],[-114,-225],[16,-217],[-45,-10],[-49,26],[-63,-70],[-89,23],[-89,-93],[5,-91],[87,-27],[-16,-41],[12,-64],[24,-2],[-11,-76],[82,49],[104,-43],[34,22],[17,-42],[46,-19],[2,-70],[-35,-39],[-42,-1],[-15,-51],[-38,-14],[-54,31],[-107,-28],[-18,32],[-53,-64],[-54,81],[-14,72],[-45,31],[8,116],[-48,-2],[-22,27],[26,24],[-58,244]],[[3440,2197],[60,147],[230,-25],[-76,-103],[4,-81],[-142,-14],[-76,76]],[[3510,2839],[9,44],[30,-26],[19,48],[-29,4],[8,71],[81,-44],[-67,-162],[-40,2],[-11,63]],[[1881,2024],[4,21],[79,-39],[74,23],[51,-17],[35,-50],[-61,-35],[-46,7],[-16,-29],[-58,-2],[-55,44],[19,40],[-26,37]],[[1766,1891],[81,19],[45,74],[198,-42],[-71,-7],[-27,-33],[-62,6],[-26,-31],[-138,14]],[[1156,2251],[89,227],[59,22],[-9,-97],[-80,-158],[23,-41],[-13,-77],[48,-8],[29,-41],[-19,-46],[-38,-16],[-58,72],[-31,163]],[[3476,2720],[137,80],[130,-57],[-48,-9],[-41,-80],[-178,66]],[[2099,261],[35,117],[76,111],[24,-18],[-9,-23],[44,-11],[24,-78],[-84,-1],[-24,-97],[-86,0]],[[1700,3527],[65,108],[71,51],[27,-19],[27,7],[17,12],[3,0],[-20,-113],[-87,19],[-58,-98],[-45,33]],[[0,1378],[0,231],[39,26],[2,-53],[-36,-67],[2,-131],[-7,-6]],[[0,2003],[0,4],[1,-1],[-1,-3]],[[0,1690],[0,274],[51,-55],[-20,-68],[118,28],[2,-33],[-120,-78],[-23,-69],[-8,1]],[[3038,1891],[81,32],[88,-31],[16,-78],[-25,-1],[-23,-57],[-137,135]],[[518,2477],[22,53],[57,14],[28,57],[107,-24],[147,34],[22,-27],[68,12],[68,69],[52,-35],[-30,-14],[-63,-119],[-34,6],[-37,-35],[-32,18],[-120,-72],[-49,20],[-42,-13],[-106,-73],[-33,4],[-22,37],[-3,88]],[[2201,490],[57,193],[30,30],[-18,-277],[-38,9],[3,26],[-34,19]],[[2867,637],[10,55],[73,-51],[88,33],[3,-150],[-113,2],[-61,111]],[[3776,1801],[47,104],[167,9],[-59,-173],[-95,-16],[-34,-47],[-26,123]],[[235,2080],[30,36],[220,0],[92,-339],[-27,-39],[-41,15],[-43,-26],[-48,22],[-16,39],[-124,11],[84,176],[-48,79],[-79,26]],[[2869,3586],[-30,-16],[-3,49],[42,-12],[-9,-21]],[[290,4096],[5,-35],[-59,-86],[-2,-110],[-22,-17],[31,-65],[-93,61],[-21,56],[-70,27],[26,104],[-22,65],[227,0]],[[3214,1487],[54,21],[37,-20],[-7,26],[-68,10],[8,46],[32,-3],[95,-48],[5,-25],[-35,-14],[47,-4],[-7,-52],[-84,-13],[-77,76]],[[3798,2094],[50,42],[147,-121],[-37,-38],[-3,-50],[-157,167]],[[516,2163],[102,99],[-44,74],[9,26],[136,72],[49,-20],[124,72],[44,-16],[18,-57],[-89,-13],[-62,-47],[-123,-11],[-19,-51],[44,-166],[-34,-12],[20,-23],[-28,-1],[-36,123],[-72,-60],[-39,11]],[[570,1099],[113,-1],[26,35],[16,-18],[74,21],[-8,139],[65,53],[-5,64],[70,78],[18,-32],[107,28],[54,-31],[38,14],[62,-206],[75,43],[-20,-73],[63,-130],[-9,-72],[40,-48],[68,-15],[32,-44],[-5,-47],[63,-32],[38,-129],[-53,-53],[-22,-81],[-127,19],[-35,-68],[-49,-24],[-123,18],[1,25],[-42,12],[-224,14],[-9,118],[-99,78],[47,111],[-138,-35],[-46,71],[-11,76],[-32,26],[-13,96]],[[0,2054],[26,4],[23,68],[50,11],[41,-20],[28,98],[51,38],[108,-5],[-36,-49],[-63,-28],[66,-55],[-46,-27],[67,-35],[40,-73],[-64,-152],[-40,5],[-50,64],[-8,-40],[-42,15],[-120,-32],[20,68],[-51,55],[0,39],[1,3],[-1,1],[0,47]],[[147,2070],[5,-31],[35,-38],[-16,49],[-24,20]],[[1019,2022],[66,62],[52,-27],[50,31],[58,-72],[45,22],[48,-67],[-15,-81],[-69,-43],[-128,28],[-46,42],[8,51],[-69,54]],[[1562,3429],[25,35],[204,29],[-58,-94],[11,-44],[-24,-8],[23,-76],[-173,0],[23,109],[-31,49]],[[2169,3572],[56,40],[44,-18],[7,72],[29,33],[53,-65],[61,-4],[29,31],[-52,-82],[-194,-71],[-30,3],[-3,61]],[[3940,836],[15,93],[141,-56],[0,-52],[-58,-47],[-98,62]],[[0,2739],[5,15],[86,-16],[0,-71],[-65,1],[0,-27],[-26,-16],[0,114]],[[2005,1898],[10,32],[9,-20],[74,35],[82,-48],[129,-9],[6,-50],[-30,-8],[-21,-80],[-120,-14],[-23,-35],[-26,14],[-17,85],[-64,51],[-9,47]],[[3995,1895],[35,46],[66,-5],[0,-126],[-51,-14],[-39,21],[-11,78]],[[485,2116],[31,47],[39,-11],[72,60],[36,-123],[-18,16],[-129,-103],[-31,114]],[[3244,382],[65,-27],[39,39],[44,-21],[166,2],[51,-113],[-77,-56],[-87,-14],[-32,51],[-80,40],[-44,-21],[-45,120]],[[929,0],[34,20],[62,192],[112,-64],[108,10],[26,-35],[-70,-44],[18,-79],[-290,0]],[[0,2328],[15,13],[-14,2],[-1,7],[0,17],[19,-10],[-19,12],[0,3],[57,8],[-48,-49],[-9,-31],[0,28]],[[0,2240],[78,-114],[-78,26],[0,88]],[[3284,151],[24,108],[29,9],[41,-34],[-2,27],[32,14],[4,-53],[34,-31],[113,30],[47,-30],[29,14],[37,-39],[5,32],[50,22],[62,-25],[-82,-82],[-48,7],[-9,27],[-24,-13],[0,-34],[-79,-49],[1,-43],[-11,-8],[-189,0],[-24,131],[-40,20]],[[3381,2710],[45,30],[0,69],[56,59],[-37,35],[6,29],[14,6],[54,-55],[2,-107],[19,-11],[-64,-45],[119,-37],[-91,-101],[-47,3],[-76,125]],[[2045,0],[14,39],[-2,150],[42,71],[87,1],[-13,-77],[27,-33],[-14,-25],[-50,0],[-1,-122],[139,1],[0,-5],[-229,0]],[[91,2741],[66,259],[56,41],[-18,59],[84,49],[91,3],[19,65],[61,30],[-60,-112],[4,-64],[-19,1],[-3,-3],[23,-28],[-64,-187],[-240,-113]],[[630,3665],[107,32],[0,-78],[-57,-86],[-31,36],[-19,96]],[[326,3729],[221,-16],[92,-40],[-277,0],[-36,56]],[[3722,1882],[16,101],[137,-4],[5,-52],[-59,-23],[-25,-53],[-74,31]],[[1051,2586],[78,68],[80,-2],[25,35],[18,-20],[75,30],[-11,-130],[-39,-57],[-46,4],[-62,-40],[-118,112]],[[0,1378],[7,6],[48,-135],[39,21],[17,-68],[82,-10],[-42,-128],[-60,39],[0,62],[-91,0],[0,213]],[[458,911],[23,3],[11,-18],[31,28],[104,-1],[55,-88],[-32,-113],[-44,-6],[-33,-55],[-55,12],[-19,74],[22,19],[-25,0],[-7,44],[14,33],[-45,68]],[[3484,3036],[39,19],[-35,50],[60,32],[6,29],[130,15],[107,-164],[-26,-24],[26,-35],[-40,-45],[-126,17],[-65,48],[-60,6],[-16,52]],[[434,1502],[18,101],[73,140],[36,-53],[41,0],[-4,-53],[57,-41],[109,2],[104,-186],[-7,-76],[-70,-61],[8,-139],[-74,-21],[-16,18],[-26,-35],[-113,1],[-19,38],[26,102],[-19,49],[-79,-8],[2,160],[-47,62]],[[0,1424],[38,210],[32,46],[106,61],[-5,26],[36,0],[57,-209],[-37,-10],[21,-24],[-12,-30],[-85,-22],[87,15],[25,-130],[-17,-30],[42,-22],[-20,-120],[58,-83],[12,-97],[31,-40],[-16,-21],[-202,120],[42,128],[-82,10],[-17,68],[-31,-25],[-16,13],[-47,149],[0,17]],[[3553,476],[28,42],[109,-36],[2,-22],[67,0],[19,49],[-92,11],[24,75],[75,71],[67,-83],[-22,-15],[48,-138],[36,-24],[37,31],[-12,-64],[91,-48],[-26,-29],[-27,35],[-24,-43],[-38,-6],[-16,72],[-169,-14],[-72,-63],[-47,-3],[-13,54],[-44,29],[-1,119]],[[3363,3410],[30,38],[180,-257],[6,-23],[-91,-63],[35,-50],[-24,-16],[-97,260],[2,64],[-41,47]],[[0,2152],[30,-7],[23,-38],[-26,-49],[-27,0],[0,94]],[[529,1984],[24,49],[99,71],[29,-164],[-47,19],[-70,-76],[-35,101]],[[2099,261],[35,117],[77,110],[21,-43],[36,-8],[25,-76],[-12,-355],[-146,-2],[1,122],[50,0],[14,25],[-27,33],[13,77],[-87,0]],[[3089,1022],[103,60],[44,50],[7,47],[23,13],[52,-141],[-70,-119],[9,-41],[-62,-4],[-14,60],[-66,15],[-26,60]],[[0,3530],[7,-6],[59,0],[9,-31],[-19,-32],[-53,2],[-3,-2],[0,69]],[[1326,2580],[15,126],[42,25],[15,-70],[98,-21],[2,-39],[-35,-34],[60,-34],[14,-37],[19,8],[5,-50],[-72,-159],[-53,179],[-110,106]],[[1442,933],[184,-20],[-26,-37],[38,-42],[-42,-83],[-71,-20],[-12,96],[-62,37],[-9,69]],[[1395,3943],[50,-16],[6,38],[65,-9],[22,35],[43,2],[3,-49],[57,-35],[69,-3],[-55,-93],[0,-99],[-138,-9],[-8,33],[-75,27],[12,44],[-37,44],[-14,90]],[[228,2171],[63,28],[36,48],[-65,91],[24,38],[-12,27],[75,-21],[120,33],[12,48],[37,13],[3,-87],[21,-37],[39,0],[37,-88],[-28,-47],[-42,-4],[-63,-97],[-191,0],[-66,55]],[[945,3241],[26,37],[-24,40],[35,47],[102,-32],[19,-103],[-26,-31],[-118,-29],[-14,71]],[[973,3310],[16,-5],[6,7],[-4,7],[-18,-9]],[[1773,234],[1,37],[98,-8],[3,-156],[-79,-48],[-22,21],[-1,154]],[[306,2720],[54,38],[-11,30],[96,295],[47,4],[-9,-120],[-34,-7],[-7,-29],[30,-12],[55,-255],[-49,-55],[-107,-18],[-35,22],[4,61],[-34,46]],[[1848,1852],[15,30],[42,-4],[25,30],[83,6],[0,-63],[85,-82],[7,-107],[-31,-29],[-160,20],[-66,199]],[[638,672],[44,163],[127,33],[-46,-114],[99,-78],[3,-127],[-91,-19],[0,-58],[-70,0],[-17,40],[36,70],[-75,42],[-10,48]],[[1931,2028],[7,23],[80,24],[156,-58],[-55,-49],[-54,53],[-101,-15],[-33,22]]]}