{"objects":{"water":{"type":"GeometryCollection","geometries":[{"type":"Polygon","properties":{"kind":"lake","name":"Lago Rincon del Bonete","reservoir":true,"area":2212848640,"sort_rank":200,"source":"naturalearthdata.com","min_zoom":0.0,"id":1239},"arcs":[[4]]},{"type":"Polygon","properties":{"kind":"lake","name":"Lagoa Mirim","area":5457144832,"sort_rank":200,"alkaline":true,"source":"naturalearthdata.com","min_zoom":0.0,"id":1297},"arcs":[[5]]},{"type":"MultiPolygon","properties":{"source":"naturalearthdata.com","kind":"ocean","area":1576712559132672,"sort_rank":200,"min_zoom":0.0,"id":1},"arcs":[[[6]]]},{"type":"Point","properties":{"label_placement":true,"kind":"lake","name":"Lagoa Mirim","area":5457144832,"sort_rank":200,"alkaline":true,"source":"naturalearthdata.com","min_zoom":0.0,"id":1297},"coordinates":[1098,3672]},{"type":"Point","properties":{"label_placement":true,"kind":"lake","name":"Lago Rincon del Bonete","reservoir":true,"area":2212848640,"sort_rank":200,"source":"naturalearthdata.com","min_zoom":0.0,"id":1239},"coordinates":[70,3756]},{"type":"MultiLineString","properties":{"source":"naturalearthdata.com","kind":"ocean","sort_rank":205,"boundary":true,"min_zoom":0.0,"id":75},"arcs":[[7],[8]]},{"type":"MultiLineString","properties":{"source":"naturalearthdata.com","kind":"lake","reservoir":true,"sort_rank":367,"boundary":true,"min_zoom":0.0,"id":1239},"arcs":[[9],[10],[11]]},{"type":"LineString","properties":{"source":"naturalearthdata.com","kind":"lake","sort_rank":367,"alkaline":true,"boundary":true,"min_zoom":0.0,"id":1297},"arcs":[12]}]},"buildings":{"type":"GeometryCollection","geometries":[]},"places":{"type":"GeometryCollection","geometries":[{"type":"Point","properties":{"name:pt":"Uruguai","name:ps":"\u06cc\u0648\u0631\u0648\u06ab\u0648\u0627\u06cc","name:ka":"\u10e3\u10e0\u10e3\u10d2\u10d5\u10d0\u10d8","name:mt":"Urugwaj","name:ko":"\uc6b0\ub8e8\uacfc\uc774","name:cv":"\u0423\u0440\u0443\u0433\u0432\u0430\u0439","name:cu":"\u041e\u0443\u0440\u043e\u0443\u0433\u0432\u0430\u0438","name:kk":"\u0423\u0440\u0443\u0433\u0432\u0430\u0439","name:ki":"Urugwai","name:kw":"Urugway","name:ku":"\u00dbr\u00fbguay","name:ti":"\u12a1\u122b\u1313\u12ed","name:ks":"\u06cc\u0648\u0657\u0631\u0648\u06af\u06d2","name:to":"\u02bbUlukuei","name:tl":"Urugway","name:pa":"\u0a09\u0a30\u0a42\u0a17\u0a41\u0a0f","name:os":"\u0423\u0440\u0443\u0433\u0432\u0430\u0439","name:or":"\u0b09\u0b30\u0b41\u0b17\u0b41\u0b0f","name:ce":"\u0423\u0440\u0443\u0433\u0432\u0430\u0439","name:ta":"\u0b89\u0bb0\u0bc1\u0b95\u0bc1\u0bb5\u0bc7","name:tg":"\u0423\u0440\u0443\u0433\u0432\u0430\u0439","name:ca":"Uruguai","name:te":"\u0c09\u0c30\u0c41\u0c17\u0c41\u0c35\u0c47","name:ln":"Irigwei","name:sr":"\u0423\u0440\u0443\u0433\u0432\u0430\u0458","name:dz":"\u0f61\u0f74\u0f0b\u0f62\u0f74\u0f0b\u0f42\u0f74\u0f0b\u0f5d\u0f60\u0f72","source":"openstreetmap.org","name:nv":"T\u00e1\u0142t\u0142\u02bc\u00e1\u00e1h Ch\u02bcosh Bitooh (K\u00e9yah Dah Si\u02bc\u00e1n\u00edg\u00ed\u00ed)","name:kn":"\u0c89\u0cb0\u0cc1\u0c97\u0ccd\u0cb5\u0cc7","name:dv":"\u0787\u07aa\u0783\u07aa\u078e\u07aa\u0787\u07ad","name:km":"\u17a2\u17ca\u17bb\u1799\u179a\u17bb\u1799\u17a0\u17d2\u1782\u17b6\u1799","name:lv":"Urugvaja","name:lt":"Urugvajus","name:uz":"Urugvay","name:he":"\u05d0\u05d5\u05e8\u05d5\u05d2\u05d5\u05d0\u05d9","min_zoom":2.0,"kind":"country","name:ur":"\u06cc\u0648\u0631\u0648\u06af\u0648\u0626\u06d2","name:la":"Uruguaia","name:lg":"Wurugwayi","name:uk":"\u0423\u0440\u0443\u0491\u0432\u0430\u0439","name:hy":"\u0548\u0582\u0580\u0578\u0582\u0563\u057e\u0561\u0575","name:ug":"\u0626\u06c7\u0631\u06c7\u06af\u06cb\u0627\u064a","name:li":"Urugay","name:hr":"Urugvaj","name:lo":"\u0ead\u0eb8\u0ea5\u0eb8\u0e81\u0ea7\u0e8d","name:oc":"Uruguai","population":3286314,"name:el":"\u039f\u03c5\u03c1\u03bf\u03c5\u03b3\u03bf\u03c5\u03ac\u03b7","name:eo":"Urugvajo","name":"Uruguay","name:ee":"uruguayduk\u0254","name:th":"\u0e1b\u0e23\u0e30\u0e40\u0e17\u0e28\u0e2d\u0e38\u0e23\u0e38\u0e01\u0e27\u0e31\u0e22","name:gu":"\u0a89\u0ab0\u0ac1\u0a97\u0acd\u0ab5\u0ac7","name:eu":"Uruguai","name:yo":"Or\u00edl\u1eb9\u0301\u00e8de Nruguayi","name:ay":"Uruwayi","name:yi":"\u05d0\u05d5\u05e8\u05d5\u05d2\u05d5\u05d5\u05d9\u05d9","name:rn":"Irigwe","name:az":"Uruqvay","name:mr":"\u0909\u0930\u0941\u0917\u094d\u0935\u0947","name:qu":"Uruwayi","name:ar":"\u0623\u0648\u0631\u0648\u063a\u0648\u0627\u064a","name:my":"\u1025\u101b\u102f\u1002\u103d\u1031\u1038","official_name":"Rep\u00fablica Oriental del Uruguay","name:gn":"Urugu\u00e1i","name:is":"\u00dar\u00fagv\u00e6","name:am":"\u12a1\u122b\u1313\u12ed","name:fo":"Uruguei","name:an":"Uruguai","name:ru":"\u0423\u0440\u0443\u0433\u0432\u0430\u0439","name:rw":"Irigwe","name:pl":"Urugwaj","name:mk":"\u0423\u0440\u0443\u0433\u0432\u0430\u0458","name:vo":"Luruguy\u00e4n","name:zu":"i-Uruguay","name:ha":"Yurugai","name:mn":"\u0423\u0440\u0443\u0433\u0432\u0430\u0439","name:ff":"Uruguwaay","name:hi":"\u092f\u0941\u0930\u0942\u0917\u0941\u090f","name:mg":"Orogoay","id":432425116,"name:zh-yue":"\u70cf\u62c9\u572d","name:fy":"Ur\u00fbguay","name:zh":"\u4e4c\u62c9\u572d","name:so":"Uruguwaay","name:sl":"Urugvaj","name:sk":"Uruguaj","name:ja":"\u30a6\u30eb\u30b0\u30a2\u30a4","name:si":"\u0d8b\u0dbb\u0dd4\u0d9c\u0dd4\u0dc0\u0dda","name:sh":"Urugvaj","name:sg":"Urugu\u00ebe","name:ne":"\u092f\u0941\u0930\u0942\u0917\u0941\u090f","name:sa":"\u0909\u0930\u0941\u0917\u094d\u0935\u093e\u092f","name:bs":"Urugvaj","name:bm":"Urugwayi","name:bn":"\u0989\u09b0\u09c1\u0997\u09cb\u09af\u09bc\u09c7","name:bo":"\u0f68\u0f74\u0f0b\u0f62\u0f74\u0f0b\u0f42\u0fb7\u0f7a\u0f0d","name:ml":"\u0d09\u0d31\u0d41\u0d17\u0d4d\u0d35\u0d47","name:sw":"Urugwai","name:be":"\u0423\u0440\u0443\u0433\u0432\u0430\u0439","name:bg":"\u0423\u0440\u0443\u0433\u0432\u0430\u0439","name:wo":"Uruguwaay","name:ba":"\u0423\u0440\u0443\u0433\u0432\u0430\u0439","name:sq":"Uruguaj","name:ga":"Uragua","name:gd":"Uruguaidh","name:ht":"Irigwe","name:wa":"Ourougway","name:gl":"Uruguai","name:fa":"\u0627\u0631\u0648\u06af\u0648\u0626\u0647","name:gv":"Yn Ooraguay","name:ak":"Yurugwae","name:tt":"\u0423\u0440\u0443\u0433\u0432\u0430\u0439"},"coordinates":[84,3677]},{"type":"Point","properties":{"source":"openstreetmap.org","kind":"region","name":"Montevideo","kind_detail":"state","population":1319018,"min_zoom":4.0,"id":313943109},"coordinates":[25,2774]},{"type":"Point","properties":{"source":"openstreetmap.org","kind":"region","name":"Canelones","kind_detail":"state","population":485028,"min_zoom":4.0,"id":313943137},"coordinates":[95,2885]},{"type":"Point","properties":{"kind":"region","name":"Maldonado","name:lt":"Maldonado departamentas","kind_detail":"state","source":"openstreetmap.org","min_zoom":4.0,"name:uk":"\u041c\u0430\u043b\u044c\u0434\u043e\u043d\u0430\u0434\u043e","name:ru":"\u041c\u0430\u043b\u044c\u0434\u043e\u043d\u0430\u0434\u043e","id":313943128,"population":164300},"coordinates":[485,2864]},{"type":"Point","properties":{"source":"openstreetmap.org","kind":"region","name":"Tacuaremb\u00f3","kind_detail":"state","population":90053,"min_zoom":4.0,"id":313943117},"coordinates":[273,3999]},{"type":"Point","properties":{"source":"openstreetmap.org","kind":"region","name":"Cerro Largo","kind_detail":"state","population":86564,"min_zoom":4.0,"id":313943115},"coordinates":[698,3923]},{"type":"Point","properties":{"source":"openstreetmap.org","kind":"region","name":"Florida","kind_detail":"state","population":68181,"min_zoom":4.0,"id":313943132},"coordinates":[121,3242]},{"type":"Point","properties":{"source":"openstreetmap.org","kind":"region","name":"Rocha","kind_detail":"state","population":68088,"min_zoom":4.0,"id":313943138},"coordinates":[819,3167]},{"type":"Point","properties":{"kind":"region","name":"Lavalleja","name:lt":"Lavaljechos departamentas","kind_detail":"state","source":"openstreetmap.org","min_zoom":4.0,"name:uk":"\u041b\u0430\u0432\u0430\u043b\u044c\u0454\u0445\u0430","name:ru":"\u041b\u0430\u0432\u0430\u043b\u044c\u0435\u0445\u0430","id":313943136,"population":60925},"coordinates":[455,3168]},{"type":"Point","properties":{"source":"openstreetmap.org","kind":"region","name":"Durazno","kind_detail":"state","population":58859,"min_zoom":4.0,"id":313943140},"coordinates":[61,3583]},{"type":"Point","properties":{"source":"openstreetmap.org","kind":"region","name":"Treinta y Tres","kind_detail":"state","population":49318,"min_zoom":4.0,"id":313943139},"coordinates":[728,3621]},{"type":"Point","properties":{"source":"naturalearthdata.com","kind":"locality","name":"Montevideo","country_capital":true,"population":1513000,"min_zoom":5.0,"id":6774},"coordinates":[28,2778]}]},"transit":{"type":"GeometryCollection","geometries":[]},"pois":{"type":"GeometryCollection","geometries":[]},"boundaries":{"type":"GeometryCollection","geometries":[{"type":"MultiLineString","properties":{"source":"naturalearthdata.com","kind":"country","sort_rank":262,"kind_detail":"2","min_zoom":0.0,"id":57},"arcs":[[0],[1],[2],[3]]}]},"roads":{"type":"GeometryCollection","geometries":[{"type":"LineString","properties":{"source":"naturalearthdata.com","kind":"major_road","sort_rank":379,"kind_detail":"secondary","min_zoom":4.0,"id":47338},"arcs":[13]},{"type":"LineString","properties":{"source":"naturalearthdata.com","kind":"minor_road","sort_rank":355,"kind_detail":"tertiary","min_zoom":5.0,"id":47373},"arcs":[14]},{"type":"LineString","properties":{"source":"naturalearthdata.com","kind":"major_road","sort_rank":379,"kind_detail":"secondary","min_zoom":3.0,"id":47395},"arcs":[15]},{"type":"LineString","properties":{"source":"naturalearthdata.com","kind":"minor_road","sort_rank":355,"kind_detail":"tertiary","min_zoom":5.0,"id":47417},"arcs":[16]},{"type":"LineString","properties":{"source":"naturalearthdata.com","kind":"minor_road","sort_rank":355,"kind_detail":"tertiary","min_zoom":5.0,"id":47426},"arcs":[17]},{"type":"LineString","properties":{"source":"naturalearthdata.com","kind":"minor_road","sort_rank":355,"kind_detail":"tertiary","min_zoom":5.0,"id":47465},"arcs":[18]},{"type":"LineString","properties":{"source":"naturalearthdata.com","kind":"major_road","sort_rank":379,"kind_detail":"secondary","min_zoom":3.0,"id":47472},"arcs":[19]},{"type":"LineString","properties":{"source":"naturalearthdata.com","kind":"major_road","sort_rank":379,"kind_detail":"secondary","min_zoom":3.0,"id":47485},"arcs":[20]},{"type":"LineString","properties":{"source":"naturalearthdata.com","kind":"major_road","sort_rank":379,"kind_detail":"secondary","min_zoom":3.0,"id":47528},"arcs":[21]},{"type":"LineString","properties":{"source":"naturalearthdata.com","kind":"minor_road","sort_rank":355,"kind_detail":"tertiary","min_zoom":5.0,"id":47556},"arcs":[22]},{"type":"LineString","properties":{"source":"naturalearthdata.com","kind":"major_road","sort_rank":379,"kind_detail":"secondary","min_zoom":4.0,"id":47577},"arcs":[23]},{"type":"LineString","properties":{"source":"naturalearthdata.com","kind":"major_road","sort_rank":379,"kind_detail":"secondary","min_zoom":3.0,"id":47583},"arcs":[24]},{"type":"LineString","properties":{"source":"naturalearthdata.com","kind":"minor_road","sort_rank":355,"kind_detail":"tertiary","min_zoom":5.0,"id":47612},"arcs":[25]},{"type":"LineString","properties":{"source":"naturalearthdata.com","kind":"major_road","sort_rank":379,"kind_detail":"secondary","min_zoom":3.0,"id":47618},"arcs":[26]},{"type":"LineString","properties":{"source":"naturalearthdata.com","kind":"major_road","sort_rank":379,"kind_detail":"secondary","min_zoom":4.0,"id":47640},"arcs":[27]},{"type":"LineString","properties":{"source":"naturalearthdata.com","kind":"minor_road","sort_rank":355,"kind_detail":"tertiary","min_zoom":5.0,"id":47648},"arcs":[28]},{"type":"LineString","properties":{"source":"naturalearthdata.com","kind":"minor_road","sort_rank":355,"kind_detail":"tertiary","min_zoom":5.0,"id":47666},"arcs":[29]},{"type":"LineString","properties":{"source":"naturalearthdata.com","kind":"major_road","sort_rank":379,"kind_detail":"secondary","min_zoom":3.0,"id":47681},"arcs":[30]},{"type":"LineString","properties":{"source":"naturalearthdata.com","kind":"major_road","sort_rank":379,"kind_detail":"secondary","min_zoom":4.0,"id":47690},"arcs":[31]},{"type":"LineString","properties":{"source":"naturalearthdata.com","kind":"minor_road","sort_rank":355,"kind_detail":"tertiary","min_zoom":5.0,"id":47697},"arcs":[32]},{"type":"LineString","properties":{"source":"naturalearthdata.com","kind":"major_road","sort_rank":379,"kind_detail":"secondary","min_zoom":3.0,"id":47707},"arcs":[33]},{"type":"LineString","properties":{"source":"naturalearthdata.com","kind":"minor_road","sort_rank":355,"kind_detail":"tertiary","min_zoom":5.0,"id":47720},"arcs":[34]},{"type":"LineString","properties":{"source":"naturalearthdata.com","kind":"major_road","sort_rank":379,"kind_detail":"secondary","min_zoom":3.0,"id":47721},"arcs":[35]},{"type":"LineString","properties":{"source":"naturalearthdata.com","kind":"minor_road","sort_rank":355,"kind_detail":"tertiary","min_zoom":5.0,"id":47727},"arcs":[36]},{"type":"LineString","properties":{"source":"naturalearthdata.com","kind":"major_road","sort_rank":379,"kind_detail":"secondary","min_zoom":4.0,"id":47731},"arcs":[37]},{"type":"LineString","properties":{"source":"naturalearthdata.com","kind":"minor_road","sort_rank":355,"kind_detail":"tertiary","min_zoom":5.0,"id":47738},"arcs":[38]},{"type":"LineString","properties":{"source":"naturalearthdata.com","kind":"minor_road","sort_rank":355,"kind_detail":"tertiary","min_zoom":5.0,"id":47744},"arcs":[39]},{"type":"LineString","properties":{"source":"naturalearthdata.com","kind":"minor_road","sort_rank":355,"kind_detail":"tertiary","min_zoom":5.0,"id":47745},"arcs":[40]},{"type":"LineString","properties":{"source":"naturalearthdata.com","kind":"major_road","sort_rank":379,"kind_detail":"secondary","min_zoom":3.0,"id":47763},"arcs":[41]},{"type":"LineString","properties":{"source":"naturalearthdata.com","kind":"major_road","sort_rank":379,"kind_detail":"secondary","min_zoom":3.0,"id":47772},"arcs":[42]},{"type":"LineString","properties":{"source":"naturalearthdata.com","kind":"minor_road","sort_rank":355,"kind_detail":"tertiary","min_zoom":5.0,"id":47773},"arcs":[43]},{"type":"LineString","properties":{"source":"naturalearthdata.com","kind":"major_road","sort_rank":379,"kind_detail":"secondary","min_zoom":4.0,"id":47781},"arcs":[44]},{"type":"LineString","properties":{"source":"naturalearthdata.com","kind":"major_road","sort_rank":379,"kind_detail":"secondary","min_zoom":4.0,"id":47782},"arcs":[45]},{"type":"LineString","properties":{"source":"naturalearthdata.com","kind":"major_road","sort_rank":379,"kind_detail":"secondary","min_zoom":4.0,"id":47784},"arcs":[46]},{"type":"LineString","properties":{"source":"naturalearthdata.com","kind":"major_road","kind_detail":"secondary","sort_rank":379,"landuse_kind":"urban_area","min_zoom":3.0,"id":47788},"arcs":[47]},{"type":"LineString","properties":{"source":"naturalearthdata.com","kind":"major_road","sort_rank":379,"kind_detail":"secondary","min_zoom":3.0,"id":47788},"arcs":[48]},{"type":"MultiLineString","properties":{"source":"naturalearthdata.com","kind":"major_road","kind_detail":"secondary","sort_rank":379,"landuse_kind":"urban_area","min_zoom":4.0,"id":47789},"arcs":[[49],[50]]},{"type":"LineString","properties":{"source":"naturalearthdata.com","kind":"major_road","kind_detail":"secondary","sort_rank":379,"landuse_kind":"urban_area","min_zoom":3.0,"id":47790},"arcs":[51]},{"type":"LineString","properties":{"source":"naturalearthdata.com","kind":"major_road","kind_detail":"secondary","sort_rank":379,"landuse_kind":"urban_area","min_zoom":3.0,"id":47793},"arcs":[52]},{"type":"LineString","properties":{"source":"naturalearthdata.com","kind":"major_road","kind_detail":"secondary","sort_rank":379,"landuse_kind":"urban_area","min_zoom":3.0,"id":47794},"arcs":[53]}]},"earth":{"type":"GeometryCollection","geometries":[{"type":"MultiPolygon","properties":{"sort_rank":10,"source":"naturalearthdata.com","min_zoom":0.0,"kind":"earth","area":4072426933541},"arcs":[[[54]],[[55]]]}]},"landuse":{"type":"GeometryCollection","geometries":[{"type":"MultiPolygon","properties":{"source":"naturalearthdata.com","kind":"urban_area","name":"","area":24670838190,"sort_rank":11,"min_zoom":4.0},"arcs":[[[56]],[[57]]]}]}},"type":"Topology","transform":{"translate":[-56.25,-40.9798980696],"scale":[0.002746582,0.0022040371]},"arcs":[[[997,3307],[-10,19],[1,41],[8,74],[-8,69],[0,33],[6,21],[3,11],[0,1],[10,14],[13,11],[44,32],[4,5],[3,8],[1,17],[2,8],[11,11],[24,19],[8,10],[7,10],[13,11],[5,6],[1,9],[-3,6],[-24,28],[-6,4],[-12,6],[-12,8],[-12,0],[-6,2],[-15,10],[-21,7],[-22,26],[-22,17],[-9,9],[-8,11],[-6,12],[-4,5],[-9,9],[-3,6],[-2,8],[-1,22],[-2,16],[-5,13],[-18,29],[-11,26],[0,16],[-2,6],[-6,4],[-21,5],[-10,7],[-5,4],[-4,5],[-2,5],[-1,4],[-1,5],[-5,5],[-4,3]],[[1034,3284],[-5,5],[-3,8],[-3,7],[-6,5],[-6,0]],[[1011,3309],[-7,-2],[-7,0]],[[1045,3285],[-11,-1]],[[285,3875],[-5,-6],[-2,-8],[0,-7],[3,-3],[3,-3],[2,-3],[-2,-5],[-4,-3],[-5,0],[-10,1],[-15,-2],[-7,0],[-6,4],[-4,2],[-5,-1],[-5,-2],[-2,-4],[1,-4],[9,-15],[-6,0],[-14,4],[-6,-1],[-4,0],[-4,0],[-6,4],[-8,11],[-3,1],[-2,-6],[0,-6],[3,-7],[3,-5],[4,-4],[-8,2],[-3,0],[-4,-2],[9,-8],[7,-12],[4,-14],[3,-15],[-7,5],[-6,7],[-1,1],[-1,0],[-2,1],[-1,1],[-1,3],[-1,5],[-2,7],[0,3],[-1,1],[-5,0],[-3,-2],[-2,-2],[-3,-3],[-2,-2],[12,-18],[3,-7],[2,-8],[1,-16],[2,-8],[-8,0],[-5,4],[-2,7],[0,10],[-2,8],[-5,7],[-7,5],[-6,3],[0,-2],[-2,-5],[0,-2],[-3,0],[-1,18],[-1,4],[-5,2],[-4,-2],[-1,-6],[2,-7],[-9,-2],[-2,-6],[4,-8],[6,-3],[4,-3],[0,-19],[2,-9],[-5,0],[-4,-2],[-3,-3],[-3,-1],[-4,3],[0,4],[1,5],[-2,3],[-6,3],[-1,-4],[-1,-7],[-2,-4],[-4,-1],[-2,3],[0,4],[1,3],[-4,3],[-5,1],[-6,-1],[-2,-4],[0,-2],[2,-5],[0,-1],[-1,-1],[-3,-2],[-2,0],[-1,2],[-3,5],[-7,8],[-6,3],[-2,-9],[-7,5],[-7,2],[-12,-1],[0,-5],[3,-10],[0,-8],[-9,5],[-2,-9],[0,-6],[1,-5],[3,-5],[5,-4],[13,-7],[13,-3],[5,-5],[8,-11],[3,-1],[3,-1],[7,1],[3,-2],[8,-8],[-21,1],[-13,2],[-6,5],[-6,0],[-24,11],[-5,4],[-2,-10],[13,-21],[-7,-4],[-4,3],[-8,9],[-2,-1],[1,-6],[2,-4],[2,-3],[3,-4],[-7,2],[-5,4],[-7,14],[0,9],[2,3],[2,4],[-1,6],[-2,0],[-1,0],[0,71],[3,0],[3,2],[-1,-5],[-1,-4],[1,-3],[4,-4],[4,6],[5,19],[8,14],[3,2],[2,-9],[4,4],[2,5],[3,5],[6,1],[-7,9],[-1,3],[0,5],[1,4],[2,2],[4,-3],[16,-21],[2,0],[1,3],[2,3],[2,3],[2,2],[4,1],[-1,3],[-5,5],[0,10],[1,6],[3,0],[6,-7],[7,14],[2,-6],[2,-13],[6,-7],[5,6],[2,29],[6,8],[-1,-4],[0,-6],[3,-4],[5,-2],[5,2],[9,5],[4,0],[4,-3],[2,-4],[2,-4],[6,-2],[0,-2],[2,-5],[3,-5],[4,-3],[5,4],[3,12],[4,5],[-2,2],[-1,3],[-2,3],[0,4],[-1,4],[-2,1],[-2,2],[-2,3],[-1,4],[0,5],[0,5],[-2,5],[5,-1],[5,-7],[4,-1],[10,3],[1,-2],[1,-3],[1,-2],[2,-2],[8,-2],[3,-4],[2,-5],[1,-2],[4,1],[3,4],[2,5],[1,6],[-2,5],[-7,10],[-1,5],[-1,2],[-2,7],[0,3],[1,2],[3,0],[3,0],[1,-2],[15,-11],[6,1],[6,2],[5,-1],[3,-8],[-7,-1],[2,-4],[6,-5],[6,-2],[6,-1],[7,1],[7,2],[2,6],[1,6],[6,19],[2,4],[11,1],[6,-2],[2,-9],[-8,0]],[[1328,3866],[4,-15],[1,-20],[-1,-20],[-4,-16],[-7,-18],[-25,-41],[-9,-27],[-3,-15],[-5,-9],[-16,-21],[-6,-5],[-7,-3],[-8,-1],[-9,0],[-6,1],[-5,4],[-8,8],[-22,27],[-7,5],[0,11],[3,11],[1,7],[-4,2],[-6,-5],[-9,-14],[-10,-11],[-5,0],[-2,1],[-4,3],[-7,6],[-4,1],[-2,-6],[-1,-7],[-5,-14],[-1,-7],[-1,-12],[-3,-27],[-4,-12],[-5,-12],[-8,-11],[-2,-3],[-1,-6],[-1,-2],[-2,-2],[-5,-4],[-2,-2],[-6,-8],[-4,-2],[-6,-1],[-6,2],[-3,4],[-4,13],[-13,-23],[-2,-7],[-3,-5],[-7,-4],[-7,-2],[-5,-3],[-3,-7],[-4,-20],[-4,-4],[-3,-4],[-1,-11],[0,-12],[0,-7],[7,-30],[-1,-4],[3,-4],[2,-9],[1,-10],[0,-8],[-5,-35],[-5,-13],[-10,1],[6,3],[-3,4],[-7,0],[-3,-9],[-1,-7],[-2,-6],[-4,-4],[-3,0],[-2,26],[-4,13],[-8,13],[-5,11],[0,15],[3,14],[6,11],[-7,6],[-4,7],[0,8],[5,9],[4,10],[-6,5],[-10,3],[-4,6],[-2,5],[-5,7],[-1,4],[-1,9],[1,3],[3,5],[3,3],[2,0],[2,1],[0,7],[-1,4],[-6,13],[8,4],[1,5],[-3,6],[-1,8],[1,5],[2,3],[3,0],[3,-3],[1,-3],[-1,-15],[7,5],[29,48],[8,8],[10,3],[43,-3],[2,2],[-2,3],[-3,2],[-1,0],[-1,0],[-2,0],[-1,2],[-1,4],[2,4],[5,3],[11,6],[0,2],[-3,1],[-3,2],[-2,1],[0,3],[8,3],[5,4],[2,5],[0,11],[-3,15],[-1,2],[-1,2],[-13,7],[-6,7],[2,2],[16,-2],[8,1],[6,2],[12,9],[8,4],[6,2],[4,4],[4,22],[4,5],[24,6],[17,7],[7,5],[6,6],[3,5],[1,7],[1,11],[4,20],[10,12],[12,9],[43,19],[12,11],[-4,13],[-4,2],[-8,-1],[-3,2],[-1,3],[0,5],[1,5],[4,2],[4,5],[12,27],[3,2],[6,1],[4,3],[3,16],[8,2],[13,8],[6,-1],[-14,-32],[-5,-18],[-2,-19],[6,-17],[25,-27],[9,-15]],[[4096,4096],[0,-4096],[-4096,0],[0,2758],[5,4],[2,7],[6,-1],[4,-4],[0,-5],[-4,-4],[7,-3],[6,-1],[8,-11],[2,9],[6,4],[11,6],[13,-1],[24,15],[18,13],[23,16],[11,5],[25,9],[13,-4],[23,8],[17,-8],[16,4],[15,-7],[19,-5],[15,2],[24,-2],[9,-1],[14,-8],[19,-26],[9,-9],[14,-3],[34,8],[17,1],[8,-2],[3,-2],[4,-2],[3,-4],[-1,-3],[1,-2],[14,-2],[7,-3],[5,-5],[4,-6],[0,-2],[-1,-3],[-2,-5],[7,2],[10,11],[7,3],[7,1],[64,31],[15,5],[7,4],[12,10],[23,7],[4,2],[82,45],[6,6],[3,5],[-3,10],[-7,6],[-5,1],[0,-3],[-6,-1],[-2,5],[0,6],[2,3],[6,2],[6,5],[6,6],[3,6],[-13,6],[-4,3],[7,0],[10,-3],[10,-4],[5,-6],[-1,-2],[-3,-11],[-1,-5],[1,-4],[2,-4],[2,-2],[3,-3],[-7,-6],[-2,-3],[-1,-3],[8,0],[33,8],[2,5],[0,7],[1,8],[5,6],[55,56],[27,19],[34,20],[15,5],[0,8],[-6,16],[8,27],[1,4],[3,5],[13,27],[7,7],[19,16],[18,24],[6,5],[13,10],[3,6],[2,21],[7,23],[7,37],[5,16],[8,15],[13,17],[7,6],[6,5],[41,29],[27,25],[37,42],[62,57],[37,36],[27,34],[37,50],[8,16],[55,137],[10,52],[25,85],[44,98],[9,14],[37,34],[13,5],[0,5],[-4,15],[1,7],[5,18],[-6,-6],[-13,-18],[-6,-1],[-5,10],[8,10],[18,13],[6,5],[0,3],[-5,2],[-5,1],[-6,-2],[-5,-4],[-1,-5],[-5,-7],[-10,-7],[-12,-3],[-8,3],[9,5],[0,6],[-6,2],[-11,-1],[3,7],[1,9],[1,16],[3,8],[7,4],[5,2],[70,0],[-5,-7],[-7,-4],[-4,-5],[5,-10],[2,-8],[-1,-11],[-3,-10],[-2,-7],[-9,-16],[-2,-10],[2,-10],[3,3],[14,24],[52,70],[0,1],[2508,0]],[[1588,4096],[0,-1],[-52,-70],[-14,-24],[-3,-3],[-2,10],[2,10],[9,16],[2,7],[3,10],[1,11],[-2,8],[-5,10],[4,5],[7,4],[5,7]],[[1473,4096],[-5,-2],[-7,-4],[-3,-8],[-1,-16],[-1,-9],[-3,-7],[11,1],[6,-2],[0,-6],[-9,-5],[8,-3],[12,3],[10,7],[5,7],[1,5],[5,4],[6,2],[5,-1],[5,-2],[0,-3],[-6,-5],[-18,-13],[-8,-10],[5,-10],[6,1],[13,18],[6,6],[-5,-18],[-1,-7],[4,-15],[0,-5],[-13,-5],[-37,-34],[-9,-14],[-44,-98],[-25,-85],[-10,-52],[-55,-137],[-8,-16],[-37,-50],[-27,-34],[-37,-36],[-62,-57],[-37,-42],[-27,-25],[-41,-29],[-6,-5],[-7,-6],[-13,-17],[-8,-15],[-5,-16],[-7,-37],[-7,-23],[-2,-21],[-3,-6],[-13,-10],[-6,-5],[-18,-24],[-19,-16],[-7,-7],[-13,-27],[-3,-5],[-1,-4],[-8,-27],[6,-16],[0,-8],[-15,-5],[-34,-20],[-27,-19],[-55,-56],[-5,-6],[-1,-8],[0,-7],[-2,-5],[-33,-8],[-8,0],[1,3],[2,3],[7,6],[-3,3],[-2,2],[-2,4],[-1,4],[1,5],[3,11],[1,2],[-5,6],[-10,4],[-10,3],[-7,0],[4,-3],[13,-6],[-3,-6],[-6,-6],[-6,-5],[-6,-2],[-2,-3],[0,-6],[2,-5],[6,1],[0,3],[5,-1],[7,-6],[3,-10],[-3,-5],[-6,-6],[-82,-45],[-4,-2],[-23,-7],[-12,-10],[-7,-4],[-15,-5],[-64,-31],[-7,-1],[-7,-3],[-10,-11],[-7,-2],[2,5],[1,3],[0,2],[-4,6],[-5,5],[-7,3],[-14,2],[-1,2],[1,3],[-3,4],[-4,2],[-3,2],[-8,2],[-17,-1],[-34,-8],[-14,3],[-9,9],[-19,26],[-14,8],[-9,1],[-24,2],[-15,-2],[-19,5],[-15,7],[-16,-4],[-17,8],[-23,-8],[-13,4],[-25,-9],[-11,-5],[-23,-16],[-18,-13],[-24,-15],[-13,1],[-11,-6],[-6,-4],[-2,-9],[-8,11],[-6,1],[-7,3],[4,4],[0,5],[-4,4],[-6,1],[-2,-7],[-5,-4]],[[285,3875],[-5,-6],[-2,-8],[0,-7],[3,-3],[3,-3],[2,-3],[-2,-5],[-4,-3],[-5,0],[-10,1],[-15,-2],[-7,0],[-6,4],[-4,2],[-5,-1],[-5,-2],[-2,-4],[1,-4],[9,-15],[-6,0],[-14,4],[-6,-1],[-4,0],[-4,0],[-6,4],[-8,11],[-3,1],[-2,-6],[0,-6],[3,-7],[3,-5],[4,-4],[-8,2],[-3,0],[-4,-2],[9,-8],[7,-12],[4,-14],[3,-15],[-7,5],[-6,7],[-1,1],[-1,0],[-2,1],[-1,1],[-1,3],[-1,5],[-2,7],[0,3],[-1,1],[-5,0],[-3,-2],[-2,-2],[-3,-3],[-2,-2],[12,-18],[3,-7],[2,-8],[1,-16],[2,-8],[-8,0],[-5,4],[-2,7],[0,10],[-2,8],[-5,7],[-7,5],[-6,3],[0,-2],[-2,-5],[0,-2],[-3,0],[-1,18],[-1,4],[-5,2],[-4,-2],[-1,-6],[2,-7],[-9,-2],[-2,-6],[4,-8],[6,-3],[4,-3],[0,-19],[2,-9],[-5,0],[-4,-2],[-3,-3],[-3,-1],[-4,3],[0,4],[1,5],[-2,3],[-6,3],[-1,-4],[-1,-7],[-2,-4],[-4,-1],[-2,3],[0,4],[1,3],[-4,3],[-5,1],[-6,-1],[-2,-4],[0,-2],[2,-5],[0,-1],[-1,-1],[-3,-2],[-2,0],[-1,2],[-3,5],[-7,8],[-6,3],[-2,-9],[-7,5],[-7,2],[-12,-1],[0,-5],[3,-10],[0,-8],[-9,5],[-2,-9],[0,-6],[1,-5],[3,-5],[5,-4],[13,-7],[13,-3],[5,-5],[8,-11],[3,-1],[3,-1],[7,1],[3,-2],[8,-8],[-21,1],[-13,2],[-6,5],[-6,0],[-24,11],[-5,4],[-2,-10],[13,-21],[-7,-4],[-4,3],[-8,9],[-2,-1],[1,-6],[2,-4],[2,-3],[3,-4],[-7,2],[-5,4],[-7,14]],[[0,3656],[2,3],[2,4],[-1,6],[-2,0],[-1,0]],[[0,3740],[3,0],[3,2],[-1,-5],[-1,-4],[1,-3],[4,-4],[4,6],[5,19],[8,14],[3,2],[2,-9],[4,4],[2,5],[3,5],[6,1],[-7,9],[-1,3],[0,5],[1,4],[2,2],[4,-3],[16,-21],[2,0],[1,3],[2,3],[2,3],[2,2],[4,1],[-1,3],[-5,5],[0,10],[1,6],[3,0],[6,-7],[7,14],[2,-6],[2,-13],[6,-7],[5,6],[2,29],[6,8],[-1,-4],[0,-6],[3,-4],[5,-2],[5,2],[9,5],[4,0],[4,-3],[2,-4],[2,-4],[6,-2],[0,-2],[2,-5],[3,-5],[4,-3],[5,4],[3,12],[4,5],[-2,2],[-1,3],[-2,3],[0,4],[-1,4],[-2,1],[-2,2],[-2,3],[-1,4],[0,5],[0,5],[-2,5],[5,-1],[5,-7],[4,-1],[10,3],[1,-2],[1,-3],[1,-2],[2,-2],[8,-2],[3,-4],[2,-5],[1,-2],[4,1],[3,4],[2,5],[1,6],[-2,5],[-7,10],[-1,5],[-1,2],[-2,7],[0,3],[1,2],[3,0],[3,0],[1,-2],[15,-11],[6,1],[6,2],[5,-1],[3,-8],[-7,-1],[2,-4],[6,-5],[6,-2],[6,-1],[7,1],[7,2],[2,6],[1,6],[6,19],[2,4],[11,1],[6,-2],[2,-9],[-8,0]],[[1328,3866],[4,-15],[1,-20],[-1,-20],[-4,-16],[-7,-18],[-25,-41],[-9,-27],[-3,-15],[-5,-9],[-16,-21],[-6,-5],[-7,-3],[-8,-1],[-9,0],[-6,1],[-5,4],[-8,8],[-22,27],[-7,5],[0,11],[3,11],[1,7],[-4,2],[-6,-5],[-9,-14],[-10,-11],[-5,0],[-2,1],[-4,3],[-7,6],[-4,1],[-2,-6],[-1,-7],[-5,-14],[-1,-7],[-1,-12],[-3,-27],[-4,-12],[-5,-12],[-8,-11],[-2,-3],[-1,-6],[-1,-2],[-2,-2],[-5,-4],[-2,-2],[-6,-8],[-4,-2],[-6,-1],[-6,2],[-3,4],[-4,13],[-13,-23],[-2,-7],[-3,-5],[-7,-4],[-7,-2],[-5,-3],[-3,-7],[-4,-20],[-4,-4],[-3,-4],[-1,-11],[0,-12],[0,-7],[7,-30],[-1,-4],[3,-4],[2,-9],[1,-10],[0,-8],[-5,-35],[-5,-13],[-10,1],[6,3],[-3,4],[-7,0],[-3,-9],[-1,-7],[-2,-6],[-4,-4],[-3,0],[-2,26],[-4,13],[-8,13],[-5,11],[0,15],[3,14],[6,11],[-7,6],[-4,7],[0,8],[5,9],[4,10],[-6,5],[-10,3],[-4,6],[-2,5],[-5,7],[-1,4],[-1,9],[1,3],[3,5],[3,3],[2,0],[2,1],[0,7],[-1,4],[-6,13],[8,4],[1,5],[-3,6],[-1,8],[1,5],[2,3],[3,0],[3,-3],[1,-3],[-1,-15],[7,5],[29,48],[8,8],[10,3],[43,-3],[2,2],[-2,3],[-3,2],[-1,0],[-1,0],[-2,0],[-1,2],[-1,4],[2,4],[5,3],[11,6],[0,2],[-3,1],[-3,2],[-2,1],[0,3],[8,3],[5,4],[2,5],[0,11],[-3,15],[-1,2],[-1,2],[-13,7],[-6,7],[2,2],[16,-2],[8,1],[6,2],[12,9],[8,4],[6,2],[4,4],[4,22],[4,5],[24,6],[17,7],[7,5],[6,6],[3,5],[1,7],[1,11],[4,20],[10,12],[12,9],[43,19],[12,11],[-4,13],[-4,2],[-8,-1],[-3,2],[-1,3],[0,5],[1,5],[4,2],[4,5],[12,27],[3,2],[6,1],[4,3],[3,16],[8,2],[13,8],[6,-1],[-14,-32],[-5,-18],[-2,-19],[6,-17],[25,-27],[9,-15]],[[1441,4096],[2,-19],[-1,-8],[-3,-5],[-2,-10],[8,-24]],[[770,4096],[0,-12],[-1,-9],[-5,-26],[-7,-43],[-2,-23],[0,-20],[-3,-32],[-3,-15],[0,-11]],[[1227,4096],[-9,-8],[-20,-9],[-22,-15],[-21,-8],[-18,-7],[-9,-10],[-3,-11],[0,-13],[4,-17],[3,-7],[8,-12],[12,-13],[-5,-5],[-4,-10],[-6,-5],[-5,-8],[-21,-32],[-15,-16],[-16,-25],[-6,-11],[-17,-36],[-10,-1],[-11,-8],[-10,2],[-11,-6],[-10,-7]],[[749,3905],[-9,-8],[-12,-7],[-22,-14],[-39,-22],[-12,-13],[-17,-6],[-13,-7],[-8,-8],[-6,-15],[-4,-45],[-6,-11],[-6,-7],[-23,-36],[-3,-4]],[[569,3702],[-10,-9],[-9,-6],[-15,-7],[-21,-8]],[[514,3672],[-29,-11],[-13,-7],[-5,-4],[-3,-9],[-10,-25],[-12,-26],[-8,-9],[-9,-11],[-15,-14]],[[1005,3798],[-21,-15],[-6,-4],[-15,-5],[-5,-2],[-10,-12],[-14,-7],[-12,-8],[-6,-9],[-4,-24],[-8,-10],[-16,-13],[-15,-17],[-23,-18],[-10,-6],[-26,-11],[-17,-11],[-12,-12],[-10,-11],[-8,-11],[-4,-2],[-6,-15],[-11,-13],[-21,-19]],[[725,3543],[-10,-7],[-18,-9],[-9,-6],[-9,-6],[-9,-5]],[[670,3510],[-15,-12],[-8,-9],[-16,-26],[-8,-19],[-4,-20],[-2,-14]],[[410,3556],[-6,-9],[-1,-13],[0,-34],[0,-7],[-6,-26],[0,-13],[1,-10],[8,-30],[0,-13],[-6,-7],[-15,-12],[-22,-7],[-16,-9],[-6,-4],[-30,-6],[-17,-5],[-15,-8],[-12,-9]],[[1445,4030],[-21,-23],[-21,-29],[-12,-6],[-17,-17],[-9,-13],[-6,-13],[-3,-11],[-3,-36],[-4,-21],[-3,-46],[-6,-21],[-12,-35],[-9,-17],[-6,-23],[-21,-45],[-22,-30],[-18,-20],[-9,-11],[-18,-23],[-19,-20],[-26,-34],[-6,-9],[-7,-10],[-9,-13],[-9,-9],[-29,-36],[-33,-41],[-18,-19],[-12,-18],[-7,-8],[-17,-35],[-4,-27],[-11,-18]],[[617,3410],[-4,-28],[-6,-15],[-5,-13],[-4,-20],[-5,-8],[-9,-9],[-19,-13],[-20,-19]],[[267,3334],[-7,-13],[-2,-10],[0,-30],[-3,-18],[-4,-27],[-8,-11]],[[545,3285],[-4,-7],[-6,-15],[-2,-10],[0,-17],[3,-7],[-1,-13]],[[1018,3293],[-7,-12],[-6,-20],[-14,-30],[-7,-21],[-2,-17]],[[243,3225],[-6,-7],[-13,-19],[-6,-15],[-2,-11]],[[0,3189],[2,-7],[9,-33],[0,-23]],[[535,3216],[-2,-9],[-7,-14],[-2,-15],[5,-22],[-2,-37],[-1,-12],[-5,-5],[-6,-4]],[[982,3193],[-3,-35],[-3,-9],[-6,-15],[-3,-4],[-10,-10],[-11,-11],[-15,-15],[-16,-9],[-17,-4],[-22,-7]],[[216,3173],[-4,-21],[-3,-28],[-6,-7],[-9,-10],[-6,-9],[-8,-34]],[[515,3098],[-22,-13],[-11,-15],[-6,-23]],[[11,3126],[-3,-11],[7,-19],[0,-9],[-9,-17],[-3,-8],[-1,-9],[3,-9],[0,-8],[-5,-8]],[[476,3047],[-4,-11],[-8,-9],[-7,-4],[-18,-4],[-17,-7],[-18,-9],[-21,-8],[-14,-9]],[[180,3064],[-1,-11],[3,-28],[-2,-9],[-4,-12],[-6,-7],[-12,-28]],[[876,3074],[-24,-8],[-15,-4],[-14,-7],[-6,-6],[-8,-13],[-6,-15],[-6,-11],[-12,-19],[-10,-9],[-11,-8],[-31,-14],[-24,-10],[-17,-5]],[[0,2928],[2,0],[10,2],[39,1],[17,-1]],[[158,2969],[-9,-19],[-6,-11],[-15,-15],[-15,-9]],[[68,2930],[6,-2],[9,-4],[30,-9]],[[369,2986],[-13,-6],[-14,-6],[-4,-9],[-5,-5],[-15,-8],[-4,-6],[-2,-20],[-7,-15],[-11,-8],[-30,-18],[-16,-8]],[[248,2877],[-18,-5],[-26,-12],[-16,-9],[-12,-6]],[[113,2915],[18,-10],[9,-5],[15,-10],[3,-13],[0,-11],[3,-4],[7,-5],[8,-12]],[[692,2945],[-13,-8],[-9,-15],[-6,-13],[-11,-19],[-6,-5],[-10,-12],[-11,-5],[-15,-8],[-33,-20],[-28,-15],[-30,-13],[-21,-6],[-20,0]],[[176,2845],[27,-5],[16,-2],[21,0],[47,2],[13,-2],[27,-9],[15,-10],[14,-13],[7,-4],[5,0]],[[478,2806],[-17,-7],[-25,1],[-12,4],[-17,8],[-12,0],[-7,-6],[-20,-4]],[[126,2838],[-7,-2],[-12,-6],[-20,-13],[-6,-5],[-6,-12],[-9,-11],[-10,-9],[-8,-8]],[[176,2845],[-21,-5],[-29,-2]],[[0,2868],[3,-10],[-3,-18],[0,-1]],[[0,2808],[2,-13],[1,-6],[6,-9],[5,-9]],[[14,2771],[-14,7]],[[23,2767],[-9,4]],[[48,2772],[-7,-3],[-8,-2],[-10,0]],[[1543,4096],[45,0],[0,-1],[-52,-70],[-14,-24],[-3,-3],[-2,10],[2,10],[9,16],[2,7],[3,10],[1,11],[-2,8],[-5,10],[4,5],[7,4],[5,7]],[[0,2758],[0,1338],[1473,0],[-5,-2],[-7,-4],[-3,-8],[-1,-16],[-1,-9],[-3,-7],[11,1],[6,-2],[0,-6],[-9,-5],[8,-3],[12,3],[10,7],[5,7],[1,5],[5,4],[6,2],[5,-1],[5,-2],[0,-3],[-6,-5],[-18,-13],[-8,-10],[5,-10],[6,1],[13,18],[6,6],[-5,-18],[-1,-7],[4,-15],[0,-5],[-13,-5],[-37,-34],[-9,-14],[-44,-98],[-25,-85],[-10,-52],[-55,-137],[-8,-16],[-37,-50],[-27,-34],[-37,-36],[-62,-57],[-37,-42],[-27,-25],[-41,-29],[-6,-5],[-7,-6],[-13,-17],[-8,-15],[-5,-16],[-7,-37],[-7,-23],[-2,-21],[-3,-6],[-13,-10],[-6,-5],[-18,-24],[-19,-16],[-7,-7],[-13,-27],[-3,-5],[-1,-4],[-8,-27],[6,-16],[0,-8],[-15,-5],[-34,-20],[-27,-19],[-55,-56],[-5,-6],[-1,-8],[0,-7],[-2,-5],[-33,-8],[-8,0],[1,3],[2,3],[7,6],[-3,3],[-2,2],[-2,4],[-1,4],[1,5],[3,11],[1,2],[-5,6],[-10,4],[-10,3],[-7,0],[4,-3],[13,-6],[-3,-6],[-6,-6],[-6,-5],[-6,-2],[-2,-3],[0,-6],[2,-5],[6,1],[0,3],[5,-1],[7,-6],[3,-10],[-3,-5],[-6,-6],[-82,-45],[-4,-2],[-23,-7],[-12,-10],[-7,-4],[-15,-5],[-64,-31],[-7,-1],[-7,-3],[-10,-11],[-7,-2],[2,5],[1,3],[0,2],[-4,6],[-5,5],[-7,3],[-14,2],[-1,2],[1,3],[-3,4],[-4,2],[-3,2],[-8,2],[-17,-1],[-34,-8],[-14,3],[-9,9],[-19,26],[-14,8],[-9,1],[-24,2],[-15,-2],[-19,5],[-15,7],[-13,-3],[-3,-1],[-17,8],[-23,-8],[-13,4],[-25,-9],[-11,-5],[-23,-16],[-18,-13],[-24,-15],[-13,1],[-11,-6],[-6,-4],[-2,-9],[-8,11],[-6,1],[-7,3],[4,4],[0,5],[-4,4],[-6,1],[-2,-7],[-5,-4]],[[515,2765],[-24,-21],[-46,11],[24,28],[46,-18]],[[0,2764],[0,118],[2,5],[50,-41],[74,17],[0,-34],[57,14],[37,-29],[-172,-59],[-48,9]]]}