{"objects":{"water":{"type":"GeometryCollection","geometries":[]},"buildings":{"type":"GeometryCollection","geometries":[]},"places":{"type":"GeometryCollection","geometries":[]},"transit":{"type":"GeometryCollection","geometries":[]},"pois":{"type":"GeometryCollection","geometries":[]},"boundaries":{"type":"GeometryCollection","geometries":[{"type":"LineString","properties":{"name:left:io":"Quinslando","name:right:nl":"Noordelijk Territorium","name:right:ja":"\u30ce\u30fc\u30b6\u30f3\u30c6\u30ea\u30c8\u30ea\u30fc","id:left":-2316595,"short_name:left":"QLD","name:right:vi":"L\u00e3nh th\u1ed5 B\u1eafc \u00dac","name:right:lt":"\u0160iaurin\u0117 Teritorija","min_zoom":8.0,"name:left:lt":"Kvinslandas","name:right:sl":"Severno ozemlje","name:left:ru":"\u041a\u0432\u0438\u043d\u0441\u043b\u0435\u043d\u0434","name:left:vo":"Kvinsl\u00e4n","id:right":-2316594,"name:right:eo":"Norda Teritorio","id":-2316595,"osm_relation":true,"name:right":"Northern Territory","kind":"region","name:left:eo":"Kvinslando","name":"Queensland - Northern Territory","name:right:kn":"\u0c89\u0ca4\u0ccd\u0ca4\u0cb0 \u0caa\u0ccd\u0cb0\u0ca6\u0cc7\u0cb6","sort_rank":256,"kind_detail":"4","name:right:ru":"\u0421\u0435\u0432\u0435\u0440\u043d\u0430\u044f \u0442\u0435\u0440\u0440\u0438\u0442\u043e\u0440\u0438\u044f","source":"openstreetmap.org","name:left:zh":"\u6606\u58eb\u5170\u5dde","name:right:de":"Nordterritorium","name:right:zh":"\u5317\u9886\u5730","name:left":"Queensland"},"arcs":[0]}]},"roads":{"type":"GeometryCollection","geometries":[]},"earth":{"type":"GeometryCollection","geometries":[{"type":"MultiPolygon","properties":{"sort_rank":10,"source":"naturalearthdata.com","min_zoom":0.0,"kind":"earth","area":78485418515},"arcs":[[[1]]]},{"type":"Point","properties":{"label_placement":true,"name:pt":"Oce\u00e2nia","name:ms":"Oseania","name:tr":"Okyanusya","name:kn":"\u0c92\u0cb7\u0ccd\u0caf\u0cbe\u0ca8\u0cbf\u0caf","name:ar":"\u0623\u0648\u0642\u064a\u0627\u0646\u0648\u0633\u064a\u0627","name:cs":"Oce\u00e1nie","min_zoom":0.0,"name:vi":"Ch\u00e2u \u0110\u1ea1i D\u01b0\u01a1ng","name:ru":"\u041e\u043a\u0435\u0430\u043d\u0438\u044f","id":249399679,"name:vo":"Seanop","name:fa":"\u0627\u0642\u06cc\u0627\u0646\u0648\u0633\u06cc\u0647","name:hu":"\u00d3ce\u00e1nia","name:lt":"Okeanija","name:fi":"Oseania","name:da":"Oceanien","kind":"continent","name:de":"Ozeanien","source":"openstreetmap.org","name:fr":"Oc\u00e9anie","name:fy":"Oseaanje","name:be":"\u0410\u043a\u0456\u044f\u043d\u0456\u044f","name:zh":"\u5927\u6d0b\u6d32","name:sl":"Oceanija","name:nl":"Oceani\u00eb","name:nn":"Oseania","name:hi":"\u0913\u0936\u093f\u0906\u0928\u093f\u092f\u093e","name:eo":"Oceanio","name:sk":"Oce\u00e1nia","name:uk":"\u041e\u043a\u0435\u0430\u043d\u0456\u044f","name:sv":"Oceanien","name:li":"Oceani\u00eb","name:hr":"Oceanija","name:sr":"\u041e\u043a\u0435\u0430\u043d\u0438\u0458\u0430","name:el":"\u03a9\u03ba\u03b5\u03b1\u03bd\u03af\u03b1","name:ga":"An Aig\u00e9ine","name":"Oceania","name:is":"Eyja\u00e1lfa","name:ku":"Okyan\u00fbsya","name:no":"Oseania","name:es":"Ocean\u00eda"},"coordinates":[2048,3069]}]},"landuse":{"type":"GeometryCollection","geometries":[{"type":"MultiPolygon","properties":{"source":"openstreetmap.org","kind":"park","tier":2,"area":63721187,"sort_rank":24,"min_zoom":8.0},"arcs":[[[2]],[[3]]]},{"type":"Polygon","properties":{"kind":"park","area":427079008,"sort_rank":24,"source":"openstreetmap.org","min_zoom":6.0,"tier":2,"id":-1069701,"osm_relation":true},"arcs":[[4]]},{"type":"Polygon","properties":{"kind":"park","area":2744829952,"sort_rank":24,"source":"openstreetmap.org","min_zoom":4.0,"tier":2,"id":-1069701,"osm_relation":true},"arcs":[[5]]},{"type":"Polygon","properties":{"source":"naturalearthdata.com","kind":"urban_area","name":"","area":75517184,"sort_rank":11,"min_zoom":4.0,"id":11694},"arcs":[[6]]},{"type":"MultiPolygon","properties":{"source":"openstreetmap.org","kind":"park","tier":2,"area":994069206,"sort_rank":24,"min_zoom":6.0},"arcs":[[[7]],[[8]],[[9]]]}]}},"type":"Topology","transform":{"translate":[137.8125,-19.3111433551],"scale":[0.0003433228,0.0003252955]},"arcs":[[[542,4096],[-5,-4096]],[[0,4096],[4096,0],[0,-4096],[-4096,0],[0,4096]],[[2554,796],[22,78],[40,13],[-18,21],[28,-5],[10,-60],[41,3],[116,-105],[-34,-42],[-123,5],[-12,92],[-70,0]],[[2150,1339],[108,-58],[46,38],[32,-7],[52,-73],[6,-53],[-56,-61],[-188,214]],[[533,3485],[705,-53],[-34,-446],[-54,22],[-40,-20],[-10,26],[-57,-28],[-52,13],[-13,101],[-242,-12],[-42,41],[-87,-30],[-3,-226],[61,-17],[-132,-70],[0,699]],[[534,2551],[230,-29],[-34,154],[179,126],[176,-17],[73,38],[53,-43],[82,51],[-83,17],[30,27],[310,-32],[-105,-77],[41,-13],[-54,-70],[3,-58],[-45,-6],[-34,-45],[24,-15],[-18,-24],[38,-5],[-20,-24],[20,-15],[94,-38],[-20,-9],[29,-34],[51,-24],[-21,-6],[20,-45],[81,28],[-13,-20],[36,-9],[54,-69],[182,12],[29,23],[67,-124],[2,-48],[-63,-25],[-94,16],[-25,-90],[20,-27],[-12,-85],[97,-71],[8,72],[60,22],[-8,-46],[45,-1],[-35,-93],[42,-58],[39,-215],[39,-83],[65,-50],[-28,-25],[9,-30],[201,-243],[68,-49],[26,-46],[-12,-60],[34,-17],[71,56],[78,-93],[-40,-13],[-22,-78],[70,0],[12,-92],[120,-6],[-29,-148],[-72,-45],[63,-49],[0,-72],[-362,-13],[-35,-371],[-135,0],[-150,199],[37,30],[-201,250],[16,419],[314,-17],[89,80],[-116,129],[65,58],[-145,161],[-58,-50],[-116,17],[-61,-31],[-125,40],[-192,-66],[-125,8],[-65,38],[-115,-35],[-287,52],[76,86],[14,89],[25,16],[-32,11],[22,25],[-19,63],[70,69],[52,719],[26,35],[32,-30],[57,41],[34,76],[-21,43],[-76,4],[-108,-71],[-30,28],[-129,21],[-75,-47],[-22,-48],[-60,-26],[27,-37],[-17,-24],[-135,-26],[38,-95],[-166,-42],[0,389]],[[2801,438],[-110,11],[-63,64],[8,64],[186,107],[48,-22],[82,-116],[-46,-73],[-105,-35]],[[534,2162],[166,42],[-38,95],[135,26],[17,24],[-27,37],[60,26],[22,48],[75,47],[129,-21],[30,-28],[108,71],[76,-4],[15,-25],[-20,-81],[-53,-49],[-44,25],[-29,-57],[-93,24],[-162,-96],[25,-111],[-340,6],[-52,-30],[0,31]],[[1355,2558],[35,61],[45,6],[-3,58],[54,70],[-41,13],[105,77],[66,-6],[5,100],[6,123],[51,-127],[92,-20],[85,41],[-103,22],[-20,49],[61,56],[321,-181],[-99,-324],[-47,-9],[-143,-166],[-41,42],[138,-143],[-29,-23],[-171,-14],[-101,80],[13,20],[-81,-28],[-20,45],[21,6],[-29,1],[-64,91],[-80,26],[19,26],[-42,15],[20,26],[-23,-13]],[[533,2786],[132,70],[-61,17],[3,226],[87,30],[42,-41],[242,12],[13,-101],[192,4],[21,-17],[-9,-106],[45,-5],[-30,-27],[83,-17],[-82,-51],[-53,43],[-73,-38],[-167,18],[-54,-15],[-134,-112],[34,-154],[-230,29],[-1,235]]]}