{"objects":{"water":{"type":"GeometryCollection","geometries":[{"type":"Polygon","properties":{"source":"naturalearthdata.com","kind":"ocean","area":1576712559132672,"sort_rank":200,"min_zoom":0.0,"id":1},"arcs":[[2]]},{"type":"LineString","properties":{"source":"naturalearthdata.com","kind":"ocean","sort_rank":205,"boundary":true,"min_zoom":0.0,"id":78},"arcs":[3]}]},"buildings":{"type":"GeometryCollection","geometries":[]},"places":{"type":"GeometryCollection","geometries":[{"type":"Point","properties":{"name:ja":"\u30ab\u30bf\u30af","name:hi":"\u0915\u091f\u0915","name:kn":"\u0c95\u0c9f\u0c95","name:bn":"\u0995\u099f\u0995","name:uk":"\u041a\u0430\u0442\u0442\u0430\u043a","name:or":"\u0b15\u0b1f\u0b15","name:ru":"\u041a\u0430\u0442\u0442\u0430\u043a","name:ta":"\u0b95\u0b9f\u0bcd\u0b9f\u0b95\u0bcd","id":245688972,"name:te":"\u0c15\u0c1f\u0c15","kind":"locality","name":"Cuttack","kind_detail":"city","min_zoom":8.0,"source":"openstreetmap.org","population":610189},"coordinates":[285,3587]},{"type":"Point","properties":{"name:ja":"\u30d6\u30d0\u30cd\u30fc\u30b7\u30e5\u30ef\u30eb","name:hi":"\u092d\u0941\u0935\u0928\u0947\u0936\u094d\u0935\u0930","name:kn":"\u0cad\u0cc1\u0cb5\u0ca8\u0cc7\u0cb6\u0ccd\u0cb5\u0cb0","name:bn":"\u09ad\u09c1\u09ac\u09a8\u09c7\u09b6\u09cd\u09ac\u09b0","name:uk":"\u0411\u0445\u0443\u0431\u0430\u043d\u0435\u0448\u0432\u0430\u0440","name:or":"\u0b2d\u0b41\u0b2c\u0b28\u0b47\u0b36\u0b4d\u0b71\u0b30","name:ru":"\u0411\u0445\u0443\u0431\u0430\u043d\u0435\u0448\u0432\u0430\u0440","name:ta":"\u0baa\u0bc1\u0bb5\u0ba9\u0bc7\u0b9a\u0bc1\u0bb5\u0bb0\u0bcd","id":1051669585,"name:te":"\u0c2d\u0c41\u0c2c\u0c28\u0c47\u0c36\u0c4d\u0c35\u0c30\u0c4d","kind":"locality","name":"Bhubaneswar","kind_detail":"city","min_zoom":8.0,"name:sr":"\u0411\u0443\u0431\u0430\u043d\u0435\u0448\u0432\u0430\u0440","source":"openstreetmap.org","population":100000},"coordinates":[169,2942]},{"type":"Point","properties":{"source":"openstreetmap.org","kind":"locality","name":"Choudwar","kind_detail":"town","population":50000,"min_zoom":8.0,"id":245689269},"coordinates":[375,3770]},{"type":"Point","properties":{"kind":"locality","name":"Puri","name:hi":"\u092a\u0941\u0930\u0940","kind_detail":"city","min_zoom":8.0,"source":"openstreetmap.org","name:bn":"\u09aa\u09c1\u09b0\u09c0","name:kn":"\u0caa\u0cc1\u0cb0\u0cbf","population":50000,"name:ru":"\u041f\u0443\u0301\u0440\u0438","name:ta":"\u0baa\u0bc2\u0bb0\u0bbf","name:or":"\u0b2a\u0b41\u0b30\u0b40","id":245685894,"name:ja":"\u30d7\u30ea\u30fc"},"coordinates":[128,1539]},{"type":"Point","properties":{"source":"openstreetmap.org","kind":"locality","name":"Jagatsinghpur","kind_detail":"town","population":50000,"min_zoom":8.0,"id":2441357738},"coordinates":[1121,2939]},{"type":"Point","properties":{"source":"openstreetmap.org","kind":"locality","name":"Konark","kind_detail":"town","population":16779,"min_zoom":8.0,"id":481077178},"coordinates":[906,1794]},{"type":"Point","properties":{"kind":"locality","name":"Paradip","kind_detail":"town","source":"openstreetmap.org","min_zoom":8.0,"name:or":"\u0b2a\u0b3e\u0b30\u0b3e\u0b26\u0b40\u0b2a","id":2282994869,"population":10000},"coordinates":[2559,2964]},{"type":"Point","properties":{"source":"openstreetmap.org","kind":"locality","name":"Kendrapara","kind_detail":"town","population":5000,"min_zoom":8.0,"id":245689350},"coordinates":[1849,3698]},{"type":"Point","properties":{"source":"openstreetmap.org","kind":"locality","name":"Pipili","kind_detail":"town","population":1000,"min_zoom":8.0,"id":2441444585},"coordinates":[152,2503]}]},"transit":{"type":"GeometryCollection","geometries":[]},"pois":{"type":"GeometryCollection","geometries":[{"type":"Point","properties":{"source":"openstreetmap.org","kind":"nature_reserve","name":"Gahirmata Marine Sanctuary","area":1551860000,"tier":2,"min_zoom":6.99,"id":168254310},"coordinates":[3604,3925]}]},"boundaries":{"type":"GeometryCollection","geometries":[{"type":"LineString","properties":{"name:pt":"\u00cdndia","name:ty":"\u2019In\u012btia","name:ps":"\u0647\u0646\u062f","name:ka":"\u10d8\u10dc\u10d3\u10dd\u10d4\u10d7\u10d8","name:ko":"\uc778\ub3c4","name:cv":"\u0418\u043d\u0434\u0438","name:km":"\u17a5\u178e\u17d2\u178c\u17b6","name:cs":"Indie","name:rn":"Ubuhindi","name:tt":"\u04ba\u0438\u043d\u0434\u0441\u0442\u0430\u043d","name:kw":"Eynda","name:kv":"\u0418\u043d\u0434\u0438\u044f","name:ku":"Hindistan","name:ks":"\u0628\u064b\u0627\u0631\u062a","name:to":"\u02bbInitia","name:tl":"Indiya","name:zh-min-nan":"\u00ccn-t\u014d\u0358","name:os":"\u0418\u043d\u0434\u0438","name:or":"\u0b2d\u0b3e\u0b30\u0b24","name:ce":"\u0418\u043d\u0434\u0438","name:ta":"\u0b87\u0ba8\u0bcd\u0ba4\u0bbf\u0baf\u0bbe","name:tg":"\u04b2\u0438\u043d\u0434\u0443\u0441\u0442\u043e\u043d","name:ca":"\u00cdndia","name:te":"\u0c2d\u0c3e\u0c30\u0c24 \u0c26\u0c47\u0c36\u0c02","name:bg":"\u0418\u043d\u0434\u0438\u044f","source":"openstreetmap.org","sort_rank":262,"name:hr":"Indija","name:da":"Indien","name:sw":"Uhindi","name:de":"Indien","name:dz":"\u0f62\u0f92\u0fb1\u0f0b\u0f42\u0f62","name:tr":"Hindistan","osm_relation":true,"name:kn":"\u0cad\u0cbe\u0cb0\u0ca4","name:be":"\u0406\u043d\u0434\u044b\u044f","name:dv":"\u0787\u07a8\u0782\u07b0\u0791\u07a8\u0794\u07a7","name:za":"Yindu","name:ba":"\u04ba\u0438\u043d\u0434\u043e\u0441\u0442\u0430\u043d","name:ar":"\u0627\u0644\u0647\u0646\u062f","name:lv":"Indija","name:lt":"Indija","name:uz":"Hindiston","name:kk":"\u04ae\u043d\u0434\u0456\u0441\u0442\u0430\u043d","name:he":"\u05d4\u05d5\u05d3\u05d5","name:eo":"Barato","name:ur":"\u0628\u06be\u0627\u0631\u062a","name:lb":"Indien","name:uk":"\u0406\u043d\u0434\u0456\u044f","name:hy":"\u0540\u0576\u0564\u056f\u0561\u057d\u057f\u0561\u0576","name:ug":"\u06be\u0649\u0646\u062f\u0649\u0633\u062a\u0627\u0646","name:qu":"Indya","name:oc":"\u00cdndia","name:el":"\u0399\u03bd\u03b4\u03af\u03b1","kind":"country","name":"India","name:tk":"Hindistan","min_zoom":8.0,"name:th":"\u0e1b\u0e23\u0e30\u0e40\u0e17\u0e28\u0e2d\u0e34\u0e19\u0e40\u0e14\u0e35\u0e22","name:yi":"\u05d0\u05d9\u05e0\u05d3\u05d9\u05e2","name:iu":"\u1403\u14d0\u144e\u140a","name:yo":"\u00cdnd\u00ed\u00e0","name:mt":"Indja","alt_name:eo":"Hindujo;Hindio","name:az":"Hindistan","name:ig":"Ndia","name:mr":"\u092d\u093e\u0930\u0924","name:pa":"\u0a2d\u0a3e\u0a30\u0a24","name:my":"\u1021\u102d\u1014\u1039\u1012\u102d\u101a\u1014\u102d\u102f\u1004\u103a\u1004\u1036","name:is":"Indland","name:am":"\u1205\u1295\u12f5","name:vi":"\u1ea4n \u0110\u1ed9","name:ml":"\u0d07\u0d28\u0d4d\u0d24\u0d4d\u0d2f","name:rw":"Ubuhinde","name:mi":"\u012ania","name:pl":"Indie","name:mk":"\u0418\u043d\u0434\u0438\u0458\u0430","name:vo":"Lind\u00e4n","name:zu":"INdiya","name:mn":"\u042d\u043d\u044d\u0442\u0445\u044d\u0433","name:ss":"INdiya","kind_detail":"2","name:hi":"\u092d\u093e\u0930\u0924","id":-304716,"alt_name:vi":"Thi\u00ean Tr\u00fac;Quy\u00ean \u0110\u1ed9c","name:fr":"Inde","name:ky":"\u0418\u043d\u0434\u0438\u044f","name:zh-yue":"\u5370\u5ea6","name:fy":"Yndia","name:pi":"\u092d\u093e\u0930\u0924","name:zh":"\u5370\u5ea6","name:so":"Hindiya","name:sm":"Igitia","name:sl":"Indija","name:ja":"\u30a4\u30f3\u30c9","name:si":"\u0db7\u0dcf\u0dbb\u0dad \u0da2\u0db1\u0dbb\u0da2\u0dba","name:sh":"Indija","name:na":"Indjiya","name:sd":"\u0680\u0627\u0631\u062a","name:sc":"\u00ccndia","name:ne":"\u092d\u093e\u0930\u0924","name:sa":"\u092d\u093e\u0930\u0924\u092e\u094d","name:bs":"Indija","name:bn":"\u09ad\u09be\u09b0\u09a4","name:bo":"\u0f62\u0f92\u0fb1\u0f0b\u0f42\u0f62\u0f0d","name:ru":"\u0418\u043d\u0434\u0438\u044f","name:sv":"Indien","name:ha":"Indiya","name:wo":"End","name:sr":"\u0418\u043d\u0434\u0438\u0458\u0430","name:nv":"T\u00f3 W\u00f3naan\u00edd\u0119\u0301\u0119\u0301\u02bc Bits\u012f\u02bc Yisht\u0142izhii Bik\u00e9yah","name:ga":"An India","name:gd":"Na h-Innseachan","name:ht":"End","name:wa":"Inde","name:fa":"\u0647\u0646\u062f","maritime_boundary":true,"name:gv":"Yn Injey","name:gu":"\u0aad\u0abe\u0ab0\u0aa4","name:fi":"Intia"},"arcs":[0]},{"type":"LineString","properties":{"name:ja":"\u30aa\u30ea\u30c3\u30b5","name:hi":"\u0913\u0921\u093c\u093f\u0936\u093e","name:kn":"\u0c92\u0cb0\u0cbf\u0cb8\u0ccd\u0cb8\u0cbe","name:bn":"\u0993\u09a1\u09bc\u09bf\u09b6\u09be","name:uk":"\u041e\u0440\u0456\u0441\u0441\u0430","name:ru":"\u041e\u0440\u0438\u0441\u0441\u0430","name:or":"\u0b13\u0b21\u0b3c\u0b3f\u0b36\u0b3e","name:ta":"\u0b92\u0b9f\u0bbf\u0b9a\u0bbe","id":-1984022,"osm_relation":true,"name:te":"\u0c12\u0c30\u0c3f\u0c38\u0c4d\u0c38\u0c3e","kind":"region","name":"Odisha","sort_rank":256,"kind_detail":"4","min_zoom":8.0,"source":"openstreetmap.org","maritime_boundary":true,"name:zh":"\u5965\u91cc\u8428\u90a6"},"arcs":[1]}]},"roads":{"type":"GeometryCollection","geometries":[{"type":"MultiLineString","properties":{"kind":"major_road","network":"IN:NH","sort_rank":381,"landuse_kind":"urban_area","source":"openstreetmap.org","min_zoom":8.0,"kind_detail":"trunk","shield_text":null,"ref":"NH316"},"arcs":[[4],[5]]},{"type":"MultiLineString","properties":{"kind":"major_road","network":"AsianHighway","sort_rank":381,"landuse_kind":"urban_area","source":"openstreetmap.org","min_zoom":8.0,"kind_detail":"trunk","shield_text":"45","ref":"NH16"},"arcs":[[6],[7],[8],[9],[10]]},{"type":"MultiLineString","properties":{"kind":"major_road","network":"IN:NH","sort_rank":381,"kind_detail":"trunk","source":"openstreetmap.org","min_zoom":8.0,"landuse_kind":"residential","shield_text":null,"ref":"NH316"},"arcs":[[11],[12],[13],[14],[15],[16],[17],[18],[19]]},{"type":"LineString","properties":{"kind":"major_road","network":null,"sort_rank":380,"kind_detail":"primary","source":"openstreetmap.org","min_zoom":8.0,"landuse_kind":"residential","shield_text":"9A"},"arcs":[20]},{"type":"MultiLineString","properties":{"source":"openstreetmap.org","kind":"major_road","sort_rank":381,"kind_detail":"trunk","ref":"NH 3616","min_zoom":8.0,"id":464260872},"arcs":[[21],[22]]},{"type":"MultiLineString","properties":{"kind":"major_road","network":null,"sort_rank":380,"kind_detail":"primary","source":"openstreetmap.org","min_zoom":8.0,"shield_text":"13","ref":"SH13"},"arcs":[[23],[24]]},{"type":"LineString","properties":{"kind":"major_road","network":"IN:NH","sort_rank":380,"kind_detail":"primary","source":"openstreetmap.org","min_zoom":8.0,"landuse_kind":"residential","shield_text":null,"id":44946868},"arcs":[25]},{"type":"LineString","properties":{"kind":"major_road","network":"IN:NH","sort_rank":381,"kind_detail":"trunk","source":"openstreetmap.org","min_zoom":8.0,"shield_text":"316","id":277014046},"arcs":[26]},{"type":"MultiLineString","properties":{"kind":"major_road","network":"IN:NH","sort_rank":381,"landuse_kind":"urban_area","source":"openstreetmap.org","min_zoom":8.0,"kind_detail":"trunk","shield_text":"16","osm_relation":true},"arcs":[[27],[28],[29],[30],[31],[32],[33],[34]]},{"type":"LineString","properties":{"kind":"major_road","network":null,"sort_rank":380,"kind_detail":"primary","source":"openstreetmap.org","min_zoom":8.0,"shield_text":"81","ref":"SH60"},"arcs":[35]},{"type":"LineString","properties":{"source":"openstreetmap.org","kind":"major_road","sort_rank":380,"kind_detail":"primary","ref":"SH60","min_zoom":8.0},"arcs":[36]},{"type":"LineString","properties":{"kind":"major_road","network":null,"sort_rank":380,"kind_detail":"primary","source":"openstreetmap.org","min_zoom":8.0,"landuse_kind":"urban_area","shield_text":"12","ref":"SH12"},"arcs":[37]},{"type":"LineString","properties":{"kind":"major_road","sort_rank":381,"landuse_kind":"urban_area","source":"openstreetmap.org","min_zoom":8.0,"kind_detail":"trunk","ref":"NH 16","id":464264627},"arcs":[38]},{"type":"MultiLineString","properties":{"source":"openstreetmap.org","kind":"major_road","landuse_kind":"residential","sort_rank":381,"kind_detail":"trunk","ref":"NH316","min_zoom":8.0},"arcs":[[39],[40],[41]]},{"type":"MultiLineString","properties":{"kind":"major_road","network":"AsianHighway","sort_rank":381,"kind_detail":"trunk","source":"openstreetmap.org","min_zoom":8.0,"shield_text":"45","ref":"NH16"},"arcs":[[42],[43],[44],[45],[46],[47],[48],[49]]},{"type":"MultiLineString","properties":{"sort_rank":381,"source":"openstreetmap.org","min_zoom":8.0,"kind":"major_road","kind_detail":"trunk"},"arcs":[[50],[51]]},{"type":"MultiLineString","properties":{"kind":"major_road","network":"IN:NH","sort_rank":381,"kind_detail":"trunk","source":"openstreetmap.org","min_zoom":8.0,"shield_text":null,"ref":"NH316"},"arcs":[[52],[53],[54],[55],[56],[57],[58],[59],[60],[61],[62],[63],[64],[65]]},{"type":"MultiLineString","properties":{"kind":"major_road","sort_rank":381,"landuse_kind":"urban_area","source":"openstreetmap.org","min_zoom":8.0,"kind_detail":"trunk","ref":"NH 316","id":464261389},"arcs":[[66],[67]]},{"type":"MultiLineString","properties":{"source":"openstreetmap.org","kind":"major_road","sort_rank":381,"kind_detail":"trunk","ref":"NH 316","min_zoom":8.0},"arcs":[[68],[69]]},{"type":"LineString","properties":{"kind":"major_road","network":null,"sort_rank":380,"kind_detail":"primary","source":"openstreetmap.org","min_zoom":8.0,"landuse_kind":"residential","shield_text":"9A","ref":"SH9A"},"arcs":[70]},{"type":"LineString","properties":{"source":"openstreetmap.org","kind":"major_road","sort_rank":380,"kind_detail":"primary","ref":"SH 13","min_zoom":8.0,"id":168251693},"arcs":[71]},{"type":"MultiLineString","properties":{"kind":"major_road","network":"IN:NH","sort_rank":381,"kind_detail":"trunk","source":"openstreetmap.org","min_zoom":8.0,"shield_text":null,"ref":"NH53"},"arcs":[[72],[73],[74],[75],[76],[77],[78],[79],[80],[81],[82],[83],[84],[85]]},{"type":"MultiLineString","properties":{"kind":"major_road","network":"IN-roads","sort_rank":381,"landuse_kind":"urban_area","source":"openstreetmap.org","min_zoom":8.0,"kind_detail":"trunk","shield_text":null,"ref":"NH55"},"arcs":[[86],[87],[88]]},{"type":"MultiLineString","properties":{"source":"openstreetmap.org","kind":"major_road","landuse_kind":"urban_area","sort_rank":380,"kind_detail":"primary","min_zoom":8.0},"arcs":[[89],[90],[91],[92],[93],[94],[95],[96],[97],[98],[99],[100],[101],[102],[103],[104],[105],[106],[107]]},{"type":"MultiLineString","properties":{"kind":"major_road","network":"IN-roads","sort_rank":381,"kind_detail":"trunk","source":"openstreetmap.org","min_zoom":8.0,"shield_text":null,"ref":"NH55"},"arcs":[[108],[109],[110],[111],[112]]},{"type":"MultiLineString","properties":{"kind":"major_road","network":"IN:NH","sort_rank":380,"kind_detail":"primary","source":"openstreetmap.org","min_zoom":8.0,"landuse_kind":"residential","shield_text":"55","ref":"SH12"},"arcs":[[113],[114],[115]]},{"type":"LineString","properties":{"kind":"major_road","network":"IN:NH","sort_rank":380,"kind_detail":"primary","source":"openstreetmap.org","min_zoom":8.0,"shield_text":null,"id":237794160},"arcs":[116]},{"type":"LineString","properties":{"kind":"major_road","network":"IN:NH","sort_rank":380,"kind_detail":"primary","source":"openstreetmap.org","min_zoom":8.0,"shield_text":"55","ref":"SH12"},"arcs":[117]},{"type":"MultiLineString","properties":{"source":"openstreetmap.org","kind":"major_road","sort_rank":380,"kind_detail":"primary","ref":"NH 16","min_zoom":8.0},"arcs":[[118],[119]]},{"type":"MultiLineString","properties":{"kind":"major_road","network":"AsianHighway","sort_rank":381,"kind_detail":"trunk","source":"openstreetmap.org","min_zoom":8.0,"landuse_kind":"residential","shield_text":"45","ref":"NH16"},"arcs":[[120],[121],[122],[123],[124],[125],[126],[127],[128]]},{"type":"MultiLineString","properties":{"sort_rank":380,"kind_detail":"primary","min_zoom":8.0,"kind":"major_road","source":"openstreetmap.org"},"arcs":[[129],[130],[131],[132],[133],[134],[135],[136],[137],[138],[139],[140],[141],[142],[143],[144],[145],[146],[147]]},{"type":"MultiLineString","properties":{"source":"openstreetmap.org","kind":"major_road","landuse_kind":"residential","sort_rank":381,"kind_detail":"trunk","ref":"NH 316","min_zoom":8.0},"arcs":[[148],[149],[150],[151]]},{"type":"MultiLineString","properties":{"kind":"major_road","network":"AsianHighway","sort_rank":381,"landuse_kind":"urban_area","source":"openstreetmap.org","min_zoom":8.0,"kind_detail":"trunk","shield_text":"45","ref":"NH16;55"},"arcs":[[152],[153],[154]]},{"type":"MultiLineString","properties":{"kind":"major_road","network":null,"sort_rank":380,"kind_detail":"primary","source":"openstreetmap.org","min_zoom":8.0,"shield_text":"9A","ref":"SH9A"},"arcs":[[155],[156]]},{"type":"MultiLineString","properties":{"source":"openstreetmap.org","kind":"major_road","kind_detail":"trunk","sort_rank":381,"landuse_kind":"urban_area","min_zoom":8.0},"arcs":[[157],[158],[159],[160],[161]]},{"type":"LineString","properties":{"kind":"major_road","network":"IN-roads","sort_rank":381,"kind_detail":"trunk","source":"openstreetmap.org","min_zoom":8.0,"landuse_kind":"residential","shield_text":null,"ref":"NH55"},"arcs":[162]},{"type":"MultiLineString","properties":{"source":"openstreetmap.org","kind":"major_road","sort_rank":381,"kind_detail":"trunk","ref":"NH316","min_zoom":8.0},"arcs":[[163],[164],[165],[166],[167],[168]]},{"type":"LineString","properties":{"kind":"major_road","network":null,"sort_rank":380,"kind_detail":"primary","source":"openstreetmap.org","min_zoom":8.0,"shield_text":"60","ref":"SH60"},"arcs":[169]},{"type":"MultiLineString","properties":{"source":"openstreetmap.org","kind":"major_road","landuse_kind":"residential","sort_rank":380,"kind_detail":"primary","min_zoom":8.0},"arcs":[[170],[171],[172],[173],[174],[175],[176],[177],[178],[179],[180],[181],[182],[183],[184],[185],[186],[187],[188],[189],[190],[191],[192],[193],[194],[195],[196],[197],[198],[199],[200],[201],[202],[203],[204],[205],[206],[207],[208],[209],[210],[211],[212],[213],[214],[215],[216],[217],[218],[219],[220],[221],[222],[223],[224],[225],[226],[227],[228],[229],[230],[231],[232],[233],[234],[235],[236],[237],[238],[239],[240],[241],[242],[243],[244],[245],[246],[247],[248],[249],[250],[251],[252],[253],[254],[255],[256],[257],[258],[259],[260],[261],[262],[263],[264],[265],[266],[267],[268],[269],[270],[271],[272],[273],[274],[275],[276],[277],[278],[279],[280],[281],[282],[283],[284],[285],[286],[287],[288],[289],[290],[291],[292],[293],[294],[295],[296],[297],[298],[299],[300],[301],[302],[303],[304],[305],[306],[307],[308],[309],[310],[311],[312],[313],[314],[315],[316],[317],[318],[319],[320],[321],[322],[323],[324],[325],[326],[327],[328],[329],[330],[331],[332],[333],[334],[335],[336],[337],[338],[339],[340],[341],[342],[343],[344],[345],[346],[347],[348],[349],[350],[351],[352],[353],[354],[355],[356],[357],[358],[359],[360],[361],[362],[363],[364],[365],[366],[367],[368],[369],[370],[371],[372],[373],[374],[375],[376],[377],[378],[379],[380],[381],[382],[383],[384],[385],[386],[387],[388],[389],[390],[391],[392],[393],[394],[395],[396]]},{"type":"LineString","properties":{"kind":"major_road","network":"IN:NH","sort_rank":380,"kind_detail":"primary","source":"openstreetmap.org","min_zoom":8.0,"landuse_kind":"residential","shield_text":"55","id":44946855},"arcs":[397]},{"type":"LineString","properties":{"source":"openstreetmap.org","kind":"major_road","sort_rank":380,"kind_detail":"primary","ref":"SH9A","min_zoom":8.0},"arcs":[398]},{"type":"MultiLineString","properties":{"kind":"major_road","network":"IN:NH","sort_rank":381,"kind_detail":"trunk","source":"openstreetmap.org","min_zoom":8.0,"shield_text":"16","osm_relation":true},"arcs":[[399],[400],[401],[402],[403],[404],[405],[406]]},{"type":"MultiLineString","properties":{"kind":"major_road","sort_rank":381,"landuse_kind":"residential","source":"openstreetmap.org","min_zoom":8.0,"kind_detail":"trunk","ref":"NH 3616","id":464260872},"arcs":[[407],[408],[409],[410]]},{"type":"LineString","properties":{"kind":"major_road","sort_rank":380,"landuse_kind":"urban_area","source":"openstreetmap.org","min_zoom":8.0,"kind_detail":"primary","ref":"SH12","id":479007001},"arcs":[411]},{"type":"MultiLineString","properties":{"kind":"major_road","network":"IN:NH","sort_rank":381,"landuse_kind":"urban_area","source":"openstreetmap.org","min_zoom":8.0,"kind_detail":"trunk","shield_text":null,"ref":"NH53"},"arcs":[[412],[413],[414],[415],[416]]},{"type":"MultiLineString","properties":{"kind":"major_road","network":"IN:NH","sort_rank":381,"kind_detail":"trunk","source":"openstreetmap.org","min_zoom":8.0,"landuse_kind":"residential","shield_text":"16","osm_relation":true},"arcs":[[417],[418],[419],[420],[421],[422],[423],[424],[425],[426],[427],[428]]},{"type":"LineString","properties":{"kind":"major_road","network":null,"sort_rank":380,"kind_detail":"primary","source":"openstreetmap.org","min_zoom":8.0,"shield_text":"12","ref":"SH12"},"arcs":[429]},{"type":"LineString","properties":{"source":"openstreetmap.org","kind":"major_road","network":"IN:NH","sort_rank":381,"kind_detail":"trunk","min_zoom":8.0,"shield_text":"55"},"arcs":[430]},{"type":"LineString","properties":{"kind":"major_road","network":"IN:NH","sort_rank":380,"kind_detail":"primary","source":"openstreetmap.org","min_zoom":8.0,"shield_text":"55","ref":"SH43"},"arcs":[431]},{"type":"MultiLineString","properties":{"kind":"major_road","network":"AsianHighway","sort_rank":381,"kind_detail":"trunk","source":"openstreetmap.org","min_zoom":8.0,"landuse_kind":"residential","shield_text":"45","ref":"NH16;55"},"arcs":[[432],[433],[434],[435]]},{"type":"LineString","properties":{"kind":"major_road","network":"IN:NH","sort_rank":381,"kind_detail":"trunk","source":"openstreetmap.org","min_zoom":8.0,"shield_text":"55","ref":"NH55","id":459798270},"arcs":[436]},{"type":"MultiLineString","properties":{"kind":"major_road","sort_rank":381,"landuse_kind":"urban_area","source":"openstreetmap.org","min_zoom":8.0,"kind_detail":"trunk","ref":"NH 3616","id":464260872},"arcs":[[437],[438]]},{"type":"MultiLineString","properties":{"source":"openstreetmap.org","kind":"major_road","landuse_kind":"residential","sort_rank":381,"kind_detail":"trunk","min_zoom":8.0},"arcs":[[439],[440],[441],[442],[443]]},{"type":"LineString","properties":{"kind":"major_road","network":"AsianHighway","sort_rank":381,"kind_detail":"trunk","source":"openstreetmap.org","min_zoom":8.0,"shield_text":"45","ref":"NH16;55"},"arcs":[444]}]},"earth":{"type":"GeometryCollection","geometries":[{"type":"Polygon","properties":{"sort_rank":10,"source":"naturalearthdata.com","kind":"earth","min_zoom":0.0,"id":4720},"arcs":[[445]]}]},"landuse":{"type":"GeometryCollection","geometries":[{"type":"Polygon","properties":{"kind":"residential","name":"Bhubaneswar","area":168967008,"sort_rank":20,"source":"openstreetmap.org","min_zoom":6.0,"tier":2,"id":488395758},"arcs":[[446]]},{"type":"Polygon","properties":{"source":"openstreetmap.org","kind":"nature_reserve","area":1551859968,"tier":2,"id":168254310,"min_zoom":4.0,"sort_rank":23},"arcs":[[447]]},{"type":"Polygon","properties":{"source":"openstreetmap.org","kind":"nature_reserve","area":88973600,"tier":2,"id":168254309,"min_zoom":8.0,"sort_rank":23},"arcs":[[448]]},{"type":"MultiPolygon","properties":{"source":"naturalearthdata.com","kind":"urban_area","name":"","area":492113986,"sort_rank":11,"min_zoom":4.0},"arcs":[[[449]],[[450]],[[451]],[[452]]]},{"type":"Polygon","properties":{"kind":"residential","name":"Puri","area":27618700,"sort_rank":20,"source":"openstreetmap.org","min_zoom":8.0,"tier":2,"name:ta":"\u0baa\u0bc1\u0bb0\u0bbf","id":84730844,"name:ja":"\u30d7\u30ea\u30fc"},"arcs":[[453]]},{"type":"MultiPolygon","properties":{"source":"openstreetmap.org","kind":"residential","tier":2,"area":83685050,"sort_rank":20,"min_zoom":8.0},"arcs":[[[454]]]},{"type":"Polygon","properties":{"kind":"residential","name":"Jagatpur","area":14366400,"sort_rank":20,"source":"openstreetmap.org","min_zoom":8.0,"tier":2,"id":466635195},"arcs":[[455]]},{"type":"Polygon","properties":{"kind":"residential","name":"Kataka (Cuttack)","area":47469400,"sort_rank":20,"source":"openstreetmap.org","min_zoom":8.0,"tier":2,"id":488420991},"arcs":[[456]]}]}},"type":"Topology","transform":{"translate":[85.78125,19.3111433551],"scale":[0.0003433228,0.0003226662]},"arcs":[[[0,608],[13,12],[78,-184],[2486,1016],[167,244],[167,403],[1185,1190]],[[0,608],[13,12],[78,-184],[2486,1016],[167,244],[167,403],[1185,1190]],[[0,1406],[22,3],[58,24],[110,69],[123,22],[364,112],[54,8],[17,11],[25,23],[29,13],[30,-15],[33,-26],[32,2],[65,36],[457,169],[303,169],[-47,17],[-43,30],[-43,15],[-34,6],[-20,16],[-16,22],[-20,23],[-5,12],[0,17],[-3,17],[-12,16],[-13,3],[-32,-4],[-15,1],[-111,27],[-48,22],[-76,66],[-58,29],[-27,25],[-12,28],[-27,99],[21,65],[18,0],[13,-25],[16,-67],[13,-34],[67,-68],[11,-8],[27,-35],[65,-5],[128,8],[213,-182],[142,-80],[85,50],[-36,-1],[-29,12],[-21,23],[-16,32],[69,49],[152,181],[4,46],[30,62],[34,138],[13,31],[48,42],[66,27],[145,37],[129,53],[260,160],[108,85],[-101,-70],[-53,-22],[-23,29],[23,30],[53,35],[56,29],[36,12],[49,47],[75,108],[46,114],[-40,69],[-18,-70],[-5,-37],[2,-39],[-56,33],[-39,-22],[-42,-44],[-62,-34],[12,197],[27,93],[51,84],[66,71],[434,340],[106,34],[664,0],[0,-4096],[-4096,0],[0,1406]],[[0,1406],[22,3],[58,24],[110,69],[123,22],[364,112],[54,8],[17,11],[25,23],[29,13],[30,-15],[33,-26],[32,2],[65,36],[457,169],[303,169],[-47,17],[-43,30],[-43,15],[-34,6],[-20,16],[-16,22],[-20,23],[-5,12],[0,17],[-3,17],[-12,16],[-13,3],[-32,-4],[-15,1],[-111,27],[-48,22],[-76,66],[-58,29],[-27,25],[-12,28],[-27,99],[21,65],[18,0],[13,-25],[16,-67],[13,-34],[67,-68],[11,-8],[27,-35],[65,-5],[128,8],[213,-182],[142,-80],[85,50],[-36,-1],[-29,12],[-21,23],[-16,32],[69,49],[152,181],[4,46],[30,62],[34,138],[13,31],[48,42],[66,27],[145,37],[129,53],[260,160],[108,85],[-101,-70],[-53,-22],[-23,29],[23,30],[53,35],[56,29],[36,12],[49,47],[75,108],[46,114],[-40,69],[-18,-70],[-5,-37],[2,-39],[-56,33],[-39,-22],[-42,-44],[-62,-34],[12,197],[27,93],[51,84],[66,71],[434,340],[106,34]],[[76,1557],[-31,-1]],[[160,1673],[-8,-76]],[[269,3098],[25,43]],[[295,3141],[-3,-15],[-10,-16],[-12,-13]],[[303,3486],[26,25]],[[330,3511],[-25,-25]],[[438,3720],[11,25]],[[143,1570],[-67,-13]],[[146,1574],[-3,-4]],[[143,1570],[144,51]],[[148,1580],[-2,-6]],[[152,1597],[-6,-23]],[[187,2952],[35,97]],[[210,2799],[-35,39],[12,114]],[[223,3050],[-36,-98]],[[211,2796],[-5,-9]],[[407,3671],[0,-1]],[[220,2832],[13,46]],[[239,2900],[8,28]],[[151,2491],[-151,61]],[[162,2507],[76,1],[62,-60],[359,-124],[2,-190],[24,-46]],[[407,3670],[-2,0],[0,2],[2,0],[0,-2]],[[148,2360],[51,136],[-32,50]],[[268,3101],[28,39]],[[296,3140],[-2,-11],[-25,-29]],[[302,3486],[27,26]],[[329,3512],[-27,-26]],[[377,3593],[35,62]],[[413,3654],[-35,-61]],[[437,3720],[5,25],[6,4]],[[448,3747],[-9,-27]],[[457,1700],[65,121],[68,73],[50,6],[34,54],[11,134]],[[319,3260]],[[2461,3100],[4,-3]],[[283,3110],[-11,-11]],[[175,2869],[37,-71]],[[206,2787],[5,9]],[[212,2798],[-2,1]],[[294,3141],[25,135],[-39,188],[23,22]],[[305,3486],[-24,-22],[39,-186],[-5,-30],[-20,-107]],[[449,3745],[16,16],[188,118]],[[653,3879],[1,0],[34,28]],[[688,3907],[113,90],[96,99]],[[898,4096],[-96,-99],[-114,-90]],[[688,3907],[-35,-28]],[[653,3879],[-1,-1],[-186,-118]],[[202,2779],[4,8]],[[465,3760],[-1,0]],[[45,1556],[-45,-5]],[[206,2787],[23,-42],[-1,-4]],[[228,2741],[-2,-62],[-9,-21]],[[217,2658],[-49,-110]],[[168,2548],[31,-53],[-80,-272]],[[160,1673],[-93,127],[35,46],[27,136],[-31,201],[50,177]],[[167,2546],[1,2]],[[168,2548],[49,110]],[[217,2658],[8,19],[3,61],[0,3]],[[228,2741],[1,1]],[[287,1621],[170,79]],[[457,1700],[75,-33],[429,52],[-33,78],[-23,-4]],[[457,1700]],[[457,1700]],[[260,2979],[-17,-51]],[[268,3031],[1,-26]],[[226,2868],[-6,-29]],[[243,2928],[-8,-24]],[[550,3679],[-138,-8]],[[905,1793],[-220,295]],[[2447,3090],[-105,22],[-1,1]],[[2341,3113],[-8,10]],[[2333,3123],[-20,24],[-23,65],[-9,21]],[[2281,3233],[-7,15],[-1,0]],[[2273,3248],[-94,46],[-114,12],[0,1]],[[2065,3307],[-14,23]],[[2051,3330],[-10,17],[47,89],[-27,30],[-613,495],[-40,57],[-107,25],[-77,53]],[[1225,4096],[77,-52],[106,-25],[41,-57],[348,-271],[265,-224],[27,-28],[0,-3],[-15,-31],[-32,-58],[9,-17]],[[2051,3330],[13,-22],[1,-1]],[[2065,3307],[115,-13],[93,-45],[0,-1]],[[2273,3248],[8,-15]],[[2281,3233],[10,-21],[23,-65],[19,-24]],[[2333,3123],[8,-10]],[[2341,3113],[107,-23]],[[231,3754],[-71,0]],[[351,3766],[-69,-6]],[[431,3773],[-22,-2]],[[0,3627],[0,1]],[[76,3625],[42,-13]],[[118,3612]],[[118,3612],[72,-23]],[[159,3657],[-48,-12]],[[116,3609],[2,3]],[[118,3612],[0,1]],[[118,3613],[0,-1]],[[118,3612],[-1,-3]],[[196,3547],[14,31]],[[221,3572],[17,-10]],[[240,3561],[-16,6],[-2,4]],[[310,3522],[16,-9]],[[328,3512],[-1,-1],[-8,6]],[[348,3620],[23,49]],[[375,3670],[-4,-1]],[[371,3669],[1,2]],[[379,3700],[7,13]],[[399,3718],[7,26]],[[160,3754],[-103,65],[-57,14]],[[282,3760],[-51,-6]],[[458,3765],[-27,8]],[[463,3761],[-5,4]],[[458,3765],[6,-4]],[[350,3551],[2,0]],[[352,3551],[-1,-1]],[[352,3551],[103,-40]],[[162,2507],[-11,-16]],[[455,3511],[227,-115]],[[314,3245],[5,35]],[[319,3280],[-4,-34]],[[222,3049],[-95,1],[-85,-60],[-38,-89],[-4,-1]],[[0,2900],[4,1],[37,89],[65,47],[20,13],[12,5],[83,-5]],[[223,3051],[46,47]],[[270,3097],[-47,-47]],[[329,3511],[22,51]],[[350,3558],[-20,-47]],[[430,3689],[8,31]],[[223,3049],[-1,0]],[[222,3049],[-1,2],[2,0],[0,-2]],[[0,3505],[26,26],[118,-7],[25,-31]],[[169,3493],[-30,-70],[-139,-115]],[[147,3273],[1,9],[-5,11]],[[143,3293],[-7,14],[-3,53]],[[133,3360],[0,1]],[[133,3361],[7,7]],[[140,3368],[0,1]],[[133,3361],[0,-1]],[[133,3360],[-11,-36],[21,-31]],[[143,3293],[6,-8]],[[140,3368]],[[140,3368],[-7,42]],[[140,3369],[-7,-8]],[[134,3411],[6,-42]],[[149,3285],[-1,-12]],[[148,3284],[1,1]],[[169,3493],[27,54]],[[205,3485],[-36,8]],[[133,3361]],[[220,2839],[-9,-43]],[[235,2904],[-9,-36]],[[269,3005],[-9,-26]],[[267,3095],[1,-64]],[[370,3600],[30,60]],[[401,3659],[-30,-60]],[[448,3748],[-9,-28]],[[650,3648],[-100,31]],[[1419,3650],[126,12],[393,112],[127,128],[188,32],[97,51],[79,71],[16,40]],[[272,3099],[-2,-2]],[[284,3114],[-1,-4]],[[400,3660],[-30,-60]],[[2566,2967],[0,1]],[[2566,2968],[1,-1]],[[409,3771],[-58,-5]],[[119,2223],[-21,-41],[28,-130]],[[201,2775],[14,-14]],[[215,2761],[8,-8]],[[229,2742],[-14,19]],[[215,2761],[-13,18]],[[206,2787]],[[685,2088],[177,173],[37,99],[-5,67],[-155,230],[-108,228],[-310,373]],[[0,3021],[8,-45]],[[0,3628],[76,-3]],[[111,3645],[-52,13],[-58,-29]],[[8,2976],[2,-18],[-1,10],[-1,8]],[[13,2921],[-13,19]],[[0,2954],[29,0]],[[29,2954],[-29,0]],[[0,2941],[14,-20]],[[39,2933],[-16,6]],[[23,2939],[16,-6]],[[131,2927],[3,-35],[-39,-31],[-56,72]],[[41,2989],[1,1]],[[42,2990],[13,10]],[[55,3000]],[[55,3000],[27,20]],[[82,3020],[10,8],[16,10]],[[108,3037],[-10,-7],[-5,-3],[-11,-7]],[[82,3020],[-29,-18],[0,-1]],[[53,3001]],[[53,3001],[-11,-11]],[[42,2990],[-1,-1]],[[114,3110],[33,163]],[[118,3613],[8,19]],[[126,3632]],[[126,3632],[-8,-19]],[[119,2973],[4,90]],[[141,2960],[-21,11]],[[148,3273],[-34,-163],[16,-69],[-10,-69]],[[120,2972],[22,-11]],[[121,2933],[20,27]],[[122,2932],[-36,30],[-21,28],[-10,10]],[[55,3000],[-2,1]],[[53,3001],[-2,2],[2,-2]],[[53,3001],[2,-1]],[[55,3000],[11,-10],[20,-27],[35,-30]],[[121,2933]],[[157,3000],[-15,-39]],[[142,2961],[-1,-1]],[[141,2960],[-6,-8]],[[135,2952],[-14,-19]],[[121,2933],[1,-1]],[[131,2927],[-9,5]],[[126,3632],[3,0]],[[129,3632],[-3,0]],[[126,3632]],[[129,3633],[-2,5]],[[127,3639],[2,-6]],[[129,3633]],[[128,3633],[1,0]],[[129,3633],[64,-31]],[[193,3602],[1,0]],[[194,3602]],[[129,3633]],[[129,3632],[0,1]],[[129,3632]],[[129,3632]],[[129,3632]],[[129,3633],[0,-1]],[[129,3632]],[[194,3601],[-1,1]],[[193,3602]],[[193,3602],[-56,26],[-8,5]],[[131,2927],[16,-2]],[[135,2952]],[[135,2952]],[[141,2960],[1,1]],[[161,2946],[-20,14]],[[141,2960]],[[142,2961],[15,39]],[[142,2961]],[[142,2961],[3,-2],[4,-3],[12,-10]],[[160,2942],[-13,-17]],[[147,2925],[12,18]],[[157,3000],[-6,56]],[[167,2941],[-5,4]],[[162,2945],[-1,1]],[[161,2946],[-6,4]],[[156,2951],[5,-5]],[[161,2946],[1,0]],[[162,2946],[5,-4]],[[182,2996],[-7,1]],[[175,2997],[-14,2],[-4,0]],[[157,2999],[18,-2]],[[175,2997],[7,0]],[[159,2943],[1,2],[1,1]],[[161,2946]],[[161,2946]],[[160,2942],[-1,1]],[[168,3659],[-9,-2]],[[161,2944],[-1,-2]],[[174,2966],[-12,-20]],[[162,2946],[0,-1]],[[162,2945],[-1,-1]],[[175,2935],[-14,9]],[[161,2946],[12,21]],[[162,2946],[14,-11]],[[168,3639],[13,-4]],[[181,3635],[3,-1]],[[184,3634],[53,-18],[1,-1]],[[238,3615]],[[201,3607]],[[201,3607],[-17,27]],[[184,3634],[-14,23]],[[170,3657],[-2,2]],[[168,3660]],[[168,3660]],[[168,3660],[180,-40]],[[169,3659],[1,-2]],[[170,3657],[8,-17],[3,-5]],[[181,3635],[18,-29]],[[199,3606],[1,0]],[[200,3606],[21,-34]],[[347,3619],[-178,40]],[[174,2968],[0,1],[1,28]],[[175,2997]],[[175,2997],[2,56]],[[182,2999],[-8,-32]],[[177,3052],[-1,1]],[[177,3053],[5,-54]],[[182,3595],[11,7]],[[193,3602]],[[193,3602],[6,4]],[[199,3606],[2,1]],[[201,3607],[4,12]],[[185,2999],[-3,0]],[[201,3607],[-1,-1]],[[200,3606],[-6,-4]],[[194,3602],[-1,0]],[[193,3602],[-11,-7]],[[182,2999],[3,0]],[[185,2999],[20,-13]],[[190,3589],[24,-7]],[[214,3582],[1,-1]],[[202,3607],[-1,0]],[[222,3571],[-21,36]],[[205,2985],[0,1]],[[205,2986],[0,-1]],[[291,3615],[-30,-29]],[[261,3586],[-13,-13],[-23,17]],[[225,3590],[-15,12],[-4,12]],[[210,3578],[1,1],[3,3]],[[214,3582]],[[237,3612],[-12,-22]],[[225,3590],[-4,-6]],[[237,3612],[1,3]],[[238,3615],[1,1]],[[239,3616],[0,1]],[[238,3562],[43,-16]],[[281,3546],[0,-1]],[[281,3545],[5,-3]],[[286,3542],[24,-20]],[[239,3616]],[[239,3616],[1,0]],[[240,3616],[-1,0]],[[291,3615],[-52,2]],[[240,3616],[32,-9]],[[281,3546],[-41,15]],[[296,3568],[-35,18]],[[261,3586],[-2,2]],[[281,3546]],[[281,3546],[10,13]],[[291,3559],[0,1]],[[319,3517],[-33,25]],[[286,3542],[-5,4]],[[296,3567],[-5,-7]],[[291,3560],[0,-1]],[[291,3559],[-10,-14]],[[281,3545]],[[291,3615],[23,-27]],[[291,3560]],[[291,3560],[47,-36]],[[338,3524]],[[338,3524],[1,-1],[-1,1]],[[338,3524]],[[338,3524],[-47,35]],[[291,3559]],[[291,3559]],[[291,3560],[5,7]],[[296,3568],[1,0]],[[296,3567],[0,1]],[[296,3567],[1,1]],[[297,3569],[14,14]],[[297,3568],[52,-18]],[[311,3583],[-14,-15]],[[311,3583],[3,5]],[[314,3588],[7,-4]],[[339,3574],[-7,5]],[[332,3579],[-9,5],[-2,0]],[[321,3584],[2,0],[9,-4]],[[332,3580],[5,-2],[2,-4]],[[326,3563],[6,16]],[[332,3579],[0,1]],[[332,3580],[16,39]],[[326,3513],[10,8]],[[336,3521],[2,3]],[[338,3524]],[[338,3524],[1,0]],[[341,3529],[-3,-5]],[[338,3524]],[[338,3524],[-2,-3]],[[336,3521],[-8,-9]],[[333,3514],[2,3]],[[336,3520],[1,0]],[[339,3574],[2,-11]],[[347,3541],[2,8]],[[351,3550],[-4,-9]],[[364,3589],[-16,30]],[[348,3620]],[[348,3619],[16,-30]],[[365,3588],[-1,1]],[[372,3671],[7,29]],[[375,3670],[28,2]],[[386,3713],[13,5]],[[399,3770],[-1,1]],[[400,3771],[-1,-1]],[[406,3744],[-7,26]],[[405,3671],[-2,1]],[[403,3672],[2,0]],[[168,3659],[0,1]],[[168,3660]],[[168,3660],[1,-1]],[[169,3659],[-1,0]],[[174,2966],[-1,1],[0,1],[2,-1],[-1,-1]],[[297,3568]],[[297,3568],[0,1],[0,-1]],[[348,3619],[-1,0]],[[347,3619],[1,1],[0,-1]],[[349,3550],[1,1],[1,-1],[-1,-1],[-1,1]],[[1419,3650],[-400,-40],[-369,38]],[[296,3140],[3,14]],[[299,3154],[16,72],[-1,5]],[[314,3231],[-33,235],[21,20]],[[302,3486],[-21,-20],[39,-204],[-6,-31]],[[314,3231],[-15,-77]],[[299,3154],[-3,-14]],[[448,3749],[266,170],[179,177]],[[894,4096],[-179,-177],[-267,-172]],[[211,2796],[9,36]],[[233,2878],[6,22]],[[261,2978],[7,27]],[[268,3029],[-1,66]],[[2465,3097],[0,2]],[[2543,3010],[-40,68],[-56,12]],[[2448,3090],[54,-12],[42,-67]],[[2566,2968],[-22,42]],[[2544,3011],[22,-43]],[[2543,3011],[1,0],[0,-1],[-1,1]],[[0,2900],[45,96],[84,56],[92,-2]],[[222,3049],[-92,3],[-85,-57],[-45,-95]],[[223,3051],[45,50]],[[269,3100],[-46,-50]],[[329,3512],[48,81]],[[378,3593],[-49,-81]],[[412,3655],[18,34]],[[439,3720],[-1,-22],[-25,-44]],[[430,3689],[5,6]],[[430,3689],[7,31]],[[223,3049],[-1,0]],[[222,3049],[-1,2],[2,0],[0,-2]],[[2461,3100],[-97,53],[-99,-30],[-96,13],[-242,-60],[-384,14],[-170,122],[-474,65],[-104,79],[-113,40]],[[464,3761],[2,-1]],[[1439,2338],[21,201],[-46,30],[-228,342],[-68,22],[-80,121],[-345,242],[-25,50],[14,50]],[[371,3599],[-21,-41]],[[351,3562],[19,38]],[[400,3660],[5,9],[3,4],[22,16]],[[439,3720],[-4,-27],[-34,-34]],[[464,3760],[-1,1]],[[247,2928],[14,50]],[[268,3005],[0,24]],[[187,2952],[-12,-77]],[[205,2985]],[[270,3097],[-3,-2]],[[370,3600],[-3,-7]],[[404,3666],[-4,-6]],[[466,3760],[-18,-12]],[[3432,4096],[-106,-34],[-434,-340],[-66,-71],[-51,-84],[-27,-93],[-12,-197],[62,34],[42,44],[39,22],[56,-33],[-2,39],[5,37],[18,70],[40,-69],[-46,-114],[-75,-108],[-49,-47],[-36,-12],[-56,-29],[-53,-35],[-23,-30],[23,-29],[53,22],[101,70],[-108,-85],[-260,-160],[-129,-53],[-145,-37],[-66,-27],[-48,-42],[-13,-31],[-34,-138],[-30,-62],[-4,-46],[-152,-181],[-69,-49],[16,-32],[21,-23],[29,-12],[36,1],[-85,-50],[-142,80],[-213,182],[-128,-8],[-65,5],[-27,35],[-11,8],[-67,68],[-13,34],[-16,67],[-13,25],[-18,0],[-21,-65],[27,-99],[12,-28],[27,-25],[58,-29],[76,-66],[48,-22],[111,-27],[15,-1],[32,4],[13,-3],[12,-16],[3,-17],[0,-17],[5,-12],[20,-23],[16,-22],[20,-16],[34,-6],[43,-15],[43,-30],[47,-17],[-303,-169],[-457,-169],[-65,-36],[-32,-2],[-33,26],[-30,15],[-29,-13],[-25,-23],[-17,-11],[-54,-8],[-364,-112],[-123,-22],[-110,-69],[-58,-24],[-22,-3],[0,2690],[3432,0]],[[0,3101],[11,-1],[-10,-69],[44,3],[-16,45],[45,37],[-25,16],[0,98],[114,50],[33,-67],[-45,-12],[-8,-30],[121,-59],[27,-69],[-16,10],[-15,-51],[33,11],[6,-21],[-21,-52],[-23,50],[-43,-59],[33,-38],[-28,-35],[9,-73],[-76,7],[20,15],[-13,24],[-60,-4],[-54,-89],[-5,43],[48,64],[-26,30],[-56,-58],[-4,2],[0,282]],[[2850,3242],[75,118],[7,98],[-35,0],[43,226],[-82,71],[491,341],[747,0],[0,-181],[-542,-460],[-194,-391],[-510,178]],[[2702,3263],[38,86],[36,271],[30,6],[33,145],[101,-87],[-43,-226],[35,0],[-7,-98],[-20,-31],[-75,33],[-128,-99]],[[77,1619],[41,-2],[32,53],[56,18],[27,-178],[-157,-79],[-64,257],[35,8],[30,-77]],[[330,3014],[-1,-39],[-58,-13],[0,-34],[-32,0],[-83,-67],[-47,32],[0,35],[-32,0],[-65,68],[-3,42],[132,27],[33,69],[93,27],[36,-27],[0,-103],[27,-17]],[[2658,3046],[23,-29],[57,16],[-212,-132],[-23,29],[-93,14],[-32,30],[16,74],[92,72],[68,12],[141,-46],[-37,-40]],[[0,3593],[0,58],[44,0],[65,69],[32,0],[0,34],[130,0],[106,48],[68,-36],[20,-115],[66,-62],[-1,-41],[-147,-67],[-87,6],[-212,128],[-45,4],[-27,-37],[-12,11]],[[28,1508],[68,70],[22,-9],[20,41],[25,-23],[128,61],[-5,-32],[-68,-28],[25,-54],[-212,-66],[-3,40]],[[338,3845],[35,43],[47,-43],[20,-70],[-31,-2],[6,-31],[-63,12],[-14,91]],[[364,3675],[25,43],[57,2],[20,-50],[75,25],[25,-45],[-75,-10],[19,-25],[-146,60]],[[0,3632],[77,36],[45,-31],[51,27],[175,-44],[66,-60],[58,-12],[5,-28],[-94,-39],[-206,116],[-137,39],[-40,-8],[0,4]]]}