{"objects":{"water":{"type":"GeometryCollection","geometries":[{"type":"MultiPolygon","properties":{"source":"naturalearthdata.com","kind":"ocean","area":1576712559132672,"sort_rank":200,"min_zoom":0.0,"id":1},"arcs":[[[47]],[[48]],[[49]]]},{"type":"MultiLineString","properties":{"source":"naturalearthdata.com","kind":"ocean","sort_rank":205,"boundary":true,"min_zoom":0.0,"id":41},"arcs":[[50],[51],[52],[53],[54],[55],[56]]}]},"buildings":{"type":"GeometryCollection","geometries":[]},"places":{"type":"GeometryCollection","geometries":[{"type":"Point","properties":{"name:pt":"Reino Unido","name:ps":"\u0628\u0631\u062a\u0627\u0646\u06cc\u0647","name:cy":"Deyrnas Unedig","name:mt":"Ingilterra","name:tr":"Birle\u015fik Krall\u0131k","name:kn":"\u0cac\u0ccd\u0cb0\u0cbf\u0c9f\u0ca8\u0ccd\/\u0c87\u0c82\u0c97\u0ccd\u0cb2\u0cc6\u0c82\u0ca1\u0ccd","name:km":"\u1785\u1780\u17d2\u179a\u1797\u1796\u200b\u17a2\u1784\u17cb\u1782\u17d2\u179b\u17c1\u179f","name:kl":"Tuluit Nunaat","name:cs":"Velk\u00e1 Brit\u00e1nie","alt_name:eo":"Britio","name:ki":"Ngeretha","name:kw":"Rywvaneth Unys","name:ku":"Keyaniya Yekb\u00fby\u00ee","name:ti":"\u12a5\u1295\u130d\u120a\u12dd","name:ks":"\u06cc\u064f\u0646\u0627\u06cc\u0679\u0650\u0691 \u06a9\u0650\u0646\u065b\u06af\u0688\u064e\u0645","name:to":"Pilit\u0101nia","name:sv":"Storbritannien","name:os":"\u0421\u0442\u044b\u0440 \u0411\u0440\u0438\u0442\u0430\u043d\u0438","name:or":"\u0b2c\u0b4d\u0b30\u0b3f\u0b1f\u0b47\u0b28\u0b4d","name:pl":"Wielka Brytania","name:ta":"\u0baa\u0bbf\u0bb0\u0bbf\u0b9f\u0bbf\u0bb7\u0bcd \u0b95\u0bc2\u0b9f\u0bcd\u0b9f\u0bb0\u0b9a\u0bc1","name:ca":"Regne Unit","name:te":"\u0c2c\u0c4d\u0c30\u0c3f\u0c1f\u0c28\u0c4d","name:ro":"Marea Britanie","name:ka":"\u10d3\u10d8\u10d3\u10d8 \u10d1\u10e0\u10d8\u10e2\u10d0\u10dc\u10d4\u10d7\u10d8","source":"openstreetmap.org","name:hr":"Ujedinjeno Kraljevstvo Velike Britanije i Sjeverne Irske","name:da":"Storbritannien","name:de":"Vereinigtes K\u00f6nigreich","name:dz":"\u0f61\u0f74\u0f0b\u0f53\u0f71\u0f60\u0f72\u0f0b\u0f4a\u0f7a\u0f4c\u0f0b \u0f40\u0f72\u0f44\u0f0b\u0f4c\u0f58","name:ko":"\uc601\uad6d","name:lv":"Lielbrit\u0101nija","name:lt":"Did\u017eioji Britanija","name:uz":"\u0411\u0438\u0440\u043b\u0430\u0448\u0433\u0430\u043d \u049a\u0438\u0440\u043e\u043b\u043b\u0438\u043a","name:kk":"\u04b0\u043b\u044b\u0431\u0440\u0438\u0442\u0430\u043d\u0438\u044f","name:he":"\u05d1\u05e8\u05d9\u05d8\u05e0\u05d9\u05d4","kind":"country","name:ur":"\u0633\u0644\u0637\u0646\u062a \u0645\u062a\u062d\u062f\u06c1","name:lb":"Vereenegt Kinnekr\u00e4ich","name:lg":"Bungereza","name:uk":"\u0412\u0435\u043b\u0438\u043a\u0430 \u0411\u0440\u0438\u0442\u0430\u043d\u0456\u044f","name:hy":"\u0544\u0565\u056e \u0532\u0580\u056b\u057f\u0561\u0576\u056b\u0561","min_zoom":2.0,"name:hu":"Egyes\u00fclt Kir\u00e1lys\u00e1g","name:ln":"Ang\u025bl\u025bt\u025b\u0301l\u025b","name:lo":"\u0eaa\u0eb0\u0eab\u0eb0\u0ea5\u0eb2\u0e94\u0e8a\u0eb0\u0ead\u0eb2\u0e99\u0eb2\u0e88\u0eb1\u0e81","name:oc":"Reialme Unit","population":61792000,"name:el":"\u0397\u03bd\u03c9\u03bc\u03ad\u03bd\u03bf \u0392\u03b1\u03c3\u03af\u03bb\u03b5\u03b9\u03bf","name:eo":"Britujo","name":"United Kingdom","official_name":"United Kingdom of Great Britain and Northern Ireland","name:ee":"United Kingdom nutome","name:th":"\u0e2a\u0e2b\u0e23\u0e32\u0e0a\u0e2d\u0e32\u0e13\u0e32\u0e08\u0e31\u0e01\u0e23","name:gu":"\u0aaf\u0ac1\u0aa8\u0abe\u0a87\u0a9f\u0ac7\u0aa1 \u0a95\u0abf\u0a82\u0a97\u0aa1\u0aae","name:eu":"Erresuma Batua","name:et":"Suurbritannia","name:nl":"Verenigd Koninkrijk","name:es":"Reino Unido","name:ia":"Regno Unite","name:rm":"Reginavel Un\u00ec","name:rn":"Ubwongereza","name:az":"Birl\u0259\u015fmi\u015f Krall\u0131q","name:id":"Inggris","name:mr":"\u092c\u094d\u0930\u093f\u091f\u0928","name:ii":"\ua471\ua1e9","name:ar":"\u0627\u0644\u0645\u0645\u0644\u0643\u0629 \u0627\u0644\u0645\u062a\u062d\u062f\u0629","name:my":"\u101a\u1030\u1014\u102d\u102f\u1000\u103a\u1010\u1000\u103a\u1000\u1004\u103a\u1038\u1012\u1019\u103a\u1038","name:io":"Unionita Rejio","name:is":"Bretland","name:am":"\u12a5\u1295\u130d\u120a\u12dd","name:it":"Regno Unito","name:vi":"V\u01b0\u01a1ng qu\u1ed1c Anh","name:ru":"\u0412\u0435\u043b\u0438\u043a\u043e\u0431\u0440\u0438\u0442\u0430\u043d\u0438\u044f","id":838090640,"name:mk":"\u0412\u0435\u043b\u0438\u043a\u0430 \u0411\u0440\u0438\u0442\u0430\u043d\u0438\u0458\u0430","name:af":"Groot-Brittanje","name:zu":"i-United Kingdom","name:ha":"Birtaniya","short_name":"UK","name:ff":"Laamateeri Rentundi","name:fi":"Yhdistynyt kuningaskunta","name:hi":"\u092c\u094d\u0930\u093f\u0924\u0928","name:mg":"Angletera","name:fo":"St\u00f3ra Bretland","alt_name:vi":"V\u01b0\u01a1ng qu\u1ed1c Li\u00ean hi\u1ec7p Anh","name:fr":"Royaume-Uni","name:nn":"Storbritannia","name:fy":"Feriene Keninkryk","name:vo":"Reg\u00e4n Pebal\u00f6l","name:zh":"\u82f1\u56fd","name:gv":"Rywvaneth Unys","name:sr":"\u0423\u0458\u0435\u0434\u0438\u045a\u0435\u043d\u043e \u041a\u0440\u0430\u0459\u0435\u0432\u0441\u0442\u0432\u043e","name:sl":"Velika Britanija","name:sk":"Spojen\u00e9 kr\u00e1\u013eovstvo","name:ja":"\u30a4\u30ae\u30ea\u30b9","name:si":"\u0d91\u0d9a\u0dca\u0dc3\u0dad\u0dca \u0dbb\u0dcf\u0da2\u0db0\u0dcf\u0db1\u0dd2\u0dba","name:fa":"\u0628\u0631\u06cc\u062a\u0627\u0646\u06cc\u0627","name:sg":"K\u00f6d\u00f6r\u00f6gb\u00ef\u00e4--\u00d4ko","name:se":"Stuorra-Brit\u00e1nnia","name:ne":"\u0938\u0902\u092f\u0941\u0915\u094d\u0924 \u0905\u0927\u093f\u0930\u093e\u091c\u094d\u092f","name:br":"Rouantelezh-Unanet","name:bs":"Velika Britanija","name:bm":"Angil\u025bt\u025bri","name:bn":"\u09af\u09c1\u0995\u09cd\u09a4\u09b0\u09be\u099c\u09cd\u09af","name:bo":"\u0f51\u0f56\u0fb1\u0f72\u0f53\u0f0b\u0f47\u0f72\u0f0b","name:ml":"\u0d2c\u0d4d\u0d30\u0d3f\u0d1f\u0d4d\u0d1f\u0d7b","name:no":"Storbritannia","name:sw":"Uingereza","name:be":"\u0412\u044f\u043b\u0456\u043a\u0430\u0431\u0440\u044b\u0442\u0430\u043d\u0456\u044f","name:bg":"\u041e\u0431\u0435\u0434\u0438\u043d\u0435\u043d\u043e \u043a\u0440\u0430\u043b\u0441\u0442\u0432\u043e","name:ba":"\u0411\u04e9\u0439\u04e9\u043a \u0411\u0440\u0438\u0442\u0430\u043d\u0438\u044f","name:sq":"Mbret\u00ebria e Bashkuar","name:ga":"An R\u00edocht Aontaithe","alt_name:sr":"\u0423\u041a; \u0423.\u041a.","name:gd":"An R\u00ecoghachd Aonaichte","name:gl":"Reino Unido","name:yo":"Or\u00edl\u1eb9\u0301\u00e8de Omobabirin","name:ak":"Ahendiman Nkabom","name:tt":"\u0411\u04e9\u0435\u043a\u0431\u0440\u0438\u0442\u0430\u043d\u0438\u044f"},"coordinates":[2744,2713]},{"type":"Point","properties":{"kind":"locality","name":"Carlisle","name:cy":"Caerliwelydd","kind_detail":"city","name:sr":"\u041a\u0430\u0440\u043b\u0430\u0458\u043b","source":"openstreetmap.org","min_zoom":8.0,"name:la":"Carliolum","name:uk":"\u041a\u0430\u0440\u043b\u0430\u0439\u043b","name:ru":"\u041a\u0430\u0440\u043b\u0430\u0439\u043b","name:lt":"Karlailas","id":20949228,"population":72000},"coordinates":[3736,3680]},{"type":"Point","properties":{"source":"openstreetmap.org","kind":"locality","name":"Whitehaven","kind_detail":"town","population":25032,"min_zoom":8.0,"id":3624794399},"coordinates":[1836,1934]}]},"transit":{"type":"GeometryCollection","geometries":[{"type":"LineString","properties":{"kind":"train","name":"Highland Caledonian Sleeper: London Euston => Aberdeen","service":"night","sort_rank":275,"source":"openstreetmap.org","min_zoom":6.0,"operator":"Serco","ref":"CS H","osm_relation":true,"network":"national"},"arcs":[7]},{"type":"LineString","properties":{"kind":"train","network":"regional","sort_rank":275,"source":"openstreetmap.org","min_zoom":6.0,"operator":"Arriva Trains North","ref":"NT","id":-6485338,"osm_relation":true,"name":"Carlisle => Newcastle"},"arcs":[8]},{"type":"LineString","properties":{"kind":"train","network":"Transpennine","sort_rank":275,"colour":"#1893d1","name":"Transpennine Northwest: Edinburgh Waverley => Manchester Airport","source":"openstreetmap.org","min_zoom":6.0,"operator":"Transpennine Express","ref":"TP NW","osm_relation":true,"colour_name":"lightteal"},"arcs":[9]},{"type":"LineString","properties":{"kind":"train","network":"national","service":"night","sort_rank":275,"source":"openstreetmap.org","min_zoom":6.0,"operator":"Serco","ref":"CS H","osm_relation":true,"name":"Highland Caledonian Sleeper: Inverness => London Euston"},"arcs":[10]},{"type":"LineString","properties":{"kind":"train","network":"national","service":"night","sort_rank":275,"source":"openstreetmap.org","min_zoom":6.0,"operator":"Serco","ref":"CS L","osm_relation":true,"name":"Lowland Caledonian Sleeper: London Euston => Edinburgh Waverley"},"arcs":[11]},{"type":"LineString","properties":{"kind":"train","network":"national","service":"long_distance","sort_rank":275,"source":"openstreetmap.org","min_zoom":5.0,"operator":"Virgin Trains","ref":"VT A","osm_relation":true,"name":"London Euston => Glasgow Central (via Birmingham)"},"arcs":[12]},{"type":"MultiLineString","properties":{"source":"openstreetmap.org","kind":"train","name":"Glasgow South Western Line","sort_rank":275,"min_zoom":6.0,"osm_relation":true},"arcs":[[13],[14],[15],[16],[17],[18]]},{"type":"LineString","properties":{"kind":"train","network":"national","sort_rank":275,"source":"openstreetmap.org","min_zoom":6.0,"operator":"Virgin Trains","ref":"VT A","osm_relation":true,"name":"London Euston => Edinburgh Waverley (via Birmingham)"},"arcs":[19]},{"type":"LineString","properties":{"kind":"train","name":"Highland Caledonian Sleeper: London Euston => Inverness","service":"night","sort_rank":275,"source":"openstreetmap.org","min_zoom":6.0,"operator":"Serco","ref":"CS H","osm_relation":true,"network":"national"},"arcs":[20]},{"type":"LineString","properties":{"kind":"train","name":"Transpennine Northwest: Manchester Airport => Edinburgh Waverley","sort_rank":275,"source":"openstreetmap.org","min_zoom":6.0,"operator":"Transpennine Express","ref":"TP NW","osm_relation":true,"network":"Transpennine"},"arcs":[21]},{"type":"LineString","properties":{"kind":"train","network":"national","service":"night","sort_rank":275,"source":"openstreetmap.org","min_zoom":6.0,"operator":"Serco","ref":"CS H","osm_relation":true,"name":"Highland Caledonian Sleeper: London Euston => Fort William"},"arcs":[22]},{"type":"LineString","properties":{"kind":"train","network":"national","sort_rank":275,"source":"openstreetmap.org","min_zoom":6.0,"operator":"Virgin Trains","ref":"VT A","osm_relation":true,"name":"Glasgow Central => London Euston (via Trent Valley)"},"arcs":[23]},{"type":"LineString","properties":{"kind":"train","network":"national","service":"night","sort_rank":275,"source":"openstreetmap.org","min_zoom":6.0,"operator":"Serco","ref":"CS L","osm_relation":true,"name":"Lowland Caledonian Sleeper: Glasgow Central => London Euston"},"arcs":[24]},{"type":"LineString","properties":{"source":"openstreetmap.org","kind":"train","sort_rank":275,"min_zoom":6.0,"osm_relation":true,"id":-2307521},"arcs":[25]},{"type":"LineString","properties":{"kind":"train","network":"national","service":"night","sort_rank":275,"source":"openstreetmap.org","min_zoom":6.0,"operator":"Serco","ref":"CS H","osm_relation":true,"name":"Highland Caledonian Sleeper: Aberdeen => London Euston"},"arcs":[26]},{"type":"LineString","properties":{"kind":"train","network":"Transpennine","sort_rank":275,"source":"openstreetmap.org","min_zoom":6.0,"operator":"Transpennine Express","ref":"TP NW","osm_relation":true,"name":"Transpennine Northwest: Manchester Airport => Glasgow Central"},"arcs":[27]},{"type":"LineString","properties":{"kind":"train","network":"national","service":"night","sort_rank":275,"source":"openstreetmap.org","min_zoom":6.0,"operator":"Serco","ref":"CS H","osm_relation":true,"name":"Highland Caledonian Sleeper: Fort William => London Euston"},"arcs":[28]},{"type":"LineString","properties":{"kind":"train","network":"national","service":"night","sort_rank":275,"source":"openstreetmap.org","min_zoom":6.0,"operator":"Serco","ref":"CS L","osm_relation":true,"name":"Lowland Caledonian Sleeper: London Euston => Glasgow Central"},"arcs":[29]},{"type":"LineString","properties":{"kind":"train","network":"regional","sort_rank":275,"source":"openstreetmap.org","min_zoom":6.0,"operator":"Arriva Trains North","ref":"NT","id":-6485339,"osm_relation":true,"name":"Newcastle => Carlisle"},"arcs":[30]},{"type":"LineString","properties":{"kind":"train","network":"national","sort_rank":275,"source":"openstreetmap.org","min_zoom":6.0,"operator":"Virgin Trains","ref":"VT A","osm_relation":true,"name":"London Euston => Glasgow Central (via Trent Valley)"},"arcs":[31]},{"type":"LineString","properties":{"kind":"train","network":"national","sort_rank":275,"colour":"#1893d1","name":"Glasgow Central => London Euston (via Birmingham)","source":"openstreetmap.org","min_zoom":6.0,"operator":"Virgin Trains","ref":"VT A","osm_relation":true,"colour_name":"lightteal"},"arcs":[32]},{"type":"MultiLineString","properties":{"osm_relation":true,"source":"openstreetmap.org","kind":"train","name":"Cumbrian Coast Line","sort_rank":275,"min_zoom":6.0,"operator":"Northern"},"arcs":[[33],[34],[35],[36],[37],[38],[39]]},{"type":"MultiLineString","properties":{"osm_relation":true,"source":"openstreetmap.org","kind":"train","name":"Furness Line","sort_rank":275,"min_zoom":6.0,"operator":"First Transpennine Express"},"arcs":[[40],[41],[42]]},{"type":"LineString","properties":{"kind":"train","network":"national","service":"night","sort_rank":275,"source":"openstreetmap.org","min_zoom":6.0,"operator":"Serco","ref":"CS L","osm_relation":true,"name":"Lowland Caledonian Sleeper: Edinburgh Waverley => London Euston"},"arcs":[43]},{"type":"LineString","properties":{"kind":"train","network":"national","sort_rank":275,"colour":"#1893d1","name":"Edinburgh Waverley => London Euston (via Birmingham)","source":"openstreetmap.org","min_zoom":6.0,"operator":"Virgin Trains","ref":"VT A","osm_relation":true,"colour_name":"lightteal"},"arcs":[44]},{"type":"LineString","properties":{"kind":"train","network":"Transpennine","sort_rank":275,"source":"openstreetmap.org","min_zoom":6.0,"operator":"Transpennine Express","ref":"TP NW","osm_relation":true,"name":"Transpennine Northwest: Glasgow Central => Manchester Airport"},"arcs":[45]},{"type":"LineString","properties":{"source":"openstreetmap.org","kind":"train","name":"Lakeside & Haverthwaite Railway","sort_rank":275,"min_zoom":6.0,"osm_relation":true,"id":-4254002},"arcs":[46]}]},"pois":{"type":"GeometryCollection","geometries":[{"type":"Point","properties":{"kind":"national_park","name":"Lake District National Park","name:cy":"Parc Cenedlaethol Ardal y Llynnoedd","area":6991010000,"source":"openstreetmap.org","min_zoom":4.4,"tier":1,"id":-287917,"osm_relation":true},"coordinates":[3359,1593]},{"type":"Point","properties":{"source":"openstreetmap.org","kind":"military","name":"Eskmeals Firing Range","area":13433200,"tier":3,"min_zoom":8.0,"id":39432668},"coordinates":[2327,809]},{"type":"Point","properties":{"source":"openstreetmap.org","kind":"military","name":"Eastriggs Explosive Storage Depot (Disused)","area":12133400,"tier":3,"min_zoom":8.0,"id":177176848},"coordinates":[3090,4077]}]},"boundaries":{"type":"GeometryCollection","geometries":[{"type":"LineString","properties":{"name:right:yo":"Il\u1eb9\u0300\u1ecdba A\u1e63\u1ecd\u0300kan","name:left:la":"Monapia","name:right:qu":"Hukllachasqa Qhapaq Suyu","alt_name:left:eo":"Manksio;Manksujo","name:right:dv":"\u0794\u07aa\u0782\u07a6\u0787\u07a8\u0793\u07ac\u0791\u07b0 \u0786\u07a8\u0782\u07b0\u078e\u07b0\u0791\u07a6\u0789\u07b0","name:right:yi":"\u05e4\u05d0\u05e8\u05d0\u05d9\u05d9\u05e0\u05d9\u05d2\u05d8\u05e2 \u05e7\u05e2\u05e0\u05d9\u05d2\u05e8\u05d9\u05d9\u05da","name:right:hy":"\u0544\u056b\u0561\u0581\u0575\u0561\u056c \u0539\u0561\u0563\u0561\u057e\u0578\u0580\u0578\u0582\u0569\u0575\u0578\u0582\u0576","name:left:su":"Pulo Man","name:left:li":"Man","name:right:hr":"Ujedinjeno Kraljevstvo","name:right:rm":"Reginavel Un\u00ec","name:left:sq":"Ishulli i Njeriut","name:right:hu":"Egyes\u00fclt Kir\u00e1lys\u00e1g","name:left:sr":"\u041e\u0441\u0442\u0440\u0432\u043e \u041c\u0430\u043d","name:left:sl":"Otok Man","name:left:lt":"Meno Sala","name:left:sh":"Otok Man","name:left:lv":"Menas Sala","name:right:mr":"\u092f\u0941\u0928\u093e\u092f\u091f\u0947\u0921 \u0915\u093f\u0902\u0917\u094d\u0921\u092e","name:right:ha":"Birtaniya","name:right:he":"\u05d4\u05de\u05de\u05dc\u05db\u05d4 \u05d4\u05de\u05d0\u05d5\u05d7\u05d3\u05ea","name:right:la":"Britanniarum Regnum","name:right:af":"Verenigde Koninkryk","name:right:ab":"\u0411\u0440\u0438\u0442\u0430\u043d\u0438\u0430 \u0414\u0443","name:right:an":"Reino Unito","name:right:am":"\u12e9\u1293\u12ed\u1275\u12f5 \u12aa\u1295\u130d\u12f0\u121d","name:left:ca":"Illa de Man","source":"openstreetmap.org","name:left:cy":"Ynys Manaw","name:right:ar":"\u0627\u0644\u0645\u0645\u0644\u0643\u0629 \u0627\u0644\u0645\u062a\u062d\u062f\u0629","name:left:ja":"\u30de\u30f3\u5cf6","name:left:cv":"\u041c\u044d\u043d \u0443\u0442\u0440\u0430\u0432\u0115","name:right:az":"B\u00f6y\u00fck Britaniya","name:left:cs":"Man","name:left:ka":"\u10db\u10d4\u10dc\u10d8","name:right:ht":"Way\u00f2m Ini","name:left:ko":"\ub9e8 \uc12c","name:right:it":"Regno Unito","name:right:is":"Bretland","name:left:ro":"Insula Man","name:right:ru":"\u0412\u0435\u043b\u0438\u043a\u043e\u0431\u0440\u0438\u0442\u0430\u043d\u0438\u044f","name:right:io":"Unionita Rejio","name:left:kw":"Ynys Manow","name:right:ro":"Regatul Unit al Marii Britanii \u0219i al Irlandei de Nord","name:left:ru":"\u041e\u0441\u0442\u0440\u043e\u0432 \u041c\u044d\u043d","name:right:ig":"Obodo\u00e9z\u00e8 N\u00e0 Of\u00fa","name:right:ie":"Reyatu Unit","name:right:id":"Britania Raya","name:right:ia":"Regno Unite","name:right:bo":"\u0f51\u0f56\u0fb1\u0f72\u0f53\u0f0b\u0f47\u0f72\u0f0b\u0f58\u0f49\u0f58\u0f0b\u0f60\u0f56\u0fb2\u0f7a\u0f63\u0f0d","name:right:bi":"Unaeted Kingdom","name:right:bn":"\u09af\u09c1\u0995\u09cd\u09a4\u09b0\u09be\u099c\u09cd\u09af","name":"Isle of Man - United Kingdom","name:right:zu":"Umbuso Ohlangeneyo","name:right:kl":"Tuluit Nunaat","name:right:ba":"\u0411\u04e9\u0439\u04e9\u043a \u0411\u0440\u0438\u0442\u0430\u043d\u0438\u044f","name:right:bg":"\u041e\u0431\u0435\u0434\u0438\u043d\u0435\u043d\u043e \u043a\u0440\u0430\u043b\u0441\u0442\u0432\u043e \u0412\u0435\u043b\u0438\u043a\u043e\u0431\u0440\u0438\u0442\u0430\u043d\u0438\u044f \u0438 \u0421\u0435\u0432\u0435\u0440\u043d\u0430 \u0418\u0440\u043b\u0430\u043d\u0434\u0438\u044f","name:right:be":"\u0412\u044f\u043b\u0456\u043a\u0430\u0431\u0440\u044b\u0442\u0430\u043d\u0456\u044f","name:left:zh":"\u9a6c\u6069\u5c9b","name:right:za":"Yinghgoz","name:right:br":"Rouantelezh-Unanet","name:right:bs":"Ujedinjeno Kraljevstvo Velike Britanije i Sjeverne Irske","name:right:zh":"\u82f1\u570b","name:right:nn":"Storbritannia","name:right:no":"Storbritannia","name:right:nl":"Verenigd Koninkrijk","name:right:fr":"Royaume-Uni","name:left:sk":"Ostrov Man","name:right:ko":"\uc601\uad6d","name:left:ur":"\u0622\u0626\u0644 \u0622\u0641 \u0645\u06cc\u0646","name:right:wo":"Nguur-Yu-Bennoo","name:right:ne":"\u0938\u0902\u092f\u0941\u0915\u094d\u0924 \u0905\u0927\u093f\u0930\u093e\u091c\u094d\u092f","id:right":-62149,"name:left:uk":"\u041e\u0441\u0442\u0440\u0456\u0432 \u041c\u0435\u043d","name:left:no":"Man","name:left:nl":"Eiland Man","name:right:ps":"\u0628\u0631\u064a\u062a\u0627\u0646\u064a\u0627","name:right:hi":"\u092f\u0942\u0928\u093e\u0907\u091f\u0947\u0921 \u0915\u093f\u0902\u0917\u0921\u092e","name:right:fa":"\u0628\u0631\u06cc\u062a\u0627\u0646\u06cc\u0627","name:right:nv":"T\u00f3ta\u02bc Din\u00e9\u02bci\u02bc Bik\u00e9yah","name:right:fo":"St\u00f3ra Bretland","name:right:uz":"Birlashgan Qirollik","name:right:fi":"Yhdistynyt kuningaskunta","name:left:eo":"Manksinsulo","name:right:kn":"\u0caf\u0cc1\u0ca8\u0cc8\u0c9f\u0cc6\u0ca1\u0ccd \u0c95\u0cbf\u0c82\u0c97\u0ccd\u200c\u0ca1\u0c82","name:left:el":"\u039d\u03ae\u03c3\u03bf\u03c2 \u03c4\u03bf\u03c5 \u039c\u03b1\u03bd","kind_detail":"2","name:right:tt":"\u0411\u04e9\u0435\u043a\u0431\u0440\u0438\u0442\u0430\u043d\u0438\u044f","name:left:es":"Isla de Man","name:left:tr":"Man Adas\u0131","name:left:eu":"Man","name:left:et":"Man","name:right:gu":"\u0aaf\u0ac1\u0aa8\u0abe\u0a87\u0a9f\u0ac7\u0aa1 \u0a95\u0abf\u0a82\u0a97\u0aa1\u0aae","name:right:zh-min-nan":"Li\u00e2n-ha\u030dp \u00d4ng-kok","name:right:gv":"Reeriaght Unnaneysit","name:right:pt":"Reino Unido","name:left:mk":"\u041c\u0430\u043d","name:left:mi":"Motu o Man","name:left:tt":"\u041c\u044d\u043d \u0443\u0442\u0440\u0430\u0432\u044b","name:right:oc":"Reialme Unit","name:left:ml":"\u0d10\u0d7d \u0d12\u0d2b\u0d4d \u0d2e\u0d3e\u0d7b","name:left:th":"\u0e40\u0e01\u0e32\u0e30\u0e41\u0e21\u0e19","name:right:pa":"\u0a38\u0a70\u0a2f\u0a41\u0a15\u0a24 \u0a2c\u0a3e\u0a26\u0a38\u0a3c\u0a3e\u0a39\u0a40","name:left:tl":"Pulo ng Man","name:left:ia":"Insula de Man","short_name:right":"UK","name:right:gl":"Reino Unido","name:right:gn":"Tavet\u00e3 Joaju","name:right:pl":"Wielka Brytania","name:right:os":"\u0421\u0442\u044b\u0440 \u0411\u0440\u0438\u0442\u0430\u043d\u0438","name:right:or":"\u0b2f\u0b41\u0b15\u0b4d\u0b24\u0b30\u0b3e\u0b1c\u0b4d\u0b5f","name:right:tl":"Nagkakaisang Kaharian","name:left:mr":"\u0906\u0908\u0932 \u0911\u092b \u092e\u093e\u0928","name:left:de":"Insel Man","name:right:ga":"An R\u00edocht Aontaithe","name:left:dv":"\u0787\u07a6\u0787\u07a8\u0792\u07a6\u078d\u07b0 \u0787\u07ae\u078a\u07b0 \u0789\u07ad\u0782\u07b0","name:right:ug":"\u0628\u06c8\u064a\u06c8\u0643 \u0628\u06d0\u0631\u0649\u062a\u0627\u0646\u0649\u064a\u06d5","name:left:hi":"\u0906\u0907\u0932 \u0911\u092b\u093c \u092e\u0948\u0928","name:right:lb":"Groussbritannien an Nordirland","name:right:uk":"\u0412\u0435\u043b\u0438\u043a\u0430 \u0411\u0440\u0438\u0442\u0430\u043d\u0456\u044f","name:left:he":"\u05d4\u05d0\u05d9 \u05de\u05d0\u05df","name:right:ln":"Ing\u025bl\u025b\u0301t\u025bl\u025b","name:right:li":"Vereineg Keuninkriek","name:right:lt":"Jungtin\u0117 Karalyst\u0117","name:right:ur":"\u0628\u0631\u0637\u0627\u0646\u06cc\u06c1","name:right:lv":"Apvienot\u0101 Karaliste","name:left:hy":"\u0544\u0565\u0576 \u056f\u0572\u0566\u056b","name:left:ta":"\u0bae\u0bbe\u0ba3\u0bcd \u0ba4\u0bc0\u0bb5\u0bc1","name:left:hu":"Man","name:right:ty":"Parat\u0101ne","kind":"country","name:left:hr":"Otok Man","name:left:ga":"Oile\u00e1n Mhanann","name:right:tg":"\u041f\u043e\u0434\u0448\u043e\u04b3\u0438\u0438 \u041c\u0443\u0442\u0442\u0430\u04b3\u0438\u0434\u0430","name:left:gd":"Eilean Mhanainn","sort_rank":262,"name:right:gd":"An R\u00ecoghachd Aonaichte","name:left:gl":"Illa de Man","osm_relation":true,"name:left:gv":"Ellan Vannin","name:right:ku":"Keyaniya Yekb\u00fby\u00ee","name:left":"Isle of Man","name:right:es":"Reino Unido","name:left:an":"Isla de Man","name:right:sr":"\u0423\u0458\u0435\u0434\u0438\u045a\u0435\u043d\u043e \u041a\u0440\u0430\u0459\u0435\u0432\u0441\u0442\u0432\u043e","name:right:mn":"\u0418\u0445 \u0411\u0440\u0438\u0442\u0430\u043d\u0438","name:right:eu":"Erresuma Batua","name:right:et":"Suurbritannia","name:right:vo":"Reg\u00e4n Pebal\u00f6l","name:left:os":"\u041c\u044d\u043d","name:right:mg":"Fanjakana Mitambatra","name:right:vi":"V\u01b0\u01a1ng qu\u1ed1c Anh","name:right:my":"\u101a\u1030\u1014\u102d\u102f\u1000\u103a\u1010\u1000\u103a\u1000\u1004\u103a\u1038\u1012\u1019\u103a\u1038\u1014\u102d\u102f\u1004\u103a\u1004\u1036","name:left:vo":"M\u00e4ne\u00e4n","name:left:oc":"Illa de Man","name:right:na":"Ingerand","name:right:eo":"Britujo","name:left:vi":"\u0110\u1ea3o Man","name:right:mt":"Renju Unit","name:left:fa":"\u062c\u0632\u06cc\u0631\u0647 \u0645\u0646","name:left:fo":"Mann","name:right:sk":"Spojen\u00e9 kr\u00e1\u013eovstvo","name:left:fi":"Mansaari","name:right:te":"\u0c2f\u0c41\u0c28\u0c48\u0c1f\u0c46\u0c21\u0c4d \u0c15\u0c3f\u0c02\u0c17\u0c4d\u200c\u0c21\u0c2e\u0c4d","name:left:fr":"\u00cele de Man","alt_name:right:eo":"Britio","name:right:fy":"Feriene Keninkryk","name:left:fy":"Man","name:left:br":"Manav","name:left:bs":"Ostrvo Man","name:right:mk":"\u041e\u0431\u0435\u0434\u0438\u043d\u0435\u0442\u043e \u041a\u0440\u0430\u043b\u0441\u0442\u0432\u043e","name:right:ja":"\u30a4\u30ae\u30ea\u30b9","name:right:sq":"Mbret\u00ebria e Bashkuar e Britanis\u00eb dhe Irland\u00ebs s\u00eb Veriut","alt_name:left:vi":"\u0110\u1ea3o Mann","name:right:su":"Britania","name:right:mi":"K\u012bngitanga Kotahi","name:right:sw":"Ufalme wa Muungano","name:right:sv":"Storbritannien","name:right:si":"\u0d91\u0d9a\u0dca\u0dc3\u0dad\u0dca \u0dbb\u0dcf\u0da2\u0db0\u0dcf\u0db1\u0dd2\u0dba","name:right:sh":"Ujedinjeno Kraljevstvo","name:left:qu":"Man wat'a","name:right:cy":"Deyrnas Unedig","name:right:jv":"Britania Raya","name:left:bg":"\u041c\u0430\u043d","name:right:so":"Midowga boqortooyada Britan","name:left:be":"\u0412\u043e\u0441\u0442\u0440\u0430\u045e \u041c\u044d\u043d","name:right:sa":"\u0938\u0902\u092f\u0941\u0915\u094d\u0924 \u0905\u0927\u093f\u0930\u093e\u091c\u094d\u092f","name:right:sl":"Zdru\u017eeno kraljestvo Velike Britanije in Severne Irske","name:right:sc":"Rennu Auniadu","name:left:jv":"Pulo Man","id":-62269,"name:right":"United Kingdom","name:right:co":"Regnu Unitu","name:right:ca":"Regne Unit","name:right:se":"Ovttastuvvan gonagasriika","name:right:ml":"\u0d2f\u0d41\u0d23\u0d48\u0d31\u0d4d\u0d31\u0d21\u0d4d \u0d15\u0d3f\u0d19\u0d4d\u0d21\u0d02","name:right:ce":"\u0419\u043e\u043a\u043a\u0445\u0430 \u0411\u0440\u0438\u0442\u0430\u043d\u0438","maritime_boundary":true,"name:left:yo":"Er\u00e9k\u00f9\u1e63\u00f9 il\u1eb9\u0300 Man","name:right:dz":"\u0f61\u0f74\u0f0b\u0f53\u0f60\u0f72\u0f0b\u0f4a\u0f7a\u0f4a\u0f0b\u0f40\u0f72\u0f44\u0f0b\u0f4c\u0f58","name:right:zh-yue":"\u82f1\u570b","id:left":-62269,"min_zoom":8.0,"name:right:cs":"Spojen\u00e9 kr\u00e1lovstv\u00ed","name:right:cu":"\u0412\u0454\u043b\u0438\u043a\u0430 \u0411\u0440\u0438\u0442\u0430\u043d\u0457\ua657","name:right:cv":"\u0410\u0441\u043b\u0103 \u0411\u0440\u0438\u0442\u0430\u043d\u0438","name:right:ka":"\u10d2\u10d0\u10d4\u10e0\u10d7\u10d8\u10d0\u10dc\u10d4\u10d1\u10e3\u10da\u10d8 \u10e1\u10d0\u10db\u10d4\u10e4\u10dd","name:left:io":"Man-Insulo","name:left:ar":"\u062c\u0632\u064a\u0631\u0629 \u0645\u0627\u0646","name:right:kg":"Royaume-Uni","name:left:pl":"Wyspa Man","name:right:kk":"\u04b0\u043b\u044b\u0431\u0440\u0438\u0442\u0430\u043d\u0438\u044f","name:left:id":"Pulau Man","name:right:km":"\u179a\u17b6\u1787\u17b6\u178e\u17b6\u1785\u1780\u17d2\u179a\u179a\u17bd\u1798","name:left:az":"Men adas\u0131","name:right:tr":"Birle\u015fik Krall\u0131k","name:right:rw":"Ubwongereza","name:left:pt":"Ilha de Man","name:left:af":"Eiland Man","name:right:th":"\u0e2a\u0e2b\u0e23\u0e32\u0e0a\u0e2d\u0e32\u0e13\u0e32\u0e08\u0e31\u0e01\u0e23","name:right:kw":"Ruwvaneth Unys","name:right:kv":"\u042b\u0434\u0436\u044b\u0434 \u0411\u0440\u0438\u0442\u0430\u043d\u0438\u044f","name:right:ky":"\u0423\u043b\u0443\u0443 \u0411\u0440\u0438\u0442\u0430\u043d\u0438\u044f \u0436\u0430\u043d\u0430 \u0422\u04af\u043d\u0434\u04af\u043a \u0418\u0440\u043b\u0430\u043d\u0434\u0438\u044f","name:left:zh-min-nan":"Mannin","name:left:it":"Isola di Man","name:left:is":"M\u00f6n","name:right:ta":"\u0b90\u0b95\u0bcd\u0b95\u0bbf\u0baf \u0b87\u0bb0\u0bbe\u0b9a\u0bcd\u0b9a\u0bbf\u0baf\u0bae\u0bcd","name:right:de":"Vereinigtes K\u00f6nigreich","name:right:da":"Storbritannien","name:right:el":"\u0397\u03bd\u03c9\u03bc\u03ad\u03bd\u03bf \u0392\u03b1\u03c3\u03af\u03bb\u03b5\u03b9\u03bf","name:left:zh-yue":"\u99ac\u6069\u5cf6","name:left:pa":"\u0a2e\u0a48\u0a28 \u0a1f\u0a3e\u0a2a\u0a42","name:left:bn":"\u0986\u0987\u09b2 \u0985\u09ab \u09ae\u09cd\u09af\u09be\u09a8","name:left:rw":"Ikirwa cya Man"},"arcs":[0]},{"type":"LineString","properties":{"name:pt":"Ilha de Man","name:ka":"\u10db\u10d4\u10dc\u10d8","name:ko":"\ub9e8 \uc12c","name:cv":"\u041c\u044d\u043d \u0443\u0442\u0440\u0430\u0432\u0115","name:cs":"Man","name:tt":"\u041c\u044d\u043d \u0443\u0442\u0440\u0430\u0432\u044b","name:kw":"Ynys Manow","name:th":"\u0e40\u0e01\u0e32\u0e30\u0e41\u0e21\u0e19","name:az":"Men adas\u0131","name:tl":"Pulo ng Man","name:pa":"\u0a2e\u0a48\u0a28 \u0a1f\u0a3e\u0a2a\u0a42","name:os":"\u041c\u044d\u043d","name:pl":"Wyspa Man","name:ta":"\u0bae\u0bbe\u0ba3\u0bcd \u0ba4\u0bc0\u0bb5\u0bc1","name:ca":"Illa de Man","name:li":"Man","name:cy":"Ynys Manaw","source":"openstreetmap.org","sort_rank":262,"name:hr":"Otok Man","name:de":"Insel Man","name:tr":"Man Adas\u0131","name:sq":"Ishulli i Njeriut","name:dv":"\u0787\u07a6\u0787\u07a8\u0792\u07a6\u078d\u07b0 \u0787\u07ae\u078a\u07b0 \u0789\u07ad\u0782\u07b0","name:lv":"Menas Sala","name:lt":"Meno Sala","name:hi":"\u0906\u0907\u0932 \u0911\u092b\u093c \u092e\u0948\u0928","name:he":"\u05d4\u05d0\u05d9 \u05de\u05d0\u05df","name:eo":"Manksinsulo","name:ur":"\u0622\u0626\u0644 \u0622\u0641 \u0645\u06cc\u0646","name:la":"Monapia","name:uk":"\u041e\u0441\u0442\u0440\u0456\u0432 \u041c\u0435\u043d","name:hy":"\u0544\u0565\u0576 \u056f\u0572\u0566\u056b","name:hu":"Man","name:qu":"Man wat'a","name:oc":"Illa de Man","name:el":"\u039d\u03ae\u03c3\u03bf\u03c2 \u03c4\u03bf\u03c5 \u039c\u03b1\u03bd","kind":"country","name":"Isle of Man","min_zoom":8.0,"name:eu":"Man","name:et":"Man","name:es":"Isla de Man","name:ia":"Insula de Man","alt_name:eo":"Manksio;Manksujo","name:ro":"Insula Man","name:id":"Pulau Man","name:mr":"\u0906\u0908\u0932 \u0911\u092b \u092e\u093e\u0928","name:ar":"\u062c\u0632\u064a\u0631\u0629 \u0645\u0627\u0646","name:io":"Man-Insulo","name:is":"M\u00f6n","name:it":"Isola di Man","name:an":"Isla de Man","name:vi":"\u0110\u1ea3o Man","name:rw":"Ikirwa cya Man","name:mi":"Motu o Man","id":-62269,"name:mk":"\u041c\u0430\u043d","name:af":"Eiland Man","name:fa":"\u062c\u0632\u06cc\u0631\u0647 \u0645\u0646","kind_detail":"2","name:sh":"Otok Man","name:fo":"Mann","name:zh-min-nan":"Mannin","alt_name:vi":"\u0110\u1ea3o Mann","name:fr":"\u00cele de Man","name:zh-yue":"\u99ac\u6069\u5cf6","name:fy":"Man","name:vo":"M\u00e4ne\u00e4n","name:zh":"\u9a6c\u6069\u5c9b","name:sl":"Otok Man","name:nl":"Eiland Man","name:ja":"\u30de\u30f3\u5cf6","name:no":"Man","name:br":"Manav","name:bs":"Ostrvo Man","name:bn":"\u0986\u0987\u09b2 \u0985\u09ab \u09ae\u09cd\u09af\u09be\u09a8","name:sk":"Ostrov Man","name:ml":"\u0d10\u0d7d \u0d12\u0d2b\u0d4d \u0d2e\u0d3e\u0d7b","name:ru":"\u041e\u0441\u0442\u0440\u043e\u0432 \u041c\u044d\u043d","name:be":"\u0412\u043e\u0441\u0442\u0440\u0430\u045e \u041c\u044d\u043d","name:su":"Pulo Man","name:bg":"\u041c\u0430\u043d","name:sr":"\u041e\u0441\u0442\u0440\u0432\u043e \u041c\u0430\u043d","osm_relation":true,"name:ga":"Oile\u00e1n Mhanann","name:gd":"Eilean Mhanainn","name:yo":"Er\u00e9k\u00f9\u1e63\u00f9 il\u1eb9\u0300 Man","name:jv":"Pulo Man","name:gl":"Illa de Man","maritime_boundary":true,"name:gv":"Ellan Vannin","name:fi":"Mansaari"},"arcs":[1]},{"type":"LineString","properties":{"name:kg":"Royaume-Uni","name:ty":"Parat\u0101ne","name:ka":"\u10d2\u10d0\u10d4\u10e0\u10d7\u10d8\u10d0\u10dc\u10d4\u10d1\u10e3\u10da\u10d8 \u10e1\u10d0\u10db\u10d4\u10e4\u10dd","name:ko":"\uc601\uad6d","name:cv":"\u0410\u0441\u043b\u0103 \u0411\u0440\u0438\u0442\u0430\u043d\u0438","name:cu":"\u0412\u0454\u043b\u0438\u043a\u0430 \u0411\u0440\u0438\u0442\u0430\u043d\u0457\ua657","name:kl":"Tuluit Nunaat","name:cs":"Spojen\u00e9 kr\u00e1lovstv\u00ed","name:tt":"\u0411\u04e9\u0435\u043a\u0431\u0440\u0438\u0442\u0430\u043d\u0438\u044f","name:co":"Regnu Unitu","name:kv":"\u042b\u0434\u0436\u044b\u0434 \u0411\u0440\u0438\u0442\u0430\u043d\u0438\u044f","name:ku":"Keyaniya Yekb\u00fby\u00ee","name:tl":"Nagkakaisang Kaharian","name:ce":"\u0419\u043e\u043a\u043a\u0445\u0430 \u0411\u0440\u0438\u0442\u0430\u043d\u0438","name:ta":"\u0b90\u0b95\u0bcd\u0b95\u0bbf\u0baf \u0b87\u0bb0\u0bbe\u0b9a\u0bcd\u0b9a\u0bbf\u0baf\u0bae\u0bcd","name:tg":"\u041f\u043e\u0434\u0448\u043e\u04b3\u0438\u0438 \u041c\u0443\u0442\u0442\u0430\u04b3\u0438\u0434\u0430","name:ca":"Regne Unit","name:te":"\u0c2f\u0c41\u0c28\u0c48\u0c1f\u0c46\u0c21\u0c4d \u0c15\u0c3f\u0c02\u0c17\u0c4d\u200c\u0c21\u0c2e\u0c4d","name:cy":"Deyrnas Unedig","name:qu":"Hukllachasqa Qhapaq Suyu","name:da":"Storbritannien","name:de":"Vereinigtes K\u00f6nigreich","name:dz":"\u0f61\u0f74\u0f0b\u0f53\u0f60\u0f72\u0f0b\u0f4a\u0f7a\u0f4a\u0f0b\u0f40\u0f72\u0f44\u0f0b\u0f4c\u0f58","source":"openstreetmap.org","name:kn":"\u0caf\u0cc1\u0ca8\u0cc8\u0c9f\u0cc6\u0ca1\u0ccd \u0c95\u0cbf\u0c82\u0c97\u0ccd\u200c\u0ca1\u0c82","name:dv":"\u0794\u07aa\u0782\u07a6\u0787\u07a8\u0793\u07ac\u0791\u07b0 \u0786\u07a8\u0782\u07b0\u078e\u07b0\u0791\u07a6\u0789\u07b0","name:km":"\u179a\u17b6\u1787\u17b6\u178e\u17b6\u1785\u1780\u17d2\u179a\u179a\u17bd\u1798","name:lv":"Apvienot\u0101 Karaliste","name:lt":"Jungtin\u0117 Karalyst\u0117","name:uz":"Birlashgan Qirollik","name:kk":"\u04b0\u043b\u044b\u0431\u0440\u0438\u0442\u0430\u043d\u0438\u044f","name:ur":"\u0628\u0631\u0637\u0627\u0646\u06cc\u06c1","name:lb":"Groussbritannien an Nordirland","name:la":"Britanniarum Regnum","name:uk":"\u0412\u0435\u043b\u0438\u043a\u0430 \u0411\u0440\u0438\u0442\u0430\u043d\u0456\u044f","name:ug":"\u0628\u06c8\u064a\u06c8\u0643 \u0628\u06d0\u0631\u0649\u062a\u0627\u0646\u0649\u064a\u06d5","name:li":"Vereineg Keuninkriek","name:ln":"Ing\u025bl\u025b\u0301t\u025bl\u025b","name:el":"\u0397\u03bd\u03c9\u03bc\u03ad\u03bd\u03bf \u0392\u03b1\u03c3\u03af\u03bb\u03b5\u03b9\u03bf","name:eo":"Britujo","name":"United Kingdom","name:th":"\u0e2a\u0e2b\u0e23\u0e32\u0e0a\u0e2d\u0e32\u0e13\u0e32\u0e08\u0e31\u0e01\u0e23","name:eu":"Erresuma Batua","name:et":"Suurbritannia","name:es":"Reino Unido","name:ia":"Regno Unite","name:rm":"Reginavel Un\u00ec","name:az":"B\u00f6y\u00fck Britaniya","name:ie":"Reyatu Unit","name:id":"Britania Raya","name:ig":"Obodo\u00e9z\u00e8 N\u00e0 Of\u00fa","name:ar":"\u0627\u0644\u0645\u0645\u0644\u0643\u0629 \u0627\u0644\u0645\u062a\u062d\u062f\u0629","name:io":"Unionita Rejio","name:is":"Bretland","name:am":"\u12e9\u1293\u12ed\u1275\u12f5 \u12aa\u1295\u130d\u12f0\u121d","name:it":"Regno Unito","name:an":"Reino Unito","name:ru":"\u0412\u0435\u043b\u0438\u043a\u043e\u0431\u0440\u0438\u0442\u0430\u043d\u0438\u044f","name:ab":"\u0411\u0440\u0438\u0442\u0430\u043d\u0438\u0430 \u0414\u0443","name:af":"Verenigde Koninkryk","name:zu":"Umbuso Ohlangeneyo","kind_detail":"2","name:za":"Yinghgoz","name:zh-yue":"\u82f1\u570b","name:zh":"\u82f1\u570b","name:so":"Midowga boqortooyada Britan","name:sl":"Zdru\u017eeno kraljestvo Velike Britanije in Severne Irske","name:sk":"Spojen\u00e9 kr\u00e1\u013eovstvo","name:ja":"\u30a4\u30ae\u30ea\u30b9","name:si":"\u0d91\u0d9a\u0dca\u0dc3\u0dad\u0dca \u0dbb\u0dcf\u0da2\u0db0\u0dcf\u0db1\u0dd2\u0dba","name:sh":"Ujedinjeno Kraljevstvo","name:se":"Ovttastuvvan gonagasriika","name:sc":"Rennu Auniadu","name:sa":"\u0938\u0902\u092f\u0941\u0915\u094d\u0924 \u0905\u0927\u093f\u0930\u093e\u091c\u094d\u092f","name:bs":"Ujedinjeno Kraljevstvo Velike Britanije i Sjeverne Irske","name:bn":"\u09af\u09c1\u0995\u09cd\u09a4\u09b0\u09be\u099c\u09cd\u09af","name:bo":"\u0f51\u0f56\u0fb1\u0f72\u0f53\u0f0b\u0f47\u0f72\u0f0b\u0f58\u0f49\u0f58\u0f0b\u0f60\u0f56\u0fb2\u0f7a\u0f63\u0f0d","name:br":"Rouantelezh-Unanet","name:sw":"Ufalme wa Muungano","name:be":"\u0412\u044f\u043b\u0456\u043a\u0430\u0431\u0440\u044b\u0442\u0430\u043d\u0456\u044f","name:su":"Britania","name:bg":"\u041e\u0431\u0435\u0434\u0438\u043d\u0435\u043d\u043e \u043a\u0440\u0430\u043b\u0441\u0442\u0432\u043e \u0412\u0435\u043b\u0438\u043a\u043e\u0431\u0440\u0438\u0442\u0430\u043d\u0438\u044f \u0438 \u0421\u0435\u0432\u0435\u0440\u043d\u0430 \u0418\u0440\u043b\u0430\u043d\u0434\u0438\u044f","name:ba":"\u0411\u04e9\u0439\u04e9\u043a \u0411\u0440\u0438\u0442\u0430\u043d\u0438\u044f","name:sq":"Mbret\u00ebria e Bashkuar e Britanis\u00eb dhe Irland\u00ebs s\u00eb Veriut","name:jv":"Britania Raya","name:bi":"Unaeted Kingdom","name:pt":"Reino Unido","name:ps":"\u0628\u0631\u064a\u062a\u0627\u0646\u064a\u0627","name:oc":"Reialme Unit","min_zoom":8.0,"name:ro":"Regatul Unit al Marii Britanii \u0219i al Irlandei de Nord","name:zh-min-nan":"Li\u00e2n-ha\u030dp \u00d4ng-kok","name:os":"\u0421\u0442\u044b\u0440 \u0411\u0440\u0438\u0442\u0430\u043d\u0438","name:or":"\u0b2f\u0b41\u0b15\u0b4d\u0b24\u0b30\u0b3e\u0b1c\u0b4d\u0b5f","name:pl":"Wielka Brytania","sort_rank":262,"name:sr":"\u0423\u0458\u0435\u0434\u0438\u045a\u0435\u043d\u043e \u041a\u0440\u0430\u0459\u0435\u0432\u0441\u0442\u0432\u043e","osm_relation":true,"name:pa":"\u0a38\u0a70\u0a2f\u0a41\u0a15\u0a24 \u0a2c\u0a3e\u0a26\u0a38\u0a3c\u0a3e\u0a39\u0a40","name:tr":"Birle\u015fik Krall\u0131k","name:hi":"\u092f\u0942\u0928\u093e\u0907\u091f\u0947\u0921 \u0915\u093f\u0902\u0917\u0921\u092e","name:sv":"Storbritannien","name:he":"\u05d4\u05de\u05de\u05dc\u05db\u05d4 \u05d4\u05de\u05d0\u05d5\u05d7\u05d3\u05ea","name:ha":"Birtaniya","name:hy":"\u0544\u056b\u0561\u0581\u0575\u0561\u056c \u0539\u0561\u0563\u0561\u057e\u0578\u0580\u0578\u0582\u0569\u0575\u0578\u0582\u0576","name:ht":"Way\u00f2m Ini","name:hu":"Egyes\u00fclt Kir\u00e1lys\u00e1g","name:hr":"Ujedinjeno Kraljevstvo","kind":"country","name:yi":"\u05e4\u05d0\u05e8\u05d0\u05d9\u05d9\u05e0\u05d9\u05d2\u05d8\u05e2 \u05e7\u05e2\u05e0\u05d9\u05d2\u05e8\u05d9\u05d9\u05da","name:yo":"Il\u1eb9\u0300\u1ecdba A\u1e63\u1ecd\u0300kan","name:mt":"Renju Unit","alt_name:eo":"Britio","name:mr":"\u092f\u0941\u0928\u093e\u092f\u091f\u0947\u0921 \u0915\u093f\u0902\u0917\u094d\u0921\u092e","name:my":"\u101a\u1030\u1014\u102d\u102f\u1000\u103a\u1010\u1000\u103a\u1000\u1004\u103a\u1038\u1012\u1019\u103a\u1038\u1014\u102d\u102f\u1004\u103a\u1004\u1036","name:kw":"Ruwvaneth Unys","name:mg":"Fanjakana Mitambatra","name:vi":"V\u01b0\u01a1ng qu\u1ed1c Anh","name:ml":"\u0d2f\u0d41\u0d23\u0d48\u0d31\u0d4d\u0d31\u0d21\u0d4d \u0d15\u0d3f\u0d19\u0d4d\u0d21\u0d02","name:mn":"\u0418\u0445 \u0411\u0440\u0438\u0442\u0430\u043d\u0438","name:mi":"K\u012bngitanga Kotahi","id":-62149,"name:mk":"\u041e\u0431\u0435\u0434\u0438\u043d\u0435\u0442\u043e \u041a\u0440\u0430\u043b\u0441\u0442\u0432\u043e","name:vo":"Reg\u00e4n Pebal\u00f6l","name:fa":"\u0628\u0631\u06cc\u062a\u0627\u0646\u06cc\u0627","name:rw":"Ubwongereza","short_name":"UK","name:fi":"Yhdistynyt kuningaskunta","name:ky":"\u0423\u043b\u0443\u0443 \u0411\u0440\u0438\u0442\u0430\u043d\u0438\u044f \u0436\u0430\u043d\u0430 \u0422\u04af\u043d\u0434\u04af\u043a \u0418\u0440\u043b\u0430\u043d\u0434\u0438\u044f","name:fo":"St\u00f3ra Bretland","name:fr":"Royaume-Uni","name:fy":"Feriene Keninkryk","name:nl":"Verenigd Koninkrijk","name:nn":"Storbritannia","name:no":"Storbritannia","name:na":"Ingerand","name:ne":"\u0938\u0902\u092f\u0941\u0915\u094d\u0924 \u0905\u0927\u093f\u0930\u093e\u091c\u094d\u092f","name:wo":"Nguur-Yu-Bennoo","name:nv":"T\u00f3ta\u02bc Din\u00e9\u02bci\u02bc Bik\u00e9yah","name:ga":"An R\u00edocht Aontaithe","name:gd":"An R\u00ecoghachd Aonaichte","name:gn":"Tavet\u00e3 Joaju","name:gl":"Reino Unido","maritime_boundary":true,"name:gv":"Reeriaght Unnaneysit","name:gu":"\u0aaf\u0ac1\u0aa8\u0abe\u0a87\u0a9f\u0ac7\u0aa1 \u0a95\u0abf\u0a82\u0a97\u0aa1\u0aae"},"arcs":[2]},{"type":"LineString","properties":{"name:left:la":"Anglia","alt_name:left:eo":"Anglio","name:right:la":"Scotia","name:right:hr":"\u0160kotska","name:right:hu":"Sk\u00f3cia","name:right:lt":"\u0160kotija","min_zoom":8.0,"name:left:lt":"Anglija","name:left:sk":"Anglicko","name:left:hu":"Anglia","alt_name:left:ia":"Anglia","name:left:ga":"Sasana","name:left:gd":"Sasainn","sort_rank":256,"name:left:ca":"Anglaterra","source":"openstreetmap.org","name:left:cy":"Lloegr","name:right:ar":"\u0625\u0633\u0643\u062a\u0644\u0646\u062f\u0627","name:left:gv":"Sostyn","name:left:cs":"Anglie","name:left":"England","name:right:es":"Escocia","name:right:mi":"Koterana","name:right:eu":"Eskozia","name:right:vo":"Skot\u00e4n","name:right:it":"Scozia","name:right:ru":"\u0428\u043e\u0442\u043b\u0430\u043d\u0434\u0438\u044f","name:right:io":"Skotia","name:left:ru":"\u0410\u043d\u0433\u043b\u0438\u044f","name:left:vo":"Lingl\u00e4n","name:right:fy":"Skotl\u00e2n","name:right:eo":"Skotlando","name:right:ia":"Scotia","name:left:vi":"Anh","kind":"region","name":"England - Scotland","name:right:sk":"\u0160k\u00f3tsko","name:right:be":"\u0428\u0430\u0442\u043b\u0430\u043d\u0434\u044b\u044f","name:left:zh":"\u82f1\u683c\u862d","name:left:fr":"Angleterre","name:right:br":"Bro-Skos","name:left:fy":"Ingel\u00e2n","name:right:nl":"Schotland","name:right:fr":"\u00c9cosse","name:right:sv":"Skottland","name:left:uk":"\u0410\u043d\u0433\u043b\u0456\u044f","name:left:nl":"Engeland","alt_name:right:eo":"Skotio;Skotujo","name:left:be":"\u0410\u043d\u0433\u043b\u0456\u044f","name:left:fi":"Englanti","id":-58447,"name:right:fi":"Skotlanti","old_name:left:vi":"Anh Qu\u1ed1c","name:left:eo":"Anglujo","name:left:el":"\u0391\u03b3\u03b3\u03bb\u03af\u03b1","name:right:ca":"Esc\u00f2cia","kind_detail":"4","alt_name:right:vi":"T\u00f4 C\u00e1ch Lan;Xc\u1ed1t-lan","name:right:cy":"Yr Alban","id:left":-58447,"name:left:es":"Inglaterra","name:right":"Scotland","id:right":-58446,"name:left:io":"Anglia","name:right:gv":"Nalbin","name:right:pt":"Esc\u00f3cia","name:left:pl":"Anglia","name:left:tr":"\u0130ngiltere","name:left:ia":"Anglaterra","name:left:pt":"Inglaterra","name:right:gd":"Alba","name:left:it":"Inghilterra","name:right:pl":"Szkocja","osm_relation":true,"name:right:de":"Schottland"},"arcs":[3]},{"type":"LineString","properties":{"name:left:la":"Anglia","alt_name:left:eo":"Anglio","name:right:la":"Scotia","name:right:hr":"\u0160kotska","name:right:hu":"Sk\u00f3cia","name:right:lt":"\u0160kotija","min_zoom":8.0,"name:left:lt":"Anglija","name:left:sk":"Anglicko","name:left:hu":"Anglia","alt_name:left:ia":"Anglia","name:left:ga":"Sasana","name:left:gd":"Sasainn","sort_rank":256,"name:left:ca":"Anglaterra","source":"openstreetmap.org","name:left:cy":"Lloegr","name:right:ar":"\u0625\u0633\u0643\u062a\u0644\u0646\u062f\u0627","name:left:gv":"Sostyn","name:left:cs":"Anglie","name:left":"England","name:right:es":"Escocia","name:right:mi":"Koterana","name:right:eu":"Eskozia","name:right:vo":"Skot\u00e4n","name:right:it":"Scozia","name:right:ru":"\u0428\u043e\u0442\u043b\u0430\u043d\u0434\u0438\u044f","name:right:io":"Skotia","name:left:ru":"\u0410\u043d\u0433\u043b\u0438\u044f","name:left:vo":"Lingl\u00e4n","name:right:sv":"Skottland","name:right:eo":"Skotlando","name:right:ia":"Scotia","name:left:vi":"Anh","kind":"region","name":"England - Scotland","name:left:nl":"Engeland","name:right:be":"\u0428\u0430\u0442\u043b\u0430\u043d\u0434\u044b\u044f","name:left:zh":"\u82f1\u683c\u862d","name:left:fr":"Angleterre","name:right:br":"Bro-Skos","name:right:fy":"Skotl\u00e2n","name:left:fy":"Ingel\u00e2n","name:right:nl":"Schotland","name:right:fr":"\u00c9cosse","id:right":-58446,"name:left:uk":"\u0410\u043d\u0433\u043b\u0456\u044f","name:right:sk":"\u0160k\u00f3tsko","alt_name:right:eo":"Skotio;Skotujo","name:left:be":"\u0410\u043d\u0433\u043b\u0456\u044f","name:left:fi":"Englanti","id":-58447,"name:right:fi":"Skotlanti","old_name:left:vi":"Anh Qu\u1ed1c","name:left:eo":"Anglujo","name:left:el":"\u0391\u03b3\u03b3\u03bb\u03af\u03b1","name:right:ca":"Esc\u00f2cia","kind_detail":"4","alt_name:right:vi":"T\u00f4 C\u00e1ch Lan;Xc\u1ed1t-lan","name:right:cy":"Yr Alban","id:left":-58447,"name:left:es":"Inglaterra","name:right":"Scotland","name:left:io":"Anglia","name:right:gv":"Nalbin","name:right:pt":"Esc\u00f3cia","name:left:pl":"Anglia","name:left:tr":"\u0130ngiltere","name:left:ia":"Anglaterra","name:left:pt":"Inglaterra","name:right:gd":"Alba","name:left:it":"Inghilterra","name:right:pl":"Szkocja","osm_relation":true,"name:right:de":"Schottland","maritime_boundary":true},"arcs":[4]},{"type":"LineString","properties":{"name:ia":"Anglaterra","name:ga":"Sasana","name:pt":"Inglaterra","name:cy":"Lloegr","name:tr":"\u0130ngiltere","name:cs":"Anglie","alt_name:eo":"Anglio","name:io":"Anglia","min_zoom":8.0,"name:it":"Inghilterra","name:ru":"\u0410\u043d\u0433\u043b\u0438\u044f","name:vi":"Anh","name:pl":"Anglia","id":-58447,"name:ca":"Anglaterra","name:vo":"Lingl\u00e4n","sort_rank":256,"name:fi":"Englanti","old_name:vi":"Anh Qu\u1ed1c","source":"openstreetmap.org","name:fr":"Angleterre","name:fy":"Ingel\u00e2n","name:zh":"\u82f1\u683c\u862d","name:nl":"Engeland","name:lt":"Anglija","name:eo":"Anglujo","name:la":"Anglia","name:sk":"Anglicko","name:uk":"\u0410\u043d\u0433\u043b\u0456\u044f","name:be":"\u0410\u043d\u0433\u043b\u0456\u044f","name:hu":"Anglia","osm_relation":true,"alt_name:ia":"Anglia","name:el":"\u0391\u03b3\u03b3\u03bb\u03af\u03b1","kind":"region","name":"England","name:gd":"Sasainn","maritime_boundary":true,"name:gv":"Sostyn","kind_detail":"4","name:es":"Inglaterra"},"arcs":[5]},{"type":"LineString","properties":{"name:ia":"Scotia","name:pt":"Esc\u00f3cia","name:cy":"Yr Alban","name:ar":"\u0625\u0633\u0643\u062a\u0644\u0646\u062f\u0627","alt_name:eo":"Skotio;Skotujo","name:io":"Skotia","min_zoom":8.0,"name:it":"Scozia","name:sv":"Skottland","name:ru":"\u0428\u043e\u0442\u043b\u0430\u043d\u0434\u0438\u044f","name:pl":"Szkocja","name:mi":"Koterana","id":-58446,"name:ca":"Esc\u00f2cia","name:vo":"Skot\u00e4n","alt_name:vi":"T\u00f4 C\u00e1ch Lan;Xc\u1ed1t-lan","sort_rank":256,"name:fi":"Skotlanti","name:de":"Schottland","source":"openstreetmap.org","name:fr":"\u00c9cosse","name:fy":"Skotl\u00e2n","name:nl":"Schotland","name:lt":"\u0160kotija","name:eo":"Skotlando","name:br":"Bro-Skos","name:la":"Scotia","name:sk":"\u0160k\u00f3tsko","name:be":"\u0428\u0430\u0442\u043b\u0430\u043d\u0434\u044b\u044f","name:hu":"Sk\u00f3cia","name:hr":"\u0160kotska","osm_relation":true,"kind":"region","name":"Scotland","name:gd":"Alba","maritime_boundary":true,"name:gv":"Nalbin","kind_detail":"4","name:eu":"Eskozia","name:es":"Escocia"},"arcs":[6]}]},"roads":{"type":"GeometryCollection","geometries":[{"type":"MultiLineString","properties":{"source":"openstreetmap.org","kind":"major_road","sort_rank":381,"kind_detail":"trunk","ref":"A7","min_zoom":8.0},"arcs":[[57],[58],[59]]},{"type":"LineString","properties":{"bus_network":null,"sort_rank":380,"kind_detail":"primary","kind":"major_road","source":"openstreetmap.org","min_zoom":8.0,"bus_shield_text":"508 (Sum)","landuse_kind":"national_park","ref":"A592"},"arcs":[60]},{"type":"LineString","properties":{"kind":"path","sort_rank":354,"landuse_kind":"urban_area","is_bicycle_related":true,"bicycle_shield_text":"7","bicycle_network":"ncn","source":"openstreetmap.org","min_zoom":8.0,"kind_detail":"cycleway","cycleway":"segregated"},"arcs":[61]},{"type":"MultiLineString","properties":{"source":"openstreetmap.org","kind":"major_road","landuse_kind":"national_park","sort_rank":380,"kind_detail":"primary","ref":"A5091","min_zoom":8.0},"arcs":[[62],[63]]},{"type":"MultiLineString","properties":{"bus_network":null,"sort_rank":380,"kind_detail":"primary","kind":"major_road","source":"openstreetmap.org","min_zoom":8.0,"bus_shield_text":"X4","landuse_kind":"national_park","ref":"A591"},"arcs":[[64],[65],[66]]},{"type":"LineString","properties":{"kind":"minor_road","sort_rank":360,"landuse_kind":"national_park","is_bicycle_related":true,"bicycle_shield_text":"72","bicycle_network":"ncn","source":"openstreetmap.org","min_zoom":8.0,"kind_detail":"unclassified"},"arcs":[67]},{"type":"MultiLineString","properties":{"kind":"major_road","sort_rank":377,"landuse_kind":"national_park","is_bicycle_related":true,"bicycle_shield_text":"71","bicycle_network":"ncn","source":"openstreetmap.org","min_zoom":8.0,"kind_detail":"tertiary"},"arcs":[[68],[69],[70],[71],[72],[73]]},{"type":"MultiLineString","properties":{"kind":"major_road","sort_rank":379,"kind_detail":"secondary","is_bicycle_related":true,"bicycle_shield_text":"72","bicycle_network":"ncn","source":"openstreetmap.org","min_zoom":8.0,"ref":"B5301"},"arcs":[[74],[75]]},{"type":"LineString","properties":{"kind":"major_road","sort_rank":377,"kind_detail":"tertiary","is_bicycle_related":true,"bus_network":null,"bicycle_shield_text":"6","bicycle_network":"ncn","source":"openstreetmap.org","min_zoom":8.0,"bus_shield_text":"555","id":21130217},"arcs":[76]},{"type":"LineString","properties":{"kind":"path","sort_rank":354,"kind_detail":"pedestrian","is_bicycle_related":true,"bicycle_shield_text":"72","bicycle_network":"ncn","source":"openstreetmap.org","min_zoom":8.0,"id":54267627},"arcs":[77]},{"type":"MultiLineString","properties":{"source":"openstreetmap.org","kind":"major_road","sort_rank":381,"kind_detail":"trunk","ref":"A5092","min_zoom":8.0},"arcs":[[78],[79],[80]]},{"type":"LineString","properties":{"kind":"path","sort_rank":354,"kind_detail":"cycleway","is_bicycle_related":true,"bicycle_shield_text":"71","cycleway":"track","source":"openstreetmap.org","min_zoom":8.0,"bicycle_network":"ncn"},"arcs":[81]},{"type":"MultiLineString","properties":{"kind":"minor_road","sort_rank":360,"kind_detail":"unclassified","is_bicycle_related":true,"bicycle_shield_text":"700","bicycle_network":"ncn","source":"openstreetmap.org","min_zoom":8.0},"arcs":[[82],[83],[84],[85],[86]]},{"type":"MultiLineString","properties":{"kind":"minor_road","sort_rank":358,"landuse_kind":"national_park","is_bicycle_related":true,"bicycle_shield_text":"71","bicycle_network":"ncn","source":"openstreetmap.org","min_zoom":8.0,"kind_detail":"service"},"arcs":[[87],[88],[89],[90]]},{"type":"LineString","properties":{"source":"openstreetmap.org","kind":"ferry","name":"Red Cruise","sort_rank":355,"landuse_kind":"national_park","min_zoom":8.0,"id":121559770},"arcs":[91]},{"type":"LineString","properties":{"bus_network":null,"sort_rank":381,"landuse_kind":"national_park","is_bicycle_related":true,"kind":"major_road","bicycle_shield_text":"72","bicycle_network":"ncn","source":"openstreetmap.org","min_zoom":8.0,"bus_shield_text":"X6","kind_detail":"trunk","ref":"A595"},"arcs":[92]},{"type":"MultiLineString","properties":{"kind":"minor_road","sort_rank":360,"kind_detail":"residential","is_bicycle_related":true,"bicycle_shield_text":"70","bicycle_network":"ncn","source":"openstreetmap.org","min_zoom":8.0},"arcs":[[93],[94],[95]]},{"type":"MultiLineString","properties":{"kind":"major_road","sort_rank":377,"kind_detail":"tertiary","is_bicycle_related":true,"bicycle_shield_text":"71","bicycle_network":"ncn","source":"openstreetmap.org","min_zoom":8.0},"arcs":[[96],[97],[98],[99],[100],[101]]},{"type":"LineString","properties":{"source":"openstreetmap.org","kind":"ferry","name":"Bowness to Ferry House (Cross Lakes Shuttle)","sort_rank":355,"landuse_kind":"national_park","min_zoom":8.0,"id":33642096},"arcs":[102]},{"type":"MultiLineString","properties":{"source":"openstreetmap.org","kind":"major_road","landuse_kind":"national_park","sort_rank":380,"kind_detail":"primary","ref":"A591","min_zoom":8.0},"arcs":[[103],[104],[105]]},{"type":"MultiLineString","properties":{"source":"openstreetmap.org","kind":"major_road","sort_rank":380,"kind_detail":"primary","ref":"A597","min_zoom":8.0},"arcs":[[106],[107],[108],[109],[110],[111],[112],[113]]},{"type":"MultiLineString","properties":{"kind":"minor_road","sort_rank":358,"landuse_kind":"urban_area","is_bicycle_related":true,"bicycle_shield_text":"72","bicycle_network":"ncn","source":"openstreetmap.org","min_zoom":8.0,"kind_detail":"service"},"arcs":[[114],[115]]},{"type":"MultiLineString","properties":{"kind":"major_road","sort_rank":381,"kind_detail":"trunk","is_bicycle_related":true,"bicycle_shield_text":"700","bicycle_network":"ncn","source":"openstreetmap.org","min_zoom":8.0,"ref":"A590"},"arcs":[[116],[117]]},{"type":"LineString","properties":{"kind":"major_road","sort_rank":380,"kind_detail":"primary","bus_network":null,"source":"openstreetmap.org","min_zoom":8.0,"bus_shield_text":"555","landuse_kind":"national_park","ref":"A591","id":4879706},"arcs":[118]},{"type":"MultiLineString","properties":{"source":"openstreetmap.org","kind":"major_road","sort_rank":380,"kind_detail":"primary","ref":"A5086","min_zoom":8.0},"arcs":[[119],[120],[121],[122],[123],[124],[125],[126],[127],[128],[129]]},{"type":"LineString","properties":{"kind":"major_road","sort_rank":380,"kind_detail":"primary","is_bicycle_related":true,"bicycle_shield_text":"71","bicycle_network":"ncn","source":"openstreetmap.org","min_zoom":8.0,"landuse_kind":"national_park","ref":"A5091","id":4885867},"arcs":[130]},{"type":"LineString","properties":{"kind":"path","sort_rank":354,"kind_detail":"path","is_bicycle_related":true,"bicycle_shield_text":"71","bicycle_network":"ncn","source":"openstreetmap.org","min_zoom":8.0,"id":291438601},"arcs":[131]},{"type":"LineString","properties":{"kind":"major_road","sort_rank":379,"kind_detail":"secondary","is_bicycle_related":true,"bicycle_shield_text":"72","bicycle_network":"ncn","source":"openstreetmap.org","min_zoom":8.0,"ref":"B5344"},"arcs":[132]},{"type":"MultiLineString","properties":{"kind":"major_road","sort_rank":379,"kind_detail":"secondary","is_bicycle_related":true,"bicycle_shield_text":"700","bicycle_network":"ncn","source":"openstreetmap.org","min_zoom":8.0,"ref":"B5277"},"arcs":[[133],[134]]},{"type":"MultiLineString","properties":{"kind":"minor_road","sort_rank":358,"kind_detail":"service","is_bicycle_related":true,"bicycle_shield_text":"7","bicycle_network":"ncn","source":"openstreetmap.org","min_zoom":8.0},"arcs":[[135],[136],[137],[138],[139],[140]]},{"type":"LineString","properties":{"kind":"major_road","sort_rank":379,"kind_detail":"secondary","is_bicycle_related":true,"bicycle_shield_text":"6","bicycle_network":"ncn","source":"openstreetmap.org","min_zoom":8.0,"landuse_kind":"national_park","ref":"B5285","id":4675614},"arcs":[141]},{"type":"LineString","properties":{"bus_network":null,"sort_rank":381,"kind_detail":"trunk","kind":"major_road","source":"openstreetmap.org","min_zoom":8.0,"bus_shield_text":"508 (Sum)","landuse_kind":"national_park","ref":"A591"},"arcs":[142]},{"type":"LineString","properties":{"kind":"major_road","sort_rank":380,"kind_detail":"primary","is_bicycle_related":true,"bicycle_shield_text":"71","bicycle_network":"ncn","source":"openstreetmap.org","min_zoom":8.0,"ref":"A5086","id":32480429},"arcs":[143]},{"type":"LineString","properties":{"kind":"major_road","sort_rank":377,"kind_detail":"tertiary","is_bicycle_related":true,"bicycle_shield_text":"70","bicycle_network":"ncn","source":"openstreetmap.org","min_zoom":8.0},"arcs":[144]},{"type":"LineString","properties":{"source":"openstreetmap.org","kind":"major_road","landuse_kind":"national_park","sort_rank":380,"kind_detail":"primary","ref":"A5084","min_zoom":8.0},"arcs":[145]},{"type":"MultiLineString","properties":{"sort_rank":380,"kind_detail":"primary","min_zoom":8.0,"kind":"major_road","source":"openstreetmap.org"},"arcs":[[146],[147],[148],[149]]},{"type":"MultiLineString","properties":{"source":"openstreetmap.org","kind":"major_road","landuse_kind":"national_park","sort_rank":380,"kind_detail":"primary","min_zoom":8.0},"arcs":[[150],[151],[152]]},{"type":"MultiLineString","properties":{"kind":"path","sort_rank":354,"kind_detail":"track","is_bicycle_related":true,"bicycle_shield_text":"71","bicycle_network":"ncn","source":"openstreetmap.org","min_zoom":8.0},"arcs":[[153],[154]]},{"type":"LineString","properties":{"kind":"major_road","cycleway_left":"shared_lane","sort_rank":380,"kind_detail":"primary","is_bicycle_related":true,"bus_network":null,"source":"openstreetmap.org","min_zoom":8.0,"bus_shield_text":"505","landuse_kind":"national_park","ref":"A593","id":68757467},"arcs":[155]},{"type":"LineString","properties":{"kind":"major_road","sort_rank":380,"kind_detail":"primary","is_bicycle_related":true,"bicycle_shield_text":"72","bicycle_network":"ncn","source":"openstreetmap.org","min_zoom":8.0,"ref":"A5094","id":127680630},"arcs":[156]},{"type":"LineString","properties":{"bus_network":null,"sort_rank":381,"kind_detail":"trunk","is_bicycle_related":true,"kind":"major_road","bicycle_shield_text":"72","bicycle_network":"ncn","source":"openstreetmap.org","min_zoom":8.0,"bus_shield_text":"X6","ref":"A595"},"arcs":[157]},{"type":"LineString","properties":{"kind":"major_road","sort_rank":379,"kind_detail":"secondary","is_bicycle_related":true,"bus_network":null,"bicycle_shield_text":"71","bicycle_network":"ncn","source":"openstreetmap.org","min_zoom":8.0,"bus_shield_text":"X5","ref":"B5292","id":38627281},"arcs":[158]},{"type":"LineString","properties":{"kind":"major_road","sort_rank":380,"kind_detail":"primary","is_bicycle_related":true,"bicycle_shield_text":"71","bicycle_network":"ncn","source":"openstreetmap.org","min_zoom":8.0,"landuse_kind":"urban_area","ref":"A597","id":89181749},"arcs":[159]},{"type":"LineString","properties":{"kind":"path","sort_rank":354,"landuse_kind":"national_park","is_bicycle_related":true,"bicycle_shield_text":"70","bicycle_network":"ncn","source":"openstreetmap.org","min_zoom":8.0,"kind_detail":"path"},"arcs":[160]},{"type":"MultiLineString","properties":{"source":"openstreetmap.org","kind":"major_road","kind_detail":"trunk","sort_rank":381,"landuse_kind":"urban_area","ref":"A595","min_zoom":8.0},"arcs":[[161],[162],[163],[164],[165],[166],[167]]},{"type":"MultiLineString","properties":{"kind":"major_road","sort_rank":379,"kind_detail":"secondary","is_bicycle_related":true,"bicycle_shield_text":"700","bicycle_network":"ncn","source":"openstreetmap.org","min_zoom":8.0,"ref":"B5281"},"arcs":[[168],[169]]},{"type":"LineString","properties":{"kind":"ferry","name":"Howtown to Pooley bridge","sort_rank":355,"landuse_kind":"national_park","is_bicycle_related":true,"source":"openstreetmap.org","min_zoom":8.0,"id":31903622},"arcs":[170]},{"type":"LineString","properties":{"kind":"major_road","sort_rank":380,"kind_detail":"primary","is_bicycle_related":true,"bus_network":null,"bicycle_shield_text":"6","cycleway":"shared_lane","source":"openstreetmap.org","min_zoom":8.0,"bus_shield_text":"516","landuse_kind":"national_park","bicycle_network":"ncn","ref":"A593","id":68757473},"arcs":[171]},{"type":"LineString","properties":{"kind":"major_road","sort_rank":379,"kind_detail":"secondary","is_bicycle_related":true,"bicycle_shield_text":"10","bicycle_network":"ncn","source":"openstreetmap.org","min_zoom":8.0,"landuse_kind":"national_park","ref":"B5299","id":88313450},"arcs":[172]},{"type":"MultiLineString","properties":{"source":"openstreetmap.org","kind":"major_road","sort_rank":381,"kind_detail":"trunk","ref":"A590","min_zoom":8.0},"arcs":[[173],[174],[175],[176],[177],[178],[179],[180],[181],[182],[183],[184],[185],[186],[187],[188],[189],[190],[191],[192],[193],[194],[195],[196],[197],[198],[199],[200],[201],[202],[203],[204],[205],[206],[207],[208],[209],[210],[211],[212]]},{"type":"MultiLineString","properties":{"bus_network":null,"sort_rank":380,"kind_detail":"primary","kind":"major_road","source":"openstreetmap.org","min_zoom":8.0,"bus_shield_text":"505","landuse_kind":"national_park","ref":"A593"},"arcs":[[213],[214],[215],[216]]},{"type":"MultiLineString","properties":{"kind":"path","sort_rank":354,"landuse_kind":"urban_area","is_bicycle_related":true,"bicycle_shield_text":"72","bicycle_network":"ncn","source":"openstreetmap.org","min_zoom":8.0,"kind_detail":"footway"},"arcs":[[217],[218]]},{"type":"MultiLineString","properties":{"bus_network":null,"sort_rank":381,"landuse_kind":"national_park","is_bicycle_related":true,"kind":"major_road","cycleway":"track","source":"openstreetmap.org","min_zoom":8.0,"bus_shield_text":"X5","kind_detail":"trunk","ref":"A66"},"arcs":[[219],[220]]},{"type":"MultiLineString","properties":{"source":"openstreetmap.org","kind":"major_road","sort_rank":380,"kind_detail":"primary","ref":"A7","min_zoom":8.0},"arcs":[[221],[222],[223]]},{"type":"MultiLineString","properties":{"kind":"major_road","sort_rank":379,"kind_detail":"secondary","is_bicycle_related":true,"bicycle_shield_text":"72","bicycle_network":"ncn","source":"openstreetmap.org","min_zoom":8.0,"ref":"B5302"},"arcs":[[224],[225]]},{"type":"LineString","properties":{"kind":"major_road","sort_rank":379,"kind_detail":"secondary","is_bicycle_related":true,"bicycle_shield_text":"71","bicycle_network":"ncn","source":"openstreetmap.org","min_zoom":8.0,"ref":"B5288"},"arcs":[226]},{"type":"LineString","properties":{"kind":"major_road","sort_rank":380,"landuse_kind":"national_park","is_bicycle_related":true,"bicycle_shield_text":"70","bicycle_network":"ncn","source":"openstreetmap.org","min_zoom":8.0,"kind_detail":"primary","ref":"A5074"},"arcs":[227]},{"type":"MultiLineString","properties":{"bus_network":null,"sort_rank":380,"kind_detail":"primary","is_bicycle_related":true,"kind":"major_road","bicycle_shield_text":"6","bicycle_network":"ncn","source":"openstreetmap.org","min_zoom":8.0,"bus_shield_text":"599","landuse_kind":"national_park","ref":"A5074"},"arcs":[[228],[229],[230],[231]]},{"type":"MultiLineString","properties":{"kind":"major_road","sort_rank":380,"kind_detail":"primary","is_bicycle_related":true,"bicycle_shield_text":"700","bicycle_network":"ncn","source":"openstreetmap.org","min_zoom":8.0,"ref":"A5087"},"arcs":[[232],[233],[234]]},{"type":"LineString","properties":{"source":"openstreetmap.org","kind":"major_road","sort_rank":380,"kind_detail":"primary","ref":"A591","min_zoom":8.0},"arcs":[235]},{"type":"LineString","properties":{"bus_network":null,"sort_rank":380,"kind_detail":"primary","is_bicycle_related":true,"kind":"major_road","bicycle_shield_text":"6","bicycle_network":"ncn","source":"openstreetmap.org","min_zoom":8.0,"bus_shield_text":"599","landuse_kind":"national_park","ref":"A592"},"arcs":[236]},{"type":"LineString","properties":{"kind":"path","sort_rank":354,"kind_detail":"cycleway","is_bicycle_related":true,"bicycle_shield_text":"70","bicycle_network":"ncn","source":"openstreetmap.org","min_zoom":8.0,"id":184868360},"arcs":[237]},{"type":"LineString","properties":{"kind":"major_road","sort_rank":379,"kind_detail":"secondary","is_bicycle_related":true,"bicycle_shield_text":"700","bicycle_network":"ncn","source":"openstreetmap.org","min_zoom":8.0,"id":2830964},"arcs":[238]},{"type":"LineString","properties":{"source":"openstreetmap.org","kind":"major_road","sort_rank":380,"kind_detail":"primary","ref":"A711","min_zoom":8.0},"arcs":[239]},{"type":"LineString","properties":{"kind":"major_road","sort_rank":380,"landuse_kind":"national_park","source":"openstreetmap.org","min_zoom":8.0,"kind_detail":"primary","ref":"A5086","id":42499455},"arcs":[240]},{"type":"LineString","properties":{"source":"openstreetmap.org","kind":"ferry","sort_rank":355,"landuse_kind":"national_park","min_zoom":8.0,"id":171146441},"arcs":[241]},{"type":"MultiLineString","properties":{"source":"openstreetmap.org","kind":"major_road","sort_rank":380,"kind_detail":"primary","ref":"A762","min_zoom":8.0},"arcs":[[242],[243]]},{"type":"MultiLineString","properties":{"kind":"major_road","sort_rank":381,"kind_detail":"trunk","is_bicycle_related":true,"cycleway":"track","source":"openstreetmap.org","min_zoom":8.0,"ref":"A689"},"arcs":[[244],[245],[246],[247],[248],[249],[250],[251],[252],[253],[254],[255],[256],[257]]},{"type":"LineString","properties":{"kind":"major_road","sort_rank":379,"kind_detail":"secondary","is_bicycle_related":true,"bus_network":null,"bicycle_shield_text":"71","bicycle_network":"ncn","source":"openstreetmap.org","min_zoom":8.0,"bus_shield_text":"77A","landuse_kind":"national_park","ref":"B5289","id":25590943},"arcs":[258]},{"type":"LineString","properties":{"kind":"major_road","sort_rank":380,"kind_detail":"primary","bus_network":null,"source":"openstreetmap.org","min_zoom":8.0,"bus_shield_text":"X5","ref":"A5086","id":26477905},"arcs":[259]},{"type":"MultiLineString","properties":{"bus_network":null,"sort_rank":381,"kind_detail":"trunk","kind":"major_road","source":"openstreetmap.org","min_zoom":8.0,"bus_shield_text":"505","landuse_kind":"national_park","ref":"A591"},"arcs":[[260],[261]]},{"type":"LineString","properties":{"kind":"minor_road","sort_rank":360,"landuse_kind":"urban_area","is_bicycle_related":true,"bicycle_shield_text":"71","bicycle_network":"ncn","source":"openstreetmap.org","min_zoom":8.0,"kind_detail":"unclassified"},"arcs":[262]},{"type":"LineString","properties":{"kind":"major_road","sort_rank":381,"kind_detail":"trunk","is_bicycle_related":true,"bus_network":null,"bicycle_shield_text":"71","bicycle_network":"ncn","source":"openstreetmap.org","min_zoom":8.0,"bus_shield_text":"X5","landuse_kind":"national_park","ref":"A591","id":25720654},"arcs":[263]},{"type":"LineString","properties":{"kind":"major_road","sort_rank":380,"kind_detail":"primary","is_bicycle_related":true,"bicycle_shield_text":"6","bicycle_network":"ncn","source":"openstreetmap.org","min_zoom":8.0,"landuse_kind":"national_park","ref":"A592"},"arcs":[264]},{"type":"MultiLineString","properties":{"source":"openstreetmap.org","kind":"major_road","landuse_kind":"national_park","sort_rank":380,"kind_detail":"primary","ref":"A5074","min_zoom":8.0},"arcs":[[265],[266],[267],[268],[269],[270]]},{"type":"LineString","properties":{"kind":"path","footway":"crossing","sort_rank":354,"kind_detail":"footway","is_bicycle_related":true,"bicycle_shield_text":"6","bicycle_network":"ncn","source":"openstreetmap.org","min_zoom":8.0,"landuse_kind":"national_park","id":527908231},"arcs":[271]},{"type":"LineString","properties":{"source":"openstreetmap.org","kind":"major_road","sort_rank":380,"kind_detail":"primary","ref":"A6071","min_zoom":8.0},"arcs":[272]},{"type":"MultiLineString","properties":{"kind":"minor_road","sort_rank":360,"landuse_kind":"national_park","is_bicycle_related":true,"bicycle_shield_text":"70","bicycle_network":"ncn","source":"openstreetmap.org","min_zoom":8.0,"kind_detail":"unclassified"},"arcs":[[273],[274]]},{"type":"MultiLineString","properties":{"kind":"major_road","sort_rank":377,"landuse_kind":"national_park","is_bicycle_related":true,"bicycle_shield_text":"10","bicycle_network":"ncn","source":"openstreetmap.org","min_zoom":8.0,"kind_detail":"tertiary"},"arcs":[[275],[276]]},{"type":"MultiLineString","properties":{"kind":"minor_road","sort_rank":360,"landuse_kind":"national_park","is_bicycle_related":true,"bicycle_shield_text":"10","bicycle_network":"ncn","source":"openstreetmap.org","min_zoom":8.0,"kind_detail":"unclassified"},"arcs":[[277],[278],[279]]},{"type":"LineString","properties":{"bus_network":null,"sort_rank":381,"landuse_kind":"national_park","is_bicycle_related":true,"kind":"major_road","bicycle_shield_text":"6","bicycle_network":"ncn","source":"openstreetmap.org","min_zoom":8.0,"bus_shield_text":"555","kind_detail":"trunk","cycleway":"lane","ref":"A591"},"arcs":[280]},{"type":"LineString","properties":{"bus_network":null,"sort_rank":379,"landuse_kind":"national_park","is_bicycle_related":true,"kind":"major_road","bicycle_shield_text":"71","bicycle_network":"ncn","source":"openstreetmap.org","min_zoom":8.0,"bus_shield_text":"X5","kind_detail":"secondary","ref":"B5289"},"arcs":[281]},{"type":"LineString","properties":{"kind":"major_road","sort_rank":380,"kind_detail":"primary","bus_network":null,"source":"openstreetmap.org","min_zoom":8.0,"bus_shield_text":"516","landuse_kind":"national_park","ref":"A593","id":26569604},"arcs":[282]},{"type":"MultiLineString","properties":{"kind":"minor_road","sort_rank":360,"landuse_kind":"national_park","is_bicycle_related":true,"bicycle_shield_text":"71","bicycle_network":"ncn","source":"openstreetmap.org","min_zoom":8.0,"kind_detail":"residential"},"arcs":[[283],[284]]},{"type":"LineString","properties":{"bus_network":null,"sort_rank":381,"landuse_kind":"national_park","kind":"major_road","source":"openstreetmap.org","min_zoom":8.0,"bus_shield_text":"X5","kind_detail":"trunk","ref":"A591"},"arcs":[285]},{"type":"MultiLineString","properties":{"kind":"major_road","sort_rank":381,"landuse_kind":"national_park","is_bicycle_related":true,"source":"openstreetmap.org","min_zoom":8.0,"kind_detail":"trunk","ref":"A590"},"arcs":[[286],[287]]},{"type":"LineString","properties":{"source":"openstreetmap.org","kind":"major_road","sort_rank":381,"kind_detail":"trunk","ref":"A591","min_zoom":8.0,"id":12878291},"arcs":[288]},{"type":"LineString","properties":{"source":"openstreetmap.org","kind":"major_road","landuse_kind":"national_park","sort_rank":380,"kind_detail":"primary","ref":"A5075","min_zoom":8.0},"arcs":[289]},{"type":"MultiLineString","properties":{"kind":"path","sort_rank":354,"landuse_kind":"national_park","is_bicycle_related":true,"bicycle_shield_text":"70","bicycle_network":"ncn","source":"openstreetmap.org","min_zoom":8.0,"kind_detail":"cycleway"},"arcs":[[290],[291],[292]]},{"type":"LineString","properties":{"bus_network":null,"sort_rank":381,"landuse_kind":"urban_area","kind":"major_road","source":"openstreetmap.org","min_zoom":8.0,"bus_shield_text":"X5","kind_detail":"trunk","ref":"A66"},"arcs":[293]},{"type":"MultiLineString","properties":{"kind":"major_road","network":"e-road","sort_rank":381,"kind_detail":"trunk","source":"openstreetmap.org","min_zoom":8.0,"shield_text":"18","ref":"A75"},"arcs":[[294],[295],[296],[297],[298],[299],[300],[301],[302],[303],[304],[305],[306],[307],[308]]},{"type":"MultiLineString","properties":{"kind":"minor_road","sort_rank":360,"landuse_kind":"urban_area","is_bicycle_related":true,"bicycle_shield_text":"7","bicycle_network":"ncn","source":"openstreetmap.org","min_zoom":8.0,"kind_detail":"residential"},"arcs":[[309],[310],[311],[312],[313]]},{"type":"MultiLineString","properties":{"source":"openstreetmap.org","kind":"major_road","landuse_kind":"residential","sort_rank":380,"kind_detail":"primary","ref":"A5094","min_zoom":8.0},"arcs":[[314],[315],[316],[317],[318],[319],[320],[321],[322],[323],[324]]},{"type":"MultiLineString","properties":{"source":"openstreetmap.org","kind":"major_road","sort_rank":380,"kind_detail":"primary","ref":"A755","min_zoom":8.0},"arcs":[[325],[326]]},{"type":"LineString","properties":{"kind":"major_road","sort_rank":380,"kind_detail":"primary","is_bicycle_related":true,"bus_network":null,"bicycle_shield_text":"6","cycleway":"lane","source":"openstreetmap.org","min_zoom":8.0,"bus_shield_text":"599","landuse_kind":"national_park","ref":"A5074","id":514838081,"bicycle_network":"ncn"},"arcs":[327]},{"type":"LineString","properties":{"kind":"path","sort_rank":354,"landuse_kind":"urban_area","is_bicycle_related":true,"bicycle_shield_text":"7","bicycle_network":"ncn","source":"openstreetmap.org","min_zoom":8.0,"kind_detail":"path"},"arcs":[328]},{"type":"MultiLineString","properties":{"source":"openstreetmap.org","kind":"major_road","kind_detail":"trunk","sort_rank":381,"landuse_kind":"national_park","ref":"A591","min_zoom":8.0},"arcs":[[329],[330]]},{"type":"MultiLineString","properties":{"bus_network":null,"cycleway_left":"lane","sort_rank":381,"landuse_kind":"national_park","is_bicycle_related":true,"kind":"major_road","source":"openstreetmap.org","min_zoom":8.0,"bus_shield_text":"505","kind_detail":"trunk","ref":"A591"},"arcs":[[331],[332]]},{"type":"MultiLineString","properties":{"bus_network":null,"sort_rank":380,"kind_detail":"primary","kind":"major_road","source":"openstreetmap.org","min_zoom":8.0,"bus_shield_text":"505","landuse_kind":"national_park","ref":"A591"},"arcs":[[333],[334]]},{"type":"MultiLineString","properties":{"kind":"path","sort_rank":354,"kind_detail":"track","is_bicycle_related":true,"bicycle_shield_text":"7","bicycle_network":"ncn","source":"openstreetmap.org","min_zoom":8.0},"arcs":[[335],[336],[337]]},{"type":"MultiLineString","properties":{"source":"openstreetmap.org","kind":"major_road","landuse_kind":"urban_area","sort_rank":380,"kind_detail":"primary","ref":"A595","min_zoom":8.0},"arcs":[[338],[339],[340],[341],[342]]},{"type":"LineString","properties":{"kind":"major_road","sort_rank":380,"kind_detail":"primary","is_bicycle_related":true,"bus_network":null,"bicycle_shield_text":"6","cycleway":"shared_lane","source":"openstreetmap.org","min_zoom":8.0,"bus_shield_text":"505","landuse_kind":"national_park","bicycle_network":"ncn","ref":"A593","id":466927412},"arcs":[343]},{"type":"MultiLineString","properties":{"kind":"minor_road","sort_rank":360,"kind_detail":"residential","is_bicycle_related":true,"bicycle_shield_text":"72","bicycle_network":"ncn","source":"openstreetmap.org","min_zoom":8.0},"arcs":[[344],[345],[346],[347],[348],[349]]},{"type":"LineString","properties":{"kind":"path","sort_rank":354,"landuse_kind":"national_park","is_bicycle_related":true,"bicycle_shield_text":"72","bicycle_network":"ncn","source":"openstreetmap.org","min_zoom":8.0,"kind_detail":"footway"},"arcs":[350]},{"type":"LineString","properties":{"kind":"major_road","sort_rank":379,"kind_detail":"secondary","is_bicycle_related":true,"bus_network":null,"bicycle_shield_text":"6","bicycle_network":"ncn","source":"openstreetmap.org","min_zoom":8.0,"bus_shield_text":"555","landuse_kind":"national_park","ref":"B5287","id":4232376},"arcs":[351]},{"type":"LineString","properties":{"source":"openstreetmap.org","kind":"major_road","sort_rank":380,"kind_detail":"primary","ref":"A710","min_zoom":8.0},"arcs":[352]},{"type":"MultiLineString","properties":{"kind":"major_road","network":"Scottish National Tourist Routes","sort_rank":380,"kind_detail":"primary","source":"openstreetmap.org","min_zoom":8.0,"shield_text":null,"ref":"A745"},"arcs":[[353],[354],[355]]},{"type":"MultiLineString","properties":{"kind":"path","sort_rank":354,"landuse_kind":"national_park","is_bicycle_related":true,"bicycle_shield_text":"71","bicycle_network":"ncn","source":"openstreetmap.org","min_zoom":8.0,"kind_detail":"cycleway"},"arcs":[[356],[357],[358],[359],[360]]},{"type":"MultiLineString","properties":{"kind":"major_road","network":"Scottish National Tourist Routes","sort_rank":380,"kind_detail":"primary","source":"openstreetmap.org","min_zoom":8.0,"shield_text":null,"ref":"A713"},"arcs":[[361],[362]]},{"type":"LineString","properties":{"kind":"major_road","sort_rank":379,"kind_detail":"secondary","is_bicycle_related":true,"bus_network":null,"bicycle_shield_text":"6","bicycle_network":"ncn","source":"openstreetmap.org","min_zoom":8.0,"bus_shield_text":"525","landuse_kind":"national_park","ref":"B5285","id":479302359},"arcs":[363]},{"type":"MultiLineString","properties":{"bus_network":null,"network":"e-road","sort_rank":381,"kind_detail":"trunk","kind":"major_road","source":"openstreetmap.org","min_zoom":8.0,"bus_shield_text":"685","shield_text":"18"},"arcs":[[364],[365]]},{"type":"MultiLineString","properties":{"kind":"path","sort_rank":354,"landuse_kind":"national_park","is_bicycle_related":true,"bicycle_shield_text":"6","bicycle_network":"ncn","source":"openstreetmap.org","min_zoom":8.0,"kind_detail":"cycleway"},"arcs":[[366],[367],[368],[369],[370],[371],[372],[373]]},{"type":"LineString","properties":{"kind":"major_road","sort_rank":381,"kind_detail":"trunk","bus_network":null,"source":"openstreetmap.org","min_zoom":8.0,"bus_shield_text":"685","ref":"A69","id":425713953},"arcs":[374]},{"type":"MultiLineString","properties":{"kind":"major_road","sort_rank":377,"landuse_kind":"national_park","is_bicycle_related":true,"bicycle_shield_text":"6","bicycle_network":"ncn","source":"openstreetmap.org","min_zoom":8.0,"kind_detail":"tertiary"},"arcs":[[375],[376],[377]]},{"type":"LineString","properties":{"kind":"major_road","sort_rank":379,"kind_detail":"secondary","is_bicycle_related":true,"bicycle_shield_text":"10","bicycle_network":"ncn","source":"openstreetmap.org","min_zoom":8.0,"ref":"B5305","id":88313447},"arcs":[378]},{"type":"MultiLineString","properties":{"bus_network":null,"sort_rank":381,"landuse_kind":"national_park","kind":"major_road","source":"openstreetmap.org","min_zoom":8.0,"bus_shield_text":"X6","kind_detail":"trunk","ref":"A595"},"arcs":[[379],[380],[381]]},{"type":"MultiLineString","properties":{"source":"openstreetmap.org","kind":"major_road","sort_rank":381,"kind_detail":"trunk","ref":"A595","min_zoom":8.0},"arcs":[[382],[383],[384],[385],[386],[387],[388],[389],[390],[391],[392],[393],[394],[395],[396],[397],[398],[399],[400],[401],[402],[403],[404],[405],[406],[407],[408],[409],[410],[411],[412],[413],[414],[415],[416],[417],[418],[419],[420],[421],[422],[423],[424],[425],[426],[427],[428],[429],[430],[431],[432],[433],[434],[435],[436],[437],[438],[439],[440],[441],[442],[443],[444],[445],[446],[447],[448],[449],[450],[451],[452],[453],[454],[455],[456]]},{"type":"MultiLineString","properties":{"kind":"minor_road","sort_rank":360,"landuse_kind":"residential","is_bicycle_related":true,"bicycle_shield_text":"71","bicycle_network":"ncn","source":"openstreetmap.org","min_zoom":8.0,"kind_detail":"residential"},"arcs":[[457],[458]]},{"type":"MultiLineString","properties":{"kind":"highway","network":"e-road","sort_rank":383,"kind_detail":"motorway","source":"openstreetmap.org","min_zoom":8.0,"all_networks":["e-road","e-road"],"shield_text":"05","ref":"M6","all_shield_texts":["05","18"]},"arcs":[[459],[460]]},{"type":"LineString","properties":{"kind":"major_road","sort_rank":379,"landuse_kind":"national_park","is_bicycle_related":true,"bicycle_shield_text":"6","bicycle_network":"ncn","source":"openstreetmap.org","min_zoom":8.0,"kind_detail":"secondary","ref":"B5322"},"arcs":[461]},{"type":"MultiLineString","properties":{"bus_network":null,"sort_rank":380,"kind_detail":"primary","kind":"major_road","source":"openstreetmap.org","min_zoom":8.0,"bus_shield_text":"36","ref":"A5086"},"arcs":[[462],[463],[464],[465],[466]]},{"type":"LineString","properties":{"kind":"major_road","sort_rank":381,"kind_detail":"trunk","bus_network":null,"source":"openstreetmap.org","min_zoom":8.0,"bus_shield_text":"36","id":162309611},"arcs":[467]},{"type":"MultiLineString","properties":{"source":"openstreetmap.org","kind":"major_road","landuse_kind":"urban_area","sort_rank":380,"kind_detail":"primary","ref":"A597","min_zoom":8.0},"arcs":[[468],[469],[470],[471],[472],[473],[474],[475],[476],[477],[478],[479],[480],[481]]},{"type":"LineString","properties":{"kind":"minor_road","sort_rank":360,"kind_detail":"residential","is_bicycle_related":true,"bicycle_shield_text":"700","bicycle_network":"ncn","source":"openstreetmap.org","min_zoom":8.0},"arcs":[482]},{"type":"LineString","properties":{"kind":"ferry","name":"Glenridding to Howtown","sort_rank":355,"landuse_kind":"national_park","is_bicycle_related":true,"source":"openstreetmap.org","min_zoom":8.0,"id":163842607},"arcs":[483]},{"type":"MultiLineString","properties":{"kind":"minor_road","sort_rank":360,"kind_detail":"residential","is_bicycle_related":true,"bicycle_shield_text":"7","bicycle_network":"ncn","source":"openstreetmap.org","min_zoom":8.0},"arcs":[[484],[485],[486],[487],[488],[489],[490],[491]]},{"type":"LineString","properties":{"bus_network":null,"sort_rank":380,"kind_detail":"primary","kind":"major_road","source":"openstreetmap.org","min_zoom":8.0,"bus_shield_text":"685","landuse_kind":"urban_area","ref":"A69"},"arcs":[492]},{"type":"MultiLineString","properties":{"bus_network":null,"sort_rank":379,"landuse_kind":"national_park","is_bicycle_related":true,"kind":"major_road","bicycle_shield_text":"71","bicycle_network":"ncn","source":"openstreetmap.org","min_zoom":8.0,"bus_shield_text":"77A","kind_detail":"secondary","ref":"B5292"},"arcs":[[493],[494]]},{"type":"LineString","properties":{"kind":"major_road","sort_rank":380,"kind_detail":"primary","bus_network":null,"source":"openstreetmap.org","min_zoom":8.0,"bus_shield_text":"60A","landuse_kind":"urban_area","ref":"A7","id":23467610},"arcs":[495]},{"type":"LineString","properties":{"kind":"minor_road","service":"parking_aisle","sort_rank":356,"kind_detail":"service","is_bicycle_related":true,"bicycle_shield_text":"71","bicycle_network":"ncn","source":"openstreetmap.org","min_zoom":8.0,"landuse_kind":"urban_area","id":223943115},"arcs":[496]},{"type":"LineString","properties":{"kind":"major_road","sort_rank":377,"kind_detail":"tertiary","is_bicycle_related":true,"bus_network":null,"bicycle_shield_text":"6","bicycle_network":"ncn","source":"openstreetmap.org","min_zoom":8.0,"bus_shield_text":"508 (Sum)","landuse_kind":"national_park","id":32132800},"arcs":[497]},{"type":"MultiLineString","properties":{"bus_network":null,"sort_rank":381,"landuse_kind":"national_park","kind":"major_road","source":"openstreetmap.org","min_zoom":8.0,"bus_shield_text":"X5","kind_detail":"trunk","ref":"A66"},"arcs":[[498],[499],[500],[501],[502],[503],[504],[505],[506],[507],[508],[509],[510],[511]]},{"type":"LineString","properties":{"kind":"major_road","sort_rank":380,"kind_detail":"primary","source":"openstreetmap.org","min_zoom":8.0,"old_name":"Eden Bridges","landuse_kind":"urban_area","ref":"A7","id":4785033},"arcs":[512]},{"type":"LineString","properties":{"kind":"major_road","network":"Scottish National Tourist Routes","sort_rank":380,"kind_detail":"primary","source":"openstreetmap.org","min_zoom":8.0,"shield_text":null,"ref":"A711"},"arcs":[513]},{"type":"LineString","properties":{"kind":"minor_road","sort_rank":360,"landuse_kind":"residential","is_bicycle_related":true,"bicycle_shield_text":"72","bicycle_network":"ncn","source":"openstreetmap.org","min_zoom":8.0,"kind_detail":"unclassified"},"arcs":[514]},{"type":"MultiLineString","properties":{"source":"openstreetmap.org","kind":"ferry","name":"Keswick Launch","sort_rank":355,"landuse_kind":"national_park","min_zoom":8.0},"arcs":[[515],[516],[517]]},{"type":"MultiLineString","properties":{"bus_network":null,"sort_rank":380,"kind_detail":"primary","kind":"major_road","source":"openstreetmap.org","min_zoom":8.0,"bus_shield_text":"X4","landuse_kind":"national_park","ref":"A5271"},"arcs":[[518],[519],[520]]},{"type":"LineString","properties":{"kind":"path","sort_rank":354,"landuse_kind":"national_park","is_bicycle_related":true,"bicycle_shield_text":"10","bicycle_network":"ncn","source":"openstreetmap.org","min_zoom":8.0,"kind_detail":"track"},"arcs":[521]},{"type":"MultiLineString","properties":{"bus_network":null,"sort_rank":380,"kind_detail":"primary","kind":"major_road","source":"openstreetmap.org","min_zoom":8.0,"bus_shield_text":"104","ref":"A6"},"arcs":[[522],[523],[524],[525],[526],[527],[528],[529],[530]]},{"type":"MultiLineString","properties":{"source":"openstreetmap.org","kind":"major_road","landuse_kind":"national_park","sort_rank":380,"kind_detail":"primary","ref":"A592","min_zoom":8.0},"arcs":[[531],[532],[533],[534],[535]]},{"type":"MultiLineString","properties":{"source":"openstreetmap.org","kind":"major_road","landuse_kind":"residential","sort_rank":381,"kind_detail":"trunk","ref":"A595","min_zoom":8.0},"arcs":[[536],[537],[538],[539],[540],[541],[542],[543]]},{"type":"MultiLineString","properties":{"bus_network":null,"network":"e-road","sort_rank":381,"kind_detail":"trunk","kind":"major_road","source":"openstreetmap.org","min_zoom":8.0,"bus_shield_text":"685","shield_text":"18","ref":"A69"},"arcs":[[544],[545],[546],[547]]},{"type":"MultiLineString","properties":{"kind":"path","sort_rank":354,"landuse_kind":"urban_area","is_bicycle_related":true,"bicycle_shield_text":"7","bicycle_network":"ncn","source":"openstreetmap.org","min_zoom":8.0,"kind_detail":"cycleway"},"arcs":[[548],[549],[550],[551],[552]]},{"type":"MultiLineString","properties":{"source":"openstreetmap.org","kind":"major_road","landuse_kind":"residential","sort_rank":381,"kind_detail":"trunk","ref":"A596","min_zoom":8.0},"arcs":[[553],[554]]},{"type":"LineString","properties":{"kind":"major_road","sort_rank":379,"kind_detail":"secondary","is_bicycle_related":true,"bicycle_shield_text":"72","bicycle_network":"ncn","source":"openstreetmap.org","min_zoom":8.0,"ref":"B5345"},"arcs":[555]},{"type":"MultiLineString","properties":{"kind":"major_road","sort_rank":379,"kind_detail":"secondary","is_bicycle_related":true,"bicycle_shield_text":"70","bicycle_network":"ncn","source":"openstreetmap.org","min_zoom":8.0,"ref":"B5281"},"arcs":[[556],[557]]},{"type":"MultiLineString","properties":{"bus_network":null,"sort_rank":380,"kind_detail":"primary","kind":"major_road","source":"openstreetmap.org","min_zoom":8.0,"bus_shield_text":"685","ref":"A69"},"arcs":[[558],[559],[560]]},{"type":"LineString","properties":{"kind":"major_road","sort_rank":381,"landuse_kind":"urban_area","source":"openstreetmap.org","min_zoom":8.0,"kind_detail":"trunk","ref":"A590","id":118190265},"arcs":[561]},{"type":"MultiLineString","properties":{"source":"openstreetmap.org","kind":"major_road","sort_rank":380,"kind_detail":"primary","ref":"A594","min_zoom":8.0},"arcs":[[562],[563],[564]]},{"type":"MultiLineString","properties":{"bus_network":null,"sort_rank":380,"kind_detail":"primary","kind":"major_road","source":"openstreetmap.org","min_zoom":8.0,"bus_shield_text":"104","landuse_kind":"urban_area","ref":"A7"},"arcs":[[565],[566]]},{"type":"MultiLineString","properties":{"kind":"minor_road","sort_rank":360,"landuse_kind":"national_park","is_bicycle_related":true,"bicycle_shield_text":"71","bicycle_network":"ncn","source":"openstreetmap.org","min_zoom":8.0,"kind_detail":"unclassified"},"arcs":[[567],[568],[569],[570],[571],[572],[573],[574],[575],[576],[577],[578],[579],[580],[581],[582],[583],[584],[585],[586]]},{"type":"LineString","properties":{"kind":"major_road","sort_rank":380,"kind_detail":"primary","bus_network":null,"bicycle_shield_text":"A5086","bicycle_network":"lcn","source":"openstreetmap.org","min_zoom":8.0,"bus_shield_text":"36","id":162902916},"arcs":[587]},{"type":"LineString","properties":{"kind":"path","sort_rank":354,"kind_detail":"track","is_bicycle_related":true,"bicycle_shield_text":"7","bicycle_network":"ncn","source":"openstreetmap.org","min_zoom":8.0,"landuse_kind":"urban_area","id":37840893},"arcs":[588]},{"type":"LineString","properties":{"bus_network":null,"sort_rank":381,"landuse_kind":"national_park","is_bicycle_related":true,"kind":"major_road","cycleway":"lane","source":"openstreetmap.org","min_zoom":8.0,"bus_shield_text":"505","kind_detail":"trunk","ref":"A591"},"arcs":[589]},{"type":"MultiLineString","properties":{"kind":"minor_road","sort_rank":360,"landuse_kind":"urban_area","is_bicycle_related":true,"bicycle_shield_text":"72","bicycle_network":"ncn","source":"openstreetmap.org","min_zoom":8.0,"kind_detail":"unclassified"},"arcs":[[590],[591],[592]]},{"type":"MultiLineString","properties":{"kind":"path","sort_rank":354,"landuse_kind":"national_park","is_bicycle_related":true,"bicycle_shield_text":"71","bicycle_network":"ncn","source":"openstreetmap.org","min_zoom":8.0,"kind_detail":"path"},"arcs":[[593],[594]]},{"type":"MultiLineString","properties":{"kind":"minor_road","sort_rank":360,"landuse_kind":"national_park","is_bicycle_related":true,"bicycle_shield_text":"6","bicycle_network":"ncn","source":"openstreetmap.org","min_zoom":8.0,"kind_detail":"unclassified"},"arcs":[[595],[596],[597],[598],[599],[600],[601],[602]]},{"type":"LineString","properties":{"kind":"path","sort_rank":354,"landuse_kind":"urban_area","is_bicycle_related":true,"bicycle_shield_text":"72","bicycle_network":"ncn","source":"openstreetmap.org","min_zoom":8.0,"kind_detail":"path"},"arcs":[603]},{"type":"MultiLineString","properties":{"sort_rank":381,"source":"openstreetmap.org","min_zoom":8.0,"kind":"major_road","kind_detail":"trunk"},"arcs":[[604],[605],[606],[607],[608],[609],[610]]},{"type":"LineString","properties":{"kind":"major_road","sort_rank":377,"kind_detail":"tertiary","is_bicycle_related":true,"bicycle_shield_text":"71","bicycle_network":"ncn","source":"openstreetmap.org","min_zoom":8.0,"landuse_kind":"residential","id":36882488},"arcs":[611]},{"type":"LineString","properties":{"kind":"major_road","sort_rank":381,"kind_detail":"trunk","is_bicycle_related":true,"bicycle_shield_text":"6","bicycle_network":"ncn","source":"openstreetmap.org","min_zoom":8.0,"landuse_kind":"national_park","ref":"A591","id":4911902},"arcs":[612]},{"type":"LineString","properties":{"kind":"path","sort_rank":354,"kind_detail":"track","is_bicycle_related":true,"bicycle_shield_text":"6","bicycle_network":"ncn","source":"openstreetmap.org","min_zoom":8.0,"landuse_kind":"national_park","id":4918552},"arcs":[613]},{"type":"MultiLineString","properties":{"kind":"path","sort_rank":354,"landuse_kind":"national_park","is_bicycle_related":true,"bicycle_shield_text":"6","bicycle_network":"ncn","source":"openstreetmap.org","min_zoom":8.0,"kind_detail":"path"},"arcs":[[614],[615],[616],[617]]},{"type":"MultiLineString","properties":{"kind":"minor_road","sort_rank":360,"kind_detail":"unclassified","is_bicycle_related":true,"bicycle_shield_text":"7","bicycle_network":"ncn","source":"openstreetmap.org","min_zoom":8.0},"arcs":[[618],[619],[620],[621],[622],[623],[624],[625],[626],[627],[628],[629],[630],[631],[632],[633],[634],[635],[636],[637],[638],[639],[640]]},{"type":"MultiLineString","properties":{"bus_network":null,"sort_rank":377,"landuse_kind":"national_park","is_bicycle_related":true,"kind":"major_road","bicycle_shield_text":"6","bicycle_network":"ncn","source":"openstreetmap.org","min_zoom":8.0,"bus_shield_text":"599","kind_detail":"tertiary"},"arcs":[[641],[642],[643]]},{"type":"LineString","properties":{"source":"openstreetmap.org","kind":"ferry","name":"Windermere Bike Boat (seasonal)","sort_rank":355,"landuse_kind":"national_park","min_zoom":8.0,"id":348869511},"arcs":[644]},{"type":"LineString","properties":{"kind":"major_road","sort_rank":379,"landuse_kind":"residential","is_bicycle_related":true,"bicycle_shield_text":"71","cycleway":"lane","source":"openstreetmap.org","min_zoom":8.0,"kind_detail":"secondary","bicycle_network":"ncn","ref":"B5345"},"arcs":[645]},{"type":"MultiLineString","properties":{"source":"openstreetmap.org","kind":"ferry","name":"Coniston Launch - Northern Service","sort_rank":355,"landuse_kind":"national_park","min_zoom":8.0},"arcs":[[646],[647]]},{"type":"LineString","properties":{"kind":"minor_road","sort_rank":360,"kind_detail":"residential","is_bicycle_related":true,"bicycle_shield_text":"72","bicycle_network":"ncn","source":"openstreetmap.org","min_zoom":8.0,"landuse_kind":"residential","id":127756129},"arcs":[648]},{"type":"LineString","properties":{"kind":"path","sort_rank":354,"kind_detail":"cycleway","is_bicycle_related":true,"bicycle_shield_text":"7","cycleway":"shared","source":"openstreetmap.org","min_zoom":8.0,"bicycle_network":"ncn"},"arcs":[649]},{"type":"LineString","properties":{"kind":"major_road","sort_rank":379,"kind_detail":"secondary","is_bicycle_related":true,"bicycle_shield_text":"72","bicycle_network":"ncn","source":"openstreetmap.org","min_zoom":8.0,"ref":"B5307"},"arcs":[650]},{"type":"LineString","properties":{"bus_network":null,"cycleway_left":"lane","sort_rank":380,"kind_detail":"primary","is_bicycle_related":true,"kind":"major_road","bicycle_shield_text":"6","bicycle_network":"ncn","source":"openstreetmap.org","min_zoom":8.0,"bus_shield_text":"599","landuse_kind":"national_park","ref":"A5074"},"arcs":[651]},{"type":"LineString","properties":{"kind":"major_road","sort_rank":380,"kind_detail":"primary","is_bicycle_related":true,"bicycle_shield_text":"7","bicycle_network":"ncn","source":"openstreetmap.org","min_zoom":8.0,"ref":"A755"},"arcs":[652]},{"type":"MultiLineString","properties":{"kind":"major_road","sort_rank":379,"kind_detail":"secondary","is_bicycle_related":true,"bicycle_shield_text":"7","bicycle_network":"ncn","source":"openstreetmap.org","min_zoom":8.0,"ref":"B727"},"arcs":[[653],[654]]},{"type":"MultiLineString","properties":{"kind":"major_road","sort_rank":377,"kind_detail":"tertiary","is_bicycle_related":true,"bicycle_shield_text":"72","bicycle_network":"ncn","source":"openstreetmap.org","min_zoom":8.0},"arcs":[[655],[656],[657],[658],[659],[660],[661],[662],[663],[664],[665],[666]]},{"type":"MultiLineString","properties":{"source":"openstreetmap.org","kind":"major_road","sort_rank":380,"kind_detail":"primary","ref":"A745","min_zoom":8.0},"arcs":[[667],[668],[669],[670]]},{"type":"MultiLineString","properties":{"kind":"path","sort_rank":354,"landuse_kind":"residential","is_bicycle_related":true,"bicycle_shield_text":"71","bicycle_network":"ncn","source":"openstreetmap.org","min_zoom":8.0,"kind_detail":"cycleway"},"arcs":[[671],[672],[673],[674],[675]]},{"type":"LineString","properties":{"kind":"major_road","sort_rank":379,"kind_detail":"secondary","is_bicycle_related":true,"bicycle_shield_text":"700","bicycle_network":"ncn","source":"openstreetmap.org","min_zoom":8.0,"ref":"B5282"},"arcs":[676]},{"type":"LineString","properties":{"kind":"major_road","sort_rank":381,"kind_detail":"trunk","bus_network":null,"source":"openstreetmap.org","min_zoom":8.0,"bus_shield_text":"X4","landuse_kind":"national_park","ref":"A66","id":4881586},"arcs":[677]},{"type":"LineString","properties":{"cycleway_right":"shared_lane","sort_rank":380,"kind_detail":"primary","is_bicycle_related":true,"kind":"major_road","bicycle_shield_text":"6","bicycle_network":"ncn","bus_network":null,"source":"openstreetmap.org","min_zoom":8.0,"bus_shield_text":"505","landuse_kind":"national_park","ref":"A593","id":466927411},"arcs":[678]},{"type":"LineString","properties":{"kind":"major_road","sort_rank":381,"kind_detail":"trunk","bus_network":null,"source":"openstreetmap.org","min_zoom":8.0,"bus_shield_text":"14","landuse_kind":"national_park","ref":"A595","id":33232817},"arcs":[679]},{"type":"MultiLineString","properties":{"kind":"minor_road","sort_rank":360,"kind_detail":"unclassified","is_bicycle_related":true,"bicycle_shield_text":"10","bicycle_network":"ncn","source":"openstreetmap.org","min_zoom":8.0},"arcs":[[680],[681],[682],[683],[684],[685]]},{"type":"MultiLineString","properties":{"kind":"major_road","sort_rank":377,"kind_detail":"tertiary","is_bicycle_related":true,"bicycle_shield_text":"700","bicycle_network":"ncn","source":"openstreetmap.org","min_zoom":8.0},"arcs":[[686],[687],[688],[689]]},{"type":"LineString","properties":{"bus_network":null,"sort_rank":380,"kind_detail":"primary","kind":"major_road","source":"openstreetmap.org","min_zoom":8.0,"bus_shield_text":"X5","landuse_kind":"national_park","ref":"A5271"},"arcs":[690]},{"type":"MultiLineString","properties":{"kind":"path","sort_rank":354,"landuse_kind":"national_park","is_bicycle_related":true,"bicycle_shield_text":"6","bicycle_network":"ncn","source":"openstreetmap.org","min_zoom":8.0,"kind_detail":"footway"},"arcs":[[691],[692],[693]]},{"type":"LineString","properties":{"kind":"major_road","sort_rank":381,"kind_detail":"trunk","is_bicycle_related":true,"bicycle_shield_text":"72","bicycle_network":"ncn","source":"openstreetmap.org","min_zoom":8.0,"ref":"A596"},"arcs":[694]},{"type":"MultiLineString","properties":{"kind":"highway","network":"e-road","sort_rank":383,"kind_detail":"motorway","source":"openstreetmap.org","min_zoom":8.0,"all_networks":["e-road"],"shield_text":"05","ref":"M6","all_shield_texts":["05"]},"arcs":[[695],[696]]},{"type":"LineString","properties":{"kind":"major_road","sort_rank":379,"kind_detail":"secondary","is_bicycle_related":true,"bicycle_shield_text":"70","bicycle_network":"ncn","source":"openstreetmap.org","min_zoom":8.0,"ref":"B5277"},"arcs":[697]},{"type":"LineString","properties":{"kind":"path","network":"lcn","sort_rank":354,"kind_detail":"cycleway","is_bicycle_related":true,"bicycle_shield_text":"71","bicycle_network":"ncn","source":"openstreetmap.org","min_zoom":8.0,"id":291438600},"arcs":[698]},{"type":"LineString","properties":{"source":"openstreetmap.org","kind":"major_road","kind_detail":"trunk","sort_rank":381,"landuse_kind":"urban_area","min_zoom":8.0},"arcs":[699]},{"type":"MultiLineString","properties":{"kind":"path","sort_rank":354,"kind_detail":"track","is_bicycle_related":true,"bicycle_shield_text":"72","bicycle_network":"ncn","source":"openstreetmap.org","min_zoom":8.0},"arcs":[[700],[701]]},{"type":"LineString","properties":{"kind":"major_road","sort_rank":381,"kind_detail":"trunk","is_bicycle_related":true,"source":"openstreetmap.org","min_zoom":8.0,"ref":"A689","id":122816279},"arcs":[702]},{"type":"LineString","properties":{"kind":"minor_road","sort_rank":360,"kind_detail":"residential","is_bicycle_related":true,"bicycle_shield_text":"10","bicycle_network":"ncn","source":"openstreetmap.org","min_zoom":8.0,"id":27568328},"arcs":[703]},{"type":"LineString","properties":{"kind":"major_road","sort_rank":380,"kind_detail":"primary","bus_network":null,"source":"openstreetmap.org","min_zoom":8.0,"bus_shield_text":"555","landuse_kind":"national_park","id":4600162},"arcs":[704]},{"type":"LineString","properties":{"kind":"major_road","sort_rank":377,"kind_detail":"tertiary","is_bicycle_related":true,"bicycle_shield_text":"71","bicycle_network":"ncn","source":"openstreetmap.org","min_zoom":8.0,"ref":"C2016"},"arcs":[705]},{"type":"MultiLineString","properties":{"kind":"path","sort_rank":354,"kind_detail":"cycleway","is_bicycle_related":true,"bicycle_shield_text":"72","bicycle_network":"ncn","source":"openstreetmap.org","min_zoom":8.0},"arcs":[[706],[707],[708],[709],[710],[711],[712],[713],[714],[715],[716],[717],[718],[719],[720],[721],[722],[723],[724]]},{"type":"MultiLineString","properties":{"source":"openstreetmap.org","kind":"major_road","kind_detail":"trunk","sort_rank":381,"landuse_kind":"national_park","min_zoom":8.0},"arcs":[[725],[726]]},{"type":"MultiLineString","properties":{"source":"openstreetmap.org","kind":"major_road","landuse_kind":"residential","sort_rank":380,"kind_detail":"primary","min_zoom":8.0},"arcs":[[727],[728],[729]]},{"type":"LineString","properties":{"kind":"major_road","sort_rank":380,"landuse_kind":"national_park","source":"openstreetmap.org","min_zoom":8.0,"kind_detail":"primary","ref":"A5093","id":95421934},"arcs":[730]},{"type":"MultiLineString","properties":{"kind":"minor_road","sort_rank":358,"landuse_kind":"national_park","is_bicycle_related":true,"bicycle_shield_text":"6","bicycle_network":"ncn","source":"openstreetmap.org","min_zoom":8.0,"kind_detail":"service"},"arcs":[[731],[732],[733],[734]]},{"type":"LineString","properties":{"kind":"major_road","sort_rank":380,"kind_detail":"primary","is_bicycle_related":true,"bus_network":null,"bicycle_shield_text":"37","bicycle_network":"rcn","source":"openstreetmap.org","min_zoom":8.0,"bus_shield_text":"505","landuse_kind":"national_park","ref":"A593","id":125302708},"arcs":[735]},{"type":"MultiLineString","properties":{"source":"openstreetmap.org","kind":"major_road","sort_rank":381,"kind_detail":"trunk","ref":"A596","min_zoom":8.0},"arcs":[[736],[737],[738],[739],[740],[741],[742]]},{"type":"MultiLineString","properties":{"kind":"path","sort_rank":354,"kind_detail":"footway","is_bicycle_related":true,"bicycle_shield_text":"71","bicycle_network":"ncn","source":"openstreetmap.org","min_zoom":8.0},"arcs":[[743],[744],[745],[746]]},{"type":"LineString","properties":{"kind":"major_road","sort_rank":380,"landuse_kind":"urban_area","source":"openstreetmap.org","min_zoom":8.0,"kind_detail":"primary","ref":"A69","id":4260302},"arcs":[747]},{"type":"MultiLineString","properties":{"source":"openstreetmap.org","kind":"major_road","sort_rank":380,"kind_detail":"primary","ref":"A5094","min_zoom":8.0},"arcs":[[748],[749],[750],[751],[752],[753]]},{"type":"MultiLineString","properties":{"source":"openstreetmap.org","kind":"major_road","kind_detail":"trunk","sort_rank":381,"landuse_kind":"national_park","ref":"A5092","min_zoom":8.0},"arcs":[[754],[755],[756],[757],[758],[759]]},{"type":"MultiLineString","properties":{"kind":"path","sort_rank":354,"landuse_kind":"urban_area","is_bicycle_related":true,"bicycle_shield_text":"72","bicycle_network":"ncn","source":"openstreetmap.org","min_zoom":8.0,"kind_detail":"cycleway"},"arcs":[[760],[761],[762],[763],[764],[765],[766],[767]]},{"type":"LineString","properties":{"kind":"major_road","network":"Scottish National Tourist Routes","sort_rank":380,"kind_detail":"primary","is_bicycle_related":true,"bicycle_shield_text":"7","bicycle_network":"ncn","source":"openstreetmap.org","min_zoom":8.0,"shield_text":null,"id":4760784},"arcs":[768]},{"type":"MultiLineString","properties":{"source":"openstreetmap.org","kind":"major_road","landuse_kind":"residential","sort_rank":380,"kind_detail":"primary","ref":"A597","min_zoom":8.0},"arcs":[[769],[770],[771],[772]]},{"type":"LineString","properties":{"kind":"path","sort_rank":354,"landuse_kind":"urban_area","is_bicycle_related":true,"bicycle_shield_text":"71","bicycle_network":"ncn","source":"openstreetmap.org","min_zoom":8.0,"kind_detail":"cycleway"},"arcs":[773]},{"type":"MultiLineString","properties":{"kind":"major_road","sort_rank":379,"kind_detail":"secondary","is_bicycle_related":true,"bicycle_shield_text":"7","bicycle_network":"ncn","source":"openstreetmap.org","min_zoom":8.0,"ref":"B5299"},"arcs":[[774],[775],[776]]},{"type":"LineString","properties":{"kind":"minor_road","sort_rank":358,"kind_detail":"service","is_bicycle_related":true,"bicycle_shield_text":"70","bicycle_network":"ncn","source":"openstreetmap.org","min_zoom":8.0,"id":5535942},"arcs":[777]},{"type":"LineString","properties":{"kind":"major_road","sort_rank":381,"landuse_kind":"national_park","is_bicycle_related":true,"cycleway":"both","source":"openstreetmap.org","min_zoom":8.0,"kind_detail":"trunk","ref":"A590"},"arcs":[778]},{"type":"MultiLineString","properties":{"kind":"major_road","sort_rank":379,"kind_detail":"secondary","is_bicycle_related":true,"bicycle_shield_text":"72","bicycle_network":"ncn","source":"openstreetmap.org","min_zoom":8.0,"ref":"B5300"},"arcs":[[779],[780]]},{"type":"LineString","properties":{"bus_network":null,"sort_rank":377,"landuse_kind":"national_park","is_bicycle_related":true,"kind":"major_road","bicycle_shield_text":"72","bicycle_network":"ncn","source":"openstreetmap.org","min_zoom":8.0,"bus_shield_text":"X6","kind_detail":"tertiary"},"arcs":[781]},{"type":"MultiLineString","properties":{"bus_network":null,"sort_rank":380,"landuse_kind":"national_park","is_bicycle_related":true,"kind":"major_road","bicycle_shield_text":"71","bicycle_network":"ncn","source":"openstreetmap.org","min_zoom":8.0,"bus_shield_text":"X5","kind_detail":"primary","ref":"A5271"},"arcs":[[782],[783]]},{"type":"LineString","properties":{"kind":"major_road","sort_rank":381,"kind_detail":"trunk","bus_network":null,"source":"openstreetmap.org","min_zoom":8.0,"bus_shield_text":"X5","landuse_kind":"residential","ref":"A66","id":55886754},"arcs":[784]},{"type":"LineString","properties":{"kind":"major_road","network":"Scottish National Tourist Routes","sort_rank":380,"kind_detail":"primary","is_bicycle_related":true,"bicycle_shield_text":"7","bicycle_network":"ncn","source":"openstreetmap.org","min_zoom":8.0,"shield_text":null,"ref":"A713"},"arcs":[785]},{"type":"LineString","properties":{"kind":"ferry","name":"Howtown to Glenridding","sort_rank":355,"landuse_kind":"national_park","is_bicycle_related":true,"source":"openstreetmap.org","min_zoom":8.0,"id":163842610},"arcs":[786]},{"type":"LineString","properties":{"source":"openstreetmap.org","kind":"major_road","sort_rank":380,"kind_detail":"primary","ref":"A592","min_zoom":8.0,"id":4675591},"arcs":[787]},{"type":"MultiLineString","properties":{"source":"openstreetmap.org","kind":"major_road","kind_detail":"trunk","sort_rank":381,"landuse_kind":"urban_area","ref":"A596","min_zoom":8.0},"arcs":[[788],[789],[790],[791],[792],[793],[794],[795],[796]]},{"type":"LineString","properties":{"kind":"major_road","sort_rank":381,"kind_detail":"trunk","is_bicycle_related":true,"bus_network":null,"bicycle_shield_text":"6","bicycle_network":"ncn","source":"openstreetmap.org","min_zoom":8.0,"bus_shield_text":"555","landuse_kind":"national_park","ref":"A591","id":162269757},"arcs":[797]},{"type":"LineString","properties":{"sort_rank":355,"source":"openstreetmap.org","min_zoom":8.0,"name":"Heysham - Belfast (Freight Only) - Stena Line","kind":"ferry"},"arcs":[798]},{"type":"MultiLineString","properties":{"source":"openstreetmap.org","kind":"major_road","sort_rank":381,"kind_detail":"trunk","ref":"A689","min_zoom":8.0},"arcs":[[799],[800],[801],[802],[803],[804],[805],[806],[807],[808],[809],[810],[811],[812],[813],[814],[815],[816],[817],[818],[819],[820],[821],[822],[823],[824],[825],[826],[827],[828],[829],[830],[831],[832],[833],[834],[835],[836],[837],[838],[839],[840],[841],[842],[843],[844],[845],[846],[847],[848],[849],[850],[851],[852]]},{"type":"LineString","properties":{"kind":"major_road","sort_rank":381,"kind_detail":"trunk","is_bicycle_related":true,"bus_network":null,"source":"openstreetmap.org","min_zoom":8.0,"bus_shield_text":"555","landuse_kind":"national_park","ref":"A591","id":27205366},"arcs":[853]},{"type":"LineString","properties":{"kind":"minor_road","sort_rank":360,"kind_detail":"residential","is_bicycle_related":true,"bicycle_shield_text":"72","bicycle_network":"ncn","source":"openstreetmap.org","min_zoom":8.0,"landuse_kind":"urban_area","id":151877943},"arcs":[854]},{"type":"LineString","properties":{"kind":"path","sort_rank":354,"kind_detail":"cycleway","is_bicycle_related":true,"bicycle_shield_text":"71","cycleway":"track","source":"openstreetmap.org","min_zoom":8.0,"landuse_kind":"residential","bicycle_network":"ncn","id":36856556},"arcs":[855]},{"type":"MultiLineString","properties":{"kind":"major_road","sort_rank":377,"kind_detail":"tertiary","is_bicycle_related":true,"bicycle_shield_text":"72","bicycle_network":"ncn","source":"openstreetmap.org","min_zoom":8.0,"ref":"C4004"},"arcs":[[856],[857]]},{"type":"LineString","properties":{"kind":"major_road","sort_rank":379,"kind_detail":"secondary","is_bicycle_related":true,"bicycle_shield_text":"7","bicycle_network":"ncn","source":"openstreetmap.org","min_zoom":8.0,"ref":"B725"},"arcs":[858]},{"type":"LineString","properties":{"kind":"major_road","sort_rank":380,"kind_detail":"primary","is_bicycle_related":true,"bicycle_shield_text":"37","bicycle_network":"rcn","source":"openstreetmap.org","min_zoom":8.0,"landuse_kind":"national_park","ref":"A593","id":50249909},"arcs":[859]},{"type":"MultiLineString","properties":{"source":"openstreetmap.org","bus_network":null,"bus_shield_text":"685","sort_rank":381,"kind_detail":"trunk","min_zoom":8.0,"kind":"major_road"},"arcs":[[860],[861]]},{"type":"MultiLineString","properties":{"bus_network":null,"sort_rank":381,"landuse_kind":"national_park","is_bicycle_related":true,"kind":"major_road","bicycle_shield_text":"71","bicycle_network":"ncn","source":"openstreetmap.org","min_zoom":8.0,"bus_shield_text":"X5","kind_detail":"trunk","cycleway":"track","ref":"A66"},"arcs":[[862],[863],[864]]},{"type":"LineString","properties":{"kind":"path","sort_rank":354,"kind_detail":"footway","is_bicycle_related":true,"bicycle_shield_text":"72","bicycle_network":"ncn","source":"openstreetmap.org","min_zoom":8.0,"id":58784554},"arcs":[865]},{"type":"LineString","properties":{"kind":"path","sort_rank":354,"kind_detail":"path","is_bicycle_related":true,"bicycle_shield_text":"7","bicycle_network":"ncn","source":"openstreetmap.org","min_zoom":8.0},"arcs":[866]},{"type":"MultiLineString","properties":{"bus_network":null,"sort_rank":381,"landuse_kind":"national_park","kind":"major_road","source":"openstreetmap.org","min_zoom":8.0,"bus_shield_text":"555","kind_detail":"trunk","ref":"A591"},"arcs":[[867],[868],[869],[870],[871],[872],[873],[874],[875],[876]]},{"type":"LineString","properties":{"kind":"major_road","sort_rank":379,"kind_detail":"secondary","is_bicycle_related":true,"bicycle_shield_text":"7","bicycle_network":"ncn","source":"openstreetmap.org","min_zoom":8.0,"ref":"B5305","id":23385338},"arcs":[877]},{"type":"MultiLineString","properties":{"source":"openstreetmap.org","kind":"major_road","landuse_kind":"national_park","sort_rank":380,"kind_detail":"primary","ref":"A593","min_zoom":8.0},"arcs":[[878],[879],[880],[881],[882],[883],[884]]},{"type":"MultiLineString","properties":{"source":"openstreetmap.org","kind":"major_road","kind_detail":"trunk","sort_rank":381,"landuse_kind":"national_park","ref":"A66","min_zoom":8.0},"arcs":[[885],[886],[887],[888],[889],[890],[891],[892],[893],[894],[895],[896],[897]]},{"type":"MultiLineString","properties":{"kind":"minor_road","sort_rank":358,"kind_detail":"service","is_bicycle_related":true,"bicycle_shield_text":"72","bicycle_network":"ncn","source":"openstreetmap.org","min_zoom":8.0},"arcs":[[898],[899],[900],[901],[902],[903],[904],[905],[906]]},{"type":"LineString","properties":{"kind":"path","sort_rank":354,"landuse_kind":"national_park","is_bicycle_related":true,"bicycle_shield_text":"700","bicycle_network":"ncn","source":"openstreetmap.org","min_zoom":8.0,"kind_detail":"cycleway"},"arcs":[907]},{"type":"MultiLineString","properties":{"kind":"path","sort_rank":354,"kind_detail":"cycleway","is_bicycle_related":true,"bicycle_shield_text":"7","bicycle_network":"ncn","source":"openstreetmap.org","min_zoom":8.0},"arcs":[[908],[909],[910],[911],[912],[913],[914],[915]]},{"type":"MultiLineString","properties":{"bus_network":null,"sort_rank":381,"kind_detail":"trunk","kind":"major_road","source":"openstreetmap.org","min_zoom":8.0,"bus_shield_text":"X5","ref":"A66"},"arcs":[[916],[917],[918],[919],[920],[921],[922],[923],[924]]},{"type":"MultiLineString","properties":{"source":"openstreetmap.org","kind":"major_road","kind_detail":"trunk","sort_rank":381,"landuse_kind":"national_park","ref":"A595","min_zoom":8.0},"arcs":[[925],[926],[927],[928],[929],[930],[931],[932],[933],[934],[935],[936]]},{"type":"MultiLineString","properties":{"kind":"minor_road","sort_rank":360,"kind_detail":"unclassified","is_bicycle_related":true,"bicycle_shield_text":"70","bicycle_network":"ncn","source":"openstreetmap.org","min_zoom":8.0},"arcs":[[937],[938],[939],[940],[941],[942],[943],[944],[945],[946],[947]]},{"type":"LineString","properties":{"bus_network":null,"sort_rank":380,"kind_detail":"primary","kind":"major_road","source":"openstreetmap.org","min_zoom":8.0,"bus_shield_text":"104","landuse_kind":"urban_area","ref":"A6"},"arcs":[948]},{"type":"LineString","properties":{"kind":"major_road","sort_rank":380,"kind_detail":"primary","is_bicycle_related":true,"bicycle_shield_text":"70","bicycle_network":"ncn","source":"openstreetmap.org","min_zoom":8.0,"ref":"A5074","id":15807575},"arcs":[949]},{"type":"LineString","properties":{"kind":"major_road","sort_rank":380,"kind_detail":"primary","bus_network":null,"source":"openstreetmap.org","min_zoom":8.0,"bus_shield_text":"685","landuse_kind":"urban_area","ref":"A7","id":4260309},"arcs":[950]},{"type":"LineString","properties":{"kind":"major_road","sort_rank":381,"kind_detail":"trunk","is_bicycle_related":true,"bus_network":null,"bicycle_shield_text":"71","cycleway":"lane","source":"openstreetmap.org","min_zoom":8.0,"bus_shield_text":"X5","landuse_kind":"national_park","ref":"A66","id":4915731,"bicycle_network":"ncn"},"arcs":[951]},{"type":"MultiLineString","properties":{"source":"openstreetmap.org","kind":"major_road","landuse_kind":"urban_area","sort_rank":380,"kind_detail":"primary","min_zoom":8.0},"arcs":[[952],[953],[954]]},{"type":"LineString","properties":{"kind":"major_road","sort_rank":381,"kind_detail":"trunk","bus_network":null,"source":"openstreetmap.org","min_zoom":8.0,"bus_shield_text":"X5","landuse_kind":"urban_area","id":32504391},"arcs":[955]},{"type":"MultiLineString","properties":{"kind":"minor_road","sort_rank":360,"kind_detail":"residential","is_bicycle_related":true,"bicycle_shield_text":"71","bicycle_network":"ncn","source":"openstreetmap.org","min_zoom":8.0},"arcs":[[956],[957]]},{"type":"MultiLineString","properties":{"kind":"path","sort_rank":354,"landuse_kind":"national_park","is_bicycle_related":true,"bicycle_shield_text":"71","bicycle_network":"ncn","source":"openstreetmap.org","min_zoom":8.0,"kind_detail":"bridleway"},"arcs":[[958],[959]]},{"type":"LineString","properties":{"kind":"major_road","sort_rank":380,"kind_detail":"primary","is_bicycle_related":true,"bicycle_shield_text":"71","bicycle_network":"ncn","source":"openstreetmap.org","min_zoom":8.0,"ref":"A597"},"arcs":[960]},{"type":"LineString","properties":{"source":"openstreetmap.org","kind":"ferry","name":"Green Cruise","sort_rank":355,"landuse_kind":"national_park","min_zoom":8.0},"arcs":[961]},{"type":"MultiLineString","properties":{"kind":"minor_road","sort_rank":358,"landuse_kind":"residential","is_bicycle_related":true,"bicycle_shield_text":"71","bicycle_network":"ncn","source":"openstreetmap.org","min_zoom":8.0,"kind_detail":"service"},"arcs":[[962],[963],[964],[965],[966],[967]]},{"type":"LineString","properties":{"kind":"major_road","sort_rank":379,"kind_detail":"secondary","is_bicycle_related":true,"bicycle_shield_text":"700","bicycle_network":"ncn","source":"openstreetmap.org","min_zoom":8.0,"ref":"B5278"},"arcs":[968]},{"type":"LineString","properties":{"kind":"major_road","sort_rank":379,"kind_detail":"secondary","is_bicycle_related":true,"bicycle_shield_text":"7","bicycle_network":"ncn","source":"openstreetmap.org","min_zoom":8.0,"ref":"B796"},"arcs":[969]},{"type":"MultiLineString","properties":{"kind":"major_road","sort_rank":355,"kind_detail":"trunk_link","is_bicycle_related":true,"bicycle_shield_text":"700","bicycle_network":"ncn","source":"openstreetmap.org","min_zoom":8.0,"is_link":true,"ref":"A590"},"arcs":[[970],[971]]},{"type":"MultiLineString","properties":{"kind":"minor_road","sort_rank":360,"kind_detail":"unclassified","is_bicycle_related":true,"bicycle_shield_text":"71","bicycle_network":"ncn","source":"openstreetmap.org","min_zoom":8.0},"arcs":[[972],[973],[974],[975],[976],[977],[978],[979],[980],[981],[982],[983],[984],[985]]},{"type":"MultiLineString","properties":{"source":"openstreetmap.org","kind":"major_road","sort_rank":380,"kind_detail":"primary","ref":"A595","min_zoom":8.0},"arcs":[[986],[987],[988],[989],[990],[991]]},{"type":"LineString","properties":{"kind":"major_road","sort_rank":380,"landuse_kind":"national_park","source":"openstreetmap.org","min_zoom":8.0,"kind_detail":"primary","ref":"A595","id":15804678},"arcs":[992]},{"type":"LineString","properties":{"kind":"path","sort_rank":354,"kind_detail":"footway","is_bicycle_related":true,"bicycle_shield_text":"70","bicycle_network":"ncn","source":"openstreetmap.org","min_zoom":8.0},"arcs":[993]},{"type":"MultiLineString","properties":{"kind":"path","sort_rank":354,"landuse_kind":"national_park","is_bicycle_related":true,"bicycle_shield_text":"71","bicycle_network":"ncn","source":"openstreetmap.org","min_zoom":8.0,"kind_detail":"track"},"arcs":[[994],[995],[996],[997],[998],[999]]},{"type":"LineString","properties":{"kind":"path","sort_rank":354,"kind_detail":"path","is_bicycle_related":true,"bicycle_shield_text":"72","bicycle_network":"ncn","source":"openstreetmap.org","min_zoom":8.0},"arcs":[1000]},{"type":"MultiLineString","properties":{"source":"openstreetmap.org","kind":"major_road","sort_rank":381,"kind_detail":"trunk","ref":"A66","min_zoom":8.0},"arcs":[[1001],[1002],[1003],[1004],[1005],[1006],[1007],[1008],[1009]]},{"type":"LineString","properties":{"kind":"path","sort_rank":354,"kind_detail":"pedestrian","is_bicycle_related":true,"bicycle_shield_text":"72","bicycle_network":"ncn","source":"openstreetmap.org","min_zoom":8.0,"landuse_kind":"residential","id":54267627},"arcs":[1010]},{"type":"LineString","properties":{"kind":"major_road","sort_rank":377,"kind_detail":"tertiary","is_bicycle_related":true,"bicycle_shield_text":"10","bicycle_network":"ncn","source":"openstreetmap.org","min_zoom":8.0},"arcs":[1011]},{"type":"MultiLineString","properties":{"kind":"path","sort_rank":354,"landuse_kind":"national_park","is_bicycle_related":true,"bicycle_shield_text":"6","bicycle_network":"ncn","source":"openstreetmap.org","min_zoom":8.0,"kind_detail":"bridleway"},"arcs":[[1012],[1013],[1014],[1015],[1016],[1017],[1018],[1019],[1020],[1021]]},{"type":"LineString","properties":{"bus_network":null,"sort_rank":381,"landuse_kind":"national_park","kind":"major_road","source":"openstreetmap.org","min_zoom":8.0,"bus_shield_text":"599","kind_detail":"trunk","ref":"A591"},"arcs":[1022]},{"type":"MultiLineString","properties":{"kind":"path","sort_rank":354,"kind_detail":"cycleway","is_bicycle_related":true,"bicycle_shield_text":"71","bicycle_network":"ncn","source":"openstreetmap.org","min_zoom":8.0},"arcs":[[1023],[1024],[1025],[1026],[1027],[1028],[1029],[1030]]},{"type":"MultiLineString","properties":{"kind":"minor_road","sort_rank":360,"kind_detail":"unclassified","is_bicycle_related":true,"bicycle_shield_text":"72","bicycle_network":"ncn","source":"openstreetmap.org","min_zoom":8.0},"arcs":[[1031],[1032],[1033],[1034],[1035],[1036],[1037],[1038],[1039],[1040],[1041],[1042],[1043],[1044],[1045],[1046],[1047],[1048],[1049],[1050],[1051]]},{"type":"LineString","properties":{"source":"openstreetmap.org","kind":"ferry","name":"Yellow Cruise","sort_rank":355,"landuse_kind":"national_park","min_zoom":8.0,"id":121559774},"arcs":[1052]},{"type":"MultiLineString","properties":{"source":"openstreetmap.org","kind":"major_road","landuse_kind":"urban_area","sort_rank":380,"kind_detail":"primary","ref":"A7","min_zoom":8.0},"arcs":[[1053],[1054],[1055],[1056],[1057],[1058],[1059],[1060],[1061],[1062]]},{"type":"LineString","properties":{"kind":"minor_road","sort_rank":358,"kind_detail":"service","is_bicycle_related":true,"bicycle_shield_text":"72","bicycle_network":"ncn","source":"openstreetmap.org","min_zoom":8.0,"landuse_kind":"residential","id":23372796},"arcs":[1063]},{"type":"LineString","properties":{"kind":"major_road","sort_rank":381,"kind_detail":"trunk","bus_network":null,"source":"openstreetmap.org","min_zoom":8.0,"bus_shield_text":"X5","id":17055096},"arcs":[1064]},{"type":"MultiLineString","properties":{"source":"openstreetmap.org","kind":"major_road","sort_rank":380,"kind_detail":"primary","ref":"A5093","min_zoom":8.0},"arcs":[[1065],[1066]]},{"type":"LineString","properties":{"kind":"path","sort_rank":354,"kind_detail":"steps","is_bicycle_related":true,"bicycle_shield_text":"72","bicycle_network":"ncn","source":"openstreetmap.org","min_zoom":8.0,"id":70125868},"arcs":[1067]},{"type":"MultiLineString","properties":{"bus_network":null,"sort_rank":377,"landuse_kind":"national_park","is_bicycle_related":true,"kind":"major_road","bicycle_shield_text":"6","bicycle_network":"ncn","source":"openstreetmap.org","min_zoom":8.0,"bus_shield_text":"555","kind_detail":"tertiary"},"arcs":[[1068],[1069]]},{"type":"LineString","properties":{"kind":"minor_road","sort_rank":360,"kind_detail":"unclassified","is_bicycle_related":true,"bicycle_shield_text":"7","bicycle_network":"ncn","source":"openstreetmap.org","min_zoom":8.0,"landuse_kind":"urban_area","cycleway":"opposite","id":223872956},"arcs":[1070]},{"type":"LineString","properties":{"kind":"major_road","sort_rank":380,"kind_detail":"primary","is_bicycle_related":true,"cycleway":"lane","source":"openstreetmap.org","min_zoom":8.0,"landuse_kind":"urban_area","ref":"A597"},"arcs":[1071]},{"type":"MultiLineString","properties":{"kind":"major_road","sort_rank":380,"kind_detail":"primary","is_bicycle_related":true,"bicycle_shield_text":"7","bicycle_network":"ncn","source":"openstreetmap.org","min_zoom":8.0,"ref":"A745"},"arcs":[[1072],[1073],[1074]]},{"type":"MultiLineString","properties":{"bus_network":null,"sort_rank":381,"kind_detail":"trunk","kind":"major_road","source":"openstreetmap.org","min_zoom":8.0,"bus_shield_text":"X6","ref":"A595"},"arcs":[[1075],[1076]]},{"type":"LineString","properties":{"kind":"major_road","sort_rank":379,"kind_detail":"secondary","is_bicycle_related":true,"bicycle_shield_text":"7","bicycle_network":"ncn","source":"openstreetmap.org","min_zoom":8.0,"ref":"B736"},"arcs":[1077]},{"type":"LineString","properties":{"kind":"major_road","sort_rank":381,"kind_detail":"trunk","bus_network":null,"source":"openstreetmap.org","min_zoom":8.0,"bus_shield_text":"X5","landuse_kind":"residential","ref":"A596","id":38627420},"arcs":[1078]},{"type":"MultiLineString","properties":{"source":"openstreetmap.org","kind":"major_road","kind_detail":"trunk","sort_rank":381,"landuse_kind":"urban_area","ref":"A66","min_zoom":8.0},"arcs":[[1079],[1080],[1081]]},{"type":"MultiLineString","properties":{"kind":"major_road","sort_rank":377,"kind_detail":"tertiary","is_bicycle_related":true,"bicycle_shield_text":"7","bicycle_network":"ncn","source":"openstreetmap.org","min_zoom":8.0},"arcs":[[1082],[1083],[1084],[1085],[1086],[1087],[1088],[1089],[1090]]},{"type":"LineString","properties":{"kind":"path","sort_rank":354,"landuse_kind":"residential","is_bicycle_related":true,"bicycle_shield_text":"72","bicycle_network":"ncn","source":"openstreetmap.org","min_zoom":8.0,"kind_detail":"cycleway"},"arcs":[1091]},{"type":"MultiLineString","properties":{"bus_network":null,"sort_rank":381,"kind_detail":"trunk","kind":"major_road","source":"openstreetmap.org","min_zoom":8.0,"bus_shield_text":"36","ref":"A66"},"arcs":[[1092],[1093],[1094]]},{"type":"LineString","properties":{"kind":"path","sort_rank":354,"kind_detail":"track","is_bicycle_related":true,"bicycle_shield_text":"70","bicycle_network":"ncn","source":"openstreetmap.org","min_zoom":8.0,"landuse_kind":"national_park","id":49213987},"arcs":[1095]},{"type":"MultiLineString","properties":{"source":"openstreetmap.org","kind":"major_road","kind_detail":"trunk","sort_rank":381,"landuse_kind":"national_park","ref":"A590","min_zoom":8.0},"arcs":[[1096],[1097],[1098],[1099],[1100],[1101],[1102],[1103],[1104],[1105],[1106],[1107],[1108],[1109],[1110],[1111],[1112],[1113],[1114],[1115],[1116],[1117],[1118],[1119],[1120],[1121],[1122]]},{"type":"LineString","properties":{"kind":"minor_road","sort_rank":358,"kind_detail":"service","is_bicycle_related":true,"bicycle_shield_text":"71","bicycle_network":"ncn","source":"openstreetmap.org","min_zoom":8.0,"id":162902914},"arcs":[1123]},{"type":"MultiLineString","properties":{"bus_network":null,"sort_rank":379,"landuse_kind":"national_park","is_bicycle_related":true,"kind":"major_road","bicycle_shield_text":"6","bicycle_network":"ncn","source":"openstreetmap.org","min_zoom":8.0,"bus_shield_text":"505","kind_detail":"secondary","ref":"B5286"},"arcs":[[1124],[1125]]},{"type":"MultiLineString","properties":{"bus_network":null,"sort_rank":381,"kind_detail":"trunk","kind":"major_road","source":"openstreetmap.org","min_zoom":8.0,"bus_shield_text":"36","ref":"A595"},"arcs":[[1126],[1127],[1128]]}]},"earth":{"type":"GeometryCollection","geometries":[{"type":"MultiPolygon","properties":{"sort_rank":10,"source":"naturalearthdata.com","min_zoom":0.0,"kind":"earth","area":57050596074},"arcs":[[[1129]],[[1130]],[[1131]],[[1132]],[[1133]]]}]},"landuse":{"type":"GeometryCollection","geometries":[{"type":"MultiPolygon","properties":{"source":"openstreetmap.org","kind":"residential","tier":2,"area":30837996,"sort_rank":20,"min_zoom":8.0,"osm_relation":true},"arcs":[[[1134],[1135]]]},{"type":"MultiPolygon","properties":{"source":"openstreetmap.org","kind":"nature_reserve","tier":2,"area":33846616,"sort_rank":23,"min_zoom":8.0},"arcs":[[[1136]]]},{"type":"MultiPolygon","properties":{"source":"naturalearthdata.com","kind":"urban_area","name":"","area":609142936,"sort_rank":11,"min_zoom":4.0},"arcs":[[[1137]],[[1138]],[[1139]]]},{"type":"Polygon","properties":{"kind":"residential","name":"Workington","area":10871100,"sort_rank":20,"source":"openstreetmap.org","min_zoom":8.0,"tier":2,"id":30450273},"arcs":[[1140]]},{"type":"Polygon","properties":{"kind":"national_park","area":6991009792,"sort_rank":18,"source":"openstreetmap.org","min_zoom":3.0,"tier":1,"id":-287917,"osm_relation":true},"arcs":[[1141]]},{"type":"MultiPolygon","properties":{"source":"openstreetmap.org","kind":"military","tier":3,"area":46366091,"sort_rank":45,"min_zoom":8.0},"arcs":[[[1142]],[[1143]]]}]}},"type":"Topology","transform":{"translate":[-4.21875,54.1624339681],"scale":[0.0003433228,0.0001990185]},"arcs":[[[537,1591],[-347,360],[-124,14],[-66,-4]],[[498,0],[178,324],[62,327],[-35,291],[-116,272],[-8,191],[-42,186]],[[537,1591],[248,-274],[148,-254],[348,-432],[48,-91],[62,-276],[125,-264]],[[3340,4096],[-5,-46],[-135,23],[-89,-118],[-144,69],[-175,-17],[-106,17],[-67,-25],[-83,-94],[-345,-151],[-217,-451],[-283,-206]],[[1691,3097],[-673,-820],[-537,-425],[-62,-155]],[[419,1697],[366,-380],[148,-254],[348,-432],[48,-91],[62,-276],[125,-264]],[[0,1951],[190,0],[229,-254]],[[4096,2955],[-38,100],[-64,61],[-125,386],[-194,235],[-126,273],[-56,86]],[[3747,3658],[19,-23],[330,3]],[[4096,2955],[-38,100],[-64,61],[-125,386],[-193,234],[-127,274],[-56,86]],[[4096,2955],[-38,100],[-64,61],[-125,386],[-193,234],[-127,274],[-56,86]],[[4096,2955],[-38,100],[-64,61],[-125,386],[-194,235],[-126,273],[-56,86]],[[4096,2955],[-38,100],[-64,61],[-125,386],[-194,235],[-126,273],[-56,86]],[[3654,3781],[-99,215],[-6,14],[-3,5],[-11,17],[-45,64]],[[3706,3698],[-35,46],[-5,11],[-117,255],[-40,59]],[[3703,3701],[-20,25],[-13,19],[-45,99]],[[3680,3730],[-5,6],[-5,9],[-16,33],[-22,32]],[[3706,3698],[25,-30]],[[3751,3652],[-20,16]],[[4096,2955],[-38,100],[-64,61],[-125,386],[-194,235],[-126,273],[-56,86]],[[4096,2955],[-38,100],[-64,61],[-125,386],[-194,235],[-126,273],[-56,86]],[[4096,2955],[-38,100],[-64,61],[-125,386],[-194,235],[-126,273],[-56,86]],[[4096,2955],[-38,100],[-64,61],[-125,386],[-194,235],[-126,273],[-56,86]],[[4096,2955],[-38,100],[-64,61],[-125,386],[-193,234],[-127,274],[-56,86]],[[4096,2955],[-38,100],[-64,61],[-125,386],[-193,234],[-127,274],[-56,86]],[[2962,0],[-12,169],[61,200],[-95,122],[-33,-1]],[[4096,2955],[-38,100],[-64,61],[-125,386],[-193,234],[-127,274],[-56,86]],[[4096,2955],[-38,100],[-64,61],[-125,386],[-194,235],[-126,273],[-56,86]],[[4096,2955],[-38,100],[-64,61],[-125,386],[-193,234],[-127,274],[-56,86]],[[4096,2955],[-38,100],[-64,61],[-125,386],[-194,235],[-126,273],[-56,86]],[[3747,3658],[19,-23],[330,3]],[[4096,2955],[-38,100],[-64,61],[-125,386],[-194,235],[-126,273],[-56,86]],[[4096,2955],[-38,100],[-64,61],[-125,386],[-193,234],[-127,274],[-56,86]],[[1837,1971],[25,89],[-5,92],[47,107],[-14,39],[41,211],[157,235],[65,46],[310,106],[212,208],[308,166],[80,77],[161,36],[184,-11],[104,61],[94,11],[102,79],[51,112]],[[2962,0],[-12,169],[59,206],[-93,116],[-47,-4],[-87,-222],[-62,-41],[-99,44],[-85,92],[-100,135],[-3,3],[-3,6],[-3,9],[-1,4],[-10,66],[-6,19],[-4,23],[-35,233],[-1,5],[1,6],[2,38],[-3,30],[-9,31],[-224,207],[-306,419],[-3,66],[58,109],[-48,199]],[[1856,2047],[-4,-7],[1,-11],[-1,-3],[-1,-4],[-18,-25],[4,-26]],[[1837,1971],[1,-3]],[[1838,1968],[2,-7]],[[2361,967],[7,-17],[3,-22],[2,-21],[-2,-51],[37,-245],[8,-29],[11,-68],[106,-150]],[[3751,3651],[8,-15],[1,-4],[-2,-3]],[[3067,0],[1,2],[3,3],[4,2],[29,14],[5,5],[8,11],[5,5],[47,38],[6,13],[-2,15],[1,5],[1,2],[1,4],[3,3],[3,4],[3,2],[2,1],[2,1],[26,8],[6,2],[71,12],[10,4],[27,25],[5,2],[6,3],[2,1],[8,2],[37,5],[3,0],[7,0],[10,-2],[4,-1],[8,-4],[42,-26],[8,-5],[11,-8],[42,-37],[28,-17],[17,-6],[41,-3],[5,-1],[4,-1],[6,-3],[3,-2],[24,-19],[82,-34],[27,12],[6,12],[5,7],[11,15],[5,26],[3,6],[3,5],[9,10],[3,6],[2,10],[3,5],[8,14],[4,6],[4,3],[3,2],[6,4],[3,1],[16,5],[70,35],[12,6],[7,3],[5,2],[6,1],[8,2],[9,0],[13,-2],[47,-7],[3,0],[5,-2],[2,-1],[5,-4],[6,-5],[3,-4],[18,-33],[5,-9],[3,-7],[16,-49]],[[4096,100],[-51,107],[-92,14],[-100,-47],[-19,-7],[-11,-7],[-42,-89],[-22,-34],[-27,-12],[-182,69],[-163,100],[-91,-41],[-4,-1],[-6,-2],[-67,-11],[-35,-12],[-9,-13],[-1,-7],[1,-10],[0,-5],[-5,-11],[-64,-59],[-6,-3],[-25,-12],[-8,-7]],[[2962,0],[-12,169],[54,184]],[[4096,2955],[-38,100],[-64,61],[-125,386],[-193,234],[-127,274],[-56,86]],[[4096,2955],[-38,100],[-64,61],[-125,386],[-193,234],[-127,274],[-56,86]],[[4096,2955],[-38,100],[-64,61],[-125,386],[-193,234],[-127,274],[-56,86]],[[3679,582],[-102,-77],[-6,-53],[-36,-16]],[[3331,4096],[133,0],[22,-10],[0,-38],[-55,22],[-45,-18],[-44,-29],[-56,-9],[0,-35],[200,0],[-51,-36],[-243,-73],[-58,5],[-109,36],[-23,19],[-16,20],[-22,18],[-36,11],[-184,-55],[-43,-34],[-75,-82],[145,-74],[37,-29],[-119,-65],[-32,-3],[-47,18],[-31,37],[-34,27],[-57,-14],[-68,-83],[-57,-137],[-95,-294],[27,-86],[-25,-95],[-47,-83],[-37,-49],[-31,-22],[-64,-24],[-24,-22],[-20,-44],[-41,-125],[-98,-227],[-78,-393],[-61,-174],[-14,-12],[-31,-36],[-21,-38],[30,-34],[31,-73],[15,-17],[47,-26],[274,-388],[68,-62],[100,-210],[69,-34],[9,-10],[5,-51],[22,-72],[-6,-44],[-12,-41],[-8,-39],[16,-81],[39,-67],[86,-110],[105,-189],[63,-65],[61,27],[46,9],[67,-6],[44,24],[-26,98],[28,126],[24,52],[46,27],[-5,-101],[7,-170],[-25,-147],[-97,-31],[0,-34],[26,-22],[-2852,0],[0,3498],[10,12],[43,27],[-25,-202],[103,-170],[148,-97],[114,20],[-28,79],[10,86],[33,72],[43,37],[1,-24],[40,-18],[6,-51],[-12,-65],[6,-51],[-1,-5],[-8,-17],[-8,-15],[7,-13],[9,-7],[10,-3],[11,-5],[0,-38],[91,-6],[138,18],[229,174],[152,68],[28,24],[-99,99],[40,33],[20,5],[-7,19],[-13,53],[45,43],[34,57],[11,-16],[5,-15],[4,-38],[-14,23],[-14,7],[-33,-61],[15,-32],[18,-21],[22,-3],[26,18],[-10,11],[-3,0],[-7,27],[207,-33],[63,106],[75,12],[272,-27],[49,29],[32,81],[5,81],[-5,109],[-15,99],[-23,54],[13,48],[148,0],[7,-2],[5,2],[486,0],[646,-48],[176,48]],[[3373,0],[12,39],[9,56],[17,65],[9,71],[-13,69],[39,19],[33,-22],[26,-48],[21,-59],[-27,-51],[18,-80],[32,-59],[-176,0]],[[3782,0],[22,73],[24,54],[53,43],[104,58],[87,70],[24,35],[0,-91],[-59,-58],[-63,-25],[10,-47],[42,-86],[13,-26],[-257,0]],[[4039,0],[-13,26],[-42,86],[-10,47],[63,25],[59,58]],[[4096,333],[-24,-35],[-87,-70],[-104,-58],[-53,-43],[-24,-54],[-22,-73]],[[3549,0],[-32,59],[-18,80],[27,51],[-21,59],[-26,48],[-33,22],[-39,-19],[13,-69],[-9,-71],[-17,-65],[-9,-56],[-12,-39]],[[2852,0],[-26,22],[0,34],[97,31],[25,147],[-7,170],[5,101],[-46,-27],[-24,-52],[-28,-126],[26,-98],[-44,-24],[-67,6],[-46,-9],[-61,-27],[-63,65],[-105,189],[-86,110],[-39,67],[-16,81],[8,39],[12,41],[6,44],[-22,72],[-5,51],[-9,10],[-69,34],[-100,210],[-68,62],[-274,388],[-47,26],[-15,17],[-31,73],[-30,34],[21,38],[31,36],[14,12],[61,174],[78,393],[98,227],[41,125],[20,44],[24,22],[64,24],[31,22],[37,49],[47,83],[25,95],[-27,86],[95,294],[57,137],[68,83],[57,14],[34,-27],[31,-37],[47,-18],[32,3],[119,65],[-37,29],[-145,74],[75,82],[43,34],[184,55],[36,-11],[22,-18],[16,-20],[23,-19],[109,-36],[58,-5],[243,73],[51,36],[-200,0],[0,35],[56,9],[44,29],[45,18],[55,-22],[0,38],[-22,10]],[[3331,4096],[-176,-48],[-646,48]],[[2023,4096],[-5,-2],[-7,2]],[[1863,4096],[-13,-48],[23,-54],[15,-99],[5,-109],[-5,-81],[-32,-81],[-49,-29],[-272,27],[-75,-12],[-63,-106],[-207,33],[7,-27],[3,0],[10,-11],[-26,-18],[-22,3],[-18,21],[-15,32],[33,61],[14,-7],[14,-23],[-4,38],[-5,15],[-11,16],[-34,-57],[-45,-43],[13,-53],[7,-19],[-20,-5],[-40,-33],[99,-99],[-28,-24],[-152,-68],[-229,-174],[-138,-18],[-91,6],[0,38],[-11,5],[-10,3],[-9,7],[-7,13],[8,15],[8,17],[1,5],[-6,51],[12,65],[-6,51],[-40,18],[-1,24],[-43,-37],[-33,-72],[-10,-86],[28,-79],[-114,-20],[-148,97],[-103,170],[25,202],[-43,-27],[-10,-12]],[[3705,3864],[8,114],[-34,118]],[[3704,3862],[1,2]],[[3705,3864],[1,-1]],[[3796,1123],[36,301],[-58,47],[10,277],[-36,119],[-50,50],[0,84],[60,54],[175,69],[26,64],[80,67]],[[3727,3690],[5,24]],[[3700,2381],[0,-115],[34,-51]],[[3733,2213],[-11,-86],[32,-75]],[[2913,2617],[87,-87],[2,-141],[137,-138]],[[3138,2249],[1,2]],[[3139,2251],[1,-2]],[[2343,1070],[-10,-83]],[[2333,2056],[14,-101]],[[2335,2059],[91,104]],[[2477,2153],[102,-66]],[[2754,2283],[26,-20]],[[3609,2384],[-30,135]],[[3774,2415],[-7,-3]],[[2416,3548],[-4,-27]],[[2429,3507],[52,-50],[-20,-12]],[[4096,1059]],[[1838,1955],[-4,-6]],[[3087,457],[130,14]],[[3315,482],[5,-2]],[[3330,466],[68,-99]],[[1864,1855],[0,18]],[[3246,0],[92,0]],[[3272,174],[10,-1]],[[3636,37],[60,-4],[4,43]],[[3686,171],[4,5]],[[3718,77],[17,-3]],[[2879,2245],[12,2]],[[2892,2237],[1,3]],[[2915,2416],[14,-27]],[[3164,2215],[1,1]],[[3657,1292],[7,-49],[97,-133],[-9,-73],[20,-29]],[[2343,1070],[-9,39]],[[3097,89],[13,-30]],[[3684,193],[-3,6]],[[3780,111],[11,-4]],[[1925,2428],[-2,1]],[[2280,1942],[-32,2]],[[2333,2056],[2,3]],[[2347,1955],[0,-3]],[[2477,2153],[-51,10]],[[3774,2415],[-4,47],[70,-1],[90,88]],[[3772,1005],[-45,-46]],[[2827,2793],[35,-17],[51,-159]],[[3653,1344],[0,1]],[[3660,1336],[-1,0]],[[1902,2289],[5,-9]],[[1912,2278],[49,-10],[36,-49]],[[1914,2386]],[[1925,2425],[-5,-23]],[[1925,2425],[0,3]],[[1927,2428],[-2,-3]],[[1928,2429]],[[1996,2217],[1,1]],[[3712,3722],[9,-18]],[[3746,3702],[0,2]],[[3296,172],[-2,-2]],[[3294,170],[1,2]],[[3653,1345],[4,12]],[[1994,1647],[1,0]],[[1995,1647],[0,-1]],[[1995,1647],[17,62],[104,118],[-8,72],[28,48],[127,38],[67,164],[2,62],[78,122]],[[2435,2392],[30,69]],[[2449,2571],[0,1]],[[2449,2572],[0,-1]],[[2465,2537],[-16,34]],[[2465,2461],[-1,2]],[[2469,2517],[-4,20]],[[2466,2463],[-1,-2]],[[2475,2500],[-3,-7]],[[3734,2215],[-1,-2]],[[2494,2500],[0,-3]],[[2325,1111],[-62,-22],[-123,81]],[[3700,76],[18,1]],[[3736,74],[44,37]],[[96,3612],[1,4]],[[2516,4084],[21,-3]],[[3605,3424],[-3,2]],[[3607,3369],[-3,28]],[[3607,3364],[-2,-8]],[[3628,3283]],[[3750,964],[10,3]],[[3796,1123],[31,-27]],[[2465,2537]],[[3690,176],[27,-66],[3,35],[25,6],[35,-40]],[[3250,882],[26,-77],[-2,-185],[48,-141]],[[1925,2424],[0,1]],[[1927,2430],[0,-1]],[[2753,245],[-1,1]],[[2756,2878],[-3,2]],[[3657,1357],[1,0]],[[3753,2051],[0,1]],[[3784,1017],[1,-1]],[[2199,1959],[8,0]],[[2465,2537],[11,-5]],[[3617,1311],[21,16]],[[1840,1954],[2,2]],[[2334,1109],[-9,2]],[[2488,2519],[-8,-1]],[[1934,2431],[-6,-2]],[[3403,361],[6,-3]],[[2039,2261],[11,11]],[[2052,2273],[-2,-1]],[[2050,2272],[1,3]],[[2053,2277],[2,0]],[[2055,2277],[-1,-1]],[[2055,2277],[0,1]],[[2052,2274],[-1,2],[3,0],[0,-2],[-2,0]],[[3285,174],[-13,0]],[[3295,172],[0,1]],[[4052,2249],[-103,-194]],[[3598,1305],[17,4]],[[3200,2872],[16,9]],[[3000,5],[-1,1]],[[3001,7],[0,-1]],[[3001,6]],[[3001,6]],[[3003,7],[69,9]],[[3074,17],[168,134]],[[3267,159],[-25,-8]],[[3267,159],[5,0]],[[3276,161],[-4,-2]],[[3280,164],[-4,-3]],[[3281,164],[-1,0]],[[3280,164],[0,1]],[[3282,167],[12,3]],[[3294,170],[-12,-4]],[[3295,172],[5,2]],[[3300,174],[-4,-2]],[[3300,174],[9,10]],[[3310,185],[-1,-1]],[[3309,184],[1,1]],[[3310,186],[0,-1]],[[3310,185]],[[3310,185],[1,0]],[[3311,187],[43,53]],[[3366,273],[-12,-33]],[[3366,273],[22,40]],[[3399,354],[-11,-41]],[[3388,313],[11,41]],[[4096,494]],[[4096,495]],[[3000,7],[1,-1]],[[3001,6]],[[3001,6],[-1,-1],[-1,1]],[[2999,6],[1,1]],[[3074,16],[-1,-1],[-1,1],[1,2],[1,-2]],[[3282,165],[-1,0],[-1,1],[2,1]],[[3282,167],[0,-2]],[[3310,185]],[[3310,185]],[[3310,185],[0,1],[0,-1]],[[3310,185],[1,0],[-1,0]],[[3337,1057],[-8,-17]],[[3638,1327],[2,0]],[[3640,1327],[6,6]],[[3646,1333],[7,11]],[[3764,3692],[8,5]],[[3779,3703],[4,-2]],[[3367,2267],[2,2]],[[3499,2365],[7,2]],[[3708,3837],[-2,5],[-1,12]],[[3707,3854],[1,-17]],[[3708,3837],[3,-16]],[[2416,3548],[34,22],[44,-43]],[[2682,3428],[29,0]],[[3934,2518],[-4,31]],[[4093,496],[3,4]],[[3784,1016],[11,13]],[[3821,1076],[3,5]],[[3823,1092],[1,-11]],[[3823,1090],[1,-9]],[[3295,169],[-1,1]],[[3294,171],[1,-2]],[[3355,0],[-60,169]],[[2754,2881],[29,-67],[44,-21]],[[3775,1005],[9,11]],[[3396,351],[2,6]],[[3631,60],[1,0]],[[617,3749],[-129,-368],[19,-102],[177,-70],[83,6],[67,80],[58,-4],[44,76],[54,12],[50,255],[53,26],[34,108],[-22,71]],[[2410,2333],[25,59]],[[3357,1009],[33,32],[-49,-140],[-9,6],[25,102]],[[429,4096],[33,-84],[-16,-184],[57,-148]],[[478,3613],[22,-105],[22,-11]],[[3576,3689],[-2,-1]],[[3574,3688],[1,2]],[[3574,3688],[3,-75]],[[3576,3693],[3,1]],[[3577,3612],[1,0]],[[3579,3694],[-1,-2]],[[3590,3709],[-11,-15]],[[3592,3710],[-2,-1]],[[3590,3709],[1,1]],[[3591,3710],[1,2],[1,-1]],[[3593,3711],[0,-1],[-2,0]],[[3592,3712],[3,1]],[[3595,3713],[-2,-2]],[[3606,3720],[-11,-7]],[[2640,2296],[1,-2]],[[2478,2517],[-9,0]],[[3660,1344],[2,-48]],[[3665,1283],[117,-116],[14,-44]],[[1955,2430],[-21,1]],[[3212,2219],[-3,-1]],[[3775,1002],[0,3]],[[3783,1011],[-2,1]],[[3782,1013],[1,-2]],[[3783,1011],[-4,-98],[77,-53],[22,-95],[112,-57],[106,-208]],[[3821,1097],[2,-5]],[[3823,1091],[0,-1]],[[4094,493],[-1,3]],[[3971,1096],[0,2]],[[4096,4032],[-177,64]],[[3533,411],[53,0],[34,-80],[55,-18],[10,-61]],[[3907,204],[39,82],[54,17],[-38,86],[110,95]],[[3008,2714],[-1,10]],[[3200,2872],[-50,-25]],[[3007,2724],[-273,-50],[-49,-49],[-106,-8],[-35,-37]],[[3150,2847],[-11,-84],[-37,-35],[-94,-14]],[[3488,2906],[-137,-5],[-34,-56],[-78,-26],[-23,62]],[[3828,1096],[7,-2]],[[3127,2224],[-27,3]],[[3517,1308],[81,-3]],[[2993,2207],[-2,4]],[[3374,2273],[39,31]],[[3230,2222],[-18,-3]],[[3804,330],[61,-46],[60,36]],[[3868,285],[-4,-2]],[[4096,1044]],[[3662,1293],[-17,31]],[[3403,361],[-5,-4]],[[3533,411],[-86,-50]],[[4072,484],[21,12]],[[2001,2416],[-24,-1]],[[0,3545],[27,23],[142,-49]],[[185,3512],[-16,7]],[[185,3512],[45,-15],[190,53],[89,139],[268,168]],[[778,3857],[-1,0]],[[777,3857],[0,1]],[[778,3859],[1,1]],[[779,3860],[0,-1]],[[874,3996],[-67,-54],[-28,-82]],[[875,3997],[-1,-1]],[[874,3996],[1,2]],[[876,3999],[1,0]],[[877,3999],[0,-1]],[[962,4096],[0,-1],[-85,-96]],[[778,3859],[1,-1],[-2,-1],[0,2],[1,0]],[[877,3998],[0,-1],[-2,0],[0,2],[2,-1]],[[3696,3739],[24,-4]],[[3732,3714],[-12,20]],[[3721,3611],[5,5]],[[3731,3641],[1,-5]],[[3732,3652],[1,-4]],[[1842,1933],[-10,8],[7,10]],[[1839,1951],[3,-18]],[[1842,1933],[6,-5]],[[1843,1957],[15,21]],[[1849,1927],[30,-32]],[[1880,1895],[-1,0]],[[1879,1895],[1,0]],[[1880,1895],[1,0]],[[1880,1896],[0,-1]],[[1880,1895]],[[1881,1894],[-1,1]],[[176,3515],[20,-53],[51,12],[71,-82],[123,42],[34,-11]],[[493,3397],[5,-3]],[[3814,1065],[7,11]],[[3732,3636],[-6,-20]],[[3660,1349],[0,-5]],[[4043,1081],[53,-37]],[[3662,1296],[0,-3]],[[3664,1285],[1,-2]],[[3660,1337],[-12,-1]],[[3653,1344],[7,0]],[[3604,3346],[21,-40]],[[3626,3297],[2,-14]],[[3646,3240],[-18,43]],[[2966,85],[27,-64]],[[3684,3662],[16,13]],[[3700,3676],[37,23]],[[3738,3697],[-22,-13],[-16,-9]],[[3700,3675],[-1,0],[1,1],[0,-1]],[[3638,1327]],[[1855,2038],[0,-10]],[[2022,1516],[-11,9]],[[2019,1618],[-6,8]],[[2016,1617],[-1,-2]],[[2044,2625],[1,44]],[[2140,1170],[-5,6]],[[2343,981],[12,-6]],[[3477,1491],[2,3]],[[1749,4096],[54,-49],[19,-92],[-13,-181],[-100,-89],[-119,10],[-93,-67],[-187,-63],[-121,101],[-21,150],[-29,44]],[[854,3929],[1,-1]],[[855,3928],[-1,0]],[[855,3928],[94,-1],[83,-109],[31,9],[16,44],[26,-32]],[[3093,2220],[-1,-5]],[[3165,2216],[2,3]],[[3174,2218],[1,0]],[[3205,2219],[-3,-1]],[[3420,2321],[22,9]],[[835,3902],[-149,194]],[[854,3927],[-2,-2]],[[3720,950],[8,9]],[[3883,3682],[-5,-2]],[[3882,3685],[0,-1]],[[3587,1240],[26,-33]],[[3596,1263],[12,38]],[[3597,1302],[1,3]],[[3835,1094]],[[3835,1094],[136,2]],[[3835,1095],[0,-1]],[[3835,1094],[1,0]],[[3971,1098],[68,-14]],[[3876,3685],[2,0]],[[3461,1451],[13,32]],[[3470,1433],[-9,17]],[[3477,1491],[-2,-8]],[[3621,2985],[-10,10]],[[2253,1299],[21,-26]],[[2328,1124],[-25,71]],[[2383,981],[15,47],[-55,42]],[[1871,1929],[-12,28]],[[1864,1995],[30,76]],[[1891,1849],[-6,28]],[[1891,1847],[0,2]],[[1891,1849],[1,-1]],[[1895,2073],[-1,-2]],[[1894,2071],[0,2]],[[1895,2075],[101,142]],[[1996,2216],[-100,-141]],[[1902,1824],[22,-27]],[[1924,1797],[6,-11]],[[1930,1786],[63,-137]],[[1993,1646],[0,3]],[[1993,1649],[1,-2]],[[1993,1646],[1,1]],[[1995,1646],[-2,0]],[[1995,1644],[-1,1]],[[1994,1647],[1,-1]],[[1995,1646],[0,-2]],[[2011,1625],[-16,19]],[[1998,2218],[23,24]],[[2022,2242],[-24,-25]],[[2011,1624],[0,1]],[[2011,1625],[1,-1]],[[2011,1624],[1,0]],[[2013,1622],[-1,1]],[[2013,1623],[0,-1]],[[2035,1579],[-22,43]],[[2022,2244],[3,1]],[[2034,1574],[-11,-39]],[[2023,1535],[1,-20]],[[2025,2245],[-2,-2]],[[2024,1515],[55,-67]],[[2025,2245],[14,16]],[[2034,1574],[0,2]],[[2034,1578],[1,1]],[[2035,1576],[-1,-2]],[[2035,1579],[1,-2]],[[2055,2278],[120,154]],[[2079,1446],[0,2]],[[2079,1448],[1,-1]],[[2080,1447],[1,-2],[-1,-1],[-2,1],[2,2]],[[2082,1444],[-2,0]],[[2081,1445],[1,-1]],[[2082,1444],[71,-48]],[[2400,2532],[1,2]],[[2401,2534],[45,37]],[[2401,2534],[0,-2]],[[2448,2572],[-2,-1]],[[2446,2571],[1,1]],[[2449,2573],[1,0]],[[2450,2573],[-1,0]],[[2450,2573],[68,60]],[[2661,2807],[93,74],[55,94],[237,209],[342,247]],[[2770,467],[-1,0]],[[2782,483],[-3,-8]],[[2806,536],[-13,-16]],[[2840,549],[-3,-2]],[[2860,577],[-2,-5]],[[2870,607],[-1,-1]],[[2919,538],[10,-66],[56,63],[38,-17]],[[3023,518],[1,-1]],[[3388,3431]],[[3388,3431],[0,1]],[[3390,3432],[1,0]],[[3391,3432],[-1,0]],[[3391,3432],[125,61]],[[3518,3494],[93,77]],[[3612,3572],[-1,-1]],[[3611,3571],[0,1]],[[3390,3431],[-2,0]],[[3388,3431],[0,1],[1,1],[1,-2]],[[3517,3494],[1,0],[0,-2],[-2,1]],[[3516,3493],[1,1]],[[3613,3574],[1,-2],[-2,0],[-1,2],[2,0]],[[1869,1831],[-1,8]],[[1872,1827],[-1,3]],[[3878,3703],[-90,145],[-99,13],[-161,215],[-24,20]],[[3506,4096],[23,-19],[160,-214],[101,-15],[76,-106],[9,-17],[4,-22]],[[3387,2036],[-13,158]],[[2464,2466],[1,1]],[[2472,2493],[-7,-26]],[[2465,2467],[1,-2]],[[2480,2503],[-5,-3]],[[2478,2517],[3,-13]],[[2464,2465],[2,0],[0,-2],[-2,0],[0,2]],[[1901,2297],[1,-8]],[[1906,2334],[8,52]],[[1914,2386]],[[1914,2386],[2,1]],[[1916,2387],[-2,-1]],[[1920,2402],[-4,-15]],[[1941,2436],[-7,-5]],[[1940,2458],[1,0]],[[1941,2458],[-1,-1]],[[1942,2437],[-1,-1]],[[1941,2436],[0,1]],[[1943,2454],[-2,4]],[[1942,2443],[-1,-4]],[[1942,2437],[-1,1],[1,1],[0,-1],[0,-1]],[[3295,173],[-10,1]],[[3949,2055],[-53,29],[-139,-61],[-45,-32],[1,-74]],[[82,3623],[10,-7]],[[108,3622],[6,-5]],[[1033,4093],[1,3]],[[2573,4088],[11,4]],[[2716,4065],[17,25]],[[3525,3945],[15,-10]],[[3541,3935],[4,-4]],[[3696,3739],[-15,-7]],[[3785,3678],[71,6]],[[2813,2248],[-33,15]],[[2893,2240],[-14,5]],[[3746,3664],[-5,5]],[[1955,2430],[6,-7]],[[3826,1096],[1,0]],[[2866,2530],[-29,11]],[[2866,2530],[50,-114]],[[2916,2416],[15,-26]],[[3001,2222],[-3,12]],[[3075,2227],[-60,-17]],[[3249,2232],[118,35]],[[3414,2295],[28,35]],[[3493,2363],[6,2]],[[3506,2367],[103,17]],[[3642,2380],[58,1]],[[3711,2385],[56,24],[147,-18]],[[3933,2397],[-19,-6]],[[3914,2391],[18,6]],[[4066,2430],[-1,0]],[[3734,3711],[3,-6]],[[1105,3839],[48,35],[63,147],[101,75]],[[1954,2402],[5,18]],[[3095,2088],[11,39]],[[3108,2136],[21,29]],[[3137,2169],[26,-103],[-18,-53],[-5,21],[-51,2],[9,140],[41,-5]],[[3127,2224],[11,19]],[[3138,2243],[-1,2]],[[3139,2245],[-1,-2]],[[3230,2820],[-90,-56]],[[3855,3552],[37,-36]],[[3900,3494],[-8,22]],[[3892,3516],[9,-19]],[[3910,3490],[-2,0]],[[3909,3492],[1,-2]],[[3910,3490],[184,-352]],[[4096,3135],[-2,3]],[[4094,3138],[2,-2]],[[3902,3490],[2,8],[2,-1],[-1,-8],[-3,1]],[[3645,526],[2,1]],[[3647,527],[-1,-1]],[[3647,527],[46,35],[82,440]],[[3796,1123],[-12,-107]],[[4039,2255],[57,78]],[[1859,1957],[5,38]],[[1879,1898],[-8,31]],[[1883,1886],[-4,12]],[[1885,1877],[-2,9]],[[1893,1847],[-1,-1]],[[1894,1845],[-2,1]],[[1893,1847],[1,-2]],[[1894,1845],[8,-21]],[[3878,3680],[-2,5]],[[3882,3684],[43,10]],[[3925,3694],[-42,-12]],[[3925,3694],[171,46]],[[3716,3606],[-8,-28]],[[3715,3683],[12,7]],[[3719,3678],[13,-26]],[[3720,3734],[0,1]],[[3733,3648],[-2,-7]],[[1967,2412],[21,-29]],[[1968,2417]],[[2012,1497],[27,-12]],[[3270,170],[-1,-2]],[[3275,234],[-3,-60]],[[3856,3684],[17,-2]],[[3873,3682],[3,2]],[[3876,3681],[-3,1]],[[2975,0],[22,5]],[[2447,2574],[-103,103],[-42,-7],[-194,105]],[[2447,2573],[0,1]],[[2447,2574],[1,-1]],[[3741,3669],[3,7]],[[3753,3677],[-7,-13]],[[2575,2475],[269,-35]],[[2579,2087],[47,69],[14,140]],[[2641,2294],[113,-11]],[[2908,2424],[7,-8]],[[2953,2309],[-24,80]],[[2952,2310],[1,-1]],[[2992,2211],[-39,98]],[[3092,2215],[-13,-47],[-47,3],[-39,36]],[[3100,2227],[-7,-7]],[[3164,2215],[-6,-10]],[[3321,2230],[-109,-11]],[[3369,2269],[-48,-39]],[[3374,2194],[-53,36]],[[3413,2304],[7,17]],[[3493,2363],[71,34],[15,122]],[[3642,2380],[58,1]],[[3664,2142],[17,64]],[[3711,2385],[56,27]],[[3721,2208],[12,5]],[[3933,2397],[-12,-50],[-71,-52],[-47,4],[-69,-84]],[[2481,2504],[-1,-1]],[[3721,3611],[-5,-5]],[[3662,1293],[2,-8]],[[1959,2420],[2,3]],[[3746,3702],[2,-5]],[[3774,3725],[8,3]],[[3172,2218],[2,0]],[[3175,2218],[27,0]],[[3376,2026],[-42,-26],[-6,-77],[56,-89],[24,-106]],[[3597,1302],[11,-1]],[[3601,1422],[32,-68]],[[3633,1354],[5,-27]],[[3636,1196],[2,-13]],[[3703,1125],[0,-2]],[[3714,1018],[6,-68]],[[3775,1002],[-8,-15]],[[3721,3704],[21,3]],[[1895,2075],[1,-1],[-1,-1],[-1,1],[1,1]],[[1997,2218],[1,-1],[-1,-2],[-1,1],[1,2]],[[2021,2243],[1,1],[1,-1],[-1,-1],[-1,1]],[[2034,1576],[0,1],[1,-1],[-1,0]],[[2449,2573],[0,-1],[-1,0],[-1,1],[2,0]],[[3694,3850],[-2,0],[0,3],[2,-1],[0,-2]],[[3703,3856],[0,3],[6,0],[-1,-4],[-5,1]],[[1841,1906],[1,0]],[[3827,1096],[1,0]],[[3703,1123],[11,-105]],[[3638,1327],[-21,-16]],[[3667,1165],[36,-38]],[[3767,987],[-6,-17]],[[3835,1094],[0,1]],[[82,3623],[-38,55],[-28,125],[-16,4]],[[89,3537],[36,65]],[[489,3393],[-1,1]],[[817,3853],[4,-45],[50,-65]],[[870,3961],[163,132]],[[2463,4096],[53,-12]],[[2537,4081],[36,7]],[[2584,4092],[2,4]],[[2708,4096],[8,-31]],[[2733,4090],[4,6]],[[3525,3945],[-8,93],[21,8]],[[3639,3790],[-94,141]],[[3670,4058],[-125,-11]],[[3586,3311],[-26,21],[9,76]],[[3592,3304],[46,-81]],[[3604,3397],[-8,13]],[[3607,3369],[2,-1]],[[3626,3297],[-1,9]],[[3638,3223],[8,17]],[[3795,2884],[-58,19],[-98,186],[-32,8],[31,126]],[[3681,3732],[-32,2],[-6,49]],[[3913,2755],[-50,-10],[-76,28],[-14,81]],[[3782,2851],[46,54],[48,-82]],[[3823,1092],[3,3]],[[3826,1095],[-3,-5]],[[3826,1095],[0,1]],[[3715,1101],[-8,88]],[[1831,1913],[-5,22]],[[3362,990],[-5,19],[14,21],[3,-7],[-12,-33]],[[3362,990],[-22,-56],[-13,-25],[43,49],[-8,32]],[[1864,1883],[-4,9]],[[3540,3935],[1,0]],[[2711,3428],[105,97],[-22,59],[28,47],[133,87]],[[3795,1029],[19,36]],[[475,3423],[18,-26]],[[475,3423],[-132,-196],[-96,35]],[[495,3389],[72,11],[82,66],[222,277]],[[1996,1733],[6,-26]],[[2010,1601],[1,13]],[[2012,1593],[1,-2]],[[2013,1626],[2,11]],[[2070,1323],[1,-37]],[[2088,2774],[3,1]],[[2325,3236],[51,23]],[[2494,3527],[56,-42],[63,13]],[[2955,3718],[-3,25],[-110,40],[-82,-54],[-64,23],[18,98],[220,127],[66,-21],[117,-113],[295,-25],[120,-39],[58,-66]],[[3623,3690],[-29,19]],[[3910,3844],[45,3]],[[4096,3732],[-19,60],[-69,-3],[-55,57]],[[852,3929],[1,1]],[[870,3964],[6,31]],[[876,3995],[-1,2]],[[877,3997],[-1,-2]],[[1842,1906],[-11,7]],[[1860,1892],[-7,4]],[[1868,1839],[-1,9]],[[1871,1830],[-2,1]],[[1872,1827],[14,-17]],[[4029,197],[67,30]],[[3141,2247],[-3,-2],[-1,2],[2,2],[2,-2]],[[3615,1309],[2,2]],[[2160,1393],[93,-94]],[[2503,2527],[-6,-5]],[[2516,2551],[28,29]],[[3621,2985],[-43,-30],[-51,2],[-39,-51]],[[3611,2995],[35,71]],[[3738,4043],[-68,15]],[[3763,4072],[43,-24],[36,48]],[[3616,93],[70,78]],[[3632,60],[4,-23]],[[4059,0],[11,58],[-61,20],[42,73],[-22,46]],[[4096,10],[-21,-10]],[[3158,2205],[47,14]],[[3584,1244],[5,8]],[[3595,1258],[0,4]],[[3761,970],[-1,-3]],[[2050,2682],[-5,-13]],[[4096,2931],[-26,50],[-52,55],[-11,14],[-23,34],[-49,81],[-60,150],[4,93],[28,104],[-23,134],[-6,57]],[[3879,3703],[29,-191],[-32,-198],[60,-149],[134,-184],[26,-48]],[[3780,111],[77,69]],[[2494,2500]],[[1940,2456],[-2,0],[0,2],[2,0],[0,-2]],[[2008,1638],[7,-1]],[[2081,1247],[-16,30]],[[3642,3785],[-1,-1],[-2,1],[2,1],[1,-1]],[[2503,2527],[13,24]],[[3657,1357],[0,1]],[[2280,2542],[-126,-35],[-43,13]],[[1855,2028],[-21,-41]],[[1892,2098],[51,36],[40,77],[-36,69]],[[1947,2486],[-12,28],[83,88]],[[1994,1779],[2,-46]],[[2002,1672],[6,-34]],[[2012,1497],[-6,17]],[[2019,1618],[-3,-1]],[[2021,1533],[7,44]],[[2022,1516],[17,-31]],[[2026,2597],[4,1]],[[2075,1326],[-33,4],[-8,53]],[[2050,2682],[17,44]],[[2071,1286],[-6,-9]],[[2151,2857],[-48,-43]],[[3631,3700],[27,1]],[[3659,3702],[35,29]],[[3795,3732],[25,7]],[[3908,3844],[-51,-23]],[[3590,3713],[4,-2],[0,-2],[-3,0],[-1,4]],[[2481,970],[-1,1]],[[3645,525],[0,1],[1,0],[0,-1],[-1,0]],[[1866,2001],[1,0]],[[1878,1895],[2,2]],[[1904,2316]],[[2573,337],[28,-26]],[[3376,2026],[11,10]],[[3409,1727],[0,-2]],[[3703,1125],[0,2]],[[4039,1084],[5,-2]],[[3329,1040],[0,-2]],[[2045,2669],[-100,-146],[-6,-60]],[[2018,2265],[3,-19]],[[2021,2243],[0,3]],[[2021,2246],[1,-2]],[[3387,3433],[-140,17],[-71,-61],[-339,-160],[-216,-195],[-140,-46],[-373,-213],[-58,-93]],[[3387,3433],[1,0]],[[3388,3432],[-1,1]],[[2479,2521],[-1,3]],[[2495,2504],[-1,-7]],[[2496,2513],[2,0]],[[2497,2519],[1,-6]],[[3751,3683],[34,-5]],[[1839,1951],[0,1]],[[1839,1952],[1,2]],[[1839,1952],[0,-1]],[[1842,1956],[1,1]],[[1848,1928],[1,-1]],[[1858,1978],[6,27]],[[3053,470],[34,-13]],[[3217,471],[16,12]],[[3233,483],[13,4]],[[3246,487],[69,-5]],[[3320,480],[10,-14]],[[3398,367],[5,0]],[[1947,2280],[-11,62]],[[1958,2464],[-11,22]],[[3694,3731],[18,-9]],[[3746,3704],[-4,3]],[[3754,3688],[-6,9]],[[3772,3697],[11,4]],[[3779,3703],[-5,22]],[[3782,3728],[13,4]],[[852,3929],[2,0],[0,-2],[-1,0],[-1,2]],[[1904,2316],[-3,-19]],[[1906,2334],[-2,-18]],[[1907,2280],[5,-2]],[[1928,2429],[-1,-1]],[[1961,2423],[6,82],[32,4]],[[3586,3311],[6,-7]],[[3596,3410],[6,16]],[[3605,3351],[-1,-5]],[[3834,170],[1,-1]],[[3647,523],[3,-7]],[[2281,3166],[13,-142],[-124,-155]],[[2412,3521],[17,-14]],[[2366,973],[-11,2]],[[3158,2205],[-31,19]],[[3205,2219],[4,-1]],[[1977,2415],[-9,2]],[[835,3902],[18,25]],[[3949,2055],[-33,31],[-128,-43],[-64,-63],[-11,-63]],[[4096,2333]],[[1939,2458],[1,2]],[[1939,2463],[1,-3]],[[1940,2456]],[[1940,2460],[0,-2]],[[1940,2456],[38,-18]],[[1978,2437],[-10,-20]],[[1988,2383],[30,-118]],[[1978,2437],[0,1]],[[1978,2438],[0,-1]],[[3828,1096]],[[1608,0],[-1608,1371]],[[3579,3610]],[[3579,3610]],[[3579,3610],[0,-1]],[[3580,3609],[30,-34]],[[3640,3782],[-34,-62]],[[3611,3573],[-1,2]],[[3610,3575],[2,-1]],[[3640,3782],[0,2]],[[3641,3784],[-1,-2]],[[3642,3786],[2,0]],[[3644,3786],[-2,-1]],[[3644,3786],[8,2]],[[3654,3788]],[[3659,3811],[-5,-20]],[[3654,3788],[0,3]],[[3654,3791],[1,-2]],[[3656,3831],[-1,2]],[[3655,3836],[2,1]],[[3656,3833],[0,-2]],[[3657,3817],[-1,14]],[[3657,3837],[-1,-2]],[[3690,3849],[-33,-12]],[[3658,3815],[0,1]],[[3659,3811],[0,2]],[[3659,3813],[0,-2]],[[3692,3850],[-2,-1]],[[3690,3849],[2,1]],[[3693,3853],[10,3]],[[3705,3854],[-11,-3]],[[3707,3863],[3,1]],[[3710,3864],[-1,-2]],[[3852,3823],[-53,34],[-89,7]],[[3853,3821],[-1,2]],[[3852,3823],[1,-1]],[[3854,3822],[2,-1]],[[3856,3821],[-2,0]],[[3854,3821],[-1,-1],[0,1]],[[3853,3821],[1,1],[0,-1]],[[3856,3821],[235,42]],[[4091,3863],[1,1]],[[4093,3863],[-2,0]],[[4092,3864],[1,0],[1,-1],[-1,-1],[-1,2]],[[4095,3863],[-1,0]],[[4094,3864],[1,-1]],[[4096,3863],[-1,0]],[[3576,3693],[2,-1],[-1,-3],[-2,1],[1,3]],[[3579,3612],[0,-2]],[[3579,3610]],[[3579,3610],[-2,-1],[0,3],[2,0]],[[3654,3834],[1,2]],[[3655,3836],[2,-2],[-1,-1],[-2,1]],[[3654,3789],[2,0],[-1,-2],[-1,1]],[[3654,3788],[0,1]],[[3658,3816],[2,-1],[0,-2],[-2,1],[0,2]],[[3501,1454],[7,-28],[70,12]],[[3764,3692],[-10,-4]],[[1864,1873],[0,9]],[[2010,1601],[2,-8]],[[2013,1591],[15,-14]],[[1947,4096],[35,-25],[27,25]],[[3516,1300],[-5,-3]],[[3878,3685],[4,0]],[[3882,3684],[1,-2]],[[3369,2269],[5,4]],[[3442,2330],[51,33]],[[3609,2384],[33,-4]],[[3629,3696],[2,4]],[[92,3616],[5,0]],[[3209,2218],[6,-37],[117,-111]],[[3332,2070],[40,-34]],[[3372,2036],[59,-351]],[[3438,1665],[-7,20]],[[3438,1665],[53,-143]],[[3499,1471],[2,-17]],[[3578,1438],[82,-89]],[[3835,1094],[132,4]],[[3985,1095],[-18,3]],[[3985,1095],[58,-14]],[[3782,2851],[-9,3]],[[2912,583]],[[2913,583],[-1,0]],[[2913,583],[337,299],[79,156]],[[3511,1297],[-50,-21],[-46,-133],[-78,-86]],[[3517,1308],[-1,-8]],[[3644,1332],[1,-1]],[[3645,1321],[-1,3]],[[2837,2541],[-293,-87]],[[2931,2390],[67,-156]],[[3015,2210],[-14,12]],[[3075,2227],[60,21]],[[3137,2246],[-2,2]],[[3135,2248],[2,0]],[[3143,2246],[-3,0]],[[3140,2248],[3,-2]],[[3143,2246],[52,-12]],[[3236,2225],[-41,9]],[[3195,2234],[13,-1],[28,-8]],[[3236,2225],[13,7]],[[3374,2273],[40,22]],[[1834,1987],[8,-29]],[[2007,1513],[-1,1]],[[2026,2597],[-8,5]],[[2044,2625],[-14,-27]],[[2069,2727],[-2,-1]],[[2075,1326],[-5,-3]],[[2170,2869],[-19,-12]],[[3857,3821],[-3,-2]],[[3910,3844],[-2,0]],[[3409,358],[38,3]],[[144,3516],[-55,21]],[[125,3602],[-11,15]],[[488,3394],[5,3]],[[819,3855],[-2,-2]],[[3712,3537],[-107,-113]],[[3639,3790],[4,-7]],[[3670,4058],[-9,38]],[[3708,3578],[4,-34]],[[2175,2442],[2,0]],[[2177,2442],[-1,-1]],[[2177,2442],[140,86],[81,3]],[[2398,2531],[2,1]],[[2400,2531],[-2,0]],[[3932,2397],[73,23],[91,17]],[[4065,2430],[-132,-33]],[[4096,2435],[-30,-5]],[[2400,2532],[1,0],[1,-1],[-1,0],[-1,1]],[[2153,1396],[7,-3]],[[2480,971],[-11,25],[-86,-15]],[[2769,467],[-124,-45],[-72,-85],[-70,99],[-70,314],[54,127],[-6,93]],[[2518,2633],[143,174]],[[2779,475],[-9,-8]],[[2793,520],[-11,-37]],[[2837,547],[-31,-11]],[[2858,572],[-18,-23]],[[2869,606],[-9,-29]],[[2870,607],[36,-13],[13,-56]],[[3023,518]],[[3024,517],[29,-47]],[[3097,89],[31,-21],[89,79],[-1,28],[53,-7]],[[3110,59],[2,-59]],[[3132,3],[-19,-3]],[[3130,0],[2,3]],[[3132,3],[10,-3]],[[3270,185],[-3,-7]],[[3270,170],[-3,4]],[[3275,234],[99,135],[22,-18]],[[3681,199],[4,53]],[[3684,193],[6,-17]],[[3907,204],[-50,-24]],[[3746,3664],[109,-112]],[[4096,500]],[[3745,3669],[-1,2]],[[3700,2381],[11,4]],[[1916,2385],[-2,-1]],[[1915,2387],[1,1]],[[3709,3681]],[[2002,2417],[1,-1],[-1,-1],[-1,1],[1,1]],[[2479,2521],[1,-3]],[[2497,2519],[1,2]],[[2844,2440],[44,16],[20,-32]],[[3681,2206],[40,2]],[[1925,2428],[3,1]],[[3658,1234],[0,-22],[49,-23],[-49,105],[0,-60]],[[1819,1941],[6,-2]],[[1825,1939],[2,-1]],[[1826,1935],[-3,3]],[[1824,1938],[1,1]],[[1825,1939],[1,1]],[[1853,1896],[-12,10]],[[3616,92],[15,-32]],[[108,3622],[-28,-20]],[[3294,171]],[[3296,172],[-1,0]],[[1896,2436],[-27,20]],[[1923,2429],[-18,6]],[[2110,2536],[1,-16]],[[2238,1931],[10,13]],[[2465,2537],[-46,17],[-139,-12]],[[2280,1942],[67,10]],[[2476,2532],[0,-2]],[[2488,2519],[9,3]],[[2496,2512],[0,1]],[[2497,2521],[1,0]],[[2498,2513]],[[2529,2485],[46,-10]],[[3930,2549],[74,112]],[[3933,2397],[1,121]],[[3051,467],[-44,-153],[-15,-184],[-36,2],[10,-47]],[[2993,21],[6,-12]],[[2999,7],[2,0]],[[3613,3574],[1,1]],[[3614,3575],[0,-1]],[[3614,3575],[70,87]],[[3053,470],[-2,-3]],[[3791,107],[44,62]],[[2813,2248],[79,-11]],[[2910,2265],[-19,-18]],[[2912,2253],[40,57]],[[3167,2219],[5,-1]],[[3527,2175],[-101,48],[-52,-33]],[[3664,2142],[-37,35],[-99,-2]],[[2135,1176],[-54,71]],[[2045,2413],[127,28]],[[2172,2441],[2,0]],[[2174,2440],[-2,1]],[[2402,2530],[-2,1]],[[2401,2531],[1,-1]],[[2438,2495],[-36,35]],[[2468,2463],[-2,0]],[[2466,2465],[2,-2]],[[2544,2454],[-76,9]],[[1834,1949],[-5,-8]],[[3738,4043],[25,29]],[[3408,1728],[1,-1]],[[3409,1725],[23,-49]],[[3429,1685],[2,0]],[[3511,1418],[-41,15]],[[3511,1419],[18,18]],[[3531,1422],[-2,15]],[[3532,1421],[69,1]],[[3587,1240],[-3,4]],[[3613,1207],[23,-11]],[[3667,1165],[-29,18]],[[3491,1522],[8,-51]],[[1867,1848],[-3,7]],[[1886,1810],[42,-44],[188,62],[49,29],[-15,33],[49,69]],[[1896,2436],[9,-1]],[[2110,2536],[-62,-32],[-49,5]],[[2207,1959],[31,-28]],[[2478,2524],[-2,6]],[[2479,2521]],[[2494,2500],[35,-15]],[[1840,1954],[-2,1]],[[1842,1956],[0,2]],[[1892,2098],[-37,-60]],[[2052,1425],[-51,-33],[-116,125]],[[2002,1672],[0,35]],[[2011,1525],[-4,-12]],[[2015,1615],[-4,-1]],[[2052,1425],[-18,-42]],[[2038,1482],[14,-57]],[[2065,1277]],[[2069,2727],[4,12]],[[2073,2741],[15,33]],[[2091,2775],[12,39]],[[2281,3166],[44,70]],[[2376,3259],[-22,30],[31,44],[-17,61],[41,4],[9,33],[43,14]],[[2705,3428],[-29,91],[-63,-21]],[[3629,3696],[-6,-6]],[[3817,3735],[38,61]],[[3854,3797],[0,22]],[[2072,2740],[1,1],[0,-1],[0,-1]],[[2073,2739],[-1,1]],[[3772,1008],[-28,-14],[-50,-216],[-14,-196]],[[3711,3821],[23,-110]],[[3737,3705],[0,-1]],[[3738,3700],[-1,4]],[[3737,3704],[2,-3]],[[3751,3683],[-11,14]],[[3741,3697],[10,-14]],[[3744,3676],[7,7]],[[3751,3683],[2,-6]],[[3737,3699],[2,2]],[[3739,3701],[3,-3],[-2,-1],[-3,2]],[[1826,1940],[3,1]],[[2176,2441],[-1,-1],[-1,1],[1,1],[1,-1]],[[2752,246],[-70,-7],[-68,30],[-13,42]],[[2781,480],[-28,-235]],[[3658,3701],[1,1]],[[3828,1096],[-2,-1]],[[4044,1082],[52,-23]],[[3715,3683],[3,-4]],[[1943,2454],[-1,-11]],[[853,3929],[15,24]],[[868,3954],[2,10]],[[868,3953],[0,1],[1,0],[-1,-1]],[[2274,1273],[29,-78]],[[2325,1111],[3,13]],[[835,3902],[-16,-47]],[[1968,2417],[-1,-5]],[[2007,2415],[-4,0]],[[2003,2416],[4,-1]],[[2007,2415],[38,-2]],[[247,3262],[-176,-1],[-25,34],[86,87],[-37,65],[49,69]],[[489,3393],[6,-4]],[[3545,4047],[-7,-1]],[[3596,3411],[-27,-3]],[[3605,3356],[0,-5]],[[3609,3368],[-2,-4]],[[3712,3537],[0,7]],[[3876,2823],[128,-162]],[[4004,2661],[92,-62]],[[1936,2342],[18,60]],[[2462,2466],[-24,29]],[[2463,2464],[-1,2]],[[2462,2466],[2,-1]],[[3409,358],[38,3]],[[3399,354],[1,4],[4,7]],[[3405,365],[-6,-11]],[[3405,367],[4,18]],[[3409,385],[-4,-18]],[[3409,385],[13,41]],[[3422,426],[7,3]],[[3429,429],[108,6]],[[3537,435],[22,3]],[[3559,438],[35,69]],[[3623,529],[-29,-22]],[[3623,529],[20,-3]],[[3643,526],[2,0]],[[3645,525],[-2,1]],[[3646,525]],[[3650,516],[68,-58]],[[3864,283],[-50,33],[-48,67],[-48,75]],[[3718,458],[20,-27],[66,-101]],[[3925,318],[-57,-33]],[[3927,321],[50,78]],[[3977,399],[-48,-80]],[[4060,471],[-83,-72]],[[4096,494],[-36,-23]],[[4060,471],[15,12],[21,12]],[[3404,367],[1,0],[0,-2],[-1,0]],[[3404,365],[0,2]],[[3928,316],[-3,3],[3,2],[1,-2]],[[3929,319],[-1,-3]],[[2496,2512],[-1,-8]],[[3589,1252],[6,6]],[[3595,1262],[1,1]],[[2175,2439],[-1,1]],[[2175,2432],[0,7]],[[2175,2441],[0,-2]],[[4039,0],[-13,26],[-42,86],[-10,47],[63,25],[59,58],[0,-242],[-57,0]],[[4096,4096],[0,-3763],[-24,-35],[-87,-70],[-104,-58],[-53,-43],[-24,-54],[-22,-73],[-233,0],[-32,59],[-18,80],[27,51],[-21,59],[-26,48],[-33,22],[-39,-19],[13,-69],[-9,-71],[-17,-65],[-9,-56],[-12,-39],[-521,0],[-26,22],[0,34],[97,31],[25,147],[-7,170],[5,101],[-46,-27],[-24,-52],[-28,-126],[26,-98],[-44,-24],[-67,6],[-46,-9],[-61,-27],[-63,65],[-105,189],[-86,110],[-39,67],[-16,81],[8,39],[12,41],[6,44],[-22,72],[-5,51],[-9,10],[-69,34],[-100,210],[-68,62],[-274,388],[-47,26],[-15,17],[-31,73],[-30,34],[21,38],[31,36],[14,12],[61,174],[78,393],[98,227],[41,125],[20,44],[24,22],[64,24],[31,22],[37,49],[47,83],[25,95],[-27,86],[95,294],[57,137],[68,83],[57,14],[34,-27],[31,-37],[47,-18],[32,3],[119,65],[-37,29],[-145,74],[75,82],[43,34],[184,55],[36,-11],[22,-18],[16,-20],[23,-19],[109,-36],[58,-5],[243,73],[51,36],[-200,0],[0,35],[56,9],[44,29],[45,18],[55,-22],[0,38],[-22,10],[632,0]],[[2509,4096],[822,0],[-176,-48],[-646,48]],[[2011,4096],[12,0],[-5,-2],[-7,2]],[[0,3498],[0,598],[1863,0],[-13,-48],[23,-54],[15,-99],[5,-109],[-5,-81],[-32,-81],[-49,-29],[-272,27],[-75,-12],[-63,-106],[-207,33],[7,-27],[3,0],[10,-11],[-26,-18],[-22,3],[-18,21],[-15,32],[33,61],[14,-7],[14,-23],[-4,38],[-5,15],[-11,16],[-34,-57],[-45,-43],[13,-53],[7,-19],[-20,-5],[-40,-33],[99,-99],[-28,-24],[-152,-68],[-229,-174],[-138,-18],[-91,6],[0,38],[-11,5],[-10,3],[-9,7],[-7,13],[8,15],[8,17],[1,5],[-6,51],[12,65],[-6,51],[-40,18],[-1,24],[-43,-37],[-33,-72],[-10,-86],[28,-79],[-114,-20],[-148,97],[-103,170],[25,202],[-43,-27],[-10,-12]],[[1800,1886],[10,52],[32,15],[16,56],[0,-44],[10,50],[30,-26],[-33,-26],[36,-17],[-28,-11],[-12,28],[-13,-36],[68,4],[20,-57],[-33,8],[10,-48],[-36,-31],[-26,47],[41,-5],[0,38],[-22,-18],[-32,38],[1,-64],[-23,-6],[-16,53]],[[1819,1919],[6,-21],[6,-1],[-5,22],[-7,0]],[[2833,3514],[72,75],[83,-24],[-1,-37],[-36,-3],[6,-24],[-43,-49],[-60,16],[45,53],[-66,-7]],[[2932,0],[36,90],[33,-90],[-69,0]],[[2057,2257],[-173,35],[87,269],[73,-134],[13,-170]],[[3792,3531],[-117,66],[32,224],[19,4],[14,-60],[110,-66],[19,-46],[-14,-102],[-63,-20]],[[1895,2315],[39,70],[-7,44],[66,-18],[-13,-69],[-44,0],[-27,-70],[-14,43]],[[2106,1789],[95,63],[70,-5],[101,70],[-35,52],[-6,85],[95,109],[51,-10],[20,23],[-33,-13],[-17,25],[-49,5],[57,104],[-45,36],[25,59],[96,15],[7,43],[39,26],[25,50],[-81,74],[20,25],[-23,8],[142,175],[44,-39],[69,29],[24,-49],[35,52],[-9,33],[235,74],[109,-46],[87,42],[-47,82],[154,35],[23,-7],[15,-65],[87,1],[-4,-37],[34,-38],[108,-44],[42,-163],[-39,-71],[130,-112],[17,-70],[125,3],[34,-21],[132,33],[31,-16],[0,-2158],[-161,-101],[-58,101],[-28,-17],[-40,24],[-25,-69],[-89,19],[-26,101],[-75,24],[-30,-34],[-39,26],[-48,-56],[-39,50],[-38,-11],[-2,55],[-80,114],[-232,-25],[-57,16],[-5,45],[-86,58],[-17,-39],[-29,8],[-22,63],[-18,-54],[-55,-22],[-19,-62],[-62,-26],[0,-27],[-131,-120],[-13,-55],[-33,-21],[-225,380],[-3,144],[-42,143],[-97,99],[166,109],[-61,174],[-124,126],[42,54],[41,221],[-85,72],[-2,34],[-43,12]],[[2264,859],[50,39],[46,-35],[-19,-135],[-27,-1],[-50,132]],[[3130,4096],[38,0],[8,-21],[-73,-44],[-102,56],[23,9],[17,0],[2,-2],[87,2]]]}