{"objects":{"water":{"type":"GeometryCollection","geometries":[]},"buildings":{"type":"GeometryCollection","geometries":[]},"places":{"type":"GeometryCollection","geometries":[{"type":"Point","properties":{"name:cy":"Georgia","name:ko":"\uadf8\ub8e8\uc9c0\uc57c","name:cv":"\u0413\u0440\u0443\u0437\u0438","name:cu":"\u0413\u0454\u0461\u0440\u0433\u0456\u0301\ua657","name:kl":"Georgia","name:cs":"Gruzie","name:ki":"Jojia","name:kw":"Pow Grouzi","name:kv":"\u0413\u0440\u0443\u0437\u0438\u044f","name:ku":"Gurcistan","name:ti":"\u1306\u122d\u1302\u12eb","name:ks":"\u062c\u0627\u0631\u062c\u0650\u06cc\u0627","name:to":"S\u014dsia","name:tl":"Heyorhiya","name:ta":"\u0b9a\u0bbf\u0baf\u0bbe\u0bb0\u0bcd\u0b9a\u0bbf\u0baf\u0bbe","name:tg":"\u0413\u0443\u0440\u04b7\u0438\u0441\u0442\u043e\u043d","name:ca":"Ge\u00f2rgia","name:te":"\u0c1c\u0c3e\u0c30\u0c4d\u0c1c\u0c3f\u0c2f\u0c3e","name:hr":"Gruzija","name:da":"Georgien","name:de":"Georgien","name:dz":"\u0f47\u0f7d\u0f62\u0f0b\u0f47\u0f71","source":"openstreetmap.org","name:kn":"\u0c9c\u0cbe\u0cb0\u0ccd\u0c9c\u0cbf\u0caf\u0cbe","name:km":"\u17a0\u17d2\u179f\u1780\u17a0\u17d2\u179f\u17c9\u17b8","name:lv":"Gruzija","name:lt":"Gruzija","name:uz":"Gruziya","name:kk":"\u0413\u04af\u0440\u0436\u0456\u0441\u0442\u0430\u043d","name:ur":"\u062c\u0627\u0631\u062c\u06cc\u0627","name:lb":"Georgien","name:la":"Georgia","name:lg":"Gyogya","name:uk":"\u0413\u0440\u0443\u0437\u0456\u044f","name:ug":"\u06af\u0631\u06c7\u0632\u0649\u064a\u06d5","name:li":"Georgi\u00eb","name:ln":"Zorzi","name:lo":"\u0e88\u0ecd\u0ec0\u0e88\u0e8d","name:el":"\u0393\u03b5\u03c9\u03c1\u03b3\u03af\u03b1","name:eo":"Kartvelujo","name:en":"Georgia","name":"\u10e1\u10d0\u10e5\u10d0\u10e0\u10d7\u10d5\u10d4\u10da\u10dd","name:tk":"Gruzi\u00fda","name:ee":"Georgia","name:th":"\u0e1b\u0e23\u0e30\u0e40\u0e17\u0e28\u0e08\u0e2d\u0e23\u0e4c\u0e40\u0e08\u0e35\u0e22","name:eu":"Georgia","name:et":"Gruusia","name:es":"Georgia","name:ia":"Georgia","name:rm":"Georgia","name:rn":"Jeworujiya","name:az":"G\u00fcrc\u00fcstan","name:ie":"Georgia","name:id":"Georgia","name:ar":"\u062c\u0648\u0631\u062c\u064a\u0627","name:io":"Gruzia","name:av":"\u0413\u0443\u0440\u0436\u0438","name:ak":"Gy\u0254gyea","name:am":"\u1306\u122d\u1302\u12eb","name:it":"Georgia","name:an":"Cheorchia","name:ru":"\u0413\u0440\u0443\u0437\u0438\u044f","name:ab":"\u049a\u044b\u0440\u04ad\u0442\u04d9\u044b\u043b\u0430 \u0410\u04b3\u04d9\u044b\u043d\u04ad\u049b\u0430\u0440\u0440\u0430","name:af":"Georgi\u00eb","name:zu":"i-Georgia","name:ky":"\u0413\u0440\u0443\u0437\u0438\u044f","name:zh-yue":"\u683c\u9b6f\u5409\u4e9e","name:zh":"\u4e54\u6cbb\u4e9a","name:so":"Joorjiya","name:sn":"Georgia","name:sl":"Gruzija","name:sk":"Gruz\u00ednsko","name:ja":"\u30b0\u30eb\u30b8\u30a2","name:si":"\u0da2\u0ddd\u0dbb\u0dca\u0da2\u0dd2\u0dba\u0dcf\u0dc0","name:sh":"Gruzija","name:sg":"Zorz\u00efi","name:se":"Georgia","name:br":"Jorjia","name:bs":"Gruzija","name:bm":"Zey\u0254rzi","name:bn":"\u099c\u09b0\u09cd\u099c\u09bf\u09af\u09bc\u09be","name:bo":"\u0f47\u0f7c\u0f62\u0f0b\u0f47\u0f72\u0f0b\u0f61\u0f0d","name:sw":"Georgia","name:be":"\u0413\u0440\u0443\u0437\u0456\u044f","name:bg":"\u0413\u0440\u0443\u0437\u0438\u044f","name:sr":"\u0413\u0440\u0443\u0437\u0438\u0458\u0430","name:sq":"Gjeorgjia","name:jv":"Georgia","name:pt":"Ge\u00f3rgia","name:ps":"\u062c\u064a\u0648\u0631\u062c\u064a\u0627","name:oc":"Georgia","min_zoom":2.0,"name:ro":"Georgia","name:zh-min-nan":"Sakartvelo","name:os":"\u0413\u0443\u044b\u0440\u0434\u0437\u044b\u0441\u0442\u043e\u043d","name:or":"\u0b1c\u0b30\u0b4d\u0b1c\u0b3f\u0b06","name:pl":"Gruzja","name:tr":"G\u00fcrcistan","name:hi":"\u091c\u094b\u0930\u094d\u091c\u093f\u092f\u093e","name:sv":"Georgien","name:he":"\u05d2\u05d9\u05d0\u05d5\u05e8\u05d2\u05d9\u05d4","name:ha":"Jiwarjiya","name:hy":"\u054e\u0580\u0561\u057d\u057f\u0561\u0576","name:ht":"Jeoji","name:hu":"Gr\u00fazia","name:qu":"Kartulsuyu","population":4630841,"kind":"country","name:is":"Georg\u00eda","name:yo":"Georgia","name:mt":"\u0120eor\u0121ja","alt_name:eo":"Kartvelio","name:ms":"Georgia","name:mr":"\u091c\u0949\u0930\u094d\u091c\u093f\u092f\u093e","name:my":"\u1002\u103b\u1031\u102c\u103a\u1002\u103b\u102e\u101a\u102c","int_name":"Georgia","name:mg":"Zeorzia","name:ml":"\u0d1c\u0d4b\u0d30\u0d4d\u200d\u0d1c\u0d4d\u0d1c\u0d3f\u0d2f","name:vi":"Gruzia","name:mn":"\u0413\u04af\u0440\u0436","id":432424985,"name:mk":"\u0413\u0440\u0443\u0437\u0438\u0458\u0430","name:vo":"Grusiy\u00e4n","name:fa":"\u06af\u0631\u062c\u0633\u062a\u0627\u0646","name:ff":"Jeorgii","name:fi":"Georgia","name:fo":"Georgia","name:fr":"G\u00e9orgie","name:fy":"Georgje","name:nl":"Georgi\u00eb","name:nn":"Georgia","name:no":"Georgia","name:na":"Georgia","name:ne":"\u091c\u094b\u0930\u094d\u091c\u093f\u092f\u093e","name:wo":"Jeoorji","name:ga":"An tSeoirsia","name:gd":"Gruisia","name:gl":"Xeorxia","name:gv":"Yn \u00c7horshey","name:gu":"\u0a9c\u0acd\u0aaf\u0acb\u0ab0\u0acd\u0a9c\u0ac0\u0aaf\u0abe","name:tt":"\u0413\u0440\u0443\u0437\u0438\u044f"},"coordinates":[2681,1375]},{"type":"Point","properties":{"name:ia":"Ossetia del Sud","alt_name:eo":"Sud-Osetio","name:ka":"\u10ea\u10ee\u10d8\u10dc\u10d5\u10d0\u10da\u10d8\u10e1 \u10e0\u10d4\u10d2\u10d8\u10dd\u10dc\u10d8","name:io":"Sud-Osetia","min_zoom":2.0,"name:it":"Ossezia del Sud","name:ru":"\u042e\u0436\u043d\u0430\u044f \u041e\u0441\u0435\u0442\u0438\u044f","name:os":"\u0425\u0443\u0441\u0441\u0430\u0440 \u0418\u0440\u044b\u0441\u0442\u043e\u043d","name:vi":"Nam Ossetia","name:pl":"Osetia Po\u0142udniowa","id":1696850886,"name:ca":"Oss\u00e8tia del Sud","name:vo":"Sul\u00fcda-Loset\u00e4n","name:fa":"\u0627\u0648\u0633\u062a\u06cc\u0627\u06cc \u062c\u0646\u0648\u0628\u06cc","name:fi":"Etel\u00e4-Ossetia","name:de":"S\u00fcdossetien","source":"openstreetmap.org","name:fr":"Oss\u00e9tie du Sud","name:fy":"S\u00fad-Osseesje","name:be":"\u041f\u0430\u045e\u0434\u043d\u0451\u0432\u0430\u044f \u0410\u0441\u0435\u0446\u0456\u044f","name:zh":"\u5357\u5965\u585e\u68af","name:nl":"Zuid-Osseti\u00eb","name:lt":"Piet\u0173 Osetija","name:no":"S\u00f8r-Ossetia","name:he":"\u05d3\u05e8\u05d5\u05dd \u05d0\u05d5\u05e1\u05d8\u05d9\u05d4","kind":"country","name:br":"Osetia ar Su","name:sk":"Ju\u017en\u00e9 Osetsko","name:uk":"\u041f\u0456\u0432\u0434\u0435\u043d\u043d\u0430 \u041e\u0441\u0435\u0442\u0456\u044f","name:sv":"Sydossetien","name:hu":"D\u00e9l-Osz\u00e9tia","name:sr":"\u0408\u0443\u0436\u043d\u0430 \u041e\u0441\u0435\u0442\u0438\u0458\u0430","population":72000,"name:eo":"Sud-Osetujo","name:en":"South Ossetia","name":"\u0425\u0443\u0441\u0441\u0430\u0440 \u0418\u0440\u044b\u0441\u0442\u043e\u043d - \u042e\u0436\u043d\u0430\u044f \u041e\u0441\u0435\u0442\u0438\u044f","name:ku":"Osetyaya Ba\u015f\u00fbr","name:es":"Osetia del Sur"},"coordinates":[2782,2682]},{"type":"Point","properties":{"kind":"region","name:en":"Lori","name":"\u053c\u0578\u057c\u056b","name:lt":"Lorio sritis","kind_detail":"state","min_zoom":4.0,"name:de":"Lori","source":"openstreetmap.org","name:fr":"Lorri","name:uk":"\u041b\u043e\u0440\u0456","name:ru":"\u041b\u043e\u0440\u0438","name:pl":"Prowincja Lori","name:hu":"Lorj","id":1883945002,"name:es":"Lorri"},"coordinates":[3353,54]},{"type":"Point","properties":{"name:pt":"Oss\u00e9tia do Norte-Al\u00e2nia","name:az":"\u015eimali Osetiya","name:ka":"\u10e9\u10e0\u10d3\u10d8\u10da\u10dd\u10d4\u10d7\u10d8 \u10dd\u10e1\u10d4\u10d7\u10d8","name:cv":"\u00c7\u0443\u0440\u00e7\u0115\u0440 \u041e\u0441\u0435\u0442\u0438","name:cs":"Severn\u00ed Osetie-Alanie","name:tt":"\u0422\u04e9\u043d\u044c\u044f\u043a \u041e\u0441\u0435\u0442\u0438\u044f","name:av":"\u0428\u0438\u043c\u0430\u043b\u0438\u044f\u0431 \u0413\u044c\u0438\u0440\u0438\u0441\u0442\u0430\u043d","min_zoom":4.0,"name:it":"Ossezia Settentrionale-Alania","name:be":"\u041f\u0430\u045e\u043d\u043e\u0447\u043d\u0430\u044f \u0410\u0441\u0435\u0446\u0456\u044f","name:os":"\u0426\u00e6\u0433\u0430\u0442 \u0418\u0440\u044b\u0441\u0442\u043e\u043d","name:nl":"Noord-Osseti\u00eb","name:ce":"\u041a\u044a\u0438\u043b\u0431\u0430\u0441\u0435\u0434\u0430 \u0425\u04c0\u0438\u0440\u0438\u0439\u0447\u043e\u044c","name:de":"Nordossetien-Alanien","name:pl":"Osetia P\u00f3\u0142nocna","name:ca":"Oss\u00e8tia del Nord - Al\u00e0nia","name:af":"Noord-Osseti\u00eb-Alani\u00eb","name:bg":"\u0421\u0435\u0432\u0435\u0440\u043d\u0430 \u041e\u0441\u0435\u0442\u0438\u044f","kind_detail":"state","name:da":"Nordossetien\u2013Alania","id":869609085,"source":"openstreetmap.org","name:fr":"Oss\u00e9tie du Nord-Alanie","name:zh":"\u5317\u5965\u585e\u68af-\u963f\u5170\u5171\u548c\u56fd","name:lv":"Zieme\u013cosetija-Al\u0101nija","name:ja":"\u5317\u30aa\u30bb\u30c1\u30a2\u5171\u548c\u56fd","name:hi":"\u0909\u0924\u094d\u0924\u0930 \u0913\u0938\u0947\u0924\u093f\u092f\u093e-\u0906\u0932\u093e\u0928\u093f\u092f\u093e","kind":"region","name:la":"Ossetia Septentrionalis","official_name":"\u0420\u0435\u0441\u043f\u0443\u0431\u043b\u0438\u043a\u0430 \u0421\u0435\u0432\u0435\u0440\u043d\u0430\u044f \u041e\u0441\u0435\u0442\u0438\u044f\u2014\u0410\u043b\u0430\u043d\u0438\u044f","name:uk":"\u041f\u0456\u0432\u043d\u0456\u0447\u043d\u0430 \u041e\u0441\u0435\u0442\u0456\u044f","name:hy":"\u0540\u0575\u0578\u0582\u057d\u056b\u057d\u0561\u0575\u056b\u0576 \u0555\u057d\u056b\u0561","name:sv":"Nordossetien","name:hu":"\u00c9szak-Osz\u00e9tia","name:ba":"\u0422\u04e9\u043d\u044c\u044f\u04a1 \u041e\u0441\u0435\u0442\u0438\u044f \u2014 \u0410\u043b\u0430\u043d\u0438\u044f","name:el":"\u0394\u03b7\u03bc\u03bf\u03ba\u03c1\u03b1\u03c4\u03af\u03b1 \u03c4\u03b7\u03c2 \u0392\u03cc\u03c1\u03b5\u03b9\u03b1\u03c2 \u039f\u03c3\u03b5\u03c4\u03af\u03b1\u03c2 - \u0391\u03bb\u03b1\u03bd\u03af\u03b1\u03c2","name:eo":"Nord-Osetio","name:en":"North Ossetia-Alania","name":"\u0421\u0435\u0432\u0435\u0440\u043d\u0430\u044f \u041e\u0441\u0435\u0442\u0438\u044f","name:ku":"Osetyaya Bakur-Alanya","name:gl":"Osetia do Norte-Alania","name:fi":"Pohjois-Ossetia-Alania","name:et":"P\u00f5hja-Osseetia","name:es":"Osetia del Norte-Alania"},"coordinates":[3024,3945]},{"type":"Point","properties":{"kind":"region","name":"Ardahan","kind_detail":"province","min_zoom":4.0,"source":"openstreetmap.org","name:ku":"Erd\u00eaxan","name:uk":"\u0410\u0440\u0434\u0430\u0445\u0430\u043d","name:ru":"\u0410\u0440\u0434\u0430\u0445\u0430\u043d","id":1827532442},"coordinates":[814,112]},{"type":"Point","properties":{"source":"naturalearthdata.com","kind":"locality","name":"Tbilisi","country_capital":true,"population":1100000,"min_zoom":5.0,"id":6992},"coordinates":[3788,1465]},{"type":"Point","properties":{"source":"naturalearthdata.com","kind":"locality","name":"Vladikavkaz","population":364630,"region_capital":true,"min_zoom":7.0,"id":2830},"coordinates":[3615,4060]}]},"transit":{"type":"GeometryCollection","geometries":[{"type":"LineString","properties":{"kind":"train","name:en":"Borjomi-Bakuriani Railway","network":"local","sort_rank":275,"source":"openstreetmap.org","min_zoom":6.0,"alt_name:en":"Kukushka","operator":"Georgian Railways","name:ru":"\u0423\u0437\u043a\u043e\u043a\u043e\u043b\u0435\u0439\u043d\u0430\u044f \u0436\u0435\u043b\u0435\u0437\u043d\u0430\u044f \u0434\u043e\u0440\u043e\u0433\u0430 \u0411\u043e\u0440\u0436\u043e\u043c\u0438 - \u0411\u0430\u043a\u0443\u0440\u0438\u0430\u043d\u0438","ref":"6467\/6468 Borjomi-Bakuriani","id":-2563692,"osm_relation":true,"name":"\u10d1\u10dd\u10e0\u10ef\u10dd\u10db\u10d8-\u10d1\u10d0\u10d9\u10e3\u10e0\u10d8\u10d0\u10dc\u10d8\u10e1 \u10e1\u10d0\u10e0\u10d9\u10d8\u10dc\u10d8\u10d2\u10d6\u10dd \u10ee\u10d0\u10d6\u10d8"},"arcs":[119]},{"type":"LineString","properties":{"kind":"train","name:en":"Yerevan - Gyumri - Georgia","name":"\u0535\u0580\u0587\u0561\u0576 - \u0533\u0575\u0578\u0582\u0574\u0580\u056b - \u054e\u0580\u0561\u057d\u057f\u0561\u0576","sort_rank":275,"source":"openstreetmap.org","min_zoom":6.0,"id":-3147311,"osm_relation":true},"arcs":[120]},{"type":"LineString","properties":{"source":"openstreetmap.org","kind":"train","osm_relation":true,"sort_rank":275,"ref":"677\/678 \u0412\u043b\u0430\u0434\u0438\u043a\u0430\u0432\u043a\u0430\u0437 \u2014 \u041d\u043e\u0432\u043e\u0440\u043e\u0441\u0441\u0438\u0439\u0441\u043a","min_zoom":6.0,"operator":"\u0420\u0416\u0414"},"arcs":[121]},{"type":"MultiLineString","properties":{"osm_relation":true,"source":"openstreetmap.org","kind":"train","name":"Tbilisi-Telavi","sort_rank":275,"min_zoom":6.0,"operator":"Georgian Railway LLC"},"arcs":[[122],[123]]},{"type":"LineString","properties":{"kind":"train","network":"local","sort_rank":275,"source":"openstreetmap.org","min_zoom":6.0,"operator":"Georgian Railways","ref":"6629\/6630; 6631\/6632; 6633\/6634; 6635\/6636; 6637\/6638; 6639\/6640","id":-2049172,"osm_relation":true,"name":"Khashuri-Surami-Khashuri"},"arcs":[124]},{"type":"MultiLineString","properties":{"source":"openstreetmap.org","kind":"train","name":"Tbilisi-Baku","sort_rank":275,"min_zoom":6.0,"osm_relation":true},"arcs":[[125],[126],[127],[128],[129]]}]},"pois":{"type":"GeometryCollection","geometries":[{"type":"Point","properties":{"kind":"nature_reserve","protect_class":"1","area":1505000000,"source":"openstreetmap.org","min_zoom":7.01,"tier":2,"id":-7412104,"osm_relation":true,"name":"\u041a\u0430\u0431\u0430\u0440\u0434\u0438\u043d\u043e-\u0411\u0430\u043b\u043a\u0430\u0440\u0441\u043a\u0438\u0439 \u0432\u044b\u0441\u043e\u043a\u043e\u0433\u043e\u0440\u043d\u044b\u0439 \u0437\u0430\u043f\u043e\u0432\u0435\u0434\u043d\u0438\u043a"},"coordinates":[1438,4083]},{"type":"Point","properties":{"kind":"nature_reserve","name:en":"Alaniya National Park","protect_class":"2","area":1040450000,"name:de":"Alanija-Nationalpark","source":"openstreetmap.org","min_zoom":7.28,"tier":2,"id":-7412103,"osm_relation":true,"name":"\u041d\u0430\u0446\u0438\u043e\u043d\u0430\u043b\u044c\u043d\u044b\u0439 \u043f\u0430\u0440\u043a \u00ab\u0410\u043b\u0430\u043d\u0438\u044f\u00bb"},"coordinates":[2212,3709]},{"type":"Point","properties":{"kind":"nature_reserve","name:en":"North Ossetia Nature Reserve","protect_class":"1","name:lt":"\u0160iaur\u0117s Osetijos rezervatas","area":478476000,"min_zoom":7.84,"name:de":"Nordossetisches Naturreservat","source":"openstreetmap.org","name:fr":"R\u00e9serve naturelle d'Oss\u00e9tie du Nord","tier":2,"id":-7376988,"osm_relation":true,"name":"\u0421\u0435\u0432\u0435\u0440\u043e-\u041e\u0441\u0435\u0442\u0438\u043d\u0441\u043a\u0438\u0439 \u0437\u0430\u043f\u043e\u0432\u0435\u0434\u043d\u0438\u043a"},"coordinates":[2619,3484]},{"type":"Point","properties":{"kind":"nature_reserve","protect_class":"4","area":528610000,"source":"openstreetmap.org","min_zoom":7.77,"tier":2,"id":-7376987,"osm_relation":true,"name":"\u0426\u0435\u0439\u0441\u043a\u0438\u0439 \u0437\u0430\u043a\u0430\u0437\u043d\u0438\u043a"},"coordinates":[3081,3829]}]},"boundaries":{"type":"GeometryCollection","geometries":[{"type":"MultiLineString","properties":{"source":"naturalearthdata.com","kind":"country","sort_rank":262,"kind_detail":"2","min_zoom":0.0,"id":74},"arcs":[[0],[1]]},{"type":"MultiLineString","properties":{"source":"naturalearthdata.com","kind":"country","sort_rank":262,"kind_detail":"2","min_zoom":0.0,"id":82},"arcs":[[2],[3],[4],[5],[6],[7],[8],[9],[10],[11],[12],[13],[14],[15],[16],[17]]},{"type":"MultiLineString","properties":{"source":"naturalearthdata.com","kind":"country","sort_rank":262,"kind_detail":"2","min_zoom":0.0,"id":72},"arcs":[[18],[19],[20],[21],[22]]},{"type":"MultiLineString","properties":{"source":"naturalearthdata.com","kind":"country","sort_rank":262,"kind_detail":"2","min_zoom":0.0,"id":76},"arcs":[[23],[24],[25],[26],[27],[28],[29],[30],[31],[32],[33]]},{"type":"LineString","properties":{"source":"naturalearthdata.com","kind":"country","sort_rank":262,"kind_detail":"2","min_zoom":0.0,"id":239},"arcs":[34]},{"type":"LineString","properties":{"source":"naturalearthdata.com","kind":"map_unit","sort_rank":258,"kind_detail":"2","min_zoom":5.0,"id":11},"arcs":[35]},{"type":"MultiLineString","properties":{"source":"naturalearthdata.com","kind":"region","name":"Kvemo Kartli - Samtskhe-Javakheti","sort_rank":256,"kind_detail":"4","min_zoom":6.7,"id":7551},"arcs":[[36],[37],[38],[39],[40]]},{"type":"LineString","properties":{"source":"naturalearthdata.com","kind":"region","name":"Guria - Samegrelo-Zemo Svaneti","sort_rank":256,"kind_detail":"4","min_zoom":6.7,"id":7553},"arcs":[41]},{"type":"MultiLineString","properties":{"source":"naturalearthdata.com","kind":"region","name":"Lori - Tavush","sort_rank":256,"kind_detail":"4","min_zoom":7.0,"id":5021},"arcs":[[42],[43],[44]]},{"type":"LineString","properties":{"source":"naturalearthdata.com","kind":"region","name":"Shirak - Lori","sort_rank":256,"kind_detail":"4","min_zoom":7.0,"id":5033},"arcs":[45]},{"type":"LineString","properties":{"source":"naturalearthdata.com","kind":"region","name":"Artvin - Ardahan","sort_rank":256,"kind_detail":"4","min_zoom":6.0,"id":6179},"arcs":[46]},{"type":"MultiLineString","properties":{"source":"naturalearthdata.com","kind":"region","name":"North Ossetia - Kabardin-Balkar","sort_rank":256,"kind_detail":"4","min_zoom":2.0,"id":6534},"arcs":[[47],[48],[49]]},{"type":"MultiLineString","properties":{"source":"naturalearthdata.com","kind":"region","name":"Ingush - North Ossetia","sort_rank":256,"kind_detail":"4","min_zoom":2.0,"id":6540},"arcs":[[50],[51],[52],[53],[54]]},{"type":"LineString","properties":{"source":"naturalearthdata.com","kind":"region","name":"Samegrelo-Zemo Svaneti - Imereti","sort_rank":256,"kind_detail":"4","min_zoom":6.7,"id":7541},"arcs":[55]},{"type":"MultiLineString","properties":{"source":"naturalearthdata.com","kind":"region","name":"Shida Kartli - Mtskheta-Mtianeti","sort_rank":256,"kind_detail":"4","min_zoom":6.7,"id":7534},"arcs":[[56],[57],[58]]},{"type":"MultiLineString","properties":{"source":"naturalearthdata.com","kind":"region","name":"Tbilisi - Mtskheta-Mtianeti","sort_rank":256,"kind_detail":"4","min_zoom":6.7,"id":7535},"arcs":[[59],[60],[61],[62]]},{"type":"MultiLineString","properties":{"source":"naturalearthdata.com","kind":"region","name":"Shida Kartli - Imereti","sort_rank":256,"kind_detail":"4","min_zoom":6.7,"id":7536},"arcs":[[63],[64],[65]]},{"type":"LineString","properties":{"source":"naturalearthdata.com","kind":"region","name":"Racha-Lechkhumi-Kvemo Svaneti - Shida Kartli","sort_rank":256,"kind_detail":"4","min_zoom":6.7,"id":7537},"arcs":[66]},{"type":"MultiLineString","properties":{"source":"naturalearthdata.com","kind":"region","name":"Imereti - Racha-Lechkhumi-Kvemo Svaneti","sort_rank":256,"kind_detail":"4","min_zoom":6.7,"id":7538},"arcs":[[67],[68],[69],[70],[71],[72],[73],[74],[75]]},{"type":"MultiLineString","properties":{"source":"naturalearthdata.com","kind":"region","name":"Samegrelo-Zemo Svaneti - Racha-Lechkhumi-Kvemo Svaneti","sort_rank":256,"kind_detail":"4","min_zoom":6.7,"id":7542},"arcs":[[76],[77],[78],[79],[80],[81],[82]]},{"type":"MultiLineString","properties":{"source":"naturalearthdata.com","kind":"region","name":"Shida Kartli - Samtskhe-Javakheti","sort_rank":256,"kind_detail":"4","min_zoom":6.7,"id":7544},"arcs":[[83],[84],[85],[86]]},{"type":"MultiLineString","properties":{"source":"naturalearthdata.com","kind":"region","name":"Samtskhe-Javakheti - Imereti","sort_rank":256,"kind_detail":"4","min_zoom":6.7,"id":7545},"arcs":[[87],[88],[89],[90],[91],[92]]},{"type":"MultiLineString","properties":{"source":"naturalearthdata.com","kind":"region","name":"Kvemo Kartli - Shida Kartli","sort_rank":256,"kind_detail":"4","min_zoom":6.7,"id":7546},"arcs":[[93],[94],[95],[96],[97],[98]]},{"type":"MultiLineString","properties":{"source":"naturalearthdata.com","kind":"region","name":"Kvemo Kartli - Mtskheta-Mtianeti","sort_rank":256,"kind_detail":"4","min_zoom":6.7,"id":7547},"arcs":[[99],[100]]},{"type":"MultiLineString","properties":{"source":"naturalearthdata.com","kind":"region","name":"Mtskheta-Mtianeti - Kvemo Kartli","sort_rank":256,"kind_detail":"4","min_zoom":6.7,"id":7548},"arcs":[[101],[102]]},{"type":"MultiLineString","properties":{"source":"naturalearthdata.com","kind":"region","name":"Kvemo Kartli - Tbilisi","sort_rank":256,"kind_detail":"4","min_zoom":6.7,"id":7549},"arcs":[[103],[104],[105],[106],[107],[108],[109]]},{"type":"MultiLineString","properties":{"source":"naturalearthdata.com","kind":"region","name":"Imereti - Guria","sort_rank":256,"kind_detail":"4","min_zoom":6.7,"id":7552},"arcs":[[110],[111],[112],[113],[114]]},{"type":"MultiLineString","properties":{"source":"naturalearthdata.com","kind":"region","name":"Guria - Samtskhe-Javakheti","sort_rank":256,"kind_detail":"4","min_zoom":6.7,"id":7554},"arcs":[[115],[116],[117]]},{"type":"LineString","properties":{"source":"naturalearthdata.com","kind":"region","name":"Ardahan - Kars","sort_rank":256,"kind_detail":"4","min_zoom":7.0,"id":8117},"arcs":[118]}]},"roads":{"type":"GeometryCollection","geometries":[{"type":"LineString","properties":{"source":"naturalearthdata.com","kind":"minor_road","kind_detail":"tertiary","sort_rank":355,"landuse_kind":"urban_area","min_zoom":6.0,"id":18325},"arcs":[130]},{"type":"LineString","properties":{"source":"naturalearthdata.com","kind":"minor_road","kind_detail":"tertiary","sort_rank":355,"landuse_kind":"urban_area","min_zoom":7.0,"id":18327},"arcs":[131]},{"type":"LineString","properties":{"source":"naturalearthdata.com","kind":"major_road","kind_detail":"secondary","sort_rank":379,"landuse_kind":"urban_area","min_zoom":4.0,"id":18328},"arcs":[132]},{"type":"LineString","properties":{"source":"naturalearthdata.com","kind":"minor_road","kind_detail":"tertiary","sort_rank":355,"landuse_kind":"urban_area","min_zoom":6.0,"id":18335},"arcs":[133]},{"type":"LineString","properties":{"source":"naturalearthdata.com","kind":"minor_road","kind_detail":"tertiary","sort_rank":355,"landuse_kind":"nature_reserve","min_zoom":6.0,"id":18491},"arcs":[134]},{"type":"LineString","properties":{"source":"naturalearthdata.com","kind":"minor_road","kind_detail":"tertiary","sort_rank":355,"landuse_kind":"nature_reserve","min_zoom":6.0,"id":18491},"arcs":[135]},{"type":"LineString","properties":{"source":"naturalearthdata.com","kind":"minor_road","kind_detail":"tertiary","sort_rank":355,"landuse_kind":"urban_area","min_zoom":6.0,"id":18491},"arcs":[136]},{"type":"MultiLineString","properties":{"source":"naturalearthdata.com","kind":"minor_road","sort_rank":355,"kind_detail":"tertiary","min_zoom":6.0,"id":18491},"arcs":[[137],[138],[139]]},{"type":"LineString","properties":{"source":"naturalearthdata.com","kind":"minor_road","sort_rank":355,"kind_detail":"tertiary","min_zoom":5.0,"id":18498},"arcs":[140]},{"type":"LineString","properties":{"source":"naturalearthdata.com","kind":"minor_road","sort_rank":355,"kind_detail":"tertiary","min_zoom":5.0,"id":18527},"arcs":[141]},{"type":"LineString","properties":{"source":"naturalearthdata.com","kind":"minor_road","sort_rank":355,"kind_detail":"tertiary","min_zoom":5.0,"id":18545},"arcs":[142]},{"type":"LineString","properties":{"source":"naturalearthdata.com","kind":"minor_road","sort_rank":355,"kind_detail":"tertiary","min_zoom":7.0,"id":18562},"arcs":[143]},{"type":"LineString","properties":{"source":"naturalearthdata.com","kind":"minor_road","sort_rank":355,"kind_detail":"tertiary","min_zoom":7.0,"id":18612},"arcs":[144]},{"type":"LineString","properties":{"source":"naturalearthdata.com","kind":"major_road","kind_detail":"secondary","sort_rank":379,"landuse_kind":"urban_area","min_zoom":4.0,"id":18670},"arcs":[145]},{"type":"LineString","properties":{"source":"naturalearthdata.com","kind":"minor_road","kind_detail":"tertiary","sort_rank":355,"landuse_kind":"urban_area","min_zoom":6.0,"id":18671},"arcs":[146]},{"type":"LineString","properties":{"source":"naturalearthdata.com","kind":"minor_road","sort_rank":355,"kind_detail":"tertiary","min_zoom":6.0,"id":18671},"arcs":[147]},{"type":"LineString","properties":{"source":"naturalearthdata.com","kind":"major_road","kind_detail":"secondary","sort_rank":379,"landuse_kind":"urban_area","min_zoom":3.0,"id":18705},"arcs":[148]},{"type":"LineString","properties":{"source":"naturalearthdata.com","kind":"major_road","kind_detail":"secondary","sort_rank":379,"landuse_kind":"urban_area","min_zoom":3.0,"id":18705},"arcs":[149]},{"type":"LineString","properties":{"source":"naturalearthdata.com","kind":"major_road","sort_rank":379,"kind_detail":"secondary","min_zoom":3.0,"id":18705},"arcs":[150]},{"type":"LineString","properties":{"source":"naturalearthdata.com","kind":"major_road","kind_detail":"secondary","sort_rank":379,"landuse_kind":"urban_area","min_zoom":3.0,"id":18707},"arcs":[151]},{"type":"LineString","properties":{"source":"naturalearthdata.com","kind":"major_road","sort_rank":379,"kind_detail":"secondary","min_zoom":3.0,"id":18707},"arcs":[152]},{"type":"LineString","properties":{"source":"naturalearthdata.com","kind":"major_road","sort_rank":379,"kind_detail":"secondary","min_zoom":3.0,"id":18710},"arcs":[153]},{"type":"LineString","properties":{"source":"naturalearthdata.com","kind":"major_road","kind_detail":"secondary","sort_rank":379,"landuse_kind":"urban_area","min_zoom":3.0,"id":18717},"arcs":[154]},{"type":"LineString","properties":{"source":"naturalearthdata.com","kind":"major_road","sort_rank":379,"kind_detail":"secondary","min_zoom":3.0,"id":18717},"arcs":[155]},{"type":"LineString","properties":{"source":"naturalearthdata.com","kind":"minor_road","kind_detail":"tertiary","sort_rank":355,"landuse_kind":"urban_area","min_zoom":7.0,"id":18728},"arcs":[156]},{"type":"LineString","properties":{"source":"naturalearthdata.com","kind":"minor_road","sort_rank":355,"kind_detail":"tertiary","min_zoom":7.0,"id":18728},"arcs":[157]},{"type":"LineString","properties":{"source":"naturalearthdata.com","kind":"major_road","kind_detail":"secondary","sort_rank":379,"landuse_kind":"urban_area","min_zoom":3.0,"id":18729},"arcs":[158]},{"type":"LineString","properties":{"source":"naturalearthdata.com","kind":"major_road","kind_detail":"secondary","sort_rank":379,"landuse_kind":"urban_area","min_zoom":3.0,"id":18729},"arcs":[159]},{"type":"LineString","properties":{"source":"naturalearthdata.com","kind":"major_road","sort_rank":379,"kind_detail":"secondary","min_zoom":3.0,"id":18729},"arcs":[160]},{"type":"LineString","properties":{"source":"naturalearthdata.com","kind":"major_road","sort_rank":379,"kind_detail":"secondary","min_zoom":3.0,"id":18738},"arcs":[161]},{"type":"LineString","properties":{"source":"naturalearthdata.com","kind":"major_road","kind_detail":"secondary","sort_rank":379,"landuse_kind":"urban_area","min_zoom":3.0,"id":18752},"arcs":[162]},{"type":"LineString","properties":{"source":"naturalearthdata.com","kind":"major_road","sort_rank":379,"kind_detail":"secondary","min_zoom":3.0,"id":18752},"arcs":[163]},{"type":"LineString","properties":{"source":"naturalearthdata.com","kind":"major_road","sort_rank":379,"kind_detail":"secondary","min_zoom":3.0,"id":18777},"arcs":[164]},{"type":"LineString","properties":{"source":"naturalearthdata.com","kind":"minor_road","kind_detail":"tertiary","sort_rank":355,"landuse_kind":"urban_area","min_zoom":7.0,"id":18791},"arcs":[165]},{"type":"LineString","properties":{"source":"naturalearthdata.com","kind":"minor_road","sort_rank":355,"kind_detail":"tertiary","min_zoom":7.0,"id":18791},"arcs":[166]},{"type":"LineString","properties":{"source":"naturalearthdata.com","kind":"major_road","kind_detail":"secondary","sort_rank":379,"landuse_kind":"urban_area","min_zoom":3.0,"id":18794},"arcs":[167]},{"type":"LineString","properties":{"source":"naturalearthdata.com","kind":"major_road","sort_rank":379,"kind_detail":"secondary","min_zoom":3.0,"id":18794},"arcs":[168]},{"type":"LineString","properties":{"source":"naturalearthdata.com","kind":"major_road","kind_detail":"secondary","sort_rank":379,"landuse_kind":"urban_area","min_zoom":3.0,"id":18795},"arcs":[169]},{"type":"MultiLineString","properties":{"source":"naturalearthdata.com","kind":"major_road","sort_rank":379,"kind_detail":"secondary","min_zoom":3.0,"id":18795},"arcs":[[170],[171]]},{"type":"LineString","properties":{"source":"naturalearthdata.com","kind":"minor_road","sort_rank":355,"kind_detail":"tertiary","min_zoom":7.0,"id":18808},"arcs":[172]},{"type":"LineString","properties":{"source":"naturalearthdata.com","kind":"major_road","sort_rank":379,"kind_detail":"secondary","min_zoom":3.0,"id":18836},"arcs":[173]},{"type":"LineString","properties":{"source":"naturalearthdata.com","kind":"highway","kind_detail":"motorway","sort_rank":383,"landuse_kind":"urban_area","min_zoom":3.0,"id":18837},"arcs":[174]},{"type":"LineString","properties":{"source":"naturalearthdata.com","kind":"highway","kind_detail":"motorway","sort_rank":383,"landuse_kind":"urban_area","min_zoom":3.0,"id":18837},"arcs":[175]},{"type":"MultiLineString","properties":{"source":"naturalearthdata.com","kind":"highway","sort_rank":383,"kind_detail":"motorway","min_zoom":3.0,"id":18837},"arcs":[[176],[177]]},{"type":"LineString","properties":{"source":"naturalearthdata.com","kind":"highway","kind_detail":"motorway","sort_rank":383,"landuse_kind":"urban_area","min_zoom":3.0,"id":18875},"arcs":[178]},{"type":"LineString","properties":{"source":"naturalearthdata.com","kind":"highway","sort_rank":383,"kind_detail":"motorway","min_zoom":3.0,"id":18875},"arcs":[179]},{"type":"LineString","properties":{"source":"naturalearthdata.com","kind":"major_road","kind_detail":"secondary","sort_rank":379,"landuse_kind":"urban_area","min_zoom":3.0,"id":18886},"arcs":[180]},{"type":"LineString","properties":{"source":"naturalearthdata.com","kind":"minor_road","kind_detail":"tertiary","sort_rank":355,"landuse_kind":"urban_area","min_zoom":7.0,"id":18935},"arcs":[181]},{"type":"LineString","properties":{"source":"naturalearthdata.com","kind":"highway","kind_detail":"motorway","sort_rank":383,"landuse_kind":"urban_area","min_zoom":3.0,"id":18936},"arcs":[182]},{"type":"LineString","properties":{"source":"naturalearthdata.com","kind":"highway","kind_detail":"motorway","sort_rank":383,"landuse_kind":"urban_area","min_zoom":3.0,"id":18956},"arcs":[183]},{"type":"LineString","properties":{"source":"naturalearthdata.com","kind":"major_road","kind_detail":"secondary","sort_rank":379,"landuse_kind":"urban_area","min_zoom":3.0,"id":18957},"arcs":[184]},{"type":"LineString","properties":{"source":"naturalearthdata.com","kind":"major_road","sort_rank":379,"kind_detail":"secondary","min_zoom":3.0,"id":18957},"arcs":[185]},{"type":"LineString","properties":{"source":"naturalearthdata.com","kind":"minor_road","kind_detail":"tertiary","sort_rank":355,"landuse_kind":"urban_area","min_zoom":6.0,"id":18961},"arcs":[186]},{"type":"LineString","properties":{"source":"naturalearthdata.com","kind":"minor_road","sort_rank":355,"kind_detail":"tertiary","min_zoom":6.0,"id":18961},"arcs":[187]},{"type":"LineString","properties":{"source":"naturalearthdata.com","kind":"major_road","kind_detail":"secondary","sort_rank":379,"landuse_kind":"urban_area","min_zoom":3.0,"id":18972},"arcs":[188]},{"type":"LineString","properties":{"source":"naturalearthdata.com","kind":"major_road","sort_rank":379,"kind_detail":"secondary","min_zoom":4.0,"id":18980},"arcs":[189]},{"type":"MultiLineString","properties":{"source":"naturalearthdata.com","kind":"minor_road","kind_detail":"tertiary","sort_rank":355,"landuse_kind":"park","min_zoom":6.0,"id":18995},"arcs":[[190],[191],[192],[193],[194]]},{"type":"MultiLineString","properties":{"source":"naturalearthdata.com","kind":"minor_road","sort_rank":355,"kind_detail":"tertiary","min_zoom":6.0,"id":18995},"arcs":[[195],[196],[197],[198],[199],[200]]},{"type":"LineString","properties":{"source":"naturalearthdata.com","kind":"major_road","sort_rank":379,"kind_detail":"secondary","min_zoom":4.0,"id":18996},"arcs":[201]},{"type":"LineString","properties":{"source":"naturalearthdata.com","kind":"major_road","sort_rank":379,"kind_detail":"secondary","min_zoom":4.0,"id":18999},"arcs":[202]},{"type":"MultiLineString","properties":{"source":"naturalearthdata.com","kind":"minor_road","kind_detail":"tertiary","sort_rank":355,"landuse_kind":"park","min_zoom":6.0,"id":19016},"arcs":[[203],[204],[205]]},{"type":"LineString","properties":{"source":"naturalearthdata.com","kind":"minor_road","kind_detail":"tertiary","sort_rank":355,"landuse_kind":"urban_area","min_zoom":6.0,"id":19016},"arcs":[206]},{"type":"MultiLineString","properties":{"source":"naturalearthdata.com","kind":"minor_road","sort_rank":355,"kind_detail":"tertiary","min_zoom":6.0,"id":19016},"arcs":[[207],[208],[209],[210]]},{"type":"LineString","properties":{"source":"naturalearthdata.com","kind":"major_road","kind_detail":"secondary","sort_rank":379,"landuse_kind":"urban_area","min_zoom":3.0,"id":19046},"arcs":[211]},{"type":"LineString","properties":{"source":"naturalearthdata.com","kind":"major_road","sort_rank":379,"kind_detail":"secondary","min_zoom":3.0,"id":19046},"arcs":[212]},{"type":"LineString","properties":{"source":"naturalearthdata.com","kind":"minor_road","kind_detail":"tertiary","sort_rank":355,"landuse_kind":"urban_area","min_zoom":7.0,"id":19047},"arcs":[213]},{"type":"LineString","properties":{"source":"naturalearthdata.com","kind":"minor_road","sort_rank":355,"kind_detail":"tertiary","min_zoom":7.0,"id":19047},"arcs":[214]},{"type":"LineString","properties":{"source":"naturalearthdata.com","kind":"major_road","sort_rank":379,"kind_detail":"secondary","min_zoom":4.0,"id":19050},"arcs":[215]},{"type":"LineString","properties":{"source":"naturalearthdata.com","kind":"minor_road","sort_rank":355,"kind_detail":"tertiary","min_zoom":7.0,"id":19061},"arcs":[216]},{"type":"LineString","properties":{"source":"naturalearthdata.com","kind":"minor_road","kind_detail":"tertiary","sort_rank":355,"landuse_kind":"urban_area","min_zoom":7.0,"id":19063},"arcs":[217]},{"type":"LineString","properties":{"source":"naturalearthdata.com","kind":"minor_road","sort_rank":355,"kind_detail":"tertiary","min_zoom":7.0,"id":19063},"arcs":[218]},{"type":"LineString","properties":{"source":"naturalearthdata.com","kind":"minor_road","sort_rank":355,"kind_detail":"tertiary","min_zoom":7.0,"id":19152},"arcs":[219]},{"type":"LineString","properties":{"source":"naturalearthdata.com","kind":"minor_road","sort_rank":355,"kind_detail":"tertiary","min_zoom":6.0,"id":19209},"arcs":[220]},{"type":"LineString","properties":{"source":"naturalearthdata.com","kind":"major_road","sort_rank":379,"kind_detail":"secondary","min_zoom":4.0,"id":19210},"arcs":[221]},{"type":"LineString","properties":{"source":"naturalearthdata.com","kind":"minor_road","sort_rank":355,"kind_detail":"tertiary","min_zoom":7.0,"id":19251},"arcs":[222]},{"type":"LineString","properties":{"source":"naturalearthdata.com","kind":"minor_road","sort_rank":355,"kind_detail":"tertiary","min_zoom":7.0,"id":19275},"arcs":[223]},{"type":"LineString","properties":{"source":"naturalearthdata.com","kind":"minor_road","sort_rank":355,"kind_detail":"tertiary","min_zoom":7.0,"id":19279},"arcs":[224]},{"type":"LineString","properties":{"source":"naturalearthdata.com","kind":"minor_road","kind_detail":"tertiary","sort_rank":355,"landuse_kind":"urban_area","min_zoom":7.0,"id":19290},"arcs":[225]},{"type":"LineString","properties":{"source":"naturalearthdata.com","kind":"minor_road","sort_rank":355,"kind_detail":"tertiary","min_zoom":7.0,"id":19290},"arcs":[226]},{"type":"LineString","properties":{"source":"naturalearthdata.com","kind":"minor_road","sort_rank":355,"kind_detail":"tertiary","min_zoom":7.0,"id":19298},"arcs":[227]},{"type":"LineString","properties":{"source":"naturalearthdata.com","kind":"major_road","sort_rank":379,"kind_detail":"secondary","min_zoom":3.0,"id":19313},"arcs":[228]},{"type":"LineString","properties":{"source":"naturalearthdata.com","kind":"minor_road","sort_rank":355,"kind_detail":"tertiary","min_zoom":7.0,"id":19396},"arcs":[229]},{"type":"LineString","properties":{"source":"naturalearthdata.com","kind":"major_road","sort_rank":379,"kind_detail":"secondary","min_zoom":4.0,"id":19397},"arcs":[230]},{"type":"LineString","properties":{"source":"naturalearthdata.com","kind":"minor_road","sort_rank":355,"kind_detail":"tertiary","min_zoom":6.0,"id":19496},"arcs":[231]},{"type":"LineString","properties":{"source":"naturalearthdata.com","kind":"minor_road","sort_rank":355,"kind_detail":"tertiary","min_zoom":7.0,"id":19598},"arcs":[232]}]},"earth":{"type":"GeometryCollection","geometries":[{"type":"MultiPolygon","properties":{"sort_rank":10,"source":"naturalearthdata.com","kind":"earth","min_zoom":0.0,"id":4743},"arcs":[[[233]]]}]},"landuse":{"type":"GeometryCollection","geometries":[{"type":"Polygon","properties":{"kind":"nature_reserve","protect_class":"4","area":106060000,"sort_rank":23,"source":"openstreetmap.org","min_zoom":7.0,"tier":2,"id":-7376992,"osm_relation":true},"arcs":[[234]]},{"type":"Polygon","properties":{"source":"openstreetmap.org","kind":"park","area":115862000,"tier":2,"id":395807314,"min_zoom":7.0,"sort_rank":24},"arcs":[[235]]},{"type":"MultiPolygon","properties":{"kind":"nature_reserve","protect_class":"2","area":4690619645,"sort_rank":23,"source":"openstreetmap.org","min_zoom":4.0,"tier":2,"osm_relation":true},"arcs":[[[236]]]},{"type":"Polygon","properties":{"source":"openstreetmap.org","kind":"park","area":1392300032,"tier":2,"id":43159840,"min_zoom":4.0,"sort_rank":24},"arcs":[[237]]},{"type":"MultiPolygon","properties":{"source":"openstreetmap.org","kind":"park","tier":2,"area":1021168075,"sort_rank":24,"min_zoom":6.0},"arcs":[[[238]]]},{"type":"MultiPolygon","properties":{"source":"naturalearthdata.com","kind":"urban_area","name":"","area":8348151270,"sort_rank":11,"min_zoom":4.0},"arcs":[[[239]],[[240]],[[241]],[[242]],[[243]],[[244]],[[245]],[[246]],[[247]],[[248]]]},{"type":"Polygon","properties":{"kind":"nature_reserve","protect_class":"1","area":1504999936,"sort_rank":23,"source":"openstreetmap.org","min_zoom":4.0,"tier":2,"id":-7412104,"osm_relation":true},"arcs":[[249]]},{"type":"MultiPolygon","properties":{"kind":"nature_reserve","protect_class":"1","area":752440396,"sort_rank":23,"source":"openstreetmap.org","min_zoom":6.0,"tier":2,"osm_relation":true},"arcs":[[[250]],[[251]]]},{"type":"MultiPolygon","properties":{"kind":"nature_reserve","protect_class":"4","area":590034043,"sort_rank":23,"source":"openstreetmap.org","min_zoom":6.0,"tier":2,"osm_relation":true},"arcs":[[[252]],[[253]]]},{"type":"MultiPolygon","properties":{"source":"openstreetmap.org","kind":"park","tier":2,"area":1104029294,"sort_rank":24,"min_zoom":6.0,"osm_relation":true},"arcs":[[[254]],[[255]],[[256]]]}]}},"type":"Topology","transform":{"translate":[42.1875,40.9798980696],"scale":[0.0006866455,0.0005100073]},"arcs":[[[4066,200],[30,-7]],[[4096,93],[-30,10],[-18,24],[-9,30],[5,27],[22,16]],[[3975,553],[56,2],[17,12],[33,30],[15,10]],[[3835,575],[140,-22]],[[3836,444],[38,5],[15,20],[-6,9],[-10,14],[-54,27],[-12,27],[28,29]],[[2918,490],[39,-16],[71,-50],[27,-10]],[[2791,383],[30,6],[29,15],[23,23],[7,20],[1,16],[4,15],[17,12],[16,0]],[[3532,477],[30,-4],[61,-25],[213,-4]],[[3443,387],[21,19],[18,31],[19,26],[31,14]],[[3142,458],[18,-3],[78,-48],[31,-11],[33,-3]],[[3055,414],[34,5],[13,10],[11,12],[12,11],[17,6]],[[3392,445],[8,-15],[5,-20],[8,-15],[30,-8]],[[3302,393],[36,11],[29,33],[9,7],[16,1]],[[2729,400],[62,-17]],[[2246,249],[36,3],[28,12],[68,61],[62,26],[135,3],[32,8],[1,0],[33,9],[59,26],[29,3]],[[2008,283],[238,-34]],[[1854,244],[14,4],[79,32],[61,3]],[[1825,248],[14,-3],[15,-1]],[[2552,3083],[-28,13],[-18,15],[-33,25],[-59,15],[-71,6],[-66,17],[-41,51],[4,58],[41,40],[51,36],[34,48],[-17,57],[-26,13],[-39,19],[-135,33],[-27,17],[-61,71],[-24,22],[-100,48],[-55,14],[-136,38],[-280,78],[-28,15],[-28,16],[-156,146],[-72,50],[-14,20],[4,32]],[[4096,3376],[-141,101],[-64,12]],[[3891,3489],[-37,-49],[-9,-32],[-42,-91],[-24,-108],[-13,-13]],[[3766,3196],[-18,18],[-36,115],[-17,26],[-43,46],[-23,18],[-54,31],[-5,1],[-55,18],[-62,8]],[[3453,3477],[-73,-6],[-42,-11],[-114,-61],[-59,-19],[-129,-3],[-34,-40],[-27,-55],[-28,-28],[-20,-20],[-17,-5],[-51,-16],[-139,-6],[-64,-30],[-19,-21],[-36,-50],[-22,-19],[-27,-4]],[[690,1193],[203,-18],[28,-13],[-11,-19],[-5,-19],[-3,-20],[-6,-17],[-12,-15],[-29,-24],[-12,-20],[38,-22],[27,-31],[28,-9]],[[365,884],[19,1],[17,1],[31,20],[43,67],[32,34],[14,32],[14,79],[15,33],[29,23],[2,1],[7,2],[28,10],[74,6]],[[0,986],[3,-2],[35,-3]],[[991,1020],[10,-13],[9,-24],[12,-22],[11,-7],[43,-14],[9,-9],[5,-9],[7,-7],[13,-6],[12,-13],[43,-83],[21,-23],[107,-74],[71,-63],[45,-22],[42,-5],[2,-10],[-19,-29],[-22,-19],[-79,-41],[40,-13]],[[936,966],[35,42],[20,12]],[[109,985],[256,-101]],[[38,981],[71,4]],[[1405,518],[29,-3],[29,-34],[35,-88],[21,-15]],[[1373,514],[32,4]],[[1696,419],[45,-13],[40,-23],[40,-37],[20,-47],[-16,-51]],[[1519,378],[134,38],[43,3]],[[1825,248],[-6,-45],[12,-63],[23,-56],[28,-27],[62,-9],[63,-32],[19,-16]],[[581,1175],[-14,41],[-43,70],[-34,40],[-38,35],[-15,25],[-9,28],[3,37],[17,26],[1,68],[-14,41],[-7,19],[-37,4],[-18,10],[-56,57],[-32,8],[-40,-12],[-78,-50],[-79,-12],[-26,-5],[-43,11],[-19,11]],[[2474,1479],[-72,-77],[-87,-3]],[[2315,1399],[-64,10]],[[2251,1409],[-33,-61],[-10,-196],[-15,-48],[-20,-17],[-10,-31],[51,-10]],[[2348,1067],[69,-4],[38,-41],[27,-57],[13,-12],[6,-27],[5,-42],[0,-43],[11,-45],[31,-20],[15,-37],[6,-42],[-21,-87],[10,-86],[19,-28],[15,-32],[16,-101],[0,-1]],[[2214,1046],[64,3],[70,18]],[[60,2191],[-60,30]],[[3880,81],[13,1],[16,7],[94,74],[4,13],[-3,15],[-17,27],[-15,12],[-15,8],[-12,3],[-11,11],[-7,19],[-6,41],[2,27],[4,14],[6,5],[21,12],[20,16],[7,7],[4,10],[1,9],[-3,12],[-15,16],[-50,34],[-35,4]],[[3830,104],[10,-1],[10,-5],[19,-13],[11,-4]],[[3775,0],[-6,7],[-6,9],[-1,11],[3,12],[47,55],[9,7],[9,3]],[[2730,0],[12,9],[6,6],[4,9],[2,14],[-2,8],[-3,7],[-4,3],[-26,17],[-11,12],[-13,15],[-27,44],[-9,12],[-7,6],[-34,14],[-10,5],[-13,12],[-4,9],[-1,11],[17,146],[0,3]],[[186,0],[38,78],[128,142],[121,62],[39,132],[-42,137],[-26,69],[-13,22],[-17,48],[-9,82],[-21,113]],[[2174,4096],[-34,-34],[-82,-121],[-18,-36],[-4,-10],[-28,-54],[-8,-7],[-11,-4]],[[1989,3830],[-18,2],[-13,3],[-95,45],[-12,2]],[[1851,3882],[-31,-18],[-65,-99],[-9,-26]],[[3975,4096],[5,-8],[3,-7],[4,-9],[3,-10],[2,-11],[0,-17],[-2,-23],[-6,-41],[0,-22],[1,-16],[5,-8],[19,-33],[4,-10],[2,-10],[0,-14],[-2,-16],[-9,-36],[-6,-13],[-8,-10],[-39,-20],[-22,-28],[-48,-94]],[[3767,3644],[-14,1],[-16,6],[-73,57],[-28,11],[-81,12]],[[3555,3731],[-5,-137],[-2,-11],[-13,-29],[1,-27],[33,-59],[1,-16],[0,-1]],[[3881,3640],[-83,8]],[[3798,3648],[-31,-4]],[[60,2191],[58,6],[30,61],[-2,103],[15,82],[27,32],[17,51],[63,104],[102,118],[20,46],[1,57],[14,31],[22,20],[23,67],[44,45],[73,5],[27,7],[28,2]],[[3069,1995],[-7,50],[-41,22],[-6,33],[12,35],[1,3],[3,101],[23,96],[17,16],[19,12],[13,24],[10,26],[30,23],[25,34],[-12,62],[-25,52],[6,61],[-4,59],[-20,27],[-19,20],[-7,30],[-3,31],[-10,20],[-16,10],[22,70],[47,58],[-23,32],[-25,22],[-49,86],[-69,19],[-29,41],[-19,52],[-3,7]],[[3337,1506],[0,50],[28,34],[-4,75],[40,40],[54,2],[19,56],[-39,61],[-48,57],[-11,70],[-13,42],[-5,20],[-50,27],[-105,24],[-50,2]],[[3153,2066],[-42,-32],[-23,-21],[-19,-18]],[[3939,1549],[-89,47],[-38,3]],[[3812,1599],[-22,-41],[-41,-26]],[[3749,1532],[-42,1]],[[3707,1533],[-30,-67],[-28,-12],[-18,-31]],[[2039,2774],[51,-31],[57,-9]],[[2276,2773],[33,-40],[-18,-63],[-1,-64],[-111,-30],[-69,-49],[-30,-21],[-5,-24],[-7,-35],[9,-62],[-8,-51],[-7,-8],[-10,-11],[-23,-19],[-20,-56],[-26,-51],[-47,-36],[-41,-40],[-6,-83],[-22,-70],[-52,-47],[-11,-76]],[[2147,2734],[42,10],[40,22],[47,7]],[[2039,2774],[119,95],[202,16],[28,14],[32,57],[77,55],[9,99],[0,1]],[[647,2854],[-1,42],[-11,37],[-1,50],[-12,45]],[[1256,2666],[-69,39],[-31,6],[-37,29],[-18,61],[-74,69],[-80,51]],[[947,2921],[-37,-1],[-32,-32]],[[878,2888],[-38,3],[-37,15]],[[803,2906],[-156,-52]],[[1766,2808],[-155,16]],[[1611,2824],[-138,-72],[-51,-51],[-62,-26],[-104,-9]],[[2039,2774],[-31,11],[-94,35]],[[1914,2820],[-148,-12]],[[1279,3612],[26,41],[4,61],[32,30],[50,69],[47,19]],[[443,3740],[37,-1],[36,-17],[207,-50],[85,-3]],[[622,3028],[-111,219],[39,82],[-66,67],[-164,92],[-80,69],[36,68],[47,25],[54,4],[17,5],[16,12],[15,36],[18,33]],[[884,3710],[158,-70]],[[808,3669],[39,17],[18,15],[19,9]],[[1148,3654],[90,-35],[41,-7]],[[1042,3640],[106,14]],[[1845,1839],[94,-23],[52,-24],[13,-27],[8,-32],[20,-17],[14,-22],[50,-43],[45,-8],[21,-52],[47,-18],[50,-29]],[[1804,1837],[41,2]],[[2413,1554],[61,-75]],[[2259,1544],[55,8],[99,2]],[[1804,1837],[-435,-179]],[[763,1620],[-90,54]],[[1369,1658],[-25,4],[-24,9]],[[1320,1671],[-150,-14],[-62,-26]],[[1108,1631],[-66,1],[-125,27]],[[917,1659],[-154,-39]],[[3212,1452],[-33,13],[-24,29],[-26,13]],[[3129,1507],[-88,-43],[-70,-13]],[[3337,1506],[-23,-52],[-102,-2]],[[2811,1446],[-337,33]],[[2971,1451],[-69,17]],[[2902,1468],[-46,-7],[-45,-15]],[[3555,1384],[-69,62],[-68,49],[-81,11]],[[3631,1423],[-76,-39]],[[4047,1695],[49,-12]],[[3939,1549],[34,42],[18,55],[24,36],[32,13]],[[3939,1549],[-43,-41],[-3,-34],[28,-26],[10,-34],[7,-35],[22,-20],[25,-12],[34,-9]],[[3682,1361],[-20,27],[-5,28],[-26,7]],[[4096,1393],[0,-1]],[[4096,1325],[-28,-42],[-55,-18]],[[4019,1338],[34,9],[19,27],[24,19]],[[4013,1265],[-56,3],[-42,22],[-35,8],[-36,3],[-119,62]],[[3725,1363],[-43,-2]],[[60,2191],[-33,-52],[35,-52],[73,-12],[26,-8]],[[230,2103],[52,-12],[28,-47],[19,-57],[42,-25],[52,-16],[37,-28],[41,-20],[27,-17],[30,-14]],[[161,2067],[24,7],[45,29]],[[604,1870],[44,-12],[22,-85],[3,-99]],[[558,1867],[46,3]],[[566,1595],[24,20],[13,35],[33,23],[37,1]],[[501,1613],[32,-12],[33,-6]],[[428,1605],[73,8]],[[1282,0],[64,28],[238,103],[146,85],[95,32]],[[1776,1700],[-16,-20],[33,-55],[62,5],[31,-26],[-52,6],[35,-42],[-8,-45],[88,-5]],[[3948,454],[1,-38],[-67,-31],[-28,-45],[-77,-10],[-129,-110],[-55,16],[-52,-31],[27,-154],[24,-22],[-19,-29]],[[3622,4096],[3,-3],[21,-62]],[[3804,1454],[35,-54],[52,-17]],[[3891,1383],[205,21]],[[2059,1998],[-62,44]],[[3804,1454],[35,-54],[52,-17]],[[3891,1383],[20,-7],[3,-1],[6,-3],[6,-3]],[[3906,1378],[50,-26]],[[3956,1352],[70,-58]],[[3956,1352],[52,-28],[88,-116]],[[2974,4017],[6,48],[5,31]],[[3641,4096],[-25,-47],[-24,-32]],[[3574,4096],[18,-55],[0,-24]],[[3592,4017],[-18,-24]],[[2604,3416],[9,35],[0,56],[6,33],[8,8]],[[2856,3695],[10,6],[5,24]],[[2969,4007],[5,10]],[[2589,3362],[15,54]],[[2627,3548],[34,40],[18,49],[18,24],[30,0],[61,16],[54,8],[14,10]],[[2871,3725],[13,57],[18,25],[12,80],[24,57],[31,63]],[[2361,3386],[12,-57],[30,-16],[84,0],[72,25],[30,24]],[[1808,3143],[42,57],[25,16],[54,0],[36,16],[36,73],[30,65],[48,16],[60,-8],[36,-16],[30,-24],[36,0],[18,8],[60,56],[30,-8],[12,-8]],[[974,3119],[24,-16],[6,-32],[30,0],[36,16],[42,-8],[30,24],[24,8],[66,-24],[72,-33],[60,-8],[84,0],[72,25],[78,40],[54,0],[54,16],[72,0],[30,16]],[[1808,3143],[79,-32],[102,-105],[36,-16],[54,0],[24,8],[24,32],[24,8],[30,-8],[42,-48],[42,-33],[30,-32]],[[2295,2917],[12,-16],[72,-33],[-6,-56],[60,-41],[24,-32],[24,-32]],[[739,2505],[30,8]],[[739,2505],[24,40],[12,24],[0,33],[-18,16],[-13,2]],[[744,2620],[-35,6],[0,24],[42,24],[12,33],[-6,24],[-24,32],[0,33],[30,24],[36,16],[18,16],[0,57],[30,24],[30,49],[6,32],[-12,16],[24,41],[12,24],[18,24],[49,0]],[[235,2310],[11,4]],[[683,2482],[56,23]],[[246,2314],[97,29],[72,24],[84,49],[78,40],[48,16],[54,8],[4,2]],[[235,2310],[-3,0]],[[232,2310],[-15,0]],[[217,2310],[-24,-8],[-48,17],[-54,24],[-61,40],[-30,53]],[[3609,3915],[1,13],[-36,65]],[[3755,2270],[-12,8],[-18,16],[-36,0],[-37,16],[-36,41],[-18,32],[-12,41],[12,81],[12,80],[-6,73],[12,33],[0,64],[-30,33],[-48,40],[-90,32],[-78,17],[-18,32],[-24,57],[-24,40],[0,32],[42,33],[30,40],[30,16],[18,33],[24,8],[42,40],[12,8],[54,41],[24,40],[-12,41],[0,48],[-18,24],[0,25],[6,64],[-18,33],[18,48],[18,89],[-18,24],[-6,57],[12,65],[42,64],[5,36]],[[1245,2223],[-1,-1]],[[2295,2917],[-42,0],[-12,-8],[6,-32],[-30,-33],[-24,-48],[0,-33],[12,-24],[-12,-16],[-60,-8],[-84,-24],[-48,-25],[-42,-16],[-18,0],[-145,24],[-60,0],[-102,-48],[-132,-105],[-18,-16],[-24,-41],[-36,0],[-30,-40],[-18,-65],[-42,-65],[-30,-8],[-24,-32],[-35,-31]],[[1183,2255],[13,-9],[48,-24]],[[769,2513],[23,-19]],[[792,2494],[7,-6],[24,-40],[30,-32],[54,-25],[97,-32],[90,-40],[89,-64]],[[3731,2197],[30,41],[-6,32]],[[1244,2222],[0,-1]],[[1244,2221],[60,-56],[42,-24],[30,0],[36,8]],[[1412,2149],[0,48],[18,16],[30,0],[36,-16],[114,33],[12,0],[42,-41],[66,-8],[84,8],[36,-8],[19,-24],[18,-65],[48,-32]],[[2798,2031],[14,-36]],[[2481,2707],[30,-41],[12,-48],[30,-41],[24,-48],[18,-57],[54,-81],[90,-72],[12,-17],[19,-97],[0,-89],[12,-40],[16,-45]],[[2778,1989],[34,6]],[[2067,1979],[42,8],[96,32],[48,17],[84,32],[48,16],[72,24],[66,-40],[96,-49],[145,-32],[14,2]],[[2002,2023],[35,-20],[7,-6]],[[1935,2060],[67,-37]],[[2044,1997],[23,-18]],[[1935,2060],[-91,-33],[-30,-24],[-12,-32],[-36,-8],[-42,16],[-42,-8],[-60,-41],[-36,8],[-36,25],[-48,40],[-48,49],[-36,81],[-6,16]],[[3671,1785],[12,65],[30,88],[6,33],[0,48],[-12,81],[0,41],[24,56]],[[3502,1800],[-6,1],[-36,-8],[-4,2]],[[2825,2005],[-13,-10]],[[3456,1795],[-32,14],[-36,41],[-66,48],[-60,57],[-36,24],[-30,8],[-78,24],[-78,25],[-42,16],[-96,-8],[-36,-8],[-41,-31]],[[3671,1785],[-37,-8],[-60,8],[-72,15]],[[3701,1715],[6,-43],[24,-8]],[[3671,1785],[24,-24],[6,-46]],[[3731,1664],[42,0],[42,-9],[24,-16]],[[3839,1639],[-30,-32],[-12,-32],[-24,-81],[-12,-25]],[[3731,1664],[0,-25],[30,-24],[-12,-97],[12,-49]],[[3833,1389],[-72,80]],[[3839,1639],[52,-39]],[[3891,1600],[2,-1],[30,-16],[102,-25],[71,-40]],[[3833,1389],[84,-17],[48,0],[66,17],[37,0]],[[4068,1389],[28,0]],[[3893,1324],[-24,24],[-36,41]],[[968,1316],[-43,0]],[[1423,1515],[1,3],[48,40],[42,25],[90,16],[36,16],[39,53]],[[1691,1678],[33,26],[30,16],[18,16],[6,13]],[[1787,1772],[9,21],[7,3]],[[1848,1832],[5,20]],[[1860,1870],[21,28],[27,12]],[[1148,1275],[42,33],[66,40],[24,65],[24,16],[42,0],[36,8],[41,78]],[[1679,1668],[3,4],[9,6]],[[1778,1749],[9,23]],[[1803,1796],[41,21],[4,15]],[[1853,1852],[3,14],[4,4]],[[1908,1910],[27,12],[42,8],[54,25],[36,24]],[[1148,1275],[-108,33],[-72,8]],[[451,1267],[36,8],[42,0],[42,8],[36,49],[36,16],[42,0],[36,24],[30,0],[42,-24],[96,-16],[36,-16]],[[3113,1353],[5,3],[12,0]],[[3174,1357],[8,8]],[[3184,1366],[2,2]],[[3766,1344],[13,12],[54,33]],[[2757,1211],[61,16],[30,48],[18,16],[72,9],[36,16],[84,8],[24,8],[31,21]],[[3130,1356],[6,0],[30,-8],[8,9]],[[3182,1365],[2,1]],[[3186,1368],[4,4],[42,0],[30,17],[96,0],[18,-9],[24,-32],[66,-32],[12,0],[72,24],[60,0],[67,-32],[36,0],[24,8],[29,28]],[[4096,1156],[-44,-40]],[[4052,1116],[-3,-2]],[[3893,1324],[48,-16],[36,-41],[21,-44]],[[3998,1223],[51,-109]],[[0,1275],[30,0],[55,0],[48,-16],[36,32],[30,41],[24,8],[36,-16],[12,-33],[24,-16],[30,0],[36,16],[24,-8],[30,41],[30,-16],[6,-41]],[[781,1041],[66,24],[54,97],[48,49],[31,64],[-12,41]],[[3881,1311],[12,13]],[[3797,1033],[-24,24],[0,65],[6,81],[24,40],[48,32],[30,36]],[[781,1041],[-12,-49],[-18,-24],[18,-16],[30,-89],[24,-32],[24,-17],[30,-32],[36,-24],[36,-49]],[[2031,539],[12,17],[36,24],[24,8],[78,0],[42,0],[72,16],[-12,73],[0,40],[60,73],[54,49],[24,40],[0,49],[6,24],[24,32],[12,33],[0,40],[18,32],[0,57],[12,8],[60,32],[36,0],[108,8],[60,17]],[[1148,1275],[72,-16],[24,-8],[48,-16],[24,0],[30,0],[36,0],[42,-16],[60,-25],[54,0],[24,-16],[24,-40],[48,-8],[6,-25],[-12,-64],[0,-24],[42,-25],[126,-24],[36,-16],[31,-57],[24,-89],[6,-56],[6,-33],[24,-32],[36,-32],[42,-49],[30,-65]],[[193,523],[-84,16],[-48,33],[-25,16],[-30,0],[-6,-3]],[[685,313],[-48,32],[-24,25],[-60,8],[-42,24],[-36,57],[-18,16],[-54,8],[-30,40],[-42,-24],[-60,8],[-24,16],[-54,0]],[[949,709],[0,-40],[-6,-81],[31,-49],[-18,-24],[0,-16],[30,-97],[18,-41],[6,-32],[-18,-32]],[[3747,974],[44,18]],[[3046,273],[-12,48],[6,40],[24,33],[30,16],[18,24],[0,16],[-42,41],[-12,16],[6,24],[30,33],[12,64],[42,73],[48,49],[12,40],[18,16],[30,57],[54,48],[24,17],[78,-17],[42,0],[24,-16],[66,8],[18,-8],[42,0],[12,8],[18,41],[18,8],[61,8],[34,14]],[[919,273],[-24,8],[-60,-33],[-30,0],[-54,8]],[[4049,1114],[6,-17],[-36,-8],[-6,-24],[24,-40],[12,-33],[42,-73],[5,-11]],[[2514,0],[21,6],[18,40],[54,0],[96,65],[36,16],[67,8],[-6,24],[24,25],[54,24],[42,24],[54,16],[72,25]],[[2031,539],[24,-8],[60,-56],[42,-25],[60,-32],[54,-40],[48,-57],[36,-24],[24,-33],[12,-40],[6,-49],[36,-64],[48,-41],[18,-40],[6,-30]],[[3304,0],[-6,6],[-72,40],[-42,41],[-54,88],[-36,33],[-18,32],[-30,33]],[[992,297],[96,-8],[90,0],[36,-8],[24,0],[42,16],[42,0],[60,-33],[24,-32],[24,-16],[36,8],[42,32],[36,8],[24,-8],[54,-40],[48,-32],[12,-17],[-12,-48],[-36,-73],[-5,-46]],[[4096,4096],[0,-4096],[-4096,0],[0,4096],[4096,0]],[[3686,3588],[87,101],[107,-48],[10,-29],[70,1],[31,-25],[-65,-35],[-47,42],[-35,-16],[-18,33],[-57,-63],[-83,39]],[[3712,1754],[13,32],[1,-14],[27,14],[13,-12],[8,1],[-15,-15],[-1,-3],[2,-1],[-1,-2],[0,-1],[2,-3],[2,-2],[-5,-1],[1,-1],[4,2],[-4,12],[19,12],[-4,19],[33,-23],[81,17],[89,-44],[-93,-71],[-142,37],[-30,47]],[[1764,3759],[64,142],[204,-55],[125,67],[84,-42],[73,60],[119,-179],[85,-31],[-31,-120],[-69,-21],[-101,-94],[-117,44],[-22,44],[-52,-12],[-54,32],[-1,43],[-70,63],[-57,-3],[-64,48],[-116,14]],[[827,1627],[68,66],[107,-36],[59,19],[41,-38],[58,46],[111,-2],[-24,136],[50,14],[18,78],[86,63],[25,-21],[44,22],[13,-43],[171,-59],[73,68],[38,-14],[18,-43],[-3,64],[85,39],[-3,-45],[38,-11],[14,-33],[-76,-38],[36,-17],[-71,-28],[1,-40],[-78,-11],[54,-15],[0,-40],[-79,-36],[-27,16],[11,-42],[-80,-79],[-66,5],[-17,-34],[-82,-42],[-72,80],[-111,-48],[-109,52],[-107,-25],[-90,-89],[-71,96],[-7,52],[-46,13]],[[1861,1320],[41,50],[215,122],[125,-42],[-34,-243],[-81,-55],[-130,107],[120,99],[-46,1],[-119,-84],[-91,45]],[[3840,939],[-95,36],[21,38],[36,6],[56,-44],[-18,-36]],[[3920,1486],[3,-31],[39,21],[107,-65],[-1,-37],[-48,-50],[76,-105],[0,-141],[-44,28],[-3,96],[-61,25],[-39,64],[-188,55],[-66,70],[-15,-27],[-32,22],[45,75],[-25,57],[28,64],[0,109],[195,-44],[0,-109],[29,-77]],[[3478,1724],[-24,79],[48,0],[-3,-59],[-21,-20]],[[2810,1943],[-68,100],[10,17],[71,-45],[16,-59],[-29,-13]],[[2028,1983],[-31,16],[10,52],[55,35],[33,-43],[-67,-60]],[[1270,2261],[-40,-62],[-56,37],[20,41],[76,-16]],[[250,2304],[-90,32],[-7,34],[71,-3],[26,-63]],[[703,2631],[0,-22],[81,22],[18,-87],[-18,-87],[-74,3],[-97,77],[-23,72],[44,-13],[69,35]],[[2944,4096],[73,0],[0,-93],[-91,8],[-29,27],[5,58],[14,0],[4,-5],[24,5]],[[3519,4096],[278,0],[-68,-115],[-33,0],[-55,-67],[-42,2],[-65,44],[-15,43],[-82,0],[0,93],[48,0],[34,-27],[0,27]],[[1674,4096],[-8,-23],[74,23],[27,0],[45,-14],[-34,-114],[23,-20],[8,85],[43,63],[3,0],[22,-24],[-21,-69],[143,18],[-11,-87],[39,37],[15,-18],[-1,43],[33,-53],[-58,-94],[-57,4],[-48,37],[-136,9],[-56,51],[35,16],[-104,28],[11,28],[-28,7],[-28,-87],[15,-19],[13,28],[41,-77],[40,-13],[-73,-1],[-5,-27],[32,-24],[136,22],[-40,-72],[-93,-14],[-25,49],[-25,-15],[-166,60],[-20,49],[-42,13],[-45,60],[-91,38],[-49,97],[466,0]],[[2317,3486],[101,94],[79,35],[45,-43],[-65,-27],[19,-13],[69,38],[81,-29],[19,40],[40,-5],[12,-35],[41,17],[8,-37],[44,44],[56,-5],[27,-41],[38,38],[14,-15],[-26,-64],[37,-13],[-29,-17],[31,-8],[-60,0],[-41,-44],[34,-11],[2,-33],[-27,1],[-63,34],[12,38],[-43,19],[-57,7],[-100,-41],[-77,42],[-109,-39],[-68,3],[-44,70]],[[3880,3641],[25,48],[-16,43],[28,1],[4,61],[34,43],[141,-44],[0,-274],[-136,94],[-70,-1],[-10,29]],[[2853,3688],[38,77],[39,-18],[-5,20],[41,23],[-12,18],[46,31],[-17,23],[63,-27],[73,-1],[5,3],[8,-1],[8,5],[14,-1],[3,3],[-94,23],[-31,-18],[-16,15],[26,2],[-4,39],[-76,4],[15,96],[41,41],[50,15],[173,-36],[-62,-135],[-5,-110],[-78,-62],[-25,-91],[-72,-28],[-40,33],[-73,9],[8,14],[-6,19],[-35,15]],[[3986,3920],[110,42],[0,-169],[-109,31],[39,35],[-11,60],[-29,1]],[[2942,1461],[15,34],[24,-18],[19,25],[101,24],[3,-37],[-12,16],[-22,12],[3,-12],[54,-45],[-15,84],[41,17],[-2,-42],[30,5],[14,-31],[-30,-51],[21,-14],[-43,-25],[31,-18],[29,-40],[-46,19],[30,1],[-15,5],[-36,3],[-7,-20],[-19,-3],[13,11],[-32,22],[-103,7],[32,33],[37,-13],[22,8],[-35,22],[9,34],[-24,-38],[-37,14],[-7,-42],[-43,53]],[[3884,1663],[87,61],[8,18],[28,-16],[-40,36],[129,-5],[0,-87],[-151,4],[-13,-31],[-48,20]],[[4096,1764],[-118,13],[-28,22],[9,28],[41,50],[61,-5],[10,-29],[25,4],[0,-83]]]}