{"objects":{"water":{"type":"GeometryCollection","geometries":[{"type":"Polygon","properties":{"kind":"lake","name":"Lake Van","area":5756577792,"sort_rank":200,"alkaline":true,"source":"naturalearthdata.com","min_zoom":0.0,"id":1313},"arcs":[[128]]},{"type":"MultiPolygon","properties":{"source":"naturalearthdata.com","kind":"lake","name":"Lake Sevana","area":2376054784,"sort_rank":200,"min_zoom":0.0,"id":590},"arcs":[[[129]],[[130]]]},{"type":"MultiLineString","properties":{"source":"naturalearthdata.com","kind":"lake","sort_rank":367,"boundary":true,"min_zoom":0.0,"id":590},"arcs":[[131],[132]]},{"type":"LineString","properties":{"source":"naturalearthdata.com","kind":"lake","sort_rank":367,"alkaline":true,"boundary":true,"min_zoom":0.0,"id":1313},"arcs":[133]}]},"buildings":{"type":"GeometryCollection","geometries":[]},"places":{"type":"GeometryCollection","geometries":[{"type":"Point","properties":{"name:kg":"Armenia","name:ka":"\u10e1\u10dd\u10db\u10ee\u10d4\u10d7\u10d8","name:ko":"\uc544\ub974\uba54\ub2c8\uc544","name:cv":"\u042d\u0440\u043c\u0435\u043d\u0438","name:cu":"\u0410\u0440\u043c\u0454\u043d\u0457\ua657","name:kl":"Armenia","name:cs":"Arm\u00e9nie","name:ki":"Armenia","name:co":"Armenia","name:kv":"\u0410\u0440\u043c\u0435\u043d\u0438\u044f","name:ku":"Ermenistan","name:ti":"\u12a0\u122d\u121c\u1292\u12eb","name:ks":"\u0627\u064e\u0631\u0645\u0627\u0646\u0650\u06cc\u0627","name:to":"\u02bb\u0100minia","name:tl":"Armenya","name:ce":"\u0410\u0440\u0435\u043c\u0430\u043b\u043e\u0439\u043d","name:ta":"\u0b86\u0bb0\u0bcd\u0bae\u0bc7\u0ba9\u0bbf\u0baf\u0bbe","name:tg":"\u0410\u0440\u043c\u0430\u043d\u0438\u0441\u0442\u043e\u043d","name:ca":"Arm\u00e8nia","name:te":"\u0c06\u0c30\u0c4d\u0c2e\u0c47\u0c28\u0c3f\u0c2f\u0c3e","name:cy":"Armenia","name:hr":"Armenija","name:da":"Armenien","name:de":"Armenien","name:dz":"\u0f68\u0f62\u0f0b\u0f58\u0f72\u0f0b\u0f53\u0f72\u0f0b\u0f61","source":"openstreetmap.org","name:kn":"\u0c85\u0cb0\u0ccd\u0cae\u0cc7\u0ca8\u0cbf\u0caf\u0cbe","name:dv":"\u0787\u07a6\u0783\u07aa\u0789\u07a9\u0782\u07a8\u0787\u07a7","name:km":"\u17a2\u17b6\u179a\u1798\u17c1\u1793\u17b8","name:lv":"Arm\u0113nija","name:lt":"Arm\u0117nija","name:uz":"Armaniston","name:kk":"\u0410\u0440\u043c\u0435\u043d\u0438\u044f","name:ur":"\u0622\u0631\u0645\u06cc\u0646\u06cc\u0627","name:lb":"Armenien","name:la":"Armenia","name:lg":"Arameniya","name:uk":"\u0412\u0456\u0440\u043c\u0435\u043d\u0456\u044f","name:ug":"\u0626\u06d5\u0631\u0645\u06d0\u0646\u0649\u064a\u06d5","name:li":"Armeni\u00eb","name:ln":"Am\u025bni","name:lo":"\u0ead\u0eb2\u0ea1\u0eb4\u0ec0\u0e99\u0e8d","name:el":"\u0391\u03c1\u03bc\u03b5\u03bd\u03af\u03b1","name:eo":"Armenujo","name:en":"Armenia","name":"\u0540\u0561\u0575\u0561\u057d\u057f\u0561\u0576","name:tk":"Ermenistan","name:ee":"Armenia nutome","name:th":"\u0e1b\u0e23\u0e30\u0e40\u0e17\u0e28\u0e2d\u0e32\u0e23\u0e4c\u0e40\u0e21\u0e40\u0e19\u0e35\u0e22","name:eu":"Armenia","name:et":"Armeenia","name:es":"Armenia","name:ia":"Armenia","name:rm":"Armenia","name:rn":"Arumeniya","name:az":"Erm\u0259nistan","name:ie":"Armenia","name:id":"Armenia","name:ar":"\u0623\u0631\u0645\u064a\u0646\u064a\u0627","name:io":"Armenia","name:av":"\u0426I\u0430\u043c\u0443\u0445\u044a","name:ak":"Aamenia","name:am":"\u12a0\u122d\u121c\u1292\u12eb","name:it":"Armenia","name:an":"Armenia","name:ru":"\u0410\u0440\u043c\u0435\u043d\u0438\u044f","name:ab":"\u0415\u0440\u043c\u0430\u043d\u0442\u04d9\u044b\u043b\u0430","name:af":"Armeni\u00eb","name:zu":"i-Armenia","name:ky":"\u0410\u0440\u043c\u0435\u043d\u0438\u044f","name:zh-yue":"\u4e9e\u7f8e\u5c3c\u4e9e","name:zh":"\u4e9a\u7f8e\u5c3c\u4e9a","name:so":"Armeeniya","name:sn":"Armenia","name:sm":"Amenia","name:sl":"Armenija","name:sk":"Arm\u00e9nsko","name:ja":"\u30a2\u30eb\u30e1\u30cb\u30a2","name:si":"\u0d86\u0dbb\u0dca\u0db8\u0dda\u0db1\u0dd2\u0dba\u0dcf\u0dc0","name:sh":"Jermenija","name:sg":"Armen\u00efi","name:se":"Armenia","name:sc":"Arm\u00e8nia","name:br":"Armenia","name:bs":"Armenija","name:bm":"Arimeni","name:bn":"\u0986\u09b0\u09cd\u09ae\u09c7\u09a8\u09bf\u09af\u09bc\u09be","name:bo":"\u0f68\u0f62\u0f0b\u0f58\u0f7a\u0f0b\u0f53\u0f72\u0f0b\u0f61\u0f0d","name:bi":"Armenia","name:sw":"Armenia","name:be":"\u0410\u0440\u043c\u0435\u043d\u0456\u044f","name:su":"Arm\u00e9nia","name:bg":"\u0410\u0440\u043c\u0435\u043d\u0438\u044f","name:ss":"I-Arimeniya","name:ba":"\u04d8\u0440\u043c\u04d9\u043d\u0441\u0442\u0430\u043d","name:sq":"Armeni","name:jv":"Arm\u00e9nia","name:sa":"\u0906\u0930\u094d\u092e\u0940\u0928\u093f\u092f\u093e","name:pt":"Arm\u00eania","name:ps":"\u0627\u0631\u0645\u0646\u0633\u062a\u0627\u0646","name:oc":"Armenia","min_zoom":2.0,"name:ro":"Armenia","name:zh-min-nan":"Hayastan","name:os":"\u0421\u043e\u043c\u0438\u0445\u044b\u0441\u0442\u043e\u043d","name:or":"\u0b06\u0b30\u0b4d\u0b2e\u0b47\u0b28\u0b3f\u0b06","name:pl":"Armenia","name:sr":"\u0408\u0435\u0440\u043c\u0435\u043d\u0438\u0458\u0430","name:pa":"\u0a05\u0a30\u0a2e\u0a40\u0a28\u0a40\u0a06","name:tr":"Ermenistan","name:hi":"\u0906\u0930\u094d\u092e\u0940\u0928\u093f\u092f\u093e","name:sv":"Armenien","name:he":"\u05d0\u05e8\u05de\u05e0\u05d9\u05d4","name:ha":"Armeniya","name:ht":"Ameni","name:hu":"\u00d6rm\u00e9nyorsz\u00e1g","name:qu":"Arminya","population":2968586,"kind":"country","name:is":"Armen\u00eda","name:yi":"\u05d0\u05e8\u05de\u05e2\u05e0\u05d9\u05e2","name:yo":"Or\u00edl\u1eb9\u0301\u00e8de Am\u00e9n\u00ed\u00e0","name:mt":"Armenja","alt_name:eo":"Armenio","name:ms":"Armenia","name:mr":"\u0906\u0930\u094d\u092e\u0947\u0928\u093f\u092f\u093e","name:my":"\u1021\u102c\u1019\u1031\u1014\u102e\u1038\u101a\u102c\u1038","official_name":"\u0540\u0561\u0575\u0561\u057d\u057f\u0561\u0576\u056b \u0540\u0561\u0576\u0580\u0561\u057a\u0565\u057f\u0578\u0582\u0569\u0575\u0578\u0582\u0576","name:kw":"Armeni","name:mg":"Armenia","name:ml":"\u0d05\u0d7c\u0d2e\u0d47\u0d28\u0d3f\u0d2f","name:vi":"Armenia","name:mn":"\u0410\u0440\u043c\u0435\u043d","name:mi":"\u0100menia","id":249399277,"name:mk":"\u0415\u0440\u043c\u0435\u043d\u0438\u0458\u0430","name:vo":"Larmeniy\u00e4n","name:fa":"\u0627\u0631\u0645\u0646\u0633\u062a\u0627\u0646","name:rw":"Arumeniya","name:ff":"Armenii","name:fi":"Armenia","name:fo":"Armenia","alt_name:vi":"Acmeni","name:fr":"Arm\u00e9nie","name:fy":"Armeenje","int_name":"Armenia","name:nl":"Armeni\u00eb","name:nn":"Armenia","name:no":"Armenia","name:na":"Arminiya","name:ne":"\u0906\u0930\u094d\u092e\u0947\u0928\u093f\u092f\u093e","name:wo":"Armeeni","name:nv":"Aoom\u00e9\u00e9nii Bik\u00e9yah","name:ga":"An Airm\u00e9in","name:gd":"Airmeinia","name:gn":"Armenia","name:gl":"Armenia","name:gv":"Yn Armeain","name:gu":"\u0a86\u0ab0\u0acd\u0aae\u0ac7\u0aa8\u0abf\u0aaf\u0abe","name:tt":"\u04d8\u0440\u043c\u04d9\u043d\u0441\u0442\u0430\u043d"},"coordinates":[3621,3697]},{"type":"Point","properties":{"admin_level":"4","kind":"region","name:en":"Kotayk","name":"\u053f\u0578\u057f\u0561\u0575\u0584","kind_detail":"state","source":"openstreetmap.org","min_zoom":4.0,"name:ru":"\u041a\u043e\u0442\u0430\u0439\u043a","name:hu":"Kotajk","id":2291231926,"name:ja":"\u30b3\u30bf\u30a4\u30af"},"coordinates":[3593,2768]},{"type":"Point","properties":{"kind":"region","name:en":"Ararat","name":"\u0531\u0580\u0561\u0580\u0561\u057f","name:lt":"Araratas","kind_detail":"state","min_zoom":4.0,"name:de":"Ararat","source":"openstreetmap.org","name:fr":"Ararat","name:uk":"\u0410\u0440\u0430\u0440\u0430\u0442","name:ru":"\u0410\u0440\u0430\u0440\u0430\u0442","name:pl":"Prowincja Ararat","name:hu":"Ararat","id":1884053540,"name:es":"Ararat"},"coordinates":[3705,2246]},{"type":"Point","properties":{"name:ja":"\u30a2\u30eb\u30de\u30f4\u30a3\u30eb","name:lt":"Armaviro sritis","min_zoom":4.0,"name:uk":"\u0410\u0440\u043c\u0430\u0432\u0456\u0440","name:ru":"\u0410\u0440\u043c\u0430\u0432\u0438\u0440","name:pl":"Prowincja Armawir","name:hu":"Armavir","id":1884053541,"kind":"region","name:en":"Armavir","name":"\u0531\u0580\u0574\u0561\u057e\u056b\u0580","kind_detail":"state","name:de":"Armawir","source":"openstreetmap.org","name:fr":"Armavir","name:es":"Armavir"},"coordinates":[2547,2455]},{"type":"Point","properties":{"name:ja":"\u30a2\u30e9\u30ac\u30c4\u30a9\u30c8\u30a5\u30f3","name:lt":"Aragacotno sritis","min_zoom":4.0,"name:uk":"\u0410\u0440\u0430\u0491\u0430\u0446\u043e\u0442\u043d","name:ru":"\u0410\u0440\u0430\u0433\u0430\u0446\u043e\u0442\u043d","name:pl":"Prowincja Aragacotn","name:hu":"Aragacotn","id":1884053539,"kind":"region","name:en":"Aragatsotn","name":"\u0531\u0580\u0561\u0563\u0561\u056e\u0578\u057f\u0576","kind_detail":"state","name:de":"Aragazotn","source":"openstreetmap.org","name:fr":"Aragatsotn","name:es":"Aragatsotn"},"coordinates":[2807,2962]},{"type":"Point","properties":{"kind":"region","name:en":"Shirak","name":"\u0547\u056b\u0580\u0561\u056f","name:lt":"\u0160irako sritis","kind_detail":"state","min_zoom":4.0,"name:de":"Schirak","source":"openstreetmap.org","name:fr":"Chirak","name:uk":"\u0428\u0438\u0440\u0430\u043a","name:ru":"\u0428\u0438\u0440\u0430\u043a","name:pl":"Prowincja Szirak","name:hu":"Sirak","id":1884053544,"name:es":"Shirak"},"coordinates":[2407,3980]},{"type":"Point","properties":{"kind":"region","name":"A\u011fr\u0131","kind_detail":"province","min_zoom":4.0,"source":"openstreetmap.org","name:ku":"Agir\u00ee","name:uk":"\u0410\u0433\u0440\u0438","name:ru":"\u0410\u0433\u0440\u044b","id":1752934109},"coordinates":[1742,1342]},{"type":"Point","properties":{"kind":"region","name":"I\u011fd\u0131r","kind_detail":"province","min_zoom":4.0,"source":"openstreetmap.org","name:ku":"\u00cedir","name:uk":"\u0418\u0433\u0434\u0438\u0440","name:ru":"\u042b\u0433\u0434\u044b\u0440","id":1827512185},"coordinates":[2556,2035]},{"type":"Point","properties":{"kind":"region","name":"Kars","kind_detail":"province","min_zoom":4.0,"source":"openstreetmap.org","name:ku":"Qers","name:uk":"\u041a\u0430\u0440\u0441","name:ru":"\u041a\u0430\u0440\u0441","id":1827515596},"coordinates":[1180,3101]},{"type":"Point","properties":{"source":"naturalearthdata.com","kind":"locality","name":"Yerevan","country_capital":true,"population":1102000,"min_zoom":5.0,"id":7063},"coordinates":[3385,2583]},{"type":"Point","properties":{"source":"naturalearthdata.com","kind":"locality","name":"Agri","population":87854,"region_capital":true,"min_zoom":7.0,"id":2422},"coordinates":[1258,1704]},{"type":"Point","properties":{"source":"naturalearthdata.com","kind":"locality","name":"Kars","population":77486,"region_capital":true,"min_zoom":7.0,"id":2450},"coordinates":[1325,3391]}]},"transit":{"type":"GeometryCollection","geometries":[{"type":"MultiLineString","properties":{"source":"openstreetmap.org","kind":"train","name:en":"Yerevan - Gyumri - Georgia","name":"\u0535\u0580\u0587\u0561\u0576 - \u0533\u0575\u0578\u0582\u0574\u0580\u056b - \u054e\u0580\u0561\u057d\u057f\u0561\u0576","sort_rank":275,"min_zoom":6.0,"osm_relation":true},"arcs":[[120],[121],[122],[123]]},{"type":"LineString","properties":{"kind":"train","name:en":"Almast - Hrazdan (- Shorzha)","name":"\u0531\u056c\u0574\u0561\u057d\u057f - \u0540\u0580\u0561\u0566\u0564\u0561\u0576 (- \u0547\u0578\u0580\u056a\u0561)","sort_rank":275,"name:de":"Almast - Hrasdan (- Schorscha)","source":"openstreetmap.org","min_zoom":6.0,"osm_relation":true},"arcs":[124]},{"type":"MultiLineString","properties":{"source":"openstreetmap.org","kind":"train","name:en":"Yerevan - Yeraskh","name":"\u0535\u0580\u0587\u0561\u0576 - \u0535\u0580\u0561\u057d\u056d","sort_rank":275,"min_zoom":6.0,"osm_relation":true},"arcs":[[125],[126],[127]]}]},"pois":{"type":"GeometryCollection","geometries":[{"type":"Point","properties":{"source":"openstreetmap.org","kind":"restaurant","name":"Has Rest","area":118862000,"kind_detail":"asian","min_zoom":6.34,"id":540661872},"coordinates":[3703,3046]}]},"boundaries":{"type":"GeometryCollection","geometries":[{"type":"LineString","properties":{"source":"naturalearthdata.com","kind":"country","sort_rank":262,"kind_detail":"2","min_zoom":0.0,"id":241},"arcs":[0]},{"type":"MultiLineString","properties":{"source":"naturalearthdata.com","kind":"country","sort_rank":262,"kind_detail":"2","min_zoom":0.0,"id":89},"arcs":[[1],[2],[3]]},{"type":"MultiLineString","properties":{"source":"naturalearthdata.com","kind":"country","sort_rank":262,"kind_detail":"2","min_zoom":0.0,"id":115},"arcs":[[4],[5],[6],[7],[8],[9]]},{"type":"MultiLineString","properties":{"source":"naturalearthdata.com","kind":"country","sort_rank":262,"kind_detail":"2","min_zoom":0.0,"id":239},"arcs":[[10],[11],[12],[13],[14],[15],[16],[17],[18],[19],[20]]},{"type":"MultiLineString","properties":{"source":"naturalearthdata.com","kind":"country","sort_rank":262,"kind_detail":"2","min_zoom":0.0,"id":240},"arcs":[[21],[22],[23]]},{"type":"LineString","properties":{"source":"naturalearthdata.com","kind":"region","name":"Armavir - Erevan","sort_rank":256,"kind_detail":"4","min_zoom":7.0,"id":5031},"arcs":[24]},{"type":"LineString","properties":{"source":"naturalearthdata.com","kind":"region","name":"Aragatsotn - Erevan","sort_rank":256,"kind_detail":"4","min_zoom":7.0,"id":5035},"arcs":[25]},{"type":"MultiLineString","properties":{"source":"naturalearthdata.com","kind":"region","name":"Aragatsotn - Shirak","sort_rank":256,"kind_detail":"4","min_zoom":7.0,"id":5038},"arcs":[[26],[27],[28],[29],[30],[31],[32],[33]]},{"type":"LineString","properties":{"source":"naturalearthdata.com","kind":"region","name":"\u015e\u0259rur - S\u0259d\u0259r\u0259k","sort_rank":256,"kind_detail":"4","min_zoom":7.0,"id":4993},"arcs":[34]},{"type":"LineString","properties":{"source":"naturalearthdata.com","kind":"region","name":"Ararat - Armavir","sort_rank":256,"kind_detail":"4","min_zoom":7.0,"id":5032},"arcs":[35]},{"type":"LineString","properties":{"source":"naturalearthdata.com","kind":"region","name":"Kotayk - Tavush","sort_rank":256,"kind_detail":"4","min_zoom":7.0,"id":5019},"arcs":[36]},{"type":"MultiLineString","properties":{"source":"naturalearthdata.com","kind":"region","name":"Erevan - Kotayk","sort_rank":256,"kind_detail":"4","min_zoom":7.0,"id":5020},"arcs":[[37],[38],[39],[40],[41],[42],[43],[44]]},{"type":"MultiLineString","properties":{"source":"naturalearthdata.com","kind":"region","name":"Lori - Tavush","sort_rank":256,"kind_detail":"4","min_zoom":7.0,"id":5021},"arcs":[[45],[46],[47]]},{"type":"MultiLineString","properties":{"source":"naturalearthdata.com","kind":"region","name":"Lori - Kotayk","sort_rank":256,"kind_detail":"4","min_zoom":7.0,"id":5022},"arcs":[[48],[49],[50],[51],[52]]},{"type":"MultiLineString","properties":{"source":"naturalearthdata.com","kind":"region","name":"Tavush - Gegharkunik","sort_rank":256,"kind_detail":"4","min_zoom":7.0,"id":5023},"arcs":[[53],[54],[55]]},{"type":"MultiLineString","properties":{"source":"naturalearthdata.com","kind":"region","name":"Gegharkunik - Kotayk","sort_rank":256,"kind_detail":"4","min_zoom":7.0,"id":5024},"arcs":[[56],[57],[58]]},{"type":"MultiLineString","properties":{"source":"naturalearthdata.com","kind":"region","name":"Ararat - Kotayk","sort_rank":256,"kind_detail":"4","min_zoom":7.0,"id":5025},"arcs":[[59],[60],[61]]},{"type":"MultiLineString","properties":{"source":"naturalearthdata.com","kind":"region","name":"Ararat - Erevan","sort_rank":256,"kind_detail":"4","min_zoom":7.0,"id":5026},"arcs":[[62],[63],[64]]},{"type":"MultiLineString","properties":{"source":"naturalearthdata.com","kind":"region","name":"Shirak - Lori","sort_rank":256,"kind_detail":"4","min_zoom":7.0,"id":5033},"arcs":[[65],[66],[67],[68],[69],[70]]},{"type":"LineString","properties":{"source":"naturalearthdata.com","kind":"region","name":"Kotayk - Aragatsotn","sort_rank":256,"kind_detail":"4","min_zoom":7.0,"id":5034},"arcs":[71]},{"type":"MultiLineString","properties":{"source":"naturalearthdata.com","kind":"region","name":"Lori - Aragatsotn","sort_rank":256,"kind_detail":"4","min_zoom":7.0,"id":5036},"arcs":[[72],[73],[74],[75]]},{"type":"MultiLineString","properties":{"source":"naturalearthdata.com","kind":"region","name":"Armavir - Aragatsotn","sort_rank":256,"kind_detail":"4","min_zoom":7.0,"id":5037},"arcs":[[76],[77],[78],[79],[80],[81],[82],[83]]},{"type":"LineString","properties":{"source":"naturalearthdata.com","kind":"region","name":"Erzurum - Mus","sort_rank":256,"kind_detail":"4","min_zoom":6.0,"id":6048},"arcs":[84]},{"type":"MultiLineString","properties":{"source":"naturalearthdata.com","kind":"region","name":"Bitlis - Mus","sort_rank":256,"kind_detail":"4","min_zoom":6.0,"id":6055},"arcs":[[85],[86],[87]]},{"type":"MultiLineString","properties":{"source":"naturalearthdata.com","kind":"region","name":"Agri - Van","sort_rank":256,"kind_detail":"4","min_zoom":6.0,"id":6141},"arcs":[[88],[89],[90],[91],[92]]},{"type":"LineString","properties":{"source":"naturalearthdata.com","kind":"region","name":"Agri - Mus","sort_rank":256,"kind_detail":"4","min_zoom":6.0,"id":6136},"arcs":[93]},{"type":"LineString","properties":{"source":"naturalearthdata.com","kind":"region","name":"Bitlis - Agri","sort_rank":256,"kind_detail":"4","min_zoom":6.0,"id":6137},"arcs":[94]},{"type":"LineString","properties":{"source":"naturalearthdata.com","kind":"region","name":"Van - Bitlis","sort_rank":256,"kind_detail":"4","min_zoom":6.0,"id":6138},"arcs":[95]},{"type":"MultiLineString","properties":{"source":"naturalearthdata.com","kind":"region","name":"Kars - Erzurum","sort_rank":256,"kind_detail":"4","min_zoom":6.0,"id":6172},"arcs":[[96],[97]]},{"type":"LineString","properties":{"source":"naturalearthdata.com","kind":"region","name":"Ardahan - Erzurum","sort_rank":256,"kind_detail":"4","min_zoom":6.0,"id":6173},"arcs":[98]},{"type":"MultiLineString","properties":{"source":"naturalearthdata.com","kind":"region","name":"Erzurum - Agri","sort_rank":256,"kind_detail":"4","min_zoom":6.0,"id":6174},"arcs":[[99],[100],[101],[102],[103]]},{"type":"MultiLineString","properties":{"source":"naturalearthdata.com","kind":"region","name":"Agri - Kars","sort_rank":256,"kind_detail":"4","min_zoom":6.0,"id":6175},"arcs":[[104],[105],[106],[107],[108]]},{"type":"MultiLineString","properties":{"source":"naturalearthdata.com","kind":"region","name":"Agri - I\u011fdir","sort_rank":256,"kind_detail":"4","min_zoom":6.0,"id":6176},"arcs":[[109],[110],[111],[112],[113],[114],[115]]},{"type":"LineString","properties":{"source":"naturalearthdata.com","kind":"region","name":"Artvin - Erzurum","sort_rank":256,"kind_detail":"4","min_zoom":6.0,"id":6177},"arcs":[116]},{"type":"LineString","properties":{"source":"naturalearthdata.com","kind":"region","name":"Artvin - Ardahan","sort_rank":256,"kind_detail":"4","min_zoom":6.0,"id":6179},"arcs":[117]},{"type":"LineString","properties":{"source":"naturalearthdata.com","kind":"region","name":"Ardahan - Kars","sort_rank":256,"kind_detail":"4","min_zoom":7.0,"id":8117},"arcs":[118]},{"type":"LineString","properties":{"source":"naturalearthdata.com","kind":"region","name":"Kars - I\u011fdir","sort_rank":256,"kind_detail":"4","min_zoom":7.0,"id":8118},"arcs":[119]}]},"roads":{"type":"GeometryCollection","geometries":[{"type":"LineString","properties":{"source":"naturalearthdata.com","kind":"minor_road","sort_rank":355,"kind_detail":"tertiary","min_zoom":7.0,"id":19396},"arcs":[134]},{"type":"LineString","properties":{"source":"naturalearthdata.com","kind":"major_road","sort_rank":379,"kind_detail":"secondary","min_zoom":4.0,"id":19397},"arcs":[135]},{"type":"LineString","properties":{"source":"naturalearthdata.com","kind":"minor_road","sort_rank":355,"kind_detail":"tertiary","min_zoom":6.0,"id":19496},"arcs":[136]},{"type":"LineString","properties":{"source":"naturalearthdata.com","kind":"minor_road","sort_rank":355,"kind_detail":"tertiary","min_zoom":6.0,"id":19497},"arcs":[137]},{"type":"LineString","properties":{"source":"naturalearthdata.com","kind":"minor_road","kind_detail":"tertiary","sort_rank":355,"landuse_kind":"urban_area","min_zoom":6.0,"id":19528},"arcs":[138]},{"type":"LineString","properties":{"source":"naturalearthdata.com","kind":"minor_road","sort_rank":355,"kind_detail":"tertiary","min_zoom":6.0,"id":19528},"arcs":[139]},{"type":"LineString","properties":{"source":"naturalearthdata.com","kind":"minor_road","kind_detail":"tertiary","sort_rank":355,"landuse_kind":"urban_area","min_zoom":6.0,"id":19564},"arcs":[140]},{"type":"MultiLineString","properties":{"source":"naturalearthdata.com","kind":"minor_road","sort_rank":355,"kind_detail":"tertiary","min_zoom":6.0,"id":19564},"arcs":[[141],[142]]},{"type":"LineString","properties":{"source":"naturalearthdata.com","kind":"major_road","kind_detail":"secondary","sort_rank":379,"landuse_kind":"urban_area","min_zoom":4.0,"id":19565},"arcs":[143]},{"type":"MultiLineString","properties":{"source":"naturalearthdata.com","kind":"major_road","sort_rank":379,"kind_detail":"secondary","min_zoom":4.0,"id":19565},"arcs":[[144],[145]]},{"type":"LineString","properties":{"source":"naturalearthdata.com","kind":"major_road","kind_detail":"secondary","sort_rank":379,"landuse_kind":"park","min_zoom":3.0,"id":19586},"arcs":[146]},{"type":"MultiLineString","properties":{"source":"naturalearthdata.com","kind":"major_road","sort_rank":379,"kind_detail":"secondary","min_zoom":3.0,"id":19586},"arcs":[[147],[148]]},{"type":"LineString","properties":{"source":"naturalearthdata.com","kind":"minor_road","sort_rank":355,"kind_detail":"tertiary","min_zoom":7.0,"id":19598},"arcs":[149]},{"type":"LineString","properties":{"source":"naturalearthdata.com","kind":"minor_road","sort_rank":355,"kind_detail":"tertiary","min_zoom":7.0,"id":19604},"arcs":[150]},{"type":"LineString","properties":{"source":"naturalearthdata.com","kind":"minor_road","kind_detail":"tertiary","sort_rank":355,"landuse_kind":"park","min_zoom":6.0,"id":19609},"arcs":[151]},{"type":"LineString","properties":{"source":"naturalearthdata.com","kind":"minor_road","kind_detail":"tertiary","sort_rank":355,"landuse_kind":"urban_area","min_zoom":6.0,"id":19609},"arcs":[152]},{"type":"MultiLineString","properties":{"source":"naturalearthdata.com","kind":"minor_road","sort_rank":355,"kind_detail":"tertiary","min_zoom":6.0,"id":19609},"arcs":[[153],[154]]},{"type":"LineString","properties":{"source":"naturalearthdata.com","kind":"minor_road","sort_rank":355,"kind_detail":"tertiary","min_zoom":7.0,"id":19612},"arcs":[155]},{"type":"LineString","properties":{"source":"naturalearthdata.com","kind":"minor_road","sort_rank":355,"kind_detail":"tertiary","min_zoom":7.0,"id":19621},"arcs":[156]},{"type":"LineString","properties":{"source":"naturalearthdata.com","kind":"minor_road","sort_rank":355,"kind_detail":"tertiary","min_zoom":7.0,"id":19679},"arcs":[157]},{"type":"LineString","properties":{"source":"naturalearthdata.com","kind":"major_road","kind_detail":"secondary","sort_rank":379,"landuse_kind":"park","min_zoom":3.0,"id":19702},"arcs":[158]},{"type":"MultiLineString","properties":{"source":"naturalearthdata.com","kind":"major_road","sort_rank":379,"kind_detail":"secondary","min_zoom":3.0,"id":19702},"arcs":[[159],[160]]},{"type":"LineString","properties":{"source":"naturalearthdata.com","kind":"minor_road","sort_rank":355,"kind_detail":"tertiary","min_zoom":7.0,"id":19708},"arcs":[161]},{"type":"LineString","properties":{"source":"naturalearthdata.com","kind":"minor_road","sort_rank":355,"kind_detail":"tertiary","min_zoom":7.0,"id":19726},"arcs":[162]},{"type":"LineString","properties":{"source":"naturalearthdata.com","kind":"major_road","sort_rank":379,"kind_detail":"secondary","min_zoom":3.0,"id":19766},"arcs":[163]},{"type":"LineString","properties":{"source":"naturalearthdata.com","kind":"minor_road","sort_rank":355,"kind_detail":"tertiary","min_zoom":7.0,"id":19773},"arcs":[164]},{"type":"LineString","properties":{"source":"naturalearthdata.com","kind":"major_road","sort_rank":379,"kind_detail":"secondary","min_zoom":4.0,"id":19894},"arcs":[165]},{"type":"LineString","properties":{"source":"naturalearthdata.com","kind":"minor_road","sort_rank":355,"kind_detail":"tertiary","min_zoom":6.0,"id":19970},"arcs":[166]},{"type":"LineString","properties":{"source":"naturalearthdata.com","kind":"major_road","sort_rank":379,"kind_detail":"secondary","min_zoom":3.0,"id":19976},"arcs":[167]},{"type":"LineString","properties":{"source":"naturalearthdata.com","kind":"highway","kind_detail":"motorway","sort_rank":383,"landuse_kind":"urban_area","min_zoom":3.0,"id":19995},"arcs":[168]},{"type":"LineString","properties":{"source":"naturalearthdata.com","kind":"highway","sort_rank":383,"kind_detail":"motorway","min_zoom":3.0,"id":19995},"arcs":[169]},{"type":"LineString","properties":{"source":"naturalearthdata.com","kind":"highway","kind_detail":"motorway","sort_rank":383,"landuse_kind":"urban_area","min_zoom":3.0,"id":20033},"arcs":[170]},{"type":"LineString","properties":{"source":"naturalearthdata.com","kind":"major_road","kind_detail":"secondary","sort_rank":379,"landuse_kind":"urban_area","min_zoom":3.0,"id":20034},"arcs":[171]},{"type":"LineString","properties":{"source":"naturalearthdata.com","kind":"major_road","sort_rank":379,"kind_detail":"secondary","min_zoom":3.0,"id":20034},"arcs":[172]},{"type":"LineString","properties":{"source":"naturalearthdata.com","kind":"minor_road","sort_rank":355,"kind_detail":"tertiary","min_zoom":6.0,"id":20044},"arcs":[173]},{"type":"LineString","properties":{"source":"naturalearthdata.com","kind":"major_road","kind_detail":"secondary","sort_rank":379,"landuse_kind":"urban_area","min_zoom":3.0,"id":20052},"arcs":[174]},{"type":"LineString","properties":{"source":"naturalearthdata.com","kind":"minor_road","sort_rank":355,"kind_detail":"tertiary","min_zoom":7.0,"id":20063},"arcs":[175]},{"type":"MultiLineString","properties":{"source":"naturalearthdata.com","kind":"highway","kind_detail":"motorway","sort_rank":383,"landuse_kind":"urban_area","min_zoom":3.0,"id":20070},"arcs":[[176],[177]]},{"type":"MultiLineString","properties":{"source":"naturalearthdata.com","kind":"highway","sort_rank":383,"kind_detail":"motorway","min_zoom":3.0,"id":20070},"arcs":[[178],[179]]},{"type":"LineString","properties":{"source":"naturalearthdata.com","kind":"major_road","sort_rank":379,"kind_detail":"secondary","min_zoom":3.0,"id":20078},"arcs":[180]},{"type":"LineString","properties":{"source":"naturalearthdata.com","kind":"highway","kind_detail":"motorway","sort_rank":383,"landuse_kind":"urban_area","min_zoom":3.0,"id":20080},"arcs":[181]},{"type":"LineString","properties":{"source":"naturalearthdata.com","kind":"highway","sort_rank":383,"kind_detail":"motorway","min_zoom":3.0,"id":20080},"arcs":[182]},{"type":"LineString","properties":{"source":"naturalearthdata.com","kind":"minor_road","sort_rank":355,"kind_detail":"tertiary","min_zoom":6.0,"id":20096},"arcs":[183]},{"type":"LineString","properties":{"source":"naturalearthdata.com","kind":"minor_road","sort_rank":355,"kind_detail":"tertiary","min_zoom":7.0,"id":20107},"arcs":[184]},{"type":"LineString","properties":{"source":"naturalearthdata.com","kind":"major_road","kind_detail":"secondary","sort_rank":379,"landuse_kind":"urban_area","min_zoom":3.0,"id":20117},"arcs":[185]},{"type":"MultiLineString","properties":{"source":"naturalearthdata.com","kind":"highway","kind_detail":"motorway","sort_rank":383,"landuse_kind":"urban_area","min_zoom":6.0,"id":20118},"arcs":[[186],[187]]},{"type":"LineString","properties":{"source":"naturalearthdata.com","kind":"highway","sort_rank":383,"kind_detail":"motorway","min_zoom":6.0,"id":20118},"arcs":[188]},{"type":"LineString","properties":{"source":"naturalearthdata.com","kind":"major_road","sort_rank":379,"kind_detail":"secondary","min_zoom":3.0,"id":20119},"arcs":[189]},{"type":"LineString","properties":{"source":"naturalearthdata.com","kind":"major_road","kind_detail":"secondary","sort_rank":379,"landuse_kind":"urban_area","min_zoom":3.0,"id":20145},"arcs":[190]},{"type":"LineString","properties":{"source":"naturalearthdata.com","kind":"major_road","sort_rank":379,"kind_detail":"secondary","min_zoom":3.0,"id":20145},"arcs":[191]},{"type":"LineString","properties":{"source":"naturalearthdata.com","kind":"minor_road","sort_rank":355,"kind_detail":"tertiary","min_zoom":6.0,"id":20146},"arcs":[192]},{"type":"LineString","properties":{"source":"naturalearthdata.com","kind":"major_road","kind_detail":"secondary","sort_rank":379,"landuse_kind":"park","min_zoom":3.0,"id":20156},"arcs":[193]},{"type":"MultiLineString","properties":{"source":"naturalearthdata.com","kind":"major_road","sort_rank":379,"kind_detail":"secondary","min_zoom":3.0,"id":20156},"arcs":[[194],[195]]},{"type":"LineString","properties":{"source":"naturalearthdata.com","kind":"major_road","sort_rank":379,"kind_detail":"secondary","min_zoom":3.0,"id":20157},"arcs":[196]},{"type":"LineString","properties":{"source":"naturalearthdata.com","kind":"major_road","sort_rank":379,"kind_detail":"secondary","min_zoom":3.0,"id":20158},"arcs":[197]},{"type":"LineString","properties":{"source":"naturalearthdata.com","kind":"major_road","sort_rank":379,"kind_detail":"secondary","min_zoom":3.0,"id":20169},"arcs":[198]},{"type":"LineString","properties":{"source":"naturalearthdata.com","kind":"minor_road","sort_rank":355,"kind_detail":"tertiary","min_zoom":7.0,"id":20199},"arcs":[199]},{"type":"LineString","properties":{"source":"naturalearthdata.com","kind":"minor_road","sort_rank":355,"kind_detail":"tertiary","min_zoom":7.0,"id":20291},"arcs":[200]},{"type":"LineString","properties":{"source":"naturalearthdata.com","kind":"major_road","kind_detail":"secondary","sort_rank":379,"landuse_kind":"urban_area","min_zoom":4.0,"id":20295},"arcs":[201]},{"type":"MultiLineString","properties":{"source":"naturalearthdata.com","kind":"major_road","sort_rank":379,"kind_detail":"secondary","min_zoom":4.0,"id":20295},"arcs":[[202],[203]]},{"type":"LineString","properties":{"source":"naturalearthdata.com","kind":"highway","kind_detail":"motorway","sort_rank":383,"landuse_kind":"urban_area","min_zoom":3.0,"id":20327},"arcs":[204]},{"type":"LineString","properties":{"source":"naturalearthdata.com","kind":"highway","sort_rank":383,"kind_detail":"motorway","min_zoom":3.0,"id":20327},"arcs":[205]},{"type":"LineString","properties":{"source":"naturalearthdata.com","kind":"minor_road","sort_rank":355,"kind_detail":"tertiary","min_zoom":7.0,"id":20378},"arcs":[206]},{"type":"LineString","properties":{"source":"naturalearthdata.com","kind":"major_road","sort_rank":379,"kind_detail":"secondary","min_zoom":3.0,"id":20445},"arcs":[207]},{"type":"LineString","properties":{"source":"naturalearthdata.com","kind":"minor_road","sort_rank":355,"kind_detail":"tertiary","min_zoom":7.0,"id":20485},"arcs":[208]},{"type":"LineString","properties":{"source":"naturalearthdata.com","kind":"minor_road","sort_rank":355,"kind_detail":"tertiary","min_zoom":7.0,"id":20486},"arcs":[209]},{"type":"LineString","properties":{"source":"naturalearthdata.com","kind":"minor_road","sort_rank":355,"kind_detail":"tertiary","min_zoom":7.0,"id":20488},"arcs":[210]},{"type":"LineString","properties":{"source":"naturalearthdata.com","kind":"major_road","sort_rank":379,"kind_detail":"secondary","min_zoom":3.0,"id":20587},"arcs":[211]},{"type":"LineString","properties":{"source":"naturalearthdata.com","kind":"major_road","kind_detail":"secondary","sort_rank":379,"landuse_kind":"urban_area","min_zoom":4.0,"id":20600},"arcs":[212]},{"type":"LineString","properties":{"source":"naturalearthdata.com","kind":"major_road","sort_rank":379,"kind_detail":"secondary","min_zoom":4.0,"id":20600},"arcs":[213]},{"type":"LineString","properties":{"source":"naturalearthdata.com","kind":"minor_road","kind_detail":"tertiary","sort_rank":355,"landuse_kind":"urban_area","min_zoom":5.0,"id":20609},"arcs":[214]},{"type":"LineString","properties":{"source":"naturalearthdata.com","kind":"minor_road","sort_rank":355,"kind_detail":"tertiary","min_zoom":5.0,"id":20609},"arcs":[215]},{"type":"LineString","properties":{"source":"naturalearthdata.com","kind":"minor_road","sort_rank":355,"kind_detail":"tertiary","min_zoom":7.0,"id":20610},"arcs":[216]},{"type":"LineString","properties":{"source":"naturalearthdata.com","kind":"major_road","kind_detail":"secondary","sort_rank":379,"landuse_kind":"urban_area","min_zoom":4.0,"id":20732},"arcs":[217]},{"type":"LineString","properties":{"source":"naturalearthdata.com","kind":"major_road","kind_detail":"secondary","sort_rank":379,"landuse_kind":"urban_area","min_zoom":4.0,"id":20732},"arcs":[218]},{"type":"MultiLineString","properties":{"source":"naturalearthdata.com","kind":"major_road","sort_rank":379,"kind_detail":"secondary","min_zoom":4.0,"id":20732},"arcs":[[219],[220]]},{"type":"LineString","properties":{"source":"naturalearthdata.com","kind":"highway","kind_detail":"motorway","sort_rank":383,"landuse_kind":"urban_area","min_zoom":4.0,"id":20781},"arcs":[221]},{"type":"MultiLineString","properties":{"source":"naturalearthdata.com","kind":"highway","sort_rank":383,"kind_detail":"motorway","min_zoom":4.0,"id":20781},"arcs":[[222],[223]]},{"type":"LineString","properties":{"source":"naturalearthdata.com","kind":"minor_road","sort_rank":355,"kind_detail":"tertiary","min_zoom":7.0,"id":20810},"arcs":[224]},{"type":"LineString","properties":{"source":"naturalearthdata.com","kind":"minor_road","sort_rank":355,"kind_detail":"tertiary","min_zoom":7.0,"id":20898},"arcs":[225]},{"type":"LineString","properties":{"source":"naturalearthdata.com","kind":"minor_road","sort_rank":355,"kind_detail":"tertiary","min_zoom":7.0,"id":20903},"arcs":[226]},{"type":"LineString","properties":{"source":"naturalearthdata.com","kind":"minor_road","sort_rank":355,"kind_detail":"tertiary","min_zoom":7.0,"id":20962},"arcs":[227]},{"type":"LineString","properties":{"source":"naturalearthdata.com","kind":"major_road","kind_detail":"secondary","sort_rank":379,"landuse_kind":"urban_area","min_zoom":4.0,"id":20983},"arcs":[228]},{"type":"MultiLineString","properties":{"source":"naturalearthdata.com","kind":"major_road","sort_rank":379,"kind_detail":"secondary","min_zoom":4.0,"id":20983},"arcs":[[229],[230]]},{"type":"LineString","properties":{"source":"naturalearthdata.com","kind":"minor_road","sort_rank":355,"kind_detail":"tertiary","min_zoom":5.0,"id":21009},"arcs":[231]},{"type":"LineString","properties":{"source":"naturalearthdata.com","kind":"minor_road","sort_rank":355,"kind_detail":"tertiary","min_zoom":6.0,"id":21010},"arcs":[232]},{"type":"LineString","properties":{"source":"naturalearthdata.com","kind":"minor_road","sort_rank":355,"kind_detail":"tertiary","min_zoom":6.0,"id":21030},"arcs":[233]},{"type":"LineString","properties":{"source":"naturalearthdata.com","kind":"minor_road","sort_rank":355,"kind_detail":"tertiary","min_zoom":6.0,"id":21246},"arcs":[234]},{"type":"LineString","properties":{"source":"naturalearthdata.com","kind":"minor_road","sort_rank":355,"kind_detail":"tertiary","min_zoom":5.0,"id":21257},"arcs":[235]}]},"earth":{"type":"GeometryCollection","geometries":[{"type":"Polygon","properties":{"sort_rank":10,"source":"naturalearthdata.com","min_zoom":0.0,"kind":"earth","area":391879129960},"arcs":[[236]]}]},"landuse":{"type":"GeometryCollection","geometries":[{"type":"MultiPolygon","properties":{"source":"naturalearthdata.com","kind":"urban_area","name":"","area":3197240141,"sort_rank":11,"min_zoom":4.0},"arcs":[[[237]],[[238]],[[239]],[[240]],[[241]],[[242]],[[243]],[[244]],[[245]],[[246]],[[247]]]},{"type":"MultiPolygon","properties":{"source":"openstreetmap.org","kind":"park","tier":2,"area":2449737942,"sort_rank":24,"min_zoom":6.0},"arcs":[[[248]],[[249]],[[250]]]},{"type":"MultiPolygon","properties":{"source":"openstreetmap.org","kind":"park","tier":2,"area":826819837,"sort_rank":24,"min_zoom":6.0,"osm_relation":true},"arcs":[[[251],[252],[253]]]},{"type":"Polygon","properties":{"source":"openstreetmap.org","kind":"park","area":1396809984,"tier":2,"id":126594984,"min_zoom":4.0,"sort_rank":24},"arcs":[[254]]}]}},"type":"Topology","transform":{"translate":[42.1875,38.8225909762],"scale":[0.0006866455,0.0005266863]},"arcs":[[[3768,1671],[14,-24],[17,-72],[16,-23]],[[3940,1701],[50,12],[38,21],[8,5],[54,42],[6,2]],[[3877,1702],[63,-1]],[[3768,1671],[41,18],[68,13]],[[3500,1802],[22,-16],[39,-60],[20,-23],[87,-41],[29,-24],[118,-86]],[[3069,1061],[32,7],[76,35],[28,21],[24,38],[1,34],[-5,36],[7,42],[15,23],[1,22],[-5,25],[-3,27],[3,31],[6,25],[48,98],[9,25],[1,7],[3,22],[-8,62],[7,22],[155,128],[36,11]],[[2897,1118],[35,-4],[100,-50],[37,-3]],[[2784,1093],[34,4],[79,21]],[[2752,1097],[32,-4]],[[3045,0],[-5,40],[-77,38],[-24,23],[-20,28],[-14,43],[-6,14],[-5,15],[1,16],[-1,17],[-11,12],[-13,10],[-9,14],[-6,29],[-5,13],[-8,13],[21,36],[24,20],[14,22],[-14,75],[7,30],[29,58],[-12,46],[-56,41],[-65,34],[-37,30],[-2,16],[10,35],[-1,16],[-18,38],[-5,16],[0,17],[3,13],[1,14],[-17,37],[-9,41],[-6,18],[-1,0],[-38,46],[-9,23],[17,23],[29,19],[22,8],[23,0]],[[2026,4096],[38,-31],[46,-57],[16,-37],[7,-37],[3,-38],[8,-43],[15,-38],[60,-95],[14,-36],[5,-31],[7,-132],[-4,-15],[-30,-54],[-9,-12],[11,-43],[-62,-72],[-19,-39],[2,-45]],[[2134,3241],[-9,7],[-7,2],[-6,2],[-9,3]],[[2103,3255],[5,-8],[2,-6],[4,-13],[-35,-4],[-31,-22],[-50,-59],[6,-25],[31,-35],[59,-50],[0,-13],[-1,-4],[-22,-72],[-12,-22],[-10,-31],[15,-29],[39,-37],[65,-85],[21,-48],[1,-3],[-26,-21],[15,-34],[45,-56],[10,-21],[-14,-24],[-66,-15],[-20,-19],[18,-54],[67,-37],[133,-38],[160,-88],[175,-30]],[[3061,2318],[53,-17],[80,-47],[122,-71],[84,-74],[38,-42],[16,-27],[7,-29],[5,-17],[12,-12],[22,-16],[5,-19],[0,-21],[6,-11]],[[2837,2278],[15,2],[30,9],[42,5],[87,24],[50,0]],[[2792,2304],[14,-4],[19,-18],[12,-4]],[[2687,2252],[23,8],[51,36],[31,8]],[[3530,1927],[53,-62],[27,-16],[7,-1]],[[3511,1915],[19,12]],[[3633,1850],[7,-1],[7,-6],[9,-15],[89,-118],[23,-39]],[[3617,1848],[16,2]],[[3815,1552],[4,-6],[21,-12],[5,-3],[31,-6],[34,-1],[-4,-9],[-6,-6],[31,-22],[17,-41],[44,-182],[18,-38],[30,-28],[-12,-23],[5,-13],[38,-27],[7,-2]],[[4094,1134],[2,-1]],[[4078,1133],[16,1]],[[3281,2527],[-14,16],[-2,8],[-3,25],[-13,19]],[[3249,2595],[11,22]],[[2881,3642],[-48,-95],[-24,-32],[-50,-48],[-4,-9],[1,-6],[22,-18],[13,-13],[10,-13],[10,-16],[3,-9],[4,-9],[4,-22],[3,-7],[4,-4],[6,-1]],[[2903,3349],[8,-1],[8,-5],[1,-8],[-1,-10],[-15,-48],[-5,-26],[0,-13],[3,-10],[4,-5],[4,-4],[16,-9],[4,-3],[-1,-2],[-11,-7],[-5,-5],[-8,-10],[-5,-4],[-13,-7],[-7,-6],[-6,-5],[-8,-3],[-25,-3],[-7,-2],[-6,-3],[-22,-19],[-39,-15],[-40,-25],[-9,-4],[-8,-1]],[[2835,3340],[21,1],[47,8]],[[2495,3129],[-24,2],[-8,2],[-8,5],[-30,22],[-8,4],[-9,2],[-18,1],[-8,3],[-23,13],[-10,1]],[[2349,3184],[-11,-3],[-44,-28],[-13,-5],[-41,-11],[-19,-9],[-10,-9],[-5,-11],[-3,-11],[-4,-11],[-7,-14],[-11,-9],[-30,-18],[-10,-9],[-11,-15],[-6,-6],[-6,-2]],[[2710,3086],[-7,1],[-7,3],[-6,5],[-6,7],[-23,40],[-9,12],[-3,3],[-2,3],[-61,3]],[[2586,3163],[-9,-2],[-4,-5],[-2,-7],[-3,-10],[-5,-5],[-8,-4],[-60,-1]],[[2118,3013],[-25,3]],[[4028,1734],[0,-11],[-32,-38],[-56,-18],[-61,-59],[-39,-74]],[[3281,2527],[-3,-16],[-13,-8],[-40,-16],[-14,-9],[-10,-11],[-22,-36],[-19,-18],[-7,-11],[-2,-9],[26,-50],[13,-36],[3,-20],[2,-31],[-1,-1],[0,-1]],[[3800,3470],[-35,28]],[[3524,2490],[-25,2],[-10,7],[-3,11],[2,12],[4,14],[5,12],[5,10],[4,6],[24,26],[6,8],[4,8],[-2,5],[-7,8],[-12,12],[-21,28],[-14,8],[-11,4]],[[3473,2671],[-17,-5],[-41,-20],[-9,-3],[-57,-5]],[[3349,2638],[-18,5]],[[3331,2643],[-4,-1],[-4,-2],[-9,-5],[-5,-2],[-8,-1]],[[3301,2632],[-8,0],[-14,3]],[[3279,2635],[-5,-1],[-4,-1],[-3,-3],[-2,-3],[-1,-2],[-4,-8]],[[3583,2455],[-12,29],[-9,6],[-9,4]],[[3553,2494],[-29,-4]],[[3868,4039],[-21,3],[-10,3],[-18,10],[-37,32],[-7,9]],[[3765,3498],[1,111],[-11,37],[-6,11],[-8,25],[-4,11],[-2,9],[0,10],[10,12],[11,9],[27,13],[50,13],[10,5],[9,8],[8,11],[8,15],[31,98],[6,13],[7,10],[7,6],[6,4],[5,4],[12,13],[9,7],[7,9],[4,9],[-8,15],[-17,15],[-6,6],[-6,14],[-5,4],[-17,8],[-5,3],[-4,3],[-6,1]],[[3888,4040],[-20,-1]],[[3407,3564],[24,-16],[14,-6]],[[3249,3530],[122,31],[36,3]],[[3495,3557],[10,-2],[73,-38],[59,-19],[70,-7]],[[3445,3542],[11,2],[29,12],[10,1]],[[3707,3491],[15,1],[43,6]],[[4091,3446],[5,1]],[[3973,3506],[21,-6],[22,-12],[10,-8],[18,-17],[9,-6],[16,-7],[11,-3],[11,-1]],[[3800,3470],[173,36]],[[3800,3470],[4,-37],[-4,-11],[-10,-19],[-3,-16],[1,-17],[15,-102],[6,-14],[8,-9],[9,-2]],[[3859,3245],[8,-2],[9,-7],[10,-13],[16,-25],[6,-18],[2,-16],[-3,-13],[-6,-24],[-2,-13],[2,-9],[5,-8],[43,-29],[12,-12],[5,-13],[68,-252],[3,-22],[-14,-16],[-7,-12],[-4,-22],[1,-12],[5,-12],[78,-91]],[[3826,3243],[33,2]],[[4096,2548],[-11,1]],[[4085,2549],[-44,-5],[-57,-24],[-53,-15],[-41,-17],[-110,-62],[-59,-20],[-73,-12]],[[3648,2394],[-10,1],[-17,10],[-10,10],[-14,33],[-14,7]],[[3454,2338],[-6,2],[-14,11],[-5,5],[-3,5],[-13,31],[-10,8],[-14,7],[-51,12],[-4,2],[-4,4],[-5,6],[-5,7],[-3,9],[-2,8],[0,6],[0,11],[4,23],[1,9],[-1,8],[-4,7],[-10,9],[-6,3]],[[3299,2531],[-18,-4]],[[3583,2455],[-64,-85],[-39,-27],[-18,-4],[-8,-1]],[[2786,4053],[-33,4],[-10,4],[-9,5],[-8,10],[-2,7],[1,8],[4,4],[1,1]],[[2746,3896],[11,0],[12,4],[8,6],[6,9],[2,20],[2,13],[5,11],[17,16],[6,9],[11,61],[-3,7],[-4,3]],[[2819,4055],[-33,-2]],[[2706,3912],[6,-2],[24,-12],[10,-2]],[[2820,3639],[-10,3],[-11,6],[-5,8],[-10,24],[-10,14],[-10,6],[-52,7],[-11,8],[-7,10],[-4,12],[-5,15],[-7,14],[-12,20],[-4,13],[0,12],[11,19],[2,6],[12,51],[3,10],[4,9],[2,2],[2,2],[4,2],[4,0]],[[2881,3642],[-61,-3]],[[3249,3530],[10,-65],[0,-18],[-6,-26],[1,-8],[10,-13],[94,-69],[12,-5],[55,-9],[10,-4],[10,-6],[-1,-30],[-11,-48],[-70,-203],[3,-17],[11,-26],[2,-12],[-5,-14],[-13,-12],[-22,-14],[-54,-96],[-13,-13],[-12,-7],[-11,-3],[-9,-4],[-6,-9],[1,-12],[12,-19],[9,-9],[17,-12],[3,-8],[-1,-8],[-6,-9],[-8,-7],[-18,-12],[-4,-7],[0,-14],[3,-21],[18,-44]],[[2907,3646],[10,-2],[9,-4],[11,-11],[14,-19],[8,-7],[11,-5],[16,-2]],[[2881,3642],[19,4],[7,0]],[[3065,3644],[20,-1],[23,-6],[77,-31],[36,-23],[10,-10],[11,-14],[7,-29]],[[2986,3596],[25,5],[16,8],[11,10],[11,17],[4,4],[5,3],[7,1]],[[2838,2587],[-172,1],[-12,4],[-11,7],[-22,19],[-23,26],[-14,9],[-55,19],[-21,12],[-37,31],[-6,4],[-10,3],[-38,8],[-13,5],[-8,6],[-18,28],[-7,7],[-8,0]],[[2363,2776],[-10,-4],[-14,-17],[-9,-13],[-9,-10],[-10,-1]],[[2311,2731],[-16,8],[-11,9],[-12,2]],[[2272,2750],[-11,-5],[-34,-31],[-37,-22],[-1,0]],[[2957,2662],[-10,0],[-10,7],[-13,16],[-5,5],[-8,3],[-8,2],[-9,1]],[[2894,2696],[-9,-1],[-9,-7],[-1,-12],[3,-13],[7,-28],[1,-18],[-16,-17],[-32,-13]],[[3249,2595],[-85,19],[-32,15],[-27,20],[-7,3],[-7,3],[-24,14],[-9,11],[-8,8],[-10,4]],[[3040,2692],[-16,0],[-30,-7],[-17,-10],[-12,-8],[-8,-5]],[[0,1100],[16,46],[200,101],[55,3],[55,9],[29,11]],[[641,341],[-105,-87],[-120,-47]],[[416,207],[-238,27]],[[178,234],[-51,-18],[-46,-34],[-59,-24],[-22,-3]],[[1538,1115],[112,-7],[101,-46],[84,-88],[65,-42],[126,-25],[51,-1]],[[1142,534],[170,70],[36,40],[3,66],[10,66],[-11,57],[-57,25],[-55,32],[11,57],[36,14],[87,17],[48,17],[55,71],[63,49]],[[2211,983],[55,-9],[71,-24],[86,-7],[24,-10],[56,-11]],[[2077,906],[37,38],[41,32],[56,7]],[[2503,922],[205,56],[1,0]],[[355,1270],[41,-119],[61,-106],[46,-43],[44,-51],[25,-53],[37,-36],[52,-78],[-8,-122],[8,-26],[2,-29],[-15,-74],[-13,-94],[6,-98]],[[1142,534],[-268,-61],[-49,-39],[-52,-31],[-69,-22],[-63,-40]],[[1142,534],[2,-144],[45,-96],[170,-105],[59,-95],[-29,-94]],[[509,3373],[-9,-66],[-24,-64],[35,-190],[-58,-37],[-61,-26],[-49,-33],[-47,-39],[-93,-52],[-203,-68]],[[0,2626],[28,-46],[35,-40],[125,-21],[47,-16],[44,-30],[23,-33],[20,-40],[24,-20],[30,-8],[57,-25],[37,-58],[36,-76],[42,-69]],[[134,3992],[29,-146],[76,-112],[52,-37],[42,-52],[31,-74],[43,-62],[58,-59],[44,-77]],[[459,2070],[49,28],[40,46]],[[421,2071],[38,-1]],[[283,1990],[53,18],[32,44],[34,16],[19,3]],[[174,2009],[109,-19]],[[355,1270],[46,76],[15,89],[-3,258],[15,50],[20,14],[-207,84],[-119,146],[52,22]],[[1503,2196],[-67,18],[-159,1]],[[1277,2215],[-447,-127]],[[1647,2177],[-77,33]],[[1570,2210],[-67,-14]],[[830,2088],[-282,56]],[[1766,1824],[-50,19],[-23,20],[-21,72],[0,45],[8,90],[-33,107]],[[2601,1558],[-135,22],[-8,29],[-10,27],[-92,22],[-131,62],[-43,56],[-32,71],[-48,34],[-29,0],[-49,22],[-20,16],[-46,10]],[[1958,1929],[-99,-40],[-93,-65]],[[3307,1557],[-1,0],[-22,18],[-58,14]],[[3226,1589],[-259,-60]],[[2967,1529],[-113,14],[-109,34]],[[2745,1577],[-144,-19]],[[0,3973],[49,11],[85,8]],[[134,3992],[52,104]],[[509,3373],[168,32],[174,18],[28,136],[21,228],[35,145],[174,91],[173,73]],[[1647,2177],[55,63],[0,73],[77,37],[181,27],[192,68]],[[3573,4096],[-28,-150],[-53,-30],[-16,-77],[-56,-60],[-116,20],[-75,50],[-159,-35],[-112,52],[-112,-19],[-291,47],[-40,-45],[-102,6],[29,-20],[9,-68],[-81,-128]],[[2374,3643],[-210,-354],[-3,-58],[23,-21],[-16,-54],[-77,-86],[16,-48],[-23,-82],[25,-52],[55,-43],[170,-55],[72,-122],[74,-6],[20,-69],[388,-147],[148,-83],[216,-10],[127,180]],[[3379,2520],[1,13]],[[3504,3918],[1,0],[-1,0]],[[4096,3431],[-78,-35],[72,-67],[-15,-40],[-157,-32],[-48,52],[-30,0],[8,-27],[-40,1],[-58,-58],[-39,-89],[-166,-174],[7,-58],[-32,-27],[20,-125],[-81,-60],[-18,-68]],[[3379,2520],[1,13]],[[3842,1742],[-296,346],[-291,265],[124,180]],[[3446,2162],[1,1],[0,-1],[-1,0]],[[1378,0],[41,35],[20,6],[12,12],[16,57],[18,21],[-19,12],[-24,5],[-47,-3],[0,3],[-1,6],[-4,4],[-7,0],[-6,-6],[-3,-17],[-10,-8],[-20,-22],[49,5],[5,-29],[-26,-26],[-47,13],[-13,16],[-13,24],[-11,26],[-4,18],[-5,44],[9,10],[56,5],[15,7],[15,9],[21,9],[24,2],[60,-15],[24,5],[18,12],[15,13],[18,9],[24,4],[24,-3],[41,-13],[-3,13],[-4,25],[-3,13],[10,0],[6,-16],[11,-8],[15,-4],[19,2],[1,20],[3,13],[10,6],[19,-2],[5,2],[10,6],[7,9],[7,8],[12,3],[5,-2],[4,-4],[6,-5],[96,-5],[94,-23],[54,3],[16,-3],[9,-7],[24,-23],[17,-9],[11,6],[13,-7],[26,-25],[-6,-2],[-5,-1],[-5,-3],[-5,-7],[21,-14],[-27,-3],[-63,-22],[-72,-3],[-19,-9],[-5,-9],[-15,-44],[-29,-27],[-24,-5],[-22,1],[-18,-4],[-15,-16],[-26,1],[-24,-16],[-19,-26],[-14,-27],[-8,0],[-21,35],[-45,9],[-44,-19],[-9,-25],[-246,0]],[[4096,3181],[-9,1],[-32,16],[-17,24],[9,33],[24,16],[25,9],[0,-99]],[[4096,3332],[-6,6],[-15,8],[-12,11],[-5,22],[1,25],[5,16],[12,7],[20,-4],[0,-91]],[[4096,3181],[-9,1],[-32,16],[-17,24],[9,33],[24,16],[25,9]],[[4096,3332],[-6,6],[-15,8],[-12,11],[-5,22],[1,25],[5,16],[12,7],[20,-4]],[[1378,0],[41,35],[20,6],[12,12],[16,57],[18,21],[-19,12],[-24,5],[-47,-3],[0,3],[-1,6],[-4,4],[-7,0],[-6,-6],[-3,-17],[-10,-8],[-20,-22],[49,5],[5,-29],[-26,-26],[-47,13],[-13,16],[-13,24],[-11,26],[-4,18],[-5,44],[9,10],[56,5],[15,7],[15,9],[21,9],[24,2],[60,-15],[24,5],[18,12],[15,13],[18,9],[24,4],[24,-3],[41,-13],[-3,13],[-4,25],[-3,13],[10,0],[6,-16],[11,-8],[15,-4],[19,2],[1,20],[3,13],[10,6],[19,-2],[5,2],[10,6],[7,9],[7,8],[12,3],[5,-2],[4,-4],[6,-5],[96,-5],[94,-23],[54,3],[16,-3],[9,-7],[24,-23],[17,-9],[11,6],[13,-7],[26,-25],[-6,-2],[-5,-1],[-5,-3],[-5,-7],[21,-14],[-27,-3],[-63,-22],[-72,-3],[-19,-9],[-5,-9],[-15,-44],[-29,-27],[-24,-5],[-22,1],[-18,-4],[-15,-16],[-26,1],[-24,-16],[-19,-26],[-14,-27],[-8,0],[-21,35],[-45,9],[-44,-19],[-9,-25]],[[2505,4094],[9,2]],[[2505,4096],[0,-2]],[[3268,3835],[12,47],[0,47],[18,47],[-18,16],[6,47],[24,23],[6,24],[-12,10]],[[3268,3835],[-24,16],[-24,0],[-126,-16],[-60,0]],[[3346,3773],[-50,36]],[[3296,3809],[-4,3],[-24,23]],[[2469,3785],[-30,-20],[-24,-24],[-9,-19]],[[2406,3722],[-9,-20]],[[3034,3835],[-84,32],[-36,0],[-42,-16],[-78,0],[-55,8],[-72,23],[-36,8],[-48,-16],[-42,-47],[-42,-23],[-30,-19]],[[2404,3815],[-13,-58],[3,-26]],[[2394,3731],[3,-29]],[[2505,4094],[-18,-71],[24,-39],[-6,-16],[-72,-70],[-24,-63],[-5,-20]],[[4004,3706],[-13,-13]],[[3991,3693],[-14,-14],[-54,-16],[-12,-8]],[[4096,3702],[-17,0],[-72,8],[-3,-4]],[[1629,4096],[-7,-57],[-18,-47],[-36,-47],[12,-47],[18,-16],[72,-62],[-6,-40],[-42,-39],[-30,-62],[-60,-8],[-12,-8],[-12,-31]],[[1424,3608],[36,24],[48,0]],[[3845,3639],[-42,-31],[-48,-8],[-14,4]],[[3406,3744],[-60,29]],[[3741,3604],[-40,12],[-37,16],[-138,78],[-36,8],[-78,23],[-6,3]],[[3911,3655],[-12,-16],[-54,0]],[[2397,3702],[-42,-31],[-48,-63],[-36,-8]],[[1508,3632],[24,-8],[24,-16],[30,0],[84,31],[54,-15],[54,23],[18,-15],[60,23],[31,-23],[78,-47],[24,0],[18,31],[18,8],[60,-32],[60,-7],[72,7],[54,8]],[[1382,3444],[18,23],[18,47],[6,47],[0,47]],[[3910,3636],[-5,-91],[12,-31],[3,-4]],[[3911,3655],[-1,-19]],[[3920,3510],[27,-27],[54,-31],[0,-24],[6,-39]],[[1382,3444],[-24,-24],[-42,-39]],[[1370,3342],[18,23],[0,47],[-6,32]],[[4007,3389],[18,-55],[0,-23],[-12,-47],[-24,-16]],[[1316,3381],[-90,-78],[-60,-71]],[[2397,3702],[0,-55],[18,-86],[12,-70],[12,-79],[0,-39],[6,-78],[-6,-110],[-12,-55],[12,-23],[24,-24],[6,-31],[-36,-31],[-12,-31],[24,-16]],[[2445,2974],[12,-39],[-30,-133],[-6,-24]],[[2445,2974],[48,-8],[72,-31],[30,-55],[24,-16],[36,8],[18,0],[42,-31],[30,-47],[43,-8],[84,16],[36,-32],[36,-8],[96,24],[60,8],[54,0],[24,-8]],[[3556,2764],[-18,-25],[-24,-16],[-24,-8]],[[3989,3248],[-12,-16],[-54,0],[-78,-23],[-60,-24],[-36,-15],[-36,-118],[-18,-31],[-31,-24],[-54,-62],[-6,-39],[6,-55],[-18,-24],[-36,-53]],[[3490,2715],[-30,-23],[-48,-55],[-30,0],[-18,-39]],[[3259,2718],[27,-57],[42,-40],[36,-23]],[[3178,2786],[36,-16],[42,-47],[3,-5]],[[4096,3437],[-29,7],[-36,-39],[-24,-16]],[[3364,2598],[-6,-31]],[[601,2527],[36,47],[24,40],[6,23],[-24,24],[0,23],[54,39],[24,39],[54,110],[30,78],[30,118],[12,23],[66,24],[30,23],[31,16],[30,-8],[30,0],[60,39],[72,47]],[[3105,2530],[-23,4]],[[3358,2567],[-36,-24],[-90,-23],[-30,-8],[-39,7]],[[3082,2534],[-6,1]],[[3163,2519],[-58,11]],[[1316,2582],[36,-8],[48,16],[48,-55],[72,-31],[42,16],[54,-16]],[[2783,2514],[-26,6],[-78,-16]],[[3076,2535],[-42,0],[-36,8],[-30,0],[-66,-39],[-30,-8],[-36,8],[-53,10]],[[4096,3133],[-47,29],[-36,23],[-18,24],[-6,39]],[[2127,2434],[-18,31],[-12,70],[-18,24],[-30,23],[-12,32],[-24,86],[-30,47],[-42,39],[-30,8],[-61,62],[-18,40],[-36,31],[-24,31],[-48,32],[-24,23],[-48,86],[-6,55],[-12,23],[-36,24],[-84,47],[-144,94]],[[3358,2567],[-18,-94],[-6,-63]],[[3391,2413],[-21,-3],[-36,0]],[[3490,2715],[12,-31],[6,-94],[-3,-24]],[[3505,2566],[-9,-54],[-18,-47],[-12,-24],[-48,-23],[-27,-5]],[[1616,2504],[54,0],[42,-24],[60,-46],[30,0],[48,-24],[55,0],[66,16],[60,8],[96,0]],[[2679,2504],[-12,-5]],[[2667,2499],[-30,-11],[-72,-47],[-114,-78],[-30,-16]],[[2421,2778],[-72,-117],[-30,-24],[-18,-39],[-48,-55],[-24,-16],[-54,-23],[-12,-8],[0,-31],[48,-31],[36,-24],[42,-8],[84,-23],[48,-32]],[[931,2323],[43,-7],[36,8],[78,55],[42,8],[18,15],[18,33]],[[601,2527],[12,-15],[36,-8],[30,39],[24,0],[12,-47],[24,-16],[36,-7],[60,-55],[18,-39],[24,-47],[48,-8],[6,-1]],[[1166,2435],[12,22],[18,23],[72,32],[24,23],[24,47]],[[601,2527],[-30,-7],[-18,-24],[-66,-8],[-126,-39],[-30,-15],[-30,-8],[-60,-24],[-66,-15],[-54,-8],[-30,-16],[-91,-16]],[[2421,2347],[-78,-39]],[[2127,2434],[18,-47],[0,-71],[0,-23],[30,0],[42,23],[30,8],[96,-16]],[[1616,2504],[-30,-24],[-6,-46],[18,-32],[-6,-55],[36,0],[12,-7],[6,-40],[24,0],[0,-15],[-24,-8],[-6,-16],[36,-15],[6,-8]],[[1472,2065],[12,47],[24,16],[60,8],[24,31],[42,0],[24,16],[24,55]],[[2605,2108],[-16,12],[-3,4]],[[2586,2124],[-51,43],[-96,86],[-96,55]],[[2697,2065],[-78,32],[-14,11]],[[3339,2380],[-5,30]],[[3538,1995],[-66,70],[-30,47],[-42,32],[-60,62],[-18,40],[24,62],[0,24],[-7,48]],[[4096,1940],[-41,16],[-72,8],[-126,78],[-30,31],[-24,8],[-175,-47],[-90,-39]],[[3538,1995],[48,-39],[72,-24],[49,-39],[78,-31],[12,-16],[72,-102]],[[1262,1682],[6,55],[30,86],[6,70],[12,24],[54,31],[24,39],[36,31],[12,24],[30,23]],[[1262,1682],[-144,23],[-102,8],[-97,16],[-120,55],[-108,62],[-90,16],[-60,55],[-36,15],[-60,8],[-90,0],[-54,24],[-30,23],[-24,24],[-18,39],[-30,39],[-36,16],[-48,62],[-30,32],[-36,23],[-49,42]],[[1286,1674],[-24,8]],[[3869,1744],[36,-23],[24,-55],[0,-78],[12,-47],[30,-16],[24,0],[30,-23],[48,-55],[23,-17]],[[2770,1376],[-32,95]],[[2738,1471],[-5,15],[-12,47],[0,55],[24,39],[43,23],[30,32],[24,47],[-12,47],[-42,62],[-24,55],[-19,94],[-18,47],[-30,31]],[[2728,1364],[42,12]],[[2643,1353],[72,8],[13,3]],[[1286,1674],[66,-8],[66,-16],[108,-15],[114,-24],[24,-15],[120,-63],[72,-24],[61,8],[54,-8],[60,-39],[120,-23],[60,-16],[36,8],[30,23],[30,-7],[96,-55],[60,-24],[102,-15],[78,-8]],[[3226,1104],[0,6],[-12,24],[-53,30]],[[2807,1381],[-37,-5]],[[3161,1164],[-1,1],[-60,23],[-60,32],[-30,8],[-18,31],[0,55],[-18,31],[-30,31],[-24,8],[-84,0],[-29,-3]],[[3226,985],[-6,31],[6,88]],[[3373,906],[-58,0]],[[3315,906],[-23,0],[-36,24],[-18,31],[-12,24]],[[3556,860],[-42,-8],[-30,15],[-36,24],[-60,15],[-15,0]],[[1286,1674],[-24,-71],[-96,-117],[-54,-63],[-24,-15],[-108,-55],[-109,-31],[-18,-63],[-6,-94],[-6,-94],[-12,-71],[-6,-39],[18,-55],[24,-39],[48,-70],[24,-24],[55,-7]],[[974,734],[-31,-31],[-60,-31],[-90,-79],[-30,-39],[-30,-16],[-54,-23],[-30,0],[-60,23],[-60,55],[-30,24]],[[499,617],[-60,0],[-66,-24],[-30,-8],[-114,0],[-30,-7],[-24,-32],[-30,-31],[-60,-16],[-24,0],[-49,16],[-12,2]],[[1820,343],[-54,0],[-36,31],[-12,16],[-84,86],[-150,78],[-96,47],[-198,118],[-78,23],[-60,16],[-60,8]],[[3830,773],[-27,32],[-36,15],[-60,-15],[-33,-4]],[[3674,801],[-34,-4],[-30,8],[-24,31],[-30,24]],[[4096,372],[-5,2],[-30,39],[-12,55],[-30,31],[12,63],[-24,63],[-30,15],[-30,55],[-90,47],[-27,31]],[[2151,186],[30,8],[90,31],[24,24],[12,31],[0,47],[-12,8],[-24,39],[12,47],[6,47],[24,39],[48,0],[36,39],[42,16],[72,47],[36,39],[42,24],[48,15],[24,16],[24,55],[12,55],[0,54],[-18,102],[-12,31],[-30,55],[-12,32],[12,15],[36,32],[0,31],[-30,55],[0,133]],[[1820,343],[55,-8],[180,-24],[60,-23],[24,-31],[12,-71]],[[1214,155],[42,62],[36,16],[48,0],[66,24],[78,0],[42,15],[30,0],[30,16],[48,8],[30,39],[18,15],[30,0],[30,-15],[42,0],[36,8]],[[1214,155],[-84,-86],[-12,-24],[-12,-39],[-14,-6]],[[2151,186],[-24,-31],[-90,-32],[-30,-23],[-42,-55],[-36,-23],[-56,-22]],[[0,4096],[4096,0],[0,-4096],[-4096,0],[0,4096]],[[4096,190],[-44,12],[0,29],[44,19],[0,-60]],[[3694,876],[164,-13],[-15,-75],[-66,-72],[-101,75],[-12,72],[30,13]],[[3405,1011],[-36,-115],[-50,-4],[-27,98],[113,21]],[[3256,1103],[-35,1],[-75,34],[20,35],[35,-1],[75,-34],[-20,-35]],[[2758,1349],[-81,42],[43,71],[70,34],[0,-63],[33,-21],[-24,-46],[-41,-17]],[[2742,2045],[-116,63],[-46,0],[29,79],[56,19],[142,-35],[-16,-68],[-49,-58]],[[3454,2150],[-37,11],[-57,106],[76,-34],[18,-83]],[[2740,2467],[-95,42],[32,63],[-16,63],[108,-34],[28,-45],[-23,-68],[-34,-21]],[[3519,2825],[64,-105],[-64,-21],[0,-106],[-77,-148],[-134,-84],[-20,76],[-45,51],[-80,21],[0,21],[-82,0],[5,34],[60,29],[49,85],[48,0],[17,42],[64,-42],[81,21],[53,137],[30,25],[31,-36]],[[3329,3818],[92,-22],[-8,-46],[-24,-19],[-65,22],[-32,64],[37,1]],[[2451,3687],[-114,88],[41,42],[56,-4],[48,-39],[17,-63],[-48,-24]],[[3544,2372],[76,53],[229,86],[-73,-91],[55,28],[28,-49],[60,-5],[9,-40],[68,55],[17,-17],[-28,-29],[85,-55],[-40,-31],[47,6],[-19,-22],[17,-16],[21,30],[0,-63],[-19,3],[19,-16],[-86,11],[-9,-32],[38,-23],[-47,-53],[-59,78],[-73,1],[-14,59],[-61,10],[73,53],[73,-23],[-44,57],[-26,-12],[-114,79],[-53,-15],[-38,28],[-62,-46],[-50,1]],[[228,2967],[84,87],[49,-17],[44,29],[-20,31],[61,114],[4,80],[63,43],[36,-7],[20,-33],[-58,-58],[47,-63],[-44,-27],[17,-38],[-30,-3],[-12,-62],[27,-4],[47,-81],[-89,-66],[36,-22],[-48,-1],[-32,40],[-53,-10],[-71,27],[2,24],[-80,17]],[[931,2322],[12,28],[84,11],[133,79],[34,-25],[-5,-28],[44,0],[9,-40],[27,4],[6,-62],[-5,-32],[-90,-11],[-32,-37],[-131,-11],[-28,-34],[-56,56],[18,43],[-20,59]],[[3717,3723],[49,2],[9,-21],[47,33],[16,-51],[3,33],[19,-4],[-61,61],[67,20],[15,29],[191,-27],[17,20],[-3,-115],[-12,79],[-66,20],[12,-78],[-38,-1],[-13,-38],[-64,-6],[-10,35],[4,-63],[-35,40],[-38,-26],[23,-7],[-8,-18],[58,-9],[-43,-62],[20,9],[-11,-30],[47,93],[81,42],[-5,25],[108,-13],[0,-66],[-18,33],[-16,-22],[34,-26],[0,-166],[-28,18],[14,36],[-39,-11],[-39,36],[10,31],[64,-41],[-12,27],[24,-6],[-1,39],[-41,-7],[12,48],[-39,-26],[12,18],[-47,25],[-48,-15],[10,-39],[-38,-3],[39,-53],[-12,-15],[-186,0],[24,59],[-47,28],[84,46],[-40,-5],[-55,85]],[[3857,3700],[2,-8],[16,1],[10,-8],[-3,15],[-25,0]],[[4051,3631],[7,-6],[-2,15],[-4,-3],[-1,-6]],[[2830,1638],[110,48],[-7,46],[-47,42],[-7,204],[19,41],[62,20],[199,-47],[-27,-165],[109,-24],[-52,-99],[51,3],[2,42],[30,-1],[9,-44],[49,-11],[-36,-57],[26,-108],[-70,-65],[12,-22],[-30,-12],[-26,-68],[33,-111],[-126,-16],[-9,42],[-28,14],[58,59],[-30,38],[-35,-28],[-76,34],[-32,87],[-28,-8],[19,-37],[-86,-13],[-31,141],[22,52],[-27,23]]]}