{"objects":{"water":{"type":"GeometryCollection","geometries":[]},"buildings":{"type":"GeometryCollection","geometries":[]},"places":{"type":"GeometryCollection","geometries":[{"type":"Point","properties":{"name:ka":"\u10e1\u10d0\u10e3\u10d3\u10d8\u10e1 \u10d0\u10e0\u10d0\u10d1\u10d4\u10d7\u10d8","name:ko":"\uc0ac\uc6b0\ub514\uc544\ub77c\ube44\uc544","name:cv":"\u0421\u0430\u0443\u0434 \u0410\u0440\u0430\u0432\u0438\u0439\u04d7","name:km":"\u17a2\u17b6\u179a\u17c9\u17b6\u1794\u17ca\u17b8\u179f\u17b6\u17a2\u17ca\u17bc\u178c\u17b8\u178f","name:kl":"Saudi Arabia","name:cs":"Sa\u00fadsk\u00e1 Ar\u00e1bie","name:ki":"Saudi","name:kw":"Arabi Saoudek","name:kv":"\u0421\u0430\u0443\u0434\u0441\u0430 \u0410\u0440\u0430\u0432\u0438\u044f","name:ku":"Erebistana Siy\u00fbd\u00ee","name:ti":"\u1233\u12cd\u12f5\u12a0\u1228\u1262\u12eb","name:ks":"\u0633\u0648\u0657\u062f\u06cc \u0639\u0631\u0628\u0650\u06cc\u06c1","name:to":"Saute \u02bbAlepea","name:tl":"Arabyang Saudi","name:ce":"\u0421\u0430\u0443\u0434\u0438\u0439\u043d \u0410\u0440\u0430\u0432\u0438","name:ta":"\u0b9a\u0bb5\u0bc2\u0ba4\u0bbf \u0b85\u0bb0\u0bc7\u0baa\u0bbf\u0baf\u0bbe","name:tg":"\u0410\u0440\u0430\u0431\u0438\u0441\u0442\u043e\u043d\u0438 \u0421\u0430\u0443\u0434\u04e3","name:ca":"Ar\u00e0bia Saudita","name:te":"\u0c38\u0c4c\u0c26\u0c40 \u0c05\u0c30\u0c47\u0c2c\u0c3f\u0c2f\u0c3e","name:cy":"Sawdi-Arabia","name:hr":"Saudijska Arabija","name:da":"Saudi-Arabien","name:de":"Saudi-Arabien","name:dz":"\u0f66\u0f71\u0f5d\u0f0b\u0f51\u0f72\u0f0b \u0f68\u0f0b\u0f62\u0f7a\u0f0b\u0f56\u0fb7\u0f72\u0f0b\u0f61","source":"openstreetmap.org","name:kn":"\u0cb8\u0ccc\u0ca6\u0cbf \u0c85\u0cb0\u0cc7\u0cac\u0cbf\u0caf\u0cbe","name:dv":"\u0790\u07a6\u0787\u07ab\u078b\u07a9 \u0787\u07a6\u0783\u07a6\u0784\u07a8\u0787\u07b0\u0794\u07a7","name:lv":"Sa\u016bda Ar\u0101bija","name:lt":"Saudo Arabija","name:uz":"Saudiya Arabstoni","name:kk":"\u0421\u0430\u0443\u0434 \u0410\u0440\u0430\u0431\u0438\u044f","name:ur":"\u0633\u0639\u0648\u062f\u06cc \u0639\u0631\u0628","name:lb":"Saudi-Arabien","name:la":"Arabia Saudiana","name:lg":"Sawudarebya - Buwarabu","name:uk":"\u0421\u0430\u0443\u0434\u0456\u0432\u0441\u044c\u043a\u0430 \u0410\u0440\u0430\u0432\u0456\u044f","name:ug":"\u0633\u06d5\u0626\u06c7\u062f\u0649 \u0626\u06d5\u0631\u06d5\u0628\u0649\u0633\u062a\u0627\u0646","name:li":"Saoedi-Arabi\u00eb","name:ln":"Alabi Sawudit\u025b","name:lo":"\u0e8a\u0eb2\u0ead\u0eb8\u0e94\u0eb4\u0ead\u0eb2\u0ea5\u0eb0\u0ec0\u0e9a\u0e8d","name:el":"\u03a3\u03b1\u03bf\u03c5\u03b4\u03b9\u03ba\u03ae \u0391\u03c1\u03b1\u03b2\u03af\u03b1","name:eo":"Sauda Arabujo","name:en":"Saudi Arabia","name":"\u0627\u0644\u0633\u0639\u0648\u062f\u064a\u0629","name:tk":"Saud Arabystany","name:ee":"Saudi Arabia nutome","name:th":"\u0e1b\u0e23\u0e30\u0e40\u0e17\u0e28\u0e0b\u0e32\u0e2d\u0e38\u0e14\u0e35\u0e2d\u0e32\u0e23\u0e30\u0e40\u0e1a\u0e35\u0e22","name:eu":"Saudi Arabia","name:et":"Saudi Araabia","name:es":"Arabia Saudita","name:ia":"Arabia Saudita","name:rm":"Arabia Saudita","name:rn":"Arabiya Sawudite","name:az":"S\u0259udiyy\u0259 \u018fr\u0259bistan\u0131","name:ie":"Saudi Arabia","name:id":"Arab Saudi","name:pa":"\u0a38\u0a09\u0a26\u0a40 \u0a05\u0a30\u0a2c","name:io":"Saudia Arabia","name:av":"\u0421\u0430\u0433I\u0443\u0434\u0438\u044f\u0437\u0443\u043b \u0413I\u0430\u0440\u0430\u0431\u0438\u044f","name:ak":"Saudi Arabia","name:am":"\u1233\u12cd\u12f5\u12a0\u1228\u1262\u12eb","name:it":"Arabia Saudita","name:an":"Arabia Saud\u00ed","name:ru":"\u0421\u0430\u0443\u0434\u043e\u0432\u0441\u043a\u0430\u044f \u0410\u0440\u0430\u0432\u0438\u044f","name:rw":"Arabiya Sawudite","name:af":"Saoedi-Arabi\u00eb","name:zu":"i-Saudi Arabia","name:ky":"\u0421\u0430\u0443\u0434 \u0410\u0440\u0430\u0431\u0438\u044f \u041f\u0430\u0434\u044b\u0448\u0430\u043b\u044b\u0433\u044b","name:zh-yue":"\u6c99\u5730\u963f\u62c9\u4f2f","name:zh":"\u6c99\u7279\u963f\u62c9\u4f2f","name:so":"Sacuudi Carabiya","name:sn":"Saudi Arabia","name:sl":"Saudova Arabija","name:sk":"Saudsk\u00e1 Ar\u00e1bia","name:ja":"\u30b5\u30a6\u30b8\u30a2\u30e9\u30d3\u30a2","name:si":"\u0dc3\u0dde\u0daf\u0dd2 \u0d85\u0dbb\u0dcf\u0db6\u0dd2\u0dba","name:sh":"Saudijska Arabija","name:sg":"Sa\u00fbdi Arab\u00efi","name:se":"Saudi-Ar\u00e1bia","name:sa":"\u0938\u090a\u0926\u0940 \u0905\u0930\u092c","name:bs":"Saudijska Arabija","name:bm":"Arabiya Sawudiya","name:bn":"\u09b8\u09be\u0989\u09a6\u09bf \u0986\u09b0\u09ac","name:bo":"\u0f66\u0f7d\u0f0b\u0f51\u0fb7\u0f72\u0f0b\u0f68\u0f0b\u0f62\u0f71\u0f0b\u0f56\u0f72\u0f0b\u0f61\u0f0d","name:br":"Arabia Saoudat","name:sw":"Saudi","name:be":"\u0421\u0430\u0443\u0434\u0430\u045e\u0441\u043a\u0430\u044f \u0410\u0440\u0430\u0432\u0456\u044f","name:su":"Saudi Arabia","name:bg":"\u0421\u0430\u0443\u0434\u0438\u0442\u0441\u043a\u0430 \u0410\u0440\u0430\u0431\u0438\u044f","name:ss":"I-Arabhiya","name:ba":"\u0421\u04d9\u0493\u04af\u0434 \u0492\u04d9\u0440\u04d9\u0431\u0441\u0442\u0430\u043d\u044b","name:sq":"Arabia Saudite","name:jv":"Arab Saudi","name:pt":"Ar\u00e1bia Saudita","name:ps":"\u0633\u0639\u0648\u062f\u06cc \u0639\u0631\u0628\u0633\u062a\u0627\u0646","name:oc":"Arabia Saudita","min_zoom":2.0,"name:ro":"Arabia Saudit\u0103","name:zh-min-nan":"Saud \u00ea A-la-pek","name:os":"\u0421\u0430\u0443\u0434\u044b \u0410\u0440\u0430\u0432\u0438","name:or":"\u0b38\u0b3e\u0b09\u0b26\u0b3f \u0b06\u0b30\u0b2c\u0b3f\u0b06","name:pl":"Arabia Saudyjska","name:sr":"\u0421\u0430\u0443\u0434\u0438\u0458\u0441\u043a\u0430 \u0410\u0440\u0430\u0431\u0438\u0458\u0430","name:tr":"Suudi Arabistan","name:hi":"\u0938\u090a\u0926\u0940 \u0905\u0930\u092c","name:sv":"Saudiarabien","name:he":"\u05e2\u05e8\u05d1 \u05d4\u05e1\u05e2\u05d5\u05d3\u05d9\u05ea","name:ha":"\u0198asar Makka","name:hy":"\u054d\u0561\u0578\u0582\u0564\u056b\u0561\u0576 \u0531\u0580\u0561\u0562\u056b\u0561","name:ht":"Arabi Sawoudit","name:hu":"Sza\u00fad-Ar\u00e1bia","name:qu":"Sawud Arabya","population":27000000,"kind":"country","name:is":"S\u00e1d\u00ed-Arab\u00eda","name:yi":"\u05e1\u05d0\u05d5\u05d3\u05d9 \u05d0\u05e8\u05d0\u05d1\u05d9\u05e2","name:yo":"Or\u00edl\u1eb9\u0301\u00e8de Saudi Arabia","name:mt":"G\u0127arabja Sawdita","alt_name:eo":"Sauda Arabio;Sa\u016dda Arabujo;Sa\u016dda Arabio","name:ms":"Arab Saudi","name:mr":"\u0938\u094c\u0926\u0940 \u0905\u0930\u092c","name:my":"\u1006\u1031\u102c\u103a\u1012\u102e\u1021\u102c\u101b\u1031\u1038\u1017\u102e\u1038\u101a\u102c\u1038","int_name":"Saudi Arabia","name:mg":"Arabia saodita","name:ml":"\u0d38\u0d57\u0d26\u0d3f \u0d05\u0d31\u0d47\u0d2c\u0d4d\u0d2f","name:vi":"\u1ea2 R\u1eadp Saudi","name:mn":"\u0421\u0430\u0443\u0434\u044b\u043d \u0410\u0440\u0430\u0431","id":249399419,"name:mk":"\u0421\u0430\u0443\u0434\u0438\u0441\u043a\u0430 \u0410\u0440\u0430\u0431\u0438\u0458\u0430","name:vo":"Sauda-Larab\u00e4n","name:fa":"\u0639\u0631\u0628\u0633\u062a\u0627\u0646 \u0633\u0639\u0648\u062f\u06cc","name:ff":"Arabii Sawdit","name:fi":"Saudi-Arabia","name:fo":"Saudi-Ar\u00e1bia","alt_name:vi":"\u1ea2 R\u1eadp X\u00ea \u00dat; A-r\u1eadp X\u00ea-\u00fat","name:fr":"Arabie saoudite","name:fy":"Sa\u00fbdi-Araabje","name:nl":"Saoedi-Arabi\u00eb","name:nn":"Saudi Arabia","name:no":"Saudi-Arabia","name:na":"Taudiarabiya","name:ne":"\u0938\u093e\u0909\u0926\u0940 \u0905\u0930\u092c","name:wo":"Araabi Sawdit","name:nv":"\u00c1s\u00e1\u00ed Bik\u00e9yah Sa\u02bcood\u00ed","name:ga":"An Araib Sh\u00e1dach","name:gd":"Saud-Ar\u00e0ibia","name:gn":"Aravia Saud\u00edta","name:gl":"Arabia Saudita","name:gv":"Yn Araab Saudi","name:gu":"\u0ab8\u0abe\u0a89\u0aa6\u0ac0 \u0a85\u0ab0\u0ac7\u0aac\u0abf\u0aaf\u0abe","name:tt":"\u0421\u043e\u0433\u0443\u0434 \u0413\u0430\u0440\u04d9\u0431\u0441\u0442\u0430\u043d\u044b"},"coordinates":[241,1775]},{"type":"Point","properties":{"kind":"region","name:en":"Al Badai","name":"\u0627\u0644\u0628\u062f\u0627\u0626\u0639","kind_detail":"province","min_zoom":4.0,"name:de":"Al Badai","source":"openstreetmap.org","name:fr":"Al Badai","int_name":"Al Bad\u0101i , Al Badai","id":1236367283},"coordinates":[2247,2369]},{"type":"Point","properties":{"source":"naturalearthdata.com","kind":"locality","name":"Buraydah","population":398581,"region_capital":true,"min_zoom":7.0,"id":2639},"coordinates":[2586,2975]}]},"transit":{"type":"GeometryCollection","geometries":[]},"pois":{"type":"GeometryCollection","geometries":[]},"boundaries":{"type":"GeometryCollection","geometries":[{"type":"MultiLineString","properties":{"source":"naturalearthdata.com","kind":"region","name":"Al Quassim - Ar Riyad","sort_rank":256,"kind_detail":"4","min_zoom":5.0,"id":2056},"arcs":[[0],[1],[2],[3],[4],[5],[6],[7],[8]]},{"type":"MultiLineString","properties":{"source":"naturalearthdata.com","kind":"region","name":"Al Quassim - Ha'il","sort_rank":256,"kind_detail":"4","min_zoom":5.0,"id":2058},"arcs":[[9],[10],[11]]}]},"roads":{"type":"GeometryCollection","geometries":[{"type":"LineString","properties":{"source":"naturalearthdata.com","kind":"minor_road","sort_rank":355,"kind_detail":"tertiary","min_zoom":5.0,"id":31293},"arcs":[12]},{"type":"LineString","properties":{"source":"naturalearthdata.com","kind":"highway","kind_detail":"motorway","sort_rank":383,"landuse_kind":"urban_area","min_zoom":3.0,"id":31330},"arcs":[13]},{"type":"LineString","properties":{"source":"naturalearthdata.com","kind":"highway","sort_rank":383,"kind_detail":"motorway","min_zoom":3.0,"id":31330},"arcs":[14]},{"type":"LineString","properties":{"source":"naturalearthdata.com","kind":"major_road","kind_detail":"secondary","sort_rank":379,"landuse_kind":"urban_area","min_zoom":3.0,"id":31339},"arcs":[15]},{"type":"LineString","properties":{"source":"naturalearthdata.com","kind":"minor_road","sort_rank":355,"kind_detail":"tertiary","min_zoom":5.0,"id":31352},"arcs":[16]},{"type":"MultiLineString","properties":{"source":"naturalearthdata.com","kind":"highway","kind_detail":"motorway","sort_rank":383,"landuse_kind":"urban_area","min_zoom":3.0,"id":31393},"arcs":[[17],[18]]},{"type":"MultiLineString","properties":{"source":"naturalearthdata.com","kind":"highway","sort_rank":383,"kind_detail":"motorway","min_zoom":3.0,"id":31393},"arcs":[[19],[20]]},{"type":"LineString","properties":{"source":"naturalearthdata.com","kind":"highway","sort_rank":383,"kind_detail":"motorway","min_zoom":3.0,"id":31439},"arcs":[21]},{"type":"LineString","properties":{"source":"naturalearthdata.com","kind":"minor_road","sort_rank":355,"kind_detail":"tertiary","min_zoom":6.0,"id":31440},"arcs":[22]},{"type":"LineString","properties":{"source":"naturalearthdata.com","kind":"highway","sort_rank":383,"kind_detail":"motorway","min_zoom":3.0,"id":31507},"arcs":[23]},{"type":"LineString","properties":{"source":"naturalearthdata.com","kind":"highway","sort_rank":383,"kind_detail":"motorway","min_zoom":3.0,"id":31540},"arcs":[24]},{"type":"LineString","properties":{"source":"naturalearthdata.com","kind":"highway","sort_rank":383,"kind_detail":"motorway","min_zoom":3.0,"id":31553},"arcs":[25]},{"type":"LineString","properties":{"source":"naturalearthdata.com","kind":"major_road","sort_rank":379,"kind_detail":"secondary","min_zoom":3.0,"id":32020},"arcs":[26]},{"type":"LineString","properties":{"source":"naturalearthdata.com","kind":"highway","sort_rank":383,"kind_detail":"motorway","min_zoom":4.0,"id":48461},"arcs":[27]}]},"earth":{"type":"GeometryCollection","geometries":[{"type":"Polygon","properties":{"sort_rank":10,"source":"naturalearthdata.com","kind":"earth","min_zoom":0.0,"id":4716},"arcs":[[28]]}]},"landuse":{"type":"GeometryCollection","geometries":[{"type":"MultiPolygon","properties":{"source":"naturalearthdata.com","kind":"urban_area","name":"","area":1001432528,"sort_rank":11,"min_zoom":4.0},"arcs":[[[29]],[[30]],[[31]]]}]}},"type":"Topology","transform":{"translate":[42.1875,24.5271348226],"scale":[0.0006866455,0.0006181619]},"arcs":[[[3619,1686],[31,4],[27,11],[16,25],[11,30],[7,34],[3,46],[-2,57],[-14,96],[-15,58],[-20,47],[-41,73],[-10,38],[7,46],[16,76],[-8,50],[-3,7],[-111,149],[-129,217],[-34,44],[-116,114],[-24,32],[-16,33],[-6,32],[-1,35],[31,210],[-1,71],[-11,73],[4,37],[27,37],[33,19],[35,11],[56,12],[18,9],[25,22],[106,155],[54,61],[66,59],[36,26],[36,19],[71,26],[33,16],[29,23],[19,27],[11,25],[5,21],[0,4],[1,25],[-3,29],[-9,33],[-2,6]],[[2829,1714],[310,-41]],[[1226,251],[31,7],[34,18],[35,30],[29,40],[23,60],[2,43],[-11,39],[-37,66],[-15,33],[-6,33],[7,39],[20,44],[141,190],[138,140],[36,25],[34,17],[486,117],[59,27],[36,27],[78,74],[103,68],[31,31],[29,45],[54,109],[39,54],[23,24],[19,16],[24,16],[29,14],[32,10],[33,7],[67,0]],[[3486,1698],[133,-12]],[[3139,1673],[347,25]],[[118,419],[32,-6],[154,-80],[65,-24],[103,-26],[264,-29]],[[0,355],[11,11],[40,31],[33,16],[34,6]],[[1015,287],[69,-4],[114,-32],[28,0]],[[736,254],[72,2],[207,31]],[[1634,4096],[-22,-22],[-52,-65],[-60,-128],[-22,-37],[-31,-37],[-50,-35],[-333,-142],[-174,-112],[-384,-310],[-171,-196],[-41,-70],[-25,-58],[-10,-34],[-19,-29],[-29,-16],[-69,-17],[-36,-2]],[[106,2786],[-35,3]],[[71,2789],[-31,0],[-29,-14],[-11,-14]],[[2153,4096],[70,-134],[60,-87],[18,-26],[18,-47],[12,-87],[12,-113],[6,-54],[12,-46],[36,-87],[12,-54],[-6,-106],[0,-74],[0,-120],[6,-13]],[[2511,3001],[48,-33],[12,-27]],[[2409,3048],[30,-7],[42,-20],[30,-20]],[[2571,2941],[24,-27]],[[4096,2959],[-65,-31],[-48,-20],[-114,-27],[-48,-20],[-12,-7]],[[2595,2914],[0,-13]],[[2612,2869],[13,-19]],[[2595,2901],[0,-7],[17,-25]],[[2625,2850],[6,-9],[12,-33],[6,-74]],[[2649,2734],[30,0],[48,-13],[85,-7],[126,-33],[72,-33],[66,-27]],[[3130,2648],[30,-20],[30,-7],[30,0],[36,0],[42,20],[54,33],[138,67],[126,27],[36,13],[61,47],[48,26],[48,0]],[[3076,2621],[48,-20],[174,-20],[96,-20],[102,-7],[36,-13],[78,-14],[217,-60],[192,-46]],[[1100,2287],[84,74],[48,46],[48,20],[24,7],[126,0],[90,-7],[108,14],[78,6],[84,14],[54,0],[109,0],[36,6],[96,27],[12,27],[0,53],[18,80],[-6,60],[12,20],[18,27],[60,53],[90,114],[30,46],[48,54],[42,20]],[[4019,2421],[24,-14],[48,20],[5,3]],[[0,2105],[6,2],[43,13],[84,27],[60,7],[96,6],[108,0],[132,-13],[114,-13],[132,-14],[66,7],[72,27],[36,26],[109,74],[42,33]],[[2049,2494],[636,267]],[[0,4096],[4096,0],[0,-4096],[-4096,0],[0,4096]],[[3298,0],[-174,0],[-4,31],[43,33],[59,2],[5,-20],[81,-18],[-10,-28]],[[1966,2140],[-30,0],[-68,27],[18,30],[30,0],[65,-30],[-15,-27]],[[2630,3021],[-1,-9],[32,-162],[-49,0],[0,36],[-111,96],[20,38],[120,24],[-11,-23]]]}