{"objects":{"water":{"type":"GeometryCollection","geometries":[{"type":"Polygon","properties":{"source":"naturalearthdata.com","kind":"ocean","area":1576712559132672,"sort_rank":200,"min_zoom":0.0,"id":1},"arcs":[[8],[9]]},{"type":"LineString","properties":{"source":"naturalearthdata.com","kind":"ocean","sort_rank":205,"boundary":true,"min_zoom":0.0,"id":55},"arcs":[10]},{"type":"MultiLineString","properties":{"source":"naturalearthdata.com","kind":"ocean","sort_rank":205,"boundary":true,"min_zoom":0.0,"id":2763},"arcs":[[11],[12]]},{"type":"LineString","properties":{"source":"naturalearthdata.com","kind":"ocean","sort_rank":205,"boundary":true,"min_zoom":0.0,"id":4085},"arcs":[13]},{"type":"MultiLineString","properties":{"source":"naturalearthdata.com","kind":"ocean","sort_rank":205,"boundary":true,"min_zoom":0.0,"id":4086},"arcs":[[14],[15]]}]},"buildings":{"type":"GeometryCollection","geometries":[]},"places":{"type":"GeometryCollection","geometries":[{"type":"Point","properties":{"name:pt":"Bahrein","name:cy":"Bahrain","name:mt":"Ba\u0127rajn","name:ko":"\ubc14\ub808\uc778","name:kn":"\u0cac\u0cb9\u0cb0\u0cc8\u0ca8\u0ccd","name:km":"\u1794\u17b6\u179a\u17c9\u17c2\u1793","name:kl":"Bahrain","name:cs":"Bahrajn","name:ki":"Bahareni","name:tr":"Bahreyn","name:ku":"Behreyn","name:ti":"\u1263\u1205\u122c\u1295","name:ks":"\u0628\u062d\u0631\u06cc\u0656\u0646","name:to":"Paleini","name:sv":"Bahrain","name:or":"\u0b2c\u0b3e\u0b39\u0b3e\u0b30\u0b3f\u0b28\u0b4d","name:pl":"Bahrajn","name:ta":"\u0baa\u0bb9\u0bcd\u0bb0\u0bc8\u0ba9\u0bcd","name:ca":"Bahrain","name:te":"\u0c2c\u0c39\u0c30\u0c47\u0c28\u0c4d","name:hu":"Bahrein","name:ro":"Bahrein","name:ka":"\u10d1\u10d0\u10f0\u10e0\u10d4\u10d8\u10dc\u10d8","name:hr":"Bahrein","name:da":"Bahrain","name:de":"Bahrain","name:dz":"\u0f56\u0fb7\u0f0b\u0f62\u0f7a\u0f53","source":"openstreetmap.org","name:lv":"Bahreina","name:lt":"Bahreinas","name:uz":"Baxreyn","name:kk":"\u0411\u0430\u0445\u0440\u0435\u0439\u043d","name:he":"\u05d1\u05d7\u05e8\u05d9\u05d9\u05df","kind":"country","name:ur":"\u0628\u062d\u0631\u06cc\u0646","name:lb":"Bahrain","name:la":"Baharina","name:lg":"Baareeni","name:uk":"\u0411\u0430\u0445\u0440\u0435\u0439\u043d","name:hy":"\u0532\u0561\u0570\u0580\u0565\u0575\u0576","min_zoom":2.0,"name:li":"Bahrein","name:ln":"Bahr\u025bn\u025b","name:lo":"\u0e9a\u0eb2\u0ec0\u0ea5\u0e99","population":1234571,"name:el":"\u039c\u03c0\u03b1\u03c7\u03c1\u03ad\u03b9\u03bd","name:eo":"Barejno","name:en":"Bahrain","name":"\u0627\u0644\u0628\u062d\u0631\u064a\u0646","official_name":"\u200e\u0645\u0645\u0644\u0643\u0629 \u0627\u0644\u0628\u062d\u0631\u064a\u0646 (Mamlakat al-Ba\u1e25rayn)","name:ee":"Bahrain nutome","name:th":"\u0e1b\u0e23\u0e30\u0e40\u0e17\u0e28\u0e1a\u0e32\u0e2b\u0e4c\u0e40\u0e23\u0e19","name:gu":"\u0aac\u0ac7\u0ab9\u0ab0\u0ac0\u0aa8","name:eu":"Bahrain","name:et":"Bahrein","name:nl":"Bahrein","name:es":"Bahr\u00e9in","name:ia":"Bahrain","name:rm":"Bahrain","name:rn":"Bahareyini","name:az":"Bahreyn","name:id":"Bahrain","name:ms":"Bahrain","name:mr":"\u092c\u0939\u093e\u0930\u0940\u0928","name:my":"\u1018\u102c\u101b\u102d\u1014\u103a\u1038","name:io":"Bahrain","int_name":"Bahrain","name:is":"Barein","name:am":"\u1263\u1205\u122c\u1295","name:it":"Bahrain","name:vi":"Bahrain","name:ru":"\u0411\u0430\u0445\u0440\u0435\u0439\u043d","name:mn":"\u0411\u0430\u0445\u0440\u0435\u0439\u043d","id":424297207,"name:mk":"\u0411\u0430\u0445\u0440\u0435\u0438\u043d","name:af":"Bahrein","name:zu":"i-Bahrain","name:ha":"Baharan","name:nn":"Bahrain","name:ff":"Bahreyn","name:fi":"Bahrain","name:hi":"\u092c\u093e\u0939\u0930\u0947\u0928","name:mg":"Bahrain","name:fo":"Bahrain","name:fr":"Bahre\u00efn","name:fy":"De Barein","name:vo":"Bahru\u00e4ns","name:zh":"\u5df4\u6797","name:gv":"Bahrain","name:so":"Baxreyn","name:sn":"Bahareni","name:sl":"Bahrajn","name:sk":"Bahrajn","name:ja":"\u30d0\u30fc\u30ec\u30fc\u30f3","name:si":"\u0db6\u0dc4\u0dbb\u0dda\u0db1\u0dca","name:fa":"\u0628\u062d\u0631\u064a\u0646","name:sg":"Bahr\u00e2ina","name:se":"Bahrain","name:ne":"\u092c\u093e\u0939\u094d\u0930\u0947\u0928","name:br":"Bahrein","name:bs":"Bahrein","name:bm":"Bareyini","name:bn":"\u09ac\u09be\u09b9\u09b0\u09be\u0987\u09a8","name:bo":"\u0f56\u0fb7\u0f71\u0f0b\u0f62\u0f7a\u0f53\u0f0d","name:ml":"\u0d2c\u0d39\u0d4d\u0d31\u0d48\u0d7b","name:no":"Bahrain","name:sw":"Bahareni","name:be":"\u0411\u0430\u0445\u0440\u044d\u0439\u043d","name:bg":"\u0411\u0430\u0445\u0440\u0435\u0439\u043d","name:sr":"\u0411\u0430\u0445\u0440\u0435\u0438\u043d","name:sq":"Bahrein","name:ga":"Bair\u00e9in","name:gd":"Bachrain","name:gl":"Bahrein","name:yo":"Or\u00edl\u1eb9\u0301\u00e8de B\u00e1r\u00e1n\u00ec","name:ak":"Baren"},"coordinates":[3964,2634]},{"type":"Point","properties":{"source":"naturalearthdata.com","kind":"locality","name":"Manama","country_capital":true,"population":563920,"min_zoom":5.0,"id":6766},"coordinates":[4035,2765]},{"type":"Point","properties":{"source":"naturalearthdata.com","kind":"locality","name":"Al Hufuf","population":637389,"min_zoom":6.0,"id":4990},"coordinates":[2582,1329]},{"type":"Point","properties":{"source":"naturalearthdata.com","kind":"locality","name":"Ad Damman","population":2054710,"region_capital":true,"min_zoom":7.0,"id":2678},"coordinates":[3328,3078]},{"type":"Point","properties":{"source":"naturalearthdata.com","kind":"locality","name":"Al Jubayl","population":237274,"min_zoom":7.0,"id":2680},"coordinates":[2670,4008]}]},"transit":{"type":"GeometryCollection","geometries":[]},"pois":{"type":"GeometryCollection","geometries":[]},"boundaries":{"type":"GeometryCollection","geometries":[{"type":"LineString","properties":{"source":"naturalearthdata.com","kind":"region","name":"Ash Sharqiyah - Ar Riyad","sort_rank":256,"kind_detail":"4","min_zoom":5.0,"id":2066},"arcs":[0]},{"type":"MultiLineString","properties":{"source":"naturalearthdata.com","kind":"region","name":"Al Wus\u0163\u00e1 - Al Jan\u016bb\u012byah","sort_rank":256,"kind_detail":"4","min_zoom":7.0,"id":8232},"arcs":[[1],[2],[3]]},{"type":"LineString","properties":{"source":"naturalearthdata.com","kind":"region","name":"Al Man\u0101mah - Ash Sham\u0101l\u012byah","sort_rank":256,"kind_detail":"4","min_zoom":7.0,"id":8229},"arcs":[4]},{"type":"MultiLineString","properties":{"source":"naturalearthdata.com","kind":"region","name":"Al Jan\u016bb\u012byah - Ash Sham\u0101l\u012byah","sort_rank":256,"kind_detail":"4","min_zoom":7.0,"id":8230},"arcs":[[5],[6]]},{"type":"LineString","properties":{"source":"naturalearthdata.com","kind":"region","name":"Al Wus\u0163\u00e1 - Ash Sham\u0101l\u012byah","sort_rank":256,"kind_detail":"4","min_zoom":7.0,"id":8231},"arcs":[7]}]},"roads":{"type":"GeometryCollection","geometries":[{"type":"LineString","properties":{"source":"naturalearthdata.com","kind":"highway","kind_detail":"motorway","sort_rank":383,"landuse_kind":"urban_area","min_zoom":6.0,"id":31147},"arcs":[16]},{"type":"LineString","properties":{"source":"naturalearthdata.com","kind":"highway","sort_rank":383,"kind_detail":"motorway","min_zoom":6.0,"id":31147},"arcs":[17]},{"type":"LineString","properties":{"source":"naturalearthdata.com","kind":"highway","kind_detail":"motorway","sort_rank":383,"landuse_kind":"urban_area","min_zoom":6.0,"id":31224},"arcs":[18]},{"type":"MultiLineString","properties":{"source":"naturalearthdata.com","kind":"highway","sort_rank":383,"kind_detail":"motorway","min_zoom":6.0,"id":31224},"arcs":[[19],[20]]},{"type":"LineString","properties":{"source":"naturalearthdata.com","kind":"highway","sort_rank":383,"kind_detail":"motorway","min_zoom":3.0,"id":31225},"arcs":[21]},{"type":"LineString","properties":{"source":"naturalearthdata.com","kind":"highway","kind_detail":"motorway","sort_rank":383,"landuse_kind":"urban_area","min_zoom":4.0,"id":31297},"arcs":[22]},{"type":"LineString","properties":{"source":"naturalearthdata.com","kind":"highway","sort_rank":383,"kind_detail":"motorway","min_zoom":4.0,"id":31297},"arcs":[23]},{"type":"MultiLineString","properties":{"source":"naturalearthdata.com","kind":"highway","kind_detail":"motorway","sort_rank":383,"landuse_kind":"urban_area","min_zoom":4.0,"id":31357},"arcs":[[24],[25]]},{"type":"LineString","properties":{"source":"naturalearthdata.com","kind":"highway","sort_rank":383,"kind_detail":"motorway","min_zoom":4.0,"id":31357},"arcs":[26]},{"type":"LineString","properties":{"source":"naturalearthdata.com","kind":"major_road","kind_detail":"secondary","sort_rank":379,"landuse_kind":"urban_area","min_zoom":4.0,"id":31384},"arcs":[27]},{"type":"LineString","properties":{"source":"naturalearthdata.com","kind":"highway","kind_detail":"motorway","sort_rank":383,"landuse_kind":"urban_area","min_zoom":4.0,"id":31391},"arcs":[28]},{"type":"LineString","properties":{"source":"naturalearthdata.com","kind":"highway","sort_rank":383,"kind_detail":"motorway","min_zoom":4.0,"id":31391},"arcs":[29]},{"type":"LineString","properties":{"source":"naturalearthdata.com","kind":"minor_road","kind_detail":"tertiary","sort_rank":355,"landuse_kind":"urban_area","min_zoom":5.0,"id":31395},"arcs":[30]},{"type":"LineString","properties":{"source":"naturalearthdata.com","kind":"highway","sort_rank":383,"kind_detail":"motorway","min_zoom":4.0,"id":31411},"arcs":[31]},{"type":"LineString","properties":{"source":"naturalearthdata.com","kind":"highway","sort_rank":383,"kind_detail":"motorway","min_zoom":4.0,"id":31414},"arcs":[32]},{"type":"MultiLineString","properties":{"source":"naturalearthdata.com","kind":"highway","kind_detail":"motorway","sort_rank":383,"landuse_kind":"urban_area","min_zoom":4.0,"id":31421},"arcs":[[33],[34]]},{"type":"LineString","properties":{"source":"naturalearthdata.com","kind":"highway","kind_detail":"motorway","sort_rank":383,"landuse_kind":"urban_area","min_zoom":4.0,"id":31421},"arcs":[35]},{"type":"MultiLineString","properties":{"source":"naturalearthdata.com","kind":"highway","sort_rank":383,"kind_detail":"motorway","min_zoom":4.0,"id":31421},"arcs":[[36],[37]]},{"type":"LineString","properties":{"source":"naturalearthdata.com","kind":"highway","kind_detail":"motorway","sort_rank":383,"landuse_kind":"urban_area","min_zoom":3.0,"id":31486},"arcs":[38]},{"type":"LineString","properties":{"source":"naturalearthdata.com","kind":"highway","sort_rank":383,"kind_detail":"motorway","min_zoom":3.0,"id":31486},"arcs":[39]},{"type":"LineString","properties":{"source":"naturalearthdata.com","kind":"highway","sort_rank":383,"kind_detail":"motorway","min_zoom":3.0,"id":31555},"arcs":[40]},{"type":"LineString","properties":{"source":"naturalearthdata.com","kind":"highway","kind_detail":"motorway","sort_rank":383,"landuse_kind":"urban_area","min_zoom":4.0,"id":31557},"arcs":[41]},{"type":"LineString","properties":{"source":"naturalearthdata.com","kind":"highway","sort_rank":383,"kind_detail":"motorway","min_zoom":4.0,"id":31557},"arcs":[42]},{"type":"LineString","properties":{"source":"naturalearthdata.com","kind":"minor_road","kind_detail":"tertiary","sort_rank":355,"landuse_kind":"urban_area","min_zoom":7.0,"id":31573},"arcs":[43]},{"type":"LineString","properties":{"source":"naturalearthdata.com","kind":"minor_road","sort_rank":355,"kind_detail":"tertiary","min_zoom":7.0,"id":31573},"arcs":[44]},{"type":"LineString","properties":{"source":"naturalearthdata.com","kind":"highway","kind_detail":"motorway","sort_rank":383,"landuse_kind":"urban_area","min_zoom":4.0,"id":31650},"arcs":[45]},{"type":"LineString","properties":{"source":"naturalearthdata.com","kind":"highway","sort_rank":383,"kind_detail":"motorway","min_zoom":4.0,"id":31650},"arcs":[46]},{"type":"LineString","properties":{"source":"naturalearthdata.com","kind":"highway","sort_rank":383,"kind_detail":"motorway","min_zoom":3.0,"id":31797},"arcs":[47]},{"type":"LineString","properties":{"source":"naturalearthdata.com","kind":"highway","sort_rank":383,"kind_detail":"motorway","min_zoom":3.0,"id":31828},"arcs":[48]},{"type":"LineString","properties":{"source":"naturalearthdata.com","kind":"highway","sort_rank":383,"kind_detail":"motorway","min_zoom":4.0,"id":31836},"arcs":[49]},{"type":"LineString","properties":{"source":"naturalearthdata.com","kind":"highway","sort_rank":383,"kind_detail":"motorway","min_zoom":3.0,"id":31837},"arcs":[50]},{"type":"LineString","properties":{"source":"naturalearthdata.com","kind":"highway","kind_detail":"motorway","sort_rank":383,"landuse_kind":"urban_area","min_zoom":3.0,"id":31839},"arcs":[51]},{"type":"LineString","properties":{"source":"naturalearthdata.com","kind":"highway","sort_rank":383,"kind_detail":"motorway","min_zoom":3.0,"id":31839},"arcs":[52]},{"type":"LineString","properties":{"source":"naturalearthdata.com","kind":"minor_road","sort_rank":355,"kind_detail":"tertiary","min_zoom":5.0,"id":31964},"arcs":[53]},{"type":"LineString","properties":{"source":"naturalearthdata.com","kind":"major_road","sort_rank":379,"kind_detail":"secondary","min_zoom":4.0,"id":32005},"arcs":[54]},{"type":"LineString","properties":{"source":"naturalearthdata.com","kind":"highway","sort_rank":383,"kind_detail":"motorway","min_zoom":3.0,"id":32078},"arcs":[55]},{"type":"LineString","properties":{"source":"naturalearthdata.com","kind":"major_road","sort_rank":379,"kind_detail":"secondary","min_zoom":4.0,"id":32129},"arcs":[56]},{"type":"LineString","properties":{"source":"naturalearthdata.com","kind":"major_road","kind_detail":"secondary","sort_rank":379,"landuse_kind":"urban_area","min_zoom":3.0,"id":32173},"arcs":[57]},{"type":"LineString","properties":{"source":"naturalearthdata.com","kind":"major_road","sort_rank":379,"kind_detail":"secondary","min_zoom":3.0,"id":32173},"arcs":[58]},{"type":"LineString","properties":{"source":"naturalearthdata.com","kind":"major_road","sort_rank":379,"kind_detail":"secondary","min_zoom":3.0,"id":32249},"arcs":[59]},{"type":"LineString","properties":{"source":"naturalearthdata.com","kind":"minor_road","sort_rank":355,"kind_detail":"tertiary","min_zoom":5.0,"id":32529},"arcs":[60]},{"type":"LineString","properties":{"source":"naturalearthdata.com","kind":"highway","sort_rank":383,"kind_detail":"motorway","min_zoom":3.0,"id":48462},"arcs":[61]}]},"earth":{"type":"GeometryCollection","geometries":[{"type":"MultiPolygon","properties":{"sort_rank":10,"source":"naturalearthdata.com","min_zoom":0.0,"kind":"earth","area":380123107043},"arcs":[[[62]],[[63]]]}]},"landuse":{"type":"GeometryCollection","geometries":[{"type":"MultiPolygon","properties":{"source":"naturalearthdata.com","kind":"urban_area","name":"","area":2206617877,"sort_rank":11,"min_zoom":4.0},"arcs":[[[64]],[[65],[66]],[[67]],[[68]],[[69]],[[70]]]}]}},"type":"Topology","transform":{"translate":[47.8125,24.5271348226],"scale":[0.0006866455,0.0006181619]},"arcs":[[[0,40],[55,-40]],[[3950,2591],[65,-21]],[[4032,2580],[51,-42]],[[4015,2570],[17,10]],[[3920,2774],[-3,-42],[48,-4],[24,-31]],[[3950,2591],[9,-40],[12,-77],[-35,-15]],[[3936,2459],[-35,1]],[[3989,2697],[-43,-10],[-18,-17],[22,-79]],[[4096,799],[-27,35],[-38,32],[-11,-32],[-15,20],[-13,37],[-12,66],[9,66],[-4,25],[-21,39],[-8,28],[-6,11],[-7,14],[-3,21],[1,21],[8,36],[1,20],[-6,36],[-17,47],[-19,43],[-18,24],[11,12],[-29,72],[-12,16],[-50,15],[-27,13],[-12,22],[-3,4],[-7,5],[-7,8],[-6,36],[-7,4],[-15,-8],[-13,-8],[4,-21],[10,-25],[4,-22],[-38,34],[-166,215],[-56,117],[-10,0],[-2,-7],[-8,-17],[-11,17],[-38,27],[-10,23],[5,31],[21,-2],[23,-19],[18,-27],[18,-12],[21,-10],[18,-4],[10,-13],[26,-77],[9,0],[-15,77],[-37,61],[-87,106],[-30,54],[-34,84],[-15,76],[29,30],[0,11],[-16,29],[-8,29],[-15,22],[-37,9],[-9,0],[-4,2],[-1,5],[-1,10],[-1,12],[-4,2],[-7,-2],[-7,4],[-17,20],[-10,9],[-14,4],[6,-27],[-11,-24],[-20,-13],[-25,9],[10,25],[-1,23],[-5,23],[-4,23],[5,13],[10,6],[10,4],[5,4],[-2,16],[-14,23],[-3,12],[-9,8],[-15,21],[-7,21],[16,11],[11,10],[38,73],[17,6],[19,-11],[18,-17],[11,-16],[6,-13],[3,-11],[3,-45],[4,-4],[7,0],[8,-6],[12,-12],[14,-10],[13,-13],[10,-20],[2,-24],[0,-25],[6,-23],[23,-17],[13,44],[11,63],[4,63],[-9,41],[13,17],[15,6],[12,-8],[0,-25],[29,18],[15,32],[5,39],[1,176],[-10,73],[-26,55],[-43,39],[-125,43],[-26,16],[-24,24],[-17,26],[-39,123],[-2,27],[6,99],[-4,8],[-14,15],[-11,16],[-5,18],[0,19],[1,20],[7,27],[13,27],[13,10],[11,-60],[14,-18],[21,-7],[80,-10],[35,-22],[66,-58],[-5,41],[-25,27],[-106,76],[-24,45],[-73,98],[-43,41],[-44,26],[-37,5],[-34,-2],[-32,4],[-56,41],[-91,42],[-15,11],[-21,22],[-14,11],[-41,18],[-13,10],[-43,53],[-70,110],[1461,0],[0,-1252],[-34,-10],[-3,-26],[19,-35],[12,5],[6,-1],[0,-114],[-7,20],[-22,-18],[-15,-23],[-63,55],[20,7],[42,-5],[14,3],[8,18],[-3,6],[-3,7],[-11,14],[-6,22],[-10,6],[-60,-24],[-19,9],[-23,10],[-18,4],[-31,1],[-2,0],[-19,-9],[-11,-19],[-17,-76],[0,-27],[5,-19],[25,-44],[22,-60],[9,-61],[-8,-23],[-8,-24],[-29,-54],[11,-45],[64,-72],[29,-45],[23,-52],[16,-54],[10,-49],[43,70],[13,35],[21,179],[4,142],[-9,94],[15,4],[0,-1767]],[[3781,2660],[-16,5],[-22,-24],[-3,-33],[8,-26],[28,2],[26,-7],[-3,24],[-3,23],[0,27],[-15,9]],[[4096,799],[-27,35],[-38,32],[-11,-32],[-15,20],[-13,37],[-12,66],[9,66],[-4,25],[-21,39],[-8,28],[-6,11],[-7,14],[-3,21],[1,21],[8,36],[1,20],[-6,36],[-17,47],[-19,43],[-18,24],[11,12],[-29,72],[-12,16],[-50,15],[-27,13],[-12,22],[-3,4],[-7,5],[-7,8],[-6,36],[-7,4],[-15,-8],[-13,-8],[4,-21],[10,-25],[4,-22],[-38,34],[-166,215],[-56,117],[-10,0],[-2,-7],[-8,-17],[-11,17],[-38,27],[-10,23],[5,31],[21,-2],[23,-19],[18,-27],[18,-12],[21,-10],[18,-4],[10,-13],[26,-77],[9,0],[-15,77],[-37,61],[-87,106],[-30,54],[-34,84],[-15,76],[29,30],[0,11],[-16,29],[-8,29],[-15,22],[-37,9],[-9,0],[-4,2],[-1,5],[-1,10],[-1,12],[-4,2],[-7,-2],[-7,4],[-17,20],[-10,9],[-14,4],[6,-27],[-11,-24],[-20,-13],[-25,9],[10,25],[-1,23],[-5,23],[-4,23],[5,13],[10,6],[10,4],[5,4],[-2,16],[-14,23],[-3,12],[-9,8],[-15,21],[-7,21],[16,11],[11,10],[38,73],[17,6],[19,-11],[18,-17],[11,-16],[6,-13],[3,-11],[3,-45],[4,-4],[7,0],[8,-6],[12,-12],[14,-10],[13,-13],[10,-20],[2,-24],[0,-25],[6,-23],[23,-17],[13,44],[11,63],[4,63],[-9,41],[13,17],[15,6],[12,-8],[0,-25],[29,18],[15,32],[5,39],[1,176],[-10,73],[-26,55],[-43,39],[-125,43],[-26,16],[-24,24],[-17,26],[-39,123],[-2,27],[6,99],[-4,8],[-14,15],[-11,16],[-5,18],[0,19],[1,20],[7,27],[13,27],[13,10],[11,-60],[14,-18],[21,-7],[80,-10],[35,-22],[66,-58],[-5,41],[-25,27],[-106,76],[-24,45],[-73,98],[-43,41],[-44,26],[-37,5],[-34,-2],[-32,4],[-56,41],[-91,42],[-15,11],[-21,22],[-14,11],[-41,18],[-13,10],[-43,53],[-70,110]],[[3989,2697],[20,7],[42,-5],[14,3],[8,18],[-3,6],[-3,7],[-11,14],[-6,22],[-10,6],[-60,-24],[-19,9],[-23,10],[-18,4],[-31,1],[-2,0],[-19,-9],[-11,-19],[-17,-76],[0,-27],[5,-19],[25,-44],[22,-60],[9,-61],[-8,-23],[-8,-24],[-29,-54],[11,-45],[64,-72],[29,-45],[23,-52],[16,-54],[10,-49],[43,70],[13,35],[21,179],[4,142],[-9,94],[15,4]],[[4096,2663],[-7,20],[-22,-18],[-15,-23],[-63,55]],[[3765,2665],[16,-5],[15,-9],[0,-27],[3,-23],[3,-24],[-26,7],[-28,-2],[-8,26],[3,33],[22,24]],[[4062,2834],[-3,-26],[19,-35],[12,5],[6,-1]],[[4096,2844],[-34,-10]],[[2754,3867],[-26,22],[-36,53],[-12,27],[-6,33]],[[3083,3421],[6,34],[-48,53],[-42,54],[-30,53],[-78,113],[-42,54],[-48,46],[-47,39]],[[3112,3278],[-2,8]],[[3110,3286],[-21,95],[-6,40]],[[3125,3221],[-13,57]],[[2104,4096],[132,-121],[60,-46],[108,-80],[78,-74],[54,-40],[48,-40],[54,-33],[30,-20],[79,-114],[150,-120],[42,-27],[48,-40],[138,-120]],[[3134,3208],[39,-60],[30,-27],[72,-53],[36,-33]],[[3125,3221],[9,-13]],[[3361,3002],[-8,53],[-42,-20]],[[3485,2834],[-18,20],[-48,40],[-24,27],[-5,9]],[[3390,2930],[-25,44],[-4,28]],[[3497,2748],[-6,53],[-6,33]],[[3329,2867],[30,21],[48,-14],[78,-40]],[[3191,2741],[72,73],[48,40],[18,13]],[[4026,2741],[-30,-7]],[[3155,2708],[36,33]],[[3125,2681],[30,27]],[[3895,2675],[-1,-1],[-51,-12]],[[3996,2734],[-32,-19]],[[3498,2748],[-1,0]],[[3843,2662],[-3,-1],[-102,7],[-72,20],[-151,66],[-17,-6]],[[3964,2715],[-69,-40]],[[3311,3035],[-44,-35]],[[3267,3000],[-16,-12],[-24,-14],[-60,-13],[-108,-20],[-108,-40],[-60,-13],[-169,-54],[-90,-33],[-54,-27],[-24,-20],[-48,-46],[-114,-54],[-108,-80],[-66,-33],[-60,-27],[-102,-27]],[[2056,2487],[-60,-26],[-84,-40],[-78,-60],[-85,-67],[-66,-47]],[[2668,2247],[30,47],[27,29]],[[2725,2323],[40,44],[18,27],[6,47],[6,20],[24,26],[30,14],[78,33],[24,13],[132,101],[42,33]],[[2665,2245],[3,2]],[[2428,2187],[138,14],[48,13],[51,31]],[[2668,2247],[-3,-6]],[[2665,2241],[-27,-40],[-72,-81],[-84,-86],[-18,-27],[-24,-60]],[[1683,2247],[-42,-26],[-78,-67],[-84,-47],[-168,-100],[-84,-60],[-108,-73],[-60,-34],[-84,-46],[-73,-47],[-108,-47],[-54,-27],[-54,-20],[-48,-6],[-132,-74],[-102,-53],[-84,-47],[-60,-33]],[[2038,1353],[66,0],[48,7]],[[2440,1947],[-18,-47],[6,-106],[0,-34],[-24,-47],[-30,-33],[-24,-53],[-12,-20],[-24,-67],[-36,-127],[0,-73]],[[2152,1360],[24,0],[102,-20]],[[2503,1444],[21,3],[30,0],[36,-20]],[[2278,1340],[30,0],[54,53],[54,20],[54,27],[33,4]],[[2278,1340],[0,-60],[-18,-67],[6,-73],[-6,-47],[-6,-47],[-18,-40],[-30,-33]],[[326,893],[72,6],[102,27],[132,40],[54,14],[168,53],[24,7],[199,60],[114,33],[114,13],[60,7],[48,7],[240,60],[108,26],[54,14],[115,20],[54,26],[54,47]],[[260,1440],[-72,-40],[-144,-67],[-44,-36]],[[0,971],[74,-32],[54,-20],[54,-13],[54,-7],[90,-6]],[[2621,1352],[-7,1],[-24,74]],[[3924,499],[-36,27],[-78,47],[-72,33],[-48,33],[-115,114],[-48,26],[-54,14],[-48,26],[-72,34],[-48,40],[-18,26],[-90,107],[-66,74],[-54,53],[-72,53],[-78,47],[-132,53],[-24,14],[-55,20],[-95,12]],[[4096,470],[-16,2],[-48,-13],[-48,7],[-60,33]],[[2206,973],[-30,-34],[-42,-26],[-54,-54],[-48,-160],[-78,-153],[-30,-67],[-36,-120],[-30,-80],[-6,-47],[-12,-53],[3,-179]],[[2074,1353],[-547,767]],[[4096,799],[0,-799],[-4096,0],[0,4096],[2635,0],[70,-110],[43,-53],[13,-10],[41,-18],[14,-11],[21,-22],[15,-11],[91,-42],[56,-41],[32,-4],[34,2],[37,-5],[31,-18],[13,-8],[43,-41],[73,-98],[24,-45],[106,-76],[25,-27],[5,-41],[-66,58],[-35,22],[-80,10],[-21,7],[-14,18],[-11,60],[-13,-10],[-13,-27],[-7,-27],[-1,-20],[0,-19],[5,-18],[11,-16],[14,-15],[4,-8],[-6,-99],[2,-27],[39,-123],[17,-26],[24,-24],[26,-16],[125,-43],[43,-39],[26,-55],[10,-73],[-1,-176],[-5,-39],[-15,-32],[-29,-18],[0,25],[-12,8],[-15,-6],[-13,-17],[9,-41],[-4,-63],[-11,-63],[-13,-44],[-23,17],[-6,23],[0,25],[-2,24],[-10,20],[-13,13],[-14,10],[-12,12],[-8,6],[-7,0],[-4,4],[-3,45],[-3,11],[-6,13],[-11,16],[-18,17],[-19,11],[-17,-6],[-38,-73],[-11,-10],[-16,-11],[7,-21],[15,-21],[9,-8],[3,-12],[14,-23],[2,-16],[-5,-4],[-10,-4],[-10,-6],[-5,-13],[4,-23],[5,-23],[1,-23],[-10,-25],[25,-9],[20,13],[11,24],[-6,27],[14,-4],[10,-9],[17,-20],[7,-4],[7,2],[4,-2],[1,-12],[1,-10],[1,-5],[4,-2],[9,0],[37,-9],[15,-22],[8,-29],[16,-29],[0,-11],[-29,-30],[15,-76],[34,-84],[30,-54],[87,-106],[37,-61],[15,-77],[-9,0],[-26,77],[-10,13],[-18,4],[-21,10],[-18,12],[-18,27],[-23,19],[-21,2],[-5,-31],[10,-23],[38,-27],[11,-17],[8,17],[2,7],[10,0],[56,-117],[166,-215],[38,-34],[-4,22],[-10,25],[-4,21],[13,8],[15,8],[7,-4],[6,-36],[7,-8],[7,-5],[3,-4],[12,-22],[27,-13],[50,-15],[12,-16],[29,-72],[-11,-12],[18,-24],[19,-43],[17,-47],[6,-36],[-1,-20],[-8,-36],[-1,-21],[3,-21],[7,-14],[6,-11],[8,-28],[21,-39],[4,-25],[-9,-66],[12,-66],[13,-37],[15,-20],[11,32],[38,-32],[27,-35]],[[3887,2775],[2,0],[31,-1],[18,-4],[23,-10],[19,-9],[60,24],[10,-6],[6,-22],[11,-14],[3,-7],[3,-6],[-8,-18],[-14,-3],[-42,5],[-20,-7],[63,-55],[15,23],[22,18],[7,-20],[0,-97],[-15,-4],[9,-94],[-4,-142],[-21,-179],[-13,-35],[-43,-70],[-10,49],[-16,54],[-23,52],[-29,45],[-64,72],[-11,45],[29,54],[8,24],[8,23],[-9,61],[-22,60],[-25,44],[-5,19],[0,27],[17,76],[11,19],[19,9]],[[2664,1503],[8,-37],[97,18],[32,-144],[-123,35],[-60,-24],[-27,-65],[-28,8],[-69,172],[32,0],[81,108],[57,-71]],[[3887,2775],[93,-24],[70,18],[15,-67],[-76,-5],[63,-55],[35,-147],[-78,70],[-43,-3],[-64,-138],[-10,97],[-52,123],[18,103],[29,28]],[[3928,2721],[-26,-16],[-17,-71],[72,55],[9,35],[-38,-3]],[[3189,3704],[97,-143],[74,-52],[-16,-26],[-124,31],[-63,145],[-36,7],[16,45],[-20,51],[72,-58]],[[3465,3035],[36,-128],[-3,-194],[-34,83],[-81,-18],[-32,72],[-48,36],[68,44],[90,3],[-13,97],[-122,-39],[-137,21],[16,72],[-80,72],[16,89],[-32,37],[32,107],[-33,36],[54,98],[68,-340],[41,-50],[194,-98]],[[2635,4096],[113,-163],[173,-119],[-37,-13],[-83,38],[-127,77],[-44,70],[-71,-4],[-71,114],[147,0]],[[2691,2221],[-27,16],[10,51],[50,36],[40,-49],[-73,-54]]]}