{"objects":{"water":{"type":"GeometryCollection","geometries":[{"type":"MultiPolygon","properties":{"source":"naturalearthdata.com","kind":"ocean","area":1576712559132672,"sort_rank":200,"min_zoom":0.0,"id":1},"arcs":[[[15]],[[16]],[[17]]]},{"type":"MultiLineString","properties":{"source":"naturalearthdata.com","kind":"ocean","sort_rank":205,"boundary":true,"min_zoom":0.0,"id":2907},"arcs":[[18],[19],[20],[21]]}]},"buildings":{"type":"GeometryCollection","geometries":[]},"places":{"type":"GeometryCollection","geometries":[{"type":"Point","properties":{"kind":"locality","name":"Holgu\u00edn","kind_detail":"city","source":"openstreetmap.org","min_zoom":8.0,"name:uk":"\u041e\u043b\u044c\u0433\u0456\u043d","name:ru":"\u041e\u043b\u044c\u0433\u0438\u043d","id":259846376,"population":287881},"coordinates":[3155,802]},{"type":"Point","properties":{"kind":"locality","name":"Las Tunas","kind_detail":"city","source":"openstreetmap.org","min_zoom":8.0,"name:uk":"\u041b\u0430\u0441-\u0422\u0443\u043d\u0430\u0441","name:ru":"\u041b\u0430\u0441-\u0422\u0443\u043d\u0430\u0441","id":259846374,"population":162957},"coordinates":[1106,1011]},{"type":"Point","properties":{"kind":"locality","name":"Nuevitas","kind_detail":"town","source":"openstreetmap.org","min_zoom":8.0,"name:ru":"\u041d\u0443\u044d\u0432\u0438\u0442\u0430\u0441","id":1252740872,"population":38207},"coordinates":[217,2855]},{"type":"Point","properties":{"kind":"locality","name:en":"Tagaho","name":"Tacaj\u00f3","kind_detail":"town","source":"openstreetmap.org","min_zoom":8.0,"id":2096755077,"population":35000},"coordinates":[4064,687]},{"type":"Point","properties":{"source":"openstreetmap.org","kind":"locality","name":"Puerto Padre","kind_detail":"town","population":34086,"min_zoom":8.0,"id":482557202},"coordinates":[2151,1760]},{"type":"Point","properties":{"source":"openstreetmap.org","kind":"locality","name":"Jobabo","kind_detail":"town","population":20309,"min_zoom":8.0,"id":469633734},"coordinates":[176,860]}]},"transit":{"type":"GeometryCollection","geometries":[{"type":"LineString","properties":{"kind":"train","name":"Tren Habana-Bayamo-Manzanillo","service":"long distance","sort_rank":275,"source":"openstreetmap.org","min_zoom":6.0,"operator":"Ferrocarriles de Cuba (FC)","ref":"13\/14","osm_relation":true},"arcs":[6]},{"type":"LineString","properties":{"kind":"train","name":"Tren Santiago Antilla","service":"local","sort_rank":275,"source":"openstreetmap.org","min_zoom":6.0,"operator":"Ferrocarriles de Cuba (FC)","ref":"658\/659","id":-6543306,"osm_relation":true},"arcs":[7]},{"type":"LineString","properties":{"kind":"train","name":"Tren Habana-Holgu\u00edn","service":"long distance","sort_rank":275,"source":"openstreetmap.org","min_zoom":6.0,"operator":"Ferrocarriles de Cuba (FC)","ref":"5\/6","osm_relation":true},"arcs":[8]},{"type":"LineString","properties":{"kind":"train","name":"Tren Camaguey - Nuevitas","service":"local","sort_rank":275,"source":"openstreetmap.org","min_zoom":6.0,"operator":"Ferrocarriles de Cuba (FC)","ref":"Nuevitas","id":-6532469,"osm_relation":true},"arcs":[9]},{"type":"LineString","properties":{"kind":"train","name":"Tren Habana-Santiago Nro 1\/2","service":"long distance","sort_rank":275,"source":"openstreetmap.org","min_zoom":6.0,"operator":"Ferrocarriles de Cuba (FC)","ref":"1\/2","osm_relation":true},"arcs":[10]},{"type":"LineString","properties":{"kind":"train","name":"Tren Habana-Santiago Nro3\/4","service":"long distance","sort_rank":275,"source":"openstreetmap.org","min_zoom":6.0,"operator":"Ferrocarriles de Cuba (FC)","ref":"3\/4","osm_relation":true},"arcs":[11]},{"type":"LineString","properties":{"kind":"train","name":"Tren Habana-Guant\u00e1namo","service":"long distance","sort_rank":275,"source":"openstreetmap.org","min_zoom":6.0,"operator":"Ferrocarriles de Cuba (FC)","ref":"15\/16","osm_relation":true},"arcs":[12]},{"type":"LineString","properties":{"kind":"train","name":"Tren Mor\u00f3n Nuevitas (L\u00ednea Norte)","service":"local","sort_rank":275,"source":"openstreetmap.org","min_zoom":6.0,"operator":"Ferrocarriles de Cuba (FC)","ref":"Norte","osm_relation":true},"arcs":[13]},{"type":"LineString","properties":{"kind":"train","name":"TrenCamaguey-Bayamo","service":"local","sort_rank":275,"source":"openstreetmap.org","min_zoom":6.0,"operator":"Ferrocarriles de Cuba (FC)","ref":"Camaguey-Bayamo","osm_relation":true},"arcs":[14]}]},"pois":{"type":"GeometryCollection","geometries":[{"type":"Point","properties":{"source":"openstreetmap.org","kind":"nature_reserve","name":"Reserva Ecol\u00f3gica Maternillos Tortuguilla","area":104459000,"tier":2,"min_zoom":8.94,"id":371986867},"coordinates":[532,3199]}]},"boundaries":{"type":"GeometryCollection","geometries":[{"type":"LineString","properties":{"name:ka":"\u10d1\u10d0\u10f0\u10d0\u10db\u10d8\u10e1 \u10d9\u10e3\u10dc\u10eb\u10e3\u10da\u10d4\u10d1\u10d8","name:tr":"Bahamalar","name:kn":"\u0cac\u0cb9\u0cbe\u0cae\u0cbe\u0cb8\u0ccd","name:km":"\u1794\u17b6\u17a0\u17b6\u1798\u17c9\u17b6","name:kk":"\u0411\u0430\u0433\u0430\u043c \u0430\u0440\u0430\u043b\u0434\u0430\u0440\u044b","name:tt":"\u0411\u0430\u0433\u0430\u043c\u0430\u043b\u0430\u0440","name:kw":"Ynysow Bahama","name:tk":"Bagama Adalary","name:th":"\u0e1b\u0e23\u0e30\u0e40\u0e17\u0e28\u0e1a\u0e32\u0e2e\u0e32\u0e21\u0e32\u0e2a","name:ti":"\u1263\u1203\u121b\u1235","name:ks":"\u0628\u064e\u06c1\u0627\u0645\u064e\u0633","name:to":"Pahama","name:tl":"Bahamas","name:ce":"\u0411\u0430\u0433\u0430\u043c\u0430","name:ta":"\u0baa\u0bbe\u0b95\u0bbe\u0bae\u0bbe\u0b9a\u0bc1","name:tg":"\u0411\u0430\u04b3\u0430\u043c\u0430\u0441","alt_name:cy":"Bahamas","name:te":"\u0c2c\u0c39\u0c3e\u0c2e\u0c3e\u0c38\u0c4d","alt_name:li":"Bahama's","name:cy":"Y Bahamas","alt_name:tt":"\u0411\u0430\u04bb\u0430\u043c\u0430\u043b\u0430\u0440","alt_name:lb":"Bahamas","name:hr":"Bahami","name:da":"Bahamas","name:de":"Die Bahamas","name:dz":"\u0f56\u0f71\u0f0b\u0f67\u0f0b\u0f58\u0f66\u0f84\u0f0d","source":"openstreetmap.org","name:cv":"\u041f\u0430\u0445\u0430\u043c\u0441\u0435\u043c","name:ca":"Bahames","name:dv":"\u0784\u07a6\u0780\u07a7\u0789\u07a6\u0790\u07b0","name:lv":"Bahamas","name:lt":"Bahamos","alt_name:de":"Bahamas","name:cs":"Bahamy","name:ur":"\u0628\u06c1\u0627\u0645\u0627\u0633","name:lb":"D'Bahamas","name:la":"Bahamanae","name:ki":"Bahama","name:uk":"\u0411\u0430\u0433\u0430\u0301\u043c\u0441\u044c\u043a\u0456 \u041e\u0441\u0442\u0440\u043e\u0432\u0438\u0301","name:ug":"\u0628\u0627\u06be\u0627\u0645\u0627","name:li":"De Bahama's","name:ln":"Bahamas\u025b","name:lo":"\u0e9a\u0eb2\u0eae\u0eb2\u0ea1\u0ea1\u0eb2\u0eaa","name:el":"\u039c\u03c0\u03b1\u03c7\u03ac\u03bc\u03b5\u03c2","name:eo":"La Bahamoj","name":"The Bahamas","alt_name:uz":"Bagamalar","name:ee":"Bahamas","name:ku":"Bahama","name:eu":"Bahamak","name:et":"Bahama","name:es":"Las Bahamas","name:ia":"Bahamas","name:rm":"Bahamas","name:rn":"Bahamasi","name:az":"Bahamalar","name:id":"Bahama","name:ar":"\u062c\u0632\u0631 \u0628\u0627\u0647\u0627\u0645\u0627\u0633","name:io":"Bahama","name:is":"Bahamaeyjar","name:am":"\u1263\u1203\u121b\u1235","name:it":"Le Bahamas","name:an":"Bahamas","name:ru":"\u0411\u0430\u0433\u0430\u0301\u043c\u0441\u043a\u0438\u0435 \u041e\u0441\u0442\u0440\u043e\u0432\u0430\u0301","name:rw":"Bahamasi","name:pl":"Bahamy","name:af":"Bahamas","name:zu":"i-Bahamas","kind_detail":"2","name:za":"Bahamas","name:zh-yue":"\u5df4\u54c8\u99ac","name:zh":"\u5df4\u54c8\u9a6c","name:so":"Bahamas","alt_name:be":"\u0411\u0430\u0433\u0430\u0301\u043c\u044b","name:sl":"Bahami","name:sk":"Bahamy","name:ja":"\u30d0\u30cf\u30de","name:si":"\u0db6\u0dc4\u0dcf\u0db8\u0dcf\u0dc3\u0dca","name:sh":"Bahami","name:sg":"Bah\u00e2masa","name:se":"Bahama","alt_name:bo":"\u0f56\u0fb7\u0f0b\u0f67\u0f0b\u0f58\u0f0b\u0f66\u0f74\u0f0d","name:br":"Bahamas","name:bs":"Bahami","name:bm":"Bahamasi","name:bn":"\u09ac\u09be\u09b9\u09be\u09ae\u09be \u09a6\u09cd\u09ac\u09c0\u09aa\u09aa\u09c1\u099e\u09cd\u099c","name:bo":"\u0f56\u0f0b\u0f67\u0f0b\u0f58\u0f71\u0f0b\u0f66\u0f72\u0f0d","name:sa":"\u092c\u0939\u093e\u092e\u093e\u0938","name:sw":"Bahamas","name:be":"\u0411\u0430\u0433\u0430\u0301\u043c\u0441\u043a\u0456\u044f \u0410\u0441\u0442\u0440\u0430\u0432\u044b\u0301","name:su":"Bahama","name:bg":"\u0411\u0430\u0445\u0430\u043c\u0441\u043a\u0438\u0442\u0435 \u043e\u0441\u0442\u0440\u043e\u0432\u0438","name:ss":"iBhahamasi","name:sr":"\u0411\u0430\u0445\u0430\u043c\u0435","name:sq":"Bahamet","alt_name:sq":"Ishujt Bahamas","name:jv":"Bahama","alt_name:sn":"Bahamas","name:ay":"Bahamas","name:pt":"Bahamas","name:om":"Bahamaas","name:mt":"Il-Ba\u0127amas","name:oc":"Las Bahamas","alt_name:ga":"Bah\u00e1ma\u00ed","alt_name:gd":"Bah\u00e0mas","alt_name:oc":"Bahamas","min_zoom":8.0,"name:ro":"Bahamas","name:ko":"\ubc14\ud558\ub9c8","name:zh-min-nan":"Bahamas","name:os":"\u0411\u0430\u0433\u0430\u043c\u0442\u00e6","name:or":"\u0b2c\u0b3e\u0b39\u0b3e\u0b2e\u0b3e","alt_name:pt":"Baamas","alt_name:gv":"Bahamaghyn","name:pi":"\u092c\u0939\u093e\u092e\u093e\u0938","alt_name:he":"\u05d1\u05d4\u05d0\u05de\u05d4","sort_rank":262,"name:ba":"\u0411\u0430\u0433\u0430\u043c\u0430 \u0443\u0442\u0440\u0430\u0443\u0499\u0430\u0440\u044b","alt_name:ht":"Bahamas","osm_relation":true,"name:pa":"\u0a2c\u0a39\u0a3e\u0a2e\u0a3e\u0a38","alt_name:hy":"\u0532\u0561\u0570\u0561\u0574\u0575\u0561\u0576 \u053f\u0572\u0566\u056b\u0576\u0565\u0580","alt_name:ar":"\u0628\u0627\u0647\u0627\u0645\u0627\u0633","name:hi":"\u092c\u0939\u093e\u092e\u0938","name:sv":"Bahamas","name:he":"\u05d0\u05d9\u05d9 \u05d1\u05d4\u05d0\u05de\u05d4","name:hy":"\u0532\u0561\u0570\u0561\u0574\u0576\u0565\u0580\u0568","alt_name:yi":"\u05d1\u05d0\u05b7\u05d4\u05d0\u05b7\u05de\u05d0\u05b7\u05e1","name:ht":"Il Bahamas","name:hu":"Bahama-szigetek","name:qu":"Bahamakuna","kind":"country","name:ak":"Bahama","alt_name:it":"Bahama","name:yi":"\u05d3\u05d9 \u05d1\u05d0\u05b7\u05d4\u05d0\u05b7\u05de\u05d0\u05b7\u05e1","name:yo":"\u00c0w\u1ecdn B\u00e0h\u00e1m\u00e0","alt_name:mt":"Ba\u0127amas","alt_name:eo":"Bahama Insularo","alt_name:en":"Bahamas","name:ms":"Bahamas","name:mr":"\u092c\u0939\u093e\u092e\u093e\u0938","name:my":"\u1018\u101f\u102c\u1038\u1019\u102c\u1038\u1014\u102d\u102f\u1004\u103a\u1004\u1036","official_name":"Commonwealth of The Bahamas","int_name":"Bahamas","name:mg":"Bahamasy","name:ml":"\u0d2c\u0d39\u0d3e\u0d2e\u0d3e\u0d38\u0d4d","name:vi":"Bahamas","name:mn":"\u0411\u0430\u0433\u0430\u043c\u044b\u043d \u0410\u0440\u043b\u0443\u0443\u0434","id":-547469,"alt_name:es":"Bahamas","name:vo":"Bahamu\u00e4ns","name:fa":"\u0628\u0627\u0647\u0627\u0645\u0627","alt_name:mn":"\u0411\u0430\u0445\u0430\u043c","name:ff":"Bahamaas","name:fi":"Bahama","name:ky":"\u0411\u0430\u0433\u0430\u043c\u0430 \u0430\u0440\u0430\u043b\u0434\u0430\u0440\u044b","name:uz":"Bagam orollari","name:fo":"Bahamaoyggjar","alt_name:vi":"Qu\u1ea7n \u0111\u1ea3o Bahamas","name:fr":"Les Bahamas","alt_name:mk":"\u0411\u0430\u0445\u0430\u043c\u0441\u043a\u0438 \u041e\u0441\u0442\u0440\u043e\u0432\u0438","name:fy":"De Bahama's","name:mk":"\u0411\u0430\u0445\u0430\u043c\u0438","name:nl":"Bahama's","name:nn":"Bahamas","name:no":"Bahamas","name:na":"Bahamat","name:ne":"\u092c\u0939\u093e\u092e\u0938","alt_name:fy":"Bahama's","alt_name:az":"Baham adalar\u0131","alt_name:fr":"Bahamas","name:wo":"Bahamas","name:ga":"na Bah\u00e1ma\u00ed","name:gd":"na Bah\u00e0mas","name:gn":"Vaamaku\u00e9ra","name:gl":"Bahamas","maritime_boundary":true,"name:gv":"ny Bahamaghyn","name:gu":"\u0aac\u0ab9\u0abe\u0aae\u0abe\u0ab8","name:lg":"Bahamasi"},"arcs":[0]},{"type":"LineString","properties":{"name:ka":"\u10d9\u10e3\u10d1\u10d0","name:ko":"\ucfe0\ubc14","name:cv":"\u041a\u0443\u0431\u0430","name:km":"\u1782\u17bb\u1799\u1794\u17b6","name:cs":"Kuba","name:tt":"\u041a\u0443\u0431\u0430","name:kw":"Kuba","name:kv":"\u041a\u0443\u0431\u0430","name:ku":"K\u00fbba","name:tl":"Kuba","name:pa":"\u0a15\u0a3f\u0a0a\u0a2c\u0a3e","name:os":"\u041a\u0443\u0431\u00e6","name:or":"\u0b15\u0b4d\u0b5f\u0b41\u0b2c\u0b3e","name:ce":"\u041a\u0443\u0431\u0430","name:ta":"\u0b95\u0bc2\u0baa\u0bbe","name:tg":"\u041a\u0443\u0431\u043e","name:te":"\u0c15\u0c4d\u0c2f\u0c42\u0c2c\u0c3e","source":"openstreetmap.org","sort_rank":262,"name:qu":"Kuba","name:de":"Kuba","name:tr":"K\u00fcba","name:nv":"Ky\u00f3oba","name:kn":"\u0c95\u0ccd\u0caf\u0cc2\u0cac\u0cbe","name:be":"\u041a\u0443\u0431\u0430","name:dv":"\u0786\u07a8\u0787\u07aa\u0784\u07a7","name:lv":"Kuba","name:lt":"Kuba","name:uz":"Kuba","name:kk":"\u041a\u0443\u0431\u0430","name:he":"\u05e7\u05d5\u05d1\u05d4","name:eo":"Kubo","name:ur":"\u06a9\u06cc\u0648\u0628\u0627","name:lb":"Kuba","name:uk":"\u041a\u0443\u0431\u0430","name:hy":"\u053f\u0578\u0582\u0562\u0561","name:ug":"\u0643\u06c7\u0628\u0627","name:hu":"Kuba","name:ln":"Kuba","name:el":"\u039a\u03bf\u03cd\u03b2\u03b1","kind":"country","name":"Cuba","name:tk":"Kuba","name:bn":"\u0995\u09bf\u0989\u09ac\u09be","name:gd":"C\u00f9ba","min_zoom":8.0,"name:th":"\u0e1b\u0e23\u0e30\u0e40\u0e17\u0e28\u0e04\u0e34\u0e27\u0e1a\u0e32","name:eu":"Kuba","name:et":"Kuuba","name:jv":"Kuba","name:yo":"K\u00fab\u00e0","name:ay":"Kuba","name:mt":"Kuba","name:az":"Kuba","name:id":"Kuba","name:mr":"\u0915\u094d\u092f\u0941\u092c\u093e","name:ar":"\u0643\u0648\u0628\u0627","name:my":"\u1000\u103b\u1030\u1038\u1018\u102c\u1038\u1014\u102d\u102f\u1004\u103a\u1004\u1036","name:io":"Kuba","name:is":"K\u00faba","name:am":"\u12a9\u1263","name:ru":"\u041a\u0443\u0431\u0430","id":-307833,"name:ml":"\u0d15\u0d4d\u0d2f\u0d42\u0d2c","name:rw":"Kiba","name:pl":"Kuba","name:mk":"\u041a\u0443\u0431\u0430","name:af":"Kuba","name:fa":"\u06a9\u0648\u0628\u0627","name:iu":"\u1582\u1439\/quupaa","name:mn":"\u041a\u0443\u0431\u0430","name:ss":"IKhuyubha","kind_detail":"2","name:hi":"\u0915\u094d\u092f\u0942\u092c\u093e","name:fo":"Kuba","name:ba":"\u041a\u0443\u0431\u0430","name:za":"Gujbah","name:zh-yue":"\u53e4\u5df4","name:fy":"Kuba","name:vo":"Kube\u00e4n","name:zh":"\u53e4\u5df4","name:hr":"Kuba","name:so":"Kuuba","name:sl":"Kuba","name:sk":"Kuba","name:ja":"\u30ad\u30e5\u30fc\u30d0","name:si":"\u0d9a\u0dd2\u0dba\u0dd4\u0db6\u0dcf\u0dc0","name:sh":"Kuba","name:na":"Kiuba","name:ne":"\u0915\u094d\u092f\u0941\u092c\u093e","name:br":"Kuba","name:bs":"Kuba","name:yi":"\u05e7\u05d5\u05d1\u05d0","name:wa":"Couba","name:bo":"\u0f40\u0f74\u0f0b\u0f56\u0f0d","name:sa":"\u0915\u094d\u092f\u0942\u092c\u093e","name:sw":"Kuba","name:sv":"Kuba","name:su":"Kuba","name:bg":"\u041a\u0443\u0431\u0430","name:wo":"Kubaa","name:sr":"\u041a\u0443\u0431\u0430","osm_relation":true,"name:sq":"Kuba","name:ga":"C\u00faba","name:bm":"Kuba","name:ht":"Kiba","name:gn":"Kuva","maritime_boundary":true,"name:gv":"Yn Choobey","name:fi":"Kuuba"},"arcs":[1]},{"type":"LineString","properties":{"kind":"region","name":"Holgu\u00edn","sort_rank":256,"kind_detail":"4","source":"openstreetmap.org","min_zoom":8.0,"name:ru":"\u041e\u043b\u044c\u0433\u0438\u043d","id":-1854635,"osm_relation":true},"arcs":[2]},{"type":"LineString","properties":{"kind":"region","name":"Holgu\u00edn","sort_rank":256,"kind_detail":"4","min_zoom":8.0,"source":"openstreetmap.org","maritime_boundary":true,"name:ru":"\u041e\u043b\u044c\u0433\u0438\u043d","id":-1854635,"osm_relation":true},"arcs":[3]},{"type":"LineString","properties":{"kind":"region","name":"Camag\u00fcey","sort_rank":256,"kind_detail":"4","source":"openstreetmap.org","min_zoom":8.0,"name:ru":"\u041a\u0430\u043c\u0430\u0433\u0443\u044d\u0439","id":-1854630,"osm_relation":true},"arcs":[4]},{"type":"LineString","properties":{"kind":"region","name":"Camag\u00fcey","sort_rank":256,"kind_detail":"4","min_zoom":8.0,"source":"openstreetmap.org","maritime_boundary":true,"name:ru":"\u041a\u0430\u043c\u0430\u0433\u0443\u044d\u0439","id":-1854630,"osm_relation":true},"arcs":[5]}]},"roads":{"type":"GeometryCollection","geometries":[{"type":"MultiLineString","properties":{"sort_rank":380,"kind_detail":"primary","min_zoom":8.0,"kind":"major_road","source":"openstreetmap.org"},"arcs":[[22],[23],[24],[25],[26],[27],[28],[29],[30],[31],[32],[33],[34],[35],[36],[37],[38],[39],[40],[41],[42]]},{"type":"MultiLineString","properties":{"sort_rank":381,"source":"openstreetmap.org","min_zoom":8.0,"kind":"major_road","kind_detail":"trunk"},"arcs":[[43],[44],[45],[46],[47],[48],[49],[50],[51],[52],[53],[54],[55],[56],[57]]},{"type":"MultiLineString","properties":{"source":"openstreetmap.org","kind":"major_road","sort_rank":380,"kind_detail":"primary","ref":"6-421","min_zoom":8.0},"arcs":[[58],[59],[60],[61],[62],[63],[64],[65],[66]]},{"type":"MultiLineString","properties":{"kind":"major_road","network":"cu:national","sort_rank":380,"kind_detail":"primary","source":"openstreetmap.org","min_zoom":8.0,"landuse_kind":"residential","shield_text":"C","ref":"CC"},"arcs":[[67],[68],[69],[70],[71]]},{"type":"MultiLineString","properties":{"source":"openstreetmap.org","kind":"major_road","sort_rank":380,"kind_detail":"primary","ref":"6-152","min_zoom":8.0},"arcs":[[72],[73]]},{"type":"MultiLineString","properties":{"source":"openstreetmap.org","kind":"major_road","sort_rank":380,"kind_detail":"primary","ref":"421","min_zoom":8.0},"arcs":[[74],[75],[76],[77]]},{"type":"MultiLineString","properties":{"kind":"major_road","network":"cu:national","sort_rank":381,"kind_detail":"trunk","source":"openstreetmap.org","min_zoom":8.0,"shield_text":"C","ref":"CC"},"arcs":[[78],[79],[80],[81],[82],[83],[84],[85],[86],[87]]},{"type":"MultiLineString","properties":{"source":"openstreetmap.org","kind":"major_road","sort_rank":380,"kind_detail":"primary","ref":"CN","min_zoom":8.0},"arcs":[[88],[89],[90],[91],[92],[93],[94],[95],[96],[97],[98],[99]]},{"type":"LineString","properties":{"kind":"major_road","network":"cu:national","sort_rank":380,"kind_detail":"primary","source":"openstreetmap.org","min_zoom":8.0,"shield_text":"N","ref":"CN"},"arcs":[100]},{"type":"MultiLineString","properties":{"source":"openstreetmap.org","kind":"major_road","sort_rank":380,"kind_detail":"primary","ref":"123","min_zoom":8.0},"arcs":[[101],[102],[103],[104],[105],[106],[107],[108],[109],[110]]},{"type":"MultiLineString","properties":{"source":"openstreetmap.org","kind":"major_road","sort_rank":380,"kind_detail":"primary","ref":"5-445","min_zoom":8.0},"arcs":[[111],[112]]},{"type":"LineString","properties":{"source":"openstreetmap.org","kind":"major_road","sort_rank":380,"kind_detail":"primary","ref":"152","min_zoom":8.0},"arcs":[113]},{"type":"MultiLineString","properties":{"source":"openstreetmap.org","kind":"major_road","landuse_kind":"residential","sort_rank":380,"kind_detail":"primary","min_zoom":8.0},"arcs":[[114],[115],[116]]},{"type":"LineString","properties":{"source":"openstreetmap.org","kind":"major_road","landuse_kind":"residential","sort_rank":380,"kind_detail":"primary","ref":"CN","min_zoom":8.0},"arcs":[117]},{"type":"MultiLineString","properties":{"kind":"major_road","network":"cu:national","sort_rank":380,"kind_detail":"primary","source":"openstreetmap.org","min_zoom":8.0,"shield_text":"C","ref":"CC"},"arcs":[[118],[119],[120],[121],[122],[123],[124],[125],[126]]},{"type":"MultiLineString","properties":{"source":"openstreetmap.org","kind":"major_road","landuse_kind":"residential","sort_rank":380,"kind_detail":"primary","ref":"6-421","min_zoom":8.0},"arcs":[[127],[128]]},{"type":"LineString","properties":{"source":"openstreetmap.org","kind":"major_road","sort_rank":381,"kind_detail":"trunk","ref":"CC","min_zoom":8.0,"id":486257547},"arcs":[129]}]},"earth":{"type":"GeometryCollection","geometries":[{"type":"MultiPolygon","properties":{"sort_rank":10,"source":"naturalearthdata.com","min_zoom":0.0,"kind":"earth","area":45137481668},"arcs":[[[130]],[[131]]]}]},"landuse":{"type":"GeometryCollection","geometries":[{"type":"Polygon","properties":{"kind":"residential","area":16142800,"sort_rank":20,"source":"openstreetmap.org","min_zoom":8.0,"tier":2,"id":-5547699,"osm_relation":true},"arcs":[[132],[133]]},{"type":"MultiPolygon","properties":{"source":"openstreetmap.org","kind":"residential","tier":2,"area":26734700,"sort_rank":20,"min_zoom":8.0},"arcs":[[[134]]]},{"type":"Polygon","properties":{"source":"openstreetmap.org","kind":"nature_reserve","area":782200000,"tier":2,"id":361177933,"min_zoom":6.0,"sort_rank":23},"arcs":[[135]]},{"type":"Polygon","properties":{"source":"openstreetmap.org","kind":"nature_reserve","area":104459000,"tier":2,"id":371986867,"min_zoom":7.0,"sort_rank":23},"arcs":[[136]]}]}},"type":"Topology","transform":{"translate":[-77.34375,20.6327842504],"scale":[0.0003433228,0.000319888]},"arcs":[[[1098,4096],[2998,-1169]],[[4096,2342],[-998,237],[-2120,1140],[-345,377]],[[3051,1994],[-78,-297],[-34,-3],[-23,-37],[15,-29],[28,2],[12,-50],[-221,-99],[-118,-95],[24,-58],[-149,11],[-11,-48],[23,-34],[-68,4],[-33,-95],[-42,-30],[11,-66],[-152,-3],[-135,-47],[-174,28],[-52,-176],[42,-22],[-13,-72],[23,-118],[-43,-12],[-80,-107],[32,-29],[-41,-36],[127,-140],[-74,-38],[-7,-60],[97,26],[51,-98],[77,-24],[43,29],[34,-34],[62,53],[31,-35],[15,-155]],[[4096,2342],[-778,185],[-267,-533]],[[0,1142],[78,0],[37,-48],[50,147],[105,126],[68,-2],[10,35],[167,61],[65,199],[45,53],[-32,81],[23,106],[88,63],[15,80],[60,64],[-182,-5],[3,91],[40,69],[70,41],[5,179],[151,-63],[198,51],[35,88],[47,4],[70,151]],[[1216,2713],[347,692],[-585,314],[-345,377]],[[1105,0],[-20,103],[-193,300],[-892,566]],[[4096,24],[-3,-24]],[[0,1540],[59,-13],[149,14],[127,-19],[224,-172],[265,-105],[240,-193],[127,-19],[85,-41],[239,-207],[435,-297],[88,-7],[142,-89],[787,-53],[174,287],[31,150]],[[0,2854],[90,25],[37,29],[88,-16],[54,-59]],[[0,1540],[59,-13],[149,14],[127,-19],[224,-172],[265,-105],[240,-193],[127,-19],[85,-41],[239,-207],[437,-298],[86,-6],[149,-91],[768,-45],[471,-345]],[[0,1540],[59,-13],[149,14],[127,-19],[224,-172],[265,-105],[240,-193],[127,-19],[85,-41],[239,-207],[437,-298],[86,-6],[149,-91],[768,-45],[471,-345]],[[0,1540],[59,-13],[149,14],[127,-19],[224,-172],[265,-105],[240,-193],[127,-19],[85,-41],[239,-207],[437,-298],[86,-6],[149,-91],[768,-45],[471,-345]],[[0,2885],[34,-20],[97,43],[86,-17],[52,-58]],[[1105,0],[-20,103],[-193,300],[-892,566]],[[4096,4096],[0,-2606],[-34,-30],[-18,-12],[-37,-6],[-77,2],[-25,4],[3,-56],[-18,-24],[-25,10],[-20,48],[-6,-14],[-9,-15],[-6,-15],[-18,0],[0,39],[-11,29],[-21,23],[-30,17],[-42,11],[-32,-7],[-47,-27],[-29,-31],[-20,-2],[-29,33],[-12,38],[2,67],[-10,25],[-12,74],[-93,62],[-310,118],[-42,28],[-67,56],[-9,8],[-94,37],[-41,34],[-72,23],[-349,10],[-53,-17],[-20,-42],[10,-50],[35,-42],[37,-14],[95,-13],[45,-16],[-33,-13],[-86,-51],[-15,-1],[-19,2],[-17,0],[-7,-10],[-7,-15],[-18,-18],[-20,-15],[-15,-7],[-27,10],[-29,55],[-25,21],[-35,-2],[-32,-16],[-29,-1],[-23,40],[11,4],[29,17],[-60,0],[0,21],[155,7],[34,41],[10,125],[-20,0],[0,-66],[-18,0],[-38,50],[-64,39],[-70,21],[-50,-1],[-57,-23],[-1,-20],[19,-44],[18,-28],[19,-14],[63,-22],[0,-20],[-62,4],[-55,12],[-49,23],[-44,34],[-46,18],[-59,10],[-39,21],[14,49],[-5,33],[29,-1],[27,-28],[-11,-47],[163,75],[47,11],[22,20],[-17,44],[-40,44],[-45,20],[-31,2],[-79,19],[-49,33],[-13,5],[-23,-14],[-16,-1],[-179,62],[-5,-37],[-13,-31],[-40,-61],[20,0],[-12,-38],[-7,-38],[-13,-32],[-28,-21],[8,78],[-148,-78],[-41,77],[11,44],[29,30],[42,17],[103,6],[35,11],[23,32],[18,65],[-60,0],[20,42],[-38,30],[-161,34],[-106,51],[-43,31],[-6,4],[-46,42],[-312,385],[-54,33],[-55,-10],[-24,-31],[-74,-140],[-36,-166],[-25,-47],[-28,-4],[-27,-16],[-3,-4],[-73,-36],[-28,-8],[23,55],[-46,6],[-65,-11],[-33,6],[-13,21],[-26,54],[-18,57],[8,25],[51,24],[21,52],[-15,52],[-57,24],[-82,-7],[-29,7],[-27,16],[-22,21],[-24,19],[-17,4],[0,88],[31,3],[25,-10],[32,-29],[26,-11],[17,-11],[15,-5],[6,12],[4,3],[10,11],[7,11],[-1,6],[54,-6],[48,-14],[187,-87],[15,-12],[50,-56],[25,-17],[20,54],[70,76],[10,62],[-17,27],[-30,27],[-16,38],[23,59],[-52,-14],[-43,1],[-41,12],[-43,22],[-171,130],[-40,15],[-98,81],[-42,42],[-41,30],[-40,12],[0,540],[4096,0]],[[0,3154],[0,84],[3,-3],[17,-38],[1,-17],[-8,-6],[-8,-15],[-5,-5]],[[432,0],[-432,0],[0,268],[2,0],[82,-30],[58,-68],[49,-78],[59,-59],[20,59],[56,-12],[106,-68],[0,-12]],[[4096,1490],[-34,-30],[-18,-12],[-37,-6],[-77,2],[-25,4],[3,-56],[-18,-24],[-25,10],[-20,48],[-6,-14],[-9,-15],[-6,-15],[-18,0],[0,39],[-11,29],[-21,23],[-30,17],[-42,11],[-32,-7],[-47,-27],[-29,-31],[-20,-2],[-29,33],[-12,38],[2,67],[-10,25],[-12,74],[-93,62],[-310,118],[-42,28],[-67,56],[-9,8],[-94,37],[-41,34],[-72,23],[-349,10],[-53,-17],[-20,-42],[10,-50],[35,-42],[37,-14],[95,-13],[45,-16],[-33,-13],[-86,-51],[-15,-1],[-19,2],[-17,0],[-7,-10],[-7,-15],[-18,-18],[-20,-15],[-15,-7],[-27,10],[-29,55],[-25,21],[-35,-2],[-32,-16],[-29,-1],[-23,40],[11,4],[29,17],[-60,0],[0,21],[155,7],[34,41],[10,125],[-20,0],[0,-66],[-18,0],[-38,50],[-64,39],[-70,21],[-50,-1],[-57,-23],[-1,-20],[19,-44],[18,-28],[19,-14],[63,-22],[0,-20],[-62,4],[-55,12],[-49,23],[-44,34],[-46,18],[-59,10],[-39,21],[14,49],[-5,33],[29,-1],[27,-28],[-11,-47],[163,75],[47,11],[22,20],[-17,44],[-40,44],[-45,20],[-31,2],[-79,19],[-49,33],[-13,5],[-23,-14],[-16,-1],[-179,62],[-5,-37],[-13,-31],[-40,-61],[20,0],[-12,-38],[-7,-38],[-13,-32],[-28,-21],[8,78],[-148,-78],[-41,77],[11,44],[29,30],[42,17],[103,6],[35,11],[23,32],[18,65],[-60,0],[20,42],[-38,30],[-161,34],[-106,51],[-43,31],[-6,4],[-46,42],[-312,385],[-54,33],[-55,-10],[-24,-31],[-74,-140],[-36,-166],[-25,-47],[-28,-4],[-27,-16],[-3,-4],[-73,-36],[-28,-8],[23,55],[-46,6],[-65,-11],[-33,6],[-13,21],[-26,54],[-18,57],[8,25],[51,24],[21,52],[-15,52],[-57,24],[-82,-7],[-29,7],[-27,16],[-22,21],[-24,19],[-17,4]],[[0,3094],[31,3],[25,-10],[32,-29],[26,-11],[17,-11],[15,-5],[6,12],[4,3],[10,11],[7,11],[-1,6],[54,-6],[48,-14],[187,-87],[15,-12],[50,-56],[25,-17],[20,54],[70,76],[10,62],[-17,27],[-30,27],[-16,38],[23,59],[-52,-14],[-43,1],[-41,12],[-43,22],[-171,130],[-40,15],[-98,81],[-42,42],[-41,30],[-40,12]],[[0,3238],[3,-3],[17,-38],[1,-17],[-8,-6],[-8,-15],[-5,-5]],[[0,268],[2,0],[82,-30],[58,-68],[49,-78],[59,-59],[20,59],[56,-12],[106,-68],[0,-12]],[[571,2408],[-61,40],[-333,-61],[-177,108]],[[4,2783],[1,0]],[[187,2822],[31,59],[49,0]],[[578,2408],[143,107],[237,274]],[[876,2886],[3,-4]],[[879,2882],[-2,5]],[[879,2882],[35,-44]],[[914,2838],[43,-47]],[[957,2791],[-43,47]],[[1038,1065],[40,-27]],[[1106,1011],[-28,27]],[[1078,1038],[28,-28]],[[1106,1010],[4,-1]],[[1109,1010],[-2,0]],[[1155,994],[13,-14]],[[877,2888],[-2,0],[0,-2],[2,0],[0,2]],[[960,2791],[-2,0],[0,-2],[2,0],[0,2]],[[1106,1010]],[[1106,1010],[1,0],[-1,1],[0,-1]],[[3209,811],[1,0],[0,2],[-1,0],[0,-2]],[[3229,838],[2,-1],[1,1],[-2,2],[-1,-2]],[[3032,483],[0,-1]],[[3151,722],[11,-2],[36,1],[2,0],[2,1]],[[3202,722],[33,13]],[[3235,735]],[[3235,735],[3,1]],[[3238,736],[13,5],[26,48],[-39,-53]],[[3238,736],[-3,-4]],[[3235,732]],[[3235,732],[-33,-10]],[[3202,722],[-2,-1],[-2,0],[-47,2]],[[3231,835],[5,-46],[-2,-22],[1,-32]],[[3235,735],[0,-3]],[[3235,732]],[[3235,732],[0,3]],[[3235,735],[1,54],[-5,46]],[[3209,811],[-6,-15]],[[3204,796],[6,15]],[[3229,838],[-20,-25]],[[3210,813],[20,24]],[[3233,840],[374,128]],[[3609,968],[122,21],[61,163],[86,35]],[[3880,1187],[85,61]],[[3966,1249],[10,26]],[[3977,1275],[119,76]],[[1114,988],[32,-5]],[[3093,781],[-3,-1]],[[3093,781],[25,5]],[[3151,766],[-33,20]],[[3152,766],[6,-27]],[[1263,557],[-8,260],[-36,52],[-11,86]],[[1263,556],[33,-385],[97,-120],[26,-51]],[[3607,968],[2,0]],[[3878,1187],[2,0]],[[3965,1248],[1,1]],[[3976,1275],[1,0]],[[3032,482],[80,166],[33,65],[5,10]],[[3150,723]],[[3150,723],[3,6],[-3,-6]],[[3150,723],[0,-1]],[[3150,722],[-85,-176]],[[3151,723],[-1,0]],[[3150,723]],[[3150,723],[-1,0],[-89,48],[89,-48],[1,0]],[[3150,723],[0,-1]],[[3150,722],[1,0]],[[3219,788],[97,-1]],[[3317,787],[42,-8]],[[3359,778],[4,-3]],[[3364,775],[30,-7]],[[3394,768],[7,-6]],[[3401,761],[29,-20]],[[3430,741],[154,-125],[31,-128]],[[3615,487],[-2,-35],[47,-5],[65,-94],[56,-30],[9,-76]],[[3790,247],[46,-63]],[[3836,184],[8,-184]],[[4041,0],[34,38]],[[4076,39],[20,-2]],[[69,2452],[37,124],[-16,28],[-90,94]],[[3316,787],[1,0]],[[3359,779],[0,-1]],[[3363,775],[1,0]],[[3394,768]],[[3401,762],[0,-1]],[[3430,741]],[[3615,488],[0,-1]],[[3790,247]],[[3836,184]],[[4075,38],[1,1]],[[0,2779],[4,4]],[[5,2783],[220,47]],[[1263,557],[0,-1]],[[1149,1000],[-7,21],[-33,-11]],[[1110,1009],[39,-9]],[[1149,1000],[6,-6]],[[3178,797],[41,-9]],[[0,1319],[251,11],[149,-70],[65,6],[126,-43],[195,13],[253,-177]],[[1039,1059],[-1,6]],[[1039,1059],[27,-63],[48,-8]],[[1146,983],[21,-4]],[[1173,977],[145,-80],[288,-10],[164,-86],[181,0],[42,-56],[178,-66],[403,23],[93,36],[423,42]],[[3032,482],[-118,-211],[-144,-143],[-48,-91],[-34,-37]],[[3152,766],[-1,0]],[[3158,739],[-5,-10]],[[1171,978],[0,1],[-1,1],[0,-2],[1,0]],[[3203,796],[-1,-6]],[[3202,790],[2,6]],[[3065,546],[-33,-63]],[[4096,1490],[0,-1490],[-3664,0],[0,12],[-106,68],[-56,12],[-20,-59],[-59,59],[-49,78],[-58,68],[-82,30],[-2,0],[0,2738],[17,-4],[24,-19],[22,-21],[27,-16],[29,-7],[82,7],[57,-24],[15,-52],[-21,-52],[-51,-24],[-8,-25],[18,-57],[26,-54],[13,-21],[33,-6],[65,11],[46,-6],[-23,-55],[28,8],[73,36],[3,4],[27,16],[28,4],[25,47],[36,166],[74,140],[24,31],[55,10],[54,-33],[312,-385],[46,-42],[6,-4],[43,-31],[106,-51],[161,-34],[38,-30],[-20,-42],[60,0],[-18,-65],[-23,-32],[-35,-11],[-103,-6],[-42,-17],[-29,-30],[-11,-44],[41,-77],[148,78],[-8,-78],[28,21],[13,32],[7,38],[12,38],[-20,0],[40,61],[13,31],[5,37],[179,-62],[16,1],[23,14],[13,-5],[49,-33],[79,-19],[31,-2],[45,-20],[40,-44],[17,-44],[-22,-20],[-47,-11],[-163,-75],[11,47],[-27,28],[-29,1],[5,-33],[-14,-49],[39,-21],[59,-10],[46,-18],[44,-34],[49,-23],[55,-12],[62,-4],[0,20],[-63,22],[-19,14],[-18,28],[-19,44],[1,20],[57,23],[50,1],[70,-21],[64,-39],[38,-50],[18,0],[0,66],[20,0],[-10,-125],[-34,-41],[-155,-7],[0,-21],[60,0],[-29,-17],[-11,-4],[23,-40],[29,1],[32,16],[35,2],[25,-21],[29,-55],[27,-10],[15,7],[20,15],[18,18],[7,15],[7,10],[17,0],[19,-2],[15,1],[86,51],[33,13],[-45,16],[-95,13],[-37,14],[-35,42],[-10,50],[20,42],[53,17],[349,-10],[72,-23],[41,-34],[94,-37],[9,-8],[67,-56],[42,-28],[310,-118],[93,-62],[12,-74],[10,-25],[-2,-67],[12,-38],[29,-33],[20,2],[29,31],[47,27],[32,7],[42,-11],[30,-17],[21,-23],[11,-29],[0,-39],[18,0],[6,15],[9,15],[6,14],[20,-48],[25,-10],[18,24],[-3,56],[25,-4],[77,-2],[37,6],[18,12],[34,30]],[[0,3238],[0,318],[40,-12],[41,-30],[42,-42],[98,-81],[40,-15],[171,-130],[43,-22],[41,-12],[43,-1],[52,14],[-23,-59],[16,-38],[30,-27],[17,-27],[-10,-62],[-70,-76],[-20,-54],[-25,17],[-50,56],[-15,12],[-187,87],[-48,14],[-54,6],[1,-6],[-7,-11],[-10,-11],[-4,-3],[-6,-12],[-15,5],[-17,11],[-26,11],[-32,29],[-25,10],[-31,-3],[0,60],[5,5],[8,15],[8,6],[-1,17],[-17,38],[-3,3]],[[3090,767],[2,86],[19,-31],[51,15],[-25,19],[33,35],[8,-34],[32,-2],[-29,-21],[42,21],[-29,-55],[30,-15],[-20,-50],[-44,-5],[-8,36],[-13,-20],[-49,21]],[[3167,837],[5,-1],[5,3],[-8,2],[-2,-4]],[[1102,1043],[90,66],[46,-57],[-33,-25],[14,-24],[-36,26],[-43,-54],[-26,13],[-12,55]],[[0,331],[1,2],[129,-63],[117,-18],[-16,94],[46,1],[21,34],[57,-12],[37,-78],[41,28],[9,-48],[55,42],[9,-128],[48,38],[48,-10],[-7,-21],[41,-23],[113,58],[9,-64],[79,-8],[17,110],[23,-1],[-15,-149],[92,-41],[-23,-74],[-554,0],[-51,25],[-112,-9],[-100,136],[-114,94],[0,85]],[[343,3253],[2,164],[287,-164],[4,-181],[-30,-66],[-33,-8],[-33,34],[-122,2],[35,151],[-110,68]]]}