{"objects":{"water":{"type":"GeometryCollection","geometries":[{"type":"MultiPolygon","properties":{"source":"naturalearthdata.com","kind":"ocean","area":1576712559132672,"sort_rank":200,"min_zoom":0.0,"id":1},"arcs":[[[10]]]},{"type":"MultiLineString","properties":{"source":"naturalearthdata.com","kind":"ocean","sort_rank":205,"boundary":true,"min_zoom":0.0,"id":76},"arcs":[[11],[12]]}]},"buildings":{"type":"GeometryCollection","geometries":[]},"places":{"type":"GeometryCollection","geometries":[]},"transit":{"type":"GeometryCollection","geometries":[]},"pois":{"type":"GeometryCollection","geometries":[]},"boundaries":{"type":"GeometryCollection","geometries":[{"type":"LineString","properties":{"name:right:yo":"K\u00f2l\u00f3mb\u00ec\u00e0","name:left:la":"Panama","name:right:qu":"Kulumbya","name:right:yi":"\u05e7\u05d0\u05dc\u05d0\u05de\u05d1\u05d9\u05e2","name:right:hy":"\u053f\u0578\u056c\u0578\u0582\u0574\u0562\u056b\u0561","name:left:su":"Panama","name:left:li":"Panama","name:left:sw":"Panama","name:left:sv":"Panama","name:left:sq":"Panamaja","name:left:lb":"Panama","name:left:ln":"Panama","name:left:sr":"\u041f\u0430\u043d\u0430\u043c\u0430","name:left:sl":"Panama","name:left:so":"Banama","name:left:lt":"Panama","name:left:sh":"Panama","name:left:lv":"Panama","name:right:mr":"\u0915\u094b\u0932\u0902\u092c\u093f\u092f\u093e","name:left:se":"Panama","name:left:sa":"\u092a\u093e\u0928\u093e\u092e\u093e","name:right:he":"\u05e7\u05d5\u05dc\u05d5\u05de\u05d1\u05d9\u05d4","name:right:la":"Columbia","name:left:ce":"\u041f\u0430\u043d\u0430\u043c\u0430","name:right:am":"\u12ae\u120e\u121d\u1262\u12eb","name:left:ca":"Panam\u00e0","source":"openstreetmap.org","name:left:cy":"Panama","name:right:ar":"\u0643\u0648\u0644\u0648\u0645\u0628\u064a\u0627","name:left:cv":"\u041f\u0430\u043d\u0430\u043c\u0430","name:right:az":"Kolumbiya","name:left:cs":"Panama","name:left:ka":"\u10de\u10d0\u10dc\u10d0\u10db\u10d0","name:right:zh-yue":"\u54e5\u502b\u6bd4\u4e9e","name:right:ht":"Kolonbi","name:left:ko":"\ud30c\ub098\ub9c8","name:left:kn":"\u0caa\u0ca8\u0cbe\u0cae\u0cbe","name:left:ki":"Panama","name:left:ro":"Panama","name:left:kk":"\u041f\u0430\u043d\u0430\u043c\u0430","name:right:ru":"\u041a\u043e\u043b\u0443\u043c\u0431\u0438\u044f","name:left:ku":"Panama","name:left:kw":"Panama","name:right:ro":"Columbia","name:left:ru":"\u041f\u0430\u043d\u0430\u043c\u0430","name:right:rm":"Columbia","name:right:id":"Kolombia","name:right:bo":"\u0f41\u0f7c\u0f0b\u0f63\u0f7c\u0f58\u0f0b\u0f56\u0f72\u0f0b\u0f61\u0f0d","name:right:hu":"Kolumbia","name:right:bn":"\u0995\u09b2\u09ae\u09cd\u09ac\u09bf\u09af\u09bc\u09be","name":"Panam\u00e1 - Colombia","name:right:zu":"IKolombiya","name:right:ba":"\u041a\u043e\u043b\u0443\u043c\u0431\u0438\u044f","name:right:th":"\u0e1b\u0e23\u0e30\u0e40\u0e17\u0e28\u0e42\u0e04\u0e25\u0e2d\u0e21\u0e40\u0e1a\u0e35\u0e22","name:right:bg":"\u041a\u043e\u043b\u0443\u043c\u0431\u0438\u044f","name:right:be":"\u041a\u0430\u043b\u0443\u043c\u0431\u0456\u044f","name:left:zh":"\u5df4\u62ff\u9a6c","name:right:br":"Kolombia","name:right:bs":"Kolumbija","name:right:zh":"\u54e5\u4f26\u6bd4\u4e9a","name:left:uz":"Panama","name:right:fr":"Colombie","name:left:sk":"Panama","name:right:ko":"\ucf5c\ub86c\ube44\uc544","name:left:ur":"\u067e\u0627\u0646\u0627\u0645\u0627","name:right:wo":"Koloombi","name:right:ne":"\u0915\u094b\u0932\u092e\u094d\u092c\u093f\u092f\u093e","id:right":-120027,"name:left:uk":"\u041f\u0430\u043d\u0430\u043c\u0430","name:left:no":"Panama","name:left:nl":"Panama","name:right:hi":"\u0915\u094b\u0932\u092e\u094d\u092c\u093f\u092f\u093e","name:right:fa":"\u06a9\u0644\u0645\u0628\u06cc\u0627","name:right:nv":"Kol\u00e1mbiya","name:right:fo":"Kolumbia","name:left:zu":"Panama","name:left:ug":"\u067e\u0627\u0646\u0627\u0645\u0627","name:right:fi":"Kolumbia","name:left:eo":"Panamo","name:left:en":"Panama","name:right:kn":"\u0c95\u0cca\u0cb2\u0cca\u0c82\u0cac\u0cbf\u0caf","name:left:el":"\u03a0\u03b1\u03bd\u03b1\u03bc\u03ac\u03c2","kind_detail":"2","name:left:ee":"Panama","name:right:tt":"\u041a\u043e\u043b\u0443\u043c\u0431\u0438\u044f","name:left:hr":"Panama","name:left:ss":"IPhanama","name:left:eu":"Panama","name:left:et":"Panama","name:right:xh":"IsiColombia","name:right:gv":"Yn Cholombey","name:left:mg":"Panama","name:left:mk":"\u041f\u0430\u043d\u0430\u043c\u0430","name:left:tr":"Panama","name:left:tt":"\u041f\u0430\u043d\u0430\u043c\u0430","name:left:mn":"\u041f\u0430\u043d\u0430\u043c","name:right:oc":"Col\u00f3mbia","name:left:ml":"\u0d2a\u0d28\u0d3e\u0d2e","name:left:th":"\u0e1b\u0e23\u0e30\u0e40\u0e17\u0e28\u0e1b\u0e32\u0e19\u0e32\u0e21\u0e32","name:right:pa":"\u0a15\u0a4b\u0a32\u0a70\u0a2c\u0a40\u0a06","name:left:tl":"Panama","name:right:tr":"Kolombiya","name:left:mt":"Panama","name:left:ta":"\u0baa\u0ba9\u0bbe\u0bae\u0bbe","name:left:my":"\u1015\u1014\u102c\u1038\u1019\u102c\u1038\u1014\u102d\u102f\u1004\u103a\u1004\u1036","name:right:gn":"Kol\u00f3mbia","name:right:pl":"Kolumbia","name:left:te":"\u0c2a\u0c28\u0c3e\u0c2e\u0c3e","name:right:os":"\u041a\u043e\u043b\u0443\u043c\u0431\u0438","name:left:tg":"\u041f\u0430\u043d\u0430\u043c\u0430","name:left:ms":"Panama","name:left:mr":"\u092a\u0928\u093e\u092e\u093e","name:left:da":"Panama","name:left:ar":"\u0628\u0646\u0645\u0627","name:left:de":"Panama","name:right:ga":"An Chol\u00f3im","name:left:dv":"\u0795\u07ac\u0782\u07a6\u0789\u07a7","name:right:ug":"\u0643\u0648\u0644\u0648\u0645\u0628\u0649\u064a\u06d5","name:left:hi":"\u092a\u0928\u093e\u092e\u093e","name:right:lb":"Kolumbien","name:right:uk":"\u041a\u043e\u043b\u0443\u043c\u0431\u0456\u044f","name:left:he":"\u05e4\u05e0\u05de\u05d4","name:right:ln":"Kolombi","name:right:lt":"Kolumbija","name:right:ur":"\u06a9\u0648\u0644\u0645\u0628\u06cc\u0627","name:right:lv":"Kolumbija","name:right:ie":"Columbia","name:left:hy":"\u054a\u0561\u0576\u0561\u0574\u0561","name:left:ht":"Panama","name:left:hu":"Panama","kind":"country","name:left:wo":"Panamaa","name:left:ga":"Panama","name:left:gd":"Panama","sort_rank":262,"name:right:gd":"Coloimbia","name:right:gu":"\u0a95\u0acb\u0ab2\u0aae\u0acd\u0aac\u0abf\u0aaf\u0abe","name:left:gn":"Panama","name:left:gu":"\u0aaa\u0aa8\u0abe\u0aae\u0abe","osm_relation":true,"name:left:gv":"Yn Phanamaa","official_name:right":"Rep\u00fablica de Colombia","name:right:or":"\u0b15\u0b32\u0b4b\u0b2e\u0b4d\u0b2c\u0b3f\u0b06","name:left":"Panam\u00e1","name:right:mk":"\u041a\u043e\u043b\u0443\u043c\u0431\u0438\u0458\u0430","name:left:ja":"\u30d1\u30ca\u30de","name:right:pt":"Col\u00f4mbia","name:right:mn":"\u041a\u043e\u043b\u0443\u043c\u0431","name:right:eu":"Kolonbia","name:right:ml":"\u0d15\u0d4a\u0d33\u0d02\u0d2c\u0d3f\u0d2f","name:right:vo":"Kolumb\u00e4n","name:left:os":"\u041f\u0430\u043d\u0430\u043c\u00e6","name:left:or":"\u0b2a\u0b3e\u0b28\u0b3e\u0b2e\u0b3e","name:right:mg":"Kolombia","name:right:my":"\u1000\u102d\u102f\u101c\u1036\u1018\u102e\u101a\u102c\u1014\u102d\u102f\u1004\u103a\u1004\u1036","name:right:uz":"Kolumbiya","name:left:vo":"Panam\u00e4n","name:left:oc":"Panam\u00e0","name:right:na":"Korombiya","name:right:eo":"Kolombio","name:left:vi":"Panama","name:left:nn":"Panama","name:right:mt":"Kolombja","name:left:fa":"\u067e\u0627\u0646\u0627\u0645\u0627","name:left:fo":"Panama","name:left:qu":"Panama","name:left:fi":"Panama","name:right:ay":"Kuluwya","name:right:fy":"Kolombia","name:left:fy":"Panama","name:left:bs":"Panama","name:right:ja":"\u30b3\u30ed\u30f3\u30d3\u30a2","name:right:sq":"Kolumbia","name:right:sr":"\u041a\u043e\u043b\u0443\u043c\u0431\u0438\u0458\u0430","name:right:su":"Kolombia","name:right:sw":"Kolombia","name:right:sh":"Kolumbija","name:right:sk":"Kolumbia","name:left:ba":"\u041f\u0430\u043d\u0430\u043c\u0430","name:right:jv":"Kolombia","name:left:bg":"\u041f\u0430\u043d\u0430\u043c\u0430","name:right:so":"Kolombiya","name:left:be":"\u041f\u0430\u043d\u0430\u043c\u0430","name:right:sa":"\u0915\u094b\u0932\u094b\u092e\u094d\u092c\u093f\u092f\u093e","name:right:sl":"Kolumbija","name:left:jv":"Panama","name:left:bo":"\u0f54\u0f0b\u0f53\u0f0b\u0f58\u0f0d","name:right":"Colombia","name:left:ne":"\u092a\u093e\u0928\u093e\u092e\u093e","name:right:ca":"Col\u00f2mbia","name:right:se":"Kolombia","name:right:ce":"\u041a\u043e\u043b\u0443\u043c\u0431\u0438","maritime_boundary":true,"id":-287668,"name:right:dz":"\u0f40\u0f7c\u0f0b\u0f63\u0f7c\u0f58\u0f0b\u0f56\u0f72\u0f0b\u0f61","name:left:yi":"\u05e4\u05d0\u05e0\u05d0\u05de\u05d0","id:left":-287668,"min_zoom":8.0,"name:right:cs":"Kolumbie","name:left:bm":"Panama","name:right:cv":"\u041a\u043e\u043b\u0443\u043c\u0431\u0438","name:right:ka":"\u10d9\u10dd\u10da\u10e3\u10db\u10d1\u10d8\u10d0","name:right:hr":"Kolumbija","name:left:io":"Panama","name:left:pa":"\u0a2a\u0a28\u0a3e\u0a2e\u0a3e","name:left:pl":"Panama","name:right:is":"K\u00f3lumb\u00eda","name:right:kk":"\u041a\u043e\u043b\u0443\u043c\u0431\u0438\u044f \u0420\u0435\u0441\u043f\u0443\u0431\u043b\u0438\u043a\u0430\u0441\u044b","name:left:id":"Panama","name:right:km":"\u1780\u17bc\u17a1\u17bb\u17c6\u1794\u17ca\u17b8","name:left:az":"Panama","name:left:ia":"Panama","name:right:rw":"Kolombiya","name:left:af":"Panama","name:right:ku":"Kolombiya","name:right:kw":"Kolombi","name:left:ps":"\u067e\u0627\u0646\u0627\u0645\u0627","name:right:te":"\u0c15\u0c4a\u0c32\u0c02\u0c2c\u0c3f\u0c2f\u0c3e","name:left:am":"\u1353\u1293\u121b","name:right:tg":"\u041a\u0443\u043b\u0443\u043c\u0431\u0438\u044f","name:left:is":"Panama","name:right:ta":"\u0b95\u0bca\u0bb2\u0bca\u0bae\u0bcd\u0baa\u0bbf\u0baf\u0bbe","name:right:io":"Kolumbia","name:right:de":"Kolumbien","name:right:el":"\u039a\u03bf\u03bb\u03bf\u03bc\u03b2\u03af\u03b1","name:left:zh-yue":"\u5df4\u62ff\u99ac","name:left:ay":"Panama","name:right:dv":"\u0786\u07ae\u078d\u07a6\u0782\u07b0\u0784\u07a8\u0787\u07a7","name:left:bn":"\u09aa\u09be\u09a8\u09be\u09ae\u09be","name:left:rw":"Panama"},"arcs":[0]},{"type":"LineString","properties":{"name:ay":"Panama","name:ps":"\u067e\u0627\u0646\u0627\u0645\u0627","name:ka":"\u10de\u10d0\u10dc\u10d0\u10db\u10d0","name:ko":"\ud30c\ub098\ub9c8","name:cv":"\u041f\u0430\u043d\u0430\u043c\u0430","name:cs":"Panama","name:ki":"Panama","name:kw":"Panama","name:ku":"Panama","name:az":"Panama","name:tl":"Panama","name:pa":"\u0a2a\u0a28\u0a3e\u0a2e\u0a3e","name:os":"\u041f\u0430\u043d\u0430\u043c\u00e6","name:or":"\u0b2a\u0b3e\u0b28\u0b3e\u0b2e\u0b3e","name:ce":"\u041f\u0430\u043d\u0430\u043c\u0430","name:ta":"\u0baa\u0ba9\u0bbe\u0bae\u0bbe","name:tg":"\u041f\u0430\u043d\u0430\u043c\u0430","name:ca":"Panam\u00e0","name:te":"\u0c2a\u0c28\u0c3e\u0c2e\u0c3e","name:li":"Panama","name:cy":"Panama","source":"openstreetmap.org","sort_rank":262,"name:qu":"Panama","name:da":"Panama","name:de":"Panama","name:tr":"Panama","name:sq":"Panamaja","name:kn":"\u0caa\u0ca8\u0cbe\u0cae\u0cbe","name:be":"\u041f\u0430\u043d\u0430\u043c\u0430","name:dv":"\u0795\u07ac\u0782\u07a6\u0789\u07a7","name:lv":"Panama","name:lt":"Panama","name:uz":"Panama","name:kk":"\u041f\u0430\u043d\u0430\u043c\u0430","name:he":"\u05e4\u05e0\u05de\u05d4","name:eo":"Panamo","name:ur":"\u067e\u0627\u0646\u0627\u0645\u0627","name:lb":"Panama","name:la":"Panama","name:tt":"\u041f\u0430\u043d\u0430\u043c\u0430","name:uk":"\u041f\u0430\u043d\u0430\u043c\u0430","name:hy":"\u054a\u0561\u0576\u0561\u0574\u0561","name:ug":"\u067e\u0627\u0646\u0627\u0645\u0627","name:hu":"Panama","name:ln":"Panama","name:oc":"Panam\u00e0","name:el":"\u03a0\u03b1\u03bd\u03b1\u03bc\u03ac\u03c2","kind":"country","name:en":"Panama","name":"Panam\u00e1","name:ee":"Panama","name:gd":"Panama","min_zoom":8.0,"name:th":"\u0e1b\u0e23\u0e30\u0e40\u0e17\u0e28\u0e1b\u0e32\u0e19\u0e32\u0e21\u0e32","name:eu":"Panama","name:et":"Panama","name:jv":"Panama","name:ia":"Panama","name:mt":"Panama","name:ro":"Panama","name:id":"Panama","name:ms":"Panama","name:mr":"\u092a\u0928\u093e\u092e\u093e","name:ar":"\u0628\u0646\u0645\u0627","name:my":"\u1015\u1014\u102c\u1038\u1019\u102c\u1038\u1014\u102d\u102f\u1004\u103a\u1004\u1036","name:io":"Panama","name:is":"Panama","name:am":"\u1353\u1293\u121b","name:ru":"\u041f\u0430\u043d\u0430\u043c\u0430","id":-287668,"name:vi":"Panama","name:rw":"Panama","name:pl":"Panama","name:mk":"\u041f\u0430\u043d\u0430\u043c\u0430","name:af":"Panama","name:zu":"Panama","name:mn":"\u041f\u0430\u043d\u0430\u043c","name:ss":"IPhanama","kind_detail":"2","name:hi":"\u092a\u0928\u093e\u092e\u093e","name:mg":"Panama","name:fo":"Panama","name:ba":"\u041f\u0430\u043d\u0430\u043c\u0430","name:zh-yue":"\u5df4\u62ff\u99ac","name:fy":"Panama","name:vo":"Panam\u00e4n","name:zh":"\u5df4\u62ff\u9a6c","name:hr":"Panama","name:so":"Banama","name:sl":"Panama","name:nl":"Panama","name:ja":"\u30d1\u30ca\u30de","name:nn":"Panama","name:sh":"Panama","name:se":"Panama","name:ne":"\u092a\u093e\u0928\u093e\u092e\u093e","name:sa":"\u092a\u093e\u0928\u093e\u092e\u093e","name:bs":"Panama","name:yi":"\u05e4\u05d0\u05e0\u05d0\u05de\u05d0","name:bn":"\u09aa\u09be\u09a8\u09be\u09ae\u09be","name:bo":"\u0f54\u0f0b\u0f53\u0f0b\u0f58\u0f0d","name:sk":"Panama","name:ml":"\u0d2a\u0d28\u0d3e\u0d2e","name:no":"Panama","name:sw":"Panama","name:sv":"Panama","name:su":"Panama","name:bg":"\u041f\u0430\u043d\u0430\u043c\u0430","name:wo":"Panamaa","name:sr":"\u041f\u0430\u043d\u0430\u043c\u0430","osm_relation":true,"name:ga":"Panama","name:bm":"Panama","name:ht":"Panama","name:gn":"Panama","name:fa":"\u067e\u0627\u0646\u0627\u0645\u0627","maritime_boundary":true,"name:gv":"Yn Phanamaa","name:gu":"\u0aaa\u0aa8\u0abe\u0aae\u0abe","name:fi":"Panama"},"arcs":[1]},{"type":"LineString","properties":{"name:pt":"Col\u00f4mbia","name:ka":"\u10d9\u10dd\u10da\u10e3\u10db\u10d1\u10d8\u10d0","name:rm":"Columbia","name:ko":"\ucf5c\ub86c\ube44\uc544","name:cv":"\u041a\u043e\u043b\u0443\u043c\u0431\u0438","name:km":"\u1780\u17bc\u17a1\u17bb\u17c6\u1794\u17ca\u17b8","name:cs":"Kolumbie","name:tt":"\u041a\u043e\u043b\u0443\u043c\u0431\u0438\u044f","name:kw":"Kolombi","name:ku":"Kolombiya","name:az":"Kolumbiya","name:pa":"\u0a15\u0a4b\u0a32\u0a70\u0a2c\u0a40\u0a06","name:os":"\u041a\u043e\u043b\u0443\u043c\u0431\u0438","name:or":"\u0b15\u0b32\u0b4b\u0b2e\u0b4d\u0b2c\u0b3f\u0b06","name:ce":"\u041a\u043e\u043b\u0443\u043c\u0431\u0438","name:ta":"\u0b95\u0bca\u0bb2\u0bca\u0bae\u0bcd\u0baa\u0bbf\u0baf\u0bbe","name:tg":"\u041a\u0443\u043b\u0443\u043c\u0431\u0438\u044f","name:ca":"Col\u00f2mbia","name:te":"\u0c15\u0c4a\u0c32\u0c02\u0c2c\u0c3f\u0c2f\u0c3e","source":"openstreetmap.org","sort_rank":262,"name:qu":"Kulumbya","name:de":"Kolumbien","name:dz":"\u0f40\u0f7c\u0f0b\u0f63\u0f7c\u0f58\u0f0b\u0f56\u0f72\u0f0b\u0f61","name:tr":"Kolombiya","name:nv":"Kol\u00e1mbiya","name:xh":"IsiColombia","name:kn":"\u0c95\u0cca\u0cb2\u0cca\u0c82\u0cac\u0cbf\u0caf","name:dv":"\u0786\u07ae\u078d\u07a6\u0782\u07b0\u0784\u07a8\u0787\u07a7","name:ba":"\u041a\u043e\u043b\u0443\u043c\u0431\u0438\u044f","name:lv":"Kolumbija","name:lt":"Kolumbija","name:uz":"Kolumbiya","name:kk":"\u041a\u043e\u043b\u0443\u043c\u0431\u0438\u044f \u0420\u0435\u0441\u043f\u0443\u0431\u043b\u0438\u043a\u0430\u0441\u044b","name:he":"\u05e7\u05d5\u05dc\u05d5\u05de\u05d1\u05d9\u05d4","name:eo":"Kolombio","name:ur":"\u06a9\u0648\u0644\u0645\u0628\u06cc\u0627","name:lb":"Kolumbien","name:la":"Columbia","name:io":"Kolumbia","name:uk":"\u041a\u043e\u043b\u0443\u043c\u0431\u0456\u044f","name:hy":"\u053f\u0578\u056c\u0578\u0582\u0574\u0562\u056b\u0561","name:ug":"\u0643\u0648\u0644\u0648\u0645\u0628\u0649\u064a\u06d5","name:hu":"Kolumbia","name:ln":"Kolombi","name:oc":"Col\u00f3mbia","name:el":"\u039a\u03bf\u03bb\u03bf\u03bc\u03b2\u03af\u03b1","kind":"country","name":"Colombia","min_zoom":8.0,"name:th":"\u0e1b\u0e23\u0e30\u0e40\u0e17\u0e28\u0e42\u0e04\u0e25\u0e2d\u0e21\u0e40\u0e1a\u0e35\u0e22","name:eu":"Kolonbia","name:jv":"Kolombia","name:yo":"K\u00f2l\u00f3mb\u00ec\u00e0","name:ay":"Kuluwya","name:mt":"Kolombja","name:ro":"Columbia","name:ie":"Columbia","name:id":"Kolombia","name:mr":"\u0915\u094b\u0932\u0902\u092c\u093f\u092f\u093e","name:ar":"\u0643\u0648\u0644\u0648\u0645\u0628\u064a\u0627","name:my":"\u1000\u102d\u102f\u101c\u1036\u1018\u102e\u101a\u102c\u1014\u102d\u102f\u1004\u103a\u1004\u1036","official_name":"Rep\u00fablica de Colombia","name:is":"K\u00f3lumb\u00eda","name:am":"\u12ae\u120e\u121d\u1262\u12eb","name:ru":"\u041a\u043e\u043b\u0443\u043c\u0431\u0438\u044f","id":-120027,"name:ml":"\u0d15\u0d4a\u0d33\u0d02\u0d2c\u0d3f\u0d2f","name:rw":"Kolombiya","name:pl":"Kolumbia","name:mk":"\u041a\u043e\u043b\u0443\u043c\u0431\u0438\u0458\u0430","name:vo":"Kolumb\u00e4n","name:zu":"IKolombiya","name:mn":"\u041a\u043e\u043b\u0443\u043c\u0431","kind_detail":"2","name:hi":"\u0915\u094b\u0932\u092e\u094d\u092c\u093f\u092f\u093e","name:mg":"Kolombia","name:fo":"Kolumbia","name:fr":"Colombie","name:zh-yue":"\u54e5\u502b\u6bd4\u4e9e","name:fy":"Kolombia","name:zh":"\u54e5\u4f26\u6bd4\u4e9a","name:hr":"Kolumbija","name:so":"Kolombiya","name:sl":"Kolumbija","name:sk":"Kolumbia","name:ja":"\u30b3\u30ed\u30f3\u30d3\u30a2","name:sh":"Kolumbija","name:na":"Korombiya","name:se":"Kolombia","name:ne":"\u0915\u094b\u0932\u092e\u094d\u092c\u093f\u092f\u093e","name:sa":"\u0915\u094b\u0932\u094b\u092e\u094d\u092c\u093f\u092f\u093e","name:bs":"Kolumbija","name:yi":"\u05e7\u05d0\u05dc\u05d0\u05de\u05d1\u05d9\u05e2","name:bn":"\u0995\u09b2\u09ae\u09cd\u09ac\u09bf\u09af\u09bc\u09be","name:bo":"\u0f41\u0f7c\u0f0b\u0f63\u0f7c\u0f58\u0f0b\u0f56\u0f72\u0f0b\u0f61\u0f0d","name:br":"Kolombia","name:sw":"Kolombia","name:be":"\u041a\u0430\u043b\u0443\u043c\u0431\u0456\u044f","name:su":"Kolombia","name:bg":"\u041a\u043e\u043b\u0443\u043c\u0431\u0438\u044f","name:wo":"Koloombi","name:sr":"\u041a\u043e\u043b\u0443\u043c\u0431\u0438\u0458\u0430","osm_relation":true,"name:sq":"Kolumbia","name:ga":"An Chol\u00f3im","name:gd":"Coloimbia","name:ht":"Kolonbi","name:gn":"Kol\u00f3mbia","name:fa":"\u06a9\u0644\u0645\u0628\u06cc\u0627","maritime_boundary":true,"name:gv":"Yn Cholombey","name:gu":"\u0a95\u0acb\u0ab2\u0aae\u0acd\u0aac\u0abf\u0aaf\u0abe","name:fi":"Kolumbia"},"arcs":[2]},{"type":"LineString","properties":{"kind":"region","name":"Comarca Guna Yala","sort_rank":256,"kind_detail":"4","min_zoom":8.0,"source":"openstreetmap.org","maritime_boundary":true,"old_name":"San Blas","id":-5740658,"osm_relation":true},"arcs":[3]},{"type":"LineString","properties":{"kind":"region","name":"Choc\u00f3","sort_rank":256,"kind_detail":"4","min_zoom":8.0,"source":"openstreetmap.org","maritime_boundary":true,"id":-1322131,"osm_relation":true},"arcs":[4]},{"type":"LineString","properties":{"kind":"region","name":"C\u00f3rdoba - Antioquia","sort_rank":256,"kind_detail":"4","id:right":-1315120,"source":"openstreetmap.org","min_zoom":8.0,"id:left":-1321032,"name:left":"C\u00f3rdoba","id":-1321032,"osm_relation":true,"name:right":"Antioquia"},"arcs":[5]},{"type":"LineString","properties":{"kind":"region","name":"C\u00f3rdoba","sort_rank":256,"kind_detail":"4","source":"openstreetmap.org","min_zoom":8.0,"id":-1321032,"osm_relation":true},"arcs":[6]},{"type":"LineString","properties":{"kind":"region","name":"C\u00f3rdoba","sort_rank":256,"kind_detail":"4","min_zoom":8.0,"source":"openstreetmap.org","maritime_boundary":true,"id":-1321032,"osm_relation":true},"arcs":[7]},{"type":"LineString","properties":{"kind":"region","name":"Antioquia","sort_rank":256,"kind_detail":"4","source":"openstreetmap.org","min_zoom":8.0,"id":-1315120,"osm_relation":true},"arcs":[8]},{"type":"LineString","properties":{"kind":"region","name":"Antioquia","sort_rank":256,"kind_detail":"4","min_zoom":8.0,"source":"openstreetmap.org","maritime_boundary":true,"id":-1315120,"osm_relation":true},"arcs":[9]}]},"roads":{"type":"GeometryCollection","geometries":[{"type":"MultiLineString","properties":{"sort_rank":380,"kind_detail":"primary","min_zoom":8.0,"kind":"major_road","source":"openstreetmap.org"},"arcs":[[13],[14]]},{"type":"MultiLineString","properties":{"kind":"major_road","network":"co:national","sort_rank":380,"kind_detail":"primary","source":"openstreetmap.org","min_zoom":8.0,"shield_text":"90","ref":"90"},"arcs":[[15],[16],[17],[18]]},{"type":"LineString","properties":{"kind":"major_road","network":"co:national","sort_rank":380,"kind_detail":"primary","source":"openstreetmap.org","min_zoom":8.0,"shield_text":"74","ref":"74"},"arcs":[19]},{"type":"LineString","properties":{"source":"openstreetmap.org","kind":"ferry","sort_rank":355,"landuse_kind":"park","min_zoom":8.0,"id":447107742},"arcs":[20]},{"type":"MultiLineString","properties":{"sort_rank":355,"source":"openstreetmap.org","min_zoom":8.0,"kind":"ferry"},"arcs":[[21],[22],[23]]},{"type":"LineString","properties":{"source":"openstreetmap.org","kind":"major_road","sort_rank":380,"kind_detail":"primary","ref":"90","min_zoom":8.0,"id":389130982},"arcs":[24]}]},"earth":{"type":"GeometryCollection","geometries":[{"type":"MultiPolygon","properties":{"sort_rank":10,"source":"naturalearthdata.com","min_zoom":0.0,"kind":"earth","area":18362859560},"arcs":[[[25]],[[26]]]}]},"landuse":{"type":"GeometryCollection","geometries":[{"type":"MultiPolygon","properties":{"source":"openstreetmap.org","kind":"park","tier":2,"area":1719453644,"sort_rank":24,"min_zoom":4.0,"osm_relation":true},"arcs":[[[27]]]},{"type":"Polygon","properties":{"kind":"park","area":269526016,"sort_rank":24,"source":"openstreetmap.org","min_zoom":6.0,"tier":2,"id":-4758068,"osm_relation":true},"arcs":[[28]]},{"type":"Polygon","properties":{"source":"openstreetmap.org","kind":"park","area":1474360064,"tier":2,"id":336319351,"min_zoom":4.0,"sort_rank":24},"arcs":[[29]]}]}},"type":"Topology","transform":{"translate":[-77.34375,8.4071681636],"scale":[0.0003433228,0.0003389916]},"arcs":[[[0,1011],[56,179]],[[56,1190],[-56,89]],[[3286,4096],[-377,-764],[-2700,-1654],[-153,-488]],[[0,1011],[56,179],[-56,89]],[[625,0],[-76,41],[-24,47],[-76,3],[-173,103],[-13,54],[-63,47],[16,59],[-51,134],[-99,85],[-13,62],[-49,8],[-4,23]],[[2709,1424],[85,-292],[-93,-105],[148,-109],[71,-214],[67,32],[102,-24],[83,-111],[15,-93],[78,-18],[-34,-82],[61,-133],[6,-192],[54,-83]],[[2720,1431],[-11,-7]],[[4096,3063],[-89,-72],[37,-45],[-50,-77],[-145,-77],[-174,-51],[-79,-97],[26,-62],[-20,-50],[-186,-105],[-47,-328],[-183,-179],[-45,-179],[-160,-118],[-51,-109],[-210,-83]],[[2709,1424],[0,-43]],[[2709,1381],[-38,-61],[-237,-144],[-46,-92],[-307,-125],[-27,-63],[14,-55],[-43,-58],[-354,-108],[-332,-41],[-24,-93],[-133,-115],[25,-68],[29,1],[-38,44],[38,1],[71,-56],[215,-97],[96,-210],[41,-2],[29,-39]],[[4096,4096],[0,-1049],[-18,2],[-21,-41],[-7,-72],[-69,-59],[-82,-48],[-94,-28],[-118,-38],[-25,-11],[-28,-20],[-32,-34],[-11,-28],[-6,-52],[1,-54],[-13,-31],[-38,-14],[-13,-7],[-81,-31],[-17,-4],[-19,-41],[-34,-246],[-18,-43],[-27,-35],[-98,-87],[-57,-67],[-29,-85],[26,-102],[-24,-33],[-108,-78],[-26,-37],[-15,-28],[-25,-19],[-54,-7],[-68,-40],[-177,-44],[-26,-24],[22,-35],[0,-18],[-67,-59],[-151,-105],[-128,-131],[-39,-27],[-198,-73],[-56,-10],[0,-22],[20,0],[0,-18],[-24,-17],[-12,-29],[-5,-34],[0,-32],[-16,-24],[-38,-21],[-284,-81],[-70,-6],[-288,-90],[-37,-62],[-71,-85],[-48,-74],[35,-33],[0,22],[84,-9],[106,-51],[91,-62],[59,-63],[18,-50],[11,-53],[19,-41],[41,-17],[38,-23],[7,-28],[-1050,0],[-2,4],[-31,37],[-43,31],[-147,60],[-190,129],[-25,62],[-24,115],[-21,55],[-24,43],[-29,37],[-36,36],[-35,56],[-7,25],[0,3406],[4096,0]],[[0,690],[7,-25],[35,-56],[36,-36],[29,-37],[24,-43],[21,-55],[24,-115],[25,-62],[190,-129],[147,-60],[43,-31],[31,-37],[2,-4]],[[1664,0],[-7,28],[-38,23],[-41,17],[-19,41],[-11,53],[-18,50],[-59,63],[-91,62],[-106,51],[-84,9],[0,-22],[-35,33],[48,74],[71,85],[37,62],[288,90],[70,6],[284,81],[38,21],[16,24],[0,32],[5,34],[12,29],[24,17],[0,18],[-20,0],[0,22],[56,10],[198,73],[39,27],[128,131],[151,105],[67,59],[0,18],[-22,35],[26,24],[177,44],[68,40],[54,7],[25,19],[15,28],[26,37],[108,78],[24,33],[-26,102],[29,85],[57,67],[98,87],[27,35],[18,43],[34,246],[19,41],[17,4],[81,31],[13,7],[38,14],[13,31],[-1,54],[6,52],[11,28],[32,34],[28,20],[25,11],[118,38],[94,28],[82,48],[69,59],[7,72],[21,41],[18,-2]],[[2634,1282],[57,-2],[2,39]],[[2638,1283],[-2,2]],[[1643,52],[-8,-1]],[[1635,51],[32,76],[104,44],[75,131],[63,42]],[[1721,0],[-78,52]],[[1910,524],[-32,114],[-46,26],[192,59],[45,53],[15,97],[60,10],[86,78],[114,32],[125,194],[224,132],[15,102]],[[2708,1421],[490,-69],[147,-50],[168,-4],[583,-124]],[[257,290],[265,-202]],[[0,674],[182,-192],[36,-162],[39,-30]],[[522,88],[115,-88]],[[1343,0],[292,37]],[[1910,524],[-29,-97],[28,-83]],[[1664,0],[-7,28],[-38,23],[-41,17],[-19,41],[-11,53],[-18,50],[-59,63],[-91,62],[-106,51],[-84,9],[0,-22],[-35,33],[48,74],[71,85],[37,62],[288,90],[70,6],[284,81],[38,21],[16,24],[0,32],[5,34],[12,29],[24,17],[0,18],[-20,0],[0,22],[56,10],[198,73],[39,27],[128,131],[151,105],[67,59],[0,18],[-22,35],[26,24],[177,44],[68,40],[54,7],[25,19],[15,28],[26,37],[108,78],[24,33],[-26,102],[29,85],[57,67],[98,87],[27,35],[18,43],[34,246],[19,41],[17,4],[81,31],[13,7],[38,14],[13,31],[-1,54],[6,52],[11,28],[32,34],[28,20],[25,11],[118,38],[94,28],[82,48],[69,59],[7,72],[21,41],[18,-2],[0,-3047],[-2432,0]],[[0,0],[0,690],[7,-25],[35,-56],[36,-36],[29,-37],[24,-43],[21,-55],[24,-115],[25,-62],[190,-129],[147,-60],[43,-31],[31,-37],[2,-4],[-614,0]],[[4073,3983],[23,42],[0,-87],[-18,27],[-5,18]],[[234,266],[381,395],[253,-252],[-356,-331],[-231,112],[-47,76]],[[3055,3877],[0,219],[846,0],[0,-219],[-846,0]]]}