{"objects":{"water":{"type":"GeometryCollection","geometries":[{"type":"Polygon","properties":{"source":"naturalearthdata.com","kind":"ocean","area":1576712559132672,"sort_rank":200,"min_zoom":0.0,"id":1},"arcs":[[2],[3]]},{"type":"LineString","properties":{"source":"naturalearthdata.com","kind":"ocean","sort_rank":205,"boundary":true,"min_zoom":0.0,"id":3525},"arcs":[4]}]},"buildings":{"type":"GeometryCollection","geometries":[]},"places":{"type":"GeometryCollection","geometries":[]},"transit":{"type":"GeometryCollection","geometries":[]},"pois":{"type":"GeometryCollection","geometries":[]},"boundaries":{"type":"GeometryCollection","geometries":[{"type":"LineString","properties":{"name:ka":"\u10e1\u10d0\u10db\u10ee\u10e0\u10d4\u10d7\u10d8 \u10d9\u10dd\u10e0\u10d4\u10d0","name:tr":"G\u00fcney Kore","name:kn":"\u0ca6\u0c95\u0ccd\u0cb7\u0cbf\u0ca3 \u0c95\u0cca\u0cb0\u0cbf\u0caf\u0cbe","name:km":"\u1780\u17bc\u179a\u17c9\u17c1\u1781\u17b6\u1784\u178f\u17d2\u1794\u17bc\u1784","name:kl":"Korea Kujalleq","name:cs":"Ji\u017en\u00ed Korea","name:ki":"South Korea","name:kw":"Korea Dhyhow","name:kv":"\u041a\u043e\u0440\u0435\u044f \u0420\u0435\u0441\u043f\u0443\u0431\u043b\u0438\u043a\u0430","name:ku":"Kor\u00eaya Ba\u015f\u00fbr","name:ks":"\u0926\u0915\u094d\u0937\u093f\u0923 \u0915\u094b\u0930\u093f\u092f\u093e","name:tl":"Timog Korea","name:ce":"\u041a\u044a\u0438\u043b\u0431\u0435\u0440\u0430 \u041a\u043e\u0440\u0435\u0439","name:ta":"\u0ba4\u0bc6\u0ba9\u0bcd\u0b95\u0bca\u0bb0\u0bbf\u0baf\u0bbe","name:ca":"Corea del Sud","name:te":"\u0c26\u0c15\u0c4d\u0c37\u0c3f\u0c23 \u0c15\u0c4a\u0c30\u0c3f\u0c2f\u0c3e","name:cy":"De Corea","name:qu":"Urin Kuriya","name:da":"Sydkorea","name:de":"S\u00fcdkorea","name:dz":"\u0f63\u0fb7\u0f7c\u0f0b\u0f40\u0f7c\u0f0b\u0f62\u0f72\u0f0b\u0f61\u0f0b","source":"openstreetmap.org","name:dv":"\u078b\u07ac\u0786\u07aa\u0782\u07aa \u0786\u07ae\u0783\u07ac\u0787\u07a7","name:lv":"Dienvidkoreja","name:lt":"Piet\u0173 Kor\u0117ja","name:uz":"Janubiy Koreya","name:kk":"\u041e\u04a3\u0442\u04af\u0441\u0442\u0456\u043a \u041a\u043e\u0440\u0435\u044f","name:ur":"\u062c\u0646\u0648\u0628\u06cc \u06a9\u0648\u0631\u06cc\u0627","name:lb":"S\u00fcdkorea","name:la":"Corea Meridionalis","name:tt":"\u041a\u04e9\u043d\u044c\u044f\u043a \u041a\u043e\u0440\u0435\u044f","name:uk":"\u041f\u0456\u0432\u0434\u0435\u043d\u043d\u0430 \u041a\u043e\u0440\u0435\u044f","name:ug":"\u062c\u06d5\u0646\u06c7\u0628\u0649\u064a \u0686\u0627\u06cb\u0634\u064a\u06d5\u0646","name:li":"Zuud-Korea","name:ln":"Kore ya Sidi","name:lo":"\u0e9b\u0eb0\u0ec0\u0e97\u0e94\u0ec0\u0e81\u0ebb\u0eb2\u0eab\u0ebc\u0eb5\u0ec3\u0e95\u0ec9","name:el":"\u039d\u03cc\u03c4\u03b9\u03b1 \u039a\u03bf\u03c1\u03ad\u03b1","name:eo":"Sud-Koreujo","name:en":"South Korea","name":"\ub300\ud55c\ubbfc\uad6d","name:tk":"G\u00fcnorta Kore\u00fda","name:ee":"South Korea","name:th":"\u0e1b\u0e23\u0e30\u0e40\u0e17\u0e28\u0e40\u0e01\u0e32\u0e2b\u0e25\u0e35\u0e43\u0e15\u0e49","name:eu":"Hego Korea","name:et":"L\u00f5una-Korea","name:es":"Corea del Sur","name:ia":"Corea del Sud","name:rm":"Corea dal sid","name:az":"C\u0259nubi Koreya","name:ie":"Sud-Korea","name:id":"Korea Selatan","name:as":"\u09a6\u0995\u09cd\u09b7\u09bf\u09a3 \u0995\u09cb\u09f0\u09bf\u09af\u09bc\u09be","name:ar":"\u0643\u0648\u0631\u064a\u0627 \u0627\u0644\u062c\u0646\u0648\u0628\u064a\u0629","name:io":"Sud-Korea","name:ak":"Anaafo Koria","name:am":"\u12f0\u1261\u1265 \u12ae\u122d\u12eb","name:it":"Corea del Sud","name:an":"Corea d'o Sur","name:ru":"\u0420\u0435\u0441\u043f\u0443\u0431\u043b\u0438\u043a\u0430 \u041a\u043e\u0440\u0435\u044f","name:rw":"Koreya y\u2019Amajyepfo","name:af":"Suid-Korea","alt_name:ru":"\u042e\u0436\u043d\u0430\u044f \u041a\u043e\u0440\u0435\u044f","kind_detail":"2","name:za":"Hanzgoz","name:zh-yue":"\u5927\u97d3\u6c11\u570b","name:zh":"\u97e9\u56fd","name:so":"Koonfur Kuuriya","name:sn":"Korea, South","name:sm":"Kolea i Saute","name:sl":"Ju\u017ena Koreja","name:sk":"Ju\u017en\u00e1 K\u00f3rea","name:ja":"\u5927\u97d3\u6c11\u56fd","name:si":"\u0daf\u0d9a\u0dd4\u0dab\u0dd4 \u0d9a\u0ddc\u0dbb\u0dd2\u0dba\u0dcf\u0dc0","name:sh":"Ju\u017ena Koreja","name:sg":"Kor\u00ebe t\u00ee Mbongo","name:se":"M\u00e1tta-Korea","name:sc":"Corea de su Sud","name:sa":"\u0926\u0915\u094d\u0937\u093f\u0923 \u0915\u094b\u0930\u093f\u092f\u093e","name:bs":"Ju\u017ena Koreja","name:bn":"\u09a6\u0995\u09cd\u09b7\u09bf\u09a3 \u0995\u09cb\u09b0\u09bf\u09af\u09bc\u09be","name:bo":"\u0f63\u0fb7\u0f7c\u0f0b\u0f40\u0f7c\u0f0b\u0f62\u0f72\u0f0b\u0f61\u0f0d","name:br":"Korea ar Su","name:sw":"Korea Kusini","name:be":"\u041f\u0430\u045e\u0434\u043d\u0451\u0432\u0430\u044f \u041a\u0430\u0440\u044d\u044f","name:su":"Kor\u00e9a Kidul","name:bg":"\u042e\u0436\u043d\u0430 \u041a\u043e\u0440\u0435\u044f","name:ss":"IKhoriya leseNingizimu","name:ba":"\u041a\u04e9\u043d\u044c\u044f\u04a1 \u041a\u043e\u0440\u0435\u044f","name:sq":"Koreja e Jugut","name:jv":"Kor\u00e9a Kidul","name:bi":"Saot Koria","name:pt":"Coreia do Sul","name:ps":"\u0633\u0648\u06d0\u0644\u064a \u06a9\u0648\u0631\u064a\u0627","name:oc":"Cor\u00e8a del Sud","min_zoom":8.0,"name:ro":"Coreea de Sud","name:ko":"Daehan-minguk","name:zh-min-nan":"H\u00e2n-kok","name:os":"\u0425\u0443\u0441\u0441\u0430\u0440 \u041a\u043e\u0440\u0435\u0439","name:or":"\u0b26\u0b15\u0b4d\u0b37\u0b3f\u0b23 \u0b15\u0b4b\u0b30\u0b3f\u0b06","name:pl":"Korea Po\u0142udniowa","sort_rank":262,"name:sr":"\u0408\u0443\u0436\u043d\u0430 \u041a\u043e\u0440\u0435\u0458\u0430","osm_relation":true,"name:hi":"\u0926\u0915\u094d\u0937\u093f\u0923 \u0915\u094b\u0930\u093f\u092f\u093e","name:sv":"Sydkorea","name:he":"\u05e7\u05d5\u05e8\u05d9\u05d0\u05d4 \u05d4\u05d3\u05e8\u05d5\u05de\u05d9\u05ea","name:hy":"\u0540\u0561\u0580\u0561\u057e\u0561\u0575\u056b\u0576 \u053f\u0578\u0580\u0565\u0561","name:ht":"Kore disid","name:hu":"Koreai K\u00f6zt\u00e1rsas\u00e1g (D\u00e9l-Korea)","name:hr":"Ju\u017ena Koreja","kind":"country","name:is":"Su\u00f0ur-K\u00f3rea","name:yi":"\u05d3\u05e8\u05d5\u05dd \u05e7\u05d0\u05e8\u05e2\u05e2","name:yo":"K\u00f2r\u00e9\u00e0 G\u00fa\u00fas\u00f9","name:mt":"Korea t'Isfel","alt_name:eo":"Sud-Koreo;Sud-Koreio","alt_name:en":"Korea","name:ms":"Korea Selatan","name:mr":"\u0926\u0915\u094d\u0937\u093f\u0923 \u0915\u094b\u0930\u093f\u092f\u093e","name:my":"\u1010\u1031\u102c\u1004\u103a\u1000\u102d\u102f\u101b\u102e\u1038\u101a\u102c\u1038\u1014\u102d\u102f\u1004\u103a\u1004\u1036","name:mg":"Korea Atsimo","name:vi":"H\u00e0n Qu\u1ed1c","name:ml":"\u0d26\u0d15\u0d4d\u0d37\u0d3f\u0d23 \u0d15\u0d4a\u0d31\u0d3f\u0d2f","name:mn":"\u04e8\u043c\u043d\u04e9\u0434 \u0421\u043e\u043b\u043e\u043d\u0433\u043e\u0441","name:mi":"K\u014drea-ki-te-tonga","id":-307756,"name:mk":"\u0420\u0435\u043f\u0443\u0431\u043b\u0438\u043a\u0430 \u041a\u043e\u0440\u0435\u0458\u0430","name:vo":"Sul\u00fcda-Korey\u00e4n","name:fa":"\u06a9\u0631\u0647 \u062c\u0646\u0648\u0628\u06cc","name:fi":"Etel\u00e4-Korea","name:ky":"\u041a\u043e\u0440\u0435\u044f \u0420\u0435\u0441\u043f\u0443\u0431\u043b\u0438\u043a\u0430\u0441\u044b","name:fo":"Su\u00f0urkorea","alt_name:vi":"Nam H\u00e0n;Nam Tri\u1ec1u Ti\u00ean;\u0110\u1ea1i H\u00e0n","name:fr":"Cor\u00e9e du Sud","name:fy":"S\u00fad-Korea","name:nl":"Zuid-Korea","name:nn":"S\u00f8r-Korea","name:no":"S\u00f8r-Korea","name:na":"Ripubrikin Korea","name:ne":"\u0926\u0915\u094d\u0937\u093f\u0923 \u0915\u094b\u0930\u093f\u092f\u093e","name:wo":"Kore gu B\u00ebj-saalum","name:nv":"Kol\u00edya Bik\u00e9yah Sh\u00e1di\u02bc\u00e1\u00e1hj\u00ed Si\u02bc\u00e1n\u00edg\u00ed\u00ed","name:ga":"An Ch\u00f3ir\u00e9 Theas","name:gd":"Coirea a Deas","name:gn":"Yvykorea","name:gl":"Corea do Sur","maritime_boundary":true,"name:gv":"Yn Chorea Yiass","name:gu":"\u0aa6\u0a95\u0acd\u0ab7\u0abf\u0aa3 \u0a95\u0acb\u0ab0\u0abf\u0aaf\u0abe"},"arcs":[0]},{"type":"LineString","properties":{"name:pt":"Jeolla do Sul","name:id":"Jeolla Selatan","name:ms":"Jeolla Selatan","name:ko":"Jeollanam-do","name:th":"\u0e08\u0e31\u0e07\u0e2b\u0e27\u0e31\u0e14\u0e08\u0e47\u0e2d\u0e25\u0e25\u0e32\u0e43\u0e15\u0e49","name:it":"Sud Jeolla","name:vi":"Jeolla Nam","name:ru":"\u0427\u043e\u043b\u043b\u0430-\u041d\u0430\u043c\u0434\u043e","name:pl":"Jeolla Po\u0142udniowa","name:mn":"\u04e8\u043c\u043d\u04e9\u0434 \u0427\u043e\u043b\u043b\u0430","id":-2398104,"name:ca":"Jeollanam-do","name:fa":"\u062c\u0626\u0648\u0644\u0627\u0646\u0627\u0645-\u062f\u0648","sort_rank":256,"kind_detail":"4","name:de":"Jeollanam-do","source":"openstreetmap.org","name:fr":"Jeolla du Sud","name:zh":"\u5168\u7f85\u5357\u9053","name:nl":"Jeollanam-do","name:ja":"\u5168\u7f85\u5357\u9053","name:lt":"Piet\u0173 D\u017eolos provincija","name:no":"S\u00f8r-Jeolla","name:uk":"\u041f\u0456\u0432\u0434\u0435\u043d\u043d\u0430 \u043f\u0440\u043e\u0432\u0456\u043d\u0446\u0456\u044f \u0427\u043e\u043b\u043b\u0430","name:sw":"Jeollanam-do","name:sv":"Sydjeolla","name:bg":"\u0427\u044a\u043b\u0430-\u041d\u0430\u043c\u0434\u043e","osm_relation":true,"kind":"region","name:en":"Jeollanam-do","name":"\uc804\ub77c\ub0a8\ub3c4","min_zoom":8.0,"maritime_boundary":true,"name:fi":"Etel\u00e4-Jeolla","name:et":"L\u00f5una-Ch\u014flla provints","name:es":"Jeolla del Sur"},"arcs":[1]}]},"roads":{"type":"GeometryCollection","geometries":[]},"earth":{"type":"GeometryCollection","geometries":[{"type":"MultiPolygon","properties":{"sort_rank":10,"source":"naturalearthdata.com","min_zoom":0.0,"kind":"earth","area":1436993415},"arcs":[[[5]]]}]},"landuse":{"type":"GeometryCollection","geometries":[]}},"type":"Topology","transform":{"translate":[123.75,33.1375511923],"scale":[0.0003433228,0.0002855451]},"arcs":[[[3210,4096],[-95,-669],[-1,-144],[54,-247],[243,-405],[266,-175],[317,-72],[102,-16]],[[3210,4096],[-96,-813],[54,-247],[243,-405],[266,-175],[317,-72],[102,-16]],[[0,0],[0,4096],[4096,0],[0,-4096],[-4096,0]],[[4041,3200],[-3,28],[-42,86],[-25,31],[-32,11],[-23,-20],[-14,-37],[7,-27],[33,-20],[57,-52],[14,-10],[6,-3],[13,-3],[9,16]],[[4013,3190],[6,-3],[13,-3],[9,16],[-3,28],[-42,86],[-25,31],[-32,11],[-23,-20],[-14,-37],[7,-27],[33,-20],[57,-52],[14,-10]],[[4041,3200],[-9,-16],[-13,3],[-6,3],[-14,10],[-57,52],[-33,20],[-7,27],[14,37],[23,20],[32,-11],[25,-31],[42,-86],[3,-28]]]}