{"objects":{"water":{"type":"GeometryCollection","geometries":[{"type":"Polygon","properties":{"source":"naturalearthdata.com","kind":"lake","name":"Langa Co","area":369932736,"sort_rank":200,"min_zoom":0.0,"id":559},"arcs":[[209]]},{"type":"MultiPolygon","properties":{"sort_rank":200,"source":"naturalearthdata.com","min_zoom":0.0,"kind":"lake","area":5071882308},"arcs":[[[210]],[[211]],[[212]],[[213]],[[214]]]},{"type":"Polygon","properties":{"source":"naturalearthdata.com","kind":"lake","name":"Ngangla Ringeo","area":719657408,"sort_rank":200,"min_zoom":0.0,"id":570},"arcs":[[215]]},{"type":"Polygon","properties":{"source":"naturalearthdata.com","kind":"lake","name":"Mapam Yumco","area":539470784,"sort_rank":200,"min_zoom":0.0,"id":560},"arcs":[[216]]},{"type":"Point","properties":{"label_placement":true,"kind":"lake","name":"Ngangla Ringeo","area":719657408,"sort_rank":200,"source":"naturalearthdata.com","min_zoom":0.0,"id":570},"coordinates":[3119,3757]},{"type":"Point","properties":{"label_placement":true,"kind":"lake","name":"Mapam Yumco","area":539470784,"sort_rank":200,"source":"naturalearthdata.com","min_zoom":0.0,"id":560},"coordinates":[1989,3025]},{"type":"Point","properties":{"label_placement":true,"kind":"lake","name":"Langa Co","area":369932736,"sort_rank":200,"source":"naturalearthdata.com","min_zoom":0.0,"id":559},"coordinates":[1798,3077]},{"type":"LineString","properties":{"source":"naturalearthdata.com","kind":"lake","sort_rank":367,"boundary":true,"min_zoom":0.0,"id":559},"arcs":[217]},{"type":"LineString","properties":{"source":"naturalearthdata.com","kind":"lake","sort_rank":367,"boundary":true,"min_zoom":0.0,"id":560},"arcs":[218]},{"type":"LineString","properties":{"source":"naturalearthdata.com","kind":"lake","sort_rank":367,"boundary":true,"min_zoom":0.0,"id":570},"arcs":[219]},{"type":"LineString","properties":{"source":"naturalearthdata.com","kind":"lake","sort_rank":367,"boundary":true,"min_zoom":0.0,"id":673},"arcs":[220]},{"type":"LineString","properties":{"source":"naturalearthdata.com","kind":"lake","sort_rank":367,"boundary":true,"min_zoom":0.0,"id":878},"arcs":[221]},{"type":"LineString","properties":{"source":"naturalearthdata.com","kind":"lake","sort_rank":367,"boundary":true,"min_zoom":0.0,"id":879},"arcs":[222]},{"type":"LineString","properties":{"source":"naturalearthdata.com","kind":"lake","sort_rank":367,"boundary":true,"min_zoom":0.0,"id":880},"arcs":[223]},{"type":"LineString","properties":{"source":"naturalearthdata.com","kind":"lake","sort_rank":367,"boundary":true,"min_zoom":0.0,"id":881},"arcs":[224]}]},"buildings":{"type":"GeometryCollection","geometries":[]},"places":{"type":"GeometryCollection","geometries":[{"type":"Point","properties":{"name:ps":"\u0646\u06cc\u067e\u0627\u0644","name:ka":"\u10dc\u10d4\u10de\u10d0\u10da\u10d8","name:ko":"\ub124\ud314","name:cv":"\u041d\u0435\u043f\u0430\u043b","name:km":"\u1793\u17c1\u1794\u17c9\u17b6\u179b\u17cb","name:cs":"Nep\u00e1l","name:ki":"Nepali","name:kv":"\u041d\u0435\u043f\u0430\u043b","name:th":"\u0e1b\u0e23\u0e30\u0e40\u0e17\u0e28\u0e40\u0e19\u0e1b\u0e32\u0e25","name:ti":"\u1294\u1353\u120d","name:ks":"\u0646\u06cc\u067e\u0627\u0644","name:to":"Nepali","name:pa":"\u0a28\u0a47\u0a2a\u0a3e\u0a32","name:os":"\u041d\u0435\u043f\u0430\u043b","name:or":"\u0b28\u0b47\u0b2a\u0b3e\u0b33","name:ce":"\u041d\u0435\u043f\u0430\u043b","name:ta":"\u0ba8\u0bc7\u0baa\u0bbe\u0bb3\u0bae\u0bcd","name:tg":"\u041d\u0435\u043f\u0430\u043b","name:ky":"\u041d\u0435\u043f\u0430\u043b","name:te":"\u0c28\u0c47\u0c2a\u0c3e\u0c32\u0c4d","name:qu":"Nipal","name:sr":"\u041d\u0435\u043f\u0430\u043b","name:dz":"\u0f56\u0f63\u0f0b\u0f61\u0f74\u0f63","source":"openstreetmap.org","name:nv":"Dzi\u0142gaiitsoh Honeezk\u02bcazii Bik\u00e9yah","name:kn":"\u0ca8\u0cc7\u0caa\u0cbe\u0cb3","name:dv":"\u0782\u07ad\u0795\u07a7\u078d\u07b0","name:lv":"Nep\u0101la","name:lt":"Nepalas","name:hi":"\u0928\u0947\u092a\u093e\u0932","name:kk":"\u041d\u0435\u043f\u0430\u043b","name:he":"\u05e0\u05e4\u05d0\u05dc","kind":"country","name:ur":"\u0646\u06cc\u067e\u0627\u0644","name:la":"Nepalia","name:lg":"Nepalo","name:uk":"\u041d\u0435\u043f\u0430\u043b","name:hy":"\u0546\u0565\u057a\u0561\u056c","name:ug":"\u0646\u06d0\u067e\u0627\u0644","name:hu":"Nep\u00e1l","name:ln":"Nep\u00e1l\u025b","name:lo":"\u0ec0\u0e99\u0e9b\u0eb2\u0e99","population":29519114,"name:el":"\u039d\u03b5\u03c0\u03ac\u03bb","name:eo":"Nepalo","name":"Nepal","name:ee":"Nepal nutome","min_zoom":2.0,"name:yi":"\u05e0\u05e2\u05e4\u05d0\u05dc","name:yo":"Or\u00edl\u1eb9\u0301\u00e8de Nepa","name:rn":"Nepali","name:mr":"\u0928\u0947\u092a\u093e\u0933","name:as":"\u09a8\u09c7\u09aa\u09be\u09b2","name:ar":"\u0646\u064a\u0628\u0627\u0644","name:my":"\u1014\u102e\u1015\u1031\u102b","official_name":"Sanghiya Loktantrik Ganatantratmak Nep\u0101l","name:ak":"N\u025bp\u0254l","name:am":"\u1294\u1353\u120d","name:ml":"\u0d28\u0d47\u0d2a\u0d4d\u0d2a\u0d3e\u0d7e","name:ru":"\u041d\u0435\u043f\u0430\u043b","name:rw":"Nepali","id":249399402,"name:mk":"\u041d\u0435\u043f\u0430\u043b","name:vo":"Nepal\u00e4n","name:zu":"i-Nepal","name:ha":"Nefal","name:mn":"\u0411\u0430\u043b\u0431\u0430","name:ff":"Nepaal","name:mg":"Nepala","name:fr":"N\u00e9pal","name:zh-yue":"\u5c3c\u6cca\u723e","name:pi":"\u0928\u0947\u092a\u093e\u0932","name:zh":"\u5c3c\u6cca\u5c14","name:so":"Nebaal","name:sk":"Nep\u00e1l","name:ja":"\u30cd\u30d1\u30fc\u30eb","name:si":"\u0db1\u0dda\u0db4\u0dcf\u0dbd\u0dba","name:fa":"\u0646\u067e\u0627\u0644","name:sg":"N\u00ebp\u00e2li","name:na":"Nepar","name:sd":"\u0646\u064a\u067e\u0627\u0644","name:ne":"\u0928\u0947\u092a\u093e\u0932","name:sa":"\u0928\u0947\u092a\u093e\u0932\u0926\u0947\u0936\u0903","name:bm":"Nepali","name:bn":"\u09a8\u09c7\u09aa\u09be\u09b2","name:bo":"\u0f56\u0f62\u0f0b\u0f61\u0f74\u0f63\u0f0b","name:sw":"Nepali","name:be":"\u041d\u0435\u043f\u0430\u043b","name:bg":"\u041d\u0435\u043f\u0430\u043b","name:ss":"INephali","name:ba":"\u041d\u0435\u043f\u0430\u043b","name:sq":"Nepali","name:ga":"Neipeal","name:gd":"Neap\u00e0l","name:wo":"Nepaal","name:gv":"Nepaal","name:gu":"\u0aa8\u0ac7\u0aaa\u0abe\u0ab3","name:tt":"\u041d\u0435\u043f\u0430\u043b"},"coordinates":[3890,878]},{"type":"Point","properties":{"kind":"region","name":"Uttar Pradesh","name:hi":"\u0909\u0924\u094d\u0924\u0930 \u092a\u094d\u0930\u0926\u0947\u0936","kind_detail":"state","name:eo":"Utar-Prade\u015do","name:ur":"\u0627\u062a\u0631 \u067e\u0631\u062f\u06cc\u0634","source":"openstreetmap.org","min_zoom":4.0,"name:uk":"\u0423\u0442\u0442\u0430\u0440-\u041f\u0440\u0430\u0434\u0435\u0448","name:kn":"\u0c89\u0ca4\u0ccd\u0ca4\u0cb0 \u0caa\u0ccd\u0cb0\u0ca6\u0cc7\u0cb6","name:ru":"\u0423\u0442\u0442\u0430\u0440-\u041f\u0440\u0430\u0434\u0435\u0448","name:hu":"Uttar Prades","id":2240945383,"name:ja":"\u30a6\u30c3\u30bf\u30eb\u30fb\u30d7\u30e9\u30c7\u30fc\u30b7\u30e5"},"coordinates":[1536,60]},{"type":"Point","properties":{"kind":"region","name":"Uttarakhand","name:hi":"\u0909\u0924\u094d\u0924\u0930\u093e\u0916\u0923\u094d\u0921","kind_detail":"state","name:eo":"Utarakando","source":"openstreetmap.org","min_zoom":4.0,"name:kn":"\u0c89\u0ca4\u0ccd\u0ca4\u0cb0\u0cbe\u0c96\u0c82\u0ca1","id":2240945388},"coordinates":[247,2497]},{"type":"Point","properties":{"admin_level":"4","kind":"region","name:en":"Far-Western Development Region","name":"\u0938\u0941\u0926\u0941\u0930 \u092a\u0936\u094d\u091a\u093f\u092e\u093e\u091e\u094d\u091a\u0932 \u0935\u093f\u0915\u093e\u0938 \u0915\u094d\u0937\u0947\u0924\u094d\u0930","kind_detail":"state","name:de":"Entwicklungsregion Fernwest","source":"openstreetmap.org","min_zoom":4.0,"int_name":"Far-Western Development Region","name:ru":"\u0414\u0430\u043b\u044c\u043d\u0435\u0437\u0430\u043f\u0430\u0434\u043d\u044b\u0439 \u0440\u0435\u0433\u0438\u043e\u043d","id":4353360396,"name:ja":"\u6975\u897f\u90e8\u958b\u767a\u533a\u57df"},"coordinates":[1352,2103]},{"type":"Point","properties":{"admin_level":"4","kind":"region","name:en":"Mid-Western Development Region","name":"\u092e\u0927\u094d\u092f-\u092a\u0936\u094d\u091a\u093f\u092e\u093e\u091e\u094d\u091a\u0932 \u0935\u093f\u0915\u093e\u0938 \u0915\u094d\u0937\u0947\u0924\u094d\u0930","kind_detail":"state","name:de":"Entwicklungsregion Mittelwest","source":"openstreetmap.org","min_zoom":4.0,"int_name":"Mid-Western Development Region","name:ru":"\u0421\u0440\u0435\u0434\u043d\u0435\u0437\u0430\u043f\u0430\u0434\u043d\u044b\u0439 \u0440\u0435\u0433\u0438\u043e\u043d","id":4353359686},"coordinates":[2140,1322]},{"type":"Point","properties":{"admin_level":"4","kind":"region","name:en":"Western Development Region","name":"\u092a\u0936\u094d\u091a\u093f\u092e\u093e\u091e\u094d\u091a\u0932 \u0935\u093f\u0915\u093e\u0938 \u0915\u094d\u0937\u0947\u0924\u094d\u0930","kind_detail":"state","name:de":"Entwicklungsregion West","source":"openstreetmap.org","min_zoom":4.0,"int_name":"Western Development Region","name:ru":"\u0417\u0430\u043f\u0430\u0434\u043d\u044b\u0439 \u0440\u0435\u0433\u0438\u043e\u043d","id":4353358280,"name:ja":"\u897f\u90e8\u958b\u767a\u533a\u57df"},"coordinates":[3463,1338]},{"type":"Point","properties":{"source":"naturalearthdata.com","kind":"locality","name":"Moradabad","population":787000,"min_zoom":5.0,"id":6197},"coordinates":[4,1494]}]},"transit":{"type":"GeometryCollection","geometries":[]},"pois":{"type":"GeometryCollection","geometries":[{"type":"Point","properties":{"kind":"nature_reserve","protect_class":"5","area":9877550000,"name:ne":"\u0905\u0928\u094d\u0928\u092a\u0941\u0930\u094d\u0923 \u0915\u0928\u091c\u0930\u094d\u0935\u0947\u0936\u0928 \u090f\u0930\u093f\u092f\u093e","source":"openstreetmap.org","min_zoom":5.66,"tier":2,"id":-4497739,"osm_relation":true,"name":"Annapurna Conservation Area"},"coordinates":[3809,1447]},{"type":"Point","properties":{"kind":"national_park","protect_class":"2","area":503805000,"source":"openstreetmap.org","min_zoom":6.3,"tier":1,"id":-2640059,"osm_relation":true,"name":"Valmiki National park"},"coordinates":[3823,290]},{"type":"Point","properties":{"kind":"national_park","protect_class":"2","area":721750000,"source":"openstreetmap.org","min_zoom":6.04,"tier":1,"id":136086033,"name":"Dudhwa National Park"},"coordinates":[1392,1210]},{"type":"Point","properties":{"kind":"nature_reserve","protect_class":"4","area":1723970000,"source":"openstreetmap.org","min_zoom":6.91,"tier":2,"id":323146126,"name":"Dhorpatan Hunting Reserve"},"coordinates":[3092,1331]}]},"boundaries":{"type":"GeometryCollection","geometries":[{"type":"MultiLineString","properties":{"source":"naturalearthdata.com","kind":"country","sort_rank":262,"kind_detail":"2","min_zoom":0.0,"id":187},"arcs":[[0],[1],[2],[3]]},{"type":"MultiLineString","properties":{"source":"naturalearthdata.com","kind":"disputed","sort_rank":261,"kind_detail":"2","min_zoom":0.0,"id":413},"arcs":[[4],[5],[6],[7]]},{"type":"MultiLineString","properties":{"source":"naturalearthdata.com","kind":"disputed","sort_rank":261,"kind_detail":"2","min_zoom":0.0,"id":414},"arcs":[[8],[9],[10],[11],[12]]},{"type":"MultiLineString","properties":{"source":"naturalearthdata.com","kind":"country","sort_rank":262,"kind_detail":"2","min_zoom":0.0,"id":254},"arcs":[[13],[14],[15],[16],[17],[18],[19],[20],[21],[22],[23],[24],[25],[26],[27],[28],[29],[30],[31],[32],[33],[34],[35],[36],[37],[38],[39],[40],[41],[42],[43],[44],[45],[46],[47],[48],[49],[50],[51]]},{"type":"MultiLineString","properties":{"source":"naturalearthdata.com","kind":"country","sort_rank":262,"kind_detail":"2","min_zoom":0.0,"id":255},"arcs":[[52],[53],[54],[55],[56],[57],[58],[59],[60],[61],[62],[63],[64],[65],[66],[67],[68],[69],[70],[71],[72],[73],[74],[75],[76],[77],[78],[79],[80],[81],[82]]},{"type":"MultiLineString","properties":{"source":"naturalearthdata.com","kind":"country","sort_rank":262,"kind_detail":"2","min_zoom":0.0,"id":409},"arcs":[[83],[84],[85],[86],[87],[88]]},{"type":"MultiLineString","properties":{"source":"naturalearthdata.com","kind":"country","sort_rank":262,"kind_detail":"2","min_zoom":0.0,"id":410},"arcs":[[89],[90],[91],[92],[93]]},{"type":"MultiLineString","properties":{"source":"naturalearthdata.com","kind":"macroregion","sort_rank":257,"kind_detail":"3","min_zoom":5.5,"id":2964},"arcs":[[94],[95],[96],[97],[98]]},{"type":"MultiLineString","properties":{"source":"naturalearthdata.com","kind":"region","sort_rank":256,"kind_detail":"4","min_zoom":2.0,"id":1155},"arcs":[[99],[100],[101],[102]]},{"type":"MultiLineString","properties":{"source":"naturalearthdata.com","kind":"region","sort_rank":256,"kind_detail":"4","min_zoom":2.0,"id":1156},"arcs":[[103],[104],[105],[106],[107],[108],[109],[110],[111],[112],[113],[114],[115],[116],[117],[118],[119],[120],[121],[122],[123]]},{"type":"MultiLineString","properties":{"source":"naturalearthdata.com","kind":"region","sort_rank":256,"kind_detail":"4","min_zoom":6.0,"id":2948},"arcs":[[124],[125],[126],[127],[128],[129],[130]]},{"type":"MultiLineString","properties":{"source":"naturalearthdata.com","kind":"macroregion","sort_rank":257,"kind_detail":"3","min_zoom":5.5,"id":2949},"arcs":[[131],[132],[133],[134],[135],[136],[137],[138],[139],[140],[141],[142],[143]]},{"type":"MultiLineString","properties":{"source":"naturalearthdata.com","kind":"macroregion","sort_rank":257,"kind_detail":"3","min_zoom":5.5,"id":2950},"arcs":[[144],[145],[146],[147],[148],[149],[150]]},{"type":"MultiLineString","properties":{"source":"naturalearthdata.com","kind":"macroregion","sort_rank":257,"kind_detail":"3","min_zoom":5.5,"id":2951},"arcs":[[151],[152],[153],[154]]},{"type":"MultiLineString","properties":{"source":"naturalearthdata.com","kind":"region","sort_rank":256,"kind_detail":"4","min_zoom":6.0,"id":2952},"arcs":[[155],[156],[157]]},{"type":"MultiLineString","properties":{"source":"naturalearthdata.com","kind":"region","sort_rank":256,"kind_detail":"4","min_zoom":6.0,"id":2954},"arcs":[[158],[159],[160],[161],[162]]},{"type":"MultiLineString","properties":{"source":"naturalearthdata.com","kind":"region","sort_rank":256,"kind_detail":"4","min_zoom":6.0,"id":2957},"arcs":[[163],[164],[165],[166]]},{"type":"MultiLineString","properties":{"source":"naturalearthdata.com","kind":"region","sort_rank":256,"kind_detail":"4","min_zoom":6.0,"id":2958},"arcs":[[167],[168],[169],[170],[171],[172],[173],[174],[175],[176],[177],[178],[179],[180],[181],[182]]},{"type":"MultiLineString","properties":{"source":"naturalearthdata.com","kind":"region","sort_rank":256,"kind_detail":"4","min_zoom":6.0,"id":2961},"arcs":[[183],[184],[185],[186],[187]]},{"type":"MultiLineString","properties":{"source":"naturalearthdata.com","kind":"region","sort_rank":256,"kind_detail":"4","min_zoom":6.0,"id":2962},"arcs":[[188],[189],[190],[191],[192]]},{"type":"MultiLineString","properties":{"source":"naturalearthdata.com","kind":"macroregion","sort_rank":257,"kind_detail":"3","min_zoom":5.5,"id":2963},"arcs":[[193],[194],[195]]},{"type":"MultiLineString","properties":{"source":"naturalearthdata.com","kind":"macroregion","sort_rank":257,"kind_detail":"3","min_zoom":5.5,"id":2967},"arcs":[[196],[197],[198],[199],[200],[201],[202],[203],[204],[205]]},{"type":"MultiLineString","properties":{"source":"naturalearthdata.com","kind":"region","sort_rank":256,"kind_detail":"4","min_zoom":2.0,"id":7434},"arcs":[[206],[207],[208]]}]},"roads":{"type":"GeometryCollection","geometries":[{"type":"LineString","properties":{"source":"naturalearthdata.com","kind":"major_road","sort_rank":379,"kind_detail":"secondary","min_zoom":3.0,"id":27059},"arcs":[225]},{"type":"LineString","properties":{"source":"naturalearthdata.com","kind":"minor_road","sort_rank":355,"kind_detail":"tertiary","min_zoom":5.0,"id":27199},"arcs":[226]},{"type":"LineString","properties":{"source":"naturalearthdata.com","kind":"major_road","sort_rank":379,"kind_detail":"secondary","min_zoom":3.0,"id":27266},"arcs":[227]},{"type":"LineString","properties":{"source":"naturalearthdata.com","kind":"minor_road","sort_rank":355,"kind_detail":"tertiary","min_zoom":5.0,"id":27310},"arcs":[228]},{"type":"LineString","properties":{"source":"naturalearthdata.com","kind":"major_road","sort_rank":379,"kind_detail":"secondary","min_zoom":3.0,"id":27377},"arcs":[229]},{"type":"LineString","properties":{"source":"naturalearthdata.com","kind":"minor_road","sort_rank":355,"kind_detail":"tertiary","min_zoom":5.0,"id":27494},"arcs":[230]},{"type":"LineString","properties":{"source":"naturalearthdata.com","kind":"minor_road","sort_rank":355,"kind_detail":"tertiary","min_zoom":5.0,"id":27571},"arcs":[231]},{"type":"LineString","properties":{"source":"naturalearthdata.com","kind":"minor_road","sort_rank":355,"kind_detail":"tertiary","min_zoom":5.0,"id":27586},"arcs":[232]},{"type":"LineString","properties":{"source":"naturalearthdata.com","kind":"major_road","sort_rank":379,"kind_detail":"secondary","min_zoom":3.0,"id":27741},"arcs":[233]},{"type":"LineString","properties":{"source":"naturalearthdata.com","kind":"major_road","sort_rank":379,"kind_detail":"secondary","min_zoom":3.0,"id":27960},"arcs":[234]},{"type":"LineString","properties":{"source":"naturalearthdata.com","kind":"minor_road","kind_detail":"tertiary","sort_rank":355,"landuse_kind":"park","min_zoom":5.0,"id":28009},"arcs":[235]},{"type":"MultiLineString","properties":{"source":"naturalearthdata.com","kind":"minor_road","sort_rank":355,"kind_detail":"tertiary","min_zoom":5.0,"id":28009},"arcs":[[236],[237]]},{"type":"LineString","properties":{"source":"naturalearthdata.com","kind":"major_road","sort_rank":379,"kind_detail":"secondary","min_zoom":3.0,"id":28067},"arcs":[238]},{"type":"LineString","properties":{"source":"naturalearthdata.com","kind":"minor_road","sort_rank":355,"kind_detail":"tertiary","min_zoom":5.0,"id":28142},"arcs":[239]},{"type":"LineString","properties":{"source":"naturalearthdata.com","kind":"minor_road","sort_rank":355,"kind_detail":"tertiary","min_zoom":5.0,"id":28156},"arcs":[240]},{"type":"LineString","properties":{"source":"naturalearthdata.com","kind":"major_road","sort_rank":379,"kind_detail":"secondary","min_zoom":3.0,"id":28208},"arcs":[241]},{"type":"LineString","properties":{"source":"naturalearthdata.com","kind":"minor_road","sort_rank":355,"kind_detail":"tertiary","min_zoom":5.0,"id":28372},"arcs":[242]},{"type":"LineString","properties":{"source":"naturalearthdata.com","kind":"minor_road","sort_rank":355,"kind_detail":"tertiary","min_zoom":5.0,"id":28393},"arcs":[243]},{"type":"LineString","properties":{"source":"naturalearthdata.com","kind":"minor_road","sort_rank":355,"kind_detail":"tertiary","min_zoom":5.0,"id":28627},"arcs":[244]},{"type":"LineString","properties":{"source":"naturalearthdata.com","kind":"minor_road","sort_rank":355,"kind_detail":"tertiary","min_zoom":5.0,"id":28663},"arcs":[245]},{"type":"LineString","properties":{"source":"naturalearthdata.com","kind":"major_road","sort_rank":379,"kind_detail":"secondary","min_zoom":3.0,"id":28776},"arcs":[246]},{"type":"LineString","properties":{"source":"naturalearthdata.com","kind":"minor_road","sort_rank":355,"kind_detail":"tertiary","min_zoom":5.0,"id":28826},"arcs":[247]},{"type":"LineString","properties":{"source":"naturalearthdata.com","kind":"major_road","sort_rank":379,"kind_detail":"secondary","min_zoom":3.0,"id":29144},"arcs":[248]},{"type":"LineString","properties":{"source":"naturalearthdata.com","kind":"minor_road","sort_rank":355,"kind_detail":"tertiary","min_zoom":5.0,"id":29210},"arcs":[249]},{"type":"LineString","properties":{"source":"naturalearthdata.com","kind":"major_road","sort_rank":379,"kind_detail":"secondary","min_zoom":3.0,"id":29262},"arcs":[250]},{"type":"LineString","properties":{"source":"naturalearthdata.com","kind":"minor_road","sort_rank":355,"kind_detail":"tertiary","min_zoom":5.0,"id":29750},"arcs":[251]},{"type":"LineString","properties":{"source":"naturalearthdata.com","kind":"minor_road","sort_rank":355,"kind_detail":"tertiary","min_zoom":5.0,"id":29792},"arcs":[252]},{"type":"LineString","properties":{"source":"naturalearthdata.com","kind":"minor_road","kind_detail":"tertiary","sort_rank":355,"landuse_kind":"park","min_zoom":5.0,"id":29798},"arcs":[253]},{"type":"LineString","properties":{"source":"naturalearthdata.com","kind":"minor_road","kind_detail":"tertiary","sort_rank":355,"landuse_kind":"park","min_zoom":5.0,"id":29798},"arcs":[254]},{"type":"MultiLineString","properties":{"source":"naturalearthdata.com","kind":"minor_road","sort_rank":355,"kind_detail":"tertiary","min_zoom":5.0,"id":29798},"arcs":[[255],[256],[257]]},{"type":"LineString","properties":{"source":"naturalearthdata.com","kind":"major_road","kind_detail":"secondary","sort_rank":379,"landuse_kind":"urban_area","min_zoom":3.0,"id":29823},"arcs":[258]},{"type":"LineString","properties":{"source":"naturalearthdata.com","kind":"major_road","kind_detail":"secondary","sort_rank":379,"landuse_kind":"urban_area","min_zoom":3.0,"id":29919},"arcs":[259]},{"type":"LineString","properties":{"source":"naturalearthdata.com","kind":"minor_road","kind_detail":"tertiary","sort_rank":355,"landuse_kind":"urban_area","min_zoom":5.0,"id":30134},"arcs":[260]},{"type":"LineString","properties":{"source":"naturalearthdata.com","kind":"minor_road","sort_rank":355,"kind_detail":"tertiary","min_zoom":5.0,"id":30134},"arcs":[261]},{"type":"LineString","properties":{"source":"naturalearthdata.com","kind":"minor_road","kind_detail":"tertiary","sort_rank":355,"landuse_kind":"urban_area","min_zoom":5.0,"id":30135},"arcs":[262]},{"type":"LineString","properties":{"source":"naturalearthdata.com","kind":"major_road","kind_detail":"secondary","sort_rank":379,"landuse_kind":"urban_area","min_zoom":3.0,"id":30136},"arcs":[263]},{"type":"LineString","properties":{"source":"naturalearthdata.com","kind":"major_road","kind_detail":"secondary","sort_rank":379,"landuse_kind":"urban_area","min_zoom":3.0,"id":30136},"arcs":[264]},{"type":"LineString","properties":{"source":"naturalearthdata.com","kind":"major_road","kind_detail":"secondary","sort_rank":379,"landuse_kind":"urban_area","min_zoom":3.0,"id":30136},"arcs":[265]},{"type":"MultiLineString","properties":{"source":"naturalearthdata.com","kind":"major_road","sort_rank":379,"kind_detail":"secondary","min_zoom":3.0,"id":30136},"arcs":[[266],[267]]},{"type":"LineString","properties":{"source":"naturalearthdata.com","kind":"minor_road","sort_rank":355,"kind_detail":"tertiary","min_zoom":5.0,"id":30348},"arcs":[268]},{"type":"LineString","properties":{"source":"naturalearthdata.com","kind":"minor_road","sort_rank":355,"kind_detail":"tertiary","min_zoom":5.0,"id":30349},"arcs":[269]},{"type":"LineString","properties":{"source":"naturalearthdata.com","kind":"minor_road","kind_detail":"tertiary","sort_rank":355,"landuse_kind":"urban_area","min_zoom":5.0,"id":30439},"arcs":[270]},{"type":"LineString","properties":{"source":"naturalearthdata.com","kind":"minor_road","kind_detail":"tertiary","sort_rank":355,"landuse_kind":"urban_area","min_zoom":5.0,"id":30439},"arcs":[271]},{"type":"MultiLineString","properties":{"source":"naturalearthdata.com","kind":"minor_road","sort_rank":355,"kind_detail":"tertiary","min_zoom":5.0,"id":30439},"arcs":[[272],[273]]},{"type":"LineString","properties":{"source":"naturalearthdata.com","kind":"minor_road","sort_rank":355,"kind_detail":"tertiary","min_zoom":5.0,"id":30443},"arcs":[274]},{"type":"LineString","properties":{"source":"naturalearthdata.com","kind":"minor_road","kind_detail":"tertiary","sort_rank":355,"landuse_kind":"urban_area","min_zoom":5.0,"id":30540},"arcs":[275]},{"type":"MultiLineString","properties":{"source":"naturalearthdata.com","kind":"minor_road","sort_rank":355,"kind_detail":"tertiary","min_zoom":5.0,"id":30540},"arcs":[[276],[277]]},{"type":"LineString","properties":{"source":"naturalearthdata.com","kind":"minor_road","sort_rank":355,"kind_detail":"tertiary","min_zoom":5.0,"id":30585},"arcs":[278]},{"type":"LineString","properties":{"source":"naturalearthdata.com","kind":"minor_road","sort_rank":355,"kind_detail":"tertiary","min_zoom":5.0,"id":30643},"arcs":[279]},{"type":"LineString","properties":{"source":"naturalearthdata.com","kind":"minor_road","kind_detail":"tertiary","sort_rank":355,"landuse_kind":"urban_area","min_zoom":5.0,"id":30982},"arcs":[280]},{"type":"MultiLineString","properties":{"source":"naturalearthdata.com","kind":"minor_road","sort_rank":355,"kind_detail":"tertiary","min_zoom":5.0,"id":30982},"arcs":[[281],[282]]},{"type":"LineString","properties":{"source":"naturalearthdata.com","kind":"major_road","kind_detail":"secondary","sort_rank":379,"landuse_kind":"urban_area","min_zoom":3.0,"id":31033},"arcs":[283]},{"type":"LineString","properties":{"source":"naturalearthdata.com","kind":"major_road","kind_detail":"secondary","sort_rank":379,"landuse_kind":"urban_area","min_zoom":3.0,"id":31033},"arcs":[284]},{"type":"LineString","properties":{"source":"naturalearthdata.com","kind":"major_road","kind_detail":"secondary","sort_rank":379,"landuse_kind":"urban_area","min_zoom":3.0,"id":31033},"arcs":[285]},{"type":"MultiLineString","properties":{"source":"naturalearthdata.com","kind":"major_road","sort_rank":379,"kind_detail":"secondary","min_zoom":3.0,"id":31033},"arcs":[[286],[287],[288]]},{"type":"LineString","properties":{"source":"naturalearthdata.com","kind":"major_road","sort_rank":379,"kind_detail":"secondary","min_zoom":4.0,"id":31264},"arcs":[289]}]},"earth":{"type":"GeometryCollection","geometries":[{"type":"MultiPolygon","properties":{"sort_rank":10,"source":"naturalearthdata.com","min_zoom":0.0,"kind":"earth","area":1567169812290},"arcs":[[[290]]]}]},"landuse":{"type":"GeometryCollection","geometries":[{"type":"MultiPolygon","properties":{"kind":"national_park","protect_class":"2","area":6469166083,"sort_rank":18,"source":"openstreetmap.org","min_zoom":3.0,"tier":1,"osm_relation":true},"arcs":[[[291]]]},{"type":"MultiPolygon","properties":{"source":"openstreetmap.org","kind":"park","tier":2,"area":465837681,"sort_rank":24,"min_zoom":6.0,"osm_relation":true},"arcs":[[[292]],[[293]]]},{"type":"Polygon","properties":{"kind":"nature_reserve","area":997800000,"sort_rank":23,"source":"openstreetmap.org","min_zoom":6.0,"tier":2,"id":-2640060,"osm_relation":true},"arcs":[[294]]},{"type":"MultiPolygon","properties":{"source":"openstreetmap.org","kind":"national_park","tier":1,"protect_class":"2","area":2023270741,"sort_rank":18,"min_zoom":3.0},"arcs":[[[295]]]},{"type":"MultiPolygon","properties":{"source":"openstreetmap.org","kind":"park","tier":2,"area":1498814351,"sort_rank":24,"min_zoom":6.0},"arcs":[[[296]]]},{"type":"MultiPolygon","properties":{"source":"naturalearthdata.com","kind":"urban_area","name":"","area":11195669973,"sort_rank":11,"min_zoom":4.0},"arcs":[[[297]],[[298]],[[299]],[[300]],[[301]],[[302]],[[303]],[[304]],[[305]],[[306]],[[307]],[[308]],[[309]],[[310]],[[311]],[[312]],[[313]],[[314]],[[315]],[[316]],[[317]],[[318]],[[319]]]},{"type":"Polygon","properties":{"kind":"protected_area","protect_class":"4","area":483780992,"sort_rank":17,"source":"openstreetmap.org","min_zoom":6.0,"tier":2,"id":78341507},"arcs":[[320]]},{"type":"MultiPolygon","properties":{"kind":"nature_reserve","protect_class":"5","area":12090984549,"sort_rank":23,"source":"openstreetmap.org","min_zoom":4.0,"tier":2,"osm_relation":true},"arcs":[[[321]]]},{"type":"Polygon","properties":{"kind":"nature_reserve","protect_class":"4","area":1723970048,"sort_rank":23,"source":"openstreetmap.org","min_zoom":4.0,"tier":2,"id":323146126},"arcs":[[322]]},{"type":"Polygon","properties":{"kind":"nature_reserve","area":1348199936,"sort_rank":23,"source":"openstreetmap.org","min_zoom":4.0,"tier":2,"id":-3014915,"osm_relation":true},"arcs":[[323]]},{"type":"MultiPolygon","properties":{"source":"openstreetmap.org","kind":"park","tier":2,"area":12890967952,"sort_rank":24,"min_zoom":4.0,"osm_relation":true},"arcs":[[[324]],[[325]]]}]}},"type":"Topology","transform":{"translate":[78.75,27.0591257844],"scale":[0.001373291,0.001194589]},"arcs":[[[1068,2936],[26,-1],[54,-16],[72,-40],[36,-15],[24,-15],[13,-3]],[[1041,2930],[27,6]],[[1329,2852],[15,-5],[72,-41],[21,-16],[9,-12],[14,-27],[9,-12],[10,-8],[63,-28],[55,-15],[24,-13],[15,-23],[5,-12],[-6,-13]],[[1293,2846],[14,2],[11,3],[11,1]],[[228,3662],[11,-5],[20,-18],[24,-15],[5,-11],[3,-13],[8,-13],[5,-2],[14,-2],[5,-3],[4,-9],[-1,-8],[-2,-8],[-1,-9],[3,-7],[11,-8],[5,-6],[0,-8],[-2,-7],[-1,-7],[3,-8],[11,-9],[13,-3],[10,-6],[4,-18],[0,-16],[2,-15],[6,-13],[9,-12],[19,-10],[20,-6],[17,-9],[8,-13],[4,-8]],[[165,3567],[9,19],[5,37],[14,32],[35,7]],[[122,3596],[13,-6],[18,-19],[12,-4]],[[72,3542],[10,1],[11,6],[1,1],[8,8],[8,12],[12,26]],[[848,3202],[4,-3],[11,-7],[51,-21],[17,-14],[12,-20],[13,-18],[21,-9]],[[1013,3126],[12,0],[9,-7],[19,-31],[21,-12],[5,-7],[-18,-33],[-5,-4],[-6,-1]],[[977,3110],[13,3],[23,13]],[[1050,3031],[-7,0]],[[1043,3031],[-7,-1],[-4,-4],[0,-10],[7,-10],[10,-10],[7,-10],[2,-17],[-4,-12],[-7,-12],[-6,-15]],[[2086,2811],[15,-5],[89,-40],[16,-4]],[[2009,2737],[9,3],[8,32],[3,7],[6,3],[14,3],[9,4],[4,7],[2,7],[5,6],[17,2]],[[1935,2779],[14,-5],[26,-26],[15,-8],[19,-3]],[[1864,2572],[9,2],[12,8],[8,11],[6,14],[3,26],[9,16],[3,8],[-1,7],[-5,13],[-1,8],[-1,29],[3,13],[8,12],[3,12],[-1,13],[2,11],[14,4]],[[2253,2773],[31,-14]],[[2206,2762],[16,2],[16,6],[15,3]],[[2309,2761],[15,-3],[6,-5],[9,-12],[5,-4],[7,-2]],[[2284,2759],[25,2]],[[2403,2746],[17,-2],[11,-6],[3,-13],[-8,-48],[2,-22],[8,-14],[14,-10],[19,-7],[11,-10],[-3,-16],[-18,-32],[1,-11],[5,-18],[7,-17],[7,-9],[14,-3]],[[2351,2735],[7,3],[7,3],[7,3],[31,2]],[[1635,2627],[8,-7],[10,-14],[8,-16],[9,-28],[17,-27],[5,-13],[8,-37],[0,-1],[10,-8]],[[1852,2573],[12,-1]],[[1780,2466],[16,3],[8,12],[-1,23],[10,7],[13,4],[7,5],[0,2],[3,7],[3,13],[-1,5],[-6,13],[1,7],[8,5],[11,1]],[[2520,2516],[33,-21],[15,-2],[14,0],[17,-5],[6,-5],[8,-13],[6,-5],[12,-2]],[[2493,2508],[14,5],[13,3]],[[1746,2481],[34,-15]],[[1710,2476],[19,5],[17,0]],[[2643,2465],[11,-1],[11,-7],[9,-12],[12,-12],[13,-10],[14,-7],[35,-11],[13,-7],[56,-70],[13,-9]],[[2631,2463],[12,2]],[[2852,2324],[8,-1],[8,-5],[0,-7],[-3,-8],[-2,-11],[7,-14],[44,-34],[13,-21],[8,-8],[9,-5],[9,-3],[7,-5],[5,-10],[11,-15]],[[2830,2319],[7,0],[15,5]],[[3022,2201],[7,-3],[10,-13],[6,-4],[8,-1]],[[2976,2177],[15,5],[16,13],[15,6]],[[3069,2182],[8,-1],[42,-37],[6,-8],[9,-21],[8,-6]],[[3053,2180],[16,2]],[[3204,2148],[9,0],[8,-3],[10,-8],[3,-4],[2,-11],[2,-4],[6,-4],[12,-4],[6,-3],[17,-18],[6,-11],[1,-12],[-2,-7],[-4,-5],[-4,-5],[-1,-10],[12,-18]],[[3142,2109],[11,1],[4,9],[2,12],[4,9],[5,2],[19,5],[17,1]],[[3334,2031],[19,-21],[2,-15],[-2,-12],[2,-11],[22,-18],[1,-9],[-1,-10],[4,-12],[9,-8],[9,-5],[8,-6],[6,-24],[8,-7],[20,-8],[13,-9],[7,-13],[7,-31],[1,-18],[2,-9],[5,-7],[9,-3],[19,-3],[7,-6],[9,-6],[29,-5],[11,-1]],[[3287,2021],[47,10]],[[3783,1869],[9,-2],[7,-4],[4,-6],[2,-11]],[[3656,1819],[16,2],[33,16],[17,6],[5,2],[7,11],[4,5],[23,6],[13,2],[9,0]],[[3824,1853],[8,-2],[7,-9],[10,-10]],[[3805,1846],[9,4],[10,3]],[[3875,1840],[13,0],[7,-9],[5,-22],[5,-9],[10,-3]],[[3849,1832],[13,2],[13,6]],[[3638,1821],[18,-2]],[[3560,1754],[12,5],[6,12],[3,15],[5,13],[15,15],[18,6],[19,1]],[[3926,1799],[10,-1],[5,-12],[-5,-14],[-10,-13],[-7,-14],[4,-16],[17,-16],[4,-6],[3,-8],[4,-26],[16,-10],[17,-6],[7,-11],[-18,-71],[14,-22],[7,-12],[37,-22],[50,-10],[9,-4],[6,-6]],[[3915,1797],[11,2]],[[1554,2638],[7,-10],[7,-15],[13,-3]],[[1102,1889],[-6,1],[-4,8],[-5,34],[-16,28],[-5,14],[3,15],[7,5],[22,7],[4,8],[2,11],[5,5],[7,5],[6,9],[15,11],[6,7],[5,7],[1,4],[-2,5],[-1,5],[2,6],[4,3],[10,5],[4,3],[16,19],[9,17],[1,18],[-7,22],[-10,23],[-7,21],[0,21],[11,23],[19,16],[43,12],[16,13],[37,47],[16,26],[10,30],[6,14],[11,6],[26,4],[14,4],[10,6],[19,18],[25,18],[8,8],[22,35],[10,11],[43,33],[15,22],[-10,22],[10,10],[13,15],[12,9]],[[1581,2610],[49,16],[5,1]],[[1098,1794],[15,55],[3,20],[-2,15],[-5,5]],[[1109,1889],[-7,0]],[[1082,1803],[9,-7],[7,-2]],[[1057,1726],[14,4],[9,11],[-2,13],[-12,35],[4,12],[12,2]],[[1029,1728],[13,-2],[15,0]],[[1165,1307],[-15,6],[-8,10],[-20,42],[-5,5],[-14,3],[-6,3],[-5,6],[-8,14],[-4,5],[-12,8],[-26,4],[-14,5],[-10,9],[-25,32],[-23,15],[-7,1],[-13,3],[-13,10],[-5,34],[1,17],[2,15],[5,14],[9,14],[11,9],[12,7],[11,8],[6,14],[-3,28],[7,37],[14,32],[22,11]],[[1610,1149],[-14,1],[-15,3],[-12,4],[-13,10],[-4,11],[-1,13],[-6,13],[-10,4],[-30,0],[-13,3],[-13,8],[-27,29],[-12,8],[-23,7],[-13,6],[-7,9],[-15,28],[-9,7],[-27,5],[-12,4],[-13,7],[-5,7],[0,8],[1,7],[-2,5],[-16,0],[-12,1]],[[1287,1357],[-14,-8],[-8,-12],[-2,-14],[7,-54],[-4,-11]],[[1266,1258],[-14,8],[-31,38],[-13,8],[-15,1]],[[1193,1313],[-14,-4],[-14,-2]],[[1862,891],[-8,4],[2,12],[-11,3],[-5,6],[3,7],[11,5],[-10,20],[-42,50],[-10,23],[-15,50],[-15,19],[-17,9],[-72,14],[-34,7],[-6,9],[-1,10],[-2,9],[-9,5]],[[1621,1153],[-11,-4]],[[2282,661],[-21,2],[-20,12],[-20,16],[-36,21],[-29,32],[-16,13],[-17,6],[-37,9],[-14,11],[-10,16],[-14,10],[-65,34],[-11,9],[-3,8],[-1,9],[-3,12],[-10,15],[-13,15],[-15,11],[-17,6]],[[1910,928],[-11,-1],[-5,-8],[-3,-10],[-6,-10],[-11,-6],[-12,-2]],[[2687,508],[-28,9],[-39,41],[-57,29],[-86,74],[-32,12],[-13,8],[-13,15],[-15,12],[-1,1],[-17,5],[-37,4]],[[2349,718],[-21,-10],[-30,-35],[-16,-12]],[[3102,322],[-46,11],[-33,20],[-18,6],[-91,6],[-16,19],[-8,32],[-7,63],[-9,32],[-12,21],[-5,2],[-16,6]],[[2841,540],[-91,-24],[-63,-8]],[[3965,316],[-7,2],[-8,20],[-6,8],[-18,7],[-8,5],[-7,7],[-3,15],[-13,3]],[[3895,383],[-14,-6],[-37,-47],[-15,-10],[-24,-1]],[[3717,239],[-1,1],[-4,4],[-33,13],[-101,55],[-53,21],[-80,11],[-68,0]],[[3377,344],[-19,-7],[-4,-8],[-2,-10],[2,-10],[11,-15],[-1,-10],[-5,-11],[-16,-24],[-12,-12],[-14,-9],[-17,0]],[[3805,319],[-29,5],[-9,3]],[[3767,327],[-1,0],[-16,-5],[-34,-2],[-14,-6],[6,-14],[21,-23],[2,-8],[3,-9],[0,-7],[-8,-2],[-4,-4],[-5,-8]],[[3300,228],[-16,6],[-8,8],[-4,12],[-9,16],[-9,10],[-36,31],[-27,11]],[[3191,322],[-89,0]],[[4096,254],[-62,11],[-16,11],[-14,20],[-7,15],[-10,8]],[[3987,319],[-22,-3]],[[6,3857],[27,-28],[17,-22],[-3,-10],[-13,-14],[-34,-27]],[[0,3680],[9,-8],[-2,-28],[-7,-22]],[[0,3554],[2,-2],[23,-12],[9,0]],[[0,3857],[6,0]],[[52,3545],[20,-3]],[[34,3540],[18,5]],[[465,3357],[5,-27],[4,-11],[10,-3]],[[507,3319],[11,-2],[11,-6],[3,-4],[3,-4],[2,-4],[1,-5],[6,-11],[11,-12],[13,-11],[10,-5],[16,-4],[9,-4]],[[484,3316],[12,2],[11,1]],[[720,3282],[16,-2],[53,-13],[12,-6],[9,-11],[13,-24],[17,-19],[8,-5]],[[603,3247],[8,2],[30,19],[13,2],[29,2],[37,10]],[[3160,993],[-10,-11],[-33,-16],[-9,-9],[-5,-8],[-1,-8],[3,-8],[14,-19],[3,-8],[1,-10],[-4,-7],[-5,-6],[-20,-17],[-9,-29],[-4,-23],[-6,-26],[2,-14],[5,-8],[6,-4],[5,-5],[2,-5],[2,-9],[-3,-6],[-4,-3],[-24,-9],[-21,-13],[-9,-3],[-9,-2]],[[3027,707],[-10,1],[-17,3]],[[3000,711],[-17,-5],[-33,-29],[-25,-28],[-2,-3],[-1,-5],[9,-7],[33,-16],[17,-18],[-32,-11]],[[2949,589],[-36,4]],[[2913,593],[-11,-1],[-14,-5],[-7,-4],[-6,-4],[-3,-5],[-3,-5],[-5,-9],[-5,-19],[-2,-7]],[[133,3398],[10,2],[11,1],[23,7],[3,14],[-3,14],[-21,33],[-20,31],[-23,23],[-5,6],[-14,21]],[[0,3474],[3,0]],[[21,3474],[10,-2],[6,-6],[14,-30],[10,-14],[9,-10],[17,-11],[46,-3]],[[3,3474],[18,0]],[[0,2028],[41,-24],[19,-8],[54,-11],[10,-7],[-1,-8],[-3,-10],[-6,-10],[-34,-32],[-9,-4]],[[71,1914],[-7,0],[-5,4],[-4,2]],[[55,1920],[-7,-2],[-5,-7],[-9,-18],[-6,-1]],[[28,1892],[-9,2],[-6,5],[-5,2]],[[8,1901],[-4,-1],[-4,-4]],[[0,1851],[86,-46],[13,-15],[9,-17],[5,-15],[6,-45]],[[213,1754],[10,-2],[54,-31],[6,-7],[3,-7],[0,-9],[2,-8],[7,-11],[11,-11],[92,-67],[17,-6],[15,-1]],[[119,1713],[27,18],[46,13],[17,10],[4,0]],[[445,1600],[7,0],[6,-6],[5,-7],[11,-12],[7,-8],[4,-8],[11,-38],[9,-22]],[[430,1594],[8,2],[7,4]],[[723,1529],[15,-1],[36,-6],[14,-9],[6,-9],[-2,-9],[-7,-17],[0,-9],[4,-7],[8,-1]],[[691,1500],[19,7],[3,6],[1,6],[0,5],[9,5]],[[595,1524],[6,-7],[4,-10],[5,-9],[9,0]],[[505,1499],[60,24],[30,1]],[[643,1510],[48,-10]],[[619,1498],[9,4],[15,8]],[[890,1401],[11,1],[10,3],[10,5],[10,7],[20,23],[6,12],[4,10],[2,13]],[[828,1472],[5,-3],[1,-7],[-3,-10],[-1,-9],[4,-6]],[[797,1461],[21,10],[10,1]],[[860,1442],[2,-4],[-3,-7],[-1,-9],[5,-9],[13,-9],[14,-3]],[[834,1437],[8,0],[9,4],[9,1]],[[2312,1604],[-58,5],[-15,5],[-16,7],[-11,7],[-13,4],[-39,7],[-60,20],[-26,5],[-13,5],[-4,3],[0,6],[1,8],[-2,21],[-18,23]],[[2695,1619],[-7,0],[-6,1],[-15,7],[-4,3],[-3,4],[-2,5],[0,5],[2,9],[2,6],[2,6],[1,8],[0,8],[-1,7],[-2,10],[-34,16],[-55,1]],[[2573,1715],[-11,-3],[-72,-32],[-7,-5],[-6,-6],[-8,-15],[-5,-5],[-7,-5],[-6,-5],[-4,-7],[-5,-9],[-11,-12],[-9,-4],[-9,0]],[[2413,1607],[-7,3],[-4,6],[-4,9],[-1,0],[-2,2],[-3,2],[-15,5]],[[2377,1634],[-65,-30]],[[2780,1612],[-44,19],[-16,1]],[[2720,1632],[-8,-5],[-2,-2],[-1,0],[-6,-4],[-8,-2]],[[2038,1730],[-48,-36],[-10,-3],[-9,-7],[-34,-39],[-2,-18],[5,-18],[10,-15],[10,-6],[37,-58],[26,-29],[10,-16],[4,-21],[6,-13],[10,-10],[2,-9],[-18,-11],[-12,-5],[-6,-1]],[[1790,1548],[-15,4],[-38,30],[-29,15],[-16,6],[-14,2]],[[1678,1605],[-14,-4],[-16,-9],[-12,-12],[-3,-9],[36,-39],[26,-22],[12,-8]],[[1885,1536],[-8,3],[-16,11],[-8,3],[-16,1]],[[1837,1554],[-47,-6]],[[2019,1415],[-7,0],[0,6],[9,7],[-1,5],[-8,5],[3,26],[-32,37],[-11,24],[-11,15],[-13,4]],[[1948,1544],[-63,-8]],[[1737,1513],[9,-8],[10,-23]],[[1707,1502],[11,3],[9,6],[10,2]],[[1777,1507],[11,-6],[9,-9],[7,-13],[4,-27],[8,-27],[24,-54],[3,-15],[-2,-17],[-5,-19],[-7,-7],[-5,-7],[-101,-113],[-9,-7],[-24,-15],[-8,-11],[-9,-33],[0,-13],[0,-1]],[[1792,1467],[-3,11],[-9,18],[-3,11]],[[1763,1484],[29,-17]],[[1756,1482],[7,2]],[[1900,2483],[-7,2],[-6,3],[-9,8],[-6,4],[-16,6],[-16,12],[-7,4]],[[1998,2372],[-6,1],[-7,4],[-15,12],[-3,6],[-1,8],[3,15],[0,10],[-1,8],[-3,7],[-3,6],[-4,5],[-7,15],[-5,14],[-2,1],[-4,2]],[[1940,2486],[-16,0],[-24,-3]],[[2127,1907],[13,2],[25,8],[5,15],[-8,13],[-7,16],[-3,19],[0,20],[2,17],[5,13],[8,11],[29,20],[11,11],[5,18],[1,13],[-1,18],[-3,7],[-4,6],[-14,4],[-4,1],[-12,5],[-9,7],[-8,8],[-7,10],[-5,14],[-1,10],[0,7],[21,65],[3,21],[2,27],[2,10],[2,7],[4,4],[10,8],[5,5],[5,6],[3,6],[1,6],[0,10],[-4,8],[-7,6],[-10,3],[-28,6],[-12,5],[-9,7],[-9,4],[-13,2]],[[2111,2416],[-55,-1],[-8,-1],[-8,-3],[-16,-9],[-18,-27],[-5,-3],[-3,0]],[[2082,1932],[5,-1],[5,-3],[19,-17],[7,-4],[9,0]],[[2038,1730],[-10,10],[-9,8],[-22,14],[-5,4],[-3,11],[-2,13],[6,52],[-6,13],[-3,8],[-1,9],[4,8],[6,9],[23,23],[11,8],[30,10],[11,2],[14,0]],[[3295,1390],[13,1],[35,7],[15,6],[17,9],[65,25],[10,14],[24,69],[13,23],[41,53],[6,6],[5,8],[3,12],[6,65],[3,10],[8,9],[8,8],[7,9],[2,6],[-4,29]],[[3202,1405],[21,-3],[20,-7],[11,-2]],[[3271,1394],[24,-4]],[[3254,1393],[17,1]],[[3987,1553],[-6,-3],[-23,-6],[-20,-12],[-9,-3],[-31,-4],[-11,-5],[-8,-6],[-5,-6],[-19,-15],[-19,-13],[-12,-5],[-11,-1]],[[3813,1474],[-15,3]],[[3798,1477],[-14,-1],[-9,-4],[-7,-6],[-9,-16],[-7,-8],[-46,-41],[-18,-10],[-10,-6],[-6,-5],[-1,-4],[3,-9],[31,-36],[2,-7],[3,-12],[-31,-28],[-3,-8],[-4,-12],[2,-20],[-2,-12],[-5,-11],[-11,-13],[-1,-1],[-15,-20],[-5,-12],[-11,-35],[-6,-8],[-6,-6],[-12,-7],[16,-29],[7,-28],[6,-9],[7,-11],[6,-15],[6,-7],[12,-13],[3,-7],[0,-21],[-11,-26],[-8,-8],[-10,-10],[-8,-16],[-15,-19],[-3,-7],[-6,-19],[-19,-48],[-8,-14],[-9,-8],[-42,-13]],[[1700,2485],[-16,-11],[-11,-11],[-22,-31],[-9,-19],[-4,-11],[1,-5],[3,-3],[6,-4],[6,-5],[4,-7],[3,-8],[2,-8],[3,-20],[12,-47],[1,-28],[-4,-14],[-9,-9],[-9,-3],[-16,-2],[-5,-1],[-23,-13],[-7,-2],[-6,-1]],[[1600,2222],[-6,1]],[[1594,2223],[-8,-1],[-27,-6],[-22,-10],[-14,-11],[-10,-4],[-9,-1]],[[1504,2190],[-12,2]],[[1492,2192],[-10,-3],[-18,-15],[-3,-4],[-2,-8],[2,-5],[3,-8],[4,-9],[2,-13],[0,-20],[-3,-10],[-5,-8],[-7,-7],[-6,-12],[1,-9],[8,-5],[21,-6],[16,-2],[4,-1],[3,-2],[1,-2],[16,-22],[36,-36],[-23,-30],[-23,-13],[-31,-10],[-11,-11],[-11,-27],[-9,-17],[-5,-12],[-3,-12],[-2,-11],[-4,-16],[-9,-14],[-13,-19],[-10,-9],[-10,-7],[-35,-11],[-13,-7],[-20,-19],[-7,-11],[-4,-11],[-1,-6],[-6,-6],[-2,-6],[-3,-21],[-10,-13],[-5,-11],[-4,-18],[-12,-23],[7,-47],[-4,-62],[0,-11],[2,-9],[2,-5],[3,-7],[11,-18],[4,-9],[5,-16],[2,-11],[-2,-61],[0,-1],[0,-1]],[[3502,815],[-5,1],[-3,9],[-1,9],[2,5],[-1,6],[-5,5],[-33,30],[-8,5],[-10,4],[-15,3],[-20,1],[-10,3],[-12,9],[-6,7],[-5,9],[-7,7],[-9,6],[-16,8],[-10,4],[-19,0],[-11,4],[-14,8],[-40,36],[-15,7],[-12,3]],[[3217,1004],[-57,-11]],[[3524,791],[-10,22],[-6,3]],[[3508,816],[-6,-1]],[[3524,791],[-10,-19],[-23,-12],[-27,-5]],[[3464,755],[-21,6],[-13,1]],[[3430,762],[-11,-7],[-5,-11],[7,-7],[12,-7],[11,-9]],[[3460,731],[22,-4]],[[3444,721],[8,9],[8,1]],[[3502,728],[12,-2],[10,-5]],[[3482,727],[20,1]],[[3532,721],[26,-10]],[[3524,721],[8,0]],[[3636,721],[17,-2],[12,-7],[21,-22],[10,-6]],[[3558,711],[6,2],[13,7],[59,1]],[[3835,711],[15,-6],[26,-23],[14,-9],[31,-7],[66,-1],[31,-6],[13,-8],[4,-8],[1,-11],[2,-14],[4,-7],[9,-6],[2,-7],[1,-8],[3,-4],[5,-2],[6,0]],[[3768,686],[17,4],[32,19],[18,2]],[[3728,693],[10,-1],[20,-5],[10,-1]],[[3696,684],[7,1],[17,6],[8,2]],[[4068,584],[9,4],[8,9],[10,9],[1,0]],[[2780,1612],[-33,-31],[-9,-22],[-3,-11],[-7,-15],[-9,-11],[-79,-64],[-42,-26],[-9,-8],[-26,-40],[-15,-16],[-9,-8],[-13,-7],[-5,-5],[-4,-7],[-15,-30],[-19,-11],[-31,-1]],[[2452,1299],[-11,2],[-10,2],[-33,13]],[[2398,1316],[-25,-31],[-6,-13],[-3,-13],[1,-7],[12,-25],[3,-13],[1,-18],[-3,-11],[-5,-9],[-4,-5],[-4,-2],[-18,-8],[-7,-3],[-5,-7],[-1,-6],[3,-8],[4,-5],[4,-7],[3,-10],[0,-31],[4,-7],[45,-19],[15,-17],[8,-19],[16,-26],[-39,-21],[-10,-30],[-10,-16],[-1,-8],[3,-9],[6,-7],[23,-18],[6,-6],[12,-17],[5,-4],[6,-2],[6,0],[7,-1],[5,-4],[34,-31],[6,-11],[3,-10],[0,-14],[-1,-18],[-1,-4],[-1,-5],[-3,-3],[-4,-5],[-5,-3],[-7,-3],[-15,-3],[-7,0]],[[2454,743],[-13,1]],[[2441,744],[-4,0],[-4,-1],[-4,-3],[-22,-22],[-4,-9]],[[2780,1612],[42,-13],[10,-5],[12,-11],[29,-30],[4,-7],[2,-10],[0,-13],[-1,-11],[1,-9],[5,-7],[34,-24],[11,-4]],[[2958,1474],[38,-3]],[[2929,1468],[12,3],[8,2],[9,1]],[[3040,1474],[10,-2],[16,-5],[108,-55],[28,-7]],[[2996,1471],[44,3]],[[3068,1247],[5,3],[4,8],[0,7],[-3,6],[-8,10],[-2,6],[8,7],[18,8],[39,11],[38,17],[24,34],[8,17],[3,24]],[[3060,1247],[8,0]],[[3160,993],[-4,23],[-9,13],[-17,16],[-67,53],[-8,23],[-5,6],[-10,10],[-5,7],[-9,20],[-8,7],[-4,8],[18,27],[-9,8],[-1,6],[5,9],[12,12],[12,5],[9,1]],[[4096,529],[-13,5]],[[4083,534],[-19,-9],[-18,-15],[-20,-7]],[[4026,503],[-12,1],[-9,2],[-8,1]],[[3997,507],[-9,-4],[-13,-21],[-10,-7]],[[3965,475],[-12,5]],[[3953,480],[-16,-19],[-30,-51],[-9,-10]],[[3898,400],[-25,18]],[[3873,418],[-14,-10],[-17,-2]],[[3842,406],[-49,7],[-9,0]],[[3784,413],[-6,-2],[-5,-5],[-4,-8],[0,-6],[7,-3],[15,0],[3,-4],[-8,-11],[-6,-9],[0,-9],[1,-10],[-3,-9],[-11,-10],[-1,0]],[[3713,224],[-1,2],[1,3],[2,4],[1,7]],[[3840,0],[0,1],[-6,8],[-12,10],[-5,8],[-9,24],[-5,7],[-18,13],[-5,8],[-2,9],[1,21],[2,14],[0,14],[-9,16],[-4,5],[-9,7],[-6,5],[-10,9],[-3,6],[-1,5],[5,23],[1,9],[-2,3],[-5,2]],[[3738,227],[-25,-3]],[[1866,3026],[7,-18],[4,-9],[-9,-19],[-12,-9],[-16,-2],[-18,1],[-4,-1],[-4,-3],[-4,-2],[-5,3],[-2,4],[-4,9],[-2,2],[-9,-1],[-8,-3],[-8,-1],[-10,5],[-19,6],[-8,15],[-5,16],[-12,9],[15,10],[4,1],[7,-2],[3,-4],[2,-3],[6,-2],[9,4],[6,5],[2,5],[-2,9],[-2,4],[-1,1],[2,3],[7,9],[1,0],[10,49],[0,25],[-10,29],[8,5],[8,4],[9,0],[16,-12],[19,-1],[8,-5],[9,-12],[3,-9],[0,-10],[-6,-10],[-7,-1],[-7,2],[-10,-3],[-12,-15],[-1,-18],[6,-17],[10,-16],[8,-7],[17,-8],[7,-5],[4,-7]],[[3868,2884],[22,-35],[3,-8],[-1,-22],[-4,-15],[-2,-13],[2,-27],[-3,-9],[-2,-6],[0,-5],[-2,-3],[-5,-1],[-5,3],[-3,6],[-1,8],[1,6],[-8,41],[-9,4],[-3,10],[0,26],[-4,12],[-13,21],[-3,10],[5,7],[13,-1],[14,-4],[8,-5]],[[3562,3245],[-1,-6],[2,-42],[-5,2],[-11,-5],[-13,-8],[-8,-7],[-4,-11],[-6,-31],[-5,-6],[-12,1],[-8,5],[-6,9],[-6,13],[-6,27],[3,26],[10,22],[26,39],[8,6],[13,0],[11,-7],[11,-13],[7,-14]],[[3479,3520],[-20,-17],[-2,-7],[1,-8],[0,-5],[-7,-3],[-19,-1],[-8,1],[-8,0],[-6,2],[-4,5],[-4,15],[-5,2],[-7,1],[-6,5],[1,3],[-1,8],[-2,8],[-6,3],[-8,-2],[-12,-7],[-7,-2],[-15,0],[-3,5],[6,9],[19,19],[11,9],[55,28],[13,2],[14,-3],[10,-7],[13,-10],[11,-12],[6,-12],[-1,-18],[-9,-11]],[[3787,3540],[-3,5],[-1,7],[0,9],[28,-4],[-7,20],[-12,24],[14,12],[25,14],[5,0],[22,-9],[14,-2],[13,2],[4,7],[-11,11],[-14,-5],[-17,6],[-13,12],[-6,12],[-2,5],[-3,3],[-3,1],[-2,3],[1,5],[2,2],[1,2],[11,34],[25,13],[22,-19],[16,-34],[7,-35],[-1,-21],[1,-7],[9,-18],[3,-10],[-4,-10],[-15,-7],[-29,6],[-14,-7],[-7,-16],[-1,-17],[-4,-14],[-16,-5],[-7,-2],[-8,-3],[-7,-1],[-7,3],[-2,5],[2,13],[-3,8],[-6,2]],[[4053,3458],[10,-6],[0,-9],[-5,-11],[-7,-10],[-7,-17],[-9,-7],[-22,-9],[-42,-29],[-20,-6],[-18,12],[-18,-7],[-20,-4],[-32,-1],[-3,6],[-4,4],[-5,2],[-5,-1],[-8,-3],[-31,-8],[-9,-5],[-1,7],[-4,15],[-21,34],[-3,13],[12,38],[4,7],[48,10],[22,-2],[18,-19],[20,18],[24,5],[59,-8],[22,-8],[12,-1],[28,2],[15,-2]],[[3348,3664],[-23,6],[-22,11],[-19,13],[-3,-8],[-2,-3],[-3,1],[-6,3],[-8,-2],[-14,-1],[-15,0],[-8,3],[-25,-12],[-8,11],[-26,24],[-6,9],[-6,14],[-14,10],[-14,5],[-6,-1],[-5,-14],[-11,0],[-13,4],[-11,2],[-7,-5],[-8,-15],[-8,-3],[-6,1],[-21,11],[-14,1],[-10,8],[-9,9],[-24,9],[-8,12],[1,12],[11,5],[74,2],[13,-2],[11,-5],[-4,7],[-2,3],[-2,1],[-6,1],[-1,3],[1,3],[-1,5],[-2,2],[-3,8],[-3,4],[-13,2],[-4,1],[8,11],[9,6],[12,2],[16,-2],[14,-6],[14,-9],[12,-3],[5,10],[7,10],[16,9],[18,4],[13,-3],[7,-11],[-4,-9],[-7,-7],[-6,-7],[-7,-4],[-2,-4],[4,-4],[4,0],[6,2],[8,7],[8,3],[4,-8],[1,-10],[2,-6],[37,-7],[7,-4],[6,-5],[3,-4],[3,-8],[6,-3],[16,-3],[10,-7],[32,-29],[14,-24],[29,-19],[9,-13],[-21,0]],[[2059,3088],[18,-21],[1,-27],[-21,-29],[-25,-18],[-23,-23],[-8,-5],[-34,-29],[-4,-1],[-16,1],[5,0],[-13,11],[-13,4],[-13,7],[-11,18],[12,23],[-7,69],[5,34],[22,20],[32,-1],[61,-19],[32,-14]],[[1866,3026],[7,-18],[4,-9],[-9,-19],[-12,-9],[-16,-2],[-18,1],[-4,-1],[-4,-3],[-4,-2],[-5,3],[-2,4],[-4,9],[-2,2],[-9,-1],[-8,-3],[-8,-1],[-10,5],[-19,6],[-8,15],[-5,16],[-12,9],[15,10],[4,1],[7,-2],[3,-4],[2,-3],[6,-2],[9,4],[6,5],[2,5],[-2,9],[-2,4],[-1,1],[2,3],[7,9],[1,0],[10,49],[0,25],[-10,29],[8,5],[8,4],[9,0],[16,-12],[19,-1],[8,-5],[9,-12],[3,-9],[0,-10],[-6,-10],[-7,-1],[-7,2],[-10,-3],[-12,-15],[-1,-18],[6,-17],[10,-16],[8,-7],[17,-8],[7,-5],[4,-7]],[[2059,3088],[18,-21],[1,-27],[-21,-29],[-25,-18],[-23,-23],[-8,-5],[-34,-29],[-4,-1],[-16,1],[5,0],[-13,11],[-13,4],[-13,7],[-11,18],[12,23],[-7,69],[5,34],[22,20],[32,-1],[61,-19],[32,-14]],[[3348,3664],[-23,6],[-22,11],[-19,13],[-3,-8],[-2,-3],[-3,1],[-6,3],[-8,-2],[-14,-1],[-15,0],[-8,3],[-25,-12],[-8,11],[-26,24],[-6,9],[-6,14],[-14,10],[-14,5],[-6,-1],[-5,-14],[-11,0],[-13,4],[-11,2],[-7,-5],[-8,-15],[-8,-3],[-6,1],[-21,11],[-14,1],[-10,8],[-9,9],[-24,9],[-8,12],[1,12],[11,5],[74,2],[13,-2],[11,-5],[-4,7],[-2,3],[-2,1],[-6,1],[-1,3],[1,3],[-1,5],[-2,2],[-3,8],[-3,4],[-13,2],[-4,1],[8,11],[9,6],[12,2],[16,-2],[14,-6],[14,-9],[12,-3],[5,10],[7,10],[16,9],[18,4],[13,-3],[7,-11],[-4,-9],[-7,-7],[-6,-7],[-7,-4],[-2,-4],[4,-4],[4,0],[6,2],[8,7],[8,3],[4,-8],[1,-10],[2,-6],[37,-7],[7,-4],[6,-5],[3,-4],[3,-8],[6,-3],[16,-3],[10,-7],[32,-29],[14,-24],[29,-19],[9,-13],[-21,0]],[[3868,2884],[22,-35],[3,-8],[-1,-22],[-4,-15],[-2,-13],[2,-27],[-3,-9],[-2,-6],[0,-5],[-2,-3],[-5,-1],[-5,3],[-3,6],[-1,8],[1,6],[-8,41],[-9,4],[-3,10],[0,26],[-4,12],[-13,21],[-3,10],[5,7],[13,-1],[14,-4],[8,-5]],[[3787,3540],[-3,5],[-1,7],[0,9],[28,-4],[-7,20],[-12,24],[14,12],[25,14],[5,0],[22,-9],[14,-2],[13,2],[4,7],[-11,11],[-14,-5],[-17,6],[-13,12],[-6,12],[-2,5],[-3,3],[-3,1],[-2,3],[1,5],[2,2],[1,2],[11,34],[25,13],[22,-19],[16,-34],[7,-35],[-1,-21],[1,-7],[9,-18],[3,-10],[-4,-10],[-15,-7],[-29,6],[-14,-7],[-7,-16],[-1,-17],[-4,-14],[-16,-5],[-7,-2],[-8,-3],[-7,-1],[-7,3],[-2,5],[2,13],[-3,8],[-6,2]],[[4053,3458],[10,-6],[0,-9],[-5,-11],[-7,-10],[-7,-17],[-9,-7],[-22,-9],[-42,-29],[-20,-6],[-18,12],[-18,-7],[-20,-4],[-32,-1],[-3,6],[-4,4],[-5,2],[-5,-1],[-8,-3],[-31,-8],[-9,-5],[-1,7],[-4,15],[-21,34],[-3,13],[12,38],[4,7],[48,10],[22,-2],[18,-19],[20,18],[24,5],[59,-8],[22,-8],[12,-1],[28,2],[15,-2]],[[3562,3245],[-1,-6],[2,-42],[-5,2],[-11,-5],[-13,-8],[-8,-7],[-4,-11],[-6,-31],[-5,-6],[-12,1],[-8,5],[-6,9],[-6,13],[-6,27],[3,26],[10,22],[26,39],[8,6],[13,0],[11,-7],[11,-13],[7,-14]],[[3479,3520],[-20,-17],[-2,-7],[1,-8],[0,-5],[-7,-3],[-19,-1],[-8,1],[-8,0],[-6,2],[-4,5],[-4,15],[-5,2],[-7,1],[-6,5],[1,3],[-1,8],[-2,8],[-6,3],[-8,-2],[-12,-7],[-7,-2],[-15,0],[-3,5],[6,9],[19,19],[11,9],[55,28],[13,2],[14,-3],[10,-7],[13,-10],[11,-12],[6,-12],[-1,-18],[-9,-11]],[[1001,4094],[1,2]],[[805,4036],[19,3],[18,-7],[24,-14],[36,-34],[15,-7],[24,31],[18,31],[36,52],[6,3]],[[1001,4094],[6,-31],[39,-65],[18,-17],[9,-14],[33,-38]],[[709,3894],[15,21],[24,21],[15,10],[21,28],[0,17],[-9,27],[0,7],[30,11]],[[1106,3929],[3,-11],[9,-38],[9,-24],[27,-31]],[[778,3708],[3,14],[-6,6],[-21,7],[-6,4],[-15,21],[-3,17],[-3,41],[-3,45],[-6,21],[-9,10]],[[700,3611],[12,7],[3,10],[0,21],[-6,28],[0,10],[15,10],[39,7],[15,4]],[[628,3594],[3,7],[15,10],[54,0]],[[1154,3825],[9,-14],[24,-58],[18,-38],[9,-18],[45,-58],[30,-31],[24,-21],[27,-35],[18,-13],[42,-31],[15,-7],[15,-11],[15,-20],[9,-4]],[[1454,3466],[21,-14],[30,-7],[39,-10],[24,-10],[15,-11],[18,-17],[27,-21],[48,-31],[21,-17],[43,-28],[48,-24],[12,-3]],[[483,3373],[-5,-4],[-4,-15]],[[474,3354],[-2,-5],[-21,-31],[6,-21],[33,-28],[9,-17],[18,-28]],[[628,3594],[-9,-14],[-18,-21],[-15,-20],[-15,-7],[-15,-11],[-6,-17],[-6,-38],[-12,-28],[-15,-31],[-21,-24],[-13,-10]],[[1800,3273],[18,0],[21,-14],[18,-21],[21,-14],[27,-10],[30,-17],[9,-14],[6,3]],[[517,3224],[18,-44],[6,-11],[6,-52]],[[1950,3186],[-6,-10],[-27,-41],[-15,-25]],[[1950,3186],[15,0],[15,-6],[21,-28],[9,-14],[18,-7],[15,11],[12,-4],[45,-69],[12,-3]],[[547,3117],[-3,-31],[0,-24],[12,-24],[0,-14],[9,-17],[24,-28],[18,-24],[-3,-14],[-9,-3]],[[1902,3110],[-3,-17],[-6,-31],[-9,-24],[-6,-55],[-6,-7],[-30,-31],[-48,-28]],[[1794,2917],[-30,-31],[-15,-21],[-9,-27],[-3,-21],[3,-21],[6,-27],[21,-38],[3,-21]],[[595,2938],[-18,-21],[-12,-14],[-15,-10],[-18,-28],[-24,-10],[-9,-10],[-3,-14],[-9,-11],[-21,-10],[-15,7],[-18,-3],[-15,-14],[3,-18],[-9,-20],[6,-14],[0,-10],[-12,-25],[-36,-13],[-30,-18]],[[2112,3066],[3,-4],[36,0],[15,-7],[12,-14],[12,0],[108,21],[21,0],[24,-10],[21,0],[18,3],[9,-3],[15,-11],[84,-34],[27,-7],[18,-7],[21,-14],[18,-7],[9,0],[18,4],[49,10],[21,4],[21,-4],[9,-3],[24,-21],[9,-14],[9,-3],[21,-28],[30,-28],[18,-31],[9,-10],[42,-21],[18,-3],[24,0],[18,-7],[21,0],[21,-3],[39,-11],[15,-7],[9,-14],[27,-51],[15,-45],[18,-28],[15,-10],[21,-17],[15,-7],[39,-7],[81,-18],[33,-17],[15,-3]],[[340,2682],[-9,4],[-21,-7],[-15,7],[-6,10],[-42,11],[-15,-4],[-30,7],[-48,-21],[-9,-17],[-15,0],[-24,-10],[-15,0],[-30,-7],[-39,-21],[-15,3],[-7,10]],[[3307,2579],[24,-4],[27,-7],[15,-10],[33,-38],[39,-21],[24,-20],[24,-14],[30,-28],[22,-14],[51,-44],[24,-14],[27,-7],[21,-14],[42,-31],[21,-24],[39,-21],[27,-10],[51,-28],[24,-10],[39,-18],[18,-10],[9,-14],[3,-20]],[[1770,2710],[6,-10],[3,-18],[12,-24],[36,-34],[39,-21],[24,-7],[21,-17],[33,-21],[15,-7],[15,4],[21,-11],[24,-7],[6,-17],[21,-7],[15,-17],[12,0],[9,-10],[6,-14],[-15,-14],[-3,-10],[18,-11],[6,-10],[3,-21],[9,-7],[9,-31],[15,-21],[27,-3],[24,-10],[9,-14],[0,-11],[-12,-6],[-6,-11],[3,-27],[-3,-18],[-15,-20],[-12,-31],[-6,-25],[18,-24],[9,-3],[36,-7],[9,-7],[9,-14],[3,-24]],[[3941,2158],[15,0],[30,3],[27,-7],[21,7],[24,-10],[36,-25],[2,0]],[[887,1553],[15,11],[15,24],[24,14],[9,3],[15,17]],[[574,1536],[60,-28],[24,4],[9,7],[15,31],[12,14],[15,3],[39,4],[51,0],[25,0],[21,0],[42,-18]],[[3005,1607],[2,-3]],[[2416,2082],[10,1]],[[2223,2092],[0,-10],[18,-4],[9,-7],[48,0],[15,4],[18,-4],[15,4],[21,-7],[15,7],[12,-4],[18,11],[4,0]],[[2426,2083],[13,2],[27,0],[12,-7],[21,10],[6,-6],[-6,-25],[12,-20],[15,-18],[6,-24],[9,-7],[9,-31],[15,-20],[18,-18],[9,-3],[6,-21],[15,-10],[9,-4],[9,-7],[0,-17],[10,-10],[15,-21],[3,-17],[-25,-14],[4,-10],[18,-18],[18,-31],[12,7],[18,0],[12,7],[6,0],[9,-14],[30,-3],[9,-4],[15,0],[12,-3],[6,-10],[30,-14],[42,-17],[48,-14],[18,-21],[12,-7],[9,-17],[12,0],[9,-11],[15,0],[7,-8]],[[3007,1604],[15,-20],[6,-17],[15,-7],[15,-20],[3,-35],[3,0],[15,10],[12,4],[9,7]],[[34,1477],[-15,0]],[[0,1477],[19,0]],[[487,1091],[9,34],[3,12]],[[499,1137],[6,23],[12,38],[12,48],[6,45],[12,52],[0,27],[9,35],[6,52],[3,27],[6,38],[3,14]],[[484,1091],[3,0]],[[484,1091],[-33,51],[-5,6]],[[217,1439],[-42,18],[-19,6]],[[51,1477],[-17,0]],[[156,1463],[-2,1],[-42,-4],[-15,4],[-39,13],[-7,0]],[[446,1148],[-4,5],[-33,14],[-42,45],[-30,27],[-15,45],[-30,52],[-15,21],[-12,27],[-12,14],[-36,41]],[[965,1622],[45,-7],[6,-13],[27,-7],[39,-7],[21,0],[21,-14],[18,-7],[27,-14],[42,-34],[39,-38],[15,-7],[24,3],[9,-20],[24,-11],[6,-10],[0,-41],[6,-21],[21,0],[21,-21],[12,-3],[27,-7],[12,-11],[9,-17],[15,-14],[9,-20],[36,-18],[57,-41],[39,-21],[24,-7],[27,-17],[15,0],[15,-10],[18,-18],[21,-3],[25,-14],[24,-17],[18,-7],[24,-21],[36,-14],[36,-10],[3,-14],[6,-10],[15,-4],[18,-3],[12,-10],[33,-56],[12,-7],[18,-24],[15,-10],[30,-17],[30,-28],[24,-31],[9,-7]],[[2145,956],[-3,-7],[-12,-38],[-15,-14],[-3,-10],[6,-21],[-18,-24]],[[303,853],[-14,-7],[-32,-27]],[[484,1091],[-7,-29]],[[257,819],[-1,-1],[-9,-7],[-45,-10],[-15,-11],[-42,-27],[-42,-21],[-9,-10],[-24,-28],[-9,-7],[-18,-3],[-30,-4],[-13,-2]],[[477,1062],[-2,-6],[-12,-14],[-9,-13],[-6,-21],[-6,-11],[-27,-20],[-18,-18],[-12,-20],[-30,-35],[-21,-31],[-12,-10],[-19,-10]],[[2719,687],[-15,0],[-15,7],[-24,0],[-18,7],[-31,3],[-18,31],[-57,21],[-15,0],[-15,14],[-18,10],[-33,14],[-24,7],[-24,13],[-39,4],[-30,10],[-33,18],[-27,48],[-9,7],[-12,-4],[-24,-10],[-30,3],[-12,18],[-18,17],[-12,24],[-6,7],[-15,0]],[[3820,956],[1,0]],[[3430,542],[12,24],[-3,10],[-12,7],[3,14],[18,0],[18,21],[6,3],[15,11],[3,17],[18,10],[12,-7],[21,0],[16,11],[-3,34],[3,17],[18,18],[30,7],[12,6],[9,11],[18,10],[24,31],[24,52],[12,10],[21,7],[12,11],[3,13],[15,18],[15,7],[15,24],[18,10],[17,7]],[[3821,956],[9,3],[12,-6],[30,-21],[12,-17],[9,-21],[0,-21],[-9,-31],[3,-17],[3,-14],[45,-21],[45,-13],[99,0],[15,-4],[2,0]],[[2719,687],[18,0],[24,-18],[27,-6],[66,-11],[54,0],[12,-10],[-9,-14],[3,-7],[9,-7],[21,0],[33,-17],[6,-10],[0,-11],[-6,-48],[0,-10],[12,-35],[12,0],[39,7],[15,-4],[42,4],[-3,3],[63,11],[21,10],[9,0],[24,14],[24,3],[27,0],[12,-3],[12,3],[36,-3],[18,-4],[48,0],[24,7],[18,11]],[[3430,542],[21,-18],[12,-13],[6,-4],[39,-14],[27,-20],[37,-14],[18,-17],[12,-11],[24,-10],[66,-24],[6,0],[18,34],[15,4],[15,17],[21,7],[21,7],[27,-7],[18,-4],[51,14],[36,7],[21,7],[30,24],[15,7],[27,4],[12,3],[27,17],[18,0],[26,5]],[[2063,452],[4,-10],[3,-11],[-5,-13]],[[2065,418],[-1,-4],[-12,-24],[-21,-52],[-9,-38],[3,-48],[6,-31],[6,-28],[3,-52],[-3,-17],[-9,-31],[-15,-14],[-3,-38],[-9,-10],[-15,-4],[-33,0],[-15,-7],[-24,-20]],[[2100,842],[-9,-24],[-12,-21],[-15,-20],[-27,-28],[-9,-17],[-15,-28],[-9,-28],[0,-17],[6,-21],[24,-38],[6,-48],[3,-34],[6,-25],[14,-41]],[[1403,418],[-22,16]],[[879,672],[-25,15],[-30,14],[-2,0]],[[520,1051],[-36,40]],[[822,701],[-32,10],[-39,28],[-36,17],[-27,27],[-24,38],[-18,35],[-6,21],[-12,24],[-15,24],[-21,28],[-15,13],[-15,31],[-15,25],[-27,29]],[[1381,434],[-2,1],[-63,31],[-63,31],[-63,34],[-54,31],[-48,7],[-39,14],[-30,14],[-72,35],[-68,40]],[[1552,0],[-2,7],[-30,110],[-6,35],[-6,41],[-9,59],[-9,45],[-12,34],[-39,55],[-15,14],[-15,14],[-6,4]],[[843,0],[-7,7],[-31,17],[-33,14],[-21,7],[-33,3],[-72,10],[-87,21],[-21,4],[-18,13],[-24,7],[-30,11],[-87,31],[-36,10],[-36,17],[-36,28],[-30,31],[-27,21],[-105,62],[-72,45],[-18,10],[-19,11]],[[4096,4096],[0,-4096],[-4096,0],[0,1616],[0,2480],[3615,0],[481,0]],[[3767,298],[12,29],[82,-5],[33,61],[35,2],[45,-64],[34,9],[38,-89],[-54,7],[-41,58],[-66,3],[24,-71],[65,-32],[-52,-13],[-155,105]],[[1631,1967],[9,30],[77,16],[22,-46],[68,0],[-47,-110],[-90,52],[-16,61],[-23,-3]],[[2367,2056],[54,29],[58,-17],[-36,-15],[23,-29],[-34,-31],[-38,11],[-27,52]],[[3760,289],[16,37],[67,-13],[52,71],[34,1],[45,-64],[34,9],[29,-57],[59,-10],[0,-59],[-5,15],[-27,-24],[-14,32],[-2,-32],[-40,-4],[-28,49],[-21,-14],[14,55],[-30,-16],[11,-35],[-3,0],[-22,27],[16,37],[-37,-4],[-15,29],[-16,-22],[117,-110],[-75,-1],[-6,-19],[-55,55],[-39,-7],[12,46],[-36,-18],[-35,46]],[[1277,1344],[31,10],[6,-34],[128,-82],[36,-58],[21,16],[-15,28],[49,-27],[38,-79],[-138,-46],[8,46],[-41,1],[-20,62],[-86,60],[-17,103]],[[0,2116],[13,85],[126,-52],[82,-97],[-63,-54],[-100,16],[-58,30],[0,72]],[[2335,52],[-14,20],[43,9],[-16,-24],[-13,-5]],[[237,127],[-55,8],[14,48],[33,-9],[8,-47]],[[1010,266],[-21,1],[0,28],[57,0],[-36,-29]],[[616,306],[25,17],[17,-56],[-65,-10],[-16,56],[39,-7]],[[2494,285],[-10,37],[20,37],[5,-44],[-15,-30]],[[1378,406],[5,45],[43,2],[-16,-32],[-32,-15]],[[2064,416],[-23,9],[8,21],[57,25],[-42,-55]],[[874,713],[6,-51],[-44,-14],[-38,31],[60,55],[16,-21]],[[1499,732],[-41,9],[9,37],[23,-4],[9,-42]],[[269,788],[-24,65],[73,0],[-5,-21],[-44,-44]],[[3821,955],[-24,15],[-1,41],[23,-15],[2,-41]],[[21,1207],[10,-46],[-4,-11],[-27,27],[2,38],[19,-8]],[[764,1299],[-10,25],[49,12],[-5,-22],[-34,-15]],[[475,1142],[46,-10],[-1,-84],[-57,19],[-29,44],[13,39],[28,-8]],[[366,955],[-27,12],[-1,51],[20,2],[8,-65]],[[3594,1429],[24,56],[5,-31],[-29,-25]],[[0,1553],[35,-3],[16,-74],[-21,-16],[-30,9],[0,84]],[[460,1596],[-13,1],[0,56],[41,-47],[-28,-10]],[[220,1508],[1,-69],[-73,9],[32,56],[40,4]],[[1005,1662],[-16,19],[8,27],[16,-19],[-8,-27]],[[144,1793],[-5,21],[33,6],[-16,-24],[-12,-3]],[[2314,3816],[10,-43],[-65,-9],[33,84],[22,-32]],[[574,1794],[-30,7],[25,47],[18,-9],[-13,-45]],[[828,1348],[29,7],[19,46],[31,-1],[-16,-16],[35,-20],[-2,56],[-33,14],[-23,-28],[-19,52],[6,55],[67,59],[1,-117],[98,-77],[-106,-36],[-9,-90],[-33,-35],[-45,131]],[[4096,1199],[0,-170],[-11,-10],[-82,5],[-61,-34],[-41,3],[-63,69],[-127,-45],[-86,32],[-43,31],[20,48],[-53,35],[27,46],[-6,58],[-56,18],[-30,78],[17,71],[-49,15],[-5,26],[15,49],[82,88],[3,95],[45,25],[-20,63],[41,34],[58,3],[16,46],[110,23],[25,-30],[73,-2],[13,-40],[56,1],[-23,-50],[28,-51],[-8,-65],[45,-22],[-18,-107],[108,-25],[0,-111],[-5,-1],[-40,-61],[45,-56],[0,-43],[-12,-12],[12,-27]],[[2917,1286],[42,53],[58,23],[-75,103],[21,19],[94,-1],[98,-36],[22,-39],[48,3],[79,-44],[-70,-25],[20,-64],[-44,-76],[-115,-25],[-146,60],[-32,49]],[[115,3020],[32,55],[50,8],[50,-28],[31,42],[119,-32],[104,-179],[-47,-6],[30,-12],[-2,-41],[-86,3],[-2,27],[-36,-6],[-68,43],[-36,-9],[22,58],[-34,-10],[-13,28],[8,-21],[-4,-12],[-66,74],[9,-18],[-39,-25],[-22,61]],[[2726,2042],[26,60],[-14,17],[98,67],[1,79],[72,5],[61,-68],[78,13],[15,-36],[38,9],[56,-59],[25,23],[30,-9],[-25,-98],[-40,-11],[6,-63],[44,-57],[-45,-36],[-9,-42],[25,-85],[-94,-96],[-46,4],[-22,-57],[-18,80],[-81,53],[-59,1],[-83,65],[-7,35],[38,58],[-70,148]],[[66,3208],[7,71],[57,-20],[-38,45],[-4,85],[72,-1],[16,36],[-79,115],[45,67],[54,-15],[0,65],[58,24],[52,-47],[0,-30],[48,-24],[-7,-62],[54,-35],[8,-59],[74,-35],[-1,-29],[-75,-48],[10,-44],[-43,-6],[12,-66],[-40,-55],[46,-52],[-22,-21],[-84,21],[-81,50],[-21,42],[-118,28]]]}