{"objects":{"water":{"type":"GeometryCollection","geometries":[{"type":"Polygon","properties":{"source":"naturalearthdata.com","kind":"ocean","area":1576712559132672,"sort_rank":200,"min_zoom":0.0,"id":1},"arcs":[[9]]},{"type":"LineString","properties":{"source":"naturalearthdata.com","kind":"ocean","sort_rank":205,"boundary":true,"min_zoom":0.0,"id":63},"arcs":[10]}]},"buildings":{"type":"GeometryCollection","geometries":[]},"places":{"type":"GeometryCollection","geometries":[{"type":"Point","properties":{"kind":"region","name":"Jervis Bay Territory","name:lt":"D\u017earvio \u012flankos teritorija","kind_detail":"state","name:he":"\u05d8\u05e8\u05d9\u05d8\u05d5\u05e8\u05d9\u05d9\u05ea \u05de\u05e4\u05e8\u05e5 \u05d2'\u05e8\u05d1\u05d9\u05e1","name:eo":"Teritorio de Golfeto Jervis","name:de":"Jervis-Bay-Territorium","source":"openstreetmap.org","min_zoom":4.0,"name:uk":"\u0422\u0435\u0440\u0438\u0442\u043e\u0440\u0456\u044f \u0414\u0436\u0435\u0440\u0432\u0456\u0441-\u0411\u0435\u0439","name:ru":"\u0422\u0435\u0440\u0440\u0438\u0442\u043e\u0440\u0438\u044f \u0414\u0436\u0435\u0440\u0432\u0438\u0441-\u0411\u0435\u0439","name:pl":"Terytorium Jervis Bay","id":2049929146},"coordinates":[698,1105]},{"type":"Point","properties":{"source":"naturalearthdata.com","kind":"locality","name":"Kiama","population":10379,"min_zoom":7.0,"id":4665},"coordinates":[1081,2667]},{"type":"Point","properties":{"source":"naturalearthdata.com","kind":"locality","name":"Ulladulla","population":9250,"min_zoom":7.0,"id":4656},"coordinates":[4,395]},{"type":"Point","properties":{"kind":"locality","name":"Wollongong","name:lt":"Vulongongas","kind_detail":"city","source":"openstreetmap.org","min_zoom":8.0,"loc_name":"The Gong","name:ru":"\u0412\u0443\u043b\u043b\u043e\u043d\u0433\u043e\u043d\u0433","population":268944,"id":20920968,"name:ja":"\u30a6\u30ed\u30f3\u30b4\u30f3"},"coordinates":[1238,3680]},{"type":"Point","properties":{"kind":"locality","name":"Nowra","kind_detail":"town","source":"openstreetmap.org","min_zoom":8.0,"name:ru":"\u041d\u0430\u0443\u0440\u0430","id":25863600,"population":32556},"coordinates":[384,2083]},{"type":"Point","properties":{"kind":"locality","name":"Bomaderry","kind_detail":"town","source":"openstreetmap.org","min_zoom":8.0,"name:ru":"\u0411\u043e\u043c\u0430\u0434\u0435\u0440\u0440\u0438","id":25863606,"population":6566},"coordinates":[409,2155]},{"type":"Point","properties":{"kind":"locality","name":"Kiama","kind_detail":"town","source":"openstreetmap.org","min_zoom":8.0,"name:ru":"\u041a\u0430\u0439\u0430\u043c\u0430","id":25850236,"population":6272},"coordinates":[1126,2801]},{"type":"Point","properties":{"kind":"locality","name":"Ulladulla","kind_detail":"town","source":"openstreetmap.org","min_zoom":8.0,"name:ru":"\u0410\u043b\u043b\u0430\u0434\u0430\u043b\u043b\u0430","id":25863607,"population":6070},"coordinates":[19,350]}]},"transit":{"type":"GeometryCollection","geometries":[{"type":"LineString","properties":{"kind":"train","network":"TNSW - NSW Trainlink","sort_rank":275,"source":"openstreetmap.org","min_zoom":6.0,"operator":"NSW Trains","ref":"ST24;ST22","osm_relation":true,"name":"Melbourne XPT"},"arcs":[4]},{"type":"MultiLineString","properties":{"kind":"train","network":"NSW Transport","sort_rank":275,"colour":"#1B82C5","name":"South Coast Line","source":"openstreetmap.org","min_zoom":6.0,"operator":"NSW Trains","ref":"South Coast","osm_relation":true,"colour_name":"lightteal"},"arcs":[[5],[6]]},{"type":"LineString","properties":{"kind":"train","name":"Griffith Xplorer","sort_rank":275,"source":"openstreetmap.org","min_zoom":6.0,"operator":"NSW Trains","ref":"SP41","osm_relation":true,"network":"TNSW - NSW TrainLink"},"arcs":[7]},{"type":"LineString","properties":{"kind":"train","name":"Canberra Xplorer","sort_rank":275,"source":"openstreetmap.org","min_zoom":6.0,"operator":"NSW Trains","ref":"SP32;SP34;SP36","osm_relation":true,"network":"TNSW - NSW TrainLink"},"arcs":[8]}]},"pois":{"type":"GeometryCollection","geometries":[{"type":"Point","properties":{"kind":"nature_reserve","tier":2,"protect_class":"2","area":137550000,"source":"openstreetmap.org","min_zoom":8.74,"operator":"National Parks & Wildife Service NSW","ref":"N0085","id":-6047243,"osm_relation":true,"name":"Conjola National Park"},"coordinates":[65,1003]},{"type":"Point","properties":{"kind":"nature_reserve","protect_class":"1","area":312148000,"source":"openstreetmap.org","min_zoom":8.15,"tier":2,"ref":"N1117","id":-5910639,"osm_relation":true,"name":"Upper Nepean State Conservation Area"},"coordinates":[450,3849]},{"type":"Point","properties":{"kind":"protected_area","tier":2,"protect_class":"12","area":1212550000,"source":"openstreetmap.org","min_zoom":7.0,"operator":"Sydney Catchment Authority","ref":"http:\/\/www.sca.nsw.gov.au\/catchment\/manage\/special-areas","id":258861323,"name":"Metropolitan Special Area"},"coordinates":[651,3814]},{"type":"Point","properties":{"source":"openstreetmap.org","kind":"military","name":"Beecroft Weapons Range (Impact Area)","area":19776100,"tier":3,"min_zoom":8.0,"id":328523377},"coordinates":[1029,1460]}]},"boundaries":{"type":"GeometryCollection","geometries":[{"type":"LineString","properties":{"name:ty":"Autereraria","name:ka":"\u10d0\u10d5\u10e1\u10e2\u10e0\u10d0\u10da\u10d8\u10d0","name:tr":"Avustralya","name:kn":"\u0c86\u0cb8\u0ccd\u0c9f\u0ccd\u0cb0\u0cc7\u0cb2\u0cbf\u0caf","name:km":"\u17a2\u17bc\u179f\u17d2\u178f\u17d2\u179a\u17b6\u179b\u17b8","name:kk":"\u0410\u0443\u0441\u0442\u0440\u0430\u043b\u0438\u044f","name:tt":"\u0410\u0432\u0441\u0442\u0440\u0430\u043b\u0438\u044f","name:kw":"Ostrali","name:tk":"Awstrali\u00fda","name:ku":"Awistralya","name:ti":"\u12a3\u12cd\u1235\u1275\u122b\u120a\u12eb","name:tl":"Australya","name:ce":"\u0410\u0432\u0441\u0442\u0440\u0430\u0301\u043b\u0438","name:ta":"\u0b86\u0bb8\u0bcd\u0ba4\u0bbf\u0bb0\u0bc7\u0bb2\u0bbf\u0baf\u0bbe","name:tg":"\u0410\u0432\u0441\u0442\u0440\u0430\u043b\u0438\u044f","name:ky":"\u0410\u0432\u0441\u0442\u0440\u0430\u043b\u0438\u044f","name:te":"\u0c06\u0c38\u0c4d\u0c1f\u0c4d\u0c30\u0c47\u0c32\u0c3f\u0c2f\u0c3e","alt_name:ca":"Mancomunitat d'Austr\u00e0lia","name:hr":"Australija","name:da":"Australien","name:de":"Australien","name:dz":"\u0f68\u0f66\u0f0b\u0f4a\u0f7a\u0f61\u0f7a\u0f0b\u0f63\u0f72\u0f0b\u0f61","source":"openstreetmap.org","alt_name:ta":"\u0b85\u0bb5\u0bc1\u0bb8\u0bcd\u0ba4\u0bbf\u0bb0\u0bc7\u0bb2\u0bbf\u0baf\u0bbe","name:cv":"\u0410\u0432\u0441\u0442\u0440\u0430\u043b\u0438","name:be":"\u0410\u045e\u0441\u0442\u0440\u0430\u0301\u043b\u0456\u044f","name:dv":"\u0787\u07ae\u0790\u07b0\u0793\u07a6\u0783\u07aa\u078d\u07a8\u0794\u07a7","name:cu":"\u0410\u0475\u0441\u0442\u0440\u0430\u043b\u0457\ua657","name:za":"Audaihleihya","name:lv":"Austr\u0101lija","name:lt":"Australija","name:uz":"Avstraliya","name:cs":"Austr\u00e1lie","name:ur":"\u0622\u0633\u0679\u0631\u06cc\u0644\u06cc\u0627","name:lb":"Australien","name:uk":"\u0410\u0432\u0441\u0442\u0440\u0430\u0301\u043b\u0456\u044f","name:ug":"\u0626\u0627\u06cb\u0633\u062a\u0649\u0631\u0627\u0644\u0649\u064a\u06d5","name:li":"Australi\u00eb","name:lo":"\u0e9b\u0eb0\u0ec0\u0e97\u0e94\u0ead\u0ebb\u0e94\u0eaa\u0eb0\u0e95\u0eb2\u0ea5\u0eb5","name:el":"\u0391\u03c5\u03c3\u03c4\u03c1\u03b1\u03bb\u03af\u03b1","name:eo":"A\u016dstralio","name":"Australia","name:kv":"\u0410\u0432\u0441\u0442\u0440\u0430\u043b\u0438\u044f","name:th":"\u0e2d\u0e2d\u0e2a\u0e40\u0e15\u0e23\u0e40\u0e25\u0e35\u0e22","name:et":"Austraalia","name:ay":"Australla","name:rn":"Australiya","name:az":"Avstraliya","name:ig":"Ostraliya","alt_name:zu":"I-Australiya","name:as":"\u0985\u09b7\u09cd\u099f\u09cd\u09f0\u09c7\u09b2\u09bf\u09af\u09bc\u09be","name:ar":"\u0623\u0633\u062a\u0631\u0627\u0644\u064a\u0627","name:is":"\u00c1stral\u00eda","name:iu":"\u140a\u1505\u1466\u154c\u14d5\u140a","name:ru":"\u0410\u0432\u0441\u0442\u0440\u0430\u0301\u043b\u0438\u044f","name:ab":"\u0410\u0432\u0441\u0442\u0440\u0430\u043b\u0438\u0430","name:af":"Australi\u00eb","name:zu":"I-Ostreliya","alt_name:rw":"Australiya","alt_name:gn":"Auter\u00e1lia","kind_detail":"2","name:zh-min-nan":"\u00d2-chiu","name:ca":"Austr\u00e0lia","name:zh-yue":"\u6fb3\u6d32","name:zh":"\u6fb3\u5927\u5229\u4e9a","name:sm":"Ausetalia","name:sl":"Avstralija","name:sk":"Austr\u00e1lia","name:ja":"\u30aa\u30fc\u30b9\u30c8\u30e9\u30ea\u30a2","name:si":"\u0d95\u0dc3\u0dca\u0da7\u0dca\u200d\u0dbb\u0dda\u0dbd\u0dd2\u0dba\u0dcf\u0dc0","name:sh":"Australija","name:sg":"Ostral\u00efi","name:sd":"\u0622\u0633\u067d\u0631\u064a\u0644\u064a\u0627","name:sc":"Austr\u00e0lia","name:br":"Aostralia","name:bs":"Australija","name:bm":"Ostralia","name:bn":"\u0985\u09b8\u09cd\u099f\u09cd\u09b0\u09c7\u09b2\u09bf\u09af\u09bc\u09be","name:bo":"\u0f68\u0f7c\u0f0b\u0f66\u0f7a\u0f0b\u0f50\u0f7a\u0f0b\u0f63\u0f72\u0f0b\u0f61\u0f0d","name:sa":"\u0906\u0938\u094d\u091f\u094d\u0930\u0947\u0932\u093f\u092f\u093e","name:sv":"Australien","name:bg":"\u0410\u0432\u0441\u0442\u0440\u0430\u043b\u0438\u044f","name:sr":"\u0410\u0443\u0441\u0442\u0440\u0430\u043b\u0438\u0458\u0430","osm_relation":true,"alt_name:sv":"Samv\u00e4ldet Australien","name:jv":"Ostrali","alt_name:sk":"Austr\u00e1lske spolo\u010denstvo","name:bi":"Ostrelia","name:pt":"Austr\u00e1lia","name:ps":"\u0622\u0633\u067c\u0631\u0627\u0644\u064a\u0627","name:om":"Awustireliyaa","name:oc":"Austr\u00e0lia","min_zoom":8.0,"name:ko":"\uc624\uc2a4\ud2b8\ub808\uc77c\ub9ac\uc544","name:pa":"\u0a06\u0a38\u0a1f\u0a4d\u0a30\u0a47\u0a32\u0a40\u0a06","name:os":"\u0410\u0432\u0441\u0442\u0440\u0430\u043b\u0438","name:or":"\u0b05\u0b37\u0b4d\u0b1f\u0b4d\u0b30\u0b47\u0b32\u0b3f\u0b06","name:pi":"\u0906\u0938\u094d\u091f\u094d\u0930\u0947\u0932\u093f\u092f\u093e","sort_rank":262,"name:ba":"\u0410\u0432\u0441\u0442\u0440\u0430\u043b\u0438\u044f","name:hi":"\u0911\u0938\u094d\u091f\u094d\u0930\u0947\u0932\u093f\u092f\u093e","name:he":"\u05d0\u05d5\u05e1\u05d8\u05e8\u05dc\u05d9\u05d4","name:ha":"Asturaliya","name:hy":"\u0531\u057e\u057d\u057f\u0580\u0561\u056c\u056b\u0561","name:ht":"Ostrali","name:hu":"Ausztr\u00e1lia","name:qu":"Awstralya","kind":"country","name:cy":"Awstralia","name:yi":"\u05d0\u05d5\u05d9\u05e1\u05d8\u05e8\u05d0\u05b7\u05dc\u05d9\u05e2","name:am":"\u12a0\u12cd\u1235\u1275\u122b\u120d\u12eb","name:yo":"Austr\u00e1l\u00ed\u00e0","name:mt":"Awstralja","name:mr":"\u0911\u0938\u094d\u091f\u094d\u0930\u0947\u0932\u093f\u092f\u093e","name:my":"\u1029\u1005\u1010\u103c\u1031\u1038\u101c\u103b\u1014\u102d\u102f\u1004\u103a\u1004\u1036","official_name":"Commonwealth of Australia","name:mg":"Aostralia","name:ml":"\u0d13\u0d38\u0d4d\u0d1f\u0d4d\u0d30\u0d47\u0d32\u0d3f\u0d2f","name:vi":"\u00dac","name:mn":"\u0410\u0432\u0441\u0442\u0440\u0430\u043b\u0438","name:mi":"Ahitereiria","id":-80500,"name:mk":"\u0410\u0432\u0441\u0442\u0440\u0430\u043b\u0438\u0458\u0430","name:vo":"Laustral\u00e4n","name:fa":"\u0627\u0633\u062a\u0631\u0627\u0644\u06cc\u0627","name:rw":"Ositaraliya","alt_name:mi":"Whenua Moemoe\u0101","name:fo":"Avstralia","name:fr":"Australie","name:fy":"Austraalje","alt_name:af":"Gemenebes van Australi\u00eb","name:nl":"Australi\u00eb","alt_name:nv":"Bich\u02bc\u00e1h Yiisdiis\u00ed Bik\u00e9yah","name:na":"Otereiriya","name:ne":"\u0905\u0937\u094d\u091f\u094d\u0930\u0947\u0932\u093f\u092f\u093e","name:wa":"Ostraleye","name:wo":"\u00d3straali","name:nv":"Nahat\u02bce\u02bciitsoh Bik\u00e9yah","name:ga":"Astr\u00e1il","name:gd":"Astr\u00e0ilia","name:gn":"Autaralia","maritime_boundary":true,"name:gv":"Austrail","name:gu":"\u0a91\u0ab8\u0acd\u0a9f\u0acd\u0ab0\u0ac7\u0ab2\u0abf\u0aaf\u0abe"},"arcs":[0]},{"type":"LineString","properties":{"alt_name:eo":"Novsudkimrujo;Nova Sud-Kimrio","name:sl":"Novi ju\u017eni Wales","name:nl":"Nieuw-Zuid-Wales","name:ja":"\u30cb\u30e5\u30fc\u30b5\u30a6\u30b9\u30a6\u30a7\u30fc\u30eb\u30ba","name:lt":"Naujasis Piet\u0173 Velsas","name:cs":"Nov\u00fd Ji\u017en\u00ed Wales","name:eo":"Nova Sud-Kimrujo","min_zoom":8.0,"name:ru":"\u041d\u043e\u0432\u044b\u0439 \u042e\u0436\u043d\u044b\u0439 \u0423\u044d\u043b\u044c\u0441","id":-2316593,"osm_relation":true,"name:vo":"Nula-Sul\u00fcda-Vels\u00e4n","kind":"region","name":"New South Wales","sort_rank":256,"kind_detail":"4","short_name":"NSW","name:de":"Neus\u00fcdwales","source":"openstreetmap.org","name:zh":"\u65b0\u5357\u5a01\u5c14\u58eb\u5dde"},"arcs":[1]},{"type":"MultiLineString","properties":{"alt_name:eo":"Novsudkimrujo;Nova Sud-Kimrio","name:sl":"Novi ju\u017eni Wales","name:nl":"Nieuw-Zuid-Wales","name:ja":"\u30cb\u30e5\u30fc\u30b5\u30a6\u30b9\u30a6\u30a7\u30fc\u30eb\u30ba","name:lt":"Naujasis Piet\u0173 Velsas","name:cs":"Nov\u00fd Ji\u017en\u00ed Wales","kind":"region","min_zoom":8.0,"name:ru":"\u041d\u043e\u0432\u044b\u0439 \u042e\u0436\u043d\u044b\u0439 \u0423\u044d\u043b\u044c\u0441","id":-2316593,"osm_relation":true,"name:vo":"Nula-Sul\u00fcda-Vels\u00e4n","name:eo":"Nova Sud-Kimrujo","name":"New South Wales","sort_rank":256,"kind_detail":"4","short_name":"NSW","name:de":"Neus\u00fcdwales","source":"openstreetmap.org","maritime_boundary":true,"name:zh":"\u65b0\u5357\u5a01\u5c14\u58eb\u5dde"},"arcs":[[2],[3]]}]},"roads":{"type":"GeometryCollection","geometries":[{"type":"LineString","properties":{"kind":"major_road","cycleway_left":"shoulder","network":"B","sort_rank":380,"kind_detail":"primary","is_bicycle_related":true,"bicycle_shield_text":null,"bicycle_network":"ncn","source":"openstreetmap.org","min_zoom":8.0,"landuse_kind":"protected_area","shield_text":"65","id":4986490},"arcs":[11]},{"type":"MultiLineString","properties":{"kind":"highway","network":"NH","sort_rank":383,"kind_detail":"motorway","is_bicycle_related":true,"bicycle_shield_text":"M31","cycleway":"shoulder","source":"openstreetmap.org","min_zoom":8.0,"all_networks":["NH","NH"],"landuse_kind":"nature_reserve","shield_text":"31","bicycle_network":"ncn","id":39947128,"all_shield_texts":["31","31"]},"arcs":[[12],[13]]},{"type":"LineString","properties":{"kind":"major_road","cycleway_left":"shoulder","sort_rank":380,"kind_detail":"primary","is_bicycle_related":true,"bicycle_shield_text":null,"bicycle_network":"ncn","source":"openstreetmap.org","min_zoom":8.0,"ref":"B69","id":172560650},"arcs":[14]},{"type":"LineString","properties":{"kind":"highway","network":"M","sort_rank":383,"kind_detail":"motorway","is_bicycle_related":true,"bicycle_shield_text":null,"cycleway":"shared_lane","source":"openstreetmap.org","min_zoom":8.0,"all_networks":["M","M"],"shield_text":"1","bicycle_network":"ncn","all_shield_texts":["1","1"]},"arcs":[15]},{"type":"MultiLineString","properties":{"kind":"highway","network":"M","sort_rank":383,"kind_detail":"motorway","is_bicycle_related":true,"bicycle_shield_text":"M1","bicycle_network":"ncn","source":"openstreetmap.org","min_zoom":8.0,"all_networks":["M","M"],"old_name":"F6","shield_text":"1","cycleway":"shoulder","all_shield_texts":["1","1"]},"arcs":[[16],[17]]},{"type":"MultiLineString","properties":{"kind":"highway","network":"M","sort_rank":383,"landuse_kind":"urban_area","is_bicycle_related":true,"bicycle_shield_text":"M1","bicycle_network":"ncn","source":"openstreetmap.org","min_zoom":8.0,"all_networks":["M","M"],"kind_detail":"motorway","shield_text":"1","cycleway":"shoulder","all_shield_texts":["1","1"]},"arcs":[[18],[19]]},{"type":"LineString","properties":{"kind":"major_road","network":"NR","sort_rank":355,"kind_detail":"trunk_link","is_bicycle_related":true,"bicycle_shield_text":"M1","cycleway":"shoulder","source":"openstreetmap.org","min_zoom":8.0,"is_link":true,"shield_text":"1","bicycle_network":"ncn","id":172659549},"arcs":[20]},{"type":"LineString","properties":{"kind":"major_road","network":"B","sort_rank":380,"kind_detail":"primary","is_bicycle_related":true,"bicycle_shield_text":null,"bicycle_network":"ncn","source":"openstreetmap.org","min_zoom":8.0,"shield_text":"65"},"arcs":[21]},{"type":"MultiLineString","properties":{"kind":"highway","network":"M","sort_rank":383,"kind_detail":"motorway","is_bicycle_related":true,"bicycle_shield_text":null,"bicycle_network":"ncn","source":"openstreetmap.org","min_zoom":8.0,"all_networks":["M","M"],"shield_text":"1","cycleway":"shoulder","all_shield_texts":["1","1"]},"arcs":[[22],[23]]},{"type":"MultiLineString","properties":{"kind":"major_road","network":"B","sort_rank":380,"kind_detail":"primary","is_bicycle_related":true,"cycleway":"lane","source":"openstreetmap.org","min_zoom":8.0,"landuse_kind":"urban_area","shield_text":"65","bicycle_network":"lcn"},"arcs":[[24],[25]]},{"type":"MultiLineString","properties":{"kind":"minor_road","sort_rank":360,"landuse_kind":"urban_area","is_bicycle_related":true,"bicycle_shield_text":"Coast","bicycle_network":"ncn","source":"openstreetmap.org","min_zoom":8.0,"kind_detail":"residential"},"arcs":[[26],[27]]},{"type":"MultiLineString","properties":{"kind":"minor_road","sort_rank":360,"kind_detail":"residential","is_bicycle_related":true,"bicycle_shield_text":"Coast","cycleway":"shared_lane","source":"openstreetmap.org","min_zoom":8.0,"bicycle_network":"ncn"},"arcs":[[28],[29],[30]]},{"type":"LineString","properties":{"kind":"highway","network":"M","sort_rank":383,"kind_detail":"motorway","is_bicycle_related":true,"bicycle_shield_text":null,"cycleway":"shoulder","source":"openstreetmap.org","min_zoom":8.0,"all_networks":["M","M"],"landuse_kind":"protected_area","shield_text":"1","bicycle_network":"ncn","id":406883618,"all_shield_texts":["1","1"]},"arcs":[31]},{"type":"MultiLineString","properties":{"source":"openstreetmap.org","kind":"major_road","network":"NR","sort_rank":381,"kind_detail":"trunk","min_zoom":8.0,"shield_text":"48"},"arcs":[[32],[33],[34],[35],[36],[37],[38]]},{"type":"MultiLineString","properties":{"kind":"major_road","network":"B","sort_rank":380,"kind_detail":"primary","is_bicycle_related":true,"bicycle_shield_text":null,"bicycle_network":"ncn","source":"openstreetmap.org","min_zoom":8.0,"landuse_kind":"urban_area","shield_text":"65"},"arcs":[[39],[40],[41],[42]]},{"type":"MultiLineString","properties":{"kind":"major_road","sort_rank":380,"landuse_kind":"urban_area","is_bicycle_related":true,"cycleway":"lane","source":"openstreetmap.org","min_zoom":8.0,"kind_detail":"primary","bicycle_network":"lcn"},"arcs":[[43],[44]]},{"type":"LineString","properties":{"kind":"minor_road","sort_rank":360,"kind_detail":"residential","is_bicycle_related":true,"bicycle_shield_text":"Coast","bicycle_network":"ncn","source":"openstreetmap.org","min_zoom":8.0,"cycleway":"track","id":224356745},"arcs":[45]},{"type":"MultiLineString","properties":{"kind":"highway","network":"M","sort_rank":383,"landuse_kind":"urban_area","source":"openstreetmap.org","min_zoom":8.0,"all_networks":["M","M"],"kind_detail":"motorway","shield_text":"1","all_shield_texts":["1","1"]},"arcs":[[46],[47],[48],[49],[50],[51],[52],[53]]},{"type":"LineString","properties":{"kind":"major_road","cycleway_left":"shoulder","sort_rank":380,"kind_detail":"primary","is_bicycle_related":true,"bicycle_shield_text":null,"bicycle_network":"ncn","source":"openstreetmap.org","min_zoom":8.0,"id":78177397},"arcs":[54]},{"type":"LineString","properties":{"kind":"major_road","network":null,"sort_rank":380,"kind_detail":"primary","source":"openstreetmap.org","min_zoom":8.0,"shield_text":"88","ref":"B88","id":4917797},"arcs":[55]},{"type":"MultiLineString","properties":{"kind":"highway","network":"NR","sort_rank":383,"landuse_kind":"urban_area","is_bicycle_related":true,"bicycle_shield_text":"M1","bicycle_network":"ncn","source":"openstreetmap.org","min_zoom":8.0,"all_networks":["NR",null],"kind_detail":"motorway","shield_text":"1","cycleway":"shoulder","all_shield_texts":["1","1"]},"arcs":[[56],[57]]},{"type":"LineString","properties":{"kind":"major_road","sort_rank":380,"kind_detail":"primary","is_bicycle_related":true,"bicycle_network":"lcn","source":"openstreetmap.org","min_zoom":8.0,"landuse_kind":"urban_area","id":226065742},"arcs":[58]},{"type":"LineString","properties":{"kind":"major_road","network":"T","sort_rank":380,"kind_detail":"primary","is_bicycle_related":true,"cycleway":"shoulder","source":"openstreetmap.org","min_zoom":8.0,"shield_text":null,"id":172639375},"arcs":[59]},{"type":"MultiLineString","properties":{"kind":"major_road","network":"T","sort_rank":379,"kind_detail":"secondary","is_bicycle_related":true,"bicycle_shield_text":"Coast","bicycle_network":"ncn","source":"openstreetmap.org","min_zoom":8.0,"shield_text":null},"arcs":[[60],[61],[62],[63],[64],[65],[66],[67],[68],[69],[70],[71],[72],[73],[74],[75],[76],[77],[78],[79],[80],[81],[82],[83],[84],[85],[86],[87]]},{"type":"MultiLineString","properties":{"source":"openstreetmap.org","kind":"major_road","sort_rank":380,"kind_detail":"primary","ref":"B69","min_zoom":8.0},"arcs":[[88],[89]]},{"type":"LineString","properties":{"kind":"highway","network":"NR","sort_rank":374,"kind_detail":"motorway_link","is_bicycle_related":true,"bicycle_shield_text":"M1","cycleway":"shoulder","source":"openstreetmap.org","min_zoom":8.0,"is_link":true,"all_networks":["NR",null],"shield_text":"1","bicycle_network":"ncn","id":486920011,"all_shield_texts":["1","1"]},"arcs":[90]},{"type":"MultiLineString","properties":{"kind":"major_road","network":"NR","sort_rank":381,"landuse_kind":"urban_area","source":"openstreetmap.org","min_zoom":8.0,"kind_detail":"trunk","shield_text":"1"},"arcs":[[91],[92],[93],[94]]},{"type":"MultiLineString","properties":{"source":"openstreetmap.org","kind":"major_road","network":"B","sort_rank":380,"kind_detail":"primary","min_zoom":8.0,"shield_text":"73"},"arcs":[[95],[96],[97]]},{"type":"LineString","properties":{"source":"openstreetmap.org","kind":"major_road","landuse_kind":"protected_area","sort_rank":380,"kind_detail":"primary","ref":"B69","min_zoom":8.0},"arcs":[98]},{"type":"MultiLineString","properties":{"sort_rank":381,"source":"openstreetmap.org","min_zoom":8.0,"kind":"major_road","kind_detail":"trunk"},"arcs":[[99],[100],[101],[102],[103],[104],[105],[106],[107],[108]]},{"type":"MultiLineString","properties":{"source":"openstreetmap.org","kind":"major_road","network":"S","landuse_kind":"urban_area","sort_rank":380,"kind_detail":"primary","min_zoom":8.0},"arcs":[[109],[110],[111],[112],[113],[114],[115],[116],[117],[118],[119],[120],[121],[122],[123],[124],[125],[126],[127],[128],[129],[130],[131],[132]]},{"type":"LineString","properties":{"kind":"minor_road","sort_rank":360,"kind_detail":"residential","is_bicycle_related":true,"bicycle_shield_text":"M1","cycleway":"shoulder","source":"openstreetmap.org","min_zoom":8.0,"bicycle_network":"ncn","id":355252157},"arcs":[133]},{"type":"LineString","properties":{"kind":"highway","network":"M","sort_rank":383,"kind_detail":"motorway","is_bicycle_related":true,"cycleway":"lane","source":"openstreetmap.org","min_zoom":8.0,"all_networks":["M","M"],"landuse_kind":"protected_area","shield_text":"1","id":385523733,"all_shield_texts":["1","1"]},"arcs":[134]},{"type":"MultiLineString","properties":{"kind":"highway","network":"T","sort_rank":383,"kind_detail":"motorway","is_bicycle_related":true,"bicycle_shield_text":"Coast","cycleway":"shoulder","source":"openstreetmap.org","min_zoom":8.0,"all_networks":["T","NR",null],"shield_text":null,"bicycle_network":"ncn","all_shield_texts":[null,"1","1"]},"arcs":[[135],[136],[137],[138]]},{"type":"MultiLineString","properties":{"kind":"highway","network":"T","sort_rank":383,"kind_detail":"motorway","is_bicycle_related":true,"bicycle_shield_text":"M1","cycleway":"shoulder","source":"openstreetmap.org","min_zoom":8.0,"all_networks":["T","NR",null],"shield_text":null,"bicycle_network":"ncn","all_shield_texts":[null,"1","1"]},"arcs":[[139],[140],[141],[142],[143],[144],[145],[146],[147],[148],[149]]},{"type":"MultiLineString","properties":{"source":"openstreetmap.org","kind":"highway","sort_rank":383,"kind_detail":"motorway","ref":"Foxground & Berry Bypass","min_zoom":8.0},"arcs":[[150],[151]]},{"type":"MultiLineString","properties":{"kind":"major_road","network":null,"sort_rank":380,"kind_detail":"primary","source":"openstreetmap.org","min_zoom":8.0,"landuse_kind":"protected_area","shield_text":"88","ref":"B88"},"arcs":[[152],[153],[154],[155],[156],[157]]},{"type":"MultiLineString","properties":{"kind":"path","sort_rank":354,"landuse_kind":"urban_area","is_bicycle_related":true,"bicycle_shield_text":"Coast","bicycle_network":"ncn","source":"openstreetmap.org","min_zoom":8.0,"kind_detail":"path"},"arcs":[[158],[159],[160],[161],[162],[163],[164]]},{"type":"MultiLineString","properties":{"kind":"highway","network":"M","sort_rank":383,"kind_detail":"motorway","is_bicycle_related":true,"bicycle_shield_text":"M1","bicycle_network":"ncn","source":"openstreetmap.org","min_zoom":8.0,"all_networks":["M","M"],"shield_text":"1","cycleway":"shoulder","all_shield_texts":["1","1"]},"arcs":[[165],[166],[167]]},{"type":"MultiLineString","properties":{"source":"openstreetmap.org","kind":"major_road","landuse_kind":"urban_area","sort_rank":380,"kind_detail":"primary","min_zoom":8.0},"arcs":[[168],[169],[170],[171],[172],[173],[174],[175],[176],[177],[178]]},{"type":"MultiLineString","properties":{"kind":"highway","network":"M","sort_rank":383,"landuse_kind":"protected_area","source":"openstreetmap.org","min_zoom":8.0,"all_networks":["M","M"],"kind_detail":"motorway","shield_text":"1","all_shield_texts":["1","1"]},"arcs":[[179],[180],[181],[182],[183],[184],[185],[186]]},{"type":"MultiLineString","properties":{"kind":"path","sort_rank":354,"landuse_kind":"urban_area","is_bicycle_related":true,"bicycle_shield_text":"Coast","bicycle_network":"ncn","source":"openstreetmap.org","min_zoom":8.0,"kind_detail":"cycleway"},"arcs":[[187],[188],[189],[190],[191],[192]]},{"type":"MultiLineString","properties":{"source":"openstreetmap.org","kind":"major_road","network":"B","sort_rank":380,"kind_detail":"primary","min_zoom":8.0,"shield_text":"65"},"arcs":[[193],[194]]},{"type":"LineString","properties":{"kind":"minor_road","service":"parking_aisle","sort_rank":356,"kind_detail":"service","is_bicycle_related":true,"bicycle_shield_text":"Coast","bicycle_network":"ncn","source":"openstreetmap.org","min_zoom":8.0,"landuse_kind":"urban_area","id":250293013},"arcs":[195]},{"type":"MultiLineString","properties":{"kind":"highway","network":"NH","sort_rank":383,"kind_detail":"motorway","is_bicycle_related":true,"bicycle_shield_text":"M31","cycleway":"shoulder","source":"openstreetmap.org","min_zoom":8.0,"all_networks":["NH","NH"],"shield_text":"31","bicycle_network":"ncn","all_shield_texts":["31","31"]},"arcs":[[196],[197],[198]]},{"type":"LineString","properties":{"kind":"highway","network":null,"sort_rank":383,"kind_detail":"motorway","is_bicycle_related":true,"bicycle_shield_text":"M1","bicycle_network":"ncn","source":"openstreetmap.org","min_zoom":8.0,"all_networks":[null],"shield_text":"1","ref":"A1","all_shield_texts":["1"]},"arcs":[199]},{"type":"LineString","properties":{"kind":"minor_road","sort_rank":360,"kind_detail":"unclassified","is_bicycle_related":true,"bicycle_shield_text":"Coast","cycleway":"shared_lane","source":"openstreetmap.org","min_zoom":8.0,"bicycle_network":"ncn","id":20947472},"arcs":[200]},{"type":"LineString","properties":{"kind":"major_road","network":"B","sort_rank":380,"kind_detail":"primary","source":"openstreetmap.org","min_zoom":8.0,"landuse_kind":"urban_area","shield_text":"73","id":291303094},"arcs":[201]},{"type":"MultiLineString","properties":{"kind":"minor_road","sort_rank":360,"kind_detail":"residential","is_bicycle_related":true,"bicycle_shield_text":"Coast","bicycle_network":"ncn","source":"openstreetmap.org","min_zoom":8.0},"arcs":[[202],[203],[204],[205],[206],[207],[208],[209],[210],[211],[212],[213],[214],[215],[216],[217],[218],[219]]},{"type":"LineString","properties":{"source":"openstreetmap.org","kind":"major_road","sort_rank":380,"kind_detail":"primary","ref":"S157","min_zoom":8.0,"id":69830472},"arcs":[220]},{"type":"LineString","properties":{"kind":"major_road","network":"NR","sort_rank":381,"kind_detail":"trunk","is_bicycle_related":true,"cycleway":"lane","source":"openstreetmap.org","min_zoom":8.0,"landuse_kind":"urban_area","shield_text":"1","id":4904981},"arcs":[221]},{"type":"MultiLineString","properties":{"kind":"major_road","network":"T","sort_rank":380,"kind_detail":"primary","source":"openstreetmap.org","min_zoom":8.0,"landuse_kind":"protected_area","shield_text":"12","ref":"T12"},"arcs":[[222],[223]]},{"type":"MultiLineString","properties":{"kind":"major_road","network":"T","sort_rank":380,"kind_detail":"primary","source":"openstreetmap.org","min_zoom":8.0,"shield_text":"12","ref":"T12"},"arcs":[[224],[225],[226],[227],[228]]},{"type":"LineString","properties":{"source":"openstreetmap.org","kind":"major_road","network":"S","sort_rank":380,"kind_detail":"primary","min_zoom":8.0},"arcs":[229]},{"type":"MultiLineString","properties":{"kind":"minor_road","sort_rank":360,"kind_detail":"unclassified","is_bicycle_related":true,"bicycle_shield_text":"Coast","bicycle_network":"ncn","source":"openstreetmap.org","min_zoom":8.0},"arcs":[[230],[231],[232]]},{"type":"LineString","properties":{"kind":"highway","network":"NR","sort_rank":383,"kind_detail":"motorway","source":"openstreetmap.org","min_zoom":8.0,"all_networks":["NR",null],"shield_text":"1","all_shield_texts":["1","1"]},"arcs":[233]},{"type":"MultiLineString","properties":{"source":"openstreetmap.org","kind":"major_road","network":"T","sort_rank":380,"kind_detail":"primary","min_zoom":8.0,"shield_text":"8"},"arcs":[[234],[235],[236],[237],[238],[239]]},{"type":"LineString","properties":{"kind":"highway","network":"NR","sort_rank":383,"kind_detail":"motorway","is_bicycle_related":true,"cycleway":"shoulder","source":"openstreetmap.org","min_zoom":8.0,"all_networks":["NR"],"shield_text":"1","id":373593915,"all_shield_texts":["1"]},"arcs":[240]},{"type":"MultiLineString","properties":{"sort_rank":380,"kind_detail":"primary","min_zoom":8.0,"kind":"major_road","source":"openstreetmap.org"},"arcs":[[241],[242]]},{"type":"MultiLineString","properties":{"kind":"path","sort_rank":354,"landuse_kind":"urban_area","is_bicycle_related":true,"bicycle_shield_text":"Coast","bicycle_network":"ncn","source":"openstreetmap.org","min_zoom":8.0,"kind_detail":"footway"},"arcs":[[243],[244]]},{"type":"MultiLineString","properties":{"kind":"highway","network":"M","sort_rank":374,"kind_detail":"motorway_link","is_bicycle_related":true,"bicycle_shield_text":"M1","bicycle_network":"ncn","source":"openstreetmap.org","min_zoom":8.0,"is_link":true,"all_networks":["M"],"landuse_kind":"urban_area","shield_text":"1","cycleway":"shoulder","all_shield_texts":["1"]},"arcs":[[245],[246],[247],[248],[249],[250],[251],[252]]},{"type":"LineString","properties":{"kind":"major_road","network":"S","sort_rank":380,"kind_detail":"primary","is_bicycle_related":true,"source":"openstreetmap.org","min_zoom":8.0,"landuse_kind":"urban_area","id":50668301},"arcs":[253]},{"type":"LineString","properties":{"kind":"major_road","sort_rank":379,"kind_detail":"secondary","is_bicycle_related":true,"bicycle_shield_text":"Coast","cycleway":"shared_lane","source":"openstreetmap.org","min_zoom":8.0,"bicycle_network":"ncn","id":445427781},"arcs":[254]},{"type":"MultiLineString","properties":{"kind":"minor_road","sort_rank":358,"kind_detail":"service","is_bicycle_related":true,"bicycle_shield_text":"Coast","bicycle_network":"ncn","source":"openstreetmap.org","min_zoom":8.0,"landuse_kind":"urban_area","id":75879345},"arcs":[[255],[256]]},{"type":"MultiLineString","properties":{"kind":"major_road","network":null,"sort_rank":381,"kind_detail":"trunk","source":"openstreetmap.org","min_zoom":8.0,"shield_text":"1","ref":"A1"},"arcs":[[257],[258],[259],[260],[261]]},{"type":"MultiLineString","properties":{"source":"openstreetmap.org","kind":"major_road","network":"T","sort_rank":381,"kind_detail":"trunk","min_zoom":8.0,"shield_text":"8"},"arcs":[[262],[263],[264],[265],[266],[267],[268],[269]]},{"type":"MultiLineString","properties":{"kind":"path","sort_rank":354,"kind_detail":"path","is_bicycle_related":true,"bicycle_shield_text":"Coast","bicycle_network":"ncn","source":"openstreetmap.org","min_zoom":8.0},"arcs":[[270],[271],[272],[273],[274],[275],[276],[277],[278],[279],[280],[281]]},{"type":"MultiLineString","properties":{"kind":"minor_road","service":"parking_aisle","sort_rank":356,"kind_detail":"service","is_bicycle_related":true,"bicycle_shield_text":"Coast","bicycle_network":"ncn","source":"openstreetmap.org","min_zoom":8.0},"arcs":[[282],[283],[284]]},{"type":"LineString","properties":{"kind":"minor_road","service":"driveway","sort_rank":356,"kind_detail":"service","is_bicycle_related":true,"bicycle_shield_text":"Coast","bicycle_network":"ncn","source":"openstreetmap.org","min_zoom":8.0,"id":81060273},"arcs":[285]},{"type":"MultiLineString","properties":{"source":"openstreetmap.org","kind":"major_road","network":"NR","sort_rank":381,"kind_detail":"trunk","min_zoom":8.0,"shield_text":"1"},"arcs":[[286],[287],[288],[289],[290],[291],[292],[293],[294],[295],[296],[297],[298],[299],[300],[301],[302],[303],[304],[305],[306],[307],[308],[309],[310],[311],[312],[313],[314],[315],[316],[317],[318],[319],[320],[321],[322],[323],[324],[325],[326],[327]]},{"type":"MultiLineString","properties":{"kind":"path","sort_rank":354,"landuse_kind":"urban_area","is_bicycle_related":true,"bicycle_shield_text":"Coast","bicycle_network":"ncn","source":"openstreetmap.org","min_zoom":8.0,"kind_detail":"cycleway","cycleway":"track"},"arcs":[[328],[329],[330],[331]]},{"type":"MultiLineString","properties":{"source":"openstreetmap.org","kind":"major_road","kind_detail":"trunk","sort_rank":381,"landuse_kind":"urban_area","min_zoom":8.0},"arcs":[[332],[333],[334],[335],[336],[337]]},{"type":"MultiLineString","properties":{"kind":"highway","network":"NR","sort_rank":383,"kind_detail":"motorway","is_bicycle_related":true,"bicycle_shield_text":"M1","bicycle_network":"ncn","source":"openstreetmap.org","min_zoom":8.0,"all_networks":["NR",null],"shield_text":"1","cycleway":"shoulder","all_shield_texts":["1","1"]},"arcs":[[338],[339],[340],[341],[342],[343],[344],[345],[346],[347],[348]]},{"type":"LineString","properties":{"kind":"major_road","network":"T","sort_rank":380,"kind_detail":"primary","source":"openstreetmap.org","min_zoom":8.0,"landuse_kind":"nature_reserve","shield_text":"12","ref":"T12"},"arcs":[349]},{"type":"MultiLineString","properties":{"source":"openstreetmap.org","kind":"major_road","network":"T","sort_rank":380,"kind_detail":"primary","min_zoom":8.0,"shield_text":"12"},"arcs":[[350],[351],[352],[353]]},{"type":"MultiLineString","properties":{"source":"openstreetmap.org","kind":"major_road","network":"T","sort_rank":380,"kind_detail":"primary","min_zoom":8.0,"shield_text":"14"},"arcs":[[354],[355]]},{"type":"LineString","properties":{"kind":"minor_road","sort_rank":360,"kind_detail":"residential","is_bicycle_related":true,"bicycle_shield_text":"Coast","cycleway":"shared_lane","source":"openstreetmap.org","min_zoom":8.0,"landuse_kind":"urban_area","bicycle_network":"ncn"},"arcs":[356]},{"type":"LineString","properties":{"kind":"major_road","network":"B","sort_rank":380,"kind_detail":"primary","is_bicycle_related":true,"bicycle_shield_text":null,"cycleway":"shared_lane","source":"openstreetmap.org","min_zoom":8.0,"shield_text":"65","bicycle_network":"ncn"},"arcs":[357]},{"type":"MultiLineString","properties":{"kind":"major_road","network":"NR","sort_rank":381,"kind_detail":"trunk","is_bicycle_related":true,"bicycle_shield_text":"M1","cycleway":"shoulder","source":"openstreetmap.org","min_zoom":8.0,"shield_text":"1","bicycle_network":"ncn"},"arcs":[[358],[359],[360]]},{"type":"LineString","properties":{"source":"openstreetmap.org","kind":"highway","ref":"A1","sort_rank":383,"kind_detail":"motorway","is_bicycle_related":true,"min_zoom":8.0},"arcs":[361]},{"type":"MultiLineString","properties":{"source":"openstreetmap.org","kind":"major_road","network":"T","sort_rank":380,"kind_detail":"primary","min_zoom":8.0,"shield_text":"15"},"arcs":[[362],[363]]},{"type":"MultiLineString","properties":{"kind":"minor_road","sort_rank":358,"kind_detail":"service","is_bicycle_related":true,"bicycle_shield_text":"Coast","bicycle_network":"ncn","source":"openstreetmap.org","min_zoom":8.0},"arcs":[[364],[365],[366],[367],[368],[369],[370],[371],[372]]},{"type":"MultiLineString","properties":{"kind":"major_road","sort_rank":377,"kind_detail":"tertiary","is_bicycle_related":true,"bicycle_shield_text":"Coast","bicycle_network":"ncn","source":"openstreetmap.org","min_zoom":8.0},"arcs":[[373],[374]]},{"type":"MultiLineString","properties":{"kind":"highway","network":"T","sort_rank":374,"kind_detail":"motorway_link","is_bicycle_related":true,"bicycle_shield_text":"Coast","bicycle_network":"ncn","source":"openstreetmap.org","min_zoom":8.0,"is_link":true,"all_networks":["T"],"shield_text":null,"all_shield_texts":[null]},"arcs":[[375],[376],[377],[378]]},{"type":"LineString","properties":{"bicycle_shield_text":"M1","min_zoom":8.0,"old_name":"F6","cycleway":"shoulder","id":26405977,"kind":"highway","network":"M","sort_rank":383,"kind_detail":"motorway","is_bicycle_related":true,"bicycle_network":"ncn","source":"openstreetmap.org","all_networks":["M","M"],"landuse_kind":"urban_area","shield_text":"1","all_shield_texts":["1","1"]},"arcs":[379]},{"type":"MultiLineString","properties":{"kind":"highway","network":"NH","sort_rank":383,"kind_detail":"motorway","is_bicycle_related":true,"bicycle_shield_text":"M31","bicycle_network":"ncn","source":"openstreetmap.org","min_zoom":8.0,"all_networks":["NH","NH"],"shield_text":"31","all_shield_texts":["31","31"]},"arcs":[[380],[381],[382]]},{"type":"LineString","properties":{"kind":"major_road","network":"T","sort_rank":380,"kind_detail":"primary","is_bicycle_related":true,"bicycle_shield_text":null,"bicycle_network":"ncn","source":"openstreetmap.org","min_zoom":8.0,"landuse_kind":"urban_area","shield_text":null},"arcs":[383]},{"type":"LineString","properties":{"kind":"major_road","network":null,"sort_rank":380,"kind_detail":"primary","source":"openstreetmap.org","min_zoom":8.0,"shield_text":"69","ref":"B69","id":5001851},"arcs":[384]},{"type":"LineString","properties":{"kind":"major_road","network":"T","sort_rank":380,"kind_detail":"primary","is_bicycle_related":true,"bicycle_shield_text":"Coast","cycleway":"track","source":"openstreetmap.org","min_zoom":8.0,"landuse_kind":"urban_area","shield_text":null,"bicycle_network":"ncn","id":25359876},"arcs":[385]},{"type":"MultiLineString","properties":{"kind":"path","sort_rank":354,"kind_detail":"footway","is_bicycle_related":true,"bicycle_shield_text":"Coast","bicycle_network":"ncn","source":"openstreetmap.org","min_zoom":8.0},"arcs":[[386],[387],[388],[389],[390],[391],[392]]},{"type":"LineString","properties":{"kind":"highway","network":"M","sort_rank":383,"kind_detail":"motorway","is_bicycle_related":true,"cycleway":"shared_lane","source":"openstreetmap.org","min_zoom":8.0,"all_networks":["M","M"],"landuse_kind":"protected_area","shield_text":"1","id":5001815,"all_shield_texts":["1","1"]},"arcs":[393]},{"type":"LineString","properties":{"source":"openstreetmap.org","kind":"major_road","network":"T","sort_rank":380,"kind_detail":"primary","min_zoom":8.0,"shield_text":"7"},"arcs":[394]},{"type":"MultiLineString","properties":{"kind":"major_road","cycleway_left":"shoulder","network":"B","sort_rank":380,"kind_detail":"primary","is_bicycle_related":true,"bicycle_shield_text":null,"bicycle_network":"ncn","source":"openstreetmap.org","min_zoom":8.0,"shield_text":"65"},"arcs":[[395],[396]]},{"type":"MultiLineString","properties":{"kind":"major_road","network":"T","sort_rank":380,"kind_detail":"primary","source":"openstreetmap.org","min_zoom":8.0,"landuse_kind":"urban_area","shield_text":"7"},"arcs":[[397],[398],[399]]},{"type":"MultiLineString","properties":{"kind":"major_road","network":null,"sort_rank":381,"kind_detail":"trunk","is_bicycle_related":true,"bicycle_shield_text":"M1","cycleway":"shoulder","source":"openstreetmap.org","min_zoom":8.0,"landuse_kind":"urban_area","shield_text":"1","bicycle_network":"ncn","ref":"A1"},"arcs":[[400],[401]]},{"type":"MultiLineString","properties":{"source":"openstreetmap.org","kind":"major_road","sort_rank":381,"kind_detail":"trunk","ref":"A1","min_zoom":8.0},"arcs":[[402],[403],[404]]},{"type":"MultiLineString","properties":{"kind":"major_road","network":"T","sort_rank":380,"kind_detail":"primary","source":"openstreetmap.org","min_zoom":8.0,"landuse_kind":"urban_area","shield_text":null},"arcs":[[405],[406],[407],[408],[409],[410],[411],[412]]},{"type":"LineString","properties":{"kind":"minor_road","sort_rank":358,"kind_detail":"service","is_bicycle_related":true,"bicycle_shield_text":"Coast","cycleway":"shared_lane","source":"openstreetmap.org","min_zoom":8.0,"bicycle_network":"ncn","id":227292241},"arcs":[413]},{"type":"MultiLineString","properties":{"kind":"major_road","network":"T","sort_rank":380,"kind_detail":"primary","source":"openstreetmap.org","min_zoom":8.0,"landuse_kind":"nature_reserve","shield_text":"8"},"arcs":[[414],[415]]},{"type":"LineString","properties":{"kind":"major_road","network":"T","sort_rank":380,"kind_detail":"primary","is_bicycle_related":true,"bicycle_shield_text":"Coast","cycleway":"track","source":"openstreetmap.org","min_zoom":8.0,"shield_text":null,"bicycle_network":"ncn"},"arcs":[416]},{"type":"MultiLineString","properties":{"kind":"path","sort_rank":354,"kind_detail":"cycleway","is_bicycle_related":true,"bicycle_shield_text":"Coast","bicycle_network":"ncn","source":"openstreetmap.org","min_zoom":8.0},"arcs":[[417],[418],[419],[420],[421],[422],[423],[424],[425],[426],[427],[428],[429],[430],[431]]},{"type":"MultiLineString","properties":{"source":"openstreetmap.org","kind":"major_road","network":"T","sort_rank":380,"kind_detail":"primary","min_zoom":8.0,"shield_text":null},"arcs":[[432],[433],[434],[435],[436],[437],[438],[439],[440],[441],[442],[443],[444],[445],[446],[447],[448],[449]]},{"type":"MultiLineString","properties":{"source":"openstreetmap.org","kind":"highway","sort_rank":383,"kind_detail":"motorway","ref":"A1","min_zoom":8.0},"arcs":[[450],[451],[452],[453],[454]]},{"type":"MultiLineString","properties":{"kind":"highway","network":"M","sort_rank":383,"kind_detail":"motorway","source":"openstreetmap.org","min_zoom":8.0,"all_networks":["M","M"],"shield_text":"1","all_shield_texts":["1","1"]},"arcs":[[455],[456],[457],[458],[459],[460],[461],[462],[463],[464],[465],[466],[467],[468]]},{"type":"LineString","properties":{"kind":"highway","network":"T","sort_rank":383,"kind_detail":"motorway","is_bicycle_related":true,"bicycle_shield_text":"M1","bicycle_network":"ncn","source":"openstreetmap.org","min_zoom":8.0,"all_networks":["T","NR",null],"shield_text":null,"id":81148004,"all_shield_texts":[null,"1","1"]},"arcs":[469]},{"type":"MultiLineString","properties":{"kind":"major_road","network":null,"sort_rank":381,"kind_detail":"trunk","is_bicycle_related":true,"bicycle_shield_text":"M1","cycleway":"shoulder","source":"openstreetmap.org","min_zoom":8.0,"shield_text":"1","bicycle_network":"ncn","ref":"A1"},"arcs":[[470],[471]]},{"type":"MultiLineString","properties":{"kind":"major_road","network":"B","sort_rank":380,"kind_detail":"primary","source":"openstreetmap.org","min_zoom":8.0,"landuse_kind":"urban_area","shield_text":"65"},"arcs":[[472],[473],[474],[475],[476],[477],[478],[479],[480],[481],[482],[483],[484],[485]]},{"type":"MultiLineString","properties":{"kind":"major_road","sort_rank":379,"kind_detail":"secondary","is_bicycle_related":true,"bicycle_shield_text":"Coast","bicycle_network":"ncn","source":"openstreetmap.org","min_zoom":8.0},"arcs":[[486],[487],[488],[489],[490]]}]},"earth":{"type":"GeometryCollection","geometries":[{"type":"Polygon","properties":{"sort_rank":10,"source":"naturalearthdata.com","kind":"earth","min_zoom":0.0,"id":1397},"arcs":[[491]]}]},"landuse":{"type":"GeometryCollection","geometries":[{"type":"MultiPolygon","properties":{"kind":"nature_reserve","protect_class":"2","area":577340660,"sort_rank":23,"source":"openstreetmap.org","min_zoom":8.0,"tier":2,"osm_relation":true},"arcs":[[[492],[493],[494],[495]],[[496]],[[497]],[[498]],[[499]]]},{"type":"MultiPolygon","properties":{"kind":"nature_reserve","protect_class":"1","area":167685216,"sort_rank":23,"operator":"National Parks & Wildife Service NSW","source":"openstreetmap.org","min_zoom":8.0,"tier":2,"osm_relation":true},"arcs":[[[500]],[[501]],[[502]]]},{"type":"MultiPolygon","properties":{"kind":"nature_reserve","protect_class":"1","area":977881382,"sort_rank":23,"source":"openstreetmap.org","min_zoom":6.0,"tier":2,"osm_relation":true},"arcs":[[[503],[504]]]},{"type":"MultiPolygon","properties":{"kind":"nature_reserve","protect_class":"2","area":238561173,"sort_rank":23,"source":"openstreetmap.org","min_zoom":7.0,"tier":2,"osm_relation":true},"arcs":[[[505]]]},{"type":"MultiPolygon","properties":{"kind":"nature_reserve","tier":2,"protect_class":"2","area":664978465,"sort_rank":23,"source":"openstreetmap.org","min_zoom":8.0,"operator":"National Parks & Wildife Service NSW","osm_relation":true},"arcs":[[[506]],[[507]],[[508]]]},{"type":"MultiPolygon","properties":{"kind":"nature_reserve","natural":"wood","protect_class":"1","area":99274731,"sort_rank":23,"operator":"National Parks & Wildife Service NSW","source":"openstreetmap.org","min_zoom":8.0,"tier":2,"osm_relation":true},"arcs":[[[509]]]},{"type":"MultiPolygon","properties":{"kind":"nature_reserve","natural":"wood","protect_class":"2","area":111422217,"sort_rank":23,"source":"openstreetmap.org","min_zoom":8.0,"operator":"National Parks & Wildife Service NSW","tier":2,"osm_relation":true},"arcs":[[[510]]]},{"type":"MultiPolygon","properties":{"source":"openstreetmap.org","kind":"park","tier":2,"area":87780408,"sort_rank":24,"min_zoom":8.0,"osm_relation":true},"arcs":[[[511]],[[512]]]},{"type":"Polygon","properties":{"kind":"nature_reserve","protect_class":"5","area":24915200,"sort_rank":23,"operator":"National Parks & Wildife Service NSW","source":"openstreetmap.org","min_zoom":8.0,"tier":2,"id":-6078944,"osm_relation":true},"arcs":[[513]]},{"type":"Polygon","properties":{"source":"openstreetmap.org","kind":"military","area":19776100,"tier":3,"id":328523377,"min_zoom":8.0,"sort_rank":45},"arcs":[[514]]},{"type":"MultiPolygon","properties":{"source":"naturalearthdata.com","kind":"urban_area","name":"","area":773687709,"sort_rank":11,"min_zoom":4.0},"arcs":[[[515]],[[516]],[[517]]]},{"type":"MultiPolygon","properties":{"kind":"nature_reserve","protect_class":"1","area":298448782,"sort_rank":23,"source":"openstreetmap.org","min_zoom":8.0,"tier":2,"osm_relation":true},"arcs":[[[518]],[[519]]]},{"type":"MultiPolygon","properties":{"kind":"nature_reserve","tier":2,"protect_class":"2","area":270932850,"sort_rank":23,"source":"openstreetmap.org","min_zoom":7.0,"operator":"National Parks & Wildife Service NSW","osm_relation":true},"arcs":[[[520]]]},{"type":"Polygon","properties":{"kind":"protected_area","protect_class":"12","area":1212550016,"sort_rank":17,"operator":"Sydney Catchment Authority","source":"openstreetmap.org","min_zoom":4.0,"tier":2,"id":258861323},"arcs":[[521]]},{"type":"MultiPolygon","properties":{"source":"openstreetmap.org","kind":"residential","tier":2,"area":52762310,"sort_rank":20,"min_zoom":8.0},"arcs":[[[522]]]},{"type":"MultiPolygon","properties":{"kind":"nature_reserve","protect_class":"2","area":913537511,"sort_rank":23,"source":"openstreetmap.org","min_zoom":6.0,"tier":2,"osm_relation":true},"arcs":[[[523]],[[524],[525]]]}]}},"type":"Topology","transform":{"translate":[150.46875,-35.4606699515],"scale":[0.0003433228,0.0002816226]},"arcs":[[[703,0],[5,7],[68,215],[219,73],[337,225],[112,141],[76,165],[137,155],[82,168],[53,202],[24,303],[-48,201],[-116,200],[195,588],[102,200],[35,238],[74,198],[38,249],[-36,350],[237,218]],[[770,1000],[-25,23],[-87,-99],[3,82],[-32,44],[-157,-7],[-107,-60],[-6,41],[29,8],[12,51],[-36,41],[117,-17],[80,110],[114,-18],[133,26]],[[703,0],[5,7],[68,215],[219,73],[337,225],[112,141],[76,165],[137,155],[82,168],[53,202],[24,303],[-48,201],[-116,200],[195,588],[102,200],[35,238],[74,198],[38,249],[-36,350],[237,218]],[[808,1225],[63,12],[13,-24],[-25,-18],[-25,-164],[-64,-31]],[[0,3611],[4,1],[102,103],[35,3],[23,56],[31,10],[-26,47],[43,27],[59,98],[-8,81],[56,-3],[53,62]],[[1209,3626],[96,333],[0,4],[-1,4],[-8,17],[9,34],[0,3],[0,3],[-3,17],[37,55]],[[1305,3960],[-1,8],[-7,10],[-1,3],[-1,4],[7,57],[37,54]],[[0,3611],[4,1],[102,103],[35,3],[23,56],[31,10],[-26,47],[43,27],[59,98],[-8,81],[56,-3],[53,62]],[[0,3611],[4,1],[102,103],[36,4],[22,55],[31,10],[-26,47],[43,27],[59,98],[-8,81],[56,-3],[53,62]],[[0,232],[47,39],[21,40],[-1,13],[-10,17],[-10,51],[-1,92],[13,66],[31,57],[68,90],[33,33],[16,26],[11,35],[13,59],[17,27],[93,62],[79,32],[71,28],[137,12],[59,-83],[21,10],[26,17],[23,18],[10,15],[9,6],[21,-6],[26,-3],[24,16],[17,45],[12,61],[2,57],[-10,31],[-41,-2],[-45,-25],[-47,-12],[-48,39],[-2,13],[-9,39],[2,59],[-13,47],[-57,14],[28,130],[25,46],[104,31],[51,25],[54,11],[58,-27],[-18,-49],[34,-77],[-27,-56],[-16,-44],[23,-38],[37,-36],[25,-40],[75,70],[34,48],[-3,83],[33,115],[-10,24],[-70,8],[-91,31],[-58,60],[32,97],[-22,24],[22,26],[-33,35],[-64,27],[-24,35],[53,3],[37,26],[5,30],[-44,14],[-27,16],[-44,34],[-35,34],[5,15],[72,42],[76,181],[91,42],[67,45],[41,109],[66,444],[38,70],[98,13],[-58,8],[-43,32],[-80,79],[-38,29],[-63,-1],[-24,3],[-18,14],[-14,32],[99,122],[18,11],[20,1],[37,-10],[18,-33],[-35,-67],[53,-14],[41,54],[31,100],[61,55],[-46,127],[15,153],[58,157],[-9,117],[37,83],[2730,0],[0,-4096],[-4096,0],[0,232]],[[1366,4096],[-37,-83],[9,-117],[-58,-157],[-15,-153],[46,-127],[-61,-55],[-31,-100],[-41,-54],[-53,14],[35,67],[-18,33],[-37,10],[-20,-1],[-18,-11],[-99,-122],[14,-32],[18,-14],[24,-3],[63,1],[38,-29],[80,-79],[43,-32],[58,-8],[-98,-13],[-38,-70],[-66,-444],[-41,-109],[-67,-45],[-91,-42],[-76,-181],[-72,-42],[-5,-15],[35,-34],[44,-34],[27,-16],[44,-14],[-5,-30],[-37,-26],[-53,-3],[24,-35],[64,-27],[33,-35],[-22,-26],[22,-24],[-32,-97],[58,-60],[91,-31],[70,-8],[10,-24],[-33,-115],[3,-83],[-34,-48],[-75,-70],[-25,40],[-37,36],[-23,38],[16,44],[27,56],[-34,77],[18,49],[-58,27],[-54,-11],[-51,-25],[-104,-31],[-25,-46],[-28,-130],[57,-14],[13,-47],[-2,-59],[9,-39],[2,-13],[48,-39],[47,12],[45,25],[41,2],[10,-31],[-2,-57],[-12,-61],[-17,-45],[-24,-16],[-26,3],[-21,6],[-9,-6],[-10,-15],[-23,-18],[-26,-17],[-21,-10],[-59,83],[-137,-12],[-71,-28],[-79,-32],[-93,-62],[-17,-27],[-13,-59],[-11,-35],[-16,-26],[-33,-33],[-68,-90],[-31,-57],[-13,-66],[1,-92],[10,-51],[10,-17],[1,-13],[-21,-40],[-47,-39]],[[1253,4085],[-1,-1]],[[166,3851],[4,5]],[[241,3964],[3,5]],[[1261,4089],[5,5]],[[1267,4094],[-3,-3]],[[930,3327],[-8,-49]],[[960,3414],[-29,-85]],[[959,3414],[5,10],[83,69]],[[1047,3493],[-13,-14],[-71,-57]],[[923,3237],[1,-3]],[[1248,4078],[6,-27]],[[1264,4091],[-10,-5]],[[1268,4096],[-1,-2]],[[1234,3751],[54,238]],[[1290,3990],[3,-20],[-8,-44],[-50,-176]],[[1290,3498],[-21,-5]],[[1295,3498],[-1,-23]],[[1031,2564],[3,1]],[[1133,2937],[3,1]],[[1166,3289],[-2,3]],[[1254,4086],[-1,-1]],[[0,3149],[23,-4]],[[23,3145],[11,-2]],[[34,3143],[260,-51]],[[454,3183],[0,-3]],[[892,3160],[26,74]],[[922,3236],[-4,-2]],[[918,3234],[3,3]],[[1254,4051],[27,-4]],[[1293,4031],[-12,16]],[[1281,4047],[14,-6]],[[1297,4015],[-6,-23]],[[1219,3728],[15,23]],[[1235,3750],[-11,-19],[-3,-2]],[[1165,3293],[-1,-1]],[[1047,3493],[23,24],[62,54],[29,104],[34,33],[12,28]],[[1207,3736],[1,1],[-4,8]],[[1204,3745],[-7,15],[-61,34],[0,4]],[[1136,3798],[5,57]],[[1137,3848],[-1,-50]],[[1136,3798],[0,-4],[63,-34],[5,-15]],[[1204,3745],[3,-9]],[[1207,3736],[1,-2],[-2,-13],[-8,-11],[-38,-45],[-24,-88],[-4,-7],[-73,-65],[-12,-12]],[[1266,4094],[1,2]],[[1137,3890],[1,-1]],[[1074,3120],[-66,38]],[[1016,3157],[59,-36]],[[1221,3729],[-7,-6]],[[1098,3096],[1,-1]],[[892,2381],[148,126]],[[1040,2508],[4,25]],[[1044,2558]],[[1044,2558],[0,-1]],[[1044,2557],[0,1]],[[1044,2557]],[[1044,2558],[0,10]],[[1044,2558]],[[1044,2533]],[[1044,2533]],[[1044,2557]],[[1044,2534],[0,23]],[[1044,2534]],[[1044,2568]],[[1044,2568],[0,1]],[[1044,2568]],[[1044,2534]],[[1044,2569],[9,56]],[[1044,2569],[0,-1]],[[1089,2715],[6,23]],[[1098,2740],[-3,-2]],[[1098,2740],[4,11]],[[1040,2508],[1,0],[-1,-1],[0,1]],[[1044,2533],[0,1]],[[1044,2534],[0,-1]],[[1044,2568]],[[1044,2568]],[[1044,2568]],[[1238,4070],[6,7]],[[1254,4086],[7,3]],[[911,2521],[10,-1]],[[388,2255],[-23,-58]],[[398,2092],[-10,18],[-3,16],[-2,4],[-6,18],[-12,47],[0,2]],[[365,2197],[1,-3]],[[369,2182],[29,-89]],[[27,3142],[-4,-225]],[[28,3146],[-1,-4]],[[37,3301],[-9,-155]],[[1244,4077],[10,9]],[[389,1975]],[[389,1974]],[[391,1961]],[[392,1960],[-1,0]],[[392,1940],[1,0]],[[393,1939],[-1,0]],[[394,1898],[-1,1]],[[393,1899],[1,0]],[[832,3154]],[[832,3154]],[[957,3446],[-18,-39]],[[957,3447],[14,24]],[[971,3471],[66,50]],[[971,3471]],[[1047,3525],[-10,-4]],[[1047,3525],[68,73]],[[1115,3598],[0,1]],[[1115,3599],[1,-1],[-1,0]],[[1115,3599],[14,25]],[[1130,3624],[10,12]],[[1140,3636],[15,16],[13,18]],[[1168,3670],[-6,-5],[-2,-4],[-20,-25]],[[1140,3636],[-6,-8],[-4,-4]],[[1168,3670],[3,3]],[[1176,3677],[-5,-4]],[[1176,3677],[46,-2]],[[1223,3675],[11,22]],[[1236,3714],[-2,-16]],[[1236,3714],[-1,3]],[[1235,3717],[1,-3]],[[956,3447],[1,0],[0,-1],[-1,0],[0,1]],[[1130,3624],[-1,0]],[[1129,3624],[1,0]],[[1235,3697],[-1,0],[0,1],[1,-1]],[[872,2562],[39,-41]],[[1241,4076],[15,20]],[[1057,2637],[24,49]],[[1081,2686],[10,22]],[[1092,2710],[-11,-24]],[[1081,2686],[-24,-50]],[[1112,2837],[5,2],[3,9]],[[1120,2848],[1,3],[1,2]],[[1122,2853],[1,6],[0,1],[1,3],[0,3]],[[1124,2866],[0,1],[-21,11]],[[1103,2878],[-37,19],[-7,17],[30,161]],[[1091,3079],[-32,-165],[7,-17],[37,-19]],[[1103,2878],[21,-12]],[[1124,2866],[-1,-8],[-1,-5]],[[1122,2853],[-2,-5]],[[1120,2848],[-2,-9]],[[1116,2838],[-2,-1]],[[844,2535],[2,2]],[[847,2537],[-3,-2]],[[796,4082],[-11,14]],[[786,4096],[10,-14]],[[796,4082],[44,-35]],[[840,4047],[220,-194]],[[1060,3853],[-166,167],[-54,27]],[[1060,3853],[77,37]],[[1224,3418],[15,22]],[[1239,3440],[7,10]],[[1238,3440],[1,0]],[[1239,3440],[46,0]],[[1270,3675],[-20,-37]],[[1269,3675],[-3,23]],[[1296,3496],[-6,2]],[[922,3237],[0,41],[6,40],[31,96]],[[922,3278],[0,-41]],[[931,3329],[-1,-2]],[[1037,3522],[9,3]],[[1109,3589],[-1,-1]],[[1109,3589],[-1,0]],[[1109,3590],[0,-1]],[[1109,3590],[0,-1]],[[1139,3566],[-30,23]],[[1109,3589],[30,-22]],[[1173,3533],[-34,33]],[[1140,3566],[33,-32]],[[1230,3741],[1,-5]],[[1140,3566],[-1,0],[1,0]],[[1135,3901],[-1,7]],[[1136,3895],[1,-47]],[[1141,3855],[-3,30]],[[1189,3980],[-51,-53]],[[1189,3991],[2,41]],[[1191,4030],[-1,-5]],[[1250,4083],[-22,-19]],[[1241,4075],[0,1]],[[1268,3493],[-22,30],[-28,-16],[-39,27],[12,74],[59,30]],[[1251,3738],[5,-15]],[[1259,3780],[41,56]],[[1287,3443],[7,43]],[[1300,3848],[27,27],[-12,20]],[[1331,4055],[12,18]],[[1096,3095],[-5,1]],[[1099,3095],[-2,0]],[[1285,3442]],[[71,3705],[95,146]],[[170,3856],[71,108]],[[244,3969],[14,21]],[[997,2539],[19,7]],[[1120,2902],[7,-9]],[[365,2196]],[[993,2456],[12,4]],[[1034,2565],[9,14]],[[1045,2579],[-4,-2]],[[1109,2757],[-7,-6]],[[1106,2978],[-2,-3]],[[1108,2979],[7,-10]],[[1121,2762]],[[1121,2762],[-7,1]],[[1117,2837],[-1,-6]],[[1119,2963],[9,-4]],[[1121,2758],[0,4]],[[1121,2762],[0,1]],[[1121,2762],[1,0]],[[1127,2810],[-3,-4]],[[1133,2937],[-9,-7]],[[1128,2959],[1,0],[-1,0]],[[1129,2953],[-1,6]],[[1177,3320],[-11,-31]],[[1138,3225],[2,1]],[[366,2194],[3,-12]],[[179,3762],[1,2]],[[235,3938],[24,51]],[[112,3748],[48,-16],[19,30]],[[181,3821],[54,117]],[[259,3989],[71,81]],[[330,4070],[30,26]],[[330,4070]],[[939,3407],[-19,-41],[12,-49]],[[1025,2536],[5,27]],[[1051,2626],[2,-1]],[[1127,2893],[8,-8]],[[922,3242],[2,-8]],[[51,2821],[8,-47]],[[62,2858],[-3,-10]],[[81,2746],[63,26],[21,-17],[-14,-151],[120,-69],[9,-107],[-25,-23],[27,-22]],[[892,3160],[78,8]],[[974,3170],[-4,-2]],[[970,3168],[4,2]],[[927,2522],[-16,-2]],[[325,4061],[5,9]],[[330,4070],[-5,-9]],[[1266,3673],[2,3]],[[1298,3829],[0,-3]],[[953,3414],[8,8]],[[962,3421],[-6,-8]],[[986,3458],[19,5]],[[987,3457],[2,1]],[[1004,3462],[-13,-9]],[[992,3454],[0,-1]],[[1047,3493],[9,13]],[[1060,3503],[-13,-10]],[[1222,3675],[1,0]],[[1131,2801],[4,-5]],[[1285,3440],[-1,0],[1,0]],[[1285,3440],[-1,2]],[[17,371],[-2,-9]],[[388,1996],[0,1]],[[392,2013],[-3,-17]],[[393,1899]],[[394,1899],[0,-1]],[[818,3147],[-90,-30],[-143,39],[-33,55],[-98,-28],[-3,-78],[-157,-13]],[[819,3148],[12,6]],[[833,3154],[52,5]],[[892,3160],[-7,-1]],[[892,3160]],[[818,3147],[0,1],[1,0]],[[819,3148],[0,-1],[-1,0]],[[832,3154]],[[1115,2969],[4,-6]],[[1121,2770],[2,4]],[[1121,2771],[1,-3]],[[1122,2781]],[[1125,2791],[10,5]],[[1133,2954],[8,-15]],[[1163,3208],[19,-16],[-21,-13]],[[1164,3290],[-1,0],[-1,2]],[[1163,3291],[1,3]],[[1169,3249],[-6,-39]],[[1165,3292],[-2,-2]],[[1169,3249],[0,1],[1,1],[1,-2],[-2,0]],[[1120,2781],[0,1]],[[1120,2781],[2,0]],[[1129,2953],[4,1]],[[1119,2839]],[[10,399],[-10,11]],[[0,329],[11,12]],[[0,1159],[59,81]],[[11,399],[-1,0]],[[10,399],[1,0]],[[11,399]],[[13,397],[-2,2]],[[12,342],[-1,-1]],[[11,341],[1,1]],[[11,399],[3,-1]],[[12,342],[1,7]],[[12,342]],[[12,342]],[[12,342]],[[13,349],[-1,-7]],[[13,349],[0,1]],[[13,349]],[[13,349]],[[13,349]],[[13,349]],[[13,350],[2,47]],[[13,350],[0,-1]],[[13,397],[1,1]],[[14,398]],[[14,398],[0,-1],[-1,0]],[[15,397],[-1,0]],[[14,398],[1,-1]],[[80,1256],[-21,-16]],[[80,1256],[75,95],[43,-18],[89,42]],[[287,1375],[19,38]],[[306,1413],[38,277]],[[394,1898],[-2,-8],[-7,-80],[-6,-51],[-5,-11],[-25,-47],[-5,-11]],[[344,1690],[3,8],[31,62],[15,139]],[[393,1899],[-5,97]],[[388,2255],[29,51],[135,29],[52,63]],[[388,1997],[7,34]],[[389,1996],[5,-97]],[[398,2093],[1,-1],[-4,-30]],[[395,2062],[3,30]],[[395,2062],[0,-24]],[[395,2038],[0,-7]],[[689,2441],[-53,-3]],[[1250,3737],[16,-39]],[[1259,3780],[-8,-41]],[[1300,3848],[0,-12]],[[1325,4038],[-10,-143]],[[366,2194],[-1,1]],[[365,2195],[1,0]],[[368,2182],[1,0]],[[369,2181]],[[377,2148],[1,1]],[[378,2148],[-1,0]],[[921,2520],[9,4],[16,2],[6,1]],[[952,2527],[45,12]],[[1057,2636],[-11,-38],[-10,-17]],[[1036,2581],[-22,-38],[-28,-5],[-34,-11]],[[952,2527],[-6,-2],[-19,-3]],[[1016,2546],[2,3],[18,32]],[[1036,2581],[9,17],[0,1],[12,38]],[[1089,3075],[-15,45]],[[1075,3121],[16,-42]],[[1091,2708],[21,129]],[[1114,2837],[-22,-127]],[[180,3764],[1,57]],[[108,3750],[3,-1]],[[336,4073],[-6,-3]],[[111,3748],[0,1]],[[111,3749],[1,0],[0,-1],[-1,0]],[[70,3693],[-70,-57]],[[0,3636],[69,57]],[[1331,4055],[-6,-17]],[[1250,4082],[-2,-4]],[[922,3236],[0,1]],[[974,3170],[-52,66]],[[924,3234],[50,-64]],[[844,2535],[-40,-41]],[[0,3354],[37,-53]],[[23,2917],[39,-59]],[[1122,2860],[11,7]],[[1126,2808],[-3,6]],[[1124,2763],[0,1]],[[1127,2810],[1,0]],[[1135,2796],[-4,-4]],[[1134,2872],[3,-5]],[[1177,3320],[-9,1]],[[1130,2792],[1,0]],[[1131,2792],[-1,0]],[[1082,3033],[24,60]],[[1124,2930],[-4,-29]],[[1051,2626],[6,11]],[[1057,2636],[-4,-11]],[[1091,2708],[-2,7]],[[1093,2716],[-1,-6]],[[963,3422],[-3,-8]],[[0,3669],[71,36]],[[395,4096],[-126,-93],[-198,-299],[-71,-36]],[[258,3990],[11,15],[58,52],[67,39]],[[1295,4041],[2,-26]],[[1266,4094],[1,2]],[[1224,3418],[-16,-14]],[[1120,2782],[5,8]],[[1121,2762],[3,1]],[[1123,2773],[-1,8]],[[1124,2764],[-2,4]],[[1128,2810]],[[1131,2801],[0,1]],[[1131,2814],[5,-11]],[[1253,4085],[-3,-2]],[[282,2383],[-21,-4],[33,-19],[4,-101],[51,-48]],[[1248,4078],[13,11]],[[1252,4084],[-2,-2]],[[349,2211],[15,-15]],[[365,2195],[-1,1]],[[364,2196],[1,-1]],[[1008,3158],[-13,5]],[[995,3164],[21,-7]],[[389,1996],[-1,0]],[[388,1997],[1,0]],[[604,2398],[10,15]],[[1249,3638],[-2,-6],[-56,-24],[-17,-70]],[[1181,3533],[37,-28],[6,-87]],[[1208,3404],[10,100],[-45,29],[2,18],[16,57],[58,30]],[[1249,3638],[1,7]],[[1250,3645],[-1,-7]],[[1255,3674],[-5,-29]],[[1249,3638]],[[1249,3638],[1,0],[-1,0]],[[1136,2938],[5,1]],[[59,2848],[-8,-27]],[[59,2774],[22,-28]],[[1208,3404],[-40,-83]],[[1030,2563],[1,1]],[[1040,2581],[5,-2]],[[1083,3034],[21,-59]],[[1155,3270],[-3,-129],[-46,-58]],[[1108,2979],[-2,-1]],[[1109,2757],[12,1]],[[1117,2839],[2,0]],[[1118,2880],[7,-14],[-1,-8],[-8,-20],[1,-1]],[[1117,2834],[6,-20]],[[1137,2867],[-4,0]],[[1135,2885],[0,-14]],[[1163,3290],[-8,-20]],[[1155,3270],[14,-21]],[[1161,3180],[-3,-27]],[[1343,4073],[6,9]],[[1091,3096],[5,0]],[[1097,3096],[1,0]],[[1106,3093],[-7,2]],[[1099,3095],[7,-1]],[[1121,3099],[-15,-6]],[[1106,3093],[14,6]],[[1120,3100],[31,40],[-13,69],[16,55]],[[1154,3264],[5,17],[5,11],[22,93],[22,19]],[[1168,3321],[-14,-52],[0,-5]],[[1154,3264],[-2,-124],[-31,-41]],[[1121,3099]],[[1121,3099],[-1,0]],[[1120,3099],[0,1]],[[1120,3100],[1,-1]],[[1091,3096],[-1,0],[1,0]],[[1096,3096],[1,0],[-1,-1],[0,1]],[[1106,3094],[1,-1],[-1,0]],[[1106,3093],[0,1]],[[614,2413],[29,31]],[[804,2494],[-111,-45],[-19,-2],[-31,-3]],[[643,2444],[162,50],[39,41]],[[846,2537],[75,-17]],[[911,2520],[-64,17]],[[1134,3908],[1,0]],[[1135,3908],[54,58],[0,14]],[[1189,3980],[0,11]],[[1138,3885],[-1,10],[-1,4]],[[1136,3899],[-1,2]],[[1138,3927],[-5,-5],[2,-14]],[[1135,3908],[1,-9]],[[1136,3899],[0,-4]],[[1190,4025],[9,-35],[-10,-10]],[[1189,3980]],[[1228,4064],[-29,-26]],[[1199,4038],[-8,-8]],[[1191,4032],[8,6]],[[1199,4038],[33,23],[9,14]],[[1118,2839],[-2,-1]],[[974,3170],[3,-1],[18,-5]],[[995,3163],[-21,7]],[[1173,3534],[1,0]],[[1174,3534],[7,-1]],[[1174,3538],[0,-4]],[[1174,3534],[-1,-1]],[[1225,3733],[4,7]],[[1229,3740],[5,11]],[[1255,3674],[0,39],[-26,27]],[[1231,3736],[4,-19]],[[1288,3989],[0,1]],[[1290,3990],[-2,0]],[[1288,3990],[2,1]],[[1290,3991],[1,1],[-1,-1]],[[1290,3991],[0,-1]],[[1290,3990],[0,1]],[[1124,2806],[5,-4]],[[1130,2801],[-1,1]],[[1129,2802],[1,0]],[[1130,2801],[1,0],[-1,0]],[[1130,2801],[0,1],[0,-1]],[[1366,4096],[-37,-83],[9,-117],[-58,-157],[-15,-153],[46,-127],[-61,-55],[-31,-100],[-41,-54],[-53,14],[35,67],[-18,33],[-37,10],[-20,-1],[-18,-11],[-99,-122],[14,-32],[18,-14],[24,-3],[63,1],[38,-29],[80,-79],[43,-32],[58,-8],[-98,-13],[-38,-70],[-66,-444],[-41,-109],[-67,-45],[-91,-42],[-76,-181],[-72,-42],[-5,-15],[35,-34],[44,-34],[27,-16],[44,-14],[-5,-30],[-37,-26],[-53,-3],[24,-35],[64,-27],[33,-35],[-22,-26],[22,-24],[-32,-97],[58,-60],[91,-31],[70,-8],[10,-24],[-33,-115],[3,-83],[-34,-48],[-75,-70],[-25,40],[-37,36],[-23,38],[16,44],[27,56],[-34,77],[18,49],[-58,27],[-54,-11],[-51,-25],[-104,-31],[-25,-46],[-28,-130],[57,-14],[13,-47],[-2,-59],[9,-39],[2,-13],[48,-39],[47,12],[45,25],[41,2],[10,-31],[-2,-57],[-12,-61],[-17,-45],[-24,-16],[-26,3],[-21,6],[-9,-6],[-10,-15],[-23,-18],[-26,-17],[-21,-10],[-59,83],[-137,-12],[-71,-28],[-79,-32],[-93,-62],[-17,-27],[-13,-59],[-11,-35],[-16,-26],[-33,-33],[-68,-90],[-31,-57],[-13,-66],[1,-92],[10,-51],[10,-17],[1,-13],[-21,-40],[-47,-39],[0,3864],[1366,0]],[[373,2626],[48,69],[58,10],[48,92],[2,39],[-38,-34],[-43,13],[-26,-21],[-12,73],[73,20],[-9,41],[-31,3],[4,70],[82,-20],[37,43],[120,-111],[-3,-59],[-74,-101],[-15,-62],[-36,26],[-125,-97],[-60,6]],[[495,2892],[8,-30],[33,-7],[6,33],[35,4],[10,55],[-56,10],[-36,-65]],[[518,2748],[20,-3],[-8,28],[-6,-19],[-6,-6]],[[419,2652],[34,-5],[21,48],[-49,-3],[-6,-40]],[[59,2768],[94,106],[49,-5],[16,72],[-16,64],[59,-88],[4,71],[36,3],[-12,-77],[-27,5],[27,-6],[-7,-45],[-65,1],[-15,-102],[2,45],[-33,24],[-49,-20],[-44,-72],[-19,24]],[[0,3995],[0,46],[33,-25],[-4,-27],[-29,6]],[[0,3907],[0,34],[48,-19],[-48,-15]],[[0,4096],[80,0],[-13,-87],[-67,47],[0,40]],[[0,662],[0,17],[48,-9],[-8,-46],[5,18],[30,12],[-60,-92],[-15,0],[0,73],[22,-6],[-22,10],[0,21],[2,4],[8,2],[-1,6],[-9,-10]],[[154,1566],[38,81],[9,-27],[6,32],[100,-29],[-30,-16],[-6,-39],[-113,-32],[-4,30]],[[0,1535],[0,22],[19,21],[39,-7],[8,51],[-50,20],[48,83],[69,-5],[-62,-196],[-71,11]],[[128,3551],[6,78],[43,43],[4,152],[87,125],[2,54],[128,93],[196,0],[16,-82],[-83,18],[2,-56],[-80,-73],[44,22],[-8,-48],[22,19],[-4,-33],[18,13],[-45,-61],[48,-173],[-9,-211],[-51,-2],[29,-51],[-79,13],[-2,65],[-9,31],[7,-95],[-128,21],[6,54],[18,-6],[-5,17],[17,3],[1,10],[-48,-18],[-11,60],[98,39],[-90,-26],[-11,-12],[-3,-32],[-5,82],[-97,1],[-4,-38],[-20,4]],[[278,3842],[19,-28],[13,61],[30,5],[33,-30],[-23,-28],[15,-51],[-19,-4],[-2,-5],[24,-68],[11,144],[45,-39],[19,10],[-62,35],[-22,40],[37,20],[-29,31],[33,54],[34,-25],[28,52],[-38,-11],[-16,23],[-18,-27],[-14,50],[10,-66],[-53,26],[53,-39],[-47,-28],[22,-47],[-38,-19],[-38,15],[20,-33],[-27,-18]],[[0,2377],[0,44],[3,2],[15,-38],[-18,-8]],[[0,1416],[0,104],[16,-1],[6,-24],[36,29],[19,-36],[46,-15],[-27,-35],[10,-48],[-30,19],[7,32],[-24,-41],[-32,33],[9,-46],[-27,31],[-9,-2]],[[646,2623],[64,99],[-56,3],[14,86],[36,9],[33,-38],[73,-1],[67,-44],[-68,-20],[-5,-30],[-26,13],[-1,-81],[-71,49],[-28,-51],[-32,6]],[[67,3981],[16,26],[54,3],[-31,6],[21,18],[126,-44],[-11,-27],[-33,6],[11,-32],[-54,-62],[7,-30],[-31,25],[-58,-9],[47,39],[-31,5],[-33,76]],[[712,2039],[34,-13],[52,50],[-1,52],[52,-139],[-57,-7],[-80,57]],[[752,1663],[8,46],[2,1],[-45,2],[-14,53],[46,-11],[-3,-23],[4,23],[-47,15],[29,44],[100,-21],[4,6],[-30,26],[-3,19],[32,-7],[2,29],[65,-13],[-25,-93],[-125,-29],[70,10],[-26,-16],[43,19],[53,-19],[36,-62],[7,-19],[-24,-17],[-7,2],[22,34],[-9,5],[-34,0],[-2,48],[1,-48],[38,-8],[-30,-29],[-69,48],[-63,-25],[12,10],[6,16],[-1,4],[-5,6],[-4,1],[-14,-27]],[[641,1011],[55,84],[6,99],[29,-38],[55,-9],[42,45],[33,1],[-28,-163],[-50,-33],[-38,26],[-87,-99],[3,82],[-20,5]],[[358,1021],[30,11],[12,51],[-35,42],[116,-18],[80,110],[114,-18],[-53,-75],[-4,-80],[-124,4],[-127,-64],[-9,37]],[[0,1916],[24,37],[41,12],[13,-29],[28,4],[-20,-97],[-58,-34],[-17,-55],[-11,1],[0,161]],[[960,1502],[11,40],[106,-11],[-21,-41],[36,-34],[-29,-77],[-52,13],[-51,110]],[[387,2039],[-42,14],[-7,35],[17,189],[52,-34],[9,-60],[-29,-144]],[[1000,3194],[87,-2],[48,-39],[-107,-57],[-45,3],[17,95]],[[1280,3739],[-15,-153],[46,-127],[-66,-71],[-159,68],[-181,-60],[-33,24],[-3,22],[35,18],[0,79],[65,0],[0,40],[33,0],[32,78],[65,39],[32,159],[97,78],[33,153],[94,-14],[-26,-59],[9,-117],[-58,-157]],[[146,3574],[69,-3],[70,-104],[-7,-53],[-69,33],[-22,92],[-36,7],[-5,28]],[[703,4096],[-15,-114],[-35,-3],[-41,35],[-17,82],[108,0]],[[0,927],[0,232],[61,83],[70,-47],[-9,-48],[26,-13],[-16,-11],[-8,-11],[-3,-8],[-11,-8],[-13,-22],[-19,1],[0,-17],[24,-3],[46,73],[28,-85],[16,-22],[26,1],[-3,35],[-38,-14],[-29,99],[77,-14],[-8,-51],[83,-14],[-8,-50],[28,10],[-19,-21],[-33,23],[-6,-42],[-48,31],[25,-99],[-57,-96],[-25,-4],[16,-51],[-115,43],[35,57],[-66,53],[-27,10]],[[0,3519],[176,189],[5,116],[78,165],[137,107],[870,0],[-75,-63],[-2,-67],[-57,-43],[11,-66],[-48,-83],[-97,-50],[-85,-109],[-78,0],[-96,-181],[-42,-13],[-6,-95],[-76,-64],[-59,7],[-83,-80],[-32,12],[8,43],[-50,84],[-89,-13],[-118,55],[-142,-38],[30,107],[-27,47],[-53,25],[0,8]],[[0,3423],[0,23],[18,-2],[-18,-21]],[[0,2873],[0,24],[33,-4],[28,-36],[-30,-110],[9,-72],[-40,11],[0,186],[9,12],[-9,-11]],[[0,2667],[0,8],[16,0],[43,-34],[-20,91],[16,46],[27,-23],[-4,-37],[47,-18],[-43,-4],[-21,-60],[-41,31],[-20,0]],[[55,2677],[10,-2],[2,17],[-12,-15]]]}