{"objects":{"water":{"type":"GeometryCollection","geometries":[{"type":"MultiPolygon","properties":{"source":"naturalearthdata.com","kind":"lake","reservoir":true,"area":1410372352,"sort_rank":200,"min_zoom":0.0,"id":1056},"arcs":[[[657]],[[658]]]},{"type":"Polygon","properties":{"kind":"lake","name":"Tsimlyansk Reservoir","reservoir":true,"area":6872358912,"sort_rank":200,"source":"naturalearthdata.com","min_zoom":0.0,"id":1241},"arcs":[[659]]},{"type":"MultiLineString","properties":{"source":"naturalearthdata.com","kind":"lake","reservoir":true,"sort_rank":367,"boundary":true,"min_zoom":0.0,"id":1056},"arcs":[[660],[661]]},{"type":"MultiLineString","properties":{"source":"naturalearthdata.com","kind":"lake","reservoir":true,"sort_rank":367,"boundary":true,"min_zoom":0.0,"id":1241},"arcs":[[662],[663],[664]]}]},"buildings":{"type":"GeometryCollection","geometries":[]},"places":{"type":"GeometryCollection","geometries":[{"type":"Point","properties":{"source":"naturalearthdata.com","kind":"locality","name":"Moscow","country_capital":true,"population":10452000,"min_zoom":2.0,"id":7270},"coordinates":[1407,4083]},{"type":"Point","properties":{"name:pt":"Oblast de Voronej","name:nl":"Oblast Voronezj","name:ja":"\u30f4\u30a9\u30ed\u30cd\u30b8\u5dde","name:lt":"Vorone\u017eo sritis","kind":"region","name:tt":"\u0412\u043e\u0440\u043e\u043d\u0435\u0436 \u04e9\u043b\u043a\u04d9\u0441\u0435","min_zoom":4.0,"name:it":"Oblast' di Vorone\u017e","name:uk":"\u0412\u043e\u0440\u043e\u043d\u0435\u0437\u044c\u043a\u0430 \u043e\u0431\u043b\u0430\u0441\u0442\u044c","name:be":"\u0412\u0430\u0440\u043e\u043d\u0435\u0436\u0441\u043a\u0430\u044f \u0432\u043e\u0431\u043b\u0430\u0441\u0446\u044c","name:sv":"Voronezj oblast","name:pl":"Obw\u00f3d woroneski","name:hu":"Voronyezsi ter\u00fclet","id":648753998,"population":2328959,"name:eo":"Vorone\u0135a Provinco","name:en":"Voronezh Oblast","name":"\u0412\u043e\u0440\u043e\u043d\u0435\u0436\u0441\u043a\u0430\u044f \u043e\u0431\u043b\u0430\u0441\u0442\u044c","kind_detail":"state","name:de":"Oblast Woronesch","source":"openstreetmap.org","name:fr":"Oblast de Voronej","name:zh":"\u6c83\u7f57\u6d85\u65e5\u5dde","name:es":"\u00d3blast de Vor\u00f3nezh"},"coordinates":[2330,1230]},{"type":"Point","properties":{"name:pt":"Oblast de Moscou","name:cy":"Oblast Moscfa","name:ko":"\ubaa8\uc2a4\ud06c\ubc14 \uc8fc","name:cv":"\u041c\u0443\u0441\u043a\u0430\u0432 \u043e\u0431\u043b\u0430\u00e7\u0115","name:cu":"\u041c\u043e\u0441\u043a\u044a\u0432\u044c\u0441\u043a\u0430 \u043e\u0431\u043b\u0430\u0441\u0442\u044c","name:cs":"Moskevsk\u00e1 oblast","name:tt":"\u041c\u04d9\u0441\u043a\u04d9\u04af \u04e9\u043b\u043a\u04d9\u0441\u0435","name:kv":"\u041c\u04e7\u0441\u043a\u0443\u0430 \u043e\u0431\u043b\u0430\u0441\u044c\u0442","min_zoom":4.0,"name:ro":"Regiunea Moscova","name:tl":"Moscow Oblast","name:sv":"Moskva oblast","name:os":"\u041c\u00e6\u0441\u043a\u0443\u044b\u0439\u044b \u043e\u0431\u043b\u00e6\u0441\u0442","name:ce":"\u041c\u043e\u0441\u043a\u0432\u0430\u043d \u043e\u0431\u043b\u0430\u0441\u0442\u044c","name:ta":"\u0bae\u0bbe\u0bb8\u0bcd\u0b95\u0bcb \u0b93\u0baa\u0bcd\u0bb2\u0bb8\u0bcd\u0ba4\u0bc1","name:tg":"\u0412\u0438\u043b\u043e\u044f\u0442\u0438 \u041c\u0430\u0441\u043a\u0430\u0432","name:ky":"\u041c\u043e\u0441\u043a\u0432\u0430 \u043e\u0431\u043b\u0430\u0441\u0442\u044b","name:ka":"\u10db\u10dd\u10e1\u10d9\u10dd\u10d5\u10d8\u10e1 \u10dd\u10da\u10e5\u10d8","name:da":"Moskva oblast","name:de":"Oblast Moskau","source":"openstreetmap.org","name:ba":"\u041c\u04d9\u0441\u043a\u04d9\u04af \u04e9\u043b\u043a\u04d9\u04bb\u0435","name:lv":"Maskavas apgabals","name:tr":"Moskova Oblast\u0131","name:uz":"Moskva viloyati","name:he":"\u05de\u05d5\u05e1\u05e7\u05d1\u05d4 (\u05de\u05d7\u05d5\u05d6)","kind":"region","name:ur":"\u0645\u0627\u0633\u06a9\u0648 \u0627\u0648\u0628\u0644\u0627\u0633\u062a","name:la":"Regio Moscuensis","name:uk":"\u041c\u043e\u0441\u043a\u043e\u0432\u0441\u044c\u043a\u0430 \u043e\u0431\u043b\u0430\u0441\u0442\u044c","name:hy":"\u0544\u0578\u057d\u056f\u057e\u0561\u0575\u056b \u0574\u0561\u0580\u0566","name:hu":"Moszkvai ter\u00fclet","name:hr":"Moskovska oblast","name:el":"\u03a0\u03b5\u03c1\u03b9\u03c6\u03ad\u03c1\u03b5\u03b9\u03b1 \u039c\u03cc\u03c3\u03c7\u03b1\u03c2","name:eo":"Moskva Provinco","name:en":"Moscow Oblast","name":"\u041c\u043e\u0441\u043a\u043e\u0432\u0441\u043a\u0430\u044f \u043e\u0431\u043b\u0430\u0441\u0442\u044c","name:eu":"Moskuko oblasta","name:et":"Moskva oblast","name:nl":"Oblast Moskou","name:es":"\u00d3blast de Mosc\u00fa","name:az":"Moskva vilay\u0259ti","name:id":"Oblast Moskwa","name:ms":"Wilayah Moscow","name:mr":"\u092e\u0949\u0938\u094d\u0915\u094b \u0913\u092c\u094d\u0932\u093e\u0938\u094d\u0924","name:ar":"\u0645\u062d\u0627\u0641\u0638\u0629 \u0645\u0648\u0633\u0643\u0648","name:it":"Oblast' di Mosca","name:vi":"Moskva (t\u1ec9nh)","name:mn":"\u041c\u043e\u0441\u043a\u0432\u0430 \u043c\u0443\u0436","name:pl":"Obw\u00f3d moskiewski","name:mk":"\u041c\u043e\u0441\u043a\u043e\u0432\u0441\u043a\u0430 \u043e\u0431\u043b\u0430\u0441\u0442","name:af":"Moskou-oblast","name:fa":"\u0627\u0633\u062a\u0627\u0646 \u0645\u0633\u06a9\u0648","name:lt":"Maskvos sritis","kind_detail":"state","id":658312593,"name:fr":"Oblast de Moscou","name:ca":"Prov\u00edncia de Moscou","name:zh":"\u83ab\u65af\u79d1\u5dde","name:sl":"Moskovska oblast","name:sk":"Moskovsk\u00e1 oblas\u0165","name:ja":"\u30e2\u30b9\u30af\u30ef\u5dde","name:nn":"Moskva oblast","name:no":"Moskva oblast","name:se":"Moskva oblast","name:br":"Oblast Moskov","name:bs":"Moskovska oblast","name:sw":"Moscow Oblast","name:be":"\u041c\u0430\u0441\u043a\u043e\u045e\u0441\u043a\u0430\u044f \u0432\u043e\u0431\u043b\u0430\u0441\u0446\u044c","name:bg":"\u041c\u043e\u0441\u043a\u043e\u0432\u0441\u043a\u0430 \u043e\u0431\u043b\u0430\u0441\u0442","name:sr":"\u041c\u043e\u0441\u043a\u043e\u0432\u0441\u043a\u0430 \u043e\u0431\u043b\u0430\u0441\u0442","name:ga":"C\u00faige Mhosc\u00f3","name:fi":"Moskovan alue"},"coordinates":[1560,3933]},{"type":"Point","properties":{"name:pt":"Oblast de Kharkiv","name:az":"Kharkiv vilay\u0259ti","name:id":"Oblast Kharkiv","name:ka":"\u10ee\u10d0\u10e0\u10d9\u10dd\u10d5\u10d8\u10e1 \u10dd\u10da\u10e5\u10d8","name:mr":"\u0916\u093e\u0930\u094d\u0915\u0940\u0935\u094d\u0939 \u0913\u092c\u094d\u0932\u093e\u0938\u094d\u0924","name:ko":"\ud558\ub974\ud0a4\uc6b0 \uc8fc","name:cv":"\u0425\u0430\u0440\u043a\u043e\u0432 \u043e\u0431\u043b\u0430\u04ab\u04d7","name:ar":"\u062e\u0627\u0631\u0643\u064a\u0641 \u0623\u0648\u0628\u0644\u0627\u0633\u062a","name:cs":"Charkov oblast","min_zoom":4.0,"name:ro":"Regiunea Kharkiv","name:it":"Oblast' di Kharkiv","name:zh-min-nan":"Kharkiv s\u00e9ng","name:vi":"Kharkiv (t\u1ec9nh)","name:pl":"Obw\u00f3d Charkowa","id":3679338874,"name:ca":"Prov\u00edncia de Kharkiv","name:fa":"\u0627\u0633\u062a\u0627\u0646 \u062e\u0627\u0631\u06a9\u0641","name:bg":"\u0425\u0430\u0440\u043a\u043e\u0432 \u043e\u0431\u043b\u0430\u0441\u0442","name:lt":"Kharkiv sritis","source":"openstreetmap.org","kind_detail":"state","name:sh":"Kharkivska oblast","name:de":"Oblast Kharkiv","name:tr":"Kharkiv Oblast\u0131","name:fr":"Oblast de Kharkiv","name:mk":"\u0425\u0430\u0440\u043a\u043e\u0432 \u043e\u0431\u043b\u0430\u0441\u0442","name:be":"\u0425\u0430\u0440\u043a\u0430\u045e\u0441\u043a\u0430\u044f \u0432\u043e\u0431\u043b\u0430\u0441\u0446\u044c","name:zh":"\u54c8\u723e\u79d1\u592b\u5730\u5dde","name:lv":"Charkovas apgabals","name:ja":"\u30cf\u30ea\u30b3\u30d5\u5dde","name:nn":"Kharkiv oblast","name:no":"Kharkiv oblast","kind":"region","name:sk":"Kharkivsk\u00e1 oblas\u0165","name:hy":"\u053d\u0561\u0580\u056f\u0578\u057e \u0574\u0561\u0580\u0566","name:ru":"\u0425\u0430\u0440\u044c\u043a\u043e\u0432\u0441\u043a\u0430\u044f \u043e\u0431\u043b\u0430\u0441\u0442\u044c","name:sv":"Kharkiv oblast","name:hu":"Kharkiv ter\u00fclet","name:hr":"Kharkivska oblast","name:sr":"\u041a\u0445\u0430\u0440\u043a\u0438\u0432 \u043e\u0431\u043b\u0430\u0441\u0442","name:eo":"\u0124arkiva Provinco","name:en":"Kharkiv Oblast","name":"\u0425\u0430\u0440\u043a\u0456\u0432\u0441\u044c\u043a\u0430 \u043e\u0431\u043b\u0430\u0441\u0442\u044c","name:gl":"Oblast de Kharkiv","name:fi":"Harkova alue","name:eu":"Kharkiv oblasta","name:et":"Kharkiv oblast","name:nl":"Oblast Kharkiv","name:es":"\u00d3blast de Kharkiv"},"coordinates":[957,542]},{"type":"Point","properties":{"kind":"region","name:en":"Sumy Oblast","name":"\u0421\u0443\u043c\u0441\u044c\u043a\u0430 \u043e\u0431\u043b\u0430\u0441\u0442\u044c","kind_detail":"state","name:eo":"Suma Provinco","name:de":"Oblast Sumy","source":"openstreetmap.org","min_zoom":4.0,"name:fr":"Oblast de Soumy","name:be":"\u0421\u0443\u043c\u0441\u043a\u0430\u044f \u0432\u043e\u0431\u043b\u0430\u0441\u0446\u044c","name:ru":"\u0421\u0443\u043c\u0441\u043a\u0430\u044f \u043e\u0431\u043b\u0430\u0441\u0442\u044c","name:pl":"obw\u00f3d sumski","id":681769593,"name:es":"\u00d3blast de Sumy"},"coordinates":[211,1104]},{"type":"Point","properties":{"name:pt":"Moscovo","int_name":"Moscow","name:sk":"Moskva","name:ja":"\u30e2\u30b9\u30af\u30ef\u9023\u90a6\u5e02","name:eo":"Moskvo","min_zoom":4.0,"name:it":"Mosca","name:sv":"Moskva","name:pl":"Moskwa","id":2452912060,"kind":"region","name:en":"Moscow","name":"\u041c\u043e\u0441\u043a\u0432\u0430","kind_detail":"state","name:de":"Moskau","source":"openstreetmap.org","name:fr":"Moscou","name:nl":"Moskou","name:es":"Mosc\u00fa"},"coordinates":[1302,3918]},{"type":"Point","properties":{"admin_level":"4","int_name":"Republic of Mordovia","name:ja":"\u30e2\u30eb\u30c9\u30f4\u30a3\u30a2\u5171\u548c\u56fd","name:lt":"Mordvijos Respublika","name:cs":"Mordvinsko","min_zoom":4.0,"name:pl":"Republika Mordowii","id":4418300334,"name:ca":"Mord\u00f2via","kind":"region","name:en":"Republic of Mordovia","name":"\u041c\u043e\u0440\u0434\u043e\u0432\u0438\u044f","kind_detail":"state","name:de":"Republik Mordwinien","source":"openstreetmap.org","name:fr":"R\u00e9publique de Mordovie"},"coordinates":[3902,3298]},{"type":"Point","properties":{"int_name":"Ryazan Oblast","name:sk":"Riazansk\u00e1 oblas\u0165","name:ja":"\u30ea\u30e3\u30b6\u30f3\u5dde","name:lt":"Riazan\u0117s sritis","kind":"region","name:tt":"\u0420\u044f\u0437\u0430\u043d\u044c \u04e9\u043b\u043a\u04d9\u0441\u0435","min_zoom":4.0,"name:uk":"\u0420\u044f\u0437\u0430\u043d\u0441\u044c\u043a\u0430 \u043e\u0431\u043b\u0430\u0441\u0442\u044c","name:be":"\u0420\u0430\u0437\u0430\u043d\u0441\u043a\u0430\u044f \u0432\u043e\u0431\u043b\u0430\u0441\u0446\u044c","name:pl":"Obw\u00f3d riaza\u0144ski","name:hu":"Rjazanyi ter\u00fclet","name:hr":"Rjazanjska oblast","id":505006802,"name:eo":"Rjazanja Provinco","name:en":"Ryazan region","name":"\u0420\u044f\u0437\u0430\u043d\u0441\u043a\u0430\u044f \u043e\u0431\u043b\u0430\u0441\u0442\u044c","kind_detail":"state","name:de":"Oblast Rjasan","source":"openstreetmap.org","name:fr":"Oblast de Riazan","name:es":"\u00d3blast de Riaz\u00e1n"},"coordinates":[2483,3287]},{"type":"Point","properties":{"name:ja":"\u30ea\u30da\u30c4\u30af\u5dde","name:lt":"Lipecko sritis","name:eo":"Lipecka Provinco","name:tt":"\u041b\u0438\u043f\u0435\u0446\u043a \u04e9\u043b\u043a\u04d9\u0441\u0435","min_zoom":4.0,"name:uk":"\u041b\u0438\u043f\u0435\u0446\u044c\u043a\u0430 \u043e\u0431\u043b\u0430\u0441\u0442\u044c","name:be":"\u041b\u0456\u043f\u0435\u0446\u043a\u0430\u044f \u0432\u043e\u0431\u043b\u0430\u0441\u0446\u044c","name:pl":"Obw\u00f3d lipiecki","id":648753997,"kind":"region","name:en":"Lipetsk Oblast","name":"\u041b\u0438\u043f\u0435\u0446\u043a\u0430\u044f \u043e\u0431\u043b\u0430\u0441\u0442\u044c","kind_detail":"state","name:de":"Oblast Lipezk","source":"openstreetmap.org","name:fr":"Oblast de Lipetsk","name:es":"\u00d3blast de L\u00edpetsk"},"coordinates":[1952,2254]},{"type":"Point","properties":{"name:ja":"\u30bf\u30f3\u30dc\u30d5\u5dde","name:lt":"Tambovo sritis","name:eo":"Tambova Provinco","name:tt":"\u0422\u0430\u043c\u0431\u043e\u0432 \u04e9\u043b\u043a\u04d9\u0441\u0435","min_zoom":4.0,"name:uk":"\u0422\u0430\u043c\u0431\u043e\u0432\u0441\u044c\u043a\u0430 \u043e\u0431\u043b\u0430\u0441\u0442\u044c","name:be":"\u0422\u0430\u043c\u0431\u043e\u045e\u0441\u043a\u0430\u044f \u0432\u043e\u0431\u043b\u0430\u0441\u0446\u044c","name:pl":"Obw\u00f3d tambowski","name:hu":"Tambovi ter\u00fclet","id":648753999,"kind":"region","name:en":"Tambov Oblast","name":"\u0422\u0430\u043c\u0431\u043e\u0432\u0441\u043a\u0430\u044f \u043e\u0431\u043b\u0430\u0441\u0442\u044c","kind_detail":"state","name:de":"Oblast Tambow","source":"openstreetmap.org","name:fr":"Oblast de Tambov","name:es":"\u00d3blast de Tambov"},"coordinates":[2770,2378]},{"type":"Point","properties":{"name:ja":"\u30da\u30f3\u30b6\u5dde","name:lt":"Penzos sritis","name:eo":"Penza Provinco","name:tt":"\u041f\u0435\u043d\u0437\u0430 \u04e9\u043b\u043a\u04d9\u0441\u0435","min_zoom":4.0,"name:uk":"\u041f\u0435\u043d\u0437\u0435\u043d\u0441\u044c\u043a\u0430 \u043e\u0431\u043b\u0430\u0441\u0442\u044c","name:be":"\u041f\u0435\u043d\u0437\u0435\u043d\u0441\u043a\u0430\u044f \u0432\u043e\u0431\u043b\u0430\u0441\u0446\u044c","name:pl":"Obw\u00f3d penze\u0144ski","name:hu":"Penzai ter\u00fclet","id":771205162,"kind":"region","name:en":"Penza Oblast","name":"\u041f\u0435\u043d\u0437\u0435\u043d\u0441\u043a\u0430\u044f \u043e\u0431\u043b\u0430\u0441\u0442\u044c","kind_detail":"state","name:de":"Oblast Pensa","source":"openstreetmap.org","name:fr":"Oblast de Penza","name:es":"\u00d3blast de Penza"},"coordinates":[4019,2536]},{"type":"Point","properties":{"name:lt":"Volgogrado sritis","name:eo":"Volgograda Provinco","name:tt":"\u0412\u043e\u043b\u0433\u043e\u0433\u0440\u0430\u0434 \u04e9\u043b\u043a\u04d9\u0441\u0435","min_zoom":4.0,"name:uk":"\u0412\u043e\u043b\u0433\u043e\u0433\u0440\u0430\u0434\u0441\u044c\u043a\u0430 \u043e\u0431\u043b\u0430\u0441\u0442\u044c","name:be":"\u0412\u0430\u043b\u0433\u0430\u0433\u0440\u0430\u0434\u0441\u043a\u0430\u044f \u0432\u043e\u0431\u043b\u0430\u0441\u0446\u044c","name:pl":"Obw\u00f3d wo\u0142gogradzki","name:hu":"Volgogr\u00e1di ter\u00fclet","id":786882071,"kind":"region","name:en":"Volgograd Oblast","name":"\u0412\u043e\u043b\u0433\u043e\u0433\u0440\u0430\u0434\u0441\u043a\u0430\u044f \u043e\u0431\u043b\u0430\u0441\u0442\u044c","kind_detail":"state","name:de":"Oblast Wolgograd","source":"openstreetmap.org","name:fr":"Oblast de Volgograd","name:zh":"\u4f0f\u5c14\u52a0\u683c\u52d2\u5dde","name:es":"\u00d3blast de Volgogrado"},"coordinates":[3838,408]},{"type":"Point","properties":{"name:ba":"\u041c\u043e\u0440\u0434\u043e\u0432\u0438\u044f \u0420\u0435\u0441\u043f\u0443\u0431\u043b\u0438\u043a\u0430\u04bb\u044b","int_name":"Mordovia","name:ja":"\u30e2\u30eb\u30c9\u30f4\u30a3\u30a2\u5171\u548c\u56fd","name:lt":"Mordvija","name:eo":"Mordvio","official_name":"\u0420\u0435\u0441\u043f\u0443\u0431\u043b\u0438\u043a\u0430 \u041c\u043e\u0440\u0434\u043e\u0432\u0438\u044f","min_zoom":4.0,"name:uk":"\u041c\u043e\u0440\u0434\u043e\u0432\u0456\u044f","name:be":"\u041c\u0430\u0440\u0434\u043e\u0432\u0456\u044f","name:pl":"Mordowia","name:hu":"Mordvinf\u00f6ld","id":869508901,"kind":"region","name:en":"Mordovia","name":"\u041c\u043e\u0440\u0434\u043e\u0432\u0438\u044f","kind_detail":"state","name:de":"Republik Mordwinien","source":"openstreetmap.org","name:fr":"Mordovie","name:es":"Mordovia"},"coordinates":[4013,3236]},{"type":"Point","properties":{"name:pt":"Oblast de Lugansk","name:cs":"Luhansk\u00e1 oblast","name:eo":"Luhanska Provinco","min_zoom":4.0,"name:be":"\u041b\u0443\u0433\u0430\u043d\u0441\u043a\u0430\u044f \u0432\u043e\u0431\u043b\u0430\u0441\u0446\u044c","name:ru":"\u041b\u0443\u0433\u0430\u043d\u0441\u043a\u0430\u044f \u043e\u0431\u043b\u0430\u0441\u0442\u044c","name:pl":"obw\u00f3d \u0142uga\u0144ski","id":683681613,"kind":"region","name:en":"Lugansk Oblast","name":"\u041b\u0443\u0433\u0430\u043d\u0441\u044c\u043a\u0430 \u043e\u0431\u043b\u0430\u0441\u0442\u044c","kind_detail":"state","name:de":"Oblast Luhansk","source":"openstreetmap.org","name:fr":"Oblast de Louhansk","name:zh":"\u5362\u7518\u65af\u514b\u5dde","name:es":"\u00d3blast de Lugansk"},"coordinates":[1881,209]},{"type":"Point","properties":{"name:lt":"Belgorodo sritis","name:eo":"Belgoroda Provinco","name:tt":"\u0411\u0435\u043b\u0433\u043e\u0440\u043e\u0434 \u04e9\u043b\u043a\u04d9\u0441\u0435","min_zoom":4.0,"name:uk":"\u0411\u0454\u043b\u0433\u043e\u0440\u043e\u0434\u0441\u044c\u043a\u0430 \u043e\u0431\u043b\u0430\u0441\u0442\u044c","name:be":"\u0411\u0435\u043b\u0433\u0430\u0440\u043e\u0434\u0441\u043a\u0430\u044f \u0432\u043e\u0431\u043b\u0430\u0441\u0446\u044c","name:pl":"Obw\u00f3d bie\u0142gorodzki","id":792588864,"kind":"region","name:en":"Belgorod Oblast","name":"\u0411\u0435\u043b\u0433\u043e\u0440\u043e\u0434\u0441\u043a\u0430\u044f \u043e\u0431\u043b\u0430\u0441\u0442\u044c","kind_detail":"state","name:de":"Oblast Belgorod","source":"openstreetmap.org","name:fr":"Oblast de Belgorod","name:es":"\u00d3blast de B\u00e9lgorod"},"coordinates":[1396,1067]},{"type":"Point","properties":{"name:ja":"\u30aa\u30ea\u30e7\u30fc\u30eb\u5dde","name:lt":"Oriolo sritis","name:eo":"Orjola Provinco","name:tt":"\u041e\u0440\u0435\u043b \u04e9\u043b\u043a\u04d9\u0441\u0435","min_zoom":4.0,"name:uk":"\u041e\u0440\u043b\u043e\u0432\u0441\u044c\u043a\u0430 \u043e\u0431\u043b\u0430\u0441\u0442\u044c","name:be":"\u0410\u0440\u043b\u043e\u045e\u0441\u043a\u0430\u044f \u0432\u043e\u0431\u043b\u0430\u0441\u0446\u044c","name:pl":"Obw\u00f3d or\u0142owski","id":778568487,"kind":"region","name:en":"Oryol Oblast","name":"\u041e\u0440\u043b\u043e\u0432\u0441\u043a\u0430\u044f \u043e\u0431\u043b\u0430\u0441\u0442\u044c","kind_detail":"state","name:de":"Oblast Orjol","source":"openstreetmap.org","name:fr":"Oblast d'Orel","name:es":"\u00d3blast de Oriol"},"coordinates":[974,2341]},{"type":"Point","properties":{"name:ja":"\u30af\u30eb\u30b9\u30af\u5dde","name:lt":"Kursko sritis","name:eo":"Kurska Provinco","name:tt":"\u041a\u0443\u0440\u0441\u043a \u04e9\u043b\u043a\u04d9\u0441\u0435","min_zoom":4.0,"name:uk":"\u041a\u0443\u0440\u0441\u044c\u043a\u0430 \u043e\u0431\u043b\u0430\u0441\u0442\u044c","name:be":"\u041a\u0443\u0440\u0441\u043a\u0430\u044f \u0432\u043e\u0431\u043b\u0430\u0441\u0446\u044c","name:pl":"Obw\u00f3d kurski","id":792588865,"kind":"region","name:en":"Kursk Oblast","name":"\u041a\u0443\u0440\u0441\u043a\u0430\u044f \u043e\u0431\u043b\u0430\u0441\u0442\u044c","kind_detail":"state","name:de":"Oblast Kursk","source":"openstreetmap.org","name:fr":"Oblast de Koursk","name:es":"\u00d3blast de Kursk"},"coordinates":[996,1634]},{"type":"Point","properties":{"name:ja":"\u30ab\u30eb\u30fc\u30ac\u5dde","name:lt":"Kalugos sritis","name:eo":"Kaluga Provinco","min_zoom":4.0,"name:uk":"\u041a\u0430\u043b\u0443\u0437\u044c\u043a\u0430 \u043e\u0431\u043b\u0430\u0441\u0442\u044c","name:be":"\u041a\u0430\u043b\u0443\u0436\u0441\u043a\u0430\u044f \u0432\u043e\u0431\u043b\u0430\u0441\u0446\u044c","name:pl":"Obw\u00f3d ka\u0142uski","id":867080411,"kind":"region","name:en":"Kaluga Oblast","name":"\u041a\u0430\u043b\u0443\u0436\u0441\u043a\u0430\u044f \u043e\u0431\u043b\u0430\u0441\u0442\u044c","kind_detail":"state","name:de":"Oblast Kaluga","source":"openstreetmap.org","name:fr":"Oblast de Kalouga","name:es":"\u00d3blast de Kaluga"},"coordinates":[647,3296]},{"type":"Point","properties":{"name:ja":"\u30c8\u30a5\u30fc\u30e9\u5dde","name:lt":"Tulos sritis","name:eo":"Tula Provinco","min_zoom":4.0,"name:uk":"\u0422\u0443\u043b\u044c\u0441\u044c\u043a\u0430 \u043e\u0431\u043b\u0430\u0441\u0442\u044c","name:be":"\u0422\u0443\u043b\u044c\u0441\u043a\u0430\u044f \u0432\u043e\u0431\u043b\u0430\u0441\u0446\u044c","name:pl":"Obw\u00f3d tulski","id":867084499,"kind":"region","name:en":"Tula Oblast","name":"\u0422\u0443\u043b\u044c\u0441\u043a\u0430\u044f \u043e\u0431\u043b\u0430\u0441\u0442\u044c","kind_detail":"state","name:de":"Oblast Tula","source":"openstreetmap.org","name:fr":"Oblast de Toula","name:es":"\u00d3blast de Tula"},"coordinates":[1318,3009]},{"type":"Point","properties":{"source":"naturalearthdata.com","kind":"locality","name":"Kharkiv","population":1461000,"region_capital":true,"min_zoom":5.0,"id":6269},"coordinates":[910,645]},{"type":"Point","properties":{"source":"naturalearthdata.com","kind":"locality","name":"Voronezh","population":844000,"region_capital":true,"min_zoom":5.0,"id":6368},"coordinates":[2009,1679]},{"type":"Point","properties":{"source":"naturalearthdata.com","kind":"locality","name":"Ryazan","population":520173,"region_capital":true,"min_zoom":5.0,"id":6367},"coordinates":[2174,3405]},{"type":"Point","properties":{"source":"naturalearthdata.com","kind":"locality","name":"Penza","population":512602,"region_capital":true,"min_zoom":5.0,"id":6366},"coordinates":[4096,2544]},{"type":"Point","properties":{"source":"naturalearthdata.com","kind":"locality","name":"Bryansk","population":427236,"region_capital":true,"min_zoom":5.0,"id":6357},"coordinates":[248,2592]}]},"transit":{"type":"GeometryCollection","geometries":[{"type":"LineString","properties":{"kind":"train","name":"EN 452 : Moscou \u2212 Berlin \u2212 Paris","service":"international","sort_rank":275,"source":"openstreetmap.org","min_zoom":5.0,"operator":"\u0420\u043e\u0441\u0441\u0438\u0439\u0441\u043a\u0438\u0435 \u0436\u0435\u043b\u0435\u0437\u043d\u044b\u0435 \u0434\u043e\u0440\u043e\u0433\u0438","ref":"EN 452","osm_relation":true,"network":"EuroNight"},"arcs":[655]},{"type":"LineString","properties":{"kind":"train","name:en":"EN 453 : Paris \u2212 Berlin \u2212 Moscow","network":"EuroNight","service":"international","sort_rank":275,"source":"openstreetmap.org","min_zoom":5.0,"operator":"\u0420\u043e\u0441\u0441\u0438\u0439\u0441\u043a\u0438\u0435 \u0436\u0435\u043b\u0435\u0437\u043d\u044b\u0435 \u0434\u043e\u0440\u043e\u0433\u0438","ref":"EN 453","osm_relation":true,"name":"EN 453 : Paris \u2212 Berlin \u2212 Moscou"},"arcs":[656]}]},"pois":{"type":"GeometryCollection","geometries":[]},"boundaries":{"type":"GeometryCollection","geometries":[{"type":"MultiLineString","properties":{"source":"naturalearthdata.com","kind":"country","sort_rank":262,"kind_detail":"2","min_zoom":0.0,"id":237},"arcs":[[0],[1],[2],[3],[4],[5],[6],[7],[8],[9],[10],[11],[12],[13],[14],[15],[16],[17],[18],[19],[20],[21],[22],[23],[24],[25],[26],[27],[28],[29],[30],[31],[32],[33],[34],[35],[36],[37],[38],[39],[40],[41],[42],[43],[44]]},{"type":"LineString","properties":{"source":"naturalearthdata.com","kind":"region","sort_rank":256,"kind_detail":"4","min_zoom":2.0,"id":6351},"arcs":[45]},{"type":"MultiLineString","properties":{"source":"naturalearthdata.com","kind":"region","sort_rank":256,"kind_detail":"4","min_zoom":2.0,"id":6364},"arcs":[[46],[47],[48],[49],[50]]},{"type":"MultiLineString","properties":{"source":"naturalearthdata.com","kind":"region","sort_rank":256,"kind_detail":"4","min_zoom":2.0,"id":6413},"arcs":[[51],[52],[53],[54],[55],[56],[57],[58],[59],[60],[61],[62],[63],[64],[65],[66],[67]]},{"type":"LineString","properties":{"source":"naturalearthdata.com","kind":"region","sort_rank":256,"kind_detail":"4","min_zoom":2.0,"id":6414},"arcs":[68]},{"type":"MultiLineString","properties":{"source":"naturalearthdata.com","kind":"region","sort_rank":256,"kind_detail":"4","min_zoom":2.0,"id":6418},"arcs":[[69],[70],[71],[72],[73],[74],[75],[76],[77],[78],[79],[80],[81]]},{"type":"MultiLineString","properties":{"source":"naturalearthdata.com","kind":"region","sort_rank":256,"kind_detail":"4","min_zoom":2.0,"id":6505},"arcs":[[82],[83],[84],[85],[86],[87],[88],[89],[90],[91],[92],[93],[94],[95],[96],[97],[98],[99],[100]]},{"type":"LineString","properties":{"source":"naturalearthdata.com","kind":"region","sort_rank":256,"kind_detail":"4","min_zoom":2.0,"id":6506},"arcs":[101]},{"type":"MultiLineString","properties":{"source":"naturalearthdata.com","kind":"region","sort_rank":256,"kind_detail":"4","min_zoom":5.5,"id":979},"arcs":[[102],[103],[104],[105],[106],[107],[108],[109],[110],[111],[112],[113],[114],[115],[116],[117],[118]]},{"type":"MultiLineString","properties":{"source":"naturalearthdata.com","kind":"region","sort_rank":256,"kind_detail":"4","min_zoom":5.5,"id":992},"arcs":[[119],[120]]},{"type":"MultiLineString","properties":{"source":"naturalearthdata.com","kind":"region","sort_rank":256,"kind_detail":"4","min_zoom":5.5,"id":981},"arcs":[[121],[122],[123],[124],[125],[126],[127],[128],[129],[130],[131],[132],[133],[134]]},{"type":"MultiLineString","properties":{"source":"naturalearthdata.com","kind":"region","sort_rank":256,"kind_detail":"4","min_zoom":5.5,"id":983},"arcs":[[135],[136],[137],[138],[139],[140],[141],[142],[143],[144],[145],[146],[147]]},{"type":"MultiLineString","properties":{"source":"naturalearthdata.com","kind":"region","sort_rank":256,"kind_detail":"4","min_zoom":5.5,"id":988},"arcs":[[148],[149],[150],[151],[152],[153],[154],[155],[156],[157],[158],[159],[160],[161],[162]]},{"type":"MultiLineString","properties":{"source":"naturalearthdata.com","kind":"region","sort_rank":256,"kind_detail":"4","min_zoom":5.5,"id":989},"arcs":[[163],[164],[165],[166],[167],[168],[169],[170]]},{"type":"MultiLineString","properties":{"source":"naturalearthdata.com","kind":"region","sort_rank":256,"kind_detail":"4","min_zoom":5.5,"id":1434},"arcs":[[171],[172],[173],[174],[175]]},{"type":"MultiLineString","properties":{"source":"naturalearthdata.com","kind":"region","sort_rank":256,"kind_detail":"4","min_zoom":5.5,"id":1437},"arcs":[[176],[177],[178],[179],[180]]},{"type":"MultiLineString","properties":{"source":"naturalearthdata.com","kind":"region","sort_rank":256,"kind_detail":"4","min_zoom":5.5,"id":1438},"arcs":[[181],[182],[183],[184],[185]]},{"type":"MultiLineString","properties":{"source":"naturalearthdata.com","kind":"region","sort_rank":256,"kind_detail":"4","min_zoom":2.0,"id":6320},"arcs":[[186],[187],[188],[189],[190],[191],[192]]},{"type":"MultiLineString","properties":{"source":"naturalearthdata.com","kind":"region","sort_rank":256,"kind_detail":"4","min_zoom":2.0,"id":6325},"arcs":[[193],[194],[195],[196],[197],[198],[199]]},{"type":"MultiLineString","properties":{"source":"naturalearthdata.com","kind":"region","sort_rank":256,"kind_detail":"4","min_zoom":2.0,"id":6330},"arcs":[[200],[201],[202],[203],[204],[205],[206],[207],[208],[209],[210],[211],[212],[213],[214]]},{"type":"MultiLineString","properties":{"source":"naturalearthdata.com","kind":"region","sort_rank":256,"kind_detail":"4","min_zoom":2.0,"id":6344},"arcs":[[215],[216],[217],[218],[219],[220],[221],[222],[223],[224],[225],[226],[227],[228],[229],[230],[231],[232],[233],[234],[235],[236],[237],[238],[239],[240],[241],[242],[243],[244],[245],[246],[247]]},{"type":"MultiLineString","properties":{"source":"naturalearthdata.com","kind":"region","sort_rank":256,"kind_detail":"4","min_zoom":2.0,"id":6346},"arcs":[[248],[249],[250],[251],[252],[253],[254],[255],[256],[257],[258],[259],[260]]},{"type":"MultiLineString","properties":{"source":"naturalearthdata.com","kind":"region","sort_rank":256,"kind_detail":"4","min_zoom":2.0,"id":6349},"arcs":[[261],[262],[263],[264],[265],[266],[267]]},{"type":"MultiLineString","properties":{"source":"naturalearthdata.com","kind":"region","sort_rank":256,"kind_detail":"4","min_zoom":2.0,"id":6350},"arcs":[[268],[269],[270],[271],[272],[273],[274],[275],[276],[277],[278],[279],[280],[281],[282],[283],[284],[285],[286],[287]]},{"type":"MultiLineString","properties":{"source":"naturalearthdata.com","kind":"region","sort_rank":256,"kind_detail":"4","min_zoom":2.0,"id":6352},"arcs":[[288],[289],[290],[291],[292],[293],[294],[295],[296],[297],[298],[299],[300],[301],[302],[303],[304],[305],[306]]},{"type":"MultiLineString","properties":{"source":"naturalearthdata.com","kind":"region","sort_rank":256,"kind_detail":"4","min_zoom":2.0,"id":6353},"arcs":[[307],[308],[309],[310],[311],[312],[313],[314],[315],[316],[317],[318],[319],[320],[321],[322]]},{"type":"MultiLineString","properties":{"source":"naturalearthdata.com","kind":"region","sort_rank":256,"kind_detail":"4","min_zoom":2.0,"id":6354},"arcs":[[323],[324]]},{"type":"MultiLineString","properties":{"source":"naturalearthdata.com","kind":"region","sort_rank":256,"kind_detail":"4","min_zoom":2.0,"id":6361},"arcs":[[325],[326],[327],[328],[329],[330],[331],[332],[333],[334],[335],[336],[337],[338],[339],[340]]},{"type":"MultiLineString","properties":{"source":"naturalearthdata.com","kind":"region","sort_rank":256,"kind_detail":"4","min_zoom":2.0,"id":6363},"arcs":[[341],[342],[343],[344],[345]]},{"type":"MultiLineString","properties":{"source":"naturalearthdata.com","kind":"region","sort_rank":256,"kind_detail":"4","min_zoom":2.0,"id":6368},"arcs":[[346],[347],[348],[349],[350],[351],[352],[353],[354],[355]]},{"type":"MultiLineString","properties":{"source":"naturalearthdata.com","kind":"region","sort_rank":256,"kind_detail":"4","min_zoom":2.0,"id":6369},"arcs":[[356],[357],[358],[359],[360],[361],[362],[363],[364],[365],[366],[367],[368]]},{"type":"MultiLineString","properties":{"source":"naturalearthdata.com","kind":"region","sort_rank":256,"kind_detail":"4","min_zoom":2.0,"id":6370},"arcs":[[369],[370],[371],[372],[373],[374],[375],[376],[377],[378],[379],[380],[381],[382],[383],[384],[385],[386],[387],[388],[389],[390],[391]]},{"type":"MultiLineString","properties":{"source":"naturalearthdata.com","kind":"region","sort_rank":256,"kind_detail":"4","min_zoom":2.0,"id":6371},"arcs":[[392],[393],[394],[395],[396],[397],[398]]},{"type":"MultiLineString","properties":{"source":"naturalearthdata.com","kind":"region","sort_rank":256,"kind_detail":"4","min_zoom":2.0,"id":6517},"arcs":[[399],[400],[401],[402],[403],[404]]},{"type":"MultiLineString","properties":{"source":"naturalearthdata.com","kind":"region","sort_rank":256,"kind_detail":"4","min_zoom":2.0,"id":6416},"arcs":[[405],[406],[407],[408],[409],[410],[411]]},{"type":"MultiLineString","properties":{"source":"naturalearthdata.com","kind":"region","sort_rank":256,"kind_detail":"4","min_zoom":2.0,"id":6417},"arcs":[[412],[413],[414],[415],[416],[417],[418],[419],[420],[421],[422],[423],[424]]},{"type":"MultiLineString","properties":{"source":"naturalearthdata.com","kind":"region","sort_rank":256,"kind_detail":"4","min_zoom":2.0,"id":6544},"arcs":[[425],[426],[427],[428]]},{"type":"MultiLineString","properties":{"source":"naturalearthdata.com","kind":"region","sort_rank":256,"kind_detail":"4","min_zoom":2.0,"id":6528},"arcs":[[429],[430],[431],[432],[433],[434],[435]]},{"type":"MultiLineString","properties":{"source":"naturalearthdata.com","kind":"region","sort_rank":256,"kind_detail":"4","min_zoom":2.0,"id":6491},"arcs":[[436],[437],[438]]},{"type":"MultiLineString","properties":{"source":"naturalearthdata.com","kind":"region","sort_rank":256,"kind_detail":"4","min_zoom":2.0,"id":6492},"arcs":[[439],[440],[441],[442],[443],[444],[445],[446],[447],[448]]},{"type":"MultiLineString","properties":{"source":"naturalearthdata.com","kind":"region","sort_rank":256,"kind_detail":"4","min_zoom":2.0,"id":6504},"arcs":[[449],[450],[451],[452],[453],[454],[455],[456],[457],[458],[459],[460],[461],[462],[463],[464],[465],[466],[467],[468]]},{"type":"MultiLineString","properties":{"source":"naturalearthdata.com","kind":"region","sort_rank":256,"kind_detail":"4","min_zoom":2.0,"id":6507},"arcs":[[469],[470],[471],[472],[473],[474],[475],[476],[477],[478],[479],[480],[481],[482],[483],[484],[485],[486],[487]]},{"type":"MultiLineString","properties":{"source":"naturalearthdata.com","kind":"region","sort_rank":256,"kind_detail":"4","min_zoom":2.0,"id":6509},"arcs":[[488],[489],[490],[491],[492],[493],[494]]},{"type":"MultiLineString","properties":{"source":"naturalearthdata.com","kind":"region","sort_rank":256,"kind_detail":"4","min_zoom":2.0,"id":6514},"arcs":[[495],[496],[497],[498],[499],[500],[501],[502],[503],[504],[505],[506]]},{"type":"MultiLineString","properties":{"source":"naturalearthdata.com","kind":"region","sort_rank":256,"kind_detail":"4","min_zoom":2.0,"id":6516},"arcs":[[507],[508],[509]]},{"type":"MultiLineString","properties":{"source":"naturalearthdata.com","kind":"region","sort_rank":256,"kind_detail":"4","min_zoom":2.0,"id":6518},"arcs":[[510],[511],[512],[513],[514],[515],[516],[517],[518],[519],[520],[521],[522],[523],[524],[525],[526],[527],[528],[529],[530],[531],[532],[533],[534],[535]]},{"type":"MultiLineString","properties":{"source":"naturalearthdata.com","kind":"region","sort_rank":256,"kind_detail":"4","min_zoom":2.0,"id":6519},"arcs":[[536],[537],[538],[539],[540],[541],[542],[543],[544],[545],[546]]},{"type":"MultiLineString","properties":{"source":"naturalearthdata.com","kind":"region","sort_rank":256,"kind_detail":"4","min_zoom":2.0,"id":6520},"arcs":[[547],[548],[549],[550],[551],[552],[553],[554],[555],[556],[557],[558],[559],[560],[561],[562],[563],[564],[565],[566],[567],[568],[569],[570],[571],[572],[573],[574],[575],[576],[577],[578],[579]]},{"type":"MultiLineString","properties":{"source":"naturalearthdata.com","kind":"region","sort_rank":256,"kind_detail":"4","min_zoom":2.0,"id":6525},"arcs":[[580],[581],[582],[583],[584],[585],[586],[587],[588],[589],[590],[591],[592],[593],[594],[595],[596],[597],[598],[599],[600]]},{"type":"MultiLineString","properties":{"source":"naturalearthdata.com","kind":"region","sort_rank":256,"kind_detail":"4","min_zoom":2.0,"id":6526},"arcs":[[601],[602],[603],[604],[605],[606],[607],[608],[609],[610],[611],[612],[613],[614],[615],[616],[617],[618],[619]]},{"type":"MultiLineString","properties":{"source":"naturalearthdata.com","kind":"region","sort_rank":256,"kind_detail":"4","min_zoom":2.0,"id":6549},"arcs":[[620],[621],[622],[623],[624],[625],[626],[627],[628],[629]]},{"type":"MultiLineString","properties":{"source":"naturalearthdata.com","kind":"region","sort_rank":256,"kind_detail":"4","min_zoom":2.0,"id":6543},"arcs":[[630],[631],[632],[633],[634],[635],[636],[637],[638],[639],[640],[641],[642],[643],[644],[645],[646],[647],[648],[649],[650],[651]]},{"type":"MultiLineString","properties":{"source":"naturalearthdata.com","kind":"region","sort_rank":256,"kind_detail":"4","min_zoom":2.0,"id":6545},"arcs":[[652],[653],[654]]}]},"roads":{"type":"GeometryCollection","geometries":[{"type":"LineString","properties":{"source":"naturalearthdata.com","kind":"major_road","sort_rank":379,"kind_detail":"secondary","min_zoom":4.0,"id":12697},"arcs":[665]},{"type":"LineString","properties":{"source":"naturalearthdata.com","kind":"major_road","kind_detail":"secondary","sort_rank":379,"landuse_kind":"urban_area","min_zoom":3.0,"id":12706},"arcs":[666]},{"type":"LineString","properties":{"source":"naturalearthdata.com","kind":"highway","kind_detail":"motorway","sort_rank":383,"landuse_kind":"urban_area","min_zoom":5.0,"id":12707},"arcs":[667]},{"type":"LineString","properties":{"source":"naturalearthdata.com","kind":"major_road","kind_detail":"secondary","sort_rank":379,"landuse_kind":"urban_area","min_zoom":3.0,"id":12710},"arcs":[668]},{"type":"LineString","properties":{"source":"naturalearthdata.com","kind":"major_road","kind_detail":"secondary","sort_rank":379,"landuse_kind":"urban_area","min_zoom":3.0,"id":12711},"arcs":[669]},{"type":"LineString","properties":{"source":"naturalearthdata.com","kind":"major_road","kind_detail":"secondary","sort_rank":379,"landuse_kind":"urban_area","min_zoom":3.0,"id":12712},"arcs":[670]},{"type":"LineString","properties":{"source":"naturalearthdata.com","kind":"major_road","kind_detail":"secondary","sort_rank":379,"landuse_kind":"urban_area","min_zoom":3.0,"id":12713},"arcs":[671]},{"type":"LineString","properties":{"source":"naturalearthdata.com","kind":"major_road","kind_detail":"secondary","sort_rank":379,"landuse_kind":"urban_area","min_zoom":3.0,"id":12714},"arcs":[672]},{"type":"LineString","properties":{"source":"naturalearthdata.com","kind":"major_road","kind_detail":"secondary","sort_rank":379,"landuse_kind":"urban_area","min_zoom":3.0,"id":12716},"arcs":[673]},{"type":"LineString","properties":{"source":"naturalearthdata.com","kind":"major_road","kind_detail":"secondary","sort_rank":379,"landuse_kind":"urban_area","min_zoom":3.0,"id":12717},"arcs":[674]},{"type":"LineString","properties":{"source":"naturalearthdata.com","kind":"major_road","kind_detail":"secondary","sort_rank":379,"landuse_kind":"urban_area","min_zoom":3.0,"id":12724},"arcs":[675]},{"type":"LineString","properties":{"source":"naturalearthdata.com","kind":"major_road","kind_detail":"secondary","sort_rank":379,"landuse_kind":"urban_area","min_zoom":3.0,"id":12733},"arcs":[676]},{"type":"LineString","properties":{"source":"naturalearthdata.com","kind":"major_road","kind_detail":"secondary","sort_rank":379,"landuse_kind":"urban_area","min_zoom":3.0,"id":12734},"arcs":[677]},{"type":"LineString","properties":{"source":"naturalearthdata.com","kind":"major_road","sort_rank":379,"kind_detail":"secondary","min_zoom":3.0,"id":12735},"arcs":[678]},{"type":"LineString","properties":{"source":"naturalearthdata.com","kind":"major_road","kind_detail":"secondary","sort_rank":379,"landuse_kind":"urban_area","min_zoom":3.0,"id":12743},"arcs":[679]},{"type":"LineString","properties":{"source":"naturalearthdata.com","kind":"highway","kind_detail":"motorway","sort_rank":383,"landuse_kind":"urban_area","min_zoom":5.0,"id":12744},"arcs":[680]},{"type":"LineString","properties":{"source":"naturalearthdata.com","kind":"major_road","kind_detail":"secondary","sort_rank":379,"landuse_kind":"urban_area","min_zoom":3.0,"id":12747},"arcs":[681]},{"type":"LineString","properties":{"source":"naturalearthdata.com","kind":"major_road","sort_rank":379,"kind_detail":"secondary","min_zoom":3.0,"id":12747},"arcs":[682]},{"type":"LineString","properties":{"source":"naturalearthdata.com","kind":"highway","kind_detail":"motorway","sort_rank":383,"landuse_kind":"urban_area","min_zoom":5.0,"id":12750},"arcs":[683]},{"type":"LineString","properties":{"source":"naturalearthdata.com","kind":"major_road","kind_detail":"secondary","sort_rank":379,"landuse_kind":"urban_area","min_zoom":3.0,"id":12751},"arcs":[684]},{"type":"LineString","properties":{"source":"naturalearthdata.com","kind":"major_road","kind_detail":"secondary","sort_rank":379,"landuse_kind":"urban_area","min_zoom":3.0,"id":12761},"arcs":[685]},{"type":"LineString","properties":{"source":"naturalearthdata.com","kind":"major_road","kind_detail":"secondary","sort_rank":379,"landuse_kind":"urban_area","min_zoom":3.0,"id":12765},"arcs":[686]},{"type":"LineString","properties":{"source":"naturalearthdata.com","kind":"major_road","kind_detail":"secondary","sort_rank":379,"landuse_kind":"urban_area","min_zoom":3.0,"id":12766},"arcs":[687]},{"type":"LineString","properties":{"source":"naturalearthdata.com","kind":"major_road","kind_detail":"secondary","sort_rank":379,"landuse_kind":"urban_area","min_zoom":3.0,"id":12768},"arcs":[688]},{"type":"LineString","properties":{"source":"naturalearthdata.com","kind":"highway","kind_detail":"motorway","sort_rank":383,"landuse_kind":"urban_area","min_zoom":5.0,"id":12769},"arcs":[689]},{"type":"LineString","properties":{"source":"naturalearthdata.com","kind":"major_road","sort_rank":379,"kind_detail":"secondary","min_zoom":4.0,"id":12775},"arcs":[690]},{"type":"LineString","properties":{"source":"naturalearthdata.com","kind":"major_road","kind_detail":"secondary","sort_rank":379,"landuse_kind":"urban_area","min_zoom":3.0,"id":12779},"arcs":[691]},{"type":"LineString","properties":{"source":"naturalearthdata.com","kind":"major_road","sort_rank":379,"kind_detail":"secondary","min_zoom":3.0,"id":12779},"arcs":[692]},{"type":"LineString","properties":{"source":"naturalearthdata.com","kind":"major_road","sort_rank":379,"kind_detail":"secondary","min_zoom":4.0,"id":12781},"arcs":[693]},{"type":"LineString","properties":{"source":"naturalearthdata.com","kind":"major_road","kind_detail":"secondary","sort_rank":379,"landuse_kind":"urban_area","min_zoom":3.0,"id":12784},"arcs":[694]},{"type":"LineString","properties":{"source":"naturalearthdata.com","kind":"highway","kind_detail":"motorway","sort_rank":383,"landuse_kind":"urban_area","min_zoom":5.0,"id":12785},"arcs":[695]},{"type":"LineString","properties":{"source":"naturalearthdata.com","kind":"major_road","kind_detail":"secondary","sort_rank":379,"landuse_kind":"urban_area","min_zoom":3.0,"id":12789},"arcs":[696]},{"type":"LineString","properties":{"source":"naturalearthdata.com","kind":"major_road","sort_rank":379,"kind_detail":"secondary","min_zoom":4.0,"id":12793},"arcs":[697]},{"type":"LineString","properties":{"source":"naturalearthdata.com","kind":"major_road","sort_rank":379,"kind_detail":"secondary","min_zoom":3.0,"id":12794},"arcs":[698]},{"type":"LineString","properties":{"source":"naturalearthdata.com","kind":"highway","kind_detail":"motorway","sort_rank":383,"landuse_kind":"urban_area","min_zoom":5.0,"id":12796},"arcs":[699]},{"type":"LineString","properties":{"source":"naturalearthdata.com","kind":"major_road","kind_detail":"secondary","sort_rank":379,"landuse_kind":"urban_area","min_zoom":3.0,"id":12797},"arcs":[700]},{"type":"LineString","properties":{"source":"naturalearthdata.com","kind":"highway","kind_detail":"motorway","sort_rank":383,"landuse_kind":"urban_area","min_zoom":5.0,"id":12800},"arcs":[701]},{"type":"LineString","properties":{"source":"naturalearthdata.com","kind":"major_road","kind_detail":"secondary","sort_rank":379,"landuse_kind":"urban_area","min_zoom":3.0,"id":12804},"arcs":[702]},{"type":"LineString","properties":{"source":"naturalearthdata.com","kind":"highway","kind_detail":"motorway","sort_rank":383,"landuse_kind":"urban_area","min_zoom":5.0,"id":12805},"arcs":[703]},{"type":"LineString","properties":{"source":"naturalearthdata.com","kind":"major_road","sort_rank":379,"kind_detail":"secondary","min_zoom":3.0,"id":12806},"arcs":[704]},{"type":"LineString","properties":{"source":"naturalearthdata.com","kind":"highway","kind_detail":"motorway","sort_rank":383,"landuse_kind":"urban_area","min_zoom":5.0,"id":12807},"arcs":[705]},{"type":"LineString","properties":{"source":"naturalearthdata.com","kind":"major_road","kind_detail":"secondary","sort_rank":379,"landuse_kind":"urban_area","min_zoom":3.0,"id":12819},"arcs":[706]},{"type":"LineString","properties":{"source":"naturalearthdata.com","kind":"major_road","sort_rank":379,"kind_detail":"secondary","min_zoom":3.0,"id":12824},"arcs":[707]},{"type":"LineString","properties":{"source":"naturalearthdata.com","kind":"major_road","sort_rank":379,"kind_detail":"secondary","min_zoom":3.0,"id":12825},"arcs":[708]},{"type":"LineString","properties":{"source":"naturalearthdata.com","kind":"major_road","sort_rank":379,"kind_detail":"secondary","min_zoom":3.0,"id":12840},"arcs":[709]},{"type":"MultiLineString","properties":{"source":"naturalearthdata.com","kind":"major_road","kind_detail":"secondary","sort_rank":379,"landuse_kind":"urban_area","min_zoom":3.0,"id":12844},"arcs":[[710],[711]]},{"type":"MultiLineString","properties":{"source":"naturalearthdata.com","kind":"major_road","sort_rank":379,"kind_detail":"secondary","min_zoom":3.0,"id":12844},"arcs":[[712],[713]]},{"type":"LineString","properties":{"source":"naturalearthdata.com","kind":"major_road","sort_rank":379,"kind_detail":"secondary","min_zoom":4.0,"id":12846},"arcs":[714]},{"type":"LineString","properties":{"source":"naturalearthdata.com","kind":"major_road","sort_rank":379,"kind_detail":"secondary","min_zoom":4.0,"id":12852},"arcs":[715]},{"type":"LineString","properties":{"source":"naturalearthdata.com","kind":"major_road","sort_rank":379,"kind_detail":"secondary","min_zoom":3.0,"id":12865},"arcs":[716]},{"type":"LineString","properties":{"source":"naturalearthdata.com","kind":"major_road","sort_rank":379,"kind_detail":"secondary","min_zoom":3.0,"id":12872},"arcs":[717]},{"type":"LineString","properties":{"source":"naturalearthdata.com","kind":"major_road","sort_rank":379,"kind_detail":"secondary","min_zoom":4.0,"id":12873},"arcs":[718]},{"type":"LineString","properties":{"source":"naturalearthdata.com","kind":"major_road","sort_rank":379,"kind_detail":"secondary","min_zoom":4.0,"id":12874},"arcs":[719]},{"type":"LineString","properties":{"source":"naturalearthdata.com","kind":"major_road","sort_rank":379,"kind_detail":"secondary","min_zoom":3.0,"id":12875},"arcs":[720]},{"type":"LineString","properties":{"source":"naturalearthdata.com","kind":"major_road","sort_rank":379,"kind_detail":"secondary","min_zoom":3.0,"id":12876},"arcs":[721]},{"type":"LineString","properties":{"source":"naturalearthdata.com","kind":"major_road","kind_detail":"secondary","sort_rank":379,"landuse_kind":"urban_area","min_zoom":3.0,"id":12888},"arcs":[722]},{"type":"LineString","properties":{"source":"naturalearthdata.com","kind":"major_road","sort_rank":379,"kind_detail":"secondary","min_zoom":3.0,"id":12888},"arcs":[723]},{"type":"LineString","properties":{"source":"naturalearthdata.com","kind":"major_road","kind_detail":"secondary","sort_rank":379,"landuse_kind":"urban_area","min_zoom":4.0,"id":12893},"arcs":[724]},{"type":"LineString","properties":{"source":"naturalearthdata.com","kind":"major_road","sort_rank":379,"kind_detail":"secondary","min_zoom":4.0,"id":12893},"arcs":[725]},{"type":"LineString","properties":{"source":"naturalearthdata.com","kind":"major_road","sort_rank":379,"kind_detail":"secondary","min_zoom":3.0,"id":12905},"arcs":[726]},{"type":"LineString","properties":{"source":"naturalearthdata.com","kind":"major_road","sort_rank":379,"kind_detail":"secondary","min_zoom":3.0,"id":12922},"arcs":[727]},{"type":"LineString","properties":{"source":"naturalearthdata.com","kind":"major_road","sort_rank":379,"kind_detail":"secondary","min_zoom":3.0,"id":12929},"arcs":[728]},{"type":"LineString","properties":{"source":"naturalearthdata.com","kind":"major_road","sort_rank":379,"kind_detail":"secondary","min_zoom":3.0,"id":12931},"arcs":[729]},{"type":"LineString","properties":{"source":"naturalearthdata.com","kind":"major_road","sort_rank":379,"kind_detail":"secondary","min_zoom":4.0,"id":12932},"arcs":[730]},{"type":"LineString","properties":{"source":"naturalearthdata.com","kind":"highway","kind_detail":"motorway","sort_rank":383,"landuse_kind":"urban_area","min_zoom":3.0,"id":12936},"arcs":[731]},{"type":"LineString","properties":{"source":"naturalearthdata.com","kind":"highway","sort_rank":383,"kind_detail":"motorway","min_zoom":3.0,"id":12936},"arcs":[732]},{"type":"LineString","properties":{"source":"naturalearthdata.com","kind":"highway","kind_detail":"motorway","sort_rank":383,"landuse_kind":"urban_area","min_zoom":3.0,"id":12942},"arcs":[733]},{"type":"LineString","properties":{"source":"naturalearthdata.com","kind":"highway","sort_rank":383,"kind_detail":"motorway","min_zoom":3.0,"id":12942},"arcs":[734]},{"type":"LineString","properties":{"source":"naturalearthdata.com","kind":"highway","sort_rank":383,"kind_detail":"motorway","min_zoom":3.0,"id":12960},"arcs":[735]},{"type":"LineString","properties":{"source":"naturalearthdata.com","kind":"major_road","sort_rank":379,"kind_detail":"secondary","min_zoom":4.0,"id":12963},"arcs":[736]},{"type":"LineString","properties":{"source":"naturalearthdata.com","kind":"major_road","kind_detail":"secondary","sort_rank":379,"landuse_kind":"urban_area","min_zoom":3.0,"id":12965},"arcs":[737]},{"type":"MultiLineString","properties":{"source":"naturalearthdata.com","kind":"major_road","sort_rank":379,"kind_detail":"secondary","min_zoom":3.0,"id":12965},"arcs":[[738],[739]]},{"type":"LineString","properties":{"source":"naturalearthdata.com","kind":"major_road","sort_rank":379,"kind_detail":"secondary","min_zoom":3.0,"id":12966},"arcs":[740]},{"type":"LineString","properties":{"source":"naturalearthdata.com","kind":"major_road","sort_rank":379,"kind_detail":"secondary","min_zoom":4.0,"id":12993},"arcs":[741]},{"type":"LineString","properties":{"source":"naturalearthdata.com","kind":"major_road","sort_rank":379,"kind_detail":"secondary","min_zoom":3.0,"id":12994},"arcs":[742]},{"type":"LineString","properties":{"source":"naturalearthdata.com","kind":"major_road","sort_rank":379,"kind_detail":"secondary","min_zoom":3.0,"id":12996},"arcs":[743]},{"type":"LineString","properties":{"source":"naturalearthdata.com","kind":"major_road","sort_rank":379,"kind_detail":"secondary","min_zoom":4.0,"id":12999},"arcs":[744]},{"type":"LineString","properties":{"source":"naturalearthdata.com","kind":"major_road","sort_rank":379,"kind_detail":"secondary","min_zoom":3.0,"id":13000},"arcs":[745]},{"type":"LineString","properties":{"source":"naturalearthdata.com","kind":"highway","sort_rank":383,"kind_detail":"motorway","min_zoom":3.0,"id":13001},"arcs":[746]},{"type":"LineString","properties":{"source":"naturalearthdata.com","kind":"major_road","sort_rank":379,"kind_detail":"secondary","min_zoom":4.0,"id":13008},"arcs":[747]},{"type":"LineString","properties":{"source":"naturalearthdata.com","kind":"major_road","sort_rank":379,"kind_detail":"secondary","min_zoom":3.0,"id":13018},"arcs":[748]},{"type":"LineString","properties":{"source":"naturalearthdata.com","kind":"major_road","sort_rank":379,"kind_detail":"secondary","min_zoom":3.0,"id":13020},"arcs":[749]},{"type":"LineString","properties":{"source":"naturalearthdata.com","kind":"major_road","sort_rank":379,"kind_detail":"secondary","min_zoom":3.0,"id":13021},"arcs":[750]},{"type":"LineString","properties":{"source":"naturalearthdata.com","kind":"highway","sort_rank":383,"kind_detail":"motorway","min_zoom":3.0,"id":13022},"arcs":[751]},{"type":"LineString","properties":{"source":"naturalearthdata.com","kind":"major_road","sort_rank":379,"kind_detail":"secondary","min_zoom":4.0,"id":13023},"arcs":[752]},{"type":"LineString","properties":{"source":"naturalearthdata.com","kind":"major_road","sort_rank":379,"kind_detail":"secondary","min_zoom":3.0,"id":13026},"arcs":[753]},{"type":"LineString","properties":{"source":"naturalearthdata.com","kind":"major_road","sort_rank":379,"kind_detail":"secondary","min_zoom":4.0,"id":13036},"arcs":[754]},{"type":"LineString","properties":{"source":"naturalearthdata.com","kind":"major_road","sort_rank":379,"kind_detail":"secondary","min_zoom":3.0,"id":13041},"arcs":[755]},{"type":"LineString","properties":{"source":"naturalearthdata.com","kind":"major_road","sort_rank":379,"kind_detail":"secondary","min_zoom":3.0,"id":13042},"arcs":[756]},{"type":"LineString","properties":{"source":"naturalearthdata.com","kind":"major_road","kind_detail":"secondary","sort_rank":379,"landuse_kind":"nature_reserve","min_zoom":4.0,"id":13046},"arcs":[757]},{"type":"LineString","properties":{"source":"naturalearthdata.com","kind":"major_road","sort_rank":379,"kind_detail":"secondary","min_zoom":4.0,"id":13046},"arcs":[758]},{"type":"LineString","properties":{"source":"naturalearthdata.com","kind":"major_road","sort_rank":379,"kind_detail":"secondary","min_zoom":3.0,"id":13052},"arcs":[759]},{"type":"LineString","properties":{"source":"naturalearthdata.com","kind":"major_road","kind_detail":"secondary","sort_rank":379,"landuse_kind":"urban_area","min_zoom":3.0,"id":13065},"arcs":[760]},{"type":"LineString","properties":{"source":"naturalearthdata.com","kind":"major_road","sort_rank":379,"kind_detail":"secondary","min_zoom":3.0,"id":13065},"arcs":[761]},{"type":"LineString","properties":{"source":"naturalearthdata.com","kind":"major_road","sort_rank":379,"kind_detail":"secondary","min_zoom":3.0,"id":13066},"arcs":[762]},{"type":"LineString","properties":{"source":"naturalearthdata.com","kind":"major_road","sort_rank":379,"kind_detail":"secondary","min_zoom":3.0,"id":13067},"arcs":[763]},{"type":"LineString","properties":{"source":"naturalearthdata.com","kind":"major_road","sort_rank":379,"kind_detail":"secondary","min_zoom":3.0,"id":13068},"arcs":[764]},{"type":"LineString","properties":{"source":"naturalearthdata.com","kind":"major_road","sort_rank":379,"kind_detail":"secondary","min_zoom":3.0,"id":13070},"arcs":[765]},{"type":"LineString","properties":{"source":"naturalearthdata.com","kind":"highway","sort_rank":383,"kind_detail":"motorway","min_zoom":3.0,"id":13071},"arcs":[766]},{"type":"LineString","properties":{"source":"naturalearthdata.com","kind":"highway","sort_rank":383,"kind_detail":"motorway","min_zoom":3.0,"id":13082},"arcs":[767]},{"type":"LineString","properties":{"source":"naturalearthdata.com","kind":"major_road","sort_rank":379,"kind_detail":"secondary","min_zoom":3.0,"id":13083},"arcs":[768]},{"type":"LineString","properties":{"source":"naturalearthdata.com","kind":"major_road","sort_rank":379,"kind_detail":"secondary","min_zoom":4.0,"id":13089},"arcs":[769]},{"type":"LineString","properties":{"source":"naturalearthdata.com","kind":"major_road","sort_rank":379,"kind_detail":"secondary","min_zoom":3.0,"id":13120},"arcs":[770]},{"type":"LineString","properties":{"source":"naturalearthdata.com","kind":"major_road","sort_rank":379,"kind_detail":"secondary","min_zoom":3.0,"id":13133},"arcs":[771]},{"type":"LineString","properties":{"source":"naturalearthdata.com","kind":"major_road","kind_detail":"secondary","sort_rank":379,"landuse_kind":"park","min_zoom":3.0,"id":13134},"arcs":[772]},{"type":"MultiLineString","properties":{"source":"naturalearthdata.com","kind":"major_road","sort_rank":379,"kind_detail":"secondary","min_zoom":3.0,"id":13134},"arcs":[[773],[774]]},{"type":"LineString","properties":{"source":"naturalearthdata.com","kind":"major_road","kind_detail":"secondary","sort_rank":379,"landuse_kind":"urban_area","min_zoom":3.0,"id":13138},"arcs":[775]},{"type":"LineString","properties":{"source":"naturalearthdata.com","kind":"major_road","sort_rank":379,"kind_detail":"secondary","min_zoom":3.0,"id":13138},"arcs":[776]},{"type":"LineString","properties":{"source":"naturalearthdata.com","kind":"highway","sort_rank":383,"kind_detail":"motorway","min_zoom":3.0,"id":13141},"arcs":[777]},{"type":"LineString","properties":{"source":"naturalearthdata.com","kind":"major_road","sort_rank":379,"kind_detail":"secondary","min_zoom":3.0,"id":13157},"arcs":[778]},{"type":"LineString","properties":{"source":"naturalearthdata.com","kind":"highway","sort_rank":383,"kind_detail":"motorway","min_zoom":3.0,"id":13159},"arcs":[779]},{"type":"LineString","properties":{"source":"naturalearthdata.com","kind":"major_road","kind_detail":"secondary","sort_rank":379,"landuse_kind":"nature_reserve","min_zoom":4.0,"id":13177},"arcs":[780]},{"type":"LineString","properties":{"source":"naturalearthdata.com","kind":"major_road","sort_rank":379,"kind_detail":"secondary","min_zoom":4.0,"id":13177},"arcs":[781]},{"type":"LineString","properties":{"source":"naturalearthdata.com","kind":"highway","kind_detail":"motorway","sort_rank":383,"landuse_kind":"urban_area","min_zoom":3.0,"id":13209},"arcs":[782]},{"type":"LineString","properties":{"source":"naturalearthdata.com","kind":"highway","sort_rank":383,"kind_detail":"motorway","min_zoom":3.0,"id":13209},"arcs":[783]},{"type":"LineString","properties":{"source":"naturalearthdata.com","kind":"highway","sort_rank":383,"kind_detail":"motorway","min_zoom":3.0,"id":13210},"arcs":[784]},{"type":"LineString","properties":{"source":"naturalearthdata.com","kind":"highway","kind_detail":"motorway","sort_rank":383,"landuse_kind":"urban_area","min_zoom":3.0,"id":13213},"arcs":[785]},{"type":"LineString","properties":{"source":"naturalearthdata.com","kind":"highway","sort_rank":383,"kind_detail":"motorway","min_zoom":3.0,"id":13213},"arcs":[786]},{"type":"LineString","properties":{"source":"naturalearthdata.com","kind":"major_road","sort_rank":379,"kind_detail":"secondary","min_zoom":4.0,"id":13215},"arcs":[787]},{"type":"LineString","properties":{"source":"naturalearthdata.com","kind":"major_road","kind_detail":"secondary","sort_rank":379,"landuse_kind":"nature_reserve","min_zoom":4.0,"id":13250},"arcs":[788]},{"type":"LineString","properties":{"source":"naturalearthdata.com","kind":"major_road","sort_rank":379,"kind_detail":"secondary","min_zoom":4.0,"id":13250},"arcs":[789]},{"type":"LineString","properties":{"source":"naturalearthdata.com","kind":"major_road","kind_detail":"secondary","sort_rank":379,"landuse_kind":"nature_reserve","min_zoom":4.0,"id":13251},"arcs":[790]},{"type":"LineString","properties":{"source":"naturalearthdata.com","kind":"major_road","kind_detail":"secondary","sort_rank":379,"landuse_kind":"nature_reserve","min_zoom":4.0,"id":13251},"arcs":[791]},{"type":"LineString","properties":{"source":"naturalearthdata.com","kind":"major_road","sort_rank":379,"kind_detail":"secondary","min_zoom":4.0,"id":13251},"arcs":[792]},{"type":"LineString","properties":{"source":"naturalearthdata.com","kind":"major_road","kind_detail":"secondary","sort_rank":379,"landuse_kind":"nature_reserve","min_zoom":4.0,"id":13267},"arcs":[793]},{"type":"LineString","properties":{"source":"naturalearthdata.com","kind":"major_road","sort_rank":379,"kind_detail":"secondary","min_zoom":4.0,"id":13267},"arcs":[794]},{"type":"LineString","properties":{"source":"naturalearthdata.com","kind":"major_road","sort_rank":379,"kind_detail":"secondary","min_zoom":3.0,"id":13273},"arcs":[795]},{"type":"LineString","properties":{"source":"naturalearthdata.com","kind":"major_road","kind_detail":"secondary","sort_rank":379,"landuse_kind":"nature_reserve","min_zoom":4.0,"id":13278},"arcs":[796]},{"type":"LineString","properties":{"source":"naturalearthdata.com","kind":"major_road","sort_rank":379,"kind_detail":"secondary","min_zoom":4.0,"id":13278},"arcs":[797]},{"type":"LineString","properties":{"source":"naturalearthdata.com","kind":"major_road","kind_detail":"secondary","sort_rank":379,"landuse_kind":"urban_area","min_zoom":4.0,"id":13285},"arcs":[798]},{"type":"LineString","properties":{"source":"naturalearthdata.com","kind":"major_road","sort_rank":379,"kind_detail":"secondary","min_zoom":4.0,"id":13285},"arcs":[799]},{"type":"LineString","properties":{"source":"naturalearthdata.com","kind":"major_road","kind_detail":"secondary","sort_rank":379,"landuse_kind":"urban_area","min_zoom":3.0,"id":13286},"arcs":[800]},{"type":"LineString","properties":{"source":"naturalearthdata.com","kind":"major_road","sort_rank":379,"kind_detail":"secondary","min_zoom":3.0,"id":13286},"arcs":[801]},{"type":"LineString","properties":{"source":"naturalearthdata.com","kind":"major_road","kind_detail":"secondary","sort_rank":379,"landuse_kind":"urban_area","min_zoom":4.0,"id":13295},"arcs":[802]},{"type":"LineString","properties":{"source":"naturalearthdata.com","kind":"major_road","sort_rank":379,"kind_detail":"secondary","min_zoom":3.0,"id":13298},"arcs":[803]},{"type":"LineString","properties":{"source":"naturalearthdata.com","kind":"major_road","sort_rank":379,"kind_detail":"secondary","min_zoom":3.0,"id":13312},"arcs":[804]},{"type":"LineString","properties":{"source":"naturalearthdata.com","kind":"major_road","kind_detail":"secondary","sort_rank":379,"landuse_kind":"urban_area","min_zoom":3.0,"id":13313},"arcs":[805]},{"type":"LineString","properties":{"source":"naturalearthdata.com","kind":"highway","sort_rank":383,"kind_detail":"motorway","min_zoom":3.0,"id":13327},"arcs":[806]},{"type":"LineString","properties":{"source":"naturalearthdata.com","kind":"major_road","kind_detail":"secondary","sort_rank":379,"landuse_kind":"nature_reserve","min_zoom":3.0,"id":13328},"arcs":[807]},{"type":"MultiLineString","properties":{"source":"naturalearthdata.com","kind":"major_road","sort_rank":379,"kind_detail":"secondary","min_zoom":3.0,"id":13328},"arcs":[[808],[809]]},{"type":"LineString","properties":{"source":"naturalearthdata.com","kind":"major_road","kind_detail":"secondary","sort_rank":379,"landuse_kind":"urban_area","min_zoom":4.0,"id":13334},"arcs":[810]},{"type":"LineString","properties":{"source":"naturalearthdata.com","kind":"major_road","sort_rank":379,"kind_detail":"secondary","min_zoom":4.0,"id":13334},"arcs":[811]},{"type":"LineString","properties":{"source":"naturalearthdata.com","kind":"major_road","sort_rank":379,"kind_detail":"secondary","min_zoom":4.0,"id":13337},"arcs":[812]},{"type":"LineString","properties":{"source":"naturalearthdata.com","kind":"major_road","sort_rank":379,"kind_detail":"secondary","min_zoom":3.0,"id":13339},"arcs":[813]},{"type":"LineString","properties":{"source":"naturalearthdata.com","kind":"major_road","sort_rank":379,"kind_detail":"secondary","min_zoom":3.0,"id":13340},"arcs":[814]},{"type":"LineString","properties":{"source":"naturalearthdata.com","kind":"major_road","sort_rank":379,"kind_detail":"secondary","min_zoom":3.0,"id":13362},"arcs":[815]},{"type":"LineString","properties":{"source":"naturalearthdata.com","kind":"minor_road","sort_rank":355,"kind_detail":"tertiary","min_zoom":5.0,"id":13368},"arcs":[816]},{"type":"LineString","properties":{"source":"naturalearthdata.com","kind":"major_road","sort_rank":379,"kind_detail":"secondary","min_zoom":3.0,"id":13385},"arcs":[817]},{"type":"LineString","properties":{"source":"naturalearthdata.com","kind":"major_road","sort_rank":379,"kind_detail":"secondary","min_zoom":3.0,"id":13390},"arcs":[818]},{"type":"LineString","properties":{"source":"naturalearthdata.com","kind":"major_road","sort_rank":379,"kind_detail":"secondary","min_zoom":3.0,"id":13412},"arcs":[819]},{"type":"LineString","properties":{"source":"naturalearthdata.com","kind":"minor_road","sort_rank":355,"kind_detail":"tertiary","min_zoom":5.0,"id":13416},"arcs":[820]},{"type":"LineString","properties":{"source":"naturalearthdata.com","kind":"major_road","sort_rank":379,"kind_detail":"secondary","min_zoom":4.0,"id":13433},"arcs":[821]},{"type":"LineString","properties":{"source":"naturalearthdata.com","kind":"major_road","kind_detail":"secondary","sort_rank":379,"landuse_kind":"urban_area","min_zoom":3.0,"id":13445},"arcs":[822]},{"type":"LineString","properties":{"source":"naturalearthdata.com","kind":"major_road","sort_rank":379,"kind_detail":"secondary","min_zoom":3.0,"id":13445},"arcs":[823]},{"type":"LineString","properties":{"source":"naturalearthdata.com","kind":"major_road","sort_rank":379,"kind_detail":"secondary","min_zoom":3.0,"id":13449},"arcs":[824]},{"type":"LineString","properties":{"source":"naturalearthdata.com","kind":"major_road","sort_rank":379,"kind_detail":"secondary","min_zoom":3.0,"id":13451},"arcs":[825]},{"type":"LineString","properties":{"source":"naturalearthdata.com","kind":"major_road","kind_detail":"secondary","sort_rank":379,"landuse_kind":"urban_area","min_zoom":4.0,"id":13458},"arcs":[826]},{"type":"LineString","properties":{"source":"naturalearthdata.com","kind":"major_road","sort_rank":379,"kind_detail":"secondary","min_zoom":4.0,"id":13458},"arcs":[827]},{"type":"LineString","properties":{"source":"naturalearthdata.com","kind":"major_road","sort_rank":379,"kind_detail":"secondary","min_zoom":3.0,"id":13459},"arcs":[828]},{"type":"LineString","properties":{"source":"naturalearthdata.com","kind":"minor_road","kind_detail":"tertiary","sort_rank":355,"landuse_kind":"urban_area","min_zoom":5.0,"id":13476},"arcs":[829]},{"type":"LineString","properties":{"source":"naturalearthdata.com","kind":"minor_road","sort_rank":355,"kind_detail":"tertiary","min_zoom":5.0,"id":13476},"arcs":[830]},{"type":"LineString","properties":{"source":"naturalearthdata.com","kind":"major_road","sort_rank":379,"kind_detail":"secondary","min_zoom":4.0,"id":13478},"arcs":[831]},{"type":"LineString","properties":{"source":"naturalearthdata.com","kind":"major_road","sort_rank":379,"kind_detail":"secondary","min_zoom":3.0,"id":13483},"arcs":[832]},{"type":"LineString","properties":{"source":"naturalearthdata.com","kind":"major_road","sort_rank":379,"kind_detail":"secondary","min_zoom":4.0,"id":13498},"arcs":[833]},{"type":"LineString","properties":{"source":"naturalearthdata.com","kind":"minor_road","kind_detail":"tertiary","sort_rank":355,"landuse_kind":"urban_area","min_zoom":5.0,"id":13499},"arcs":[834]},{"type":"LineString","properties":{"source":"naturalearthdata.com","kind":"major_road","sort_rank":379,"kind_detail":"secondary","min_zoom":3.0,"id":13500},"arcs":[835]},{"type":"LineString","properties":{"source":"naturalearthdata.com","kind":"major_road","kind_detail":"secondary","sort_rank":379,"landuse_kind":"urban_area","min_zoom":4.0,"id":13504},"arcs":[836]},{"type":"LineString","properties":{"source":"naturalearthdata.com","kind":"major_road","sort_rank":379,"kind_detail":"secondary","min_zoom":4.0,"id":13504},"arcs":[837]},{"type":"LineString","properties":{"source":"naturalearthdata.com","kind":"major_road","sort_rank":379,"kind_detail":"secondary","min_zoom":4.0,"id":13515},"arcs":[838]},{"type":"LineString","properties":{"source":"naturalearthdata.com","kind":"major_road","sort_rank":379,"kind_detail":"secondary","min_zoom":3.0,"id":13523},"arcs":[839]},{"type":"LineString","properties":{"source":"naturalearthdata.com","kind":"major_road","sort_rank":379,"kind_detail":"secondary","min_zoom":3.0,"id":13524},"arcs":[840]},{"type":"LineString","properties":{"source":"naturalearthdata.com","kind":"major_road","sort_rank":379,"kind_detail":"secondary","min_zoom":3.0,"id":13562},"arcs":[841]},{"type":"LineString","properties":{"source":"naturalearthdata.com","kind":"major_road","kind_detail":"secondary","sort_rank":379,"landuse_kind":"urban_area","min_zoom":4.0,"id":13564},"arcs":[842]},{"type":"LineString","properties":{"source":"naturalearthdata.com","kind":"major_road","sort_rank":379,"kind_detail":"secondary","min_zoom":4.0,"id":13564},"arcs":[843]},{"type":"LineString","properties":{"source":"naturalearthdata.com","kind":"major_road","sort_rank":379,"kind_detail":"secondary","min_zoom":3.0,"id":13569},"arcs":[844]},{"type":"LineString","properties":{"source":"naturalearthdata.com","kind":"major_road","sort_rank":379,"kind_detail":"secondary","min_zoom":3.0,"id":13571},"arcs":[845]},{"type":"LineString","properties":{"source":"naturalearthdata.com","kind":"major_road","sort_rank":379,"kind_detail":"secondary","min_zoom":3.0,"id":13573},"arcs":[846]},{"type":"LineString","properties":{"source":"naturalearthdata.com","kind":"major_road","sort_rank":379,"kind_detail":"secondary","min_zoom":3.0,"id":13582},"arcs":[847]},{"type":"LineString","properties":{"source":"naturalearthdata.com","kind":"major_road","sort_rank":379,"kind_detail":"secondary","min_zoom":4.0,"id":13594},"arcs":[848]},{"type":"LineString","properties":{"source":"naturalearthdata.com","kind":"minor_road","kind_detail":"tertiary","sort_rank":355,"landuse_kind":"urban_area","min_zoom":5.0,"id":13595},"arcs":[849]},{"type":"LineString","properties":{"source":"naturalearthdata.com","kind":"minor_road","sort_rank":355,"kind_detail":"tertiary","min_zoom":5.0,"id":13595},"arcs":[850]},{"type":"LineString","properties":{"source":"naturalearthdata.com","kind":"major_road","sort_rank":379,"kind_detail":"secondary","min_zoom":4.0,"id":13597},"arcs":[851]},{"type":"LineString","properties":{"source":"naturalearthdata.com","kind":"major_road","sort_rank":379,"kind_detail":"secondary","min_zoom":3.0,"id":13629},"arcs":[852]},{"type":"LineString","properties":{"source":"naturalearthdata.com","kind":"major_road","sort_rank":379,"kind_detail":"secondary","min_zoom":3.0,"id":13645},"arcs":[853]},{"type":"LineString","properties":{"source":"naturalearthdata.com","kind":"minor_road","sort_rank":355,"kind_detail":"tertiary","min_zoom":5.0,"id":13648},"arcs":[854]},{"type":"LineString","properties":{"source":"naturalearthdata.com","kind":"major_road","sort_rank":379,"kind_detail":"secondary","min_zoom":3.0,"id":13685},"arcs":[855]},{"type":"LineString","properties":{"source":"naturalearthdata.com","kind":"major_road","sort_rank":379,"kind_detail":"secondary","min_zoom":3.0,"id":13703},"arcs":[856]},{"type":"LineString","properties":{"source":"naturalearthdata.com","kind":"major_road","sort_rank":379,"kind_detail":"secondary","min_zoom":3.0,"id":13707},"arcs":[857]},{"type":"LineString","properties":{"source":"naturalearthdata.com","kind":"major_road","sort_rank":379,"kind_detail":"secondary","min_zoom":3.0,"id":13720},"arcs":[858]},{"type":"LineString","properties":{"source":"naturalearthdata.com","kind":"major_road","sort_rank":379,"kind_detail":"secondary","min_zoom":3.0,"id":13735},"arcs":[859]},{"type":"LineString","properties":{"source":"naturalearthdata.com","kind":"major_road","sort_rank":379,"kind_detail":"secondary","min_zoom":3.0,"id":13737},"arcs":[860]},{"type":"LineString","properties":{"source":"naturalearthdata.com","kind":"major_road","sort_rank":379,"kind_detail":"secondary","min_zoom":3.0,"id":13760},"arcs":[861]},{"type":"LineString","properties":{"source":"naturalearthdata.com","kind":"major_road","sort_rank":379,"kind_detail":"secondary","min_zoom":3.0,"id":13793},"arcs":[862]},{"type":"LineString","properties":{"source":"naturalearthdata.com","kind":"major_road","sort_rank":379,"kind_detail":"secondary","min_zoom":3.0,"id":13808},"arcs":[863]},{"type":"LineString","properties":{"source":"naturalearthdata.com","kind":"highway","sort_rank":383,"kind_detail":"motorway","min_zoom":3.0,"id":13833},"arcs":[864]},{"type":"LineString","properties":{"source":"naturalearthdata.com","kind":"major_road","sort_rank":379,"kind_detail":"secondary","min_zoom":3.0,"id":13835},"arcs":[865]},{"type":"LineString","properties":{"source":"naturalearthdata.com","kind":"major_road","sort_rank":379,"kind_detail":"secondary","min_zoom":3.0,"id":13843},"arcs":[866]},{"type":"LineString","properties":{"source":"naturalearthdata.com","kind":"major_road","sort_rank":379,"kind_detail":"secondary","min_zoom":3.0,"id":13846},"arcs":[867]},{"type":"LineString","properties":{"source":"naturalearthdata.com","kind":"major_road","sort_rank":379,"kind_detail":"secondary","min_zoom":3.0,"id":13857},"arcs":[868]},{"type":"LineString","properties":{"source":"naturalearthdata.com","kind":"major_road","sort_rank":379,"kind_detail":"secondary","min_zoom":4.0,"id":13894},"arcs":[869]},{"type":"LineString","properties":{"source":"naturalearthdata.com","kind":"major_road","sort_rank":379,"kind_detail":"secondary","min_zoom":3.0,"id":13900},"arcs":[870]},{"type":"LineString","properties":{"source":"naturalearthdata.com","kind":"major_road","sort_rank":379,"kind_detail":"secondary","min_zoom":3.0,"id":13915},"arcs":[871]},{"type":"LineString","properties":{"source":"naturalearthdata.com","kind":"highway","sort_rank":383,"kind_detail":"motorway","min_zoom":3.0,"id":13921},"arcs":[872]},{"type":"LineString","properties":{"source":"naturalearthdata.com","kind":"major_road","sort_rank":379,"kind_detail":"secondary","min_zoom":3.0,"id":13926},"arcs":[873]},{"type":"LineString","properties":{"source":"naturalearthdata.com","kind":"major_road","sort_rank":379,"kind_detail":"secondary","min_zoom":4.0,"id":13928},"arcs":[874]},{"type":"LineString","properties":{"source":"naturalearthdata.com","kind":"major_road","sort_rank":379,"kind_detail":"secondary","min_zoom":3.0,"id":13930},"arcs":[875]},{"type":"LineString","properties":{"source":"naturalearthdata.com","kind":"major_road","kind_detail":"secondary","sort_rank":379,"landuse_kind":"urban_area","min_zoom":4.0,"id":13941},"arcs":[876]},{"type":"LineString","properties":{"source":"naturalearthdata.com","kind":"major_road","sort_rank":379,"kind_detail":"secondary","min_zoom":4.0,"id":13941},"arcs":[877]},{"type":"LineString","properties":{"source":"naturalearthdata.com","kind":"major_road","kind_detail":"secondary","sort_rank":379,"landuse_kind":"urban_area","min_zoom":3.0,"id":13947},"arcs":[878]},{"type":"LineString","properties":{"source":"naturalearthdata.com","kind":"major_road","sort_rank":379,"kind_detail":"secondary","min_zoom":3.0,"id":13947},"arcs":[879]},{"type":"LineString","properties":{"source":"naturalearthdata.com","kind":"major_road","kind_detail":"secondary","sort_rank":379,"landuse_kind":"urban_area","min_zoom":4.0,"id":13950},"arcs":[880]},{"type":"LineString","properties":{"source":"naturalearthdata.com","kind":"major_road","kind_detail":"secondary","sort_rank":379,"landuse_kind":"urban_area","min_zoom":3.0,"id":13980},"arcs":[881]},{"type":"LineString","properties":{"source":"naturalearthdata.com","kind":"major_road","kind_detail":"secondary","sort_rank":379,"landuse_kind":"urban_area","min_zoom":3.0,"id":13981},"arcs":[882]},{"type":"LineString","properties":{"source":"naturalearthdata.com","kind":"major_road","kind_detail":"secondary","sort_rank":379,"landuse_kind":"urban_area","min_zoom":4.0,"id":13985},"arcs":[883]},{"type":"LineString","properties":{"source":"naturalearthdata.com","kind":"major_road","sort_rank":379,"kind_detail":"secondary","min_zoom":4.0,"id":13985},"arcs":[884]},{"type":"LineString","properties":{"source":"naturalearthdata.com","kind":"major_road","kind_detail":"secondary","sort_rank":379,"landuse_kind":"urban_area","min_zoom":4.0,"id":13994},"arcs":[885]},{"type":"LineString","properties":{"source":"naturalearthdata.com","kind":"major_road","sort_rank":379,"kind_detail":"secondary","min_zoom":4.0,"id":13994},"arcs":[886]},{"type":"LineString","properties":{"source":"naturalearthdata.com","kind":"major_road","sort_rank":379,"kind_detail":"secondary","min_zoom":3.0,"id":14006},"arcs":[887]},{"type":"LineString","properties":{"source":"naturalearthdata.com","kind":"major_road","sort_rank":379,"kind_detail":"secondary","min_zoom":4.0,"id":14007},"arcs":[888]},{"type":"LineString","properties":{"source":"naturalearthdata.com","kind":"major_road","sort_rank":379,"kind_detail":"secondary","min_zoom":3.0,"id":14030},"arcs":[889]},{"type":"LineString","properties":{"source":"naturalearthdata.com","kind":"major_road","kind_detail":"secondary","sort_rank":379,"landuse_kind":"urban_area","min_zoom":4.0,"id":14034},"arcs":[890]},{"type":"LineString","properties":{"source":"naturalearthdata.com","kind":"major_road","sort_rank":379,"kind_detail":"secondary","min_zoom":4.0,"id":14045},"arcs":[891]},{"type":"LineString","properties":{"source":"naturalearthdata.com","kind":"major_road","sort_rank":379,"kind_detail":"secondary","min_zoom":4.0,"id":14055},"arcs":[892]},{"type":"LineString","properties":{"source":"naturalearthdata.com","kind":"major_road","sort_rank":379,"kind_detail":"secondary","min_zoom":4.0,"id":14056},"arcs":[893]},{"type":"LineString","properties":{"source":"naturalearthdata.com","kind":"major_road","sort_rank":379,"kind_detail":"secondary","min_zoom":4.0,"id":14058},"arcs":[894]},{"type":"LineString","properties":{"source":"naturalearthdata.com","kind":"major_road","sort_rank":379,"kind_detail":"secondary","min_zoom":3.0,"id":14082},"arcs":[895]},{"type":"LineString","properties":{"source":"naturalearthdata.com","kind":"major_road","sort_rank":379,"kind_detail":"secondary","min_zoom":4.0,"id":14101},"arcs":[896]},{"type":"LineString","properties":{"source":"naturalearthdata.com","kind":"highway","sort_rank":383,"kind_detail":"motorway","min_zoom":3.0,"id":14104},"arcs":[897]},{"type":"LineString","properties":{"source":"naturalearthdata.com","kind":"major_road","kind_detail":"secondary","sort_rank":379,"landuse_kind":"urban_area","min_zoom":3.0,"id":14117},"arcs":[898]},{"type":"MultiLineString","properties":{"source":"naturalearthdata.com","kind":"major_road","sort_rank":379,"kind_detail":"secondary","min_zoom":3.0,"id":14117},"arcs":[[899],[900]]},{"type":"LineString","properties":{"source":"naturalearthdata.com","kind":"major_road","sort_rank":379,"kind_detail":"secondary","min_zoom":4.0,"id":14132},"arcs":[901]},{"type":"LineString","properties":{"source":"naturalearthdata.com","kind":"major_road","sort_rank":379,"kind_detail":"secondary","min_zoom":4.0,"id":14133},"arcs":[902]},{"type":"LineString","properties":{"source":"naturalearthdata.com","kind":"major_road","sort_rank":379,"kind_detail":"secondary","min_zoom":4.0,"id":14134},"arcs":[903]},{"type":"LineString","properties":{"source":"naturalearthdata.com","kind":"highway","kind_detail":"motorway","sort_rank":383,"landuse_kind":"urban_area","min_zoom":3.0,"id":14138},"arcs":[904]},{"type":"LineString","properties":{"source":"naturalearthdata.com","kind":"highway","sort_rank":383,"kind_detail":"motorway","min_zoom":3.0,"id":14138},"arcs":[905]},{"type":"LineString","properties":{"source":"naturalearthdata.com","kind":"major_road","kind_detail":"secondary","sort_rank":379,"landuse_kind":"urban_area","min_zoom":4.0,"id":14140},"arcs":[906]},{"type":"LineString","properties":{"source":"naturalearthdata.com","kind":"major_road","kind_detail":"secondary","sort_rank":379,"landuse_kind":"urban_area","min_zoom":4.0,"id":14146},"arcs":[907]},{"type":"LineString","properties":{"source":"naturalearthdata.com","kind":"major_road","sort_rank":379,"kind_detail":"secondary","min_zoom":4.0,"id":14146},"arcs":[908]},{"type":"LineString","properties":{"source":"naturalearthdata.com","kind":"major_road","kind_detail":"secondary","sort_rank":379,"landuse_kind":"urban_area","min_zoom":4.0,"id":14148},"arcs":[909]},{"type":"LineString","properties":{"source":"naturalearthdata.com","kind":"major_road","sort_rank":379,"kind_detail":"secondary","min_zoom":4.0,"id":14148},"arcs":[910]},{"type":"LineString","properties":{"source":"naturalearthdata.com","kind":"highway","kind_detail":"motorway","sort_rank":383,"landuse_kind":"urban_area","min_zoom":3.0,"id":14157},"arcs":[911]},{"type":"LineString","properties":{"source":"naturalearthdata.com","kind":"major_road","sort_rank":379,"kind_detail":"secondary","min_zoom":3.0,"id":14158},"arcs":[912]},{"type":"LineString","properties":{"source":"naturalearthdata.com","kind":"major_road","sort_rank":379,"kind_detail":"secondary","min_zoom":4.0,"id":14162},"arcs":[913]},{"type":"LineString","properties":{"source":"naturalearthdata.com","kind":"major_road","sort_rank":379,"kind_detail":"secondary","min_zoom":3.0,"id":14179},"arcs":[914]},{"type":"LineString","properties":{"source":"naturalearthdata.com","kind":"major_road","sort_rank":379,"kind_detail":"secondary","min_zoom":4.0,"id":14214},"arcs":[915]},{"type":"LineString","properties":{"source":"naturalearthdata.com","kind":"major_road","sort_rank":379,"kind_detail":"secondary","min_zoom":3.0,"id":14239},"arcs":[916]},{"type":"LineString","properties":{"source":"naturalearthdata.com","kind":"major_road","sort_rank":379,"kind_detail":"secondary","min_zoom":3.0,"id":14241},"arcs":[917]},{"type":"LineString","properties":{"source":"naturalearthdata.com","kind":"major_road","kind_detail":"secondary","sort_rank":379,"landuse_kind":"urban_area","min_zoom":4.0,"id":14243},"arcs":[918]},{"type":"LineString","properties":{"source":"naturalearthdata.com","kind":"major_road","sort_rank":379,"kind_detail":"secondary","min_zoom":4.0,"id":14243},"arcs":[919]},{"type":"LineString","properties":{"source":"naturalearthdata.com","kind":"major_road","sort_rank":379,"kind_detail":"secondary","min_zoom":4.0,"id":14265},"arcs":[920]},{"type":"LineString","properties":{"source":"naturalearthdata.com","kind":"major_road","kind_detail":"secondary","sort_rank":379,"landuse_kind":"urban_area","min_zoom":4.0,"id":14266},"arcs":[921]},{"type":"LineString","properties":{"source":"naturalearthdata.com","kind":"major_road","sort_rank":379,"kind_detail":"secondary","min_zoom":4.0,"id":14266},"arcs":[922]},{"type":"LineString","properties":{"source":"naturalearthdata.com","kind":"major_road","sort_rank":379,"kind_detail":"secondary","min_zoom":4.0,"id":14269},"arcs":[923]},{"type":"LineString","properties":{"source":"naturalearthdata.com","kind":"major_road","sort_rank":379,"kind_detail":"secondary","min_zoom":3.0,"id":14274},"arcs":[924]},{"type":"LineString","properties":{"source":"naturalearthdata.com","kind":"highway","kind_detail":"motorway","sort_rank":383,"landuse_kind":"urban_area","min_zoom":3.0,"id":14279},"arcs":[925]},{"type":"LineString","properties":{"source":"naturalearthdata.com","kind":"highway","sort_rank":383,"kind_detail":"motorway","min_zoom":3.0,"id":14279},"arcs":[926]},{"type":"LineString","properties":{"source":"naturalearthdata.com","kind":"major_road","sort_rank":379,"kind_detail":"secondary","min_zoom":4.0,"id":14294},"arcs":[927]},{"type":"LineString","properties":{"source":"naturalearthdata.com","kind":"major_road","sort_rank":379,"kind_detail":"secondary","min_zoom":4.0,"id":14295},"arcs":[928]},{"type":"LineString","properties":{"source":"naturalearthdata.com","kind":"major_road","kind_detail":"secondary","sort_rank":379,"landuse_kind":"urban_area","min_zoom":3.0,"id":14297},"arcs":[929]},{"type":"LineString","properties":{"source":"naturalearthdata.com","kind":"major_road","sort_rank":379,"kind_detail":"secondary","min_zoom":3.0,"id":14297},"arcs":[930]},{"type":"LineString","properties":{"source":"naturalearthdata.com","kind":"major_road","kind_detail":"secondary","sort_rank":379,"landuse_kind":"urban_area","min_zoom":3.0,"id":14305},"arcs":[931]},{"type":"LineString","properties":{"source":"naturalearthdata.com","kind":"major_road","kind_detail":"secondary","sort_rank":379,"landuse_kind":"urban_area","min_zoom":3.0,"id":14340},"arcs":[932]},{"type":"LineString","properties":{"source":"naturalearthdata.com","kind":"major_road","sort_rank":379,"kind_detail":"secondary","min_zoom":3.0,"id":14340},"arcs":[933]},{"type":"LineString","properties":{"source":"naturalearthdata.com","kind":"highway","sort_rank":383,"kind_detail":"motorway","min_zoom":3.0,"id":14380},"arcs":[934]},{"type":"LineString","properties":{"source":"naturalearthdata.com","kind":"major_road","sort_rank":379,"kind_detail":"secondary","min_zoom":3.0,"id":14415},"arcs":[935]},{"type":"LineString","properties":{"source":"naturalearthdata.com","kind":"major_road","sort_rank":379,"kind_detail":"secondary","min_zoom":3.0,"id":14417},"arcs":[936]},{"type":"LineString","properties":{"source":"naturalearthdata.com","kind":"major_road","sort_rank":379,"kind_detail":"secondary","min_zoom":3.0,"id":14429},"arcs":[937]},{"type":"LineString","properties":{"source":"naturalearthdata.com","kind":"major_road","sort_rank":379,"kind_detail":"secondary","min_zoom":3.0,"id":14487},"arcs":[938]},{"type":"LineString","properties":{"source":"naturalearthdata.com","kind":"major_road","sort_rank":379,"kind_detail":"secondary","min_zoom":3.0,"id":14492},"arcs":[939]},{"type":"LineString","properties":{"source":"naturalearthdata.com","kind":"major_road","sort_rank":379,"kind_detail":"secondary","min_zoom":3.0,"id":14497},"arcs":[940]},{"type":"LineString","properties":{"source":"naturalearthdata.com","kind":"major_road","kind_detail":"secondary","sort_rank":379,"landuse_kind":"urban_area","min_zoom":4.0,"id":14501},"arcs":[941]},{"type":"MultiLineString","properties":{"source":"naturalearthdata.com","kind":"major_road","sort_rank":379,"kind_detail":"secondary","min_zoom":4.0,"id":14501},"arcs":[[942],[943]]},{"type":"LineString","properties":{"source":"naturalearthdata.com","kind":"major_road","sort_rank":379,"kind_detail":"secondary","min_zoom":3.0,"id":14534},"arcs":[944]},{"type":"LineString","properties":{"source":"naturalearthdata.com","kind":"major_road","sort_rank":379,"kind_detail":"secondary","min_zoom":3.0,"id":14544},"arcs":[945]},{"type":"LineString","properties":{"source":"naturalearthdata.com","kind":"major_road","sort_rank":379,"kind_detail":"secondary","min_zoom":3.0,"id":14548},"arcs":[946]},{"type":"LineString","properties":{"source":"naturalearthdata.com","kind":"major_road","sort_rank":379,"kind_detail":"secondary","min_zoom":4.0,"id":14585},"arcs":[947]},{"type":"LineString","properties":{"source":"naturalearthdata.com","kind":"major_road","sort_rank":379,"kind_detail":"secondary","min_zoom":4.0,"id":14594},"arcs":[948]},{"type":"LineString","properties":{"source":"naturalearthdata.com","kind":"major_road","sort_rank":379,"kind_detail":"secondary","min_zoom":3.0,"id":14595},"arcs":[949]},{"type":"LineString","properties":{"source":"naturalearthdata.com","kind":"major_road","sort_rank":379,"kind_detail":"secondary","min_zoom":3.0,"id":14619},"arcs":[950]},{"type":"LineString","properties":{"source":"naturalearthdata.com","kind":"major_road","sort_rank":379,"kind_detail":"secondary","min_zoom":3.0,"id":14630},"arcs":[951]},{"type":"LineString","properties":{"source":"naturalearthdata.com","kind":"major_road","kind_detail":"secondary","sort_rank":379,"landuse_kind":"urban_area","min_zoom":4.0,"id":14658},"arcs":[952]},{"type":"LineString","properties":{"source":"naturalearthdata.com","kind":"major_road","kind_detail":"secondary","sort_rank":379,"landuse_kind":"urban_area","min_zoom":3.0,"id":14659},"arcs":[953]},{"type":"LineString","properties":{"source":"naturalearthdata.com","kind":"major_road","sort_rank":379,"kind_detail":"secondary","min_zoom":3.0,"id":14659},"arcs":[954]},{"type":"LineString","properties":{"source":"naturalearthdata.com","kind":"major_road","kind_detail":"secondary","sort_rank":379,"landuse_kind":"urban_area","min_zoom":4.0,"id":14661},"arcs":[955]},{"type":"LineString","properties":{"source":"naturalearthdata.com","kind":"major_road","sort_rank":379,"kind_detail":"secondary","min_zoom":3.0,"id":14665},"arcs":[956]},{"type":"LineString","properties":{"source":"naturalearthdata.com","kind":"major_road","sort_rank":379,"kind_detail":"secondary","min_zoom":3.0,"id":14668},"arcs":[957]},{"type":"LineString","properties":{"source":"naturalearthdata.com","kind":"major_road","kind_detail":"secondary","sort_rank":379,"landuse_kind":"urban_area","min_zoom":3.0,"id":14690},"arcs":[958]},{"type":"LineString","properties":{"source":"naturalearthdata.com","kind":"major_road","sort_rank":379,"kind_detail":"secondary","min_zoom":3.0,"id":14690},"arcs":[959]},{"type":"LineString","properties":{"source":"naturalearthdata.com","kind":"major_road","kind_detail":"secondary","sort_rank":379,"landuse_kind":"urban_area","min_zoom":3.0,"id":14696},"arcs":[960]},{"type":"LineString","properties":{"source":"naturalearthdata.com","kind":"major_road","kind_detail":"secondary","sort_rank":379,"landuse_kind":"urban_area","min_zoom":3.0,"id":14698},"arcs":[961]},{"type":"LineString","properties":{"source":"naturalearthdata.com","kind":"major_road","kind_detail":"secondary","sort_rank":379,"landuse_kind":"urban_area","min_zoom":4.0,"id":14704},"arcs":[962]},{"type":"LineString","properties":{"source":"naturalearthdata.com","kind":"major_road","sort_rank":379,"kind_detail":"secondary","min_zoom":4.0,"id":14704},"arcs":[963]},{"type":"LineString","properties":{"source":"naturalearthdata.com","kind":"major_road","kind_detail":"secondary","sort_rank":379,"landuse_kind":"urban_area","min_zoom":3.0,"id":14706},"arcs":[964]},{"type":"LineString","properties":{"source":"naturalearthdata.com","kind":"major_road","kind_detail":"secondary","sort_rank":379,"landuse_kind":"urban_area","min_zoom":4.0,"id":14708},"arcs":[965]},{"type":"LineString","properties":{"source":"naturalearthdata.com","kind":"major_road","sort_rank":379,"kind_detail":"secondary","min_zoom":4.0,"id":14708},"arcs":[966]},{"type":"LineString","properties":{"source":"naturalearthdata.com","kind":"major_road","sort_rank":379,"kind_detail":"secondary","min_zoom":4.0,"id":14709},"arcs":[967]},{"type":"LineString","properties":{"source":"naturalearthdata.com","kind":"major_road","kind_detail":"secondary","sort_rank":379,"landuse_kind":"urban_area","min_zoom":3.0,"id":14715},"arcs":[968]},{"type":"LineString","properties":{"source":"naturalearthdata.com","kind":"major_road","kind_detail":"secondary","sort_rank":379,"landuse_kind":"urban_area","min_zoom":3.0,"id":14721},"arcs":[969]},{"type":"LineString","properties":{"source":"naturalearthdata.com","kind":"major_road","sort_rank":379,"kind_detail":"secondary","min_zoom":3.0,"id":14721},"arcs":[970]},{"type":"LineString","properties":{"source":"naturalearthdata.com","kind":"major_road","sort_rank":379,"kind_detail":"secondary","min_zoom":4.0,"id":14736},"arcs":[971]},{"type":"LineString","properties":{"source":"naturalearthdata.com","kind":"major_road","sort_rank":379,"kind_detail":"secondary","min_zoom":4.0,"id":14750},"arcs":[972]},{"type":"LineString","properties":{"source":"naturalearthdata.com","kind":"major_road","sort_rank":379,"kind_detail":"secondary","min_zoom":4.0,"id":14751},"arcs":[973]},{"type":"LineString","properties":{"source":"naturalearthdata.com","kind":"major_road","kind_detail":"secondary","sort_rank":379,"landuse_kind":"urban_area","min_zoom":4.0,"id":14752},"arcs":[974]},{"type":"LineString","properties":{"source":"naturalearthdata.com","kind":"major_road","sort_rank":379,"kind_detail":"secondary","min_zoom":4.0,"id":14753},"arcs":[975]},{"type":"LineString","properties":{"source":"naturalearthdata.com","kind":"major_road","sort_rank":379,"kind_detail":"secondary","min_zoom":4.0,"id":14769},"arcs":[976]},{"type":"LineString","properties":{"source":"naturalearthdata.com","kind":"major_road","sort_rank":379,"kind_detail":"secondary","min_zoom":3.0,"id":14770},"arcs":[977]},{"type":"LineString","properties":{"source":"naturalearthdata.com","kind":"major_road","kind_detail":"secondary","sort_rank":379,"landuse_kind":"urban_area","min_zoom":3.0,"id":14783},"arcs":[978]},{"type":"LineString","properties":{"source":"naturalearthdata.com","kind":"major_road","sort_rank":379,"kind_detail":"secondary","min_zoom":3.0,"id":14783},"arcs":[979]},{"type":"LineString","properties":{"source":"naturalearthdata.com","kind":"major_road","kind_detail":"secondary","sort_rank":379,"landuse_kind":"urban_area","min_zoom":4.0,"id":14786},"arcs":[980]},{"type":"LineString","properties":{"source":"naturalearthdata.com","kind":"major_road","sort_rank":379,"kind_detail":"secondary","min_zoom":4.0,"id":14786},"arcs":[981]},{"type":"LineString","properties":{"source":"naturalearthdata.com","kind":"major_road","sort_rank":379,"kind_detail":"secondary","min_zoom":4.0,"id":14793},"arcs":[982]},{"type":"LineString","properties":{"source":"naturalearthdata.com","kind":"major_road","sort_rank":379,"kind_detail":"secondary","min_zoom":4.0,"id":14800},"arcs":[983]},{"type":"LineString","properties":{"source":"naturalearthdata.com","kind":"major_road","sort_rank":379,"kind_detail":"secondary","min_zoom":4.0,"id":14801},"arcs":[984]},{"type":"LineString","properties":{"source":"naturalearthdata.com","kind":"major_road","sort_rank":379,"kind_detail":"secondary","min_zoom":4.0,"id":14802},"arcs":[985]},{"type":"LineString","properties":{"source":"naturalearthdata.com","kind":"major_road","sort_rank":379,"kind_detail":"secondary","min_zoom":4.0,"id":14803},"arcs":[986]},{"type":"LineString","properties":{"source":"naturalearthdata.com","kind":"major_road","sort_rank":379,"kind_detail":"secondary","min_zoom":4.0,"id":14805},"arcs":[987]},{"type":"LineString","properties":{"source":"naturalearthdata.com","kind":"major_road","sort_rank":379,"kind_detail":"secondary","min_zoom":4.0,"id":14808},"arcs":[988]},{"type":"LineString","properties":{"source":"naturalearthdata.com","kind":"major_road","sort_rank":379,"kind_detail":"secondary","min_zoom":4.0,"id":14812},"arcs":[989]},{"type":"LineString","properties":{"source":"naturalearthdata.com","kind":"major_road","sort_rank":379,"kind_detail":"secondary","min_zoom":3.0,"id":14822},"arcs":[990]},{"type":"LineString","properties":{"source":"naturalearthdata.com","kind":"major_road","sort_rank":379,"kind_detail":"secondary","min_zoom":4.0,"id":14823},"arcs":[991]},{"type":"LineString","properties":{"source":"naturalearthdata.com","kind":"major_road","sort_rank":379,"kind_detail":"secondary","min_zoom":4.0,"id":14826},"arcs":[992]},{"type":"LineString","properties":{"source":"naturalearthdata.com","kind":"major_road","sort_rank":379,"kind_detail":"secondary","min_zoom":4.0,"id":14828},"arcs":[993]},{"type":"LineString","properties":{"source":"naturalearthdata.com","kind":"major_road","sort_rank":379,"kind_detail":"secondary","min_zoom":3.0,"id":14829},"arcs":[994]},{"type":"LineString","properties":{"source":"naturalearthdata.com","kind":"major_road","kind_detail":"secondary","sort_rank":379,"landuse_kind":"urban_area","min_zoom":4.0,"id":14830},"arcs":[995]},{"type":"LineString","properties":{"source":"naturalearthdata.com","kind":"major_road","sort_rank":379,"kind_detail":"secondary","min_zoom":4.0,"id":14830},"arcs":[996]},{"type":"LineString","properties":{"source":"naturalearthdata.com","kind":"major_road","sort_rank":379,"kind_detail":"secondary","min_zoom":4.0,"id":14832},"arcs":[997]},{"type":"LineString","properties":{"source":"naturalearthdata.com","kind":"major_road","sort_rank":379,"kind_detail":"secondary","min_zoom":3.0,"id":14879},"arcs":[998]},{"type":"LineString","properties":{"source":"naturalearthdata.com","kind":"major_road","sort_rank":379,"kind_detail":"secondary","min_zoom":3.0,"id":14894},"arcs":[999]},{"type":"LineString","properties":{"source":"naturalearthdata.com","kind":"major_road","sort_rank":379,"kind_detail":"secondary","min_zoom":3.0,"id":14938},"arcs":[1000]},{"type":"LineString","properties":{"source":"naturalearthdata.com","kind":"major_road","sort_rank":379,"kind_detail":"secondary","min_zoom":3.0,"id":14962},"arcs":[1001]},{"type":"LineString","properties":{"source":"naturalearthdata.com","kind":"major_road","sort_rank":379,"kind_detail":"secondary","min_zoom":3.0,"id":14996},"arcs":[1002]},{"type":"LineString","properties":{"source":"naturalearthdata.com","kind":"major_road","sort_rank":379,"kind_detail":"secondary","min_zoom":3.0,"id":15027},"arcs":[1003]},{"type":"LineString","properties":{"source":"naturalearthdata.com","kind":"major_road","sort_rank":379,"kind_detail":"secondary","min_zoom":3.0,"id":15066},"arcs":[1004]},{"type":"LineString","properties":{"source":"naturalearthdata.com","kind":"major_road","kind_detail":"secondary","sort_rank":379,"landuse_kind":"urban_area","min_zoom":3.0,"id":15115},"arcs":[1005]},{"type":"LineString","properties":{"source":"naturalearthdata.com","kind":"major_road","sort_rank":379,"kind_detail":"secondary","min_zoom":3.0,"id":15115},"arcs":[1006]},{"type":"LineString","properties":{"source":"naturalearthdata.com","kind":"major_road","kind_detail":"secondary","sort_rank":379,"landuse_kind":"urban_area","min_zoom":4.0,"id":15118},"arcs":[1007]},{"type":"LineString","properties":{"source":"naturalearthdata.com","kind":"major_road","kind_detail":"secondary","sort_rank":379,"landuse_kind":"urban_area","min_zoom":3.0,"id":15139},"arcs":[1008]},{"type":"LineString","properties":{"source":"naturalearthdata.com","kind":"major_road","sort_rank":379,"kind_detail":"secondary","min_zoom":3.0,"id":15139},"arcs":[1009]},{"type":"LineString","properties":{"source":"naturalearthdata.com","kind":"major_road","sort_rank":379,"kind_detail":"secondary","min_zoom":3.0,"id":15146},"arcs":[1010]},{"type":"LineString","properties":{"source":"naturalearthdata.com","kind":"major_road","sort_rank":379,"kind_detail":"secondary","min_zoom":3.0,"id":15147},"arcs":[1011]},{"type":"LineString","properties":{"source":"naturalearthdata.com","kind":"major_road","sort_rank":379,"kind_detail":"secondary","min_zoom":3.0,"id":15153},"arcs":[1012]},{"type":"LineString","properties":{"source":"naturalearthdata.com","kind":"major_road","sort_rank":379,"kind_detail":"secondary","min_zoom":3.0,"id":15168},"arcs":[1013]},{"type":"LineString","properties":{"source":"naturalearthdata.com","kind":"major_road","sort_rank":379,"kind_detail":"secondary","min_zoom":3.0,"id":15325},"arcs":[1014]},{"type":"LineString","properties":{"source":"naturalearthdata.com","kind":"major_road","sort_rank":379,"kind_detail":"secondary","min_zoom":3.0,"id":15348},"arcs":[1015]},{"type":"LineString","properties":{"source":"naturalearthdata.com","kind":"major_road","kind_detail":"secondary","sort_rank":379,"landuse_kind":"urban_area","min_zoom":3.0,"id":15362},"arcs":[1016]},{"type":"LineString","properties":{"source":"naturalearthdata.com","kind":"major_road","sort_rank":379,"kind_detail":"secondary","min_zoom":3.0,"id":15362},"arcs":[1017]},{"type":"LineString","properties":{"source":"naturalearthdata.com","kind":"major_road","kind_detail":"secondary","sort_rank":379,"landuse_kind":"urban_area","min_zoom":4.0,"id":15363},"arcs":[1018]},{"type":"LineString","properties":{"source":"naturalearthdata.com","kind":"major_road","kind_detail":"secondary","sort_rank":379,"landuse_kind":"urban_area","min_zoom":3.0,"id":15366},"arcs":[1019]},{"type":"LineString","properties":{"source":"naturalearthdata.com","kind":"major_road","kind_detail":"secondary","sort_rank":379,"landuse_kind":"urban_area","min_zoom":3.0,"id":15369},"arcs":[1020]},{"type":"LineString","properties":{"source":"naturalearthdata.com","kind":"major_road","kind_detail":"secondary","sort_rank":379,"landuse_kind":"urban_area","min_zoom":3.0,"id":15371},"arcs":[1021]},{"type":"LineString","properties":{"source":"naturalearthdata.com","kind":"major_road","kind_detail":"secondary","sort_rank":379,"landuse_kind":"urban_area","min_zoom":3.0,"id":15378},"arcs":[1022]},{"type":"LineString","properties":{"source":"naturalearthdata.com","kind":"major_road","sort_rank":379,"kind_detail":"secondary","min_zoom":3.0,"id":15383},"arcs":[1023]},{"type":"LineString","properties":{"source":"naturalearthdata.com","kind":"major_road","sort_rank":379,"kind_detail":"secondary","min_zoom":3.0,"id":15390},"arcs":[1024]},{"type":"LineString","properties":{"source":"naturalearthdata.com","kind":"major_road","kind_detail":"secondary","sort_rank":379,"landuse_kind":"urban_area","min_zoom":4.0,"id":15392},"arcs":[1025]},{"type":"LineString","properties":{"source":"naturalearthdata.com","kind":"major_road","kind_detail":"secondary","sort_rank":379,"landuse_kind":"urban_area","min_zoom":3.0,"id":15418},"arcs":[1026]},{"type":"LineString","properties":{"source":"naturalearthdata.com","kind":"major_road","sort_rank":379,"kind_detail":"secondary","min_zoom":3.0,"id":15418},"arcs":[1027]},{"type":"LineString","properties":{"source":"naturalearthdata.com","kind":"major_road","sort_rank":379,"kind_detail":"secondary","min_zoom":3.0,"id":15474},"arcs":[1028]},{"type":"LineString","properties":{"source":"naturalearthdata.com","kind":"major_road","kind_detail":"secondary","sort_rank":379,"landuse_kind":"urban_area","min_zoom":3.0,"id":15483},"arcs":[1029]},{"type":"LineString","properties":{"source":"naturalearthdata.com","kind":"major_road","sort_rank":379,"kind_detail":"secondary","min_zoom":3.0,"id":15483},"arcs":[1030]},{"type":"LineString","properties":{"source":"naturalearthdata.com","kind":"major_road","sort_rank":379,"kind_detail":"secondary","min_zoom":3.0,"id":15489},"arcs":[1031]},{"type":"LineString","properties":{"source":"naturalearthdata.com","kind":"major_road","kind_detail":"secondary","sort_rank":379,"landuse_kind":"urban_area","min_zoom":3.0,"id":15495},"arcs":[1032]},{"type":"LineString","properties":{"source":"naturalearthdata.com","kind":"major_road","sort_rank":379,"kind_detail":"secondary","min_zoom":3.0,"id":15495},"arcs":[1033]},{"type":"LineString","properties":{"source":"naturalearthdata.com","kind":"major_road","kind_detail":"secondary","sort_rank":379,"landuse_kind":"urban_area","min_zoom":3.0,"id":15496},"arcs":[1034]},{"type":"LineString","properties":{"source":"naturalearthdata.com","kind":"major_road","sort_rank":379,"kind_detail":"secondary","min_zoom":3.0,"id":15496},"arcs":[1035]},{"type":"LineString","properties":{"source":"naturalearthdata.com","kind":"major_road","sort_rank":379,"kind_detail":"secondary","min_zoom":3.0,"id":15526},"arcs":[1036]},{"type":"LineString","properties":{"source":"naturalearthdata.com","kind":"highway","kind_detail":"motorway","sort_rank":383,"landuse_kind":"urban_area","min_zoom":3.0,"id":15541},"arcs":[1037]},{"type":"LineString","properties":{"source":"naturalearthdata.com","kind":"highway","sort_rank":383,"kind_detail":"motorway","min_zoom":3.0,"id":15541},"arcs":[1038]},{"type":"LineString","properties":{"source":"naturalearthdata.com","kind":"major_road","sort_rank":379,"kind_detail":"secondary","min_zoom":3.0,"id":15543},"arcs":[1039]},{"type":"LineString","properties":{"source":"naturalearthdata.com","kind":"major_road","kind_detail":"secondary","sort_rank":379,"landuse_kind":"urban_area","min_zoom":4.0,"id":15583},"arcs":[1040]},{"type":"LineString","properties":{"source":"naturalearthdata.com","kind":"major_road","sort_rank":379,"kind_detail":"secondary","min_zoom":4.0,"id":15583},"arcs":[1041]},{"type":"LineString","properties":{"source":"naturalearthdata.com","kind":"major_road","sort_rank":379,"kind_detail":"secondary","min_zoom":3.0,"id":15619},"arcs":[1042]},{"type":"LineString","properties":{"source":"naturalearthdata.com","kind":"major_road","sort_rank":379,"kind_detail":"secondary","min_zoom":4.0,"id":15632},"arcs":[1043]},{"type":"LineString","properties":{"source":"naturalearthdata.com","kind":"major_road","sort_rank":379,"kind_detail":"secondary","min_zoom":3.0,"id":15671},"arcs":[1044]},{"type":"LineString","properties":{"source":"naturalearthdata.com","kind":"major_road","sort_rank":379,"kind_detail":"secondary","min_zoom":3.0,"id":15676},"arcs":[1045]},{"type":"LineString","properties":{"source":"naturalearthdata.com","kind":"major_road","sort_rank":379,"kind_detail":"secondary","min_zoom":3.0,"id":15692},"arcs":[1046]},{"type":"LineString","properties":{"source":"naturalearthdata.com","kind":"major_road","sort_rank":379,"kind_detail":"secondary","min_zoom":3.0,"id":15709},"arcs":[1047]},{"type":"LineString","properties":{"source":"naturalearthdata.com","kind":"major_road","sort_rank":379,"kind_detail":"secondary","min_zoom":4.0,"id":15711},"arcs":[1048]},{"type":"LineString","properties":{"source":"naturalearthdata.com","kind":"major_road","sort_rank":379,"kind_detail":"secondary","min_zoom":3.0,"id":15735},"arcs":[1049]},{"type":"LineString","properties":{"source":"naturalearthdata.com","kind":"highway","sort_rank":383,"kind_detail":"motorway","min_zoom":3.0,"id":15786},"arcs":[1050]},{"type":"LineString","properties":{"source":"naturalearthdata.com","kind":"highway","sort_rank":383,"kind_detail":"motorway","min_zoom":3.0,"id":48648},"arcs":[1051]},{"type":"LineString","properties":{"source":"naturalearthdata.com","kind":"highway","sort_rank":383,"kind_detail":"motorway","min_zoom":3.0,"id":48651},"arcs":[1052]}]},"earth":{"type":"GeometryCollection","geometries":[{"type":"MultiPolygon","properties":{"sort_rank":10,"source":"naturalearthdata.com","min_zoom":0.0,"kind":"earth","area":5397125446760},"arcs":[[[1053]]]}]},"landuse":{"type":"GeometryCollection","geometries":[{"type":"Polygon","properties":{"kind":"nature_reserve","name":"\u0413\u043e\u0441\u0443\u0434\u0430\u0440\u0441\u0442\u0432\u0435\u043d\u043d\u044b\u0439 \u0437\u0430\u043a\u0430\u0437\u043d\u0438\u043a \u0444\u0435\u0434\u0435\u0440\u0430\u043b\u044c\u043d\u043e\u0433\u043e \u0437\u043d\u0430\u0447\u0435\u043d\u0438\u044f \"\u041c\u0443\u0440\u043e\u043c\u0441\u043a\u0438\u0439\"","area":1937600000,"sort_rank":23,"source":"openstreetmap.org","min_zoom":4.0,"tier":2,"id":-6743898,"osm_relation":true,"protect_class":"4"},"arcs":[[1054]]},{"type":"Polygon","properties":{"kind":"nature_reserve","name":"\u041d\u0430\u0446\u0438\u043e\u043d\u0430\u043b\u044c\u043d\u044b\u0439 \u043f\u0430\u0440\u043a \"\u0423\u0433\u0440\u0430\"","area":1951149952,"sort_rank":23,"source":"openstreetmap.org","min_zoom":4.0,"tier":2,"id":-6187486,"osm_relation":true},"arcs":[[1055]]},{"type":"Polygon","properties":{"kind":"park","name":"\u041e\u043a\u0441\u043a\u0438\u0439 \u0431\u0438\u043e\u0441\u0444\u0435\u0440\u043d\u044b\u0439 \u0433\u043e\u0441\u0443\u0434\u0430\u0440\u0441\u0442\u0432\u0435\u043d\u043d\u044b\u0439 \u0437\u0430\u043f\u043e\u0432\u0435\u0434\u043d\u0438\u043a","area":1738749952,"sort_rank":24,"source":"openstreetmap.org","min_zoom":4.0,"tier":2,"id":111667217},"arcs":[[1056]]},{"type":"Polygon","properties":{"kind":"nature_reserve","name":"\u041d\u0430\u0446\u0438\u043e\u043d\u0430\u043b\u044c\u043d\u044b\u0439 \u043f\u0430\u0440\u043a \"\u041c\u0435\u0449\u0435\u0440\u0441\u043a\u0438\u0439\"","area":3453530112,"sort_rank":23,"source":"openstreetmap.org","min_zoom":4.0,"tier":2,"id":474136261},"arcs":[[1057]]},{"type":"Polygon","properties":{"kind":"park","name":"\u0413\u043e\u0441\u0443\u0434\u0430\u0440\u0441\u0442\u0432\u0435\u043d\u043d\u044b\u0439 \u043f\u0440\u0438\u0440\u043e\u0434\u043d\u044b\u0439 \u0437\u0430\u043a\u0430\u0437\u043d\u0438\u043a \u0444\u0435\u0434\u0435\u0440\u0430\u043b\u044c\u043d\u043e\u0433\u043e \u0437\u043d\u0430\u0447\u0435\u043d\u0438\u044f \u0413\u043e\u0441\u0443\u0434\u0430\u0440\u0441\u0442\u0432\u0435\u043d\u043d\u044b\u0439 \u043a\u043e\u043c\u043f\u043b\u0435\u043a\u0441 \u00ab\u0422\u0430\u0440\u0443\u0441\u0430\u00bb","area":1428359936,"sort_rank":24,"source":"openstreetmap.org","min_zoom":4.0,"tier":2,"id":-2169138,"osm_relation":true},"arcs":[[1058],[1059]]},{"type":"Polygon","properties":{"kind":"nature_reserve","name":"\u0420\u0435\u0433\u0456\u043e\u043d\u0430\u043b\u044c\u043d\u0438\u0439 \u043b\u0430\u043d\u0434\u0448\u0430\u0444\u0442\u043d\u0438\u0439 \u043f\u0430\u0440\u043a \u00ab\u0421\u0435\u0439\u043c\u0441\u044c\u043a\u0438\u0439\u00bb","area":2883899904,"sort_rank":23,"source":"openstreetmap.org","min_zoom":4.0,"tier":2,"id":370717639,"protect_class":"5"},"arcs":[[1060]]},{"type":"Polygon","properties":{"kind":"national_park","name":"\u041d\u0430\u0446\u0456\u043e\u043d\u0430\u043b\u044c\u043d\u0438\u0439 \u043f\u0440\u0438\u0440\u043e\u0434\u043d\u0438\u0439 \u043f\u0430\u0440\u043a \u00ab\u0413\u043e\u043c\u0456\u043b\u044c\u0448\u0430\u043d\u0441\u044c\u043a\u0456 \u043b\u0456\u0441\u0438\u00bb","area":358151008,"sort_rank":18,"source":"openstreetmap.org","min_zoom":3.0,"tier":1,"id":-4270269,"osm_relation":true,"protect_class":"2"},"arcs":[[1061]]},{"type":"Polygon","properties":{"kind":"nature_reserve","name":"\u0413\u043e\u0441\u0443\u0434\u0430\u0440\u0441\u0442\u0432\u0435\u043d\u043d\u044b\u0439 \u043f\u0440\u0438\u0440\u043e\u0434\u043d\u044b\u0439 \u0437\u0430\u043a\u0430\u0437\u043d\u0438\u043a \u0444\u0435\u0434\u0435\u0440\u0430\u043b\u044c\u043d\u043e\u0433\u043e \u0437\u043d\u0430\u0447\u0435\u043d\u0438\u044f \u00ab\u0420\u044f\u0437\u0430\u043d\u0441\u043a\u0438\u0439\u00bb","area":1076140032,"sort_rank":23,"source":"openstreetmap.org","min_zoom":4.0,"tier":2,"id":474138931},"arcs":[[1062]]},{"type":"MultiPolygon","properties":{"source":"naturalearthdata.com","kind":"urban_area","name":"","area":68098943521,"sort_rank":11,"min_zoom":4.0},"arcs":[[[1063]],[[1064]],[[1065]],[[1066]],[[1067]],[[1068]],[[1069]],[[1070]],[[1071]],[[1072]],[[1073]],[[1074]],[[1075]],[[1076]],[[1077]],[[1078]],[[1079]],[[1080]],[[1081]],[[1082]],[[1083]],[[1084]],[[1085]],[[1086]],[[1087]],[[1088]],[[1089]],[[1090]],[[1091]],[[1092]],[[1093]]]},{"type":"Polygon","properties":{"kind":"nature_reserve","name":"\u041d\u0430\u0446\u0438\u043e\u043d\u0430\u043b\u044c\u043d\u044b\u0439 \u043f\u0430\u0440\u043a \"\u041e\u0440\u043b\u043e\u0432\u0441\u043a\u043e\u0435 \u041f\u043e\u043b\u0435\u0441\u044c\u0435\"","area":2376489984,"sort_rank":23,"source":"openstreetmap.org","min_zoom":4.0,"tier":2,"id":474139652},"arcs":[[1094]]},{"type":"Polygon","properties":{"kind":"nature_reserve","name":"\u041f\u0440\u0438\u0440\u043e\u0434\u043d\u044b\u0439 \u0440\u0435\u0437\u0435\u0440\u0432\u0430\u0442 \"\u041b\u0430\u043d\u0434\u0448\u0430\u0444\u0442 \u0440\u0435\u043a\u0438 \u0423\u0433\u0440\u0430\"","area":2350769920,"sort_rank":23,"source":"openstreetmap.org","min_zoom":4.0,"tier":2,"id":-5224115,"osm_relation":true,"protect_class":"1"},"arcs":[[1095]]},{"type":"MultiPolygon","properties":{"kind":"national_park","name":"\u041d\u0430\u0446\u0456\u043e\u043d\u0430\u043b\u044c\u043d\u0438\u0439 \u043f\u0440\u0438\u0440\u043e\u0434\u043d\u0438\u0439 \u043f\u0430\u0440\u043a \u00ab\u0414\u0435\u0441\u043d\u044f\u043d\u0441\u044c\u043a\u043e-\u0421\u0442\u0430\u0440\u043e\u0433\u0443\u0442\u0441\u044c\u043a\u0438\u0439\u00bb","area":459996604,"sort_rank":18,"source":"openstreetmap.org","min_zoom":5.0,"tier":1,"osm_relation":true,"protect_class":"2"},"arcs":[[[1096]]]},{"type":"Polygon","properties":{"kind":"nature_reserve","name":"\u0411\u0438\u043e\u043b\u043e\u0433\u0438\u0447\u0435\u0441\u043a\u0438\u0439 \u0437\u0430\u043a\u0430\u0437\u043d\u0438\u043a \u00ab\u041c\u043e\u0440\u0448\u0430\u043d\u0441\u043a\u0438\u0439\u00bb","area":1232960000,"sort_rank":23,"source":"openstreetmap.org","min_zoom":4.0,"tier":2,"id":332177514,"protect_class":"7"},"arcs":[[1097]]},{"type":"Polygon","properties":{"kind":"nature_reserve","name":"\u0433\u043e\u0441\u0443\u0434\u0430\u0440\u0441\u0442\u0432\u0435\u043d\u043d\u044b\u0439 \u043f\u0440\u0438\u0440\u043e\u0434\u043d\u044b\u0439 \u0437\u0430\u043a\u0430\u0437\u043d\u0438\u043a \u0420\u0430\u0437\u0434\u043e\u0440\u0441\u043a\u0438\u0439","area":1088440064,"sort_rank":23,"source":"openstreetmap.org","min_zoom":4.0,"tier":2,"id":-2861531,"osm_relation":true},"arcs":[[1098]]},{"type":"Polygon","properties":{"kind":"nature_reserve","name":"\u041f\u0440\u0438\u0440\u043e\u0434\u043d\u044b\u0439 \u043f\u0430\u0440\u043a \"\u0413\u0430\u0433\u0430\u0440\u0438\u043d\u0441\u043a\u0438\u0439\"","area":1918739968,"sort_rank":23,"source":"openstreetmap.org","min_zoom":4.0,"tier":2,"id":-5224088,"osm_relation":true,"protect_class":"5"},"arcs":[[1099]]}]}},"type":"Topology","transform":{"translate":[33.75,48.9224992638],"scale":[0.002746582,0.0016733579]},"arcs":[[[0,2055],[11,-1],[9,-3],[4,-6],[3,-8],[5,-10],[8,-7],[15,-10],[7,-10],[9,-20],[5,-7],[23,-16],[6,-6],[6,-10],[4,-7],[2,-6],[1,-5],[0,-7],[-6,-14],[0,-3],[1,-10],[1,-20],[2,-11],[4,-11],[8,-12],[1,-11],[-3,-8],[0,-6],[18,0],[8,-5],[13,-18],[2,-2],[5,-4],[2,-2],[1,-3],[1,-8],[0,-2],[5,-1]],[[192,1768],[6,-4],[12,-14],[7,-5],[9,-9],[5,-6],[10,-24],[1,-24],[-14,-17],[-7,-2]],[[181,1765],[6,3],[5,0]],[[221,1663],[-21,1]],[[200,1664],[-62,-16],[-15,-8],[-3,-14],[4,-6],[13,-4],[5,-3],[2,-5],[1,-12],[2,-5],[2,-5],[16,-18],[4,-9],[3,-10],[1,-13],[-1,-6],[-3,-11],[-1,-6],[1,-6],[1,-5],[1,-5],[-1,-6],[-3,-4],[-8,-1],[-2,-4],[2,-5],[3,-5],[8,-7],[5,-4],[6,-2],[6,-2]],[[200,1462],[3,-21],[-9,-19],[-14,-17],[-21,-15],[26,-11],[9,-2]],[[187,1457],[6,0],[7,5]],[[226,1395],[14,-2],[26,-10],[12,-4]],[[194,1377],[6,3],[14,12],[12,3]],[[302,1383],[11,-2],[5,-5],[2,-8],[2,-10],[3,-9],[5,-5],[7,-2],[26,-2]],[[278,1379],[24,4]],[[441,1370],[7,-3],[7,-5]],[[363,1340],[26,6],[30,13],[16,11],[6,0]],[[477,1368],[7,-2],[4,-6],[3,-9],[9,-55],[7,-20],[11,-10],[12,-1]],[[455,1362],[7,2],[7,3],[8,1]],[[555,1271],[12,-1],[8,-3],[6,-4],[3,-6],[-3,-11],[-5,-5],[-20,-4],[2,-7],[0,-12],[0,-4],[1,-6],[3,-4],[9,-2],[4,-3],[5,-8],[0,-7],[-1,-7],[0,-9],[3,-8],[7,-10],[4,-8],[0,-8],[0,-7],[0,-7],[5,-5],[9,-6],[4,-4],[4,-5],[3,-17],[-1,-15],[0,-13],[9,-12],[-28,-13],[-6,-7],[1,-7],[17,-73],[8,-15],[12,-5],[8,-2],[7,-2],[7,-6],[5,-10],[3,-14],[0,-11],[3,-9],[8,-10],[7,-5],[7,-4],[8,-2],[7,-1]],[[530,1265],[25,6]],[[1334,902],[8,-4],[5,-16],[5,-19],[6,-16],[32,-16],[11,-13],[1,-25],[-3,-14],[-1,-7],[0,-6],[3,-4],[12,-14],[35,-57],[13,-10],[29,-14],[14,-9],[13,-12],[11,-15],[12,-22],[0,-1],[6,-11],[0,-9],[2,-4]],[[1202,844],[53,16],[11,9],[21,23],[11,5],[36,5]],[[794,901],[64,-5],[10,-6],[2,-11],[11,-6],[36,-61],[9,-4]],[[700,847],[7,3],[2,0],[5,6],[4,8],[6,8],[3,1],[7,1],[3,1],[4,5],[7,10],[5,4],[7,3],[34,4]],[[1176,848],[26,-4]],[[1036,766],[8,1],[7,5],[3,5],[6,13],[3,5],[5,5],[60,37],[24,10],[24,1]],[[965,827],[3,-1],[8,-5],[8,-2],[10,-7],[12,-3],[3,-1],[5,-4],[1,-2],[-1,-2],[0,-13],[-1,-6],[1,-6],[5,-4],[8,-3],[9,-2]],[[926,808],[8,0],[9,4],[8,6],[7,8],[2,1],[5,0]],[[1616,681],[24,-2]],[[1591,596],[17,12],[2,26],[-3,28],[4,18],[5,1]],[[1650,681],[7,-1],[5,-7],[11,-34],[4,-7],[7,-3],[16,-2],[7,-3],[8,-6],[14,-5]],[[1640,679],[10,2]],[[1789,623],[0,-1],[3,-12],[1,-10],[2,-5],[3,-3],[22,-17],[38,-11],[12,-13],[9,-14],[10,-11]],[[1773,614],[3,2],[4,2],[8,4],[1,1]],[[1755,618],[18,-4]],[[1729,613],[26,5]],[[1576,602],[4,-1],[7,-4],[4,-1]],[[1548,584],[8,6],[16,10],[4,2]],[[1968,568],[9,-8],[1,-1],[20,-55],[8,-13],[11,-7],[14,-4]],[[1889,526],[34,3],[6,2],[7,6],[12,18],[6,8],[14,5]],[[2073,494],[13,-9],[7,-4],[21,-2],[5,-6],[4,-14],[6,-25],[9,-21],[11,-8],[13,-4],[15,-8],[19,-19],[7,-4],[10,0]],[[2031,480],[14,4],[14,7],[14,3]],[[2275,410],[7,0],[36,-11],[1,-1],[4,-5],[-2,-13],[-5,-8],[-14,-9],[-7,-6],[-7,-20],[2,-18],[8,-18],[14,-24],[17,-22],[5,-9],[-1,-11],[-5,-20],[-1,-22],[-3,-5],[-8,-6],[-7,-6],[-12,-20],[-7,-9],[-22,-16],[-10,-10],[-8,-15],[-1,-8],[-1,-17],[-2,-6],[-4,-3],[-6,-1]],[[2213,370],[11,2],[11,5],[9,6],[22,23],[9,4]],[[2236,71],[-11,2],[-11,0]],[[2214,73],[-30,-11]],[[2184,62],[-18,1]],[[2166,63],[-7,-5],[-2,-30],[5,-7],[7,-5],[7,-7],[4,-9]],[[3116,2943],[-37,-15],[-26,-6]],[[2925,3703],[-1,-4],[3,-16],[4,-4],[6,-4],[14,-7],[6,-1]],[[2994,3685],[3,0],[2,-1],[2,-3],[0,-3],[-1,-4],[-2,-6],[-3,-6],[0,-3],[1,-3],[9,-7],[1,-3],[0,-1],[-1,-1],[-12,-4],[-2,-1],[-1,-3],[1,-3],[6,-5],[5,-2],[16,-3],[14,-8],[9,-5],[23,-9],[5,0]],[[2957,3667],[5,0],[30,17],[2,1]],[[3164,3640],[3,-1],[3,-1],[6,-3],[3,-3],[0,-2],[0,-1],[-7,-11],[-3,-3],[-3,-5],[-1,-1],[0,-3],[0,-4],[3,-6],[3,-4],[4,-6],[1,-4],[1,-4],[-3,-23]],[[3069,3601],[4,1],[7,4],[3,2],[11,12],[4,4],[10,3],[10,2],[8,2],[1,1],[23,2],[8,4],[3,1],[3,1]],[[1037,3795],[-3,1],[-1,2],[0,2],[-1,2],[0,2],[0,2],[0,2],[1,6],[0,2],[-1,4],[-2,2],[-3,0],[-5,1]],[[1022,3823],[-4,0],[-5,-1],[-1,-1],[-2,-1],[-4,-5],[-2,-1],[-2,0]],[[1002,3814],[-20,7],[-5,1]],[[977,3822],[-4,0],[-13,-8],[-12,-5],[-2,0],[0,-2],[0,-2],[2,-5],[0,-2],[1,-2],[0,-2],[1,-2],[0,-2],[0,-1],[0,-1],[-1,-2],[-4,-4],[-2,-4],[-2,-1],[-1,-1],[-2,-1],[-1,-2],[-1,-5],[-1,-1],[-2,-1],[-6,-2],[-4,-2],[-3,-2],[-4,-2],[-1,-2],[-1,-1],[-1,-3],[-2,-2],[-5,-2],[-36,-6]],[[780,3773],[-13,1],[-5,3],[-32,26],[-4,3],[-14,2]],[[712,3808],[-3,-1],[-2,-1],[-3,-3],[-1,-2],[-3,0]],[[700,3801],[-34,5]],[[666,3806],[-4,-1],[-1,-1],[1,-2],[4,-9],[-2,-4],[-14,-3],[-3,-3],[-2,-7],[-1,-2],[-2,-2],[-11,-7],[-4,-1],[-2,0]],[[1105,3746],[-2,1],[-1,1],[0,2],[0,1],[2,4],[1,8],[-1,4],[-1,3],[-2,3],[-8,12],[-5,3],[-2,1],[-3,1],[-13,2],[-14,7],[-4,1]],[[1052,3800],[-3,-1],[-1,0],[-4,-3],[-3,-1],[-4,0]],[[625,3764],[-23,10],[-12,1]],[[818,3761],[-21,11],[-9,1]],[[788,3773],[-8,0]],[[1148,3769],[-2,-1],[-4,-2],[-2,-1],[-1,-2],[0,-3],[0,-2],[-1,-3],[-2,-4],[-5,-2],[-26,-3]],[[870,3742],[-4,1],[-8,9],[-2,2],[-4,1],[-7,1],[-3,2],[-3,1],[-3,4],[-3,2],[-2,1]],[[831,3766],[-2,0],[-11,-5]],[[1278,3534],[-22,14],[-4,5],[0,2],[1,2],[2,4],[1,3],[0,3],[0,5],[-1,2],[-2,3],[-12,12],[-2,3],[-1,3],[0,2],[-1,4],[-1,4],[-9,21]],[[1227,3626],[-12,28],[-1,4],[0,4],[-1,9],[1,18],[-1,2],[-2,3],[-5,0],[-3,1],[-4,3],[-1,2],[-3,10],[-14,19],[-8,5],[-4,2],[-1,2],[-2,2],[-3,9],[-1,3],[-6,13],[-5,4],[-3,0]],[[1537,3494],[-2,0],[-2,2],[-1,2],[0,5],[1,4],[-1,4],[0,3],[-5,12],[-2,6],[-35,3]],[[1490,3535],[-4,-1],[-9,-6],[-4,-1]],[[1323,3526],[-45,8]],[[1428,3461],[-39,13],[-2,2],[-1,2],[0,3],[0,2],[-1,2],[-1,1],[-1,2],[-16,10],[-2,2],[-5,6],[-2,3],[-2,4],[-2,5],[-1,4],[-2,4],[-1,1],[-1,2],[-3,1],[-2,1],[-3,0]],[[1341,3531],[-18,-5]],[[1473,3527],[-10,0]],[[1463,3527],[-5,-1],[-2,-1],[0,-7],[1,-2],[1,-2],[4,-5],[0,-2],[1,-2],[1,-2],[0,-2],[0,-2],[-5,-25],[-6,-5],[-25,-8]],[[1599,3441],[-2,1],[-2,3],[-5,7],[-4,3],[-14,0],[-7,3],[-3,3],[-2,2],[-1,2],[0,4],[0,4],[1,5],[0,2],[0,2],[-1,3],[-2,3],[-6,4],[-3,2],[-2,0]],[[1546,3494],[-9,0]],[[1671,3422],[-44,6],[-3,3],[-3,3],[-1,3],[-3,6],[-1,2],[-1,1],[-3,1]],[[1612,3447],[-6,-2],[-2,-1],[-3,-2],[-2,-1]],[[1793,3181],[-14,5],[-15,11],[-27,10],[-2,14],[-1,31],[-1,11],[-2,4],[-2,2],[-2,1],[-7,3],[-2,1],[-2,2],[-1,1],[-14,21],[-10,13],[-2,3],[0,3],[-1,2],[0,8],[-1,4],[0,2],[-3,5],[0,2],[1,2],[3,2],[2,1],[13,3],[3,1],[2,2],[6,9],[6,13],[3,5],[3,3],[6,1],[2,1],[1,1],[1,5],[-1,3],[-8,14],[-4,7],[-2,1],[-2,2],[-3,1],[-25,2],[-3,1],[-7,6],[-1,1]],[[1680,3427],[-3,-1],[-3,-3],[-1,0],[-2,-1]],[[2562,1777],[-3,0],[-2,2],[-1,1],[-1,3],[-1,3],[-2,6],[-1,4],[-2,3],[-3,3],[-3,1],[-84,8]],[[2610,1685],[-10,0],[-1,3],[-1,3],[2,6],[7,18],[3,6],[0,4],[0,3],[1,8],[0,3],[1,3],[6,11],[1,7],[-2,14],[-21,12],[-9,3],[-7,1]],[[2580,1790],[-3,-2],[-4,-5],[-2,-2],[-3,-3],[-6,-1]],[[2922,1665],[-7,1],[-4,1],[-3,2],[-6,8],[-4,4],[-4,1],[-19,3],[-5,2],[-12,10],[-5,2],[-11,1],[-3,1],[-2,3],[-4,6],[-2,4],[-6,5],[-3,1],[-3,0]],[[2819,1720],[-3,-1],[-2,-2],[-2,-2],[-1,-2],[-6,-12],[-2,-2],[-4,-1]],[[2799,1698],[-8,0],[-12,4],[-26,14],[-5,0]],[[2748,1716],[-3,-1],[-1,-2],[-2,-2],[-2,-3],[0,-3],[0,-3],[0,-4],[4,-8],[0,-3],[-1,-3],[-2,-2],[-4,-1],[-52,-2],[-6,-3],[-5,-7],[-2,-1],[-8,-2]],[[2664,1666],[-5,2],[-9,9],[-20,7],[-7,2],[-5,0]],[[2618,1686],[-8,-1]],[[3125,1597],[-22,3],[-3,5],[1,4],[1,4],[-1,5],[-2,7],[-1,4],[1,8],[0,6],[-5,14],[-4,6],[-5,5],[-7,5],[-4,3],[-4,1]],[[3070,1677],[-3,-1],[-3,-1],[-2,-2],[-2,-3],[-3,-1],[-2,-1]],[[2986,1634],[-16,5],[-20,11],[-2,3],[1,3],[0,3],[-1,4],[-3,4],[-3,2],[-3,1]],[[2939,1670],[-13,-5],[-4,0]],[[3055,1668],[-8,0]],[[3047,1668],[0,-12],[2,-18],[-1,-7],[-2,-5],[-3,-1],[-3,0]],[[3040,1625],[-3,1],[-2,1],[-2,2],[-3,5],[-2,2],[-2,2],[-3,1],[-3,1]],[[3020,1640],[-8,-1],[-26,-5]],[[3182,1605],[-12,12],[-8,4],[-5,1]],[[3157,1622],[-3,-1],[-3,-1],[-3,-2],[-2,-3],[-3,-5],[-4,-6],[-14,-7]],[[3182,1605],[15,-20],[21,-17],[53,-40],[15,-17],[9,-11],[22,-31],[1,-3],[1,-4],[-2,-6],[-5,-9],[-2,-3],[0,-5],[1,-8],[5,-16],[2,-8],[3,-5],[11,-9],[1,-3],[0,-2],[0,-3],[-11,-5]],[[690,834],[6,0],[3,1],[3,1],[1,2],[1,1],[1,2],[1,3],[1,2],[0,4]],[[604,843],[2,0],[4,-2],[25,-17],[3,-1]],[[594,819],[1,0],[2,2],[0,2],[0,2],[0,10],[0,2],[1,4],[2,2],[2,0],[2,0]],[[672,839],[11,-4],[7,-1]],[[649,834],[11,1],[5,2],[4,1],[3,1]],[[637,836],[12,-2]],[[638,823],[2,1],[0,1],[-1,2],[-2,4],[-1,1],[0,3],[0,1],[1,0]],[[578,826],[2,-1],[9,-5],[2,-1],[3,0]],[[564,807],[2,1],[2,1],[0,1],[1,2],[-1,1],[-1,2],[-1,2],[1,3],[5,4],[3,2],[3,0]],[[553,810],[11,-3]],[[530,782],[13,3],[3,1],[1,2],[1,2],[0,2],[0,2],[-2,4],[0,2],[0,2],[1,3],[3,3],[1,2],[2,0]],[[504,790],[5,0],[5,-1],[7,-4],[2,-1],[3,-1],[4,-1]],[[487,768],[2,1],[1,1],[1,2],[1,3],[1,3],[2,4],[4,5],[3,2],[2,1]],[[480,772],[5,-3],[2,-1]],[[464,746],[2,1],[1,1],[1,2],[0,3],[0,1],[0,2],[0,3],[1,4],[5,6],[3,3],[3,0]],[[448,759],[1,-2],[1,-1],[2,-3],[5,-4],[4,-2],[3,-1]],[[422,731],[13,8],[2,2],[3,3],[1,5],[3,8],[2,2],[2,0]],[[10,0]],[[10,0]],[[168,968],[13,-5],[1,-1],[1,-2],[0,-2],[-1,-12],[0,-30],[1,-4],[1,-4],[1,-4],[9,-12],[12,-15],[16,-14],[2,-3],[2,-4],[2,-3],[0,-2],[1,-2],[-1,-3],[0,-2],[-3,-6],[-2,-4],[0,-3],[0,-2],[1,-16],[0,-4],[1,-2],[2,-2],[3,-3],[2,-1]],[[130,938],[2,1],[2,1],[0,3],[-1,4],[1,2],[1,2],[8,2],[2,1],[3,2],[3,2],[8,1],[3,2],[2,2],[1,3],[1,2],[2,0]],[[54,962],[3,0],[2,-1],[5,-7],[4,-5],[12,-10],[28,-14],[3,0]],[[0,925],[9,2],[15,1],[6,2],[3,2],[0,2],[-1,2],[-11,7],[-1,0],[0,1],[0,1],[0,2],[2,2],[1,1],[19,9],[12,3]],[[120,941],[3,0],[7,-3]],[[111,925],[2,1],[0,2],[0,2],[0,2],[0,2],[0,2],[2,2],[2,2],[3,1]],[[242,808],[2,0],[2,-2],[1,-1],[1,-2],[0,-2],[1,-4],[0,-2],[1,-2],[4,-4],[1,-2],[0,-2],[1,-3],[2,-3],[13,-10],[2,-1],[0,-1],[1,-2],[1,-3],[1,-2],[0,-2],[0,-2],[0,-3],[-1,-2],[0,-2],[-1,-2],[-1,-1],[-1,-1],[-2,-1],[-1,-1],[-8,-1],[-2,-1],[-1,-2],[-1,-7],[0,-3],[1,-3],[3,-4],[1,-3],[1,-2],[0,-3],[0,-2],[1,-3],[1,-1]],[[232,801],[1,1],[1,2],[2,2],[2,1],[4,1]],[[388,739],[34,-8]],[[362,726],[7,4],[9,8],[10,1]],[[348,734],[2,0],[2,-2],[6,-4],[2,-1],[2,-1]],[[322,713],[13,0],[1,1],[2,1],[1,2],[1,1],[1,3],[1,2],[1,5],[0,3],[2,2],[3,1]],[[286,718],[36,-5]],[[265,708],[1,0],[6,5],[2,2],[7,2],[5,1]],[[422,731],[3,-8],[0,-33],[-1,-8],[0,-5],[-3,-3],[-16,-17],[-3,-5],[-4,-7],[-1,-1],[6,-16],[0,-2],[3,-17],[1,-3],[2,-3],[2,-1],[3,-7],[2,-2],[2,-1],[7,-2],[2,-1],[1,-2],[4,-4],[3,-3],[1,-1],[3,-1],[4,-1]],[[458,578],[3,-2],[2,-2],[5,-7],[2,-2],[23,-12],[4,-1]],[[443,577],[15,1]],[[509,557],[2,0],[2,0],[3,-2],[6,-6],[1,-3],[2,-2],[0,-5],[1,-4],[-2,-17],[1,-9],[0,-3],[2,-9],[2,-4],[1,-3],[2,-1],[7,-6],[1,-2],[1,-2],[0,-8],[1,-4],[2,-2],[2,-1],[10,-2],[1,-1],[1,-3],[0,-3],[1,-2],[2,-1],[19,-6],[4,0]],[[497,552],[2,0],[2,1],[4,3],[2,1],[2,0]],[[594,458],[11,-1],[3,-1],[1,-1],[1,-2],[1,-6],[0,-2],[0,-2],[-1,-1],[-3,-2],[-1,-1],[-1,-2],[1,-2],[1,-4],[1,-4],[16,-33],[3,-8],[1,-5],[-1,-1],[-2,-1],[-8,-1]],[[584,446],[2,0],[1,1],[1,2],[2,5],[1,2],[1,1],[2,1]],[[617,378],[-17,0]],[[600,378],[-2,-1],[-1,-2],[1,-4],[1,-2],[8,-4],[6,-7],[8,-5],[3,-4],[2,-4],[0,-1],[-1,-1],[-1,-1],[-1,-1],[-7,0],[-1,-1],[-2,-1],[-2,-4],[-1,-1],[-2,0]],[[608,334],[-21,6],[-2,0]],[[585,340],[-2,-1],[-3,-1],[-6,-2],[-1,-1],[-1,-2],[-1,-2],[-1,-2],[-1,-3],[0,-4],[1,-4],[3,-5],[1,-4],[1,-3],[5,-2],[3,-3],[1,-2],[0,-2],[-2,-3],[0,-2],[4,-6],[1,-3],[-1,-2],[-9,-14],[-9,-16],[-11,-14],[-6,-4],[-20,-11],[-7,-1]],[[524,221],[-36,3],[-2,1],[-4,2],[-4,3],[-2,2],[-2,3],[-1,2],[-2,0],[-2,1]],[[469,238],[-2,0],[-1,-1],[-2,-1],[-19,-22],[-3,-5],[-2,-6],[-2,-6],[0,-3],[0,-3],[1,-2],[7,-13],[1,-4],[2,-6],[2,-7],[0,-7],[0,-4],[-2,-4]],[[462,142],[-13,2]],[[482,138],[-3,1],[-3,1],[-4,3],[-2,1]],[[470,144],[-2,0],[-1,-1],[-5,-1]],[[626,31],[-3,0],[-2,1],[-7,9],[-6,5],[-21,13],[-5,6],[-7,9],[-1,2],[-10,8],[-2,2],[-1,3],[-2,3],[-24,21],[-1,2],[-1,1],[-1,4],[-2,3],[-2,3],[-11,8],[-6,3],[-2,1],[-7,0],[-9,2],[-2,0]],[[491,140],[-9,-2]],[[659,29],[-19,3]],[[640,32],[-1,0],[-8,-1],[-5,0]],[[818,0],[-1,2],[-1,2],[0,2],[1,3],[-2,4],[-3,5],[-10,10],[-5,3],[-3,1]],[[794,32],[-5,-3],[-17,-6],[-6,-4],[-6,-5],[-1,-1],[-4,-1],[-2,-1],[-3,-1],[-2,-1],[-1,-1],[-3,-1]],[[681,22],[-3,0],[-2,2],[-1,2],[-7,5],[-2,1]],[[666,32],[-2,0],[-2,-1],[-1,-1],[-2,-1]],[[702,15],[-2,2],[-4,3],[-2,1],[-3,1]],[[691,22],[-10,0]],[[744,7],[-4,0],[-3,3],[-8,4],[-15,5],[-3,0]],[[711,19],[-3,-3],[-2,-1],[-4,0]],[[428,156],[2,-1],[5,-1],[3,-2],[11,-8]],[[411,133],[3,1],[1,1],[1,2],[1,2],[2,5],[0,3],[2,3],[3,4],[2,1],[2,1]],[[393,154],[3,0],[10,-4],[1,-1],[1,-2],[0,-2],[-1,-1],[-3,-3],[0,-1],[-1,-2],[0,-2],[2,-2],[2,-1],[4,0]],[[386,150],[2,1],[3,3],[2,0]],[[376,151],[10,-1]],[[248,91],[65,31],[13,2],[30,10],[3,1],[2,2],[4,5],[4,4],[2,2],[3,2],[2,1]],[[242,93],[2,0],[4,-2]],[[192,0],[4,8],[5,17],[1,2],[1,2],[2,2],[4,4],[7,2],[5,1],[2,1],[2,2],[0,2],[0,2],[-2,1],[-3,0],[-3,0],[0,1],[-1,1],[0,2],[0,1],[1,2],[2,2],[9,8],[5,6],[5,7],[1,2],[0,3],[0,2],[-1,4],[0,2],[2,3],[2,1]],[[1464,168],[17,1],[6,1],[2,2],[1,2],[0,3],[1,2],[1,6]],[[1417,183],[47,-15]],[[1388,151],[-13,2],[-5,1],[-2,1],[-1,1],[0,2],[11,21],[2,2],[2,1],[35,1]],[[1296,0],[1,0],[1,2],[0,3],[-1,1],[0,2],[-2,4],[-1,1],[0,2],[0,3],[1,4],[0,3],[-1,1],[-3,3],[-1,1],[-1,2],[1,2],[6,11],[2,3],[2,2],[8,4],[2,2],[1,2],[1,2],[0,3],[1,4],[3,6],[2,3],[1,2],[83,55],[3,3],[1,3],[0,1],[-5,8],[-1,2],[-2,1],[-2,1]],[[1396,152],[-8,-1]],[[1547,494],[1,0],[1,1],[2,4],[1,3],[0,2],[1,2],[2,2],[1,1],[5,3],[1,1],[2,2],[0,2],[-1,2],[-15,13],[-1,1],[-1,2],[1,2],[0,1],[2,2],[7,4],[7,2],[8,1],[2,0],[2,1],[2,2],[0,2],[-1,2],[-7,4],[-1,2],[-2,1],[-2,3],[-1,2],[-6,14],[-1,6],[0,4]],[[1538,496],[9,-2]],[[1529,473],[-1,0],[-2,2],[-1,3],[1,3],[0,2],[5,7],[2,4],[1,1],[2,1],[2,0]],[[1492,185],[9,8],[9,8],[5,6],[5,9],[2,4],[0,3],[-1,2],[-1,2],[-1,1],[-1,2],[-2,1],[-2,1],[-7,1],[-1,0],[-1,5],[-1,7],[2,30],[0,4],[-1,4],[-1,4],[-1,2],[-4,5],[-1,2],[-1,3],[0,2],[1,2],[4,8],[2,1],[1,1],[6,1],[2,1],[2,3],[2,6],[1,10],[2,9],[1,2],[2,2],[7,5],[2,2],[2,3],[0,3],[0,2],[0,2],[-4,12],[0,3],[2,1],[2,1],[0,2],[0,2],[-1,1],[-2,4],[-1,1],[-2,9],[-1,3],[1,2],[0,1],[1,1],[3,2],[2,2],[2,3],[3,10],[1,3],[5,6],[2,3],[1,3],[0,2],[0,2],[-1,3],[0,7],[1,17],[0,1],[-1,1],[0,2],[-1,1],[-1,2],[-2,1],[-2,0]],[[1541,478],[-2,0],[-10,-5]],[[1492,185],[4,-1],[3,-2],[5,-4],[2,-3],[2,-3],[1,-1],[2,-1],[2,-1],[7,-1],[2,-1],[1,-1],[0,-4],[-1,-1],[-2,-1],[-10,-1],[-1,-1],[-1,-1],[-1,-3],[-2,-7],[0,-3],[1,-2],[3,-2],[16,-7],[10,-7],[2,-1],[2,0]],[[1555,137],[15,-1],[2,0],[1,-1],[0,-3],[-3,-16],[0,-4],[0,-3],[0,-2],[0,-4],[0,-3],[-1,-2],[-1,-2],[-1,-2],[-4,-4],[-1,-2],[1,-5],[2,-7],[11,-28],[0,-1],[0,-1],[0,-1],[-1,-1],[-1,-2],[-1,-1],[-2,-1],[-6,-1],[-1,0],[-1,-2],[0,-2],[0,-2],[-1,-1],[-1,-1]],[[1539,125],[2,0],[1,1],[10,10],[1,1],[2,0]],[[1561,31],[-5,0]],[[1556,31],[-1,0],[-2,-2],[-1,-1],[-1,-3],[-1,-2],[0,-2],[1,-2],[2,-1],[2,0],[3,-1],[2,-2],[4,-4],[2,-2],[2,0],[42,-3],[14,-5],[0,-1]],[[2334,2641],[-11,-15],[-5,-11],[-2,-7],[-2,-7],[0,-4],[0,-6],[1,-10],[1,-6],[2,-8],[1,-6],[1,-24],[0,-8],[1,-6],[6,-22],[1,-8],[0,-4],[0,-4],[-1,-5],[-4,-10],[-14,-19],[3,-11],[3,-3],[2,-2],[2,-1],[1,-3],[-1,-5],[-2,-5],[-2,-2],[-3,0]],[[2312,2419],[-3,0],[-2,0]],[[2307,2419],[-2,-2],[-2,-7],[-1,-10],[-1,-8],[2,-7],[2,-4],[2,-2],[2,-5],[1,-7],[0,-15],[-1,-8],[-3,-13],[0,-6],[-1,-5],[-8,-1]],[[2297,2319],[-2,2],[-2,1],[-3,1]],[[2290,2323],[-1,-1],[-1,-3],[3,-6],[-1,-3],[-3,-3],[-19,-8],[-10,-16],[0,-3],[1,-3],[7,-6],[3,-3],[1,-5],[0,-4],[-1,-3],[-1,-3],[-7,-10],[-2,-2],[-1,-3],[0,-3],[0,-2],[0,-3],[2,-2],[6,-11],[2,-3],[3,-3],[7,-3],[9,-3],[3,-3],[3,-5],[0,-3],[0,-3],[-2,-8],[3,-4],[6,-5],[35,-20],[7,-3],[3,-2],[4,-4],[12,-17],[9,-3],[9,-11],[-1,-3],[1,-7],[2,-2],[7,-9],[8,-13],[2,-2],[4,-3],[7,-3],[40,-10],[9,-4],[17,-15],[3,-5],[4,-12],[1,-3],[2,-2],[3,-1]],[[2501,2029],[3,-1],[19,-14],[2,-2],[1,-3],[2,-2],[1,-3],[0,-4],[2,-14],[0,-8],[0,-4],[-1,-4],[-4,-4],[-3,-2],[-3,-2],[-3,-2],[-2,-4],[-3,-17],[-2,-4],[-6,-10],[-3,-4],[-1,-5],[-1,-7],[-1,-5],[1,-3],[1,-2],[4,-8],[1,-3],[1,-3],[0,-3],[0,-3],[-1,-2],[-2,-3],[-5,-3],[-3,-1],[-25,-5],[-4,-1],[-2,-2],[-2,-2],[-1,-3],[-1,-5],[1,-8],[1,-3],[1,-2],[1,-2],[0,-4],[0,-4],[-5,-18]],[[2488,2020],[2,1],[3,2],[3,4],[2,2],[3,0]],[[3053,2922],[4,-9],[1,-4],[0,-3],[-1,-4],[-3,-2],[-2,-2],[-2,-2],[-2,-3],[-1,-3],[-2,-2],[-7,-6],[-2,-2],[0,-3],[0,-4],[4,-5],[5,-5],[2,-3],[1,-5],[0,-7],[0,-10],[-1,-3],[-1,-3],[-2,-3],[-4,-4],[-2,-3],[0,-3],[0,-60],[1,-4],[1,-3],[5,-1]],[[3058,2754],[2,-1],[2,-2],[1,-5],[1,-4],[3,-3],[5,-3],[19,-8],[10,-7],[4,-5],[5,-7],[6,-7],[1,-2],[1,-3],[-2,-3],[-17,-9],[-4,-5],[-2,-10],[1,-6],[1,-3],[1,-3],[1,-2],[4,-2],[4,-1]],[[3045,2751],[4,0],[9,3]],[[3126,2658],[7,-1],[13,-14],[45,-66],[15,-16],[1,-4],[0,-3],[-2,-5],[-3,-3],[-3,-1],[-6,-2],[-1,-4],[-2,-3],[12,-27]],[[3105,2653],[10,0],[4,1],[4,2],[3,2]],[[3215,2510],[9,-2],[9,-3],[16,-16],[27,-39],[8,-6],[28,-16],[21,-9],[6,-5],[8,-11],[20,-35],[6,-11],[8,-9],[8,-6],[8,-6],[5,-6],[9,-16],[9,-16],[13,-20],[11,-21],[10,-23],[0,-3],[0,-3],[-2,-3],[-3,-2],[-9,-3],[-3,-2],[-2,-2],[-13,-20],[-4,-4],[-35,-18],[-1,-2],[1,-3],[3,-7],[3,-4],[3,-2],[10,-6],[1,-2],[0,-1],[-3,-4],[-8,-2],[-22,0],[-2,-1],[4,-13],[25,-47]],[[3202,2509],[13,1]],[[1489,2442],[-7,-25],[0,-3],[-1,-5],[0,-4],[0,-5],[0,-2],[-7,-7],[-1,-7],[16,-13],[1,-2],[0,-3],[-1,-1],[-2,0],[-2,-1],[-1,-1],[-3,-4],[-1,-2],[-2,-3],[-6,-5],[-1,-2],[0,-3],[1,-2],[1,-2],[2,-3],[4,-2],[9,-5],[3,-3],[6,-6],[3,-4],[1,-3],[1,-2],[0,-3],[0,-3],[-1,-3],[-1,-3],[-1,-2],[-2,-4],[-2,-3],[-2,-2],[-6,-4],[-15,-6],[-2,-2],[-2,-2],[-2,-4],[0,-2],[1,-3],[1,-1],[2,-4],[1,-5],[1,-12],[2,-5],[1,-4],[2,-2],[1,-2],[1,-4],[0,-3],[-1,-2],[-2,-1],[-2,-1],[-2,-1],[-2,0]],[[1470,2219],[-9,2]],[[1461,2221],[-2,0],[-2,-1],[-2,-2],[-2,-3],[-1,-5],[-1,-3],[-2,-1],[-7,-1],[6,-9],[14,-13],[2,-1]],[[1470,2186],[1,-1],[2,-2],[5,-10],[1,-4],[0,-3],[-2,-1],[-4,0],[-1,-1],[-2,-1],[0,-2],[0,-2],[0,-2],[-1,-2],[-2,-4],[-1,-2],[1,-4],[1,-2],[2,-1],[3,0],[4,-1],[2,0]],[[1464,2182],[1,2],[2,1],[3,1]],[[1481,2141],[3,0],[4,-2],[8,-8],[5,-2],[3,-1]],[[1479,2141],[2,0]],[[1506,2129],[2,0],[4,-3],[2,-2],[1,-2],[0,-5],[0,-2],[-1,-1],[-1,-1],[-6,-2],[-2,-1],[-1,-1],[-1,-3],[0,-3],[0,-4],[0,-3],[2,-2],[9,-7],[2,-1],[2,0]],[[1504,2128],[2,1]],[[1527,2089],[6,-2],[5,-9],[2,-6],[2,-3],[2,-3],[4,-3],[10,-10],[2,-5],[1,-3],[0,-2],[-1,-3],[-1,-1],[-3,-3],[-1,-1],[0,-3],[0,-5],[-1,-2],[-1,-2],[-1,-2],[-2,-3],[-3,-2],[-2,-10],[0,-2],[0,-3],[5,-5],[4,-6],[-5,-4],[-6,0]],[[1518,2086],[2,0],[3,2],[4,1]],[[1543,1986],[-7,1]],[[1536,1987],[-3,0],[-5,-1],[-14,-7],[-4,-3],[-2,-3],[-1,-4],[0,-3],[-1,-1]],[[1506,1965],[-9,2]],[[1497,1967],[-3,-1],[-2,-1],[-6,-5],[-8,-11],[-6,-7],[-6,-6],[-1,-18],[-5,-41],[0,-3],[-1,-13],[-4,-12]],[[3523,3027],[-27,4],[-4,3],[-2,1],[-5,6],[-2,2],[-2,1]],[[3481,3044],[-5,0],[-18,-9],[-6,-2],[-5,0]],[[3760,2875],[-12,3],[-20,10],[-17,19],[-6,4],[-14,7],[-4,3],[0,3],[1,2],[5,4],[2,1],[0,3],[-3,2],[-6,2],[-3,2],[1,3],[3,1],[11,1],[3,1],[3,1],[2,2],[2,3],[0,3],[-1,3],[-1,3],[-7,10],[-11,12],[-15,12],[-31,17],[-56,10],[-7,3],[-3,3],[-3,3],[-3,6],[-2,5],[-8,1]],[[3560,3043],[-22,-11],[-5,-4],[-10,-1]],[[3447,3033],[-13,2]],[[3434,3035],[-3,-1],[-3,-1],[-3,-6],[-3,-3],[-6,-3],[-2,-3],[0,-11],[-2,-10],[-5,-17],[0,-4],[2,-1],[3,0]],[[4096,3015],[-1,1],[-3,0]],[[4092,3016],[-39,0],[-4,-1],[-4,-2],[-5,-5],[-3,-4],[-3,-4],[-5,-2],[-15,-4],[-4,-2],[-1,-3],[0,-7],[-2,-2],[-4,0]],[[4003,2980],[-9,1],[-4,2],[-5,1]],[[3985,2984],[-5,-2],[-11,-7],[-9,-3],[-4,-2],[0,-5],[-1,-7],[1,-24],[0,-4],[2,-2],[2,-2],[3,-2],[2,-4],[1,-5],[0,-10],[1,-5],[2,-4],[6,-3],[3,-2],[4,-11],[2,-2],[2,-2],[12,-10],[2,-2],[0,-3],[0,-3],[-2,-3],[-5,-3],[-10,-1]],[[3420,2978],[3,0],[2,-2],[1,-3],[1,-3],[3,-32],[-1,-3],[-2,-2],[-4,-1]],[[3412,2975],[8,3]],[[3423,2932],[-6,1],[-3,2],[-2,2],[-9,12],[-2,3],[-2,1],[-4,1]],[[3395,2954],[-3,-1],[-2,-4],[-1,-3],[2,-10],[0,-4],[-2,-2],[-3,-2]],[[3199,2873],[-4,1],[-4,3],[-12,13],[-4,6],[-8,17],[-4,4],[-5,3],[-30,13],[-12,10]],[[3216,2891],[-4,0],[-4,4],[-3,3],[-2,4],[-1,3],[1,3],[1,3],[1,3],[2,2],[2,2],[4,5],[2,3],[0,3],[0,3],[-2,1]],[[3213,2933],[-5,-1],[-4,-2],[-12,-9],[-2,-2],[-1,-3],[0,-4],[1,-3],[1,-3],[9,-24],[0,-3],[0,-3],[-1,-3]],[[3301,2921],[-3,0],[-4,1],[-2,2],[-2,2],[-4,5],[-1,1]],[[3285,2932],[-3,-1],[-1,-5],[-1,-10],[-1,-5],[-2,-8],[-1,-10],[-1,-2],[-3,-2]],[[3386,2928],[-6,0],[-13,3]],[[3367,2931],[-4,-1],[-4,-2],[-13,-13],[-4,-1],[-4,-1]],[[3249,2921],[-7,1]],[[3242,2922],[-5,-1],[-4,-2],[-8,-13],[-7,-14],[-2,-1]],[[3272,2889],[-8,2],[-4,7],[0,3],[1,3],[1,3],[2,2],[4,5],[1,3],[-1,3],[-2,1]],[[3266,2921],[-17,0]],[[3338,2913],[-8,0],[-4,1],[-4,2],[-3,2],[-5,2],[-4,1],[-4,0]],[[3306,2921],[-5,0]],[[3850,2855],[-4,1],[-7,4],[-7,6],[-25,25],[-3,2],[-4,0]],[[3800,2893],[-5,-1],[-17,-10],[-10,-6],[-4,-1],[-4,0]],[[3934,2832],[-4,0],[-4,2],[-4,3],[-7,7],[-13,7],[-6,6],[-5,7],[-3,5],[-4,2],[-6,0]],[[3878,2871],[-15,-1],[-4,-2],[-2,-2],[-2,-3],[-2,-6],[-3,-2]],[[3983,2851],[-19,2]],[[3964,2853],[-8,-3],[-8,-15],[-14,-3]],[[823,2806],[-28,15],[-8,1]],[[787,2822],[-1,-2],[0,-3],[-1,-2],[0,-3],[-1,-2],[-1,-2],[-2,-4],[-3,-4],[-2,-3],[-16,-12],[-2,-3],[-3,-7],[-1,-2],[-7,-7],[-1,-2],[-1,-1],[0,-3],[-1,-3],[-2,-3],[-3,-5],[-3,-2],[-2,0]],[[714,2749],[-2,0],[-2,1],[-2,1],[-1,2],[-4,8],[-2,2],[-3,1],[-5,1]],[[693,2765],[-2,-1],[-3,-1],[-1,-2],[-8,-14],[-5,-4],[-20,-13],[-6,-6],[-1,-2],[-2,-8],[-1,-8],[-1,-3],[-1,-1],[-2,0]],[[734,2747],[-5,3],[-3,1],[-2,0]],[[724,2751],[-10,-2]],[[640,2702],[-13,1]],[[627,2703],[-7,-1],[-1,-2],[-1,-2],[1,-2],[0,-2],[1,-2],[0,-3],[-1,-3],[-1,-2],[-2,-2],[-7,-4],[-2,-2],[-1,-2],[1,-2],[0,-2],[1,-2],[-1,-2],[0,-5],[-3,-12],[-2,-3],[-2,-2],[-4,-3],[-1,-3],[-1,-3],[-1,-3],[-4,-7],[-1,-3],[0,-3],[-1,-7],[-2,-5],[-5,-1]],[[580,2606],[-4,1],[-2,1],[-1,1],[-1,2],[-3,7],[-4,6],[-5,5],[-3,0]],[[557,2629],[-1,-1],[-1,-2],[0,-3],[-1,-2],[-2,-2]],[[552,2619],[-2,0],[-7,4]],[[543,2623],[-2,0],[-1,-1],[0,-5],[0,-4],[1,-4],[-1,-3],[-3,-2],[-7,-5],[-4,-1]],[[526,2598],[-2,1],[-1,1],[0,3],[-1,4],[0,2],[-1,2],[-28,11]],[[2295,2665],[-49,20],[-5,4],[-1,4],[-1,4],[1,3],[1,5],[1,5],[1,4],[0,3],[0,2],[0,2],[0,7],[-1,7],[-8,12],[-4,5],[-16,12],[-23,13],[-4,3],[-3,4],[-3,4],[-3,2],[-2,1]],[[2176,2791],[-1,0],[-8,-3],[-15,-11],[-42,-18],[-8,-5],[-4,-3],[0,-3],[0,-2],[1,-6],[1,-4],[1,-4],[1,-8],[0,-2],[0,-4],[0,-5],[-3,-8],[-11,-10],[-25,-11],[-27,-7],[-15,-1],[-28,-6]],[[1978,2667],[-2,0],[-2,1],[-2,3],[-2,2],[-7,15],[-6,10],[-2,4],[-1,2],[0,1],[-2,2],[-4,6],[-5,11],[-6,23],[0,2],[-2,4],[-4,8],[-2,3],[-2,1],[-54,9]],[[2334,2641],[-15,15],[-2,7],[1,3],[2,7],[0,2],[-1,0]],[[2319,2675],[-24,-10]],[[1993,2670],[-10,2]],[[1983,2672],[-2,-1],[-2,-2],[-1,-2]],[[2912,2929],[99,-2],[16,-7],[14,-2]],[[2879,2904],[4,1],[2,2],[1,4],[0,3],[2,4],[3,4],[7,4],[14,3]],[[3041,2918],[5,1],[7,3]],[[2848,2917],[3,0],[21,-11],[7,-2]],[[2825,2903],[4,1],[4,2],[6,7],[5,4],[4,0]],[[2789,2905],[10,0],[26,-2]],[[2697,2694],[3,1],[3,1],[2,2],[2,2],[2,3],[6,16],[3,3],[5,3],[5,3],[3,2],[1,3],[0,3],[1,4],[2,4],[2,2],[2,2],[9,3],[8,4],[8,5],[3,5],[1,4],[1,8],[-1,15],[1,28],[-1,7],[0,4],[-1,49],[0,7],[2,4],[2,3],[6,3],[6,6],[2,2],[4,0]],[[2526,2774],[18,-3],[5,-5],[1,-4],[2,-4],[4,-4],[12,-8],[2,-2],[5,-8],[6,-8],[5,-3],[4,-2]],[[2502,2741],[3,1],[2,4],[1,3],[7,12],[11,13]],[[2494,2742],[8,-1]],[[2446,2707],[5,1],[7,4],[33,30],[3,0]],[[2602,2740],[11,-1],[34,-10],[5,-2],[4,-4],[1,-4],[0,-8],[1,-3],[2,-4],[4,-3],[25,-7],[8,0]],[[2590,2723],[3,1],[2,2],[1,3],[0,6],[0,1],[1,2],[2,1],[3,1]],[[2432,2733],[2,-1],[2,-2],[2,-3],[8,-20]],[[2410,2641],[5,1],[2,1],[0,3],[-2,2],[-1,3],[0,3],[1,3],[1,2],[2,3],[8,4],[1,2],[1,5],[-4,30],[0,11],[4,14],[2,4],[2,1]],[[2387,2661],[2,-1],[2,-3],[0,-7],[3,-4],[5,-2],[11,-3]],[[2366,2645],[4,0],[3,2],[2,2],[2,3],[2,3],[3,2],[5,4]],[[2355,2646],[11,-1]],[[2345,2637],[1,0],[3,1],[2,5],[4,3]],[[2334,2641],[11,-4]],[[3174,3555],[-5,-9],[-23,-29],[-2,-3],[0,-4],[0,-4],[3,-4],[4,-2],[6,-3],[1,-3],[1,-3],[-3,-17],[10,-4],[5,-3],[7,-5],[2,-1]],[[3187,3470],[2,-1],[3,-1],[2,-2],[2,-2],[9,-15],[3,-2]],[[3180,3461],[1,2],[3,5],[1,1],[2,1]],[[3228,3462],[3,0],[2,-3],[3,-8],[1,-4],[1,-4],[-2,-5],[-1,-3],[-7,-6],[-2,-3],[-1,-3],[0,-2],[2,-3],[7,-3],[2,-2],[1,-2],[2,-7],[1,-3],[2,-2],[3,-2],[7,-1],[3,-2],[2,-2],[1,-3],[0,-3],[0,-4],[-1,-3],[-1,-2],[-10,-11],[-3,-1],[-2,-2],[-7,0],[-3,-2],[-1,-2],[1,-4],[1,-3],[8,-9],[1,-2],[1,-3],[-2,-3],[0,-2],[-1,-1],[-6,-5],[-2,-1],[-2,0]],[[3208,3447],[3,0],[15,14],[2,1]],[[3229,3326],[-3,1],[-2,2],[-4,4],[-2,2],[-3,1],[-3,0]],[[3212,3336],[-3,-1],[-1,-1],[0,-1],[-2,-5],[-4,-25],[-1,-3],[1,-4],[1,-2]],[[3213,3298],[3,0],[2,-2],[7,-12],[11,-16],[-1,-6],[-1,-2],[-3,-3],[-3,-1],[-7,-2]],[[3203,3294],[2,0],[8,4]],[[3221,3254],[-18,0]],[[3203,3254],[-7,-1],[-7,-7],[-11,-28],[-16,-7],[-3,-2],[-4,-3],[-4,-6],[-4,-4],[-5,-4],[-37,-17],[-3,0]],[[3102,3175],[-3,1],[-6,2],[-21,13]],[[3072,3191],[-1,0],[0,-2],[6,-12],[2,-5],[-1,-8],[1,-3],[6,-8],[0,-6],[0,-2],[5,-5],[5,-3],[3,-1],[2,0]],[[3164,3190],[3,-1],[3,-1],[2,-2],[14,-16],[4,-4],[29,-15],[2,-2],[1,-2],[0,-3],[0,-3],[-1,-1],[-6,-6],[-17,-12],[-2,-3],[0,-3],[2,-4],[1,-3],[7,-6],[1,-3],[1,-2],[0,-3],[-1,-3],[-4,-4],[-5,-4],[-4,-1]],[[3100,3136],[3,1],[16,10],[17,8],[2,1],[2,3],[1,2],[1,2],[1,5],[1,9],[1,3],[1,3],[2,2],[3,1],[6,3],[7,1]],[[3136,3090],[-5,0],[-11,3],[-4,4],[0,3],[5,7],[2,3],[-1,3],[-1,2],[-3,0]],[[3118,3115],[-3,0],[-3,-2],[-5,-6],[-7,-16],[3,-8],[4,-4],[25,-18],[20,-10],[8,-6],[3,-4],[2,-2],[2,-5],[2,-7],[2,-10],[1,-3],[0,-4],[-2,-4],[-3,-3],[-2,-1],[-17,-7],[-4,-5],[-5,-7],[-12,-25],[-11,-15]],[[3194,3083],[-6,0],[-11,3],[-5,3],[-4,3],[-1,3],[-1,3],[-1,2],[-2,1]],[[3163,3101],[-8,-3],[-5,-4],[-9,-4],[-5,0]],[[2412,3803],[-11,1],[-5,2],[-3,1],[-1,2],[0,2],[0,3],[1,2],[1,2],[1,2],[1,2],[2,1],[6,1],[2,1],[1,2],[0,3],[-1,3],[-2,2],[-3,0]],[[2401,3835],[-4,0],[-14,-4]],[[2383,3831],[-19,2]],[[2364,3833],[-3,0],[-1,-2],[-2,-1],[-7,-13]],[[2502,3755],[-4,1],[-3,2],[-1,2],[-6,12],[0,1],[-2,1],[-8,8],[-1,2],[1,2],[2,2],[2,2],[-1,3],[-9,8],[-2,3],[-1,3],[0,3],[1,2],[4,5],[1,3],[-1,3],[-3,4],[-4,1]],[[2467,3828],[-3,0],[-43,-24],[-9,-1]],[[2669,3720],[-4,6],[-8,15],[-3,6],[-1,5],[0,4],[1,4],[-1,5],[-2,1],[-8,3],[-2,2],[-6,13],[-4,2],[-4,2],[-21,1]],[[2606,3789],[-3,0],[-3,-1],[-2,-3],[0,-3],[-1,-4],[-1,-2],[-5,-4],[-8,-5],[-9,-2],[-12,0],[-4,-2],[-13,-8],[-4,-1]],[[2793,3709],[-4,1],[-2,2],[-2,3],[-5,11],[-3,5],[-4,4],[-13,9],[-6,5],[-6,4],[-12,6],[-20,5],[-5,0]],[[2711,3764],[-3,0],[-3,-1],[-5,-4],[-6,-2],[-14,-3],[-5,-3],[-4,-5],[3,-26],[-5,0]],[[2541,3754],[-4,1],[-6,3],[-5,1],[-4,0]],[[2522,3759],[-14,-4],[-6,0]],[[2875,3697],[-2,1],[-4,5],[-3,5],[-6,4],[-8,4],[-32,10]],[[2820,3726],[-5,-1],[-1,-2],[0,-3],[-1,-3],[-2,-2],[-3,-2],[-8,-3],[-7,-1]],[[2925,3703],[-24,4]],[[2901,3707],[-9,-2],[-6,-5],[-7,-3],[-4,0]],[[3184,3485],[3,2],[1,1],[1,1],[1,2],[0,4],[-1,3],[-1,5],[0,2],[-1,2],[-1,2],[-8,7],[-2,2],[-3,1]],[[3173,3519],[-3,0],[-3,-2],[-2,-2],[0,-4],[0,-3],[2,-7],[1,-6],[3,-3],[1,-2],[12,-5]],[[3509,3602],[8,-1],[3,-1],[3,-2],[2,-2],[3,-5],[8,-4],[23,-5],[23,-5],[8,-4],[4,-4],[9,-14],[10,-18],[6,-6],[13,-7],[4,-1],[17,0],[27,-8],[4,0]],[[3392,3503],[5,1],[3,2],[2,3],[1,3],[6,12],[2,6],[5,27],[4,12],[2,3],[2,2],[17,7],[10,10],[8,2],[3,0],[40,9],[7,0]],[[3174,3555],[19,-21],[6,-11],[2,-6],[2,-3],[3,-2],[13,-6],[9,-2],[4,0]],[[3257,3523],[7,-1],[3,-3],[1,-4],[1,-4],[3,-4],[3,-2],[4,0]],[[3232,3504],[3,0],[3,2],[2,2],[9,13],[3,2],[5,0]],[[3697,3519],[6,0],[10,-2],[4,-3],[1,-4],[-6,-11],[-3,-9],[-1,-4],[0,-4],[2,-4],[2,-3],[4,-2],[17,-5],[3,0]],[[3684,3515],[3,0],[2,1],[4,2],[4,1]],[[3360,3516],[8,-2],[12,-7],[8,-4],[4,0]],[[3279,3505],[23,7],[58,4]],[[3765,3473],[3,-2],[4,-3],[1,-3],[-1,-4],[-1,-3],[-5,-8],[-1,-4],[-1,-4],[0,-5],[1,-7],[2,-5],[2,-3],[2,-2],[12,-6],[23,-7],[15,-9],[18,-2],[22,-5],[8,-4],[2,-2],[4,-5],[6,-12],[7,-9],[3,-3],[5,-2],[32,-3]],[[3736,3468],[3,0],[13,4],[13,1]],[[3957,3382],[4,0],[3,-1],[3,-2],[4,-5],[3,-5],[1,-3],[1,-3],[0,-4],[0,-3],[-1,-4],[-1,-3],[-2,-2],[-4,-5],[-12,-10],[-5,-7],[-2,-2],[0,-3],[1,-3],[3,-1]],[[3928,3351],[4,1],[3,1],[2,3],[1,3],[5,16],[3,3],[3,3],[8,1]],[[4017,3345],[5,-1],[3,-2],[2,-2],[8,-8],[4,-4],[6,-3],[14,-3],[7,-3],[5,-1]],[[3953,3316],[3,0],[45,26],[9,3],[7,0]],[[4071,3318],[3,0],[7,4],[15,4]],[[3141,4096],[-35,-4],[-6,-3],[-5,-5],[-16,-22],[-3,-3],[-3,0],[-4,-1],[-4,-1],[-1,-4],[-3,-13],[-6,-5],[-7,-1],[-5,-5],[-4,-12],[2,-5],[5,-4],[0,-10],[-3,-2]],[[3043,3996],[-19,2]],[[3024,3998],[-6,-2],[-1,-6],[2,-14],[1,-4],[7,-8],[2,-3],[1,-8],[0,-5],[-1,-5],[-1,-15],[-1,-4],[2,-4],[5,-6],[4,-2],[11,-3],[3,-3],[1,-10],[-7,-12],[-8,-11],[-7,-6],[-17,-6],[-5,-6],[-3,-15],[-2,-6],[-6,-1]],[[2998,3833],[-11,1]],[[2987,3834],[-6,-2],[-2,-3],[1,-3],[3,-9],[3,-4],[2,-4],[1,-6],[-2,-5],[-4,-3],[-5,-1],[-9,-9],[-9,-4],[-8,-5],[3,-6],[9,-11],[2,-2],[2,-3],[0,-3],[0,-4],[-6,-13],[-2,-4],[-4,-4],[-7,-4],[-9,-7],[-7,-7],[-8,-5]],[[1870,2775],[3,-1]],[[1741,2457],[23,9],[1,2],[2,2],[-2,1],[-1,2],[-1,2],[1,5],[12,17],[3,8],[0,2],[-1,2],[0,1],[-2,3],[-15,16],[-4,8],[0,2],[1,5],[1,5],[1,5],[1,3],[2,4],[1,2],[1,3],[0,4],[1,5],[-1,3],[-1,2],[-1,2],[-4,3],[-3,2],[-3,2],[-2,2],[-8,11],[-1,2],[-2,1],[-4,2],[-2,1],[-13,14],[54,19],[15,1],[4,1],[2,1],[21,13],[5,5],[3,3],[0,2],[0,2],[0,1],[-2,5],[-11,16],[-3,7],[-2,4],[0,3],[1,4],[3,7],[1,4],[1,3],[-1,1],[-2,2],[-6,6],[-2,2],[-1,2],[3,5],[5,10],[3,4],[2,3],[34,5],[7,2],[4,2],[8,6],[3,2]],[[1520,2480],[10,-2],[4,-2],[4,-3],[4,-1],[8,-3],[6,0]],[[1489,2442],[9,5],[3,5],[2,7],[7,15],[3,4],[3,2],[4,0]],[[1580,2474],[4,-1],[3,-1],[26,-23],[6,-3],[5,-2],[5,0]],[[1556,2469],[24,5]],[[1724,2462],[17,-5]],[[1669,2414],[4,1],[2,0],[1,2],[2,1],[1,2],[1,2],[0,2],[0,7],[1,2],[1,1],[16,8],[7,4],[9,8],[1,2],[5,5],[2,1],[2,0]],[[1644,2450],[2,-1],[1,-1],[8,-16],[4,-11],[1,-2],[2,-2],[2,-2],[3,-1],[2,0]],[[1629,2444],[2,0],[5,4],[5,2],[3,0]],[[858,2768],[-3,1],[-3,2],[-3,3],[-5,6],[-5,3],[-4,1],[-6,0],[-3,1],[-1,2],[-1,7],[0,4],[-1,8]],[[1014,2671],[-8,2],[-8,4],[-17,12],[-4,2],[-3,1],[-10,1],[-4,4],[-6,10],[-12,9],[-11,10],[2,15],[-5,3],[-5,7],[-7,14],[-5,4],[-3,1],[-3,3],[-1,7]],[[904,2780],[-5,-2],[-29,-9],[-12,-1]],[[1153,2608],[-40,6],[-9,5],[-3,1],[-21,23],[-2,2],[-2,3],[-10,22],[-1,2],[0,2],[0,5],[0,2],[-1,3],[-2,1],[-15,5],[-2,0]],[[1045,2690],[-2,0],[-2,-2],[-1,-1],[-7,-8],[-6,-5],[-1,-1],[-3,-1],[-3,-1],[-6,0]],[[1361,2601],[-5,2],[-10,9],[-7,6],[-6,2],[-11,1]],[[1322,2621],[-10,0],[-5,-1],[-5,-2],[-11,-11],[-7,-8],[-8,-5],[-11,-5],[-6,-2],[-4,0]],[[1255,2587],[-10,2],[-9,4],[-12,9],[-9,2],[-28,2],[-7,14],[-3,0]],[[1177,2620],[-3,-3],[-3,-3],[-3,-3],[-6,-2],[-9,-1]],[[1406,2504],[-9,14],[-9,20],[-1,3],[-2,8],[0,6],[2,30],[2,11],[1,3],[0,4],[0,6],[-1,3],[-2,2]],[[1387,2614],[-1,-1],[-23,-11],[-2,-1]],[[1489,2442],[-6,15],[-5,20],[-2,4],[-6,9],[-16,13],[-11,12],[-4,2],[-2,1]],[[1437,2518],[-4,-2],[-8,-9],[-5,-2],[-14,-1]],[[1278,3534],[-3,-5],[-5,-6],[-4,-6],[-1,-8],[-1,-10],[-2,-8],[-5,-13],[-6,-9],[-1,-5],[4,-3],[6,-2],[1,-6],[-2,-8],[-43,-83],[-6,-7]],[[1154,3385],[-3,0],[-1,1],[-2,1],[-1,2],[-2,4],[0,1],[-2,1],[-1,2],[-21,6]],[[1121,3403],[-2,0],[-2,-1],[-2,0],[-1,-2],[-2,-1],[-1,-3],[0,-4],[1,-15],[0,-2],[0,-2],[-1,-3],[1,-3],[0,-2],[2,-3],[7,-9],[4,-7],[1,-2],[0,-3],[1,-16],[1,-9],[1,-2],[1,-3],[4,-3],[2,-1]],[[1210,3355],[-4,4],[-2,6],[-1,1],[-4,7],[-2,2],[-3,2],[-3,3],[-10,4],[-15,3]],[[1166,3387],[-12,-2]],[[1148,3310],[2,0],[2,-2],[4,-6],[11,-21],[3,-5],[1,-2],[0,-3],[-2,-5],[-2,-3],[-7,-9],[-1,-2],[-1,-2],[1,-3],[1,-3],[2,-3],[1,-2],[1,-2],[0,-3],[0,-3],[0,-6],[-2,-7],[-6,-8],[-6,-4],[-6,-2],[-3,-1]],[[1136,3307],[2,0],[6,3],[2,0],[2,0]],[[1086,3201],[-2,0],[-1,2],[1,3],[2,2],[3,3],[1,2],[-1,3],[0,2],[-10,6]],[[1079,3224],[-58,-15],[-34,-2],[-2,-1],[-1,-2],[-1,-3],[0,-2],[1,-3],[2,-5],[0,-2],[0,-2],[-2,-3],[-13,-8],[-3,-3],[-1,-3],[0,-2],[1,-2],[0,-2],[0,-2],[-1,-2],[-2,0]],[[1141,3203],[-3,1],[-5,1],[-8,4],[-2,1]],[[1123,3210],[-7,-1],[-14,-7],[-16,-1]],[[922,3166],[-3,1],[-2,2],[-3,4],[-1,2],[-2,0]],[[911,3175],[-3,0],[-2,-4],[-1,-2],[0,-3],[0,-4],[0,-2],[1,-5],[-1,-4],[0,-3],[-1,-2],[-1,-2],[-1,-2],[-11,-13],[-3,-1]],[[965,3160],[-4,0],[-2,2],[-2,1],[-3,3],[-2,1],[-4,1]],[[948,3168],[-26,-2]],[[888,3128],[-3,0],[-6,3],[-6,4],[-4,4],[-5,6],[-5,6],[-2,1],[-2,1],[-3,1],[-3,1]],[[849,3155],[-3,0],[-2,-1],[-14,-6],[-1,-1],[-1,-2],[-1,-3],[0,-2],[4,-4],[5,-2],[12,-11],[3,-3],[2,-1],[4,-1],[2,-1],[1,-1],[1,-2],[0,-3],[-1,-3],[-2,-1],[-3,0]],[[855,3107],[-7,0]],[[848,3107],[-2,-1],[0,-2],[2,-4],[2,-5],[1,-2],[1,-1],[2,0]],[[875,3099],[5,0],[3,0],[2,-1],[7,-5],[2,-2],[2,-3],[0,-1],[1,-2],[0,-1],[1,-3],[0,-2],[0,-3],[-1,-2],[-2,-3],[-4,-3],[-2,-1],[-17,-5],[-1,-1],[-2,-2],[-1,-1],[-5,-8],[-5,-10],[0,-4],[0,-2],[4,-15],[0,-4],[-1,-2],[-1,-2],[-3,-2],[-5,-2],[-11,-2],[-4,-1],[-2,-1],[-6,-4],[-14,-15],[-1,-3],[-1,-4],[-1,-8],[0,-4],[0,-4],[0,-2],[0,-2],[-1,-3],[-3,-4],[-2,-1],[-3,-1],[-15,-2],[-1,-1],[0,-2],[2,-4],[3,-2],[11,-4],[1,-1],[1,-2],[1,-2],[1,-3],[0,-5],[0,-2],[-2,-5],[-11,-7],[6,-15],[2,-4],[0,-7],[0,-4],[1,-4],[1,-2],[3,-2],[2,0]],[[854,3092],[2,1],[11,5],[8,1]],[[820,2871],[1,0],[2,-1],[2,-1],[15,-9],[0,-3],[0,-3],[-4,-6],[-2,-3],[-3,-2],[-1,-1],[-9,-8],[-4,-5],[-1,-2],[0,-3],[0,-4],[7,-14]],[[809,2868],[2,0],[7,3],[2,0]],[[1793,3181],[0,-29],[-1,-9],[0,-3],[0,-2],[1,-2],[2,-2]],[[1813,3146],[2,0],[2,-1],[2,-1],[1,-2],[1,-1],[1,-2],[0,-3],[0,-3],[1,-4],[0,-5],[2,-9],[0,-2],[-1,-2],[-5,-4],[-3,-2],[-4,-1],[-2,-1],[-2,-2],[-2,-2],[-1,-2],[-3,-6],[-1,-3],[-1,-9],[2,-12],[1,-4],[1,-2],[3,-7],[0,-2],[0,-2],[0,-3],[0,-9],[0,-2],[0,-1],[1,0],[2,-1]],[[1795,3134],[2,1],[2,1],[3,6],[2,1],[1,1],[4,2],[4,0]],[[1819,3042],[2,0],[2,-2],[2,-6],[1,-3],[1,-3],[0,-2],[-1,-12],[0,-2],[1,-2],[1,-2],[2,-3],[6,-4],[3,-2],[16,-3],[-2,-10],[-2,-4],[-6,-6],[-4,-5],[-5,-8],[0,-2],[1,-3],[2,-4],[6,-5],[1,-2],[1,-3],[-1,-4],[-1,-3],[-1,-1],[-5,-4],[0,-2],[0,-4],[4,-7],[1,-6],[0,-3],[-1,-2],[-3,-4],[0,-2],[1,-4],[5,-4],[3,-2],[3,-1]],[[1810,3034],[4,0],[1,1],[2,4],[0,2],[2,1]],[[1870,2891],[3,-1],[2,0],[3,-3],[2,-2],[1,-3],[2,-7],[0,-5],[0,-3],[-5,-21],[-2,-10],[0,-6],[-1,-2],[-1,-3],[-2,-2],[-8,-7],[-1,-4],[0,-1],[2,-2],[14,-6],[2,-2],[-1,-3],[-3,-7],[-2,-3],[-2,-2],[-1,-4],[1,-8]],[[1852,2891],[18,0]],[[1482,1787],[-3,1],[-1,2],[-11,20],[-1,2],[0,2],[0,2],[1,5],[1,2],[-1,2],[-1,7],[0,3],[-2,3],[-3,7],[-1,3],[-5,1]],[[1656,1816],[-9,-1],[-15,-9],[-4,-5],[-3,-7],[-3,-5],[-3,-2],[-2,0]],[[1617,1787],[-6,4],[-11,5],[-3,1]],[[1597,1797],[-9,-1],[-4,-1],[-25,-15],[-5,-7],[-4,-4],[-2,-1],[-2,-1]],[[1546,1767],[-38,3],[-2,1],[-1,1],[0,3],[-3,15],[-3,4]],[[1499,1794],[-3,-1],[-4,-1],[-3,-3],[-2,-1],[-5,-1]],[[2028,4096],[1,-1],[9,-7],[4,-1]],[[2237,4096],[-1,-4],[-1,-14],[4,-7],[20,-21],[39,-41],[9,-11],[-1,-2],[0,-3],[-1,-2],[-12,-24],[-4,-9],[-1,-4],[0,-5],[1,-8],[1,-4],[2,-1]],[[2064,4088],[4,0],[7,4],[4,2],[8,0],[27,2],[1,0]],[[2053,4089],[11,-1]],[[2042,4087],[3,0],[1,1],[3,1],[4,0]],[[2318,3946],[2,0],[2,-1],[3,-2],[2,-2],[1,-2],[0,-2],[13,-30],[1,-2],[0,-3],[0,-2],[0,-2],[-1,-2],[-1,-1],[-4,-2],[-10,-2],[0,-6],[2,-10],[15,-48],[3,-4],[5,-6]],[[2292,3936],[15,7],[11,3]],[[2190,3691],[-2,0],[-3,3],[-3,2],[-9,9],[1,2],[13,8],[4,3],[3,5],[11,13],[4,3],[4,2],[33,3],[30,8],[4,2],[6,5],[37,25],[28,33]],[[2207,3630],[28,51],[0,2],[0,2],[0,2],[0,3],[-1,3],[-1,1],[-1,2],[-3,3],[-1,2],[-4,2],[-5,2],[-2,0]],[[2217,3705],[-5,0],[-2,-1],[-4,-1],[-12,-11],[-2,-1],[-2,0]],[[2171,3645],[16,-3],[20,-12]],[[2031,3463],[4,1],[3,2],[3,4],[1,2],[0,3],[-1,1],[-7,3],[-2,1],[-1,2],[0,2],[0,2],[1,2],[11,16],[2,5],[1,2],[1,3],[0,2],[1,5],[0,5],[0,2],[0,5],[0,4],[0,3],[2,4],[2,8],[2,3],[2,3],[19,13],[2,2],[2,4],[6,13],[2,4],[2,3],[5,3],[9,9],[7,5],[17,7],[2,3],[1,3],[0,2],[1,6],[30,9],[10,1]],[[2018,3465],[13,-2]],[[1990,3412],[3,1],[3,1],[1,2],[1,2],[1,2],[1,2],[0,2],[0,3],[0,2],[0,2],[-2,10],[-1,4],[0,6],[0,2],[0,2],[1,4],[10,5],[10,1]],[[1976,3414],[14,-2]],[[1898,3389],[2,0],[1,2],[3,4],[2,3],[16,8],[4,2],[36,2],[4,1],[4,1],[3,2],[3,0]],[[1883,3404],[2,-1],[2,-1],[1,-1],[1,-2],[3,-6],[1,-2],[3,-2],[2,0]],[[1856,3257],[3,0],[2,2],[1,3],[2,4],[2,2],[2,0],[6,2],[4,2],[2,2],[2,2],[0,5],[-12,8],[-27,11],[-3,2],[-2,2],[-2,4],[-1,3],[-1,4],[0,3],[0,2],[3,13],[0,2],[-1,2],[0,2],[-1,6],[-4,14],[1,6],[5,9],[4,13],[5,7],[6,3],[26,7],[5,0]],[[1851,3262],[2,0],[0,-2],[1,-2],[2,-1]],[[1793,3181],[8,5],[3,4],[2,4],[1,3],[0,4],[0,2],[-1,5],[1,4],[1,6],[3,14],[2,5],[3,4],[9,4],[2,2],[1,1],[1,3],[1,1],[2,1],[5,1],[5,3],[6,5],[3,0]],[[3322,1380],[-11,3],[-27,0],[-9,2],[-4,0]],[[3271,1385],[-7,0],[-17,-6],[-4,-3],[-22,-26],[-9,-8],[-75,-7],[-6,-5],[-11,-6],[-13,-3],[-10,0]],[[3097,1321],[-41,5],[-28,11],[-3,3],[-12,12],[-18,11],[-10,1]],[[2985,1364],[-34,-10],[-9,-13],[-4,-7],[-6,-18],[-8,-26],[-3,-9],[-13,-24],[-5,-5],[-32,-22],[-35,-16],[-35,-22],[-4,-4],[-15,-19],[-3,-7],[-2,-5],[2,-11],[-1,-3],[-4,-3],[-46,-18],[-27,-12],[-1,-1],[1,-3],[9,-7],[44,-22],[6,-5],[4,-4],[5,-8],[5,-11],[11,-32],[3,-3],[2,-1],[6,-3],[20,-5],[11,0],[3,-1],[1,-2],[0,-5],[0,-7],[-2,-5],[-4,-3],[-15,-5],[-3,-2],[-2,-2],[-8,-12],[-3,-5],[-1,-4],[0,-4],[-1,-4],[0,-6],[1,-3],[1,-3],[22,-34],[6,-11],[3,-9],[-8,-21],[-46,-78]],[[418,2050],[5,-12],[1,-3],[1,-4],[0,-3],[-1,-2],[-1,-3],[-1,-2],[-12,-14],[-2,-3],[-2,-4],[-3,-8],[-1,-4],[1,-3],[8,-3],[2,-1],[0,-2],[-1,-2],[-14,-18],[-4,-4],[-3,-2],[-3,-2],[-4,-1],[-5,0]],[[362,1968],[-5,1],[-3,0]],[[354,1969],[-3,-1],[-8,-5],[-2,-1],[-3,-2],[-1,-1],[-2,-7],[-3,-14],[0,-3],[2,-2],[6,-2],[3,-2],[4,-3],[2,-3],[1,-4],[-1,-4],[1,-7],[0,-4],[-1,-4],[-1,-5],[-3,-6],[-2,-4],[-3,-3],[-4,-4],[-13,-1],[-5,-4],[-1,-3],[-1,-3],[-3,-4],[-2,-2],[-3,-1],[-3,-1]],[[379,1950],[-4,1],[-3,0],[-1,2],[-2,1],[0,2],[4,3],[1,2],[1,2],[0,2],[-1,2],[-1,1],[-2,1]],[[371,1969],[-9,-1]],[[305,1859],[-7,1],[-3,0],[-1,2],[-1,1],[-1,2],[-2,6],[-1,4],[-1,2],[-1,2],[-3,2],[-2,0]],[[282,1881],[-1,0],[-3,-3],[-3,-3],[-5,-9],[-1,-3],[-2,-1],[-28,-15],[-4,-3],[-4,-7],[-8,-20],[0,-2],[-2,-2],[-7,-11],[-1,-2],[1,-1],[2,-1],[9,-3],[4,-2],[2,-1],[1,-2],[2,-3],[1,-1],[2,-1],[3,-1],[7,-1],[2,-1],[1,-1],[-1,-4],[-2,-2],[-2,-2],[-1,-2],[-8,-3],[-6,-3],[-1,-2],[1,-2],[1,-4],[1,-4],[-1,-8],[-5,-9]],[[3367,2057],[2,1],[3,2],[4,5],[2,4],[3,4],[3,2],[13,5]],[[3347,2064],[5,0],[7,-3],[5,-3],[3,-1]],[[3182,1605],[5,5],[2,2],[1,2],[0,3],[-2,3],[-8,16],[-1,3],[-1,3],[0,4],[2,4],[2,6],[56,66],[3,5],[3,8],[6,18],[2,9],[1,7],[0,11],[0,8],[2,24],[1,7],[2,6],[2,3],[3,4],[5,4],[12,5],[15,4],[2,1],[-1,8],[-6,6],[-6,9],[-7,17],[-1,10],[2,9],[0,11],[-1,23],[0,4],[3,5],[5,7],[25,21],[6,6],[10,17],[6,12],[7,11],[2,10],[-2,28],[5,4],[3,0]],[[4096,2047],[-3,5],[-5,5],[-15,4],[-10,4],[-2,2],[-1,3],[-4,14],[-6,14],[-5,6],[-4,4],[-9,3],[-14,9],[-38,5],[-13,6],[-9,9],[-10,13],[-17,16]],[[3931,2169],[-15,-13],[-1,-3],[-1,-2],[11,-14],[1,-3],[1,-3],[1,-6],[-2,-3],[-4,-8],[0,-2],[1,-3],[2,-3],[2,-3],[1,-6],[0,-3],[-2,-2],[-3,-1]],[[3496,2074],[-5,1],[-3,2],[-1,3],[-1,11],[-1,3],[-1,3],[-5,5],[-9,4],[-32,9]],[[3438,2115],[-6,0],[-3,-2],[-2,-2],[-3,-5],[-6,-15],[-5,-6],[-16,-5]],[[3858,2028],[-47,14],[-63,6],[-32,17],[-14,10],[-6,4],[-5,1],[-12,0],[-4,1],[-8,6],[-18,10],[-9,1]],[[3640,2098],[-21,-7],[-4,-1],[-13,-3]],[[3923,2091],[-4,0],[-9,4],[-3,0]],[[3907,2095],[-3,0],[-12,-4],[-3,-1],[-3,-2],[-4,-4],[-2,-4],[-6,-18],[-2,-4],[-2,-3],[-15,-8],[-1,-3],[1,-3],[1,-3],[1,-2],[1,-8]],[[3602,2087],[-40,7]],[[3562,2094],[-6,-2],[-10,-8],[-5,-2],[-26,-4],[-1,-3],[-4,-1],[-14,0]],[[2041,1890],[-15,4],[-5,3],[-5,4],[-2,1],[-6,0]],[[2008,1902],[-30,-4],[-3,-1],[-5,-2],[2,-2],[1,-4],[1,-5],[-1,-7],[-2,-4]],[[1825,1870],[-9,3],[-3,2],[-2,1],[-1,2],[-1,2],[-1,1],[-3,10],[-2,3],[-2,4],[-1,1],[-2,0]],[[1798,1899],[-3,-1],[-3,-5],[-2,-3],[-1,-5],[-1,-3],[-1,-2],[-2,-2],[-2,-2],[-9,-4],[-6,-1]],[[1925,1832],[-3,0],[-3,1],[-3,2],[-4,2],[-3,3],[-8,10],[-6,8],[-9,17],[-5,6],[-13,13],[-4,2],[-4,2],[-5,0]],[[1855,1898],[-4,0],[-4,-1],[-3,-1],[-3,-2],[-5,-4],[-5,-6],[-6,-14]],[[2215,1791],[-35,3],[-27,10],[-24,5],[-37,14],[0,7],[1,5],[5,12],[1,2],[0,2],[0,2],[-1,2],[-5,7],[-1,3],[-1,4],[-1,4],[-2,2],[-2,3],[-6,4],[-3,2],[-2,3],[-1,1],[-3,2],[-4,0]],[[2067,1890],[-26,0]],[[1971,1873],[-12,7]],[[1959,1880],[-8,-5],[-4,-12],[1,-15],[-1,-5],[-1,-1],[-7,-4],[-14,-6]],[[1768,1871],[-2,1],[-2,2],[-1,1],[-2,1],[-2,1]],[[1759,1877],[-2,0],[-3,-2],[-2,-3],[-2,-3],[0,-3],[-1,-5],[-1,-2],[-3,-3],[-5,-3],[-53,-14],[-31,-23]],[[2334,1819],[-4,1],[-4,2],[-6,13]],[[2320,1835],[-13,-5],[-4,-5],[-2,-4],[-3,-3],[-6,-5],[-2,0],[-4,-1]],[[2286,1812],[-3,0],[-13,3],[-7,3],[-7,7],[-6,2],[-3,0]],[[2247,1827],[-3,0],[-5,-2],[-3,-1],[-2,-2],[-2,-1],[0,-2],[0,-2],[0,-4],[0,-2],[-1,-2],[-1,-2],[-2,-4],[-8,-9],[-1,-1],[-1,0],[-3,-2]],[[2383,1813],[-42,7]],[[2341,1820],[-7,-1]],[[2459,1811],[-50,6]],[[2409,1817],[-26,-4]],[[1673,1401],[-3,0],[-7,2],[-4,2],[-2,1],[-1,2],[-1,2],[-1,2],[0,4]],[[1701,1283],[-4,1],[-3,0],[-1,1],[-1,2],[-1,7],[0,13],[-1,6],[-7,5],[-2,3],[0,2],[0,4],[1,2],[1,2],[3,2],[2,1],[3,1],[24,1],[2,1],[4,1],[5,4],[2,3],[1,2],[1,5],[0,2],[-1,2],[-1,2],[-7,5],[-7,13],[-2,6],[-2,13],[-2,4],[-3,3],[-5,4],[-2,1],[-2,1]],[[1696,1408],[-2,0],[-18,-7],[-3,0]],[[1773,1241],[-14,2],[-9,4],[-2,1],[-1,2],[-1,1],[-9,24],[-2,3],[-2,3],[-4,2],[-9,3],[-5,0]],[[1715,1286],[-4,0],[-3,-1],[-7,-2]],[[1849,1180],[13,0],[2,1],[1,1],[0,2],[0,5],[0,10],[0,5],[-1,7],[-4,12],[-1,4],[0,9],[0,9],[0,5],[-1,4],[-1,6],[-2,3],[-4,4],[-7,1],[-4,2],[-15,13],[-6,2],[-3,1]],[[1816,1286],[-1,-1],[-1,-1],[-1,-2],[-3,-2],[-3,-2],[-7,-1],[-6,-3],[-1,-2],[0,-2],[-1,-5],[-1,-2],[-1,-3],[-5,-10],[-2,-2],[-1,-3],[-4,-3],[-3,-1],[-2,0]],[[1840,1189],[2,0],[2,-1],[2,-4],[1,-2],[2,-2]],[[1822,1111],[-3,0],[-5,1],[-2,2],[-1,2],[-1,14],[0,2],[1,1],[3,2],[2,2],[1,1],[1,2],[1,3],[0,2],[-2,3],[-8,8],[-2,2],[-1,2],[2,1],[8,1],[1,1],[1,2],[-1,3],[-2,7],[-1,4],[0,2],[2,2],[24,6]],[[1871,1053],[-2,0],[-1,1],[-4,7],[-2,1],[-3,2],[-11,3],[-3,2],[-1,2],[-1,2],[-1,2],[-6,7],[-2,3],[-1,2],[0,2],[1,3],[0,1],[2,2],[1,1],[1,2],[0,2],[0,2],[0,5],[0,2],[-2,3],[-1,1],[-1,1]],[[1834,1114],[-9,-3],[-3,0]],[[1948,1002],[2,1],[2,1],[3,5],[-8,9],[-9,6],[-20,5],[-19,1],[-2,2],[-1,2],[3,15],[0,3],[0,3],[-2,1],[-15,5]],[[1882,1061],[-2,-1],[-2,-1],[-2,-3],[-2,-2],[-3,-1]],[[1938,1005],[2,-1],[4,-1],[2,-1],[2,0]],[[1938,813],[-5,6],[-1,11],[2,5],[3,3],[2,3],[3,6],[1,3],[-1,2],[-5,6],[-7,5],[-2,3],[-3,5],[-6,16],[-2,4],[-4,5],[-2,2],[-3,5],[0,2],[0,3],[1,4],[1,7],[0,3],[1,3],[1,1],[2,2],[4,2],[4,4],[3,2],[18,6],[4,4],[-7,21],[0,3],[0,4],[1,2],[1,4],[1,5],[0,3],[-1,2],[-3,4],[-1,3],[-2,4],[0,3],[2,1]],[[1998,675],[-1,1],[0,1],[-6,14],[-1,11],[-10,4],[-7,7],[-6,8],[-5,8],[-1,4],[-2,2],[-10,5],[-1,2],[-1,3],[1,2],[1,2],[1,2],[3,1],[2,1],[1,2],[1,2],[0,2],[0,3],[-1,6],[-1,4],[-5,19],[0,4],[0,5],[0,4],[1,4],[-1,3],[-1,2],[-2,1],[-2,0]],[[1945,814],[-2,0],[-1,0],[-4,-1]],[[1977,560],[1,12],[0,20],[2,8],[1,1],[1,2],[2,1],[2,2],[0,2],[-1,2],[-1,4],[1,4],[2,7],[2,7],[2,3],[2,1],[1,2],[2,1],[2,4],[10,24],[2,8],[1,5],[-2,0]],[[2009,680],[-1,0],[-7,-5],[-1,0],[-2,0]],[[2771,779],[-26,-28],[-3,-9],[1,-4],[1,-3],[16,-15],[6,-7],[3,-5],[1,-5],[-1,-3],[-1,-3],[-1,-3],[-3,-5],[-16,-16],[-11,-9],[-6,-3],[-26,-8],[-3,-1],[-17,-18],[-5,-7],[-14,-20],[-6,-13],[-3,-14],[-2,-15],[-1,-15],[1,-14],[-3,-11],[-2,-4],[-46,-57],[-6,-5],[-7,-1]],[[2591,458],[-14,1]],[[2577,459],[-8,-2],[-8,-4],[-13,-13],[-5,-3],[-5,-1]],[[2538,436],[-14,1]],[[2524,437],[-26,-4],[-8,-4],[-4,-7],[-9,-8],[-11,-8],[-12,-4],[-15,-1]],[[2439,401],[-14,2],[-45,14],[-32,4]],[[2348,421],[-11,-2],[-2,-1],[-3,-4],[-6,-9],[-7,-7]],[[590,3775],[-8,-20],[-2,-2],[-2,-3],[-6,-1],[-5,-2],[-2,-2],[-1,-2],[1,-2],[2,-3],[1,-3],[0,-3],[-1,-5],[-2,-2],[-2,-1],[-3,0],[-2,-2],[-1,-1],[0,-2],[0,-2],[1,-2],[1,-4],[0,-3],[0,-4],[0,-5],[-1,-3],[-2,-3],[-13,-22],[-3,-3],[-3,-3],[-29,-20],[-6,-6],[-2,-2],[0,-3],[1,-1],[7,-10],[0,-3],[0,-2],[0,-5],[-1,-2],[-2,-1],[-2,-1],[-22,-2],[-2,-1],[-2,-2],[-2,-8],[-2,-2],[-5,-2],[-3,-3],[-2,-2],[-2,-7],[-5,-16],[-1,-1],[-3,-2]],[[452,3561],[-12,3],[-2,1],[-3,4]],[[435,3569],[-22,-3],[-3,-1],[-4,-3],[-1,-2],[-1,-4],[0,-6],[0,-4],[0,-5],[0,-3],[-1,-4],[-2,-7],[-1,-4],[2,-2],[2,-1],[1,-1],[2,-2],[3,-5],[2,-3],[2,-1],[2,-1],[9,-5],[2,-3],[0,-2],[-1,-2],[-5,-3],[-4,-6],[-14,-9],[-5,-5],[-5,-10],[-2,-2],[-2,-2],[-18,-5],[-4,-3],[-5,-3],[-13,-3],[-3,-2],[-10,-8],[-4,-2],[-3,-2]],[[329,3430],[-10,1],[-2,1],[-4,2],[-6,3],[-2,1],[-2,1],[-24,0],[-11,4],[-7,1]],[[261,3444],[-15,0],[-5,-1],[-1,-2],[0,-2],[2,-1],[19,-7],[4,-2],[2,-1],[1,-2],[2,-3],[1,-4],[2,-7],[-1,-1],[-1,-2],[-2,-3],[-2,-3],[-1,-3],[0,-2],[0,-2],[0,-3],[-4,-6],[-2,-3],[0,-2],[-1,-2],[-1,-10],[-4,-19],[-1,-5],[-3,-6],[-15,-5],[-3,-2],[0,-2],[0,-2],[0,-2],[1,-1],[7,-13],[1,-2],[1,-2],[0,-5],[0,-3],[-2,-3],[-3,-3],[-4,-5],[-3,-2],[-3,-2]],[[124,3361],[-4,0],[-11,3],[-9,0],[-32,12],[-4,0]],[[64,3376],[-13,-8],[-4,-1],[-3,-1]],[[44,3366],[-8,1],[-3,3],[-3,1],[-2,0]],[[28,3371],[-8,-4],[-4,0]],[[16,3367],[-5,0],[-11,2]],[[227,3286],[-5,1],[-9,3],[-3,1],[-42,45],[-26,21],[-7,4],[-5,2]],[[130,3363],[-2,-1],[-1,-1],[-3,0]],[[591,3968],[2,0],[1,1],[1,1],[3,5],[1,4],[1,4],[0,14],[0,4],[-5,6],[-4,11],[-1,3],[-2,2],[-4,2],[-1,2],[-1,3],[-4,15],[-1,3],[-2,2],[-2,1],[-1,1],[-2,2],[-1,3],[0,4],[0,3],[1,2],[3,2],[5,2],[2,1],[0,1],[-1,3],[-2,3],[0,3],[0,2],[4,9],[2,4]],[[565,3973],[16,-4],[10,-1]],[[590,3775],[-12,16],[-13,20],[-2,4],[-2,11],[2,7],[0,3],[0,7],[-2,10],[0,3],[0,4],[6,20],[2,10],[1,3],[-1,3],[-1,3],[-1,3],[-4,5],[0,2],[0,3],[2,5],[2,2],[3,4],[1,3],[1,4],[-1,14],[-1,3],[0,2],[-3,6],[-2,3],[-4,2],[-2,2],[-1,1],[0,3],[2,5],[3,2],[2,0]],[[693,1987],[-9,1],[-2,1],[-2,1],[-1,2],[0,3],[0,3],[0,3],[8,17],[1,3],[0,4],[1,7],[-1,3],[-1,3],[-17,18],[-5,8],[-1,4],[-1,3],[2,8],[1,4],[0,5],[-1,3],[-1,2],[-1,2],[-2,1],[-3,1],[-3,1]],[[655,2098],[-13,-3],[-3,-4],[-1,-3],[-1,-3],[-2,-4],[-4,-2],[-2,0]],[[629,2079],[-5,0],[-3,1],[-1,1],[-1,1],[-1,2],[-2,2],[-3,2],[-8,1]],[[605,2089],[-3,-1],[-3,-1],[-4,-12],[-1,-2],[0,-2],[0,-6],[0,-2],[-1,-2],[-1,-3],[-2,-2],[-2,0]],[[588,2056],[-23,4],[-4,1],[-10,8],[-2,2],[-4,1]],[[545,2072],[-2,0],[-2,-1],[-1,-2],[-6,-5],[-7,-4],[-3,-3],[-3,-5],[-3,0]],[[1071,1943],[-8,0],[-4,3],[-9,12],[-7,4],[-8,2],[-7,1],[-8,3],[-11,8],[-10,7],[-4,4],[0,2],[0,2],[0,6],[0,4],[-2,2],[-5,6],[-4,5],[-8,15],[-2,3],[-25,26],[-2,1],[-5,1],[-12,2]],[[930,2062],[-58,-32],[-16,-5]],[[518,2052],[-4,0]],[[514,2052],[-2,-1],[-2,-1],[-1,-2],[-2,-3],[-7,-6],[-4,-2],[-3,-1]],[[461,2034],[-2,1],[-3,0],[-1,1],[-1,1],[-36,13]],[[493,2036],[-17,1]],[[476,2037],[-15,-3]],[[856,2025],[-36,1]],[[820,2026],[-3,0],[-5,-3],[-3,-2],[-4,-3],[-9,-10],[-10,-4],[-3,-1]],[[783,2003],[-3,0],[-4,2],[-6,3],[-11,2],[-25,1]],[[734,2011],[-7,-3],[-34,-21]],[[1164,1894],[-2,0],[-5,4],[-35,11],[-4,2],[-16,22],[-2,2],[-8,7],[-4,1],[-3,1]],[[1085,1944],[-14,-1]],[[1241,1882],[-5,1],[-3,0],[-31,8],[-6,3],[-6,6],[-10,0]],[[1180,1900],[-6,-1],[-7,-5],[-3,0]],[[1324,1795],[-12,6],[-4,4],[-5,8],[-20,25],[-25,19],[-4,4],[-1,3],[-1,2],[0,2],[0,10],[-1,8]],[[1251,1886],[-10,-4]],[[1455,1849],[-9,-15],[-4,-4],[-10,-6],[-6,-2],[-5,0]],[[1421,1822],[-5,1],[-5,1],[-2,1],[-2,2],[-5,6],[-4,5],[-3,4],[-4,1],[-21,3]],[[1370,1846],[-12,-1],[-1,-2],[-4,-4],[0,-1],[-1,-2],[-1,-2],[-1,-2],[0,-5],[-1,-3],[0,-7],[-1,-2],[-1,-2],[-17,-17],[-6,-1]],[[1656,1816],[1,-11],[1,-11],[-1,-2],[1,-2],[0,-2]],[[1688,1797],[5,-1],[2,-1],[2,-4],[0,-6],[0,-10],[1,-6],[-1,-4],[-1,-3],[1,-4],[1,-6],[4,-14],[1,-6],[0,-4],[-15,-17],[0,-2],[0,-4],[2,-3],[8,-10],[3,-2],[2,-2],[4,-2],[3,-1]],[[1658,1788],[8,1],[2,2],[2,3],[1,1],[2,1],[6,1],[9,0]],[[1720,1687],[3,-1],[6,-3],[2,-4],[-12,-8],[-5,-4],[-8,-10],[-3,-2],[-3,-2],[-3,0]],[[1710,1685],[10,2]],[[1697,1653],[-26,0],[-30,6],[-14,5]],[[1627,1664],[-2,0],[-2,-1],[-1,-6],[-1,-3],[0,-3],[0,-4],[1,-2],[0,-2],[1,-2],[1,-1],[1,-2],[1,-2],[0,-2],[1,-15],[-4,-2]],[[1623,1617],[-21,10]],[[1602,1627],[-2,-5],[-2,-5],[0,-2],[0,-3],[18,-20],[12,-19],[1,-1],[4,-5],[4,-3],[9,-3],[1,-2],[1,-3],[-1,-6],[-2,-10],[1,-2],[0,-2],[1,-3],[3,-3],[1,-2],[0,-3],[-1,-6],[-1,-3],[-2,-4],[0,-4],[0,-5],[4,-21],[1,-2],[1,-2],[0,-2],[0,-2],[-2,-3],[-1,-3],[0,-3],[2,-4],[1,-2],[2,-1]],[[1674,1465],[2,-1],[0,-2],[-1,-4],[-3,-3],[-2,-2],[-2,-1],[-2,-3],[-1,-4],[-2,-8],[0,-4],[-2,-7],[-7,-10]],[[1655,1458],[2,0],[16,6],[1,1]],[[1565,1453],[-2,0],[-1,1],[-4,5],[-1,1],[0,2],[1,2],[1,2],[1,2],[4,3],[2,2],[0,2],[0,2],[1,3],[-1,7],[0,2],[-2,3],[-1,1],[-2,0]],[[1561,1493],[-8,-2]],[[1505,1481],[-2,0],[-3,2],[-9,7],[-3,2],[-3,1]],[[1485,1493],[-4,-1],[-3,-2],[-18,-16],[-1,-1],[-14,-5],[-2,-1],[-3,-2],[-4,-3],[-10,-2]],[[1553,1491],[-30,1]],[[1523,1492],[-3,0],[-1,-1],[-2,-2],[-1,-2],[-1,-2],[-1,-3],[-3,-1],[-6,0]],[[1426,1460],[-31,3],[-8,4],[0,2],[-1,2],[-1,2],[-3,3],[-3,1]],[[1379,1477],[-3,0],[-3,-1],[-10,-4],[-9,-2],[-2,-1],[-1,-1],[-1,-2],[-2,-2],[-2,0]],[[1346,1464],[-25,8],[-4,0]],[[1317,1472],[-2,-1],[-1,-2],[0,-2],[-1,-2],[-1,-2],[-4,-4],[-34,-20],[-10,-2]],[[1654,1416],[-33,9],[-9,4],[-4,6],[-4,3],[-4,2],[-7,2],[-17,10],[-4,2],[-4,0]],[[1568,1454],[-3,-1]],[[1264,1437],[-12,1],[-2,1],[-2,1],[-1,1],[-1,2],[-2,1],[-3,2],[-5,0]],[[1236,1446],[-3,-1],[-2,-1],[-1,-3],[-1,-4],[-1,-3],[-1,-8],[0,-4],[0,-10],[4,-25],[-2,-6],[-8,-2],[-2,0]],[[1219,1379],[-2,1],[-1,1],[-1,1],[-1,2],[0,3],[0,2],[0,2],[-1,1]],[[1213,1392],[-2,0],[-3,-1],[-5,-2],[-7,-7],[-16,-21],[-16,-9],[-6,-2]],[[1158,1350],[-21,4]],[[1137,1354],[-4,-1],[-2,0],[-20,-12],[-3,-2],[-38,-21],[-6,-5],[-7,-6],[-13,-18],[-2,-1],[-3,0]],[[933,1303],[-20,1],[-5,1],[-2,1],[-7,8],[-2,2],[-2,0],[-29,1],[-11,2],[-6,5],[-6,6],[-9,7],[-4,1]],[[830,1338],[-13,0],[-4,-1],[-2,-1],[-12,-19],[-2,-6],[1,-3],[1,-5],[1,-3],[1,-2],[1,-1],[5,-6],[4,-5],[3,-3],[5,-7],[0,-2],[0,-1],[-8,0],[-4,-1],[-1,-1],[-2,-1],[-1,-1],[-15,-21]],[[993,1293],[-18,11],[-9,8],[-4,2],[-6,2],[-3,1]],[[953,1317],[-3,0],[-2,-1],[-1,-2],[-4,-8],[-4,-2],[-6,-1]],[[1039,1288],[-2,1],[-1,3],[-2,1],[-2,1],[-9,4],[-12,8],[-8,9],[-1,0]],[[1002,1315],[-1,-1],[-2,-7],[-3,-10],[-1,-1],[-2,-3]],[[788,1248],[-8,3]],[[780,1251],[-2,0],[-4,-2],[-1,-2],[-1,-3],[-1,-3],[-3,-8],[-1,-4],[-3,-2],[-3,-2],[-2,-1],[0,-3],[-1,-2],[-5,-11],[-3,-2],[-2,-1]],[[748,1205],[-2,0],[-3,0],[-4,2],[-5,4],[-4,4],[-1,1],[0,2],[-1,2],[-1,2],[-2,1],[-4,1]],[[721,1224],[-2,-1],[-1,-1],[-4,-8],[0,-2],[0,-2],[2,-4],[0,-2],[0,-3],[-2,-1],[-2,0],[-4,-1],[-2,-1],[-2,-2],[-2,-3],[-3,0],[-2,0]],[[654,1185],[-9,3],[-4,2],[-2,1],[0,2],[0,2],[0,2],[1,2],[4,5],[0,2],[0,2],[-2,2],[-9,1],[-3,1],[-6,6],[-3,1],[-2,0]],[[619,1219],[-18,-5],[-5,-1]],[[596,1213],[-3,0],[-4,2],[-7,2],[-16,1],[-8,0]],[[697,1193],[-8,1],[-2,1],[-1,1],[-1,2],[0,2],[0,2],[-2,2],[-2,1],[-3,0]],[[678,1205],[-1,-1],[-1,-2],[-2,-4],[-3,-4],[-9,-6],[-4,-2],[-4,-1]],[[493,2622],[2,-14],[1,-6],[0,-1],[0,-4],[-3,-10],[0,-2],[0,-2],[1,-7],[6,-28],[0,-2],[-1,-3],[0,-2],[-6,-11],[0,-2],[2,-5],[4,-6],[13,-13],[6,-5],[3,-2]],[[529,2507],[2,0],[24,-12],[7,-6],[3,-5],[2,-2],[2,-4],[0,-2],[0,-2],[-1,-2],[-3,-2],[-2,-2],[-2,-3],[-2,-5],[-2,-7],[-4,-4],[-17,-2],[-2,-1],[-2,-1],[-1,-3],[-1,-5],[-4,-1],[-7,-1]],[[521,2497],[2,2],[1,5],[1,2],[2,1],[2,0]],[[519,2435],[-2,0],[-1,1],[-1,1],[0,4],[-1,2],[-1,2],[-1,1],[-2,0]],[[510,2446],[-3,0],[-1,0],[-2,-2],[0,-3],[0,-2],[0,-2],[5,-9],[1,-2],[2,-8],[0,-2],[0,-2],[-2,-1],[-2,-1]],[[463,2413],[-3,1],[-2,1],[-4,4],[-1,1],[-2,1],[-5,0]],[[446,2421],[-2,-1],[-1,-1],[-1,-3],[0,-3],[-1,-2],[0,-2],[-1,-2],[0,-3],[-1,-2],[1,-4],[-1,-2],[-1,-2],[-7,0]],[[508,2412],[-7,3]],[[501,2415],[-2,0],[-16,-4]],[[483,2411],[-4,0],[-3,1],[-1,1],[-1,1],[-3,0]],[[471,2414],[-8,-1]],[[431,2394],[-10,0],[-4,2]],[[417,2396],[-3,-1],[-4,-3],[-6,-9],[-2,-5],[-1,-5],[3,-3],[0,-2],[-1,-2],[-9,-4],[-10,-4],[-2,-1],[-1,-1],[-1,-2],[1,-2],[7,-6],[9,-18],[10,-21],[2,-1],[2,-1]],[[424,2312],[2,0],[10,-5],[3,-1],[2,-3],[4,-8],[1,-2]],[[411,2305],[3,1],[2,1],[3,3],[2,1],[1,1],[2,0]],[[453,2294],[3,-1],[7,-5],[2,-2],[1,-2],[0,-4],[-2,-7],[0,-3],[0,-2],[5,-4],[19,-8],[-16,-22],[-3,-3],[-3,-1]],[[446,2293],[7,1]],[[466,2230],[-10,3]],[[456,2233],[-2,-1],[-1,-2],[-1,-5],[1,-4],[1,-2],[3,-5],[1,-2],[1,-1],[0,-3],[0,-2],[-5,-33],[0,-18],[-1,-5],[-1,-3],[-1,-3],[-2,-3],[-2,-2],[-1,-1],[-1,0],[-19,-1],[-3,-1],[-3,-1],[0,-1],[-1,-1],[-5,-10],[-9,-15],[-9,-11],[-1,-2],[-1,-2],[0,-5],[1,-7],[0,-5],[0,-3],[1,-4],[4,-6],[2,-4],[1,-2],[2,-1]],[[410,2060],[2,0],[6,-10]],[[405,2056],[2,2],[2,2],[1,0]],[[48,2958],[-3,1],[-5,3],[-2,2],[-2,2],[-3,5],[-2,3],[-1,4],[0,2],[-1,11],[-2,4],[-3,6],[-11,19],[-2,3],[-11,9]],[[109,2951],[-7,1],[-1,1],[-2,1],[-2,4],[-3,5],[-3,2],[-3,3],[-9,5],[-4,2],[-3,0]],[[72,2975],[-2,-1],[-3,-3],[-6,-9],[-4,-3],[-9,-1]],[[178,2929],[-3,0],[-3,2],[-2,2],[-1,2],[0,2],[3,13],[0,3],[-1,4],[-2,7],[-3,3],[-2,3],[-6,1],[-5,0]],[[153,2971],[-4,-1],[-6,-2],[-16,-12],[-18,-5]],[[244,2852],[-1,2],[-2,2],[-10,10],[-9,14],[-6,15],[-7,12],[-12,17],[-3,3],[-4,2],[-3,0]],[[187,2929],[-9,0]],[[276,2786],[4,1],[4,3],[3,4],[-8,9],[-4,9],[-2,11],[-4,12],[-6,7],[-16,11]],[[247,2853],[-3,-1]],[[272,2786],[4,0]],[[273,2692],[4,9],[6,8],[2,4],[1,4],[-1,3],[-1,2],[-2,3],[-2,3],[-1,4],[-1,13],[-1,3],[0,2],[-1,1],[-2,3],[-2,2],[-2,2],[-1,4],[0,4],[0,8],[1,5],[2,7]],[[336,2670],[-7,1],[-1,1],[-4,6],[-4,5],[-13,8],[-4,1]],[[303,2692],[-30,0]],[[439,2662],[-21,6],[-12,4]],[[406,2672],[-70,-2]],[[460,2609],[-1,1],[-1,3],[-1,2],[-1,2],[0,2],[0,2],[2,18],[1,5],[0,2],[0,8],[2,10],[1,3],[-1,4],[-1,0]],[[460,2671],[-1,0],[-8,-6],[-3,-2],[-5,-1],[-4,0]],[[493,2622],[-14,2]],[[479,2624],[-7,-3],[-2,-3],[-8,-9],[-2,0]],[[1313,4096],[-3,-19],[24,-51],[-74,-35],[-13,-91],[-55,0]],[[1503,4059],[4,14],[-17,15],[-1,8]],[[1489,4060],[14,-1]],[[1389,3846],[23,70],[11,56],[14,5],[22,16],[20,27],[10,40]],[[1192,3900],[-1,42]],[[1191,3942],[-39,-1],[0,-55],[37,-74],[-41,-43]],[[1352,3858],[37,-12]],[[1307,3703],[31,39],[14,58],[-19,23],[19,35]],[[1287,3721],[20,-18]],[[1227,3626],[33,16],[2,40],[25,39]],[[3322,1380],[36,-24],[38,-33],[12,-3],[7,-2],[4,-4],[69,-62],[4,-1],[7,-1]],[[3894,1368],[3,-1],[4,-3],[2,-3],[3,-3],[14,-8],[3,-2],[3,-5],[8,-13],[3,-4],[5,-4],[3,-1]],[[3836,1349],[45,4],[3,2],[2,2],[4,8],[2,2],[2,1]],[[3808,1357],[16,-6],[12,-2]],[[3788,1296],[3,1],[2,1],[5,13],[10,46]],[[3966,1345],[6,0],[27,-12],[8,-2]],[[3945,1321],[4,1],[7,4],[1,3],[1,3],[-1,4],[0,3],[1,3],[1,2],[3,1],[4,0]],[[3728,1345],[4,-2],[2,-3],[1,-3],[1,-3],[1,-4],[0,-3],[-1,-8],[-1,-8],[-2,-11],[0,-3],[1,-3],[1,-3],[3,0]],[[3710,1335],[4,0],[4,3],[5,6],[2,1],[3,0]],[[3701,1337],[9,-2]],[[3678,1308],[5,1],[5,4],[3,4],[1,3],[2,7],[2,6],[2,3],[3,1]],[[4050,1333],[3,-1],[3,-1],[3,-4],[4,-13],[3,-2],[5,-2]],[[4007,1331],[20,1],[23,1]],[[4071,1310],[9,1],[4,2],[4,2],[2,2],[4,3],[2,0]],[[3662,1314],[5,-1],[5,-3],[3,-2],[3,0]],[[3602,1281],[3,1],[4,2],[3,5],[0,3],[0,4],[-1,3],[-1,3],[0,3],[2,2],[4,2],[46,5]],[[3775,1309],[3,0],[2,-1],[2,-3],[2,-5],[2,-3],[2,-1]],[[3763,1304],[3,0],[6,4],[3,1]],[[3760,1304],[3,0]],[[3738,1291],[4,1],[8,8],[6,3],[4,1]],[[3594,1282],[8,-1]],[[3499,1250],[21,3],[6,2],[17,12],[20,10],[19,4],[12,1]],[[3038,130],[-2,1],[-3,1],[-2,2],[-2,3],[0,4],[2,17],[0,4],[0,5],[-2,6],[-2,4],[-9,16],[-1,3],[-1,3],[0,3],[1,4],[3,5],[4,1],[10,2],[2,2],[1,3],[1,4],[-2,9],[-1,6],[1,8],[0,5],[0,5],[-1,4],[-4,9],[-7,10],[-1,8],[4,16],[1,12],[2,31],[0,2],[1,3],[2,2],[2,2],[6,2],[2,1],[1,3],[1,3],[1,4],[0,10],[1,9],[8,28],[14,31],[0,3],[1,4],[-1,3],[-2,4],[-3,6],[-4,7],[-6,10],[-8,12],[-42,37],[-6,7],[-28,28],[-10,15],[-1,2],[-95,37],[-7,11],[-4,10],[-1,2],[0,4],[0,7],[1,4],[1,3],[2,6],[0,3],[-1,3],[-3,4],[-6,4],[-7,3],[-7,1],[-6,3],[-4,2],[-3,3],[-48,85]],[[3245,0],[2,13],[0,4],[0,4],[-1,3],[-1,3],[-7,6],[-59,39],[-9,2],[-17,1],[-3,1],[-3,2],[-3,5],[-1,4],[-1,4],[-2,22],[-1,6],[-3,9],[-2,3],[-1,2],[-4,4],[-3,2],[-3,2],[-6,2]],[[3117,143],[-13,-1],[-28,-9],[-9,-3],[-29,0]],[[1395,4096],[-112,-65],[-221,-55],[-70,14],[-131,-61],[-148,1],[-45,24],[-282,-4],[-135,-114],[-51,-97],[-200,-10]],[[0,3729],[200,10],[51,97],[135,114],[282,4],[45,-24],[148,-1],[130,60],[71,-13],[221,55],[112,65]],[[0,17],[2,-1],[7,-2],[7,-5],[12,-2],[12,-3],[5,-4],[-45,0],[0,17]],[[134,0],[2,5],[3,-5],[-5,0]],[[3735,163],[5,-6],[1,-15],[-7,-4],[-8,-4],[-4,-12],[0,-7],[-2,-6],[-2,-4],[-5,-2],[-1,-3],[1,-6],[6,-14],[2,-2],[1,-3],[0,-4],[-2,-3],[-1,-2],[-2,-3],[-2,-14],[-3,-6],[-14,-25],[-5,-7],[-8,-6],[-12,-5],[-28,0],[-7,2],[-12,1],[-12,-2],[-3,-1],[-14,0],[1,2],[5,7],[15,5],[40,-1],[19,4],[15,13],[7,18],[3,23],[0,26],[1,7],[3,3],[4,1],[2,4],[1,5],[1,11],[1,4],[12,18],[1,7],[-11,4],[-14,6],[-17,2],[-8,-2],[-16,-12],[-8,-2],[-8,0],[-6,1],[-6,4],[-13,14],[-5,9],[0,9],[7,8],[-4,5],[-9,4],[-2,7],[1,4],[5,14],[6,8],[0,14],[-2,13],[-3,9],[-21,41],[-12,18],[-14,14],[13,-6],[14,-18],[28,-51],[4,-13],[2,-12],[-3,-12],[-6,-14],[1,-6],[5,-4],[4,-11],[0,-2],[-2,-4],[-1,-6],[1,-5],[2,-5],[11,-17],[8,-6],[8,6],[15,18],[4,2],[5,2],[9,0],[5,-1],[9,-5],[5,-2],[7,-2],[10,-5],[9,-7]],[[0,17],[2,-1],[7,-2],[7,-5],[12,-2],[12,-3],[5,-4]],[[134,0],[2,5],[3,-5]],[[3735,163],[5,-6],[1,-15],[-7,-4],[-8,-4],[-4,-12],[0,-7],[-2,-6],[-2,-4],[-5,-2],[-1,-3],[1,-6],[6,-14],[2,-2],[1,-3],[0,-4],[-2,-3],[-1,-2],[-2,-3],[-2,-14],[-3,-6],[-14,-25],[-5,-7],[-8,-6],[-12,-5]],[[3645,0],[-7,2],[-12,1],[-12,-2],[-3,-1]],[[3597,0],[1,2],[5,7],[15,5],[40,-1],[19,4],[15,13],[7,18],[3,23],[0,26],[1,7],[3,3],[4,1],[2,4],[1,5],[1,11],[1,4],[12,18],[1,7],[-11,4],[-14,6],[-17,2],[-8,-2],[-16,-12],[-8,-2],[-8,0],[-6,1],[-6,4],[-13,14],[-5,9],[0,9],[7,8],[-4,5],[-9,4],[-2,7],[1,4],[5,14],[6,8],[0,14],[-2,13],[-3,9],[-21,41],[-12,18],[-14,14],[13,-6],[14,-18],[28,-51],[4,-13],[2,-12],[-3,-12],[-6,-14],[1,-6],[5,-4],[4,-11],[0,-2],[-2,-4],[-1,-6],[1,-5],[2,-5],[11,-17],[8,-6],[8,6],[15,18],[4,2],[5,2],[9,0],[5,-1],[9,-5],[5,-2],[7,-2],[10,-5],[9,-7]],[[3728,4094],[1,2]],[[1491,4086],[17,10]],[[1490,4096],[1,-10]],[[1417,4096],[-6,-12]],[[1407,4084],[4,0]],[[1407,4084],[-10,12]],[[1404,4082],[3,2]],[[1411,4084],[6,0],[9,-5]],[[1393,4079],[11,3]],[[1426,4079],[5,-2],[24,0],[12,2],[24,7]],[[1404,4082],[-2,-15]],[[1402,4067],[-3,-5]],[[1404,4059],[-2,8]],[[895,4059],[10,15],[11,22]],[[1321,4054],[12,5],[33,10],[18,8],[9,2]],[[1321,4054],[-7,10],[-3,10],[-2,10],[3,12]],[[1896,4096],[-4,-12],[-1,-3]],[[1891,4081],[-1,-7],[6,-25]],[[1489,4074],[-4,-32]],[[1425,4072],[15,-5],[19,-5],[20,-13],[6,-7]],[[1399,4062],[-10,-15],[-11,-12],[-13,-13]],[[1485,4042],[9,-7],[15,-10],[6,-5]],[[1408,4020],[-1,10],[-6,12],[3,17]],[[1365,4022],[-15,-7]],[[1350,4015],[-20,22],[-9,17]],[[192,4096],[-3,-29],[-8,-32],[-3,-30]],[[1232,4003],[11,2],[27,10],[6,5],[9,10],[18,12],[18,12]],[[1221,4000],[11,3]],[[3734,3995],[2,10],[-8,32],[-3,10],[0,12],[3,35]],[[1365,4022],[12,-9],[-2,-5],[-9,-13]],[[1366,3995],[-16,20]],[[1401,3990],[4,13],[3,17]],[[2507,3985],[14,25],[-4,17],[0,30],[0,5],[7,7],[-3,10],[-2,17]],[[1180,3985],[41,15]],[[1485,4042],[-6,-20],[-11,-17],[-15,-17],[-6,-3]],[[1408,4020],[11,-10],[10,-10],[18,-15]],[[1398,3978],[-32,17]],[[1401,3990],[4,-14]],[[1405,3976],[-7,2]],[[1896,4049],[0,-7],[-6,-17],[0,-10],[-3,-12],[-13,-23],[-8,-7]],[[1447,3985],[-16,-9],[-14,-3],[-12,3]],[[1447,3985],[6,-7],[2,-10]],[[1070,3961],[41,12],[28,3],[15,2],[26,7]],[[895,4059],[-9,-24],[-9,-15],[-9,-7],[-12,-10],[-14,-23],[-4,-7],[-14,-7],[-3,-5]],[[950,3943],[21,5],[24,0],[27,5],[26,3],[22,5]],[[1292,3984],[-11,-5]],[[1350,4015],[-30,-17],[-12,-6]],[[1281,3979],[-20,-8],[-27,-8],[-25,-10],[-27,-14]],[[1308,3992],[-14,-7],[-2,-1]],[[821,3961],[0,-22]],[[821,3939],[2,-8]],[[1866,3973],[-6,-5],[-6,-10],[0,-12],[9,-22],[2,-8]],[[461,3929],[24,2],[18,-5],[34,-2],[32,0],[21,-3],[33,-7],[27,-3]],[[3691,3907],[1,19],[5,17],[19,28],[15,17],[3,7]],[[823,3931],[7,-17],[2,-10]],[[832,3904],[19,3],[26,4],[15,8],[22,7],[17,10],[19,7]],[[650,3911],[60,-7],[32,0],[18,3],[12,-3],[19,-2],[27,0],[14,2]],[[1515,4020],[21,-27],[13,-14]],[[1549,3979],[3,-3],[14,-15],[7,-13],[9,-7],[23,-25],[6,-7],[12,-20],[8,-7],[6,-8]],[[1366,3995],[-14,-15]],[[1352,3980],[-13,-14],[-33,-32],[-9,-10],[-9,-15],[-6,-17],[-10,-15],[-9,-7]],[[1865,3916],[-5,-12],[-13,-17],[-23,-25]],[[1182,3939],[-40,-42],[-9,-15],[-6,-8],[-15,-14],[-15,-10]],[[1097,3850],[-12,-10]],[[832,3904],[4,-17],[3,-5],[18,-27],[17,-17]],[[3691,3907],[12,-28],[1,-9],[-1,-13],[-11,-19]],[[1455,3968],[1,-7],[6,-27],[0,-4]],[[1462,3930],[0,-9],[-4,-37],[0,-10],[1,-7],[8,-17],[6,-20]],[[1405,3976],[3,-30],[0,-16]],[[1408,3930],[0,-33],[-1,-25],[-6,-22],[-12,-27]],[[1473,3830],[3,-10],[4,-27]],[[1263,3870],[-14,-18],[-10,-19],[-9,-20],[-6,-22]],[[1806,3842],[-7,-9],[-11,-8],[-7,-3]],[[1781,3822],[-17,-7],[-15,-10],[-21,-14]],[[1824,3862],[-18,-20]],[[1637,3874],[12,-9],[13,-5],[27,-13],[12,-12],[17,-32],[10,-12]],[[178,4005],[-3,-42],[2,-10],[9,-27],[1,-7],[3,-25],[0,-37],[3,-10],[9,-27],[2,-17],[-3,-25],[-3,-14]],[[198,3764],[21,17],[28,17],[13,7],[24,13],[49,34],[14,15],[61,35],[8,2],[40,22],[5,3]],[[184,3761],[14,3]],[[1224,3791],[-47,-25],[-15,-7]],[[874,3838],[9,-8],[7,-5],[18,-7],[17,-10],[25,-17],[20,-23],[13,-4],[8,-8],[4,0],[30,12]],[[1480,3793],[6,-25],[9,-12]],[[3692,3838],[14,-15],[19,-18],[14,-19],[6,-5],[22,-8],[9,-9],[3,-13]],[[184,3761],[-10,-2],[-18,-8],[-24,-7],[-29,-3],[-21,5]],[[1085,3840],[-3,-5],[-9,-20],[-3,-10],[-1,-19],[-8,-27],[0,-20]],[[1061,3739],[-18,10],[-13,15],[-5,4]],[[1389,3823],[-6,-18],[-2,-17],[-3,-49]],[[192,3751],[3,-5],[0,-10]],[[82,3746],[-28,5],[-15,0],[-39,-10]],[[2479,3719],[3,15],[-2,17],[5,15],[9,12],[15,3],[6,15],[-3,12],[-2,15],[7,15],[10,9],[3,18],[-3,2],[-17,12],[-16,18],[-9,14],[-6,20],[4,10],[14,22],[4,13],[6,9]],[[1162,3759],[-12,-5],[-5,-3],[-9,-15],[-9,-7],[-21,-15]],[[1106,3714],[-28,15],[-17,10]],[[2394,3717],[-2,0],[-18,0],[-20,-3],[-19,-2]],[[2479,3719],[-35,0],[-50,-2]],[[1728,3791],[-12,-10],[-10,-8],[-24,-29],[-14,-15],[-18,-12],[-24,-15],[-12,-5]],[[1816,3689],[13,-7]],[[1728,3791],[15,-23],[12,-14],[11,-10],[9,-8],[22,-17],[5,-7],[4,-13],[5,-7],[5,-3]],[[1106,3714],[-10,-7],[-15,-8],[-20,-14],[-4,-5]],[[1061,3739],[-6,-25],[-4,-17],[-9,-15],[0,-2]],[[1042,3680],[15,0]],[[1614,3697],[-32,-7],[-19,2],[-11,-2],[-30,-15]],[[1495,3756],[2,-15],[3,-9],[16,-23],[2,-14],[4,-20]],[[1378,3739],[3,-22],[11,-35],[0,-7],[-2,-22]],[[1522,3675],[-19,-3],[-20,0],[-9,0],[-15,-7],[-19,-5],[-18,-2],[-32,-5]],[[3779,3751],[3,-7],[11,-5],[31,-27],[15,-13],[23,-19],[9,-8],[23,-14],[18,-5]],[[1332,3628],[4,22]],[[1330,3608],[2,20]],[[1230,3655],[-14,8],[-22,9],[-27,10],[-15,7]],[[1152,3689],[-19,8],[-27,17]],[[1330,3608],[-25,10],[-15,5],[-20,10],[-7,5],[-33,17]],[[1829,3682],[13,-10],[11,-2],[5,-6]],[[1858,3664],[22,-24],[28,-22],[17,-15]],[[1522,3675],[3,-12],[5,-25],[-2,-10],[5,-7],[12,-20]],[[1042,3680],[-3,-20],[-21,-20],[-15,-17],[-15,-15],[-23,-19],[-6,-3]],[[1366,3581],[6,8],[3,19],[5,18],[7,17],[3,10]],[[278,3587],[13,-11],[8,-7]],[[195,3736],[1,-4],[12,-23],[2,-17],[6,-7],[16,-13],[5,-7],[3,-15],[3,-17],[4,-20],[8,-10],[18,-12],[5,-4]],[[1587,3533],[1,-1],[18,-10]],[[1545,3601],[3,-17],[10,-20],[9,-15],[20,-16]],[[1341,3520],[16,27],[9,19],[0,15]],[[1606,3522],[0,-1]],[[1606,3521],[-1,-6]],[[3912,3653],[7,-15],[9,-12],[8,-8],[18,-12],[21,-13],[9,-9],[18,-23],[13,-14],[8,-3],[13,-10],[15,-14],[3,-8]],[[513,3466],[-7,-3]],[[530,3473],[-17,-7]],[[445,3517],[1,0],[9,-5],[25,-27],[26,-22]],[[299,3569],[10,-10],[6,-3]],[[315,3556],[11,-7],[13,-5],[24,0],[11,-5],[15,0],[12,5],[10,-2],[18,-15],[16,-10]],[[2267,3641],[0,2],[6,7],[9,10],[14,22],[10,13],[11,7],[18,10]],[[2194,3436],[15,22],[4,7],[2,10],[0,30],[4,10],[21,17],[21,15],[8,5],[7,9],[0,13],[-7,17],[-11,15],[0,12],[8,10],[1,13]],[[1925,3603],[13,-14],[35,-32],[15,-15],[19,-20],[15,-12],[18,-18],[14,-12],[12,-12],[26,-20],[34,-20],[6,-2]],[[506,3463],[-4,-2]],[[502,3461],[-35,-15],[-51,-25]],[[2176,3411],[16,22]],[[2192,3433],[2,3]],[[2135,3425],[6,-2],[17,-7],[18,-5]],[[2132,3426],[3,-1]],[[2176,3411],[-18,-5],[-12,-7],[-2,-5]],[[959,3586],[-21,-15],[-10,-12],[-6,-15],[0,-15],[-2,-7],[-7,-7],[-17,-15],[-16,-17],[-6,-10],[-5,-10],[-6,-17],[-6,-25],[-7,-12],[-6,-15],[-5,-5]],[[1605,3515],[-2,-13],[-1,-24],[1,-25],[5,-32],[0,-17],[1,-32]],[[2176,3411],[7,-2],[12,-13],[5,-12],[1,-12]],[[1345,3349],[2,37],[-3,15],[-2,27],[3,15],[0,32],[0,8],[-3,27],[-1,10]],[[818,3365],[1,0]],[[802,3347],[4,7],[12,11]],[[819,3365],[11,9],[9,15]],[[910,3342],[-11,0]],[[899,3342],[-1,0],[-12,5],[-11,2]],[[802,3347],[-24,-2],[-24,-8],[-11,0],[-12,0],[-15,0],[-21,10],[-27,2],[-39,18],[-30,17],[-12,12],[-9,20],[-8,10],[-9,20],[-6,7],[-18,17],[-7,3]],[[875,3349],[-4,0],[-26,-14]],[[845,3335],[-19,14],[-18,0],[-6,-2]],[[1605,3515],[1,-8],[3,-15],[10,-12],[10,-10],[26,-22],[9,-10],[18,-29],[19,-35],[14,-20],[16,-22],[14,-17]],[[1353,3308],[-6,27],[-2,14]],[[802,3347],[-39,-34],[-12,-8],[-30,-20],[-9,-7]],[[1745,3315],[16,-17],[20,-13],[13,-12]],[[1609,3372],[4,-37],[0,-22],[6,-15],[0,-15],[-6,-17],[-11,-30]],[[1384,3234],[-7,14],[-9,20],[-8,22],[-7,18]],[[907,3320],[12,-7],[9,-8],[10,-5],[14,-5],[15,0],[19,-5],[23,-7],[33,-15],[27,-10],[16,-2],[21,-8],[14,-2],[25,-10],[46,-15],[15,-2],[30,-5],[7,-3]],[[2201,3372],[15,-10],[1,-1]],[[2217,3361],[11,-12],[11,-9],[10,-5],[27,-10],[8,0],[7,-5],[3,-5],[5,-15],[3,-10],[7,-10],[6,-12],[-1,-17],[21,-22],[12,-8],[15,-5],[25,-9],[45,0],[26,9],[42,3],[17,-3],[12,-5],[22,-9]],[[2580,3194],[-12,5],[-17,3]],[[712,3278],[-25,-20],[-46,-27],[-9,-7],[-5,-5],[-6,-20],[-4,-10]],[[2144,3394],[-1,-1]],[[2143,3393],[-2,-2],[-34,-24],[-11,-18],[-6,-19],[-6,-13],[-21,-14],[-6,-8],[-14,-17],[-18,-17],[-12,-13],[-9,-12],[-18,-25],[-6,-7],[-9,-7],[-19,-5],[-6,-3],[-21,-15]],[[1794,3273],[12,-12],[9,-13],[8,-4],[12,-8],[21,-5],[13,0],[9,-2],[11,-10],[36,-45]],[[1407,3155],[1,7],[-1,17],[-7,17]],[[1400,3196],[-4,11],[-12,27]],[[4054,3512],[-9,-10],[-13,-5],[-5,-5],[2,-4],[6,-18],[3,-12],[6,-15],[10,-12],[8,-15],[6,-22],[9,-15],[4,-10],[2,-12],[4,-10],[8,-7],[1,-8]],[[1925,3174],[19,-22]],[[1243,3211],[12,-2],[29,-7],[13,-10],[17,-20],[12,-10],[9,-10],[9,-7],[16,-7]],[[1395,3135],[3,10],[9,10]],[[617,3189],[-9,-15],[-12,-14],[-26,-27]],[[1379,3131],[2,-1],[14,5]],[[1360,3138],[12,-5],[7,-2]],[[1925,3174],[-23,-9],[-9,-5],[-27,-25],[-19,-15],[-12,-5],[-11,0],[-36,0],[-6,-2]],[[570,3133],[-12,-13],[-12,-15]],[[2745,3105],[-15,8],[-30,10],[-11,7],[-13,10],[-8,15],[-3,2],[-12,3],[-39,5],[-9,5],[-19,19],[-6,5]],[[1602,3236],[0,-7],[6,-22],[0,-8],[-8,-20],[-16,-37],[-8,-12],[-4,-10],[1,-15],[-7,-14],[-5,-22],[-4,-13],[-5,-10]],[[1419,3114],[-3,6],[-8,18],[-1,17]],[[1552,3046],[-33,0],[-16,3],[-12,12],[-18,12],[-17,20],[-12,8],[-18,4],[-6,5],[-1,4]],[[2887,3044],[-25,7],[-30,13],[-27,12],[-24,12],[-36,17]],[[3029,3105],[-21,-2],[-14,-5],[-7,-12],[-14,-17],[-21,-13],[-21,-7],[-33,-8]],[[2898,3041],[-11,3]],[[3360,3034],[-13,12],[-9,10],[-9,8],[-21,9],[-9,8],[-6,10],[-3,2],[-23,8],[-9,4],[-9,13],[-10,22],[-6,0],[-21,0],[-14,-10],[-6,0],[-7,0],[-15,8],[-17,-3],[-22,-12],[-21,-5],[-24,-3],[-48,-10],[-9,0]],[[1782,3113],[-9,-8],[-7,-12],[-9,-7],[-6,-10],[-3,-10],[-2,-12],[0,-18],[-4,-17]],[[1384,3107],[3,6],[8,22]],[[1354,3017],[5,10],[10,7],[5,25],[-5,19],[2,8],[13,21]],[[1742,3019],[-23,0],[-40,0],[-15,-2],[-12,0],[-17,5],[-15,0],[-15,2],[-15,-5],[-12,5],[-17,17],[-9,5]],[[1944,3152],[33,-49],[6,-7],[17,-18],[10,-22],[14,-20],[9,-9],[24,-20],[17,-10],[40,-22]],[[2114,2975],[14,-10],[7,-7],[8,-20]],[[1335,2933],[0,5],[10,15],[6,17],[9,29],[-3,15],[-3,3]],[[1552,3046],[-10,-17],[1,-7],[12,-18],[6,-22],[14,-34],[10,-27],[5,-25]],[[546,3105],[-21,-22],[-16,-22],[-15,-20],[-20,-19],[-18,-20],[-13,-20],[-11,-15],[-12,-17],[-15,-29],[-16,-30],[-6,-17]],[[1590,2896],[0,-27]],[[2143,2938],[3,-8],[9,-12],[7,-17],[8,-7],[10,-3],[20,-2],[25,-8],[20,-7],[6,-5],[6,-12]],[[2257,2857],[4,-13],[9,-5]],[[383,2874],[-5,-22],[-7,-20]],[[3556,2805],[-20,19],[-19,20],[-9,13],[-8,27],[-7,22],[-9,17],[-6,10],[-17,30],[-9,12],[-12,10],[-18,10],[-23,7],[-21,15],[-18,17]],[[3613,2763],[-15,2],[-17,10],[-7,8],[-18,22]],[[3640,2741],[-6,12],[-6,7],[-6,3],[-9,0]],[[1142,2706],[22,8],[16,9],[30,25],[29,42],[7,20],[9,12],[11,2],[7,5],[12,20],[8,20],[6,22],[10,15],[26,27]],[[2320,2704],[-5,7],[-21,49],[-6,20],[-16,40],[-3,14],[1,5]],[[3901,2719],[-10,-5],[-29,-8],[-57,-10],[-30,3],[-26,5],[-9,2],[-42,20],[-12,5],[-9,0],[-33,7],[-4,3]],[[3949,2694],[-3,7],[-9,5],[-27,13],[-9,0]],[[2330,2679],[-10,25]],[[0,2668],[12,-6],[24,-10],[21,-5],[30,-12],[6,-5]],[[1611,2625],[5,24],[-2,10],[2,27],[-2,10],[-6,13],[-12,12],[-5,10],[-3,34],[0,20],[2,22],[0,40],[0,22]],[[2348,2608],[-3,9],[3,18],[-3,17],[-15,27]],[[1033,2603],[16,19],[14,10],[13,8],[8,7],[7,15],[14,20],[7,7],[12,10],[18,7]],[[1030,2600],[3,3]],[[93,2630],[18,-13],[16,-7],[21,-7],[18,-5]],[[4018,2598],[-12,10],[-1,7],[-15,25],[-14,32],[-6,7],[-15,10],[-6,5]],[[189,2593],[13,-3],[9,-2]],[[166,2598],[23,-5]],[[4059,2583],[-14,2],[-4,3]],[[4041,2588],[-23,10]],[[211,2588],[8,-8]],[[4059,2583],[15,-15],[15,-5]],[[4089,2563],[7,-1]],[[202,2566],[17,14]],[[183,2558],[7,0],[11,8],[1,0]],[[219,2580],[7,-12],[12,-10],[9,-5],[12,0]],[[259,2553],[14,0]],[[308,2546],[4,20],[8,22],[7,29],[5,25],[0,10],[1,30],[-1,17],[4,15],[3,19],[8,30],[12,39],[12,30]],[[273,2553],[8,0],[27,-7]],[[1602,2526],[0,25],[-6,29],[1,8],[11,17],[3,20]],[[4078,2526],[5,8],[0,14],[6,15]],[[4018,2598],[-1,-18],[3,-14],[-2,-40],[0,-10]],[[111,2499],[30,22],[10,5],[8,5],[13,20],[11,7]],[[3733,2529],[18,-13],[19,-9],[24,-8],[15,0],[24,15],[9,0],[12,-3],[31,-2],[13,2],[11,5],[24,13],[15,2],[15,0],[12,-2],[16,-10],[21,-3],[6,0]],[[4018,2516],[-1,-19]],[[1622,2474],[-13,15],[-3,8],[-4,29]],[[308,2546],[4,0],[29,-7],[25,-5],[20,-5],[34,-8],[14,-5],[13,-9],[30,-5],[21,-5],[21,-13],[6,3],[6,0],[6,-5],[2,-10],[10,-7],[23,-10],[9,-8]],[[886,2447],[18,15],[22,27],[6,5],[21,25],[20,27],[13,15],[14,10],[19,17],[11,12]],[[2457,2458],[-4,6]],[[2453,2464],[-4,6],[-21,19],[-8,10],[-12,40],[-4,12],[-8,7],[-21,18],[-7,9],[-12,13],[-8,10]],[[2476,2428],[-11,14],[-7,15],[-1,1]],[[3527,2415],[24,5],[18,0],[26,5],[7,3],[12,10],[26,24],[4,12],[5,10],[10,13],[11,7],[12,10],[15,7],[16,8],[11,2],[9,-2]],[[3428,2445],[26,-3],[10,0],[17,-2],[22,-22],[6,-3],[18,0]],[[581,2447],[27,-24],[6,-5],[7,-3],[47,8],[9,0],[24,-5],[17,-3]],[[850,2415],[15,15],[13,11]],[[878,2441],[8,6]],[[848,2413],[2,2]],[[827,2410],[8,0],[13,3]],[[718,2415],[39,-5],[22,0],[23,-2],[19,2],[6,0]],[[850,2415],[15,-14]],[[865,2401]],[[848,2413],[-13,-20],[-9,-7]],[[2510,2386],[-10,7],[-14,17],[-10,18]],[[111,2499],[-18,-12],[-15,-15],[-9,-17],[-8,-8],[-13,-2],[-14,-10],[-7,-7],[-12,-10],[-12,-5],[-3,0]],[[1656,2354],[-6,5],[0,7],[-7,30],[0,9],[-3,20],[-6,13],[-9,29],[-3,7]],[[4017,2497],[-2,-25],[2,-25],[4,-44],[5,-7],[27,-25],[10,-15],[11,-10],[22,-20]],[[2722,2277],[-16,8],[-45,17],[-21,10],[-12,12],[-12,8],[-24,7],[-9,5],[-29,10],[-10,5],[-21,14],[-13,13]],[[2746,2275],[-24,2]],[[2763,2275],[1,0],[23,-3],[13,5]],[[2746,2275],[17,0]],[[3237,2245],[-1,15],[-3,15],[0,15],[19,14],[20,28],[21,37],[10,9],[18,10],[18,10],[11,7],[13,15],[9,8],[30,5],[18,9],[8,3]],[[2833,2269],[-3,1],[-21,7],[-9,0]],[[2946,2243],[-14,2],[-27,18],[-24,9],[-13,0],[-14,-2],[-12,-3],[-9,2]],[[2985,2260],[-17,-15],[-12,-5],[-10,3]],[[2764,2235],[-4,18],[-9,17],[-5,5]],[[826,2386],[-1,-1]],[[825,2385],[-14,-12],[-20,-22],[-10,-12],[-17,-17],[-9,-15],[-1,-20],[-3,-12],[-6,-10],[-17,-20],[-1,-15]],[[3237,2245],[-6,-10],[-6,-14],[-12,-5],[-18,7],[-13,0],[-24,-7],[-14,-3]],[[3144,2213],[-7,0],[-14,3],[-21,7],[-22,12],[-26,18],[-18,7],[-12,5],[-33,-2],[-6,-3]],[[1724,2208],[-8,10],[-12,8],[-5,8]],[[1699,2234],[-1,1],[-12,25],[-16,22],[-5,18],[-4,4],[3,30],[-2,12],[-6,8]],[[1731,2198],[-7,10]],[[1742,2192],[-11,6]],[[1805,2166],[-8,5],[-30,13],[-24,7],[-1,1]],[[727,2230],[4,-29],[-3,-20],[0,-20],[5,-14],[4,-18]],[[737,2129],[6,-14],[26,-37]],[[276,2075],[0,42],[3,30],[5,32],[1,24],[0,37],[3,32],[-1,37],[1,20],[-3,44],[2,15],[0,15],[-5,20],[-4,12],[1,10],[3,12],[6,17],[12,37],[8,35]],[[1880,2065],[-9,8],[-14,19],[-18,13],[-9,15],[-3,7],[-3,12],[-3,15],[-7,7],[-9,5]],[[1953,1967],[-6,15],[-3,7],[-10,25],[-6,14],[-8,13],[-12,7],[-28,17]],[[260,1962],[0,5],[6,56],[3,18],[7,24],[0,10]],[[1958,1954],[-5,13]],[[626,2065],[-8,-5],[-16,-9],[-9,-8],[-10,-14]],[[583,2029],[-7,-10],[-18,-23],[-12,-10],[-19,-12],[-18,-7],[-29,-17]],[[737,2129],[-19,-14],[-22,-10],[-28,-13],[-20,-12],[-10,-7],[-12,-8]],[[769,2078],[-6,-25],[-2,-22],[-4,-25],[1,-17],[3,-17],[3,-27],[3,-20],[0,-15],[3,-12]],[[2848,1878],[-6,20],[-4,32],[-3,12],[-8,20],[-16,29],[-11,23],[-19,39],[-8,30],[-7,32],[1,10],[-3,27],[0,17],[2,34],[-2,32]],[[770,1898],[17,-32]],[[480,1950],[-24,-18],[-25,-17],[-39,-32],[-29,-20],[-13,-7],[-29,-17],[-34,-20]],[[287,1819],[-18,-15]],[[269,1804],[1,5],[0,25],[-3,64],[-6,42],[-1,22]],[[1991,1755],[3,20],[1,24],[-4,54],[-9,42],[-8,32],[-6,8],[-6,12],[-4,7]],[[787,1866],[6,-13],[12,-19],[22,-23],[14,-29],[9,-17],[16,-25]],[[899,1693],[9,3],[8,-3]],[[880,1714],[9,-21]],[[866,1740],[12,-22],[2,-4]],[[889,1693],[10,0]],[[2950,1683],[-7,22],[-6,13],[-11,24],[-7,13],[-8,20],[-9,22],[-6,22],[-24,34],[-13,13],[-11,12]],[[55,1671],[27,20],[29,22],[27,20],[31,9],[21,10],[29,18],[10,7],[14,5],[26,22]],[[1991,1646],[-8,5],[-6,15],[2,25]],[[1979,1691],[3,14],[9,50]],[[868,1639],[7,10],[6,20],[2,9],[6,15]],[[2006,1636],[-15,10]],[[916,1693],[7,-5],[3,-1]],[[926,1687],[11,-4],[13,0],[11,-2],[15,-8],[18,-7],[22,-7],[32,-15],[21,-3],[24,3],[13,-3],[9,-7],[20,-2],[56,-3],[21,3],[18,0],[3,-3]],[[2019,1629],[-13,7]],[[1919,1627],[3,2],[12,3],[12,-3],[13,0],[27,12],[5,5]],[[1907,1622],[9,2],[3,3]],[[1907,1622],[-24,7],[-14,3],[-15,-8],[-7,-2]],[[2049,1614],[-30,15]],[[861,1626],[7,13]],[[851,1607],[10,19]],[[1847,1622],[-5,0],[-21,5],[-7,0],[-12,-5],[-26,-15],[-13,-15],[-8,-2],[-9,0]],[[1233,1629],[15,-2],[36,-5],[10,0],[17,2],[28,-2],[24,-8],[11,0],[31,0],[14,0],[30,-5],[22,0],[14,0],[12,0],[31,-17],[27,-20]],[[1746,1590],[-9,0],[-7,-3],[-8,-10],[-9,-7],[-13,0],[-11,2],[-12,5]],[[3424,1570],[16,5],[9,-3]],[[1677,1577],[-12,8],[-4,0],[-21,-13],[-17,0],[-30,-7],[-12,0],[-26,7]],[[4096,1549],[-31,6],[-9,0]],[[0,1634],[16,12],[21,15],[18,10]],[[2055,1611],[-6,3]],[[2117,1535],[-28,55],[-9,7],[-25,14]],[[3449,1572],[5,-11]],[[3454,1561],[1,-3],[6,-8],[24,-15],[5,-2],[28,0],[23,5],[15,2],[33,5]],[[3589,1545],[13,0],[21,-2],[54,-5],[23,-5],[12,-5]],[[3712,1528],[18,-5],[19,5],[11,2],[39,3],[15,0],[31,7],[15,0],[12,-2],[20,-5],[15,-5]],[[2479,1530],[-9,0],[-23,-7],[-16,0],[-12,3]],[[3907,1528],[14,-7],[7,2],[29,12],[15,5],[6,3],[42,10],[19,0],[17,2]],[[2419,1526],[-15,7],[-15,12],[-17,-2],[-18,-5],[-25,-12],[-15,-3],[-8,-2],[-27,2],[-30,5],[-13,0],[-24,-10],[-12,-2],[-24,2],[-11,3],[-31,12],[-17,2]],[[2620,1508],[-36,8],[-15,5],[-25,-3],[-11,3],[-24,12],[-11,2],[-19,-5]],[[2802,1503],[-15,-2],[-9,2],[-56,15],[-24,3],[-7,0],[-23,-8],[-22,-5],[-26,0]],[[2908,1494],[-21,9],[-13,5],[-9,3],[-18,0],[-20,-3],[-12,-2],[-13,-3]],[[3006,1474],[-1,5],[1,22],[2,20],[-5,29],[-4,27],[-6,15],[-11,17],[-6,20],[-12,25],[-14,29]],[[3006,1474],[-6,7],[-9,27],[-4,0],[-28,-14],[-18,-8],[-12,-2],[-9,2],[-12,8]],[[3051,1476],[8,3],[27,0],[27,-5],[10,-3],[18,0],[36,-7]],[[3030,1461],[9,5],[12,10]],[[3030,1461],[-18,10],[-6,3]],[[3409,1563],[15,7]],[[3249,1461],[12,10],[12,10],[29,20],[18,15],[16,17],[11,12],[7,5],[9,-2],[8,-5],[12,-3],[10,8],[14,15],[2,0]],[[3177,1464],[33,-3],[21,0],[18,0]],[[3030,1461],[2,0],[-8,-19],[2,-10],[3,-10],[1,-7],[9,-32]],[[913,1368],[-6,15],[-5,19],[-3,8],[-9,17],[-3,10],[-10,17],[-2,10],[0,37],[-1,2],[-14,10],[-7,8],[-9,9],[-6,13],[0,15],[12,24],[1,25]],[[926,1306],[-1,22],[0,23],[-12,17]],[[2117,1535],[-3,-17],[2,-29],[1,-8],[21,-52],[8,-17],[10,-34],[9,-23],[12,-27],[5,-17],[21,-12],[10,-10],[6,-10]],[[3039,1383],[11,-20],[10,-25],[12,-24],[20,-40],[9,-24],[12,-28],[9,-19]],[[991,1144],[-5,9],[-10,13],[-15,7],[-2,22],[-3,8],[-7,5],[-9,2],[-2,7],[2,15],[3,18],[1,14],[-1,8],[-15,22],[-2,12]],[[1010,1089],[-9,30],[-10,25]],[[1034,1006],[-3,22],[-6,17],[-1,15],[-1,2]],[[1023,1062],[-5,13],[-5,4],[-3,10]],[[1034,1006],[-4,-5]],[[1030,1001],[-3,0],[-11,-20],[-6,-5]],[[1010,976],[-9,-7]],[[2314,956],[-6,15],[-15,62],[0,9],[1,10],[9,5],[-1,10],[-23,32],[-10,12],[-2,13],[6,20],[-25,76],[-11,25],[-12,24],[-6,10]],[[1001,969],[-13,-13]],[[3237,951],[-9,13],[-4,14],[-26,82],[-6,15],[-6,14],[-15,27],[-22,37],[-11,18],[-16,32]],[[2324,924],[-3,20],[-7,12]],[[988,956],[-9,-15],[-11,-39],[-25,-30],[-20,-27],[0,-5],[5,-27],[0,-17],[-2,-5],[-10,-30],[0,-9],[1,-13],[3,-22]],[[3237,951],[9,-7],[8,-15],[7,-7],[23,-32],[7,-10],[21,-27],[15,-18],[9,-17],[17,-29],[10,-10],[11,-15],[3,-5],[7,-15],[15,-17],[17,-25],[14,-14],[12,-20]],[[920,715],[2,-10],[3,-15],[0,-10],[-5,-15],[-10,-22]],[[920,717],[0,-2]],[[910,643],[-2,0]],[[836,636],[17,2],[12,-2]],[[865,636],[6,-3],[16,3],[21,7]],[[908,643],[8,3],[9,-3],[19,-12]],[[944,631],[11,-5],[18,-10]],[[2467,609],[0,10],[-3,9],[-9,20],[-6,20],[-8,17],[-3,17],[-1,18],[-3,12],[-12,22],[-17,20],[-10,10],[-2,12],[-6,10],[-7,10],[-9,10],[-8,2],[-28,25],[-5,12],[-1,25],[-5,34]],[[2467,594],[0,15]],[[865,636],[0,-13],[1,-7],[12,-20],[9,-5]],[[973,616],[7,-5],[10,-3]],[[990,608],[4,-2],[16,-17],[54,-22],[14,-10],[21,-22],[6,-15]],[[3466,643],[13,-12],[20,-15],[16,-17],[20,-25],[7,-15],[3,-14],[20,-35],[4,-32],[5,-12],[18,-32]],[[813,640],[1,1],[9,0],[13,-5]],[[398,416],[27,8],[25,10],[36,19],[17,8],[10,12],[9,12],[14,15],[13,8],[24,2],[12,3],[21,7],[24,5],[18,0],[11,10],[13,7],[12,3],[9,5],[13,9],[15,13],[10,10],[15,32],[11,12],[9,5],[12,2],[13,0],[22,7]],[[2482,399],[-3,17],[-2,52],[0,13],[2,14],[-2,5],[-1,20],[1,12],[-7,27],[-3,20],[0,15]],[[293,392],[9,0],[13,-3],[4,0]],[[319,389],[5,0],[32,13],[42,14]],[[262,399],[11,-2],[20,-5]],[[0,448],[1,0],[24,-2],[18,0],[29,-7],[18,-10],[13,-18],[12,-24],[18,7],[18,5],[14,8],[16,2],[21,7],[20,5],[9,-2],[21,-15],[8,-5],[2,0]],[[3592,434],[25,-35],[14,-10],[10,-7],[8,-12],[7,-20],[6,-17],[6,-10]],[[887,591],[-6,-9],[-12,-10],[-10,-13],[-6,-9],[-5,-15],[-4,-8],[-6,-2],[-9,-2]],[[829,523],[-11,-3],[-18,0],[-16,-7],[-12,-10],[-17,-30],[-3,-10],[-12,-27],[-7,-10],[-20,-12],[-14,-5],[-19,-5],[-11,-2],[-9,-8],[-7,-17],[-17,-44],[-6,-18],[-12,-29]],[[2486,286],[-3,29],[2,10],[3,13],[1,12],[-1,37],[-6,12]],[[280,378],[10,6],[3,8]],[[126,197],[3,3],[12,2],[6,5],[10,22],[9,12],[18,15],[36,13],[2,2],[6,32],[7,25],[8,12],[6,12],[6,5],[11,5],[9,13],[5,3]],[[1105,520],[10,-20],[24,-34],[5,-5],[21,-32],[24,-30],[18,-24],[11,-23],[10,-14],[14,-15],[19,-27],[3,-8],[2,-17],[4,-20],[2,-7],[-3,-17],[3,-25],[4,-17],[5,-13],[6,-9],[1,-10],[2,-18]],[[0,130],[10,8],[26,27],[7,2],[23,0],[15,3],[22,15],[14,5],[9,7]],[[2443,25],[-2,14],[2,10],[6,17],[6,10],[12,5],[9,10],[6,12],[3,15],[7,15],[5,27],[6,30],[3,12],[0,12],[-3,10],[0,20],[0,10],[-11,17],[-6,15]],[[2444,17],[-1,8]],[[2444,0],[0,17]],[[1290,135],[3,-19],[13,-20],[12,-15],[5,-7],[24,-27],[21,-22],[7,-5],[9,-3],[8,-2],[13,-15]],[[3957,0],[1,10],[9,15],[11,14],[28,32],[12,10],[14,5],[0,12],[-3,18],[1,10],[5,14],[9,18],[7,9],[6,13],[2,10],[-2,17],[-12,34],[5,13],[3,17],[7,22],[14,15],[3,10],[0,12],[4,15],[11,42],[4,5]],[[3668,323],[6,-8],[20,-9],[4,-5],[11,-13],[16,-29],[20,-25],[6,-10],[3,-15],[7,-37],[9,-37],[6,-34],[6,-22],[12,-25],[24,-39],[10,-15]],[[618,286],[6,-15],[2,-12],[7,-13],[5,-17],[10,-34],[0,-13],[-6,-19],[-6,-30],[-6,-17],[-10,-13],[-17,-14],[-4,-8],[-6,-10],[-3,-9],[-6,-13],[-8,-27],[2,-22]],[[1268,4096],[-11,-7],[-14,5],[-6,2]],[[1345,3349],[-10,-14],[-3,-30],[0,-39],[1,-32],[0,-30],[2,-30],[-2,-19],[0,-52],[-1,-27],[-6,-27],[-5,-22],[2,-32],[0,-50],[-8,-37]],[[4096,2912],[0,-2912],[-4096,0],[0,4096],[1807,0],[2289,0],[0,-1184]],[[3124,4096],[-31,-23],[-19,23],[50,0]],[[405,3567],[20,26],[24,-24],[36,45],[10,-85],[42,-42],[41,16],[29,1],[41,-31],[18,16],[68,-22],[38,29],[48,-135],[-40,69],[-94,37],[4,-49],[-28,-40],[-30,-4],[30,42],[-33,3],[8,25],[-28,23],[-39,-7],[-8,33],[-58,-32],[-41,13],[-24,30],[13,28],[-42,11],[-5,24]],[[2451,3561],[9,66],[35,3],[-13,-22],[24,-20],[57,24],[-5,-64],[-29,-3],[-4,-35],[124,4],[-61,-70],[-103,-16],[6,115],[-40,18]],[[2169,3702],[41,49],[64,1],[59,38],[14,59],[62,-8],[-14,-24],[21,-19],[-17,7],[-21,-16],[49,-36],[-50,-21],[31,-28],[-14,-36],[28,-37],[-18,-69],[29,-13],[-6,-41],[-63,17],[21,24],[-34,50],[26,5],[-14,38],[-34,-29],[-30,41],[-34,-14],[-45,33],[-8,41],[-43,-12]],[[1100,3600],[61,103],[64,-12],[17,-143],[-142,52]],[[1222,3564],[2,-3],[8,-1],[-3,6],[-7,-2]],[[0,1538],[31,10],[22,-10],[19,-155],[-53,-10],[-19,22],[0,143]],[[895,388],[7,31],[40,18],[32,-50],[-67,-41],[15,28],[-27,14]],[[2615,3304],[32,67],[-17,53],[24,9],[-21,28],[19,16],[75,-51],[24,-86],[-95,32],[-12,-65],[-27,-23],[-2,20]],[[4027,0],[-15,0],[5,7],[10,-7]],[[1755,0],[-91,0],[-47,105],[27,-23],[47,23],[51,-60],[13,-45]],[[1441,439],[-35,-6],[-16,59],[46,0],[5,-53]],[[253,386],[37,52],[51,-22],[-36,-45],[-52,15]],[[1040,1056],[31,-17],[14,-76],[-74,7],[-14,73],[9,26],[34,-13]],[[411,1168],[-43,-8],[-27,53],[73,8],[-3,-53]],[[2095,1271],[35,-27],[-31,-32],[-29,39],[25,20]],[[1505,1338],[-9,50],[-87,-15],[-51,68],[143,38],[22,-14],[24,-107],[-18,-46],[-24,26]],[[3457,1562],[-30,-15],[-25,23],[43,38],[12,-46]],[[877,1616],[-46,30],[23,60],[51,16],[23,-38],[-51,-68]],[[1936,1600],[-37,61],[42,46],[55,-23],[46,23],[19,-91],[-51,-38],[-74,22]],[[637,2032],[-24,-22],[-27,15],[-19,31],[23,34],[28,-27],[32,8],[-13,-39]],[[992,599],[-55,-8],[18,-68],[-73,45],[-47,-53],[-23,30],[23,46],[-41,91],[60,-8],[-9,54],[23,11],[18,-27],[42,4],[37,-19],[27,-98]],[[2185,2149],[-81,3],[-39,63],[23,46],[52,13],[36,-36],[-9,-46],[37,-38],[-19,-5]],[[1695,2200],[5,45],[65,-30],[-30,-32],[-40,17]],[[2814,2215],[-55,53],[32,59],[42,-51],[0,-99],[-19,38]],[[2468,2359],[-42,38],[28,69],[21,-44],[-7,-63]],[[886,2466],[-21,-65],[-48,-19],[32,91],[37,-7]],[[4096,2515],[-36,11],[-20,61],[56,34],[0,-106]],[[1677,3020],[-33,8],[-27,68],[41,-31],[19,-45]],[[1420,3114],[-34,-18],[-19,106],[83,-15],[5,-69],[-35,-4]],[[160,2655],[111,-60],[-14,-46],[-51,8],[-46,98]],[[1849,3656],[-33,16],[0,38],[60,-30],[-27,-24]],[[3697,3877],[-31,-31],[-33,46],[30,16],[34,-31]],[[1727,4096],[-4,-29],[-14,29],[18,0]],[[1901,4096],[-12,-19],[-50,-2],[6,21],[56,0]],[[1840,3807],[-15,-28],[-46,45],[50,32],[19,-9],[-8,-40]],[[1307,3995],[0,26],[-19,-45],[-64,30],[4,53],[28,-22],[31,59],[257,0],[26,-6],[-4,-46],[41,-23],[0,-38],[33,-22],[-56,6],[-32,47],[-5,-61],[-60,38],[-9,-61],[-79,0],[1,-64],[-33,-27],[-9,61],[28,30],[-42,61],[-32,-15],[-5,19]],[[1584,3551],[-18,30],[18,-23],[70,0],[-22,-37],[-43,0],[-5,30]],[[907,3396],[39,-12],[-18,-56],[-37,18],[16,50]],[[2190,3438],[28,-77],[-38,-3],[-36,34],[-14,53],[60,-7]],[[494,2581],[54,29],[-5,21],[50,7],[20,64],[42,10],[-6,-20],[29,58],[69,-62],[-12,-27],[-58,11],[1,-24],[-30,4],[14,-39],[-33,-22],[24,-59],[-17,-23],[-117,-2],[-25,74]],[[115,3436],[132,90],[86,169],[24,15],[39,-18],[20,-98],[-82,-12],[-108,-148],[-111,2]],[[0,2023],[0,28],[38,-13],[-38,-15]],[[2775,2679],[74,59],[29,-21],[-13,-36],[58,-13],[-53,-82],[-59,2],[10,47],[-46,44]],[[3545,652],[39,138],[46,8],[56,-36],[-72,-99],[-69,-11]],[[403,4096],[-9,-35],[-38,35],[47,0]]]}