{"objects":{"water":{"type":"GeometryCollection","geometries":[{"type":"Polygon","properties":{"kind":"lake","name":"Lake Eyasi","area":1083660416,"sort_rank":200,"alkaline":true,"source":"naturalearthdata.com","min_zoom":0.0,"id":1326},"arcs":[[338]]},{"type":"Polygon","properties":{"source":"naturalearthdata.com","kind":"lake","name":"Lake Malawi","area":30335514624,"sort_rank":200,"min_zoom":0.0,"id":477},"arcs":[[339]]},{"type":"MultiPolygon","properties":{"source":"naturalearthdata.com","kind":"lake","name":"Lake Victoria","area":67519668224,"sort_rank":200,"min_zoom":0.0,"id":479},"arcs":[[[340],[341],[342]],[[343]]]},{"type":"Polygon","properties":{"source":"naturalearthdata.com","kind":"lake","name":"Lake Lembeni","area":173280688,"sort_rank":200,"min_zoom":0.0,"id":645},"arcs":[[344]]},{"type":"Polygon","properties":{"kind":"lake","name":"Lake Natron","area":558548032,"sort_rank":200,"alkaline":true,"source":"naturalearthdata.com","min_zoom":0.0,"id":1327},"arcs":[[345]]},{"type":"Polygon","properties":{"source":"naturalearthdata.com","kind":"lake","name":"Masinga Res.","area":203812256,"sort_rank":200,"min_zoom":0.0,"id":718},"arcs":[[346]]},{"type":"Polygon","properties":{"source":"naturalearthdata.com","kind":"lake","name":"Lake Manyara","area":447130784,"sort_rank":200,"min_zoom":0.0,"id":562},"arcs":[[347]]},{"type":"Polygon","properties":{"source":"naturalearthdata.com","kind":"ocean","area":1576712559132672,"sort_rank":200,"min_zoom":0.0,"id":1},"arcs":[[348],[349],[350],[351],[352],[353],[354],[355],[356],[357]]},{"type":"Point","properties":{"label_placement":true,"kind":"lake","name":"Lake Eyasi","area":1083660416,"sort_rank":200,"alkaline":true,"source":"naturalearthdata.com","min_zoom":0.0,"id":1326},"coordinates":[502,2785]},{"type":"Point","properties":{"label_placement":true,"kind":"lake","name":"Lake Natron","area":558548032,"sort_rank":200,"alkaline":true,"source":"naturalearthdata.com","min_zoom":0.0,"id":1327},"coordinates":[833,3236]},{"type":"Point","properties":{"label_placement":true,"kind":"lake","name":"Lake Manyara","area":447130784,"sort_rank":200,"source":"naturalearthdata.com","min_zoom":0.0,"id":562},"coordinates":[748,2781]},{"type":"Point","properties":{"label_placement":true,"kind":"lake","name":"Masinga Res.","area":203812256,"sort_rank":200,"source":"naturalearthdata.com","min_zoom":0.0,"id":718},"coordinates":[1322,3787]},{"type":"Point","properties":{"label_placement":true,"kind":"lake","name":"Lake Lembeni","area":173280688,"sort_rank":200,"source":"naturalearthdata.com","min_zoom":0.0,"id":645},"coordinates":[1333,2744]},{"type":"LineString","properties":{"source":"naturalearthdata.com","kind":"ocean","sort_rank":205,"boundary":true,"min_zoom":0.0,"id":45},"arcs":[358]},{"type":"LineString","properties":{"source":"naturalearthdata.com","kind":"ocean","sort_rank":205,"boundary":true,"min_zoom":0.0,"id":46},"arcs":[359]},{"type":"LineString","properties":{"source":"naturalearthdata.com","kind":"lake","sort_rank":367,"boundary":true,"min_zoom":0.0,"id":477},"arcs":[360]},{"type":"MultiLineString","properties":{"source":"naturalearthdata.com","kind":"lake","sort_rank":367,"boundary":true,"min_zoom":0.0,"id":479},"arcs":[[361],[362],[363],[364],[365]]},{"type":"LineString","properties":{"source":"naturalearthdata.com","kind":"lake","sort_rank":367,"boundary":true,"min_zoom":0.0,"id":562},"arcs":[366]},{"type":"LineString","properties":{"source":"naturalearthdata.com","kind":"lake","sort_rank":367,"boundary":true,"min_zoom":0.0,"id":645},"arcs":[367]},{"type":"LineString","properties":{"source":"naturalearthdata.com","kind":"lake","sort_rank":367,"boundary":true,"min_zoom":0.0,"id":687},"arcs":[368]},{"type":"LineString","properties":{"source":"naturalearthdata.com","kind":"lake","sort_rank":367,"boundary":true,"min_zoom":0.0,"id":717},"arcs":[369]},{"type":"LineString","properties":{"source":"naturalearthdata.com","kind":"lake","sort_rank":367,"boundary":true,"min_zoom":0.0,"id":718},"arcs":[370]},{"type":"LineString","properties":{"source":"naturalearthdata.com","kind":"lake","sort_rank":367,"alkaline":true,"boundary":true,"min_zoom":0.0,"id":1326},"arcs":[371]},{"type":"LineString","properties":{"source":"naturalearthdata.com","kind":"lake","sort_rank":367,"alkaline":true,"boundary":true,"min_zoom":0.0,"id":1327},"arcs":[372]},{"type":"LineString","properties":{"source":"naturalearthdata.com","kind":"ocean","sort_rank":205,"boundary":true,"min_zoom":0.0,"id":1363},"arcs":[373]},{"type":"LineString","properties":{"source":"naturalearthdata.com","kind":"ocean","sort_rank":205,"boundary":true,"min_zoom":0.0,"id":1377},"arcs":[374]},{"type":"LineString","properties":{"source":"naturalearthdata.com","kind":"ocean","sort_rank":205,"boundary":true,"min_zoom":0.0,"id":1378},"arcs":[375]},{"type":"LineString","properties":{"source":"naturalearthdata.com","kind":"ocean","sort_rank":205,"boundary":true,"min_zoom":0.0,"id":1379},"arcs":[376]},{"type":"LineString","properties":{"source":"naturalearthdata.com","kind":"ocean","sort_rank":205,"boundary":true,"min_zoom":0.0,"id":3930},"arcs":[377]},{"type":"LineString","properties":{"source":"naturalearthdata.com","kind":"ocean","sort_rank":205,"boundary":true,"min_zoom":0.0,"id":3931},"arcs":[378]},{"type":"LineString","properties":{"source":"naturalearthdata.com","kind":"ocean","sort_rank":205,"boundary":true,"min_zoom":0.0,"id":3932},"arcs":[379]}]},"buildings":{"type":"GeometryCollection","geometries":[]},"places":{"type":"GeometryCollection","geometries":[{"type":"Point","properties":{"name:pt":"Tanz\u00e2nia","name:ps":"\u062a\u0646\u0632\u0627\u0646\u06cc\u0627","name:ka":"\u10e2\u10d0\u10dc\u10d6\u10d0\u10dc\u10d8\u10d0","name:mt":"Tan\u017canija","name:tr":"Tanzanya","name:cv":"\u0422\u0430\u043d\u0437\u0430\u043d\u0438","name:km":"\u178f\u1784\u17cb\u17a0\u17d2\u179f\u17b6\u1793\u17b8","name:cs":"Tanzanie","name:tt":"\u0422\u0430\u043d\u0437\u0430\u043d\u0438\u044f","name:tk":"Tanzani\u00fda","name:ku":"Tanzanya","name:ti":"\u1273\u1295\u12db\u1292\u12eb","name:ks":"\u062a\u064e\u0646\u062c\u0627\u0646\u0650\u06cc\u0627","name:to":"Tenisania","name:pa":"\u0a24\u0a28\u0a1c\u0a3c\u0a3e\u0a28\u0a40\u0a06","name:os":"\u0422\u0430\u043d\u0437\u0430\u043d\u0438","name:or":"\u0b24\u0b3e\u0b1e\u0b4d\u0b1c\u0b3e\u0b28\u0b3f\u0b06","name:ce":"\u0422\u0430\u043d\u0437\u0430\u043d\u0438","name:ta":"\u0b9f\u0bbe\u0ba9\u0bcd\u0b9a\u0bbe\u0ba9\u0bbf\u0baf\u0bbe","name:tg":"\u0422\u0430\u043d\u0437\u0430\u043d\u0438\u044f","name:ca":"Tanz\u00e0nia","name:te":"\u0c1f\u0c3e\u0c02\u0c1c\u0c3e\u0c28\u0c3f\u0c2f\u0c3e","name:cy":"Tanzan\u00efa","source":"openstreetmap.org","name:ln":"Tanzani","name:de":"Tansania","name:dz":"\u0f4a\u0f71\u0f53\u0f0b\u0f5b\u0f71\u0f0b\u0f53\u0f72\u0f0b\u0f61","name:ko":"\ud0c4\uc790\ub2c8\uc544","name:nv":"T\u02bcanzan\u00ed\u00edya","name:kn":"\u0c9f\u0cbe\u0c82\u0c9c\u0cbe\u0ca8\u0cbf\u0caf\u0cbe","name:dv":"\u0793\u07ac\u0782\u07b0\u0792\u07ad\u0782\u07a8\u0787\u07a7","name:lv":"Tanz\u0101nija","name:lt":"Tanzanija","name:uz":"Tanzaniya","name:kk":"\u0422\u0430\u043d\u0437\u0430\u043d\u0438\u044f","name:he":"\u05d8\u05e0\u05d6\u05e0\u05d9\u05d4","min_zoom":2.0,"kind":"country","name:ur":"\u062a\u0646\u0632\u0627\u0646\u06cc\u06c1","name:lb":"Tansania","name:lg":"Tanzaniya","name:uk":"\u0422\u0430\u043d\u0437\u0430\u043d\u0456\u044f","name:hy":"\u054f\u0561\u0576\u0566\u0561\u0576\u056b\u0561","name:ug":"\u062a\u0627\u0646\u0632\u0627\u0646\u0649\u064a\u06d5","name:hu":"Tanz\u00e1nia","name:hr":"Tanzanija","name:lo":"\u0e97\u0eb2\u0e99\u0e8a\u0eb2\u0ec0\u0e99\u0e8d","population":41048532,"name:el":"\u03a4\u03b1\u03bd\u03b6\u03b1\u03bd\u03af\u03b1","name:eo":"Tanzanio","name":"Tanzania","name:ee":"Tanzania nutome","name:th":"\u0e1b\u0e23\u0e30\u0e40\u0e17\u0e28\u0e41\u0e17\u0e19\u0e0b\u0e32\u0e40\u0e19\u0e35\u0e22","name:yi":"\u05d8\u05d0\u05e0\u05d6\u05d0\u05e0\u05d9\u05e2","name:et":"Tansaania","name:yo":"Or\u00edl\u1eb9\u0301\u00e8de Tan\u1e63ania","name:rm":"Tansania","name:rn":"Tanzaniya","name:az":"tanzaniya","name:mr":"\u091f\u093e\u0902\u091d\u093e\u0928\u093f\u092f\u093e","name:qu":"Tansanya","name:ar":"\u062a\u0646\u0640\u0632\u0627\u0646\u064a","name:my":"\u1010\u1014\u103a\u1007\u1014\u103a\u1014\u102e\u1038\u101a\u102c\u1038","official_name":"Den forente republikken Tanzania","name:is":"Tansan\u00eda","name:am":"\u1273\u1295\u12db\u1292\u12eb","name:ml":"\u0d1f\u0d3e\u0d7b\u0d38\u0d3e\u0d28\u0d3f\u0d2f","name:ru":"\u0422\u0430\u043d\u0437\u0430\u043d\u0438\u044f","name:rw":"Tanzaniya","name:mi":"T\u0101nahia","id":424314335,"name:mk":"\u0422\u0430\u043d\u0437\u0430\u043d\u0438\u0458\u0430","name:af":"Tanzani\u00eb","name:zu":"i-Tanzania","name:ha":"Tanzaniya","name:mn":"\u0422\u0430\u043d\u0437\u0430\u043d\u0438","name:ff":"Tansanii","name:fi":"Tansania","name:hi":"\u0924\u0902\u091c\u093e\u093c\u0928\u093f\u092f\u093e","name:fo":"Tansania","name:fr":"Tanzanie","name:wo":"Tansani","name:zh-yue":"\u5766\u6851\u5c3c\u4e9e","name:vo":"Tansan\u00e4n","name:zh":"\u5766\u6851\u5c3c\u4e9a","name:so":"Tansaaniya","name:sr":"\u0422\u0430\u043d\u0437\u0430\u043d\u0438\u0458\u0430","name:sl":"Tanzanija","name:sk":"Tanz\u00e1nia","name:ja":"\u30bf\u30f3\u30b6\u30cb\u30a2","name:si":"\u0da7\u0dd0\u0db1\u0dca\u0dc3\u0dcf\u0db1\u0dd2\u0dba\u0dcf\u0dc0","name:sh":"Tanzanija","name:sg":"Tanzan\u00efi","name:se":"Tanz\u00e1nia","name:sc":"Tanz\u00e0nia","name:ne":"\u0924\u093e\u0928\u094d\u091c\u093e\u0928\u093f\u092f\u093e","name:sa":"\u091f\u0902\u091c\u093e\u0928\u093f\u092f\u093e","name:bs":"Tanzanija","name:bm":"Tanzani","name:bn":"\u09a4\u09be\u099e\u09cd\u099c\u09be\u09a8\u09bf\u09af\u09bc\u09be","name:bo":"\u0f4f\u0f53\u0f0b\u0f5b\u0f0b\u0f53\u0f72\u0f0b\u0f61\u0f0d","name:be":"\u0422\u0430\u043d\u0437\u0430\u043d\u0456\u044f","name:bg":"\u0422\u0430\u043d\u0437\u0430\u043d\u0438\u044f","name:ss":"IThanzaniya","name:ba":"\u0422\u0430\u043d\u0437\u0430\u043d\u0438\u044f","name:sq":"Tanzani","name:ga":"An Tans\u00e1in","name:gd":"Tansain\u00eca","name:ht":"Tanzani","name:fa":"\u062a\u0627\u0646\u0632\u0627\u0646\u06cc\u0627","name:gu":"\u0aa4\u0abe\u0a82\u0a9d\u0abe\u0aa8\u0abf\u0aaf\u0abe"},"coordinates":[742,1705]},{"type":"Point","properties":{"source":"naturalearthdata.com","kind":"locality","name":"Nairobi","country_capital":true,"population":3010000,"min_zoom":2.0,"id":7275},"coordinates":[1116,3626]},{"type":"Point","properties":{"admin_level":"3","kind":"region","name":"Central","kind_detail":"state","name:de":"Zentral","source":"openstreetmap.org","min_zoom":4.0,"id":1938467967,"population":4150000},"coordinates":[1127,3909]},{"type":"Point","properties":{"source":"naturalearthdata.com","kind":"locality","name":"Dar es Salaam","country_capital":true,"population":2930000,"min_zoom":4.0,"id":7145},"coordinates":[2008,1605]},{"type":"Point","properties":{"admin_level":"4","kind":"region","name":"Ruvuma","kind_detail":"state","source":"openstreetmap.org","min_zoom":4.0,"name:uk":"\u0420\u0443\u0432\u0443\u043c\u0430","name:ru":"\u0420\u0443\u0432\u0443\u043c\u0430","id":4353389721},"coordinates":[696,157]},{"type":"Point","properties":{"admin_level":"4","kind":"region","name":"Njombe","kind_detail":"state","source":"openstreetmap.org","min_zoom":4.0,"name:uk":"\u041d\u0434\u0436\u043e\u043c\u0431\u0435","name:ru":"\u041d\u0434\u0436\u043e\u043c\u0431\u0435","id":4353385643},"coordinates":[248,754]},{"type":"Point","properties":{"admin_level":"4","kind":"region","name":"Mtwara","kind_detail":"state","source":"openstreetmap.org","min_zoom":4.0,"name:uk":"\u041c\u0442\u0432\u0430\u0440\u0430","name:ru":"\u041c\u0442\u0432\u0430\u0440\u0430","id":4353385043},"coordinates":[1919,176]},{"type":"Point","properties":{"admin_level":"4","kind":"region","name":"Lindi","kind_detail":"state","source":"openstreetmap.org","min_zoom":4.0,"name:uk":"\u041b\u0456\u043d\u0434\u0456","name:ru":"\u041b\u0438\u043d\u0434\u0438","id":4353380403},"coordinates":[1511,652]},{"type":"Point","properties":{"admin_level":"4","kind":"region","name":"Iringa","kind_detail":"state","source":"openstreetmap.org","min_zoom":4.0,"name:uk":"\u0406\u0440\u0456\u043d\u0491\u0430","name:ru":"\u0418\u0440\u0438\u043d\u0433\u0430","id":4353377217},"coordinates":[631,1247]},{"type":"Point","properties":{"admin_level":"4","kind":"region","name":"Dodoma","kind_detail":"state","source":"openstreetmap.org","min_zoom":4.0,"name:uk":"\u0414\u043e\u0434\u043e\u043c\u0430","name:ru":"\u0414\u043e\u0434\u043e\u043c\u0430","id":4353376449},"coordinates":[755,1894]},{"type":"Point","properties":{"admin_level":"4","kind":"region","name":"Morogoro","kind_detail":"state","source":"openstreetmap.org","min_zoom":4.0,"name:uk":"\u041c\u043e\u0440\u043e\u0491\u043e\u0440\u043e","name:ru":"\u041c\u043e\u0440\u043e\u0433\u043e\u0440\u043e","id":4353382085},"coordinates":[1337,1500]},{"type":"Point","properties":{"admin_level":"4","kind":"region","name":"Pwani","kind_detail":"state","source":"openstreetmap.org","min_zoom":4.0,"name:uk":"\u041f\u0432\u0430\u043d\u0456","name:ru":"\u041f\u0432\u0430\u043d\u0438","id":4353387710},"coordinates":[1813,1489]},{"type":"Point","properties":{"admin_level":"4","kind":"region","name:en":"Zanzibar Urban\/West","name":"Unguja Mjini Magharibi","kind_detail":"state","source":"openstreetmap.org","min_zoom":4.0,"name:uk":"\u0417\u0430\u043d\u0437\u0456\u0431\u0430\u0440 \u0417\u0430\u0445\u0456\u0434\u043d\u0438\u0439","name:ru":"\u0417\u0430\u043d\u0437\u0438\u0431\u0430\u0440 \u0417\u0430\u043f\u0430\u0434\u043d\u044b\u0439","name:pl":"Zanzibar Zachodni","id":4353396211},"coordinates":[1998,1837]},{"type":"Point","properties":{"admin_level":"4","kind":"region","name:en":"Zanzibar South & Central","name":"Unguja Kusini","kind_detail":"state","source":"openstreetmap.org","min_zoom":4.0,"name:uk":"\u0417\u0430\u043d\u0437\u0456\u0431\u0430\u0440 \u0426\u0435\u043d\u0442\u0440\u0430\u043b\u044c\u043d\u043e-\u041f\u0456\u0432\u0434\u0435\u043d\u043d\u0438\u0439","name:ru":"\u0417\u0430\u043d\u0437\u0438\u0431\u0430\u0440 \u0426\u0435\u043d\u0442\u0440\u0430\u043b\u044c\u043d\u043e-\u042e\u0436\u043d\u044b\u0439","name:pl":"Zanzibar Po\u0142udniowy","id":4353393977},"coordinates":[2042,1821]},{"type":"Point","properties":{"admin_level":"4","kind":"region","name:en":"Zanzibar North","name":"Unguja Kaskazini","kind_detail":"state","source":"openstreetmap.org","min_zoom":4.0,"name:uk":"\u0417\u0430\u043d\u0437\u0456\u0431\u0430\u0440 \u041f\u0456\u0432\u043d\u0456\u0447\u043d\u0438\u0439","name:ru":"\u0417\u0430\u043d\u0437\u0438\u0431\u0430\u0440 \u0421\u0435\u0432\u0435\u0440\u043d\u044b\u0439","name:pl":"Zanzibar P\u00f3\u0142nocny","id":4353384094},"coordinates":[2015,1921]},{"type":"Point","properties":{"admin_level":"4","kind":"region","name":"Tanga","kind_detail":"state","source":"openstreetmap.org","min_zoom":4.0,"name:uk":"\u0422\u0430\u043d\u0433\u0430","name:ru":"\u0422\u0430\u043d\u0433\u0430","id":4353392143},"coordinates":[1630,2190]},{"type":"Point","properties":{"admin_level":"4","kind":"region","name:en":"South Pemba","name":"Kusini Pemba","kind_detail":"state","name:de":"S\u00fcd-Pemba","source":"openstreetmap.org","min_zoom":4.0,"name:uk":"\u041f\u0435\u043c\u0431\u0430 \u041f\u0456\u0432\u0434\u0435\u043d\u043d\u0430","name:ru":"\u041f\u0435\u043c\u0431\u0430 \u042e\u0436\u043d\u0430\u044f","name:pl":"Pemba Po\u0142udniowa","id":4353386484},"coordinates":[2171,2159]},{"type":"Point","properties":{"admin_level":"4","kind":"region","name:en":"North Pemba","name":"Kaskazini Pemba","kind_detail":"state","name:de":"Nord-Pemba","source":"openstreetmap.org","min_zoom":4.0,"name:uk":"\u041f\u0435\u043c\u0431\u0430 \u041f\u0456\u0432\u043d\u0456\u0447\u043d\u0430","name:ru":"\u041f\u0435\u043c\u0431\u0430 \u0421\u0435\u0432\u0435\u0440\u043d\u0430\u044f","name:pl":"Pemba P\u00f3\u0142nocna","id":4353386537},"coordinates":[2178,2258]},{"type":"Point","properties":{"admin_level":"4","kind":"region","name":"Manyara","kind_detail":"state","source":"openstreetmap.org","min_zoom":4.0,"name:uk":"\u041c\u0430\u043d\u044c\u044f\u0440\u0430","name:ru":"\u041c\u0430\u043d\u044c\u044f\u0440\u0430","id":4353381406},"coordinates":[765,2604]},{"type":"Point","properties":{"admin_level":"4","kind":"region","name":"Singida","kind_detail":"state","source":"openstreetmap.org","min_zoom":4.0,"name:uk":"\u0421\u0456\u043d\u0491\u0456\u0434\u0430","name:ru":"\u0421\u0438\u043d\u0433\u0438\u0434\u0430","id":4353390174},"coordinates":[323,2158]},{"type":"Point","properties":{"admin_level":"4","kind":"region","name":"Kilimanjaro","kind_detail":"state","source":"openstreetmap.org","min_zoom":4.0,"name:uk":"\u041a\u0456\u043b\u0456\u043c\u0430\u043d\u0434\u0436\u0430\u0440\u043e","name:ru":"\u041a\u0438\u043b\u0438\u043c\u0430\u043d\u0434\u0436\u0430\u0440\u043e","name:pl":"Kilimand\u017caro","id":4353379672},"coordinates":[1324,2822]},{"type":"Point","properties":{"admin_level":"4","kind":"region","name":"Mara","kind_detail":"state","source":"openstreetmap.org","min_zoom":4.0,"name:uk":"\u041c\u0430\u0440\u0430","name:ru":"\u041c\u0430\u0440\u0430","id":4353381622},"coordinates":[34,3495]},{"type":"Point","properties":{"admin_level":"4","kind":"region","name":"Arusha","kind_detail":"state","source":"openstreetmap.org","min_zoom":4.0,"name:uk":"\u0410\u0440\u0443\u0448\u0430","name:ru":"\u0410\u0440\u0443\u0448\u0430","name:pl":"Arusza","id":4353375319},"coordinates":[703,3100]},{"type":"Point","properties":{"source":"naturalearthdata.com","kind":"locality","name":"Mombasa","population":882000,"region_capital":true,"min_zoom":5.0,"id":6934},"coordinates":[2162,2616]},{"type":"Point","properties":{"source":"naturalearthdata.com","kind":"locality","name":"Zanzibar","population":403658,"region_capital":true,"min_zoom":5.0,"id":6916},"coordinates":[1984,1839]},{"type":"Point","properties":{"source":"naturalearthdata.com","kind":"locality","name":"Arusha","population":341136,"region_capital":true,"min_zoom":5.0,"id":6447},"coordinates":[1063,2865]},{"type":"Point","properties":{"source":"naturalearthdata.com","kind":"locality","name":"Morogoro","population":250902,"region_capital":true,"min_zoom":5.0,"id":6445},"coordinates":[1424,1597]},{"type":"Point","properties":{"source":"naturalearthdata.com","kind":"locality","name":"Dodoma","country_capital":true,"population":218269,"min_zoom":5.0,"id":6446},"coordinates":[728,1830]}]},"transit":{"type":"GeometryCollection","geometries":[]},"pois":{"type":"GeometryCollection","geometries":[{"type":"Point","properties":{"kind":"nature_reserve","name":"Serengeti National Park","area":13257800000,"min_zoom":5.44,"name:de":"Serengeti-Nationalpark","source":"openstreetmap.org","name:fr":"Parc national du Serengeti","name:it":"Serenge\u010dio nacionalinis parkas","name:uk":"\u041d\u0430\u0446\u0456\u043e\u043d\u0430\u043b\u044c\u043d\u0438\u0439 \u043f\u0430\u0440\u043a \u0421\u0435\u0440\u0435\u043d\u0433\u0435\u0442\u0456","name:ru":"\u0421\u0435\u0440\u0435\u043d\u0433\u0435\u0442\u0438","tier":2,"name:et":"Serengeti rahvuspark","name:pl":"Park Narodowy Serengeti","id":-4475047,"osm_relation":true},"coordinates":[345,3225]},{"type":"Point","properties":{"kind":"nature_reserve","name":"Selous Game Reserve","area":48720000000,"name:da":"Selous vildtreservat","min_zoom":4.5,"source":"openstreetmap.org","name:fr":"R\u00e9serve de gibier de S\u00e9lous","name:it":"Riserva del Selous","tier":2,"name:es":"Reserva de caza Selous","id":-2961785,"osm_relation":true},"coordinates":[1497,852]},{"type":"Point","properties":{"kind":"national_park","tier":1,"protect_class":"2","area":2900980000,"source":"openstreetmap.org","min_zoom":5.04,"operator":"Tanzania National Parks (TANAPA)","id":39247847,"name":"Tarangire National Park"},"coordinates":[850,2585]},{"type":"Point","properties":{"kind":"nature_reserve","tier":2,"protect_class":"VI","area":8411840000,"source":"openstreetmap.org","min_zoom":5.77,"operator":"Ngorongoro Conservation Area Authority; Tanzania National Parks (TANAPA)","id":43196616,"name":"Ngorongoro Conservation Area (NCA)"},"coordinates":[608,2973]},{"type":"Point","properties":{"kind":"nature_reserve","name":"Ruaha National Park","area":20633400000,"min_zoom":5.12,"name:de":"Ruaha-Nationalpark","source":"openstreetmap.org","name:fr":"Parc national de Ruaha","tier":2,"id":362940538},"coordinates":[227,1237]}]},"boundaries":{"type":"GeometryCollection","geometries":[{"type":"MultiLineString","properties":{"source":"naturalearthdata.com","kind":"disputed","sort_rank":261,"kind_detail":"2","min_zoom":0.0,"id":33},"arcs":[[0],[1],[2],[3]]},{"type":"LineString","properties":{"source":"naturalearthdata.com","kind":"country","sort_rank":262,"kind_detail":"2","min_zoom":0.0,"id":415},"arcs":[4]},{"type":"MultiLineString","properties":{"source":"naturalearthdata.com","kind":"country","sort_rank":262,"kind_detail":"2","min_zoom":0.0,"id":361},"arcs":[[5],[6],[7],[8]]},{"type":"LineString","properties":{"source":"naturalearthdata.com","kind":"country","sort_rank":262,"kind_detail":"2","min_zoom":0.0,"id":362},"arcs":[9]},{"type":"MultiLineString","properties":{"source":"naturalearthdata.com","kind":"country","sort_rank":262,"kind_detail":"2","min_zoom":0.0,"id":296},"arcs":[[10],[11],[12],[13],[14]]},{"type":"LineString","properties":{"source":"naturalearthdata.com","kind":"country","sort_rank":262,"kind_detail":"2","min_zoom":0.0,"id":360},"arcs":[15]},{"type":"LineString","properties":{"source":"naturalearthdata.com","kind":"country","sort_rank":262,"kind_detail":"2","min_zoom":0.0,"id":394},"arcs":[16]},{"type":"LineString","properties":{"source":"naturalearthdata.com","kind":"region","sort_rank":256,"kind_detail":"4","min_zoom":5.0,"id":3407},"arcs":[17]},{"type":"MultiLineString","properties":{"source":"naturalearthdata.com","kind":"region","sort_rank":256,"kind_detail":"4","min_zoom":5.0,"id":3410},"arcs":[[18],[19],[20]]},{"type":"MultiLineString","properties":{"source":"naturalearthdata.com","kind":"region","sort_rank":256,"kind_detail":"4","min_zoom":5.0,"id":3415},"arcs":[[21],[22],[23]]},{"type":"LineString","properties":{"source":"naturalearthdata.com","kind":"region","sort_rank":256,"kind_detail":"4","min_zoom":5.5,"id":6192},"arcs":[24]},{"type":"MultiLineString","properties":{"source":"naturalearthdata.com","kind":"region","sort_rank":256,"kind_detail":"4","min_zoom":5.5,"id":6206},"arcs":[[25],[26],[27],[28],[29],[30],[31],[32],[33],[34]]},{"type":"LineString","properties":{"source":"naturalearthdata.com","kind":"region","sort_rank":256,"kind_detail":"4","min_zoom":5.5,"id":6211},"arcs":[35]},{"type":"LineString","properties":{"source":"naturalearthdata.com","kind":"region","sort_rank":256,"kind_detail":"4","min_zoom":5.5,"id":6223},"arcs":[36]},{"type":"LineString","properties":{"source":"naturalearthdata.com","kind":"region","sort_rank":256,"kind_detail":"4","min_zoom":5.5,"id":389},"arcs":[37]},{"type":"LineString","properties":{"source":"naturalearthdata.com","kind":"region","sort_rank":256,"kind_detail":"4","min_zoom":5.5,"id":390},"arcs":[38]},{"type":"LineString","properties":{"source":"naturalearthdata.com","kind":"region","sort_rank":256,"kind_detail":"4","min_zoom":5.5,"id":391},"arcs":[39]},{"type":"MultiLineString","properties":{"source":"naturalearthdata.com","kind":"region","sort_rank":256,"kind_detail":"4","min_zoom":5.5,"id":1479},"arcs":[[40],[41],[42]]},{"type":"LineString","properties":{"source":"naturalearthdata.com","kind":"region","sort_rank":256,"kind_detail":"4","min_zoom":5.5,"id":1478},"arcs":[43]},{"type":"LineString","properties":{"source":"naturalearthdata.com","kind":"region","sort_rank":256,"kind_detail":"4","min_zoom":5.5,"id":1480},"arcs":[44]},{"type":"LineString","properties":{"source":"naturalearthdata.com","kind":"region","sort_rank":256,"kind_detail":"4","min_zoom":5.5,"id":1481},"arcs":[45]},{"type":"MultiLineString","properties":{"source":"naturalearthdata.com","kind":"region","sort_rank":256,"kind_detail":"4","min_zoom":5.5,"id":1482},"arcs":[[46],[47],[48],[49],[50],[51],[52],[53]]},{"type":"MultiLineString","properties":{"source":"naturalearthdata.com","kind":"region","sort_rank":256,"kind_detail":"4","min_zoom":5.0,"id":3404},"arcs":[[54],[55],[56],[57]]},{"type":"MultiLineString","properties":{"source":"naturalearthdata.com","kind":"region","sort_rank":256,"kind_detail":"4","min_zoom":5.0,"id":3405},"arcs":[[58],[59],[60],[61],[62],[63],[64],[65],[66]]},{"type":"MultiLineString","properties":{"source":"naturalearthdata.com","kind":"region","sort_rank":256,"kind_detail":"4","min_zoom":5.0,"id":3406},"arcs":[[67],[68],[69],[70],[71],[72]]},{"type":"MultiLineString","properties":{"source":"naturalearthdata.com","kind":"region","sort_rank":256,"kind_detail":"4","min_zoom":5.0,"id":3408},"arcs":[[73],[74],[75],[76],[77]]},{"type":"MultiLineString","properties":{"source":"naturalearthdata.com","kind":"region","sort_rank":256,"kind_detail":"4","min_zoom":5.0,"id":3411},"arcs":[[78],[79],[80],[81],[82],[83],[84],[85],[86],[87],[88],[89],[90],[91],[92]]},{"type":"LineString","properties":{"source":"naturalearthdata.com","kind":"region","sort_rank":256,"kind_detail":"4","min_zoom":5.0,"id":3412},"arcs":[93]},{"type":"MultiLineString","properties":{"source":"naturalearthdata.com","kind":"region","sort_rank":256,"kind_detail":"4","min_zoom":5.0,"id":3413},"arcs":[[94],[95],[96],[97],[98],[99],[100],[101],[102],[103],[104],[105],[106],[107],[108],[109],[110],[111],[112],[113],[114],[115],[116],[117],[118],[119],[120]]},{"type":"MultiLineString","properties":{"source":"naturalearthdata.com","kind":"region","sort_rank":256,"kind_detail":"4","min_zoom":5.0,"id":3414},"arcs":[[121],[122],[123],[124],[125],[126],[127],[128],[129],[130]]},{"type":"MultiLineString","properties":{"source":"naturalearthdata.com","kind":"region","sort_rank":256,"kind_detail":"4","min_zoom":5.0,"id":3416},"arcs":[[131],[132],[133],[134],[135],[136],[137]]},{"type":"MultiLineString","properties":{"source":"naturalearthdata.com","kind":"region","sort_rank":256,"kind_detail":"4","min_zoom":5.0,"id":3417},"arcs":[[138],[139],[140],[141],[142],[143],[144],[145],[146],[147],[148],[149],[150],[151],[152],[153]]},{"type":"LineString","properties":{"source":"naturalearthdata.com","kind":"region","sort_rank":256,"kind_detail":"4","min_zoom":5.5,"id":6184},"arcs":[154]},{"type":"MultiLineString","properties":{"source":"naturalearthdata.com","kind":"region","sort_rank":256,"kind_detail":"4","min_zoom":5.5,"id":6185},"arcs":[[155],[156],[157]]},{"type":"LineString","properties":{"source":"naturalearthdata.com","kind":"region","sort_rank":256,"kind_detail":"4","min_zoom":5.5,"id":6186},"arcs":[158]},{"type":"MultiLineString","properties":{"source":"naturalearthdata.com","kind":"region","sort_rank":256,"kind_detail":"4","min_zoom":5.5,"id":6187},"arcs":[[159],[160],[161],[162],[163],[164],[165],[166],[167],[168],[169],[170],[171]]},{"type":"MultiLineString","properties":{"source":"naturalearthdata.com","kind":"region","sort_rank":256,"kind_detail":"4","min_zoom":5.5,"id":6188},"arcs":[[172],[173],[174],[175],[176],[177],[178],[179],[180],[181],[182],[183],[184]]},{"type":"MultiLineString","properties":{"source":"naturalearthdata.com","kind":"region","sort_rank":256,"kind_detail":"4","min_zoom":5.5,"id":6189},"arcs":[[185],[186],[187],[188],[189]]},{"type":"MultiLineString","properties":{"source":"naturalearthdata.com","kind":"region","sort_rank":256,"kind_detail":"4","min_zoom":5.5,"id":6203},"arcs":[[190],[191],[192],[193],[194]]},{"type":"MultiLineString","properties":{"source":"naturalearthdata.com","kind":"region","sort_rank":256,"kind_detail":"4","min_zoom":5.5,"id":6195},"arcs":[[195],[196],[197],[198],[199],[200],[201],[202],[203],[204],[205],[206],[207]]},{"type":"MultiLineString","properties":{"source":"naturalearthdata.com","kind":"region","sort_rank":256,"kind_detail":"4","min_zoom":5.5,"id":6196},"arcs":[[208],[209]]},{"type":"MultiLineString","properties":{"source":"naturalearthdata.com","kind":"region","sort_rank":256,"kind_detail":"4","min_zoom":5.5,"id":6197},"arcs":[[210],[211],[212],[213],[214],[215],[216],[217],[218],[219],[220]]},{"type":"MultiLineString","properties":{"source":"naturalearthdata.com","kind":"region","sort_rank":256,"kind_detail":"4","min_zoom":5.5,"id":6198},"arcs":[[221],[222],[223],[224]]},{"type":"MultiLineString","properties":{"source":"naturalearthdata.com","kind":"region","sort_rank":256,"kind_detail":"4","min_zoom":5.5,"id":6199},"arcs":[[225],[226],[227],[228],[229]]},{"type":"MultiLineString","properties":{"source":"naturalearthdata.com","kind":"region","sort_rank":256,"kind_detail":"4","min_zoom":5.5,"id":6200},"arcs":[[230],[231],[232],[233],[234],[235],[236],[237],[238]]},{"type":"MultiLineString","properties":{"source":"naturalearthdata.com","kind":"region","sort_rank":256,"kind_detail":"4","min_zoom":5.5,"id":6201},"arcs":[[239],[240],[241],[242],[243],[244],[245],[246],[247],[248],[249],[250],[251]]},{"type":"LineString","properties":{"source":"naturalearthdata.com","kind":"region","sort_rank":256,"kind_detail":"4","min_zoom":5.5,"id":6202},"arcs":[252]},{"type":"MultiLineString","properties":{"source":"naturalearthdata.com","kind":"region","sort_rank":256,"kind_detail":"4","min_zoom":5.5,"id":6204},"arcs":[[253],[254],[255],[256],[257],[258],[259],[260],[261]]},{"type":"LineString","properties":{"source":"naturalearthdata.com","kind":"region","sort_rank":256,"kind_detail":"4","min_zoom":5.5,"id":6205},"arcs":[262]},{"type":"MultiLineString","properties":{"source":"naturalearthdata.com","kind":"region","sort_rank":256,"kind_detail":"4","min_zoom":5.5,"id":6207},"arcs":[[263],[264],[265],[266],[267]]},{"type":"MultiLineString","properties":{"source":"naturalearthdata.com","kind":"region","sort_rank":256,"kind_detail":"4","min_zoom":5.5,"id":6208},"arcs":[[268],[269],[270],[271],[272],[273],[274],[275],[276],[277],[278],[279],[280],[281]]},{"type":"MultiLineString","properties":{"source":"naturalearthdata.com","kind":"region","sort_rank":256,"kind_detail":"4","min_zoom":5.5,"id":6209},"arcs":[[282],[283],[284],[285],[286],[287]]},{"type":"MultiLineString","properties":{"source":"naturalearthdata.com","kind":"region","sort_rank":256,"kind_detail":"4","min_zoom":5.5,"id":6210},"arcs":[[288],[289],[290],[291],[292],[293],[294],[295]]},{"type":"MultiLineString","properties":{"source":"naturalearthdata.com","kind":"region","sort_rank":256,"kind_detail":"4","min_zoom":5.5,"id":6212},"arcs":[[296],[297],[298],[299],[300],[301]]},{"type":"LineString","properties":{"source":"naturalearthdata.com","kind":"region","sort_rank":256,"kind_detail":"4","min_zoom":5.5,"id":6213},"arcs":[302]},{"type":"MultiLineString","properties":{"source":"naturalearthdata.com","kind":"region","sort_rank":256,"kind_detail":"4","min_zoom":5.5,"id":6214},"arcs":[[303],[304],[305],[306]]},{"type":"MultiLineString","properties":{"source":"naturalearthdata.com","kind":"region","sort_rank":256,"kind_detail":"4","min_zoom":5.5,"id":6216},"arcs":[[307],[308],[309],[310]]},{"type":"LineString","properties":{"source":"naturalearthdata.com","kind":"region","sort_rank":256,"kind_detail":"4","min_zoom":5.5,"id":6217},"arcs":[311]},{"type":"MultiLineString","properties":{"source":"naturalearthdata.com","kind":"region","sort_rank":256,"kind_detail":"4","min_zoom":5.5,"id":6219},"arcs":[[312],[313]]},{"type":"MultiLineString","properties":{"source":"naturalearthdata.com","kind":"region","sort_rank":256,"kind_detail":"4","min_zoom":5.5,"id":6221},"arcs":[[314],[315],[316],[317],[318]]},{"type":"LineString","properties":{"source":"naturalearthdata.com","kind":"region","sort_rank":256,"kind_detail":"4","min_zoom":5.5,"id":6224},"arcs":[319]},{"type":"MultiLineString","properties":{"source":"naturalearthdata.com","kind":"region","sort_rank":256,"kind_detail":"4","min_zoom":5.5,"id":6226},"arcs":[[320],[321],[322],[323],[324]]},{"type":"MultiLineString","properties":{"source":"naturalearthdata.com","kind":"region","sort_rank":256,"kind_detail":"4","min_zoom":5.5,"id":6227},"arcs":[[325],[326],[327],[328],[329]]},{"type":"LineString","properties":{"source":"naturalearthdata.com","kind":"region","sort_rank":256,"kind_detail":"4","min_zoom":5.5,"id":6231},"arcs":[330]},{"type":"MultiLineString","properties":{"source":"naturalearthdata.com","kind":"region","sort_rank":256,"kind_detail":"4","min_zoom":5.5,"id":6232},"arcs":[[331],[332],[333]]},{"type":"LineString","properties":{"source":"naturalearthdata.com","kind":"region","sort_rank":256,"kind_detail":"4","min_zoom":5.5,"id":6233},"arcs":[334]},{"type":"MultiLineString","properties":{"source":"naturalearthdata.com","kind":"region","sort_rank":256,"kind_detail":"4","min_zoom":5.5,"id":6234},"arcs":[[335],[336],[337]]}]},"roads":{"type":"GeometryCollection","geometries":[{"type":"LineString","properties":{"source":"naturalearthdata.com","kind":"major_road","sort_rank":379,"kind_detail":"secondary","min_zoom":4.0,"id":41543},"arcs":[380]},{"type":"LineString","properties":{"source":"naturalearthdata.com","kind":"major_road","sort_rank":379,"kind_detail":"secondary","min_zoom":3.0,"id":41550},"arcs":[381]},{"type":"LineString","properties":{"source":"naturalearthdata.com","kind":"major_road","sort_rank":379,"kind_detail":"secondary","min_zoom":3.0,"id":41554},"arcs":[382]},{"type":"LineString","properties":{"source":"naturalearthdata.com","kind":"major_road","kind_detail":"secondary","sort_rank":379,"landuse_kind":"urban_area","min_zoom":3.0,"id":41557},"arcs":[383]},{"type":"LineString","properties":{"source":"naturalearthdata.com","kind":"major_road","sort_rank":379,"kind_detail":"secondary","min_zoom":3.0,"id":41557},"arcs":[384]},{"type":"LineString","properties":{"source":"naturalearthdata.com","kind":"major_road","sort_rank":379,"kind_detail":"secondary","min_zoom":3.0,"id":41558},"arcs":[385]},{"type":"LineString","properties":{"source":"naturalearthdata.com","kind":"major_road","sort_rank":379,"kind_detail":"secondary","min_zoom":3.0,"id":41559},"arcs":[386]},{"type":"LineString","properties":{"source":"naturalearthdata.com","kind":"major_road","sort_rank":379,"kind_detail":"secondary","min_zoom":3.0,"id":41575},"arcs":[387]},{"type":"LineString","properties":{"source":"naturalearthdata.com","kind":"major_road","sort_rank":379,"kind_detail":"secondary","min_zoom":4.0,"id":41578},"arcs":[388]},{"type":"LineString","properties":{"source":"naturalearthdata.com","kind":"major_road","sort_rank":379,"kind_detail":"secondary","min_zoom":3.0,"id":41579},"arcs":[389]},{"type":"LineString","properties":{"source":"naturalearthdata.com","kind":"major_road","kind_detail":"secondary","sort_rank":379,"landuse_kind":"urban_area","min_zoom":3.0,"id":41580},"arcs":[390]},{"type":"LineString","properties":{"source":"naturalearthdata.com","kind":"major_road","sort_rank":379,"kind_detail":"secondary","min_zoom":3.0,"id":41580},"arcs":[391]},{"type":"LineString","properties":{"source":"naturalearthdata.com","kind":"major_road","sort_rank":379,"kind_detail":"secondary","min_zoom":3.0,"id":41587},"arcs":[392]},{"type":"LineString","properties":{"source":"naturalearthdata.com","kind":"major_road","sort_rank":379,"kind_detail":"secondary","min_zoom":4.0,"id":41591},"arcs":[393]},{"type":"LineString","properties":{"source":"naturalearthdata.com","kind":"major_road","sort_rank":379,"kind_detail":"secondary","min_zoom":3.0,"id":41592},"arcs":[394]},{"type":"LineString","properties":{"source":"naturalearthdata.com","kind":"major_road","sort_rank":379,"kind_detail":"secondary","min_zoom":3.0,"id":41593},"arcs":[395]},{"type":"LineString","properties":{"source":"naturalearthdata.com","kind":"major_road","sort_rank":379,"kind_detail":"secondary","min_zoom":3.0,"id":41594},"arcs":[396]},{"type":"LineString","properties":{"source":"naturalearthdata.com","kind":"major_road","sort_rank":379,"kind_detail":"secondary","min_zoom":4.0,"id":41595},"arcs":[397]},{"type":"LineString","properties":{"source":"naturalearthdata.com","kind":"major_road","sort_rank":379,"kind_detail":"secondary","min_zoom":3.0,"id":41596},"arcs":[398]},{"type":"LineString","properties":{"source":"naturalearthdata.com","kind":"major_road","sort_rank":379,"kind_detail":"secondary","min_zoom":3.0,"id":41612},"arcs":[399]},{"type":"LineString","properties":{"source":"naturalearthdata.com","kind":"major_road","sort_rank":379,"kind_detail":"secondary","min_zoom":3.0,"id":41614},"arcs":[400]},{"type":"LineString","properties":{"source":"naturalearthdata.com","kind":"major_road","sort_rank":379,"kind_detail":"secondary","min_zoom":3.0,"id":41615},"arcs":[401]},{"type":"LineString","properties":{"source":"naturalearthdata.com","kind":"major_road","sort_rank":379,"kind_detail":"secondary","min_zoom":3.0,"id":41619},"arcs":[402]},{"type":"LineString","properties":{"source":"naturalearthdata.com","kind":"major_road","sort_rank":379,"kind_detail":"secondary","min_zoom":4.0,"id":41620},"arcs":[403]},{"type":"LineString","properties":{"source":"naturalearthdata.com","kind":"major_road","sort_rank":379,"kind_detail":"secondary","min_zoom":3.0,"id":41627},"arcs":[404]},{"type":"LineString","properties":{"source":"naturalearthdata.com","kind":"major_road","sort_rank":379,"kind_detail":"secondary","min_zoom":3.0,"id":41629},"arcs":[405]},{"type":"LineString","properties":{"source":"naturalearthdata.com","kind":"major_road","sort_rank":379,"kind_detail":"secondary","min_zoom":3.0,"id":41633},"arcs":[406]},{"type":"LineString","properties":{"source":"naturalearthdata.com","kind":"major_road","sort_rank":379,"kind_detail":"secondary","min_zoom":4.0,"id":41636},"arcs":[407]},{"type":"LineString","properties":{"source":"naturalearthdata.com","kind":"major_road","sort_rank":379,"kind_detail":"secondary","min_zoom":3.0,"id":41639},"arcs":[408]},{"type":"LineString","properties":{"source":"naturalearthdata.com","kind":"major_road","sort_rank":379,"kind_detail":"secondary","min_zoom":3.0,"id":41640},"arcs":[409]},{"type":"LineString","properties":{"source":"naturalearthdata.com","kind":"major_road","sort_rank":379,"kind_detail":"secondary","min_zoom":4.0,"id":41642},"arcs":[410]},{"type":"LineString","properties":{"source":"naturalearthdata.com","kind":"major_road","sort_rank":379,"kind_detail":"secondary","min_zoom":4.0,"id":41652},"arcs":[411]},{"type":"LineString","properties":{"source":"naturalearthdata.com","kind":"major_road","sort_rank":379,"kind_detail":"secondary","min_zoom":4.0,"id":41656},"arcs":[412]},{"type":"LineString","properties":{"source":"naturalearthdata.com","kind":"major_road","sort_rank":379,"kind_detail":"secondary","min_zoom":4.0,"id":41678},"arcs":[413]},{"type":"LineString","properties":{"source":"naturalearthdata.com","kind":"major_road","sort_rank":379,"kind_detail":"secondary","min_zoom":3.0,"id":41679},"arcs":[414]},{"type":"LineString","properties":{"source":"naturalearthdata.com","kind":"major_road","sort_rank":379,"kind_detail":"secondary","min_zoom":3.0,"id":41683},"arcs":[415]},{"type":"LineString","properties":{"source":"naturalearthdata.com","kind":"major_road","sort_rank":379,"kind_detail":"secondary","min_zoom":3.0,"id":41684},"arcs":[416]},{"type":"LineString","properties":{"source":"naturalearthdata.com","kind":"major_road","sort_rank":379,"kind_detail":"secondary","min_zoom":3.0,"id":41691},"arcs":[417]},{"type":"LineString","properties":{"source":"naturalearthdata.com","kind":"major_road","sort_rank":379,"kind_detail":"secondary","min_zoom":3.0,"id":41693},"arcs":[418]},{"type":"LineString","properties":{"source":"naturalearthdata.com","kind":"major_road","sort_rank":379,"kind_detail":"secondary","min_zoom":3.0,"id":41699},"arcs":[419]},{"type":"LineString","properties":{"source":"naturalearthdata.com","kind":"major_road","sort_rank":379,"kind_detail":"secondary","min_zoom":3.0,"id":41711},"arcs":[420]},{"type":"LineString","properties":{"source":"naturalearthdata.com","kind":"major_road","sort_rank":379,"kind_detail":"secondary","min_zoom":3.0,"id":41738},"arcs":[421]},{"type":"LineString","properties":{"source":"naturalearthdata.com","kind":"major_road","sort_rank":379,"kind_detail":"secondary","min_zoom":3.0,"id":41739},"arcs":[422]},{"type":"LineString","properties":{"source":"naturalearthdata.com","kind":"major_road","sort_rank":379,"kind_detail":"secondary","min_zoom":3.0,"id":41751},"arcs":[423]},{"type":"LineString","properties":{"source":"naturalearthdata.com","kind":"major_road","sort_rank":379,"kind_detail":"secondary","min_zoom":3.0,"id":41759},"arcs":[424]},{"type":"LineString","properties":{"source":"naturalearthdata.com","kind":"major_road","sort_rank":379,"kind_detail":"secondary","min_zoom":3.0,"id":41775},"arcs":[425]},{"type":"LineString","properties":{"source":"naturalearthdata.com","kind":"major_road","sort_rank":379,"kind_detail":"secondary","min_zoom":4.0,"id":41779},"arcs":[426]},{"type":"LineString","properties":{"source":"naturalearthdata.com","kind":"major_road","sort_rank":379,"kind_detail":"secondary","min_zoom":3.0,"id":41789},"arcs":[427]},{"type":"LineString","properties":{"source":"naturalearthdata.com","kind":"major_road","sort_rank":379,"kind_detail":"secondary","min_zoom":3.0,"id":41790},"arcs":[428]},{"type":"LineString","properties":{"source":"naturalearthdata.com","kind":"major_road","sort_rank":379,"kind_detail":"secondary","min_zoom":3.0,"id":41796},"arcs":[429]},{"type":"LineString","properties":{"source":"naturalearthdata.com","kind":"major_road","sort_rank":379,"kind_detail":"secondary","min_zoom":4.0,"id":41797},"arcs":[430]},{"type":"LineString","properties":{"source":"naturalearthdata.com","kind":"major_road","sort_rank":379,"kind_detail":"secondary","min_zoom":4.0,"id":41799},"arcs":[431]},{"type":"LineString","properties":{"source":"naturalearthdata.com","kind":"major_road","sort_rank":379,"kind_detail":"secondary","min_zoom":3.0,"id":41802},"arcs":[432]},{"type":"LineString","properties":{"source":"naturalearthdata.com","kind":"major_road","sort_rank":379,"kind_detail":"secondary","min_zoom":4.0,"id":41803},"arcs":[433]},{"type":"LineString","properties":{"source":"naturalearthdata.com","kind":"highway","sort_rank":383,"kind_detail":"motorway","min_zoom":3.0,"id":41804},"arcs":[434]},{"type":"LineString","properties":{"source":"naturalearthdata.com","kind":"major_road","sort_rank":379,"kind_detail":"secondary","min_zoom":4.0,"id":41810},"arcs":[435]},{"type":"LineString","properties":{"source":"naturalearthdata.com","kind":"major_road","sort_rank":379,"kind_detail":"secondary","min_zoom":4.0,"id":41813},"arcs":[436]},{"type":"LineString","properties":{"source":"naturalearthdata.com","kind":"major_road","sort_rank":379,"kind_detail":"secondary","min_zoom":4.0,"id":41822},"arcs":[437]},{"type":"LineString","properties":{"source":"naturalearthdata.com","kind":"highway","kind_detail":"motorway","sort_rank":383,"landuse_kind":"urban_area","min_zoom":3.0,"id":41828},"arcs":[438]},{"type":"LineString","properties":{"source":"naturalearthdata.com","kind":"highway","sort_rank":383,"kind_detail":"motorway","min_zoom":3.0,"id":41828},"arcs":[439]},{"type":"LineString","properties":{"source":"naturalearthdata.com","kind":"major_road","sort_rank":379,"kind_detail":"secondary","min_zoom":3.0,"id":41837},"arcs":[440]},{"type":"LineString","properties":{"source":"naturalearthdata.com","kind":"major_road","kind_detail":"secondary","sort_rank":379,"landuse_kind":"urban_area","min_zoom":3.0,"id":41852},"arcs":[441]},{"type":"LineString","properties":{"source":"naturalearthdata.com","kind":"highway","kind_detail":"motorway","sort_rank":383,"landuse_kind":"urban_area","min_zoom":3.0,"id":41853},"arcs":[442]},{"type":"LineString","properties":{"source":"naturalearthdata.com","kind":"highway","kind_detail":"motorway","sort_rank":383,"landuse_kind":"urban_area","min_zoom":3.0,"id":41854},"arcs":[443]},{"type":"LineString","properties":{"source":"naturalearthdata.com","kind":"highway","sort_rank":383,"kind_detail":"motorway","min_zoom":3.0,"id":41854},"arcs":[444]},{"type":"LineString","properties":{"source":"naturalearthdata.com","kind":"major_road","kind_detail":"secondary","sort_rank":379,"landuse_kind":"urban_area","min_zoom":3.0,"id":41891},"arcs":[445]},{"type":"LineString","properties":{"source":"naturalearthdata.com","kind":"major_road","sort_rank":379,"kind_detail":"secondary","min_zoom":3.0,"id":41891},"arcs":[446]},{"type":"LineString","properties":{"source":"naturalearthdata.com","kind":"major_road","sort_rank":379,"kind_detail":"secondary","min_zoom":4.0,"id":41897},"arcs":[447]},{"type":"LineString","properties":{"source":"naturalearthdata.com","kind":"major_road","sort_rank":379,"kind_detail":"secondary","min_zoom":4.0,"id":41909},"arcs":[448]},{"type":"LineString","properties":{"source":"naturalearthdata.com","kind":"major_road","sort_rank":379,"kind_detail":"secondary","min_zoom":3.0,"id":41923},"arcs":[449]},{"type":"LineString","properties":{"source":"naturalearthdata.com","kind":"major_road","sort_rank":379,"kind_detail":"secondary","min_zoom":3.0,"id":41940},"arcs":[450]},{"type":"LineString","properties":{"source":"naturalearthdata.com","kind":"major_road","sort_rank":379,"kind_detail":"secondary","min_zoom":4.0,"id":41941},"arcs":[451]},{"type":"LineString","properties":{"source":"naturalearthdata.com","kind":"major_road","sort_rank":379,"kind_detail":"secondary","min_zoom":3.0,"id":41957},"arcs":[452]},{"type":"LineString","properties":{"source":"naturalearthdata.com","kind":"major_road","sort_rank":379,"kind_detail":"secondary","min_zoom":3.0,"id":41996},"arcs":[453]},{"type":"LineString","properties":{"source":"naturalearthdata.com","kind":"major_road","sort_rank":379,"kind_detail":"secondary","min_zoom":3.0,"id":42006},"arcs":[454]},{"type":"LineString","properties":{"source":"naturalearthdata.com","kind":"major_road","sort_rank":379,"kind_detail":"secondary","min_zoom":3.0,"id":42020},"arcs":[455]},{"type":"LineString","properties":{"source":"naturalearthdata.com","kind":"major_road","sort_rank":379,"kind_detail":"secondary","min_zoom":3.0,"id":42031},"arcs":[456]},{"type":"LineString","properties":{"source":"naturalearthdata.com","kind":"major_road","sort_rank":379,"kind_detail":"secondary","min_zoom":3.0,"id":42041},"arcs":[457]},{"type":"LineString","properties":{"source":"naturalearthdata.com","kind":"major_road","sort_rank":379,"kind_detail":"secondary","min_zoom":4.0,"id":42082},"arcs":[458]},{"type":"LineString","properties":{"source":"naturalearthdata.com","kind":"major_road","kind_detail":"secondary","sort_rank":379,"landuse_kind":"nature_reserve","min_zoom":3.0,"id":42092},"arcs":[459]},{"type":"MultiLineString","properties":{"source":"naturalearthdata.com","kind":"major_road","sort_rank":379,"kind_detail":"secondary","min_zoom":3.0,"id":42092},"arcs":[[460],[461]]},{"type":"LineString","properties":{"source":"naturalearthdata.com","kind":"major_road","sort_rank":379,"kind_detail":"secondary","min_zoom":3.0,"id":42097},"arcs":[462]},{"type":"LineString","properties":{"source":"naturalearthdata.com","kind":"major_road","sort_rank":379,"kind_detail":"secondary","min_zoom":3.0,"id":42130},"arcs":[463]},{"type":"LineString","properties":{"source":"naturalearthdata.com","kind":"major_road","sort_rank":379,"kind_detail":"secondary","min_zoom":4.0,"id":42166},"arcs":[464]},{"type":"LineString","properties":{"source":"naturalearthdata.com","kind":"major_road","kind_detail":"secondary","sort_rank":379,"landuse_kind":"park","min_zoom":3.0,"id":42220},"arcs":[465]},{"type":"LineString","properties":{"source":"naturalearthdata.com","kind":"major_road","kind_detail":"secondary","sort_rank":379,"landuse_kind":"park","min_zoom":3.0,"id":42220},"arcs":[466]},{"type":"LineString","properties":{"source":"naturalearthdata.com","kind":"major_road","sort_rank":379,"kind_detail":"secondary","min_zoom":3.0,"id":42220},"arcs":[467]},{"type":"LineString","properties":{"source":"naturalearthdata.com","kind":"major_road","kind_detail":"secondary","sort_rank":379,"landuse_kind":"park","min_zoom":3.0,"id":42237},"arcs":[468]},{"type":"LineString","properties":{"source":"naturalearthdata.com","kind":"major_road","sort_rank":379,"kind_detail":"secondary","min_zoom":4.0,"id":42241},"arcs":[469]},{"type":"LineString","properties":{"source":"naturalearthdata.com","kind":"major_road","sort_rank":379,"kind_detail":"secondary","min_zoom":3.0,"id":42242},"arcs":[470]},{"type":"LineString","properties":{"source":"naturalearthdata.com","kind":"major_road","sort_rank":379,"kind_detail":"secondary","min_zoom":4.0,"id":42270},"arcs":[471]},{"type":"LineString","properties":{"source":"naturalearthdata.com","kind":"major_road","sort_rank":379,"kind_detail":"secondary","min_zoom":4.0,"id":42303},"arcs":[472]},{"type":"LineString","properties":{"source":"naturalearthdata.com","kind":"major_road","sort_rank":379,"kind_detail":"secondary","min_zoom":3.0,"id":42308},"arcs":[473]},{"type":"LineString","properties":{"source":"naturalearthdata.com","kind":"major_road","sort_rank":379,"kind_detail":"secondary","min_zoom":4.0,"id":42310},"arcs":[474]},{"type":"LineString","properties":{"source":"naturalearthdata.com","kind":"major_road","sort_rank":379,"kind_detail":"secondary","min_zoom":4.0,"id":42311},"arcs":[475]},{"type":"LineString","properties":{"source":"naturalearthdata.com","kind":"major_road","kind_detail":"secondary","sort_rank":379,"landuse_kind":"park","min_zoom":3.0,"id":42315},"arcs":[476]},{"type":"MultiLineString","properties":{"source":"naturalearthdata.com","kind":"major_road","kind_detail":"secondary","sort_rank":379,"landuse_kind":"park","min_zoom":3.0,"id":42315},"arcs":[[477],[478]]},{"type":"MultiLineString","properties":{"source":"naturalearthdata.com","kind":"major_road","sort_rank":379,"kind_detail":"secondary","min_zoom":3.0,"id":42315},"arcs":[[479],[480],[481]]},{"type":"LineString","properties":{"source":"naturalearthdata.com","kind":"major_road","sort_rank":379,"kind_detail":"secondary","min_zoom":4.0,"id":42319},"arcs":[482]},{"type":"LineString","properties":{"source":"naturalearthdata.com","kind":"major_road","sort_rank":379,"kind_detail":"secondary","min_zoom":4.0,"id":42324},"arcs":[483]},{"type":"LineString","properties":{"source":"naturalearthdata.com","kind":"major_road","sort_rank":379,"kind_detail":"secondary","min_zoom":4.0,"id":42325},"arcs":[484]},{"type":"LineString","properties":{"source":"naturalearthdata.com","kind":"major_road","sort_rank":379,"kind_detail":"secondary","min_zoom":4.0,"id":42344},"arcs":[485]},{"type":"LineString","properties":{"source":"naturalearthdata.com","kind":"major_road","kind_detail":"secondary","sort_rank":379,"landuse_kind":"park","min_zoom":4.0,"id":42346},"arcs":[486]},{"type":"MultiLineString","properties":{"source":"naturalearthdata.com","kind":"major_road","sort_rank":379,"kind_detail":"secondary","min_zoom":4.0,"id":42346},"arcs":[[487],[488]]},{"type":"LineString","properties":{"source":"naturalearthdata.com","kind":"major_road","sort_rank":379,"kind_detail":"secondary","min_zoom":3.0,"id":42355},"arcs":[489]},{"type":"LineString","properties":{"source":"naturalearthdata.com","kind":"major_road","sort_rank":379,"kind_detail":"secondary","min_zoom":4.0,"id":42377},"arcs":[490]},{"type":"LineString","properties":{"source":"naturalearthdata.com","kind":"major_road","sort_rank":379,"kind_detail":"secondary","min_zoom":3.0,"id":42391},"arcs":[491]},{"type":"LineString","properties":{"source":"naturalearthdata.com","kind":"major_road","sort_rank":379,"kind_detail":"secondary","min_zoom":4.0,"id":42396},"arcs":[492]},{"type":"LineString","properties":{"source":"naturalearthdata.com","kind":"major_road","sort_rank":379,"kind_detail":"secondary","min_zoom":3.0,"id":42424},"arcs":[493]},{"type":"LineString","properties":{"source":"naturalearthdata.com","kind":"major_road","sort_rank":379,"kind_detail":"secondary","min_zoom":3.0,"id":42443},"arcs":[494]},{"type":"LineString","properties":{"source":"naturalearthdata.com","kind":"major_road","sort_rank":379,"kind_detail":"secondary","min_zoom":3.0,"id":42459},"arcs":[495]},{"type":"LineString","properties":{"source":"naturalearthdata.com","kind":"major_road","sort_rank":379,"kind_detail":"secondary","min_zoom":3.0,"id":42485},"arcs":[496]},{"type":"LineString","properties":{"source":"naturalearthdata.com","kind":"major_road","sort_rank":379,"kind_detail":"secondary","min_zoom":4.0,"id":42495},"arcs":[497]},{"type":"LineString","properties":{"source":"naturalearthdata.com","kind":"major_road","sort_rank":379,"kind_detail":"secondary","min_zoom":3.0,"id":42496},"arcs":[498]},{"type":"LineString","properties":{"source":"naturalearthdata.com","kind":"major_road","kind_detail":"secondary","sort_rank":379,"landuse_kind":"urban_area","min_zoom":4.0,"id":42497},"arcs":[499]},{"type":"MultiLineString","properties":{"source":"naturalearthdata.com","kind":"major_road","sort_rank":379,"kind_detail":"secondary","min_zoom":4.0,"id":42497},"arcs":[[500],[501]]},{"type":"LineString","properties":{"source":"naturalearthdata.com","kind":"major_road","sort_rank":379,"kind_detail":"secondary","min_zoom":3.0,"id":42518},"arcs":[502]},{"type":"LineString","properties":{"source":"naturalearthdata.com","kind":"major_road","sort_rank":379,"kind_detail":"secondary","min_zoom":3.0,"id":42527},"arcs":[503]},{"type":"LineString","properties":{"source":"naturalearthdata.com","kind":"major_road","sort_rank":379,"kind_detail":"secondary","min_zoom":3.0,"id":42570},"arcs":[504]},{"type":"LineString","properties":{"source":"naturalearthdata.com","kind":"major_road","sort_rank":379,"kind_detail":"secondary","min_zoom":3.0,"id":42580},"arcs":[505]},{"type":"LineString","properties":{"source":"naturalearthdata.com","kind":"major_road","sort_rank":379,"kind_detail":"secondary","min_zoom":3.0,"id":42586},"arcs":[506]},{"type":"LineString","properties":{"source":"naturalearthdata.com","kind":"major_road","sort_rank":379,"kind_detail":"secondary","min_zoom":3.0,"id":42599},"arcs":[507]},{"type":"LineString","properties":{"source":"naturalearthdata.com","kind":"major_road","sort_rank":379,"kind_detail":"secondary","min_zoom":4.0,"id":42603},"arcs":[508]},{"type":"LineString","properties":{"source":"naturalearthdata.com","kind":"major_road","sort_rank":379,"kind_detail":"secondary","min_zoom":3.0,"id":42607},"arcs":[509]},{"type":"LineString","properties":{"source":"naturalearthdata.com","kind":"major_road","sort_rank":379,"kind_detail":"secondary","min_zoom":3.0,"id":42609},"arcs":[510]},{"type":"LineString","properties":{"source":"naturalearthdata.com","kind":"major_road","sort_rank":379,"kind_detail":"secondary","min_zoom":3.0,"id":42610},"arcs":[511]},{"type":"LineString","properties":{"source":"naturalearthdata.com","kind":"major_road","sort_rank":379,"kind_detail":"secondary","min_zoom":4.0,"id":42624},"arcs":[512]},{"type":"LineString","properties":{"source":"naturalearthdata.com","kind":"major_road","sort_rank":379,"kind_detail":"secondary","min_zoom":3.0,"id":42636},"arcs":[513]},{"type":"LineString","properties":{"source":"naturalearthdata.com","kind":"major_road","sort_rank":379,"kind_detail":"secondary","min_zoom":3.0,"id":42640},"arcs":[514]},{"type":"LineString","properties":{"source":"naturalearthdata.com","kind":"major_road","sort_rank":379,"kind_detail":"secondary","min_zoom":3.0,"id":42645},"arcs":[515]},{"type":"LineString","properties":{"source":"naturalearthdata.com","kind":"major_road","sort_rank":379,"kind_detail":"secondary","min_zoom":4.0,"id":42657},"arcs":[516]},{"type":"LineString","properties":{"source":"naturalearthdata.com","kind":"major_road","sort_rank":379,"kind_detail":"secondary","min_zoom":3.0,"id":42671},"arcs":[517]},{"type":"LineString","properties":{"source":"naturalearthdata.com","kind":"major_road","sort_rank":379,"kind_detail":"secondary","min_zoom":3.0,"id":42681},"arcs":[518]},{"type":"LineString","properties":{"source":"naturalearthdata.com","kind":"major_road","sort_rank":379,"kind_detail":"secondary","min_zoom":4.0,"id":42682},"arcs":[519]},{"type":"LineString","properties":{"source":"naturalearthdata.com","kind":"major_road","sort_rank":379,"kind_detail":"secondary","min_zoom":3.0,"id":42690},"arcs":[520]},{"type":"LineString","properties":{"source":"naturalearthdata.com","kind":"major_road","sort_rank":379,"kind_detail":"secondary","min_zoom":3.0,"id":42694},"arcs":[521]},{"type":"LineString","properties":{"source":"naturalearthdata.com","kind":"major_road","sort_rank":379,"kind_detail":"secondary","min_zoom":4.0,"id":42707},"arcs":[522]},{"type":"LineString","properties":{"source":"naturalearthdata.com","kind":"major_road","sort_rank":379,"kind_detail":"secondary","min_zoom":3.0,"id":42720},"arcs":[523]},{"type":"LineString","properties":{"source":"naturalearthdata.com","kind":"major_road","sort_rank":379,"kind_detail":"secondary","min_zoom":3.0,"id":42739},"arcs":[524]},{"type":"LineString","properties":{"source":"naturalearthdata.com","kind":"major_road","sort_rank":379,"kind_detail":"secondary","min_zoom":4.0,"id":42740},"arcs":[525]},{"type":"LineString","properties":{"source":"naturalearthdata.com","kind":"major_road","sort_rank":379,"kind_detail":"secondary","min_zoom":3.0,"id":42744},"arcs":[526]},{"type":"LineString","properties":{"source":"naturalearthdata.com","kind":"major_road","sort_rank":379,"kind_detail":"secondary","min_zoom":3.0,"id":42779},"arcs":[527]},{"type":"LineString","properties":{"source":"naturalearthdata.com","kind":"major_road","sort_rank":379,"kind_detail":"secondary","min_zoom":3.0,"id":42802},"arcs":[528]},{"type":"LineString","properties":{"source":"naturalearthdata.com","kind":"major_road","sort_rank":379,"kind_detail":"secondary","min_zoom":3.0,"id":42809},"arcs":[529]},{"type":"LineString","properties":{"source":"naturalearthdata.com","kind":"major_road","sort_rank":379,"kind_detail":"secondary","min_zoom":3.0,"id":42811},"arcs":[530]},{"type":"LineString","properties":{"source":"naturalearthdata.com","kind":"major_road","sort_rank":379,"kind_detail":"secondary","min_zoom":3.0,"id":42819},"arcs":[531]},{"type":"LineString","properties":{"source":"naturalearthdata.com","kind":"major_road","sort_rank":379,"kind_detail":"secondary","min_zoom":3.0,"id":42820},"arcs":[532]},{"type":"LineString","properties":{"source":"naturalearthdata.com","kind":"major_road","sort_rank":379,"kind_detail":"secondary","min_zoom":3.0,"id":42860},"arcs":[533]},{"type":"LineString","properties":{"source":"naturalearthdata.com","kind":"major_road","sort_rank":379,"kind_detail":"secondary","min_zoom":3.0,"id":42865},"arcs":[534]},{"type":"LineString","properties":{"source":"naturalearthdata.com","kind":"major_road","sort_rank":379,"kind_detail":"secondary","min_zoom":3.0,"id":42869},"arcs":[535]},{"type":"LineString","properties":{"source":"naturalearthdata.com","kind":"major_road","sort_rank":379,"kind_detail":"secondary","min_zoom":3.0,"id":42871},"arcs":[536]},{"type":"LineString","properties":{"source":"naturalearthdata.com","kind":"major_road","sort_rank":379,"kind_detail":"secondary","min_zoom":3.0,"id":42872},"arcs":[537]},{"type":"LineString","properties":{"source":"naturalearthdata.com","kind":"major_road","sort_rank":379,"kind_detail":"secondary","min_zoom":3.0,"id":42873},"arcs":[538]},{"type":"LineString","properties":{"source":"naturalearthdata.com","kind":"major_road","sort_rank":379,"kind_detail":"secondary","min_zoom":3.0,"id":42881},"arcs":[539]},{"type":"LineString","properties":{"source":"naturalearthdata.com","kind":"major_road","sort_rank":379,"kind_detail":"secondary","min_zoom":4.0,"id":42882},"arcs":[540]},{"type":"LineString","properties":{"source":"naturalearthdata.com","kind":"major_road","sort_rank":379,"kind_detail":"secondary","min_zoom":3.0,"id":42901},"arcs":[541]},{"type":"LineString","properties":{"source":"naturalearthdata.com","kind":"major_road","sort_rank":379,"kind_detail":"secondary","min_zoom":3.0,"id":42906},"arcs":[542]},{"type":"LineString","properties":{"source":"naturalearthdata.com","kind":"major_road","sort_rank":379,"kind_detail":"secondary","min_zoom":3.0,"id":42907},"arcs":[543]},{"type":"LineString","properties":{"source":"naturalearthdata.com","kind":"major_road","sort_rank":379,"kind_detail":"secondary","min_zoom":4.0,"id":42923},"arcs":[544]},{"type":"LineString","properties":{"source":"naturalearthdata.com","kind":"major_road","sort_rank":379,"kind_detail":"secondary","min_zoom":3.0,"id":42926},"arcs":[545]},{"type":"LineString","properties":{"source":"naturalearthdata.com","kind":"major_road","sort_rank":379,"kind_detail":"secondary","min_zoom":3.0,"id":42949},"arcs":[546]},{"type":"LineString","properties":{"source":"naturalearthdata.com","kind":"major_road","sort_rank":379,"kind_detail":"secondary","min_zoom":3.0,"id":42951},"arcs":[547]},{"type":"LineString","properties":{"source":"naturalearthdata.com","kind":"major_road","sort_rank":379,"kind_detail":"secondary","min_zoom":3.0,"id":42963},"arcs":[548]},{"type":"LineString","properties":{"source":"naturalearthdata.com","kind":"major_road","kind_detail":"secondary","sort_rank":379,"landuse_kind":"urban_area","min_zoom":3.0,"id":42983},"arcs":[549]},{"type":"LineString","properties":{"source":"naturalearthdata.com","kind":"major_road","sort_rank":379,"kind_detail":"secondary","min_zoom":3.0,"id":42983},"arcs":[550]},{"type":"LineString","properties":{"source":"naturalearthdata.com","kind":"major_road","sort_rank":379,"kind_detail":"secondary","min_zoom":3.0,"id":42987},"arcs":[551]},{"type":"LineString","properties":{"source":"naturalearthdata.com","kind":"major_road","sort_rank":379,"kind_detail":"secondary","min_zoom":3.0,"id":42991},"arcs":[552]},{"type":"LineString","properties":{"source":"naturalearthdata.com","kind":"major_road","sort_rank":379,"kind_detail":"secondary","min_zoom":3.0,"id":42992},"arcs":[553]},{"type":"LineString","properties":{"source":"naturalearthdata.com","kind":"major_road","kind_detail":"secondary","sort_rank":379,"landuse_kind":"urban_area","min_zoom":4.0,"id":42994},"arcs":[554]},{"type":"LineString","properties":{"source":"naturalearthdata.com","kind":"major_road","sort_rank":379,"kind_detail":"secondary","min_zoom":3.0,"id":43021},"arcs":[555]},{"type":"LineString","properties":{"source":"naturalearthdata.com","kind":"major_road","kind_detail":"secondary","sort_rank":379,"landuse_kind":"urban_area","min_zoom":4.0,"id":43022},"arcs":[556]},{"type":"LineString","properties":{"source":"naturalearthdata.com","kind":"major_road","sort_rank":379,"kind_detail":"secondary","min_zoom":4.0,"id":43022},"arcs":[557]},{"type":"LineString","properties":{"source":"naturalearthdata.com","kind":"major_road","sort_rank":379,"kind_detail":"secondary","min_zoom":4.0,"id":43088},"arcs":[558]},{"type":"LineString","properties":{"source":"naturalearthdata.com","kind":"major_road","sort_rank":379,"kind_detail":"secondary","min_zoom":3.0,"id":43117},"arcs":[559]},{"type":"LineString","properties":{"source":"naturalearthdata.com","kind":"major_road","kind_detail":"secondary","sort_rank":379,"landuse_kind":"park","min_zoom":3.0,"id":43149},"arcs":[560]},{"type":"MultiLineString","properties":{"source":"naturalearthdata.com","kind":"major_road","sort_rank":379,"kind_detail":"secondary","min_zoom":3.0,"id":43149},"arcs":[[561],[562]]},{"type":"LineString","properties":{"source":"naturalearthdata.com","kind":"major_road","sort_rank":379,"kind_detail":"secondary","min_zoom":3.0,"id":43166},"arcs":[563]},{"type":"LineString","properties":{"source":"naturalearthdata.com","kind":"major_road","sort_rank":379,"kind_detail":"secondary","min_zoom":4.0,"id":43172},"arcs":[564]},{"type":"LineString","properties":{"source":"naturalearthdata.com","kind":"major_road","sort_rank":379,"kind_detail":"secondary","min_zoom":3.0,"id":43179},"arcs":[565]},{"type":"LineString","properties":{"source":"naturalearthdata.com","kind":"major_road","sort_rank":379,"kind_detail":"secondary","min_zoom":3.0,"id":43225},"arcs":[566]},{"type":"LineString","properties":{"source":"naturalearthdata.com","kind":"major_road","sort_rank":379,"kind_detail":"secondary","min_zoom":3.0,"id":43228},"arcs":[567]},{"type":"LineString","properties":{"source":"naturalearthdata.com","kind":"major_road","sort_rank":379,"kind_detail":"secondary","min_zoom":3.0,"id":43255},"arcs":[568]},{"type":"LineString","properties":{"source":"naturalearthdata.com","kind":"major_road","sort_rank":379,"kind_detail":"secondary","min_zoom":3.0,"id":43261},"arcs":[569]},{"type":"LineString","properties":{"source":"naturalearthdata.com","kind":"major_road","sort_rank":379,"kind_detail":"secondary","min_zoom":3.0,"id":43262},"arcs":[570]},{"type":"LineString","properties":{"source":"naturalearthdata.com","kind":"major_road","sort_rank":379,"kind_detail":"secondary","min_zoom":3.0,"id":43283},"arcs":[571]},{"type":"LineString","properties":{"source":"naturalearthdata.com","kind":"major_road","sort_rank":379,"kind_detail":"secondary","min_zoom":3.0,"id":43316},"arcs":[572]},{"type":"LineString","properties":{"source":"naturalearthdata.com","kind":"major_road","sort_rank":379,"kind_detail":"secondary","min_zoom":3.0,"id":43371},"arcs":[573]},{"type":"LineString","properties":{"source":"naturalearthdata.com","kind":"major_road","sort_rank":379,"kind_detail":"secondary","min_zoom":3.0,"id":43385},"arcs":[574]},{"type":"LineString","properties":{"source":"naturalearthdata.com","kind":"major_road","sort_rank":379,"kind_detail":"secondary","min_zoom":3.0,"id":43393},"arcs":[575]},{"type":"LineString","properties":{"source":"naturalearthdata.com","kind":"major_road","sort_rank":379,"kind_detail":"secondary","min_zoom":3.0,"id":43399},"arcs":[576]},{"type":"LineString","properties":{"source":"naturalearthdata.com","kind":"major_road","sort_rank":379,"kind_detail":"secondary","min_zoom":4.0,"id":43445},"arcs":[577]},{"type":"LineString","properties":{"source":"naturalearthdata.com","kind":"major_road","sort_rank":379,"kind_detail":"secondary","min_zoom":4.0,"id":43466},"arcs":[578]},{"type":"LineString","properties":{"source":"naturalearthdata.com","kind":"major_road","sort_rank":379,"kind_detail":"secondary","min_zoom":4.0,"id":43483},"arcs":[579]},{"type":"LineString","properties":{"source":"naturalearthdata.com","kind":"major_road","sort_rank":379,"kind_detail":"secondary","min_zoom":4.0,"id":43504},"arcs":[580]},{"type":"LineString","properties":{"source":"naturalearthdata.com","kind":"major_road","sort_rank":379,"kind_detail":"secondary","min_zoom":4.0,"id":43526},"arcs":[581]},{"type":"LineString","properties":{"source":"naturalearthdata.com","kind":"major_road","sort_rank":379,"kind_detail":"secondary","min_zoom":3.0,"id":43540},"arcs":[582]},{"type":"LineString","properties":{"source":"naturalearthdata.com","kind":"major_road","sort_rank":379,"kind_detail":"secondary","min_zoom":3.0,"id":43553},"arcs":[583]},{"type":"LineString","properties":{"source":"naturalearthdata.com","kind":"major_road","sort_rank":379,"kind_detail":"secondary","min_zoom":4.0,"id":43573},"arcs":[584]},{"type":"LineString","properties":{"source":"naturalearthdata.com","kind":"major_road","sort_rank":379,"kind_detail":"secondary","min_zoom":3.0,"id":43574},"arcs":[585]},{"type":"LineString","properties":{"source":"naturalearthdata.com","kind":"major_road","sort_rank":379,"kind_detail":"secondary","min_zoom":3.0,"id":43577},"arcs":[586]},{"type":"LineString","properties":{"source":"naturalearthdata.com","kind":"major_road","sort_rank":379,"kind_detail":"secondary","min_zoom":4.0,"id":43589},"arcs":[587]},{"type":"LineString","properties":{"source":"naturalearthdata.com","kind":"major_road","sort_rank":379,"kind_detail":"secondary","min_zoom":4.0,"id":43616},"arcs":[588]},{"type":"LineString","properties":{"source":"naturalearthdata.com","kind":"major_road","sort_rank":379,"kind_detail":"secondary","min_zoom":4.0,"id":43617},"arcs":[589]},{"type":"LineString","properties":{"source":"naturalearthdata.com","kind":"major_road","sort_rank":379,"kind_detail":"secondary","min_zoom":4.0,"id":43634},"arcs":[590]},{"type":"LineString","properties":{"source":"naturalearthdata.com","kind":"major_road","sort_rank":379,"kind_detail":"secondary","min_zoom":3.0,"id":43638},"arcs":[591]},{"type":"LineString","properties":{"source":"naturalearthdata.com","kind":"major_road","sort_rank":379,"kind_detail":"secondary","min_zoom":4.0,"id":43641},"arcs":[592]},{"type":"LineString","properties":{"source":"naturalearthdata.com","kind":"major_road","sort_rank":379,"kind_detail":"secondary","min_zoom":4.0,"id":43653},"arcs":[593]},{"type":"LineString","properties":{"source":"naturalearthdata.com","kind":"major_road","sort_rank":379,"kind_detail":"secondary","min_zoom":4.0,"id":43670},"arcs":[594]},{"type":"LineString","properties":{"source":"naturalearthdata.com","kind":"major_road","sort_rank":379,"kind_detail":"secondary","min_zoom":4.0,"id":43671},"arcs":[595]},{"type":"LineString","properties":{"source":"naturalearthdata.com","kind":"major_road","sort_rank":379,"kind_detail":"secondary","min_zoom":3.0,"id":43694},"arcs":[596]},{"type":"LineString","properties":{"source":"naturalearthdata.com","kind":"major_road","sort_rank":379,"kind_detail":"secondary","min_zoom":4.0,"id":43706},"arcs":[597]}]},"earth":{"type":"GeometryCollection","geometries":[{"type":"MultiPolygon","properties":{"sort_rank":10,"source":"naturalearthdata.com","min_zoom":0.0,"kind":"earth","area":4728203749954},"arcs":[[[598]],[[599]],[[600]],[[601]],[[602]],[[603]],[[604]]]}]},"landuse":{"type":"GeometryCollection","geometries":[{"type":"Polygon","properties":{"kind":"nature_reserve","name":"Ngorongoro Conservation Area (NCA)","area":8411840000,"sort_rank":23,"operator":"Ngorongoro Conservation Area Authority; Tanzania National Parks (TANAPA)","source":"openstreetmap.org","min_zoom":4.0,"tier":2,"id":43196616,"protect_class":"VI"},"arcs":[[605]]},{"type":"Polygon","properties":{"kind":"nature_reserve","name":"Ruaha National Park","area":20633399296,"sort_rank":23,"source":"openstreetmap.org","min_zoom":4.0,"tier":2,"id":362940538},"arcs":[[606]]},{"type":"Polygon","properties":{"kind":"park","name":"Chyulu Hills National Park","area":1113650048,"sort_rank":24,"source":"openstreetmap.org","min_zoom":4.0,"tier":2,"id":68899532},"arcs":[[607]]},{"type":"Polygon","properties":{"kind":"park","name":"Saadani National Park","area":1081709952,"sort_rank":24,"source":"openstreetmap.org","min_zoom":4.0,"tier":2,"id":203225634},"arcs":[[608]]},{"type":"Polygon","properties":{"kind":"park","name":"Udzungwa National Park","area":2466319872,"sort_rank":24,"source":"openstreetmap.org","min_zoom":4.0,"tier":2,"id":135171106},"arcs":[[609]]},{"type":"Polygon","properties":{"kind":"park","name":"Aberdare National Park","area":1057180032,"sort_rank":24,"source":"openstreetmap.org","min_zoom":4.0,"tier":2,"id":139003543},"arcs":[[610]]},{"type":"Polygon","properties":{"kind":"park","name":"Tsavo West National Park","area":6972120064,"sort_rank":24,"source":"openstreetmap.org","min_zoom":4.0,"tier":2,"id":-4581590,"osm_relation":true},"arcs":[[611]]},{"type":"MultiPolygon","properties":{"source":"naturalearthdata.com","kind":"urban_area","name":"","area":3991133350,"sort_rank":11,"min_zoom":4.0},"arcs":[[[612]],[[613]],[[614]],[[615]]]},{"type":"Polygon","properties":{"kind":"park","name":"Kilimanjaro National Park","area":1710439936,"sort_rank":24,"source":"openstreetmap.org","min_zoom":4.0,"tier":2,"id":-5305957,"osm_relation":true},"arcs":[[616]]},{"type":"Polygon","properties":{"kind":"nature_reserve","name":"Serengeti National Park","area":13257799680,"sort_rank":23,"source":"openstreetmap.org","min_zoom":4.0,"tier":2,"id":-4475047,"osm_relation":true},"arcs":[[617]]},{"type":"Polygon","properties":{"kind":"park","name":"Mount Kenya National Park","area":2261769984,"sort_rank":24,"source":"openstreetmap.org","min_zoom":4.0,"tier":2,"id":33196771},"arcs":[[618]]},{"type":"Polygon","properties":{"kind":"national_park","name":"Tarangire National Park","area":2900979968,"sort_rank":18,"operator":"Tanzania National Parks (TANAPA)","source":"openstreetmap.org","min_zoom":3.0,"tier":1,"id":39247847,"protect_class":"2"},"arcs":[[619]]},{"type":"Polygon","properties":{"kind":"park","name":"Tsavo East National Park","area":13447700480,"sort_rank":24,"source":"openstreetmap.org","min_zoom":4.0,"tier":2,"id":-4581589,"osm_relation":true},"arcs":[[620]]},{"type":"Polygon","properties":{"kind":"national_park","name":"Lake Manyara National Park","area":271823008,"sort_rank":18,"operator":"Tanzania National Parks (TANAPA)","source":"openstreetmap.org","min_zoom":5.0,"tier":1,"id":39250192,"protect_class":"2"},"arcs":[[621]]},{"type":"Polygon","properties":{"kind":"park","name":"Maasai Mara National Reserve","area":1532450048,"sort_rank":24,"source":"openstreetmap.org","min_zoom":4.0,"tier":2,"id":-4511930,"osm_relation":true},"arcs":[[622]]},{"type":"Polygon","properties":{"kind":"nature_reserve","name":"Selous Game Reserve","area":48719998976,"sort_rank":23,"source":"openstreetmap.org","min_zoom":4.0,"tier":2,"id":-2961785,"osm_relation":true},"arcs":[[623]]}]}},"type":"Topology","transform":{"translate":[33.75,-11.1784018737],"scale":[0.002746582,0.002729102]},"arcs":[[[96,623],[12,-4],[12,-8],[4,-4],[5,-3],[12,-15],[3,-1],[6,-7],[10,-5],[36,-37],[11,-4],[2,-5],[1,-7],[2,-7],[2,-3],[8,-8],[2,-1],[6,-6],[1,-2],[36,-44],[4,-8],[11,-15],[4,-13],[1,-4],[-1,-4],[-3,-7],[-1,-4],[3,-12],[12,-27],[3,-20],[3,-8],[1,-4],[0,-4],[-7,-40],[1,-8],[7,-12],[2,-7],[-1,-3],[-3,-8],[-1,-5],[0,-2],[1,-3],[1,-5],[3,-5],[3,-4],[3,-1]],[[59,535],[6,7],[0,2],[5,4],[3,3],[2,5],[0,7],[2,11],[1,6],[-7,17],[6,9],[8,7],[5,5],[6,5]],[[316,219],[1,-1],[1,0],[1,-4],[0,-7],[1,-2],[8,-10],[3,-7],[1,-8],[-5,-8],[2,-3],[1,-2],[1,-2],[3,-2],[2,-2],[1,-5],[-5,-3],[-2,-3],[2,-10],[-5,-23],[0,-16],[-1,-4],[-7,-15],[-3,-4],[-7,-9],[-2,-10],[1,-7],[5,-15],[1,-9],[3,-7],[17,-14],[2,-4],[1,-3]],[[313,219],[3,0]],[[0,581],[4,-3],[10,-9],[9,-7],[9,-3],[10,-6],[9,-8],[4,-7],[4,-3]],[[85,3729],[6,0],[1,-10],[5,-3],[13,-1],[27,-16],[79,-43],[78,-44],[59,-34],[19,-10],[78,-44],[78,-44],[17,-9],[61,-35],[79,-44],[78,-44],[78,-44],[78,-44],[78,-44],[78,-44],[79,-43],[78,-44],[78,-44],[28,-16],[50,-28],[30,-17],[6,-9],[6,-40],[1,-5],[7,-44],[-6,-1],[-4,-3],[-1,-5],[0,-7],[-7,0],[-8,-5],[-8,-6],[-6,-6],[-2,-4],[-1,-4],[-1,-4],[0,-4],[3,-3],[6,0],[2,-3],[-2,-6],[-3,-7],[1,-5]],[[56,3729],[28,0],[1,0]],[[1419,2810],[8,-1],[7,-2],[7,-3],[5,-5],[3,-6],[6,-22],[4,-8],[5,-6],[20,-15],[31,-22],[31,-23],[31,-22],[31,-23],[31,-22],[31,-23],[29,-21],[2,-1],[31,-23],[31,-22],[32,-23],[31,-22],[31,-23],[31,-22],[31,-23],[31,-23],[31,-22]],[[1401,2809],[18,1]],[[0,3729],[26,0],[30,0]],[[1998,2],[9,2],[9,5],[71,57],[6,3],[6,2],[28,2],[61,13],[10,4],[36,25],[38,16],[7,4],[45,35],[10,4],[4,4],[7,9],[22,21],[14,10],[23,8],[13,10],[12,11],[6,11]],[[1957,14],[9,-2],[15,-8],[8,-2],[9,0]],[[1934,7],[12,2],[11,5]],[[1886,7],[48,0]],[[1869,0],[5,4],[12,3]],[[2628,4096],[0,-1],[1,-30],[0,-25],[0,-24],[1,-40],[0,-40],[1,-40],[0,-40],[1,-25],[0,-26],[0,-28],[10,-12],[9,-12],[9,-12],[9,-12],[18,-24],[19,-24],[20,-26],[17,-22],[18,-23],[18,-24],[19,-24],[18,-24],[14,-18],[4,-8],[2,-7],[-1,-23],[-1,-8]],[[56,3729],[-2,74],[-1,50],[6,53],[8,75],[7,58],[0,15],[-12,37],[-1,5]],[[1819,4072],[-1,24]],[[1110,3587],[-2,1],[-2,0],[-11,5],[-4,2],[-3,3],[-4,5],[-3,5],[-3,4],[-13,8]],[[1136,3578],[-6,6],[-4,2],[-2,1],[-4,1]],[[1120,3588],[-10,-1]],[[1478,2933],[5,0],[3,3],[1,5],[6,52],[24,84]],[[1471,2933],[3,0],[4,0]],[[1431,2926],[6,2],[34,5]],[[69,1348],[-17,8],[-15,10],[-7,2],[-6,4],[-2,15],[-6,15],[-1,10],[-5,8],[-10,4]],[[1326,1975],[11,-4],[2,-2],[1,-2],[5,-2]],[[1245,1857],[9,10],[8,14],[15,12],[12,14],[13,5],[11,11],[7,42],[6,10]],[[1350,1965],[7,-3],[6,-1],[12,-5],[5,-17],[23,-27],[9,-7]],[[1345,1965],[5,0]],[[1205,1946],[6,-39],[11,-5],[10,-4],[-8,-11],[1,-9],[2,-2],[0,-4],[8,-9],[10,-6]],[[1469,1931],[6,5]],[[1461,1933],[8,-2]],[[1441,1914],[15,4],[-1,11],[6,4]],[[1422,1915],[19,-1]],[[1412,1905],[10,10]],[[368,2703],[23,-21],[25,-19]],[[241,2645],[-9,-10],[-22,-6],[-14,-12]],[[2070,1464]],[[2267,366]],[[1839,1911]],[[1074,1666],[4,6],[2,8],[8,19],[9,35],[15,8],[19,30],[-9,86],[0,21],[11,18]],[[1063,1668],[6,-1],[5,-1]],[[993,1395],[14,14],[2,17],[-4,18],[-2,18],[4,17],[16,32],[30,19],[1,16],[-1,66],[8,27],[6,8],[0,9],[-5,6],[1,6]],[[1475,1185],[-2,-3],[-4,-7],[-2,-3],[-3,-2],[-10,-6],[-6,-4],[-4,-6],[-7,-12],[-2,-3],[-3,-2],[-2,-2],[-1,-3],[0,-4],[0,-3],[-1,-2],[-10,-11],[-2,-5],[-1,-5],[-3,-6],[-6,-3],[-6,-2],[-5,-2],[-3,-3],[-13,-20],[-4,-11],[-6,-7],[-1,-5],[-2,-3],[-3,-2],[-5,-2],[-2,-1],[-7,-9],[-10,-19],[-7,-8],[-7,-8],[-8,-9],[-2,-11],[6,-11],[1,-5],[0,-8],[-1,-8],[-8,-28],[-16,-32],[-2,-11],[5,-33],[0,-12],[9,-24],[-3,-23],[11,-16],[-3,-14],[-20,-6],[-17,-14],[-3,-24],[-4,-10],[-6,-11],[-29,-88]],[[1133,1897],[19,6],[53,43]],[[1133,1897],[-25,7],[-25,10],[-18,16],[-13,20],[-11,22],[-14,18],[-24,11],[-22,13],[-13,17],[-10,18],[-17,17],[-19,15],[-14,15],[-5,17],[7,21],[-4,23],[8,19],[11,18],[8,26],[13,88],[5,75],[-2,12],[-9,18],[-6,20],[-3,21],[-3,109]],[[802,2502],[11,18],[4,3],[9,5],[11,9],[91,26]],[[784,2502],[18,0]],[[766,2491],[9,5],[9,6]],[[754,2498],[6,-3],[6,-4]],[[700,2452],[28,20],[16,15],[4,6],[6,5]],[[692,2455],[8,-3]],[[622,2311],[19,4],[8,13],[25,51],[18,29],[4,14],[-7,13],[-2,6],[0,6],[1,6],[4,2]],[[579,2317],[5,0],[5,-3],[33,-3]],[[1206,3619],[2,0],[1,1],[7,7],[4,4],[2,2],[9,10]],[[1174,3623],[2,0],[4,-1],[4,0],[19,-3],[3,0]],[[1146,3577],[3,1],[3,4],[3,3],[1,1],[0,2],[-5,7],[-1,2],[0,1],[1,1],[16,11],[2,3],[1,2],[1,6],[1,2],[2,0]],[[1136,3578],[10,-1]],[[1307,3804],[3,0],[48,18],[4,3],[1,1],[-1,2],[-1,1],[-1,2],[-2,6],[-1,4],[0,26],[0,3],[0,10],[-3,5],[-12,14],[-1,3],[0,3],[0,29],[-1,5],[-39,95],[-2,4],[-76,57],[-1,1]],[[1285,3818],[2,0],[1,-1],[3,-2],[5,-5],[7,-5],[2,-1],[2,0]],[[1301,3737],[-2,1],[-1,0],[-1,2],[-2,1],[-3,7],[-4,14],[-1,1],[-1,2],[-1,1],[-13,11],[-1,3],[0,4],[3,26],[1,4],[1,2],[1,0],[3,2],[2,0],[2,0],[1,0]],[[1301,3697],[1,0],[4,4],[10,14],[0,8],[1,8],[2,3],[0,3],[0,2],[0,2],[-1,2],[-2,1]],[[1316,3744],[-1,0],[-2,-1],[-6,-4],[-2,-1],[-1,0],[-3,-1]],[[1285,3705],[2,0],[2,0],[11,-8],[1,0]],[[1270,3701],[4,0],[2,1],[3,2],[2,1],[4,0]],[[1262,3701],[2,0],[2,0],[4,0]],[[1231,3643],[5,5],[8,15],[4,13],[0,2],[-1,6],[-1,4],[1,3],[2,2],[2,3],[7,4],[2,1],[2,0]],[[1197,3650],[-6,0],[-5,1],[-3,1],[-6,3],[-6,4],[-2,1],[0,2],[0,2],[0,2],[4,6],[0,1],[-1,1],[-1,1],[-3,1],[-1,1],[-3,1],[-2,1]],[[1162,3679],[-2,-1],[-9,-11],[-2,-1],[-2,-1],[-6,-1],[-3,0],[-3,-2],[-3,0]],[[1132,3662],[-2,0],[-14,5],[-2,0]],[[1114,3667],[-3,-1],[-4,-3],[-12,-15],[-2,-2],[-4,-2],[-3,-1],[-3,-1],[-2,-2],[-6,-9],[-10,-11]],[[1231,3643],[-5,6],[-4,3],[-5,3]],[[1217,3655],[-10,-2],[-5,-2],[-2,0],[-3,-1]],[[1136,3578],[-3,-13],[1,-2],[2,-2],[2,-1]],[[1157,3567],[5,-1],[9,-2],[4,-1],[1,-2],[-2,-9],[-4,-8],[0,-2],[1,-4],[2,-7],[9,-15],[54,-64],[5,-8],[-4,-13],[0,-4],[1,-4],[4,-10],[0,-2],[3,-6],[3,-8],[4,-4],[3,-3],[8,-3],[6,-3],[7,-5],[16,-16],[18,-3],[10,-3],[20,-11],[10,-6],[7,-6],[8,-5],[2,-1],[7,-2],[3,-2],[22,-18],[11,-3],[2,-1]],[[1138,3560],[2,0],[2,1],[12,5],[3,1]],[[1424,3304],[5,-1],[5,-3],[9,-5],[2,-3],[1,-2],[-2,0],[-6,-2],[-3,-1],[-2,-1],[-1,-1],[-2,-1],[-1,-2],[-1,-1],[0,-2],[-3,-19],[-1,-2],[-2,-3],[-1,-2],[-2,0],[-2,-1],[-6,-2],[-2,0],[-1,-1],[-2,-1],[-3,-4],[-3,-3],[-1,-1],[0,-3],[1,-4],[2,-2],[108,-126],[3,-9],[4,-19]],[[1412,3302],[5,1],[4,0],[3,1]],[[914,4096],[-1,-3],[-5,-15],[-1,-2],[-5,-9],[-2,-7],[-1,-2],[-1,-5],[-1,-9],[0,-18],[0,-4],[-4,-11],[-1,-2],[0,-3],[0,-4],[1,-5],[1,-3],[18,-40],[1,-1],[1,-1],[2,0],[2,-1],[2,0]],[[1063,4041],[-7,2],[-16,1],[-7,1],[-4,4],[-12,10],[-1,1],[0,2],[-1,4],[0,2],[0,2],[1,2],[1,2],[2,2],[3,2],[28,18]],[[1211,4096],[-9,-15],[-5,-6],[-9,-10],[-2,-3],[-1,-2],[0,-5],[0,-2],[1,-2],[9,-14],[0,-3],[-1,-14],[-1,-5],[-1,-4],[-1,-1],[-1,-2],[-6,-5],[-3,-4],[-2,-2],[-4,-6],[-3,-3],[-2,0],[-2,0]],[[1152,3986],[-1,0],[-1,0],[-2,0],[-4,3],[-4,4],[-14,18],[-1,2],[-2,5],[0,2],[0,1],[3,1],[2,1],[1,2],[0,1],[1,3],[1,7],[0,5],[1,2],[-1,1],[-18,6],[-3,1]],[[1110,4051],[-4,-1],[-26,-6],[-17,-3]],[[1168,3988],[-2,0],[-5,3],[-1,0]],[[1160,3991],[-2,-1],[-2,-2],[-1,-1],[-3,-1]],[[934,3954],[2,0],[2,-1],[1,-1],[0,-2],[1,-2],[1,-1],[2,0]],[[920,3951],[4,1],[8,2],[2,0]],[[955,3950],[2,-1],[1,-1],[0,-2],[2,-6],[0,-2],[-1,-5],[0,-3],[-1,-6],[3,-18],[0,-9],[1,-4],[2,-4],[1,-6],[0,-1],[1,-1],[1,0]],[[943,3947],[11,3],[1,0]],[[984,3883],[1,0],[2,-1],[1,-2],[2,-4],[1,-1],[1,-1],[4,-1],[3,-1],[2,0],[1,-1],[2,0],[0,-2],[3,-11],[0,-7],[5,-21],[0,-3],[0,-3],[-4,-10],[0,-3],[3,-15],[12,-35],[1,-2],[0,-1],[-1,-7],[0,-3],[1,-1],[2,-8],[1,-2],[5,-6],[0,-1],[0,-1],[0,-1],[-2,-9],[-1,-7],[0,-2],[3,-11],[0,-3],[-1,-4],[-1,-2],[-1,-1],[-2,-1],[-2,0]],[[967,3881],[8,2],[4,0],[5,0]],[[1025,3688],[-7,0]],[[1018,3688],[-1,-1],[-2,-1],[-13,-41],[0,-5],[2,-3],[43,-6],[2,-1],[2,-1],[5,-4],[6,-3],[3,-2]],[[367,4093],[2,3]],[[1778,4080],[-22,7]],[[1756,4087],[-10,0],[-18,-13],[-11,-6]],[[1797,4079],[-6,1],[-5,2]],[[1786,4082],[-8,-2]],[[1819,4072],[-9,3],[-4,3],[-2,3]],[[1804,4081],[-2,-1],[-5,-1]],[[1717,4068],[-8,4]],[[1709,4072],[-3,-1],[-4,0]],[[1702,4071],[-3,0]],[[1699,4071],[0,-5],[165,-287],[44,-95],[2,-8],[2,-198],[-1,-2],[-1,-3],[-9,-9],[-3,-5],[-1,-5],[0,-4],[9,-57],[0,-11],[-2,-7],[-66,-134],[-2,-2],[-4,-3],[-1,-1],[-2,0],[-6,-2],[-2,-1],[-3,-2],[-1,-1],[-7,-10],[-1,-1],[-7,-4],[-2,-1],[-2,-1],[-4,0]],[[1794,3212],[-5,0],[-5,1],[-6,2]],[[1778,3215],[-2,-1],[1,-2],[150,-222],[0,-1],[-1,0]],[[1710,3002],[-1,0],[-2,3],[-5,5],[-5,5],[-1,1],[-16,6],[-2,1],[-2,2],[-2,2],[0,1],[-2,6],[-8,15],[-15,24],[-7,6],[-1,1],[-5,2],[-2,1],[-13,5],[-11,9],[-1,1],[-6,9],[-2,1],[-1,1],[-2,1],[-2,0]],[[1596,3110],[-2,0],[-2,-2],[-3,-4],[-9,-6],[-44,-21],[-9,-2]],[[1527,3075],[-10,2]],[[1788,2986],[-2,0],[-1,1],[-6,4],[-4,1],[-4,1],[-1,1],[-2,1],[-1,1],[-1,2],[-1,1],[-3,2],[-2,1],[-5,2],[-6,4],[-3,1],[-2,1],[-4,1],[-2,0]],[[1738,3011],[-2,0],[-2,-1],[-2,-2],[-1,-1],[-1,0]],[[1730,3007],[-6,1]],[[1724,3008],[-4,-1],[-4,-1],[-2,-1],[-1,0],[-2,-3],[-1,0]],[[1926,2989],[-4,0],[-2,0],[-1,1],[-3,2],[-2,0]],[[1914,2992],[-2,0],[-1,0],[-1,-1],[-2,-2],[-4,-4],[-2,-1],[-2,0]],[[1838,2972],[-1,0],[-1,1],[0,1],[1,2],[1,2],[-1,2],[-1,1],[-18,1],[-11,5],[-2,0],[-2,1],[-2,0]],[[1801,2988],[-11,-2],[-2,0]],[[1900,2984],[-1,0],[-4,2],[-2,0],[-2,1]],[[1891,2987],[-4,-1],[-1,-1],[-2,0],[-3,0]],[[1881,2985],[-6,1]],[[1875,2986],[-2,0],[-2,-1],[-2,-1],[-2,-1],[-5,-4],[-2,-1],[-2,-1],[-6,0],[-2,-1],[-1,0],[-2,-1],[-1,-1],[-6,-2],[-2,0]],[[1932,4082],[3,-1],[2,-1],[1,-2],[2,-1],[4,-4],[20,-24],[31,-1],[6,-3]],[[1887,4062],[5,1],[3,4],[2,5],[3,4],[4,2],[5,2],[12,2],[11,0]],[[1819,4072],[68,-10]],[[2015,4047],[8,0],[6,-3],[3,-3],[4,-3],[11,-2],[3,-2],[2,-2],[1,-2],[2,0],[13,-3],[5,-2],[6,-4],[4,-4],[4,-6],[5,-4],[2,-3],[4,-10],[4,-2]],[[2001,4045],[7,1],[7,1]],[[2107,3993],[4,-1],[1,-2],[4,-7],[1,-1],[6,-4],[5,-9],[14,-52],[2,-6],[5,-1],[2,-3],[2,-4],[0,-6],[2,0],[9,-11],[2,-2],[4,-2],[10,-1],[5,-2],[5,-3],[3,-4],[2,-6],[1,-6],[11,-17],[0,-2],[0,-6],[0,-5],[4,-4],[-3,-5],[0,-6],[5,-12],[1,-11],[1,-4]],[[2102,3992],[5,1]],[[2220,3789],[0,-6],[-1,-2],[-1,-3],[2,-3],[5,-17],[1,-2],[-1,-8],[5,-7],[2,-7],[3,-10],[13,-26],[5,-5],[-3,-3],[-2,-3],[-3,-7],[8,-1],[7,-5],[4,-7],[1,-8],[8,-10],[5,-14],[1,-31],[3,-14],[3,-13],[3,-23],[1,-4],[2,-3],[15,-32],[3,-4],[5,-5],[3,-6],[1,-23],[2,-10],[-1,-3],[-1,-2],[-2,-2],[-1,-1],[0,-6],[3,-16],[-1,-3],[-2,-4],[0,-3],[2,-4],[4,-4],[2,-2],[3,-18],[2,-5],[-2,-1],[-2,-3],[-1,-1],[3,-5],[4,-20],[5,-11],[2,-6],[-2,-3],[0,-3],[2,-6]],[[2215,3788],[3,1],[2,0]],[[2337,3335],[20,7],[281,127],[3,0],[194,13]],[[284,4088],[-3,1],[-2,1],[-2,1],[-1,2],[-1,2],[0,1]],[[91,4096],[-17,-42]],[[329,4089],[-3,0],[-8,4],[-9,3],[-2,0]],[[307,4096],[-6,-2],[-10,-4],[-4,-1],[-3,-1]],[[367,4093],[-8,-2]],[[359,4091],[-6,0],[-7,2]],[[346,4093],[-3,0],[-3,-1],[-8,-3],[-3,0]],[[370,4094],[2,-1],[2,0],[2,-1],[1,-1],[5,-5],[3,-2],[1,-1],[2,-1],[4,0]],[[367,4093],[3,1]],[[494,4089],[2,0],[4,-1],[6,-2],[6,-4],[1,-1],[2,0],[2,0]],[[474,4074],[2,0],[4,2],[2,1],[1,1],[1,1],[3,5],[1,2],[1,1],[1,1],[2,1],[2,0]],[[450,4087],[2,0],[2,-1],[1,-1],[4,-4],[1,-1],[2,0],[1,0],[2,-1],[4,-3],[2,-1],[1,-1],[2,0]],[[431,4080],[2,1],[4,1],[2,0],[5,3],[1,1],[3,0],[2,1]],[[526,4085],[2,-1],[2,0],[1,-1],[2,-1],[2,-2],[1,-2],[1,-4],[2,-11],[1,-1],[2,-1],[1,-1],[7,-3],[2,-2],[1,-2],[0,-4],[0,-3],[1,-1],[17,-14],[1,-1],[1,-1],[1,-2],[0,-3],[0,-3],[-2,-12],[-1,-2],[-1,-1],[-3,-1],[-3,0]],[[517,4081],[2,0],[2,1],[3,2],[1,0],[1,1]],[[414,4083],[17,-3]],[[392,4082],[5,0],[7,0],[10,1]],[[520,4031],[-2,1],[-1,0],[-2,1],[-4,3],[-4,3],[-2,2],[-1,1],[-2,5],[-2,1],[-1,1]],[[499,4049],[-2,-1],[-3,-4],[-8,-16],[-4,-4],[-1,-1],[-4,-1],[-1,-1],[-2,-1],[-1,-2],[-1,-2],[0,-3],[-1,-16],[-1,-6],[0,-2],[0,-3],[-1,-2],[-3,-5],[-2,-1],[-4,-4],[-1,-1],[-3,-4],[-1,-1],[0,-4],[0,-4],[0,-2],[1,-2],[2,-5],[1,-4],[1,-1],[6,-9],[0,-2],[1,-2],[-2,-13],[0,-2],[1,-5],[0,-1],[1,-1],[3,-4],[0,-1],[1,-2],[4,-39],[-1,-11],[-2,-6],[0,-4],[1,-5],[7,-20],[1,-5],[0,-4],[-2,-3],[-4,-4],[-5,-3],[-5,-3],[-4,-5],[-5,-11],[-1,-6],[-2,-3],[-3,-2],[-4,-2],[-97,-28],[-3,0]],[[564,4005],[-2,0],[-2,0],[-2,1],[-1,1],[-2,1],[-2,2],[-2,1],[0,2],[-2,4],[0,2],[-2,1],[-2,0],[-4,1],[-2,0],[-2,1],[-1,2],[-1,1],[-2,5],[-1,2],[-1,1],[-2,1],[-2,0]],[[527,4034],[-2,0],[-3,-2],[-2,-1]],[[346,3740],[-13,1],[-2,0],[-2,1],[-2,1],[-1,0]],[[326,3743],[-2,0],[-2,-1],[-8,-5],[-6,-4],[-6,-4],[-1,-1],[-1,-2],[-1,-3],[1,-4],[7,-11],[1,-2],[0,-4],[1,-4],[2,-4],[5,-7],[4,-18],[2,-2],[9,-7],[5,-9],[3,-7],[13,-61],[1,-5]],[[579,2317],[2,-13],[-6,-12],[-4,-9],[-88,-62],[-2,-12],[7,-12],[1,-14],[0,-13],[5,-15],[6,-15],[6,-24],[8,-13],[10,-10],[5,-12],[6,-10],[6,-4],[4,-5],[2,-2],[4,-1],[1,-6],[1,-7],[9,-15],[12,-13],[4,-11],[-7,-9],[-11,-10],[-2,-15],[-4,-14],[-9,-13],[-13,-31],[-1,-42],[-8,-33],[3,-32],[7,-13],[3,-15],[0,-13],[-6,-11],[-4,-33],[7,-63],[-10,-25],[-46,-2],[6,-34],[2,-39]],[[196,2617],[-1,-16],[-3,-7],[-4,-6],[-2,-11],[-12,-1]],[[174,2576],[-11,4]],[[163,2580],[-9,-8],[-19,-32],[-15,-34],[-43,-56],[-8,-34],[4,-31],[0,-31],[-13,-35],[1,-19],[6,-17],[3,-15],[-10,-28],[2,-16],[3,-15],[11,-11],[18,-7],[17,-10],[12,-9],[12,-8],[32,-33],[8,-10],[-10,-16],[-13,-14],[-24,-20],[-16,-25],[8,-9],[11,-8],[1,-17],[-8,-15],[-9,-8],[-3,-6],[-1,-8],[0,-32],[-19,-71],[-1,-30],[4,-13],[2,-12],[-25,-18],[-22,-18],[-13,-21],[-4,-3],[-9,-1],[-7,-4],[-15,-10],[-2,-2]],[[416,2663],[13,-27],[31,-34],[1,-11],[-21,-28],[-19,-35],[-14,-37],[17,-19],[25,-14],[18,-21],[13,-30],[25,-12],[3,-14],[0,-16],[14,-10],[22,-4],[14,-25],[21,-9]],[[1958,1693],[-3,-3],[-6,-7],[-7,-6],[-7,-16],[-1,-18],[-5,-16],[-10,-13],[-1,-5],[9,-1],[4,-4],[0,-7],[3,-12],[10,-7],[2,-7],[4,-8],[-4,-7],[-8,-4],[-4,-8],[-2,-8],[-6,-8],[-5,-9],[5,-4]],[[2023,1550],[9,-2],[10,-2],[10,-12],[8,-13],[0,-52]],[[2018,1549],[5,1]],[[2013,1550],[5,-1]],[[1987,1535],[6,1],[8,12],[12,2]],[[1982,1536],[5,-1]],[[1973,1525],[6,5],[3,6]],[[1961,1530],[5,-3],[7,-2]],[[1940,1511],[9,5],[5,8],[7,6]],[[1933,1518],[7,-7]],[[1926,1515],[7,3]],[[2065,1470],[4,-5],[1,-1]],[[2060,1469],[5,1]],[[1546,1683],[0,8],[6,7],[10,22],[7,56],[-1,29],[-6,8],[-10,5],[2,3],[6,1],[-9,1],[-9,3],[-6,8],[-4,9],[-9,12],[-10,22],[-7,7],[-2,10],[-1,10],[-11,19],[-17,13]],[[1544,1683],[2,0]],[[1629,1638],[-9,1],[-36,14],[-11,5],[-10,2],[-7,3],[-4,8],[-4,6],[-4,6]],[[1666,1553],[-15,20],[4,22],[9,21],[-6,28],[-6,1]],[[1652,1645],[-7,0],[-4,-2],[-4,-3],[-8,-2]],[[1688,1544],[-4,2],[-4,3],[-6,4]],[[1674,1553],[-8,0]],[[1712,1542],[-5,4],[-8,1]],[[1699,1547],[-5,-2],[-6,-1]],[[1584,1320],[18,4],[18,6],[59,10],[2,13],[-8,16],[-15,45],[8,27],[11,14],[13,8],[15,2],[8,15],[13,17],[9,18],[-2,5],[-4,4],[-1,13],[-7,6]],[[1721,1543],[-9,-1]],[[1558,1325],[13,-2],[13,-3]],[[1475,1185],[3,4],[1,4],[1,8],[4,16],[1,2],[2,3],[1,1],[2,1],[1,3],[2,3],[2,1],[-1,18],[4,17],[0,20],[3,18],[11,10],[14,5],[32,6]],[[1475,1185],[51,-38],[18,-12],[44,-15],[44,-10],[21,-10],[33,-29],[18,-12],[27,-26],[6,-35],[6,-15],[20,0]],[[1996,1061],[14,-11],[5,-2]],[[1839,1024],[23,5],[46,15],[70,16],[18,1]],[[1823,1034],[7,-2],[3,-5],[6,-3]],[[1763,983],[17,10],[8,20],[9,15],[26,6]],[[709,674],[-11,-11],[-13,-9],[-17,-8],[-14,-9],[-11,-11],[-14,-9],[-31,-30],[-24,-12],[-35,-38],[-27,-11],[-12,-6],[-3,-10],[6,-10],[8,-8],[6,-13],[-1,-18],[14,-21],[4,-24],[-31,-42],[-4,-12],[-14,-3]],[[485,359],[-13,0]],[[472,359],[-12,-4],[-9,-10],[-2,-24],[-31,-24],[-27,-13],[-17,-24],[-31,-20],[-10,-4],[-12,-1]],[[321,235],[-4,3],[-5,1]],[[312,239],[-9,-2],[-1,0]],[[993,1395],[8,-37],[7,-10],[10,-5]],[[1031,1344],[5,0],[17,-4],[7,-3],[7,-5],[3,-5],[2,-1],[8,-1],[7,-3],[10,-1],[5,-2],[3,-1],[2,-2],[1,-1],[0,-1],[-1,-12],[0,-4],[3,-3],[7,-3]],[[1018,1343],[5,0],[8,1]],[[1136,1297],[18,-1],[5,-3],[1,0]],[[1117,1292],[5,1],[6,3],[5,1],[3,0]],[[1164,1293],[8,-2],[-18,-23],[-26,-24],[-17,-31],[-13,-32],[-28,-8]],[[1160,1293],[4,0]],[[1070,1173],[-32,9],[-34,4]],[[1004,1186],[-32,-12],[-26,-21],[-12,-10],[0,-4],[-1,-5],[1,-6],[2,-6],[2,-13],[-6,-10],[-21,-4],[-12,-3]],[[899,1092],[-14,3]],[[885,1095],[-31,-19],[-29,-26],[-25,-32],[-13,-38],[-26,-23],[-34,-15],[-11,-11],[-13,-46],[0,-18],[-4,-16]],[[699,851],[-8,6],[-2,31],[-5,9],[-42,7],[-33,9]],[[609,913],[-30,-1],[-1,-16],[6,-14],[0,-17],[-9,-13],[0,-6],[7,-3],[3,-8],[-1,-26],[4,-14]],[[601,803],[8,-3],[25,-38],[69,-54],[5,-17],[1,-17]],[[588,795],[7,3],[6,5]],[[520,1539],[-35,21]],[[725,1505],[-13,1],[-26,15],[-17,6],[-18,2],[-5,3],[0,6],[-4,7],[-9,5],[-17,6],[-17,1]],[[599,1557],[-12,-2],[-13,0],[-10,-3],[-7,-7],[-37,-6]],[[813,1483],[-8,2],[-14,5],[-6,1],[-6,2],[-6,4],[-4,1],[-32,8]],[[737,1506],[-12,-1]],[[846,1485],[-4,0],[-3,2],[-5,1]],[[834,1488],[-21,-5]],[[942,1411],[-4,3],[-1,2],[-1,8],[-2,2],[-2,3],[-4,9],[-3,2],[-5,4],[-2,1],[-4,8],[-2,8],[-4,7],[-9,3],[-7,1],[-33,13],[-5,0]],[[854,1485],[-8,0]],[[993,1395],[-2,9],[-2,5],[-6,4],[-9,2]],[[974,1415],[-17,0],[-10,-3],[-5,-1]],[[485,1560],[-15,5],[-15,1],[-15,4],[-14,1]],[[426,1571],[-6,-5],[-6,-4],[-8,-3],[-6,-5],[-15,-8],[-14,-11],[-4,-36],[-14,-26],[-107,-22],[-18,-22],[1,-11],[-8,-6],[-17,-3]],[[204,1409],[-17,1],[-16,6],[-17,0]],[[154,1416],[-12,-14],[-11,-15],[-30,-21],[-32,-18]],[[69,1348],[9,-6],[6,-7],[-5,-10],[-8,-9],[-10,-23],[-8,-15],[-10,-13],[-6,-13],[-4,-15],[6,-11],[14,-2]],[[222,1233],[19,-2],[54,-12],[13,-10],[16,-5],[98,-16],[4,-11],[-1,-9],[9,-2]],[[53,1224],[169,9]],[[452,1168],[16,-6],[10,-10],[-9,-12],[-15,-13],[-21,-6],[-8,-11],[-13,-30],[-10,-16],[-13,-10],[-15,-5],[-14,-12],[-10,-16],[-8,-15],[6,-15],[8,-12],[6,-12],[-4,-24]],[[434,1166],[18,2]],[[358,943],[-9,-24],[-9,-6]],[[340,913],[-12,2]],[[328,915],[-13,-5],[-12,-8],[-9,-20],[-13,-13],[-17,-7],[-19,0]],[[245,862],[-35,5]],[[210,867],[-36,-9],[-21,-1]],[[153,857],[-21,2]],[[132,859],[-19,-7],[-4,-11],[-10,-3]],[[99,838],[-27,9]],[[72,847],[-19,-4],[-15,-13],[-21,-34],[2,-18],[12,-13],[8,-16],[6,-17],[-7,-4],[-2,-7],[12,-3],[4,-5],[1,-11],[8,-11],[20,-34],[11,-15],[7,-3],[7,-1],[15,-15],[-1,-12]],[[733,501],[-16,12],[2,23],[6,4],[8,1],[7,6],[16,25],[12,15],[3,8],[-3,8],[1,11],[6,12],[14,13],[6,18],[-6,13],[-4,13],[-2,26],[-1,7],[0,6],[2,4],[-1,3]],[[783,729],[-24,-26],[-21,-20],[-14,-6],[-15,-3]],[[1003,446],[-10,17],[20,26],[12,30],[-15,27],[-11,28],[0,11],[-5,11]],[[994,596],[-4,-2],[-7,-2],[0,-17],[-3,-9],[-17,-23],[-9,-10],[-2,-1],[-30,-5]],[[1235,593],[-27,-8],[-32,-25],[-12,-5],[-29,-18],[-24,-22],[-21,-24],[-29,-26],[-34,-18],[-24,-1]],[[853,531],[-3,3],[1,4]],[[851,538],[-16,-4],[-16,-15],[-4,-9],[-6,-8],[-13,-1]],[[868,523],[-10,6],[-2,3]],[[856,532],[-3,-1]],[[922,527],[-22,4]],[[900,531],[-32,-8]],[[796,501],[-13,2]],[[783,503],[-50,-2]],[[1235,593],[-5,-22],[-8,-22],[-16,-22],[-28,-31],[-30,-27],[-9,-20],[-3,-23],[1,-26],[-1,-27],[18,-15],[88,-34],[203,-49],[17,-12],[11,-6],[9,-8],[9,-15],[4,-8],[3,-8],[9,-17],[5,-17],[7,-9],[8,-9],[18,-34]],[[2267,366],[-12,-7],[-12,-9],[-59,-34],[-15,-5],[-10,-12],[-2,-16],[-6,-14],[0,-10],[9,-8],[2,-13],[-8,-13],[-12,-11]],[[2142,214],[-15,8],[-11,25],[-6,4],[-5,7],[-12,33],[-28,18]],[[2065,309],[-9,0],[-9,-2],[-9,-10],[-12,-5]],[[2026,292],[-11,0]],[[2015,292],[-4,-8],[-4,-16],[-16,-3]],[[1991,265],[-5,10],[-2,12],[-12,2]],[[1972,289],[-15,-6],[-30,-17],[-17,-5],[-28,-13],[-10,-7],[-7,-8],[-25,-2]],[[1840,231],[-14,4],[-11,7],[-12,1]],[[1803,243],[-12,-6],[-32,-2],[-97,-40],[-23,-23],[-18,-27],[-12,-8],[-64,-5]],[[1545,132],[11,-74],[17,-58]],[[1565,2264],[-3,14],[-6,10],[-4,10],[-3,12],[-7,9],[-5,16],[0,18],[3,24],[18,19]],[[1528,2278],[10,-7],[10,-6],[17,-1]],[[1456,2261],[23,5],[18,6],[25,5],[6,1]],[[1399,2272],[18,0],[18,-6],[21,-5]],[[1205,1946],[44,29],[11,19],[8,43],[7,20],[33,43],[9,25],[8,35],[0,10],[-3,10],[3,9],[54,65],[20,18]],[[1683,1900],[-10,4],[-10,14],[-15,4],[-14,5],[-10,11],[-23,11],[-26,3]],[[1575,1952],[-9,-5],[-11,-2]],[[1555,1945],[-25,6]],[[1530,1951],[-55,-15]],[[1839,1911],[-31,5]],[[1808,1916],[-6,-5],[-7,-2]],[[1795,1909],[-5,1]],[[1790,1910],[-5,-1],[-7,-7],[-7,-2],[-21,-9]],[[1718,1889],[-12,2],[-6,4],[-6,6]],[[1694,1901],[-11,-1]],[[1732,1892],[-6,3]],[[1726,1895],[-4,-3],[-4,-3]],[[1750,1891],[-5,2]],[[1745,1893],[-5,-1],[-8,0]],[[1206,2817],[-13,-5],[-11,-8],[-7,-9],[-8,-8],[-28,0],[-9,-11],[-9,-12],[-11,-3]],[[1110,2761],[-7,13],[-7,4],[-7,2]],[[1089,2780],[-26,-1],[-3,-3],[0,-4],[-2,-6],[-7,-2],[-8,-7],[-7,-2],[-7,-2],[-21,-29],[-6,-15],[3,-41],[8,-47],[-1,-21],[-5,-2]],[[1007,2598],[-6,2],[-10,0]],[[991,2600],[-10,-3],[-17,-1],[-16,-3],[-4,-8],[-17,-2]],[[927,2583],[-18,8]],[[717,2790],[9,-1],[5,-18],[-9,-26],[-2,-27],[8,-25]],[[660,2716],[6,10],[-1,14],[43,11],[7,13],[2,26]],[[609,2768],[14,-8],[14,-2],[12,-5],[-9,-11],[-8,-12],[11,-12],[17,-2]],[[532,2726],[10,3],[13,9],[14,5],[24,25],[16,0]],[[797,2760],[12,-17],[18,-32],[82,-120]],[[728,2693],[7,2],[1,11],[10,12],[13,12],[17,23],[21,7]],[[520,2726],[12,0]],[[416,2663],[12,7],[14,6],[13,7],[21,6],[5,6],[1,5],[4,5],[34,21]],[[1258,2832],[5,-6],[4,-7],[10,-3],[11,0],[5,-5],[-1,-7],[11,-27],[20,-21],[13,-23],[11,-19],[6,-17],[-1,-40],[3,-19],[5,-7],[8,-28],[2,-10],[0,-10],[-5,-14],[0,-11],[0,-12],[-2,-28],[1,-28],[12,-21],[19,-15],[8,-2],[32,-17],[25,-20],[9,-3]],[[1234,2819],[10,10],[7,2],[7,1]],[[1224,2820],[10,-1]],[[1206,2817],[9,2],[9,1]],[[1499,2423],[22,-1],[5,-2],[4,-2],[7,-2],[4,-1],[8,-7],[9,-12]],[[1469,2412],[8,1],[14,9],[8,1]],[[1558,2396],[17,12],[124,178]],[[1266,3050],[14,-2],[11,-7],[30,-12],[17,-4]],[[1259,3047],[7,3]],[[1253,3050],[6,-3]],[[1206,2817],[-1,66],[-13,25],[-26,17],[-11,5],[-9,9],[-4,17],[0,18],[8,24],[25,7],[12,5],[9,10],[22,18],[16,11],[19,1]],[[44,3292],[-14,8],[0,4],[-6,14],[-11,10],[-13,4]],[[78,3295],[-25,2]],[[53,3297],[-9,-5]],[[93,3296],[-15,-1]],[[531,3185],[15,43],[9,4],[10,3],[9,20],[5,21],[-5,19],[-20,6],[-14,9],[-3,16],[8,145]],[[0,3124],[5,-3],[9,-17],[-2,-10],[-7,-8]],[[5,3086],[-5,1]],[[0,2656],[25,-8],[22,-1],[11,-2],[10,-6],[7,-10],[10,-7],[12,-3],[12,0]],[[117,2621],[7,-3],[6,-5],[7,-2],[13,-1],[13,-5]],[[109,2619],[8,2]],[[186,2618],[10,-1]],[[163,2605],[10,0],[4,9],[9,4]],[[368,2703],[-13,-3],[-10,-8],[-5,-7],[-61,-26],[-14,-2],[-13,-4],[-11,-8]],[[468,3009],[6,4],[6,4],[20,9],[10,19],[24,104],[-3,36]],[[419,3040],[13,-2],[14,-11],[8,-14],[14,-4]],[[406,2769],[10,9],[3,262]],[[397,2771],[9,-2]],[[368,2703],[-4,14],[1,15],[10,14],[13,11],[2,5],[0,6],[7,3]],[[104,3315],[23,-22],[13,-2],[13,0],[28,-15],[10,-2],[9,-5],[8,-12],[12,-9],[27,-16],[10,-12],[8,-13],[11,-5]],[[93,3296],[2,13],[9,6]],[[287,3204],[10,-1],[20,-14],[14,-6]],[[276,3202],[11,2]],[[331,3183],[200,2]],[[2011,1885],[1,-7],[2,-8],[-3,-28],[1,-10],[4,-8],[6,-7],[1,-7],[1,-3]],[[1998,1886],[13,-1]],[[1985,1885],[13,1]],[[1984,1885],[1,0]],[[2011,1885],[27,2],[14,9],[2,1]],[[2185,2206],[11,0],[3,-4],[-2,-5],[2,-5],[7,-2]],[[2182,2205],[3,1]],[[2206,2190],[7,4],[10,3]],[[366,2712],[5,5],[3,6],[5,6],[5,7],[-18,-4],[-8,10],[5,2],[5,0],[4,5],[4,5],[8,6],[4,11],[37,-3],[34,14],[26,22],[27,24],[7,5],[7,5],[4,7],[3,6],[16,15],[16,2],[8,-18],[5,-18],[-9,-11],[-15,-5],[-1,-5],[-3,-5],[-7,-2],[-6,-4],[0,-13],[9,-4],[-8,-11],[-12,-11],[-8,-3],[-7,-2],[-6,-8],[-6,-6],[-16,-2],[-16,-5],[-9,-1],[-9,0],[-9,-4],[-10,-4],[-17,-6],[-16,-8],[-15,-6],[-16,6]],[[170,0],[2,7],[10,17],[-5,7],[-3,12],[2,46],[-6,71],[-5,20],[0,6],[2,12],[0,5],[-3,6],[-4,5],[-2,6],[3,6],[2,3],[9,5],[3,3],[-1,2],[-1,3],[-1,3],[-1,12],[2,3],[7,5],[3,2],[2,-1],[2,0],[3,4],[-1,1],[-4,10],[-4,12],[-3,5],[-13,15],[-4,6],[-2,5],[-2,6],[-6,5],[-11,8],[-21,20],[-30,44],[-10,24],[-4,25],[0,13],[-1,3],[-2,1],[-3,1],[-3,1],[-9,20],[-2,25],[1,12],[3,3],[6,7],[0,2],[5,4],[3,3],[2,5],[0,7],[2,11],[1,6],[-7,17],[6,9],[8,7],[5,5],[6,5],[12,-4],[12,-8],[4,-4],[5,-3],[12,-15],[3,-1],[6,-7],[10,-5],[36,-37],[11,-4],[2,-5],[1,-7],[2,-7],[2,-3],[8,-8],[2,-1],[6,-6],[1,-2],[36,-44],[4,-8],[11,-15],[4,-13],[1,-4],[-1,-4],[-3,-7],[-1,-4],[3,-12],[12,-27],[3,-20],[3,-8],[1,-4],[0,-4],[-7,-40],[1,-8],[7,-12],[2,-7],[-1,-3],[-3,-8],[-1,-5],[1,-5],[1,-5],[3,-5],[3,-4],[3,-1],[3,0],[2,-1],[1,-4],[0,-7],[1,-2],[8,-10],[3,-7],[1,-8],[-5,-8],[2,-3],[1,-2],[1,-2],[3,-2],[2,-2],[1,-5],[-5,-3],[-2,-3],[2,-10],[-5,-23],[0,-16],[-1,-4],[-7,-15],[-10,-13],[-2,-10],[1,-7],[5,-15],[1,-9],[3,-7],[17,-14],[2,-4],[1,-3],[-167,0]],[[60,3535],[-4,1],[-5,3],[-4,1],[-3,0],[-11,0],[-6,2],[-3,5],[-2,6],[-5,4],[-1,-4],[-4,0],[-4,1],[-6,1],[-2,-1],[0,542],[89,0],[1,-4],[0,-11],[1,-1],[7,-1],[2,-1],[2,-1],[0,-2],[-3,-5],[2,-1],[4,0],[2,0],[4,-5],[-1,1],[1,-2],[0,-2],[1,-2],[3,-2],[0,4],[0,2],[1,3],[1,3],[-2,0],[4,4],[6,1],[11,1],[4,-3],[-1,-5],[-7,-10],[6,0],[3,-2],[0,-2],[-5,-1],[-3,-1],[-9,-5],[-2,-1],[3,-11],[11,-6],[13,-2],[10,1],[-1,-8],[4,-4],[13,-6],[7,-5],[1,-5],[-6,-12],[5,-1],[3,-2],[-2,-3],[-3,-4],[3,-1],[4,-2],[3,-3],[2,-2],[1,-4],[-1,-4],[-2,-3],[0,-2],[6,-5],[5,2],[4,6],[2,6],[2,6],[19,14],[4,7],[0,7],[-2,8],[-3,7],[-6,-2],[-4,3],[-2,6],[2,6],[5,3],[6,1],[11,-2],[15,5],[5,0],[11,-4],[5,0],[6,3],[4,5],[6,3],[5,3],[14,2],[8,5],[8,2],[5,3],[4,4],[2,3],[17,0],[5,2],[0,-9],[-2,-5],[0,-6],[5,-8],[2,2],[3,-4],[4,-5],[5,-4],[5,-2],[1,-4],[12,-23],[2,-1],[3,-2],[3,-3],[-2,-2],[-1,-1],[-1,-3],[-2,-2],[-3,-1],[-7,2],[-10,7],[-4,-2],[-8,2],[-1,-5],[3,-7],[-1,-6],[-4,-2],[-23,-2],[-7,1],[-17,4],[-3,0],[-3,-1],[-3,0],[-4,2],[-3,3],[-2,1],[-3,0],[-4,-2],[-6,0],[-11,-2],[-11,-3],[-7,-3],[1,-8],[0,-10],[2,-10],[16,-7],[2,-4],[0,-5],[-1,-4],[-10,-6],[-1,-1],[-4,-2],[-9,-7],[-5,-1],[-6,1],[1,3],[2,3],[2,3],[-1,3],[-3,7],[-2,3],[-3,4],[-3,2],[-5,1],[-5,0],[2,-6],[-2,-5],[-4,-3],[-6,1],[-2,2],[-3,7],[-3,1],[-2,-1],[0,-3],[1,-3],[1,-3],[-9,4],[-15,14],[-10,0],[1,4],[1,1],[-12,-3],[-5,-10],[-5,-25],[-4,-5],[-5,-1],[-13,1],[0,-1],[-6,-6],[-3,-1],[-5,-1],[-2,-1],[3,-3],[3,-3],[3,-4],[1,-5],[-1,-3],[-4,-3],[-3,-3],[-3,-1],[-3,-5],[-3,-33],[7,1],[4,-7],[1,-10],[0,-7],[3,-1],[15,-11],[16,-5],[4,-2],[3,-9],[-5,-6],[-7,-4],[-4,-5],[-4,-15],[-2,-9],[4,-7],[0,-3],[-6,2],[-17,11],[-2,-10],[-3,-2],[-7,2],[4,-6],[5,-1],[6,1],[5,3],[2,-5],[-4,-2],[-6,-1],[-2,-3],[1,-4],[1,0],[1,-1],[-1,-4],[-11,-8],[-3,-1],[-1,-2],[-1,-3],[-1,-1],[-3,-1],[-9,1],[-6,-2],[2,-4],[4,-4],[0,-4],[-10,-13],[-6,-4],[-12,-5],[-5,-4],[-5,-5],[-5,-12],[4,-8],[9,-3],[7,3],[2,0],[-1,-2],[-1,-2],[0,-2],[0,-2],[7,-2],[7,-4],[6,-6],[2,-7],[0,-3],[-1,-4],[-2,-2],[-4,0],[-1,2],[1,3],[1,2],[1,1],[-5,5],[-3,1],[-7,1],[-7,4],[-3,1],[-9,1],[-22,-3],[-6,3],[-5,-6],[3,-5],[9,-10],[-1,-1],[-1,0],[0,-1],[0,-3],[5,2],[4,-1],[3,-4],[3,-4],[-23,7],[-6,-3],[0,-5],[4,-4],[5,-3],[3,0],[6,1],[3,-1],[3,-1],[1,-2],[1,-1],[3,-3],[3,-8],[1,0],[2,1],[1,-1],[4,-3],[2,-3],[-1,-4],[6,4],[3,1],[4,0],[3,-2],[1,-3],[1,-3],[1,-2],[3,-1],[1,-1],[-1,-2],[-3,-1],[-2,0],[-2,2],[-2,1],[-1,-1],[-1,-2],[-2,-2],[-1,0]],[[144,3948],[-9,-4],[0,-5],[4,-1],[7,-1],[4,-1],[15,11],[5,6],[2,11],[-3,-3],[-2,-7],[-2,-3],[-4,0],[-4,3],[-5,8],[-3,-10],[-2,-3],[-3,-1]],[[72,3926],[-1,-3],[2,-2],[8,-1],[10,-6],[6,-3],[4,3],[8,2],[3,3],[2,3],[-1,2],[-2,1],[-1,2],[-3,9],[-5,2],[-12,-4],[-12,-1],[-3,-2],[-2,-2],[-1,-3]],[[0,3332],[13,-4],[11,-10],[6,-14],[0,-4],[-2,-6],[-1,-3],[1,-1],[2,-2],[1,-2],[1,-4],[-21,-14],[-4,0],[-3,-4],[-4,0],[0,68]],[[1350,2782],[5,2],[2,-5],[-1,-7],[-8,-13],[-2,-7],[2,-35],[-4,-7],[-5,5],[-12,21],[-19,19],[-4,8],[1,10],[10,2],[23,-2],[6,4],[6,5]],[[819,3182],[6,-9],[7,9],[-1,15],[-12,11],[-8,26],[0,27],[-5,30],[15,22],[3,5],[3,5],[4,-2],[1,-7],[13,-9],[12,-10],[5,-30],[-7,-28],[-3,-7],[-3,-7],[1,-11],[0,-10],[-4,-5],[-4,-5],[-3,-5],[0,-7],[-6,-14],[-8,-13],[-13,-3],[-13,-1],[-7,10],[5,15],[8,9],[14,-1]],[[1423,3805],[4,2],[5,4],[-4,-18],[-5,-5],[-8,3],[-3,-4],[-3,-3],[-7,-6],[-4,2],[-2,-1],[-1,-4],[0,-4],[-8,1],[-11,-11],[-9,5],[-5,-3],[-9,1],[-5,-2],[-3,-4],[-2,-5],[-3,-2],[-3,2],[1,4],[-1,2],[-2,2],[-1,3],[1,3],[4,2],[1,3],[-1,4],[-1,1],[-1,0],[-3,1],[0,-1],[-8,3],[-1,1],[-11,0],[-4,2],[-4,4],[-10,7],[-4,5],[-2,7],[4,-2],[13,-8],[1,1],[3,2],[2,2],[1,-3],[2,-3],[6,-4],[4,1],[6,-1],[5,-2],[3,-3],[7,3],[4,-4],[3,-6],[4,-3],[2,-1],[2,-1],[2,-1],[3,0],[3,2],[1,3],[2,2],[4,-2],[1,6],[4,1],[4,-2],[4,0],[2,3],[-1,3],[-1,3],[1,3],[2,0],[4,0],[3,-1],[3,-1],[7,0],[4,1],[1,3],[-4,5],[-3,5],[0,5],[1,5],[1,6],[2,0],[2,-4],[2,-4],[1,-4],[-2,-5],[4,-2],[4,1]],[[724,2718],[2,20],[1,20],[-4,10],[1,11],[5,5],[5,5],[0,6],[0,6],[7,22],[10,17],[10,2],[8,7],[6,-3],[2,-10],[4,-7],[0,-8],[-3,-12],[-2,-11],[-8,-21],[4,-22],[-2,-7],[-3,-8],[-3,1],[-3,1],[-1,-3],[-1,-3],[-3,-3],[-2,-4],[-14,-12],[-16,1]],[[2460,0],[-3,9],[0,5],[2,4],[12,13],[6,7],[5,12],[0,10],[-10,4],[-3,-2],[-5,-9],[-4,-1],[-3,3],[3,13],[-4,14],[5,10],[7,9],[7,6],[20,10],[6,7],[-6,7],[-26,13],[-7,6],[-1,-3],[-1,-3],[-2,-2],[-3,-2],[-3,13],[31,24],[12,3],[14,-2],[5,2],[-3,6],[-6,3],[-14,2],[-5,3],[-3,6],[-1,12],[-2,6],[-6,2],[-7,2],[-7,2],[-3,6],[3,4],[5,5],[4,6],[-2,8],[-6,4],[-9,-8],[-7,1],[4,5],[-3,4],[-5,1],[-6,-2],[0,5],[-2,3],[-2,3],[-1,3],[1,4],[4,12],[-3,0],[-5,0],[-2,0],[5,6],[6,5],[3,6],[-3,7],[-2,3],[-1,4],[-2,3],[-3,1],[-5,-1],[-3,-1],[-2,-4],[2,-4],[7,1],[4,-5],[-2,-8],[-12,-3],[-1,1],[-13,2],[-4,3],[-12,26],[-2,3],[-4,4],[-8,3],[-3,3],[-2,5],[-1,5],[-2,4],[-5,1],[-12,-15],[19,-8],[6,-2],[-3,-1],[-2,-1],[-3,0],[-2,2],[-1,-2],[-1,-2],[-1,-3],[0,-3],[-4,3],[-9,8],[-4,3],[-4,1],[-2,0],[-2,-2],[0,-4],[-1,-3],[-3,1],[-6,3],[-2,0],[-2,-1],[-2,0],[-1,3],[1,3],[3,1],[3,2],[-1,3],[-3,7],[1,5],[2,5],[1,5],[-1,4],[-1,0],[-2,0],[-15,5],[-7,2],[-11,5],[-5,1],[-7,1],[-5,0],[0,-3],[3,-8],[2,-5],[0,-7],[-2,-6],[-4,-4],[-3,11],[-1,21],[-22,36],[-9,7],[-5,1],[-5,0],[-5,1],[-7,7],[-11,0],[-5,2],[-8,1],[-17,-20],[-9,-2],[5,4],[5,4],[2,5],[1,7],[-5,9],[1,4],[11,3],[12,5],[4,3],[0,3],[-11,8],[-3,5],[11,-1],[7,3],[2,8],[-2,10],[-2,5],[-3,2],[-6,5],[-3,3],[-2,10],[-2,3],[-2,0],[-15,0],[-3,1],[2,3],[6,6],[7,3],[3,2],[-3,7],[1,8],[-2,4],[-5,5],[-1,2],[-2,4],[1,3],[2,3],[1,2],[-5,3],[-3,6],[-5,20],[-3,7],[-8,8],[-3,3],[0,3],[1,4],[-1,4],[-4,2],[-1,0],[-1,1],[-3,3],[-3,2],[-2,-2],[-1,-4],[-8,0],[-4,-1],[-3,-2],[-1,7],[0,5],[2,4],[4,2],[6,1],[4,-1],[3,1],[5,4],[5,6],[1,5],[-1,12],[0,3],[2,8],[0,4],[-2,2],[-2,3],[-2,4],[0,2],[6,12],[-2,11],[-6,10],[-16,20],[-5,5],[-5,0],[-4,-4],[-6,-3],[-6,-3],[-5,-1],[1,3],[0,3],[-2,6],[-1,4],[2,3],[2,2],[1,4],[-1,2],[-2,1],[-1,1],[-1,0],[0,2],[2,4],[0,7],[-1,1],[-3,3],[-1,1],[0,8],[3,8],[0,5],[-7,2],[-7,0],[-3,2],[2,4],[4,6],[-22,-2],[-5,2],[7,11],[2,1],[2,0],[4,2],[7,1],[6,-3],[7,-9],[7,-7],[1,0],[5,-5],[3,0],[4,-1],[5,2],[-2,3],[-10,8],[-4,6],[-5,13],[-3,5],[-4,3],[-5,2],[-4,3],[-3,6],[-1,7],[-1,5],[-2,2],[-7,0],[-4,2],[-2,2],[-1,3],[-2,2],[-13,4],[3,7],[0,31],[-1,8],[-3,9],[-5,9],[-12,12],[-1,11],[2,21],[0,11],[-2,10],[-3,10],[-5,9],[6,2],[2,4],[0,4],[-3,5],[4,-1],[3,-2],[6,-7],[2,7],[0,3],[5,-2],[-1,6],[1,13],[-2,6],[2,0],[2,1],[1,0],[2,-1],[6,10],[12,33],[11,18],[5,11],[1,11],[-2,-2],[-5,-3],[-2,6],[0,15],[-4,13],[0,4],[6,12],[2,9],[-1,5],[-10,10],[-7,4],[-6,1],[-13,-1],[5,5],[0,5],[-5,5],[-5,5],[-3,-12],[-5,-12],[-8,-9],[-12,-3],[17,19],[1,7],[-5,13],[1,5],[2,6],[-1,7],[-5,11],[-1,8],[0,8],[6,40],[4,14],[10,9],[4,6],[3,8],[1,5],[0,8],[-2,5],[-4,4],[-3,6],[4,0],[6,0],[5,1],[2,4],[-1,3],[-1,3],[-1,3],[3,1],[3,0],[2,1],[5,4],[4,5],[2,5],[1,6],[2,7],[3,3],[0,1],[15,11],[2,-7],[2,-3],[4,0],[4,3],[2,5],[3,10],[3,4],[6,0],[0,9],[-3,24],[1,2],[2,2],[2,2],[0,4],[-1,2],[-18,23],[-3,11],[-6,9],[-2,5],[-2,2],[-14,0],[-5,2],[-5,3],[-11,1],[-5,1],[-11,6],[-5,2],[-7,1],[2,-3],[1,-3],[0,-7],[-7,7],[-1,13],[2,14],[-2,11],[-5,-6],[-7,5],[-5,10],[-3,9],[0,4],[-2,5],[-2,4],[-3,3],[-6,4],[-4,3],[-5,10],[-3,3],[-10,7],[-12,14],[-20,19],[-7,4],[-11,3],[8,-5],[5,-2],[4,-2],[0,-3],[-4,-1],[-4,1],[-4,3],[-10,0],[-4,1],[-2,2],[-1,2],[-1,3],[-3,1],[-5,0],[-1,1],[-3,1],[-2,3],[-3,4],[-1,4],[-1,4],[-2,4],[-3,2],[-5,3],[-4,3],[-4,9],[-2,20],[-2,9],[4,6],[3,8],[0,8],[-1,14],[-1,3],[-5,4],[-8,5],[-3,3],[-1,3],[-4,14],[-1,3],[-5,5],[-1,2],[0,9],[2,8],[4,8],[2,9],[0,1],[1,4],[2,3],[3,2],[1,4],[1,24],[1,8],[2,8],[9,12],[6,14],[5,6],[3,7],[1,17],[2,7],[-5,2],[12,8],[13,19],[10,22],[5,14],[0,6],[-3,2],[-3,2],[-1,3],[1,5],[3,3],[4,2],[4,2],[5,7],[4,8],[16,46],[-2,5],[-6,-7],[-4,-3],[-3,2],[1,3],[11,17],[8,15],[2,3],[14,12],[1,3],[0,3],[-4,9],[-1,5],[-11,-4],[-5,-1],[0,5],[4,7],[1,2],[3,2],[6,-2],[2,1],[2,4],[-2,21],[-1,4],[-6,9],[8,0],[6,7],[6,18],[2,-6],[-1,-7],[-2,-7],[-2,-7],[3,-6],[4,5],[12,20],[2,6],[2,6],[0,8],[-1,8],[-3,2],[-6,0],[-8,4],[10,5],[7,6],[2,12],[-2,10],[-7,2],[-2,2],[1,2],[1,0],[2,0],[1,1],[7,5],[7,10],[8,8],[10,-3],[3,5],[0,2],[9,-11],[13,-3],[13,2],[3,5],[-5,8],[-1,3],[1,5],[2,0],[3,-1],[2,0],[3,5],[2,6],[2,5],[5,4],[1,-5],[-1,-11],[3,-7],[12,38],[1,1],[5,5],[1,2],[0,5],[1,2],[3,4],[3,3],[3,0],[3,-4],[4,10],[12,45],[12,30],[18,31],[1,9],[-7,7],[-13,4],[-12,-1],[-5,-7],[-1,3],[-1,4],[0,8],[1,2],[3,1],[4,-1],[4,0],[11,3],[4,3],[3,7],[-10,2],[-4,2],[-4,3],[4,3],[4,0],[10,-5],[6,5],[0,-5],[0,-8],[2,-5],[3,-2],[2,-8],[4,-2],[3,2],[3,4],[3,4],[1,3],[1,3],[8,8],[1,7],[-4,2],[-8,-1],[-4,4],[-2,3],[-1,3],[-2,4],[-2,4],[3,2],[8,5],[0,-13],[7,-5],[10,2],[10,9],[29,81],[1,12],[-1,5],[-2,6],[-4,3],[-13,-6],[-5,2],[-2,4],[5,6],[-8,0],[-4,3],[-1,5],[3,7],[4,-3],[-1,-1],[-1,-4],[9,0],[2,-1],[5,-5],[2,-1],[8,-4],[3,1],[4,4],[5,9],[3,21],[10,15],[7,20],[7,10],[-1,3],[-1,2],[-1,2],[2,9],[1,3],[0,5],[0,5],[3,4],[7,1],[-1,-5],[-4,-14],[-3,-6],[7,1],[5,4],[8,10],[5,3],[18,8],[5,4],[4,5],[3,5],[3,5],[0,7],[-4,14],[0,4],[12,18],[3,7],[1,18],[2,5],[8,10],[13,12],[2,4],[0,4],[-8,-5],[-7,-1],[-4,4],[1,10],[-7,6],[1,12],[6,23],[1,3],[1,6],[0,2],[-6,8],[0,3],[1,6],[11,14],[7,15],[3,5],[4,5],[18,14],[11,7],[9,3],[15,11],[37,12],[12,1],[12,-3],[11,-5],[11,-2],[12,5],[23,26],[17,7],[11,8],[10,10],[4,9],[-2,5],[-11,7],[-2,5],[3,4],[0,3],[-2,1],[-3,1],[-1,2],[-1,4],[-1,3],[8,-4],[8,7],[8,9],[9,5],[5,1],[3,1],[-1,1],[4,-1],[0,-2],[0,-2],[1,-3],[9,-9],[5,-3],[6,-3],[-12,-6],[1,-4],[9,2],[9,11],[4,9],[-1,4],[-3,6],[-5,3],[-4,0],[-4,0],[-4,1],[-4,9],[-3,14],[0,27],[-1,2],[-3,1],[-3,1],[-1,3],[1,2],[3,2],[1,3],[-1,6],[-3,4],[-5,1],[-6,-3],[1,5],[-1,5],[-2,5],[4,6],[3,-2],[4,-4],[4,-2],[6,-5],[7,-23],[7,-5],[8,10],[1,43],[13,10],[-6,-8],[-1,-5],[1,-5],[0,-4],[-4,-10],[0,-6],[2,-5],[2,-3],[4,-3],[4,-2],[6,-1],[4,4],[4,5],[10,5],[7,8],[4,2],[4,0],[14,-3],[10,-1],[4,8],[1,9],[7,8],[1,-8],[4,-5],[6,0],[7,3],[6,-7],[7,4],[13,16],[21,19],[8,5],[1,7],[14,20],[27,28],[10,10],[-2,0],[7,6],[13,22],[8,5],[7,6],[14,27],[7,11],[8,11],[38,61],[2,7],[0,7],[-4,13],[0,8],[2,0],[2,-11],[8,-5],[8,1],[4,9],[-2,-2],[-4,-2],[-3,0],[-1,3],[2,4],[14,17],[2,3],[2,4],[0,5],[2,3],[9,7],[2,5],[1,4],[3,8],[1,4],[-1,3],[-3,2],[-2,2],[-1,5],[-1,4],[-2,5],[0,4],[1,5],[1,4],[2,4],[-1,5],[2,0],[2,-6],[-1,-14],[2,-16],[2,-2],[4,2],[12,9],[1,3],[2,7],[4,8],[5,6],[6,3],[2,4],[3,8],[0,7],[-7,1],[4,4],[5,1],[11,0],[7,2],[6,3],[5,4],[10,10],[14,23],[2,1],[3,1],[1,2],[0,3],[1,3],[36,44],[12,11],[6,6],[2,6],[3,4],[19,15],[2,-1],[1,-2],[0,-2],[0,-2],[1,1],[4,6],[-5,4],[2,6],[15,20],[2,2],[9,2],[1,2],[0,4],[1,3],[9,13],[25,25],[23,19],[21,18],[43,47],[769,0],[0,-4096],[-1636,0]],[[2137,770],[-3,7],[-18,9],[0,-6],[4,-5],[6,-7],[7,-4],[4,6]],[[2104,966],[-1,5],[-4,4],[-5,3],[-4,1],[1,-7],[6,-5],[7,-1]],[[2173,1131],[11,10],[15,16],[4,5],[-1,5],[-9,1],[-11,-1],[-10,-13],[-5,-7],[-2,-10],[2,-6],[6,0]],[[2154,1167],[8,2],[14,5],[3,5],[3,9],[4,8],[11,3],[10,-3],[4,0],[2,5],[1,2],[3,4],[1,2],[2,8],[1,2],[0,3],[1,2],[4,7],[11,24],[6,24],[0,12],[-5,6],[-1,-3],[-4,-10],[-2,-2],[-3,-2],[-3,-4],[-3,-6],[-3,-9],[-3,-3],[-8,-3],[-7,-5],[-4,-2],[-4,-1],[0,-2],[9,1],[4,-1],[2,-3],[-6,-1],[-12,-5],[-6,-2],[-6,0],[-6,0],[-4,-3],[-2,-6],[3,-4],[-5,-9],[-16,-15],[-2,-1],[-2,0],[-3,0],[0,-3],[-1,0],[-1,-2],[-1,-3],[0,-1],[-3,-1],[-6,-1],[-4,0],[6,-5],[10,-10],[7,-3],[6,0]],[[2119,1743],[1,16],[-9,17],[-2,4],[-6,53],[-4,11],[-6,8],[-1,-8],[2,-11],[0,-7],[-6,1],[0,-1],[0,-1],[-1,0],[-2,0],[-1,4],[-3,0],[-3,-4],[0,-5],[-4,3],[-2,4],[-4,2],[-5,-2],[1,4],[2,3],[5,6],[-3,4],[-2,4],[0,5],[0,5],[0,5],[2,5],[1,4],[-1,5],[-8,2],[-2,1],[-4,17],[-7,11],[-2,6],[0,5],[-3,11],[-2,5],[1,6],[2,15],[-2,13],[-11,20],[-4,12],[-7,-7],[-3,-27],[-3,-12],[-6,-7],[-13,-10],[-6,-10],[-1,2],[-3,3],[-1,2],[-1,-2],[-1,-4],[-1,-4],[1,-5],[-2,-20],[7,-23],[3,-21],[-13,-16],[3,-7],[5,-16],[3,-6],[19,-21],[0,-2],[2,-1],[3,-2],[3,-2],[2,0],[0,1],[1,1],[-4,4],[-1,8],[2,6],[4,-4],[0,2],[0,2],[0,1],[-2,0],[0,3],[5,3],[3,-3],[3,-2],[11,-18],[10,-10],[2,-6],[-2,-7],[10,-3],[2,2],[1,8],[-3,5],[-3,5],[0,4],[8,2],[-1,-5],[7,-32],[4,-7],[5,-6],[5,-5],[14,-4],[13,4],[9,11]],[[1994,1977],[0,5],[-4,-3],[1,-7],[-1,-11],[-1,-6],[1,-6],[4,0],[4,1],[0,7],[-2,5],[2,4],[-3,5],[-1,6]],[[2153,2094],[-4,5],[-6,1],[-5,2],[-5,7],[-3,5],[-6,4],[-3,1],[-2,-4],[3,-5],[5,-5],[3,-4],[6,-7],[6,-5],[10,0],[1,5]],[[2148,2107],[5,-1],[13,0],[2,-4],[3,0],[4,3],[5,1],[0,-3],[-3,-2],[-1,-2],[1,-2],[3,1],[6,4],[4,3],[2,5],[-2,3],[2,2],[1,3],[3,5],[2,0],[-2,-6],[2,-3],[3,1],[2,5],[0,6],[1,2],[1,2],[3,4],[11,32],[4,5],[-3,3],[3,6],[0,21],[3,14],[-1,7],[-5,2],[0,-2],[0,-3],[0,-4],[-3,-1],[-1,1],[-3,11],[1,7],[2,8],[2,7],[-2,6],[5,3],[6,5],[4,6],[-4,14],[1,9],[0,7],[-5,4],[1,-5],[-1,-7],[-2,-7],[-3,-6],[-1,2],[-1,2],[0,3],[-5,-4],[0,-5],[2,-3],[0,-3],[-2,-3],[-2,1],[-1,4],[0,4],[-3,3],[-17,10],[-1,2],[-6,5],[-2,2],[-2,-2],[-1,-3],[-1,-2],[-4,-1],[-1,2],[-1,3],[-2,4],[-3,1],[-1,1],[-1,1],[-1,1],[0,2],[-1,-5],[-2,-11],[0,-4],[4,-5],[6,-3],[4,-4],[-1,-5],[-7,3],[-5,-1],[-1,-6],[2,-7],[6,3],[-2,-4],[-5,-4],[-1,-3],[12,-5],[3,-2],[2,-3],[1,-4],[-2,-1],[-5,2],[-2,0],[-2,-4],[-1,-5],[2,-5],[-2,-2],[0,-1],[-1,-4],[4,2],[4,0],[3,-2],[2,-3],[-1,-2],[-2,-8],[5,6],[4,-2],[1,-6],[-3,-8],[3,-2],[-7,0],[-12,1],[-4,1],[-3,-1],[-2,0],[-3,2],[-4,2],[3,-5],[4,-4],[4,-1],[4,2],[17,-10],[8,-3],[8,3],[-3,-7],[-3,-1],[-7,3],[-6,0],[-8,-2],[-6,0],[2,-3],[3,-3],[4,-1],[4,-1],[-4,-3],[-6,-1],[-7,0],[-6,2],[2,-6],[8,-9],[3,-6],[-13,3],[-5,-1],[3,-4],[-4,-5],[-1,-6],[0,-13],[2,-5]],[[2636,3307],[2,3],[3,1],[4,-2],[13,7],[7,2],[4,1],[1,-1],[1,-2],[2,-2],[3,0],[2,0],[1,1],[1,1],[1,0],[2,2],[1,3],[1,4],[0,4],[4,-8],[7,1],[3,8],[-7,11],[-8,5],[-11,3],[-9,1],[-5,-5],[-3,-7],[-7,-4],[-9,-3],[-7,-4],[-5,-8],[-4,-11],[0,-9],[8,2],[1,-4],[1,-4],[3,-2],[5,0],[1,4],[-3,2],[-3,2],[-2,3],[1,5]],[[3263,4031],[21,18],[43,47]],[[2460,0],[-3,9],[0,5],[2,4],[12,13],[6,7],[5,12],[0,10],[-10,4],[-3,-2],[-5,-9],[-4,-1],[-3,3],[3,13],[-4,14],[5,10],[7,9],[7,6],[20,10],[6,7],[-6,7],[-26,13],[-7,6],[-1,-3],[-1,-3],[-2,-2],[-3,-2],[-3,13],[31,24],[12,3],[14,-2],[5,2],[-3,6],[-6,3],[-14,2],[-5,3],[-3,6],[-1,12],[-2,6],[-6,2],[-7,2],[-7,2],[-3,6],[3,4],[5,5],[4,6],[-2,8],[-6,4],[-9,-8],[-7,1],[4,5],[-3,4],[-5,1],[-6,-2],[0,5],[-2,3],[-2,3],[-1,3],[1,4],[4,12],[-3,0],[-5,0],[-2,0],[5,6],[6,5],[3,6],[-3,7],[-2,3],[-1,4],[-2,3],[-3,1],[-5,-1],[-3,-1],[-2,-4],[2,-4],[7,1],[4,-5],[-2,-8],[-12,-3],[-1,1],[-13,2],[-4,3],[-12,26],[-2,3],[-4,4],[-8,3],[-3,3],[-2,5],[-1,5],[-2,4],[-5,1],[-12,-15],[19,-8],[6,-2],[-3,-1],[-2,-1],[-3,0],[-2,2],[-1,-2],[-1,-2],[-1,-3],[0,-3],[-4,3],[-9,8],[-4,3],[-4,1],[-2,0],[-2,-2],[0,-4],[-1,-3],[-3,1],[-6,3],[-2,0],[-2,-1],[-2,0],[-1,3],[1,3],[3,1],[3,2],[-1,3],[-3,7],[1,5],[2,5],[1,5],[-1,4],[-1,0],[-2,0],[-15,5],[-7,2],[-11,5],[-5,1],[-7,1],[-5,0],[0,-3],[3,-8],[2,-5],[0,-7],[-2,-6],[-4,-4],[-3,11],[-1,21],[-22,36],[-9,7],[-5,1],[-5,0],[-5,1],[-7,7],[-11,0],[-5,2],[-8,1],[-17,-20],[-9,-2],[5,4],[5,4],[2,5],[1,7],[-5,9],[1,4],[11,3],[12,5],[4,3],[0,3],[-11,8],[-3,5],[11,-1],[7,3],[2,8],[-2,10],[-2,5],[-3,2],[-6,5],[-3,3],[-2,10],[-2,3],[-2,0],[-15,0],[-3,1],[2,3],[6,6],[7,3],[3,2],[-3,7],[1,8],[-2,4],[-5,5],[-1,2],[-2,4],[1,3],[2,3],[1,2],[-5,3],[-3,6],[-5,20],[-3,7],[-8,8],[-3,3],[0,3],[1,4],[-1,4],[-4,2],[-1,0],[-1,1],[-3,3],[-3,2],[-2,-2],[-1,-4],[-8,0],[-4,-1],[-3,-2],[-1,7],[0,5],[2,4],[4,2],[6,1],[4,-1],[3,1],[5,4],[5,6],[1,5],[-1,12],[0,3],[2,8],[0,4],[-2,2],[-2,3],[-2,4],[0,2],[6,12],[-2,11],[-6,10],[-16,20],[-5,5],[-5,0],[-4,-4],[-6,-3],[-6,-3],[-5,-1],[1,3],[0,3],[-2,6],[-1,4],[2,3],[2,2],[1,4],[-1,2],[-2,1],[-1,1],[-1,0],[0,2],[2,4],[0,7],[-1,1],[-3,3],[-1,1],[0,8],[3,8],[0,5],[-7,2],[-7,0],[-3,2],[2,4],[4,6],[-22,-2],[-5,2],[7,11],[2,1],[2,0],[4,2],[7,1],[6,-3],[7,-9],[7,-7],[1,0],[5,-5],[3,0],[4,-1],[5,2],[-2,3],[-10,8],[-4,6],[-5,13],[-3,5],[-4,3],[-5,2],[-4,3],[-3,6],[-1,7],[-1,5],[-2,2],[-7,0],[-4,2],[-2,2],[-1,3],[-2,2],[-13,4],[3,7],[0,31],[-1,8],[-3,9],[-5,9],[-12,12],[-1,11],[2,21],[0,11],[-2,10],[-3,10],[-5,9],[6,2],[2,4],[0,4],[-3,5],[4,-1],[3,-2],[6,-7],[2,7],[0,3],[5,-2],[-1,6],[1,13],[-2,6],[2,0],[2,1],[1,0],[2,-1],[6,10],[12,33],[11,18],[5,11],[1,11],[-2,-2],[-5,-3],[-2,6],[0,15],[-4,13],[0,4],[6,12],[2,9],[-1,5],[-10,10],[-7,4],[-6,1],[-13,-1],[5,5],[0,5],[-5,5],[-5,5],[-3,-12],[-5,-12],[-8,-9],[-12,-3],[17,19],[1,7],[-5,13],[1,5],[2,6],[-1,7],[-5,11],[-1,8],[0,8],[6,40],[4,14],[10,9],[4,6],[3,8],[1,5],[0,8],[-2,5],[-4,4],[-3,6],[4,0],[6,0],[5,1],[2,4],[-1,3],[-1,3],[-1,3],[3,1],[3,0],[2,1],[5,4],[4,5],[2,5],[1,6],[2,7],[3,3],[0,1],[15,11],[2,-7],[2,-3],[4,0],[4,3],[2,5],[3,10],[3,4],[6,0],[0,9],[-3,24],[1,2],[2,2],[2,2],[0,4],[-1,2],[-18,23],[-3,11],[-6,9],[-2,5],[-2,2],[-14,0],[-5,2],[-5,3],[-11,1],[-5,1],[-11,6],[-5,2],[-7,1],[2,-3],[1,-3],[0,-7],[-7,7],[-1,13],[2,14],[-2,11],[-5,-6],[-7,5],[-5,10],[-3,9],[0,4],[-2,5],[-2,4],[-3,3],[-6,4],[-4,3],[-5,10],[-3,3],[-10,7],[-12,14],[-20,19],[-7,4],[-11,3],[8,-5],[5,-2],[4,-2],[0,-3],[-4,-1],[-4,1],[-4,3],[-10,0],[-4,1],[-2,2],[-1,2],[-1,3],[-3,1],[-5,0],[-1,1],[-3,1],[-2,3],[-3,4],[-1,4],[-1,4],[-2,4],[-3,2],[-5,3],[-4,3],[-4,9],[-2,20],[-2,9],[4,6],[3,8],[0,8],[-1,14],[-1,3],[-5,4],[-8,5],[-3,3],[-1,3],[-4,14],[-1,3],[-5,5],[-1,2],[0,9],[2,8],[4,8],[2,9],[0,1],[1,4],[2,3],[3,2],[1,4],[1,24],[1,8],[2,8],[9,12],[6,14],[5,6],[3,7],[1,17],[2,7],[-5,2],[12,8],[13,19],[10,22],[5,14],[0,6],[-3,2],[-3,2],[-1,3],[1,5],[3,3],[4,2],[4,2],[5,7],[4,8],[16,46],[-2,5],[-6,-7],[-4,-3],[-3,2],[1,3],[11,17],[8,15],[2,3],[14,12],[1,3],[0,3],[-4,9],[-1,5],[-11,-4],[-5,-1],[0,5],[4,7],[1,2],[3,2],[6,-2],[2,1],[2,4],[-2,21],[-1,4],[-6,9],[8,0],[6,7],[6,18],[2,-6],[-1,-7],[-2,-7],[-2,-7],[3,-6],[4,5],[12,20],[2,6],[2,6],[0,8],[-1,8],[-3,2],[-6,0],[-8,4],[10,5],[7,6],[2,12],[-2,10],[-7,2],[-2,2],[1,2],[1,0],[2,0],[1,1],[7,5],[7,10],[8,8],[10,-3],[3,5],[0,2],[9,-11],[13,-3],[13,2],[3,5],[-5,8],[-1,3],[1,5],[2,0],[3,-1],[2,0],[3,5],[2,6],[2,5],[5,4],[1,-5],[-1,-11],[3,-7],[12,38],[1,1],[5,5],[1,2],[0,5],[1,2],[3,4],[3,3],[3,0],[3,-4],[4,10],[12,45],[12,30],[18,31],[1,9],[-7,7],[-13,4],[-12,-1],[-5,-7],[-1,3],[-1,4],[0,8],[1,2],[3,1],[4,-1],[4,0],[11,3],[4,3],[3,7],[-10,2],[-4,2],[-4,3],[4,3],[4,0],[10,-5],[6,5],[0,-5],[0,-8],[2,-5],[3,-2],[2,-8],[4,-2],[3,2],[3,4],[3,4],[1,3],[1,3],[8,8],[1,7],[-4,2],[-8,-1],[-4,4],[-2,3],[-1,3],[-2,4],[-2,4],[3,2],[8,5],[0,-13],[7,-5],[10,2],[10,9],[29,81],[1,12],[-1,5],[-2,6],[-4,3],[-13,-6],[-5,2],[-2,4],[5,6],[-8,0],[-4,3],[-1,5],[3,7],[4,-3],[-1,-1],[-1,-4],[9,0],[2,-1],[5,-5],[2,-1],[8,-4],[3,1],[4,4],[5,9],[3,21],[10,15],[7,20],[7,10],[-1,3],[-1,2],[-1,2],[2,9],[1,3],[0,5],[0,5],[3,4],[7,1],[-1,-5],[-4,-14],[-3,-6],[7,1],[5,4],[8,10],[5,3],[18,8],[5,4],[4,5],[3,5],[3,5],[0,7],[-4,14],[0,4],[12,18],[3,7],[1,18],[2,5],[8,10],[13,12],[2,4],[0,4],[-8,-5],[-7,-1],[-4,4],[1,10],[-7,6],[1,12],[6,23],[1,3],[1,6],[0,2],[-6,8],[0,3],[1,6],[11,14],[7,15],[3,5],[4,5],[18,14],[11,7],[9,3],[15,11],[37,12],[12,1],[12,-3],[11,-5],[11,-2],[12,5],[23,26],[17,7],[11,8],[10,10],[4,9],[-2,5],[-11,7],[-2,5],[3,4],[0,3],[-2,1],[-3,1],[-1,2],[-1,4],[-1,3],[8,-4],[8,7],[8,9],[9,5],[5,1],[3,1],[-1,1],[4,-1],[0,-2],[0,-2],[1,-3],[9,-9],[5,-3],[6,-3],[-12,-6],[1,-4],[9,2],[9,11],[4,9],[-1,4],[-3,6],[-5,3],[-4,0],[-4,0],[-4,1],[-4,9],[-3,14],[0,27],[-1,2],[-3,1],[-3,1],[-1,3],[1,2],[3,2],[1,3],[-1,6],[-3,4],[-5,1],[-6,-3],[1,5],[-1,5],[-2,5],[4,6],[3,-2],[4,-4],[4,-2],[6,-5],[7,-23],[7,-5],[8,10],[1,43],[13,10],[-6,-8],[-1,-5],[1,-5],[0,-4],[-4,-10],[0,-6],[2,-5],[2,-3],[4,-3],[4,-2],[6,-1],[4,4],[4,5],[10,5],[7,8],[4,2],[4,0],[14,-3],[10,-1],[4,8],[1,9],[7,8],[1,-8],[4,-5],[6,0],[7,3],[6,-7],[7,4],[13,16],[21,19],[8,5],[1,7],[14,20],[27,28],[10,10],[-2,0],[7,6],[13,22],[8,5],[7,6],[14,27],[7,11],[8,11],[38,61],[2,7],[0,7],[-4,13],[0,8],[2,0],[2,-11],[8,-5],[8,1],[4,9],[-2,-2],[-4,-2],[-3,0],[-1,3],[2,4],[14,17],[2,3],[2,4],[0,5],[2,3],[9,7],[2,5],[1,4],[3,8],[1,4],[-1,3],[-3,2],[-2,2],[-1,5],[-1,4],[-2,5],[0,4],[1,5],[1,4],[2,4],[-1,5],[2,0],[2,-6],[-1,-14],[2,-16],[2,-2],[4,2],[12,9],[1,3],[2,7],[4,8],[5,6],[6,3],[2,4],[3,8],[0,7],[-7,1],[4,4],[5,1],[11,0],[7,2],[6,3],[5,4],[10,10],[14,23],[2,1],[3,1],[1,2],[0,3],[1,3],[36,44],[12,11],[6,6],[2,6],[3,4],[19,15],[2,-1],[1,-2],[0,-2],[0,-2],[1,1],[4,6],[-5,4],[2,6],[15,20],[2,2],[9,2],[1,2],[0,4],[1,3],[9,13],[25,25],[23,19]],[[170,0],[2,7],[10,17],[-5,7],[-3,12],[2,46],[-6,71],[-5,20],[0,6],[2,12],[0,5],[-3,6],[-4,5],[-2,6],[3,6],[2,3],[9,5],[3,3],[-1,2],[-1,3],[-1,3],[-1,12],[2,3],[7,5],[3,2],[2,-1],[2,0],[3,4],[-1,1],[-4,10],[-4,12],[-3,5],[-13,15],[-4,6],[-2,5],[-2,6],[-6,5],[-11,8],[-21,20],[-30,44],[-10,24],[-4,25],[0,13],[-1,3],[-2,1],[-3,1],[-3,1],[-9,20],[-2,25],[1,12],[3,3],[6,7],[0,2],[5,4],[3,3],[2,5],[0,7],[2,11],[1,6],[-7,17],[6,9],[8,7],[5,5],[6,5],[12,-4],[12,-8],[4,-4],[5,-3],[12,-15],[3,-1],[6,-7],[10,-5],[36,-37],[11,-4],[2,-5],[1,-7],[2,-7],[2,-3],[8,-8],[2,-1],[6,-6],[1,-2],[36,-44],[4,-8],[11,-15],[4,-13],[1,-4],[-1,-4],[-3,-7],[-1,-4],[3,-12],[12,-27],[3,-20],[3,-8],[1,-4],[0,-4],[-7,-40],[1,-8],[7,-12],[2,-7],[-1,-3],[-3,-8],[-1,-5],[1,-5],[1,-5],[3,-5],[3,-4],[3,-1],[3,0],[2,-1],[1,-4],[0,-7],[1,-2],[8,-10],[3,-7],[1,-8],[-5,-8],[2,-3],[1,-2],[1,-2],[3,-2],[2,-2],[1,-5],[-5,-3],[-2,-3],[2,-10],[-5,-23],[0,-16],[-1,-4],[-7,-15],[-10,-13],[-2,-10],[1,-7],[5,-15],[1,-9],[3,-7],[17,-14],[2,-4],[1,-3]],[[60,3535],[-4,1],[-5,3],[-4,1],[-3,0],[-11,0],[-6,2],[-3,5],[-2,6],[-5,4],[-1,-4],[-4,0],[-4,1],[-6,1],[-2,-1]],[[0,3332],[13,-4],[11,-10],[6,-14],[0,-4],[-2,-6],[-1,-3],[1,-1],[2,-2],[1,-2],[1,-4],[-21,-14],[-4,0],[-3,-4],[-4,0]],[[89,4096],[1,-4],[0,-11],[1,-1],[7,-1],[2,-1],[2,-1],[0,-2],[-3,-5],[2,-1],[4,0],[2,0],[4,-5],[-1,1],[1,-2],[0,-2],[1,-2],[3,-2],[0,4],[0,2],[1,3],[1,3],[-2,0],[4,4],[6,1],[11,1],[4,-3],[-1,-5],[-7,-10],[6,0],[3,-2],[0,-2],[-5,-1],[-3,-1],[-9,-5],[-2,-1],[3,-11],[11,-6],[13,-2],[10,1],[-1,-8],[4,-4],[13,-6],[7,-5],[1,-5],[-6,-12],[5,-1],[3,-2],[-2,-3],[-3,-4],[3,-1],[4,-2],[3,-3],[2,-2],[1,-4],[-1,-4],[-2,-3],[0,-2],[6,-5],[5,2],[4,6],[2,6],[2,6],[19,14],[4,7],[0,7],[-2,8],[-3,7],[-6,-2],[-4,3],[-2,6],[2,6],[5,3],[6,1],[11,-2],[15,5],[5,0],[11,-4],[5,0],[6,3],[4,5],[6,3],[5,3],[14,2],[8,5],[8,2],[5,3],[4,4],[2,3],[17,0],[5,2],[0,-9],[-2,-5],[0,-6],[5,-8],[2,2],[3,-4],[4,-5],[5,-4],[5,-2],[1,-4],[12,-23],[2,-1],[3,-2],[3,-3],[-2,-2],[-1,-1],[-1,-3],[-2,-2],[-3,-1],[-7,2],[-10,7],[-4,-2],[-8,2],[-1,-5],[3,-7],[-1,-6],[-4,-2],[-23,-2],[-7,1],[-17,4],[-3,0],[-3,-1],[-3,0],[-4,2],[-3,3],[-2,1],[-3,0],[-4,-2],[-6,0],[-11,-2],[-11,-3],[-7,-3],[1,-8],[0,-10],[2,-10],[16,-7],[2,-4],[0,-5],[-1,-4],[-10,-6],[-1,-1],[-4,-2],[-9,-7],[-5,-1],[-6,1],[1,3],[2,3],[2,3],[-1,3],[-3,7],[-2,3],[-3,4],[-3,2],[-5,1],[-5,0],[2,-6],[-2,-5],[-4,-3],[-6,1],[-2,2],[-3,7],[-3,1],[-2,-1],[0,-3],[1,-3],[1,-3],[-9,4],[-15,14],[-10,0],[1,4],[1,1],[-12,-3],[-5,-10],[-5,-25],[-4,-5],[-5,-1],[-13,1],[0,-1],[-6,-6],[-3,-1],[-5,-1],[-2,-1],[3,-3],[3,-3],[3,-4],[1,-5],[-1,-3],[-4,-3],[-3,-3],[-3,-1],[-3,-5],[-3,-33],[7,1],[4,-7],[1,-10],[0,-7],[3,-1],[15,-11],[16,-5],[4,-2],[3,-9],[-5,-6],[-7,-4],[-4,-5],[-4,-15],[-2,-9],[4,-7],[0,-3],[-6,2],[-17,11],[-2,-10],[-3,-2],[-7,2],[4,-6],[5,-1],[6,1],[5,3],[2,-5],[-4,-2],[-6,-1],[-2,-3],[1,-4],[1,0],[1,-1],[-1,-4],[-11,-8],[-3,-1],[-1,-2],[-1,-3],[-1,-1],[-3,-1],[-9,1],[-6,-2],[2,-4],[4,-4],[0,-4],[-10,-13],[-6,-4],[-12,-5],[-5,-4],[-5,-5],[-5,-12],[4,-8],[9,-3],[7,3],[2,0],[-1,-2],[-1,-2],[0,-2],[0,-2],[7,-2],[7,-4],[6,-6],[2,-7],[0,-3],[-1,-4],[-2,-2],[-4,0],[-1,2],[1,3],[1,2],[1,1],[-5,5],[-3,1],[-7,1],[-7,4],[-3,1],[-9,1],[-22,-3],[-6,3],[-5,-6],[3,-5],[9,-10],[-1,-1],[-1,0],[0,-1],[0,-3],[5,2],[4,-1],[3,-4],[3,-4],[-23,7],[-6,-3],[0,-5],[4,-4],[5,-3],[3,0],[6,1],[3,-1],[3,-1],[1,-2],[1,-1],[3,-3],[3,-8],[1,0],[2,1],[1,-1],[4,-3],[2,-3],[-1,-4],[6,4],[3,1],[4,0],[3,-2],[1,-3],[1,-3],[1,-2],[3,-1],[1,-1],[-1,-2],[-3,-1],[-2,0],[-2,2],[-2,1],[-1,-1],[-1,-2],[-2,-2],[-1,0]],[[144,3948],[-9,-4],[0,-5],[4,-1],[7,-1],[4,-1],[15,11],[5,6],[2,11],[-3,-3],[-2,-7],[-2,-3],[-4,0],[-4,3],[-5,8],[-3,-10],[-2,-3],[-3,-1]],[[72,3926],[-1,-3],[2,-2],[8,-1],[10,-6],[6,-3],[4,3],[8,2],[3,3],[2,3],[-1,2],[-2,1],[-1,2],[-3,9],[-5,2],[-12,-4],[-12,-1],[-3,-2],[-2,-2],[-1,-3]],[[724,2718],[2,20],[1,20],[-4,10],[1,11],[5,5],[5,5],[0,6],[0,6],[7,22],[10,17],[10,2],[8,7],[6,-3],[2,-10],[4,-7],[0,-8],[-3,-12],[-2,-11],[-8,-21],[4,-22],[-2,-7],[-3,-8],[-3,1],[-3,1],[-1,-3],[-1,-3],[-3,-3],[-2,-4],[-14,-12],[-16,1]],[[1350,2782],[5,2],[2,-5],[-1,-7],[-8,-13],[-2,-7],[2,-35],[-4,-7],[-5,5],[-12,21],[-19,19],[-4,8],[1,10],[10,2],[23,-2],[6,4],[6,5]],[[3209,4096],[3,-12],[0,-5],[-8,6],[-10,11]],[[1460,3804],[14,5],[5,-6],[-4,-1],[-7,-3],[-4,-1],[-5,-2],[-3,2],[-3,5],[-1,5],[8,-4]],[[1423,3805],[4,2],[5,4],[-4,-18],[-5,-5],[-8,3],[-3,-4],[-3,-3],[-7,-6],[-4,2],[-2,-1],[-1,-4],[0,-4],[-8,1],[-11,-11],[-9,5],[-5,-3],[-9,1],[-5,-2],[-3,-4],[-2,-5],[-3,-2],[-3,2],[1,4],[-1,2],[-2,2],[-1,3],[1,3],[4,2],[1,3],[-1,4],[-1,1],[-1,0],[-3,1],[0,-1],[-8,3],[-1,1],[-11,0],[-4,2],[-4,4],[-10,7],[-4,5],[-2,7],[4,-2],[13,-8],[1,1],[3,2],[2,2],[1,-3],[2,-3],[6,-4],[4,1],[6,-1],[5,-2],[3,-3],[7,3],[4,-4],[3,-6],[4,-3],[2,-1],[2,-1],[2,-1],[3,0],[3,2],[1,3],[2,2],[4,-2],[1,6],[4,1],[4,-2],[4,0],[2,3],[-1,3],[-1,3],[1,3],[2,0],[4,0],[3,-1],[3,-1],[7,0],[4,1],[1,3],[-4,5],[-3,5],[0,5],[1,5],[1,6],[2,0],[2,-4],[2,-4],[1,-4],[-2,-5],[4,-2],[4,1]],[[366,2712],[5,5],[3,6],[5,6],[5,7],[-18,-4],[-8,10],[5,2],[5,0],[4,5],[4,5],[8,6],[4,11],[37,-3],[34,14],[26,22],[27,24],[7,5],[7,5],[4,7],[3,6],[16,15],[16,2],[8,-18],[5,-18],[-9,-11],[-15,-5],[-1,-5],[-3,-5],[-7,-2],[-6,-4],[0,-13],[9,-4],[-8,-11],[-12,-11],[-8,-3],[-7,-2],[-6,-8],[-6,-6],[-16,-2],[-16,-5],[-9,-1],[-9,0],[-9,-4],[-10,-4],[-17,-6],[-16,-8],[-15,-6],[-16,6]],[[819,3182],[6,-9],[7,9],[-1,15],[-12,11],[-8,26],[0,27],[-5,30],[15,22],[3,5],[3,5],[4,-2],[1,-7],[13,-9],[12,-10],[5,-30],[-7,-28],[-3,-7],[-3,-7],[1,-11],[0,-10],[-4,-5],[-4,-5],[-3,-5],[0,-7],[-6,-14],[-8,-13],[-13,-3],[-13,-1],[-7,10],[5,15],[8,9],[14,-1]],[[2146,2112],[2,-5],[5,-1],[13,0],[2,-4],[3,0],[4,3],[5,1],[0,-3],[-3,-2],[-1,-2],[1,-2],[3,1],[6,4],[4,3],[2,5],[-2,3],[2,2],[1,3],[3,5],[2,0],[-2,-6],[2,-3],[3,1],[2,5],[0,6],[1,2],[1,2],[3,4],[11,32],[4,5],[-3,3],[3,6],[0,21],[3,14],[-1,7],[-5,2],[0,-2],[0,-3],[0,-4],[-3,-1],[-1,1],[-3,11],[1,7],[2,8],[2,7],[-2,6],[5,3],[6,5],[4,6],[-4,14],[1,9],[0,7],[-5,4],[1,-5],[-1,-7],[-2,-7],[-3,-6],[-1,2],[-1,2],[0,3],[-5,-4],[0,-5],[2,-3],[0,-3],[-2,-3],[-2,1],[-1,4],[0,4],[-3,3],[-17,10],[-1,2],[-6,5],[-2,2],[-2,-2],[-1,-3],[-1,-2],[-4,-1],[-1,2],[-1,3],[-2,4],[-3,1],[-1,1],[-1,1],[-1,1],[0,2],[-1,-5],[-2,-11],[0,-4],[4,-5],[6,-3],[4,-4],[-1,-5],[-7,3],[-5,-1],[-1,-6],[2,-7],[6,3],[-2,-4],[-5,-4],[-1,-3],[12,-5],[3,-2],[2,-3],[1,-4],[-2,-1],[-5,2],[-2,0],[-2,-4],[-1,-5],[2,-5],[-2,-2],[0,-1],[-1,-4],[4,2],[4,0],[3,-2],[2,-3],[-1,-2],[-2,-8],[5,6],[4,-2],[1,-6],[-3,-8],[3,-2],[-7,0],[-12,1],[-4,1],[-3,-1],[-2,0],[-3,2],[-4,2],[3,-5],[4,-4],[4,-1],[4,2],[17,-10],[8,-3],[8,3],[-3,-7],[-3,-1],[-7,3],[-6,0],[-8,-2],[-6,0],[2,-3],[3,-3],[4,-1],[4,-1],[-4,-3],[-6,-1],[-7,0],[-6,2],[2,-6],[8,-9],[3,-6],[-13,3],[-5,-1],[3,-4],[-4,-5],[-1,-6],[0,-13]],[[2109,1780],[-6,53],[-4,11],[-6,8],[-1,-8],[2,-11],[0,-7],[-6,1],[0,-1],[0,-1],[-1,0],[-2,0],[-1,4],[-3,0],[-3,-4],[0,-5],[-4,3],[-2,4],[-4,2],[-5,-2],[1,4],[2,3],[5,6],[-3,4],[-2,4],[0,5],[0,5],[0,5],[2,5],[1,4],[-1,5],[-8,2],[-2,1],[-4,17],[-7,11],[-2,6],[0,5],[-3,11],[-2,5],[1,6],[2,15],[-2,13],[-11,20],[-4,12],[-7,-7],[-3,-27],[-3,-12],[-6,-7],[-13,-10],[-6,-10],[-1,2],[-3,3],[-1,2],[-1,-2],[-1,-4],[-1,-4],[1,-5],[-2,-20],[7,-23],[3,-21],[-13,-16],[3,-7],[5,-16],[3,-6],[19,-21],[0,-2],[2,-1],[3,-2],[3,-2],[2,0],[0,1],[1,1],[-4,4],[-1,8],[2,6],[4,-4],[0,2],[0,2],[0,1],[-2,0],[0,3],[5,3],[3,-3],[3,-2],[11,-18],[10,-10],[2,-6],[-2,-7],[10,-3],[2,2],[1,8],[-3,5],[-3,5],[0,4],[8,2],[-1,-5],[7,-32],[4,-7],[5,-6],[5,-5],[14,-4],[13,4],[9,11],[1,16],[-9,17],[-2,4]],[[2659,3345],[-3,-7],[-7,-4],[-9,-3],[-7,-4],[-5,-8],[-4,-11],[0,-9],[8,2],[1,-4],[1,-4],[3,-2],[5,0],[1,4],[-3,2],[-3,2],[-2,3],[1,5],[2,3],[3,1],[4,-2],[13,7],[7,2],[4,1],[1,-1],[1,-2],[2,-2],[3,0],[2,0],[1,1],[1,1],[1,0],[2,2],[1,3],[1,4],[0,4],[4,-8],[7,1],[3,8],[-7,11],[-8,5],[-11,3],[-9,1],[-5,-5]],[[2238,1297],[-1,-3],[-4,-10],[-2,-2],[-3,-2],[-3,-4],[-3,-6],[-3,-9],[-3,-3],[-8,-3],[-7,-5],[-4,-2],[-4,-1],[0,-2],[9,1],[4,-1],[2,-3],[-6,-1],[-12,-5],[-6,-2],[-6,0],[-6,0],[-4,-3],[-2,-6],[3,-4],[-5,-9],[-16,-15],[-2,-1],[-2,0],[-3,0],[0,-3],[-1,0],[-1,-2],[-1,-3],[0,-1],[-3,-1],[-6,-1],[-4,0],[6,-5],[10,-10],[7,-3],[6,0],[8,2],[14,5],[3,5],[3,9],[4,8],[11,3],[10,-3],[4,0],[2,5],[1,2],[3,4],[1,2],[2,8],[1,2],[0,3],[1,2],[4,7],[11,24],[6,24],[0,12],[-5,6]],[[2182,1167],[11,1],[9,-1],[1,-5],[-4,-5],[-15,-16],[-11,-10],[-6,0],[-2,6],[2,10],[5,7],[10,13]],[[1994,1982],[0,-5],[1,-6],[3,-5],[-2,-4],[2,-5],[0,-7],[-4,-1],[-4,0],[-1,6],[1,6],[1,11],[-1,7],[4,3]],[[2121,2119],[3,-1],[6,-4],[3,-5],[5,-7],[5,-2],[6,-1],[4,-5],[-1,-5],[-10,0],[-6,5],[-6,7],[-3,4],[-5,5],[-3,5],[2,4]],[[801,4096],[1,-1]],[[2381,4096],[-13,-8],[-35,3],[-10,-2],[-20,2],[-10,-5],[-6,-3]],[[692,4071],[-5,8],[-12,10],[-7,2],[-12,-2],[-7,7]],[[372,4068],[-1,5],[-4,7]],[[367,4080],[-5,9],[-3,7]],[[3237,4096],[-6,-5],[-7,-3],[-11,-9],[-4,-11]],[[3127,4096],[7,-4],[13,-7],[12,-5],[27,-12],[15,2],[8,-2]],[[707,4039],[-9,16],[-2,4],[2,8],[-6,4]],[[707,4039],[-8,-3],[-6,-1]],[[485,4033],[-8,8],[-9,0],[-10,2],[-8,-2],[-18,-8]],[[390,4043],[-9,4],[-6,11],[-7,1],[-5,3],[8,3],[1,3]],[[432,4033],[-9,0],[-9,-1],[-10,7],[-12,4],[-2,0]],[[803,4005],[-10,1],[-12,6],[-15,9],[-8,3],[-7,0],[-8,-1],[-16,-9],[-6,4],[-5,11],[-9,10]],[[857,3999],[5,7],[3,21],[15,22],[3,7],[0,8],[0,12],[10,10],[6,10]],[[444,3997],[-6,18],[-3,11],[-3,7]],[[824,3997],[-13,6],[-8,2]],[[857,3999],[-10,-2]],[[847,3997],[-3,5],[-11,10],[-4,11],[-3,21],[-5,8],[-3,19],[-9,18],[-7,6]],[[847,3997],[-12,-3],[-11,3]],[[2177,3967],[23,24],[7,6],[11,12],[24,23],[7,7],[20,19],[13,13],[5,12]],[[551,3961],[-5,6],[-3,8],[-3,3],[-12,6],[-10,0],[-6,12],[0,9],[-5,15],[-7,6],[-9,1],[-6,6]],[[693,4035],[-16,-5],[-12,-10],[-12,-5],[-5,-3],[-7,-7],[-14,-2],[-12,-4],[-4,-8],[-24,-15],[-12,-1],[-15,-14],[-9,0]],[[1168,3953],[11,11],[9,14],[4,12],[0,16],[3,15],[2,9],[-2,16],[0,15],[3,12],[3,7],[5,16]],[[1168,3953],[-14,26],[-6,9],[-4,5],[-12,15],[-23,22],[-21,13],[-6,6],[-4,10],[-12,9],[-9,3],[-9,2],[-15,-2],[-14,5],[-12,18],[-2,2]],[[455,3944],[4,11],[-4,16],[1,11],[-1,5],[-8,4],[-3,6]],[[1164,3941],[0,6],[4,6]],[[1170,3937],[-6,4]],[[1422,4082],[3,-8],[-3,-12],[4,-12],[2,-11],[0,-9],[-3,-7],[-6,-11],[4,-10],[3,-15],[-4,-8],[-9,-4],[-5,-4],[-9,-16],[-10,-12],[-3,-12],[-3,-3]],[[2104,3919],[9,3],[16,1],[15,8],[18,19],[15,17]],[[1237,3916],[-7,6],[-12,-3],[-11,7],[-9,2],[-12,-2],[-16,11]],[[509,3914],[4,11],[8,6],[16,18],[14,12]],[[1383,3928],[-21,-3],[-6,-9],[-8,-5],[-6,-8]],[[1342,3903],[-10,-6],[-12,-3],[-9,2]],[[1302,3893],[-17,-9],[-4,-5],[-6,-10],[-11,-6],[-7,-6]],[[1257,3857],[0,25],[-5,2],[-1,4],[0,15],[-5,8],[-9,5]],[[369,3851],[12,1],[9,6],[6,9],[9,8],[5,0],[3,-8],[6,-1],[7,9],[8,3],[4,-3],[3,1],[9,14],[3,6],[6,3]],[[369,3851],[-1,19],[-6,8],[-2,7],[0,8],[-3,7],[0,5],[3,8],[8,4],[15,0],[7,5],[12,0],[8,6],[7,6],[5,3],[13,0],[18,3],[2,4]],[[1242,3832],[9,13],[6,12]],[[992,3829],[-4,6],[-11,7],[-1,7],[-11,12],[-6,21],[-4,8],[-15,9],[-2,4],[-3,13],[-3,7],[-10,6],[-14,15],[0,5],[-4,1],[-14,17],[-10,8],[-8,6],[-7,12],[-8,6]],[[314,3819],[7,9],[8,4],[3,8],[4,3],[6,2],[14,9],[13,-3]],[[1659,3804],[5,3],[6,7],[10,0],[8,2],[10,1],[8,-3],[18,-9],[24,0],[21,3],[28,3],[20,5],[12,3],[10,0],[23,4],[7,5],[3,1],[24,-1],[15,3],[18,11],[12,6],[8,1],[25,6],[15,0],[21,9],[20,12],[21,11],[10,7],[20,14],[23,11]],[[1227,3758],[0,8],[4,11],[0,7],[5,11],[0,7],[9,17],[-3,7],[0,6]],[[1581,3760],[7,-3],[8,4],[9,13],[12,9],[12,3],[17,10],[13,8]],[[1048,3743],[-3,11],[-8,10],[-10,13],[-5,12],[-6,7],[-10,12],[-6,8],[-8,13]],[[1052,3730],[-4,13]],[[1204,3716],[9,18],[12,15],[2,9]],[[1204,3716],[14,-4],[10,-3],[17,1],[12,3],[7,5],[8,-6]],[[258,3696],[3,11],[3,12],[0,8],[6,7],[6,9],[6,15],[0,3],[6,13],[6,7],[3,14],[8,7],[4,12],[5,5]],[[1052,3693],[0,22],[0,15]],[[1447,3690],[15,2],[14,7],[10,13],[15,7],[3,0],[12,-1],[8,1],[4,8],[24,15],[8,6],[13,9],[8,3]],[[1437,3706],[3,-14],[7,-2]],[[2218,3687],[-6,23],[-17,23],[-10,28],[-8,13],[-16,24],[-29,50],[2,15],[-3,7],[-12,23],[-6,7],[-9,19]],[[1049,3683],[3,10]],[[1049,3683],[-9,13],[-1,8],[1,9],[-1,18],[-3,6]],[[1170,3683],[3,3],[10,3],[17,15],[1,8],[3,4]],[[758,3693],[-16,-6],[-5,-3],[-10,-13]],[[1272,3712],[10,0],[42,-26],[18,-17],[3,-1]],[[1345,3668],[6,-9],[12,1],[8,5],[0,7],[13,6],[15,6],[12,8],[9,3],[17,11]],[[1142,3648],[12,6],[7,6],[6,8],[0,7]],[[1167,3675],[1,3],[2,5]],[[264,3641],[0,12],[-4,7],[-6,8],[1,7],[-3,8],[5,7],[1,6]],[[1123,3631],[7,11],[12,6]],[[1120,3628],[3,3]],[[1120,3628],[-8,5],[-6,6],[-19,3],[-8,-1],[-7,1]],[[1072,3642],[-11,6],[-3,3],[-4,8],[-6,16],[1,8]],[[1148,3602],[-3,2],[-7,6],[-12,8],[-5,7],[-1,3]],[[1176,3571],[-12,11],[-11,15],[-5,5]],[[2270,3562],[-7,17],[-18,25],[-14,46],[-10,25],[-3,12]],[[19,3547],[-3,4]],[[1231,3533],[-7,8],[-11,6],[-7,0],[-8,4],[-22,20]],[[61,3511],[14,13],[4,5],[5,12],[15,3],[1,3],[-10,6],[-11,6],[-4,7],[0,5],[4,3],[11,3],[27,-3],[4,0],[17,6],[3,0],[25,-7],[14,0],[3,1],[10,12],[6,8],[8,3],[7,6],[8,-2],[9,3],[15,20],[9,9],[9,8]],[[61,3511],[-4,4],[-8,12],[-6,6],[-12,0],[-6,3],[-6,11]],[[1252,3488],[-4,20],[-17,25]],[[1111,3421],[4,8],[6,12],[2,8],[0,21],[3,12],[16,18],[8,8],[6,9],[3,18],[-1,7],[0,8],[10,7],[8,14]],[[1279,3406],[-3,3],[-1,17],[-6,6],[-6,8],[-5,12],[-6,36]],[[1311,3372],[-8,4],[-7,12],[-8,6],[-9,12]],[[64,3356],[-1,14],[-3,26],[-2,9],[3,21],[-1,9],[-3,11],[-3,16],[0,21],[1,17],[6,11]],[[1356,3335],[-3,8],[-8,6],[-16,6],[-8,6],[-10,11]],[[2314,3263],[-12,3],[-2,18],[2,24],[-3,26],[4,16],[8,11],[1,9],[-3,12],[-6,20],[-1,12],[-2,16],[-10,13],[-6,13],[-6,18],[-3,20],[-6,20],[0,7],[3,11],[4,15],[-6,15]],[[42,3292],[4,13],[8,11],[12,15],[0,4]],[[0,3257],[12,4],[22,6],[5,8],[3,16],[0,1]],[[66,3335],[0,9],[-2,12]],[[1536,3220],[-6,6],[-11,3],[-3,8],[-6,8],[-9,6],[-15,4],[-12,8],[-15,13],[-6,5],[-12,7],[-7,3],[-8,6],[-10,0],[-11,3],[-7,4],[-9,7],[-8,3],[-15,6],[-6,6],[-4,9]],[[1111,3166],[12,5],[4,9],[0,10],[0,20],[5,15],[-6,26],[-2,4],[-7,5],[-5,9],[-1,18],[0,15],[-3,8],[0,6],[3,12],[1,12],[0,24],[-4,6],[-2,17],[-3,7],[-1,17],[9,10]],[[1078,3093],[-3,6],[-6,7],[0,12],[9,13],[18,18],[7,14],[8,3]],[[1717,2999],[-1,2],[-10,8],[-9,12],[-11,4],[-10,11],[-11,15],[-16,23],[-3,4],[-20,11],[-9,10],[-4,10],[-4,3]],[[1718,2994],[-1,5]],[[1609,3112],[-10,10],[-9,20],[-8,6],[-12,10],[-1,3],[-8,22],[-3,4],[-13,11],[-3,3],[-6,19]],[[1725,2963],[-4,11],[-2,8],[-1,12]],[[2329,2959],[0,6],[-5,14],[0,12],[5,22],[-5,18],[2,8],[4,8],[2,10],[-5,39],[-1,25],[-2,21],[0,10],[-6,23],[-3,20],[3,25],[0,17],[0,8],[-3,7],[-1,11]],[[1073,2954],[3,9],[0,8],[-4,11],[0,7],[4,17],[2,12],[0,23],[1,24],[0,16],[-1,12]],[[2317,2920],[-3,7],[3,12],[10,14],[2,6]],[[1306,2873],[-15,7],[-7,3],[-11,-1],[-7,6],[-8,0],[-7,0],[-21,-8],[-8,-4]],[[1051,2867],[1,7],[-1,15],[-8,13],[-3,15],[0,3],[15,10],[8,-1],[3,4],[7,21]],[[1130,2868],[-7,-3],[-8,0],[-15,-1],[-15,1],[-10,0],[-12,-3],[-12,5]],[[1222,2876],[-21,-8],[-28,-6],[-11,0],[-8,5],[-16,3],[-8,-2]],[[1727,2936],[0,3],[0,2]],[[1727,2943],[0,13],[-2,7]],[[1749,2862],[-1,2],[-6,4]],[[1727,2941],[0,2]],[[1742,2868],[-2,2],[-7,25],[-3,10],[-3,31]],[[1757,2855],[-8,7]],[[1386,2855],[-3,0],[-8,-3],[-4,0],[-11,4],[-16,3],[-9,9],[-8,6],[-10,2],[-8,-3],[-3,0]],[[1051,2867],[-6,1],[-8,0],[-7,-3],[-17,-13],[-3,-2],[-21,-3]],[[989,2847],[-12,-3]],[[1683,2815],[9,2],[30,13],[11,0],[4,8],[12,8],[8,9]],[[1477,2852],[2,0],[21,1],[13,0],[27,-4],[8,0],[19,6],[24,1],[5,-1]],[[1386,2855],[6,6],[18,4],[10,-3],[5,-1],[6,-8],[7,-3],[18,3],[12,0],[9,-1]],[[1596,2855],[6,-2],[7,-6],[7,-7],[6,-17],[3,-8],[7,-3],[20,5],[6,1],[10,-1],[8,-3],[7,1]],[[977,2844],[-12,-3],[-15,0],[-7,2],[-20,9],[-6,1],[-19,-7],[-3,-9],[-27,-26],[-8,-6],[-6,-6]],[[2224,2776],[6,14],[4,19],[3,12],[-3,25],[3,7],[12,8],[3,15],[8,9],[3,1],[9,2],[7,0],[3,1],[9,14],[3,2],[14,7],[9,8]],[[854,2799],[-13,-20],[-17,-10],[-12,-10],[-10,-4],[-5,-5]],[[2209,2746],[-2,4],[3,3],[8,3],[4,3],[2,17]],[[1932,2725],[-27,12],[-34,21],[-36,26],[-12,7],[-14,11],[-9,12],[-7,7],[-17,14],[-7,11],[-12,9]],[[2009,2705],[-6,2],[-8,4],[-7,2],[-12,1],[-17,6],[-12,3],[-15,2]],[[2089,2679],[-17,18],[-11,10],[-7,1],[-17,-3],[-28,0]],[[2117,2637],[-3,3],[-7,20],[-3,4],[-15,15]],[[1449,2616],[-8,18],[-12,20],[-6,12],[-9,22],[-3,11],[-3,18],[-3,15],[-6,20],[-13,24],[0,5],[0,12],[9,27],[-2,7],[-3,8],[-4,20]],[[2147,2614],[-19,14],[-11,9]],[[2151,2614],[4,0],[7,3],[11,14],[6,15],[0,1]],[[2147,2614],[4,0]],[[2179,2647],[10,19],[14,19],[3,8],[9,42],[-6,11]],[[2129,2566],[6,11],[8,10],[3,8],[1,19]],[[797,2750],[-3,-7],[-7,-5],[-8,-6],[-4,-9],[-12,-27],[-6,-14],[-9,-34],[-5,-12],[-7,-14],[-2,-21],[-6,-27],[-3,-22]],[[2107,2501],[9,21],[6,20],[3,15],[4,9]],[[162,2495],[-15,-2],[-18,-6],[-8,-1],[-12,3],[-7,3],[-6,8],[-8,15],[-9,6],[-15,4],[-19,0],[-18,-7],[-18,1],[-9,7]],[[222,2478],[-15,6],[-15,3],[-11,0],[-13,5],[-6,3]],[[278,2460],[-9,8],[-20,12],[-20,-3],[-7,1]],[[1515,2450],[-3,4],[-11,27],[-9,20],[-12,27],[-4,12],[-8,31],[-3,15],[-4,16],[-11,9],[-1,5]],[[1962,2436],[23,9],[16,6],[8,-1]],[[2009,2450],[16,-9],[12,-5],[9,-1]],[[2046,2435],[6,0],[13,6],[10,10],[15,15],[6,15],[3,3],[8,17]],[[1576,2400],[-13,9],[-12,7],[-15,9],[-21,25]],[[725,2552],[-3,-22],[0,-9],[-3,-17],[5,-3],[7,8],[3,0],[2,-3],[-2,-16],[-4,-16],[-6,-8],[0,-4],[6,-11],[0,-7],[-5,-20],[5,-11],[12,-13],[12,-35],[3,-5]],[[356,2345],[-2,12],[-4,10],[-12,16],[-9,15],[-5,14],[-3,10],[-3,5],[-18,0],[-9,1],[-6,8],[-6,20],[-1,4]],[[360,2332],[-3,4],[-1,9]],[[1653,2306],[-15,9],[-7,9],[-5,8],[-6,16],[-6,8],[-15,11],[-11,12],[-9,18],[-3,3]],[[757,2360],[1,-4],[-1,-8],[1,-7],[-3,-24],[-6,-12],[0,-13]],[[369,2264],[-1,21],[0,18],[0,12],[0,8],[-8,9]],[[749,2292],[0,-7],[-3,-8],[-1,-7],[1,-6]],[[1931,2250],[15,24],[3,6],[0,9],[-3,8],[1,8],[8,7],[3,9],[7,8],[5,7],[0,9],[-3,8],[-6,12],[-2,6],[-7,14],[-3,10],[1,12],[3,9],[8,5],[0,12],[1,3]],[[1943,2238],[-11,9],[-1,3]],[[1710,2215],[-10,6],[-6,6],[-8,5],[-12,8],[-3,3],[-1,21],[-2,9],[-7,10],[-2,3],[-1,17],[-5,3]],[[1827,2193],[20,4],[4,3],[6,12],[5,3],[16,5],[23,9],[13,3],[15,5],[14,1]],[[1748,2146],[4,3],[12,4],[5,5],[9,11],[9,6],[15,3],[16,10],[9,5]],[[1748,2146],[-5,4],[-4,8],[-8,15],[-4,21],[-6,11],[-6,9],[-5,1]],[[374,2128],[1,39],[2,20],[-2,12],[-3,22],[-3,43]],[[1706,2052],[6,14],[9,12],[9,18],[7,17],[5,16],[3,14],[3,3]],[[396,1990],[-3,9],[-3,12],[0,8],[-4,7],[-2,13],[-10,12],[-3,7],[0,14],[0,16],[4,16],[0,7],[-1,17]],[[746,2264],[3,-6],[-3,-20],[11,-11],[1,-9],[8,-15],[10,-16],[5,-12],[-2,-25],[-6,-10],[-4,-24],[0,-12],[-5,-22],[2,-15],[-5,-22],[-1,-11],[-8,-6],[-1,-9],[4,0],[5,-5],[0,-4],[-6,-15],[-5,-21]],[[1655,1974],[1,10],[8,11],[3,9],[6,7],[4,2],[5,9],[12,8],[4,7],[8,15]],[[749,1974],[0,-3],[-4,-6]],[[440,1965],[-41,21],[-3,4]],[[1640,1871],[-3,15],[-6,12],[-3,9],[0,11],[4,13],[6,11],[11,10],[3,8],[3,14]],[[1096,1860],[-17,6],[-22,0],[-36,0],[-38,2]],[[1142,1845],[-12,3],[-13,-1],[-6,3],[-8,7],[-7,3]],[[815,1860],[-9,2],[-7,0],[-15,-6],[-12,0],[-11,-5],[-12,-9],[-12,-6],[-9,-3]],[[745,1965],[-9,-8],[-3,-9],[-2,-8],[-1,-19],[-8,-6],[0,-8],[8,-7],[1,-3],[-1,-28],[0,-31],[-2,-5]],[[728,1833],[-4,5],[-11,7],[-17,14],[-6,7],[-12,2],[-7,6],[-15,1],[-3,2],[-15,12],[-9,1],[-8,0],[-16,3],[-8,5],[-24,18],[-21,12],[-21,8],[-13,4],[-35,6],[-4,2],[-12,10],[-3,2],[-17,1],[-7,4]],[[932,1819],[-4,0],[-11,10],[-1,4],[-12,12],[-8,2],[-3,-2],[-12,5],[-12,-3],[-7,-2],[-20,0],[-9,2],[-18,13]],[[983,1868],[-3,-5],[-1,-7],[-9,-11],[-3,-3],[1,-12],[-4,-3],[-8,-2],[-6,-6],[-10,2],[-8,-2]],[[1688,1770],[3,9],[1,10],[0,20],[-1,13],[-8,13],[-10,4],[-30,27],[-3,5]],[[1338,1776],[-6,-8],[-8,-4],[-7,-5],[-11,-2]],[[1306,1757],[-15,3],[-13,20],[-29,23],[-27,21],[-15,9],[-7,-1],[-20,12],[-10,-2],[-12,6],[-11,-3],[-5,0]],[[728,1833],[-3,-1],[-6,-8],[-7,-14],[0,-4],[13,-14],[3,-4],[0,-8],[0,-20],[2,-7],[12,-9],[3,-9]],[[1667,1723],[4,15],[3,9],[2,9],[1,4],[11,10]],[[1679,1667],[-3,4],[-15,23],[-2,9],[0,3],[8,17]],[[1599,1667],[10,3],[11,-3],[12,-2],[30,2],[17,0]],[[1679,1667],[7,-2],[42,-4],[21,-5],[24,-4],[21,-3],[12,-6],[8,-2],[6,-6],[10,-3]],[[1985,1607],[4,-1],[8,0],[13,-4]],[[1830,1632],[18,-3],[14,0],[12,-3],[15,-6],[7,-6],[3,-2],[8,0],[7,-3],[14,-1],[12,0],[15,4],[6,-4],[12,0],[12,-1]],[[1429,1599],[-1,19],[-3,16],[-11,19],[-3,11],[-9,10],[0,8],[-6,12],[0,12],[-1,8],[-9,16],[-11,11],[-12,4],[-7,8],[-11,17],[-7,6]],[[1437,1599],[9,4],[7,8],[9,6],[12,1],[8,-1],[7,1],[5,3],[15,7],[7,4],[8,5],[3,4],[18,15],[7,5],[12,3],[9,6],[11,0],[10,-3],[5,0]],[[1429,1599],[8,0]],[[2012,1596],[-2,6]],[[1354,1567],[20,-11],[3,0],[12,10],[7,-2],[5,3],[6,9],[12,11],[3,7],[7,5]],[[2013,1578],[-1,18]],[[2013,1556],[0,16],[0,6]],[[745,1735],[3,-6],[6,-8],[7,-4],[5,-12],[4,-3],[11,-5],[13,-17],[11,-22],[6,-8],[18,-16],[6,-8],[3,-11],[7,-10],[-1,-8],[-5,-12],[-1,-10],[0,-9],[-6,-11],[0,-11],[-9,-19],[-9,-12],[-11,-9],[3,-8],[9,-6],[6,-6],[2,-5],[-6,-7],[-6,-3],[-12,0],[-15,1],[-5,3],[-16,3],[-11,-1],[-16,-9],[-8,-6],[-12,-21]],[[1165,1380],[8,3],[7,4],[11,8],[7,6],[9,3],[9,0],[14,-2],[7,2],[8,4],[4,20],[12,20],[8,16],[1,11],[2,32],[7,15],[5,15],[4,7],[8,6],[21,2],[15,4],[15,10],[7,1]],[[1077,1327],[2,-2],[5,0]],[[1009,1362],[6,-2],[6,-6],[7,0],[12,-8],[5,-1],[10,0],[9,-3],[9,-11],[4,-4]],[[1084,1325],[15,-3],[7,2],[5,3],[-2,7],[0,8],[8,7],[16,0],[5,3],[6,6],[7,5],[3,9],[4,3],[7,5]],[[1887,1268],[11,4],[12,8],[10,4],[5,8],[7,3],[8,9],[7,12],[9,9],[2,9],[6,11],[3,7],[0,5],[-8,5],[-3,7],[-7,3],[-2,12],[-3,8],[-4,3],[-3,7],[3,8],[10,12],[11,6],[6,8],[1,7],[5,8],[1,13],[6,17],[5,1],[3,8],[7,5],[5,15],[21,7],[3,3],[0,9],[-5,6],[0,12],[-6,9]],[[716,1439],[-1,-3],[4,-13],[8,-10],[-6,-11],[-2,-18],[3,-4],[8,1],[7,3],[8,-1],[3,-8],[3,-1],[1,-8],[-4,-8],[-6,-19],[-8,-14],[2,-9],[-3,-22],[-3,-7],[-8,-12],[-18,-19]],[[710,1241],[8,4],[7,2],[17,-5],[12,3],[16,14],[20,9],[7,6],[12,3],[12,-3],[6,3],[8,6],[10,4],[27,3],[8,-4],[3,0],[12,-5],[7,5],[12,9],[18,12],[24,12],[5,6],[9,6],[7,2],[14,19],[9,5],[9,5]],[[1914,1165],[-6,12],[-6,21],[-3,8],[-1,18],[-3,12],[0,8],[1,7],[-6,11],[-3,6]],[[636,1159],[14,15],[12,17],[13,19],[9,11],[11,9],[15,11]],[[1910,1123],[-2,3],[5,19],[1,16],[0,4]],[[1914,1165],[12,-14],[17,-15],[24,-12],[7,-7]],[[1974,1117],[-7,0],[-15,-2],[-11,6],[-16,-1],[-15,3]],[[566,1056],[1,11],[8,6],[12,1],[4,8],[5,12],[6,6],[3,8],[0,12],[1,4],[12,3],[6,6],[2,5],[0,7],[6,9],[4,5]],[[470,976],[0,8],[-5,15],[0,7],[6,6],[32,16],[10,1],[9,3],[8,11],[4,3],[18,0],[14,10]],[[2036,870],[-6,6],[-5,6],[-12,11],[-7,11],[-3,7],[-2,8],[2,15],[6,24],[-3,12],[1,12],[2,11],[3,16],[1,12],[-3,10],[-16,22],[-8,15],[-1,8],[-6,17],[-2,10],[0,11],[-3,3]],[[392,855],[3,5],[6,18],[7,4],[2,5],[13,18],[8,8],[-11,10],[3,8],[3,4],[8,2],[3,7],[-2,8],[2,3],[12,8],[7,0],[11,12],[3,1]],[[285,846],[9,8],[8,0],[9,-3],[3,0],[12,4],[7,0],[8,0],[16,2],[8,-2],[12,3],[10,-4],[5,1]],[[0,879],[6,0],[7,-3],[5,-7],[7,-8],[8,-3],[10,-3],[8,0],[22,2],[23,-8],[15,-1],[16,4],[12,3],[17,2],[4,3],[11,12],[12,6],[7,3],[8,4],[16,-3],[17,3],[15,-6],[1,-7],[7,-6],[10,-8],[15,-12],[6,0]],[[366,680],[6,12],[2,8],[0,9],[0,7],[9,17],[0,4],[-3,15],[4,16],[2,16],[7,9],[0,8],[-6,12],[2,7],[6,11],[-5,8],[2,12],[0,4]],[[402,642],[-4,2],[-17,19],[-13,12],[-2,5]],[[0,606],[1,-2],[2,-9]],[[3,595],[-2,-10],[2,-3],[10,-15],[14,-11],[18,-20],[0,-7]],[[45,529],[1,-8],[0,-18],[3,-13],[5,-8],[13,-15],[5,-9]],[[2173,432],[-9,8],[0,9],[9,10],[4,14],[5,7],[0,3],[-5,10],[-1,18],[-11,9],[-1,7],[-8,5],[-6,1],[-15,-4],[-9,1],[-6,6],[-10,17],[-8,5],[-4,7],[0,12],[-8,15],[-3,8],[-4,12],[-3,20],[-12,27],[-3,16],[-4,8],[-6,14],[-3,18],[-3,7],[-9,15],[-4,11],[-5,12],[-4,14],[-6,27],[0,7],[1,8],[0,15],[3,8],[5,7],[0,11],[6,12],[0,1]],[[2137,399],[-2,7],[12,23],[5,3],[9,-6],[7,2],[5,4]],[[2137,399],[-5,-8],[-10,-10],[-6,-6],[-12,-12],[-12,-8],[-15,-9],[-11,-3],[-5,-9],[-16,-6]],[[2342,335],[-4,-9]],[[2338,326],[-5,-3],[-7,0],[-12,11],[-6,1],[-17,0],[-13,5],[-8,0],[-7,6],[-6,1],[-9,-1],[-18,3],[-3,5],[-3,18],[-11,3],[-12,6],[-7,0],[-27,7],[-23,6],[-7,5]],[[2045,328],[-12,-6],[-35,-20],[-24,-15]],[[850,242],[-5,-2],[-9,-12],[-7,-1],[-8,12],[-4,1],[-12,-3],[-3,-6],[-3,-10],[-3,-4],[-5,0],[-10,8],[-3,0],[-23,-1],[-6,-7],[-12,2],[-7,-2],[-9,-4],[-3,-3],[-6,-12],[-2,-3],[-8,-3],[-9,-8]],[[693,184],[2,30],[4,16],[2,13],[6,18],[-1,5],[-5,12],[-2,7],[0,20],[-6,24],[-4,8],[-5,1],[-7,-1],[-8,1],[-16,0],[-6,6],[-8,19],[-4,4],[-8,3],[-6,12],[-7,8],[-8,3],[-1,4],[0,6],[-3,9],[-9,10],[3,19],[-5,8],[0,12],[-7,6],[1,9],[-3,7],[-6,10],[-3,3],[-7,1],[-6,8],[-21,7],[-8,2],[-18,9],[-1,4],[1,12],[-6,6],[-1,9],[-5,4],[-3,6],[5,7],[-5,9],[0,11],[-10,21],[-3,3],[-12,3],[-6,8],[-11,1],[-9,8],[-10,4],[-12,-1],[-12,6],[-11,-2]],[[1974,287],[-21,-12],[-6,-8],[-30,-15],[-15,-7],[-13,-11],[-6,-9],[-8,-6],[-6,-8],[-1,-12],[-6,-10],[-15,-15],[-11,-8],[-4,-1]],[[2450,151],[-3,8],[2,9],[4,12],[6,7],[0,12],[0,12],[-3,2],[-7,-2],[-8,3],[-10,-1],[-9,0],[-8,4],[-1,5],[4,8],[-3,6],[-16,13],[-5,8],[0,12],[-1,4],[-6,12],[-8,5],[-10,12],[-11,8],[-12,4],[-7,12]],[[1832,165],[-15,-12],[-14,-10]],[[1803,143],[-7,-10],[-12,-6],[-17,-11],[-12,-7],[-22,-6]],[[1733,103],[-11,-6],[-19,-5],[-26,0],[-10,-4],[-12,1],[-8,6],[-7,2],[-15,0],[-23,-6],[-14,-2],[-12,0],[-15,3],[-16,2],[-8,-8],[-4,-2],[-27,-3],[-11,3],[-12,4],[-16,4],[-36,3],[-24,2],[-24,3],[-17,1],[-3,-1],[-15,-14],[-1,-5],[-3,-10],[-5,-8],[-1,-7],[-9,-12],[-6,-11],[-3,-1]],[[1320,32],[-6,4],[-11,20],[-3,3],[-12,3],[-9,16],[-12,11],[-9,12],[-1,11],[0,7],[-9,8],[-11,6],[-13,9],[-12,3],[-15,-2],[-8,2],[-7,3],[-12,-5],[-9,2],[-11,1],[-8,-4],[-7,0],[-8,6],[-10,3],[-17,-2],[-4,-6],[-12,2],[-5,1],[-15,14],[-15,6],[-15,0],[-6,6],[-1,8],[-6,6],[-5,12],[-9,15],[-12,1],[-7,0],[-9,3],[-11,11],[-4,2],[-11,0],[-12,-5],[-12,-1],[-16,-2],[-21,2],[-8,1],[-19,12],[-12,6],[-3,-1]],[[2378,0],[5,15],[7,8],[2,7],[0,15],[4,9],[3,12],[5,17],[3,21],[4,12],[21,30],[18,5]],[[34,0],[3,3],[3,9],[6,23],[6,15],[2,7],[3,3],[4,9],[6,19],[11,10],[3,5],[16,28],[3,8],[2,9],[0,15],[1,5],[6,7],[3,8],[8,10],[1,9],[3,2],[2,12],[3,3],[7,0],[12,-5],[6,11],[11,15],[-3,15],[4,15],[0,25],[-4,7],[-8,8],[-16,7],[-3,3],[-5,6],[0,12],[-3,8],[-4,8],[-20,15],[-7,9],[-9,12],[-5,15],[-4,7],[-5,11],[-7,12],[-2,11],[2,4],[6,8]],[[2184,1141],[-11,-10],[-6,0],[-2,6],[2,10],[5,7],[10,13],[11,1],[9,-1],[1,-5],[-4,-5],[-15,-16]],[[2237,1255],[-11,-24],[-4,-7],[-1,-2],[0,-3],[-1,-2],[-2,-8],[-1,-2],[-3,-4],[-1,-2],[-2,-5],[-4,0],[-10,3],[-11,-3],[-4,-8],[-3,-9],[-3,-5],[-14,-5],[-8,-2],[-6,0],[-7,3],[-10,10],[-6,5],[4,0],[6,1],[3,1],[0,1],[1,3],[1,2],[1,0],[0,3],[3,0],[2,0],[2,1],[16,15],[5,9],[-3,4],[2,6],[4,3],[6,0],[6,0],[6,2],[12,5],[6,1],[-2,3],[-4,1],[-9,-1],[0,2],[4,1],[4,2],[7,5],[8,3],[3,3],[3,9],[3,6],[3,4],[3,2],[2,2],[4,10],[1,3],[5,-6],[0,-12],[-6,-24]],[[2699,3330],[-3,-8],[-7,-1],[-4,8],[0,-4],[-1,-4],[-1,-3],[-2,-2],[-1,0],[-1,-1],[-1,-1],[-2,0],[-3,0],[-2,2],[-1,2],[-1,1],[-4,-1],[-7,-2],[-13,-7],[-4,2],[-3,-1],[-2,-3],[-1,-5],[2,-3],[3,-2],[3,-2],[-1,-4],[-5,0],[-3,2],[-1,4],[-1,4],[-8,-2],[0,9],[4,11],[5,8],[7,4],[9,3],[7,4],[3,7],[5,5],[9,-1],[11,-3],[8,-5],[7,-11]],[[2042,1930],[3,-11],[0,-5],[2,-6],[7,-11],[4,-17],[2,-1],[8,-2],[1,-5],[-1,-4],[-2,-5],[0,-5],[0,-5],[0,-5],[2,-4],[3,-4],[-5,-6],[-2,-3],[-1,-4],[5,2],[4,-2],[2,-4],[4,-3],[0,5],[3,4],[3,0],[1,-4],[2,0],[1,0],[0,1],[0,1],[6,-1],[0,7],[-2,11],[1,8],[6,-8],[4,-11],[6,-53],[2,-4],[9,-17],[-1,-16],[-9,-11],[-13,-4],[-14,4],[-5,5],[-5,6],[-4,7],[-7,32],[1,5],[-8,-2],[0,-4],[3,-5],[3,-5],[-1,-8],[-2,-2],[-10,3],[2,7],[-2,6],[-10,10],[-11,18],[-3,2],[-3,3],[-5,-3],[0,-3],[2,0],[0,-1],[0,-2],[0,-2],[-4,4],[-2,-6],[1,-8],[4,-4],[-1,-1],[0,-1],[-2,0],[-3,2],[-3,2],[-2,1],[0,2],[-19,21],[-3,6],[-5,16],[-3,7],[13,16],[-3,21],[-7,23],[2,20],[-1,5],[1,4],[1,4],[1,2],[1,-2],[3,-3],[1,-2],[6,10],[13,10],[6,7],[3,12],[3,27],[7,7],[4,-12],[11,-20],[2,-13],[-2,-15],[-1,-6],[2,-5]],[[2152,2089],[-10,0],[-6,5],[-6,7],[-3,4],[-5,5],[-3,5],[2,4],[3,-1],[6,-4],[3,-5],[5,-7],[5,-2],[6,-1],[4,-5],[-1,-5]],[[2170,2291],[1,-2],[4,1],[1,2],[1,3],[2,2],[2,-2],[6,-5],[1,-2],[17,-10],[3,-3],[0,-4],[1,-4],[2,-1],[2,3],[0,3],[-2,3],[0,5],[5,4],[0,-3],[1,-2],[1,-2],[3,6],[2,7],[1,7],[-1,5],[5,-4],[0,-7],[-1,-9],[4,-14],[-4,-6],[-6,-5],[-5,-3],[2,-6],[-2,-7],[-2,-8],[-1,-7],[3,-11],[1,-1],[3,1],[0,4],[0,3],[0,2],[5,-2],[1,-7],[-3,-14],[0,-21],[-3,-6],[3,-3],[-4,-5],[-11,-32],[-3,-4],[-1,-2],[-1,-2],[0,-6],[-2,-5],[-3,-1],[-2,3],[2,6],[-2,0],[-3,-5],[-1,-3],[-2,-2],[2,-3],[-2,-5],[-4,-3],[-6,-4],[-3,-1],[-1,2],[1,2],[3,2],[0,3],[-5,-1],[-4,-3],[-3,0],[-2,4],[-13,0],[-5,1],[-2,5],[0,13],[1,6],[4,5],[-3,4],[5,1],[13,-3],[-3,6],[-8,9],[-2,6],[6,-2],[7,0],[6,1],[4,3],[-4,1],[-4,1],[-3,3],[-2,3],[6,0],[8,2],[6,0],[7,-3],[3,1],[3,7],[-8,-3],[-8,3],[-17,10],[-4,-2],[-4,1],[-4,4],[-3,5],[4,-2],[3,-2],[2,0],[3,1],[4,-1],[12,-1],[7,0],[-3,2],[3,8],[-1,6],[-4,2],[-5,-6],[2,8],[1,2],[-2,3],[-3,2],[-4,0],[-4,-2],[1,4],[0,1],[2,2],[-2,5],[1,5],[2,4],[2,0],[5,-2],[2,1],[-1,4],[-2,3],[-3,2],[-12,5],[1,3],[5,4],[2,4],[-6,-3],[-2,7],[1,6],[5,1],[7,-3],[1,5],[-4,4],[-6,3],[-4,5],[0,4],[2,11],[1,5],[0,-2],[1,-1],[1,-1],[1,-1],[3,-1],[2,-4],[1,-3]],[[0,4096],[3327,0],[-43,-47],[-21,-18],[-23,-19],[-25,-25],[-9,-13],[-1,-3],[0,-4],[-1,-2],[-9,-2],[-2,-2],[-15,-20],[-2,-6],[5,-4],[-4,-6],[-1,-1],[0,2],[0,2],[-1,2],[-2,1],[-19,-15],[-3,-4],[-2,-6],[-6,-6],[-12,-11],[-36,-44],[-1,-3],[0,-3],[-1,-2],[-3,-1],[-2,-1],[-14,-23],[-10,-10],[-5,-4],[-6,-3],[-7,-2],[-11,0],[-5,-1],[-4,-4],[7,-1],[0,-7],[-3,-8],[-2,-4],[-6,-3],[-5,-6],[-4,-8],[-2,-7],[-1,-3],[-12,-9],[-4,-2],[-2,2],[-2,16],[1,14],[-2,6],[-2,0],[1,-5],[-2,-4],[-1,-4],[-1,-5],[0,-4],[2,-5],[1,-4],[1,-5],[2,-2],[3,-2],[1,-3],[-1,-4],[-3,-8],[-1,-4],[-2,-5],[-9,-7],[-2,-3],[0,-5],[-2,-4],[-2,-3],[-14,-17],[-2,-4],[1,-3],[3,0],[4,2],[2,2],[-4,-9],[-8,-1],[-8,5],[-2,11],[-2,0],[0,-8],[4,-13],[0,-7],[-2,-7],[-38,-61],[-8,-11],[-7,-11],[-14,-27],[-7,-6],[-8,-5],[-13,-22],[-7,-6],[2,0],[-10,-10],[-27,-28],[-14,-20],[-1,-7],[-8,-5],[-21,-19],[-13,-16],[-7,-4],[-6,7],[-7,-3],[-6,0],[-4,5],[-1,8],[-7,-8],[-1,-9],[-4,-8],[-10,1],[-14,3],[-4,0],[-4,-2],[-7,-8],[-10,-5],[-4,-5],[-4,-4],[-6,1],[-4,2],[-4,3],[-2,3],[-2,5],[0,6],[4,10],[0,4],[-1,5],[1,5],[6,8],[-13,-10],[-1,-43],[-8,-10],[-7,5],[-7,23],[-6,5],[-4,2],[-4,4],[-3,2],[-4,-6],[2,-5],[1,-5],[-1,-5],[6,3],[5,-1],[3,-4],[1,-6],[-1,-3],[-3,-2],[-1,-2],[1,-3],[3,-1],[3,-1],[1,-2],[0,-27],[3,-14],[4,-9],[4,-1],[4,0],[4,0],[5,-3],[3,-6],[1,-4],[-4,-9],[-9,-11],[-9,-2],[-1,4],[12,6],[-6,3],[-5,3],[-9,9],[-1,3],[0,2],[0,2],[-4,1],[1,-1],[-3,-1],[-5,-1],[-9,-5],[-8,-9],[-8,-7],[-8,4],[1,-3],[1,-4],[1,-2],[3,-1],[2,-1],[0,-3],[-3,-4],[2,-5],[11,-7],[2,-5],[-4,-9],[-10,-10],[-11,-8],[-17,-7],[-23,-26],[-12,-5],[-11,2],[-11,5],[-12,3],[-12,-1],[-37,-12],[-15,-11],[-9,-3],[-11,-7],[-18,-14],[-4,-5],[-3,-5],[-7,-15],[-11,-14],[-1,-6],[0,-3],[6,-8],[0,-2],[-1,-6],[-1,-3],[-6,-23],[-1,-12],[7,-6],[-1,-10],[4,-4],[7,1],[8,5],[0,-4],[-2,-4],[-13,-12],[-8,-10],[-2,-5],[-1,-18],[-3,-7],[-12,-18],[0,-4],[4,-14],[0,-7],[-3,-5],[-3,-5],[-4,-5],[-5,-4],[-18,-8],[-5,-3],[-8,-10],[-5,-4],[-7,-1],[3,6],[4,14],[1,5],[-7,-1],[-3,-4],[0,-5],[0,-5],[-1,-3],[-2,-9],[1,-2],[1,-2],[1,-3],[-7,-10],[-1,-3],[-6,-17],[-10,-15],[-3,-21],[-5,-9],[-4,-4],[-3,-1],[-8,4],[-2,1],[-5,5],[-2,1],[-9,0],[1,4],[1,1],[-4,3],[-3,-7],[1,-5],[4,-3],[8,0],[-5,-6],[2,-4],[5,-2],[13,6],[4,-3],[2,-6],[1,-5],[-1,-12],[-29,-81],[-10,-9],[-10,-2],[-7,5],[0,13],[-8,-5],[-3,-2],[2,-4],[2,-4],[1,-3],[2,-3],[4,-4],[8,1],[4,-2],[-1,-7],[-8,-8],[-1,-3],[-1,-3],[-3,-4],[-3,-4],[-3,-2],[-4,2],[-2,8],[-3,2],[-2,5],[0,8],[0,5],[-6,-5],[-10,5],[-4,0],[-4,-3],[4,-3],[4,-2],[10,-2],[-3,-7],[-4,-3],[-11,-3],[-4,0],[-4,1],[-3,-1],[-1,-2],[0,-8],[1,-4],[1,-3],[5,7],[12,1],[13,-4],[7,-7],[-1,-9],[-18,-31],[-12,-30],[-12,-45],[-4,-10],[-3,4],[-3,0],[-3,-3],[-3,-4],[-1,-2],[0,-5],[-1,-2],[-5,-5],[-1,-1],[-12,-38],[-3,7],[1,11],[-1,5],[-5,-4],[-2,-5],[-2,-6],[-3,-5],[-2,0],[-3,1],[-2,0],[-1,-5],[1,-3],[5,-8],[-3,-5],[-13,-2],[-13,3],[-9,11],[0,-2],[-3,-5],[-10,3],[-8,-8],[-7,-10],[-7,-5],[-1,-1],[-2,0],[-1,0],[-1,-2],[2,-2],[7,-2],[2,-10],[-2,-12],[-7,-6],[-10,-5],[8,-4],[6,0],[3,-2],[1,-8],[0,-8],[-2,-6],[-2,-6],[-12,-20],[-4,-5],[-3,6],[2,7],[2,7],[1,7],[-2,6],[-6,-18],[-6,-7],[-8,0],[6,-9],[1,-4],[2,-21],[-2,-4],[-2,-1],[-6,2],[-3,-2],[-1,-2],[-4,-7],[0,-5],[5,1],[11,4],[1,-5],[4,-9],[0,-3],[-1,-3],[-14,-12],[-2,-3],[-8,-15],[-11,-17],[-1,-3],[3,-2],[4,3],[6,7],[2,-5],[-16,-46],[-4,-8],[-5,-7],[-4,-2],[-4,-2],[-3,-3],[-1,-5],[1,-3],[3,-2],[3,-2],[0,-6],[-5,-14],[-10,-22],[-13,-19],[-12,-8],[5,-2],[-2,-7],[-1,-17],[-3,-7],[-5,-6],[-6,-14],[-9,-12],[-2,-8],[-1,-8],[-1,-24],[-1,-4],[-3,-2],[-2,-3],[-1,-4],[0,-1],[-2,-9],[-4,-8],[-2,-8],[0,-9],[1,-2],[5,-5],[1,-3],[4,-14],[1,-3],[3,-3],[8,-5],[5,-4],[1,-3],[1,-14],[0,-8],[-3,-8],[-4,-6],[2,-9],[2,-20],[4,-9],[4,-3],[5,-3],[3,-2],[2,-4],[1,-4],[1,-4],[3,-4],[2,-3],[3,-1],[1,-1],[5,0],[3,-1],[1,-3],[1,-2],[2,-2],[4,-1],[10,0],[4,-3],[4,-1],[4,1],[0,3],[-4,2],[-5,2],[-8,5],[11,-3],[7,-4],[20,-19],[12,-14],[10,-7],[3,-3],[5,-10],[4,-3],[6,-4],[3,-3],[2,-4],[2,-5],[0,-4],[3,-9],[5,-10],[7,-5],[5,6],[2,-11],[-2,-14],[1,-13],[7,-7],[0,7],[-1,3],[-2,3],[7,-1],[5,-2],[11,-6],[5,-1],[11,-1],[5,-3],[5,-2],[14,0],[2,-2],[2,-5],[6,-9],[3,-11],[18,-23],[1,-2],[0,-4],[-2,-2],[-2,-2],[-1,-2],[3,-24],[0,-9],[-6,0],[-3,-4],[-3,-10],[-2,-5],[-4,-3],[-4,0],[-2,3],[-2,7],[-15,-11],[0,-1],[-3,-3],[-2,-7],[-1,-6],[-2,-5],[-4,-5],[-5,-4],[-2,-1],[-3,0],[-3,-1],[1,-3],[1,-3],[1,-3],[-2,-4],[-5,-1],[-6,0],[-4,0],[3,-6],[4,-4],[2,-5],[0,-8],[-1,-5],[-3,-8],[-4,-6],[-10,-9],[-4,-14],[-6,-40],[0,-8],[1,-8],[5,-11],[1,-7],[-2,-6],[-1,-5],[5,-13],[-1,-7],[-17,-19],[12,3],[8,9],[5,12],[3,12],[5,-5],[5,-5],[0,-5],[-5,-5],[13,1],[6,-1],[7,-4],[10,-10],[1,-5],[-2,-9],[-6,-12],[0,-4],[4,-13],[0,-15],[2,-6],[5,3],[2,2],[-1,-11],[-5,-11],[-11,-18],[-12,-33],[-6,-10],[-2,1],[-1,0],[-2,-1],[-2,0],[2,-6],[-1,-13],[1,-6],[-5,2],[0,-3],[-2,-7],[-6,7],[-3,2],[-4,1],[3,-5],[0,-4],[-2,-4],[-6,-2],[5,-9],[3,-10],[2,-10],[0,-11],[-2,-21],[1,-11],[12,-12],[5,-9],[3,-9],[1,-8],[0,-31],[-3,-7],[13,-4],[2,-2],[1,-3],[2,-2],[4,-2],[7,0],[2,-2],[1,-5],[1,-7],[3,-6],[4,-3],[5,-2],[4,-3],[3,-5],[5,-13],[4,-6],[10,-8],[2,-3],[-5,-2],[-4,1],[-3,0],[-5,5],[-1,0],[-7,7],[-7,9],[-6,3],[-7,-1],[-4,-2],[-2,0],[-2,-1],[-7,-11],[5,-2],[22,2],[-4,-6],[-2,-4],[3,-2],[7,0],[7,-2],[0,-5],[-3,-8],[0,-8],[1,-1],[3,-3],[1,-1],[0,-7],[-2,-4],[0,-2],[1,0],[1,-1],[2,-1],[1,-2],[-1,-4],[-2,-2],[-2,-3],[1,-4],[2,-6],[0,-3],[-1,-3],[5,1],[6,3],[6,3],[4,4],[5,0],[5,-5],[16,-20],[6,-10],[2,-11],[-6,-12],[0,-2],[2,-4],[2,-3],[2,-2],[0,-4],[-2,-8],[0,-3],[1,-12],[-1,-5],[-5,-6],[-5,-4],[-3,-1],[-4,1],[-6,-1],[-4,-2],[-2,-4],[0,-5],[1,-7],[3,2],[4,1],[8,0],[1,4],[2,2],[3,-2],[3,-3],[1,-1],[1,0],[4,-2],[1,-4],[-1,-4],[0,-3],[3,-3],[8,-8],[3,-7],[5,-20],[3,-6],[5,-3],[-1,-2],[-2,-3],[-1,-3],[2,-4],[1,-2],[5,-5],[2,-4],[-1,-8],[3,-7],[-3,-2],[-7,-3],[-6,-6],[-2,-3],[3,-1],[15,0],[2,0],[2,-3],[2,-10],[3,-3],[6,-5],[3,-2],[2,-5],[2,-10],[-2,-8],[-7,-3],[-11,1],[3,-5],[11,-8],[0,-3],[-4,-3],[-12,-5],[-11,-3],[-1,-4],[5,-9],[-1,-7],[-2,-5],[-5,-4],[-5,-4],[9,2],[17,20],[8,-1],[5,-2],[11,0],[7,-7],[5,-1],[5,0],[5,-1],[9,-7],[22,-36],[1,-21],[3,-11],[4,4],[2,6],[0,7],[-2,5],[-3,8],[0,3],[5,0],[7,-1],[5,-1],[11,-5],[7,-2],[15,-5],[2,0],[1,0],[1,-4],[-1,-5],[-2,-5],[-1,-5],[3,-7],[1,-3],[-3,-2],[-3,-1],[-1,-3],[1,-3],[2,0],[2,1],[2,0],[6,-3],[3,-1],[1,3],[0,4],[2,2],[2,0],[4,-1],[4,-3],[9,-8],[4,-3],[0,3],[1,3],[1,2],[1,2],[2,-2],[3,0],[2,1],[3,1],[-6,2],[-19,8],[12,15],[5,-1],[2,-4],[1,-5],[2,-5],[3,-3],[8,-3],[4,-4],[2,-3],[12,-26],[4,-3],[13,-2],[1,-1],[12,3],[2,8],[-4,5],[-7,-1],[-2,4],[2,4],[3,1],[5,1],[3,-1],[2,-3],[1,-4],[2,-3],[3,-7],[-3,-6],[-6,-5],[-5,-6],[2,0],[5,0],[3,0],[-4,-12],[-1,-4],[1,-3],[2,-3],[2,-3],[0,-5],[6,2],[5,-1],[3,-4],[-4,-5],[7,-1],[9,8],[6,-4],[2,-8],[-4,-6],[-5,-5],[-3,-4],[3,-6],[7,-2],[7,-2],[6,-2],[2,-6],[1,-12],[3,-6],[5,-3],[14,-2],[6,-3],[3,-6],[-5,-2],[-14,2],[-12,-3],[-31,-24],[3,-13],[3,2],[2,2],[1,3],[1,3],[7,-6],[26,-13],[6,-7],[-6,-7],[-20,-10],[-7,-6],[-7,-9],[-5,-10],[4,-14],[-3,-13],[3,-3],[4,1],[5,9],[3,2],[10,-4],[0,-10],[-5,-12],[-6,-7],[-12,-13],[-2,-4],[0,-5],[3,-9],[-2460,0],[0,4096]],[[412,2768],[0,275],[48,-54],[46,41],[31,151],[264,-136],[5,-81],[-39,-50],[-191,-71],[-22,26],[-101,-96],[-41,-5]],[[0,1229],[38,7],[59,142],[152,36],[175,156],[60,-68],[120,-70],[-47,-66],[-62,-19],[4,-70],[-72,-21],[-19,-29],[11,-61],[-29,-54],[-50,-11],[16,-36],[-47,-79],[-114,-26],[-26,-40],[-43,-13],[-16,35],[-24,-35],[-86,8],[0,88],[5,28],[-5,10],[0,188]],[[1431,3200],[35,53],[17,-43],[50,0],[-17,-43],[54,-53],[-18,-27],[-47,-10],[-57,35],[-8,42],[27,13],[-36,33]],[[1755,1839],[25,31],[23,158],[51,-7],[-2,-45],[-24,-9],[19,-14],[-17,-70],[22,-79],[-37,-11],[4,35],[-29,-13],[-35,24]],[[937,1173],[13,141],[35,18],[66,6],[55,-23],[-4,-23],[72,-4],[-40,-99],[-135,14],[-62,-30]],[[1007,4005],[35,40],[53,-68],[55,-11],[-64,-29],[3,-86],[-37,10],[-45,144]],[[1460,2777],[21,1],[-9,155],[23,-3],[28,136],[88,47],[76,3],[50,-111],[-22,-6],[13,-63],[-132,0],[-1,-215],[133,-23],[20,-44],[-38,-74],[-250,197]],[[1995,1645],[41,-53],[-33,-21],[-25,9],[17,65]],[[2183,2647],[-21,-42],[-41,36],[20,7],[42,-1]],[[1067,3637],[41,37],[-4,28],[64,-28],[-23,-79],[-60,5],[-18,37]],[[357,4054],[3,24],[22,6],[10,-47],[-35,17]],[[1202,2942],[36,63],[-12,27],[49,18],[97,-51],[23,-92],[-44,-2],[3,-18],[-55,41],[-97,14]],[[42,3289],[2,38],[33,13],[106,-8],[109,-32],[-10,-17],[102,10],[8,139],[-67,83],[51,61],[173,-98],[-17,-141],[20,-105],[-38,-13],[21,-39],[-29,-150],[-46,-41],[-48,54],[0,-121],[-39,-44],[-39,116],[-143,215],[-105,76],[-44,4]],[[1226,4051],[28,45],[129,0],[2,-47],[25,-10],[-19,-5],[12,-70],[-54,3],[-12,-26],[-90,6],[-21,104]],[[765,2606],[56,142],[108,-187],[2,-108],[-20,-30],[-63,-2],[-30,109],[-53,76]],[[1597,3245],[146,119],[129,-2],[135,-364],[-75,-253],[-107,46],[-51,70],[-31,2],[-28,136],[22,6],[-90,203],[-50,37]],[[713,2786],[25,52],[26,22],[-28,-122],[-18,-1],[-5,49]],[[376,3576],[91,62],[128,-136],[-25,-36],[-194,110]],[[852,536],[5,120],[45,33],[104,7],[174,74],[14,60],[-106,262],[89,53],[-13,86],[143,8],[78,56],[9,48],[160,36],[35,41],[98,-21],[17,-36],[35,-3],[-118,-107],[83,-91],[31,-138],[60,-83],[24,-96],[-53,-17],[17,-78],[-150,-28],[-62,19],[-53,-34],[-81,45],[-67,-12],[-37,-71],[11,-74],[-60,23],[-21,-43],[7,-43],[101,-137],[-121,-95],[-133,-17],[-19,54],[-72,39],[-27,-19],[-75,21],[-72,158]]]}