{"objects":{"water":{"type":"GeometryCollection","geometries":[{"type":"Polygon","properties":{"kind":"lake","name":"Senanayake Samudra","reservoir":true,"area":97305112,"sort_rank":200,"source":"naturalearthdata.com","min_zoom":0.0,"id":1257},"arcs":[[287]]},{"type":"MultiPolygon","properties":{"source":"naturalearthdata.com","kind":"ocean","area":1576712559132672,"sort_rank":200,"min_zoom":0.0,"id":1},"arcs":[[[288]],[[289]],[[290]]]},{"type":"Polygon","properties":{"source":"naturalearthdata.com","kind":"lake","area":52214300,"sort_rank":200,"min_zoom":0.0,"id":700},"arcs":[[291]]},{"type":"Polygon","properties":{"source":"naturalearthdata.com","kind":"lake","reservoir":true,"area":85294320,"sort_rank":200,"min_zoom":0.0,"id":1048},"arcs":[[292]]},{"type":"Point","properties":{"label_placement":true,"kind":"lake","name":"Senanayake Samudra","reservoir":true,"area":97305112,"sort_rank":200,"source":"naturalearthdata.com","min_zoom":0.0,"id":1257},"coordinates":[4005,2302]},{"type":"MultiLineString","properties":{"source":"naturalearthdata.com","kind":"ocean","sort_rank":205,"boundary":true,"min_zoom":0.0,"id":21},"arcs":[[293],[294],[295]]},{"type":"LineString","properties":{"source":"naturalearthdata.com","kind":"lake","sort_rank":367,"boundary":true,"min_zoom":0.0,"id":700},"arcs":[296]},{"type":"LineString","properties":{"source":"naturalearthdata.com","kind":"lake","reservoir":true,"sort_rank":367,"boundary":true,"min_zoom":0.0,"id":1048},"arcs":[297]},{"type":"LineString","properties":{"source":"naturalearthdata.com","kind":"lake","reservoir":true,"sort_rank":367,"boundary":true,"min_zoom":0.0,"id":1257},"arcs":[298]}]},"buildings":{"type":"GeometryCollection","geometries":[]},"places":{"type":"GeometryCollection","geometries":[{"type":"Point","properties":{"name:cy":"Sri Lanka","name:ko":"\uc2a4\ub9ac\ub791\uce74","name:cv":"\u0428\u0440\u0438-\u041b\u0430\u043d\u043a\u0430","name:km":"\u179f\u17d2\u179a\u17b8\u179b\u1784\u17d2\u1780\u17b6","name:cs":"Sr\u00ed Lanka","name:ki":"Sri Lanka","name:kw":"Shri Lanka","name:kv":"\u0428\u0440\u0438-\u041b\u0430\u043d\u043a\u0430","name:ku":"Sr\u00ee Lanka","name:tl":"Sri Lanka","name:ta":"\u0b87\u0bb2\u0b99\u0bcd\u0b95\u0bc8","name:tg":"\u0428\u0440\u0438-\u041b\u0430\u043d\u043a\u0430","name:ca":"Sri Lanka","name:te":"\u0c36\u0c4d\u0c30\u0c40\u0c32\u0c02\u0c15","name:ka":"\u10e8\u10e0\u10d8-\u10da\u10d0\u10dc\u10d9\u10d0","name:hr":"\u0160ri Lanka","name:da":"Sri Lanka","name:de":"Sri Lanka","name:dz":"\u0f64\u0fb2\u0f71\u0f80\u0f0b\u0f63\u0f44\u0f40\u0f0b","source":"openstreetmap.org","name:kn":"\u0cb6\u0ccd\u0cb0\u0cc0\u0cb2\u0c82\u0c95\u0cbe","name:dv":"\u0787\u07ae\u0785\u07aa\u078b\u07ab\u0786\u07a6\u0783\u07a6","name:lv":"\u0160rilanka","name:lt":"\u0160ri Lanka","name:uz":"Shri-Lanka","name:kk":"\u0428\u0440\u0438-\u041b\u0430\u043d\u043a\u0430","name:ur":"\u0633\u0631\u06cc \u0644\u0646\u06a9\u0627","name:lb":"Sri Lanka","name:la":"Taprobane","name:tt":"\u0428\u0440\u0438-\u041b\u0430\u043d\u043a\u0430","name:uk":"\u0428\u0440\u0456-\u041b\u0430\u043d\u043a\u0430","name:ug":"\u0633\u0631\u0649\u0644\u0627\u0646\u0643\u0627","name:li":"Sri Lanka","name:ln":"Sri Lanka","name:el":"\u03a3\u03c1\u03b9 \u039b\u03ac\u03bd\u03ba\u03b1","name:eo":"Sri-Lanko","name:en":"Sri Lanka","name":"\u0dc1\u0dca\u200d\u0dbb\u0dd3 \u0dbd\u0d82\u0d9a\u0dcf","name:tk":"\u015eri-Lanka","name:th":"\u0e1b\u0e23\u0e30\u0e40\u0e17\u0e28\u0e28\u0e23\u0e35\u0e25\u0e31\u0e07\u0e01\u0e32","name:eu":"Sri Lanka","name:et":"Sri Lanka","name:es":"Sri Lanka","name:ia":"Sri Lanka","name:az":"\u015eri-Lanka","name:ie":"Sri Lanka","name:id":"Sri Lanka","name:ar":"\u0633\u0631\u064a\u0644\u0627\u0646\u0643\u0627","name:io":"Sri Lanka","name:is":"Sr\u00ed Lanka","name:am":"\u123d\u122a \u120b\u1295\u12ab","name:it":"Sri Lanka","name:an":"Sri Lanka","name:ru":"\u0428\u0440\u0438-\u041b\u0430\u043d\u043a\u0430","name:rw":"Siri Lanka","name:af":"Sri Lanka","name:zh-yue":"\u65af\u91cc\u862d\u5361","name:zh":"\u65af\u91cc\u862d\u5361","name:so":"Siri Lanka","name:sm":"Sri Lanka","name:sl":"\u0160rilanka","name:sk":"Sr\u00ed Lanka","name:ja":"\u30b9\u30ea\u30e9\u30f3\u30ab","name:si":"\u0dc1\u0dca\u200d\u0dbb\u0dd3 \u0dbd\u0d82\u0d9a\u0dcf\u0dc0","name:sh":"\u0160ri Lanka","name:se":"Sri Lanka","name:br":"Sri Lanka","name:bs":"\u0160ri Lanka","name:bn":"\u09b6\u09cd\u09b0\u09c0\u09b2\u0999\u09cd\u0995\u09be","name:bo":"\u0f66\u0f7a\u0f44\u0f0b\u0f42\u0f0b\u0f42\u0fb3\u0f72\u0f44\u0f0b\u0f0d","name:sa":"\u0936\u094d\u0930\u0940\u0932\u0919\u094d\u0915\u093e","name:sw":"Sri Lanka","name:be":"\u0428\u0440\u044b-\u041b\u0430\u043d\u043a\u0430","name:su":"Sri Langka","name:bg":"\u0428\u0440\u0438 \u041b\u0430\u043d\u043a\u0430","name:ss":"Siri Lanka","name:ba":"\u0428\u0440\u0438-\u041b\u0430\u043d\u043a\u0430","name:sq":"Sri Lanka","name:jv":"Sri Lanka","name:pt":"Seri-Lanca","name:ps":"\u0633\u0631\u06cc\u0644\u0627\u0646\u06a9\u0627","name:om":"Sirilaankaa","name:oc":"Sri Lanka","min_zoom":2.0,"name:ro":"Sri Lanka","name:zh-min-nan":"Sri Lanka","name:os":"\u0428\u0440\u0438-\u041b\u0430\u043d\u043a\u0430","name:or":"\u0b36\u0b4d\u0b30\u0b40\u0b32\u0b19\u0b4d\u0b15\u0b3e","name:pl":"Sri Lanka","name:sr":"\u0428\u0440\u0438 \u041b\u0430\u043d\u043a\u0430","name:pa":"\u0a38\u0a4d\u0a30\u0a40\u0a32\u0a70\u0a15\u0a3e","name:tr":"Sri Lanka","name:hi":"\u0936\u094d\u0930\u0940\u0932\u0902\u0915\u093e","name:sv":"Sri Lanka","name:he":"\u05e1\u05e8\u05d9 \u05dc\u05e0\u05e7\u05d4","name:hy":"\u0547\u0580\u056b \u053c\u0561\u0576\u056f\u0561","name:ht":"Srilanka","name:hu":"Sr\u00ed Lanka","name:qu":"Sri Lanka","population":20277597,"kind":"country","name:yi":"\u05e1\u05e8\u05d9 \u05dc\u05d0\u05e0\u05e7\u05d0","name:yo":"Sri Lanka","name:mt":"Sri Lanka","alt_name:eo":"Srilanko","name:ms":"Sri Lanka","name:mr":"\u0936\u094d\u0930\u0940\u0932\u0902\u0915\u093e","name:my":"\u101e\u102e\u101b\u102d\u101c\u1004\u103a\u1039\u1000\u102c\u1014\u102d\u102f\u1004\u103a\u1004\u1036","name:mg":"Sri Lanka","name:ml":"\u0d36\u0d4d\u0d30\u0d40\u0d32\u0d19\u0d4d\u0d15","name:vi":"Sri Lanka","name:mn":"\u0428\u0440\u0438 \u041b\u0430\u043d\u043a\u0430","id":3997635385,"name:mk":"\u0428\u0440\u0438 \u041b\u0430\u043d\u043a\u0430","name:vo":"Sri-Lank\u00e4n","name:fa":"\u0633\u0631\u06cc\u200c\u0644\u0627\u0646\u06a9\u0627","name:fi":"Sri Lanka","name:fo":"Sri Lanka","name:fr":"Sri Lanka","name:fy":"Sry Lanka","name:nl":"Sri Lanka","name:nn":"Sri Lanka","name:no":"Sri Lanka","name:na":"Sri Lanka","name:ne":"\u0936\u094d\u0930\u0940\u0932\u0902\u0915\u093e","name:wo":"Siri Laanka","name:nv":"Swii Lank\u02bca","name:ga":"Sr\u00ed Lanca","name:gd":"Sri Lanca","name:gl":"Sri Lanka - Sri Lank\u0101","name:gv":"Sri Lanka","name:gu":"\u0ab6\u0acd\u0ab0\u0ac0\u0ab2\u0a82\u0a95\u0abe"},"coordinates":[3016,2379]},{"type":"Point","properties":{"admin_level":"4","kind":"region","name":"Southern Province","name:si":"\u0daf\u0d9a\u0dd4\u0dab\u0dd4 \u0db4\u0dc5\u0dcf\u0dad","kind_detail":"state","source":"openstreetmap.org","min_zoom":4.0,"name:ta":"\u0ba4\u0bc6\u0ba9\u0bcd \u0bae\u0bbe\u0b95\u0bbe\u0ba3\u0bae\u0bcd","id":4345027844,"name:ja":"\u5357\u90e8\u5dde"},"coordinates":[2877,785]},{"type":"Point","properties":{"admin_level":"4","kind":"region","name:en":"Eastern","name":"Eastern Province","name:si":"\u0db1\u0dd0\u0d9c\u0dd9\u0db1\u0dc4\u0dd2\u0dbb \u0db4\u0dc5\u0dcf\u0dad","kind_detail":"state","source":"openstreetmap.org","min_zoom":4.0,"name:ta":"\u0b95\u0bbf\u0bb4\u0b95\u0bcd\u0b95\u0bc1 \u0bae\u0bbe\u0b95\u0bbe\u0ba3\u0bae\u0bcd","id":4344963555,"name:ja":"\u6771\u90e8\u5dde"},"coordinates":[3983,3396]},{"type":"Point","properties":{"admin_level":"4","kind":"region","name":"North Central","name:si":"\u0d8b\u0dad\u0dd4\u0dbb\u0dd4 \u0db8\u0dd0\u0daf \u0db4\u0dc5\u0dcf\u0dad","kind_detail":"state","source":"openstreetmap.org","min_zoom":4.0,"name:ta":"\u0bb5\u0b9f \u0bae\u0ba4\u0bcd\u0ba4\u0bbf\u0baf \u0bae\u0bbe\u0b95\u0bbe\u0ba3\u0bae\u0bcd","id":4344966660,"name:ja":"\u5317\u4e2d\u90e8\u5dde"},"coordinates":[2530,3981]},{"type":"Point","properties":{"admin_level":"4","kind":"region","name":"Central Province","name:si":"\u0db8\u0db0\u0dca\u200d\u0dba\u0db8 \u0db4\u0dc5\u0dcf\u0dad","kind_detail":"state","source":"openstreetmap.org","min_zoom":4.0,"name:ta":"\u0bae\u0ba4\u0bcd\u0ba4\u0bbf\u0baf \u0bae\u0bbe\u0b95\u0bbe\u0ba3\u0bae\u0bcd","id":4344959727,"name:ja":"\u4e2d\u90e8\u5dde"},"coordinates":[3010,2514]},{"type":"Point","properties":{"admin_level":"4","kind":"region","name":"North Western Province","name:si":"\u0dc0\u0dba\u0db9 \u0db4\u0dc5\u0dcf\u0dad","kind_detail":"state","source":"openstreetmap.org","min_zoom":4.0,"name:ta":"\u0bb5\u0b9f \u0bae\u0bc7\u0bb2\u0bcd \u0bae\u0bbe\u0b95\u0bbe\u0ba3\u0bae\u0bcd","id":4344994154,"name:ja":"\u5317\u897f\u90e8\u5dde"},"coordinates":[1992,3189]},{"type":"Point","properties":{"admin_level":"4","kind":"region","name":"Sabaragamuwa Province","name:si":"\u0dc3\u0db6\u0dbb\u0d9c\u0db8\u0dd4\u0dc0 \u0db4\u0dc5\u0dcf\u0dad","kind_detail":"state","source":"openstreetmap.org","min_zoom":4.0,"name:ta":"\u0b9a\u0baa\u0bb0\u0b95\u0bae\u0bc1\u0bb5 \u0bae\u0bbe\u0b95\u0bbe\u0ba3\u0bae\u0bcd","id":4345007652,"name:ja":"\u30b5\u30d0\u30e9\u30ac\u30e0\u30ef\u5dde"},"coordinates":[2351,1545]},{"type":"Point","properties":{"admin_level":"4","kind":"region","name":"Western Province","name:si":"\u0db6\u0dc3\u0dca\u0db1\u0dcf\u0dc4\u0dd2\u0dbb \u0db4\u0dc5\u0dcf\u0dad","kind_detail":"state","source":"openstreetmap.org","min_zoom":4.0,"name:ta":"\u0bae\u0bc7\u0bb2\u0bcd \u0bae\u0bbe\u0b95\u0bbe\u0ba3\u0bae\u0bcd","id":4345048158,"name:ja":"\u897f\u90e8\u5dde"},"coordinates":[1922,1791]},{"type":"Point","properties":{"admin_level":"4","kind":"region","name:en":"Uva","name":"Uva Province","name:si":"\u0d8c\u0dc0 \u0db4\u0dc5\u0dcf\u0dad","kind_detail":"state","source":"openstreetmap.org","min_zoom":4.0,"name:ta":"\u0b8a\u0bb5\u0bbe \u0bae\u0bbe\u0b95\u0bbe\u0ba3\u0bae\u0bcd","id":4354962371,"name:ja":"\u30a6\u30d0\u5dde"},"coordinates":[3767,2147]},{"type":"Point","properties":{"source":"naturalearthdata.com","kind":"locality","name":"Colombo","country_capital":true,"population":217000,"min_zoom":5.0,"id":6885},"coordinates":[1613,1931]},{"type":"Point","properties":{"source":"naturalearthdata.com","kind":"locality","name":"Sri Jawewardenepura Kotte","country_capital":true,"population":115826,"min_zoom":5.0,"id":6384},"coordinates":[1748,1884]},{"type":"Point","properties":{"source":"naturalearthdata.com","kind":"locality","name":"Kandy","population":111701,"region_capital":true,"min_zoom":5.0,"id":6383},"coordinates":[2796,2442]},{"type":"Point","properties":{"source":"naturalearthdata.com","kind":"locality","name":"Anuradhapura","population":118302,"region_capital":true,"min_zoom":6.0,"id":5752},"coordinates":[2379,4012]},{"type":"Point","properties":{"source":"naturalearthdata.com","kind":"locality","name":"Galle","population":99478,"region_capital":true,"min_zoom":6.0,"id":4956},"coordinates":[2170,608]},{"type":"Point","properties":{"source":"naturalearthdata.com","kind":"locality","name":"Moratuwa","population":200000,"min_zoom":7.0,"id":2431},"coordinates":[1646,1709]},{"type":"Point","properties":{"source":"naturalearthdata.com","kind":"locality","name":"Matara","population":68244,"min_zoom":7.0,"id":2429},"coordinates":[2611,489]},{"type":"Point","properties":{"source":"naturalearthdata.com","kind":"locality","name":"Badulla","population":47587,"region_capital":true,"min_zoom":7.0,"id":2430},"coordinates":[3350,2007]}]},"transit":{"type":"GeometryCollection","geometries":[{"type":"MultiLineString","properties":{"osm_relation":true,"source":"openstreetmap.org","kind":"train","name":"Batticaloa Line","sort_rank":275,"min_zoom":6.0,"operator":"Sri Lanka Railway"},"arcs":[[200],[201]]},{"type":"MultiLineString","properties":{"osm_relation":true,"source":"openstreetmap.org","kind":"train","name":"Northern Line","sort_rank":275,"min_zoom":6.0,"operator":"Sri Lanka Railway"},"arcs":[[202],[203]]},{"type":"LineString","properties":{"kind":"train","name":"Matale Line","sort_rank":275,"source":"openstreetmap.org","min_zoom":6.0,"operator":"Sri Lanka Railway","id":-4139207,"osm_relation":true},"arcs":[204]},{"type":"MultiLineString","properties":{"osm_relation":true,"source":"openstreetmap.org","kind":"train","name":"Coastal Line","sort_rank":275,"min_zoom":6.0,"operator":"Sri Lanka Railway"},"arcs":[[205],[206],[207],[208],[209],[210],[211],[212],[213],[214],[215]]},{"type":"LineString","properties":{"source":"openstreetmap.org","kind":"train","name":"Up-Country","sort_rank":275,"min_zoom":6.0,"osm_relation":true,"id":-5167389},"arcs":[216]},{"type":"LineString","properties":{"kind":"train","name":"Coastal Line","sort_rank":275,"source":"openstreetmap.org","min_zoom":6.0,"operator":"Sri Lanka Railways","id":-6008379,"osm_relation":true},"arcs":[217]},{"type":"LineString","properties":{"kind":"train","name":"Trincomalee Line","sort_rank":275,"source":"openstreetmap.org","min_zoom":6.0,"operator":"Sri Lanka Railway","id":-4140758,"osm_relation":true},"arcs":[218]},{"type":"LineString","properties":{"source":"openstreetmap.org","kind":"train","name":"Holcim Freight Line","sort_rank":275,"min_zoom":6.0,"osm_relation":true,"id":-6022924},"arcs":[219]},{"type":"MultiLineString","properties":{"osm_relation":true,"source":"openstreetmap.org","kind":"train","name":"Puttalam Line","sort_rank":275,"min_zoom":6.0,"operator":"Sri Lanka Railways"},"arcs":[[220],[221],[222],[223],[224],[225],[226],[227],[228],[229],[230],[231],[232],[233],[234],[235],[236],[237],[238],[239],[240],[241],[242],[243],[244],[245],[246],[247],[248],[249],[250],[251],[252],[253],[254],[255],[256],[257],[258],[259],[260],[261],[262],[263],[264],[265],[266],[267],[268],[269],[270],[271],[272],[273],[274],[275],[276]]},{"type":"MultiLineString","properties":{"osm_relation":true,"source":"openstreetmap.org","kind":"train","name":"Kelani Valley Line","sort_rank":275,"min_zoom":6.0,"operator":"Sri Lanka Railways"},"arcs":[[277],[278],[279],[280],[281],[282],[283],[284],[285]]},{"type":"LineString","properties":{"source":"openstreetmap.org","kind":"train","name":"Mihintale Line","sort_rank":275,"min_zoom":6.0,"osm_relation":true,"id":-4140690},"arcs":[286]}]},"pois":{"type":"GeometryCollection","geometries":[{"type":"Point","properties":{"kind":"national_park","protect_class":"2","name:si":"\u0dc0\u0dc3\u0dca\u0d9c\u0db8\u0dd4\u0dc0 \u0da2\u0dcf\u0dad\u0dd2\u0d9a \u0d8b\u0daf\u0dca\u200d\u0dba\u0dcf\u0db1\u0dba","area":401932000,"source":"openstreetmap.org","min_zoom":6.46,"tier":1,"id":-6315786,"osm_relation":true,"name":"Wasgamuwa National Park"},"coordinates":[3154,3122]}]},"boundaries":{"type":"GeometryCollection","geometries":[{"type":"LineString","properties":{"source":"naturalearthdata.com","kind":"macroregion","name":"Badulla - M\u0101tale","sort_rank":257,"kind_detail":"3","min_zoom":6.8,"id":6240},"arcs":[0]},{"type":"LineString","properties":{"source":"naturalearthdata.com","kind":"region","name":"Ka\u1e37utara - K\u014f\u1e37amba","sort_rank":256,"kind_detail":"4","min_zoom":7.0,"id":6278},"arcs":[1]},{"type":"LineString","properties":{"source":"naturalearthdata.com","kind":"region","sort_rank":256,"kind_detail":"4","min_zoom":7.0,"id":392},"arcs":[2]},{"type":"MultiLineString","properties":{"source":"naturalearthdata.com","kind":"macroregion","name":"Ratnapura - Badulla","sort_rank":257,"kind_detail":"3","min_zoom":6.8,"id":6238},"arcs":[[3],[4],[5],[6]]},{"type":"LineString","properties":{"source":"naturalearthdata.com","kind":"macroregion","name":"M\u014f\u1e47ar\u0101gala - Ratnapura","sort_rank":257,"kind_detail":"3","min_zoom":6.8,"id":6235},"arcs":[7]},{"type":"MultiLineString","properties":{"source":"naturalearthdata.com","kind":"region","name":"K\u00e6galla - Ratnapura","sort_rank":256,"kind_detail":"4","min_zoom":7.0,"id":6236},"arcs":[[8],[9],[10],[11],[12],[13],[14]]},{"type":"MultiLineString","properties":{"source":"naturalearthdata.com","kind":"region","name":"M\u014f\u1e47ar\u0101gala - Badulla","sort_rank":256,"kind_detail":"4","min_zoom":7.0,"id":6237},"arcs":[[15],[16],[17],[18],[19],[20],[21],[22],[23],[24]]},{"type":"MultiLineString","properties":{"source":"naturalearthdata.com","kind":"macroregion","name":"P\u014f\u1e37\u014fnnaruva - M\u0101tale","sort_rank":257,"kind_detail":"3","min_zoom":6.8,"id":6239},"arcs":[[25],[26],[27],[28],[29],[30],[31],[32]]},{"type":"MultiLineString","properties":{"source":"naturalearthdata.com","kind":"macroregion","name":"Kuru\u1e47\u00e6gala - K\u00e6galla","sort_rank":257,"kind_detail":"3","min_zoom":6.8,"id":6241},"arcs":[[33],[34]]},{"type":"LineString","properties":{"source":"naturalearthdata.com","kind":"macroregion","name":"Kuru\u1e47\u00e6gala - M\u0101tale","sort_rank":257,"kind_detail":"3","min_zoom":6.8,"id":6242},"arcs":[35]},{"type":"MultiLineString","properties":{"source":"naturalearthdata.com","kind":"region","name":"Anur\u0101dhapura - P\u014f\u1e37\u014fnnaruva","sort_rank":256,"kind_detail":"4","min_zoom":7.0,"id":6243},"arcs":[[36],[37],[38]]},{"type":"MultiLineString","properties":{"source":"naturalearthdata.com","kind":"macroregion","name":"M\u0101tale - Anur\u0101dhapura","sort_rank":257,"kind_detail":"3","min_zoom":6.8,"id":6244},"arcs":[[39],[40],[41],[42],[43]]},{"type":"MultiLineString","properties":{"source":"naturalearthdata.com","kind":"macroregion","name":"Kuru\u1e47\u00e6gala - Anur\u0101dhapura","sort_rank":257,"kind_detail":"3","min_zoom":6.8,"id":6245},"arcs":[[44],[45],[46]]},{"type":"MultiLineString","properties":{"source":"naturalearthdata.com","kind":"macroregion","name":"Nuvara \u0114liya - Ratnapura","sort_rank":257,"kind_detail":"3","min_zoom":6.8,"id":6246},"arcs":[[47],[48],[49],[50]]},{"type":"LineString","properties":{"source":"naturalearthdata.com","kind":"macroregion","name":"Nuvara \u0114liya - K\u00e6galla","sort_rank":257,"kind_detail":"3","min_zoom":6.8,"id":6247},"arcs":[51]},{"type":"MultiLineString","properties":{"source":"naturalearthdata.com","kind":"macroregion","name":"Badulla - Nuvara \u0114liya","sort_rank":257,"kind_detail":"3","min_zoom":6.8,"id":6248},"arcs":[[52],[53],[54]]},{"type":"LineString","properties":{"source":"naturalearthdata.com","kind":"macroregion","name":"K\u00e6galla - Mahanuvara","sort_rank":257,"kind_detail":"3","min_zoom":6.8,"id":6250},"arcs":[55]},{"type":"LineString","properties":{"source":"naturalearthdata.com","kind":"macroregion","name":"Badulla - Mahanuvara","sort_rank":257,"kind_detail":"3","min_zoom":6.8,"id":6251},"arcs":[56]},{"type":"MultiLineString","properties":{"source":"naturalearthdata.com","kind":"region","name":"M\u0101tale - Mahanuvara","sort_rank":256,"kind_detail":"4","min_zoom":7.0,"id":6252},"arcs":[[57],[58],[59],[60],[61],[62],[63],[64],[65]]},{"type":"MultiLineString","properties":{"source":"naturalearthdata.com","kind":"macroregion","name":"Mahanuvara - Kuru\u1e47\u00e6gala","sort_rank":257,"kind_detail":"3","min_zoom":6.8,"id":6253},"arcs":[[66],[67],[68],[69],[70],[71]]},{"type":"MultiLineString","properties":{"source":"naturalearthdata.com","kind":"region","name":"Mahanuvara - Nuvara \u0114liya","sort_rank":256,"kind_detail":"4","min_zoom":7.0,"id":6254},"arcs":[[72],[73],[74],[75],[76],[77],[78],[79],[80],[81],[82]]},{"type":"MultiLineString","properties":{"source":"naturalearthdata.com","kind":"macroregion","name":"Ma\u1e0dakalapuva - P\u014f\u1e37\u014fnnaruva","sort_rank":257,"kind_detail":"3","min_zoom":6.8,"id":6255},"arcs":[[83],[84],[85]]},{"type":"LineString","properties":{"source":"naturalearthdata.com","kind":"macroregion","name":"Ka\u1e37utara - Ratnapura","sort_rank":257,"kind_detail":"3","min_zoom":6.8,"id":6256},"arcs":[86]},{"type":"MultiLineString","properties":{"source":"naturalearthdata.com","kind":"macroregion","name":"Triku\u1e47\u0101malaya - P\u014f\u1e37\u014fnnaruva","sort_rank":257,"kind_detail":"3","min_zoom":6.8,"id":6257},"arcs":[[87],[88],[89],[90],[91],[92],[93],[94],[95]]},{"type":"LineString","properties":{"source":"naturalearthdata.com","kind":"macroregion","name":"Anur\u0101dhapura - Triku\u1e47\u0101malaya","sort_rank":257,"kind_detail":"3","min_zoom":6.8,"id":6258},"arcs":[96]},{"type":"MultiLineString","properties":{"source":"naturalearthdata.com","kind":"region","name":"Triku\u1e47\u0101malaya - Ma\u1e0dakalapuva","sort_rank":256,"kind_detail":"4","min_zoom":7.0,"id":6260},"arcs":[[97],[98]]},{"type":"MultiLineString","properties":{"source":"naturalearthdata.com","kind":"macroregion","name":"G\u0101lla - Ratnapura","sort_rank":257,"kind_detail":"3","min_zoom":6.8,"id":6261},"arcs":[[99],[100],[101]]},{"type":"MultiLineString","properties":{"source":"naturalearthdata.com","kind":"macroregion","name":"G\u0101lla - Ka\u1e37utara","sort_rank":257,"kind_detail":"3","min_zoom":6.8,"id":6262},"arcs":[[102],[103],[104],[105],[106],[107]]},{"type":"MultiLineString","properties":{"source":"naturalearthdata.com","kind":"macroregion","name":"Amp\u0101ra - M\u014f\u1e47ar\u0101gala","sort_rank":257,"kind_detail":"3","min_zoom":6.8,"id":6263},"arcs":[[108],[109],[110],[111],[112],[113],[114]]},{"type":"MultiLineString","properties":{"source":"naturalearthdata.com","kind":"macroregion","name":"P\u014f\u1e37\u014fnnaruva - Amp\u0101ra","sort_rank":257,"kind_detail":"3","min_zoom":6.8,"id":6264},"arcs":[[115],[116],[117]]},{"type":"MultiLineString","properties":{"source":"naturalearthdata.com","kind":"macroregion","name":"Amp\u0101ra - Badulla","sort_rank":257,"kind_detail":"3","min_zoom":6.8,"id":6265},"arcs":[[118],[119],[120],[121],[122]]},{"type":"LineString","properties":{"source":"naturalearthdata.com","kind":"macroregion","name":"Amp\u0101ra - M\u0101tale","sort_rank":257,"kind_detail":"3","min_zoom":6.8,"id":6266},"arcs":[123]},{"type":"MultiLineString","properties":{"source":"naturalearthdata.com","kind":"region","name":"Ma\u1e0dakalapuva - Amp\u0101ra","sort_rank":256,"kind_detail":"4","min_zoom":7.0,"id":6267},"arcs":[[124],[125],[126],[127]]},{"type":"MultiLineString","properties":{"source":"naturalearthdata.com","kind":"macroregion","name":"M\u0101tara - Ratnapura","sort_rank":257,"kind_detail":"3","min_zoom":6.8,"id":6268},"arcs":[[128],[129],[130],[131]]},{"type":"MultiLineString","properties":{"source":"naturalearthdata.com","kind":"region","name":"M\u0101tara - G\u0101lla","sort_rank":256,"kind_detail":"4","min_zoom":7.0,"id":6269},"arcs":[[132],[133],[134],[135],[136]]},{"type":"MultiLineString","properties":{"source":"naturalearthdata.com","kind":"macroregion","name":"K\u00e6galla - Gampaha","sort_rank":257,"kind_detail":"3","min_zoom":6.8,"id":6270},"arcs":[[137],[138],[139]]},{"type":"MultiLineString","properties":{"source":"naturalearthdata.com","kind":"macroregion","name":"Gampaha - Kuru\u1e47\u00e6gala","sort_rank":257,"kind_detail":"3","min_zoom":6.8,"id":6271},"arcs":[[140],[141],[142],[143]]},{"type":"MultiLineString","properties":{"source":"naturalearthdata.com","kind":"macroregion","name":"Hambant\u014f\u1e6da - M\u014f\u1e47ar\u0101gala","sort_rank":257,"kind_detail":"3","min_zoom":6.8,"id":6272},"arcs":[[144],[145],[146],[147],[148],[149],[150],[151],[152],[153],[154],[155],[156]]},{"type":"MultiLineString","properties":{"source":"naturalearthdata.com","kind":"macroregion","name":"Ratnapura - Hambant\u014f\u1e6da","sort_rank":257,"kind_detail":"3","min_zoom":6.8,"id":6273},"arcs":[[157],[158],[159],[160]]},{"type":"MultiLineString","properties":{"source":"naturalearthdata.com","kind":"region","name":"Hambant\u014f\u1e6da - M\u0101tara","sort_rank":256,"kind_detail":"4","min_zoom":7.0,"id":6275},"arcs":[[161],[162],[163],[164],[165]]},{"type":"LineString","properties":{"source":"naturalearthdata.com","kind":"macroregion","name":"Ratnapura - K\u014f\u1e37amba","sort_rank":257,"kind_detail":"3","min_zoom":6.8,"id":6276},"arcs":[166]},{"type":"LineString","properties":{"source":"naturalearthdata.com","kind":"macroregion","name":"K\u014f\u1e37amba - K\u00e6galla","sort_rank":257,"kind_detail":"3","min_zoom":6.8,"id":6277},"arcs":[167]},{"type":"MultiLineString","properties":{"source":"naturalearthdata.com","kind":"region","name":"Ka\u1e37utara - K\u014f\u1e37amba","sort_rank":256,"kind_detail":"4","min_zoom":7.0,"id":6279},"arcs":[[168],[169],[170],[171],[172],[173],[174],[175]]},{"type":"LineString","properties":{"source":"naturalearthdata.com","kind":"region","name":"K\u014f\u1e37amba - Ka\u1e37utara","sort_rank":256,"kind_detail":"4","min_zoom":7.0,"id":6280},"arcs":[176]},{"type":"MultiLineString","properties":{"source":"naturalearthdata.com","kind":"region","name":"K\u014f\u1e37amba - Gampaha","sort_rank":256,"kind_detail":"4","min_zoom":7.0,"id":6281},"arcs":[[177],[178],[179],[180],[181],[182],[183],[184]]},{"type":"MultiLineString","properties":{"source":"naturalearthdata.com","kind":"region","name":"Kuru\u1e47\u00e6gala - Puttalama","sort_rank":256,"kind_detail":"4","min_zoom":7.0,"id":6285},"arcs":[[185],[186],[187],[188],[189]]},{"type":"MultiLineString","properties":{"source":"naturalearthdata.com","kind":"macroregion","name":"Puttalama - Anur\u0101dhapura","sort_rank":257,"kind_detail":"3","min_zoom":6.8,"id":6286},"arcs":[[190],[191],[192],[193],[194]]},{"type":"MultiLineString","properties":{"source":"naturalearthdata.com","kind":"macroregion","name":"Gampaha - Puttalama","sort_rank":257,"kind_detail":"3","min_zoom":6.8,"id":6287},"arcs":[[195],[196],[197],[198],[199]]}]},"roads":{"type":"GeometryCollection","geometries":[{"type":"LineString","properties":{"source":"naturalearthdata.com","kind":"major_road","sort_rank":379,"kind_detail":"secondary","min_zoom":3.0,"id":38987},"arcs":[299]},{"type":"LineString","properties":{"source":"naturalearthdata.com","kind":"major_road","kind_detail":"secondary","sort_rank":379,"landuse_kind":"urban_area","min_zoom":4.0,"id":39116},"arcs":[300]},{"type":"MultiLineString","properties":{"source":"naturalearthdata.com","kind":"major_road","sort_rank":379,"kind_detail":"secondary","min_zoom":4.0,"id":39116},"arcs":[[301],[302]]},{"type":"LineString","properties":{"source":"naturalearthdata.com","kind":"minor_road","sort_rank":355,"kind_detail":"tertiary","min_zoom":6.0,"id":39122},"arcs":[303]},{"type":"LineString","properties":{"source":"naturalearthdata.com","kind":"major_road","sort_rank":379,"kind_detail":"secondary","min_zoom":4.0,"id":39177},"arcs":[304]},{"type":"LineString","properties":{"source":"naturalearthdata.com","kind":"major_road","sort_rank":379,"kind_detail":"secondary","min_zoom":3.0,"id":39178},"arcs":[305]},{"type":"LineString","properties":{"source":"naturalearthdata.com","kind":"major_road","sort_rank":379,"kind_detail":"secondary","min_zoom":3.0,"id":39352},"arcs":[306]},{"type":"LineString","properties":{"source":"naturalearthdata.com","kind":"minor_road","sort_rank":355,"kind_detail":"tertiary","min_zoom":5.0,"id":39447},"arcs":[307]},{"type":"LineString","properties":{"source":"naturalearthdata.com","kind":"major_road","sort_rank":379,"kind_detail":"secondary","min_zoom":3.0,"id":39456},"arcs":[308]},{"type":"LineString","properties":{"source":"naturalearthdata.com","kind":"major_road","sort_rank":379,"kind_detail":"secondary","min_zoom":4.0,"id":39459},"arcs":[309]},{"type":"LineString","properties":{"source":"naturalearthdata.com","kind":"major_road","kind_detail":"secondary","sort_rank":379,"landuse_kind":"urban_area","min_zoom":3.0,"id":39583},"arcs":[310]},{"type":"LineString","properties":{"source":"naturalearthdata.com","kind":"major_road","sort_rank":379,"kind_detail":"secondary","min_zoom":3.0,"id":39583},"arcs":[311]},{"type":"LineString","properties":{"source":"naturalearthdata.com","kind":"minor_road","kind_detail":"tertiary","sort_rank":355,"landuse_kind":"urban_area","min_zoom":6.0,"id":39584},"arcs":[312]},{"type":"LineString","properties":{"source":"naturalearthdata.com","kind":"minor_road","sort_rank":355,"kind_detail":"tertiary","min_zoom":6.0,"id":39584},"arcs":[313]},{"type":"LineString","properties":{"source":"naturalearthdata.com","kind":"major_road","kind_detail":"secondary","sort_rank":379,"landuse_kind":"urban_area","min_zoom":3.0,"id":39594},"arcs":[314]},{"type":"LineString","properties":{"source":"naturalearthdata.com","kind":"minor_road","sort_rank":355,"kind_detail":"tertiary","min_zoom":5.0,"id":39636},"arcs":[315]},{"type":"LineString","properties":{"source":"naturalearthdata.com","kind":"minor_road","sort_rank":355,"kind_detail":"tertiary","min_zoom":5.0,"id":39681},"arcs":[316]},{"type":"LineString","properties":{"source":"naturalearthdata.com","kind":"major_road","kind_detail":"secondary","sort_rank":379,"landuse_kind":"urban_area","min_zoom":4.0,"id":39691},"arcs":[317]},{"type":"LineString","properties":{"source":"naturalearthdata.com","kind":"major_road","sort_rank":379,"kind_detail":"secondary","min_zoom":4.0,"id":39691},"arcs":[318]},{"type":"LineString","properties":{"source":"naturalearthdata.com","kind":"minor_road","sort_rank":355,"kind_detail":"tertiary","min_zoom":5.0,"id":39753},"arcs":[319]},{"type":"LineString","properties":{"source":"naturalearthdata.com","kind":"minor_road","sort_rank":355,"kind_detail":"tertiary","min_zoom":5.0,"id":39755},"arcs":[320]},{"type":"LineString","properties":{"source":"naturalearthdata.com","kind":"minor_road","sort_rank":355,"kind_detail":"tertiary","min_zoom":5.0,"id":39963},"arcs":[321]},{"type":"LineString","properties":{"source":"naturalearthdata.com","kind":"minor_road","sort_rank":355,"kind_detail":"tertiary","min_zoom":5.0,"id":39986},"arcs":[322]}]},"earth":{"type":"GeometryCollection","geometries":[{"type":"MultiPolygon","properties":{"sort_rank":10,"source":"naturalearthdata.com","min_zoom":0.0,"kind":"earth","area":84870412996},"arcs":[[[323]]]},{"type":"Point","properties":{"label_placement":true,"kind":"island","name":"Sri Lanka","area":67343900672,"name:cs":"Cejlon","source":"openstreetmap.org","min_zoom":7.0,"old_name":"Ceylon","id":-7681917,"osm_relation":true},"coordinates":[2784,3325]}]},"landuse":{"type":"GeometryCollection","geometries":[{"type":"MultiPolygon","properties":{"kind":"national_park","protect_class":"2","area":658514422,"sort_rank":18,"source":"openstreetmap.org","min_zoom":3.0,"tier":1,"osm_relation":true},"arcs":[[[324]]]},{"type":"MultiPolygon","properties":{"source":"openstreetmap.org","kind":"park","tier":2,"area":516549612,"sort_rank":24,"min_zoom":6.0,"osm_relation":true},"arcs":[[[325]],[[326],[327],[328],[329]]]},{"type":"Polygon","properties":{"kind":"national_park","protect_class":"2","area":1365289984,"sort_rank":18,"source":"openstreetmap.org","min_zoom":3.0,"tier":1,"id":199462550},"arcs":[[330]]},{"type":"MultiPolygon","properties":{"source":"naturalearthdata.com","kind":"urban_area","name":"","area":394759004,"sort_rank":11,"min_zoom":4.0},"arcs":[[[331]],[[332]],[[333]],[[334]],[[335]],[[336]],[[337]]]},{"type":"Polygon","properties":{"kind":"nature_reserve","protect_class":"2","area":209175008,"sort_rank":23,"source":"openstreetmap.org","min_zoom":6.0,"tier":2,"id":231723830},"arcs":[[338]]},{"type":"Polygon","properties":{"kind":"park","area":2121090048,"sort_rank":24,"source":"openstreetmap.org","min_zoom":4.0,"tier":2,"id":-5445342,"osm_relation":true},"arcs":[[339],[340],[341],[342],[343],[344]]}]}},"type":"Topology","transform":{"translate":[78.75,5.6159858192],"scale":[0.0006866455,0.000681441]},"arcs":[[[3259,2933],[-14,-69],[7,-120]],[[1678,1613],[0,-1]],[[2381,510]],[[3003,1672],[-4,54]],[[3081,1535],[-34,6],[-22,18],[-15,24],[7,20],[39,18],[6,5],[4,12],[4,14],[-25,7],[-20,22]],[[3025,1681],[-11,-4],[-11,-5]],[[3172,1572],[-27,-1],[-29,-22],[-35,-14]],[[3172,1572],[-24,-36],[-15,-38],[-27,-32],[-14,-32],[-14,-64],[-27,-39],[-22,-42],[4,-24],[9,-23],[1,-91],[17,-31],[20,-28],[28,-15],[27,-19],[14,-26],[11,-34]],[[2149,1920],[60,-61],[18,-23],[23,-18]],[[2126,1910],[23,10]],[[2275,1827],[11,-12],[6,-15],[37,-8]],[[2250,1818],[10,6],[15,3]],[[2391,1819],[22,-1],[32,-18],[40,-13],[29,-4]],[[2329,1792],[44,25],[18,2]],[[2514,1783],[29,1]],[[3671,2437],[-57,-13],[0,-31],[-11,-27],[-40,-51],[-13,-22],[-24,-11]],[[3526,2282],[-21,22],[-24,3]],[[3481,2307],[-17,-26],[-4,-29],[18,-24],[22,-22],[15,-30],[17,-18]],[[3586,2172],[15,-20],[8,-7],[11,-13],[8,-19],[3,-21],[0,-27],[-6,-27],[-6,-40],[-8,-16],[-9,-16],[-4,-22],[-8,-22],[-19,-4]],[[3532,2158],[54,14]],[[3571,1918],[-14,7]],[[3557,1925],[-9,-9],[-6,-12],[-15,-19],[-18,-14],[-38,-11],[-31,-17],[36,-50],[-43,-13],[-12,-24],[-50,-5],[-3,-30],[3,-32],[-13,-27],[6,-19],[26,-7],[1,-26],[-21,-33],[-3,-22],[0,-22],[14,-41],[21,-34],[-30,-11],[-4,-35]],[[3310,1359],[-13,20],[-17,21],[-6,47],[-10,6],[-10,5],[-10,32],[-14,30],[-11,3],[-12,6],[-6,25],[-12,18],[-17,0]],[[3368,1412],[-16,8],[-16,10]],[[3336,1430],[-20,-32],[-6,-39]],[[2922,3517],[12,-13],[21,-23],[-1,-25],[8,-9],[12,-5]],[[3002,3466],[17,-5],[23,-4],[21,-13],[-44,-46],[-14,-70],[-4,-33],[-14,-59],[-5,-11],[-3,-11],[-42,-9],[-10,-40],[20,-89],[-3,-29],[15,-21],[38,-8]],[[2974,3442],[10,6],[0,10],[18,8]],[[3185,3075],[76,14]],[[3107,3080],[78,-5]],[[3098,3028],[6,26],[3,26]],[[3063,3060],[12,-18],[23,-14]],[[2997,3018],[37,15],[29,27]],[[2366,2610],[35,-4],[21,-22],[13,-29]],[[2102,2408],[30,18],[30,27],[32,22],[34,16],[71,16],[16,1],[10,14],[5,17],[-1,31],[5,27],[32,13]],[[2644,2702],[1,16],[8,11],[3,17],[-4,19],[-7,15],[-9,15],[-15,29],[4,31],[20,19],[6,13],[-1,13],[4,17],[1,18],[-27,26],[-8,45],[-4,49],[-7,11],[-6,3],[0,26],[-10,25],[-14,24],[-11,23],[-11,3],[-13,7],[-3,26],[6,24]],[[3112,3911],[19,11],[6,25],[11,26],[18,20]],[[3047,3911],[65,0]],[[2922,3517],[2,38],[28,40],[-29,23],[2,51],[10,58],[21,55],[12,62],[22,56],[57,11]],[[2922,3517],[-31,-13],[-27,-14],[-19,-16],[-29,-30],[-8,-6]],[[2808,3438],[-11,3]],[[2797,3441],[-15,0],[-8,-24],[0,-27],[-14,-21],[-18,-20],[3,-6],[1,-11],[-9,-5],[-11,-8],[-10,-17],[-22,-15]],[[2694,3287],[-18,11],[-23,1]],[[2653,3299],[-26,-31],[-49,-18],[-31,-23]],[[2383,3575],[-26,16],[-24,24],[-44,36],[-48,18],[-27,4],[-22,16],[-28,11],[-29,7],[-134,62],[-31,17]],[[2547,3227],[-37,36],[6,51],[-7,34],[-14,34],[-4,25],[-12,20],[-23,2],[-21,8],[-2,26],[2,26],[-5,32],[3,18],[-1,19],[-22,18]],[[2410,3576],[-27,-1]],[[2543,1784],[-1,-24],[10,-11],[-11,-10],[-6,-15],[30,-23],[36,-3],[75,-17],[80,-11]],[[2871,1676],[46,6],[82,44]],[[2823,1678],[48,-2]],[[2756,1670],[31,5],[36,3]],[[2495,2073],[2,-5],[5,-1],[-13,-21],[-20,-18],[-11,-4],[-8,-11],[8,-11],[10,-9],[-11,-55],[13,-42],[42,-14],[34,-25],[11,-39],[2,-19],[-16,-15]],[[3206,2312],[-2,-26],[11,-37],[-3,-13],[3,-12],[7,-8],[5,-8],[-10,-12],[-7,-14],[8,-26],[2,-10],[-5,-11],[-9,-12],[-12,-11],[-13,-25],[-7,-29],[-32,-48],[-55,-12],[-27,-13],[-23,-21],[-7,-29],[-19,-23]],[[3011,1912],[-27,2]],[[2984,1914],[-27,-1],[2,-24],[46,-23],[10,-21],[8,-22],[8,-9],[5,-10],[-21,-35],[13,-9],[14,-6],[-15,-21],[-28,-7]],[[2495,2073],[1,29],[11,22],[-11,19],[-22,52],[17,16],[50,8],[23,25],[16,1],[16,4],[11,18],[8,19],[-17,21],[-21,21],[0,22],[4,26],[-18,21],[-37,21],[-12,9],[2,28],[-63,55],[-18,45]],[[3252,2744],[13,-221],[32,-106],[-2,-48],[-40,-36],[-31,-9],[-18,-12]],[[3206,2750],[46,-6]],[[3141,2704],[10,6],[10,8],[16,27],[29,5]],[[3123,2726],[18,-22]],[[3099,2714],[24,12]],[[2875,2723],[22,-8],[54,-45]],[[2820,2600],[31,34],[-5,54],[9,23],[20,12]],[[3039,2715],[60,-1]],[[2951,2670],[42,6],[46,39]],[[2644,2702],[30,-41],[93,-58],[53,-3]],[[2644,2702],[-17,-8],[-18,-4],[12,-19],[9,-20],[-16,-7]],[[2614,2644],[-21,4]],[[2593,2648],[-21,-12],[2,-17],[-2,-15]],[[2572,2604],[-25,2],[-22,16]],[[2525,2622],[-21,0],[-5,-29],[-6,-8],[-5,-9],[1,-10],[2,-6],[-26,-8]],[[2465,2552],[-30,3]],[[2922,2430],[25,-22],[21,-29],[15,-5],[13,-1],[33,-53],[54,-5]],[[2817,2172],[94,111],[29,50],[-13,55],[-5,42]],[[3145,2325],[61,-13]],[[3083,2315],[62,10]],[[2792,2178],[25,-6]],[[2691,2142],[30,6],[42,30],[29,0]],[[2639,2148],[52,-6]],[[2606,2122],[33,26]],[[2645,1946],[31,34],[18,49],[-18,24],[-21,20],[-26,47],[-11,5]],[[2618,2125],[-12,-3]],[[2495,2073],[42,-4],[65,-98],[43,-25]],[[3729,3876],[7,-76],[-11,-232],[10,-54],[25,-53],[12,-54],[-14,-1]],[[3758,3406],[-52,7]],[[3706,3413],[-42,-6],[-33,-22],[-11,-43],[-13,-113],[21,-113]],[[2377,1188],[-53,92],[-62,87],[-7,25],[22,8],[-21,41],[-33,29],[-20,8],[-16,15],[-9,43],[-44,43],[-14,30],[-10,27],[2,24],[-25,67],[-5,30]],[[3188,3999],[17,-25],[24,-9],[22,-18],[6,-30],[18,-18]],[[3166,3993],[22,6]],[[3337,3905],[110,-27],[26,0],[24,-14],[24,-18],[26,-13]],[[3275,3899],[62,6]],[[3706,3876],[23,0]],[[3688,3876],[18,0]],[[3570,3718],[37,9],[20,48],[8,14],[9,38],[10,9],[11,8],[10,18],[13,14]],[[3565,3834],[10,-15],[3,-18],[-1,-19],[5,-28],[-8,-18],[-17,-11],[6,-4],[7,-3]],[[3547,3833],[18,1]],[[3166,3993],[29,103]],[[3753,3885],[131,-14]],[[3729,3876],[24,9]],[[2506,1120],[-46,23],[-21,0],[-25,10],[-20,17],[-17,18]],[[2542,1103],[-13,18]],[[2529,1121],[-23,-1]],[[1821,1190],[-9,7],[-8,11],[-10,3]],[[2083,1087],[-63,12],[-24,17],[-24,20],[-29,13],[-27,5],[-53,25],[-7,13],[-11,10]],[[1845,1202],[-15,-6],[-9,-6]],[[2377,1188],[-52,-12],[-51,-31],[-27,-12],[0,-31],[11,-32],[-3,-30]],[[2255,1040],[-23,19],[-22,21],[-43,33]],[[2167,1113],[-44,-3],[-40,-23]],[[3944,2700],[28,-7],[-21,-34],[9,-5],[9,-2],[-2,-20],[17,-77],[-2,-35],[6,-28],[32,-28],[20,-36],[4,-32],[32,-43],[-24,-19],[-30,-36],[-17,-46],[19,-34],[6,-23],[11,-20],[12,-5]],[[3780,2525],[29,16],[7,10],[10,12],[7,15],[-2,17],[-8,17],[0,20],[15,1],[20,5],[10,16],[5,13],[16,8],[18,6],[37,19]],[[3744,2526],[36,-1]],[[3695,2385],[30,10],[27,20],[-8,55],[0,56]],[[3671,2437],[11,-28],[13,-24]],[[4063,2170],[10,-5],[7,-7],[16,-4]],[[4053,2170],[10,0]],[[3598,2990],[4,15],[7,17],[9,10],[8,16],[-5,35],[7,33]],[[3369,3099],[53,-21],[43,-43],[71,-22],[34,-19],[28,-4]],[[3261,3089],[27,0],[54,5],[27,5]],[[3259,2933],[4,-3],[22,-14],[10,-21],[2,-24],[11,-35],[36,-60]],[[3506,2864],[64,-14],[6,-73],[-16,-71],[-8,-15],[-4,-14],[5,-18],[5,-18],[10,-65],[16,-34],[22,-22]],[[3344,2776],[27,9],[14,4],[18,7],[31,28],[72,40]],[[3619,2524],[17,-4],[6,-13],[11,-17],[13,-26],[5,-27]],[[3606,2520],[13,4]],[[3261,3089],[-1,-25],[10,-33],[3,-28],[-14,-70]],[[3628,3116],[39,-8]],[[3714,3110],[39,-12],[50,-73],[32,-30],[45,-13],[46,-9],[-2,-44],[-15,-42],[3,-25],[14,-22],[45,-27],[25,-24],[96,-17]],[[3667,3108],[47,2]],[[4092,2772],[4,1]],[[2735,1076],[-26,5],[10,26],[-21,39]],[[2698,1146],[-64,-8],[-25,-1],[-10,-23],[-29,-7],[-28,-4]],[[2796,1013],[0,14],[8,7],[-19,14],[1,14],[-16,20]],[[2770,1082],[-35,-6]],[[2542,1103],[-30,-9],[-20,-20],[17,-26],[23,-23],[-9,-41]],[[2523,984],[-45,10],[-28,26],[-30,23],[-25,8]],[[2395,1051],[-23,-7],[14,-27],[29,-18],[31,-45],[11,-42],[-25,-31]],[[2432,881],[-52,9]],[[2380,890],[16,-18],[7,-24],[-11,-30],[-13,-29],[9,-28],[23,-22],[26,-17],[23,-21],[-20,-24],[-23,-23],[-21,-8],[-8,-14],[4,-16],[12,-6],[25,-11],[-8,-17],[-27,-10],[-16,-29],[0,-16],[3,-15],[0,-2]],[[2102,2408],[3,-19],[-15,-11],[-3,-51],[-19,-18],[-23,-12],[-7,-41],[18,-37]],[[2092,2227],[30,-9],[-11,-24],[-21,-15],[-18,-43],[-8,-43],[22,-69],[0,-14],[-4,-12]],[[2056,2219],[36,8]],[[2102,2408],[-25,19],[-36,41],[-9,13],[-4,12],[-13,15]],[[2015,2508],[-41,-8],[-35,-25],[-42,-12]],[[1897,2463],[-41,28]],[[1856,2491],[-34,-2],[-56,-43],[-31,-12]],[[4096,1374],[-30,-22],[-26,-26],[-35,-16],[-29,-23],[1,-24],[8,-20],[-7,-10],[-6,-9],[1,-13],[0,-12],[-19,-31]],[[3503,1143],[-14,2],[-11,27],[-25,9],[-36,5]],[[3417,1186],[-37,-1],[-14,-15]],[[3366,1170],[-18,12]],[[3348,1182],[1,-19],[-13,-17],[-19,-2]],[[3954,1168],[-41,9]],[[3913,1177],[-39,-14]],[[3874,1163],[-13,1],[-3,5]],[[3858,1169],[-16,-12],[-87,-34],[-42,-11],[-23,-9],[-14,-14],[-40,-22]],[[3636,1067],[-36,15],[-22,38],[-28,35]],[[3550,1155],[-18,-2],[-13,-9],[-16,-1]],[[3317,1144],[-19,1]],[[3298,1145],[-7,-34],[14,-33],[-31,-24],[-41,-13],[-37,-20],[-36,-23]],[[2796,1013],[84,-16],[106,-39],[28,-5]],[[3193,904],[7,26],[-13,38],[-27,30]],[[3070,963],[22,-18],[17,-20],[53,-10],[31,-11]],[[3014,953],[28,7],[28,3]],[[2796,1013],[-13,-6],[2,-11],[-10,-26],[10,-23],[-56,-42],[-18,-63],[26,-18],[27,-11]],[[2777,816],[8,-8],[-7,-16],[-9,-13],[5,-25],[24,-13]],[[2764,813],[13,3]],[[2815,744],[16,-3],[-5,-13],[-13,-12],[16,-57],[-47,-20],[3,-24],[20,-13],[14,-1],[13,-7],[-1,-12],[-10,-6],[17,-27],[37,-17],[8,-4]],[[2798,741],[17,3]],[[2126,1910],[-18,-23],[-16,-25],[-6,-20],[-8,-18],[36,-38],[-32,-29]],[[2126,1910],[0,14],[-2,15],[19,18],[-4,26],[-25,13],[-32,2]],[[2082,1757],[-43,10]],[[2039,1767],[-47,-20],[10,-42]],[[2002,1705],[-29,7],[-19,44],[-7,4],[-10,2]],[[1937,1762],[-18,-21],[-22,-11]],[[1897,1730],[-16,7]],[[1881,1737],[-16,-2],[-56,-48],[-17,-7],[-17,-4],[-42,-16]],[[1733,1660],[-67,42]],[[1666,1702],[-2,-25],[9,-27],[5,-18],[0,-19]],[[1675,1608],[3,4]],[[2082,1998],[-27,-9]],[[2055,1989],[-39,4]],[[2016,1993],[-29,-13],[-23,-23],[-6,-28],[-1,-29],[-32,-1]],[[1682,1949],[-26,6],[-24,12],[-31,13]],[[1779,1939],[-72,21]],[[1707,1960],[-13,-5],[-12,-6]],[[1925,1899],[-26,3],[-16,7],[-17,9],[-17,16],[-20,12]],[[1829,1946],[-25,-2],[-25,-5]],[[1970,3786],[2,-28],[0,-29],[15,-58],[5,-29],[14,-26],[20,-7],[18,-11],[-4,-17],[-6,-20],[1,-39],[-1,-34],[-11,-16],[-9,-17],[18,-33],[-18,-14]],[[2014,3408],[-31,17]],[[1983,3425],[-8,-14],[0,-18],[-12,-12],[-9,-3]],[[1954,3378],[1,3],[2,2]],[[1957,3383],[-22,-9],[-9,-21],[-2,-15],[-6,-13],[-30,-16],[-7,-15],[-5,-16],[-17,-12],[-19,-10],[-5,-16],[-3,-17],[-14,-36],[-5,-39],[8,-16],[6,-15],[-10,-14],[-16,-6],[-21,-2],[-19,-6],[-10,-17],[-7,-19],[18,-5],[8,-13],[-18,-9],[-21,-6],[-10,-14],[-6,-17],[-21,-37],[-16,-41],[-3,-50],[3,-51],[53,-289],[4,-87]],[[1822,3832],[-9,26],[-37,148],[-21,41],[16,36],[24,12],[1,1]],[[1902,3824],[-26,19]],[[1876,3843],[-24,-11],[-30,0]],[[1970,3786],[-16,21],[-22,18]],[[1932,3825],[-30,-1]],[[1688,2430],[-17,2],[-11,13]],[[1660,2445],[-28,-4],[-28,-7]],[[1735,2434],[-25,10]],[[1710,2444],[-22,-14]],[[1604,2434],[-34,2]],[[2222,3237],[81,14],[154,115],[22,57],[81,59],[27,81],[36,22],[176,15],[91,-30],[62,10],[103,132],[44,-23],[14,-89],[85,-28],[104,-106],[60,-106],[128,3],[206,81],[132,5],[164,-33],[96,-75],[4,-107],[4,-2]],[[3565,3386],[-6,-8]],[[2435,4074],[4,22]],[[2262,2518],[-8,75],[103,106],[17,74],[-44,121],[-15,170],[-111,190],[-24,159],[56,161],[-1,104],[74,90],[126,306]],[[2680,2405],[63,53],[-1,57],[73,32],[-74,104],[-10,67]],[[2133,620],[-123,89],[-95,137],[-154,572]],[[1761,1418],[-1,4],[0,12],[-13,24],[-8,17],[-29,76],[-9,13],[-13,23],[-6,12],[-41,111],[-42,224]],[[1605,1933],[36,-223],[2,-5],[5,-5],[1,-1],[0,-1],[32,-87],[1,-12],[14,-25],[11,-16],[3,-7],[15,-33],[2,-8],[4,-11],[8,-24],[5,-8],[3,-9],[10,-17],[3,-7],[1,-2],[0,-7],[0,-3],[0,-4]],[[2611,493],[-77,-12],[-80,46],[-80,-13],[-169,50],[-41,56],[-31,0]],[[2133,620],[0,-7]],[[1599,1901]],[[1602,1934],[1,0],[-1,0]],[[1606,1875]],[[1626,1760],[1,0],[-1,0]],[[2543,481],[0,-1],[-1,0],[0,1],[1,0]],[[2569,483]],[[2262,2518],[48,-13]],[[1624,1926],[-1,0],[1,0]],[[3332,4096],[-41,-69],[-80,-78],[-128,-249]],[[1587,3551],[31,101],[8,189],[-20,28],[-46,-14]],[[1577,3474],[-1,-6]],[[1586,3535],[-3,-5],[0,-2]],[[1706,2071],[0,2],[0,3]],[[1706,2076],[-1,2]],[[1705,2078],[-1,1],[-4,0],[-1,0],[0,1],[-1,0],[-15,15],[-1,1],[-6,10],[-6,13],[-4,15],[-3,12],[0,1],[0,1]],[[1663,2148],[-15,75]],[[1648,2223],[-9,39]],[[1639,2262],[-4,11]],[[1635,2273],[-2,6]],[[1633,2279],[-12,29]],[[1621,2308],[-1,3]],[[1620,2311],[0,1]],[[1620,2312],[-1,1]],[[1619,2313],[-30,22],[9,53],[19,44],[9,206],[-39,133],[-71,105],[55,41],[-20,404],[25,147]],[[1577,3474],[6,54]],[[1583,3528],[2,6],[1,1]],[[1586,3535],[1,16]],[[1621,2308],[-1,3],[0,1],[-1,1]],[[1634,2276],[-1,2]],[[1633,2278],[0,1]],[[1635,2273],[0,2],[-1,1]],[[1650,2279],[-11,-17]],[[1664,2143],[-1,4]],[[1663,2147],[0,1]],[[1663,2148],[2,10],[-5,25]],[[1660,2183],[0,1]],[[1660,2184],[-12,39]],[[1706,2076],[0,1]],[[1706,2077],[-1,1],[0,1]],[[1705,2079],[-41,64]],[[1664,2143],[-1,3],[0,1]],[[1663,2148]],[[1705,2078],[0,1]],[[1706,2076],[0,1]],[[1706,2077],[0,2]],[[1577,3472],[0,-1],[0,1]],[[1584,3531],[1,2],[-1,-2]],[[1590,2340],[0,-1],[0,1]],[[1595,2729]],[[1612,2419]],[[1615,2604]],[[1617,2438]],[[1618,2467]],[[1620,2312],[0,-1]],[[1620,2312]],[[1621,2540]],[[1621,2501],[0,-1],[0,1]],[[1634,2277]],[[1639,2263]],[[1643,2247]],[[1649,2221],[0,-1],[1,0],[-1,1]],[[1656,2201]],[[1660,2184]],[[1660,2183],[0,1]],[[1677,2103]],[[1693,2087],[-1,0],[1,0]],[[1706,2073],[0,3],[0,-3]],[[1644,1868],[75,-64],[220,-12],[39,17],[44,138],[74,-13],[27,30]],[[1602,1934],[1,0],[-1,0]],[[1623,1926],[1,1]],[[1624,1927],[1,0]],[[1625,1927],[1,1]],[[1626,1928],[2,0]],[[1628,1928]],[[1628,1928],[1,1]],[[1624,1926],[-1,0],[1,0]],[[2430,4025],[41,1],[29,38],[36,-5],[15,-35]],[[3990,2355],[69,-2],[14,-7],[-2,-14],[-22,-43],[-3,-5],[-2,-5],[0,-12],[-2,-8],[-9,-25],[-4,-8],[-15,-7],[-4,14],[4,53],[-3,12],[-9,-1],[-18,-15],[-8,-16],[-9,-44],[-9,-15],[-28,-7],[-21,-2],[-14,3],[16,14],[34,39],[13,7],[6,12],[-5,23],[-16,21],[-29,5],[-13,-7],[-30,-19],[-12,-4],[-16,4],[-9,11],[-2,10],[7,5],[29,4],[46,15],[30,1],[-12,20],[-4,20],[6,18],[19,13],[0,-20],[11,-26],[26,-12]],[[4096,0],[-4096,0],[0,4096],[1595,0],[-10,-98],[-13,-61],[-3,-31],[-4,-16],[-19,-25],[-7,-14],[-3,-16],[3,-6],[3,-3],[2,-2],[4,-11],[1,-2],[0,-13],[-1,-30],[1,-18],[4,-11],[8,-11],[6,-12],[2,-17],[-49,-94],[4,-16],[15,-9],[12,-16],[6,-7],[4,-7],[11,-21],[6,-26],[-34,-24],[-67,5],[-47,34],[29,61],[-7,8],[-25,31],[-2,29],[-1,14],[24,79],[2,11],[-2,34],[3,16],[5,4],[7,1],[6,5],[15,29],[14,40],[-17,0],[-14,6],[-11,10],[-2,3],[-6,12],[28,49],[21,51],[1,1],[-43,-68],[-7,-18],[-6,-28],[-17,-33],[-22,-29],[-24,-16],[7,-26],[8,-87],[-5,-27],[-3,5],[0,1],[-1,1],[-6,3],[0,-47],[36,-166],[24,-60],[15,-76],[17,-36],[4,-19],[34,-164],[0,-54],[2,-14],[2,-13],[11,-20],[8,-22],[-2,-15],[-1,-14],[-8,-29],[-2,-25],[-10,7],[-5,-1],[-6,-6],[9,-19],[71,-524],[-3,-11],[-5,-11],[-2,-11],[5,-11],[1,-2],[8,-6],[19,-4],[7,-4],[8,-17],[3,-19],[0,-1],[0,-44],[-1,0],[-3,-1],[-5,-6],[-2,-14],[-9,0],[-7,12],[-14,49],[-6,13],[-8,11],[-6,14],[1,23],[-10,-37],[70,-248],[0,-17],[-4,-17],[-14,-34],[-2,-5],[0,-105],[2,-11],[20,-111],[125,-321],[30,-78],[1,-6],[11,-77],[-3,0],[-8,1],[-7,-2],[-2,-9],[4,-8],[7,-6],[6,-4],[3,-2],[6,-25],[17,-69],[27,-48],[12,-69],[12,-25],[3,-7],[0,-1],[0,-12],[-1,-12],[3,-14],[67,-142],[13,-17],[5,-7],[4,-6],[0,-13],[1,-6],[4,-4],[1,-1],[10,-8],[118,-126],[27,-22],[11,11],[14,-7],[7,-3],[32,-26],[18,-4],[26,-5],[62,-22],[10,-4],[1,-1],[5,-3],[9,-13],[2,-2],[3,-2],[8,0],[5,4],[6,4],[6,3],[12,-3],[6,-7],[5,-7],[7,-3],[9,-2],[39,-5],[22,1],[25,15],[5,-7],[6,-9],[8,-16],[12,-13],[24,-4],[84,10],[10,-3],[15,-5],[26,-13],[24,-9],[10,2],[10,2],[36,27],[20,11],[19,8],[25,3],[60,-3],[26,30],[56,41],[56,42],[14,5],[24,10],[39,-8],[22,31],[37,14],[81,15],[73,25],[152,33],[31,14],[32,19],[17,8],[13,3],[8,10],[3,24],[5,12],[9,2],[2,1],[11,-8],[0,-1],[2,-22],[1,0],[175,63],[54,29],[270,213],[22,12],[0,-1119]],[[4096,3432],[-3,5],[0,9],[0,9],[3,8],[0,-31]],[[4096,3491],[-3,6],[0,1],[-7,-6],[-15,-8],[-7,-5],[0,-1],[-1,7],[-2,3],[-1,1],[-2,3],[-4,6],[7,7],[-7,13],[-4,-6],[-9,-7],[-7,-7],[-18,41],[-11,17],[-16,18],[-12,20],[-12,53],[-3,5],[-9,17],[-9,0],[-8,-32],[-25,-2],[-25,19],[-12,31],[-3,4],[-12,4],[-5,6],[-2,9],[0,7],[1,4],[1,0],[-2,14],[2,47],[11,0],[22,-61],[2,-9],[15,-60],[26,36],[-12,67],[-30,103],[-4,15],[-3,24],[-2,6],[-11,39],[-10,56],[-15,7],[-20,0],[-9,5],[-10,4],[-8,18],[0,4],[-7,48],[0,10],[17,-8],[19,-39],[19,-13],[-1,20],[0,20],[-8,24],[261,0],[0,-605]],[[3484,3498],[9,-15],[3,-15],[-8,-31],[-83,-100],[-4,-10],[-8,-6],[-8,-28],[-5,-6],[-4,-2],[-36,-13],[-22,-17],[-21,-10],[-18,-12],[-14,-26],[-4,21],[9,23],[15,19],[15,7],[27,4],[20,11],[14,16],[123,190]],[[3000,2438],[6,4],[-3,-12],[0,-8],[3,-9],[-7,-17],[-3,-23],[-17,5],[-12,8],[-21,17],[10,-15],[19,-46],[-14,-31],[-10,-12],[-16,-7],[18,37],[-10,30],[-21,9],[-16,-26],[-14,2],[-13,-4],[-13,2],[-5,5],[-2,8],[-6,7],[-17,0],[11,10],[11,6],[10,0],[8,-5],[20,20],[13,-9],[5,5],[0,9],[-3,5],[-16,1],[-10,3],[-9,3],[-41,12],[-27,10],[-20,19],[-12,32],[10,-10],[18,-14],[25,-12],[74,-25],[9,1],[4,14],[8,6],[15,-8],[18,-12],[9,-10],[-3,19],[-7,12],[-21,19],[-8,12],[-21,48],[9,-2],[10,-6],[7,-7],[3,-11],[2,-11],[5,-1],[6,1],[7,-3],[14,-11],[13,-6],[6,-11],[-2,-22],[14,5]],[[4096,3432],[-3,5],[0,9],[0,9],[3,8]],[[4096,3491],[-3,6],[0,1],[-7,-6],[-15,-8],[-7,-5],[0,-1],[-1,7],[-2,3],[-1,1],[-2,3],[-4,6],[7,7],[-7,13],[-4,-6],[-9,-7],[-7,-7],[-18,41],[-11,17],[-16,18],[-12,20],[-12,53],[-3,5],[-9,17],[-9,0],[-8,-32],[-25,-2],[-25,19],[-12,31],[-3,4],[-12,4],[-5,6],[-2,9],[0,7],[1,4],[1,0],[-2,14],[2,47],[11,0],[22,-61],[2,-9],[15,-60],[26,36],[-12,67],[-30,103],[-4,15],[-3,24],[-2,6],[-11,39],[-10,56],[-15,7],[-20,0],[-9,5],[-10,4],[-8,18],[0,4],[-7,48],[0,10],[17,-8],[19,-39],[19,-13],[-1,20],[0,20],[-8,24]],[[1595,4096],[-10,-98],[-13,-61],[-3,-31],[-4,-16],[-19,-25],[-7,-14],[-3,-16],[3,-6],[3,-3],[2,-2],[4,-11],[1,-2],[0,-13],[-1,-30],[1,-18],[4,-11],[8,-11],[6,-12],[2,-17],[-49,-94],[4,-16],[15,-9],[12,-16],[6,-7],[4,-7],[11,-21],[6,-26],[-34,-24],[-67,5],[-47,34],[29,61],[-7,8],[-25,31],[-2,29],[-1,14],[24,79],[2,11],[-2,34],[3,16],[5,4],[7,1],[6,5],[15,29],[14,40],[-17,0],[-14,6],[-11,10],[-2,3],[-6,12],[28,49],[21,51],[1,1],[-43,-68],[-7,-18],[-6,-28],[-17,-33],[-22,-29],[-24,-16],[7,-26],[8,-87],[-5,-27],[-3,5],[0,1],[-1,1],[-6,3],[0,-47],[36,-166],[24,-60],[15,-76],[17,-36],[4,-19],[34,-164],[0,-54],[2,-14],[2,-13],[11,-20],[8,-22],[-2,-15],[-1,-14],[-8,-29],[-2,-25],[-10,7],[-5,-1],[-6,-6],[9,-19],[71,-524],[-3,-11],[-5,-11],[-2,-11],[5,-11],[1,-2],[8,-6],[19,-4],[7,-4],[8,-17],[3,-19],[0,-1],[0,-44],[-1,0],[-3,-1],[-5,-6],[-2,-14],[-9,0],[-7,12],[-14,49],[-6,13],[-8,11],[-6,14],[1,23],[-10,-37],[70,-248],[0,-17],[-4,-17],[-14,-34],[-2,-5],[0,-105],[2,-11],[20,-111],[125,-321],[30,-78],[1,-6],[11,-77],[-3,0],[-8,1],[-7,-2],[-2,-9],[4,-8],[7,-6],[6,-4],[3,-2],[6,-25],[17,-69],[27,-48],[12,-69],[12,-25],[3,-7],[0,-1],[0,-12],[-1,-12],[3,-14],[67,-142],[13,-17],[5,-7],[4,-6],[0,-13],[1,-6],[4,-4],[1,-1],[10,-8],[118,-126],[27,-22],[11,11],[14,-7],[7,-3],[32,-26],[18,-4],[26,-5],[62,-22],[10,-4],[1,-1],[5,-3],[9,-13],[2,-2],[3,-2],[8,0],[5,4],[6,4],[6,3],[12,-3],[6,-7],[5,-7],[7,-3],[9,-2],[39,-5],[22,1],[25,15],[5,-7],[6,-9],[8,-16],[12,-13],[24,-4],[84,10],[10,-3],[15,-5],[26,-13],[24,-9],[10,2],[10,2],[36,27],[20,11],[19,8],[25,3],[60,-3],[26,30],[56,41],[56,42],[14,5],[24,10],[39,-8],[22,31],[37,14],[81,15],[73,25],[152,33],[31,14],[32,19],[17,8],[13,3],[8,10],[3,24],[5,12],[9,2],[2,1],[11,-8],[0,-1],[2,-22],[1,0],[175,63],[54,29],[270,213],[22,12]],[[3484,3498],[9,-15],[3,-15],[-8,-31],[-83,-100],[-4,-10],[-8,-6],[-8,-28],[-5,-6],[-4,-2],[-36,-13],[-22,-17],[-21,-10],[-18,-12],[-14,-26],[-4,21],[9,23],[15,19],[15,7],[27,4],[20,11],[14,16],[123,190]],[[3000,2438],[6,4],[-3,-12],[0,-8],[3,-9],[-7,-17],[-3,-23],[-17,5],[-12,8],[-21,17],[10,-15],[19,-46],[-14,-31],[-10,-12],[-16,-7],[18,37],[-10,30],[-21,9],[-16,-26],[-14,2],[-13,-4],[-13,2],[-5,5],[-2,8],[-6,7],[-17,0],[11,10],[11,6],[10,0],[8,-5],[20,20],[13,-9],[5,5],[0,9],[-3,5],[-16,1],[-10,3],[-9,3],[-41,12],[-27,10],[-20,19],[-12,32],[10,-10],[18,-14],[25,-12],[74,-25],[9,1],[4,14],[8,6],[15,-8],[18,-12],[9,-10],[-3,19],[-7,12],[-21,19],[-8,12],[-21,48],[9,-2],[10,-6],[7,-7],[3,-11],[2,-11],[5,-1],[6,1],[7,-3],[14,-11],[13,-6],[6,-11],[-2,-22],[14,5]],[[3990,2355],[69,-2],[14,-7],[-2,-14],[-22,-43],[-3,-5],[-2,-5],[0,-12],[-2,-8],[-9,-25],[-4,-8],[-15,-7],[-4,14],[4,53],[-3,12],[-9,-1],[-18,-15],[-8,-16],[-9,-44],[-9,-15],[-28,-7],[-21,-2],[-14,3],[16,14],[34,39],[13,7],[6,12],[-5,23],[-16,21],[-29,5],[-13,-7],[-30,-19],[-12,-4],[-16,4],[-9,11],[-2,10],[7,5],[29,4],[46,15],[30,1],[-12,20],[-4,20],[6,18],[19,13],[0,-20],[11,-26],[26,-12]],[[2565,4096],[-5,-71]],[[3298,4056],[-3,-4]],[[3295,4052],[-26,-39],[-42,-43],[-48,-54],[-60,-91],[-18,-36],[-115,-140],[-66,-90]],[[3320,4096],[-15,-29],[-7,-11]],[[1581,3534],[6,7],[84,6],[30,12],[54,24],[42,24],[48,42],[72,79],[66,79],[42,36],[36,18],[103,31],[66,30],[72,30],[48,30],[42,19],[30,24],[48,-12],[90,12]],[[2776,3323],[24,24],[48,66],[18,37],[18,60],[36,49]],[[2776,3323],[-12,54],[-18,55],[-18,42],[-24,24],[-12,43],[-54,139],[-24,42],[-30,67],[-12,36],[0,85],[-12,115]],[[2776,3323],[-18,-55],[-30,-42],[-30,-43],[-54,-54],[-6,-30],[-12,-49],[-30,-54],[-42,-43],[-24,-60],[-36,-42],[-48,-55],[-78,-48]],[[2680,2409],[18,30],[30,24],[24,0]],[[2368,2748],[-30,-31],[-36,-78],[-12,-43],[-24,-36],[-6,-48],[-18,-31],[-36,-30],[-60,-30],[-24,-43]],[[2122,2378],[18,-6],[24,6],[12,-6],[48,6],[66,0],[24,19],[54,6],[24,0],[24,6],[36,-12],[84,6],[42,-12],[24,0],[36,18],[42,0]],[[1667,1977],[-8,-4]],[[2122,2378],[-43,-48],[-24,-12],[-24,-18],[-12,0],[-24,-37],[-18,-12],[-24,-30],[-72,-42],[-66,-73],[-42,-60],[-54,-43],[-52,-26]],[[1659,1973],[8,25]],[[1667,1998],[16,54],[6,66],[-12,73],[-12,72],[-36,61],[-6,61],[-12,84],[-24,103],[-6,36],[-6,61],[6,61],[18,24],[0,12],[-24,72],[-24,37],[-18,36],[6,24],[36,25],[24,30],[0,103],[12,72],[0,37],[-12,84],[-12,43],[0,30],[18,60],[-6,85],[-18,30]],[[1659,1973],[-54,-24]],[[4096,1891],[-10,-3],[-54,6],[-54,12],[-18,0],[-49,-30],[-30,6],[-30,36],[-36,19],[-18,-19],[-6,-18],[6,-54],[-18,-18]],[[3431,1646],[54,-6],[168,36],[18,12],[36,37],[36,66],[36,37]],[[1605,1949],[16,-99]],[[1621,1850],[8,-47],[42,-90],[36,-103]],[[1707,1610],[54,-12],[36,6],[72,24],[48,-6],[66,24],[66,6],[79,-12],[30,12],[36,0],[48,-6],[60,-18],[42,-18],[36,-6],[48,-37],[42,-30],[48,0],[12,-6],[18,-30],[24,-18],[48,-12],[12,-13],[18,-48],[12,-6]],[[2662,1404],[36,18],[12,43],[36,-13],[30,31],[48,12],[24,12],[18,42],[42,12],[30,37],[24,18],[49,6],[18,12],[12,30],[18,12],[36,-6],[54,12],[90,-36],[30,18],[36,-24],[24,0],[24,-24],[24,0],[54,30]],[[1707,1610],[42,-79],[6,-24],[0,-55],[6,-48],[30,-79],[12,-72],[18,-49],[12,-78],[24,-61],[12,-24],[6,-73],[6,-18],[30,-42],[18,-31],[0,-30],[42,-72],[18,-31],[18,-18],[42,-42],[48,-49],[25,-18],[36,-6]],[[2158,611],[36,-30],[96,-30],[36,-12],[24,-7],[48,-18],[60,12],[24,-12],[36,-30],[30,6],[72,0]],[[4096,3432],[0,-2313],[-22,-12],[-270,-213],[-54,-29],[-175,-63],[-1,0],[-2,22],[0,1],[-11,8],[-2,-1],[-9,-2],[-5,-12],[-3,-24],[-8,-10],[-13,-3],[-17,-8],[-32,-19],[-31,-14],[-152,-33],[-73,-25],[-81,-15],[-37,-14],[-22,-31],[-39,8],[-24,-10],[-14,-5],[-56,-42],[-56,-41],[-26,-30],[-60,3],[-25,-3],[-19,-8],[-20,-11],[-36,-27],[-10,-2],[-10,-2],[-24,9],[-26,13],[-15,5],[-10,3],[-84,-10],[-24,4],[-12,13],[-8,16],[-6,9],[-5,7],[-25,-15],[-22,-1],[-39,5],[-9,2],[-7,3],[-5,7],[-6,7],[-12,3],[-6,-3],[-6,-4],[-5,-4],[-8,0],[-3,2],[-2,2],[-9,13],[-5,3],[-1,1],[-10,4],[-62,22],[-26,5],[-18,4],[-32,26],[-7,3],[-14,7],[-11,-11],[-27,22],[-118,126],[-10,8],[-1,1],[-4,4],[-1,6],[0,13],[-4,6],[-5,7],[-13,17],[-67,142],[-3,14],[1,12],[0,12],[0,1],[-3,7],[-12,25],[-12,69],[-27,48],[-17,69],[-6,25],[-3,2],[-6,4],[-7,6],[-4,8],[2,9],[7,2],[8,-1],[3,0],[-11,77],[-1,6],[-30,78],[-125,321],[-20,111],[-2,11],[0,105],[2,5],[14,34],[4,17],[0,17],[-70,248],[10,37],[-1,-23],[6,-14],[8,-11],[6,-13],[14,-49],[7,-12],[9,0],[2,14],[5,6],[3,1],[1,0],[0,44],[0,1],[-3,19],[-8,17],[-7,4],[-19,4],[-8,6],[-1,2],[-5,11],[2,11],[5,11],[3,11],[-71,524],[-9,19],[6,6],[5,1],[10,-7],[2,25],[8,29],[1,14],[2,15],[-8,22],[-11,20],[-2,13],[-2,14],[0,54],[-34,164],[-4,19],[-17,36],[-15,76],[-24,60],[-36,166],[0,47],[6,-3],[1,-1],[0,-1],[3,-5],[5,27],[-8,87],[-7,26],[24,16],[22,29],[17,33],[6,28],[7,18],[43,68],[-1,-1],[-21,-51],[-28,-49],[6,-12],[2,-3],[11,-10],[14,-6],[17,0],[-14,-40],[-15,-29],[-6,-5],[-7,-1],[-5,-4],[-3,-16],[2,-34],[-2,-11],[-24,-79],[1,-14],[2,-29],[25,-31],[7,-8],[-29,-61],[47,-34],[67,-5],[34,24],[-6,26],[-11,21],[-4,7],[-6,7],[-12,16],[-15,9],[-4,16],[49,94],[-2,17],[-6,12],[-8,11],[-4,11],[-1,18],[1,30],[0,13],[-1,2],[-4,11],[-2,2],[-3,3],[-3,6],[3,16],[7,14],[19,25],[4,16],[3,31],[13,61],[10,98],[2240,0],[8,-24],[0,-20],[1,-20],[-19,13],[-19,39],[-17,8],[0,-10],[7,-48],[0,-4],[8,-18],[10,-4],[9,-5],[20,0],[15,-7],[10,-56],[11,-39],[2,-6],[3,-24],[4,-15],[30,-103],[12,-67],[-26,-36],[-15,60],[-2,9],[-22,61],[-11,0],[-2,-47],[2,-14],[-1,0],[-1,-4],[0,-7],[2,-9],[5,-6],[12,-4],[3,-4],[12,-31],[25,-19],[25,2],[8,32],[9,0],[9,-17],[3,-5],[12,-53],[12,-20],[16,-18],[11,-17],[18,-41],[7,7],[9,7],[4,6],[7,-13],[-7,-7],[4,-6],[2,-3],[1,-1],[2,-3],[1,-7],[0,1],[7,5],[15,8],[7,6],[0,-1],[3,-6],[0,-28],[-3,-8],[0,-9],[0,-9],[3,-5]],[[3045,3101],[73,175],[251,44],[-6,-39],[-55,-2],[-58,-53],[21,-228],[-30,-62],[-67,-10],[-118,61],[10,88],[-21,26]],[[3472,1233],[1,82],[41,15],[-21,53],[25,43],[37,-33],[-11,-52],[30,-3],[66,90],[-12,-52],[55,-78],[-22,-161],[-63,-17],[-28,66],[-7,-28],[-28,28],[-16,-46],[-30,6],[-17,87]],[[2915,1321],[31,32],[-15,29],[123,6],[11,27],[64,4],[17,-122],[128,0],[1,-109],[-131,-6],[-49,35],[-19,-4],[-6,-7],[-9,-8],[-28,-10],[-22,-2],[-38,26],[-10,54],[-48,55]],[[2994,1236],[24,-49],[44,11],[3,23],[37,2],[-40,16],[8,43],[-31,-20],[-4,38],[31,39],[-40,-13],[2,-27],[-4,8],[-11,1],[-2,-3],[14,-40],[-10,10],[-21,1],[40,-44],[-40,4]],[[3179,1244],[13,-43],[57,9],[3,20],[-42,-17],[-15,40],[-16,-9]],[[2970,1243],[2,-4],[7,-1],[-3,8],[-6,-3]],[[1583,3948],[23,148],[447,0],[-14,-147],[-41,10],[1,-73],[-43,8],[5,-53],[-52,-20],[-34,24],[-61,-11],[-63,23],[0,32],[-41,33],[-116,2],[-11,24]],[[1604,1842],[-4,135],[71,22],[-25,-137],[-42,-20]],[[3289,3483],[-33,17],[49,65],[33,-17],[-49,-65]],[[3257,3627],[-17,-30],[-50,30],[39,36],[28,-36]],[[3274,3676],[-40,14],[-10,38],[114,-16],[-64,-36]],[[2432,3907],[-38,27],[-11,55],[58,-26],[-9,-56]],[[3315,4007],[-26,-2],[7,50],[42,15],[-23,-63]],[[2960,3955],[-11,-80],[-86,-65],[-27,16],[10,39],[38,10],[-49,47],[1,34],[58,7],[32,43],[34,-51]],[[2816,1761],[14,62],[132,-42],[47,81],[46,-40],[2,-37],[59,-29],[-21,-26],[-54,19],[-21,-37],[28,-33],[-83,-49],[-126,30],[-1,23],[51,26],[-73,52]],[[3637,1430],[33,13],[2,130],[40,54],[167,-73],[19,90],[78,-109],[114,2],[6,9],[0,-420],[-34,-15],[34,-1],[0,-2],[-89,-33],[-30,-56],[-88,-53],[0,2],[-23,8],[22,-12],[-27,-33],[-46,58],[16,49],[-42,-16],[-9,68],[-42,-21],[55,51],[-3,35],[21,-3],[-10,-17],[39,15],[-63,17],[-11,56],[-85,16],[14,36],[-46,75],[29,13],[1,44],[-20,9],[-2,-29],[-20,43]],[[3863,1133],[11,-8],[2,17],[-5,0],[-8,-9]],[[3829,1038],[7,-1],[3,7],[-8,0],[-2,-6]],[[3824,993],[7,-5],[4,3],[-7,7],[-4,-5]],[[3963,1055],[4,-3],[2,4],[-5,2],[-1,-3]],[[3954,1092],[3,-3],[11,10],[-12,1],[-2,-8]]]}