{"objects":{"water":{"type":"GeometryCollection","geometries":[]},"buildings":{"type":"GeometryCollection","geometries":[]},"places":{"type":"GeometryCollection","geometries":[{"type":"Point","properties":{"name:pt":"Nova Gales do Sul","name:ro":"Noul Wales de Sud","name:sk":"Nov\u00fd Ju\u017en\u00fd Wales","name:ja":"\u30cb\u30e5\u30fc\u30b5\u30a6\u30b9\u30a6\u30a7\u30fc\u30eb\u30ba","name:lt":"Naujasis Piet\u0173 Velsas","name:he":"\u05e0\u05d9\u05d5 \u05e1\u05d0\u05d5\u05ea' \u05d5\u05d9\u05d9\u05dc\u05e1","alt_name:eo":"Novsudkimrujo;Nova Sud-Kimrio","min_zoom":4.0,"name:la":"Nova Cambria Australis","name:it":"Nuovo Galles del Sud","name:uk":"\u041d\u043e\u0432\u0438\u0439 \u041f\u0456\u0432\u0434\u0435\u043d\u043d\u0438\u0439 \u0423\u0435\u043b\u044c\u0441","name:be":"\u041d\u043e\u0432\u044b \u041f\u0430\u045e\u0434\u043d\u0451\u0432\u044b \u0423\u044d\u043b\u044c\u0441","name:ru":"\u041d\u043e\u0432\u044b\u0439 \u042e\u0436\u043d\u044b\u0439 \u0423\u044d\u043b\u044c\u0441","name:pl":"Nowa Po\u0142udniowa Walia","name:hu":"\u00daj-D\u00e9l-Wales","id":304951004,"name:vo":"Nula-Sul\u00fcda-Vels\u00e4n","name:eo":"Nova Sud-Kimrujo","name":"New South Wales","kind_detail":"state","kind":"region","name:de":"Neus\u00fcdwales","source":"openstreetmap.org","name:fr":"Nouvelle Galles du Sud","name:zh":"\u65b0\u5357\u5a01\u5c14\u58eb\u5dde","name:es":"Nueva Gales del Sur"},"coordinates":[3020,260]}]},"transit":{"type":"GeometryCollection","geometries":[]},"pois":{"type":"GeometryCollection","geometries":[]},"boundaries":{"type":"GeometryCollection","geometries":[]},"roads":{"type":"GeometryCollection","geometries":[{"type":"LineString","properties":{"kind":"major_road","network":null,"sort_rank":381,"kind_detail":"trunk","source":"openstreetmap.org","min_zoom":8.0,"shield_text":"32","ref":"A32"},"arcs":[0]},{"type":"LineString","properties":{"kind":"major_road","network":null,"sort_rank":380,"kind_detail":"primary","source":"openstreetmap.org","min_zoom":8.0,"shield_text":"71","ref":"B71"},"arcs":[1]}]},"earth":{"type":"GeometryCollection","geometries":[{"type":"Polygon","properties":{"sort_rank":10,"source":"naturalearthdata.com","min_zoom":0.0,"kind":"earth","area":98022885885},"arcs":[[2]]}]},"landuse":{"type":"GeometryCollection","geometries":[{"type":"MultiPolygon","properties":{"kind":"nature_reserve","natural":"wood","protect_class":"1","area":85047560,"sort_rank":23,"operator":"National Parks & Wildife Service NSW","source":"openstreetmap.org","min_zoom":8.0,"tier":2,"osm_relation":true},"arcs":[[[3]]]},{"type":"MultiPolygon","properties":{"kind":"nature_reserve","protect_class":"1","area":108801586,"sort_rank":23,"operator":"National Parks & Wildife Service NSW","source":"openstreetmap.org","min_zoom":8.0,"tier":2,"osm_relation":true},"arcs":[[[4]],[[5]],[[6]]]},{"type":"Polygon","properties":{"kind":"nature_reserve","protect_class":"1","area":162184992,"sort_rank":23,"operator":"National Parks & Wildife Service NSW","source":"openstreetmap.org","min_zoom":6.0,"tier":2,"id":-5761206,"osm_relation":true},"arcs":[[7]]}]}},"type":"Topology","transform":{"translate":[146.25,-31.952162238],"scale":[0.0003433228,0.0002931847]},"arcs":[[[4096,500],[-1389,858],[-25,-26],[-310,-66],[-596,108],[-356,13],[-595,-41],[-562,103],[-263,-6]],[[2707,1358],[-70,51],[-1976,2687]],[[4096,0],[-2182,0],[-1914,0],[0,4096],[4096,0],[0,-4096]],[[1224,659],[105,80],[175,-241],[-103,-76],[-177,237]],[[3576,3330],[85,215],[74,-10],[4,31],[-32,14],[142,-20],[-22,-166],[-24,3],[-8,-53],[-49,-9],[-79,-129],[-91,124]],[[3683,3726],[13,112],[11,12],[76,-65],[-21,-70],[-79,11]],[[3682,3966],[28,81],[51,-7],[-28,-169],[-46,26],[-5,69]],[[3894,4096],[-4,-20],[-62,9],[-8,-52],[-113,16],[23,47],[164,0]]]}