{"objects":{"water":{"type":"GeometryCollection","geometries":[{"type":"Polygon","properties":{"source":"naturalearthdata.com","kind":"ocean","area":1576712559132672,"sort_rank":200,"min_zoom":0.0,"id":1},"arcs":[[10]]},{"type":"MultiLineString","properties":{"source":"naturalearthdata.com","kind":"ocean","sort_rank":205,"boundary":true,"min_zoom":0.0,"id":21},"arcs":[[11],[12]]},{"type":"LineString","properties":{"source":"naturalearthdata.com","kind":"ocean","sort_rank":205,"boundary":true,"min_zoom":0.0,"id":78},"arcs":[13]}]},"buildings":{"type":"GeometryCollection","geometries":[]},"places":{"type":"GeometryCollection","geometries":[{"type":"Point","properties":{"kind":"locality","name":"Thanjavur","kind_detail":"city","name:sr":"\u0422\u0430\u043d\u045f\u0430\u0432\u0443\u0440","source":"openstreetmap.org","min_zoom":8.0,"name:kn":"\u0ca4\u0c82\u0c9c\u0cb5\u0cc2\u0cb0\u0cc1","population":215725,"name:ru":"\u0422\u0430\u043d\u0434\u0436\u0430\u0432\u0443\u0440","name:ta":"\u0ba4\u0b9e\u0bcd\u0b9a\u0bbe\u0bb5\u0bc2\u0bb0\u0bcd","id":245587589,"name:ja":"\u30bf\u30f3\u30b8\u30e3\u30fc\u30f4\u30fc\u30eb"},"coordinates":[1131,2934]},{"type":"Point","properties":{"kind":"locality","name":"Kumbakonam","kind_detail":"town","source":"openstreetmap.org","min_zoom":8.0,"name:kn":"\u0c95\u0cc1\u0c82\u0cac\u0c95\u0ccb\u0ca3\u0c82","name:ta":"\u0b95\u0bc1\u0bae\u0bcd\u0baa\u0b95\u0bcb\u0ba3\u0bae\u0bcd","id":245588875,"population":100000},"coordinates":[1841,3450]},{"type":"Point","properties":{"kind":"locality","name":"Karaikudi","name:hi":"\u0915\u0930\u093e\u0908\u0915\u0941\u0921\u093c\u0940","kind_detail":"town","source":"openstreetmap.org","min_zoom":8.0,"name:kn":"\u0c95\u0cbe\u0cb0\u0cc8\u0c95\u0cc1\u0ca1\u0cbf","name:ta":"\u0b95\u0bbe\u0bb0\u0bc8\u0b95\u0bcd\u0b95\u0bc1\u0b9f\u0bbf","id":1669647828,"population":80000},"coordinates":[46,807]},{"type":"Point","properties":{"kind":"locality","name":"Mannargudi","kind_detail":"town","source":"openstreetmap.org","min_zoom":8.0,"name:ta":"\u0bae\u0ba9\u0bcd\u0ba9\u0bbe\u0bb0\u0bcd\u0b95\u0bc1\u0b9f\u0bbf","id":1639051840,"population":61588},"coordinates":[2023,2582]},{"type":"Point","properties":{"kind":"locality","name":"Pudukkottai","kind_detail":"town","source":"openstreetmap.org","min_zoom":8.0,"name:kn":"\u0caa\u0cc1\u0ca6\u0cc1\u0c95\u0cca\u0c9f\u0cc8","name:ta":"\u0baa\u0bc1\u0ba4\u0bc1\u0b95\u0bcd\u0b95\u0bcb\u0b9f\u0bcd\u0b9f\u0bc8","id":245586420,"population":50000},"coordinates":[194,1725]},{"type":"Point","properties":{"kind":"locality","name":"Aranthangi","kind_detail":"town","source":"openstreetmap.org","min_zoom":8.0,"name:ta":"\u0b85\u0bb1\u0ba8\u0bcd\u0ba4\u0bbe\u0b99\u0bcd\u0b95\u0bbf","id":5205016587,"population":40814},"coordinates":[707,1105]},{"type":"Point","properties":{"kind":"locality","name":"Muthupet","kind_detail":"town","source":"openstreetmap.org","min_zoom":8.0,"name:ta":"\u0bae\u0bc1\u0ba4\u0bcd\u0ba4\u0bc1\u0baa\u0bcd\u0baa\u0bc7\u0b9f\u0bcd\u0b9f\u0bc8","id":245586442,"population":40000},"coordinates":[2168,1777]},{"type":"Point","properties":{"kind":"locality","name":"Ariyalur","kind_detail":"town","source":"openstreetmap.org","min_zoom":8.0,"name:kn":"\u0c85\u0cb0\u0cbf\u0caf\u0cb2\u0cc2\u0cb0\u0ccd","name:ta":"\u0b85\u0bb0\u0bbf\u0baf\u0bb2\u0bc2\u0bb0\u0bcd","id":245589617,"population":25000},"coordinates":[939,3970]},{"type":"Point","properties":{"kind":"locality","name":"Tharangambadi","kind_detail":"town","source":"openstreetmap.org","min_zoom":8.0,"name:ta":"\u0ba4\u0bb0\u0b99\u0bcd\u0b95\u0bae\u0bcd\u0baa\u0bbe\u0b9f\u0bbf","id":891394192,"population":23191},"coordinates":[3210,3656]},{"type":"Point","properties":{"source":"openstreetmap.org","kind":"locality","name":"Kankesanturai","kind_detail":"town","population":15000,"min_zoom":8.0,"id":324707446},"coordinates":[3750,48]},{"type":"Point","properties":{"kind":"locality","name":"Nagapattinam","kind_detail":"town","source":"openstreetmap.org","min_zoom":8.0,"name:kn":"\u0ca8\u0cbe\u0c97\u0caa\u0c9f\u0ccd\u0c9f\u0cbf\u0ca8\u0c82","population":10000,"name:ta":"\u0ba8\u0bbe\u0b95\u0baa\u0bcd\u0baa\u0b9f\u0bcd\u0b9f\u0bbf\u0ba9\u0bae\u0bcd","id":891394162,"name:ja":"\u30ca\u30fc\u30ac\u30d1\u30c3\u30c6\u30a3\u30ca\u30e0"},"coordinates":[3184,2871]},{"type":"Point","properties":{"kind":"locality","name":"Vallam","kind_detail":"town","source":"openstreetmap.org","min_zoom":8.0,"name:ta":"\u0bb5\u0bb2\u0bcd\u0bb2\u0bae\u0bcd","id":542905195,"population":10000},"coordinates":[906,2735]},{"type":"Point","properties":{"source":"openstreetmap.org","kind":"locality","name":"Karaikal","kind_detail":"town","population":10000,"min_zoom":8.0,"id":891394169},"coordinates":[3168,3318]},{"type":"Point","properties":{"admin_level":"6","kind":"locality","name":"Devakottai","kind_detail":"town","source":"openstreetmap.org","min_zoom":8.0,"name:kn":"\u0ca6\u0cc7\u0cb5\u0c95\u0cca\u0c9f\u0ccd\u0c9f\u0cc8","name:ta":"\u0ba4\u0bc7\u0bb5\u0b95\u0bc7\u0bbe\u0b9f\u0bcd\u0b9f\u0bc8","id":4592194578,"population":10000},"coordinates":[224,444]},{"type":"Point","properties":{"source":"openstreetmap.org","kind":"locality","name":"Orattanadu","kind_detail":"town","population":10000,"min_zoom":8.0,"id":245587128},"coordinates":[1439,2497]},{"type":"Point","properties":{"source":"openstreetmap.org","kind":"locality","name":"Keeramangalam","kind_detail":"town","population":9357,"min_zoom":8.0,"id":5244874196},"coordinates":[1018,1452]},{"type":"Point","properties":{"source":"openstreetmap.org","kind":"locality","name":"Tirumayam","kind_detail":"town","population":5000,"min_zoom":8.0,"id":245586234},"coordinates":[4,1338]},{"type":"Point","properties":{"kind":"locality","name":"Pattukkottai","kind_detail":"town","source":"openstreetmap.org","min_zoom":8.0,"name:ta":"\u0baa\u0b9f\u0bcd\u0b9f\u0bc1\u0b95\u0bcd\u0b95\u0bc7\u0bbe\u0b9f\u0bcd\u0b9f\u0bc8","id":245586490,"population":5000},"coordinates":[1655,1859]},{"type":"Point","properties":{"kind":"locality","name":"Thiruvarur","kind_detail":"town","source":"openstreetmap.org","min_zoom":8.0,"population":5000,"name:ta":"\u0ba4\u0bbf\u0bb0\u0bc1\u0bb5\u0bbe\u0bb0\u0bc2\u0bb0\u0bcd","id":3829101958,"name:ja":"\u30c6\u30a3\u30eb\u30f4\u30a1\u30fc\u30eb\u30fc\u30eb"},"coordinates":[2578,2876]},{"type":"Point","properties":{"source":"openstreetmap.org","kind":"locality","name":"Vailankanni","kind_detail":"town","population":5000,"min_zoom":8.0,"id":705159579},"coordinates":[3199,2626]},{"type":"Point","properties":{"kind":"locality","name":"Papanasam","kind_detail":"town","source":"openstreetmap.org","min_zoom":8.0,"name:ta":"\u0baa\u0bbe\u0baa\u0ba8\u0bbe\u0b9a\u0bae\u0bcd","id":773219882,"population":5000},"coordinates":[1510,3350]},{"type":"Point","properties":{"source":"openstreetmap.org","kind":"locality","name":"Kodavasal","kind_detail":"town","population":1000,"min_zoom":8.0,"id":245588416},"coordinates":[2129,3139]},{"type":"Point","properties":{"kind":"locality","name":"Ayyampettai","kind_detail":"town","source":"openstreetmap.org","min_zoom":8.0,"name:ta":"\u0b85\u0baf\u0bcd\u0baf\u0bae\u0bcd\u0baa\u0bc7\u0b9f\u0bcd\u0b9f\u0bc8","id":986591705,"population":1000},"coordinates":[1279,3262]},{"type":"Point","properties":{"kind":"locality","name":"Nannilam","kind_detail":"town","source":"openstreetmap.org","min_zoom":8.0,"name:ta":"\u0ba8\u0ba9\u0bcd\u0ba9\u0bbf\u0bb2\u0bae\u0bcd","id":4531817146,"population":1000},"coordinates":[2509,3208]},{"type":"Point","properties":{"kind":"locality","name":"Lalgudi","kind_detail":"town","source":"openstreetmap.org","min_zoom":8.0,"name:ta":"\u0b87\u0bb2\u0bbe\u0bb2\u0bcd\u0b95\u0bc1\u0b9f\u0bbf","id":245587903,"population":1000},"coordinates":[186,3204]},{"type":"Point","properties":{"kind":"locality","name":"Valangaiman","kind_detail":"town","source":"openstreetmap.org","min_zoom":8.0,"name:ta":"\u0bb5\u0bb2\u0b99\u0bcd\u0b95\u0bc8\u0bae\u0bbe\u0ba9\u0bcd","id":1201872680,"population":1000},"coordinates":[1874,3241]},{"type":"Point","properties":{"source":"openstreetmap.org","kind":"locality","name":"Adirampattinam","kind_detail":"town","population":1000,"min_zoom":8.0,"id":4252223060},"coordinates":[1849,1610]},{"type":"Point","properties":{"kind":"locality","name":"Nidamangalam","kind_detail":"town","source":"openstreetmap.org","min_zoom":8.0,"old_name":"Yamunambalpuram","id":4717526624,"population":1000},"coordinates":[1935,2891]}]},"transit":{"type":"GeometryCollection","geometries":[{"type":"MultiLineString","properties":{"osm_relation":true,"source":"openstreetmap.org","kind":"train","name":"Northern Line","sort_rank":275,"min_zoom":6.0,"operator":"Sri Lanka Railway"},"arcs":[[6],[7],[8],[9]]}]},"pois":{"type":"GeometryCollection","geometries":[{"type":"Point","properties":{"source":"openstreetmap.org","kind":"military","name":"Palaly Military Cantonment","area":14116200,"tier":3,"min_zoom":8.0,"id":457692602},"coordinates":[3854,1]}]},"boundaries":{"type":"GeometryCollection","geometries":[{"type":"LineString","properties":{"name:cy":"Sri Lanka","name:ko":"\uc2a4\ub9ac\ub791\uce74","name:cv":"\u0428\u0440\u0438-\u041b\u0430\u043d\u043a\u0430","name:km":"\u179f\u17d2\u179a\u17b8\u179b\u1784\u17d2\u1780\u17b6","name:cs":"Sr\u00ed Lanka","name:ki":"Sri Lanka","name:kw":"Shri Lanka","name:kv":"\u0428\u0440\u0438-\u041b\u0430\u043d\u043a\u0430","name:ku":"Sr\u00ee Lanka","alt_name:cs":"Sr\u00edlansk\u00e1 demokratick\u00e1 socialistick\u00e1 republika","name:tl":"Sri Lanka","name:ta":"\u0b87\u0bb2\u0b99\u0bcd\u0b95\u0bc8","name:tg":"\u0428\u0440\u0438-\u041b\u0430\u043d\u043a\u0430","name:ca":"Sri Lanka","name:te":"\u0c36\u0c4d\u0c30\u0c40\u0c32\u0c02\u0c15","name:ka":"\u10e8\u10e0\u10d8-\u10da\u10d0\u10dc\u10d9\u10d0","name:qu":"Sri Lanka","name:da":"Sri Lanka","name:de":"Sri Lanka","name:dz":"\u0f64\u0fb2\u0f71\u0f80\u0f0b\u0f63\u0f44\u0f40\u0f0b","source":"openstreetmap.org","name:kn":"\u0cb6\u0ccd\u0cb0\u0cc0\u0cb2\u0c82\u0c95\u0cbe","name:dv":"\u0787\u07ae\u0785\u07aa\u078b\u07ab\u0786\u07a6\u0783\u07a6","name:lv":"\u0160rilanka","name:lt":"\u0160ri Lanka","name:uz":"Shri-Lanka","name:kk":"\u0428\u0440\u0438-\u041b\u0430\u043d\u043a\u0430","name:ur":"\u0633\u0631\u06cc \u0644\u0646\u06a9\u0627","name:lb":"Sri Lanka","name:la":"Taprobane","name:tt":"\u0428\u0440\u0438-\u041b\u0430\u043d\u043a\u0430","name:uk":"\u0428\u0440\u0456-\u041b\u0430\u043d\u043a\u0430","name:ug":"\u0633\u0631\u0649\u0644\u0627\u0646\u0643\u0627","name:li":"Sri Lanka","name:ln":"Sri Lanka","name:el":"\u03a3\u03c1\u03b9 \u039b\u03ac\u03bd\u03ba\u03b1","name:eo":"Sri-Lanko","name:en":"Sri Lanka","name":"\u0dc1\u0dca\u200d\u0dbb\u0dd3 \u0dbd\u0d82\u0d9a\u0dcf\u0dc0 \u0b87\u0bb2\u0b99\u0bcd\u0b95\u0bc8","name:tk":"\u015eri-Lanka","name:th":"\u0e1b\u0e23\u0e30\u0e40\u0e17\u0e28\u0e28\u0e23\u0e35\u0e25\u0e31\u0e07\u0e01\u0e32","name:eu":"Sri Lanka","name:et":"Sri Lanka","name:es":"Sri Lanka","name:ia":"Sri Lanka","name:az":"\u015eri-Lanka","name:ie":"Sri Lanka","name:id":"Sri Lanka","name:ar":"\u0633\u0631\u064a\u0644\u0627\u0646\u0643\u0627","name:io":"Sri Lanka","name:is":"Sr\u00ed Lanka","name:am":"\u123d\u122a \u120b\u1295\u12ab","name:it":"Sri Lanka","name:an":"Sri Lanka","name:ru":"\u0428\u0440\u0438-\u041b\u0430\u043d\u043a\u0430","name:rw":"Siri Lanka","name:af":"Sri Lanka","kind_detail":"2","name:zh-yue":"\u65af\u91cc\u862d\u5361","name:zh":"\u65af\u91cc\u862d\u5361","name:so":"Siri Lanka","name:sm":"Sri Lanka","name:sl":"\u0160rilanka","name:sk":"Sr\u00ed Lanka","name:ja":"\u30b9\u30ea\u30e9\u30f3\u30ab","name:si":"\u0dc1\u0dca\u200d\u0dbb\u0dd3 \u0dbd\u0d82\u0d9a\u0dcf\u0dc0","name:sh":"\u0160ri Lanka","name:se":"Sri Lanka","name:br":"Sri Lanka","name:bs":"\u0160ri Lanka","name:bn":"\u09b6\u09cd\u09b0\u09c0\u09b2\u0999\u09cd\u0995\u09be","name:bo":"\u0f66\u0f7a\u0f44\u0f0b\u0f42\u0f0b\u0f42\u0fb3\u0f72\u0f44\u0f0b\u0f0d","name:sa":"\u0936\u094d\u0930\u0940\u0932\u0919\u094d\u0915\u093e","name:sw":"Sri Lanka","name:be":"\u0428\u0440\u044b-\u041b\u0430\u043d\u043a\u0430","name:su":"Sri Langka","name:bg":"\u0428\u0440\u0438 \u041b\u0430\u043d\u043a\u0430","name:ss":"Siri Lanka","name:ba":"\u0428\u0440\u0438-\u041b\u0430\u043d\u043a\u0430","name:sq":"Sri Lanka","name:jv":"Sri Lanka","name:pt":"Seri-Lanca","name:ps":"\u0633\u0631\u06cc\u0644\u0627\u0646\u06a9\u0627","name:om":"Sirilaankaa","name:oc":"Sri Lanka","min_zoom":8.0,"name:ro":"Sri Lanka","name:zh-min-nan":"Sri Lanka","name:os":"\u0428\u0440\u0438-\u041b\u0430\u043d\u043a\u0430","name:or":"\u0b36\u0b4d\u0b30\u0b40\u0b32\u0b19\u0b4d\u0b15\u0b3e","name:pl":"Sri Lanka","sort_rank":262,"name:sr":"\u0428\u0440\u0438 \u041b\u0430\u043d\u043a\u0430","osm_relation":true,"name:pa":"\u0a38\u0a4d\u0a30\u0a40\u0a32\u0a70\u0a15\u0a3e","name:tr":"Sri Lanka","name:hi":"\u0936\u094d\u0930\u0940\u0932\u0902\u0915\u093e","name:sv":"Sri Lanka","name:he":"\u05e1\u05e8\u05d9 \u05dc\u05e0\u05e7\u05d4","name:hy":"\u0547\u0580\u056b \u053c\u0561\u0576\u056f\u0561","name:ht":"Srilanka","name:hu":"Sr\u00ed Lanka","name:hr":"\u0160ri Lanka","kind":"country","name:yi":"\u05e1\u05e8\u05d9 \u05dc\u05d0\u05e0\u05e7\u05d0","name:yo":"Sri Lanka","name:mt":"Sri Lanka","alt_name:eo":"Srilanko","name:ms":"Sri Lanka","name:mr":"\u0936\u094d\u0930\u0940\u0932\u0902\u0915\u093e","name:my":"\u101e\u102e\u101b\u102d\u101c\u1004\u103a\u1039\u1000\u102c\u1014\u102d\u102f\u1004\u103a\u1004\u1036","name:mg":"Sri Lanka","name:vi":"Sri Lanka","name:ml":"\u0d36\u0d4d\u0d30\u0d40\u0d32\u0d19\u0d4d\u0d15","name:mn":"\u0428\u0440\u0438 \u041b\u0430\u043d\u043a\u0430","id":-536807,"name:mk":"\u0428\u0440\u0438 \u041b\u0430\u043d\u043a\u0430","name:vo":"Sri-Lank\u00e4n","name:fa":"\u0633\u0631\u06cc\u200c\u0644\u0627\u0646\u06a9\u0627","name:fi":"Sri Lanka","name:fo":"Sri Lanka","name:fr":"Sri Lanka","name:fy":"Sry Lanka","name:nl":"Sri Lanka","name:nn":"Sri Lanka","name:no":"Sri Lanka","name:na":"Sri Lanka","name:ne":"\u0936\u094d\u0930\u0940\u0932\u0902\u0915\u093e","name:wo":"Siri Laanka","name:nv":"Swii Lank\u02bca","name:ga":"Sr\u00ed Lanca","name:gd":"Sri Lanca","name:gl":"Sri Lanka - Sri Lank\u0101","maritime_boundary":true,"name:gv":"Sri Lanka","name:gu":"\u0ab6\u0acd\u0ab0\u0ac0\u0ab2\u0a82\u0a95\u0abe"},"arcs":[0]},{"type":"LineString","properties":{"name:pt":"\u00cdndia","name:ty":"\u2019In\u012btia","name:ps":"\u0647\u0646\u062f","name:ka":"\u10d8\u10dc\u10d3\u10dd\u10d4\u10d7\u10d8","name:ko":"\uc778\ub3c4","name:cv":"\u0418\u043d\u0434\u0438","name:km":"\u17a5\u178e\u17d2\u178c\u17b6","name:cs":"Indie","name:rn":"Ubuhindi","name:tt":"\u04ba\u0438\u043d\u0434\u0441\u0442\u0430\u043d","name:kw":"Eynda","name:kv":"\u0418\u043d\u0434\u0438\u044f","name:ku":"Hindistan","name:ks":"\u0628\u064b\u0627\u0631\u062a","name:to":"\u02bbInitia","name:tl":"Indiya","name:zh-min-nan":"\u00ccn-t\u014d\u0358","name:os":"\u0418\u043d\u0434\u0438","name:or":"\u0b2d\u0b3e\u0b30\u0b24","name:ce":"\u0418\u043d\u0434\u0438","name:ta":"\u0b87\u0ba8\u0bcd\u0ba4\u0bbf\u0baf\u0bbe","name:tg":"\u04b2\u0438\u043d\u0434\u0443\u0441\u0442\u043e\u043d","name:ca":"\u00cdndia","name:te":"\u0c2d\u0c3e\u0c30\u0c24 \u0c26\u0c47\u0c36\u0c02","name:bg":"\u0418\u043d\u0434\u0438\u044f","source":"openstreetmap.org","sort_rank":262,"name:hr":"Indija","name:da":"Indien","name:sw":"Uhindi","name:de":"Indien","name:dz":"\u0f62\u0f92\u0fb1\u0f0b\u0f42\u0f62","name:tr":"Hindistan","osm_relation":true,"name:kn":"\u0cad\u0cbe\u0cb0\u0ca4","name:be":"\u0406\u043d\u0434\u044b\u044f","name:dv":"\u0787\u07a8\u0782\u07b0\u0791\u07a8\u0794\u07a7","name:za":"Yindu","name:ba":"\u04ba\u0438\u043d\u0434\u043e\u0441\u0442\u0430\u043d","name:ar":"\u0627\u0644\u0647\u0646\u062f","name:lv":"Indija","name:lt":"Indija","name:uz":"Hindiston","name:kk":"\u04ae\u043d\u0434\u0456\u0441\u0442\u0430\u043d","name:he":"\u05d4\u05d5\u05d3\u05d5","name:eo":"Barato","name:ur":"\u0628\u06be\u0627\u0631\u062a","name:lb":"Indien","name:uk":"\u0406\u043d\u0434\u0456\u044f","name:hy":"\u0540\u0576\u0564\u056f\u0561\u057d\u057f\u0561\u0576","name:ug":"\u06be\u0649\u0646\u062f\u0649\u0633\u062a\u0627\u0646","name:qu":"Indya","name:oc":"\u00cdndia","name:el":"\u0399\u03bd\u03b4\u03af\u03b1","kind":"country","name":"India","name:tk":"Hindistan","min_zoom":8.0,"name:th":"\u0e1b\u0e23\u0e30\u0e40\u0e17\u0e28\u0e2d\u0e34\u0e19\u0e40\u0e14\u0e35\u0e22","name:yi":"\u05d0\u05d9\u05e0\u05d3\u05d9\u05e2","name:iu":"\u1403\u14d0\u144e\u140a","name:yo":"\u00cdnd\u00ed\u00e0","name:mt":"Indja","alt_name:eo":"Hindujo;Hindio","name:az":"Hindistan","name:ig":"Ndia","name:mr":"\u092d\u093e\u0930\u0924","name:pa":"\u0a2d\u0a3e\u0a30\u0a24","name:my":"\u1021\u102d\u1014\u1039\u1012\u102d\u101a\u1014\u102d\u102f\u1004\u103a\u1004\u1036","name:is":"Indland","name:am":"\u1205\u1295\u12f5","name:vi":"\u1ea4n \u0110\u1ed9","name:ml":"\u0d07\u0d28\u0d4d\u0d24\u0d4d\u0d2f","name:rw":"Ubuhinde","name:mi":"\u012ania","name:pl":"Indie","name:mk":"\u0418\u043d\u0434\u0438\u0458\u0430","name:vo":"Lind\u00e4n","name:zu":"INdiya","name:mn":"\u042d\u043d\u044d\u0442\u0445\u044d\u0433","name:ss":"INdiya","kind_detail":"2","name:hi":"\u092d\u093e\u0930\u0924","id":-304716,"alt_name:vi":"Thi\u00ean Tr\u00fac;Quy\u00ean \u0110\u1ed9c","name:fr":"Inde","name:ky":"\u0418\u043d\u0434\u0438\u044f","name:zh-yue":"\u5370\u5ea6","name:fy":"Yndia","name:pi":"\u092d\u093e\u0930\u0924","name:zh":"\u5370\u5ea6","name:so":"Hindiya","name:sm":"Igitia","name:sl":"Indija","name:ja":"\u30a4\u30f3\u30c9","name:si":"\u0db7\u0dcf\u0dbb\u0dad \u0da2\u0db1\u0dbb\u0da2\u0dba","name:sh":"Indija","name:na":"Indjiya","name:sd":"\u0680\u0627\u0631\u062a","name:sc":"\u00ccndia","name:ne":"\u092d\u093e\u0930\u0924","name:sa":"\u092d\u093e\u0930\u0924\u092e\u094d","name:bs":"Indija","name:bn":"\u09ad\u09be\u09b0\u09a4","name:bo":"\u0f62\u0f92\u0fb1\u0f0b\u0f42\u0f62\u0f0d","name:ru":"\u0418\u043d\u0434\u0438\u044f","name:sv":"Indien","name:ha":"Indiya","name:wo":"End","name:sr":"\u0418\u043d\u0434\u0438\u0458\u0430","name:nv":"T\u00f3 W\u00f3naan\u00edd\u0119\u0301\u0119\u0301\u02bc Bits\u012f\u02bc Yisht\u0142izhii Bik\u00e9yah","name:ga":"An India","name:gd":"Na h-Innseachan","name:ht":"End","name:wa":"Inde","name:fa":"\u0647\u0646\u062f","maritime_boundary":true,"name:gv":"Yn Injey","name:gu":"\u0aad\u0abe\u0ab0\u0aa4","name:fi":"Intia"},"arcs":[1]},{"type":"LineString","properties":{"name:ja":"\u30bf\u30df\u30eb\u30fb\u30ca\u30fc\u30c9\u30a5","name:hi":"\u0924\u092e\u093f\u0932 \u0928\u093e\u0921\u0941","name:ko":"\ud0c0\ubc00\ub098\ub450 \uc8fc","name:kn":"\u0ca4\u0cae\u0cbf\u0cb3\u0cc1\u0ca8\u0cbe\u0ca1\u0cc1","min_zoom":8.0,"name:uk":"\u0422\u0430\u043c\u0456\u043b-\u041d\u0430\u0434\u0443","name:ml":"\u0d24\u0d2e\u0d3f\u0d34\u0d4d\u200c\u0d28\u0d3e\u0d1f\u0d4d","name:ru":"\u0422\u0430\u043c\u0438\u043b\u043d\u0430\u0434","name:ta":"\u0ba4\u0bae\u0bbf\u0bb4\u0bcd\u0ba8\u0bbe\u0b9f\u0bc1","id":-96905,"osm_relation":true,"name:te":"\u0c24\u0c2e\u0c3f\u0c33\u0c28\u0c3e\u0c21\u0c41","kind":"region","name":"Tamil Nadu","sort_rank":256,"kind_detail":"4","source":"openstreetmap.org","name:zh":"\u6cf0\u7c73\u5c14\u7eb3\u5fb7\u90a6"},"arcs":[2]},{"type":"MultiLineString","properties":{"name:ja":"\u30bf\u30df\u30eb\u30fb\u30ca\u30fc\u30c9\u30a5","name:hi":"\u0924\u092e\u093f\u0932 \u0928\u093e\u0921\u0941","name:ko":"\ud0c0\ubc00\ub098\ub450 \uc8fc","name:kn":"\u0ca4\u0cae\u0cbf\u0cb3\u0cc1\u0ca8\u0cbe\u0ca1\u0cc1","min_zoom":8.0,"name:uk":"\u0422\u0430\u043c\u0456\u043b-\u041d\u0430\u0434\u0443","name:ru":"\u0422\u0430\u043c\u0438\u043b\u043d\u0430\u0434","name:ml":"\u0d24\u0d2e\u0d3f\u0d34\u0d4d\u200c\u0d28\u0d3e\u0d1f\u0d4d","name:ta":"\u0ba4\u0bae\u0bbf\u0bb4\u0bcd\u0ba8\u0bbe\u0b9f\u0bc1","id":-96905,"osm_relation":true,"name:te":"\u0c24\u0c2e\u0c3f\u0c33\u0c28\u0c3e\u0c21\u0c41","kind":"region","name":"Tamil Nadu","sort_rank":256,"kind_detail":"4","source":"openstreetmap.org","maritime_boundary":true,"name:zh":"\u6cf0\u7c73\u5c14\u7eb3\u5fb7\u90a6"},"arcs":[[3],[4],[5]]}]},"roads":{"type":"GeometryCollection","geometries":[{"type":"LineString","properties":{"kind":"major_road","sort_rank":380,"landuse_kind":"urban_area","source":"openstreetmap.org","min_zoom":8.0,"kind_detail":"primary","name:ta":"\u0bb5\u0b9f\u0b95\u0bcd\u0b95\u0bc1 \u0bb0\u0bbe\u0b9c  \u0bb5\u0bc0\u0ba4\u0bbf","id":84749704},"arcs":[14]},{"type":"LineString","properties":{"source":"openstreetmap.org","kind":"major_road","sort_rank":381,"kind_detail":"trunk","ref":"NH83","min_zoom":8.0,"id":478349289},"arcs":[15]},{"type":"LineString","properties":{"source":"openstreetmap.org","kind":"major_road","landuse_kind":"urban_area","sort_rank":380,"kind_detail":"primary","ref":"SH26","min_zoom":8.0},"arcs":[16]},{"type":"LineString","properties":{"source":"openstreetmap.org","kind":"major_road","sort_rank":381,"kind_detail":"trunk","is_bicycle_related":true,"min_zoom":8.0,"id":486977755},"arcs":[17]},{"type":"LineString","properties":{"kind":"major_road","network":"IN:NH","sort_rank":381,"kind_detail":"trunk","source":"openstreetmap.org","min_zoom":8.0,"landuse_kind":"urban_area","shield_text":null,"name:ta":"\u0b95\u0bc0\u0bb4 \u0bb0\u0bbe\u0b9c\u0bbe \u0bb5\u0bc0\u0ba4\u0bbf","ref":"NH36","id":444733294},"arcs":[18]},{"type":"MultiLineString","properties":{"source":"openstreetmap.org","kind":"major_road","sort_rank":380,"kind_detail":"primary","ref":"SH26","min_zoom":8.0},"arcs":[[19],[20],[21],[22]]},{"type":"MultiLineString","properties":{"kind":"major_road","network":"IN:NH","sort_rank":381,"kind_detail":"trunk","source":"openstreetmap.org","min_zoom":8.0,"shield_text":null,"ref":"NH81"},"arcs":[[23],[24]]},{"type":"LineString","properties":{"source":"openstreetmap.org","kind":"major_road","sort_rank":381,"kind_detail":"trunk","ref":"NH67","min_zoom":8.0,"id":43319826},"arcs":[25]},{"type":"MultiLineString","properties":{"kind":"major_road","network":"IN:NH","sort_rank":381,"kind_detail":"trunk","source":"openstreetmap.org","min_zoom":8.0,"shield_text":null,"ref":"NH36;83"},"arcs":[[26],[27]]},{"type":"MultiLineString","properties":{"source":"openstreetmap.org","kind":"major_road","landuse_kind":"urban_area","sort_rank":380,"kind_detail":"primary","ref":"SH 148","min_zoom":8.0},"arcs":[[28],[29]]},{"type":"MultiLineString","properties":{"source":"openstreetmap.org","kind":"major_road","sort_rank":380,"kind_detail":"primary","ref":"SH63","min_zoom":8.0},"arcs":[[30],[31]]},{"type":"MultiLineString","properties":{"kind":"major_road","network":"IN:NH","sort_rank":381,"landuse_kind":"urban_area","source":"openstreetmap.org","min_zoom":8.0,"kind_detail":"trunk","shield_text":null,"ref":"NH36;83"},"arcs":[[32],[33]]},{"type":"LineString","properties":{"source":"openstreetmap.org","kind":"major_road","sort_rank":380,"kind_detail":"primary","ref":"SH35","min_zoom":8.0,"id":46966342},"arcs":[34]},{"type":"MultiLineString","properties":{"kind":"major_road","network":"IN:NH","sort_rank":381,"landuse_kind":"urban_area","source":"openstreetmap.org","min_zoom":8.0,"kind_detail":"trunk","shield_text":null,"ref":"NH36"},"arcs":[[35],[36],[37],[38],[39],[40]]},{"type":"LineString","properties":{"kind":"major_road","network":"IN:NH","sort_rank":381,"kind_detail":"trunk","is_bicycle_related":true,"source":"openstreetmap.org","min_zoom":8.0,"shield_text":null,"ref":"NH136","id":202322551},"arcs":[41]},{"type":"LineString","properties":{"kind":"major_road","network":"IN:NH","sort_rank":381,"kind_detail":"trunk","is_bicycle_related":true,"source":"openstreetmap.org","min_zoom":8.0,"shield_text":null,"ref":"NH81","id":178523114},"arcs":[42]},{"type":"LineString","properties":{"kind":"major_road","sort_rank":380,"landuse_kind":"residential","source":"openstreetmap.org","min_zoom":8.0,"kind_detail":"primary","ref":"SH 64","id":104683781},"arcs":[43]},{"type":"MultiLineString","properties":{"source":"openstreetmap.org","kind":"major_road","sort_rank":380,"kind_detail":"primary","ref":"AB021","min_zoom":8.0},"arcs":[[44],[45]]},{"type":"LineString","properties":{"kind":"major_road","sort_rank":380,"landuse_kind":"urban_area","source":"openstreetmap.org","min_zoom":8.0,"kind_detail":"primary","ref":"SH66","id":22832653},"arcs":[46]},{"type":"LineString","properties":{"kind":"major_road","sort_rank":381,"landuse_kind":"urban_area","is_bicycle_related":true,"source":"openstreetmap.org","min_zoom":8.0,"kind_detail":"trunk","id":486977755},"arcs":[47]},{"type":"MultiLineString","properties":{"source":"openstreetmap.org","kind":"major_road","sort_rank":380,"kind_detail":"primary","ref":"SH66","min_zoom":8.0},"arcs":[[48],[49],[50]]},{"type":"LineString","properties":{"kind":"major_road","network":"IN:NH","sort_rank":381,"kind_detail":"trunk","source":"openstreetmap.org","min_zoom":8.0,"shield_text":null,"ref":"NH67","id":241465949},"arcs":[51]},{"type":"LineString","properties":{"sort_rank":381,"source":"openstreetmap.org","min_zoom":8.0,"kind":"major_road","kind_detail":"trunk"},"arcs":[52]},{"type":"MultiLineString","properties":{"source":"openstreetmap.org","kind":"major_road","sort_rank":380,"kind_detail":"primary","ref":"SH 146","min_zoom":8.0},"arcs":[[53],[54]]},{"type":"MultiLineString","properties":{"kind":"major_road","network":"IN:NH","sort_rank":381,"kind_detail":"trunk","source":"openstreetmap.org","min_zoom":8.0,"shield_text":"81","osm_relation":true},"arcs":[[55],[56],[57],[58],[59],[60],[61]]},{"type":"MultiLineString","properties":{"source":"openstreetmap.org","kind":"major_road","sort_rank":380,"kind_detail":"primary","ref":"SH23","min_zoom":8.0},"arcs":[[62],[63],[64],[65],[66]]},{"type":"MultiLineString","properties":{"source":"openstreetmap.org","kind":"major_road","sort_rank":380,"kind_detail":"primary","ref":"SH 148","min_zoom":8.0,"id":157746009},"arcs":[[67],[68]]},{"type":"LineString","properties":{"source":"openstreetmap.org","kind":"major_road","sort_rank":381,"kind_detail":"trunk","ref":"NH32","min_zoom":8.0,"id":478349296},"arcs":[69]},{"type":"LineString","properties":{"kind":"major_road","network":"IN:NH","sort_rank":381,"kind_detail":"trunk","source":"openstreetmap.org","min_zoom":8.0,"shield_text":null,"ref":"NH36; NH36; NH536","id":390050743},"arcs":[70]},{"type":"MultiLineString","properties":{"kind":"major_road","network":"IN:NH","sort_rank":381,"kind_detail":"trunk","source":"openstreetmap.org","min_zoom":8.0,"shield_text":null,"ref":"NH336"},"arcs":[[71],[72]]},{"type":"MultiLineString","properties":{"source":"openstreetmap.org","kind":"major_road","sort_rank":380,"kind_detail":"primary","ref":"SH 67","min_zoom":8.0},"arcs":[[73],[74],[75]]},{"type":"LineString","properties":{"source":"openstreetmap.org","kind":"major_road","sort_rank":380,"kind_detail":"primary","ref":"SH147","min_zoom":8.0},"arcs":[76]},{"type":"MultiLineString","properties":{"source":"openstreetmap.org","kind":"major_road","landuse_kind":"urban_area","sort_rank":380,"kind_detail":"primary","min_zoom":8.0},"arcs":[[77],[78],[79],[80],[81],[82],[83],[84],[85],[86],[87],[88],[89],[90],[91],[92],[93],[94],[95],[96],[97],[98],[99],[100],[101],[102],[103],[104],[105],[106],[107],[108]]},{"type":"LineString","properties":{"kind":"major_road","network":"IN:NH","sort_rank":381,"kind_detail":"trunk","source":"openstreetmap.org","min_zoom":8.0,"shield_text":null,"ref":"NH81;136","id":241318881},"arcs":[109]},{"type":"LineString","properties":{"source":"openstreetmap.org","kind":"major_road","sort_rank":380,"kind_detail":"primary","ref":"SH 151","min_zoom":8.0},"arcs":[110]},{"type":"MultiLineString","properties":{"kind":"major_road","network":"IN:NH","sort_rank":381,"kind_detail":"trunk","source":"openstreetmap.org","min_zoom":8.0,"shield_text":null,"ref":"NH136"},"arcs":[[111],[112],[113]]},{"type":"LineString","properties":{"kind":"major_road","sort_rank":380,"kind_detail":"primary","is_bicycle_related":true,"source":"openstreetmap.org","min_zoom":8.0,"name:ta":"\u0b86\u0bb8\u0bcd\u0baa\u0ba4\u0bcd\u0ba4\u0bbf\u0bb0\u0bbf \u0bb0\u0bcb\u0b9f\u0bc1","id":246471092},"arcs":[114]},{"type":"LineString","properties":{"source":"openstreetmap.org","kind":"major_road","sort_rank":380,"kind_detail":"primary","ref":"TIRUTURAI POONDI ROAD","min_zoom":8.0,"id":306196993},"arcs":[115]},{"type":"LineString","properties":{"kind":"major_road","network":"IN:NH","sort_rank":381,"landuse_kind":"urban_area","source":"openstreetmap.org","min_zoom":8.0,"kind_detail":"trunk","shield_text":null,"ref":"NH32"},"arcs":[116]},{"type":"MultiLineString","properties":{"sort_rank":380,"kind_detail":"primary","min_zoom":8.0,"kind":"major_road","source":"openstreetmap.org"},"arcs":[[117],[118],[119],[120],[121],[122],[123],[124],[125],[126],[127],[128],[129],[130],[131],[132],[133],[134],[135],[136],[137],[138],[139],[140],[141],[142],[143],[144],[145],[146],[147],[148],[149],[150],[151],[152],[153],[154],[155],[156],[157],[158],[159],[160],[161],[162],[163],[164],[165],[166],[167],[168],[169],[170],[171],[172],[173],[174],[175],[176]]},{"type":"LineString","properties":{"kind":"major_road","network":"IN:NH","sort_rank":381,"kind_detail":"trunk","source":"openstreetmap.org","min_zoom":8.0,"shield_text":null,"ref":"NH85"},"arcs":[177]},{"type":"LineString","properties":{"kind":"major_road","network":"IN:NH","sort_rank":381,"kind_detail":"trunk","source":"openstreetmap.org","min_zoom":8.0,"shield_text":null,"id":50884596},"arcs":[178]},{"type":"LineString","properties":{"source":"openstreetmap.org","kind":"major_road","sort_rank":380,"kind_detail":"primary","ref":"SH140","min_zoom":8.0},"arcs":[179]},{"type":"LineString","properties":{"kind":"major_road","network":"IN:NH","sort_rank":381,"kind_detail":"trunk","source":"openstreetmap.org","min_zoom":8.0,"shield_text":"36","ref":"NH36"},"arcs":[180]},{"type":"LineString","properties":{"source":"openstreetmap.org","kind":"major_road","ref":"SH63","sort_rank":380,"kind_detail":"primary","is_bicycle_related":true,"min_zoom":8.0},"arcs":[181]},{"type":"LineString","properties":{"source":"openstreetmap.org","kind":"major_road","landuse_kind":"urban_area","sort_rank":381,"kind_detail":"trunk","min_zoom":8.0,"id":62032201},"arcs":[182]},{"type":"MultiLineString","properties":{"kind":"major_road","network":"IN:NH","sort_rank":381,"kind_detail":"trunk","source":"openstreetmap.org","min_zoom":8.0,"shield_text":null,"ref":"NH83"},"arcs":[[183],[184],[185],[186],[187],[188],[189],[190],[191],[192],[193],[194],[195],[196],[197],[198]]},{"type":"LineString","properties":{"kind":"major_road","network":"IN:NH","sort_rank":381,"kind_detail":"trunk","source":"openstreetmap.org","min_zoom":8.0,"landuse_kind":"urban_area","shield_text":null,"ref":"NH536","id":84277932},"arcs":[199]},{"type":"MultiLineString","properties":{"kind":"major_road","network":"IN:NH","sort_rank":381,"landuse_kind":"urban_area","source":"openstreetmap.org","min_zoom":8.0,"kind_detail":"trunk","shield_text":null,"ref":"NH83"},"arcs":[[200],[201],[202],[203],[204]]},{"type":"MultiLineString","properties":{"source":"openstreetmap.org","kind":"major_road","sort_rank":380,"kind_detail":"primary","ref":"SH 150","min_zoom":8.0},"arcs":[[205],[206]]},{"type":"MultiLineString","properties":{"source":"openstreetmap.org","kind":"major_road","landuse_kind":"residential","sort_rank":380,"kind_detail":"primary","min_zoom":8.0},"arcs":[[207],[208],[209],[210]]},{"type":"LineString","properties":{"source":"openstreetmap.org","kind":"major_road","sort_rank":380,"kind_detail":"primary","ref":"B417","min_zoom":8.0,"id":160065000},"arcs":[211]},{"type":"LineString","properties":{"kind":"major_road","sort_rank":380,"landuse_kind":"residential","source":"openstreetmap.org","min_zoom":8.0,"kind_detail":"primary","ref":"SH66","id":22832653},"arcs":[212]},{"type":"MultiLineString","properties":{"kind":"major_road","network":"IN:NH","sort_rank":381,"kind_detail":"trunk","source":"openstreetmap.org","min_zoom":8.0,"shield_text":null,"ref":"NH38"},"arcs":[[213],[214],[215],[216],[217],[218]]},{"type":"MultiLineString","properties":{"source":"openstreetmap.org","kind":"major_road","sort_rank":381,"kind_detail":"trunk","ref":"ECR","min_zoom":8.0},"arcs":[[219],[220],[221]]},{"type":"LineString","properties":{"kind":"major_road","sort_rank":380,"landuse_kind":"urban_area","source":"openstreetmap.org","min_zoom":8.0,"kind_detail":"primary","ref":"SH71","id":536191876},"arcs":[222]},{"type":"LineString","properties":{"kind":"major_road","sort_rank":380,"landuse_kind":"urban_area","source":"openstreetmap.org","min_zoom":8.0,"kind_detail":"primary","ref":"SH 67","id":379691710},"arcs":[223]},{"type":"LineString","properties":{"source":"openstreetmap.org","kind":"major_road","sort_rank":380,"kind_detail":"primary","ref":"SH139","min_zoom":8.0},"arcs":[224]},{"type":"MultiLineString","properties":{"source":"openstreetmap.org","kind":"major_road","landuse_kind":"urban_area","sort_rank":380,"kind_detail":"primary","ref":"SH28","min_zoom":8.0},"arcs":[[225],[226]]},{"type":"MultiLineString","properties":{"source":"openstreetmap.org","kind":"major_road","sort_rank":380,"kind_detail":"primary","ref":"SH71","min_zoom":8.0},"arcs":[[227],[228],[229],[230],[231],[232],[233],[234],[235],[236],[237],[238],[239]]},{"type":"LineString","properties":{"kind":"major_road","sort_rank":380,"landuse_kind":"residential","source":"openstreetmap.org","min_zoom":8.0,"kind_detail":"primary","ref":"SH64","id":49131374},"arcs":[240]},{"type":"MultiLineString","properties":{"source":"openstreetmap.org","kind":"major_road","sort_rank":380,"kind_detail":"primary","ref":"SH 22","min_zoom":8.0},"arcs":[[241],[242],[243]]},{"type":"LineString","properties":{"kind":"major_road","network":"IN:NH","sort_rank":381,"landuse_kind":"urban_area","source":"openstreetmap.org","min_zoom":8.0,"kind_detail":"trunk","shield_text":null,"ref":"NH336"},"arcs":[244]},{"type":"MultiLineString","properties":{"source":"openstreetmap.org","kind":"major_road","sort_rank":380,"kind_detail":"primary","ref":"SH28","min_zoom":8.0},"arcs":[[245],[246],[247],[248],[249],[250],[251]]},{"type":"MultiLineString","properties":{"kind":"major_road","network":"IN:NH","sort_rank":381,"kind_detail":"trunk","source":"openstreetmap.org","min_zoom":8.0,"shield_text":null,"ref":"NH36"},"arcs":[[252],[253],[254],[255],[256],[257],[258]]},{"type":"LineString","properties":{"kind":"major_road","short_name":"KKS Road","sort_rank":380,"kind_detail":"primary","source":"openstreetmap.org","min_zoom":8.0,"old_name":"Kankasanthurai Road","ref":"AB020","id":71184921},"arcs":[259]},{"type":"LineString","properties":{"source":"openstreetmap.org","kind":"major_road","sort_rank":380,"kind_detail":"primary","ref":"SH145","min_zoom":8.0},"arcs":[260]},{"type":"MultiLineString","properties":{"kind":"major_road","network":"IN:NH","sort_rank":381,"kind_detail":"trunk","source":"openstreetmap.org","min_zoom":8.0,"shield_text":null,"ref":"NH32"},"arcs":[[261],[262],[263],[264]]},{"type":"LineString","properties":{"source":"openstreetmap.org","kind":"major_road","sort_rank":380,"kind_detail":"primary","ref":"ECR","min_zoom":8.0},"arcs":[265]},{"type":"LineString","properties":{"kind":"major_road","network":"IN:NH","sort_rank":381,"kind_detail":"trunk","source":"openstreetmap.org","min_zoom":8.0,"landuse_kind":"residential","shield_text":null,"ref":"NH36","id":288035048},"arcs":[266]},{"type":"MultiLineString","properties":{"kind":"major_road","network":"IN:NH","sort_rank":381,"kind_detail":"trunk","source":"openstreetmap.org","min_zoom":8.0,"shield_text":null,"ref":"NH536"},"arcs":[[267],[268],[269],[270],[271]]},{"type":"MultiLineString","properties":{"source":"openstreetmap.org","kind":"major_road","sort_rank":380,"kind_detail":"primary","ref":"SH 99","min_zoom":8.0},"arcs":[[272],[273]]},{"type":"LineString","properties":{"source":"openstreetmap.org","kind":"major_road","sort_rank":380,"kind_detail":"primary","ref":"SH 149","min_zoom":8.0},"arcs":[274]},{"type":"MultiLineString","properties":{"kind":"major_road","network":"IN:NH","sort_rank":381,"landuse_kind":"urban_area","source":"openstreetmap.org","min_zoom":8.0,"kind_detail":"trunk","shield_text":"36","ref":"NH36"},"arcs":[[275],[276]]},{"type":"LineString","properties":{"source":"openstreetmap.org","kind":"major_road","sort_rank":380,"kind_detail":"primary","ref":"SH 64","min_zoom":8.0},"arcs":[277]},{"type":"LineString","properties":{"source":"openstreetmap.org","kind":"major_road","sort_rank":380,"kind_detail":"primary","ref":"SH 201","min_zoom":8.0,"id":154430753},"arcs":[278]},{"type":"LineString","properties":{"kind":"major_road","sort_rank":380,"kind_detail":"primary","is_bicycle_related":true,"source":"openstreetmap.org","min_zoom":8.0,"ref":"SH 146","id":151068511},"arcs":[279]},{"type":"MultiLineString","properties":{"source":"openstreetmap.org","kind":"major_road","sort_rank":380,"kind_detail":"primary","is_bicycle_related":true,"min_zoom":8.0},"arcs":[[280],[281],[282],[283],[284],[285],[286]]},{"type":"LineString","properties":{"kind":"major_road","sort_rank":380,"landuse_kind":"residential","source":"openstreetmap.org","min_zoom":8.0,"kind_detail":"primary","ref":"SH147","id":175569546},"arcs":[287]}]},"earth":{"type":"GeometryCollection","geometries":[{"type":"MultiPolygon","properties":{"sort_rank":10,"source":"naturalearthdata.com","min_zoom":0.0,"kind":"earth","area":31846611394},"arcs":[[[288]],[[289]],[[290]]]}]},"landuse":{"type":"GeometryCollection","geometries":[{"type":"Polygon","properties":{"source":"openstreetmap.org","kind":"residential","area":15638100,"tier":2,"id":22825948,"min_zoom":8.0,"sort_rank":20},"arcs":[[291]]},{"type":"MultiPolygon","properties":{"source":"naturalearthdata.com","kind":"urban_area","name":"","area":211237291,"sort_rank":11,"min_zoom":4.0},"arcs":[[[292]],[[293]],[[294]],[[295]],[[296]],[[297]],[[298]]]},{"type":"Polygon","properties":{"source":"openstreetmap.org","kind":"military","area":14116200,"tier":3,"id":457692602,"min_zoom":8.0,"sort_rank":45},"arcs":[[299]]}]}},"type":"Topology","transform":{"translate":[78.75,9.7956775828],"scale":[0.0003433228,0.0003375792]},"arcs":[[[4096,683],[-229,-33],[-229,3],[-244,-54],[-402,-163],[-137,-88],[-288,-270],[-50,-78]],[[2096,0],[263,378],[313,148],[1084,365],[340,1351]],[[3301,3057],[-92,1],[-95,-49],[-22,12],[1,52],[-18,-15],[-43,53],[50,9],[-54,39],[56,15],[-122,16],[27,27],[-9,24],[-35,5],[-27,-32],[-12,44],[-14,-40],[0,52],[-47,-6],[-2,28],[-64,36],[51,47],[-50,0],[-2,50],[122,-26],[-22,46],[16,25],[-38,12],[19,53],[103,-28],[32,-37],[52,57],[237,-30]],[[2096,0],[263,378],[313,148],[1084,365],[340,1351]],[[4096,3050],[-795,7]],[[3299,3497],[797,19]],[[3774,55],[8,0]],[[3782,55],[4,0]],[[3771,0],[11,55]],[[3782,55],[0,1]],[[987,0],[15,20],[20,70],[8,12],[52,60],[59,121],[171,234],[117,120],[112,74],[-73,55],[-28,91],[-20,198],[-3,44],[10,39],[24,28],[40,11],[21,14],[5,35],[-2,41],[6,33],[41,54],[54,46],[172,100],[63,54],[37,13],[40,-11],[74,-34],[65,-3],[151,24],[60,20],[0,20],[-10,24],[114,-7],[56,23],[59,-22],[-10,-21],[-87,-36],[-26,-3],[-24,1],[-15,-9],[3,-31],[12,-12],[19,-5],[49,-3],[523,-112],[37,10],[4,36],[-43,25],[-82,20],[-79,0],[-26,8],[-30,21],[-24,12],[-42,13],[-45,7],[-47,3],[-47,-3],[21,44],[34,13],[361,-58],[67,-37],[-4,-63],[48,-18],[57,9],[57,19],[50,10],[15,33],[21,253],[-12,512],[-27,120],[-1,483],[-8,162],[-19,416],[17,88],[16,80],[9,453],[-10,55],[887,0],[0,-4017],[-57,-25],[6,-45],[12,-9],[-44,0],[1,29],[-17,40],[-43,5],[-119,-13],[-228,20],[-51,-23],[-62,-58],[-2507,0]],[[4096,79],[-57,-25],[6,-45],[12,-9]],[[4013,0],[1,29],[-17,40],[-43,5],[-119,-13],[-228,20],[-51,-23],[-62,-58]],[[987,0],[15,20],[20,70],[8,12],[52,60],[59,121],[171,234],[117,120],[112,74],[-73,55],[-28,91],[-20,198],[-3,44],[10,39],[24,28],[40,11],[21,14],[5,35],[-2,41],[6,33],[41,54],[54,46],[172,100],[63,54],[37,13],[40,-11],[74,-34],[65,-3],[151,24],[60,20],[0,20],[-10,24],[114,-7],[56,23],[59,-22],[-10,-21],[-87,-36],[-26,-3],[-24,1],[-15,-9],[3,-31],[12,-12],[19,-5],[49,-3],[523,-112],[37,10],[4,36],[-43,25],[-82,20],[-79,0],[-26,8],[-30,21],[-24,12],[-42,13],[-45,7],[-47,3],[-47,-3],[21,44],[34,13],[361,-58],[67,-37],[-4,-63],[48,-18],[57,9],[57,19],[50,10],[15,33],[21,253],[-12,512],[-27,120],[-1,483],[-8,162],[-19,416],[17,88],[16,80],[9,453],[-10,55]],[[211,1748],[-19,2]],[[3130,2848],[-1,0]],[[224,1715],[-66,25]],[[257,2795],[-87,66]],[[211,1748],[-3,-18]],[[281,1659],[-57,56]],[[281,1659],[2,-8]],[[694,1113],[-49,45],[-10,142],[-31,74],[-115,77],[-94,121],[-112,79]],[[1135,366],[-220,375],[-62,65],[-6,64],[-59,46],[-83,188]],[[0,3195],[197,13],[125,112],[148,86],[283,266],[177,24]],[[1106,3801],[28,47],[92,53],[290,115],[64,80]],[[1037,2790],[-1,1],[1,0],[0,-1]],[[1205,2877],[-1,-1],[-38,-47],[-50,-24],[-59,-18],[-12,-1]],[[1045,2786],[121,43],[38,48]],[[2850,3024],[-67,2]],[[3157,3040],[-77,-24]],[[2586,2191],[-118,143],[-94,56],[-68,100],[-97,61],[-317,18],[-211,105],[-40,-7],[-262,82],[-113,79]],[[3199,1713],[-16,-120],[-60,-153]],[[1204,2877],[8,31]],[[1212,2908],[-7,-31]],[[32,719],[-32,33]],[[195,1714],[13,16]],[[238,1792],[-27,-44]],[[1753,3462],[2,7]],[[1755,3469],[35,15]],[[1755,3469]],[[1755,3469],[1,0],[-1,0]],[[1030,3202],[0,8]],[[936,3702],[170,99]],[[1871,3461],[27,17]],[[3823,48],[-145,7],[-163,-49],[-7,-6]],[[4096,85],[-35,1],[-27,-24]],[[1886,3412],[-3,10]],[[170,2861],[-48,37]],[[1928,2887],[87,-269],[-9,-155],[-37,-212],[-89,-223],[-36,-270],[7,-148]],[[1902,3281],[-16,131]],[[1937,2906],[-63,335],[27,38]],[[1937,2906]],[[1037,2791],[2,-2]],[[1540,1339],[85,204],[13,320]],[[1892,2320],[-120,-135],[-124,-324]],[[0,3195],[197,13],[72,82],[247,152],[16,16]],[[532,3458],[9,9]],[[541,3467],[212,205],[207,37],[144,76],[11,47],[92,62],[303,118],[70,84]],[[529,3458],[5,11],[7,-2]],[[541,3467],[2,-1],[-3,-10],[-8,2]],[[532,3458],[-3,0]],[[541,3465],[0,1],[1,1],[0,-1],[-1,-1]],[[2565,2874],[45,342]],[[2588,2854],[-12,21]],[[2586,2191],[77,262],[-10,93],[-90,206],[25,102]],[[2608,3217],[40,234]],[[2651,3513],[-41,270],[11,84]],[[2783,3026],[-201,8]],[[3080,3016],[-230,8]],[[3130,2849],[1,-1],[-1,0],[0,1]],[[70,1111],[-67,182],[3,81],[46,78],[7,96],[73,80]],[[102,1891],[-28,445],[-74,109]],[[163,1677],[6,48]],[[2036,3291],[-45,60],[-100,48]],[[2129,3139],[-73,60],[-20,92]],[[2036,3291],[215,-21],[154,-46],[306,-1],[184,-28],[140,-27],[81,-63]],[[3167,3335],[-222,20],[-96,85],[-201,11],[3,62],[-139,-9],[-181,64],[-113,-13],[-277,-115],[-44,2]],[[109,1773],[5,50]],[[171,1865],[-60,-27]],[[144,1758],[14,-18]],[[192,1750],[-6,-24]],[[1107,2911],[0,1]],[[1111,2911],[-4,-1]],[[1107,2912],[10,18]],[[1107,2912],[4,-1]],[[1111,2911],[2,-7]],[[1120,2932],[-3,-2]],[[1120,2932],[12,3]],[[1132,2935],[-2,39]],[[1140,2909],[-8,26]],[[1140,2909]],[[1140,2909]],[[1140,2908],[0,1],[0,-1]],[[1141,2908],[-1,0]],[[1140,2909],[1,-1]],[[1145,2906],[-4,2]],[[1148,2906],[-3,0]],[[1217,2917],[-23,-4],[-19,-3]],[[1175,2910],[-2,0]],[[1173,2910],[-21,-4],[-4,0]],[[1173,2910]],[[1173,2910],[2,-1]],[[1175,2909],[1,0]],[[1205,2880],[-28,23],[0,4],[-2,2]],[[1175,2909],[0,1]],[[1175,2910]],[[3163,3051],[7,-188]],[[1107,2911],[0,-1]],[[1107,2910],[0,1]],[[936,3702],[-6,-6]],[[2889,2883],[-77,-275],[-100,-134],[-48,-16]],[[875,4096],[99,-89],[-2,-68],[-33,-19],[26,-73],[-26,-33],[-3,-112]],[[1030,3210],[2,154],[-60,133],[-42,199]],[[1138,3056],[-59,42],[-49,104]],[[2238,2708],[-10,16]],[[2175,1787],[11,6]],[[3146,2987],[8,212]],[[0,83],[9,47]],[[202,3072],[-139,-15],[-63,17]],[[66,1559],[41,182]],[[70,1110],[66,-48]],[[107,1747],[2,26]],[[107,1741],[0,6]],[[708,1105],[-121,19],[-241,-17],[-184,53],[-6,-91],[-20,-7]],[[140,938],[-20,22],[16,102]],[[171,1865],[128,-46]],[[184,1696],[68,-23]],[[1150,2258],[26,-1],[-16,-57],[19,-15],[-42,-219],[-138,-30],[-114,8],[-133,-76],[-375,1]],[[768,2304],[-45,113],[-27,183],[-100,130]],[[852,2754],[-7,5]],[[935,3974],[-30,66]],[[941,3924],[-6,50]],[[954,3971],[-19,3]],[[1037,2791],[27,35]],[[1064,2826],[49,66],[1,2]],[[1114,2893],[-50,-67]],[[1064,2826],[-27,-36]],[[1060,2828],[4,-2]],[[1064,2826]],[[1064,2826],[5,-2]],[[1072,2894]],[[1074,2894],[0,1]],[[1085,2900]],[[1085,2900]],[[1113,2904],[2,-9]],[[1114,2894],[1,1]],[[1125,3045],[-11,14]],[[1115,2895],[-1,-1]],[[1125,3045],[13,11]],[[1131,3024],[-6,21]],[[1130,2974],[4,48]],[[1134,3022],[-3,2]],[[1247,2536],[82,-27],[92,7]],[[2068,1751],[-338,60],[-75,48]],[[1740,3412],[14,6]],[[1791,4096],[28,-148],[-7,-99],[-35,-37]],[[1778,3429],[4,2]],[[1860,3515],[36,-32]],[[1930,3385],[-25,102]],[[2026,3323],[3,-7]],[[2054,3901],[142,26],[178,158]],[[2156,2902],[-63,86],[31,138]],[[2129,3139],[53,-55],[140,-15],[216,-162]],[[2142,1777],[33,10],[34,229],[-31,1],[-25,75],[31,91],[-5,85]],[[2227,1818],[-39,-30],[175,42]],[[2653,2544],[-140,34],[-18,74],[-43,31],[-193,-8]],[[2356,3780],[0,36]],[[2570,2906],[-36,-2]],[[2574,2909],[9,-12]],[[2624,3874],[1,-6]],[[3132,2848],[-1,0]],[[3131,2849],[1,-1]],[[3170,2863],[-38,-15]],[[3160,3298],[-9,69]],[[1114,2894],[1,0],[-1,-1],[0,1]],[[1114,2894]],[[3199,1721],[11,0],[0,-8],[-11,0],[0,8]],[[373,0],[-212,56],[-41,43],[-120,38]],[[1279,3261],[-13,-10]],[[1824,3510],[-47,196],[0,106]],[[1192,2969],[-54,87]],[[3199,1721],[-123,78],[-128,142],[-101,31],[-115,-20],[-146,239]],[[203,1723],[-33,6]],[[56,2938],[-39,23]],[[17,2961],[-17,11]],[[0,2972],[17,-11]],[[17,2961],[39,-24]],[[170,2862],[91,-69],[335,-63],[136,37],[205,-21],[108,40]],[[1045,2786],[-107,-40],[-206,20],[-137,-37],[-334,64]],[[1235,2920],[198,-7],[251,41],[158,-60],[88,-6],[7,18]],[[2587,2854],[-53,50],[-262,81],[-212,-126],[-123,47]],[[2588,2854],[-1,0]],[[2588,2854],[-1,0]],[[2588,2854],[2,0]],[[2590,2854],[-2,0]],[[3130,2849],[-80,2],[-75,36],[-183,-26],[-179,17],[-23,-24]],[[2588,2854]],[[2588,2854]],[[2588,2854]],[[40,861],[0,98]],[[56,2937],[114,-75]],[[122,2898],[-66,40]],[[1212,2908],[20,12]],[[1232,2920],[-20,-12]],[[1232,2920],[3,0]],[[2052,3961],[77,52],[132,33],[24,-36]],[[2374,4085],[13,11]],[[1754,3418],[24,11]],[[1782,3431],[12,5]],[[1799,3440],[-5,-4]],[[1799,3440],[72,21]],[[4034,62],[53,-62]],[[1883,3422],[-5,12]],[[336,4096],[-22,-44],[-2,-3]],[[312,4049],[-16,-25],[-17,-14],[-42,-102],[-8,-31],[-2,-9],[-7,-29]],[[220,3839],[0,-2],[-2,-21],[-62,-180],[-156,-267]],[[0,3370],[63,137],[71,110],[22,19],[64,201],[0,2]],[[220,3839],[92,210]],[[312,4049],[10,22],[13,25]],[[1375,1005],[40,131],[92,164],[206,182],[14,42],[341,227],[74,26],[17,40],[68,1],[119,69],[58,114],[131,18],[26,92],[53,57],[70,20],[94,70],[218,213],[58,-2],[61,53],[44,87],[-28,237]],[[3131,2846],[-1,2]],[[3131,2848],[0,-2]],[[133,1743],[4,0]],[[3116,3105],[47,-54]],[[954,3971],[95,-56],[89,19],[88,-33],[52,-68],[22,-87],[217,-120],[113,46]],[[77,852],[33,45]],[[1208,2877],[-3,3]],[[0,1865],[104,-122]],[[110,1745],[-6,-2]],[[110,1745],[23,-2]],[[283,1654],[2,-1]],[[283,1653],[2,0]],[[285,1653],[-1,-1]],[[1106,1572],[-191,39],[-101,64],[-143,-11],[-155,38],[-231,-49]],[[1106,1572],[1,0]],[[1106,1571],[0,1]],[[1107,1571],[-1,0]],[[1107,1571]],[[1540,1342],[-53,64],[-174,48],[-103,60],[-95,-5],[-8,62]],[[1106,1571],[1,0],[-1,0]],[[1870,3443],[1,18]],[[1030,3210],[-307,-16],[-93,-18],[-37,-36],[-146,-16],[-34,-28],[-211,-24]],[[1878,3512],[341,192],[76,88],[322,93],[256,23],[67,80],[50,7]],[[3003,3996],[221,-3]],[[169,1725],[9,28],[-37,6],[-39,132]],[[0,828],[44,-21],[33,45]],[[110,897],[30,41],[159,-48],[67,31],[155,17],[42,42],[66,17],[76,99]],[[1106,1571],[-116,-112],[-85,-38],[-184,-313]],[[1106,1571]],[[1106,1571]],[[1655,1859],[-140,-27],[-408,-261]],[[1638,1863],[-47,233],[-88,226],[3,54],[-46,45],[-167,371],[-85,85]],[[0,1343],[6,21]],[[132,1628],[63,86]],[[238,1792],[218,140],[62,120],[207,228],[48,23],[151,313],[106,161]],[[1045,2786],[-15,-9]],[[1030,2777],[15,9]],[[1138,3056],[156,216],[282,111],[164,29],[13,50]],[[1833,3503],[79,82],[17,150],[119,101],[-12,161],[29,99]],[[3771,58],[-33,-51],[-2,-7]],[[1375,1005],[-703,104]],[[3154,3199],[17,166],[-20,2],[-22,122],[75,156],[-127,129],[-30,158],[-70,76],[-35,88]],[[3130,2851],[16,136]],[[3130,2849],[0,2]],[[3130,2851],[1,-2]],[[909,0],[92,138],[-7,49],[393,447],[15,132],[-35,161],[8,78]],[[1790,3484],[43,19]],[[47,793],[-7,68]],[[40,959],[0,94],[30,57]],[[49,789],[-2,4]],[[405,0],[-28,80],[-83,120],[-12,106],[-59,139],[-163,188],[-28,86],[17,70]],[[70,1110],[0,1],[1,-1],[-1,0]],[[639,2745],[31,168],[-77,227]],[[773,2303],[112,-25],[144,-124],[421,-112],[20,-114],[48,-95]],[[2863,3906],[17,-264]],[[1218,2918],[10,20],[-36,31]],[[1216,2916],[2,1],[-1,-1],[-1,0]],[[1898,3478],[434,291],[296,100],[124,105],[38,122]],[[0,1597],[80,-17]],[[2001,2570],[-69,-200],[-40,-50]],[[1156,3064],[79,23]],[[2228,2724],[-72,178]],[[2187,2679],[39,44],[2,1],[88,19]],[[2230,2720],[1,-2]],[[2259,2675],[-26,50]],[[2363,1830],[205,43],[64,-44],[427,-88],[33,-25],[107,1]],[[3201,1721],[1,101],[-41,22],[6,77],[-36,139],[21,180],[-18,278],[23,80]],[[1897,3442],[-27,1]],[[4096,79],[0,-79],[-39,0],[-12,9],[-6,45],[57,25]],[[4013,0],[-519,0],[62,58],[51,23],[228,-20],[119,13],[43,-5],[17,-40],[-1,-29]],[[0,4096],[3209,0],[10,-55],[-9,-453],[-16,-80],[-17,-88],[19,-416],[8,-162],[1,-483],[27,-120],[12,-512],[-21,-253],[-15,-33],[-50,-10],[-57,-19],[-57,-9],[-48,18],[4,63],[-67,37],[-361,58],[-34,-13],[-21,-44],[47,3],[47,-3],[45,-7],[42,-13],[24,-12],[30,-21],[26,-8],[79,0],[82,-20],[43,-25],[-4,-36],[-37,-10],[-523,112],[-49,3],[-19,5],[-12,12],[-3,31],[15,9],[24,-1],[26,3],[87,36],[10,21],[-59,22],[-56,-23],[-114,7],[10,-24],[0,-20],[-60,-20],[-151,-24],[-65,3],[-74,34],[-40,11],[-37,-13],[-63,-54],[-172,-100],[-54,-46],[-41,-54],[-6,-33],[2,-41],[-5,-35],[-21,-14],[-40,-11],[-24,-28],[-10,-39],[3,-44],[20,-198],[28,-91],[73,-55],[-112,-74],[-117,-120],[-171,-234],[-59,-121],[-52,-60],[-8,-12],[-20,-70],[-15,-20],[-987,0],[0,4096]],[[1748,3407],[47,86],[73,19],[33,-38],[-7,-53],[-119,11],[27,-26],[-54,1]],[[139,837],[-139,34],[0,98],[86,-21],[53,-111]],[[171,1891],[0,-66],[94,-46],[3,-53],[-62,-16],[-68,27],[-51,63],[-13,91],[97,0]],[[171,2845],[-48,0],[-81,66],[28,51],[51,0],[45,-40],[5,-77]],[[1172,2876],[-89,41],[-6,60],[121,-8],[35,-31],[6,-60],[-67,-2]],[[3187,3194],[16,-344],[-29,-9],[-24,145],[-131,57],[10,25],[87,8],[0,130],[71,-12]],[[1886,3405],[-86,10],[-51,52],[-16,71],[24,64],[32,-10],[33,-89],[64,-59],[0,-39]],[[2792,2944],[-21,19],[21,14],[-32,165],[97,-66],[0,-42],[-65,-90]],[[3801,0],[24,52],[92,-11],[-20,-41],[-96,0]]]}