{"objects":{"water":{"type":"GeometryCollection","geometries":[{"type":"MultiPolygon","properties":{"source":"naturalearthdata.com","kind":"ocean","area":1576712559132672,"sort_rank":200,"min_zoom":0.0,"id":1},"arcs":[[[61]]]},{"type":"LineString","properties":{"source":"naturalearthdata.com","kind":"ocean","sort_rank":205,"boundary":true,"min_zoom":0.0,"id":21},"arcs":[62]}]},"buildings":{"type":"GeometryCollection","geometries":[]},"places":{"type":"GeometryCollection","geometries":[{"type":"Point","properties":{"admin_level":"4","kind":"region","name":"North Western Province","name:si":"\u0dc0\u0dba\u0db9 \u0db4\u0dc5\u0dcf\u0dad","kind_detail":"state","source":"openstreetmap.org","min_zoom":4.0,"name:ta":"\u0bb5\u0b9f \u0bae\u0bc7\u0bb2\u0bcd \u0bae\u0bbe\u0b95\u0bbe\u0ba3\u0bae\u0bcd","id":4344994154,"name:ja":"\u5317\u897f\u90e8\u5dde"},"coordinates":[3985,2280]},{"type":"Point","properties":{"kind":"locality","name":"Katunayake","kind_detail":"city","source":"openstreetmap.org","min_zoom":8.0,"population":76800,"id":639153516,"name:ja":"\u30ab\u30c8\u30a5\u30ca\u30fc\u30e4\u30ab"},"coordinates":[3267,421]},{"type":"Point","properties":{"kind":"locality","name":"Puttalam","name:si":"\u0db4\u0dd4\u0dad\u0dca\u0dad\u0dbd\u0db8","kind_detail":"city","source":"openstreetmap.org","min_zoom":8.0,"name:kn":"\u0caa\u0cc1\u0ca4\u0ccd\u0ca4\u0cb2\u0c82","population":45400,"name:ru":"\u041f\u0443\u0442\u0442\u0430\u043b\u0430\u043c","name:ta":"\u0baa\u0bc1\u0ba4\u0bcd\u0ba4\u0bb3\u0bae\u0bcd","id":330173100,"name:ja":"\u30d7\u30c3\u30bf\u30e9\u30e0"},"coordinates":[3142,2988]},{"type":"Point","properties":{"kind":"locality","name":"Ja-ela","name:si":"\u0da2\u0dcf-\u0d87\u0dbd","kind_detail":"city","source":"openstreetmap.org","min_zoom":8.0,"id":252542985,"population":32300},"coordinates":[3323,193]},{"type":"Point","properties":{"kind":"locality","name":"Negombo","kind_detail":"town","source":"openstreetmap.org","min_zoom":8.0,"name:kn":"\u0ca8\u0cc6\u0c97\u0cca\u0c82\u0cac\u0cca","population":30000,"name:ru":"\u041d\u0435\u0433\u043e\u043c\u0431\u043e","name:ta":"\u0ba8\u0bc0\u0bb0\u0bcd\u0b95\u0bc6\u0bbe\u0bb4\u0bc1\u0bae\u0bcd\u0baa\u0bc1","id":2064194449,"name:ja":"\u30cb\u30b4\u30f3\u30dc"},"coordinates":[3155,575]},{"type":"Point","properties":{"kind":"locality","name":"Chilaw","name:si":"\u0dc4\u0dbd\u0dcf\u0dc0\u0dad","kind_detail":"city","source":"openstreetmap.org","min_zoom":8.0,"name:kn":"\u0c9a\u0cbf\u0cb2\u0cb5\u0ccd","name:ru":"\u0427\u0438\u043b\u0430\u0432","name:ta":"\u0b9a\u0bbf\u0bb2\u0bbe\u0baa\u0bae\u0bcd","id":1400410588,"population":26700},"coordinates":[3046,1654]},{"type":"Point","properties":{"source":"openstreetmap.org","kind":"locality","name":"Anamaduwa","kind_detail":"town","population":20000,"min_zoom":8.0,"id":1731568993},"coordinates":[3673,2540]},{"type":"Point","properties":{"kind":"locality","name":"Gampaha","kind_detail":"city","source":"openstreetmap.org","min_zoom":8.0,"name:kn":"\u0c97\u0c82\u0caa\u0cb9","name:ru":"\u0413\u0430\u043c\u043f\u0430\u0445\u0430","population":20000,"id":3289447451,"name:ja":"\u30ac\u30f3\u30d1\u30cf"},"coordinates":[3627,232]},{"type":"Point","properties":{"source":"openstreetmap.org","kind":"locality","name":"Mahabage","kind_detail":"town","population":15000,"min_zoom":8.0,"id":1837184843},"coordinates":[3349,24]},{"type":"Point","properties":{"source":"openstreetmap.org","kind":"locality","name":"Ragama","kind_detail":"town","population":15000,"min_zoom":8.0,"id":637652815},"coordinates":[3414,43]},{"type":"Point","properties":{"source":"openstreetmap.org","kind":"locality","name":"Kandana","kind_detail":"town","population":15000,"min_zoom":8.0,"id":1896024292},"coordinates":[3341,100]},{"type":"Point","properties":{"source":"openstreetmap.org","kind":"locality","name":"Dungalpitiya","kind_detail":"town","population":15000,"min_zoom":8.0,"id":1269983060},"coordinates":[3152,392]},{"type":"Point","properties":{"source":"openstreetmap.org","kind":"locality","name":"Seeduwa","kind_detail":"town","population":15000,"min_zoom":8.0,"id":292785668},"coordinates":[3280,345]},{"type":"Point","properties":{"source":"openstreetmap.org","kind":"locality","name":"Kotugoda","kind_detail":"town","population":15000,"min_zoom":8.0,"id":617248525},"coordinates":[3422,323]},{"type":"Point","properties":{"kind":"locality","name":"Veyangoda","kind_detail":"town","source":"openstreetmap.org","min_zoom":8.0,"name:ru":"\u0412\u0435\u044f\u043d\u0433\u043e\u0434\u0430","id":638957830,"population":15000},"coordinates":[3816,411]},{"type":"Point","properties":{"source":"openstreetmap.org","kind":"locality","name":"Kochchikade","kind_detail":"town","population":15000,"min_zoom":8.0,"id":313407388},"coordinates":[3230,739]},{"type":"Point","properties":{"source":"openstreetmap.org","kind":"locality","name":"Katana","kind_detail":"town","population":15000,"min_zoom":8.0,"id":639175794},"coordinates":[3365,696]},{"type":"Point","properties":{"source":"openstreetmap.org","kind":"locality","name":"Dankotuwa","kind_detail":"town","population":15000,"min_zoom":8.0,"id":617242457},"coordinates":[3298,834]},{"type":"Point","properties":{"source":"openstreetmap.org","kind":"locality","name":"Mirigama","kind_detail":"town","population":15000,"min_zoom":8.0,"id":638948678},"coordinates":[4019,687]},{"type":"Point","properties":{"source":"openstreetmap.org","kind":"locality","name":"Dambadeniya","kind_detail":"town","population":15000,"min_zoom":8.0,"id":2907471043},"coordinates":[4076,1042]},{"type":"Point","properties":{"source":"openstreetmap.org","kind":"locality","name":"Kuliyapitiya","kind_detail":"town","population":15000,"min_zoom":8.0,"id":1976202073},"coordinates":[3769,1342]},{"type":"Point","properties":{"source":"openstreetmap.org","kind":"locality","name":"Hettipola","kind_detail":"town","population":15000,"min_zoom":8.0,"id":1976165108},"coordinates":[3870,1740]},{"type":"Point","properties":{"source":"openstreetmap.org","kind":"locality","name":"Kobeigane","kind_detail":"town","population":15000,"min_zoom":8.0,"id":1976141592},"coordinates":[4009,1888]},{"type":"Point","properties":{"source":"openstreetmap.org","kind":"locality","name":"Yakkala","kind_detail":"town","population":15000,"min_zoom":8.0,"id":3724170469},"coordinates":[3739,212]},{"type":"Point","properties":{"source":"openstreetmap.org","kind":"locality","name":"Karuwalagaswewa","kind_detail":"town","population":15000,"min_zoom":8.0,"id":1837177540},"coordinates":[3527,3067]},{"type":"Point","properties":{"source":"openstreetmap.org","kind":"locality","name":"Saliyawewa","kind_detail":"town","population":15000,"min_zoom":8.0,"id":1837177541},"coordinates":[3907,3460]},{"type":"Point","properties":{"source":"openstreetmap.org","kind":"locality","name":"Madurankuliya","kind_detail":"town","population":15000,"min_zoom":8.0,"id":1731515234},"coordinates":[3122,2621]},{"type":"Point","properties":{"source":"openstreetmap.org","kind":"locality","name":"Nikaweratiya","kind_detail":"town","population":15000,"min_zoom":8.0,"id":1536648881},"coordinates":[3978,2165]},{"type":"Point","properties":{"source":"openstreetmap.org","kind":"locality","name":"Ekala","kind_detail":"town","population":10000,"min_zoom":8.0,"id":617248527},"coordinates":[3380,258]},{"type":"Point","properties":{"source":"openstreetmap.org","kind":"locality","name":"Miriswatte (WP)","kind_detail":"town","population":10000,"min_zoom":8.0,"id":619905135},"coordinates":[3689,175]},{"type":"Point","properties":{"source":"openstreetmap.org","kind":"locality","name":"Pasyala","kind_detail":"town","population":10000,"min_zoom":8.0,"id":51237546},"coordinates":[4003,455]},{"type":"Point","properties":{"source":"openstreetmap.org","kind":"locality","name":"Belummahara","kind_detail":"town","population":8000,"min_zoom":8.0,"id":619905141},"coordinates":[3676,156]},{"type":"Point","properties":{"source":"openstreetmap.org","kind":"locality","name":"Divulapitiya","kind_detail":"town","population":5000,"min_zoom":8.0,"id":638948677},"coordinates":[3697,620]},{"type":"Point","properties":{"source":"openstreetmap.org","kind":"locality","name":"Kapungoda","kind_detail":"town","population":5000,"min_zoom":8.0,"id":1269983065},"coordinates":[3178,309]},{"type":"Point","properties":{"source":"openstreetmap.org","kind":"locality","name":"Wennappuwa","kind_detail":"town","population":5000,"min_zoom":8.0,"id":1837181385},"coordinates":[3179,967]},{"type":"Point","properties":{"source":"openstreetmap.org","kind":"locality","name":"Giriulla","kind_detail":"town","population":5000,"min_zoom":8.0,"id":638951280},"coordinates":[3998,930]},{"type":"Point","properties":{"source":"openstreetmap.org","kind":"locality","name":"Weliweriya (WP)","kind_detail":"town","population":5000,"min_zoom":8.0,"id":4688847654},"coordinates":[3723,55]},{"type":"Point","properties":{"source":"openstreetmap.org","kind":"locality","name":"Kirindiwela","kind_detail":"town","population":5000,"min_zoom":8.0,"id":634848847},"coordinates":[4025,87]}]},"transit":{"type":"GeometryCollection","geometries":[{"type":"LineString","properties":{"source":"openstreetmap.org","kind":"train","name":"Holcim Freight Line","sort_rank":275,"min_zoom":6.0,"osm_relation":true,"id":-6022924},"arcs":[4]},{"type":"MultiLineString","properties":{"osm_relation":true,"source":"openstreetmap.org","kind":"train","name":"Puttalam Line","sort_rank":275,"min_zoom":6.0,"operator":"Sri Lanka Railways"},"arcs":[[5],[6],[7],[8],[9],[10],[11],[12],[13],[14],[15],[16],[17],[18],[19],[20],[21],[22],[23],[24],[25],[26],[27],[28],[29],[30],[31],[32],[33],[34],[35],[36],[37],[38],[39],[40],[41],[42],[43],[44],[45],[46],[47],[48],[49],[50],[51],[52],[53],[54],[55],[56],[57],[58],[59],[60]]}]},"pois":{"type":"GeometryCollection","geometries":[]},"boundaries":{"type":"GeometryCollection","geometries":[{"type":"LineString","properties":{"name:cy":"Sri Lanka","name:ko":"\uc2a4\ub9ac\ub791\uce74","name:cv":"\u0428\u0440\u0438-\u041b\u0430\u043d\u043a\u0430","name:km":"\u179f\u17d2\u179a\u17b8\u179b\u1784\u17d2\u1780\u17b6","name:cs":"Sr\u00ed Lanka","name:ki":"Sri Lanka","name:kw":"Shri Lanka","name:kv":"\u0428\u0440\u0438-\u041b\u0430\u043d\u043a\u0430","name:ku":"Sr\u00ee Lanka","alt_name:cs":"Sr\u00edlansk\u00e1 demokratick\u00e1 socialistick\u00e1 republika","name:tl":"Sri Lanka","name:ta":"\u0b87\u0bb2\u0b99\u0bcd\u0b95\u0bc8","name:tg":"\u0428\u0440\u0438-\u041b\u0430\u043d\u043a\u0430","name:ca":"Sri Lanka","name:te":"\u0c36\u0c4d\u0c30\u0c40\u0c32\u0c02\u0c15","name:ka":"\u10e8\u10e0\u10d8-\u10da\u10d0\u10dc\u10d9\u10d0","name:qu":"Sri Lanka","name:da":"Sri Lanka","name:de":"Sri Lanka","name:dz":"\u0f64\u0fb2\u0f71\u0f80\u0f0b\u0f63\u0f44\u0f40\u0f0b","source":"openstreetmap.org","name:kn":"\u0cb6\u0ccd\u0cb0\u0cc0\u0cb2\u0c82\u0c95\u0cbe","name:dv":"\u0787\u07ae\u0785\u07aa\u078b\u07ab\u0786\u07a6\u0783\u07a6","name:lv":"\u0160rilanka","name:lt":"\u0160ri Lanka","name:uz":"Shri-Lanka","name:kk":"\u0428\u0440\u0438-\u041b\u0430\u043d\u043a\u0430","name:ur":"\u0633\u0631\u06cc \u0644\u0646\u06a9\u0627","name:lb":"Sri Lanka","name:la":"Taprobane","name:tt":"\u0428\u0440\u0438-\u041b\u0430\u043d\u043a\u0430","name:uk":"\u0428\u0440\u0456-\u041b\u0430\u043d\u043a\u0430","name:ug":"\u0633\u0631\u0649\u0644\u0627\u0646\u0643\u0627","name:li":"Sri Lanka","name:ln":"Sri Lanka","name:el":"\u03a3\u03c1\u03b9 \u039b\u03ac\u03bd\u03ba\u03b1","name:eo":"Sri-Lanko","name:en":"Sri Lanka","name":"\u0dc1\u0dca\u200d\u0dbb\u0dd3 \u0dbd\u0d82\u0d9a\u0dcf\u0dc0 \u0b87\u0bb2\u0b99\u0bcd\u0b95\u0bc8","name:tk":"\u015eri-Lanka","name:th":"\u0e1b\u0e23\u0e30\u0e40\u0e17\u0e28\u0e28\u0e23\u0e35\u0e25\u0e31\u0e07\u0e01\u0e32","name:eu":"Sri Lanka","name:et":"Sri Lanka","name:es":"Sri Lanka","name:ia":"Sri Lanka","name:az":"\u015eri-Lanka","name:ie":"Sri Lanka","name:id":"Sri Lanka","name:ar":"\u0633\u0631\u064a\u0644\u0627\u0646\u0643\u0627","name:io":"Sri Lanka","name:is":"Sr\u00ed Lanka","name:am":"\u123d\u122a \u120b\u1295\u12ab","name:it":"Sri Lanka","name:an":"Sri Lanka","name:ru":"\u0428\u0440\u0438-\u041b\u0430\u043d\u043a\u0430","name:rw":"Siri Lanka","name:af":"Sri Lanka","kind_detail":"2","name:zh-yue":"\u65af\u91cc\u862d\u5361","name:zh":"\u65af\u91cc\u862d\u5361","name:so":"Siri Lanka","name:sm":"Sri Lanka","name:sl":"\u0160rilanka","name:sk":"Sr\u00ed Lanka","name:ja":"\u30b9\u30ea\u30e9\u30f3\u30ab","name:si":"\u0dc1\u0dca\u200d\u0dbb\u0dd3 \u0dbd\u0d82\u0d9a\u0dcf\u0dc0","name:sh":"\u0160ri Lanka","name:se":"Sri Lanka","name:br":"Sri Lanka","name:bs":"\u0160ri Lanka","name:bn":"\u09b6\u09cd\u09b0\u09c0\u09b2\u0999\u09cd\u0995\u09be","name:bo":"\u0f66\u0f7a\u0f44\u0f0b\u0f42\u0f0b\u0f42\u0fb3\u0f72\u0f44\u0f0b\u0f0d","name:sa":"\u0936\u094d\u0930\u0940\u0932\u0919\u094d\u0915\u093e","name:sw":"Sri Lanka","name:be":"\u0428\u0440\u044b-\u041b\u0430\u043d\u043a\u0430","name:su":"Sri Langka","name:bg":"\u0428\u0440\u0438 \u041b\u0430\u043d\u043a\u0430","name:ss":"Siri Lanka","name:ba":"\u0428\u0440\u0438-\u041b\u0430\u043d\u043a\u0430","name:sq":"Sri Lanka","name:jv":"Sri Lanka","name:pt":"Seri-Lanca","name:ps":"\u0633\u0631\u06cc\u0644\u0627\u0646\u06a9\u0627","name:om":"Sirilaankaa","name:oc":"Sri Lanka","min_zoom":8.0,"name:ro":"Sri Lanka","name:zh-min-nan":"Sri Lanka","name:os":"\u0428\u0440\u0438-\u041b\u0430\u043d\u043a\u0430","name:or":"\u0b36\u0b4d\u0b30\u0b40\u0b32\u0b19\u0b4d\u0b15\u0b3e","name:pl":"Sri Lanka","sort_rank":262,"name:sr":"\u0428\u0440\u0438 \u041b\u0430\u043d\u043a\u0430","osm_relation":true,"name:pa":"\u0a38\u0a4d\u0a30\u0a40\u0a32\u0a70\u0a15\u0a3e","name:tr":"Sri Lanka","name:hi":"\u0936\u094d\u0930\u0940\u0932\u0902\u0915\u093e","name:sv":"Sri Lanka","name:he":"\u05e1\u05e8\u05d9 \u05dc\u05e0\u05e7\u05d4","name:hy":"\u0547\u0580\u056b \u053c\u0561\u0576\u056f\u0561","name:ht":"Srilanka","name:hu":"Sr\u00ed Lanka","name:hr":"\u0160ri Lanka","kind":"country","name:yi":"\u05e1\u05e8\u05d9 \u05dc\u05d0\u05e0\u05e7\u05d0","name:yo":"Sri Lanka","name:mt":"Sri Lanka","alt_name:eo":"Srilanko","name:ms":"Sri Lanka","name:mr":"\u0936\u094d\u0930\u0940\u0932\u0902\u0915\u093e","name:my":"\u101e\u102e\u101b\u102d\u101c\u1004\u103a\u1039\u1000\u102c\u1014\u102d\u102f\u1004\u103a\u1004\u1036","name:mg":"Sri Lanka","name:vi":"Sri Lanka","name:ml":"\u0d36\u0d4d\u0d30\u0d40\u0d32\u0d19\u0d4d\u0d15","name:mn":"\u0428\u0440\u0438 \u041b\u0430\u043d\u043a\u0430","id":-536807,"name:mk":"\u0428\u0440\u0438 \u041b\u0430\u043d\u043a\u0430","name:vo":"Sri-Lank\u00e4n","name:fa":"\u0633\u0631\u06cc\u200c\u0644\u0627\u0646\u06a9\u0627","name:fi":"Sri Lanka","name:fo":"Sri Lanka","name:fr":"Sri Lanka","name:fy":"Sry Lanka","name:nl":"Sri Lanka","name:nn":"Sri Lanka","name:no":"Sri Lanka","name:na":"Sri Lanka","name:ne":"\u0936\u094d\u0930\u0940\u0932\u0902\u0915\u093e","name:wo":"Siri Laanka","name:nv":"Swii Lank\u02bca","name:ga":"Sr\u00ed Lanca","name:gd":"Sri Lanca","name:gl":"Sri Lanka - Sri Lank\u0101","maritime_boundary":true,"name:gv":"Sri Lanka","name:gu":"\u0ab6\u0acd\u0ab0\u0ac0\u0ab2\u0a82\u0a95\u0abe"},"arcs":[0]},{"type":"LineString","properties":{"name:right:ja":"\u5317\u4e2d\u90e8\u5dde","name:left:ja":"\u5317\u897f\u90e8\u5dde","id:right":-4630836,"name:right:si":"\u0d8b\u0dad\u0dd4\u0dbb\u0dd4 \u0db8\u0dd0\u0daf \u0db4\u0dc5\u0dcf\u0dad","min_zoom":8.0,"name:left:si":"\u0dc0\u0dba\u0db9 \u0db4\u0dc5\u0dcf\u0dad","name:left:ru":"\u0421\u0435\u0432\u0435\u0440\u043e-\u0417\u0430\u043f\u0430\u0434\u043d\u0430\u044f \u043f\u0440\u043e\u0432\u0438\u043d\u0446\u0438\u044f","name:left:ta":"\u0bb5\u0b9f \u0bae\u0bc7\u0bb2\u0bcd \u0bae\u0bbe\u0b95\u0bbe\u0ba3\u0bae\u0bcd","name:right:ru":"\u0421\u0435\u0432\u0435\u0440\u043e-\u0426\u0435\u043d\u0442\u0440\u0430\u043b\u044c\u043d\u0430\u044f \u043f\u0440\u043e\u0432\u0438\u043d\u0446\u0438\u044f","id":-4630837,"osm_relation":true,"name:right":"North Central Province","kind":"region","name":"North Western Province - North Central Province","sort_rank":256,"kind_detail":"4","name:right:ta":"\u0bb5\u0b9f \u0bae\u0ba4\u0bcd\u0ba4\u0bbf\u0baf \u0bae\u0bbe\u0b95\u0bbe\u0ba3\u0bae\u0bcd","source":"openstreetmap.org","name:left:zh":"\u897f\u5317\u7701","id:left":-4630837,"name:right:zh":"\u5317\u4e2d\u592e\u7701","name:left":"North Western Province","name:left:cs":"Severoz\u00e1padn\u00ed provincie","name:right:cs":"St\u0159edosevern\u00ed provincie"},"arcs":[1]},{"type":"LineString","properties":{"kind":"region","name":"North Western Province","name:si":"\u0dc0\u0dba\u0db9 \u0db4\u0dc5\u0dcf\u0dad","sort_rank":256,"kind_detail":"4","name:cs":"Severoz\u00e1padn\u00ed provincie","source":"openstreetmap.org","min_zoom":8.0,"name:ru":"\u0421\u0435\u0432\u0435\u0440\u043e-\u0417\u0430\u043f\u0430\u0434\u043d\u0430\u044f \u043f\u0440\u043e\u0432\u0438\u043d\u0446\u0438\u044f","name:ta":"\u0bb5\u0b9f \u0bae\u0bc7\u0bb2\u0bcd \u0bae\u0bbe\u0b95\u0bbe\u0ba3\u0bae\u0bcd","name:zh":"\u897f\u5317\u7701","id":-4630837,"osm_relation":true,"name:ja":"\u5317\u897f\u90e8\u5dde"},"arcs":[2]},{"type":"LineString","properties":{"kind":"region","name":"North Western Province","name:si":"\u0dc0\u0dba\u0db9 \u0db4\u0dc5\u0dcf\u0dad","sort_rank":256,"kind_detail":"4","name:cs":"Severoz\u00e1padn\u00ed provincie","min_zoom":8.0,"source":"openstreetmap.org","maritime_boundary":true,"name:ru":"\u0421\u0435\u0432\u0435\u0440\u043e-\u0417\u0430\u043f\u0430\u0434\u043d\u0430\u044f \u043f\u0440\u043e\u0432\u0438\u043d\u0446\u0438\u044f","name:ta":"\u0bb5\u0b9f \u0bae\u0bc7\u0bb2\u0bcd \u0bae\u0bbe\u0b95\u0bbe\u0ba3\u0bae\u0bcd","name:zh":"\u897f\u5317\u7701","id":-4630837,"osm_relation":true,"name:ja":"\u5317\u897f\u90e8\u5dde"},"arcs":[3]}]},"roads":{"type":"GeometryCollection","geometries":[{"type":"LineString","properties":{"source":"openstreetmap.org","kind":"major_road","sort_rank":380,"kind_detail":"primary","ref":"B019","min_zoom":8.0},"arcs":[63]},{"type":"LineString","properties":{"kind":"major_road","sort_rank":381,"kind_detail":"trunk","bus_network":null,"source":"openstreetmap.org","min_zoom":8.0,"bus_shield_text":"87","ref":"Dandugama Bridge","id":205583332},"arcs":[64]},{"type":"LineString","properties":{"source":"openstreetmap.org","kind":"major_road","sort_rank":381,"kind_detail":"trunk","ref":"AA012","min_zoom":8.0,"id":412758892},"arcs":[65]},{"type":"MultiLineString","properties":{"kind":"major_road","sort_rank":381,"kind_detail":"trunk","bus_network":"Kaduwela - Gampaha","source":"openstreetmap.org","min_zoom":8.0,"bus_shield_text":"228\/1","ref":"AA001"},"arcs":[[66],[67]]},{"type":"LineString","properties":{"bus_network":"Kaduwela - Gampaha","sort_rank":380,"kind_detail":"primary","kind":"major_road","source":"openstreetmap.org","min_zoom":8.0,"bus_shield_text":"228\/1","ref":"A33"},"arcs":[68]},{"type":"LineString","properties":{"source":"openstreetmap.org","bus_network":null,"bus_shield_text":"04","sort_rank":380,"kind_detail":"primary","min_zoom":8.0,"kind":"major_road"},"arcs":[69]},{"type":"MultiLineString","properties":{"source":"openstreetmap.org","kind":"highway","sort_rank":383,"kind_detail":"motorway","ref":"E03","min_zoom":8.0},"arcs":[[70],[71]]},{"type":"MultiLineString","properties":{"bus_network":null,"sort_rank":381,"kind_detail":"trunk","kind":"major_road","source":"openstreetmap.org","min_zoom":8.0,"bus_shield_text":"87","ref":"A3"},"arcs":[[72],[73]]},{"type":"LineString","properties":{"kind":"major_road","sort_rank":381,"kind_detail":"trunk","bus_network":null,"source":"openstreetmap.org","min_zoom":8.0,"bus_shield_text":"87","ref":"AA010","id":480882233},"arcs":[74]},{"type":"MultiLineString","properties":{"source":"openstreetmap.org","kind":"major_road","sort_rank":381,"kind_detail":"trunk","ref":"A10","min_zoom":8.0},"arcs":[[75],[76]]},{"type":"MultiLineString","properties":{"source":"openstreetmap.org","kind":"major_road","sort_rank":381,"kind_detail":"trunk","ref":"AA010","min_zoom":8.0},"arcs":[[77],[78],[79],[80]]},{"type":"MultiLineString","properties":{"sort_rank":381,"source":"openstreetmap.org","min_zoom":8.0,"kind":"major_road","kind_detail":"trunk"},"arcs":[[81],[82],[83],[84],[85],[86],[87],[88]]},{"type":"LineString","properties":{"kind":"major_road","sort_rank":380,"kind_detail":"primary","is_bicycle_related":true,"bus_network":"Kaduwela - Gampaha","source":"openstreetmap.org","min_zoom":8.0,"bus_shield_text":"228\/1","ref":"B214"},"arcs":[89]},{"type":"LineString","properties":{"source":"openstreetmap.org","kind":"major_road","sort_rank":380,"kind_detail":"primary","ref":"B288","min_zoom":8.0},"arcs":[90]},{"type":"LineString","properties":{"source":"openstreetmap.org","kind":"major_road","sort_rank":381,"kind_detail":"trunk","ref":"AA001","min_zoom":8.0},"arcs":[91]},{"type":"MultiLineString","properties":{"bus_network":null,"network":"Pannala_Junction","sort_rank":381,"kind_detail":"trunk","kind":"major_road","source":"openstreetmap.org","min_zoom":8.0,"bus_shield_text":"49","shield_text":"15","ref":"A1"},"arcs":[[92],[93]]},{"type":"MultiLineString","properties":{"source":"openstreetmap.org","kind":"major_road","sort_rank":380,"kind_detail":"primary","ref":"AB009","min_zoom":8.0},"arcs":[[94],[95],[96],[97],[98],[99]]},{"type":"LineString","properties":{"kind":"major_road","sort_rank":381,"kind_detail":"trunk","bus_network":null,"source":"openstreetmap.org","min_zoom":8.0,"bus_shield_text":"04","ref":"Dandugama Bridge","id":97913255},"arcs":[100]},{"type":"MultiLineString","properties":{"sort_rank":380,"kind_detail":"primary","min_zoom":8.0,"kind":"major_road","source":"openstreetmap.org"},"arcs":[[101],[102],[103],[104],[105],[106],[107],[108],[109],[110],[111],[112],[113],[114],[115],[116],[117],[118],[119],[120],[121],[122],[123],[124],[125],[126],[127],[128],[129],[130],[131],[132],[133],[134],[135],[136],[137],[138],[139],[140],[141],[142]]},{"type":"MultiLineString","properties":{"bus_network":null,"sort_rank":380,"kind_detail":"primary","kind":"major_road","source":"openstreetmap.org","min_zoom":8.0,"bus_shield_text":"34","ref":"B308"},"arcs":[[143],[144],[145]]},{"type":"LineString","properties":{"bus_network":null,"sort_rank":381,"kind_detail":"trunk","kind":"major_road","source":"openstreetmap.org","min_zoom":8.0,"bus_shield_text":"87","ref":"AA012"},"arcs":[146]},{"type":"LineString","properties":{"source":"openstreetmap.org","kind":"major_road","sort_rank":380,"kind_detail":"primary","ref":"AB029","min_zoom":8.0},"arcs":[147]},{"type":"LineString","properties":{"source":"openstreetmap.org","kind":"major_road","sort_rank":381,"kind_detail":"trunk","ref":"A12","min_zoom":8.0},"arcs":[148]},{"type":"LineString","properties":{"source":"openstreetmap.org","kind":"major_road","sort_rank":380,"kind_detail":"primary","ref":"B201","min_zoom":8.0,"id":199357819},"arcs":[149]},{"type":"MultiLineString","properties":{"bus_network":"Kaduwela - Gampaha","sort_rank":380,"kind_detail":"primary","kind":"major_road","source":"openstreetmap.org","min_zoom":8.0,"bus_shield_text":"228\/1","ref":"B214"},"arcs":[[150],[151]]},{"type":"LineString","properties":{"source":"openstreetmap.org","kind":"major_road","sort_rank":380,"kind_detail":"primary","ref":"B214","min_zoom":8.0,"id":475110023},"arcs":[152]},{"type":"MultiLineString","properties":{"bus_network":null,"sort_rank":380,"kind_detail":"primary","kind":"major_road","source":"openstreetmap.org","min_zoom":8.0,"bus_shield_text":"34","ref":"B419"},"arcs":[[153],[154],[155]]},{"type":"MultiLineString","properties":{"bus_network":null,"sort_rank":381,"kind_detail":"trunk","kind":"major_road","source":"openstreetmap.org","min_zoom":8.0,"bus_shield_text":"87","ref":"A12"},"arcs":[[156],[157]]},{"type":"MultiLineString","properties":{"source":"openstreetmap.org","bus_network":null,"bus_shield_text":"87","sort_rank":381,"kind_detail":"trunk","min_zoom":8.0,"kind":"major_road"},"arcs":[[158],[159],[160],[161],[162]]},{"type":"MultiLineString","properties":{"source":"openstreetmap.org","kind":"major_road","sort_rank":380,"kind_detail":"primary","ref":"A33","min_zoom":8.0},"arcs":[[163],[164],[165],[166],[167],[168]]},{"type":"LineString","properties":{"kind":"major_road","sort_rank":380,"kind_detail":"primary","bus_network":null,"source":"openstreetmap.org","min_zoom":8.0,"bus_shield_text":"04","landuse_kind":"national_park","id":539055369},"arcs":[169]},{"type":"MultiLineString","properties":{"bus_network":null,"sort_rank":381,"kind_detail":"trunk","kind":"major_road","source":"openstreetmap.org","min_zoom":8.0,"bus_shield_text":"04","ref":"A3"},"arcs":[[170],[171],[172],[173],[174],[175],[176],[177]]},{"type":"LineString","properties":{"kind":"major_road","sort_rank":380,"kind_detail":"primary","bus_network":null,"source":"openstreetmap.org","min_zoom":8.0,"bus_shield_text":"34","id":200884799},"arcs":[178]},{"type":"MultiLineString","properties":{"bus_network":null,"sort_rank":381,"kind_detail":"trunk","kind":"major_road","source":"openstreetmap.org","min_zoom":8.0,"bus_shield_text":"49","ref":"AA001"},"arcs":[[179],[180],[181]]},{"type":"MultiLineString","properties":{"source":"openstreetmap.org","bus_network":"Kaduwela - Gampaha","bus_shield_text":"228\/1","sort_rank":380,"kind_detail":"primary","min_zoom":8.0,"kind":"major_road"},"arcs":[[182],[183]]}]},"earth":{"type":"GeometryCollection","geometries":[{"type":"Polygon","properties":{"sort_rank":10,"source":"naturalearthdata.com","kind":"earth","min_zoom":0.0,"id":2260},"arcs":[[184]]}]},"landuse":{"type":"GeometryCollection","geometries":[{"type":"Polygon","properties":{"kind":"national_park","protect_class":"2","area":1365289984,"sort_rank":18,"source":"openstreetmap.org","min_zoom":3.0,"tier":1,"id":199462550},"arcs":[[185]]}]}},"type":"Topology","transform":{"translate":[78.75,7.0136679276],"scale":[0.0003433228,0.00034021]},"arcs":[[[2406,4096],[-45,-133],[-161,-226],[-42,-247],[52,-547],[121,-394],[136,-599],[-34,-177],[11,-288],[133,-676],[-45,-147],[-6,-170],[111,-459],[-8,-33]],[[4096,3401],[-97,31],[-127,124],[-51,-11],[-70,53],[-30,-32],[-80,5],[-53,143],[-21,176],[-64,95],[10,73],[61,10],[19,28]],[[3018,763],[196,12],[19,-22],[41,38],[44,-27],[29,23],[18,-22],[12,17],[-4,-42],[20,34],[36,-15],[-7,38],[61,-32],[30,26],[-14,21],[77,8],[90,84],[18,-20],[35,10],[12,-45],[46,-9],[36,-46],[190,137],[46,-23],[25,-30],[-17,-23],[39,-40]],[[2406,4096],[-45,-133],[-161,-226],[-42,-247],[52,-547],[121,-394],[136,-599],[-34,-177],[10,-276],[134,-688],[-19,-47],[460,1]],[[3175,3005],[6,106],[55,95],[16,379],[-40,56],[-92,-29]],[[3154,2851],[-1,-12]],[[3171,2972],[-4,-11],[-1,-2]],[[3412,40],[0,3],[-1,7]],[[3411,50],[0,4]],[[3411,54],[-60,56],[-10,26],[-15,53],[0,4],[1,2]],[[3327,195],[-30,150]],[[3297,345],[-19,78]],[[3278,423],[-7,22]],[[3271,445],[-5,12]],[[3266,457],[-24,58]],[[3242,515],[-3,6]],[[3239,521],[0,1]],[[3239,522],[-1,2]],[[3238,524],[-60,44],[19,107],[37,88],[12,187],[-24,108],[29,118],[-76,266],[-143,211],[10,29],[100,53],[10,352],[-50,457],[51,295]],[[3154,2851],[12,108]],[[3166,2959],[4,11],[1,2]],[[3171,2972],[4,33]],[[3242,515],[-2,5],[-1,2],[-1,2]],[[3269,451],[-2,4]],[[3267,455],[-1,2]],[[3271,445],[-1,3],[-1,3]],[[3301,457],[-23,-34]],[[3328,184],[-2,8]],[[3326,192],[0,1]],[[3326,193],[5,21],[-11,51]],[[3320,265]],[[3320,265],[-7,32],[-8,25],[-4,12],[-2,4],[-2,7]],[[3412,50],[-1,2]],[[3411,52],[-1,2],[-1,1]],[[3409,55],[-58,55],[-1,3],[0,7],[0,3],[-22,61]],[[3327,195],[-1,-2]],[[3411,54],[-2,1]],[[3411,50],[0,2]],[[3411,52],[0,3]],[[3154,2846],[0,-2],[0,2]],[[3168,2964],[2,4],[-1,0],[-1,-4]],[[3180,579],[0,-1],[0,-1],[1,2],[-1,0]],[[3189,1357],[1,0],[-1,0]],[[3225,737],[-1,-1],[1,0],[0,1]],[[3230,1108],[0,-1],[0,1]],[[3234,775]],[[3236,833],[0,1],[0,-1]],[[3239,522],[0,-1]],[[3239,522]],[[3242,980],[0,-1],[0,1]],[[3242,900]],[[3268,452],[-1,0],[1,0]],[[3277,425]],[[3286,393],[0,-1],[0,1]],[[3298,340],[1,-1],[0,1],[-1,0]],[[3312,301],[0,-1],[0,1]],[[3320,265]],[[3320,265]],[[3354,105],[0,-1],[0,1]],[[3385,72]],[[3412,43],[1,0],[-1,7],[-1,0],[1,-7]],[[0,4096],[3190,0],[-19,-196],[-27,-123],[-7,-61],[-7,-33],[-39,-50],[-13,-28],[-6,-33],[6,-12],[5,-5],[5,-4],[8,-21],[2,-5],[0,-1],[1,-25],[-4,-61],[3,-35],[9,-22],[14,-21],[13,-26],[3,-33],[-98,-188],[9,-32],[29,-18],[26,-33],[10,-13],[9,-15],[22,-41],[13,-53],[-69,-48],[-135,10],[-93,68],[58,122],[-14,17],[-51,61],[-4,58],[-2,29],[50,158],[2,21],[-2,70],[4,31],[11,8],[14,2],[12,10],[30,59],[28,79],[-34,0],[-29,11],[-21,22],[-3,6],[-12,24],[55,97],[43,103],[1,2],[-86,-136],[-13,-36],[-13,-56],[-33,-67],[-45,-58],[-48,-32],[15,-53],[15,-173],[-10,-55],[-7,10],[0,3],[-1,1],[0,1],[-12,5],[0,-94],[73,-331],[48,-120],[29,-152],[35,-73],[7,-38],[68,-329],[-1,-109],[5,-26],[4,-27],[22,-41],[16,-44],[-3,-29],[-4,-28],[-14,-59],[-5,-51],[-21,15],[-9,-2],[-12,-13],[18,-38],[143,-1049],[-6,-21],[-11,-21],[-5,-24],[11,-21],[1,-4],[17,-11],[39,-9],[14,-9],[14,-33],[7,-39],[0,-1],[0,-89],[0,-1],[-1,2],[-8,-2],[-8,-12],[-4,-28],[-18,0],[-14,24],[-28,98],[-14,26],[-16,22],[-10,28],[1,45],[-20,-73],[138,-491],[-3236,0],[0,4096]],[[3190,4096],[-19,-196],[-27,-123],[-7,-61],[-7,-33],[-39,-50],[-13,-28],[-6,-33],[6,-12],[5,-5],[5,-4],[8,-21],[2,-5],[0,-1],[1,-25],[-4,-61],[3,-35],[9,-22],[14,-21],[13,-26],[3,-33],[-98,-188],[9,-32],[29,-18],[26,-33],[10,-13],[9,-15],[22,-41],[13,-53],[-69,-48],[-135,10],[-93,68],[58,122],[-14,17],[-51,61],[-4,58],[-2,29],[50,158],[2,21],[-2,70],[4,31],[11,8],[14,2],[12,10],[30,59],[28,79],[-34,0],[-29,11],[-21,22],[-3,6],[-12,24],[55,97],[43,103],[1,2],[-86,-136],[-13,-36],[-13,-56],[-33,-67],[-45,-58],[-48,-32],[15,-53],[15,-173],[-10,-55],[-7,10],[0,3],[-1,1],[0,1],[-12,5],[0,-94],[73,-331],[48,-120],[29,-152],[35,-73],[7,-38],[68,-329],[-1,-109],[5,-26],[4,-27],[22,-41],[16,-44],[-3,-29],[-4,-28],[-14,-59],[-5,-51],[-21,15],[-9,-2],[-12,-13],[18,-38],[143,-1049],[-6,-21],[-11,-21],[-5,-24],[11,-21],[1,-4],[17,-11],[39,-9],[14,-9],[14,-33],[7,-39],[0,-1],[0,-89],[0,-1],[-1,2],[-8,-2],[-8,-12],[-4,-28],[-18,0],[-14,24],[-28,98],[-14,26],[-16,22],[-10,28],[1,45],[-20,-73],[138,-491]],[[4096,2897],[-98,12],[-48,28],[-174,-287],[-103,-110]],[[3299,284],[1,-2]],[[3149,2988],[1,0]],[[3676,155],[12,20]],[[3688,175],[-11,-19]],[[3626,229],[12,-2]],[[3142,2988],[-10,110],[70,70],[40,147],[3,298],[62,146]],[[3323,0],[-29,108],[-10,78],[0,90],[-16,55],[-10,78],[0,2],[7,9],[22,19]],[[3287,439],[-29,-30],[26,-133],[11,-168],[29,-108]],[[3246,755],[-45,-76],[-10,-77],[108,-318]],[[3300,282],[23,-85]],[[3142,2988],[6,0]],[[3196,2975],[85,-37],[391,-398]],[[4096,2062],[-110,90],[-57,131],[-255,256]],[[3149,2988]],[[3150,2987],[-1,0]],[[3149,2988],[1,-1]],[[3150,2987],[46,-12]],[[3142,2988]],[[3142,2988]],[[3196,2976],[0,-1]],[[3214,2988],[1,1]],[[3215,2989]],[[3284,331]],[[3149,2988],[0,-1],[0,1]],[[3673,2539],[0,1],[0,-1]],[[3703,0],[22,51]],[[3587,329],[28,-83]],[[3913,369],[10,22]],[[3691,178],[222,191]],[[3923,391],[63,34],[44,84],[44,-11],[18,46],[4,0]],[[3265,421],[3,1]],[[3266,422],[25,21]],[[3268,420],[-2,-1]],[[3276,425],[-9,-7]],[[3291,443],[-4,-4]],[[3302,457],[-11,-14]],[[3300,282],[-1,2]],[[3141,2989],[1,-1]],[[3155,575],[24,6]],[[3245,761],[1,0]],[[3323,200],[-36,-1],[-30,3]],[[3258,203],[65,-3]],[[3287,439],[-11,-14]],[[3297,604],[1,3]],[[3323,198],[1,1]],[[3323,199],[1,0]],[[3324,199]],[[3380,258],[-1,-2]],[[3586,330]],[[3586,330]],[[3586,330],[1,-1],[-1,1]],[[3596,234],[16,-2]],[[3613,233],[2,13]],[[3613,231],[0,1]],[[3613,232],[5,-1]],[[3613,231],[1,-2]],[[3614,229],[3,-1]],[[3617,228],[2,-2]],[[3619,226],[1,0]],[[3620,226],[1,0],[-7,3],[-1,2]],[[3622,225],[-2,1]],[[3620,226],[-1,0]],[[3619,226],[-2,2]],[[3617,228],[-3,1]],[[3614,229],[0,1],[-1,1]],[[3618,231],[-1,-3]],[[3617,228]],[[3617,228]],[[3623,225],[-1,0]],[[3622,225],[1,0]],[[3623,225]],[[3639,228],[1,0]],[[3738,212],[1,1]],[[3298,835],[0,-1],[-1,0],[1,1]],[[3379,258],[1,0]],[[3380,258],[0,-1],[-1,0],[0,1]],[[3612,233],[1,0],[0,-1],[-1,0],[0,1]],[[3618,231],[0,1],[1,-1],[-1,0]],[[3623,225],[0,-1],[0,1]],[[3299,834],[-1,0]],[[3298,834],[1,0]],[[3299,834],[132,-10],[98,70],[157,40],[187,-27],[125,23],[86,124],[12,8]],[[3149,2988],[65,1]],[[4002,455],[-36,54],[-3,66],[77,183],[-42,172]],[[3195,2975],[20,13]],[[3528,3068],[132,-64],[103,-120],[181,18]],[[3677,156],[0,-1]],[[3678,155],[47,-104]],[[3678,155]],[[3297,833],[-52,-73]],[[3298,834],[-1,-1]],[[3297,833],[0,1]],[[3215,2989],[-1,0]],[[3215,2989],[341,89],[114,95],[258,315],[168,128]],[[3142,2988]],[[3142,2988],[0,-1]],[[3214,2989],[2,0]],[[3215,2989]],[[3323,197],[-1,-1]],[[3323,197],[32,32]],[[3379,256],[-24,-27]],[[3355,229],[24,28]],[[3380,258],[71,9],[65,-35],[80,2]],[[3623,225],[3,4]],[[3738,213],[-98,15]],[[3307,3759],[10,147],[-63,29],[-9,161]],[[3042,1658]],[[3042,1658],[128,226],[-66,663],[66,365],[-28,76]],[[3045,1655],[-3,3]],[[3046,1654],[-1,1]],[[3299,284],[-103,306],[4,89],[46,76],[-94,290],[-13,451],[-93,158]],[[3142,2988]],[[3338,0],[-38,282]],[[3322,196],[27,-167],[-2,-29]],[[3179,581],[17,9]],[[3541,0],[135,155]],[[3677,156],[-136,-156]],[[3688,175]],[[3639,227],[-1,0],[1,1]],[[3639,228],[1,0],[0,-1],[-1,0],[0,1]],[[3236,0],[-138,491],[20,73],[-1,-45],[10,-28],[16,-22],[14,-26],[28,-98],[14,-24],[18,0],[4,28],[8,12],[8,2],[1,-2],[0,1],[0,89],[0,1],[-7,39],[-14,33],[-14,9],[-39,9],[-17,11],[-1,4],[-11,21],[5,24],[11,21],[6,21],[-143,1049],[-18,38],[12,13],[9,2],[21,-15],[5,51],[14,59],[4,28],[3,29],[-16,44],[-22,41],[-4,27],[-5,26],[1,109],[-68,329],[-7,38],[-35,73],[-29,152],[-48,120],[-73,331],[0,94],[12,-5],[0,-1],[1,-1],[0,-3],[7,-10],[10,55],[-15,173],[-15,53],[48,32],[45,58],[33,67],[13,56],[13,36],[86,136],[-1,-2],[-43,-103],[-55,-97],[12,-24],[3,-6],[21,-22],[29,-11],[34,0],[-28,-79],[-30,-59],[-12,-10],[-14,-2],[-11,-8],[-4,-31],[2,-70],[-2,-21],[-50,-158],[2,-29],[4,-58],[51,-61],[14,-17],[-58,-122],[93,-68],[135,-10],[69,48],[-13,53],[-22,41],[-9,15],[-10,13],[-26,33],[-29,18],[-9,32],[98,188],[-3,33],[-13,26],[-14,21],[-9,22],[-3,35],[4,61],[-1,25],[0,1],[-2,5],[-8,21],[-5,4],[-5,5],[-6,12],[6,33],[13,28],[39,50],[7,33],[7,61],[27,123],[19,196],[906,0],[0,-4096],[-860,0]],[[3167,3799],[30,131],[-6,166],[905,0],[0,-40],[-22,-84],[3,-170],[-29,-9],[-13,30],[-39,-1],[3,-147],[-71,-15],[-15,31],[9,-105],[-75,-34],[-30,-8],[-67,49],[-32,-32],[-89,10],[-126,47],[0,63],[-83,67],[-16,-17],[-38,31],[-178,-10],[-21,47]]]}