{"objects":{"water":{"type":"GeometryCollection","geometries":[{"type":"MultiPolygon","properties":{"source":"naturalearthdata.com","kind":"ocean","area":1576712559132672,"sort_rank":200,"min_zoom":0.0,"id":1},"arcs":[[[20]]]},{"type":"LineString","properties":{"source":"naturalearthdata.com","kind":"ocean","sort_rank":205,"boundary":true,"min_zoom":0.0,"id":21},"arcs":[21]}]},"buildings":{"type":"GeometryCollection","geometries":[]},"places":{"type":"GeometryCollection","geometries":[{"type":"Point","properties":{"admin_level":"4","kind":"region","name":"Western Province","name:si":"\u0db6\u0dc3\u0dca\u0db1\u0dcf\u0dc4\u0dd2\u0dbb \u0db4\u0dc5\u0dcf\u0dad","kind_detail":"state","source":"openstreetmap.org","min_zoom":4.0,"name:ta":"\u0bae\u0bc7\u0bb2\u0bcd \u0bae\u0bbe\u0b95\u0bbe\u0ba3\u0bae\u0bcd","id":4345048158,"name:ja":"\u897f\u90e8\u5dde"},"coordinates":[3843,3576]},{"type":"Point","properties":{"name:az":"Kolombo","name:id":"Kolombo","name:ka":"\u10d9\u10dd\u10da\u10dd\u10db\u10d1\u10dd","name:mr":"\u0915\u094b\u0932\u0902\u092c\u094b","name:ko":"\ucf5c\ub86c\ubcf4","name:kn":"\u0c95\u0cca\u0cb2\u0c82\u0cac\u0cca","name:ar":"\u0643\u0648\u0644\u0645\u0628\u0648","name:cs":"Kolombo","name:th":"\u0e42\u0e04\u0e25\u0e31\u0e21\u0e42\u0e1a","name:am":"\u12ae\u120e\u121d\u1266","name:ml":"\u0d15\u0d4a\u0d33\u0d02\u0d2c\u0d4b","name:os":"\u041a\u043e\u043b\u043e\u043c\u0431\u043e","name:ru":"\u041a\u043e\u043b\u043e\u043c\u0431\u043e","name:pl":"Kolombo","name:ta":"\u0b95\u0bca\u0bb4\u0bc1\u0bae\u0bcd\u0baa\u0bc1","name:tg":"\u041a\u043e\u043b\u043e\u043c\u0431\u043e","name:te":"\u0c15\u0c4a\u0c32\u0c02\u0c2c\u0c4b","name:fa":"\u06a9\u0644\u0645\u0628\u0648","name:mn":"\u041a\u043e\u043b\u043e\u043c\u0431\u043e","name:lt":"Kolombas","source":"openstreetmap.org","kind_detail":"city","id":50794342,"name:tr":"Kolombo","name:zh-yue":"\u54e5\u6797\u5821","name:fy":"Kolombo","name:dv":"\u0786\u07ae\u0785\u07aa\u0782\u0784\u07aa","name:so":"Kolonbo","admin_level":"2","name:lv":"Kolombo","name:ja":"\u30b3\u30ed\u30f3\u30dc","name:si":"\u0d9a\u0ddc\u0dc5\u0db9","name:hi":"\u0915\u094b\u0932\u0902\u092c\u094b","name:he":"\u05e7\u05d5\u05dc\u05d5\u05de\u05d1\u05d5","kind":"locality","name:ur":"\u06a9\u0648\u0644\u0645\u0628\u0648","name:bn":"\u0995\u09b2\u09ae\u09cd\u09ac\u09cb","name:bo":"\u0f41\u0f7c\u0f0b\u0f63\u0f74\u0f58\u0f0b\u0f54\u0f7c\u0f0d","name:sk":"Kolombo","name:uk":"\u041a\u043e\u043b\u043e\u043c\u0431\u043e","name:be":"\u041a\u0430\u043b\u043e\u043c\u0431\u0430","name:ug":"\u0643\u0648\u0644\u0648\u0645\u0628\u0648","name:bg":"\u041a\u043e\u043b\u043e\u043c\u0431\u043e","name:sr":"\u041a\u043e\u043b\u043e\u043c\u0431\u043e","population":753000,"name:el":"\u039a\u03bf\u03bb\u03cc\u03bc\u03c0\u03bf","name:eo":"Kolombo","name":"Colombo","name:zh":"\u79d1\u502b\u5761","name:ht":"Kolonbo","min_zoom":8.0,"name:gu":"\u0a95\u0acb\u0ab2\u0a82\u0aac\u0acb","name:eu":"Kolonbo"},"coordinates":[3215,3865]},{"type":"Point","properties":{"kind":"locality","name":"Moratuwa","name:si":"\u0db8\u0ddc\u0dbb\u0da7\u0dd4\u0dc0","kind_detail":"city","source":"openstreetmap.org","min_zoom":8.0,"name:ru":"\u041c\u043e\u0440\u0430\u0442\u0443\u0432\u0430","population":207000,"id":61557398,"name:ja":"\u30e2\u30e9\u30c8\u30a5\u30ef"},"coordinates":[3299,3396]},{"type":"Point","properties":{"kind":"locality","name":"Maharagama","name:si":"\u0db8\u0dc4\u0dbb\u0d9c\u0db8","kind_detail":"city","source":"openstreetmap.org","min_zoom":8.0,"id":4448823642,"population":196400},"coordinates":[3427,3608]},{"type":"Point","properties":{"source":"openstreetmap.org","kind":"locality","name":"Kesbewa","kind_detail":"city","population":185100,"min_zoom":8.0,"id":2410142145},"coordinates":[3468,3457]},{"type":"Point","properties":{"kind":"locality","name":"Sri Jayawardenapura Kotte","kind_detail":"city","name:cs":"\u0160r\u00ed D\u017eajavardanapura Kotte","name:sr":"\u0421\u0440\u0438 \u040f\u0430\u0458\u0430\u0432\u0430\u0440\u0434\u0435\u043d\u0435\u043f\u0443\u0440\u0430 \u041a\u043e\u0442\u0435","source":"openstreetmap.org","min_zoom":8.0,"name:kn":"\u0cb6\u0ccd\u0cb0\u0cc0 \u0c9c\u0caf\u0cb5\u0cb0\u0ccd\u0ca6\u0cc6\u0ca8\u0caa\u0cc1\u0cb0 \u0c95\u0cca\u0c9f\u0ccd\u0c9f\u0cc6","country_capital":true,"name:pl":"Sri D\u017aajawardanapura Kotte","population":107925,"id":3275779630,"name:ja":"\u30b9\u30ea\u30b8\u30e3\u30e4\u30ef\u30eb\u30c0\u30ca\u30d7\u30e9\u30b3\u30c3\u30c6"},"coordinates":[3376,3772]},{"type":"Point","properties":{"kind":"locality","name":"Kolonnawa","kind_detail":"city","source":"openstreetmap.org","min_zoom":8.0,"population":64800,"id":2091951428,"name:ja":"\u30b3\u30ed\u30f3\u30ca\u30fc\u30ef"},"coordinates":[3321,3858]},{"type":"Point","properties":{"source":"openstreetmap.org","kind":"locality","name":"Malabe","kind_detail":"town","population":50000,"min_zoom":8.0,"id":3274475234},"coordinates":[3509,3775]},{"type":"Point","properties":{"kind":"locality","name":"Kalutara","name:si":"\u0d9a\u0dc5\u0dd4\u0dad\u0dbb","kind_detail":"town","source":"openstreetmap.org","min_zoom":8.0,"name:ta":"\u0b95\u0bb3\u0bc1\u0ba4\u0bcd\u0ba4\u0bc1\u0bb1\u0bc8","id":1822512017,"population":39600},"coordinates":[3528,2835]},{"type":"Point","properties":{"kind":"locality","name":"Bentota","name:si":"\u0db6\u0dd9\u0db1\u0dca\u0dad\u0ddc\u0da7","kind_detail":"town","source":"openstreetmap.org","min_zoom":8.0,"name:kn":"\u0cac\u0cc6\u0c82\u0ca4\u0cca\u0c9f","population":37000,"name:ru":"\u0411\u0435\u043d\u0442\u043e\u0442\u0430","name:ta":"\u0baa\u0bc6\u0ba8\u0bcd\u0ba4\u0bc7\u0bbe\u0b9f\u0bcd\u0b9f\u0bc8","id":1606175319,"name:ja":"\u30d9\u30f3\u30c8\u30bf"},"coordinates":[3635,2361]},{"type":"Point","properties":{"kind":"locality","name":"Panadura","name:si":"\u0db4\u0dcf\u0db1\u0daf\u0dd4\u0dbb","kind_detail":"town","source":"openstreetmap.org","min_zoom":8.0,"name:ta":"\u0baa\u0bbe\u0ba3\u0ba8\u0bcd\u0ba4\u0bc1\u0bb1\u0bc8","id":61557387,"population":35700},"coordinates":[3371,3213]},{"type":"Point","properties":{"kind":"locality","name":"Beruwala","name:si":"\u0db6\u0dda\u0dbb\u0dd4\u0dc0\u0dbd","kind_detail":"town","source":"openstreetmap.org","min_zoom":8.0,"name:ru":"\u0411\u0435\u0440\u0443\u0432\u0430\u043b\u0430","name:ta":"\u0baa\u0bc7\u0bb0\u0bc1\u0bb5\u0bb3\u0bc8","id":1827277942,"population":35300},"coordinates":[3593,2519]},{"type":"Point","properties":{"kind":"locality","name":"Kelaniya","name:si":"\u0d9a\u0dd0\u0dbd\u0dab\u0dd2\u0dba","kind_detail":"town","source":"openstreetmap.org","min_zoom":8.0,"name:ta":"\u0b95\u0bb3\u0ba9\u0bbf","id":1924765777,"population":31300},"coordinates":[3400,3910]},{"type":"Point","properties":{"kind":"locality","name":"Wattala","name:si":"\u0dc0\u0dad\u0dca\u0dad\u0dbd","kind_detail":"city","source":"openstreetmap.org","min_zoom":8.0,"name:ta":"\u0bb5\u0ba4\u0bcd\u0ba4\u0bb3\u0bc8","id":1837184844,"population":30200},"coordinates":[3328,4026]},{"type":"Point","properties":{"source":"openstreetmap.org","kind":"locality","name":"Homagama","kind_detail":"town","population":25000,"min_zoom":8.0,"id":4647981713},"coordinates":[3650,3591]},{"type":"Point","properties":{"kind":"locality","name":"Ambalangoda","name:si":"\u0d85\u0db8\u0dca\u0db6\u0dbd\u0db1\u0dca\u0d9c\u0ddc\u0da9","kind_detail":"town","source":"openstreetmap.org","min_zoom":8.0,"id":4448814739,"population":21500},"coordinates":[3799,1825]},{"type":"Point","properties":{"source":"openstreetmap.org","kind":"locality","name":"Battaramulla","kind_detail":"town","population":20000,"min_zoom":8.0,"id":256824244},"coordinates":[3407,3769]},{"type":"Point","properties":{"kind":"locality","name":"Hikkaduwa","kind_detail":"town","source":"openstreetmap.org","min_zoom":8.0,"name:ru":"\u0425\u0438\u043a\u043a\u0430\u0434\u0443\u0432\u0430","id":59712509,"population":15000},"coordinates":[3932,1537]},{"type":"Point","properties":{"source":"openstreetmap.org","kind":"locality","name":"Hanwella","kind_detail":"town","population":15000,"min_zoom":8.0,"id":1843491184},"coordinates":[3879,3789]},{"type":"Point","properties":{"source":"openstreetmap.org","kind":"locality","name":"Angoda","kind_detail":"town","population":15000,"min_zoom":8.0,"id":666021104},"coordinates":[3425,3868]},{"type":"Point","properties":{"source":"openstreetmap.org","kind":"locality","name":"Katukurunda","kind_detail":"town","population":15000,"min_zoom":8.0,"id":1529264246},"coordinates":[3550,2770]},{"type":"Point","properties":{"source":"openstreetmap.org","kind":"locality","name":"Wadduwa","kind_detail":"town","population":15000,"min_zoom":8.0,"id":1841033463},"coordinates":[3438,3071]},{"type":"Point","properties":{"source":"openstreetmap.org","kind":"locality","name":"Nagoda","kind_detail":"town","population":15000,"min_zoom":8.0,"id":1822570013},"coordinates":[3609,2792]},{"type":"Point","properties":{"source":"openstreetmap.org","kind":"locality","name":"Rawathawatta","kind_detail":"town","population":15000,"min_zoom":8.0,"id":1252523233},"coordinates":[3306,3434]},{"type":"Point","properties":{"kind":"locality","name":"Mount Lavinia","kind_detail":"town","source":"openstreetmap.org","min_zoom":8.0,"name:ru":"\u041c\u0430\u0443\u043d\u0442-\u041b\u0430\u0432\u0438\u043d\u0438\u044f","population":15000,"id":134255570,"name:ja":"\u30de\u30a6\u30f3\u30c8\u30e9\u30d3\u30cb\u30a2"},"coordinates":[3255,3566]},{"type":"Point","properties":{"source":"openstreetmap.org","kind":"locality","name":"Rathmalana","kind_detail":"town","population":15000,"min_zoom":8.0,"id":665682217},"coordinates":[3276,3522]},{"type":"Point","properties":{"kind":"locality","name":"Dehiwala","kind_detail":"town","source":"openstreetmap.org","min_zoom":8.0,"name:ru":"\u0414\u0435\u0445\u0438\u0432\u0430\u043b\u0430","population":15000,"id":134253719,"name:ja":"\u30c7\u30d2\u30ef\u30e9"},"coordinates":[3251,3620]},{"type":"Point","properties":{"source":"openstreetmap.org","kind":"locality","name":"Piliyandala","kind_detail":"town","population":15000,"min_zoom":8.0,"id":665007255},"coordinates":[3416,3475]},{"type":"Point","properties":{"source":"openstreetmap.org","kind":"locality","name":"Polgasowita","kind_detail":"town","population":15000,"min_zoom":8.0,"id":3254708092},"coordinates":[3536,3433]},{"type":"Point","properties":{"source":"openstreetmap.org","kind":"locality","name":"Kottawa (WP)","kind_detail":"town","population":15000,"min_zoom":8.0,"id":3689548032},"coordinates":[3540,3596]},{"type":"Point","properties":{"source":"openstreetmap.org","kind":"locality","name":"Horana","kind_detail":"town","population":15000,"min_zoom":8.0,"id":251844725},"coordinates":[3821,3226]},{"type":"Point","properties":{"source":"openstreetmap.org","kind":"locality","name":"Meegoda","kind_detail":"town","population":15000,"min_zoom":8.0,"id":1788271749},"coordinates":[3775,3599]},{"type":"Point","properties":{"source":"openstreetmap.org","kind":"locality","name":"Nugegoda","kind_detail":"town","population":15000,"min_zoom":8.0,"id":198828328},"coordinates":[3315,3675]},{"type":"Point","properties":{"source":"openstreetmap.org","kind":"locality","name":"Delkanda","kind_detail":"town","population":15000,"min_zoom":8.0,"id":2091753195},"coordinates":[3354,3655]},{"type":"Point","properties":{"source":"openstreetmap.org","kind":"locality","name":"Pelawatte","kind_detail":"town","population":15000,"min_zoom":8.0,"id":250730974},"coordinates":[3434,3738]},{"type":"Point","properties":{"source":"openstreetmap.org","kind":"locality","name":"Rajagiriya","kind_detail":"town","population":15000,"min_zoom":8.0,"id":618529243},"coordinates":[3339,3791]},{"type":"Point","properties":{"source":"openstreetmap.org","kind":"locality","name":"Mulleriyawa","kind_detail":"town","population":15000,"min_zoom":8.0,"id":666021113},"coordinates":[3468,3843]},{"type":"Point","properties":{"source":"openstreetmap.org","kind":"locality","name":"Kiribathgoda","kind_detail":"town","population":15000,"min_zoom":8.0,"id":621150152},"coordinates":[3429,3992]},{"type":"Point","properties":{"source":"openstreetmap.org","kind":"locality","name":"Mahara","kind_detail":"town","population":15000,"min_zoom":8.0,"id":1840750860},"coordinates":[3464,4030]},{"type":"Point","properties":{"source":"openstreetmap.org","kind":"locality","name":"Kadawatha","kind_detail":"town","population":15000,"min_zoom":8.0,"id":51237603},"coordinates":[3499,4062]},{"type":"Point","properties":{"source":"openstreetmap.org","kind":"locality","name":"Athurugiriya","kind_detail":"town","population":15000,"min_zoom":8.0,"id":558931492},"coordinates":[3612,3696]},{"type":"Point","properties":{"source":"openstreetmap.org","kind":"locality","name":"Meepe","kind_detail":"town","population":15000,"min_zoom":8.0,"id":1854653001},"coordinates":[3907,3642]},{"type":"Point","properties":{"source":"openstreetmap.org","kind":"locality","name":"Kosgama","kind_detail":"town","population":15000,"min_zoom":8.0,"id":1854630224},"coordinates":[4040,3882]},{"type":"Point","properties":{"source":"openstreetmap.org","kind":"locality","name":"Pugoda","kind_detail":"town","population":15000,"min_zoom":8.0,"id":1854630227},"coordinates":[3991,3985]},{"type":"Point","properties":{"source":"openstreetmap.org","kind":"locality","name":"Gothatuwa","kind_detail":"town","population":15000,"min_zoom":8.0,"id":3370500512},"coordinates":[3367,3850]},{"type":"Point","properties":{"source":"openstreetmap.org","kind":"locality","name":"Boralesgamuwa","kind_detail":"town","population":15000,"min_zoom":8.0,"id":251844978},"coordinates":[3355,3590]},{"type":"Point","properties":{"source":"openstreetmap.org","kind":"locality","name":"Matugama","kind_detail":"town","population":15000,"min_zoom":8.0,"id":540529437},"coordinates":[3974,2658]},{"type":"Point","properties":{"source":"openstreetmap.org","kind":"locality","name":"Balapitiya","kind_detail":"town","population":15000,"min_zoom":8.0,"id":2683036450},"coordinates":[3759,1948]},{"type":"Point","properties":{"source":"openstreetmap.org","kind":"locality","name":"Aluthgama","kind_detail":"town","population":15000,"min_zoom":8.0,"id":1614298232},"coordinates":[3638,2393]},{"type":"Point","properties":{"source":"openstreetmap.org","kind":"locality","name":"Narthupana","kind_detail":"town","population":10000,"min_zoom":8.0,"id":1796923125},"coordinates":[3859,2953]},{"type":"Point","properties":{"source":"openstreetmap.org","kind":"locality","name":"Nawala","kind_detail":"town","population":10000,"min_zoom":8.0,"id":250781785},"coordinates":[3312,3725]},{"type":"Point","properties":{"source":"openstreetmap.org","kind":"locality","name":"Thalawathugoda WP","kind_detail":"town","population":10000,"min_zoom":8.0,"id":619133455},"coordinates":[3453,3694]},{"type":"Point","properties":{"source":"openstreetmap.org","kind":"locality","name":"Pitakotte","kind_detail":"town","population":10000,"min_zoom":8.0,"id":619133452},"coordinates":[3356,3716]},{"type":"Point","properties":{"source":"openstreetmap.org","kind":"locality","name":"Beddagana WP","kind_detail":"town","population":10000,"min_zoom":8.0,"id":670298239},"coordinates":[3372,3718]},{"type":"Point","properties":{"source":"openstreetmap.org","kind":"locality","name":"Koswatte (Nawala)","kind_detail":"town","population":10000,"min_zoom":8.0,"id":3128711862},"coordinates":[3332,3763]},{"type":"Point","properties":{"source":"openstreetmap.org","kind":"locality","name":"Delgoda WP","kind_detail":"town","population":10000,"min_zoom":8.0,"id":1843491276},"coordinates":[3680,4018]},{"type":"Point","properties":{"source":"openstreetmap.org","kind":"locality","name":"Dekatana WP","kind_detail":"town","population":10000,"min_zoom":8.0,"id":1843491294},"coordinates":[3766,3967]},{"type":"Point","properties":{"source":"openstreetmap.org","kind":"locality","name":"Wellampitiya","kind_detail":"town","population":10000,"min_zoom":8.0,"id":696519958},"coordinates":[3339,3872]},{"type":"Point","properties":{"source":"openstreetmap.org","kind":"locality","name":"Warakagoda","kind_detail":"town","population":10000,"min_zoom":8.0,"id":1796923201},"coordinates":[3938,2933]},{"type":"Point","properties":{"source":"openstreetmap.org","kind":"locality","name":"Karandeniya","kind_detail":"town","population":10000,"min_zoom":8.0,"id":1788450007},"coordinates":[3906,1919]},{"type":"Point","properties":{"source":"openstreetmap.org","kind":"locality","name":"Induruwa","kind_detail":"town","population":10000,"min_zoom":8.0,"id":1788410986},"coordinates":[3672,2221]},{"type":"Point","properties":{"source":"openstreetmap.org","kind":"locality","name":"Bandaragama","kind_detail":"town","population":5000,"min_zoom":8.0,"id":129616015},"coordinates":[3609,3219]},{"type":"Point","properties":{"source":"openstreetmap.org","kind":"locality","name":"Kotikawatte","kind_detail":"town","population":5000,"min_zoom":8.0,"id":665686382},"coordinates":[3396,3869]},{"type":"Point","properties":{"source":"openstreetmap.org","kind":"locality","name":"Ahungalla","kind_detail":"town","population":5000,"min_zoom":8.0,"id":2678378690},"coordinates":[3743,2045]},{"type":"Point","properties":{"source":"openstreetmap.org","kind":"locality","name":"Kosgoda","kind_detail":"town","population":5000,"min_zoom":8.0,"id":2678433190},"coordinates":[3725,2118]},{"type":"Point","properties":{"source":"openstreetmap.org","kind":"locality","name":"Kalubowila","kind_detail":"town","population":1000,"min_zoom":8.0,"id":129616333},"coordinates":[3284,3665]},{"type":"Point","properties":{"source":"openstreetmap.org","kind":"locality","name":"Kohuwala","kind_detail":"town","population":1000,"min_zoom":8.0,"id":251845067},"coordinates":[3305,3666]},{"type":"Point","properties":{"source":"openstreetmap.org","kind":"locality","name":"Welikada","kind_detail":"town","population":500,"min_zoom":8.0,"id":3516463479},"coordinates":[3329,3794]}]},"transit":{"type":"GeometryCollection","geometries":[{"type":"MultiLineString","properties":{"osm_relation":true,"source":"openstreetmap.org","kind":"train","name":"Coastal Line","sort_rank":275,"min_zoom":6.0,"operator":"Sri Lanka Railway"},"arcs":[[3],[4],[5],[6],[7],[8],[9]]},{"type":"LineString","properties":{"kind":"train","name":"Coastal Line","sort_rank":275,"source":"openstreetmap.org","min_zoom":6.0,"operator":"Sri Lanka Railways","id":-6008379,"osm_relation":true},"arcs":[10]},{"type":"MultiLineString","properties":{"osm_relation":true,"source":"openstreetmap.org","kind":"train","name":"Kelani Valley Line","sort_rank":275,"min_zoom":6.0,"operator":"Sri Lanka Railways"},"arcs":[[11],[12],[13],[14],[15],[16],[17],[18],[19]]}]},"pois":{"type":"GeometryCollection","geometries":[]},"boundaries":{"type":"GeometryCollection","geometries":[{"type":"LineString","properties":{"name:cy":"Sri Lanka","name:ko":"\uc2a4\ub9ac\ub791\uce74","name:cv":"\u0428\u0440\u0438-\u041b\u0430\u043d\u043a\u0430","name:km":"\u179f\u17d2\u179a\u17b8\u179b\u1784\u17d2\u1780\u17b6","name:cs":"Sr\u00ed Lanka","name:ki":"Sri Lanka","name:kw":"Shri Lanka","name:kv":"\u0428\u0440\u0438-\u041b\u0430\u043d\u043a\u0430","name:ku":"Sr\u00ee Lanka","alt_name:cs":"Sr\u00edlansk\u00e1 demokratick\u00e1 socialistick\u00e1 republika","name:tl":"Sri Lanka","name:ta":"\u0b87\u0bb2\u0b99\u0bcd\u0b95\u0bc8","name:tg":"\u0428\u0440\u0438-\u041b\u0430\u043d\u043a\u0430","name:ca":"Sri Lanka","name:te":"\u0c36\u0c4d\u0c30\u0c40\u0c32\u0c02\u0c15","name:ka":"\u10e8\u10e0\u10d8-\u10da\u10d0\u10dc\u10d9\u10d0","name:qu":"Sri Lanka","name:da":"Sri Lanka","name:de":"Sri Lanka","name:dz":"\u0f64\u0fb2\u0f71\u0f80\u0f0b\u0f63\u0f44\u0f40\u0f0b","source":"openstreetmap.org","name:kn":"\u0cb6\u0ccd\u0cb0\u0cc0\u0cb2\u0c82\u0c95\u0cbe","name:dv":"\u0787\u07ae\u0785\u07aa\u078b\u07ab\u0786\u07a6\u0783\u07a6","name:lv":"\u0160rilanka","name:lt":"\u0160ri Lanka","name:uz":"Shri-Lanka","name:kk":"\u0428\u0440\u0438-\u041b\u0430\u043d\u043a\u0430","name:ur":"\u0633\u0631\u06cc \u0644\u0646\u06a9\u0627","name:lb":"Sri Lanka","name:la":"Taprobane","name:tt":"\u0428\u0440\u0438-\u041b\u0430\u043d\u043a\u0430","name:uk":"\u0428\u0440\u0456-\u041b\u0430\u043d\u043a\u0430","name:ug":"\u0633\u0631\u0649\u0644\u0627\u0646\u0643\u0627","name:li":"Sri Lanka","name:ln":"Sri Lanka","name:el":"\u03a3\u03c1\u03b9 \u039b\u03ac\u03bd\u03ba\u03b1","name:eo":"Sri-Lanko","name:en":"Sri Lanka","name":"\u0dc1\u0dca\u200d\u0dbb\u0dd3 \u0dbd\u0d82\u0d9a\u0dcf\u0dc0 \u0b87\u0bb2\u0b99\u0bcd\u0b95\u0bc8","name:tk":"\u015eri-Lanka","name:th":"\u0e1b\u0e23\u0e30\u0e40\u0e17\u0e28\u0e28\u0e23\u0e35\u0e25\u0e31\u0e07\u0e01\u0e32","name:eu":"Sri Lanka","name:et":"Sri Lanka","name:es":"Sri Lanka","name:ia":"Sri Lanka","name:az":"\u015eri-Lanka","name:ie":"Sri Lanka","name:id":"Sri Lanka","name:ar":"\u0633\u0631\u064a\u0644\u0627\u0646\u0643\u0627","name:io":"Sri Lanka","name:is":"Sr\u00ed Lanka","name:am":"\u123d\u122a \u120b\u1295\u12ab","name:it":"Sri Lanka","name:an":"Sri Lanka","name:ru":"\u0428\u0440\u0438-\u041b\u0430\u043d\u043a\u0430","name:rw":"Siri Lanka","name:af":"Sri Lanka","kind_detail":"2","name:zh-yue":"\u65af\u91cc\u862d\u5361","name:zh":"\u65af\u91cc\u862d\u5361","name:so":"Siri Lanka","name:sm":"Sri Lanka","name:sl":"\u0160rilanka","name:sk":"Sr\u00ed Lanka","name:ja":"\u30b9\u30ea\u30e9\u30f3\u30ab","name:si":"\u0dc1\u0dca\u200d\u0dbb\u0dd3 \u0dbd\u0d82\u0d9a\u0dcf\u0dc0","name:sh":"\u0160ri Lanka","name:se":"Sri Lanka","name:br":"Sri Lanka","name:bs":"\u0160ri Lanka","name:bn":"\u09b6\u09cd\u09b0\u09c0\u09b2\u0999\u09cd\u0995\u09be","name:bo":"\u0f66\u0f7a\u0f44\u0f0b\u0f42\u0f0b\u0f42\u0fb3\u0f72\u0f44\u0f0b\u0f0d","name:sa":"\u0936\u094d\u0930\u0940\u0932\u0919\u094d\u0915\u093e","name:sw":"Sri Lanka","name:be":"\u0428\u0440\u044b-\u041b\u0430\u043d\u043a\u0430","name:su":"Sri Langka","name:bg":"\u0428\u0440\u0438 \u041b\u0430\u043d\u043a\u0430","name:ss":"Siri Lanka","name:ba":"\u0428\u0440\u0438-\u041b\u0430\u043d\u043a\u0430","name:sq":"Sri Lanka","name:jv":"Sri Lanka","name:pt":"Seri-Lanca","name:ps":"\u0633\u0631\u06cc\u0644\u0627\u0646\u06a9\u0627","name:om":"Sirilaankaa","name:oc":"Sri Lanka","min_zoom":8.0,"name:ro":"Sri Lanka","name:zh-min-nan":"Sri Lanka","name:os":"\u0428\u0440\u0438-\u041b\u0430\u043d\u043a\u0430","name:or":"\u0b36\u0b4d\u0b30\u0b40\u0b32\u0b19\u0b4d\u0b15\u0b3e","name:pl":"Sri Lanka","sort_rank":262,"name:sr":"\u0428\u0440\u0438 \u041b\u0430\u043d\u043a\u0430","osm_relation":true,"name:pa":"\u0a38\u0a4d\u0a30\u0a40\u0a32\u0a70\u0a15\u0a3e","name:tr":"Sri Lanka","name:hi":"\u0936\u094d\u0930\u0940\u0932\u0902\u0915\u093e","name:sv":"Sri Lanka","name:he":"\u05e1\u05e8\u05d9 \u05dc\u05e0\u05e7\u05d4","name:hy":"\u0547\u0580\u056b \u053c\u0561\u0576\u056f\u0561","name:ht":"Srilanka","name:hu":"Sr\u00ed Lanka","name:hr":"\u0160ri Lanka","kind":"country","name:yi":"\u05e1\u05e8\u05d9 \u05dc\u05d0\u05e0\u05e7\u05d0","name:yo":"Sri Lanka","name:mt":"Sri Lanka","alt_name:eo":"Srilanko","name:ms":"Sri Lanka","name:mr":"\u0936\u094d\u0930\u0940\u0932\u0902\u0915\u093e","name:my":"\u101e\u102e\u101b\u102d\u101c\u1004\u103a\u1039\u1000\u102c\u1014\u102d\u102f\u1004\u103a\u1004\u1036","name:mg":"Sri Lanka","name:vi":"Sri Lanka","name:ml":"\u0d36\u0d4d\u0d30\u0d40\u0d32\u0d19\u0d4d\u0d15","name:mn":"\u0428\u0440\u0438 \u041b\u0430\u043d\u043a\u0430","id":-536807,"name:mk":"\u0428\u0440\u0438 \u041b\u0430\u043d\u043a\u0430","name:vo":"Sri-Lank\u00e4n","name:fa":"\u0633\u0631\u06cc\u200c\u0644\u0627\u0646\u06a9\u0627","name:fi":"Sri Lanka","name:fo":"Sri Lanka","name:fr":"Sri Lanka","name:fy":"Sry Lanka","name:nl":"Sri Lanka","name:nn":"Sri Lanka","name:no":"Sri Lanka","name:na":"Sri Lanka","name:ne":"\u0936\u094d\u0930\u0940\u0932\u0902\u0915\u093e","name:wo":"Siri Laanka","name:nv":"Swii Lank\u02bca","name:ga":"Sr\u00ed Lanca","name:gd":"Sri Lanca","name:gl":"Sri Lanka - Sri Lank\u0101","maritime_boundary":true,"name:gv":"Sri Lanka","name:gu":"\u0ab6\u0acd\u0ab0\u0ac0\u0ab2\u0a82\u0a95\u0abe"},"arcs":[0]},{"type":"LineString","properties":{"kind":"region","name":"Southern Province","name:si":"\u0daf\u0d9a\u0dd4\u0dab\u0dd4 \u0db4\u0dc5\u0dcf\u0dad","sort_rank":256,"kind_detail":"4","name:cs":"Ji\u017en\u00ed provincie","source":"openstreetmap.org","min_zoom":8.0,"name:ru":"\u042e\u0436\u043d\u0430\u044f \u043f\u0440\u043e\u0432\u0438\u043d\u0446\u0438\u044f","name:ta":"\u0ba4\u0bc6\u0ba9\u0bcd \u0bae\u0bbe\u0b95\u0bbe\u0ba3\u0bae\u0bcd","name:zh":"\u5357\u90e8\u7701","id":-4630839,"osm_relation":true,"name:ja":"\u5357\u90e8\u5dde"},"arcs":[1]},{"type":"LineString","properties":{"kind":"region","name":"Southern Province","name:si":"\u0daf\u0d9a\u0dd4\u0dab\u0dd4 \u0db4\u0dc5\u0dcf\u0dad","sort_rank":256,"kind_detail":"4","name:cs":"Ji\u017en\u00ed provincie","min_zoom":8.0,"source":"openstreetmap.org","maritime_boundary":true,"name:ru":"\u042e\u0436\u043d\u0430\u044f \u043f\u0440\u043e\u0432\u0438\u043d\u0446\u0438\u044f","name:ta":"\u0ba4\u0bc6\u0ba9\u0bcd \u0bae\u0bbe\u0b95\u0bbe\u0ba3\u0bae\u0bcd","name:zh":"\u5357\u90e8\u7701","id":-4630839,"osm_relation":true,"name:ja":"\u5357\u90e8\u5dde"},"arcs":[2]}]},"roads":{"type":"GeometryCollection","geometries":[{"type":"MultiLineString","properties":{"source":"openstreetmap.org","kind":"major_road","cycleway_left":"lane","sort_rank":380,"kind_detail":"primary","is_bicycle_related":true,"min_zoom":8.0},"arcs":[[22],[23],[24],[25]]},{"type":"LineString","properties":{"kind":"major_road","sort_rank":381,"landuse_kind":"urban_area","source":"openstreetmap.org","min_zoom":8.0,"old_name":"Buller's Road","kind_detail":"trunk","ref":"Bauddhaloka Mawatha"},"arcs":[26]},{"type":"LineString","properties":{"kind":"major_road","sort_rank":381,"kind_detail":"trunk","bus_network":null,"source":"openstreetmap.org","min_zoom":8.0,"bus_shield_text":"187","landuse_kind":"urban_area","ref":"AC024","id":28483674},"arcs":[27]},{"type":"LineString","properties":{"bus_network":null,"sort_rank":381,"kind_detail":"trunk","kind":"major_road","source":"openstreetmap.org","min_zoom":8.0,"bus_shield_text":"138\/3","ref":"A 04"},"arcs":[28]},{"type":"MultiLineString","properties":{"bus_network":null,"sort_rank":381,"landuse_kind":"urban_area","kind":"major_road","source":"openstreetmap.org","min_zoom":8.0,"bus_shield_text":"87","kind_detail":"trunk"},"arcs":[[29],[30],[31],[32],[33],[34]]},{"type":"MultiLineString","properties":{"bus_network":null,"sort_rank":380,"kind_detail":"primary","kind":"major_road","source":"openstreetmap.org","min_zoom":8.0,"bus_shield_text":"138\/3","landuse_kind":"urban_area"},"arcs":[[35],[36],[37],[38],[39],[40],[41],[42],[43],[44],[45],[46],[47],[48]]},{"type":"MultiLineString","properties":{"bus_network":null,"network":"Pannala_Junction","sort_rank":381,"landuse_kind":"urban_area","kind":"major_road","source":"openstreetmap.org","min_zoom":8.0,"bus_shield_text":"49","shield_text":"15","kind_detail":"trunk","ref":"A1"},"arcs":[[49],[50],[51]]},{"type":"LineString","properties":{"bus_network":null,"sort_rank":381,"landuse_kind":"urban_area","kind":"major_road","source":"openstreetmap.org","min_zoom":8.0,"bus_shield_text":"100","kind_detail":"trunk","ref":"A2"},"arcs":[52]},{"type":"LineString","properties":{"kind":"major_road","sort_rank":381,"kind_detail":"trunk","bus_network":null,"source":"openstreetmap.org","min_zoom":8.0,"bus_shield_text":"138\/2","id":351910069},"arcs":[53]},{"type":"MultiLineString","properties":{"source":"openstreetmap.org","kind":"major_road","landuse_kind":"urban_area","sort_rank":380,"kind_detail":"primary","min_zoom":8.0},"arcs":[[54],[55],[56],[57],[58],[59],[60],[61],[62],[63],[64],[65],[66],[67],[68],[69],[70],[71],[72],[73],[74],[75],[76],[77],[78],[79],[80],[81],[82],[83],[84],[85],[86],[87],[88],[89],[90],[91],[92],[93],[94],[95],[96],[97],[98],[99],[100],[101],[102],[103],[104],[105],[106],[107],[108],[109],[110],[111],[112],[113],[114],[115]]},{"type":"LineString","properties":{"kind":"major_road","sort_rank":380,"kind_detail":"primary","bus_network":null,"source":"openstreetmap.org","min_zoom":8.0,"bus_shield_text":"138\/4","ref":"B240","id":29478075},"arcs":[116]},{"type":"LineString","properties":{"kind":"major_road","sort_rank":381,"kind_detail":"trunk","bus_network":null,"source":"openstreetmap.org","min_zoom":8.0,"bus_shield_text":"87","landuse_kind":"urban_area","ref":"AC024","id":434965854},"arcs":[117]},{"type":"LineString","properties":{"source":"openstreetmap.org","kind":"major_road","kind_detail":"trunk","sort_rank":381,"landuse_kind":"urban_area","ref":"A1","min_zoom":8.0},"arcs":[118]},{"type":"LineString","properties":{"kind":"major_road","sort_rank":381,"kind_detail":"trunk","bus_network":null,"source":"openstreetmap.org","min_zoom":8.0,"bus_shield_text":"138\/2","landuse_kind":"urban_area","id":350014239},"arcs":[119]},{"type":"LineString","properties":{"source":"openstreetmap.org","kind":"major_road","sort_rank":380,"kind_detail":"primary","ref":"B014","min_zoom":8.0},"arcs":[120]},{"type":"MultiLineString","properties":{"source":"openstreetmap.org","kind":"major_road","sort_rank":380,"kind_detail":"primary","ref":"B240","min_zoom":8.0},"arcs":[[121],[122],[123],[124],[125]]},{"type":"MultiLineString","properties":{"source":"openstreetmap.org","kind":"major_road","sort_rank":380,"kind_detail":"primary","ref":"A000","min_zoom":8.0},"arcs":[[126],[127],[128],[129],[130],[131],[132],[133],[134],[135],[136],[137]]},{"type":"MultiLineString","properties":{"source":"openstreetmap.org","kind":"major_road","ref":"A8","sort_rank":381,"kind_detail":"trunk","is_bicycle_related":true,"min_zoom":8.0},"arcs":[[138],[139],[140]]},{"type":"LineString","properties":{"kind":"major_road","sort_rank":381,"kind_detail":"trunk","bus_network":null,"source":"openstreetmap.org","min_zoom":8.0,"bus_shield_text":"131, 140, 152, 164, 166","landuse_kind":"urban_area","id":312970192},"arcs":[141]},{"type":"MultiLineString","properties":{"source":"openstreetmap.org","kind":"highway","sort_rank":383,"kind_detail":"motorway","ref":"E03","min_zoom":8.0},"arcs":[[142],[143]]},{"type":"MultiLineString","properties":{"source":"openstreetmap.org","kind":"major_road","sort_rank":381,"kind_detail":"trunk","ref":"A2","min_zoom":8.0},"arcs":[[144],[145],[146],[147],[148],[149]]},{"type":"MultiLineString","properties":{"bus_network":null,"network":"Pannala_Junction","sort_rank":381,"landuse_kind":"urban_area","kind":"major_road","source":"openstreetmap.org","min_zoom":8.0,"bus_shield_text":"49","shield_text":"15","kind_detail":"trunk"},"arcs":[[150],[151],[152],[153],[154],[155],[156]]},{"type":"LineString","properties":{"bus_network":null,"sort_rank":381,"landuse_kind":"urban_area","kind":"major_road","source":"openstreetmap.org","min_zoom":8.0,"bus_shield_text":"103","kind_detail":"trunk"},"arcs":[157]},{"type":"LineString","properties":{"kind":"major_road","sort_rank":381,"kind_detail":"trunk","bus_shield_text":"138\/3","bus_network":null,"source":"openstreetmap.org","min_zoom":8.0,"old_name":"Havelock Road","landuse_kind":"urban_area","ref":"A4","id":98963902},"arcs":[158]},{"type":"LineString","properties":{"kind":"major_road","sort_rank":380,"kind_detail":"primary","source":"openstreetmap.org","min_zoom":8.0,"old_name":"Avissawella Road","landuse_kind":"urban_area","ref":"AB010"},"arcs":[159]},{"type":"LineString","properties":{"bus_network":null,"sort_rank":381,"landuse_kind":"urban_area","kind":"major_road","source":"openstreetmap.org","min_zoom":8.0,"bus_shield_text":"04","kind_detail":"trunk"},"arcs":[160]},{"type":"LineString","properties":{"kind":"major_road","network":"Pannala_Junction","sort_rank":381,"kind_detail":"trunk","source":"openstreetmap.org","min_zoom":8.0,"landuse_kind":"urban_area","shield_text":"15","id":312970191},"arcs":[161]},{"type":"LineString","properties":{"bus_network":null,"sort_rank":381,"landuse_kind":"urban_area","kind":"major_road","source":"openstreetmap.org","min_zoom":8.0,"bus_shield_text":"138\/3","kind_detail":"trunk","ref":"A4"},"arcs":[162]},{"type":"MultiLineString","properties":{"source":"openstreetmap.org","kind":"major_road","sort_rank":381,"kind_detail":"trunk","ref":"AA002","min_zoom":8.0},"arcs":[[163],[164]]},{"type":"MultiLineString","properties":{"bus_network":null,"sort_rank":381,"landuse_kind":"urban_area","kind":"major_road","source":"openstreetmap.org","min_zoom":8.0,"bus_shield_text":"187","kind_detail":"trunk"},"arcs":[[165],[166],[167],[168],[169]]},{"type":"LineString","properties":{"kind":"major_road","sort_rank":381,"kind_detail":"trunk","is_bicycle_related":true,"bus_network":null,"source":"openstreetmap.org","min_zoom":8.0,"bus_shield_text":"100","ref":"A2","id":24791921},"arcs":[170]},{"type":"LineString","properties":{"source":"openstreetmap.org","kind":"major_road","sort_rank":380,"kind_detail":"primary","ref":"B157","min_zoom":8.0},"arcs":[171]},{"type":"MultiLineString","properties":{"source":"openstreetmap.org","kind":"major_road","sort_rank":381,"kind_detail":"trunk","ref":"A04","min_zoom":8.0},"arcs":[[172],[173],[174]]},{"type":"LineString","properties":{"source":"openstreetmap.org","kind":"major_road","sort_rank":380,"kind_detail":"primary","ref":"Local knowledge","min_zoom":8.0,"id":230196818},"arcs":[175]},{"type":"LineString","properties":{"source":"openstreetmap.org","kind":"major_road","sort_rank":380,"kind_detail":"primary","ref":"Localknowledge","min_zoom":8.0,"id":230196817},"arcs":[176]},{"type":"MultiLineString","properties":{"sort_rank":381,"source":"openstreetmap.org","min_zoom":8.0,"kind":"major_road","kind_detail":"trunk"},"arcs":[[177],[178],[179],[180],[181],[182],[183],[184],[185],[186],[187],[188],[189],[190],[191],[192],[193],[194],[195],[196],[197],[198],[199],[200],[201],[202],[203],[204],[205],[206],[207],[208],[209],[210],[211],[212],[213],[214],[215],[216],[217],[218],[219],[220],[221],[222],[223],[224],[225],[226],[227],[228],[229],[230],[231],[232],[233],[234]]},{"type":"LineString","properties":{"source":"openstreetmap.org","kind":"major_road","sort_rank":380,"kind_detail":"primary","ref":"B 14","min_zoom":8.0,"id":270541792},"arcs":[235]},{"type":"LineString","properties":{"source":"openstreetmap.org","kind":"major_road","sort_rank":381,"kind_detail":"trunk","ref":"A01","min_zoom":8.0},"arcs":[236]},{"type":"LineString","properties":{"kind":"major_road","sort_rank":380,"kind_detail":"primary","bus_network":null,"source":"openstreetmap.org","min_zoom":8.0,"bus_shield_text":"163","id":382974136},"arcs":[237]},{"type":"LineString","properties":{"source":"openstreetmap.org","kind":"major_road","sort_rank":380,"kind_detail":"primary","ref":"AB004","min_zoom":8.0,"id":519930100},"arcs":[238]},{"type":"MultiLineString","properties":{"kind":"major_road","sort_rank":380,"kind_detail":"primary","is_bicycle_related":true,"bus_network":"Kaduwela - Gampaha","source":"openstreetmap.org","min_zoom":8.0,"bus_shield_text":"228\/1","ref":"B214"},"arcs":[[239],[240],[241]]},{"type":"MultiLineString","properties":{"bus_network":null,"network":"Pannala_Junction","sort_rank":381,"landuse_kind":"urban_area","kind":"major_road","source":"openstreetmap.org","min_zoom":8.0,"bus_shield_text":"49","shield_text":"15","kind_detail":"trunk","ref":"A01"},"arcs":[[242],[243],[244],[245]]},{"type":"LineString","properties":{"kind":"major_road","sort_rank":380,"kind_detail":"primary","source":"openstreetmap.org","min_zoom":8.0,"old_name":"Buller's Road","landuse_kind":"urban_area","ref":"AC002","id":8581742},"arcs":[246]},{"type":"MultiLineString","properties":{"bus_network":null,"sort_rank":381,"kind_detail":"trunk","kind":"major_road","source":"openstreetmap.org","min_zoom":8.0,"bus_shield_text":"100","ref":"AA002"},"arcs":[[247],[248]]},{"type":"MultiLineString","properties":{"source":"openstreetmap.org","kind":"highway","sort_rank":383,"kind_detail":"motorway","ref":"E02","min_zoom":8.0},"arcs":[[249],[250],[251],[252]]},{"type":"LineString","properties":{"bus_network":null,"sort_rank":380,"kind_detail":"primary","is_bicycle_related":true,"kind":"major_road","source":"openstreetmap.org","min_zoom":8.0,"bus_shield_text":"425","ref":"B458"},"arcs":[253]},{"type":"MultiLineString","properties":{"source":"openstreetmap.org","kind":"major_road","sort_rank":380,"kind_detail":"primary","ref":"B263","min_zoom":8.0},"arcs":[[254],[255]]},{"type":"MultiLineString","properties":{"source":"openstreetmap.org","kind":"major_road","landuse_kind":"urban_area","sort_rank":380,"kind_detail":"primary","ref":"A4","min_zoom":8.0},"arcs":[[256],[257]]},{"type":"MultiLineString","properties":{"bus_network":null,"sort_rank":381,"landuse_kind":"urban_area","kind":"major_road","source":"openstreetmap.org","min_zoom":8.0,"bus_shield_text":"138\/3","kind_detail":"trunk"},"arcs":[[258],[259],[260],[261],[262]]},{"type":"MultiLineString","properties":{"bus_network":null,"network":"Pannala_Junction","sort_rank":381,"kind_detail":"trunk","kind":"major_road","source":"openstreetmap.org","min_zoom":8.0,"bus_shield_text":"49","shield_text":"15","ref":"A1"},"arcs":[[263],[264],[265]]},{"type":"LineString","properties":{"kind":"major_road","sort_rank":381,"kind_detail":"trunk","bus_shield_text":"138\/3","bus_network":null,"source":"openstreetmap.org","min_zoom":8.0,"old_name":"Maya Avenue","landuse_kind":"urban_area","ref":"A004","id":23825685},"arcs":[266]},{"type":"LineString","properties":{"bus_network":null,"sort_rank":380,"kind_detail":"primary","kind":"major_road","source":"openstreetmap.org","min_zoom":8.0,"bus_shield_text":"100","ref":"A02"},"arcs":[267]},{"type":"LineString","properties":{"kind":"major_road","sort_rank":381,"kind_detail":"trunk","is_bicycle_related":true,"bus_network":null,"source":"openstreetmap.org","min_zoom":8.0,"bus_shield_text":"138","ref":"A4","id":194091908},"arcs":[268]},{"type":"MultiLineString","properties":{"source":"openstreetmap.org","bus_network":null,"bus_shield_text":"138\/3","sort_rank":380,"kind_detail":"primary","min_zoom":8.0,"kind":"major_road"},"arcs":[[269],[270],[271],[272],[273]]},{"type":"MultiLineString","properties":{"source":"openstreetmap.org","kind":"major_road","ref":"B084;B84","sort_rank":380,"kind_detail":"primary","is_bicycle_related":true,"min_zoom":8.0},"arcs":[[274],[275],[276]]},{"type":"LineString","properties":{"kind":"major_road","sort_rank":381,"kind_detail":"trunk","is_bicycle_related":true,"bus_network":null,"source":"openstreetmap.org","min_zoom":8.0,"bus_shield_text":"100","landuse_kind":"urban_area","ref":"A2","id":24791921},"arcs":[277]},{"type":"LineString","properties":{"source":"openstreetmap.org","kind":"major_road","sort_rank":380,"kind_detail":"primary","ref":"AB15","min_zoom":8.0,"id":541651267},"arcs":[278]},{"type":"LineString","properties":{"kind":"major_road","sort_rank":381,"landuse_kind":"urban_area","source":"openstreetmap.org","min_zoom":8.0,"kind_detail":"trunk","ref":"B1","id":22368334},"arcs":[279]},{"type":"LineString","properties":{"kind":"major_road","sort_rank":381,"kind_detail":"trunk","bus_shield_text":"138\/3","bus_network":null,"source":"openstreetmap.org","min_zoom":8.0,"old_name":"Havelock Road","landuse_kind":"urban_area","ref":"A004","id":23825686},"arcs":[280]},{"type":"MultiLineString","properties":{"kind":"highway","network":null,"sort_rank":383,"kind_detail":"motorway","source":"openstreetmap.org","min_zoom":8.0,"all_networks":[null],"shield_text":"02","ref":"E02","all_shield_texts":["02"]},"arcs":[[281],[282],[283],[284]]},{"type":"MultiLineString","properties":{"bus_network":null,"sort_rank":381,"kind_detail":"trunk","kind":"major_road","source":"openstreetmap.org","min_zoom":8.0,"bus_shield_text":"100","ref":"A2"},"arcs":[[285],[286],[287],[288],[289],[290],[291],[292],[293],[294],[295],[296]]},{"type":"MultiLineString","properties":{"source":"openstreetmap.org","kind":"major_road","sort_rank":381,"kind_detail":"trunk","ref":"A4","min_zoom":8.0},"arcs":[[297],[298],[299],[300],[301],[302],[303],[304],[305]]},{"type":"LineString","properties":{"source":"openstreetmap.org","kind":"major_road","sort_rank":380,"kind_detail":"primary","ref":"B055","min_zoom":8.0,"id":513166231},"arcs":[306]},{"type":"LineString","properties":{"source":"openstreetmap.org","bus_network":null,"bus_shield_text":"100","sort_rank":380,"kind_detail":"primary","min_zoom":8.0,"kind":"major_road"},"arcs":[307]},{"type":"MultiLineString","properties":{"sort_rank":380,"kind_detail":"primary","min_zoom":8.0,"kind":"major_road","source":"openstreetmap.org"},"arcs":[[308],[309],[310],[311],[312],[313],[314],[315],[316],[317],[318],[319],[320],[321],[322],[323],[324],[325],[326],[327],[328],[329],[330],[331],[332],[333],[334],[335],[336],[337],[338],[339],[340],[341],[342],[343],[344],[345],[346],[347],[348],[349],[350],[351],[352],[353],[354],[355],[356],[357],[358],[359],[360],[361],[362],[363],[364],[365],[366],[367],[368],[369],[370],[371],[372],[373],[374],[375],[376],[377],[378],[379],[380]]},{"type":"MultiLineString","properties":{"source":"openstreetmap.org","kind":"major_road","landuse_kind":"urban_area","sort_rank":380,"kind_detail":"primary","ref":"AC004","min_zoom":8.0},"arcs":[[381],[382]]},{"type":"MultiLineString","properties":{"source":"openstreetmap.org","kind":"major_road","sort_rank":380,"kind_detail":"primary","ref":"B94","min_zoom":8.0},"arcs":[[383],[384],[385],[386],[387],[388]]},{"type":"MultiLineString","properties":{"source":"openstreetmap.org","kind":"major_road","sort_rank":380,"kind_detail":"primary","ref":"AC004","min_zoom":8.0},"arcs":[[389],[390],[391],[392]]},{"type":"MultiLineString","properties":{"bus_network":null,"network":"Pannala_Junction","sort_rank":381,"kind_detail":"trunk","kind":"major_road","source":"openstreetmap.org","min_zoom":8.0,"bus_shield_text":"49","shield_text":"15","ref":"A01"},"arcs":[[393],[394],[395]]},{"type":"MultiLineString","properties":{"source":"openstreetmap.org","kind":"major_road","sort_rank":380,"kind_detail":"primary","ref":"A2","min_zoom":8.0},"arcs":[[396],[397]]},{"type":"LineString","properties":{"kind":"major_road","sort_rank":381,"kind_detail":"trunk","old_name":"Maya Avenue","bus_network":null,"source":"openstreetmap.org","min_zoom":8.0,"bus_shield_text":"138\/3","ref":"A004","id":23825685},"arcs":[398]},{"type":"MultiLineString","properties":{"source":"openstreetmap.org","kind":"major_road","kind_detail":"trunk","sort_rank":381,"landuse_kind":"urban_area","min_zoom":8.0},"arcs":[[399],[400],[401],[402],[403],[404],[405],[406],[407],[408],[409],[410],[411],[412],[413],[414],[415],[416],[417],[418],[419],[420],[421],[422],[423],[424],[425],[426],[427],[428],[429],[430],[431],[432],[433]]},{"type":"MultiLineString","properties":{"source":"openstreetmap.org","kind":"major_road","sort_rank":380,"kind_detail":"primary","ref":"AA000","min_zoom":8.0},"arcs":[[434],[435],[436],[437]]},{"type":"LineString","properties":{"kind":"major_road","network":"Pannala_Junction","sort_rank":381,"kind_detail":"trunk","bus_network":null,"source":"openstreetmap.org","min_zoom":8.0,"bus_shield_text":"187","shield_text":"15","landuse_kind":"urban_area","id":480882274},"arcs":[438]},{"type":"LineString","properties":{"kind":"major_road","int_name":"Asian Highway 43","sort_rank":381,"kind_detail":"trunk","is_bicycle_related":true,"bus_network":null,"source":"openstreetmap.org","min_zoom":8.0,"bus_shield_text":"100","ref":"A2","id":161480084},"arcs":[439]},{"type":"MultiLineString","properties":{"source":"openstreetmap.org","bus_network":null,"bus_shield_text":"138\/3","sort_rank":381,"kind_detail":"trunk","min_zoom":8.0,"kind":"major_road"},"arcs":[[440],[441],[442],[443],[444],[445]]},{"type":"MultiLineString","properties":{"source":"openstreetmap.org","kind":"major_road","ref":"B084","sort_rank":380,"kind_detail":"primary","is_bicycle_related":true,"min_zoom":8.0},"arcs":[[446],[447],[448],[449],[450],[451]]},{"type":"MultiLineString","properties":{"kind":"major_road","sort_rank":380,"kind_detail":"primary","source":"openstreetmap.org","min_zoom":8.0,"old_name":"Bullers Road","landuse_kind":"urban_area","ref":"AC002"},"arcs":[[452],[453]]},{"type":"LineString","properties":{"kind":"major_road","name:si":"\u0d9c\u0dcf\u0dbd\u0dd4 \u0db4\u0dcf\u0dbb","sort_rank":381,"kind_detail":"trunk","bus_network":null,"source":"openstreetmap.org","min_zoom":8.0,"bus_shield_text":"100","ref":"A2","id":112446386},"arcs":[454]},{"type":"MultiLineString","properties":{"source":"openstreetmap.org","kind":"major_road","sort_rank":381,"kind_detail":"trunk","ref":"AB011","min_zoom":8.0},"arcs":[[455],[456],[457]]},{"type":"MultiLineString","properties":{"source":"openstreetmap.org","kind":"major_road","landuse_kind":"urban_area","sort_rank":380,"kind_detail":"primary","ref":"A000","min_zoom":8.0},"arcs":[[458],[459],[460],[461]]},{"type":"MultiLineString","properties":{"sort_rank":383,"kind_detail":"motorway","min_zoom":8.0,"kind":"highway","source":"openstreetmap.org"},"arcs":[[462],[463],[464],[465],[466],[467],[468],[469],[470],[471],[472],[473],[474],[475],[476],[477],[478],[479],[480]]},{"type":"LineString","properties":{"kind":"major_road","sort_rank":380,"kind_detail":"primary","is_bicycle_related":true,"source":"openstreetmap.org","min_zoom":8.0,"ref":"B214","id":519930105},"arcs":[481]},{"type":"MultiLineString","properties":{"source":"openstreetmap.org","kind":"highway","sort_rank":383,"kind_detail":"motorway","ref":"E01","min_zoom":8.0},"arcs":[[482],[483],[484],[485],[486],[487],[488],[489],[490]]},{"type":"MultiLineString","properties":{"source":"openstreetmap.org","kind":"major_road","sort_rank":381,"kind_detail":"trunk","ref":"A8","min_zoom":8.0},"arcs":[[491],[492],[493],[494],[495],[496]]},{"type":"MultiLineString","properties":{"source":"openstreetmap.org","bus_network":null,"bus_shield_text":"100","sort_rank":381,"kind_detail":"trunk","min_zoom":8.0,"kind":"major_road"},"arcs":[[497],[498],[499],[500],[501],[502]]},{"type":"MultiLineString","properties":{"bus_network":null,"sort_rank":381,"kind_detail":"trunk","kind":"major_road","source":"openstreetmap.org","min_zoom":8.0,"bus_shield_text":"49","ref":"A1"},"arcs":[[503],[504]]},{"type":"LineString","properties":{"bus_network":null,"sort_rank":381,"kind_detail":"trunk","is_bicycle_related":true,"kind":"major_road","source":"openstreetmap.org","min_zoom":8.0,"bus_shield_text":"138\/3","ref":"A4"},"arcs":[505]},{"type":"MultiLineString","properties":{"kind":"major_road","sort_rank":380,"kind_detail":"primary","bus_network":"Kaduwela - Gampaha","source":"openstreetmap.org","min_zoom":8.0,"bus_shield_text":"228\/1","ref":"AB004"},"arcs":[[506],[507],[508]]},{"type":"LineString","properties":{"source":"openstreetmap.org","bus_network":null,"bus_shield_text":"138","sort_rank":380,"kind_detail":"primary","min_zoom":8.0,"kind":"major_road"},"arcs":[509]},{"type":"MultiLineString","properties":{"bus_network":null,"sort_rank":381,"kind_detail":"trunk","old_name":"Havelock Road","is_bicycle_related":true,"kind":"major_road","source":"openstreetmap.org","min_zoom":8.0,"bus_shield_text":"138\/3","landuse_kind":"urban_area","ref":"A004"},"arcs":[[510],[511]]},{"type":"LineString","properties":{"source":"openstreetmap.org","kind":"major_road","landuse_kind":"urban_area","sort_rank":380,"kind_detail":"primary","ref":"AB010","min_zoom":8.0},"arcs":[512]},{"type":"LineString","properties":{"source":"openstreetmap.org","bus_network":null,"bus_shield_text":"190","sort_rank":380,"kind_detail":"primary","min_zoom":8.0,"kind":"major_road"},"arcs":[513]},{"type":"MultiLineString","properties":{"source":"openstreetmap.org","bus_network":null,"bus_shield_text":"49","sort_rank":381,"kind_detail":"trunk","min_zoom":8.0,"kind":"major_road"},"arcs":[[514],[515]]},{"type":"MultiLineString","properties":{"bus_network":null,"sort_rank":380,"kind_detail":"primary","is_bicycle_related":true,"kind":"major_road","source":"openstreetmap.org","min_zoom":8.0,"bus_shield_text":"342","ref":"B084"},"arcs":[[516],[517]]},{"type":"MultiLineString","properties":{"bus_network":null,"sort_rank":381,"landuse_kind":"urban_area","kind":"major_road","source":"openstreetmap.org","min_zoom":8.0,"bus_shield_text":"04","kind_detail":"trunk","ref":"A3"},"arcs":[[518],[519],[520]]},{"type":"MultiLineString","properties":{"source":"openstreetmap.org","kind":"major_road","sort_rank":380,"kind_detail":"primary","ref":"B458","min_zoom":8.0},"arcs":[[521],[522]]},{"type":"MultiLineString","properties":{"bus_network":null,"sort_rank":380,"kind_detail":"primary","kind":"major_road","source":"openstreetmap.org","min_zoom":8.0,"bus_shield_text":"138\/3","landuse_kind":"urban_area","ref":"A4"},"arcs":[[523],[524],[525],[526],[527]]},{"type":"MultiLineString","properties":{"source":"openstreetmap.org","kind":"major_road","sort_rank":380,"kind_detail":"primary","ref":"B84","min_zoom":8.0},"arcs":[[528],[529],[530],[531],[532],[533]]},{"type":"LineString","properties":{"bus_network":null,"int_name":"Asian Highway 43","sort_rank":381,"landuse_kind":"urban_area","is_bicycle_related":true,"kind":"major_road","source":"openstreetmap.org","min_zoom":8.0,"bus_shield_text":"100","kind_detail":"trunk","ref":"A2"},"arcs":[534]},{"type":"MultiLineString","properties":{"bus_network":null,"sort_rank":381,"landuse_kind":"urban_area","kind":"major_road","source":"openstreetmap.org","min_zoom":8.0,"bus_shield_text":"49","kind_detail":"trunk"},"arcs":[[535],[536],[537],[538],[539]]},{"type":"MultiLineString","properties":{"bus_network":null,"sort_rank":381,"kind_detail":"trunk","kind":"major_road","source":"openstreetmap.org","min_zoom":8.0,"bus_shield_text":"04","ref":"A3"},"arcs":[[540],[541]]},{"type":"LineString","properties":{"kind":"major_road","sort_rank":380,"kind_detail":"primary","bus_network":null,"source":"openstreetmap.org","min_zoom":8.0,"bus_shield_text":"138\/2","landuse_kind":"urban_area","id":382475991},"arcs":[542]},{"type":"LineString","properties":{"kind":"major_road","network":"Pannala_Junction","sort_rank":381,"kind_detail":"trunk","bus_network":null,"source":"openstreetmap.org","min_zoom":8.0,"bus_shield_text":"138\/3","shield_text":"15","landuse_kind":"urban_area","id":200571276},"arcs":[543]},{"type":"LineString","properties":{"source":"openstreetmap.org","kind":"major_road","kind_detail":"trunk","sort_rank":381,"landuse_kind":"urban_area","ref":"AC002","min_zoom":8.0},"arcs":[544]},{"type":"LineString","properties":{"kind":"major_road","sort_rank":380,"kind_detail":"primary","bus_network":null,"source":"openstreetmap.org","min_zoom":8.0,"bus_shield_text":"255","ref":"B084","id":351305214},"arcs":[545]},{"type":"MultiLineString","properties":{"source":"openstreetmap.org","kind":"major_road","ref":"A2","sort_rank":381,"kind_detail":"trunk","reg_name":"Galle Road","min_zoom":8.0},"arcs":[[546],[547],[548]]},{"type":"MultiLineString","properties":{"bus_network":null,"sort_rank":381,"kind_detail":"trunk","kind":"major_road","source":"openstreetmap.org","min_zoom":8.0,"bus_shield_text":"138\/3","ref":"A4"},"arcs":[[549],[550]]},{"type":"LineString","properties":{"bus_network":null,"sort_rank":380,"kind_detail":"primary","kind":"major_road","source":"openstreetmap.org","min_zoom":8.0,"bus_shield_text":"100","ref":"A2"},"arcs":[551]},{"type":"LineString","properties":{"kind":"major_road","name:si":"\u0db4\u0dd3 \u0daf \u0d91\u0dc3\u0dca \u0d9a\u0dd4\u0dbd\u0dbb\u0dad\u0dca\u0db1","sort_rank":380,"landuse_kind":"urban_area","source":"openstreetmap.org","min_zoom":8.0,"kind_detail":"primary","id":350014237},"arcs":[552]},{"type":"LineString","properties":{"source":"openstreetmap.org","kind":"highway","sort_rank":383,"kind_detail":"motorway","ref":"E001","min_zoom":8.0},"arcs":[553]},{"type":"LineString","properties":{"bus_network":null,"sort_rank":381,"kind_detail":"trunk","kind":"major_road","source":"openstreetmap.org","min_zoom":8.0,"bus_shield_text":"138","ref":"A4"},"arcs":[554]},{"type":"LineString","properties":{"bus_network":null,"sort_rank":380,"kind_detail":"primary","kind":"major_road","source":"openstreetmap.org","min_zoom":8.0,"bus_shield_text":"101","landuse_kind":"urban_area"},"arcs":[555]},{"type":"MultiLineString","properties":{"source":"openstreetmap.org","kind":"highway","landuse_kind":"urban_area","sort_rank":383,"kind_detail":"motorway","ref":"E03","min_zoom":8.0},"arcs":[[556],[557]]},{"type":"LineString","properties":{"kind":"major_road","sort_rank":380,"landuse_kind":"urban_area","source":"openstreetmap.org","min_zoom":8.0,"kind_detail":"primary","ref":"Cross Road","id":316901978},"arcs":[558]},{"type":"MultiLineString","properties":{"bus_network":null,"sort_rank":380,"kind_detail":"primary","kind":"major_road","source":"openstreetmap.org","min_zoom":8.0,"bus_shield_text":"100","landuse_kind":"urban_area"},"arcs":[[559],[560]]},{"type":"MultiLineString","properties":{"bus_network":null,"sort_rank":381,"kind_detail":"trunk","kind":"major_road","source":"openstreetmap.org","min_zoom":8.0,"bus_shield_text":"49","ref":"AA001"},"arcs":[[561],[562]]},{"type":"MultiLineString","properties":{"source":"openstreetmap.org","kind":"major_road","sort_rank":380,"kind_detail":"primary","ref":"AB010","min_zoom":8.0},"arcs":[[563],[564],[565]]},{"type":"MultiLineString","properties":{"source":"openstreetmap.org","kind":"major_road","kind_detail":"trunk","sort_rank":381,"landuse_kind":"urban_area","ref":"A3","min_zoom":8.0},"arcs":[[566],[567]]},{"type":"LineString","properties":{"source":"openstreetmap.org","kind":"major_road","sort_rank":380,"kind_detail":"primary","is_bicycle_related":true,"min_zoom":8.0,"id":325437353},"arcs":[568]},{"type":"MultiLineString","properties":{"kind":"major_road","sort_rank":380,"kind_detail":"primary","is_bicycle_related":true,"source":"openstreetmap.org","min_zoom":8.0,"old_name":"High Street","ref":"AC032"},"arcs":[[569],[570]]}]},"earth":{"type":"GeometryCollection","geometries":[{"type":"Polygon","properties":{"sort_rank":10,"source":"naturalearthdata.com","kind":"earth","min_zoom":0.0,"id":2260},"arcs":[[571]]}]},"landuse":{"type":"GeometryCollection","geometries":[{"type":"MultiPolygon","properties":{"source":"naturalearthdata.com","kind":"urban_area","name":"","area":221500070,"sort_rank":11,"min_zoom":4.0},"arcs":[[[572]]]}]}},"type":"Topology","transform":{"translate":[78.75,5.6159858192],"scale":[0.0003433228,0.000341231]},"arcs":[[[2629,4096],[-37,-160],[4,-158],[127,-546],[226,-556],[33,-118],[17,-222],[153,-405],[38,-228],[110,-282],[189,-296],[310,-304],[297,-203]],[[4096,2200],[-5,2],[-70,-5],[-49,60],[-76,46],[-52,-11],[-167,114],[-35,-30],[-37,45],[-97,-33]],[[3508,2388],[-470,-164],[112,-287],[24,-182],[103,-284],[174,-296],[224,-246],[393,-302],[28,-9]],[[4096,1356],[-76,61],[-82,94],[-37,109],[-71,69],[-95,414],[-101,239],[7,57],[-118,433]],[[3523,2832],[-1,1],[-1,2],[0,4],[0,24],[-7,14],[-15,24],[-5,11],[-16,34],[-58,152],[-18,25],[-26,47],[-12,24],[0,2],[-1,2],[-1,19],[-1,3],[-6,9],[-5,9],[-2,4],[-36,96],[-10,28],[-1,6],[-1,2],[0,4],[-1,12],[-4,6],[-6,5],[-2,2],[0,1],[-2,3],[-3,8],[-7,26],[-4,22],[-4,15],[-5,11],[-6,15],[-11,34],[-2,10],[-49,266],[0,2],[1,2],[8,8],[-11,28],[0,3],[1,1],[1,1],[0,1],[2,1],[3,1]],[[3211,3860],[-18,-2],[10,-30],[0,-2],[0,-1],[-1,-3],[-7,-4],[-1,-5],[88,-398],[17,-24],[64,-174],[2,-23],[55,-96],[101,-235],[2,-31]],[[3199,3797],[-1,0],[1,-2],[0,2]],[[3203,3862],[2,0],[-2,0]],[[3212,3745],[1,-1],[0,1],[-1,0]],[[3253,3515],[0,-1],[0,1]],[[3247,3847],[0,-1],[1,0],[-1,1]],[[3288,3730],[19,-43],[132,-84],[137,-16],[146,25],[157,-34],[78,34],[48,91],[39,184],[52,-9]],[[3203,3862],[2,0],[-2,0]],[[3246,3847],[2,0]],[[3248,3847],[3,2]],[[3251,3849],[2,0]],[[3253,3849],[2,2]],[[3255,3851],[1,0]],[[3256,3851],[2,1]],[[3247,3847],[0,-1],[1,0],[-1,1]],[[4096,1336],[0,-1336],[-4096,0],[0,4096],[3236,0],[2,-5],[0,-1],[0,-34],[-7,-33],[-29,-70],[-3,-8],[0,-211],[3,-22],[40,-221],[250,-641],[60,-156],[2,-12],[22,-154],[-7,0],[-15,2],[-14,-5],[-3,-17],[8,-16],[13,-11],[12,-8],[6,-5],[13,-50],[33,-138],[54,-96],[25,-137],[24,-50],[5,-15],[-1,-24],[-1,-25],[6,-27],[134,-284],[27,-35],[10,-13],[7,-13],[-1,-25],[4,-12],[6,-8],[2,-3],[1,0],[19,-15],[153,-162]],[[3236,4096],[2,-5],[0,-1],[0,-34],[-7,-33],[-29,-70],[-3,-8],[0,-211],[3,-22],[40,-221],[250,-641],[60,-156],[2,-12],[22,-154],[-7,0],[-15,2],[-14,-5],[-3,-17],[8,-16],[13,-11],[12,-8],[6,-5],[13,-50],[33,-138],[54,-96],[25,-137],[24,-50],[5,-15],[-1,-24],[-1,-25],[6,-27],[134,-284],[27,-35],[10,-13],[7,-13],[-1,-25],[4,-12],[6,-8],[2,-3],[1,0],[19,-15],[153,-162]],[[3410,3497],[0,1]],[[3410,3497]],[[3468,3458],[-58,39]],[[3410,3497],[58,-40]],[[3224,3751],[7,3]],[[3275,3913],[-28,-22]],[[3331,3663],[23,-9]],[[3245,3890],[2,1]],[[3251,3865],[-5,24]],[[3274,3913],[13,-2]],[[3294,3940],[0,1]],[[3299,3929],[-5,11]],[[3295,3941]],[[3203,3844],[0,-1]],[[3206,3833],[-3,10]],[[3204,3844],[7,-14]],[[3209,3799],[35,15]],[[3228,3796],[-6,2]],[[3240,3809],[-12,-13]],[[3228,3796],[7,-6]],[[3230,3780],[5,10]],[[3235,3790],[0,-29]],[[3245,3813],[-5,-3]],[[3240,3810],[-1,0],[1,-1],[0,1]],[[3233,3755],[0,-1],[-1,1],[1,0]],[[3233,3756],[1,0],[-1,0]],[[3245,3813],[-1,1],[1,0],[0,-1]],[[3236,3858],[14,6]],[[3251,3864],[35,17]],[[3287,3881],[-36,-17]],[[3233,3703],[-28,87]],[[3194,3862],[3,1]],[[3203,3859],[35,-17]],[[3238,3842],[-35,16]],[[3204,3833],[2,0]],[[3207,3798],[1,1]],[[3209,3799]],[[3223,3796],[-14,1]],[[3216,3878],[0,1]],[[3216,3878],[1,0],[0,-1],[-1,0],[0,1]],[[3217,3877],[-1,-7]],[[3217,3879],[-1,-1]],[[3221,3801],[0,1]],[[3227,3799],[-1,-1]],[[3228,3797],[-1,0]],[[3228,3798],[18,0]],[[3246,3797],[-18,0]],[[3234,3937],[-4,1]],[[3234,3756],[-1,-1]],[[3236,3790],[10,7]],[[3237,3757],[23,11]],[[3238,3809],[1,1]],[[3238,3843],[6,3]],[[3245,3846],[-6,-4]],[[3239,3705]],[[3240,3810],[1,1]],[[3244,3846],[-1,3]],[[3247,3797],[-4,-5]],[[3244,3846],[1,2],[38,-40]],[[3247,3813],[-3,0]],[[3245,3814],[1,0]],[[3246,3814],[1,0]],[[3247,3813],[-1,0]],[[3246,3813],[-1,0]],[[3246,3813]],[[3246,3813]],[[3246,3814]],[[3246,3814],[1,1]],[[3247,3787],[-1,-1]],[[3246,3798],[1,15]],[[3246,3788],[1,-1]],[[3247,3813],[0,-15]],[[3247,3813]],[[3247,3814],[0,1]],[[3260,3776],[-13,11]],[[3247,3787],[13,-12]],[[3247,3815],[0,-1]],[[3260,3775],[1,0]],[[3260,3775],[0,1]],[[3260,3776],[1,-1]],[[3261,3775],[2,-4]],[[3279,3812]],[[3283,3788],[-2,-1]],[[3283,3808],[1,-2],[1,0],[0,1],[-2,1]],[[3287,3892],[0,-1]],[[3287,3894],[0,-2]],[[3302,3803]],[[3209,3798],[-1,0],[0,1]],[[3208,3799],[1,0],[0,-1]],[[3238,3842],[0,1]],[[3238,3843],[1,-1]],[[3239,3842],[-1,0]],[[3247,3814],[1,0],[-1,-1],[0,1]],[[3247,3797],[-1,0],[0,1],[1,-1]],[[3645,3671],[-68,44]],[[3247,3891],[27,22]],[[3286,3881],[1,-1]],[[3251,3862],[-5,-13]],[[4096,1970],[-67,-51],[-120,0],[-105,-37]],[[3532,3778],[-149,-6]],[[3510,3774],[0,1]],[[3510,3775],[0,-1]],[[3533,3742],[-23,32]],[[3570,3716],[-32,20]],[[3306,3794],[9,-1]],[[3315,3793],[2,-2],[2,-1]],[[3319,3790],[9,-2],[7,0],[1,0]],[[3336,3788],[0,1],[2,1]],[[3339,3790],[-3,-2]],[[3336,3788],[-17,2]],[[3319,3790],[-2,0],[0,1],[-2,2]],[[3315,3793],[-1,1],[-8,0]],[[3338,3790],[1,0],[20,-8],[1,-1],[6,-3]],[[3339,3790],[-1,0]],[[3366,3778],[-27,12]],[[3378,3773],[6,-1]],[[3924,3259],[-128,-22]],[[3963,3273],[-38,-14]],[[4096,3300],[-46,-4]],[[3251,3864],[0,1]],[[3341,3988],[1,1],[5,22],[4,12],[11,25],[-35,37],[-4,11]],[[3324,4096],[3,-11],[36,-37],[-11,-25],[-9,-34],[-2,-1]],[[3365,3255]],[[3372,3205],[-1,6]],[[3408,3132],[-36,73]],[[3429,3093],[-21,39]],[[3438,3072],[-9,21]],[[3658,2289],[-136,572],[-84,211]],[[3226,3858],[-3,3]],[[3225,3858],[11,0]],[[3235,3857],[-9,0]],[[3250,3864],[1,0]],[[3251,3864]],[[3286,3881],[14,45]],[[3300,3926],[-13,-45]],[[3249,3863],[2,-1]],[[3257,3715],[-1,1]],[[3286,3891],[11,3]],[[3295,3941],[-1,-1]],[[3251,3864],[-1,0]],[[3256,3716],[-3,3]],[[3181,3856],[2,8]],[[3183,3864],[-1,-8]],[[3247,3891],[-1,0]],[[3251,3865],[0,-1]],[[3288,3912],[-14,1]],[[3295,3941],[5,-12]],[[3303,3927],[0,-1]],[[3235,3691],[9,-35]],[[3641,2385],[25,32],[63,-8],[213,54],[69,71],[-37,124]],[[3869,3629],[3,0]],[[3897,3760],[-1,0]],[[3927,3814],[0,1]],[[3370,3774],[-1,0]],[[3366,3778]],[[3182,3856],[1,-1]],[[3193,3859],[-1,0]],[[3194,3862],[0,-1]],[[3204,3795],[0,2]],[[3281,3709],[-1,-1]],[[3281,3699],[1,15]],[[3282,3714],[-1,-15]],[[3354,3962],[-1,0]],[[3353,3962],[-8,3],[-2,0],[-6,-1]],[[3337,3965],[6,0],[11,-3]],[[3353,3961],[0,1]],[[3353,3962]],[[3364,3961],[0,1]],[[3374,3200]],[[3375,3197]],[[3375,3960],[0,1]],[[3376,3194]],[[3376,3194]],[[3377,3190],[1,0]],[[3381,3183]],[[3384,3180]],[[3384,3180]],[[3386,3176]],[[3386,3175]],[[3387,3173]],[[3388,3170]],[[3390,3164],[0,1]],[[3393,3160]],[[3396,3154],[1,0]],[[3397,3152]],[[3398,3151]],[[3399,3149]],[[3403,3140],[0,1]],[[3403,3140]],[[3404,3138],[1,0]],[[3437,3074]],[[3480,4039]],[[3493,4058],[0,4],[14,8]],[[3507,4070],[-13,-12]],[[3508,4070],[6,0]],[[3514,4070],[-6,0]],[[3520,3042],[7,7]],[[3527,3049],[1,1]],[[3523,3061],[7,2]],[[3528,3046],[-1,3]],[[3527,3049],[-1,1]],[[3533,3049],[-4,-7]],[[3536,3592],[1,1]],[[3538,3592],[2,-1]],[[3564,2859],[1,3]],[[3570,2857],[1,-2]],[[3594,3580],[4,1]],[[3825,1703],[-10,46]],[[3365,3255]],[[3508,4070],[-1,0],[1,0]],[[3538,3593],[0,-1],[-1,0],[1,1]],[[3609,3219]],[[3787,1834],[3,0]],[[3804,1882],[-7,-51]],[[3354,3962],[-1,-2]],[[3384,3772],[21,-3]],[[3604,3885]],[[3604,3885],[7,3]],[[3611,3888],[-7,-3]],[[3611,3888],[92,208]],[[3300,3929],[3,-2]],[[3303,3926],[-3,0]],[[3334,3947],[-31,-21]],[[3303,3927],[31,20]],[[3281,3787],[2,1]],[[3243,3656],[0,1]],[[3311,3483],[-56,90]],[[3533,4035],[-1,4]],[[3532,4039],[2,-4]],[[3585,3826],[-12,11],[-14,22]],[[3573,3837],[9,-7]],[[3563,3080],[21,57]],[[3577,3832],[-45,-54]],[[3595,3868],[-16,-32]],[[3230,3780],[-7,16]],[[3235,3761],[-1,-1]],[[3203,3863],[4,0]],[[3207,3863],[11,1],[5,-3]],[[3208,3863],[-1,0]],[[3207,3863],[-4,0]],[[3261,3710],[1,0],[0,-1],[-1,0],[0,1]],[[3345,3956],[9,6]],[[3356,3962],[96,54]],[[3452,4016],[-2,-3],[-64,-47]],[[3265,3706],[-3,2]],[[3365,3255]],[[3543,3590],[38,-7]],[[3203,3844],[-11,15]],[[3193,3859],[5,0]],[[3195,3856],[8,-12]],[[3203,3843]],[[3203,3843],[0,1]],[[3344,3610],[5,-6]],[[3354,3590],[-5,14]],[[3349,3604],[6,-14]],[[3233,3703],[2,-12]],[[3413,3741],[24,44]],[[3286,3891]],[[3261,3711],[-4,4]],[[3532,4039],[-5,25]],[[3527,4065],[5,-26]],[[3563,3887],[-30,148]],[[3534,4035],[39,-198]],[[3194,3825],[-13,30]],[[3182,3855],[12,-30]],[[3183,3855],[9,3]],[[3205,3790],[-11,34]],[[3194,3825],[10,-28]],[[3254,3592],[-11,64]],[[3244,3656],[6,-31],[4,-33]],[[3255,3573],[-1,19]],[[3300,3411],[5,21]],[[3316,3471],[-16,-60]],[[3315,3474],[0,2]],[[3365,3255],[7,-42],[-1,-2],[-6,44]],[[3537,3592],[-2,0]],[[3539,3591],[-1,1]],[[3538,3593],[1,-2]],[[3539,3591],[4,-1]],[[3650,3591],[42,16]],[[3869,3629],[-178,-21]],[[3872,3629],[35,13],[-10,118]],[[3896,3760],[31,54]],[[3927,3815],[85,64],[84,-7]],[[3905,2131],[119,-38],[72,-83]],[[3203,3797],[2,1]],[[3189,3862],[0,7]],[[3195,3870],[-6,-7]],[[3189,3869],[6,1]],[[3189,3869],[1,0]],[[3190,3869],[0,1]],[[3190,3869]],[[3190,3869],[-1,0],[1,1]],[[3194,3825],[10,8]],[[3194,3857],[1,1]],[[3196,3858],[-1,-2]],[[3195,3870]],[[3195,3870]],[[3195,3870],[7,2]],[[3202,3871],[-7,-1]],[[3198,3859],[5,0]],[[3203,3858],[-5,0]],[[3250,3618],[0,7]],[[3313,3795],[1,1]],[[3315,3795],[-1,0]],[[3314,3795],[0,-1]],[[3314,3795]],[[3314,3795],[1,0]],[[3315,3795]],[[3314,3795],[0,1]],[[3314,3794],[0,1]],[[3314,3795]],[[3314,3796],[1,-1]],[[3315,3795]],[[3315,3795],[0,-1]],[[3315,3795]],[[3316,3795],[-1,-1]],[[3318,3790]],[[3318,3794],[0,1]],[[3319,3795]],[[3320,3795]],[[3324,3794],[0,1]],[[3329,3794]],[[3334,3788],[9,1]],[[3343,3789],[-9,-2]],[[3334,3792],[0,1]],[[3336,3788]],[[3338,3790],[0,1]],[[3338,3790]],[[3339,3791],[0,-1]],[[3339,3791],[1,0]],[[3341,3790]],[[3343,3611],[-2,1]],[[3346,3788],[0,-1]],[[3355,3590],[-1,0]],[[3356,3782]],[[3361,3781]],[[3381,3773],[-1,0]],[[3381,3773],[1,0]],[[3383,3772],[-2,1]],[[3383,3772],[-1,-1]],[[3383,3772]],[[3413,3741],[-18,5]],[[3410,3498],[0,-1]],[[3410,3497]],[[3520,3610],[7,1]],[[3538,3736],[-5,6]],[[3570,3716],[7,-1]],[[3736,3621],[-31,41],[-60,9]],[[3648,2353],[57,-27]],[[3880,3789],[-12,-4]],[[3909,1591],[7,2]],[[3338,3791],[1,0]],[[3339,3791],[-1,-1]],[[3338,3790],[0,1]],[[3409,3500],[1,-3],[0,-1],[-1,4]],[[3415,3476],[1,-1],[1,-1],[-2,2]],[[3468,3458],[2,-2]],[[3577,3832],[1,3],[1,1],[-1,-1],[-1,-3]],[[3307,3798],[-22,8]],[[3285,3807],[22,-8]],[[3251,3620],[-1,0]],[[3325,3598],[29,-8]],[[3355,3590],[-1,0]],[[3354,3590],[2,1]],[[3356,3591],[-1,-1]],[[3427,3608],[-71,-17]],[[3338,3791],[-31,7]],[[3307,3799],[31,-8]],[[3338,3790],[0,1]],[[3338,3791]],[[3357,3962],[-23,-15]],[[3334,3947],[11,9]],[[3386,3966],[-32,-4]],[[3250,3625],[1,-7]],[[3301,3412],[0,-3]],[[3270,3700],[-5,6]],[[3223,3861],[-15,2]],[[3233,3885],[-16,-5]],[[3217,3880],[16,5]],[[3220,3863],[1,1]],[[3221,3862],[0,2]],[[3221,3864],[0,-1]],[[3232,3885],[1,0]],[[3233,3885],[1,0]],[[3245,3890],[-12,-5]],[[3233,3885]],[[3235,3857],[0,1]],[[3246,3891],[-1,-1]],[[3245,3890]],[[3248,3723],[6,-4]],[[3261,3709],[1,1]],[[3262,3709]],[[3273,3911],[1,2]],[[3282,3714],[1,74]],[[3284,3788],[-2,-74]],[[3283,3789],[3,92]],[[3287,3881],[-3,-93]],[[3287,3908],[-2,3]],[[3286,3911],[1,-2]],[[3294,3941],[1,0]],[[3300,3929],[-1,-1]],[[3303,3926],[-3,2]],[[3303,3926],[0,1]],[[3309,3973],[-1,0]],[[3337,3964],[-4,-1],[-6,-1],[-2,0],[-17,12]],[[3308,3975],[1,-1]],[[3309,3974],[16,-11],[12,2]],[[3310,3976],[-1,-2]],[[3309,3974]],[[3240,3740],[6,-12]],[[3283,3788],[0,1],[1,0],[0,-1],[-1,0]],[[3382,3771],[-8,1],[-8,6]],[[3366,3778],[16,-7]],[[3381,3771],[0,2]],[[3395,3746],[-13,25]],[[3251,3864]],[[3243,3657],[-8,34]],[[3192,3859],[2,3]],[[3203,3863],[-10,-4]],[[3197,3863],[6,0]],[[3270,3700],[1,0]],[[3354,3654],[1,0]],[[3422,3613],[16,-11]],[[3359,3579],[-4,11]],[[3355,3590],[4,-11]],[[3359,3579],[50,-79]],[[3410,3496],[5,-20]],[[3538,3432],[44,-8]],[[3585,3423],[60,-18],[95,-152]],[[3237,3757],[-2,-1]],[[3281,3787],[-21,-19]],[[3305,3432],[11,30]],[[3353,3256],[-53,155]],[[3300,3411],[53,-155]],[[3353,3256],[11,-1]],[[3306,3794],[-3,1]],[[3303,3795],[-7,0],[-1,1],[-48,1]],[[3247,3797],[48,-1],[2,-1],[6,0]],[[3303,3795],[3,-1]],[[3513,4065]],[[3513,4065],[1,0]],[[3514,4065]],[[3514,4065],[29,24]],[[3544,4090],[-30,-24]],[[3514,4066],[0,-1]],[[3514,4065],[-1,0]],[[3513,4065]],[[3514,4065]],[[3514,4065]],[[3514,4065],[0,1]],[[3514,4066]],[[3514,4066],[0,-1]],[[3514,4065]],[[3542,4088],[1,0]],[[3543,4087],[-1,1]],[[3559,3859],[4,28]],[[3582,3830],[-9,-110],[5,-97],[4,-27]],[[3587,3580],[-2,246]],[[3604,3885]],[[3582,3596],[14,-85]],[[3596,3511],[1,-9],[-10,-64],[-3,-12]],[[3583,3421],[49,-103],[30,-206],[-8,-179],[102,-177],[23,-95],[34,-53],[26,-58],[5,-9]],[[3844,2541],[22,-38],[20,-30]],[[3886,2473],[5,-8],[4,-5],[6,-9],[6,-12],[45,-141],[-1,-60],[94,-168],[-19,-112],[70,-114]],[[4096,1840],[-44,75],[-11,13],[-1,1],[-14,29],[19,112],[-27,42],[-61,110],[-6,16],[-1,3],[0,18],[2,39],[-39,104],[-7,40],[-5,8],[-10,15],[-5,8]],[[3886,2473],[-42,68]],[[3844,2541],[-6,9],[-60,111],[-23,95],[-101,177],[-9,28],[-3,40],[6,42],[13,69],[-11,56],[-8,47],[-10,103],[-45,72],[-4,22],[0,9],[14,81],[-1,9]],[[3596,3511],[-9,69]],[[3372,3213],[-1,0]],[[3371,3213],[1,0]],[[3609,3219],[-54,-32],[-183,26]],[[3796,3237],[-67,15],[-120,-33]],[[3925,3259],[-1,0]],[[4050,3296],[-87,-23]],[[3183,3855],[-1,0]],[[3192,3859],[0,-1]],[[3315,3476],[1,-5]],[[3316,3462],[-1,12]],[[3181,3855],[0,1],[1,0],[-1,-1]],[[3194,3825],[0,-1],[0,1]],[[3452,4016],[41,42]],[[3525,4077],[-73,-61]],[[3437,3602],[98,-10]],[[3595,3868],[5,3]],[[3604,3885],[-4,-14]],[[3600,3871],[4,14]],[[3194,3858],[1,-1]],[[3240,3740],[-7,14]],[[3253,3719],[-7,8]],[[3297,3894],[25,-12]],[[3198,3858],[-5,0]],[[3354,3962],[2,0]],[[3493,4058],[32,20]],[[3439,3462],[29,-4]],[[3470,3456],[68,-24]],[[3290,3941],[17,41]],[[3294,3940],[-4,0]],[[3311,3983],[-16,-42]],[[3475,2969],[88,111]],[[3584,3137],[35,48],[-10,34]],[[3222,3798],[-1,3]],[[3233,3756],[-3,24]],[[3232,3755],[1,1]],[[3233,3756],[0,-1]],[[3235,3761],[-1,-5]],[[3322,3635],[19,-23]],[[3343,3611],[1,-1]],[[3583,3424]],[[3583,3424],[0,-1]],[[3582,3424],[1,0]],[[3583,3424],[2,-1]],[[3235,3691],[-2,12]],[[3226,3857],[0,1]],[[3246,3849],[-11,8]],[[3300,3926],[0,3]],[[3303,3926]],[[3303,3927]],[[3307,3982],[11,33],[21,27],[2,33],[-3,21]],[[3347,4096],[-2,-45],[-34,-68]],[[3246,3849],[-1,-1]],[[3223,3861],[2,-3]],[[3224,3751],[-4,-1]],[[3417,3474],[22,-12]],[[3787,1834],[-36,48],[10,105],[-103,302]],[[3815,1749],[-25,85]],[[4096,1352],[-162,163],[-4,43],[-105,145]],[[3271,3700],[60,-37]],[[3355,3654],[82,-52]],[[3365,3256],[-65,155]],[[3284,3806],[-39,40]],[[3584,3426],[-1,-5]],[[3594,3580],[56,11]],[[3221,3802],[-10,28]],[[3300,3926],[41,62]],[[3341,3988],[-41,-62]],[[3243,3792]],[[3205,3798],[34,-93]],[[3239,3705],[-6,-2]],[[3525,4078],[16,18]],[[3541,4096],[-16,-19]],[[3322,3882],[233,-14]],[[3555,3868],[7,1]],[[3562,3869],[270,-85],[82,12]],[[3274,3913],[16,28]],[[3290,3940],[-15,-27]],[[3468,3457],[0,1]],[[3236,3691],[25,5]],[[3261,3696],[-25,-5]],[[4096,1336],[-153,162],[-19,15],[-1,0],[-2,3],[-6,8],[-4,12],[1,25],[-7,13],[-10,13],[-27,35],[-134,284],[-6,27],[1,25],[1,24],[-5,15],[-24,50],[-25,137],[-54,96],[-33,138],[-13,50],[-6,5],[-12,8],[-13,11],[-8,16],[3,17],[14,5],[15,-2],[7,0],[-22,154],[-2,12],[-60,156],[-250,641],[-40,221],[-3,22],[0,211],[3,8],[29,70],[7,33],[0,34],[0,1],[-2,5],[860,0],[0,-2760]],[[3209,3678],[-9,271],[142,44],[-49,-274],[-84,-41]]]}