{"objects":{"water":{"type":"GeometryCollection","geometries":[{"type":"Polygon","properties":{"source":"naturalearthdata.com","kind":"ocean","area":1576712559132672,"sort_rank":200,"min_zoom":0.0,"id":1},"arcs":[[13],[14],[15],[16]]},{"type":"LineString","properties":{"source":"naturalearthdata.com","kind":"ocean","sort_rank":205,"boundary":true,"min_zoom":0.0,"id":79},"arcs":[17]},{"type":"LineString","properties":{"source":"naturalearthdata.com","kind":"ocean","sort_rank":205,"boundary":true,"min_zoom":0.0,"id":106},"arcs":[18]},{"type":"LineString","properties":{"source":"naturalearthdata.com","kind":"ocean","sort_rank":205,"boundary":true,"min_zoom":0.0,"id":107},"arcs":[19]},{"type":"LineString","properties":{"source":"naturalearthdata.com","kind":"ocean","sort_rank":205,"boundary":true,"min_zoom":0.0,"id":1762},"arcs":[20]},{"type":"LineString","properties":{"source":"naturalearthdata.com","kind":"ocean","sort_rank":205,"boundary":true,"min_zoom":0.0,"id":3566},"arcs":[21]}]},"buildings":{"type":"GeometryCollection","geometries":[]},"places":{"type":"GeometryCollection","geometries":[{"type":"Point","properties":{"alt_name:ru":"\u041f\u0440\u0435\u0430-\u0421\u0438\u0430\u043d\u0443\u043a","kind":"locality","name:en":"Sihanoukville","name":"\u1780\u17d2\u179a\u17bb\u1784\u1796\u17d2\u179a\u17c7\u179f\u17b8\u17a0\u1793\u17bb","alt_name:vi":"Th\u00e0nh ph\u1ed1 Sihanouk","kind_detail":"city","source":"openstreetmap.org","min_zoom":8.0,"alt_name:en":"Kampong Som","name:vi":"Th\u00e0nh ph\u1ed1 Sihanouk","name:ru":"\u0421\u0438\u0430\u043d\u0443\u043a\u0432\u0438\u043b\u044c","population":209005,"id":259119234,"name:ja":"\u30b7\u30a2\u30cc\u30fc\u30af\u30d3\u30eb"},"coordinates":[2523,2448]}]},"transit":{"type":"GeometryCollection","geometries":[]},"pois":{"type":"GeometryCollection","geometries":[{"type":"Point","properties":{"kind":"national_park","name:en":"Botum Sakor National Park","protect_class":"2","area":1919040000,"source":"openstreetmap.org","min_zoom":5.34,"tier":1,"id":-6243784,"osm_relation":true,"name":"\u17a7\u1791\u17d2\u1799\u17b6\u1793\u1787\u17b6\u178f\u17b7 \u1794\u17bb\u1791\u17bb\u1798\u179f\u17b6\u1782\u179a"},"coordinates":[1884,4043]},{"type":"Point","properties":{"kind":"national_park","name:en":"Preah Monivong National Park","protect_class":"2","area":1486660000,"source":"openstreetmap.org","min_zoom":5.52,"alt_name:en":"Phnom Bokor National Park","tier":1,"id":165271930,"name":"\u17a7\u1791\u17d2\u1799\u17b6\u1793\u1787\u17b6\u178f\u17b7 \u1794\u17bc\u1780\u1782\u17c4"},"coordinates":[3910,3117]}]},"boundaries":{"type":"GeometryCollection","geometries":[{"type":"LineString","properties":{"name:right:yo":"K\u00e0mb\u00f3d\u00ed\u00e0","name:right:yi":"\u05e7\u05d0\u05de\u05d1\u05d0\u05d3\u05d9\u05e2","name:right:hy":"\u053f\u0561\u0574\u0562\u0578\u057b\u0561","name:left:lb":"Vietnam","name:left:st":"Vietnam","name:right:hr":"Kambod\u017ea","name:left:kg":"Vietnam","name:left:ka":"\u10d5\u10d8\u10d4\u10e2\u10dc\u10d0\u10db\u10d8","name:left:km":"\u179c\u17c0\u178f\u178e\u17b6\u1798","name:left:kl":"Vietnam","name:left:ko":"\ubca0\ud2b8\ub0a8","name:left:kn":"\u0cb5\u0cbf\u0caf\u0cc6\u0c9f\u0ccd\u0ca8\u0cbe\u0cae\u0ccd","name:left:ki":"Vietnam","name:right:rw":"Kambodiya","name:left:kk":"\u0412\u044c\u0435\u0442\u043d\u0430\u043c","name:left:rm":"Vietnam","name:left:ku":"Viyetnam","name:left:kw":"Vietnam","name:left:kv":"\u0412\u044c\u0435\u0442\u043d\u0430\u043c","name:left:rw":"Viyetinamu","name:left:ru":"\u0412\u044c\u0435\u0442\u043d\u0430\u043c","name:right:ie":"Cambodja","name:right:id":"Kamboja","name:left:ky":"\u0412\u044c\u0435\u0442\u043d\u0430\u043c","name:right:ia":"Cambodgia","name:right:bn":"\u0995\u09ae\u09cd\u09ac\u09cb\u09a1\u09bf\u09af\u09bc\u09be","name:right:bo":"\u0f41\u0f58\u0f0b\u0f54\u0f7c\u0f0b\u0f5b\u0f0d","name:right:hi":"\u0915\u092e\u094d\u092c\u094b\u0921\u093f\u092f\u093e","name:right:ba":"\u041a\u0430\u043c\u0431\u043e\u0434\u0436\u0430","name:right:bg":"\u041a\u0430\u043c\u0431\u043e\u0434\u0436\u0430","name:right:be":"\u041a\u0430\u043c\u0431\u043e\u0434\u0436\u0430","name:right:br":"Kambodja","name:left:si":"\u0dc0\u0dd2\u0dba\u0da7\u0dca\u0db1\u0dcf\u0db8\u0dba","name:right:nn":"Kambodsja","name:right:no":"Kambodsja","name:right:nl":"Cambodja","name:left:sk":"Vietnam","name:right:wo":"Kamboodi","name:right:na":"Kambodja","name:right:ps":"\u06a9\u0645\u0628\u0648\u062f\u06cc\u0627","name:right:pt":"Camboja","kind_detail":"2","name:left:mi":"Whitin\u0101mu","name:right:gu":"\u0a95\u0aae\u0acd\u0aac\u0acb\u0aa1\u0ac0\u0aaf\u0abe","name:right:gv":"Yn Chamboyd","name:left:mg":"Vietnam","name:left:mk":"\u0412\u0438\u0435\u0442\u043d\u0430\u043c","name:left:tr":"Vietnam","name:left:tt":"\u0412\u044c\u0435\u0442\u043d\u0430\u043c","name:left:mn":"\u0412\u044c\u0435\u0442\u043d\u0430\u043c","name:left:tw":"Vietnam","name:left:th":"\u0e1b\u0e23\u0e30\u0e40\u0e17\u0e28\u0e40\u0e27\u0e35\u0e22\u0e14\u0e19\u0e32\u0e21","name:right:pa":"\u0a15\u0a70\u0a2c\u0a4b\u0a21\u0a40\u0a06","name:left:tk":"W\u00fdetnam","name:left:tl":"Vietnam","name:left:mt":"Vjetnam","name:right:gl":"Camboxa - \u1780\u1798\u17d2\u1796\u17bb\u1787\u17b6","name:left:my":"\u1017\u102e\u101a\u1000\u103a\u1014\u1019\u103a\u1014\u102d\u102f\u1004\u103a\u1004\u1036","name:right:gn":"Kamboja","name:right:pl":"Kambod\u017ca","name:left:te":"\u0c35\u0c3f\u0c2f\u0c24\u0c4d\u0c28\u0c3e\u0c02","name:left:tg":"\u0412\u0435\u0442\u043d\u0430\u043c","name:left:ms":"Vietnam","name:right:ka":"\u10d9\u10d0\u10db\u10d1\u10dd\u10ef\u10d0","name:left:mr":"\u0935\u094d\u0939\u093f\u092f\u0947\u0924\u0928\u093e\u092e","name:left:da":"Vietnam","name:left:de":"Vietnam","name:right:ga":"An Chamb\u00f3id","name:left:dv":"\u0788\u07a8\u0787\u07ac\u0793\u07aa\u0782\u07a7\u0789\u07aa","name:right:ug":"\u0643\u0627\u0645\u0628\u0648\u062c\u0627","name:left:hi":"\u0935\u093f\u092f\u0924\u0928\u093e\u092e","name:right:lb":"Kambodscha","name:right:uk":"\u041a\u0430\u043c\u0431\u043e\u0434\u0436\u0430","name:left:he":"\u05d5\u05d9\u05d9\u05d8\u05e0\u05d0\u05dd","name:right:ln":"Kamboji","name:right:lo":"\u0e9b\u0eb0\u0ec0\u0e97\u0e94\u0e81\u0eb3\u0e9b\u0eb9\u0ec0\u0e88\u0e8d","name:right:li":"Cambodja","name:right:lt":"Kambod\u017ea","name:right:ur":"\u06a9\u0645\u0628\u0648\u0688\u06cc\u0627","name:right:lv":"Kambod\u017ea","name:left:hy":"\u054e\u056b\u0565\u057f\u0576\u0561\u0574","name:left:ta":"\u0bb5\u0bbf\u0baf\u0b9f\u0bcd\u0ba8\u0bbe\u0bae\u0bcd","name:left:ht":"Vyetnam","name:left:hu":"Vietn\u00e1m","name:left:hr":"Vijetnam","sort_rank":262,"name:right:gd":"Cambuidea","osm_relation":true,"name:right:es":"Camboya","name:left:ja":"\u30d9\u30c8\u30ca\u30e0","name:right:eu":"Kanbodia","name:right:et":"Kambod\u017ea","name:left:os":"\u0412\u044c\u0435\u0442\u043d\u0430\u043c","name:left:or":"\u0b2d\u0b3f\u0b0f\u0b24\u0b28\u0b3e\u0b2e","name:left:ve":"Vi\u00ebtnam","name:left:om":"Veetinaam","name:left:vo":"Vietnam\u00e4n","name:left:oc":"Vietnam","name:right:eo":"Kambo\u011do","name:right:en":"Cambodia","name:right:el":"\u039a\u03b1\u03bc\u03c0\u03cc\u03c4\u03b6\u03b7","name:left:ff":"Vietnam","name:left:fa":"\u0648\u06cc\u062a\u0646\u0627\u0645","name:left:ia":"Vietnam","name:left:fo":"Vjetnam","name:left:qu":"Witnam","name:left:fi":"Vietnam","name:left:fr":"Vi\u00eat Nam","name:left:fy":"Fjetnam","name:right:ja":"\u30ab\u30f3\u30dc\u30b8\u30a2","name:right:sq":"Kamboxhia","name:right:ss":"IKhambodiya","name:right:sr":"\u041a\u0430\u043c\u0431\u043e\u045f\u0430","name:right:su":"Kamboja","name:right:sw":"Kamboja","name:right:sv":"Kambodja","name:right:si":"\u0d9a\u0dcf\u0db8\u0dca\u0db6\u0ddd\u0da2\u0dba","name:right:sh":"Kambod\u017ea","name:right:sk":"Kambod\u017ea","name:right:jv":"Kamboja","name:right:sl":"Kambod\u017ea","name:right:so":"Kambodiya","name:left:jv":"Vi\u00e8tnam","id":-49915,"name:right:ca":"Cambodja","name:right:se":"Kampu\u010dea","name:right:ce":"\u041a\u0430\u043c\u0431\u043e\u0434\u0436\u0430","name:right:cy":"Cambodia","name:right:zh-yue":"\u67ec\u57d4\u5be8","name:right:cs":"Kambod\u017ea","name:left:bm":"Vietnam","name:right:cv":"\u041a\u0430\u043c\u0431\u043e\u0434\u0436\u0430","name:left:av":"\u0412\u044c\u0435\u0442\u043d\u0430\u043c","name:right:it":"Cambogia","name:left:ar":"\u0641\u064a\u062a\u0646\u0627\u0645","name:right:is":"Kamb\u00f3d\u00eda","name:left:az":"Vyetnam","name:left:ay":"Vietnam","name:left:ro":"Vietnam","name:left:af":"Vi\u00ebtnam","name:left:an":"Vietnam","name:left:am":"\u126c\u1275 \u1293\u121d","name:right:ru":"\u041a\u0430\u043c\u0431\u043e\u0434\u0436\u0430","name:left:ak":"Vietnam","name:right:io":"Kambodja","name:left:zh-yue":"\u8d8a\u5357","name:right:ro":"Cambodgia","name:left:la":"Vietnamia","name:right:qu":"Kambuya","alt_name:left:eo":"Vjetnamo;Vjetnamio","name:left:su":"Vi\u00e9tnam","name:left:li":"Vietnam","name:left:sw":"Vietnam","name:left:sv":"Vietnam","name:left:sq":"Vietnami","name:right:hu":"Kambodzsa","name:left:ln":"Vietnami","name:left:lo":"\u0e9b\u0eb0\u0ec0\u0e97\u0e94\u0eab\u0ea7\u0ebd\u0e94\u0e99\u0eb2\u0ea1","name:left:sm":"Vietnam","name:left:sl":"Vietnam","name:left:so":"Fiyetnam","name:left:sn":"Vietnam","name:left:lt":"Vietnamas","name:left:sh":"Vijetnam","name:left:lv":"Vjetnama","name:left:se":"Vietnam","name:right:ha":"Kambodiya","name:left:sa":"\u091a\u092e\u094d\u092a\u093e\u0926\u0947\u0936","name:right:he":"\u05e7\u05de\u05d1\u05d5\u05d3\u05d9\u05d4","name:left:sc":"Vietnam","name:right:la":"Cambosia","name:right:af":"Kambodja","name:left:ch":"Vietnam","name:left:ce":"\u0412\u044c\u0435\u0442\u043d\u0430\u043c","name:right:an":"Cambocha","name:right:am":"\u12ab\u121d\u1266\u12f2\u12eb","name:left:ca":"Vietnam","source":"openstreetmap.org","name:left:cy":"Fietnam","name:right:ar":"\u0643\u0645\u0628\u0648\u062f\u064a\u0627","name:left:cv":"\u0412\u044c\u0435\u0442\u043d\u0430\u043c","name:right:az":"Kamboca","name:left:cs":"Vietnam","name:right:rm":"Cambodscha","name":"Vi\u1ec7t Nam - \u1796\u17d2\u179a\u17c7\u179a\u17b6\u1787\u17b6\u178e\u17b6\u1785\u1780\u17d2\u179a\u200b\u1780\u1798\u17d2\u1796\u17bb\u1787\u17b6","name:left:zu":"IViyetnami","name:left:zh":"\u8d8a\u5357","name:right:zh":"\u67ec\u57d4\u5be8","name:left:za":"Yiednamz","name:left:uz":"Vyetnam","name:right:fr":"Cambodge","name:left:nv":"Bi\u02bcednam","name:left:ur":"\u0648\u06cc\u062a\u0646\u0627\u0645","id:right":-49898,"name:left:uk":"\u0412'\u0454\u0442\u043d\u0430\u043c","name:left:no":"Vietnam","name:left:nl":"Vietnam","name:right:fa":"\u06a9\u0627\u0645\u0628\u0648\u062c","name:right:fo":"Kambodja","name:left:ug":"\u06cb\u064a\u06d0\u062a\u0646\u0627\u0645","name:left:na":"Bitinam","name:left:eo":"Vjetnamujo","name:left:en":"Vietnam","name:left:el":"\u0392\u03b9\u03b5\u03c4\u03bd\u03ac\u03bc","name:left:ee":"Vietnam","name:right:tt":"\u041a\u0430\u043c\u0431\u043e\u0497\u0430","name:left:es":"Vietnam","name:left:ss":"IViyethina","name:right:kk":"\u041a\u0430\u043c\u0431\u043e\u0434\u0436\u0430","name:left:eu":"Vietnam","name:left:et":"Vietnam","name:right:zh-min-nan":"Kampuchea","name:right:oc":"Camb\u00f2tja","name:right:tr":"Kambo\u00e7ya","name:right:bs":"Kambod\u017ea","name:left:sr":"\u0412\u0438\u0458\u0435\u0442\u043d\u0430\u043c","name:right:uz":"Kambodja","name:right:os":"\u041a\u0430\u043c\u0431\u043e\u0434\u0436\u00e6","name:right:or":"\u0b15\u0b2e\u0b4d\u0b2c\u0b4b\u0b21\u0b3c\u0b3f\u0b06","name:right:tl":"Kamboya","name:right:ku":"Kamboca","name:right:ko":"\uce84\ubcf4\ub514\uc544","int_name:right":"Cambodia","name:left:wa":"Vietnam","min_zoom":8.0,"name:right:te":"\u0c15\u0c02\u0c2c\u0c4b\u0c21\u0c3f\u0c2f\u0c3e","name:left:wo":"Wiyetnaam","name:left:ga":"V\u00edtneam","name:right:tg":"\u041a\u0430\u043c\u0431\u043e\u04b7\u0430","name:left:gd":"Bhiet-Nam","name:left:gl":"Vietnam","name:left:gn":"Vietnam","name:left:gu":"\u0ab5\u0abf\u0aaf\u0ac7\u0aa4\u0aa8\u0abe\u0aae","name:right:tk":"Kambo\u00e7i\u00fda","name:left:gv":"Yn Vietnam","name:left":"Vi\u1ec7t Nam","name:right:mk":"\u041a\u0430\u043c\u0431\u043e\u045f\u0430","name:right:mi":"Kamap\u014dtia","name:right:mn":"\u041a\u0430\u043c\u0431\u043e\u0436","name:right:ml":"\u0d15\u0d02\u0d2c\u0d4b\u0d21\u0d3f\u0d2f","name:right:vo":"Kamboc\u00e4n","name:right:mg":"Kambodia","name:right:vi":"Campuchia","name:right:my":"\u1000\u1019\u1039\u1018\u1031\u102c\u1012\u102e\u1038\u101a\u102c\u1038\u1014\u102d\u102f\u1004\u103a\u1004\u1036","name:right:ms":"Kemboja","name:right:mr":"\u0915\u0902\u092c\u094b\u0921\u093f\u092f\u093e","name:right:fy":"Kambodja","name:right:mt":"Kambodja","name:left:nn":"Vietnam","kind":"country","name:left:br":"Vi\u00eat Nam","name:left:bs":"Vijetnam","name:left:ba":"\u0412\u044c\u0435\u0442\u043d\u0430\u043c","name:left:bg":"\u0412\u0438\u0435\u0442\u043d\u0430\u043c","name:left:be":"\u0412'\u0435\u0442\u043d\u0430\u043c","name:left:bi":"Vietnam","name:left:bn":"\u09ad\u09bf\u09af\u09bc\u09c7\u09a4\u09a8\u09be\u09ae","name:left:bo":"\u0f5d\u0f72\u0f0b\u0f4f\u0f72\u0f0b\u0f53\u0f58\u0f0d","name:right":"\u1796\u17d2\u179a\u17c7\u179a\u17b6\u1787\u17b6\u178e\u17b6\u1785\u1780\u17d2\u179a\u200b\u1780\u1798\u17d2\u1796\u17bb\u1787\u17b6","name:left:yo":"Fi\u1eb9tn\u00e1m","name:left:yi":"\u05d5\u05d5\u05d9\u05e2\u05d8\u05e0\u05d0\u05dd","id:left":-49915,"name:right:fi":"Kambod\u017ea","name:left:io":"Vietnam","name:left:ik":"Vietnam","name:left:pa":"\u0a35\u0a40\u0a05\u0a24\u0a28\u0a3e\u0a2e","name:left:pl":"Wietnam","name:left:ie":"Viet-Nam","name:left:id":"Vietnam","name:right:km":"\u1796\u17d2\u179a\u17c7\u179a\u17b6\u1787\u17b6\u178e\u17b6\u1785\u1780\u17d2\u179a\u1780\u1798\u17d2\u1796\u17bb\u1787\u17b6","name:left:ml":"\u0d35\u0d3f\u0d2f\u0d31\u0d4d\u0d31\u0d4d\u0d28\u0d3e\u0d02","name:right:kn":"\u0c95\u0cbe\u0c82\u0cac\u0ccb\u0ca1\u0cbf\u0caf","name:left:pt":"Vietname","name:right:th":"\u0e1b\u0e23\u0e30\u0e40\u0e17\u0e28\u0e01\u0e31\u0e21\u0e1e\u0e39\u0e0a\u0e32","name:right:kw":"Kamboji","name:right:kv":"\u041a\u0430\u043c\u0431\u043e\u0434\u0436\u0430","name:left:zh-min-nan":"Oa\u030dt-l\u00e2m","name:left:it":"Vietnam","name:left:is":"V\u00edetnam","name:right:ta":"\u0b95\u0bae\u0bcd\u0baa\u0bcb\u0b9f\u0bbf\u0baf\u0bbe","name:right:de":"Kambodscha","name:right:da":"Cambodja","name:left:rn":"Vietnam","maritime_boundary":true,"name:right:dz":"\u0f40\u0f58\u0f0b\u0f56\u0f7c\u0f0b\u0f4c\u0f72\u0f0b\u0f61\u0f0b","name:right:dv":"\u0786\u07ac\u0782\u07b0\u0784\u07af\u0791\u07a8\u0787\u07a7","name:right:ht":"Kanb\u00f2dj"},"arcs":[0]},{"type":"LineString","properties":{"name:cy":"Cambodia","name:ko":"\uce84\ubcf4\ub514\uc544","name:cv":"\u041a\u0430\u043c\u0431\u043e\u0434\u0436\u0430","name:km":"\u1796\u17d2\u179a\u17c7\u179a\u17b6\u1787\u17b6\u178e\u17b6\u1785\u1780\u17d2\u179a\u1780\u1798\u17d2\u1796\u17bb\u1787\u17b6","name:cs":"Kambod\u017ea","name:tt":"\u041a\u0430\u043c\u0431\u043e\u0497\u0430","name:kw":"Kamboji","name:kv":"\u041a\u0430\u043c\u0431\u043e\u0434\u0436\u0430","name:ku":"Kamboca","name:tl":"Kamboya","name:ce":"\u041a\u0430\u043c\u0431\u043e\u0434\u0436\u0430","name:ta":"\u0b95\u0bae\u0bcd\u0baa\u0bcb\u0b9f\u0bbf\u0baf\u0bbe","name:tg":"\u041a\u0430\u043c\u0431\u043e\u04b7\u0430","name:ca":"Cambodja","name:te":"\u0c15\u0c02\u0c2c\u0c4b\u0c21\u0c3f\u0c2f\u0c3e","name:ka":"\u10d9\u10d0\u10db\u10d1\u10dd\u10ef\u10d0","name:qu":"Kambuya","name:da":"Cambodja","name:de":"Kambodscha","name:dz":"\u0f40\u0f58\u0f0b\u0f56\u0f7c\u0f0b\u0f4c\u0f72\u0f0b\u0f61\u0f0b","source":"openstreetmap.org","name:kn":"\u0c95\u0cbe\u0c82\u0cac\u0ccb\u0ca1\u0cbf\u0caf","name:dv":"\u0786\u07ac\u0782\u07b0\u0784\u07af\u0791\u07a8\u0787\u07a7","name:lv":"Kambod\u017ea","name:lt":"Kambod\u017ea","name:uz":"Kambodja","name:kk":"\u041a\u0430\u043c\u0431\u043e\u0434\u0436\u0430","name:ur":"\u06a9\u0645\u0628\u0648\u0688\u06cc\u0627","name:lb":"Kambodscha","name:la":"Cambosia","name:uk":"\u041a\u0430\u043c\u0431\u043e\u0434\u0436\u0430","name:ug":"\u0643\u0627\u0645\u0628\u0648\u062c\u0627","name:li":"Cambodja","name:ln":"Kamboji","name:lo":"\u0e9b\u0eb0\u0ec0\u0e97\u0e94\u0e81\u0eb3\u0e9b\u0eb9\u0ec0\u0e88\u0e8d","name:el":"\u039a\u03b1\u03bc\u03c0\u03cc\u03c4\u03b6\u03b7","name:eo":"Kambo\u011do","name:en":"Cambodia","name":"\u1796\u17d2\u179a\u17c7\u179a\u17b6\u1787\u17b6\u178e\u17b6\u1785\u1780\u17d2\u179a\u200b\u1780\u1798\u17d2\u1796\u17bb\u1787\u17b6","name:tk":"Kambo\u00e7i\u00fda","name:th":"\u0e1b\u0e23\u0e30\u0e40\u0e17\u0e28\u0e01\u0e31\u0e21\u0e1e\u0e39\u0e0a\u0e32","name:eu":"Kanbodia","name:et":"Kambod\u017ea","name:es":"Camboya","name:ia":"Cambodgia","name:rm":"Cambodscha","name:az":"Kamboca","name:ie":"Cambodja","name:id":"Kamboja","name:ar":"\u0643\u0645\u0628\u0648\u062f\u064a\u0627","name:io":"Kambodja","name:is":"Kamb\u00f3d\u00eda","name:am":"\u12ab\u121d\u1266\u12f2\u12eb","name:it":"Cambogia","name:an":"Cambocha","name:ru":"\u041a\u0430\u043c\u0431\u043e\u0434\u0436\u0430","name:rw":"Kambodiya","name:af":"Kambodja","kind_detail":"2","name:zh-yue":"\u67ec\u57d4\u5be8","name:zh":"\u67ec\u57d4\u5be8","name:so":"Kambodiya","name:sl":"Kambod\u017ea","name:sk":"Kambod\u017ea","name:ja":"\u30ab\u30f3\u30dc\u30b8\u30a2","name:si":"\u0d9a\u0dcf\u0db8\u0dca\u0db6\u0ddd\u0da2\u0dba","name:sh":"Kambod\u017ea","name:se":"Kampu\u010dea","name:br":"Kambodja","name:bs":"Kambod\u017ea","name:bn":"\u0995\u09ae\u09cd\u09ac\u09cb\u09a1\u09bf\u09af\u09bc\u09be","name:bo":"\u0f41\u0f58\u0f0b\u0f54\u0f7c\u0f0b\u0f5b\u0f0d","name:sw":"Kamboja","name:be":"\u041a\u0430\u043c\u0431\u043e\u0434\u0436\u0430","name:su":"Kamboja","name:bg":"\u041a\u0430\u043c\u0431\u043e\u0434\u0436\u0430","name:ss":"IKhambodiya","name:ba":"\u041a\u0430\u043c\u0431\u043e\u0434\u0436\u0430","name:sq":"Kamboxhia","name:jv":"Kamboja","name:pt":"Camboja","name:ps":"\u06a9\u0645\u0628\u0648\u062f\u06cc\u0627","name:oc":"Camb\u00f2tja","min_zoom":8.0,"name:ro":"Cambodgia","name:zh-min-nan":"Kampuchea","name:os":"\u041a\u0430\u043c\u0431\u043e\u0434\u0436\u00e6","name:or":"\u0b15\u0b2e\u0b4d\u0b2c\u0b4b\u0b21\u0b3c\u0b3f\u0b06","name:pl":"Kambod\u017ca","sort_rank":262,"name:sr":"\u041a\u0430\u043c\u0431\u043e\u045f\u0430","osm_relation":true,"name:pa":"\u0a15\u0a70\u0a2c\u0a4b\u0a21\u0a40\u0a06","name:tr":"Kambo\u00e7ya","name:hi":"\u0915\u092e\u094d\u092c\u094b\u0921\u093f\u092f\u093e","name:sv":"Kambodja","name:he":"\u05e7\u05de\u05d1\u05d5\u05d3\u05d9\u05d4","name:ha":"Kambodiya","name:hy":"\u053f\u0561\u0574\u0562\u0578\u057b\u0561","name:ht":"Kanb\u00f2dj","name:hu":"Kambodzsa","name:hr":"Kambod\u017ea","kind":"country","name:yi":"\u05e7\u05d0\u05de\u05d1\u05d0\u05d3\u05d9\u05e2","name:yo":"K\u00e0mb\u00f3d\u00ed\u00e0","name:mt":"Kambodja","name:ms":"Kemboja","name:mr":"\u0915\u0902\u092c\u094b\u0921\u093f\u092f\u093e","name:my":"\u1000\u1019\u1039\u1018\u1031\u102c\u1012\u102e\u1038\u101a\u102c\u1038\u1014\u102d\u102f\u1004\u103a\u1004\u1036","int_name":"Cambodia","name:mg":"Kambodia","name:vi":"Campuchia","name:ml":"\u0d15\u0d02\u0d2c\u0d4b\u0d21\u0d3f\u0d2f","name:mn":"\u041a\u0430\u043c\u0431\u043e\u0436","name:mi":"Kamap\u014dtia","id":-49898,"name:mk":"\u041a\u0430\u043c\u0431\u043e\u045f\u0430","name:vo":"Kamboc\u00e4n","name:fa":"\u06a9\u0627\u0645\u0628\u0648\u062c","name:fi":"Kambod\u017ea","name:fo":"Kambodja","name:fr":"Cambodge","name:fy":"Kambodja","name:nl":"Cambodja","name:nn":"Kambodsja","name:no":"Kambodsja","name:na":"Kambodja","name:wo":"Kamboodi","name:ga":"An Chamb\u00f3id","name:gd":"Cambuidea","name:gn":"Kamboja","name:gl":"Camboxa - \u1780\u1798\u17d2\u1796\u17bb\u1787\u17b6","maritime_boundary":true,"name:gv":"Yn Chamboyd","name:gu":"\u0a95\u0aae\u0acd\u0aac\u0acb\u0aa1\u0ac0\u0aaf\u0abe"},"arcs":[1]},{"type":"LineString","properties":{"name:right:ja":"\u30b3\u30f3\u30dd\u30f3\u30b9\u30d7\u30fc","name:left:ja":"\u30b7\u30a2\u30cc\u30fc\u30af\u30d3\u30eb","name:right:km":"\u1781\u17c1\u178f\u17d2\u178f\u1780\u17c6\u1796\u17bb\u1784\u179f\u17d2\u1796\u17ba","id:right":-2215016,"name:right:lt":"Kampongspi provincija","min_zoom":8.0,"id":-3279394,"osm_relation":true,"name:left:en":"Preah Sihanouk","kind":"region","name":"\u1781\u17c1\u178f\u17d2\u178f\u1796\u17d2\u179a\u17c7\u179f\u17b8\u17a0\u1793\u17bb - \u1781\u17c1\u178f\u17d2\u178f\u1780\u17c6\u1796\u1784\u17cb\u179f\u17d2\u1796\u17ba","sort_rank":256,"kind_detail":"4","name:right:en":"Kampong Speu","source":"openstreetmap.org","name:left:fr":"Sihanoukville","id:left":-3279394,"name:right":"\u1781\u17c1\u178f\u17d2\u178f\u1780\u17c6\u1796\u1784\u17cb\u179f\u17d2\u1796\u17ba","name:left":"\u1781\u17c1\u178f\u17d2\u178f\u1796\u17d2\u179a\u17c7\u179f\u17b8\u17a0\u1793\u17bb"},"arcs":[2]},{"type":"MultiLineString","properties":{"name:right:ja":"\u30ab\u30f3\u30dd\u30c3\u30c8","name:left:ja":"\u30b7\u30a2\u30cc\u30fc\u30af\u30d3\u30eb","id:right":-2200183,"min_zoom":8.0,"id":-3279394,"osm_relation":true,"name:left:en":"Preah Sihanouk","kind":"region","name":"\u1781\u17c1\u178f\u17d2\u178f\u1796\u17d2\u179a\u17c7\u179f\u17b8\u17a0\u1793\u17bb - \u1781\u17c1\u178f\u17d2\u178f\u1780\u17c6\u1796\u178f","sort_rank":256,"kind_detail":"4","name:right:en":"Kampot","source":"openstreetmap.org","name:left:fr":"Sihanoukville","id:left":-3279394,"name:right":"\u1781\u17c1\u178f\u17d2\u178f\u1780\u17c6\u1796\u178f","name:left":"\u1781\u17c1\u178f\u17d2\u178f\u1796\u17d2\u179a\u17c7\u179f\u17b8\u17a0\u1793\u17bb"},"arcs":[[3],[4],[5]]},{"type":"LineString","properties":{"name:right:ja":"\u30ab\u30f3\u30dd\u30c3\u30c8","name:left:ja":"\u30b7\u30a2\u30cc\u30fc\u30af\u30d3\u30eb","id:right":-2200183,"min_zoom":8.0,"id":-3279394,"osm_relation":true,"name":"\u1781\u17c1\u178f\u17d2\u178f\u1796\u17d2\u179a\u17c7\u179f\u17b8\u17a0\u1793\u17bb - \u1781\u17c1\u178f\u17d2\u178f\u1780\u17c6\u1796\u178f","kind":"region","name:left:en":"Preah Sihanouk","sort_rank":256,"kind_detail":"4","name:right:en":"Kampot","source":"openstreetmap.org","maritime_boundary":true,"name:left:fr":"Sihanoukville","id:left":-3279394,"name:right":"\u1781\u17c1\u178f\u17d2\u178f\u1780\u17c6\u1796\u178f","name:left":"\u1781\u17c1\u178f\u17d2\u178f\u1796\u17d2\u179a\u17c7\u179f\u17b8\u17a0\u1793\u17bb"},"arcs":[6]},{"type":"LineString","properties":{"name:right:ja":"\u30b3\u30b3\u30f3","name:left:ja":"\u30b7\u30a2\u30cc\u30fc\u30af\u30d3\u30eb","id:right":-2199066,"min_zoom":8.0,"name:right:ru":"\u041a\u043e\u0445\u043a\u043e\u043d\u0433","id":-3279394,"osm_relation":true,"name:right":"\u1781\u17c1\u178f\u17d2\u178f\u1780\u17c4\u17c7\u1780\u17bb\u1784","kind":"region","name:left:en":"Preah Sihanouk","sort_rank":256,"kind_detail":"4","name":"\u1781\u17c1\u178f\u17d2\u178f\u1796\u17d2\u179a\u17c7\u179f\u17b8\u17a0\u1793\u17bb - \u1781\u17c1\u178f\u17d2\u178f\u1780\u17c4\u17c7\u1780\u17bb\u1784","source":"openstreetmap.org","name:left:fr":"Sihanoukville","name:right:en":"Koh Kong","id:left":-3279394,"name:left":"\u1781\u17c1\u178f\u17d2\u178f\u1796\u17d2\u179a\u17c7\u179f\u17b8\u17a0\u1793\u17bb"},"arcs":[7]},{"type":"LineString","properties":{"name:right:ja":"\u30b3\u30b3\u30f3","name:left:ja":"\u30b7\u30a2\u30cc\u30fc\u30af\u30d3\u30eb","id:right":-2199066,"min_zoom":8.0,"name:right:ru":"\u041a\u043e\u0445\u043a\u043e\u043d\u0433","id":-3279394,"osm_relation":true,"name:right":"\u1781\u17c1\u178f\u17d2\u178f\u1780\u17c4\u17c7\u1780\u17bb\u1784","kind":"region","name:left:en":"Preah Sihanouk","sort_rank":256,"kind_detail":"4","name":"\u1781\u17c1\u178f\u17d2\u178f\u1796\u17d2\u179a\u17c7\u179f\u17b8\u17a0\u1793\u17bb - \u1781\u17c1\u178f\u17d2\u178f\u1780\u17c4\u17c7\u1780\u17bb\u1784","source":"openstreetmap.org","maritime_boundary":true,"name:left:fr":"Sihanoukville","name:right:en":"Koh Kong","id:left":-3279394,"name:left":"\u1781\u17c1\u178f\u17d2\u178f\u1796\u17d2\u179a\u17c7\u179f\u17b8\u17a0\u1793\u17bb"},"arcs":[8]},{"type":"LineString","properties":{"name:right:ja":"\u30ad\u30a8\u30f3\u30b6\u30f3","name:left:ja":"\u30b7\u30a2\u30cc\u30fc\u30af\u30d3\u30eb","id:right":-1874471,"min_zoom":8.0,"id":-3279394,"osm_relation":true,"name":"\u1781\u17c1\u178f\u17d2\u178f\u1796\u17d2\u179a\u17c7\u179f\u17b8\u17a0\u1793\u17bb - T\u1ec9nh Ki\u00ean Giang","kind":"region","name:left:en":"Preah Sihanouk","sort_rank":256,"kind_detail":"4","name:right:en":"Kien Giang Province","source":"openstreetmap.org","maritime_boundary":true,"name:left:fr":"Sihanoukville","id:left":-3279394,"name:right":"T\u1ec9nh Ki\u00ean Giang","name:left":"\u1781\u17c1\u178f\u17d2\u178f\u1796\u17d2\u179a\u17c7\u179f\u17b8\u17a0\u1793\u17bb"},"arcs":[9]},{"type":"LineString","properties":{"kind":"region","name:en":"Preah Sihanouk","name":"\u1781\u17c1\u178f\u17d2\u178f\u1796\u17d2\u179a\u17c7\u179f\u17b8\u17a0\u1793\u17bb","sort_rank":256,"kind_detail":"4","min_zoom":8.0,"name:fr":"Sihanoukville","source":"openstreetmap.org","maritime_boundary":true,"id":-3279394,"osm_relation":true,"name:ja":"\u30b7\u30a2\u30cc\u30fc\u30af\u30d3\u30eb"},"arcs":[10]},{"type":"LineString","properties":{"name:right:ja":"\u30ab\u30f3\u30dd\u30c3\u30c8","name:left:km":"\u1781\u17c1\u178f\u17d2\u178f\u1780\u17c6\u1796\u17bb\u1784\u179f\u17d2\u1796\u17ba","name:left:ja":"\u30b3\u30f3\u30dd\u30f3\u30b9\u30d7\u30fc","id:right":-2200183,"min_zoom":8.0,"name:left:lt":"Kampongspi provincija","id":-2215016,"osm_relation":true,"name:left:en":"Kampong Speu","kind":"region","name":"\u1781\u17c1\u178f\u17d2\u178f\u1780\u17c6\u1796\u1784\u17cb\u179f\u17d2\u1796\u17ba - \u1781\u17c1\u178f\u17d2\u178f\u1780\u17c6\u1796\u178f","sort_rank":256,"kind_detail":"4","name:right:en":"Kampot","source":"openstreetmap.org","id:left":-2215016,"name:right":"\u1781\u17c1\u178f\u17d2\u178f\u1780\u17c6\u1796\u178f","name:left":"\u1781\u17c1\u178f\u17d2\u178f\u1780\u17c6\u1796\u1784\u17cb\u179f\u17d2\u1796\u17ba"},"arcs":[11]},{"type":"LineString","properties":{"name:right:ja":"\u30ad\u30a8\u30f3\u30b6\u30f3","name:left:ja":"\u30ab\u30f3\u30dd\u30c3\u30c8","id:right":-1874471,"min_zoom":8.0,"id":-2200183,"osm_relation":true,"name":"\u1781\u17c1\u178f\u17d2\u178f\u1780\u17c6\u1796\u178f - T\u1ec9nh Ki\u00ean Giang","kind":"region","name:left:en":"Kampot","sort_rank":256,"kind_detail":"4","name:right:en":"Kien Giang Province","source":"openstreetmap.org","maritime_boundary":true,"id:left":-2200183,"name:right":"T\u1ec9nh Ki\u00ean Giang","name:left":"\u1781\u17c1\u178f\u17d2\u178f\u1780\u17c6\u1796\u178f"},"arcs":[12]}]},"roads":{"type":"GeometryCollection","geometries":[{"type":"MultiLineString","properties":{"sort_rank":380,"kind_detail":"primary","min_zoom":8.0,"kind":"major_road","source":"openstreetmap.org"},"arcs":[[22],[23],[24],[25]]},{"type":"LineString","properties":{"source":"openstreetmap.org","kind":"major_road","sort_rank":381,"kind_detail":"trunk","min_zoom":8.0,"id":467960668},"arcs":[26]},{"type":"LineString","properties":{"source":"openstreetmap.org","kind":"ferry","name":"Ha Tien - Phu Quoc fast ferry","sort_rank":355,"min_zoom":8.0,"id":167372110},"arcs":[27]},{"type":"MultiLineString","properties":{"source":"openstreetmap.org","kind":"major_road","network":"AsianHighway","sort_rank":381,"kind_detail":"trunk","min_zoom":8.0,"shield_text":"11"},"arcs":[[28],[29]]},{"type":"LineString","properties":{"source":"openstreetmap.org","kind":"ferry","name":"SHV - Koh Rong Palm Beach Resort Ferry","sort_rank":355,"min_zoom":8.0,"id":374241357},"arcs":[30]},{"type":"LineString","properties":{"source":"openstreetmap.org","kind":"ferry","name":"An Thoi - Hon Thom ferry","sort_rank":355,"min_zoom":8.0,"id":482528359},"arcs":[31]},{"type":"MultiLineString","properties":{"kind":"major_road","network":"AsianHighway","sort_rank":380,"kind_detail":"primary","source":"openstreetmap.org","min_zoom":8.0,"shield_text":"123","ref":"48;AH123"},"arcs":[[32],[33],[34],[35]]},{"type":"MultiLineString","properties":{"kind":"major_road","name:en":"National Highway 4","network":"AsianHighway","sort_rank":381,"kind_detail":"trunk","source":"openstreetmap.org","min_zoom":8.0,"landuse_kind":"park","shield_text":"11","ref":"4;AH11"},"arcs":[[36],[37]]},{"type":"MultiLineString","properties":{"kind":"major_road","network":"AsianHighway","sort_rank":380,"kind_detail":"primary","source":"openstreetmap.org","min_zoom":8.0,"landuse_kind":"park","shield_text":"123","ref":"48;AH123","id":54030058},"arcs":[[38],[39]]},{"type":"MultiLineString","properties":{"sort_rank":355,"source":"openstreetmap.org","min_zoom":8.0,"kind":"ferry"},"arcs":[[40],[41]]},{"type":"MultiLineString","properties":{"source":"openstreetmap.org","kind":"ferry","name":"SHV - Koh Rong Sanloem Ferry","sort_rank":355,"min_zoom":8.0,"id":380953684},"arcs":[[42],[43]]},{"type":"MultiLineString","properties":{"kind":"major_road","name:en":"National Highway 3","network":"AsianHighway","sort_rank":381,"kind_detail":"trunk","source":"openstreetmap.org","min_zoom":8.0,"shield_text":"123","ref":"3"},"arcs":[[44],[45]]},{"type":"LineString","properties":{"kind":"major_road","network":"AsianHighway","sort_rank":380,"kind_detail":"primary","source":"openstreetmap.org","min_zoom":8.0,"shield_text":"11","id":415816999},"arcs":[46]},{"type":"MultiLineString","properties":{"kind":"major_road","network":"AsianHighway","sort_rank":380,"kind_detail":"primary","source":"openstreetmap.org","min_zoom":8.0,"landuse_kind":"national_park","shield_text":"123","ref":"48;AH123","id":54030058},"arcs":[[47],[48]]},{"type":"LineString","properties":{"source":"openstreetmap.org","kind":"major_road","name:en":"Hung Vuong","sort_rank":380,"kind_detail":"primary","min_zoom":8.0},"arcs":[49]},{"type":"MultiLineString","properties":{"kind":"major_road","name:en":"National Highway 4","network":"AsianHighway","sort_rank":381,"kind_detail":"trunk","source":"openstreetmap.org","min_zoom":8.0,"shield_text":"11","ref":"4;AH11;AH123"},"arcs":[[50],[51]]},{"type":"MultiLineString","properties":{"source":"openstreetmap.org","kind":"major_road","sort_rank":380,"kind_detail":"primary","ref":"46","min_zoom":8.0},"arcs":[[52],[53],[54]]},{"type":"LineString","properties":{"source":"openstreetmap.org","kind":"ferry","name":"Koh Rong - Koh Rong Sanloem Speed Ferry","sort_rank":355,"min_zoom":8.0,"id":403256346},"arcs":[55]},{"type":"MultiLineString","properties":{"source":"openstreetmap.org","kind":"major_road","name:en":"Nguyen Trung Truc","sort_rank":380,"kind_detail":"primary","min_zoom":8.0,"name:fr":"Nguyen Trung Truc"},"arcs":[[56],[57]]},{"type":"MultiLineString","properties":{"source":"openstreetmap.org","kind":"major_road","network":"AsianHighway","sort_rank":381,"kind_detail":"trunk","min_zoom":8.0,"shield_text":"123"},"arcs":[[58],[59],[60],[61]]},{"type":"MultiLineString","properties":{"sort_rank":355,"source":"openstreetmap.org","min_zoom":8.0,"kind":"ferry","name":"Ha Tien - Phu Quoc car ferry"},"arcs":[[62],[63]]},{"type":"MultiLineString","properties":{"source":"openstreetmap.org","kind":"major_road","sort_rank":380,"kind_detail":"primary","ref":"47","min_zoom":8.0},"arcs":[[64],[65],[66],[67],[68],[69]]},{"type":"LineString","properties":{"source":"openstreetmap.org","kind":"ferry","name":"SHV - Koh Russei - Koh Ta Kiev Ferry","sort_rank":355,"min_zoom":8.0,"id":29873178},"arcs":[70]},{"type":"MultiLineString","properties":{"kind":"major_road","name:en":"National Highway 3","network":"AsianHighway","sort_rank":381,"kind_detail":"trunk","source":"openstreetmap.org","min_zoom":8.0,"shield_text":"123","ref":"3;AH123"},"arcs":[[71],[72],[73],[74],[75]]},{"type":"MultiLineString","properties":{"kind":"major_road","name:en":"National Highway 4","network":"AsianHighway","sort_rank":381,"kind_detail":"trunk","source":"openstreetmap.org","min_zoom":8.0,"shield_text":"11","ref":"4"},"arcs":[[76],[77]]},{"type":"LineString","properties":{"source":"openstreetmap.org","kind":"ferry","sort_rank":355,"landuse_kind":"national_park","min_zoom":8.0,"id":382457024},"arcs":[78]},{"type":"LineString","properties":{"kind":"major_road","network":"AsianHighway","sort_rank":381,"kind_detail":"trunk","name:km":"\u179f\u17d2\u1796\u17b6\u1793\u1791\u17ba\u1780\u179f\u17b6\u1794","source":"openstreetmap.org","min_zoom":8.0,"landuse_kind":"park","shield_text":"11","id":29871997},"arcs":[79]},{"type":"MultiLineString","properties":{"kind":"major_road","name:en":"National Highway 4","network":"AsianHighway","sort_rank":381,"kind_detail":"trunk","source":"openstreetmap.org","min_zoom":8.0,"shield_text":"11","ref":"4;AH11"},"arcs":[[80],[81],[82],[83]]},{"type":"LineString","properties":{"source":"openstreetmap.org","kind":"major_road","network":"AsianHighway","sort_rank":380,"kind_detail":"primary","min_zoom":8.0,"shield_text":"123"},"arcs":[84]},{"type":"LineString","properties":{"source":"openstreetmap.org","kind":"ferry","name":"Rach Gia - Phu Quoc fast ferry","sort_rank":355,"min_zoom":8.0,"id":167372107},"arcs":[85]},{"type":"MultiLineString","properties":{"kind":"major_road","network":"AsianHighway","sort_rank":380,"kind_detail":"primary","source":"openstreetmap.org","min_zoom":8.0,"shield_text":"123","ref":"48"},"arcs":[[86],[87]]},{"type":"LineString","properties":{"source":"openstreetmap.org","kind":"ferry","name":"SHV - Koh Rong fast Ferry","sort_rank":355,"min_zoom":8.0,"id":314507313},"arcs":[88]},{"type":"LineString","properties":{"source":"openstreetmap.org","kind":"ferry","name":"SHV - Koh Rong Ferry","sort_rank":355,"min_zoom":8.0,"id":184298550},"arcs":[89]},{"type":"LineString","properties":{"kind":"major_road","name:en":"National Highway 4","network":"AsianHighway","sort_rank":380,"kind_detail":"primary","source":"openstreetmap.org","min_zoom":8.0,"shield_text":"11","ref":"4;AH11","id":91380743},"arcs":[90]}]},"earth":{"type":"GeometryCollection","geometries":[{"type":"MultiPolygon","properties":{"sort_rank":10,"source":"naturalearthdata.com","min_zoom":0.0,"kind":"earth","area":5274387877},"arcs":[[[91]],[[92]],[[93]],[[94]],[[95]]]},{"type":"Point","properties":{"label_placement":true,"kind":"island","name:en":"Phu Quoc District","name":"Huy\u1ec7n Ph\u00fa Qu\u1ed1c","name:lt":"Fukuokas","area":580649024,"name:km":"\u1780\u17c4\u17c7\u178f\u17d2\u179a\u179b\u17cb","name:de":"Phu Quoc","source":"openstreetmap.org","min_zoom":8.0,"old_name":"Koh Trol","name:zh":"\u5bcc\u56fd\u53bf","id":-7135978,"osm_relation":true},"coordinates":[3956,1283]}]},"landuse":{"type":"GeometryCollection","geometries":[{"type":"MultiPolygon","properties":{"kind":"national_park","protect_class":"2","area":1224685949,"sort_rank":18,"source":"openstreetmap.org","min_zoom":3.0,"tier":1,"osm_relation":true},"arcs":[[[96]],[[97]]]},{"type":"Polygon","properties":{"kind":"park","area":137523008,"sort_rank":24,"source":"openstreetmap.org","min_zoom":7.0,"tier":2,"id":-2201410,"osm_relation":true},"arcs":[[98]]},{"type":"Polygon","properties":{"kind":"national_park","protect_class":"2","area":1486659968,"sort_rank":18,"source":"openstreetmap.org","min_zoom":3.0,"tier":1,"id":165271930},"arcs":[[99]]},{"type":"Polygon","properties":{"kind":"park","protect_class":"1","area":1786560000,"sort_rank":24,"source":"openstreetmap.org","min_zoom":4.0,"tier":2,"id":-6243786,"osm_relation":true},"arcs":[[100]]},{"type":"Polygon","properties":{"source":"openstreetmap.org","kind":"residential","area":10480700,"tier":2,"id":490623071,"min_zoom":8.0,"sort_rank":20},"arcs":[[101]]},{"type":"Polygon","properties":{"kind":"park","natural":"wood","area":204506000,"sort_rank":24,"source":"openstreetmap.org","min_zoom":6.0,"tier":2,"id":274014817},"arcs":[[102]]}]}},"type":"Topology","transform":{"translate":[102.65625,9.7956775828],"scale":[0.0003433228,0.0003375792]},"arcs":[[[4096,1913],[-150,115],[-115,-1],[-131,-147],[-36,-119],[-223,35],[-95,-54],[-14,-48],[77,-227],[216,-88],[66,-129],[27,-135],[7,-54],[-219,-443],[-853,-618]],[[0,1361],[80,-1000],[38,-187],[98,-166],[7,-8]],[[4068,4074],[-43,22]],[[3642,2301],[68,142],[35,-14],[33,24],[41,138],[-30,111],[-33,13],[-63,110],[-7,57],[37,32],[-3,68],[35,57],[-66,89],[27,34],[-42,40],[45,75],[3,110],[-52,49],[164,113],[68,78],[62,0],[14,-32],[118,46]],[[4096,4039],[-28,35]],[[4096,3730],[0,23]],[[3441,1796],[201,505]],[[3557,4096],[28,-63],[-47,-25],[-35,-105],[-56,-51],[24,-69],[-149,-74],[-32,-68],[29,-255],[-128,-54],[-39,-73],[-24,27],[-33,-27],[-14,42],[-94,-26]],[[2987,3275],[-2987,-713]],[[2653,0],[853,618],[219,443],[-34,189],[-66,129],[-216,88],[-77,227],[14,48],[95,54]],[[0,1373],[80,-1012],[38,-187],[98,-166],[7,-8]],[[4068,4074],[28,2]],[[3441,1796],[223,-35],[36,119],[131,147],[115,1],[150,-115]],[[1302,4096],[30,-51],[12,-36],[4,-50],[-9,-54],[-21,-40],[-20,-31],[-10,-28],[7,-81],[28,-152],[7,-92],[-13,-11],[-24,-47],[-13,-51],[18,-24],[22,-11],[89,-70],[-39,-51],[35,-15],[68,-7],[56,-28],[18,22],[27,14],[35,6],[41,-2],[-11,43],[51,46],[119,73],[61,-37],[72,-31],[61,-42],[24,-70],[35,15],[13,10],[12,14],[39,-12],[46,10],[40,29],[16,44],[-3,35],[-14,47],[-2,29],[7,34],[32,78],[8,66],[19,55],[74,135],[22,54],[-6,31],[-59,-27],[59,85],[18,44],[-17,35],[0,18],[37,-10],[9,-8],[14,-20],[21,0],[40,60],[-12,7],[-2,1],[-1,2],[-7,11],[89,-10],[84,-31],[63,-54],[34,-106],[26,-23],[35,-15],[86,-10],[28,-11],[56,-44],[-44,-100],[56,-147],[84,-148],[43,-105],[6,-115],[-6,-34],[-26,-41],[-35,-25],[-34,-18],[-24,-21],[-10,-23],[-17,-129],[10,-18],[38,-12],[0,-14],[0,-6],[-11,0],[-2,0],[-228,-10],[-112,-33],[-48,-69],[-11,-42],[-26,-58],[-30,-51],[-23,-22],[-38,-27],[-15,-55],[15,-38],[49,21],[58,-45],[29,-31],[23,-69],[25,-21],[27,-13],[18,-5],[15,3],[9,10],[13,9],[23,-2],[13,-13],[7,-39],[9,-9],[-2,-18],[5,-42],[19,-42],[40,-19],[53,2],[109,24],[96,-6],[61,23],[-15,51],[-54,55],[-62,33],[0,20],[21,-10],[49,-2],[29,-8],[23,-18],[13,-20],[17,-16],[38,-7],[69,1],[49,7],[37,18],[34,35],[64,91],[25,51],[11,51],[-20,110],[-2,63],[22,59],[8,-17],[5,-44],[8,-18],[3,-12],[-3,-14],[-1,-11],[11,-5],[41,2],[9,-2],[64,-118],[5,-22],[80,-69],[40,-12],[49,-4],[252,-71],[0,-496],[-154,163],[22,-20],[-36,34],[-34,-2],[-28,-24],[-21,-27],[-10,-29],[-4,-33],[-10,-29],[-26,-12],[-12,-10],[-31,-46],[-7,-14],[-24,-24],[-57,-4],[-183,27],[-15,-9],[9,-32],[24,-117],[37,-38],[111,-57],[84,-68],[58,-95],[77,-222],[40,-250],[39,-131],[59,-26],[11,-14],[48,-26],[-9,51],[-11,32],[-1,36],[21,63],[-52,79],[39,163],[46,117],[0,-1170],[-4096,0],[0,4096],[1302,0]],[[3346,1977],[3,63],[-22,63],[-41,28],[-41,5],[-29,-9],[-9,-21],[19,-36],[-23,-25],[-12,-9],[-24,-6],[24,-49],[35,-23],[42,-8],[48,-1],[30,28]],[[1943,2220],[20,25],[13,33],[12,23],[0,22],[-8,11],[-5,1],[-8,-13],[-20,-17],[-21,2],[-15,14],[-4,23],[1,15],[2,14],[28,40],[-6,21],[-17,6],[-33,-4],[-39,-16],[-11,-40],[20,-47],[60,-94],[31,-19]],[[1860,2793],[-16,4],[-19,-1],[-16,4],[-8,10],[-5,21],[-7,10],[-34,36],[-40,33],[-48,14],[-59,-21],[-29,-39],[10,-44],[34,-42],[45,-37],[93,-35],[-2,-7],[5,-14],[7,-32],[13,-34],[25,-21],[19,44],[27,27],[35,16],[38,14],[-2,42],[-22,15],[-25,3],[-12,12],[-7,22]],[[1302,4096],[30,-51],[12,-36],[4,-50],[-9,-54],[-21,-40],[-20,-31],[-10,-28],[7,-81],[28,-152],[7,-92],[-13,-11],[-24,-47],[-13,-51],[18,-24],[22,-11],[89,-70],[-39,-51],[35,-15],[68,-7],[56,-28],[18,22],[27,14],[35,6],[41,-2],[-11,43],[51,46],[119,73],[61,-37],[72,-31],[61,-42],[24,-70],[35,15],[13,10],[12,14],[39,-12],[46,10],[40,29],[16,44],[-3,35],[-14,47],[-2,29],[7,34],[32,78],[8,66],[19,55],[74,135],[22,54],[-6,31],[-59,-27],[59,85],[18,44],[-17,35],[0,18],[37,-10],[9,-8],[14,-20],[21,0],[40,60],[-12,7],[-2,1],[-1,2],[-7,11],[89,-10],[84,-31],[63,-54],[34,-106],[26,-23],[35,-15],[86,-10],[28,-11],[56,-44],[-44,-100],[56,-147],[84,-148],[43,-105],[6,-115],[-6,-34],[-26,-41],[-35,-25],[-34,-18],[-24,-21],[-10,-23],[-17,-129],[10,-18],[38,-12],[0,-14],[0,-6],[-11,0],[-2,0],[-228,-10],[-112,-33],[-48,-69],[-11,-42],[-26,-58],[-30,-51],[-23,-22],[-38,-27],[-15,-55],[15,-38],[49,21],[58,-45],[29,-31],[23,-69],[25,-21],[27,-13],[18,-5],[15,3],[9,10],[13,9],[23,-2],[13,-13],[7,-39],[9,-9],[-2,-18],[5,-42],[19,-42],[40,-19],[53,2],[109,24],[96,-6],[61,23],[-15,51],[-54,55],[-62,33],[0,20],[21,-10],[49,-2],[29,-8],[23,-18],[13,-20],[17,-16],[38,-7],[69,1],[49,7],[37,18],[34,35],[64,91],[25,51],[11,51],[-20,110],[-2,63],[22,59],[8,-17],[5,-44],[8,-18],[3,-12],[-3,-14],[-1,-11],[11,-5],[41,2],[9,-2],[64,-118],[5,-22],[80,-69],[40,-12],[49,-4],[252,-71]],[[1867,2771],[-7,22],[-16,4],[-19,-1],[-16,4],[-8,10],[-5,21],[-7,10],[-34,36],[-40,33],[-48,14],[-59,-21],[-29,-39],[10,-44],[34,-42],[45,-37],[93,-35],[-2,-7],[5,-14],[7,-32],[13,-34],[25,-21],[19,44],[27,27],[35,16],[38,14],[-2,42],[-22,15],[-25,3],[-12,12]],[[3286,2131],[-41,5],[-29,-9],[-9,-21],[19,-36],[-23,-25],[-12,-9],[-24,-6],[24,-49],[35,-23],[42,-8],[48,-1],[30,28],[3,63],[-22,63],[-41,28]],[[4096,1764],[-154,163],[22,-20],[-36,34],[-34,-2],[-28,-24],[-21,-27],[-10,-29],[-4,-33],[-10,-29],[-26,-12],[-12,-10],[-31,-46],[-7,-14],[-24,-24],[-57,-4],[-183,27],[-15,-9],[9,-32],[24,-117],[37,-38],[111,-57],[84,-68],[58,-95],[77,-222],[40,-250],[39,-131],[59,-26],[11,-14],[48,-26],[-9,51],[-11,32],[-1,36],[21,63],[-52,79],[39,163],[46,117]],[[1975,2335],[-8,-13],[-20,-17],[-21,2],[-15,14],[-4,23],[1,15],[2,14],[28,40],[-6,21],[-17,6],[-33,-4],[-39,-16],[-11,-40],[20,-47],[60,-94],[31,-19],[20,25],[13,33],[12,23],[0,22],[-8,11],[-5,1]],[[3325,3707],[-2,0]],[[3875,1330],[20,-15],[-8,-100]],[[3887,1215],[9,100],[-21,15]],[[3965,1123],[1,-1],[0,1],[0,1],[-1,-1]],[[3385,2705],[-2,0]],[[4096,1070],[-70,-33]],[[3384,2704],[1,1]],[[3548,3803],[-1,-1]],[[2505,2534],[-754,306]],[[3956,643],[-19,-154],[16,-25]],[[2868,4096],[-27,-17],[-81,17]],[[2961,4083],[-17,13]],[[3242,3977],[-32,33],[-111,9],[-137,64]],[[3319,3709],[12,113],[-71,30],[-15,114]],[[2944,2344],[21,-3]],[[3022,2340],[-53,1]],[[2291,4083],[-14,13]],[[2322,4089],[-19,-14]],[[1278,3387],[-42,9]],[[1801,2579],[-6,-46],[-37,-2],[-84,172]],[[2505,2534],[-38,-3]],[[2467,2531],[-522,-323],[-46,11],[-79,123],[-12,79],[36,33],[623,77]],[[3384,2704],[1,1]],[[3635,2636],[-31,63]],[[2557,2488],[4,-2]],[[2303,4075],[-12,8]],[[2331,4096],[-9,-7]],[[3829,1248],[5,19]],[[3323,3706],[-31,-67],[14,-204],[72,-155],[-21,-241]],[[3354,2940],[-13,-110],[41,-116]],[[3964,695],[-21,297],[-25,41],[48,90]],[[3965,1122],[-48,-89],[26,-41],[21,-297]],[[3965,667],[-1,28]],[[1800,2577],[136,-129],[-1,-146]],[[3834,1267],[34,30]],[[3868,1297],[9,47],[-39,37],[22,84],[-31,74],[10,51],[-10,-52],[30,-73],[-22,-84],[39,-38],[-8,-46]],[[3383,2705],[1,-1]],[[3520,2731],[-4,-8]],[[3705,2425],[-1,1]],[[3786,2373],[0,1]],[[4096,906],[-102,-59],[4,-28]],[[4096,1041],[-87,-42]],[[3829,1248],[58,-33],[6,-56],[13,-6]],[[3906,1153],[50,-26]],[[3956,1127],[9,-4]],[[3965,1124],[-9,3]],[[3956,1127],[-48,20],[-2,6]],[[3906,1153],[-19,63],[-58,32]],[[2709,2069],[-68,14],[-121,316]],[[3391,2704],[125,19]],[[3604,2699],[-41,56],[-43,-24]],[[3704,2426],[-40,58],[5,83],[-34,69]],[[3786,2374],[-81,51]],[[4096,2270],[-143,21],[-167,82]],[[3357,3039],[-3,-99]],[[3385,2705],[-1,-1]],[[1282,3387],[-4,0]],[[2965,2341],[4,0]],[[2561,2486],[159,-103],[74,20],[63,-47],[87,-12]],[[3381,2699],[-165,-362],[-194,3]],[[3547,3802],[-224,-96]],[[3987,4096],[-439,-293]],[[3323,3707],[-2,-4]],[[4096,1027],[-70,10]],[[2962,4083],[-1,0]],[[3245,3966],[-3,11]],[[2520,2399],[-58,-15],[-662,193]],[[2505,2534],[-705,43]],[[2507,2507],[50,-19]],[[3928,1941],[36,-34],[-22,20],[154,-163],[0,-594],[-46,-117],[-39,-163],[52,-79],[-21,-63],[1,-36],[11,-32],[9,-51],[-48,26],[-11,14],[-59,26],[-39,131],[-40,250],[-77,222],[-58,95],[-84,68],[-111,57],[-37,38],[-24,117],[-9,32],[15,9],[183,-27],[57,4],[24,24],[7,14],[31,46],[12,10],[26,12],[10,29],[4,33],[10,29],[21,27],[28,24],[34,2]],[[1809,2800],[16,-4],[19,1],[16,-4],[7,-22],[12,-12],[25,-3],[22,-15],[2,-42],[-38,-14],[-35,-16],[-27,-27],[-19,-44],[-25,21],[-13,34],[-7,32],[-5,14],[2,7],[-93,35],[-45,37],[-34,42],[-10,44],[29,39],[59,21],[48,-14],[40,-33],[34,-36],[7,-10],[5,-21],[8,-10]],[[3346,1977],[-30,-28],[-48,1],[-42,8],[-35,23],[-24,49],[24,6],[12,9],[23,25],[-19,36],[9,21],[29,9],[41,-5],[41,-28],[22,-63],[-3,-63]],[[1926,2307],[21,-2],[20,17],[8,13],[5,-1],[8,-11],[0,-22],[-12,-23],[-13,-33],[-20,-25],[-31,19],[-60,94],[-20,47],[11,40],[39,16],[33,4],[17,-6],[6,-21],[-28,-40],[-2,-14],[-1,-15],[4,-23],[15,-14]],[[4096,2260],[-252,71],[-49,4],[-40,12],[-80,69],[-5,22],[-64,118],[-9,2],[-41,-2],[-11,5],[1,11],[3,14],[-3,12],[-8,18],[-5,44],[-8,17],[-22,-59],[2,-63],[20,-110],[-11,-51],[-25,-51],[-64,-91],[-34,-35],[-37,-18],[-49,-7],[-69,-1],[-38,7],[-17,16],[-13,20],[-23,18],[-29,8],[-49,2],[-21,10],[0,-20],[62,-33],[54,-55],[15,-51],[-61,-23],[-96,6],[-109,-24],[-53,-2],[-40,19],[-19,42],[-5,42],[2,18],[-9,9],[-7,39],[-13,13],[-23,2],[-13,-9],[-9,-10],[-15,-3],[-18,5],[-27,13],[-25,21],[-23,69],[-29,31],[-58,45],[-49,-21],[-15,38],[15,55],[38,27],[23,22],[30,51],[26,58],[11,42],[48,69],[112,33],[228,10],[2,0],[11,0],[0,6],[0,14],[-38,12],[-10,18],[17,129],[10,23],[24,21],[34,18],[35,25],[26,41],[6,34],[-6,115],[-43,105],[-84,148],[-56,147],[44,100],[-56,44],[-28,11],[-86,10],[-35,15],[-26,23],[-34,106],[-63,54],[-84,31],[-89,10],[7,-11],[1,-2],[2,-1],[12,-7],[-40,-60],[-21,0],[-14,20],[-9,8],[-37,10],[0,-18],[17,-35],[-18,-44],[-59,-85],[59,27],[6,-31],[-22,-54],[-74,-135],[-19,-55],[-8,-66],[-32,-78],[-7,-34],[2,-29],[14,-47],[3,-35],[-16,-44],[-40,-29],[-46,-10],[-39,12],[-12,-14],[-13,-10],[-35,-15],[-24,70],[-61,42],[-72,31],[-61,37],[-119,-73],[-51,-46],[11,-43],[-41,2],[-35,-6],[-27,-14],[-18,-22],[-56,28],[-68,7],[-35,15],[39,51],[-89,70],[-22,11],[-18,24],[13,51],[24,47],[13,11],[-7,92],[-28,152],[-7,81],[10,28],[20,31],[21,40],[9,54],[-4,50],[-12,36],[-30,51],[2794,0],[0,-1836]],[[2274,4096],[32,-23],[23,23],[106,0],[24,-48],[-173,-183],[76,14],[6,-32],[-60,-67],[-6,-74],[-106,-255],[41,-198],[-52,-3],[-59,-49],[-52,17],[-48,-47],[-23,77],[-94,71],[-151,25],[-156,-118],[34,-12],[-104,-28],[-1,-40],[-76,51],[-39,-37],[-59,27],[31,27],[-9,62],[-88,43],[-16,63],[48,89],[-10,160],[-32,159],[-22,9],[56,2],[33,79],[-52,216],[978,0]],[[3818,4096],[-246,-45],[-15,45],[261,0]],[[2784,2155],[92,176],[46,-10],[3,24],[309,-17],[50,-78],[61,-35],[-143,-34],[-65,28],[-7,49],[-52,10],[-6,-33],[75,-66],[-17,-83],[-151,28],[-136,-63],[-55,39],[-4,65]],[[3474,2928],[41,101],[-24,63],[14,128],[155,127],[126,-10],[-33,166],[6,121],[-32,50],[30,119],[88,40],[23,60],[49,26],[52,-24],[35,-77],[64,118],[28,-45],[0,-1569],[-43,15],[-26,-40],[-23,32],[-72,0],[-17,33],[-32,-24],[-148,88],[-136,304],[-32,33],[-61,-19],[12,85],[-44,99]],[[2329,4096],[-23,-23],[-32,23],[55,0]],[[2456,2481],[9,27],[53,4],[-46,-8],[1,-17],[53,4],[3,-28],[48,0],[34,-47],[-56,12],[-27,-14],[18,-31],[-50,74],[-20,-42],[-8,3],[20,45],[-32,18]],[[3728,1679],[34,113],[27,14],[155,-23],[92,33],[39,-29],[19,-49],[2,-498],[-69,-6],[-37,22],[23,45],[-10,72],[-164,164],[5,59],[-86,13],[-30,70]]]}