{"objects":{"water":{"type":"GeometryCollection","geometries":[]},"buildings":{"type":"GeometryCollection","geometries":[]},"places":{"type":"GeometryCollection","geometries":[{"type":"Point","properties":{"name:pt":"Mong\u00f3lia","name:ps":"\u0645\u063a\u0648\u0644\u0633\u062a\u0627\u0646","name:cy":"Mongolia","name:mt":"Mongolja","name:ko":"\ubabd\uace8","name:kn":"\u0cae\u0cca\u0c82\u0c97\u0ccb\u0cb2\u0cbf\u0caf\u0cbe","name:km":"\u1798\u17c9\u17bb\u1784\u17a0\u17d2\u1782\u17c4\u179b\u17b8","name:cs":"Mongolsko","alt_name:eo":"Mongolio","name:ki":"Mongolia","name:tr":"Mo\u011folistan","name:ku":"Mongolya","name:ti":"\u121e\u1295\u130e\u120a\u12eb","name:ks":"\u0645\u064e\u0646\u065b\u06af\u0648\u0644\u0650\u06cc\u0627","name:to":"Mongok\u014dlia","name:tl":"Monggolya","name:sv":"Mongoliet","name:or":"\u0b2e\u0b19\u0b4d\u0b17\u0b4b\u0b32\u0b3f\u0b06","name:pl":"Mongolia","name:ta":"\u0bae\u0b99\u0bcd\u0b95\u0bcb\u0bb2\u0bbf\u0baf\u0bbe","name:tg":"\u041c\u0443\u0493\u0443\u043b\u0438\u0441\u0442\u043e\u043d","name:ca":"Mong\u00f2lia","name:te":"\u0c2e\u0c02\u0c17\u0c4b\u0c32\u0c3f\u0c2f\u0c3e","name:hu":"Mong\u00f3lia","name:ro":"Mongolia","name:ka":"\u10db\u10dd\u10dc\u10e6\u10dd\u10da\u10d4\u10d7\u10d8","name:hr":"Mongolija","name:da":"Mongoliet","name:de":"Mongolei","name:dz":"\u0f66\u0f7c\u0f42\u0f0b\u0f54\u0f7c\u0f0b\u0f61\u0f74\u0f63","source":"openstreetmap.org","name:lv":"Mongolija","name:lt":"Mongolija","name:uz":"Mo\u02bbg\u02bbuliston","name:kk":"\u041c\u043e\u043d\u0493\u043e\u043b\u0438\u044f","name:he":"\u05de\u05d5\u05e0\u05d2\u05d5\u05dc\u05d9\u05d4","kind":"country","name:ur":"\u0645\u0646\u06af\u0648\u0644\u06cc\u0627","name:lb":"Mongolei","name:la":"Mogolia","name:lg":"Mongoliya","name:uk":"\u041c\u043e\u043d\u0433\u043e\u043b\u0456\u044f","name:hy":"\u0544\u0578\u0576\u0572\u0578\u056c\u056b\u0561","min_zoom":2.0,"name:li":"Mongoli\u00eb","name:ln":"Mongol\u00ed","name:lo":"\u0ea1\u0ebb\u0e87\u0ec2\u0e81\u0e99","population":3179997,"name:el":"\u039c\u03bf\u03b3\u03b3\u03bf\u03bb\u03af\u03b1","name:eo":"Mongolujo","name:en":"Mongolia","name":"\u041c\u043e\u043d\u0433\u043e\u043b \u0423\u043b\u0441","name:ee":"Mongolia nutome","name:th":"\u0e1b\u0e23\u0e30\u0e40\u0e17\u0e28\u0e21\u0e2d\u0e07\u0e42\u0e01\u0e40\u0e25\u0e35\u0e22","name:gu":"\u0aae\u0a82\u0a97\u0acb\u0ab2\u0abf\u0aaf\u0abe","name:eu":"Mongolia","name:et":"Mongoolia","name:nl":"Mongoli\u00eb","name:es":"Mongolia","name:ia":"Mongolia","name:rm":"Mongolia","name:rn":"Mongoliya","name:az":"Monqolustan","name:id":"Mongolia","name:ms":"Mongolia","name:mr":"\u092e\u0902\u0917\u094b\u0932\u093f\u092f\u093e","name:ar":"\u0645\u0646\u063a\u0648\u0644\u064a\u0627","name:my":"\u1019\u103d\u1014\u103a\u1002\u102d\u102f\u1038\u101c\u102e\u1038\u101a\u102c\u1038","name:io":"Mongolia","int_name":"Mongolia","name:is":"Mong\u00f3l\u00eda","name:am":"\u121e\u1295\u130e\u120a\u12eb","name:it":"Mongolia","name:vi":"M\u00f4ng C\u1ed5","name:ru":"\u041c\u043e\u043d\u0433\u043e\u043b\u0438\u044f","id":432425040,"name:mk":"\u041c\u043e\u043d\u0433\u043e\u043b\u0438\u0458\u0430","name:af":"Mongoli\u00eb","name:zu":"i-Mongolia","name:ha":"Mangoliya","name:nn":"Mongolia","name:ff":"Monngolii","name:fi":"Mongolia","name:hi":"\u092e\u0902\u0917\u094b\u0932\u093f\u092f\u093e","name:mg":"M\u00f4ng\u00f4lia","name:fo":"Mongolia","name:fr":"Mongolie","name:fy":"Mongoalje","name:vo":"Mongol\u00e4n","name:zh":"\u8499\u53e4\u56fd","name:gv":"Yn Vongoil","name:so":"Mongooliya","name:sn":"Mongolia","name:sl":"Mongolija","name:sk":"Mongolsko","name:ja":"\u30e2\u30f3\u30b4\u30eb","name:si":"\u0db8\u0ddc\u0db1\u0dca\u0d9c\u0ddd\u0dbd\u0dd2\u0dba\u0dcf\u0dc0","name:fa":"\u0645\u063a\u0648\u0644\u0633\u062a\u0627\u0646","name:sg":"Mongol\u00efi","name:se":"Mongolia","name:ne":"\u092e\u0919\u094d\u0917\u094b\u0932\u093f\u092f\u093e","name:br":"Mongolia","name:bs":"Mongolija","name:bm":"Mo\u014boli","name:bn":"\u09ae\u0999\u09cd\u0997\u09cb\u09b2\u09bf\u09af\u09bc\u09be","name:bo":"\u0f66\u0f7c\u0f42\u0f0b\u0f61\u0f74\u0f63\u0f0d","name:ml":"\u0d2e\u0d02\u0d17\u0d4b\u0d33\u0d3f\u0d2f","name:no":"Mongolia","name:sw":"Mongolia","name:be":"\u041c\u0430\u043d\u0433\u043e\u043b\u0456\u044f","name:bg":"\u041c\u043e\u043d\u0433\u043e\u043b\u0438\u044f","name:sr":"\u041c\u043e\u043d\u0433\u043e\u043b\u0438\u0458\u0430","name:sq":"Mongoli","name:ga":"An Mhong\u00f3il","name:gd":"Mong\u00f2ilia","name:gl":"Mongolia","name:yo":"Or\u00edl\u1eb9\u0301\u00e8de Mogolia","name:ak":"M\u0254ngolia"},"coordinates":[3477,3185]},{"type":"Point","properties":{"source":"naturalearthdata.com","kind":"locality","name":"Arvayheer","population":28053,"region_capital":true,"min_zoom":6.0,"id":5168},"coordinates":[321,749]},{"type":"Point","properties":{"kind":"locality","name:en":"Arvaikheer","name":"\u0410\u0440\u0432\u0430\u0439\u0445\u044d\u044d\u0440","kind_detail":"town","source":"openstreetmap.org","min_zoom":8.0,"int_name":"Arvaikheer","id":293967732,"population":27162},"coordinates":[379,826]}]},"transit":{"type":"GeometryCollection","geometries":[]},"pois":{"type":"GeometryCollection","geometries":[]},"boundaries":{"type":"GeometryCollection","geometries":[]},"roads":{"type":"GeometryCollection","geometries":[{"type":"LineString","properties":{"source":"openstreetmap.org","kind":"major_road","sort_rank":381,"kind_detail":"trunk","ref":"A302","min_zoom":8.0},"arcs":[0]},{"type":"LineString","properties":{"sort_rank":380,"kind_detail":"primary","min_zoom":8.0,"kind":"major_road","source":"openstreetmap.org"},"arcs":[1]},{"type":"LineString","properties":{"source":"openstreetmap.org","kind":"major_road","sort_rank":381,"kind_detail":"trunk","min_zoom":8.0,"id":50166175},"arcs":[2]},{"type":"LineString","properties":{"source":"openstreetmap.org","kind":"major_road","sort_rank":381,"kind_detail":"trunk","ref":"A0301","min_zoom":8.0},"arcs":[3]},{"type":"LineString","properties":{"source":"openstreetmap.org","kind":"major_road","sort_rank":381,"kind_detail":"trunk","ref":"A301","min_zoom":8.0,"id":455228435},"arcs":[4]},{"type":"LineString","properties":{"source":"openstreetmap.org","kind":"major_road","kind_detail":"trunk","sort_rank":381,"landuse_kind":"residential","ref":"A302","min_zoom":8.0},"arcs":[5]},{"type":"LineString","properties":{"source":"openstreetmap.org","kind":"major_road","landuse_kind":"residential","sort_rank":381,"kind_detail":"trunk","ref":"A301","min_zoom":8.0},"arcs":[6]}]},"earth":{"type":"GeometryCollection","geometries":[{"type":"Polygon","properties":{"sort_rank":10,"source":"naturalearthdata.com","min_zoom":0.0,"kind":"earth","area":98022885885},"arcs":[[7]]}]},"landuse":{"type":"GeometryCollection","geometries":[{"type":"Polygon","properties":{"kind":"residential","name:en":"Arvaikheer","name":"\u0410\u0440\u0432\u0430\u0439\u0445\u044d\u044d\u0440","area":27705200,"sort_rank":20,"source":"openstreetmap.org","min_zoom":8.0,"int_name":"Arvaikheer","tier":2,"id":61886549},"arcs":[[8]]}]}},"type":"Topology","transform":{"translate":[102.65625,46.0732306254],"scale":[0.0003433228,0.0002360721]},"arcs":[[[0,373],[318,232],[54,74]],[[163,0],[27,282],[43,188],[68,121]],[[504,1323],[4,5]],[[508,1328],[23,44],[-8,108],[61,129],[178,187],[193,149],[79,24],[429,476],[260,224],[166,31],[8,202],[198,300],[247,206],[36,136],[165,64],[31,37],[76,231],[38,220]],[[405,837],[100,223],[7,78],[-64,134],[56,51]],[[372,679],[11,109]],[[383,788],[22,49]],[[4096,2284],[0,-2284],[-4096,0],[0,4096],[4096,0],[0,-1812]],[[284,809],[80,85],[60,-83],[36,22],[32,-46],[-35,-30],[-60,41],[-13,-61],[22,-36],[-36,-23],[-2,43],[-45,16],[-39,72]]]}