{"objects":{"water":{"type":"GeometryCollection","geometries":[{"type":"MultiPolygon","properties":{"source":"naturalearthdata.com","kind":"ocean","area":1576712559132672,"sort_rank":200,"min_zoom":0.0,"id":1},"arcs":[[[1]],[[2]],[[3]],[[4]]]},{"type":"MultiLineString","properties":{"source":"naturalearthdata.com","kind":"ocean","sort_rank":205,"boundary":true,"min_zoom":0.0,"id":38},"arcs":[[5],[6],[7],[8],[9],[10]]}]},"buildings":{"type":"GeometryCollection","geometries":[]},"places":{"type":"GeometryCollection","geometries":[]},"transit":{"type":"GeometryCollection","geometries":[]},"pois":{"type":"GeometryCollection","geometries":[{"type":"Point","properties":{"kind":"nature_reserve","protect_class":"4","area":3646050000,"source":"openstreetmap.org","min_zoom":6.37,"tier":2,"id":-6149201,"osm_relation":true,"name":"Hornstrandir"},"coordinates":[177,3003]}]},"boundaries":{"type":"GeometryCollection","geometries":[{"type":"LineString","properties":{"name:kg":"Islande","name:ka":"\u10d8\u10e1\u10da\u10d0\u10dc\u10d3\u10d8\u10d0","name:ko":"\uc544\uc774\uc2ac\ub780\ub4dc","name:cv":"\u0418\u0441\u043b\u0430\u043d\u0434\u0438","name:cu":"\u0418\u0441\u043b\u0430\u043d\u0434\u044a","name:kl":"Islandi","name:cs":"Island","name:tt":"\u0418\u0441\u043b\u0430\u043d\u0434\u0438\u044f","name:co":"Islanda","name:kv":"\u0418\u0441\u043b\u0430\u043d\u0434\u0438\u044f","name:ku":"\u00ceslenda","name:tl":"Lupangyelo","name:ce":"\u0418\u0441\u043b\u0430\u043d\u0434\u0438","name:ta":"\u0b90\u0b9a\u0bc1\u0bb2\u0bbe\u0ba8\u0bcd\u0ba4\u0bc1","name:tg":"\u0418\u0441\u043b\u0430\u043d\u0434\u0438\u044f","name:ca":"Isl\u00e0ndia","name:te":"\u0c10\u0c38\u0c4d\u200c\u0c32\u0c3e\u0c02\u0c21\u0c4d","name:cy":"Gwlad yr I\u00e2","name:qu":"Islandya","name:da":"Island","name:de":"Island","name:dz":"\u0f68\u0f60\u0f72\u0f66\u0f72\u0f0b\u0f63\u0f7a\u0f53\u0f4c\u0f0b","source":"openstreetmap.org","name:kn":"\u0c90\u0cb8\u0ccd\u200d\u0cb2\u0ccd\u0caf\u0cbe\u0c82\u0ca1\u0ccd","name:dv":"\u0787\u07a6\u0787\u07a8\u0790\u07b0\u078d\u07a6\u0782\u07b0\u0791\u07a6\u0782\u07b0","name:km":"\u1794\u17d2\u179a\u1791\u17c1\u179f\u17a2\u17b6\u1799\u17a1\u17c2\u1793","name:lv":"Islande","name:lt":"Islandija","name:uz":"Islandiya","name:kk":"\u0418\u0441\u043b\u0430\u043d\u0434\u0438\u044f","name:ur":"\u0622\u0626\u0633 \u0644\u06cc\u0646\u0688","name:lb":"Island","name:la":"Islandia","name:lg":"Isilandi","name:uk":"\u0406\u0441\u043b\u0430\u043d\u0434\u0456\u044f","name:ug":"\u0626\u0649\u0633\u0644\u0627\u0646\u062f\u0649\u064a\u06d5","name:li":"Iesland","name:ln":"Islandi","name:lo":"\u0ead\u0eb4\u0e94\u0eaa\u0eb0\u0ea5\u0eb1\u0e87","name:el":"\u0399\u03c3\u03bb\u03b1\u03bd\u03b4\u03af\u03b1","name:eo":"Islando","name:en":"Iceland","name":"\u00cdsland","name:tk":"Islandi\u00fda","name:ee":"Iceland","name:th":"\u0e1b\u0e23\u0e30\u0e40\u0e17\u0e28\u0e44\u0e2d\u0e0b\u0e4c\u0e41\u0e25\u0e19\u0e14\u0e4c","name:eu":"Islandia","name:et":"Island","name:es":"Islandia","name:ia":"Islanda","name:rm":"Islanda","name:az":"\u0130slandiya","name:ie":"Island","name:id":"Islandia","name:ar":"\u0622\u064a\u0633\u0644\u0646\u062f\u0627","name:io":"Islando","name:am":"\u12a0\u12ed\u1235\u120b\u1295\u12f5","name:it":"Islanda","name:an":"Islandia","name:ru":"\u0418\u0441\u043b\u0430\u043d\u0434\u0438\u044f","name:rw":"Isilande","name:af":"Ysland","name:zu":"I-Ayisilandi","kind_detail":"2","name:ky":"\u0418\u0441\u043b\u0430\u043d\u0434\u0438\u044f","name:zh-yue":"\u51b0\u5cf6","name:zh":"\u51b0\u5c9b","name:so":"Island","name:sm":"Aiselani","name:sl":"Islandija","name:sk":"Island","name:ja":"\u30a2\u30a4\u30b9\u30e9\u30f3\u30c9","name:si":"\u0d85\u0dba\u0dd2\u0dc3\u0dca\u0dbd\u0db1\u0dca\u0dad\u0dba","name:sh":"Island","name:sg":"Isl\u00e2nde","name:se":"Isl\u00e1nda","name:sc":"Islanda","name:br":"Island","name:bs":"Island","name:bm":"Aisland","name:bn":"\u0986\u0987\u09b8\u09b2\u09cd\u09af\u09be\u09a8\u09cd\u09a1","name:bo":"\u0f68\u0f61\u0f72\u0f66\u0f74\u0f0b\u0f63\u0f7a\u0f53\u0f0b\u0f4c\u0f0d","name:bi":"Iceland","name:sw":"Iceland","name:be":"\u0406\u0441\u043b\u0430\u043d\u0434\u044b\u044f","name:su":"Islandia","name:bg":"\u0418\u0441\u043b\u0430\u043d\u0434\u0438\u044f","name:ss":"Echweni","name:ba":"\u0418\u0441\u043b\u0430\u043d\u0434\u0438\u044f","name:sq":"Islanda","name:jv":"Islandia","name:sa":"\u0906\u0907\u0938\u0932\u0948\u0902\u0921","name:pt":"Isl\u00e2ndia","name:ps":"\u0622\u064a\u0633\u0644\u06d0\u0646\u0689","name:oc":"Isl\u00e0ndia","min_zoom":8.0,"name:ro":"Islanda","name:zh-min-nan":"Peng-t\u0113","name:os":"\u0418\u0441\u043b\u0430\u043d\u0434\u0438","name:or":"\u0b06\u0b07\u0b38\u0b32\u0b4d\u0b5f\u0b3e\u0b23\u0b4d\u0b21","name:pl":"Islandia","name:st":"Iceland","sort_rank":262,"name:sr":"\u0418\u0441\u043b\u0430\u043d\u0434","osm_relation":true,"name:pa":"\u0a06\u0a08\u0a38\u0a32\u0a48\u0a02\u0a21","name:tr":"\u0130zlanda","name:hi":"\u0906\u0907\u0938\u0932\u0948\u0923\u094d\u0921","name:sv":"Island","name:he":"\u05d0\u05d9\u05e1\u05dc\u05e0\u05d3","name:hy":"\u053b\u057d\u056c\u0561\u0576\u0564\u056b\u0561","name:ht":"Islann","name:hu":"Izland","name:hr":"Island","kind":"country","name:yi":"\u05d0\u05d9\u05e1\u05dc\u05d0\u05e0\u05d3","name:yo":"\u00cdsl\u00e1nd\u00ec","name:mt":"I\u017clanda","name:ms":"Iceland","name:mr":"\u0906\u0907\u0938\u0932\u0901\u0921","name:my":"\u1021\u102d\u102f\u1000\u103a\u1005\u101c\u1014\u103a\u1014\u102d\u102f\u1004\u103a\u1004\u1036","official_name":"L\u00fd\u00f0veldi\u00f0 \u00cdsland","name:kw":"Island","name:vi":"Iceland","name:ml":"\u0d10\u0d38\u0d4d\u200c\u0d32\u0d3e\u0d28\u0d4d\u0d31\u0d4d","name:mn":"\u0418\u0441\u043b\u0430\u043d\u0434","name:mi":"Tiorangi","id":-299133,"name:mk":"\u0418\u0441\u043b\u0430\u043d\u0434","name:vo":"Lislade\u00e4n","name:fa":"\u0627\u06cc\u0633\u0644\u0646\u062f","name:ff":"Islannda","name:fi":"Islanti","name:fr":"Islande","name:fy":"Ysl\u00e2n","int_name":"Iceland","name:nl":"IJsland","name:nn":"Island","name:no":"Island","name:na":"Aiterand","name:ne":"\u0906\u0907\u0938\u0932\u094d\u092f\u093e\u0923\u094d\u0921","name:wa":"Izlande","name:wo":"Islaand","name:nv":"Tin Bik\u00e9yah","name:ga":"An \u00cdoslainn","name:gd":"Innis T\u00ecle","name:gn":"Iylanda","name:gl":"Islandia","maritime_boundary":true,"name:gv":"Yn Eeslynn","name:gu":"\u0a86\u0a88\u0ab8\u0ab2\u0ac7\u0a82\u0aa1"},"arcs":[0]}]},"roads":{"type":"GeometryCollection","geometries":[{"type":"MultiLineString","properties":{"sort_rank":355,"source":"openstreetmap.org","min_zoom":8.0,"kind":"ferry"},"arcs":[[11],[12]]},{"type":"LineString","properties":{"source":"openstreetmap.org","kind":"major_road","network":"S","sort_rank":380,"kind_detail":"primary","min_zoom":8.0,"shield_text":"61"},"arcs":[13]}]},"earth":{"type":"GeometryCollection","geometries":[{"type":"MultiPolygon","properties":{"sort_rank":10,"source":"naturalearthdata.com","kind":"earth","min_zoom":0.0,"id":4245},"arcs":[[[14]],[[15]],[[16]]]}]},"landuse":{"type":"GeometryCollection","geometries":[{"type":"Polygon","properties":{"kind":"nature_reserve","protect_class":"4","area":3646050048,"sort_rank":23,"source":"openstreetmap.org","min_zoom":4.0,"tier":2,"id":-6149201,"osm_relation":true},"arcs":[[17]]},{"type":"Polygon","properties":{"kind":"glacier","natural":"glacier","name":"Drangaj\u00f6kull","area":839150016,"sort_rank":29,"source":"openstreetmap.org","min_zoom":8.0,"tier":3,"name:ru":"\u0414\u0440\u0430\u043d\u0433\u0430\u0439\u0451\u043a\u044e\u0434\u043b\u044c","id":-4008866,"osm_relation":true},"arcs":[[18]]}]}},"type":"Topology","transform":{"translate":[-22.5,65.9464717762],"scale":[0.0003433228,0.0001383761]},"arcs":[[[4096,3833],[-741,263]],[[4096,4096],[0,-4096],[-926,0],[55,40],[35,61],[-85,51],[-273,-51],[-164,-90],[-76,-11],[-6,0],[-54,101],[44,0],[307,92],[78,66],[410,40],[-35,153],[-53,84],[-68,41],[-84,23],[-316,-90],[-74,63],[-56,97],[-13,53],[20,69],[27,10],[62,51],[35,57],[-54,25],[-11,25],[-13,54],[-16,54],[-21,24],[-130,-9],[-103,-53],[-37,-40],[60,-145],[3,-55],[-1,-121],[-17,-38],[-39,-42],[-46,-33],[-38,-11],[24,77],[34,83],[26,90],[-6,100],[-37,52],[-49,-13],[-51,-32],[-42,-7],[-40,37],[-19,49],[-15,139],[-4,119],[-1,-3],[-5,36],[-24,72],[-11,45],[39,39],[1,88],[-30,86],[-50,33],[13,69],[9,25],[-183,99],[-31,-8],[-59,-38],[-29,2],[-23,20],[-37,56],[-136,114],[-43,11],[-44,-22],[-39,-38],[-37,-20],[-39,27],[172,146],[27,51],[-104,170],[-17,27],[-22,26],[-24,22],[-26,-2],[-26,-46],[-52,22],[-208,-22],[17,105],[-27,51],[-46,-15],[-43,-91],[-23,-50],[-28,21],[-24,50],[-27,32],[-44,0],[-49,-22],[-46,-37],[-40,-44],[-38,50],[0,53],[46,51],[-5,55],[-26,50],[-15,37],[0,77],[4,62],[23,31],[53,-18],[0,50],[-124,28],[-37,44],[41,72],[-73,135],[-237,133],[-51,106],[-27,171],[-68,142],[-90,90],[-94,17],[22,-69],[77,-53],[21,-72],[-13,-89],[-44,-9],[-170,84],[0,542],[4096,0]],[[0,2705],[23,9],[65,-38],[0,-54],[-48,2],[-40,-21],[0,102]],[[0,2314],[386,62],[-67,-56],[-146,-15],[-128,-103],[-45,-12],[0,124]],[[0,110],[0,848],[34,-17],[54,21],[54,55],[144,73],[60,2],[-34,-98],[-51,-26],[-58,-4],[-56,-29],[-41,-72],[-17,-81],[-13,-89],[-30,-93],[61,-29],[62,-73],[55,-97],[43,-102],[25,-128],[21,-159],[2,-12],[-272,0],[-20,41],[-23,69]],[[0,110],[23,-69],[20,-41]],[[315,0],[-2,12],[-21,159],[-25,128],[-43,102],[-55,97],[-62,73],[-61,29],[30,93],[13,89],[17,81],[41,72],[56,29],[58,4],[51,26],[34,98],[-60,-2],[-144,-73],[-54,-55],[-54,-21],[-34,17]],[[0,2190],[45,12],[128,103],[146,15],[67,56],[-386,-62]],[[0,2603],[40,21],[48,-2],[0,54],[-65,38],[-23,-9]],[[0,3554],[170,-84],[44,9],[13,89],[-21,72],[-77,53],[-22,69],[94,-17],[90,-90],[68,-142],[27,-171],[51,-106],[237,-133],[73,-135],[-41,-72],[37,-44],[124,-28],[0,-50],[-53,18],[-23,-31],[-4,-62],[0,-77],[15,-37],[26,-50],[5,-55],[-46,-51],[0,-53],[38,-50],[40,44],[46,37],[49,22],[44,0],[27,-32],[24,-50],[28,-21],[23,50],[43,91],[46,15],[27,-51],[-17,-105],[208,22],[52,-22],[26,46],[26,2],[24,-22],[22,-26],[17,-27],[104,-170],[-27,-51],[-172,-146],[39,-27],[37,20],[39,38],[44,22],[43,-11],[136,-114],[37,-56],[23,-20],[29,-2],[59,38],[31,8],[183,-99],[-9,-25],[-13,-69],[50,-33],[30,-86],[-1,-88],[-39,-39],[11,-45],[24,-72],[5,-36],[1,3],[4,-119],[15,-139],[19,-49],[40,-37],[42,7],[51,32],[49,13],[37,-52],[6,-100],[-26,-90],[-34,-83],[-24,-77],[38,11],[46,33],[39,42],[17,38],[1,121],[-3,55],[-60,145],[37,40],[103,53],[130,9],[21,-24],[16,-54],[13,-54],[11,-25],[54,-25],[-35,-57],[-62,-51],[-27,-10],[-20,-69],[13,-53],[56,-97],[74,-63],[316,90],[84,-23],[68,-41],[53,-84],[35,-153],[-410,-40],[-78,-66],[-307,-92],[-44,0],[54,-101]],[[2662,0],[76,11],[164,90],[273,51],[85,-51],[-35,-61],[-55,-40]],[[0,2258],[237,5],[-237,-8]],[[0,3691],[22,-16],[10,-205]],[[118,0],[4,6],[3,-6]],[[0,2705],[0,849],[170,-84],[44,9],[13,89],[-21,72],[-77,53],[-22,69],[94,-17],[90,-90],[68,-142],[27,-171],[51,-106],[237,-133],[73,-135],[-41,-72],[37,-44],[124,-28],[0,-50],[-53,18],[-23,-31],[-4,-62],[0,-77],[15,-37],[26,-50],[5,-55],[-46,-51],[0,-53],[38,-50],[40,44],[46,37],[49,22],[44,0],[27,-32],[24,-50],[28,-21],[23,50],[43,91],[46,15],[27,-51],[-17,-105],[208,22],[52,-22],[26,46],[26,2],[24,-22],[22,-26],[17,-27],[104,-170],[-27,-51],[-172,-146],[39,-27],[37,20],[39,38],[44,22],[43,-11],[136,-114],[37,-56],[23,-20],[29,-2],[59,38],[31,8],[183,-99],[-9,-25],[-13,-69],[50,-33],[30,-86],[-1,-88],[-39,-39],[11,-45],[24,-72],[5,-36],[1,3],[4,-119],[15,-139],[19,-49],[40,-37],[42,7],[51,32],[49,13],[37,-52],[6,-100],[-26,-90],[-34,-83],[-24,-77],[38,11],[46,33],[39,42],[17,38],[1,121],[-3,55],[-60,145],[37,40],[103,53],[130,9],[21,-24],[16,-54],[13,-54],[11,-25],[54,-25],[-35,-57],[-62,-51],[-27,-10],[-20,-69],[13,-53],[56,-97],[74,-63],[316,90],[84,-23],[68,-41],[53,-84],[35,-153],[-410,-40],[-78,-66],[-307,-92],[-44,0],[54,-101],[-2341,0],[-2,12],[-21,159],[-25,128],[-43,102],[-55,97],[-62,73],[-61,29],[30,93],[13,89],[17,81],[41,72],[56,29],[58,4],[51,26],[34,98],[-60,-2],[-144,-73],[-54,-55],[-54,-21],[-34,17],[0,1232],[45,12],[128,103],[146,15],[67,56],[-386,-62],[0,289],[40,21],[48,-2],[0,54],[-65,38],[-23,-9]],[[0,0],[0,110],[23,-69],[20,-41],[-43,0]],[[3170,0],[-508,0],[76,11],[164,90],[273,51],[85,-51],[-35,-61],[-55,-40]],[[0,3520],[32,-50],[39,-7],[99,51],[-3,93],[-80,107],[1,37],[198,-79],[-11,-47],[57,-112],[-5,-145],[17,11],[23,-31],[29,-119],[44,-5],[21,-44],[52,1],[54,-61],[51,-1],[48,-35],[-19,-64],[123,-64],[-48,-54],[44,-94],[135,44],[-71,-144],[-62,-58],[16,-48],[85,-55],[-98,-201],[6,-70],[-77,-2],[-58,-46],[-126,-5],[-74,45],[-52,74],[-79,-7],[-35,27],[-164,-65],[-112,-1],[0,220],[46,60],[78,44],[-82,22],[19,114],[-61,17],[0,747]],[[223,1827],[137,145],[98,48],[109,22],[120,-8],[70,-33],[63,-103],[109,-74],[46,-133],[-63,-87],[3,-33],[76,49],[71,-46],[3,-126],[24,-35],[35,-30],[49,5],[41,-41],[8,-57],[128,-74],[-3,-164],[-48,-8],[-74,-99],[-242,-38],[-24,47],[-41,2],[-52,61],[-19,98],[-57,77],[-117,73],[-90,183],[-84,41],[-68,90],[-88,222],[-101,4],[-19,22]]]}