{"objects":{"water":{"type":"GeometryCollection","geometries":[{"type":"Polygon","properties":{"source":"naturalearthdata.com","kind":"ocean","area":1576712559132672,"sort_rank":200,"min_zoom":0.0,"id":1},"arcs":[[1],[2],[3],[4],[5],[6],[7],[8],[9],[10],[11]]},{"type":"LineString","properties":{"source":"naturalearthdata.com","kind":"ocean","sort_rank":205,"boundary":true,"min_zoom":0.0,"id":808},"arcs":[12]},{"type":"LineString","properties":{"source":"naturalearthdata.com","kind":"ocean","sort_rank":205,"boundary":true,"min_zoom":0.0,"id":2208},"arcs":[13]},{"type":"LineString","properties":{"source":"naturalearthdata.com","kind":"ocean","sort_rank":205,"boundary":true,"min_zoom":0.0,"id":2209},"arcs":[14]},{"type":"LineString","properties":{"source":"naturalearthdata.com","kind":"ocean","sort_rank":205,"boundary":true,"min_zoom":0.0,"id":2210},"arcs":[15]},{"type":"LineString","properties":{"source":"naturalearthdata.com","kind":"ocean","sort_rank":205,"boundary":true,"min_zoom":0.0,"id":2212},"arcs":[16]},{"type":"LineString","properties":{"source":"naturalearthdata.com","kind":"ocean","sort_rank":205,"boundary":true,"min_zoom":0.0,"id":2213},"arcs":[17]}]},"buildings":{"type":"GeometryCollection","geometries":[]},"places":{"type":"GeometryCollection","geometries":[{"type":"Point","properties":{"source":"naturalearthdata.com","kind":"locality","name":"Tarawa","country_capital":true,"population":28802,"min_zoom":6.0,"id":6156},"coordinates":[142,3898]},{"type":"Point","properties":{"name:pt":"Tarawa do Sul","name:az":"C\u0259nubi Tarava","name:id":"Tarawa Selatan","name:cy":"De Tarawa","name:mr":"\u0924\u0930\u093e\u0935\u093e","name:ko":"\uc0ac\uc6b0\uc2a4\ud0c0\ub77c\uc640","name:ar":"\u062c\u0646\u0648\u0628 \u062a\u0627\u0631\u0627\u0648\u0627","name:cs":"Ji\u017en\u00ed Tarawa","min_zoom":8.0,"name:am":"\u12f0\u1261\u1265 \u1273\u122b\u12cb","name:it":"Tarawa Sud","name:vi":"Nam Tarawa","name:ru":"\u042e\u0436\u043d\u0430\u044f \u0422\u0430\u0440\u0430\u0432\u0430","name:ta":"\u0ba4\u0bc6\u0bb1\u0bcd\u0b95\u0bc1 \u0b9f\u0bb0\u0bbe\u0bb5\u0bbe","id":703437318,"name:mk":"\u0408\u0443\u0436\u043d\u0430 \u0422\u0430\u0440\u0430\u0432\u0430","name:af":"Suid-Tarawa","name:fa":"\u062a\u0627\u0631\u0627\u0648\u0627\u06cc \u062c\u0646\u0648\u0628\u06cc","name:ka":"\u10e1\u10d0\u10db\u10ee\u10e0\u10d4\u10d7\u10d8 \u10e2\u10d0\u10e0\u10d0\u10d5\u10d0","kind_detail":"city","source":"openstreetmap.org","name:fr":"Tarawa-Sud","name:ca":"Tarawa Sud","name:fy":"S\u00fad-Tarawa","name:zh":"\u5357\u5854\u62c9\u74e6","admin_level":"2","name:nl":"Zuid-Tarawa","name:ja":"\u30b5\u30a6\u30b9\u30fb\u30bf\u30e9\u30ef","name:tr":"G\u00fcney Tarava","name:sh":"Ju\u017ena Tarawa","name:he":"\u05d3\u05e8\u05d5\u05dd \u05d8\u05d0\u05e8\u05d0\u05d5\u05d5\u05d4","kind":"locality","name:bn":"\u09a6\u0995\u09cd\u09b7\u09bf\u09a3 \u09a4\u09be\u09b0\u09be\u0993\u09af\u09bc\u09be","name:uk":"\u041f\u0456\u0432\u0434\u0435\u043d\u043d\u0430 \u0422\u0430\u0440\u0430\u0432\u0430","country_capital":true,"name:be":"\u041f\u0430\u045e\u0434\u043d\u0451\u0432\u0430\u044f \u0422\u0430\u0440\u0430\u0432\u0430","name:bg":"\u042e\u0436\u043d\u0430 \u0422\u0430\u0440\u0430\u0443\u0430","name:lt":"Piet\u0173 Tarava","name:sr":"\u0408\u0443\u0436\u043d\u0430 \u0422\u0430\u0440\u0430\u0432\u0430","population":40311,"name:eo":"Bairiko","name":"South Tarawa","name:gl":"Tarawa Sur","name:et":"Tarawa South","name:es":"Tarawa Sur"},"coordinates":[204,3930]}]},"transit":{"type":"GeometryCollection","geometries":[]},"pois":{"type":"GeometryCollection","geometries":[]},"boundaries":{"type":"GeometryCollection","geometries":[{"type":"LineString","properties":{"kind":"country","name":"Kiribati","name:lt":"Kiribatis","sort_rank":262,"kind_detail":"2","name:eo":"Kiribato","source":"openstreetmap.org","maritime_boundary":true,"name:uk":"\u041a\u0456\u0440\u0438\u0431\u0430\u0442\u0456","name:ru":"\u041a\u0438\u0440\u0438\u0431\u0430\u0442\u0438","min_zoom":8.0,"id":-571178,"osm_relation":true,"name:vo":"Kiribatu\u00e4ns"},"arcs":[0]}]},"roads":{"type":"GeometryCollection","geometries":[{"type":"LineString","properties":{"sort_rank":380,"kind_detail":"primary","min_zoom":8.0,"kind":"major_road","source":"openstreetmap.org"},"arcs":[18]}]},"earth":{"type":"GeometryCollection","geometries":[{"type":"MultiPolygon","properties":{"sort_rank":10,"source":"naturalearthdata.com","min_zoom":0.0,"kind":"earth","area":122436983},"arcs":[[[19]],[[20]],[[21]],[[22]],[[23]]]}]},"landuse":{"type":"GeometryCollection","geometries":[]}},"type":"Topology","transform":{"translate":[172.96875,-0.0],"scale":[0.0003433228,0.0003432883]},"arcs":[[[2370,0],[87,137],[75,210],[202,-38],[155,3],[164,46],[137,85],[154,186],[81,254],[-31,338],[-89,244],[-79,143],[-351,309],[-137,70],[-140,32],[-170,-3],[-135,-35],[-129,-64],[-112,-93],[-266,-432],[-67,-253],[-256,181],[-253,52],[-145,-20],[-135,-56],[-206,-192],[-68,-125],[-38,-152],[2,-151],[39,-140],[240,-376],[129,-99],[157,-61]],[[4096,0],[-4096,0],[0,4096],[4096,0],[0,-4096]],[[124,3896],[20,-4],[18,2],[40,12],[48,37],[70,19],[75,5],[64,-2],[71,-14],[36,1],[24,17],[1,34],[-21,26],[-33,10],[-29,-18],[51,-16],[-27,-9],[-194,-15],[-73,-20],[-141,-65]],[[62,2983],[16,-17],[14,-22],[9,-27],[1,-33],[17,0],[0,30],[0,10],[46,-17],[57,-30],[50,-36],[28,-37],[-1,-37],[-21,-34],[-24,-31],[-27,-76],[-70,-55],[-26,-65],[-50,-44],[-16,-31],[59,57],[112,146],[33,29],[53,90],[2,45],[-12,16],[-32,30],[-146,95],[-32,44],[-40,0]],[[26,2436],[-6,10],[-18,0],[8,-15],[9,-8],[12,-3],[9,1],[-9,9],[-5,6]],[[43,2422],[8,-7],[11,-11],[-1,8],[1,7],[1,10],[-4,-2],[-5,-2],[-11,-3]],[[2447,1286],[-11,-21],[79,6],[103,-49],[157,-116],[-12,58],[-77,55],[-171,88],[-20,20],[-20,-12],[-15,-13],[-13,-16]],[[2787,1164],[36,-123],[-1,-23],[3,-15],[5,-11],[-4,-38],[-9,-20],[-16,-6],[-10,-9],[2,-10],[17,-9],[11,3],[16,16],[12,21],[0,110],[-27,83],[-15,36],[-12,13],[-8,-18]],[[1105,741],[59,-48],[13,12],[-5,34],[-20,23],[-27,20],[-22,-15],[2,-26]],[[1191,626],[16,-45],[24,-19],[66,42],[0,13],[-45,33],[-27,8],[-28,-7],[-6,-25]],[[1950,569],[-12,-62],[-57,-55],[-14,-35],[32,-28],[49,125],[9,46],[2,23],[-1,24],[-13,24],[-23,7],[-65,-9],[50,-23],[30,-21],[13,-16]],[[1694,527],[-46,8],[-28,-14],[14,-13],[22,-7],[14,-1],[24,7],[0,20]],[[202,3906],[-40,-12],[-18,-2],[-20,4],[141,65],[73,20],[194,15],[27,9],[-51,16],[29,18],[33,-10],[21,-26],[-1,-34],[-24,-17],[-36,-1],[-71,14],[-64,2],[-75,-5],[-70,-19],[-48,-37]],[[312,2814],[-32,30],[-146,95],[-32,44],[-40,0],[16,-17],[14,-22],[9,-27],[1,-33],[17,0],[0,30],[0,10],[46,-17],[57,-30],[50,-36],[28,-37],[-1,-37],[-21,-34],[-24,-31],[-27,-76],[-70,-55],[-26,-65],[-50,-44],[-16,-31],[59,57],[112,146],[33,29],[53,90],[2,45],[-12,16]],[[54,2425],[-11,-3],[8,-7],[11,-11],[-1,8],[1,7],[1,10],[-4,-2],[-5,-2]],[[26,2436],[-6,10],[-18,0],[8,-15],[9,-8],[12,-3],[9,1],[-9,9],[-5,6]],[[1899,389],[49,125],[9,46],[2,23],[-1,24],[-13,24],[-23,7],[-65,-9],[50,-23],[30,-21],[13,-16],[-12,-62],[-57,-55],[-14,-35],[32,-28]],[[2515,1307],[-20,20],[-20,-12],[-15,-13],[-13,-16],[-11,-21],[79,6],[103,-49],[157,-116],[-12,58],[-77,55],[-171,88]],[[0,3886],[16,-10],[54,-2],[159,82],[230,31],[55,-20],[-20,80]],[[1948,514],[-49,-125],[-32,28],[14,35],[57,55],[12,62],[-13,16],[-30,21],[-50,23],[65,9],[23,-7],[13,-24],[1,-24],[-2,-23],[-9,-46]],[[2515,1307],[171,-88],[77,-55],[12,-58],[-157,116],[-103,49],[-79,-6],[11,21],[13,16],[15,13],[20,12],[20,-20]],[[40,2421],[-9,-1],[-12,3],[-9,8],[-8,15],[18,0],[6,-10],[5,-6],[9,-9]],[[134,2939],[146,-95],[32,-30],[12,-16],[-2,-45],[-53,-90],[-33,-29],[-112,-146],[-59,-57],[16,31],[50,44],[26,65],[70,55],[27,76],[24,31],[21,34],[1,37],[-28,37],[-50,36],[-57,30],[-46,17],[0,-10],[0,-30],[-17,0],[-1,33],[-9,27],[-14,22],[-16,17],[40,0],[32,-44]],[[590,3969],[-24,-17],[-36,-1],[-71,14],[-64,2],[-75,-5],[-70,-19],[-48,-37],[-40,-12],[-18,-2],[-20,4],[141,65],[73,20],[194,15],[27,9],[-51,16],[29,18],[33,-10],[21,-26],[-1,-34]]]}