{"objects":{"water":{"type":"GeometryCollection","geometries":[{"type":"MultiPolygon","properties":{"source":"naturalearthdata.com","kind":"ocean","area":1576712559132672,"sort_rank":200,"min_zoom":0.0,"id":1},"arcs":[[[7]],[[8]]]},{"type":"MultiLineString","properties":{"source":"naturalearthdata.com","kind":"ocean","sort_rank":205,"boundary":true,"min_zoom":0.0,"id":75},"arcs":[[9],[10]]}]},"buildings":{"type":"GeometryCollection","geometries":[]},"places":{"type":"GeometryCollection","geometries":[{"type":"Point","properties":{"source":"naturalearthdata.com","kind":"locality","name":"Acarau","population":28389,"min_zoom":7.0,"id":4240},"coordinates":[1926,3868]},{"type":"Point","properties":{"kind":"locality","name":"Sobral","kind_detail":"city","source":"openstreetmap.org","min_zoom":8.0,"name:ru":"\u0421\u043e\u0431\u0440\u0430\u043b","id":415524303,"population":180046},"coordinates":[1269,1538]},{"type":"Point","properties":{"source":"openstreetmap.org","kind":"locality","name":"Itapipoca","kind_detail":"city","population":112662,"min_zoom":8.0,"id":415524323},"coordinates":[3488,2088]},{"type":"Point","properties":{"source":"openstreetmap.org","kind":"locality","name":"Acara\u00fa","kind_detail":"town","population":54257,"min_zoom":8.0,"id":415524314},"coordinates":[1931,3873]},{"type":"Point","properties":{"source":"openstreetmap.org","kind":"locality","name":"Itapaj\u00e9","kind_detail":"town","population":46989,"min_zoom":8.0,"id":263985913},"coordinates":[3484,1543]},{"type":"Point","properties":{"source":"openstreetmap.org","kind":"locality","name":"Amontada","kind_detail":"town","population":39497,"min_zoom":8.0,"id":415524318},"coordinates":[2775,2481]},{"type":"Point","properties":{"source":"openstreetmap.org","kind":"locality","name":"Guaraciaba do Norte","kind_detail":"town","population":38123,"min_zoom":8.0,"id":415521166},"coordinates":[90,150]},{"type":"Point","properties":{"source":"openstreetmap.org","kind":"locality","name":"Itarema","kind_detail":"town","population":35988,"min_zoom":8.0,"id":415524319},"coordinates":[2529,3772]},{"type":"Point","properties":{"source":"openstreetmap.org","kind":"locality","name":"Massap\u00ea","kind_detail":"town","population":34874,"min_zoom":8.0,"id":415524308},"coordinates":[1279,2017]},{"type":"Point","properties":{"source":"openstreetmap.org","kind":"locality","name":"Bela Cruz","kind_detail":"town","population":30687,"min_zoom":8.0,"id":415524316},"coordinates":[1787,3391]},{"type":"Point","properties":{"source":"openstreetmap.org","kind":"locality","name":"Santana do Acara\u00fa","kind_detail":"town","population":30041,"min_zoom":8.0,"id":415524305},"coordinates":[1667,2204]},{"type":"Point","properties":{"source":"openstreetmap.org","kind":"locality","name":"Marco","kind_detail":"town","population":24250,"min_zoom":8.0,"id":415524315},"coordinates":[1834,3189]},{"type":"Point","properties":{"source":"openstreetmap.org","kind":"locality","name":"Cruz","kind_detail":"town","population":23208,"min_zoom":8.0,"id":415524313},"coordinates":[1763,3784]},{"type":"Point","properties":{"kind":"locality","name":"Irau\u00e7uba","kind_detail":"town","source":"openstreetmap.org","min_zoom":8.0,"old_name":"Cacimba do Meio","id":263985912,"population":22978},"coordinates":[2904,1364]},{"type":"Point","properties":{"source":"openstreetmap.org","kind":"locality","name":"Morrinhos","kind_detail":"town","population":22269,"min_zoom":8.0,"id":415524306},"coordinates":[1903,2881]},{"type":"Point","properties":{"source":"openstreetmap.org","kind":"locality","name":"Corea\u00fa","kind_detail":"town","population":22024,"min_zoom":8.0,"id":415524298},"coordinates":[369,1934]},{"type":"Point","properties":{"source":"openstreetmap.org","kind":"locality","name":"Forquilha","kind_detail":"town","population":21233,"min_zoom":8.0,"id":415524307},"coordinates":[1508,1213]},{"type":"Point","properties":{"kind":"locality","name":"Uruburetama","kind_detail":"town","source":"openstreetmap.org","min_zoom":8.0,"old_name":"Arraial","id":415524324,"population":20253},"coordinates":[3717,1726]},{"type":"Point","properties":{"source":"openstreetmap.org","kind":"locality","name":"Reriutaba","kind_detail":"town","population":19626,"min_zoom":8.0,"id":415521168},"coordinates":[579,213]},{"type":"Point","properties":{"source":"openstreetmap.org","kind":"locality","name":"Carir\u00e9","kind_detail":"town","population":19099,"min_zoom":8.0,"id":415524296},"coordinates":[889,777]},{"type":"Point","properties":{"source":"openstreetmap.org","kind":"locality","name":"Varjota","kind_detail":"town","population":17704,"min_zoom":8.0,"id":415521169},"coordinates":[895,61]},{"type":"Point","properties":{"source":"openstreetmap.org","kind":"locality","name":"Jijoca de Jericoacoara","kind_detail":"town","population":17002,"min_zoom":8.0,"id":1509289142},"coordinates":[963,3841]},{"type":"Point","properties":{"source":"openstreetmap.org","kind":"locality","name":"Teju\u00e7uoca","kind_detail":"town","population":16056,"min_zoom":8.0,"id":415524320},"coordinates":[3499,661]},{"type":"Point","properties":{"source":"openstreetmap.org","kind":"locality","name":"Gra\u00e7a","kind_detail":"town","population":15856,"min_zoom":8.0,"id":415521167},"coordinates":[83,495]},{"type":"Point","properties":{"source":"openstreetmap.org","kind":"locality","name":"Apuiar\u00e9s","kind_detail":"town","population":14251,"min_zoom":8.0,"id":415524317},"coordinates":[3932,785]},{"type":"Point","properties":{"source":"openstreetmap.org","kind":"locality","name":"Mucambo","kind_detail":"town","population":14102,"min_zoom":8.0,"id":415524293},"coordinates":[104,906]},{"type":"Point","properties":{"source":"openstreetmap.org","kind":"locality","name":"Tururu","kind_detail":"town","population":14057,"min_zoom":8.0,"id":415524322},"coordinates":[3919,1799]},{"type":"Point","properties":{"source":"openstreetmap.org","kind":"locality","name":"Uruoca","kind_detail":"town","population":13613,"min_zoom":8.0,"id":415524301},"coordinates":[647,2627]},{"type":"Point","properties":{"source":"openstreetmap.org","kind":"locality","name":"Meruoca","kind_detail":"town","population":12656,"min_zoom":8.0,"id":415524302},"coordinates":[951,1973]},{"type":"Point","properties":{"source":"openstreetmap.org","kind":"locality","name":"Mira\u00edma","kind_detail":"town","population":12625,"min_zoom":8.0,"id":415524311},"coordinates":[2374,1886]},{"type":"Point","properties":{"source":"openstreetmap.org","kind":"locality","name":"Martin\u00f3pole","kind_detail":"town","population":10892,"min_zoom":8.0,"id":415524300},"coordinates":[252,2889]},{"type":"Point","properties":{"source":"openstreetmap.org","kind":"locality","name":"Alc\u00e2ntaras","kind_detail":"town","population":10706,"min_zoom":8.0,"id":415524299},"coordinates":[680,1837]}]},"transit":{"type":"GeometryCollection","geometries":[{"type":"MultiLineString","properties":{"source":"openstreetmap.org","kind":"train","sort_rank":275,"ref":"Transnordestina","min_zoom":6.0,"osm_relation":true},"arcs":[[2],[3],[4],[5],[6]]}]},"pois":{"type":"GeometryCollection","geometries":[{"type":"Point","properties":{"kind":"protected_area","tier":2,"protect_class":"5","area":267871000,"source":"openstreetmap.org","min_zoom":7.0,"operator":"Instituto Chico Mendes de Conserva\u00e7\u00e3o da Biodiversidade","id":-3426370,"osm_relation":true,"name":"\u00c1rea de Prote\u00e7\u00e3o Ambiental Serra da Meruoca"},"coordinates":[945,1873]}]},"boundaries":{"type":"GeometryCollection","geometries":[{"type":"LineString","properties":{"name:kg":"Brazil","name:ty":"Brazil","name:ka":"\u10d1\u10e0\u10d0\u10d6\u10d8\u10da\u10d8\u10d0","name:ko":"\ube0c\ub77c\uc9c8","name:cv":"\u0411\u0440\u0430\u0437\u0438\u043b\u0438","name:cu":"\u0411\u0440\u0430\ua641\u0457\u043b\u0457\ua657","name:kl":"Brazil","name:cs":"Braz\u00edlie","name:ki":"Brazil","name:co":"Brasile","name:kv":"\u0411\u0440\u0430\u0437\u0438\u043b\u0438\u044f","name:ku":"Braz\u00eel","name:ce":"\u0411\u0440\u0430\u0437\u0438\u043b\u0438\u044f","name:ta":"\u0baa\u0bbf\u0bb0\u0bc7\u0b9a\u0bbf\u0bb2\u0bcd","name:tg":"\u0411\u0440\u0430\u0437\u0438\u043b\u0438\u044f","name:ky":"\u0411\u0440\u0430\u0437\u0438\u043b\u0438\u044f","name:te":"\u0c2c\u0c4d\u0c30\u0c46\u0c1c\u0c3f\u0c32\u0c4d","name:da":"Brasilien","name:de":"Brasilien","name:dz":"\u0f56\u0f71\u0f62\u0f71\u0f0b\u0f5b\u0f72\u0f63\u0f0b","source":"openstreetmap.org","name:kn":"\u0cac\u0ccd\u0cb0\u0cc6\u0c9c\u0cbf\u0cb2\u0ccd","name:dv":"\u0784\u07aa\u0783\u07ac\u0792\u07a8\u078d\u07b0","name:km":"\u1794\u17d2\u179a\u17c1\u179f\u17ca\u17b8\u179b","name:lv":"Braz\u012blija","name:lt":"Brazilija","name:uz":"Braziliya","name:kk":"\u0411\u0440\u0430\u0437\u0438\u043b\u0438\u044f","name:ur":"\u0628\u0631\u0627\u0632\u06cc\u0644","name:lb":"Brasilien","name:la":"Brasilia","name:tt":"\u0411\u0440\u0430\u0437\u0438\u043b\u0438\u044f","name:uk":"\u0411\u0440\u0430\u0437\u0438\u043b\u0456\u044f","name:ug":"\u0628\u0631\u0627\u0632\u0649\u0644\u0649\u064a\u06d5","name:li":"Braziel","name:ln":"Brazil","name:el":"\u0392\u03c1\u03b1\u03b6\u03b9\u03bb\u03af\u03b1","name:eo":"Brazilo","name:en":"Brazil","name":"Brasil","name:tk":"Brazili\u00fda","name:ee":"Brazil","name:th":"\u0e1b\u0e23\u0e30\u0e40\u0e17\u0e28\u0e1a\u0e23\u0e32\u0e0b\u0e34\u0e25","name:et":"Brasiilia","name:ay":"Wrasil","name:rm":"Brasilia","name:rn":"Brazil","name:az":"Braziliya","name:ig":"Brazil","name:as":"\u09ac\u09cd\u09f0\u09be\u099c\u09bf\u09b2","name:zh-min-nan":"Pa-se","name:io":"Brazilia","name:is":"Brasil\u00eda","name:am":"\u1265\u122b\u12da\u120d","name:it":"Brasile","name:ru":"\u0411\u0440\u0430\u0437\u0438\u043b\u0438\u044f","name:rw":"Burezile","name:af":"Brasili\u00eb","name:zu":"IBrazili","kind_detail":"2","name:za":"Bahsih","name:zh-yue":"\u5df4\u897f","name:zh":"\u5df4\u897f","name:so":"Barasiil","name:sl":"Brazilija","name:sk":"Braz\u00edlia","name:ja":"\u30d6\u30e9\u30b8\u30eb","name:sh":"Brazil","name:se":"Brasilia","name:sc":"Brasile","name:br":"Brazil","name:bs":"Brazil","name:bm":"Brazil","name:bn":"\u09ac\u09cd\u09b0\u09be\u099c\u09bf\u09b2","name:bo":"\u0f54\u0f74\u0f0b\u0f62\u0f74\u0f0b\u0f5f\u0f72\u0f63\u0f0d","name:bi":"Brazil","name:sw":"Brazil","name:be":"\u0411\u0440\u0430\u0437\u0456\u043b\u0456\u044f","name:bg":"\u0411\u0440\u0430\u0437\u0438\u043b\u0438\u044f","name:ba":"\u0411\u0440\u0430\u0437\u0438\u043b\u0438\u044f","name:sq":"Brazili","name:sa":"\u092c\u094d\u0930\u093e\u0938\u0940\u0932","name:ps":"\u0628\u0631\u0627\u0632\u06cc\u0644","min_zoom":8.0,"name:ro":"Brazilia","name:pa":"\u0a2c\u0a4d\u0a30\u0a3e\u0a1c\u0a3c\u0a40\u0a32","name:os":"\u0411\u0440\u0430\u0437\u0438\u043b\u0438","name:or":"\u0b2c\u0b4d\u0b30\u0b3e\u0b1c\u0b3f\u0b32","name:pl":"Brazylia","name:st":"Brazil","sort_rank":262,"name:sr":"\u0411\u0440\u0430\u0437\u0438\u043b","osm_relation":true,"name:ar":"\u0627\u0644\u0628\u0631\u0627\u0632\u064a\u0644","name:tr":"Brezilya","name:hi":"\u092c\u094d\u0930\u093e\u091c\u093c\u0940\u0932","name:sv":"Brasilien","name:he":"\u05d1\u05e8\u05d6\u05d9\u05dc","name:hy":"\u0532\u0580\u0561\u0566\u056b\u056c\u056b\u0561","name:ht":"Brezil","name:hu":"Braz\u00edlia","name:hr":"Brazil","kind":"country","name:yi":"\u05d1\u05e8\u05d0\u05d6\u05d9\u05dc","name:mt":"Bra\u017cil","name:ms":"Brazil","name:mr":"\u092c\u094d\u0930\u093e\u091d\u0940\u0932","name:my":"\u1018\u101b\u102c\u1007\u102e\u1038\u1014\u102d\u102f\u1004\u103a\u1004\u1036","official_name":"Rep\u00fablica Federativa do Brasil","name:mg":"Brazila","name:ml":"\u0d2c\u0d4d\u0d30\u0d38\u0d40\u0d7d","name:mn":"\u0411\u0440\u0430\u0437\u0438\u043b","name:mi":"Par\u012bhi","id":-59470,"name:mk":"\u0411\u0440\u0430\u0437\u0438\u043b","name:vo":"Brasil\u00e4n","name:fa":"\u0628\u0631\u0632\u06cc\u0644","name:fi":"Brasilia","old_name:vi":"Ba T\u00e2y","alt_name:vi":"Brazil;Bra-xin","name:fr":"Br\u00e9sil","name:fy":"Brazylje","name:nl":"Brazili\u00eb","name:na":"Bradir","name:ne":"\u092c\u094d\u0930\u093e\u091c\u093f\u0932","name:wa":"Braezi","name:wo":"Breesil","name:nv":"Bwaz\u00ed\u00edl","name:ga":"An Bhrasa\u00edl","name:gd":"Braisil","name:gn":"Pindorama","maritime_boundary":true,"name:gv":"Yn Vrasseel","name:gu":"\u0aac\u0acd\u0ab0\u0abe\u0a9d\u0abf\u0ab2"},"arcs":[0]},{"type":"LineString","properties":{"name:ka":"\u10e1\u10d4\u10d0\u10e0\u10d0","name:mr":"\u0938\u093f\u092f\u093e\u0930\u093e","name:ko":"\uc138\uc544\ub77c","name:ar":"\u0633\u064a\u0627\u0631\u0627","name:gn":"Ceara","name:th":"\u0e40\u0e0b\u0e2d\u0e32\u0e23\u0e32","name:os":"\u0421\u0435\u0430\u0440\u0430","name:ru":"\u0421\u0435\u0430\u0440\u0430","name:uz":"Seera","name:tg":"\u0421\u0435\u0430\u0440\u0430","name:mk":"\u0421\u0435\u0430\u0440\u0430","name:fa":"\u0633\u0626\u0627\u0631\u0627","short_name":"CE","sort_rank":256,"kind_detail":"4","name:hi":"\u0938\u093f\u092f\u093e\u0930\u093e","id":-302635,"source":"openstreetmap.org","name:zh":"\u585e\u963f\u814a","name:lv":"Seara","name:ja":"\u30bb\u30a2\u30e9\u30fc","name:lt":"Seara","name:sh":"Seara","name:he":"\u05e1\u05d9\u05d0\u05e8\u05d4","name:eo":"Cearao","name:la":"Ceara","name:uk":"\u0421\u0435\u0430\u0440\u0430","name:hy":"\u054d\u0565\u0561\u0580\u0561","name:be":"\u0421\u0435\u0430\u0440\u0430","name:bg":"\u0421\u0435\u0430\u0440\u0430","name:sr":"\u0421\u0435\u0430\u0440\u0430","osm_relation":true,"kind":"region","name":"Cear\u00e1","min_zoom":8.0,"maritime_boundary":true},"arcs":[1]}]},"roads":{"type":"GeometryCollection","geometries":[{"type":"LineString","properties":{"bus_network":null,"network":"BR","sort_rank":380,"kind_detail":"primary","kind":"major_road","source":"openstreetmap.org","min_zoom":8.0,"bus_shield_text":"Metropolitana","shield_text":"222","ref":"BR-222"},"arcs":[11]},{"type":"LineString","properties":{"source":"openstreetmap.org","kind":"major_road","sort_rank":380,"kind_detail":"primary","ref":"CE - 354","min_zoom":8.0,"id":384818822},"arcs":[12]},{"type":"MultiLineString","properties":{"source":"openstreetmap.org","kind":"major_road","sort_rank":380,"kind_detail":"primary","ref":"CE-253;CE-321","min_zoom":8.0},"arcs":[[13],[14],[15]]},{"type":"LineString","properties":{"source":"openstreetmap.org","kind":"major_road","sort_rank":380,"kind_detail":"primary","ref":"BR-403","min_zoom":8.0,"id":447857765},"arcs":[16]},{"type":"MultiLineString","properties":{"kind":"major_road","network":"BR","sort_rank":380,"kind_detail":"primary","source":"openstreetmap.org","min_zoom":8.0,"shield_text":"403","ref":"CE-178"},"arcs":[[17],[18]]},{"type":"LineString","properties":{"kind":"major_road","sort_rank":380,"kind_detail":"primary","name:pt":"Rodovia Estruturante","source":"openstreetmap.org","min_zoom":8.0,"ref":"CE-085","id":138324663},"arcs":[19]},{"type":"MultiLineString","properties":{"source":"openstreetmap.org","kind":"major_road","sort_rank":380,"kind_detail":"primary","ref":"CE-179","min_zoom":8.0},"arcs":[[20],[21],[22],[23],[24],[25],[26],[27],[28],[29],[30],[31],[32],[33],[34],[35],[36],[37],[38],[39],[40],[41],[42],[43]]},{"type":"MultiLineString","properties":{"source":"openstreetmap.org","kind":"major_road","landuse_kind":"urban_area","sort_rank":380,"kind_detail":"primary","ref":"CE-179","min_zoom":8.0},"arcs":[[44],[45]]},{"type":"LineString","properties":{"source":"openstreetmap.org","kind":"major_road","sort_rank":380,"kind_detail":"primary","ref":"CE-182","min_zoom":8.0,"id":130568615},"arcs":[46]},{"type":"MultiLineString","properties":{"source":"openstreetmap.org","kind":"major_road","landuse_kind":"protected_area","sort_rank":380,"kind_detail":"primary","ref":"CE-240","min_zoom":8.0},"arcs":[[47],[48],[49],[50],[51],[52],[53]]},{"type":"MultiLineString","properties":{"source":"openstreetmap.org","kind":"major_road","sort_rank":380,"kind_detail":"primary","ref":"CE-232","min_zoom":8.0},"arcs":[[54],[55],[56],[57]]},{"type":"LineString","properties":{"kind":"major_road","network":"BR","sort_rank":380,"kind_detail":"primary","source":"openstreetmap.org","min_zoom":8.0,"shield_text":"402","ref":"CE-085","id":436951191},"arcs":[58]},{"type":"MultiLineString","properties":{"source":"openstreetmap.org","kind":"major_road","sort_rank":380,"kind_detail":"primary","ref":"CE-366","min_zoom":8.0},"arcs":[[59],[60],[61],[62],[63],[64],[65],[66]]},{"type":"MultiLineString","properties":{"source":"openstreetmap.org","kind":"major_road","sort_rank":380,"kind_detail":"primary","ref":"CE-235","min_zoom":8.0},"arcs":[[67],[68],[69]]},{"type":"LineString","properties":{"source":"openstreetmap.org","kind":"major_road","sort_rank":380,"kind_detail":"primary","ref":"CE-178","min_zoom":8.0},"arcs":[70]},{"type":"LineString","properties":{"source":"openstreetmap.org","kind":"major_road","landuse_kind":"protected_area","sort_rank":380,"kind_detail":"primary","ref":"CE-241","min_zoom":8.0},"arcs":[71]},{"type":"MultiLineString","properties":{"source":"openstreetmap.org","kind":"major_road","landuse_kind":"protected_area","sort_rank":380,"kind_detail":"primary","ref":"CE-440","min_zoom":8.0},"arcs":[[72],[73],[74]]},{"type":"MultiLineString","properties":{"source":"openstreetmap.org","kind":"major_road","landuse_kind":"urban_area","sort_rank":380,"kind_detail":"primary","min_zoom":8.0},"arcs":[[75],[76],[77],[78],[79],[80],[81],[82],[83],[84]]},{"type":"MultiLineString","properties":{"source":"openstreetmap.org","kind":"major_road","sort_rank":380,"kind_detail":"primary","ref":"CE-168","min_zoom":8.0},"arcs":[[85],[86],[87],[88],[89]]},{"type":"MultiLineString","properties":{"source":"openstreetmap.org","kind":"major_road","sort_rank":380,"kind_detail":"primary","ref":"CE-085","min_zoom":8.0},"arcs":[[90],[91],[92],[93],[94],[95],[96],[97],[98],[99],[100],[101],[102],[103],[104],[105],[106],[107],[108],[109],[110],[111],[112],[113],[114],[115],[116],[117],[118],[119],[120],[121],[122],[123],[124],[125],[126],[127],[128],[129],[130],[131],[132],[133],[134],[135],[136],[137],[138],[139],[140],[141],[142]]},{"type":"MultiLineString","properties":{"kind":"major_road","network":"BR","sort_rank":380,"kind_detail":"primary","source":"openstreetmap.org","min_zoom":8.0,"shield_text":"222","ref":"BR-222"},"arcs":[[143],[144],[145]]},{"type":"MultiLineString","properties":{"kind":"major_road","network":"BR","sort_rank":380,"kind_detail":"primary","source":"openstreetmap.org","min_zoom":8.0,"shield_text":"403","ref":"BR-403"},"arcs":[[146],[147],[148],[149],[150],[151],[152],[153],[154],[155],[156],[157],[158],[159]]},{"type":"LineString","properties":{"bus_network":null,"network":"BR","sort_rank":380,"kind_detail":"primary","kind":"major_road","source":"openstreetmap.org","min_zoom":8.0,"bus_shield_text":"Metropolitana","shield_text":"222","ref":"BR-222;BR-403"},"arcs":[160]},{"type":"LineString","properties":{"source":"openstreetmap.org","kind":"major_road","sort_rank":380,"kind_detail":"primary","ref":"CE-257","min_zoom":8.0},"arcs":[161]},{"type":"MultiLineString","properties":{"source":"openstreetmap.org","kind":"major_road","sort_rank":380,"kind_detail":"primary","ref":"CE-440","min_zoom":8.0},"arcs":[[162],[163],[164],[165],[166],[167]]},{"type":"MultiLineString","properties":{"source":"openstreetmap.org","kind":"major_road","sort_rank":380,"kind_detail":"primary","ref":"CE-187","min_zoom":8.0},"arcs":[[168],[169],[170],[171],[172],[173],[174],[175],[176],[177],[178]]},{"type":"MultiLineString","properties":{"source":"openstreetmap.org","kind":"major_road","sort_rank":380,"kind_detail":"primary","ref":"CE-327","min_zoom":8.0},"arcs":[[179],[180],[181]]},{"type":"MultiLineString","properties":{"kind":"major_road","network":"BR","sort_rank":380,"kind_detail":"primary","source":"openstreetmap.org","min_zoom":8.0,"shield_text":"402","ref":"BR-402;BR-403"},"arcs":[[182],[183],[184],[185]]},{"type":"MultiLineString","properties":{"source":"openstreetmap.org","kind":"major_road","sort_rank":380,"kind_detail":"primary","ref":"CE-362","min_zoom":8.0},"arcs":[[186],[187],[188],[189],[190],[191],[192],[193],[194],[195],[196],[197],[198]]},{"type":"MultiLineString","properties":{"source":"openstreetmap.org","kind":"major_road","landuse_kind":"urban_area","sort_rank":380,"kind_detail":"primary","ref":"CE-362","min_zoom":8.0},"arcs":[[199],[200],[201],[202],[203]]},{"type":"LineString","properties":{"source":"openstreetmap.org","kind":"major_road","sort_rank":380,"kind_detail":"primary","ref":"CE-364","min_zoom":8.0},"arcs":[204]},{"type":"MultiLineString","properties":{"kind":"major_road","network":"BR","sort_rank":380,"kind_detail":"primary","source":"openstreetmap.org","min_zoom":8.0,"shield_text":"403","ref":"BR-403;CE-178"},"arcs":[[205],[206],[207]]},{"type":"MultiLineString","properties":{"sort_rank":380,"kind_detail":"primary","min_zoom":8.0,"kind":"major_road","source":"openstreetmap.org"},"arcs":[[208],[209],[210],[211],[212],[213],[214],[215],[216],[217],[218],[219],[220],[221],[222],[223],[224],[225],[226],[227],[228],[229],[230],[231],[232],[233],[234],[235],[236],[237],[238],[239],[240],[241],[242],[243],[244],[245],[246],[247],[248],[249],[250],[251],[252],[253],[254],[255],[256],[257],[258],[259],[260],[261],[262],[263],[264],[265],[266],[267],[268],[269],[270],[271],[272],[273],[274],[275],[276],[277],[278],[279],[280],[281],[282],[283],[284]]},{"type":"MultiLineString","properties":{"source":"openstreetmap.org","kind":"major_road","sort_rank":380,"kind_detail":"primary","ref":"CE-253","min_zoom":8.0},"arcs":[[285],[286],[287],[288],[289],[290],[291],[292],[293],[294],[295],[296],[297]]},{"type":"MultiLineString","properties":{"source":"openstreetmap.org","kind":"major_road","sort_rank":380,"kind_detail":"primary","ref":"CE-321","min_zoom":8.0},"arcs":[[298],[299],[300],[301],[302],[303]]},{"type":"LineString","properties":{"source":"openstreetmap.org","kind":"major_road","sort_rank":380,"kind_detail":"primary","ref":"CA-240","min_zoom":8.0,"id":450281471},"arcs":[304]},{"type":"MultiLineString","properties":{"bus_network":null,"sort_rank":380,"kind_detail":"primary","kind":"major_road","source":"openstreetmap.org","min_zoom":8.0,"bus_shield_text":"703","landuse_kind":"urban_area"},"arcs":[[305],[306]]},{"type":"LineString","properties":{"source":"openstreetmap.org","kind":"major_road","network":"BR","sort_rank":380,"kind_detail":"primary","min_zoom":8.0,"shield_text":"402"},"arcs":[307]},{"type":"LineString","properties":{"source":"openstreetmap.org","kind":"major_road","sort_rank":380,"kind_detail":"primary","ref":"CE-444","min_zoom":8.0},"arcs":[308]},{"type":"LineString","properties":{"source":"openstreetmap.org","kind":"major_road","landuse_kind":"urban_area","sort_rank":380,"kind_detail":"primary","ref":"CE-471","min_zoom":8.0},"arcs":[309]},{"type":"LineString","properties":{"source":"openstreetmap.org","kind":"major_road","sort_rank":380,"kind_detail":"primary","ref":"BR-402","min_zoom":8.0},"arcs":[310]},{"type":"LineString","properties":{"source":"openstreetmap.org","kind":"major_road","sort_rank":380,"kind_detail":"primary","ref":"CE-241","min_zoom":8.0,"id":524167231},"arcs":[311]},{"type":"MultiLineString","properties":{"source":"openstreetmap.org","kind":"major_road","sort_rank":380,"kind_detail":"primary","ref":"CE-176","min_zoom":8.0},"arcs":[[312],[313],[314],[315],[316],[317],[318],[319],[320],[321],[322],[323],[324]]},{"type":"LineString","properties":{"kind":"major_road","network":"BR","sort_rank":380,"kind_detail":"primary","bus_network":null,"source":"openstreetmap.org","min_zoom":8.0,"bus_shield_text":"389","shield_text":"222","ref":"BR-222;BR-403","id":289000147},"arcs":[325]},{"type":"MultiLineString","properties":{"source":"openstreetmap.org","kind":"major_road","landuse_kind":"urban_area","sort_rank":380,"kind_detail":"primary","ref":"CE-440","min_zoom":8.0},"arcs":[[326],[327],[328]]},{"type":"LineString","properties":{"kind":"major_road","network":"BR","sort_rank":380,"kind_detail":"primary","source":"openstreetmap.org","min_zoom":8.0,"shield_text":"402","ref":"BR-402;CE-085"},"arcs":[329]},{"type":"LineString","properties":{"bus_network":null,"sort_rank":380,"kind_detail":"primary","kind":"major_road","source":"openstreetmap.org","min_zoom":8.0,"bus_shield_text":"Metropolitana","landuse_kind":"urban_area"},"arcs":[330]},{"type":"LineString","properties":{"kind":"major_road","sort_rank":380,"kind_detail":"primary","bus_network":null,"source":"openstreetmap.org","min_zoom":8.0,"bus_shield_text":"Metropolitana","id":140923891},"arcs":[331]},{"type":"MultiLineString","properties":{"source":"openstreetmap.org","kind":"major_road","sort_rank":380,"kind_detail":"primary","ref":"CE-240","min_zoom":8.0},"arcs":[[332],[333],[334],[335],[336],[337],[338],[339],[340],[341],[342],[343],[344]]},{"type":"MultiLineString","properties":{"kind":"major_road","network":"BR","sort_rank":380,"kind_detail":"primary","source":"openstreetmap.org","min_zoom":8.0,"shield_text":"403","ref":"BR-403;CE-366"},"arcs":[[345],[346],[347]]},{"type":"LineString","properties":{"source":"openstreetmap.org","kind":"major_road","sort_rank":380,"kind_detail":"primary","ref":"CE-341","min_zoom":8.0,"id":394423306},"arcs":[348]},{"type":"MultiLineString","properties":{"source":"openstreetmap.org","kind":"major_road","sort_rank":380,"kind_detail":"primary","ref":"CE-177","min_zoom":8.0},"arcs":[[349],[350],[351]]},{"type":"MultiLineString","properties":{"source":"openstreetmap.org","kind":"major_road","sort_rank":380,"kind_detail":"primary","ref":"CE-445","min_zoom":8.0},"arcs":[[352],[353],[354]]},{"type":"LineString","properties":{"kind":"major_road","network":"BR","sort_rank":380,"kind_detail":"primary","source":"openstreetmap.org","min_zoom":8.0,"shield_text":"403","ref":"BR-403\/CE-183","id":210591564},"arcs":[355]},{"type":"MultiLineString","properties":{"kind":"major_road","network":"BR","sort_rank":380,"kind_detail":"primary","source":"openstreetmap.org","min_zoom":8.0,"shield_text":"402","ref":"BR-402"},"arcs":[[356],[357],[358],[359],[360],[361]]},{"type":"MultiLineString","properties":{"kind":"major_road","network":"BR","sort_rank":380,"kind_detail":"primary","source":"openstreetmap.org","min_zoom":8.0,"shield_text":"222","ref":"BR-222;BR-403"},"arcs":[[362],[363],[364],[365],[366]]},{"type":"LineString","properties":{"kind":"major_road","network":"BR","sort_rank":380,"kind_detail":"primary","source":"openstreetmap.org","min_zoom":8.0,"shield_text":"402","ref":"CE-179","id":446371437},"arcs":[367]},{"type":"LineString","properties":{"source":"openstreetmap.org","kind":"major_road","sort_rank":380,"kind_detail":"primary","ref":"CE-354","min_zoom":8.0,"id":509471799},"arcs":[368]},{"type":"LineString","properties":{"source":"openstreetmap.org","kind":"major_road","sort_rank":380,"kind_detail":"primary","ref":"CE-161","min_zoom":8.0,"id":129664963},"arcs":[369]},{"type":"LineString","properties":{"source":"openstreetmap.org","kind":"major_road","sort_rank":380,"kind_detail":"primary","ref":"CE-553","min_zoom":8.0,"id":421980857},"arcs":[370]},{"type":"MultiLineString","properties":{"source":"openstreetmap.org","kind":"major_road","sort_rank":380,"kind_detail":"primary","ref":"CE-243","min_zoom":8.0},"arcs":[[371],[372]]}]},"earth":{"type":"GeometryCollection","geometries":[{"type":"Polygon","properties":{"sort_rank":10,"source":"naturalearthdata.com","kind":"earth","min_zoom":0.0,"id":4474},"arcs":[[373]]}]},"landuse":{"type":"GeometryCollection","geometries":[{"type":"Polygon","properties":{"kind":"nature_reserve","protect_class":"24","area":31946500,"sort_rank":23,"operator":"Funda\u00e7\u00e3o Nacional do \u00cdndio","source":"openstreetmap.org","min_zoom":8.0,"tier":2,"id":287981063},"arcs":[[374]]},{"type":"MultiPolygon","properties":{"kind":"nature_reserve","protect_class":"2","area":181880857,"sort_rank":23,"operator":"Instituto Chico Mendes de Conserva\u00e7\u00e3o da Biodiversidade","source":"openstreetmap.org","min_zoom":8.0,"tier":2},"arcs":[[[375]]]},{"type":"Polygon","properties":{"kind":"protected_area","protect_class":"5","area":17957883092,"sort_rank":17,"operator":"Instituto Chico Mendes de Conserva\u00e7\u00e3o da Biodiversidade","source":"openstreetmap.org","min_zoom":4.0,"tier":2,"osm_relation":true},"arcs":[[376]]},{"type":"Polygon","properties":{"kind":"protected_area","protect_class":"5","area":28869000,"sort_rank":17,"operator":"Instituto Chico Mendes de Conserva\u00e7\u00e3o da Biodiversidade","source":"openstreetmap.org","min_zoom":8.0,"tier":2,"id":-3426370,"osm_relation":true},"arcs":[[377]]},{"type":"MultiPolygon","properties":{"source":"naturalearthdata.com","kind":"urban_area","name":"","area":50297117,"sort_rank":11,"min_zoom":4.0},"arcs":[[[378]]]},{"type":"Polygon","properties":{"kind":"protected_area","protect_class":"5","area":267871008,"sort_rank":17,"operator":"Instituto Chico Mendes de Conserva\u00e7\u00e3o da Biodiversidade","source":"openstreetmap.org","min_zoom":6.0,"tier":2,"id":-3426370,"osm_relation":true},"arcs":[[379]]}]}},"type":"Topology","transform":{"translate":[-40.78125,-4.2149431414],"scale":[0.0003433228,0.0003426689]},"arcs":[[[4096,3689],[-445,324],[-194,83]],[[4096,3689],[-445,324],[-194,83]],[[1181,1540],[48,-11]],[[1229,1529],[-10,-21]],[[1235,1545],[-1,-4],[-5,-12]],[[1229,1529],[6,16]],[[1235,1545],[45,-10]],[[4096,3003],[-1,-1],[-25,0],[-37,8],[-259,110],[-34,43],[-215,117],[-109,90],[-7,14],[-12,38],[-11,8],[-55,-3],[-16,3],[-112,56],[-48,9],[-41,-25],[22,-40],[-22,2],[-20,4],[-19,6],[-18,10],[17,28],[-50,55],[-71,53],[-46,23],[-37,8],[-34,21],[-155,152],[-34,17],[-89,23],[-241,156],[-44,8],[-145,-8],[-47,12],[-45,23],[-41,16],[-36,-10],[-36,17],[-17,-18],[-16,-27],[-32,-13],[-33,14],[-59,55],[-38,12],[-167,27],[2535,0],[0,-1093]],[[0,4096],[687,0],[-106,-47],[-498,-39],[-48,-17],[-35,-18],[0,121]],[[0,3975],[35,18],[48,17],[498,39],[106,47]],[[1561,4096],[167,-27],[38,-12],[59,-55],[33,-14],[32,13],[16,27],[17,18],[36,-17],[36,10],[41,-16],[45,-23],[47,-12],[145,8],[44,-8],[241,-156],[89,-23],[34,-17],[155,-152],[34,-21],[37,-8],[46,-23],[71,-53],[50,-55],[-17,-28],[18,-10],[19,-6],[20,-4],[22,-2],[-22,40],[41,25],[48,-9],[112,-56],[16,-3],[55,3],[11,-8],[12,-38],[7,-14],[109,-90],[215,-117],[34,-43],[259,-110],[37,-8],[25,0],[1,1]],[[1330,1434],[61,-94],[67,-47],[-8,-43],[23,-21]],[[1898,2880],[-8,1]],[[108,895],[5,16]],[[135,924],[-22,-13]],[[135,924],[229,148]],[[871,1404],[2,0]],[[1656,2165],[28,60]],[[1927,3885],[0,4]],[[4096,2501],[-393,156]],[[1165,863],[-13,6]],[[1168,886],[-7,-6]],[[1162,878],[6,8]],[[1262,1338],[14,-53],[-108,-399]],[[1301,1453],[-1,-55],[-39,-57]],[[1280,1605],[-13,-32]],[[1268,1573],[4,5],[8,27]],[[1283,1616],[-3,-11]],[[1301,1454],[0,-1]],[[1301,1453],[1,0]],[[1421,1858],[-4,-7]],[[1639,3860],[-16,199]],[[1748,3732]],[[1748,3732],[1,1]],[[1749,3733],[-1,0],[0,-1]],[[1748,3732],[0,-1]],[[1748,3731],[0,1]],[[1748,3731],[-28,-61],[3,-116],[116,-337]],[[1749,3733],[-1,0]],[[1748,3733],[9,26]],[[1822,2858],[-31,-79],[18,-32],[-37,-215]],[[1819,2858],[16,321]],[[1839,3217],[-4,-38]],[[1836,3179],[3,38]],[[1267,1573],[-8,-11]],[[1260,1562],[8,11]],[[1149,3780],[0,77],[-68,101],[-10,107]],[[879,1970],[-104,27]],[[879,1970],[1,0]],[[880,1970],[71,2]],[[951,1972]],[[951,1972]],[[951,1972]],[[951,1972],[51,16]],[[284,2187],[16,-4]],[[300,2183],[12,-4]],[[1279,2010],[27,17]],[[1670,2202],[-15,15]],[[586,3574],[3,0]],[[91,149],[64,70],[119,-4],[-4,26],[33,-9],[4,-38],[110,48],[176,-40]],[[593,202],[14,-16]],[[607,186],[175,-95]],[[782,91],[3,-2]],[[785,90],[-3,1]],[[896,55],[-2,1]],[[961,18],[-4,1]],[[961,18],[56,-18]],[[3878,730],[50,44]],[[3930,783],[-2,-9]],[[3930,783],[166,177]],[[1920,3954],[7,-65]],[[972,1794],[-41,16],[-42,-34],[-60,52],[-97,21],[-171,-74]],[[957,1956],[-14,17]],[[957,1956],[6,-8]],[[1021,1737],[-31,8],[-18,49],[-9,154]],[[1171,1519],[33,9]],[[1204,1528],[14,-1]],[[1226,1528],[-22,0]],[[1256,1556],[-21,-6],[-8,-22]],[[1227,1529],[1,-1]],[[1259,1561],[-3,-5]],[[1259,1555],[-3,1]],[[1259,1555],[0,6]],[[1290,1497],[-31,58]],[[1259,1562],[-1,-1],[1,0],[1,0],[-1,1]],[[3455,1573],[-82,39],[-36,115],[17,29],[-111,117],[138,-9],[99,53],[-9,96],[21,57]],[[3467,1565],[13,-12]],[[3500,1515],[-14,32]],[[3509,2109],[186,545]],[[3903,3103],[4,11]],[[308,3455],[278,119]],[[589,3574],[233,117],[167,123]],[[989,3814],[9,3]],[[1635,3856],[-162,-2],[-95,-53],[-125,0],[-78,-30],[-177,46]],[[1635,3856],[4,1]],[[1638,3858],[-3,-2]],[[1640,3859],[-2,-1]],[[1638,3858],[0,-1],[2,1]],[[1640,3858],[0,1]],[[1767,3804],[-124,55]],[[1781,3790],[-9,13]],[[1781,3787],[-1,0]],[[1781,3785]],[[1781,3785],[1,0]],[[1781,3787],[-1,0],[1,-2]],[[1781,3785],[1,0]],[[1782,3785],[-1,2]],[[1929,3815],[-78,-35],[-68,4]],[[2491,3782],[-121,5],[-136,63],[-76,-14],[-231,49]],[[1930,3816],[-1,-1]],[[1929,3815],[1,0]],[[2492,3782]],[[2492,3782]],[[2492,3782]],[[2492,3781],[27,-92],[25,-12]],[[2547,3675]],[[2547,3675],[-1,0]],[[2546,3675]],[[2548,3674],[2,-1]],[[2548,3674],[-1,1]],[[2547,3675],[-1,0]],[[2546,3675],[1,-1],[1,0]],[[2550,3673],[-2,1]],[[2593,3627],[-43,46]],[[2593,3627],[2,-2]],[[2595,3625],[-2,2]],[[2596,3623],[1,1]],[[2597,3624],[-1,1],[-1,0],[0,-1],[2,0]],[[3012,3021],[-100,22],[-46,44],[-66,380],[-78,98],[-82,14],[-42,43]],[[3014,3021],[0,-1]],[[3014,3020]],[[3014,3020],[-1,0]],[[3015,3019],[1,1]],[[3016,3020],[-2,1],[0,-1]],[[3014,3020],[-1,0],[1,0]],[[3014,3020],[1,-1],[1,1]],[[3018,3019],[169,-108],[152,-224],[353,-30]],[[3694,2656]],[[3703,2657],[-5,0]],[[2493,3783],[-1,-1]],[[2492,3782]],[[2492,3782],[0,-1],[1,1],[0,1]],[[3694,2657],[1,-1],[1,1],[-1,1],[-1,-1]],[[0,1336],[14,1],[71,-28],[48,52],[129,0],[496,-27],[115,70]],[[1473,1229],[48,-12],[99,53],[58,-69],[96,-9],[90,23],[94,103],[210,43],[73,-17],[222,21],[74,51],[120,-32],[149,15],[250,-83],[242,103],[168,120]],[[3470,1538],[149,-165],[68,-1],[124,-53],[285,196]],[[657,0],[126,89]],[[784,90],[-1,-1]],[[783,89],[3,0]],[[897,57],[27,78],[-53,651]],[[873,1404],[1,1]],[[897,57],[-3,-1]],[[897,55],[0,2]],[[1922,2866],[-4,17]],[[1920,2885],[95,8]],[[1930,3824],[-3,61]],[[1930,3824],[0,-4]],[[2030,3184],[4,117],[-82,84],[-56,164],[34,271]],[[2017,2894],[-2,-1]],[[2015,2893],[2,0]],[[1330,1434],[-51,32]],[[3028,0],[142,62],[94,-48],[13,-14]],[[1192,1609],[-14,18],[-1,1]],[[1177,1628],[-46,40],[-4,39],[-106,30]],[[1176,1632],[1,-4]],[[1177,1628],[1,-2],[13,-18]],[[1192,1607],[30,-29]],[[1223,1578],[-31,30]],[[89,151],[-89,38]],[[85,140]],[[85,140],[-3,-11]],[[83,128],[0,-2]],[[83,139],[2,1]],[[85,140],[6,2],[3,2],[-1,1]],[[83,126],[0,2]],[[62,0],[21,126]],[[83,128],[2,12]],[[93,145],[-4,6]],[[93,145],[1,-1]],[[82,128],[-82,-103]],[[82,129],[0,-1]],[[82,128],[1,0]],[[2018,2895],[-1,-1]],[[2017,2893],[1,0]],[[2018,2895],[12,289]],[[2019,2894],[-1,1]],[[0,3081],[216,-161],[71,-81],[40,-185],[184,-89],[195,83],[69,-16],[150,-116]],[[927,2512],[126,-180],[57,-132],[154,-177]],[[1279,2008],[-28,-365]],[[1251,1643],[4,-66]],[[1255,1577],[-4,66]],[[1264,2023],[15,-13]],[[1279,2010],[-15,13]],[[1279,2008],[0,1]],[[1279,2009],[0,-1]],[[1473,1229],[186,-277],[74,-53],[36,-63],[267,-191]],[[2053,660],[98,-67],[85,-109],[418,-193],[35,-88],[-8,-38],[129,-165]],[[1279,2010]],[[1279,2010],[0,-1],[0,1]],[[1255,1577],[1,-6]],[[1256,1571],[-1,6]],[[1256,1571],[1,-3]],[[1257,1568],[2,-6]],[[1259,1562],[-2,6]],[[657,1339],[-34,111],[-158,209],[-54,186],[7,63],[-101,103],[5,160],[-29,25],[22,93],[-24,61],[-139,127],[-51,-1],[-101,58]],[[1338,1431],[43,79]],[[1383,1513],[112,159],[13,83],[84,160],[64,250]],[[1684,2225],[115,162],[64,162],[-3,75],[38,68],[24,174]],[[86,506],[-1,12]],[[91,142],[3,2]],[[240,686],[-12,6]],[[351,1937],[16,0]],[[368,1937],[6,0]],[[373,1937],[-5,0]],[[587,223],[5,-8],[-12,-3]],[[580,212],[-1,0]],[[580,215],[0,-3]],[[580,212]],[[785,89],[0,1]],[[828,1266],[1,-1]],[[900,53],[57,-34]],[[901,780],[0,1]],[[901,781],[1,1]],[[901,781]],[[901,781],[1,0]],[[925,2516],[2,-4]],[[1152,869],[10,9]],[[1167,1517],[-2,0]],[[1166,1516],[1,1]],[[1167,1517],[4,2]],[[1269,2020]],[[1275,2013],[1,0]],[[1304,1452],[-3,3],[0,2]],[[1301,1457],[-11,40]],[[1293,1490]],[[1295,1487],[-1,-1]],[[1298,1470],[1,0]],[[1300,1457],[1,0]],[[1301,1457]],[[1488,1207],[8,8]],[[2037,643],[-1,4]],[[2036,646],[1,0]],[[2037,646],[0,-1]],[[2037,646]],[[2037,646],[-1,-1]],[[2050,660],[3,3]],[[2052,660]],[[2218,971],[1,-4]],[[2219,967],[1,-2]],[[2219,967]],[[2219,967]],[[2356,1899],[-2,0]],[[2706,1944],[13,2]],[[2738,2482],[2,-1]],[[2739,2481],[-1,0]],[[2777,2487],[-19,10]],[[2759,2524],[-1,-27]],[[2765,2477]],[[2799,2470],[-33,21]],[[3004,2031],[60,18]],[[3014,3020],[1,-1]],[[3015,3021],[-1,0]],[[3309,2180],[-99,-86]],[[3400,2129],[67,-34]],[[3455,1573],[12,-8]],[[3480,1553],[3,-2]],[[3482,1547],[0,-1]],[[3482,1547],[2,0]],[[3483,1551],[-1,-4]],[[3484,1548],[-1,1]],[[3483,1551],[2,-1]],[[3484,1547],[0,1]],[[3484,1547],[2,0]],[[3484,1548],[5,6]],[[3486,1547],[-2,1]],[[3526,2176],[48,11],[26,-26]],[[3877,729],[1,1]],[[3946,796],[-7,-6]],[[82,128],[1,0],[0,1],[-1,-1]],[[368,1937]],[[1143,884],[0,1],[-1,0],[0,-1],[1,0]],[[1191,1608],[1,-1],[0,1],[-1,1],[0,-1]],[[1770,3804],[-1,0],[-1,0],[2,-1],[0,1]],[[2361,1886],[1,0],[-1,1],[0,-1]],[[3468,1540],[0,-1]],[[0,890],[40,-7],[68,12]],[[363,1071],[2,0]],[[365,1071],[0,1]],[[451,995],[-86,76]],[[451,995],[1,-1]],[[452,994],[78,-37],[87,-111],[83,26],[63,-12],[107,-74]],[[872,785],[-2,1]],[[870,786],[1,-1]],[[871,784],[1,1]],[[872,785],[26,-10],[67,145],[177,-35]],[[1143,885],[17,-5]],[[1161,880],[-1,0]],[[1160,880],[1,0]],[[0,504],[84,-13],[25,120],[110,87]],[[108,895],[45,-76],[86,-56],[13,-30],[-29,-30]],[[219,698],[4,5]],[[364,1072],[105,70],[100,143],[7,57]],[[575,1344],[1,-2]],[[576,1342],[1,2]],[[1478,1815],[-1,0]],[[1218,1527],[10,1]],[[1235,1550]],[[3594,2164],[117,-64],[191,-283]],[[377,1934],[106,147]],[[1230,1570],[-7,7]],[[1835,3179],[-114,-49],[-139,35],[-191,-29],[-329,50],[-31,50],[-127,81],[-57,9],[-123,-45],[-92,46],[-47,-15],[-57,46],[-62,-9],[-139,87]],[[561,1775],[-33,-12],[-39,20],[-68,104]],[[1836,0],[1,100],[70,246],[52,131],[57,65],[20,103]],[[2038,646],[190,241],[-58,232],[24,65],[-51,179]],[[2156,1369],[66,83],[99,289],[81,60],[-7,58],[-33,21]],[[2362,1880]],[[2362,1880],[-1,0]],[[2361,1897],[37,84],[161,92],[34,116],[-26,63],[171,229]],[[2361,1897],[0,-17],[1,0]],[[2362,1880]],[[2362,1880],[-1,17]],[[2768,2489],[-4,-12]],[[2765,2476],[3,13]],[[2768,2489],[0,1]],[[3014,3018],[-98,-136],[-19,-145],[-84,-57],[-54,-156],[-1,-28],[44,-28]],[[1275,1467],[1,-1]],[[1222,1578],[23,-24]],[[1223,1577],[0,1]],[[1246,1554],[-16,16]],[[0,3292],[5,4],[115,64],[65,-9],[69,28],[54,76]],[[1235,1550],[39,-3],[15,-50]],[[1289,1497],[10,-42]],[[0,1827],[351,110]],[[368,1937]],[[1002,1988],[20,32],[143,-15],[91,30]],[[1383,1511],[138,6],[71,65],[193,64],[121,97],[239,110],[134,4],[75,42]],[[1477,1815],[-2,1]],[[1478,1815],[-18,-51],[47,-11]],[[1507,1753],[2,-4]],[[1508,1755],[-1,-2]],[[2706,1944],[-350,-45]],[[2361,1883],[4,0]],[[2365,1883],[-4,0]],[[2388,1880],[-23,3]],[[3470,2090],[1,3]],[[785,90],[89,-23]],[[874,67],[22,-12]],[[894,56],[-20,11]],[[3847,616],[-9,41],[39,72]],[[2526,2755],[39,330],[41,51],[-28,60],[31,269],[-14,158]],[[2595,3624],[0,-1]],[[2595,3623],[1,0]],[[220,698],[3,-1]],[[223,697],[-2,3]],[[223,697],[179,-88],[14,-53],[67,-44],[-15,-78],[118,-210]],[[871,786],[-55,448],[70,127],[-12,42]],[[2027,3183],[-192,-4]],[[2018,2893],[3,-1]],[[2021,2892],[-2,2]],[[2021,2892],[424,-65],[107,-85],[22,-88],[141,-165],[258,-130],[72,-7],[29,-51],[393,-206]],[[3512,2110],[82,54]],[[3902,1817],[45,-186],[149,-55]],[[873,1404],[288,110]],[[1161,1514],[7,1]],[[1272,1469],[-104,46]],[[1272,1469],[3,-2]],[[1276,1466],[-4,3]],[[1835,3179]],[[426,2594],[-31,-45],[-43,-9],[-41,-86],[-112,-13]],[[1261,1341],[1,-3]],[[2239,2864],[-32,-92],[42,-144]],[[3482,1546],[-13,-6]],[[3489,1554],[15,12]],[[0,3975],[35,18],[48,17],[498,39],[106,47],[874,0],[167,-27],[38,-12],[59,-55],[33,-14],[32,13],[16,27],[17,18],[36,-17],[36,10],[41,-16],[45,-23],[47,-12],[145,8],[44,-8],[241,-156],[89,-23],[34,-17],[155,-152],[34,-21],[37,-8],[46,-23],[71,-53],[50,-55],[-17,-28],[18,-10],[19,-6],[20,-4],[22,-2],[-22,40],[41,25],[48,-9],[112,-56],[16,-3],[55,3],[11,-8],[12,-38],[7,-14],[109,-90],[215,-117],[34,-43],[259,-110],[37,-8],[25,0],[1,1],[0,-3003],[-4096,0],[0,3975]],[[2242,3242],[238,75],[9,-8],[-2,-109],[-166,-37],[4,35],[-25,17],[-54,-16],[-4,43]],[[535,4018],[161,78],[341,0],[26,-60],[-237,-47],[-201,31],[-41,-33],[-49,31]],[[0,2530],[110,-66],[-110,-268],[0,334]],[[672,1547],[42,11],[-21,31],[44,-12],[35,27],[21,-49],[74,25],[74,-59],[-25,-45],[-144,31],[38,-35],[-30,-10],[-33,45],[-39,-11],[-36,51]],[[1265,1488],[-95,31],[21,46],[46,18],[95,-31],[-21,-46],[-46,-18]],[[524,1798],[32,15],[-18,14],[16,18],[99,17],[-22,9],[11,17],[-25,-18],[-23,4],[36,17],[-9,29],[38,45],[45,3],[-17,21],[94,42],[42,-25],[-19,41],[59,11],[31,-21],[-25,38],[20,14],[97,-17],[12,-29],[-39,-20],[33,-10],[-1,-34],[31,25],[79,-28],[-56,-28],[58,-8],[4,-31],[59,44],[72,-62],[7,-38],[-10,-42],[-70,-68],[-166,-7],[106,-38],[-49,-24],[-135,19],[-63,49],[33,-44],[-42,9],[-30,53],[-79,-24],[-33,28],[-3,-39],[57,-12],[-13,-19],[37,10],[0,-19],[-161,-23],[-14,11],[30,9],[-60,36],[23,15],[-22,28],[-20,-15],[0,41],[-18,-13],[-19,24]]]}