{"objects":{"water":{"type":"GeometryCollection","geometries":[{"type":"MultiPolygon","properties":{"source":"naturalearthdata.com","kind":"ocean","area":1576712559132672,"sort_rank":200,"min_zoom":0.0,"id":1},"arcs":[[[8]],[[9],[10],[11],[12],[13],[14],[15],[16],[17],[18],[19],[20],[21],[22],[23],[24],[25],[26],[27],[28],[29],[30],[31],[32],[33],[34],[35]]]},{"type":"MultiLineString","properties":{"source":"naturalearthdata.com","kind":"ocean","sort_rank":205,"boundary":true,"min_zoom":0.0,"id":71},"arcs":[[36],[37]]},{"type":"LineString","properties":{"source":"naturalearthdata.com","kind":"ocean","sort_rank":205,"boundary":true,"min_zoom":0.0,"id":572},"arcs":[38]},{"type":"LineString","properties":{"source":"naturalearthdata.com","kind":"ocean","sort_rank":205,"boundary":true,"min_zoom":0.0,"id":574},"arcs":[39]},{"type":"LineString","properties":{"source":"naturalearthdata.com","kind":"ocean","sort_rank":205,"boundary":true,"min_zoom":0.0,"id":576},"arcs":[40]},{"type":"LineString","properties":{"source":"naturalearthdata.com","kind":"ocean","sort_rank":205,"boundary":true,"min_zoom":0.0,"id":577},"arcs":[41]},{"type":"LineString","properties":{"source":"naturalearthdata.com","kind":"ocean","sort_rank":205,"boundary":true,"min_zoom":0.0,"id":578},"arcs":[42]},{"type":"LineString","properties":{"source":"naturalearthdata.com","kind":"ocean","sort_rank":205,"boundary":true,"min_zoom":0.0,"id":3731},"arcs":[43]}]},"buildings":{"type":"GeometryCollection","geometries":[]},"places":{"type":"GeometryCollection","geometries":[{"type":"Point","properties":{"kind":"locality","name":"Belize City","name:lt":"Belizas","kind_detail":"city","min_zoom":8.0,"source":"openstreetmap.org","name:fr":"Belize","name:uk":"\u0411\u0435\u043b\u0456\u0437","id":282297046,"population":65042},"coordinates":[1142,2621]},{"type":"Point","properties":{"source":"openstreetmap.org","kind":"locality","name":"San Pedro","kind_detail":"town","population":13381,"min_zoom":8.0,"id":624692823},"coordinates":[1840,3918]},{"type":"Point","properties":{"kind":"locality","name":"Dangriga","kind_detail":"town","source":"openstreetmap.org","min_zoom":8.0,"old_name":"Stann Creek","name:ru":"\u0414\u0430\u043d\u0433\u0440\u0438\u0433\u0430","id":297463331,"population":9096},"coordinates":[1087,1004]}]},"transit":{"type":"GeometryCollection","geometries":[]},"pois":{"type":"GeometryCollection","geometries":[{"type":"Point","properties":{"kind":"national_park","tier":1,"protect_class":"2","area":31519400,"source":"openstreetmap.org","min_zoom":8.3,"operator":"Forest Department \/ Friends of Mayflower-Bocawina","id":-3403620,"osm_relation":true,"name":"Mayflower Bocawina National Park"},"coordinates":[544,899]},{"type":"Point","properties":{"kind":"nature_reserve","tier":2,"protect_class":"4","area":102322000,"source":"openstreetmap.org","min_zoom":8.95,"operator":"Forest Department","id":-2958292,"osm_relation":true,"name":"Crooked Tree Wildlife Sanctuary"},"coordinates":[205,3485]},{"type":"Point","properties":{"kind":"national_park","tier":1,"protect_class":"2","area":61424000,"source":"openstreetmap.org","min_zoom":8.0,"operator":"Fisheries Department","id":220194037,"name":"Hol Chan Marine Reserve"},"coordinates":[1652,3734]},{"type":"Point","properties":{"kind":"national_park","tier":1,"protect_class":"2","area":18100200,"source":"openstreetmap.org","min_zoom":8.7,"operator":"Forest Department","id":223261640,"name":"Five Blues Lake National Park"},"coordinates":[32,1521]},{"type":"Point","properties":{"kind":"national_park","tier":1,"protect_class":"2","area":47292100,"source":"openstreetmap.org","min_zoom":8.01,"operator":"Forest Department","id":223261643,"name":"Peccary Hills National Park"},"coordinates":[627,2169]}]},"boundaries":{"type":"GeometryCollection","geometries":[{"type":"LineString","properties":{"name:ps":"\u0628\u06d0\u0644\u06cc\u0632","name:ka":"\u10d1\u10d4\u10da\u10d8\u10d6\u10d8","name:ko":"\ubca8\ub9ac\uc988","name:cv":"\u0411\u0435\u043b\u0438\u0437","name:tt":"\u0411\u0435\u043b\u0438\u0437","name:kw":"Belisa","min_zoom":8.0,"name:tl":"Belise","name:pa":"\u0a2c\u0a47\u0a32\u0a40\u0a1c\u0a3c","name:os":"\u0411\u0435\u043b\u0438\u0437","name:or":"\u0b2c\u0b47\u0b32\u0b3f\u0b1c","name:ce":"\u0411\u0435\u043b\u0438\u0437","name:ta":"\u0baa\u0bc6\u0bb2\u0bc0\u0b9a\u0bc1","name:tg":"\u0411\u0435\u043b\u0438\u0437","name:te":"\u0c2c\u0c46\u0c32\u0c3f\u0c1c\u0c4d","sort_rank":262,"name:ss":"IBhelizi","name:ba":"\u0411\u0435\u043b\u0438\u0437","name:dz":"\u0f56\u0f7a\u0f0b\u0f63\u0f72\u0f5b\u0f0d","source":"openstreetmap.org","osm_relation":true,"name:kn":"\u0cac\u0cc6\u0cb2\u0cc0\u0c9c\u0ccd","name:dv":"\u0784\u07ac\u078d\u07a9\u0792\u07aa","name:lv":"Beliza","name:lt":"Belizas","name:hi":"\u092c\u0947\u0932\u0940\u091c\u093c","name:he":"\u05d1\u05dc\u05d9\u05d6","name:eo":"Belizo","name:ur":"\u0628\u06cc\u0644\u06cc\u0632","name:la":"Beliza","name:uk":"\u0411\u0435\u043b\u0456\u0437","name:hy":"\u0532\u0565\u056c\u056b\u0566","name:ug":"\u0628\u06d0\u0644\u0649\u0632","name:qu":"Bilisi","name:el":"\u039c\u03c0\u03b5\u03bb\u03af\u03b6","kind":"country","name":"Belize","name:ku":"Bel\u00eeze","name:th":"\u0e1b\u0e23\u0e30\u0e40\u0e17\u0e28\u0e40\u0e1a\u0e25\u0e35\u0e0b","name:yi":"\u05d1\u05e2\u05dc\u05d9\u05d6","name:yo":"B\u1eb9\u0300l\u00eds\u00e8","name:ay":"Wilisi","name:mt":"Beli\u017ce","name:az":"Beliz","name:mr":"\u092c\u0947\u0932\u093f\u091d","name:ar":"\u0628\u0644\u064a\u0632","name:my":"\u1018\u101c\u102d\u1007\u103a\u1014\u102d\u102f\u1004\u103a\u1004\u1036","name:is":"Bel\u00eds","name:am":"\u1264\u120a\u12dd","name:ru":"\u0411\u0435\u043b\u0438\u0437","name:ml":"\u0d2c\u0d46\u0d32\u0d40\u0d38\u0d4d","name:mn":"\u0411\u0435\u043b\u0438\u0437","id":-287827,"name:mk":"\u0411\u0435\u043b\u0438\u0437\u0435","name:vo":"Belis\u00e4n","name:fa":"\u0628\u0644\u06cc\u0632","kind_detail":"2","name:uz":"Beliz","name:fo":"Belis","name:zh-yue":"\u4f2f\u5229\u8332","name:zh":"\u4f2f\u5229\u5179","name:gv":"Yn Veleesh","name:so":"Belise","name:ja":"\u30d9\u30ea\u30fc\u30ba","name:na":"Berij","name:ne":"\u092c\u0947\u0932\u093f\u091c","name:sa":"\u092c\u0947\u0932\u0940\u091c","name:bs":"Beliz","name:bn":"\u09ac\u09c7\u09b2\u09bf\u099c","name:bo":"\u0f56\u0f7a\u0f0b\u0f63\u0f72\u0f0b\u0f5b\u0f72\u0f0d","name:be":"\u0411\u0435\u043b\u0456\u0437","name:su":"B\u00e9lis","name:bg":"\u0411\u0435\u043b\u0438\u0437","name:wo":"Beliis","name:sr":"\u0411\u0435\u043b\u0438\u0437\u0435","name:sq":"Beliza","name:ga":"An Bheil\u00eds","name:gd":"Beilise","name:ht":"Beliz","name:gn":"Mbelise","name:gl":"Belice","maritime_boundary":true,"name:es":"Belice"},"arcs":[0]},{"type":"LineString","properties":{"name:ka":"\u10db\u10d4\u10e5\u10e1\u10d8\u10d9\u10d0","name:ko":"\uba55\uc2dc\ucf54","name:cv":"\u041c\u0435\u043a\u0441\u0438\u043a\u0430","name:km":"\u1798\u17c9\u17b7\u1780\u179f\u17ca\u17b7\u1780","name:kl":"Mexico","name:cs":"Mexiko","name:tw":"Mexico","name:tt":"\u041c\u0435\u043a\u0441\u0438\u043a\u0430","name:co":"Messicu","name:kv":"\u041c\u0435\u043a\u0441\u0438\u043a\u0430","name:th":"\u0e1b\u0e23\u0e30\u0e40\u0e17\u0e28\u0e40\u0e21\u0e47\u0e01\u0e0b\u0e34\u0e42\u0e01","name:tl":"Mehiko","name:ce":"\u041c\u0435\u043a\u0441\u0438\u043a\u0430","name:ta":"\u0bae\u0bc6\u0b95\u0bcd\u0b9a\u0bbf\u0b95\u0bcd\u0b95\u0bcb","name:tg":"\u041c\u0435\u043a\u0441\u0438\u043a\u0430","name:ca":"M\u00e8xic","name:te":"\u0c2e\u0c46\u0c15\u0c4d\u0c38\u0c3f\u0c15\u0c4b","name:cy":"Mexico","name:qu":"Mishiku","name:da":"Mexico","name:de":"Mexiko","name:dz":"\u0f58\u0f7a\u0f40\u0f0b\u0f66\u0f72\u0f0b\u0f40\u0f7c","source":"openstreetmap.org","name:kn":"\u0cae\u0cc6\u0c95\u0ccd\u0cb8\u0cbf\u0c95\u0ccb","name:dv":"\u0789\u07ac\u0786\u07b0\u0790\u07a8\u0786\u07af","name:lv":"Meksika","name:lt":"Meksika","name:uz":"Meksika","name:kk":"\u041c\u0435\u043a\u0441\u0438\u043a\u0430","name:ur":"\u0645\u06cc\u06a9\u0633\u06cc\u06a9\u0648","name:lb":"Mexiko","name:la":"Mexicum","name:uk":"\u041c\u0435\u043a\u0441\u0438\u043a\u0430","name:ug":"\u0645\u06d0\u0643\u0633\u0649\u0643\u0627","name:li":"Mexico","name:ln":"Mexiko","name:el":"\u039c\u03b5\u03be\u03b9\u03ba\u03cc","name:eo":"Meksiko","name:en":"Mexico","name":"M\u00e9xico","name:tk":"Meksika","name:ee":"Mexico","name:ku":"Meks\u00eek","name:eu":"Mexiko","name:et":"Mehhiko","name:ay":"M\u00efxiku","name:rm":"Mexico","name:az":"Meksika","name:id":"Meksiko","name:ik":"Mexiqo","name:ar":"\u0627\u0644\u0645\u0643\u0633\u064a\u0643","name:io":"Mexikia","name:is":"Mex\u00edk\u00f3","name:am":"\u121c\u12ad\u1232\u12ae","name:it":"Messico","name:an":"Mexico","name:ru":"\u041c\u0435\u043a\u0441\u0438\u043a\u0430","name:rw":"Megizike","name:af":"Meksiko","name:zu":"IMekisiko","kind_detail":"2","name:ky":"\u041c\u0435\u043a\u0441\u0438\u043a\u0430","name:zh-yue":"\u58a8\u897f\u54e5","name:zh":"\u58a8\u897f\u54e5","name:so":"Meksiko","name:sn":"Mexico","name:sm":"Mexico","name:sl":"Mehika","name:sk":"Mexiko","name:ja":"\u30e1\u30ad\u30b7\u30b3","name:sh":"Meksiko","name:se":"Meksiko","name:sc":"M\u00e8ssico","name:br":"Mec'hiko","name:bs":"Meksiko","name:bm":"M\u025bkisiki","name:bn":"\u09ae\u09c7\u0995\u09cd\u09b8\u09bf\u0995\u09cb","name:bo":"\u0f58\u0f7a\u0f42\u0f0b\u0f66\u0f72\u0f0b\u0f40\u0f7c\u0f0d","name:bi":"Mexico","name:sw":"Mexiko","name:be":"\u041c\u0435\u043a\u0441\u0456\u043a\u0430","name:su":"M\u00e9ksiko","name:bg":"\u041c\u0435\u043a\u0441\u0438\u043a\u043e","name:ss":"IMekisikho","name:ba":"\u041c\u0435\u043a\u0441\u0438\u043a\u0430","name:sq":"Meksika","name:jv":"M\u00e8ksiko","name:ia":"Mexico","name:oc":"Mexic","min_zoom":8.0,"name:ro":"Mexic","name:zh-min-nan":"Be\u030dk-se-ko","name:os":"\u041c\u0435\u043a\u0441\u0438\u043a\u00e6","name:or":"\u0b2e\u0b47\u0b15\u0b4d\u0b38\u0b3f\u0b15\u0b4b","name:pl":"Meksyk","sort_rank":262,"name:sr":"\u041c\u0435\u043a\u0441\u0438\u043a\u043e","osm_relation":true,"name:pa":"\u0a2e\u0a48\u0a15\u0a38\u0a40\u0a15\u0a4b","name:tr":"Meksika","name:hi":"\u092e\u0947\u0915\u094d\u0938\u093f\u0915\u094b","name:sv":"Mexico","name:he":"\u05de\u05e7\u05e1\u05d9\u05e7\u05d5","name:hy":"\u0544\u0565\u0584\u057d\u056b\u056f\u0561","name:ht":"Meksik","name:hu":"Mexik\u00f3","name:hr":"Meksiko","kind":"country","name:yi":"\u05de\u05e2\u05e7\u05e1\u05d9\u05e7\u05d0","name:iu":"\u14a6\u1483\u14f0\u1582","name:yo":"M\u1eb9\u0301ks\u00edk\u00f2","name:mt":"Messiku","name:ms":"Mexico","name:mr":"\u092e\u0947\u0915\u094d\u0938\u093f\u0915\u094b","name:my":"\u1019\u1000\u1039\u1000\u1006\u102e\u1000\u102d\u102f\u1014\u102d\u102f\u1004\u103a\u1004\u1036","name:kw":"Meksiko","name:mg":"Meksika","name:ml":"\u0d2e\u0d46\u0d15\u0d4d\u0d38\u0d3f\u0d15\u0d4d\u0d15\u0d4b","name:mn":"\u041c\u0435\u043a\u0441\u0438\u043a","name:mi":"Mehiko","id":-114686,"name:mk":"\u041c\u0435\u043a\u0441\u0438\u043a\u043e","name:vo":"M\u00e4xik\u00e4n","name:fa":"\u0645\u06a9\u0632\u06cc\u06a9","name:fi":"Meksiko","name:fo":"Meksiko","alt_name:vi":"M\u00ea-hi-c\u00f4;M\u1ec5 T\u00e2y C\u01a1;M\u1ec5","name:fr":"Mexique","name:fy":"Meksiko","name:nl":"Mexico","name:nn":"Mexico","name:no":"Mexico","name:na":"Meketiko","name:ne":"\u092e\u0947\u0915\u094d\u0938\u093f\u0915\u094b","name:wo":"Meksik","name:nv":"M\u00e9higo","name:ga":"Meicsiceo","name:gd":"Meagsago","name:gn":"M\u00e9jiko","maritime_boundary":true,"name:gv":"Meksico","name:gu":"\u0aae\u0ac7\u0a95\u0acd\u0ab8\u0abf\u0a95\u0acb"},"arcs":[1]},{"type":"LineString","properties":{"kind":"region","name":"Toledo - Stann Creek","sort_rank":256,"kind_detail":"4","id:right":-962353,"source":"openstreetmap.org","min_zoom":8.0,"id:left":-962358,"name:left":"Toledo","id":-962358,"osm_relation":true,"name:right":"Stann Creek"},"arcs":[2]},{"type":"MultiLineString","properties":{"kind":"region","name":"Cayo - Stann Creek","sort_rank":256,"kind_detail":"4","id:right":-962353,"source":"openstreetmap.org","min_zoom":8.0,"id:left":-962357,"name:left":"Cayo","id":-962357,"osm_relation":true,"name:right":"Stann Creek"},"arcs":[[3],[4]]},{"type":"LineString","properties":{"kind":"region","name":"Cayo","sort_rank":256,"kind_detail":"4","source":"openstreetmap.org","min_zoom":8.0,"id":-962357,"osm_relation":true},"arcs":[5]},{"type":"LineString","properties":{"kind":"region","name":"Stann Creek","sort_rank":256,"kind_detail":"4","source":"openstreetmap.org","min_zoom":8.0,"id":-962353,"osm_relation":true},"arcs":[6]},{"type":"LineString","properties":{"kind":"region","name":"Stann Creek","sort_rank":256,"kind_detail":"4","min_zoom":8.0,"source":"openstreetmap.org","maritime_boundary":true,"id":-962353,"osm_relation":true},"arcs":[7]}]},"roads":{"type":"GeometryCollection","geometries":[{"type":"MultiLineString","properties":{"sort_rank":380,"kind_detail":"primary","min_zoom":8.0,"kind":"major_road","source":"openstreetmap.org"},"arcs":[[44],[45],[46],[47],[48],[49],[50],[51],[52],[53],[54],[55],[56],[57],[58],[59],[60],[61],[62],[63],[64],[65],[66],[67],[68],[69],[70],[71],[72],[73],[74],[75],[76],[77],[78],[79],[80],[81],[82],[83],[84],[85],[86],[87],[88],[89],[90],[91],[92],[93],[94],[95],[96],[97],[98],[99],[100],[101],[102],[103],[104],[105],[106],[107],[108],[109],[110],[111],[112],[113],[114],[115],[116],[117]]},{"type":"LineString","properties":{"source":"openstreetmap.org","kind":"ferry","name":"BZ City - San Pedro via Caye Caulker (fair weather route)","sort_rank":355,"landuse_kind":"national_park","min_zoom":8.0,"id":219418349},"arcs":[118]},{"type":"MultiLineString","properties":{"source":"openstreetmap.org","kind":"major_road","sort_rank":380,"kind_detail":"primary","ref":"George Price Hwy","min_zoom":8.0},"arcs":[[119],[120],[121],[122]]},{"type":"LineString","properties":{"kind":"major_road","sort_rank":380,"kind_detail":"primary","is_bicycle_related":true,"cycleway":"shared_lane","source":"openstreetmap.org","min_zoom":8.0,"id":320704642},"arcs":[123]},{"type":"LineString","properties":{"source":"openstreetmap.org","kind":"ferry","name":"Corozal-San Pedro Ferry Route","sort_rank":355,"min_zoom":8.0,"id":377380029},"arcs":[124]},{"type":"MultiLineString","properties":{"sort_rank":355,"source":"openstreetmap.org","min_zoom":8.0,"kind":"ferry"},"arcs":[[125],[126],[127],[128]]},{"type":"MultiLineString","properties":{"sort_rank":355,"source":"openstreetmap.org","min_zoom":8.0,"name":"BZ City - San Pedro via Caye Caulker (fair weather route)","kind":"ferry"},"arcs":[[129],[130]]},{"type":"MultiLineString","properties":{"source":"openstreetmap.org","kind":"ferry","sort_rank":355,"landuse_kind":"national_park","min_zoom":8.0,"id":206863480},"arcs":[[131],[132]]}]},"earth":{"type":"GeometryCollection","geometries":[{"type":"MultiPolygon","properties":{"sort_rank":10,"source":"naturalearthdata.com","min_zoom":0.0,"kind":"earth","area":68021412219},"arcs":[[[133]],[[134]],[[135]],[[136]],[[137]],[[138]],[[139]]]}]},"landuse":{"type":"GeometryCollection","geometries":[{"type":"Polygon","properties":{"kind":"park","protect_class":"4","area":542502016,"sort_rank":24,"operator":"Belize Audubon Society","source":"openstreetmap.org","min_zoom":6.0,"tier":2,"id":266161410},"arcs":[[140]]},{"type":"Polygon","properties":{"kind":"nature_reserve","protect_class":"4","area":12559500,"sort_rank":23,"operator":"Forest Department","source":"openstreetmap.org","min_zoom":8.0,"tier":2,"id":-2958292,"osm_relation":true},"arcs":[[141]]},{"type":"Polygon","properties":{"kind":"nature_reserve","protect_class":"2","area":149000000,"sort_rank":23,"source":"openstreetmap.org","min_zoom":7.0,"tier":2,"id":471542834},"arcs":[[142]]},{"type":"MultiPolygon","properties":{"kind":"national_park","tier":1,"protect_class":"2","area":153409360,"sort_rank":18,"source":"openstreetmap.org","min_zoom":8.0,"operator":"Forest Department"},"arcs":[[[143]],[[144]]]},{"type":"Polygon","properties":{"kind":"national_park","protect_class":"2","area":61424000,"sort_rank":18,"operator":"Fisheries Department","source":"openstreetmap.org","min_zoom":8.0,"tier":1,"id":220194037},"arcs":[[145]]},{"type":"Polygon","properties":{"kind":"nature_reserve","protect_class":"4","area":102322000,"sort_rank":23,"operator":"Forest Department","source":"openstreetmap.org","min_zoom":7.0,"tier":2,"id":-2958292,"osm_relation":true},"arcs":[[146]]},{"type":"Polygon","properties":{"kind":"national_park","protect_class":"2","area":31519400,"sort_rank":18,"operator":"Forest Department \/ Friends of Mayflower-Bocawina","source":"openstreetmap.org","min_zoom":8.0,"tier":1,"id":-3403620,"osm_relation":true},"arcs":[[147],[148]]}]}},"type":"Topology","transform":{"translate":[-88.59375,16.6361918784],"scale":[0.0003433228,0.0003277689]},"arcs":[[[1311,0],[99,435],[516,849],[877,-150],[595,169],[198,201],[112,329],[32,819],[-418,387],[-736,326],[-742,43],[146,350],[206,264],[28,74]],[[3121,4096],[255,-166],[174,-23],[-6,189]],[[46,0],[-10,82],[-36,22]],[[0,1045],[59,153],[53,21],[3,35],[-63,38],[-52,80]],[[0,1414],[12,21]],[[12,1435],[84,52],[76,195],[-83,151],[-26,797],[-55,1],[10,-22],[-18,2]],[[1001,1472],[-118,24],[-132,-67],[-739,6]],[[1311,0],[99,435],[516,849],[-925,188]],[[730,0],[16,40],[77,40],[-19,-31],[-46,-49],[-28,0]],[[4096,4096],[0,-4096],[-3294,0],[17,18],[18,33],[27,216],[-3,30],[-14,48],[-3,37],[7,31],[14,21],[15,15],[6,15],[6,28],[15,18],[37,30],[12,2],[39,-5],[10,3],[3,17],[-7,14],[-11,8],[-5,1],[-11,52],[-57,90],[-13,56],[14,49],[34,53],[40,47],[32,29],[28,11],[26,-1],[18,8],[7,36],[-17,74],[-7,97],[-14,66],[-24,59],[-36,46],[-62,21],[-27,16],[-12,38],[-15,70],[-2,27],[-1,6],[-11,58],[-21,65],[10,120],[3,63],[29,310],[120,404],[8,47],[33,28],[75,-11],[75,-1],[35,59],[-27,25],[-122,22],[-28,25],[-22,46],[-104,53],[-35,37],[-13,73],[14,66],[30,56],[76,90],[23,51],[71,253],[35,253],[-17,79],[120,238],[1,0],[50,34],[8,23],[555,0],[-1,-6],[46,2],[-15,-78],[-38,-54],[-106,-76],[-10,-1],[-30,1],[0,-21],[126,35],[91,89],[51,109],[2125,0]],[[1208,2775],[-18,2],[-6,0],[4,-18],[4,-22],[1,-15],[4,5],[6,2],[13,12],[1,16],[-9,18]],[[2231,2774],[-29,-83],[-2,-19],[23,-3],[27,16],[32,29],[24,-39],[-6,-64],[-22,-60],[-28,-27],[-37,6],[-43,18],[-29,-3],[-60,-62],[-51,-38],[-37,-35],[-23,-48],[-14,-146],[-27,-108],[-7,-65],[-4,-10],[-1,-11],[-4,-10],[-11,-10],[41,-42],[3,43],[13,38],[15,31],[8,22],[18,137],[21,74],[33,37],[37,29],[30,49],[58,-45],[42,28],[29,52],[39,52],[60,119],[12,46],[-18,61],[-35,30],[-42,10],[-35,1]],[[3165,2452],[43,-20],[14,8],[10,20],[-12,25],[-31,5],[-25,-21],[1,-17]],[[1502,1935],[7,52],[-14,33],[-10,-5],[-9,-31],[-2,-57],[8,-24],[3,3],[17,29]],[[2240,2002],[7,16],[7,12],[11,8],[17,5],[1,-10],[-1,-31],[20,0],[-1,72],[5,30],[14,23],[-49,146],[-34,55],[-37,-33],[33,-31],[10,-77],[-3,-185]],[[1571,2270],[-24,43],[-22,-16],[3,-20],[21,-30],[22,23]],[[1517,2544],[1,19],[8,13],[6,31],[-27,40],[-54,42],[-43,17],[-20,-13],[0,-18],[9,-9],[9,-15],[17,-21],[25,-12],[24,3],[4,-13],[3,-64],[6,-25],[20,-2],[12,27]],[[1306,2691],[-22,14],[-18,-2],[5,-27],[12,-18],[19,-18],[9,42],[-5,9]],[[1210,2792],[13,25],[6,12],[-5,24],[-14,-16],[-18,-35],[1,-23],[17,13]],[[1567,2827],[15,-30],[20,0],[-29,163],[-29,74],[-40,34],[38,-169],[25,-72]],[[1337,3160],[90,30],[68,61],[27,99],[-34,-15],[-165,-114],[-61,-28],[-16,-18],[-4,-9],[0,-15],[95,9]],[[1610,3346],[6,-16],[44,49],[-9,53],[5,54],[12,29],[-15,-2],[-14,-28],[-3,-35],[-6,-29],[15,-13],[2,-21],[-12,-17],[-13,6],[-12,-30]],[[1567,3711],[-45,3],[18,-25],[35,6],[24,10],[-32,6]],[[1610,3227],[0,55],[-16,-48],[-2,-50],[18,43]],[[1240,82],[-2,42],[-11,-7],[3,-12],[2,-13],[8,-10]],[[2341,281],[17,30],[-28,-17],[-14,-22],[25,9]],[[1431,551],[-9,42],[-10,-18],[10,-15],[3,-9],[6,0]],[[1465,707],[14,29],[-18,-8],[-1,-2],[5,-19]],[[1459,729],[-15,53],[4,-40],[7,-12],[4,-1]],[[1468,759],[5,-15],[13,37],[1,39],[-20,-25],[1,-36]],[[1600,1051],[-24,5],[-18,-15],[5,-5],[37,15]],[[1643,1114],[-7,33],[-8,-13],[8,-18],[7,-2]],[[1591,1348],[31,2],[12,-2],[8,24],[-5,14],[-49,-4],[-17,-48],[20,14]],[[2958,1632],[31,37],[2,19],[-22,14],[-20,-56],[-3,-47],[12,33]],[[1477,1683],[10,20],[-20,12],[-13,-25],[0,-27],[7,1],[0,7],[16,12]],[[3146,1656],[12,-4],[5,6],[-13,9],[-4,-11]],[[730,0],[16,40],[77,40],[-19,-31],[-46,-49]],[[802,0],[17,18],[18,33],[27,216],[-3,30],[-14,48],[-3,37],[7,31],[14,21],[15,15],[6,15],[6,28],[15,18],[37,30],[12,2],[39,-5],[10,3],[3,17],[-7,14],[-11,8],[-5,1],[-11,52],[-57,90],[-13,56],[14,49],[34,53],[40,47],[32,29],[28,11],[26,-1],[18,8],[7,36],[-17,74],[-7,97],[-14,66],[-24,59],[-36,46],[-62,21],[-27,16],[-12,38],[-15,70],[-2,27],[-1,6],[-11,58],[-21,65],[10,120],[3,63],[29,310],[120,404],[8,47],[33,28],[75,-11],[75,-1],[35,59],[-27,25],[-122,22],[-28,25],[-22,46],[-104,53],[-35,37],[-13,73],[14,66],[30,56],[76,90],[23,51],[71,253],[35,253],[-17,79],[120,238],[1,0],[50,34],[8,23]],[[1504,3068],[38,-169],[25,-72],[15,-30],[20,0],[-29,163],[-29,74],[-40,34]],[[2200,2295],[33,-31],[10,-77],[-3,-185],[7,16],[7,12],[11,8],[17,5],[1,-10],[-1,-31],[20,0],[-1,72],[5,30],[14,23],[-49,146],[-34,55],[-37,-33]],[[1262,3193],[-16,-18],[-4,-9],[0,-15],[95,9],[90,30],[68,61],[27,99],[-34,-15],[-165,-114],[-61,-28]],[[2231,2774],[-29,-83],[-2,-19],[23,-3],[27,16],[32,29],[24,-39],[-6,-64],[-22,-60],[-28,-27],[-37,6],[-43,18],[-29,-3],[-60,-62],[-51,-38],[-37,-35],[-23,-48],[-14,-146],[-27,-108],[-7,-65],[-4,-10],[-1,-11],[-4,-10],[-11,-10],[41,-42],[3,43],[13,38],[15,31],[8,22],[18,137],[21,74],[33,37],[37,29],[30,49],[58,-45],[42,28],[29,52],[39,52],[60,119],[12,46],[-18,61],[-35,30],[-42,10],[-35,1]],[[1857,4096],[-1,-6],[46,2],[-15,-78],[-38,-54],[-106,-76],[-10,-1],[-30,1],[0,-21],[126,35],[91,89],[51,109]],[[1451,2689],[-43,17],[-20,-13],[0,-18],[9,-9],[9,-15],[17,-21],[25,-12],[24,3],[4,-13],[3,-64],[6,-25],[20,-2],[12,27],[1,19],[8,13],[6,31],[-27,40],[-54,42]],[[587,2517],[-16,-47],[-104,-50],[-51,-62],[-152,-16],[-185,-246],[-79,-69]],[[0,1333],[37,-52]],[[38,1281],[138,-25],[70,-70],[317,-109],[285,33],[23,-59]],[[1086,2676],[-63,71],[-170,38],[-140,109],[-5,2],[-63,86],[6,89],[-119,48],[-77,138],[-64,49],[-22,122],[-67,93],[-4,229],[-75,90],[14,202],[-34,54]],[[493,213],[-46,-88],[-167,-125]],[[754,0],[65,64],[-7,102],[-186,-60],[-78,85],[-55,22]],[[493,214],[90,91],[45,243],[96,93],[11,260],[136,150]],[[587,2519],[-2,1]],[[711,2894],[-91,-13],[-79,-82],[-16,-120],[21,-107],[40,-53]],[[586,2518],[1,-1]],[[587,2517],[0,1]],[[871,1051],[135,-59],[80,-4]],[[1080,2635],[-111,-97]],[[1080,2635],[1,0]],[[1081,2635],[-1,0]],[[1081,2635],[1,0]],[[1082,2635],[-1,0]],[[1082,2635]],[[1082,2635]],[[1131,2631],[-49,4]],[[1086,2676]],[[1086,2676]],[[1086,2676]],[[1086,2676]],[[1086,2676]],[[1109,2669],[-23,7]],[[1109,2669],[3,-2]],[[1112,2668],[-3,1]],[[1112,2667],[0,1],[0,-1]],[[1112,2667]],[[1112,2667],[26,-11]],[[1138,2657],[-26,11]],[[1131,2631],[14,-7]],[[1136,2629],[-5,2]],[[1138,2656],[12,-20]],[[1157,2649],[-18,7]],[[1149,2622],[-4,-22]],[[1145,2624],[4,-2]],[[1150,2636],[-5,-12]],[[1146,2600],[4,22]],[[1150,2623],[0,13]],[[1150,2636],[7,12]],[[1151,2669]],[[1151,2669]],[[1151,2669],[3,-10]],[[1165,2672],[-14,-3]],[[1155,2659],[-4,10]],[[1151,2669],[14,3]],[[1155,2659],[2,-10]],[[1158,2649],[-3,10]],[[1158,2648],[3,0]],[[1161,2649],[-3,0]],[[1161,2648],[3,0]],[[1164,2648],[-3,1]],[[1164,2648],[24,-16]],[[1184,2666],[-18,6]],[[1166,2672],[18,-6]],[[1186,2641],[-2,25]],[[493,214],[0,-1],[1,1],[-1,0]],[[587,2519],[-1,0],[0,-1]],[[586,2518],[1,0],[0,1]],[[1138,2657],[0,-1],[1,0],[-1,1]],[[1150,2623],[-1,-1]],[[1149,2622],[1,0],[0,1]],[[1150,2636],[1,0],[-1,0]],[[1151,2669]],[[1151,2669]],[[1151,2669]],[[1155,2659]],[[1155,2659],[-1,0],[1,0]],[[1157,2649],[0,-1],[1,0],[0,1]],[[1158,2649],[-1,0]],[[1161,2649],[0,-1],[1,1],[-1,0]],[[1165,2672],[1,0],[-1,0]],[[1782,3769],[-42,-97]],[[969,2538],[-227,19],[-133,-26],[-22,-12]],[[587,2519]],[[587,2518],[0,1]],[[587,2519],[1,1]],[[37,1281],[1,0]],[[1831,3915],[-34,3],[-44,-38],[-47,36],[-82,180]],[[1479,3760],[11,336]],[[1084,1013],[326,-124],[142,-87]],[[1708,3668],[-111,-82],[-80,19],[-27,112]],[[1839,3911],[-57,-142]],[[1191,2617],[16,-9],[55,95],[151,318],[250,354],[31,189],[46,108]],[[1845,3919],[-63,-150]],[[1490,3717],[-11,43]],[[1782,3769],[-74,-101]],[[1337,3160],[-95,-9],[0,15],[4,9],[16,18],[61,28],[165,114],[34,15],[-27,-99],[-68,-61],[-90,-30]],[[2301,2074],[1,-72],[-20,0],[1,31],[-1,10],[-17,-5],[-11,-8],[-7,-12],[-7,-16],[3,185],[-10,77],[-33,31],[37,33],[34,-55],[49,-146],[-14,-23],[-5,-30]],[[2343,2733],[18,-61],[-12,-46],[-60,-119],[-39,-52],[-29,-52],[-42,-28],[-58,45],[-30,-49],[-37,-29],[-33,-37],[-21,-74],[-18,-137],[-8,-22],[-15,-31],[-13,-38],[-3,-43],[-41,42],[11,10],[4,10],[1,11],[4,10],[7,65],[27,108],[14,146],[23,48],[37,35],[51,38],[60,62],[29,3],[43,-18],[37,-6],[28,27],[22,60],[6,64],[-24,39],[-32,-29],[-27,-16],[-23,3],[2,19],[29,83],[35,-1],[42,-10],[35,-30]],[[1505,2647],[27,-40],[-6,-31],[-8,-13],[-1,-19],[-12,-27],[-20,2],[-6,25],[-3,64],[-4,13],[-24,-3],[-25,12],[-17,21],[-9,15],[-9,9],[0,18],[20,13],[43,-17],[54,-42]],[[1602,2797],[-20,0],[-15,30],[-25,72],[-38,169],[40,-34],[29,-74],[29,-163]],[[0,0],[0,4096],[1302,0],[-8,-23],[-50,-34],[-1,0],[-120,-238],[17,-79],[-35,-253],[-71,-253],[-23,-51],[-76,-90],[-30,-56],[-14,-66],[13,-73],[35,-37],[104,-53],[22,-46],[28,-25],[122,-22],[27,-25],[-35,-59],[-75,1],[-75,11],[-33,-28],[-8,-47],[-120,-404],[-29,-310],[-3,-63],[-10,-120],[21,-65],[11,-58],[1,-6],[2,-27],[15,-70],[12,-38],[27,-16],[62,-21],[36,-46],[24,-59],[14,-66],[7,-97],[17,-74],[-7,-36],[-18,-8],[-26,1],[-28,-11],[-32,-29],[-40,-47],[-34,-53],[-14,-49],[13,-56],[57,-90],[11,-52],[5,-1],[11,-8],[7,-14],[-3,-17],[-10,-3],[-39,5],[-12,-2],[-37,-30],[-15,-18],[-6,-28],[-6,-15],[-15,-15],[-14,-21],[-7,-31],[3,-37],[14,-48],[3,-30],[-27,-216],[-18,-33],[-17,-18],[-44,0],[46,49],[19,31],[-77,-40],[-16,-40],[-730,0]],[[1857,4096],[114,0],[-51,-109],[-91,-89],[-126,-35],[0,21],[30,-1],[10,1],[106,76],[38,54],[15,78],[-46,-2],[1,6]],[[0,513],[102,1],[10,29],[127,29],[142,-36],[86,-72],[-45,-71],[-54,3],[-2,-28],[-82,5],[-30,-54],[-54,3],[16,-70],[-65,-66],[-51,61],[-7,-59],[-93,-24],[0,349]],[[452,3379],[50,76],[-16,-77],[67,-203],[-50,1],[-21,163],[-30,40]],[[904,4096],[-1,-15],[-19,15],[20,0]],[[0,1453],[0,81],[56,9],[13,35],[-26,14],[81,28],[-25,-82],[-48,-18],[0,-62],[-24,18],[-27,-23]],[[468,2271],[245,2],[-8,-159],[-157,-55],[37,67],[-117,145]],[[1456,3749],[148,71],[34,0],[35,-45],[168,-9],[-30,-107],[-61,14],[-189,-25],[-105,101]],[[26,3047],[67,141],[-34,120],[25,93],[-21,101],[30,94],[-27,108],[69,242],[-4,-292],[28,49],[69,-211],[-2,-20],[-44,5],[-26,129],[-38,32],[18,-39],[-23,-1],[-26,-107],[31,-99],[-26,-79],[24,36],[8,-35],[62,14],[-3,147],[43,-4],[66,-224],[81,-37],[17,-49],[41,10],[13,-42],[-18,34],[-18,-13],[-53,18],[-54,72],[-148,-9],[61,-71],[-39,-133],[2,119],[-38,95],[-22,0],[12,-41],[-89,-174],[-14,21]],[[512,989],[180,9],[2,-22],[-73,-12],[24,-48],[-20,-78],[-30,8],[0,-50],[-82,0],[-1,193]],[[540,892],[13,-24],[53,12],[0,20],[-66,-8]]]}