{"objects":{"water":{"type":"GeometryCollection","geometries":[{"type":"Polygon","properties":{"source":"naturalearthdata.com","kind":"ocean","area":1576712559132672,"sort_rank":200,"min_zoom":0.0,"id":1},"arcs":[[2]]},{"type":"LineString","properties":{"source":"naturalearthdata.com","kind":"ocean","sort_rank":205,"boundary":true,"min_zoom":0.0,"id":72},"arcs":[3]}]},"buildings":{"type":"GeometryCollection","geometries":[]},"places":{"type":"GeometryCollection","geometries":[]},"transit":{"type":"GeometryCollection","geometries":[]},"pois":{"type":"GeometryCollection","geometries":[]},"boundaries":{"type":"GeometryCollection","geometries":[{"type":"LineString","properties":{"name:pt":"Nicar\u00e1gua","name:ps":"\u0646\u06cc\u06a9\u0627\u0631\u0627\u06ab\u0648\u0627","name:ka":"\u10dc\u10d8\u10d9\u10d0\u10e0\u10d0\u10d2\u10e3\u10d0","name:ko":"\ub2c8\uce74\ub77c\uacfc","name:cs":"Nikaragua","name:tt":"\u041d\u0438\u043a\u0430\u0440\u0430\u0433\u0443\u0430","name:kw":"Nikaragwa","name:kv":"\u041d\u0438\u043a\u0430\u0440\u0430\u0433\u0443\u0430","name:ku":"N\u00eekaragua","name:pa":"\u0a28\u0a3f\u0a15\u0a3e\u0a30\u0a3e\u0a17\u0a41\u0a06","name:os":"\u041d\u0438\u043a\u0430\u0440\u0430\u0433\u0443\u00e6","name:or":"\u0b28\u0b3f\u0b15\u0b3e\u0b30\u0b3e\u0b17\u0b41\u0b06","name:ce":"\u041d\u0438\u043a\u0430\u0440\u0430\u0433\u0443\u0430","name:ta":"\u0ba8\u0bbf\u0b95\u0bcd\u0b95\u0bb0\u0bbe\u0b95\u0bc1\u0bb5\u0bbe","name:tg":"\u041d\u0438\u043a\u0430\u0440\u0430\u0433\u0443\u0430","source":"openstreetmap.org","sort_rank":262,"name:qu":"Nikarawa","name:ba":"\u041d\u0438\u043a\u0430\u0440\u0430\u0433\u0443\u0430","name:tr":"Nikaragua","name:sq":"Nikaraguaja","name:dv":"\u0782\u07a8\u0786\u07a6\u0783\u07a7\u078e\u07aa\u0787\u07a7","name:lv":"Nikaragva","name:lt":"Nikaragva","name:uz":"Nikaragua","name:kk":"\u041d\u0438\u043a\u0430\u0440\u0430\u0433\u0443\u0430","name:he":"\u05e0\u05d9\u05e7\u05e8\u05d2\u05d5\u05d0\u05d4","name:eo":"Nikaragvo","name:ur":"\u0646\u06a9\u0627\u0631\u0627\u06af\u0648\u0627","name:uk":"\u041d\u0456\u043a\u0430\u0440\u0430\u0433\u0443\u0430","name:hy":"\u0546\u056b\u056f\u0561\u0580\u0561\u0563\u0578\u0582\u0561","name:ug":"\u0646\u0649\u0643\u0627\u0631\u0627\u06af\u06c7\u0626\u0627","name:ln":"Nikalagwa","name:el":"\u039d\u03b9\u03ba\u03b1\u03c1\u03ac\u03b3\u03bf\u03c5\u03b1","kind":"country","name":"Nicaragua","name:gd":"Niocaragua","min_zoom":8.0,"name:th":"\u0e1b\u0e23\u0e30\u0e40\u0e17\u0e28\u0e19\u0e34\u0e01\u0e32\u0e23\u0e32\u0e01\u0e31\u0e27","name:eu":"Nikaragua","name:jv":"Nikaragua","name:yo":"Nikar\u00e1g\u00fa\u00e0","name:ay":"Nikarwa","name:mt":"Nikaragwa","name:az":"Nikaraqua","name:id":"Nikaragua","name:mr":"\u0928\u093f\u0915\u093e\u0930\u093e\u0917\u094d\u0935\u093e","name:ar":"\u0646\u064a\u0643\u0627\u0631\u0627\u062c\u0648\u0627","name:my":"\u1014\u102e\u1000\u102c\u101b\u102c\u1002\u103d\u102b\u1014\u102d\u102f\u1004\u103a\u1004\u1036","name:io":"Nikaragua","name:is":"N\u00edkaragva","name:am":"\u1292\u12ab\u122b\u1313","name:ru":"\u041d\u0438\u043a\u0430\u0440\u0430\u0433\u0443\u0430","id":-287666,"name:ml":"\u0d28\u0d3f\u0d15\u0d4d\u0d15\u0d30\u0d3e\u0d17\u0d4d\u0d35","name:rw":"Nikaragwa","name:pl":"Nikaragua","name:mk":"\u041d\u0438\u043a\u0430\u0440\u0430\u0433\u0432\u0430","name:vo":"Nikaraguv\u00e4n","name:fa":"\u0646\u06cc\u06a9\u0627\u0631\u0627\u06af\u0648\u0626\u0647","name:mn":"\u041d\u0438\u043a\u0430\u0440\u0430\u0433\u0443\u0430","name:ss":"INikhalaga","kind_detail":"2","name:hi":"\u0928\u093f\u0915\u093e\u0930\u093e\u0917\u0941\u0906","name:fo":"Nikaragua","name:zh-yue":"\u5c3c\u52a0\u62c9\u74dc","name:fy":"Nikarag\u00fba","name:zh":"\u5c3c\u52a0\u62c9\u74dc","name:hr":"Nikaragva","name:so":"Nikaragua","name:sl":"Nikaragva","name:sk":"Nikaragua","name:ja":"\u30cb\u30ab\u30e9\u30b0\u30a2","name:sh":"Nikaragva","name:ne":"\u0928\u093f\u0915\u093e\u0930\u093e\u0917\u094d\u0935\u093e","name:sa":"\u0928\u093f\u0915\u093e\u0930\u0917\u0941\u0935\u093e","name:bs":"Nikaragva","name:yi":"\u05e0\u05d9\u05e7\u05d0\u05e8\u05d0\u05d2\u05d5\u05d0","name:bn":"\u09a8\u09bf\u0995\u09be\u09b0\u09be\u0997\u09c1\u09af\u09bc\u09be","name:bo":"\u0f53\u0f72\u0f0b\u0f40\u0f0b\u0f62\u0f0b\u0f42\u0f74\u0f0b\u0f5d\u0f0d","name:sw":"Nikaragua","name:be":"\u041d\u0456\u043a\u0430\u0440\u0430\u0433\u0443\u0430","name:su":"Nikaragua","name:bg":"\u041d\u0438\u043a\u0430\u0440\u0430\u0433\u0443\u0430","name:wo":"Nikaraaguwa","name:sr":"\u041d\u0438\u043a\u0430\u0440\u0430\u0433\u0432\u0430","osm_relation":true,"name:ga":"Nicearagua","name:bm":"Nikaragwa","name:ht":"Nikaragwa","name:gn":"Nikaragua","maritime_boundary":true,"name:gv":"Yn Nickeraag"},"arcs":[0]},{"type":"LineString","properties":{"kind":"region","name":"Chinandega","sort_rank":256,"kind_detail":"4","min_zoom":8.0,"official_name":"Departamento de Chinandega","source":"openstreetmap.org","maritime_boundary":true,"id":-2194907,"osm_relation":true},"arcs":[1]}]},"roads":{"type":"GeometryCollection","geometries":[{"type":"LineString","properties":{"source":"openstreetmap.org","kind":"major_road","sort_rank":380,"kind_detail":"primary","ref":"24A","min_zoom":8.0},"arcs":[4]}]},"earth":{"type":"GeometryCollection","geometries":[{"type":"MultiPolygon","properties":{"sort_rank":10,"source":"naturalearthdata.com","min_zoom":0.0,"kind":"earth","area":23219379189},"arcs":[[[5]]]}]},"landuse":{"type":"GeometryCollection","geometries":[]}},"type":"Topology","transform":{"translate":[-88.59375,11.1784018737],"scale":[0.0003433228,0.000335977]},"arcs":[[[3270,4096],[156,-166],[368,-286],[158,-201],[144,-86]],[[3270,4096],[156,-166],[368,-286],[158,-201],[144,-86]],[[3918,4096],[31,-13],[56,-53],[76,-97],[15,-13],[0,-3920],[-4096,0],[0,4096],[3918,0]],[[3918,4096],[31,-13],[56,-53],[76,-97],[15,-13]],[[4096,4071],[-40,-55],[40,-66]],[[4096,4096],[0,-176],[-15,13],[-76,97],[-56,53],[-31,13],[178,0]]]}