{"objects":{"water":{"type":"GeometryCollection","geometries":[{"type":"MultiPolygon","properties":{"kind":"lake","name":"IJsselmeer","area":5348297728,"sort_rank":200,"alkaline":true,"source":"naturalearthdata.com","min_zoom":0.0,"id":1298},"arcs":[[[421]],[[422]]]},{"type":"MultiPolygon","properties":{"source":"naturalearthdata.com","kind":"ocean","area":1576712559132672,"sort_rank":200,"min_zoom":0.0,"id":1},"arcs":[[[423],[424],[425],[426],[427],[428],[429],[430],[431],[432],[433],[434],[435],[436]]]},{"type":"Polygon","properties":{"source":"naturalearthdata.com","kind":"lake","name":"Lauwerszee","area":86483632,"sort_rank":200,"min_zoom":0.0,"id":760},"arcs":[[437]]},{"type":"Point","properties":{"label_placement":true,"kind":"lake","name":"Lauwerszee","area":86483632,"sort_rank":200,"source":"naturalearthdata.com","min_zoom":0.0,"id":760},"coordinates":[804,2183]},{"type":"LineString","properties":{"source":"naturalearthdata.com","kind":"ocean","sort_rank":205,"boundary":true,"min_zoom":0.0,"id":19},"arcs":[438]},{"type":"LineString","properties":{"source":"naturalearthdata.com","kind":"lake","sort_rank":367,"boundary":true,"min_zoom":0.0,"id":760},"arcs":[439]},{"type":"LineString","properties":{"source":"naturalearthdata.com","kind":"ocean","sort_rank":205,"boundary":true,"min_zoom":0.0,"id":1148},"arcs":[440]},{"type":"LineString","properties":{"source":"naturalearthdata.com","kind":"ocean","sort_rank":205,"boundary":true,"min_zoom":0.0,"id":1149},"arcs":[441]},{"type":"LineString","properties":{"source":"naturalearthdata.com","kind":"ocean","sort_rank":205,"boundary":true,"min_zoom":0.0,"id":1150},"arcs":[442]},{"type":"LineString","properties":{"source":"naturalearthdata.com","kind":"ocean","sort_rank":205,"boundary":true,"min_zoom":0.0,"id":1154},"arcs":[443]},{"type":"LineString","properties":{"source":"naturalearthdata.com","kind":"ocean","sort_rank":205,"boundary":true,"min_zoom":0.0,"id":1155},"arcs":[444]},{"type":"LineString","properties":{"source":"naturalearthdata.com","kind":"ocean","sort_rank":205,"boundary":true,"min_zoom":0.0,"id":1156},"arcs":[445]},{"type":"LineString","properties":{"source":"naturalearthdata.com","kind":"ocean","sort_rank":205,"boundary":true,"min_zoom":0.0,"id":1157},"arcs":[446]},{"type":"LineString","properties":{"source":"naturalearthdata.com","kind":"ocean","sort_rank":205,"boundary":true,"min_zoom":0.0,"id":1158},"arcs":[447]},{"type":"LineString","properties":{"source":"naturalearthdata.com","kind":"ocean","sort_rank":205,"boundary":true,"min_zoom":0.0,"id":1159},"arcs":[448]},{"type":"LineString","properties":{"source":"naturalearthdata.com","kind":"ocean","sort_rank":205,"boundary":true,"min_zoom":0.0,"id":1160},"arcs":[449]},{"type":"LineString","properties":{"source":"naturalearthdata.com","kind":"ocean","sort_rank":205,"boundary":true,"min_zoom":0.0,"id":1161},"arcs":[450]},{"type":"MultiLineString","properties":{"source":"naturalearthdata.com","kind":"lake","sort_rank":367,"alkaline":true,"boundary":true,"min_zoom":0.0,"id":1298},"arcs":[[451],[452],[453],[454],[455]]},{"type":"Point","properties":{"label_placement":true,"kind":"sea","name":"Wattenmeer der Nordsee","source":"openstreetmap.org","sort_rank":200,"min_zoom":3.0,"id":4805502333},"coordinates":[1833,2562]}]},"buildings":{"type":"GeometryCollection","geometries":[]},"places":{"type":"GeometryCollection","geometries":[{"type":"Point","properties":{"name:ka":"\u10dc\u10d8\u10d3\u10d4\u10e0\u10da\u10d0\u10dc\u10d3\u10d4\u10d1\u10d8","name:ko":"\ub124\ub35c\ub780\ub4dc","name:cv":"\u041d\u0438\u0434\u0435\u0440\u043b\u0430\u043d\u0434\u044b","name:km":"\u17a0\u17bb\u179b\u17d2\u179b\u1784\u17cb","name:kl":"Hollandi","name:cs":"Nizozemsko","name:ki":"Uholanzi","name:ku":"Holand","name:ti":"\u1294\u12d8\u122d\u120b\u1295\u12f5","name:ks":"\u0928\u0947\u0926\u0930\u0932\u0948\u0902\u0921\u094d\u0938","name:to":"Holani","name:tl":"Olanda","name:ce":"\u041d\u0438\u0434\u0435\u0440\u043b\u0430\u043d\u0434","name:ta":"\u0ba8\u0bc6\u0ba4\u0bb0\u0bcd\u0bb2\u0bbe\u0ba8\u0bcd\u0ba4\u0bc1","name:tg":"\u041d\u0438\u0434\u0435\u0440\u043b\u0430\u043d\u0434","name:ca":"Pa\u00efsos Baixos","name:te":"\u0c28\u0c47\u0c26\u0c30\u0c4d\u0c32\u0c3e\u0c02\u0c21\u0c4d\u0c38\u0c4d","name:cy":"Yr Iseldiroedd","name:hr":"Nizozemska","name:da":"Holland","name:de":"Niederlande","name:dz":"\u0f53\u0f7a\u0f0b\u0f51\u0f62\u0f0b\u0f63\u0f53\u0f4c\u0f66\u0f84","source":"openstreetmap.org","name:kn":"\u0ca8\u0cc6\u0ca6\u0cb0\u0ccd\u200c\u0cb2\u0ccd\u0caf\u0cbe\u0c82\u0ca1\u0ccd\u0cb8\u0ccd","name:lv":"N\u012bderlande","name:lt":"Nyderlandai","name:uz":"Niderlandlar","name:kk":"\u0413\u043e\u043b\u043b\u0430\u043d\u0434\u0438\u044f","name:ur":"\u0646\u06cc\u062f\u0631 \u0644\u06cc\u0646\u0688\u0632","name:lb":"Holland","name:la":"Nederlandia","name:lg":"Holandi","name:uk":"\u041d\u0456\u0434\u0435\u0440\u043b\u0430\u043d\u0434\u0438","name:ln":"Holanda","name:lo":"\u0ec0\u0e99\u0ec0\u0e97\u0eb5\u0ec1\u0ea5\u0e99","name:el":"\u039f\u03bb\u03bb\u03b1\u03bd\u03b4\u03af\u03b1","name:eo":"Nederlando","name:en":"The Netherlands","name":"Nederland","name:ee":"Nedalands nutome","name:th":"\u0e1b\u0e23\u0e30\u0e40\u0e17\u0e28\u0e40\u0e19\u0e40\u0e18\u0e2d\u0e23\u0e4c\u0e41\u0e25\u0e19\u0e14\u0e4c","name:eu":"Herbehereak","name:et":"Holland","name:es":"Pa\u00edses Bajos","name:ia":"Pais Basse","name:rm":"Pajais Bass","name:rn":"Ubuholandi","name:az":"Niderland","name:id":"Belanda","name:ar":"\u0647\u0648\u0644\u0646\u062f\u0627","name:io":"Nederlando","name:ak":"N\u025bd\u025bland","name:am":"\u1294\u12d8\u122d\u120b\u1295\u12f5","name:it":"Paesi Bassi","name:an":"Pa\u00edses Baxos","name:ru":"\u041d\u0438\u0434\u0435\u0440\u043b\u0430\u043d\u0434\u044b","name:rw":"U Buholandi","name:de_CH":"Holland","name:zu":"i-Netherlands","name:zh":"\u8377\u5170","name:sn":"Netherlands","name:sl":"Nizozemska","name:sk":"Holandsko","name:ja":"\u30aa\u30e9\u30f3\u30c0","name:si":"\u0db1\u0dd9\u0daf\u0dbb\u0dca\u0dbd\u0db1\u0dca\u0dad\u0dba","name:sh":"Nizozemska","name:sg":"Hol\u00e4nde","name:se":"Vuolleeatnamat","name:br":"Izelvroio\u00f9","name:bs":"Holandija","name:bm":"Peyiba","name:bn":"\u09a8\u09c7\u09a6\u09be\u09b0\u09b2\u09cd\u09af\u09be\u09a8\u09cd\u09a1\u09cd\u200c\u09b8","name:bo":"\u0f67\u0f60\u0f7c\u0f0b\u0f63\u0f53\u0f0d","name:sw":"Uholanzi","name:be":"\u041d\u0456\u0434\u044d\u0440\u043b\u0430\u043d\u0434\u044b","name:su":"Walanda","name:bg":"\u0425\u043e\u043b\u0430\u043d\u0434\u0438\u044f","name:sr":"\u0425\u043e\u043b\u0430\u043d\u0434\u0438\u0458\u0430","name:sq":"Holanda","name:pt":"Pa\u00edses Baixos","name:ps":"\u0646\u06d0\u062f\u0631\u0644\u0627\u0646\u0689\/\u0647\u0627\u0644\u06d0\u0646","name:oc":"Pa\u00efses Basses","min_zoom":2.0,"name:ro":"Olanda","name:sv":"Nederl\u00e4nderna","name:os":"\u041d\u0438\u0434\u0435\u0440\u043b\u0430\u043d\u0434\u0442\u00e6","name:or":"\u0b28\u0b47\u0b26\u0b30\u0b32\u0b4d\u0b5f\u0b3e\u0b23\u0b4d\u0b21","name:pl":"Holandia","name:st":"H\u00f4lan\u00ea","name:tr":"Hollanda","name:hi":"\u0928\u0940\u0926\u0930\u0932\u0948\u0923\u094d\u0921","name:he":"\u05d4\u05d5\u05dc\u05e0\u05d3","name:ha":"Holan","name:hy":"\u0546\u056b\u0564\u0565\u057c\u056c\u0561\u0576\u0564\u0576\u0565\u0580","name:ht":"Peyiba","name:hu":"Hollandia","name:qu":"Urasuyu","population":16645313,"kind":"country","name:is":"Holland","name:yo":"Or\u00edl\u1eb9\u0301\u00e8de Nedalandi","name:mt":"Olanda","name:ms":"Belanda","name:mr":"\u0928\u0947\u0926\u0930\u0932\u0901\u0921\u094d\u0938","name:my":"\u1014\u101a\u103a\u101e\u102c\u101c\u1014\u103a","official_name":"Koninkrijk der Nederlanden","name:mg":"Holanda","name:ml":"\u0d28\u0d46\u0d24\u0d7c\u0d32\u0d7b\u0d21\u0d4d\u0d38\u0d4d","name:vi":"H\u00e0 Lan","name:mn":"\u041d\u0438\u0434\u0435\u0440\u043b\u0430\u043d\u0434","name:mi":"H\u014drana","id":424297217,"name:mk":"\u0425\u043e\u043b\u0430\u043d\u0434\u0438\u0458\u0430","name:vo":"Ned\u00e4n","name:fa":"\u0647\u0644\u0646\u062f","name:ff":"Nederlannda","name:fi":"Alankomaat","name:fo":"Ni\u00f0urlond","alt_name:vi":"H\u00f2a Lan","name:fr":"Pays-Bas","name:fy":"Nederl\u00e2n","name:na":"Eben Eyong","name:ne":"\u0928\u0947\u0926\u0930\u0932\u094d\u092f\u093e\u0923\u094d\u0921\u094d\u0938","name:wa":"Bas Payis","name:wo":"Olaand","name:ga":"An \u00cdsilt\u00edr","name:gd":"Na T\u00ecrean \u00ccsle","name:gn":"Holanda","name:gl":"Pa\u00edses Baixos","name:gv":"Yn Ollan","name:gu":"\u0aa8\u0ac7\u0aa7\u0ab0\u0ab2\u0ac7\u0aa8\u0acd\u0aa1"},"coordinates":[179,42]},{"type":"Point","properties":{"kind":"region","name":"Drenthe","kind_detail":"state","name:eo":"Drento","name:de":"Drente","source":"openstreetmap.org","min_zoom":4.0,"name:fy":"Drinte","name:ru":"\u0414\u0440\u0435\u043d\u0442\u0435","id":4289951023,"name:es":"Drente"},"coordinates":[1474,1034]},{"type":"Point","properties":{"alt_name:eo":"Frisio;Frisujo","name:nl":"Friesland","name:eo":"Frislando","min_zoom":4.0,"old_name:en":"Frisia","name:ru":"\u0424\u0440\u0438\u0441\u043b\u0430\u043d\u0434\u0438\u044f","id":4289960493,"name:ca":"Fr\u00edsia","kind":"region","name:en":"Friesland","name":"Frysl\u00e2n","kind_detail":"state","name:de":"Friesland","source":"openstreetmap.org","name:fr":"Frise","alt_name:vo":"Fris\u00e4n","name:es":"Frisia"},"coordinates":[221,1487]},{"type":"Point","properties":{"kind":"region","name":"Groningen","kind_detail":"state","source":"openstreetmap.org","min_zoom":4.0,"name:es":"Groninga","name:ru":"\u0413\u0440\u043e\u043d\u0438\u043d\u0433\u0435\u043d","name:fy":"Grinsl\u00e2n","id":4289960494,"name:ca":"Prov\u00edncia de Groningen"},"coordinates":[1660,2100]},{"type":"Point","properties":{"source":"naturalearthdata.com","kind":"locality","name":"Groningen","population":216688,"region_capital":true,"min_zoom":7.0,"id":2661},"coordinates":[1391,1799]},{"type":"Point","properties":{"source":"naturalearthdata.com","kind":"locality","name":"Leeuwarden","population":125778,"region_capital":true,"min_zoom":7.0,"id":2660},"coordinates":[231,1872]}]},"transit":{"type":"GeometryCollection","geometries":[{"type":"LineString","properties":{"kind":"train","network":"Noordelijke Nevenlijnen","service":"regional","sort_rank":275,"source":"openstreetmap.org","min_zoom":6.0,"operator":"Arriva","ref":"37800","id":-1323483,"osm_relation":true,"name":"37800: Groningen - Veendam"},"arcs":[48]},{"type":"LineString","properties":{"kind":"train","network":"Noordelijke Nevenlijnen","service":"regional","sort_rank":275,"source":"openstreetmap.org","min_zoom":6.0,"operator":"Arriva","ref":"37800","id":-5301787,"osm_relation":true,"name":"37800: Veendam - Groningen"},"arcs":[49]},{"type":"LineString","properties":{"kind":"train","name":"EC 30: Z\u00fcrich => Hamburg","service":"long_distance","sort_rank":275,"source":"openstreetmap.org","min_zoom":5.0,"operator":"Schweizerische Bundesbahnen;DB Fernverkehr AG","ref":"EC30","osm_relation":true,"network":"DB InterCity;EuroCity"},"arcs":[50]},{"type":"MultiLineString","properties":{"kind":"train","network":"DB InterCity","sort_rank":275,"colour":"#00BFFF","name":"IC35 Konstanz - Norddeich","source":"openstreetmap.org","min_zoom":6.0,"operator":"DB Fernverkehr AG","ref":"IC35","osm_relation":true,"colour_name":"dodgerblue"},"arcs":[[51],[52],[53],[54],[55],[56],[57],[58],[59]]},{"type":"MultiLineString","properties":{"kind":"train","network":"DB InterCity","service":"long_distance","sort_rank":275,"source":"openstreetmap.org","min_zoom":5.0,"operator":"DB Fernverkehr AG","ref":"IC 56","osm_relation":true,"name":"IC 56: Norddeich => Cottbus"},"arcs":[[60],[61],[62],[63],[64],[65],[66],[67],[68],[69],[70],[71],[72],[73],[74],[75],[76],[77],[78],[79],[80],[81],[82],[83]]},{"type":"LineString","properties":{"kind":"train","name":"4600: Den Haag Centraal - Zwolle","service":"regional","sort_rank":275,"source":"openstreetmap.org","min_zoom":6.0,"operator":"Nederlandse Spoorwegen","ref":"4600","osm_relation":true},"arcs":[84]},{"type":"MultiLineString","properties":{"kind":"train","network":"DB InterCity","service":"long_distance","sort_rank":275,"source":"openstreetmap.org","min_zoom":5.0,"operator":"DB Fernverkehr AG","ref":"IC 56","osm_relation":true,"name":"IC 56: Cottbus => Norddeich"},"arcs":[[85],[86],[87],[88],[89],[90],[91],[92],[93],[94],[95],[96],[97],[98],[99],[100],[101],[102],[103],[104],[105],[106]]},{"type":"MultiLineString","properties":{"kind":"train","network":"DB InterCity","service":"long_distance","sort_rank":275,"source":"openstreetmap.org","min_zoom":5.0,"operator":"DB Fernverkehr AG","ref":"IC 56","osm_relation":true,"name":"IC 56: Norddeich Mole => Leipzig"},"arcs":[[107],[108],[109],[110],[111],[112],[113],[114],[115],[116],[117],[118],[119],[120],[121],[122],[123],[124],[125],[126],[127],[128],[129],[130]]},{"type":"LineString","properties":{"kind":"train","name":"1800: Den Haag Centraal - Leeuwarden","service":"long_distance","sort_rank":275,"source":"openstreetmap.org","min_zoom":5.0,"operator":"Nederlandse Spoorwegen","ref":"1800","osm_relation":true,"network":"Hoofdrailnet Nederland"},"arcs":[131]},{"type":"LineString","properties":{"kind":"train","network":"Noordelijke Nevenlijnen","service":"regional","sort_rank":275,"source":"openstreetmap.org","min_zoom":6.0,"operator":"Arriva","ref":"37500","id":-1323490,"osm_relation":true,"name":"37500: Groningen - Winschoten"},"arcs":[132]},{"type":"LineString","properties":{"kind":"train","name":"3600: Zwolle - Roosendaal","sort_rank":275,"source":"openstreetmap.org","min_zoom":6.0,"operator":"Nederlandse Spoorwegen","ref":"3600","osm_relation":true},"arcs":[133]},{"type":"LineString","properties":{"kind":"train","network":"DB InterCity","service":"long_distance","sort_rank":275,"source":"openstreetmap.org","min_zoom":5.0,"operator":"DB Fernverkehr AG","ref":"IC30","osm_relation":true,"name":"IC 30: Stuttgart => Westerland"},"arcs":[134]},{"type":"LineString","properties":{"source":"openstreetmap.org","kind":"train","sort_rank":275,"min_zoom":6.0,"osm_relation":true,"id":-7625505},"arcs":[135]},{"type":"MultiLineString","properties":{"kind":"train","network":"DB InterCity","service":"long_distance","sort_rank":275,"source":"openstreetmap.org","min_zoom":5.0,"operator":"DB Fernverkehr AG","ref":"IC 56","osm_relation":true,"name":"IC 56: Leipzig => Norddeich"},"arcs":[[136],[137],[138],[139],[140],[141],[142],[143],[144],[145],[146],[147],[148],[149],[150],[151],[152],[153],[154],[155],[156],[157]]},{"type":"MultiLineString","properties":{"kind":"train","network":"DB InterCity;EuroCity","service":"long_distance","sort_rank":275,"source":"openstreetmap.org","min_zoom":5.0,"operator":"Schweizerische Bundesbahnen;DB Fernverkehr AG","ref":"EC30","osm_relation":true,"name":"EC 30: Hamburg => Z\u00fcrich"},"arcs":[[158],[159]]},{"type":"LineString","properties":{"kind":"train","name":"IC31 Hamburg - Koblenz - Frankfurt (Main)","sort_rank":275,"source":"openstreetmap.org","min_zoom":6.0,"operator":"DB Fernverkehr AG","ref":"IC31","osm_relation":true,"network":"DB InterCity"},"arcs":[160]},{"type":"LineString","properties":{"kind":"train","name":"5600: Zwolle - Utrecht","service":"regional","sort_rank":275,"source":"openstreetmap.org","min_zoom":6.0,"operator":"Nederlandse Spoorwegen","ref":"5600","id":-5274209,"osm_relation":true},"arcs":[161]},{"type":"LineString","properties":{"kind":"train","name":"Museumseisenbahn K\u00fcstenbahn Ostfriesland","sort_rank":275,"source":"openstreetmap.org","min_zoom":6.0,"ref":"Museumseisenbahn K\u00fcstenbahn Ostfriesland","id":-5404289,"osm_relation":true},"arcs":[162]},{"type":"LineString","properties":{"kind":"train","name":"9000: Leeuwarden - Meppel","service":"regional","sort_rank":275,"source":"openstreetmap.org","min_zoom":6.0,"operator":"Nederlandse Spoorwegen","ref":"9000","osm_relation":true},"arcs":[163]},{"type":"LineString","properties":{"kind":"train","network":"Noordelijke Nevenlijnen","service":"regional","sort_rank":275,"source":"openstreetmap.org","min_zoom":6.0,"operator":"Arriva","ref":"37500","id":-5301733,"osm_relation":true,"name":"37500: Winschoten - Groningen"},"arcs":[164]},{"type":"MultiLineString","properties":{"kind":"train","name":"600: Leeuwarden - Rotterdam Centraal","service":"long_distance","sort_rank":275,"source":"openstreetmap.org","min_zoom":5.0,"operator":"Nederlandse Spoorwegen","ref":"600","osm_relation":true,"network":"Hoofdrailnet Nederland"},"arcs":[[165],[166],[167]]},{"type":"LineString","properties":{"kind":"train","description":"ICE 22: Frankfurt => Oldenburg","service":"high_speed","sort_rank":275,"source":"openstreetmap.org","min_zoom":5.0,"operator":"DB Fernverkehr AG","ref":"ICE22","osm_relation":true,"network":"DB InterCityExpress"},"arcs":[168]},{"type":"MultiLineString","properties":{"kind":"train","name":"RB58: Bremen => Osnabr\u00fcck","service":"regional","sort_rank":275,"source":"openstreetmap.org","min_zoom":6.0,"operator":"NordWestBahn","ref":"RB58","osm_relation":true},"arcs":[[169],[170],[171],[172],[173],[174],[175],[176],[177],[178],[179],[180]]},{"type":"LineString","properties":{"kind":"train","network":"Vechtdallijnen","service":"regional","sort_rank":275,"source":"openstreetmap.org","min_zoom":6.0,"operator":"Arriva","ref":"3800","osm_relation":true,"name":"3800: Zwolle - Emmen"},"arcs":[181]},{"type":"LineString","properties":{"kind":"train","network":"Vechtdallijnen","service":"regional","sort_rank":275,"source":"openstreetmap.org","min_zoom":6.0,"operator":"Arriva","ref":"8000","osm_relation":true,"name":"8000: Emmen - Zwolle"},"arcs":[182]},{"type":"LineString","properties":{"kind":"train","network":"Noordelijke Nevenlijnen","service":"regional","sort_rank":275,"source":"openstreetmap.org","min_zoom":6.0,"operator":"Arriva","ref":"37600","id":-5301751,"osm_relation":true,"name":"37600: Roodeschool - Groningen"},"arcs":[183]},{"type":"LineString","properties":{"kind":"train","network":"Vechtdallijnen","service":"regional","sort_rank":275,"source":"openstreetmap.org","min_zoom":6.0,"operator":"Arriva","ref":"13800","id":-5289086,"osm_relation":true,"name":"13800: Coevorden - Zwolle"},"arcs":[184]},{"type":"LineString","properties":{"kind":"train","name":"4600: Zwolle - Den Haag Centraal","service":"regional","sort_rank":275,"source":"openstreetmap.org","min_zoom":6.0,"operator":"Nederlandse Spoorwegen","ref":"4600","id":-5262029,"osm_relation":true},"arcs":[185]},{"type":"MultiLineString","properties":{"kind":"train","name":"500: Rotterdam - Groningen","service":"long_distance","sort_rank":275,"source":"openstreetmap.org","min_zoom":5.0,"operator":"Nederlandse Spoorwegen","ref":"500","osm_relation":true,"network":"Hoofdrailnet Nederland"},"arcs":[[186],[187],[188]]},{"type":"MultiLineString","properties":{"kind":"train","name":"RB58: Osnabr\u00fcck => Bremen","service":"regional","sort_rank":275,"source":"openstreetmap.org","min_zoom":6.0,"operator":"NordWestBahn","ref":"RB58","osm_relation":true},"arcs":[[189],[190],[191],[192],[193],[194],[195],[196],[197],[198],[199],[200]]},{"type":"MultiLineString","properties":{"kind":"train","name":"RE15: M\u00fcnster => Emden","sort_rank":275,"source":"openstreetmap.org","min_zoom":6.0,"operator":"Westfalenbahn","ref":"RE15","osm_relation":true},"arcs":[[201],[202],[203],[204],[205],[206],[207],[208],[209]]},{"type":"LineString","properties":{"kind":"train","name":"700: Den Haag Centraal - Groningen","service":"long_distance","sort_rank":275,"source":"openstreetmap.org","min_zoom":5.0,"operator":"Nederlandse Spoorwegen","ref":"700","osm_relation":true,"network":"Hoofdrailnet Nederland"},"arcs":[210]},{"type":"MultiLineString","properties":{"kind":"train","name":"RE1: Hannover => Norddeich(Mole)","service":"regional","sort_rank":275,"source":"openstreetmap.org","min_zoom":6.0,"operator":"DB","ref":"RE1","osm_relation":true},"arcs":[[211],[212],[213],[214],[215],[216],[217],[218],[219],[220],[221],[222],[223],[224],[225],[226],[227],[228],[229],[230],[231],[232],[233],[234],[235],[236]]},{"type":"LineString","properties":{"source":"openstreetmap.org","kind":"train","name":"Inselbahn Langeoog","sort_rank":275,"min_zoom":6.0,"osm_relation":true,"id":-1335791},"arcs":[237]},{"type":"MultiLineString","properties":{"kind":"train","name":"8500: Kampen-Zwolle","service":"regional","sort_rank":275,"source":"openstreetmap.org","min_zoom":6.0,"operator":"Nederlandse Spoorwegen","ref":"8500","osm_relation":true},"arcs":[[238],[239],[240],[241],[242]]},{"type":"LineString","properties":{"kind":"train","network":"Noordelijke Nevenlijnen","service":"regional","sort_rank":275,"source":"openstreetmap.org","min_zoom":6.0,"operator":"Arriva","ref":"37000","id":-1323497,"osm_relation":true,"name":"37000: Leeuwarden - Sneek"},"arcs":[243]},{"type":"LineString","properties":{"kind":"train","name":"11700: Den Haag Centraal - Amersfoort Schothorst","service":"long_distance","sort_rank":275,"source":"openstreetmap.org","min_zoom":5.0,"operator":"Nederlandse Spoorwegen","ref":"11700","osm_relation":true},"arcs":[244]},{"type":"LineString","properties":{"kind":"train","name":"HKX Hamburg","service":"long_distance","sort_rank":275,"source":"openstreetmap.org","min_zoom":5.0,"operator":"Hamburg-K\u00f6ln-Express GmbH","ref":"HKX","osm_relation":true,"network":"Privater Fernverkehr"},"arcs":[245]},{"type":"MultiLineString","properties":{"kind":"train","name":"RE1: Norddeich(Mole) => Hannover","service":"regional","sort_rank":275,"source":"openstreetmap.org","min_zoom":6.0,"operator":"DB Regio AG","ref":"RE1","osm_relation":true},"arcs":[[246],[247],[248],[249],[250],[251],[252],[253],[254],[255],[256],[257],[258],[259],[260],[261],[262],[263],[264],[265],[266],[267],[268],[269],[270],[271]]},{"type":"LineString","properties":{"kind":"train","name":"7900: Zwolle - Enschede","sort_rank":275,"source":"openstreetmap.org","min_zoom":6.0,"operator":"Nederlandse Spoorwegen","ref":"7900","id":-5280504,"osm_relation":true},"arcs":[272]},{"type":"LineString","properties":{"kind":"train","network":"DB InterCityExpress","service":"high_speed","sort_rank":275,"name":"ICE1 Hamburg - K\u00f6ln","source":"openstreetmap.org","min_zoom":5.0,"operator":"DB Fernverkehr AG","ref":"ICE1","osm_relation":true,"description":"ICE-Sprinter-Zuglauf zwischen Hamburg und K\u00f6ln"},"arcs":[273]},{"type":"LineString","properties":{"kind":"train","network":"Noordelijke Nevenlijnen","service":"regional","sort_rank":275,"source":"openstreetmap.org","min_zoom":6.0,"operator":"Arriva","ref":"37700","id":-5301762,"osm_relation":true,"name":"37700: Delfzijl - Groningen"},"arcs":[274]},{"type":"LineString","properties":{"kind":"train","name":"RE9 Bremerhaven - Osnabr\u00fcck","service":"regional","sort_rank":275,"source":"openstreetmap.org","min_zoom":6.0,"operator":"Deutsche Bahn","ref":"RE9","osm_relation":true,"network":"VBN"},"arcs":[275]},{"type":"MultiLineString","properties":{"kind":"train","network":"Noordelijke Nevenlijnen","service":"regional","sort_rank":275,"source":"openstreetmap.org","min_zoom":6.0,"operator":"Arriva","ref":"37400","osm_relation":true,"name":"37400: Leeuwarden - Groningen"},"arcs":[[276],[277],[278],[279],[280],[281]]},{"type":"LineString","properties":{"kind":"train","network":"DB InterCity","service":"long_distance","sort_rank":275,"source":"openstreetmap.org","min_zoom":5.0,"operator":"DB Fernverkehr AG","ref":"IC31","osm_relation":true,"name":"IC31 Frankfurt - Koblenz - Hamburg"},"arcs":[282]},{"type":"MultiLineString","properties":{"kind":"train","name":"700: Groningen - Den Haag Centraal","service":"long_distance","sort_rank":275,"source":"openstreetmap.org","min_zoom":5.0,"operator":"Nederlandse Spoorwegen","ref":"700","osm_relation":true,"network":"Hoofdrailnet Nederland"},"arcs":[[283],[284]]},{"type":"MultiLineString","properties":{"kind":"train","name":"7900: Enschede - Zwolle","sort_rank":275,"source":"openstreetmap.org","min_zoom":6.0,"operator":"Nederlandse Spoorwegen","ref":"7900","osm_relation":true},"arcs":[[285],[286]]},{"type":"LineString","properties":{"kind":"train","name":"Regionalbahn Emden Hbf - Emden Au\u00dfenhafen","sort_rank":275,"source":"openstreetmap.org","min_zoom":6.0,"operator":"Westfalenbahn","ref":"RE15","id":-79638,"osm_relation":true},"arcs":[287]},{"type":"MultiLineString","properties":{"osm_relation":true,"source":"openstreetmap.org","kind":"train","name":"Borkum-Inselbahn: Reede \u2192 Bahnhof","sort_rank":275,"min_zoom":6.0,"operator":"AG Ems Emden"},"arcs":[[288],[289],[290]]},{"type":"LineString","properties":{"kind":"train","name":"RE19: Bremen \u2192 Wilhelmshaven","service":"regional","sort_rank":275,"source":"openstreetmap.org","min_zoom":6.0,"operator":"NordWestBahn","ref":"RE19","osm_relation":true},"arcs":[291]},{"type":"MultiLineString","properties":{"kind":"train","name":"RE18: Osnabr\u00fcck => Wilhelmshaven","service":"regional","sort_rank":275,"source":"openstreetmap.org","min_zoom":6.0,"operator":"NordWestBahn","ref":"RE18","osm_relation":true},"arcs":[[292],[293],[294],[295],[296],[297],[298],[299],[300],[301],[302],[303]]},{"type":"LineString","properties":{"kind":"train","description":"ICE-Sprinter-Zuglauf zwischen K\u00f6ln und Hamburg","service":"high_speed","sort_rank":275,"source":"openstreetmap.org","min_zoom":5.0,"network":"DB InterCityExpress","operator":"DB Fernverkehr AG","ref":"ICE1","osm_relation":true,"name":"ICE1 K\u00f6ln - Hamburg"},"arcs":[304]},{"type":"LineString","properties":{"kind":"train","network":"Noordelijke Nevenlijnen","service":"regional","sort_rank":275,"source":"openstreetmap.org","min_zoom":6.0,"operator":"Arriva","ref":"20100","id":-5301839,"osm_relation":true,"name":"20100: Weener - Groningen"},"arcs":[305]},{"type":"MultiLineString","properties":{"kind":"train","name":"Museumseisenbahn Hasetal","sort_rank":275,"source":"openstreetmap.org","min_zoom":6.0,"operator":"Eisenbahnfreunde Hasetal (www.eisenbahnfreunde-hasetal.de)","ref":"EBFH 1","osm_relation":true},"arcs":[[306],[307]]},{"type":"LineString","properties":{"kind":"train","name":"31000: Hardenberg - Almelo","service":"regional","sort_rank":275,"source":"openstreetmap.org","min_zoom":6.0,"operator":"Arriva","ref":"31000","id":-5280924,"osm_relation":true},"arcs":[308]},{"type":"LineString","properties":{"kind":"train","network":"DB InterCity","service":"long_distance","sort_rank":275,"source":"openstreetmap.org","min_zoom":5.0,"operator":"DB Fernverkehr AG","ref":"IC30","osm_relation":true,"name":"IC 30: Westerland => Stuttgart"},"arcs":[309]},{"type":"LineString","properties":{"kind":"train","name":"1800: Leeuwarden - Den Haag Centraal","service":"long_distance","sort_rank":275,"source":"openstreetmap.org","min_zoom":5.0,"operator":"Nederlandse Spoorwegen","ref":"1800","osm_relation":true,"network":"Hoofdrailnet Nederland"},"arcs":[310]},{"type":"MultiLineString","properties":{"kind":"train","network":"Noordelijke Nevenlijnen","service":"regional","sort_rank":275,"source":"openstreetmap.org","min_zoom":6.0,"operator":"Arriva","ref":"37300","osm_relation":true,"name":"37300: Leeuwarden - Groningen"},"arcs":[[311],[312],[313],[314],[315],[316]]},{"type":"LineString","properties":{"kind":"train","name":"9000: Meppel - Leeuwarden","service":"regional","sort_rank":275,"source":"openstreetmap.org","min_zoom":6.0,"operator":"Nederlandse Spoorwegen","ref":"9000","osm_relation":true},"arcs":[317]},{"type":"LineString","properties":{"kind":"train","name":"3800: Emmen - Zwolle","service":"regional","sort_rank":275,"source":"openstreetmap.org","min_zoom":6.0,"operator":"Arriva","ref":"3800","osm_relation":true,"network":"Vechtdallijnen"},"arcs":[318]},{"type":"LineString","properties":{"kind":"train","name":"RE19: Wilhelmshaven \u2192 Bremen","service":"regional","sort_rank":275,"source":"openstreetmap.org","min_zoom":6.0,"operator":"NordWestBahn","ref":"RE19","osm_relation":true},"arcs":[319]},{"type":"LineString","properties":{"kind":"train","network":"Noordelijke Nevenlijnen","service":"regional","sort_rank":275,"source":"openstreetmap.org","min_zoom":6.0,"operator":"Arriva","ref":"37700","id":-74068,"osm_relation":true,"name":"37700: Groningen - Delfzijl"},"arcs":[320]},{"type":"MultiLineString","properties":{"kind":"train","network":"Noordelijke Nevenlijnen","service":"regional","sort_rank":275,"source":"openstreetmap.org","min_zoom":6.0,"operator":"Arriva","ref":"37400","osm_relation":true,"name":"37400: Groningen - Leeuwarden"},"arcs":[[321],[322],[323],[324],[325],[326]]},{"type":"MultiLineString","properties":{"kind":"train","name":"31000: Almelo - Hardenberg","service":"regional","sort_rank":275,"source":"openstreetmap.org","min_zoom":6.0,"operator":"Arriva","ref":"31000","osm_relation":true},"arcs":[[327],[328]]},{"type":"MultiLineString","properties":{"kind":"train","description":"RS3: Bad Zwischenahn - Oldenburg - Delmenhorst - Bremen","sort_rank":275,"colour":"5CDA21","source":"openstreetmap.org","min_zoom":6.0,"operator":"NordWestBahn GmbH","ref":"RS3","osm_relation":true,"colour_name":"limegreen"},"arcs":[[329],[330],[331]]},{"type":"LineString","properties":{"kind":"train","network":"Noordelijke Nevenlijnen","service":"regional","sort_rank":275,"source":"openstreetmap.org","min_zoom":6.0,"operator":"Arriva","ref":"37100","id":-5301551,"osm_relation":true,"name":"37100: Leeuwarden - Stavoren"},"arcs":[332]},{"type":"MultiLineString","properties":{"kind":"train","name":"37300: Groningen - Leeuwarden","service":"regional","sort_rank":275,"source":"openstreetmap.org","min_zoom":6.0,"operator":"Arriva","ref":"37300","osm_relation":true,"network":"Noordelijke Nevenlijnen"},"arcs":[[333],[334],[335],[336],[337],[338]]},{"type":"LineString","properties":{"kind":"train","name":"KBS 396 Emden - Au\u00dfenhafen","sort_rank":275,"source":"openstreetmap.org","min_zoom":6.0,"operator":"DB Regio","ref":"396","id":-374291,"osm_relation":true},"arcs":[339]},{"type":"LineString","properties":{"kind":"train","name":"8100: Zwolle - Groningen","service":"regional","sort_rank":275,"source":"openstreetmap.org","min_zoom":6.0,"operator":"Nederlandse Spoorwegen","ref":"8100","osm_relation":true},"arcs":[340]},{"type":"MultiLineString","properties":{"kind":"train","name":"RE18: Wilhelmshaven => Osnabr\u00fcck","service":"regional","sort_rank":275,"source":"openstreetmap.org","min_zoom":6.0,"operator":"NordWestBahn","ref":"RE18","osm_relation":true},"arcs":[[341],[342],[343],[344],[345],[346],[347],[348],[349],[350],[351],[352]]},{"type":"LineString","properties":{"kind":"train","network":"Noordelijke Nevenlijnen","service":"regional","sort_rank":275,"source":"openstreetmap.org","min_zoom":6.0,"operator":"Arriva","ref":"37200","id":-324930,"osm_relation":true,"name":"37200: Leeuwarden - Harlingen Haven"},"arcs":[353]},{"type":"MultiLineString","properties":{"kind":"train","description":"RS3: Bremen - Delmenhorst - Oldenburg - Bad Zwischenahn","sort_rank":275,"colour":"5CDA21","source":"openstreetmap.org","min_zoom":6.0,"operator":"NordWestBahn GmbH","ref":"RS3","osm_relation":true,"colour_name":"limegreen"},"arcs":[[354],[355],[356]]},{"type":"MultiLineString","properties":{"kind":"train","name":"RE15: Emden => M\u00fcnster","sort_rank":275,"source":"openstreetmap.org","min_zoom":6.0,"operator":"Westfalenbahn","ref":"RE15","osm_relation":true},"arcs":[[357],[358],[359],[360],[361],[362],[363],[364],[365]]},{"type":"LineString","properties":{"kind":"train","name":"Wangerooger Inselbahn","sort_rank":275,"source":"openstreetmap.org","min_zoom":6.0,"operator":"Deutsche Bahn AG","id":-1347541,"osm_relation":true},"arcs":[366]},{"type":"MultiLineString","properties":{"osm_relation":true,"source":"openstreetmap.org","kind":"train","name":"Borkum-Inselbahn: Bahnhof \u2192 Reede","sort_rank":275,"min_zoom":6.0,"operator":"AG Ems Emden"},"arcs":[[367],[368],[369]]},{"type":"LineString","properties":{"kind":"train","network":"Noordelijke Nevenlijnen","service":"regional","sort_rank":275,"source":"openstreetmap.org","min_zoom":6.0,"operator":"Arriva","ref":"37000","id":-5301535,"osm_relation":true,"name":"37000: Sneek - Leeuwarden"},"arcs":[370]},{"type":"LineString","properties":{"kind":"train","network":"Vechtdallijnen","service":"regional","sort_rank":275,"source":"openstreetmap.org","min_zoom":6.0,"operator":"Arriva","ref":"8000","osm_relation":true,"name":"8000: Zwolle - Emmen"},"arcs":[371]},{"type":"LineString","properties":{"kind":"train","network":"Noordelijke Nevenlijnen","service":"regional","sort_rank":275,"source":"openstreetmap.org","min_zoom":6.0,"operator":"Arriva","ref":"37100","id":-324940,"osm_relation":true,"name":"37100: Stavoren - Leeuwarden"},"arcs":[372]},{"type":"MultiLineString","properties":{"kind":"train","network":"DB InterCity","service":"long_distance","sort_rank":275,"source":"openstreetmap.org","min_zoom":5.0,"operator":"DB Fernverkehr AG","ref":"IC35","osm_relation":true,"name":"IC35 Norddeich - Konstanz"},"arcs":[[373],[374],[375],[376],[377],[378],[379],[380],[381]]},{"type":"LineString","properties":{"kind":"train","network":"Noordelijke Nevenlijnen","service":"regional","sort_rank":275,"source":"openstreetmap.org","min_zoom":6.0,"operator":"Arriva","ref":"37600","id":-74069,"osm_relation":true,"name":"37600: Groningen - Roodeschool"},"arcs":[382]},{"type":"LineString","properties":{"kind":"train","name":"5600: Utrecht - Zwolle","service":"regional","sort_rank":275,"source":"openstreetmap.org","min_zoom":6.0,"operator":"Nederlandse Spoorwegen","ref":"5600","osm_relation":true},"arcs":[383]},{"type":"MultiLineString","properties":{"kind":"train","network":"Wangerooger Inselbahn","sort_rank":275,"source":"openstreetmap.org","min_zoom":6.0,"operator":"DB AutoZug","ref":"10007 - 1543","osm_relation":true,"name":"Wangerooger Inselbahn - Linie in den Westen"},"arcs":[[384],[385],[386]]},{"type":"LineString","properties":{"kind":"train","name":"HKX K\u00f6ln","service":"long_distance","sort_rank":275,"source":"openstreetmap.org","min_zoom":5.0,"operator":"Hamburg-K\u00f6ln-Express GmbH","ref":"HKX","osm_relation":true,"network":"Privater Fernverkehr"},"arcs":[387]},{"type":"LineString","properties":{"kind":"train","network":"Noordelijke Nevenlijnen","service":"regional","sort_rank":275,"source":"openstreetmap.org","min_zoom":6.0,"operator":"Arriva","ref":"37200","id":-5301556,"osm_relation":true,"name":"37200: Harlingen Haven - Leeuwarden"},"arcs":[388]},{"type":"LineString","properties":{"kind":"train","network":"Vechtdallijnen","service":"regional","sort_rank":275,"source":"openstreetmap.org","min_zoom":6.0,"operator":"Arriva","ref":"13800","id":-4065394,"osm_relation":true,"name":"13800: Zwolle - Coevorden"},"arcs":[389]},{"type":"LineString","properties":{"kind":"train","network":"Noordelijke Nevenlijnen","service":"regional","sort_rank":275,"source":"openstreetmap.org","min_zoom":6.0,"operator":"Arriva","ref":"20100","id":-324899,"osm_relation":true,"name":"20100: Groningen - Weener"},"arcs":[390]},{"type":"LineString","properties":{"kind":"train","name":"8100: Groningen - Zwolle","service":"regional","sort_rank":275,"source":"openstreetmap.org","min_zoom":6.0,"operator":"Nederlandse Spoorwegen","ref":"8100","osm_relation":true},"arcs":[391]},{"type":"MultiLineString","properties":{"kind":"train","name":"600: Rotterdam Centraal - Leeuwarden","service":"long_distance","sort_rank":275,"source":"openstreetmap.org","min_zoom":5.0,"operator":"Nederlandse Spoorwegen","ref":"600","osm_relation":true,"network":"Hoofdrailnet Nederland"},"arcs":[[392],[393],[394]]},{"type":"MultiLineString","properties":{"kind":"train","name":"RB59: Esens => Wilhelmhaven","service":"regional","sort_rank":275,"source":"openstreetmap.org","min_zoom":6.0,"operator":"NordWestBahn","ref":"RB59","osm_relation":true},"arcs":[[395],[396],[397],[398],[399],[400],[401],[402],[403],[404],[405],[406],[407],[408],[409],[410]]},{"type":"MultiLineString","properties":{"kind":"train","name":"8500: Zwolle - Kampen","service":"regional","sort_rank":275,"source":"openstreetmap.org","min_zoom":6.0,"operator":"Nederlandse Spoorwegen","ref":"8500","osm_relation":true},"arcs":[[411],[412],[413],[414],[415]]},{"type":"LineString","properties":{"kind":"train","name":"3600: Roosendaal - Zwolle","sort_rank":275,"source":"openstreetmap.org","min_zoom":6.0,"operator":"Nederlandse Spoorwegen","ref":"3600","osm_relation":true,"network":"Hoofdrailnet Nederland"},"arcs":[416]},{"type":"MultiLineString","properties":{"kind":"train","name":"12600: Groningen - Amsterdam Centraal","service":"long_distance","sort_rank":275,"source":"openstreetmap.org","min_zoom":5.0,"operator":"Nederlandse Spoorwegen","ref":"12600","osm_relation":true},"arcs":[[417],[418]]},{"type":"MultiLineString","properties":{"kind":"train","name":"500: Groningen - Rotterdam","service":"long_distance","sort_rank":275,"source":"openstreetmap.org","min_zoom":5.0,"operator":"Nederlandse Spoorwegen","ref":"500","osm_relation":true,"network":"Hoofdrailnet Nederland"},"arcs":[[419],[420]]}]},"pois":{"type":"GeometryCollection","geometries":[{"type":"Point","properties":{"kind":"national_park","protect_class":"2","area":7733350000,"source":"openstreetmap.org","min_zoom":4.33,"tier":1,"id":-157811,"osm_relation":true,"name":"Nationalpark Nieders\u00e4chsisches Wattenmeer"},"coordinates":[1808,2777]},{"type":"Point","properties":{"kind":"national_park","protect_class":"2","area":171165000,"name:de":"Nationalpark Schiermonnikoog","source":"openstreetmap.org","min_zoom":7.08,"tier":1,"name:fy":"Nasjonaal Park Skierm\u00fbntskeach","id":76257263,"name":"Nationaal Park Schiermonnikoog"},"coordinates":[912,2431]},{"type":"Point","properties":{"kind":"national_park","protect_class":"2","area":165566000,"source":"openstreetmap.org","min_zoom":7.1,"tier":1,"name:fy":"Nasjonaal Park Lauwersmar","id":148271052,"name":"Nationaal Park Lauwersmeer"},"coordinates":[839,2153]},{"type":"Point","properties":{"source":"openstreetmap.org","kind":"nature_reserve","name":"Borkum Riffgrund","area":1874860000,"tier":2,"min_zoom":6.85,"id":528639633},"coordinates":[1207,3429]}]},"boundaries":{"type":"GeometryCollection","geometries":[{"type":"MultiLineString","properties":{"source":"naturalearthdata.com","kind":"country","sort_rank":262,"kind_detail":"2","min_zoom":0.0,"id":118},"arcs":[[0],[1],[2],[3],[4]]},{"type":"LineString","properties":{"source":"naturalearthdata.com","kind":"region","sort_rank":256,"kind_detail":"4","min_zoom":6.8,"id":158},"arcs":[5]},{"type":"MultiLineString","properties":{"source":"naturalearthdata.com","kind":"region","name":"Friesland - Flevoland","sort_rank":256,"kind_detail":"4","min_zoom":6.8,"id":2934},"arcs":[[6],[7]]},{"type":"MultiLineString","properties":{"source":"naturalearthdata.com","kind":"region","name":"Flevoland - Overijssel","sort_rank":256,"kind_detail":"4","min_zoom":6.8,"id":2939},"arcs":[[8],[9],[10]]},{"type":"MultiLineString","properties":{"source":"naturalearthdata.com","kind":"region","name":"Friesland - Overijssel","sort_rank":256,"kind_detail":"4","min_zoom":6.8,"id":2940},"arcs":[[11],[12],[13],[14],[15]]},{"type":"MultiLineString","properties":{"source":"naturalearthdata.com","kind":"region","name":"Overijssel - Gelderland","sort_rank":256,"kind_detail":"4","min_zoom":6.8,"id":2941},"arcs":[[16],[17],[18]]},{"type":"MultiLineString","properties":{"source":"naturalearthdata.com","kind":"region","name":"Drenthe - Friesland","sort_rank":256,"kind_detail":"4","min_zoom":6.8,"id":2944},"arcs":[[19],[20],[21]]},{"type":"MultiLineString","properties":{"source":"naturalearthdata.com","kind":"region","name":"Overijssel - Drenthe","sort_rank":256,"kind_detail":"4","min_zoom":6.8,"id":2945},"arcs":[[22],[23],[24],[25],[26],[27],[28],[29],[30],[31],[32]]},{"type":"MultiLineString","properties":{"source":"naturalearthdata.com","kind":"region","name":"Friesland - Groningen","sort_rank":256,"kind_detail":"4","min_zoom":6.8,"id":2946},"arcs":[[33],[34],[35]]},{"type":"MultiLineString","properties":{"source":"naturalearthdata.com","kind":"region","name":"Groningen - Drenthe","sort_rank":256,"kind_detail":"4","min_zoom":6.8,"id":2947},"arcs":[[36],[37],[38],[39],[40],[41],[42]]},{"type":"LineString","properties":{"source":"naturalearthdata.com","kind":"region","name":"Flevoland - Gelderland","sort_rank":256,"kind_detail":"4","min_zoom":6.8,"id":7914},"arcs":[43]},{"type":"LineString","properties":{"source":"naturalearthdata.com","kind":"region","name":"Flevoland - Overijssel","sort_rank":256,"kind_detail":"4","min_zoom":6.8,"id":7915},"arcs":[44]},{"type":"MultiLineString","properties":{"source":"naturalearthdata.com","kind":"region","name":"Friesland - Flevoland","sort_rank":256,"kind_detail":"4","min_zoom":6.8,"id":7912},"arcs":[[45],[46],[47]]}]},"roads":{"type":"GeometryCollection","geometries":[{"type":"LineString","properties":{"kind":"highway","network":"e-road","sort_rank":383,"kind_detail":"motorway","source":"naturalearthdata.com","min_zoom":3.0,"all_networks":["e-road"],"landuse_kind":"urban_area","shield_text":"37","ref":"37","id":4404,"all_shield_texts":["37"]},"arcs":[456]},{"type":"MultiLineString","properties":{"kind":"highway","network":"e-road","sort_rank":383,"kind_detail":"motorway","source":"naturalearthdata.com","min_zoom":3.0,"all_networks":["e-road"],"shield_text":"37","ref":"37","id":4404,"all_shield_texts":["37"]},"arcs":[[457],[458]]},{"type":"LineString","properties":{"source":"naturalearthdata.com","kind":"highway","kind_detail":"motorway","sort_rank":383,"landuse_kind":"urban_area","min_zoom":3.0,"id":4405},"arcs":[459]},{"type":"LineString","properties":{"source":"naturalearthdata.com","kind":"highway","sort_rank":383,"kind_detail":"motorway","min_zoom":3.0,"id":4405},"arcs":[460]},{"type":"LineString","properties":{"kind":"highway","network":"e-road","sort_rank":383,"kind_detail":"motorway","source":"naturalearthdata.com","min_zoom":3.0,"all_networks":["e-road"],"shield_text":"22","ref":"22","id":4406,"all_shield_texts":["22"]},"arcs":[461]},{"type":"LineString","properties":{"kind":"highway","network":"e-road","sort_rank":383,"kind_detail":"motorway","source":"naturalearthdata.com","min_zoom":3.0,"all_networks":["e-road"],"shield_text":"22","ref":"22","id":4414,"all_shield_texts":["22"]},"arcs":[462]},{"type":"LineString","properties":{"kind":"highway","network":"e-road","sort_rank":383,"kind_detail":"motorway","source":"naturalearthdata.com","min_zoom":3.0,"all_networks":["e-road"],"landuse_kind":"urban_area","shield_text":"22","ref":"22","id":4417,"all_shield_texts":["22"]},"arcs":[463]},{"type":"LineString","properties":{"kind":"highway","network":"e-road","sort_rank":383,"kind_detail":"motorway","source":"naturalearthdata.com","min_zoom":3.0,"all_networks":["e-road"],"landuse_kind":"urban_area","shield_text":"22","ref":"22","id":4417,"all_shield_texts":["22"]},"arcs":[464]},{"type":"MultiLineString","properties":{"kind":"highway","network":"e-road","sort_rank":383,"kind_detail":"motorway","source":"naturalearthdata.com","min_zoom":3.0,"all_networks":["e-road"],"shield_text":"22","ref":"22","id":4417,"all_shield_texts":["22"]},"arcs":[[465],[466],[467]]},{"type":"LineString","properties":{"kind":"highway","network":"e-road","sort_rank":383,"kind_detail":"motorway","source":"naturalearthdata.com","min_zoom":3.0,"all_networks":["e-road"],"landuse_kind":"urban_area","shield_text":"22","ref":"22","id":4481,"all_shield_texts":["22"]},"arcs":[468]},{"type":"LineString","properties":{"kind":"highway","network":"e-road","sort_rank":383,"kind_detail":"motorway","source":"naturalearthdata.com","min_zoom":3.0,"all_networks":["e-road"],"landuse_kind":"urban_area","shield_text":"22","ref":"22","id":4481,"all_shield_texts":["22"]},"arcs":[469]},{"type":"MultiLineString","properties":{"kind":"highway","network":"e-road","sort_rank":383,"kind_detail":"motorway","source":"naturalearthdata.com","min_zoom":3.0,"all_networks":["e-road"],"shield_text":"22","ref":"22","id":4481,"all_shield_texts":["22"]},"arcs":[[470],[471],[472]]},{"type":"LineString","properties":{"kind":"highway","network":"e-road","sort_rank":383,"kind_detail":"motorway","source":"naturalearthdata.com","min_zoom":3.0,"all_networks":["e-road"],"shield_text":"22","ref":"22","id":5104,"all_shield_texts":["22"]},"arcs":[473]},{"type":"LineString","properties":{"kind":"highway","network":"e-road","sort_rank":383,"kind_detail":"motorway","source":"naturalearthdata.com","min_zoom":6.0,"all_networks":["e-road"],"shield_text":"232","ref":"232","id":5303,"all_shield_texts":["232"]},"arcs":[474]},{"type":"LineString","properties":{"kind":"highway","network":"e-road","sort_rank":383,"kind_detail":"motorway","source":"naturalearthdata.com","min_zoom":6.0,"all_networks":["e-road"],"landuse_kind":"urban_area","shield_text":"233","ref":"233","id":5304,"all_shield_texts":["233"]},"arcs":[475]},{"type":"MultiLineString","properties":{"kind":"highway","network":"e-road","sort_rank":383,"kind_detail":"motorway","source":"naturalearthdata.com","min_zoom":6.0,"all_networks":["e-road"],"shield_text":"233","ref":"233","id":5304,"all_shield_texts":["233"]},"arcs":[[476],[477]]},{"type":"LineString","properties":{"source":"naturalearthdata.com","kind":"highway","kind_detail":"motorway","sort_rank":383,"landuse_kind":"urban_area","min_zoom":6.0,"id":5305},"arcs":[478]},{"type":"MultiLineString","properties":{"source":"naturalearthdata.com","kind":"highway","sort_rank":383,"kind_detail":"motorway","min_zoom":6.0,"id":5305},"arcs":[[479],[480]]},{"type":"LineString","properties":{"source":"naturalearthdata.com","kind":"highway","sort_rank":383,"kind_detail":"motorway","min_zoom":6.0,"id":5308},"arcs":[481]},{"type":"LineString","properties":{"source":"naturalearthdata.com","kind":"highway","kind_detail":"motorway","sort_rank":383,"landuse_kind":"urban_area","min_zoom":6.0,"id":5309},"arcs":[482]},{"type":"MultiLineString","properties":{"source":"naturalearthdata.com","kind":"highway","kind_detail":"motorway","sort_rank":383,"landuse_kind":"urban_area","min_zoom":6.0,"id":5309},"arcs":[[483],[484]]},{"type":"MultiLineString","properties":{"source":"naturalearthdata.com","kind":"highway","sort_rank":383,"kind_detail":"motorway","min_zoom":6.0,"id":5309},"arcs":[[485],[486],[487],[488]]},{"type":"LineString","properties":{"kind":"highway","network":"e-road","sort_rank":383,"kind_detail":"motorway","source":"naturalearthdata.com","min_zoom":6.0,"all_networks":["e-road"],"shield_text":"232","ref":"232","id":5310,"all_shield_texts":["232"]},"arcs":[489]},{"type":"LineString","properties":{"kind":"highway","network":"e-road","sort_rank":383,"kind_detail":"motorway","source":"naturalearthdata.com","min_zoom":6.0,"all_networks":["e-road"],"landuse_kind":"park","shield_text":"232","ref":"232","id":5311,"all_shield_texts":["232"]},"arcs":[490]},{"type":"LineString","properties":{"kind":"highway","network":"e-road","sort_rank":383,"kind_detail":"motorway","source":"naturalearthdata.com","min_zoom":6.0,"all_networks":["e-road"],"landuse_kind":"park","shield_text":"232","ref":"232","id":5311,"all_shield_texts":["232"]},"arcs":[491]},{"type":"LineString","properties":{"kind":"highway","network":"e-road","sort_rank":383,"kind_detail":"motorway","source":"naturalearthdata.com","min_zoom":6.0,"all_networks":["e-road"],"landuse_kind":"urban_area","shield_text":"232","ref":"232","id":5311,"all_shield_texts":["232"]},"arcs":[492]},{"type":"LineString","properties":{"kind":"highway","network":"e-road","sort_rank":383,"kind_detail":"motorway","source":"naturalearthdata.com","min_zoom":6.0,"all_networks":["e-road"],"landuse_kind":"urban_area","shield_text":"232","ref":"232","id":5311,"all_shield_texts":["232"]},"arcs":[493]},{"type":"MultiLineString","properties":{"kind":"highway","network":"e-road","sort_rank":383,"kind_detail":"motorway","source":"naturalearthdata.com","min_zoom":6.0,"all_networks":["e-road"],"shield_text":"232","ref":"232","id":5311,"all_shield_texts":["232"]},"arcs":[[494],[495],[496],[497],[498]]},{"type":"LineString","properties":{"source":"naturalearthdata.com","kind":"highway","sort_rank":383,"kind_detail":"motorway","min_zoom":6.0,"id":5323},"arcs":[499]},{"type":"LineString","properties":{"source":"naturalearthdata.com","kind":"highway","kind_detail":"motorway","sort_rank":383,"landuse_kind":"urban_area","min_zoom":6.0,"id":5365},"arcs":[500]},{"type":"LineString","properties":{"source":"naturalearthdata.com","kind":"highway","kind_detail":"motorway","sort_rank":383,"landuse_kind":"urban_area","min_zoom":6.0,"id":5365},"arcs":[501]},{"type":"MultiLineString","properties":{"source":"naturalearthdata.com","kind":"highway","sort_rank":383,"kind_detail":"motorway","min_zoom":6.0,"id":5365},"arcs":[[502],[503]]},{"type":"LineString","properties":{"kind":"highway","network":"e-road","sort_rank":383,"kind_detail":"motorway","source":"naturalearthdata.com","min_zoom":7.0,"all_networks":["e-road"],"shield_text":"232","ref":"232","id":5867,"all_shield_texts":["232"]},"arcs":[504]},{"type":"LineString","properties":{"source":"naturalearthdata.com","kind":"highway","sort_rank":383,"kind_detail":"motorway","min_zoom":7.0,"id":5897},"arcs":[505]},{"type":"LineString","properties":{"kind":"highway","network":"e-road","sort_rank":383,"kind_detail":"motorway","source":"naturalearthdata.com","min_zoom":3.0,"all_networks":["e-road"],"landuse_kind":"urban_area","shield_text":"22","ref":"22","id":8072,"all_shield_texts":["22"]},"arcs":[506]},{"type":"MultiLineString","properties":{"kind":"highway","network":"e-road","sort_rank":383,"kind_detail":"motorway","source":"naturalearthdata.com","min_zoom":3.0,"all_networks":["e-road"],"shield_text":"22","ref":"22","id":8072,"all_shield_texts":["22"]},"arcs":[[507],[508]]},{"type":"LineString","properties":{"source":"naturalearthdata.com","kind":"highway","sort_rank":355,"kind_detail":"trunk","min_zoom":6.0,"id":8103},"arcs":[509]},{"type":"LineString","properties":{"source":"naturalearthdata.com","kind":"major_road","kind_detail":"secondary","sort_rank":379,"landuse_kind":"urban_area","min_zoom":6.0,"id":54780},"arcs":[510]},{"type":"LineString","properties":{"source":"naturalearthdata.com","kind":"major_road","kind_detail":"secondary","sort_rank":379,"landuse_kind":"urban_area","min_zoom":6.0,"id":54780},"arcs":[511]},{"type":"MultiLineString","properties":{"source":"naturalearthdata.com","kind":"major_road","sort_rank":379,"kind_detail":"secondary","min_zoom":6.0,"id":54780},"arcs":[[512],[513]]},{"type":"LineString","properties":{"source":"naturalearthdata.com","kind":"major_road","sort_rank":379,"kind_detail":"secondary","min_zoom":6.0,"id":54790},"arcs":[514]},{"type":"LineString","properties":{"source":"naturalearthdata.com","kind":"major_road","kind_detail":"secondary","sort_rank":379,"landuse_kind":"urban_area","min_zoom":6.0,"id":54797},"arcs":[515]},{"type":"MultiLineString","properties":{"source":"naturalearthdata.com","kind":"major_road","sort_rank":379,"kind_detail":"secondary","min_zoom":6.0,"id":54797},"arcs":[[516],[517]]},{"type":"LineString","properties":{"source":"naturalearthdata.com","kind":"major_road","kind_detail":"secondary","sort_rank":379,"landuse_kind":"urban_area","min_zoom":6.0,"id":54801},"arcs":[518]},{"type":"LineString","properties":{"source":"naturalearthdata.com","kind":"major_road","sort_rank":379,"kind_detail":"secondary","min_zoom":6.0,"id":54801},"arcs":[519]},{"type":"LineString","properties":{"source":"naturalearthdata.com","kind":"major_road","sort_rank":379,"kind_detail":"secondary","min_zoom":6.0,"id":54813},"arcs":[520]},{"type":"LineString","properties":{"source":"naturalearthdata.com","kind":"major_road","kind_detail":"secondary","sort_rank":379,"landuse_kind":"urban_area","min_zoom":6.0,"id":54828},"arcs":[521]},{"type":"LineString","properties":{"source":"naturalearthdata.com","kind":"major_road","sort_rank":379,"kind_detail":"secondary","min_zoom":6.0,"id":54828},"arcs":[522]},{"type":"LineString","properties":{"source":"naturalearthdata.com","kind":"major_road","sort_rank":379,"kind_detail":"secondary","min_zoom":6.0,"id":54872},"arcs":[523]},{"type":"LineString","properties":{"source":"naturalearthdata.com","kind":"major_road","sort_rank":379,"kind_detail":"secondary","min_zoom":6.0,"id":54878},"arcs":[524]},{"type":"LineString","properties":{"source":"naturalearthdata.com","kind":"major_road","sort_rank":379,"kind_detail":"secondary","min_zoom":6.0,"id":54891},"arcs":[525]},{"type":"LineString","properties":{"source":"naturalearthdata.com","kind":"major_road","kind_detail":"secondary","sort_rank":379,"landuse_kind":"urban_area","min_zoom":6.0,"id":54907},"arcs":[526]},{"type":"LineString","properties":{"source":"naturalearthdata.com","kind":"major_road","sort_rank":379,"kind_detail":"secondary","min_zoom":6.0,"id":54907},"arcs":[527]},{"type":"LineString","properties":{"source":"naturalearthdata.com","kind":"major_road","sort_rank":379,"kind_detail":"secondary","min_zoom":6.0,"id":54911},"arcs":[528]},{"type":"LineString","properties":{"source":"naturalearthdata.com","kind":"major_road","sort_rank":379,"kind_detail":"secondary","min_zoom":6.0,"id":54912},"arcs":[529]},{"type":"LineString","properties":{"source":"naturalearthdata.com","kind":"major_road","kind_detail":"secondary","sort_rank":379,"landuse_kind":"urban_area","min_zoom":6.0,"id":54923},"arcs":[530]},{"type":"LineString","properties":{"source":"naturalearthdata.com","kind":"major_road","sort_rank":379,"kind_detail":"secondary","min_zoom":6.0,"id":54923},"arcs":[531]},{"type":"LineString","properties":{"source":"naturalearthdata.com","kind":"major_road","kind_detail":"secondary","sort_rank":379,"landuse_kind":"urban_area","min_zoom":6.0,"id":54937},"arcs":[532]},{"type":"LineString","properties":{"source":"naturalearthdata.com","kind":"major_road","sort_rank":379,"kind_detail":"secondary","min_zoom":6.0,"id":54937},"arcs":[533]},{"type":"LineString","properties":{"source":"naturalearthdata.com","kind":"major_road","kind_detail":"secondary","sort_rank":379,"landuse_kind":"urban_area","min_zoom":6.0,"id":54950},"arcs":[534]},{"type":"LineString","properties":{"source":"naturalearthdata.com","kind":"major_road","sort_rank":379,"kind_detail":"secondary","min_zoom":6.0,"id":54950},"arcs":[535]}]},"earth":{"type":"GeometryCollection","geometries":[{"type":"MultiPolygon","properties":{"sort_rank":10,"source":"naturalearthdata.com","min_zoom":0.0,"kind":"earth","area":213748998541},"arcs":[[[536]],[[537]],[[538]],[[539]],[[540]],[[541]],[[542]],[[543]],[[544]],[[545]],[[546]],[[547]]]}]},"landuse":{"type":"GeometryCollection","geometries":[{"type":"MultiPolygon","properties":{"kind":"national_park","protect_class":"2","area":23093265770,"sort_rank":18,"source":"openstreetmap.org","min_zoom":3.0,"tier":1,"osm_relation":true},"arcs":[[[548],[549],[550],[551],[552],[553],[554],[555],[556],[557],[558],[559],[560],[561],[562],[563],[564],[565],[566],[567],[568]],[[569]],[[570]]]},{"type":"MultiPolygon","properties":{"source":"openstreetmap.org","kind":"nature_reserve","tier":2,"area":19376477693,"sort_rank":23,"min_zoom":4.0},"arcs":[[[571]]]},{"type":"MultiPolygon","properties":{"source":"openstreetmap.org","kind":"park","tier":2,"area":694935433,"sort_rank":24,"min_zoom":6.0,"osm_relation":true},"arcs":[[[572]],[[573],[574],[575],[576]],[[577]]]},{"type":"Polygon","properties":{"kind":"park","area":102901000,"sort_rank":24,"source":"openstreetmap.org","min_zoom":7.0,"tier":2,"id":-2746127,"osm_relation":true},"arcs":[[578]]},{"type":"MultiPolygon","properties":{"source":"naturalearthdata.com","kind":"urban_area","name":"","area":10731917052,"sort_rank":11,"min_zoom":4.0},"arcs":[[[579]],[[580]],[[581]],[[582]],[[583]],[[584]],[[585]],[[586]],[[587]],[[588]],[[589]],[[590]],[[591]],[[592]],[[593]],[[594]],[[595]],[[596]],[[597]],[[598]],[[599]],[[600]],[[601]],[[602]],[[603]],[[604]],[[605]],[[606]],[[607]],[[608]],[[609]],[[610]],[[611]],[[612]]]},{"type":"Polygon","properties":{"kind":"protected_area","protect_class":"98","area":8128379904,"sort_rank":17,"source":"openstreetmap.org","min_zoom":4.0,"tier":2,"id":-5909370,"osm_relation":true},"arcs":[[613]]},{"type":"MultiPolygon","properties":{"source":"openstreetmap.org","kind":"national_park","tier":1,"protect_class":"2","area":313786232,"sort_rank":18,"min_zoom":5.0},"arcs":[[[614]],[[615]]]},{"type":"Polygon","properties":{"source":"openstreetmap.org","kind":"nature_reserve","area":131392000,"tier":2,"id":74006357,"min_zoom":7.0,"sort_rank":23},"arcs":[[616]]}]}},"type":"Topology","transform":{"translate":[5.625,52.4827802221],"scale":[0.0006866455,0.0004100717]},"arcs":[[[2286,1859],[4,-69],[2,-40],[-5,-38],[-10,-42],[-20,-53],[-4,-20],[1,-29],[6,-16],[7,-12],[5,-22],[14,-174],[-3,-88],[-13,-77],[-32,-82],[-119,-191],[-11,-32],[-15,-42],[-13,-81],[-13,-264],[-11,-86],[-27,-52]],[[1884,364],[-78,24]],[[1806,388],[-138,-2],[-48,-16],[-27,-19],[-25,-19],[12,-25],[-2,-22],[-7,-20],[0,-20],[11,-16],[47,-41],[-81,-42],[-24,-2],[18,-39],[5,-43],[3,-43],[4,-19]],[[2029,349],[-52,17],[-22,9]],[[1955,375],[-71,-11]],[[817,2264]],[[168,868],[14,-9],[37,-39],[14,-37]],[[138,863],[30,5]],[[444,326],[14,1],[70,24],[47,27],[-32,39],[-29,16],[-58,18],[-13,6],[-4,4],[3,4],[10,10],[6,14],[8,13],[-11,63],[-20,62],[-11,17],[-17,23],[-67,56],[-107,60]],[[412,335],[9,-5],[23,-4]],[[319,299],[74,34],[19,2]],[[593,825],[21,24],[1,4],[2,11],[1,3],[4,2],[23,7],[29,3],[61,25]],[[487,875],[4,-1],[7,-3],[18,-26],[13,-12],[7,-4],[57,-4]],[[351,785],[8,1],[11,2],[44,26],[7,7],[6,10],[5,10],[4,8],[5,6],[7,4],[30,8],[5,3],[4,5]],[[288,810],[17,-15],[5,-3],[41,-7]],[[233,783],[55,27]],[[352,95],[21,-1],[15,-2],[18,-28],[31,-61],[3,-3]],[[591,69],[17,-8],[10,-6],[10,-16],[11,-23],[15,-16]],[[485,0],[17,5],[47,41],[42,23]],[[997,1486],[-3,-33],[5,-5],[23,-14],[41,-18],[3,-7],[3,-13],[-1,-14],[8,-24],[5,-27],[79,-107],[18,-38],[-3,-10],[-3,-14],[-40,-67],[-9,-10],[-70,-47]],[[1053,1038],[-49,34],[-32,8]],[[972,1080],[-39,0],[-16,-13],[-10,-10],[-49,-57],[-123,-96]],[[825,478],[-12,3],[-6,5],[-4,4],[-10,18],[-7,6],[-50,134],[14,25],[38,19],[53,53],[7,21],[-14,21],[-15,17],[-11,10],[-73,90]],[[944,451],[-12,5],[-45,31],[-23,9]],[[864,496],[-11,-2],[-8,-8],[-12,-8],[-8,0]],[[1593,351],[-1,1],[-15,9],[-4,21],[1,18],[-5,6],[-9,7],[-105,49],[-19,1]],[[1436,463],[-42,-8],[-71,-38],[-18,-19],[-4,-12],[5,-72]],[[1119,331],[-10,0],[-6,3],[-1,3],[-12,33],[-12,18],[-25,26],[-22,18],[-12,19],[-5,1]],[[1014,452],[-70,-1]],[[1199,329],[-8,4],[-5,6],[-7,11],[-5,4],[-3,0]],[[1171,354],[-8,-7],[-10,-5],[-34,-11]],[[1306,314],[-61,30],[-8,1]],[[1237,345],[-11,0],[-7,-7],[-12,-8],[-8,-1]],[[891,2101],[-4,1],[-5,3],[-6,7],[-8,12],[-6,5],[-5,4],[-28,8],[-21,9],[-14,53],[7,29],[16,32]],[[997,1486],[-13,7],[-52,35],[-25,9],[-62,6],[-13,4],[-19,17],[-14,18],[-7,52],[11,53],[14,30],[54,72],[4,10],[0,7],[-2,7],[-2,7],[-3,6],[-2,10],[-2,12],[18,36],[21,38],[8,31],[5,11],[20,23],[24,23],[4,5],[0,2],[-9,4],[-4,2],[-3,3],[1,24],[3,30],[-2,14],[-5,8],[-27,9]],[[918,2111],[-5,0],[-4,-2],[-8,-6],[-5,-2],[-5,0]],[[1228,1760],[48,-23],[27,-11]],[[1027,1476],[11,7],[24,43],[6,24],[6,16],[18,39],[5,12],[1,6],[9,24],[22,28],[20,20],[26,17],[53,48]],[[1319,1728],[25,-35],[23,-42],[5,-4],[8,-2],[15,-13],[50,-67],[15,-38],[3,-3],[3,-5]],[[1303,1726],[16,2]],[[1564,1551],[39,-3],[13,-8],[9,-6],[51,-55],[63,-71],[35,-35],[28,-26],[50,-54],[57,-60],[68,-93],[71,-90],[10,-3],[2,-10],[-1,-10],[-31,-82],[29,-10],[16,-13],[26,-33],[8,-14],[1,-1]],[[1466,1519],[8,2],[90,30]],[[997,1486],[30,-10]],[[337,0],[14,55],[1,40]],[[352,95],[-29,136],[-21,19],[0,29],[16,18],[1,2]],[[114,866],[20,-3]],[[0,833],[11,9],[35,16],[35,8],[33,0]],[[134,863],[4,0]],[[1371,1776],[227,-121],[231,-4],[7,-135]],[[1836,1516],[-7,135],[-231,5],[-227,120]],[[3999,0],[18,307],[79,103]],[[2233,2787],[2,-8]],[[2450,0],[37,138],[-28,108],[-2,245],[-4,14],[-24,26],[-8,105],[91,453],[9,133],[-31,153],[109,146],[78,201],[3,175],[-63,145],[-233,53],[-96,56],[34,135],[125,157],[-128,266],[-86,78]],[[2236,2777],[4,-4]],[[2470,87],[2,6]],[[2287,2168],[0,-2],[-1,-6],[1,0],[0,8]],[[2321,2696],[5,-5],[-5,5]],[[2436,521],[6,-5],[-7,5],[1,0]],[[2566,1480],[1,1],[4,5],[-5,-6]],[[2680,1828],[0,-2],[0,-6],[0,8]],[[2233,2787],[1,-6],[1,-2]],[[2233,2787],[86,-78],[128,-266],[-125,-157],[-34,-135],[96,-56],[237,-56],[57,-132],[2,-73]],[[2236,2777],[4,-4]],[[2680,1834]],[[2680,1834],[0,-1]],[[2680,1829],[0,1]],[[2680,1830]],[[2680,1830]],[[2680,1830],[0,3]],[[2680,1833]],[[2680,1834],[13,22],[136,13],[84,-24],[30,-50],[55,-20],[176,17],[757,-239],[165,-27]],[[2680,1817],[0,3]],[[2680,1820],[0,3]],[[2680,1823],[0,3]],[[2680,1826],[0,3]],[[2680,1817],[0,-1]],[[2680,1816],[0,-1]],[[2680,1815]],[[2680,1815],[0,-1]],[[3107,1800],[5,-1]],[[2287,2168],[0,-2],[-1,-6],[1,0],[0,8]],[[2321,2696],[5,-5],[-5,5]],[[2680,1828],[0,-2],[0,-6],[0,8]],[[3292,1755],[2,-1],[4,-1],[-2,1],[-4,1]],[[0,162],[260,-60],[144,28],[56,-58],[140,-61],[47,11],[19,36],[22,-9]],[[2233,2787],[1,-6],[1,-2]],[[2233,2787],[86,-78],[128,-266],[-125,-157],[-34,-135],[96,-56],[237,-56],[57,-132],[2,-75]],[[2236,2777],[4,-4]],[[4096,1526],[-165,27],[-757,239],[-176,-17],[-55,20],[-30,50],[-84,24],[-136,-13],[-13,-24]],[[2680,1830]],[[2680,1830],[0,1]],[[2680,1831]],[[2680,1831]],[[2680,1831],[0,1]],[[2680,1828],[0,1]],[[2680,1829]],[[2680,1829],[0,1]],[[2680,1828]],[[2680,1828],[0,-2]],[[2680,1826]],[[2680,1826]],[[2680,1826],[0,-2]],[[3112,1800],[-6,0]],[[2287,2168],[0,-2],[-1,-6],[1,0],[0,8]],[[2321,2696],[5,-5],[-5,5]],[[2680,1820],[0,-2],[0,10],[0,-8]],[[3292,1755],[2,-1],[4,-1],[-2,1],[-4,1]],[[2233,2787],[2,-8]],[[2233,2787],[86,-78],[128,-266],[-125,-157],[-34,-135],[96,-56],[237,-56],[57,-132],[2,-73]],[[2236,2777],[4,-4]],[[2680,1834]],[[2680,1834],[0,-1]],[[2680,1829],[0,1]],[[2680,1830]],[[2680,1830]],[[2680,1830],[0,3]],[[2680,1833]],[[2680,1834],[13,22],[136,13],[84,-24],[30,-50],[55,-20],[176,17],[757,-239],[165,-27]],[[2680,1817],[0,3]],[[2680,1820],[0,3]],[[2680,1823],[0,3]],[[2680,1826],[0,3]],[[2680,1817],[0,-1]],[[2680,1816],[0,-1]],[[2680,1815]],[[2680,1815],[0,-1]],[[3107,1800],[5,-1]],[[2287,2168],[0,-2],[-1,-6],[1,0],[0,8]],[[2321,2696],[5,-5],[-5,5]],[[2680,1828],[0,-2],[0,-6],[0,8]],[[3292,1755],[2,-1],[4,-1],[-2,1],[-4,1]],[[0,162],[260,-60],[143,28],[59,-59],[156,-60],[49,48],[59,-19],[84,66],[88,216],[-57,110],[3,128],[-63,168],[-84,34],[-345,499],[-138,460],[30,18]],[[1369,1775],[230,-120],[179,-10],[178,29],[111,-76],[229,114]],[[702,0],[-23,53]],[[3999,0],[18,307],[79,103]],[[1705,2363],[26,26],[26,-10]],[[2233,2787],[2,-8]],[[2233,2787],[86,-78],[128,-266],[-125,-157],[-34,-135],[96,-56],[237,-56],[57,-132],[2,-75]],[[2236,2777],[4,-4]],[[4096,1526],[-165,27],[-757,239],[-176,-17],[-55,20],[-30,50],[-84,24],[-136,-13],[-13,-24]],[[2680,1830]],[[2680,1830],[0,1]],[[2680,1831]],[[2680,1831]],[[2680,1831],[0,1]],[[2680,1828],[0,1]],[[2680,1829]],[[2680,1829],[0,1]],[[2680,1828]],[[2680,1828],[0,-2]],[[2680,1826]],[[2680,1826]],[[2680,1826],[0,-2]],[[3112,1800],[-6,0]],[[2287,2168],[0,-2],[-1,-6],[1,0],[0,8]],[[2321,2696],[5,-5],[-5,5]],[[2680,1820],[0,-2],[0,10],[0,-8]],[[3292,1755],[2,-1],[4,-1],[-2,1],[-4,1]],[[4096,410],[-79,-103],[-18,-307]],[[4012,295],[0,3],[2,3],[-2,-6]],[[4096,410],[-79,-103],[-18,-307]],[[680,54],[-75,-54]],[[2319,2702],[44,40],[275,89]],[[243,1739],[-29,-18],[138,-460],[345,-499],[84,-34],[63,-168],[-12,-61]],[[2296,1712],[-229,-114],[-111,76],[-178,-29],[-179,10],[-230,120]],[[244,1740],[-30,-19],[138,-460],[345,-499],[84,-34],[63,-168],[-3,-128],[55,-83],[-85,-242],[-87,-68],[-19,-1],[-40,20],[-60,-58]],[[244,1740],[-6,-2],[1,1],[5,1]],[[686,50],[-2,1],[-5,3],[5,-3],[2,-1]],[[4096,1525],[-165,28],[-152,61]],[[3475,6],[-2,-2]],[[4096,1149],[-18,-43],[16,-72],[-65,-156],[2,-118],[-164,-127],[-3,-10],[3,-40],[-71,-121],[-50,-196],[-94,-46],[-71,-74],[-30,-78],[-83,-68]],[[3547,64],[-2,-2]],[[3659,224],[3,1]],[[3748,270],[-1,-3]],[[3763,335],[-1,-3]],[[3961,697],[-2,-2]],[[3793,445],[0,2],[-1,-2],[1,0]],[[3867,602],[1,-3],[-1,0],[0,3]],[[4028,868],[1,0],[0,-3],[-1,3]],[[4033,773],[0,4],[0,-4]],[[4087,1012],[-1,-3],[1,3]],[[681,54],[270,-25],[212,39],[214,-8],[66,58],[16,98],[156,199],[38,107],[125,43],[73,117],[6,69]],[[681,54],[270,-25],[212,39],[214,-8],[66,58],[16,98],[156,199],[38,107],[125,43],[73,117],[5,69]],[[1367,1775],[-35,15],[29,48],[-57,224],[1,97],[111,80],[238,44]],[[1618,445],[-100,-177],[-59,-51],[-16,-100],[-68,-59],[-212,10],[-212,-39],[-270,25]],[[688,49],[-22,9],[-19,-35],[-46,-12],[-141,61],[-56,58],[-144,-28],[-260,60]],[[605,0],[61,59],[61,-19],[88,74],[84,209],[-59,110],[0,95],[207,14],[196,80],[137,629],[42,33],[39,139],[5,210],[-39,104],[-58,38]],[[678,55],[4,-3],[2,-1],[-7,4],[1,0]],[[1375,1776],[-6,-1],[6,1]],[[3475,6],[-2,-2]],[[3544,61],[2,2]],[[3468,0],[83,68],[30,78],[71,74],[94,46],[50,196],[71,121],[0,50],[164,127],[-2,118],[65,156],[-16,72],[18,43]],[[3659,224],[3,1]],[[3748,270],[-1,-3]],[[3763,335],[-1,-3]],[[3961,697],[-2,-2]],[[3793,447],[0,-2],[0,2]],[[3867,603],[1,-3],[0,-1],[-1,4]],[[4028,868],[1,0],[0,-3],[-1,3]],[[4033,773],[0,4],[0,-4]],[[4087,1012],[1,3],[-1,-3]],[[2450,0],[37,138],[-28,108],[-2,245],[-4,14],[-24,26],[-8,105],[91,453],[9,133],[-31,153],[109,146],[78,201],[3,175],[-61,144],[-239,55],[-93,71]],[[2470,87],[2,6]],[[2472,921],[0,4]],[[2287,2165],[0,-4],[0,-1],[1,1],[-1,4]],[[2436,521],[6,-5],[-7,5],[1,0]],[[2442,738],[1,3],[-1,-2],[0,-1]],[[2517,1162],[0,5],[0,-5]],[[2566,1480],[1,1],[4,5],[-5,-6]],[[2680,1828],[0,-2],[0,-6],[0,8]],[[0,162],[260,-60],[144,28],[56,-58],[145,-61],[62,48],[59,-20],[85,68],[88,216],[-58,109],[-2,95],[208,15],[197,82],[136,627],[42,33],[39,140],[5,209],[-39,105],[-59,37]],[[2233,2787],[1,-6],[1,-2]],[[2233,2787],[86,-78],[128,-266],[-125,-157],[-34,-135],[96,-56],[237,-56],[57,-132],[2,-75]],[[2236,2777],[4,-4]],[[2395,2533],[3,-2]],[[4096,1526],[-165,27],[-757,239],[-176,-17],[-55,20],[-30,50],[-84,24],[-136,-13],[-13,-24]],[[2680,1830]],[[2680,1830],[0,1]],[[2680,1831]],[[2680,1831]],[[2680,1831],[0,1]],[[2680,1828],[0,1]],[[2680,1829]],[[2680,1829],[0,1]],[[2680,1824],[0,2]],[[2680,1826]],[[2680,1826]],[[2680,1826],[0,2]],[[2680,1828]],[[2680,1824]],[[2680,1824],[0,-1]],[[2680,1823],[0,-4]],[[3112,1800],[-6,0]],[[2287,2168],[0,-2],[-1,-6],[1,0],[0,8]],[[2321,2696],[5,-5],[-5,5]],[[2680,1820],[0,-2],[0,10],[0,-8]],[[3292,1755],[2,-1],[4,-1],[-2,1],[-4,1]],[[2710,3081],[12,-49]],[[676,56],[-54,53]],[[622,109],[-2,1]],[[620,110],[-189,78]],[[622,109]],[[620,110],[2,-1]],[[39,1341],[135,368],[70,31]],[[605,0],[60,58],[59,-19],[87,68],[85,242],[-55,83],[3,128],[-63,168],[-84,34],[-345,499],[-138,460],[30,19]],[[3999,0],[18,307],[79,103]],[[2233,2787],[2,-8]],[[2233,2787],[86,-78],[128,-266],[-125,-157],[-34,-135],[96,-56],[237,-56],[57,-132],[2,-75]],[[2236,2777],[4,-4]],[[2397,2531],[-2,2]],[[2680,1832],[13,24],[136,13],[84,-24],[30,-50],[55,-20],[176,17],[757,-239],[165,-27]],[[2680,1830]],[[2680,1830],[0,1]],[[2680,1831]],[[2680,1831]],[[2680,1831],[0,1]],[[2680,1828],[0,1]],[[2680,1829]],[[2680,1829],[0,1]],[[2680,1824],[0,2]],[[2680,1826]],[[2680,1826]],[[2680,1826],[0,2]],[[2680,1828]],[[2680,1824]],[[2680,1824],[0,-1]],[[2680,1823],[0,-4]],[[3107,1800],[5,-1]],[[2287,2168],[0,-2],[-1,-6],[1,0],[0,8]],[[2321,2696],[5,-5],[-5,5]],[[2680,1820],[0,-2],[0,10],[0,-8]],[[3292,1755],[2,-1],[4,-1],[-2,1],[-4,1]],[[679,53],[61,-53]],[[4096,410],[-79,-103],[-18,-307]],[[1367,1775],[-35,15],[29,46],[-22,149],[273,94],[193,-23],[90,20]],[[4096,410],[-79,-103],[-18,-307]],[[244,1739],[157,32],[199,96],[507,15]],[[1114,1879],[-2,1],[-5,2]],[[1107,1882]],[[1125,1874],[-18,8]],[[1367,1775],[-116,8],[-126,91]],[[1125,1874],[-8,4]],[[3999,0],[18,307],[79,103]],[[1368,1775],[59,-38],[39,-103],[-5,-210],[-39,-139],[-42,-34],[-136,-627],[-197,-81],[-208,-16],[1,-94],[59,-110],[-88,-216],[-85,-67],[-21,-2],[-38,21],[-61,-48],[-146,61],[-56,58],[-144,-28],[-260,60]],[[686,50],[-11,6],[1,0],[10,-6]],[[679,53],[6,-3]],[[740,0],[-55,50]],[[2287,2169],[-17,-74]],[[1651,2634],[-139,62]],[[1540,2674],[-3,0]],[[1648,2636],[2,-1],[-2,1]],[[4096,1525],[-165,28],[-174,69],[-5,181],[-55,193],[34,158],[-61,88],[-139,74],[-25,108],[25,87],[96,15]],[[3375,167],[1,-2]],[[3383,466],[0,3]],[[3627,2526],[-11,1],[-4,1],[-61,-8],[-20,-9],[-25,-87],[25,-108],[139,-74],[61,-88],[-33,-166],[54,-185],[0,-171],[50,-33],[46,-371],[-87,-225],[-228,-127],[-148,-260],[-27,-99],[46,-129],[-31,-210],[37,-178]],[[3764,1014],[0,3]],[[3810,1127],[1,2]],[[3830,1397],[0,-3]],[[3847,1238],[0,3]],[[3379,585],[1,3],[-1,0],[0,-3]],[[3505,2459],[0,-5],[0,5]],[[3541,881],[-3,-1],[3,1]],[[3628,2526],[-8,1],[8,-1]],[[3737,1859],[1,-4],[-1,2],[0,2]],[[3999,0],[18,307],[79,103]],[[2502,1660],[-140,63],[-49,-3],[-246,-122],[-111,76],[-178,-29],[-179,10],[-230,120]],[[2428,533],[13,-17]],[[2450,508],[-21,41],[33,29],[155,-44],[90,-60],[102,42],[94,-1],[62,67],[135,36],[267,-4],[12,-27]],[[1370,0],[5,56],[70,64],[16,98]],[[4096,410],[-79,-103],[-18,-307]],[[244,1739],[-30,-18],[138,-459],[345,-500],[84,-34],[63,-168],[-4,-127],[58,-111],[-88,-216],[-84,-66],[-59,19],[-49,-48],[-157,60],[-57,59],[-144,-28],[-260,60]],[[246,1740],[155,31],[199,96],[507,15]],[[1114,1879],[-2,1],[-5,2]],[[1107,1882]],[[1125,1874],[-18,8]],[[1367,1775],[-116,8],[-126,91]],[[1125,1874],[-8,4]],[[832,499],[12,61],[-63,169],[-84,33],[-345,499],[-138,460],[29,18]],[[681,54],[270,-25],[212,39],[214,-8],[66,58],[16,98],[156,199],[38,107],[125,43],[73,117],[5,69]],[[3627,2526],[-94,-14],[-28,-86],[26,-110],[139,-74],[61,-88],[-34,-158],[55,-193],[5,-181],[174,-69],[165,-28]],[[1367,1775],[-35,15],[29,46],[-22,149],[273,94],[192,-23],[91,20]],[[244,1739],[157,32],[199,96],[507,15]],[[1114,1879],[-7,3]],[[1107,1882]],[[1125,1874],[-18,8]],[[1367,1775],[-116,8],[-126,91]],[[1125,1874],[-8,4]],[[1370,0],[5,56],[70,64],[11,79]],[[1456,200],[5,18]],[[3466,1706],[-4,1]],[[3464,1706],[326,-95],[141,-58],[165,-28]],[[3721,1631],[-4,1],[4,-1]],[[0,1308],[54,49],[120,353],[70,30]],[[1107,1882],[-507,-15],[-199,-96],[-155,-31]],[[1114,1879],[-2,1],[-5,2]],[[1107,1882]],[[1125,1874],[-18,8]],[[1367,1775],[-116,8],[-126,91]],[[1125,1874],[-8,4]],[[2287,2169],[-17,-74]],[[681,54],[44,-15],[86,68],[87,212],[-58,114],[0,94],[207,15],[197,81],[136,628],[42,33],[39,140],[5,209],[-39,105],[-59,37]],[[3375,167],[1,-2]],[[3383,466],[0,3]],[[3410,0],[-37,178],[31,210],[-46,129],[27,99],[148,260],[228,127],[87,225],[-46,370],[-50,34],[0,171],[-54,185],[33,166],[-61,88],[-139,74],[-26,108],[27,87],[95,15]],[[3764,1014],[0,3]],[[3810,1127],[1,2]],[[3830,1397],[0,-3]],[[3847,1238],[0,3]],[[3379,585],[1,3],[-1,0],[0,-3]],[[3505,2458],[0,-5],[0,5]],[[3541,881],[-3,-1],[3,1]],[[3628,2526],[-3,1],[3,0],[0,-1]],[[3736,1862],[2,-8],[0,1],[-2,7]],[[0,1692],[244,48]],[[3466,1706],[-4,1]],[[4096,1526],[-165,27],[-143,59],[-324,94]],[[3721,1631],[-4,1],[4,-1]],[[2287,2167],[97,-72],[235,-54],[61,-144],[-4,-175],[-77,-201],[-109,-146],[31,-153],[0,-9],[-9,-124],[-44,-271],[-47,-182],[8,-106],[24,-25],[4,-14],[2,-245],[28,-108],[-37,-138]],[[2470,87],[2,6]],[[2287,2165],[0,-4],[0,-1],[1,1],[-1,4]],[[2433,523],[0,-1],[5,-4],[-5,5]],[[2441,737],[1,3],[-1,-3]],[[2472,920],[0,4],[0,-4]],[[2517,1161],[0,-5],[0,5]],[[2566,1480],[1,1],[4,5],[-5,-6]],[[2680,1830],[0,-9],[0,5],[0,4]],[[3265,3148],[12,37],[35,-3]],[[1512,2696],[139,-62]],[[1540,2674],[3,0]],[[1648,2636],[2,-1],[-2,1]],[[39,1341],[135,368],[70,31]],[[681,54],[270,-25],[212,39],[214,-8],[66,58],[16,98],[156,199],[38,107],[125,43],[73,117],[6,69]],[[0,1308],[54,48],[120,354],[70,30]],[[2233,2787],[2,-8]],[[2233,2787],[86,-78],[128,-266],[-125,-157],[-34,-135],[96,-56],[233,-53],[63,-145],[-4,-175],[-77,-201],[-109,-146],[31,-153],[-9,-133],[-91,-453],[8,-106],[24,-25],[4,-14],[2,-245],[28,-108],[-37,-138]],[[2236,2777],[4,-4]],[[2470,87],[2,6]],[[2287,2168],[0,-2],[-1,-6],[1,0],[0,8]],[[2321,2696],[5,-5],[-5,5]],[[2433,523],[0,-1],[5,-4],[-5,5]],[[2566,1480],[1,1],[4,5],[-5,-6]],[[2680,1830],[0,-9],[0,5],[0,4]],[[1367,1775],[-35,15],[29,48],[-56,223],[0,98],[111,80],[238,44]],[[605,0],[75,54]],[[3281,3186],[-35,0]],[[3246,3186],[-8,-4]],[[3246,3186],[-3,-1]],[[4096,410],[-79,-103],[-18,-307]],[[0,1692],[244,48]],[[681,54],[270,-25],[212,39],[212,-10],[68,59],[16,99],[59,52],[100,177]],[[1369,1775],[230,-120],[179,-10],[178,29],[111,-76],[246,122],[49,3],[140,-63]],[[1368,1775],[58,-37],[40,-104],[-5,-210],[-39,-139],[-42,-34],[-137,-628],[-196,-80],[-207,-16],[0,-94],[58,-114],[-87,-212],[-86,-68],[-44,15]],[[605,0],[60,58],[40,-20],[19,1],[87,68],[85,242],[-55,83],[3,128],[-63,168],[-84,34],[-345,499],[-138,460],[30,19]],[[244,1740],[-6,-2],[1,1],[5,1]],[[684,51],[-6,4],[-1,0],[5,-3],[2,-1]],[[2898,2813],[268,-145],[72,6],[69,-28],[150,-115],[48,-66]],[[2899,2813],[2,0]],[[3305,2647],[-2,2]],[[3505,2465],[34,51],[12,4],[61,8],[9,-1]],[[3505,2465],[0,-1]],[[3505,2464],[0,-1]],[[3505,2463],[0,-1]],[[3505,2462],[0,-2]],[[3505,2460]],[[3505,2460],[0,-4]],[[3620,2527],[7,-1]],[[3038,2741],[2,-1],[-2,1]],[[3151,2676],[1,-1],[-1,1]],[[3380,2584],[2,-1],[0,-1],[-2,2]],[[3505,2458],[0,-5],[0,5]],[[3628,2526],[-8,1],[8,-1]],[[676,56],[-54,53]],[[622,109],[-2,1]],[[620,110],[-189,78]],[[622,109]],[[620,110],[2,-1]],[[702,0],[-23,53]],[[832,498],[66,-177],[-85,-210],[-88,-72],[-58,20],[-21,-37],[-45,-11],[-141,61],[-56,58],[-144,-28],[-260,60]],[[1368,1775],[59,-38],[39,-103],[-5,-210],[-39,-139],[-42,-34],[-137,-628],[-195,-80],[-195,-10],[-18,-19]],[[1369,1775],[58,-38],[39,-104],[-5,-209],[-39,-139],[-42,-34],[-137,-629],[-196,-79],[-207,-15],[0,-95],[59,-110],[-84,-208],[-88,-75],[-61,19],[-61,-59]],[[1375,1776],[-6,-1],[6,1]],[[357,140],[6,-46],[-2,-49],[-14,-45],[-25,0],[18,58],[1,48],[-29,107],[-231,57],[-39,44],[-26,-22],[-16,-5],[0,115],[5,-3],[35,-67],[12,-18],[23,-7],[193,11],[25,-7],[21,-15],[15,-27],[10,-40],[18,-89]],[[0,906],[18,2],[106,-31],[17,-12],[-52,-12],[-43,-32],[-36,-48],[-10,-20],[0,153]],[[0,4096],[4096,0],[0,-1460],[-14,3],[-59,30],[-17,24],[-18,33],[-22,30],[-27,13],[-61,-3],[-25,-10],[-19,-21],[-13,-34],[-10,-83],[-13,-40],[-2,-36],[30,-5],[57,15],[43,-49],[-8,-84],[-33,-84],[-30,-51],[-18,-17],[-16,-10],[-18,-4],[-24,-1],[-21,11],[-15,23],[-12,23],[-12,10],[-11,7],[-27,32],[-17,9],[-25,1],[-16,-7],[-19,-9],[-20,22],[-13,30],[-27,82],[26,16],[57,5],[27,13],[31,24],[14,22],[4,44],[-16,26],[-32,9],[-23,11],[13,31],[0,15],[-49,34],[-60,77],[-41,88],[10,69],[0,18],[-117,34],[-437,-61],[-215,-45],[-34,8],[-16,22],[-15,10],[-224,-25],[-115,-44],[-54,-56],[-29,-20],[-53,-59],[-47,-33],[-20,-27],[3,-32],[19,-19],[42,-22],[13,-17],[3,-31],[-11,-24],[-13,-7],[-8,-20],[-59,13],[-29,1],[-12,-23],[-6,-36],[-28,-74],[-7,-41],[1,-181],[21,-68],[54,-26],[332,-12],[57,-22],[35,-51],[-27,11],[-50,32],[-32,8],[-34,0],[-20,-11],[-36,-55],[11,-27],[-5,-29],[-13,-27],[-13,-17],[-17,-18],[-14,-8],[-16,0],[-106,27],[-44,26],[-3,39],[-7,21],[0,10],[5,8],[12,10],[0,16],[-10,0],[-12,-14],[-18,-4],[-17,4],[-13,14],[-25,-8],[-58,33],[-46,15],[-10,12],[-8,11],[-7,6],[-2,6],[-36,25],[-7,3],[-49,201],[-25,26],[-30,14],[-144,25],[-344,-54],[-217,-63],[-37,-30],[-12,-4],[-14,5],[-26,23],[-15,6],[-128,-4],[-158,-6],[-141,-6],[-97,-51],[-34,-3],[-52,-37],[-234,-95],[-50,-44],[-51,-9],[0,2083]],[[3253,3190],[-6,-15],[28,-20],[2,29],[26,1],[62,-14],[15,2],[14,-3],[-39,24],[-21,7],[-24,2],[-31,-3],[-26,-10]],[[3186,3171],[-123,8],[-61,-13],[-37,-46],[11,-11],[13,0],[12,10],[14,19],[35,-24],[42,3],[41,17],[33,21],[20,0],[0,16]],[[2915,3103],[-29,18],[-130,-1],[-44,-2],[-18,-11],[-8,-28],[5,-33],[13,-12],[43,3],[4,42],[49,12],[106,-3],[4,2],[4,0],[2,2],[-1,11]],[[3652,3051],[-18,-31],[0,-17],[15,10],[9,-1],[8,-6],[13,-3],[7,5],[23,23],[14,6],[21,0],[-31,22],[-32,5],[-29,-13]],[[2632,3027],[5,10],[-19,15],[-28,6],[-30,-5],[-24,-16],[22,1],[58,-18],[11,3],[5,4]],[[2433,2995],[68,27],[4,0],[2,3],[0,12],[-165,3],[-79,-13],[-67,-39],[59,-16],[178,23]],[[1873,2928],[-54,-26],[308,35],[-56,17],[-198,-26]],[[1825,2790],[23,-9],[41,46],[-7,10],[-32,13],[-27,0],[-8,-7],[-6,-3],[-3,-7],[1,-26],[18,-17]],[[1532,2665],[26,-13],[9,3],[22,11],[15,3],[12,-5],[19,-22],[13,-8],[-10,23],[-11,15],[-13,9],[-16,6],[0,15],[27,6],[51,23],[32,4],[-19,38],[-54,-4],[-111,-34],[-17,-13],[5,-28],[20,-29]],[[1217,2586],[52,-17],[4,9],[4,6],[6,3],[6,0],[-80,35],[-20,-3],[2,-16],[26,-17]],[[1396,2598],[-15,-13],[-4,-11],[22,-12],[9,10],[7,15],[10,4],[4,6],[-33,1]],[[725,2436],[15,-34],[-9,-11],[1,-8],[8,-16],[29,38],[251,81],[19,0],[0,16],[-40,13],[-144,-13],[-39,-10],[-54,-24],[-37,-32]],[[480,2386],[-59,31],[-350,-15],[-22,10],[-24,-21],[-9,-36],[26,-36],[37,-9],[70,32],[37,10],[150,0],[144,34]],[[865,2148],[41,-6],[23,-23],[-17,-25],[-48,-3],[-95,10],[-9,25],[5,21],[10,20],[15,73],[25,14],[32,-11],[32,-24],[-12,-15],[-12,-5],[-13,5],[-12,15],[1,-54],[34,-17]],[[0,2013],[51,9],[50,44],[234,95],[52,37],[34,3],[97,51],[141,6],[158,6],[128,4],[15,-6],[26,-23],[14,-5],[12,4],[37,30],[217,63],[344,54],[144,-25],[30,-14],[25,-26],[49,-201],[7,-3],[36,-25],[2,-6],[7,-6],[8,-11],[10,-12],[46,-15],[58,-33],[25,8],[13,-14],[17,-4],[18,4],[12,14],[10,0],[0,-16],[-12,-10],[-5,-8],[0,-10],[7,-21],[3,-39],[44,-26],[106,-27],[16,0],[14,8],[17,18],[13,17],[13,27],[5,29],[-11,27],[36,55],[20,11],[34,0],[32,-8],[50,-32],[27,-11],[-35,51],[-57,22],[-332,12],[-54,26],[-21,68],[-1,181],[7,41],[28,74],[6,36],[12,23],[29,-1],[59,-13],[8,20],[13,7],[11,24],[-3,31],[-13,17],[-42,22],[-19,19],[-3,32],[20,27],[47,33],[53,59],[29,20],[54,56],[115,44],[224,25],[15,-10],[16,-22],[34,-8],[215,45],[437,61],[117,-34],[0,-18],[-10,-69],[41,-88],[60,-77],[49,-34],[0,-15],[-13,-31],[23,-11],[32,-9],[16,-26],[-4,-44],[-14,-22],[-31,-24],[-27,-13],[-57,-5],[-26,-16],[27,-82],[13,-30],[20,-22],[19,9],[16,7],[25,-1],[17,-9],[27,-32],[11,-7],[12,-10],[12,-23],[15,-23],[21,-11],[24,1],[18,4],[16,10],[18,17],[30,51],[33,84],[8,84],[-43,49],[-57,-15],[-30,5],[2,36],[13,40],[10,83],[13,34],[19,21],[25,10],[61,3],[27,-13],[22,-30],[18,-33],[17,-24],[59,-30],[14,-3]],[[865,2148],[41,-6],[23,-23],[-17,-25],[-48,-3],[-95,10],[-9,25],[5,21],[10,20],[15,73],[25,14],[32,-11],[32,-24],[-12,-15],[-12,-5],[-13,5],[-12,15],[1,-54],[34,-17]],[[855,2502],[-39,-10],[-54,-24],[-37,-32],[15,-34],[-9,-11],[1,-8],[8,-16],[29,38],[251,81],[19,0],[0,16],[-40,13],[-144,-13]],[[1189,2619],[2,-16],[26,-17],[52,-17],[4,9],[4,6],[6,3],[6,0],[-80,35],[-20,-3]],[[1708,2735],[-19,38],[-54,-4],[-111,-34],[-17,-13],[5,-28],[20,-29],[26,-13],[9,3],[22,11],[15,3],[12,-5],[19,-22],[13,-8],[-10,23],[-11,15],[-13,9],[-16,6],[0,15],[27,6],[51,23],[32,4]],[[71,2402],[-22,10],[-24,-21],[-9,-36],[26,-36],[37,-9],[70,32],[37,10],[150,0],[144,34],[-59,31],[-350,-15]],[[2196,2988],[59,-16],[178,23],[68,27],[4,0],[2,3],[0,12],[-165,3],[-79,-13],[-67,-39]],[[3634,3020],[0,-17],[15,10],[9,-1],[8,-6],[13,-3],[7,5],[23,23],[14,6],[21,0],[-31,22],[-32,5],[-29,-13],[-18,-31]],[[3275,3155],[2,29],[26,1],[62,-14],[15,2],[14,-3],[-39,24],[-21,7],[-24,2],[-31,-3],[-26,-10],[-6,-15],[28,-20]],[[1819,2902],[308,35],[-56,17],[-198,-26],[-54,-26]],[[2536,3037],[22,1],[58,-18],[11,3],[5,4],[5,10],[-19,15],[-28,6],[-30,-5],[-24,-16]],[[2756,3120],[-44,-2],[-18,-11],[-8,-28],[5,-33],[13,-12],[43,3],[4,42],[49,12],[106,-3],[4,2],[4,0],[2,2],[-1,11],[-29,18],[-130,-1]],[[2965,3120],[11,-11],[13,0],[12,10],[14,19],[35,-24],[42,3],[41,17],[33,21],[20,0],[0,16],[-123,8],[-61,-13],[-37,-46]],[[357,140],[6,-46],[-2,-49],[-14,-45]],[[0,906],[18,2],[106,-31],[17,-12],[-52,-12],[-43,-32],[-36,-48],[-10,-20]],[[0,402],[5,-3],[35,-67],[12,-18],[23,-7],[193,11],[25,-7],[21,-15],[15,-27],[10,-40],[18,-89]],[[340,58],[1,48],[-29,107],[-231,57],[-39,44],[-26,-22],[-16,-5]],[[322,0],[18,58]],[[3745,540],[1,-24],[0,-11]],[[3746,505],[0,-10],[-3,-20],[-5,-19],[-6,-17],[-4,-9],[-5,-7],[-60,-73],[-9,-17],[-5,-10],[-4,-10],[-3,-11],[-3,-12],[-1,-13],[-6,-81],[-3,-22],[-4,-21],[-25,-84],[-27,-69]],[[3768,830],[-24,-139],[-1,-13],[-1,-65],[3,-73]],[[3822,1539],[0,6],[0,2],[-1,1],[-2,1],[-2,0],[-7,0]],[[3790,913],[-35,42],[-7,12],[-7,13],[-6,14],[-11,34],[-7,37],[-1,39],[3,39],[17,77],[74,218],[6,29],[5,30],[1,15],[1,23],[-1,4]],[[4096,1078],[-54,-12],[-64,-38],[-102,-42],[-26,-16],[-19,-16],[-12,-13],[-12,-15],[-17,-27],[-7,-16],[-6,-17],[-9,-36]],[[0,1348],[74,-50],[64,-28],[14,-10],[7,-6],[10,-12],[4,-4],[9,-6],[12,-6],[7,-2],[50,-3]],[[624,1480],[12,20],[12,14],[13,10],[28,15],[13,5],[24,5]],[[1270,1768],[110,-16],[55,1],[24,-2]],[[239,1202],[106,45],[177,48],[11,7],[10,11],[9,14],[54,123],[18,30]],[[726,1549],[31,8],[27,13],[14,8],[11,10],[21,25],[11,10],[321,151],[14,3],[31,1],[63,-10]],[[1459,1751],[30,-4]],[[3655,1679],[78,-74],[90,-65]],[[2664,1878],[64,14],[19,-1]],[[2400,1629],[24,-4],[15,22],[10,36],[11,75],[3,12],[3,11],[5,9],[11,16],[10,12],[12,11],[12,7],[52,22],[96,20]],[[2747,1891],[39,-2],[179,-40],[25,-2],[25,1],[25,7],[162,76],[63,8],[13,0],[81,-18],[64,-29],[25,-17],[207,-196]],[[3823,1540],[5,-3]],[[2311,1711],[41,-24],[13,-12],[11,-13],[18,-29],[11,-11]],[[883,534],[313,17]],[[720,147],[-86,-99]],[[634,48],[-13,-15]],[[758,185],[-32,-31],[-6,-7]],[[229,657],[0,-29],[-10,-51],[-19,-47],[-9,-15]],[[191,515],[-143,-241],[-23,-30],[-25,-24]],[[251,1221],[-43,-72],[-30,-59],[-4,-9],[-33,-109],[-2,-10],[-1,-10],[2,-11],[4,-9],[27,-54],[8,-19],[8,-21],[36,-132],[5,-23],[1,-26]],[[2253,640],[-2,93],[1,47],[5,45],[7,41],[5,19],[69,165],[23,85],[4,23],[2,24],[1,25],[0,25],[-2,25],[-4,23],[-29,125],[-2,21],[-1,12],[0,12],[2,23],[2,10],[3,11],[9,18],[3,5],[79,110]],[[1203,552],[44,3]],[[1782,617],[70,13],[71,1]],[[1947,631],[110,3]],[[1191,551],[12,1]],[[1247,555],[279,16],[256,46]],[[1923,631],[24,0]],[[2057,634],[4,0],[18,-2]],[[758,185],[32,19],[26,32],[21,43],[14,51],[5,27],[3,27],[2,28],[1,48],[-2,29],[1,7],[3,11],[7,9],[6,8],[6,10]],[[1215,869],[-15,-22],[-17,-38],[-2,-8],[-2,-8],[-2,-9],[0,-8],[2,-15],[1,-5],[6,-12]],[[1458,1560],[0,-2],[-7,-45],[-14,-65],[-3,-9],[-5,-8],[-6,-6]],[[1211,627],[-1,-2],[-10,-42]],[[1330,1344],[-2,-9],[-5,-38],[-2,-24],[1,-45]],[[1186,744],[19,-39],[6,-17],[4,-19],[-1,-22],[-3,-20]],[[1200,583],[0,-2],[-4,-23]],[[1322,1228],[0,-52],[-7,-67],[-8,-46],[-11,-43],[-15,-40],[-19,-36],[-47,-75]],[[1423,1425],[-6,-7],[-14,-11],[-46,-25],[-6,-5],[-11,-12],[-6,-8],[-3,-9],[-1,-4]],[[1478,1750],[-20,-190]],[[2322,0],[-4,5],[-8,19],[-3,24],[-2,53],[-1,17],[-13,82],[-38,440]],[[3850,1632],[-6,31],[-12,31],[-15,28],[-41,54]],[[3561,2591],[63,20]],[[3776,1776],[-26,34],[-29,45],[-10,19],[-8,21],[-14,44],[-4,18],[-28,176],[-11,36],[-16,29],[-20,23],[-101,80],[-21,20],[-10,11],[-10,15],[-10,18],[-8,19],[-6,21],[-2,11],[-1,10],[-1,12],[1,10],[3,13],[3,11],[7,23],[7,14],[7,11],[9,11],[20,19],[36,27],[22,13],[6,1]],[[3830,1513],[12,35],[8,37],[1,39],[-1,8]],[[621,33],[-32,-32],[-1,-1]],[[3824,1522],[39,-10],[168,-78],[65,-13]],[[1603,1734],[19,-3],[25,-9],[28,-17],[26,-19],[12,-7],[13,-5],[13,-4],[29,-2],[87,13],[13,6],[78,48],[20,6],[14,0],[13,-6],[13,-9],[13,-12],[10,-13],[10,-15],[11,-13],[13,-7],[27,-3],[20,3]],[[1489,1747],[114,-13]],[[2110,1666],[8,0],[125,47],[18,3],[18,2],[8,0],[24,-7]],[[2079,632],[191,-20]],[[2562,1454],[30,25]],[[2696,1814],[-15,26]],[[2493,1184],[-3,105],[-10,70],[7,28],[25,26],[50,41]],[[2592,1479],[3,2],[31,54],[34,87],[45,56],[6,28],[-5,92],[-10,16]],[[3703,1024],[64,10]],[[2472,965],[4,59],[4,23]],[[2465,925],[6,32],[1,8]],[[2480,1047],[12,69],[1,68]],[[3519,880],[14,13],[34,54],[57,25]],[[3624,972],[56,41],[23,11]],[[2470,733],[6,47],[-21,62],[-2,41],[12,42]],[[2429,532],[15,46]],[[2444,578],[11,31],[-4,28],[5,62],[14,34]],[[4096,316],[-86,-13]],[[4010,303],[-45,5],[-36,17],[-60,0],[-6,-30],[-37,-11],[-27,-23],[-31,0],[-60,25],[-53,-8],[-33,10]],[[3622,288],[-68,9],[-37,-11],[-31,-17],[-24,-26],[-66,-55]],[[2460,96],[-37,47],[-5,26],[15,53],[0,49]],[[2433,271],[0,30],[-5,73],[6,83],[-5,28],[-18,30]],[[3396,188],[-64,-11],[-49,-34],[-25,-6],[-48,2],[-25,-9],[-80,-49]],[[3105,81],[-132,6]],[[2505,86],[-35,14]],[[2973,87],[-52,11],[-58,-6],[-34,-15],[-18,-49],[-23,-9],[-121,34],[-62,7],[-71,15],[-29,11]],[[2460,96],[-27,-6],[-16,-13]],[[2417,77],[-58,-45],[-48,-32]],[[764,24],[-3,1],[-46,22],[-28,30],[-34,4]],[[824,0],[-1,2],[-20,13],[-39,9]],[[421,2417],[59,-31],[-144,-34],[-150,0],[-37,-10],[-70,-32],[-37,9],[-26,36],[9,36],[24,21],[22,-10],[350,15]],[[769,2405],[-29,-38],[-8,16],[-1,8],[9,11],[-15,34],[37,32],[54,24],[39,10],[144,13],[40,-13],[0,-16],[-19,0],[-251,-81]],[[1209,2622],[80,-35],[-6,0],[-6,-3],[-4,-6],[-4,-9],[-52,17],[-26,17],[-2,16],[20,3]],[[1627,2672],[11,-15],[10,-23],[-13,8],[-19,22],[-12,5],[-15,-3],[-22,-11],[-9,-3],[-26,13],[-20,29],[-5,28],[17,13],[111,34],[54,4],[19,-38],[-32,-4],[-51,-23],[-27,-6],[0,-15],[16,-6],[13,-9]],[[2127,2937],[-308,-35],[54,26],[198,26],[56,-17]],[[2507,3025],[-2,-3],[-4,0],[-68,-27],[-178,-23],[-59,16],[67,39],[79,13],[165,-3],[0,-12]],[[3709,3031],[-23,-23],[-7,-5],[-13,3],[-8,6],[-9,1],[-15,-10],[0,17],[18,31],[29,13],[32,-5],[31,-22],[-21,0],[-14,-6]],[[2618,3052],[19,-15],[-5,-10],[-5,-4],[-11,-3],[-58,18],[-22,-1],[24,16],[30,5],[28,-6]],[[2916,3092],[-2,-2],[-4,0],[-4,-2],[-106,3],[-49,-12],[-4,-42],[-43,-3],[-13,12],[-5,33],[8,28],[18,11],[44,2],[130,1],[29,-18],[1,-11]],[[3166,3155],[-33,-21],[-41,-17],[-42,-3],[-35,24],[-14,-19],[-12,-10],[-13,0],[-11,11],[37,46],[61,13],[123,-8],[0,-16],[-20,0]],[[3355,3194],[39,-24],[-14,3],[-15,-2],[-62,14],[-26,-1],[-2,-29],[-28,20],[6,15],[26,10],[31,3],[24,-2],[21,-7]],[[4096,2636],[0,-2636],[-4096,0],[0,2013],[51,9],[50,44],[234,95],[52,37],[34,3],[97,51],[141,6],[158,6],[128,4],[15,-6],[26,-23],[14,-5],[12,4],[37,30],[217,63],[344,54],[144,-25],[30,-14],[25,-26],[49,-201],[7,-3],[36,-25],[2,-6],[7,-6],[8,-11],[10,-12],[46,-15],[58,-33],[25,8],[13,-14],[17,-4],[18,4],[12,14],[10,0],[0,-16],[-12,-10],[-5,-8],[0,-10],[7,-21],[3,-39],[44,-26],[106,-27],[16,0],[14,8],[17,18],[13,17],[13,27],[5,29],[-11,27],[36,55],[20,11],[34,0],[32,-8],[50,-32],[27,-11],[-35,51],[-57,22],[-332,12],[-54,26],[-21,68],[-1,181],[7,41],[28,74],[6,36],[12,23],[29,-1],[59,-13],[8,20],[13,7],[11,24],[-3,31],[-13,17],[-42,22],[-19,19],[-3,32],[20,27],[47,33],[53,59],[29,20],[54,56],[115,44],[224,25],[15,-10],[16,-22],[34,-8],[215,45],[437,61],[117,-34],[0,-18],[-10,-69],[41,-88],[60,-77],[49,-34],[0,-15],[-13,-31],[23,-11],[32,-9],[16,-26],[-4,-44],[-14,-22],[-31,-24],[-27,-13],[-57,-5],[-26,-16],[27,-82],[13,-30],[20,-22],[19,9],[16,7],[25,-1],[17,-9],[27,-32],[11,-7],[12,-10],[12,-23],[15,-23],[21,-11],[24,1],[18,4],[16,10],[18,17],[30,51],[33,84],[8,84],[-43,49],[-57,-15],[-30,5],[2,36],[13,40],[10,83],[13,34],[19,21],[25,10],[61,3],[27,-13],[22,-30],[18,-33],[17,-24],[59,-30],[14,-3]],[[4096,2810],[0,-180],[-59,16],[-58,75],[-54,27],[-71,-15],[-42,-54],[-16,-148],[125,3],[1,-165],[-81,-140],[-78,-16],[-107,152],[-63,-27],[-54,99],[7,62],[47,-13],[196,44],[-43,84],[-67,282],[-85,142],[-74,-30],[72,-170],[-61,-15],[-49,133],[24,25],[-65,20],[-413,-24],[-259,-81],[-71,33],[-200,-16],[-164,-38],[-103,-80],[-101,-140],[94,-91],[-43,-47],[-76,-2],[-48,60],[21,-86],[-35,-49],[-19,-254],[-25,-25],[-54,153],[-66,68],[-488,385],[1,386],[609,130],[465,-62],[201,0],[591,168],[139,-20],[164,-77],[139,-182],[259,-175],[137,-125]],[[1498,2718],[5,-33],[12,-15],[43,-27],[-34,28],[100,-23],[0,-29],[28,14],[-68,47],[-30,-3],[-26,47],[-30,-6]],[[1935,2906],[66,-10],[27,13],[-17,18],[-76,-21]],[[2680,3068],[39,-13],[-1,-31],[20,2],[7,52],[-26,28],[-39,-38]],[[2203,2985],[38,-23],[27,46],[-14,8],[-51,-31]],[[2526,3034],[7,-13],[47,8],[-13,26],[-41,-21]],[[3295,3194],[14,-18],[17,5],[4,-11],[26,1],[-61,23]],[[2998,3145],[17,-25],[19,16],[1,9],[-37,0]],[[2993,3150],[40,11],[0,6],[-29,-7],[-11,-10]],[[3235,3182],[7,-9],[11,0],[-2,18],[-16,-9]],[[2320,2985],[5,-3],[25,3],[-13,6],[-17,-6]],[[2294,2998],[7,-4],[4,3],[-1,4],[-10,-3]],[[1566,2720],[10,-16],[24,-1],[-14,24],[-20,-7]],[[2076,2925],[2,-10],[15,1],[0,10],[-17,-1]],[[1556,2704],[15,-8],[1,2],[-14,8],[-2,-2]],[[2780,3090],[3,0],[7,0],[-5,4],[-5,-4]],[[2298,2987],[8,0],[0,5],[-7,0],[-1,-5]],[[3262,3149],[7,1],[1,4],[-5,3],[-3,-8]],[[2520,2935],[2,-11],[7,0],[3,12],[-12,-1]],[[3058,3130],[4,-2],[1,7],[-3,1],[-2,-6]],[[2866,3088],[8,-2],[1,5],[-8,1],[-1,-4]],[[4096,3638],[0,-803],[-12,9],[-72,95],[-273,209],[0,173],[-160,117],[-44,94],[29,78],[185,54],[335,-224],[-311,212],[144,12],[179,-26]],[[4016,4096],[80,0],[0,-403],[-249,1],[169,402]],[[686,3741],[373,-1],[201,-248],[267,0],[85,-125],[-562,-339],[-364,713]],[[385,752],[71,60],[40,-42],[71,-8],[-4,-52],[-25,32],[-21,-17],[14,-89],[31,-29],[60,19],[-1,-62],[67,-43],[-28,-2],[-3,-8],[50,14],[12,-18],[33,24],[16,-39],[-82,-39],[4,-27],[-47,-35],[-58,34],[-60,95],[43,63],[-32,-10],[8,33],[-36,1],[-12,56],[-23,-13],[-88,102]],[[867,1023],[35,41],[12,-25],[47,-1],[-23,62],[20,-14],[1,45],[31,16],[91,-61],[-90,-80],[20,11],[4,-24],[69,78],[23,-15],[-31,-40],[2,-67],[-46,-30],[-78,30],[-18,-18],[-4,63],[-31,-6],[-34,35]],[[963,1036],[6,-5],[1,2],[-3,6],[-4,-3]],[[936,1031],[7,-7],[6,7],[-6,6],[-7,-6]],[[967,1029],[6,-14],[1,1],[-6,15],[-1,-2]],[[1367,1186],[50,65],[11,351],[55,-76],[-5,-37],[84,-67],[76,-134],[-155,-92],[-116,-10]],[[1038,805],[102,25],[36,44],[70,-8],[-46,-113],[-40,-26],[-12,18],[-26,-26],[-63,9],[-21,77]],[[189,164],[-3,-40],[-48,-51],[-49,51],[-33,0],[-32,109],[97,27],[16,-54],[52,-42]],[[414,135],[-27,24],[-7,74],[81,-27],[-47,-71]],[[675,142],[5,-19],[7,29],[54,-8],[43,-47],[-27,-97],[-63,0],[-88,70],[59,108],[10,-36]],[[2461,0],[-43,70],[-32,190],[113,27],[-32,-108],[49,-55],[-34,-124],[-21,0]],[[454,1108],[-37,6],[-31,46],[-6,75],[97,-81],[-23,-46]],[[2055,1098],[-25,2],[0,81],[65,-27],[-40,-56]],[[3623,966],[-40,-110],[-41,-11],[-104,92],[31,47],[33,-47],[89,108],[41,-26],[-9,-53]],[[3001,1019],[0,-55],[-97,-27],[12,56],[51,39],[34,-13]],[[2467,964],[-51,1],[-14,54],[73,30],[73,-30],[-25,-48],[-56,-7]],[[645,1449],[-39,57],[24,52],[46,29],[43,-11],[17,-70],[-81,-27],[-10,-30]],[[2613,1425],[-106,60],[-8,49],[79,-18],[35,-91]],[[1558,1475],[-29,4],[0,34],[64,75],[30,-44],[-65,-69]],[[307,1682],[-89,14],[-16,82],[73,30],[73,-30],[-14,-73],[-27,-23]],[[1983,2010],[-50,-16],[-32,-54],[-56,-31],[-54,54],[-7,-42],[-29,-8],[23,255],[42,106],[38,-155],[125,-109]],[[2365,2182],[5,-52],[-53,-17],[-7,-36],[-108,4],[87,130],[56,-3],[20,-26]],[[1913,1847],[-45,-97],[19,-25],[30,-2],[16,55],[53,-6],[12,33],[32,-27],[16,27],[114,-82],[-49,-54],[-16,-81],[-115,-9],[-79,90],[-32,-56],[-1,-107],[-97,-27],[33,163],[-49,-27],[0,-55],[-32,0],[-11,-82],[-21,1],[-13,35],[28,74],[-32,27],[-16,-27],[-48,27],[-17,54],[17,54],[-65,109],[155,42],[39,-15],[0,-27],[58,42],[30,-35],[58,47],[28,-39]],[[3855,1658],[-20,-104],[-41,-48],[-88,74],[-21,65],[-37,-3],[13,66],[116,69],[-36,62],[4,47],[37,-65],[49,-16],[24,-147]],[[1464,1886],[-6,-178],[6,-66],[-65,81],[-81,0],[-48,27],[0,36],[48,100],[65,-27],[68,45],[13,-18]],[[2680,1806],[-35,26],[21,51],[92,30],[-45,-91],[-33,-16]],[[1917,1317],[16,-27],[65,0],[-32,-109],[-114,82],[15,81],[66,27],[-16,-54]],[[1499,1288],[-83,-26],[-21,-47],[-28,-5],[-93,37],[-20,97],[242,0],[3,-56]],[[833,450],[-49,54],[49,81],[25,-46],[-25,-89]],[[2176,395],[-80,45],[20,63],[41,10],[19,-118]],[[2257,395],[-35,10],[-14,48],[16,105],[32,-55],[1,-108]],[[3826,558],[32,0],[8,-91],[-88,-45],[-3,30],[35,25],[0,108],[16,-27]],[[3761,532],[0,-28],[-47,5],[-98,-59],[0,81],[32,0],[31,42],[82,-41]],[[2736,585],[6,-81],[-22,23],[-75,-23],[17,66],[39,32],[35,-17]],[[299,585],[-21,-27],[-47,15],[-29,-69],[-36,38],[-13,70],[65,27],[32,55],[27,-4],[71,-51],[-49,-54]],[[1287,657],[5,-77],[-87,-49],[-6,66],[38,97],[50,-37]],[[3891,558],[-38,61],[5,75],[42,-55],[-9,-81]],[[2402,666],[65,-135],[-88,-25],[-25,25],[1,76],[15,60],[32,-1],[-16,78],[0,31],[49,-54],[-33,-55]],[[2115,758],[-4,-119],[-48,0],[-86,-88],[-44,115],[-48,-162],[-114,27],[7,84],[42,24],[-33,109],[227,27],[0,-81],[65,22],[0,86],[22,3],[14,-47]],[[2722,2400],[-29,1],[7,50],[37,49],[19,-62],[-34,-38]],[[3654,2520],[-103,43],[58,164],[36,-25],[-13,-46],[71,-46],[-4,-44],[-45,-46]],[[0,2367],[305,18],[81,-17],[314,85],[327,36],[165,120],[87,-24],[109,10],[86,72],[321,-263],[85,-27],[131,-319],[265,13],[31,-243],[-52,23],[1,-13],[-5,-7],[-11,29],[-122,46],[28,108],[-74,-22],[-12,22],[-43,-6],[4,12],[-4,11],[-14,-15],[-107,45],[11,12],[8,-11],[17,-12],[57,-18],[21,2],[-85,22],[-15,20],[-50,33],[-41,147],[14,80],[-61,48],[-5,-33],[25,-13],[-53,8],[15,8],[-23,12],[30,4],[-25,7],[2,6],[23,-10],[0,16],[-31,2],[-25,-21],[-67,27],[-119,-16],[-191,-69],[-291,-45],[-42,-45],[-86,53],[-235,-25],[17,22],[-20,-25],[-162,-7],[-60,-32],[-80,18],[11,-19],[-27,-18],[-350,-170],[-3,348]],[[735,2239],[79,30],[37,-69],[40,15],[6,-59],[82,-72],[-16,-17],[-25,22],[-22,-48],[-90,2],[-15,22],[-2,-30],[-31,3],[19,21],[-42,62],[39,65],[-59,53]],[[712,2416],[6,50],[30,26],[328,14],[-59,-58],[-18,12],[-117,-64],[-46,15],[17,22],[-91,28],[-5,-35],[30,-25],[52,2],[-91,-53],[-36,66]],[[2839,1397],[32,32],[11,66],[26,-3],[7,42],[20,1],[-18,-70],[29,11],[11,-81],[71,-33],[17,-41],[-186,-22],[15,21],[-24,13],[-11,64]]]}