{"objects":{"water":{"type":"GeometryCollection","geometries":[{"type":"MultiPolygon","properties":{"source":"naturalearthdata.com","kind":"ocean","area":1576712559132672,"sort_rank":200,"min_zoom":0.0,"id":1},"arcs":[[[0],[1],[2]]]},{"type":"LineString","properties":{"source":"naturalearthdata.com","kind":"ocean","sort_rank":205,"boundary":true,"min_zoom":0.0,"id":1353},"arcs":[3]},{"type":"LineString","properties":{"source":"naturalearthdata.com","kind":"ocean","sort_rank":205,"boundary":true,"min_zoom":0.0,"id":1354},"arcs":[4]}]},"buildings":{"type":"GeometryCollection","geometries":[]},"places":{"type":"GeometryCollection","geometries":[{"type":"Point","properties":{"name:cy":"S\u00e3o Tom\u00e9 a Pr\u00edncipe","name:mt":"Sao Tome and Principe","name:ko":"\uc0c1\ud22c\uba54 \ud504\ub9b0\uc2dc\ud398","name:kn":"\u0cb8\u0cbe\u0cb5\u0ccb \u0c9f\u0ccb\u0cae\u0ccd \u0cae\u0ca4\u0ccd\u0ca4\u0cc1 \u0caa\u0ccd\u0cb0\u0cbf\u0ca8\u0ccd\u0cb8\u0cbf\u0caa\u0cc6","name:km":"\u179f\u17c5\u200b\u178f\u17bb\u17c6 \u1793\u17b7\u1784\u200b\u1796\u17d2\u179a\u17b8\u1793\u179f\u17ca\u17b8\u1794\u17c9\u17c1","name:kl":"S\u00e3o Tom\u00e9 aamma Pr\u00edncipe","name:cs":"Svat\u00fd Tom\u00e1\u0161 a Princ\u016fv ostrov","alt_name:eo":"Santomeo kaj Principeo","name:ki":"Sao Tome na Principe","name:tr":"S\u00e3o Tom\u00e9 ve Pr\u00edncipe","name:ku":"Sao Tome \u00fb Pr\u00eens\u00eepe","name:ti":"\u1233\u12a6 \u1276\u121c \u12a5\u1293 \u1355\u122a\u1295\u1232\u1354","name:ks":"\u0633\u0627\u0648 \u062a\u0648\u0645 \u062a\u06c1\u0655 \u067e\u0631\u065b\u0646\u0633\u0650\u067e\u06cc","name:to":"Sao Tome mo Pilinisipe","name:sv":"S\u00e3o Tom\u00e9 och Pr\u00edncipe","name:or":"\u0b38\u0b3e\u0b13 \u0b1f\u0b4b\u0b2e\u0b47 \u0b0f\u0b2c\u0b02 \u0b2a\u0b4d\u0b30\u0b3f\u0b28\u0b38\u0b3f\u0b2a\u0b3f","name:pl":"Wyspy \u015awi\u0119tego Tomasza i Ksi\u0105\u017c\u0119ca","name:ta":"\u0b9a\u0bbe\u0bb5\u0bcd \u0ba4\u0bcb\u0bae\u0bcd \u0bae\u0bb1\u0bcd\u0bb1\u0bc1\u0bae\u0bcd \u0baa\u0bcd\u0bb0\u0bbf\u0ba9\u0bcd\u0b9a\u0bbf\u0baa\u0bbf","name:ca":"S\u00e3o Tom\u00e9 i Pr\u00edncipe","name:te":"\u0c38\u0c3e\u0c35\u0c4b\u0c1f\u0c4b\u0c2e\u0c4d \u0c2e\u0c30\u0c3f\u0c2f\u0c41 \u0c2a\u0c4d\u0c30\u0c3f\u0c28\u0c4d\u0c38\u0c3f\u0c2a\u0c47","name:hu":"S\u00e3o Tom\u00e9 \u00e9s Pr\u00edncipe","name:ro":"Sao Tome \u0219i Principe","name:ka":"\u10e1\u10d0\u10dd-\u10e2\u10dd\u10db\u10d4 \u10d3\u10d0 \u10de\u10e0\u10d8\u10dc\u10e1\u10d8\u10de\u10d8","name:hr":"Sveti Toma i Princip","name:da":"S\u00e3o Tom\u00e9 og Pr\u00edncipe","name:de":"S\u00e3o Tom\u00e9 und Pr\u00edncipe","name:dz":"\u0f66\u0f5d\u0f0b \u0f4a\u0f7c\u0f0b\u0f58\u0f7a\u0f0b \u0f68\u0f7a\u0f53\u0f4c\u0f0b \u0f54\u0fb2\u0f80\u0f53\u0f0b\u0f66\u0f72\u0f0b\u0f54\u0f7a","source":"openstreetmap.org","name:lv":"Santome un Prinsipi","name:lt":"San Tom\u0117 ir Prinsip\u0117","name:hi":"\u0938\u093e\u0909-\u0924\u094b\u092e-\u092a\u094d\u0930\u093f\u0902\u0938\u093f\u092a","name:he":"\u05e1\u05d0\u05d5 \u05d8\u05d5\u05de\u05d4 \u05d5\u05e4\u05e8\u05d9\u05e0\u05e1\u05d9\u05e4\u05d4","kind":"country","name:ur":"\u0633\u0627\u0624 \u0679\u0648\u0645 \u0627\u0648\u0631 \u067e\u0631\u0646\u0633\u067e\u06d2","name:lb":"S\u00e3o Tom\u00e9 a Pr\u00edncipe","name:la":"Insulae Sancti Thomae et Principis","name:lg":"Sanitome ne Purincipe","name:uk":"\u0421\u0430\u043d-\u0422\u043e\u043c\u0435 \u0456 \u041f\u0440\u0438\u043d\u0441\u0456\u043f\u0456","name:hy":"\u054d\u0561\u0576-\u0539\u0578\u0574\u0565-\u0553\u0580\u056b\u0576\u057d\u056b\u057a\u056b","min_zoom":2.0,"name:li":"S\u00e3o Tom\u00e9 en Pr\u00edncipe","name:ln":"Sao Tom\u00e9 mp\u00e9 Presip\u025b","name:lo":"\u0ec0\u0e8a\u0ebb\u0eb2\u0e95\u0eb9\u0ec0\u0ea1\u0ec1\u0ea5\u0eb0\u0e9e\u0ea3\u0eb4\u0e99\u0e8a\u0eb4\u0e9b\u0eb5","population":206178,"name:el":"\u03a3\u03ac\u03bf \u03a4\u03bf\u03bc\u03ad \u03ba\u03b1\u03b9 \u03a0\u03c1\u03af\u03bd\u03c3\u03b9\u03c0\u03b5","name:eo":"Sao-Tomeo kaj Principeo","name:en":"S\u00e3o Tom\u00e9 and Pr\u00edncipe","name":"S\u00e3o Tom\u00e9 e Pr\u00edncipe","name:ee":"S\u00e3o Tom\u00e9 kple Pr\u00edncipe nutome","name:th":"\u0e1b\u0e23\u0e30\u0e40\u0e17\u0e28\u0e40\u0e0b\u0e32\u0e15\u0e39\u0e40\u0e21\u0e41\u0e25\u0e30\u0e1b\u0e23\u0e34\u0e19\u0e0b\u0e34\u0e1b\u0e35","name:gu":"\u0ab8\u0abe\u0a93 \u0a9f\u0ac9\u0aae \u0a85\u0aa8\u0ac7 \u0aaa\u0acd\u0ab0\u0abf\u0a82\u0ab8\u0abf\u0aaa\u0ac7","name:eu":"Sao Tome eta Principe","name:et":"S\u00e3o Tom\u00e9 ja Pr\u00edncipe","name:nl":"Sao Tom\u00e9 en Principe","name:es":"Santo Tom\u00e9 y Pr\u00edncipe","name:ml":"\u0d38\u0d3e\u0d35\u0d4b \u0d31\u0d4d\u0d31\u0d2e\u0d46 \u0d06\u0d7b\u0d21\u0d4d \u0d2a\u0d4d\u0d30\u0d3f\u0d7b\u0d38\u0d3f\u0d2a\u0d4d\u0d2a\u0d3f","name:rm":"S\u00e3o Tom\u00e9 e Principe","name:rn":"Sawotome na Perensipe","name:az":"Sao Tom v\u0259 Prinsip","name:id":"Sao Tome dan Principe","name:ms":"S\u00e3o Tom\u00e9 dan Pr\u00edncipe","name:mr":"\u0938\u093e\u0913 \u091f\u094b\u092e \u0906\u0923\u093f \u092a\u094d\u0930\u093f\u0902\u0938\u093f\u092a\u0947","name:ar":"\u0633\u0627\u0646 \u062a\u0648\u0645\u064a \u0648\u0628\u0631\u064a\u0646\u0633\u064a\u0628\u064a","name:io":"San-Tome e Principe","int_name":"Sao Tome and Principe","name:is":"Sa\u00f3 T\u00f3me og Prins\u00edpe","name:am":"\u1233\u12a6 \u1276\u121c \u12a5\u1293 \u1355\u122a\u1295\u1232\u1354","name:vi":"S\u00e3o Tom\u00e9 v\u00e0 Pr\u00edncipe","name:ru":"\u0421\u0430\u043d-\u0422\u043e\u043c\u0435 \u0438 \u041f\u0440\u0438\u043d\u0441\u0438\u043f\u0438","name:mn":"\u0421\u0430\u043d-\u0422\u043e\u043c\u0435 \u0431\u0430 \u041f\u0440\u0438\u043d\u0441\u0438\u043f\u0438","id":249399429,"name:mk":"\u0421\u0430\u043e \u0422\u043e\u043c\u0435 \u0438 \u041f\u0440\u0438\u043d\u0447\u0438\u043f\u0435","name:af":"S\u00e3o Tom\u00e9 en Principe","name:zu":"i-S\u00e3o Tom\u00e9 kanye ne-Pr\u00edncipe","name:ha":"Sawo Tome Da Paransip","name:nn":"S\u00e3o Tom\u00e9 og Pr\u00edncipe","name:ff":"Sawo Tome e Perensipe","name:fi":"S\u00e3o Tom\u00e9 ja Pr\u00edncipe","name:no":"S\u00e3o Tom\u00e9 og Pr\u00edncipe","name:mg":"S\u00e3o Tom\u00e9-et-Pr\u00edncipe","name:fo":"Sao Tome og Prinsipi","name:fr":"Sao Tom\u00e9-et-Principe","name:fy":"Sao Tomee en Prinsyp","name:vo":"Saluda-Tome\u00e4n e Prinsipe\u00e4n","name:zh":"\u5723\u591a\u7f8e\u548c\u666e\u6797\u897f\u6bd4\/\u8056\u591a\u7f8e\u666e\u6797\u897f\u6bd4","name:gv":"S\u00e3o Tom\u00e9 as Pr\u00edncipe","name:so":"S\u00e3o Tom\u00e9 and Pr\u00edncipe","name:sn":"S\u00e3o Tom\u00e9 and Pr\u00edncipe","name:sl":"Sao Tome in Principe","name:sk":"Sv\u00e4t\u00fd Tom\u00e1\u0161 a Princov ostrov","name:ja":"\u30b5\u30f3\u30c8\u30e1\u30fb\u30d7\u30ea\u30f3\u30b7\u30da","name:si":"\u0dc3\u0dcf\u0dbd\u0ddc \u0dc3\u0dc4 \u0db4\u0dca\u200d\u0dbb\u0dd2\u0db1\u0dca\u0dc3\u0dd2\u0db4\u0dca","name:fa":"\u0633\u0627\u0626\u0648\u062a\u0648\u0645\u0647 \u0648 \u067e\u0631\u06cc\u0646\u0633\u06cc\u067e","name:sg":"S\u00e2\u00f4 T\u00f6m\u00ea na Prins\u00eepe","name:se":"S\u00e3o Tom\u00e9 ja Pr\u00edncipe","name:ne":"\u0938\u093e\u0913 \u091f\u094b\u092e\u0947 \u0930 \u092a\u094d\u0930\u093f\u0928\u094d\u0938\u093f\u092a","name:br":"S\u00e3o Tom\u00e9 ha Pr\u00edncipe","name:bs":"Sao Tome i Principe","name:bm":"Sawo Tome-ni-Prinicipe","name:bn":"\u09b8\u09be\u0993\u099f\u09cb\u09ae\u09be \u0993 \u09aa\u09cd\u09b0\u09bf\u09a8\u09cd\u09b8\u09bf\u09aa\u09bf","name:bo":"\u0f66\u0f0b\u0f60\u0f7c\u0f0b\u0f4f\u0f7c\u0f51\u0f0b\u0f58\u0f51\u0f0d \u0f51\u0f44\u0f0c\u0f0d \u0f54\u0f84\u0f62\u0f72\u0f53\u0f0b\u0f66\u0f72\u0f0b\u0f54\u0f7a\u0f0d","name:sw":"Sao Tome na Principe","name:be":"\u0421\u0430\u043d-\u0422\u0430\u043c\u044d \u0456 \u041f\u0440\u044b\u043d\u0441\u0456\u043f\u0456","name:bg":"\u0421\u0430\u043e \u0422\u043e\u043c\u0435 \u0438 \u041f\u0440\u0438\u043d\u0446\u0438\u043f\u0435","name:sr":"\u0421\u0430\u043e \u0422\u043e\u043c\u0435 \u0438 \u041f\u0440\u0438\u043d\u0441\u0438\u043f\u0435","name:sq":"Sao Tome e Prinsipe","name:ga":"S\u00e3o Tom\u00e9 agus Pr\u00edncipe","name:gd":"S\u00e3o Tom\u00e9 agus Pr\u00edncipe","name:gl":"Santo Tom\u00e9 e Pr\u00edncipe","name:yo":"Or\u00edl\u1eb9\u0301\u00e8de Sao tomi ati pirii\u1e63ipi","name:ak":"S\u00e3o Tom\u00e9 and Pr\u00edncipe"},"coordinates":[1951,1293]},{"type":"Point","properties":{"source":"naturalearthdata.com","kind":"locality","name":"Sao Tome","country_capital":true,"population":88219,"min_zoom":5.0,"id":7096},"coordinates":[1614,486]}]},"transit":{"type":"GeometryCollection","geometries":[]},"pois":{"type":"GeometryCollection","geometries":[]},"boundaries":{"type":"GeometryCollection","geometries":[]},"roads":{"type":"GeometryCollection","geometries":[]},"earth":{"type":"GeometryCollection","geometries":[{"type":"MultiPolygon","properties":{"sort_rank":10,"source":"naturalearthdata.com","min_zoom":0.0,"kind":"earth","area":173922582241},"arcs":[[[5]],[[6]]]}]},"landuse":{"type":"GeometryCollection","geometries":[{"type":"MultiPolygon","properties":{"source":"openstreetmap.org","kind":"park","tier":2,"area":2775009134,"sort_rank":24,"min_zoom":6.0,"osm_relation":true},"arcs":[[[7]]]}]}},"type":"Topology","transform":{"translate":[5.625,-0.0],"scale":[0.0006866455,0.0006863699]},"arcs":[[[0,4096],[4096,0],[0,-4096],[-4096,0],[0,4096]],[[2521,2360],[-24,-10],[-14,2],[-1,-26],[5,-45],[16,-8],[21,-2],[21,-7],[12,-23],[10,6],[9,5],[3,-5],[4,-11],[4,-5],[2,16],[-1,12],[5,9],[19,3],[10,6],[7,14],[8,29],[-2,33],[6,13],[21,5],[13,5],[-7,11],[-20,10],[-21,4],[9,16],[16,9],[17,7],[7,7],[-4,20],[-16,7],[-40,4],[-27,5],[-25,-10],[-20,-22],[-8,-28],[0,-24],[-3,-18],[-12,-14]],[[1434,569],[-46,-38],[-54,-18],[-12,-6],[-51,-51],[-3,-10],[-2,-9],[-6,-13],[-28,-34],[-4,-11],[0,-30],[-3,-12],[-6,-13],[8,-14],[51,-166],[5,-6],[5,-3],[6,-6],[5,-15],[0,-12],[-8,-25],[-2,-2],[9,-26],[15,-14],[15,4],[11,25],[19,-23],[15,20],[15,53],[7,-1],[49,1],[2,4],[23,26],[11,3],[17,3],[10,6],[-9,26],[8,6],[14,3],[9,3],[41,69],[18,22],[36,33],[12,18],[12,28],[6,27],[0,23],[-6,39],[-15,40],[-28,42],[-34,36],[-32,22],[-58,6],[-47,-30]],[[2676,2440],[-4,20],[-16,7],[-40,4],[-27,5],[-25,-10],[-20,-22],[-8,-28],[0,-24],[-3,-18],[-12,-14],[-24,-10],[-14,2],[-1,-26],[5,-45],[16,-8],[21,-2],[21,-7],[12,-23],[10,6],[9,5],[3,-5],[4,-11],[4,-5],[2,16],[-1,12],[5,9],[19,3],[10,6],[7,14],[8,29],[-2,33],[6,13],[21,5],[13,5],[-7,11],[-20,10],[-21,4],[9,16],[16,9],[17,7],[7,7]],[[1539,593],[-58,6],[-47,-30],[-46,-38],[-54,-18],[-12,-6],[-51,-51],[-3,-10],[-2,-9],[-6,-13],[-28,-34],[-4,-11],[0,-30],[-3,-12],[-6,-13],[8,-14],[51,-166],[5,-6],[5,-3],[6,-6],[5,-15],[0,-12],[-8,-25],[-2,-2],[9,-26],[15,-14],[15,4],[11,25],[19,-23],[15,20],[15,53],[7,-1],[49,1],[2,4],[23,26],[11,3],[17,3],[10,6],[-9,26],[8,6],[14,3],[9,3],[41,69],[18,22],[36,33],[12,18],[12,28],[6,27],[0,23],[-6,39],[-15,40],[-28,42],[-34,36],[-32,22]],[[2635,2353],[2,-33],[-8,-29],[-7,-14],[-10,-6],[-19,-3],[-5,-9],[1,-12],[-2,-16],[-4,5],[-4,11],[-3,5],[-9,-5],[-10,-6],[-12,23],[-21,7],[-21,2],[-16,8],[-5,45],[1,26],[14,-2],[24,10],[12,14],[3,18],[0,24],[8,28],[20,22],[25,10],[27,-5],[40,-4],[16,-7],[4,-20],[-7,-7],[-17,-7],[-16,-9],[-9,-16],[21,-4],[20,-10],[7,-11],[-13,-5],[-21,-5],[-6,-13]],[[1444,114],[-49,-1],[-7,1],[-15,-53],[-15,-20],[-19,23],[-11,-25],[-15,-4],[-15,14],[-9,26],[2,2],[8,25],[0,12],[-5,15],[-6,6],[-5,3],[-5,6],[-51,166],[-8,14],[6,13],[3,12],[0,30],[4,11],[28,34],[6,13],[2,9],[3,10],[51,51],[12,6],[54,18],[46,38],[47,30],[58,-6],[32,-22],[34,-36],[28,-42],[15,-40],[6,-39],[0,-23],[-6,-27],[-12,-28],[-12,-18],[-36,-33],[-18,-22],[-41,-69],[-9,-3],[-14,-3],[-8,-6],[9,-26],[-10,-6],[-17,-3],[-11,-3],[-23,-26],[-2,-4]],[[1241,263],[67,42],[20,49],[-55,23],[30,67],[83,-17],[49,22],[20,-19],[-68,-37],[57,-32],[-17,-148],[23,-33],[-65,31],[-11,-55],[-101,9],[-32,98]]]}