{"objects":{"water":{"type":"GeometryCollection","geometries":[{"type":"Polygon","properties":{"kind":"lake","name":"Lago Poop","area":1741095808,"sort_rank":200,"alkaline":true,"source":"naturalearthdata.com","min_zoom":0.0,"id":1322},"arcs":[[77]]},{"type":"Point","properties":{"label_placement":true,"kind":"lake","name":"Lago Poop","area":1741095808,"sort_rank":200,"alkaline":true,"source":"naturalearthdata.com","min_zoom":0.0,"id":1322},"coordinates":[464,1068]},{"type":"LineString","properties":{"source":"naturalearthdata.com","kind":"lake","sort_rank":367,"alkaline":true,"boundary":true,"min_zoom":0.0,"id":1322},"arcs":[78]}]},"buildings":{"type":"GeometryCollection","geometries":[]},"places":{"type":"GeometryCollection","geometries":[{"type":"Point","properties":{"name:pt":"Bol\u00edvia","name:ps":"\u0628\u0648\u0644\u06d0\u0648\u06cc\u0627","name:ka":"\u10d1\u10dd\u10da\u10d8\u10d5\u10d8\u10d0","name:mt":"Bolivja","name:ko":"\ubcfc\ub9ac\ube44\uc544","name:cv":"\u0411\u043e\u043b\u0438\u0432\u0438","name:km":"\u1794\u17bc\u179b\u17b8\u179c\u17b8","name:cs":"Bol\u00edvie","name:tt":"\u0411\u043e\u043b\u0438\u0432\u0438\u044f","name:kw":"Bolivi","name:tr":"Bolivya","name:ku":"Bol\u00eevya","name:ti":"\u1266\u120a\u126a\u12eb","name:ks":"\u0628\u0648\u0644\u0650\u0648\u0650\u06cc\u0627","name:to":"Pol\u012bvia","name:tl":"Bulibya","name:pa":"\u0a2c\u0a4b\u0a32\u0a40\u0a35\u0a40\u0a06","name:os":"\u0411\u043e\u043b\u0438\u0432\u0438","name:or":"\u0b2c\u0b4b\u0b32\u0b2d\u0b3f\u0b06","name:ce":"\u0411\u043e\u043b\u0438\u0432\u0438","name:ta":"\u0baa\u0bca\u0bb2\u0bbf\u0bb5\u0bbf\u0baf\u0bbe","name:tg":"\u0411\u043e\u043b\u0438\u0432\u0438\u044f","name:ca":"Bol\u00edvia","name:te":"\u0c2c\u0c4a\u0c32\u0c40\u0c35\u0c3f\u0c2f\u0c3e","name:cy":"Bolifia","name:ln":"Bolivi","name:de":"Bolivien","name:dz":"\u0f56\u0fb7\u0f7a\u0f0b\u0f63\u0f72\u0f0b\u0f56\u0f72\u0f0b\u0f61","source":"openstreetmap.org","name:rw":"Boliviya","name:nv":"Bol\u00edbiya","name:kn":"\u0cac\u0cc6\u0cc2\u0cb2\u0cbf\u0cb5\u0cbf\u0caf\u0cbe","name:dv":"\u0784\u07ae\u078d\u07a9\u0788\u07a8\u0787\u07a7","name:lv":"Bol\u012bvija","name:lt":"Bolivija","name:uz":"Boliviya","name:kk":"\u0411\u043e\u043b\u0438\u0432\u0438\u044f","name:he":"\u05d1\u05d5\u05dc\u05d9\u05d5\u05d5\u05d9\u05d4","min_zoom":2.0,"kind":"country","name:ur":"\u0628\u0648\u0644\u06cc\u0648\u06cc\u0627","name:lb":"Bolivien","name:lg":"Boliviya","name:uk":"\u0411\u043e\u043b\u0456\u0432\u0456\u044f","name:hy":"\u0532\u0578\u056c\u056b\u057e\u056b\u0561","name:ug":"\u0628\u0648\u0644\u0649\u06cb\u0649\u064a\u06d5","name:hu":"Bol\u00edvia","name:hr":"Bolivija","name:lo":"\u0ec2\u0e9a\u0ea5\u0eb4\u0ec0\u0ea7\u0e8d","name:oc":"Bol\u00edvia","population":10027254,"name:el":"\u0392\u03bf\u03bb\u03b9\u03b2\u03af\u03b1","name:eo":"Bolivio","name":"Bolivia","name:ee":"Bolivia nutome","name:th":"\u0e1b\u0e23\u0e30\u0e40\u0e17\u0e28\u0e42\u0e1a\u0e25\u0e34\u0e40\u0e27\u0e35\u0e22","name:eu":"Bolibia","name:et":"Boliivia","name:yo":"Or\u00edl\u1eb9\u0301\u00e8de B\u1ecd\u0300l\u00edf\u00edy\u00e0","name:ay":"Wuliwya","name:yi":"\u05d1\u05d0\u05dc\u05d9\u05d5\u05d5\u05d9\u05e2","name:rn":"Boliviya","name:az":"Boliviya","name:mr":"\u092c\u094b\u0932\u093f\u0935\u094d\u0939\u093f\u092f\u093e","name:qu":"Buliwya","name:ar":"\u0628\u0648\u0644\u064a\u0641\u064a\u0627","name:my":"\u1018\u102d\u102f\u101c\u102e\u1038\u1018\u102e\u1038\u101a\u102c\u1038","official_name":"Estado Plurinacional de Bolivia","name:gn":"Vol\u00edvia","name:is":"B\u00f3liv\u00eda","name:am":"\u1266\u120a\u126a\u12eb","name:ml":"\u0d2c\u0d4a\u0d33\u0d40\u0d35\u0d3f\u0d2f","name:ru":"\u0411\u043e\u043b\u0438\u0432\u0438\u044f","name:ab":"\u0411\u043e\u043b\u0438\u0432\u0438\u0430","name:mi":"Poriwia","name:pl":"Boliwia","name:mk":"\u0411\u043e\u043b\u0438\u0432\u0438\u0458\u0430","name:af":"Bolivi\u00eb","name:zu":"i-Bolivia","name:ha":"Bolibiya","name:mn":"\u0411\u043e\u043b\u0438\u0432","name:ff":"Boliwii","name:hi":"\u092c\u094b\u0932\u093f\u0935\u093f\u092f\u093e","id":424313730,"name:fr":"Bolivie","name:wo":"Boliibi","name:ky":"\u0411\u043e\u043b\u0438\u0432\u0438\u044f","name:zh-yue":"\u73bb\u5229\u7dad\u4e9e","name:vo":"Boliv\u00e4n","name:zh":"\u73bb\u5229\u7ef4\u4e9a","name:so":"Boliifiya","name:sr":"\u0411\u043e\u043b\u0438\u0432\u0438\u0458\u0430","name:sl":"Bolivija","name:sk":"Bol\u00edvia","name:ja":"\u30dc\u30ea\u30d3\u30a2","name:si":"\u0db6\u0ddc\u0dbd\u0dd3\u0dc0\u0dd2\u0dba\u0dcf\u0dc0","name:sh":"Bolivija","name:sg":"Boliv\u00efi","name:na":"Boribiya","name:ne":"\u092c\u094b\u0932\u093f\u092d\u093f\u092f\u093e","name:sa":"\u092c\u094b\u0932\u093f\u0935\u093f\u092f\u093e","name:bs":"Bolivija","name:bm":"Bolivi","name:bn":"\u09ac\u09cb\u09b2\u09bf\u09ad\u09bf\u09af\u09bc\u09be","name:bo":"\u0f56\u0f7c\u0f0b\u0f63\u0f72\u0f0b\u0f5d\u0f72\u0f61\u0f0d","name:be":"\u0411\u0430\u043b\u0456\u0432\u0456\u044f","name:bg":"\u0411\u043e\u043b\u0438\u0432\u0438\u044f","name:ss":"IBholiviya","name:ba":"\u0411\u043e\u043b\u0438\u0432\u0438\u044f","name:sq":"Bolivi","name:ga":"An Bholaiv","name:gd":"Boilibhia","name:ht":"Bolivi","name:wa":"Boliveye","name:fa":"\u0628\u0648\u0644\u06cc\u0648\u06cc","name:gv":"Yn Volivia","name:gu":"\u0aac\u0acb\u0ab2\u0abf\u0ab5\u0abf\u0aaf\u0abe"},"coordinates":[3654,3452]},{"type":"Point","properties":{"source":"openstreetmap.org","kind":"region","name":"Cochabamba","kind_detail":"state","min_zoom":4.0,"name:eo":"Ko\u0109apampio","id":2854906389},"coordinates":[2913,3029]},{"type":"Point","properties":{"source":"naturalearthdata.com","kind":"locality","name":"Sucre","country_capital":true,"population":224838,"min_zoom":5.0,"id":7052},"coordinates":[3263,414]},{"type":"Point","properties":{"source":"naturalearthdata.com","kind":"locality","name":"Cochabamba","population":1000000,"region_capital":true,"min_zoom":6.0,"id":5535},"coordinates":[1937,2911]},{"type":"Point","properties":{"source":"naturalearthdata.com","kind":"locality","name":"Oruro","population":246501,"region_capital":true,"min_zoom":6.0,"id":5548},"coordinates":[539,2038]},{"type":"Point","properties":{"source":"naturalearthdata.com","kind":"locality","name":"Challapata","population":9114,"min_zoom":7.0,"id":4537},"coordinates":[1049,630]},{"type":"Point","properties":{"source":"naturalearthdata.com","kind":"locality","name":"Aiquile","population":8224,"min_zoom":7.0,"id":4376},"coordinates":[3379,1717]}]},"transit":{"type":"GeometryCollection","geometries":[{"type":"LineString","properties":{"kind":"train","network":"FCA","sort_rank":275,"source":"openstreetmap.org","min_zoom":6.0,"operator":"Empresa Ferroviaria Andina S.A.","osm_relation":true,"name":"Viacha - Oruro"},"arcs":[39]},{"type":"MultiLineString","properties":{"kind":"train","name":"Cochabamba - Aiquile","service":"regional","sort_rank":275,"min_zoom":6.0,"source":"openstreetmap.org","state":"connection","operator":"Empresa Ferroviaria Andina SA","osm_relation":true},"arcs":[[40],[41],[42],[43],[44],[45],[46],[47],[48],[49],[50],[51],[52]]},{"type":"LineString","properties":{"kind":"train","network":"FCA","sort_rank":275,"min_zoom":6.0,"source":"openstreetmap.org","state":"connection","operator":"Empresa Ferroviaria Andina SA","ref":"The route of a train service (eg London-Paris Eurostar). Not to be confused with a named stretch of railroad track (see route=railway ).","osm_relation":true,"name":"Oruro - Uyuni - Villaz\u00f3n"},"arcs":[53]},{"type":"LineString","properties":{"kind":"train","network":"desuso","sort_rank":275,"source":"openstreetmap.org","min_zoom":6.0,"id":-3187290,"osm_relation":true,"name":"Rieles de treen"},"arcs":[54]},{"type":"MultiLineString","properties":{"kind":"train","name":"Cochabamba - Oruro","sort_rank":275,"min_zoom":6.0,"source":"openstreetmap.org","state":"connection","operator":"Empresa Ferroviaria Andina SA","osm_relation":true},"arcs":[[55],[56],[57],[58],[59],[60],[61],[62],[63],[64],[65],[66]]},{"type":"LineString","properties":{"kind":"train","name":"Ferrocarril de Antofagasta a Bolivia","sort_rank":275,"source":"openstreetmap.org","min_zoom":6.0,"operator":"Antofagasta plc","ref":"FCAB","osm_relation":true},"arcs":[67]},{"type":"MultiLineString","properties":{"kind":"train","name":"Rio Mulatos - Potos\u00ed","sort_rank":275,"source":"openstreetmap.org","min_zoom":6.0,"operator":"Ferrocarril Andina SA","osm_relation":true,"network":"FCA"},"arcs":[[68],[69],[70],[71],[72],[73],[74]]},{"type":"MultiLineString","properties":{"kind":"train","name":"Potos\u00ed - Sucre","sort_rank":275,"min_zoom":6.0,"source":"openstreetmap.org","state":"connection","operator":"Empresa Ferroviaria Andina S.A.","ref":"FCA Potos\u00ed - Sucre","osm_relation":true,"network":"FCA"},"arcs":[[75],[76]]}]},"pois":{"type":"GeometryCollection","geometries":[{"type":"Point","properties":{"kind":"protected_area","name":"Lagos Poop\u00f3 y Uru Uru","area":9900740000,"source":"openstreetmap.org","min_zoom":7.0,"tier":2,"id":-557214,"osm_relation":true},"coordinates":[240,994]},{"type":"Point","properties":{"kind":"nature_reserve","tier":2,"protect_class":"4","area":383938000,"source":"openstreetmap.org","min_zoom":8.0,"old_name":"Reserva de Vida Silvestre German Busch","operator":"Servicio Nacional de \u00c1reas Protegidas","id":-446359,"osm_relation":true,"name":"\u00c1rea Natural de Manejo Integrado Ambor\u00f3"},"coordinates":[4065,2290]},{"type":"Point","properties":{"kind":"protected_area","name":"\u00c1rea Natural de Manejo Integrado Altamachi","area":743056000,"source":"openstreetmap.org","min_zoom":7.0,"tier":2,"id":-446357,"osm_relation":true},"coordinates":[1867,3881]},{"type":"Point","properties":{"kind":"national_park","name:en":"Tunari National Park","tier":1,"name":"Parque Nacional Tunari","area":3627640000,"name:de":"Nationalpark Tunari","source":"openstreetmap.org","min_zoom":4.88,"operator":"SERNAP","id":-443850,"osm_relation":true},"coordinates":[1688,3184]},{"type":"Point","properties":{"kind":"nature_reserve","tier":2,"protect_class":"6","area":710936000,"source":"openstreetmap.org","min_zoom":7.55,"operator":"Municipio de Aiquile","id":230067527,"name":"\u00c1rea Natural de Manejo Integrado Municipal Lagarpampa Molle Pampa"},"coordinates":[3686,1432]}]},"boundaries":{"type":"GeometryCollection","geometries":[{"type":"MultiLineString","properties":{"source":"naturalearthdata.com","kind":"region","name":"Oruro - La Paz","sort_rank":256,"kind_detail":"4","min_zoom":5.0,"id":4674},"arcs":[[0],[1]]},{"type":"LineString","properties":{"source":"naturalearthdata.com","kind":"region","name":"Cochabamba - La Paz","sort_rank":256,"kind_detail":"4","min_zoom":5.0,"id":4676},"arcs":[2]},{"type":"LineString","properties":{"source":"naturalearthdata.com","kind":"region","name":"Oruro - Cochabamba","sort_rank":256,"kind_detail":"4","min_zoom":5.0,"id":4677},"arcs":[3]},{"type":"MultiLineString","properties":{"source":"naturalearthdata.com","kind":"region","name":"Santa Cruz - Cochabamba","sort_rank":256,"kind_detail":"4","min_zoom":5.0,"id":4682},"arcs":[[4],[5]]},{"type":"MultiLineString","properties":{"source":"naturalearthdata.com","kind":"region","name":"Cochabamba - Chuquisaca","sort_rank":256,"kind_detail":"4","min_zoom":5.0,"id":4683},"arcs":[[6],[7],[8],[9],[10],[11],[12],[13],[14]]},{"type":"MultiLineString","properties":{"source":"naturalearthdata.com","kind":"region","name":"Potos\u00ed - Cochabamba","sort_rank":256,"kind_detail":"4","min_zoom":5.0,"id":4687},"arcs":[[15],[16],[17],[18],[19],[20],[21],[22],[23],[24]]},{"type":"MultiLineString","properties":{"source":"naturalearthdata.com","kind":"region","name":"Potos\u00ed - Oruro","sort_rank":256,"kind_detail":"4","min_zoom":5.0,"id":4686},"arcs":[[25],[26],[27],[28],[29]]},{"type":"MultiLineString","properties":{"source":"naturalearthdata.com","kind":"region","name":"Chuquisaca - Potos\u00ed","sort_rank":256,"kind_detail":"4","min_zoom":5.0,"id":4688},"arcs":[[30],[31],[32],[33],[34],[35],[36],[37],[38]]}]},"roads":{"type":"GeometryCollection","geometries":[{"type":"LineString","properties":{"source":"naturalearthdata.com","kind":"minor_road","sort_rank":355,"kind_detail":"tertiary","min_zoom":7.0,"id":44468},"arcs":[79]},{"type":"LineString","properties":{"source":"naturalearthdata.com","kind":"minor_road","sort_rank":355,"kind_detail":"tertiary","min_zoom":7.0,"id":44469},"arcs":[80]},{"type":"LineString","properties":{"source":"naturalearthdata.com","kind":"major_road","kind_detail":"secondary","sort_rank":379,"landuse_kind":"urban_area","min_zoom":3.0,"id":44532},"arcs":[81]},{"type":"LineString","properties":{"source":"naturalearthdata.com","kind":"minor_road","kind_detail":"tertiary","sort_rank":355,"landuse_kind":"national_park","min_zoom":7.0,"id":44535},"arcs":[82]},{"type":"LineString","properties":{"source":"naturalearthdata.com","kind":"minor_road","kind_detail":"tertiary","sort_rank":355,"landuse_kind":"urban_area","min_zoom":7.0,"id":44535},"arcs":[83]},{"type":"LineString","properties":{"source":"naturalearthdata.com","kind":"minor_road","sort_rank":355,"kind_detail":"tertiary","min_zoom":7.0,"id":44535},"arcs":[84]},{"type":"LineString","properties":{"source":"naturalearthdata.com","kind":"major_road","sort_rank":379,"kind_detail":"secondary","min_zoom":3.0,"id":44544},"arcs":[85]},{"type":"LineString","properties":{"source":"naturalearthdata.com","kind":"minor_road","sort_rank":355,"kind_detail":"tertiary","min_zoom":7.0,"id":44553},"arcs":[86]},{"type":"LineString","properties":{"source":"naturalearthdata.com","kind":"major_road","kind_detail":"secondary","sort_rank":379,"landuse_kind":"urban_area","min_zoom":3.0,"id":44562},"arcs":[87]},{"type":"LineString","properties":{"source":"naturalearthdata.com","kind":"major_road","sort_rank":379,"kind_detail":"secondary","min_zoom":3.0,"id":44562},"arcs":[88]},{"type":"MultiLineString","properties":{"source":"naturalearthdata.com","kind":"major_road","kind_detail":"secondary","sort_rank":379,"landuse_kind":"national_park","min_zoom":3.0,"id":44572},"arcs":[[89],[90]]},{"type":"LineString","properties":{"source":"naturalearthdata.com","kind":"major_road","kind_detail":"secondary","sort_rank":379,"landuse_kind":"urban_area","min_zoom":3.0,"id":44572},"arcs":[91]},{"type":"MultiLineString","properties":{"source":"naturalearthdata.com","kind":"major_road","sort_rank":379,"kind_detail":"secondary","min_zoom":3.0,"id":44572},"arcs":[[92],[93],[94]]},{"type":"LineString","properties":{"source":"naturalearthdata.com","kind":"major_road","sort_rank":379,"kind_detail":"secondary","min_zoom":3.0,"id":44588},"arcs":[95]},{"type":"LineString","properties":{"source":"naturalearthdata.com","kind":"major_road","sort_rank":379,"kind_detail":"secondary","min_zoom":3.0,"id":44592},"arcs":[96]},{"type":"LineString","properties":{"source":"naturalearthdata.com","kind":"major_road","sort_rank":379,"kind_detail":"secondary","min_zoom":3.0,"id":44596},"arcs":[97]},{"type":"LineString","properties":{"source":"naturalearthdata.com","kind":"major_road","sort_rank":379,"kind_detail":"secondary","min_zoom":3.0,"id":44597},"arcs":[98]},{"type":"LineString","properties":{"source":"naturalearthdata.com","kind":"major_road","sort_rank":379,"kind_detail":"secondary","min_zoom":3.0,"id":44610},"arcs":[99]},{"type":"MultiLineString","properties":{"source":"naturalearthdata.com","kind":"major_road","kind_detail":"secondary","sort_rank":379,"landuse_kind":"nature_reserve","min_zoom":3.0,"id":44648},"arcs":[[100],[101]]},{"type":"MultiLineString","properties":{"source":"naturalearthdata.com","kind":"major_road","sort_rank":379,"kind_detail":"secondary","min_zoom":3.0,"id":44648},"arcs":[[102],[103]]},{"type":"LineString","properties":{"source":"naturalearthdata.com","kind":"major_road","sort_rank":379,"kind_detail":"secondary","min_zoom":3.0,"id":44658},"arcs":[104]},{"type":"LineString","properties":{"source":"naturalearthdata.com","kind":"major_road","kind_detail":"secondary","sort_rank":379,"landuse_kind":"protected_area","min_zoom":3.0,"id":44703},"arcs":[105]},{"type":"LineString","properties":{"source":"naturalearthdata.com","kind":"major_road","sort_rank":379,"kind_detail":"secondary","min_zoom":3.0,"id":44703},"arcs":[106]},{"type":"LineString","properties":{"source":"naturalearthdata.com","kind":"minor_road","kind_detail":"tertiary","sort_rank":355,"landuse_kind":"protected_area","min_zoom":7.0,"id":44746},"arcs":[107]},{"type":"LineString","properties":{"source":"naturalearthdata.com","kind":"minor_road","kind_detail":"tertiary","sort_rank":355,"landuse_kind":"urban_area","min_zoom":7.0,"id":44746},"arcs":[108]},{"type":"MultiLineString","properties":{"source":"naturalearthdata.com","kind":"minor_road","sort_rank":355,"kind_detail":"tertiary","min_zoom":7.0,"id":44746},"arcs":[[109],[110],[111]]},{"type":"LineString","properties":{"source":"naturalearthdata.com","kind":"minor_road","kind_detail":"tertiary","sort_rank":355,"landuse_kind":"protected_area","min_zoom":6.0,"id":44787},"arcs":[112]},{"type":"LineString","properties":{"source":"naturalearthdata.com","kind":"minor_road","sort_rank":355,"kind_detail":"tertiary","min_zoom":6.0,"id":44787},"arcs":[113]},{"type":"LineString","properties":{"source":"naturalearthdata.com","kind":"minor_road","sort_rank":355,"kind_detail":"tertiary","min_zoom":6.0,"id":44821},"arcs":[114]},{"type":"LineString","properties":{"source":"naturalearthdata.com","kind":"major_road","kind_detail":"secondary","sort_rank":379,"landuse_kind":"protected_area","min_zoom":3.0,"id":44825},"arcs":[115]},{"type":"LineString","properties":{"source":"naturalearthdata.com","kind":"major_road","sort_rank":379,"kind_detail":"secondary","min_zoom":3.0,"id":44825},"arcs":[116]},{"type":"LineString","properties":{"source":"naturalearthdata.com","kind":"minor_road","kind_detail":"tertiary","sort_rank":355,"landuse_kind":"urban_area","min_zoom":6.0,"id":44878},"arcs":[117]},{"type":"LineString","properties":{"source":"naturalearthdata.com","kind":"minor_road","sort_rank":355,"kind_detail":"tertiary","min_zoom":6.0,"id":44878},"arcs":[118]},{"type":"LineString","properties":{"source":"naturalearthdata.com","kind":"minor_road","kind_detail":"tertiary","sort_rank":355,"landuse_kind":"urban_area","min_zoom":7.0,"id":44879},"arcs":[119]},{"type":"LineString","properties":{"source":"naturalearthdata.com","kind":"minor_road","sort_rank":355,"kind_detail":"tertiary","min_zoom":7.0,"id":44879},"arcs":[120]},{"type":"LineString","properties":{"source":"naturalearthdata.com","kind":"minor_road","sort_rank":355,"kind_detail":"tertiary","min_zoom":7.0,"id":44894},"arcs":[121]},{"type":"LineString","properties":{"source":"naturalearthdata.com","kind":"minor_road","sort_rank":355,"kind_detail":"tertiary","min_zoom":7.0,"id":44904},"arcs":[122]},{"type":"LineString","properties":{"source":"naturalearthdata.com","kind":"major_road","kind_detail":"secondary","sort_rank":379,"landuse_kind":"urban_area","min_zoom":4.0,"id":44914},"arcs":[123]},{"type":"LineString","properties":{"source":"naturalearthdata.com","kind":"major_road","sort_rank":379,"kind_detail":"secondary","min_zoom":4.0,"id":44914},"arcs":[124]},{"type":"LineString","properties":{"source":"naturalearthdata.com","kind":"minor_road","kind_detail":"tertiary","sort_rank":355,"landuse_kind":"protected_area","min_zoom":7.0,"id":44917},"arcs":[125]},{"type":"MultiLineString","properties":{"source":"naturalearthdata.com","kind":"minor_road","sort_rank":355,"kind_detail":"tertiary","min_zoom":7.0,"id":44917},"arcs":[[126],[127]]},{"type":"LineString","properties":{"source":"naturalearthdata.com","kind":"minor_road","kind_detail":"tertiary","sort_rank":355,"landuse_kind":"protected_area","min_zoom":7.0,"id":44918},"arcs":[128]},{"type":"LineString","properties":{"source":"naturalearthdata.com","kind":"minor_road","sort_rank":355,"kind_detail":"tertiary","min_zoom":7.0,"id":44918},"arcs":[129]},{"type":"LineString","properties":{"source":"naturalearthdata.com","kind":"minor_road","sort_rank":355,"kind_detail":"tertiary","min_zoom":7.0,"id":44934},"arcs":[130]},{"type":"LineString","properties":{"source":"naturalearthdata.com","kind":"minor_road","sort_rank":355,"kind_detail":"tertiary","min_zoom":6.0,"id":44954},"arcs":[131]},{"type":"LineString","properties":{"source":"naturalearthdata.com","kind":"major_road","sort_rank":379,"kind_detail":"secondary","min_zoom":3.0,"id":44955},"arcs":[132]},{"type":"LineString","properties":{"source":"naturalearthdata.com","kind":"major_road","kind_detail":"secondary","sort_rank":379,"landuse_kind":"urban_area","min_zoom":4.0,"id":44974},"arcs":[133]},{"type":"LineString","properties":{"source":"naturalearthdata.com","kind":"major_road","sort_rank":379,"kind_detail":"secondary","min_zoom":4.0,"id":44974},"arcs":[134]},{"type":"LineString","properties":{"source":"naturalearthdata.com","kind":"minor_road","sort_rank":355,"kind_detail":"tertiary","min_zoom":7.0,"id":45016},"arcs":[135]}]},"earth":{"type":"GeometryCollection","geometries":[{"type":"Polygon","properties":{"sort_rank":10,"source":"naturalearthdata.com","min_zoom":0.0,"kind":"earth","area":392091543542},"arcs":[[136]]}]},"landuse":{"type":"GeometryCollection","geometries":[{"type":"MultiPolygon","properties":{"kind":"national_park","area":8492608092,"sort_rank":18,"operator":"SERNAP","source":"openstreetmap.org","min_zoom":3.0,"tier":1,"osm_relation":true},"arcs":[[[137]]]},{"type":"Polygon","properties":{"kind":"protected_area","area":9900739584,"sort_rank":17,"source":"openstreetmap.org","min_zoom":4.0,"tier":2,"id":-557214,"osm_relation":true},"arcs":[[138]]},{"type":"MultiPolygon","properties":{"kind":"nature_reserve","protect_class":"4","area":1705873950,"sort_rank":23,"operator":"Servicio Nacional de \u00c1reas Protegidas","source":"openstreetmap.org","min_zoom":6.0,"tier":2,"osm_relation":true},"arcs":[[[139]]]},{"type":"Polygon","properties":{"kind":"nature_reserve","protect_class":"6","area":710936000,"sort_rank":23,"operator":"Municipio de Aiquile","source":"openstreetmap.org","min_zoom":6.0,"tier":2,"id":230067527},"arcs":[[140]]},{"type":"MultiPolygon","properties":{"source":"naturalearthdata.com","kind":"urban_area","name":"","area":837151645,"sort_rank":11,"min_zoom":4.0},"arcs":[[[141]],[[142]],[[143]]]},{"type":"Polygon","properties":{"kind":"protected_area","area":743056000,"sort_rank":17,"source":"openstreetmap.org","min_zoom":6.0,"tier":2,"id":-446357,"osm_relation":true},"arcs":[[144]]},{"type":"MultiPolygon","properties":{"kind":"park","area":4481619968,"sort_rank":24,"source":"openstreetmap.org","min_zoom":4.0,"tier":2,"id":-446358,"osm_relation":true},"arcs":[[[145]],[[146]]]}]}},"type":"Topology","transform":{"translate":[-67.5,-19.3111433551],"scale":[0.0006866455,0.0006530643]},"arcs":[[[743,2695],[-34,32],[-5,6],[-35,41],[-24,36],[-19,42],[-10,16],[-10,14],[-12,13],[-21,17],[-9,5],[-11,4],[-18,4],[-13,1]],[[522,2926],[-13,-1],[-190,-55],[-31,-13],[-172,-102],[-116,-84]],[[1068,4096],[0,-44],[0,-21],[11,-70],[1,-26],[-4,-25],[-20,-30],[-34,-28],[-39,-20],[-34,-12],[-87,-11],[-35,-18],[-29,-42],[-28,-53],[-10,-26],[-3,-32],[4,-30],[-1,-14],[-6,-16],[-25,-34],[-7,-13],[-12,-32],[-4,-32],[7,-28],[22,-21],[68,-27],[16,-25],[21,-24],[19,-28],[10,-19],[9,-24],[21,-111],[-4,-48],[1,-19],[6,-16],[11,-20],[11,-14],[22,-82],[-29,-58],[6,-16],[9,-16],[14,-14],[8,-14],[4,-21],[-10,-13],[-18,-13],[-187,-101]],[[1274,2021],[-80,195],[-111,173],[-76,97],[-26,25],[-238,184]],[[3983,4096],[-36,-61],[-8,-35],[-17,-28],[-1,-19],[7,-15],[22,-27],[8,-14],[3,-14],[3,-29],[32,-123],[21,-37],[79,-85]],[[4096,2214],[-3,-3],[-21,-25],[-10,-42],[7,-29],[9,-16],[18,-19]],[[3140,1361],[3,-16],[2,-13],[5,-16]],[[3180,1320],[15,-4],[9,-52],[9,-15],[14,-17],[17,-15],[16,-6],[16,-15],[5,-36],[0,-42],[4,-31],[19,-23],[26,-4]],[[3150,1316],[13,0],[17,4]],[[3909,1266],[27,-8],[12,-10],[16,-27],[9,-11],[30,-12]],[[3524,1003],[20,2],[17,16],[9,21],[10,44],[11,22],[14,17],[33,31],[54,38],[80,38],[104,30],[33,4]],[[4073,1199],[23,-16]],[[4003,1198],[70,1]],[[3386,1071],[26,-3],[26,-12],[66,-45],[20,-8]],[[3330,1060],[56,11]],[[2127,2219],[-14,4],[-17,3],[-50,4]],[[2046,2230],[-59,-3],[-39,-9],[-19,-6],[-117,-84],[-32,-25],[-84,-69],[-16,-9],[-13,-2],[-17,0]],[[2285,2032],[-13,4],[-10,38],[-10,15],[-14,10],[-16,4],[-17,14],[-21,33],[-19,39],[-7,30]],[[2158,2219],[-31,0]],[[3140,1361],[-5,13],[-5,5],[-14,4],[-51,28],[-13,16],[-7,5],[-9,3],[-22,4],[-9,3],[-44,47],[-63,110],[-53,43],[-23,13],[-27,18],[-21,23],[-16,44],[-18,27],[-35,43],[-51,31],[-26,21],[-11,27],[-91,79],[-87,49],[-26,39],[-32,1]],[[2381,2057],[-96,-25]],[[1488,2032],[-56,6],[-12,3],[-14,2]],[[1406,2043],[-33,-3],[-99,-19]],[[1650,2023],[-74,12]],[[1576,2035],[-88,-3]],[[1274,2021],[-12,-30],[-14,-13],[-16,-12],[-18,-9],[-100,-32],[-10,-25],[-9,-141],[2,-35],[7,-19],[8,-16],[12,-12],[14,-11],[50,-22],[17,-4]],[[1300,1648],[16,-3],[30,-12],[14,-2]],[[1205,1640],[19,1],[38,7],[38,0]],[[1391,1631],[34,-10],[-34,-38],[-42,-27],[-65,-32],[-37,-24],[-31,-16],[-16,-14],[-6,-11],[0,-9],[3,-50],[-1,-25],[-2,-19],[-15,-68],[-1,-18],[1,-19],[1,-6],[1,-3],[19,-28],[51,-111],[11,-19],[9,-9],[16,-14],[122,-96],[43,-27],[129,-46],[93,-10],[74,-30],[22,-17],[17,-18],[8,-16],[65,-204],[3,-8],[56,-106],[72,-97],[108,-125],[26,-49],[-1,-15],[-7,-14],[-14,-11],[-17,-7],[-43,-9],[-178,-14],[-307,-22],[-35,-13],[-60,-34],[-80,-73]],[[1360,1631],[31,0]],[[2735,1434],[-10,1],[-8,5],[-7,5],[-8,3],[-18,2],[-6,4],[-3,5],[-4,12],[-4,5],[-6,3]],[[2661,1479],[-8,-1],[-8,-3],[-7,-5],[-6,-6],[-2,-14],[8,-55],[0,-14],[2,-8],[5,-10],[14,-16],[10,-9],[10,-7],[31,-14],[15,-11],[5,-11],[2,-17],[-10,-73],[3,-64],[31,-166],[-1,-6],[-7,-15],[-11,-14],[-34,-28],[-7,-7],[-5,-8],[-4,-8],[-2,-9],[2,-11],[4,-8],[11,-6],[7,-1]],[[2842,1387],[-8,0],[-9,3],[-6,6],[-5,8],[-3,9],[-3,7],[-5,6],[-6,4],[-9,4],[-10,2]],[[2778,1436],[-43,-2]],[[3092,1349],[-22,3],[-33,16],[-111,36],[-11,7],[-3,2],[-4,1]],[[2908,1414],[-7,-1],[-9,-3],[-41,-21],[-9,-2]],[[3140,1361],[-48,-12]],[[2983,962],[7,-1],[9,-3],[8,-4],[8,-5],[5,-8],[4,-9],[3,-15],[-3,-16],[-5,-18],[-15,-26],[-10,-13],[-9,-8],[-23,-14],[-53,-46],[-2,-4],[-4,-9],[-1,-14],[3,-16],[4,-9],[3,-4],[12,-10],[12,-12],[4,-7],[4,-7],[3,-9],[2,-10],[2,-20],[3,-16],[2,-7],[-1,-8],[-4,-8],[-18,-17],[-11,-11],[-36,-61],[-25,-41],[-3,-8],[-3,-5],[-2,-6],[0,-4],[1,-5],[27,-75],[23,-40],[46,-31],[10,-9],[9,-13],[6,-19],[6,-40],[9,-19],[20,-20],[39,-28],[32,-49],[17,-18],[72,-49],[20,-21],[24,-16],[7,-1]],[[2709,854],[7,1],[8,2],[158,79],[29,11],[64,15],[8,0]],[[0,2613],[557,-496],[11,-70]],[[1960,2921],[2,-37],[90,-116],[5,-42],[-42,-14],[50,-16],[82,-89],[137,31]],[[2286,2637],[-2,1]],[[2286,2637],[37,-101],[25,-5],[-1,-33],[58,-71],[-3,-58],[153,-116],[47,8],[1,22],[31,-24],[22,-83],[-14,-37],[-32,-8],[69,-107],[41,14],[95,-39],[-4,-42],[76,-53],[42,40],[54,-6],[34,68],[159,78],[162,-367],[33,-17]],[[3371,1700],[2,-3]],[[3371,1697],[1,0]],[[3372,1697],[1,0]],[[3372,1697],[0,2]],[[3373,1697]],[[3373,1697],[-1,2]],[[3372,1699],[-1,1]],[[3371,1700],[2,-3]],[[2150,2607],[1,0],[-1,0]],[[2990,1966]],[[568,2047],[136,-316],[60,-465],[36,-114],[70,-106],[60,-204],[123,-208],[-34,-105],[9,-241],[-71,-288]],[[695,1744],[8,3]],[[1352,2312],[-35,-36],[-106,42],[-8,-34],[9,5],[8,-6],[-131,-33],[-3,-37],[-35,13],[19,-16],[2,-11],[-36,18],[-32,-21],[-142,101],[-175,-17],[-135,-159]],[[1419,2264],[-66,48]],[[1458,2261],[-38,6]],[[1462,2267],[0,-1]],[[1468,2281],[-5,-13]],[[1477,2278],[-4,4]],[[1482,2278],[-4,0]],[[1486,2275],[-1,1]],[[1486,2274],[0,1]],[[1701,2815],[-11,-139],[114,-99],[17,-77],[-64,-81],[-83,-13],[13,-70],[-48,-56],[-51,-5],[-32,-44],[-69,43]],[[1701,2818]],[[1960,2921],[-241,7],[-13,-57]],[[0,2613],[558,-498],[44,-172],[101,-211],[61,-466],[36,-114],[70,-106],[60,-204],[123,-208],[-34,-105],[9,-241],[-71,-288]],[[3205,0],[-1,1],[-1,-1]],[[3181,0],[-23,101],[43,100],[25,-35],[22,70]],[[3248,236],[0,1]],[[3248,237],[1,1]],[[3249,238],[-6,149]],[[3248,236],[1,2]],[[3248,237]],[[3204,0],[0,1],[-1,-1]],[[3181,0],[-23,101],[43,100],[24,-36],[18,39],[0,183]],[[890,548],[25,-47],[4,-56],[-26,-109],[-23,-46],[-32,-32],[-79,-46],[-29,-30],[-10,30],[-49,45],[-12,37],[0,62],[-3,9],[-12,14],[-3,9],[2,5],[5,4],[3,6],[-1,11],[-18,45],[-9,29],[-5,53],[-6,23],[-1,12],[-2,5],[-4,3],[-3,4],[-2,9],[3,9],[7,7],[6,3],[4,-2],[-10,34],[-15,21],[-69,54],[-64,30],[-22,18],[-15,16],[2,7],[13,19],[13,13],[28,12],[27,20],[15,4],[12,6],[5,13],[-2,12],[-11,33],[-7,13],[-5,2],[-18,-3],[-6,1],[-1,7],[2,19],[-1,6],[-34,17],[-12,9],[-50,5],[-9,4],[-10,8],[-16,19],[-14,63],[35,43],[110,61],[22,24],[23,33],[17,34],[13,63],[16,18],[20,12],[18,15],[22,53],[7,69],[-8,72],[-21,59],[-68,55],[-12,3],[-11,16],[-69,62],[-60,22],[1,12],[6,18],[9,16],[9,7],[27,8],[11,19],[9,24],[19,23],[23,12],[38,14],[38,7],[25,-8],[13,-11],[32,-19],[14,-12],[2,-15],[-10,-19],[-25,-34],[-46,-107],[0,-24],[64,-79],[11,-6],[9,-1],[7,-5],[3,-14],[-19,-37],[-24,-273],[-16,-53],[2,-17],[-32,-63],[-31,-133],[1,-27],[8,-18],[6,0],[9,7],[18,0],[34,-13],[18,-11],[16,-30],[44,-37],[17,-25],[51,-195],[29,-57],[70,-86]],[[890,548],[25,-47],[4,-56],[-26,-109],[-23,-46],[-32,-32],[-79,-46],[-29,-30],[-10,30],[-49,45],[-12,37],[0,62],[-3,9],[-12,14],[-3,9],[2,5],[5,4],[3,6],[-1,11],[-18,45],[-9,29],[-5,53],[-6,23],[-1,12],[-2,5],[-4,3],[-3,4],[-2,9],[3,9],[7,7],[6,3],[4,-2],[-10,34],[-15,21],[-69,54],[-64,30],[-22,18],[-15,16],[2,7],[13,19],[13,13],[28,12],[27,20],[15,4],[12,6],[5,13],[-2,12],[-11,33],[-7,13],[-5,2],[-18,-3],[-6,1],[-1,7],[2,19],[-1,6],[-34,17],[-12,9],[-50,5],[-9,4],[-10,8],[-16,19],[-14,63],[35,43],[110,61],[22,24],[23,33],[17,34],[13,63],[16,18],[20,12],[18,15],[22,53],[7,69],[-8,72],[-21,59],[-68,55],[-12,3],[-11,16],[-69,62],[-60,22],[1,12],[6,18],[9,16],[9,7],[27,8],[11,19],[9,24],[19,23],[23,12],[38,14],[38,7],[25,-8],[13,-11],[32,-19],[14,-12],[2,-15],[-10,-19],[-25,-34],[-46,-107],[0,-24],[64,-79],[11,-6],[9,-1],[7,-5],[3,-14],[-19,-37],[-24,-273],[-16,-53],[2,-17],[-32,-63],[-31,-133],[1,-27],[8,-18],[6,0],[9,7],[18,0],[34,-13],[18,-11],[16,-30],[44,-37],[17,-25],[51,-195],[29,-57],[70,-86]],[[3945,3775],[-30,-57],[0,-44],[6,-120],[-6,-44],[-48,-19],[-12,-19]],[[3062,3624],[96,-13],[54,-25],[42,-7],[54,13],[42,0],[60,-13],[48,7],[72,6],[18,0],[102,-32],[126,-56],[60,-19],[19,-13]],[[1980,2941],[-48,19],[-90,0],[-48,-6],[-42,-13]],[[2195,2966],[-64,13],[-60,0],[-32,-12]],[[2039,2967],[-17,-7],[-42,-19]],[[3062,3624],[-54,6],[-223,-19],[-48,-13],[-54,-31],[-12,-51],[-18,-57],[-18,-31],[-42,-19],[-12,-13],[-12,-50],[-30,-19],[-18,-7],[-36,7],[-30,-19],[-36,-7],[-24,-18],[-24,-51],[6,-25],[30,-32],[0,-12],[-12,-64],[6,-25],[24,-19],[108,-31],[24,-32],[-6,-38],[-30,-25],[-54,0],[-42,-6],[-48,18],[-42,-6],[-42,19],[-72,6],[-26,6]],[[0,2884],[16,-12]],[[3855,3472],[18,-6],[30,-38],[24,-13],[30,0],[24,-25],[24,-19],[60,6],[31,-5]],[[2059,2840],[-55,70],[-24,31]],[[2119,2771],[-36,38],[-24,31]],[[1661,2718],[-8,-11]],[[1679,2763],[-5,-24],[-1,-1]],[[1752,2941],[-15,-7]],[[1653,2707],[-3,-5]],[[1673,2738],[-12,-20]],[[1737,2934],[-9,-5],[-18,-25],[-12,-57],[-19,-84]],[[16,2872],[30,-19],[84,-63],[103,-63],[18,-19],[114,-82],[42,-44],[6,-7]],[[677,2544],[-36,0],[-36,19],[-114,0],[-78,12]],[[1242,2569],[-48,-19],[-73,-19],[-12,-38],[-24,-6],[-24,12],[-60,64],[-18,0],[-36,-13],[-24,6],[-42,26],[-42,0],[-36,-13],[-66,-19],[-60,-6]],[[1650,2702],[-84,-26],[-30,-19],[-6,-44],[-18,-19],[-6,-57],[-6,-19],[-18,-6],[-42,-6],[-36,-26],[-30,32],[-30,13],[-24,0],[-24,12],[-30,32],[-24,0]],[[2119,2771],[30,-13],[54,-6],[66,6],[60,0],[36,7],[48,-26],[30,0],[42,45],[90,63],[18,6],[54,6],[108,-19],[84,-12],[42,0],[67,6],[18,0],[36,-19],[72,-44],[36,-44],[66,-51],[48,-25],[60,-25],[36,-19],[24,-32],[90,-38],[30,-31],[72,-51],[24,-25],[12,-44],[18,-13],[24,0],[30,38],[30,6],[78,-6],[36,13],[48,-7],[43,-25],[6,-32]],[[3994,2282],[11,3],[11,-13]],[[4059,2253],[18,25],[19,-3]],[[3885,2360],[12,-12],[36,-25],[18,-32],[24,-13],[19,4]],[[4016,2272],[25,-25],[18,6]],[[413,2575],[48,-88],[42,-133],[12,-50],[12,-19],[30,-108],[24,-69]],[[714,1836],[-25,-31],[-6,-45]],[[581,2108],[30,-38],[90,-76],[24,-38],[6,-25],[-6,-82],[-11,-13]],[[478,1981],[-47,-25],[-42,-31],[-72,-45],[-45,-25]],[[561,2083],[-16,-19],[-18,-51],[-4,-4]],[[272,1855],[-33,-19],[-18,-19],[-97,-44],[-42,-31],[-42,-32],[-30,-44],[-6,-38],[6,-70],[-10,-21]],[[523,2009],[-8,-9],[-37,-19]],[[581,2108],[-20,-25]],[[683,1760],[9,5]],[[692,1765],[45,21],[36,6],[30,-13],[36,-19],[48,-44],[30,-50],[30,-51],[132,-25],[12,-19],[6,-38],[6,-25],[18,-19],[67,-25],[24,-45],[54,-44],[42,19],[18,0],[48,-88],[48,-63],[78,-51],[90,-31],[24,-45],[30,-25],[84,-38],[90,-50],[78,-13],[42,-19]],[[1938,971],[48,-50],[24,-26],[25,-63],[36,-19],[60,-12],[12,-7],[36,-50],[24,-32],[78,-25],[90,-19]],[[683,1760],[7,-2]],[[690,1758],[29,-10],[12,-25],[18,-82],[18,-83],[12,-69],[0,-82],[6,-76],[12,-38],[18,-63],[6,-32],[24,-63],[42,-63],[36,-88],[30,-95],[12,-57],[66,-170],[6,-13],[24,-6]],[[3233,496],[21,-18],[30,-56]],[[2485,687],[42,12],[18,19],[30,38],[30,19],[54,19],[12,7],[48,12],[60,-6],[48,0],[42,-13],[48,-25],[37,-25],[30,-32],[36,-57],[24,-63],[12,-50],[30,-38],[12,-7],[60,0],[66,7],[9,-8]],[[3335,459],[-51,-37]],[[3356,2569],[0,-114],[-12,-50],[0,-26],[18,-37],[-6,-32],[12,-19],[36,-19],[12,-13],[36,-63],[24,-50],[30,-82],[12,-51],[0,-44],[-18,-38],[-42,-57],[-30,-63],[-54,-82],[-6,-19],[0,-38],[30,-44],[12,-38],[-18,-38],[-18,-50],[0,-51],[12,-69],[0,-45],[24,-31],[12,-32],[0,-76],[18,-31],[6,-38],[0,-63],[6,-51],[12,-63],[18,-25],[30,-38],[18,-38],[-6,-63],[-18,-51],[48,-56],[6,-32],[-54,-76],[-12,-57],[-18,-19],[-48,7],[-36,0],[-48,-38],[-9,-7]],[[1061,643],[-6,-76],[0,-76],[24,-31],[6,-76],[-12,-63],[-30,-108]],[[1043,213],[-42,0],[-60,-12],[-42,-26],[-54,-50]],[[3333,370],[-7,7],[-30,26],[-12,19]],[[4096,251],[-1,0],[-30,13],[-36,44],[-42,25],[-24,0],[-54,-38],[-36,-12],[-43,0],[-30,-26],[-6,-19],[-36,-12],[-114,-19],[-48,-13],[-72,0],[-36,13],[-66,6],[-18,19],[-18,25],[-18,51],[-18,44],[-17,18]],[[748,88],[-29,-7],[-45,-15]],[[674,66],[-33,-11]],[[845,125],[-48,-25],[-49,-12]],[[0,849],[16,-17],[36,-76],[30,-25],[42,-6],[109,0],[48,-26],[24,-18],[6,-32],[18,-13],[12,-31],[18,-108],[24,-63],[18,-12],[36,19],[36,-51],[78,-76],[18,-38],[0,-44],[6,-19],[42,-25],[23,-37]],[[640,151],[1,-1],[6,-50],[-6,-45]],[[1043,213],[-24,-95],[-18,-50],[-21,-68]],[[2485,687],[-6,-57],[-18,-44],[18,-25],[36,-19],[6,-19],[-18,-32],[12,-50],[-18,-26],[-36,-12],[-12,-7],[-12,-50],[0,-25],[-30,-57],[6,-44],[30,-57],[-6,-38],[12,-25],[18,-13],[12,-32],[0,-55]],[[1061,643],[79,6],[48,32],[54,6],[18,-6],[36,-32],[30,-32],[12,-50],[18,-25],[30,-26],[18,-38],[24,-69],[24,-32],[42,-31],[96,-44],[42,-26],[48,-6],[24,6],[60,13],[66,-13],[48,0],[24,-12],[54,-44],[42,-38],[43,-57],[24,-51],[36,-44],[16,-30]],[[3284,422],[-6,-19],[0,-41]],[[3278,362],[0,-54],[-30,-70],[0,-18],[18,-19],[66,-51],[36,-44],[30,-32],[12,-25],[6,-32],[-8,-17]],[[641,55],[-54,-25],[-48,-19],[-21,-11]],[[0,0],[0,681],[0,3415],[892,0],[3204,0],[0,-4096],[-4096,0]],[[1111,3163],[9,62],[82,58],[-11,74],[98,68],[24,86],[191,-14],[109,20],[43,69],[84,64],[17,-11],[21,46],[19,-42],[18,19],[11,-48],[72,-26],[172,-181],[54,-69],[-19,-50],[46,50],[25,-19],[-4,-32],[38,-18],[112,-185],[-130,-72],[6,-95],[-214,67],[-113,62],[-95,8],[-179,-148],[17,-20],[-17,-26],[76,-61],[14,-79],[-23,30],[-10,-21],[20,-30],[-46,18],[-11,-19],[-13,52],[-25,-33],[-16,19],[3,-23],[-39,31],[23,-32],[-25,-29],[-151,161],[-113,70],[-37,77],[-101,107],[-12,65]],[[0,1520],[376,90],[28,78],[-37,99],[-108,78],[-36,127],[-59,51],[183,-35],[104,17],[27,-45],[81,25],[40,-51],[75,-35],[43,-75],[-44,-140],[98,-567],[215,-524],[39,-315],[-216,-133],[-43,-4],[-38,-161],[-41,0],[-30,152],[-83,-4],[-157,89],[-55,62],[-107,19],[-122,96],[-133,17],[0,1089]],[[4096,2432],[0,-186],[-2,-9],[-130,59],[46,116],[86,20]],[[3493,1361],[71,92],[-9,80],[36,93],[167,82],[66,-297],[-25,-35],[12,-113],[-195,-144],[-123,242]],[[3321,472],[34,-30],[-18,-72],[-130,-17],[-32,102],[49,17],[21,52],[48,-6],[28,-46]],[[538,2004],[-47,17],[-18,50],[65,19],[65,-19],[-18,-50],[-47,-17]],[[1968,3027],[107,-3],[16,-51],[81,-17],[16,17],[33,-34],[-9,-25],[-89,8],[-80,-102],[-81,-17],[-70,49],[5,53],[-162,0],[4,48],[29,17],[103,13],[-6,75],[103,-31]],[[1717,3927],[0,77],[225,1],[0,91],[68,0],[36,-129],[-60,0],[-21,-74],[143,-155],[-36,-33],[-141,160],[-44,0],[0,-25],[41,-18],[-14,-96],[34,-86],[39,-27],[48,71],[25,-13],[38,-53],[6,-81],[-106,27],[-116,-28],[-87,98],[-6,108],[-59,71],[27,69],[-40,45]],[[2163,4096],[52,-42],[49,-148],[-23,-104],[-38,-5],[-61,-93],[24,-66],[-60,-77],[-8,57],[-63,66],[-48,-71],[-39,27],[-34,86],[14,96],[-41,18],[0,25],[44,0],[141,-160],[36,33],[-143,155],[0,51],[21,23],[60,0],[-36,129],[153,0]],[[1942,4096],[0,-91],[-225,-1],[0,-77],[-61,39],[-75,-16],[-115,112],[-24,-39],[-69,7],[-55,55],[624,11]]]}