{"objects":{"water":{"type":"GeometryCollection","geometries":[{"type":"Polygon","properties":{"kind":"lake","name":"Obanbori Qayroqum","reservoir":true,"area":766906944,"sort_rank":200,"source":"naturalearthdata.com","min_zoom":0.0,"id":1214},"arcs":[[429]]},{"type":"MultiPolygon","properties":{"kind":"lake","name":"Aydar Ko\u0091l","area":3803178496,"sort_rank":200,"alkaline":true,"source":"naturalearthdata.com","min_zoom":0.0,"id":1328},"arcs":[[[430]],[[431]]]},{"type":"Point","properties":{"label_placement":true,"kind":"lake","name":"Obanbori Qayroqum","reservoir":true,"area":766906944,"sort_rank":200,"source":"naturalearthdata.com","min_zoom":0.0,"id":1214},"coordinates":[1955,3493]},{"type":"LineString","properties":{"source":"naturalearthdata.com","kind":"lake","reservoir":true,"sort_rank":367,"boundary":true,"min_zoom":0.0,"id":1214},"arcs":[432]},{"type":"MultiLineString","properties":{"source":"naturalearthdata.com","kind":"lake","sort_rank":367,"alkaline":true,"boundary":true,"min_zoom":0.0,"id":1328},"arcs":[[433],[434],[435]]}]},"buildings":{"type":"GeometryCollection","geometries":[]},"places":{"type":"GeometryCollection","geometries":[{"type":"Point","properties":{"name:ka":"\u10e2\u10d0\u10ef\u10d8\u10d9\u10d4\u10d7\u10d8","name:ko":"\ud0c0\uc9c0\ud0a4\uc2a4\ud0c4","name:cv":"\u0422\u0430\u0434\u0436\u0438\u043a\u0438\u0441\u0442\u0430\u043d","name:cu":"\u0422\u0430\u0434\u0436\u0438\u043a\u0438\u0441\u0442\u0430\u043d\u044a","name:kl":"Tajikistani","name:cs":"T\u00e1d\u017eikist\u00e1n","name:ki":"Tajikistani","name:kw":"Pow Tajik","name:kv":"\u0422\u0430\u0434\u0436\u0438\u043a\u0438\u0441\u0442\u0430\u043d","name:ku":"Tac\u00eekistan","name:ti":"\u1273\u1303\u12aa\u1235\u1273\u1295","name:ks":"\u062a\u0627\u062c\u06a9\u0650\u0633\u062a\u0627\u0646","name:to":"Tasikitani","name:tl":"Tayikistan","name:ce":"\u0422\u0430\u0434\u0436\u0438\u043a\u0438","name:ta":"\u0ba4\u0bbe\u0b9c\u0bbf\u0b95\u0bbf\u0bb8\u0bcd\u0ba4\u0bbe\u0ba9\u0bcd","name:ca":"Tadjikistan","name:te":"\u0c1f\u0c3e\u0c1c\u0c40\u0c15\u0c3f\u0c38\u0c4d\u0c24\u0c3e\u0c28\u0c4d","name:cy":"Tajicistan","name:hr":"Tad\u017eikistan","name:da":"Tadsjikistan","name:de":"Tadschikistan","name:dz":"\u0f4f\u0f0b\u0f47\u0f72\u0f42\u0f0b\u0f42\u0f72\u0f0b\u0f66\u0f4f\u0f71\u0f53","source":"openstreetmap.org","name:kn":"\u0ca4\u0c9c\u0cbe\u0c95\u0cbf\u0cb8\u0ccd\u0ca5\u0cbe\u0ca8\u0ccd","name:dv":"\u078c\u07a6\u0796\u07a8\u0786\u07a8\u0790\u07b0\u078c\u07a7\u0782\u07b0","name:km":"\u178f\u17b6\u178a\u17a0\u17d2\u179f\u17c9\u17b8\u1782\u17b8\u179f\u17d2\u178f\u1784\u17cb","name:lv":"Tad\u017eikist\u0101na","name:lt":"Tad\u017eikistanas","name:uz":"Tojikiston","name:kk":"\u0422\u04d9\u0436\u0456\u043a\u0441\u0442\u0430\u043d","name:ur":"\u062a\u0627\u062c\u06a9\u0633\u062a\u0627\u0646","name:lb":"Tadschikistan","name:la":"Tadzikistania","name:lg":"Tajikisitaani","name:uk":"\u0422\u0430\u0434\u0436\u0438\u043a\u0438\u0441\u0442\u0430\u043d","name:ug":"\u062a\u0627\u062c\u0649\u0643\u0649\u0633\u062a\u0627\u0646","name:li":"Tadzjikistan","name:ln":"Tazikisit\u00e1","name:lo":"\u0e97\u0eb2\u0e88\u0eb4\u0e81\u0eb4\u0eaa\u0eb0\u0e96\u0eb2\u0e99","name:el":"\u03a4\u03b1\u03c4\u03b6\u03b9\u03ba\u03b9\u03c3\u03c4\u03ac\u03bd","name:eo":"Ta\u011dikujo","name:en":"Tajikistan","name":"\u0422\u043e\u04b7\u0438\u043a\u0438\u0441\u0442\u043e\u043d","name:tk":"T\u00e4jigistan","name:ee":"Tajikistan nutome","name:th":"\u0e1b\u0e23\u0e30\u0e40\u0e17\u0e28\u0e17\u0e32\u0e08\u0e34\u0e01\u0e34\u0e2a\u0e16\u0e32\u0e19","name:eu":"Tajikistan","name:et":"Tad\u017eikistan","name:es":"Tayikist\u00e1n","name:ay":"Tayiksuyu","name:rm":"Tadschikistan","name:rn":"Tajikisitani","name:az":"Tacikistan","name:ie":"Tadjikistan","name:id":"Tajikistan","name:ar":"\u0637\u0627\u062c\u064a\u0643\u0633\u062a\u0627\u0646","name:io":"Tajikistan","name:ak":"Tajikistan","name:am":"\u1273\u1303\u12aa\u1235\u1273\u1295","name:it":"Tagikistan","name:an":"Tachiquist\u00e1n","name:ru":"\u0422\u0430\u0434\u0436\u0438\u043a\u0438\u0441\u0442\u0430\u043d","name:rw":"Tajikisitani","name:af":"Tadjikistan","name:zu":"i-Tajikistan","name:ky":"\u0422\u0430\u0436\u0438\u043a\u0441\u0442\u0430\u043d","name:zh-yue":"\u5854\u5409\u514b","name:zh":"\u5854\u5409\u514b\u65af\u5766","name:so":"Tajikistan","name:sn":"Tajikistan","name:sl":"Tad\u017eikistan","name:sk":"Tad\u017eikistan","name:ja":"\u30bf\u30b8\u30ad\u30b9\u30bf\u30f3","name:si":"\u0da7\u0da2\u0dd2\u0d9a\u0dd2\u0dc3\u0dca\u0dad\u0dcf\u0db1\u0dba","name:sh":"Tad\u017eikistan","name:sg":"Taazikiist\u00e4an","name:se":"Ta\u017eikistan","name:sa":"\u0924\u093e\u091c\u093f\u0915\u093f\u0938\u094d\u0925\u093e\u0928","name:bs":"Tad\u017eikistan","name:bm":"Tajikisitani","name:bn":"\u09a4\u09be\u099c\u09bf\u0995\u09b8\u09cd\u09a5\u09be\u09a8","name:bo":"\u0f50\u0f0b\u0f47\u0f72\u0f0b\u0f41\u0f7a\u0f0b\u0f66\u0f72\u0f0b\u0f4f\u0f53\u0f0d","name:br":"Tadjikistan","name:sw":"Tajikistani","name:be":"\u0422\u0430\u0434\u0436\u044b\u043a\u0456\u0441\u0442\u0430\u043d","name:su":"Tajikistan","name:bg":"\u0422\u0430\u0434\u0436\u0438\u043a\u0438\u0441\u0442\u0430\u043d","name:ss":"IThajiki","name:ba":"\u0422\u0430\u0436\u0438\u043a\u0441\u0442\u0430\u043d","name:sq":"Taxhikistan","name:jv":"Tajikistan","name:ia":"Tadzhikistan","name:pt":"Tadjiquist\u00e3o","name:ps":"\u062a\u0627\u062c\u06a9\u0633\u062a\u0627\u0646","name:oc":"Tatgiquistan","min_zoom":2.0,"name:ro":"Tadjikistan","name:zh-min-nan":"Tajikistan","name:os":"\u0422\u0430\u0434\u0436\u0438\u043a\u0438\u0441\u0442\u0430\u043d","name:or":"\u0b24\u0b3e\u0b1c\u0b3f\u0b15\u0b3f\u0b38\u0b4d\u0b25\u0b3e\u0b28\u0b4d","name:pl":"Tad\u017cykistan","name:sr":"\u0422\u0430\u045f\u0438\u043a\u0438\u0441\u0442\u0430\u043d","name:tr":"Tacikistan","name:hi":"\u0924\u093e\u091c\u093f\u0915\u093f\u0938\u094d\u0924\u093e\u0928","name:sv":"Tadzjikistan","name:he":"\u05d8\u05d2'\u05d9\u05e7\u05d9\u05e1\u05d8\u05df","name:ha":"Tajikistan","name:hy":"\u054f\u0561\u0573\u056b\u056f\u057d\u057f\u0561\u0576","name:ht":"Tadjikistan","name:hu":"T\u00e1dzsikiszt\u00e1n","name:qu":"Tayiksuyu","population":7215700,"kind":"country","name:is":"Tadsjikistan","name:yi":"\u05d8\u05d0\u05d3\u05d6\u05e9\u05d9\u05e7\u05d9\u05e1\u05d8\u05d0\u05df","name:yo":"Or\u00edl\u1eb9\u0301\u00e8de Takisitani","name:mt":"Ta\u0121ikistan","alt_name:eo":"Ta\u011dikistano;Ta\u011dikio","name:ms":"Tadjikistan","name:mr":"\u0924\u093e\u091c\u093f\u0915\u093f\u0938\u094d\u0924\u093e\u0928","name:my":"\u1010\u102c\u1002\u103b\u102e\u1000\u1005\u1039\u1005\u1010\u1014\u103a","int_name":"Tajikistan","name:mg":"Tajikistan","name:ml":"\u0d24\u0d3e\u0d1c\u0d3f\u0d15\u0d4d\u0d15\u0d3f\u0d38\u0d4d\u0d25\u0d3e\u0d7b","name:vi":"Tajikistan","name:mn":"\u0422\u0430\u0436\u0438\u043a\u0438\u0441\u0442\u0430\u043d","id":424314276,"name:mk":"\u0422\u0430\u045f\u0438\u043a\u0438\u0441\u0442\u0430\u043d","name:vo":"Tacikist\u00e4n","name:fa":"\u062a\u0627\u062c\u06cc\u06a9\u0633\u062a\u0627\u0646","name:ff":"Tajikistaan","name:fi":"Tad\u017eikistan","name:fo":"Tadsjikistan","name:fr":"Tadjikistan","name:fy":"Tadzjikistan","name:nl":"Tadzjikistan","name:nn":"Tadsjikistan","name:no":"Tadsjikistan","name:na":"Tadjikitan","name:ne":"\u0924\u093e\u091c\u093f\u0915\u093f\u0938\u094d\u0924\u093e\u0928","name:wo":"Tajikistaan","name:nv":"T\u02bcaji\u02bc Bik\u00e9yah","name:ga":"An T\u00e1ids\u00edceast\u00e1in","name:gd":"Taidigeast\u00e0n","name:gl":"Taxiquist\u00e1n","name:gv":"Yn Tajikistaan","name:gu":"\u0aa4\u0abe\u0a9c\u0ac0\u0a95\u0abf\u0ab8\u0acd\u0aa4\u0abe\u0aa8","name:tt":"\u0422\u0430\u0497\u0438\u043a\u0441\u0442\u0430\u043d"},"coordinates":[2414,1898]},{"type":"Point","properties":{"kind":"region","name:en":"Fergana Province","name":"Farg\u2018ona Viloyati","kind_detail":"state","name:de":"Provinz Farg\u02bbona","source":"openstreetmap.org","min_zoom":4.0,"population":2597000,"name:ru":"\u0424\u0435\u0440\u0433\u0430\u043d\u0441\u043a\u0430\u044f \u043e\u0431\u043b\u0430\u0441\u0442\u044c","name:hu":"Ferg\u00e1nai vilajet","id":309346343,"name:ja":"\u30d5\u30a7\u30eb\u30ac\u30ca\u5dde"},"coordinates":[2731,3647]},{"type":"Point","properties":{"name:ps":"\u0648\u0644\u0627\u064a\u062a \u0628\u062f\u062e\u0634\u0627\u0646","min_zoom":4.0,"name:uk":"\u0411\u0430\u0434\u0430\u0445\u0448\u0430\u043d","name:ru":"\u0411\u0430\u0434\u0430\u0445\u0448\u0430\u043d","name:pl":"Badachszan","name:hu":"Badahs\u00e1n","id":312470052,"name:ja":"\u30d0\u30c0\u30d5\u30b7\u30e3\u30fc\u30f3\u5dde","kind":"region","name:en":"Badakhshan","name":"\u0628\u062f\u062e\u0634\u0627\u0646","kind_detail":"state","name:de":"Badachschan","source":"openstreetmap.org","name:fr":"Badakhshan","population":823000},"coordinates":[2816,193]},{"type":"Point","properties":{"kind":"region","name:en":"Sirdarya Province","name":"Sirdaryo Viloyati","kind_detail":"state","min_zoom":4.0,"name:de":"Provinz Sirdaryo","source":"openstreetmap.org","name:fr":"Province de Syr-Daria","name:ru":"\u0421\u044b\u0440\u0434\u0430\u0440\u044c\u0438\u043d\u0441\u043a\u0430\u044f \u043e\u0431\u043b\u0430\u0441\u0442\u044c","name:hu":"Szirdarja vilajet","id":309346344,"population":648100},"coordinates":[905,3649]},{"type":"Point","properties":{"kind":"region","name:en":"Gorno-Badakhshan Autonomous Province","name":"\u0412\u0438\u043b\u043e\u044f\u0442\u0438 \u041c\u0443\u0445\u0442\u043e\u0440\u0438 \u041a\u04ef\u04b3\u0438\u0441\u0442\u043e\u043d\u0438 \u0411\u0430\u0434\u0430\u0445\u0448\u043e\u043d","kind_detail":"state","name:de":"Autonome Provinz Berg-Badachschan","source":"openstreetmap.org","min_zoom":4.0,"name:short":"GBAO","name:ru":"\u0413\u043e\u0440\u043d\u043e-\u0411\u0430\u0434\u0430\u0445\u0448\u0430\u043d\u0441\u043a\u0430\u044f \u0430\u0432\u0442\u043e\u043d\u043e\u043c\u043d\u0430\u044f \u043e\u0431\u043b\u0430\u0441\u0442\u044c","name:hu":"Badahs\u00e1n","id":2504653240,"name:ja":"\u30b4\u30eb\u30ce\u30fb\u30d0\u30c0\u30d5\u30b7\u30e3\u30f3\u81ea\u6cbb\u5dde"},"coordinates":[4004,1637]},{"type":"Point","properties":{"name:fa":"\u0648\u0644\u0627\u06cc\u062a \u0633\u063a\u062f","kind":"region","name:short":"Sughd","int_name":"Sughd","name":"\u0412\u0438\u043b\u043e\u044f\u0442\u0438 \u0421\u0443\u0493\u0434","kind_detail":"state","source":"openstreetmap.org","min_zoom":4.0,"name:en":"Sughd Province","name:ru":"\u0421\u043e\u0433\u0434\u0438\u0439\u0441\u043a\u0430\u044f \u043e\u0431\u043b\u0430\u0441\u0442\u044c","id":2504653253,"name:ja":"\u30bd\u30b0\u30c9"},"coordinates":[1791,3675]},{"type":"Point","properties":{"kind":"region","name:en":"Andijon Province","name":"Andijon Viloyati","kind_detail":"state","min_zoom":4.0,"name:de":"Provinz Andijon","source":"openstreetmap.org","name:fr":"Province d'Andijan","name:ru":"\u0410\u043d\u0434\u0438\u0436\u0430\u043d\u0441\u043a\u0430\u044f \u043e\u0431\u043b\u0430\u0441\u0442\u044c","id":1366625254},"coordinates":[3163,3949]},{"type":"Point","properties":{"name:fa":"\u0648\u0644\u0627\u06cc\u062a \u062e\u062a\u0644\u0627\u0646","kind":"region","name:en":"Khatlon Province","name":"\u0412\u0438\u043b\u043e\u044f\u0442\u0438 \u0425\u0430\u0442\u043b\u043e\u043d","kind_detail":"state","name:de":"Provinz Chatlon","source":"openstreetmap.org","min_zoom":4.0,"name:short":"Khatlon","name:ru":"\u0425\u0430\u0442\u043b\u043e\u043d\u0441\u043a\u0430\u044f \u043e\u0431\u043b\u0430\u0441\u0442\u044c","id":2504653259,"name:ja":"\u30cf\u30c8\u30ed\u30f3"},"coordinates":[1284,1199]},{"type":"Point","properties":{"name:fa":"\u0648\u0644\u0627\u06cc\u062a \u0633\u063a\u062f","kind":"region","name:short":"Sughd","int_name":"Sughd","name":"\u0412\u0438\u043b\u043e\u044f\u0442\u0438 \u0421\u0443\u0493\u0434","kind_detail":"state","source":"openstreetmap.org","min_zoom":4.0,"name:en":"Sughd Province","name:ru":"\u0421\u043e\u0433\u0434\u0438\u0439\u0441\u043a\u0430\u044f \u043e\u0431\u043b\u0430\u0441\u0442\u044c","id":2504653246,"name:ja":"\u30bd\u30b0\u30c9"},"coordinates":[966,2577]},{"type":"Point","properties":{"name:fa":"\u0646\u0627\u062d\u06cc\u0647 \u0647\u0627\u06cc \u062a\u0627\u0628\u0639 \u062c\u0645\u0647\u0648\u0631\u06cc","kind":"region","name:en":"Districts of Republican Subordination","name":"\u041d\u043e\u04b3\u0438\u044f\u04b3\u043e\u0438 \u0442\u043e\u0431\u0435\u0438 \u04b7\u0443\u043c\u04b3\u0443\u0440\u04e3","kind_detail":"state","name:de":"Unterstellte Gebiete der Republik","source":"openstreetmap.org","min_zoom":4.0,"name:short":"RRP","name:ru":"\u0420\u0430\u0439\u043e\u043d\u044b \u0440\u0435\u0441\u043f\u0443\u0431\u043b\u0438\u043a\u0430\u043d\u0441\u043a\u043e\u0433\u043e \u043f\u043e\u0434\u0447\u0438\u043d\u0435\u043d\u0438\u044f","id":2504653266,"name:ja":"\u5171\u548c\u56fd\u76f4\u8f44\u5730"},"coordinates":[1885,2219]},{"type":"Point","properties":{"name:fa":"\u06a9\u0646\u062f\u0648\u0632","kind":"region","name:en":"Kunduz","name:ps":"\u06a9\u0646\u062f\u0648\u0632","name":"\u0643\u0646\u062f\u0632","kind_detail":"state","min_zoom":4.0,"name:de":"Kunduz","source":"openstreetmap.org","name:fr":"Kunduz","name:uk":"\u041a\u0443\u043d\u0434\u0443\u0437","name:ru":"\u041a\u0443\u043d\u0434\u0443\u0437","name:hu":"Kunduz","id":312470040,"name:ja":"\u30af\u30f3\u30c9\u30a5\u30fc\u30ba\u5dde"},"coordinates":[915,255]},{"type":"Point","properties":{"source":"naturalearthdata.com","kind":"locality","name":"Dushanbe","country_capital":true,"population":1086244,"min_zoom":5.0,"id":6836},"coordinates":[928,1834]},{"type":"Point","properties":{"source":"naturalearthdata.com","kind":"locality","name":"Andijon","population":650000,"region_capital":true,"min_zoom":5.0,"id":6275},"coordinates":[3524,3918]},{"type":"Point","properties":{"source":"naturalearthdata.com","kind":"locality","name":"Fargona","population":750000,"region_capital":true,"min_zoom":6.0,"id":4930},"coordinates":[3117,3545]},{"type":"Point","properties":{"source":"naturalearthdata.com","kind":"locality","name":"Khujand","population":437684,"min_zoom":6.0,"id":4933},"coordinates":[1544,3451]},{"type":"Point","properties":{"source":"naturalearthdata.com","kind":"locality","name":"Khorugh","population":30000,"min_zoom":6.0,"id":4932},"coordinates":[2947,832]}]},"transit":{"type":"GeometryCollection","geometries":[{"type":"MultiLineString","properties":{"source":"openstreetmap.org","kind":"train","sort_rank":275,"ref":"\u041c\u043e\u0441\u043a\u0432\u0430-\u0425\u0443\u0434\u0436\u0430\u043d\u0434","min_zoom":6.0,"osm_relation":true},"arcs":[[341],[342]]},{"type":"MultiLineString","properties":{"kind":"train","name":"Termez-Toshkent","sort_rank":275,"source":"openstreetmap.org","min_zoom":6.0,"name:ru":"\u0422\u0435\u0440\u043c\u0435\u0437-\u0422\u0430\u0448\u043a\u0435\u043d\u0442","ref":"Termez-Toshkent","osm_relation":true},"arcs":[[343],[344]]},{"type":"LineString","properties":{"source":"openstreetmap.org","kind":"train","name":"\u0414\u0443\u0448\u0430\u043d\u0431\u0435 \u2014 \u041c\u043e\u0441\u043a\u0432\u0430","sort_rank":275,"ref":"329\u0417","min_zoom":6.0,"osm_relation":true},"arcs":[345]},{"type":"LineString","properties":{"kind":"train","name":"Toshkent - Samarkand\/Buxoro","sort_rank":275,"source":"openstreetmap.org","min_zoom":6.0,"name:ru":"\u0422\u0430\u0448\u043a\u0435\u043d\u0442 - \u0421\u0430\u043c\u0430\u0440\u043a\u0430\u043d\u0434\/\u0411\u0443\u0445\u0430\u0440\u0430","ref":"Toshkent - Samarkand\/Buxoro","osm_relation":true},"arcs":[346]},{"type":"MultiLineString","properties":{"kind":"train","name":"Denau - Toshkent","sort_rank":275,"source":"openstreetmap.org","min_zoom":6.0,"name:ru":"\u0414\u0435\u043d\u0430\u0443-\u0422\u0430\u0448\u043a\u0435\u043d\u0442","ref":"Denau-Toshkent","osm_relation":true},"arcs":[[347],[348],[349],[350]]},{"type":"MultiLineString","properties":{"source":"openstreetmap.org","kind":"train","sort_rank":275,"ref":"\u0414\u0443\u0448\u0430\u043d\u0431\u0435-\u041a\u043e\u043d\u0438\u0431\u043e\u0434\u043e\u043c","min_zoom":6.0,"osm_relation":true},"arcs":[[351],[352]]},{"type":"MultiLineString","properties":{"kind":"train","alt_name:en":"New Eurasian Continental Bridge","network":"Eurasian Land Bridge","alt_name:de":"Zweite eurasische Kontinentalbr\u00fccke","sort_rank":275,"name:de":"Neue eurasische Kontinentalbr\u00fccke","source":"openstreetmap.org","min_zoom":6.0,"osm_relation":true,"name":"New Eurasian Land Bridge"},"arcs":[[353],[354],[355],[356],[357],[358],[359],[360],[361],[362],[363],[364],[365],[366],[367],[368],[369],[370],[371],[372],[373],[374],[375],[376],[377],[378],[379],[380],[381],[382],[383],[384],[385],[386],[387],[388],[389],[390],[391],[392],[393],[394],[395],[396],[397],[398],[399],[400],[401],[402],[403],[404],[405],[406],[407],[408],[409],[410],[411],[412],[413],[414],[415],[416],[417],[418],[419],[420],[421],[422],[423],[424],[425],[426],[427],[428]]}]},"pois":{"type":"GeometryCollection","geometries":[]},"boundaries":{"type":"GeometryCollection","geometries":[{"type":"MultiLineString","properties":{"source":"naturalearthdata.com","kind":"country","sort_rank":262,"kind_detail":"2","min_zoom":0.0,"id":53},"arcs":[[0],[1]]},{"type":"MultiLineString","properties":{"source":"naturalearthdata.com","kind":"country","sort_rank":262,"kind_detail":"2","min_zoom":0.0,"id":55},"arcs":[[2],[3]]},{"type":"MultiLineString","properties":{"source":"naturalearthdata.com","kind":"country","sort_rank":262,"kind_detail":"2","min_zoom":0.0,"id":97},"arcs":[[4],[5],[6],[7],[8],[9]]},{"type":"MultiLineString","properties":{"source":"naturalearthdata.com","kind":"country","sort_rank":262,"kind_detail":"2","min_zoom":0.0,"id":247},"arcs":[[10],[11],[12],[13],[14],[15],[16],[17],[18],[19],[20],[21],[22],[23],[24],[25],[26],[27],[28],[29],[30],[31],[32],[33],[34],[35],[36],[37],[38],[39],[40],[41],[42],[43],[44],[45],[46],[47],[48],[49],[50],[51]]},{"type":"MultiLineString","properties":{"source":"naturalearthdata.com","kind":"country","sort_rank":262,"kind_detail":"2","min_zoom":0.0,"id":249},"arcs":[[52],[53],[54],[55],[56],[57]]},{"type":"MultiLineString","properties":{"source":"naturalearthdata.com","kind":"country","sort_rank":262,"kind_detail":"2","min_zoom":0.0,"id":323},"arcs":[[58],[59],[60],[61],[62],[63],[64],[65]]},{"type":"MultiLineString","properties":{"source":"naturalearthdata.com","kind":"country","sort_rank":262,"kind_detail":"2","min_zoom":0.0,"id":327},"arcs":[[66],[67],[68],[69],[70],[71],[72]]},{"type":"MultiLineString","properties":{"source":"naturalearthdata.com","kind":"country","sort_rank":262,"kind_detail":"2","min_zoom":0.0,"id":91},"arcs":[[73],[74],[75],[76],[77],[78],[79],[80],[81],[82],[83],[84],[85],[86],[87],[88],[89],[90],[91],[92],[93],[94],[95],[96],[97],[98],[99],[100]]},{"type":"MultiLineString","properties":{"source":"naturalearthdata.com","kind":"country","sort_rank":262,"kind_detail":"2","min_zoom":0.0,"id":95},"arcs":[[101],[102],[103],[104],[105],[106],[107],[108],[109],[110],[111],[112],[113],[114],[115],[116],[117],[118],[119],[120],[121],[122],[123],[124],[125],[126],[127],[128],[129],[130],[131],[132],[133],[134],[135],[136],[137],[138],[139],[140],[141],[142],[143],[144],[145],[146],[147],[148],[149],[150],[151],[152],[153]]},{"type":"LineString","properties":{"source":"naturalearthdata.com","kind":"country","sort_rank":262,"kind_detail":"2","min_zoom":0.0,"id":180},"arcs":[154]},{"type":"MultiLineString","properties":{"source":"naturalearthdata.com","kind":"country","sort_rank":262,"kind_detail":"2","min_zoom":0.0,"id":181},"arcs":[[155],[156],[157],[158]]},{"type":"MultiLineString","properties":{"source":"naturalearthdata.com","kind":"country","sort_rank":262,"kind_detail":"2","min_zoom":0.0,"id":246},"arcs":[[159],[160],[161],[162],[163],[164],[165],[166],[167],[168],[169],[170],[171],[172],[173],[174],[175],[176],[177],[178],[179],[180],[181],[182],[183],[184],[185],[186],[187],[188],[189],[190],[191],[192],[193],[194],[195],[196],[197],[198],[199],[200],[201],[202],[203]]},{"type":"LineString","properties":{"source":"naturalearthdata.com","kind":"region","sort_rank":256,"kind_detail":"4","min_zoom":5.0,"id":838},"arcs":[204]},{"type":"LineString","properties":{"source":"naturalearthdata.com","kind":"region","sort_rank":256,"kind_detail":"4","min_zoom":5.5,"id":5257},"arcs":[205]},{"type":"LineString","properties":{"source":"naturalearthdata.com","kind":"region","sort_rank":256,"kind_detail":"4","min_zoom":5.0,"id":820},"arcs":[206]},{"type":"MultiLineString","properties":{"source":"naturalearthdata.com","kind":"region","sort_rank":256,"kind_detail":"4","min_zoom":5.0,"id":821},"arcs":[[207],[208]]},{"type":"MultiLineString","properties":{"source":"naturalearthdata.com","kind":"region","sort_rank":256,"kind_detail":"4","min_zoom":5.0,"id":830},"arcs":[[209],[210],[211],[212],[213],[214],[215]]},{"type":"MultiLineString","properties":{"source":"naturalearthdata.com","kind":"region","sort_rank":256,"kind_detail":"4","min_zoom":5.0,"id":831},"arcs":[[216],[217],[218],[219],[220],[221],[222]]},{"type":"MultiLineString","properties":{"source":"naturalearthdata.com","kind":"region","sort_rank":256,"kind_detail":"4","min_zoom":5.0,"id":832},"arcs":[[223],[224],[225],[226],[227],[228],[229],[230],[231]]},{"type":"LineString","properties":{"source":"naturalearthdata.com","kind":"region","sort_rank":256,"kind_detail":"4","min_zoom":3.0,"id":829},"arcs":[232]},{"type":"LineString","properties":{"source":"naturalearthdata.com","kind":"region","sort_rank":256,"kind_detail":"4","min_zoom":5.0,"id":837},"arcs":[233]},{"type":"MultiLineString","properties":{"source":"naturalearthdata.com","kind":"region","sort_rank":256,"kind_detail":"4","min_zoom":5.0,"id":839},"arcs":[[234],[235],[236]]},{"type":"MultiLineString","properties":{"source":"naturalearthdata.com","kind":"region","sort_rank":256,"kind_detail":"4","min_zoom":5.0,"id":840},"arcs":[[237],[238],[239],[240],[241],[242],[243],[244],[245],[246],[247],[248],[249],[250],[251]]},{"type":"MultiLineString","properties":{"source":"naturalearthdata.com","kind":"region","sort_rank":256,"kind_detail":"4","min_zoom":5.0,"id":841},"arcs":[[252],[253],[254],[255],[256]]},{"type":"MultiLineString","properties":{"source":"naturalearthdata.com","kind":"region","sort_rank":256,"kind_detail":"4","min_zoom":5.5,"id":1408},"arcs":[[257],[258],[259],[260],[261],[262],[263],[264],[265],[266],[267],[268],[269],[270],[271],[272],[273],[274],[275],[276],[277],[278],[279],[280],[281]]},{"type":"MultiLineString","properties":{"source":"naturalearthdata.com","kind":"region","sort_rank":256,"kind_detail":"4","min_zoom":5.5,"id":1409},"arcs":[[282],[283],[284],[285],[286],[287],[288],[289],[290],[291],[292],[293],[294],[295],[296],[297],[298]]},{"type":"MultiLineString","properties":{"source":"naturalearthdata.com","kind":"region","sort_rank":256,"kind_detail":"4","min_zoom":5.5,"id":1410},"arcs":[[299],[300],[301],[302],[303],[304],[305],[306],[307],[308],[309],[310],[311],[312],[313],[314],[315],[316],[317]]},{"type":"LineString","properties":{"source":"naturalearthdata.com","kind":"region","sort_rank":256,"kind_detail":"4","min_zoom":5.5,"id":1411},"arcs":[318]},{"type":"MultiLineString","properties":{"source":"naturalearthdata.com","kind":"region","sort_rank":256,"kind_detail":"4","min_zoom":5.5,"id":3385},"arcs":[[319],[320],[321],[322],[323],[324],[325],[326],[327],[328]]},{"type":"LineString","properties":{"source":"naturalearthdata.com","kind":"region","sort_rank":256,"kind_detail":"4","min_zoom":5.5,"id":5259},"arcs":[329]},{"type":"MultiLineString","properties":{"source":"naturalearthdata.com","kind":"region","sort_rank":256,"kind_detail":"4","min_zoom":5.5,"id":5286},"arcs":[[330],[331],[332],[333]]},{"type":"LineString","properties":{"source":"naturalearthdata.com","kind":"region","sort_rank":256,"kind_detail":"4","min_zoom":5.5,"id":5306},"arcs":[334]},{"type":"MultiLineString","properties":{"source":"naturalearthdata.com","kind":"region","sort_rank":256,"kind_detail":"4","min_zoom":5.5,"id":9005},"arcs":[[335],[336],[337],[338],[339],[340]]}]},"roads":{"type":"GeometryCollection","geometries":[{"type":"LineString","properties":{"source":"naturalearthdata.com","kind":"minor_road","kind_detail":"tertiary","sort_rank":355,"landuse_kind":"urban_area","min_zoom":5.0,"id":19401},"arcs":[436]},{"type":"LineString","properties":{"source":"naturalearthdata.com","kind":"minor_road","kind_detail":"tertiary","sort_rank":355,"landuse_kind":"urban_area","min_zoom":5.0,"id":19419},"arcs":[437]},{"type":"LineString","properties":{"source":"naturalearthdata.com","kind":"minor_road","sort_rank":355,"kind_detail":"tertiary","min_zoom":5.0,"id":19419},"arcs":[438]},{"type":"LineString","properties":{"source":"naturalearthdata.com","kind":"highway","kind_detail":"motorway","sort_rank":383,"landuse_kind":"urban_area","min_zoom":3.0,"id":19423},"arcs":[439]},{"type":"LineString","properties":{"source":"naturalearthdata.com","kind":"highway","sort_rank":383,"kind_detail":"motorway","min_zoom":3.0,"id":19423},"arcs":[440]},{"type":"LineString","properties":{"source":"naturalearthdata.com","kind":"major_road","sort_rank":379,"kind_detail":"secondary","min_zoom":4.0,"id":19430},"arcs":[441]},{"type":"LineString","properties":{"source":"naturalearthdata.com","kind":"major_road","sort_rank":379,"kind_detail":"secondary","min_zoom":4.0,"id":19438},"arcs":[442]},{"type":"LineString","properties":{"source":"naturalearthdata.com","kind":"highway","kind_detail":"motorway","sort_rank":383,"landuse_kind":"urban_area","min_zoom":3.0,"id":19451},"arcs":[443]},{"type":"LineString","properties":{"source":"naturalearthdata.com","kind":"highway","sort_rank":383,"kind_detail":"motorway","min_zoom":3.0,"id":19451},"arcs":[444]},{"type":"MultiLineString","properties":{"source":"naturalearthdata.com","kind":"highway","kind_detail":"motorway","sort_rank":383,"landuse_kind":"urban_area","min_zoom":3.0,"id":19459},"arcs":[[445],[446]]},{"type":"LineString","properties":{"source":"naturalearthdata.com","kind":"highway","kind_detail":"motorway","sort_rank":383,"landuse_kind":"urban_area","min_zoom":3.0,"id":19459},"arcs":[447]},{"type":"MultiLineString","properties":{"source":"naturalearthdata.com","kind":"highway","sort_rank":383,"kind_detail":"motorway","min_zoom":3.0,"id":19459},"arcs":[[448],[449]]},{"type":"LineString","properties":{"source":"naturalearthdata.com","kind":"highway","kind_detail":"motorway","sort_rank":383,"landuse_kind":"urban_area","min_zoom":5.0,"id":19501},"arcs":[450]},{"type":"LineString","properties":{"source":"naturalearthdata.com","kind":"highway","sort_rank":383,"kind_detail":"motorway","min_zoom":5.0,"id":19501},"arcs":[451]},{"type":"LineString","properties":{"source":"naturalearthdata.com","kind":"highway","kind_detail":"motorway","sort_rank":383,"landuse_kind":"urban_area","min_zoom":3.0,"id":19535},"arcs":[452]},{"type":"LineString","properties":{"source":"naturalearthdata.com","kind":"highway","sort_rank":383,"kind_detail":"motorway","min_zoom":3.0,"id":19535},"arcs":[453]},{"type":"LineString","properties":{"source":"naturalearthdata.com","kind":"minor_road","kind_detail":"tertiary","sort_rank":355,"landuse_kind":"urban_area","min_zoom":5.0,"id":19561},"arcs":[454]},{"type":"LineString","properties":{"source":"naturalearthdata.com","kind":"minor_road","sort_rank":355,"kind_detail":"tertiary","min_zoom":5.0,"id":19591},"arcs":[455]},{"type":"LineString","properties":{"source":"naturalearthdata.com","kind":"major_road","kind_detail":"secondary","sort_rank":379,"landuse_kind":"urban_area","min_zoom":4.0,"id":19592},"arcs":[456]},{"type":"MultiLineString","properties":{"source":"naturalearthdata.com","kind":"major_road","sort_rank":379,"kind_detail":"secondary","min_zoom":4.0,"id":19592},"arcs":[[457],[458],[459]]},{"type":"MultiLineString","properties":{"source":"naturalearthdata.com","kind":"major_road","kind_detail":"secondary","sort_rank":379,"landuse_kind":"urban_area","min_zoom":3.0,"id":19617},"arcs":[[460],[461],[462]]},{"type":"MultiLineString","properties":{"source":"naturalearthdata.com","kind":"major_road","sort_rank":379,"kind_detail":"secondary","min_zoom":3.0,"id":19617},"arcs":[[463],[464]]},{"type":"LineString","properties":{"source":"naturalearthdata.com","kind":"minor_road","kind_detail":"tertiary","sort_rank":355,"landuse_kind":"urban_area","min_zoom":5.0,"id":19630},"arcs":[465]},{"type":"MultiLineString","properties":{"source":"naturalearthdata.com","kind":"minor_road","sort_rank":355,"kind_detail":"tertiary","min_zoom":5.0,"id":19630},"arcs":[[466],[467]]},{"type":"LineString","properties":{"source":"naturalearthdata.com","kind":"highway","kind_detail":"motorway","sort_rank":383,"landuse_kind":"urban_area","min_zoom":4.0,"id":19631},"arcs":[468]},{"type":"LineString","properties":{"source":"naturalearthdata.com","kind":"highway","sort_rank":383,"kind_detail":"motorway","min_zoom":4.0,"id":19631},"arcs":[469]},{"type":"LineString","properties":{"source":"naturalearthdata.com","kind":"major_road","kind_detail":"secondary","sort_rank":379,"landuse_kind":"urban_area","min_zoom":3.0,"id":19635},"arcs":[470]},{"type":"LineString","properties":{"source":"naturalearthdata.com","kind":"minor_road","kind_detail":"tertiary","sort_rank":355,"landuse_kind":"urban_area","min_zoom":5.0,"id":19669},"arcs":[471]},{"type":"LineString","properties":{"source":"naturalearthdata.com","kind":"minor_road","sort_rank":355,"kind_detail":"tertiary","min_zoom":5.0,"id":19669},"arcs":[472]},{"type":"LineString","properties":{"source":"naturalearthdata.com","kind":"major_road","kind_detail":"secondary","sort_rank":379,"landuse_kind":"urban_area","min_zoom":3.0,"id":19768},"arcs":[473]},{"type":"LineString","properties":{"source":"naturalearthdata.com","kind":"major_road","kind_detail":"secondary","sort_rank":379,"landuse_kind":"urban_area","min_zoom":3.0,"id":19768},"arcs":[474]},{"type":"LineString","properties":{"source":"naturalearthdata.com","kind":"major_road","sort_rank":379,"kind_detail":"secondary","min_zoom":3.0,"id":19768},"arcs":[475]},{"type":"LineString","properties":{"source":"naturalearthdata.com","kind":"highway","kind_detail":"motorway","sort_rank":383,"landuse_kind":"urban_area","min_zoom":4.0,"id":19769},"arcs":[476]},{"type":"LineString","properties":{"source":"naturalearthdata.com","kind":"highway","kind_detail":"motorway","sort_rank":383,"landuse_kind":"urban_area","min_zoom":4.0,"id":19769},"arcs":[477]},{"type":"LineString","properties":{"source":"naturalearthdata.com","kind":"highway","kind_detail":"motorway","sort_rank":383,"landuse_kind":"urban_area","min_zoom":4.0,"id":19769},"arcs":[478]},{"type":"MultiLineString","properties":{"source":"naturalearthdata.com","kind":"highway","sort_rank":383,"kind_detail":"motorway","min_zoom":4.0,"id":19769},"arcs":[[479],[480],[481]]},{"type":"LineString","properties":{"source":"naturalearthdata.com","kind":"minor_road","kind_detail":"tertiary","sort_rank":355,"landuse_kind":"urban_area","min_zoom":5.0,"id":19772},"arcs":[482]},{"type":"LineString","properties":{"source":"naturalearthdata.com","kind":"major_road","kind_detail":"secondary","sort_rank":379,"landuse_kind":"urban_area","min_zoom":4.0,"id":19775},"arcs":[483]},{"type":"LineString","properties":{"source":"naturalearthdata.com","kind":"major_road","kind_detail":"secondary","sort_rank":379,"landuse_kind":"urban_area","min_zoom":4.0,"id":19775},"arcs":[484]},{"type":"LineString","properties":{"source":"naturalearthdata.com","kind":"major_road","sort_rank":379,"kind_detail":"secondary","min_zoom":4.0,"id":19775},"arcs":[485]},{"type":"LineString","properties":{"source":"naturalearthdata.com","kind":"minor_road","kind_detail":"tertiary","sort_rank":355,"landuse_kind":"urban_area","min_zoom":5.0,"id":19783},"arcs":[486]},{"type":"LineString","properties":{"source":"naturalearthdata.com","kind":"major_road","kind_detail":"secondary","sort_rank":379,"landuse_kind":"urban_area","min_zoom":4.0,"id":19788},"arcs":[487]},{"type":"MultiLineString","properties":{"source":"naturalearthdata.com","kind":"major_road","kind_detail":"secondary","sort_rank":379,"landuse_kind":"urban_area","min_zoom":4.0,"id":19789},"arcs":[[488],[489]]},{"type":"MultiLineString","properties":{"source":"naturalearthdata.com","kind":"major_road","sort_rank":379,"kind_detail":"secondary","min_zoom":4.0,"id":19789},"arcs":[[490],[491]]},{"type":"LineString","properties":{"source":"naturalearthdata.com","kind":"minor_road","kind_detail":"tertiary","sort_rank":355,"landuse_kind":"urban_area","min_zoom":5.0,"id":19852},"arcs":[492]},{"type":"LineString","properties":{"source":"naturalearthdata.com","kind":"minor_road","kind_detail":"tertiary","sort_rank":355,"landuse_kind":"urban_area","min_zoom":5.0,"id":19852},"arcs":[493]},{"type":"MultiLineString","properties":{"source":"naturalearthdata.com","kind":"minor_road","sort_rank":355,"kind_detail":"tertiary","min_zoom":5.0,"id":19852},"arcs":[[494],[495]]},{"type":"LineString","properties":{"source":"naturalearthdata.com","kind":"major_road","kind_detail":"secondary","sort_rank":379,"landuse_kind":"urban_area","min_zoom":4.0,"id":19900},"arcs":[496]},{"type":"LineString","properties":{"source":"naturalearthdata.com","kind":"major_road","kind_detail":"secondary","sort_rank":379,"landuse_kind":"urban_area","min_zoom":4.0,"id":19900},"arcs":[497]},{"type":"LineString","properties":{"source":"naturalearthdata.com","kind":"major_road","sort_rank":379,"kind_detail":"secondary","min_zoom":4.0,"id":19900},"arcs":[498]},{"type":"LineString","properties":{"source":"naturalearthdata.com","kind":"major_road","kind_detail":"secondary","sort_rank":379,"landuse_kind":"urban_area","min_zoom":4.0,"id":19901},"arcs":[499]},{"type":"LineString","properties":{"source":"naturalearthdata.com","kind":"major_road","kind_detail":"secondary","sort_rank":379,"landuse_kind":"urban_area","min_zoom":4.0,"id":19927},"arcs":[500]},{"type":"LineString","properties":{"source":"naturalearthdata.com","kind":"major_road","kind_detail":"secondary","sort_rank":379,"landuse_kind":"urban_area","min_zoom":4.0,"id":19927},"arcs":[501]},{"type":"LineString","properties":{"source":"naturalearthdata.com","kind":"major_road","sort_rank":379,"kind_detail":"secondary","min_zoom":4.0,"id":19927},"arcs":[502]},{"type":"MultiLineString","properties":{"source":"naturalearthdata.com","kind":"major_road","kind_detail":"secondary","sort_rank":379,"landuse_kind":"urban_area","min_zoom":4.0,"id":19938},"arcs":[[503],[504]]},{"type":"LineString","properties":{"source":"naturalearthdata.com","kind":"major_road","kind_detail":"secondary","sort_rank":379,"landuse_kind":"urban_area","min_zoom":4.0,"id":19938},"arcs":[505]},{"type":"MultiLineString","properties":{"source":"naturalearthdata.com","kind":"major_road","sort_rank":379,"kind_detail":"secondary","min_zoom":4.0,"id":19938},"arcs":[[506],[507]]},{"type":"LineString","properties":{"source":"naturalearthdata.com","kind":"minor_road","kind_detail":"tertiary","sort_rank":355,"landuse_kind":"urban_area","min_zoom":5.0,"id":19968},"arcs":[508]},{"type":"LineString","properties":{"source":"naturalearthdata.com","kind":"minor_road","sort_rank":355,"kind_detail":"tertiary","min_zoom":5.0,"id":19968},"arcs":[509]},{"type":"LineString","properties":{"source":"naturalearthdata.com","kind":"highway","kind_detail":"motorway","sort_rank":383,"landuse_kind":"urban_area","min_zoom":3.0,"id":19999},"arcs":[510]},{"type":"LineString","properties":{"source":"naturalearthdata.com","kind":"highway","sort_rank":383,"kind_detail":"motorway","min_zoom":3.0,"id":19999},"arcs":[511]},{"type":"LineString","properties":{"source":"naturalearthdata.com","kind":"minor_road","kind_detail":"tertiary","sort_rank":355,"landuse_kind":"urban_area","min_zoom":5.0,"id":20014},"arcs":[512]},{"type":"LineString","properties":{"source":"naturalearthdata.com","kind":"major_road","kind_detail":"secondary","sort_rank":379,"landuse_kind":"urban_area","min_zoom":4.0,"id":20025},"arcs":[513]},{"type":"LineString","properties":{"source":"naturalearthdata.com","kind":"major_road","kind_detail":"secondary","sort_rank":379,"landuse_kind":"urban_area","min_zoom":4.0,"id":20025},"arcs":[514]},{"type":"LineString","properties":{"source":"naturalearthdata.com","kind":"major_road","kind_detail":"secondary","sort_rank":379,"landuse_kind":"urban_area","min_zoom":4.0,"id":20025},"arcs":[515]},{"type":"MultiLineString","properties":{"source":"naturalearthdata.com","kind":"major_road","sort_rank":379,"kind_detail":"secondary","min_zoom":4.0,"id":20025},"arcs":[[516],[517]]},{"type":"MultiLineString","properties":{"source":"naturalearthdata.com","kind":"minor_road","kind_detail":"tertiary","sort_rank":355,"landuse_kind":"urban_area","min_zoom":5.0,"id":20031},"arcs":[[518],[519]]},{"type":"LineString","properties":{"source":"naturalearthdata.com","kind":"minor_road","kind_detail":"tertiary","sort_rank":355,"landuse_kind":"urban_area","min_zoom":5.0,"id":20031},"arcs":[520]},{"type":"MultiLineString","properties":{"source":"naturalearthdata.com","kind":"minor_road","sort_rank":355,"kind_detail":"tertiary","min_zoom":5.0,"id":20031},"arcs":[[521],[522]]},{"type":"LineString","properties":{"source":"naturalearthdata.com","kind":"minor_road","kind_detail":"tertiary","sort_rank":355,"landuse_kind":"urban_area","min_zoom":5.0,"id":20041},"arcs":[523]},{"type":"LineString","properties":{"source":"naturalearthdata.com","kind":"minor_road","kind_detail":"tertiary","sort_rank":355,"landuse_kind":"urban_area","min_zoom":5.0,"id":20041},"arcs":[524]},{"type":"MultiLineString","properties":{"source":"naturalearthdata.com","kind":"minor_road","sort_rank":355,"kind_detail":"tertiary","min_zoom":5.0,"id":20041},"arcs":[[525],[526]]},{"type":"LineString","properties":{"source":"naturalearthdata.com","kind":"minor_road","kind_detail":"tertiary","sort_rank":355,"landuse_kind":"urban_area","min_zoom":5.0,"id":20053},"arcs":[527]},{"type":"LineString","properties":{"source":"naturalearthdata.com","kind":"minor_road","kind_detail":"tertiary","sort_rank":355,"landuse_kind":"urban_area","min_zoom":5.0,"id":20053},"arcs":[528]},{"type":"LineString","properties":{"source":"naturalearthdata.com","kind":"minor_road","sort_rank":355,"kind_detail":"tertiary","min_zoom":5.0,"id":20053},"arcs":[529]},{"type":"MultiLineString","properties":{"source":"naturalearthdata.com","kind":"minor_road","kind_detail":"tertiary","sort_rank":355,"landuse_kind":"urban_area","min_zoom":5.0,"id":20067},"arcs":[[530],[531]]},{"type":"MultiLineString","properties":{"source":"naturalearthdata.com","kind":"minor_road","sort_rank":355,"kind_detail":"tertiary","min_zoom":5.0,"id":20067},"arcs":[[532],[533]]},{"type":"LineString","properties":{"source":"naturalearthdata.com","kind":"major_road","kind_detail":"secondary","sort_rank":379,"landuse_kind":"urban_area","min_zoom":4.0,"id":20097},"arcs":[534]},{"type":"LineString","properties":{"source":"naturalearthdata.com","kind":"major_road","kind_detail":"secondary","sort_rank":379,"landuse_kind":"urban_area","min_zoom":4.0,"id":20097},"arcs":[535]},{"type":"MultiLineString","properties":{"source":"naturalearthdata.com","kind":"major_road","sort_rank":379,"kind_detail":"secondary","min_zoom":4.0,"id":20097},"arcs":[[536],[537]]},{"type":"LineString","properties":{"source":"naturalearthdata.com","kind":"highway","kind_detail":"motorway","sort_rank":383,"landuse_kind":"urban_area","min_zoom":3.0,"id":20120},"arcs":[538]},{"type":"LineString","properties":{"source":"naturalearthdata.com","kind":"highway","sort_rank":383,"kind_detail":"motorway","min_zoom":3.0,"id":20120},"arcs":[539]},{"type":"LineString","properties":{"source":"naturalearthdata.com","kind":"minor_road","kind_detail":"tertiary","sort_rank":355,"landuse_kind":"urban_area","min_zoom":5.0,"id":20127},"arcs":[540]},{"type":"LineString","properties":{"source":"naturalearthdata.com","kind":"minor_road","sort_rank":355,"kind_detail":"tertiary","min_zoom":5.0,"id":20127},"arcs":[541]},{"type":"LineString","properties":{"source":"naturalearthdata.com","kind":"major_road","kind_detail":"secondary","sort_rank":379,"landuse_kind":"urban_area","min_zoom":4.0,"id":20153},"arcs":[542]},{"type":"LineString","properties":{"source":"naturalearthdata.com","kind":"major_road","sort_rank":379,"kind_detail":"secondary","min_zoom":4.0,"id":20153},"arcs":[543]},{"type":"LineString","properties":{"source":"naturalearthdata.com","kind":"major_road","kind_detail":"secondary","sort_rank":379,"landuse_kind":"urban_area","min_zoom":4.0,"id":20283},"arcs":[544]},{"type":"LineString","properties":{"source":"naturalearthdata.com","kind":"major_road","kind_detail":"secondary","sort_rank":379,"landuse_kind":"urban_area","min_zoom":4.0,"id":20283},"arcs":[545]},{"type":"LineString","properties":{"source":"naturalearthdata.com","kind":"major_road","sort_rank":379,"kind_detail":"secondary","min_zoom":4.0,"id":20283},"arcs":[546]},{"type":"LineString","properties":{"source":"naturalearthdata.com","kind":"highway","kind_detail":"motorway","sort_rank":383,"landuse_kind":"urban_area","min_zoom":3.0,"id":20518},"arcs":[547]},{"type":"MultiLineString","properties":{"source":"naturalearthdata.com","kind":"highway","sort_rank":383,"kind_detail":"motorway","min_zoom":3.0,"id":20518},"arcs":[[548],[549]]},{"type":"LineString","properties":{"source":"naturalearthdata.com","kind":"minor_road","sort_rank":355,"kind_detail":"tertiary","min_zoom":6.0,"id":20644},"arcs":[550]},{"type":"LineString","properties":{"source":"naturalearthdata.com","kind":"major_road","sort_rank":379,"kind_detail":"secondary","min_zoom":3.0,"id":20684},"arcs":[551]},{"type":"LineString","properties":{"source":"naturalearthdata.com","kind":"major_road","kind_detail":"secondary","sort_rank":379,"landuse_kind":"urban_area","min_zoom":4.0,"id":20710},"arcs":[552]},{"type":"LineString","properties":{"source":"naturalearthdata.com","kind":"major_road","kind_detail":"secondary","sort_rank":379,"landuse_kind":"urban_area","min_zoom":4.0,"id":20710},"arcs":[553]},{"type":"MultiLineString","properties":{"source":"naturalearthdata.com","kind":"major_road","sort_rank":379,"kind_detail":"secondary","min_zoom":4.0,"id":20710},"arcs":[[554],[555]]},{"type":"LineString","properties":{"source":"naturalearthdata.com","kind":"major_road","sort_rank":379,"kind_detail":"secondary","min_zoom":3.0,"id":20711},"arcs":[556]},{"type":"LineString","properties":{"source":"naturalearthdata.com","kind":"minor_road","sort_rank":355,"kind_detail":"tertiary","min_zoom":6.0,"id":21076},"arcs":[557]},{"type":"LineString","properties":{"source":"naturalearthdata.com","kind":"major_road","sort_rank":379,"kind_detail":"secondary","min_zoom":3.0,"id":21160},"arcs":[558]},{"type":"LineString","properties":{"source":"naturalearthdata.com","kind":"major_road","sort_rank":379,"kind_detail":"secondary","min_zoom":3.0,"id":21161},"arcs":[559]},{"type":"LineString","properties":{"source":"naturalearthdata.com","kind":"major_road","kind_detail":"secondary","sort_rank":379,"landuse_kind":"urban_area","min_zoom":3.0,"id":21237},"arcs":[560]},{"type":"LineString","properties":{"source":"naturalearthdata.com","kind":"major_road","sort_rank":379,"kind_detail":"secondary","min_zoom":3.0,"id":21237},"arcs":[561]},{"type":"LineString","properties":{"source":"naturalearthdata.com","kind":"major_road","kind_detail":"secondary","sort_rank":379,"landuse_kind":"urban_area","min_zoom":3.0,"id":21244},"arcs":[562]},{"type":"LineString","properties":{"source":"naturalearthdata.com","kind":"major_road","kind_detail":"secondary","sort_rank":379,"landuse_kind":"urban_area","min_zoom":3.0,"id":21244},"arcs":[563]},{"type":"LineString","properties":{"source":"naturalearthdata.com","kind":"major_road","sort_rank":379,"kind_detail":"secondary","min_zoom":3.0,"id":21244},"arcs":[564]},{"type":"LineString","properties":{"source":"naturalearthdata.com","kind":"major_road","kind_detail":"secondary","sort_rank":379,"landuse_kind":"urban_area","min_zoom":3.0,"id":21248},"arcs":[565]},{"type":"LineString","properties":{"source":"naturalearthdata.com","kind":"major_road","sort_rank":379,"kind_detail":"secondary","min_zoom":3.0,"id":21248},"arcs":[566]},{"type":"LineString","properties":{"source":"naturalearthdata.com","kind":"major_road","sort_rank":379,"kind_detail":"secondary","min_zoom":3.0,"id":21272},"arcs":[567]},{"type":"LineString","properties":{"source":"naturalearthdata.com","kind":"major_road","sort_rank":379,"kind_detail":"secondary","min_zoom":3.0,"id":21388},"arcs":[568]},{"type":"LineString","properties":{"source":"naturalearthdata.com","kind":"major_road","kind_detail":"secondary","sort_rank":379,"landuse_kind":"urban_area","min_zoom":4.0,"id":21579},"arcs":[569]},{"type":"MultiLineString","properties":{"source":"naturalearthdata.com","kind":"major_road","kind_detail":"secondary","sort_rank":379,"landuse_kind":"urban_area","min_zoom":4.0,"id":21579},"arcs":[[570],[571]]},{"type":"LineString","properties":{"source":"naturalearthdata.com","kind":"major_road","kind_detail":"secondary","sort_rank":379,"landuse_kind":"urban_area","min_zoom":4.0,"id":21579},"arcs":[572]},{"type":"MultiLineString","properties":{"source":"naturalearthdata.com","kind":"major_road","kind_detail":"secondary","sort_rank":379,"landuse_kind":"urban_area","min_zoom":4.0,"id":21579},"arcs":[[573],[574]]},{"type":"LineString","properties":{"source":"naturalearthdata.com","kind":"major_road","kind_detail":"secondary","sort_rank":379,"landuse_kind":"urban_area","min_zoom":4.0,"id":21579},"arcs":[575]},{"type":"MultiLineString","properties":{"source":"naturalearthdata.com","kind":"major_road","sort_rank":379,"kind_detail":"secondary","min_zoom":4.0,"id":21579},"arcs":[[576],[577],[578],[579],[580],[581],[582]]},{"type":"LineString","properties":{"source":"naturalearthdata.com","kind":"major_road","sort_rank":379,"kind_detail":"secondary","min_zoom":3.0,"id":21599},"arcs":[583]},{"type":"LineString","properties":{"source":"naturalearthdata.com","kind":"major_road","sort_rank":379,"kind_detail":"secondary","min_zoom":4.0,"id":21674},"arcs":[584]},{"type":"LineString","properties":{"source":"naturalearthdata.com","kind":"highway","sort_rank":383,"kind_detail":"motorway","min_zoom":3.0,"id":21794},"arcs":[585]},{"type":"LineString","properties":{"source":"naturalearthdata.com","kind":"major_road","sort_rank":379,"kind_detail":"secondary","min_zoom":3.0,"id":21894},"arcs":[586]},{"type":"LineString","properties":{"source":"naturalearthdata.com","kind":"major_road","sort_rank":379,"kind_detail":"secondary","min_zoom":3.0,"id":21913},"arcs":[587]},{"type":"LineString","properties":{"source":"naturalearthdata.com","kind":"major_road","sort_rank":379,"kind_detail":"secondary","min_zoom":4.0,"id":21931},"arcs":[588]},{"type":"LineString","properties":{"source":"naturalearthdata.com","kind":"major_road","sort_rank":379,"kind_detail":"secondary","min_zoom":3.0,"id":21944},"arcs":[589]},{"type":"LineString","properties":{"source":"naturalearthdata.com","kind":"major_road","sort_rank":379,"kind_detail":"secondary","min_zoom":4.0,"id":22298},"arcs":[590]},{"type":"LineString","properties":{"source":"naturalearthdata.com","kind":"major_road","sort_rank":379,"kind_detail":"secondary","min_zoom":4.0,"id":22394},"arcs":[591]},{"type":"LineString","properties":{"source":"naturalearthdata.com","kind":"minor_road","sort_rank":355,"kind_detail":"tertiary","min_zoom":5.0,"id":22674},"arcs":[592]},{"type":"LineString","properties":{"source":"naturalearthdata.com","kind":"major_road","sort_rank":379,"kind_detail":"secondary","min_zoom":4.0,"id":22710},"arcs":[593]},{"type":"LineString","properties":{"source":"naturalearthdata.com","kind":"minor_road","sort_rank":355,"kind_detail":"tertiary","min_zoom":5.0,"id":22713},"arcs":[594]},{"type":"LineString","properties":{"source":"naturalearthdata.com","kind":"major_road","sort_rank":379,"kind_detail":"secondary","min_zoom":4.0,"id":22716},"arcs":[595]},{"type":"LineString","properties":{"source":"naturalearthdata.com","kind":"major_road","sort_rank":379,"kind_detail":"secondary","min_zoom":4.0,"id":22726},"arcs":[596]},{"type":"LineString","properties":{"source":"naturalearthdata.com","kind":"major_road","sort_rank":379,"kind_detail":"secondary","min_zoom":4.0,"id":22735},"arcs":[597]},{"type":"LineString","properties":{"source":"naturalearthdata.com","kind":"major_road","sort_rank":379,"kind_detail":"secondary","min_zoom":4.0,"id":22741},"arcs":[598]},{"type":"LineString","properties":{"source":"naturalearthdata.com","kind":"major_road","sort_rank":379,"kind_detail":"secondary","min_zoom":4.0,"id":22762},"arcs":[599]},{"type":"LineString","properties":{"source":"naturalearthdata.com","kind":"major_road","sort_rank":379,"kind_detail":"secondary","min_zoom":4.0,"id":22795},"arcs":[600]},{"type":"LineString","properties":{"source":"naturalearthdata.com","kind":"major_road","sort_rank":379,"kind_detail":"secondary","min_zoom":4.0,"id":22804},"arcs":[601]},{"type":"LineString","properties":{"source":"naturalearthdata.com","kind":"major_road","sort_rank":379,"kind_detail":"secondary","min_zoom":4.0,"id":22853},"arcs":[602]},{"type":"LineString","properties":{"source":"naturalearthdata.com","kind":"major_road","sort_rank":379,"kind_detail":"secondary","min_zoom":4.0,"id":22854},"arcs":[603]},{"type":"LineString","properties":{"source":"naturalearthdata.com","kind":"minor_road","sort_rank":355,"kind_detail":"tertiary","min_zoom":5.0,"id":23280},"arcs":[604]},{"type":"LineString","properties":{"source":"naturalearthdata.com","kind":"major_road","sort_rank":379,"kind_detail":"secondary","min_zoom":4.0,"id":23445},"arcs":[605]}]},"earth":{"type":"GeometryCollection","geometries":[{"type":"Polygon","properties":{"sort_rank":10,"source":"naturalearthdata.com","min_zoom":0.0,"kind":"earth","area":1568366174169},"arcs":[[606]]}]},"landuse":{"type":"GeometryCollection","geometries":[{"type":"MultiPolygon","properties":{"source":"naturalearthdata.com","kind":"urban_area","name":"","area":22901383634,"sort_rank":11,"min_zoom":4.0},"arcs":[[[607]],[[608]],[[609]],[[610]],[[611]],[[612]],[[613]],[[614]],[[615]],[[616]],[[617]],[[618]],[[619]],[[620]],[[621]],[[622]],[[623]],[[624]],[[625]],[[626]],[[627]],[[628]],[[629]],[[630]],[[631]],[[632]],[[633]],[[634]],[[635]],[[636]],[[637]],[[638]],[[639]],[[640]],[[641]],[[642]],[[643]],[[644]],[[645]],[[646]],[[647]],[[648]],[[649]],[[650]],[[651]],[[652]],[[653]],[[654]],[[655]],[[656]],[[657]],[[658]],[[659]],[[660]],[[661]],[[662]],[[663]],[[664]],[[665]],[[666]],[[667],[668]],[[669]],[[670]],[[671]],[[672]],[[673]],[[674]],[[675]],[[676]],[[677]],[[678]],[[679]],[[680]],[[681]],[[682]],[[683]],[[684]],[[685]],[[686]],[[687]],[[688],[689]]]},{"type":"Polygon","properties":{"source":"openstreetmap.org","kind":"park","tier":2,"area":883810692,"sort_rank":24,"min_zoom":6.0},"arcs":[[690]]}]}},"type":"Topology","transform":{"translate":[67.5,36.5978891331],"scale":[0.001373291,0.0010698264]},"arcs":[[[3089,3087],[11,2],[7,12],[17,60],[-3,9]],[[3121,3170],[-19,-5],[-26,-20],[-13,-6],[-18,-1],[-12,-14],[7,-13],[16,-11],[14,-7],[19,-6]],[[2290,4054],[-1,16],[-9,23],[-2,3]],[[2243,4096],[20,-27],[13,-12],[14,-3]],[[2677,3219],[-5,1],[-3,2],[-2,2],[-41,17],[-20,13],[-12,15],[-10,26],[-13,22],[-16,11]],[[2555,3328],[-23,-13],[-13,-29],[-4,-16],[-1,-16],[4,-15],[18,-39],[9,-12],[9,-5],[20,-4],[8,-6],[3,-28],[-31,-48],[1,-24],[10,-4]],[[2631,3063],[35,9],[24,0],[10,4],[8,11],[2,29],[-32,34],[-2,24],[12,12],[33,23],[5,15],[-5,8],[-9,2]],[[2712,3234],[-19,-5],[-4,-2],[-8,-6],[-4,-2]],[[2593,3090],[14,0],[3,-8],[2,-11],[9,-7],[10,-1]],[[2565,3069],[10,6],[10,10],[8,5]],[[2585,1693],[-8,6],[-4,8],[-6,17],[-5,7],[-7,8],[-8,7],[-8,5],[-9,2]],[[2530,1753],[-17,0],[-6,-7],[3,-21],[-8,-10]],[[2502,1715],[-17,5],[-30,14]],[[2455,1734],[-9,-1],[-4,-4],[-3,-4],[-5,-3]],[[2434,1722],[-6,0],[-12,5],[-7,1],[-23,0]],[[2386,1728],[-11,-3],[-5,-6],[-9,-16],[-43,-5],[-13,-8],[0,-7],[14,-11],[-6,-11],[-26,-19],[-6,-4]],[[2741,1240],[-4,2],[-3,12],[1,10],[7,21],[5,24],[22,41],[10,38],[13,27],[5,27],[13,41],[4,21],[-5,41],[-17,28],[-25,17],[-60,25],[-45,47],[-28,21],[-20,11],[-9,2]],[[2605,1696],[-9,0],[-6,-3],[-5,0]],[[2281,1638],[-17,1]],[[2264,1639],[-7,-4],[-3,-8],[0,-10],[1,-10],[0,-7],[-10,-32],[-7,-4],[-10,-3],[-9,-5],[-7,-23],[-21,-42],[-19,-52],[-9,-16],[-8,-7],[-24,-11],[-8,-6],[-32,-34],[-33,-44],[-6,-5],[-14,-7],[-4,-2],[-3,-5],[-4,-8],[-8,-4],[-9,-1],[-5,-3],[-2,-9],[0,-8],[2,-8],[6,-7],[-17,-7],[-17,-3]],[[3058,75],[-34,8],[-30,17],[-25,27],[-10,16],[-8,17],[-5,20],[-5,43],[-8,18],[-41,69],[-6,17],[-2,21],[0,38],[-3,11],[-13,20],[-4,10],[-1,11],[1,57],[6,38],[4,14],[5,9],[-3,22],[27,47],[1,27],[4,11],[2,20],[-1,39],[-6,36],[3,14],[8,21],[7,37],[-10,75],[3,41],[2,6],[9,12],[4,8],[2,9],[3,29],[8,29],[2,9],[-2,11],[-7,20],[-1,8],[6,17],[27,18],[11,16],[3,17],[1,22],[-1,21],[-3,11],[6,7],[-22,27],[-22,16],[-26,1]],[[2914,1260],[-89,-31],[-14,-10],[-14,-8]],[[1977,1244],[-17,4],[-14,12]],[[1946,1260],[-9,-24],[4,-28],[10,-28],[12,-19],[9,-4],[23,-8],[5,-7],[2,-14],[5,-12],[7,-10],[7,-6],[-4,-11],[1,-13],[8,-28],[1,-13],[-2,-9],[-3,-7],[-1,-12],[-9,-13],[-4,-3],[-3,-3],[0,-8],[1,-8],[-1,-7],[-4,-6],[-1,-2],[-4,-4]],[[2797,1211],[-16,7],[-27,22],[-8,2]],[[2746,1242],[-5,-2]],[[1855,882],[-22,4],[-7,3],[-3,2],[-4,4],[-2,6],[-4,5],[-10,2],[-15,6],[-8,13],[-7,15],[-12,11],[-17,1]],[[1744,954],[-30,-16],[-15,-4],[-7,-4],[-8,-7],[-8,-4]],[[1996,953],[-3,1]],[[1993,954],[-13,-1],[-2,0],[-11,-28],[-1,-8],[-5,-3],[-26,-32],[-21,-9]],[[1676,919],[-7,5],[-6,4],[-16,5],[-5,1]],[[1642,934],[-18,-3],[-31,-13],[-17,-4]],[[1576,914],[-99,10]],[[1477,924],[-14,-7],[-13,-39],[-16,-16],[-32,-24],[-3,-5],[-4,-11],[-3,-4],[-6,-6],[-10,-7],[-4,-5],[-4,-15],[-2,-18],[1,-35],[1,-4],[7,-2],[2,-4],[0,-5],[-2,-1],[-2,-1],[-1,-2],[1,-9],[1,-9],[2,-8],[4,-6],[6,-14],[5,-32],[6,-9],[-6,-21],[12,-5],[13,-3],[-2,-12],[-25,-43],[-12,-12],[-29,-19],[-12,-15],[-8,-7],[-8,-3],[-3,-1],[-17,-4],[-14,-7],[-15,-1]],[[1914,873],[-21,4],[-22,8],[-20,4]],[[1851,889],[4,-7]],[[4096,729],[-6,-8],[-13,-27],[-8,-13],[-15,-11],[-52,-5],[-52,-32],[-16,-20],[-18,-6],[-34,-7],[-29,-18],[-22,-31],[-34,-72],[-30,-49],[-5,-18],[-6,-9],[-109,-17],[-24,-12]],[[1271,473],[-69,48],[-4,2],[-16,11],[-6,8],[-14,33],[-13,11],[-16,11],[-15,14],[-10,34],[-12,16],[-14,14],[-15,9],[-50,6],[-2,1],[-4,1]],[[1011,692],[-2,-3],[3,-11],[5,-6],[12,-9],[3,-4],[3,-14],[-4,-8],[-8,-3]],[[1023,634],[-11,5],[-9,14],[-7,15],[-8,12],[-15,4]],[[973,684],[-16,-6],[-3,-10],[9,-29],[2,-20],[-4,-9]],[[893,632],[-29,5]],[[864,637],[-13,-1],[-8,-10],[4,-4],[2,-4],[4,-11],[-17,-3],[-8,-13],[-5,-15],[-2,-7],[-14,-2],[-27,-9],[-14,-2],[-4,-4],[-10,-18],[-6,-4],[-8,-1],[-35,-8],[-45,-3],[10,-22],[-4,-14],[-15,-8],[-19,-2]],[[961,610],[-8,1],[-27,18],[-9,4],[-9,1]],[[908,634],[-15,-2]],[[388,306],[-6,0],[-3,0],[-7,5],[-3,8],[-3,8],[-5,8],[-25,31],[-6,6],[-17,10],[-8,7],[-12,19],[-8,16],[-10,12],[-33,8],[-18,10],[-16,12],[-9,13],[-1,14],[6,59]],[[630,472],[-14,4],[-14,6],[-14,1]],[[588,483],[-14,-11],[-5,-15],[0,-19],[5,-39],[-8,-14]],[[566,385],[-17,0],[-30,11]],[[519,396],[-19,-3],[-14,-11],[-11,-13],[-14,-6],[-9,-6],[-48,-42],[-7,-5],[-9,-4]],[[3623,374],[-51,9]],[[3572,383],[-32,-7],[-74,-31],[-29,-20],[-7,-8],[-11,-17],[-6,-7],[-25,-15],[-19,-21],[-211,-162],[-29,-13],[-35,-7],[-36,0]],[[45,581],[-12,11],[-14,39],[-17,8]],[[2,639],[-2,0]],[[138,593],[-9,1],[-8,4],[-16,13],[-8,2]],[[97,613],[-8,-1],[-14,-4],[-8,-1],[-4,-4],[-5,-10],[-5,-9],[-8,-3]],[[204,552],[-3,18],[-9,12],[-12,8],[-16,4]],[[164,594],[-26,-1]],[[878,4096],[-5,-5],[-7,-9],[-22,-10],[-7,-2],[-16,-7],[-10,-7],[-10,-7],[-4,-11],[-4,-11]],[[700,3727],[-85,44],[-57,29],[-29,15],[-25,18],[-24,19],[-33,32],[-34,33],[-11,6],[-11,6],[-14,3],[-15,3],[-2,2],[-3,1],[2,4],[1,4],[3,2],[3,3],[13,6],[13,6],[6,4],[6,5],[5,6],[6,6],[4,6],[4,6],[5,12],[6,12],[5,16],[6,15],[3,16],[4,15],[0,14]],[[793,4027],[-2,2],[-1,1],[-4,1],[-3,1],[-2,1],[-1,1]],[[780,4034],[0,-5],[0,-5],[0,-11],[1,-10],[0,-5],[0,-4],[-3,-6],[-2,-5],[-3,-2],[-2,-1],[-2,-3],[-2,-2],[-1,-7],[-2,-7],[4,-40],[4,-39],[2,-9],[2,-8],[3,-4],[4,-4],[3,-2],[4,-2],[9,-2],[9,-2],[0,-6],[-1,-5],[2,-6],[1,-6],[2,-6],[3,-6],[3,-5],[3,-5],[-1,-3],[0,-4],[-9,-14],[-9,-14],[7,-4],[7,-3],[-2,-6],[-3,-7],[-7,-4],[-8,-5]],[[796,3740],[-10,2],[-10,1],[-14,7],[-15,7],[-4,1],[-4,1]],[[739,3759],[-3,-2],[-4,-3],[-2,-4],[-2,-4],[-3,-3],[-2,-3]],[[723,3740],[-6,0],[-5,0]],[[712,3740],[-5,-4],[-4,-5],[-1,-2],[-2,-2]],[[3998,228],[9,4],[17,12],[12,5],[60,7]],[[3966,238],[22,-10],[10,0]],[[3844,214],[65,3],[21,6],[17,10],[19,5]],[[3784,223],[60,-9]],[[3592,145],[15,5],[46,39],[35,19],[47,12],[49,3]],[[3559,148],[33,-3]],[[3317,0],[1,4],[-3,8],[-1,7],[6,8],[8,5],[19,6],[42,6],[13,8],[-5,15],[-11,18],[3,12],[11,9],[32,14],[65,15],[32,2],[30,11]],[[3787,3987],[-31,4],[-28,12],[-23,24],[-31,47],[-14,5],[-18,2],[-13,6],[0,9]],[[3911,3945],[1,15],[-3,28],[-28,7]],[[3881,3995],[-94,-8]],[[4044,3962],[-15,10],[-10,14],[-12,7]],[[4007,3993],[-53,-24],[-34,-23],[-9,-1]],[[3801,3708],[21,10],[8,62],[18,26],[25,11],[53,13],[62,38],[68,25],[35,19],[5,6]],[[4096,3962],[-9,2]],[[4087,3964],[-43,-2]],[[3555,3752],[24,-21],[24,-27],[21,-10],[28,-4],[51,-34]],[[3547,3541],[17,3],[15,20],[7,24],[1,21],[0,1],[-4,10],[-4,8],[-31,22],[-7,9],[0,10],[5,16],[0,16],[0,1],[-15,25],[2,16],[22,9]],[[3760,3720],[14,0],[27,-12]],[[3703,3656],[29,1],[11,9],[7,11],[4,14],[1,14],[5,15]],[[3449,3610],[13,-2],[7,-5],[-3,-9],[-11,-4],[-12,-1],[-9,-2],[-3,-9],[9,-3]],[[3280,3402],[11,2],[4,11],[-4,7],[-5,3],[-5,3],[-21,10],[-14,10],[-5,14],[4,13],[63,32],[20,18],[10,27],[4,17],[7,10],[49,26],[12,3],[33,2],[6,0]],[[3473,3576],[11,-3],[43,-25],[20,-7]],[[3440,3575],[33,1]],[[2733,3483],[8,-5],[6,-10],[8,-9],[10,-4],[12,-1]],[[2672,3424],[23,3],[10,15],[7,21],[11,17],[10,3]],[[2800,3456],[15,-1],[22,-21],[33,-10],[7,-11],[6,-14],[13,-13],[16,-9],[16,-6],[34,-7]],[[2777,3454],[23,2]],[[2587,3436],[85,-12]],[[2519,3403],[26,26],[42,7]],[[3006,3422],[13,-11],[10,-21],[5,-19],[0,-38],[5,-15],[14,-6]],[[2962,3364],[18,2],[7,10],[1,16],[5,18],[13,12]],[[3184,3414],[29,-6],[29,-3]],[[3053,3312],[11,3],[38,22],[12,11],[8,13],[13,30],[23,22],[26,1]],[[3254,3409],[6,-2],[9,-3],[11,-2]],[[3242,3405],[8,3],[4,1]],[[2519,3403],[15,-23],[-12,-23],[-25,-17],[-22,-8]],[[1943,3303],[-15,5],[-104,67],[-26,3]],[[1798,3378],[-287,-101],[-12,-2]],[[2475,3332],[-39,9]],[[2436,3341],[-10,-4],[-5,-4],[-13,-7]],[[2408,3326],[-1,1],[-2,3],[-4,1]],[[2401,3331],[-4,0],[-2,-2],[-5,-6],[-28,-24],[-10,-6],[-47,-16],[-19,-18],[-3,-23],[1,-29],[-7,-33],[-9,-17],[-13,-13],[-15,-9],[-15,-5],[-31,-1],[-9,-5],[-5,-8],[-6,-20],[-6,-9]],[[2168,3087],[-16,6],[-5,12],[2,17],[7,17],[9,13],[11,8],[12,6],[12,8],[10,21],[-7,17],[-17,11],[-18,6],[-58,8],[-28,12],[-25,4],[-14,6],[-11,13],[-9,13],[-11,11],[-16,8],[-16,1]],[[1980,3305],[-37,-2]],[[1499,3275],[-11,1],[-5,5],[-8,14],[-6,2]],[[1469,3297],[-3,-4],[-3,-16],[-2,-6],[-15,-22],[-12,-21],[-4,-24],[5,-30],[3,-5],[2,-6],[0,-6],[0,-7],[17,-30],[1,-12],[-71,-25]],[[1387,3083],[-35,59],[-21,24],[-10,2]],[[1321,3168],[-3,-2],[0,-6],[-3,-9],[-14,-31],[-33,-100],[-9,-36],[-2,-37],[5,-17],[11,-12],[13,-11],[10,-13],[6,-15],[2,-18],[-3,-111],[10,-23]],[[1967,2824],[7,-9],[3,-17],[0,-16],[-8,-34],[1,-13],[13,-4]],[[1917,2759],[12,4],[6,9],[20,44],[12,8]],[[2883,2817],[25,-14],[12,-11],[1,-1],[10,-14],[5,-15],[-4,-14],[-19,-27],[-6,-14],[15,-33],[30,-14],[36,-1]],[[2730,2726],[8,6],[23,26],[10,8],[26,14],[5,4],[10,11],[5,3],[7,3],[21,3],[25,12],[13,1]],[[2168,2807],[10,-4],[16,-14],[10,-6],[12,-1]],[[2100,2779],[5,3],[3,5],[5,5],[7,2],[12,3],[23,9],[13,1]],[[2243,2787],[13,-2],[17,-13],[11,-20],[14,-44],[0,-1],[8,-7],[17,-7],[7,-6],[4,-13],[-2,-13],[-3,-12],[0,-12],[11,-19],[19,-12],[22,-4]],[[2216,2782],[27,5]],[[1580,2785],[30,-3],[28,-10],[31,-17],[28,-8]],[[1440,2741],[14,2],[13,5],[12,7],[25,21],[12,5],[64,4]],[[2070,2785],[8,-1],[15,-5],[7,0]],[[1983,2731],[13,3],[65,47],[9,4]],[[1850,2781],[16,0],[15,-3],[24,-14],[12,-5]],[[1805,2745],[6,5],[11,16],[13,11],[15,4]],[[1356,2762],[4,-3],[17,-18],[15,-5]],[[1311,2727],[29,12],[4,7],[2,7],[3,6],[7,3]],[[1753,2758],[30,-3],[22,-10]],[[1697,2747],[56,11]],[[1424,2741],[16,0]],[[1392,2736],[32,5]],[[2680,2734],[41,-8],[9,0]],[[2532,2614],[23,12],[14,26],[10,31],[15,26],[24,15],[31,8],[31,2]],[[3076,2675],[12,-11],[6,-21],[2,-24],[-3,-19],[-8,-14],[-10,-10],[-7,-11],[-2,-20],[6,-18],[10,-15],[14,-10],[14,-5]],[[2988,2659],[74,15],[14,1]],[[2478,2639],[16,-8],[18,-11],[20,-6]],[[2450,2620],[6,2],[9,10],[13,7]],[[2443,2621],[7,-1]],[[2381,2602],[20,4],[22,12],[9,3],[11,0]],[[3738,2614],[12,-1],[135,-35]],[[3696,2581],[8,5],[14,18],[8,6],[12,4]],[[3655,2596],[11,-3],[18,-12],[12,0]],[[3612,2567],[12,2],[23,24],[8,3]],[[4057,2592],[9,-3],[13,-6],[17,-5]],[[4001,2570],[11,1],[36,19],[9,2]],[[3313,2590],[13,-10],[8,-20],[4,-24],[1,-19],[7,-15],[15,-6],[31,-5],[6,-4],[12,-9],[15,-8],[2,-5],[0,-8],[2,-9],[7,-15],[7,-11]],[[3110,2497],[26,3],[27,12],[72,50],[12,7],[27,5],[26,14],[13,2]],[[3928,2585],[15,-1],[45,-9],[13,-5]],[[3885,2578],[11,1],[32,6]],[[3576,2574],[24,-6],[12,-1]],[[3443,2422],[9,1],[30,65],[16,50],[9,15],[13,4],[16,2],[27,14],[13,1]],[[2173,3070],[11,0]],[[2244,2962],[-4,3],[-21,35],[-7,9],[-25,17],[-10,14],[-5,16],[1,14]],[[2184,3070],[88,-30],[25,0]],[[2320,3050],[9,-2],[6,-17],[-1,-17],[-8,-7],[-24,-5],[-21,-10],[-37,-30]],[[2297,3040],[23,10]],[[2332,3917],[2,18],[-6,8],[-133,146],[-8,7]],[[2075,4096],[-10,-49],[-40,-47],[-53,-30],[-76,-30],[-69,-51],[-134,-42],[-16,-7],[-14,-12],[-31,-38],[-17,-15],[-20,-6]],[[2293,3944],[25,-21],[14,-6]],[[2091,3566],[-9,14],[-2,2],[-1,5],[-1,19],[12,19],[21,13],[50,12],[7,3],[8,9],[17,29],[10,10],[10,4],[11,3],[11,5],[9,8],[26,31],[44,36],[11,9],[10,8],[7,3],[12,3],[2,4],[1,4],[3,4],[11,7],[2,8],[6,32],[-28,15],[-66,15],[-12,15],[-2,16],[7,12],[15,1]],[[1595,3769],[-22,8],[-9,8],[-8,10],[-13,22],[-8,10],[-18,11],[-9,8],[-28,43],[-17,15],[-23,2],[-12,7],[-9,10],[-9,7],[-14,2]],[[1396,3932],[-23,-8],[-12,-6],[-10,-9],[-19,-23],[-11,-24],[-5,-28],[0,-35],[5,-49],[-3,-13],[-11,-6],[-44,-4],[-26,-17],[-1,-20],[30,-48]],[[1266,3642],[15,-53],[7,-17],[19,-33],[8,-18],[5,-21],[-5,-45],[-24,-4]],[[1266,3642]],[[2091,3566]],[[2142,3501],[-15,4],[-36,16],[10,33],[-2,4],[-7,7],[-1,1]],[[2304,3365],[-31,2],[-29,20],[-13,40],[-10,43],[-19,31],[-16,7]],[[2186,3508],[-14,-1],[-14,-5],[-16,-1]],[[1291,3451],[-28,10]],[[1263,3461],[-19,-2],[3,-28],[53,-47],[0,-22],[-27,-12]],[[2519,3403],[-15,1]],[[2504,3404],[-65,-5],[-104,-32],[-31,-2]],[[1273,3350],[-37,1],[-65,19],[-25,13],[-23,11],[-17,3]],[[1106,3397],[-118,-18],[-15,-6],[-25,-14],[-17,-2]],[[931,3357],[-42,7]],[[889,3364],[-16,-2],[-41,-10],[-30,-8],[-15,-10],[19,-21],[33,-20],[25,-10]],[[1042,3317],[34,-24],[4,-13],[3,-14],[-1,-14],[-6,-11],[-17,-3]],[[864,3283],[7,2],[171,32]],[[956,3216],[-16,30],[-12,9]],[[928,3255],[-9,-17],[1,-9],[13,-10],[3,-7],[-2,-19],[1,-9],[4,-10],[64,-87],[2,-21],[-31,-12]],[[1059,3238],[-53,8]],[[1006,3246],[-15,-4],[-25,-23],[-10,-3]],[[974,3054],[-16,25],[-11,40],[-15,33],[-15,10]],[[917,3162],[-5,-7],[2,-18],[7,-20],[17,-34],[-1,-14],[-8,-17],[-3,-2],[-8,-2],[-2,-1],[-5,-14],[0,-1],[0,-5],[-2,-9],[-5,-7]],[[904,3011],[-10,5],[-19,32],[-12,9]],[[863,3057],[-25,-22]],[[838,3035],[-10,4],[-8,0]],[[820,3039],[-7,-20],[-8,-150],[-4,-23],[-9,-18],[-18,-18],[-31,-20],[-10,-14],[3,-6],[5,-12],[-14,-7],[-45,-11],[-36,-4]],[[646,2736],[-36,3],[-60,21],[-109,3],[-248,64],[-35,1]],[[158,2828],[-27,-9],[-67,-48],[-59,-9],[-5,-5]],[[0,2400],[59,-2],[28,-11],[3,-4],[6,-10],[4,-5],[5,-1]],[[117,2370],[5,-2],[7,-11],[1,-13],[-8,-72],[3,-23],[1,-1],[13,-12],[93,-16]],[[105,2367],[12,3]],[[327,2247],[10,0],[13,-4],[5,-3],[12,-11],[12,-3]],[[232,2220],[19,1],[56,19],[10,4],[10,3]],[[414,2242],[6,-1],[6,-1]],[[379,2226],[12,5],[12,9],[5,1],[6,1]],[[426,2240],[12,-14],[24,-55],[14,-20],[7,-11],[8,-19],[-1,-20],[-7,-16],[-9,-12],[-11,-10],[-12,-8],[-17,-3]],[[426,2240]],[[434,2052],[-13,0]],[[421,2052],[-8,-5],[-3,-20],[2,-10],[5,-8],[3,-8],[-1,-11],[-3,-6],[-19,-13],[-6,-14],[2,-17],[10,-35],[2,-19],[-3,-54],[2,-20],[6,-12],[17,-28],[4,-14],[2,-30],[2,-13],[7,-13],[29,-28],[27,-50],[12,-13],[38,-21],[58,-52],[17,-29],[4,-36],[-12,-54],[-18,-52],[-29,-44],[-8,-18],[-1,0],[-5,-16],[-3,-14],[-6,-12],[-8,-6],[-3,-3],[-11,-3],[-34,-5],[-23,-8],[-13,-13],[-31,-95],[-21,-43],[-53,-76],[-40,-38],[-37,-49],[-31,-55],[-21,-57],[-2,-39],[14,-74],[2,-40],[-3,-33],[-9,-32],[-13,-28],[-4,-14]],[[830,3038]],[[501,0],[-5,18],[-4,10],[-11,14],[-14,14],[-12,9],[-4,5],[-20,36],[-39,99],[-2,8],[-1,53],[-7,39],[0,1]],[[126,2248]],[[126,2248],[-11,-8],[-13,-5],[-53,-3],[-9,-2],[-8,-4],[-5,-2],[-4,-4],[-5,-6],[-5,-6],[-2,-7],[1,-8],[5,-22],[4,-33],[18,-32],[1,-4],[1,-5],[0,-6],[-1,-5],[-1,-6],[-1,-5],[0,-5],[0,-5],[0,-5],[1,-5],[2,-4],[2,-10],[0,-5],[0,-5],[-2,-7],[-3,-8],[-8,-11],[-3,-8],[-2,-7],[0,-16],[-2,-5],[-2,-3]],[[21,1966],[-5,1],[-4,2],[-12,13]],[[2559,3888],[-24,3],[-4,4],[-6,4],[-12,5],[-14,0]],[[2499,3904],[-35,-30],[-9,-1]],[[2972,3904],[-60,-20],[-65,-34],[-14,-12],[-23,-34],[-47,-44],[-17,-3]],[[2746,3757],[-10,3],[-33,18],[-15,11],[-8,3],[-14,3],[-7,2],[-6,3],[-20,21],[-6,3],[-28,3],[-4,4],[46,62]],[[2641,3893],[-82,-5]],[[2455,3873],[-20,2]],[[2435,3875],[-10,-1],[-13,-6],[-8,-8],[-6,-10],[-8,-8],[-19,-12]],[[3318,4013],[12,2],[43,2],[11,2],[5,2],[3,2],[6,5],[15,68]],[[3210,4037],[95,-23],[13,-1]],[[3190,4035],[20,2]],[[3172,4036],[18,-1]],[[3117,4020],[31,14],[8,2],[16,0]],[[3093,4032],[24,-12]],[[2972,3904],[21,20],[-11,23],[-9,12],[-1,6],[3,5],[24,22],[9,6],[10,14],[75,20]],[[3020,3830],[-3,2],[-7,10],[-16,30],[-22,32]],[[3070,3835],[-7,1],[-10,3],[-19,10],[-8,0]],[[3026,3849],[-5,-2],[-1,-17]],[[3211,3756],[-17,3],[-7,2],[-6,3],[-29,39],[-6,11],[-6,7],[-9,4],[-38,13],[-11,1]],[[3082,3839],[-8,-1],[-4,-3]],[[3325,3739],[-44,10],[-34,11]],[[3247,3760],[-21,-2],[-15,-2]],[[3443,3610],[-1,4],[-6,22],[-2,13],[2,16],[3,18],[0,11],[0,5],[-1,5],[-10,9],[-38,11],[-8,1],[-5,4],[-15,20],[-10,8]],[[3352,3757],[-7,-7],[-8,-9],[-12,-2]],[[4096,103],[-20,-5],[-14,-2],[-4,-2],[-1,-3],[0,-4],[1,-5],[0,-21],[3,-11],[12,-31],[2,-8],[0,-3],[-1,-3],[-3,-5]],[[0,3028],[3,-12],[-3,-7]],[[871,3285],[-31,-41],[-11,-20],[-3,-11],[-1,-7],[0,-6],[1,-5],[3,-9],[2,-5],[1,-1],[2,-3],[6,-17],[2,-9],[1,-5],[0,-9],[-2,-31],[-2,-5],[-3,0]],[[836,3101],[-2,4],[-3,3],[-4,3],[-5,0]],[[822,3111],[-6,-3],[0,-4],[1,-4],[4,-3],[13,-8],[3,-3],[3,-4],[-2,-5],[-2,-7],[-4,-8],[0,-14],[-2,-10]],[[837,4070],[37,-33],[6,-9],[2,-9],[1,-22],[2,-7],[4,-2]],[[898,3992],[3,-6],[2,-16]],[[889,3988],[6,4],[3,0]],[[915,3975],[16,-3],[16,-7],[11,-8],[6,-8],[9,-16],[5,-7],[5,-4],[19,-9],[8,-7],[4,-4],[8,-16],[0,-4],[-1,-11],[1,-4],[5,-4],[5,-1]],[[903,3970],[12,5]],[[1037,3863],[5,-2],[10,-8],[8,-12],[2,-13],[-10,-12],[11,-6]],[[1032,3862],[5,1]],[[1095,3823],[7,-4],[-3,-9],[-12,-19]],[[1063,3810],[11,3],[10,7],[11,3]],[[1118,3796],[13,-1],[9,-23],[13,-11],[4,-9],[-3,-8],[-12,-11],[0,-7],[6,-3]],[[1087,3791],[31,5]],[[1170,3740],[6,-3],[5,-7],[0,-7],[-18,-8],[-7,-13],[-9,-33]],[[1148,3723],[7,5],[8,8],[7,4]],[[1156,3670],[7,-1],[8,-2],[6,-5],[-13,-8],[1,-7],[8,-7],[4,-6],[2,-8],[2,-8],[2,-8],[-3,-8],[-11,-14],[-4,-7],[-4,-9],[-2,-7],[-15,-85],[10,-26],[5,-8],[1,-14],[-10,-37],[-4,-12]],[[1147,3669],[9,1]],[[488,3668],[-4,4],[-2,5],[5,34],[1,23],[2,4],[3,3],[4,2],[10,2],[40,7],[9,10],[2,38]],[[629,3391],[-165,4],[-20,3],[-3,3],[-4,7],[-3,8],[-3,26],[2,14],[3,13],[86,194],[-2,11]],[[520,3674],[-7,0],[-13,-4],[-12,-2]],[[832,3352],[-9,17],[2,8],[3,6],[10,36],[3,7],[3,5],[4,4],[4,7],[-1,2],[-3,0]],[[848,3444],[-219,-53]],[[2059,2597],[30,1],[76,23],[9,0],[4,4],[3,4],[5,11],[2,4],[4,2],[40,5],[10,3],[6,4],[2,4],[4,11],[3,4],[3,4],[11,7],[27,20]],[[2034,2611],[5,-1],[3,-2],[7,-7],[3,-3],[7,-1]],[[1908,2532],[3,0],[4,2],[14,11],[77,37],[4,3],[2,4],[6,12],[5,7],[6,2],[5,1]],[[1889,2565],[8,-1],[4,-3],[3,-3],[1,-5],[0,-11],[0,-6],[3,-4]],[[1836,2538],[4,2],[3,4],[6,5],[9,6],[20,8],[11,2]],[[1813,2556],[8,-1],[2,-8],[3,-5],[6,-4],[4,0]],[[1674,2491],[7,1],[5,1],[8,4],[8,5],[6,6],[8,12],[8,13],[4,5],[6,6],[6,1],[73,11]],[[1643,2521],[6,-12],[5,-8],[4,-3],[6,-4],[10,-3]],[[1499,2313],[4,2],[3,3],[6,7],[7,5],[11,6],[25,7],[8,5],[4,5],[-2,4],[-1,5],[0,4],[0,7],[17,14],[3,4],[4,7],[3,7],[3,10],[3,38],[-1,8],[-2,5],[-9,10],[-4,5],[-3,9],[50,30],[7,1],[8,0]],[[1446,2421],[8,-1],[3,-1],[25,-24],[6,-7],[3,-9],[2,-9],[1,-11],[-2,-11],[-4,-17],[0,-6],[1,-4],[2,-4],[4,-4],[4,0]],[[1391,2413],[55,8]],[[1386,2414],[5,-1]],[[1333,2337],[12,1],[5,4],[3,5],[2,33],[1,7],[2,7],[4,7],[10,9],[7,3],[7,1]],[[1262,2339],[71,-2]],[[1140,2274],[22,10],[5,4],[3,4],[10,7],[53,30],[17,7],[12,3]],[[928,2318],[4,-3],[2,-4],[2,-4],[5,-3],[9,-2]],[[849,2289],[69,27],[10,2]],[[994,2305],[41,-4],[46,-11],[4,-3],[11,-3],[3,-1],[18,-5],[23,-4]],[[950,2302],[44,3]],[[799,2292],[50,-3]],[[695,2186],[15,3],[25,11],[8,8],[11,21],[23,16],[0,1],[2,4],[6,25],[4,11],[5,4],[5,2]],[[674,2186],[21,0]],[[632,2170],[5,1],[6,2],[5,3],[26,10]],[[606,2181],[6,-2],[14,-7],[6,-2]],[[476,2151],[19,5],[36,1],[14,4],[40,17],[12,2],[9,1]],[[3092,1914],[3,0],[5,4],[5,10],[4,9],[6,5],[11,3],[12,5],[9,8],[8,10],[11,9],[19,6],[12,2],[36,2],[12,4],[13,8],[21,18],[10,11],[13,21],[20,17],[-21,23],[-7,14],[-9,22],[-3,13],[1,13],[3,9],[2,20],[8,25],[23,26],[41,40],[6,10],[2,8],[-1,8],[-1,11],[2,10],[4,8],[8,6],[17,10],[25,9],[10,7],[5,7],[3,9],[1,27],[2,21]],[[2544,2064],[9,-3],[5,-6],[-1,-10],[-1,-9],[0,-8],[3,-9],[24,-42],[3,-13],[-3,-20],[0,-10],[0,-10],[-3,-11],[-7,-15],[0,-11],[6,-9],[22,-7]],[[2435,2022],[11,1],[8,3],[25,18],[35,16],[15,3],[15,1]],[[2354,2062],[9,-2],[9,-12],[8,-23],[3,-4],[6,-1]],[[2140,1793],[36,31],[8,9],[4,9],[3,11],[6,12],[10,10],[24,20],[8,9],[14,22],[1,12],[-4,11],[-8,10],[-21,17],[-4,5],[3,4],[19,8],[13,7],[40,35],[11,8],[30,10],[11,6],[10,3]],[[2412,2024],[23,-2]],[[2389,2020],[23,4]],[[3078,1922],[4,-1],[7,-6],[3,-1]],[[3019,1908],[11,1],[10,2],[33,11],[5,0]],[[3009,1910],[10,-2]],[[2920,1798],[6,2],[6,5],[3,9],[0,25],[2,8],[4,5],[9,4],[7,4],[5,8],[5,12],[4,4],[5,6],[8,12],[5,4],[7,3],[13,1]],[[2669,1881],[9,-2],[10,-6],[8,-11],[4,-14],[2,-18],[4,-14],[7,-10],[20,-14],[13,-19],[5,-5],[5,-3]],[[2601,1871],[31,2],[26,6],[11,2]],[[2898,1799],[22,-1]],[[2860,1755],[2,2],[3,6],[2,9],[4,7],[11,13],[5,4],[11,3]],[[2820,1791],[10,-4],[9,-6],[8,-9],[9,-15],[4,-2]],[[2756,1765],[8,1],[11,4],[19,12],[13,6],[13,3]],[[1940,1821],[-3,2],[-2,8],[3,23],[4,21],[0,12],[-5,14],[-11,6],[-18,11],[-17,17],[-9,13],[-26,26],[-5,7],[-7,7],[-10,5],[-13,4]],[[1821,1997],[-10,-1],[-11,-5],[-35,-13],[-4,-2],[-6,-6],[-44,-47],[-27,-49],[-5,-4],[-6,-4],[-13,-4]],[[1660,1862],[-7,1],[-4,3],[-3,3],[-2,4],[-5,8],[-3,3],[-4,2],[-5,1],[-11,1]],[[1616,1888],[-4,-2],[-5,-3],[-66,-100],[-7,-11],[-33,-31],[-19,-12],[-17,-12],[-3,-4],[-6,-6],[-3,-2],[-13,-8],[-4,-4],[-7,-12],[-3,-3],[-4,-3],[-3,-4],[-4,-8],[-13,-15],[-15,-13],[-9,-11],[-8,-7],[-6,-2],[-7,-2]],[[2140,1793],[-4,14],[-4,15],[-3,9],[-2,4],[-2,4],[-3,3],[-30,23],[-4,5],[-2,3],[-4,3],[-4,2]],[[2078,1878],[-43,-5]],[[2035,1873],[-35,1]],[[2000,1874],[-7,-1],[-6,-2],[-3,-3],[-20,-19],[-21,-25],[-3,-3]],[[1336,1614],[-7,2],[-4,5],[-4,10],[1,6],[3,5],[7,6],[3,4],[1,5],[0,5],[-7,4],[-7,4],[-60,2],[-2,17],[-1,3],[-2,4],[-5,7],[-3,4],[-4,4],[-5,4],[-6,2],[-5,2],[-5,0]],[[1224,1719],[-3,-1],[-33,-16],[-100,-6],[-49,-18],[-15,-9],[-3,-3],[-2,-4],[-10,-20],[-3,-6],[-6,-8],[-5,-3],[-5,-2],[-27,-7]],[[963,1616],[-8,1],[-12,19],[-4,2],[-7,3]],[[932,1641],[-7,-1],[-6,-1],[-4,-2],[-3,-4],[-9,-12],[-4,-4],[-5,-4],[-10,-5],[-7,-1]],[[877,1607],[-6,0],[-24,4],[-27,8],[-7,0]],[[813,1619],[-5,-2],[-14,-12],[-11,-14],[-2,-5],[-2,-5],[0,-4],[10,-32],[1,-10],[1,-15],[0,-11],[-2,-11],[-1,-6],[-2,-6],[-31,-51],[-12,-24],[-1,-5],[0,-5],[2,-3],[5,-2],[11,-4],[4,-3],[1,-4],[-3,-17],[0,-22],[-2,-17],[-2,-7],[-3,-3],[-23,-11],[-10,-13],[-7,-19],[-12,-44],[-3,-5],[-5,-3],[-14,-4],[-4,0]],[[1357,1613],[-13,1]],[[1344,1614],[-8,0]],[[593,1222],[-18,1],[-10,10],[-8,8],[-19,16],[-1,0]],[[677,1220],[-4,1],[-3,3],[-2,5],[-3,3],[-3,2]],[[662,1234],[-13,-3],[-56,-9]],[[2140,1793],[-2,-14],[-9,-12],[-50,-43],[-10,-22],[-2,-21],[0,-11],[1,-7],[6,-7],[2,-6],[3,-9],[3,-16],[0,-9],[-2,-7],[-8,-22],[-6,-22],[-1,-8],[0,-7],[3,-15],[1,-27],[0,-52],[-2,-11],[-9,-27],[-30,-55],[-8,-19],[1,-11],[4,-8],[13,-16]],[[3588,3045],[-12,6],[-16,24],[-11,22],[-7,11],[-8,7],[-12,8],[-10,3],[-19,5],[-8,3],[-2,6],[-1,7],[1,7],[3,9],[5,8],[2,9],[-1,10],[-7,14],[-2,9],[0,8],[4,6],[2,6],[-1,10],[-4,7],[-7,6],[-23,11],[-2,5],[3,4],[16,13],[5,11],[-1,14],[-6,10],[-10,8],[-30,13],[-7,6],[-2,6],[4,4],[7,4],[5,6],[2,9],[-5,10],[-2,8],[0,10],[5,17],[0,9],[-5,15],[-7,6],[-12,2]],[[3412,3457],[-64,-17],[-35,-14],[-26,-1],[-1,0]],[[3450,2842],[26,5],[16,7],[24,7],[10,4],[9,6],[19,17],[35,15],[36,12],[25,13],[7,5],[4,3],[3,5],[4,11],[9,12],[-16,29],[-16,19],[-9,10],[-4,8],[-5,20],[-5,6],[-7,2]],[[3615,3058],[-7,-4],[-13,-9],[-7,0]],[[3081,2936],[10,-2],[6,-5],[4,-12],[6,-6],[10,-5],[11,-4],[107,-22],[11,-5],[5,-4],[6,-3],[15,-12],[10,-4],[16,-4],[11,0]],[[2920,2792],[6,16],[6,26],[2,6],[16,31],[18,15],[56,14],[13,8],[9,8],[7,12],[6,4],[9,4],[13,0]],[[3404,2850],[46,-8]],[[3347,2837],[7,1],[16,7],[12,3],[22,2]],[[3319,2849],[6,-2],[14,-10],[8,0]],[[3309,2848],[10,1]],[[1272,0],[6,13],[1,8],[0,9],[-9,19],[-4,8],[-2,2],[-2,2],[-2,0],[-3,1],[-3,2],[-1,3],[1,8],[1,7],[-1,8],[-3,9],[-7,12],[0,1],[-1,4],[0,3],[1,2],[5,6],[1,6],[1,20],[-3,19],[1,7],[1,3],[10,11],[33,4],[2,1],[3,2],[8,9],[8,27],[9,131],[-1,7],[-2,13],[-1,9],[0,9],[5,21],[2,4],[13,18],[0,6],[-1,4],[-20,24],[-1,3]],[[222,0],[-6,4],[-5,4],[-22,15],[-42,21],[-10,3]],[[137,47],[-12,-1],[-11,-3],[-21,-9],[-10,-2]],[[83,32],[-83,8]],[[0,40]],[[1826,0],[-3,16],[0,34],[4,42],[-1,204],[-1,7],[3,4],[10,8],[5,3],[5,3],[1,4],[2,8],[0,5],[11,19],[20,8],[5,4],[3,3],[4,14],[17,30],[-17,30],[-12,15],[-27,21],[-6,9],[-5,11],[0,19],[2,21],[0,10],[-4,12],[-17,45],[-1,25],[4,53],[6,25],[3,7],[9,12],[3,4],[2,3],[-1,3],[-6,3],[-7,1],[-6,1],[-4,1],[-3,10],[-2,18],[-3,97],[5,18],[-1,1]],[[947,1864],[-2,15],[-5,13],[-8,13],[-5,15],[-6,6]],[[921,1926],[-3,-7],[-1,-13],[3,-17],[-4,-11],[-19,-10],[-16,-5],[-3,-8],[7,-17],[-19,-13],[5,-6]],[[909,1749],[14,1],[13,3],[2,10],[-2,16],[20,18],[22,9],[4,12],[9,13],[-12,3],[-5,12],[-12,3],[-8,4],[1,11]],[[955,1864],[-8,0]],[[887,1826],[5,-11],[-5,-10],[7,-12],[-1,-14],[2,-20],[14,-10]],[[871,1819],[16,7]],[[1411,3339],[-292,55],[-134,-18],[-39,90]],[[1450,3340],[-39,-1]],[[66,1156],[-66,87]],[[47,1128],[19,27]],[[0,1043],[82,145],[171,195],[50,203],[149,151],[202,81],[173,-16],[62,37],[57,-8]],[[1016,4096],[-176,-70],[113,-556],[-208,-157],[-149,-79],[-354,41],[-242,-76]],[[0,1243],[66,-87]],[[55,3208],[-55,-52]],[[66,1156],[91,101]],[[66,1156],[0,-1]],[[1411,3339],[-292,55],[-134,-18],[-39,90]],[[1450,3340],[-39,-1]],[[849,4041],[1,1]],[[850,4042]],[[850,4042],[1,1]],[[851,4043],[1,0]],[[849,4041],[2,2]],[[851,4043]],[[851,4043],[1,0]],[[852,4043]],[[850,4042]],[[850,4042]],[[850,4042]],[[850,4042]],[[850,4042]],[[850,4042]],[[851,4043]],[[851,4043]],[[851,4043]],[[851,4043]],[[851,4043]],[[851,4043]],[[851,4043]],[[879,4055],[17,6]],[[882,4056],[14,6]],[[897,3746],[-48,295]],[[849,4041],[1,1]],[[850,4042]],[[850,4042],[1,1]],[[851,4043]],[[851,4043],[4,3],[36,13],[5,2]],[[898,4062],[3,1]],[[898,4062],[3,1]],[[901,4063],[5,1],[2,1],[10,0],[5,0],[7,1]],[[901,4063],[2,0]],[[916,4065],[2,0],[3,0],[2,0],[1,0],[6,1]],[[930,4066],[10,2]],[[940,4068]],[[940,4068]],[[940,4068],[13,3]],[[930,4066],[10,2]],[[940,4068]],[[940,4068]],[[940,4068],[8,1],[2,0],[3,2]],[[940,4068]],[[940,4068]],[[940,4068]],[[940,4068]],[[940,4068],[0,-1]],[[954,4071],[10,4],[2,0],[2,0],[11,-1],[2,1],[20,12]],[[954,4071],[12,4],[2,0],[11,-1],[1,1],[1,0],[1,0],[3,2]],[[1001,4087],[15,9]],[[1001,4087],[15,9]],[[849,4041]],[[849,4041]],[[849,4041],[1,1]],[[850,4042]],[[850,4042],[1,1]],[[851,4043],[1,0]],[[852,4043],[-1,0]],[[851,4043]],[[851,4043],[-1,-1]],[[850,4042]],[[850,4042],[-1,-1]],[[852,4043],[-1,0]],[[851,4043]],[[851,4043],[-2,-2]],[[849,4041],[2,2]],[[851,4043]],[[851,4043],[1,0]],[[852,4043]],[[940,4068]],[[940,4068]],[[940,4068]],[[940,4068]],[[940,4068]],[[940,4068]],[[940,4068]],[[2092,3565],[6,-7],[3,-4],[-11,-33],[-6,-7],[-9,-7],[-7,-8],[-3,-13],[-8,-11],[-17,-11],[-86,-36],[-16,-3],[-7,2],[-16,9],[-7,2],[-9,-1],[-19,-9],[-124,-31],[-30,3],[-15,6],[-14,9],[-6,13],[7,20],[14,9],[54,7],[154,57],[34,23],[9,3],[2,2],[4,8],[1,3],[9,3],[5,0],[30,-8],[10,1],[9,7],[8,5],[11,-1],[10,-3],[8,-4],[-40,-32],[15,5],[15,2],[9,3],[4,8],[2,21],[0,2],[2,10],[2,8],[1,-4],[1,-3],[10,-14],[-1,1],[2,-2]],[[385,4096],[-11,-43],[-28,-68],[-51,-44],[-12,-1],[-21,5],[-10,1],[-11,-6],[-10,-20],[-10,-8],[-10,1],[-11,6],[-9,8],[-10,7],[-10,3],[-10,1],[-9,-1],[-10,-3],[-21,-12],[-35,-33],[-22,-9],[-42,3],[-21,-4],[-1,-2],[0,72],[29,-2],[164,57],[102,66],[27,26],[63,0]],[[0,3846],[54,-57],[13,-18],[8,-20],[1,-14],[-1,-28],[1,-14],[6,-12],[8,-12],[5,-12],[-2,-11],[-15,-3],[-22,8],[-35,24],[-9,8],[-12,15],[0,146]],[[2092,3565],[6,-7],[3,-4],[-11,-33],[-6,-7],[-9,-7],[-7,-8],[-3,-13],[-8,-11],[-17,-11],[-86,-36],[-16,-3],[-7,2],[-16,9],[-7,2],[-9,-1],[-19,-9],[-124,-31],[-30,3],[-15,6],[-14,9],[-6,13],[7,20],[14,9],[54,7],[154,57],[34,23],[9,3],[2,2],[4,8],[1,3],[9,3],[5,0],[30,-8],[10,1],[9,7],[8,5],[11,-1],[10,-3],[8,-4],[-40,-32],[15,5],[15,2],[9,3],[4,8],[2,21],[0,2],[2,10],[2,8],[1,-4],[1,-3],[10,-14],[-1,1],[2,-2]],[[385,4096],[-11,-43],[-28,-68],[-51,-44],[-12,-1],[-21,5],[-10,1],[-11,-6],[-10,-20],[-10,-8],[-10,1],[-11,6],[-9,8],[-10,7],[-10,3],[-10,1],[-9,-1],[-10,-3],[-21,-12],[-35,-33],[-22,-9],[-42,3],[-21,-4],[-1,-2]],[[0,3846],[54,-57],[13,-18],[8,-20],[1,-14],[-1,-28],[1,-14],[6,-12],[8,-12],[5,-12],[-2,-11],[-15,-3],[-22,8],[-35,24],[-9,8],[-12,15]],[[0,3949],[29,-2],[164,57],[102,66],[27,26]],[[3055,4096],[-13,-5],[-9,4]],[[3033,4095],[-6,1]],[[2914,4096],[-34,-13],[-15,-4],[-39,0],[-33,-7],[-9,4],[-55,20]],[[927,4089],[-5,-6],[-12,-15]],[[934,4096],[-7,-7]],[[1502,4096],[17,-28],[3,-12]],[[1567,4045],[-45,11]],[[3991,4045],[-9,-4],[-30,-23],[-6,0],[-12,4],[-7,6]],[[3927,4028],[-11,9],[-18,12],[-21,27],[-6,15],[-5,5]],[[853,4009],[-4,-3]],[[876,4030],[-11,-10]],[[910,4068],[-9,-10]],[[865,4020],[-12,-11]],[[901,4058],[-21,-25],[-4,-3]],[[3509,4057],[-5,-20],[0,-73]],[[3520,4096],[-10,-32],[-1,-7]],[[849,4006],[-16,-21]],[[833,3985],[-8,-10],[-27,-42]],[[3519,3906],[6,0]],[[2706,4096],[-15,-20],[-25,-24],[-57,-50],[-66,-46],[-33,-27],[-21,-19],[-24,-27],[-9,-4],[-27,-8]],[[1664,4053],[17,3],[21,7]],[[1567,4045],[51,0],[27,4],[19,4]],[[1702,4063],[36,13],[25,7],[29,13]],[[2324,4096],[12,-13],[21,-19],[9,-15],[30,-24],[15,-15],[9,-31],[15,-58],[6,-19],[-12,-31]],[[3916,3848],[39,43],[4,7]],[[3965,3911],[8,14],[12,35],[5,30]],[[3998,4027],[2,10],[-9,8]],[[3959,3898],[6,13]],[[3990,3990],[1,5],[7,32]],[[2431,3869],[10,-12]],[[2429,3871],[2,-2]],[[2441,3857],[0,-1],[3,-12],[-6,-11]],[[3525,3906],[33,-19],[23,-25]],[[3581,3862],[2,-2],[27,-27]],[[3907,3829],[9,19]],[[3090,3786],[6,0]],[[3087,3786],[3,0]],[[3868,3675],[0,7],[12,16],[18,54],[3,19],[0,15]],[[3905,3823],[2,6]],[[3901,3786],[0,24],[4,13]],[[3799,3728],[6,-3],[36,-27],[27,-23]],[[3749,3755],[5,-3],[12,-4],[3,-2]],[[3661,3805],[12,-3],[29,-16]],[[3610,3833],[12,-16],[18,-7],[21,-5]],[[3702,3786],[13,-7],[34,-24]],[[3769,3746],[30,-18]],[[3868,3675],[-6,0]],[[3333,3671],[15,11],[33,16],[7,6]],[[3453,3767],[15,16],[12,11],[9,19],[30,62],[6,31]],[[3388,3704],[38,36],[27,27]],[[3321,3655],[12,16]],[[2513,3648],[9,11],[33,19],[24,4],[30,0],[61,4]],[[2429,3816],[0,-3],[32,-33]],[[2467,3772],[16,-24],[9,-23],[6,-35],[15,-42]],[[2438,3833],[-9,-12],[0,-5]],[[2461,3780],[4,-5],[2,-3]],[[2264,3585],[18,13],[39,23],[23,8]],[[2460,3629],[17,3],[24,4],[12,12]],[[2261,3582],[3,3]],[[2344,3629],[19,7],[15,0],[27,-8],[30,-3],[25,4]],[[3203,3580],[-26,-6],[-36,-15],[-24,-27]],[[3321,3655],[-4,-4]],[[3317,3651],[-14,-15],[-18,-19],[-39,-19],[-33,-16],[-10,-2]],[[3117,3532],[-6,4],[-3,27],[-12,8]],[[2739,3501],[-12,27],[-1,2]],[[2700,3597],[0,1],[-24,77],[-6,11]],[[2726,3530],[-8,29],[-18,38]],[[2746,3493],[-7,8]],[[2815,3483],[-2,0]],[[3096,3571],[-27,-4],[-17,-10]],[[2813,3483],[-17,-5],[-24,4],[-18,4],[-8,7]],[[3052,3557],[-10,-6],[-57,-15],[-39,-23],[-21,-12],[-57,0],[-45,-15],[-8,-3]],[[2162,3531],[0,-34],[-6,-11],[-24,-20],[6,-15]],[[2261,3582],[-15,-8],[-27,-3],[-36,-16],[-15,-15],[-6,-8],[0,-1]],[[3916,3678],[-33,0],[-15,-3]],[[4096,3551],[-27,35],[-18,35],[-21,23],[-45,15],[-24,16],[-12,3],[-33,0]],[[1618,3389],[-12,4],[-36,19],[-27,12]],[[974,3493],[2,-11],[12,-73],[-9,-39]],[[928,3724],[3,-11],[3,-27],[-3,-54],[3,-9]],[[849,4006],[13,-54],[0,-2]],[[862,3950],[12,-32],[21,-66],[9,-35],[21,-81],[3,-12]],[[934,3623],[9,-22],[15,-50],[12,-34],[4,-24]],[[1648,3376],[-30,13]],[[1698,3362],[-20,0],[-10,5]],[[2138,3451],[-2,-11]],[[1668,3367],[-8,3],[-12,6]],[[2136,3440],[-1,-4],[-15,-12],[-18,-8],[-30,0],[-33,-27],[-15,0],[-72,20],[-42,7],[-27,0],[-57,-15],[-27,-16],[-73,-19],[-27,-4],[-1,0]],[[1192,3381],[21,-7],[34,-7]],[[979,3370],[21,19],[12,4],[9,1]],[[1021,3394],[57,7],[33,8],[21,-4],[18,-4],[39,-19],[3,-1]],[[1247,3367],[20,-5],[9,-11]],[[1450,3339],[21,27],[18,13]],[[1528,3414],[9,10],[6,0]],[[1489,3379],[15,10],[24,25]],[[1333,3326],[6,-2],[33,-4],[3,1]],[[1409,3329],[41,10]],[[1276,3351],[21,-16],[36,-9]],[[1375,3321],[34,8]],[[734,3303],[32,20]],[[931,3382],[6,0],[42,-12]],[[717,3293],[17,10]],[[766,3323],[14,9],[27,23],[9,3],[61,16],[45,8],[9,0]],[[278,3331],[-8,-7],[-6,-23],[-9,-27],[-6,-8]],[[798,3933],[-39,-54],[-15,-15],[-24,-39],[-33,-54],[-75,-100],[-36,-43],[-39,-54],[-21,-19],[-45,-54],[-18,-15],[-24,-16],[-18,-23],[-21,-27],[-27,-23],[-45,-31],[-9,-15],[-27,-16],[-4,-4]],[[246,3265],[3,1]],[[240,3262],[6,3]],[[249,3266],[36,-8],[5,-1]],[[290,3257],[55,-14],[63,0],[42,-4],[87,-12],[51,-3],[39,15],[63,35],[27,19]],[[1096,3104],[-6,19],[-2,16]],[[978,3369],[1,1]],[[1088,3139],[-1,11],[-6,16],[-9,54],[-27,38],[-15,27],[-15,35],[-15,19],[-24,23],[2,7]],[[51,3163],[21,30],[1,0]],[[0,3058],[3,4],[9,19],[39,81],[0,1]],[[73,3193],[14,7],[126,47],[27,15]],[[3102,2672],[24,23],[12,8],[69,8],[15,4],[36,4],[21,3],[69,16],[39,23],[21,8],[9,-4],[18,-16],[3,-7],[9,-8],[15,0],[51,15],[88,16],[15,8],[15,30],[9,16],[18,0],[15,-4],[51,-4],[33,4],[24,8],[15,11],[36,19],[30,4],[21,12],[21,4],[45,7],[27,4],[27,-4],[54,8],[39,8]],[[0,2679],[33,-7],[18,0],[36,16],[12,4],[21,3],[51,-7],[21,-4],[42,-16],[51,-19],[21,-4],[42,12],[33,4],[39,-4],[15,-8],[15,-4],[36,0],[48,-11],[33,-8],[24,0],[42,8],[30,7],[24,0],[24,4],[12,-7],[6,-12]],[[764,2624],[-9,-15]],[[1096,3104],[2,-23]],[[755,2609],[-8,-14]],[[1098,3081],[1,-8],[-9,-46],[-15,-19],[-39,-27],[-48,-27],[-21,-16],[-48,-65],[-33,-58],[-6,-8],[-37,-19],[-24,-23],[-24,-12],[-15,-19],[-6,-46],[3,-16],[12,-19],[-3,-8],[-15,-7],[-7,-14]],[[729,2626],[18,-31]],[[3102,2672],[-24,-23],[-27,-23],[-15,-15],[-15,-12],[-12,0],[-15,-19],[-3,-16],[-15,-15],[-54,-31],[-42,0],[-42,-12],[-27,-11],[-21,-12],[-24,-27],[-9,-15],[-15,-4],[-18,0],[-39,8],[-22,-19],[-21,-8],[-27,-4],[-39,-12],[-18,0],[-48,0],[-36,0],[-24,0],[-33,-11],[-24,-19],[-18,-16],[-45,-23],[-24,-8],[-33,8],[-36,0],[-24,-4],[-45,-15],[-30,-16],[-15,-15],[-18,-35],[-21,-11],[-63,-16],[-39,-11],[-30,-20],[-27,-27],[-12,-19],[-9,-27],[0,-23]],[[1904,2094],[42,-19],[27,-4],[9,-8],[6,-11],[21,-12],[30,-4],[18,-11],[12,-27],[15,-12],[27,-8],[33,-4],[33,-7]],[[2177,1967],[21,-4],[36,8]],[[936,1905],[-2,-15],[15,-39],[3,-19],[-3,-12]],[[747,2595],[12,-19],[6,-19],[0,-54],[-6,-66],[0,-23],[9,-19],[18,-4],[45,11],[28,4],[39,-11],[51,0],[12,-4],[12,-16],[21,-15],[6,-12],[0,-50],[3,-23],[-9,-11],[-36,-20],[-15,-7],[-6,-12],[3,-23],[21,-15],[9,-20],[0,-34],[12,-31],[6,-27],[0,-16],[-3,-15],[-9,-16],[-6,-15],[-3,-42],[-12,-39],[0,-23],[-6,-4],[-12,4],[-1,-4]],[[949,1820],[9,-7],[3,-1]],[[1095,1829],[7,3]],[[961,1812],[27,-7],[39,0],[30,8],[38,16]],[[1102,1832],[36,-5]],[[1138,1827],[24,-3],[21,-11],[18,-16],[30,-8],[33,0],[27,4],[24,8],[12,8],[24,11],[27,16],[24,15],[27,19],[39,27],[24,20],[45,30],[42,16],[48,8],[21,7],[24,20],[21,30],[27,47],[21,23],[28,11],[18,4],[18,0],[39,-7],[45,-4],[15,-8]],[[2234,1971],[21,7],[39,-7],[27,-8],[21,-12],[12,-19],[3,-27],[-6,-19],[0,-12],[21,-15],[9,-12],[18,-31],[27,-7],[3,-12],[-15,-19],[-18,-27]],[[2396,1751],[3,-8],[60,4],[15,4],[15,19],[12,0],[51,-8],[12,-3],[30,-43],[12,-8],[45,-15],[28,-19],[12,-12],[18,-38],[24,-12],[21,-8],[15,4],[12,-7],[15,-16]],[[299,1556],[-2,25],[6,61]],[[331,1695],[2,-2],[9,-21]],[[383,1646],[4,3]],[[409,1711],[3,6]],[[485,1778],[2,0]],[[507,1780],[18,6],[18,11],[12,13]],[[875,1836],[2,0],[54,-12],[18,-4]],[[174,1269],[12,4],[15,23],[9,15],[30,50],[21,47],[42,69],[0,12],[-4,67]],[[303,1642],[3,32],[9,19],[9,12],[7,-10]],[[342,1672],[6,-14],[15,-19],[9,0],[11,7]],[[387,1649],[3,2],[18,57],[1,3]],[[412,1717],[11,26],[21,23],[27,12],[14,0]],[[487,1778],[11,0],[9,2]],[[555,1810],[3,3],[18,7],[30,8],[30,-4],[30,-4],[54,0],[39,-11],[30,-16],[24,23],[18,12],[21,8],[23,0]],[[2796,1585],[39,-46],[9,-31],[0,-42],[-15,-54],[-21,-51],[-24,-77],[-9,-23],[0,-7],[9,-12],[18,-8],[9,0],[27,8],[15,4],[51,35],[12,3],[66,-15],[9,0]],[[57,1138],[6,31],[9,34],[9,20],[18,19],[33,12],[42,15]],[[4054,949],[42,15]],[[2991,1269],[15,-12],[3,-11],[-9,-23],[3,-27],[9,-23],[-3,-31],[-12,-31],[-33,-54],[3,-35],[-9,-54],[-6,-27],[-6,-34],[-3,-31],[6,-20]],[[2949,856],[12,-7],[24,-8]],[[57,1138],[33,-62],[-9,-15],[-30,-39],[-30,-61],[-3,-39],[-12,-35],[-6,-10]],[[2985,841],[45,12],[30,11],[15,12],[9,11],[18,35],[30,46],[12,20],[27,23],[24,7],[30,4],[42,8],[30,12],[9,0],[39,11],[27,-4],[21,-7],[12,-16],[18,-11],[12,0],[24,11],[24,4],[57,-4],[37,-8],[33,-11],[18,-12],[24,-19],[36,-50],[21,-19],[51,-27],[21,-27],[18,-16],[21,-11],[27,-8],[21,0],[24,23],[51,23],[21,8],[18,0],[9,4],[45,54],[18,19]],[[2180,471],[3,-15],[30,-12],[33,12],[15,0],[24,-16],[30,12],[21,0]],[[2336,452],[12,-4],[33,-16],[9,-19],[42,-11],[12,-4],[15,-16],[24,-15]],[[2985,841],[-12,-12],[-21,-46],[-6,-23],[-6,-38],[0,-47],[-9,-61],[-12,-43],[-9,-23],[-12,-46],[-3,-39],[0,-23],[6,-23],[15,-31],[9,-35],[0,-42],[3,-8],[18,-27],[15,-31],[12,-30],[6,-39],[12,-27],[12,-15]],[[0,138],[6,-2],[45,-12],[27,-8],[51,-11]],[[988,116],[12,-15]],[[2964,101],[39,31]],[[129,105],[48,-8],[33,-4],[15,0],[63,8],[60,0],[30,0],[33,0]],[[3003,132],[27,-35],[9,-4],[24,-4],[45,0],[12,4],[36,16],[27,23],[39,38],[27,27],[18,16],[57,30],[24,20],[30,31],[48,38],[33,23],[42,23],[36,16],[40,4],[24,-4],[21,-4],[21,4],[39,27],[45,0],[21,8],[12,30],[21,31],[21,43],[12,34],[21,39],[12,8],[27,7],[18,4],[21,8],[30,15],[30,31],[18,4],[21,4],[30,-4],[12,8],[12,15],[-9,31],[0,31],[6,42],[3,43],[0,46],[-12,50]],[[1180,82],[27,7],[24,27],[15,4],[27,0],[12,16],[39,27],[15,3],[33,-3]],[[1000,101],[51,-23],[30,-8],[48,4],[30,8],[21,0]],[[1372,163],[72,-24],[9,-3],[9,-16],[15,-4],[33,0],[12,-4],[12,-11],[18,-35],[15,-8],[45,-11],[30,4],[15,11],[18,27],[21,27],[27,23],[55,31],[30,16],[45,11],[30,-4],[9,12],[-6,31],[-15,50],[-6,31],[12,27],[18,23],[24,27],[9,15],[18,54],[12,23],[21,27],[15,12],[21,23],[60,12],[45,0],[42,-27],[9,-16],[9,-31],[0,-15]],[[411,101],[36,0],[69,-4],[57,-8],[48,-15],[30,-12],[57,-19],[30,0],[15,0],[54,19],[58,12],[30,4],[45,15],[48,23]],[[2821,0],[17,28],[30,23],[33,19],[51,19],[12,12]],[[2483,367],[36,0],[12,-12],[30,-7],[0,-12],[18,-8],[0,-11],[12,-8],[6,-19],[0,-16],[9,-19],[0,-19],[-6,-12],[-3,-23],[3,-15],[-15,-35],[9,-35],[24,-31],[12,-15],[40,-27],[60,-31],[17,-12]],[[1000,101],[9,-66],[8,-35]],[[129,105],[3,-20],[6,-19],[18,-35],[26,-31]],[[0,0],[0,1623],[0,2473],[3615,0],[481,0],[0,-4096],[-4096,0]],[[1092,656],[81,-62],[-4,-28],[76,-76],[-89,52],[-2,37],[-79,87],[17,-10]],[[1399,656],[-2,37],[35,15],[-4,-18],[-29,-34]],[[1529,874],[-33,-41],[-16,10],[29,63],[20,-32]],[[1002,1239],[9,-43],[-49,0],[8,-42],[-72,0],[24,73],[24,-21],[56,33]],[[259,1300],[-24,17],[7,35],[24,-18],[-7,-34]],[[306,1621],[-2,-20],[68,0],[-16,-52],[-89,10],[8,63],[43,31],[10,-24],[-22,-8]],[[412,2359],[-32,11],[21,26],[10,-8],[1,-29]],[[793,2539],[-9,26],[57,12],[-11,-19],[-37,-19]],[[541,1838],[25,-50],[-81,-10],[18,49],[38,11]],[[954,1798],[0,-52],[-68,26],[-12,69],[40,30],[8,52],[57,-73],[-25,-52]],[[1151,1870],[20,0],[-39,-51],[-40,10],[40,52],[19,-11]],[[1805,2638],[-34,2],[0,20],[49,0],[-15,-22]],[[801,2598],[-40,1],[-17,30],[51,-13],[6,-18]],[[993,2645],[2,-5],[40,0],[-28,-34],[-29,34],[15,5]],[[1058,2642],[34,-8],[0,-15],[-49,10],[15,13]],[[1242,2628],[-29,1],[0,21],[41,0],[-12,-22]],[[145,2723],[-8,-18],[-24,18],[-57,-21],[25,41],[40,11],[24,-31]],[[160,2810],[-7,24],[25,13],[0,-31],[-18,-6]],[[679,2847],[-45,34],[-3,18],[48,0],[0,-52]],[[2653,3128],[-28,23],[4,39],[24,-27],[0,-35]],[[2276,3175],[-42,-29],[-18,2],[54,59],[6,-32]],[[679,3159],[-15,17],[7,24],[24,-10],[-16,-31]],[[1089,3063],[-22,23],[25,63],[40,0],[-43,-86]],[[64,3148],[-13,9],[5,64],[25,-41],[-17,-32]],[[663,2671],[-13,19],[-3,33],[23,-18],[-7,-34]],[[437,2743],[48,0],[8,-83],[-65,42],[-24,62],[33,-21]],[[510,2691],[-15,21],[39,42],[48,-21],[-72,-42]],[[364,1695],[16,0],[8,-52],[-65,41],[16,22],[25,-11]],[[428,1695],[11,-25],[-27,-17],[-4,69],[20,-27]],[[237,3383],[46,-58],[8,-73],[-73,21],[-31,45],[50,65]],[[734,3299],[3,35],[31,12],[-2,-28],[-32,-19]],[[3066,3283],[0,52],[32,62],[15,-19],[-47,-95]],[[2386,3346],[-117,-78],[-53,26],[65,62],[113,11],[-8,-21]],[[972,3628],[-83,-12],[-32,83],[73,26],[49,-36],[-7,-61]],[[3504,3627],[-8,43],[51,11],[12,-34],[-55,-20]],[[2232,3647],[9,30],[24,12],[-9,-31],[-24,-11]],[[3359,3717],[30,-8],[-8,-31],[-73,-31],[-15,49],[31,44],[35,-23]],[[1779,3708],[-32,12],[8,17],[49,-7],[-25,-22]],[[3740,3416],[-42,-2],[-26,-6],[29,31],[52,0],[-13,-23]],[[2257,3502],[4,35],[20,4],[2,-34],[-26,-5]],[[2775,3592],[35,-66],[5,-45],[-33,31],[-40,-21],[-16,21],[0,60],[49,20]],[[2667,3408],[-13,17],[31,14],[-1,-17],[-17,-14]],[[2609,3314],[-45,63],[12,42],[4,-1],[29,-104]],[[1286,3439],[56,0],[25,-72],[104,14],[33,-4],[-2,-19],[-30,9],[5,-37],[-38,-15],[-32,10],[13,31],[-67,-52],[-59,63],[-73,0],[-65,31],[49,10],[-16,31],[50,-19],[31,40],[16,-21]],[[993,3367],[-63,10],[16,125],[33,-11],[9,-58],[47,-25],[-42,-41]],[[3369,3408],[-12,0],[-8,62],[40,-41],[-20,-21]],[[2952,3439],[49,21],[7,-15],[-15,-37],[-57,10],[0,73],[16,-52]],[[1605,3517],[5,-26],[48,0],[28,-72],[37,-21],[-32,-46],[-17,-6],[-16,52],[-15,-35],[-66,4],[-24,43],[-57,8],[-21,32],[11,39],[119,28]],[[1159,3480],[-40,-62],[-19,32],[-44,8],[3,23],[65,-21],[0,31],[35,-11]],[[2192,3479],[-73,-50],[-32,73],[74,31],[31,-54]],[[2297,3643],[57,-17],[-25,-41],[-97,0],[17,41],[48,17]],[[3140,3692],[104,-24],[-37,-31],[-10,-132],[113,-11],[14,-34],[-24,0],[28,-56],[-28,-6],[-57,62],[-77,5],[-28,37],[-72,20],[-65,167],[34,-16],[31,36],[26,-19],[38,34],[10,-32]],[[2966,3576],[-38,-12],[0,-52],[-73,10],[57,91],[57,13],[-3,-50]],[[3066,3889],[-33,7],[30,38],[35,-38],[-32,-7]],[[895,4008],[11,-39],[-60,-25],[-20,62],[39,5],[0,31],[30,-34]],[[1577,4042],[8,-21],[41,10],[-57,-31],[8,-73],[-103,21],[-34,94],[137,0]],[[1114,3991],[-10,22],[36,8],[10,38],[13,-34],[-49,-34]],[[3357,4010],[-8,21],[23,43],[17,-12],[-32,-52]],[[3283,4018],[9,-28],[-49,-11],[2,38],[38,1]],[[2696,3985],[6,-26],[-35,-20],[-14,72],[18,7],[25,-33]],[[3081,4096],[-40,-23],[17,-52],[-23,-27],[-75,-4],[-64,-42],[16,42],[-32,0],[-17,72],[37,-31],[4,42],[32,-62],[41,62],[-18,23],[122,0]],[[3016,4037],[24,20],[-8,14],[-14,-1],[-2,-33]],[[3211,4083],[8,-59],[-24,18],[-40,-32],[-25,21],[-3,44],[23,-17],[61,25]],[[3682,4066],[-18,-35],[-48,-10],[-17,73],[81,-11],[2,-17]],[[922,4042],[-23,17],[-6,37],[36,-8],[-7,-46]],[[1658,4073],[49,-11],[-7,-37],[-26,-4],[-16,52]],[[1349,4009],[-28,64],[55,23],[15,-65],[-42,-22]],[[1878,4096],[-27,-15],[-15,2],[1,13],[41,0]],[[3854,3784],[51,2],[18,-103],[-24,-15],[8,-42],[-35,-16],[-42,11],[-37,129],[1,32],[29,-8],[11,29],[20,-19]],[[3762,3772],[24,-11],[-27,-24],[-14,24],[17,11]],[[3709,3812],[4,-20],[-65,-41],[-23,22],[-1,40],[32,-21],[16,42],[37,-22]],[[1698,3709],[0,42],[-24,50],[49,-19],[6,-51],[-31,-22]],[[2388,3781],[-14,-38],[-28,-3],[36,53],[6,-12]],[[2354,3782],[-39,-16],[-18,6],[65,62],[-8,-52]],[[3147,3813],[-49,-41],[-41,72],[72,-16],[18,-15]],[[2537,3836],[12,-34],[56,63],[16,-52],[59,26],[-19,-26],[65,-31],[-24,-52],[56,-114],[-65,-21],[-24,83],[-61,-15],[29,-99],[32,10],[-19,-39],[-22,2],[-15,-60],[-33,4],[33,72],[-24,59],[-49,-59],[-41,32],[-36,-34],[0,-28],[36,28],[25,-29],[-41,0],[-16,-41],[-30,25],[-27,-25],[-40,20],[-49,-20],[65,104],[24,-21],[55,53],[-11,30],[-76,21],[56,46],[-16,58],[57,0],[-66,37],[74,25],[16,41],[38,-39]],[[1779,3772],[-27,23],[19,49],[-8,-34],[16,-38]],[[2418,3844],[-24,14],[57,17],[0,-13],[-33,-18]],[[4037,4065],[-31,-40],[-26,6],[0,-33],[48,-39],[-42,-83],[-29,49],[7,-91],[-114,-21],[0,21],[-48,0],[-4,77],[36,89],[49,-21],[-49,-20],[3,-52],[46,-11],[51,33],[21,50],[-32,21],[8,62],[35,34],[67,0],[4,-31]],[[3761,3823],[-42,62],[26,22],[11,-13],[5,-71]],[[2103,3938],[-41,-63],[-9,6],[12,43],[38,14]],[[3516,4054],[51,-75],[49,32],[-22,-64],[17,-68],[-60,-35],[2,-22],[-28,15],[-6,-34],[-57,-42],[-65,42],[-105,20],[-24,63],[30,26],[27,-16],[16,21],[64,-62],[33,10],[-4,62],[-61,0],[73,32],[-8,51],[-33,-10],[25,42],[48,31],[38,-19]],[[3473,4019],[29,-8],[-14,42],[-10,-1],[-5,-33]],[[534,2833],[31,28],[82,-41],[19,62],[-24,95],[48,-25],[125,6],[-24,-36],[29,-26],[-6,-55],[-58,-49],[-10,-49],[-113,31],[16,-20],[-16,-13],[-86,30],[-13,62]]]}