{"objects":{"water":{"type":"GeometryCollection","geometries":[{"type":"Polygon","properties":{"kind":"lake","name":"Tarbela Dam","reservoir":true,"area":591478656,"sort_rank":200,"source":"naturalearthdata.com","min_zoom":0.0,"id":1204},"arcs":[[309]]},{"type":"Point","properties":{"label_placement":true,"kind":"lake","name":"Tarbela Dam","reservoir":true,"area":591478656,"sort_rank":200,"source":"naturalearthdata.com","min_zoom":0.0,"id":1204},"coordinates":[3899,2093]},{"type":"LineString","properties":{"source":"naturalearthdata.com","kind":"lake","reservoir":true,"sort_rank":367,"boundary":true,"min_zoom":0.0,"id":1204},"arcs":[310]}]},"buildings":{"type":"GeometryCollection","geometries":[]},"places":{"type":"GeometryCollection","geometries":[{"type":"Point","properties":{"source":"naturalearthdata.com","kind":"locality","name":"Kabul","country_capital":true,"population":3277000,"min_zoom":3.0,"id":7259},"coordinates":[1224,2263]},{"type":"Point","properties":{"int_name":"Khyber Pakhtunkhwa","name:ja":"\u30ab\u30a4\u30d0\u30eb\u30fb\u30d1\u30af\u30c8\u30a5\u30f3\u30af\u30ef","name:ar":"\u062e\u064a\u0628\u0631 \u0628\u062e\u062a\u0648\u0646\u062e\u0648\u0627","min_zoom":4.0,"name:en":"Khyber Pakhtunkhwa","old_name:en":"North-West Frontier Province","name:uk":"\u0425\u0430\u0439\u0431\u0435\u0440-\u041f\u0430\u0445\u0442\u0443\u043d\u0445\u0432\u0430","old_name":"North-West Frontier Province","loc_name":"Pukhtunkhwa","name:ru":"\u0425\u0430\u0439\u0431\u0435\u0440-\u041f\u0430\u0445\u0442\u0443\u043d\u0445\u0432\u0430","name:pl":"Chajber Pasztunchwa","name:de":"Khyber Pakhtunkhwa","old_name:de":"Nordwestliche Grenzprovinz","population":20215000,"kind":"region","name:hu":"\u00c9szaknyugati hat\u00e1rtartom\u00e1ny","name":"\u062e\u06cc\u0628\u0631 \u067e\u062e\u062a\u0648\u0646\u062e\u0648\u0627","kind_detail":"state","old_name:ru":"\u0421\u0435\u0432\u0435\u0440\u043e-\u0417\u0430\u043f\u0430\u0434\u043d\u0430\u044f \u043f\u0440\u043e\u0432\u0438\u043d\u0446\u0438\u044f","id":316441052,"source":"openstreetmap.org","name:fr":"Khyber Pakhtunkhwa","old_name:ur":"\u0633\u0631\u062d\u062f\u06cc \u0635\u0648\u0628\u06c1\u0633\u0646\u068c"},"coordinates":[3277,2246]},{"type":"Point","properties":{"name:ja":"\u9023\u90a6\u76f4\u8f44\u90e8\u65cf\u5730\u57df","name:ar":"\u0627\u0644\u0645\u0646\u0627\u0637\u0642 \u0627\u0644\u0642\u0628\u0644\u064a\u0629 \u0627\u0644\u062e\u0627\u0636\u0639\u0629 \u0644\u0644\u0625\u062f\u0627\u0631\u0629 \u0627\u0644\u0627\u062a\u062d\u0627\u062f\u064a\u0629","min_zoom":4.0,"name:it":"Aree tribali di amministrazione federale","name:uk":"\u0417\u043e\u043d\u0430 \u041f\u043b\u0435\u043c\u0435\u043d","name:vi":"C\u00e1c khu v\u1ef1c H\u00e0nh ch\u00ednh B\u1ed9 l\u1ea1c Li\u00ean bang","name:ru":"\u0417\u043e\u043d\u0430 \u041f\u043b\u0435\u043c\u0451\u043d","name:hu":"Sz\u00f6vets\u00e9gi Igazgat\u00e1s\u00fa T\u00f6rzsi Ter\u00fcletek","id":316441086,"population":6500000,"kind":"region","name:en":"Federally Administered Tribal Areas","name":"\u0648\u0641\u0627\u0642\u06cc \u0642\u0628\u0627\u0626\u0644\u06cc \u0639\u0644\u0627\u0642\u06c1 \u062c\u0627\u062a","kind_detail":"state","name:de":"Stammesgebiete unter Bundesverwaltung","source":"openstreetmap.org","name:fr":"R\u00e9gions tribales f\u00e9d\u00e9ralement administr\u00e9es"},"coordinates":[2002,924]},{"type":"Point","properties":{"name:ps":"\u063a\u0632\u0646\u06cc","min_zoom":4.0,"name:uk":"\u0413\u0430\u0437\u043d\u0456","name:ru":"\u0413\u0430\u0437\u043d\u0438","name:hu":"Ghazni","id":312470047,"name:ja":"\u30ac\u30ba\u30cb\u30fc\u5dde","name:fa":"\u063a\u0632\u0646\u06cc","kind":"region","name:en":"Ghazni","name":"\u063a\u0632\u0646\u064a","kind_detail":"state","name:de":"Ghazni","source":"openstreetmap.org","name:fr":"Ghazni","population":931000},"coordinates":[240,1202]},{"type":"Point","properties":{"kind":"region","name:en":"Khost","name":"\u062e\u0648\u0633\u062a","kind_detail":"state","min_zoom":4.0,"name:de":"Chost","source":"openstreetmap.org","name:fr":"Kh\u00f4st","name:uk":"\u0425\u043e\u0441\u0442","population":638849,"name:ru":"\u0425\u043e\u0441\u0442","name:pl":"Chost","name:hu":"Khost","id":312470060,"name:ja":"\u30db\u30fc\u30b9\u30c8\u5dde"},"coordinates":[1741,1278]},{"type":"Point","properties":{"int_name":"Nurest\u0101n;Nooristan","name:ja":"\u30cc\u30fc\u30ea\u30b9\u30bf\u30fc\u30f3\u5dde","min_zoom":4.0,"name:uk":"\u041d\u0443\u0440\u0438\u0441\u0442\u0430\u043d","old_name":"Kafiristan","name:ru":"\u041d\u0443\u0440\u0438\u0441\u0442\u0430\u043d","name:hu":"Nureszt\u00e1n","id":312470055,"population":112000,"kind":"region","name:en":"Nuristan","name":"\u0646\u0648\u0631\u0633\u062a\u0627\u0646","kind_detail":"state","name:de":"Nuristan","source":"openstreetmap.org","name:fr":"Nouristan"},"coordinates":[2427,2952]},{"type":"Point","properties":{"kind":"region","name:en":"Wardak","name":"\u0645\u06cc\u062f\u0627\u0646 \u0648\u0631\u062f\u06ab","kind_detail":"state","min_zoom":4.0,"name:de":"Wardak","source":"openstreetmap.org","name:fr":"Wardak","name:uk":"\u0412\u0430\u0440\u0434\u0430\u043a","name:ru":"\u0412\u0430\u0440\u0434\u0430\u043a","name:hu":"Vardak","id":312470031,"name:ja":"\u30f4\u30a1\u30eb\u30c0\u30af\u5dde"},"coordinates":[609,2087]},{"type":"Point","properties":{"kind":"region","name:en":"Nangarhar","name":"\u0646\u0646\u06ab\u0631\u0647\u0627\u0631","kind_detail":"state","min_zoom":4.0,"name:de":"Nangarhar","source":"openstreetmap.org","name:fr":"Nangarh\u00e2r","name:uk":"\u041d\u0430\u043d\u0433\u0430\u0440\u0445\u0430\u0440","name:ru":"\u041d\u0430\u043d\u0433\u0430\u0440\u0445\u0430\u0440","name:hu":"Nangarhar","id":312470039,"name:ja":"\u30ca\u30f3\u30ac\u30eb\u30cf\u30fc\u30eb\u5dde"},"coordinates":[2097,2000]},{"type":"Point","properties":{"kind":"region","name:en":"Parwan","name":"\u067e\u0631\u0648\u0627\u0646","kind_detail":"state","min_zoom":4.0,"name:de":"Parwan","source":"openstreetmap.org","name:fr":"Parw\u00e2n","name:uk":"\u041f\u0430\u0440\u0432\u0430\u043d","name:ru":"\u041f\u0430\u0440\u0432\u0430\u043d","name:hu":"Parv\u00e1n","id":312470059,"name:ja":"\u30d1\u30eb\u30f4\u30a1\u30fc\u30f3\u5dde"},"coordinates":[1030,2669]},{"type":"Point","properties":{"kind":"region","name:en":"Kabul","name":"\u06a9\u0627\u0628\u0644","kind_detail":"state","min_zoom":4.0,"name:de":"Kabul","source":"openstreetmap.org","name:fr":"Kaboul","name:uk":"\u041a\u0430\u0431\u0443\u043b","name:ru":"\u041a\u0430\u0431\u0443\u043b","name:hu":"Kabul","id":1732058641,"name:ja":"\u30ab\u30fc\u30d6\u30eb\u5dde"},"coordinates":[1396,2246]},{"type":"Point","properties":{"kind":"region","name:en":"Kapisa","name":"\u06a9\u0627\u067e\u064a\u0633\u0627","kind_detail":"state","min_zoom":4.0,"source":"openstreetmap.org","name:fr":"K\u00e2p\u00eess\u00e2","name:uk":"\u041a\u0430\u043f\u0456\u0441\u0430","name:ru":"\u041a\u0430\u043f\u0438\u0441\u0430","name:hu":"K\u00e1pisz\u00e1","id":1732058689,"name:ja":"\u30ab\u30fc\u30d4\u30fc\u30b5\u30fc\u5dde"},"coordinates":[1632,2604]},{"type":"Point","properties":{"kind":"region","name:en":"Laghman","name":"\u0644\u063a\u0645\u0627\u0646","kind_detail":"state","min_zoom":4.0,"name:de":"Laghman","source":"openstreetmap.org","name:fr":"Laghm\u00e2n","name:uk":"\u041b\u0430\u0433\u043c\u0430\u043d","name:ru":"\u041b\u0430\u0433\u043c\u0430\u043d","name:hu":"Laghman","id":312470029,"name:ja":"\u30e9\u30b0\u30de\u30fc\u30f3\u5dde"},"coordinates":[1954,2496]},{"type":"Point","properties":{"kind":"region","name:en":"Kapisa","name":"\u06a9\u0627\u067e\u064a\u0633\u0627","kind_detail":"state","name:ar":"\u0643\u0627\u0628\u064a\u0633\u0627","name:de":"Kapisa","source":"openstreetmap.org","min_zoom":4.0,"name:ru":"\u041a\u0430\u043f\u0438\u0441\u0430","name:hu":"K\u00e1pisz\u00e1","id":312470058},"coordinates":[1632,2604]},{"type":"Point","properties":{"kind":"region","name:en":"Paktika","name":"\u067e\u06a9\u062a\u06cc\u06a9\u0627","kind_detail":"state","min_zoom":4.0,"name:de":"Paktika","source":"openstreetmap.org","name:fr":"Pakt\u00eek\u00e2","name:uk":"\u041f\u0430\u043a\u0442\u0438\u043a\u0430","name:ru":"\u041f\u0430\u043a\u0442\u0438\u043a\u0430","name:hu":"Paktika","id":312470033,"name:ja":"\u30d1\u30af\u30c6\u30a3\u30fc\u30ab\u30fc\u5dde"},"coordinates":[876,389]},{"type":"Point","properties":{"kind":"region","name:en":"Paktia","name":"\u067e\u06a9\u062a\u064a\u0627","kind_detail":"state","min_zoom":4.0,"name:de":"Paktia","source":"openstreetmap.org","name:fr":"Paktiy\u00e2","name:uk":"\u041f\u0430\u043a\u0442\u0456\u044f","name:ru":"\u041f\u0430\u043a\u0442\u0438\u044f","name:pl":"Paktija","name:hu":"Paktia","id":312470045,"name:ja":"\u30d1\u30af\u30c6\u30a3\u30e4\u30fc\u5dde"},"coordinates":[1390,1546]},{"type":"Point","properties":{"kind":"region","name:en":"Baghlan","name":"\u0628\u063a\u0644\u0627\u0646","name:lt":"Baglano provincija","kind_detail":"state","min_zoom":4.0,"name:de":"Baglan","source":"openstreetmap.org","name:fr":"Baghl\u00e2n","name:uk":"\u0411\u0430\u0433\u043b\u0430\u043d","name:ru":"\u0411\u0430\u0433\u043b\u0430\u043d","name:hu":"Bagl\u00e1n","id":312470049,"name:ja":"\u30d0\u30b0\u30e9\u30fc\u30f3\u5dde"},"coordinates":[1092,3348]},{"type":"Point","properties":{"kind":"region","name:en":"Takhar","name":"\u062a\u062e\u0627\u0631","kind_detail":"state","min_zoom":4.0,"name:de":"Tachar","source":"openstreetmap.org","name:fr":"Takh\u00e2r","name:uk":"\u0422\u0430\u0445\u0430\u0440","name:ru":"\u0422\u0430\u0445\u0430\u0440","name:pl":"Tachar","name:hu":"Tah\u00e1r","id":312470050,"name:ja":"\u30bf\u30cf\u30fc\u30eb\u5dde"},"coordinates":[1670,4093]},{"type":"Point","properties":{"kind":"region","name:en":"Samangan","name":"\u0633\u0645\u0646\u06af\u0627\u0646\u200e","kind_detail":"state","min_zoom":4.0,"name:de":"Samangan","source":"openstreetmap.org","name:fr":"Samang\u00e2n","name:uk":"\u0421\u0430\u043c\u0430\u043d\u0433\u0430\u043d","name:ru":"\u0421\u0430\u043c\u0430\u043d\u0433\u0430\u043d","name:hu":"Szamang\u00e1n","id":312470056,"name:ja":"\u30b5\u30de\u30f3\u30ac\u30fc\u30f3\u5dde"},"coordinates":[121,3569]},{"type":"Point","properties":{"kind":"region","name:en":"Panjshir","name":"\u067e\u0646\u062c\u0634\u06cc\u0631","kind_detail":"state","min_zoom":4.0,"name:de":"Panjshir","source":"openstreetmap.org","name:fr":"Panshir","int_name":"Pandjchir;Panjsher","name:uk":"\u041f\u0430\u043d\u0434\u0436\u0448\u0435\u0440","name:ru":"\u041f\u0430\u043d\u0434\u0436\u0448\u0435\u0440","name:pl":"Pand\u017cszir","name:hu":"Pandzssir","id":2278921325,"name:ja":"\u30d1\u30f3\u30b8\u30b7\u30fc\u30eb\u5dde"},"coordinates":[1670,3070]},{"type":"Point","properties":{"source":"naturalearthdata.com","kind":"locality","name":"Peshawar","population":1303000,"region_capital":true,"min_zoom":5.0,"id":6855},"coordinates":[2937,1812]},{"type":"Point","properties":{"source":"naturalearthdata.com","kind":"locality","name":"Saidu","population":1860310,"min_zoom":6.0,"id":4999},"coordinates":[3532,2467]},{"type":"Point","properties":{"source":"naturalearthdata.com","kind":"locality","name":"Rawalpindi","population":1858000,"min_zoom":6.0,"id":4994},"coordinates":[4033,1455]},{"type":"Point","properties":{"source":"naturalearthdata.com","kind":"locality","name":"Baghlan","population":218748,"region_capital":true,"min_zoom":6.0,"id":5547},"coordinates":[873,3692]},{"type":"Point","properties":{"source":"naturalearthdata.com","kind":"locality","name":"Bamian","population":61863,"region_capital":true,"min_zoom":6.0,"id":5546},"coordinates":[15,2529]}]},"transit":{"type":"GeometryCollection","geometries":[{"type":"MultiLineString","properties":{"source":"openstreetmap.org","kind":"train","name":"19\/20 Khrushhal Khan Khattack Express","sort_rank":275,"min_zoom":6.0,"osm_relation":true},"arcs":[[307],[308]]}]},"pois":{"type":"GeometryCollection","geometries":[]},"boundaries":{"type":"GeometryCollection","geometries":[{"type":"MultiLineString","properties":{"source":"naturalearthdata.com","kind":"country","sort_rank":262,"kind_detail":"2","min_zoom":0.0,"id":327},"arcs":[[0],[1],[2],[3],[4],[5],[6],[7],[8],[9],[10],[11],[12],[13],[14],[15],[16],[17],[18],[19],[20],[21],[22]]},{"type":"MultiLineString","properties":{"source":"naturalearthdata.com","kind":"region","sort_rank":256,"kind_detail":"4","min_zoom":3.0,"id":2866},"arcs":[[23],[24],[25],[26],[27],[28],[29],[30],[31],[32],[33],[34],[35],[36],[37],[38],[39],[40],[41],[42],[43],[44],[45],[46],[47],[48],[49],[50],[51],[52],[53],[54],[55],[56],[57],[58],[59],[60],[61],[62],[63],[64],[65],[66],[67],[68],[69]]},{"type":"LineString","properties":{"source":"naturalearthdata.com","kind":"region","sort_rank":256,"kind_detail":"4","min_zoom":3.0,"id":2867},"arcs":[70]},{"type":"LineString","properties":{"source":"naturalearthdata.com","kind":"region","sort_rank":256,"kind_detail":"4","min_zoom":5.5,"id":5257},"arcs":[71]},{"type":"LineString","properties":{"source":"naturalearthdata.com","kind":"region","sort_rank":256,"kind_detail":"4","min_zoom":5.5,"id":5274},"arcs":[72]},{"type":"MultiLineString","properties":{"source":"naturalearthdata.com","kind":"region","sort_rank":256,"kind_detail":"4","min_zoom":5.5,"id":5275},"arcs":[[73],[74],[75],[76],[77],[78]]},{"type":"LineString","properties":{"source":"naturalearthdata.com","kind":"region","sort_rank":256,"kind_detail":"4","min_zoom":5.5,"id":5287},"arcs":[79]},{"type":"LineString","properties":{"source":"naturalearthdata.com","kind":"region","sort_rank":256,"kind_detail":"4","min_zoom":5.5,"id":5295},"arcs":[80]},{"type":"LineString","properties":{"source":"naturalearthdata.com","kind":"region","sort_rank":256,"kind_detail":"4","min_zoom":5.5,"id":5305},"arcs":[81]},{"type":"LineString","properties":{"source":"naturalearthdata.com","kind":"region","sort_rank":256,"kind_detail":"4","min_zoom":5.5,"id":5313},"arcs":[82]},{"type":"LineString","properties":{"source":"naturalearthdata.com","kind":"region","sort_rank":256,"kind_detail":"4","min_zoom":5.5,"id":5335},"arcs":[83]},{"type":"LineString","properties":{"source":"naturalearthdata.com","kind":"region","sort_rank":256,"kind_detail":"4","min_zoom":5.5,"id":5336},"arcs":[84]},{"type":"MultiLineString","properties":{"source":"naturalearthdata.com","kind":"region","sort_rank":256,"kind_detail":"4","min_zoom":3.0,"id":829},"arcs":[[85],[86],[87],[88],[89],[90],[91],[92],[93],[94]]},{"type":"MultiLineString","properties":{"source":"naturalearthdata.com","kind":"region","sort_rank":256,"kind_detail":"4","min_zoom":3.0,"id":2865},"arcs":[[95],[96]]},{"type":"MultiLineString","properties":{"source":"naturalearthdata.com","kind":"region","sort_rank":256,"kind_detail":"4","min_zoom":3.0,"id":2871},"arcs":[[97],[98],[99]]},{"type":"MultiLineString","properties":{"source":"naturalearthdata.com","kind":"region","sort_rank":256,"kind_detail":"4","min_zoom":3.0,"id":2872},"arcs":[[100],[101],[102],[103],[104],[105],[106],[107],[108],[109],[110],[111],[112],[113],[114],[115],[116],[117],[118],[119],[120],[121],[122],[123],[124],[125],[126],[127],[128],[129],[130],[131]]},{"type":"MultiLineString","properties":{"source":"naturalearthdata.com","kind":"region","sort_rank":256,"kind_detail":"4","min_zoom":5.5,"id":5258},"arcs":[[132],[133],[134]]},{"type":"LineString","properties":{"source":"naturalearthdata.com","kind":"region","sort_rank":256,"kind_detail":"4","min_zoom":5.5,"id":5259},"arcs":[135]},{"type":"LineString","properties":{"source":"naturalearthdata.com","kind":"region","sort_rank":256,"kind_detail":"4","min_zoom":5.5,"id":5260},"arcs":[136]},{"type":"LineString","properties":{"source":"naturalearthdata.com","kind":"region","sort_rank":256,"kind_detail":"4","min_zoom":5.5,"id":5261},"arcs":[137]},{"type":"MultiLineString","properties":{"source":"naturalearthdata.com","kind":"region","sort_rank":256,"kind_detail":"4","min_zoom":5.5,"id":5262},"arcs":[[138],[139],[140],[141],[142],[143]]},{"type":"LineString","properties":{"source":"naturalearthdata.com","kind":"region","sort_rank":256,"kind_detail":"4","min_zoom":5.5,"id":5263},"arcs":[144]},{"type":"MultiLineString","properties":{"source":"naturalearthdata.com","kind":"region","sort_rank":256,"kind_detail":"4","min_zoom":5.5,"id":5264},"arcs":[[145],[146]]},{"type":"MultiLineString","properties":{"source":"naturalearthdata.com","kind":"region","sort_rank":256,"kind_detail":"4","min_zoom":5.5,"id":5265},"arcs":[[147],[148],[149],[150],[151],[152],[153],[154]]},{"type":"LineString","properties":{"source":"naturalearthdata.com","kind":"region","sort_rank":256,"kind_detail":"4","min_zoom":5.5,"id":5266},"arcs":[155]},{"type":"LineString","properties":{"source":"naturalearthdata.com","kind":"region","sort_rank":256,"kind_detail":"4","min_zoom":5.5,"id":5267},"arcs":[156]},{"type":"MultiLineString","properties":{"source":"naturalearthdata.com","kind":"region","sort_rank":256,"kind_detail":"4","min_zoom":5.5,"id":5268},"arcs":[[157],[158],[159],[160],[161],[162],[163]]},{"type":"LineString","properties":{"source":"naturalearthdata.com","kind":"region","sort_rank":256,"kind_detail":"4","min_zoom":5.5,"id":5269},"arcs":[164]},{"type":"MultiLineString","properties":{"source":"naturalearthdata.com","kind":"region","sort_rank":256,"kind_detail":"4","min_zoom":5.5,"id":5271},"arcs":[[165],[166],[167],[168],[169],[170],[171],[172]]},{"type":"MultiLineString","properties":{"source":"naturalearthdata.com","kind":"region","sort_rank":256,"kind_detail":"4","min_zoom":5.5,"id":5272},"arcs":[[173],[174],[175],[176],[177],[178],[179],[180]]},{"type":"MultiLineString","properties":{"source":"naturalearthdata.com","kind":"region","sort_rank":256,"kind_detail":"4","min_zoom":5.5,"id":5273},"arcs":[[181],[182]]},{"type":"LineString","properties":{"source":"naturalearthdata.com","kind":"region","sort_rank":256,"kind_detail":"4","min_zoom":5.5,"id":5276},"arcs":[183]},{"type":"MultiLineString","properties":{"source":"naturalearthdata.com","kind":"region","sort_rank":256,"kind_detail":"4","min_zoom":5.5,"id":5281},"arcs":[[184],[185],[186],[187],[188],[189],[190],[191],[192]]},{"type":"MultiLineString","properties":{"source":"naturalearthdata.com","kind":"region","sort_rank":256,"kind_detail":"4","min_zoom":5.5,"id":5282},"arcs":[[193],[194],[195],[196],[197],[198],[199]]},{"type":"MultiLineString","properties":{"source":"naturalearthdata.com","kind":"region","sort_rank":256,"kind_detail":"4","min_zoom":5.5,"id":5283},"arcs":[[200],[201],[202],[203],[204],[205],[206],[207],[208]]},{"type":"MultiLineString","properties":{"source":"naturalearthdata.com","kind":"region","sort_rank":256,"kind_detail":"4","min_zoom":5.5,"id":5284},"arcs":[[209],[210],[211],[212]]},{"type":"MultiLineString","properties":{"source":"naturalearthdata.com","kind":"region","sort_rank":256,"kind_detail":"4","min_zoom":5.5,"id":5285},"arcs":[[213],[214],[215],[216],[217],[218],[219],[220],[221],[222]]},{"type":"MultiLineString","properties":{"source":"naturalearthdata.com","kind":"region","sort_rank":256,"kind_detail":"4","min_zoom":5.5,"id":5286},"arcs":[[223],[224]]},{"type":"MultiLineString","properties":{"source":"naturalearthdata.com","kind":"region","sort_rank":256,"kind_detail":"4","min_zoom":5.5,"id":5288},"arcs":[[225],[226],[227],[228],[229],[230],[231]]},{"type":"LineString","properties":{"source":"naturalearthdata.com","kind":"region","sort_rank":256,"kind_detail":"4","min_zoom":5.5,"id":5290},"arcs":[232]},{"type":"MultiLineString","properties":{"source":"naturalearthdata.com","kind":"region","sort_rank":256,"kind_detail":"4","min_zoom":5.5,"id":5296},"arcs":[[233],[234],[235],[236],[237],[238],[239]]},{"type":"LineString","properties":{"source":"naturalearthdata.com","kind":"region","sort_rank":256,"kind_detail":"4","min_zoom":5.5,"id":5297},"arcs":[240]},{"type":"MultiLineString","properties":{"source":"naturalearthdata.com","kind":"region","sort_rank":256,"kind_detail":"4","min_zoom":5.5,"id":5298},"arcs":[[241],[242],[243],[244]]},{"type":"MultiLineString","properties":{"source":"naturalearthdata.com","kind":"region","sort_rank":256,"kind_detail":"4","min_zoom":5.5,"id":5299},"arcs":[[245],[246],[247]]},{"type":"MultiLineString","properties":{"source":"naturalearthdata.com","kind":"region","sort_rank":256,"kind_detail":"4","min_zoom":5.5,"id":5300},"arcs":[[248],[249],[250]]},{"type":"MultiLineString","properties":{"source":"naturalearthdata.com","kind":"region","sort_rank":256,"kind_detail":"4","min_zoom":5.5,"id":5301},"arcs":[[251],[252],[253],[254],[255],[256],[257],[258]]},{"type":"LineString","properties":{"source":"naturalearthdata.com","kind":"region","sort_rank":256,"kind_detail":"4","min_zoom":5.5,"id":5302},"arcs":[259]},{"type":"LineString","properties":{"source":"naturalearthdata.com","kind":"region","sort_rank":256,"kind_detail":"4","min_zoom":5.5,"id":5303},"arcs":[260]},{"type":"MultiLineString","properties":{"source":"naturalearthdata.com","kind":"region","sort_rank":256,"kind_detail":"4","min_zoom":5.5,"id":5304},"arcs":[[261],[262],[263],[264],[265],[266]]},{"type":"MultiLineString","properties":{"source":"naturalearthdata.com","kind":"region","sort_rank":256,"kind_detail":"4","min_zoom":5.5,"id":5306},"arcs":[[267],[268],[269],[270],[271]]},{"type":"MultiLineString","properties":{"source":"naturalearthdata.com","kind":"region","sort_rank":256,"kind_detail":"4","min_zoom":5.5,"id":5307},"arcs":[[272],[273],[274]]},{"type":"MultiLineString","properties":{"source":"naturalearthdata.com","kind":"region","sort_rank":256,"kind_detail":"4","min_zoom":5.5,"id":5308},"arcs":[[275],[276],[277],[278]]},{"type":"MultiLineString","properties":{"source":"naturalearthdata.com","kind":"region","sort_rank":256,"kind_detail":"4","min_zoom":5.5,"id":5309},"arcs":[[279],[280],[281],[282],[283],[284],[285],[286],[287]]},{"type":"MultiLineString","properties":{"source":"naturalearthdata.com","kind":"region","sort_rank":256,"kind_detail":"4","min_zoom":5.5,"id":5310},"arcs":[[288],[289],[290],[291],[292],[293],[294],[295],[296],[297]]},{"type":"MultiLineString","properties":{"source":"naturalearthdata.com","kind":"region","sort_rank":256,"kind_detail":"4","min_zoom":5.5,"id":5311},"arcs":[[298],[299],[300],[301],[302],[303]]},{"type":"MultiLineString","properties":{"source":"naturalearthdata.com","kind":"region","sort_rank":256,"kind_detail":"4","min_zoom":5.5,"id":5334},"arcs":[[304],[305],[306]]}]},"roads":{"type":"GeometryCollection","geometries":[{"type":"LineString","properties":{"source":"naturalearthdata.com","kind":"major_road","sort_rank":379,"kind_detail":"secondary","min_zoom":4.0,"id":22853},"arcs":[311]},{"type":"LineString","properties":{"source":"naturalearthdata.com","kind":"major_road","sort_rank":379,"kind_detail":"secondary","min_zoom":4.0,"id":22854},"arcs":[312]},{"type":"LineString","properties":{"source":"naturalearthdata.com","kind":"minor_road","sort_rank":355,"kind_detail":"tertiary","min_zoom":5.0,"id":23280},"arcs":[313]},{"type":"LineString","properties":{"source":"naturalearthdata.com","kind":"minor_road","sort_rank":355,"kind_detail":"tertiary","min_zoom":5.0,"id":23444},"arcs":[314]},{"type":"LineString","properties":{"source":"naturalearthdata.com","kind":"major_road","sort_rank":379,"kind_detail":"secondary","min_zoom":4.0,"id":23445},"arcs":[315]},{"type":"LineString","properties":{"source":"naturalearthdata.com","kind":"major_road","sort_rank":379,"kind_detail":"secondary","min_zoom":4.0,"id":23750},"arcs":[316]},{"type":"LineString","properties":{"source":"naturalearthdata.com","kind":"major_road","sort_rank":379,"kind_detail":"secondary","min_zoom":4.0,"id":23767},"arcs":[317]},{"type":"LineString","properties":{"source":"naturalearthdata.com","kind":"major_road","sort_rank":379,"kind_detail":"secondary","min_zoom":4.0,"id":24259},"arcs":[318]},{"type":"LineString","properties":{"source":"naturalearthdata.com","kind":"minor_road","sort_rank":355,"kind_detail":"tertiary","min_zoom":5.0,"id":24292},"arcs":[319]},{"type":"LineString","properties":{"source":"naturalearthdata.com","kind":"minor_road","sort_rank":355,"kind_detail":"tertiary","min_zoom":6.0,"id":24499},"arcs":[320]},{"type":"LineString","properties":{"source":"naturalearthdata.com","kind":"highway","sort_rank":383,"kind_detail":"motorway","min_zoom":4.0,"id":24522},"arcs":[321]},{"type":"LineString","properties":{"source":"naturalearthdata.com","kind":"minor_road","sort_rank":355,"kind_detail":"tertiary","min_zoom":6.0,"id":24527},"arcs":[322]},{"type":"LineString","properties":{"source":"naturalearthdata.com","kind":"minor_road","sort_rank":355,"kind_detail":"tertiary","min_zoom":6.0,"id":24570},"arcs":[323]},{"type":"LineString","properties":{"source":"naturalearthdata.com","kind":"minor_road","kind_detail":"tertiary","sort_rank":355,"landuse_kind":"urban_area","min_zoom":5.0,"id":24630},"arcs":[324]},{"type":"LineString","properties":{"source":"naturalearthdata.com","kind":"minor_road","sort_rank":355,"kind_detail":"tertiary","min_zoom":5.0,"id":24630},"arcs":[325]},{"type":"LineString","properties":{"source":"naturalearthdata.com","kind":"minor_road","kind_detail":"tertiary","sort_rank":355,"landuse_kind":"urban_area","min_zoom":5.0,"id":24825},"arcs":[326]},{"type":"LineString","properties":{"source":"naturalearthdata.com","kind":"minor_road","sort_rank":355,"kind_detail":"tertiary","min_zoom":5.0,"id":24825},"arcs":[327]},{"type":"LineString","properties":{"source":"naturalearthdata.com","kind":"major_road","sort_rank":379,"kind_detail":"secondary","min_zoom":3.0,"id":24878},"arcs":[328]},{"type":"LineString","properties":{"source":"naturalearthdata.com","kind":"major_road","sort_rank":379,"kind_detail":"secondary","min_zoom":4.0,"id":24922},"arcs":[329]},{"type":"LineString","properties":{"source":"naturalearthdata.com","kind":"major_road","sort_rank":379,"kind_detail":"secondary","min_zoom":3.0,"id":24931},"arcs":[330]},{"type":"LineString","properties":{"source":"naturalearthdata.com","kind":"major_road","sort_rank":379,"kind_detail":"secondary","min_zoom":3.0,"id":24939},"arcs":[331]},{"type":"LineString","properties":{"source":"naturalearthdata.com","kind":"minor_road","sort_rank":355,"kind_detail":"tertiary","min_zoom":5.0,"id":24950},"arcs":[332]},{"type":"LineString","properties":{"source":"naturalearthdata.com","kind":"minor_road","sort_rank":355,"kind_detail":"tertiary","min_zoom":6.0,"id":24975},"arcs":[333]},{"type":"LineString","properties":{"source":"naturalearthdata.com","kind":"major_road","sort_rank":379,"kind_detail":"secondary","min_zoom":3.0,"id":24992},"arcs":[334]},{"type":"LineString","properties":{"source":"naturalearthdata.com","kind":"major_road","sort_rank":379,"kind_detail":"secondary","min_zoom":3.0,"id":25008},"arcs":[335]},{"type":"LineString","properties":{"source":"naturalearthdata.com","kind":"major_road","kind_detail":"secondary","sort_rank":379,"landuse_kind":"urban_area","min_zoom":3.0,"id":25025},"arcs":[336]},{"type":"LineString","properties":{"source":"naturalearthdata.com","kind":"major_road","sort_rank":379,"kind_detail":"secondary","min_zoom":3.0,"id":25025},"arcs":[337]},{"type":"LineString","properties":{"source":"naturalearthdata.com","kind":"major_road","sort_rank":379,"kind_detail":"secondary","min_zoom":3.0,"id":25063},"arcs":[338]},{"type":"LineString","properties":{"source":"naturalearthdata.com","kind":"minor_road","sort_rank":355,"kind_detail":"tertiary","min_zoom":6.0,"id":25064},"arcs":[339]},{"type":"LineString","properties":{"source":"naturalearthdata.com","kind":"minor_road","sort_rank":355,"kind_detail":"tertiary","min_zoom":6.0,"id":25073},"arcs":[340]},{"type":"LineString","properties":{"source":"naturalearthdata.com","kind":"minor_road","sort_rank":355,"kind_detail":"tertiary","min_zoom":6.0,"id":25116},"arcs":[341]},{"type":"LineString","properties":{"source":"naturalearthdata.com","kind":"major_road","sort_rank":379,"kind_detail":"secondary","min_zoom":4.0,"id":25131},"arcs":[342]},{"type":"LineString","properties":{"source":"naturalearthdata.com","kind":"minor_road","kind_detail":"tertiary","sort_rank":355,"landuse_kind":"urban_area","min_zoom":5.0,"id":25246},"arcs":[343]},{"type":"LineString","properties":{"source":"naturalearthdata.com","kind":"minor_road","kind_detail":"tertiary","sort_rank":355,"landuse_kind":"urban_area","min_zoom":5.0,"id":25246},"arcs":[344]},{"type":"MultiLineString","properties":{"source":"naturalearthdata.com","kind":"minor_road","sort_rank":355,"kind_detail":"tertiary","min_zoom":5.0,"id":25246},"arcs":[[345],[346]]},{"type":"LineString","properties":{"source":"naturalearthdata.com","kind":"major_road","sort_rank":379,"kind_detail":"secondary","min_zoom":3.0,"id":25387},"arcs":[347]},{"type":"LineString","properties":{"source":"naturalearthdata.com","kind":"minor_road","kind_detail":"tertiary","sort_rank":355,"landuse_kind":"urban_area","min_zoom":5.0,"id":25417},"arcs":[348]},{"type":"LineString","properties":{"source":"naturalearthdata.com","kind":"major_road","kind_detail":"secondary","sort_rank":379,"landuse_kind":"urban_area","min_zoom":3.0,"id":25418},"arcs":[349]},{"type":"LineString","properties":{"source":"naturalearthdata.com","kind":"major_road","kind_detail":"secondary","sort_rank":379,"landuse_kind":"urban_area","min_zoom":3.0,"id":25420},"arcs":[350]},{"type":"LineString","properties":{"source":"naturalearthdata.com","kind":"major_road","kind_detail":"secondary","sort_rank":379,"landuse_kind":"urban_area","min_zoom":3.0,"id":25420},"arcs":[351]},{"type":"LineString","properties":{"source":"naturalearthdata.com","kind":"major_road","kind_detail":"secondary","sort_rank":379,"landuse_kind":"urban_area","min_zoom":3.0,"id":25420},"arcs":[352]},{"type":"MultiLineString","properties":{"source":"naturalearthdata.com","kind":"major_road","sort_rank":379,"kind_detail":"secondary","min_zoom":3.0,"id":25420},"arcs":[[353],[354]]},{"type":"LineString","properties":{"source":"naturalearthdata.com","kind":"minor_road","sort_rank":355,"kind_detail":"tertiary","min_zoom":5.0,"id":25455},"arcs":[355]},{"type":"MultiLineString","properties":{"source":"naturalearthdata.com","kind":"minor_road","kind_detail":"tertiary","sort_rank":355,"landuse_kind":"urban_area","min_zoom":5.0,"id":25526},"arcs":[[356],[357],[358]]},{"type":"MultiLineString","properties":{"source":"naturalearthdata.com","kind":"minor_road","sort_rank":355,"kind_detail":"tertiary","min_zoom":5.0,"id":25526},"arcs":[[359],[360],[361]]},{"type":"MultiLineString","properties":{"source":"naturalearthdata.com","kind":"major_road","kind_detail":"secondary","sort_rank":379,"landuse_kind":"urban_area","min_zoom":3.0,"id":25527},"arcs":[[362],[363],[364]]},{"type":"MultiLineString","properties":{"source":"naturalearthdata.com","kind":"major_road","sort_rank":379,"kind_detail":"secondary","min_zoom":3.0,"id":25527},"arcs":[[365],[366],[367]]},{"type":"LineString","properties":{"source":"naturalearthdata.com","kind":"major_road","kind_detail":"secondary","sort_rank":379,"landuse_kind":"urban_area","min_zoom":4.0,"id":25605},"arcs":[368]},{"type":"LineString","properties":{"source":"naturalearthdata.com","kind":"major_road","kind_detail":"secondary","sort_rank":379,"landuse_kind":"urban_area","min_zoom":4.0,"id":25605},"arcs":[369]},{"type":"MultiLineString","properties":{"source":"naturalearthdata.com","kind":"major_road","sort_rank":379,"kind_detail":"secondary","min_zoom":4.0,"id":25605},"arcs":[[370],[371]]},{"type":"LineString","properties":{"source":"naturalearthdata.com","kind":"major_road","kind_detail":"secondary","sort_rank":379,"landuse_kind":"urban_area","min_zoom":3.0,"id":25606},"arcs":[372]},{"type":"LineString","properties":{"source":"naturalearthdata.com","kind":"major_road","sort_rank":379,"kind_detail":"secondary","min_zoom":3.0,"id":25606},"arcs":[373]},{"type":"LineString","properties":{"source":"naturalearthdata.com","kind":"major_road","kind_detail":"secondary","sort_rank":379,"landuse_kind":"urban_area","min_zoom":3.0,"id":25684},"arcs":[374]},{"type":"LineString","properties":{"source":"naturalearthdata.com","kind":"major_road","sort_rank":379,"kind_detail":"secondary","min_zoom":3.0,"id":25684},"arcs":[375]},{"type":"LineString","properties":{"source":"naturalearthdata.com","kind":"major_road","kind_detail":"secondary","sort_rank":379,"landuse_kind":"urban_area","min_zoom":3.0,"id":25726},"arcs":[376]},{"type":"LineString","properties":{"source":"naturalearthdata.com","kind":"major_road","sort_rank":379,"kind_detail":"secondary","min_zoom":3.0,"id":25726},"arcs":[377]},{"type":"LineString","properties":{"source":"naturalearthdata.com","kind":"minor_road","sort_rank":355,"kind_detail":"tertiary","min_zoom":5.0,"id":25729},"arcs":[378]},{"type":"LineString","properties":{"source":"naturalearthdata.com","kind":"minor_road","kind_detail":"tertiary","sort_rank":355,"landuse_kind":"urban_area","min_zoom":6.0,"id":25730},"arcs":[379]},{"type":"LineString","properties":{"source":"naturalearthdata.com","kind":"minor_road","kind_detail":"tertiary","sort_rank":355,"landuse_kind":"urban_area","min_zoom":6.0,"id":25730},"arcs":[380]},{"type":"LineString","properties":{"source":"naturalearthdata.com","kind":"minor_road","sort_rank":355,"kind_detail":"tertiary","min_zoom":6.0,"id":25730},"arcs":[381]},{"type":"LineString","properties":{"source":"naturalearthdata.com","kind":"major_road","kind_detail":"secondary","sort_rank":379,"landuse_kind":"urban_area","min_zoom":3.0,"id":25768},"arcs":[382]},{"type":"LineString","properties":{"source":"naturalearthdata.com","kind":"minor_road","kind_detail":"tertiary","sort_rank":355,"landuse_kind":"urban_area","min_zoom":5.0,"id":25807},"arcs":[383]},{"type":"MultiLineString","properties":{"source":"naturalearthdata.com","kind":"minor_road","sort_rank":355,"kind_detail":"tertiary","min_zoom":5.0,"id":25807},"arcs":[[384],[385]]},{"type":"LineString","properties":{"source":"naturalearthdata.com","kind":"minor_road","kind_detail":"tertiary","sort_rank":355,"landuse_kind":"urban_area","min_zoom":5.0,"id":25826},"arcs":[386]},{"type":"LineString","properties":{"source":"naturalearthdata.com","kind":"minor_road","kind_detail":"tertiary","sort_rank":355,"landuse_kind":"urban_area","min_zoom":5.0,"id":25826},"arcs":[387]},{"type":"LineString","properties":{"source":"naturalearthdata.com","kind":"minor_road","kind_detail":"tertiary","sort_rank":355,"landuse_kind":"urban_area","min_zoom":5.0,"id":25826},"arcs":[388]},{"type":"LineString","properties":{"source":"naturalearthdata.com","kind":"minor_road","kind_detail":"tertiary","sort_rank":355,"landuse_kind":"urban_area","min_zoom":5.0,"id":25826},"arcs":[389]},{"type":"MultiLineString","properties":{"source":"naturalearthdata.com","kind":"minor_road","sort_rank":355,"kind_detail":"tertiary","min_zoom":5.0,"id":25826},"arcs":[[390],[391],[392],[393]]},{"type":"LineString","properties":{"source":"naturalearthdata.com","kind":"minor_road","sort_rank":355,"kind_detail":"tertiary","min_zoom":5.0,"id":25967},"arcs":[394]},{"type":"LineString","properties":{"source":"naturalearthdata.com","kind":"minor_road","sort_rank":355,"kind_detail":"tertiary","min_zoom":5.0,"id":26014},"arcs":[395]},{"type":"LineString","properties":{"source":"naturalearthdata.com","kind":"minor_road","kind_detail":"tertiary","sort_rank":355,"landuse_kind":"urban_area","min_zoom":6.0,"id":26174},"arcs":[396]},{"type":"LineString","properties":{"source":"naturalearthdata.com","kind":"minor_road","kind_detail":"tertiary","sort_rank":355,"landuse_kind":"urban_area","min_zoom":6.0,"id":26174},"arcs":[397]},{"type":"LineString","properties":{"source":"naturalearthdata.com","kind":"minor_road","kind_detail":"tertiary","sort_rank":355,"landuse_kind":"urban_area","min_zoom":6.0,"id":26174},"arcs":[398]},{"type":"LineString","properties":{"source":"naturalearthdata.com","kind":"minor_road","kind_detail":"tertiary","sort_rank":355,"landuse_kind":"urban_area","min_zoom":6.0,"id":26174},"arcs":[399]},{"type":"MultiLineString","properties":{"source":"naturalearthdata.com","kind":"minor_road","sort_rank":355,"kind_detail":"tertiary","min_zoom":6.0,"id":26174},"arcs":[[400],[401],[402]]},{"type":"LineString","properties":{"source":"naturalearthdata.com","kind":"minor_road","sort_rank":355,"kind_detail":"tertiary","min_zoom":5.0,"id":26212},"arcs":[403]},{"type":"LineString","properties":{"source":"naturalearthdata.com","kind":"minor_road","sort_rank":355,"kind_detail":"tertiary","min_zoom":5.0,"id":26217},"arcs":[404]},{"type":"LineString","properties":{"source":"naturalearthdata.com","kind":"minor_road","sort_rank":355,"kind_detail":"tertiary","min_zoom":5.0,"id":26226},"arcs":[405]},{"type":"LineString","properties":{"source":"naturalearthdata.com","kind":"minor_road","kind_detail":"tertiary","sort_rank":355,"landuse_kind":"urban_area","min_zoom":5.0,"id":26232},"arcs":[406]},{"type":"LineString","properties":{"source":"naturalearthdata.com","kind":"minor_road","kind_detail":"tertiary","sort_rank":355,"landuse_kind":"urban_area","min_zoom":5.0,"id":26232},"arcs":[407]},{"type":"MultiLineString","properties":{"source":"naturalearthdata.com","kind":"minor_road","sort_rank":355,"kind_detail":"tertiary","min_zoom":5.0,"id":26232},"arcs":[[408],[409]]},{"type":"LineString","properties":{"source":"naturalearthdata.com","kind":"minor_road","kind_detail":"tertiary","sort_rank":355,"landuse_kind":"urban_area","min_zoom":5.0,"id":26237},"arcs":[410]},{"type":"LineString","properties":{"source":"naturalearthdata.com","kind":"minor_road","sort_rank":355,"kind_detail":"tertiary","min_zoom":5.0,"id":26237},"arcs":[411]},{"type":"LineString","properties":{"source":"naturalearthdata.com","kind":"minor_road","sort_rank":355,"kind_detail":"tertiary","min_zoom":6.0,"id":26323},"arcs":[412]},{"type":"LineString","properties":{"source":"naturalearthdata.com","kind":"minor_road","sort_rank":355,"kind_detail":"tertiary","min_zoom":6.0,"id":26415},"arcs":[413]},{"type":"LineString","properties":{"source":"naturalearthdata.com","kind":"minor_road","kind_detail":"tertiary","sort_rank":355,"landuse_kind":"urban_area","min_zoom":5.0,"id":26475},"arcs":[414]},{"type":"LineString","properties":{"source":"naturalearthdata.com","kind":"minor_road","sort_rank":355,"kind_detail":"tertiary","min_zoom":5.0,"id":26475},"arcs":[415]},{"type":"LineString","properties":{"source":"naturalearthdata.com","kind":"minor_road","kind_detail":"tertiary","sort_rank":355,"landuse_kind":"urban_area","min_zoom":5.0,"id":26551},"arcs":[416]},{"type":"LineString","properties":{"source":"naturalearthdata.com","kind":"minor_road","sort_rank":355,"kind_detail":"tertiary","min_zoom":5.0,"id":26551},"arcs":[417]},{"type":"LineString","properties":{"source":"naturalearthdata.com","kind":"minor_road","kind_detail":"tertiary","sort_rank":355,"landuse_kind":"urban_area","min_zoom":5.0,"id":26717},"arcs":[418]},{"type":"MultiLineString","properties":{"source":"naturalearthdata.com","kind":"minor_road","sort_rank":355,"kind_detail":"tertiary","min_zoom":5.0,"id":26717},"arcs":[[419],[420]]},{"type":"LineString","properties":{"source":"naturalearthdata.com","kind":"minor_road","kind_detail":"tertiary","sort_rank":355,"landuse_kind":"urban_area","min_zoom":5.0,"id":26737},"arcs":[421]},{"type":"LineString","properties":{"source":"naturalearthdata.com","kind":"minor_road","sort_rank":355,"kind_detail":"tertiary","min_zoom":5.0,"id":26737},"arcs":[422]},{"type":"LineString","properties":{"source":"naturalearthdata.com","kind":"minor_road","kind_detail":"tertiary","sort_rank":355,"landuse_kind":"urban_area","min_zoom":6.0,"id":26746},"arcs":[423]},{"type":"LineString","properties":{"source":"naturalearthdata.com","kind":"minor_road","kind_detail":"tertiary","sort_rank":355,"landuse_kind":"urban_area","min_zoom":6.0,"id":26746},"arcs":[424]},{"type":"MultiLineString","properties":{"source":"naturalearthdata.com","kind":"minor_road","sort_rank":355,"kind_detail":"tertiary","min_zoom":6.0,"id":26746},"arcs":[[425],[426],[427]]},{"type":"LineString","properties":{"source":"naturalearthdata.com","kind":"minor_road","sort_rank":355,"kind_detail":"tertiary","min_zoom":6.0,"id":26812},"arcs":[428]},{"type":"LineString","properties":{"source":"naturalearthdata.com","kind":"highway","kind_detail":"motorway","sort_rank":383,"landuse_kind":"urban_area","min_zoom":5.0,"id":26857},"arcs":[429]},{"type":"LineString","properties":{"source":"naturalearthdata.com","kind":"highway","sort_rank":383,"kind_detail":"motorway","min_zoom":5.0,"id":26857},"arcs":[430]},{"type":"LineString","properties":{"source":"naturalearthdata.com","kind":"minor_road","kind_detail":"tertiary","sort_rank":355,"landuse_kind":"urban_area","min_zoom":5.0,"id":26858},"arcs":[431]},{"type":"LineString","properties":{"source":"naturalearthdata.com","kind":"minor_road","kind_detail":"tertiary","sort_rank":355,"landuse_kind":"urban_area","min_zoom":5.0,"id":26858},"arcs":[432]},{"type":"LineString","properties":{"source":"naturalearthdata.com","kind":"minor_road","kind_detail":"tertiary","sort_rank":355,"landuse_kind":"urban_area","min_zoom":5.0,"id":26858},"arcs":[433]},{"type":"MultiLineString","properties":{"source":"naturalearthdata.com","kind":"minor_road","sort_rank":355,"kind_detail":"tertiary","min_zoom":5.0,"id":26858},"arcs":[[434],[435]]},{"type":"LineString","properties":{"source":"naturalearthdata.com","kind":"major_road","sort_rank":379,"kind_detail":"secondary","min_zoom":3.0,"id":26902},"arcs":[436]},{"type":"LineString","properties":{"source":"naturalearthdata.com","kind":"minor_road","sort_rank":355,"kind_detail":"tertiary","min_zoom":6.0,"id":27099},"arcs":[437]},{"type":"LineString","properties":{"source":"naturalearthdata.com","kind":"highway","kind_detail":"motorway","sort_rank":383,"landuse_kind":"urban_area","min_zoom":5.0,"id":27100},"arcs":[438]},{"type":"LineString","properties":{"source":"naturalearthdata.com","kind":"highway","sort_rank":383,"kind_detail":"motorway","min_zoom":5.0,"id":27100},"arcs":[439]},{"type":"LineString","properties":{"source":"naturalearthdata.com","kind":"minor_road","sort_rank":355,"kind_detail":"tertiary","min_zoom":5.0,"id":27158},"arcs":[440]},{"type":"LineString","properties":{"source":"naturalearthdata.com","kind":"minor_road","kind_detail":"tertiary","sort_rank":355,"landuse_kind":"urban_area","min_zoom":5.0,"id":27755},"arcs":[441]},{"type":"LineString","properties":{"source":"naturalearthdata.com","kind":"minor_road","sort_rank":355,"kind_detail":"tertiary","min_zoom":5.0,"id":27755},"arcs":[442]},{"type":"LineString","properties":{"source":"naturalearthdata.com","kind":"highway","kind_detail":"motorway","sort_rank":383,"landuse_kind":"urban_area","min_zoom":5.0,"id":48450},"arcs":[443]},{"type":"LineString","properties":{"source":"naturalearthdata.com","kind":"highway","sort_rank":383,"kind_detail":"motorway","min_zoom":5.0,"id":48450},"arcs":[444]}]},"earth":{"type":"GeometryCollection","geometries":[{"type":"Polygon","properties":{"sort_rank":10,"source":"naturalearthdata.com","min_zoom":0.0,"kind":"earth","area":1568366174169},"arcs":[[445]]}]},"landuse":{"type":"GeometryCollection","geometries":[{"type":"MultiPolygon","properties":{"source":"naturalearthdata.com","kind":"urban_area","name":"","area":22901383634,"sort_rank":11,"min_zoom":4.0},"arcs":[[[446]],[[447]],[[448]],[[449]],[[450]],[[451]],[[452]],[[453]],[[454]],[[455]],[[456]],[[457]],[[458]],[[459]],[[460]],[[461]],[[462]],[[463]],[[464]],[[465]],[[466]],[[467]],[[468]],[[469]],[[470]],[[471]],[[472]],[[473]],[[474]],[[475]],[[476]],[[477]],[[478]],[[479]],[[480]],[[481]],[[482]],[[483]],[[484]],[[485]],[[486]],[[487]],[[488]],[[489]],[[490]],[[491]],[[492]],[[493]],[[494]],[[495]],[[496]],[[497]],[[498]],[[499]],[[500],[501]],[[502]],[[503]],[[504]],[[505]],[[506]],[[507]],[[508]],[[509]],[[510]],[[511]],[[512]],[[513]],[[514]],[[515]],[[516]],[[517]],[[518]],[[519]],[[520]],[[521]],[[522]],[[523]],[[524]],[[525]],[[526]],[[527]],[[528]],[[529]],[[530]],[[531]],[[532]],[[533]],[[534]],[[535]],[[536]],[[537]],[[538]],[[539]],[[540]],[[541]],[[542]],[[543]],[[544]],[[545]]]}]}},"type":"Topology","transform":{"translate":[67.5,31.952162238],"scale":[0.001373291,0.0011342107]},"arcs":[[[3095,3914],[12,0],[12,4],[8,10],[-2,12],[-12,24],[-1,28],[15,10],[47,3],[12,4],[9,8],[9,9],[10,8],[34,19],[12,12],[15,9],[30,7],[12,11],[0,4]],[[3007,3974],[14,-6],[42,-28],[22,-22],[10,-4]],[[2583,2291],[14,7],[7,18],[3,21],[-3,18],[-5,20],[1,14],[7,10],[52,42],[28,14],[9,10],[39,55],[11,30],[13,27],[26,20],[88,35],[11,5],[7,6],[5,9],[6,21],[6,9],[8,6],[5,7],[1,8],[-4,9],[1,39],[19,23],[51,35],[18,28],[6,17],[-3,12],[-22,18],[-40,46],[-14,22],[2,24],[22,29],[36,31],[7,13],[1,17],[-6,12],[-10,11],[-5,7],[-4,6],[-5,20],[3,17],[5,16],[1,17],[-7,13],[-12,8],[-40,20],[-15,12],[-6,15],[9,17],[13,17],[4,16],[-3,16],[-9,15],[-5,5],[-11,8],[-4,7],[-3,9],[0,8],[0,8],[0,9],[-5,13],[-25,43],[-10,13],[-33,24],[-8,13],[-3,29],[-11,12],[-21,9],[-20,5],[-20,8],[-19,20],[-10,7],[-26,14],[-8,8],[-1,3],[-3,13],[7,14],[24,23],[3,8],[4,19],[4,6],[29,19],[22,10],[7,5],[5,8],[3,19],[4,6],[46,16],[15,11],[55,61],[13,8],[13,5],[18,3],[14,8],[-4,11],[-8,14],[4,14],[18,17],[6,10],[6,14],[9,27],[7,8],[14,1]],[[2554,2296],[29,-5]],[[2505,1806],[10,4],[9,8],[8,12],[15,5],[36,7],[11,11],[4,17],[-3,14],[-1,14],[8,18],[21,23],[4,12],[1,21],[-2,18],[-7,31],[0,16],[22,61],[-4,22],[-51,29],[-23,22],[-21,25],[-15,23],[-7,16],[-4,20],[1,20],[9,15],[11,5],[1,1],[16,0]],[[1798,1846],[25,-2],[157,-56],[41,-3],[25,-13],[13,-4],[59,-3],[60,-13],[23,-1]],[[1868,1560],[-39,17],[-11,1],[-17,3],[-11,6],[-8,17],[-5,18],[-7,13],[-17,26],[-6,14],[-10,33],[-6,12],[-22,21],[-4,13],[9,13],[13,13],[2,13],[-3,14],[2,14],[12,12],[19,7],[39,6]],[[2472,1814],[19,-7],[14,-1]],[[2397,1765],[51,9],[13,26],[3,12],[8,2]],[[2298,1766],[99,-1]],[[2201,1751],[97,15]],[[1897,1091],[14,8],[124,106],[5,29],[-12,27],[-38,44],[-4,7],[-5,14],[-5,5],[-21,6],[-5,4],[-10,14],[-7,16],[-2,16],[1,17],[15,56],[0,21],[-3,6],[-5,4],[-12,6],[-7,5],[-3,5],[-4,14],[-7,35],[-7,9]],[[1899,1565],[-31,-5]],[[1864,1098],[17,-6],[16,-1]],[[1817,1036],[8,4],[6,8],[24,47],[9,3]],[[1795,1038],[22,-2]],[[1703,1000],[31,3],[54,33],[7,2]],[[1654,1025],[49,-25]],[[1579,992],[13,3],[34,25],[28,5]],[[1559,998],[7,-2],[6,-3],[7,-1]],[[1535,994],[24,4]],[[1520,994],[15,0]],[[1313,0],[-1,7],[-23,67],[-14,83],[1,19],[5,38],[1,37],[5,38],[0,19],[-2,18],[-19,50],[-8,38],[4,36],[13,33],[23,29],[14,10],[30,10],[13,11],[39,59],[8,18],[3,11],[-8,29],[-1,15],[-2,7],[-5,4],[-6,2],[-6,5],[-6,6],[-3,6],[-2,18],[8,12],[25,19],[18,25],[19,15],[4,4],[7,25],[-14,96],[7,15],[7,15],[20,25],[24,16],[29,4]],[[2873,2632],[2,-2],[10,-18],[25,-31],[2,-2],[14,-8],[16,-3],[7,-3],[6,-1],[1,0],[1,-1],[1,-3],[1,-8],[0,-1],[1,-2],[2,-3],[1,-2],[1,-2],[0,-2],[0,-4],[0,-1],[1,-1],[1,-4],[3,-5],[2,-8],[0,-4],[-1,-4],[0,-2],[2,-3],[13,-12],[9,-5],[6,-1]],[[3056,2509],[26,-4],[5,-2],[5,-2],[10,-3],[4,0]],[[3000,2486],[5,1],[32,17],[11,4],[4,1],[4,0]],[[3113,2499],[3,-2],[3,-3],[4,-9],[3,-4],[4,-7],[0,-2],[-4,-2],[-4,-1],[-4,-3],[-7,-10],[-2,-3],[-2,-1],[-5,0],[-2,-2],[-1,-2],[1,-5],[1,-2],[1,-2],[1,-1],[1,-6],[1,-7],[-1,-10],[-4,-27],[-16,-13]],[[3106,2498],[3,0],[4,1]],[[3084,2375],[-2,0],[0,1],[-2,0],[-3,3],[-1,1],[-1,0]],[[3075,2380],[-1,0],[-6,-6],[-1,-1],[-11,-12],[-5,-4],[-1,0],[-1,-1],[-1,0],[0,-1],[-2,-1],[-3,-1],[-2,-4],[-2,-7],[-7,-28],[0,-6],[0,-8],[-3,-5],[-14,-16],[10,-35],[-1,-3],[0,-1],[4,-9],[1,-4],[0,-1],[-1,-4],[-1,-2],[0,-1],[1,-1],[0,-2],[1,-1],[2,-1],[5,-1],[3,0]],[[3043,2214],[1,0],[3,-4],[6,-19],[-6,-2],[-3,-2],[-2,-2],[-1,0],[-2,-1],[-3,-1],[-2,-1],[-5,-5],[-1,-1],[-1,-2],[0,-2],[-2,-8],[-1,-3],[0,-2],[0,-1],[0,-1],[0,-1],[2,-2],[1,0],[0,-1],[-1,-1],[-2,-2],[-6,-3],[-2,-1],[-3,-1]],[[3039,2213],[2,0],[1,1],[1,0]],[[3013,2145],[-4,0]],[[3009,2145],[-1,0],[-5,-1],[0,-1],[-1,-2],[-1,-9],[0,-1],[0,-1],[-1,-1],[2,-6],[0,-3],[-1,-2],[-2,-1]],[[2984,2127],[-2,0],[-1,1],[-3,1]],[[2978,2129],[-1,0],[-1,0],[0,-1],[-10,-10],[-5,-5],[-2,-1],[-2,-2],[-1,-1],[0,-1],[-1,-2],[0,-4],[0,-2],[-1,-2],[-2,-3],[-14,-12],[-1,-1],[0,-2],[0,-1],[1,-4],[0,-1],[1,-2],[1,0],[0,-1],[-5,-15],[0,-1],[0,-1],[1,-1],[1,0],[1,-1],[1,0],[0,-1],[1,0],[0,-1],[0,-1],[0,-1],[-2,-10],[-3,-3],[-21,-17],[-6,-12],[-24,-20],[-4,-2],[-2,-2],[-13,-9],[-4,-4],[1,0],[-1,-1],[-1,-2],[-2,-2],[-56,-16],[-3,-3],[-1,-2],[-1,-1],[0,-1],[0,-1],[1,-4],[0,-2],[0,-1],[0,-1],[-2,-5],[1,-1],[1,-1],[3,-3],[3,-1],[2,-1],[2,0],[3,-1],[2,-1],[6,-5],[4,-2],[1,-2],[0,-4],[1,-9],[0,-4],[-1,-3],[-1,0],[-2,-2],[-3,-3],[-2,-2],[0,-1],[0,-1],[-1,-4],[1,-2],[9,-11],[1,-4],[3,-18],[1,-8],[-2,-6],[-3,-8],[-1,-2],[0,-2],[-1,-8],[0,-1],[0,-8],[0,-4],[2,-7],[5,-11],[5,-5],[6,-5],[6,-6],[5,-8],[6,-11],[3,-20],[1,-5],[-2,-18],[0,-3],[0,-2],[1,-4],[2,-3],[10,-9],[27,-20],[8,-7],[2,-3],[2,-4],[1,-4],[0,-5],[-1,-15],[0,-7],[1,-4],[6,-24],[5,-10],[1,-3],[3,-1],[3,-1],[5,-1],[8,-1]],[[2999,2117],[-3,1],[-2,1],[-1,1],[-1,0],[-3,4],[-2,2],[-1,1],[-1,0]],[[2985,2127],[-1,0]],[[3085,1667],[3,-2],[4,-5],[6,-19],[3,-7],[4,-4],[8,-8],[6,-3],[5,-2],[24,-4],[19,0],[3,-2],[2,-2],[2,-5],[1,-4],[-3,-7],[-2,-5],[-23,-33],[-3,-7],[-4,-7],[-16,-18],[-2,-3],[-1,-3],[1,-3],[1,-2],[2,-2],[25,-17],[8,-7],[1,-2],[1,-2],[0,-3],[-1,-3],[-2,-3],[-3,-2],[-3,-2],[-7,-3],[-25,-9],[-9,-4],[-9,-8],[-42,-26],[-20,-9],[-15,-2]],[[2944,1567],[6,0],[34,6],[41,22],[23,16],[10,10],[14,27],[4,10],[3,6],[3,2],[3,1]],[[2683,1562],[-3,2],[-11,8],[-6,3],[-13,4],[-3,0]],[[2647,1579],[-3,-1],[-1,-5],[-1,-36],[1,-4],[11,-25],[0,-11],[-27,-10],[-9,-5],[-2,-3],[-5,-4],[-1,-3],[-1,-3],[1,-2],[1,-3],[2,-2],[3,-1],[3,-1],[3,-2],[3,-2],[1,-4],[-1,-2],[-3,-2],[-29,-7],[-9,-4],[-5,-3],[-7,-7],[-8,-5],[-15,-7],[-6,-1]],[[2805,1478],[-5,1],[-9,4],[-4,3],[-6,6],[-12,8],[-35,19],[-18,12],[-11,12],[-2,3],[-3,10],[-2,3],[-3,3],[-4,1],[-3,0]],[[2688,1563],[-5,-1]],[[2988,1488],[-93,7],[-11,2],[-4,1]],[[2880,1498],[-5,-1],[-16,-4],[-31,-2],[-8,-3],[-6,-3],[-5,-6],[-4,-1]],[[3024,1408],[-30,4],[-17,6],[-7,4],[-5,3],[-5,6],[0,3],[1,3],[2,4],[4,3],[8,4],[25,8],[7,4],[7,4],[3,4],[2,3],[1,3],[0,3],[0,4],[-2,4],[-2,3],[-2,2],[-2,2],[-4,1]],[[3008,1493],[-5,0],[-8,-2],[-7,-3]],[[2543,1414],[-117,12],[-12,4],[-24,16]],[[2390,1446],[-13,-1],[-4,-3],[-4,-6],[-10,-25],[-3,-13],[0,-3],[0,-3],[0,-3],[1,-9],[1,-7],[-1,-4],[-2,-5],[-3,-3],[-5,-1]],[[2347,1360],[-4,0]],[[2343,1360],[-4,-1],[-20,-8],[-13,-2],[-16,-1],[-3,0],[-3,-1],[-5,-5],[-21,-24],[-7,-6],[-4,-2],[-4,-1],[-4,0]],[[2239,1309],[-10,1]],[[2229,1310],[-9,-1],[-8,-2],[-10,-1],[-12,-3],[-4,-2],[-10,-7],[-2,-3],[-1,-3],[-1,-3],[-1,-7],[-1,-3],[2,-4],[4,-4],[9,-8],[24,-15],[8,-3],[5,-8],[6,-33],[18,-26],[11,-5],[6,-2],[6,-1],[9,0],[3,-1],[24,-10],[4,0],[9,-1],[4,-1],[4,-1],[1,-2],[-4,-14],[0,-3],[0,-2],[1,-3],[2,-1],[8,-2],[24,-3]],[[2374,1122],[2,0],[10,-3],[3,-1]],[[2358,1122],[16,0]],[[2396,1119],[4,0],[4,-1],[10,-4],[14,-4],[18,-6],[3,-3],[4,-3],[2,-4],[0,-4],[0,-5],[-12,-18],[-46,-53],[-17,-4],[-6,-3],[-5,-4],[-12,-15],[-6,-6],[-9,-4],[-7,-3],[-17,-3],[-14,-5],[-11,-2],[-4,-2],[-8,-2],[-3,0]],[[2389,1118],[7,1]],[[2246,963],[-5,1],[-17,6]],[[2224,970],[-4,-1],[-4,-1],[-11,-9],[-10,-10],[-5,-3],[-7,-3],[-2,-3],[-17,-58],[-4,-9],[-20,-29],[-22,-43],[-7,-10],[-4,-6]],[[2271,962],[-15,2]],[[2256,964],[-7,-1],[-3,0]],[[2278,961],[-3,1]],[[2275,962],[-4,0]],[[2107,785],[-3,0]],[[2104,785],[-3,0],[-3,-1],[-2,-5],[-1,-5],[0,-43],[2,-25],[-1,-6],[0,-6],[-3,-14],[1,-2],[2,-2],[6,-1],[4,-1],[11,-18],[125,-162],[6,-16],[1,-7],[0,-3],[-1,-4],[-3,-3],[-7,-4],[-5,-1]],[[2233,456],[-5,1],[-48,29],[-6,2],[-5,0]],[[2169,488],[-3,0],[-2,0],[-3,-1],[-3,-2],[-4,-6],[-5,-10],[-6,-20],[-4,-13],[-4,-10],[-4,-9],[-16,-19],[-24,-21],[-3,-3],[-15,-26],[-3,-5],[-20,-17],[-16,-11],[-7,-4],[-3,0],[-3,-1],[-4,0]],[[2017,310],[-3,1],[-9,3],[-3,0]],[[2002,314],[-23,-2],[-2,-1],[-3,-1],[-4,-3],[-4,-3],[-4,-5],[-8,-18],[-9,-14],[-5,-6],[-4,-3],[-28,-20],[-17,-15],[-8,-8],[-8,-13],[-3,-7],[-2,-13],[0,-3],[0,-2],[3,-5],[20,-31],[11,-31],[6,-32],[8,-16],[28,-25],[11,-37]],[[3952,1565],[35,7],[16,9],[7,8],[7,6],[11,9],[9,3],[5,2],[27,4],[16,7],[4,3],[2,2],[5,7]],[[502,4092],[-1,4]],[[1532,2378],[6,28],[2,5],[0,7],[-8,4],[-4,4],[-4,5],[-5,8],[-4,5],[-4,7],[-5,11],[-3,11],[0,16],[3,44],[-1,18],[3,37],[-4,20],[-24,8],[-32,12],[-44,3],[-21,22],[-13,18],[-10,7],[-11,7],[-21,5],[-19,9],[-11,14],[-3,17],[1,17],[6,49],[-3,34]],[[570,2511],[5,-16],[1,-18],[3,-10],[3,-7],[38,-38],[3,-8],[3,-7],[1,-14],[4,-25],[3,-4],[3,-4],[4,-2],[14,-2]],[[769,2415],[54,-13],[10,-5],[13,-3],[3,-1],[3,-2],[13,-11],[11,-4],[9,-1]],[[655,2356],[5,1],[4,2],[6,6],[4,3],[12,3],[22,12],[43,28],[11,4],[7,0]],[[908,2377],[5,-1],[11,-5],[25,-8],[23,-10],[11,-2]],[[885,2375],[23,2]],[[983,2351],[9,3]],[[502,4092],[13,-13],[24,-7]],[[927,1464],[-3,-32],[1,-31],[2,-16],[3,-11],[9,-16],[6,-16],[2,-9],[-1,-8],[-18,-39],[-4,-15]],[[1989,3278],[5,12],[0,10],[5,43],[4,15],[2,39],[15,40]],[[401,129],[13,-42],[6,-32],[0,-7],[0,-3],[-2,-8],[-9,-24],[-6,-13]],[[1746,1845],[6,-8]],[[1752,1837]],[[4071,4096],[-4,-7],[-9,-14],[-3,-5],[-2,-11],[-2,-6],[-6,-8],[-4,-4],[-5,-4],[-39,-15],[-4,-2],[-3,-3],[0,-4],[2,-3],[2,-4],[3,-6],[0,-5],[-1,-6],[-2,-3],[-3,-2],[-18,-2]],[[3973,3982],[-22,0]],[[3951,3982],[-14,-3],[-8,-3],[-4,-4],[-1,-4],[-2,-12],[0,-22],[1,-10],[-1,-5],[-2,-5],[-5,-6],[-5,-4],[-23,-5],[-6,-4],[-6,-5],[-27,-31],[-8,-6],[-4,-2],[-11,-3],[-11,-5],[-14,-10],[-3,-3],[-16,-22],[-4,-2]],[[3777,3806],[-4,0],[-20,8],[-8,1]],[[3745,3815],[-7,-1],[-8,-1],[-11,-4],[-9,-7],[-6,-6],[-6,-7],[-5,-6],[-3,-5],[-2,-6],[-8,-36],[-2,-14],[0,-3],[2,-3],[5,-10],[1,-5],[-1,-5],[-19,-24],[-2,-4],[-1,-4],[-1,-5],[0,-4],[2,-6],[3,-7],[0,-3],[2,-3],[2,-3],[23,-20],[5,-6],[1,-7],[5,-15],[1,-2],[-1,-3],[-53,-96],[30,-13],[71,-30],[1,-1],[69,-8],[31,-6]],[[3984,3461],[5,0],[3,-2],[3,0],[10,-6],[5,-3],[1,-1],[5,-2],[1,-1],[11,-3],[8,-1]],[[3854,3426],[4,0],[6,1],[2,2],[4,6],[2,3],[28,16],[6,3],[6,1],[72,3]],[[4067,3460],[1,0],[1,0],[0,-1],[2,-1],[1,-3],[2,-2],[10,-11],[8,-7],[4,-3]],[[4096,3360],[-1,-16],[0,-7],[0,-6],[1,-3]],[[4036,3442],[7,0],[5,1],[4,2],[3,2],[3,3],[6,7],[3,3]],[[1722,0],[-1,2],[-2,2],[-15,8],[-9,7],[-8,8],[-6,9],[-2,6],[1,7],[5,10],[7,18],[1,12],[-2,4],[-22,3]],[[1669,96],[-54,-12],[-7,-1],[-33,-13],[-13,-10],[-18,-29],[-12,-13],[-12,-12],[-9,-6]],[[3952,1565],[-69,-36],[-16,-22],[-4,-23],[9,-23],[12,-17],[15,-14],[18,-2]],[[4039,1478],[14,-5],[9,-8],[9,-12],[7,-15],[6,-16],[-1,-14],[-5,-11],[-3,-10],[6,-9],[9,-6],[6,-4]],[[3917,1428],[16,3],[16,8],[12,10],[25,15],[26,10],[15,3],[12,1]],[[3757,1678],[-5,2],[-6,3],[-16,14],[-3,4],[-2,3],[0,6],[2,3],[2,4],[8,10],[5,4],[6,3],[3,2],[2,3],[1,3],[-3,4],[-4,4],[-10,4],[-12,3],[-32,4],[-4,2],[-5,5],[-6,7],[-7,21],[-12,28],[-11,2]],[[3648,1826],[-31,-2],[-26,-8],[-24,-16],[-23,-21],[-13,-8],[-68,-14],[-11,-6],[-11,-32],[12,-85],[-5,-35]],[[3868,1703],[-13,14],[-3,4],[-1,4],[1,3],[1,4],[4,9],[0,3],[-2,4],[-4,5],[-3,4],[-4,3],[-4,1]],[[3840,1761],[-5,-2],[-4,-3],[-15,-17],[-2,-3],[-1,-3],[0,-2],[1,-6],[0,-2],[-1,-2],[-3,-2],[-8,-2],[-4,-3],[-3,-4],[-6,-13],[-4,-6],[-3,-4],[-3,-3],[-3,-1],[-9,-3],[-10,-2]],[[3890,1651],[-4,0],[-3,1],[-3,1],[-3,3],[0,3],[3,5],[6,4],[2,3],[2,2],[0,4],[1,12],[-1,4],[0,4],[-4,5],[-2,2]],[[3884,1704],[-16,-1]],[[3895,1590],[-3,1],[-2,4],[-1,7],[2,14],[2,6],[5,4],[4,1],[5,3],[3,3],[2,3],[2,2],[1,4],[0,3],[-2,3],[-6,4],[-5,2]],[[3902,1654],[-5,0],[-4,-2],[-3,-1]],[[3413,1599],[-11,7],[-14,3],[-27,2],[-20,9]],[[3341,1620],[-4,-1],[-14,-20],[-8,-4],[-15,-6],[-7,-7],[-9,-27],[-3,-4],[-5,-7],[-14,-34],[-4,-13],[-2,-46],[-13,-24],[0,-9],[2,-12],[-2,-18],[-6,-9],[-32,-24],[-3,-6],[-3,-12],[-3,-6],[-7,-9],[-4,-7],[-1,-8],[4,-10],[-7,-2],[-3,-5],[-3,-6],[-7,-4],[-6,-1]],[[3448,1599],[-9,8],[-9,2]],[[3430,1609],[-9,-3],[-8,-7]],[[3937,1584],[-4,0],[-5,2],[-8,5],[-3,1]],[[3917,1592],[-16,-2],[-6,0]],[[3952,1565],[-1,11],[2,3],[0,3],[-1,2],[-5,1]],[[3947,1585],[-10,-1]],[[3162,1279],[-21,1]],[[3141,1280],[-12,-3],[-41,-22],[-13,-18],[0,-17],[2,-15],[-6,-13],[-9,-13],[-4,-15],[3,-14],[13,-9],[-6,0],[10,-13],[10,-11],[8,-12],[2,-19],[-3,-18],[-7,-12],[-8,-9],[-6,-9],[-6,-16],[-1,-15],[0,-19],[-8,-10]],[[2911,1112],[-6,0],[-6,2],[-20,9],[-6,4],[-4,5],[-3,5],[-6,5]],[[2860,1142],[-6,-5],[-2,-7],[-4,-20],[1,-11],[4,-7],[3,-3],[2,-2],[2,-3],[0,-4],[1,-4],[-1,-4],[1,-3],[0,-3],[6,-13],[7,-8],[0,-4],[-7,-39],[0,-8],[2,-4],[2,0]],[[3059,978],[-36,16],[-6,5],[-8,8],[-12,17],[-7,10],[-5,10],[-1,5],[-1,7],[-1,26],[-1,6],[-2,6],[-6,7],[-9,8],[-18,12],[-5,2]],[[2941,1123],[-30,-11]],[[2879,991],[4,-1],[3,-5],[2,-4],[1,-4],[0,-4],[-1,-6],[-4,-7],[-9,-15],[-4,-4],[-5,-3],[-9,-2],[-9,-1],[-7,-2],[-10,-5],[-5,-1]],[[2871,990],[2,0],[3,1],[3,0]],[[2801,920],[-6,2],[-3,1],[-2,2],[-3,2],[-9,2],[-3,2],[-5,4],[-2,1]],[[2768,936],[-3,0],[-47,-20],[-7,-5],[-11,-6],[-9,-3],[-5,-5],[-7,-6],[-17,-29],[-5,-12],[-3,-15],[-5,-64],[-3,-14],[-8,-8],[-7,-3],[-3,-2],[-2,-4],[2,-9],[26,-55],[3,-18],[-1,-17],[1,-7],[8,-32],[3,-25],[3,-7],[4,-6],[9,-4],[6,-1],[5,-1]],[[2826,927],[-6,1]],[[2820,928],[-5,-1],[-6,-2],[-8,-5]],[[2730,565],[4,-1],[3,-2],[2,-5],[-1,-15],[-10,-37],[2,-12],[4,-9],[4,-4],[3,-3],[3,0]],[[2695,558],[32,7],[3,0]],[[2780,516],[6,0],[5,-2],[3,-4],[1,-4],[0,-6],[1,-3],[3,-3],[4,-9],[-2,-62],[-4,-15],[-7,-14],[-27,-38],[-8,-14],[-3,-16],[-1,-17],[-1,-9],[-3,-8],[-15,-25],[-3,-10],[-8,-37],[-6,-17],[-9,-15],[-7,-5],[-21,-11],[-7,-6],[-26,-30],[-6,-11],[-5,-11],[-2,-13],[0,-17],[-1,-7],[-4,-8],[-27,-27],[-11,-15],[-10,-27]],[[2744,477],[3,1],[4,5],[1,3],[3,7],[2,3],[2,2],[4,1],[4,1],[2,2],[1,3],[1,2],[2,6],[3,3],[4,0]],[[2020,3437],[-46,20],[-20,16],[-5,1]],[[1949,3474],[0,-3],[1,-7],[0,-8],[-5,-10],[-7,-10],[-9,-10],[-10,-9],[-16,-7],[-50,-6],[-31,-12],[-12,-7],[-3,0]],[[1807,3385],[-1,2],[-1,6],[0,2],[-2,2],[-1,1],[-10,3]],[[1253,3831],[0,14],[-2,7],[-3,9],[-7,13],[-2,9],[-1,12],[1,9],[0,8],[-2,7],[-7,8],[-9,15],[-8,32],[-7,12],[-6,9],[-1,3],[1,3],[11,11],[9,3],[3,2],[2,2],[1,2],[1,3],[1,2],[2,3],[21,16],[3,4],[3,4],[2,7],[6,19],[7,17]],[[1745,2558],[24,-65],[0,-10],[-1,-13],[-4,-6],[-8,-8],[-30,-26],[-7,-13],[-5,-11],[-1,-8],[0,-14],[-1,-35],[-4,-8],[-2,-5],[-14,-15],[1,-20],[10,-28],[-1,-10],[-5,-12],[-6,-12],[-7,-19],[-2,-12],[-1,-12],[0,-8],[3,-20]],[[1673,2758],[7,16],[1,10],[3,5],[3,2],[4,1],[8,3],[5,4],[24,11],[22,14],[12,11],[27,36],[6,10],[5,14]],[[1429,1932],[-15,28],[-16,21],[-5,8],[-5,12],[-1,7],[-4,8],[-5,9],[-22,28],[-15,13],[-9,9],[-9,12],[-17,33],[-9,7]],[[1297,2127],[-60,-41],[-4,-4],[-4,-3],[-5,-1]],[[1177,2077],[-107,36]],[[1224,2078],[-13,7]],[[1211,2085],[-11,-2],[-12,-5],[-11,-1]],[[1446,1946],[-9,-12],[-3,-2],[-5,0]],[[927,1464],[0,1],[-3,19],[-5,6],[0,3],[0,11],[-1,3],[-3,3],[-4,3],[-3,3],[-2,5],[2,9],[2,7],[4,6],[2,3],[3,2],[6,1],[2,1],[0,4],[-3,8],[-7,15],[-5,18],[-1,5],[-4,6],[-3,4],[-22,10]],[[1745,2558],[-15,-15],[-6,-12],[-2,-4],[-5,-4],[-10,-4],[-34,-16],[-13,-11],[-33,-86],[-3,-12],[-3,-9],[-5,-6],[-21,0],[-38,-10],[-8,0]],[[1549,2369],[-17,9]],[[1316,2848],[11,-4],[10,-7],[37,-3],[31,-12]],[[1299,2830],[11,5],[6,13]],[[1553,2836],[33,-4],[23,-5],[13,-7],[11,-10],[24,-33],[16,-19]],[[1503,2822],[50,14]],[[1445,2828],[14,-6]],[[1405,2822],[14,1],[16,4],[10,1]],[[1495,2824],[8,-2]],[[1459,2822],[36,2]],[[1745,2558],[14,21],[-6,31],[-5,12],[-22,36],[-6,16],[-2,12],[-5,11],[-4,7],[-25,20],[-11,34]],[[1070,2113],[-4,14],[-13,43],[-25,18],[-5,3],[-23,6],[-4,2],[-3,3],[-3,6],[-4,11],[-3,8],[-3,6],[-3,7],[-1,11],[1,24],[7,29],[-1,20],[9,30]],[[267,1932],[-33,3],[-10,2],[-8,5],[-18,17],[-23,16],[-27,10],[-22,5]],[[126,1990],[-19,-1],[-49,-10],[-6,-2],[-6,-4],[-10,-7],[-4,-5],[-3,-4],[-5,-20],[-1,-3],[-4,-3],[-19,-7]],[[666,1614],[-3,1],[-5,2],[-4,4],[-63,66],[-2,5],[-11,11],[-35,22],[-7,13],[-4,3],[-46,19],[-9,2],[-7,5],[-6,15],[0,12],[-6,22],[-2,9],[-1,8],[1,6],[1,6],[-1,7],[-2,9],[-1,8],[-1,7],[2,13],[-1,7],[-7,39],[-4,9],[-6,9],[-22,20],[-10,8],[-16,4]],[[388,1985],[-11,-7],[-2,-2],[-5,-3],[-4,-2],[-11,-8],[-20,-11],[-47,-17],[-11,-2],[-10,-1]],[[882,1620],[-17,-17],[-31,-38],[-5,-4],[-61,-37],[-7,-2],[-12,-2],[-7,0]],[[742,1520],[-29,7],[-10,5],[-6,4],[-2,2],[-1,2],[-2,6],[1,8],[3,14],[6,18],[1,7],[0,5],[-7,19]],[[696,1617],[-16,0],[-6,-2],[-8,-1]],[[1070,2113],[-19,-21],[-15,-23],[-21,-51],[-10,-7],[-16,-14],[-13,-18],[-15,-33],[-7,-30],[-3,-32],[4,-10],[7,-10],[17,-16],[9,-5],[8,-7],[3,-4],[10,-26],[2,-5],[0,-2],[-1,-3],[-3,-3],[-7,-2],[-35,-7],[-10,-5],[-10,-5],[-18,-15],[-8,-12],[-10,-18],[-1,-3],[0,-1],[1,-3],[8,-9],[2,-8],[1,-7],[-4,-31],[-6,-13],[-3,-6],[-25,-28]],[[570,2511],[-84,-43],[-21,-16],[-10,-17],[-15,-17],[-8,-6],[-6,-2]],[[426,2410],[-8,4],[-5,2]],[[413,2416],[-7,0],[-8,-2],[-5,-4],[-5,-5],[-5,-7],[-15,-17],[-3,-4],[-3,-11],[-17,-35]],[[122,2373],[-21,1],[-12,2],[-14,4],[-22,2],[-6,2],[-3,3],[-4,5],[-6,4],[-14,7],[-8,2],[-7,1]],[[5,2406],[-4,0],[-1,-1]],[[345,2331],[-44,5],[-134,38],[-17,3]],[[150,2377],[-28,-4]],[[0,2073],[24,-11],[8,-7],[3,-5],[-7,-7],[-11,-15],[-2,-4],[-3,-9],[-2,-3],[-3,-2],[-7,-3]],[[1132,2582],[-52,13]],[[1080,2595],[-3,-3],[-27,-44],[-21,-63],[-3,-12],[-9,-8],[-18,-39],[3,-37],[-10,-35]],[[1434,2324],[-15,3],[-12,36],[-9,40],[-18,42],[-13,11],[-15,3],[-7,7],[-5,11],[-24,39],[-6,23],[-31,19],[-8,7],[-13,10],[-13,6],[-14,2]],[[1231,2583],[-22,-5]],[[1209,2578],[-66,4]],[[1143,2582],[-11,0]],[[1532,2378],[-25,5]],[[1507,2383],[-9,0],[-7,-4],[-3,-10],[-2,-9],[-3,-9],[-10,-11],[-10,-7],[-29,-9]],[[1284,3033],[0,-22],[-9,-40],[-2,-99],[-3,-15],[1,-31]],[[1271,2826],[28,4]],[[570,2511],[-9,7],[-13,8],[-2,3],[-2,4],[4,27],[1,27],[-3,19],[0,23],[-10,26],[-38,41]],[[1699,3309],[10,1],[11,3],[6,5],[7,8],[14,27],[5,7],[23,11],[5,4],[3,3],[9,23]],[[1688,3309],[11,0]],[[1497,3089],[12,6],[92,59],[37,10],[7,11],[3,11],[9,45],[2,18],[3,14],[7,18],[19,28]],[[1458,3095],[39,-6]],[[1386,3054],[19,19],[7,11],[5,4],[8,3],[33,4]],[[1365,3056],[21,-2]],[[1340,3042],[6,3],[9,7],[10,4]],[[1316,3043],[24,-1]],[[1284,3033],[32,10]],[[539,4072],[35,-8],[18,-10],[7,-2]],[[637,4054],[119,-8],[62,-17],[8,-1]],[[599,4052],[38,2]],[[890,4040],[9,-20],[47,-57],[32,-24],[7,-5],[7,-1]],[[826,4028],[8,1],[12,5],[44,6]],[[1030,3951],[18,-4],[35,-6],[9,-4],[0,-2],[1,-2],[1,-1],[9,-6],[5,-5],[8,-12],[21,-18],[14,-9],[30,-10],[13,-2],[28,-7],[9,-4],[6,-4],[3,-5],[3,-5],[10,-14]],[[992,3933],[5,1],[5,2],[20,13],[4,1],[4,1]],[[1581,3880],[7,-2],[12,-33],[3,-10],[1,-9],[0,-18],[1,-13],[3,-8],[3,-6],[3,-3],[2,-2],[3,0],[3,-1]],[[1385,3778],[31,9],[47,37],[10,5],[12,4],[11,1],[44,17],[23,14],[18,15]],[[1253,3831],[9,-13],[12,-3],[9,-1],[5,-3],[2,-4],[5,-12],[3,-8],[7,-12],[3,-4],[3,-1]],[[1327,3780],[6,0],[3,-2],[4,-5],[1,-1],[2,-1]],[[1311,3770],[2,1],[6,5],[4,2],[4,2]],[[1359,3779],[26,-1]],[[1343,3771],[2,2],[3,2],[5,2],[6,2]],[[1640,3777],[10,-3],[9,-17],[7,-101],[44,-39],[15,-19],[12,-24],[2,-4],[0,-2],[0,-5],[1,-3],[1,-4],[8,-17],[4,-5],[5,-5],[3,-3],[2,-3],[1,-3],[0,-2],[-1,-6],[2,-6],[4,-7],[11,-14],[5,-8],[4,-8],[3,-68]],[[1622,3775],[18,2]],[[421,2715],[-5,1],[-3,1],[-3,3],[-2,2],[-2,2],[-23,7],[-3,2],[-3,4],[-2,7],[-3,30],[0,5],[1,5],[0,6],[-1,5],[-1,4],[-2,5],[-1,5],[0,5],[3,19],[2,6],[4,8],[3,5],[6,5],[4,4],[19,10],[4,11],[2,8],[5,10],[2,8],[5,25],[2,9],[3,7],[3,5],[3,5],[0,6],[-5,18],[-1,7],[3,10],[5,12],[1,7],[-1,7],[-11,30],[-2,15],[2,23]],[[490,2693],[-3,0],[-4,1],[-25,22],[-5,3],[-5,1]],[[448,2720],[-5,0],[-17,-4],[-5,-1]],[[498,2696],[-4,-2],[-4,-1]],[[1253,3051],[-26,7]],[[1227,3058],[-17,-15],[-7,-10],[-6,-5],[-5,-3],[-5,-1],[-36,-17],[-8,-5],[-6,-6],[-13,-23],[-7,-10],[-4,-5],[-5,-3],[-31,-8],[-6,-5],[-4,-3],[-5,-11],[-32,-22],[-6,-1],[-8,-1]],[[1284,3033],[-11,17],[-5,3]],[[1268,3053],[-5,-1],[-10,-1]],[[1016,2904],[-30,21]],[[986,2925],[-28,-8],[-4,-3],[-7,-5],[-7,-7],[-7,-12],[-12,-15],[-11,-21],[-6,-6],[-1,-1],[-54,-41],[-10,-6],[-34,-7],[-4,-3],[-2,-3],[0,-3],[1,-4],[4,-9],[2,-4],[0,-3],[-3,-10],[-20,-11],[-15,-3],[-37,-2]],[[638,2735],[-11,2],[-53,15]],[[574,2752],[-5,-1],[-2,-2],[-1,-4],[-1,-4],[-2,-4],[-5,-6],[-8,-7],[-11,-6],[-20,-7],[-15,-8],[-6,-7]],[[731,2738],[-45,4]],[[686,2742],[-48,-7]],[[422,4064],[-145,21],[-35,4],[-17,5],[-3,2]],[[502,4092],[-59,-24],[-21,-4]],[[72,3101],[96,-22],[10,-1]],[[0,3088],[8,4],[46,9],[18,0]],[[365,3080],[64,14]],[[232,3092],[6,-1],[3,-4],[6,-8],[4,-4],[6,-3],[6,-1]],[[178,3078],[8,1],[39,13],[7,0]],[[335,3082],[30,-2]],[[263,3071],[72,11]],[[429,3094],[39,40],[3,6],[0,8],[2,8],[3,8],[16,21],[10,16],[3,27],[-8,11],[-4,3],[-18,11],[-2,8],[0,5],[1,6],[4,12],[5,12],[105,138],[3,6],[3,28],[3,10],[3,34],[0,6],[-1,12],[1,5],[1,6],[6,12],[3,6],[5,5],[22,11],[67,58],[15,17],[32,53],[-2,8],[-5,9],[-4,5],[-18,17],[-49,36],[-30,16],[-8,7],[-35,45],[-50,81],[-35,52],[-4,7],[-5,13],[-3,6],[-10,13],[-3,5],[0,5],[2,8],[5,12],[4,5],[4,4],[6,3],[17,5],[11,7]],[[1688,1875],[4,-1],[5,-1],[5,-2],[44,-26]],[[1606,1811],[8,3],[41,26],[25,31],[4,3],[4,1]],[[1523,1854],[32,-3],[25,-6],[7,-2],[5,-3],[3,-3],[1,-5],[-1,-5],[-1,-7],[1,-6],[2,-3],[9,0]],[[1514,1853],[9,1]],[[1501,1853],[13,0]],[[1061,1455],[9,0],[11,2],[10,3],[8,4],[5,4],[10,8],[14,26],[8,24],[11,23],[9,10],[10,8],[71,53],[73,35],[23,15],[4,6],[5,11],[39,41],[4,4],[28,25],[9,6],[8,7],[13,14],[7,10],[11,23],[6,18],[4,5],[16,10],[7,2],[7,1]],[[927,1464],[108,-1],[11,-2],[15,-6]],[[1684,2168],[-85,-10],[-24,-6],[-1,-2],[0,-3],[1,-4],[3,-12],[0,-5],[-2,-7],[-5,-9],[-29,-39],[-45,-47],[-36,-27],[-12,-6],[-5,-4],[-2,-3],[-1,-6],[5,-32]],[[1868,2168],[12,3],[43,20],[77,13],[41,12],[37,19],[9,8],[20,15],[19,39],[1,12],[1,15],[-12,59],[18,15],[39,14],[8,6],[5,36],[5,10],[7,10],[23,17],[26,13],[22,7]],[[1825,2178],[43,-10]],[[1706,2161],[78,9],[41,8]],[[1684,2168],[22,-7]],[[1672,1453],[22,33],[4,4],[6,4],[6,1],[17,6],[12,8],[17,7],[21,13],[18,6],[5,3],[12,14],[4,7],[2,6],[0,13]],[[1657,1463],[2,0],[1,-1],[12,-9]],[[1384,1139],[4,19],[2,4],[10,11],[13,16],[3,11],[2,9],[4,6],[39,36],[17,10],[5,6],[7,11],[4,10],[17,57],[-13,13],[0,11],[4,10],[11,23],[4,11],[23,19],[11,7],[11,5],[45,14],[50,5]],[[402,677],[10,2],[44,3],[19,4],[20,8],[9,6],[30,23],[19,21],[5,9],[2,14],[1,9],[2,3],[7,7],[9,8],[50,49],[9,16],[5,10],[30,33],[33,102],[6,11],[9,11],[68,52],[43,51],[9,12],[7,15],[4,14],[4,17],[7,24],[9,12],[50,46],[2,2]],[[297,763],[63,-63],[29,-20],[8,-3],[5,0]],[[401,129],[20,46],[5,25],[0,8],[-1,7],[-10,37],[-1,10],[1,7],[2,5],[7,11],[2,33],[-5,36],[0,9],[2,10],[6,16],[0,6],[-1,7],[-3,10],[-5,27],[-14,47],[-3,5],[-3,3],[-2,2],[-16,7],[-3,3],[-32,32],[-22,14],[-7,9],[-5,21],[-68,53],[-15,17],[-1,4],[1,4],[2,5],[29,54],[36,44]],[[1017,1285],[-7,1],[-14,8]],[[996,1294],[-19,-3],[-53,-20]],[[1097,1059],[-2,0],[-4,6],[-3,20],[-3,10],[0,7],[1,5],[0,4],[-6,52],[-1,18],[3,42],[0,9],[-1,6],[-3,5],[-11,16],[-8,15],[-3,3],[-4,4],[-16,7],[-4,1]],[[1032,1289],[-4,-1],[-5,-2],[-6,-1]],[[1304,1134],[-15,3],[-22,17],[-6,5],[-2,2],[-3,3],[-3,1],[-5,1],[-4,0]],[[1244,1166],[-3,-1],[-1,-2],[0,-5],[0,-4],[1,-3],[0,-2],[0,-3],[-6,-6],[-25,-16],[-36,-16],[-29,-18],[-20,-19],[-10,-7],[-11,-4],[-5,-1],[-2,0]],[[1384,1139],[-14,5],[-3,2],[-5,3]],[[1362,1149],[-12,-1],[-33,-12],[-13,-2]],[[1384,1139],[-8,-33],[0,-10],[1,-2],[3,-7],[3,-9],[3,-21],[0,-9],[-2,-8],[-22,-31],[-22,-25],[4,-22],[28,-3],[68,-25]],[[2239,2682],[9,-12],[3,-10],[1,-10],[0,-8],[1,-8],[4,-11],[9,-17],[4,-16],[2,-17],[0,-34],[-3,-28]],[[2328,2326],[-6,2],[-3,3],[-23,30],[-4,16],[0,14],[3,21],[4,13],[5,11],[1,7],[2,13],[0,5],[-1,5],[-3,11],[-3,6],[-12,17],[-19,11]],[[2361,2274],[-7,21],[2,4],[5,6],[10,5],[4,4],[2,3],[1,4],[-4,3],[-6,4],[-15,4],[-8,0]],[[2345,2332],[-7,-1],[-7,-4],[-3,-1]],[[2537,2295],[-1,0],[-89,-6]],[[2447,2289],[-27,3]],[[2420,2292],[-39,-16],[-20,-2]],[[1992,3853],[-8,4],[-11,10],[-51,59],[-41,30],[-29,16],[-4,4],[-2,7],[2,32],[0,8],[-3,9],[-9,23],[-4,22],[-5,14],[-1,5]],[[2089,3837],[-5,0],[-48,15],[-24,5]],[[2012,3857],[-5,0],[-15,-4]],[[2020,3437],[7,6],[2,3],[3,5],[5,9],[2,3],[3,1],[16,7],[32,20],[8,8],[14,17],[4,3],[37,19],[4,5],[1,7],[-4,10],[-16,22],[-3,6],[-2,7],[0,7],[4,8],[6,9],[1,4],[-1,9],[1,7],[7,25],[3,15],[2,5],[2,4],[8,13],[2,25],[-4,93],[-5,9],[-4,3],[-6,3],[-8,3],[-25,2]],[[2116,3839],[-27,-2]],[[1891,3103],[11,1],[17,5],[12,9],[9,10],[6,12],[4,9],[1,6],[-2,5],[-2,3],[-2,4],[-1,10],[1,5],[5,3],[18,11],[6,8],[3,11],[3,42],[9,21]],[[1880,3108],[4,-2],[7,-3]],[[1800,2895],[2,47],[-3,9],[-7,13],[-30,26],[1,11],[6,9],[8,8],[12,8],[55,28],[17,23],[3,9],[12,21],[4,1]],[[1847,2776],[-7,6],[-7,15],[-2,34],[-3,9],[-5,10],[-19,30],[-4,15]],[[2095,2602],[-10,3],[-34,21],[-33,5],[-9,5],[-15,33],[-16,17],[-19,25],[-10,38],[-19,18],[-58,11]],[[1872,2778],[-25,-2]],[[2239,2682],[-14,-19],[-35,-29],[-8,-5],[-39,-16],[-37,-10],[-11,-1]],[[2840,2987],[31,3],[7,5],[6,24],[3,6],[3,4],[17,8],[5,5],[5,9],[6,4],[16,5],[9,5],[15,10],[8,6],[5,6],[5,9]],[[2816,2999],[11,-9],[13,-3]],[[2630,2778],[7,6],[4,7],[7,17],[6,32],[4,9],[4,7],[16,20],[0,32],[4,14],[8,15],[10,15],[19,13],[87,33],[10,1]],[[2295,2803],[25,-11],[22,-14],[14,-7],[12,-3],[33,-6],[41,-14],[7,0]],[[2239,2682],[34,60],[5,12],[17,49]],[[2617,2797],[4,-3],[3,-4],[6,-12]],[[2574,2753],[30,36],[6,4],[7,4]],[[2525,2764],[11,0],[10,-2],[6,-2],[22,-7]],[[2449,2748],[10,1],[8,4],[9,3],[49,8]],[[2493,3242],[26,12],[14,24],[21,19],[5,7],[0,6],[-3,5],[-5,5],[-5,4],[-17,10],[-3,5],[-2,10],[2,14],[3,8],[4,5],[4,3],[11,4],[11,6],[4,3],[3,5],[7,12],[21,32],[3,9],[3,9],[1,16],[6,33],[3,10],[4,6],[10,8],[5,6],[6,10],[11,19],[7,11],[8,9],[11,9]],[[2100,3303],[8,-2],[21,-11],[33,-11],[8,-4],[5,-5],[2,-5],[2,-5],[1,-12],[2,-6],[2,-6],[32,-35],[5,-8],[3,-6],[1,-7],[0,-7],[-2,-6],[-7,-18],[-4,-15],[-1,-7],[-1,-15],[0,-7],[2,-13],[4,-11],[25,-4]],[[2035,3270],[17,5],[18,16],[8,5],[13,6],[9,1]],[[1989,3278],[46,-8]],[[2469,3245],[5,-1],[5,-1],[14,-1]],[[2444,3112],[6,2],[2,4],[9,14],[1,5],[1,5],[0,7],[-3,11],[-1,11],[-1,5],[-4,9],[-1,5],[1,10],[-1,5],[-1,6],[-1,5],[2,8],[7,15],[4,4],[5,2]],[[2321,3161],[5,-4],[14,-19],[12,-12],[20,-8]],[[2241,3077],[19,7],[15,8],[8,6],[5,5],[2,5],[1,5],[0,4],[-1,5],[1,7],[3,8],[13,17],[7,5],[7,2]],[[2398,3122],[37,-9],[9,-1]],[[2372,3118],[26,4]],[[0,660],[86,-88],[7,-5],[24,-10],[2,-3],[-1,-3],[-49,-56],[46,-35],[12,-15],[6,-29],[2,-3],[2,-2],[28,-5],[5,-2],[24,-16],[7,-6],[3,-6],[1,-5],[-1,-4],[-2,-5],[-3,-5],[-10,-11],[-12,-12],[-13,-9],[-20,-11],[-4,0],[-3,-1]],[[137,313],[-2,0],[-7,2],[-12,3]],[[116,318],[-2,0],[-2,-1],[-3,-2],[-3,-3],[-4,-5],[-5,-7],[-2,-10],[-2,-13],[1,-7],[3,-5],[3,-2],[3,-1]],[[130,269],[3,0],[3,0],[4,-2],[5,-3],[6,-6],[7,-11],[3,-7],[1,-8],[-5,-34],[0,-8],[1,-5],[2,-3],[7,-5],[11,-7],[5,-2],[45,-7],[14,-4],[10,-5],[14,-12],[20,-13],[11,-10],[10,-7],[7,-3],[6,-1]],[[103,262],[2,0],[21,6],[4,1]],[[320,106],[48,1],[5,2],[28,20]],[[1622,2027],[6,-1],[3,-3],[5,-7],[2,-2],[1,-1],[7,-3],[2,-2],[1,-2],[2,-4],[2,-3],[2,-1],[8,-4],[4,-2],[2,-3],[2,-4],[3,-9],[8,-13],[2,-7],[2,-3],[2,-2],[6,-6],[2,-2],[1,-3],[4,-12],[11,-15],[6,-6],[7,-13],[8,-30],[13,-19]],[[1460,1943],[54,38],[86,40],[15,5],[7,1]],[[1446,1946],[14,-3]],[[3194,1167],[6,-67],[-111,-227],[-45,-41],[-72,-7],[-23,-237],[-42,-139],[-115,-222],[-49,-46],[-73,-181]],[[3766,1437],[-182,-67],[-180,40],[-71,-83],[-112,-46],[-4,-89],[-23,-24]],[[4008,1879],[11,-5],[1,-13],[-15,-11],[-31,-12],[-20,-19],[-12,-3],[-16,7],[-9,10],[-4,13],[-2,13],[-4,13],[-10,12],[-13,7],[-14,3],[-16,1],[-13,-5],[-20,-20],[-12,-5],[-11,8],[-14,17],[-5,17],[49,21],[17,11],[6,14],[4,11],[14,9],[3,10],[-1,21],[-1,10],[-4,9],[12,19],[6,22],[2,46],[-2,6],[-9,22],[-3,11],[-1,13],[1,13],[-1,12],[-5,11],[15,24],[1,13],[-3,3],[-5,0],[-32,8],[-6,5],[0,13],[5,10],[7,8],[4,12],[2,2],[2,2],[0,6],[-1,5],[-7,7],[-7,20],[0,10],[5,8],[11,-4],[10,-18],[7,-21],[0,-14],[-7,-11],[-7,-15],[-1,-14],[10,-6],[19,-2],[8,-7],[0,-12],[-5,-20],[-5,-38],[1,-20],[7,-9],[8,-9],[15,-57],[-12,-26],[-3,-13],[-1,-19],[1,-16],[3,-13],[12,-28],[-8,-18],[6,-16],[13,-9],[11,4],[11,9],[15,5],[15,-1],[11,-10],[-9,-14],[-11,-9],[-7,-8],[2,-12],[13,-9],[29,5]],[[4008,1879],[11,-5],[1,-13],[-15,-11],[-31,-12],[-20,-19],[-12,-3],[-16,7],[-9,10],[-4,13],[-2,13],[-4,13],[-10,12],[-13,7],[-14,3],[-16,1],[-13,-5],[-20,-20],[-12,-5],[-11,8],[-14,17],[-5,17],[49,21],[17,11],[6,14],[4,11],[14,9],[3,10],[-1,21],[-1,10],[-4,9],[12,19],[6,22],[2,46],[-2,6],[-9,22],[-3,11],[-1,13],[1,13],[-1,12],[-5,11],[15,24],[1,13],[-3,3],[-5,0],[-32,8],[-6,5],[0,13],[5,10],[7,8],[4,12],[2,2],[2,2],[0,6],[-1,5],[-7,7],[-7,20],[0,10],[5,8],[11,-4],[10,-18],[7,-21],[0,-14],[-7,-11],[-7,-15],[-1,-14],[10,-6],[19,-2],[8,-7],[0,-12],[-5,-20],[-5,-38],[1,-20],[7,-9],[8,-9],[15,-57],[-12,-26],[-3,-13],[-1,-19],[1,-16],[3,-13],[12,-28],[-8,-18],[6,-16],[13,-9],[11,4],[11,9],[15,5],[15,-1],[11,-10],[-9,-14],[-11,-9],[-7,-8],[2,-12],[13,-9],[29,5]],[[2799,4078],[18,11],[4,7]],[[2747,4096],[10,-7],[12,-3],[30,-8]],[[1017,4096],[4,-18],[9,-43],[0,-29],[-3,-29],[6,-33],[-3,-15],[-9,-25],[-18,-26],[-24,-7],[-18,-25],[-12,-29],[-12,-40],[-12,-26],[-21,-25],[-12,-15]],[[892,3711],[-12,-7],[-15,-26],[-10,-25],[4,-22],[-4,-22],[-6,-22],[3,-18],[16,-22]],[[182,4096],[10,-10],[15,-22],[15,-29],[12,-18],[12,-11],[21,-33],[6,-29],[-3,-29],[3,-18],[15,-30],[24,-32],[24,-22],[69,-40],[42,-18],[12,-11],[27,-15],[24,-7],[33,-4],[66,0],[45,-3],[30,-11],[15,-11],[24,-22],[24,-25],[24,-33],[24,-26],[12,-7],[21,-11],[31,-18],[9,-4]],[[868,3227],[33,48],[12,32],[6,33],[15,47],[0,22],[9,11],[-3,15],[0,14],[-15,11],[-15,22],[-12,22],[-30,43]],[[1009,3213],[-9,11],[-27,3],[-42,-3],[-18,0],[-45,3]],[[1258,2802],[0,29],[-3,29],[-15,29],[-15,8],[-24,14],[-27,22],[-39,22],[-15,11],[-21,29],[-15,32],[-3,19],[-3,32],[-3,15],[-24,25],[-12,15],[-21,47],[-9,33]],[[1234,2777],[9,14],[15,11]],[[378,2595],[0,7],[-12,33],[-3,32],[-6,44],[0,29],[9,29],[15,29],[0,29],[-3,15],[-15,29],[-3,15],[3,18],[18,7],[30,7],[18,8],[15,11],[3,14],[-3,18],[3,15],[6,11],[33,18],[15,14],[21,26],[24,36],[30,40],[24,26],[39,32],[15,8],[30,11],[33,11],[45,14],[24,0],[45,-7],[37,3]],[[3829,2577],[24,3],[18,7],[9,15],[15,25],[9,30],[-3,43],[3,11],[6,11],[33,15],[33,18],[27,36],[27,22],[12,14],[24,26],[30,20]],[[378,2595],[6,-4],[27,-14],[15,-4],[15,4],[75,25],[69,22],[15,0],[27,-11],[15,0],[45,11],[30,14],[15,4],[30,0],[33,22],[15,3],[15,0],[85,19],[36,3],[18,4],[42,-4],[30,8],[33,14],[63,18],[33,18],[27,22],[30,15],[12,-7]],[[342,2544],[15,7],[21,36],[0,8]],[[3534,2500],[12,-3],[18,0],[16,3],[3,3]],[[3583,2503],[9,8],[6,15],[6,58],[6,25],[6,11],[15,7],[15,-3],[36,-33],[27,-7],[15,-4],[18,7],[15,11],[15,0],[21,-18],[36,-3]],[[3481,2461],[5,6],[12,11],[15,8],[21,14]],[[3300,2369],[21,11],[57,4],[30,3],[18,8],[24,25],[6,11],[25,30]],[[1597,2333],[18,-4],[21,-18]],[[1195,2275],[-33,29],[-21,33],[-3,29],[3,25],[21,55],[9,14],[21,51],[12,40],[3,44],[0,43],[9,88],[6,25],[12,26]],[[1195,2275],[12,-8]],[[1207,2267],[15,-3],[15,0],[45,7],[30,11],[48,22],[27,3],[54,-7],[15,-3],[30,0],[33,7],[54,25],[24,4]],[[1207,2267],[12,-10]],[[342,2544],[15,-7],[9,-33],[0,-58],[0,-29],[6,-15],[12,-15],[42,0],[12,-7],[15,-33],[12,-10],[33,-33],[24,-26],[18,-29],[6,-18]],[[1636,2311],[12,-14],[12,-19],[21,-29],[24,-14],[58,3],[36,4],[48,-4],[27,-7],[51,7],[48,0],[27,-3],[27,-11],[48,-15]],[[2075,2209],[36,-11]],[[2126,2192],[12,-5]],[[2111,2198],[15,-6]],[[985,2155],[12,11],[21,25],[45,36],[15,11],[48,26],[30,7],[39,4]],[[546,2231],[6,-7],[54,-15],[30,-3],[30,3],[12,-7],[12,-15],[15,-3],[45,3],[30,4],[15,7],[30,22],[15,7],[15,4],[28,0],[45,-11],[24,-14],[12,-11],[9,-15],[12,-25]],[[0,2520],[15,-2],[45,0],[15,11],[12,15],[18,11],[30,11],[27,0],[27,-4],[27,-7],[27,-15],[12,-3],[27,0],[60,7]],[[0,2134],[48,21],[36,14],[18,0],[15,0],[27,-7],[12,-7],[42,-26],[33,-14],[30,-4],[33,7],[45,22],[18,4],[21,14],[33,37],[27,36],[15,11],[36,0],[48,-4],[9,-7]],[[4096,2304],[-18,22],[-30,43],[-36,51],[-39,37],[-21,29],[0,18],[15,25],[0,15],[-9,11],[-27,11],[-30,0],[-42,-4],[-15,4],[-15,11]],[[3297,1980],[0,18],[-6,15],[-10,13]],[[3233,2053],[-14,11],[-6,9]],[[3213,2073],[-6,9],[-15,33],[-9,43],[6,26],[12,43],[-6,30],[0,10],[24,51],[21,26],[15,7],[15,0],[30,18]],[[3281,2026],[-2,1],[-36,19],[-10,7]],[[898,1838],[9,22],[15,44],[18,54],[12,51],[18,55],[9,43],[3,33],[3,15]],[[3261,1809],[9,29],[27,99],[3,18],[-3,25]],[[2940,1809],[36,8],[12,0],[102,-4],[48,-4],[87,4],[36,-4]],[[2806,1814],[38,6],[51,7],[30,0],[15,-3],[0,-15]],[[2634,1906],[23,-9],[28,-15],[19,-15]],[[2138,2187],[29,-15]],[[2167,2172],[40,-21],[21,-44],[27,-18],[78,-32],[63,-26],[42,-14],[75,-4],[27,-7],[24,-11],[24,-22],[21,-47],[12,-15],[13,-5]],[[2704,1867],[5,-3],[33,-37],[12,-10],[27,-8],[25,5]],[[1219,2257],[9,-15],[0,-29],[-6,-15],[-33,-54],[-9,-26],[-3,-29],[-6,-29],[-12,-25],[-12,-37],[-9,-11],[-9,-29],[-18,-69],[-15,-25],[-9,-29],[-3,-26],[6,-18],[12,-14],[6,-19]],[[3365,1966],[-38,11],[-30,3]],[[3649,1697],[9,14],[33,44],[24,22],[48,32],[7,7]],[[3776,1823],[5,12],[0,14],[-12,15],[-24,7],[-36,0]],[[3709,1871],[-6,0],[-30,4],[-57,14],[-85,33],[-27,11],[-72,14],[-67,19]],[[3631,1667],[18,30]],[[3770,1816],[5,4],[1,3]],[[3442,1763],[-4,10],[-12,11],[-24,14],[-27,11],[-42,4],[-72,-4]],[[3485,1714],[-2,1],[-27,0],[-12,14],[0,29],[-1,3]],[[3603,1678],[-20,8],[-25,8]],[[3443,1761],[-1,2]],[[3558,1694],[-48,17],[-25,3]],[[3631,1667],[-28,11]],[[3853,1577],[24,47]],[[3955,1802],[9,0],[30,-7]],[[3877,1624],[9,18],[0,29],[12,40],[-3,29],[3,11],[12,18],[24,22],[18,11],[3,0]],[[3994,1795],[30,7],[30,18],[15,11],[27,22]],[[3749,1665],[5,-1],[30,-40],[54,-29],[15,-18]],[[3631,1667],[21,-25],[12,-4],[15,0],[45,26],[15,3],[10,-2]],[[3853,1577],[5,-14]],[[3858,1563],[4,-8],[9,-15],[24,-22],[24,-14],[18,-18]],[[3987,1459],[34,-6],[30,-7]],[[3937,1486],[12,-11],[33,-15],[5,-1]],[[1108,1758],[12,-51],[3,-40],[12,-61],[6,-15],[27,-11],[24,-3],[27,-19],[9,-11],[12,-32],[3,-15],[3,-58]],[[2874,1438],[3,33],[6,15],[30,3],[3,2]],[[2954,1735],[7,34],[0,15],[-9,14],[-12,11]],[[2916,1491],[27,13],[-3,18],[-15,-4],[-12,15],[-3,25],[6,15],[27,40],[9,22],[3,14],[-6,48],[0,14],[5,24]],[[4051,1446],[24,-26],[21,-12]],[[3738,1427],[28,19],[11,1]],[[3441,1373],[39,0],[27,-7],[39,-11],[27,-4],[16,7],[33,19],[12,10],[42,40],[15,4],[15,4],[12,-8],[15,-3],[5,3]],[[3777,1447],[22,2],[27,-3],[48,0],[33,7],[24,22],[6,11]],[[3303,1325],[3,1],[4,3]],[[3258,1335],[18,-13],[7,0]],[[2961,1395],[9,-4],[14,-6]],[[2874,1438],[24,-7],[4,-4]],[[2902,1427],[8,-7],[51,-25]],[[2984,1385],[28,-12],[42,-11],[45,11],[27,0],[45,-11],[69,-15],[18,-12]],[[3283,1322],[8,0],[12,3]],[[3310,1329],[23,18],[15,8],[27,3],[18,8],[30,7],[18,0]],[[1753,1213],[-36,-4],[-51,-11],[-42,-14],[-30,-4],[-39,7],[-21,-7],[-9,-11],[-15,0],[-15,8],[-12,14],[-3,15],[-12,14],[-30,7],[-15,15],[-12,4],[-18,-8],[-27,15],[0,29],[-12,15],[-3,18],[0,25],[-3,15],[-6,14],[-15,11],[-9,15],[-12,11],[-30,0],[-24,21],[-6,15]],[[1672,1115],[6,11],[18,14],[18,15],[33,47],[6,11]],[[2252,926],[15,7],[45,7],[6,1]],[[2704,1203],[20,8]],[[2794,1266],[11,34],[3,5]],[[2861,1425],[1,2],[12,11]],[[2318,941],[39,3],[15,11],[24,22],[33,18],[45,25],[39,22],[9,11],[12,29],[15,7],[69,40],[15,4],[30,7],[16,7],[0,30],[6,14],[18,11],[1,1]],[[2724,1211],[12,6],[33,3],[12,15],[6,11],[7,20]],[[2808,1305],[6,10],[18,22],[24,25],[3,11],[0,29],[2,23]],[[1684,893],[-30,29],[-27,7],[-27,4],[-9,4],[-6,25],[-3,36],[12,11],[9,33],[6,11],[42,40],[21,22]],[[1904,886],[-15,0],[-12,3],[-12,15],[-9,18]],[[1856,922],[-33,-11],[-33,-7],[-9,-4],[-25,-25],[-12,0],[-15,11],[-18,7],[-27,0]],[[3580,867],[0,26],[1,16]],[[3482,1121],[-8,12],[9,50]],[[3483,1183],[0,4],[6,11],[3,29],[-3,15],[-6,29],[-9,15],[-9,14],[-12,11],[0,26],[-3,14],[-9,22]],[[3581,909],[2,13],[-10,29],[-12,29],[-6,29],[-9,15],[-21,25],[15,40],[-3,15],[-9,7],[-15,-4],[-15,0],[-15,11],[-1,3]],[[2252,926],[-20,-16]],[[2232,910],[-7,-6],[-15,-7],[-30,0],[-18,-8],[-33,-18],[-18,-7],[-27,7],[-27,7],[-51,19],[-42,3],[-27,0],[-33,-14]],[[1904,886],[0,-19],[-3,-32],[-6,-22],[-9,-4],[-12,0],[-3,-7],[-3,-22],[-15,-11],[-48,-3]],[[1699,664],[15,14],[9,22],[9,22],[24,18],[16,22],[6,4],[27,0]],[[2271,896],[-7,8],[-12,22]],[[2372,598],[9,40],[0,15],[-9,44],[0,14],[6,69],[0,15],[-9,14],[-81,69],[-17,18]],[[3579,866],[1,1]],[[3607,507],[6,19],[3,29],[-3,25],[-12,7],[-28,-3],[-12,3],[-9,19],[-12,65],[3,33],[6,33],[6,65],[6,29],[3,15],[15,20]],[[2347,341],[2,5]],[[2342,333],[5,8]],[[2349,346],[11,20],[6,25],[0,29],[-6,33],[-6,29],[-3,15],[12,40],[6,25],[3,36]],[[3525,315],[0,14],[8,25]],[[3533,354],[1,4],[21,37],[25,43],[12,29],[15,40]],[[1686,541],[5,16]],[[1701,590],[0,4]],[[1540,311],[12,11],[15,7],[12,-11],[15,8],[6,14],[-3,26],[-12,25],[0,11],[12,25],[6,19],[12,11],[9,14],[21,15],[15,3],[9,8],[3,18],[12,22],[2,4]],[[1691,557],[8,23],[2,10]],[[1701,594],[1,8],[-3,29],[6,18],[-6,15]],[[1540,311],[6,-4],[30,-65],[24,-18]],[[3747,201],[-5,-21],[-6,-11]],[[3724,355],[12,-11],[3,-18],[6,-15],[12,-11],[9,-43],[-9,-40],[-9,-11],[-1,-5]],[[3698,186],[38,-17]],[[3619,273],[3,-2],[3,-4]],[[3525,315],[21,0],[27,-8],[19,-13]],[[3592,294],[27,-21]],[[3625,267],[9,-10],[9,-30],[12,-14],[39,-26],[4,-1]],[[0,581],[6,6],[33,40],[30,33],[27,26],[60,43],[36,40],[24,22],[36,40],[30,55],[45,69],[24,29],[30,36],[24,22],[57,47],[36,37],[30,36],[39,47],[45,69],[42,77],[24,36],[21,40],[6,29],[6,29],[6,26],[15,29],[21,40],[78,123],[21,37],[28,54],[18,40]],[[1473,0],[34,57],[30,36],[18,25],[6,22],[9,15],[18,25],[12,44]],[[3736,169],[21,-7],[42,-7],[30,-8]],[[3829,147],[12,-3],[27,-11],[48,-26],[39,-25],[39,-29],[24,-15],[66,-32],[12,-5]],[[2426,0],[-3,9],[-6,18],[-6,30],[-12,43],[-6,15],[-3,14],[-9,22],[-3,18],[-18,62],[-18,47],[-3,29],[3,26]],[[3509,277],[16,23],[0,15]],[[3420,0],[0,13],[6,25],[12,29],[33,70],[9,29],[3,43],[6,29],[3,11],[15,26],[2,2]],[[4006,1404],[18,34]],[[3727,362],[-6,87],[0,197],[6,152],[33,109],[57,153],[63,109],[111,204],[15,31]],[[4096,0],[-481,0],[-3615,0],[0,4096],[4096,0],[0,-4096]],[[3017,101],[-22,12],[-2,37],[26,-18],[-2,-31]],[[3389,32],[4,34],[20,4],[2,-33],[-26,-5]],[[3527,13],[-13,19],[24,18],[13,-8],[-24,-29]],[[2781,186],[-31,-17],[-16,59],[39,-19],[8,-23]],[[2087,218],[-8,37],[39,2],[1,-29],[-32,-10]],[[3786,160],[40,0],[15,-56],[-39,-62],[-97,78],[-8,79],[55,3],[34,-42]],[[1440,437],[8,-33],[-58,19],[5,-54],[-4,26],[-40,0],[64,88],[25,-46]],[[1512,375],[-32,39],[32,20],[17,-31],[-17,-28]],[[2807,493],[0,24],[31,5],[-7,-20],[-24,-9]],[[2823,414],[-22,2],[0,26],[22,2],[0,-30]],[[2920,406],[-37,-29],[-36,37],[41,20],[-8,59],[72,-10],[-32,-77]],[[3970,493],[2,-20],[-57,-20],[-8,50],[63,-10]],[[1516,301],[2,28],[27,7],[-2,-22],[-27,-13]],[[3633,266],[-17,1],[11,20],[37,15],[8,-25],[-39,-11]],[[3931,316],[33,10],[16,-59],[-49,-10],[-48,59],[24,20],[24,-20]],[[3589,357],[27,-31],[-28,-38],[-83,-12],[-75,30],[58,45],[101,6]],[[2382,316],[-33,14],[-3,16],[45,1],[-9,-31]],[[2832,306],[-58,-19],[8,49],[57,39],[16,-10],[-23,-59]],[[3244,336],[-45,34],[-4,15],[38,-8],[11,-41]],[[1399,659],[-18,-29],[-30,19],[11,10],[37,0]],[[3033,689],[-24,9],[5,14],[35,-4],[-16,-19]],[[1512,778],[21,-22],[-61,-38],[-32,29],[24,40],[48,-9]],[[1690,640],[-27,15],[-13,34],[30,-13],[10,-36]],[[1755,609],[-8,-38],[-49,20],[41,49],[16,-31]],[[1690,796],[-5,-36],[-51,-3],[7,25],[49,14]],[[2421,755],[-34,50],[-1,11],[31,-9],[4,-52]],[[1698,522],[-20,32],[37,7],[-1,-12],[-16,-27]],[[2956,618],[4,-35],[22,-7],[3,34],[22,-52],[-82,-33],[-54,46],[85,47]],[[3980,649],[89,-19],[-8,-69],[-33,39],[-16,-19],[-49,19],[17,49]],[[1569,1276],[-23,17],[7,32],[15,-16],[1,-33]],[[2831,1266],[-40,0],[16,40],[19,-6],[5,-34]],[[2928,1208],[-30,22],[16,27],[23,-27],[-9,-22]],[[3757,1226],[-60,-18],[-33,59],[88,-4],[5,-37]],[[3323,1322],[82,-46],[-9,-16],[-83,22],[-13,53],[23,-13]],[[3238,1342],[46,-17],[-24,-68],[-81,29],[59,56]],[[3516,1140],[-34,-19],[-61,38],[72,28],[26,-9],[-3,-38]],[[3990,1180],[14,-11],[-46,-37],[-59,17],[24,39],[67,-8]],[[4096,1186],[0,-38],[-35,1],[8,49],[27,-12]],[[2601,1156],[-53,13],[4,21],[77,8],[16,-20],[-44,-22]],[[3639,1206],[-7,-47],[-65,0],[-8,39],[80,8]],[[3381,1159],[-39,28],[18,29],[29,2],[15,-28],[-23,-31]],[[2729,1187],[-27,11],[7,16],[30,-5],[-10,-22]],[[3853,1191],[-19,7],[30,29],[9,-20],[-20,-16]],[[1828,1521],[-24,-39],[-57,10],[32,29],[49,0]],[[2839,1541],[-28,10],[-12,29],[32,-4],[8,-35]],[[833,1844],[0,30],[32,0],[-9,-23],[-23,-7]],[[1407,1629],[-32,10],[8,18],[23,-1],[1,-27]],[[3219,1753],[-6,-17],[-26,20],[23,1],[9,-4]],[[1836,1759],[-24,12],[20,20],[12,-5],[-8,-27]],[[1763,1668],[-28,13],[-4,36],[25,-13],[7,-36]],[[1788,1776],[-11,-65],[-12,-4],[-18,59],[41,10]],[[1982,1706],[-7,8],[-1,33],[25,-22],[-17,-19]],[[2157,1573],[-22,7],[23,27],[10,-7],[-11,-27]],[[1924,1578],[-7,-57],[-65,59],[23,21],[49,-23]],[[3818,1668],[48,0],[17,-68],[40,23],[-8,-53],[-81,-10],[-89,98],[24,40],[49,-30]],[[3846,1630],[-4,-30],[13,1],[11,38],[-20,-9]],[[2073,1615],[-19,24],[41,10],[-8,-20],[-14,-14]],[[3972,1835],[20,-32],[4,-17],[-73,29],[49,20]],[[2985,1384],[-24,11],[-9,28],[24,-10],[9,-29]],[[2637,1404],[-29,17],[13,41],[14,-2],[2,-56]],[[1701,1424],[-27,9],[33,39],[13,-16],[-19,-32]],[[3761,1413],[-48,30],[0,29],[81,10],[-33,-69]],[[2880,1405],[-48,51],[23,46],[56,-4],[24,-37],[-55,-56]],[[4096,1618],[0,-212],[-3,-5],[-89,3],[-16,55],[-33,13],[31,100],[43,37],[67,9]],[[2993,885],[48,-30],[-40,-39],[-39,32],[-42,-3],[40,30],[9,49],[24,-39]],[[3899,914],[40,0],[8,-59],[-89,10],[8,39],[33,10]],[[3604,930],[36,-55],[-18,-19],[-79,19],[61,55]],[[1402,942],[-27,11],[26,25],[14,-35],[-13,-1]],[[1472,953],[-29,23],[-3,16],[27,2],[5,-41]],[[1626,973],[0,49],[22,-23],[-22,-26]],[[2300,968],[29,-44],[-48,-30],[-49,10],[0,29],[-40,30],[108,5]],[[1880,925],[-26,8],[-2,20],[38,0],[-10,-28]],[[4096,980],[0,-73],[-60,7],[-8,39],[68,27]],[[3988,1051],[27,-38],[-19,-60],[-113,29],[40,59],[65,10]],[[2912,973],[-22,32],[30,27],[0,-35],[-8,-24]],[[3284,1022],[-16,20],[8,29],[16,-21],[-8,-28]],[[4096,1081],[0,-29],[-11,-1],[8,29],[3,1]],[[2176,2207],[40,-20],[8,-29],[-32,29],[-47,-27],[-34,57],[49,13],[16,-23]],[[970,2217],[-30,12],[14,37],[13,-19],[3,-30]],[[1189,2295],[-29,35],[37,24],[-3,-48],[-5,-11]],[[3515,2457],[-37,5],[24,55],[81,23],[0,-40],[-68,-43]],[[1676,2579],[-18,30],[65,19],[3,-27],[-50,-22]],[[1124,2736],[-12,8],[12,51],[14,-26],[-14,-33]],[[3098,3128],[3,41],[37,27],[-34,-46],[-6,-22]],[[3073,3248],[-21,27],[30,10],[0,-1],[-9,-36]],[[3131,3347],[-9,-33],[-3,96],[28,-18],[-16,-45]],[[3121,3425],[-11,33],[28,13],[1,-14],[-18,-32]],[[3138,3539],[17,-49],[-31,-9],[-3,70],[50,37],[-33,-49]],[[3142,3618],[-29,-26],[-47,-4],[68,49],[8,-19]],[[3324,3676],[-32,5],[-8,35],[36,-22],[4,-18]],[[3697,3843],[1,17],[23,32],[8,-28],[-32,-21]],[[1333,1892],[-15,24],[20,15],[13,-8],[-18,-31]],[[3785,1909],[-6,31],[7,12],[25,-21],[-26,-22]],[[2702,1913],[16,-49],[-75,16],[-14,43],[27,-11],[13,40],[33,-10],[0,-29]],[[1584,1988],[25,-20],[41,-75],[-68,61],[-67,-17],[69,51]],[[3357,2011],[13,-73],[-45,-4],[-17,-31],[33,-39],[-33,-20],[30,-23],[11,43],[64,-12],[81,-154],[57,-10],[81,68],[46,-5],[9,30],[-71,24],[105,10],[-24,29],[40,89],[73,-69],[-146,-176],[-32,19],[-43,-44],[19,-54],[-89,-26],[-33,26],[23,57],[-31,22],[-48,-10],[14,85],[-55,3],[-16,30],[-202,-1],[8,-49],[-73,0],[-16,-29],[-20,22],[84,47],[-21,21],[-72,-13],[-68,-28],[16,-49],[-30,-15],[-35,44],[-40,-49],[-49,20],[-16,59],[-29,-3],[-11,101],[32,-29],[40,48],[25,-19],[64,29],[-24,49],[-56,0],[16,39],[48,-39],[73,-10],[49,10],[8,39],[44,17],[-4,-85],[-35,-4],[3,-35],[39,9],[66,-39],[97,49],[-16,30],[16,117],[67,-15],[6,-24]],[[3416,1980],[-27,11],[24,35],[14,-11],[-11,-35]],[[808,1992],[-15,23],[26,15],[14,-9],[-25,-29]],[[2952,2050],[17,-59],[-73,20],[6,32],[59,37],[-9,-30]],[[3247,2103],[21,-43],[-49,-10],[-13,47],[41,6]]]}