{"objects":{"water":{"type":"GeometryCollection","geometries":[{"type":"Polygon","properties":{"source":"naturalearthdata.com","kind":"ocean","area":1576712559132672,"sort_rank":200,"min_zoom":0.0,"id":1},"arcs":[[0],[1],[2],[3],[4]]},{"type":"LineString","properties":{"source":"naturalearthdata.com","kind":"ocean","sort_rank":205,"boundary":true,"min_zoom":0.0,"id":1562},"arcs":[5]},{"type":"LineString","properties":{"source":"naturalearthdata.com","kind":"ocean","sort_rank":205,"boundary":true,"min_zoom":0.0,"id":1563},"arcs":[6]},{"type":"LineString","properties":{"source":"naturalearthdata.com","kind":"ocean","sort_rank":205,"boundary":true,"min_zoom":0.0,"id":2090},"arcs":[7]},{"type":"LineString","properties":{"source":"naturalearthdata.com","kind":"ocean","sort_rank":205,"boundary":true,"min_zoom":0.0,"id":2093},"arcs":[8]},{"type":"LineString","properties":{"source":"naturalearthdata.com","kind":"ocean","sort_rank":205,"boundary":true,"min_zoom":0.0,"id":2095},"arcs":[9]},{"type":"Point","properties":{"label_placement":true,"kind":"ocean","name":"Indian Ocean","source":"openstreetmap.org","sort_rank":200,"min_zoom":0.0,"id":305640074},"coordinates":[1820,868]}]},"buildings":{"type":"GeometryCollection","geometries":[]},"places":{"type":"GeometryCollection","geometries":[{"type":"Point","properties":{"name:pt":"Territ\u00f3rio Brit\u00e2nico do Oceano \u00cdndico","name:cy":"Tiriogaeth Prydain yng Nghefnfor India","name:ko":"\uc601\uad6d\ub839 \uc778\ub3c4\uc591 \uc9c0\uc5ed","name:kn":"\u0cac\u0ccd\u0cb0\u0cbf\u0c9f\u0cc0\u0cb6\u0ccd \u0c87\u0c82\u0ca1\u0cbf\u0caf\u0ca8\u0ccd \u0cae\u0cb9\u0cbe\u0cb8\u0cbe\u0c97\u0cb0 \u0caa\u0ccd\u0cb0\u0ca6\u0cc7\u0cb6","name:km":"\u178a\u17c2\u1793\u200b\u1798\u17a0\u17b6\u200b\u179f\u1798\u17bb\u1791\u17d2\u179a\u200b\u17a5\u178e\u17d2\u178c\u17b6 \u1785\u1780\u17d2\u179a\u1797\u1796\u200b\u17a2\u1784\u17cb\u1782\u17d2\u179b\u17c1\u179f","name:cs":"Britsk\u00e9 indickooce\u00e1nsk\u00e9 \u00fazem\u00ed","name:ki":"Eneo la Uingereza katika Bahari Hindi","name:tr":"Britanya Hint Okyanusu Topraklar\u0131","name:ku":"Xak\u00ean Br\u00eetanyay\u00ea y\u00ean Okyan\u00fbsa Hind\u00ee","name:ti":"\u12e8\u1265\u122a\u1273\u1292\u12eb \u1205\u1295\u12f5 \u12cd\u1242\u12eb\u1296\u1235 \u130d\u12db\u1275","name:ks":"\u0628\u0631\u0637\u0627\u0646\u0648\u06cc \u0628\u062d\u0631\u0650 \u06c1\u0650\u0646\u065b\u062f\u06cd \u0639\u0644\u0627\u0642\u06c1\u0655","name:to":"Potu fonua moana \u02bbInitia fakapilit\u0101nia","name:be":"\u0411\u0440\u044b\u0442\u0430\u043d\u0441\u043a\u0456\u044f \u0406\u043d\u0434\u044b\u0439\u0441\u043a\u0430-\u0430\u043a\u0456\u044f\u043d\u0441\u043a\u0456\u044f \u0442\u044d\u0440\u044b\u0442\u043e\u0440\u044b\u0456","name:or":"\u0b2c\u0b4d\u0b30\u0b3f\u0b1f\u0b3f\u0b36\u0b4d \u0b2d\u0b3e\u0b30\u0b24\u0b40\u0b5f \u0b38\u0b3e\u0b2e\u0b41\u0b26\u0b4d\u0b30\u0b3f\u0b15 \u0b15\u0b4d\u0b37\u0b47\u0b24\u0b4d\u0b30","name:pl":"Brytyjskie Terytorium Oceanu Indyjskiego","name:ta":"\u0baa\u0bbf\u0bb0\u0bbf\u0ba4\u0bcd\u0ba4\u0bbe\u0ba9\u0bbf\u0baf \u0b87\u0ba8\u0bcd\u0ba4\u0bbf\u0baf\u0baa\u0bcd \u0baa\u0bc6\u0bb0\u0bc1\u0b99\u0bcd\u0b95\u0b9f\u0bb2\u0bcd \u0bae\u0ba3\u0bcd\u0b9f\u0bb2\u0bae\u0bcd","name:ca":"Territori Brit\u00e0nic de l'Oce\u00e0 \u00cdndic","name:te":"\u0c2c\u0c4d\u0c30\u0c3f\u0c1f\u0c3f\u0c37\u0c4d \u0c2d\u0c3e\u0c30\u0c24\u0c40\u0c2f \u0c13\u0c37\u0c28\u0c4d \u0c2a\u0c4d\u0c30\u0c3e\u0c02\u0c24\u0c02","name:vi":"L\u00e3nh th\u1ed5 \u1ea4n \u0110\u1ed9 D\u01b0\u01a1ng thu\u1ed9c Anh","name:ro":"Teritoriul Britanic din Oceanul Indian","name:ka":"\u10d1\u10e0\u10d8\u10e2\u10d0\u10dc\u10d4\u10d7\u10d8\u10e1 \u10d8\u10dc\u10d3\u10dd\u10d4\u10d7\u10d8\u10e1 \u10dd\u10d9\u10d4\u10d0\u10dc\u10d8\u10e1 \u10e2\u10d4\u10e0\u10d8\u10e2\u10dd\u10e0\u10d8\u10d0","name:hr":"Britanski indijskooceanski teritoriji","name:da":"Britiske Indiske Ocean","name:de":"Britisches Territorium im Indischen Ozean","name:dz":"\u0f56\u0fb2\u0f72\u0f0b\u0f4a\u0f72\u0f64\u0f0b\u0f62\u0f92\u0fb1\u0f0b\u0f42\u0f62\u0f0b\u0f42\u0fb1\u0f72\u0f0b\u0f62\u0f92\u0fb1\u0f0b\u0f58\u0f5a\u0f7c\u0f0b\u0f66\u0f0b\u0f41\u0f7c\u0f44\u0f66","source":"openstreetmap.org","name:lv":"Indijas oke\u0101na Britu teritorija","name:lt":"Indijos vandenyno Brit\u0173 sritis","name:hi":"\u092c\u094d\u0930\u093f\u091f\u093f\u0936 \u0939\u093f\u0902\u0926 \u092e\u0939\u093e\u0938\u093e\u0917\u0930 \u0915\u094d\u0937\u0947\u0924\u094d\u0930","name:he":"\u05d8\u05e8\u05d9\u05d8\u05d5\u05e8\u05d9\u05d4 \u05d1\u05e8\u05d9\u05d8\u05d9\u05ea \u05d1\u05d0\u05d5\u05e7\u05d9\u05d0\u05e0\u05d5\u05e1 \u05d4\u05d4\u05d5\u05d3\u05d9","kind":"country","name:ur":"\u0628\u0631\u0637\u0627\u0646\u0648\u06cc \u06c1\u0646\u062f\u0648\u0633\u062a\u0627\u0646\u06cc \u0633\u0645\u0646\u062f\u0631\u06cc \u062e\u0637\u06c1","name:lg":"Bizinga by'eCago","name:uk":"\u0411\u0440\u0438\u0442\u0430\u043d\u0441\u044c\u043a\u0430 \u0442\u0435\u0440\u0438\u0442\u043e\u0440\u0456\u044f \u0432 \u0406\u043d\u0434\u0456\u0439\u0441\u044c\u043a\u043e\u043c\u0443 \u043e\u043a\u0435\u0430\u043d\u0456","min_zoom":2.0,"name:hu":"Brit Indiai-\u00f3ce\u00e1ni Ter\u00fclet","name:ln":"Mabel\u00e9 ya Ang\u025bl\u025bt\u025b\u0301l\u025b na mb\u00fa ya Indiya","name:lo":"\u0e9a\u0ea3\u0eb4\u0e94\u0e97\u0eb4\u0eaa\u0ead\u0eb4\u0e99\u0e94\u0ec8\u0ebd\u0e99\u0ec2\u0ead\u0e8a\u0ec8\u0ebd\u0e99\u0ec0\u0e97\u0eb5\u0ea3\u0eb4\u0e97\u0ecd\u0ea3\u0eb5","population":3500,"name:el":"\u0392\u03c1\u03b5\u03c4\u03b1\u03bd\u03b9\u03ba\u03cc \u0388\u03b4\u03b1\u03c6\u03bf\u03c2 \u0399\u03bd\u03b4\u03b9\u03ba\u03bf\u03cd \u03a9\u03ba\u03b5\u03b1\u03bd\u03bf\u03cd","name:eo":"Brita Hindoceana Teritorio","name":"British Indian Ocean Territory","name:ee":"Britaint\u0254wo \u0192e india \u0192udome nutome","name:th":"\u0e1a\u0e23\u0e34\u0e15\u0e34\u0e0a\u0e2d\u0e34\u0e19\u0e40\u0e14\u0e35\u0e22\u0e19\u0e42\u0e2d\u0e40\u0e0a\u0e35\u0e22\u0e19\u0e40\u0e17\u0e23\u0e4c\u0e23\u0e34\u0e17\u0e2d\u0e23\u0e35","name:gu":"\u0aac\u0acd\u0ab0\u0abf\u0a9f\u0abf\u0ab6 \u0a87\u0aa8\u0acd\u0aa1\u0abf\u0aaf\u0aa8 \u0a93\u0ab6\u0aa8 \u0a9f\u0ac7\u0ab0\u0abf\u0a9f\u0ab0\u0ac0","name:eu":"Indiako Ozeanoko Britainiar Lurraldea","name:et":"Briti India ookeani ala","name:nl":"Brits Territorium in de Indische Oceaan","name:es":"Territorio Brit\u00e1nico del Oc\u00e9ano \u00cdndico","name:ia":"Territorio oceanic britanno-indian","name:rm":"Territori Britannic en l'Ocean Indic","name:rn":"Intara y'Ubwongereza yo mu birwa by'Abahindi","name:az":"Britaniya-Hindistan Okeanik territoriyas\u0131","name:id":"Teritorial Britania di Samudra Hindia","name:ms":"Wilayah Lautan Hindi British","name:mr":"\u092c\u094d\u0930\u093f\u091f\u0940\u0936 \u0939\u093f\u0902\u0926\u0940 \u092e\u0939\u093e\u0938\u093e\u0917\u0930 \u0915\u094d\u0937\u0947\u0924\u094d\u0930","name:ar":"\u0625\u0642\u0644\u064a\u0645 \u0627\u0644\u0645\u062d\u064a\u0637 \u0627\u0644\u0647\u0646\u062f\u064a \u0627\u0644\u0628\u0631\u064a\u0637\u0627\u0646\u064a","name:my":"\u1017\u103c\u102d\u1010\u102d\u101e\u103b\u103e \u1021\u102d\u1014\u1039\u1012\u103c\u102d\u101a \u101e\u1019\u102f\u1012\u1039\u1012\u101b\u102c \u1015\u102d\u102f\u1004\u103a\u1014\u1000\u103a","name:io":"Britaniana teritorio en Indiana Oceano","name:is":"Breska Indlandshafseyjar","name:am":"\u12e8\u1265\u122a\u1273\u1292\u12eb \u1205\u1295\u12f5 \u12cd\u1242\u12eb\u1296\u1235 \u130d\u12db\u1275","name:it":"Territorio britannico dell'oceano Indiano","name:an":"Territorio Britanico de l'Ozi\u00e1n Indico","loc_name":"Chagos Islands","name:ru":"\u0411\u0440\u0438\u0442\u0430\u043d\u0441\u043a\u0430\u044f \u0422\u0435\u0440\u0440\u0438\u0442\u043e\u0440\u0438\u044f \u0432 \u0418\u043d\u0434\u0438\u0439\u0441\u043a\u043e\u043c \u041e\u043a\u0435\u0430\u043d\u0435","name:mn":"\u0411\u0440\u0438\u0442\u0430\u043d\u0438\u0439\u043d \u042d\u043d\u044d\u0442\u0445\u044d\u0433\u0438\u0439\u043d \u0414\u0430\u043b\u0430\u0439\u043d \u041d\u0443\u0442\u0430\u0433 \u0434\u044d\u0432\u0441\u0433\u044d\u0440","id":424313891,"name:mk":"\u0411\u0440\u0438\u0442\u0430\u043d\u0441\u043a\u043e \u0418\u043d\u0434\u0438\u0441\u043a\u043e \u041e\u043a\u0435\u0430\u043d\u0441\u043a\u0430 \u0442\u0435\u0440\u0438\u0442\u043e\u0440\u0438\u0458\u0430","name:af":"Britse Indiese Oseaan Gebied","name:zu":"i-British Indian Ocean Territory","name:ha":"Yankin Birtaniya Na Tekun Indiya","name:nn":"Britiske omr\u00e5de i Det indiske hav","name:ff":"Keeriindi britaani to maayo enndo","name:fi":"Brittil\u00e4inen Intian valtameren alue","name:no":"Det britiske territoriet i Indiahavet","name:mg":"Faridranomasina indiana britanika","name:fo":"Bretsku Indiahavsoyggjarnar","name:fr":"Territoire britannique de l'Oc\u00e9an Indien","name:fy":"Britske Yndyske-Oseaanterritoarium","name:zh":"\u82f1\u5c5e\u5370\u5ea6\u6d0b\u9886\u5730","name:sl":"Britanski teritorij v Indijskem oceanu","name:sk":"Britsk\u00e9 indickooce\u00e1nske \u00fazemie","name:ja":"\u30a4\u30ae\u30ea\u30b9\u9818\u30a4\u30f3\u30c9\u6d0b\u5730\u57df","name:si":"\u0db6\u0dca\u200d\u0dbb\u0dd2\u0dad\u0dcf\u0db1\u0dca\u200d\u0dba \u0d89\u0db1\u0dca\u0daf\u0dd3\u0dba \u0dc3\u0dcf\u0d9c\u0dbb \u0db4\u0dca\u200d\u0dbb\u0dcf\u0db1\u0dca\u0dad\u0dba","name:sh":"Britanski teritorij Indijskog oceana","name:sg":"S\u00ease t\u00ee Angl\u00ebe na Ng\u00fby\u00e4m\u00e4 t\u00ee \u00cannde","name:ne":"\u092c\u0947\u0932\u093e\u092f\u0924\u0940 \u0939\u093f\u0928\u094d\u0926 \u092e\u0939\u093e\u0938\u093e\u0917\u0930 \u0915\u094d\u0937\u0947\u0924\u094d\u0930","name:br":"Tiriad Meurvor Indez Breizh-Veur","name:bs":"Britanski teritorij Indijskog okeana","name:bm":"Angil\u025b ka \u025bndu dugukolo","name:bn":"\u09ac\u09cd\u09b0\u09bf\u099f\u09bf\u09b6 \u09ad\u09be\u09b0\u09a4 \u09ae\u09b9\u09be\u09b8\u09be\u0997\u09b0\u09c0\u09af\u09bc \u0985\u099e\u09cd\u099a\u09b2","name:ml":"\u0d2c\u0d4d\u0d30\u0d3f\u0d1f\u0d4d\u0d1f\u0d40\u0d37\u0d4d \u0d07\u0d28\u0d4d\u0d24\u0d4d\u0d2f\u0d7b \u0d2e\u0d39\u0d3e\u0d38\u0d2e\u0d41\u0d26\u0d4d\u0d30 \u0d2a\u0d4d\u0d30\u0d26\u0d47\u0d36\u0d02","name:sw":"Eneo la Uingereza katika Bahari Hindi","name:sv":"Brittiska territoriet i Indiska oceanen","name:bg":"\u0411\u0440\u0438\u0442\u0430\u043d\u0441\u043a\u0430 \u0438\u043d\u0434\u043e\u043e\u043a\u0435\u0430\u043d\u0441\u043a\u0430 \u0442\u0435\u0440\u0438\u0442\u043e\u0440\u0438\u044f","name:sr":"\u0411\u0440\u0438\u0442\u0430\u043d\u0441\u043a\u0430 \u0442\u0435\u0440\u0438\u0442\u043e\u0440\u0438\u0458\u0430 \u0418\u043d\u0434\u0438\u0458\u0441\u043a\u043e\u0433 \u043e\u043a\u0435\u0430\u043d\u0430","name:ga":"Cr\u00edoch Aig\u00e9an Indiach na Breataine","name:gd":"Ranntair Breatannach Cuan nan Innseachan","name:gl":"Territorio Brit\u00e1nico do Oc\u00e9ano \u00cdndico","name:fa":"\u0645\u0633\u062a\u0639\u0645\u0631\u0647\u200c\u0647\u0627\u06cc \u0628\u0631\u06cc\u062a\u0627\u0646\u06cc\u0627 \u062f\u0631 \u0627\u0642\u06cc\u0627\u0646\u0648\u0633 \u0647\u0646\u062f","name:yo":"Or\u00edl\u1eb9\u0301\u00e8de Et\u00edkun \u00cdnd\u00ed\u00e1n\u00ec ti \u00ccl\u00fa B\u00edr\u00edt\u00eds\u00ec","name:ak":"Britenfo H\u0254n Man W\u0254 India Po No Mu"},"coordinates":[3362,3507]}]},"transit":{"type":"GeometryCollection","geometries":[]},"pois":{"type":"GeometryCollection","geometries":[]},"boundaries":{"type":"GeometryCollection","geometries":[]},"roads":{"type":"GeometryCollection","geometries":[]},"earth":{"type":"GeometryCollection","geometries":[{"type":"MultiPolygon","properties":{"sort_rank":10,"source":"naturalearthdata.com","min_zoom":0.0,"kind":"earth","area":63424201},"arcs":[[[10]],[[11]]]}]},"landuse":{"type":"GeometryCollection","geometries":[]}},"type":"Topology","transform":{"translate":[67.5,-11.1784018737],"scale":[0.001373291,0.0013580117]},"arcs":[[[4096,0],[-4096,0],[0,4096],[4096,0],[0,-4096]],[[3629,2795],[1,5],[-1,4],[-2,4],[-2,-6],[-2,-2],[-3,-2],[-3,-4],[-17,-24],[-8,-6],[4,62],[-4,18],[-9,9],[-36,25],[-10,1],[16,-21],[6,-4],[7,-2],[16,-9],[5,-4],[5,-18],[-4,-42],[4,-20],[8,5],[21,18],[6,7],[2,6]],[[3623,2814],[3,-4],[-3,7],[-1,4],[0,5],[4,13],[7,10],[4,10],[-8,13],[-24,32],[-8,6],[12,-21],[15,-17],[7,-18],[-11,-22],[-2,-6],[1,-6],[4,-6]],[[2795,3669],[5,-7],[4,4],[4,8],[3,9],[-5,-1],[-5,-3],[-3,-4],[-3,-6]],[[2739,3535],[0,-8],[2,2],[2,2],[1,4],[-1,6],[-3,-3],[-1,-3]],[[3629,2872],[-24,32],[-8,6],[12,-21],[15,-17],[7,-18],[-11,-22],[-2,-6],[1,-6],[4,-6],[3,-4],[-3,7],[-1,4],[0,5],[4,13],[7,10],[4,10],[-8,13]],[[3617,2794],[-17,-24],[-8,-6],[4,62],[-4,18],[-9,9],[-36,25],[-10,1],[16,-21],[6,-4],[7,-2],[16,-9],[5,-4],[5,-18],[-4,-42],[4,-20],[8,5],[21,18],[6,7],[2,6],[1,5],[-1,4],[-2,4],[-2,-6],[-2,-2],[-3,-2],[-3,-4]],[[2804,3333],[8,-1],[-5,-2],[-2,0],[-1,2],[0,1]],[[2795,3669],[3,6],[3,4],[5,3],[5,1],[-3,-9],[-4,-8],[-4,-4],[-5,7]],[[2739,3527],[0,8],[1,3],[3,3],[1,-6],[-1,-4],[-2,-2],[-2,-2]],[[3596,2826],[-4,-62],[8,6],[17,24],[3,4],[3,2],[2,2],[2,6],[2,-4],[1,-4],[-1,-5],[-2,-6],[-6,-7],[-21,-18],[-8,-5],[-4,20],[4,42],[-5,18],[-5,4],[-16,9],[-7,2],[-6,4],[-16,21],[10,-1],[36,-25],[9,-9],[4,-18]],[[3623,2817],[3,-7],[-3,4],[-4,6],[-1,6],[2,6],[11,22],[-7,18],[-15,17],[-12,21],[8,-6],[24,-32],[8,-13],[-4,-10],[-7,-10],[-4,-13],[0,-5],[1,-4]]]}