{"objects":{"water":{"type":"GeometryCollection","geometries":[{"type":"MultiPolygon","properties":{"source":"naturalearthdata.com","kind":"ocean","area":1576712559132672,"sort_rank":200,"min_zoom":0.0,"id":1},"arcs":[[[0]]]}]},"buildings":{"type":"GeometryCollection","geometries":[]},"places":{"type":"GeometryCollection","geometries":[{"type":"Point","properties":{"name:nl":"Heard- en McDonaldeilanden","name:ja":"\u30cf\u30fc\u30c9\u5cf6\u3068\u30de\u30af\u30c9\u30ca\u30eb\u30c9\u8af8\u5cf6","name:ms":"Pulau Heard dan Kepulauan McDonald","name:hi":"\u0939\u0930\u094d\u0921 \u0926\u094d\u0935\u0940\u092a \u0914\u0930 \u092e\u0948\u0915\u0921\u094b\u0928\u093e\u0932\u094d\u0921 \u0926\u094d\u0935\u0940\u092a","name:ko":"\ud5c8\ub4dc \ub9e5\ub3c4\ub110\ub4dc \uc81c\ub3c4","name:he":"\u05d4\u05d0\u05d9 \u05d4\u05e8\u05d3 \u05d5\u05d0\u05d9\u05d9 \u05de\u05e7\u05d3\u05d5\u05e0\u05dc\u05d3","kind":"region","name:th":"\u0e40\u0e01\u0e32\u0e30\u0e40\u0e2e\u0e34\u0e23\u0e4c\u0e14\u0e41\u0e25\u0e30\u0e2b\u0e21\u0e39\u0e48\u0e40\u0e01\u0e32\u0e30\u0e41\u0e21\u0e01\u0e14\u0e2d\u0e19\u0e31\u0e25\u0e14\u0e4c","name:it":"Isole Heard e McDonald","name:uk":"\u041e\u0441\u0442\u0440\u0456\u0432 \u0425\u0435\u0440\u0434 \u0456 \u043e\u0441\u0442\u0440\u043e\u0432\u0438 \u041c\u0430\u043a\u0434\u043e\u043d\u0430\u043b\u044c\u0434","name:be":"\u0412\u043e\u0441\u0442\u0440\u0430\u045e \u0425\u0435\u0440\u0434 \u0456 \u0410\u0441\u0442\u0440\u0430\u0432\u044b \u041c\u0430\u043a-\u0414\u043e\u043d\u0430\u043b\u0434","name:ru":"\u041e\u0441\u0442\u0440\u043e\u0432 \u0425\u0435\u0440\u0434 \u0438 \u043e\u0441\u0442\u0440\u043e\u0432\u0430 \u041c\u0430\u043a\u0434\u043e\u043d\u0430\u043b\u044c\u0434","name:ta":"\u0b8f\u0bb0\u0bcd\u0b9f\u0bcd \u0ba4\u0bc0\u0bb5\u0bc1\u0bae\u0bcd \u0bae\u0b95\u0bcd\u0b9f\u0bca\u0ba9\u0bbe\u0bb2\u0bcd\u0b9f\u0bcd \u0ba4\u0bc0\u0bb5\u0bc1\u0bae\u0bcd","name":"Heard Island and McDonald Islands","id":2294586133,"population":0,"name:el":"\u039d\u03ae\u03c3\u03bf\u03b9 \u03a7\u03b5\u03c1\u03bd\u03c4 \u03ba\u03b1\u03b9 \u039c\u03b1\u03ba\u03bd\u03c4\u03cc\u03bd\u03b1\u03bb\u03bd\u03c4","name:eo":"Herda kaj Makdonaldaj Insuloj","name:lt":"Herdo ir Makdonaldo salos","kind_detail":"state","min_zoom":4.0,"name:de":"Heard und McDonaldinseln","source":"openstreetmap.org","name:fr":"\u00celes Heard-et-MacDonald","name:zh":"\u8d6b\u5fb7\u5c9b\u548c\u9ea6\u514b\u5510\u7eb3\u7fa4\u5c9b","name:es":"Islas Heard y McDonald"},"coordinates":[3949,3423]}]},"transit":{"type":"GeometryCollection","geometries":[]},"pois":{"type":"GeometryCollection","geometries":[]},"boundaries":{"type":"GeometryCollection","geometries":[]},"roads":{"type":"GeometryCollection","geometries":[]},"earth":{"type":"GeometryCollection","geometries":[]},"landuse":{"type":"GeometryCollection","geometries":[]}},"type":"Topology","transform":{"translate":[67.5,-55.7765730187],"scale":[0.001373291,0.0008041486]},"arcs":[[[0,4096],[4096,0],[0,-4096],[-4096,0],[0,4096]]]}