{"objects":{"water":{"type":"GeometryCollection","geometries":[]},"buildings":{"type":"GeometryCollection","geometries":[]},"places":{"type":"GeometryCollection","geometries":[{"type":"Point","properties":{"name:pt":"Afeganist\u00e3o","old_name:vi":"A Ph\u00fa H\u00e3n","name:ka":"\u10d0\u10d5\u10e6\u10d0\u10dc\u10d4\u10d7\u10d8","name:mt":"Afganistan","name:ko":"\uc544\ud504\uac00\ub2c8\uc2a4\ud0c4","name:kn":"\u0c85\u0cab\u0c98\u0cbe\u0ca8\u0cbf\u0cb8\u0ccd\u0ca5\u0cbe\u0ca8\u0ccd","name:km":"\u17a2\u17b6\u17a0\u17d2\u179c\u17a0\u17d2\u1782\u17b6\u1793\u17b8\u179f\u17d2\u1790\u17b6\u1793","name:kl":"Afghanistani","name:cs":"Afgh\u00e1nist\u00e1n","alt_name:eo":"Afganistano;Afganio","name:ki":"Afuganistani","name:tr":"Afganistan","name:ku":"Afxanistan","name:ti":"\u12a0\u134d\u130b\u1292\u1235\u1273\u1295","name:ks":"\u0627\u064e\u0641\u063a\u0627\u0646\u064e\u0633\u062a\u0627\u0646","name:to":"\u02bbAfik\u0101nisitani","name:tl":"Apganistan","name:sv":"Afghanistan","name:or":"\u0b06\u0b2b\u0b3e\u0b17\u0b3e\u0b28\u0b3f\u0b38\u0b4d\u0b24\u0b3e\u0b28\u0b4d","name:ce":"\u0410\u0444\u0433I\u0430\u043d\u0438\u0441\u0442\u0430\u043d","name:ta":"\u0b86\u0baa\u0bcd\u0b95\u0bbe\u0ba9\u0bbf\u0bb8\u0bcd\u0ba4\u0bbe\u0ba9\u0bcd","name:tg":"\u0410\u0444\u0493\u043e\u043d\u0438\u0441\u0442\u043e\u043d","name:ca":"Afganistan","name:te":"\u0c06\u0c2b\u0c4d\u0c18\u0c3e\u0c28\u0c3f\u0c38\u0c4d\u0c24\u0c3e\u0c28\u0c4d","name:vi":"Afghanistan","name:hu":"Afganiszt\u00e1n","name:ro":"Afganistan","name:cy":"Afghanistan","name:hr":"Afganistan","name:da":"Afghanistan","name:fr":"Afghanistan","name:de":"Afghanistan","name:dz":"\u0f68\u0f55\u0f0b\u0f42\u0fb7\u0f0b\u0f53\u0f72\u0f0b\u0f66\u0f4f\u0f71\u0f53","source":"openstreetmap.org","name:lv":"Afganist\u0101na","name:lt":"Afganistanas","name:uz":"Afg\u2019oniston","name:kk":"\u0410\u0443\u0493\u0430\u043d\u0441\u0442\u0430\u043d","name:he":"\u05d0\u05e4\u05d2\u05e0\u05d9\u05e1\u05d8\u05df","kind":"country","name:ha":"Afaganistan","name:la":"Afgania","name:lg":"Afaganisitani","name:uk":"\u0410\u0444\u0433\u0430\u043d\u0456\u0441\u0442\u0430\u043d","name:hy":"\u0531\u0586\u0572\u0561\u0576\u057d\u057f\u0561\u0576","min_zoom":2.0,"name:li":"Afganistan","name:ln":"Afiganisit\u00e1","name:lo":"\u0ead\u0eb1\u0e9a\u0e81\u0eb2\u0e99\u0eb4\u0eaa\u0eb0\u0e96\u0eb2\u0e99","population":32738376,"name:el":"\u0391\u03c6\u03b3\u03b1\u03bd\u03b9\u03c3\u03c4\u03ac\u03bd","name:eo":"Afganujo","name:en":"Afghanistan","name":"\u0627\u0641\u063a\u0627\u0646\u0633\u062a\u0627\u0646","name:is":"Afganistan","name:ee":"Afghanistan nutome","name:th":"\u0e1b\u0e23\u0e30\u0e40\u0e17\u0e28\u0e2d\u0e31\u0e1f\u0e01\u0e32\u0e19\u0e34\u0e2a\u0e16\u0e32\u0e19","name:eu":"Afganistan","name:et":"Afganistan","name:nl":"Afghanistan","name:es":"Afganist\u00e1n","name:ia":"Afghanistan","name:rm":"Afghanistan","name:rn":"Afuganisitani","name:az":"\u018ffqan\u0131stan","name:id":"Afganistan","name:ms":"Afghanistan","name:mr":"\u0905\u092b\u0917\u093e\u0923\u093f\u0938\u094d\u0924\u093e\u0928","name:as":"\u0986\u09ab\u0997\u09be\u09a8\u09bf\u09b8\u09cd\u09a4\u09be\u09a8","name:ar":"\u0623\u0641\u063a\u0627\u0646\u0633\u062a\u0627\u0646","name:my":"\u1021\u102c\u1016\u1002\u1014\u103a\u1014\u1005\u1039\u1005\u1010\u1014\u103a","name:io":"Afganistan","int_name":"Afghanistan","name:ak":"Afganistan","name:am":"\u12a0\u134d\u130b\u1292\u1235\u1273\u1295","name:it":"Afghanistan","name:an":"Afganist\u00e1n","name:ru":"\u0410\u0444\u0433\u0430\u043d\u0438\u0441\u0442\u0430\u043d","name:mn":"\u0410\u0444\u0433\u0430\u043d\u0438\u0441\u0442\u0430\u043d","name:pl":"Afganistan","name:mk":"\u0410\u0432\u0433\u0430\u043d\u0438\u0441\u0442\u0430\u043d","name:af":"Afghanistan","name:zu":"i-Afghanistan","name:nn":"Afghanistan","name:ff":"Afganistaan","name:fi":"Afganistan","name:hi":"\u0905\u092b\u093c\u0917\u093e\u0928\u093f\u0938\u094d\u0924\u093e\u0928","name:mg":"Afghanistan","id":26847706,"name:ba":"\u0410\u0444\u0493\u0430\u043d\u0441\u0442\u0430\u043d","name:fy":"Afganistan","name:vo":"Lafganist\u00e4n","name:zh":"\u963f\u5bcc\u6c57","name:gv":"Yn Afghanistaan","name:so":"Afgaanistaan","name:sn":"Afuganistani","name:sl":"Afganistan","name:sk":"Afganistan","name:ja":"\u30a2\u30d5\u30ac\u30cb\u30b9\u30bf\u30f3","name:si":"\u0d87\u0dc6\u0dca\u0d9c\u0db1\u0dd2\u0dc3\u0dca\u0dae\u0dcf\u0db1\u0dba","name:no":"Afghanistan","name:sg":"Fagan\u00efta, Afgan\u00efst\u00e4an","name:se":"Afghanistan","name:ne":"\u0905\u092b\u094d\u0917\u093e\u0928\u093f\u0937\u094d\u0924\u093e\u0928","name:br":"Afghanistan","name:bs":"Avganistan","name:bm":"Afiganista\u014b","name:bn":"\u0986\u09ab\u0997\u09be\u09a8\u09bf\u09b8\u09cd\u09a4\u09be\u09a8","name:bo":"\u0f68\u0f55\u0f0b\u0f42\u0f0b\u0f53\u0f72\u0f0b\u0f66\u0f9f\u0f71\u0f53\u0f0d","name:ml":"\u0d05\u0d2b\u0d4d\u0d17\u0d3e\u0d28\u0d3f\u0d38\u0d4d\u0d25\u0d3e\u0d7b","name:sw":"Afuganistani","name:be":"\u0410\u0444\u0433\u0430\u043d\u0456\u0441\u0442\u0430\u043d","name:bg":"\u0410\u0444\u0433\u0430\u043d\u0438\u0441\u0442\u0430\u043d","name:sr":"\u0410\u0432\u0433\u0430\u043d\u0438\u0441\u0442\u0430\u043d","name:sq":"Afganistan","name:ga":"An Afganast\u00e1in","name:gd":"Afganastan","name:gl":"Afganist\u00e1n","name:fo":"Afganistan","name:yo":"Or\u00edl\u1eb9\u0301\u00e8de \u00c0f\u00f9g\u00e0n\u00edst\u00e1n\u00ec","name:gu":"\u0a85\u0aab\u0a98\u0abe\u0aa8\u0abf\u0ab8\u0acd\u0aa4\u0abe\u0aa8"},"coordinates":[422,2208]},{"type":"Point","properties":{"int_name":"Daikundi;D\u0101ykond\u012b;Daykundi","name:ps":"\u062f\u0627\u064a\u06a9\u0646\u062f\u064a \u0648\u0644\u0627\u064a\u062a","min_zoom":4.0,"name:uk":"\u0414\u0430\u0439\u043a\u0443\u043d\u0434\u0456","name:ru":"\u0414\u0430\u0439\u043a\u0443\u043d\u0434\u0438","name:pl":"Dajkondi","name:hu":"D\u00e1jkondi","id":2278857601,"name:ja":"\u30c0\u30fc\u30a4\u30af\u30f3\u30c7\u30a3\u30fc\u5dde","kind":"region","name:en":"Daykundi","name":"\u062f\u0627\u06cc\u06a9\u0646\u062f\u06cc","kind_detail":"state","name:de":"Daikondi","source":"openstreetmap.org","name:fr":"Deykandi","population":438500},"coordinates":[367,2058]}]},"transit":{"type":"GeometryCollection","geometries":[]},"pois":{"type":"GeometryCollection","geometries":[]},"boundaries":{"type":"GeometryCollection","geometries":[{"type":"LineString","properties":{"name:right:ja":"\u30ac\u30ba\u30cb\u30fc\u5dde","name:right:uk":"\u0413\u0430\u0437\u043d\u0456","name:left:ja":"\u30f4\u30a1\u30eb\u30c0\u30af\u5dde","id:right":-1675048,"name:left:uk":"\u0412\u0430\u0440\u0434\u0430\u043a","name:right:ur":"\u0635\u0648\u0628\u06c1 \u063a\u0632\u0646\u06cc","min_zoom":8.0,"name:left:lt":"Vardako provincija","name:right:fa":"\u0648\u0644\u0627\u06cc\u062a \u063a\u0632\u0646\u06cc","id":-1759757,"name:right":"\u063a\u0632\u0646\u064a","name:left:en":"Maidan Wardak","sort_rank":256,"kind_detail":"4","source":"openstreetmap.org","name:right:ar":"\u0648\u0644\u0627\u064a\u0629 \u063a\u0632\u0646\u064a","id:left":-1759757,"name:right:cs":"Ghazn\u00ed","name:left":"\u0645\u064a\u062f\u0627\u0646 \u0648\u0631\u062f\u06af","name:right:ps":"\u063a\u0632\u0646\u064a \u0648\u0644\u0627\u064a\u062a","name:left:ar":"\u0648\u0631\u062f\u0643","name:left:tr":"Vardak","name:right:ru":"\u0413\u0430\u0437\u043d\u0438","name:left:ps":"\u0645\u064a\u062f\u0627\u0646 \u0648\u0631\u062f\u06af \u0648\u0644\u0627\u064a\u062a","name:left:ru":"\u0412\u0430\u0440\u0434\u0430\u043a","name:right:en":"Ghazni","osm_relation":true,"name:left:tg":"\u0412\u0438\u043b\u043e\u044f\u0442\u0438 \u0412\u0430\u0440\u0434\u0430\u043a","name:right:lt":"Gaznio provincija","kind":"region","name":"\u0645\u064a\u062f\u0627\u0646 \u0648\u0631\u062f\u06af - \u063a\u0632\u0646\u064a","name:left:fa":"\u0648\u0644\u0627\u06cc\u062a \u0648\u0631\u062f\u06a9","name:left:de":"Wardak"},"arcs":[0]},{"type":"LineString","properties":{"name:right:ja":"\u30d0\u30fc\u30df\u30e4\u30fc\u30f3\u5dde","name:right:uk":"\u0411\u0430\u043c\u0456\u0430\u043d","name:left:ja":"\u30f4\u30a1\u30eb\u30c0\u30af\u5dde","id:right":-1674849,"name:left:uk":"\u0412\u0430\u0440\u0434\u0430\u043a","name:right:ur":"\u0635\u0648\u0628\u06c1 \u0628\u0627\u0645\u06cc\u0627\u0646","min_zoom":8.0,"name:left:lt":"Vardako provincija","name:right:fa":"\u0648\u0644\u0627\u06cc\u062a \u0628\u0627\u0645\u06cc\u0627\u0646","id":-1759757,"name:right":"\u0628\u0627\u0645\u06cc\u0627\u0646","name:right:tg":"\u0412\u0438\u043b\u043e\u044f\u0442\u0438 \u0411\u043e\u043c\u0438\u0451\u043d","name:left:en":"Maidan Wardak","sort_rank":256,"kind_detail":"4","source":"openstreetmap.org","name:right:ar":"\u0628\u0627\u0645\u064a\u0627\u0646","id:left":-1759757,"name:right:cs":"Bamj\u00e1n","name:right:el":"\u039c\u03c0\u03b1\u03bc\u03b9\u03ac\u03bd","name:left":"\u0645\u064a\u062f\u0627\u0646 \u0648\u0631\u062f\u06af","name:right:ps":"\u0628\u0627\u0645\u064a\u0627\u0646 \u0648\u0644\u0627\u064a\u062a","name:left:ar":"\u0648\u0631\u062f\u0643","name:left:tr":"Vardak","name:right:ru":"\u0411\u0430\u043c\u0438\u0430\u043d","name:left:ps":"\u0645\u064a\u062f\u0627\u0646 \u0648\u0631\u062f\u06af \u0648\u0644\u0627\u064a\u062a","name:left:ru":"\u0412\u0430\u0440\u0434\u0430\u043a","name:right:pl":"Bamian","name:right:en":"Bamyan","osm_relation":true,"name:left:tg":"\u0412\u0438\u043b\u043e\u044f\u0442\u0438 \u0412\u0430\u0440\u0434\u0430\u043a","name:right:lt":"Bamijano provincija","kind":"region","name":"\u0645\u064a\u062f\u0627\u0646 \u0648\u0631\u062f\u06af - \u0628\u0627\u0645\u06cc\u0627\u0646","name:right:hi":"\u092c\u093e\u092e\u092f\u093e\u0928 \u092a\u094d\u0930\u093e\u0928\u094d\u0924","name:right:de":"Bamiyan","name:left:fa":"\u0648\u0644\u0627\u06cc\u062a \u0648\u0631\u062f\u06a9","name:left:de":"Wardak"},"arcs":[1]},{"type":"LineString","properties":{"name:right:ja":"\u30d0\u30fc\u30df\u30e4\u30fc\u30f3\u5dde","name:right:uk":"\u0411\u0430\u043c\u0456\u0430\u043d","name:left:ur":"\u0635\u0648\u0628\u06c1 \u063a\u0632\u0646\u06cc","name:left:ja":"\u30ac\u30ba\u30cb\u30fc\u5dde","id:right":-1674849,"name:left:uk":"\u0413\u0430\u0437\u043d\u0456","name:right:ur":"\u0635\u0648\u0628\u06c1 \u0628\u0627\u0645\u06cc\u0627\u0646","min_zoom":8.0,"name:left:lt":"Gaznio provincija","name:right:fa":"\u0648\u0644\u0627\u06cc\u062a \u0628\u0627\u0645\u06cc\u0627\u0646","id":-1675048,"name:right":"\u0628\u0627\u0645\u06cc\u0627\u0646","name:left:en":"Ghazni","sort_rank":256,"kind_detail":"4","source":"openstreetmap.org","name:right:ar":"\u0628\u0627\u0645\u064a\u0627\u0646","id:left":-1675048,"name:right:cs":"Bamj\u00e1n","name:left:cs":"Ghazn\u00ed","name:left":"\u063a\u0632\u0646\u064a","name:right:ps":"\u0628\u0627\u0645\u064a\u0627\u0646 \u0648\u0644\u0627\u064a\u062a","name:left:ar":"\u0648\u0644\u0627\u064a\u0629 \u063a\u0632\u0646\u064a","name:right:ru":"\u0411\u0430\u043c\u0438\u0430\u043d","name:left:ps":"\u063a\u0632\u0646\u064a \u0648\u0644\u0627\u064a\u062a","name:right:tg":"\u0412\u0438\u043b\u043e\u044f\u0442\u0438 \u0411\u043e\u043c\u0438\u0451\u043d","name:right:pl":"Bamian","name:right:en":"Bamyan","osm_relation":true,"name:right:el":"\u039c\u03c0\u03b1\u03bc\u03b9\u03ac\u03bd","name:right:lt":"Bamijano provincija","kind":"region","name":"\u063a\u0632\u0646\u064a - \u0628\u0627\u0645\u06cc\u0627\u0646","name:right:hi":"\u092c\u093e\u092e\u092f\u093e\u0928 \u092a\u094d\u0930\u093e\u0928\u094d\u0924","name:right:de":"Bamiyan","name:left:fa":"\u0648\u0644\u0627\u06cc\u062a \u063a\u0632\u0646\u06cc","name:left:ru":"\u0413\u0430\u0437\u043d\u0438"},"arcs":[2]},{"type":"LineString","properties":{"name:right:ja":"\u30c0\u30fc\u30a4\u30af\u30f3\u30c7\u30a3\u30fc\u5dde","name:right:uk":"\u0414\u0430\u0439\u043a\u0443\u043d\u0434\u0456","name:left:ur":"\u0635\u0648\u0628\u06c1 \u063a\u0632\u0646\u06cc","name:left:ja":"\u30ac\u30ba\u30cb\u30fc\u5dde","id:right":-1674833,"name:left:uk":"\u0413\u0430\u0437\u043d\u0456","min_zoom":8.0,"name:left:lt":"Gaznio provincija","id":-1675048,"name:right":"\u062f\u0627\u06cc\u06a9\u0646\u062f\u06cc","name:left:en":"Ghazni","sort_rank":256,"kind_detail":"4","source":"openstreetmap.org","name:right:ar":"\u062f\u0627\u064a\u0643\u0646\u062f\u064a","id:left":-1675048,"name:right:cs":"D\u00e1jkund\u00ed","name:left:cs":"Ghazn\u00ed","name:left":"\u063a\u0632\u0646\u064a","name:right:ps":"\u062f\u0627\u064a\u06a9\u0646\u062f\u064a \u0648\u0644\u0627\u064a\u062a","name:left:ar":"\u0648\u0644\u0627\u064a\u0629 \u063a\u0632\u0646\u064a","name:right:ru":"\u0414\u0430\u0439\u043a\u0443\u043d\u0434\u0438","name:left:ps":"\u063a\u0632\u0646\u064a \u0648\u0644\u0627\u064a\u062a","name:left:ru":"\u0413\u0430\u0437\u043d\u0438","name:right:pl":"Dajkondi","name:right:en":"Daykundi","osm_relation":true,"name:right:lt":"Daikond\u017eio provincija","kind":"region","name":"\u063a\u0632\u0646\u064a - \u062f\u0627\u06cc\u06a9\u0646\u062f\u06cc","name:left:fa":"\u0648\u0644\u0627\u06cc\u062a \u063a\u0632\u0646\u06cc","name:right:de":"Daikondi"},"arcs":[3]},{"type":"LineString","properties":{"name:ja":"\u30ac\u30ba\u30cb\u30fc\u5dde","name:lt":"Gaznio provincija","name:ar":"\u0648\u0644\u0627\u064a\u0629 \u063a\u0632\u0646\u064a","name:cs":"Ghazn\u00ed","name:ur":"\u0635\u0648\u0628\u06c1 \u063a\u0632\u0646\u06cc","min_zoom":8.0,"name:uk":"\u0413\u0430\u0437\u043d\u0456","name:ru":"\u0413\u0430\u0437\u043d\u0438","id":-1675048,"osm_relation":true,"name:ps":"\u063a\u0632\u0646\u064a \u0648\u0644\u0627\u064a\u062a","name:fa":"\u0648\u0644\u0627\u06cc\u062a \u063a\u0632\u0646\u06cc","kind":"region","name:en":"Ghazni","name":"\u063a\u0632\u0646\u064a","sort_rank":256,"kind_detail":"4","source":"openstreetmap.org"},"arcs":[4]},{"type":"LineString","properties":{"name:right:ja":"\u30c0\u30fc\u30a4\u30af\u30f3\u30c7\u30a3\u30fc\u5dde","name:left:hi":"\u092c\u093e\u092e\u092f\u093e\u0928 \u092a\u094d\u0930\u093e\u0928\u094d\u0924","name:right:uk":"\u0414\u0430\u0439\u043a\u0443\u043d\u0434\u0456","name:left:ur":"\u0635\u0648\u0628\u06c1 \u0628\u0627\u0645\u06cc\u0627\u0646","name:left:ja":"\u30d0\u30fc\u30df\u30e4\u30fc\u30f3\u5dde","id:right":-1674833,"name:left:uk":"\u0411\u0430\u043c\u0456\u0430\u043d","min_zoom":8.0,"name:left:lt":"Bamijano provincija","id":-1674849,"name:right":"\u062f\u0627\u06cc\u06a9\u0646\u062f\u06cc","name:left:en":"Bamyan","name:left:el":"\u039c\u03c0\u03b1\u03bc\u03b9\u03ac\u03bd","sort_rank":256,"kind_detail":"4","source":"openstreetmap.org","name:right:ar":"\u062f\u0627\u064a\u0643\u0646\u062f\u064a","id:left":-1674849,"name:right:cs":"D\u00e1jkund\u00ed","name:left:cs":"Bamj\u00e1n","name:left":"\u0628\u0627\u0645\u06cc\u0627\u0646","name:right:ps":"\u062f\u0627\u064a\u06a9\u0646\u062f\u064a \u0648\u0644\u0627\u064a\u062a","name:left:ar":"\u0628\u0627\u0645\u064a\u0627\u0646","name:left:pl":"Bamian","name:right:ru":"\u0414\u0430\u0439\u043a\u0443\u043d\u0434\u0438","name:left:ps":"\u0628\u0627\u0645\u064a\u0627\u0646 \u0648\u0644\u0627\u064a\u062a","name:left:ru":"\u0411\u0430\u043c\u0438\u0430\u043d","name:right:pl":"Dajkondi","name:right:en":"Daykundi","osm_relation":true,"name:left:tg":"\u0412\u0438\u043b\u043e\u044f\u0442\u0438 \u0411\u043e\u043c\u0438\u0451\u043d","name:right:lt":"Daikond\u017eio provincija","kind":"region","name":"\u0628\u0627\u0645\u06cc\u0627\u0646 - \u062f\u0627\u06cc\u06a9\u0646\u062f\u06cc","name:left:fa":"\u0648\u0644\u0627\u06cc\u062a \u0628\u0627\u0645\u06cc\u0627\u0646","name:right:de":"Daikondi","name:left:de":"Bamiyan"},"arcs":[5]},{"type":"MultiLineString","properties":{"name:right:ja":"\u30b4\u30fc\u30eb\u5dde","name:left:hi":"\u092c\u093e\u092e\u092f\u093e\u0928 \u092a\u094d\u0930\u093e\u0928\u094d\u0924","name:right:uk":"\u0413\u043e\u0440","name:left:ur":"\u0635\u0648\u0628\u06c1 \u0628\u0627\u0645\u06cc\u0627\u0646","name:left:ja":"\u30d0\u30fc\u30df\u30e4\u30fc\u30f3\u5dde","id:right":-1674816,"name:left:uk":"\u0411\u0430\u043c\u0456\u0430\u043d","min_zoom":8.0,"name:left:lt":"Bamijano provincija","name:left:ps":"\u0628\u0627\u0645\u064a\u0627\u0646 \u0648\u0644\u0627\u064a\u062a","name:right:fa":"\u0648\u0644\u0627\u06cc\u062a \u063a\u0648\u0631","id":-1674849,"name:right":"\u063a\u0648\u0631","name:left:en":"Bamyan","name:left:el":"\u039c\u03c0\u03b1\u03bc\u03b9\u03ac\u03bd","sort_rank":256,"kind_detail":"4","source":"openstreetmap.org","id:left":-1674849,"name:right:az":"Q\u00f6vr","name:left:cs":"Bamj\u00e1n","name:left":"\u0628\u0627\u0645\u06cc\u0627\u0646","name:right:ps":"\u063a\u0648\u0631 \u0648\u0644\u0627\u064a\u062a","name:left:ar":"\u0628\u0627\u0645\u064a\u0627\u0646","name:left:pl":"Bamian","name:right:tr":"Gur","name:right:ru":"\u0413\u043e\u0440","name:left:ru":"\u0411\u0430\u043c\u0438\u0430\u043d","name:right:en":"Ghor","osm_relation":true,"name:left:tg":"\u0412\u0438\u043b\u043e\u044f\u0442\u0438 \u0411\u043e\u043c\u0438\u0451\u043d","name:right:lt":"Goro provincija","kind":"region","name":"\u0628\u0627\u0645\u06cc\u0627\u0646 - \u063a\u0648\u0631","name:left:fa":"\u0648\u0644\u0627\u06cc\u062a \u0628\u0627\u0645\u06cc\u0627\u0646","name:left:de":"Bamiyan"},"arcs":[[6],[7]]},{"type":"MultiLineString","properties":{"name:right:ja":"\u30b4\u30fc\u30eb\u5dde","name:left:ar":"\u062f\u0627\u064a\u0643\u0646\u062f\u064a","name:right:uk":"\u0413\u043e\u0440","name:left:ps":"\u062f\u0627\u064a\u06a9\u0646\u062f\u064a \u0648\u0644\u0627\u064a\u062a","name:right:tr":"Gur","id:right":-1674816,"name:left:uk":"\u0414\u0430\u0439\u043a\u0443\u043d\u0434\u0456","min_zoom":8.0,"name:right:ps":"\u063a\u0648\u0631 \u0648\u0644\u0627\u064a\u062a","name:left:lt":"Daikond\u017eio provincija","name:right:fa":"\u0648\u0644\u0627\u06cc\u062a \u063a\u0648\u0631","name:right:ru":"\u0413\u043e\u0440","name:left:ja":"\u30c0\u30fc\u30a4\u30af\u30f3\u30c7\u30a3\u30fc\u5dde","id":-1674833,"osm_relation":true,"name:right":"\u063a\u0648\u0631","name:right:lt":"Goro provincija","kind":"region","name":"\u062f\u0627\u06cc\u06a9\u0646\u062f\u06cc - \u063a\u0648\u0631","source":"openstreetmap.org","sort_rank":256,"kind_detail":"4","name:left:de":"Daikondi","name:right:en":"Ghor","name:left:en":"Daykundi","id:left":-1674833,"name:left:ru":"\u0414\u0430\u0439\u043a\u0443\u043d\u0434\u0438","name:left:pl":"Dajkondi","name:right:az":"Q\u00f6vr","name:left:cs":"D\u00e1jkund\u00ed","name:left":"\u062f\u0627\u06cc\u06a9\u0646\u062f\u06cc"},"arcs":[[8],[9]]},{"type":"LineString","properties":{"name:ja":"\u30c0\u30fc\u30a4\u30af\u30f3\u30c7\u30a3\u30fc\u5dde","name:lt":"Daikond\u017eio provincija","name:ar":"\u062f\u0627\u064a\u0643\u0646\u062f\u064a","name:cs":"D\u00e1jkund\u00ed","min_zoom":8.0,"name:uk":"\u0414\u0430\u0439\u043a\u0443\u043d\u0434\u0456","name:ru":"\u0414\u0430\u0439\u043a\u0443\u043d\u0434\u0438","name:pl":"Dajkondi","id":-1674833,"osm_relation":true,"name:ps":"\u062f\u0627\u064a\u06a9\u0646\u062f\u064a \u0648\u0644\u0627\u064a\u062a","kind":"region","name:en":"Daykundi","name":"\u062f\u0627\u06cc\u06a9\u0646\u062f\u06cc","sort_rank":256,"kind_detail":"4","name:de":"Daikondi","source":"openstreetmap.org"},"arcs":[10]}]},"roads":{"type":"GeometryCollection","geometries":[]},"earth":{"type":"GeometryCollection","geometries":[{"type":"Polygon","properties":{"sort_rank":10,"source":"naturalearthdata.com","kind":"earth","min_zoom":0.0,"id":4731},"arcs":[[11]]}]},"landuse":{"type":"GeometryCollection","geometries":[]}},"type":"Topology","transform":{"translate":[66.09375,33.1375511923],"scale":[0.0003433228,0.0002855451]},"arcs":[[[3826,3474],[122,92],[108,-59],[40,24]],[[4096,4061],[-92,-102],[-23,7],[-31,-77],[-84,-21],[-1,-32],[-79,-1],[-25,-33],[-86,-2],[-4,-53],[96,-105],[-26,-26],[85,-142]],[[3826,3474],[-106,-3],[-5,-40],[-66,-38],[1,-68],[-55,-111],[-8,-77],[-26,-7],[-23,-63],[-99,-4]],[[3439,3063],[-36,-134],[-32,4],[2,-18],[119,-104],[95,-54],[53,1],[30,-47],[54,-3],[15,-42],[56,-27],[66,-117],[-158,-188],[-119,-33],[-20,-53],[-147,-10],[-112,-137],[6,-33],[-86,-61],[4,-99],[-40,-38],[-46,2],[-28,-33],[-55,1],[-76,-40],[-34,22],[-52,-37],[-41,3],[-73,-61],[-93,31],[-251,-130],[-195,6],[-120,-188]],[[2125,1446],[31,-109],[51,-32],[-16,-27],[26,-30],[-33,-39],[19,-54],[46,-41],[3,-33],[-48,-30],[-11,-54],[55,-29],[123,0],[20,-38],[-24,-38],[-156,-59],[21,-43],[-26,-4],[5,-56],[61,-53],[-24,-66],[33,-16],[-7,-77],[22,-17],[54,24],[50,-36],[121,62],[97,-8],[45,21],[5,-31],[-33,-121],[-38,-29],[32,-75],[44,-28],[-30,-17],[2,-57],[-66,-33],[8,-29],[-35,-32],[-39,-109],[0,-3]],[[1192,4058],[9,-64],[-54,-49],[-13,-66],[106,-39],[-32,-32],[12,-71],[-46,-28],[-13,-78],[-41,-29],[40,-114],[-22,-16],[24,-72],[-27,-141],[121,-89],[20,-43],[109,-26],[33,-91],[150,-20],[29,-55],[42,-14],[83,3],[84,25],[52,65],[167,13],[63,53],[70,-39],[6,-80],[173,24],[102,-48],[25,-147],[74,-78],[152,48],[56,60],[108,11],[185,128],[17,-24],[55,4],[13,-101],[41,12],[28,128],[246,85]],[[1213,4096],[-21,-38]],[[1262,4096],[-33,0]],[[1078,4096],[-28,-65],[-49,24],[-34,-48],[-43,47],[-70,-3],[-14,42],[-152,3]],[[1192,4058],[-75,10],[1,28]],[[0,1921],[0,-1],[88,-55],[-23,-57],[28,-76],[44,-10],[94,58],[16,-89],[26,-4],[2,22],[46,-24],[16,41],[67,-46],[-4,29],[19,1],[5,-32],[49,-22],[76,26],[29,-54],[-25,-27],[-42,2],[6,-66],[38,-56],[-40,-20],[35,-5],[-3,-26],[39,-27],[-14,-12],[89,-77],[17,-74],[-35,-22],[-15,-59],[72,27],[150,177],[71,-6],[100,77],[42,-22],[8,72],[49,61],[132,43],[9,25],[13,-40],[-43,-55],[16,-109],[209,-24],[37,-65],[73,22],[94,-16],[-29,-79],[95,11],[60,-20],[74,96],[36,19],[35,-42],[40,16],[53,86],[101,33]],[[0,4096],[4096,0],[0,-4096],[-4096,0],[0,4096]]]}