{"objects":{"water":{"type":"GeometryCollection","geometries":[{"type":"Polygon","properties":{"source":"naturalearthdata.com","kind":"ocean","area":1576712559132672,"sort_rank":200,"min_zoom":0.0,"id":1},"arcs":[[2],[3],[4],[5]]},{"type":"LineString","properties":{"source":"naturalearthdata.com","kind":"ocean","sort_rank":205,"boundary":true,"min_zoom":0.0,"id":2557},"arcs":[6]},{"type":"LineString","properties":{"source":"naturalearthdata.com","kind":"ocean","sort_rank":205,"boundary":true,"min_zoom":0.0,"id":2558},"arcs":[7]},{"type":"LineString","properties":{"source":"naturalearthdata.com","kind":"ocean","sort_rank":205,"boundary":true,"min_zoom":0.0,"id":2559},"arcs":[8]}]},"buildings":{"type":"GeometryCollection","geometries":[]},"places":{"type":"GeometryCollection","geometries":[{"type":"Point","properties":{"source":"openstreetmap.org","kind":"locality","name":"Pangai","kind_detail":"town","population":1211,"min_zoom":8.0,"id":2988195538},"coordinates":[76,2564]}]},"transit":{"type":"GeometryCollection","geometries":[]},"pois":{"type":"GeometryCollection","geometries":[]},"boundaries":{"type":"GeometryCollection","geometries":[{"type":"LineString","properties":{"name:or":"\u0b1f\u0b4b\u0b19\u0b4d\u0b17\u0b3e","name:ty":"To\u2019a","name:ka":"\u10e2\u10dd\u10dc\u10d2\u10d0","name:mr":"\u091f\u094b\u0902\u0917\u093e","name:ko":"\ud1b5\uac00","name:kn":"\u0c9f\u0ccb\u0c82\u0c97\u0cbe","name:cu":"\u0422\u043e\u043d\u0433\u0430","name:ar":"\u062a\u0648\u0646\u062c\u0627","name:kk":"\u0422\u043e\u043d\u0433\u0430","name:th":"\u0e1b\u0e23\u0e30\u0e40\u0e17\u0e28\u0e15\u0e2d\u0e07\u0e01\u0e32","name:az":"Tonqa","name:am":"\u1276\u1295\u130b","name:pa":"\u0a1f\u0a4b\u0a02\u0a17\u0a3e","name:os":"\u0422\u043e\u043d\u0433\u00e6","name:ml":"\u0d1f\u0d4b\u0d19\u0d4d\u0d15","name:ce":"\u0422\u043e\u043d\u0433\u0430","name:ta":"\u0ba4\u0bca\u0b99\u0bcd\u0b95\u0bbe","name:tg":"\u0422\u043e\u043d\u0433\u0430","name:mk":"\u0422\u043e\u043d\u0433\u0430","name:vo":"Tongu\u00e4ns","name:fa":"\u062a\u0648\u0646\u06af\u0627","name:mn":"\u0422\u043e\u043d\u0433\u0430","source":"openstreetmap.org","sort_rank":262,"kind_detail":"2","id":-2186665,"name:oc":"T\u00f2nga","name:ba":"\u0422\u043e\u043d\u0433\u0430","name:nv":"T\u02bc\u00f3nga","name:zh-yue":"\u6e6f\u52a0","name:zh":"\u6771\u52a0","name:sm":"Toga","name:ja":"\u30c8\u30f3\u30ac","name:hi":"\u091f\u094b\u0902\u0917\u093e","name:my":"\u1010\u102f\u1036\u1002\u102b\u1014\u102d\u102f\u1004\u103a\u1004\u1036","name:he":"\u05d8\u05d5\u05e0\u05d2\u05d4","name:eo":"Tongo","name:sa":"\u091f\u094b\u0902\u0917\u093e","name:ur":"\u0679\u0648\u0646\u06af\u0627","name:bn":"\u099f\u09cb\u0999\u09cd\u0997\u09be","name:bo":"\u0f4a\u0f7c\u0f44\u0f0b\u0f42","name:uk":"\u0422\u043e\u043d\u0433\u0430","name:hy":"\u054f\u0578\u0576\u0563\u0561","name:ru":"\u0422\u043e\u043d\u0433\u0430","name:be":"\u0422\u043e\u043d\u0433\u0430","name:ug":"Ton\u2019ga","name:bg":"\u0422\u043e\u043d\u0433\u0430","name:qu":"Tunqa","name:sr":"\u0422\u043e\u043d\u0433\u0430","osm_relation":true,"name:el":"\u03a4\u03cc\u03bd\u03b3\u03ba\u03b1","kind":"country","name":"Tonga","name:dv":"\u0793\u07ae\u0782\u07b0\u078e\u07a7","min_zoom":8.0,"maritime_boundary":true,"name:gv":"Yn Tongey","name:yo":"T\u00f3ng\u00e0"},"arcs":[0]},{"type":"LineString","properties":{"kind":"region","name":"Ha'apai","sort_rank":256,"kind_detail":"4","min_zoom":8.0,"source":"openstreetmap.org","maritime_boundary":true,"id":-3772678,"osm_relation":true},"arcs":[1]}]},"roads":{"type":"GeometryCollection","geometries":[{"type":"LineString","properties":{"source":"openstreetmap.org","kind":"ferry","name":"Tongatapu - Ha'apai - Vava'u","sort_rank":355,"min_zoom":8.0,"osm_relation":true},"arcs":[9]},{"type":"LineString","properties":{"source":"openstreetmap.org","kind":"ferry","name":"Pangai - Ha'afeva Ferry","sort_rank":355,"min_zoom":8.0,"id":326851410},"arcs":[10]},{"type":"LineString","properties":{"sort_rank":355,"source":"openstreetmap.org","min_zoom":8.0,"name":"Ha'apai - Vava'u","kind":"ferry"},"arcs":[11]},{"type":"LineString","properties":{"source":"openstreetmap.org","kind":"ferry","name":"Tongatapu - Ha'apai","sort_rank":355,"min_zoom":8.0,"id":326851413},"arcs":[12]}]},"earth":{"type":"GeometryCollection","geometries":[{"type":"MultiPolygon","properties":{"sort_rank":10,"source":"naturalearthdata.com","min_zoom":0.0,"kind":"earth","area":57244214},"arcs":[[[13]],[[14]],[[15]]]}]},"landuse":{"type":"GeometryCollection","geometries":[]}},"type":"Topology","transform":{"translate":[-174.375,-20.6327842504],"scale":[0.0003433228,0.0003226662]},"arcs":[[[0,298],[62,71],[96,193],[43,315],[-33,304],[-90,176],[203,194],[95,259],[433,623],[109,323],[19,177],[-59,276],[-205,297],[-190,126],[-110,34],[-177,11],[-196,126]],[[0,298],[62,71],[96,193],[43,315],[-33,304],[-90,176],[203,194],[95,259],[433,623],[109,323],[19,177],[-59,276],[-205,297],[-190,126],[-110,34],[-177,11],[-196,126]],[[0,0],[0,4096],[4096,0],[0,-4096],[-4096,0]],[[82,2525],[22,-12],[56,8],[14,46],[4,61],[23,55],[-11,7],[-32,13],[-14,3],[-12,-48],[-21,-39],[-31,-28],[-39,-14],[9,-22],[14,-17],[18,-13]],[[212,2754],[43,-20],[46,5],[22,39],[9,38],[17,37],[9,40],[-16,45],[-36,-37],[-24,-43],[-29,-41],[-51,-28],[10,-35]],[[323,3044],[43,-10],[16,23],[-12,32],[-38,17],[-20,14],[-14,68],[-15,26],[-44,9],[13,-57],[39,-76],[32,-46]],[[41,2577],[9,-22],[14,-17],[18,-13],[22,-12],[56,8],[14,46],[4,61],[23,55],[-11,7],[-32,13],[-14,3],[-12,-48],[-21,-39],[-31,-28],[-39,-14]],[[202,2789],[10,-35],[43,-20],[46,5],[22,39],[9,38],[17,37],[9,40],[-16,45],[-36,-37],[-24,-43],[-29,-41],[-51,-28]],[[332,3106],[-20,14],[-14,68],[-15,26],[-44,9],[13,-57],[39,-76],[32,-46],[43,-10],[16,23],[-12,32],[-38,17]],[[319,4096],[-307,-1472],[56,-54],[-68,38]],[[0,2611],[68,-41]],[[319,4096],[-307,-1472],[56,-54]],[[68,2570],[-68,38]],[[160,2521],[-56,-8],[-22,12],[-18,13],[-14,17],[-9,22],[39,14],[31,28],[21,39],[12,48],[14,-3],[32,-13],[11,-7],[-23,-55],[-4,-61],[-14,-46]],[[301,2739],[-46,-5],[-43,20],[-10,35],[51,28],[29,41],[24,43],[36,37],[16,-45],[-9,-40],[-17,-37],[-9,-38],[-22,-39]],[[382,3057],[-16,-23],[-43,10],[-32,46],[-39,76],[-13,57],[44,-9],[15,-26],[14,-68],[20,-14],[38,-17],[12,-32]]]}