{"objects":{"water":{"type":"GeometryCollection","geometries":[{"type":"Polygon","properties":{"source":"naturalearthdata.com","kind":"ocean","area":1576712559132672,"sort_rank":200,"min_zoom":0.0,"id":1},"arcs":[[1]]},{"type":"LineString","properties":{"source":"naturalearthdata.com","kind":"ocean","sort_rank":205,"boundary":true,"min_zoom":0.0,"id":60},"arcs":[2]}]},"buildings":{"type":"GeometryCollection","geometries":[]},"places":{"type":"GeometryCollection","geometries":[]},"transit":{"type":"GeometryCollection","geometries":[]},"pois":{"type":"GeometryCollection","geometries":[]},"boundaries":{"type":"GeometryCollection","geometries":[{"type":"LineString","properties":{"name:pt":"Iac\u00fatia","alt_name:en":"Yakutia","alt_name:ca":"Iac\u00fatia","name:cs":"Sacha (Jakutsko)","min_zoom":8.0,"int_name":"Sakha Republic","name:it":"Sacha-Jacuzia","name:vi":"C\u1ed9ng h\u00f2a Sakha","name:pl":"Jakucja","id":-151234,"name:ca":"Sakh\u00e0","alt_name:ru":"\u042f\u043a\u0443\u0442\u0438\u044f","sort_rank":256,"kind_detail":"4","name:de":"Republik Sacha (Jakutien)","source":"openstreetmap.org","name:fr":"R\u00e9publique de Sakha","name:zh":"\u8428\u54c8\u5171\u548c\u56fd","name:nl":"Republiek Sacha","name:ja":"\u30b5\u30cf\u5171\u548c\u56fd","name:lt":"Jakutija","alt_name:de":"Jakutien","name:uk":"\u0420\u0435\u0441\u043f\u0443\u0431\u043b\u0456\u043a\u0430 \u0421\u0430\u0445\u0430","name:sv":"Sacha","alt_name:fr":"Yakoutie","alt_name:nl":"Jakoeti\u00eb","osm_relation":true,"kind":"region","name:en":"Sakha Republic","name":"\u0420\u0435\u0441\u043f\u0443\u0431\u043b\u0438\u043a\u0430 \u0421\u0430\u0445\u0430 (\u042f\u043a\u0443\u0442\u0438\u044f)","maritime_boundary":true,"name:es":"Rep\u00fablica de Saj\u00e1"},"arcs":[0]}]},"roads":{"type":"GeometryCollection","geometries":[]},"earth":{"type":"GeometryCollection","geometries":[{"type":"MultiPolygon","properties":{"sort_rank":10,"source":"naturalearthdata.com","min_zoom":0.0,"kind":"earth","area":4936931129},"arcs":[[[3]]]}]},"landuse":{"type":"GeometryCollection","geometries":[]}},"type":"Topology","transform":{"translate":[139.21875,72.3957057065],"scale":[0.0003433228,0.0001026289]},"arcs":[[[1380,4096],[-537,-661],[-605,-517],[-238,-246]],[[4096,4096],[0,-3039],[-141,-77],[-675,-64],[-793,-102],[-664,231],[-882,-52],[-127,-101],[-333,-571],[-40,-25],[-82,-11],[-38,-24],[-18,-43],[-31,-130],[-20,-27],[-54,-48],[-6,-13],[-192,0],[0,4096],[4096,0]],[[4096,1057],[-141,-77],[-675,-64],[-793,-102],[-664,231],[-882,-52],[-127,-101],[-333,-571],[-40,-25],[-82,-11],[-38,-24],[-18,-43],[-31,-130],[-20,-27],[-54,-48],[-6,-13]],[[192,0],[6,13],[54,48],[20,27],[31,130],[18,43],[38,24],[82,11],[40,25],[333,571],[127,101],[882,52],[347,-121],[317,-110],[793,102],[675,64],[141,77],[0,-1057],[-1926,0],[-1978,0]]]}