{"objects":{"water":{"type":"GeometryCollection","geometries":[{"type":"Polygon","properties":{"source":"naturalearthdata.com","kind":"ocean","area":1576712559132672,"sort_rank":200,"min_zoom":0.0,"id":1},"arcs":[[9]]},{"type":"LineString","properties":{"source":"naturalearthdata.com","kind":"ocean","sort_rank":205,"boundary":true,"min_zoom":0.0,"id":26},"arcs":[10]}]},"buildings":{"type":"GeometryCollection","geometries":[]},"places":{"type":"GeometryCollection","geometries":[{"type":"Point","properties":{"kind":"region","name:en":"Aomori","name":"\u9752\u68ee\u770c","kind_detail":"province","min_zoom":4.0,"source":"openstreetmap.org","name:fr":"Pr\u00e9fecture d'Aomori","name:uk":"\u0410\u043e\u043c\u043e\u0440\u0456","name:ru":"\u0410\u043e\u043c\u043e\u0440\u0438","name:pl":"Aomori","id":734876479,"name:ja":"Aomori-ken"},"coordinates":[3994,3740]},{"type":"Point","properties":{"admin_level":"7","kind":"locality","name:en":"Goshogawara","name":"\u4e94\u6240\u5ddd\u539f\u5e02","kind_detail":"city","min_zoom":8.0,"source":"openstreetmap.org","name:fr":"Goshogawara","name:uk":"\u0490\u043e\u0441\u044c\u043e\u0491\u0430\u0432\u0430\u0440\u0430","name:ru":"\u0413\u043e\u0441\u0451\u0433\u0430\u0432\u0430\u0440\u0430","name:pl":"Goshogawara","population":57370,"id":734876468,"name:ja":"Goshogawara-shi"},"coordinates":[3649,3864]},{"type":"Point","properties":{"admin_level":"7","kind":"locality","name:en":"Tsugaru","name":"\u3064\u304c\u308b\u5e02","kind_detail":"city","min_zoom":8.0,"source":"openstreetmap.org","name:fr":"Tsugaru","name:uk":"\u0426\u0443\u0491\u0430\u0440\u0443","name:ru":"\u0426\u0443\u0433\u0430\u0440\u0443","name:pl":"Tsugaru","population":36133,"id":734876465,"name:ja":"Tsugaru-shi"},"coordinates":[3340,3541]},{"type":"Point","properties":{"kind":"locality","name:en":"Oga","name":"\u7537\u9e7f\u5e02","kind_detail":"city","source":"openstreetmap.org","min_zoom":8.0,"name:uk":"\u041e\u0491\u0430","name:ru":"\u041e\u0433\u0430","name:pl":"Oga","population":27366,"id":752195644,"name:ja":"Oga-shi"},"coordinates":[1800,127]}]},"transit":{"type":"GeometryCollection","geometries":[{"type":"LineString","properties":{"kind":"train","name:en":"Oga Line","name":"\u7537\u9e7f\u7dda (Oga-sen)","sort_rank":275,"name:de":"Oga-Linie","source":"openstreetmap.org","min_zoom":6.0,"osm_relation":true,"name:es":"L\u00ednea Oga","name:ja":"\u7537\u9e7f\u7dda"},"arcs":[6]},{"type":"LineString","properties":{"kind":"train","name:en":"JR Hanawa Line","name":"JR\u82b1\u8f2a\u7dda","sort_rank":275,"alt_name:ja":"\u5341\u548c\u7530\u516b\u5e61\u5e73\u56db\u5b63\u5f69\u30e9\u30a4\u30f3","source":"openstreetmap.org","min_zoom":6.0,"alt_name:en":"JR Towada-Hachimantai Shikisai Line","ref":"JR\u82b1\u8f2a\u7dda (JR Hanawa Line)","id":-5815222,"osm_relation":true,"name:ja":"JR Hanawa-sen"},"arcs":[7]},{"type":"LineString","properties":{"kind":"train","name:en":"JR Hachimantai Rapid","name":"JR\u516b\u5e61\u5e73\u5feb\u901f","sort_rank":275,"name:de":"Eilzug Hachimantai","source":"openstreetmap.org","min_zoom":6.0,"ref":"JR\u516b\u5e61\u5e73\u5feb\u901f (JR Hachimantai Rapid)","id":-1934727,"osm_relation":true,"name:ja":"JR Hachimantai-kaisoku"},"arcs":[8]}]},"pois":{"type":"GeometryCollection","geometries":[]},"boundaries":{"type":"GeometryCollection","geometries":[{"type":"LineString","properties":{"name:ty":"T\u0101p\u014dn\u0113","name:ka":"\u10d8\u10d0\u10de\u10dd\u10dc\u10d8\u10d0","name:ko":"\uc77c\ubcf8","name:cv":"\u042f\u043f\u043e\u043d\u0438","name:cu":"\ua656\u043f\u0461\u043d\u0457\ua657","name:kl":"Japani","name:cs":"Japonsko","name:tw":"Yapan","name:ki":"Japan","name:kw":"Nihon","name:kv":"\u042f\u043f\u043e\u043d\u0438\u044f","name:th":"\u0e1b\u0e23\u0e30\u0e40\u0e17\u0e28\u0e0d\u0e35\u0e48\u0e1b\u0e38\u0e48\u0e19","name:ti":"\u1303\u1353\u1295","name:tl":"Hapon","name:ch":"Chapan","name:ce":"\u042f\u043f\u043e\u043d\u0438","name:ta":"\u0b9c\u0baa\u0bcd\u0baa\u0bbe\u0ba9\u0bcd","name:tg":"\u0416\u043e\u043f\u0443\u043d","name:ca":"Jap\u00f3","name:te":"\u0c1c\u0c2a\u0c3e\u0c28\u0c4d","name:cy":"Japan","name:qu":"Nihun","name:da":"Japan","name:de":"Japan","name:dz":"\u0f47\u0f71\u0f0b\u0f54\u0f71\u0f53\u0f0d","source":"openstreetmap.org","name:kn":"\u0c9c\u0caa\u0cbe\u0ca8\u0ccd","name:dv":"\u0796\u07a6\u0795\u07a7\u0782\u07aa","name:km":"\u1787\u1794\u17c9\u17bb\u1793","name:lv":"Jap\u0101na","name:lt":"Japonija","name:uz":"Yaponiya","name:kk":"\u0416\u0430\u043f\u043e\u043d\u0438\u044f","name:ur":"\u062c\u0627\u067e\u0627\u0646","name:lb":"Japan","name:la":"Iaponia","name:tt":"\u042f\u043f\u043e\u043d\u0438\u044f","name:uk":"\u042f\u043f\u043e\u043d\u0456\u044f","name:ug":"\u064a\u0627\u067e\u0648\u0646\u0649\u064a\u06d5","name:li":"Japan","name:ln":"Zap\u0254\u0301","name:lo":"\u0e9b\u0eb0\u0ec0\u0e97\u0e94\u0e8d\u0eb5\u0ec8\u0e9b\u0eb8\u0ec8\u0e99","name:el":"\u0399\u03b1\u03c0\u03c9\u03bd\u03af\u03b1","name:eo":"Japanujo","name:en":"Japan","name":"\u65e5\u672c","name:tk":"\u00ddaponi\u00fda","name:ee":"Japan","name:ku":"Japon","name:eu":"Japonia","name:et":"Jaapan","name:es":"Jap\u00f3n","name:ay":"Nihun","name:rm":"Giapun","name:az":"Yaponiya","name:ie":"Japan","name:id":"Jepang","name:ar":"\u0627\u0644\u064a\u0627\u0628\u0627\u0646","name:io":"Japonia","name:is":"Japan","name:am":"\u1303\u1353\u1295","name:it":"Giappone","name:an":"Chap\u00f3n","name:ru":"\u042f\u043f\u043e\u043d\u0438\u044f","name:ab":"\u0418\u0430\u043f\u043e\u043d\u0438\u0430","name:af":"Japan","name:zu":"IJapani","kind_detail":"2","name:za":"Nditbonj","name:so":"Jabaan","name:sm":"Iapani","name:sl":"Japonska","name:sk":"Japonsko","name:ja":"Nippon","name:si":"\u0da2\u0db4\u0dcf\u0db1\u0dba","name:sh":"Japan","name:se":"J\u00e1hpan","name:sd":"\u062c\u0627\u067e\u0627\u0646","name:sc":"Giappone","name:br":"Japan","name:bs":"Japan","name:bn":"\u099c\u09be\u09aa\u09be\u09a8","name:bo":"\u0f62\u0f72\u0f0b\u0f54\u0f72\u0f53\u0f0d","name:sa":"\u0938\u0942\u0930\u094d\u092f\u092e\u0942\u0932","name:sw":"Japani","name:be":"\u042f\u043f\u043e\u043d\u0456\u044f","name:su":"Jepang","name:bg":"\u042f\u043f\u043e\u043d\u0438\u044f","name:ss":"IJaphani","name:ba":"\u042f\u043f\u043e\u043d\u0438\u044f","name:sq":"Japonia","name:jv":"Jepang","name:ia":"Japon","name:pt":"Jap\u00e3o","name:ps":"\u062c\u0627\u067e\u0627\u0646","name:om":"Jaappaan","name:oc":"Japon","min_zoom":8.0,"name:ro":"Japonia","name:zh-min-nan":"Ji\u030dt-p\u00fan","name:os":"\u042f\u043f\u043e\u043d","name:or":"\u0b1c\u0b3e\u0b2a\u0b3e\u0b28","name:pl":"Japonia","sort_rank":262,"name:sr":"\u0408\u0430\u043f\u0430\u043d","osm_relation":true,"name:pa":"\u0a1c\u0a2a\u0a3e\u0a28","name:tr":"Japonya","name:hi":"\u091c\u093e\u092a\u093e\u0928","name:sv":"Japan","name:he":"\u05d9\u05e4\u05df","name:ha":"Japan","name:hy":"\u0543\u0561\u057a\u0578\u0576\u056b\u0561","name:ht":"Japon","name:hu":"Jap\u00e1n","name:hr":"Japan","kind":"country","name:yi":"\u05d9\u05d0\u05e4\u05d0\u05df","name:iu":"\u14c3\u1449\u140a\u14d0","name:yo":"Japan","name:mt":"\u0120appun","alt_name:eo":"Japanio","name:ms":"Jepun","name:mr":"\u091c\u092a\u093e\u0928","name:my":"\u1002\u103b\u1015\u1014\u103a\u1014\u102d\u102f\u1004\u103a\u1004\u1036","name:mg":"Japana","name:vi":"Nh\u1eadt B\u1ea3n","name:ml":"\u0d1c\u0d2a\u0d4d\u0d2a\u0d3e\u0d7b","name:mn":"\u042f\u043f\u043e\u043d","name:mi":"Nipono","id":-382313,"name:mk":"\u0408\u0430\u043f\u043e\u043d\u0438\u0458\u0430","name:vo":"Yap\u00e4n","name:fa":"\u0698\u0627\u067e\u0646","name:rw":"Ubuyapani","name:fi":"Japani","name:ky":"\u0416\u0430\u043f\u043e\u043d\u0438\u044f","old_name:vi":"Nh\u1eadt B\u1ed5n","name:fo":"Japan","alt_name:vi":"Nh\u1eadt","name:fr":"Japon","name:fy":"Japan","name:nl":"Japan","name:nn":"Japan","name:no":"Japan","name:na":"Djapan","name:ne":"\u091c\u093e\u092a\u093e\u0928","name:wo":"Sapo\u014b","name:nv":"Bina\u02bcadaa\u0142tz\u00f3z\u00ed Din\u00e9\u02bci\u02bc Bik\u00e9yah","name:ga":"An tSeap\u00e1in","name:gd":"An t-Seapan","name:gn":"Hap\u00f5","name:gl":"Xap\u00f3n","maritime_boundary":true,"name:gv":"Yn \u00c7hapaan","name:gu":"\u0a9c\u0abe\u0aaa\u0abe\u0aa8"},"arcs":[0]},{"type":"LineString","properties":{"name:right:ja":"Aomori-ken","name:right:uk":"\u041f\u0440\u0435\u0444\u0435\u043a\u0442\u0443\u0440\u0430 \u0410\u043e\u043c\u043e\u0440\u0456","name:left:ja":"Akita-ken","id:right":-1834655,"name:left:uk":"\u041f\u0440\u0435\u0444\u0435\u043a\u0442\u0443\u0440\u0430 \u0410\u043a\u0456\u0442\u0430","min_zoom":8.0,"name:left:en":"Akita","name:left:ru":"\u0410\u043a\u0438\u0442\u0430","name:right:ru":"\u0410\u043e\u043c\u043e\u0440\u0438","name:right:pl":"Prefektura Aomori","id":-3791413,"osm_relation":true,"name:right":"\u9752\u68ee\u770c","kind":"region","name":"\u79cb\u7530\u770c - \u9752\u68ee\u770c","source":"openstreetmap.org","sort_rank":256,"kind_detail":"4","name:left:de":"Akita","name:right:en":"Aomori","name:left:pl":"Prefektura Akita","id:left":-3791413,"name:left":"\u79cb\u7530\u770c"},"arcs":[1]},{"type":"LineString","properties":{"name:right:ja":"Aomori-ken","name:right:uk":"\u041f\u0440\u0435\u0444\u0435\u043a\u0442\u0443\u0440\u0430 \u0410\u043e\u043c\u043e\u0440\u0456","name:left:ja":"Akita-ken","id:right":-1834655,"name:left:uk":"\u041f\u0440\u0435\u0444\u0435\u043a\u0442\u0443\u0440\u0430 \u0410\u043a\u0456\u0442\u0430","min_zoom":8.0,"name:left:en":"Akita","name:left:ru":"\u0410\u043a\u0438\u0442\u0430","name:right:ru":"\u0410\u043e\u043c\u043e\u0440\u0438","name:right:pl":"Prefektura Aomori","id":-3791413,"osm_relation":true,"name:right":"\u9752\u68ee\u770c","kind":"region","name":"\u79cb\u7530\u770c - \u9752\u68ee\u770c","source":"openstreetmap.org","sort_rank":256,"kind_detail":"4","name:left:de":"Akita","name:right:en":"Aomori","name:left:pl":"Prefektura Akita","id:left":-3791413,"name:left":"\u79cb\u7530\u770c"},"arcs":[2]},{"type":"LineString","properties":{"name:right:ja":"Aomori-ken","name":"\u79cb\u7530\u770c - \u9752\u68ee\u770c","name:right:uk":"\u041f\u0440\u0435\u0444\u0435\u043a\u0442\u0443\u0440\u0430 \u0410\u043e\u043c\u043e\u0440\u0456","name:left:ja":"Akita-ken","id:right":-1834655,"name:left:uk":"\u041f\u0440\u0435\u0444\u0435\u043a\u0442\u0443\u0440\u0430 \u0410\u043a\u0456\u0442\u0430","min_zoom":8.0,"name:left:pl":"Prefektura Akita","name:left:ru":"\u0410\u043a\u0438\u0442\u0430","name:right:ru":"\u0410\u043e\u043c\u043e\u0440\u0438","name:right:pl":"Prefektura Aomori","id":-3791413,"osm_relation":true,"name:right":"\u9752\u68ee\u770c","kind":"region","name:left:en":"Akita","sort_rank":256,"kind_detail":"4","name:left:de":"Akita","name:right:en":"Aomori","source":"openstreetmap.org","maritime_boundary":true,"id:left":-3791413,"name:left":"\u79cb\u7530\u770c"},"arcs":[3]},{"type":"LineString","properties":{"kind":"region","name:en":"Akita","name":"\u79cb\u7530\u770c","sort_rank":256,"kind_detail":"4","min_zoom":8.0,"name:de":"Akita","source":"openstreetmap.org","maritime_boundary":true,"name:uk":"\u041f\u0440\u0435\u0444\u0435\u043a\u0442\u0443\u0440\u0430 \u0410\u043a\u0456\u0442\u0430","name:ru":"\u0410\u043a\u0438\u0442\u0430","name:pl":"Prefektura Akita","id":-3791413,"osm_relation":true,"name:ja":"Akita-ken"},"arcs":[4]},{"type":"LineString","properties":{"kind":"region","name:en":"Aomori","name":"\u9752\u68ee\u770c","sort_rank":256,"kind_detail":"4","min_zoom":8.0,"source":"openstreetmap.org","maritime_boundary":true,"name:uk":"\u041f\u0440\u0435\u0444\u0435\u043a\u0442\u0443\u0440\u0430 \u0410\u043e\u043c\u043e\u0440\u0456","name:ru":"\u0410\u043e\u043c\u043e\u0440\u0438","name:pl":"Prefektura Aomori","id":-1834655,"osm_relation":true,"name:ja":"Aomori-ken"},"arcs":[5]}]},"roads":{"type":"GeometryCollection","geometries":[{"type":"MultiLineString","properties":{"source":"openstreetmap.org","kind":"major_road","sort_rank":380,"kind_detail":"primary","ref":"55","min_zoom":8.0},"arcs":[[11],[12]]},{"type":"MultiLineString","properties":{"kind":"major_road","network":"JP:national","sort_rank":381,"landuse_kind":"urban_area","source":"openstreetmap.org","min_zoom":8.0,"kind_detail":"trunk","shield_text":"7","ref":"7"},"arcs":[[13],[14],[15],[16],[17],[18],[19],[20],[21],[22]]},{"type":"MultiLineString","properties":{"source":"openstreetmap.org","kind":"major_road","sort_rank":380,"kind_detail":"primary","ref":"26","min_zoom":8.0},"arcs":[[23],[24],[25]]},{"type":"MultiLineString","properties":{"source":"openstreetmap.org","kind":"major_road","sort_rank":380,"kind_detail":"primary","ref":"43","min_zoom":8.0},"arcs":[[26],[27],[28]]},{"type":"MultiLineString","properties":{"kind":"major_road","name:en":"National Route 103","network":"JP:national","sort_rank":381,"kind_detail":"trunk","source":"openstreetmap.org","min_zoom":8.0,"shield_text":"103","ref":"103;104"},"arcs":[[29],[30],[31],[32],[33],[34],[35]]},{"type":"MultiLineString","properties":{"kind":"major_road","name:en":"National Route 285","network":"JP:national","sort_rank":381,"kind_detail":"trunk","source":"openstreetmap.org","min_zoom":8.0,"shield_text":"285","ref":"285"},"arcs":[[36],[37],[38],[39],[40],[41],[42],[43],[44],[45],[46],[47],[48],[49],[50],[51],[52],[53],[54]]},{"type":"MultiLineString","properties":{"source":"openstreetmap.org","kind":"major_road","sort_rank":380,"kind_detail":"primary","ref":"68","min_zoom":8.0},"arcs":[[55],[56],[57],[58],[59],[60],[61],[62],[63]]},{"type":"MultiLineString","properties":{"source":"openstreetmap.org","kind":"major_road","name:en":"National Route 285","sort_rank":381,"kind_detail":"trunk","ref":"285","min_zoom":8.0},"arcs":[[64],[65],[66],[67],[68],[69],[70],[71],[72]]},{"type":"MultiLineString","properties":{"kind":"highway","network":null,"sort_rank":383,"landuse_kind":"urban_area","source":"openstreetmap.org","min_zoom":8.0,"all_networks":[null],"kind_detail":"motorway","shield_text":"4","ref":"E4","all_shield_texts":["4"]},"arcs":[[73],[74],[75],[76],[77],[78],[79],[80],[81],[82],[83],[84]]},{"type":"MultiLineString","properties":{"source":"openstreetmap.org","kind":"major_road","landuse_kind":"urban_area","sort_rank":380,"kind_detail":"primary","ref":"3","min_zoom":8.0},"arcs":[[85],[86],[87],[88],[89],[90],[91]]},{"type":"MultiLineString","properties":{"source":"openstreetmap.org","kind":"major_road","landuse_kind":"urban_area","sort_rank":380,"kind_detail":"primary","ref":"34","min_zoom":8.0},"arcs":[[92],[93],[94]]},{"type":"MultiLineString","properties":{"source":"openstreetmap.org","kind":"major_road","landuse_kind":"urban_area","sort_rank":380,"kind_detail":"primary","ref":"2","min_zoom":8.0},"arcs":[[95],[96]]},{"type":"MultiLineString","properties":{"source":"openstreetmap.org","kind":"major_road","sort_rank":380,"kind_detail":"primary","ref":"28","min_zoom":8.0},"arcs":[[97],[98],[99],[100],[101]]},{"type":"MultiLineString","properties":{"kind":"major_road","name:en":"National Highway Route 7","network":"JP:national","sort_rank":381,"kind_detail":"trunk","source":"openstreetmap.org","min_zoom":8.0,"shield_text":"7","osm_relation":true},"arcs":[[102],[103],[104],[105],[106],[107],[108],[109],[110],[111],[112],[113],[114],[115],[116]]},{"type":"MultiLineString","properties":{"kind":"major_road","name:en":"National Route 7","network":"JP:national","sort_rank":381,"landuse_kind":"urban_area","source":"openstreetmap.org","min_zoom":8.0,"kind_detail":"trunk","shield_text":"7","ref":"7"},"arcs":[[117],[118],[119],[120],[121],[122],[123],[124],[125],[126],[127],[128],[129],[130],[131],[132],[133],[134],[135],[136],[137],[138],[139],[140],[141]]},{"type":"LineString","properties":{"kind":"major_road","network":"JP:national","sort_rank":381,"kind_detail":"trunk","source":"openstreetmap.org","min_zoom":8.0,"id":-2974949,"osm_relation":true},"arcs":[142]},{"type":"MultiLineString","properties":{"kind":"highway","name:en":"Tohoku Expressway","network":null,"sort_rank":383,"landuse_kind":"urban_area","source":"openstreetmap.org","min_zoom":8.0,"all_networks":[null],"kind_detail":"motorway","shield_text":"4","ref":"E4","all_shield_texts":["4"]},"arcs":[[143],[144],[145],[146],[147],[148],[149],[150],[151],[152],[153],[154],[155],[156],[157],[158],[159],[160],[161],[162]]},{"type":"LineString","properties":{"kind":"major_road","sort_rank":380,"landuse_kind":"urban_area","source":"openstreetmap.org","min_zoom":8.0,"kind_detail":"primary","ref":"64","id":110503533},"arcs":[163]},{"type":"MultiLineString","properties":{"source":"openstreetmap.org","kind":"major_road","sort_rank":380,"kind_detail":"primary","ref":"38","min_zoom":8.0},"arcs":[[164],[165]]},{"type":"MultiLineString","properties":{"source":"openstreetmap.org","kind":"highway","name:en":"Tsugaru Expressway","sort_rank":383,"kind_detail":"motorway","ref":"E64","min_zoom":8.0},"arcs":[[166],[167],[168],[169]]},{"type":"MultiLineString","properties":{"kind":"highway","network":null,"sort_rank":383,"kind_detail":"motorway","source":"openstreetmap.org","min_zoom":8.0,"all_networks":[null],"shield_text":"4","ref":"E4","all_shield_texts":["4"]},"arcs":[[170],[171],[172],[173],[174],[175],[176],[177],[178],[179],[180],[181],[182],[183],[184],[185],[186],[187],[188],[189],[190],[191],[192],[193],[194],[195],[196],[197]]},{"type":"LineString","properties":{"source":"openstreetmap.org","kind":"major_road","sort_rank":380,"kind_detail":"primary","ref":"27","min_zoom":8.0},"arcs":[198]},{"type":"LineString","properties":{"source":"openstreetmap.org","kind":"major_road","sort_rank":380,"kind_detail":"primary","ref":"63","min_zoom":8.0},"arcs":[199]},{"type":"MultiLineString","properties":{"source":"openstreetmap.org","kind":"major_road","landuse_kind":"urban_area","sort_rank":380,"kind_detail":"primary","ref":"13","min_zoom":8.0},"arcs":[[200],[201],[202]]},{"type":"LineString","properties":{"kind":"highway","name:en":"Tsugaru Expressway","sort_rank":383,"landuse_kind":"urban_area","source":"openstreetmap.org","min_zoom":8.0,"kind_detail":"motorway","ref":"E64"},"arcs":[203]},{"type":"MultiLineString","properties":{"source":"openstreetmap.org","kind":"major_road","sort_rank":380,"kind_detail":"primary","ref":"24","min_zoom":8.0},"arcs":[[204],[205],[206],[207]]},{"type":"MultiLineString","properties":{"kind":"major_road","network":"JP:national","sort_rank":381,"kind_detail":"trunk","source":"openstreetmap.org","min_zoom":8.0,"shield_text":"102","ref":"102"},"arcs":[[208],[209]]},{"type":"MultiLineString","properties":{"source":"openstreetmap.org","kind":"major_road","sort_rank":380,"kind_detail":"primary","ref":"2","min_zoom":8.0},"arcs":[[210],[211],[212],[213],[214],[215],[216]]},{"type":"LineString","properties":{"source":"openstreetmap.org","kind":"major_road","sort_rank":380,"kind_detail":"primary","ref":"22","min_zoom":8.0},"arcs":[217]},{"type":"LineString","properties":{"kind":"major_road","network":"JP:national","sort_rank":381,"kind_detail":"trunk","source":"openstreetmap.org","min_zoom":8.0,"name:ko":"\uad6d\ub3c4 105\ud638\uc120","shield_text":"105","ref":"105","id":109705759},"arcs":[218]},{"type":"MultiLineString","properties":{"kind":"major_road","network":"JP:national","sort_rank":381,"kind_detail":"trunk","source":"openstreetmap.org","min_zoom":8.0,"shield_text":"7","osm_relation":true},"arcs":[[219],[220],[221],[222]]},{"type":"MultiLineString","properties":{"source":"openstreetmap.org","kind":"major_road","landuse_kind":"urban_area","sort_rank":380,"kind_detail":"primary","min_zoom":8.0},"arcs":[[223],[224],[225],[226],[227]]},{"type":"MultiLineString","properties":{"source":"openstreetmap.org","kind":"highway","name:en":"Akita Expressway","sort_rank":383,"kind_detail":"motorway","ref":"E7","min_zoom":8.0},"arcs":[[228],[229],[230],[231],[232],[233],[234],[235],[236],[237],[238],[239],[240]]},{"type":"MultiLineString","properties":{"source":"openstreetmap.org","kind":"major_road","sort_rank":381,"kind_detail":"trunk","ref":"339","min_zoom":8.0},"arcs":[[241],[242],[243],[244],[245],[246]]},{"type":"LineString","properties":{"kind":"major_road","name:en":"National Route 105","network":"JP:national","name:ko":"\uad6d\ub3c4 105\ud638\uc120","kind_detail":"trunk","source":"openstreetmap.org","min_zoom":8.0,"shield_text":"105","ref":"105","id":109704865,"sort_rank":381},"arcs":[247]},{"type":"MultiLineString","properties":{"source":"openstreetmap.org","kind":"major_road","landuse_kind":"urban_area","sort_rank":380,"kind_detail":"primary","ref":"37","min_zoom":8.0},"arcs":[[248],[249],[250],[251]]},{"type":"MultiLineString","properties":{"kind":"major_road","network":"JP:national","sort_rank":381,"kind_detail":"trunk","source":"openstreetmap.org","min_zoom":8.0,"shield_text":"105","ref":"105"},"arcs":[[252],[253],[254],[255],[256]]},{"type":"LineString","properties":{"source":"openstreetmap.org","kind":"highway","sort_rank":383,"kind_detail":"motorway","ref":"E64","min_zoom":8.0},"arcs":[257]},{"type":"LineString","properties":{"source":"openstreetmap.org","kind":"major_road","landuse_kind":"urban_area","sort_rank":380,"kind_detail":"primary","ref":"26","min_zoom":8.0},"arcs":[258]},{"type":"LineString","properties":{"source":"openstreetmap.org","kind":"major_road","landuse_kind":"urban_area","sort_rank":380,"kind_detail":"primary","ref":"17","min_zoom":8.0},"arcs":[259]},{"type":"LineString","properties":{"kind":"major_road","network":"JP:national","sort_rank":381,"kind_detail":"trunk","source":"openstreetmap.org","min_zoom":8.0,"shield_text":"7","id":109973793},"arcs":[260]},{"type":"MultiLineString","properties":{"kind":"highway","name:en":"Owani Tunnel","network":null,"sort_rank":383,"landuse_kind":"urban_area","source":"openstreetmap.org","min_zoom":8.0,"all_networks":[null],"kind_detail":"motorway","shield_text":"4","ref":"E4","all_shield_texts":["4"]},"arcs":[[261],[262]]},{"type":"MultiLineString","properties":{"kind":"major_road","network":"JP:national","sort_rank":381,"kind_detail":"trunk","source":"openstreetmap.org","min_zoom":8.0,"shield_text":"101","ref":"101"},"arcs":[[263],[264],[265],[266],[267],[268],[269],[270],[271],[272]]},{"type":"MultiLineString","properties":{"source":"openstreetmap.org","kind":"major_road","sort_rank":380,"kind_detail":"primary","ref":"59","min_zoom":8.0},"arcs":[[273],[274],[275],[276],[277],[278],[279]]},{"type":"MultiLineString","properties":{"kind":"major_road","network":"JP:national","sort_rank":381,"kind_detail":"trunk","source":"openstreetmap.org","min_zoom":8.0,"shield_text":"285","ref":"285"},"arcs":[[280],[281],[282],[283],[284],[285],[286],[287],[288],[289],[290],[291],[292],[293],[294],[295],[296]]},{"type":"MultiLineString","properties":{"source":"openstreetmap.org","kind":"major_road","sort_rank":380,"kind_detail":"primary","ref":"35","min_zoom":8.0},"arcs":[[297],[298],[299],[300],[301],[302]]},{"type":"MultiLineString","properties":{"sort_rank":380,"kind_detail":"primary","min_zoom":8.0,"kind":"major_road","source":"openstreetmap.org"},"arcs":[[303],[304],[305],[306],[307],[308],[309]]},{"type":"MultiLineString","properties":{"sort_rank":381,"source":"openstreetmap.org","min_zoom":8.0,"kind":"major_road","kind_detail":"trunk"},"arcs":[[310],[311],[312],[313],[314],[315],[316],[317],[318],[319],[320],[321],[322],[323],[324],[325],[326],[327],[328],[329],[330],[331],[332],[333],[334],[335],[336],[337],[338],[339]]},{"type":"MultiLineString","properties":{"source":"openstreetmap.org","kind":"major_road","sort_rank":381,"kind_detail":"trunk","ref":"285","min_zoom":8.0},"arcs":[[340],[341],[342],[343],[344],[345],[346],[347],[348],[349],[350]]},{"type":"MultiLineString","properties":{"source":"openstreetmap.org","kind":"major_road","sort_rank":380,"kind_detail":"primary","ref":"3","min_zoom":8.0},"arcs":[[351],[352],[353],[354]]},{"type":"MultiLineString","properties":{"source":"openstreetmap.org","kind":"major_road","landuse_kind":"urban_area","sort_rank":380,"kind_detail":"primary","ref":"31","min_zoom":8.0},"arcs":[[355],[356],[357]]},{"type":"MultiLineString","properties":{"source":"openstreetmap.org","kind":"major_road","sort_rank":380,"kind_detail":"primary","ref":"41","min_zoom":8.0},"arcs":[[358],[359]]},{"type":"MultiLineString","properties":{"kind":"major_road","network":"JP:national","sort_rank":381,"landuse_kind":"urban_area","source":"openstreetmap.org","min_zoom":8.0,"kind_detail":"trunk","shield_text":"7"},"arcs":[[360],[361],[362],[363],[364],[365],[366],[367],[368],[369],[370],[371]]},{"type":"MultiLineString","properties":{"kind":"major_road","name:en":"National Route 102","network":"JP:national","sort_rank":381,"landuse_kind":"urban_area","source":"openstreetmap.org","min_zoom":8.0,"kind_detail":"trunk","shield_text":"102","ref":"102"},"arcs":[[372],[373],[374],[375],[376],[377],[378],[379],[380],[381]]},{"type":"LineString","properties":{"kind":"major_road","network":"JP:national","sort_rank":381,"kind_detail":"trunk","source":"openstreetmap.org","min_zoom":8.0,"shield_text":"101","id":87902943},"arcs":[382]},{"type":"LineString","properties":{"source":"openstreetmap.org","kind":"major_road","sort_rank":380,"kind_detail":"primary","ref":"39","min_zoom":8.0},"arcs":[383]},{"type":"MultiLineString","properties":{"kind":"major_road","network":"JP:national","sort_rank":381,"kind_detail":"trunk","source":"openstreetmap.org","min_zoom":8.0,"shield_text":"7","ref":"7"},"arcs":[[384],[385],[386],[387],[388],[389],[390],[391],[392],[393],[394],[395],[396],[397],[398],[399]]},{"type":"MultiLineString","properties":{"source":"openstreetmap.org","kind":"major_road","sort_rank":380,"kind_detail":"primary","ref":"52","min_zoom":8.0},"arcs":[[400],[401],[402],[403]]},{"type":"LineString","properties":{"source":"openstreetmap.org","kind":"major_road","landuse_kind":"urban_area","sort_rank":380,"kind_detail":"primary","ref":"35","min_zoom":8.0},"arcs":[404]},{"type":"LineString","properties":{"kind":"major_road","network":"JP:national","sort_rank":381,"kind_detail":"trunk","source":"openstreetmap.org","min_zoom":8.0,"shield_text":"7","ref":"\uff17","id":86113594},"arcs":[405]},{"type":"LineString","properties":{"kind":"major_road","network":"JP:national","sort_rank":381,"kind_detail":"trunk","source":"openstreetmap.org","min_zoom":8.0,"shield_text":"101","id":-2974950,"osm_relation":true},"arcs":[406]},{"type":"MultiLineString","properties":{"kind":"major_road","network":"JP:national","sort_rank":381,"kind_detail":"trunk","source":"openstreetmap.org","min_zoom":8.0,"shield_text":"105","ref":"105;285"},"arcs":[[407],[408],[409]]},{"type":"MultiLineString","properties":{"kind":"major_road","network":"JP:national","sort_rank":381,"landuse_kind":"urban_area","source":"openstreetmap.org","min_zoom":8.0,"kind_detail":"trunk","shield_text":"101","ref":"101"},"arcs":[[410],[411],[412]]},{"type":"MultiLineString","properties":{"kind":"major_road","name:en":"National Route 105","network":"JP:national","sort_rank":381,"kind_detail":"trunk","source":"openstreetmap.org","min_zoom":8.0,"shield_text":"105","ref":"105;285"},"arcs":[[413],[414],[415],[416],[417]]},{"type":"MultiLineString","properties":{"kind":"major_road","network":"JP:national","sort_rank":381,"kind_detail":"trunk","source":"openstreetmap.org","min_zoom":8.0,"shield_text":"103","ref":"103;104"},"arcs":[[418],[419],[420]]},{"type":"MultiLineString","properties":{"kind":"major_road","name:en":"National Route 102","network":"JP:national","sort_rank":381,"kind_detail":"trunk","source":"openstreetmap.org","min_zoom":8.0,"shield_text":"102","ref":"102"},"arcs":[[421],[422],[423],[424],[425]]},{"type":"MultiLineString","properties":{"kind":"major_road","name:en":"National Highway Route 7","network":"JP:national","sort_rank":381,"landuse_kind":"urban_area","source":"openstreetmap.org","min_zoom":8.0,"kind_detail":"trunk","shield_text":"7","osm_relation":true},"arcs":[[426],[427],[428],[429],[430],[431],[432],[433],[434],[435],[436],[437]]},{"type":"MultiLineString","properties":{"source":"openstreetmap.org","kind":"major_road","landuse_kind":"urban_area","sort_rank":380,"kind_detail":"primary","ref":"41","min_zoom":8.0},"arcs":[[438],[439],[440],[441],[442]]},{"type":"MultiLineString","properties":{"source":"openstreetmap.org","kind":"major_road","landuse_kind":"urban_area","sort_rank":380,"kind_detail":"primary","ref":"28","min_zoom":8.0},"arcs":[[443],[444]]},{"type":"MultiLineString","properties":{"kind":"major_road","network":"JP:national","sort_rank":381,"landuse_kind":"urban_area","source":"openstreetmap.org","min_zoom":8.0,"kind_detail":"trunk","shield_text":"103","ref":"103;104"},"arcs":[[445],[446]]},{"type":"MultiLineString","properties":{"source":"openstreetmap.org","kind":"major_road","sort_rank":380,"kind_detail":"primary","ref":"54","min_zoom":8.0},"arcs":[[447],[448]]},{"type":"MultiLineString","properties":{"source":"openstreetmap.org","kind":"major_road","sort_rank":380,"kind_detail":"primary","ref":"37","min_zoom":8.0},"arcs":[[449],[450],[451],[452],[453],[454],[455],[456],[457],[458]]},{"type":"MultiLineString","properties":{"source":"openstreetmap.org","kind":"major_road","sort_rank":380,"kind_detail":"primary","ref":"64","min_zoom":8.0},"arcs":[[459],[460]]},{"type":"MultiLineString","properties":{"kind":"major_road","network":"JP:national","sort_rank":381,"landuse_kind":"urban_area","source":"openstreetmap.org","min_zoom":8.0,"kind_detail":"trunk","shield_text":"102","ref":"102"},"arcs":[[461],[462],[463],[464],[465],[466],[467],[468]]},{"type":"MultiLineString","properties":{"kind":"highway","name:en":"Akita Expressway","sort_rank":383,"kind_detail":"motorway","source":"openstreetmap.org","min_zoom":8.0,"landuse_kind":"urban_area","ref":"E7"},"arcs":[[469],[470]]},{"type":"LineString","properties":{"source":"openstreetmap.org","kind":"major_road","sort_rank":380,"kind_detail":"primary","ref":"30","min_zoom":8.0},"arcs":[471]},{"type":"MultiLineString","properties":{"kind":"highway","name:en":"Tohoku Expressway","network":null,"sort_rank":383,"kind_detail":"motorway","source":"openstreetmap.org","min_zoom":8.0,"all_networks":[null],"shield_text":"4","ref":"E4","all_shield_texts":["4"]},"arcs":[[472],[473],[474],[475],[476],[477],[478],[479],[480],[481],[482],[483],[484],[485],[486],[487],[488],[489],[490],[491],[492],[493],[494],[495],[496],[497],[498],[499],[500],[501],[502],[503],[504],[505],[506],[507],[508],[509],[510],[511]]},{"type":"LineString","properties":{"source":"openstreetmap.org","kind":"major_road","sort_rank":380,"kind_detail":"primary","ref":"35;37","min_zoom":8.0,"id":546307482},"arcs":[512]},{"type":"MultiLineString","properties":{"kind":"major_road","name:en":"National Route 103","network":"JP:national","sort_rank":381,"landuse_kind":"urban_area","source":"openstreetmap.org","min_zoom":8.0,"kind_detail":"trunk","shield_text":"103","ref":"103;104"},"arcs":[[513],[514],[515],[516],[517],[518],[519],[520]]},{"type":"MultiLineString","properties":{"kind":"major_road","name:en":"National Route 7","network":"JP:national","sort_rank":381,"kind_detail":"trunk","source":"openstreetmap.org","min_zoom":8.0,"shield_text":"7","ref":"7"},"arcs":[[521],[522],[523],[524],[525],[526],[527],[528],[529],[530],[531],[532],[533],[534],[535]]},{"type":"MultiLineString","properties":{"source":"openstreetmap.org","kind":"major_road","sort_rank":380,"kind_detail":"primary","ref":"13","min_zoom":8.0},"arcs":[[536],[537],[538],[539],[540],[541]]},{"type":"LineString","properties":{"source":"openstreetmap.org","kind":"major_road","sort_rank":380,"kind_detail":"primary","ref":"36","min_zoom":8.0},"arcs":[542]},{"type":"LineString","properties":{"source":"openstreetmap.org","kind":"major_road","sort_rank":380,"kind_detail":"primary","ref":"42","min_zoom":8.0},"arcs":[543]},{"type":"MultiLineString","properties":{"source":"openstreetmap.org","kind":"major_road","name:en":"National Route 454","sort_rank":381,"kind_detail":"trunk","ref":"454","min_zoom":8.0},"arcs":[[544],[545],[546]]},{"type":"MultiLineString","properties":{"source":"openstreetmap.org","kind":"major_road","sort_rank":380,"kind_detail":"primary","ref":"12","min_zoom":8.0},"arcs":[[547],[548],[549],[550]]},{"type":"MultiLineString","properties":{"source":"openstreetmap.org","kind":"major_road","sort_rank":380,"kind_detail":"primary","ref":"34","min_zoom":8.0},"arcs":[[551],[552]]},{"type":"MultiLineString","properties":{"kind":"major_road","name:en":"National Route 105","network":"JP:national","sort_rank":381,"kind_detail":"trunk","source":"openstreetmap.org","min_zoom":8.0,"shield_text":"105","ref":"105"},"arcs":[[553],[554],[555],[556],[557]]},{"type":"MultiLineString","properties":{"source":"openstreetmap.org","kind":"major_road","sort_rank":381,"kind_detail":"trunk","ref":"454","min_zoom":8.0},"arcs":[[558],[559]]},{"type":"MultiLineString","properties":{"source":"openstreetmap.org","kind":"major_road","kind_detail":"trunk","sort_rank":381,"landuse_kind":"urban_area","ref":"339","min_zoom":8.0},"arcs":[[560],[561],[562],[563]]},{"type":"MultiLineString","properties":{"source":"openstreetmap.org","kind":"major_road","sort_rank":380,"kind_detail":"primary","ref":"15","min_zoom":8.0},"arcs":[[564],[565],[566]]},{"type":"MultiLineString","properties":{"source":"openstreetmap.org","kind":"major_road","sort_rank":380,"kind_detail":"primary","ref":"31","min_zoom":8.0},"arcs":[[567],[568]]},{"type":"MultiLineString","properties":{"source":"openstreetmap.org","kind":"major_road","sort_rank":380,"kind_detail":"primary","ref":"4","min_zoom":8.0},"arcs":[[569],[570],[571],[572],[573]]}]},"earth":{"type":"GeometryCollection","geometries":[{"type":"Polygon","properties":{"sort_rank":10,"source":"naturalearthdata.com","kind":"earth","min_zoom":0.0,"id":3323},"arcs":[[574]]}]},"landuse":{"type":"GeometryCollection","geometries":[{"type":"MultiPolygon","properties":{"source":"naturalearthdata.com","kind":"urban_area","name":"","area":1204154468,"sort_rank":11,"min_zoom":4.0},"arcs":[[[575]],[[576]],[[577]],[[578]],[[579]],[[580]],[[581]]]}]}},"type":"Topology","transform":{"translate":[139.21875,39.9097362345],"scale":[0.0003433228,0.00026127]},"arcs":[[[1387,4096],[-267,-188],[-884,-1014],[-108,-158],[-65,-180],[-18,-162],[23,-189],[544,-1851],[-57,-354]],[[3967,1990],[-80,-35],[47,-76],[-31,-14],[-102,51],[16,78],[-61,-8],[-79,51],[0,37],[-49,19],[-71,-25],[-13,115],[-97,-20],[-42,47],[-29,-41],[-48,8],[-39,-42],[-37,-108],[-71,-12],[-58,40],[-119,-14],[-87,-45],[-32,28],[-44,-14],[-25,32],[-98,-32],[-44,18],[-73,-16],[-53,90],[-74,38],[-93,-28],[-39,-39],[-10,-121],[-71,59],[-65,-33],[-38,32],[-126,-50]],[[4096,1969],[-40,-1],[-63,47],[-26,-25]],[[2032,1960],[-62,-25],[-307,-460],[-403,-109],[-123,40],[-767,-224]],[[370,1182],[242,-828],[-57,-354]],[[1387,4096],[-267,-188],[-905,-1038],[-125,-222],[-43,-200],[10,-190],[313,-1076]],[[1876,0],[7,16],[44,-12],[34,24],[110,-28]],[[3895,1449],[-32,-3],[-5,-29],[66,-110],[10,-73],[162,-85]],[[3895,1449],[-32,-3],[-5,-29],[66,-110],[10,-73],[162,-85]],[[3194,4096],[-1,-5],[4,-93],[-21,-69],[-36,-239],[-76,-235],[-37,-64],[-51,-47],[-62,-19],[-62,31],[-126,-96],[-42,-46],[-52,-18],[-43,-3],[-36,20],[-76,63],[-68,8],[-139,-98],[-33,-93],[-48,-93],[-31,-61],[-61,-30],[-37,-88],[-75,-16],[-58,-66],[-58,-63],[-11,-72],[58,-25],[112,10],[39,-58],[8,-63],[34,-38],[2,-89],[6,-166],[-9,-167],[10,-59],[51,-58],[102,-102],[39,-36],[36,-49],[-12,-83],[-26,-374],[-24,-50],[-42,-120],[15,-82],[-45,-169],[-216,-413],[-108,-128],[-131,-88],[-63,5],[-166,76],[-124,89],[-9,-65],[10,-107],[53,-33],[-44,-26],[13,-80],[42,-56],[-1469,0],[0,4096],[3194,0]],[[1469,0],[-42,56],[-13,80],[44,26],[-53,33],[-10,107],[9,65],[124,-89],[166,-76],[63,-5],[131,88],[108,128],[216,413],[45,169],[-15,82],[42,120],[24,50],[26,374],[12,83],[-36,49],[-39,36],[-102,102],[-51,58],[-10,59],[9,167],[-6,166],[-2,89],[-34,38],[-8,63],[-39,58],[-112,-10],[-58,25],[11,72],[58,63],[58,66],[75,16],[37,88],[61,30],[31,61],[48,93],[33,93],[139,98],[68,-8],[76,-63],[36,-20],[43,3],[52,18],[42,46],[126,96],[62,-31],[62,19],[51,47],[37,64],[76,235],[36,239],[21,69],[-4,93],[1,5]],[[1410,361],[108,-125],[97,-19],[34,-44],[75,-3]],[[1798,100],[77,-11],[15,32],[24,-53],[32,31],[42,-42]],[[2317,901],[-4,161],[47,15],[92,-23]],[[3785,2558],[-1,1]],[[3877,1388],[6,-1]],[[3895,2370],[-1,1]],[[3919,1407],[-7,63]],[[3917,2350],[-4,2]],[[3951,3050],[16,27]],[[3972,2342],[-1,3]],[[3983,2337],[-1,0]],[[4032,2315],[-1,1]],[[3608,3494],[42,9]],[[3667,3509],[29,10]],[[3694,3540],[220,106],[51,-36],[32,7],[99,-81]],[[3531,3442],[-63,74],[-29,84],[4,92],[59,99],[-34,124],[-133,70]],[[3486,3824],[-25,19]],[[3486,3827],[2,-4]],[[3780,1386],[-28,14]],[[3823,1371],[-43,15]],[[3780,1386],[19,-4],[15,-6],[9,-4]],[[3979,1256],[-5,10]],[[3987,1238],[-7,11]],[[4040,1197],[-52,40]],[[4096,1172],[-55,25]],[[2544,0],[8,15]],[[2552,17],[50,102]],[[2602,122],[54,30]],[[2658,150],[68,-1]],[[2728,149],[119,-13]],[[3073,445],[1,13]],[[3075,461],[70,111],[-11,25]],[[3086,362],[-11,75]],[[3134,598],[45,24]],[[3182,624],[160,180],[37,0]],[[3500,1067],[23,-7]],[[3525,1060],[29,-10]],[[3555,1050],[55,-32],[62,3]],[[3672,1022],[41,12]],[[3715,1034],[78,46]],[[3798,1082],[45,30]],[[3844,1113],[69,21]],[[3914,1135],[51,18]],[[3969,1155],[33,73]],[[3599,1524],[1,-2]],[[3601,1507],[0,1]],[[3698,1663],[-3,-1]],[[3754,1665],[2,0]],[[3890,1602]],[[3896,1611]],[[3914,1621]],[[3943,1632]],[[3967,1665],[2,-1]],[[2888,152],[32,19]],[[2921,171],[7,7]],[[2928,179],[28,25]],[[3014,327],[8,3]],[[3034,335],[1,1]],[[3036,336],[5,1]],[[3041,337],[6,0]],[[3048,337],[4,2]],[[3443,1066],[13,-1]],[[3901,2442],[0,1]],[[3902,2443],[-1,-1]],[[4004,2346],[-1,0]],[[4004,2347]],[[4039,2327],[-1,1]],[[4038,2328],[1,0]],[[4044,2321],[-2,3]],[[4042,2324],[3,-3]],[[4085,2750],[2,5]],[[4087,2754],[-1,-4]],[[4091,2824],[1,2]],[[4092,2825],[-1,-1]],[[3483,2703],[-127,25]],[[3435,2705],[2,-1]],[[3584,2679],[-54,13]],[[3588,2677],[55,-24]],[[3649,2653],[-6,2]],[[3681,2659],[-27,-13]],[[3691,2660],[38,21]],[[3973,3059],[-36,9]],[[3973,3059],[-2,6]],[[3973,3059],[4,3]],[[3897,1446],[6,-59]],[[3906,1431],[76,14],[17,5]],[[2066,2568],[194,6],[98,-35],[25,-50],[38,26],[61,-18],[35,57],[-4,-51],[63,-11],[81,76],[38,-3],[42,-80],[70,5],[-10,-170],[269,74],[37,106]],[[3103,2500],[20,8]],[[3136,2529],[-13,-21]],[[3147,2549],[44,44],[159,30]],[[3484,2611],[74,9]],[[2500,0],[22,108],[-36,176],[18,232],[-41,99],[-169,136],[29,158]],[[2453,1054],[137,29],[95,74],[117,31],[72,-46],[149,41],[22,-28],[56,18],[67,-14],[154,130],[148,67],[64,0],[61,58],[236,-22]],[[3743,2851],[16,21]],[[3759,2872],[-16,-21]],[[3759,2872],[10,35],[134,83]],[[3872,2460],[-74,79]],[[3798,2540],[74,-80]],[[3903,2990],[40,50]],[[3908,1468],[117,212],[20,216],[15,45],[36,13]],[[3943,3040],[8,10]],[[3967,3076],[20,192],[32,35]],[[4023,3313],[73,26]],[[4096,2166],[-57,140]],[[4096,3382],[-7,28]],[[4090,3413],[6,6]],[[3696,2728],[-1,4],[21,78]],[[3716,2810],[-19,-82]],[[3707,2717],[-5,3]],[[3702,2720],[5,-3]],[[3739,2634],[-19,67]],[[3720,2701],[9,-20],[10,-47]],[[3721,2813],[19,18]],[[3740,2831],[-19,-18]],[[3751,2601],[-7,21]],[[3745,2622],[6,-21]],[[3747,2839],[4,13]],[[3751,2852],[-4,-14]],[[3784,2559],[-33,37]],[[3752,2596],[32,-37],[14,-20]],[[3798,2538],[-13,20]],[[3832,1394],[45,-6]],[[3872,2469],[12,-11],[1,-12]],[[3885,2446],[-13,21]],[[3883,1387],[34,-4],[2,24]],[[3894,2371],[-9,75]],[[3913,2352],[-18,18]],[[3971,2345],[-54,5]],[[3982,2337],[-10,5]],[[4031,2316],[-48,21]],[[4039,2306],[-7,9]],[[2966,3351],[-46,-32],[-75,25],[-77,-54]],[[3914,2361],[-13,81]],[[3901,2442],[13,-80]],[[3901,2443],[1,1]],[[3902,2444],[41,42]],[[3942,2486],[-38,-38],[-2,-4]],[[3902,2444],[0,-1]],[[3935,2357],[69,-10]],[[4003,2346],[-66,10]],[[4038,2328],[-34,18]],[[4004,2347],[34,-19]],[[4042,2324],[-3,3]],[[4039,2328],[3,-4]],[[4056,2306],[-12,15]],[[4045,2321],[12,-15]],[[4083,2745],[2,5]],[[4086,2750],[-2,-5]],[[4087,2755],[4,69]],[[4091,2824],[-4,-70]],[[4092,2826],[4,5]],[[4096,2831],[-4,-6]],[[2501,1114],[0,-6]],[[3657,3325],[42,-247],[56,-57],[49,-113]],[[3813,2914],[84,-25],[31,-46],[95,-46]],[[3629,3488],[-64,25],[-61,-79]],[[3718,3348],[-18,34]],[[3718,3348],[46,-63]],[[3964,3203],[-88,15],[-112,67]],[[3985,2534],[1,1]],[[3986,2535],[0,-1]],[[4009,2578],[0,1]],[[4009,2579],[0,-1]],[[4018,2592],[1,1]],[[4019,2593],[-1,-1]],[[4032,3179],[0,1]],[[4032,3180],[1,-1]],[[4040,2633],[0,1]],[[4040,2634],[0,-1]],[[4070,2726],[1,1]],[[4071,2727],[-1,-1]],[[4075,3105],[-1,2]],[[4075,3107],[0,-1]],[[4080,2738],[0,1]],[[4080,3090],[0,1]],[[4081,2739],[-1,-1]],[[4080,3091],[1,-1]],[[4089,2260],[-2,5]],[[4088,2265],[1,-4]],[[4091,2251],[-1,4]],[[4091,2255],[1,-4]],[[4092,2949],[0,1]],[[4094,3001],[-2,6]],[[4092,2950],[0,-1]],[[4093,3006],[1,-5]],[[4094,2243],[0,2]],[[4094,2246],[0,-2]],[[3969,3105],[127,30]],[[2369,1581],[31,-25],[-7,-129],[132,-30],[72,-119],[89,-55]],[[3893,2404],[40,81]],[[3912,2455],[16,29]],[[4005,3033],[21,-76]],[[3700,3382],[-45,97],[-26,9]],[[3184,651],[-8,-32]],[[3184,655],[0,-4]],[[3233,958],[-49,-19],[-15,-62],[37,-107],[-33,-50],[11,-65]],[[3216,970],[14,35],[99,41],[-6,166],[19,2],[6,87]],[[3941,2773],[5,1]],[[3946,2774],[-5,-1]],[[3305,3907],[47,-30],[10,-37],[120,6]],[[3546,3851],[-52,-4]],[[3666,3791],[-165,56]],[[3611,3786],[-13,-1]],[[3611,3786],[55,5]],[[4096,3824],[-64,-40],[-250,30],[-116,-23]],[[3999,1450],[97,-8]],[[3978,1175],[60,-110],[58,-32]],[[3430,543],[2,3]],[[3806,1379],[0,1]],[[3806,1380],[18,8]],[[3811,1383],[-5,-3]],[[3806,1380],[0,-1]],[[3588,2677],[-4,2]],[[3621,2700],[-1,5]],[[3636,2804],[15,-1]],[[3654,2646],[-5,7]],[[3675,2661],[6,-2]],[[2319,864],[20,63]],[[2327,742],[-22,37],[6,47],[8,38]],[[2319,864],[-14,-85],[22,-37]],[[2539,514],[-28,107],[-184,121]],[[2375,967],[80,66]],[[2455,1033],[92,21]],[[2528,437],[4,26]],[[2528,437],[12,-80]],[[2539,514],[-7,-51]],[[2576,0],[11,76],[-28,48],[-19,233]],[[2547,1054],[107,54],[201,48]],[[3441,1126],[90,71],[166,29],[83,80],[58,105]],[[4096,1646],[-243,-203]],[[3707,2849],[-52,48],[-75,159],[-56,47],[3,131]],[[3588,3478],[23,103],[-27,220],[14,92],[-49,73],[-22,130]],[[3544,3285],[19,85]],[[3588,3478],[-3,-19]],[[3586,3370],[-25,-160],[20,-122],[169,-236]],[[3588,3478],[7,109]],[[3435,552],[-3,-6]],[[3445,3376],[-7,40]],[[3447,3370],[-2,6]],[[3445,3376],[12,-7]],[[3597,2753],[15,90]],[[3386,1310],[28,-154]],[[3435,552],[35,24],[3,142],[-54,36],[-8,39]],[[3430,543],[-7,-39]],[[3571,0],[-98,85],[19,97],[-36,55],[3,133],[-30,12],[-5,105]],[[3429,1122],[2,-30]],[[2969,3338],[106,27]],[[3650,3503],[17,6]],[[3685,2640],[-16,4]],[[4094,3418],[2,1]],[[3937,2356],[-23,5]],[[3914,2362],[21,-5]],[[1859,247],[-135,-77],[36,-63],[40,-9],[3,-47],[39,-19],[16,-32]],[[1929,0],[31,26],[17,-26]],[[1946,322],[59,71]],[[2059,465]],[[2292,759],[-11,-46],[-64,-7]],[[2369,1265],[0,-1]],[[2370,1315],[-10,66],[24,80],[-55,311],[-104,66],[-3,38],[-120,112],[30,264],[-17,189],[-66,141],[-140,27],[-5,105],[95,92],[70,-3],[30,78],[98,74],[79,228],[78,33],[43,51],[54,18],[115,-102],[44,-5],[70,28],[95,87],[97,16],[30,-19],[82,77],[94,10],[239,-39],[54,37]],[[3543,3444],[-67,-20]],[[3557,3440],[-3,6]],[[4022,3306],[-33,-53],[-141,16],[-101,60],[-85,-6],[-77,49]],[[1455,190],[14,16]],[[1455,190],[9,-40],[-49,-20],[32,-92],[45,-38]],[[1472,200],[-17,-10]],[[1469,206],[18,11]],[[1469,206],[3,-6]],[[1487,217],[-15,-17]],[[1487,217],[31,19]],[[2552,15],[0,2]],[[2602,119],[0,3]],[[2656,152],[2,-2]],[[2726,149],[2,0]],[[3075,437],[-2,8]],[[3074,458],[1,3]],[[3134,597],[0,1]],[[3179,622],[3,2]],[[3456,1065],[44,2]],[[3523,1060],[2,0]],[[3554,1050],[1,0]],[[3672,1021],[0,1]],[[3713,1034],[2,0]],[[3793,1080],[5,2]],[[3843,1112],[1,1]],[[3913,1134],[1,1]],[[3965,1153],[4,2]],[[3493,2702],[3,12]],[[3593,2985],[-18,-57],[-67,-44]],[[3581,3088],[85,3]],[[3604,3006],[-19,-8]],[[3599,3020],[67,71]],[[3666,3091],[96,79],[110,39],[27,60]],[[2000,33],[5,89]],[[2005,122],[23,52]],[[2229,3054],[72,91]],[[3126,1078],[-21,7]],[[3147,2549],[-11,-20]],[[3494,3847],[-12,-1]],[[3611,3786]],[[1760,107],[-3,5]],[[1859,247],[87,75]],[[2082,514],[-77,-121]],[[2083,515],[82,189],[37,5]],[[2202,709],[15,-3]],[[2370,1315],[-1,-50]],[[3585,3498],[4,-20]],[[4024,3314],[-1,-3]],[[4023,3311],[-1,-3]],[[4022,3308],[-1,-2]],[[4021,3306],[-1,-2]],[[4020,3304],[-2,-3]],[[4019,3303],[1,1]],[[4020,3304],[3,9]],[[4023,3313]],[[4020,3304]],[[4020,3304]],[[4020,3304],[1,2]],[[4021,3306],[1,0]],[[4021,3306]],[[4021,3306]],[[4021,3306],[1,0]],[[4022,3306],[1,5]],[[4023,3311],[0,2]],[[4023,3313]],[[4022,3308]],[[4022,3308],[0,-2]],[[4022,3306],[0,-1]],[[4071,3324],[-5,-3]],[[4090,3413],[-1,-3]],[[2845,135],[14,-6],[35,23]],[[2888,152],[-41,-16]],[[2920,171],[1,0]],[[2928,178],[0,1]],[[2956,204],[58,123]],[[3022,330],[12,5]],[[3035,336],[1,0]],[[3041,337]],[[3047,337],[1,0]],[[3052,339],[34,23]],[[3443,1066],[-2,0]],[[2910,3323],[36,-74],[-5,-151],[20,-42],[-53,-129],[11,-37],[24,17],[38,-19],[-18,-88],[176,-94],[217,22]],[[3036,1170],[-1,-48],[33,-36],[37,-1]],[[3347,805],[-101,145],[-91,54],[-29,74]],[[3530,2692],[-47,11]],[[3502,2907],[-27,74]],[[3620,2705],[-69,146]],[[3644,2661],[9,-3],[16,-14],[-48,56]],[[3813,2713],[13,41]],[[3821,2692],[51,-237]],[[3702,2720],[-6,8]],[[3697,2728],[5,-8]],[[3720,2701],[-13,16]],[[3707,2717],[13,-16]],[[3716,2810],[5,3]],[[3721,2813],[-5,-3]],[[3744,2622],[-5,12]],[[3739,2634],[6,-12]],[[3740,2831],[7,8]],[[3747,2838],[-7,-7]],[[3751,2596],[0,5]],[[3751,2601],[1,-5]],[[3741,2629],[16,2]],[[3757,2630],[-16,-2]],[[3758,2631],[37,55]],[[3796,2686],[-38,-55]],[[3796,2688],[1,2]],[[3797,2690],[-1,-2]],[[3800,2697],[14,14]],[[3814,2710],[-14,-13]],[[4087,2741],[2,2]],[[4091,2744],[2,1]],[[3554,3446],[-11,-2]],[[3095,3066],[-17,32],[135,253]],[[2509,0],[13,113],[-26,149],[7,258],[-57,112],[-154,127],[25,142]],[[2452,1054],[162,37],[71,66],[126,31],[58,-46],[105,40],[182,-19],[183,135],[258,117],[109,-17]],[[3759,2885],[192,165]],[[3774,1403],[5,-3]],[[3815,2526],[1,0]],[[3816,2525],[-1,0]],[[3826,2524],[-8,1]],[[3818,2526],[8,-1]],[[3912,1470],[108,202],[38,266],[38,16]],[[3967,3077],[7,144],[45,82]],[[4023,3313],[73,26]],[[4049,2297],[-1,2]],[[4076,2224],[-2,2]],[[4096,3382],[-7,28]],[[4090,3413],[4,5]],[[4093,2183]],[[3692,1355],[-7,51]],[[3692,1355],[17,-22],[17,-10]],[[3726,1323],[-34,32]],[[3994,1210],[-268,113]],[[3496,2714],[-27,111],[39,59]],[[3903,2990],[40,50]],[[2770,3290],[-42,-42]],[[3383,827],[1,5]],[[3385,841],[1,2]],[[3440,1008],[0,3]],[[2369,1264],[-27,-188]],[[3476,3424],[-105,-49]],[[3585,3372],[-28,68]],[[3379,804],[4,23]],[[3384,832],[1,9]],[[3386,843],[31,68]],[[3422,924],[18,84]],[[3440,1011],[2,56]],[[3980,1249],[-1,7]],[[3988,1237],[-1,1]],[[4041,1197],[-1,0]],[[3814,2711],[2,2],[125,60]],[[3941,2773],[-127,-63]],[[3946,2774],[38,-1],[31,-7],[57,-29]],[[4072,2737],[-126,37]],[[4072,2737],[15,4]],[[2323,909],[-13,144],[17,22],[126,-21]],[[3798,2539],[-42,44],[-1,4]],[[3755,2587],[-30,71]],[[3725,2658],[-29,71],[6,68],[41,54]],[[3743,2851],[-41,-54],[-6,-68],[29,-71]],[[3725,2658],[30,-71]],[[3755,2587],[43,-47]],[[3831,1392],[86,-9],[-9,85]],[[3872,2460],[13,-14]],[[3885,2446],[-13,14]],[[4039,2306],[-78,51],[-48,-5],[-28,94]],[[3951,3050],[16,26]],[[3597,2752],[-111,45]],[[3611,2802],[25,2]],[[3651,2803],[51,-6]],[[3696,2745],[92,41],[38,-32]],[[3821,2692],[-8,21]],[[3350,2623],[49,-29],[85,17]],[[3558,2620],[79,11],[6,24]],[[3932,1322],[0,1]],[[3932,1322]],[[2138,411],[-79,4],[29,-50],[-50,-105],[-10,-86],[-26,7],[0,-181]],[[2505,475],[-368,-8]],[[2505,475],[181,39]],[[2712,556],[44,-43],[52,5],[36,-43],[104,12],[22,-57],[106,38]],[[3458,3337],[-11,33]],[[3457,3369],[12,-30]],[[3469,3339],[-11,-2]],[[3585,2998],[-98,120],[-8,46],[15,33],[1,11]],[[3495,3208],[0,40],[-37,89]],[[3469,3339],[41,-94],[-15,-37]],[[3495,3208],[-7,-15],[-23,-47],[16,-12]],[[3612,2843],[-19,142]],[[2501,1108],[5,-40]],[[2501,1114],[2,32],[73,45],[126,42],[86,-28],[37,27],[96,-122]],[[3757,2631],[1,0]],[[3758,2631],[-1,-1]],[[3795,2686],[1,2]],[[3796,2688],[0,-2]],[[3797,2690],[3,7]],[[3800,2697],[-3,-7]],[[4089,2743],[2,1]],[[4093,2745],[3,2]],[[2339,927],[36,40]],[[3838,1411],[15,32]],[[2940,2979],[221,111],[107,-37],[105,-136],[-3,-90],[-58,-108]],[[3986,2534],[-7,-11],[-28,-28]],[[3951,2495],[-9,-9]],[[3943,2486],[8,9]],[[3951,2495],[20,21],[14,18]],[[3986,2535],[23,43]],[[4009,2578],[-23,-43]],[[4009,2579],[9,13]],[[4018,2592],[-9,-13]],[[4019,2593],[21,40]],[[4040,2633],[-21,-40]],[[4032,3180],[-2,14],[6,9]],[[4036,3203],[58,90]],[[4094,3293],[2,3]],[[4074,3107],[-42,72]],[[4096,3295],[-2,-2]],[[4094,3293],[-53,-56],[-5,-34]],[[4036,3203],[-4,-23]],[[4033,3179],[42,-72]],[[4040,2634],[30,92]],[[4070,2726],[-30,-92]],[[4087,2265],[-31,41]],[[4057,2306],[31,-41]],[[4071,2727],[9,11]],[[4080,2738],[-9,-11]],[[4080,3091],[-5,14]],[[4075,3106],[5,-15]],[[4092,3007],[-12,83]],[[4080,2739],[3,6]],[[4081,3090],[12,-84]],[[4084,2745],[-3,-6]],[[4090,2255],[-1,5]],[[4089,2261],[2,-6]],[[4094,2245],[-3,6]],[[4092,2251],[2,-5]],[[4092,2950],[2,51]],[[4096,2923],[-4,26]],[[4094,3001],[-2,-51]],[[4092,2949],[4,-24]],[[4096,2240],[-2,3]],[[4094,2244],[2,-3]],[[3593,2985],[-8,13]],[[3860,1358],[-37,13]],[[3823,1372],[37,-14]],[[3902,1322],[-42,36]],[[3932,1322],[-13,-4],[-10,0],[-5,3],[-2,1]],[[3902,1322],[30,0]],[[3932,1323],[15,-1],[7,-1],[9,-4],[1,-1],[1,-2],[3,-7],[1,-3],[0,-22]],[[3969,1282],[-5,33],[-32,7]],[[3974,1266],[-5,16]],[[3706,1398],[68,5]],[[3751,2852],[8,20]],[[3759,2872],[-8,-20]],[[3759,2872],[0,13]],[[3779,1400],[53,-6]],[[3815,2525],[-13,7],[-4,6]],[[3798,2539],[17,-13]],[[3818,2525],[-2,0]],[[3816,2526],[2,0]],[[3826,2525],[46,-56]],[[3872,2467],[-46,57]],[[4048,2299],[-9,7]],[[4074,2226],[-25,71]],[[4093,2183],[-17,41]],[[4096,2166],[-3,17]],[[3817,2499],[113,37]],[[3930,2536],[-2,-52]],[[4026,2957],[-11,-191],[-82,-155],[-3,-75]],[[3984,2773],[-71,-158],[17,-79]],[[3933,2488],[0,-3]],[[3993,3066],[12,-33]],[[3780,3306],[-20,110],[-63,97],[-38,193],[-48,17],[-2,-41]],[[2281,713],[-53,-107],[-56,-37],[-33,-85],[-21,-362],[-48,-122]],[[4041,2304],[3,0]],[[4044,2305],[22,-4]],[[4068,2301],[28,29]],[[3140,3373],[59,185],[39,35]],[[3238,3593],[21,19],[36,307],[76,177]],[[3263,3664],[-11,-48],[-7,-14],[-5,-6],[-2,-3]],[[3238,3593],[-3,-3],[-1,-1]],[[3937,3068],[-38,1],[-95,124],[-6,98]],[[3977,3062],[10,6]],[[3411,793],[-32,11]],[[3429,1122],[-15,34]],[[3417,911],[5,13]],[[3423,504],[1,-17]],[[3442,1067],[-11,25]],[[4044,2304],[0,1]],[[4066,2301],[2,0]],[[3527,3234],[17,51]],[[3585,3459],[-22,-89]],[[3732,2821],[-25,28]],[[3750,2852],[2,-3]],[[2518,151],[59,-17]],[[2520,133],[119,-8],[92,-108],[42,-17]],[[2852,0],[72,24],[71,-10],[-3,-14]],[[3475,2981],[-49,74],[-121,56],[-57,123],[-276,124]],[[3551,2851],[-49,56]],[[2546,1089],[51,-84],[2,-51],[-98,-139],[22,-42],[-18,-49],[15,-32],[65,-17],[27,28],[63,2],[31,-59],[-1,-70]],[[2705,576],[-24,-60]],[[2705,576],[-60,-142],[26,-102],[92,-50],[-10,-82]],[[2751,199],[-18,-52]],[[2753,200],[-2,-1]],[[1469,0],[-42,56],[-13,80],[44,26],[-53,33],[-10,107],[9,65],[124,-89],[166,-76],[63,-5],[131,88],[108,128],[216,413],[45,169],[-15,82],[42,120],[24,50],[26,374],[12,83],[-36,49],[-39,36],[-102,102],[-51,58],[-10,59],[9,167],[-6,166],[-2,89],[-34,38],[-8,63],[-39,58],[-112,-10],[-58,25],[11,72],[58,63],[58,66],[75,16],[37,88],[61,30],[31,61],[48,93],[33,93],[139,98],[68,-8],[76,-63],[36,-20],[43,3],[52,18],[42,46],[126,96],[62,-31],[62,19],[51,47],[37,64],[76,235],[36,239],[21,69],[-4,93],[1,5],[902,0],[0,-4096],[-2627,0]],[[2305,888],[-71,21],[23,86],[-15,82],[69,209],[144,-54],[48,-122],[-198,-222]],[[4096,2733],[-21,21],[-10,147],[31,0],[0,-168]],[[4074,2339],[-9,-33],[-32,0],[-33,-85],[-41,17],[-82,143],[-6,95],[114,16],[111,-58],[-22,-95]],[[3709,3454],[-4,-72],[-157,-13],[-9,-175],[-56,175],[-109,3],[-53,39],[42,50],[152,-49],[149,101],[45,-59]],[[3515,2859],[74,-17],[282,17],[2,-52],[-67,-76],[33,-85],[-65,-170],[-115,-3],[-68,60],[-76,198],[-54,-46],[43,-140],[-21,-69],[-105,29],[-32,139],[19,161],[85,181],[32,-7],[33,-120]],[[4000,2901],[-64,43],[32,84],[-88,115],[24,56],[32,-10],[32,-118],[53,-55],[10,-49],[-31,-66]],[[3988,1261],[-182,67],[44,113],[91,42],[79,-46],[13,-152],[-45,-24]]]}