{"objects":{"water":{"type":"GeometryCollection","geometries":[{"type":"MultiPolygon","properties":{"source":"naturalearthdata.com","kind":"ocean","area":1576712559132672,"sort_rank":200,"min_zoom":0.0,"id":1},"arcs":[[[3],[4],[5]]]},{"type":"LineString","properties":{"source":"naturalearthdata.com","kind":"ocean","sort_rank":205,"boundary":true,"min_zoom":0.0,"id":520},"arcs":[6]},{"type":"LineString","properties":{"source":"naturalearthdata.com","kind":"ocean","sort_rank":205,"boundary":true,"min_zoom":0.0,"id":545},"arcs":[7]},{"type":"MultiLineString","properties":{"source":"naturalearthdata.com","kind":"ocean","sort_rank":205,"boundary":true,"min_zoom":0.0,"id":551},"arcs":[[8],[9]]}]},"buildings":{"type":"GeometryCollection","geometries":[]},"places":{"type":"GeometryCollection","geometries":[{"type":"Point","properties":{"source":"openstreetmap.org","kind":"region","name":"La Altagracia","kind_detail":"state","min_zoom":4.0,"id":2652225278},"coordinates":[721,1856]},{"type":"Point","properties":{"source":"naturalearthdata.com","kind":"locality","name":"Bavaro","population":795,"min_zoom":7.0,"id":3826},"coordinates":[1329,2270]}]},"transit":{"type":"GeometryCollection","geometries":[]},"pois":{"type":"GeometryCollection","geometries":[]},"boundaries":{"type":"GeometryCollection","geometries":[{"type":"LineString","properties":{"name:ay":"Republika Duminikana","name:ps":"\u0689\u0648\u0645\u0646\u064a\u06a9\u0627\u0646 \u062c\u0645\u0647\u0648\u0631\u064a\u062a","name:ka":"\u10d3\u10dd\u10db\u10d8\u10dc\u10d8\u10d9\u10d4\u10da\u10d7\u10d0 \u10e0\u10d4\u10e1\u10de\u10e3\u10d1\u10da\u10d8\u10d9\u10d0","name:ko":"\ub3c4\ubbf8\ub2c8\uce74 \uacf5\ud654\uad6d","name:kn":"\u0ca1\u0cca\u0cae\u0cbf\u0ca8\u0cbf\u0c95 \u0c97\u0ca3\u0cb0\u0cbe\u0c9c\u0ccd\u0caf","name:cs":"Dominik\u00e1nsk\u00e1 republika","name:tt":"\u0414\u043e\u043c\u0438\u043d\u0438\u043a\u0430\u043d \u0496\u04e9\u043c\u04bb\u04af\u0440\u0438\u044f\u0442\u0435","name:kw":"Repoblek Dhominikanek","name:sw":"Jamhuri ya Dominika","name:ku":"Komara Dom\u00een\u00eek","name:az":"Dominikan Respublikas\u0131","name:tl":"Republikang Dominikano","name:pa":"\u0a21\u0a4b\u0a2e\u0a3f\u0a28\u0a3f\u0a15\u0a3e\u0a08 \u0a17\u0a23\u0a30\u0a3e\u0a1c","name:os":"\u0414\u043e\u043c\u0438\u043d\u0438\u043a\u0430\u043d\u00e6\u0439\u044b \u0420\u0435\u0441\u043f\u0443\u0431\u043b\u0438\u043a\u00e6","name:or":"\u0b21\u0b4b\u0b2e\u0b47\u0b28\u0b3f\u0b15\u0b3e\u0b28 \u0b30\u0b3f\u0b2a\u0b2c\u0b4d\u0b32\u0b3f\u0b15","name:ce":"\u0414\u043e\u043c\u0438\u043d\u0438\u043a\u0430\u043d \u041f\u0430\u0447\u0445\u044c\u0430\u043b\u043a\u0445","name:ta":"\u0b9f\u0bca\u0bae\u0bbf\u0ba9\u0bbf\u0b95\u0bcd\u0b95\u0ba9\u0bcd \u0b95\u0bc1\u0b9f\u0bbf\u0baf\u0bb0\u0b9a\u0bc1","name:tg":"\u04b6\u0443\u043c\u04b3\u0443\u0440\u0438\u0438 \u0414\u043e\u043c\u0438\u043d\u0438\u043a\u0430\u043d\u0430","name:te":"\u0c21\u0c4a\u0c2e\u0c46\u0c28\u0c3f\u0c15\u0c28\u0c4d \u0c30\u0c3f\u0c2a\u0c2c\u0c4d\u0c32\u0c3f\u0c15\u0c4d","name:li":"Dominicaanse Rippubliek","name:fo":"Dominikanal\u00fd\u00f0veldi\u00f0","name:cy":"Gweriniaeth Dominica","source":"openstreetmap.org","sort_rank":262,"name:qu":"Duminikana","name:da":"Dominikanske Republik","name:de":"Dominikanische Republik","name:tr":"Dominik Cumhuriyeti","name:nv":"Domingo Bik\u00e9yah","name:be":"\u0414\u0430\u043c\u0456\u043d\u0456\u043a\u0430\u043d\u0441\u043a\u0430\u044f \u0420\u044d\u0441\u043f\u0443\u0431\u043b\u0456\u043a\u0430","name:dv":"\u0791\u07ae\u0789\u07a8\u0782\u07a8\u0786\u07a6\u0782\u07b0 \u0796\u07aa\u0789\u07b0\u0780\u07ab\u0783\u07a8\u0787\u07b0\u0794\u07a7","name:lv":"Dominik\u0101na","name:lt":"Dominikos Respublika","name:uz":"Dominika Respublikasi","name:kk":"\u0414\u043e\u043c\u0438\u043d\u0438\u043a\u0430\u043d \u0420\u0435\u0441\u043f\u0443\u0431\u043b\u0438\u043a\u0430\u0441\u044b","name:he":"\u05d4\u05e8\u05e4\u05d5\u05d1\u05dc\u05d9\u05e7\u05d4 \u05d4\u05d3\u05d5\u05de\u05d9\u05e0\u05d9\u05e7\u05e0\u05d9\u05ea","name:eo":"Domingo","name:ur":"\u062c\u0645\u06c1\u0648\u0631\u06cc\u06c1 \u0688\u0648\u0645\u06cc\u0646\u06cc\u06a9\u0646","name:lb":"Dominikanesch Republik","name:la":"Respublica Dominicana","name:uk":"\u0414\u043e\u043c\u0456\u043d\u0456\u043a\u0430\u043d\u0441\u044c\u043a\u0430 \u0420\u0435\u0441\u043f\u0443\u0431\u043b\u0456\u043a\u0430","name:hy":"\u0534\u0578\u0574\u056b\u0576\u056b\u056f\u0575\u0561\u0576 \u0540\u0561\u0576\u0580\u0561\u057a\u0565\u057f\u0578\u0582\u0569\u0575\u0578\u0582\u0576","name:ug":"\u062f\u0648\u0645\u0649\u0646\u0649\u0643\u0627\u0646 \u062c\u06c7\u0645\u06be\u06c7\u0631\u0649\u064a\u06d5\u062a\u0649","name:hu":"Dominikai K\u00f6zt\u00e1rsas\u00e1g","name:ln":"Republiki Dominikani","name:oc":"Republica Dominicana","name:el":"\u0394\u03bf\u03bc\u03b9\u03bd\u03b9\u03ba\u03b1\u03bd\u03ae \u0394\u03b7\u03bc\u03bf\u03ba\u03c1\u03b1\u03c4\u03af\u03b1","kind":"country","name:en":"Dominican Republic","name":"Rep\u00fablica Dominicana","name:ee":"Dominican Republic","min_zoom":8.0,"name:th":"\u0e2a\u0e32\u0e18\u0e32\u0e23\u0e13\u0e23\u0e31\u0e10\u0e42\u0e14\u0e21\u0e34\u0e19\u0e34\u0e01\u0e31\u0e19","name:eu":"Dominikar Errepublika","name:et":"Dominikaani Vabariik","name:yo":"Or\u00edl\u1eb9\u0300\u00f2m\u00ecnira D\u00f3m\u00edn\u00edk\u00ec","name:ht":"Dominikani","name:ia":"Republica Dominican","name:mt":"Repubblika Dominikana","name:ro":"Republica Dominican\u0103","name:id":"Republik Dominika","name:ms":"Republik Dominika","name:mr":"\u0921\u0949\u092e\u093f\u0928\u093f\u0915\u0928 \u092a\u094d\u0930\u091c\u093e\u0938\u0924\u094d\u0924\u093e\u0915","name:ar":"\u062c\u0645\u0647\u0648\u0631\u064a\u0629 \u0627\u0644\u062f\u0648\u0645\u064a\u0646\u064a\u0643\u0627\u0646","name:my":"\u1012\u102d\u102f\u1019\u102e\u1014\u102e\u1000\u1014\u103a\u101e\u1019\u1039\u1019\u1010\u1014\u102d\u102f\u1004\u103a\u1004\u1036","name:io":"Dominikana Republiko","name:is":"D\u00f3min\u00edska l\u00fd\u00f0veldi\u00f0","name:am":"\u12f6\u121a\u1292\u12ab\u1295 \u122a\u1350\u1265\u120a\u12ad","name:it":"Repubblica Dominicana","name:vi":"C\u1ed9ng h\u00f2a Dominica","name:ml":"\u0d21\u0d4a\u0d2e\u0d28\u0d3f\u0d15\u0d4d\u0d15\u0d7b \u0d31\u0d3f\u0d2a\u0d4d\u0d2a\u0d2c\u0d4d\u0d32\u0d3f\u0d15\u0d4d","name:rw":"Repubulika ya Dominikani","name:pl":"Dominikana","name:mk":"\u0414\u043e\u043c\u0438\u043d\u0438\u043a\u0430\u043d\u0441\u043a\u0430 \u0420\u0435\u043f\u0443\u0431\u043b\u0438\u043a\u0430","name:af":"Dominikaanse Republiek","name:fa":"\u062c\u0645\u0647\u0648\u0631\u06cc \u062f\u0648\u0645\u06cc\u0646\u06cc\u06a9\u0646","name:ss":"Tibuse weDomonokha","short_name":"R.D.","kind_detail":"2","name:hi":"\u0921\u094b\u092e\u093f\u0928\u093f\u0915\u0928 \u0917\u0923\u0930\u093e\u091c\u094d\u092f","id":-307828,"name:zh-min-nan":"Dominic Ki\u014dng-h\u00f4-kok","name:fr":"R\u00e9publique dominicaine","name:zh-yue":"\u591a\u660e\u5c3c\u52a0","name:fy":"Dominikaanske Republyk","name:vo":"Sandomin\u00e4n","name:zh":"\u591a\u660e\u5c3c\u52a0\u5171\u548c\u570b","name:hr":"Dominikanska Republika","name:sl":"Dominikanska republika","name:nl":"Dominicaanse Republiek","name:ja":"\u30c9\u30df\u30cb\u30ab\u5171\u548c\u56fd","name:nn":"Den dominikanske republikken","name:sh":"Dominikanska Republika","name:na":"Ripubrikin Dominika","name:se":"Dominik\u00e1na d\u00e1ssev\u00e1ldi","name:ne":"\u0921\u094b\u092e\u093f\u0928\u093f\u0915\u0928 \u0917\u0923\u0924\u0928\u094d\u0924\u094d\u0930","name:br":"Republik Dominikan","name:bs":"Dominikanska Republika","name:yi":"\u05d3\u05d0\u05de\u05d9\u05e0\u05d9\u05e7\u05d0\u05e0\u05d9\u05e9\u05e2 \u05e8\u05e2\u05e4\u05d5\u05d1\u05dc\u05d9\u05e7","name:bn":"\u09a1\u09cb\u09ae\u09bf\u09a8\u09bf\u0995\u09be\u09a8 \u09aa\u09cd\u09b0\u099c\u09be\u09a4\u09a8\u09cd\u09a4\u09cd\u09b0","name:bo":"\u0f4c\u0f7c\u0f0b\u0f58\u0f72\u0f0b\u0f53\u0f72\u0f0b\u0f40\u0f53\u0f0b\u0f66\u0fa4\u0fb1\u0f72\u0f0b\u0f58\u0f50\u0f74\u0f53\u0f0b\u0f62\u0f92\u0fb1\u0f63\u0f0b\u0f41\u0f56\u0f0d","name:sk":"Dominik\u00e1nska republika","name:sa":"\u0921\u094b\u092e\u094b\u0928\u093f\u0915\u0928 \u0930\u093f\u092a\u092c\u094d\u0932\u093f\u0915","name:no":"Den dominikanske republikk","name:ru":"\u0414\u043e\u043c\u0438\u043d\u0438\u043a\u0430\u043d\u0441\u043a\u0430\u044f \u0420\u0435\u0441\u043f\u0443\u0431\u043b\u0438\u043a\u0430","name:sv":"Dominikanska Republiken","name:su":"R\u00e9publik Dominika","name:bg":"\u0414\u043e\u043c\u0438\u043d\u0438\u043a\u0430\u043d\u0441\u043a\u0430 \u0440\u0435\u043f\u0443\u0431\u043b\u0438\u043a\u0430","name:an":"Republica Dominicana","name:sr":"\u0414\u043e\u043c\u0438\u043d\u0438\u043a\u0430\u043d\u0441\u043a\u0430 \u0420\u0435\u043f\u0443\u0431\u043b\u0438\u043a\u0430","osm_relation":true,"name:sq":"Republika Dominikane","name:ga":"An Phoblacht Dhoiminiceach","name:gd":"Poblachd Dhoiminicia","name:wo":"R\u00e9ewum Dominik","name:jv":"Republik Dominika","maritime_boundary":true,"name:gv":"Yn Phobblaght Ghominicagh","name:fi":"Dominikaaninen tasavalta"},"arcs":[0]},{"type":"LineString","properties":{"name:ty":"Fenua Marite","name:cy":"Unol Daleithiau America","name:ko":"\ubbf8\uad6d","name:cv":"\u0410\u043c\u0435\u0440\u0438\u043a\u0103\u0440\u0438 \u041f\u0115\u0440\u043b\u0435\u0448\u04f3\u043b\u043b\u0115 \u0428\u0442\u0430\u0442\u0441\u0435\u043c","name:cu":"\u0410\u043c\u0454\u0440\u0438\u043a\u0430\u0301\u043d\u044c\u0441\u043a\ua651 \u0464\u0434\u044c\u043d\u0465\u043d\ua651\u0301 \u0414\u0440\u044c\u0436\u0430\u0301\u0432\ua651","name:kl":"Naalagaaffeqatigiit","name:cs":"Spojen\u00e9 st\u00e1ty americk\u00e9","name:tw":"USA","name:ki":"United States","name:co":"Stati Uniti d'America","name:kv":"\u0410\u043c\u0435\u0440\u0438\u043a\u0430\u0441\u0430 \u04e6\u0442\u0443\u0432\u0442\u04e7\u043c \u0428\u0442\u0430\u0442\u044a\u044f\u0441","name:th":"\u0e2a\u0e2b\u0e23\u0e31\u0e10\u0e2d\u0e40\u0e21\u0e23\u0e34\u0e01\u0e32","name:ks":"\u0938\u0902\u092f\u0941\u0915\u094d\u0924 \u0930\u093e\u091c\u094d\u200d\u092f \u0905\u092e\u0947\u0930\u093f\u0915\u093e","name:to":"Pule\u02bbanga Fakataha 'o 'Amelika","name:tl":"Estados Unidos","name:ce":"I\u0430\u043c\u0435\u0440\u043a\u0430 \u043f\u0430\u0447\u0445\u044c\u0430\u043b\u043a","name:ta":"\u0b85\u0bae\u0bc6\u0bb0\u0bbf\u0b95\u0bcd\u0b95 \u0b90\u0b95\u0bcd\u0b95\u0bbf\u0baf \u0ba8\u0bbe\u0b9f\u0bc1","name:tg":"\u0418\u0451\u043b\u043e\u0442\u0438 \u041c\u0443\u0442\u0442\u0430\u04b3\u0438\u0434\u0430\u0438 \u0410\u043c\u0440\u0438\u043a\u043e","name:ca":"Estats Units d'Am\u00e8rica","name:te":"\u0c05\u0c2e\u0c46\u0c30\u0c3f\u0c15\u0c3e \u0c38\u0c02\u0c2f\u0c41\u0c15\u0c4d\u0c24 \u0c30\u0c3e\u0c37\u0c4d\u0c1f\u0c4d\u0c30\u0c3e\u0c32\u0c41","name:ka":"\u10d0\u10db\u10d4\u10e0\u10d8\u10d9\u10d8\u10e1 \u10e8\u10d4\u10d4\u10e0\u10d7\u10d4\u10d1\u10e3\u10da\u10d8 \u10e8\u10e2\u10d0\u10e2\u10d4\u10d1\u10d8","name:qu":"Hukllachasqa Amirika Suyukuna","name:da":"Amerikas Forenede Stater","name:de":"Vereinigte Staaten von Amerika","name:dz":"\u0f61\u0f74\u0f0b\u0f53\u0f60\u0f72\u0f4a\u0f7a\u0f4a\u0f0b\u0f66\u0f72\u0f0b\u0f4a\u0f7a\u0f66","source":"openstreetmap.org","name:kn":"\u0c85\u0cae\u0cc7\u0cb0\u0cbf\u0c95 \u0cb8\u0c82\u0caf\u0cc1\u0c95\u0ccd\u0ca4 \u0cb8\u0c82\u0cb8\u0ccd\u0ca5\u0cbe\u0ca8","name:dv":"\u0787\u07ac\u0789\u07ac\u0783\u07a8\u0786\u07a7","name:km":"\u179f\u17a0\u179a\u178a\u17d2\u178b\u17a2\u17b6\u1798\u17c1\u179a\u17b7\u1780","name:lv":"Amerikas Savienot\u0101s Valstis","name:lt":"Jungtin\u0117s Amerikos Valstijos","name:uz":"Amerika Qo\u02bbshma Shtatlari","name:kk":"\u0410\u043c\u0435\u0440\u0438\u043a\u0430 \u049a\u04b1\u0440\u0430\u043c\u0430 \u0428\u0442\u0430\u0442\u0442\u0430\u0440\u044b","name:ur":"\u0631\u06cc\u0627\u0633\u062a\u06c1\u0627\u0626\u06d2 \u0645\u062a\u062d\u062f\u06c1 \u0627\u0645\u0631\u06cc\u06a9\u06c1","name:lb":"Vereenegt Staate vun Amerika","name:la":"Civitates Foederatae Americae","name:lg":"Amereka","name:uk":"\u0421\u043f\u043e\u043b\u0443\u0447\u0435\u043d\u0456 \u0428\u0442\u0430\u0442\u0438 \u0410\u043c\u0435\u0440\u0438\u043a\u0438","name:ug":"\u0626\u0627\u0645\u06d0\u0631\u0649\u0643\u0627 \u0642\u0648\u0634\u0645\u0627 \u0634\u062a\u0627\u062a\u0644\u0649\u0631\u0649","name:li":"Vereinegde State van Amerika","name:ln":"Lisang\u00e1 lya Amer\u00edka","name:lo":"\u0eaa\u0eb0\u0eab\u0eb0\u0ea5\u0eb1\u0e94\u0ead\u0eb2\u0ec0\u0ea1\u0ea5\u0eb4\u0e81\u0eb2","name:kw":"Statys Unys Amerika","name:eo":"Usono","name":"United States of America","name:tk":"Amerikany\u0148 Birle\u015fen \u015etatlary","name:ee":"United States","name:ku":"Dewlet\u00ean Yekb\u00fby\u00ee y\u00ean Amer\u00eekay\u00ea","name:eu":"Ameriketako Estatu Batuak","name:tn":"USA","name:es":"Estados Unidos de Am\u00e9rica","name:ay":"Istadus Unidus","name:rm":"Stadis Unids da l'America","name:rn":"Leta Zunze Ubumwe za Amerika","name:az":"Amerika Birl\u0259\u015fmi\u015f \u015etatlar\u0131","name:ie":"Unit States de America","name:id":"Amerika Serikat","name:ig":"Njikota Obodo Amerika","name:el":"\u0397\u03bd\u03c9\u03bc\u03ad\u03bd\u03b5\u03c2 \u03a0\u03bf\u03bb\u03b9\u03c4\u03b5\u03af\u03b5\u03c2 \u03c4\u03b7\u03c2 \u0391\u03bc\u03b5\u03c1\u03b9\u03ba\u03ae\u03c2","name:as":"\u09ae\u09be\u09f0\u09cd\u0995\u09bf\u09a8 \u09af\u09c1\u0995\u09cd\u09a4\u09f0\u09be\u09b7\u09cd\u099f\u09cd\u09f0","name:ar":"\u0627\u0644\u0648\u0644\u0627\u064a\u0627\u062a \u0627\u0644\u0645\u062a\u0651\u062d\u062f\u0629 \u0627\u0644\u0623\u0645\u0631\u064a\u0643\u064a\u0651\u0629","name:io":"Unionita Stati di Amerika","name:av":"\u0410\u043c\u0435\u0440\u0438\u043a\u0430\u043b\u044a\u0443\u043b \u0426\u043e\u043b\u044a\u0430\u0440\u0430\u043b \u0428\u0442\u0430\u0442\u0430\u043b","name:is":"Bandar\u00edki Nor\u00f0ur-Amer\u00edku","name:am":"\u12e8\u1270\u1263\u1260\u1229\u1275 \u12e8\u12a0\u121c\u122a\u12ab \u130d\u12db\u1276\u127d","name:it":"Stati Uniti d'America","name:an":"Estatos Unitos d'America","name:ru":"\u0421\u043e\u0435\u0434\u0438\u043d\u0451\u043d\u043d\u044b\u0435 \u0428\u0442\u0430\u0442\u044b \u0410\u043c\u0435\u0440\u0438\u043a\u0438","name:ab":"\u0410\u043c\u0435\u0440\u0438\u043a\u0430 \u0415\u0438\u0434\u0443 \u0410\u0448\u0442\u0430\u0442\u049b\u04d9\u0430","name:af":"Verenigde State van Amerika","name:zu":"IMelika","kind_detail":"2","old_name:ru":"\u0421\u0435\u0432\u0435\u0440\u043e-\u0410\u043c\u0435\u0440\u0438\u043a\u0430\u043d\u0441\u043a\u0438\u0435 \u0421\u043e\u0435\u0434\u0438\u043d\u0451\u043d\u043d\u044b\u0435 \u0428\u0442\u0430\u0442\u044b","name:za":"Meijgoz","name:zh-yue":"\u5373\u7f8e\u5229\u5805\u5408\u773e\u570b","name:zh":"\u7f8e\u5229\u575a\u5408\u4f17\u56fd","name:so":"Mareykanka","name:sm":"Iunaite Sitete o Amerika","name:sl":"Zdru\u017eene dr\u017eave Amerike","name:sk":"Spojen\u00e9 \u0161t\u00e1ty americk\u00e9","name:ja":"\u30a2\u30e1\u30ea\u30ab\u5408\u8846\u56fd","name:si":"\u0d85'\u0db8\u0dd9\u0dbb\u0dd2\u0d9a\u0dcf\u200d\u0dc0\u0dda \u0d91\u0d9a\u0dca\u0dc3\u0dad\u0dca \u0dbb\u0dcf\u0da2\u0dca\u200d\u0dba\u0dba\u0db1\u0dca","name:sh":"Sjedinjene Ameri\u010dke Dr\u017eave","name:sg":"\u00c2K\u00f6d\u00f6r\u00f6-\u00f4ko t\u00ee Amer\u00eeka","name:se":"Amerihk\u00e1 ovttastuvvan st\u00e1htat","name:sd":"\u0622\u0645\u0631\u064a\u06aa\u0627","name:sc":"Istados Unidos de America","name:sa":"\u0938\u0902\u092f\u0941\u0915\u094d\u0924\u093e\u0928\u093f \u0930\u093e\u091c\u094d\u092f\u093e\u0928\u093f","name:bs":"Sjedinjene Ameri\u010dke Dr\u017eave","name:bm":"Amerika ka Kelenyalen Jamanaw","name:bn":"\u09ae\u09be\u09b0\u09cd\u0995\u09bf\u09a8 \u09af\u09c1\u0995\u09cd\u09a4\u09b0\u09be\u09b7\u09cd\u099f\u09cd\u09b0","name:bo":"\u0f68\u0f0b\u0f58\u0f7a\u0f0b\u0f62\u0f72\u0f0b\u0f41\u0f0b\u0f62\u0f92\u0fb1\u0f63\u0f0b\u0f55\u0fb2\u0f53\u0f0b\u0f58\u0f49\u0f58\u0f0b\u0f60\u0f56\u0fb2\u0f7a\u0f63\u0f0b\u0f62\u0f92\u0fb1\u0f63\u0f0b\u0f41\u0f56\u0f0d","name:br":"Stado\u00f9-Unanet Amerika","name:et":"Ameerika \u00dchendriigid","name:sw":"Muungano wa Madola ya Amerika","name:be":"\u0417\u043b\u0443\u0447\u0430\u043d\u044b\u044f \u0428\u0442\u0430\u0442\u044b \u0410\u043c\u0435\u0440\u044b\u043a\u0456","name:su":"Am\u00e9rika Sarikat","name:bg":"\u0421\u044a\u0435\u0434\u0438\u043d\u0435\u043d\u0438 \u0430\u043c\u0435\u0440\u0438\u043a\u0430\u043d\u0441\u043a\u0438 \u0449\u0430\u0442\u0438","name:ss":"IMelika","name:ba":"\u0410\u043c\u0435\u0440\u0438\u043a\u0430 \u04a0\u0443\u0448\u043c\u0430 \u0428\u0442\u0430\u0442\u0442\u0430\u0440\u044b","name:sq":"Shtetet e Bashkuara t\u00eb Amerik\u00ebs","name:jv":"Am\u00e9rika Sar\u00e9kat","name:bi":"Yunaeted Stet blong Amerika","name:ia":"Statos Unite de America","name:pt":"Estados Unidos da Am\u00e9rica","name:ps":"\u062f \u0627\u0645\u0631\u064a\u06a9\u0627 \u0645\u062a\u062d\u062f\u0647 \u0627\u064a\u0627\u0644\u0627\u062a","name:om":"USA","name:oc":"Estats Units d'America","min_zoom":8.0,"name:ro":"Statele Unite ale Americii","name:zh-min-nan":"America Ha\u030dp-chi\u00f2ng-kok","name:os":"\u0410\u043c\u0435\u0440\u0438\u043a\u00e6\u0439\u044b \u0418\u0443\u0433\u043e\u043d\u0434 \u0428\u0442\u0430\u0442\u0442\u00e6","name:or":"\u0b2f\u0b41\u0b15\u0b4d\u0b24\u0b30\u0b3e\u0b37\u0b4d\u0b1f\u0b4d\u0b30 \u0b06\u0b2e\u0b47\u0b30\u0b3f\u0b15\u0b3e","name:pl":"Stany Zjednoczone Ameryki","sort_rank":262,"name:sr":"\u0421\u0458\u0435\u0434\u0438\u045a\u0435\u043d\u0435 \u0410\u043c\u0435\u0440\u0438\u0447\u043a\u0435 \u0414\u0440\u0436\u0430\u0432\u0435","osm_relation":true,"name:xh":"IYunayithedi Steyitsi","name:pa":"\u0a38\u0a70\u0a2f\u0a41\u0a15\u0a24 \u0a30\u0a3e\u0a1c \u0a05\u0a2e\u0a30\u0a40\u0a15\u0a3e","name:tr":"Amerika Birle\u015fik Devletleri","name:hi":"\u0938\u0902\u092f\u0941\u0915\u094d\u0924 \u0930\u093e\u091c\u094d\u092f \u0905\u092e\u0947\u0930\u093f\u0915\u093e","name:sv":"Amerikas F\u00f6renta Stater","name:he":"\u05d0\u05e8\u05e6\u05d5\u05ea \u05d4\u05d1\u05e8\u05d9\u05ea","name:ha":"kunkiyar taraiyar Amurika","name:hy":"\u0531\u0574\u0565\u0580\u056b\u056f\u0561\u0575\u056b \u0544\u056b\u0561\u0581\u0575\u0561\u056c \u0546\u0561\u0570\u0561\u0576\u0563\u0576\u0565\u0580","name:ht":"Etazini","name:hu":"Amerikai Egyes\u00fclt \u00c1llamok","name:hr":"Sjedinjene Ameri\u010dke Dr\u017eave","kind":"country","name:ts":"United States","name:yi":"\u05e4\u05d0\u05e8\u05d0\u05d9\u05d9\u05e0\u05d9\u05e7\u05d8\u05e2 \u05e9\u05d8\u05d0\u05d8\u05df \u05e4\u05d5\u05df \u05d0\u05de\u05e2\u05e8\u05d9\u05e7\u05e2","name:iu":"\u140a\u14a5\u140a\u14d5\u1472","name:yo":"\u00c0w\u1ecdn \u00ccp\u00ednl\u1eb9\u0300 A\u1e63\u1ecd\u0300kan Am\u1eb9\u0301r\u00edk\u00e0","name:mt":"Stati Uniti tal-Amerika","name:ms":"Amerika Syarikat","name:mr":"\u0905\u092e\u0947\u0930\u093f\u0915\u0947\u091a\u0940 \u0938\u0902\u092f\u0941\u0915\u094d\u0924 \u0938\u0902\u0938\u094d\u0925\u093e\u0928\u0947","name:my":"\u1021\u1019\u1031\u101b\u102d\u1000\u1014\u103a\u1015\u103c\u100a\u103a\u1011\u1031\u102c\u1004\u103a\u1005\u102f","name:mg":"Etazonia","name:vi":"Hoa K\u1ef3","name:ml":"\u0d05\u0d2e\u0d47\u0d30\u0d3f\u0d15\u0d4d\u0d15\u0d28\u0d4d\u200d \u0d10\u0d15\u0d4d\u0d2f\u0d28\u0d3e\u0d1f\u0d41\u0d15\u0d33\u0d4d\u200d","name:mn":"\u0410\u043c\u0435\u0440\u0438\u043a\u0438\u0439\u043d \u041d\u044d\u0433\u0434\u0441\u044d\u043d \u0423\u043b\u0441","name:mi":"Hononga-o-Amerika","id":-148838,"name:mk":"\u0421\u043e\u0435\u0434\u0438\u043d\u0435\u0442\u0438 \u0410\u043c\u0435\u0440\u0438\u043a\u0430\u043d\u0441\u043a\u0438 \u0414\u0440\u0436\u0430\u0432\u0438","name:vo":"Lamerik\u00e4n","name:fa":"\u0627\u06cc\u0627\u0644\u0627\u062a \u0645\u062a\u062d\u062f\u0647 \u0622\u0645\u0631\u06cc\u06a9\u0627","name:rw":"Leta Zunze Ubumwe z\u2019Amerika","name:ff":"Dowlaaji Dentu\u0257i","name:fi":"Amerikan yhdysvallat","name:ky":"\u0410\u043c\u0435\u0440\u0438\u043a\u0430 \u041a\u043e\u0448\u043c\u043e \u0428\u0442\u0430\u0442\u0442\u0430\u0440\u044b","old_name:vi":"M\u1ef9 L\u1ee3i Ki\u00ean;Ma Ly C\u0103n;Nh\u00e3 Di L\u00fd","name:fo":"Sambandsr\u00edki\u00f0 Amerika","alt_name:vi":"Hoa K\u00ec;M\u1ef9;M\u0129","name:fr":"\u00c9tats-Unis d'Am\u00e9rique","name:fy":"Feriene Steaten fan Amearika","name:nl":"Verenigde Staten van Amerika","name:nn":"USA","name:no":"Amerikas forente stater","name:na":"Eben Merika","name:ne":"\u0938\u0902\u092f\u0941\u0915\u094d\u0924 \u0930\u093e\u091c\u094d\u092f \u0905\u092e\u0947\u0930\u093f\u0915\u093e","name:wa":"Estats Unis d' Amerike","name:wo":"Diwaan-yu-Bennoo yu Aamerig","name:nv":"W\u00e1\u00e1shindoon Bik\u00e9yah A\u0142hidadiidzoo\u00edg\u00ed\u00ed","name:ga":"St\u00e1it Aontaithe Mheirice\u00e1","name:gd":"Na St\u00e0itean Aonaichte","name:gn":"Tet\u00e3 pete\u0129 reko Am\u00e9rikagua","name:gl":"Estados Unidos de Am\u00e9rica","maritime_boundary":true,"name:gv":"Steatyn Unnaneysit America","name:gu":"\u0ab8\u0a82\u0aaf\u0ac1\u0a95\u0acd\u0aa4 \u0ab0\u0abe\u0a9c\u0acd\u0aaf \u0a85\u0aae\u0ac7\u0ab0\u0abf\u0a95\u0abe","name:tt":"\u0410\u043c\u0435\u0440\u0438\u043a\u0430 \u041a\u0443\u0448\u043c\u0430 \u0428\u0442\u0430\u0442\u043b\u0430\u0440\u044b"},"arcs":[1]},{"type":"LineString","properties":{"alt_name:eo":"Portoriko;Porto-Riko","name:sk":"Portoriko","name":"Puerto Rico","name:ar":"\u0628\u0648\u0631\u062a\u0648\u0631\u064a\u0643\u0648","name:cs":"Portoriko","kind":"region","official_name":"Estado Libre Asociado de Puerto Rico","name:is":"P\u00faert\u00f3 R\u00edk\u00f3","name:uk":"\u041f\u0443\u0435\u0440\u0442\u043e-\u0420\u0438\u043a\u043e","name:ru":"\u041f\u0443\u044d\u0440\u0442\u043e-\u0420\u0438\u043a\u043e","name:fo":"Puerto Riko","name:hr":"Portoriko","name:sr":"\u041f\u043e\u0440\u0442\u043e\u0440\u0438\u043a\u043e","osm_relation":true,"name:vo":"Puertorike\u00e4ns","name:ga":"P\u00f3rt\u00f3 R\u00edce","name:eo":"Puertoriko","sort_rank":256,"kind_detail":"4","min_zoom":8.0,"id":-4422604,"source":"openstreetmap.org","maritime_boundary":true,"name:zh":"\u6ce2\u591a\u9ece\u5404"},"arcs":[2]}]},"roads":{"type":"GeometryCollection","geometries":[{"type":"MultiLineString","properties":{"sort_rank":380,"kind_detail":"primary","min_zoom":8.0,"kind":"major_road","source":"openstreetmap.org"},"arcs":[[10],[11],[12],[13],[14],[15],[16],[17],[18]]},{"type":"MultiLineString","properties":{"source":"openstreetmap.org","kind":"major_road","sort_rank":381,"kind_detail":"trunk","ref":"RD-3","min_zoom":8.0},"arcs":[[19],[20],[21],[22],[23],[24],[25],[26],[27]]},{"type":"LineString","properties":{"source":"openstreetmap.org","kind":"major_road","sort_rank":380,"kind_detail":"primary","ref":"RD-3","min_zoom":8.0},"arcs":[28]},{"type":"MultiLineString","properties":{"source":"openstreetmap.org","kind":"major_road","landuse_kind":"residential","sort_rank":380,"kind_detail":"primary","ref":"RD-4","min_zoom":8.0},"arcs":[[29],[30],[31]]},{"type":"MultiLineString","properties":{"source":"openstreetmap.org","kind":"major_road","sort_rank":380,"kind_detail":"primary","ref":"RD-4","min_zoom":8.0},"arcs":[[32],[33]]},{"type":"LineString","properties":{"source":"openstreetmap.org","kind":"major_road","landuse_kind":"residential","sort_rank":380,"kind_detail":"primary","min_zoom":8.0},"arcs":[34]},{"type":"MultiLineString","properties":{"sort_rank":383,"kind_detail":"motorway","min_zoom":8.0,"kind":"highway","source":"openstreetmap.org"},"arcs":[[35],[36],[37],[38],[39],[40]]},{"type":"MultiLineString","properties":{"source":"openstreetmap.org","kind":"major_road","sort_rank":380,"kind_detail":"primary","ref":"104","min_zoom":8.0},"arcs":[[41],[42],[43]]},{"type":"MultiLineString","properties":{"source":"openstreetmap.org","kind":"highway","sort_rank":383,"kind_detail":"motorway","ref":"RD-3","min_zoom":8.0},"arcs":[[44],[45],[46],[47],[48],[49],[50],[51],[52],[53],[54],[55],[56],[57]]}]},"earth":{"type":"GeometryCollection","geometries":[{"type":"MultiPolygon","properties":{"sort_rank":10,"source":"naturalearthdata.com","min_zoom":0.0,"kind":"earth","area":18842119424},"arcs":[[[58]],[[59]],[[60]]]}]},"landuse":{"type":"GeometryCollection","geometries":[{"type":"Polygon","properties":{"source":"openstreetmap.org","kind":"park","area":87355600,"tier":2,"id":452713610,"min_zoom":8.0,"sort_rank":24},"arcs":[[61]]},{"type":"MultiPolygon","properties":{"source":"openstreetmap.org","kind":"park","tier":2,"area":798537138,"sort_rank":24,"min_zoom":6.0,"osm_relation":true},"arcs":[[[62],[63],[64]]]},{"type":"MultiPolygon","properties":{"source":"openstreetmap.org","kind":"nature_reserve","tier":2,"area":71764880,"sort_rank":23,"min_zoom":8.0},"arcs":[[[65]]]},{"type":"MultiPolygon","properties":{"source":"openstreetmap.org","kind":"residential","tier":2,"area":180728852,"sort_rank":20,"min_zoom":8.0},"arcs":[[[66]],[[67]],[[68]]]},{"type":"Polygon","properties":{"source":"openstreetmap.org","kind":"nature_reserve","area":237567008,"tier":2,"id":330203371,"min_zoom":6.0,"sort_rank":23},"arcs":[[69]]}]}},"type":"Topology","transform":{"translate":[-68.90625,17.9787330956],"scale":[0.0003433228,0.0003252955]},"arcs":[[[1432,0],[27,27],[69,110],[731,1511],[52,200],[-13,341],[-608,1907]],[[4096,1883],[-219,-62],[-198,-144],[-123,-189],[-46,-231],[39,-223],[122,-201],[190,-148],[235,-73]],[[4096,1729],[-153,-46],[-127,-82],[-120,-173],[-31,-139],[14,-151],[108,-199],[122,-100],[187,-66]],[[4096,4096],[0,-4096],[-4096,0],[0,1313],[74,-32],[91,-63],[86,-100],[97,-145],[71,-148],[6,-113],[51,-18],[246,20],[33,12],[16,32],[45,178],[23,56],[35,48],[25,60],[-15,59],[-8,49],[48,33],[42,-13],[116,-76],[53,-18],[69,0],[60,7],[48,24],[33,53],[6,30],[-6,107],[9,29],[20,21],[19,17],[274,418],[16,121],[-81,123],[-166,101],[-132,128],[-19,12],[-36,16],[-125,88],[-176,134],[-125,152],[-338,315],[-30,11],[-52,5],[-26,15],[-24,17],[-5,3],[-27,10],[-65,2],[-104,22],[-5,-1],[-60,21],[-12,11],[-2,11],[0,11],[-6,9],[-48,27],[-19,6],[0,886],[4096,0]],[[3059,418],[-17,4],[-169,-5],[-33,-17],[-19,-45],[19,-42],[83,-47],[19,-27],[12,-9],[28,-3],[27,3],[13,9],[3,24],[10,14],[13,13],[29,54],[17,21],[-1,22],[-34,31]],[[979,421],[-21,55],[-33,61],[-29,39],[-40,14],[-151,-4],[-136,18],[-33,12],[-44,32],[-50,25],[-51,10],[-43,-13],[25,-76],[47,-82],[73,-67],[102,-27],[50,7],[90,29],[52,6],[49,-10],[94,-43],[44,-10],[5,24]],[[705,586],[-136,18],[-33,12],[-44,32],[-50,25],[-51,10],[-43,-13],[25,-76],[47,-82],[73,-67],[102,-27],[50,7],[90,29],[52,6],[49,-10],[94,-43],[44,-10],[5,24],[-21,55],[-33,61],[-29,39],[-40,14],[-151,-4]],[[3059,418],[-17,4],[-169,-5],[-33,-17],[-19,-45],[19,-42],[83,-47],[19,-27],[12,-9],[28,-3],[27,3],[13,9],[3,24],[10,14],[13,13],[29,54],[17,21],[-1,22],[-34,31]],[[1602,2084],[-166,101],[-132,128],[-19,12],[-36,16],[-125,88],[-176,134],[-125,152],[-338,315],[-30,11],[-52,5],[-26,15],[-24,17],[-5,3],[-27,10],[-65,2],[-104,22],[-5,-1],[-60,21],[-12,11],[-2,11],[0,11],[-6,9],[-48,27],[-19,6]],[[0,1313],[74,-32],[91,-63],[86,-100],[97,-145],[71,-148],[6,-113],[51,-18],[246,20],[33,12],[16,32],[45,178],[23,56],[35,48],[25,60],[-15,59],[-8,49],[48,33],[42,-13],[116,-76],[53,-18],[69,0],[60,7],[48,24],[33,53],[6,30],[-6,107],[9,29],[20,21],[19,17],[274,418],[16,121],[-81,123]],[[73,3034],[3,1]],[[304,2982],[1,-1]],[[1509,1782],[45,5]],[[1554,1788],[-44,-3]],[[1580,1790],[-25,-2]],[[1555,1787],[26,2]],[[1555,1787],[0,1],[-1,-1],[1,-1],[0,1]],[[1581,1790],[0,-1]],[[1581,1789],[1,0],[0,1],[-1,0]],[[1509,1786],[0,10]],[[1509,1796],[-1,195]],[[1508,1991],[0,8],[-24,17],[-52,21]],[[1432,2037],[-148,192]],[[1284,2229],[-3,5],[-85,66],[88,-71]],[[1284,2229],[4,-3],[144,-189]],[[1432,2037],[4,-5],[72,-33],[0,-8]],[[1508,1991],[14,-153],[-13,-42]],[[1509,1796],[-3,-10]],[[694,2576],[45,-64],[111,-64],[146,-17],[200,-131]],[[472,1992],[85,-44]],[[557,1948],[-7,-83]],[[557,1948],[2,-22]],[[472,1992],[-98,12],[-84,-23],[-229,153],[-31,-21],[-30,11]],[[550,1865],[-4,-156]],[[559,1926],[-2,-6]],[[53,1422],[9,-2]],[[62,1421],[-9,1]],[[663,1709],[-67,10]],[[597,1719],[66,-11]],[[1504,1785],[-257,42],[-583,-118]],[[1510,1784],[-3,3],[-3,-3],[3,-3],[3,3]],[[73,3034],[-73,15]],[[76,3035],[228,-53]],[[305,2981],[155,-33],[91,-64],[155,-229],[-12,-79]],[[53,1422],[-53,3]],[[0,1424],[53,-2]],[[596,1719],[-184,-9],[-4,-2]],[[408,1708],[-77,-32]],[[331,1676],[-76,-32],[-5,-4],[-15,-248]],[[235,1392],[0,-2],[-31,-14]],[[204,1376],[-14,-6],[-4,0],[-72,32],[-52,19]],[[62,1420],[124,-50],[4,0],[14,6]],[[204,1376],[31,16]],[[235,1392],[1,0],[14,247],[5,5],[76,32]],[[331,1676],[76,32],[1,0]],[[408,1708],[136,3],[3,0],[50,8]],[[663,1708],[595,118],[247,-45]],[[664,1709],[-1,0]],[[3009,230],[-27,-3],[-28,3],[-12,9],[-19,27],[-83,47],[-19,42],[19,45],[33,17],[169,5],[17,-4],[34,-31],[1,-22],[-17,-21],[-29,-54],[-13,-13],[-10,-14],[-3,-24],[-13,-9]],[[569,604],[136,-18],[151,4],[40,-14],[29,-39],[33,-61],[21,-55],[-5,-24],[-44,10],[-94,43],[-49,10],[-52,-6],[-90,-29],[-50,-7],[-102,27],[-73,67],[-47,82],[-25,76],[43,13],[51,-10],[50,-25],[44,-32],[33,-12]],[[0,1313],[0,1897],[19,-6],[48,-27],[6,-9],[0,-11],[2,-11],[12,-11],[60,-21],[5,1],[104,-22],[65,-2],[27,-10],[5,-3],[24,-17],[26,-15],[52,-5],[30,-11],[338,-315],[125,-152],[176,-134],[125,-88],[36,-16],[19,-12],[132,-128],[166,-101],[81,-123],[-16,-121],[-274,-418],[-19,-17],[-20,-21],[-9,-29],[6,-107],[-6,-30],[-33,-53],[-48,-24],[-60,-7],[-69,0],[-53,18],[-116,76],[-42,13],[-48,-33],[8,-49],[15,-59],[-25,-60],[-35,-48],[-23,-56],[-45,-178],[-16,-32],[-33,-12],[-246,-20],[-51,18],[-6,113],[-71,148],[-97,145],[-86,100],[-91,63],[-74,32]],[[956,1205],[27,131],[20,-15],[36,42],[89,-77],[158,9],[44,43],[-8,-150],[-86,-77],[-280,94]],[[262,1089],[659,77],[85,-790],[-370,15],[-284,66],[-90,632]],[[352,599],[71,-67],[11,-46],[183,-66],[142,45],[198,-63],[27,28],[-41,89],[-71,49],[-128,-12],[-66,45],[-99,-5],[-176,81],[-46,-29],[-5,-49]],[[775,661],[10,-1],[9,15],[-11,-3],[-8,-11]],[[2797,321],[37,91],[67,21],[68,-24],[74,31],[51,-80],[-5,-43],[-118,-85],[-106,34],[-68,55]],[[0,1291],[0,68],[53,-12],[-31,-18],[-2,-36],[-20,-2]],[[1331,1914],[65,67],[50,17],[58,-34],[4,-68],[-75,-5],[-16,-58],[-86,81]],[[468,1972],[9,48],[122,-47],[-2,-105],[-48,-3],[-47,90],[-23,-15],[-11,32]],[[278,1088],[571,61],[30,-47],[-89,-160],[-34,-169],[14,-32],[-18,-18],[-27,54],[-103,-45],[-173,42],[-171,314]]]}