{"objects":{"water":{"type":"GeometryCollection","geometries":[{"type":"Polygon","properties":{"source":"naturalearthdata.com","kind":"ocean","area":1576712559132672,"sort_rank":200,"min_zoom":0.0,"id":1},"arcs":[[4],[5],[6],[7]]},{"type":"LineString","properties":{"source":"naturalearthdata.com","kind":"ocean","sort_rank":205,"boundary":true,"min_zoom":0.0,"id":76},"arcs":[8]},{"type":"MultiLineString","properties":{"source":"naturalearthdata.com","kind":"ocean","sort_rank":205,"boundary":true,"min_zoom":0.0,"id":511},"arcs":[[9],[10]]},{"type":"LineString","properties":{"source":"naturalearthdata.com","kind":"ocean","sort_rank":205,"boundary":true,"min_zoom":0.0,"id":548},"arcs":[11]},{"type":"LineString","properties":{"source":"naturalearthdata.com","kind":"ocean","sort_rank":205,"boundary":true,"min_zoom":0.0,"id":3313},"arcs":[12]},{"type":"LineString","properties":{"source":"naturalearthdata.com","kind":"ocean","sort_rank":205,"boundary":true,"min_zoom":0.0,"id":3314},"arcs":[13]},{"type":"LineString","properties":{"source":"naturalearthdata.com","kind":"ocean","sort_rank":205,"boundary":true,"min_zoom":0.0,"id":3315},"arcs":[14]},{"type":"LineString","properties":{"source":"naturalearthdata.com","kind":"ocean","sort_rank":205,"boundary":true,"min_zoom":0.0,"id":3316},"arcs":[15]},{"type":"LineString","properties":{"source":"naturalearthdata.com","kind":"ocean","sort_rank":205,"boundary":true,"min_zoom":0.0,"id":3317},"arcs":[16]},{"type":"LineString","properties":{"source":"naturalearthdata.com","kind":"ocean","sort_rank":205,"boundary":true,"min_zoom":0.0,"id":3332},"arcs":[17]}]},"buildings":{"type":"GeometryCollection","geometries":[]},"places":{"type":"GeometryCollection","geometries":[{"type":"Point","properties":{"kind":"locality","name":"Kralendijk","name:lt":"Kralendeikas","kind_detail":"town","source":"openstreetmap.org","min_zoom":8.0,"country_capital":true,"id":50034650,"population":12531},"coordinates":[1841,2883]}]},"transit":{"type":"GeometryCollection","geometries":[]},"pois":{"type":"GeometryCollection","geometries":[]},"boundaries":{"type":"GeometryCollection","geometries":[{"type":"LineString","properties":{"name:wa":"Venezwela","name:ka":"\u10d5\u10d4\u10dc\u10d4\u10e1\u10e3\u10d4\u10da\u10d0","name:ko":"\ubca0\ub124\uc218\uc5d8\ub77c","name:cv":"\u0412\u0435\u043d\u0435\u0441\u0443\u044d\u043b\u0430","name:kk":"\u0412\u0435\u043d\u0435\u0441\u0443\u044d\u043b\u0430","name:tt":"\u0412\u0435\u043d\u0435\u0441\u0443\u044d\u043b\u0430","name:kw":"Veneswela","name:tk":"Wenesuela","name:th":"\u0e1b\u0e23\u0e30\u0e40\u0e17\u0e28\u0e40\u0e27\u0e40\u0e19\u0e0b\u0e38\u0e40\u0e2d\u0e25\u0e32","name:pa":"\u0a35\u0a48\u0a28\u0a47\u0a1c\u0a3c\u0a41\u0a0f\u0a32\u0a3e","name:os":"\u0412\u0435\u043d\u0435\u0441\u0443\u044d\u043b\u00e6","name:or":"\u0b2d\u0b47\u0b28\u0b47\u0b1c\u0b41\u0b0f\u0b32\u0b3e","name:ce":"\u0412\u0435\u043d\u0435\u0441\u0443\u044d\u043b\u0430","name:ta":"\u0bb5\u0bc6\u0ba9\u0bbf\u0b9a\u0bc1\u0bb5\u0bc7\u0bb2\u0bbe","name:tg":"\u0412\u0435\u043d\u0435\u0441\u0443\u044d\u043b\u0430","name:ca":"Vene\u00e7uela","sort_rank":262,"name:ln":"Venezwela","name:ba":"\u0412\u0435\u043d\u0435\u0441\u0443\u044d\u043b\u0430","source":"openstreetmap.org","osm_relation":true,"name:kn":"\u0cb5\u0cc6\u0ca8\u0cc6\u0c9c\u0cc1\u0cb5\u0cc6\u0cb2\u0cbe","name:dv":"\u0788\u07ac\u0782\u07ac\u0792\u07aa\u0787\u07ad\u078d\u07a7","name:lv":"Venecu\u0113la","name:lt":"Venesuela","name:uz":"Venesuela","name:he":"\u05d5\u05e0\u05e6\u05d5\u05d0\u05dc\u05d4","name:eo":"Venezuelo","name:ur":"\u0648\u06cc\u0646\u06cc\u0632\u0648\u06cc\u0644\u0627","name:la":"Venetiola","name:uk":"\u0412\u0435\u043d\u0435\u0441\u0443\u0435\u043b\u0430","name:hy":"\u054e\u0565\u0576\u0565\u057d\u0578\u0582\u0565\u056c\u0561","name:ug":"\u06cb\u06d0\u0646\u06d0\u0633\u06c7\u0626\u06d0\u0644\u0627","name:qu":"Winisuyla","name:oc":"Vene\u00e7u\u00e8la","name:el":"\u0392\u03b5\u03bd\u03b5\u03b6\u03bf\u03c5\u03ad\u03bb\u03b1","kind":"country","name":"Venezuela","min_zoom":8.0,"name:yi":"\u05d5\u05d5\u05e2\u05e0\u05e2\u05d6\u05d5\u05e2\u05dc\u05e2","name:yo":"Fenesuela","name:ay":"Win\u00efxwila","name:mt":"Vene\u017cwela","name:az":"Venesuela","name:mr":"\u0935\u094d\u0939\u0947\u0928\u0947\u091d\u0941\u090f\u0932\u093e","name:ar":"\u0641\u0646\u0632\u0648\u064a\u0644\u0627","name:my":"\u1017\u1004\u103a\u1014\u102e\u1007\u103d\u1032\u101c\u102c\u1038\u1014\u102d\u102f\u1004\u103a\u1004\u1036","name:av":"\u0412\u0435\u043d\u0435\u0441\u0443\u044d\u043b\u0430","name:is":"Venes\u00faela","name:am":"\u126c\u1294\u12dd\u12cc\u120b","name:ru":"\u0412\u0435\u043d\u0435\u0441\u0443\u044d\u043b\u0430","id":-272644,"name:ml":"\u0d35\u0d46\u0d28\u0d3f\u0d38\u0d4d\u0d35\u0d47\u0d32","name:rw":"Venezuwela","name:pl":"Wenezuela","name:mk":"\u0412\u0435\u043d\u0435\u0446\u0443\u0435\u043b\u0430","name:vo":"Venesol\u00e4n","name:fa":"\u0648\u0646\u0632\u0648\u0626\u0644\u0627","name:mn":"\u0412\u0435\u043d\u0435\u0441\u0443\u044d\u043b","kind_detail":"2","name:hi":"\u0935\u0947\u0928\u0947\u091c\u093c\u0941\u090f\u0932\u093e","name:mg":"Venezoela","name:fo":"Venesuela","name:zh-yue":"\u59d4\u5167\u745e\u62c9","name:fy":"Fenezu\u00ebla","name:zh":"\u59d4\u5167\u745e\u62c9","name:so":"Fanansuwela","name:sm":"Venesuela","name:ja":"\u30d9\u30cd\u30ba\u30a8\u30e9","name:ne":"\u092d\u0947\u0928\u0947\u091c\u0941\u090f\u0932\u093e","name:sa":"\u0935\u0947\u0928\u0947\u091c\u094d\u0935\u0947\u0932\u093e","name:bs":"Venecuela","name:bn":"\u09ad\u09c7\u09a8\u09c7\u099c\u09c1\u09af\u09bc\u09c7\u09b2\u09be","name:bo":"\u0f5d\u0f7a\u0f0b\u0f53\u0f7a\u0f0b\u0f5f\u0f74\u0f60\u0f7a\u0f0b\u0f63\u0f0d","name:be":"\u0412\u0435\u043d\u0435\u0441\u0443\u044d\u043b\u0430","name:su":"V\u00e9n\u00e9zu\u00e9la","name:bg":"\u0412\u0435\u043d\u0435\u0446\u0443\u0435\u043b\u0430","name:wo":"Benesuwela","name:sr":"\u0412\u0435\u043d\u0435\u0446\u0443\u0435\u043b\u0430","name:nv":"T\u00e1\u0142k\u00e1\u00e1\u02bc Bighan Dine\u02bc\u00e9 Bik\u00e9yah","name:ga":"Veinis\u00e9ala","name:gd":"A' Bheiniseala","name:ht":"Venezwela","name:gn":"Venesu\u00e9la","maritime_boundary":true,"name:gv":"Yn Veneswaaley","name:gu":"\u0ab5\u0ac7\u0aa8\u0ac7\u0a9d\u0ac1\u0a8f\u0ab2\u0abe"},"arcs":[0]},{"type":"LineString","properties":{"kind":"region","name:en":"Federal Dependencies","name":"Dependencias Federales","sort_rank":256,"kind_detail":"4","min_zoom":8.0,"name:de":"Bundesterritorien","source":"openstreetmap.org","maritime_boundary":true,"id":-3399075,"osm_relation":true},"arcs":[1]},{"type":"MultiLineString","properties":{"kind":"region","name":"Falc\u00f3n","sort_rank":256,"kind_detail":"4","min_zoom":8.0,"source":"openstreetmap.org","maritime_boundary":true,"id":-2269792,"osm_relation":true},"arcs":[[2],[3]]}]},"roads":{"type":"GeometryCollection","geometries":[{"type":"MultiLineString","properties":{"sort_rank":380,"kind_detail":"primary","min_zoom":8.0,"kind":"major_road","source":"openstreetmap.org"},"arcs":[[18],[19],[20],[21],[22],[23],[24],[25],[26],[27],[28],[29],[30],[31],[32],[33],[34],[35],[36],[37],[38],[39],[40],[41],[42],[43],[44],[45],[46],[47],[48],[49],[50],[51],[52],[53],[54],[55],[56],[57],[58],[59],[60],[61]]},{"type":"LineString","properties":{"kind":"major_road","network":null,"sort_rank":381,"kind_detail":"trunk","source":"openstreetmap.org","min_zoom":8.0,"shield_text":"03","ref":"T-03"},"arcs":[62]},{"type":"LineString","properties":{"source":"openstreetmap.org","kind":"major_road","sort_rank":380,"kind_detail":"primary","is_bicycle_related":true,"min_zoom":8.0,"cycleway":"lane"},"arcs":[63]},{"type":"LineString","properties":{"source":"openstreetmap.org","kind":"ferry","name":"Caribe Watersport Watertaxi","sort_rank":355,"min_zoom":8.0,"id":358974087},"arcs":[64]},{"type":"MultiLineString","properties":{"source":"openstreetmap.org","kind":"major_road","landuse_kind":"urban_area","sort_rank":380,"kind_detail":"primary","min_zoom":8.0},"arcs":[[65],[66],[67],[68],[69],[70],[71],[72],[73],[74],[75],[76],[77],[78],[79],[80],[81],[82],[83],[84],[85],[86],[87],[88],[89],[90],[91],[92],[93],[94],[95],[96],[97],[98],[99],[100],[101],[102],[103],[104],[105],[106],[107],[108],[109],[110],[111],[112],[113],[114],[115],[116]]},{"type":"MultiLineString","properties":{"source":"openstreetmap.org","cycleway_right":"lane","sort_rank":380,"kind_detail":"primary","min_zoom":8.0,"is_bicycle_related":true,"kind":"major_road"},"arcs":[[117],[118],[119]]},{"type":"LineString","properties":{"source":"openstreetmap.org","kind":"ferry","name":"Klein Bonaire watertaxi","sort_rank":355,"min_zoom":8.0,"id":43129406},"arcs":[120]},{"type":"LineString","properties":{"source":"openstreetmap.org","kind":"ferry","name":"Miss Ann Boattrip to Klein Cura\u00e7ao","sort_rank":355,"min_zoom":8.0,"id":238247312},"arcs":[121]},{"type":"MultiLineString","properties":{"source":"openstreetmap.org","kind":"major_road","sort_rank":380,"kind_detail":"primary","is_bicycle_related":true,"min_zoom":8.0,"cycleway":"buffered_lane"},"arcs":[[122],[123],[124]]}]},"earth":{"type":"GeometryCollection","geometries":[{"type":"MultiPolygon","properties":{"sort_rank":10,"source":"naturalearthdata.com","min_zoom":0.0,"kind":"earth","area":9911861295},"arcs":[[[125]],[[126]],[[127]],[[128]]]}]},"landuse":{"type":"GeometryCollection","geometries":[{"type":"MultiPolygon","properties":{"source":"openstreetmap.org","kind":"park","tier":2,"area":47163520,"sort_rank":24,"min_zoom":8.0},"arcs":[[[129]]]},{"type":"MultiPolygon","properties":{"source":"naturalearthdata.com","kind":"urban_area","name":"","area":427739325,"sort_rank":11,"min_zoom":4.0},"arcs":[[[130]]]},{"type":"Polygon","properties":{"source":"openstreetmap.org","kind":"park","area":223691008,"tier":2,"id":72434465,"min_zoom":6.0,"sort_rank":24},"arcs":[[131]]}]}},"type":"Topology","transform":{"translate":[-68.90625,11.1784018737],"scale":[0.0003433228,0.000335977]},"arcs":[[[4096,3358],[-500,53],[-206,-19],[-167,-61],[-553,-310],[0,-1568],[-1778,0],[-667,223],[-225,31]],[[4096,2544],[-90,-73],[-28,-122],[34,-112],[84,-67]],[[1321,0],[-229,257],[-208,52],[-178,198],[-76,19],[-4,-34],[-49,-5],[-169,93],[-186,208],[-40,-11],[-46,33],[-77,-5],[-8,-21],[-51,7]],[[1491,0],[-39,38],[-4,-38]],[[1503,0],[0,2],[-30,45],[-8,18],[-22,0],[-1,-21],[-4,-13],[-15,-29],[-192,83],[-27,32],[-21,44],[-52,50],[-66,47],[-217,114],[-72,56],[-31,55],[-15,21],[-69,31],[-15,10],[-17,-13],[-41,3],[-46,11],[-100,36],[-63,37],[-58,42],[-96,105],[-45,35],[-55,16],[-125,-6],[0,1915],[37,-11],[153,-104],[76,-37],[59,-6],[72,5],[62,12],[26,18],[-16,28],[-103,106],[-68,57],[-23,36],[-9,61],[-17,38],[-42,26],[-207,50],[0,1091],[4096,0],[0,-4096],[-2593,0]],[[1543,3368],[-41,1],[-28,-18],[-18,-29],[-13,-35],[22,-19],[-41,-58],[19,-49],[55,-38],[65,-19],[141,-22],[54,-33],[45,-67],[15,-61],[-2,-60],[-13,-93],[5,-55],[14,-53],[61,-131],[16,-13],[34,-5],[15,14],[16,33],[13,38],[5,29],[-7,29],[-30,76],[-1,27],[19,18],[54,3],[25,19],[5,58],[-21,156],[27,32],[33,12],[-12,27],[-30,28],[-21,14],[-26,9],[-93,13],[-181,88],[-50,12],[-25,18],[-61,81],[-44,23]],[[3587,2589],[-7,6],[0,-12],[3,-5],[4,11]],[[3613,2392],[57,-10],[25,4],[-33,12],[-26,3],[-14,7],[-13,13],[-14,4],[-8,-10],[3,-13],[23,-10]],[[0,811],[125,6],[55,-16],[45,-35],[96,-105],[58,-42],[63,-37],[100,-36],[46,-11],[41,-3],[17,13],[15,-10],[69,-31],[15,-21],[31,-55],[72,-56],[217,-114],[66,-47],[52,-50],[21,-44],[27,-32],[192,-83],[15,29],[4,13],[1,21],[22,0],[8,-18],[30,-45],[0,-2]],[[366,2737],[-68,57],[-23,36],[-9,61],[-17,38],[-42,26],[-207,50]],[[0,2726],[37,-11],[153,-104],[76,-37],[59,-6],[72,5],[62,12],[26,18],[-16,28],[-103,106]],[[2023,3124],[-26,9],[-93,13],[-181,88],[-50,12],[-25,18],[-61,81],[-44,23],[-41,1],[-28,-18],[-18,-29],[-13,-35],[22,-19],[-41,-58],[19,-49],[55,-38],[65,-19],[141,-22],[54,-33],[45,-67],[15,-61],[-2,-60],[-13,-93],[5,-55],[14,-53],[61,-131],[16,-13],[34,-5],[15,14],[16,33],[13,38],[5,29],[-7,29],[-30,76],[-1,27],[19,18],[54,3],[25,19],[5,58],[-21,156],[27,32],[33,12],[-12,27],[-30,28],[-21,14]],[[3550,2641],[1,5],[-5,5],[4,-10]],[[3568,2635],[-9,-1],[10,-5],[-1,6]],[[3580,2595],[0,-12],[3,-5],[4,11],[-7,6]],[[3579,2528],[2,-2],[1,2],[-2,7],[-1,-7]],[[3571,2520],[3,9],[-7,-7],[4,-2]],[[3636,2401],[-14,7],[-13,13],[-14,4],[-8,-10],[3,-13],[23,-10],[57,-10],[25,4],[-33,12],[-26,3]],[[75,2758],[-4,0]],[[79,2757],[-4,1]],[[75,2758],[2,0]],[[77,2758]],[[77,2758],[1,0]],[[77,2758],[2,-1]],[[112,2685],[-33,72]],[[106,2809],[74,-40],[24,-54]],[[112,2683],[0,1]],[[129,2896],[-6,0]],[[1670,3151],[0,8]],[[1670,3151],[-57,-51],[135,-50],[59,-105]],[[1845,2961],[26,70],[-56,112],[-52,36],[-93,-28]],[[1804,2820],[6,-5]],[[1810,2815],[119,-103]],[[1807,2945]],[[1808,2945],[-1,0]],[[1808,2943]],[[1808,2943],[0,1]],[[1808,2943],[30,-44]],[[1808,2944],[1,0]],[[1809,2944],[-1,0]],[[1845,2961],[-36,-17]],[[1835,2891]],[[1836,2888],[14,2]],[[1836,2888],[5,11]],[[1855,2859],[-5,5]],[[1850,2864],[-13,17],[-1,7]],[[1843,2900]],[[1845,2876],[-2,13]],[[1843,2899]],[[1845,2876],[-1,0],[1,-1]],[[1845,2875],[0,1]],[[1929,2712],[23,-4],[31,-94],[-8,-47],[-62,-47],[-93,105],[-31,152],[21,38]],[[1810,2815],[15,29],[29,3],[1,8],[-5,9]],[[1850,2864],[-5,11]],[[1849,2925],[-4,36]],[[1845,2902],[4,23]],[[2010,2987],[-161,-62]],[[1862,2878],[3,-2]],[[1865,2876],[69,-57],[-5,-107]],[[1808,2945],[-1,-1],[1,-1],[0,1],[0,1]],[[1850,2890]],[[1865,2876]],[[0,192],[10,-13],[341,-179]],[[1842,2899],[-4,0]],[[1803,2935],[-53,11]],[[40,2897],[-40,-11]],[[0,2852]],[[7,2778],[-7,-3]],[[0,2774],[8,4]],[[4,2776],[-4,-7]],[[0,2766]],[[0,2851],[8,-39]],[[3,2853],[-3,-1]],[[8,2812],[-3,26],[-5,14]],[[26,2767],[-26,-1]],[[0,2766],[5,10]],[[20,2850],[-17,3]],[[8,2811],[-1,-33]],[[7,2778],[1,0]],[[8,2778],[4,9],[2,12]],[[14,2799],[-5,12]],[[14,2801],[-1,-1]],[[14,2799],[-1,0]],[[13,2794],[21,15]],[[14,2801],[0,-2]],[[34,2809],[-20,-8]],[[20,2850],[5,-1]],[[25,2849],[12,21]],[[27,2767]],[[27,2767]],[[27,2767],[44,-9]],[[37,2812],[-3,-3]],[[37,2872],[0,-2]],[[38,2874],[-1,-2]],[[37,2872],[1,-1]],[[37,2870],[1,1]],[[37,2812],[1,1]],[[38,2872],[0,2]],[[47,2895],[-9,-21]],[[94,2810],[-56,3]],[[40,2897],[7,-2]],[[47,2897],[-7,0]],[[47,2897]],[[47,2895],[8,0]],[[55,2895],[-7,2]],[[55,2895],[68,1]],[[94,2810],[3,-1]],[[97,2809],[-3,1]],[[97,2809],[4,0]],[[101,2809],[-4,0]],[[101,2809],[5,0]],[[9,2812],[-1,0],[0,-1]],[[8,2811],[1,0],[0,1]],[[27,2768],[-1,0],[0,-1],[1,0],[0,1]],[[47,2897],[0,-1],[1,0],[-1,1]],[[97,2809]],[[97,2809]],[[1842,2900],[0,-1]],[[1845,2901],[-2,-1]],[[1843,2900],[-1,0],[0,-1],[1,0],[0,1]],[[1828,2902],[-78,44]],[[160,2698],[2,-71],[100,-67],[378,-136],[119,-14]],[[1843,2900],[2,1]],[[1843,2899],[7,-9]],[[1850,2890],[12,-12]],[[3695,2386],[-25,-4],[-57,10],[-23,10],[-3,13],[8,10],[14,-4],[13,-13],[14,-7],[26,-3],[33,-12]],[[0,0],[0,811],[125,6],[55,-16],[45,-35],[96,-105],[58,-42],[63,-37],[100,-36],[46,-11],[41,-3],[17,13],[15,-10],[69,-31],[15,-21],[31,-55],[72,-56],[217,-114],[66,-47],[52,-50],[21,-44],[27,-32],[192,-83],[15,29],[4,13],[1,21],[22,0],[8,-18],[30,-45],[0,-2],[-1503,0]],[[1948,2525],[-15,-14],[-34,5],[-16,13],[-61,131],[-14,53],[-5,55],[13,93],[2,60],[-15,61],[-45,67],[-54,33],[-141,22],[-65,19],[-55,38],[-19,49],[41,58],[-22,19],[13,35],[18,29],[28,18],[41,-1],[44,-23],[61,-81],[25,-18],[50,-12],[181,-88],[93,-13],[26,-9],[21,-14],[30,-28],[12,-27],[-33,-12],[-27,-32],[21,-156],[-5,-58],[-25,-19],[-54,-3],[-19,-18],[1,-27],[30,-76],[7,-29],[-5,-29],[-13,-38],[-16,-33]],[[0,2726],[0,279],[207,-50],[42,-26],[17,-38],[9,-61],[23,-36],[68,-57],[103,-106],[16,-28],[-26,-18],[-62,-12],[-72,-5],[-59,6],[-76,37],[-153,104],[-37,11]],[[1429,3261],[30,19],[25,73],[64,-3],[53,-34],[-10,-55],[9,1],[11,-8],[17,-4],[4,-1],[2,-1],[-81,-6],[-60,-50],[-48,16],[10,58],[-26,-5]],[[0,2725],[0,224],[44,-24],[80,-8],[-4,-87],[-80,-117],[-40,12]],[[1164,0],[0,179],[9,7],[153,-186],[-162,0]]]}