{"objects":{"water":{"type":"GeometryCollection","geometries":[]},"buildings":{"type":"GeometryCollection","geometries":[]},"places":{"type":"GeometryCollection","geometries":[{"type":"Point","properties":{"name:pt":"Terra Ad\u00e9lia","name:ro":"Teritoriul Ad\u00e9lie","name:id":"Daratan Ad\u00e9lie","name:ko":"\uc544\ub378\ub9ac\ub79c\ub4dc","name:ar":"\u0623\u0631\u0636 \u0623\u062f\u064a\u0644\u064a","name:cs":"Ad\u00e9lina zem\u011b","name:th":"\u0e2d\u0e32\u0e40\u0e14\u0e25\u0e35\u0e41\u0e25\u0e19\u0e14\u0e4c","name:it":"Terra Adelia","name:vi":"V\u00f9ng \u0111\u1ea5t Ad\u00e9lie","name:ru":"\u0417\u0435\u043c\u043b\u044f \u0410\u0434\u0435\u043b\u0438","name:pl":"Wybrze\u017ce Adeli","id":2604557728,"name:mk":"\u0410\u0434\u0435\u043b\u0438\u043d\u0430 \u0417\u0435\u043c\u0458\u0430","name:af":"Ad\u00e9lieland","name:fa":"\u0633\u0631\u0632\u0645\u06cc\u0646 \u0627\u062f\u0644\u06cc","kind_detail":"state","name:sh":"Adelina zemlja","name:de":"Adelieland","source":"openstreetmap.org","name:ca":"Terra Ad\u00e8lia","name:zh":"\u963f\u9edb\u5229\u5730","name:sl":"Adelijina zemlja","name:lv":"Adelijas Zeme","name:ja":"\u30a2\u30c7\u30ea\u30fc\u30e9\u30f3\u30c9","name:lt":"Adel\u0117s \u017eem\u0117","name:no":"Ad\u00e9lie Land","name:kk":"\u0410\u0434\u0435\u043b\u0438 \u0436\u0435\u0440\u0456","name:he":"\u05d0\u05e8\u05e5 \u05d0\u05d3\u05dc\u05d9","kind":"region","name:br":"Douar Ad\u00e9lie","name:ur":"\u0627\u062f\u06cc\u0644\u06cc \u0644\u06cc\u0646\u0688","name:sk":"Adelina Zem","name:uk":"\u0417\u0435\u043c\u043b\u044f \u0410\u0434\u0435\u043b\u0456","name:hy":"\u0531\u0564\u0565\u056c\u056b \u0565\u0580\u056f\u056b\u0580","name:sv":"Ad\u00e9lieland","name:su":"Daratan Ad\u00e9lie","name:hr":"Zemlja Ad\u00e9lie","name:sr":"\u0410\u0434\u0435\u043b\u0438\u043d\u0430 \u0437\u0435\u043c\u0459\u0430","name:oc":"T\u00e8rra d'Adelia","name":"Terre Ad\u00e9lie","name:el":"\u0391\u03b4\u03b5\u03bb\u03af\u03b1 \u0393\u03b7","name:eo":"Adelilando","name:en":"Ad\u00e9lie Land","name:uz":"Adeli yeri","min_zoom":4.0,"name:fi":"Ad\u00e9lienmaa","name:et":"Ad\u00e9lie maa","name:nl":"Ad\u00e9lieland","name:es":"Tierra Adelia"},"coordinates":[1672,1983]}]},"transit":{"type":"GeometryCollection","geometries":[]},"pois":{"type":"GeometryCollection","geometries":[]},"boundaries":{"type":"GeometryCollection","geometries":[]},"roads":{"type":"GeometryCollection","geometries":[]},"earth":{"type":"GeometryCollection","geometries":[{"type":"Polygon","properties":{"sort_rank":10,"source":"naturalearthdata.com","min_zoom":0.0,"kind":"earth","area":392091543542},"arcs":[[0]]}]},"landuse":{"type":"GeometryCollection","geometries":[]}},"type":"Topology","transform":{"translate":[137.8125,-69.657086273],"scale":[0.0006866455,0.0002442703]},"arcs":[[[4096,935],[0,-935],[-4096,0],[0,4096],[4096,0],[0,-3161]]]}