{"objects":{"water":{"type":"GeometryCollection","geometries":[{"type":"MultiPolygon","properties":{"source":"naturalearthdata.com","kind":"ocean","area":1576712559132672,"sort_rank":200,"min_zoom":0.0,"id":1},"arcs":[[[8],[9],[10],[11],[12],[13],[14],[15],[16],[17],[18],[19],[20],[21]]]},{"type":"LineString","properties":{"source":"naturalearthdata.com","kind":"ocean","sort_rank":205,"boundary":true,"min_zoom":0.0,"id":58},"arcs":[22]},{"type":"MultiLineString","properties":{"source":"naturalearthdata.com","kind":"ocean","sort_rank":205,"boundary":true,"min_zoom":0.0,"id":1795},"arcs":[[23],[24]]},{"type":"LineString","properties":{"source":"naturalearthdata.com","kind":"ocean","sort_rank":205,"boundary":true,"min_zoom":0.0,"id":3388},"arcs":[25]},{"type":"LineString","properties":{"source":"naturalearthdata.com","kind":"ocean","sort_rank":205,"boundary":true,"min_zoom":0.0,"id":3517},"arcs":[26]},{"type":"MultiLineString","properties":{"source":"naturalearthdata.com","kind":"ocean","sort_rank":205,"boundary":true,"min_zoom":0.0,"id":3521},"arcs":[[27],[28]]},{"type":"LineString","properties":{"source":"naturalearthdata.com","kind":"ocean","sort_rank":205,"boundary":true,"min_zoom":0.0,"id":3522},"arcs":[29]},{"type":"MultiLineString","properties":{"source":"naturalearthdata.com","kind":"ocean","sort_rank":205,"boundary":true,"min_zoom":0.0,"id":3524},"arcs":[[30],[31]]},{"type":"LineString","properties":{"source":"naturalearthdata.com","kind":"ocean","sort_rank":205,"boundary":true,"min_zoom":0.0,"id":3534},"arcs":[32]},{"type":"LineString","properties":{"source":"naturalearthdata.com","kind":"ocean","sort_rank":205,"boundary":true,"min_zoom":0.0,"id":3535},"arcs":[33]}]},"buildings":{"type":"GeometryCollection","geometries":[]},"places":{"type":"GeometryCollection","geometries":[{"type":"Point","properties":{"name:ia":"Jeju-do","name:pt":"Jeju","name:ro":"Insula Jeju","name:id":"Jeju","name:ms":"Jeju","name:cv":"\u0427\u0435\u0434\u0436\u0443","name:ar":"\u0645\u0642\u0627\u0637\u0639\u0629 \u062c\u064a\u062c\u0648","name:cs":"\u010ced\u017eu","name:io":"Jeju insulo","min_zoom":4.0,"alt_name:en":"Jeju Special Autonomous Province","name:it":"Jeju-do","name:ru":"\u0427\u0435\u0434\u0436\u0443\u0434\u043e","name:vi":"Jeju","name:pl":"Czed\u017cu","id":1900155946,"name:ca":"Jeju-do","name:fa":"\u062c\u062c\u0648-\u062f\u0648","name:bg":"\u0427\u0435\u0434\u0436\u0443-\u0434\u043e","name:lt":"\u010ced\u017eu","kind_detail":"state","name:da":"Jeju-do","name:de":"Jeju-do","source":"openstreetmap.org","name:fr":"Jeju","name:be":"\u0427\u044d\u0434\u0436\u0443\u0434\u0430","name:zh":"\u6d4e\u5dde\u5c9b","name:nl":"Jeju-do","name:ja":"\u6e08\u5dde\u7279\u5225\u81ea\u6cbb\u9053","short_name":"\uc81c\uc8fc","name:no":"Jeju","name:he":"\u05d2'\u05d2'\u05d5","kind":"region","name:bn":"\u099c\u09c7\u099c\u09c1 \u09a6\u09cd\u09ac\u09c0\u09aa","official_name":"\uc81c\uc8fc\ud2b9\ubcc4\uc790\uce58\ub3c4","name:uk":"\u041f\u0440\u043e\u0432\u0456\u043d\u0446\u0456\u044f \u0427\u0435\u0434\u0436\u0443","name:sw":"Jeju-do","name:sv":"Jeju","name:hu":"Csedzsu-sziget","name:hr":"Jeju","name:sr":"\u0427\u0435\u045f\u0443","name:eo":"Jeju-do","name:en":"Jeju-do","name":"\uc81c\uc8fc\ub3c4","name:th":"\u0e40\u0e01\u0e32\u0e30\u0e40\u0e0a\u0e08\u0e39","name:gl":"Jeju","name:fi":"Jeju","name:eu":"Jejudo","name:et":"Cheju provints","name:jv":"Jejudo","name:es":"Jeju"},"coordinates":[0,898]}]},"transit":{"type":"GeometryCollection","geometries":[]},"pois":{"type":"GeometryCollection","geometries":[]},"boundaries":{"type":"GeometryCollection","geometries":[{"type":"LineString","properties":{"name:ka":"\u10e1\u10d0\u10db\u10ee\u10e0\u10d4\u10d7\u10d8 \u10d9\u10dd\u10e0\u10d4\u10d0","name:tr":"G\u00fcney Kore","name:kn":"\u0ca6\u0c95\u0ccd\u0cb7\u0cbf\u0ca3 \u0c95\u0cca\u0cb0\u0cbf\u0caf\u0cbe","name:km":"\u1780\u17bc\u179a\u17c9\u17c1\u1781\u17b6\u1784\u178f\u17d2\u1794\u17bc\u1784","name:kl":"Korea Kujalleq","name:cs":"Ji\u017en\u00ed Korea","name:ki":"South Korea","name:kw":"Korea Dhyhow","name:kv":"\u041a\u043e\u0440\u0435\u044f \u0420\u0435\u0441\u043f\u0443\u0431\u043b\u0438\u043a\u0430","name:ku":"Kor\u00eaya Ba\u015f\u00fbr","name:ks":"\u0926\u0915\u094d\u0937\u093f\u0923 \u0915\u094b\u0930\u093f\u092f\u093e","name:tl":"Timog Korea","name:ce":"\u041a\u044a\u0438\u043b\u0431\u0435\u0440\u0430 \u041a\u043e\u0440\u0435\u0439","name:ta":"\u0ba4\u0bc6\u0ba9\u0bcd\u0b95\u0bca\u0bb0\u0bbf\u0baf\u0bbe","name:ca":"Corea del Sud","name:te":"\u0c26\u0c15\u0c4d\u0c37\u0c3f\u0c23 \u0c15\u0c4a\u0c30\u0c3f\u0c2f\u0c3e","name:cy":"De Corea","name:hr":"Ju\u017ena Koreja","name:da":"Sydkorea","name:de":"S\u00fcdkorea","name:dz":"\u0f63\u0fb7\u0f7c\u0f0b\u0f40\u0f7c\u0f0b\u0f62\u0f72\u0f0b\u0f61\u0f0b","source":"openstreetmap.org","name:dv":"\u078b\u07ac\u0786\u07aa\u0782\u07aa \u0786\u07ae\u0783\u07ac\u0787\u07a7","name:lv":"Dienvidkoreja","name:lt":"Piet\u0173 Kor\u0117ja","name:uz":"Janubiy Koreya","name:kk":"\u041e\u04a3\u0442\u04af\u0441\u0442\u0456\u043a \u041a\u043e\u0440\u0435\u044f","name:ur":"\u062c\u0646\u0648\u0628\u06cc \u06a9\u0648\u0631\u06cc\u0627","name:lb":"S\u00fcdkorea","name:la":"Corea Meridionalis","name:tt":"\u041a\u04e9\u043d\u044c\u044f\u043a \u041a\u043e\u0440\u0435\u044f","name:uk":"\u041f\u0456\u0432\u0434\u0435\u043d\u043d\u0430 \u041a\u043e\u0440\u0435\u044f","name:ug":"\u062c\u06d5\u0646\u06c7\u0628\u0649\u064a \u0686\u0627\u06cb\u0634\u064a\u06d5\u0646","name:li":"Zuud-Korea","name:ln":"Kore ya Sidi","name:lo":"\u0e9b\u0eb0\u0ec0\u0e97\u0e94\u0ec0\u0e81\u0ebb\u0eb2\u0eab\u0ebc\u0eb5\u0ec3\u0e95\u0ec9","name:el":"\u039d\u03cc\u03c4\u03b9\u03b1 \u039a\u03bf\u03c1\u03ad\u03b1","name:eo":"Sud-Koreujo","name:en":"South Korea","name":"\ub300\ud55c\ubbfc\uad6d","name:tk":"G\u00fcnorta Kore\u00fda","name:ee":"South Korea","name:th":"\u0e1b\u0e23\u0e30\u0e40\u0e17\u0e28\u0e40\u0e01\u0e32\u0e2b\u0e25\u0e35\u0e43\u0e15\u0e49","name:eu":"Hego Korea","name:et":"L\u00f5una-Korea","name:es":"Corea del Sur","name:ia":"Corea del Sud","name:rm":"Corea dal sid","name:az":"C\u0259nubi Koreya","name:ie":"Sud-Korea","name:id":"Korea Selatan","name:as":"\u09a6\u0995\u09cd\u09b7\u09bf\u09a3 \u0995\u09cb\u09f0\u09bf\u09af\u09bc\u09be","name:ar":"\u0643\u0648\u0631\u064a\u0627 \u0627\u0644\u062c\u0646\u0648\u0628\u064a\u0629","name:io":"Sud-Korea","name:ak":"Anaafo Koria","name:am":"\u12f0\u1261\u1265 \u12ae\u122d\u12eb","name:it":"Corea del Sud","name:an":"Corea d'o Sur","name:ru":"\u0420\u0435\u0441\u043f\u0443\u0431\u043b\u0438\u043a\u0430 \u041a\u043e\u0440\u0435\u044f","name:rw":"Koreya y\u2019Amajyepfo","name:af":"Suid-Korea","alt_name:ru":"\u042e\u0436\u043d\u0430\u044f \u041a\u043e\u0440\u0435\u044f","kind_detail":"2","name:za":"Hanzgoz","name:zh-yue":"\u5927\u97d3\u6c11\u570b","name:zh":"\u97e9\u56fd","name:so":"Koonfur Kuuriya","name:sn":"Korea, South","name:sm":"Kolea i Saute","name:sl":"Ju\u017ena Koreja","name:sk":"Ju\u017en\u00e1 K\u00f3rea","name:ja":"\u5927\u97d3\u6c11\u56fd","name:si":"\u0daf\u0d9a\u0dd4\u0dab\u0dd4 \u0d9a\u0ddc\u0dbb\u0dd2\u0dba\u0dcf\u0dc0","name:sh":"Ju\u017ena Koreja","name:sg":"Kor\u00ebe t\u00ee Mbongo","name:se":"M\u00e1tta-Korea","name:sc":"Corea de su Sud","name:sa":"\u0926\u0915\u094d\u0937\u093f\u0923 \u0915\u094b\u0930\u093f\u092f\u093e","name:bs":"Ju\u017ena Koreja","name:bn":"\u09a6\u0995\u09cd\u09b7\u09bf\u09a3 \u0995\u09cb\u09b0\u09bf\u09af\u09bc\u09be","name:bo":"\u0f63\u0fb7\u0f7c\u0f0b\u0f40\u0f7c\u0f0b\u0f62\u0f72\u0f0b\u0f61\u0f0d","name:br":"Korea ar Su","name:sw":"Korea Kusini","name:be":"\u041f\u0430\u045e\u0434\u043d\u0451\u0432\u0430\u044f \u041a\u0430\u0440\u044d\u044f","name:su":"Kor\u00e9a Kidul","name:bg":"\u042e\u0436\u043d\u0430 \u041a\u043e\u0440\u0435\u044f","name:ss":"IKhoriya leseNingizimu","name:ba":"\u041a\u04e9\u043d\u044c\u044f\u04a1 \u041a\u043e\u0440\u0435\u044f","name:sq":"Koreja e Jugut","name:jv":"Kor\u00e9a Kidul","name:bi":"Saot Koria","name:pt":"Coreia do Sul","name:ps":"\u0633\u0648\u06d0\u0644\u064a \u06a9\u0648\u0631\u064a\u0627","name:oc":"Cor\u00e8a del Sud","min_zoom":8.0,"name:ro":"Coreea de Sud","name:ko":"Daehan-minguk","name:zh-min-nan":"H\u00e2n-kok","name:os":"\u0425\u0443\u0441\u0441\u0430\u0440 \u041a\u043e\u0440\u0435\u0439","name:or":"\u0b26\u0b15\u0b4d\u0b37\u0b3f\u0b23 \u0b15\u0b4b\u0b30\u0b3f\u0b06","name:pl":"Korea Po\u0142udniowa","sort_rank":262,"name:sr":"\u0408\u0443\u0436\u043d\u0430 \u041a\u043e\u0440\u0435\u0458\u0430","osm_relation":true,"name:hi":"\u0926\u0915\u094d\u0937\u093f\u0923 \u0915\u094b\u0930\u093f\u092f\u093e","name:sv":"Sydkorea","name:he":"\u05e7\u05d5\u05e8\u05d9\u05d0\u05d4 \u05d4\u05d3\u05e8\u05d5\u05de\u05d9\u05ea","name:hy":"\u0540\u0561\u0580\u0561\u057e\u0561\u0575\u056b\u0576 \u053f\u0578\u0580\u0565\u0561","name:ht":"Kore disid","name:hu":"Koreai K\u00f6zt\u00e1rsas\u00e1g (D\u00e9l-Korea)","name:qu":"Urin Kuriya","kind":"country","name:is":"Su\u00f0ur-K\u00f3rea","name:yi":"\u05d3\u05e8\u05d5\u05dd \u05e7\u05d0\u05e8\u05e2\u05e2","name:yo":"K\u00f2r\u00e9\u00e0 G\u00fa\u00fas\u00f9","name:mt":"Korea t'Isfel","alt_name:eo":"Sud-Koreo;Sud-Koreio","alt_name:en":"Korea","name:ms":"Korea Selatan","name:mr":"\u0926\u0915\u094d\u0937\u093f\u0923 \u0915\u094b\u0930\u093f\u092f\u093e","name:my":"\u1010\u1031\u102c\u1004\u103a\u1000\u102d\u102f\u101b\u102e\u1038\u101a\u102c\u1038\u1014\u102d\u102f\u1004\u103a\u1004\u1036","name:mg":"Korea Atsimo","name:ml":"\u0d26\u0d15\u0d4d\u0d37\u0d3f\u0d23 \u0d15\u0d4a\u0d31\u0d3f\u0d2f","name:vi":"H\u00e0n Qu\u1ed1c","name:mn":"\u04e8\u043c\u043d\u04e9\u0434 \u0421\u043e\u043b\u043e\u043d\u0433\u043e\u0441","name:mi":"K\u014drea-ki-te-tonga","id":-307756,"name:mk":"\u0420\u0435\u043f\u0443\u0431\u043b\u0438\u043a\u0430 \u041a\u043e\u0440\u0435\u0458\u0430","name:vo":"Sul\u00fcda-Korey\u00e4n","name:fa":"\u06a9\u0631\u0647 \u062c\u0646\u0648\u0628\u06cc","name:fi":"Etel\u00e4-Korea","name:ky":"\u041a\u043e\u0440\u0435\u044f \u0420\u0435\u0441\u043f\u0443\u0431\u043b\u0438\u043a\u0430\u0441\u044b","name:fo":"Su\u00f0urkorea","alt_name:vi":"Nam H\u00e0n;Nam Tri\u1ec1u Ti\u00ean;\u0110\u1ea1i H\u00e0n","name:fr":"Cor\u00e9e du Sud","name:fy":"S\u00fad-Korea","name:nl":"Zuid-Korea","name:nn":"S\u00f8r-Korea","name:no":"S\u00f8r-Korea","name:na":"Ripubrikin Korea","name:ne":"\u0926\u0915\u094d\u0937\u093f\u0923 \u0915\u094b\u0930\u093f\u092f\u093e","name:wo":"Kore gu B\u00ebj-saalum","name:nv":"Kol\u00edya Bik\u00e9yah Sh\u00e1di\u02bc\u00e1\u00e1hj\u00ed Si\u02bc\u00e1n\u00edg\u00ed\u00ed","name:ga":"An Ch\u00f3ir\u00e9 Theas","name:gd":"Coirea a Deas","name:gn":"Yvykorea","name:gl":"Corea do Sur","name:gv":"Yn Chorea Yiass","name:gu":"\u0aa6\u0a95\u0acd\u0ab7\u0abf\u0aa3 \u0a95\u0acb\u0ab0\u0abf\u0aaf\u0abe"},"arcs":[0]},{"type":"MultiLineString","properties":{"name:ka":"\u10e1\u10d0\u10db\u10ee\u10e0\u10d4\u10d7\u10d8 \u10d9\u10dd\u10e0\u10d4\u10d0","name:tr":"G\u00fcney Kore","name:kn":"\u0ca6\u0c95\u0ccd\u0cb7\u0cbf\u0ca3 \u0c95\u0cca\u0cb0\u0cbf\u0caf\u0cbe","name:km":"\u1780\u17bc\u179a\u17c9\u17c1\u1781\u17b6\u1784\u178f\u17d2\u1794\u17bc\u1784","name:kl":"Korea Kujalleq","name:cs":"Ji\u017en\u00ed Korea","name:ki":"South Korea","name:kw":"Korea Dhyhow","name:kv":"\u041a\u043e\u0440\u0435\u044f \u0420\u0435\u0441\u043f\u0443\u0431\u043b\u0438\u043a\u0430","name:ku":"Kor\u00eaya Ba\u015f\u00fbr","name:ks":"\u0926\u0915\u094d\u0937\u093f\u0923 \u0915\u094b\u0930\u093f\u092f\u093e","name:tl":"Timog Korea","name:ce":"\u041a\u044a\u0438\u043b\u0431\u0435\u0440\u0430 \u041a\u043e\u0440\u0435\u0439","name:ta":"\u0ba4\u0bc6\u0ba9\u0bcd\u0b95\u0bca\u0bb0\u0bbf\u0baf\u0bbe","name:ca":"Corea del Sud","name:te":"\u0c26\u0c15\u0c4d\u0c37\u0c3f\u0c23 \u0c15\u0c4a\u0c30\u0c3f\u0c2f\u0c3e","name:cy":"De Corea","name:qu":"Urin Kuriya","name:da":"Sydkorea","name:de":"S\u00fcdkorea","name:dz":"\u0f63\u0fb7\u0f7c\u0f0b\u0f40\u0f7c\u0f0b\u0f62\u0f72\u0f0b\u0f61\u0f0b","source":"openstreetmap.org","name:dv":"\u078b\u07ac\u0786\u07aa\u0782\u07aa \u0786\u07ae\u0783\u07ac\u0787\u07a7","name:lv":"Dienvidkoreja","name:lt":"Piet\u0173 Kor\u0117ja","name:uz":"Janubiy Koreya","name:kk":"\u041e\u04a3\u0442\u04af\u0441\u0442\u0456\u043a \u041a\u043e\u0440\u0435\u044f","name:ur":"\u062c\u0646\u0648\u0628\u06cc \u06a9\u0648\u0631\u06cc\u0627","name:lb":"S\u00fcdkorea","name:la":"Corea Meridionalis","name:tt":"\u041a\u04e9\u043d\u044c\u044f\u043a \u041a\u043e\u0440\u0435\u044f","name:uk":"\u041f\u0456\u0432\u0434\u0435\u043d\u043d\u0430 \u041a\u043e\u0440\u0435\u044f","name:ug":"\u062c\u06d5\u0646\u06c7\u0628\u0649\u064a \u0686\u0627\u06cb\u0634\u064a\u06d5\u0646","name:li":"Zuud-Korea","name:ln":"Kore ya Sidi","name:lo":"\u0e9b\u0eb0\u0ec0\u0e97\u0e94\u0ec0\u0e81\u0ebb\u0eb2\u0eab\u0ebc\u0eb5\u0ec3\u0e95\u0ec9","name:el":"\u039d\u03cc\u03c4\u03b9\u03b1 \u039a\u03bf\u03c1\u03ad\u03b1","name:eo":"Sud-Koreujo","name:en":"South Korea","name":"\ub300\ud55c\ubbfc\uad6d","name:tk":"G\u00fcnorta Kore\u00fda","name:ee":"South Korea","name:th":"\u0e1b\u0e23\u0e30\u0e40\u0e17\u0e28\u0e40\u0e01\u0e32\u0e2b\u0e25\u0e35\u0e43\u0e15\u0e49","name:eu":"Hego Korea","name:et":"L\u00f5una-Korea","name:es":"Corea del Sur","name:ia":"Corea del Sud","name:rm":"Corea dal sid","name:az":"C\u0259nubi Koreya","name:ie":"Sud-Korea","name:id":"Korea Selatan","name:as":"\u09a6\u0995\u09cd\u09b7\u09bf\u09a3 \u0995\u09cb\u09f0\u09bf\u09af\u09bc\u09be","name:ar":"\u0643\u0648\u0631\u064a\u0627 \u0627\u0644\u062c\u0646\u0648\u0628\u064a\u0629","name:io":"Sud-Korea","name:ak":"Anaafo Koria","name:am":"\u12f0\u1261\u1265 \u12ae\u122d\u12eb","name:it":"Corea del Sud","name:an":"Corea d'o Sur","name:ru":"\u0420\u0435\u0441\u043f\u0443\u0431\u043b\u0438\u043a\u0430 \u041a\u043e\u0440\u0435\u044f","name:rw":"Koreya y\u2019Amajyepfo","name:af":"Suid-Korea","alt_name:ru":"\u042e\u0436\u043d\u0430\u044f \u041a\u043e\u0440\u0435\u044f","kind_detail":"2","name:za":"Hanzgoz","name:zh-yue":"\u5927\u97d3\u6c11\u570b","name:zh":"\u97e9\u56fd","name:so":"Koonfur Kuuriya","name:sn":"Korea, South","name:sm":"Kolea i Saute","name:sl":"Ju\u017ena Koreja","name:sk":"Ju\u017en\u00e1 K\u00f3rea","name:ja":"\u5927\u97d3\u6c11\u56fd","name:si":"\u0daf\u0d9a\u0dd4\u0dab\u0dd4 \u0d9a\u0ddc\u0dbb\u0dd2\u0dba\u0dcf\u0dc0","name:sh":"Ju\u017ena Koreja","name:sg":"Kor\u00ebe t\u00ee Mbongo","name:se":"M\u00e1tta-Korea","name:sc":"Corea de su Sud","name:sa":"\u0926\u0915\u094d\u0937\u093f\u0923 \u0915\u094b\u0930\u093f\u092f\u093e","name:bs":"Ju\u017ena Koreja","name:bn":"\u09a6\u0995\u09cd\u09b7\u09bf\u09a3 \u0995\u09cb\u09b0\u09bf\u09af\u09bc\u09be","name:bo":"\u0f63\u0fb7\u0f7c\u0f0b\u0f40\u0f7c\u0f0b\u0f62\u0f72\u0f0b\u0f61\u0f0d","name:br":"Korea ar Su","name:sw":"Korea Kusini","name:be":"\u041f\u0430\u045e\u0434\u043d\u0451\u0432\u0430\u044f \u041a\u0430\u0440\u044d\u044f","name:su":"Kor\u00e9a Kidul","name:bg":"\u042e\u0436\u043d\u0430 \u041a\u043e\u0440\u0435\u044f","name:ss":"IKhoriya leseNingizimu","name:ba":"\u041a\u04e9\u043d\u044c\u044f\u04a1 \u041a\u043e\u0440\u0435\u044f","name:sq":"Koreja e Jugut","name:jv":"Kor\u00e9a Kidul","name:bi":"Saot Koria","name:pt":"Coreia do Sul","name:ps":"\u0633\u0648\u06d0\u0644\u064a \u06a9\u0648\u0631\u064a\u0627","name:oc":"Cor\u00e8a del Sud","min_zoom":8.0,"name:ro":"Coreea de Sud","name:ko":"Daehan-minguk","name:zh-min-nan":"H\u00e2n-kok","name:os":"\u0425\u0443\u0441\u0441\u0430\u0440 \u041a\u043e\u0440\u0435\u0439","name:or":"\u0b26\u0b15\u0b4d\u0b37\u0b3f\u0b23 \u0b15\u0b4b\u0b30\u0b3f\u0b06","name:pl":"Korea Po\u0142udniowa","sort_rank":262,"name:sr":"\u0408\u0443\u0436\u043d\u0430 \u041a\u043e\u0440\u0435\u0458\u0430","osm_relation":true,"name:hi":"\u0926\u0915\u094d\u0937\u093f\u0923 \u0915\u094b\u0930\u093f\u092f\u093e","name:sv":"Sydkorea","name:he":"\u05e7\u05d5\u05e8\u05d9\u05d0\u05d4 \u05d4\u05d3\u05e8\u05d5\u05de\u05d9\u05ea","name:hy":"\u0540\u0561\u0580\u0561\u057e\u0561\u0575\u056b\u0576 \u053f\u0578\u0580\u0565\u0561","name:ht":"Kore disid","name:hu":"Koreai K\u00f6zt\u00e1rsas\u00e1g (D\u00e9l-Korea)","name:hr":"Ju\u017ena Koreja","kind":"country","name:is":"Su\u00f0ur-K\u00f3rea","name:yi":"\u05d3\u05e8\u05d5\u05dd \u05e7\u05d0\u05e8\u05e2\u05e2","name:yo":"K\u00f2r\u00e9\u00e0 G\u00fa\u00fas\u00f9","name:mt":"Korea t'Isfel","alt_name:eo":"Sud-Koreo;Sud-Koreio","alt_name:en":"Korea","name:ms":"Korea Selatan","name:mr":"\u0926\u0915\u094d\u0937\u093f\u0923 \u0915\u094b\u0930\u093f\u092f\u093e","name:my":"\u1010\u1031\u102c\u1004\u103a\u1000\u102d\u102f\u101b\u102e\u1038\u101a\u102c\u1038\u1014\u102d\u102f\u1004\u103a\u1004\u1036","name:mg":"Korea Atsimo","name:vi":"H\u00e0n Qu\u1ed1c","name:ml":"\u0d26\u0d15\u0d4d\u0d37\u0d3f\u0d23 \u0d15\u0d4a\u0d31\u0d3f\u0d2f","name:mn":"\u04e8\u043c\u043d\u04e9\u0434 \u0421\u043e\u043b\u043e\u043d\u0433\u043e\u0441","name:mi":"K\u014drea-ki-te-tonga","id":-307756,"name:mk":"\u0420\u0435\u043f\u0443\u0431\u043b\u0438\u043a\u0430 \u041a\u043e\u0440\u0435\u0458\u0430","name:vo":"Sul\u00fcda-Korey\u00e4n","name:fa":"\u06a9\u0631\u0647 \u062c\u0646\u0648\u0628\u06cc","name:fi":"Etel\u00e4-Korea","name:ky":"\u041a\u043e\u0440\u0435\u044f \u0420\u0435\u0441\u043f\u0443\u0431\u043b\u0438\u043a\u0430\u0441\u044b","name:fo":"Su\u00f0urkorea","alt_name:vi":"Nam H\u00e0n;Nam Tri\u1ec1u Ti\u00ean;\u0110\u1ea1i H\u00e0n","name:fr":"Cor\u00e9e du Sud","name:fy":"S\u00fad-Korea","name:nl":"Zuid-Korea","name:nn":"S\u00f8r-Korea","name:no":"S\u00f8r-Korea","name:na":"Ripubrikin Korea","name:ne":"\u0926\u0915\u094d\u0937\u093f\u0923 \u0915\u094b\u0930\u093f\u092f\u093e","name:wo":"Kore gu B\u00ebj-saalum","name:nv":"Kol\u00edya Bik\u00e9yah Sh\u00e1di\u02bc\u00e1\u00e1hj\u00ed Si\u02bc\u00e1n\u00edg\u00ed\u00ed","name:ga":"An Ch\u00f3ir\u00e9 Theas","name:gd":"Coirea a Deas","name:gn":"Yvykorea","name:gl":"Corea do Sur","maritime_boundary":true,"name:gv":"Yn Chorea Yiass","name:gu":"\u0aa6\u0a95\u0acd\u0ab7\u0abf\u0aa3 \u0a95\u0acb\u0ab0\u0abf\u0aaf\u0abe"},"arcs":[[1],[2]]},{"type":"LineString","properties":{"alt_name:left:en":"Jeju Special Autonomous Province","name:right:uk":"\u041f\u0456\u0432\u0434\u0435\u043d\u043d\u0430 \u043f\u0440\u043e\u0432\u0456\u043d\u0446\u0456\u044f \u0427\u043e\u043b\u043b\u0430","name:left:he":"\u05d2'\u05d2'\u05d5","name:left:sw":"Jeju-do","name:left:sv":"Jeju","name:left:sr":"\u0427\u0435\u045f\u0443","name:right:lt":"Piet\u0173 D\u017eolos provincija","min_zoom":8.0,"name:left:lt":"\u010ced\u017eu","name:left:hu":"Csedzsu-sziget","name:left:hr":"Jeju","short_name:left":"\uc81c\uc8fc","name:left:it":"Jeju-do","sort_rank":256,"name:left:ca":"Jeju-do","name:left:gl":"Jeju","source":"openstreetmap.org","name:left:cv":"\u0427\u0435\u0434\u0436\u0443","name:left:cs":"\u010ced\u017eu","name:left":"\uc81c\uc8fc\ud2b9\ubcc4\uc790\uce58\ub3c4","name:right:es":"Jeolla del Sur","name:right:mn":"\u04e8\u043c\u043d\u04e9\u0434 \u0427\u043e\u043b\u043b\u0430","name:right:et":"L\u00f5una-Ch\u014flla provints","name:left:ko":"\uc81c\uc8fc\ub3c4","name:right:it":"Sud Jeolla","name:left:ro":"Insula Jeju","name:right:vi":"Jeolla Nam","name:left:ru":"\u0427\u0435\u0434\u0436\u0443\u0434\u043e","name:right:ms":"Jeolla Selatan","name:right:id":"Jeolla Selatan","name:right:en":"Jeollanam-do","name:left:vi":"Jeju (t\u1ec9nh)","kind":"region","name":"\uc81c\uc8fc\ud2b9\ubcc4\uc790\uce58\ub3c4 - \uc804\ub77c\ub0a8\ub3c4","name:left:fa":"\u062c\u062c\u0648-\u062f\u0648","name:right:fa":"\u062c\u0626\u0648\u0644\u0627\u0646\u0627\u0645-\u062f\u0648","name:right:bg":"\u0427\u044a\u043b\u0430-\u041d\u0430\u043c\u0434\u043e","name:left:fi":"Jeju","name:left:fr":"Jeju","name:left:da":"Jeju-do","name:right:zh":"\u5168\u7f85\u5357\u9053","name:right:no":"S\u00f8r-Jeolla","name:right:nl":"Jeollanam-do","name:right:ja":"\u5168\u7f85\u5357\u9053","name:right:fr":"Jeolla du Sud","name:left:ja":"\u6e08\u5dde\u9053","name:right:sw":"Jeollanam-do","name:right:sv":"Sydjeolla","name:left:uk":"\u041f\u0440\u043e\u0432\u0456\u043d\u0446\u0456\u044f \u0427\u0435\u0434\u0436\u0443","name:left:no":"Jeju","name:left:nl":"Jeju-do","name:left:bg":"\u0427\u0435\u0434\u0436\u0443-\u0434\u043e","name:left:be":"\u0427\u044d\u0434\u0436\u0443\u0434\u0430","name:left:bn":"\u099c\u09c7\u099c\u09c1 \u09a6\u09cd\u09ac\u09c0\u09aa","id":-2398560,"name:right":"\uc804\ub77c\ub0a8\ub3c4","name:left:eo":"Jeju-do","name:left:en":"Jeju-do","name:right:ca":"Jeollanam-do","name:left:jv":"Jejudo","id:left":-2398560,"name:left:es":"Jeju","name:right:fi":"Etel\u00e4-Jeolla","id:right":-2398104,"name:left:eu":"Jejudo","name:left:et":"Cheju provints","name:left:io":"Jeju insulo","name:right:pt":"Jeolla do Sul","name:left:ar":"\u0645\u0642\u0627\u0637\u0639\u0629 \u062c\u064a\u062c\u0648","name:left:pl":"Czed\u017cu","name:left:id":"Jeju","name:right:ko":"Jeollanam-do","name:left:pt":"Jeju","name:right:th":"\u0e08\u0e31\u0e07\u0e2b\u0e27\u0e31\u0e14\u0e08\u0e47\u0e2d\u0e25\u0e25\u0e32\u0e43\u0e15\u0e49","name:left:ia":"Jeju-do","name:right:ru":"\u0427\u043e\u043b\u043b\u0430-\u041d\u0430\u043c\u0434\u043e","name:right:pl":"Jeolla Po\u0142udniowa","osm_relation":true,"name:left:th":"\u0e40\u0e01\u0e32\u0e30\u0e40\u0e0a\u0e08\u0e39","name:right:de":"Jeollanam-do","name:left:ms":"Jeju","name:left:de":"Jeju-do","kind_detail":"4"},"arcs":[3]},{"type":"LineString","properties":{"name:ia":"Jeju-do","name:pt":"Jeju","name:ro":"Insula Jeju","name:id":"Jeju","name:ms":"Jeju","name:ko":"\uc81c\uc8fc\ub3c4","name:cv":"\u0427\u0435\u0434\u0436\u0443","name:ar":"\u0645\u0642\u0627\u0637\u0639\u0629 \u062c\u064a\u062c\u0648","name:cs":"\u010ced\u017eu","name:io":"Jeju insulo","min_zoom":8.0,"alt_name:en":"Jeju Special Autonomous Province","name:it":"Jeju-do","name:ru":"\u0427\u0435\u0434\u0436\u0443\u0434\u043e","name:vi":"Jeju (t\u1ec9nh)","name:pl":"Czed\u017cu","id":-2398560,"name:ca":"Jeju-do","name:fa":"\u062c\u062c\u0648-\u062f\u0648","name:bg":"\u0427\u0435\u0434\u0436\u0443-\u0434\u043e","name:lt":"\u010ced\u017eu","sort_rank":256,"kind_detail":"4","name:da":"Jeju-do","name:de":"Jeju-do","source":"openstreetmap.org","name:fr":"Jeju","name:be":"\u0427\u044d\u0434\u0436\u0443\u0434\u0430","name:nl":"Jeju-do","name:ja":"\u6e08\u5dde\u9053","short_name":"\uc81c\uc8fc","name:no":"Jeju","name:he":"\u05d2'\u05d2'\u05d5","kind":"region","name:bn":"\u099c\u09c7\u099c\u09c1 \u09a6\u09cd\u09ac\u09c0\u09aa","name:uk":"\u041f\u0440\u043e\u0432\u0456\u043d\u0446\u0456\u044f \u0427\u0435\u0434\u0436\u0443","name:sw":"Jeju-do","name:sv":"Jeju","name:hu":"Csedzsu-sziget","name:hr":"Jeju","name:sr":"\u0427\u0435\u045f\u0443","osm_relation":true,"name:eo":"Jeju-do","name:en":"Jeju-do","name":"\uc81c\uc8fc\ud2b9\ubcc4\uc790\uce58\ub3c4","name:th":"\u0e40\u0e01\u0e32\u0e30\u0e40\u0e0a\u0e08\u0e39","name:gl":"Jeju","name:fi":"Jeju","name:eu":"Jejudo","name:et":"Cheju provints","name:jv":"Jejudo","name:es":"Jeju"},"arcs":[4]},{"type":"LineString","properties":{"name:ia":"Jeju-do","name:pt":"Jeju","name:ro":"Insula Jeju","name:id":"Jeju","name:ms":"Jeju","name:ko":"\uc81c\uc8fc\ub3c4","name:cv":"\u0427\u0435\u0434\u0436\u0443","name:ar":"\u0645\u0642\u0627\u0637\u0639\u0629 \u062c\u064a\u062c\u0648","name:cs":"\u010ced\u017eu","name:io":"Jeju insulo","min_zoom":8.0,"alt_name:en":"Jeju Special Autonomous Province","name:it":"Jeju-do","name:vi":"Jeju (t\u1ec9nh)","name:ru":"\u0427\u0435\u0434\u0436\u0443\u0434\u043e","name:pl":"Czed\u017cu","id":-2398560,"name:ca":"Jeju-do","name:fa":"\u062c\u062c\u0648-\u062f\u0648","name:hu":"Csedzsu-sziget","short_name":"\uc81c\uc8fc","sort_rank":256,"kind_detail":"4","name:da":"Jeju-do","name:de":"Jeju-do","source":"openstreetmap.org","name:fr":"Jeju","name:nl":"Jeju-do","name:ja":"\u6e08\u5dde\u9053","name:lt":"\u010ced\u017eu","name:no":"Jeju","name:sv":"Jeju","name:he":"\u05d2'\u05d2'\u05d5","name:eo":"Jeju-do","name:bn":"\u099c\u09c7\u099c\u09c1 \u09a6\u09cd\u09ac\u09c0\u09aa","name:uk":"\u041f\u0440\u043e\u0432\u0456\u043d\u0446\u0456\u044f \u0427\u0435\u0434\u0436\u0443","name:sw":"Jeju-do","name:be":"\u0427\u044d\u0434\u0436\u0443\u0434\u0430","name:bg":"\u0427\u0435\u0434\u0436\u0443-\u0434\u043e","name:hr":"Jeju","name:sr":"\u0427\u0435\u045f\u0443","osm_relation":true,"kind":"region","name:en":"Jeju-do","name":"\uc81c\uc8fc\ud2b9\ubcc4\uc790\uce58\ub3c4","name:th":"\u0e40\u0e01\u0e32\u0e30\u0e40\u0e0a\u0e08\u0e39","name:gl":"Jeju","maritime_boundary":true,"name:fi":"Jeju","name:eu":"Jejudo","name:et":"Cheju provints","name:jv":"Jejudo","name:es":"Jeju"},"arcs":[5]},{"type":"LineString","properties":{"name:pt":"Jeolla do Sul","name:id":"Jeolla Selatan","name:ms":"Jeolla Selatan","name:ko":"Jeollanam-do","name:th":"\u0e08\u0e31\u0e07\u0e2b\u0e27\u0e31\u0e14\u0e08\u0e47\u0e2d\u0e25\u0e25\u0e32\u0e43\u0e15\u0e49","name:it":"Sud Jeolla","name:ru":"\u0427\u043e\u043b\u043b\u0430-\u041d\u0430\u043c\u0434\u043e","name:vi":"Jeolla Nam","name:pl":"Jeolla Po\u0142udniowa","name:mn":"\u04e8\u043c\u043d\u04e9\u0434 \u0427\u043e\u043b\u043b\u0430","id":-2398104,"name:ca":"Jeollanam-do","name:fa":"\u062c\u0626\u0648\u0644\u0627\u0646\u0627\u0645-\u062f\u0648","sort_rank":256,"kind_detail":"4","name:de":"Jeollanam-do","source":"openstreetmap.org","name:fr":"Jeolla du Sud","name:zh":"\u5168\u7f85\u5357\u9053","name:nl":"Jeollanam-do","name:ja":"\u5168\u7f85\u5357\u9053","name:lt":"Piet\u0173 D\u017eolos provincija","name:no":"S\u00f8r-Jeolla","name:uk":"\u041f\u0456\u0432\u0434\u0435\u043d\u043d\u0430 \u043f\u0440\u043e\u0432\u0456\u043d\u0446\u0456\u044f \u0427\u043e\u043b\u043b\u0430","name:sw":"Jeollanam-do","name:sv":"Sydjeolla","name:bg":"\u0427\u044a\u043b\u0430-\u041d\u0430\u043c\u0434\u043e","osm_relation":true,"kind":"region","name:en":"Jeollanam-do","name":"\uc804\ub77c\ub0a8\ub3c4","min_zoom":8.0,"name:fi":"Etel\u00e4-Jeolla","name:et":"L\u00f5una-Ch\u014flla provints","name:es":"Jeolla del Sur"},"arcs":[6]},{"type":"LineString","properties":{"name:pt":"Jeolla do Sul","name:id":"Jeolla Selatan","name:ms":"Jeolla Selatan","name:ko":"Jeollanam-do","name:th":"\u0e08\u0e31\u0e07\u0e2b\u0e27\u0e31\u0e14\u0e08\u0e47\u0e2d\u0e25\u0e25\u0e32\u0e43\u0e15\u0e49","name:it":"Sud Jeolla","name:vi":"Jeolla Nam","name:ru":"\u0427\u043e\u043b\u043b\u0430-\u041d\u0430\u043c\u0434\u043e","name:pl":"Jeolla Po\u0142udniowa","name:mn":"\u04e8\u043c\u043d\u04e9\u0434 \u0427\u043e\u043b\u043b\u0430","id":-2398104,"name:ca":"Jeollanam-do","name:fa":"\u062c\u0626\u0648\u0644\u0627\u0646\u0627\u0645-\u062f\u0648","sort_rank":256,"kind_detail":"4","name:de":"Jeollanam-do","source":"openstreetmap.org","name:fr":"Jeolla du Sud","name:zh":"\u5168\u7f85\u5357\u9053","name:nl":"Jeollanam-do","name:ja":"\u5168\u7f85\u5357\u9053","name:lt":"Piet\u0173 D\u017eolos provincija","name:no":"S\u00f8r-Jeolla","name:uk":"\u041f\u0456\u0432\u0434\u0435\u043d\u043d\u0430 \u043f\u0440\u043e\u0432\u0456\u043d\u0446\u0456\u044f \u0427\u043e\u043b\u043b\u0430","name:sw":"Jeollanam-do","name:sv":"Sydjeolla","name:bg":"\u0427\u044a\u043b\u0430-\u041d\u0430\u043c\u0434\u043e","osm_relation":true,"kind":"region","name:en":"Jeollanam-do","name":"\uc804\ub77c\ub0a8\ub3c4","min_zoom":8.0,"maritime_boundary":true,"name:fi":"Etel\u00e4-Jeolla","name:et":"L\u00f5una-Ch\u014flla provints","name:es":"Jeolla del Sur"},"arcs":[7]}]},"roads":{"type":"GeometryCollection","geometries":[{"type":"MultiLineString","properties":{"sort_rank":380,"kind_detail":"primary","min_zoom":8.0,"kind":"major_road","source":"openstreetmap.org"},"arcs":[[34],[35],[36],[37],[38],[39],[40],[41],[42],[43]]},{"type":"LineString","properties":{"sort_rank":381,"source":"openstreetmap.org","min_zoom":8.0,"kind":"major_road","kind_detail":"trunk"},"arcs":[44]},{"type":"MultiLineString","properties":{"source":"openstreetmap.org","kind":"major_road","landuse_kind":"urban_area","sort_rank":380,"kind_detail":"primary","ref":"1132","min_zoom":8.0},"arcs":[[45],[46],[47],[48],[49],[50],[51],[52],[53],[54],[55],[56],[57],[58],[59],[60]]},{"type":"MultiLineString","properties":{"source":"openstreetmap.org","kind":"major_road","landuse_kind":"park","sort_rank":380,"kind_detail":"primary","ref":"1131","min_zoom":8.0},"arcs":[[61],[62],[63],[64]]},{"type":"MultiLineString","properties":{"source":"openstreetmap.org","kind":"major_road","kind_detail":"trunk","sort_rank":381,"landuse_kind":"urban_area","ref":"97","min_zoom":8.0},"arcs":[[65],[66]]},{"type":"LineString","properties":{"source":"openstreetmap.org","kind":"ferry","name":"\ud55c\uc77c\uace0\uc18d (\uc644\ub3c4-\uc81c\uc8fc)","sort_rank":355,"min_zoom":8.0,"id":362218349},"arcs":[67]},{"type":"MultiLineString","properties":{"source":"openstreetmap.org","kind":"major_road","sort_rank":380,"kind_detail":"primary","ref":"16","min_zoom":8.0},"arcs":[[68],[69],[70]]},{"type":"LineString","properties":{"cycleway_right":"track","sort_rank":380,"kind_detail":"primary","is_bicycle_related":true,"kind":"major_road","source":"openstreetmap.org","min_zoom":8.0,"ref":"1132","id":292679216},"arcs":[71]},{"type":"MultiLineString","properties":{"source":"openstreetmap.org","kind":"major_road","sort_rank":380,"kind_detail":"primary","ref":"1112","min_zoom":8.0},"arcs":[[72],[73],[74],[75],[76],[77],[78],[79],[80],[81]]},{"type":"MultiLineString","properties":{"source":"openstreetmap.org","kind":"major_road","sort_rank":380,"kind_detail":"primary","ref":"1136","min_zoom":8.0},"arcs":[[82],[83],[84],[85],[86],[87],[88],[89],[90],[91],[92],[93],[94],[95],[96],[97],[98],[99],[100],[101],[102],[103],[104],[105],[106],[107],[108],[109],[110],[111],[112],[113],[114],[115],[116],[117],[118],[119],[120],[121],[122],[123],[124],[125]]},{"type":"MultiLineString","properties":{"source":"openstreetmap.org","kind":"major_road","sort_rank":380,"kind_detail":"primary","ref":"1118","min_zoom":8.0},"arcs":[[126],[127],[128],[129],[130]]},{"type":"LineString","properties":{"kind":"major_road","sort_rank":380,"landuse_kind":"park","source":"openstreetmap.org","min_zoom":8.0,"kind_detail":"primary","ref":"1112","id":392333231},"arcs":[131]},{"type":"MultiLineString","properties":{"source":"openstreetmap.org","kind":"major_road","landuse_kind":"urban_area","sort_rank":380,"kind_detail":"primary","min_zoom":8.0},"arcs":[[132],[133],[134],[135],[136],[137]]},{"type":"LineString","properties":{"sort_rank":355,"source":"openstreetmap.org","min_zoom":8.0,"kind":"ferry"},"arcs":[138]},{"type":"MultiLineString","properties":{"source":"openstreetmap.org","kind":"major_road","landuse_kind":"urban_area","sort_rank":380,"kind_detail":"primary","ref":"1131","min_zoom":8.0},"arcs":[[139],[140]]},{"type":"LineString","properties":{"source":"openstreetmap.org","kind":"ferry","name":"\ubd80\uc0b0-\uc81c\uc8fc","sort_rank":355,"is_bicycle_related":true,"min_zoom":8.0},"arcs":[141]},{"type":"LineString","properties":{"kind":"major_road","sort_rank":380,"kind_detail":"primary","is_bicycle_related":true,"cycleway":"track","source":"openstreetmap.org","min_zoom":8.0,"ref":"1132","id":37381532},"arcs":[142]},{"type":"LineString","properties":{"source":"openstreetmap.org","kind":"ferry","name":"\uccad\uc0b0\ub3c4-\uc5b4\uc11c\ub3c4","sort_rank":355,"landuse_kind":"park","min_zoom":8.0,"id":455363824},"arcs":[143]},{"type":"LineString","properties":{"kind":"major_road","sort_rank":380,"landuse_kind":"park","source":"openstreetmap.org","min_zoom":8.0,"kind_detail":"primary","ref":"11","id":199546956},"arcs":[144]},{"type":"LineString","properties":{"source":"openstreetmap.org","kind":"ferry","name":"\ub098\ub85c\ub3c4 - \uc190\uc8fd\ub3c4","sort_rank":355,"min_zoom":8.0,"id":480415373},"arcs":[145]},{"type":"MultiLineString","properties":{"source":"openstreetmap.org","kind":"major_road","landuse_kind":"urban_area","sort_rank":380,"kind_detail":"primary","ref":"1136","min_zoom":8.0},"arcs":[[146],[147],[148],[149],[150],[151],[152],[153]]},{"type":"MultiLineString","properties":{"source":"openstreetmap.org","kind":"major_road","sort_rank":380,"kind_detail":"primary","ref":"77","min_zoom":8.0,"id":37395461},"arcs":[[154],[155]]},{"type":"MultiLineString","properties":{"source":"openstreetmap.org","kind":"major_road","sort_rank":380,"kind_detail":"primary","ref":"1131","min_zoom":8.0},"arcs":[[156],[157],[158],[159],[160],[161],[162],[163],[164],[165],[166]]},{"type":"MultiLineString","properties":{"source":"openstreetmap.org","kind":"major_road","sort_rank":380,"kind_detail":"primary","ref":"1119","min_zoom":8.0},"arcs":[[167],[168],[169],[170],[171],[172],[173]]},{"type":"MultiLineString","properties":{"source":"openstreetmap.org","kind":"major_road","sort_rank":380,"kind_detail":"primary","ref":"12","min_zoom":8.0},"arcs":[[174],[175],[176],[177],[178]]},{"type":"MultiLineString","properties":{"source":"openstreetmap.org","kind":"major_road","sort_rank":380,"kind_detail":"primary","ref":"11","min_zoom":8.0},"arcs":[[179],[180],[181]]},{"type":"LineString","properties":{"source":"openstreetmap.org","kind":"major_road","landuse_kind":"urban_area","sort_rank":380,"kind_detail":"primary","ref":"16","min_zoom":8.0},"arcs":[182]},{"type":"LineString","properties":{"source":"openstreetmap.org","kind":"ferry","name":"\ud55c\uc77c\uace0\uc18d (\uc644\ub3c4-\uc81c\uc8fc)","sort_rank":355,"landuse_kind":"park","min_zoom":8.0,"id":362218349},"arcs":[183]},{"type":"LineString","properties":{"source":"openstreetmap.org","kind":"ferry","name":"\uccad\uc0b0\ub3c4-\uc5b4\uc11c\ub3c4","sort_rank":355,"min_zoom":8.0,"id":455363824},"arcs":[184]},{"type":"LineString","properties":{"source":"openstreetmap.org","kind":"major_road","landuse_kind":"park","sort_rank":380,"kind_detail":"primary","min_zoom":8.0,"id":469364858},"arcs":[185]},{"type":"LineString","properties":{"source":"openstreetmap.org","kind":"ferry","sort_rank":355,"landuse_kind":"park","min_zoom":8.0,"id":534738999},"arcs":[186]},{"type":"MultiLineString","properties":{"source":"openstreetmap.org","kind":"major_road","sort_rank":381,"kind_detail":"trunk","ref":"97","min_zoom":8.0},"arcs":[[187],[188],[189],[190],[191],[192],[193],[194],[195],[196],[197]]},{"type":"MultiLineString","properties":{"source":"openstreetmap.org","kind":"major_road","sort_rank":380,"kind_detail":"primary","ref":"1132","min_zoom":8.0},"arcs":[[198],[199],[200],[201],[202],[203],[204],[205],[206],[207],[208],[209],[210],[211],[212],[213],[214],[215]]},{"type":"LineString","properties":{"kind":"major_road","sort_rank":380,"kind_detail":"primary","is_bicycle_related":true,"cycleway":"track","source":"openstreetmap.org","min_zoom":8.0,"landuse_kind":"urban_area","ref":"1132","id":37381532},"arcs":[216]},{"type":"MultiLineString","properties":{"kind":"major_road","name:en":"Dongbugwangwangdoro","sort_rank":381,"kind_detail":"trunk","source":"openstreetmap.org","min_zoom":8.0,"name:ko":"Dongbugwangwangdoro","ref":"97"},"arcs":[[217],[218]]},{"type":"LineString","properties":{"sort_rank":355,"source":"openstreetmap.org","kind":"ferry","min_zoom":8.0,"name":"\uc7a5\ud765 - \uc81c\uc8fc\ud56d"},"arcs":[219]},{"type":"MultiLineString","properties":{"source":"openstreetmap.org","kind":"major_road","sort_rank":380,"kind_detail":"primary","ref":"1115","min_zoom":8.0},"arcs":[[220],[221],[222]]},{"type":"LineString","properties":{"source":"openstreetmap.org","kind":"ferry","name":"\uc644\ub3c4 - \uccad\uc0b0","sort_rank":355,"landuse_kind":"park","min_zoom":8.0,"id":532646599},"arcs":[223]}]},"earth":{"type":"GeometryCollection","geometries":[{"type":"MultiPolygon","properties":{"sort_rank":10,"source":"naturalearthdata.com","min_zoom":0.0,"kind":"earth","area":2833391788},"arcs":[[[224]],[[225]],[[226]],[[227]],[[228]],[[229]],[[230]],[[231]],[[232]]]}]},"landuse":{"type":"GeometryCollection","geometries":[{"type":"MultiPolygon","properties":{"source":"naturalearthdata.com","kind":"urban_area","name":"","area":84408655,"sort_rank":11,"min_zoom":4.0},"arcs":[[[233]],[[234]]]},{"type":"Polygon","properties":{"source":"openstreetmap.org","kind":"park","area":214720992,"tier":2,"id":100074223,"min_zoom":6.0,"sort_rank":24},"arcs":[[235]]},{"type":"Polygon","properties":{"source":"openstreetmap.org","kind":"park","area":1051729984,"tier":2,"id":35355072,"min_zoom":4.0,"sort_rank":24},"arcs":[[236]]}]}},"type":"Topology","transform":{"translate":[126.5625,33.1375511923],"scale":[0.0003433228,0.0002855451]},"arcs":[[[1533,2051],[3,12]],[[1312,0],[28,17],[333,526],[214,369],[79,235],[17,242],[-139,332],[-125,166],[-186,164]],[[1536,2063],[711,165],[777,73],[224,55],[147,133],[518,784],[183,67]],[[1524,2060],[-562,262],[-277,158],[-685,457]],[[1533,2051],[-9,9]],[[1312,0],[28,17],[333,526],[214,369],[79,235],[17,242],[-139,332],[-125,166],[-186,164]],[[1524,2060],[12,3]],[[1536,2063],[711,165],[777,73],[224,55],[147,133],[518,784],[183,68]],[[4096,4096],[0,-4096],[-4096,0],[0,335],[9,-1],[120,27],[99,84],[294,55],[112,88],[76,-6],[28,14],[72,9],[19,45],[2,31],[44,78],[31,66],[99,79],[52,61],[5,10],[25,33],[10,19],[0,19],[-18,32],[-2,21],[21,24],[28,8],[13,16],[-22,45],[-8,-14],[-18,-16],[-14,-16],[-28,41],[-29,105],[-42,44],[-141,56],[-43,33],[-34,52],[-90,16],[-137,-12],[-235,-38],[-47,13],[-193,-84],[-58,-6],[0,2151],[31,21],[10,18],[15,16],[27,0],[27,-14],[11,-4],[5,13],[11,-1],[12,-11],[7,15],[-24,30],[-26,11],[-16,5],[-33,0],[-24,-7],[-17,2],[-16,10],[0,43],[18,-17],[44,-12],[15,13],[-14,25],[23,5],[43,2],[10,40],[20,17],[-3,30],[-11,17],[-16,12],[-31,16],[-61,10],[-22,12],[-15,5],[0,153],[24,12],[-17,14],[-7,-2],[0,56],[48,16],[71,-15],[0,23],[249,0],[0,-21],[55,-19],[44,-11],[26,-11],[14,8],[3,20],[12,3],[22,-15],[26,-11],[15,-4],[14,-2],[10,10],[-17,39],[-3,14],[212,0],[9,-13],[26,5],[8,8],[336,0],[4,-7],[20,-2],[23,9],[2869,0]],[[1114,1248],[32,-9],[22,16],[-3,45],[-10,28],[1,9],[-12,13],[-11,7],[-9,-8],[-21,-58],[0,-29],[11,-14]],[[1058,2984],[-21,4],[-24,-15],[4,-38],[2,-17],[67,12],[-28,54]],[[2217,3041],[3,17],[-7,12],[-21,6],[-17,15],[-37,61],[-5,36],[10,33],[-8,15],[-4,-2],[-8,-9],[-13,-4],[-11,4],[-9,-3],[-2,-15],[1,-16],[-4,-14],[7,-24],[9,-11],[11,-8],[6,-29],[10,-24],[7,-11],[40,-10],[42,-19]],[[94,3424],[-20,4],[-9,-9],[8,-20],[-8,-9],[-10,-14],[10,-2],[33,-2],[21,-11],[2,7],[-9,27],[-18,29]],[[341,3534],[-10,17],[-12,6],[-30,44],[5,26],[28,24],[-7,34],[-49,26],[-25,0],[-1,-12],[-25,-23],[6,-16],[19,-18],[-6,-45],[-19,-81],[7,-47],[15,-3],[14,-11],[5,-17],[15,-8],[29,7],[14,28],[0,35],[5,21],[12,2],[10,11]],[[145,3900],[-15,-2],[-8,-6],[-7,6],[-5,-10],[-22,-21],[17,-30],[31,10],[14,-4],[20,18],[15,-3],[-16,30],[-24,12]],[[1975,3862],[-29,-27],[-24,-75],[52,13],[53,-10],[14,4],[-7,14],[-14,15],[5,13],[13,11],[-2,6],[3,39],[-4,17],[-8,14],[-14,2],[-15,-7],[-13,-10],[-10,-19]],[[981,3755],[-50,12],[-41,-20],[-21,-20],[-11,-26],[-5,-34],[-18,-36],[12,-54],[11,-6],[10,17],[19,3],[26,-24],[32,-17],[43,4],[35,18],[18,33],[7,19],[8,44],[-18,19],[-28,26],[-29,42]],[[598,3728],[-12,35],[-42,-33],[1,-20],[-7,-26],[16,-14],[19,-30],[7,23],[19,25],[5,17],[0,11],[-6,12]],[[2843,3966],[-13,4],[-24,-11],[24,-24],[12,8],[1,23]],[[2291,3959],[43,46],[7,19],[13,8],[-10,16],[-17,-6],[-19,-9],[-10,24],[-7,-98]],[[2401,4050],[2,-32],[6,-24],[8,7],[9,4],[4,-3],[8,8],[3,42],[-40,-2]],[[2203,3151],[33,-15],[8,1],[6,7],[-1,6],[-2,9],[-5,8],[-12,8],[-2,18],[-6,25],[-7,10],[-12,-11],[-18,9],[-13,6],[-4,-23],[18,-33],[17,-25]],[[0,4072],[48,16],[71,-15],[0,23]],[[1117,1192],[-8,-14],[-18,-16],[-14,-16],[-28,41],[-29,105],[-42,44],[-141,56],[-43,33],[-34,52],[-90,16],[-137,-12],[-235,-38],[-47,13],[-193,-84],[-58,-6]],[[0,335],[9,-1],[120,27],[99,84],[294,55],[112,88],[76,-6],[28,14],[72,9],[19,45],[2,31],[44,78],[31,66],[99,79],[52,61],[5,10],[25,33],[10,19],[0,19],[-18,32],[-2,21],[21,24],[28,8],[13,16],[-22,45]],[[2175,3091],[-37,61],[-5,36],[10,33],[-8,15],[-4,-2],[-8,-9],[-13,-4],[-11,4],[-9,-3],[-2,-15],[1,-16],[-4,-14],[7,-24],[9,-11],[11,-8],[6,-29],[10,-24],[7,-11],[40,-10],[42,-19],[3,17],[-7,12],[-21,6],[-17,15]],[[368,4096],[0,-21],[55,-19],[44,-11],[26,-11],[14,8],[3,20],[12,3],[22,-15],[26,-11],[15,-4],[14,-2],[10,10],[-17,39],[-3,14]],[[145,3784],[-16,12],[-31,16],[-61,10],[-22,12],[-15,5]],[[0,3664],[18,-17],[44,-12],[15,13],[-14,25],[23,5],[43,2],[10,40],[20,17],[-3,30],[-11,17]],[[1010,3713],[-29,42],[-50,12],[-41,-20],[-21,-20],[-11,-26],[-5,-34],[-18,-36],[12,-54],[11,-6],[10,17],[19,3],[26,-24],[32,-17],[43,4],[35,18],[18,33],[7,19],[8,44],[-18,19],[-28,26]],[[106,3611],[-16,5],[-33,0],[-24,-7],[-17,2],[-16,10]],[[0,3517],[31,21],[10,18],[15,16],[27,0],[27,-14],[11,-4],[5,13],[11,-1],[12,-11],[7,15],[-24,30],[-26,11]],[[801,4096],[9,-13],[26,5],[8,8]],[[319,3557],[-30,44],[5,26],[28,24],[-7,34],[-49,26],[-25,0],[-1,-12],[-25,-23],[6,-16],[19,-18],[-6,-45],[-19,-81],[7,-47],[15,-3],[14,-11],[5,-17],[15,-8],[29,7],[14,28],[0,35],[5,21],[12,2],[10,11],[-10,17],[-12,6]],[[74,1344],[-74,-12]],[[100,623],[-59,-45]],[[100,626],[-1,-3]],[[210,3651],[5,-3]],[[233,1409],[10,-14]],[[493,750],[1,0]],[[508,1046],[-2,-2]],[[742,609]],[[642,1194],[1,0],[-1,0]],[[848,886],[0,-1],[2,0],[-1,1],[-1,0]],[[430,1100],[98,-65]],[[0,406]],[[0,406]],[[0,406],[42,5],[41,13]],[[15,410],[-7,-2]],[[83,424],[-41,-13]],[[83,424],[20,5]],[[89,1343],[28,6]],[[116,1349],[-26,-6]],[[103,429],[8,1]],[[111,430],[-8,-1]],[[108,429],[3,1]],[[111,430],[1,0],[-1,1],[0,-1]],[[111,430],[60,7]],[[114,430],[-2,0]],[[171,437],[21,4]],[[210,443],[-39,-6]],[[104,1022],[-28,8]],[[112,1016],[-8,6]],[[167,941],[-9,50],[-46,25]],[[178,781],[-11,159]],[[0,1285],[121,-59]],[[121,1226],[-121,59]],[[394,3338],[-312,-823],[-46,-232],[-36,-463]],[[389,612],[-1,0]],[[716,876],[-8,2]],[[800,1104],[42,-8]],[[328,495],[97,11]],[[170,994],[3,2]],[[173,996],[5,3]],[[178,999],[114,17],[42,33],[172,-5]],[[508,1046],[90,50],[36,90]],[[635,1187],[6,6]],[[641,1193],[1,1]],[[642,1194],[-1,-1]],[[642,1195],[0,-1]],[[642,1195],[125,100],[40,76]],[[643,1194],[-1,1]],[[190,1286],[-35,4],[-33,-37]],[[129,535],[2,-20]],[[388,612],[-56,-67],[-127,-31],[-66,24]],[[191,1286],[-1,0]],[[190,1286],[1,0]],[[192,1286],[1,0]],[[193,1286],[-1,0]],[[213,1280],[-20,6]],[[213,1280],[1,0]],[[214,1280],[-1,0]],[[214,1280],[1,-1]],[[215,1279],[-1,1]],[[401,1307],[-57,-67],[-129,39]],[[495,654],[-54,13],[3,-63],[-55,8]],[[401,1307],[1,1]],[[402,1308],[-1,-1]],[[402,1308],[2,0]],[[402,1308],[0,1],[0,-1]],[[404,1308],[-1,1]],[[404,1308],[50,-74],[79,-25]],[[495,654]],[[496,654],[-1,0]],[[496,653],[1,0]],[[497,653],[-1,0]],[[708,878],[-113,-94],[21,-42],[-25,-85],[-94,-4]],[[534,1209],[-1,0]],[[533,1209],[1,0]],[[534,1209],[1,0]],[[535,1209],[-1,0]],[[535,1209],[265,-105]],[[846,885],[-31,-44],[-43,33],[-56,2]],[[842,1096],[84,-5]],[[846,885],[2,0]],[[847,886],[-1,-1]],[[851,886],[-1,0]],[[850,885],[1,1]],[[929,1090],[-21,-106],[-57,-98]],[[929,1090],[-3,1]],[[192,1286]],[[192,1286],[-1,1],[0,-1],[1,0]],[[214,1279],[0,1]],[[214,1280],[0,-1]],[[496,654],[-1,-1],[1,0],[0,1]],[[534,1209],[0,1],[0,-1]],[[224,1403],[35,-137]],[[263,1264],[98,-373],[-8,-83],[85,-143]],[[450,597],[-6,7]],[[450,597],[-1,11]],[[460,511],[-10,86]],[[158,986],[12,8]],[[2,1198],[1,0]],[[22,1179],[-1,-1]],[[24,1170],[-2,-1]],[[41,411],[1,0]],[[63,1166],[-1,0]],[[114,430],[1,0]],[[1129,1240],[-49,-63],[23,125]],[[77,505],[-35,-94]],[[42,411],[36,94]],[[3963,4096],[-3963,-2679]],[[210,443],[9,1]],[[878,3416],[-57,144],[-3,96],[37,-4]],[[167,940],[0,1]],[[2324,4036],[-10,60]],[[0,445],[67,10]],[[2,1198],[-2,-2]],[[3,1197],[19,-18]],[[21,1178],[1,-9]],[[62,1166],[-38,4]],[[86,1241],[-23,-75]],[[131,515],[-35,-43]],[[122,1253],[-20,-23]],[[409,4096],[26,-19],[91,19]],[[528,4096],[10,0]],[[15,1061],[50,-24]],[[76,1030],[-8,3]],[[107,591],[-1,-3],[4,-18],[-15,-17],[-17,-44],[-1,-4]],[[78,505],[33,65],[-4,20]],[[139,697],[-38,-71],[6,-35]],[[107,590],[0,1]],[[107,590],[32,107]],[[139,697],[13,31]],[[153,729],[-2,9]],[[151,739],[27,42]],[[153,729],[-1,-1]],[[493,750],[-280,-121],[-108,3]],[[494,750],[2,2]],[[496,752],[6,11]],[[502,763],[75,40]],[[694,885],[239,182]],[[933,1067],[4,0]],[[937,1067],[83,17]],[[812,694],[0,1]],[[815,700],[0,-1]],[[824,713],[0,-1]],[[855,746],[-13,-14]],[[843,732],[13,13]],[[0,1072],[15,-11]],[[68,1033],[-11,12]],[[151,738],[0,1]],[[96,472],[-29,-17]],[[660,4096],[35,-93],[-174,-208],[-127,-457]],[[1052,2980],[-174,436]],[[215,3648],[49,-32],[-39,-49]],[[855,3652],[-48,56],[4,41],[23,-9]],[[121,1226],[121,-59],[34,-4],[92,-8]],[[368,1155]],[[368,1155],[52,-44],[10,-11]],[[528,1035],[17,-12],[18,-16],[8,-16],[4,-4],[-205,168],[-2,0]],[[368,1155]],[[368,1155],[-82,9],[-44,3],[-121,59]],[[614,948],[-19,12]],[[614,948],[41,-32],[13,-60]],[[635,935],[-21,13]],[[668,856],[32,-16]],[[699,840],[-31,16]],[[90,1343],[-16,2]],[[74,1344],[15,-1]],[[161,1376],[-45,-27]],[[117,1349],[44,27]],[[274,1398],[-113,-22]],[[710,593],[-88,1],[-73,-62],[-273,-43],[-18,-9],[-25,-27],[-23,-10]],[[219,444],[15,9],[24,27],[70,15]],[[317,1400],[-43,-2]],[[317,1400],[21,0]],[[355,1419],[-17,-19]],[[355,1419],[132,47],[115,-17],[78,-3],[18,-12],[162,-95],[74,-8],[28,-72],[16,-59],[13,-33],[22,-29],[7,-66],[-45,-127],[-7,-27],[-51,-59],[-62,-113]],[[856,745],[113,173],[51,153],[-7,67],[-79,193],[-74,8],[-180,107],[-193,20],[-132,-47]],[[425,506],[35,5],[90,21],[34,27],[39,35],[52,-1],[34,0],[1,0]],[[710,593],[21,10],[14,10],[12,59],[52,21]],[[814,698],[-57,-26],[-12,-59],[-35,-20]],[[812,695],[3,3]],[[815,699],[28,33]],[[842,732],[-27,-32]],[[192,441],[18,2]],[[595,960],[-20,27]],[[700,840],[60,-85],[17,-71],[-16,71],[-62,85]],[[1124,4096],[38,-1337],[-6,-772],[-23,-371],[-66,-314],[19,-125]],[[0,545],[41,33]],[[41,578],[55,-25]],[[96,553],[-4,3],[-51,22]],[[669,4096],[120,-384],[66,-60]],[[760,1477],[34,-52],[43,-33],[141,-56],[42,-44],[29,-105],[28,-41],[14,16],[18,16],[8,14],[22,-45],[-13,-16],[-28,-8],[-21,-24],[2,-21],[18,-32],[0,-19],[-10,-19],[-25,-33],[-5,-10],[-52,-61],[-99,-79],[-31,-66],[-44,-78],[-2,-31],[-19,-45],[-72,-9],[-28,-14],[-76,6],[-112,-88],[-294,-55],[-99,-84],[-120,-27],[-9,1],[0,1031],[58,6],[193,84],[47,-13],[235,38],[137,12],[90,-16]],[[2135,3236],[8,-15],[-10,-33],[5,-36],[37,-61],[17,-15],[21,-6],[7,-12],[-3,-17],[-42,19],[-40,10],[-7,11],[-10,24],[-6,29],[-11,8],[-9,11],[-7,24],[4,14],[-1,16],[2,15],[9,3],[11,-4],[13,4],[8,9],[4,2]],[[77,3648],[-15,-13],[-44,12],[-18,17],[0,175],[15,-5],[22,-12],[61,-10],[31,-16],[16,-12],[11,-17],[3,-30],[-20,-17],[-10,-40],[-43,-2],[-23,-5],[14,-25]],[[589,4096],[3,-14],[17,-39],[-10,-10],[-14,2],[-15,4],[-26,11],[-22,15],[-12,-3],[-3,-20],[-14,-8],[-26,11],[-44,11],[-55,19],[0,21],[221,0]],[[119,4096],[0,-23],[-71,15],[-48,-16],[0,24],[119,0]],[[844,4096],[-8,-8],[-26,-5],[-9,13],[43,0]],[[16,3611],[17,-2],[24,7],[33,0],[16,-5],[26,-11],[24,-30],[-7,-15],[-12,11],[-11,1],[-5,-13],[-11,4],[-27,14],[-27,0],[-15,-16],[-10,-18],[-31,-21],[0,104],[16,-10]],[[300,3437],[-29,-7],[-15,8],[-5,17],[-14,11],[-15,3],[-7,47],[19,81],[6,45],[-19,18],[-6,16],[25,23],[1,12],[25,0],[49,-26],[7,-34],[-28,-24],[-5,-26],[30,-44],[12,-6],[10,-17],[-10,-11],[-12,-2],[-5,-21],[0,-35],[-14,-28]],[[1041,3605],[-18,-33],[-35,-18],[-43,-4],[-32,17],[-26,24],[-19,-3],[-10,-17],[-11,6],[-12,54],[18,36],[5,34],[11,26],[21,20],[41,20],[50,-12],[29,-42],[28,-26],[18,-19],[-8,-44],[-7,-19]],[[114,358],[-114,-23],[0,154],[148,30],[55,-42],[10,-45],[-99,-74]],[[126,1350],[-8,-218],[-25,-50],[-93,3],[0,239],[126,26]],[[0,1013],[104,24],[61,-23],[18,-77],[-16,-49],[23,-34],[-8,-72],[-182,-68],[0,299]],[[0,3620],[124,-21],[87,37],[21,66],[-21,62],[-136,24],[-31,63],[19,26],[211,40],[25,134],[38,-1],[66,-59],[181,-2],[50,15],[0,92],[271,0],[-22,-164],[14,-80],[54,-74],[101,-52],[37,-153],[-105,-126],[-294,-86],[-690,-53],[0,312]]]}