{"objects":{"water":{"type":"GeometryCollection","geometries":[{"type":"Polygon","properties":{"source":"naturalearthdata.com","kind":"ocean","area":1576712559132672,"sort_rank":200,"min_zoom":0.0,"id":1},"arcs":[[4],[5],[6],[7],[8],[9],[10]]},{"type":"LineString","properties":{"source":"naturalearthdata.com","kind":"ocean","sort_rank":205,"boundary":true,"min_zoom":0.0,"id":1839},"arcs":[11]},{"type":"LineString","properties":{"source":"naturalearthdata.com","kind":"ocean","sort_rank":205,"boundary":true,"min_zoom":0.0,"id":1840},"arcs":[12]},{"type":"LineString","properties":{"source":"naturalearthdata.com","kind":"ocean","sort_rank":205,"boundary":true,"min_zoom":0.0,"id":2705},"arcs":[13]},{"type":"LineString","properties":{"source":"naturalearthdata.com","kind":"ocean","sort_rank":205,"boundary":true,"min_zoom":0.0,"id":2706},"arcs":[14]},{"type":"LineString","properties":{"source":"naturalearthdata.com","kind":"ocean","sort_rank":205,"boundary":true,"min_zoom":0.0,"id":3355},"arcs":[15]},{"type":"LineString","properties":{"source":"naturalearthdata.com","kind":"ocean","sort_rank":205,"boundary":true,"min_zoom":0.0,"id":3545},"arcs":[16]}]},"buildings":{"type":"GeometryCollection","geometries":[]},"places":{"type":"GeometryCollection","geometries":[{"type":"Point","properties":{"name:he":"\u05e0\u05d4\u05d4","name:ja":"Naha-shi","name:lt":"Naha","name:ko":"\ub098\ud558\uc2dc","name:ar":"\u0646\u0627\u0647\u0627\u060c \u0623\u0648\u0643\u064a\u0646\u0627\u0648\u0627","name:th":"\u0e19\u0e30\u0e2e\u0e30","name:uk":"\u041d\u0430\u0445\u0430","name:ru":"\u041d\u0430\u0445\u0430","name:pl":"Naha","id":567940176,"population":323064,"kind":"locality","name:en":"Naha","name":"\u90a3\u8987\u5e02","kind_detail":"city","min_zoom":8.0,"source":"openstreetmap.org","name:fr":"Naha","name:zh":"\u90a3\u9738\u5e02"},"coordinates":[3291,1347]},{"type":"Point","properties":{"name:ja":"Okinawa-shi","name:ko":"\uc624\ud0a4\ub098\uc640 \uc2dc","name:ar":"\u0645\u062f\u064a\u0646\u0629 \u0623\u0648\u0643\u064a\u0646\u0627\u0648\u0627","min_zoom":8.0,"name:uk":"\u041e\u043a\u0456\u043d\u0430\u0432\u0430","name:ru":"\u041e\u043a\u0438\u043d\u0430\u0432\u0430","name:pl":"Okinawa","id":568021174,"population":128421,"kind":"locality","name:en":"Okinawa","name":"\u6c96\u7e04\u5e02","kind_detail":"city","source":"openstreetmap.org","name:fr":"Okinawa","name:zh":"\u51b2\u7ef3\u5e02"},"coordinates":[3623,1752]},{"type":"Point","properties":{"kind":"locality","name":"\u3046\u308b\u307e\u5e02","name:ko":"\uc6b0\ub8e8\ub9c8 \uc2dc","kind_detail":"city","min_zoom":8.0,"source":"openstreetmap.org","name:fr":"Uruma","name:uk":"\u0423\u0440\u0443\u043c\u0430","name:ru":"\u0423\u0440\u0443\u043c\u0430","name:pl":"Uruma","population":113070,"name:zh":"\u5b87\u6d41\u9ebb\u5e02","id":568026721,"name:ja":"Uruma-shi"},"coordinates":[3754,1902]},{"type":"Point","properties":{"kind":"locality","name:en":"Urasoe","name":"\u6d66\u6dfb\u5e02","name:ko":"\uc6b0\ub77c\uc18c\uc5d0\uc2dc","kind_detail":"city","min_zoom":8.0,"source":"openstreetmap.org","name:fr":"Urasoe","name:uk":"\u0423\u0440\u0430\u0441\u043e\u0435","name:ru":"\u0423\u0440\u0430\u0441\u043e\u044d","name:pl":"Urasoe","population":110285,"id":568026356,"name:ja":"Urasoe-shi"},"coordinates":[3362,1463]},{"type":"Point","properties":{"kind":"locality","name:en":"Ginowan","name":"\u5b9c\u91ce\u6e7e\u5e02","name:ko":"\uae30\ub178\uc644 \uc2dc","kind_detail":"city","min_zoom":8.0,"source":"openstreetmap.org","name:fr":"Ginowan","name:uk":"\u0490\u0456\u043d\u043e\u0432\u0430\u043d","name:ru":"\u0413\u0438\u043d\u043e\u0432\u0430\u043d","name:pl":"Ginowan","population":88318,"id":568021714,"name:ja":"Ginowan-shi"},"coordinates":[3524,1580]},{"type":"Point","properties":{"kind":"locality","name:en":"Itoman","name":"\u7cf8\u6e80\u5e02","name:ko":"\uc774\ud1a0\ub9cc \uc2dc","kind_detail":"city","min_zoom":8.0,"source":"openstreetmap.org","name:fr":"Itoman","name:uk":"\u0406\u0442\u043e\u043c\u0430\u043d","name:ru":"\u0418\u0442\u043e\u043c\u0430\u043d","name:pl":"Itoman","population":55444,"name:zh":"\u4e1d\u6ee1\u5e02","id":568023583,"name:ja":"Itoman-shi"},"coordinates":[3273,996]},{"type":"Point","properties":{"kind":"locality","name:en":"Tomigusuku","name":"\u8c4a\u898b\u57ce\u5e02","name:ko":"\ub3c4\ubbf8\uad6c\uc2a4\ucfe0 \uc2dc","kind_detail":"city","min_zoom":8.0,"source":"openstreetmap.org","name:fr":"Tomigusuku","name:uk":"\u0422\u043e\u043c\u0456\u0491\u0443\u0441\u0443\u043a\u0443","name:ru":"\u0422\u043e\u043c\u0438\u0433\u0443\u0441\u0443\u043a\u0443","name:pl":"Tomigusuku","population":53499,"name:zh":"\u4e30\u89c1\u57ce\u5e02","id":568025104,"name:ja":"Tomigusuku-shi"},"coordinates":[3273,1230]},{"type":"Point","properties":{"kind":"locality","name:en":"Nanj\u014d","name":"\u5357\u57ce\u5e02","name:ko":"\ub09c\uc870 \uc2dc","kind_detail":"city","min_zoom":8.0,"source":"openstreetmap.org","name:fr":"Nanj\u014d","name:uk":"\u041d\u0430\u043d\u0434\u0436\u044c\u043e","name:ru":"\u041d\u0430\u043d\u0434\u0437\u0451","name:pl":"Nanj\u014d","population":40759,"id":568024515,"name:ja":"Nanj\u014d-shi"},"coordinates":[3503,1114]},{"type":"Point","properties":{"kind":"locality","name:en":"Yomitan","name":"\u8aad\u8c37\u6751","kind_detail":"town","source":"openstreetmap.org","min_zoom":8.0,"name:uk":"\u0419\u043e\u043c\u0456\u0442\u0430\u043d","population":38532,"id":2869685008,"name:ja":"Yomitan-son"},"coordinates":[3436,1944]},{"type":"Point","properties":{"kind":"locality","name:en":"Nishihara","name":"\u897f\u539f\u753a","name:ko":"\ub2c8\uc2dc\ud558\ub77c \uc815","kind_detail":"town","source":"openstreetmap.org","min_zoom":8.0,"name:uk":"\u041d\u0456\u0448\u0456\u0445\u0430\u0440\u0430","population":34869,"id":601029831,"name:ja":"Nishihara-ch\u014d"},"coordinates":[3490,1392]},{"type":"Point","properties":{"kind":"locality","name:en":"Haebaru","name":"\u5357\u98a8\u539f\u753a","kind_detail":"town","source":"openstreetmap.org","min_zoom":8.0,"name:uk":"\u0425\u0430\u0435\u0431\u0430\u0440\u0443","population":34586,"id":650720776,"name:ja":"Haebaru-ch\u014d"},"coordinates":[3399,1278]},{"type":"Point","properties":{"kind":"locality","name:en":"Yaese","name":"\u516b\u91cd\u702c\u753a","name:ko":"\uc57c\uc5d0\uc138 \uc815","kind_detail":"town","source":"openstreetmap.org","min_zoom":8.0,"name:uk":"\u042f\u0435\u0441\u0435","population":26758,"name:zh":"\u516b\u91cd\u7028\u753a","id":650701503,"name:ja":"Yaese-ch\u014d"},"coordinates":[3407,1055]},{"type":"Point","properties":{"kind":"locality","name:en":"Chatan","name":"\u5317\u8c37\u753a","name:ko":"\uc790\ud0c4 \uc815","kind_detail":"town","source":"openstreetmap.org","min_zoom":8.0,"name:uk":"\u0427\u044f\u0442\u0430\u043d","population":26377,"id":649320304,"name:ja":"Chatan-ch\u014d"},"coordinates":[3512,1668]},{"type":"Point","properties":{"kind":"locality","name:en":"Yonabaru","name":"\u4e0e\u90a3\u539f\u753a","kind_detail":"town","source":"openstreetmap.org","min_zoom":8.0,"name:uk":"\u0419\u043e\u043d\u0430\u0431\u0430\u0440\u0443","population":15405,"id":650722971,"name:ja":"Yonabaru-ch\u014d"},"coordinates":[3462,1325]},{"type":"Point","properties":{"kind":"locality","name:en":"Motobu","name":"\u672c\u90e8\u753a","kind_detail":"town","source":"openstreetmap.org","min_zoom":8.0,"name:uk":"\u041c\u043e\u0442\u043e\u0431\u0443","population":14082,"id":653734241,"name:ja":"Motobu-ch\u014d"},"coordinates":[3930,2816]},{"type":"Point","properties":{"kind":"locality","name:en":"Kadena","name":"\u5609\u624b\u7d0d\u753a","kind_detail":"town","source":"openstreetmap.org","min_zoom":8.0,"name:uk":"\u041a\u0430\u0434\u0435\u043d\u0430","population":13624,"id":650692501,"name:ja":"Kadena-ch\u014d"},"coordinates":[3518,1825]},{"type":"Point","properties":{"kind":"locality","name:en":"Kin","name":"\u91d1\u6b66\u753a","kind_detail":"town","source":"openstreetmap.org","min_zoom":8.0,"name:uk":"\u041a\u0456\u043d","population":11037,"id":656133715,"name:ja":"Kin-ch\u014d"},"coordinates":[3915,2169]},{"type":"Point","properties":{"kind":"locality","name:en":"Onna","name":"\u6069\u7d0d\u6751","kind_detail":"town","source":"openstreetmap.org","min_zoom":8.0,"name:uk":"\u041e\u043d\u043d\u0430","population":9333,"id":656074433,"name:ja":"Onna-son"},"coordinates":[3795,2257]},{"type":"Point","properties":{"kind":"locality","name:en":"Kumejima","name":"\u4e45\u7c73\u5cf6\u753a","kind_detail":"town","source":"openstreetmap.org","min_zoom":8.0,"population":8953,"id":618317625,"name:ja":"Kumejima-ch\u014d"},"coordinates":[689,1764]}]},"transit":{"type":"GeometryCollection","geometries":[]},"pois":{"type":"GeometryCollection","geometries":[{"type":"Point","properties":{"kind":"military","name:en":"Kadena Ammunition Storage Area","name":"\u5609\u624b\u7d0d\u5f3e\u85ac\u5eab\u5730\u533a","area":37031900,"source":"openstreetmap.org","min_zoom":8.0,"tier":3,"id":-6261845,"osm_relation":true},"coordinates":[3576,1942]},{"type":"Point","properties":{"kind":"military","name:en":"Central Training Area","name":"\u4e2d\u90e8\u8a13\u7df4\u533a\u57df","area":30232700,"source":"openstreetmap.org","min_zoom":8.0,"tier":3,"id":-5962647,"osm_relation":true},"coordinates":[3844,2216]},{"type":"Point","properties":{"kind":"military","name:en":"Kadena Air Force Base","name":"\u5609\u624b\u7d0d\u98db\u884c\u5834","area":22809400,"source":"openstreetmap.org","min_zoom":8.0,"tier":3,"id":-2563052,"osm_relation":true},"coordinates":[3530,1785]},{"type":"Point","properties":{"kind":"military","name:en":"Idesuna Jima Range","name":"\u51fa\u7802\u5cf6\u5c04\u7206\u6483\u5834","area":53100200,"source":"openstreetmap.org","min_zoom":8.0,"tier":3,"id":343204846},"coordinates":[1576,1926]},{"type":"Point","properties":{"kind":"military","name:en":"Tori Shima Range","name":"\u9ce5\u5cf6\u5c04\u7206\u6483\u5834","area":120674000,"source":"openstreetmap.org","min_zoom":8.0,"tier":3,"id":343204847},"coordinates":[788,2602]}]},"boundaries":{"type":"GeometryCollection","geometries":[{"type":"MultiLineString","properties":{"name:ty":"T\u0101p\u014dn\u0113","name:ka":"\u10d8\u10d0\u10de\u10dd\u10dc\u10d8\u10d0","name:ko":"\uc77c\ubcf8","name:cv":"\u042f\u043f\u043e\u043d\u0438","name:cu":"\ua656\u043f\u0461\u043d\u0457\ua657","name:kl":"Japani","name:cs":"Japonsko","name:tw":"Yapan","name:ki":"Japan","name:kw":"Nihon","name:kv":"\u042f\u043f\u043e\u043d\u0438\u044f","name:th":"\u0e1b\u0e23\u0e30\u0e40\u0e17\u0e28\u0e0d\u0e35\u0e48\u0e1b\u0e38\u0e48\u0e19","name:ti":"\u1303\u1353\u1295","name:tl":"Hapon","name:ch":"Chapan","name:ce":"\u042f\u043f\u043e\u043d\u0438","name:ta":"\u0b9c\u0baa\u0bcd\u0baa\u0bbe\u0ba9\u0bcd","name:tg":"\u0416\u043e\u043f\u0443\u043d","name:ca":"Jap\u00f3","name:te":"\u0c1c\u0c2a\u0c3e\u0c28\u0c4d","name:cy":"Japan","name:qu":"Nihun","name:da":"Japan","name:de":"Japan","name:dz":"\u0f47\u0f71\u0f0b\u0f54\u0f71\u0f53\u0f0d","source":"openstreetmap.org","name:kn":"\u0c9c\u0caa\u0cbe\u0ca8\u0ccd","name:dv":"\u0796\u07a6\u0795\u07a7\u0782\u07aa","name:km":"\u1787\u1794\u17c9\u17bb\u1793","name:lv":"Jap\u0101na","name:lt":"Japonija","name:uz":"Yaponiya","name:kk":"\u0416\u0430\u043f\u043e\u043d\u0438\u044f","name:ur":"\u062c\u0627\u067e\u0627\u0646","name:lb":"Japan","name:la":"Iaponia","name:tt":"\u042f\u043f\u043e\u043d\u0438\u044f","name:uk":"\u042f\u043f\u043e\u043d\u0456\u044f","name:ug":"\u064a\u0627\u067e\u0648\u0646\u0649\u064a\u06d5","name:li":"Japan","name:ln":"Zap\u0254\u0301","name:lo":"\u0e9b\u0eb0\u0ec0\u0e97\u0e94\u0e8d\u0eb5\u0ec8\u0e9b\u0eb8\u0ec8\u0e99","name:el":"\u0399\u03b1\u03c0\u03c9\u03bd\u03af\u03b1","name:eo":"Japanujo","name:en":"Japan","name":"\u65e5\u672c","name:tk":"\u00ddaponi\u00fda","name:ee":"Japan","name:ku":"Japon","name:eu":"Japonia","name:et":"Jaapan","name:es":"Jap\u00f3n","name:ay":"Nihun","name:rm":"Giapun","name:az":"Yaponiya","name:ie":"Japan","name:id":"Jepang","name:ar":"\u0627\u0644\u064a\u0627\u0628\u0627\u0646","name:io":"Japonia","name:is":"Japan","name:am":"\u1303\u1353\u1295","name:it":"Giappone","name:an":"Chap\u00f3n","name:ru":"\u042f\u043f\u043e\u043d\u0438\u044f","name:ab":"\u0418\u0430\u043f\u043e\u043d\u0438\u0430","name:af":"Japan","name:zu":"IJapani","kind_detail":"2","name:za":"Nditbonj","name:so":"Jabaan","name:sm":"Iapani","name:sl":"Japonska","name:sk":"Japonsko","name:ja":"Nippon","name:si":"\u0da2\u0db4\u0dcf\u0db1\u0dba","name:sh":"Japan","name:se":"J\u00e1hpan","name:sd":"\u062c\u0627\u067e\u0627\u0646","name:sc":"Giappone","name:br":"Japan","name:bs":"Japan","name:bn":"\u099c\u09be\u09aa\u09be\u09a8","name:bo":"\u0f62\u0f72\u0f0b\u0f54\u0f72\u0f53\u0f0d","name:sa":"\u0938\u0942\u0930\u094d\u092f\u092e\u0942\u0932","name:sw":"Japani","name:be":"\u042f\u043f\u043e\u043d\u0456\u044f","name:su":"Jepang","name:bg":"\u042f\u043f\u043e\u043d\u0438\u044f","name:ss":"IJaphani","name:ba":"\u042f\u043f\u043e\u043d\u0438\u044f","name:sq":"Japonia","name:jv":"Jepang","name:ia":"Japon","name:pt":"Jap\u00e3o","name:ps":"\u062c\u0627\u067e\u0627\u0646","name:om":"Jaappaan","name:oc":"Japon","min_zoom":8.0,"name:ro":"Japonia","name:zh-min-nan":"Ji\u030dt-p\u00fan","name:os":"\u042f\u043f\u043e\u043d","name:or":"\u0b1c\u0b3e\u0b2a\u0b3e\u0b28","name:pl":"Japonia","sort_rank":262,"name:sr":"\u0408\u0430\u043f\u0430\u043d","osm_relation":true,"name:pa":"\u0a1c\u0a2a\u0a3e\u0a28","name:tr":"Japonya","name:hi":"\u091c\u093e\u092a\u093e\u0928","name:sv":"Japan","name:he":"\u05d9\u05e4\u05df","name:ha":"Japan","name:hy":"\u0543\u0561\u057a\u0578\u0576\u056b\u0561","name:ht":"Japon","name:hu":"Jap\u00e1n","name:hr":"Japan","kind":"country","name:yi":"\u05d9\u05d0\u05e4\u05d0\u05df","name:iu":"\u14c3\u1449\u140a\u14d0","name:yo":"Japan","name:mt":"\u0120appun","alt_name:eo":"Japanio","name:ms":"Jepun","name:mr":"\u091c\u092a\u093e\u0928","name:my":"\u1002\u103b\u1015\u1014\u103a\u1014\u102d\u102f\u1004\u103a\u1004\u1036","name:mg":"Japana","name:vi":"Nh\u1eadt B\u1ea3n","name:ml":"\u0d1c\u0d2a\u0d4d\u0d2a\u0d3e\u0d7b","name:mn":"\u042f\u043f\u043e\u043d","name:mi":"Nipono","id":-382313,"name:mk":"\u0408\u0430\u043f\u043e\u043d\u0438\u0458\u0430","name:vo":"Yap\u00e4n","name:fa":"\u0698\u0627\u067e\u0646","name:rw":"Ubuyapani","name:fi":"Japani","name:ky":"\u0416\u0430\u043f\u043e\u043d\u0438\u044f","old_name:vi":"Nh\u1eadt B\u1ed5n","name:fo":"Japan","alt_name:vi":"Nh\u1eadt","name:fr":"Japon","name:fy":"Japan","name:nl":"Japan","name:nn":"Japan","name:no":"Japan","name:na":"Djapan","name:ne":"\u091c\u093e\u092a\u093e\u0928","name:wo":"Sapo\u014b","name:nv":"Bina\u02bcadaa\u0142tz\u00f3z\u00ed Din\u00e9\u02bci\u02bc Bik\u00e9yah","name:ga":"An tSeap\u00e1in","name:gd":"An t-Seapan","name:gn":"Hap\u00f5","name:gl":"Xap\u00f3n","maritime_boundary":true,"name:gv":"Yn \u00c7hapaan","name:gu":"\u0a9c\u0abe\u0aaa\u0abe\u0aa8"},"arcs":[[0],[1]]},{"type":"MultiLineString","properties":{"name:ja":"Okinawa-ken","name:ko":"\uc624\ud0a4\ub098\uc640 \ud604","name:cs":"Okinawa","min_zoom":8.0,"name:uk":"\u041f\u0440\u0435\u0444\u0435\u043a\u0442\u0443\u0440\u0430 \u041e\u043a\u0456\u043d\u0430\u0432\u0430","name:ru":"\u041e\u043a\u0438\u043d\u0430\u0432\u0430","name:pl":"Prefektura Okinawa","id":-3795635,"osm_relation":true,"kind":"region","name:en":"Okinawa Prefecture","name":"\u6c96\u7e04\u770c","sort_rank":256,"kind_detail":"4","name:de":"Okinawa","source":"openstreetmap.org","maritime_boundary":true,"name:zh":"\u51b2\u7ef3\u53bf"},"arcs":[[2],[3]]}]},"roads":{"type":"GeometryCollection","geometries":[{"type":"MultiLineString","properties":{"source":"openstreetmap.org","kind":"major_road","sort_rank":380,"kind_detail":"primary","ref":"89","min_zoom":8.0},"arcs":[[17],[18],[19],[20],[21]]},{"type":"MultiLineString","properties":{"bus_network":"\u7409\u7403\u30d0\u30b9\u4ea4\u901a;\u6c96\u7e04\u30d0\u30b9","network":"JP:national","sort_rank":381,"kind_detail":"trunk","kind":"major_road","source":"openstreetmap.org","min_zoom":8.0,"bus_shield_text":"20","shield_text":"58","ref":"58"},"arcs":[[22],[23],[24],[25]]},{"type":"MultiLineString","properties":{"source":"openstreetmap.org","kind":"major_road","sort_rank":380,"kind_detail":"primary","ref":"85","min_zoom":8.0},"arcs":[[26],[27],[28],[29],[30],[31],[32],[33]]},{"type":"MultiLineString","properties":{"source":"openstreetmap.org","kind":"major_road","sort_rank":381,"kind_detail":"trunk","ref":"449","min_zoom":8.0},"arcs":[[34],[35],[36],[37],[38],[39],[40],[41],[42],[43],[44],[45],[46],[47],[48],[49],[50]]},{"type":"LineString","properties":{"source":"openstreetmap.org","kind":"ferry","name":"\u4f0a\u6c5f\uff5e\u672c\u90e8","sort_rank":355,"min_zoom":8.0,"id":426962855},"arcs":[51]},{"type":"MultiLineString","properties":{"bus_network":"\u7409\u7403\u30d0\u30b9\u4ea4\u901a;\u6c96\u7e04\u30d0\u30b9","network":null,"sort_rank":381,"landuse_kind":"urban_area","kind":"major_road","source":"openstreetmap.org","min_zoom":8.0,"bus_shield_text":"120","shield_text":"331","kind_detail":"trunk","ref":"331"},"arcs":[[52],[53],[54],[55]]},{"type":"MultiLineString","properties":{"source":"openstreetmap.org","kind":"major_road","sort_rank":381,"kind_detail":"trunk","ref":"331","min_zoom":8.0},"arcs":[[56],[57],[58]]},{"type":"LineString","properties":{"kind":"major_road","name:en":"Sunshine-Dori","sort_rank":381,"landuse_kind":"urban_area","source":"openstreetmap.org","min_zoom":8.0,"kind_detail":"trunk","ref":"390"},"arcs":[59]},{"type":"MultiLineString","properties":{"source":"openstreetmap.org","kind":"major_road","landuse_kind":"urban_area","sort_rank":380,"kind_detail":"primary","ref":"85","min_zoom":8.0},"arcs":[[60],[61],[62],[63],[64],[65],[66],[67],[68],[69],[70],[71],[72],[73],[74],[75],[76]]},{"type":"MultiLineString","properties":{"source":"openstreetmap.org","kind":"major_road","landuse_kind":"urban_area","sort_rank":380,"kind_detail":"primary","ref":"38","min_zoom":8.0},"arcs":[[77],[78],[79],[80],[81]]},{"type":"MultiLineString","properties":{"source":"openstreetmap.org","kind":"highway","name:en":"Okinawa Expressway","sort_rank":383,"kind_detail":"motorway","ref":"E58","min_zoom":8.0},"arcs":[[82],[83],[84],[85],[86],[87],[88],[89],[90],[91],[92],[93],[94],[95],[96],[97],[98]]},{"type":"LineString","properties":{"kind":"major_road","network":"JP:national","sort_rank":381,"kind_detail":"trunk","bus_network":"\u7409\u7403\u30d0\u30b9\u4ea4\u901a;\u6c96\u7e04\u30d0\u30b9","source":"openstreetmap.org","min_zoom":8.0,"bus_shield_text":"20","shield_text":"58","landuse_kind":"military","ref":"58","id":43675480},"arcs":[99]},{"type":"MultiLineString","properties":{"source":"openstreetmap.org","kind":"major_road","name:en":"MotobuJunkan-Sen","sort_rank":381,"kind_detail":"trunk","ref":"505","min_zoom":8.0},"arcs":[[100],[101]]},{"type":"LineString","properties":{"kind":"major_road","sort_rank":381,"landuse_kind":"urban_area","source":"openstreetmap.org","min_zoom":8.0,"kind_detail":"trunk","ref":"506","id":124237760},"arcs":[102]},{"type":"MultiLineString","properties":{"source":"openstreetmap.org","kind":"major_road","kind_detail":"trunk","sort_rank":381,"landuse_kind":"urban_area","ref":"329","min_zoom":8.0},"arcs":[[103],[104],[105],[106],[107],[108],[109],[110],[111],[112],[113],[114],[115],[116],[117],[118],[119],[120],[121],[122],[123]]},{"type":"MultiLineString","properties":{"source":"openstreetmap.org","kind":"major_road","name:en":"MotobuJunkan-Sen","sort_rank":381,"kind_detail":"trunk","ref":"449","min_zoom":8.0},"arcs":[[124],[125],[126],[127],[128],[129],[130],[131],[132],[133],[134],[135],[136],[137],[138],[139],[140],[141],[142],[143]]},{"type":"LineString","properties":{"kind":"major_road","sort_rank":381,"landuse_kind":"urban_area","source":"openstreetmap.org","min_zoom":8.0,"kind_detail":"trunk","ref":"332","id":124869834},"arcs":[144]},{"type":"MultiLineString","properties":{"kind":"major_road","name:en":"Ginowan Bypass","network":"JP:national","sort_rank":381,"landuse_kind":"urban_area","source":"openstreetmap.org","min_zoom":8.0,"kind_detail":"trunk","shield_text":"58","ref":"58"},"arcs":[[145],[146]]},{"type":"MultiLineString","properties":{"sort_rank":355,"source":"openstreetmap.org","min_zoom":8.0,"name":"\u6cca\uff5e\u5ea7\u9593\u5473","kind":"ferry"},"arcs":[[147],[148],[149],[150]]},{"type":"MultiLineString","properties":{"kind":"major_road","network":"JP:national","sort_rank":381,"landuse_kind":"urban_area","source":"openstreetmap.org","min_zoom":8.0,"kind_detail":"trunk","shield_text":"58","ref":"58"},"arcs":[[151],[152],[153],[154],[155],[156]]},{"type":"MultiLineString","properties":{"source":"openstreetmap.org","kind":"ferry","name":"\u6cca\uff5e\u5ea7\u9593\u5473","sort_rank":355,"landuse_kind":"park","min_zoom":8.0},"arcs":[[157],[158],[159]]},{"type":"LineString","properties":{"kind":"major_road","name:en":"National Route 58","network":"JP:national","sort_rank":381,"kind_detail":"trunk","bus_network":"\u7409\u7403\u30d0\u30b9\u4ea4\u901a;\u6c96\u7e04\u30d0\u30b9","source":"openstreetmap.org","min_zoom":8.0,"bus_shield_text":"20","shield_text":"58","landuse_kind":"military","ref":"58","id":337681104},"arcs":[160]},{"type":"LineString","properties":{"kind":"major_road","name:en":"Route 329 (Ishikawa by-pass)","name:ja":"\u56fd\u9053329\u53f7;\u77f3\u5ddd\u30d0\u30a4\u30d1\u30b9","sort_rank":381,"kind_detail":"trunk","source":"openstreetmap.org","min_zoom":8.0,"landuse_kind":"urban_area","ref":"329","id":422639026},"arcs":[161]},{"type":"LineString","properties":{"source":"openstreetmap.org","kind":"major_road","sort_rank":381,"kind_detail":"trunk","ref":"505","min_zoom":8.0},"arcs":[162]},{"type":"MultiLineString","properties":{"kind":"major_road","name:en":"Nago Bypass","name:ja":"\u540d\u8b77\u30d0\u30a4\u30d1\u30b9","sort_rank":381,"kind_detail":"trunk","source":"openstreetmap.org","min_zoom":8.0,"ref":"449"},"arcs":[[163],[164],[165],[166],[167]]},{"type":"MultiLineString","properties":{"source":"openstreetmap.org","kind":"major_road","kind_detail":"trunk","sort_rank":381,"landuse_kind":"urban_area","ref":"507","min_zoom":8.0},"arcs":[[168],[169],[170],[171],[172],[173],[174],[175],[176],[177],[178],[179],[180]]},{"type":"LineString","properties":{"sort_rank":355,"source":"openstreetmap.org","min_zoom":8.0,"name":"\u9e7f\u5150\u5cf6\uff5e\u90a3\u8987","kind":"ferry"},"arcs":[181]},{"type":"MultiLineString","properties":{"source":"openstreetmap.org","kind":"major_road","kind_detail":"trunk","sort_rank":381,"landuse_kind":"urban_area","ref":"58","min_zoom":8.0},"arcs":[[182],[183]]},{"type":"MultiLineString","properties":{"source":"openstreetmap.org","kind":"major_road","sort_rank":380,"kind_detail":"primary","ref":"10","min_zoom":8.0},"arcs":[[184],[185],[186]]},{"type":"LineString","properties":{"source":"openstreetmap.org","kind":"ferry","name":"\u4e45\u9ad8\u301c\u5b89\u5ea7\u771f","sort_rank":355,"min_zoom":8.0,"id":325187101},"arcs":[187]},{"type":"MultiLineString","properties":{"bus_network":"\u7409\u7403\u30d0\u30b9\u4ea4\u901a;\u6c96\u7e04\u30d0\u30b9","network":"JP:national","sort_rank":381,"kind_detail":"trunk","kind":"major_road","source":"openstreetmap.org","min_zoom":8.0,"bus_shield_text":"120","shield_text":"58","landuse_kind":"urban_area","ref":"58"},"arcs":[[188],[189],[190],[191],[192],[193]]},{"type":"LineString","properties":{"kind":"major_road","name:en":"Kanai  Bridge","sort_rank":380,"kind_detail":"primary","source":"openstreetmap.org","min_zoom":8.0,"ref":"86","id":123863923},"arcs":[194]},{"type":"LineString","properties":{"kind":"highway","sort_rank":383,"landuse_kind":"urban_area","source":"openstreetmap.org","min_zoom":8.0,"kind_detail":"motorway","ref":"E58;329;506","id":124237872},"arcs":[195]},{"type":"MultiLineString","properties":{"source":"openstreetmap.org","kind":"highway","landuse_kind":"military","sort_rank":383,"kind_detail":"motorway","ref":"E58","min_zoom":8.0},"arcs":[[196],[197]]},{"type":"MultiLineString","properties":{"source":"openstreetmap.org","kind":"ferry","name":"\u6cca\uff5e\u6e21\u5609\u6577","sort_rank":355,"landuse_kind":"park","min_zoom":8.0,"id":48290060},"arcs":[[198],[199]]},{"type":"MultiLineString","properties":{"source":"openstreetmap.org","kind":"major_road","name:en":"Route 329","sort_rank":381,"kind_detail":"trunk","ref":"329","min_zoom":8.0},"arcs":[[200],[201],[202],[203]]},{"type":"MultiLineString","properties":{"sort_rank":381,"source":"openstreetmap.org","min_zoom":8.0,"kind":"major_road","kind_detail":"trunk"},"arcs":[[204],[205],[206]]},{"type":"MultiLineString","properties":{"source":"openstreetmap.org","kind":"major_road","landuse_kind":"urban_area","sort_rank":380,"kind_detail":"primary","ref":"7","min_zoom":8.0},"arcs":[[207],[208],[209],[210],[211],[212],[213],[214],[215],[216],[217]]},{"type":"MultiLineString","properties":{"source":"openstreetmap.org","kind":"major_road","landuse_kind":"military","sort_rank":380,"kind_detail":"primary","ref":"74","min_zoom":8.0},"arcs":[[218],[219]]},{"type":"LineString","properties":{"source":"openstreetmap.org","kind":"ferry","name":"\u5e73\u6577\u5c4b\u301c\u6d25\u5805","sort_rank":355,"landuse_kind":"military","min_zoom":8.0,"id":464016970},"arcs":[220]},{"type":"LineString","properties":{"source":"openstreetmap.org","kind":"major_road","sort_rank":380,"kind_detail":"primary","ref":"72","min_zoom":8.0},"arcs":[221]},{"type":"LineString","properties":{"kind":"major_road","name:en":"Tsubogawa-odori","sort_rank":381,"kind_detail":"trunk","bus_network":"\u7409\u7403\u30d0\u30b9\u4ea4\u901a;\u6c96\u7e04\u30d0\u30b9","source":"openstreetmap.org","min_zoom":8.0,"bus_shield_text":"20","landuse_kind":"urban_area","ref":"330","id":337681107},"arcs":[222]},{"type":"MultiLineString","properties":{"source":"openstreetmap.org","kind":"major_road","landuse_kind":"urban_area","sort_rank":380,"kind_detail":"primary","ref":"86","min_zoom":8.0},"arcs":[[223],[224]]},{"type":"MultiLineString","properties":{"kind":"major_road","name:en":"Itoman Road","sort_rank":381,"landuse_kind":"urban_area","source":"openstreetmap.org","min_zoom":8.0,"kind_detail":"trunk","ref":"331"},"arcs":[[225],[226],[227],[228],[229],[230],[231],[232],[233],[234],[235],[236],[237],[238],[239],[240],[241],[242],[243],[244],[245],[246]]},{"type":"MultiLineString","properties":{"source":"openstreetmap.org","kind":"highway","landuse_kind":"urban_area","sort_rank":383,"kind_detail":"motorway","ref":"E58","min_zoom":8.0},"arcs":[[247],[248],[249],[250],[251]]},{"type":"LineString","properties":{"source":"openstreetmap.org","kind":"ferry","name":"\u6cca\uff5e\u7c9f\u56fd","sort_rank":355,"landuse_kind":"urban_area","min_zoom":8.0,"id":168151922},"arcs":[252]},{"type":"MultiLineString","properties":{"kind":"major_road","network":null,"sort_rank":381,"landuse_kind":"urban_area","source":"openstreetmap.org","min_zoom":8.0,"kind_detail":"trunk","shield_text":"332","ref":"332"},"arcs":[[253],[254],[255]]},{"type":"MultiLineString","properties":{"kind":"major_road","name:en":"Route 329","sort_rank":381,"kind_detail":"trunk","is_bicycle_related":true,"source":"openstreetmap.org","min_zoom":8.0,"ref":"329"},"arcs":[[256],[257],[258]]},{"type":"MultiLineString","properties":{"kind":"major_road","name:en":"Route 329 (Ishikawa by-pass)","name:ja":"\u56fd\u9053329\u53f7;\u77f3\u5ddd\u30d0\u30a4\u30d1\u30b9","sort_rank":381,"kind_detail":"trunk","source":"openstreetmap.org","min_zoom":8.0,"ref":"329"},"arcs":[[259],[260],[261]]},{"type":"LineString","properties":{"kind":"major_road","name:en":"Yamashita-cho-dori","name:ja":"Yamashita-ch\u014d-odori","sort_rank":380,"kind_detail":"primary","source":"openstreetmap.org","min_zoom":8.0,"landuse_kind":"urban_area","ref":"7"},"arcs":[262]},{"type":"LineString","properties":{"kind":"major_road","name:en":"Naha Kitanakagusuku line","sort_rank":380,"kind_detail":"primary","source":"openstreetmap.org","min_zoom":8.0,"alt_name:en":"Ryutan-Dori","landuse_kind":"urban_area","ref":"29","id":142797707},"arcs":[263]},{"type":"MultiLineString","properties":{"source":"openstreetmap.org","kind":"major_road","landuse_kind":"urban_area","sort_rank":380,"kind_detail":"primary","min_zoom":8.0},"arcs":[[264],[265],[266]]},{"type":"MultiLineString","properties":{"sort_rank":355,"source":"openstreetmap.org","min_zoom":8.0,"kind":"ferry"},"arcs":[[267],[268],[269],[270],[271],[272],[273],[274],[275],[276],[277],[278],[279],[280],[281]]},{"type":"LineString","properties":{"sort_rank":355,"landuse_kind":"urban_area","min_zoom":8.0,"kind":"ferry","source":"openstreetmap.org"},"arcs":[282]},{"type":"MultiLineString","properties":{"source":"openstreetmap.org","kind":"highway","landuse_kind":"urban_area","sort_rank":383,"kind_detail":"motorway","min_zoom":8.0},"arcs":[[283],[284],[285],[286]]},{"type":"MultiLineString","properties":{"kind":"major_road","name:en":"Naha Kitanakagusuku line","sort_rank":380,"kind_detail":"primary","source":"openstreetmap.org","min_zoom":8.0,"landuse_kind":"urban_area","ref":"29"},"arcs":[[287],[288],[289],[290],[291],[292],[293],[294]]},{"type":"MultiLineString","properties":{"kind":"major_road","name:en":"Naha Itoman Road","sort_rank":380,"kind_detail":"primary","source":"openstreetmap.org","min_zoom":8.0,"landuse_kind":"urban_area","ref":"82"},"arcs":[[295],[296],[297],[298],[299],[300],[301],[302],[303],[304],[305],[306],[307],[308],[309],[310],[311],[312],[313],[314],[315]]},{"type":"LineString","properties":{"source":"openstreetmap.org","kind":"major_road","name:en":"Route 329 (Ishikawa by-pass)","sort_rank":381,"kind_detail":"trunk","ref":"329","min_zoom":8.0},"arcs":[316]},{"type":"LineString","properties":{"kind":"major_road","name:en":"Nirai Bridge","sort_rank":380,"kind_detail":"primary","source":"openstreetmap.org","min_zoom":8.0,"ref":"86","id":123865475},"arcs":[317]},{"type":"MultiLineString","properties":{"kind":"major_road","name:en":"National Route 58","network":"JP:national","sort_rank":381,"landuse_kind":"urban_area","bus_network":"\u7409\u7403\u30d0\u30b9\u4ea4\u901a;\u6c96\u7e04\u30d0\u30b9","source":"openstreetmap.org","min_zoom":8.0,"bus_shield_text":"120","shield_text":"58","kind_detail":"trunk","ref":"58"},"arcs":[[318],[319],[320],[321],[322],[323]]},{"type":"MultiLineString","properties":{"source":"openstreetmap.org","kind":"major_road","sort_rank":380,"kind_detail":"primary","ref":"73","min_zoom":8.0},"arcs":[[324],[325],[326],[327],[328],[329],[330],[331],[332],[333],[334],[335],[336],[337],[338],[339],[340],[341],[342],[343],[344],[345],[346],[347],[348]]},{"type":"LineString","properties":{"kind":"major_road","name:en":"Route 329 (Ishikawa by-pass)","sort_rank":381,"kind_detail":"trunk","source":"openstreetmap.org","min_zoom":8.0,"landuse_kind":"urban_area","ref":"329","id":189781905},"arcs":[349]},{"type":"MultiLineString","properties":{"kind":"highway","name:en":"Okinawa Expressway","sort_rank":383,"kind_detail":"motorway","source":"openstreetmap.org","min_zoom":8.0,"landuse_kind":"military","ref":"E58"},"arcs":[[350],[351],[352],[353],[354],[355],[356]]},{"type":"LineString","properties":{"kind":"major_road","sort_rank":381,"landuse_kind":"urban_area","source":"openstreetmap.org","min_zoom":8.0,"kind_detail":"trunk","ref":"449","id":164176625},"arcs":[357]},{"type":"MultiLineString","properties":{"sort_rank":355,"landuse_kind":"park","min_zoom":8.0,"kind":"ferry","source":"openstreetmap.org"},"arcs":[[358],[359],[360],[361],[362],[363],[364],[365],[366],[367]]},{"type":"MultiLineString","properties":{"source":"openstreetmap.org","kind":"major_road","kind_detail":"trunk","sort_rank":381,"landuse_kind":"urban_area","ref":"330","min_zoom":8.0},"arcs":[[368],[369],[370],[371],[372],[373],[374],[375],[376],[377],[378],[379],[380],[381],[382],[383],[384]]},{"type":"LineString","properties":{"kind":"ferry","name":"\u6cca\uff5e\u6e21\u540d\u559c\uff5e\u4e45\u7c73\u5cf6","sort_rank":355,"landuse_kind":"urban_area","source":"openstreetmap.org","min_zoom":8.0,"id":-6899880,"osm_relation":true},"arcs":[385]},{"type":"MultiLineString","properties":{"sort_rank":355,"source":"openstreetmap.org","kind":"ferry","min_zoom":8.0,"name":"\u795e\u6238\u301c\u90a3\u8987"},"arcs":[[386],[387],[388],[389],[390],[391],[392],[393],[394]]},{"type":"MultiLineString","properties":{"bus_network":"\u7409\u7403\u30d0\u30b9\u4ea4\u901a;\u6c96\u7e04\u30d0\u30b9","name:en":"National Route 58","network":"JP:national","sort_rank":381,"kind_detail":"trunk","kind":"major_road","source":"openstreetmap.org","min_zoom":8.0,"bus_shield_text":"20","shield_text":"58","ref":"58"},"arcs":[[395],[396]]},{"type":"MultiLineString","properties":{"sort_rank":355,"landuse_kind":"military","min_zoom":8.0,"kind":"ferry","source":"openstreetmap.org"},"arcs":[[397],[398],[399],[400]]},{"type":"MultiLineString","properties":{"kind":"major_road","name:en":"National Highway Route 331","sort_rank":381,"kind_detail":"trunk","official_name":"\u4e00\u822c\u56fd\u9053331\u53f7","source":"openstreetmap.org","min_zoom":8.0,"landuse_kind":"urban_area","ref":"331","osm_relation":true},"arcs":[[401],[402],[403],[404],[405]]},{"type":"MultiLineString","properties":{"kind":"highway","name:en":"Okinawa Expressway","sort_rank":383,"kind_detail":"motorway","source":"openstreetmap.org","min_zoom":8.0,"landuse_kind":"urban_area","ref":"E58"},"arcs":[[406],[407],[408],[409],[410],[411],[412],[413],[414],[415],[416],[417],[418],[419],[420]]},{"type":"LineString","properties":{"kind":"major_road","sort_rank":381,"landuse_kind":"urban_area","source":"openstreetmap.org","min_zoom":8.0,"kind_detail":"trunk","ref":"329;506","id":375672611},"arcs":[421]},{"type":"LineString","properties":{"kind":"major_road","name:en":"Nago Bypass","sort_rank":381,"landuse_kind":"urban_area","source":"openstreetmap.org","min_zoom":8.0,"kind_detail":"trunk","ref":"449"},"arcs":[422]},{"type":"LineString","properties":{"source":"openstreetmap.org","kind":"major_road","sort_rank":380,"kind_detail":"primary","ref":"7","min_zoom":8.0},"arcs":[423]},{"type":"MultiLineString","properties":{"source":"openstreetmap.org","kind":"major_road","landuse_kind":"urban_area","sort_rank":380,"kind_detail":"primary","ref":"77","min_zoom":8.0},"arcs":[[424],[425],[426],[427],[428],[429],[430],[431],[432],[433],[434]]},{"type":"MultiLineString","properties":{"source":"openstreetmap.org","kind":"major_road","kind_detail":"trunk","sort_rank":381,"landuse_kind":"urban_area","ref":"331","min_zoom":8.0},"arcs":[[435],[436],[437],[438],[439],[440],[441],[442],[443],[444],[445],[446],[447],[448],[449],[450],[451],[452],[453],[454],[455]]},{"type":"LineString","properties":{"source":"openstreetmap.org","kind":"ferry","name":"\u9e7f\u5150\u5cf6\uff5e\u90a3\u8987","sort_rank":355,"landuse_kind":"urban_area","min_zoom":8.0,"id":423867828},"arcs":[456]},{"type":"MultiLineString","properties":{"kind":"major_road","name:en":"Tomigusuku Road","sort_rank":381,"landuse_kind":"urban_area","source":"openstreetmap.org","min_zoom":8.0,"kind_detail":"trunk","ref":"331"},"arcs":[[457],[458],[459],[460],[461],[462]]},{"type":"LineString","properties":{"bus_network":"\u7409\u7403\u30d0\u30b9\u4ea4\u901a;\u6c96\u7e04\u30d0\u30b9","name:en":"National Highway No. 58","network":"JP:national","sort_rank":381,"kind_detail":"trunk","kind":"major_road","source":"openstreetmap.org","min_zoom":8.0,"bus_shield_text":"120","shield_text":"58","landuse_kind":"urban_area","ref":"58"},"arcs":[463]},{"type":"MultiLineString","properties":{"kind":"major_road","network":"JP:national","sort_rank":381,"kind_detail":"trunk","source":"openstreetmap.org","min_zoom":8.0,"shield_text":"58","ref":"58"},"arcs":[[464],[465],[466],[467],[468]]},{"type":"LineString","properties":{"source":"openstreetmap.org","kind":"ferry","name":"\u6cca\uff5e\u6e21\u5609\u6577","sort_rank":355,"landuse_kind":"urban_area","min_zoom":8.0,"id":48290060},"arcs":[469]},{"type":"MultiLineString","properties":{"bus_network":"\u7409\u7403\u30d0\u30b9\u4ea4\u901a;\u6c96\u7e04\u30d0\u30b9","network":"JP:national","sort_rank":381,"kind_detail":"trunk","kind":"major_road","source":"openstreetmap.org","min_zoom":8.0,"bus_shield_text":"20","shield_text":"58","landuse_kind":"urban_area","ref":"58"},"arcs":[[470],[471],[472],[473],[474],[475],[476],[477],[478],[479]]},{"type":"LineString","properties":{"source":"openstreetmap.org","kind":"major_road","sort_rank":380,"kind_detail":"primary","ref":"71","min_zoom":8.0},"arcs":[480]},{"type":"MultiLineString","properties":{"kind":"major_road","name:en":"MotobuJunkan-Sen","name:ja":"\u672c\u90e8\u5faa\u74b0\u7dda","sort_rank":381,"landuse_kind":"urban_area","source":"openstreetmap.org","min_zoom":8.0,"kind_detail":"trunk","ref":"449"},"arcs":[[481],[482]]},{"type":"MultiLineString","properties":{"source":"openstreetmap.org","kind":"major_road","landuse_kind":"urban_area","sort_rank":380,"kind_detail":"primary","ref":"74","min_zoom":8.0},"arcs":[[483],[484],[485],[486],[487],[488],[489]]},{"type":"LineString","properties":{"source":"openstreetmap.org","kind":"ferry","name":"\u6cca\uff5e\u5357\u5317\u5927\u6771","sort_rank":355,"landuse_kind":"urban_area","min_zoom":8.0,"id":461640745},"arcs":[490]},{"type":"MultiLineString","properties":{"source":"openstreetmap.org","kind":"major_road","kind_detail":"trunk","sort_rank":381,"landuse_kind":"urban_area","min_zoom":8.0},"arcs":[[491],[492],[493],[494],[495],[496],[497]]},{"type":"MultiLineString","properties":{"bus_network":"\u7409\u7403\u30d0\u30b9\u4ea4\u901a;\u6c96\u7e04\u30d0\u30b9","name:en":"Nago Bypass","sort_rank":381,"kind_detail":"trunk","kind":"major_road","source":"openstreetmap.org","min_zoom":8.0,"bus_shield_text":"20","landuse_kind":"urban_area","ref":"58"},"arcs":[[498],[499]]},{"type":"LineString","properties":{"kind":"major_road","name:en":"National Highway No. 330","sort_rank":381,"landuse_kind":"urban_area","source":"openstreetmap.org","min_zoom":8.0,"kind_detail":"trunk","ref":"330"},"arcs":[500]},{"type":"MultiLineString","properties":{"source":"openstreetmap.org","kind":"highway","name:en":"Okinawa Expressway","landuse_kind":"urban_area","sort_rank":383,"kind_detail":"motorway","min_zoom":8.0},"arcs":[[501],[502],[503],[504],[505],[506],[507],[508],[509],[510],[511],[512],[513]]},{"type":"LineString","properties":{"source":"openstreetmap.org","kind":"major_road","landuse_kind":"urban_area","sort_rank":380,"kind_detail":"primary","ref":"10","min_zoom":8.0},"arcs":[514]},{"type":"LineString","properties":{"kind":"major_road","network":null,"sort_rank":381,"kind_detail":"trunk","bus_network":"\u7409\u7403\u30d0\u30b9\u4ea4\u901a;\u6c96\u7e04\u30d0\u30b9","source":"openstreetmap.org","min_zoom":8.0,"bus_shield_text":"120","shield_text":"332","ref":"332","id":142992900},"arcs":[515]},{"type":"MultiLineString","properties":{"source":"openstreetmap.org","kind":"highway","landuse_kind":"urban_area","sort_rank":383,"kind_detail":"motorway","ref":"E58;506","min_zoom":8.0},"arcs":[[516],[517],[518]]},{"type":"LineString","properties":{"kind":"major_road","name:en":"Tsubogawa-dori","sort_rank":381,"landuse_kind":"urban_area","source":"openstreetmap.org","min_zoom":8.0,"kind_detail":"trunk","ref":"330"},"arcs":[519]},{"type":"MultiLineString","properties":{"kind":"major_road","sort_rank":380,"kind_detail":"primary","alt_name:ja":"\u6c96\u7e04\u74b0\u72b6\u7dda","source":"openstreetmap.org","min_zoom":8.0,"landuse_kind":"urban_area","ref":"85"},"arcs":[[520],[521]]},{"type":"LineString","properties":{"source":"openstreetmap.org","kind":"ferry","name":"\u4f0a\u662f\u540d\uff5e\u904b\u5929","sort_rank":355,"min_zoom":8.0,"id":461040329},"arcs":[522]},{"type":"LineString","properties":{"source":"openstreetmap.org","kind":"major_road","name:en":"Nago-Motobu-Sen","sort_rank":380,"kind_detail":"primary","ref":"84","min_zoom":8.0},"arcs":[523]},{"type":"MultiLineString","properties":{"kind":"major_road","name:en":"Onna by-pass","network":"JP:national","sort_rank":381,"kind_detail":"trunk","source":"openstreetmap.org","min_zoom":8.0,"landuse_kind":"military","shield_text":"58","ref":"58"},"arcs":[[524],[525]]},{"type":"MultiLineString","properties":{"kind":"major_road","name:en":"National Route 58","network":"JP:national","sort_rank":381,"landuse_kind":"urban_area","source":"openstreetmap.org","min_zoom":8.0,"kind_detail":"trunk","shield_text":"58","ref":"58"},"arcs":[[526],[527],[528],[529],[530],[531]]},{"type":"MultiLineString","properties":{"kind":"major_road","name:en":"MotobuJunkan-Sen","sort_rank":381,"landuse_kind":"urban_area","source":"openstreetmap.org","min_zoom":8.0,"kind_detail":"trunk","ref":"58"},"arcs":[[532],[533]]},{"type":"MultiLineString","properties":{"kind":"major_road","name:en":"National Route 58","network":"JP:national","sort_rank":381,"landuse_kind":"urban_area","bus_network":"\u7409\u7403\u30d0\u30b9\u4ea4\u901a;\u6c96\u7e04\u30d0\u30b9","source":"openstreetmap.org","min_zoom":8.0,"bus_shield_text":"20","shield_text":"58","kind_detail":"trunk","ref":"58"},"arcs":[[534],[535],[536],[537],[538],[539],[540],[541],[542],[543],[544],[545],[546],[547],[548],[549],[550],[551],[552],[553],[554],[555],[556],[557]]},{"type":"LineString","properties":{"kind":"major_road","name:en":"National Highway Route 332","sort_rank":381,"kind_detail":"trunk","official_name":"\u4e00\u822c\u56fd\u9053332\u53f7","source":"openstreetmap.org","min_zoom":8.0,"ref":"332","id":-3771098,"osm_relation":true},"arcs":[558]},{"type":"MultiLineString","properties":{"sort_rank":383,"kind_detail":"motorway","min_zoom":8.0,"kind":"highway","source":"openstreetmap.org"},"arcs":[[559],[560]]},{"type":"MultiLineString","properties":{"kind":"major_road","name:en":"Route 329","sort_rank":381,"landuse_kind":"urban_area","source":"openstreetmap.org","min_zoom":8.0,"kind_detail":"trunk","ref":"329"},"arcs":[[561],[562],[563]]},{"type":"MultiLineString","properties":{"source":"openstreetmap.org","kind":"ferry","name":"\u6cca\uff5e\u6e21\u5609\u6577","sort_rank":355,"min_zoom":8.0,"id":48290060},"arcs":[[564],[565]]},{"type":"LineString","properties":{"source":"openstreetmap.org","kind":"major_road","sort_rank":380,"kind_detail":"primary","ref":"88","min_zoom":8.0},"arcs":[566]},{"type":"MultiLineString","properties":{"kind":"major_road","name:en":"Nahanishid\u014dro","network":"JP:national","sort_rank":381,"landuse_kind":"urban_area","source":"openstreetmap.org","min_zoom":8.0,"kind_detail":"trunk","shield_text":"58","ref":"58"},"arcs":[[567],[568],[569],[570]]},{"type":"MultiLineString","properties":{"sort_rank":355,"source":"openstreetmap.org","min_zoom":8.0,"name":"\u6cca\uff5e\u5357\u5317\u5927\u6771","kind":"ferry"},"arcs":[[571],[572]]},{"type":"MultiLineString","properties":{"source":"openstreetmap.org","kind":"ferry","name":"\u6cca\uff5e\u6e21\u540d\u559c\uff5e\u4e45\u7c73\u5cf6","sort_rank":355,"landuse_kind":"park","min_zoom":8.0,"osm_relation":true},"arcs":[[573],[574],[575]]},{"type":"LineString","properties":{"kind":"major_road","name:en":"Tsubogawa-odori","sort_rank":381,"kind_detail":"trunk","source":"openstreetmap.org","min_zoom":8.0,"landuse_kind":"urban_area","ref":"330","id":304497924},"arcs":[576]},{"type":"MultiLineString","properties":{"kind":"major_road","name:en":"Route 58","name:ja":"\u56fd\u905358\u53f7\u5b9c\u91ce\u6e7e\u30d0\u30a4\u30d1\u30b9","sort_rank":381,"landuse_kind":"urban_area","source":"openstreetmap.org","min_zoom":8.0,"kind_detail":"trunk","shield_text":"58","ref":"58","network":"JP:national"},"arcs":[[577],[578]]},{"type":"LineString","properties":{"source":"openstreetmap.org","kind":"ferry","name":"\u6cca\uff5e\u5ea7\u9593\u5473","sort_rank":355,"landuse_kind":"urban_area","min_zoom":8.0},"arcs":[579]},{"type":"MultiLineString","properties":{"source":"openstreetmap.org","kind":"major_road","name:en":"Nago Bypass","sort_rank":381,"kind_detail":"trunk","ref":"449","min_zoom":8.0},"arcs":[[580],[581]]},{"type":"MultiLineString","properties":{"source":"openstreetmap.org","kind":"highway","name:en":"Okinawa Expressway","sort_rank":383,"kind_detail":"motorway","min_zoom":8.0},"arcs":[[582],[583]]},{"type":"LineString","properties":{"source":"openstreetmap.org","kind":"major_road","landuse_kind":"urban_area","sort_rank":380,"kind_detail":"primary","ref":"75","min_zoom":8.0},"arcs":[584]},{"type":"LineString","properties":{"bus_network":"\u7409\u7403\u30d0\u30b9\u4ea4\u901a;\u6c96\u7e04\u30d0\u30b9","name:en":"Tsubogawa-odori","sort_rank":381,"landuse_kind":"urban_area","kind":"major_road","source":"openstreetmap.org","min_zoom":8.0,"bus_shield_text":"120","kind_detail":"trunk","ref":"330"},"arcs":[585]},{"type":"MultiLineString","properties":{"source":"openstreetmap.org","kind":"ferry","name":"\u6cca\uff5e\u6e21\u540d\u559c\uff5e\u4e45\u7c73\u5cf6","sort_rank":355,"min_zoom":8.0,"osm_relation":true},"arcs":[[586],[587],[588],[589],[590],[591],[592],[593],[594],[595],[596],[597],[598],[599],[600],[601],[602],[603]]},{"type":"LineString","properties":{"bus_network":"\u7409\u7403\u30d0\u30b9\u4ea4\u901a;\u6c96\u7e04\u30d0\u30b9","name:en":"Naha Kitanakagusuku line","sort_rank":380,"landuse_kind":"urban_area","kind":"major_road","source":"openstreetmap.org","min_zoom":8.0,"bus_shield_text":"20","kind_detail":"primary","ref":"29"},"arcs":[604]},{"type":"LineString","properties":{"source":"openstreetmap.org","kind":"ferry","name":"\u6cca\uff5e\u7c9f\u56fd","sort_rank":355,"landuse_kind":"park","min_zoom":8.0,"id":168151922},"arcs":[605]},{"type":"MultiLineString","properties":{"source":"openstreetmap.org","kind":"major_road","sort_rank":380,"kind_detail":"primary","ref":"86","min_zoom":8.0},"arcs":[[606],[607],[608],[609]]},{"type":"LineString","properties":{"bus_network":"\u7409\u7403\u30d0\u30b9\u4ea4\u901a;\u6c96\u7e04\u30d0\u30b9","sort_rank":381,"landuse_kind":"urban_area","kind":"major_road","source":"openstreetmap.org","min_zoom":8.0,"bus_shield_text":"20","kind_detail":"trunk","ref":"58"},"arcs":[610]},{"type":"LineString","properties":{"source":"openstreetmap.org","kind":"ferry","name":"\u6c34\u7d0d\uff5e\u6e21\u4e45\u5730","sort_rank":355,"min_zoom":8.0,"id":460321693},"arcs":[611]},{"type":"LineString","properties":{"kind":"major_road","network":"JP:national","sort_rank":381,"kind_detail":"trunk","source":"openstreetmap.org","min_zoom":8.0,"landuse_kind":"military","shield_text":"58","ref":"58","id":170325698},"arcs":[612]},{"type":"MultiLineString","properties":{"kind":"major_road","name:en":"MotobuJunkan-Sen","name:ja":"\u672c\u90e8\u5faa\u74b0\u7dda","sort_rank":381,"kind_detail":"trunk","source":"openstreetmap.org","min_zoom":8.0,"ref":"449"},"arcs":[[613],[614],[615],[616],[617],[618]]},{"type":"MultiLineString","properties":{"kind":"major_road","name:en":"National Highway Route 332","sort_rank":381,"landuse_kind":"urban_area","official_name":"\u4e00\u822c\u56fd\u9053332\u53f7","source":"openstreetmap.org","min_zoom":8.0,"kind_detail":"trunk","ref":"332","osm_relation":true},"arcs":[[619],[620],[621],[622],[623],[624]]},{"type":"MultiLineString","properties":{"kind":"major_road","name:ja":"\u56fd\u4f53\u9053\u8def","sort_rank":380,"kind_detail":"primary","source":"openstreetmap.org","min_zoom":8.0,"landuse_kind":"urban_area","ref":"23"},"arcs":[[625],[626]]},{"type":"MultiLineString","properties":{"kind":"major_road","name:en":"Ginowan Bypass","name:ja":"\u56fd\u905358\u53f7\u5b9c\u91ce\u6e7e\u30d0\u30a4\u30d1\u30b9","sort_rank":381,"kind_detail":"trunk","source":"openstreetmap.org","min_zoom":8.0,"landuse_kind":"urban_area","shield_text":"58","ref":"58","network":"JP:national"},"arcs":[[627],[628],[629],[630]]},{"type":"MultiLineString","properties":{"source":"openstreetmap.org","kind":"major_road","landuse_kind":"urban_area","sort_rank":380,"kind_detail":"primary","ref":"81","min_zoom":8.0},"arcs":[[631],[632],[633],[634]]},{"type":"MultiLineString","properties":{"source":"openstreetmap.org","kind":"ferry","name":"\u6cca\uff5e\u7c9f\u56fd","sort_rank":355,"min_zoom":8.0,"id":168151922},"arcs":[[635],[636]]},{"type":"MultiLineString","properties":{"source":"openstreetmap.org","kind":"major_road","sort_rank":381,"kind_detail":"trunk","ref":"329","min_zoom":8.0},"arcs":[[637],[638],[639]]},{"type":"MultiLineString","properties":{"source":"openstreetmap.org","kind":"ferry","name":"\u5e73\u6577\u5c4b\u301c\u6d25\u5805","sort_rank":355,"min_zoom":8.0,"id":464016970},"arcs":[[640],[641]]},{"type":"MultiLineString","properties":{"source":"openstreetmap.org","kind":"highway","sort_rank":383,"kind_detail":"motorway","ref":"E58","min_zoom":8.0},"arcs":[[642],[643]]},{"type":"MultiLineString","properties":{"kind":"major_road","name:en":"Nahanishid\u014dro","network":"JP:national","sort_rank":381,"kind_detail":"trunk","source":"openstreetmap.org","min_zoom":8.0,"shield_text":"58","ref":"58"},"arcs":[[644],[645],[646]]},{"type":"MultiLineString","properties":{"kind":"major_road","network":null,"sort_rank":381,"landuse_kind":"urban_area","source":"openstreetmap.org","min_zoom":8.0,"kind_detail":"trunk","shield_text":"331","ref":"331"},"arcs":[[647],[648],[649]]},{"type":"LineString","properties":{"kind":"major_road","sort_rank":381,"landuse_kind":"urban_area","source":"openstreetmap.org","min_zoom":8.0,"kind_detail":"trunk","ref":"390","id":91763822},"arcs":[650]},{"type":"MultiLineString","properties":{"kind":"major_road","name:en":"Onna by-pass","network":"JP:national","sort_rank":381,"kind_detail":"trunk","source":"openstreetmap.org","min_zoom":8.0,"shield_text":"58","ref":"58"},"arcs":[[651],[652],[653],[654]]},{"type":"MultiLineString","properties":{"kind":"ferry","name":"\u6cca\uff5e\u6e21\u540d\u559c\uff5e\u4e45\u7c73\u5cf6","sort_rank":355,"landuse_kind":"military","source":"openstreetmap.org","min_zoom":8.0,"id":-6899880,"osm_relation":true},"arcs":[[655],[656]]},{"type":"MultiLineString","properties":{"bus_network":"\u7409\u7403\u30d0\u30b9\u4ea4\u901a;\u6c96\u7e04\u30d0\u30b9","network":null,"sort_rank":381,"landuse_kind":"urban_area","kind":"major_road","source":"openstreetmap.org","min_zoom":8.0,"bus_shield_text":"120","shield_text":"332","kind_detail":"trunk","ref":"332"},"arcs":[[657],[658],[659]]}]},"earth":{"type":"GeometryCollection","geometries":[{"type":"MultiPolygon","properties":{"sort_rank":10,"source":"naturalearthdata.com","min_zoom":0.0,"kind":"earth","area":1785708719},"arcs":[[[660]],[[661]],[[662]],[[663]],[[664]],[[665]]]},{"type":"Point","properties":{"label_placement":true,"kind":"island","name:en":"Okinawa Island","name":"\u6c96\u7e04\u672c\u5cf6","area":1509769984,"name:fr":"Okinawa","name:de":"Okinawa Hont\u014d","source":"openstreetmap.org","min_zoom":8.0,"name:ru":"\u043e\u0441\u0442\u0440\u043e\u0432 \u041e\u043a\u0438\u043d\u0430\u0432\u0430","id":-4098955,"osm_relation":true},"coordinates":[3931,2198]}]},"landuse":{"type":"GeometryCollection","geometries":[{"type":"MultiPolygon","properties":{"source":"openstreetmap.org","kind":"military","tier":3,"area":268985732,"sort_rank":45,"min_zoom":8.0},"arcs":[[[666]],[[667]]]},{"type":"MultiPolygon","properties":{"source":"naturalearthdata.com","kind":"urban_area","name":"","area":518064895,"sort_rank":11,"min_zoom":4.0},"arcs":[[[668]],[[669]]]},{"type":"Polygon","properties":{"source":"openstreetmap.org","kind":"park","area":1113810048,"tier":2,"id":342483714,"min_zoom":4.0,"sort_rank":24},"arcs":[[670]]},{"type":"MultiPolygon","properties":{"source":"openstreetmap.org","kind":"military","tier":3,"area":476788293,"sort_rank":45,"min_zoom":8.0,"osm_relation":true},"arcs":[[[671]],[[672]],[[673]],[[674]]]}]}},"type":"Topology","transform":{"translate":[126.5625,25.7998911821],"scale":[0.0003433228,0.0003074303]},"arcs":[[[0,1310],[166,-116],[222,-210],[135,-69],[154,-37],[181,5],[165,51],[140,87],[132,148],[54,-235],[99,-170],[168,-146],[249,-121],[372,-54],[195,19],[223,-117],[504,-95],[176,0],[151,37],[610,255]],[[3294,4096],[-440,-812],[-234,-536],[-79,178],[-105,134],[-131,102],[-192,79],[-207,16],[-236,-59],[-174,-113],[-147,-168],[-106,136],[-184,126],[-179,52],[-192,-1],[-242,-86],[-189,-170],[-80,-135],[-42,-130],[1,-271],[-136,-97]],[[0,1310],[166,-116],[222,-210],[135,-69],[154,-37],[181,5],[165,51],[140,87],[132,148],[54,-235],[99,-170],[168,-146],[249,-121],[372,-54],[195,19],[223,-117],[504,-95],[176,0],[151,37],[610,255]],[[3294,4096],[-440,-812],[-234,-536],[-79,178],[-105,134],[-131,102],[-192,79],[-207,16],[-236,-59],[-174,-113],[-147,-168],[-106,136],[-184,126],[-179,52],[-192,-1],[-242,-86],[-189,-170],[-80,-135],[-42,-130],[1,-271],[-136,-97]],[[4048,3963],[48,49],[0,-1096],[-12,3],[-130,-9],[-101,5],[-21,-5],[-1,-26],[23,-107],[-3,-58],[3,-51],[25,-35],[135,-22],[45,-25],[19,-42],[-7,-58],[-66,-104],[-101,-51],[-112,-35],[-98,-56],[-6,-18],[-44,-81],[-10,0],[-14,-34],[-34,-16],[-37,-5],[-97,2],[-48,-6],[-25,-33],[-5,-76],[10,-68],[42,-143],[9,-68],[-8,-37],[-23,-65],[-38,-50],[-52,7],[-22,-65],[-44,-83],[-56,-59],[-59,7],[-6,-76],[61,-226],[-15,-122],[170,0],[44,17],[48,85],[38,32],[61,-12],[61,58],[51,86],[27,67],[-40,8],[-53,-12],[-47,-1],[-21,41],[8,61],[19,55],[148,270],[36,25],[61,-15],[60,-28],[57,-19],[53,15],[-29,44],[-62,52],[-31,41],[-14,43],[-10,93],[-15,42],[-29,21],[-34,15],[-12,25],[37,52],[24,14],[31,6],[203,1],[20,11],[11,51],[26,13],[26,3],[0,-353],[-3,-11],[3,-2],[0,-1819],[-4096,0],[0,4096],[4095,0],[-95,-111],[-29,-50],[77,28]],[[2273,1205],[7,-39],[24,-14],[22,32],[7,44],[13,43],[9,41],[-1,22],[-3,15],[-16,22],[-29,-8],[-23,-41],[-11,-67],[-1,-19],[2,-31]],[[604,1913],[-52,9],[-30,-3],[-53,-13],[-49,-22],[-26,-33],[17,-44],[48,-27],[62,-18],[54,-23],[23,-45],[6,-21],[16,-18],[21,-14],[18,-3],[19,7],[-1,11],[-4,13],[6,13],[19,21],[15,30],[9,32],[-1,30],[-25,52],[-42,40],[-50,26]],[[1883,2544],[17,-15],[36,7],[28,-1],[21,23],[-5,34],[-28,13],[-31,-6],[-21,-19],[-17,-36]],[[3637,2951],[-4,92],[-41,-13],[-78,9],[-42,-18],[12,-51],[79,-34],[74,15]],[[3997,1444],[14,-14],[19,40],[-3,29],[-12,4],[-12,-18],[-8,-14],[-4,-5],[6,-22]],[[4060,3712],[-31,34],[-57,-1],[-22,-29],[7,-25],[-8,-31],[4,-10],[19,-16],[32,-14],[32,-5],[15,8],[0,31],[9,58]],[[4096,2916],[-12,3],[-130,-9],[-101,5],[-21,-5],[-1,-26],[23,-107],[-3,-58],[3,-51],[25,-35],[135,-22],[45,-25],[19,-42],[-7,-58],[-66,-104],[-101,-51],[-112,-35],[-98,-56],[-6,-18],[-44,-81],[-10,0],[-14,-34],[-34,-16],[-37,-5],[-97,2],[-48,-6],[-25,-33],[-5,-76],[10,-68],[42,-143],[9,-68],[-8,-37],[-23,-65],[-38,-50],[-52,7],[-22,-65],[-44,-83],[-56,-59],[-59,7],[-6,-76],[61,-226],[-15,-122],[170,0],[44,17],[48,85],[38,32],[61,-12],[61,58],[51,86],[27,67],[-40,8],[-53,-12],[-47,-1],[-21,41],[8,61],[19,55],[148,270],[36,25],[61,-15],[60,-28],[57,-19],[53,15],[-29,44],[-62,52],[-31,41],[-14,43],[-10,93],[-15,42],[-29,21],[-34,15],[-12,25],[37,52],[24,14],[31,6],[203,1],[20,11],[11,51],[26,13],[26,3]],[[721,1795],[-25,52],[-42,40],[-50,26],[-52,9],[-30,-3],[-53,-13],[-49,-22],[-26,-33],[17,-44],[48,-27],[62,-18],[54,-23],[23,-45],[6,-21],[16,-18],[21,-14],[18,-3],[19,7],[-1,11],[-4,13],[6,13],[19,21],[15,30],[9,32],[-1,30]],[[4095,4096],[-95,-111],[-29,-50],[77,28],[48,49]],[[3633,3043],[-41,-13],[-78,9],[-42,-18],[12,-51],[79,-34],[74,15],[-4,92]],[[1921,2599],[-21,-19],[-17,-36],[17,-15],[36,7],[28,-1],[21,23],[-5,34],[-28,13],[-31,-6]],[[2351,1349],[-16,22],[-29,-8],[-23,-41],[-11,-67],[-1,-19],[2,-31],[7,-39],[24,-14],[22,32],[7,44],[13,43],[9,41],[-1,22],[-3,15]],[[447,1834],[96,-58],[1,0],[32,-13],[0,-2],[35,-22]],[[611,1739],[2,-1]],[[567,1763],[-51,23]],[[753,1789],[-75,-52],[-64,0],[-3,2]],[[611,1739],[-29,12]],[[3594,2068],[-23,-3]],[[4080,2409],[-14,15],[-212,-143],[-48,26],[-66,-92],[-96,-63],[-27,-56]],[[4080,2409],[4,5],[12,22]],[[4096,2439],[-10,-18],[-6,-12]],[[3693,1680]],[[3693,1680],[-5,0]],[[3688,1680],[5,0]],[[3693,1680]],[[3693,1680]],[[3693,1680]],[[3693,1680],[2,5]],[[3695,1685],[-2,-5]],[[3839,2771],[-1,1]],[[3838,2772],[1,-1]],[[3868,2804],[-8,-7]],[[3868,2818],[1,-3]],[[3869,2815],[-1,3],[3,38]],[[3933,2607],[-51,24]],[[3903,2616],[-10,4]],[[3893,2620],[10,-4]],[[3941,2612],[4,4]],[[3946,2621],[19,16],[21,-5],[15,-16]],[[3968,2635],[0,2]],[[4039,2623],[3,1]],[[4042,2624],[-3,-1]],[[4055,2625],[-4,1]],[[4051,2626],[4,-1]],[[4069,2616],[-1,1]],[[4068,2617],[1,-1]],[[3607,2951],[12,-31],[198,-126],[21,-57]],[[3240,1332],[-3,-11],[-5,-1]],[[3232,1320],[-13,-3]],[[3223,1316],[5,0],[4,4]],[[3232,1320],[7,7],[0,5]],[[3252,969],[94,-12],[65,63]],[[3482,1068],[29,42],[79,3],[98,100],[-23,28]],[[3652,1258],[-26,-1]],[[3228,1343],[13,-5]],[[3617,1810],[-5,-13]],[[3612,1797],[-22,-49]],[[3590,1748],[0,-2],[-37,-12]],[[3553,1734],[37,14]],[[3590,1748],[1,0],[21,49]],[[3612,1797],[5,13]],[[3586,1680],[-33,54]],[[3635,1679],[-11,-5],[-38,6]],[[3586,1680],[49,0]],[[3619,1804],[93,-28],[29,-26]],[[3741,1750],[-122,54]],[[3641,1684],[47,-4]],[[3688,1680],[-47,4]],[[3695,1685],[1,1]],[[3696,1686],[-1,-1]],[[3696,1686],[5,14]],[[3741,1750],[-40,-50]],[[3356,1466],[-26,12]],[[3357,1465],[-1,1]],[[3506,1384],[-149,81]],[[3399,1448],[-6,2]],[[3403,1446],[20,-5]],[[3655,1873],[6,19],[0,1]],[[3661,1893],[2,4]],[[3662,1897],[-1,-3],[0,-1]],[[3661,1893],[-6,-20]],[[3757,2138],[-31,-48],[-83,-53],[-6,-35],[34,-55],[1,-2],[-1,-5]],[[3671,1940],[-35,62],[6,35],[19,25],[79,54],[9,16],[7,6],[10,6],[70,7]],[[3877,2139],[-7,0],[-3,1],[-25,9]],[[3870,2139],[6,1]],[[3901,2141],[-17,-1]],[[3885,2140],[16,1]],[[4096,2242],[-117,-77],[-77,-24]],[[3902,2142],[14,7]],[[3917,2149],[179,96]],[[4057,2407],[16,-18]],[[4073,2389],[0,-1],[16,-1],[7,-5]],[[4096,2377],[-23,11],[0,1]],[[4073,2389],[-8,23]],[[3503,2002],[-17,-45]],[[4058,2906],[-152,11],[-35,-61]],[[4096,2882],[-38,23]],[[3429,1302],[0,-2]],[[3353,1296],[-5,-10],[-23,-13],[-51,8],[-12,4],[-8,13],[0,13],[-15,21]],[[3239,1332],[15,-21],[8,-25],[12,-5],[51,-7],[28,22]],[[3417,1312],[9,-1]],[[3426,1311],[1,0]],[[3427,1311],[9,-1]],[[3436,1310],[-9,0]],[[3427,1310],[-1,0]],[[3426,1310],[-9,0]],[[3422,1333],[1,-8]],[[3423,1325],[3,-14]],[[3426,1311],[0,-1]],[[3426,1310],[0,-1]],[[3423,1326],[0,-1]],[[3423,1325],[1,-1],[1,-5],[2,-8]],[[3427,1311],[0,-1]],[[3427,1310],[0,-1]],[[3489,1341],[32,9]],[[3595,1540],[25,10]],[[3640,1588],[-10,35]],[[3688,1913],[11,13]],[[3377,1316],[12,0]],[[3860,2797],[-22,-21]],[[3838,2772],[0,4]],[[3838,2776],[0,-4]],[[3858,2690],[-19,81]],[[3839,2771],[54,-151]],[[3893,2620],[-35,69]],[[3871,2808],[-2,-2]],[[3869,2806],[-1,-2]],[[3871,2856],[-3,-38]],[[3869,2806]],[[3869,2806],[0,9]],[[3869,2815],[2,-7]],[[3871,2808],[-1,2]],[[3965,2635],[-30,-27],[-32,8]],[[3903,2616],[32,-8],[30,27]],[[3973,2634],[1,-1]],[[3975,2633],[-1,0]],[[3984,2628],[-1,0]],[[3983,2628],[1,0]],[[4039,2613],[-13,2]],[[3226,1315],[-9,5]],[[3391,1519],[-2,8]],[[3389,1527],[2,-8]],[[3074,1382],[83,0]],[[3157,1382],[73,0]],[[3227,1378],[-51,-5],[-19,9]],[[3157,1382],[-12,6],[-69,-3]],[[3180,1342],[-6,-1]],[[3277,1424],[4,7]],[[3291,1444],[-14,-20]],[[3400,1522],[-2,0]],[[3398,1522],[2,1]],[[3469,1820],[7,16]],[[3076,1385],[-72,-2]],[[3004,1383],[-36,-2],[-110,20],[-213,137],[-139,17],[-148,-71],[-54,-56],[-87,-130],[-18,-18],[-11,-5],[-12,-3],[-72,-1],[50,9],[1,108],[7,-102],[25,-11],[29,23],[87,130],[54,56],[149,72],[139,-17],[213,-138],[130,-18],[16,0]],[[3004,1383],[70,-1]],[[3446,1806],[2,2]],[[3680,1936],[8,-23]],[[4058,2905],[0,1]],[[4039,2623]],[[4042,2624],[9,2]],[[4051,2626],[-9,-2]],[[4068,2617],[-13,8]],[[4055,2625],[13,-8]],[[3269,1307],[58,-18]],[[3327,1289],[26,7]],[[3384,1184]],[[3384,1184],[0,1]],[[3384,1185],[-54,99],[-3,5]],[[3347,1286],[1,-1]],[[3384,1240],[-36,45]],[[3384,1239],[7,-10],[2,-4],[-4,-26],[-5,-15]],[[3384,1184],[-10,-33]],[[3374,1151],[7,28],[3,6]],[[3384,1185],[5,14],[3,26],[-8,14]],[[3436,1044],[-62,107]],[[3384,1239],[0,1]],[[4096,3234],[-216,-170],[-121,-148],[12,-78],[52,-51],[15,-50],[-30,62],[-63,-5],[-472,-727],[-32,-542],[-36,-57],[-1,-114]],[[3446,1896],[3,-42]],[[3451,1931],[5,41]],[[3875,1710],[81,20]],[[3956,1730],[103,27]],[[4059,1757],[37,23]],[[3854,1152],[-130,94],[-37,8],[-4,-19]],[[3239,1332],[2,7]],[[3241,1339],[-1,-7]],[[3263,1369]],[[3263,1369],[0,-1]],[[3270,1383],[0,1]],[[3270,1384],[0,-1]],[[3655,1196],[-2,-10]],[[3365,1238],[49,10],[15,49]],[[3838,2151],[-1,0]],[[3839,2151],[6,-3]],[[2762,1246],[-301,-17],[-115,70]],[[3057,1354],[-161,-65]],[[3695,2060],[-7,-85]],[[3725,2070],[-30,-10]],[[3725,2070],[44,55],[101,7]],[[3991,2153],[105,58]],[[3858,2689],[0,1]],[[3933,2609],[2,-1]],[[3972,2634],[-1,0]],[[3240,1303],[-4,-46],[25,-31]],[[3243,1282],[15,-40]],[[3244,1284],[1,-3]],[[3287,1211],[-26,15]],[[3261,1226],[15,-6]],[[3276,1220]],[[3276,1220],[1,0]],[[3279,1098],[2,18]],[[3285,1187],[7,4]],[[3287,1211],[7,-16]],[[3287,1211],[-13,-128],[21,-74]],[[3588,1830],[-32,21]],[[3557,1851],[2,0],[30,-21]],[[3973,1649],[4,-74]],[[4037,2613],[59,202]],[[3246,1336],[1,0]],[[3499,1178],[-107,76]],[[3580,1177],[63,17]],[[3206,1100],[0,-4]],[[3206,1096],[1,-6]],[[3207,1090]],[[3207,1090],[2,-6],[-4,16]],[[3205,1099],[1,-3]],[[3206,1096],[2,-6]],[[3208,1090],[4,-16]],[[3212,1074],[3,-11],[6,-23],[1,-6],[-1,-20],[-1,26],[-6,23],[-3,12]],[[3211,1075],[-3,15],[-1,0]],[[3207,1090]],[[3207,1090],[-2,9]],[[3207,1090]],[[3207,1090]],[[3207,1090],[-1,5]],[[3206,1097],[2,-7]],[[3208,1090]],[[3216,1058],[-1,0],[-5,19]],[[3213,1066],[-1,4],[-1,5]],[[3211,1075]],[[3212,1075],[0,-1]],[[3212,1074],[1,-3],[3,-13]],[[3212,1078],[2,-12]],[[3428,1281],[-4,102]],[[3424,1385],[14,51],[131,151]],[[3424,1379],[4,-99]],[[3456,1454],[-1,0]],[[3482,1462],[-3,-1],[-8,-1],[-5,-1]],[[3264,1379],[-37,-1]],[[3219,1317],[-45,24]],[[3175,1322],[1,-9]],[[3217,1320],[-5,3]],[[3870,2132],[12,-11]],[[3882,2121],[8,-5]],[[3890,2116],[101,37]],[[3652,2030],[40,31]],[[3692,2061],[-43,-36],[31,-89]],[[3692,2061],[3,-1]],[[3226,1315],[14,-12],[-11,13]],[[3381,1360],[-31,7]],[[3488,1583],[-2,-1]],[[3494,1716],[-1,1]],[[3493,1717],[1,0]],[[1578,1805],[-259,-260],[-266,-41]],[[1053,1504],[-80,-13],[-195,0]],[[778,1491],[-22,0],[-100,29],[-68,77]],[[588,1597],[-12,14],[-21,149],[33,-163]],[[588,1597],[3,-12],[64,-66],[100,-29],[23,1]],[[778,1491],[275,13]],[[1053,1504],[92,4],[794,137],[122,-4]],[[2061,1641],[34,-1]],[[2094,1639],[-33,2]],[[2061,1641],[-122,6],[-260,85],[-44,96]],[[1662,1857],[21,4],[-24,-10]],[[3227,1378],[-56,-2],[-1,7]],[[3170,1383],[-21,124]],[[3150,1508],[7,-13],[13,-112]],[[3170,1383],[1,-7],[56,2]],[[3227,1378],[34,2],[-34,-2]],[[3381,1337],[6,2]],[[3466,1459],[-10,-5]],[[3546,1546],[7,9]],[[3549,1550],[2,3]],[[3350,1367],[-50,-5]],[[3381,1360],[2,1]],[[3391,1365],[-8,-4]],[[3428,1401],[-37,-36]],[[3428,1401],[17,16]],[[3428,1401],[28,30]],[[3456,1431],[46,4],[57,179]],[[3456,1431],[43,1]],[[3234,1120],[47,-4],[38,49]],[[3244,1145]],[[3244,1145],[-11,-4]],[[3244,1145],[51,3],[24,24]],[[3319,1172],[15,15],[5,16],[21,34],[1,0]],[[3361,1237],[6,1]],[[3367,1238],[17,2],[6,1]],[[3390,1241],[18,3],[5,4]],[[3414,1247],[-6,-4],[-19,-3]],[[3389,1240],[-5,-1],[-17,-1]],[[3367,1238],[-6,0],[0,-1]],[[3361,1237],[-1,0],[-21,-34],[-5,-16],[-13,-14],[-2,-1]],[[3319,1172],[-75,-27]],[[3284,1435],[0,-1]],[[3284,1434],[62,-46],[40,-44],[-20,-37],[-13,-11]],[[3353,1296],[32,48],[-101,90]],[[3349,1210],[-9,-24],[-7,0]],[[3359,1226],[8,1]],[[3392,1287],[10,-19],[-10,-14],[-2,-13]],[[3390,1241],[-1,-1]],[[3389,1240],[0,-2],[-24,-5]],[[3680,1936],[-28,94]],[[3648,1195],[3,-7]],[[3250,1353],[7,8]],[[3257,1361],[-6,-8]],[[3263,1368],[-6,-7]],[[3257,1361],[6,8]],[[3263,1369],[7,14]],[[3270,1383],[-7,-14]],[[3617,2078],[4,0],[2,-1]],[[3623,2077],[1,0]],[[3624,2077],[5,-1]],[[3629,2076],[66,-16],[-66,16]],[[3629,2076],[-5,1]],[[3624,2077],[-1,0]],[[3623,2077],[-1,1]],[[3622,2078],[-4,-1]],[[3624,2082],[-6,7]],[[3622,2078],[1,-1]],[[3623,2077],[1,0]],[[3624,2077],[4,-1]],[[3630,2073],[-6,3],[0,1]],[[3624,2077]],[[3624,2077]],[[3624,2077],[-1,1]],[[3623,2078],[0,1],[1,3]],[[3626,2061],[-3,16]],[[3623,2077]],[[3623,2077]],[[3623,2077],[0,1]],[[3623,2078],[1,0],[0,4]],[[3624,2082],[5,-6]],[[3629,2076]],[[3629,2076],[3,-4]],[[3688,1913],[-8,23]],[[3671,1940],[-9,-43]],[[3663,1897],[8,43]],[[3836,2151],[3,0]],[[3842,2149],[-4,2]],[[3876,2140],[9,0]],[[3884,2140],[-7,-1]],[[3916,2149],[1,0]],[[4050,2602],[0,1]],[[3149,1507],[0,4]],[[3149,1511],[-3,15],[-10,8]],[[3136,1534],[-37,30]],[[3099,1564],[-35,29],[-55,2]],[[3009,1595],[-915,44]],[[2095,1640],[870,-30],[44,-15]],[[3009,1595],[90,-31]],[[3099,1564],[26,-9],[11,-21]],[[3136,1534],[13,-23]],[[3149,1511],[1,-3]],[[3268,1309],[6,-1]],[[3274,1308]],[[3274,1308]],[[3303,1360],[-15,-33],[-12,-16]],[[3276,1311],[-2,-3]],[[3274,1308],[-1,-1]],[[3274,1308]],[[3274,1308],[2,3]],[[3276,1311],[12,17],[13,29],[24,48],[4,5],[19,42],[37,27],[2,1]],[[3455,1464],[-1,0]],[[3454,1464],[-24,9]],[[3430,1473],[0,1],[-9,3],[-21,5],[-15,-3],[-36,-27],[-12,-28],[-7,-13],[-5,-6]],[[3400,1482],[21,-4],[9,-4],[0,-1]],[[3430,1473],[9,-9],[9,-1],[6,1]],[[3454,1464],[1,0],[3,2],[83,88],[-3,47]],[[3605,1742],[-67,-141]],[[3605,1742],[45,12]],[[3240,1392],[21,-12],[-21,13]],[[4096,3459],[-333,-477],[-74,-63],[-3,-4]],[[3686,2915],[-65,-82]],[[3621,2833],[-35,-45],[-97,-195],[-214,-512],[0,-8]],[[3275,2073],[-27,-405]],[[3248,1668],[-9,-143],[-39,-88],[17,-35],[29,27],[-29,-27],[-17,35],[40,88],[8,143]],[[3248,1668],[24,399],[3,6]],[[3275,2073],[312,715],[34,45]],[[3621,2833],[57,76],[8,6]],[[3686,2915],[410,321]],[[3491,1622],[2,7]],[[3493,1629],[-1,-6]],[[1659,1851],[-19,-8]],[[1640,1843],[-40,-16],[-22,-22]],[[1635,1828],[5,15]],[[1640,1843],[3,10],[19,4]],[[3198,1293],[41,39]],[[3239,1332]],[[3234,1318],[-36,-25]],[[3240,1332],[-1,0]],[[3239,1332],[-31,-13]],[[3383,1342],[38,7],[3,36]],[[3455,1454],[-27,-96],[-6,-9],[-33,-10]],[[3559,1725],[15,-28],[-4,-32],[12,-36],[1,-4],[-3,-13],[-20,-49],[-78,-101]],[[3558,1727],[1,7],[4,4]],[[3563,1738],[7,5],[6,2]],[[3568,1742],[-5,-4]],[[3563,1738],[-3,-4],[-1,-8]],[[3569,1587],[14,38],[-1,4],[-10,20],[-1,6],[-2,10],[4,32],[-14,27]],[[3576,1745],[-6,-2]],[[3577,1745],[13,5]],[[3590,1750],[-13,-5]],[[3591,1751],[26,58]],[[3617,1809],[-26,-58]],[[3617,1811],[38,62]],[[3655,1873],[-38,-62]],[[3429,1297],[-1,5]],[[4089,2606]],[[3295,1009],[15,-50]],[[3214,1065],[8,2]],[[3226,1072],[1,0]],[[3227,1072],[-1,-1]],[[3227,1072],[147,77]],[[3363,1143],[26,19]],[[3389,1162],[65,90]],[[3390,1160],[-1,2]],[[3454,1252],[-8,-37]],[[3454,1252],[4,49]],[[3501,1337],[-12,-35]],[[3226,1072],[0,-1],[-1,0],[1,1]],[[3173,1202],[3,18],[2,2]],[[3178,1222]],[[3178,1222],[-2,-2],[-3,-18]],[[3173,1202],[6,-28]],[[3179,1174],[12,-21]],[[3179,1174],[9,-12],[5,-14],[5,-19],[2,-7]],[[3191,1153],[-5,11]],[[3199,1122],[-8,31]],[[3195,1136],[-1,7]],[[3194,1144],[2,-8]],[[3198,1293],[-3,-14],[-15,-47],[34,-12],[-36,2]],[[3178,1222]],[[3178,1222],[1,10],[19,61]],[[3206,1318],[9,2]],[[3221,1014],[31,-45]],[[3226,1096],[0,-1]],[[3227,1097]],[[3237,1321],[-3,-3]],[[3411,1020],[71,48]],[[3626,1257],[-63,-59],[-92,109]],[[3665,1241],[-13,17]],[[3204,1354],[20,-19]],[[3205,1099],[-3,13],[-1,2]],[[3201,1114],[-2,8],[-4,14]],[[3196,1136],[9,-37]],[[3205,1100],[-4,14]],[[3201,1114]],[[3201,1116],[5,-16]],[[3270,1384]],[[3212,1366],[-5,-5]],[[3571,2065],[-50,-45]],[[3594,2068],[23,28]],[[3690,2166],[-72,-77]],[[3793,2279],[-5,-3]],[[3265,1380],[-35,2]],[[3277,1424]],[[3400,1523],[2,0]],[[3467,1820],[2,0]],[[3486,1957],[-10,-121]],[[3484,1602],[2,3]],[[3486,1604],[-1,-2]],[[3490,1618],[0,1]],[[3491,1619],[0,-1]],[[3496,1645],[1,15]],[[3498,1660],[0,-1],[-1,-15]],[[4083,2412],[13,-19]],[[4050,2603],[-8,7]],[[4093,2583],[-43,19]],[[3478,1833],[1,0]],[[3556,1851],[-77,-18]],[[3479,1833],[78,18]],[[3616,1810],[1,0]],[[3617,1810],[19,14],[7,0],[-26,-14],[-29,20]],[[3589,1830],[28,-20]],[[3617,1810]],[[3239,1391],[3,0],[17,-7],[-21,6]],[[3222,1031]],[[3387,1480],[13,2]],[[3428,1302],[-2,7]],[[3427,1309],[2,-7]],[[3466,1479],[-11,-15]],[[4092,2602],[0,4]],[[4093,2583]],[[4093,2583],[3,5]],[[4096,2588],[-3,-5]],[[3325,1405],[-22,-45]],[[3389,1339],[-5,1],[-2,-1]],[[3387,1339],[1,0]],[[3551,1551],[-8,-10]],[[3548,1546],[-3,-3]],[[3559,1724],[-1,3]],[[3559,1726],[0,-1]],[[3570,1743],[-2,-1]],[[3576,1745],[1,0]],[[3577,1745],[-1,0]],[[3590,1750],[1,1]],[[3591,1751],[-1,-1]],[[3617,1809],[0,2]],[[3617,1811],[0,-2]],[[3875,1710],[-125,130]],[[3178,1344],[4,-1]],[[3202,1218],[32,4]],[[3429,1300],[-32,-60],[-31,-2],[-58,-26],[-11,-2],[-43,-2],[-20,14]],[[3234,1222],[63,-11],[68,27]],[[3250,1334],[19,-27]],[[3635,1680],[6,4]],[[3641,1684],[-6,-5]],[[4096,3628],[-48,43]],[[4096,2685],[-5,18],[-55,66],[-165,37]],[[3761,2234],[-1,-4]],[[3823,2286],[-21,-5]],[[3241,1339],[9,14]],[[3251,1353],[-10,-14]],[[3281,1431],[10,13],[7,4]],[[3298,1448],[-7,-4]],[[3387,1518],[11,4]],[[3398,1522],[-11,-4]],[[4096,2581],[-3,2]],[[4093,2583],[3,-1]],[[3273,1399],[1,19]],[[3273,1399],[-3,-14]],[[3298,1448],[32,30]],[[3330,1478],[-32,-30]],[[3387,1518],[-57,-40]],[[3330,1478],[57,40]],[[3410,1525],[-10,-3]],[[3402,1523],[8,2]],[[3410,1525],[44,35]],[[3463,1746],[-17,60]],[[3448,1808],[12,7]],[[3460,1815],[7,5]],[[3485,1602],[-31,-42]],[[3454,1560],[30,42]],[[3469,1820],[-9,-5]],[[3460,1815],[-14,-7],[17,-62]],[[3497,1660],[-34,70],[0,16]],[[3463,1746],[35,-86]],[[3486,1605],[4,13]],[[3491,1618],[-5,-14]],[[3490,1619],[1,3]],[[3492,1623],[-1,-4]],[[3493,1629],[3,16]],[[3497,1644],[-4,-15]],[[3184,1343],[-8,1]],[[3743,2124],[0,-5]],[[3743,2130],[1,0]],[[3353,1296],[118,11],[124,233]],[[3630,1623],[41,87],[-28,119],[45,84]],[[3688,1975],[11,-49]],[[2896,1289],[-134,-43]],[[3230,1382],[-92,5],[-81,-33]],[[3740,2215],[3,-121]],[[3174,1341],[8,2]],[[3182,1343],[-2,-1]],[[3236,1376],[-19,-8]],[[3221,1372],[16,4]],[[3238,1390],[-105,-6],[-77,-88],[-24,-309],[30,-105],[57,-67],[147,-46],[830,-18]],[[4096,717],[-830,51],[-147,45],[-25,20],[-33,49],[-30,105],[-4,81],[28,228],[9,28],[68,61],[107,6]],[[2094,1639],[924,-36],[85,-27],[47,-67]],[[2677,1623],[-579,19]],[[3151,1510],[-48,67],[-85,27],[-341,19]],[[3247,1336],[3,-2]],[[3390,1536],[63,45]],[[3454,1581],[-63,-45]],[[3230,1382],[36,0],[-39,-4]],[[4089,2606],[-20,10]],[[4069,2616],[20,-10]],[[3902,2141],[-1,0]],[[3901,2141],[1,1]],[[3650,1754],[99,82],[27,70],[-44,63],[-41,4]],[[3241,1338],[5,-2]],[[1581,1806],[-181,-196],[-129,-80]],[[1271,1530],[-9,-6],[-72,-8]],[[1190,1516],[-86,-10]],[[1104,1506],[-131,-15],[-133,3]],[[840,1494],[-105,2]],[[735,1496],[-16,0],[-52,20]],[[667,1516],[-11,4],[-65,65],[-36,175],[36,-175],[64,-66],[12,-3]],[[667,1516],[68,-20]],[[735,1496],[20,-6],[85,4]],[[840,1494],[264,12]],[[1104,1506],[41,2],[45,8]],[[1190,1516],[81,14]],[[1271,1530],[668,115],[155,-6]],[[2098,1642],[-159,5],[-260,85],[-42,97]],[[1656,1844],[26,19],[-22,-9]],[[2677,1623]],[[3150,1509],[18,-131],[3,-2],[5,-2],[19,1],[45,17]],[[3240,1393],[-69,-17],[-20,134]],[[3300,1362],[-30,23]],[[3150,1508],[-101,116],[-194,86]],[[3580,1177],[-5,-31],[-76,32]],[[3643,1194],[5,1]],[[3651,1188],[2,-2]],[[3658,1202],[-3,-6]],[[3474,1924],[-1,-11]],[[3657,2767],[158,51],[52,-24]],[[3521,2020],[-18,-18]],[[3974,2633],[-9,2]],[[3965,2635],[8,-1]],[[3974,2633],[9,-5]],[[3983,2628],[-8,5]],[[3984,2628],[42,-13],[-42,13]],[[4042,2610],[-3,3]],[[3176,1344],[-2,-3]],[[3174,1341],[1,-24],[1,-4],[-2,4],[0,24]],[[3198,1336],[-14,7]],[[3240,1332],[-14,-17],[-28,21]],[[3198,1336],[28,-21],[13,17]],[[3217,1320],[-5,3]],[[3493,1717],[-24,-3],[24,3]],[[3494,1717],[59,17],[-59,-18]],[[3389,1527],[1,9]],[[3391,1536],[-2,-9]],[[3453,1581],[31,21]],[[3485,1602],[-31,-21]],[[3475,1579],[11,4]],[[3564,1618],[69,17]],[[3564,1618],[-16,-3]],[[3475,1582],[63,19]],[[2855,1710],[-324,144],[-182,128],[-264,280],[-133,271]],[[3227,1378],[-56,-1],[-21,131]],[[3521,1350],[6,10]],[[3620,1550],[26,14],[-6,24]],[[3919,2113],[47,-6]],[[3942,1696],[31,-47]],[[3977,1575],[-11,-80],[33,-49]],[[3837,2151],[-80,-13]],[[3845,2148],[25,-9]],[[3182,1343],[30,23],[9,6]],[[3207,1361],[-25,-18]],[[3217,1368],[-5,-2]],[[3198,1293],[25,23]],[[3234,1318],[-36,-25]],[[3219,1317],[-11,2]],[[3225,1339],[3,4]],[[3760,2230],[-20,-15]],[[3788,2276],[-27,-42]],[[3802,2281],[-9,-2]],[[3837,2289],[-14,-3]],[[1660,1854],[-79,-48]],[[1637,1829],[19,15]],[[3174,1341],[1,-19]],[[3176,1313],[2,31]],[[3182,1343],[41,-27]],[[678,1645],[-19,-7],[-18,3],[-21,14],[-16,18],[-6,21],[-23,45],[-54,23],[-62,18],[-48,27],[-17,44],[26,33],[49,22],[53,13],[30,3],[52,-9],[50,-26],[42,-40],[25,-52],[1,-30],[-9,-32],[-15,-30],[-19,-21],[-6,-13],[4,-13],[1,-11]],[[1985,2558],[-21,-23],[-28,1],[-36,-7],[-17,15],[17,36],[21,19],[31,6],[28,-13],[5,-34]],[[2326,1184],[-22,-32],[-24,14],[-7,39],[-2,31],[1,19],[11,67],[23,41],[29,8],[16,-22],[3,-15],[1,-22],[-9,-41],[-13,-43],[-7,-44]],[[4096,4096],[0,-84],[-48,-49],[-77,-28],[29,50],[95,111],[1,0]],[[4096,2916],[0,-731],[-26,-3],[-26,-13],[-11,-51],[-20,-11],[-203,-1],[-31,-6],[-24,-14],[-37,-52],[12,-25],[34,-15],[29,-21],[15,-42],[10,-93],[14,-43],[31,-41],[62,-52],[29,-44],[-53,-15],[-57,19],[-60,28],[-61,15],[-36,-25],[-148,-270],[-19,-55],[-8,-61],[21,-41],[47,1],[53,12],[40,-8],[-27,-67],[-51,-86],[-61,-58],[-61,12],[-38,-32],[-48,-85],[-44,-17],[-170,0],[15,122],[-61,226],[6,76],[59,-7],[56,59],[44,83],[22,65],[52,-7],[38,50],[23,65],[8,37],[-9,68],[-42,143],[-10,68],[5,76],[25,33],[48,6],[97,-2],[37,5],[34,16],[14,34],[10,0],[44,81],[6,18],[98,56],[112,35],[101,51],[66,104],[7,58],[-19,42],[-45,25],[-135,22],[-25,35],[-3,51],[3,58],[-23,107],[1,26],[21,5],[101,-5],[130,9],[12,-3]],[[3633,3043],[4,-92],[-74,-15],[-79,34],[-12,51],[42,18],[78,-9],[41,13]],[[1468,1912],[32,77],[76,31],[77,-31],[32,-77],[-32,-76],[-77,-32],[-76,32],[-32,76]],[[626,2588],[58,125],[104,38],[105,-38],[58,-125],[-38,-104],[-125,-58],[-124,58],[-38,104]],[[3810,1912],[22,-117],[60,-66],[-56,-64],[-113,40],[-36,-25],[-167,-325],[13,-102],[140,5],[-46,-99],[-111,41],[-25,-32],[-10,-111],[-52,-40],[-109,19],[-62,-67],[-80,-1],[10,79],[-61,226],[6,76],[59,-7],[56,59],[66,148],[92,8],[90,69],[-62,61],[-60,286],[5,76],[215,-120],[27,-74],[47,25],[37,182],[43,14],[-30,-42],[75,-61],[17,-61]],[[4096,2606],[0,-82],[-20,3],[-17,59],[-61,27],[98,-7]],[[1740,1222],[25,201],[51,92],[68,45],[100,13],[130,78],[191,-11],[135,42],[137,-50],[100,-9],[111,85],[186,6],[134,-46],[74,-106],[-152,-253],[-104,-27],[-119,28],[-105,-149],[-158,-39],[-103,-137],[-111,-59],[-94,0],[-75,33],[-138,-15],[-164,70],[-88,89],[-31,119]],[[3957,1617],[46,98],[52,-51],[0,-95],[-52,-50],[-46,98]],[[3446,1807],[111,44],[-32,23],[-47,-16],[11,128],[-27,16],[27,48],[30,3],[2,-42],[11,21],[37,-14],[-8,-25],[52,-40],[55,-3],[13,-41],[-26,-17],[-43,39],[3,-79],[-27,-23],[28,-19],[-26,-59],[-115,-36],[-29,92]],[[3754,2174],[8,76],[54,42],[36,-35],[57,-8],[66,-84],[-95,-26],[-126,35]],[[4096,2361],[0,-111],[-48,-14],[-9,22],[-14,4],[15,-40],[-61,8],[-31,-21],[-20,61],[168,91]]]}