{"objects":{"water":{"type":"GeometryCollection","geometries":[{"type":"Polygon","properties":{"source":"naturalearthdata.com","kind":"ocean","area":1576712559132672,"sort_rank":200,"min_zoom":0.0,"id":1},"arcs":[[9]]},{"type":"LineString","properties":{"source":"naturalearthdata.com","kind":"ocean","sort_rank":205,"boundary":true,"min_zoom":0.0,"id":58},"arcs":[10]}]},"buildings":{"type":"GeometryCollection","geometries":[]},"places":{"type":"GeometryCollection","geometries":[{"type":"Point","properties":{"name:ka":"\u10e9\u10e0\u10d3\u10d8\u10da\u10dd\u10d4\u10d7\u10d8 \u10d9\u10dd\u10e0\u10d4\u10d0","name:tr":"Kuzey Kore","name:kn":"\u0c89\u0ca4\u0ccd\u0ca4\u0cb0 \u0c95\u0cca\u0cb0\u0cbf\u0caf\u0cbe","name:km":"\u1780\u17bc\u179a\u17c9\u17c1\u200b\u1781\u17b6\u1784\u200b\u1787\u17be\u1784","name:kl":"Korea Avannarleq","name:cs":"Severn\u00ed Korea","name:ki":"Korea Kaskazini","name:kw":"Korea Gledh","name:kv":"\u041a\u043e\u0440\u0435\u044f \u0412\u043e\u0439\u0442\u044b\u0440 \u0414\u0435\u043c\u043e\u043a\u0440\u0430\u0442\u0438\u044f \u0420\u0435\u0441\u043f\u0443\u0431\u043b\u0438\u043a\u0430","name:ku":"Kor\u00eaya Bakur","name:ti":"\u1230\u121c\u1295 \u12ae\u122a\u12eb","name:ks":"\u0634\u064f\u0645\u0672\u0644\u06cc \u06a9\u0648\u0631\u0650\u06cc\u0627","name:to":"K\u014dlea tokelau","name:tl":"Hilagang Korea","name:ta":"\u0bb5\u0b9f\u0b95\u0bca\u0bb0\u0bbf\u0baf\u0bbe","name:tg":"\u041a\u0443\u0440\u0438\u0451\u0438 \u0428\u0438\u043c\u043e\u043b\u04e3","name:ca":"Corea del Nord","name:te":"\u0c09\u0c24\u0c4d\u0c24\u0c30 \u0c15\u0c4a\u0c30\u0c3f\u0c2f\u0c3e","name:cy":"Gogledd Corea","name:hr":"Sjeverna Koreja","name:da":"Nordkorea","name:de":"Nordkorea","name:dz":"\u0f56\u0fb1\u0f44\u0f0b\u0f40\u0f7c\u0f0b\u0f62\u0f72\u0f0b\u0f61\u0f0b","source":"openstreetmap.org","name:dv":"\u0787\u07aa\u078c\u07aa\u0783\u07aa \u0786\u07ae\u0783\u07ac\u0787\u07a7","name:lv":"Zieme\u013ckoreja","name:lt":"\u0160iaur\u0117s Kor\u0117ja","name:uz":"Shimoliy Korea","name:kk":"\u0421\u043e\u043b\u0442\u04af\u0441\u0442\u0456\u043a \u041a\u043e\u0440\u0435\u044f","name:ur":"\u0634\u0645\u0627\u0644\u06cc \u06a9\u0648\u0631\u06cc\u0627","name:lb":"Nordkorea","name:la":"Corea Septentrionalis","name:lg":"Koreya ey'omumambuka","name:uk":"\u041f\u0456\u0432\u043d\u0456\u0447\u043d\u0430 \u041a\u043e\u0440\u0435\u044f","name:ug":"\u0634\u0649\u0645\u0627\u0644\u0649\u064a \u0686\u0627\u06cb\u0634\u064a\u06d5\u0646","name:li":"Noord-Korea","name:ln":"Kor\u025b ya n\u0254\u0301rdi","name:lo":"\u0ec0\u0e81\u0ebb\u0eb2\u0eab\u0ea5\u0eb5\u0ec0\u0edc\u0eb7\u0ead","name:el":"\u0392\u03cc\u03c1\u03b5\u03b9\u03b1 \u039a\u03bf\u03c1\u03ad\u03b1","name:eo":"Nord-Koreujo","name:en":"North Korea","name":"\uc870\uc120\ubbfc\uc8fc\uc8fc\uc758\uc778\ubbfc\uacf5\ud654\uad6d","name:tk":"Demirgazyk Kore\u00fda","name:ee":"Dziehe Korea nutome","name:th":"\u0e1b\u0e23\u0e30\u0e40\u0e17\u0e28\u0e40\u0e01\u0e32\u0e2b\u0e25\u0e35\u0e40\u0e2b\u0e19\u0e37\u0e2d","name:eu":"Ipar Korea","name:et":"P\u00f5hja-Korea","name:es":"Corea del Norte","name:ia":"Corea del Nord","name:rm":"Corea dal Nord","name:rn":"Koreya y'amajaruguru","name:az":"\u015eimali Koreya","name:ie":"Nord-Korea","name:id":"Korea Utara","name:ar":"\u0643\u0648\u0631\u064a\u0627 \u0627\u0644\u0634\u0645\u0627\u0644\u064a\u0629","name:io":"Nord-Korea","name:ak":"Etifi Koria","name:am":"\u1230\u121c\u1295 \u12ae\u122a\u12eb","name:it":"Corea del Nord","name:an":"Corea d'o Norte","name:ru":"\u041a\u043e\u0440\u0435\u0439\u0441\u043a\u0430\u044f \u041d\u0430\u0440\u043e\u0434\u043d\u043e-\u0414\u0435\u043c\u043e\u043a\u0440\u0430\u0442\u0438\u0447\u0435\u0441\u043a\u0430\u044f \u0420\u0435\u0441\u043f\u0443\u0431\u043b\u0438\u043a\u0430","name:rw":"Koreya y\u2019Amajyaruguru","name:af":"Noord-Korea","name:zu":"i-North Korea","name:no":"Nord-Korea","name:zh-yue":"\u671d\u9bae\u6c11\u4e3b\u4e3b\u7fa9\u4eba\u6c11\u5171\u548c\u570b","name:zh":"\u671d\u9c9c","name:so":"Kuuriyada Waqooyi","name:sn":"Korea, North","name:sl":"Severna Koreja","name:sk":"Severn\u00e1 K\u00f3rea","name:ja":"\u671d\u9bae\u6c11\u4e3b\u4e3b\u7fa9\u4eba\u6c11\u5171\u548c\u56fd","name:si":"\u0d8b\u0dad\u0dd4\u0dbb\u0dd4 \u0d9a\u0ddc\u0dbb\u0dd2\u0dba\u0dcf\u0dc0","name:sh":"Sjeverna Koreja","name:sg":"Kor\u00ebe t\u00ee Banga","name:se":"Davvi-Korea","name:sa":"\u0909\u0924\u094d\u0924\u0930 \u0915\u094b\u0930\u093f\u092f\u093e","name:bs":"Sjeverna Koreja","name:bm":"K\u025b\u0272\u025bka Kore","name:bn":"\u0989\u09a4\u09cd\u09a4\u09b0 \u0995\u09cb\u09b0\u09bf\u09af\u09bc\u09be","name:bo":"\u0f56\u0fb1\u0f44\u0f0b\u0f40\u0f7c\u0f0b\u0f62\u0f72\u0f0b\u0f61\u0f0d","name:br":"Korea an Norzh","name:sw":"Korea Kaskazini","name:be":"\u041f\u0430\u045e\u043d\u043e\u0447\u043d\u0430\u044f \u041a\u0430\u0440\u044d\u044f","name:su":"Kor\u00e9a Kal\u00e9r","name:bg":"\u0421\u0435\u0432\u0435\u0440\u043d\u0430 \u041a\u043e\u0440\u0435\u044f","name:ss":"IKhoriya leseNyakatfo","name:sr":"\u0421\u0435\u0432\u0435\u0440\u043d\u0430 \u041a\u043e\u0440\u0435\u0458\u0430","name:sq":"Koreja e Veriut","alt_name:ko":"\ubd81\ud55c","name:jv":"Kor\u00e9a Lor","name:pt":"Coreia do Norte","name:ps":"\u062f \u06a9\u0648\u0631\u064a\u0627 \u0648\u0644\u0633\u0648\u0627\u06a9 \u062e\u0644\u0642 \u062c\u0645\u0647\u0648\u0631\u064a\u062a","name:oc":"Cor\u00e8a del N\u00f2rd","min_zoom":2.0,"name:ro":"Coreea de Nord","name:zh-min-nan":"Ti\u00e2u-si\u00e1n","name:os":"\u0426\u00e6\u0433\u0430\u0442 \u041a\u043e\u0440\u0435\u0439","name:or":"\u0b09\u0b24\u0b4d\u0b24\u0b30 \u0b15\u0b4b\u0b30\u0b3f\u0b06","name:pl":"Korea P\u00f3\u0142nocna","name:pa":"\u0a09\u0a71\u0a24\u0a30\u0a40 \u0a15\u0a4b\u0a30\u0a40\u0a06","name:hi":"\u0909\u0924\u094d\u0924\u0930 \u0915\u094b\u0930\u093f\u092f\u093e","name:sv":"Nordkorea","name:he":"\u05e7\u05d5\u05e8\u05d9\u05d0\u05d4 \u05d4\u05e6\u05e4\u05d5\u05e0\u05d9\u05ea","name:ha":"Koreya Ta Arewa","name:hy":"\u0540\u0575\u0578\u0582\u057d\u056b\u057d\u0561\u0575\u056b\u0576 \u053f\u0578\u0580\u0565\u0561","name:ht":"Kore din\u00f2","name:hu":"\u00c9szak-Korea","name:qu":"Chinchay Kuriya","population":24052231,"kind":"country","name:is":"Nor\u00f0ur-K\u00f3rea","name:yi":"\u05e6\u05e4\u05d5\u05df \u05e7\u05d0\u05e8\u05e2\u05e2","name:yo":"Or\u00edl\u1eb9\u0301\u00e8de Guusu K\u1ecdria","name:mt":"Koreja ta\u2019 Fuq","alt_name:eo":"Nord-Koreo;Nord-Koreio","name:ms":"Korea Utara","name:mr":"\u0909\u0924\u094d\u0924\u0930 \u0915\u094b\u0930\u093f\u092f\u093e","name:my":"\u1019\u103c\u1031\u102c\u1000\u103a\u1000\u102d\u102f\u101b\u102e\u1038\u101a\u102c\u1038","int_name":"North Korea","name:mg":"Korea Avaratra","name:ml":"\u0d09\u0d24\u0d4d\u0d24\u0d30 \u0d15\u0d4a\u0d31\u0d3f\u0d2f","name:vi":"Tri\u1ec1u Ti\u00ean","name:mn":"\u0425\u043e\u0439\u0434 \u0421\u043e\u043b\u043e\u043d\u0433\u043e\u0441","name:mi":"K\u014drea-ki-te-raki","id":249399361,"name:mk":"\u0421\u0435\u0432\u0435\u0440\u043d\u0430 \u041a\u043e\u0440\u0435\u0458\u0430","name:vo":"Nol\u00fcda-Korey\u00e4n","name:fa":"\u06a9\u0631\u0647 \u0634\u0645\u0627\u0644\u06cc","name:ff":"Koree Rewo","name:fi":"Pohjois-Korea","name:fo":"Nor\u00f0urkorea","alt_name:vi":"B\u1eafc Tri\u1ec1u Ti\u00ean;B\u1eafc H\u00e0n","name:fr":"Cor\u00e9e du Nord","name:fy":"Noard-Korea","name:nl":"Noord-Korea","name:nn":"Nord-Korea","alt_name:ru":"\u0421\u0435\u0432\u0435\u0440\u043d\u0430\u044f \u041a\u043e\u0440\u0435\u044f","name:na":"Republik Engame Korea","name:ne":"\u0909\u0924\u094d\u0924\u0930 \u0915\u094b\u0930\u093f\u092f\u093e","name:wo":"Kore gu B\u00ebj-g\u00e0nnaar","name:nv":"Kol\u00edya Bik\u00e9yah N\u00e1hook\u01ebsj\u00ed Si\u02bc\u00e1n\u00edg\u00ed\u00ed","name:ga":"An Ch\u00f3ir\u00e9 Thuaidh","name:gd":"Coirea a Tuath","name:gl":"Corea do Norte","name:gv":"Yn Chorea Twoaie","name:gu":"\u0a89\u0aa4\u0acd\u0aa4\u0ab0 \u0a95\u0acb\u0ab0\u0abf\u0aaf\u0abe","name:tt":"\u041a\u043e\u0440\u0435\u044f \u0425\u0430\u043b\u044b\u043a \u0414\u0435\u043c\u043e\u043a\u0440\u0430\u0442\u0438\u043a \u0496\u04e9\u043c\u04bb\u04af\u0440\u0438\u044f\u0442\u0435"},"coordinates":[1528,1776]},{"type":"Point","properties":{"kind":"region","name:en":"South Hamgyong Province","name":"\ud568\uacbd\ub0a8\ub3c4","name:ko":"\u54b8\u93e1\u5357\u9053","kind_detail":"state","source":"openstreetmap.org","min_zoom":4.0,"name:zh":"\u54b8\u955c\u5357\u9053","id":4549708238,"name:ja":"\u54b8\u93e1\u5357\u9053"},"coordinates":[3019,804]},{"type":"Point","properties":{"admin_level":"4","name:pt":"Hamgyong Sul","name:nl":"Hamgy\u014fng-namdo","name:id":"Hamgyong Selatan","name:lt":"Piet\u0173 Hamgiongo provincija","name:no":"S\u00f8r-Hamgyong","name:ko":"\ud568\uacbd\ub0a8\ub3c4","name:sv":"S\u00f6dra Hamgyong","name:cs":"Ji\u017en\u00ed Hamgj\u014fng","kind":"region","min_zoom":4.0,"name:en":"Hamgyongnam-do","name:it":"Sud Hamgyong","name:uk":"\u041f\u0456\u0432\u0434\u0435\u043d\u043d\u0430 \u043f\u0440\u043e\u0432\u0456\u043d\u0446\u0456\u044f \u0425\u0430\u043c\u0433\u044c\u043e\u043d","name:ru":"\u0425\u0430\u043c\u0433\u0451\u043d-\u041d\u0430\u043c\u0434\u043e","name:vi":"Hamgyong Nam","name:pl":"Hamgy\u014fng Po\u0142udniowy","name:hu":"D\u00e9l-Hamgjong","id":2925154705,"name:ja":"\u54b8\u93e1\u5357\u9053","name:eo":"Sud-Hamgjong","name:bg":"\u042e\u0436\u0435\u043d \u0425\u0430\u043c\u0433\u044c\u043e\u043d","name":"\ud568\uacbd\ub0a8\ub3c4 (Hamgyongnam-do)","kind_detail":"state","name:da":"Syd-Hamgyong","name:de":"Hamgy\u014fng-namdo","source":"openstreetmap.org","name:fr":"Hamgyong du Sud","name:fi":"Etel\u00e4-Hamgy\u014fng","name:zh":"\u54b8\u955c\u5357\u9053","name:es":"Hamgy\u014fng del Sur"},"coordinates":[3148,1261]},{"type":"Point","properties":{"int_name":"Hamhung","name:nl":"Hamh\u016dng","name:ja":"\u54b8\u8208","name:lt":"Hamhungas","name:ko":"\u54b8\u8208\u5e02","min_zoom":8.0,"name:uk":"\u0425\u0430\u043c\u0445\u0438\u043d","name:vi":"H\u00e0m H\u01b0ng","name:ru":"\u0425\u0430\u043c\u0445\u044b\u043d","id":256629919,"population":559056,"name:el":"\u03a7\u03ac\u03bc\u03c7\u03bf\u03c5\u03bd\u03b3\u03ba","kind":"locality","name:en":"Hamhung","name":"\ud568\ud765\uc2dc","kind_detail":"city","name:sr":"\u0425\u0430\u043c\u0445\u0443\u043d\u0433","source":"openstreetmap.org","name:fr":"Hamhung","name:zh":"\u54b8\u5174\u5e02"},"coordinates":[2859,22]},{"type":"Point","properties":{"int_name":"Kanggye","name:ja":"\u6c5f\u754c\u5e02","name:lt":"Kang\u0117","name:ko":"\u6c5f\u754c\u5e02","min_zoom":8.0,"name:uk":"\u041a\u0430\u043d\u0433\u0435","name:ru":"\u041a\u0430\u043d\u0433\u0435","name:vi":"Giang Gi\u1edbi","id":264064059,"population":251971,"kind":"locality","name:en":"Kanggye","name":"\uac15\uacc4\uc2dc","kind_detail":"city","name:de":"Kanggye","source":"openstreetmap.org"},"coordinates":[102,4042]}]},"transit":{"type":"GeometryCollection","geometries":[{"type":"MultiLineString","properties":{"source":"openstreetmap.org","kind":"train","sort_rank":275,"ref":"\u0423\u0441\u0441\u0443\u0440\u0438\u0439\u0441\u043a \u2014 \u041f\u0445\u0435\u043d\u044c\u044f\u043d","min_zoom":6.0,"osm_relation":true},"arcs":[[5],[6]]},{"type":"MultiLineString","properties":{"kind":"train","name":"Pyongyang \u2014 Moscow","sort_rank":275,"name:de":"Pj\u00f6ngjang \u2014 Moskau","source":"openstreetmap.org","min_zoom":6.0,"name:ko":"\ud3c9\uc591\u2013\ubaa8\uc2a4\ucf54\ubc14","name:ru":"\u041f\u0445\u0435\u043d\u044c\u044f\u043d \u2014 \u041c\u043e\u0441\u043a\u0432\u0430","ref":"002 Pyongyang - Moscow","osm_relation":true},"arcs":[[7],[8]]}]},"pois":{"type":"GeometryCollection","geometries":[]},"boundaries":{"type":"GeometryCollection","geometries":[{"type":"MultiLineString","properties":{"name:left:ja":"\u5e73\u5b89\u5357\u9053","id:right":-356392,"name:left:uk":"\u041f\u0456\u0432\u0434\u0435\u043d\u043d\u0430 \u043f\u0440\u043e\u0432\u0456\u043d\u0446\u0456\u044f \u041f\u0445\u044c\u043e\u043d\u0430\u043d","name:left:no":"S\u00f8r-Pyongan","name:left:nl":"P'y\u014fngan-namdo","name:left:lt":"Piet\u0173 Pchenjano provincija","name:left:bg":"\u042e\u0436\u0435\u043d \u041f\u0445\u044c\u043e\u043d\u0430\u043d","name:left:hu":"D\u00e9l-Phjongan","id":-356419,"name:right":"\uc790\uac15\ub3c4","name:left:eo":"Sud-Pjongan","name:left:en":"Pyongannam-do","sort_rank":256,"kind_detail":"4","source":"openstreetmap.org","id:left":-356419,"name:left:es":"P'y\u014fngan del Sur","name:left:cs":"Ji\u017en\u00ed Pchj\u014fngan","name:left":"\ud3c9\uc548\ub0a8\ub3c4","name:left:sv":"S\u00f6dra P'y\u014fngan","name:left:pl":"P'y\u014fngan Po\u0142udniowy","name:left:ko":"P\u2019y\u014fngan-namdo","name:left:id":"P'y\u014fngan Selatan","name:right:ru":"\u0427\u0430\u0433\u0430\u043d\u0434\u043e","name:left:th":"\u0e21\u0e13\u0e11\u0e25\u0e1e\u0e22\u0e2d\u0e07\u0e2d\u0e31\u0e19\u0e43\u0e15\u0e49","name:left:ru":"\u041f\u0445\u0451\u043d\u0430\u043d-\u041d\u0430\u043c\u0434\u043e","min_zoom":8.0,"name:left:it":"Sud Pyongan","name:right:en":"Chagang","osm_relation":true,"name:left:vi":"B\u00ecnh An Nam","name:left:pt":"Pyongan Sul","kind":"region","name":"\ud3c9\uc548\ub0a8\ub3c4 - \uc790\uac15\ub3c4","name:left:da":"Sydpyongan","name:left:de":"S\u00fcd-P\u2019y\u014fngan","name:left:fi":"Etel\u00e4-P'y\u014fngan","name:left:zh":"\u5e73\u5b89\u5357\u9053","name:left:fr":"Pyongan du Sud","name:right:zh":"\u6148\u6c5f\u9053"},"arcs":[[0],[1]]},{"type":"LineString","properties":{"name:right:no":"S\u00f8r-Hamgyong","name:right:nl":"Hamgy\u014fng-namdo","name:right:ja":"\u54b8\u93e1\u5357\u9053","name:right:fr":"Hamgyong du Sud","name:right:uk":"\u041f\u0456\u0432\u0434\u0435\u043d\u043d\u0430 \u043f\u0440\u043e\u0432\u0456\u043d\u0446\u0456\u044f \u0425\u0430\u043c\u0433\u044c\u043e\u043d","name:left:ja":"\u5e73\u5b89\u5357\u9053","id:right":-356386,"name:right:lt":"Piet\u0173 Hamgiongo provincija","name:left:no":"S\u00f8r-Pyongan","name:left:nl":"P'y\u014fngan-namdo","name:left:lt":"Piet\u0173 Pchenjano provincija","name:left:bg":"\u042e\u0436\u0435\u043d \u041f\u0445\u044c\u043e\u043d\u0430\u043d","name:left:hu":"D\u00e9l-Phjongan","id":-356419,"name:right:fi":"Etel\u00e4-Hamgy\u014fng","name:right:id":"Hamgyong Selatan","name:left:eo":"Sud-Pjongan","name:left:en":"Pyongannam-do","sort_rank":256,"name:right:eo":"Sud-Hamgjong","source":"openstreetmap.org","id:left":-356419,"name:left:es":"P'y\u014fngan del Sur","name:right:cs":"Ji\u017en\u00ed Hamgj\u014fng","name:right":"\ud568\uacbd\ub0a8\ub3c4","name:left:cs":"Ji\u017en\u00ed Pchj\u014fngan","name:left":"\ud3c9\uc548\ub0a8\ub3c4","name:right:es":"Hamgy\u014fng del Sur","name:right:it":"Sud Hamgyong","name:right:pt":"Hamgyong Sul","name:left:pl":"P'y\u014fngan Po\u0142udniowy","name:left:ko":"P\u2019y\u014fngan-namdo","name:left:id":"P'y\u014fngan Selatan","min_zoom":8.0,"name:right:ko":"Hamgyongnam-do","name:right:vi":"Hamgyong Nam","name:left:th":"\u0e21\u0e13\u0e11\u0e25\u0e1e\u0e22\u0e2d\u0e07\u0e2d\u0e31\u0e19\u0e43\u0e15\u0e49","name:left:de":"S\u00fcd-P\u2019y\u014fngan","name:right:sv":"S\u00f6dra Hamgyong","name:left:ru":"\u041f\u0445\u0451\u043d\u0430\u043d-\u041d\u0430\u043c\u0434\u043e","name:right:bg":"\u042e\u0436\u0435\u043d \u0425\u0430\u043c\u0433\u044c\u043e\u043d","name:left:it":"Sud Pyongan","name:right:pl":"Hamgy\u014fng Po\u0142udniowy","name:right:en":"Hamgyongnam-do","osm_relation":true,"name:left:vi":"B\u00ecnh An Nam","name:left:sv":"S\u00f6dra P'y\u014fngan","name:left:uk":"\u041f\u0456\u0432\u0434\u0435\u043d\u043d\u0430 \u043f\u0440\u043e\u0432\u0456\u043d\u0446\u0456\u044f \u041f\u0445\u044c\u043e\u043d\u0430\u043d","kind":"region","name":"\ud3c9\uc548\ub0a8\ub3c4 - \ud568\uacbd\ub0a8\ub3c4","name:left:da":"Sydpyongan","name:right:ru":"\u0425\u0430\u043c\u0433\u0451\u043d-\u041d\u0430\u043c\u0434\u043e","name:left:pt":"Pyongan Sul","name:right:da":"Syd-Hamgyong","name:left:fi":"Etel\u00e4-P'y\u014fngan","name:left:zh":"\u5e73\u5b89\u5357\u9053","name:left:fr":"Pyongan du Sud","name:right:de":"Hamgy\u014fng-namdo","kind_detail":"4","name:right:zh":"\u54b8\u955c\u5357\u9053"},"arcs":[2]},{"type":"LineString","properties":{"name:right:no":"S\u00f8r-Hamgyong","name:right:nl":"Hamgy\u014fng-namdo","name:right:ja":"\u54b8\u93e1\u5357\u9053","name:right:fr":"Hamgyong du Sud","name:right:uk":"\u041f\u0456\u0432\u0434\u0435\u043d\u043d\u0430 \u043f\u0440\u043e\u0432\u0456\u043d\u0446\u0456\u044f \u0425\u0430\u043c\u0433\u044c\u043e\u043d","id:right":-356386,"name:right:lt":"Piet\u0173 Hamgiongo provincija","min_zoom":8.0,"name:right:eo":"Sud-Hamgjong","id":-356392,"name:right":"\ud568\uacbd\ub0a8\ub3c4","name:right:id":"Hamgyong Selatan","name:left:en":"Chagang","sort_rank":256,"kind_detail":"4","source":"openstreetmap.org","id:left":-356392,"name:right:cs":"Ji\u017en\u00ed Hamgj\u014fng","name:right:fi":"Etel\u00e4-Hamgy\u014fng","name:left":"\uc790\uac15\ub3c4","name:right:es":"Hamgy\u014fng del Sur","name:right:pt":"Hamgyong Sul","name:right:it":"Sud Hamgyong","name:right:ko":"Hamgyongnam-do","name:right:vi":"Hamgyong Nam","name:right:sv":"S\u00f6dra Hamgyong","name:left:ru":"\u0427\u0430\u0433\u0430\u043d\u0434\u043e","name:right:bg":"\u042e\u0436\u0435\u043d \u0425\u0430\u043c\u0433\u044c\u043e\u043d","name:right:ru":"\u0425\u0430\u043c\u0433\u0451\u043d-\u041d\u0430\u043c\u0434\u043e","name:right:pl":"Hamgy\u014fng Po\u0142udniowy","name:right:en":"Hamgyongnam-do","osm_relation":true,"kind":"region","name":"\uc790\uac15\ub3c4 - \ud568\uacbd\ub0a8\ub3c4","name:right:de":"Hamgy\u014fng-namdo","name:right:da":"Syd-Hamgyong","name:left:zh":"\u6148\u6c5f\u9053","name:right:zh":"\u54b8\u955c\u5357\u9053"},"arcs":[3]},{"type":"LineString","properties":{"name:left:sv":"S\u00f6dra Hamgyong","id:right":-356379,"name:left:uk":"\u041f\u0456\u0432\u0434\u0435\u043d\u043d\u0430 \u043f\u0440\u043e\u0432\u0456\u043d\u0446\u0456\u044f \u0425\u0430\u043c\u0433\u044c\u043e\u043d","name:left:no":"S\u00f8r-Hamgyong","min_zoom":8.0,"name:left:lt":"Piet\u0173 Hamgiongo provincija","name:left:bg":"\u042e\u0436\u0435\u043d \u0425\u0430\u043c\u0433\u044c\u043e\u043d","id":-356386,"name:right":"\ub7c9\uac15\ub3c4","name:left:eo":"Sud-Hamgjong","name:left:en":"Hamgyongnam-do","sort_rank":256,"kind_detail":"4","source":"openstreetmap.org","id:left":-356386,"name:left:es":"Hamgy\u014fng del Sur","name:left:cs":"Ji\u017en\u00ed Hamgj\u014fng","name:left":"\ud568\uacbd\ub0a8\ub3c4","name:left:ja":"\u54b8\u93e1\u5357\u9053","name:left:pl":"Hamgy\u014fng Po\u0142udniowy","name:left:ko":"Hamgyongnam-do","name:left:id":"Hamgyong Selatan","name:right:ru":"\u042f\u043d\u0433\u0430\u043d\u0434\u043e","name:left:pt":"Hamgyong Sul","name:left:de":"Hamgy\u014fng-namdo","name:left:ru":"\u0425\u0430\u043c\u0433\u0451\u043d-\u041d\u0430\u043c\u0434\u043e","name:left:it":"Sud Hamgyong","name:right:en":"Ryanggang","osm_relation":true,"name:left:vi":"Hamgyong Nam","kind":"region","name":"\ud568\uacbd\ub0a8\ub3c4 - \ub7c9\uac15\ub3c4","name:left:da":"Syd-Hamgyong","name:left:nl":"Hamgy\u014fng-namdo","name:left:fi":"Etel\u00e4-Hamgy\u014fng","name:left:zh":"\u54b8\u955c\u5357\u9053","name:left:fr":"Hamgyong du Sud","name:right:zh":"\u4e24\u6c5f\u9053"},"arcs":[4]}]},"roads":{"type":"GeometryCollection","geometries":[{"type":"MultiLineString","properties":{"sort_rank":380,"kind_detail":"primary","min_zoom":8.0,"kind":"major_road","source":"openstreetmap.org"},"arcs":[[11],[12],[13],[14],[15],[16],[17],[18],[19],[20],[21],[22],[23],[24],[25],[26],[27],[28],[29],[30],[31],[32],[33],[34],[35]]},{"type":"MultiLineString","properties":{"source":"openstreetmap.org","kind":"major_road","landuse_kind":"residential","sort_rank":380,"kind_detail":"primary","min_zoom":8.0},"arcs":[[36],[37],[38],[39]]}]},"earth":{"type":"GeometryCollection","geometries":[{"type":"Polygon","properties":{"sort_rank":10,"source":"naturalearthdata.com","min_zoom":0.0,"kind":"earth","area":58761259616},"arcs":[[40]]}]},"landuse":{"type":"GeometryCollection","geometries":[{"type":"MultiPolygon","properties":{"source":"openstreetmap.org","kind":"residential","tier":2,"area":67162348,"sort_rank":20,"min_zoom":8.0},"arcs":[[[41]]]},{"type":"Polygon","properties":{"source":"naturalearthdata.com","kind":"urban_area","name":"","area":19685558,"sort_rank":11,"min_zoom":4.0,"id":1185},"arcs":[[42]]}]}},"type":"Topology","transform":{"translate":[126.5625,39.9097362345],"scale":[0.0003433228,0.00026127]},"arcs":[[[0,579],[23,-36],[-23,-23]],[[987,1668],[-20,-29],[-10,-185],[-175,-117],[-91,-250],[-224,-17],[-75,-133],[-135,-34],[-112,-144],[-145,-75]],[[1549,0],[-155,304],[-16,82],[35,45],[89,43],[8,134],[69,47],[24,57],[53,23],[91,-10],[23,24],[-31,220],[-36,33],[-132,-5],[-69,116],[59,284],[-85,64],[-67,19],[-49,108],[-73,6],[-67,80],[-124,-72],[-109,66]],[[987,1668],[70,109],[68,260],[178,146],[-21,190],[57,147],[102,13],[135,129],[143,75],[160,11],[96,335],[146,115],[82,13],[81,94],[101,9],[54,40],[60,198],[-53,163],[-1,251],[83,130]],[[4096,2512],[-155,-256],[-307,-197],[-76,-90],[-166,-47],[3,244],[129,188],[20,288],[-118,-3],[-50,54],[-40,287],[-92,30],[-98,219],[-67,68],[-14,149],[-52,110],[22,101],[252,160],[44,55],[35,132],[-57,92]],[[2864,0],[29,29],[25,-24],[1,-5]],[[3670,0],[13,17],[-1,79],[71,24],[121,195],[125,14],[97,126]],[[2864,0],[29,29],[25,-24],[1,-5]],[[3670,0],[13,17],[-1,79],[71,24],[121,195],[125,14],[97,126]],[[3853,0],[17,130],[0,67],[45,87],[69,-46],[28,11],[21,26],[48,86],[15,14],[0,-375],[-243,0]],[[3853,0],[17,130],[0,67],[45,87],[69,-46],[28,11],[21,26],[48,86],[15,14]],[[637,0],[-1,10],[61,95],[10,-16],[103,49],[48,64],[-11,52],[59,12],[31,60],[24,-12],[-26,84],[60,20],[-26,35],[77,28],[25,61],[-24,53],[27,115],[38,-47],[110,-12],[16,39],[79,14],[11,41],[181,12],[-26,-15],[84,-58],[7,-72],[30,-30],[-29,-38],[66,-20],[73,-101],[136,-99],[8,-39],[36,-17],[-18,-21],[59,-180],[83,-13],[66,-54]],[[1557,2216],[-82,-50],[-179,111],[-33,-37],[6,-31],[-85,12],[-49,-47],[-96,41],[-60,-22],[-115,14],[54,221],[99,90],[-45,250],[-41,30],[-164,-51],[-80,-52],[-22,-66],[-121,-123],[-113,-109],[-39,1],[-56,-48],[5,44],[-72,47],[-44,-28],[-32,74],[-136,-26],[-57,65]],[[0,3602],[0,-127]],[[108,3976],[29,-167],[-46,1],[-70,-55],[25,-19],[-19,-52],[-27,-5]],[[43,4079],[-7,17]],[[76,4086],[21,10]],[[249,4096],[-50,-48]],[[706,4096],[-40,0]],[[758,4096],[40,-26],[30,-85],[-4,30],[89,15],[46,-30],[38,-75],[40,-6],[145,116],[149,-13],[70,52],[56,0],[100,-12],[76,-39],[30,73]],[[2146,1432],[-76,-28],[-82,10],[-87,-90],[-40,-1],[-24,-46],[-146,-2],[-54,-80],[-27,12],[-74,-30],[-72,50],[6,19],[42,-19],[-56,45],[-79,-49],[-42,-67],[-86,-38],[-83,22],[-42,-31],[4,-65],[-53,-113],[1,-51],[32,-39],[1,-97],[-23,-35]],[[1557,2216],[14,133],[137,127],[25,241],[-19,113],[46,58],[-73,114],[-32,-18],[28,92],[-16,69],[34,69],[-25,-26],[23,47],[-24,56],[36,-37],[12,30],[25,-1],[-25,12],[13,84],[-23,29],[47,19],[-11,44],[45,43],[-19,54],[35,28],[-23,59],[48,44],[-43,6],[1,39],[-42,18],[-113,-42],[73,70],[-2,78],[17,-1],[-19,73],[-53,20],[-43,64]],[[1987,1814],[-34,48],[-51,-14],[4,28],[-27,5],[-47,5],[-91,-39],[-2,44],[-52,-16],[-48,41],[4,170],[-16,28],[-34,-14],[18,63],[-54,53]],[[1659,4067],[4,-8],[0,-45],[33,29],[21,-69],[9,21],[21,4],[-5,-24],[34,16],[-24,-32],[16,-11],[59,43],[-24,-59],[56,48],[40,-15],[5,85],[70,-21],[63,33],[-26,34]],[[2787,0],[3,2],[2,2]],[[2792,4],[90,103],[49,75],[26,20],[92,143],[93,80],[31,71],[109,114],[372,-77],[217,2],[112,-93],[92,17],[21,16]],[[1987,1814],[54,56],[8,68],[91,25],[52,-65],[119,-39],[36,9],[98,-159],[75,22],[63,72],[36,-37],[20,52],[293,108],[30,50],[38,63],[48,47],[21,114],[43,73],[-87,178],[-30,6],[54,101],[-38,-15],[-11,85],[-46,-16],[-32,51],[20,13],[-81,57],[25,4],[8,37],[-43,67],[65,3],[17,27],[-133,21],[37,29],[-126,300],[15,35],[-33,33],[42,86],[-32,113],[-86,79],[25,4],[11,56],[-48,14],[8,48],[-40,9],[18,125],[86,83],[-4,101],[34,89]],[[2147,1437],[-18,170],[-139,161],[-3,46]],[[2016,4096],[49,-26],[107,26]],[[2641,405],[-272,178],[-44,58],[-13,76],[-65,51],[45,133],[-68,101],[-54,-4],[-40,62],[-4,27],[35,20],[-20,67],[33,64],[-49,1],[-25,75],[44,60],[3,63]],[[2147,1437],[1,-4]],[[2959,1971],[26,-92],[80,-24],[-15,-37],[16,18],[47,-23],[-35,-19],[2,-62],[18,36],[15,-38],[-33,-188],[11,-76],[-31,-57],[10,-75],[-81,-150],[-58,-36],[-160,-252],[-50,-139],[-78,-420],[94,-247],[41,-24],[14,-62]],[[2792,4],[0,-1]],[[2802,0],[-6,6]],[[2958,1969],[1,-1]],[[4096,2797],[-27,-23],[-122,-38],[-176,-489],[-101,-93],[-257,96],[-136,-41],[-90,37],[-93,-13]],[[56,4077],[-13,2]],[[56,4077],[20,9]],[[56,4077],[52,-101]],[[90,4036],[109,12]],[[4096,375],[-15,-14],[-48,-86],[-21,-26],[-28,-11],[-69,46],[-45,-87],[0,-67],[-17,-130],[-3853,0],[0,4096],[4096,0],[0,-3721]],[[0,3989],[13,84],[108,23],[-9,-47],[88,2],[-25,-65],[-15,29],[-44,-9],[10,-55],[16,11],[24,11],[14,-5],[-53,-20],[51,2],[-44,-40],[-20,73],[-15,-17],[-19,46],[-80,-23]],[[2821,0],[9,33],[53,21],[50,-44],[0,-10],[-112,0]]]}