{"objects":{"water":{"type":"GeometryCollection","geometries":[{"type":"Polygon","properties":{"source":"naturalearthdata.com","kind":"ocean","area":1576712559132672,"sort_rank":200,"min_zoom":0.0,"id":1},"arcs":[[7]]},{"type":"LineString","properties":{"source":"naturalearthdata.com","kind":"ocean","sort_rank":205,"boundary":true,"min_zoom":0.0,"id":55},"arcs":[8]}]},"buildings":{"type":"GeometryCollection","geometries":[]},"places":{"type":"GeometryCollection","geometries":[{"type":"Point","properties":{"name:pt":"Mascate","name:ka":"\u10db\u10d0\u10e1\u10d9\u10d0\u10e2\u10d8","name:ko":"\ubb34\uc2a4\uce74\ud2b8","name:cv":"\u041c\u0430\u0441\u043a\u0430\u0442","name:kl":"Masqat, Oman","name:cs":"Maskat","min_zoom":8.0,"int_name":"Masca\u0163 - \u0645\u0633\u0642\u0637","name:tl":"Muscat","name:zh-min-nan":"Muscat","name:os":"\u041c\u0430\u0441\u043a\u0430\u0442","name:pl":"Maskat","name:ta":"\u0bae\u0bb8\u0bcd\u0b95\u0ba4\u0bcd","name:tg":"\u041c\u0430\u0441\u049b\u0430\u0442","name:ca":"Masqat","name:te":"\u0c2e\u0c38\u0c4d\u0c15\u0c1f\u0c4d","name:cy":"Muscat","name:da":"Muscat","name:de":"Maskat","source":"openstreetmap.org","name:kn":"\u0cae\u0cb8\u0ccd\u0c95\u0cbe\u0ca4\u0ccd","name:be":"\u041c\u0430\u0441\u043a\u0430\u0442","admin_level":"2","name:lv":"Maskata","name:lt":"Maskatas","name:hi":"\u092e\u0938\u094d\u0915\u091f","name:he":"\u05de\u05d0\u05e1\u05e7\u05d8","kind":"locality","name:la":"Mascate","name:uk":"\u041c\u0430\u0441\u043a\u0430\u0442","name:hy":"\u0544\u0561\u057d\u056f\u0561\u057f","country_capital":true,"name:ug":"\u0645\u06c7\u0633\u0643\u0627\u062a","name:hu":"Maszkat","name:hr":"Muskat","name:oc":"Mascate","population":1090797,"name:el":"\u039c\u03bf\u03c5\u03c3\u03ba\u03ac\u03c4","name:eo":"Maskato","name:en":"Muscat","name":"\u0645\u0633\u0642\u0637","name:ku":"Mesqet","name:th":"\u0e21\u0e31\u0e2a\u0e01\u0e31\u0e15","name:et":"Masqa\u0163","name:nl":"Masqat","name:es":"Mascate","name:ro":"Muscat","name:id":"Muskat","name:ms":"Muscat, Oman","name:mr":"\u092e\u0938\u094d\u0915\u0924","name:io":"Muscat","name:is":"M\u00faskat","name:am":"\u1218\u1235\u12a8\u1275","name:it":"Mascate","name:vi":"Muscat","name:ru":"\u041c\u0430\u0441\u043a\u0430\u0442","name:mn":"\u041c\u0430\u0441\u043a\u0430\u0442","id":226881400,"name:mk":"\u041c\u0443\u0441\u043a\u0430\u0442","name:vo":"M\u00e4skat","kind_detail":"city","name:fr":"Mascate","name:zh":"\u9a6c\u65af\u5580\u7279","name:sl":"Mu\u0161kat","name:sk":"Maskat","name:ja":"\u30de\u30b9\u30ab\u30c3\u30c8","name:nn":"Muscat","name:no":"Muskat","name:br":"Masqat","name:bs":"Muskat","name:bn":"\u09ae\u09be\u09b8\u09cd\u0995\u09be\u099f","name:bo":"\u0f58\u0f72\u0f0b\u0f66\u0f72\u0f0b\u0f41\u0f0b\u0f41\u0fb2\u0f72\u0f0d","name:sw":"Muskat","name:sv":"Muskat","name:bg":"\u041c\u0430\u0441\u043a\u0430\u0442","name:sr":"\u041c\u0430\u0441\u043a\u0430\u0442","name:gd":"Muscat","name:ht":"Mascat","name:gl":"Mascate","name:yo":"Muscat","name:fi":"Masqat"},"coordinates":[2589,1142]},{"type":"Point","properties":{"kind":"locality","name:en":"Seeb","name":"\u0627\u0644\u0633\u064a\u0628","kind_detail":"city","name:cs":"S\u00edb","min_zoom":8.0,"name:de":"Sib","source":"openstreetmap.org","name:fr":"Sib","name:ru":"\u0421\u0438\u0431","id":2939217892,"population":223000},"coordinates":[1538,1404]}]},"transit":{"type":"GeometryCollection","geometries":[]},"pois":{"type":"GeometryCollection","geometries":[]},"boundaries":{"type":"GeometryCollection","geometries":[{"type":"LineString","properties":{"name:pt":"Om\u00e3","name:ka":"\u10dd\u10db\u10d0\u10dc\u10d8","name:ko":"\uc624\ub9cc","name:cv":"\u041e\u043c\u0430\u043d","name:tr":"Umman","name:kl":"Oman","name:cs":"Om\u00e1n","name:tt":"\u041e\u043c\u0430\u043d","name:kw":"Oman","name:kv":"\u041e\u043c\u0430\u043d","name:ku":"Oman","name:az":"Oman","name:tl":"Oman","name:zh-min-nan":"Oman","name:os":"\u041e\u043c\u0430\u043d","name:or":"\u0b13\u0b2e\u0b3e\u0b28","name:ce":"\u041e\u043c\u0430\u043d","name:ta":"\u0b93\u0bae\u0bbe\u0ba9\u0bcd","name:tg":"\u041e\u043c\u0430\u043d","name:ca":"Oman","name:te":"\u0c12\u0c2e\u0c28\u0c4d","name:li":"Omaan","name:cy":"Oman","sort_rank":262,"name:hr":"Oman","name:da":"Oman","name:sw":"Omani","name:de":"Oman","source":"openstreetmap.org","name:nv":"Om\u0105\u0301\u0105\u0301","name:kn":"\u0c92\u0cae\u0cbe\u0ca8\u0ccd","name:be":"\u0410\u043c\u0430\u043d","name:dv":"\u07a2\u07aa\u0789\u07a7\u0782\u07b0","name:lv":"Om\u0101na","name:lt":"Omanas","name:uz":"Oman","name:kk":"\u041e\u043c\u0430\u043d","name:he":"\u05e2\u05d5\u05de\u05d0\u05df","name:eo":"Omano","name:ur":"\u0633\u0644\u0637\u0646\u062a \u0639\u0645\u0627\u0646","name:lb":"Oman","name:la":"Omania","name:uk":"\u041e\u043c\u0430\u043d","name:hy":"\u0555\u0574\u0561\u0576","name:ug":"\u0626\u0648\u0645\u0627\u0646","name:hu":"Om\u00e1n","name:ln":"Oman","name:oc":"Oman","name:el":"\u039f\u03bc\u03ac\u03bd","kind":"country","name:en":"Oman","name":"\u0639\u0645\u0627\u0646","name:tk":"Oman","min_zoom":8.0,"name:th":"\u0e1b\u0e23\u0e30\u0e40\u0e17\u0e28\u0e42\u0e2d\u0e21\u0e32\u0e19","name:eu":"Oman","name:et":"Omaan","name:jv":"Oman","name:es":"Om\u00e1n","name:ht":"Om\u00e0n","name:ia":"Oman","name:ro":"Oman","name:ie":"Oman","name:id":"Oman","name:ms":"Oman","name:mr":"\u0913\u092e\u093e\u0928","name:pa":"\u0a13\u0a2e\u0a3e\u0a28","name:my":"\u1021\u102d\u102f\u1019\u1014\u103a\u1014\u102d\u102f\u1004\u103a\u1004\u1036","name:io":"Oman","name:is":"\u00d3man","name:am":"\u12a6\u121b\u1295","name:it":"Oman","name:vi":"Oman","name:ml":"\u0d12\u0d2e\u0d3e\u0d7b","name:rw":"Omani","name:pl":"Oman","name:mk":"\u041e\u043c\u0430\u043d","name:af":"Oman","name:mn":"\u041e\u043c\u0430\u043d","name:ss":"IMani","name:si":"\u0d95\u0db8\u0dcf\u0db1\u0dba","kind_detail":"2","name:hi":"\u0913\u092e\u093e\u0928","id":-305138,"name:fr":"Oman","name:zh-yue":"\u963f\u66fc","name:fy":"Oman","name:vo":"Lom\u00e4n","name:zh":"\u963f\u66fc","name:so":"Cumaan","name:sr":"\u041e\u043c\u0430\u043d","name:sl":"Oman","name:nl":"Oman","name:ja":"\u30aa\u30de\u30fc\u30f3","name:nn":"Oman","name:sh":"Oman","name:qu":"Uman","name:na":"Oman","name:se":"Oman","name:br":"Oman","name:bs":"Oman","name:yi":"\u05d0\u05de\u05d0\u05df","name:bn":"\u0993\u09ae\u09be\u09a8","name:bo":"\u0f68\u0f7c\u0f0b\u0f58\u0f53\u0f0d","name:sk":"Om\u00e1n","name:sa":"\u0913\u092e\u093e\u0928","name:no":"Oman","name:ru":"\u041e\u043c\u0430\u043d","name:sv":"Oman","name:su":"Oman","name:bg":"\u041e\u043c\u0430\u043d","name:an":"Om\u00e1n","name:ba":"\u041e\u043c\u0430\u043d","osm_relation":true,"name:sq":"Omani","name:ga":"\u00d3man","name:gd":"Om\u00e0n","name:yo":"Oman","name:wo":"Omaan","name:gn":"Om\u00e3","name:gl":"Om\u00e1n","maritime_boundary":true,"name:gv":"Yn Omaan","name:gu":"\u0a93\u0aae\u0abe\u0aa8","name:fi":"Oman"},"arcs":[0]},{"type":"LineString","properties":{"name:right:fr":"Mascate","id:right":-3781239,"min_zoom":8.0,"name:right:vi":"Muscat","id":-3781241,"osm_relation":true,"name:right":"\u0645\u062d\u0627\u0641\u0638\u0629 \u0645\u0633\u0642\u0637","kind":"region","name:left:en":"Ad Dakhiliyah","sort_rank":256,"kind_detail":"4","name:left:de":"ad-Dachiliyya","name":"\u0645\u0646\u0637\u0642\u0629 \u0627\u0644\u062f\u0627\u062e\u0644\u064a\u0629 - \u0645\u062d\u0627\u0641\u0638\u0629 \u0645\u0633\u0642\u0637","source":"openstreetmap.org","name:right:de":"Maskat","name:right:en":"Muscat","id:left":-3781241,"name:right:cs":"Maskat","name:left:cs":"ad-D\u00e1ch\u00edlija","name:left":"\u0645\u0646\u0637\u0642\u0629 \u0627\u0644\u062f\u0627\u062e\u0644\u064a\u0629"},"arcs":[1]},{"type":"LineString","properties":{"kind":"region","name:en":"Ad Dakhiliyah","name":"\u0645\u0646\u0637\u0642\u0629 \u0627\u0644\u062f\u0627\u062e\u0644\u064a\u0629","sort_rank":256,"kind_detail":"4","name:cs":"ad-D\u00e1ch\u00edlija","name:de":"ad-Dachiliyya","source":"openstreetmap.org","min_zoom":8.0,"id":-3781241,"osm_relation":true},"arcs":[2]},{"type":"LineString","properties":{"kind":"region","name:en":"Al Batinah North","name":"\u0645\u062d\u0627\u0641\u0638\u0629 \u0634\u0645\u0627\u0644 \u0627\u0644\u0628\u0627\u0637\u0646\u0629","sort_rank":256,"kind_detail":"4","name:cs":"Severn\u00ed al-Bat\u00edna","name:de":"Schamal al-Batina","source":"openstreetmap.org","min_zoom":8.0,"id":-3781240,"osm_relation":true},"arcs":[3]},{"type":"LineString","properties":{"kind":"region","name:en":"Al Batinah North","name":"\u0645\u062d\u0627\u0641\u0638\u0629 \u0634\u0645\u0627\u0644 \u0627\u0644\u0628\u0627\u0637\u0646\u0629","sort_rank":256,"kind_detail":"4","name:cs":"Severn\u00ed al-Bat\u00edna","min_zoom":8.0,"name:de":"Schamal al-Batina","source":"openstreetmap.org","maritime_boundary":true,"id":-3781240,"osm_relation":true},"arcs":[4]},{"type":"LineString","properties":{"kind":"region","name:en":"Muscat","name":"\u0645\u062d\u0627\u0641\u0638\u0629 \u0645\u0633\u0642\u0637","sort_rank":256,"kind_detail":"4","name:cs":"Maskat","min_zoom":8.0,"name:de":"Maskat","source":"openstreetmap.org","name:fr":"Mascate","name:vi":"Muscat","id":-3781239,"osm_relation":true},"arcs":[5]},{"type":"LineString","properties":{"kind":"region","name:en":"Muscat","name":"\u0645\u062d\u0627\u0641\u0638\u0629 \u0645\u0633\u0642\u0637","sort_rank":256,"kind_detail":"4","name:cs":"Maskat","min_zoom":8.0,"name:de":"Maskat","source":"openstreetmap.org","maritime_boundary":true,"name:fr":"Mascate","name:vi":"Muscat","id":-3781239,"osm_relation":true},"arcs":[6]}]},"roads":{"type":"GeometryCollection","geometries":[{"type":"MultiLineString","properties":{"source":"openstreetmap.org","kind":"major_road","name:en":"Batinah Expressway","landuse_kind":"urban_area","sort_rank":380,"kind_detail":"primary","min_zoom":8.0},"arcs":[[9],[10],[11],[12]]},{"type":"MultiLineString","properties":{"source":"openstreetmap.org","kind":"major_road","name:en":"Jameat al Duwal al Arabiya Street","landuse_kind":"urban_area","sort_rank":380,"kind_detail":"primary","min_zoom":8.0},"arcs":[[13],[14]]},{"type":"MultiLineString","properties":{"kind":"major_road","name:en":"Muscat Expressway","sort_rank":381,"landuse_kind":"urban_area","source":"openstreetmap.org","min_zoom":8.0,"kind_detail":"trunk","ref":"MSE"},"arcs":[[15],[16]]},{"type":"MultiLineString","properties":{"source":"openstreetmap.org","kind":"major_road","landuse_kind":"residential","sort_rank":381,"kind_detail":"trunk","ref":"01","min_zoom":8.0},"arcs":[[17],[18],[19],[20],[21],[22],[23],[24]]},{"type":"MultiLineString","properties":{"source":"openstreetmap.org","kind":"major_road","landuse_kind":"aerodrome","sort_rank":380,"kind_detail":"primary","min_zoom":8.0},"arcs":[[25],[26],[27],[28],[29],[30],[31],[32],[33]]},{"type":"LineString","properties":{"kind":"major_road","name:en":"Bab al Muthaib Street","sort_rank":380,"kind_detail":"primary","source":"openstreetmap.org","min_zoom":8.0,"landuse_kind":"urban_area","ref":"01","id":200258508},"arcs":[34]},{"type":"MultiLineString","properties":{"kind":"major_road","name:en":"Al Mina Street","sort_rank":380,"kind_detail":"primary","source":"openstreetmap.org","min_zoom":8.0,"landuse_kind":"urban_area","ref":"01"},"arcs":[[35],[36]]},{"type":"MultiLineString","properties":{"source":"openstreetmap.org","kind":"major_road","name:en":"Al Mouj Street","landuse_kind":"urban_area","sort_rank":380,"kind_detail":"primary","min_zoom":8.0},"arcs":[[37],[38]]},{"type":"MultiLineString","properties":{"source":"openstreetmap.org","kind":"major_road","name:en":"Al Ghubrah Street","landuse_kind":"urban_area","sort_rank":380,"kind_detail":"primary","min_zoom":8.0},"arcs":[[39],[40],[41],[42]]},{"type":"MultiLineString","properties":{"source":"openstreetmap.org","kind":"major_road","name:en":"al Thaqafah Street","landuse_kind":"urban_area","sort_rank":380,"kind_detail":"primary","min_zoom":8.0},"arcs":[[43],[44],[45],[46],[47],[48],[49],[50]]},{"type":"LineString","properties":{"kind":"major_road","network":"Roads in Oman","sort_rank":380,"kind_detail":"primary","source":"openstreetmap.org","min_zoom":8.0,"landuse_kind":"urban_area","shield_text":"13","ref":"13"},"arcs":[51]},{"type":"MultiLineString","properties":{"source":"openstreetmap.org","kind":"major_road","name:en":"Qur'm Heights Road","kind_detail":"trunk","sort_rank":381,"landuse_kind":"urban_area","min_zoom":8.0},"arcs":[[52],[53]]},{"type":"MultiLineString","properties":{"source":"openstreetmap.org","kind":"major_road","name:en":"Al Jami Al Akbar Street","landuse_kind":"urban_area","sort_rank":380,"kind_detail":"primary","min_zoom":8.0},"arcs":[[54],[55]]},{"type":"LineString","properties":{"kind":"major_road","name:en":"Dohat Al Adab Street","sort_rank":380,"landuse_kind":"urban_area","source":"openstreetmap.org","min_zoom":8.0,"kind_detail":"primary","id":224997068},"arcs":[56]},{"type":"LineString","properties":{"kind":"major_road","name:en":"al Wazarat","sort_rank":380,"landuse_kind":"urban_area","source":"openstreetmap.org","min_zoom":8.0,"kind_detail":"primary","id":35977754},"arcs":[57]},{"type":"MultiLineString","properties":{"source":"openstreetmap.org","kind":"major_road","name:en":"Al Khoudh Street","landuse_kind":"residential","sort_rank":380,"kind_detail":"primary","min_zoom":8.0},"arcs":[[58],[59],[60],[61],[62],[63],[64],[65],[66],[67],[68],[69]]},{"type":"MultiLineString","properties":{"kind":"major_road","name:en":"Nazwa Road","network":"Roads in Oman","sort_rank":381,"kind_detail":"trunk","source":"openstreetmap.org","min_zoom":8.0,"alt_name:en":"Nizwa Road","shield_text":"15","ref":"15"},"arcs":[[70],[71],[72],[73],[74],[75],[76],[77],[78],[79],[80],[81],[82],[83],[84],[85]]},{"type":"MultiLineString","properties":{"source":"openstreetmap.org","kind":"major_road","name:en":"Ghala Street","landuse_kind":"urban_area","sort_rank":380,"kind_detail":"primary","min_zoom":8.0},"arcs":[[86],[87],[88],[89]]},{"type":"MultiLineString","properties":{"source":"openstreetmap.org","kind":"major_road","name:en":"Al Matar Street","landuse_kind":"residential","sort_rank":380,"kind_detail":"primary","min_zoom":8.0},"arcs":[[90],[91],[92],[93],[94],[95],[96],[97],[98]]},{"type":"MultiLineString","properties":{"source":"openstreetmap.org","kind":"major_road","name:en":"23rd July Street","landuse_kind":"urban_area","sort_rank":380,"kind_detail":"primary","min_zoom":8.0},"arcs":[[99],[100],[101],[102]]},{"type":"MultiLineString","properties":{"source":"openstreetmap.org","kind":"major_road","name:en":"Al Seeb Street","sort_rank":381,"kind_detail":"trunk","ref":"01","min_zoom":8.0},"arcs":[[103],[104]]},{"type":"MultiLineString","properties":{"sort_rank":381,"source":"openstreetmap.org","min_zoom":8.0,"kind":"major_road","kind_detail":"trunk"},"arcs":[[105],[106],[107],[108],[109],[110],[111],[112],[113]]},{"type":"LineString","properties":{"kind":"major_road","name:en":"Burj As Sahwah Roundabout","network":"Roads in Oman","sort_rank":381,"kind_detail":"trunk","source":"openstreetmap.org","min_zoom":8.0,"alt_name:en":"Burg As'Sahwah Roundabout","shield_text":"15","id":20464398},"arcs":[114]},{"type":"MultiLineString","properties":{"kind":"major_road","name:en":"Sultan Qaboos Highway","sort_rank":381,"landuse_kind":"aerodrome","source":"openstreetmap.org","min_zoom":8.0,"kind_detail":"trunk","ref":"01"},"arcs":[[115],[116]]},{"type":"LineString","properties":{"source":"openstreetmap.org","kind":"major_road","name:en":"Gala Road","sort_rank":380,"kind_detail":"primary","min_zoom":8.0},"arcs":[117]},{"type":"LineString","properties":{"kind":"major_road","name:en":"18 November Street","sort_rank":380,"kind_detail":"primary","is_bicycle_related":true,"source":"openstreetmap.org","min_zoom":8.0,"id":379110564},"arcs":[118]},{"type":"MultiLineString","properties":{"kind":"major_road","name:en":"99 Street","sort_rank":380,"kind_detail":"primary","source":"openstreetmap.org","min_zoom":8.0,"landuse_kind":"residential","ref":"99"},"arcs":[[119],[120]]},{"type":"MultiLineString","properties":{"source":"openstreetmap.org","kind":"major_road","sort_rank":381,"kind_detail":"trunk","ref":"23","min_zoom":8.0},"arcs":[[121],[122],[123],[124],[125],[126],[127],[128],[129],[130],[131]]},{"type":"MultiLineString","properties":{"kind":"major_road","name:en":"Al Mina Street","sort_rank":381,"landuse_kind":"urban_area","source":"openstreetmap.org","min_zoom":8.0,"kind_detail":"trunk","ref":"01"},"arcs":[[132],[133]]},{"type":"MultiLineString","properties":{"kind":"major_road","name:en":"Ruwi Street","sort_rank":381,"kind_detail":"trunk","source":"openstreetmap.org","min_zoom":8.0,"landuse_kind":"residential","ref":"01"},"arcs":[[134],[135]]},{"type":"MultiLineString","properties":{"kind":"major_road","name:en":"Al Mina Street","sort_rank":381,"kind_detail":"trunk","source":"openstreetmap.org","min_zoom":8.0,"landuse_kind":"residential","ref":"01"},"arcs":[[136],[137]]},{"type":"MultiLineString","properties":{"source":"openstreetmap.org","kind":"major_road","name:en":"99 Street","sort_rank":380,"kind_detail":"primary","ref":"99","min_zoom":8.0},"arcs":[[138],[139]]},{"type":"MultiLineString","properties":{"source":"openstreetmap.org","kind":"major_road","landuse_kind":"urban_area","sort_rank":380,"kind_detail":"primary","min_zoom":8.0},"arcs":[[140],[141],[142],[143],[144],[145],[146],[147],[148],[149],[150],[151],[152],[153],[154],[155],[156],[157],[158],[159],[160],[161],[162],[163],[164],[165],[166],[167],[168],[169],[170],[171],[172],[173],[174],[175],[176],[177],[178],[179],[180],[181],[182],[183]]},{"type":"MultiLineString","properties":{"kind":"major_road","name:en":"Qur'm Heights Road","sort_rank":381,"landuse_kind":"urban_area","source":"openstreetmap.org","min_zoom":8.0,"kind_detail":"trunk","ref":"01"},"arcs":[[184],[185],[186]]},{"type":"MultiLineString","properties":{"source":"openstreetmap.org","kind":"major_road","name:en":"Bait al Falaj Street","landuse_kind":"residential","sort_rank":381,"kind_detail":"trunk","min_zoom":8.0},"arcs":[[187],[188]]},{"type":"LineString","properties":{"source":"openstreetmap.org","kind":"highway","landuse_kind":"urban_area","sort_rank":383,"kind_detail":"motorway","min_zoom":8.0,"id":289210157},"arcs":[189]},{"type":"MultiLineString","properties":{"kind":"highway","name:en":"Muscat Expressway","sort_rank":383,"kind_detail":"motorway","source":"openstreetmap.org","min_zoom":8.0,"landuse_kind":"urban_area","ref":"MSE"},"arcs":[[190],[191],[192],[193]]},{"type":"MultiLineString","properties":{"source":"openstreetmap.org","kind":"major_road","name:en":"ash Shabab Street","landuse_kind":"residential","sort_rank":380,"kind_detail":"primary","min_zoom":8.0},"arcs":[[194],[195],[196],[197],[198],[199]]},{"type":"LineString","properties":{"kind":"major_road","name:en":"Taimur Street","sort_rank":380,"landuse_kind":"urban_area","source":"openstreetmap.org","min_zoom":8.0,"kind_detail":"primary","id":55537187},"arcs":[200]},{"type":"LineString","properties":{"kind":"major_road","name:en":"Sultan Bin Ahmed Street","sort_rank":380,"kind_detail":"primary","source":"openstreetmap.org","min_zoom":8.0,"landuse_kind":"urban_area","ref":"01"},"arcs":[201]},{"type":"MultiLineString","properties":{"source":"openstreetmap.org","kind":"major_road","name:en":"Jisir al Mawaileh Street","landuse_kind":"residential","sort_rank":380,"kind_detail":"primary","min_zoom":8.0},"arcs":[[202],[203],[204],[205]]},{"type":"MultiLineString","properties":{"source":"openstreetmap.org","kind":"major_road","name:en":"Al Qurm Street","landuse_kind":"urban_area","sort_rank":380,"kind_detail":"primary","min_zoom":8.0},"arcs":[[206],[207]]},{"type":"MultiLineString","properties":{"kind":"major_road","name:en":"Al Saidiya Street","sort_rank":380,"kind_detail":"primary","source":"openstreetmap.org","min_zoom":8.0,"landuse_kind":"urban_area","ref":"01"},"arcs":[[208],[209],[210],[211],[212],[213],[214],[215],[216],[217]]},{"type":"MultiLineString","properties":{"source":"openstreetmap.org","kind":"major_road","name:en":"Muscat Southern Expressway","sort_rank":380,"kind_detail":"primary","min_zoom":8.0},"arcs":[[218],[219],[220],[221],[222]]},{"type":"MultiLineString","properties":{"source":"openstreetmap.org","kind":"highway","name:en":"Muscat Expressway","sort_rank":383,"kind_detail":"motorway","ref":"MSE","min_zoom":8.0},"arcs":[[223],[224]]},{"type":"MultiLineString","properties":{"source":"openstreetmap.org","kind":"major_road","landuse_kind":"residential","sort_rank":381,"kind_detail":"trunk","ref":"17","min_zoom":8.0},"arcs":[[225],[226],[227]]},{"type":"MultiLineString","properties":{"source":"openstreetmap.org","kind":"highway","name:en":"Muscat Southern Expressway","sort_rank":383,"kind_detail":"motorway","min_zoom":8.0},"arcs":[[228],[229],[230],[231],[232],[233]]},{"type":"MultiLineString","properties":{"kind":"major_road","name:en":"18 November Street","sort_rank":380,"kind_detail":"primary","is_bicycle_related":true,"source":"openstreetmap.org","min_zoom":8.0,"landuse_kind":"urban_area","id":379110564},"arcs":[[234],[235]]},{"type":"MultiLineString","properties":{"source":"openstreetmap.org","kind":"major_road","name:en":"Madinat Al Sultan Qaboos Street","landuse_kind":"urban_area","sort_rank":380,"kind_detail":"primary","min_zoom":8.0},"arcs":[[236],[237],[238],[239],[240],[241],[242],[243]]},{"type":"MultiLineString","properties":{"source":"openstreetmap.org","kind":"major_road","name:en":"As Salam Street","landuse_kind":"urban_area","sort_rank":380,"kind_detail":"primary","min_zoom":8.0},"arcs":[[244],[245],[246],[247]]},{"type":"MultiLineString","properties":{"source":"openstreetmap.org","kind":"major_road","name:en":"As Salam Street","landuse_kind":"residential","sort_rank":380,"kind_detail":"primary","min_zoom":8.0},"arcs":[[248],[249]]},{"type":"LineString","properties":{"kind":"major_road","name:en":"al Umran Roundabout","sort_rank":380,"landuse_kind":"urban_area","source":"openstreetmap.org","min_zoom":8.0,"kind_detail":"primary","id":35870334},"arcs":[250]},{"type":"LineString","properties":{"kind":"major_road","name:en":"Mazoun Roundabout","sort_rank":380,"landuse_kind":"residential","source":"openstreetmap.org","min_zoom":8.0,"kind_detail":"primary","id":129622090},"arcs":[251]},{"type":"MultiLineString","properties":{"kind":"major_road","name:en":"Sultan Qaboos Highway","sort_rank":381,"landuse_kind":"urban_area","source":"openstreetmap.org","min_zoom":8.0,"kind_detail":"trunk","ref":"01"},"arcs":[[252],[253],[254],[255],[256],[257],[258],[259]]},{"type":"MultiLineString","properties":{"kind":"major_road","name:en":"99 Street","sort_rank":380,"kind_detail":"primary","source":"openstreetmap.org","min_zoom":8.0,"landuse_kind":"urban_area","ref":"99"},"arcs":[[260],[261]]},{"type":"MultiLineString","properties":{"kind":"major_road","name:en":"Al Seeb Street","sort_rank":381,"landuse_kind":"urban_area","source":"openstreetmap.org","min_zoom":8.0,"kind_detail":"trunk","ref":"01"},"arcs":[[262],[263]]},{"type":"MultiLineString","properties":{"source":"openstreetmap.org","kind":"major_road","name:en":"Al Matar Street","sort_rank":380,"kind_detail":"primary","min_zoom":8.0},"arcs":[[264],[265]]},{"type":"MultiLineString","properties":{"sort_rank":380,"kind_detail":"primary","min_zoom":8.0,"kind":"major_road","source":"openstreetmap.org"},"arcs":[[266],[267],[268],[269],[270],[271],[272],[273],[274],[275],[276],[277],[278],[279],[280],[281],[282],[283],[284],[285],[286],[287],[288],[289],[290],[291],[292],[293],[294],[295],[296],[297],[298],[299],[300],[301],[302],[303],[304],[305],[306],[307],[308],[309],[310],[311],[312],[313],[314],[315],[316],[317],[318],[319],[320],[321],[322],[323],[324],[325],[326],[327],[328],[329],[330],[331],[332],[333],[334],[335],[336],[337],[338],[339],[340],[341],[342],[343],[344]]},{"type":"MultiLineString","properties":{"source":"openstreetmap.org","kind":"major_road","name:en":"Al Marafeh Street","landuse_kind":"urban_area","sort_rank":380,"kind_detail":"primary","min_zoom":8.0},"arcs":[[345],[346]]},{"type":"MultiLineString","properties":{"source":"openstreetmap.org","kind":"major_road","name:en":"Ghala Street","sort_rank":380,"kind_detail":"primary","min_zoom":8.0},"arcs":[[347],[348]]},{"type":"MultiLineString","properties":{"source":"openstreetmap.org","kind":"major_road","name:en":"Al Bustan Street","kind_detail":"trunk","sort_rank":381,"landuse_kind":"urban_area","min_zoom":8.0},"arcs":[[349],[350],[351],[352]]},{"type":"MultiLineString","properties":{"source":"openstreetmap.org","kind":"major_road","name:en":"Sultan Qaboos Highway","sort_rank":381,"kind_detail":"trunk","ref":"01","min_zoom":8.0},"arcs":[[353],[354],[355],[356],[357],[358],[359],[360],[361],[362]]},{"type":"MultiLineString","properties":{"source":"openstreetmap.org","kind":"major_road","name:en":"Bait Al Falaj Street","landuse_kind":"residential","sort_rank":381,"kind_detail":"trunk","min_zoom":8.0},"arcs":[[363],[364]]},{"type":"MultiLineString","properties":{"source":"openstreetmap.org","kind":"major_road","name:en":"18 November Street","sort_rank":380,"kind_detail":"primary","min_zoom":8.0},"arcs":[[365],[366],[367]]},{"type":"LineString","properties":{"source":"openstreetmap.org","kind":"ferry","name":"Muscat-Khasab","sort_rank":355,"landuse_kind":"urban_area","min_zoom":8.0,"id":368366976},"arcs":[368]},{"type":"MultiLineString","properties":{"kind":"major_road","name:en":"Sultan Qaboos Highway","sort_rank":381,"kind_detail":"trunk","source":"openstreetmap.org","min_zoom":8.0,"landuse_kind":"residential","ref":"01"},"arcs":[[369],[370],[371],[372]]},{"type":"MultiLineString","properties":{"source":"openstreetmap.org","kind":"major_road","name:en":"Ruwi Street","landuse_kind":"residential","sort_rank":381,"kind_detail":"trunk","min_zoom":8.0},"arcs":[[373],[374]]},{"type":"MultiLineString","properties":{"source":"openstreetmap.org","kind":"major_road","ref":"17","sort_rank":381,"kind_detail":"trunk","is_bicycle_related":true,"min_zoom":8.0},"arcs":[[375],[376],[377],[378],[379],[380],[381],[382],[383],[384],[385],[386],[387],[388],[389],[390],[391],[392],[393],[394],[395],[396],[397],[398]]},{"type":"MultiLineString","properties":{"source":"openstreetmap.org","kind":"major_road","kind_detail":"trunk","sort_rank":381,"landuse_kind":"urban_area","min_zoom":8.0},"arcs":[[399],[400],[401],[402],[403],[404],[405],[406],[407],[408],[409],[410],[411],[412],[413],[414],[415],[416],[417],[418],[419],[420]]},{"type":"MultiLineString","properties":{"source":"openstreetmap.org","kind":"major_road","name:en":"Al Adiyat Street","landuse_kind":"residential","sort_rank":380,"kind_detail":"primary","min_zoom":8.0},"arcs":[[421],[422],[423],[424]]},{"type":"MultiLineString","properties":{"source":"openstreetmap.org","kind":"major_road","landuse_kind":"residential","sort_rank":381,"kind_detail":"trunk","min_zoom":8.0},"arcs":[[425],[426],[427],[428],[429],[430],[431],[432],[433],[434],[435],[436],[437],[438],[439]]},{"type":"MultiLineString","properties":{"kind":"major_road","alt_name:en":"Nizwa Road","network":"Roads in Oman","sort_rank":381,"landuse_kind":"urban_area","source":"openstreetmap.org","min_zoom":8.0,"name:en":"Nazwa Road","kind_detail":"trunk","shield_text":"15","ref":"15"},"arcs":[[440],[441]]},{"type":"MultiLineString","properties":{"kind":"major_road","sort_rank":381,"landuse_kind":"urban_area","is_bicycle_related":true,"source":"openstreetmap.org","min_zoom":8.0,"kind_detail":"trunk","ref":"17"},"arcs":[[442],[443]]},{"type":"MultiLineString","properties":{"source":"openstreetmap.org","kind":"major_road","landuse_kind":"urban_area","sort_rank":380,"kind_detail":"primary","ref":"01","min_zoom":8.0},"arcs":[[444],[445]]},{"type":"MultiLineString","properties":{"source":"openstreetmap.org","kind":"major_road","sort_rank":381,"kind_detail":"trunk","ref":"17","min_zoom":8.0},"arcs":[[446],[447],[448],[449],[450],[451],[452],[453],[454]]},{"type":"MultiLineString","properties":{"source":"openstreetmap.org","kind":"major_road","landuse_kind":"residential","sort_rank":380,"kind_detail":"primary","min_zoom":8.0},"arcs":[[455],[456],[457],[458],[459],[460],[461],[462],[463],[464],[465],[466],[467],[468],[469],[470],[471],[472],[473],[474],[475],[476],[477],[478],[479],[480],[481],[482],[483],[484],[485],[486],[487],[488],[489],[490],[491],[492],[493],[494],[495]]},{"type":"MultiLineString","properties":{"sort_rank":383,"kind_detail":"motorway","min_zoom":8.0,"kind":"highway","source":"openstreetmap.org"},"arcs":[[496],[497],[498],[499],[500],[501],[502],[503],[504],[505],[506],[507],[508],[509],[510]]},{"type":"LineString","properties":{"sort_rank":355,"source":"openstreetmap.org","kind":"ferry","min_zoom":8.0,"name":"Muscat-Khasab"},"arcs":[511]},{"type":"MultiLineString","properties":{"kind":"major_road","name:en":"Taimur Street","sort_rank":380,"kind_detail":"primary","source":"openstreetmap.org","min_zoom":8.0,"landuse_kind":"urban_area","ref":"01"},"arcs":[[512],[513]]},{"type":"LineString","properties":{"kind":"major_road","name:en":"al Jame' Roundabout","sort_rank":380,"landuse_kind":"residential","source":"openstreetmap.org","min_zoom":8.0,"kind_detail":"primary","id":59004476},"arcs":[514]},{"type":"MultiLineString","properties":{"source":"openstreetmap.org","kind":"major_road","kind_detail":"trunk","sort_rank":381,"landuse_kind":"aerodrome","min_zoom":8.0},"arcs":[[515],[516]]},{"type":"MultiLineString","properties":{"source":"openstreetmap.org","kind":"major_road","sort_rank":381,"kind_detail":"trunk","ref":"01","min_zoom":8.0},"arcs":[[517],[518],[519],[520]]},{"type":"MultiLineString","properties":{"source":"openstreetmap.org","kind":"major_road","name:en":"Al Mouj Street","landuse_kind":"residential","sort_rank":380,"kind_detail":"primary","min_zoom":8.0},"arcs":[[521],[522],[523],[524]]},{"type":"MultiLineString","properties":{"source":"openstreetmap.org","kind":"major_road","name:en":"al Jabal Street","landuse_kind":"urban_area","sort_rank":380,"kind_detail":"primary","min_zoom":8.0},"arcs":[[525],[526]]},{"type":"MultiLineString","properties":{"source":"openstreetmap.org","kind":"highway","name:en":"Muscat Southern Expressway","kind_detail":"motorway","sort_rank":383,"landuse_kind":"urban_area","min_zoom":8.0},"arcs":[[527],[528]]},{"type":"MultiLineString","properties":{"source":"openstreetmap.org","kind":"major_road","name:en":"Batinah Expressway","sort_rank":380,"kind_detail":"primary","min_zoom":8.0},"arcs":[[529],[530],[531],[532],[533]]},{"type":"MultiLineString","properties":{"source":"openstreetmap.org","kind":"major_road","name:en":"Mazoun Street","landuse_kind":"residential","sort_rank":380,"kind_detail":"primary","min_zoom":8.0},"arcs":[[534],[535],[536],[537],[538],[539],[540],[541],[542],[543]]},{"type":"MultiLineString","properties":{"source":"openstreetmap.org","kind":"major_road","name:en":"Al Khoudh Street","landuse_kind":"urban_area","sort_rank":380,"kind_detail":"primary","min_zoom":8.0},"arcs":[[544],[545]]},{"type":"MultiLineString","properties":{"source":"openstreetmap.org","kind":"major_road","sort_rank":380,"kind_detail":"primary","ref":"13","min_zoom":8.0},"arcs":[[546],[547]]},{"type":"MultiLineString","properties":{"source":"openstreetmap.org","kind":"major_road","name:en":"Al Saidiya Street","landuse_kind":"urban_area","sort_rank":380,"kind_detail":"primary","min_zoom":8.0},"arcs":[[548],[549]]},{"type":"MultiLineString","properties":{"source":"openstreetmap.org","kind":"major_road","name:en":"18 November Street","landuse_kind":"urban_area","sort_rank":380,"kind_detail":"primary","min_zoom":8.0},"arcs":[[550],[551],[552],[553],[554]]},{"type":"MultiLineString","properties":{"source":"openstreetmap.org","kind":"major_road","kind_detail":"trunk","sort_rank":381,"landuse_kind":"urban_area","ref":"01","min_zoom":8.0},"arcs":[[555],[556],[557],[558],[559],[560],[561],[562],[563],[564],[565],[566],[567],[568],[569],[570],[571],[572],[573]]},{"type":"LineString","properties":{"source":"openstreetmap.org","kind":"major_road","name:en":"Al Adiyat Street","landuse_kind":"urban_area","sort_rank":380,"kind_detail":"primary","min_zoom":8.0},"arcs":[574]},{"type":"MultiLineString","properties":{"kind":"major_road","network":"Roads in Oman","sort_rank":381,"kind_detail":"trunk","source":"openstreetmap.org","min_zoom":8.0,"shield_text":"23","ref":"23"},"arcs":[[575],[576],[577]]},{"type":"MultiLineString","properties":{"source":"openstreetmap.org","kind":"major_road","name:en":"Al Kharjiyah Street","landuse_kind":"urban_area","sort_rank":380,"kind_detail":"primary","min_zoom":8.0},"arcs":[[578],[579],[580],[581],[582],[583]]},{"type":"MultiLineString","properties":{"kind":"major_road","name:en":"Al Seeb Street","sort_rank":381,"kind_detail":"trunk","source":"openstreetmap.org","min_zoom":8.0,"landuse_kind":"residential","ref":"01"},"arcs":[[584],[585],[586],[587]]},{"type":"MultiLineString","properties":{"kind":"major_road","network":"Roads in Oman","sort_rank":380,"kind_detail":"primary","source":"openstreetmap.org","min_zoom":8.0,"shield_text":"13","ref":"13"},"arcs":[[588],[589],[590]]},{"type":"MultiLineString","properties":{"source":"openstreetmap.org","kind":"major_road","name:en":"Muscat Expressway","sort_rank":381,"kind_detail":"trunk","ref":"MSE","min_zoom":8.0},"arcs":[[591],[592]]},{"type":"MultiLineString","properties":{"source":"openstreetmap.org","kind":"major_road","kind_detail":"trunk","sort_rank":381,"landuse_kind":"urban_area","ref":"17","min_zoom":8.0},"arcs":[[593],[594],[595],[596],[597],[598],[599],[600],[601],[602],[603],[604],[605],[606]]},{"type":"MultiLineString","properties":{"kind":"major_road","name:en":"Al Bahri Road","sort_rank":380,"kind_detail":"primary","source":"openstreetmap.org","min_zoom":8.0,"landuse_kind":"urban_area","ref":"01"},"arcs":[[607],[608],[609],[610]]}]},"earth":{"type":"GeometryCollection","geometries":[{"type":"Polygon","properties":{"sort_rank":10,"source":"naturalearthdata.com","kind":"earth","min_zoom":0.0,"id":4717},"arcs":[[611]]}]},"landuse":{"type":"GeometryCollection","geometries":[{"type":"Polygon","properties":{"kind":"residential","name":"Al Maabilah","area":60394600,"sort_rank":20,"source":"openstreetmap.org","min_zoom":8.0,"tier":2,"id":327180135},"arcs":[[612]]},{"type":"MultiPolygon","properties":{"source":"naturalearthdata.com","kind":"urban_area","name":"","area":1634741651,"sort_rank":11,"min_zoom":4.0},"arcs":[[[613]],[[614]],[[615]],[[616]],[[617]]]},{"type":"Polygon","properties":{"kind":"residential","name:en":"Seeb","name":"\u0627\u0644\u0633\u064a\u0628","area":13305600,"sort_rank":20,"source":"openstreetmap.org","min_zoom":8.0,"tier":2,"id":327886563},"arcs":[[618]]},{"type":"MultiPolygon","properties":{"source":"openstreetmap.org","kind":"residential","tier":2,"area":179871427,"sort_rank":20,"min_zoom":8.0},"arcs":[[[619]],[[620]],[[621]],[[622]]]},{"type":"Polygon","properties":{"kind":"residential","name:en":"Muscat","name":"\u0645\u0633\u0642\u0637","area":14741900,"sort_rank":20,"name:de":"Maskat","source":"openstreetmap.org","min_zoom":8.0,"tier":2,"id":332371648},"arcs":[[623]]},{"type":"Polygon","properties":{"kind":"aerodrome","area":24532400,"sort_rank":60,"operator":"Oman Airports Management Company","source":"openstreetmap.org","min_zoom":8.0,"tier":3,"id":20440333},"arcs":[[624]]},{"type":"Polygon","properties":{"source":"openstreetmap.org","kind":"park","area":857809024,"tier":2,"id":201194653,"min_zoom":6.0,"sort_rank":24},"arcs":[[625]]}]}},"type":"Topology","transform":{"translate":[57.65625,23.2413461024],"scale":[0.0003433228,0.0003139133]},"arcs":[[[4096,735],[-207,152],[-135,324],[-188,205],[-777,542],[-1259,652],[-119,24],[-178,-5],[-455,-88],[-686,-189],[-92,51]],[[2177,0],[-998,985]],[[1179,985],[-655,-985]],[[0,1770],[20,87]],[[20,1857],[72,495],[-92,51]],[[812,1698],[32,-223],[335,-490]],[[4096,735],[-207,152],[-135,324],[-188,205],[-777,542],[-1259,652],[-119,24],[-178,-5],[-542,-110],[121,-821]],[[3846,0],[-60,58],[-28,50],[-50,137],[-41,57],[-105,48],[-171,161],[-37,62],[-30,145],[-23,44],[10,48],[-20,53],[-70,95],[-37,-18],[-9,4],[-16,14],[-14,-30],[-3,-14],[-20,0],[-4,25],[-5,13],[-6,10],[-7,17],[-18,-43],[-22,0],[-13,25],[-23,27],[-41,35],[-19,5],[-20,0],[-17,-3],[-6,-2],[-10,10],[-12,16],[-13,14],[-15,6],[-25,27],[-58,126],[-26,40],[-59,30],[-67,13],[-124,3],[-56,16],[-25,-1],[-21,-59],[-26,-21],[-63,-24],[-120,-25],[-141,-2],[-135,17],[-101,34],[-53,42],[-107,110],[-50,21],[-50,11],[-179,77],[-131,28],[-127,7],[-380,-21],[-73,10],[-83,42],[-70,19],[-31,24],[-84,110],[-53,12],[-197,-12],[-67,4],[-89,16],[0,2353],[4096,0],[0,-4096],[-250,0]],[[3846,0],[-60,58],[-28,50],[-50,137],[-41,57],[-105,48],[-171,161],[-37,62],[-30,145],[-23,44],[10,48],[-20,53],[-70,95],[-37,-18],[-9,4],[-16,14],[-14,-30],[-3,-14],[-20,0],[-4,25],[-5,13],[-6,10],[-7,17],[-18,-43],[-22,0],[-13,25],[-23,27],[-41,35],[-19,5],[-20,0],[-17,-3],[-6,-2],[-10,10],[-12,16],[-13,14],[-15,6],[-25,27],[-58,126],[-26,40],[-59,30],[-67,13],[-124,3],[-56,16],[-25,-1],[-21,-59],[-26,-21],[-63,-24],[-120,-25],[-141,-2],[-135,17],[-101,34],[-53,42],[-107,110],[-50,21],[-50,11],[-179,77],[-131,28],[-127,7],[-380,-21],[-73,10],[-83,42],[-70,19],[-31,24],[-84,110],[-53,12],[-197,-12],[-67,4],[-89,16]],[[232,1613],[9,-4]],[[241,1609],[-9,5]],[[572,1526],[-49,7]],[[1065,1441],[-121,17]],[[2287,1145],[0,-1]],[[2288,1143],[-1,2]],[[1969,1112],[0,-2]],[[1970,1110],[0,2]],[[1304,1407],[162,-54]],[[1467,1354],[-163,55]],[[1485,1346],[12,-3]],[[1497,1344],[-12,4]],[[2510,1140],[55,-40],[17,19]],[[2582,1120],[-16,-20],[-56,41]],[[1499,1344],[-2,0]],[[1497,1344],[0,-1],[2,-1],[0,2]],[[1910,1147],[-2,11],[-1,5]],[[1907,1163],[0,2]],[[1907,1165],[-1,4]],[[1907,1169],[0,-4]],[[1907,1165],[0,-2]],[[1907,1163],[1,-6],[2,-10]],[[1907,1165]],[[1907,1165]],[[1907,1165],[13,0]],[[2717,1196],[-3,-1]],[[2630,1217],[7,0]],[[2637,1218],[-7,0]],[[1769,1222]],[[1770,1222]],[[2188,1107],[4,-1]],[[2205,1103],[-17,5]],[[2196,1105],[43,-48]],[[2239,1057],[-34,46]],[[2200,1129],[33,7]],[[2233,1136],[3,2]],[[2235,1139],[-2,-3]],[[2239,1141],[-3,-1]],[[2237,1139],[2,2]],[[2275,1143],[-36,-2]],[[2275,1143],[14,1]],[[2289,1145],[-14,-2]],[[645,1299],[44,186]],[[2520,1200],[-80,-4],[-23,-7]],[[2421,1190],[99,10]],[[2050,1087],[62,-2]],[[2112,1086],[-62,2]],[[2209,1108],[-2,-2]],[[2236,1138],[1,0],[0,2],[-1,-1],[0,-1]],[[1484,1165],[-2,-1]],[[1483,1163],[1,1]],[[1525,1201],[-29,-26]],[[1497,1175],[29,25]],[[1555,1248],[-29,-47]],[[1527,1201],[29,47]],[[1574,1278],[-18,-29]],[[1557,1249],[18,29]],[[1590,1298],[-15,-19]],[[1576,1279],[15,18]],[[1601,1318],[-10,-20]],[[1591,1297],[11,21]],[[1353,616],[-18,-59],[-59,-5],[-14,-3],[-66,-66],[-109,-117],[-50,-37],[-178,-90],[-24,-22],[-20,-67],[2,-68],[-65,-82]],[[756,0],[61,82],[19,135],[201,111],[51,38],[174,183],[73,7],[19,60]],[[1733,1103],[-136,12],[-7,-12]],[[1590,1103],[-30,-51]],[[1560,1052],[-4,-8],[-1,0],[1,-2]],[[1556,1042],[7,-34]],[[1563,1008],[1,-3],[0,-1],[2,-4]],[[1566,1000]],[[1566,1000],[-14,-37],[-2,-44],[23,-124],[5,-20],[-40,-77],[-111,17]],[[1433,712],[106,-15],[39,78],[-28,147],[18,74],[-2,4]],[[1566,1000]],[[1566,1000],[-1,4],[-1,1],[-1,3]],[[1563,1008],[-10,28],[3,6]],[[1556,1042],[4,10]],[[1560,1052],[21,50],[9,1]],[[1590,1103],[50,7],[93,-10]],[[2095,1021],[8,12]],[[2103,1033],[2,2],[11,28],[6,77]],[[2122,1140],[-10,-54],[4,-24],[-10,-23],[-1,-4],[-2,-2]],[[2103,1033],[-7,-14]],[[1790,1088],[1,0]],[[1791,1088],[1,1]],[[1791,1085],[0,3]],[[1791,1085],[0,-1]],[[1792,1085],[-1,0]],[[1792,1083],[22,-22]],[[1814,1061],[-21,23]],[[1814,1060],[48,13]],[[1861,1074],[-46,-13]],[[2116,1063],[46,-1]],[[2162,1062],[-46,1]],[[2340,1111],[-34,3],[-12,0],[-42,-15],[-62,-29],[-27,-8]],[[2163,1062],[27,7],[104,44],[45,-5]],[[1736,1113],[-9,31]],[[1727,1142],[9,-30]],[[1973,1045],[14,-48]],[[1987,997],[-13,49]],[[1987,997],[-2,0],[1,-1],[1,0],[0,1]],[[2556,355]],[[2556,355],[1,0]],[[2556,355]],[[2556,355],[5,-2]],[[2602,345],[3,-1]],[[2471,885],[1,-2],[1,0],[0,2],[-2,0]],[[1733,1102],[2,-3],[2,2],[-2,2],[-2,-1]],[[1782,1094],[36,2]],[[1815,1095],[-32,-2]],[[1993,855],[20,36]],[[1846,1192],[-22,9]],[[1946,1085],[-85,-11]],[[1862,1073],[75,9]],[[1303,440],[0,-1]],[[1303,439],[-37,-84],[1,-1]],[[1267,354],[2,-3]],[[1269,351],[57,-63]],[[1326,288],[11,-11],[-2,-15]],[[1335,262],[-16,-105],[19,96],[-3,9]],[[1335,262],[-9,26]],[[1326,288],[-8,28],[-49,35]],[[1269,351],[-3,2],[1,1]],[[1267,354],[37,80],[-1,5]],[[1303,439],[-8,36],[-8,35],[9,29]],[[2628,1218],[-30,-7],[-2,-3]],[[2598,1209],[31,7]],[[2589,1193],[-25,-38],[17,-30]],[[2581,1125],[-16,30],[25,38]],[[2596,1208],[-7,-15]],[[2590,1193],[8,16]],[[1937,1082],[83,6]],[[2018,1089],[-72,-4]],[[142,1671],[87,-55]],[[230,1617],[-87,54]],[[230,1614],[2,-1]],[[232,1614],[-1,2]],[[523,1532],[49,-6]],[[652,1321],[-7,-22]],[[943,1456],[122,-15],[17,-105]],[[1085,1335],[-2,39],[-12,50],[-6,17]],[[1228,1430],[0,-43],[5,-4]],[[1233,1383],[46,-32]],[[1279,1351],[8,-5]],[[1287,1346],[-8,5]],[[1279,1351],[-45,29],[-1,3]],[[1233,1383],[-4,47]],[[1415,1084],[-23,-11]],[[1395,1072],[14,6],[7,5]],[[1419,1086],[5,5]],[[1424,1091],[-3,-2]],[[1423,1092],[1,0]],[[1426,1093],[-1,0]],[[1425,1092],[1,1]],[[1441,1113],[-15,-20]],[[1428,1293],[60,8]],[[1488,1303],[-60,-9]],[[1920,1165],[4,0]],[[2192,1106],[4,-1]],[[2205,1103]],[[2253,1028],[-4,-91],[1,0]],[[2250,937],[4,0]],[[2254,937],[66,7],[65,-62]],[[2385,882],[-65,62],[-66,-7]],[[2254,937],[-4,0]],[[2250,937],[3,91]],[[230,1617],[-1,-2],[2,-1],[0,2],[-1,1]],[[1229,1430],[0,1],[-1,0],[0,-1],[1,0]],[[1488,1301],[1,1],[-1,1]],[[1488,1303],[0,-1],[0,-1]],[[1534,1291],[1,1],[-1,1],[-1,-1],[1,-1]],[[1769,1222],[2,0],[-1,1],[-1,0],[0,-1]],[[2162,1063],[0,-1],[0,-1],[1,1],[-1,1]],[[2442,1194],[1,2],[-1,1],[-2,-2],[2,-1]],[[2630,1218],[-1,0],[0,-1],[1,-1],[0,2]],[[2637,1218],[0,-1],[0,1]],[[2731,1183],[-1,-1],[1,-1],[1,1],[-1,1]],[[2410,1187],[11,3]],[[2520,1200],[55,4]],[[2577,1205],[-57,-5]],[[2587,1195],[12,-21],[-1,-17],[1,-8],[12,-25]],[[2611,1124],[-12,51],[-12,20]],[[1406,1078],[3,-2]],[[1408,1077],[13,-5]],[[1423,1072],[-14,5]],[[2436,1179],[-195,-126],[-19,-4],[-110,-15],[-22,-5]],[[2090,1029],[133,19],[18,5],[195,126]],[[1575,1278],[18,-11]],[[1593,1268],[-17,11]],[[1594,1267],[18,-31]],[[1613,1236],[-19,31]],[[1612,1235],[13,-44]],[[1626,1190],[-13,45]],[[2719,1193],[-1,-1]],[[2714,1194],[4,-2]],[[1625,1189],[9,-41]],[[1635,1148],[-9,41]],[[1634,1147],[-6,-22]],[[1629,1125],[6,22]],[[2441,1194],[-5,-15]],[[2436,1179],[6,15]],[[2718,1195],[-1,1]],[[2718,1195],[0,1]],[[2730,1182],[-12,13]],[[2730,1182]],[[2730,1182]],[[2731,1181]],[[2731,1181],[1,1]],[[2731,1181],[16,-71]],[[2752,1104],[-5,6]],[[2752,1104],[9,-37]],[[1084,1105],[6,96]],[[1090,1203],[2,46]],[[1089,1203],[-1,-1],[2,-1]],[[1090,1201],[0,2]],[[1090,1203],[-1,0]],[[1421,1072],[182,-44],[132,-72],[355,73]],[[2090,1029],[-355,-72],[-132,72],[-180,43]],[[2538,1119],[-6,-8]],[[2533,1110],[0,1]],[[2534,1113],[4,6]],[[624,1248],[139,-48],[5,2]],[[768,1202],[87,23]],[[855,1225],[53,15],[333,-10],[28,-61],[110,-73]],[[1378,1098],[-109,73],[-28,60],[-149,17],[-184,-8],[-53,-15]],[[855,1225],[-85,-24],[-2,1]],[[768,1202],[-115,38]],[[1824,1201],[-53,21]],[[1877,1180],[-31,12]],[[2287,1144],[1,-2]],[[2288,1142],[1,-2],[6,-6],[14,1]],[[2309,1135],[10,1]],[[2319,1136],[1,0],[25,-26]],[[2346,1110],[-13,19],[-13,7],[-1,0]],[[2319,1136],[-6,-2],[-4,1]],[[2309,1135],[-19,4],[-2,3]],[[2288,1142],[0,1]],[[1534,1293],[-46,10]],[[1488,1301],[45,-9]],[[1535,1292],[5,-2]],[[1542,1290],[-7,2]],[[1540,1290],[34,-11]],[[1575,1279],[-33,11]],[[2049,1089],[-1,-1],[1,-1],[1,1],[-1,1]],[[1526,1201],[-1,0],[1,-1],[1,1],[-1,0]],[[1960,1115],[135,-3],[25,-9],[31,-10]],[[2151,1093],[20,-6],[17,17],[2,6],[0,1]],[[2190,1111],[9,13],[73,8]],[[2272,1132],[7,1],[9,0],[62,46],[67,8]],[[2418,1187],[-68,-8],[-62,-45],[-11,0],[-5,-2]],[[2272,1132],[-82,-21]],[[2190,1111],[-2,-7],[-37,-11]],[[2151,1093],[-1,0],[-172,13]],[[2049,1089],[-31,0]],[[2020,1088],[28,0]],[[1544,1331],[15,-4]],[[1559,1328],[-15,4]],[[1788,1089],[2,-1]],[[1792,1089],[1,0]],[[143,1671],[-20,13]],[[123,1683],[19,-12]],[[442,1544],[81,-12]],[[479,530]],[[479,530],[1,0]],[[480,530]],[[480,531],[-1,0]],[[645,1299],[-4,-12]],[[816,1484],[74,-31]],[[892,1452],[51,4]],[[1082,1336],[7,-133]],[[1088,1202],[-5,-97]],[[1092,1249],[-7,86]],[[1392,1073],[3,-1]],[[1557,975],[28,35]],[[1580,781],[105,-31]],[[1585,1010],[21,39]],[[1606,1049],[11,16]],[[1617,1065],[1,1]],[[1618,1066],[-1,-1]],[[1619,1068],[-1,0]],[[1619,1067],[0,1]],[[1619,1068],[9,49]],[[1628,1119],[0,-2]],[[1628,1117],[0,2]],[[1685,750],[18,2]],[[1703,752],[122,7]],[[1825,759],[10,0]],[[1835,761],[-10,-2]],[[1836,759],[6,-2]],[[1842,757],[-5,3]],[[1842,757],[49,-2],[78,77]],[[1859,1052],[-7,-61],[6,-20]],[[1859,971],[1,81]],[[1862,1102],[0,-2]],[[1863,1101]],[[1906,1169],[0,2]],[[1906,1171],[1,-2]],[[1969,832],[3,2]],[[1972,835],[-3,-3]],[[1973,834],[1,0],[0,1]],[[1974,836],[-1,0]],[[1974,836]],[[1974,836],[1,1]],[[1992,853],[-17,-16]],[[1992,853],[1,2]],[[1993,855],[20,32]],[[2011,887],[-18,-32]],[[2045,942],[-33,-53]],[[2012,889],[-1,-2]],[[2011,887],[2,0]],[[2013,887],[1,2]],[[2014,889],[-2,0]],[[2014,889],[33,52]],[[2067,966],[-20,-22]],[[2048,943],[20,23],[2,22]],[[2385,882],[20,-15]],[[2406,867],[-21,15]],[[2406,867],[-1,-1],[2,-1]],[[2407,865],[0,2],[-1,0]],[[2407,865],[67,-26]],[[2473,840],[-65,26]],[[443,1544],[-1,2],[-2,-1],[1,-1],[2,0]],[[480,531],[-1,0]],[[479,531],[0,-1]],[[479,530],[1,0]],[[480,530],[0,1]],[[893,1453],[-2,1],[-1,-1],[1,-1],[2,1]],[[1084,1105],[-1,0]],[[1083,1105],[1,-1],[0,1]],[[1619,1067],[-1,0],[0,-1],[1,1]],[[1837,760],[-1,1],[-1,-1],[1,-1],[1,1]],[[1858,971],[0,-2],[1,1],[0,1],[-1,0]],[[1973,836],[-1,-1],[0,-1]],[[1972,834],[2,1],[-1,1]],[[2046,944],[-1,-1],[2,-2]],[[2047,941],[1,2]],[[2048,943],[-2,1]],[[2474,840],[1,0],[0,1],[-1,0],[0,-1]],[[2172,1133],[16,-26]],[[2188,1108],[-16,25]],[[2096,1019],[-29,-53]],[[2070,988],[25,33]],[[2664,1048],[65,-35]],[[2729,1014],[-65,35]],[[2771,1039],[-40,-25]],[[2731,1013],[41,24]],[[1736,1112],[11,-10],[10,-9],[2,0]],[[1759,1093],[23,1]],[[1783,1093],[-21,-2],[-3,2]],[[1759,1093],[-12,9],[-11,11]],[[1841,1097],[-13,-1]],[[1828,1096],[-13,-1]],[[1818,1096],[10,0]],[[1828,1096],[10,0]],[[1953,1114],[7,1]],[[1978,1106],[-24,-1]],[[2611,1124],[23,-24]],[[2634,1100],[-23,24]],[[1823,1201],[23,-9]],[[1880,1178],[35,-11]],[[1914,1168],[-32,10]],[[2648,1230],[26,1],[-22,32],[-101,46]],[[1838,1096],[5,1],[5,0]],[[1848,1097],[93,16],[12,1]],[[1954,1105],[-106,-8]],[[1848,1097],[-7,0]],[[2581,1125],[1,-5]],[[2582,1119],[-1,6]],[[2440,524],[51,104],[-2,9]],[[2489,637],[-2,12]],[[2487,649],[-3,13],[-18,22]],[[2461,684],[26,-35]],[[2487,649],[5,-7],[-3,-5]],[[2489,637],[-39,-74]],[[3068,289],[-67,63],[-22,10]],[[2979,362],[-58,24]],[[2921,386],[-45,19],[-4,-2]],[[2872,403],[-5,-2]],[[2867,401],[-19,-10],[3,-23]],[[2851,368],[3,-21],[-23,-18]],[[2831,329],[-5,-5]],[[2826,324],[-1,0],[-98,-12],[-34,9]],[[2693,321],[-87,23]],[[2655,321],[38,0]],[[2693,321],[133,3]],[[2826,324],[3,0],[2,5]],[[2831,329],[20,39]],[[2851,368],[16,33]],[[2867,401],[1,3],[4,-1]],[[2872,403],[49,-17]],[[2921,386],[49,-17],[9,-7]],[[2979,362],[89,-74]],[[1084,1420],[-15,-6]],[[1070,1414],[15,5]],[[1073,1412],[0,-1]],[[1970,1112],[-1,10],[-11,19]],[[1959,1129],[10,-17]],[[2433,1181],[7,-3]],[[2493,1160],[-6,4],[-54,18]],[[2451,1172],[4,-2]],[[2487,1164],[6,-5]],[[2529,1104],[4,6]],[[2532,1110],[-2,-5]],[[2575,1204],[7,-3]],[[2583,1202],[-6,3]],[[2646,1076],[17,-27],[1,-1]],[[2664,1049],[-17,27]],[[2731,1014],[-2,0]],[[2729,1013],[2,0]],[[503,1398],[2,-1],[1,1],[-3,1],[0,-1]],[[2436,718],[2,0],[0,2],[-2,0],[0,-2]],[[2451,758],[1,2],[-2,1],[-1,-2],[2,-1]],[[2492,936],[-1,-1],[1,-1],[1,1],[-1,1]],[[2771,1040],[1,-3],[2,1],[-1,2],[-2,0]],[[1572,1347],[-4,11]],[[1572,1347],[11,-8]],[[1602,1318],[-19,21]],[[1583,1339],[18,-21]],[[2521,1126],[13,-11]],[[2536,1118],[0,-1]],[[2536,1117],[-3,-6],[-1,-1]],[[2533,1110],[1,3]],[[2533,1111],[3,6]],[[2536,1117],[1,1]],[[2540,1115],[-4,2]],[[2536,1117]],[[2536,1117],[-3,1]],[[2582,1201],[5,-6]],[[2587,1195],[-1,3],[-3,4]],[[2587,1194],[8,-10]],[[2595,1184],[-7,12]],[[2634,1100],[12,-24]],[[2647,1076],[-13,24]],[[1427,715],[-77,-14],[3,-85]],[[1354,616],[6,40],[-10,45],[83,11]],[[2437,718],[24,-34]],[[2466,684],[-28,35]],[[2718,1192],[5,-4]],[[2681,1213],[-1,0],[1,0]],[[2606,344],[-159,59],[-7,121]],[[2450,563],[-12,-44],[8,-116],[156,-58]],[[2471,884],[-18,-107]],[[2454,778],[18,105]],[[2488,927],[-16,-42]],[[2473,885],[16,42]],[[2605,344],[50,-23]],[[3068,288],[50,-34],[90,-177],[100,-66],[0,-11]],[[3308,0],[1,12],[-57,41],[-44,25],[-4,27],[-86,149],[-48,34],[-2,1]],[[1287,1346],[1,-1]],[[1288,1345],[-1,1]],[[1288,1345],[1,-1],[1,0],[-1,1],[-1,0]],[[1290,1344],[30,-13]],[[1320,1332],[-30,13]],[[1321,1330],[71,-30]],[[1392,1301],[-71,30]],[[1393,1299],[0,1],[-1,1]],[[1392,1301],[0,-2],[1,0]],[[1393,1299],[32,-6]],[[1425,1294],[-32,6]],[[1421,1089],[-6,-5]],[[1416,1083],[3,3]],[[1424,1092],[-1,0]],[[1426,1293],[2,0]],[[1428,1294],[-2,0]],[[1477,1159],[-36,-46]],[[1477,1159],[5,3]],[[1481,1163],[-4,-4]],[[1628,1124],[0,-5]],[[1628,1119],[1,5]],[[1862,1100],[-3,-48]],[[1860,1052],[3,49]],[[1321,1331],[0,1],[-1,-1],[0,-1],[1,1]],[[1426,1294],[-1,0]],[[1425,1294],[0,-1],[2,0],[-1,1]],[[1483,1164],[-1,0],[-1,-2],[2,0],[0,2]],[[1557,1248],[-1,1],[-1,0],[1,-1],[1,0]],[[1568,1196],[1,-1],[1,0],[-1,1],[-1,0]],[[1575,1278],[1,0],[-1,1],[-1,0],[1,-1]],[[1590,1298],[0,-1],[1,0],[0,1],[-1,0]],[[1594,1267],[-1,1],[0,-1],[1,0]],[[1613,1236],[-1,0],[0,-1],[1,0],[0,1]],[[1629,1125],[-1,0],[0,-1],[1,1]],[[1634,1147],[1,0],[-1,1],[0,-1]],[[1640,1187],[1,1],[0,1],[-1,-1],[0,-1]],[[1661,1186],[-1,1],[-1,-1],[1,0],[1,0]],[[1705,1177],[-1,0],[1,-1],[0,1]],[[1738,1196],[-1,-1],[0,-1],[1,0],[0,2]],[[1792,1083],[0,1],[-1,0],[0,-1],[1,0]],[[1815,1061],[-1,0],[0,-1],[1,1]],[[0,900],[134,121]],[[134,1021],[24,22],[229,34],[179,156],[45,11]],[[611,1244],[13,4]],[[624,1248]],[[653,1240],[-29,8]],[[624,1248],[-5,1],[-9,-3]],[[610,1246],[-44,-12],[-183,-157],[-225,-33],[-24,-23]],[[134,1021],[-118,-114],[-16,-7]],[[635,1263],[-30,-15]],[[608,1248],[2,-2]],[[610,1246],[1,-2]],[[611,1244],[15,-16]],[[619,1249],[-8,0]],[[1508,1044],[38,-15]],[[1533,1039],[38,-6]],[[2551,1309],[-2551,1496]],[[2722,1187],[1,-1]],[[2723,1187],[0,2]],[[1624,1190],[2,-1],[0,1],[-1,1],[-1,-1]],[[1958,1141],[-81,9]],[[1877,1149],[82,-20]],[[49,1572],[99,-17],[311,-144]],[[460,1411],[-312,145],[-96,17]],[[780,1336],[157,36]],[[936,1372],[-156,-35]],[[1737,1195],[-32,-18]],[[1705,1176],[13,6],[19,12]],[[1769,1222],[-31,-26]],[[1739,1195],[31,27]],[[2239,1057],[14,-29]],[[2253,1028],[-14,29]],[[1409,1077],[-31,21]],[[1379,1096],[29,-19]],[[241,1609],[95,-52],[104,-13]],[[441,1546],[-105,12],[-95,51]],[[523,1533],[-80,12]],[[891,1454],[-75,30]],[[944,1458],[-52,-4]],[[1526,1200],[42,-5]],[[1568,1196],[-41,5]],[[1569,1195],[56,-6]],[[1625,1190],[-56,6]],[[1626,1189],[14,-2]],[[1640,1188],[-14,2]],[[1641,1187],[18,-1]],[[1660,1187],[-19,1]],[[1660,1186],[44,-10]],[[1704,1177],[-43,10]],[[1496,1175],[-12,-10]],[[1484,1164],[13,11]],[[96,419],[16,13]],[[610,1169],[1,13]],[[2717,1193],[1,1]],[[2773,1040],[-12,27],[10,-27]],[[1770,1222],[53,-21]],[[1846,1192],[34,-14]],[[1882,1178],[-5,2]],[[2215,1134],[-301,34]],[[1915,1167],[21,-5],[76,-12],[185,-20]],[[0,1581],[49,-9]],[[52,1573],[-52,9]],[[459,1411],[200,-54],[121,-21]],[[780,1337],[-320,74]],[[1069,1414],[-133,-42]],[[937,1372],[133,42]],[[1236,1431],[-138,-6],[-14,-5]],[[1085,1419],[151,11]],[[1239,1429],[65,-22]],[[1304,1409],[-64,21]],[[1466,1353],[19,-7]],[[1485,1348],[-18,6]],[[2417,1187],[16,-6]],[[2433,1182],[-15,5]],[[2440,1178],[11,-6]],[[2455,1170],[32,-6]],[[2493,1159],[17,-19]],[[2510,1141],[-17,19]],[[1240,1429],[-2,2],[-2,0],[2,-2],[2,0]],[[1559,1377],[9,-19]],[[1296,539],[4,10]],[[1300,551],[3,-111]],[[1319,157],[-22,-117],[-56,-38],[-1,-2]],[[2388,1176],[-10,10]],[[2378,1186],[-19,1]],[[2359,1187],[-70,-42]],[[2289,1144],[16,4],[52,37],[2,2]],[[2359,1187],[1,0],[11,5],[3,-1],[4,-5]],[[2378,1186],[1,-2],[2,-3],[7,-5]],[[1499,1342],[45,-11]],[[1544,1332],[-44,12]],[[1727,1144],[-125,173],[-43,11]],[[1559,1327],[43,-11],[125,-174]],[[479,528],[-49,-60],[-222,-46],[-54,31],[-129,-73],[-25,-1]],[[610,1169],[-11,-191],[-84,-239],[-30,-194]],[[611,1182],[34,117]],[[1969,1110],[1,-51],[1,-10],[2,-4]],[[1974,1046],[-4,64]],[[2450,759],[-13,-38]],[[2438,720],[13,38]],[[2453,777],[-3,-16]],[[2451,760],[3,18]],[[2491,934],[-3,-7]],[[2489,927],[3,7]],[[2523,1085],[-4,-56],[2,-2]],[[2521,1027],[24,-34]],[[2545,993],[7,-10],[0,-6],[-60,-41]],[[2493,935],[60,42],[-1,6],[-7,10]],[[2545,993],[-24,31],[0,3]],[[2521,1027],[2,56],[0,3],[10,24]],[[2530,1105],[-7,-20]],[[2532,1111],[-9,-26]],[[2637,1217],[44,-4]],[[2680,1213],[-43,5]],[[2714,1195],[-34,18]],[[2681,1213],[33,-19]],[[0,1743],[89,-16],[67,-4],[197,12],[53,-12],[84,-110],[31,-24],[70,-19],[83,-42],[73,-10],[380,21],[127,-7],[131,-28],[179,-77],[50,-11],[50,-21],[107,-110],[53,-42],[101,-34],[135,-17],[141,2],[120,25],[63,24],[26,21],[21,59],[25,1],[56,-16],[124,-3],[67,-13],[59,-30],[26,-40],[58,-126],[25,-27],[15,-6],[13,-14],[12,-16],[10,-10],[6,2],[17,3],[20,0],[19,-5],[41,-35],[23,-27],[13,-25],[22,0],[18,43],[7,-17],[6,-10],[5,-13],[4,-25],[20,0],[3,14],[14,30],[16,-14],[9,-4],[37,18],[70,-95],[20,-53],[-10,-48],[23,-44],[30,-145],[37,-62],[171,-161],[105,-48],[41,-57],[50,-137],[28,-50],[60,-58],[-3846,0],[0,1743]],[[1229,1306],[31,-2],[25,35],[29,108],[47,-42],[126,-14],[-28,-51],[-17,11],[15,-48],[-29,-8],[-22,-72],[19,-31],[-78,-54],[-73,31],[-8,75],[-37,62]],[[3699,0],[-93,0],[20,152],[-33,106],[95,15],[66,-155],[-55,-118]],[[1296,576],[-80,61],[-17,117],[169,-10],[122,-61],[-16,-49],[-146,-22],[-32,-36]],[[1771,1285],[154,-76],[135,-17],[261,27],[89,45],[21,59],[272,-31],[85,-70],[64,-133],[-3,-87],[-219,-69],[-40,-73],[0,-71],[-32,0],[0,-35],[-32,0],[-59,-70],[-39,-1],[12,75],[69,102],[16,70],[-95,-10],[-118,-101],[-78,-30],[-32,141],[-130,1],[33,70],[-34,64],[-142,64],[-18,49],[-65,0],[0,36],[-65,-36],[-97,0],[-207,-106],[-84,0],[-23,39],[23,103],[-31,45],[-131,25],[-32,36],[-259,35],[-15,80],[86,98],[243,-1],[410,-137],[107,-110]],[[674,1528],[130,-7],[-26,-201],[-64,0],[-33,-36],[-259,107],[65,35],[40,117],[55,29],[92,-44]],[[0,1541],[0,205],[44,-11],[22,-61],[152,-5],[42,-31],[-41,-63],[-106,17],[-79,-24],[0,-36],[-34,9]],[[1414,1400],[21,55],[126,-52],[-2,-28],[-35,17],[6,-26],[27,4],[-26,-76],[-47,22],[4,72],[22,-10],[2,23],[-25,-13],[-34,34],[-14,-27],[-25,5]],[[2315,720],[58,32],[36,111],[28,-20],[-13,-86],[-65,-88],[-6,43],[-38,8]],[[1372,1109],[80,33],[22,37],[30,-42],[36,-1],[-28,-57],[-43,2],[-9,56],[-44,-54],[-44,26]],[[1785,1054],[4,34],[164,28],[1,-29],[-55,-15],[14,-23],[-21,-21],[-29,26],[-56,-27],[-22,27]],[[1474,1179],[75,86],[-9,25],[25,3],[-8,51],[33,40],[139,-117],[-2,-26],[102,-47],[-105,-12],[7,-80],[-139,23],[8,23],[-37,-4],[13,17],[-102,18]],[[2506,1131],[7,17],[57,-46],[-19,84],[50,25],[22,-40],[-15,-31],[43,-1],[41,-40],[-47,14],[13,-43],[-46,24],[-15,-34],[-91,71]],[[1723,1178],[108,14],[125,-38],[3,-29],[-171,-35],[-53,39],[-12,49]],[[2210,0],[12,36],[41,56],[-71,222],[25,12],[45,-35],[111,-7],[25,-33],[-14,-78],[196,-15],[61,26],[94,-80],[-11,-59],[31,8],[20,45],[81,-43],[51,-55],[-697,0]]]}