{"objects":{"water":{"type":"GeometryCollection","geometries":[{"type":"MultiPolygon","properties":{"source":"naturalearthdata.com","kind":"ocean","area":1576712559132672,"sort_rank":200,"min_zoom":0.0,"id":1},"arcs":[[[0]],[[1]]]},{"type":"MultiLineString","properties":{"source":"naturalearthdata.com","kind":"ocean","sort_rank":205,"boundary":true,"min_zoom":0.0,"id":1951},"arcs":[[2],[3]]}]},"buildings":{"type":"GeometryCollection","geometries":[]},"places":{"type":"GeometryCollection","geometries":[]},"transit":{"type":"GeometryCollection","geometries":[]},"pois":{"type":"GeometryCollection","geometries":[]},"boundaries":{"type":"GeometryCollection","geometries":[]},"roads":{"type":"GeometryCollection","geometries":[]},"earth":{"type":"GeometryCollection","geometries":[{"type":"MultiPolygon","properties":{"sort_rank":10,"source":"naturalearthdata.com","min_zoom":0.0,"kind":"earth","area":14507402388},"arcs":[[[4]]]},{"type":"Point","properties":{"label_placement":true,"name:pt":"Ilha Rudolfo","name:ro":"Insula Rudolf","name:nl":"Rudolfeiland","name:ja":"\u30eb\u30c9\u30eb\u30d5\u5cf6","name:nn":"Rudolf\u00f8ya","name:uz":"Rudolf oroli","name:cs":"Rudolf\u016fv ostrov","name:eo":"Rudolf-insulo","min_zoom":7.0,"name:az":"Rudolf adas\u0131","name:it":"Isola del Principe Rodolfo","name:uk":"\u041e\u0441\u0442\u0440\u0456\u0432 \u0420\u0443\u0434\u043e\u043b\u044c\u0444\u0430","name:sk":"Rudolfov ostrov","name:pl":"Wyspa Rudolfa","name:hu":"Rudolf-sziget","id":-3241667,"osm_relation":true,"name:el":"\u039d\u03ae\u03c3\u03bf\u03c2 \u03a1\u03bf\u03cd\u03bd\u03c4\u03bf\u03bb\u03c6","kind":"island","name:en":"Rudolf Island","name":"\u043e\u0441\u0442\u0440\u043e\u0432 \u0420\u0443\u0434\u043e\u043b\u044c\u0444\u0430","area":13495600128,"name:de":"Rudolf-Insel","source":"openstreetmap.org","name:fr":"\u00cele Rudolf","name:et":"Rudolfi saar","name:zh":"\u9b6f\u9053\u592b\u5cf6","name:es":"Tierra del Pr\u00edncipe Rodolfo"},"coordinates":[2997,1050]}]},"landuse":{"type":"GeometryCollection","geometries":[{"type":"MultiPolygon","properties":{"kind":"glacier","natural":"glacier","area":13394323590,"sort_rank":29,"source":"openstreetmap.org","min_zoom":8.0,"tier":3,"osm_relation":true},"arcs":[[[5],[6],[7]]]},{"type":"Polygon","properties":{"kind":"nature_reserve","protect_class":"2","area":5277250224128,"sort_rank":23,"source":"openstreetmap.org","min_zoom":4.0,"tier":2,"id":-7008461,"osm_relation":true},"arcs":[[8]]}]}},"type":"Topology","transform":{"translate":[57.65625,81.7231876182],"scale":[0.0003433228,0.0000488278]},"arcs":[[[2484,2387],[-1028,-194],[-251,-271],[-268,-8],[-111,-267],[141,-335],[309,-51],[148,-162],[-530,-351],[-50,-92],[-23,-140],[-10,-178],[-19,-125],[-47,23],[-22,-113],[-15,-123],[-708,0],[0,4096],[4096,0],[0,-1404],[-585,-111],[-1027,-194]],[[2572,0],[319,83],[1029,267],[176,46],[0,-396],[-1524,0]],[[2572,0],[319,83],[1029,267],[176,46]],[[4096,2692],[-585,-111],[-1027,-194],[-1028,-194],[-251,-271],[-268,-8],[-111,-267],[141,-335],[309,-51],[148,-162],[-530,-351],[-50,-92],[-23,-140],[-10,-178],[-19,-125],[-47,23],[-22,-113],[-15,-123]],[[4096,2692],[0,-2296],[-176,-46],[-1029,-267],[-319,-83],[-1864,0],[15,123],[22,113],[47,-23],[19,125],[10,178],[23,140],[50,92],[530,351],[-148,162],[-309,51],[-141,335],[111,267],[268,8],[251,271],[1028,194],[1027,194],[585,111]],[[4096,2716],[0,-2571],[-242,-41],[-376,27],[-171,-131],[-205,0],[-47,99],[-124,66],[-165,12],[-246,-72],[-119,15],[-52,-78],[-56,20],[11,-62],[-80,0],[-1,26],[-54,-1],[6,-25],[-1176,0],[30,11],[-79,39],[-44,96],[0,59],[38,7],[-56,102],[29,70],[-46,-56],[-33,16],[86,256],[171,93],[189,171],[12,122],[-22,127],[-203,114],[-35,193],[-52,15],[17,49],[-37,166],[142,232],[-12,26],[127,31],[-3,89],[56,-11],[77,27],[184,122],[135,33],[186,-21],[251,-111],[147,-21],[126,19],[92,37],[158,229],[118,95],[235,98],[95,86],[215,100],[803,6]],[[2786,472],[12,-9],[19,34],[-29,-16],[-2,-9]],[[922,398],[15,13],[-6,28],[-6,-11],[-3,-30]],[[0,4096],[4096,0],[0,-4096],[-4096,0],[0,4096]]]}