{"objects":{"water":{"type":"GeometryCollection","geometries":[{"type":"MultiPolygon","properties":{"source":"naturalearthdata.com","kind":"ocean","area":1576712559132672,"sort_rank":200,"min_zoom":0.0,"id":1},"arcs":[[[4]]]}]},"buildings":{"type":"GeometryCollection","geometries":[]},"places":{"type":"GeometryCollection","geometries":[]},"transit":{"type":"GeometryCollection","geometries":[]},"pois":{"type":"GeometryCollection","geometries":[]},"boundaries":{"type":"GeometryCollection","geometries":[{"type":"LineString","properties":{"name:right:ja":"\u30a2\u30eb\u30cf\u30f3\u30b2\u30ea\u30b9\u30af\u5dde","name:left:pl":"Nieniecki Okr\u0119g Autonomiczny","name:left:ja":"\u30cd\u30cd\u30c4\u81ea\u6cbb\u7ba1\u533a","id:right":-140337,"name:right:lt":"Archangelsko sritis","min_zoom":8.0,"name:left:lt":"Nenc\u0173 autonomin\u0117 apygarda","id:left":-274048,"name:right:sv":"Archangelsk oblast","name:right:pl":"Obw\u00f3d archangielski","id":-274048,"osm_relation":true,"name:right":"\u0410\u0440\u0445\u0430\u043d\u0433\u0435\u043b\u044c\u0441\u043a\u0430\u044f \u043e\u0431\u043b\u0430\u0441\u0442\u044c","kind":"region","name:right:ca":"Prov\u00edncia d'Arkh\u00e0nguelsk","name":"\u041d\u0435\u043d\u0435\u0446\u043a\u0438\u0439 \u0430\u0432\u0442\u043e\u043d\u043e\u043c\u043d\u044b\u0439 \u043e\u043a\u0440\u0443\u0433 - \u0410\u0440\u0445\u0430\u043d\u0433\u0435\u043b\u044c\u0441\u043a\u0430\u044f \u043e\u0431\u043b\u0430\u0441\u0442\u044c","source":"openstreetmap.org","sort_rank":256,"kind_detail":"4","name:left:ca":"Nen\u00e8tsia","name:left:de":"Autonomer Kreis der Nenzen","name:right:en":"Arkhangelsk Oblast","name:left:en":"Nenets Autonomous Okrug","name:right:de":"Oblast Archangelsk","name:right:cs":"Archangelsk\u00e1 oblast","name:right:fi":"Arkangelin alue","name:left:cs":"N\u011bneck\u00fd autonomn\u00ed okruh","name:left":"\u041d\u0435\u043d\u0435\u0446\u043a\u0438\u0439 \u0430\u0432\u0442\u043e\u043d\u043e\u043c\u043d\u044b\u0439 \u043e\u043a\u0440\u0443\u0433"},"arcs":[0]},{"type":"LineString","properties":{"kind":"region","name:en":"Nenets Autonomous Okrug","name":"\u041d\u0435\u043d\u0435\u0446\u043a\u0438\u0439 \u0430\u0432\u0442\u043e\u043d\u043e\u043c\u043d\u044b\u0439 \u043e\u043a\u0440\u0443\u0433","name:lt":"Nenc\u0173 autonomin\u0117 apygarda","sort_rank":256,"kind_detail":"4","name:cs":"N\u011bneck\u00fd autonomn\u00ed okruh","name:de":"Autonomer Kreis der Nenzen","source":"openstreetmap.org","min_zoom":8.0,"name:ca":"Nen\u00e8tsia","name:pl":"Nieniecki Okr\u0119g Autonomiczny","id":-274048,"osm_relation":true,"name:ja":"\u30cd\u30cd\u30c4\u81ea\u6cbb\u7ba1\u533a"},"arcs":[1]},{"type":"LineString","properties":{"name:ja":"\u30cd\u30cd\u30c4\u81ea\u6cbb\u7ba1\u533a","name:lt":"Nenc\u0173 autonomin\u0117 apygarda","name:cs":"N\u011bneck\u00fd autonomn\u00ed okruh","min_zoom":8.0,"name:pl":"Nieniecki Okr\u0119g Autonomiczny","id":-274048,"name:ca":"Nen\u00e8tsia","kind":"region","name:en":"Nenets Autonomous Okrug","name":"\u041d\u0435\u043d\u0435\u0446\u043a\u0438\u0439 \u0430\u0432\u0442\u043e\u043d\u043e\u043c\u043d\u044b\u0439 \u043e\u043a\u0440\u0443\u0433","sort_rank":256,"kind_detail":"4","name:de":"Autonomer Kreis der Nenzen","source":"openstreetmap.org","maritime_boundary":true,"osm_relation":true},"arcs":[2]},{"type":"LineString","properties":{"name:ja":"\u30a2\u30eb\u30cf\u30f3\u30b2\u30ea\u30b9\u30af\u5dde","name:lt":"Archangelsko sritis","name:cs":"Archangelsk\u00e1 oblast","min_zoom":8.0,"name:sv":"Archangelsk oblast","name:pl":"Obw\u00f3d archangielski","id":-140337,"osm_relation":true,"kind":"region","name:en":"Arkhangelsk Oblast","name":"\u0410\u0440\u0445\u0430\u043d\u0433\u0435\u043b\u044c\u0441\u043a\u0430\u044f \u043e\u0431\u043b\u0430\u0441\u0442\u044c","sort_rank":256,"kind_detail":"4","name:de":"Oblast Archangelsk","source":"openstreetmap.org","maritime_boundary":true,"name:ca":"Prov\u00edncia d'Arkh\u00e0nguelsk","name:fi":"Arkangelin alue"},"arcs":[3]}]},"roads":{"type":"GeometryCollection","geometries":[]},"earth":{"type":"GeometryCollection","geometries":[]},"landuse":{"type":"GeometryCollection","geometries":[]}},"type":"Topology","transform":{"translate":[57.65625,70.612614238],"scale":[0.0003433228,0.0001126568]},"arcs":[[[2734,1347],[-980,-1347]],[[2745,1341],[-11,6]],[[4096,650],[-1351,691]],[[2734,1347],[-1544,787],[-460,619],[-380,348],[-338,192],[-12,4]],[[4096,4096],[0,-4096],[-4096,0],[0,4096],[4096,0]]]}