{"objects":{"water":{"type":"GeometryCollection","geometries":[{"type":"Polygon","properties":{"source":"naturalearthdata.com","kind":"ocean","area":1576712559132672,"sort_rank":200,"min_zoom":0.0,"id":1},"arcs":[[2]]},{"type":"LineString","properties":{"source":"naturalearthdata.com","kind":"ocean","sort_rank":205,"boundary":true,"min_zoom":0.0,"id":1870},"arcs":[3]}]},"buildings":{"type":"GeometryCollection","geometries":[]},"places":{"type":"GeometryCollection","geometries":[{"type":"Point","properties":{"source":"naturalearthdata.com","kind":"locality","name":"Severo Kurilsk","population":2422,"min_zoom":7.0,"id":3086},"coordinates":[4071,3886]}]},"transit":{"type":"GeometryCollection","geometries":[]},"pois":{"type":"GeometryCollection","geometries":[]},"boundaries":{"type":"GeometryCollection","geometries":[{"type":"MultiLineString","properties":{"kind":"region","name:en":"Sakhalin Oblast","name":"\u0421\u0430\u0445\u0430\u043b\u0438\u043d\u0441\u043a\u0430\u044f \u043e\u0431\u043b\u0430\u0441\u0442\u044c","name:lt":"Sachalino sritis","sort_rank":256,"kind_detail":"4","min_zoom":8.0,"name:de":"Oblast Sachalin","source":"openstreetmap.org","maritime_boundary":true,"osm_relation":true,"name:pl":"Obw\u00f3d sachali\u0144ski","id":-394235,"name:ca":"Prov\u00edncia de Sakhal\u00edn","name:ja":"\u30b5\u30cf\u30ea\u30f3\u5dde"},"arcs":[[0],[1]]}]},"roads":{"type":"GeometryCollection","geometries":[]},"earth":{"type":"GeometryCollection","geometries":[{"type":"MultiPolygon","properties":{"sort_rank":10,"source":"naturalearthdata.com","min_zoom":0.0,"kind":"earth","area":6341262274},"arcs":[[[4]]]},{"type":"Point","properties":{"label_placement":true,"name:pt":"Paramushiru","name:az":"Paramu\u015fir","name:id":"Paramushir","name:ko":"\ud30c\ub77c\ubb34\uc2dc\ub974 \uc12c","name:cs":"Paramu\u0161ir","min_zoom":7.0,"int_name":"Paramushir","name:it":"Paramu\u0161ir","name:vi":"Paramushir","name:pl":"Paramuszyr","id":-2246025,"area":4986440192,"name:de":"Paramuschir","source":"openstreetmap.org","name:fr":"Paramouchir","name:zh":"\u5e4c\u7b75\u5c9b","name:sl":"Paramu\u0161ir","name:nl":"Paramoesjir","name:ja":"\u5e4c\u7b75\u5cf6","name:nn":"Paramusjir","name:no":"Paramusjir","name:sk":"Paramu\u0161ir","name:be":"\u0412\u043e\u0441\u0442\u0440\u0430\u045e \u041f\u0430\u0440\u0430\u043c\u0443\u0448\u044b\u0440","osm_relation":true,"name:el":"\u03a0\u03b1\u03c1\u03b1\u03bc\u03bf\u03c5\u03c3\u03af\u03c1","kind":"island","name:en":"Paramushir","name":"\u041f\u0430\u0440\u0430\u043c\u0443\u0448\u0438\u0440","name:gl":"Paramushir","name:eu":"Paramuxir","name:et":"Paramu\u0161ir","name:es":"Paramushir"},"coordinates":[3339,2494]}]},"landuse":{"type":"GeometryCollection","geometries":[]}},"type":"Topology","transform":{"translate":[154.6875,49.8379824531],"scale":[0.0003433228,0.0002193537]},"arcs":[[[1517,4096],[107,-152],[142,-139],[283,-532],[-249,-80],[-597,-250],[-783,-428],[-267,-190],[-153,-199]],[[2574,0],[144,100],[118,119],[278,393],[534,190],[133,87],[315,289]],[[0,0],[0,4096],[3709,0],[-208,-208],[-33,-56],[-21,-86],[-26,-206],[-23,-66],[-100,-164],[-88,-200],[-12,-43],[-16,-99],[-12,-44],[-25,-50],[-144,-207],[-82,-88],[-89,-68],[-79,-23],[-45,16],[-83,49],[-52,-3],[-17,-17],[-27,-59],[-17,-17],[-26,-6],[-186,0],[-101,-23],[-92,-47],[-74,-80],[-111,-185],[-77,-60],[-153,81],[-100,-10],[-92,-50],[-44,-87],[2,-59],[16,-37],[137,-122],[29,-50],[-15,-60],[-5,-39],[27,-123],[8,-56],[-12,-60],[-30,-50],[-33,-46],[-24,-48],[-17,-64],[-6,-67],[10,-65],[33,-56],[40,0],[69,42],[85,3],[163,-45],[76,-36],[23,-42],[-16,-66],[-43,-105],[92,-20],[49,70],[30,111],[167,382],[62,82],[175,134],[178,58],[438,33],[26,14],[90,169],[25,38],[45,39],[92,23],[48,23],[20,48],[16,50],[128,195],[137,276],[27,41],[38,37],[43,29],[35,36],[15,56],[-3,57],[-5,42],[-2,44],[10,58],[20,60],[22,31],[32,18],[46,16],[20,2],[9,-1],[0,-2990],[-4096,0]],[[3709,4096],[-208,-208],[-33,-56],[-21,-86],[-26,-206],[-23,-66],[-100,-164],[-88,-200],[-12,-43],[-16,-99],[-12,-44],[-25,-50],[-144,-207],[-82,-88],[-89,-68],[-79,-23],[-45,16],[-83,49],[-52,-3],[-17,-17],[-27,-59],[-17,-17],[-26,-6],[-186,0],[-101,-23],[-92,-47],[-74,-80],[-111,-185],[-77,-60],[-153,81],[-100,-10],[-92,-50],[-44,-87],[2,-59],[16,-37],[137,-122],[29,-50],[-15,-60],[-5,-39],[27,-123],[8,-56],[-12,-60],[-30,-50],[-33,-46],[-24,-48],[-17,-64],[-6,-67],[10,-65],[33,-56],[40,0],[69,42],[85,3],[163,-45],[76,-36],[23,-42],[-16,-66],[-43,-105],[92,-20],[49,70],[30,111],[167,382],[62,82],[175,134],[178,58],[438,33],[26,14],[90,169],[25,38],[45,39],[92,23],[48,23],[20,48],[16,50],[128,195],[137,276],[27,41],[38,37],[43,29],[35,36],[15,56],[-3,57],[-5,42],[-2,44],[10,58],[20,60],[22,31],[32,18],[46,16],[20,2],[9,-1]],[[4096,4096],[0,-1106],[-9,1],[-20,-2],[-46,-16],[-32,-18],[-22,-31],[-20,-60],[-10,-58],[2,-44],[5,-42],[3,-57],[-15,-56],[-35,-36],[-43,-29],[-38,-37],[-27,-41],[-137,-276],[-128,-195],[-16,-50],[-20,-48],[-48,-23],[-92,-23],[-45,-39],[-25,-38],[-90,-169],[-26,-14],[-438,-33],[-178,-58],[-175,-134],[-62,-82],[-167,-382],[-30,-111],[-49,-70],[-92,20],[43,105],[16,66],[-23,42],[-76,36],[-163,45],[-85,-3],[-69,-42],[-40,0],[-33,56],[-10,65],[6,67],[17,64],[24,48],[33,46],[30,50],[12,60],[-8,56],[-27,123],[5,39],[15,60],[-29,50],[-137,122],[-16,37],[-2,59],[44,87],[92,50],[100,10],[153,-81],[77,60],[111,185],[74,80],[92,47],[101,23],[186,0],[26,6],[17,17],[27,59],[17,17],[52,3],[83,-49],[45,-16],[79,23],[89,68],[82,88],[144,207],[25,50],[12,44],[16,99],[12,43],[88,200],[100,164],[23,66],[26,206],[21,86],[33,56],[208,208],[387,0]]]}