{"objects":{"water":{"type":"GeometryCollection","geometries":[{"type":"Polygon","properties":{"source":"naturalearthdata.com","kind":"ocean","area":1576712559132672,"sort_rank":200,"min_zoom":0.0,"id":1},"arcs":[[9],[10],[11]]},{"type":"LineString","properties":{"source":"naturalearthdata.com","kind":"ocean","sort_rank":205,"boundary":true,"min_zoom":0.0,"id":79},"arcs":[12]}]},"buildings":{"type":"GeometryCollection","geometries":[]},"places":{"type":"GeometryCollection","geometries":[{"type":"Point","properties":{"kind":"region","name":"B\u1ea1c Li\u00eau","kind_detail":"state","min_zoom":4.0,"source":"openstreetmap.org","name:fr":"Province de B\u1ea1c Li\u00eau","name:uk":"\u0411\u0430\u043a\u043b\u044c\u0454\u0443","id":1526807576,"name:ja":"\u30d0\u30af\u30ea\u30a8\u30a6"},"coordinates":[4079,2723]},{"type":"Point","properties":{"kind":"region","name":"C\u00e0 Mau","kind_detail":"state","min_zoom":4.0,"source":"openstreetmap.org","name:fr":"Province de C\u00e0 Mau","name:uk":"\u041a\u0430\u043c\u0430\u0443","id":1526807581,"name:ja":"\u30ab\u30de\u30a6"},"coordinates":[3038,2053]}]},"transit":{"type":"GeometryCollection","geometries":[]},"pois":{"type":"GeometryCollection","geometries":[]},"boundaries":{"type":"GeometryCollection","geometries":[{"type":"LineString","properties":{"name:kg":"Vietnam","name:ka":"\u10d5\u10d8\u10d4\u10e2\u10dc\u10d0\u10db\u10d8","name:ko":"\ubca0\ud2b8\ub0a8","name:cv":"\u0412\u044c\u0435\u0442\u043d\u0430\u043c","name:km":"\u179c\u17c0\u178f\u178e\u17b6\u1798","name:kl":"Vietnam","name:cs":"Vietnam","name:tw":"Vietnam","name:ki":"Vietnam","name:kw":"Vietnam","name:kv":"\u0412\u044c\u0435\u0442\u043d\u0430\u043c","name:th":"\u0e1b\u0e23\u0e30\u0e40\u0e17\u0e28\u0e40\u0e27\u0e35\u0e22\u0e14\u0e19\u0e32\u0e21","name:tl":"Vietnam","name:ch":"Vietnam","name:ce":"\u0412\u044c\u0435\u0442\u043d\u0430\u043c","name:ta":"\u0bb5\u0bbf\u0baf\u0b9f\u0bcd\u0ba8\u0bbe\u0bae\u0bcd","name:tg":"\u0412\u0435\u0442\u043d\u0430\u043c","name:ca":"Vietnam","name:te":"\u0c35\u0c3f\u0c2f\u0c24\u0c4d\u0c28\u0c3e\u0c02","name:cy":"Fietnam","name:qu":"Witnam","name:da":"Vietnam","name:de":"Vietnam","source":"openstreetmap.org","name:kn":"\u0cb5\u0cbf\u0caf\u0cc6\u0c9f\u0ccd\u0ca8\u0cbe\u0cae\u0ccd","name:dv":"\u0788\u07a8\u0787\u07ac\u0793\u07aa\u0782\u07a7\u0789\u07aa","name:lv":"Vjetnama","name:lt":"Vietnamas","name:uz":"Vyetnam","name:kk":"\u0412\u044c\u0435\u0442\u043d\u0430\u043c","name:ur":"\u0648\u06cc\u062a\u0646\u0627\u0645","name:lb":"Vietnam","name:la":"Vietnamia","name:tt":"\u0412\u044c\u0435\u0442\u043d\u0430\u043c","name:uk":"\u0412'\u0454\u0442\u043d\u0430\u043c","name:ug":"\u06cb\u064a\u06d0\u062a\u0646\u0627\u0645","name:li":"Vietnam","name:ln":"Vietnami","name:lo":"\u0e9b\u0eb0\u0ec0\u0e97\u0e94\u0eab\u0ea7\u0ebd\u0e94\u0e99\u0eb2\u0ea1","name:el":"\u0392\u03b9\u03b5\u03c4\u03bd\u03ac\u03bc","name:eo":"Vjetnamujo","name:en":"Vietnam","name":"Vi\u1ec7t Nam","name:tk":"W\u00fdetnam","name:ee":"Vietnam","name:ku":"Viyetnam","name:eu":"Vietnam","name:et":"Vietnam","name:es":"Vietnam","name:ay":"Vietnam","name:rm":"Vietnam","name:rn":"Vietnam","name:az":"Vyetnam","name:ie":"Viet-Nam","name:id":"Vietnam","name:ik":"Vietnam","name:ar":"\u0641\u064a\u062a\u0646\u0627\u0645","name:io":"Vietnam","name:av":"\u0412\u044c\u0435\u0442\u043d\u0430\u043c","name:ak":"Vietnam","name:am":"\u126c\u1275 \u1293\u121d","name:it":"Vietnam","name:an":"Vietnam","name:ru":"\u0412\u044c\u0435\u0442\u043d\u0430\u043c","name:rw":"Viyetinamu","name:af":"Vi\u00ebtnam","name:zu":"IViyetnami","kind_detail":"2","name:za":"Yiednamz","name:zh-yue":"\u8d8a\u5357","name:zh":"\u8d8a\u5357","name:so":"Fiyetnam","name:sn":"Vietnam","name:sm":"Vietnam","name:sl":"Vietnam","name:sk":"Vietnam","name:ja":"\u30d9\u30c8\u30ca\u30e0","name:si":"\u0dc0\u0dd2\u0dba\u0da7\u0dca\u0db1\u0dcf\u0db8\u0dba","name:sh":"Vijetnam","name:se":"Vietnam","name:sc":"Vietnam","name:br":"Vi\u00eat Nam","name:bs":"Vijetnam","name:bm":"Vietnam","name:bn":"\u09ad\u09bf\u09af\u09bc\u09c7\u09a4\u09a8\u09be\u09ae","name:bo":"\u0f5d\u0f72\u0f0b\u0f4f\u0f72\u0f0b\u0f53\u0f58\u0f0d","name:bi":"Vietnam","name:sw":"Vietnam","name:be":"\u0412'\u0435\u0442\u043d\u0430\u043c","name:su":"Vi\u00e9tnam","name:bg":"\u0412\u0438\u0435\u0442\u043d\u0430\u043c","name:ss":"IViyethina","name:ba":"\u0412\u044c\u0435\u0442\u043d\u0430\u043c","name:sq":"Vietnami","name:jv":"Vi\u00e8tnam","name:sa":"\u091a\u092e\u094d\u092a\u093e\u0926\u0947\u0936","name:ia":"Vietnam","name:pt":"Vietname","name:om":"Veetinaam","name:oc":"Vietnam","min_zoom":8.0,"name:ro":"Vietnam","name:zh-min-nan":"Oa\u030dt-l\u00e2m","name:os":"\u0412\u044c\u0435\u0442\u043d\u0430\u043c","name:or":"\u0b2d\u0b3f\u0b0f\u0b24\u0b28\u0b3e\u0b2e","name:pl":"Wietnam","name:st":"Vietnam","sort_rank":262,"name:sr":"\u0412\u0438\u0458\u0435\u0442\u043d\u0430\u043c","osm_relation":true,"name:pa":"\u0a35\u0a40\u0a05\u0a24\u0a28\u0a3e\u0a2e","name:tr":"Vietnam","name:hi":"\u0935\u093f\u092f\u0924\u0928\u093e\u092e","name:sv":"Vietnam","name:he":"\u05d5\u05d9\u05d9\u05d8\u05e0\u05d0\u05dd","name:hy":"\u054e\u056b\u0565\u057f\u0576\u0561\u0574","name:ht":"Vyetnam","name:hu":"Vietn\u00e1m","name:hr":"Vijetnam","kind":"country","name:is":"V\u00edetnam","name:yi":"\u05d5\u05d5\u05d9\u05e2\u05d8\u05e0\u05d0\u05dd","name:yo":"Fi\u1eb9tn\u00e1m","name:mt":"Vjetnam","alt_name:eo":"Vjetnamo;Vjetnamio","name:ms":"Vietnam","name:mr":"\u0935\u094d\u0939\u093f\u092f\u0947\u0924\u0928\u093e\u092e","name:my":"\u1017\u102e\u101a\u1000\u103a\u1014\u1019\u103a\u1014\u102d\u102f\u1004\u103a\u1004\u1036","name:mg":"Vietnam","name:ve":"Vi\u00ebtnam","name:ml":"\u0d35\u0d3f\u0d2f\u0d31\u0d4d\u0d31\u0d4d\u0d28\u0d3e\u0d02","name:mn":"\u0412\u044c\u0435\u0442\u043d\u0430\u043c","name:mi":"Whitin\u0101mu","id":-49915,"name:mk":"\u0412\u0438\u0435\u0442\u043d\u0430\u043c","name:vo":"Vietnam\u00e4n","name:fa":"\u0648\u06cc\u062a\u0646\u0627\u0645","name:ff":"Vietnam","name:fi":"Vietnam","name:ky":"\u0412\u044c\u0435\u0442\u043d\u0430\u043c","name:fo":"Vjetnam","name:fr":"Vi\u00eat Nam","name:fy":"Fjetnam","name:nl":"Vietnam","name:nn":"Vietnam","name:no":"Vietnam","name:na":"Bitinam","name:wa":"Vietnam","name:wo":"Wiyetnaam","name:nv":"Bi\u02bcednam","name:ga":"V\u00edtneam","name:gd":"Bhiet-Nam","name:gn":"Vietnam","name:gl":"Vietnam","maritime_boundary":true,"name:gv":"Yn Vietnam","name:gu":"\u0ab5\u0abf\u0aaf\u0ac7\u0aa4\u0aa8\u0abe\u0aae"},"arcs":[0]},{"type":"LineString","properties":{"name:right:no":"Bac Lieu","name:right:ja":"\u30d0\u30af\u30ea\u30a8\u30a6","name:right:fr":"Province de B\u1ea1c Li\u00eau","name:right:uk":"\u0411\u0430\u043a\u043b\u044c\u0454\u0443","name:left:ja":"\u30ad\u30a8\u30f3\u30b6\u30f3","name:right:sw":"Mkoa wa B\u1ea1c Li\u00eau","id:right":-1873533,"name:right:ur":"\u0628\u0627\u06a9 \u0644\u06cc\u0626\u0648 \u0635\u0648\u0628\u06c1","min_zoom":8.0,"name:right:fa":"\u0627\u0633\u062a\u0627\u0646 \u0628\u0627\u06a9 \u0644\u06cc\u0626\u0648","id":-1874471,"name:right":"B\u1ea1c Li\u00eau","name:right:id":"Provinsi Bac Lieu","name:left:en":"Kien Giang Province","sort_rank":256,"kind_detail":"4","source":"openstreetmap.org","name:right:ar":"\u0645\u062d\u0627\u0641\u0638\u0629 \u0628\u0627\u0643 \u0644\u064a\u0648","id:left":-1874471,"name:left":"T\u1ec9nh Ki\u00ean Giang","name:right:sr":"\u0411\u0430\u043a \u041b\u0438\u0458\u0435\u0443","name:right:pt":"Bac Lieu","name:right:it":"Provincia di Bac Lieu","name:right:km":"\u1781\u17c1\u178f\u17d2\u178f\u1796\u179b\u179b\u17b6\u179c","name:right:ko":"\ubc15\ub9ac\uc5d0\uc6b0 \uc131","name:right:ru":"\u0411\u0430\u043a\u043b\u044c\u0435\u0443","name:right:sv":"Bac Lieu","name:right:tg":"\u0412\u0438\u043b\u043e\u044f\u0442\u0438 \u0411\u0430\u043a \u041b\u0438\u044e","name:right:pl":"Prowincja B\u1ea1c Li\u00eau","name:right:en":"Bac Lieu province","osm_relation":true,"kind":"region","name":"T\u1ec9nh Ki\u00ean Giang - B\u1ea1c Li\u00eau","name:right:bg":"\u0411\u0430\u043a \u041b\u0438\u0435\u0443","name:right:th":"\u0e08\u0e31\u0e07\u0e2b\u0e27\u0e31\u0e14\u0e1a\u0e31\u0e01\u0e40\u0e25\u0e35\u0e22\u0e27","name:right:zh":"\u8584\u907c\u7701"},"arcs":[1]},{"type":"LineString","properties":{"name:right:no":"Ca Mau","name:right:nl":"C\u00e0 Mau","name:right:ja":"\u30ab\u30de\u30a6","name:right:fr":"Province de C\u00e0 Mau","name:right:uk":"\u041a\u0430\u043c\u0430\u0443","name:left:ja":"\u30ad\u30a8\u30f3\u30b6\u30f3","name:right:sw":"Mkoa wa C\u00e0 Mau","id:right":-1873490,"name:right:ur":"\u06a9\u0622 \u0645\u0627\u0648 \u0635\u0648\u0628\u06c1","min_zoom":8.0,"name:right:fa":"\u0627\u0633\u062a\u0627\u0646 \u06a9\u0627 \u0645\u0627\u0626\u0648","id":-1874471,"name:right":"T\u1ec9nh C\u00e0 Mau","name:right:id":"Provinsi Ca Mau","name:left:en":"Kien Giang Province","sort_rank":256,"kind_detail":"4","source":"openstreetmap.org","name:right:ar":"\u0645\u062d\u0627\u0641\u0638\u0629 \u0643\u0627 \u0645\u0627\u0648","id:left":-1874471,"name:right:fi":"C\u00e0 Mau","name:left":"T\u1ec9nh Ki\u00ean Giang","name:right:es":"C\u00e0 Mau","name:right:sr":"\u041a\u0430 \u041c\u0430\u0443","name:right:it":"Provincia di C\u00e0 Mau","name:right:km":"\u1781\u17c1\u178f\u17d2\u178f\u1791\u17b9\u1780\u1781\u17d2\u1798\u17c5","name:right:ko":"\uae4c\ub9c8\uc6b0 \uc131","name:right:vi":"C\u00e0 Mau","name:right:sv":"Ca Mau","name:right:ms":"Wilayah Ca Mau","name:right:tg":"\u0412\u0438\u043b\u043e\u044f\u0442\u0438 \u041a\u0430 \u041c\u0430\u0443","name:right:pl":"Prowincja C\u00e0 Mau","name:right:en":"Ca Mau province","osm_relation":true,"kind":"region","name":"T\u1ec9nh Ki\u00ean Giang - T\u1ec9nh C\u00e0 Mau","name:right:de":"C\u00e0 Mau","name:right:ru":"\u041a\u0430\u043c\u0430\u0443","name:right:bg":"\u041a\u0430 \u041c\u0430\u0443","name:right:th":"\u0e08\u0e31\u0e07\u0e2b\u0e27\u0e31\u0e14\u0e01\u0e48\u0e32\u0e40\u0e21\u0e32","name:right:zh":"\u91d1\u750c\u7701"},"arcs":[2]},{"type":"LineString","properties":{"name:right:no":"Ca Mau","name:right:nl":"C\u00e0 Mau","name:right:ja":"\u30ab\u30de\u30a6","name:right:fr":"Province de C\u00e0 Mau","name:right:uk":"\u041a\u0430\u043c\u0430\u0443","name:left:ja":"\u30ad\u30a8\u30f3\u30b6\u30f3","name:right:sw":"Mkoa wa C\u00e0 Mau","id:right":-1873490,"name:right:ur":"\u06a9\u0622 \u0645\u0627\u0648 \u0635\u0648\u0628\u06c1","min_zoom":8.0,"name:right:fa":"\u0627\u0633\u062a\u0627\u0646 \u06a9\u0627 \u0645\u0627\u0626\u0648","id":-1874471,"name:right":"T\u1ec9nh C\u00e0 Mau","name:right:tg":"\u0412\u0438\u043b\u043e\u044f\u0442\u0438 \u041a\u0430 \u041c\u0430\u0443","name:left:en":"Kien Giang Province","sort_rank":256,"kind_detail":"4","source":"openstreetmap.org","name:right:ar":"\u0645\u062d\u0627\u0641\u0638\u0629 \u0643\u0627 \u0645\u0627\u0648","id:left":-1874471,"name:right:fi":"C\u00e0 Mau","name:left":"T\u1ec9nh Ki\u00ean Giang","name:right:es":"C\u00e0 Mau","name:right:sr":"\u041a\u0430 \u041c\u0430\u0443","name:right:it":"Provincia di C\u00e0 Mau","name:right:km":"\u1781\u17c1\u178f\u17d2\u178f\u1791\u17b9\u1780\u1781\u17d2\u1798\u17c5","name:right:ko":"\uae4c\ub9c8\uc6b0 \uc131","name:right:vi":"C\u00e0 Mau","name:right:sv":"Ca Mau","name:right:ms":"Wilayah Ca Mau","name:right:id":"Provinsi Ca Mau","name:right:pl":"Prowincja C\u00e0 Mau","name:right:en":"Ca Mau province","osm_relation":true,"kind":"region","name":"T\u1ec9nh Ki\u00ean Giang - T\u1ec9nh C\u00e0 Mau","name:right:de":"C\u00e0 Mau","name:right:ru":"\u041a\u0430\u043c\u0430\u0443","name:right:bg":"\u041a\u0430 \u041c\u0430\u0443","maritime_boundary":true,"name:right:th":"\u0e08\u0e31\u0e07\u0e2b\u0e27\u0e31\u0e14\u0e01\u0e48\u0e32\u0e40\u0e21\u0e32","name:right:zh":"\u91d1\u750c\u7701"},"arcs":[3]},{"type":"LineString","properties":{"kind":"region","name:en":"Kien Giang Province","name":"T\u1ec9nh Ki\u00ean Giang","sort_rank":256,"kind_detail":"4","source":"openstreetmap.org","min_zoom":8.0,"id":-1874471,"osm_relation":true,"name:ja":"\u30ad\u30a8\u30f3\u30b6\u30f3"},"arcs":[4]},{"type":"LineString","properties":{"name:right:no":"Ca Mau","name:right:nl":"C\u00e0 Mau","name:right:ja":"\u30ab\u30de\u30a6","name:right:fr":"Province de C\u00e0 Mau","name:right:uk":"\u041a\u0430\u043c\u0430\u0443","name:left:ur":"\u0628\u0627\u06a9 \u0644\u06cc\u0626\u0648 \u0635\u0648\u0628\u06c1","name:left:sw":"Mkoa wa B\u1ea1c Li\u00eau","name:left:ja":"\u30d0\u30af\u30ea\u30a8\u30a6","name:right:sw":"Mkoa wa C\u00e0 Mau","id:right":-1873490,"name:left:uk":"\u0411\u0430\u043a\u043b\u044c\u0454\u0443","name:right:ur":"\u06a9\u0622 \u0645\u0627\u0648 \u0635\u0648\u0628\u06c1","min_zoom":8.0,"name:left:bg":"\u0411\u0430\u043a \u041b\u0438\u0435\u0443","name:right:fa":"\u0627\u0633\u062a\u0627\u0646 \u06a9\u0627 \u0645\u0627\u0626\u0648","id":-1873533,"name:right":"T\u1ec9nh C\u00e0 Mau","name:right:tg":"\u0412\u0438\u043b\u043e\u044f\u0442\u0438 \u041a\u0430 \u041c\u0430\u0443","name:left:en":"Bac Lieu province","sort_rank":256,"kind_detail":"4","source":"openstreetmap.org","name:right:ar":"\u0645\u062d\u0627\u0641\u0638\u0629 \u0643\u0627 \u0645\u0627\u0648","id:left":-1873533,"name:right:sv":"Ca Mau","name:right:fi":"C\u00e0 Mau","name:left":"B\u1ea1c Li\u00eau","name:right:es":"C\u00e0 Mau","name:right:sr":"\u041a\u0430 \u041c\u0430\u0443","name:left:ar":"\u0645\u062d\u0627\u0641\u0638\u0629 \u0628\u0627\u0643 \u0644\u064a\u0648","name:left:km":"\u1781\u17c1\u178f\u17d2\u178f\u1796\u179b\u179b\u17b6\u179c","name:left:ko":"\ubc15\ub9ac\uc5d0\uc6b0 \uc131","name:left:id":"Provinsi Bac Lieu","name:right:km":"\u1781\u17c1\u178f\u17d2\u178f\u1791\u17b9\u1780\u1781\u17d2\u1798\u17c5","name:right:ko":"\uae4c\ub9c8\uc6b0 \uc131","name:right:vi":"C\u00e0 Mau","name:left:th":"\u0e08\u0e31\u0e07\u0e2b\u0e27\u0e31\u0e14\u0e1a\u0e31\u0e01\u0e40\u0e25\u0e35\u0e22\u0e27","name:right:it":"Provincia di C\u00e0 Mau","name:left:pl":"Prowincja B\u1ea1c Li\u00eau","name:left:ru":"\u0411\u0430\u043a\u043b\u044c\u0435\u0443","name:left:sr":"\u0411\u0430\u043a \u041b\u0438\u0458\u0435\u0443","name:right:id":"Provinsi Ca Mau","name:right:pl":"Prowincja C\u00e0 Mau","name:right:en":"Ca Mau province","osm_relation":true,"name:left:tg":"\u0412\u0438\u043b\u043e\u044f\u0442\u0438 \u0411\u0430\u043a \u041b\u0438\u044e","name:left:sv":"Bac Lieu","name:left:pt":"Bac Lieu","kind":"region","name":"B\u1ea1c Li\u00eau - T\u1ec9nh C\u00e0 Mau","name:left:no":"Bac Lieu","name:right:de":"C\u00e0 Mau","name:right:ru":"\u041a\u0430\u043c\u0430\u0443","name:left:fa":"\u0627\u0633\u062a\u0627\u0646 \u0628\u0627\u06a9 \u0644\u06cc\u0626\u0648","name:right:bg":"\u041a\u0430 \u041c\u0430\u0443","name:left:it":"Provincia di Bac Lieu","name:left:zh":"\u8584\u907c\u7701","name:left:fr":"Province de B\u1ea1c Li\u00eau","name:right:th":"\u0e08\u0e31\u0e07\u0e2b\u0e27\u0e31\u0e14\u0e01\u0e48\u0e32\u0e40\u0e21\u0e32","name:right:zh":"\u91d1\u750c\u7701","name:right:ms":"Wilayah Ca Mau"},"arcs":[5]},{"type":"LineString","properties":{"name:right:no":"Ca Mau","name:right:nl":"C\u00e0 Mau","name:right:ja":"\u30ab\u30de\u30a6","name:right:fr":"Province de C\u00e0 Mau","name:right:uk":"\u041a\u0430\u043c\u0430\u0443","name:left:ur":"\u0628\u0627\u06a9 \u0644\u06cc\u0626\u0648 \u0635\u0648\u0628\u06c1","name:left:sw":"Mkoa wa B\u1ea1c Li\u00eau","name:left:ja":"\u30d0\u30af\u30ea\u30a8\u30a6","name:right:sw":"Mkoa wa C\u00e0 Mau","id:right":-1873490,"name:left:uk":"\u0411\u0430\u043a\u043b\u044c\u0454\u0443","name:right:ur":"\u06a9\u0622 \u0645\u0627\u0648 \u0635\u0648\u0628\u06c1","min_zoom":8.0,"name:left:bg":"\u0411\u0430\u043a \u041b\u0438\u0435\u0443","name:right:fa":"\u0627\u0633\u062a\u0627\u0646 \u06a9\u0627 \u0645\u0627\u0626\u0648","id":-1873533,"name:right":"T\u1ec9nh C\u00e0 Mau","name:left:id":"Provinsi Bac Lieu","name:right:id":"Provinsi Ca Mau","name:left:en":"Bac Lieu province","sort_rank":256,"kind_detail":"4","name:left:zh":"\u8584\u907c\u7701","name:right:tg":"\u0412\u0438\u043b\u043e\u044f\u0442\u0438 \u041a\u0430 \u041c\u0430\u0443","source":"openstreetmap.org","name:right:ar":"\u0645\u062d\u0627\u0641\u0638\u0629 \u0643\u0627 \u0645\u0627\u0648","id:left":-1873533,"name:right:fi":"C\u00e0 Mau","name:left":"B\u1ea1c Li\u00eau","name:right:es":"C\u00e0 Mau","name:right:sr":"\u041a\u0430 \u041c\u0430\u0443","name:left:ar":"\u0645\u062d\u0627\u0641\u0638\u0629 \u0628\u0627\u0643 \u0644\u064a\u0648","name:left:km":"\u1781\u17c1\u178f\u17d2\u178f\u1796\u179b\u179b\u17b6\u179c","name:left:ko":"\ubc15\ub9ac\uc5d0\uc6b0 \uc131","name:right:it":"Provincia di C\u00e0 Mau","name:right:km":"\u1781\u17c1\u178f\u17d2\u178f\u1791\u17b9\u1780\u1781\u17d2\u1798\u17c5","name:right:ko":"\uae4c\ub9c8\uc6b0 \uc131","name:right:vi":"C\u00e0 Mau","name:left:th":"\u0e08\u0e31\u0e07\u0e2b\u0e27\u0e31\u0e14\u0e1a\u0e31\u0e01\u0e40\u0e25\u0e35\u0e22\u0e27","name:left:pl":"Prowincja B\u1ea1c Li\u00eau","name:left:ru":"\u0411\u0430\u043a\u043b\u044c\u0435\u0443","name:left:sr":"\u0411\u0430\u043a \u041b\u0438\u0458\u0435\u0443","name:right:sv":"Ca Mau","name:right:pl":"Prowincja C\u00e0 Mau","name:right:en":"Ca Mau province","osm_relation":true,"name:left:tg":"\u0412\u0438\u043b\u043e\u044f\u0442\u0438 \u0411\u0430\u043a \u041b\u0438\u044e","name:left:sv":"Bac Lieu","name:left:pt":"Bac Lieu","kind":"region","name":"B\u1ea1c Li\u00eau - T\u1ec9nh C\u00e0 Mau","name:left:no":"Bac Lieu","name:right:de":"C\u00e0 Mau","name:right:ru":"\u041a\u0430\u043c\u0430\u0443","name:left:fa":"\u0627\u0633\u062a\u0627\u0646 \u0628\u0627\u06a9 \u0644\u06cc\u0626\u0648","name:right:bg":"\u041a\u0430 \u041c\u0430\u0443","name:left:it":"Provincia di Bac Lieu","maritime_boundary":true,"name:left:fr":"Province de B\u1ea1c Li\u00eau","name:right:th":"\u0e08\u0e31\u0e07\u0e2b\u0e27\u0e31\u0e14\u0e01\u0e48\u0e32\u0e40\u0e21\u0e32","name:right:zh":"\u91d1\u750c\u7701","name:right:ms":"Wilayah Ca Mau"},"arcs":[6]},{"type":"LineString","properties":{"name:pt":"Bac Lieu","name:id":"Provinsi Bac Lieu","name:no":"Bac Lieu","name:ko":"\ubc15\ub9ac\uc5d0\uc6b0 \uc131","name:km":"\u1781\u17c1\u178f\u17d2\u178f\u1796\u179b\u179b\u17b6\u179c","name:ar":"\u0645\u062d\u0627\u0641\u0638\u0629 \u0628\u0627\u0643 \u0644\u064a\u0648","name:ur":"\u0628\u0627\u06a9 \u0644\u06cc\u0626\u0648 \u0635\u0648\u0628\u06c1","name:th":"\u0e08\u0e31\u0e07\u0e2b\u0e27\u0e31\u0e14\u0e1a\u0e31\u0e01\u0e40\u0e25\u0e35\u0e22\u0e27","name:it":"Provincia di Bac Lieu","name:uk":"\u0411\u0430\u043a\u043b\u044c\u0454\u0443","name:sv":"Bac Lieu","name:sw":"Mkoa wa B\u1ea1c Li\u00eau","name:ru":"\u0411\u0430\u043a\u043b\u044c\u0435\u0443","name:pl":"Prowincja B\u1ea1c Li\u00eau","name:bg":"\u0411\u0430\u043a \u041b\u0438\u0435\u0443","name:sr":"\u0411\u0430\u043a \u041b\u0438\u0458\u0435\u0443","osm_relation":true,"name:ja":"\u30d0\u30af\u30ea\u30a8\u30a6","name:fa":"\u0627\u0633\u062a\u0627\u0646 \u0628\u0627\u06a9 \u0644\u06cc\u0626\u0648","kind":"region","name:en":"Bac Lieu province","name":"B\u1ea1c Li\u00eau","sort_rank":256,"kind_detail":"4","min_zoom":8.0,"id":-1873533,"source":"openstreetmap.org","name:fr":"Province de B\u1ea1c Li\u00eau","name:zh":"\u8584\u907c\u7701","name:tg":"\u0412\u0438\u043b\u043e\u044f\u0442\u0438 \u0411\u0430\u043a \u041b\u0438\u044e"},"arcs":[7]},{"type":"LineString","properties":{"name:id":"Provinsi Ca Mau","name:ms":"Wilayah Ca Mau","name:ko":"\uae4c\ub9c8\uc6b0 \uc131","name:km":"\u1781\u17c1\u178f\u17d2\u178f\u1791\u17b9\u1780\u1781\u17d2\u1798\u17c5","name:ar":"\u0645\u062d\u0627\u0641\u0638\u0629 \u0643\u0627 \u0645\u0627\u0648","name:th":"\u0e08\u0e31\u0e07\u0e2b\u0e27\u0e31\u0e14\u0e01\u0e48\u0e32\u0e40\u0e21\u0e32","name:it":"Provincia di C\u00e0 Mau","name:vi":"C\u00e0 Mau","name:ru":"\u041a\u0430\u043c\u0430\u0443","name:pl":"Prowincja C\u00e0 Mau","id":-1873490,"name:fa":"\u0627\u0633\u062a\u0627\u0646 \u06a9\u0627 \u0645\u0627\u0626\u0648","sort_rank":256,"kind_detail":"4","name:de":"C\u00e0 Mau","source":"openstreetmap.org","name:fr":"Province de C\u00e0 Mau","name:tg":"\u0412\u0438\u043b\u043e\u044f\u0442\u0438 \u041a\u0430 \u041c\u0430\u0443","name:nl":"C\u00e0 Mau","name:ja":"\u30ab\u30de\u30a6","name:no":"Ca Mau","name:ur":"\u06a9\u0622 \u0645\u0627\u0648 \u0635\u0648\u0628\u06c1","name:uk":"\u041a\u0430\u043c\u0430\u0443","name:sw":"Mkoa wa C\u00e0 Mau","name:sv":"Ca Mau","name:bg":"\u041a\u0430 \u041c\u0430\u0443","name:sr":"\u041a\u0430 \u041c\u0430\u0443","osm_relation":true,"kind":"region","name:en":"Ca Mau province","name":"T\u1ec9nh C\u00e0 Mau","name:zh":"\u91d1\u750c\u7701","min_zoom":8.0,"maritime_boundary":true,"name:fi":"C\u00e0 Mau","name:es":"C\u00e0 Mau"},"arcs":[8]}]},"roads":{"type":"GeometryCollection","geometries":[{"type":"MultiLineString","properties":{"sort_rank":380,"kind_detail":"primary","min_zoom":8.0,"kind":"major_road","source":"openstreetmap.org"},"arcs":[[13],[14],[15],[16]]},{"type":"LineString","properties":{"source":"openstreetmap.org","kind":"major_road","sort_rank":380,"kind_detail":"primary","ref":"61","min_zoom":8.0},"arcs":[17]},{"type":"MultiLineString","properties":{"kind":"major_road","network":"AsianHighway","sort_rank":380,"kind_detail":"primary","source":"openstreetmap.org","min_zoom":8.0,"shield_text":"123","ref":"QL63"},"arcs":[[18],[19],[20],[21],[22],[23]]},{"type":"LineString","properties":{"kind":"major_road","network":"AsianHighway","sort_rank":381,"kind_detail":"trunk","source":"openstreetmap.org","min_zoom":8.0,"shield_text":"123","ref":"QL63","id":111990731},"arcs":[24]},{"type":"MultiLineString","properties":{"kind":"major_road","network":"AsianHighway","sort_rank":381,"kind_detail":"trunk","source":"openstreetmap.org","min_zoom":8.0,"shield_text":"123","ref":"QL.63"},"arcs":[[25],[26],[27],[28],[29],[30],[31],[32],[33],[34],[35],[36]]},{"type":"MultiLineString","properties":{"source":"openstreetmap.org","kind":"major_road","sort_rank":381,"kind_detail":"trunk","ref":"1A","min_zoom":8.0},"arcs":[[37],[38],[39],[40],[41],[42],[43],[44],[45],[46]]},{"type":"MultiLineString","properties":{"source":"openstreetmap.org","kind":"major_road","network":"AsianHighway","sort_rank":380,"kind_detail":"primary","min_zoom":8.0,"shield_text":"123"},"arcs":[[47],[48],[49],[50],[51],[52],[53],[54],[55],[56],[57],[58],[59],[60]]},{"type":"LineString","properties":{"source":"openstreetmap.org","kind":"major_road","sort_rank":380,"kind_detail":"primary","ref":"QL63","min_zoom":8.0,"id":142564992},"arcs":[61]},{"type":"LineString","properties":{"kind":"major_road","int_name":"1A Highway","sort_rank":381,"kind_detail":"trunk","source":"openstreetmap.org","min_zoom":8.0,"ref":"1A","id":126762529},"arcs":[62]},{"type":"LineString","properties":{"kind":"major_road","int_name":"Ganh Hao Bridge","sort_rank":381,"kind_detail":"trunk","source":"openstreetmap.org","min_zoom":8.0,"ref":"1A","id":126761753},"arcs":[63]}]},"earth":{"type":"GeometryCollection","geometries":[{"type":"MultiPolygon","properties":{"sort_rank":10,"source":"naturalearthdata.com","min_zoom":0.0,"kind":"earth","area":55214707341},"arcs":[[[64]]]}]},"landuse":{"type":"GeometryCollection","geometries":[{"type":"MultiPolygon","properties":{"source":"openstreetmap.org","kind":"park","tier":2,"area":188440354,"sort_rank":24,"min_zoom":8.0,"osm_relation":true},"arcs":[[[65]]]},{"type":"Polygon","properties":{"kind":"nature_reserve","area":60445600,"sort_rank":23,"source":"openstreetmap.org","min_zoom":8.0,"tier":2,"id":-7139210,"osm_relation":true},"arcs":[[66]]}]}},"type":"Topology","transform":{"translate":[104.0625,8.4071681636],"scale":[0.0003433228,0.0003389916]},"arcs":[[[0,687],[1109,-687]],[[3495,2927],[46,99],[49,1],[-11,99],[23,112],[48,-7],[13,66],[28,8],[-17,92],[-47,-8],[14,48],[-76,82],[17,107],[33,-24],[16,-62],[58,-23],[36,39],[13,-59],[71,-14],[9,26]],[[2165,3291],[112,22],[108,-106],[103,200],[85,-87],[50,69],[90,-47],[27,55],[755,-470]],[[0,2448],[1658,702],[507,141]],[[3818,3509],[9,54],[40,32],[26,-10],[22,86],[-38,26],[-68,-3],[8,39],[-48,-11],[-50,22],[-31,73],[244,142],[7,29],[-28,32],[93,67],[-3,9]],[[3495,2927],[100,-37],[-130,-133],[-8,-39],[130,-144],[-178,-163],[21,-71],[37,-6],[25,-59],[38,12],[17,-50],[-40,-18],[-41,-71],[-21,-105],[84,-44],[70,14],[106,-68],[65,14],[1,-24],[60,-17],[44,29],[75,-87],[-4,-70],[94,-127]],[[4040,1663],[56,-75]],[[4096,3503],[-18,-23],[-36,0],[-11,30],[-48,11],[-36,-24],[-6,27],[-101,-48],[-22,33]],[[0,687],[1109,-687]],[[2361,4096],[-2,-8],[-46,-162],[-61,-536],[-8,-124],[-20,-334],[-2,-180],[-18,-434],[-24,-178],[-11,-257],[4,-207],[9,-113],[-45,-135],[-31,-104],[-32,-112],[50,-100],[73,-38],[120,30],[185,82],[-15,-55],[8,-59],[29,-50],[0,-19],[-49,-35],[-22,-5],[-70,0],[-48,-5],[-33,-8],[-13,-17],[14,-32],[67,-40],[91,2],[93,25],[69,33],[-19,-35],[-41,-33],[-48,-23],[-42,-10],[-192,38],[-37,3],[-39,-24],[12,-14],[31,-15],[14,-30],[-12,-31],[-20,-11],[-26,-8],[-31,-19],[-143,-94],[-56,-11],[-35,13],[-23,-8],[8,-32],[16,-10],[69,-25],[182,-29],[21,-12],[15,-13],[17,-10],[68,-11],[520,150],[194,53],[73,76],[81,135],[87,103],[95,41],[123,17],[100,81],[64,72],[54,81],[217,414],[2,14],[-5,33],[3,13],[14,13],[38,9],[7,8],[13,52],[31,39],[73,57],[0,-1928],[-4096,0],[0,4096],[1613,0],[1,0],[28,-2],[10,2],[5,0],[29,-14],[37,14],[638,0]],[[2289,90],[-1,34],[-14,0],[-36,-42],[-23,-28],[25,-26],[34,19],[-3,27],[18,16]],[[874,3779],[4,42],[-20,-4],[-4,-33],[-11,-62],[38,-37],[0,24],[1,24],[-8,46]],[[2361,4096],[-2,-8],[-46,-162],[-61,-536],[-8,-124],[-20,-334],[-2,-180],[-18,-434],[-24,-178],[-11,-257],[4,-207],[9,-113],[-45,-135],[-31,-104],[-32,-112],[50,-100],[73,-38],[120,30],[185,82],[-15,-55],[8,-59],[29,-50],[0,-19],[-49,-35],[-22,-5],[-70,0],[-48,-5],[-33,-8],[-13,-17],[14,-32],[67,-40],[91,2],[93,25],[69,33],[-19,-35],[-41,-33],[-48,-23],[-42,-10],[-192,38],[-37,3],[-39,-24],[12,-14],[31,-15],[14,-30],[-12,-31],[-20,-11],[-26,-8],[-31,-19],[-143,-94],[-56,-11],[-35,13],[-23,-8],[8,-32],[16,-10],[69,-25],[182,-29],[21,-12],[15,-13],[17,-10],[68,-11],[520,150],[194,53],[73,76],[81,135],[87,103],[95,41],[123,17],[100,81],[64,72],[54,81],[217,414],[2,14],[-5,33],[3,13],[14,13],[38,9],[7,8],[13,52],[31,39],[73,57]],[[2232,2760],[68,37]],[[3162,2259],[2,14]],[[3163,2259],[18,0]],[[4096,4000],[-107,-69],[-59,20]],[[3491,4096],[63,-59],[95,-8],[-7,-76],[240,-12],[210,121],[4,-1]],[[3152,2282],[55,72]],[[3207,2355],[63,98]],[[3270,2454],[48,84]],[[3318,2538],[-1,143]],[[3317,2683],[27,66]],[[3318,2538],[0,2]],[[3098,3731]],[[2861,4096],[-121,-118],[358,-247]],[[3098,3731],[382,-481],[-214,-208]],[[3226,3003],[-56,-59],[44,-25]],[[3240,2902],[-25,16]],[[3235,3012],[-8,-8]],[[3265,3042],[-30,-29]],[[3259,2891],[-18,11]],[[3277,2880],[-18,11]],[[3295,2868],[-18,11]],[[3340,2840],[-45,28]],[[3392,2802],[-52,38]],[[3345,2750],[47,51]],[[2714,1040],[76,223],[-25,305],[12,273],[328,313]],[[3159,2253],[1,1]],[[3159,2253],[-15,-30]],[[3165,2261],[5,7]],[[3170,2268],[5,-3]],[[3175,2266],[-4,3]],[[3175,2265],[2,-1]],[[3177,2264],[-1,1]],[[3177,2264],[281,-37],[490,193],[148,39]],[[3175,2266],[0,-1],[1,0],[-1,1]],[[3207,2354],[0,1]],[[3215,2918],[-1,1]],[[3227,3004],[-1,-1]],[[3235,3013],[0,-1]],[[3241,2902],[-1,0]],[[3259,2891]],[[3266,3042],[-1,0]],[[3270,2453],[0,1]],[[3277,2879],[0,1]],[[3295,2868]],[[3317,2681],[0,2]],[[3340,2840]],[[3344,2749],[1,1]],[[3392,2801],[0,1]],[[3148,2277],[4,5]],[[3105,2154],[39,69]],[[3160,2254],[5,7]],[[2361,4096],[1735,0],[0,-2168],[-73,-57],[-31,-39],[-13,-52],[-7,-8],[-38,-9],[-14,-13],[-3,-13],[5,-33],[-2,-14],[-217,-414],[-54,-81],[-64,-72],[-100,-81],[-123,-17],[-95,-41],[-87,-103],[-81,-135],[-73,-76],[-194,-53],[-520,-150],[-68,11],[-17,10],[-15,13],[-21,12],[-182,29],[-69,25],[-16,10],[-8,32],[23,8],[35,-13],[56,11],[143,94],[31,19],[26,8],[20,11],[12,31],[-14,30],[-31,15],[-12,14],[39,24],[37,-3],[192,-38],[42,10],[48,23],[41,33],[19,35],[-69,-33],[-93,-25],[-91,-2],[-67,40],[-14,32],[13,17],[33,8],[48,5],[70,0],[22,5],[49,35],[0,19],[-29,50],[-8,59],[15,55],[-185,-82],[-120,-30],[-73,38],[-50,100],[32,112],[31,104],[45,135],[-9,113],[-4,207],[11,257],[24,178],[18,434],[2,180],[20,334],[8,124],[61,536],[46,162],[2,8]],[[2882,3461],[68,243],[167,-111],[-63,-302],[-172,170]],[[1893,667],[38,56],[137,-35],[116,34],[-58,-206],[-201,58],[-32,93]]]}