{"objects":{"water":{"type":"GeometryCollection","geometries":[{"type":"MultiPolygon","properties":{"source":"naturalearthdata.com","kind":"ocean","area":1576712559132672,"sort_rank":200,"min_zoom":0.0,"id":1},"arcs":[[[4]],[[5]]]},{"type":"MultiLineString","properties":{"source":"naturalearthdata.com","kind":"ocean","sort_rank":205,"boundary":true,"min_zoom":0.0,"id":2675},"arcs":[[6],[7],[8]]}]},"buildings":{"type":"GeometryCollection","geometries":[]},"places":{"type":"GeometryCollection","geometries":[]},"transit":{"type":"GeometryCollection","geometries":[]},"pois":{"type":"GeometryCollection","geometries":[]},"boundaries":{"type":"GeometryCollection","geometries":[{"type":"LineString","properties":{"name:kg":"Arhentina","name:ty":"\u2019Atetina","name:ka":"\u10d0\u10e0\u10d2\u10d4\u10dc\u10e2\u10d8\u10dc\u10d0","name:tr":"Arjantin","name:ts":"Arjentina","name:km":"\u17a2\u17b6\u17a0\u17d2\u179f\u1784\u17cb\u1791\u17b8\u1793","name:kk":"\u0410\u0440\u0433\u0435\u043d\u0442\u0438\u043d\u0430","name:tt":"\u0410\u0440\u0433\u0435\u043d\u0442\u0438\u0301\u043d\u0430","name:kw":"Arghantina","name:kv":"\u0410\u0440\u0433\u0435\u043d\u0442\u0438\u043d\u0430","name:ku":"Arjent\u00een","name:ti":"\u12a0\u122d\u1300\u1295\u1272\u1293","name:ks":"\u0623\u0631\u062c\u064e\u0646\u0679\u06cc\u0646\u0627","name:to":"\u02bbAsenitina","name:tl":"Arhentina","name:ce":"\u0410\u0440\u0433\u0435\u043d\u0442\u0438\u0301\u043d\u0430","name:ta":"\u0b85\u0bb0\u0bcd\u0b95\u0bc6\u0ba8\u0bcd\u0ba4\u0bc0\u0ba9\u0bbe","name:tg":"\u0410\u0440\u0433\u0435\u043d\u0442\u0438\u0301\u043d\u0430","name:ky":"\u0410\u0440\u0433\u0435\u043d\u0442\u0438\u043d\u0430","name:te":"\u0c05\u0c30\u0c4d\u0c1c\u0c46\u0c02\u0c1f\u0c40\u0c28\u0c3e","name:cy":"Ariannin","alt_name:qu":"Qullqillaqta","name:de":"Argentinien","name:dz":"\u0f68\u0f62\u0f0b\u0f47\u0f7a\u0f53\u0f0b\u0f4a\u0f72\u0f0b\u0f53","source":"openstreetmap.org","alt_name:ta":"\u0b85\u0bb0\u0bcd\u0b9c\u0bc6\u0ba8\u0bcd\u0ba4\u0bc0\u0ba9\u0bbe","name:kn":"\u0c85\u0cb0\u0ccd\u0c9c\u0cc6\u0c82\u0c9f\u0cc0\u0ca8","name:dv":"\u0787\u07a7\u0796\u07ac\u0782\u07b0\u0793\u07a9\u0782\u07a7","name:lv":"Argent\u012bna","name:ur":"\u0627\u0631\u062c\u0646\u0679\u0627\u0626\u0646","name:lb":"Argentinien","name:lg":"Arigentina","name:uk":"\u0410\u0440\u0433\u0435\u043d\u0442\u0438\u0301\u043d\u0430","name:ug":"\u0626\u0627\u0631\u06af\u06d0\u0646\u062a\u0649\u0646\u0627","name:li":"Argentini\u00eb","name:lo":"\u0ead\u0eb2\u0e81\u0e8a\u0eb1\u0e87\u0e95\u0eb5\u0e99","name:el":"\u0391\u03c1\u03b3\u03b5\u03bd\u03c4\u03b9\u03bd\u03ae","name:eo":"Argentino","name":"Argentina","name:th":"\u0e2d\u0e32\u0e23\u0e4c\u0e40\u0e08\u0e19\u0e15\u0e34\u0e19\u0e32","name:ay":"Arxintina","name:rm":"Argentinia","name:rn":"Argentine","name:as":"\u0986\u09f0\u09cd\u099c\u09c7\u09a3\u09cd\u099f\u09bf\u09a8\u09be","name:ar":"\u0627\u0644\u0623\u0631\u062c\u0646\u062a\u064a\u0646","name:io":"Arjentinia","name:av":"\u0410\u0440\u0433\u0435\u043d\u0442\u0438\u043d\u0430","name:is":"Argent\u00edna","name:am":"\u12a0\u122d\u1300\u1295\u1272\u1293","name:an":"Archentina","name:ru":"\u0410\u0440\u0433\u0435\u043d\u0442\u0438\u0301\u043d\u0430","name:rw":"Arijantine","name:af":"Argentini\u00eb","name:zu":"i-Argentina","alt_name:rw":"Arijantina","kind_detail":"2","name:zh-yue":"\u963f\u6839\u5ef7","name:zh":"\u963f\u6839\u5ef7","name:so":"Arjantiina","name:sm":"Atenitina","name:sk":"Argent\u00edna","name:ja":"\u30a2\u30eb\u30bc\u30f3\u30c1\u30f3","name:si":"\u0d86\u0da2\u0db1\u0dca\u0da7\u0dd2\u0db1\u0dcf\u0dc0","name:sg":"Arzant\u00eena","name:se":"Argentiinn\u00e1","name:br":"Arc'hantina","name:bn":"\u0986\u09b0\u09cd\u099c\u09c7\u09a8\u09cd\u099f\u09bf\u09a8\u09be","name:bo":"\u0f68\u0f62\u0f0b\u0f47\u0f7a\u0f53\u0f0b\u0f4a\u0f72\u0f0b\u0f53\u0f0d","name:sa":"\u0905\u0930\u094d\u091c\u0923\u094d\u091f\u093f\u0928\u093e","name:be":"\u0410\u0440\u0433\u0435\u043d\u0446\u0456\u0301\u043d\u0430","name:su":"Arg\u00e9ntina","name:bg":"\u0410\u0440\u0436\u0435\u043d\u0442\u045d\u043d\u0430","name:sr":"\u0410\u0440\u0433\u0435\u043d\u0442\u0438\u043d\u0430","name:sq":"Argjentina","alt_name:kn":"\u0c85\u0cb0\u0ccd\u0c9c\u0cc6\u0c82\u0c9f\u0cc0\u0ca8 \u0c97\u0ca3\u0cb0\u0cbe\u0c9c\u0ccd\u0caf","name:jv":"Arg\u00e8ntina","name:ps":"\u0627\u0631\u062c\u0646\u067c\u0627\u06cc\u0646","name:om":"Arjentiinaa","alt_name:oc":"Riu de la Plata","min_zoom":8.0,"name:ko":"\uc544\ub974\ud5e8\ud2f0\ub098","name:pa":"\u0a05\u0a30\u0a1c\u0a28\u0a1f\u0a40\u0a28\u0a3e","name:os":"\u0410\u0440\u0433\u0435\u043d\u0442\u0438\u043d\u00e6","name:or":"\u0b06\u0b30\u0b4d\u0b1c\u0b47\u0b23\u0b4d\u0b1f\u0b3f\u0b28\u0b3e","name:pl":"Argentyna","name:pi":"\u0905\u0930\u094d\u091c\u0928\u094d\u091f\u0940\u0928\u093e","sort_rank":262,"name:ba":"\u0410\u0440\u0433\u0435\u043d\u0442\u0438\u0301\u043d\u0430","osm_relation":true,"name:cv":"\u0410\u0440\u0433\u0435\u043d\u0442\u0438\u043d\u0430","alt_name:co":"Arghjintina","name:hi":"\u0905\u0930\u094d\u091c\u0947\u0923\u094d\u091f\u0940\u0928\u093e","name:he":"\u05d0\u05e8\u05d2\u05e0\u05d8\u05d9\u05e0\u05d4","name:hy":"\u0531\u0580\u0563\u0565\u0576\u057f\u056b\u0576\u0561","name:ht":"Ajantin","name:hu":"Argent\u00edna","name:qu":"Arhintina","kind":"country","name:ak":"Agy\u025bntina","name:yi":"\u05d0\u05b7\u05e8\u05d2\u05e2\u05e0\u05d8\u05d9\u05e0\u05e2","name:yo":"Arg\u1eb9nt\u00edn\u00e0","name:mt":"Ar\u0121entina","name:mr":"\u0906\u0930\u094d\u091c\u0947\u0928\u094d\u091f\u093f\u0928\u093e","name:my":"\u1021\u102c\u1002\u103b\u1004\u103a\u1010\u102e\u1038\u1014\u102c\u1038\u1014\u102d\u102f\u1004\u103a\u1004\u1036","official_name":"Rep\u00fablica Argentina","name:mg":"Arjentina","name:ml":"\u0d05\u0d7c\u0d1c\u0d28\u0d4d\u0d31\u0d40\u0d28","name:mn":"\u0410\u0440\u0433\u0435\u043d\u0442\u0438\u043d","name:mi":"\u0100ketina","id":-286393,"name:mk":"\u0410\u0440\u0433\u0435\u043d\u0442\u0438\u043d\u0430","name:vo":"Larg\u00e4nt\u00e4n","name:fa":"\u0622\u0631\u0698\u0627\u0646\u062a\u06cc\u0646","name:ff":"Arjantiin","name:fi":"Argentiina","old_name:vi":"\u00c1 C\u0103n \u0110\u00ecnh","name:fr":"Argentine","name:fy":"Argentynje","name:nl":"Argentini\u00eb","name:na":"Ardjentina","name:ne":"\u0905\u0930\u094d\u091c\u0947\u0928\u094d\u091f\u093f\u0928\u093e","name:wa":"\u00c5rdjintene","name:wo":"Arsantin","name:nv":"B\u00e9\u00e9sh \u0141igaii Bik\u00e9yah","name:ga":"an Airgint\u00edn","name:gl":"Arxentina","maritime_boundary":true,"alt_name:wo":"Argentiin","name:gv":"yn Argenteen","name:gu":"\u0a86\u0ab0\u0acd\u0a9c\u0ac7\u0aa8\u0acd\u0a9f\u0ac0\u0aa8\u0abe"},"arcs":[0]},{"type":"MultiLineString","properties":{"name:pt":"Terra do Fogo","short_name":"TDF","name:he":"\u05d8\u05d9\u05d9\u05e8\u05d4 \u05d3\u05dc \u05e4\u05d5\u05d0\u05d2\u05d5","min_zoom":8.0,"name:it":"Terra del Fuoco","name:uk":"\u0412\u043e\u0433\u043d\u044f\u043d\u0430 \u0417\u0435\u043c\u043b\u044f, \u0410\u043d\u0442\u0430\u0440\u043a\u0442\u0438\u0434\u0430 \u0442\u0430 \u043e\u0441\u0442\u0440\u043e\u0432\u0438 \u041f\u0456\u0432\u0434\u0435\u043d\u043d\u043e\u0457 \u0410\u0442\u043b\u0430\u043d\u0442\u0438\u043a\u0438","name:ru":"\u041e\u0433\u043d\u0435\u043d\u043d\u0430\u044f \u0417\u0435\u043c\u043b\u044f, \u0410\u043d\u0442\u0430\u0440\u043a\u0442\u0438\u0434\u0430 \u0438 \u043e\u0441\u0442\u0440\u043e\u0432\u0430 \u042e\u0436\u043d\u043e\u0439 \u0410\u0442\u043b\u0430\u043d\u0442\u0438\u043a\u0438","name:pl":"Ziemia Ognista, Antarktyda i Wyspy Po\u0142udniowego Atlantyku","id":-153550,"osm_relation":true,"kind":"region","alt_name:he":"\u05d0\u05e8\u05e5 \u05d4\u05d0\u05e9","name":"Tierra del Fuego","sort_rank":256,"kind_detail":"4","name:de":"Feuerland","source":"openstreetmap.org","maritime_boundary":true},"arcs":[[1],[2],[3]]}]},"roads":{"type":"GeometryCollection","geometries":[]},"earth":{"type":"GeometryCollection","geometries":[{"type":"Polygon","properties":{"sort_rank":10,"source":"naturalearthdata.com","kind":"earth","min_zoom":0.0,"id":824},"arcs":[[9]]},{"type":"Point","properties":{"label_placement":true,"name:pt":"Ilha dos Estados","name:az":"Estados adas\u0131","name:ko":"\ub85c\uc2a4\uc5d0\uc2a4\ud0c0\ub3c4\uc2a4 \uc12c","name:kk":"\u042d\u0441\u0442\u0430\u0434\u043e\u0441","min_zoom":8.0,"alt_name:cs":"ostrov St\u00e1t\u016f","name:it":"Isola degli Stati","name:ru":"\u042d\u0441\u0442\u0430\u0434\u043e\u0441","name:pl":"Wyspa Stan\u00f3w","id":-910860,"name:ca":"Illa de Los Estados","name:nn":"Estados-\u00f8ya","area":1502140032,"name:de":"Staateninsel","source":"openstreetmap.org","name:fr":"\u00cele des \u00c9tats","name:zh":"\u827e\u65af\u5854\u591a\u5cf6","name:nl":"Stateneiland","name:ja":"\u30ed\u30b9\u30fb\u30a8\u30b9\u30bf\u30fc\u30c9\u30b9\u5cf6","name:lt":"Estadoso sala","name:no":"Estados\u00f8ya","name:cs":"ostrov Stav\u016f","name:eo":"Insulo Estados","name:sk":"Ostrov \u0161t\u00e1tov","name:uk":"\u0415\u0441\u0442\u0430\u0434\u043e\u0441","name:be":"\u0412\u043e\u0441\u0442\u0440\u0430\u045e \u042d\u0441\u0442\u0430\u0434\u0430\u0441","name:bg":"\u0415\u0441\u0442\u0430\u0434\u043e\u0441","osm_relation":true,"kind":"island","name:en":"Staten Island","name":"Isla de los Estados","name:gl":"Illa dos Estados","name:eu":"Estatuen uhartea","name:et":"Estados"},"coordinates":[712,818]}]},"landuse":{"type":"GeometryCollection","geometries":[{"type":"Polygon","properties":{"kind":"park","area":12406500,"sort_rank":24,"source":"openstreetmap.org","min_zoom":8.0,"tier":2,"id":-5451266,"osm_relation":true},"arcs":[[10]]},{"type":"Polygon","properties":{"kind":"park","area":1502140032,"sort_rank":24,"source":"openstreetmap.org","min_zoom":4.0,"tier":2,"id":-5451266,"osm_relation":true},"arcs":[[11]]}]}},"type":"Topology","transform":{"translate":[-64.6875,-54.9776136707],"scale":[0.0003433228,0.0001990185]},"arcs":[[[2755,0],[53,16],[304,182],[262,331],[123,218],[88,354],[9,155],[-59,345],[-201,337],[-270,224],[-153,71],[-328,76],[-162,3],[-243,200],[-334,131],[-221,36],[-283,-30],[-616,-247],[-183,-135],[-73,15],[-387,-50],[-81,-46]],[[0,325],[44,14],[10,-21],[48,2],[90,52],[38,-32],[68,26],[52,91],[86,-9],[32,88],[36,11],[-37,8],[23,61],[77,67],[-10,21],[55,0],[32,69],[24,-12],[-38,-47],[45,9],[33,-30],[-120,-39],[22,-21],[-44,-29],[3,-54],[24,-38],[32,38],[70,16],[-6,-33],[14,-11],[134,118],[-22,35],[40,16],[0,62],[57,-32],[46,15],[4,-20],[94,49],[37,80],[39,15],[-6,63],[-29,8],[14,22],[81,-42],[23,28],[19,-70],[87,113],[-1,-162],[22,-26],[-35,-36],[24,-44],[-25,-24],[24,14],[24,-22],[-23,-30],[28,-50],[58,147],[32,-49],[32,-2],[20,79],[71,-8],[-11,-27],[17,-6],[72,83],[22,-41],[-4,-54],[8,-4],[39,51],[-2,42],[68,34],[15,72],[-40,16],[49,12],[28,48],[-11,-42],[24,-61],[43,-3],[17,-33],[-1,45],[32,34],[46,-5],[44,29],[21,54],[75,48],[17,-19],[-43,-125],[42,15],[21,-22],[-37,-27],[24,-56],[108,63],[19,31],[-21,15],[78,20],[11,36],[20,-37],[-28,-29],[117,22],[-3,43],[66,77],[-4,36],[75,38],[-30,61],[42,61],[-27,-13],[-11,47],[-50,-8],[-15,-42],[-36,4],[-36,-103],[-64,-31],[-30,19],[57,29],[21,26],[-13,21],[32,24],[-67,5],[5,69],[-82,-9],[-50,-41],[3,23],[-57,-19],[-56,-77],[-19,33],[-70,-6],[-8,-42],[-43,10],[-50,-52],[-24,-104],[-35,-22],[-16,17],[57,114],[-11,47],[-45,2],[9,57],[-82,4],[-24,-109],[-65,-26],[-9,-38],[1,40],[-51,-7],[58,38],[-8,58],[-59,19],[9,33],[-70,-13],[-7,-50],[-35,-1],[52,-16],[32,-72],[-9,-60],[-81,38],[18,38],[-65,62],[-63,11],[-35,34],[-25,4],[2,-51],[-57,-10],[-103,84],[-52,-37],[-79,1],[-46,41],[-3,72],[-30,-148],[-73,-48],[48,-128],[-15,-34],[21,-7],[-9,-104],[-31,-25],[13,137],[-42,24],[-43,-10],[29,69],[-12,90],[-92,-30],[54,-44],[-26,-43],[22,-32],[-25,-20],[6,44],[-58,28],[10,22],[-32,2],[19,16],[-169,-11],[-86,103],[-23,67],[-48,22],[-16,-24],[23,-56],[-3,-138],[58,-21],[-12,-80],[35,-18],[-20,-7],[21,-25],[-35,-29],[-21,33],[-56,14],[-41,-44],[-1,-45],[-71,-36],[-62,77],[-77,34],[-27,106],[-36,-38],[-67,-5],[-10,25]],[[0,678],[63,-31],[-52,-51],[33,-44],[-11,-23],[47,-11],[-3,-37],[21,9],[29,-39],[-26,-44],[-101,-40]],[[0,944],[39,-47],[-39,-27]],[[4096,4096],[0,-4096],[-4096,0],[0,385],[33,-11],[151,-3],[50,16],[26,35],[41,95],[34,41],[140,68],[35,36],[-26,29],[-11,8],[26,34],[28,22],[31,12],[34,0],[0,-37],[-17,-16],[-8,-16],[-6,-16],[-9,-20],[103,2],[51,11],[47,24],[35,33],[53,72],[31,32],[159,103],[65,66],[35,5],[41,-39],[23,23],[22,11],[53,3],[-38,-117],[-17,-69],[-1,-55],[31,-52],[45,-9],[41,26],[18,51],[272,50],[70,37],[8,21],[7,29],[9,29],[16,22],[30,14],[16,-2],[13,-9],[105,-5],[44,14],[40,40],[40,51],[43,32],[34,-9],[15,-74],[-12,-30],[-53,-110],[-17,-47],[37,-24],[33,5],[148,127],[36,19],[55,8],[42,14],[23,36],[36,103],[24,40],[24,30],[63,51],[-40,75],[-58,-36],[-66,-55],[-59,16],[22,34],[-96,38],[-321,-91],[-86,-75],[-36,-9],[-28,33],[-35,113],[-16,29],[-31,-3],[-24,-26],[-21,-29],[-24,-14],[-28,11],[-41,49],[-22,12],[-46,-17],[4,-41],[12,-51],[-20,-49],[-33,0],[-35,37],[-36,48],[-37,35],[-50,7],[-87,-28],[-40,21],[-18,5],[-14,0],[-13,6],[-14,27],[-53,-34],[-49,32],[-41,44],[-27,6],[-34,-77],[-3,-66],[7,-68],[-1,-84],[3,-33],[8,-32],[-6,-25],[-34,-9],[-20,12],[-9,30],[-2,76],[-10,61],[-25,25],[-30,3],[-24,-2],[-24,-10],[-55,-46],[-31,-13],[-101,35],[-35,40],[-71,111],[-23,24],[-80,-33],[28,-77],[161,-168],[-52,-54],[-175,-73],[-61,-10],[-143,103],[-88,37],[-13,-17],[0,3071],[4096,0]],[[0,594],[55,-36],[-28,-51],[-27,-33],[0,120]],[[2327,1245],[22,34],[-96,38],[-321,-91],[-86,-75],[-36,-9],[-28,33],[-35,113],[-16,29],[-31,-3],[-24,-26],[-21,-29],[-24,-14],[-28,11],[-41,49],[-22,12],[-46,-17],[4,-41],[12,-51],[-20,-49],[-33,0],[-35,37],[-36,48],[-37,35],[-50,7],[-87,-28],[-40,21],[-18,5],[-14,0],[-13,6],[-14,27],[-53,-34],[-49,32],[-41,44],[-27,6],[-34,-77],[-3,-66],[7,-68],[-1,-84],[3,-33],[8,-32],[-6,-25],[-34,-9],[-20,12],[-9,30],[-2,76],[-10,61],[-25,25],[-30,3],[-24,-2],[-24,-10],[-55,-46],[-31,-13],[-101,35],[-35,40],[-71,111],[-23,24],[-80,-33],[28,-77],[161,-168],[-52,-54],[-175,-73],[-61,-10],[-143,103],[-88,37],[-13,-17]],[[0,594],[55,-36],[-28,-51],[-27,-33]],[[0,385],[33,-11],[151,-3],[50,16],[26,35],[41,95],[34,41],[140,68],[35,36],[-26,29],[-11,8],[26,34],[28,22],[31,12],[34,0],[0,-37],[-17,-16],[-8,-16],[-6,-16],[-9,-20],[103,2],[51,11],[47,24],[35,33],[53,72],[31,32],[159,103],[65,66],[35,5],[41,-39],[23,23],[22,11],[53,3],[-38,-117],[-17,-69],[-1,-55],[31,-52],[45,-9],[41,26],[18,51],[272,50],[70,37],[8,21],[7,29],[9,29],[16,22],[30,14],[16,-2],[13,-9],[105,-5],[44,14],[40,40],[40,51],[43,32],[34,-9],[15,-74],[-12,-30],[-53,-110],[-17,-47],[37,-24],[33,5],[148,127],[36,19],[55,8],[42,14],[23,36],[36,103],[24,40],[24,30],[63,51],[-40,75],[-58,-36],[-66,-55],[-59,16]],[[1011,1315],[49,-32],[53,34],[14,-27],[13,-6],[14,0],[18,-5],[40,-21],[87,28],[50,-7],[37,-35],[36,-48],[35,-37],[33,0],[20,49],[-12,51],[-4,41],[46,17],[22,-12],[41,-49],[28,-11],[24,14],[21,29],[24,26],[31,3],[16,-29],[35,-113],[28,-33],[36,9],[86,75],[321,91],[96,-38],[-22,-34],[59,-16],[66,55],[58,36],[40,-75],[-63,-51],[-24,-30],[-24,-40],[-36,-103],[-23,-36],[-42,-14],[-55,-8],[-36,-19],[-148,-127],[-33,-5],[-37,24],[17,47],[53,110],[12,30],[-15,74],[-34,9],[-43,-32],[-40,-51],[-40,-40],[-44,-14],[-105,5],[-13,9],[-16,2],[-30,-14],[-16,-22],[-9,-29],[-7,-29],[-8,-21],[-70,-37],[-272,-50],[-18,-51],[-41,-26],[-45,9],[-31,52],[1,55],[17,69],[38,117],[-53,-3],[-22,-11],[-23,-23],[-41,39],[-35,-5],[-65,-66],[-159,-103],[-31,-32],[-53,-72],[-35,-33],[-47,-24],[-51,-11],[-103,-2],[9,20],[6,16],[8,16],[17,16],[0,37],[-34,0],[-31,-12],[-28,-22],[-26,-34],[11,-8],[26,-29],[-35,-36],[-140,-68],[-34,-41],[-41,-95],[-26,-35],[-50,-16],[-151,3],[-33,11],[0,89],[27,33],[28,51],[-55,36],[0,431],[13,17],[88,-37],[143,-103],[61,10],[175,73],[52,54],[-161,168],[-28,77],[80,33],[23,-24],[71,-111],[35,-40],[101,-35],[31,13],[55,46],[24,10],[24,2],[30,-3],[25,-25],[10,-61],[2,-76],[9,-30],[20,-12],[34,9],[6,25],[-8,32],[-3,33],[1,84],[-7,68],[3,66],[34,77],[27,-6],[41,-44]],[[1537,1639],[82,33],[58,-33],[-81,-82],[-59,82]],[[0,870],[39,27],[-39,47],[0,48],[10,-25],[67,5],[36,38],[27,-106],[77,-34],[62,-77],[71,36],[1,45],[41,44],[56,-14],[12,-35],[44,31],[-20,13],[11,36],[-27,1],[12,80],[-58,21],[-6,218],[50,-22],[23,-67],[91,-106],[164,14],[-19,-16],[32,-2],[-10,-22],[58,-28],[-6,-44],[25,20],[-22,32],[26,43],[-54,44],[92,30],[12,-90],[-29,-69],[43,10],[42,-24],[-13,-137],[31,25],[9,104],[-21,7],[15,34],[-48,128],[73,48],[30,148],[3,-72],[46,-41],[79,-1],[52,37],[103,-84],[57,10],[-2,51],[25,-4],[35,-34],[63,-11],[65,-62],[-18,-38],[81,-38],[9,60],[-32,72],[-52,16],[35,1],[7,50],[70,13],[-9,-33],[59,-19],[8,-58],[-58,-38],[51,7],[-10,-25],[9,-15],[9,38],[65,26],[24,109],[82,-4],[-9,-57],[45,-2],[11,-47],[-57,-114],[16,-17],[35,22],[24,104],[50,52],[43,-10],[8,42],[70,6],[19,-33],[56,77],[57,19],[-3,-23],[50,41],[82,9],[-5,-69],[67,-5],[-32,-24],[13,-21],[-21,-26],[-57,-29],[30,-19],[64,31],[36,103],[36,-4],[15,42],[50,8],[11,-47],[27,13],[-42,-61],[30,-61],[-75,-38],[4,-36],[-66,-77],[3,-43],[-117,-22],[28,29],[-20,37],[-11,-36],[-78,-20],[21,-15],[-19,-31],[-108,-63],[-24,56],[37,27],[-21,22],[-42,-15],[43,125],[-17,19],[-75,-48],[-21,-54],[-44,-29],[-46,5],[-32,-34],[1,-45],[-17,33],[-43,3],[-24,61],[11,42],[-28,-48],[-49,-12],[40,-16],[-15,-72],[-68,-34],[2,-42],[-39,-51],[-26,99],[-72,-83],[-17,6],[11,27],[-71,8],[-20,-79],[-32,2],[-32,49],[-58,-147],[-28,50],[23,30],[-24,22],[-14,-15],[-10,1],[25,24],[-24,44],[35,36],[-22,26],[1,162],[-87,-113],[-19,70],[-23,-28],[-81,42],[-14,-22],[29,-8],[6,-63],[-39,-15],[-37,-80],[-94,-49],[-4,20],[-46,-15],[-57,32],[0,-62],[-40,-16],[22,-35],[-134,-118],[-8,44],[-70,-16],[-32,-38],[-24,38],[-3,54],[44,29],[-22,21],[120,39],[-33,30],[-45,-9],[38,47],[-24,12],[-32,-69],[-55,0],[10,-21],[-77,-67],[-23,-61],[37,-8],[-36,-11],[-32,-88],[-86,9],[-52,-91],[-71,-26],[-60,28],[-75,-51],[-48,22],[-44,-14],[0,42],[101,40],[26,44],[-29,39],[-21,-9],[3,37],[-47,11],[11,23],[-32,30],[51,65],[-63,31],[0,192]]]}