{"objects":{"water":{"type":"GeometryCollection","geometries":[{"type":"MultiPolygon","properties":{"source":"naturalearthdata.com","kind":"ocean","area":1576712559132672,"sort_rank":200,"min_zoom":0.0,"id":1},"arcs":[[[7]],[[8]]]},{"type":"MultiLineString","properties":{"source":"naturalearthdata.com","kind":"ocean","sort_rank":205,"boundary":true,"min_zoom":0.0,"id":67},"arcs":[[9],[10],[11]]},{"type":"MultiLineString","properties":{"source":"naturalearthdata.com","kind":"ocean","sort_rank":205,"boundary":true,"min_zoom":0.0,"id":954},"arcs":[[12],[13]]},{"type":"MultiLineString","properties":{"source":"naturalearthdata.com","kind":"ocean","sort_rank":205,"boundary":true,"min_zoom":0.0,"id":955},"arcs":[[14],[15]]}]},"buildings":{"type":"GeometryCollection","geometries":[]},"places":{"type":"GeometryCollection","geometries":[]},"transit":{"type":"GeometryCollection","geometries":[]},"pois":{"type":"GeometryCollection","geometries":[]},"boundaries":{"type":"GeometryCollection","geometries":[{"type":"LineString","properties":{"name:ty":"Tanata","name:ka":"\u10d9\u10d0\u10dc\u10d0\u10d3\u10d0","name:ko":"\uce90\ub098\ub2e4","name:cv":"\u041a\u0430\u043d\u0430\u0434\u0430","name:cu":"\u041a\u0430\u043d\u0430\u0434\u0430","name:cs":"Kanada","name:cr":"\u1473\u14c7\u1456","name:tt":"\u041a\u0430\u043d\u0430\u0434\u0430","name:co":"Canad\u00e0","name:kv":"\u041a\u0430\u043d\u0430\u0434\u0430","name:ku":"Kanada","name:tl":"Kanada","name:ce":"\u041a\u0430\u043d\u0430\u0434\u0430","name:ta":"\u0b95\u0ba9\u0b9f\u0bbe","name:tg":"\u041a\u0430\u043d\u0430\u0434\u0430","name:ca":"Canad\u00e0","name:te":"\u0c15\u0c46\u0c28\u0c21\u0c3e","name:qu":"Kanada","name:de":"Kanada","name:dz":"\u0f40\u0f7a\u0f0b\u0f53\u0f0b\u0f4c\u0f0b","source":"openstreetmap.org","name:kn":"\u0c95\u0cc6\u0ca8\u0ca1\u0cbe","name:dv":"\u0786\u07ac\u0782\u07ac\u0791\u07a7","name:km":"\u1780\u17b6\u178e\u17b6\u178a\u17b6","name:lv":"Kan\u0101da","name:lt":"Kanada","name:uz":"Kanada","name:kk":"\u041a\u0430\u043d\u0430\u0434\u0430","name:tw":"Kanada","name:lb":"Kanada","name:uk":"\u041a\u0430\u043d\u0430\u0434\u0430","name:ug":"\u0643\u0627\u0646\u0627\u062f\u0627","name:ln":"Kanad\u00e1","name:kw":"Kanada","name:eo":"Kanado","name":"Canada","name:tk":"Kanada","name:th":"\u0e1b\u0e23\u0e30\u0e40\u0e17\u0e28\u0e41\u0e04\u0e19\u0e32\u0e14\u0e32","name:eu":"Kanada","name:et":"Kanada","name:es":"Canad\u00e1","name:ay":"Kanada","name:rn":"Kanada","name:az":"Kanada","name:id":"Kanada","name:ig":"K\u00e1nada","name:el":"\u039a\u03b1\u03bd\u03b1\u03b4\u03ac\u03c2","name:as":"\u0995\u09be\u09a8\u09be\u09a1\u09be","name:ar":"\u0643\u0646\u062f\u0627","name:io":"Kanada","name:av":"\u041a\u0430\u043d\u0430\u0434\u0430","name:is":"Kanada","name:am":"\u12ab\u1293\u12f3","name:an":"Canad\u00e1","name:ru":"\u041a\u0430\u043d\u0430\u0434\u0430","name:ab":"\u041a\u0430\u043d\u0430\u0434\u0430","name:af":"Kanada","name:zu":"IKhanada","kind_detail":"2","name:ky":"\u041a\u0430\u043d\u0430\u0434\u0430","name:zh-yue":"\u52a0\u62ff\u5927","name:zh":"\u52a0\u62ff\u5927","name:so":"Kanada","name:sl":"Kanada","name:sk":"Kanada","name:ja":"\u30ab\u30ca\u30c0","name:sh":"Kanada","name:sg":"Kanad\u00e4a","name:se":"Kan\u00e1da","name:sa":"\u0915\u0947\u0928\u0921\u093e","name:bs":"Kanada","name:bm":"Kanada","name:bn":"\u0995\u09be\u09a8\u09be\u09a1\u09be","name:bo":"\u0f41\u0f0b\u0f53\u0f0b\u0f4c\u0f0d","name:br":"Kanada","name:sw":"Kanada","name:be":"\u041a\u0430\u043d\u0430\u0434\u0430","name:su":"Kanada","name:bg":"\u041a\u0430\u043d\u0430\u0434\u0430","name:ss":"IKhanada","name:ba":"\u041a\u0430\u043d\u0430\u0434\u0430","name:sq":"Kanadaja","name:jv":"Kanada","name:bi":"Kanada","name:pt":"Canad\u00e1","name:ps":"\u06a9\u0627\u0646\u0627\u0689\u0627","name:oc":"Canad\u00e0","min_zoom":8.0,"name:pa":"\u0a15\u0a48\u0a28\u0a47\u0a21\u0a3e","name:os":"\u041a\u0430\u043d\u0430\u0434\u00e6","name:or":"\u0b15\u0b3e\u0b28\u0b3e\u0b21\u0b3c\u0b3e","name:pl":"Kanada","sort_rank":262,"name:sr":"\u041a\u0430\u043d\u0430\u0434\u0430","osm_relation":true,"name:ik":"Kanada","name:tr":"Kanada","name:hi":"\u0915\u0928\u093e\u0921\u093e","name:sv":"Kanada","name:he":"\u05e7\u05e0\u05d3\u05d4","name:ha":"Kanada","name:hy":"\u053f\u0561\u0576\u0561\u0564\u0561","name:ht":"Kanada","name:hu":"Kanada","name:hr":"Kanada","kind":"country","name:yi":"\u05e7\u05d0\u05e0\u05d0\u05d3\u05e2","name:iu":"\u1472\u14c7\u1455 \/ kanata","name:yo":"K\u00e1n\u00e1d\u00e0","name:mt":"Kanada","name:ms":"Kanada","name:mr":"\u0915\u0945\u0928\u0921\u093e","name:my":"\u1000\u1014\u1031\u1012\u102b\u1014\u102d\u102f\u1004\u103a\u1004\u1036","name:mg":"Kanada","name:ml":"\u0d15\u0d3e\u0d28\u0d21","name:mn":"\u041a\u0430\u043d\u0430\u0434","name:mi":"K\u0101nata","id":-1428125,"name:mk":"\u041a\u0430\u043d\u0430\u0434\u0430","name:vo":"Kanad\u00e4n","name:fa":"\u06a9\u0627\u0646\u0627\u062f\u0627","name:rw":"Kanada","name:fi":"Kanada","old_name:vi":"Gia N\u00e3 \u0110\u1ea1i","name:fo":"Kanada","alt_name:vi":"Ca-na-\u0111a","name:fy":"Kanada","name:na":"Kanada","name:ne":"\u0915\u094d\u092f\u093e\u0928\u093e\u0921\u093e","name:ur":"\u06a9\u06cc\u0646\u06cc\u0688\u0627","name:wo":"Kanadaa","name:nv":"Deeteel Bik\u00e9yah","name:ga":"Ceanada","name:gn":"Kanat\u00e3","name:gl":"Canad\u00e1","maritime_boundary":true,"name:gv":"Yn Chanadey","name:gu":"\u0a95\u0ac7\u0aa8\u0ac7\u0aa1\u0abe"},"arcs":[0]},{"type":"LineString","properties":{"name:left:la":"Terra Nova et Terra Laboratoria","name:left:lb":"Neifundland a Labrador","name:right:hy":"\u0546\u0578\u0582\u0576\u0561\u057e\u0578\u0582\u057f","name:right:hr":"Nunavut","name:left:sv":"Newfoundland och Labrador","name:left:sq":"Toka e Re dhe Labradori","name:right:hu":"Nunavut","name:left:sr":"\u040a\u0443\u0444\u0430\u0443\u043d\u0434\u043b\u0435\u043d\u0434 \u0438 \u041b\u0430\u0431\u0440\u0430\u0434\u043e\u0440","name:left:sl":"Nova Fundlandija in Labrador","name:left:lt":"Niufaundlandas ir Labradoras","name:left:lv":"\u0145\u016bfaundlenda un Labradora","name:right:mr":"\u0928\u0941\u0928\u093e\u0935\u094d\u0939\u0941\u0924","name:right:he":"\u05e0\u05d5\u05e0\u05d0\u05d5\u05d5\u05d8","name:left:sc":"Terranova e Labrador","name:right:af":"Nunavut","name:left:ca":"Terranova i Labrador","source":"openstreetmap.org","name:left:cy":"Newfoundland a Labrador","name:right:ar":"\u0646\u0648\u0646\u0627\u0641\u0648\u062a","name:right:el":"\u039d\u03bf\u03cd\u03bd\u03b1\u03b2\u03bf\u03c5\u03c4","name:right:az":"Nunavut","name:left:cs":"Newfoundland a Labrador","name:left:ka":"\u10dc\u10d8\u10e3\u10e4\u10d0\u10e3\u10dc\u10d3\u10da\u10d4\u10dc\u10d3\u10d8 \u10d3\u10d0 \u10da\u10d0\u10d1\u10e0\u10d0\u10d3\u10dd\u10e0\u10d8","name:left:kl":"Newfoundland aamma Labrador","name:left:ko":"\ub274\ud380\ub4e4\ub79c\ub4dc \ub798\ube0c\ub77c\ub3c4 \uc8fc","name:right:it":"Nunavut","name:right:is":"N\u00fanav\u00fat","name:left:ro":"Newfoundland \u0219i Labrador","name:right:ru":"\u041d\u0443\u043d\u0430\u0432\u0443\u0442","name:right:io":"Nunavut","name:left:kw":"Tir Nowydh ha Labrador","name:right:ro":"Nunavut","name:left:ru":"\u041d\u044c\u044e\u0444\u0430\u0443\u043d\u0434\u043b\u0435\u043d\u0434 \u0438 \u041b\u0430\u0431\u0440\u0430\u0434\u043e\u0440","name:right:id":"Nunavut","name":"Newfoundland and Labrador - \u14c4\u14c7\u1557\u1466 Nunavut","name:right:bg":"\u041d\u0443\u043d\u0430\u0432\u0443\u0442","name:right:be":"\u041d\u0443\u043d\u0430\u0432\u0443\u0442","name:left:zh":"\u7d10\u82ac\u862d\u8207\u62c9\u5e03\u62c9\u591a\u7701","name:right:br":"Nunavut","name:right:bs":"Nunavut","name:right:zh":"\u52aa\u7d0d\u6b66\u7279\u5730\u5340","name:right:nn":"Nunavut","name:left:uz":"Nyufaundlend va Labrador","name:right:nl":"Nunavut","name:right:fr":"Nunavut","name:left:sk":"Newfoundland a Labrador","name:left:ur":"\u0646\u06cc\u0648 \u0641\u0627\u0624\u0646\u0688 \u0644\u06cc\u0646\u0688 \u0627\u0648\u0631 \u0644\u06cc\u0628\u0631\u0627\u0688\u0648\u0631","id:right":-390840,"name:left:uk":"\u041d\u044c\u044e\u0444\u0430\u0443\u043d\u0434\u043b\u0435\u043d\u0434 \u0456 \u041b\u0430\u0431\u0440\u0430\u0434\u043e\u0440","name:left:no":"Newfoundland og Labrador","name:left:nl":"Newfoundland en Labrador","name:right:fa":"\u0646\u0648\u0646\u0627\u0648\u0648\u062a","name:right:fo":"Nunavut","name:left:ug":"N\u00e9wfundland \u00d6lkisi","name:right:uz":"Nunavut","name:left:eo":"Novlando kaj Labradoro","name:left:el":"\u039d\u03ad\u03b1 \u0393\u03b7 \u03ba\u03b1\u03b9 \u039b\u03b1\u03bc\u03c0\u03c1\u03b1\u03bd\u03c4\u03cc\u03c1","kind_detail":"4","name:left:es":"Terranova y Labrador","name:right:kk":"\u041d\u0443\u043d\u0430\u0432\u0443\u0442","name:left:eu":"Ternua eta Labrador","name:left:et":"Newfoundland ja Labrador","name:right:gv":"Nunavut","name:right:pt":"Nunavut","name:left:mk":"\u040a\u0443\u0444\u0430\u0443\u043d\u0434\u043b\u0435\u043d\u0434 \u0438 \u041b\u0430\u0431\u0440\u0430\u0434\u043e\u0440","name:left:tr":"Newfoundland ve Labrador","name:left:mn":"\u041d\u044c\u044e\u0444\u0430\u0443\u043d\u0434\u043b\u0435\u043d\u0434 \u0431\u0430 \u041b\u0430\u0431\u0440\u0430\u0434\u043e\u0440","name:right:oc":"Nunavut","name:right:kl":"Nunavut","name:left:th":"\u0e23\u0e31\u0e10\u0e19\u0e34\u0e27\u0e1f\u0e31\u0e19\u0e14\u0e4c\u0e41\u0e25\u0e19\u0e14\u0e4c\u0e41\u0e25\u0e30\u0e41\u0e25\u0e1a\u0e23\u0e32\u0e14\u0e2d\u0e23\u0e4c","name:right:pa":"\u0a28\u0a42\u0a28\u0a3e\u0a35\u0a41\u0a24","name:left:tl":"Newfoundland at Labrador","name:right:ko":"\ub204\ub098\ubd80\ud2b8 \uc900\uc8fc","name:left:ta":"\u0ba8\u0bbf\u0baf\u0bc2\u0b83\u0baa\u0bb5\u0bc1\u0ba9\u0bcd\u0bb2\u0bbe\u0ba8\u0bcd\u0ba4\u0bc1 \u0bae\u0bb1\u0bcd\u0bb1\u0bc1\u0bae\u0bcd \u0bb2\u0bbe\u0baa\u0bcd\u0bb0\u0b9f\u0bcb\u0bb0\u0bcd","name:right:pl":"Nunavut","name:right:os":"\u041d\u0443\u043d\u0430\u0432\u0443\u0442","name:right:tl":"Nunavut","name:left:mr":"\u0928\u094d\u092f\u0942\u092b\u093e\u0909\u0902\u0921\u0932\u0902\u0921 \u0906\u0923\u093f \u0932\u093e\u092c\u094d\u0930\u093e\u0921\u094b\u0930","name:left:da":"Newfoundland og Labrador","name:left:ar":"\u0646\u064a\u0648\u0641\u0627\u0648\u0646\u062f\u0644\u0627\u0646\u062f \u0648\u0627\u0644\u0644\u0627\u0628\u0631\u0627\u062f\u0648\u0631","name:left:de":"Neufundland und Labrador","name:right:ga":"Nunavut","name:right:la":"Nunavut","name:right:lb":"Nunavut","name:right:no":"Nunavut","name:right:uk":"\u041d\u0443\u043d\u0430\u0432\u0443\u0442","name:left:he":"\u05e0\u05d9\u05d5\u05e4\u05d0\u05d5\u05e0\u05d3\u05dc\u05e0\u05d3 \u05d5\u05dc\u05d1\u05e8\u05d3\u05d5\u05e8","name:right:lt":"Nunavutas","name:right:ur":"\u0646\u0646\u0627\u0648\u062a","name:right:lv":"Nunavuta","name:left:hy":"\u0546\u0575\u0578\u0582\u0586\u0561\u0578\u0582\u0576\u0564\u056c\u0565\u0576\u0564 \u0587 \u053c\u0561\u0562\u0580\u0561\u0564\u0578\u0580","name:right:gl":"Nunavut","name:left:hu":"\u00daj-Fundland \u00e9s Labrador","name:left:hr":"Newfoundland i Labrador","name:left:ga":"Talamh an \u00c9isc agus Labradar","name:left:gd":"An Talamh \u00d9r is Labrador","sort_rank":256,"name:right:gd":"Nunavut","name:left:gl":"Terra Nova e Labrador","osm_relation":true,"name:left:gv":"Thalloo yn Eeast as Labrador","name:left":"Newfoundland and Labrador","name:right:es":"Nunavut","name:left:ja":"\u30cb\u30e5\u30fc\u30d5\u30a1\u30f3\u30c9\u30e9\u30f3\u30c9\u30fb\u30e9\u30d6\u30e9\u30c9\u30fc\u30eb\u5dde","name:right:mn":"\u041d\u0443\u043d\u0430\u0432\u0443\u0442","name:right:eu":"Nunavut","name:right:et":"Nunavut","name:right:vo":"Nunavut","name:left:os":"\u041d\u044c\u044e\u0444\u0430\u0443\u043d\u0434\u043b\u0435\u043d\u0434 \u00e6\u043c\u00e6 \u041b\u0430\u0431\u0440\u0430\u0434\u043e\u0440","name:right:vi":"Nunavut","name:right:ms":"Nunavut","name:left:vo":"Newfoundland e Labrador","name:left:oc":"T\u00e8rran\u00f2va e Labrador","name:right:fy":"N\u00fbnav\u00fbt","name:right:eo":"Nunavuto","name:right:en":"Nunavut","name:left:vi":"Newfoundland v\u00e0 Labrador","name:left:nn":"Newfoundland og Labrador","kind":"region","name:left:fa":"\u0646\u06cc\u0648\u0641\u0627\u0646\u062f\u0644\u0646\u062f \u0648 \u0644\u0627\u0628\u0631\u0627\u062f\u0648\u0631","name:left:fo":"N\u00fdfundland og Labrador","name:right:sk":"Nunavut","name:left:fi":"Newfoundland ja Labrador","name:left:fr":"Terre-Neuve et Labrador","name:left:fy":"Nijf\u00fbnl\u00e2n en Labrador","name:left:br":"Douar-Nevez ha Labrador","name:left:bs":"Newfoundland i Labrador","name:right:mk":"\u041d\u0443\u043d\u0430\u0432\u0443\u0442","name:right:ja":"\u30cc\u30ca\u30d6\u30c8\u6e96\u5dde","name:right:sq":"Nunavut","name:right:sr":"\u041d\u0443\u043d\u0430\u0432\u0443\u0442","name:right:sw":"Nunavut","name:right:sv":"Nunavut","name:left:qu":"Newfoundland wan Labrador pruwinsya","name:right:cy":"Nunavut","name:left:bg":"\u041d\u044e\u0444\u0430\u0443\u043d\u0434\u043b\u0435\u043d\u0434 \u0438 \u041b\u0430\u0431\u0440\u0430\u0434\u043e\u0440","name:left:be":"\u041f\u0440\u0430\u0432\u0456\u043d\u0446\u044b\u044f \u041d\u044c\u044e\u0444\u0430\u045e\u043d\u0434\u043b\u0435\u043d\u0434 \u0456 \u041b\u0430\u0431\u0440\u0430\u0434\u043e\u0440","name:right:sl":"Nunavut","name:right:sc":"Nunavut","id":-391196,"name:right":"\u14c4\u14c7\u1557\u1466 Nunavut","name:right:ca":"Nunavut","name:left:yo":"Newfoundland \u00e0ti Labrador","name:left:yi":"\u05e0\u05d9\u05d9\u05e4\u05d5\u05e0\u05d3\u05dc\u05d0\u05e0\u05d3 \u05d0\u05d5\u05df \u05dc\u05d0\u05d1\u05e8\u05d0\u05d3\u05d0\u05e8","id:left":-391196,"min_zoom":8.0,"name:right:cs":"Nunavut","name:right:fi":"Nunavut","name:right:iu":"\u14c4\u14c7\u1557\u1466","name:right:ka":"\u10dc\u10e3\u10dc\u10d0\u10d5\u10e3\u10e2\u10d8","name:left:io":"Newfoundland e Labrador","name:left:pa":"\u0a28\u0a3f\u0a0a\u0a2b\u0a3c\u0a70\u0a21\u0a32\u0a48\u0a02\u0a21 \u0a05\u0a24\u0a47 \u0a32\u0a3e\u0a2c\u0a30\u0a3e\u0a21\u0a4b\u0a30","name:left:pl":"Nowa Fundlandia i Labrador","name:left:ie":"Nov-Fundland e Labrador","name:left:id":"Newfoundland dan Labrador","name:left:az":"Nyufaundlend v\u0259 Labrador","name:right:tr":"Nunavut","name:left:pt":"Terra Nova e Labrador","name:left:af":"Newfoundland en Labrador","name:right:th":"\u0e19\u0e39\u0e19\u0e32\u0e27\u0e38\u0e15","name:right:kw":"Nunavut","name:left:it":"Terranova e Labrador","name:left:is":"N\u00fdfundnaland og Labrador","name:right:ta":"\u0ba8\u0bc2\u0ba9\u0bb5\u0bc1\u0b9f\u0bcd","name:right:de":"Nunavut","name:left:ms":"Newfoundland dan Labrador","name:right:da":"Nunavut","maritime_boundary":true},"arcs":[1]},{"type":"LineString","properties":{"name:left:la":"Terra Nova et Terra Laboratoria","name:left:lb":"Neifundland a Labrador","name:right:yi":"\u05e7\u05d5\u05d5\u05d9\u05d1\u05e2\u05e7","name:right:hy":"\u0554\u057e\u0565\u0562\u0565\u056f","name:left:sv":"Newfoundland och Labrador","name:right:ht":"Keb\u00e8k","name:right:qu":"Quebec pruwinsya","name:left:sr":"\u040a\u0443\u0444\u0430\u0443\u043d\u0434\u043b\u0435\u043d\u0434 \u0438 \u041b\u0430\u0431\u0440\u0430\u0434\u043e\u0440","name:right:hi":"\u0915\u094d\u092f\u0942\u092c\u0947\u0915","name:left:lt":"Niufaundlandas ir Labradoras","name:left:lv":"\u0145\u016bfaundlenda un Labradora","name:left:vo":"Newfoundland e Labrador","name:left:hu":"\u00daj-Fundland \u00e9s Labrador","name:right:he":"\u05e7\u05d5\u05d5\u05d9\u05d1\u05e7","name:left:sc":"Terranova e Labrador","name:right:af":"Quebec","name:right:am":"\u12ac\u1260\u12ad","name:left:ca":"Terranova i Labrador","source":"openstreetmap.org","name:left:cy":"Newfoundland a Labrador","name:right:ar":"\u0643\u064a\u0628\u0643","name:left:vi":"Newfoundland v\u00e0 Labrador","name:left:oc":"T\u00e8rran\u00f2va e Labrador","name:right:az":"\u0729\u071d\u0712\u0729","name:left:cs":"Newfoundland a Labrador","name:left:ka":"\u10dc\u10d8\u10e3\u10e4\u10d0\u10e3\u10dc\u10d3\u10da\u10d4\u10dc\u10d3\u10d8 \u10d3\u10d0 \u10da\u10d0\u10d1\u10e0\u10d0\u10d3\u10dd\u10e0\u10d8","name:left:kl":"Newfoundland aamma Labrador","name:left:ko":"\ub274\ud380\ub4e4\ub79c\ub4dc \ub798\ube0c\ub77c\ub3c4 \uc8fc","name:left:ro":"Newfoundland \u0219i Labrador","name:right:ru":"\u041a\u0432\u0435\u0431\u0435\u043a","name:right:io":"Kebekia","name:left:kw":"Tir Nowydh ha Labrador","name:left:ru":"\u041d\u044c\u044e\u0444\u0430\u0443\u043d\u0434\u043b\u0435\u043d\u0434 \u0438 \u041b\u0430\u0431\u0440\u0430\u0434\u043e\u0440","name:right:id":"Quebec","name:right:bn":"\u0995\u09bf\u0989\u09ac\u09c7\u0995","name":"Newfoundland and Labrador - Qu\u00e9bec","name:left:sl":"Nova Fundlandija in Labrador","name:right:bg":"\u041a\u0432\u0435\u0431\u0435\u043a","name:right:be":"\u041f\u0440\u0430\u0432\u0456\u043d\u0446\u044b\u044f \u041a\u0432\u0435\u0431\u0435\u043a","name:left:zh":"\u7d10\u82ac\u862d\u8207\u62c9\u5e03\u62c9\u591a\u7701","name:right:br":"Kebek","name:right:zh":"\u9b41\u5317\u514b","name:left:sq":"Toka e Re dhe Labradori","name:right:nn":"Quebec","name:left:uz":"Nyufaundlend va Labrador","name:right:nl":"Quebec","name:right:wa":"Kebek","name:left:sk":"Newfoundland a Labrador","name:left:ur":"\u0646\u06cc\u0648 \u0641\u0627\u0624\u0646\u0688 \u0644\u06cc\u0646\u0688 \u0627\u0648\u0631 \u0644\u06cc\u0628\u0631\u0627\u0688\u0648\u0631","id:right":-61549,"name:left:uk":"\u041d\u044c\u044e\u0444\u0430\u0443\u043d\u0434\u043b\u0435\u043d\u0434 \u0456 \u041b\u0430\u0431\u0440\u0430\u0434\u043e\u0440","name:left:no":"Newfoundland og Labrador","name:left:nl":"Newfoundland en Labrador","name:right:fa":"\u06a9\u0628\u06a9","name:left:ug":"N\u00e9wfundland \u00d6lkisi","name:right:fi":"Quebec","name:left:eo":"Novlando kaj Labradoro","name:left:el":"\u039d\u03ad\u03b1 \u0393\u03b7 \u03ba\u03b1\u03b9 \u039b\u03b1\u03bc\u03c0\u03c1\u03b1\u03bd\u03c4\u03cc\u03c1","kind_detail":"4","name:right:tt":"\u041a\u0432\u0435\u0431\u0435\u043a","name:left:es":"Terranova y Labrador","name:left:ie":"Nov-Fundland e Labrador","name:left:eu":"Ternua eta Labrador","name:left:et":"Newfoundland ja Labrador","name:right:gu":"\u0a95\u0acd\u0ab5\u0abf\u0aac\u0ac7\u0a95","name:right:pt":"Quebec","name:left:mk":"\u040a\u0443\u0444\u0430\u0443\u043d\u0434\u043b\u0435\u043d\u0434 \u0438 \u041b\u0430\u0431\u0440\u0430\u0434\u043e\u0440","name:left:tr":"Newfoundland ve Labrador","name:left:mn":"\u041d\u044c\u044e\u0444\u0430\u0443\u043d\u0434\u043b\u0435\u043d\u0434 \u0431\u0430 \u041b\u0430\u0431\u0440\u0430\u0434\u043e\u0440","name:right:oc":"Queb\u00e8c","name:left:th":"\u0e23\u0e31\u0e10\u0e19\u0e34\u0e27\u0e1f\u0e31\u0e19\u0e14\u0e4c\u0e41\u0e25\u0e19\u0e14\u0e4c\u0e41\u0e25\u0e30\u0e41\u0e25\u0e1a\u0e23\u0e32\u0e14\u0e2d\u0e23\u0e4c","name:right:pa":"\u0a15\u0a47\u0a2c\u0a48\u0a71\u0a15","name:left:tl":"Newfoundland at Labrador","name:left:ta":"\u0ba8\u0bbf\u0baf\u0bc2\u0b83\u0baa\u0bb5\u0bc1\u0ba9\u0bcd\u0bb2\u0bbe\u0ba8\u0bcd\u0ba4\u0bc1 \u0bae\u0bb1\u0bcd\u0bb1\u0bc1\u0bae\u0bcd \u0bb2\u0bbe\u0baa\u0bcd\u0bb0\u0b9f\u0bcb\u0bb0\u0bcd","name:right:pl":"Quebec","name:right:os":"\u041a\u0432\u0435\u0431\u0435\u043a","name:left:ms":"Newfoundland dan Labrador","name:left:mr":"\u0928\u094d\u092f\u0942\u092b\u093e\u0909\u0902\u0921\u0932\u0902\u0921 \u0906\u0923\u093f \u0932\u093e\u092c\u094d\u0930\u093e\u0921\u094b\u0930","name:left:da":"Newfoundland og Labrador","name:left:de":"Neufundland und Labrador","name:right:ug":"Kw\u00e9b\u00e9k","name:right:la":"Quebecum","name:right:uk":"\u041a\u0432\u0435\u0431\u0435\u043a","name:left:he":"\u05e0\u05d9\u05d5\u05e4\u05d0\u05d5\u05e0\u05d3\u05dc\u05e0\u05d3 \u05d5\u05dc\u05d1\u05e8\u05d3\u05d5\u05e8","name:right:ln":"K\u00e9beki","name:right:lo":"\u0ec1\u0e82\u0ea7\u0e87\u0ec0\u0e81\u0ec1\u0e9a\u0eb1\u0e81","name:right:lt":"Kvebekas","name:right:ur":"\u06a9\u06cc\u0648\u0628\u06cc\u06a9","name:right:lv":"Kvebeka","name:left:hy":"\u0546\u0575\u0578\u0582\u0586\u0561\u0578\u0582\u0576\u0564\u056c\u0565\u0576\u0564 \u0587 \u053c\u0561\u0562\u0580\u0561\u0564\u0578\u0580","name:right:gl":"Quebec","name:right:uz":"Kvebek","name:left:hr":"Newfoundland i Labrador","name:left:ga":"Talamh an \u00c9isc agus Labradar","name:left:gd":"An Talamh \u00d9r is Labrador","sort_rank":256,"name:right:gd":"Quebec","name:left:gl":"Terra Nova e Labrador","osm_relation":true,"name:left:gv":"Thalloo yn Eeast as Labrador","name:left":"Newfoundland and Labrador","name:right:es":"Quebec","name:right:mi":"Quebec","name:right:sr":"\u041a\u0432\u0435\u0431\u0435\u043a","name:right:mn":"\u041a\u044d\u0431\u044d\u043a","name:right:eu":"Quebec","name:right:ml":"\u0d15\u0d4d\u0d2f\u0d42\u0d2c\u0d46\u0d15\u0d4d","name:left:os":"\u041d\u044c\u044e\u0444\u0430\u0443\u043d\u0434\u043b\u0435\u043d\u0434 \u00e6\u043c\u00e6 \u041b\u0430\u0431\u0440\u0430\u0434\u043e\u0440","name:right:ms":"Quebec","name:right:mr":"\u0915\u094d\u0935\u0947\u092c\u0947\u0915","min_zoom":8.0,"name:right:fy":"Kebek","name:right:eo":"Kebekio","name:right:en":"Quebec","name:right:el":"\u039a\u03b5\u03bc\u03c0\u03ad\u03ba","name:left:nn":"Newfoundland og Labrador","kind":"region","name:left:fa":"\u0646\u06cc\u0648\u0641\u0627\u0646\u062f\u0644\u0646\u062f \u0648 \u0644\u0627\u0628\u0631\u0627\u062f\u0648\u0631","name:left:fo":"N\u00fdfundland og Labrador","name:right:sk":"Quebec","name:left:fi":"Newfoundland ja Labrador","name:left:fr":"Terre-Neuve et Labrador","name:left:fy":"Nijf\u00fbnl\u00e2n en Labrador","name:left:br":"Douar-Nevez ha Labrador","name:left:bs":"Newfoundland i Labrador","name:right:mk":"\u041a\u0432\u0435\u0431\u0435\u043a","name:right:ja":"\u30b1\u30d9\u30c3\u30af\u5dde","name:right:sq":"Kebeku","name:left:ja":"\u30cb\u30e5\u30fc\u30d5\u30a1\u30f3\u30c9\u30e9\u30f3\u30c9\u30fb\u30e9\u30d6\u30e9\u30c9\u30fc\u30eb\u5dde","name:right:su":"Quebec","name:right:sw":"Quebec","name:left:qu":"Newfoundland wan Labrador pruwinsya","name:right:jv":"Quebec","name:left:bg":"\u041d\u044e\u0444\u0430\u0443\u043d\u0434\u043b\u0435\u043d\u0434 \u0438 \u041b\u0430\u0431\u0440\u0430\u0434\u043e\u0440","name:left:be":"\u041f\u0440\u0430\u0432\u0456\u043d\u0446\u044b\u044f \u041d\u044c\u044e\u0444\u0430\u045e\u043d\u0434\u043b\u0435\u043d\u0434 \u0456 \u041b\u0430\u0431\u0440\u0430\u0434\u043e\u0440","id":-391196,"name:right":"Qu\u00e9bec","name:right:co":"Quebec","name:right:ca":"Quebec","name:left:yo":"Newfoundland \u00e0ti Labrador","name:left:yi":"\u05e0\u05d9\u05d9\u05e4\u05d5\u05e0\u05d3\u05dc\u05d0\u05e0\u05d3 \u05d0\u05d5\u05df \u05dc\u05d0\u05d1\u05e8\u05d0\u05d3\u05d0\u05e8","id:left":-391196,"name:right:cs":"Quebec","name:right:cr":"\u146f\u142f\u1483","name:right:iu":"\u146f\u1438\u1403\u1483","name:right:ka":"\u10d9\u10d5\u10d4\u10d1\u10d4\u10d9\u10d8","name:left:io":"Newfoundland e Labrador","name:left:ar":"\u0646\u064a\u0648\u0641\u0627\u0648\u0646\u062f\u0644\u0627\u0646\u062f \u0648\u0627\u0644\u0644\u0627\u0628\u0631\u0627\u062f\u0648\u0631","name:left:pl":"Nowa Fundlandia i Labrador","name:right:kk":"\u041a\u0432\u0435\u0431\u0435\u043a","name:left:id":"Newfoundland dan Labrador","name:left:az":"Nyufaundlend v\u0259 Labrador","name:right:ko":"\ud018\ubca1","name:right:kn":"\u0c95\u0ccd\u0cb5\u0cbf\u0cac\u0cc6\u0c95\u0ccd","name:left:pt":"Terra Nova e Labrador","name:left:af":"Newfoundland en Labrador","name:right:th":"\u0e23\u0e31\u0e10\u0e04\u0e27\u0e34\u0e40\u0e1a\u0e01","name:right:kw":"Kebek","name:left:it":"Terranova e Labrador","name:left:is":"N\u00fdfundnaland og Labrador","name:right:ta":"\u0b95\u0bbf\u0baf\u0bc2\u0baa\u0bc6\u0b95\u0bcd","name:left:pa":"\u0a28\u0a3f\u0a0a\u0a2b\u0a3c\u0a70\u0a21\u0a32\u0a48\u0a02\u0a21 \u0a05\u0a24\u0a47 \u0a32\u0a3e\u0a2c\u0a30\u0a3e\u0a21\u0a4b\u0a30"},"arcs":[2]},{"type":"LineString","properties":{"name:left:la":"Terra Nova et Terra Laboratoria","name:left:lb":"Neifundland a Labrador","name:right:yi":"\u05e7\u05d5\u05d5\u05d9\u05d1\u05e2\u05e7","name:right:hy":"\u0554\u057e\u0565\u0562\u0565\u056f","name:left:sv":"Newfoundland och Labrador","name:right:ht":"Keb\u00e8k","name:right:qu":"Quebec pruwinsya","name:left:sr":"\u040a\u0443\u0444\u0430\u0443\u043d\u0434\u043b\u0435\u043d\u0434 \u0438 \u041b\u0430\u0431\u0440\u0430\u0434\u043e\u0440","name:right:hi":"\u0915\u094d\u092f\u0942\u092c\u0947\u0915","name:left:lt":"Niufaundlandas ir Labradoras","name:left:lv":"\u0145\u016bfaundlenda un Labradora","name:right:mr":"\u0915\u094d\u0935\u0947\u092c\u0947\u0915","name:right:he":"\u05e7\u05d5\u05d5\u05d9\u05d1\u05e7","name:left:sc":"Terranova e Labrador","name:right:af":"Quebec","name:right:am":"\u12ac\u1260\u12ad","name:left:ca":"Terranova i Labrador","source":"openstreetmap.org","name:left:cy":"Newfoundland a Labrador","name:right:ar":"\u0643\u064a\u0628\u0643","name:right:el":"\u039a\u03b5\u03bc\u03c0\u03ad\u03ba","name:right:az":"\u0729\u071d\u0712\u0729","name:left:cs":"Newfoundland a Labrador","name:left:ka":"\u10dc\u10d8\u10e3\u10e4\u10d0\u10e3\u10dc\u10d3\u10da\u10d4\u10dc\u10d3\u10d8 \u10d3\u10d0 \u10da\u10d0\u10d1\u10e0\u10d0\u10d3\u10dd\u10e0\u10d8","name:left:kl":"Newfoundland aamma Labrador","name:left:ko":"\ub274\ud380\ub4e4\ub79c\ub4dc \ub798\ube0c\ub77c\ub3c4 \uc8fc","name:left:ro":"Newfoundland \u0219i Labrador","name:right:ru":"\u041a\u0432\u0435\u0431\u0435\u043a","name:right:io":"Kebekia","name:left:kw":"Tir Nowydh ha Labrador","name:left:ru":"\u041d\u044c\u044e\u0444\u0430\u0443\u043d\u0434\u043b\u0435\u043d\u0434 \u0438 \u041b\u0430\u0431\u0440\u0430\u0434\u043e\u0440","name:right:id":"Quebec","name:right:bn":"\u0995\u09bf\u0989\u09ac\u09c7\u0995","name":"Newfoundland and Labrador - Qu\u00e9bec","name:left:sl":"Nova Fundlandija in Labrador","name:right:lv":"Kvebeka","name:right:fa":"\u06a9\u0628\u06a9","name:right:bg":"\u041a\u0432\u0435\u0431\u0435\u043a","name:right:be":"\u041f\u0440\u0430\u0432\u0456\u043d\u0446\u044b\u044f \u041a\u0432\u0435\u0431\u0435\u043a","name:left:zh":"\u7d10\u82ac\u862d\u8207\u62c9\u5e03\u62c9\u591a\u7701","name:right:br":"Kebek","name:right:zh":"\u9b41\u5317\u514b","name:left:sq":"Toka e Re dhe Labradori","name:right:nn":"Quebec","name:left:uz":"Nyufaundlend va Labrador","name:right:nl":"Quebec","name:right:wa":"Kebek","name:left:sk":"Newfoundland a Labrador","name:left:ur":"\u0646\u06cc\u0648 \u0641\u0627\u0624\u0646\u0688 \u0644\u06cc\u0646\u0688 \u0627\u0648\u0631 \u0644\u06cc\u0628\u0631\u0627\u0688\u0648\u0631","id:right":-61549,"name:left:uk":"\u041d\u044c\u044e\u0444\u0430\u0443\u043d\u0434\u043b\u0435\u043d\u0434 \u0456 \u041b\u0430\u0431\u0440\u0430\u0434\u043e\u0440","name:left:no":"Newfoundland og Labrador","name:left:nl":"Newfoundland en Labrador","name:right:uz":"Kvebek","name:left:ug":"N\u00e9wfundland \u00d6lkisi","name:right:fi":"Quebec","name:left:eo":"Novlando kaj Labradoro","name:left:el":"\u039d\u03ad\u03b1 \u0393\u03b7 \u03ba\u03b1\u03b9 \u039b\u03b1\u03bc\u03c0\u03c1\u03b1\u03bd\u03c4\u03cc\u03c1","kind_detail":"4","name:left:pl":"Nowa Fundlandia i Labrador","name:left:es":"Terranova y Labrador","name:right:kk":"\u041a\u0432\u0435\u0431\u0435\u043a","name:left:eu":"Ternua eta Labrador","name:left:et":"Newfoundland ja Labrador","name:right:gu":"\u0a95\u0acd\u0ab5\u0abf\u0aac\u0ac7\u0a95","name:right:pt":"Quebec","name:left:mk":"\u040a\u0443\u0444\u0430\u0443\u043d\u0434\u043b\u0435\u043d\u0434 \u0438 \u041b\u0430\u0431\u0440\u0430\u0434\u043e\u0440","name:left:tr":"Newfoundland ve Labrador","name:left:mn":"\u041d\u044c\u044e\u0444\u0430\u0443\u043d\u0434\u043b\u0435\u043d\u0434 \u0431\u0430 \u041b\u0430\u0431\u0440\u0430\u0434\u043e\u0440","name:right:oc":"Queb\u00e8c","name:left:th":"\u0e23\u0e31\u0e10\u0e19\u0e34\u0e27\u0e1f\u0e31\u0e19\u0e14\u0e4c\u0e41\u0e25\u0e19\u0e14\u0e4c\u0e41\u0e25\u0e30\u0e41\u0e25\u0e1a\u0e23\u0e32\u0e14\u0e2d\u0e23\u0e4c","name:right:pa":"\u0a15\u0a47\u0a2c\u0a48\u0a71\u0a15","name:left:tl":"Newfoundland at Labrador","name:left:ta":"\u0ba8\u0bbf\u0baf\u0bc2\u0b83\u0baa\u0bb5\u0bc1\u0ba9\u0bcd\u0bb2\u0bbe\u0ba8\u0bcd\u0ba4\u0bc1 \u0bae\u0bb1\u0bcd\u0bb1\u0bc1\u0bae\u0bcd \u0bb2\u0bbe\u0baa\u0bcd\u0bb0\u0b9f\u0bcb\u0bb0\u0bcd","name:right:pl":"Quebec","name:right:os":"\u041a\u0432\u0435\u0431\u0435\u043a","name:left:ms":"Newfoundland dan Labrador","name:right:ka":"\u10d9\u10d5\u10d4\u10d1\u10d4\u10d9\u10d8","name:left:mr":"\u0928\u094d\u092f\u0942\u092b\u093e\u0909\u0902\u0921\u0932\u0902\u0921 \u0906\u0923\u093f \u0932\u093e\u092c\u094d\u0930\u093e\u0921\u094b\u0930","name:left:da":"Newfoundland og Labrador","name:left:de":"Neufundland und Labrador","name:right:ug":"Kw\u00e9b\u00e9k","name:right:la":"Quebecum","name:right:uk":"\u041a\u0432\u0435\u0431\u0435\u043a","name:left:he":"\u05e0\u05d9\u05d5\u05e4\u05d0\u05d5\u05e0\u05d3\u05dc\u05e0\u05d3 \u05d5\u05dc\u05d1\u05e8\u05d3\u05d5\u05e8","name:right:ln":"K\u00e9beki","name:right:lo":"\u0ec1\u0e82\u0ea7\u0e87\u0ec0\u0e81\u0ec1\u0e9a\u0eb1\u0e81","name:right:lt":"Kvebekas","name:right:ur":"\u06a9\u06cc\u0648\u0628\u06cc\u06a9","min_zoom":8.0,"name:left:hy":"\u0546\u0575\u0578\u0582\u0586\u0561\u0578\u0582\u0576\u0564\u056c\u0565\u0576\u0564 \u0587 \u053c\u0561\u0562\u0580\u0561\u0564\u0578\u0580","name:right:gl":"Quebec","name:left:hu":"\u00daj-Fundland \u00e9s Labrador","name:left:hr":"Newfoundland i Labrador","name:left:ga":"Talamh an \u00c9isc agus Labradar","name:left:gd":"An Talamh \u00d9r is Labrador","sort_rank":256,"name:right:gd":"Quebec","name:left:gl":"Terra Nova e Labrador","osm_relation":true,"name:left:gv":"Thalloo yn Eeast as Labrador","name:left":"Newfoundland and Labrador","name:right:es":"Quebec","name:right:mi":"Quebec","name:left:ja":"\u30cb\u30e5\u30fc\u30d5\u30a1\u30f3\u30c9\u30e9\u30f3\u30c9\u30fb\u30e9\u30d6\u30e9\u30c9\u30fc\u30eb\u5dde","name:right:mn":"\u041a\u044d\u0431\u044d\u043a","name:right:eu":"Quebec","name:right:ml":"\u0d15\u0d4d\u0d2f\u0d42\u0d2c\u0d46\u0d15\u0d4d","name:left:os":"\u041d\u044c\u044e\u0444\u0430\u0443\u043d\u0434\u043b\u0435\u043d\u0434 \u00e6\u043c\u00e6 \u041b\u0430\u0431\u0440\u0430\u0434\u043e\u0440","name:right:ms":"Quebec","name:left:vo":"Newfoundland e Labrador","name:left:oc":"T\u00e8rran\u00f2va e Labrador","name:right:fy":"Kebek","name:right:eo":"Kebekio","name:right:en":"Quebec","name:left:vi":"Newfoundland v\u00e0 Labrador","name:left:nn":"Newfoundland og Labrador","kind":"region","name:left:fa":"\u0646\u06cc\u0648\u0641\u0627\u0646\u062f\u0644\u0646\u062f \u0648 \u0644\u0627\u0628\u0631\u0627\u062f\u0648\u0631","name:left:fo":"N\u00fdfundland og Labrador","name:left:qu":"Newfoundland wan Labrador pruwinsya","name:left:fi":"Newfoundland ja Labrador","name:left:fr":"Terre-Neuve et Labrador","name:left:fy":"Nijf\u00fbnl\u00e2n en Labrador","name:left:br":"Douar-Nevez ha Labrador","name:left:bs":"Newfoundland i Labrador","name:right:ja":"\u30b1\u30d9\u30c3\u30af\u5dde","name:right:sq":"Kebeku","name:right:sr":"\u041a\u0432\u0435\u0431\u0435\u043a","name:right:su":"Quebec","name:right:sw":"Quebec","name:right:sk":"Quebec","name:right:jv":"Quebec","name:left:bg":"\u041d\u044e\u0444\u0430\u0443\u043d\u0434\u043b\u0435\u043d\u0434 \u0438 \u041b\u0430\u0431\u0440\u0430\u0434\u043e\u0440","name:left:be":"\u041f\u0440\u0430\u0432\u0456\u043d\u0446\u044b\u044f \u041d\u044c\u044e\u0444\u0430\u045e\u043d\u0434\u043b\u0435\u043d\u0434 \u0456 \u041b\u0430\u0431\u0440\u0430\u0434\u043e\u0440","id":-391196,"name:right":"Qu\u00e9bec","name:right:co":"Quebec","name:right:ca":"Quebec","name:left:yo":"Newfoundland \u00e0ti Labrador","name:left:yi":"\u05e0\u05d9\u05d9\u05e4\u05d5\u05e0\u05d3\u05dc\u05d0\u05e0\u05d3 \u05d0\u05d5\u05df \u05dc\u05d0\u05d1\u05e8\u05d0\u05d3\u05d0\u05e8","id:left":-391196,"name:right:cs":"Quebec","name:right:cr":"\u146f\u142f\u1483","name:right:iu":"\u146f\u1438\u1403\u1483","name:right:mk":"\u041a\u0432\u0435\u0431\u0435\u043a","name:left:io":"Newfoundland e Labrador","name:left:ar":"\u0646\u064a\u0648\u0641\u0627\u0648\u0646\u062f\u0644\u0627\u0646\u062f \u0648\u0627\u0644\u0644\u0627\u0628\u0631\u0627\u062f\u0648\u0631","name:right:tt":"\u041a\u0432\u0435\u0431\u0435\u043a","name:left:ie":"Nov-Fundland e Labrador","name:left:id":"Newfoundland dan Labrador","name:left:az":"Nyufaundlend v\u0259 Labrador","name:right:ko":"\ud018\ubca1","name:right:kn":"\u0c95\u0ccd\u0cb5\u0cbf\u0cac\u0cc6\u0c95\u0ccd","name:left:pt":"Terra Nova e Labrador","name:left:af":"Newfoundland en Labrador","name:right:th":"\u0e23\u0e31\u0e10\u0e04\u0e27\u0e34\u0e40\u0e1a\u0e01","name:right:kw":"Kebek","name:left:it":"Terranova e Labrador","name:left:is":"N\u00fdfundnaland og Labrador","name:right:ta":"\u0b95\u0bbf\u0baf\u0bc2\u0baa\u0bc6\u0b95\u0bcd","maritime_boundary":true,"name:left:pa":"\u0a28\u0a3f\u0a0a\u0a2b\u0a3c\u0a70\u0a21\u0a32\u0a48\u0a02\u0a21 \u0a05\u0a24\u0a47 \u0a32\u0a3e\u0a2c\u0a30\u0a3e\u0a21\u0a4b\u0a30"},"arcs":[3]},{"type":"LineString","properties":{"name:pt":"Terra Nova e Labrador","name:ka":"\u10dc\u10d8\u10e3\u10e4\u10d0\u10e3\u10dc\u10d3\u10da\u10d4\u10dc\u10d3\u10d8 \u10d3\u10d0 \u10da\u10d0\u10d1\u10e0\u10d0\u10d3\u10dd\u10e0\u10d8","name:ko":"\ub274\ud380\ub4e4\ub79c\ub4dc \ub798\ube0c\ub77c\ub3c4 \uc8fc","name:kl":"Newfoundland aamma Labrador","name:cs":"Newfoundland a Labrador","name:kw":"Tir Nowydh ha Labrador","name:th":"\u0e23\u0e31\u0e10\u0e19\u0e34\u0e27\u0e1f\u0e31\u0e19\u0e14\u0e4c\u0e41\u0e25\u0e19\u0e14\u0e4c\u0e41\u0e25\u0e30\u0e41\u0e25\u0e1a\u0e23\u0e32\u0e14\u0e2d\u0e23\u0e4c","name:az":"Nyufaundlend v\u0259 Labrador","name:tl":"Newfoundland at Labrador","name:pa":"\u0a28\u0a3f\u0a0a\u0a2b\u0a3c\u0a70\u0a21\u0a32\u0a48\u0a02\u0a21 \u0a05\u0a24\u0a47 \u0a32\u0a3e\u0a2c\u0a30\u0a3e\u0a21\u0a4b\u0a30","name:os":"\u041d\u044c\u044e\u0444\u0430\u0443\u043d\u0434\u043b\u0435\u043d\u0434 \u00e6\u043c\u00e6 \u041b\u0430\u0431\u0440\u0430\u0434\u043e\u0440","name:pl":"Nowa Fundlandia i Labrador","name:ta":"\u0ba8\u0bbf\u0baf\u0bc2\u0b83\u0baa\u0bb5\u0bc1\u0ba9\u0bcd\u0bb2\u0bbe\u0ba8\u0bcd\u0ba4\u0bc1 \u0bae\u0bb1\u0bcd\u0bb1\u0bc1\u0bae\u0bcd \u0bb2\u0bbe\u0baa\u0bcd\u0bb0\u0b9f\u0bcb\u0bb0\u0bcd","name:ca":"Terranova i Labrador","name:cy":"Newfoundland a Labrador","source":"openstreetmap.org","sort_rank":256,"name:qu":"Newfoundland wan Labrador pruwinsya","name:da":"Newfoundland og Labrador","name:de":"Neufundland und Labrador","name:tr":"Newfoundland ve Labrador","name:sq":"Toka e Re dhe Labradori","name:be":"\u041f\u0440\u0430\u0432\u0456\u043d\u0446\u044b\u044f \u041d\u044c\u044e\u0444\u0430\u045e\u043d\u0434\u043b\u0435\u043d\u0434 \u0456 \u041b\u0430\u0431\u0440\u0430\u0434\u043e\u0440","name:lv":"\u0145\u016bfaundlenda un Labradora","name:lt":"Niufaundlandas ir Labradoras","name:uz":"Nyufaundlend va Labrador","name:he":"\u05e0\u05d9\u05d5\u05e4\u05d0\u05d5\u05e0\u05d3\u05dc\u05e0\u05d3 \u05d5\u05dc\u05d1\u05e8\u05d3\u05d5\u05e8","name:eo":"Novlando kaj Labradoro","name:ur":"\u0646\u06cc\u0648 \u0641\u0627\u0624\u0646\u0688 \u0644\u06cc\u0646\u0688 \u0627\u0648\u0631 \u0644\u06cc\u0628\u0631\u0627\u0688\u0648\u0631","name:lb":"Neifundland a Labrador","name:la":"Terra Nova et Terra Laboratoria","name:uk":"\u041d\u044c\u044e\u0444\u0430\u0443\u043d\u0434\u043b\u0435\u043d\u0434 \u0456 \u041b\u0430\u0431\u0440\u0430\u0434\u043e\u0440","name:hy":"\u0546\u0575\u0578\u0582\u0586\u0561\u0578\u0582\u0576\u0564\u056c\u0565\u0576\u0564 \u0587 \u053c\u0561\u0562\u0580\u0561\u0564\u0578\u0580","name:ug":"N\u00e9wfundland \u00d6lkisi","name:hu":"\u00daj-Fundland \u00e9s Labrador","name:hr":"Newfoundland i Labrador","name:oc":"T\u00e8rran\u00f2va e Labrador","name:el":"\u039d\u03ad\u03b1 \u0393\u03b7 \u03ba\u03b1\u03b9 \u039b\u03b1\u03bc\u03c0\u03c1\u03b1\u03bd\u03c4\u03cc\u03c1","kind":"region","name":"Newfoundland and Labrador","min_zoom":8.0,"name:eu":"Ternua eta Labrador","name:et":"Newfoundland ja Labrador","name:es":"Terranova y Labrador","name:ro":"Newfoundland \u0219i Labrador","name:ie":"Nov-Fundland e Labrador","name:id":"Newfoundland dan Labrador","name:ms":"Newfoundland dan Labrador","name:mr":"\u0928\u094d\u092f\u0942\u092b\u093e\u0909\u0902\u0921\u0932\u0902\u0921 \u0906\u0923\u093f \u0932\u093e\u092c\u094d\u0930\u093e\u0921\u094b\u0930","name:ar":"\u0646\u064a\u0648\u0641\u0627\u0648\u0646\u062f\u0644\u0627\u0646\u062f \u0648\u0627\u0644\u0644\u0627\u0628\u0631\u0627\u062f\u0648\u0631","name:io":"Newfoundland e Labrador","name:is":"N\u00fdfundnaland og Labrador","name:it":"Terranova e Labrador","name:ru":"\u041d\u044c\u044e\u0444\u0430\u0443\u043d\u0434\u043b\u0435\u043d\u0434 \u0438 \u041b\u0430\u0431\u0440\u0430\u0434\u043e\u0440","name:vi":"Newfoundland v\u00e0 Labrador","name:mn":"\u041d\u044c\u044e\u0444\u0430\u0443\u043d\u0434\u043b\u0435\u043d\u0434 \u0431\u0430 \u041b\u0430\u0431\u0440\u0430\u0434\u043e\u0440","id":-391196,"name:mk":"\u040a\u0443\u0444\u0430\u0443\u043d\u0434\u043b\u0435\u043d\u0434 \u0438 \u041b\u0430\u0431\u0440\u0430\u0434\u043e\u0440","name:af":"Newfoundland en Labrador","name:fa":"\u0646\u06cc\u0648\u0641\u0627\u0646\u062f\u0644\u0646\u062f \u0648 \u0644\u0627\u0628\u0631\u0627\u062f\u0648\u0631","kind_detail":"4","name:fo":"N\u00fdfundland og Labrador","name:fr":"Terre-Neuve et Labrador","name:fy":"Nijf\u00fbnl\u00e2n en Labrador","name:vo":"Newfoundland e Labrador","name:zh":"\u7d10\u82ac\u862d\u8207\u62c9\u5e03\u62c9\u591a\u7701","name:sl":"Nova Fundlandija in Labrador","name:nl":"Newfoundland en Labrador","name:ja":"\u30cb\u30e5\u30fc\u30d5\u30a1\u30f3\u30c9\u30e9\u30f3\u30c9\u30fb\u30e9\u30d6\u30e9\u30c9\u30fc\u30eb\u5dde","name:nn":"Newfoundland og Labrador","name:no":"Newfoundland og Labrador","name:sc":"Terranova e Labrador","name:br":"Douar-Nevez ha Labrador","name:bs":"Newfoundland i Labrador","name:yi":"\u05e0\u05d9\u05d9\u05e4\u05d5\u05e0\u05d3\u05dc\u05d0\u05e0\u05d3 \u05d0\u05d5\u05df \u05dc\u05d0\u05d1\u05e8\u05d0\u05d3\u05d0\u05e8","name:sk":"Newfoundland a Labrador","name:sv":"Newfoundland och Labrador","name:bg":"\u041d\u044e\u0444\u0430\u0443\u043d\u0434\u043b\u0435\u043d\u0434 \u0438 \u041b\u0430\u0431\u0440\u0430\u0434\u043e\u0440","name:sr":"\u040a\u0443\u0444\u0430\u0443\u043d\u0434\u043b\u0435\u043d\u0434 \u0438 \u041b\u0430\u0431\u0440\u0430\u0434\u043e\u0440","osm_relation":true,"name:ga":"Talamh an \u00c9isc agus Labradar","name:gd":"An Talamh \u00d9r is Labrador","name:yo":"Newfoundland \u00e0ti Labrador","name:gl":"Terra Nova e Labrador","maritime_boundary":true,"name:gv":"Thalloo yn Eeast as Labrador","name:fi":"Newfoundland ja Labrador"},"arcs":[4]},{"type":"LineString","properties":{"name:left:la":"Nunavut","name:right:qu":"Quebec pruwinsya","name:right:yi":"\u05e7\u05d5\u05d5\u05d9\u05d1\u05e2\u05e7","name:right:hy":"\u0554\u057e\u0565\u0562\u0565\u056f","name:left:sw":"Nunavut","name:left:sv":"Nunavut","name:right:ht":"Keb\u00e8k","name:left:lb":"Nunavut","name:left:sr":"\u041d\u0443\u043d\u0430\u0432\u0443\u0442","name:right:hi":"\u0915\u094d\u092f\u0942\u092c\u0947\u0915","name:left:lt":"Nunavutas","name:left:lv":"Nunavuta","name:right:mr":"\u0915\u094d\u0935\u0947\u092c\u0947\u0915","name:right:he":"\u05e7\u05d5\u05d5\u05d9\u05d1\u05e7","name:left:sc":"Nunavut","name:right:af":"Quebec","name:right:am":"\u12ac\u1260\u12ad","name:left:ca":"Nunavut","source":"openstreetmap.org","name:left:cy":"Nunavut","name:right:ar":"\u0643\u064a\u0628\u0643","name:right:el":"\u039a\u03b5\u03bc\u03c0\u03ad\u03ba","name:right:az":"\u0729\u071d\u0712\u0729","name:left:cs":"Nunavut","name:left:ka":"\u10dc\u10e3\u10dc\u10d0\u10d5\u10e3\u10e2\u10d8","name:left:kl":"Nunavut","name:left:ko":"\ub204\ub098\ubd80\ud2b8 \uc900\uc8fc","name:left:ro":"Nunavut","name:left:kk":"\u041d\u0443\u043d\u0430\u0432\u0443\u0442","name:right:ru":"\u041a\u0432\u0435\u0431\u0435\u043a","name:right:io":"Kebekia","name:left:kw":"Nunavut","name:left:ru":"\u041d\u0443\u043d\u0430\u0432\u0443\u0442","name:right:id":"Quebec","name:right:bn":"\u0995\u09bf\u0989\u09ac\u09c7\u0995","name":"\u14c4\u14c7\u1557\u1466 Nunavut - Qu\u00e9bec","name:left:sl":"Nunavut","name:right:lv":"Kvebeka","name:right:fa":"\u06a9\u0628\u06a9","name:right:bg":"\u041a\u0432\u0435\u0431\u0435\u043a","name:right:be":"\u041f\u0440\u0430\u0432\u0456\u043d\u0446\u044b\u044f \u041a\u0432\u0435\u0431\u0435\u043a","name:left:zh":"\u52aa\u7d0d\u6b66\u7279\u5730\u5340","name:right:br":"Kebek","name:right:zh":"\u9b41\u5317\u514b","name:left:sq":"Nunavut","name:right:nn":"Quebec","name:left:uz":"Nunavut","name:right:nl":"Quebec","name:right:wa":"Kebek","name:left:sk":"Nunavut","name:left:ur":"\u0646\u0646\u0627\u0648\u062a","id:right":-61549,"name:left:uk":"\u041d\u0443\u043d\u0430\u0432\u0443\u0442","name:left:no":"Nunavut","name:left:nl":"Nunavut","name:right:uz":"Kvebek","name:right:fi":"Quebec","name:left:eo":"Nunavuto","name:left:en":"Nunavut","name:left:el":"\u039d\u03bf\u03cd\u03bd\u03b1\u03b2\u03bf\u03c5\u03c4","kind_detail":"4","name:left:pl":"Nunavut","name:left:es":"Nunavut","name:left:eu":"Nunavut","name:left:et":"Nunavut","name:right:gu":"\u0a95\u0acd\u0ab5\u0abf\u0aac\u0ac7\u0a95","name:right:pt":"Quebec","name:left:mk":"\u041d\u0443\u043d\u0430\u0432\u0443\u0442","name:left:tr":"Nunavut","name:left:mn":"\u041d\u0443\u043d\u0430\u0432\u0443\u0442","name:right:oc":"Queb\u00e8c","name:left:th":"\u0e19\u0e39\u0e19\u0e32\u0e27\u0e38\u0e15","name:right:pa":"\u0a15\u0a47\u0a2c\u0a48\u0a71\u0a15","name:left:tl":"Nunavut","name:left:ta":"\u0ba8\u0bc2\u0ba9\u0bb5\u0bc1\u0b9f\u0bcd","name:right:pl":"Quebec","name:right:os":"\u041a\u0432\u0435\u0431\u0435\u043a","name:left:ms":"Nunavut","name:right:ka":"\u10d9\u10d5\u10d4\u10d1\u10d4\u10d9\u10d8","name:left:mr":"\u0928\u0941\u0928\u093e\u0935\u094d\u0939\u0941\u0924","name:left:da":"Nunavut","name:left:de":"Nunavut","name:right:ug":"Kw\u00e9b\u00e9k","name:right:la":"Quebecum","name:right:uk":"\u041a\u0432\u0435\u0431\u0435\u043a","name:left:he":"\u05e0\u05d5\u05e0\u05d0\u05d5\u05d5\u05d8","name:right:ln":"K\u00e9beki","name:right:lo":"\u0ec1\u0e82\u0ea7\u0e87\u0ec0\u0e81\u0ec1\u0e9a\u0eb1\u0e81","name:right:lt":"Kvebekas","name:right:ur":"\u06a9\u06cc\u0648\u0628\u06cc\u06a9","min_zoom":8.0,"name:left:hy":"\u0546\u0578\u0582\u0576\u0561\u057e\u0578\u0582\u057f","name:right:gl":"Quebec","name:left:hu":"Nunavut","name:left:hr":"Nunavut","name:left:ga":"Nunavut","name:left:gd":"Nunavut","sort_rank":256,"name:right:gd":"Quebec","name:left:gl":"Nunavut","osm_relation":true,"name:left:gv":"Nunavut","name:left":"\u14c4\u14c7\u1557\u1466 Nunavut","name:right:es":"Quebec","name:right:mi":"Quebec","name:left:ja":"\u30cc\u30ca\u30d6\u30c8\u6e96\u5dde","name:right:mn":"\u041a\u044d\u0431\u044d\u043a","name:right:eu":"Quebec","name:right:ml":"\u0d15\u0d4d\u0d2f\u0d42\u0d2c\u0d46\u0d15\u0d4d","name:left:os":"\u041d\u0443\u043d\u0430\u0432\u0443\u0442","name:right:ms":"Quebec","name:left:vo":"Nunavut","name:left:oc":"Nunavut","name:right:fy":"Kebek","name:right:eo":"Kebekio","name:right:en":"Quebec","name:left:vi":"Nunavut","name:left:nn":"Nunavut","kind":"region","name:left:fa":"\u0646\u0648\u0646\u0627\u0648\u0648\u062a","name:left:fo":"Nunavut","name:left:fi":"Nunavut","name:left:fr":"Nunavut","name:left:fy":"N\u00fbnav\u00fbt","name:left:br":"Nunavut","name:left:bs":"Nunavut","name:right:ja":"\u30b1\u30d9\u30c3\u30af\u5dde","name:right:sq":"Kebeku","name:right:sr":"\u041a\u0432\u0435\u0431\u0435\u043a","name:right:su":"Quebec","name:right:sw":"Quebec","name:right:sk":"Quebec","name:right:jv":"Quebec","name:left:bg":"\u041d\u0443\u043d\u0430\u0432\u0443\u0442","name:left:be":"\u041d\u0443\u043d\u0430\u0432\u0443\u0442","id":-390840,"name:right":"Qu\u00e9bec","name:right:co":"Quebec","name:right:ca":"Quebec","id:left":-390840,"name:right:cs":"Quebec","name:right:cr":"\u146f\u142f\u1483","name:right:iu":"\u146f\u1438\u1403\u1483","name:right:mk":"\u041a\u0432\u0435\u0431\u0435\u043a","name:left:io":"Nunavut","name:left:ar":"\u0646\u0648\u0646\u0627\u0641\u0648\u062a","name:right:tt":"\u041a\u0432\u0435\u0431\u0435\u043a","name:right:kk":"\u041a\u0432\u0435\u0431\u0435\u043a","name:left:id":"Nunavut","name:left:az":"Nunavut","name:right:ko":"\ud018\ubca1","name:right:kn":"\u0c95\u0ccd\u0cb5\u0cbf\u0cac\u0cc6\u0c95\u0ccd","name:left:pt":"Nunavut","name:left:af":"Nunavut","name:right:th":"\u0e23\u0e31\u0e10\u0e04\u0e27\u0e34\u0e40\u0e1a\u0e01","name:right:kw":"Kebek","name:left:iu":"\u14c4\u14c7\u1557\u1466","name:left:it":"Nunavut","name:left:is":"N\u00fanav\u00fat","name:right:ta":"\u0b95\u0bbf\u0baf\u0bc2\u0baa\u0bc6\u0b95\u0bcd","maritime_boundary":true,"name:left:pa":"\u0a28\u0a42\u0a28\u0a3e\u0a35\u0a41\u0a24"},"arcs":[5]},{"type":"LineString","properties":{"name:pt":"Nunavut","name:ka":"\u10dc\u10e3\u10dc\u10d0\u10d5\u10e3\u10e2\u10d8","name:ko":"\ub204\ub098\ubd80\ud2b8 \uc900\uc8fc","name:kl":"Nunavut","name:kk":"\u041d\u0443\u043d\u0430\u0432\u0443\u0442","name:kw":"Nunavut","name:th":"\u0e19\u0e39\u0e19\u0e32\u0e27\u0e38\u0e15","name:az":"Nunavut","name:tl":"Nunavut","name:pa":"\u0a28\u0a42\u0a28\u0a3e\u0a35\u0a41\u0a24","name:os":"\u041d\u0443\u043d\u0430\u0432\u0443\u0442","name:pl":"Nunavut","name:ta":"\u0ba8\u0bc2\u0ba9\u0bb5\u0bc1\u0b9f\u0bcd","name:ca":"Nunavut","name:cy":"Nunavut","source":"openstreetmap.org","sort_rank":256,"name:da":"Nunavut","name:de":"Nunavut","name:tr":"Nunavut","name:sq":"Nunavut","name:be":"\u041d\u0443\u043d\u0430\u0432\u0443\u0442","name:lv":"Nunavuta","name:lt":"Nunavutas","name:uz":"Nunavut","name:cs":"Nunavut","name:he":"\u05e0\u05d5\u05e0\u05d0\u05d5\u05d5\u05d8","name:eo":"Nunavuto","name:ur":"\u0646\u0646\u0627\u0648\u062a","name:lb":"Nunavut","name:la":"Nunavut","name:uk":"\u041d\u0443\u043d\u0430\u0432\u0443\u0442","name:hy":"\u0546\u0578\u0582\u0576\u0561\u057e\u0578\u0582\u057f","name:hu":"Nunavut","name:hr":"Nunavut","name:oc":"Nunavut","name:el":"\u039d\u03bf\u03cd\u03bd\u03b1\u03b2\u03bf\u03c5\u03c4","kind":"region","name:en":"Nunavut","name":"\u14c4\u14c7\u1557\u1466 Nunavut","min_zoom":8.0,"name:eu":"Nunavut","name:et":"Nunavut","name:es":"Nunavut","name:ro":"Nunavut","name:id":"Nunavut","name:ms":"Nunavut","name:mr":"\u0928\u0941\u0928\u093e\u0935\u094d\u0939\u0941\u0924","name:ar":"\u0646\u0648\u0646\u0627\u0641\u0648\u062a","name:io":"Nunavut","name:is":"N\u00fanav\u00fat","name:iu":"\u14c4\u14c7\u1557\u1466","name:it":"Nunavut","name:ru":"\u041d\u0443\u043d\u0430\u0432\u0443\u0442","name:vi":"Nunavut","name:mn":"\u041d\u0443\u043d\u0430\u0432\u0443\u0442","id":-390840,"name:mk":"\u041d\u0443\u043d\u0430\u0432\u0443\u0442","name:af":"Nunavut","name:fa":"\u0646\u0648\u0646\u0627\u0648\u0648\u062a","kind_detail":"4","name:fo":"Nunavut","name:fr":"Nunavut","name:fy":"N\u00fbnav\u00fbt","name:vo":"Nunavut","name:zh":"\u52aa\u7d0d\u6b66\u7279\u5730\u5340","name:sl":"Nunavut","name:nl":"Nunavut","name:ja":"\u30cc\u30ca\u30d6\u30c8\u6e96\u5dde","name:nn":"Nunavut","name:no":"Nunavut","name:sc":"Nunavut","name:br":"Nunavut","name:bs":"Nunavut","name:sk":"Nunavut","name:sw":"Nunavut","name:sv":"Nunavut","name:bg":"\u041d\u0443\u043d\u0430\u0432\u0443\u0442","name:sr":"\u041d\u0443\u043d\u0430\u0432\u0443\u0442","osm_relation":true,"name:ga":"Nunavut","name:gd":"Nunavut","name:gl":"Nunavut","maritime_boundary":true,"name:gv":"Nunavut","name:fi":"Nunavut"},"arcs":[6]}]},"roads":{"type":"GeometryCollection","geometries":[]},"earth":{"type":"GeometryCollection","geometries":[{"type":"MultiPolygon","properties":{"sort_rank":10,"source":"naturalearthdata.com","min_zoom":0.0,"kind":"earth","area":1154073996},"arcs":[[[16]],[[17]],[[18]],[[19]]]}]},"landuse":{"type":"GeometryCollection","geometries":[]}},"type":"Topology","transform":{"translate":[-64.6875,60.23981117],"scale":[0.0003433228,0.0001686087]},"arcs":[[[2399,0],[-34,209],[-66,201],[-145,249],[-227,238],[-47,261],[-108,251],[12,93],[-291,1371],[-170,1223]],[[751,818],[-180,-30],[-124,-187],[48,-218]],[[484,368],[-24,-31],[-150,70],[-47,-46],[-169,-35],[-94,23]],[[495,383],[-11,-15]],[[898,0],[6,46],[-79,28],[-18,74],[94,169],[-123,79],[-75,320],[46,19],[-34,47],[36,36]],[[0,678],[176,-45],[87,-50],[232,-200]],[[751,818],[230,21],[762,339],[41,324],[-291,1371],[-170,1223]],[[0,4096],[4096,0],[0,-4096],[-3494,0],[-13,2],[-156,151],[-54,25],[-174,16],[-101,-50],[-104,-80],[0,145],[19,19],[129,88],[145,-1],[267,-121],[122,-130],[80,-47],[79,-15],[53,30],[-105,86],[-47,59],[-40,76],[-52,51],[-195,76],[-42,16],[-152,135],[-36,49],[-50,54],[-143,20],[-32,16],[0,47],[120,-9],[77,-25],[75,-44],[218,-167],[138,-106],[132,-91],[-22,92],[-40,74],[-86,117],[0,44],[15,21],[9,18],[7,20],[10,22],[61,50],[19,28],[10,27],[6,16],[19,68],[4,64],[-29,27],[-160,0],[-22,-22],[-88,-136],[-19,0],[8,126],[-1,103],[-30,70],[-78,29],[17,110],[-27,51],[-52,10],[-57,-13],[17,67],[-29,49],[-48,42],[-40,48],[-53,-46],[-67,-25],[-14,-2],[0,648],[84,95],[96,56],[49,92],[34,119],[9,116],[-2,44],[2,38],[-14,29],[-33,10],[-21,-21],[-51,-141],[-153,-258],[0,1845]],[[0,628],[12,-13],[21,-57],[-31,7],[-2,1],[0,62]],[[0,566],[2,-1],[31,-7],[-21,57],[-12,13]],[[0,670],[32,-16],[143,-20],[50,-54],[36,-49],[152,-135],[42,-16],[195,-76],[52,-51],[40,-76],[47,-59],[105,-86],[-53,-30],[-79,15],[-80,47],[-122,130],[-267,121],[-145,1],[-129,-88],[-19,-19]],[[0,64],[104,80],[101,50],[174,-16],[54,-25],[156,-151],[13,-2]],[[225,2671],[-21,-21],[-51,-141],[-153,-258]],[[0,2072],[84,95],[96,56],[49,92],[34,119],[9,116],[-2,44],[2,38],[-14,29],[-33,10]],[[612,558],[0,44],[15,21],[9,18],[7,20],[10,22],[61,50],[19,28],[10,27],[6,16],[19,68],[4,64],[-29,27],[-160,0],[-22,-22],[-88,-136],[-19,0],[8,126],[-1,103],[-30,70],[-78,29],[17,110],[-27,51],[-52,10],[-57,-13],[17,67],[-29,49],[-48,42],[-40,48],[-53,-46],[-67,-25],[-14,-2]],[[0,717],[120,-9],[77,-25],[75,-44],[218,-167],[138,-106],[132,-91],[-22,92],[-40,74],[-86,117]],[[0,64],[104,80],[101,50],[174,-16],[54,-25],[156,-151],[13,-2],[-602,0],[0,64]],[[84,2167],[-84,-95],[0,179],[153,258],[51,141],[21,21],[33,-10],[14,-29],[-2,-38],[2,-44],[-9,-116],[-34,-119],[-49,-92],[-96,-56]],[[0,566],[2,-1],[31,-7],[-21,57],[-12,13],[0,42],[32,-16],[143,-20],[50,-54],[36,-49],[152,-135],[42,-16],[195,-76],[52,-51],[40,-76],[47,-59],[105,-86],[-53,-30],[-79,15],[-80,47],[-122,130],[-267,121],[-145,1],[-129,-88],[-19,-19],[0,357]],[[174,1449],[48,-42],[29,-49],[-17,-67],[57,13],[52,-10],[27,-51],[-17,-110],[78,-29],[30,-70],[1,-103],[-8,-126],[19,0],[88,136],[22,22],[160,0],[29,-27],[-4,-64],[-19,-68],[-6,-16],[-10,-27],[-19,-28],[-61,-50],[-10,-22],[-7,-20],[-9,-18],[-15,-21],[0,-44],[86,-117],[40,-74],[22,-92],[-132,91],[-138,106],[-218,167],[-75,44],[-77,25],[-120,9],[0,707],[14,2],[67,25],[53,46],[40,-48]]]}