{"objects":{"water":{"type":"GeometryCollection","geometries":[{"type":"MultiPolygon","properties":{"source":"naturalearthdata.com","kind":"ocean","area":1576712559132672,"sort_rank":200,"min_zoom":0.0,"id":1},"arcs":[[[2]]]},{"type":"LineString","properties":{"source":"naturalearthdata.com","kind":"ocean","sort_rank":205,"boundary":true,"min_zoom":0.0,"id":67},"arcs":[3]},{"type":"LineString","properties":{"source":"naturalearthdata.com","kind":"ocean","sort_rank":205,"boundary":true,"min_zoom":0.0,"id":2591},"arcs":[4]}]},"buildings":{"type":"GeometryCollection","geometries":[]},"places":{"type":"GeometryCollection","geometries":[{"type":"Point","properties":{"source":"naturalearthdata.com","kind":"locality","name":"Gaspe","population":3677,"min_zoom":6.0,"id":6081},"coordinates":[565,3722]},{"type":"Point","properties":{"kind":"locality","name":"Gasp\u00e9","kind_detail":"city","source":"openstreetmap.org","min_zoom":8.0,"name:uk":"\u0490\u0430\u0441\u043f\u0435","name:ru":"\u0413\u0430\u0441\u043f\u0435","id":302860561,"population":15163},"coordinates":[584,3691]},{"type":"Point","properties":{"source":"openstreetmap.org","kind":"locality","name":"Chandler","kind_detail":"town","population":7546,"min_zoom":8.0,"id":302966876},"coordinates":[27,1575]}]},"transit":{"type":"GeometryCollection","geometries":[]},"pois":{"type":"GeometryCollection","geometries":[{"type":"Point","properties":{"kind":"national_park","protect_class":"2","area":12728900,"source":"openstreetmap.org","min_zoom":8.96,"tier":1,"id":-6989318,"osm_relation":true,"name":"Parc national de l'\u00cele-Bonaventure-et-du-Rocher-Perc\u00e9"},"coordinates":[1536,2221]}]},"boundaries":{"type":"GeometryCollection","geometries":[{"type":"LineString","properties":{"name:pt":"Novo Brunsvique","name:az":"Nyu-Brunsvik","name:ka":"\u10dc\u10d8\u10e3-\u10d1\u10e0\u10d0\u10dc\u10e1\u10e3\u10d8\u10d9\u10d8","name:mr":"\u0928\u094d\u092f\u0942 \u092c\u094d\u0930\u0941\u0928\u094d\u0938\u0935\u093f\u0915","name:ko":"\ub274\ube0c\ub7f0\uc988\uc705","name:ar":"\u0646\u064a\u0648 \u0628\u0631\u0627\u0646\u0632\u0648\u064a\u0643","name:cs":"Nov\u00fd Brun\u0161vik","name:kw":"Brunswick Nowydh","min_zoom":8.0,"name:ro":"Noul Brunswick","name:it":"Nuovo Brunswick","name:ru":"\u041d\u044c\u044e-\u0411\u0440\u0430\u043d\u0441\u0443\u0438\u043a","name:pl":"Nowy Brunszwik","name:mn":"\u041d\u044c\u044e-\u0411\u0440\u0430\u043d\u0441\u0432\u0438\u043a","id":-68942,"name:ca":"Nova Brunsvic","name:af":"Nieu-Brunswyk","name:fa":"\u0646\u06cc\u0648\u0628\u0631\u0627\u0646\u0632\u0648\u06cc\u06a9","source":"openstreetmap.org","sort_rank":256,"kind_detail":"4","name:de":"Neubraunschweig","name:oc":"N\u00f2u Brunswick","name:fr":"Nouveau-Brunswick","name:fy":"Nij-Brunswyk","name:zh":"\u65b0\u4f2f\u502b\u745e\u514b","name:sl":"Novi Brunswick","name:lv":"\u0145\u016bbransvika","name:ja":"\u30cb\u30e5\u30fc\u30d6\u30e9\u30f3\u30ba\u30a6\u30a3\u30c3\u30af\u5dde","name:lt":"Naujasis Bransvikas","name:sh":"Novi Brunswick","name:he":"\u05e0\u05d9\u05d5 \u05d1\u05e8\u05e0\u05d6\u05d5\u05d5\u05d9\u05e7","name:eo":"Nov-Brunsviko","name:br":"Brunswick Nevez","name:bs":"Novi Brunswick","name:la":"Novum Brunsvicum","name:uk":"\u041d\u044c\u044e-\u0411\u0440\u0430\u043d\u0441\u0432\u0456\u043a","name:bg":"\u041d\u044e \u0411\u0440\u044a\u043d\u0437\u0443\u0438\u043a","name:hr":"Novi Brunswick","name:sr":"\u040a\u0443 \u0411\u0440\u0430\u043d\u0441\u0432\u0438\u043a","osm_relation":true,"name:el":"\u039d\u03ad\u03b1 \u0392\u03c1\u03bf\u03c5\u03bd\u03c3\u03b2\u03af\u03ba\u03b7","kind":"region","name":"New Brunswick","name:gd":"Brunswick Nuadh","name:th":"\u0e23\u0e31\u0e10\u0e19\u0e34\u0e27\u0e1a\u0e23\u0e31\u0e19\u0e2a\u0e27\u0e34\u0e01","name:gl":"Nova Brunswick","maritime_boundary":true,"name:eu":"Brunswick Berria","name:es":"Nuevo Brunswick"},"arcs":[0]},{"type":"LineString","properties":{"name:pt":"Quebec","name:ka":"\u10d9\u10d5\u10d4\u10d1\u10d4\u10d9\u10d8","name:ko":"\ud018\ubca1","name:kn":"\u0c95\u0ccd\u0cb5\u0cbf\u0cac\u0cc6\u0c95\u0ccd","name:cs":"Quebec","name:cr":"\u146f\u142f\u1483","name:tt":"\u041a\u0432\u0435\u0431\u0435\u043a","name:kw":"Kebek","name:th":"\u0e23\u0e31\u0e10\u0e04\u0e27\u0e34\u0e40\u0e1a\u0e01","name:pa":"\u0a15\u0a47\u0a2c\u0a48\u0a71\u0a15","name:os":"\u041a\u0432\u0435\u0431\u0435\u043a","name:pl":"Quebec","name:ta":"\u0b95\u0bbf\u0baf\u0bc2\u0baa\u0bc6\u0b95\u0bcd","name:ug":"Kw\u00e9b\u00e9k","name:ca":"Quebec","sort_rank":256,"name:qu":"Quebec pruwinsya","name:mr":"\u0915\u094d\u0935\u0947\u092c\u0947\u0915","source":"openstreetmap.org","osm_relation":true,"name:lv":"Kvebeka","name:lt":"Kvebekas","name:hi":"\u0915\u094d\u092f\u0942\u092c\u0947\u0915","name:kk":"\u041a\u0432\u0435\u0431\u0435\u043a","name:he":"\u05e7\u05d5\u05d5\u05d9\u05d1\u05e7","name:eo":"Kebekio","name:ur":"\u06a9\u06cc\u0648\u0628\u06cc\u06a9","name:la":"Quebecum","name:uk":"\u041a\u0432\u0435\u0431\u0435\u043a","name:hy":"\u0554\u057e\u0565\u0562\u0565\u056f","name:ht":"Keb\u00e8k","name:ln":"K\u00e9beki","name:lo":"\u0ec1\u0e82\u0ea7\u0e87\u0ec0\u0e81\u0ec1\u0e9a\u0eb1\u0e81","name:oc":"Queb\u00e8c","name:co":"Quebec","kind":"region","name:en":"Quebec","name":"Qu\u00e9bec","name:bn":"\u0995\u09bf\u0989\u09ac\u09c7\u0995","min_zoom":8.0,"name:eu":"Quebec","name:am":"\u12ac\u1260\u12ad","name:es":"Quebec","name:az":"\u0729\u071d\u0712\u0729","name:id":"Quebec","name:ms":"Quebec","name:el":"\u039a\u03b5\u03bc\u03c0\u03ad\u03ba","name:ar":"\u0643\u064a\u0628\u0643","name:io":"Kebekia","name:iu":"\u146f\u1438\u1403\u1483","name:ml":"\u0d15\u0d4d\u0d2f\u0d42\u0d2c\u0d46\u0d15\u0d4d","name:ru":"\u041a\u0432\u0435\u0431\u0435\u043a","name:mn":"\u041a\u044d\u0431\u044d\u043a","name:mi":"Quebec","id":-61549,"name:mk":"\u041a\u0432\u0435\u0431\u0435\u043a","name:af":"Quebec","name:fa":"\u06a9\u0628\u06a9","kind_detail":"4","name:uz":"Kvebek","name:fy":"Kebek","name:zh":"\u9b41\u5317\u514b","name:nl":"Quebec","name:ja":"\u30b1\u30d9\u30c3\u30af\u5dde","name:nn":"Quebec","name:br":"Kebek","name:yi":"\u05e7\u05d5\u05d5\u05d9\u05d1\u05e2\u05e7","name:jv":"Quebec","name:sk":"Quebec","name:sw":"Quebec","name:be":"\u041f\u0440\u0430\u0432\u0456\u043d\u0446\u044b\u044f \u041a\u0432\u0435\u0431\u0435\u043a","name:su":"Quebec","name:bg":"\u041a\u0432\u0435\u0431\u0435\u043a","name:sr":"\u041a\u0432\u0435\u0431\u0435\u043a","name:sq":"Kebeku","name:gd":"Quebec","name:wa":"Kebek","name:gl":"Quebec","maritime_boundary":true,"name:gu":"\u0a95\u0acd\u0ab5\u0abf\u0aac\u0ac7\u0a95","name:fi":"Quebec"},"arcs":[1]}]},"roads":{"type":"GeometryCollection","geometries":[{"type":"MultiLineString","properties":{"kind":"major_road","network":"CA:QC:R","sort_rank":380,"kind_detail":"primary","source":"openstreetmap.org","min_zoom":8.0,"shield_text":"132","ref":"132"},"arcs":[[5],[6],[7],[8],[9],[10],[11],[12],[13],[14]]},{"type":"LineString","properties":{"source":"openstreetmap.org","kind":"ferry","sort_rank":355,"landuse_kind":"national_park","min_zoom":8.0,"id":119274630},"arcs":[15]},{"type":"LineString","properties":{"kind":"major_road","network":"CA:QC:R","sort_rank":380,"kind_detail":"primary","is_bicycle_related":true,"bicycle_shield_text":"1","bicycle_network":"rcn","source":"openstreetmap.org","min_zoom":8.0,"shield_text":"132","ref":"132;198"},"arcs":[16]},{"type":"MultiLineString","properties":{"kind":"major_road","network":"CA:QC:R","sort_rank":380,"kind_detail":"primary","is_bicycle_related":true,"bicycle_shield_text":"1","cycleway":"lane","source":"openstreetmap.org","min_zoom":8.0,"shield_text":"132","bicycle_network":"rcn","ref":"132"},"arcs":[[17],[18],[19],[20],[21]]},{"type":"LineString","properties":{"kind":"major_road","network":"CA:QC:R","sort_rank":380,"kind_detail":"primary","source":"openstreetmap.org","min_zoom":8.0,"shield_text":"132","id":27587728},"arcs":[22]},{"type":"LineString","properties":{"source":"openstreetmap.org","kind":"major_road","sort_rank":380,"kind_detail":"primary","ref":"197","min_zoom":8.0,"id":75037399},"arcs":[23]},{"type":"LineString","properties":{"kind":"major_road","network":"CA:QC:R","sort_rank":380,"kind_detail":"primary","is_bicycle_related":true,"bicycle_shield_text":"1","cycleway":"lane","source":"openstreetmap.org","min_zoom":8.0,"landuse_kind":"park","shield_text":"132","bicycle_network":"rcn","ref":"132"},"arcs":[24]},{"type":"MultiLineString","properties":{"kind":"major_road","network":"CA:QC:R","sort_rank":380,"kind_detail":"primary","source":"openstreetmap.org","min_zoom":8.0,"landuse_kind":"park","shield_text":"197","ref":"197"},"arcs":[[25],[26]]},{"type":"LineString","properties":{"sort_rank":355,"source":"openstreetmap.org","min_zoom":8.0,"kind":"ferry"},"arcs":[27]},{"type":"MultiLineString","properties":{"kind":"major_road","network":"CA:QC:R","sort_rank":380,"kind_detail":"primary","is_bicycle_related":true,"bicycle_shield_text":"1","bicycle_network":"rcn","source":"openstreetmap.org","min_zoom":8.0,"shield_text":"132","ref":"132"},"arcs":[[28],[29],[30],[31]]},{"type":"LineString","properties":{"kind":"major_road","network":"CA:QC:R","sort_rank":380,"kind_detail":"primary","source":"openstreetmap.org","min_zoom":8.0,"shield_text":"132","ref":"132;198"},"arcs":[32]},{"type":"MultiLineString","properties":{"kind":"major_road","network":"CA:QC:R","sort_rank":380,"kind_detail":"primary","source":"openstreetmap.org","min_zoom":8.0,"shield_text":"198","ref":"198"},"arcs":[[33],[34]]},{"type":"LineString","properties":{"kind":"major_road","network":"CA:NB","sort_rank":380,"kind_detail":"primary","source":"openstreetmap.org","min_zoom":8.0,"shield_text":"113","ref":"113"},"arcs":[35]},{"type":"MultiLineString","properties":{"kind":"major_road","network":"CA:QC:R","sort_rank":380,"kind_detail":"primary","source":"openstreetmap.org","min_zoom":8.0,"shield_text":"197","ref":"197"},"arcs":[[36],[37],[38]]},{"type":"MultiLineString","properties":{"kind":"major_road","network":"CA:QC:R","sort_rank":380,"kind_detail":"primary","source":"openstreetmap.org","min_zoom":8.0,"landuse_kind":"park","shield_text":"132","ref":"132"},"arcs":[[39],[40]]}]},"earth":{"type":"GeometryCollection","geometries":[{"type":"MultiPolygon","properties":{"sort_rank":10,"source":"naturalearthdata.com","min_zoom":0.0,"kind":"earth","area":4818257704},"arcs":[[[41]],[[42]]]}]},"landuse":{"type":"GeometryCollection","geometries":[{"type":"Polygon","properties":{"kind":"national_park","protect_class":"2","area":12728900,"sort_rank":18,"source":"openstreetmap.org","min_zoom":8.0,"tier":1,"id":-6989318,"osm_relation":true},"arcs":[[43]]},{"type":"MultiPolygon","properties":{"kind":"nature_reserve","protect_class":"1","area":413308000,"sort_rank":23,"source":"openstreetmap.org","min_zoom":6.0,"tier":2,"id":-7707901,"osm_relation":true},"arcs":[[[44]],[[45]],[[46]],[[47]]]},{"type":"Polygon","properties":{"kind":"park","area":554689984,"sort_rank":24,"source":"openstreetmap.org","min_zoom":6.0,"tier":2,"id":-1603116,"osm_relation":true},"arcs":[[48]]},{"type":"MultiPolygon","properties":{"kind":"nature_reserve","protect_class":"1","area":14311300,"sort_rank":23,"source":"openstreetmap.org","min_zoom":8.0,"tier":2,"id":-7707901,"osm_relation":true},"arcs":[[[49]],[[50]]]}]}},"type":"Topology","transform":{"translate":[-64.6875,47.9899216674],"scale":[0.0003433228,0.0002276801]},"arcs":[[[807,0],[33,169],[-365,30],[-343,-199]],[[0,509],[773,504],[1836,0],[505,-1013]],[[4096,4096],[0,-4096],[-3482,0],[-10,37],[-12,95],[-77,60],[-44,-57],[-37,-135],[-434,0],[0,1538],[12,1],[61,43],[342,164],[142,27],[151,58],[247,27],[89,29],[49,53],[-40,27],[18,80],[42,59],[56,43],[63,31],[104,26],[24,16],[23,40],[18,37],[20,32],[31,26],[-51,6],[-44,25],[-85,75],[-82,46],[-9,35],[11,86],[60,134],[89,26],[99,-9],[90,29],[-37,65],[-43,57],[-45,42],[-45,16],[-43,33],[-125,209],[-145,132],[-75,31],[-66,59],[-34,18],[-31,-5],[-27,-15],[-27,-6],[-34,26],[31,47],[30,7],[69,-21],[30,16],[-7,37],[-22,35],[-12,14],[-26,45],[-62,22],[-122,8],[-179,-49],[-50,19],[-1,38],[180,25],[0,27],[-175,151],[-64,29],[87,-2],[659,-229],[146,-105],[75,-24],[45,-43],[64,-80],[62,-49],[39,55],[-57,45],[-50,66],[-72,126],[30,182],[-43,108],[-124,124],[2862,0]],[[1234,4096],[124,-124],[43,-108],[-30,-182],[72,-126],[50,-66],[57,-45],[-39,-55],[-62,49],[-64,80],[-45,43],[-75,24],[-146,105],[-659,229],[-87,2],[64,-29],[175,-151],[0,-27],[-180,-25],[1,-38],[50,-19],[179,49],[122,-8],[62,-22],[26,-45],[12,-14],[22,-35],[7,-37],[-30,-16],[-69,21],[-30,-7],[-31,-47],[34,-26],[27,6],[27,15],[31,5],[34,-18],[66,-59],[75,-31],[145,-132],[125,-209],[43,-33],[45,-16],[45,-42],[43,-57],[37,-65],[-90,-29],[-99,9],[-89,-26],[-60,-134],[-11,-86],[9,-35],[82,-46],[85,-75],[44,-25],[51,-6],[-31,-26],[-20,-32],[-18,-37],[-23,-40],[-24,-16],[-104,-26],[-63,-31],[-56,-43],[-42,-59],[-18,-80],[40,-27],[-49,-53],[-89,-29],[-247,-27],[-151,-58],[-142,-27],[-342,-164],[-61,-43],[-12,-1]],[[614,0],[-10,37],[-12,95],[-77,60],[-44,-57],[-37,-135]],[[1,1578],[-1,0]],[[18,1577],[59,6]],[[442,3923],[-44,12],[-12,-45]],[[521,1790],[73,7]],[[546,3756],[-22,17]],[[599,3690],[2,3]],[[610,3671],[214,-58],[56,-84]],[[910,3784],[109,-68],[144,-46]],[[1365,2313],[18,42],[-226,96],[-47,136],[22,27]],[[1209,4096],[198,-295]],[[1573,2230],[8,-17]],[[601,3689],[7,-18]],[[521,1790],[-206,-91],[-86,-67],[-152,-49]],[[386,3890],[138,-117]],[[442,3923],[277,-107]],[[1365,2313],[-8,-51],[-261,-146],[-69,-218],[-165,-18],[-268,-83]],[[675,3460],[-55,-41],[48,-28],[137,31],[128,-25],[112,-89],[188,-168],[21,-83],[62,-86],[137,-95],[33,-72],[-25,-32],[-128,22],[-143,-37]],[[1,1578],[17,-1]],[[442,3923],[35,0]],[[719,3816],[168,-18]],[[494,3971],[-12,-34]],[[498,3983]],[[1581,2213],[-40,-50],[-61,2],[-15,43],[27,43],[-104,79],[60,17],[125,-117]],[[601,3693],[15,30],[-70,33]],[[608,3671],[2,0]],[[880,3529],[-124,-61],[-81,-8]],[[1132,2614],[-95,100],[6,27],[147,16]],[[599,3690],[2,-1]],[[599,3690],[-54,-23],[-127,7],[-224,85],[-194,-58]],[[608,3671],[-42,-48],[109,-163]],[[454,0],[2,92],[58,25],[50,-33]],[[482,3937],[-5,-14]],[[498,3983],[-4,-12]],[[522,4096],[-24,-113]],[[887,3798],[23,-14]],[[1407,3801],[-27,-14],[-68,37],[2,-86],[-110,4],[-41,-72]],[[1234,4096],[124,-124],[43,-108],[-30,-182],[72,-126],[50,-66],[57,-45],[-39,-55],[-62,49],[-64,80],[-45,43],[-75,24],[-146,105],[-659,229],[-87,2],[64,-29],[175,-151],[0,-27],[-180,-25],[1,-38],[50,-19],[179,49],[122,-8],[62,-22],[26,-45],[12,-14],[22,-35],[7,-37],[-30,-16],[-69,21],[-30,-7],[-31,-47],[34,-26],[27,6],[27,15],[31,5],[34,-18],[66,-59],[75,-31],[145,-132],[125,-209],[43,-33],[45,-16],[45,-42],[43,-57],[37,-65],[-90,-29],[-99,9],[-89,-26],[-60,-134],[-11,-86],[9,-35],[82,-46],[85,-75],[44,-25],[51,-6],[-31,-26],[-20,-32],[-18,-37],[-23,-40],[-24,-16],[-104,-26],[-63,-31],[-56,-43],[-42,-59],[-18,-80],[40,-27],[-49,-53],[-89,-29],[-247,-27],[-151,-58],[-142,-27],[-342,-164],[-61,-43],[-12,-1],[0,2558],[1234,0]],[[614,0],[-180,0],[37,135],[44,57],[77,-60],[12,-95],[10,-37]],[[1481,2204],[29,74],[78,-59],[-59,-55],[-48,40]],[[0,3013],[22,59],[-1,-93],[30,4],[35,74],[20,-20],[-30,-43],[41,21],[-98,-54],[-19,52]],[[0,2909],[15,30],[102,-19],[-16,44],[22,-33],[16,88],[31,2],[-26,-119],[-35,-2],[27,-33],[-33,6],[12,-48],[-35,40],[8,40],[-47,-7],[31,-24],[13,-61],[-58,48],[-22,-5],[21,-34],[-26,10],[0,77]],[[0,2752],[13,-26],[-4,74],[42,-34],[32,31],[1,-42],[-32,-22],[23,-41],[-2,30],[29,15],[-6,-127],[-6,24],[-46,-26],[-44,30],[0,114]],[[0,2598],[17,22],[14,-23],[-21,-27],[38,10],[15,-90],[22,0],[8,73],[28,25],[-24,-47],[40,20],[-31,-37],[13,-43],[70,27],[-4,139],[89,5],[-26,-22],[1,-63],[26,13],[-7,-40],[32,-8],[-9,-45],[27,-44],[-182,-47],[-15,3],[-5,14],[-4,4],[-11,4],[-5,5],[23,-26],[13,-6],[-108,-61],[-24,29],[28,33],[51,-12],[-1,34],[-68,-9],[26,25],[-17,33],[-19,-17],[0,149]],[[481,3937],[17,46],[45,-14],[42,112],[-46,15],[613,0],[173,-216],[32,-74],[52,-5],[-24,-72],[-6,4],[-7,1],[-5,-3],[12,-4],[8,2],[-32,-72],[10,-83],[175,-225],[-13,-17],[-65,53],[-166,195],[-34,-1],[-119,110],[-229,109],[-5,-22],[-106,27],[-56,-28],[-20,-3],[1,31],[69,0],[-78,13],[82,8],[-320,113]],[[222,2382],[111,36],[43,-54],[1,-6],[-4,-10],[-9,-12],[20,-44],[-2,-51],[-19,92],[11,33],[-27,19],[-67,-35],[14,-20],[-10,10],[-50,21],[-12,21]],[[184,2367],[37,15],[12,-21],[61,-35],[-33,-36],[-32,30],[44,17],[-80,-14],[-9,44]]]}