{"objects":{"water":{"type":"GeometryCollection","geometries":[{"type":"MultiPolygon","properties":{"source":"naturalearthdata.com","kind":"ocean","area":1576712559132672,"sort_rank":200,"min_zoom":0.0,"id":1},"arcs":[[[3]],[[4]]]},{"type":"MultiLineString","properties":{"source":"naturalearthdata.com","kind":"ocean","sort_rank":205,"boundary":true,"min_zoom":0.0,"id":67},"arcs":[[5],[6]]}]},"buildings":{"type":"GeometryCollection","geometries":[]},"places":{"type":"GeometryCollection","geometries":[{"type":"Point","properties":{"source":"naturalearthdata.com","kind":"locality","name":"Windsor","population":3864,"min_zoom":7.0,"id":4339},"coordinates":[1626,3652]},{"type":"Point","properties":{"source":"openstreetmap.org","kind":"locality","name":"Dartmouth","kind_detail":"city","population":70000,"min_zoom":8.0,"id":241782441},"coordinates":[3248,2425]}]},"transit":{"type":"GeometryCollection","geometries":[{"type":"LineString","properties":{"kind":"train","description":"Halifax - Montreal","sort_rank":275,"colour":"#3098FC","name:fr":"L'Oc\u00e9an","name":"The Ocean","source":"openstreetmap.org","min_zoom":6.0,"operator":"VIA Rail Canada","ref":"The Ocean","id":-1483012,"osm_relation":true,"colour_name":"dodgerblue"},"arcs":[2]}]},"pois":{"type":"GeometryCollection","geometries":[{"type":"Point","properties":{"kind":"nature_reserve","protect_class":"1","area":152388000,"source":"openstreetmap.org","min_zoom":8.66,"tier":2,"id":-4854438,"osm_relation":true,"name":"Five Bridge Lakes Wilderness Area"},"coordinates":[2556,2106]},{"type":"Point","properties":{"kind":"nature_reserve","protect_class":"1","area":177057000,"source":"openstreetmap.org","min_zoom":8.56,"tier":2,"id":-4851363,"osm_relation":true,"name":"Waverley - Salmon River Long Lake Wilderness Area"},"coordinates":[3478,2955]},{"type":"Point","properties":{"source":"openstreetmap.org","kind":"military","name":"CFB Shearwater","area":10851800,"tier":3,"min_zoom":8.0,"id":163157233},"coordinates":[3448,2255]}]},"boundaries":{"type":"GeometryCollection","geometries":[{"type":"LineString","properties":{"name:ty":"Tanata","name:ka":"\u10d9\u10d0\u10dc\u10d0\u10d3\u10d0","name:ko":"\uce90\ub098\ub2e4","name:cv":"\u041a\u0430\u043d\u0430\u0434\u0430","name:cu":"\u041a\u0430\u043d\u0430\u0434\u0430","name:cs":"Kanada","name:cr":"\u1473\u14c7\u1456","name:tt":"\u041a\u0430\u043d\u0430\u0434\u0430","name:co":"Canad\u00e0","name:kv":"\u041a\u0430\u043d\u0430\u0434\u0430","name:ku":"Kanada","name:tl":"Kanada","name:ce":"\u041a\u0430\u043d\u0430\u0434\u0430","name:ta":"\u0b95\u0ba9\u0b9f\u0bbe","name:tg":"\u041a\u0430\u043d\u0430\u0434\u0430","name:ca":"Canad\u00e0","name:te":"\u0c15\u0c46\u0c28\u0c21\u0c3e","name:qu":"Kanada","name:de":"Kanada","name:dz":"\u0f40\u0f7a\u0f0b\u0f53\u0f0b\u0f4c\u0f0b","source":"openstreetmap.org","name:kn":"\u0c95\u0cc6\u0ca8\u0ca1\u0cbe","name:dv":"\u0786\u07ac\u0782\u07ac\u0791\u07a7","name:km":"\u1780\u17b6\u178e\u17b6\u178a\u17b6","name:lv":"Kan\u0101da","name:lt":"Kanada","name:uz":"Kanada","name:kk":"\u041a\u0430\u043d\u0430\u0434\u0430","name:tw":"Kanada","name:lb":"Kanada","name:uk":"\u041a\u0430\u043d\u0430\u0434\u0430","name:ug":"\u0643\u0627\u0646\u0627\u062f\u0627","name:ln":"Kanad\u00e1","name:kw":"Kanada","name:eo":"Kanado","name":"Canada","name:tk":"Kanada","name:th":"\u0e1b\u0e23\u0e30\u0e40\u0e17\u0e28\u0e41\u0e04\u0e19\u0e32\u0e14\u0e32","name:eu":"Kanada","name:et":"Kanada","name:es":"Canad\u00e1","name:ay":"Kanada","name:rn":"Kanada","name:az":"Kanada","name:id":"Kanada","name:ig":"K\u00e1nada","name:el":"\u039a\u03b1\u03bd\u03b1\u03b4\u03ac\u03c2","name:as":"\u0995\u09be\u09a8\u09be\u09a1\u09be","name:ar":"\u0643\u0646\u062f\u0627","name:io":"Kanada","name:av":"\u041a\u0430\u043d\u0430\u0434\u0430","name:is":"Kanada","name:am":"\u12ab\u1293\u12f3","name:an":"Canad\u00e1","name:ru":"\u041a\u0430\u043d\u0430\u0434\u0430","name:ab":"\u041a\u0430\u043d\u0430\u0434\u0430","name:af":"Kanada","name:zu":"IKhanada","kind_detail":"2","name:ky":"\u041a\u0430\u043d\u0430\u0434\u0430","name:zh-yue":"\u52a0\u62ff\u5927","name:zh":"\u52a0\u62ff\u5927","name:so":"Kanada","name:sl":"Kanada","name:sk":"Kanada","name:ja":"\u30ab\u30ca\u30c0","name:sh":"Kanada","name:sg":"Kanad\u00e4a","name:se":"Kan\u00e1da","name:sa":"\u0915\u0947\u0928\u0921\u093e","name:bs":"Kanada","name:bm":"Kanada","name:bn":"\u0995\u09be\u09a8\u09be\u09a1\u09be","name:bo":"\u0f41\u0f0b\u0f53\u0f0b\u0f4c\u0f0d","name:br":"Kanada","name:sw":"Kanada","name:be":"\u041a\u0430\u043d\u0430\u0434\u0430","name:su":"Kanada","name:bg":"\u041a\u0430\u043d\u0430\u0434\u0430","name:ss":"IKhanada","name:ba":"\u041a\u0430\u043d\u0430\u0434\u0430","name:sq":"Kanadaja","name:jv":"Kanada","name:bi":"Kanada","name:pt":"Canad\u00e1","name:ps":"\u06a9\u0627\u0646\u0627\u0689\u0627","name:oc":"Canad\u00e0","min_zoom":8.0,"name:pa":"\u0a15\u0a48\u0a28\u0a47\u0a21\u0a3e","name:os":"\u041a\u0430\u043d\u0430\u0434\u00e6","name:or":"\u0b15\u0b3e\u0b28\u0b3e\u0b21\u0b3c\u0b3e","name:pl":"Kanada","sort_rank":262,"name:sr":"\u041a\u0430\u043d\u0430\u0434\u0430","osm_relation":true,"name:ik":"Kanada","name:tr":"Kanada","name:hi":"\u0915\u0928\u093e\u0921\u093e","name:sv":"Kanada","name:he":"\u05e7\u05e0\u05d3\u05d4","name:ha":"Kanada","name:hy":"\u053f\u0561\u0576\u0561\u0564\u0561","name:ht":"Kanada","name:hu":"Kanada","name:hr":"Kanada","kind":"country","name:yi":"\u05e7\u05d0\u05e0\u05d0\u05d3\u05e2","name:iu":"\u1472\u14c7\u1455 \/ kanata","name:yo":"K\u00e1n\u00e1d\u00e0","name:mt":"Kanada","name:ms":"Kanada","name:mr":"\u0915\u0945\u0928\u0921\u093e","name:my":"\u1000\u1014\u1031\u1012\u102b\u1014\u102d\u102f\u1004\u103a\u1004\u1036","name:mg":"Kanada","name:ml":"\u0d15\u0d3e\u0d28\u0d21","name:mn":"\u041a\u0430\u043d\u0430\u0434","name:mi":"K\u0101nata","id":-1428125,"name:mk":"\u041a\u0430\u043d\u0430\u0434\u0430","name:vo":"Kanad\u00e4n","name:fa":"\u06a9\u0627\u0646\u0627\u062f\u0627","name:rw":"Kanada","name:fi":"Kanada","old_name:vi":"Gia N\u00e3 \u0110\u1ea1i","name:fo":"Kanada","alt_name:vi":"Ca-na-\u0111a","name:fy":"Kanada","name:na":"Kanada","name:ne":"\u0915\u094d\u092f\u093e\u0928\u093e\u0921\u093e","name:ur":"\u06a9\u06cc\u0646\u06cc\u0688\u0627","name:wo":"Kanadaa","name:nv":"Deeteel Bik\u00e9yah","name:ga":"Ceanada","name:gn":"Kanat\u00e3","name:gl":"Canad\u00e1","maritime_boundary":true,"name:gv":"Yn Chanadey","name:gu":"\u0a95\u0ac7\u0aa8\u0ac7\u0aa1\u0abe"},"arcs":[0]},{"type":"LineString","properties":{"name:pt":"Nova Esc\u00f3cia","name:ka":"\u10d0\u10ee\u10d0\u10da\u10d8 \u10e8\u10dd\u10e2\u10da\u10d0\u10dc\u10d3\u10d8\u10d0","name:ko":"\ub178\ubc14\uc2a4\ucf54\uc0e4 \uc8fc","name:cs":"Nov\u00e9 Skotsko","name:kw":"Alban Nowydh","min_zoom":8.0,"name:az":"Yeni \u015eotlandiya","name:pa":"\u0a28\u0a4b\u0a35\u0a3e \u0a38\u0a15\u0a4b\u0a38\u0a3c\u0a3e","name:os":"\u041d\u043e\u0433 \u0428\u043e\u0442\u043b\u0430\u043d\u0434\u0438","name:pl":"Nowa Szkocja","name:ta":"\u0ba8\u0bcb\u0bb5\u0bbe \u0bb8\u0bcd\u0b95\u0bcb\u0b9a\u0bbf\u0baf\u0bbe","name:ca":"Nova Esc\u00f2cia","source":"openstreetmap.org","sort_rank":256,"name:qu":"Nova Scotia pruwinsya","name:de":"Neuschottland","name:tr":"Yeni \u0130sko\u00e7ya","osm_relation":true,"name:lv":"Jaunskotija","name:lt":"Naujoji \u0160kotija","name:uz":"Yangi Shotlandiya","name:he":"\u05e0\u05d5\u05d1\u05d4 \u05e1\u05e7\u05d5\u05d8\u05d9\u05d4","name:eo":"Nov-Skotio","name:ur":"\u0646\u0648\u0648\u0627 \u0633\u06a9\u0648\u0634\u06cc\u0627","name:uk":"\u041d\u043e\u0432\u0430 \u0428\u043e\u0442\u043b\u0430\u043d\u0434\u0456\u044f","name:hy":"\u0546\u0578\u0580 \u0547\u0578\u057f\u056c\u0561\u0576\u0564\u056b\u0561","name:ug":"Nowa Skotiye \u00d6lkisi","name:hu":"\u00daj-Sk\u00f3cia","name:hr":"Nova \u0160kotska","name:oc":"N\u00f2va Esc\u00f2cia","name:el":"\u039d\u03ad\u03b1 \u03a3\u03ba\u03c9\u03c4\u03af\u03b1","kind":"region","name":"Nova Scotia","name:th":"\u0e23\u0e31\u0e10\u0e42\u0e19\u0e27\u0e32\u0e2a\u0e42\u0e01\u0e40\u0e0a\u0e35\u0e22","name:yi":"\u05e0\u05d0\u05d5\u05d5\u05e2 \u05e1\u05e7\u05d0\u05e9\u05e2","name:es":"Nueva Escocia","name:ro":"Noua Sco\u021bie","name:mr":"\u0928\u094b\u0935\u094d\u0939\u093e \u0938\u094d\u0915\u0949\u0936\u093f\u092f\u093e","name:ar":"\u0646\u0648\u0641\u0627 \u0633\u0643\u0648\u0634\u0627","name:io":"Nova Skotia","name:it":"Nuova Scozia","name:ru":"\u041d\u043e\u0432\u0430\u044f \u0428\u043e\u0442\u043b\u0430\u043d\u0434\u0438\u044f","name:mn":"\u041d\u043e\u0432\u0430 \u0421\u043a\u043e\u0448\u0430","id":-390558,"name:mk":"\u041d\u043e\u0432\u0430 \u0428\u043a\u043e\u0442\u0441\u043a\u0430","name:fa":"\u0646\u0648\u0627 \u0627\u0633\u06a9\u0648\u0634\u06cc\u0627","kind_detail":"4","name:fr":"Nouvelle-\u00c9cosse","name:fy":"Nij-Skotl\u00e2n","name:zh":"\u65b0\u65af\u79d1\u820d\u7701","name:sl":"Nova \u0160kotska","name:sk":"Nov\u00e9 \u0160k\u00f3tsko","name:ja":"\u30ce\u30d0\u30b9\u30b3\u30b7\u30a2\u5dde","name:br":"Skos Nevez","name:bs":"Nova \u0160kotska","name:eu":"Eskozia Berria","name:be":"\u041f\u0440\u0430\u0432\u0456\u043d\u0446\u044b\u044f \u041d\u043e\u0432\u0430\u044f \u0428\u0430\u0442\u043b\u0430\u043d\u0434\u044b\u044f","name:bg":"\u041d\u043e\u0432\u0430 \u0421\u043a\u043e\u0442\u0438\u044f","name:sr":"\u041d\u043e\u0432\u0430 \u0428\u043a\u043e\u0442\u0441\u043a\u0430","name:sq":"Skocia e Re","name:ga":"Albain Nua","name:gd":"Alba Nuadh","name:gl":"Nova Escocia","maritime_boundary":true,"name:gv":"Nalbin Noa"},"arcs":[1]}]},"roads":{"type":"GeometryCollection","geometries":[{"type":"MultiLineString","properties":{"bus_network":"Halifax Transit","network":null,"sort_rank":380,"kind_detail":"primary","kind":"major_road","source":"openstreetmap.org","min_zoom":8.0,"bus_shield_text":"80_up","shield_text":"1","landuse_kind":"urban_area","ref":"1"},"arcs":[[7],[8]]},{"type":"LineString","properties":{"bus_network":"Halifax Transit","network":"CA:NS","sort_rank":380,"kind_detail":"primary","is_bicycle_related":true,"kind":"major_road","bicycle_shield_text":null,"cycleway":"lane","source":"openstreetmap.org","min_zoom":8.0,"bus_shield_text":"81_down","shield_text":"2","landuse_kind":"urban_area","ref":"2","bicycle_network":"lcn"},"arcs":[9]},{"type":"LineString","properties":{"kind":"path","sort_rank":354,"kind_detail":"cycleway","is_bicycle_related":true,"bicycle_shield_text":"TCT","cycleway":"lane","source":"openstreetmap.org","min_zoom":8.0,"landuse_kind":"urban_area","bicycle_network":"ncn","id":8050403},"arcs":[10]},{"type":"LineString","properties":{"kind":"path","sort_rank":354,"kind_detail":"footway","is_bicycle_related":true,"bicycle_shield_text":"TCT","bicycle_network":"ncn","source":"openstreetmap.org","min_zoom":8.0,"landuse_kind":"urban_area","id":4275878},"arcs":[11]},{"type":"MultiLineString","properties":{"kind":"major_road","network":"CA:NS","sort_rank":380,"kind_detail":"primary","source":"openstreetmap.org","min_zoom":8.0,"shield_text":"2","ref":"2"},"arcs":[[12],[13],[14]]},{"type":"LineString","properties":{"kind":"major_road","network":"CA:NS","sort_rank":380,"kind_detail":"primary","source":"openstreetmap.org","min_zoom":8.0,"landuse_kind":"urban_area","shield_text":"2","ref":"2"},"arcs":[15]},{"type":"MultiLineString","properties":{"source":"openstreetmap.org","kind":"highway","landuse_kind":"urban_area","sort_rank":383,"kind_detail":"motorway","ref":"107","min_zoom":8.0},"arcs":[[16],[17],[18],[19],[20],[21]]},{"type":"LineString","properties":{"bus_network":"Halifax Transit","network":"CA:NS","sort_rank":380,"kind_detail":"primary","is_bicycle_related":true,"kind":"major_road","bicycle_shield_text":null,"cycleway":"lane","source":"openstreetmap.org","min_zoom":8.0,"bus_shield_text":"80_down","shield_text":"2","landuse_kind":"urban_area","ref":"2","bicycle_network":"lcn"},"arcs":[22]},{"type":"LineString","properties":{"kind":"path","sort_rank":354,"kind_detail":"cycleway","is_bicycle_related":true,"bicycle_shield_text":"TCT","cycleway":"segregated","source":"openstreetmap.org","min_zoom":8.0,"landuse_kind":"urban_area","bicycle_network":"ncn","id":3494671},"arcs":[23]},{"type":"LineString","properties":{"kind":"major_road","network":"CA:NS","sort_rank":380,"kind_detail":"primary","is_bicycle_related":true,"cycleway":"lane","source":"openstreetmap.org","min_zoom":8.0,"shield_text":"3","ref":"3","id":208809244},"arcs":[24]},{"type":"MultiLineString","properties":{"kind":"minor_road","sort_rank":360,"kind_detail":"residential","is_bicycle_related":true,"bicycle_shield_text":"TCT","bicycle_network":"ncn","source":"openstreetmap.org","min_zoom":8.0},"arcs":[[25],[26]]},{"type":"LineString","properties":{"kind":"highway","network":"CA:NS:H","sort_rank":383,"kind_detail":"motorway","source":"openstreetmap.org","min_zoom":8.0,"all_networks":["CA:NS:H"],"landuse_kind":"nature_reserve","shield_text":"3","ref":"103","id":70649291,"all_shield_texts":["3"]},"arcs":[27]},{"type":"LineString","properties":{"kind":"major_road","network":"CA:NS","sort_rank":380,"kind_detail":"primary","source":"openstreetmap.org","min_zoom":8.0,"shield_text":"2","id":84415482},"arcs":[28]},{"type":"MultiLineString","properties":{"source":"openstreetmap.org","kind":"major_road","landuse_kind":"urban_area","sort_rank":380,"kind_detail":"primary","ref":"3","min_zoom":8.0},"arcs":[[29],[30],[31]]},{"type":"MultiLineString","properties":{"bus_network":null,"network":"CA:NS","sort_rank":380,"kind_detail":"primary","kind":"major_road","source":"openstreetmap.org","min_zoom":8.0,"bus_shield_text":"20","shield_text":"102","landuse_kind":"urban_area","ref":"102"},"arcs":[[32],[33],[34],[35],[36],[37]]},{"type":"MultiLineString","properties":{"source":"openstreetmap.org","kind":"highway","landuse_kind":"urban_area","sort_rank":383,"kind_detail":"motorway","min_zoom":8.0},"arcs":[[38],[39]]},{"type":"LineString","properties":{"source":"openstreetmap.org","kind":"major_road","landuse_kind":"urban_area","sort_rank":380,"kind_detail":"primary","ref":"2","min_zoom":8.0},"arcs":[40]},{"type":"MultiLineString","properties":{"source":"openstreetmap.org","kind":"major_road","network":"CA:NS","sort_rank":380,"kind_detail":"primary","min_zoom":8.0,"shield_text":"3"},"arcs":[[41],[42],[43]]},{"type":"LineString","properties":{"kind":"major_road","network":"CA:NS:T","sort_rank":380,"kind_detail":"primary","is_bicycle_related":true,"bicycle_shield_text":"7","cycleway":"lane","source":"openstreetmap.org","min_zoom":8.0,"landuse_kind":"residential","shield_text":"7","bicycle_network":"lcn","ref":"7, 107"},"arcs":[44]},{"type":"LineString","properties":{"kind":"major_road","network":"CA:NS:T","sort_rank":380,"kind_detail":"primary","is_bicycle_related":true,"cycleway":"lane","source":"openstreetmap.org","min_zoom":8.0,"landuse_kind":"urban_area","shield_text":"7","bicycle_network":"lcn","ref":"7: 107","id":159854912},"arcs":[45]},{"type":"MultiLineString","properties":{"kind":"highway","network":"CA:NS","sort_rank":383,"landuse_kind":"urban_area","source":"openstreetmap.org","min_zoom":8.0,"all_networks":["CA:NS"],"kind_detail":"motorway","shield_text":"Bypass","all_shield_texts":["Bypass"]},"arcs":[[46],[47]]},{"type":"LineString","properties":{"bus_network":null,"sort_rank":380,"kind_detail":"primary","kind":"major_road","source":"openstreetmap.org","min_zoom":8.0,"bus_shield_text":"20","landuse_kind":"urban_area"},"arcs":[48]},{"type":"MultiLineString","properties":{"kind":"major_road","network":"CA:NS:T","sort_rank":380,"kind_detail":"primary","source":"openstreetmap.org","min_zoom":8.0,"landuse_kind":"residential","shield_text":"7","ref":"7"},"arcs":[[49],[50],[51]]},{"type":"LineString","properties":{"bus_network":"Halifax Transit","network":"CA:NS","sort_rank":380,"kind_detail":"primary","kind":"major_road","source":"openstreetmap.org","min_zoom":8.0,"bus_shield_text":"90_up","shield_text":"2","landuse_kind":"urban_area","ref":"2"},"arcs":[52]},{"type":"MultiLineString","properties":{"kind":"major_road","cycleway_left":"sidepath","sort_rank":380,"kind_detail":"primary","is_bicycle_related":true,"source":"openstreetmap.org","min_zoom":8.0,"ref":"https:\/\/www.hdbc.ca\/macdonaldhistory\/"},"arcs":[[53],[54]]},{"type":"LineString","properties":{"kind":"major_road","network":"CA:NS","sort_rank":380,"kind_detail":"primary","source":"openstreetmap.org","min_zoom":8.0,"shield_text":"102","ref":"102"},"arcs":[55]},{"type":"MultiLineString","properties":{"sort_rank":355,"source":"openstreetmap.org","min_zoom":8.0,"name":"Tancook Island ferry","kind":"ferry"},"arcs":[[56],[57],[58]]},{"type":"LineString","properties":{"kind":"major_road","network":"CA:NS","sort_rank":380,"kind_detail":"primary","is_bicycle_related":true,"bicycle_shield_text":null,"cycleway":"lane","source":"openstreetmap.org","min_zoom":8.0,"landuse_kind":"urban_area","shield_text":"3","bicycle_network":"lcn","ref":"3"},"arcs":[59]},{"type":"LineString","properties":{"kind":"major_road","sort_rank":380,"kind_detail":"primary","is_bicycle_related":true,"bicycle_network":"lcn","source":"openstreetmap.org","min_zoom":8.0,"landuse_kind":"urban_area","id":544928465},"arcs":[60]},{"type":"MultiLineString","properties":{"kind":"major_road","network":"CA:NS","sort_rank":380,"kind_detail":"primary","source":"openstreetmap.org","min_zoom":8.0,"landuse_kind":"urban_area","shield_text":"3","ref":"3"},"arcs":[[61],[62],[63],[64]]},{"type":"LineString","properties":{"kind":"major_road","network":null,"sort_rank":380,"kind_detail":"primary","source":"openstreetmap.org","min_zoom":8.0,"landuse_kind":"urban_area","shield_text":"1","ref":"1"},"arcs":[65]},{"type":"LineString","properties":{"kind":"ferry","name":"Halifax - Woodside Ferry","sort_rank":355,"is_bicycle_related":true,"bicycle_shield_text":"TCT","bicycle_network":"ncn","source":"openstreetmap.org","min_zoom":8.0,"id":156723316},"arcs":[66]},{"type":"LineString","properties":{"kind":"major_road","sort_rank":377,"kind_detail":"tertiary","is_bicycle_related":true,"bicycle_shield_text":"TCT","bicycle_network":"ncn","source":"openstreetmap.org","min_zoom":8.0,"id":301850304},"arcs":[67]},{"type":"LineString","properties":{"kind":"major_road","network":"CA:NS:T","sort_rank":380,"kind_detail":"primary","source":"openstreetmap.org","min_zoom":8.0,"shield_text":"12","ref":"12"},"arcs":[68]},{"type":"LineString","properties":{"kind":"ferry","name":"Woodside Ferry","sort_rank":355,"source":"openstreetmap.org","min_zoom":8.0,"ref":"Woodside Ferry","id":-6122048,"osm_relation":true},"arcs":[69]},{"type":"MultiLineString","properties":{"kind":"path","sort_rank":354,"kind_detail":"cycleway","is_bicycle_related":true,"bicycle_shield_text":"TCT","bicycle_network":"ncn","source":"openstreetmap.org","min_zoom":8.0},"arcs":[[70],[71],[72],[73]]},{"type":"LineString","properties":{"kind":"major_road","cycleway_left":"track","sort_rank":380,"kind_detail":"primary","is_bicycle_related":true,"source":"openstreetmap.org","min_zoom":8.0,"ref":"https:\/\/www.hdbc.ca\/macdonaldhistory\/","id":465322588},"arcs":[74]},{"type":"LineString","properties":{"kind":"path","footway":"sidewalk","sort_rank":354,"kind_detail":"footway","is_bicycle_related":true,"bicycle_shield_text":"TCT","bicycle_network":"ncn","source":"openstreetmap.org","min_zoom":8.0,"landuse_kind":"urban_area","id":382464666},"arcs":[75]},{"type":"LineString","properties":{"kind":"major_road","sort_rank":380,"landuse_kind":"urban_area","source":"openstreetmap.org","min_zoom":8.0,"kind_detail":"primary","ref":"102","id":4791902},"arcs":[76]},{"type":"MultiLineString","properties":{"kind":"major_road","network":"CA:NS","sort_rank":380,"kind_detail":"primary","source":"openstreetmap.org","min_zoom":8.0,"shield_text":"3","ref":"3"},"arcs":[[77],[78],[79]]},{"type":"MultiLineString","properties":{"kind":"highway","network":"CA:NS:H","sort_rank":383,"kind_detail":"motorway","source":"openstreetmap.org","min_zoom":8.0,"all_networks":["CA:NS:H"],"shield_text":"3","ref":"103","all_shield_texts":["3"]},"arcs":[[80],[81],[82],[83],[84],[85],[86],[87]]},{"type":"MultiLineString","properties":{"kind":"highway","network":"CA:NS","sort_rank":383,"landuse_kind":"urban_area","source":"openstreetmap.org","min_zoom":8.0,"all_networks":["CA:NS"],"kind_detail":"motorway","shield_text":"111","ref":"111","all_shield_texts":["111"]},"arcs":[[88],[89]]},{"type":"MultiLineString","properties":{"kind":"major_road","network":"CA:NS","sort_rank":380,"kind_detail":"primary","source":"openstreetmap.org","min_zoom":8.0,"landuse_kind":"urban_area","shield_text":"102","ref":"102"},"arcs":[[90],[91],[92],[93],[94]]},{"type":"LineString","properties":{"kind":"major_road","sort_rank":379,"kind_detail":"secondary","is_bicycle_related":true,"bicycle_shield_text":"TCT","bicycle_network":"ncn","source":"openstreetmap.org","min_zoom":8.0,"landuse_kind":"urban_area","ref":"322","id":532459322},"arcs":[95]},{"type":"LineString","properties":{"source":"openstreetmap.org","kind":"major_road","sort_rank":380,"kind_detail":"primary","ref":"2","min_zoom":8.0,"id":499829440},"arcs":[96]},{"type":"MultiLineString","properties":{"bus_network":null,"sort_rank":380,"kind_detail":"primary","kind":"major_road","source":"openstreetmap.org","min_zoom":8.0,"bus_shield_text":"15","landuse_kind":"urban_area"},"arcs":[[97],[98],[99],[100]]},{"type":"MultiLineString","properties":{"kind":"highway","network":"CA:NS:H","sort_rank":383,"landuse_kind":"urban_area","source":"openstreetmap.org","min_zoom":8.0,"all_networks":["CA:NS:H"],"kind_detail":"motorway","shield_text":"3","ref":"103","all_shield_texts":["3"]},"arcs":[[101],[102]]},{"type":"MultiLineString","properties":{"source":"openstreetmap.org","kind":"major_road","sort_rank":380,"kind_detail":"primary","ref":"1","min_zoom":8.0},"arcs":[[103],[104],[105]]},{"type":"LineString","properties":{"kind":"major_road","network":null,"sort_rank":380,"kind_detail":"primary","is_bicycle_related":true,"cycleway":"lane","source":"openstreetmap.org","min_zoom":8.0,"landuse_kind":"urban_area","shield_text":"1","ref":"1","id":382526119},"arcs":[106]},{"type":"MultiLineString","properties":{"source":"openstreetmap.org","kind":"major_road","landuse_kind":"urban_area","sort_rank":380,"kind_detail":"primary","min_zoom":8.0},"arcs":[[107],[108],[109],[110],[111],[112],[113],[114],[115],[116],[117],[118],[119],[120],[121],[122],[123],[124]]},{"type":"MultiLineString","properties":{"source":"openstreetmap.org","kind":"highway","sort_rank":383,"kind_detail":"motorway","ref":"111","min_zoom":8.0},"arcs":[[125],[126]]},{"type":"LineString","properties":{"source":"openstreetmap.org","kind":"major_road","landuse_kind":"urban_area","sort_rank":380,"kind_detail":"primary","ref":"107","min_zoom":8.0},"arcs":[127]},{"type":"MultiLineString","properties":{"kind":"highway","network":"CA:NS","sort_rank":383,"landuse_kind":"urban_area","source":"openstreetmap.org","min_zoom":8.0,"all_networks":["CA:NS"],"kind_detail":"motorway","shield_text":"102","ref":"102","all_shield_texts":["102"]},"arcs":[[128],[129],[130],[131],[132],[133],[134],[135],[136],[137]]},{"type":"LineString","properties":{"bus_network":"Halifax Transit","network":"CA:NS","sort_rank":380,"kind_detail":"primary","is_bicycle_related":true,"kind":"major_road","bicycle_shield_text":null,"bicycle_network":"lcn","source":"openstreetmap.org","min_zoom":8.0,"bus_shield_text":"80_up","shield_text":"2","landuse_kind":"urban_area","ref":"2"},"arcs":[138]},{"type":"LineString","properties":{"kind":"major_road","network":"CA:NS:T","sort_rank":380,"kind_detail":"primary","is_bicycle_related":true,"bicycle_network":"lcn","source":"openstreetmap.org","min_zoom":8.0,"landuse_kind":"urban_area","shield_text":"7","ref":"7","id":159854948},"arcs":[139]},{"type":"MultiLineString","properties":{"kind":"highway","network":"CA:NS","sort_rank":383,"landuse_kind":"urban_area","source":"openstreetmap.org","min_zoom":8.0,"all_networks":["CA:NS"],"kind_detail":"motorway","shield_text":"118","ref":"118","all_shield_texts":["118"]},"arcs":[[140],[141],[142],[143],[144],[145],[146]]},{"type":"LineString","properties":{"kind":"major_road","sort_rank":377,"kind_detail":"tertiary","is_bicycle_related":true,"bus_network":"Halifax Transit","bicycle_shield_text":"TCT","bicycle_network":"ncn","source":"openstreetmap.org","min_zoom":8.0,"bus_shield_text":"90_down","id":45715916},"arcs":[147]},{"type":"MultiLineString","properties":{"kind":"major_road","network":"CA:NS:T","sort_rank":380,"kind_detail":"primary","source":"openstreetmap.org","min_zoom":8.0,"shield_text":"7","ref":"7"},"arcs":[[148],[149],[150]]},{"type":"LineString","properties":{"kind":"major_road","network":"CA:NS:T","sort_rank":380,"kind_detail":"primary","is_bicycle_related":true,"bicycle_shield_text":"7","cycleway":"lane","source":"openstreetmap.org","min_zoom":8.0,"landuse_kind":"urban_area","shield_text":"7","bicycle_network":"lcn","ref":"7: 107","id":382474909},"arcs":[151]},{"type":"LineString","properties":{"kind":"minor_road","sort_rank":358,"kind_detail":"service","is_bicycle_related":true,"bicycle_shield_text":"TCT","bicycle_network":"ncn","source":"openstreetmap.org","min_zoom":8.0,"id":45715914},"arcs":[152]},{"type":"LineString","properties":{"kind":"major_road","network":"CA:NS:T","sort_rank":380,"kind_detail":"primary","source":"openstreetmap.org","min_zoom":8.0,"shield_text":"10","ref":"10"},"arcs":[153]},{"type":"MultiLineString","properties":{"kind":"path","sort_rank":354,"kind_detail":"footway","is_bicycle_related":true,"bicycle_shield_text":"TCT","bicycle_network":"ncn","source":"openstreetmap.org","min_zoom":8.0},"arcs":[[154],[155],[156],[157],[158]]},{"type":"LineString","properties":{"kind":"ferry","name":"Halifax - Dartmouth Ferry","sort_rank":355,"is_bicycle_related":true,"bicycle_shield_text":"TCT","bicycle_network":"ncn","source":"openstreetmap.org","min_zoom":8.0,"id":38942260},"arcs":[159]},{"type":"MultiLineString","properties":{"cycleway_right":"lane","network":null,"sort_rank":380,"kind_detail":"primary","is_bicycle_related":true,"kind":"major_road","source":"openstreetmap.org","min_zoom":8.0,"shield_text":"1"},"arcs":[[160],[161]]},{"type":"MultiLineString","properties":{"kind":"major_road","network":null,"sort_rank":380,"kind_detail":"primary","is_bicycle_related":true,"cycleway":"lane","source":"openstreetmap.org","min_zoom":8.0,"shield_text":"1","ref":"1"},"arcs":[[162],[163]]},{"type":"LineString","properties":{"kind":"major_road","network":"CA:NS:R","sort_rank":379,"kind_detail":"secondary","is_bicycle_related":true,"bicycle_shield_text":"TCT","bicycle_network":"ncn","source":"openstreetmap.org","min_zoom":8.0,"landuse_kind":"urban_area","shield_text":"322","ref":"207","id":386704173},"arcs":[164]},{"type":"LineString","properties":{"bus_network":"Halifax Transit","sort_rank":380,"kind_detail":"primary","kind":"major_road","source":"openstreetmap.org","min_zoom":8.0,"bus_shield_text":"90_down","landuse_kind":"urban_area","ref":"2"},"arcs":[165]},{"type":"LineString","properties":{"source":"openstreetmap.org","kind":"highway","landuse_kind":"urban_area","sort_rank":383,"kind_detail":"motorway","ref":"102","min_zoom":8.0},"arcs":[166]},{"type":"LineString","properties":{"bus_network":"Halifax Transit","network":"CA:NS:R","sort_rank":380,"kind_detail":"primary","kind":"major_road","source":"openstreetmap.org","min_zoom":8.0,"bus_shield_text":null,"shield_text":"322","landuse_kind":"urban_area","ref":"322"},"arcs":[167]},{"type":"MultiLineString","properties":{"sort_rank":380,"kind_detail":"primary","min_zoom":8.0,"kind":"major_road","source":"openstreetmap.org"},"arcs":[[168],[169],[170],[171],[172],[173],[174],[175],[176],[177],[178],[179]]},{"type":"MultiLineString","properties":{"kind":"major_road","network":"CA:NS:H","sort_rank":381,"kind_detail":"trunk","source":"openstreetmap.org","min_zoom":8.0,"shield_text":"3","ref":"103"},"arcs":[[180],[181]]},{"type":"LineString","properties":{"kind":"highway","network":"CA:NS:H","sort_rank":383,"kind_detail":"motorway","source":"openstreetmap.org","min_zoom":8.0,"all_networks":["CA:NS:H","CA:NS:T"],"shield_text":"3","ref":"103","id":68669492,"all_shield_texts":["3","3"]},"arcs":[182]},{"type":"LineString","properties":{"kind":"highway","network":"CA:NS","sort_rank":383,"kind_detail":"motorway","source":"openstreetmap.org","min_zoom":8.0,"all_networks":["CA:NS"],"shield_text":"111","all_shield_texts":["111"]},"arcs":[183]},{"type":"LineString","properties":{"kind":"major_road","network":"CA:NS:T","sort_rank":380,"kind_detail":"primary","source":"openstreetmap.org","min_zoom":8.0,"landuse_kind":"urban_area","shield_text":"7","ref":"322"},"arcs":[184]},{"type":"LineString","properties":{"kind":"major_road","network":"CA:NS","sort_rank":380,"kind_detail":"primary","is_bicycle_related":true,"bicycle_network":"lcn","source":"openstreetmap.org","min_zoom":8.0,"landuse_kind":"urban_area","shield_text":"102","id":446220297},"arcs":[185]},{"type":"LineString","properties":{"kind":"major_road","network":"CA:NS","sort_rank":380,"kind_detail":"primary","is_bicycle_related":true,"cycleway":"lane","source":"openstreetmap.org","min_zoom":8.0,"landuse_kind":"urban_area","shield_text":"3","ref":"3"},"arcs":[186]},{"type":"MultiLineString","properties":{"source":"openstreetmap.org","kind":"major_road","network":null,"sort_rank":380,"kind_detail":"primary","min_zoom":8.0,"shield_text":"1"},"arcs":[[187],[188],[189],[190],[191],[192],[193],[194],[195]]},{"type":"MultiLineString","properties":{"source":"openstreetmap.org","kind":"highway","landuse_kind":"urban_area","sort_rank":383,"kind_detail":"motorway","ref":"111","min_zoom":8.0},"arcs":[[196],[197]]},{"type":"MultiLineString","properties":{"kind":"highway","network":"CA:NS","sort_rank":383,"kind_detail":"motorway","source":"openstreetmap.org","min_zoom":8.0,"all_networks":["CA:NS"],"shield_text":"118","ref":"118","all_shield_texts":["118"]},"arcs":[[198],[199],[200]]},{"type":"MultiLineString","properties":{"kind":"major_road","network":"CA:NS:T","sort_rank":380,"kind_detail":"primary","source":"openstreetmap.org","min_zoom":8.0,"shield_text":"14","ref":"14"},"arcs":[[201],[202],[203],[204],[205],[206],[207],[208],[209],[210],[211],[212],[213],[214],[215],[216],[217]]},{"type":"LineString","properties":{"kind":"highway","cycleway_left":"sidepath","sort_rank":383,"kind_detail":"motorway","is_bicycle_related":true,"source":"openstreetmap.org","min_zoom":8.0,"ref":"https:\/\/www.hdbc.ca\/macdonaldhistory\/","id":465322589},"arcs":[218]},{"type":"MultiLineString","properties":{"kind":"minor_road","sort_rank":360,"kind_detail":"residential","is_bicycle_related":true,"bicycle_shield_text":"TCT","bicycle_network":"ncn","source":"openstreetmap.org","min_zoom":8.0,"landuse_kind":"urban_area"},"arcs":[[219],[220]]},{"type":"MultiLineString","properties":{"kind":"highway","network":"CA:NS","sort_rank":383,"kind_detail":"motorway","source":"openstreetmap.org","min_zoom":8.0,"all_networks":["CA:NS"],"shield_text":"101","ref":"101","all_shield_texts":["101"]},"arcs":[[221],[222],[223],[224],[225],[226],[227],[228],[229],[230]]},{"type":"MultiLineString","properties":{"kind":"highway","network":"CA:NS","sort_rank":383,"kind_detail":"motorway","source":"openstreetmap.org","min_zoom":8.0,"all_networks":["CA:NS"],"shield_text":"102","ref":"102","all_shield_texts":["102"]},"arcs":[[231],[232],[233],[234],[235],[236],[237],[238],[239],[240],[241],[242],[243],[244]]},{"type":"LineString","properties":{"kind":"ferry","name":"Alderney Ferry","sort_rank":355,"source":"openstreetmap.org","min_zoom":8.0,"ref":"Alderney Ferry","id":-6122049,"osm_relation":true},"arcs":[245]},{"type":"LineString","properties":{"kind":"major_road","network":"CA:NS","sort_rank":380,"kind_detail":"primary","source":"openstreetmap.org","min_zoom":8.0,"landuse_kind":"urban_area","shield_text":"2"},"arcs":[246]},{"type":"MultiLineString","properties":{"kind":"highway","network":"CA:NS","sort_rank":383,"kind_detail":"motorway","source":"openstreetmap.org","min_zoom":8.0,"all_networks":["CA:NS",null],"landuse_kind":"urban_area","shield_text":"101","ref":"101;1","all_shield_texts":["101","1"]},"arcs":[[247],[248],[249]]},{"type":"MultiLineString","properties":{"kind":"minor_road","service":"driveway","sort_rank":356,"landuse_kind":"urban_area","is_bicycle_related":true,"bicycle_shield_text":"TCT","bicycle_network":"ncn","source":"openstreetmap.org","min_zoom":8.0,"kind_detail":"service"},"arcs":[[250],[251],[252]]},{"type":"MultiLineString","properties":{"kind":"major_road","sort_rank":380,"kind_detail":"primary","is_bicycle_related":true,"cycleway":"lane","source":"openstreetmap.org","min_zoom":8.0,"landuse_kind":"urban_area"},"arcs":[[253],[254]]},{"type":"MultiLineString","properties":{"kind":"major_road","network":null,"sort_rank":380,"kind_detail":"primary","source":"openstreetmap.org","min_zoom":8.0,"shield_text":"1","ref":"1"},"arcs":[[255],[256],[257],[258],[259],[260],[261],[262]]},{"type":"LineString","properties":{"bus_network":"Halifax Transit","cycleway_right":"lane","bicycle_shield_text":null,"min_zoom":8.0,"bus_shield_text":"80_up","id":382537894,"kind":"major_road","network":"CA:NS","sort_rank":380,"kind_detail":"primary","is_bicycle_related":true,"bicycle_network":"lcn","source":"openstreetmap.org","landuse_kind":"urban_area","shield_text":"2","ref":"2"},"arcs":[263]},{"type":"LineString","properties":{"source":"openstreetmap.org","kind":"highway","sort_rank":383,"kind_detail":"motorway","min_zoom":8.0,"id":71868514},"arcs":[264]},{"type":"LineString","properties":{"kind":"major_road","cycleway_left":"sidepath","sort_rank":380,"kind_detail":"primary","is_bicycle_related":true,"source":"openstreetmap.org","min_zoom":8.0,"landuse_kind":"urban_area","ref":"https:\/\/www.hdbc.ca\/macdonaldhistory\/","id":4947555},"arcs":[265]},{"type":"LineString","properties":{"kind":"path","sort_rank":354,"landuse_kind":"military","is_bicycle_related":true,"bicycle_shield_text":"TCT","bicycle_network":"ncn","source":"openstreetmap.org","min_zoom":8.0,"kind_detail":"path"},"arcs":[266]},{"type":"MultiLineString","properties":{"kind":"highway","network":"CA:NS","sort_rank":383,"landuse_kind":"urban_area","source":"openstreetmap.org","min_zoom":8.0,"all_networks":["CA:NS"],"kind_detail":"motorway","shield_text":"101","ref":"101","all_shield_texts":["101"]},"arcs":[[267],[268]]},{"type":"LineString","properties":{"bus_network":"Halifax Transit","network":"CA:NS","sort_rank":380,"kind_detail":"primary","kind":"major_road","source":"openstreetmap.org","min_zoom":8.0,"bus_shield_text":"80_up","shield_text":"2","landuse_kind":"urban_area","ref":"2"},"arcs":[269]},{"type":"LineString","properties":{"bus_network":"Halifax Transit","network":"CA:NS","sort_rank":380,"kind_detail":"primary","kind":"major_road","source":"openstreetmap.org","min_zoom":8.0,"bus_shield_text":"90_down","shield_text":"2","landuse_kind":"urban_area","ref":"2"},"arcs":[270]},{"type":"LineString","properties":{"kind":"major_road","network":"CA:NS:T","sort_rank":380,"kind_detail":"primary","source":"openstreetmap.org","min_zoom":8.0,"shield_text":"14","ref":"1"},"arcs":[271]},{"type":"LineString","properties":{"kind":"major_road","network":"CA:NS","sort_rank":380,"kind_detail":"primary","is_bicycle_related":true,"bicycle_network":"lcn","source":"openstreetmap.org","min_zoom":8.0,"landuse_kind":"urban_area","shield_text":"102","ref":"102","id":471634166},"arcs":[272]},{"type":"MultiLineString","properties":{"kind":"major_road","network":"CA:NS:T","sort_rank":379,"landuse_kind":"urban_area","is_bicycle_related":true,"bicycle_shield_text":"TCT","bicycle_network":"ncn","source":"openstreetmap.org","min_zoom":8.0,"kind_detail":"secondary","shield_text":"7","ref":"7"},"arcs":[[273],[274]]},{"type":"LineString","properties":{"bus_network":null,"sort_rank":380,"kind_detail":"primary","kind":"major_road","source":"openstreetmap.org","min_zoom":8.0,"bus_shield_text":"80","landuse_kind":"urban_area","ref":"102"},"arcs":[275]},{"type":"LineString","properties":{"kind":"major_road","network":"CA:NS:T","sort_rank":380,"kind_detail":"primary","source":"openstreetmap.org","min_zoom":8.0,"shield_text":"7","ref":"7:107","id":183202698},"arcs":[276]},{"type":"LineString","properties":{"kind":"path","sort_rank":354,"kind_detail":"path","is_bicycle_related":true,"bicycle_shield_text":"TCT","bicycle_network":"ncn","source":"openstreetmap.org","min_zoom":8.0,"landuse_kind":"urban_area","id":514513172},"arcs":[277]},{"type":"LineString","properties":{"kind":"major_road","sort_rank":377,"kind_detail":"tertiary","is_bicycle_related":true,"bus_network":"Halifax Transit","bicycle_shield_text":"TCT","bicycle_network":"ncn","source":"openstreetmap.org","min_zoom":8.0,"bus_shield_text":"90_up","id":302353846},"arcs":[278]},{"type":"MultiLineString","properties":{"kind":"highway","network":"CA:NS:H","sort_rank":383,"kind_detail":"motorway","source":"openstreetmap.org","min_zoom":8.0,"all_networks":["CA:NS:H"],"landuse_kind":"park","shield_text":"3","ref":"103","all_shield_texts":["3"]},"arcs":[[279],[280]]},{"type":"MultiLineString","properties":{"kind":"path","sort_rank":354,"kind_detail":"cycleway","is_bicycle_related":true,"bicycle_shield_text":"TCT","bicycle_network":"ncn","source":"openstreetmap.org","min_zoom":8.0,"landuse_kind":"urban_area"},"arcs":[[281],[282],[283],[284],[285],[286],[287],[288]]},{"type":"LineString","properties":{"source":"openstreetmap.org","kind":"major_road","sort_rank":380,"kind_detail":"primary","ref":"102","min_zoom":8.0,"id":4791902},"arcs":[289]},{"type":"MultiLineString","properties":{"kind":"major_road","network":"CA:NS:T","sort_rank":380,"kind_detail":"primary","source":"openstreetmap.org","min_zoom":8.0,"landuse_kind":"urban_area","shield_text":"7","ref":"7"},"arcs":[[290],[291],[292],[293],[294],[295],[296],[297],[298],[299],[300]]},{"type":"LineString","properties":{"kind":"major_road","network":"CA:NS","sort_rank":380,"kind_detail":"primary","is_bicycle_related":true,"bicycle_shield_text":null,"cycleway":"lane","source":"openstreetmap.org","min_zoom":8.0,"shield_text":"3","bicycle_network":"lcn","ref":"3"},"arcs":[301]},{"type":"MultiLineString","properties":{"kind":"path","sort_rank":354,"kind_detail":"path","is_bicycle_related":true,"bicycle_shield_text":"TCT","bicycle_network":"ncn","source":"openstreetmap.org","min_zoom":8.0},"arcs":[[302],[303],[304]]},{"type":"LineString","properties":{"bus_network":"Halifax Transit","sort_rank":380,"kind_detail":"primary","kind":"major_road","source":"openstreetmap.org","min_zoom":8.0,"bus_shield_text":"90_up","landuse_kind":"urban_area","ref":"2"},"arcs":[305]},{"type":"LineString","properties":{"kind":"major_road","network":"CA:NS:T","sort_rank":380,"kind_detail":"primary","is_bicycle_related":true,"bicycle_shield_text":"7","cycleway":"lane","source":"openstreetmap.org","min_zoom":8.0,"landuse_kind":"urban_area","shield_text":"7","bicycle_network":"lcn","ref":"7, 107","id":502451149},"arcs":[306]},{"type":"LineString","properties":{"bus_network":null,"network":"CA:NS","sort_rank":380,"kind_detail":"primary","is_bicycle_related":true,"kind":"major_road","bicycle_network":"lcn","source":"openstreetmap.org","min_zoom":8.0,"bus_shield_text":"20","shield_text":"102","landuse_kind":"urban_area","ref":"102"},"arcs":[307]},{"type":"LineString","properties":{"kind":"major_road","network":"CA:NS:T","sort_rank":380,"kind_detail":"primary","is_bicycle_related":true,"cycleway":"lane","source":"openstreetmap.org","min_zoom":8.0,"shield_text":"7","bicycle_network":"lcn","ref":"7","id":159848840},"arcs":[308]},{"type":"LineString","properties":{"bus_network":null,"network":"CA:NS","sort_rank":380,"kind_detail":"primary","kind":"major_road","source":"openstreetmap.org","min_zoom":8.0,"bus_shield_text":"80","shield_text":"102","landuse_kind":"urban_area","ref":"102"},"arcs":[309]},{"type":"LineString","properties":{"kind":"major_road","network":"CA:NS:T","sort_rank":380,"kind_detail":"primary","source":"openstreetmap.org","min_zoom":8.0,"shield_text":"7","ref":"7 : 107","id":159844025},"arcs":[310]},{"type":"MultiLineString","properties":{"kind":"highway","network":"CA:NS","sort_rank":383,"kind_detail":"motorway","source":"openstreetmap.org","min_zoom":8.0,"all_networks":["CA:NS"],"shield_text":"111","ref":"111","all_shield_texts":["111"]},"arcs":[[311],[312],[313],[314],[315]]},{"type":"MultiLineString","properties":{"kind":"major_road","network":"CA:NS:T","sort_rank":380,"kind_detail":"primary","is_bicycle_related":true,"bicycle_shield_text":"7","cycleway":"lane","source":"openstreetmap.org","min_zoom":8.0,"landuse_kind":"urban_area","shield_text":"7","bicycle_network":"lcn","ref":"7"},"arcs":[[316],[317]]},{"type":"LineString","properties":{"kind":"major_road","network":"CA:NS:R","sort_rank":380,"kind_detail":"primary","source":"openstreetmap.org","min_zoom":8.0,"landuse_kind":"urban_area","shield_text":"322","ref":"322"},"arcs":[318]},{"type":"LineString","properties":{"kind":"major_road","network":"CA:NS:T","sort_rank":380,"kind_detail":"primary","is_bicycle_related":true,"cycleway":"lane","source":"openstreetmap.org","min_zoom":8.0,"shield_text":"7","bicycle_network":"lcn","ref":"7: 107","id":159854912},"arcs":[319]},{"type":"MultiLineString","properties":{"kind":"minor_road","sort_rank":360,"kind_detail":"unclassified","is_bicycle_related":true,"bicycle_shield_text":"TCT","bicycle_network":"ncn","source":"openstreetmap.org","min_zoom":8.0},"arcs":[[320],[321]]},{"type":"LineString","properties":{"kind":"major_road","sort_rank":380,"landuse_kind":"urban_area","source":"openstreetmap.org","min_zoom":8.0,"kind_detail":"primary","ref":"111","id":508271966},"arcs":[322]},{"type":"MultiLineString","properties":{"source":"openstreetmap.org","kind":"highway","sort_rank":383,"kind_detail":"motorway","ref":"107","min_zoom":8.0},"arcs":[[323],[324],[325],[326]]},{"type":"MultiLineString","properties":{"bus_network":"Halifax Transit","network":"CA:NS","sort_rank":380,"kind_detail":"primary","is_bicycle_related":true,"kind":"major_road","bicycle_shield_text":null,"cycleway":"lane","source":"openstreetmap.org","min_zoom":8.0,"bus_shield_text":"80_up","shield_text":"2","landuse_kind":"urban_area","ref":"2","bicycle_network":"lcn"},"arcs":[[327],[328],[329]]},{"type":"MultiLineString","properties":{"source":"openstreetmap.org","kind":"major_road","landuse_kind":"urban_area","sort_rank":380,"kind_detail":"primary","ref":"118","min_zoom":8.0},"arcs":[[330],[331]]},{"type":"MultiLineString","properties":{"kind":"major_road","network":"CA:NS:T","sort_rank":380,"kind_detail":"primary","is_bicycle_related":true,"cycleway":"lane","source":"openstreetmap.org","min_zoom":8.0,"landuse_kind":"urban_area","shield_text":"7","bicycle_network":"lcn","ref":"7;107"},"arcs":[[332],[333]]},{"type":"LineString","properties":{"kind":"major_road","network":"CA:NS:T","sort_rank":380,"kind_detail":"primary","is_bicycle_related":true,"bicycle_shield_text":"7","cycleway":"lane","source":"openstreetmap.org","min_zoom":8.0,"landuse_kind":"residential","shield_text":"7","bicycle_network":"lcn","ref":"7: 107","id":382474909},"arcs":[334]}]},"earth":{"type":"GeometryCollection","geometries":[{"type":"MultiPolygon","properties":{"sort_rank":10,"source":"naturalearthdata.com","kind":"earth","min_zoom":0.0,"id":4501},"arcs":[[[335]]]}]},"landuse":{"type":"GeometryCollection","geometries":[{"type":"Polygon","properties":{"kind":"residential","area":23731300,"sort_rank":20,"source":"openstreetmap.org","min_zoom":8.0,"tier":2,"id":-6378574,"osm_relation":true},"arcs":[[336],[337],[338],[339],[340],[341],[342],[343],[344]]},{"type":"MultiPolygon","properties":{"kind":"park","protect_class":"2","area":85711163,"sort_rank":24,"source":"openstreetmap.org","min_zoom":8.0,"tier":2,"osm_relation":true},"arcs":[[[345],[346],[347],[348],[349],[350],[351]],[[352],[353],[354]],[[355],[356],[357],[358],[359],[360],[361],[362]],[[363],[364]]]},{"type":"Polygon","properties":{"source":"naturalearthdata.com","kind":"urban_area","name":"","area":334144608,"sort_rank":11,"min_zoom":4.0,"id":4541},"arcs":[[365]]},{"type":"MultiPolygon","properties":{"source":"openstreetmap.org","kind":"nature_reserve","tier":2,"protect_class":"1","area":48727534,"sort_rank":23,"min_zoom":8.0},"arcs":[[[366]]]},{"type":"MultiPolygon","properties":{"kind":"nature_reserve","protect_class":"1","area":218588658,"sort_rank":23,"operator":"Nova Scotia Environment","source":"openstreetmap.org","min_zoom":8.0,"tier":2,"osm_relation":true},"arcs":[[[367]],[[368]]]},{"type":"MultiPolygon","properties":{"kind":"nature_reserve","protect_class":"1","area":318428341,"sort_rank":23,"source":"openstreetmap.org","min_zoom":8.0,"tier":2,"osm_relation":true},"arcs":[[[369]]]},{"type":"Polygon","properties":{"kind":"aerodrome","area":16980700,"sort_rank":60,"operator":"Halifax International Airport Authority","source":"openstreetmap.org","min_zoom":8.0,"tier":3,"id":100034801},"arcs":[[370]]},{"type":"Polygon","properties":{"kind":"park","protect_class":"2","area":32296700,"sort_rank":24,"operator":"Nova Scotia Department of Natural Resources","source":"openstreetmap.org","min_zoom":8.0,"tier":2,"id":-5011616,"osm_relation":true},"arcs":[[371],[372],[373],[374]]},{"type":"MultiPolygon","properties":{"kind":"nature_reserve","protect_class":"1","area":647670160,"sort_rank":23,"source":"openstreetmap.org","min_zoom":6.0,"tier":2,"osm_relation":true},"arcs":[[[375],[376],[377]],[[378],[379],[380],[381],[382],[383]]]},{"type":"MultiPolygon","properties":{"source":"openstreetmap.org","kind":"military","tier":3,"area":11038387,"sort_rank":45,"min_zoom":8.0},"arcs":[[[384]],[[385]]]},{"type":"MultiPolygon","properties":{"source":"openstreetmap.org","kind":"nature_reserve","tier":2,"area":110366433,"sort_rank":23,"min_zoom":8.0,"osm_relation":true},"arcs":[[[386],[387],[388],[389]],[[390]]]}]}},"type":"Topology","transform":{"translate":[-64.6875,44.0875850282],"scale":[0.0003433228,0.0002444948]},"arcs":[[[1782,0],[37,30],[134,201],[203,217],[120,265],[260,-90],[472,-36],[382,32],[163,41],[188,98],[166,156],[102,159],[87,208]],[[663,0],[439,344],[223,325],[677,649],[-9,375],[136,10],[17,-77],[493,-94],[-46,-103],[150,-62],[227,4],[0,-38],[374,1],[113,346],[4,264],[635,182]],[[3262,2257],[-42,-47],[-112,64],[-20,74],[-94,85],[-4,82],[-39,46],[17,45],[137,127],[-106,289],[2,87],[119,63],[62,89],[36,115],[72,81],[63,25],[245,255],[137,359]],[[1551,4096],[54,-66],[49,-44],[55,-11],[0,-26],[-39,-28],[-14,-67],[8,-76],[27,-55],[-44,19],[-40,3],[-34,-23],[-23,-57],[18,225],[-7,45],[-140,161],[130,0]],[[4096,2274],[0,-2274],[-3715,0],[20,50],[12,71],[-25,53],[-60,15],[-72,5],[-62,24],[21,1],[12,7],[11,11],[16,11],[-17,42],[34,-2],[102,-40],[13,7],[8,40],[9,9],[16,-5],[23,-19],[12,-7],[26,-8],[26,-12],[46,-35],[44,136],[16,34],[24,20],[59,24],[27,24],[15,35],[9,73],[17,34],[169,124],[21,31],[7,28],[2,37],[-5,33],[-14,14],[-54,16],[-56,41],[-50,54],[-30,56],[58,-47],[220,-120],[-12,-6],[-28,-22],[23,-35],[26,-30],[53,-49],[20,30],[55,-53],[51,34],[92,131],[-150,0],[-2,19],[73,118],[-77,36],[-31,7],[-31,-13],[14,-12],[28,-31],[15,-13],[-36,-24],[-30,14],[-31,26],[-40,10],[12,38],[0,33],[-12,25],[-22,18],[0,28],[191,0],[103,-24],[54,-4],[50,28],[-73,38],[-73,15],[-150,3],[0,25],[36,25],[34,32],[38,25],[51,7],[-51,27],[-63,7],[-125,-8],[12,57],[-24,35],[-29,30],[0,45],[126,36],[34,20],[-55,27],[-24,1],[26,29],[26,35],[20,42],[7,51],[-7,47],[-10,39],[2,27],[33,12],[-23,63],[-14,21],[72,-32],[81,-59],[74,-28],[49,63],[-3,78],[41,36],[57,8],[46,-10],[51,-39],[49,-63],[27,-71],[-16,-64],[1,-25],[18,-116],[33,-40],[27,-12],[62,8],[34,45],[25,87],[41,56],[87,-46],[-39,161],[-34,83],[-47,36],[-27,28],[5,142],[-17,53],[27,19],[163,67],[33,2],[185,77],[56,37],[53,52],[-7,-68],[-33,-54],[-79,-76],[29,-22],[13,-4],[-10,-31],[-18,-21],[-54,-34],[43,-84],[19,-27],[-58,-160],[-2,-83],[38,-93],[22,-24],[28,-18],[34,-12],[37,-4],[40,6],[60,23],[39,1],[-13,43],[-6,15],[37,24],[23,-16],[18,-28],[23,-10],[20,13],[35,48],[24,23],[-56,-117],[-15,-54],[10,-55],[36,-33],[30,38],[26,64],[27,45],[4,-54],[15,-40],[27,-29],[36,-19],[24,22],[13,-23],[10,-36],[14,-19],[30,9],[8,19],[6,19],[23,9],[101,22],[48,3],[41,-25],[-13,-15],[-20,-31],[-14,-36],[7,-30],[25,-7],[20,21],[15,28],[32,43],[15,56],[25,43],[49,-13],[-1,-16],[-15,-22],[-6,-24],[22,-22],[17,2],[56,25],[16,12],[45,64],[28,59],[1,61],[-68,131],[-4,46],[7,52],[1,79],[-10,39],[-43,130],[-15,28],[-16,18],[-39,74],[-26,17],[-70,-5],[-21,5],[-36,32],[-26,47],[-38,119],[52,2],[34,-17],[171,-194],[103,-72],[82,-98],[100,-43],[57,-52],[51,-18],[50,71],[18,81],[-15,60],[-41,45],[-61,37],[113,60],[52,-4],[33,-56],[-26,-5],[-17,-10],[-38,-38],[77,-50],[209,-28],[94,-36],[11,66]],[[4096,2274],[-11,-66],[-94,36],[-209,28],[-77,50],[38,38],[17,10],[26,5],[-33,56],[-52,4],[-113,-60],[61,-37],[41,-45],[15,-60],[-18,-81],[-50,-71],[-51,18],[-57,52],[-100,43],[-82,98],[-103,72],[-171,194],[-34,17],[-52,-2],[38,-119],[26,-47],[36,-32],[21,-5],[70,5],[26,-17],[39,-74],[16,-18],[15,-28],[43,-130],[10,-39],[-1,-79],[-7,-52],[4,-46],[68,-131],[-1,-61],[-28,-59],[-45,-64],[-16,-12],[-56,-25],[-17,-2],[-22,22],[6,24],[15,22],[1,16],[-49,13],[-25,-43],[-15,-56],[-32,-43],[-15,-28],[-20,-21],[-25,7],[-7,30],[14,36],[20,31],[13,15],[-41,25],[-48,-3],[-101,-22],[-23,-9],[-6,-19],[-8,-19],[-30,-9],[-14,19],[-10,36],[-13,23],[-24,-22],[-36,19],[-27,29],[-15,40],[-4,54],[-27,-45],[-26,-64],[-30,-38],[-36,33],[-10,55],[15,54],[56,117],[-24,-23],[-35,-48],[-20,-13],[-23,10],[-18,28],[-23,16],[-37,-24],[6,-15],[13,-43],[-39,-1],[-60,-23],[-40,-6],[-37,4],[-34,12],[-28,18],[-22,24],[-38,93],[2,83],[58,160],[-19,27],[-43,84],[54,34],[18,21],[10,31],[-13,4],[-29,22],[79,76],[33,54],[7,68],[-53,-52],[-56,-37],[-185,-77],[-33,-2],[-163,-67],[-27,-19],[17,-53],[-5,-142],[27,-28],[47,-36],[34,-83],[39,-161],[-87,46],[-41,-56],[-25,-87],[-34,-45],[-62,-8],[-27,12],[-33,40],[-18,116],[-1,25],[16,64],[-27,71],[-49,63],[-51,39],[-46,10],[-57,-8],[-41,-36],[3,-78],[-49,-63],[-74,28],[-81,59],[-72,32],[14,-21],[23,-63],[-33,-12],[-2,-27],[10,-39],[7,-47],[-7,-51],[-20,-42],[-26,-35],[-26,-29],[24,-1],[55,-27],[-34,-20],[-126,-36],[0,-45],[29,-30],[24,-35],[-12,-57],[125,8],[63,-7],[51,-27],[-51,-7],[-38,-25],[-34,-32],[-36,-25],[0,-25],[150,-3],[73,-15],[73,-38],[-50,-28],[-54,4],[-103,24],[-191,0],[0,-28],[22,-18],[12,-25],[0,-33],[-12,-38],[40,-10],[31,-26],[30,-14],[36,24],[-15,13],[-28,31],[-14,12],[31,13],[31,-7],[77,-36],[-73,-118],[2,-19],[150,0],[-92,-131],[-51,-34],[-55,53],[-20,-30],[-53,49],[-26,30],[-23,35],[28,22],[12,6],[-220,120],[-58,47],[30,-56],[50,-54],[56,-41],[54,-16],[14,-14],[5,-33],[-2,-37],[-7,-28],[-21,-31],[-169,-124],[-17,-34],[-9,-73],[-15,-35],[-27,-24],[-59,-24],[-24,-20],[-16,-34],[-44,-136],[-46,35],[-26,12],[-26,8],[-12,7],[-23,19],[-16,5],[-9,-9],[-8,-40],[-13,-7],[-102,40],[-34,2],[17,-42],[-16,-11],[-11,-11],[-12,-7],[-21,-1],[62,-24],[72,-5],[60,-15],[25,-53],[-12,-71],[-20,-50]],[[1421,4096],[140,-161],[7,-45],[-18,-225],[23,57],[34,23],[40,-3],[44,-19],[-27,55],[-8,76],[14,67],[39,28],[0,26],[-55,11],[-49,44],[-54,66]],[[2982,2715],[-80,84]],[[3006,2645],[-2,42]],[[2992,2432],[-2,69]],[[3199,2337],[-1,-1]],[[3203,2337],[-3,0]],[[3110,2742],[64,114],[-22,75]],[[3152,2932],[-7,173],[-29,62],[69,117],[104,83],[31,54],[29,3],[4,76],[249,271],[71,203],[73,120]],[[3744,4092],[0,4]],[[3006,2645],[104,97]],[[3228,2594],[-5,-3]],[[3223,2590],[6,3]],[[3266,2611],[26,54]],[[3292,2665],[-17,-13]],[[3292,2665],[4,2]],[[3462,2480],[-3,2]],[[2990,2501],[-6,23]],[[3198,2336],[1,0]],[[2989,2229],[-2,4]],[[3247,2370],[-27,-1],[9,16]],[[3396,2226],[2,1]],[[2671,2355],[65,-59]],[[3741,4094],[2,-5]],[[3109,2265],[6,1]],[[3115,2266],[-5,0]],[[3115,2266],[39,7]],[[3145,2289],[9,-16]],[[3154,2273],[13,5],[2,1],[22,9]],[[3154,2273]],[[3154,2273],[-9,17]],[[3191,2288],[4,1]],[[3192,2288],[-1,0]],[[3005,2267],[-1,-1]],[[3459,2482],[-33,36]],[[3124,2310],[-14,33],[14,-34]],[[2095,2392],[1,-1],[0,1]],[[2097,2393],[-1,0]],[[2096,2394],[-1,-1],[1,-1],[1,1],[-1,1]],[[3464,2481],[5,7]],[[3493,2498],[18,6]],[[2971,2721],[64,-57],[19,-73]],[[3054,2592],[-17,68],[-2,4],[-23,35],[-2,2],[-19,9],[-8,3],[-10,7]],[[3124,2282],[13,2],[8,6],[-8,-5],[-13,-3]],[[3357,2436]],[[3357,2436],[7,3]],[[3364,2439],[3,1]],[[3103,2353],[-10,-1]],[[3208,2350],[2,5]],[[3211,2355],[6,9]],[[3236,2308],[-6,-3]],[[1298,1834],[111,-186]],[[1409,1648],[97,-104]],[[1409,1648],[121,-31],[62,-45]],[[3046,2244],[-12,-4]],[[3212,2299],[-1,0]],[[3076,2245],[-22,1]],[[3093,2259],[10,7]],[[3107,2267],[-4,-1]],[[3103,2266],[4,-1]],[[2902,2799],[-60,45]],[[3252,2301],[63,-6]],[[3248,2296],[-2,2]],[[1105,1951],[-39,194],[-211,182],[-183,280],[-188,568],[-38,149],[51,142],[-61,357],[45,123],[89,97]],[[3252,2301],[63,-6]],[[3208,2350],[21,35]],[[3224,2319],[-1,0]],[[3269,2361],[-10,-3]],[[3317,2298],[-10,25]],[[3217,2364],[10,13]],[[3301,2451],[-2,-4]],[[3220,2301],[11,4]],[[30,4],[0,-4]],[[2096,2391],[-24,-85],[-53,10],[-92,-75],[-80,31],[-129,-96],[-140,-63],[-65,-72],[-46,17],[-68,-46],[-43,-71],[6,-48],[-76,-15],[-32,55],[-40,-18],[-98,54],[-60,-63],[48,-107],[-26,-112],[-188,-209],[86,-47],[1,-88],[102,-154],[-201,6],[-33,-30],[-80,23],[-83,-47],[-74,32],[-57,-15],[-52,35],[-143,-259]],[[2987,2233],[-119,15],[-84,73],[-157,75],[-250,51],[-53,35],[-54,-18],[-59,-103],[-40,-20],[-28,-5],[-46,58]],[[30,4],[-2,-4]],[[1059,1962],[-17,-42],[31,-184],[-24,-49],[-111,-111],[-96,-17],[-266,-283],[-136,-28],[-33,-41],[11,-126]],[[1059,1962],[98,75]],[[1881,2294],[-412,-233],[-312,-24]],[[2941,2227],[-12,-5],[-80,5],[-254,197],[-101,30],[-61,56],[-75,9],[73,-10],[61,-55],[106,-33],[73,-66]],[[2736,2296],[117,-72],[52,-13]],[[2933,2223],[46,17],[15,15]],[[2994,2256],[-15,-16],[-30,-10]],[[3336,2294],[31,40],[-55,106],[-61,41],[-75,-27]],[[3176,2454],[75,27],[60,-42],[56,-105],[-32,-39]],[[3124,2310],[-31,6]],[[3124,2309],[21,-20]],[[3145,2290],[-21,20]],[[3210,2299],[-14,-10]],[[3230,2305],[-18,-7]],[[3273,2385],[2,3]],[[3173,2854],[1,1]],[[3110,2269],[-2,-2]],[[3110,2266],[0,3]],[[3110,2269],[14,13]],[[3108,2265],[1,0],[0,2],[-2,0],[1,-2]],[[3004,2266],[-10,-10]],[[2994,2255],[10,11]],[[562,4047],[1,0]],[[715,4015],[0,-1]],[[716,4015]],[[2842,2844],[-17,40]],[[3102,2352],[2,-4]],[[3124,2310]],[[3145,2290],[14,5]],[[3159,2295],[-2,-1]],[[3159,2295],[34,35]],[[3193,2330],[5,4],[1,2]],[[3199,2336],[-6,-6]],[[3194,2565],[-37,-18],[-24,-28],[61,45]],[[3195,2289],[15,9]],[[3199,2336]],[[3202,2338],[25,-26]],[[3213,2299],[-1,0]],[[3220,2577],[3,13]],[[3225,2411],[22,25]],[[3227,2312]],[[3227,2312]],[[3241,2389],[2,7]],[[3255,2444],[1,1]],[[3111,2374],[0,-2]],[[3112,2372],[-1,2]],[[3223,2590],[-4,-13]],[[2992,2284],[-38,40],[-12,120],[-29,43],[-1,2]],[[2912,2489],[-1,3]],[[2911,2494],[1,-5]],[[2912,2489],[1,-2],[29,-43],[11,-120],[39,-40]],[[2944,2634],[40,32]],[[2984,2666],[10,8],[64,94]],[[3058,2769],[-64,-95],[-10,-8]],[[2984,2666],[-32,-27],[-8,-6]],[[3093,2316],[-99,-33]],[[2994,2283],[19,-10],[79,37]],[[2944,2560],[-2,2]],[[3460,2479],[2,1]],[[3282,2680],[12,-98],[1,-2]],[[3295,2580],[5,-13],[-23,-90]],[[3277,2477],[-2,-6],[-18,-24]],[[3257,2446],[10,11],[9,14],[0,2],[1,4]],[[3277,2477],[0,2],[3,16],[3,16],[12,69]],[[3295,2580],[0,2],[-9,112]],[[3284,2688],[0,-2]],[[3248,2296]],[[3559,2522],[7,2]],[[3575,2527],[28,1]],[[3615,2523],[49,67],[97,14],[33,65],[55,-28],[103,31],[57,-14],[38,45],[49,-10]],[[3470,2488],[8,8]],[[3250,2298],[-2,-2]],[[488,1202],[-98,133],[-3,62],[-178,152],[-70,115],[-73,50],[-66,90]],[[3224,2319]],[[3252,2301],[-2,-3]],[[3259,2358],[-4,-1]],[[3316,2298],[-1,-3]],[[3321,2297],[-3,1]],[[3255,2357],[-3,-56]],[[2821,2890],[-1,-1]],[[2821,2888],[1,1]],[[2819,2890],[-26,6]],[[2825,2884],[-2,4]],[[3273,2372],[1,1]],[[3104,2348],[6,-5]],[[3095,2315],[-5,-1]],[[3214,2421],[29,-25]],[[499,1193],[-11,9]],[[1618,3696],[8,-3]],[[2095,2395],[-28,51]],[[2095,2395],[0,-2]],[[2096,2394],[-1,1]],[[3152,2931],[0,1]],[[3152,2931],[0,-2]],[[3152,2932],[1,1]],[[3242,2303],[-15,9]],[[3227,2312],[16,-11]],[[3234,2384],[7,5]],[[3234,2384],[-2,-2],[-5,-5],[5,4],[2,3]],[[356,934],[48,-216],[-73,-135],[-180,-198],[4,-131],[-125,-250]],[[1881,2294],[95,2],[89,141],[216,109],[77,-27]],[[418,1081],[-62,-147]],[[3111,2374],[11,23],[-11,-23]],[[3167,2483],[-1,1]],[[3212,2299],[-1,0],[-1,-1],[1,0],[1,1]],[[3054,2246],[-8,-2]],[[544,4050],[-10,0]],[[546,4054],[-2,-4]],[[544,4050],[2,-1]],[[715,4015],[-1,-2]],[[716,4015],[1,2]],[[1425,4011],[26,22],[24,-13]],[[1618,3696],[-18,19],[-21,-16]],[[1626,3693],[1,-44]],[[2822,2889],[-1,1],[-1,-1],[1,-1],[1,1]],[[3111,2372],[-9,-19]],[[3103,2353],[9,19]],[[3286,2694],[1,17],[-68,162],[-53,74]],[[3168,2960],[-6,-20],[5,-12],[52,-58],[65,-182]],[[3284,2686],[-2,-6]],[[1253,1933],[-107,550],[37,77],[48,19],[70,179],[28,322],[91,362],[207,207]],[[1683,3627],[110,1],[71,32],[138,144],[101,1],[41,47],[151,32],[34,95],[264,-78],[417,187],[81,-33],[157,-158],[14,-48],[41,-18],[60,11],[152,99],[103,21]],[[3618,3962],[1,0]],[[3618,3963],[0,-1]],[[3620,3964],[-1,-1],[0,-1],[1,1]],[[3620,3963],[0,1]],[[3622,3963],[-2,1]],[[3620,3963],[2,0]],[[3622,3963],[5,-4]],[[3627,3959],[1,-2]],[[3628,3958],[-1,1]],[[3629,3957],[3,0]],[[3632,3957],[-3,1]],[[3653,3952],[-21,5]],[[3628,3957],[1,0]],[[3629,3957],[0,1],[-1,0]],[[3628,3958],[0,-1]],[[3210,2355],[1,0]],[[3273,2375],[1,0]],[[3276,2364],[-2,9]],[[0,4000],[310,53],[187,-113],[132,16],[213,88],[215,52]],[[1299,4096],[15,-24]],[[1314,4072],[24,-36]],[[1338,4036],[3,-3],[131,-102],[27,-124]],[[1499,3807],[-27,125],[-3,3],[-131,101]],[[1338,4036],[-3,3],[-21,33]],[[1314,4072],[-14,24]],[[1717,3623],[-60,92],[-100,8],[-58,84]],[[1717,3623],[24,-25],[172,1],[36,-19],[112,-131],[420,-247],[137,-175],[209,-203]],[[2827,2825],[-208,203],[-137,175],[-420,246],[-112,132],[-35,19],[-71,2],[-103,-3],[-24,24]],[[2911,2492],[-29,73],[12,18]],[[2894,2583],[11,17],[1,1],[9,10]],[[2915,2611],[1,1],[28,22]],[[2944,2633],[-29,-22]],[[2915,2611],[-2,-1],[-20,-24],[1,-3]],[[2894,2583],[17,-89]],[[2992,2284],[2,-1]],[[2994,2283],[-2,1]],[[3645,4096],[12,-97],[-80,-91],[-26,-86],[-99,-154],[-104,-116],[-10,-76],[26,-251],[-35,-50],[-117,-103],[-25,-27],[-19,-85],[-28,-30],[-24,-80],[-1,-7],[0,-1]],[[3115,2842],[-2,-12],[-22,-20]],[[3091,2810],[-4,-3],[-6,-4],[-23,-34]],[[3058,2768],[23,34],[6,4],[4,4]],[[3091,2810],[24,32]],[[3115,2842],[1,1],[24,87],[21,11],[5,6],[22,97],[24,27],[45,32],[73,71],[22,25],[13,26],[9,40],[-34,210],[9,76],[103,116],[100,154],[27,87],[79,90],[-6,71],[-6,27]],[[3255,2357],[-3,-56]],[[3100,2351],[3,1]],[[3003,2691],[-9,13]],[[2997,2701],[6,-10]],[[3004,2687],[-1,4]],[[3273,2375],[0,1]],[[3276,2364]],[[3312,2427],[0,-2]],[[3219,2577],[-25,-12]],[[3194,2564],[26,13]],[[0,3890],[58,55],[476,105]],[[546,4049],[18,-3]],[[564,4046],[-18,8]],[[564,4046],[73,-33],[79,2]],[[715,4015],[194,81]],[[1425,4011],[-74,27],[-41,58]],[[1475,4020],[85,-111],[-48,-148],[67,-62]],[[2793,2896],[-135,100],[-77,102],[-6,63],[-122,198],[-170,69],[-95,143],[-437,12],[-44,8],[-24,36]],[[2940,2569],[0,3]],[[3426,2518],[-70,78]],[[3199,2336],[9,14]],[[3412,2220],[19,-7]],[[2994,2704],[-21,16],[-99,58],[-38,41],[-9,6]],[[2827,2824],[47,-46],[123,-77]],[[2967,2607],[39,38]],[[3100,2351],[-108,81]],[[1627,3649],[56,-22]],[[3211,2298],[1,0]],[[3274,2375]],[[3274,2375],[-1,-3]],[[3123,2309],[1,1]],[[3566,2524],[9,3]],[[3273,2376],[1,2]],[[3246,2298],[-2,4]],[[2905,2211],[28,12]],[[2949,2230],[-8,-3]],[[3199,2336],[9,14]],[[3199,2337],[1,0]],[[3223,2319],[-20,18]],[[3307,2323],[-38,38]],[[3273,2385],[1,-7]],[[3312,2425],[-37,-37]],[[3290,2441],[22,-14]],[[3301,2451],[-19,23],[21,72],[-11,120]],[[3231,2305],[4,1]],[[3002,2636],[42,-27]],[[3044,2609],[68,-78]],[[3166,2484],[-54,47]],[[3326,2429],[10,1]],[[3336,2430],[-2,0]],[[3336,2430],[5,0]],[[3342,2431],[-1,-1]],[[3342,2431],[5,0]],[[3347,2431],[3,1]],[[3350,2432],[7,4]],[[3367,2440],[2,0]],[[3034,2240],[-45,-11]],[[3398,2227],[14,-7]],[[3431,2213],[127,-4],[51,121],[126,65],[92,-45],[75,-73],[69,-1],[21,-24],[83,76],[21,4]],[[4096,2571],[-17,46]],[[3110,2343],[-7,10]],[[3464,2481]],[[3196,2289],[-4,-1]],[[3549,2518],[10,4]],[[3092,2310],[31,-1]],[[3603,2528],[12,-5]],[[3122,2397],[32,51]],[[3154,2448],[22,6]],[[3176,2454],[-22,-6]],[[3331,2289],[5,5]],[[3335,2295],[-3,-5]],[[3460,2479],[-78,-36]],[[3382,2443],[-9,-1],[-4,-2],[3,1],[10,2]],[[3164,2487],[20,-31],[30,-35],[-47,62]],[[3511,2504],[38,14]],[[3244,2302],[-11,9]],[[3321,2297],[4,1]],[[3102,2353],[0,-1]],[[3275,2652],[-47,-58]],[[3229,2593],[37,18]],[[3356,2596],[-60,71]],[[3615,2523],[323,94],[95,-6],[63,40]],[[2942,2562],[-2,7]],[[2940,2572],[27,35]],[[2984,2524],[-40,36]],[[3257,2447],[-2,-3]],[[3256,2445],[1,1]],[[3462,2480],[2,1]],[[3478,2496],[15,2]],[[3469,2488],[1,0]],[[4096,4096],[0,-1822],[-11,-66],[-94,36],[-209,28],[-77,50],[38,38],[17,10],[26,5],[-33,56],[-52,4],[-113,-60],[61,-37],[41,-45],[15,-60],[-18,-81],[-50,-71],[-51,18],[-57,52],[-100,43],[-82,98],[-103,72],[-171,194],[-34,17],[-52,-2],[38,-119],[26,-47],[36,-32],[21,-5],[70,5],[26,-17],[39,-74],[16,-18],[15,-28],[43,-130],[10,-39],[-1,-79],[-7,-52],[4,-46],[68,-131],[-1,-61],[-28,-59],[-45,-64],[-16,-12],[-56,-25],[-17,-2],[-22,22],[6,24],[15,22],[1,16],[-49,13],[-25,-43],[-15,-56],[-32,-43],[-15,-28],[-20,-21],[-25,7],[-7,30],[14,36],[20,31],[13,15],[-41,25],[-48,-3],[-101,-22],[-23,-9],[-6,-19],[-8,-19],[-30,-9],[-14,19],[-10,36],[-13,23],[-24,-22],[-36,19],[-27,29],[-15,40],[-4,54],[-27,-45],[-26,-64],[-30,-38],[-36,33],[-10,55],[15,54],[56,117],[-24,-23],[-35,-48],[-20,-13],[-23,10],[-18,28],[-23,16],[-37,-24],[6,-15],[13,-43],[-39,-1],[-60,-23],[-40,-6],[-37,4],[-34,12],[-28,18],[-22,24],[-38,93],[2,83],[58,160],[-19,27],[-43,84],[54,34],[18,21],[10,31],[-13,4],[-29,22],[79,76],[33,54],[7,68],[-53,-52],[-56,-37],[-185,-77],[-33,-2],[-163,-67],[-27,-19],[17,-53],[-5,-142],[27,-28],[47,-36],[34,-83],[39,-161],[-87,46],[-41,-56],[-25,-87],[-34,-45],[-62,-8],[-27,12],[-33,40],[-18,116],[-1,25],[16,64],[-27,71],[-49,63],[-51,39],[-46,10],[-57,-8],[-41,-36],[3,-78],[-49,-63],[-74,28],[-81,59],[-72,32],[14,-21],[23,-63],[-33,-12],[-2,-27],[10,-39],[7,-47],[-7,-51],[-20,-42],[-26,-35],[-26,-29],[24,-1],[55,-27],[-34,-20],[-126,-36],[0,-45],[29,-30],[24,-35],[-12,-57],[125,8],[63,-7],[51,-27],[-51,-7],[-38,-25],[-34,-32],[-36,-25],[0,-25],[150,-3],[73,-15],[73,-38],[-50,-28],[-54,4],[-103,24],[-191,0],[0,-28],[22,-18],[12,-25],[0,-33],[-12,-38],[40,-10],[31,-26],[30,-14],[36,24],[-15,13],[-28,31],[-14,12],[31,13],[31,-7],[77,-36],[-73,-118],[2,-19],[150,0],[-92,-131],[-51,-34],[-55,53],[-20,-30],[-53,49],[-26,30],[-23,35],[28,22],[12,6],[-220,120],[-58,47],[30,-56],[50,-54],[56,-41],[54,-16],[14,-14],[5,-33],[-2,-37],[-7,-28],[-21,-31],[-169,-124],[-17,-34],[-9,-73],[-15,-35],[-27,-24],[-59,-24],[-24,-20],[-16,-34],[-44,-136],[-46,35],[-26,12],[-26,8],[-12,7],[-23,19],[-16,5],[-9,-9],[-8,-40],[-13,-7],[-102,40],[-34,2],[17,-42],[-16,-11],[-11,-11],[-12,-7],[-21,-1],[62,-24],[72,-5],[60,-15],[25,-53],[-12,-71],[-20,-50],[-381,0],[0,4096],[1421,0],[140,-161],[7,-45],[-18,-225],[23,57],[34,23],[40,-3],[44,-19],[-27,55],[-8,76],[14,67],[39,28],[0,26],[-55,11],[-49,44],[-54,66],[2545,0]],[[3318,2446],[5,22],[21,-5],[36,-37],[74,49],[32,-110],[8,49],[-22,19],[-9,57],[41,-6],[9,20],[-8,-49],[34,-69],[-29,3],[15,-44],[-16,16],[-10,2],[44,-62],[-26,-20],[1,31],[-25,-10],[-62,111],[3,-28],[-67,3],[-23,29],[15,21],[-41,8]],[[3473,2463],[11,-34],[17,2],[15,-31],[-13,38],[-30,25]],[[3435,2414],[2,-8],[1,-5],[6,5],[-9,8]],[[3501,2368],[7,-5],[5,9],[-3,-4],[-9,0]],[[3496,2417],[1,-5],[9,3],[-5,4],[-5,-2]],[[3375,2417],[3,-5],[4,11],[-3,-2],[-4,-4]],[[3478,2347],[8,-8],[2,3],[-2,7],[-8,-2]],[[3454,2387],[3,-10],[12,8],[-1,3],[-14,-1]],[[3336,2450],[9,-8],[3,3],[-4,8],[-8,-3]],[[2193,1731],[61,68],[97,-129],[-83,17],[-9,-16],[-66,60]],[[2269,1764],[10,-24],[16,-7],[-9,15],[-17,16]],[[2261,1718],[13,-10],[10,6],[-3,2],[-20,2]],[[2258,1759],[9,-9],[2,1],[-7,11],[-4,-3]],[[2252,1708],[11,-8],[6,-8],[-6,17],[-11,-1]],[[2213,1729],[4,-11],[8,-1],[1,2],[-13,10]],[[2217,1756],[5,-7],[2,0],[1,5],[-4,5],[-4,-3]],[[2724,2049],[137,0],[25,21],[-95,-120],[-22,28],[-21,-9],[-24,80]],[[2763,1991],[26,1],[3,27],[-20,-8],[-9,-20]],[[2797,2008],[2,-6],[11,-1],[10,3],[7,12],[-30,-8]],[[2776,2143],[74,72],[13,-29],[-29,-9],[37,-13],[23,43],[54,23],[22,-1],[10,-23],[-4,-27],[-21,-54],[-37,12],[-85,-86],[-12,19],[-33,-15],[-12,88]],[[2820,2090],[16,-35],[31,61],[-33,-17],[-3,13],[3,4],[3,-2],[2,1],[2,2],[-2,13],[-19,-40]],[[2930,2193],[10,-7],[26,-2],[-21,26],[-15,-17]],[[2968,2207],[2,-4],[9,-3],[0,7],[-11,0]],[[2813,2128],[9,-5],[1,13],[-9,-3],[-1,-5]],[[2962,2208],[2,-5],[4,1],[0,5],[-6,-1]],[[2867,2103],[43,30],[8,5],[-24,4],[-27,-39]],[[2931,2135],[17,-6],[3,14],[-16,5],[-4,-13]],[[3900,3364],[35,10],[-23,13],[24,14],[-18,34],[66,77],[40,1],[30,-82],[-32,-11],[-25,-64],[10,-73],[-36,-13],[-29,77],[-31,-12],[-11,29]],[[3948,3384],[12,-12],[-3,-25],[21,-63],[9,165],[-34,-25],[-5,-40]],[[3127,2724],[-3,-75],[32,-45],[65,0],[32,-45],[33,136],[54,-142],[36,-31],[136,-9],[-16,-137],[-65,-24],[-35,-118],[-323,324],[-86,15],[64,-166],[36,-32],[117,-17],[89,-179],[-234,16],[0,45],[-65,0],[0,46],[-65,-46],[-64,46],[3,79],[78,232],[-5,75],[-76,68],[-48,106],[15,76],[65,0],[97,-46],[0,-90],[100,-27],[33,-35]],[[379,4096],[47,-21],[44,16],[67,-35],[-166,-25],[-23,65],[31,0]],[[1291,2364],[40,8],[17,-13],[-13,62],[27,11],[-3,55],[38,54],[-17,33],[13,59],[-17,-7],[26,56],[46,9],[36,-114],[56,-58],[17,30],[18,-37],[-43,-102],[19,97],[-31,13],[-76,-46],[-19,-44],[32,34],[-18,-23],[39,-29],[-2,26],[-21,-7],[41,26],[52,-89],[-118,-31],[16,-52],[-46,72],[10,44],[-38,-11],[23,-76],[-84,-22],[-20,72]],[[1483,2715],[22,48],[-12,119],[123,28],[18,-33],[-72,-306],[-55,21],[-24,123]],[[3559,3192],[230,73],[14,-15],[13,28],[48,-21],[10,-45],[-118,-66],[-164,-42],[-33,88]],[[3351,3195],[30,37],[0,84],[87,-7],[21,-23],[11,-35],[-78,-23],[-28,-62],[-30,-10],[-13,39]],[[2911,2032],[53,35],[-14,35],[50,73],[-21,14],[14,33],[16,-30],[95,-33],[-50,33],[1,28],[-42,6],[33,13],[0,-3],[28,-19],[12,-27],[18,-16],[-17,16],[-12,28],[-28,19],[9,6],[2,-13],[19,-12],[28,-44],[0,-16],[-50,-86],[-13,12],[-41,-40],[12,-50],[-19,26],[-16,-6],[32,-39],[23,62],[3,-51],[-29,-28],[-36,43],[-29,-8],[4,-23],[-35,62]],[[3059,2210],[12,-12],[6,9],[-8,10],[-10,-7]],[[3037,2229],[8,-3],[2,1],[-7,4],[-3,-2]],[[2958,2044],[8,-4],[3,0],[-6,6],[-5,-2]],[[2357,1961],[48,-5],[-31,51],[34,-4],[-6,28],[27,11],[-37,52],[24,4],[12,40],[-29,-10],[28,32],[-28,21],[12,25],[54,-15],[20,89],[65,-37],[-29,59],[75,28],[-7,-46],[38,-26],[18,74],[31,-8],[12,-35],[-18,70],[31,-17],[57,-75],[-2,-34],[-80,-76],[20,-62],[-21,-6],[52,-50],[26,-91],[-22,-32],[25,12],[0,-55],[-46,-3],[-12,49],[-43,11],[-21,-29],[-11,2],[17,18],[-37,29],[7,31],[-19,-4],[31,73],[-82,54],[-14,-21],[-34,12],[18,-37],[-17,-34],[16,-17],[-2,30],[12,-21],[-35,-62],[88,-27],[5,-47],[-25,-28],[-20,6],[11,34],[-125,5],[-61,64]],[[2631,1985],[29,-16],[4,27],[-21,14],[-12,-25]],[[2456,2074],[7,-38],[14,3],[-6,37],[-15,-2]],[[3301,2976],[29,101],[50,6],[7,-46],[-6,50],[78,31],[-8,46],[26,35],[8,-32],[48,-20],[-19,-16],[57,-120],[-31,-24],[92,-39],[7,27],[6,-24],[80,11],[22,-96],[62,32],[11,-19],[-11,-44],[-34,6],[32,-81],[-9,46],[75,-52],[-101,-31],[-10,20],[-46,-33],[-22,75],[-50,-15],[-17,59],[8,-61],[-20,-21],[-151,-16],[-75,84],[97,36],[-5,17],[-108,-30],[-36,121],[-36,17]],[[3417,2998],[4,-4],[8,-8],[-1,22],[-11,-10]],[[3429,2986],[8,-8],[5,5],[-5,8],[-8,-5]],[[3468,3100],[32,-23],[9,12],[-27,21],[-14,-10]],[[3761,2752],[2,-8],[10,1],[-8,10],[-4,-3]],[[3695,2915],[12,-21],[20,7],[-7,22],[-25,-8]],[[3389,2212],[22,-2],[9,64],[-28,25],[49,18],[78,-104],[-77,12],[-29,-31],[-24,18]],[[456,4096],[-30,-20],[-45,20],[75,0]],[[2797,1793],[16,40],[69,-53],[0,42],[26,15],[-42,5],[-28,88],[27,22],[-13,30],[28,12],[-11,26],[67,-58],[21,10],[-17,-20],[17,-15],[23,27],[61,-28],[-82,-59],[26,-62],[45,2],[12,-121],[38,-32],[-35,6],[28,-77],[-82,7],[-11,46],[-48,-13],[7,-29],[28,8],[-7,-62],[-131,28],[-23,86],[50,30],[-9,28],[41,-1],[-7,21],[31,13],[12,-23],[-53,-38],[11,-46],[15,16],[25,-18],[-16,25],[47,24],[12,-41],[18,20],[18,-18],[2,37],[35,-13],[-116,108],[-25,-37],[-57,11],[6,-37],[-39,48],[7,26],[-17,-6]],[[2951,1836],[11,-47],[15,4],[-11,47],[-15,-4]],[[2951,1787],[6,-25],[11,3],[-6,24],[-11,-2]],[[2863,1898],[17,-8],[8,34],[-18,4],[-7,-30]],[[2671,2445],[86,10],[9,-24],[31,40],[73,18],[16,-31],[-40,-25],[17,-26],[-20,-13],[31,-49],[-117,3],[1,56],[-46,-12],[-41,53]]]}