{"objects":{"water":{"type":"GeometryCollection","geometries":[{"type":"Polygon","properties":{"source":"naturalearthdata.com","kind":"ocean","area":1576712559132672,"sort_rank":200,"min_zoom":0.0,"id":1},"arcs":[[8]]},{"type":"LineString","properties":{"source":"naturalearthdata.com","kind":"ocean","sort_rank":205,"boundary":true,"min_zoom":0.0,"id":62},"arcs":[9]}]},"buildings":{"type":"GeometryCollection","geometries":[]},"places":{"type":"GeometryCollection","geometries":[]},"transit":{"type":"GeometryCollection","geometries":[{"type":"LineString","properties":{"source":"openstreetmap.org","kind":"train","name":"Train Indian Pacific: Perth => Sydney","sort_rank":275,"min_zoom":6.0,"osm_relation":true},"arcs":[6]},{"type":"LineString","properties":{"source":"openstreetmap.org","kind":"train","name":"Train Indian Pacific: Sydney => Perth","sort_rank":275,"min_zoom":6.0,"osm_relation":true},"arcs":[7]}]},"pois":{"type":"GeometryCollection","geometries":[]},"boundaries":{"type":"GeometryCollection","geometries":[{"type":"LineString","properties":{"name:ty":"Autereraria","name:ka":"\u10d0\u10d5\u10e1\u10e2\u10e0\u10d0\u10da\u10d8\u10d0","name:tr":"Avustralya","name:kn":"\u0c86\u0cb8\u0ccd\u0c9f\u0ccd\u0cb0\u0cc7\u0cb2\u0cbf\u0caf","name:km":"\u17a2\u17bc\u179f\u17d2\u178f\u17d2\u179a\u17b6\u179b\u17b8","name:kk":"\u0410\u0443\u0441\u0442\u0440\u0430\u043b\u0438\u044f","name:tt":"\u0410\u0432\u0441\u0442\u0440\u0430\u043b\u0438\u044f","name:kw":"Ostrali","name:tk":"Awstrali\u00fda","name:ku":"Awistralya","name:ti":"\u12a3\u12cd\u1235\u1275\u122b\u120a\u12eb","name:tl":"Australya","name:ce":"\u0410\u0432\u0441\u0442\u0440\u0430\u0301\u043b\u0438","name:ta":"\u0b86\u0bb8\u0bcd\u0ba4\u0bbf\u0bb0\u0bc7\u0bb2\u0bbf\u0baf\u0bbe","name:tg":"\u0410\u0432\u0441\u0442\u0440\u0430\u043b\u0438\u044f","name:ky":"\u0410\u0432\u0441\u0442\u0440\u0430\u043b\u0438\u044f","name:te":"\u0c06\u0c38\u0c4d\u0c1f\u0c4d\u0c30\u0c47\u0c32\u0c3f\u0c2f\u0c3e","alt_name:ca":"Mancomunitat d'Austr\u00e0lia","name:hr":"Australija","name:da":"Australien","name:de":"Australien","name:dz":"\u0f68\u0f66\u0f0b\u0f4a\u0f7a\u0f61\u0f7a\u0f0b\u0f63\u0f72\u0f0b\u0f61","source":"openstreetmap.org","alt_name:ta":"\u0b85\u0bb5\u0bc1\u0bb8\u0bcd\u0ba4\u0bbf\u0bb0\u0bc7\u0bb2\u0bbf\u0baf\u0bbe","name:cv":"\u0410\u0432\u0441\u0442\u0440\u0430\u043b\u0438","name:be":"\u0410\u045e\u0441\u0442\u0440\u0430\u0301\u043b\u0456\u044f","name:dv":"\u0787\u07ae\u0790\u07b0\u0793\u07a6\u0783\u07aa\u078d\u07a8\u0794\u07a7","name:cu":"\u0410\u0475\u0441\u0442\u0440\u0430\u043b\u0457\ua657","name:za":"Audaihleihya","name:lv":"Austr\u0101lija","name:lt":"Australija","name:uz":"Avstraliya","name:cs":"Austr\u00e1lie","name:ur":"\u0622\u0633\u0679\u0631\u06cc\u0644\u06cc\u0627","name:lb":"Australien","name:uk":"\u0410\u0432\u0441\u0442\u0440\u0430\u0301\u043b\u0456\u044f","name:ug":"\u0626\u0627\u06cb\u0633\u062a\u0649\u0631\u0627\u0644\u0649\u064a\u06d5","name:li":"Australi\u00eb","name:lo":"\u0e9b\u0eb0\u0ec0\u0e97\u0e94\u0ead\u0ebb\u0e94\u0eaa\u0eb0\u0e95\u0eb2\u0ea5\u0eb5","name:el":"\u0391\u03c5\u03c3\u03c4\u03c1\u03b1\u03bb\u03af\u03b1","name:eo":"A\u016dstralio","name":"Australia","name:kv":"\u0410\u0432\u0441\u0442\u0440\u0430\u043b\u0438\u044f","name:th":"\u0e2d\u0e2d\u0e2a\u0e40\u0e15\u0e23\u0e40\u0e25\u0e35\u0e22","name:et":"Austraalia","name:ay":"Australla","name:rn":"Australiya","name:az":"Avstraliya","name:ig":"Ostraliya","alt_name:zu":"I-Australiya","name:as":"\u0985\u09b7\u09cd\u099f\u09cd\u09f0\u09c7\u09b2\u09bf\u09af\u09bc\u09be","name:ar":"\u0623\u0633\u062a\u0631\u0627\u0644\u064a\u0627","name:is":"\u00c1stral\u00eda","name:iu":"\u140a\u1505\u1466\u154c\u14d5\u140a","name:ru":"\u0410\u0432\u0441\u0442\u0440\u0430\u0301\u043b\u0438\u044f","name:ab":"\u0410\u0432\u0441\u0442\u0440\u0430\u043b\u0438\u0430","name:af":"Australi\u00eb","name:zu":"I-Ostreliya","alt_name:rw":"Australiya","alt_name:gn":"Auter\u00e1lia","kind_detail":"2","name:zh-min-nan":"\u00d2-chiu","name:ca":"Austr\u00e0lia","name:zh-yue":"\u6fb3\u6d32","name:zh":"\u6fb3\u5927\u5229\u4e9a","name:sm":"Ausetalia","name:sl":"Avstralija","name:sk":"Austr\u00e1lia","name:ja":"\u30aa\u30fc\u30b9\u30c8\u30e9\u30ea\u30a2","name:si":"\u0d95\u0dc3\u0dca\u0da7\u0dca\u200d\u0dbb\u0dda\u0dbd\u0dd2\u0dba\u0dcf\u0dc0","name:sh":"Australija","name:sg":"Ostral\u00efi","name:sd":"\u0622\u0633\u067d\u0631\u064a\u0644\u064a\u0627","name:sc":"Austr\u00e0lia","name:br":"Aostralia","name:bs":"Australija","name:bm":"Ostralia","name:bn":"\u0985\u09b8\u09cd\u099f\u09cd\u09b0\u09c7\u09b2\u09bf\u09af\u09bc\u09be","name:bo":"\u0f68\u0f7c\u0f0b\u0f66\u0f7a\u0f0b\u0f50\u0f7a\u0f0b\u0f63\u0f72\u0f0b\u0f61\u0f0d","name:sa":"\u0906\u0938\u094d\u091f\u094d\u0930\u0947\u0932\u093f\u092f\u093e","name:sv":"Australien","name:bg":"\u0410\u0432\u0441\u0442\u0440\u0430\u043b\u0438\u044f","name:sr":"\u0410\u0443\u0441\u0442\u0440\u0430\u043b\u0438\u0458\u0430","osm_relation":true,"alt_name:sv":"Samv\u00e4ldet Australien","name:jv":"Ostrali","alt_name:sk":"Austr\u00e1lske spolo\u010denstvo","name:bi":"Ostrelia","name:pt":"Austr\u00e1lia","name:ps":"\u0622\u0633\u067c\u0631\u0627\u0644\u064a\u0627","name:om":"Awustireliyaa","name:oc":"Austr\u00e0lia","min_zoom":8.0,"name:ko":"\uc624\uc2a4\ud2b8\ub808\uc77c\ub9ac\uc544","name:pa":"\u0a06\u0a38\u0a1f\u0a4d\u0a30\u0a47\u0a32\u0a40\u0a06","name:os":"\u0410\u0432\u0441\u0442\u0440\u0430\u043b\u0438","name:or":"\u0b05\u0b37\u0b4d\u0b1f\u0b4d\u0b30\u0b47\u0b32\u0b3f\u0b06","name:pi":"\u0906\u0938\u094d\u091f\u094d\u0930\u0947\u0932\u093f\u092f\u093e","sort_rank":262,"name:ba":"\u0410\u0432\u0441\u0442\u0440\u0430\u043b\u0438\u044f","name:hi":"\u0911\u0938\u094d\u091f\u094d\u0930\u0947\u0932\u093f\u092f\u093e","name:he":"\u05d0\u05d5\u05e1\u05d8\u05e8\u05dc\u05d9\u05d4","name:ha":"Asturaliya","name:hy":"\u0531\u057e\u057d\u057f\u0580\u0561\u056c\u056b\u0561","name:ht":"Ostrali","name:hu":"Ausztr\u00e1lia","name:qu":"Awstralya","kind":"country","name:cy":"Awstralia","name:yi":"\u05d0\u05d5\u05d9\u05e1\u05d8\u05e8\u05d0\u05b7\u05dc\u05d9\u05e2","name:am":"\u12a0\u12cd\u1235\u1275\u122b\u120d\u12eb","name:yo":"Austr\u00e1l\u00ed\u00e0","name:mt":"Awstralja","name:mr":"\u0911\u0938\u094d\u091f\u094d\u0930\u0947\u0932\u093f\u092f\u093e","name:my":"\u1029\u1005\u1010\u103c\u1031\u1038\u101c\u103b\u1014\u102d\u102f\u1004\u103a\u1004\u1036","official_name":"Commonwealth of Australia","name:mg":"Aostralia","name:ml":"\u0d13\u0d38\u0d4d\u0d1f\u0d4d\u0d30\u0d47\u0d32\u0d3f\u0d2f","name:vi":"\u00dac","name:mn":"\u0410\u0432\u0441\u0442\u0440\u0430\u043b\u0438","name:mi":"Ahitereiria","id":-80500,"name:mk":"\u0410\u0432\u0441\u0442\u0440\u0430\u043b\u0438\u0458\u0430","name:vo":"Laustral\u00e4n","name:fa":"\u0627\u0633\u062a\u0631\u0627\u0644\u06cc\u0627","name:rw":"Ositaraliya","alt_name:mi":"Whenua Moemoe\u0101","name:fo":"Avstralia","name:fr":"Australie","name:fy":"Austraalje","alt_name:af":"Gemenebes van Australi\u00eb","name:nl":"Australi\u00eb","alt_name:nv":"Bich\u02bc\u00e1h Yiisdiis\u00ed Bik\u00e9yah","name:na":"Otereiriya","name:ne":"\u0905\u0937\u094d\u091f\u094d\u0930\u0947\u0932\u093f\u092f\u093e","name:wa":"Ostraleye","name:wo":"\u00d3straali","name:nv":"Nahat\u02bce\u02bciitsoh Bik\u00e9yah","name:ga":"Astr\u00e1il","name:gd":"Astr\u00e0ilia","name:gn":"Autaralia","maritime_boundary":true,"name:gv":"Austrail","name:gu":"\u0a91\u0ab8\u0acd\u0a9f\u0acd\u0ab0\u0ac7\u0ab2\u0abf\u0aaf\u0abe"},"arcs":[0]},{"type":"LineString","properties":{"name:right:nl":"Zuid-Australi\u00eb","name:right:ja":"\u5357\u30aa\u30fc\u30b9\u30c8\u30e9\u30ea\u30a2","name:left:pl":"Australia Zachodnia","name:right:vo":"Sul\u00fcda-Laustral\u00e4n","name:left:ja":"\u897f\u30aa\u30fc\u30b9\u30c8\u30e9\u30ea\u30a2","id:right":-2316596,"name:right:lt":"Piet\u0173 Australija","min_zoom":8.0,"name:left:lt":"Vakar\u0173 Australija","id:left":-2316598,"name:left:ru":"\u0417\u0430\u043f\u0430\u0434\u043d\u0430\u044f \u0410\u0432\u0441\u0442\u0440\u0430\u043b\u0438\u044f","name:left:vo":"Ves\u00fcda-Laustral\u00e4n","name:right:ru":"\u042e\u0436\u043d\u0430\u044f \u0410\u0432\u0441\u0442\u0440\u0430\u043b\u0438\u044f","name:right:eo":"Suda A\u016dstralio","id":-2316598,"osm_relation":true,"name:right":"South Australia","kind":"region","name:left:eo":"Okcidenta A\u016dstralio","name":"Western Australia - South Australia","sort_rank":256,"name:right:pl":"Australia Po\u0142udniowa","name:left:de":"Westaustralien","source":"openstreetmap.org","name:left:zh":"\u897f\u6fb3\u5927\u5229\u4e9a\u5dde","name:left:kn":"\u0caa\u0cb6\u0ccd\u0c9a\u0cbf\u0cae \u0c86\u0cb8\u0ccd\u0c9f\u0ccd\u0cb0\u0cc7\u0cb2\u0cbf\u0caf","name:right:de":"S\u00fcdaustralien","kind_detail":"4","name:right:zh":"\u5357\u6fb3\u5927\u5229\u4e9a\u5dde","name:left:nl":"West-Australi\u00eb","name:left":"Western Australia"},"arcs":[1]},{"type":"LineString","properties":{"name:right:nl":"Zuid-Australi\u00eb","name:right:ja":"\u5357\u30aa\u30fc\u30b9\u30c8\u30e9\u30ea\u30a2","name:left:ja":"\u897f\u30aa\u30fc\u30b9\u30c8\u30e9\u30ea\u30a2","id:right":-2316596,"name:right:lt":"Piet\u0173 Australija","min_zoom":8.0,"name:left:lt":"Vakar\u0173 Australija","id":-2316598,"name:right":"South Australia","name:left:eo":"Okcidenta A\u016dstralio","sort_rank":256,"name:right:pl":"Australia Po\u0142udniowa","name:left:zh":"\u897f\u6fb3\u5927\u5229\u4e9a\u5dde","source":"openstreetmap.org","name:left:nl":"West-Australi\u00eb","id:left":-2316598,"name:left":"Western Australia","name:left:pl":"Australia Zachodnia","name:right:vo":"Sul\u00fcda-Laustral\u00e4n","name:left:kn":"\u0caa\u0cb6\u0ccd\u0c9a\u0cbf\u0cae \u0c86\u0cb8\u0ccd\u0c9f\u0ccd\u0cb0\u0cc7\u0cb2\u0cbf\u0caf","name:right:ru":"\u042e\u0436\u043d\u0430\u044f \u0410\u0432\u0441\u0442\u0440\u0430\u043b\u0438\u044f","name:left:ru":"\u0417\u0430\u043f\u0430\u0434\u043d\u0430\u044f \u0410\u0432\u0441\u0442\u0440\u0430\u043b\u0438\u044f","name:left:vo":"Ves\u00fcda-Laustral\u00e4n","name:right:eo":"Suda A\u016dstralio","osm_relation":true,"kind":"region","name":"Western Australia - South Australia","name:right:de":"S\u00fcdaustralien","name:left:de":"Westaustralien","maritime_boundary":true,"kind_detail":"4","name:right:zh":"\u5357\u6fb3\u5927\u5229\u4e9a\u5dde"},"arcs":[2]},{"type":"LineString","properties":{"name:nl":"West-Australi\u00eb","name:ja":"\u897f\u30aa\u30fc\u30b9\u30c8\u30e9\u30ea\u30a2","name:lt":"Vakar\u0173 Australija","name:kn":"\u0caa\u0cb6\u0ccd\u0c9a\u0cbf\u0cae \u0c86\u0cb8\u0ccd\u0c9f\u0ccd\u0cb0\u0cc7\u0cb2\u0cbf\u0caf","kind":"region","min_zoom":8.0,"name:ru":"\u0417\u0430\u043f\u0430\u0434\u043d\u0430\u044f \u0410\u0432\u0441\u0442\u0440\u0430\u043b\u0438\u044f","name:pl":"Australia Zachodnia","id":-2316598,"osm_relation":true,"name:vo":"Ves\u00fcda-Laustral\u00e4n","name:eo":"Okcidenta A\u016dstralio","name":"Western Australia","sort_rank":256,"kind_detail":"4","name:de":"Westaustralien","source":"openstreetmap.org","maritime_boundary":true,"name:zh":"\u897f\u6fb3\u5927\u5229\u4e9a\u5dde"},"arcs":[3]},{"type":"LineString","properties":{"name:nl":"Zuid-Australi\u00eb","name:ja":"\u5357\u30aa\u30fc\u30b9\u30c8\u30e9\u30ea\u30a2","name:lt":"Piet\u0173 Australija","kind":"region","min_zoom":8.0,"name:ru":"\u042e\u0436\u043d\u0430\u044f \u0410\u0432\u0441\u0442\u0440\u0430\u043b\u0438\u044f","name:pl":"Australia Po\u0142udniowa","id":-2316596,"osm_relation":true,"name:vo":"Sul\u00fcda-Laustral\u00e4n","name:eo":"Suda A\u016dstralio","name":"South Australia","sort_rank":256,"kind_detail":"4","name:de":"S\u00fcdaustralien","source":"openstreetmap.org","maritime_boundary":true,"name:zh":"\u5357\u6fb3\u5927\u5229\u4e9a\u5dde"},"arcs":[4]},{"type":"LineString","properties":{"source":"openstreetmap.org","kind":"aboriginal_lands","name":"Maralinga Tjarutja","sort_rank":250,"min_zoom":8.0,"osm_relation":true,"id":-6799756},"arcs":[5]}]},"roads":{"type":"GeometryCollection","geometries":[{"type":"MultiLineString","properties":{"kind":"major_road","network":null,"sort_rank":381,"kind_detail":"trunk","source":"openstreetmap.org","min_zoom":8.0,"shield_text":"1","ref":"A1"},"arcs":[[10],[11],[12],[13],[14],[15]]},{"type":"MultiLineString","properties":{"kind":"major_road","network":null,"sort_rank":381,"kind_detail":"trunk","source":"openstreetmap.org","min_zoom":8.0,"landuse_kind":"park","shield_text":"1","ref":"A1"},"arcs":[[16],[17],[18],[19],[20]]},{"type":"LineString","properties":{"kind":"major_road","network":"NH","sort_rank":381,"kind_detail":"trunk","source":"openstreetmap.org","min_zoom":8.0,"landuse_kind":"park","shield_text":"1","ref":"A1","id":189780668},"arcs":[21]},{"type":"LineString","properties":{"source":"openstreetmap.org","kind":"major_road","network":"NH","sort_rank":381,"kind_detail":"trunk","min_zoom":8.0,"shield_text":"1"},"arcs":[22]},{"type":"LineString","properties":{"kind":"major_road","network":"NH","sort_rank":381,"kind_detail":"trunk","source":"openstreetmap.org","min_zoom":8.0,"shield_text":"1","ref":"1","id":219724878},"arcs":[23]},{"type":"LineString","properties":{"kind":"major_road","network":"NH","sort_rank":381,"kind_detail":"trunk","source":"openstreetmap.org","min_zoom":8.0,"shield_text":"1","ref":"A1","id":189780668},"arcs":[24]}]},"earth":{"type":"GeometryCollection","geometries":[{"type":"Polygon","properties":{"sort_rank":10,"source":"naturalearthdata.com","min_zoom":0.0,"kind":"earth","area":95267628947},"arcs":[[25]]}]},"landuse":{"type":"GeometryCollection","geometries":[{"type":"Polygon","properties":{"kind":"park","protect_class":"1b","area":754579008,"sort_rank":24,"operator":"Department of Environment, Water and Natural Resources (South Australia)","source":"openstreetmap.org","min_zoom":6.0,"tier":2,"id":-6196953,"osm_relation":true},"arcs":[[26]]},{"type":"Polygon","properties":{"kind":"park","protect_class":"VI","area":445875008,"sort_rank":24,"operator":"Department of Environment, Water and Natural Resources (South Australia)","source":"openstreetmap.org","min_zoom":6.0,"tier":2,"id":-6196948,"osm_relation":true},"arcs":[[27]]},{"type":"Polygon","properties":{"kind":"protected_area","protect_class":"24","area":139804999680,"sort_rank":17,"operator":"Council of Maralinga Tjarutja","source":"openstreetmap.org","min_zoom":4.0,"tier":2,"id":-6799756,"osm_relation":true},"arcs":[[28]]},{"type":"Polygon","properties":{"kind":"park","protect_class":"1b","area":11633899520,"sort_rank":24,"operator":"Department of Environment, Water and Natural Resources (South Australia)","source":"openstreetmap.org","min_zoom":4.0,"tier":2,"id":-6196953,"osm_relation":true},"arcs":[[29]]},{"type":"Polygon","properties":{"kind":"park","protect_class":"II","area":1269080064,"sort_rank":24,"operator":"Department of Environment, Water and Natural Resources (South Australia)","source":"openstreetmap.org","min_zoom":4.0,"tier":2,"id":-540817,"osm_relation":true},"arcs":[[30]]},{"type":"Polygon","properties":{"kind":"park","protect_class":"VI","area":26268899328,"sort_rank":24,"operator":"Department of Environment, Water and Natural Resources (South Australia)","source":"openstreetmap.org","min_zoom":4.0,"tier":2,"id":-6196945,"osm_relation":true},"arcs":[[31]]}]}},"type":"Topology","transform":{"translate":[127.96875,-31.952162238],"scale":[0.0003433228,0.0002931847]},"arcs":[[[2730,0],[561,270],[805,99]],[[3010,786],[-1,3310]],[[3004,133],[6,653]],[[2730,0],[274,133]],[[3004,133],[287,137],[805,99]],[[3009,4096],[0,-40],[315,40]],[[3327,4096],[-3327,-380]],[[3327,4096],[-3327,-380]],[[1213,0],[787,363],[199,144],[92,34],[45,52],[469,239],[170,60],[29,5],[271,40],[89,-5],[43,5],[181,72],[61,7],[190,-7],[63,6],[166,38],[28,0],[0,-1053],[-2883,0]],[[4096,1053],[-28,0],[-166,-38],[-63,-6],[-190,7],[-61,-7],[-181,-72],[-43,-5],[-89,5],[-271,-40],[-29,-5],[-170,-60],[-469,-239],[-45,-52],[-92,-34],[-199,-144],[-787,-363]],[[3009,1070],[3,2]],[[3018,1074],[5,0]],[[3217,1063],[16,-1]],[[3397,998],[58,7]],[[3745,1046],[15,2]],[[3957,1074],[139,-2]],[[3012,1072],[6,2]],[[3023,1074],[194,-11]],[[3233,1062],[164,-64]],[[3455,1005],[290,41]],[[3760,1048],[197,26]],[[3017,1074],[-2,-1]],[[3009,1070],[-166,-93],[-183,-32],[-130,-92],[-628,-130],[-697,-232],[-306,-46],[-112,20],[-184,-65],[-191,-28],[-130,12],[-282,-70]],[[3009,1070],[-16,-9]],[[3015,1073],[-6,-3]],[[4096,1053],[-28,0],[-166,-38],[-63,-6],[-190,7],[-61,-7],[-181,-72],[-43,-5],[-89,5],[-271,-40],[-29,-5],[-170,-60],[-469,-239],[-45,-52],[-92,-34],[-199,-144],[-787,-363],[-1213,0],[0,4096],[4096,0],[0,-3043]],[[3010,1069],[45,17],[184,-26],[150,-73],[189,43],[234,4],[135,39],[149,-16],[-944,-114],[-142,-41],[0,167]],[[3010,2151],[1086,-6],[0,-115],[-1086,-12],[0,133]],[[3324,4096],[-315,-40],[0,40],[315,0]],[[3010,2018],[1086,12],[0,-957],[-110,6],[-221,-43],[-18,42],[-2,-41],[-350,-39],[-166,66],[-165,28],[-54,-21],[0,947]],[[3010,902],[142,41],[944,114],[0,-168],[-935,-118],[-151,-46],[0,177]],[[3009,4040],[438,56],[649,0],[0,-1951],[-1086,6],[-1,1889]]]}