{"objects":{"water":{"type":"GeometryCollection","geometries":[]},"buildings":{"type":"GeometryCollection","geometries":[]},"places":{"type":"GeometryCollection","geometries":[{"type":"Point","properties":{"name:ja":"\u9ed2\u7adc\u6c5f\u7701","name:lt":"Heilongdziangas","kind":"region","min_zoom":4.0,"name:uk":"\u041f\u0440\u043e\u0432\u0456\u043d\u0446\u0456\u044f \u0425\u0435\u0439\u043b\u0443\u043d\u0446\u0437\u044f\u043d","name:ru":"\u0425\u044d\u0439\u043b\u0443\u043d\u0446\u0437\u044f\u043d","name:vi":"H\u1eafc Long Giang","name:pl":"Heilongjiang","name:hu":"Hejlungcsiang","name:hr":"Hejlung\u0111jang","id":244080473,"name:eo":"Hejlong\u011django","name:en":"Heilongjiang Province","name":"\u9ed1\u9f99\u6c5f\u7701","kind_detail":"state","name:da":"Heilongjiang","name:de":"Heilongjiang","source":"openstreetmap.org","name:fr":"H\u0113il\u00f3ngji\u0101ng","name:zh":"Heilongjiang Sheng","name:es":"Heilongjiang"},"coordinates":[91,44]}]},"transit":{"type":"GeometryCollection","geometries":[]},"pois":{"type":"GeometryCollection","geometries":[]},"boundaries":{"type":"GeometryCollection","geometries":[]},"roads":{"type":"GeometryCollection","geometries":[{"type":"LineString","properties":{"sort_rank":380,"kind_detail":"primary","min_zoom":8.0,"kind":"major_road","source":"openstreetmap.org"},"arcs":[0]},{"type":"LineString","properties":{"source":"openstreetmap.org","kind":"major_road","sort_rank":380,"kind_detail":"primary","ref":"S204","min_zoom":8.0},"arcs":[1]}]},"earth":{"type":"GeometryCollection","geometries":[{"type":"Polygon","properties":{"sort_rank":10,"source":"naturalearthdata.com","min_zoom":0.0,"kind":"earth","area":98022885885},"arcs":[[2]]}]},"landuse":{"type":"GeometryCollection","geometries":[{"type":"MultiPolygon","properties":{"source":"openstreetmap.org","kind":"residential","tier":2,"area":184164145,"sort_rank":20,"min_zoom":8.0},"arcs":[[[3]]]}]}},"type":"Topology","transform":{"translate":[127.96875,47.9899216674],"scale":[0.0003433228,0.0002276801]},"arcs":[[[3716,457],[56,123],[-29,22],[2,75],[231,79],[17,104],[103,66]],[[3240,0],[94,68],[56,106],[154,124],[79,33],[89,124]],[[0,4096],[2170,0],[1926,0],[0,-4096],[-4096,0],[0,4096]],[[4037,1024],[6,87],[35,39],[18,-14],[0,-128],[-34,46],[9,-62],[-34,32]]]}