{"objects":{"water":{"type":"GeometryCollection","geometries":[{"type":"MultiPolygon","properties":{"source":"naturalearthdata.com","kind":"ocean","area":1576712559132672,"sort_rank":200,"min_zoom":0.0,"id":1},"arcs":[[[0]],[[1]],[[2]],[[3]],[[4]]]},{"type":"MultiLineString","properties":{"source":"naturalearthdata.com","kind":"ocean","sort_rank":205,"boundary":true,"min_zoom":0.0,"id":415},"arcs":[[5],[6],[7],[8],[9]]}]},"buildings":{"type":"GeometryCollection","geometries":[]},"places":{"type":"GeometryCollection","geometries":[]},"transit":{"type":"GeometryCollection","geometries":[]},"pois":{"type":"GeometryCollection","geometries":[]},"boundaries":{"type":"GeometryCollection","geometries":[]},"roads":{"type":"GeometryCollection","geometries":[]},"earth":{"type":"GeometryCollection","geometries":[{"type":"MultiPolygon","properties":{"sort_rank":10,"source":"naturalearthdata.com","min_zoom":0.0,"kind":"earth","area":79762229399},"arcs":[[[10]]]},{"type":"Point","properties":{"label_placement":true,"name:pt":"Ilha do Rei Guilherme","name:az":"Kral-Vilyam","name:id":"Pulau King William","name:cy":"Ynys King William","name:ko":"\ud0b9\uc70c\ub9ac\uc5c4 \uc12c","name:ar":"\u062c\u0632\u064a\u0631\u0629 \u0627\u0644\u0645\u0644\u0643 \u0648\u0644\u064a\u0627\u0645","name:cs":"ostrov kr\u00e1le Vil\u00e9ma","min_zoom":7.0,"name:ro":"Insula King William","name:it":"Isola di Re William","name:vi":"\u0110\u1ea3o King William","name:ru":"\u041a\u0438\u043d\u0433-\u0412\u0438\u043b\u044c\u044f\u043c","name:pl":"Wyspa Kr\u00f3la Williama","id":-3958580,"name:ca":"Illa del Rei Guillem","name:fa":"\u062c\u0632\u06cc\u0631\u0647 \u06a9\u06cc\u0646\u06af \u0648\u06cc\u0644\u06cc\u0627\u0645","name:bg":"\u041a\u0440\u0430\u043b \u0423\u0438\u043b\u044f\u043c","name:ka":"\u10db\u10d4\u10e4\u10d4 \u10e3\u10d8\u10da\u10d8\u10d0\u10db\u10d8\u10e1 \u10d9\u10e3\u10dc\u10eb\u10e3\u10da\u10d8","area":103491002368,"name:fi":"Kuningas Williamin saari","source":"openstreetmap.org","name:fr":"\u00cele du Roi-Guillaume","name:zh":"\u5a01\u5ec9\u738b\u5cf6","name:nl":"Koning Willem-eiland","name:ja":"\u30ad\u30f3\u30b0\u30a6\u30a3\u30ea\u30a2\u30e0\u5cf6","name:nn":"Qikiqtaq","name:no":"Qikiqtaq","name:eo":"Insulo Re\u011do Vilhelmo","name:ur":"\u062c\u0632\u06cc\u0631\u06c1 \u06a9\u0646\u06af \u0648\u0644\u06cc\u0645\u0632","name:uk":"\u041a\u0456\u043d\u0491-\u0412\u0456\u043b\u044c\u044f\u043c","name:sv":"King Williams land","name:hu":"Vilmos kir\u00e1ly-sziget","name:lt":"Karaliaus Viljamo sala","name:sr":"\u041a\u0440\u0430\u0459 \u0412\u0438\u043b\u0438\u0458\u0430\u043c","osm_relation":true,"name:el":"\u039d\u03ae\u03c3\u03bf\u03c2 \u0392\u03b1\u03c3\u03b9\u03bb\u03b9\u03ac \u039f\u03c5\u03af\u03bb\u03b9\u03b1\u03bc","kind":"island","name":"King William Island","name:is":"Qikiqtaq","name:gl":"Illa do Rei Guillerme","name:eu":"Gilen Erregearen uhartea","name:et":"Kuningas Williami saar","name:es":"Isla del Rey Guillermo"},"coordinates":[2899,239]}]},"landuse":{"type":"GeometryCollection","geometries":[]}},"type":"Topology","transform":{"translate":[-98.4375,69.1625579081],"scale":[0.0003433228,0.0001207345]},"arcs":[[[316,4096],[-1,-24],[-20,-139],[-27,-83],[-72,-179],[43,-52],[47,-34],[99,-27],[44,-26],[87,-117],[27,-26],[30,-50],[129,-320],[117,-214],[453,-440],[-67,-111],[-108,-66],[-100,2],[-43,91],[13,177],[-9,55],[-45,22],[-171,-10],[-273,262],[-62,207],[-123,175],[-28,78],[-57,114],[-199,92],[0,643],[316,0]],[[0,2627],[55,-30],[-55,-55],[0,85]],[[0,1683],[77,-110],[54,-158],[-2,-127],[-48,-85],[-81,-29],[0,509]],[[4096,4096],[0,-750],[-35,50],[-84,44],[-35,36],[-24,85],[-32,167],[-53,122],[-162,246],[425,0]],[[3196,4096],[-78,-305],[-9,-92],[-19,-95],[-41,21],[-116,166],[-125,305],[388,0]],[[4096,3346],[-35,50],[-84,44],[-35,36],[-24,85],[-32,167],[-53,122],[-162,246]],[[3196,4096],[-78,-305],[-9,-92],[-19,-95],[-41,21],[-116,166],[-125,305]],[[316,4096],[-1,-24],[-20,-139],[-27,-83],[-72,-179],[43,-52],[47,-34],[99,-27],[44,-26],[87,-117],[27,-26],[30,-50],[129,-320],[117,-214],[453,-440],[-67,-111],[-108,-66],[-100,2],[-43,91],[13,177],[-9,55],[-45,22],[-171,-10],[-273,262],[-62,207],[-123,175],[-28,78],[-57,114],[-199,92]],[[0,2627],[55,-30],[-55,-55]],[[0,1683],[77,-110],[54,-158],[-2,-127],[-48,-85],[-81,-29]],[[4096,3346],[0,-3346],[-4096,0],[0,1174],[81,29],[48,85],[2,127],[-54,158],[-77,110],[0,859],[55,55],[-55,30],[0,826],[199,-92],[57,-114],[28,-78],[123,-175],[62,-207],[273,-262],[171,10],[45,-22],[9,-55],[-13,-177],[43,-91],[100,-2],[108,66],[67,111],[-453,440],[-117,214],[-129,320],[-30,50],[-27,26],[-87,117],[-44,26],[-99,27],[-47,34],[-43,52],[72,179],[27,83],[20,139],[1,24],[2492,0],[125,-305],[116,-166],[41,-21],[19,95],[9,92],[78,305],[475,0],[162,-246],[53,-122],[32,-167],[24,-85],[35,-36],[84,-44],[35,-50]]]}