{"objects":{"water":{"type":"GeometryCollection","geometries":[{"type":"Polygon","properties":{"source":"naturalearthdata.com","kind":"ocean","area":1576712559132672,"sort_rank":200,"min_zoom":0.0,"id":1},"arcs":[[439]]},{"type":"Polygon","properties":{"kind":"lake","name":"Lac de Buyo","reservoir":true,"area":1014023680,"sort_rank":200,"source":"naturalearthdata.com","min_zoom":0.0,"id":1236},"arcs":[[440]]},{"type":"Polygon","properties":{"kind":"lake","name":"Lac de Kossou","reservoir":true,"area":2420614912,"sort_rank":200,"source":"naturalearthdata.com","min_zoom":0.0,"id":1224},"arcs":[[441]]},{"type":"Point","properties":{"label_placement":true,"kind":"lake","name":"Lac de Kossou","reservoir":true,"area":2420614912,"sort_rank":200,"source":"naturalearthdata.com","min_zoom":0.0,"id":1224},"coordinates":[4070,1406]},{"type":"Point","properties":{"label_placement":true,"kind":"lake","name":"Lac de Buyo","reservoir":true,"area":1014023680,"sort_rank":200,"source":"naturalearthdata.com","min_zoom":0.0,"id":1236},"coordinates":[3106,753]},{"type":"LineString","properties":{"source":"naturalearthdata.com","kind":"ocean","sort_rank":205,"boundary":true,"min_zoom":0.0,"id":56},"arcs":[442]},{"type":"MultiLineString","properties":{"source":"naturalearthdata.com","kind":"lake","reservoir":true,"sort_rank":367,"boundary":true,"min_zoom":0.0,"id":1224},"arcs":[[443],[444],[445],[446],[447],[448],[449]]},{"type":"LineString","properties":{"source":"naturalearthdata.com","kind":"lake","reservoir":true,"sort_rank":367,"boundary":true,"min_zoom":0.0,"id":1236},"arcs":[450]}]},"buildings":{"type":"GeometryCollection","geometries":[]},"places":{"type":"GeometryCollection","geometries":[{"type":"Point","properties":{"name:kg":"Ginea","name:ka":"\u10d2\u10d5\u10d8\u10dc\u10d4\u10d0","name:ko":"\uae30\ub2c8","name:cv":"\u0413\u0432\u0438\u043d\u0435\u0439","name:km":"\u17a0\u17d2\u1782\u17b8\u178e\u17c1","name:kl":"Guinea","name:cs":"Guinea","name:ki":"Gine","name:kw":"Gyni","name:tk":"Gwine\u00fda","name:ku":"G\u00een\u00ea","name:ti":"\u130a\u1292","name:ks":"\u06af\u0650\u0646\u06cc","name:to":"Kini","name:tl":"Ginea","name:ce":"\u0413\u0432\u0438\u043d\u0435","name:ta":"\u0b95\u0bbf\u0ba9\u0bbf\u0baf\u0bbe","name:tg":"\u0413\u0432\u0438\u043d\u0435\u044f","name:ca":"Rep\u00fablica de Guinea","name:te":"\u0c17\u0c3f\u0c28\u0c3f\u0c2f\u0c3e","name:hr":"Gvineja","name:da":"Guinea","name:de":"Guinea","name:dz":"\u0f42\u0fb7\u0f72\u0f0b\u0f53\u0f72","source":"openstreetmap.org","name:kn":"\u0c97\u0cbf\u0ca8\u0cbf","name:dv":"\u078e\u07a9\u0782\u07a8\u0787\u07a7","name:lv":"Gvineja","name:lt":"Gvin\u0117ja","name:uz":"Gvineya","name:kk":"\u0413\u0432\u0438\u043d\u0435\u044f","name:ur":"\u06af\u0646\u06cc","name:lb":"Guinea","name:la":"Guinea","name:lg":"Gini","name:uk":"\u0490\u0432\u0456\u043d\u0435\u044f","name:ug":"\u06cb\u0649\u0646\u06d0\u064a\u06d5","name:li":"Guinee","name:ln":"Gin\u025b","name:lo":"\u0e81\u0eb4\u0ea7\u0e99\u0eb5","name:el":"\u0393\u03bf\u03c5\u03b9\u03bd\u03ad\u03b1","name:eo":"Gvineo","name:en":"Guinea","name":"Guin\u00e9e","name:ee":"Guini nutome","name:th":"\u0e1b\u0e23\u0e30\u0e40\u0e17\u0e28\u0e01\u0e34\u0e19\u0e35","name:eu":"Ginea","name:et":"Guinea","name:es":"Guinea","name:ia":"Guinea","name:rm":"Guinea","name:rn":"Guneya","name:az":"Qvineya","name:ie":"Guinea","name:id":"Guinea","name:ar":"\u063a\u064a\u0646\u064a\u0627","name:io":"Guinea","name:ak":"Gini","name:am":"\u130a\u1292","name:it":"Guinea","name:an":"Guinea","name:ru":"\u0413\u0432\u0438\u043d\u0435\u044f","name:rw":"Gineya","name:pl":"Gwinea","name:af":"Guinee","name:zu":"i-Guinea","name:ky":"\u0413\u0432\u0438\u043d\u0435\u044f","name:zh-yue":"\u757f\u5167\u4e9e","name:zh":"\u51e0\u5185\u4e9a","name:so":"Gini","name:sn":"Guinea","name:sm":"Guinea","name:sl":"Gvineja","name:sk":"Guinea","name:ja":"\u30ae\u30cb\u30a2","name:si":"\u0d9c\u0dd2\u0dab\u0dd2\u0dba\u0dcf\u0dc0","name:sh":"Gvineja","name:sg":"Gin\u00ebe","name:se":"Guinea","name:sc":"Guinea","name:br":"Ginea","name:bs":"Gvineja","name:bm":"Gine","name:bn":"\u0997\u09bf\u09a8\u09bf","name:bo":"\u0f42\u0fb7\u0f72\u0f0b\u0f53\u0f72\u0f0b\u0f61\u0f0d","name:sa":"\u0917\u093f\u0928\u0940","name:sw":"Gine","name:be":"\u0413\u0432\u0456\u043d\u0435\u044f","name:su":"Guin\u00e9a","name:bg":"\u0413\u0432\u0438\u043d\u0435\u044f","name:ss":"IGiniya","name:ba":"\u0413\u0432\u0438\u043d\u0435\u044f","name:sq":"Guine","name:jv":"Guinea","name:pt":"Guin\u00e9","name:ps":"\u06ab\u06cc\u0627\u0646\u0627","name:oc":"Guin\u00e8a","min_zoom":2.0,"name:ro":"Guineea","name:pa":"\u0a17\u0a3f\u0a28\u0a40","name:os":"\u0413\u0432\u0438\u043d\u0435\u0439","name:or":"\u0b17\u0b41\u0b0f\u0b28\u0b47\u0b06","alt_name:pt":"Guinea; Guin\u00e9-Conakry; Guin\u00e9-Conacri","name:st":"Guinea","name:sr":"\u0413\u0432\u0438\u043d\u0435\u0458\u0430","name:tr":"Gine","name:hi":"\u0917\u093f\u0928\u0940","name:sv":"Guinea","name:he":"\u05d2\u05d9\u05e0\u05d0\u05d4","name:ha":"Gini","name:hy":"\u0533\u057e\u056b\u0576\u0565\u0561","name:ht":"Gine","name:hu":"Guinea","name:qu":"Khiniya","population":10187320,"kind":"country","name:ts":"Gineya","name:is":"G\u00ednea","name:yi":"\u05d2\u05d9\u05e0\u05e2","name:yo":"Or\u00edl\u1eb9\u0301\u00e8de Gene","name:mt":"Gineja","name:ms":"Guinea","name:mr":"\u0917\u093f\u0928\u0940","name:my":"\u1002\u102e\u101b\u102c\u1014\u102c","int_name":"Guinea","name:mg":"Ginea","name:ml":"\u0d17\u0d4d\u0d35\u0d3f\u0d28\u0d3f\u0d2f","name:vi":"Guinea","name:mn":"\u0413\u0432\u0438\u043d\u0435\u0439","id":424297586,"name:mk":"\u0413\u0432\u0438\u043d\u0435\u0458\u0430","name:vo":"Giney\u00e4n","name:fa":"\u06af\u06cc\u0646\u0647","name:ff":"Gine","name:fi":"Guinea","name:fo":"Guinea","name:fy":"Guinee","name:nl":"Guinee","name:nn":"Guinea","name:no":"Guinea","name:na":"Gini","name:ne":"\u0917\u093f\u0928\u0940","name:wo":"Gine","name:nv":"G\u00edn\u00ed","name:ga":"An Ghuine","name:gd":"Gini","name:gl":"Guinea","name:gv":"Yn Ghuinea","name:gu":"\u0a97\u0abf\u0aa8\u0ac0","name:tt":"\u0413\u0432\u0438\u043d\u0435\u044f"},"coordinates":[394,3760]},{"type":"Point","properties":{"name:pt":"Lib\u00e9ria","name:ps":"\u0644\u0627\u06cc\u0628\u0631\u06cc\u0627","name:ka":"\u10da\u10d8\u10d1\u10d4\u10e0\u10d8\u10d0","name:tr":"Liberya","name:cv":"\u041b\u0438\u0431\u0435\u0440\u0438","name:km":"\u179b\u17b8\u1794\u17c1\u179a\u17b8\u1799\u17c9\u17b6","name:cs":"Lib\u00e9rie","name:tt":"\u041b\u0438\u0431\u0435\u0440\u0438\u044f","name:kw":"Liberi","name:tk":"Liberi\u00fda","name:ku":"L\u00eeberya","name:ti":"\u120b\u12ed\u1264\u122a\u12eb","name:ks":"\u0644\u0627\u06cc\u0628\u06cc\u0631\u0650\u06cc\u0627","name:to":"Laipelia","name:os":"\u041b\u0438\u0431\u0435\u0440\u0438","name:or":"\u0b32\u0b3f\u0b2c\u0b47\u0b30\u0b3f\u0b06","name:ce":"\u041b\u0438\u0431\u0435\u0440\u0438","name:ta":"\u0bb2\u0bc8\u0baa\u0bc0\u0bb0\u0bbf\u0baf\u0bbe","name:tg":"\u041b\u0438\u0431\u0435\u0440\u0438\u044f","name:ca":"Lib\u00e8ria","name:te":"\u0c32\u0c48\u0c2c\u0c40\u0c30\u0c3f\u0c2f\u0c3e","source":"openstreetmap.org","name:hr":"Liberija","name:ln":"Lib\u00e9riya","name:sr":"\u041b\u0438\u0431\u0435\u0440\u0438\u0458\u0430","name:dz":"\u0f63\u0f71\u0f60\u0f72\u0f0b\u0f56\u0f7a\u0f0b\u0f62\u0f72\u0f0b\u0f61","name:ko":"\ub77c\uc774\ubca0\ub9ac\uc544","name:kn":"\u0cb2\u0cbf\u0cac\u0cc7\u0cb0\u0cbf\u0caf\u0cbe","name:dv":"\u078d\u07a6\u0787\u07a8\u0784\u07a9\u0783\u07a8\u0787\u07a7","name:lv":"Lib\u0113rija","name:lt":"Liberija","name:uz":"Liberiya","name:kk":"\u041b\u0438\u0431\u0435\u0440\u0438\u044f","name:he":"\u05dc\u05d9\u05d1\u05e8\u05d9\u05d4","min_zoom":2.0,"kind":"country","name:ur":"\u0644\u0627\u0626\u0628\u06cc\u0631\u06cc\u0627","name:lg":"Liberya","name:uk":"\u041b\u0456\u0431\u0435\u0440\u0456\u044f","name:hy":"\u053c\u056b\u0562\u0565\u0580\u056b\u0561","name:ug":"\u0644\u0649\u0628\u06d0\u0631\u0649\u064a\u06d5","name:hu":"Lib\u00e9ria","name:qu":"Libirya","name:lo":"\u0ea5\u0eb4\u0ec0\u0e9a\u0eb5\u0ec0\u0ea5\u0e8d","name:oc":"Lib\u00e8ria","population":3476608,"name:el":"\u039b\u03b9\u03b2\u03b5\u03c1\u03af\u03b1","name:eo":"Liberio","name:ts":"Layiberiya","name":"Liberia","name:ee":"Liberia nutome","name:th":"\u0e1b\u0e23\u0e30\u0e40\u0e17\u0e28\u0e44\u0e25\u0e1a\u0e35\u0e40\u0e23\u0e35\u0e22","name:gu":"\u0ab2\u0abe\u0a87\u0aac\u0ac7\u0ab0\u0abf\u0aaf\u0abe","name:yi":"\u05dc\u05d9\u05d1\u05e2\u05e8\u05d9\u05e2","name:et":"Libeeria","name:yo":"Or\u00edl\u1eb9\u0301\u00e8de Laberia","name:mt":"Liberja","name:rn":"Liberiya","name:az":"Liberiya","name:mr":"\u0932\u093e\u092f\u092c\u0947\u0930\u093f\u092f\u093e","name:ar":"\u0644\u064a\u0628\u0631\u064a\u0627","name:my":"\u101c\u102d\u102f\u1004\u103a\u1018\u1031\u1038\u101b\u102e\u1038\u101a\u102c\u1038","official_name":"Republic of Liberia","name:is":"L\u00edber\u00eda","name:am":"\u120b\u12ed\u1264\u122a\u12eb","name:ml":"\u0d32\u0d48\u0d2c\u0d40\u0d30\u0d3f\u0d2f","name:ru":"\u041b\u0438\u0431\u0435\u0440\u0438\u044f","name:rw":"Liberiya","id":424311573,"name:mk":"\u041b\u0438\u0431\u0435\u0440\u0438\u0458\u0430","name:af":"Liberi\u00eb","name:zu":"i-Liberia","name:ha":"Laberiya","name:mn":"\u041b\u0438\u0431\u0435\u0440\u0438","name:ff":"Liberiyaa","name:hi":"\u0932\u093e\u0907\u092c\u0947\u0930\u093f\u092f\u093e","name:fr":"Lib\u00e9ria","name:wo":"Libeeria","name:zh-yue":"\u5229\u6bd4\u5229\u4e9e","name:fy":"Libearia","name:vo":"Liber\u00e4n","name:zh":"\u5229\u6bd4\u91cc\u4e9a","name:so":"Laybeeriya","name:sl":"Liberija","name:sk":"Lib\u00e9ria","name:ja":"\u30ea\u30d9\u30ea\u30a2","name:si":"\u0dbd\u0dba\u0dd2\u0db6\u0dd3\u0dbb\u0dd2\u0dba\u0dcf\u0dc0","name:sh":"Liberija","name:sg":"Liber\u00efa","name:sc":"Lib\u00e8ria","name:ne":"\u0932\u093e\u0907\u092c\u0947\u0930\u093f\u092f\u093e","name:sa":"\u0932\u093e\u092f\u092c\u0940\u0930\u093f\u092f\u093e","name:bs":"Liberija","name:bm":"Liberiya","name:bn":"\u09b2\u09be\u0987\u09ac\u09c7\u09b0\u09bf\u09af\u09bc\u09be","name:bo":"\u0f63\u0f72\u0f0b\u0f56\u0f7a\u0f0b\u0f62\u0f72\u0f0b\u0f61\u0f0d","name:be":"\u041b\u0456\u0431\u0435\u0440\u044b\u044f","name:bg":"\u041b\u0438\u0431\u0435\u0440\u0438\u044f","name:ss":"ILibheriya","name:ba":"\u041b\u0438\u0431\u0435\u0440\u0438\u044f","name:sq":"Liberi","name:ga":"An Lib\u00e9ir","name:gd":"Lib\u00e8iria","name:ht":"Liberya","name:fa":"\u0644\u06cc\u0628\u0631\u06cc\u0627","name:gv":"Yn Laibeer","name:ak":"Laeberia"},"coordinates":[1372,99]},{"type":"Point","properties":{"source":"naturalearthdata.com","kind":"locality","name":"Monrovia","country_capital":true,"population":1041000,"min_zoom":4.0,"id":7148},"coordinates":[328,514]},{"type":"Point","properties":{"source":"openstreetmap.org","kind":"region","name":"Bomi","kind_detail":"state","min_zoom":4.0,"id":2912811850},"coordinates":[336,811]},{"type":"Point","properties":{"source":"openstreetmap.org","kind":"region","name":"Bong","kind_detail":"state","min_zoom":4.0,"id":2912811851},"coordinates":[1119,991]},{"type":"Point","properties":{"source":"openstreetmap.org","kind":"region","name":"Grand Bassa","kind_detail":"state","min_zoom":4.0,"id":2912811853},"coordinates":[986,404]},{"type":"Point","properties":{"source":"openstreetmap.org","kind":"region","name":"Grand Cape Mount","kind_detail":"state","min_zoom":4.0,"id":2912811854},"coordinates":[87,1056]},{"type":"Point","properties":{"source":"openstreetmap.org","kind":"region","name":"Margibi","kind_detail":"state","min_zoom":4.0,"id":2912811858},"coordinates":[782,729]},{"type":"Point","properties":{"source":"openstreetmap.org","kind":"region","name":"Montserrado","kind_detail":"state","min_zoom":4.0,"id":2912811860},"coordinates":[469,584]},{"type":"Point","properties":{"source":"openstreetmap.org","kind":"region","name":"Nimba","kind_detail":"state","min_zoom":4.0,"id":2912811861},"coordinates":[1823,878]},{"type":"Point","properties":{"source":"openstreetmap.org","kind":"region","name":"Montagnes","kind_detail":"state","min_zoom":4.0,"id":2811123371},"coordinates":[2618,976]},{"type":"Point","properties":{"source":"openstreetmap.org","kind":"region","name":"Sassandra-Marahou\u00e9","kind_detail":"state","min_zoom":4.0,"id":2811123372},"coordinates":[3578,1060]},{"type":"Point","properties":{"source":"openstreetmap.org","kind":"region","name":"Woroba","kind_detail":"state","min_zoom":4.0,"id":2811123375},"coordinates":[3279,2029]},{"type":"Point","properties":{"source":"openstreetmap.org","kind":"region","name":"Dengu\u00e9l\u00e9","kind_detail":"state","min_zoom":4.0,"id":2811123367},"coordinates":[2811,2962]},{"type":"Point","properties":{"source":"openstreetmap.org","kind":"region","name":"Kankan","kind_detail":"state","min_zoom":4.0,"id":2746237191},"coordinates":[1407,3688]},{"type":"Point","properties":{"source":"openstreetmap.org","kind":"region","name":"Nz\u00e9r\u00e9kor\u00e9","kind_detail":"state","min_zoom":4.0,"id":2746237234},"coordinates":[1742,2045]},{"type":"Point","properties":{"source":"openstreetmap.org","kind":"region","name":"Faranah","kind_detail":"state","min_zoom":4.0,"id":2746237182},"coordinates":[262,3460]},{"type":"Point","properties":{"source":"openstreetmap.org","kind":"region","name":"Gbarpolu","kind_detail":"state","min_zoom":4.0,"id":2912811852},"coordinates":[632,1217]},{"type":"Point","properties":{"source":"openstreetmap.org","kind":"region","name":"Lofa","kind_detail":"state","min_zoom":4.0,"id":2912811857},"coordinates":[928,1669]},{"type":"Point","properties":{"source":"openstreetmap.org","kind":"region","name":"Kenema","kind_detail":"state","min_zoom":4.0,"id":2992144239},"coordinates":[45,1672]},{"type":"Point","properties":{"source":"openstreetmap.org","kind":"region","name":"Kono","kind_detail":"state","min_zoom":4.0,"id":2992144241},"coordinates":[241,2261]},{"type":"Point","properties":{"source":"openstreetmap.org","kind":"region","name":"Grand Gedeh","kind_detail":"state","min_zoom":4.0,"id":2912811855},"coordinates":[2294,147]},{"type":"Point","properties":{"source":"openstreetmap.org","kind":"region","name":"Rivercess","kind_detail":"state","min_zoom":4.0,"id":2912811863},"coordinates":[1352,216]},{"type":"Point","properties":{"source":"naturalearthdata.com","kind":"locality","name":"Nzerekore","population":168121,"region_capital":true,"min_zoom":5.0,"id":6643},"coordinates":[1762,1579]},{"type":"Point","properties":{"source":"naturalearthdata.com","kind":"locality","name":"Kankan","population":114009,"region_capital":true,"min_zoom":5.0,"id":6642},"coordinates":[1413,3515]},{"type":"Point","properties":{"source":"naturalearthdata.com","kind":"locality","name":"Daloa","population":255168,"region_capital":true,"min_zoom":6.0,"id":5992},"coordinates":[3495,938]},{"type":"Point","properties":{"source":"naturalearthdata.com","kind":"locality","name":"Korhogo","population":177711,"region_capital":true,"min_zoom":6.0,"id":5988},"coordinates":[4085,2831]},{"type":"Point","properties":{"source":"naturalearthdata.com","kind":"locality","name":"Buchanan","population":48315,"region_capital":true,"min_zoom":6.0,"id":5805},"coordinates":[872,221]}]},"transit":{"type":"GeometryCollection","geometries":[]},"pois":{"type":"GeometryCollection","geometries":[]},"boundaries":{"type":"GeometryCollection","geometries":[{"type":"MultiLineString","properties":{"source":"naturalearthdata.com","kind":"country","sort_rank":262,"kind_detail":"2","min_zoom":0.0,"id":101},"arcs":[[0],[1],[2],[3],[4],[5],[6],[7],[8],[9],[10],[11]]},{"type":"LineString","properties":{"source":"naturalearthdata.com","kind":"country","sort_rank":262,"kind_detail":"2","min_zoom":0.0,"id":102},"arcs":[12]},{"type":"MultiLineString","properties":{"source":"naturalearthdata.com","kind":"country","sort_rank":262,"kind_detail":"2","min_zoom":0.0,"id":120},"arcs":[[13],[14],[15],[16],[17],[18],[19],[20],[21],[22],[23],[24],[25],[26],[27],[28],[29],[30],[31],[32],[33],[34],[35],[36],[37],[38],[39],[40],[41]]},{"type":"MultiLineString","properties":{"source":"naturalearthdata.com","kind":"country","sort_rank":262,"kind_detail":"2","min_zoom":0.0,"id":286},"arcs":[[42],[43],[44],[45],[46],[47],[48],[49],[50],[51],[52],[53],[54],[55],[56],[57],[58],[59],[60],[61],[62],[63],[64],[65],[66]]},{"type":"MultiLineString","properties":{"source":"naturalearthdata.com","kind":"country","sort_rank":262,"kind_detail":"2","min_zoom":0.0,"id":287},"arcs":[[67],[68],[69],[70],[71],[72],[73],[74],[75],[76],[77],[78],[79],[80],[81],[82],[83],[84],[85],[86],[87],[88],[89],[90],[91],[92],[93],[94],[95],[96],[97],[98],[99]]},{"type":"MultiLineString","properties":{"source":"naturalearthdata.com","kind":"country","sort_rank":262,"kind_detail":"2","min_zoom":0.0,"id":288},"arcs":[[100],[101],[102],[103],[104],[105],[106],[107],[108],[109],[110],[111],[112],[113],[114],[115],[116],[117],[118],[119],[120],[121],[122],[123],[124],[125],[126],[127],[128],[129],[130],[131]]},{"type":"MultiLineString","properties":{"source":"naturalearthdata.com","kind":"country","sort_rank":262,"kind_detail":"2","min_zoom":0.0,"id":290},"arcs":[[132],[133],[134],[135],[136],[137],[138],[139],[140],[141],[142]]},{"type":"MultiLineString","properties":{"source":"naturalearthdata.com","kind":"region","sort_rank":256,"kind_detail":"4","min_zoom":6.7,"id":2478},"arcs":[[143],[144],[145],[146],[147],[148],[149]]},{"type":"MultiLineString","properties":{"source":"naturalearthdata.com","kind":"region","sort_rank":256,"kind_detail":"4","min_zoom":6.7,"id":3199},"arcs":[[150],[151],[152]]},{"type":"LineString","properties":{"source":"naturalearthdata.com","kind":"region","sort_rank":256,"kind_detail":"4","min_zoom":6.8,"id":3639},"arcs":[153]},{"type":"LineString","properties":{"source":"naturalearthdata.com","kind":"region","sort_rank":256,"kind_detail":"4","min_zoom":6.7,"id":113},"arcs":[154]},{"type":"MultiLineString","properties":{"source":"naturalearthdata.com","kind":"region","sort_rank":256,"kind_detail":"4","min_zoom":6.7,"id":2353},"arcs":[[155],[156],[157],[158],[159],[160]]},{"type":"LineString","properties":{"source":"naturalearthdata.com","kind":"region","sort_rank":256,"kind_detail":"4","min_zoom":6.7,"id":2356},"arcs":[161]},{"type":"MultiLineString","properties":{"source":"naturalearthdata.com","kind":"region","sort_rank":256,"kind_detail":"4","min_zoom":6.7,"id":2483},"arcs":[[162],[163],[164],[165]]},{"type":"LineString","properties":{"source":"naturalearthdata.com","kind":"region","sort_rank":256,"kind_detail":"4","min_zoom":6.7,"id":2482},"arcs":[166]},{"type":"MultiLineString","properties":{"source":"naturalearthdata.com","kind":"region","sort_rank":256,"kind_detail":"4","min_zoom":6.7,"id":2479},"arcs":[[167],[168],[169],[170],[171],[172],[173]]},{"type":"MultiLineString","properties":{"source":"naturalearthdata.com","kind":"region","sort_rank":256,"kind_detail":"4","min_zoom":6.7,"id":2480},"arcs":[[174],[175],[176],[177]]},{"type":"MultiLineString","properties":{"source":"naturalearthdata.com","kind":"region","sort_rank":256,"kind_detail":"4","min_zoom":6.7,"id":2481},"arcs":[[178],[179],[180],[181]]},{"type":"MultiLineString","properties":{"source":"naturalearthdata.com","kind":"region","sort_rank":256,"kind_detail":"4","min_zoom":6.7,"id":2484},"arcs":[[182],[183],[184]]},{"type":"MultiLineString","properties":{"source":"naturalearthdata.com","kind":"region","sort_rank":256,"kind_detail":"4","min_zoom":6.7,"id":2485},"arcs":[[185],[186],[187]]},{"type":"MultiLineString","properties":{"source":"naturalearthdata.com","kind":"region","sort_rank":256,"kind_detail":"4","min_zoom":6.7,"id":2486},"arcs":[[188],[189]]},{"type":"MultiLineString","properties":{"source":"naturalearthdata.com","kind":"region","sort_rank":256,"kind_detail":"4","min_zoom":6.7,"id":2487},"arcs":[[190],[191],[192],[193]]},{"type":"MultiLineString","properties":{"source":"naturalearthdata.com","kind":"region","sort_rank":256,"kind_detail":"4","min_zoom":6.7,"id":2488},"arcs":[[194],[195],[196]]},{"type":"MultiLineString","properties":{"source":"naturalearthdata.com","kind":"region","sort_rank":256,"kind_detail":"4","min_zoom":6.7,"id":2489},"arcs":[[197],[198],[199],[200],[201]]},{"type":"MultiLineString","properties":{"source":"naturalearthdata.com","kind":"region","sort_rank":256,"kind_detail":"4","min_zoom":6.7,"id":2490},"arcs":[[202],[203],[204],[205],[206],[207]]},{"type":"LineString","properties":{"source":"naturalearthdata.com","kind":"region","sort_rank":256,"kind_detail":"4","min_zoom":6.7,"id":2491},"arcs":[208]},{"type":"MultiLineString","properties":{"source":"naturalearthdata.com","kind":"region","sort_rank":256,"kind_detail":"4","min_zoom":6.7,"id":2492},"arcs":[[209],[210],[211],[212]]},{"type":"MultiLineString","properties":{"source":"naturalearthdata.com","kind":"region","sort_rank":256,"kind_detail":"4","min_zoom":6.7,"id":2497},"arcs":[[213],[214],[215],[216],[217],[218],[219],[220],[221],[222],[223],[224],[225],[226],[227],[228],[229],[230]]},{"type":"MultiLineString","properties":{"source":"naturalearthdata.com","kind":"region","sort_rank":256,"kind_detail":"4","min_zoom":6.7,"id":2498},"arcs":[[231],[232],[233],[234],[235]]},{"type":"MultiLineString","properties":{"source":"naturalearthdata.com","kind":"region","sort_rank":256,"kind_detail":"4","min_zoom":6.7,"id":2499},"arcs":[[236],[237],[238],[239],[240],[241],[242],[243],[244]]},{"type":"MultiLineString","properties":{"source":"naturalearthdata.com","kind":"region","sort_rank":256,"kind_detail":"4","min_zoom":6.7,"id":3197},"arcs":[[245],[246],[247],[248],[249]]},{"type":"MultiLineString","properties":{"source":"naturalearthdata.com","kind":"region","sort_rank":256,"kind_detail":"4","min_zoom":6.7,"id":3198},"arcs":[[250],[251],[252]]},{"type":"MultiLineString","properties":{"source":"naturalearthdata.com","kind":"region","sort_rank":256,"kind_detail":"4","min_zoom":6.7,"id":3200},"arcs":[[253],[254],[255]]},{"type":"LineString","properties":{"source":"naturalearthdata.com","kind":"region","sort_rank":256,"kind_detail":"4","min_zoom":6.7,"id":3203},"arcs":[256]},{"type":"LineString","properties":{"source":"naturalearthdata.com","kind":"region","sort_rank":256,"kind_detail":"4","min_zoom":6.8,"id":3559},"arcs":[257]},{"type":"MultiLineString","properties":{"source":"naturalearthdata.com","kind":"region","sort_rank":256,"kind_detail":"4","min_zoom":6.8,"id":3550},"arcs":[[258],[259],[260]]},{"type":"LineString","properties":{"source":"naturalearthdata.com","kind":"region","sort_rank":256,"kind_detail":"4","min_zoom":6.8,"id":3551},"arcs":[261]},{"type":"LineString","properties":{"source":"naturalearthdata.com","kind":"region","sort_rank":256,"kind_detail":"4","min_zoom":6.8,"id":3553},"arcs":[262]},{"type":"LineString","properties":{"source":"naturalearthdata.com","kind":"region","sort_rank":256,"kind_detail":"4","min_zoom":6.8,"id":3554},"arcs":[263]},{"type":"MultiLineString","properties":{"source":"naturalearthdata.com","kind":"region","sort_rank":256,"kind_detail":"4","min_zoom":6.8,"id":3560},"arcs":[[264],[265],[266],[267]]},{"type":"LineString","properties":{"source":"naturalearthdata.com","kind":"region","sort_rank":256,"kind_detail":"4","min_zoom":6.8,"id":3561},"arcs":[268]},{"type":"LineString","properties":{"source":"naturalearthdata.com","kind":"region","sort_rank":256,"kind_detail":"4","min_zoom":6.8,"id":3563},"arcs":[269]},{"type":"LineString","properties":{"source":"naturalearthdata.com","kind":"region","sort_rank":256,"kind_detail":"4","min_zoom":6.8,"id":3564},"arcs":[270]},{"type":"LineString","properties":{"source":"naturalearthdata.com","kind":"region","sort_rank":256,"kind_detail":"4","min_zoom":6.8,"id":3565},"arcs":[271]},{"type":"MultiLineString","properties":{"source":"naturalearthdata.com","kind":"region","sort_rank":256,"kind_detail":"4","min_zoom":6.8,"id":3566},"arcs":[[272],[273],[274],[275],[276]]},{"type":"LineString","properties":{"source":"naturalearthdata.com","kind":"region","sort_rank":256,"kind_detail":"4","min_zoom":6.8,"id":3567},"arcs":[277]},{"type":"MultiLineString","properties":{"source":"naturalearthdata.com","kind":"region","sort_rank":256,"kind_detail":"4","min_zoom":6.8,"id":3568},"arcs":[[278],[279],[280],[281]]},{"type":"LineString","properties":{"source":"naturalearthdata.com","kind":"region","sort_rank":256,"kind_detail":"4","min_zoom":6.8,"id":3569},"arcs":[282]},{"type":"LineString","properties":{"source":"naturalearthdata.com","kind":"region","sort_rank":256,"kind_detail":"4","min_zoom":6.8,"id":3570},"arcs":[283]},{"type":"LineString","properties":{"source":"naturalearthdata.com","kind":"region","sort_rank":256,"kind_detail":"4","min_zoom":6.8,"id":3577},"arcs":[284]},{"type":"LineString","properties":{"source":"naturalearthdata.com","kind":"region","sort_rank":256,"kind_detail":"4","min_zoom":6.8,"id":3578},"arcs":[285]},{"type":"MultiLineString","properties":{"source":"naturalearthdata.com","kind":"region","sort_rank":256,"kind_detail":"4","min_zoom":6.8,"id":3579},"arcs":[[286],[287],[288],[289]]},{"type":"LineString","properties":{"source":"naturalearthdata.com","kind":"region","sort_rank":256,"kind_detail":"4","min_zoom":6.8,"id":3580},"arcs":[290]},{"type":"MultiLineString","properties":{"source":"naturalearthdata.com","kind":"region","sort_rank":256,"kind_detail":"4","min_zoom":6.8,"id":3581},"arcs":[[291],[292],[293]]},{"type":"MultiLineString","properties":{"source":"naturalearthdata.com","kind":"region","sort_rank":256,"kind_detail":"4","min_zoom":6.8,"id":3582},"arcs":[[294],[295],[296],[297]]},{"type":"MultiLineString","properties":{"source":"naturalearthdata.com","kind":"region","sort_rank":256,"kind_detail":"4","min_zoom":6.8,"id":3586},"arcs":[[298],[299],[300],[301]]},{"type":"LineString","properties":{"source":"naturalearthdata.com","kind":"region","sort_rank":256,"kind_detail":"4","min_zoom":6.8,"id":3587},"arcs":[302]},{"type":"LineString","properties":{"source":"naturalearthdata.com","kind":"region","sort_rank":256,"kind_detail":"4","min_zoom":6.8,"id":3589},"arcs":[303]},{"type":"MultiLineString","properties":{"source":"naturalearthdata.com","kind":"region","sort_rank":256,"kind_detail":"4","min_zoom":6.8,"id":3590},"arcs":[[304],[305]]},{"type":"MultiLineString","properties":{"source":"naturalearthdata.com","kind":"region","sort_rank":256,"kind_detail":"4","min_zoom":6.8,"id":3591},"arcs":[[306],[307],[308]]},{"type":"MultiLineString","properties":{"source":"naturalearthdata.com","kind":"region","sort_rank":256,"kind_detail":"4","min_zoom":6.8,"id":3593},"arcs":[[309],[310],[311]]},{"type":"MultiLineString","properties":{"source":"naturalearthdata.com","kind":"region","sort_rank":256,"kind_detail":"4","min_zoom":6.8,"id":3594},"arcs":[[312],[313]]},{"type":"LineString","properties":{"source":"naturalearthdata.com","kind":"region","sort_rank":256,"kind_detail":"4","min_zoom":6.8,"id":3616},"arcs":[314]},{"type":"LineString","properties":{"source":"naturalearthdata.com","kind":"region","sort_rank":256,"kind_detail":"4","min_zoom":6.8,"id":3617},"arcs":[315]},{"type":"MultiLineString","properties":{"source":"naturalearthdata.com","kind":"region","sort_rank":256,"kind_detail":"4","min_zoom":6.8,"id":3618},"arcs":[[316],[317],[318],[319],[320],[321],[322],[323],[324],[325],[326],[327]]},{"type":"MultiLineString","properties":{"source":"naturalearthdata.com","kind":"region","sort_rank":256,"kind_detail":"4","min_zoom":6.8,"id":3619},"arcs":[[328],[329],[330],[331],[332],[333],[334],[335],[336]]},{"type":"MultiLineString","properties":{"source":"naturalearthdata.com","kind":"region","sort_rank":256,"kind_detail":"4","min_zoom":6.8,"id":3626},"arcs":[[337],[338],[339]]},{"type":"LineString","properties":{"source":"naturalearthdata.com","kind":"region","sort_rank":256,"kind_detail":"4","min_zoom":6.8,"id":3638},"arcs":[340]},{"type":"LineString","properties":{"source":"naturalearthdata.com","kind":"region","sort_rank":256,"kind_detail":"4","min_zoom":6.8,"id":3640},"arcs":[341]},{"type":"MultiLineString","properties":{"source":"naturalearthdata.com","kind":"region","sort_rank":256,"kind_detail":"4","min_zoom":6.8,"id":3620},"arcs":[[342],[343],[344],[345],[346],[347],[348]]},{"type":"LineString","properties":{"source":"naturalearthdata.com","kind":"region","sort_rank":256,"kind_detail":"4","min_zoom":6.8,"id":3621},"arcs":[349]},{"type":"LineString","properties":{"source":"naturalearthdata.com","kind":"region","sort_rank":256,"kind_detail":"4","min_zoom":6.8,"id":3625},"arcs":[350]},{"type":"MultiLineString","properties":{"source":"naturalearthdata.com","kind":"region","sort_rank":256,"kind_detail":"4","min_zoom":6.8,"id":3627},"arcs":[[351],[352],[353],[354],[355],[356],[357]]},{"type":"MultiLineString","properties":{"source":"naturalearthdata.com","kind":"region","sort_rank":256,"kind_detail":"4","min_zoom":6.8,"id":3628},"arcs":[[358],[359]]},{"type":"MultiLineString","properties":{"source":"naturalearthdata.com","kind":"region","sort_rank":256,"kind_detail":"4","min_zoom":6.8,"id":3629},"arcs":[[360],[361]]},{"type":"MultiLineString","properties":{"source":"naturalearthdata.com","kind":"region","sort_rank":256,"kind_detail":"4","min_zoom":6.8,"id":3630},"arcs":[[362],[363]]},{"type":"LineString","properties":{"source":"naturalearthdata.com","kind":"region","sort_rank":256,"kind_detail":"4","min_zoom":6.8,"id":3631},"arcs":[364]},{"type":"LineString","properties":{"source":"naturalearthdata.com","kind":"region","sort_rank":256,"kind_detail":"4","min_zoom":6.8,"id":3632},"arcs":[365]},{"type":"MultiLineString","properties":{"source":"naturalearthdata.com","kind":"region","sort_rank":256,"kind_detail":"4","min_zoom":6.8,"id":3633},"arcs":[[366],[367],[368],[369],[370],[371],[372]]},{"type":"MultiLineString","properties":{"source":"naturalearthdata.com","kind":"macroregion","sort_rank":257,"kind_detail":"3","min_zoom":6.0,"id":3826},"arcs":[[373],[374],[375],[376],[377],[378],[379]]},{"type":"LineString","properties":{"source":"naturalearthdata.com","kind":"macroregion","sort_rank":257,"kind_detail":"3","min_zoom":6.0,"id":3827},"arcs":[380]},{"type":"MultiLineString","properties":{"source":"naturalearthdata.com","kind":"macroregion","sort_rank":257,"kind_detail":"3","min_zoom":6.0,"id":3841},"arcs":[[381],[382],[383]]},{"type":"MultiLineString","properties":{"source":"naturalearthdata.com","kind":"macroregion","sort_rank":257,"kind_detail":"3","min_zoom":6.0,"id":3842},"arcs":[[384],[385]]},{"type":"LineString","properties":{"source":"naturalearthdata.com","kind":"macroregion","sort_rank":257,"kind_detail":"3","min_zoom":6.0,"id":3843},"arcs":[386]},{"type":"LineString","properties":{"source":"naturalearthdata.com","kind":"macroregion","sort_rank":257,"kind_detail":"3","min_zoom":6.0,"id":3844},"arcs":[387]},{"type":"LineString","properties":{"source":"naturalearthdata.com","kind":"macroregion","sort_rank":257,"kind_detail":"3","min_zoom":6.0,"id":3845},"arcs":[388]},{"type":"MultiLineString","properties":{"source":"naturalearthdata.com","kind":"macroregion","sort_rank":257,"kind_detail":"3","min_zoom":6.0,"id":3846},"arcs":[[389],[390],[391]]},{"type":"LineString","properties":{"source":"naturalearthdata.com","kind":"macroregion","sort_rank":257,"kind_detail":"3","min_zoom":6.0,"id":3847},"arcs":[392]},{"type":"MultiLineString","properties":{"source":"naturalearthdata.com","kind":"macroregion","sort_rank":257,"kind_detail":"3","min_zoom":6.0,"id":3849},"arcs":[[393],[394],[395],[396],[397],[398],[399],[400],[401],[402],[403],[404]]},{"type":"MultiLineString","properties":{"source":"naturalearthdata.com","kind":"macroregion","sort_rank":257,"kind_detail":"3","min_zoom":6.0,"id":3850},"arcs":[[405],[406],[407]]},{"type":"LineString","properties":{"source":"naturalearthdata.com","kind":"macroregion","sort_rank":257,"kind_detail":"3","min_zoom":6.0,"id":3851},"arcs":[408]},{"type":"MultiLineString","properties":{"source":"naturalearthdata.com","kind":"macroregion","sort_rank":257,"kind_detail":"3","min_zoom":6.0,"id":3858},"arcs":[[409],[410]]},{"type":"MultiLineString","properties":{"source":"naturalearthdata.com","kind":"macroregion","sort_rank":257,"kind_detail":"3","min_zoom":6.0,"id":3859},"arcs":[[411],[412]]},{"type":"MultiLineString","properties":{"source":"naturalearthdata.com","kind":"region","sort_rank":256,"kind_detail":"4","min_zoom":6.0,"id":9195},"arcs":[[413],[414],[415]]},{"type":"LineString","properties":{"source":"naturalearthdata.com","kind":"region","sort_rank":256,"kind_detail":"4","min_zoom":6.0,"id":9196},"arcs":[416]},{"type":"MultiLineString","properties":{"source":"naturalearthdata.com","kind":"region","sort_rank":256,"kind_detail":"4","min_zoom":6.0,"id":9197},"arcs":[[417],[418]]},{"type":"MultiLineString","properties":{"source":"naturalearthdata.com","kind":"region","sort_rank":256,"kind_detail":"4","min_zoom":6.0,"id":9198},"arcs":[[419],[420]]},{"type":"LineString","properties":{"source":"naturalearthdata.com","kind":"region","sort_rank":256,"kind_detail":"4","min_zoom":6.0,"id":9199},"arcs":[421]},{"type":"LineString","properties":{"source":"naturalearthdata.com","kind":"region","sort_rank":256,"kind_detail":"4","min_zoom":6.0,"id":9200},"arcs":[422]},{"type":"LineString","properties":{"source":"naturalearthdata.com","kind":"region","sort_rank":256,"kind_detail":"4","min_zoom":6.0,"id":9201},"arcs":[423]},{"type":"LineString","properties":{"source":"naturalearthdata.com","kind":"region","sort_rank":256,"kind_detail":"4","min_zoom":6.0,"id":9202},"arcs":[424]},{"type":"LineString","properties":{"source":"naturalearthdata.com","kind":"region","sort_rank":256,"kind_detail":"4","min_zoom":6.0,"id":9203},"arcs":[425]},{"type":"MultiLineString","properties":{"source":"naturalearthdata.com","kind":"region","sort_rank":256,"kind_detail":"4","min_zoom":6.0,"id":9204},"arcs":[[426],[427]]},{"type":"LineString","properties":{"source":"naturalearthdata.com","kind":"region","sort_rank":256,"kind_detail":"4","min_zoom":6.0,"id":9205},"arcs":[428]},{"type":"LineString","properties":{"source":"naturalearthdata.com","kind":"region","sort_rank":256,"kind_detail":"4","min_zoom":6.0,"id":9206},"arcs":[429]},{"type":"MultiLineString","properties":{"source":"naturalearthdata.com","kind":"region","sort_rank":256,"kind_detail":"4","min_zoom":6.0,"id":9207},"arcs":[[430],[431]]},{"type":"LineString","properties":{"source":"naturalearthdata.com","kind":"region","sort_rank":256,"kind_detail":"4","min_zoom":6.0,"id":9208},"arcs":[432]},{"type":"LineString","properties":{"source":"naturalearthdata.com","kind":"region","sort_rank":256,"kind_detail":"4","min_zoom":6.0,"id":9209},"arcs":[433]},{"type":"MultiLineString","properties":{"source":"naturalearthdata.com","kind":"region","sort_rank":256,"kind_detail":"4","min_zoom":6.0,"id":9210},"arcs":[[434],[435]]},{"type":"MultiLineString","properties":{"source":"naturalearthdata.com","kind":"region","sort_rank":256,"kind_detail":"4","min_zoom":6.0,"id":9211},"arcs":[[436],[437],[438]]}]},"roads":{"type":"GeometryCollection","geometries":[{"type":"LineString","properties":{"source":"naturalearthdata.com","kind":"minor_road","sort_rank":355,"kind_detail":"tertiary","min_zoom":5.0,"id":37615},"arcs":[451]},{"type":"LineString","properties":{"source":"naturalearthdata.com","kind":"minor_road","sort_rank":355,"kind_detail":"tertiary","min_zoom":5.0,"id":37876},"arcs":[452]},{"type":"LineString","properties":{"source":"naturalearthdata.com","kind":"major_road","sort_rank":379,"kind_detail":"secondary","min_zoom":4.0,"id":37937},"arcs":[453]},{"type":"LineString","properties":{"source":"naturalearthdata.com","kind":"major_road","kind_detail":"secondary","sort_rank":379,"landuse_kind":"urban_area","min_zoom":4.0,"id":38103},"arcs":[454]},{"type":"LineString","properties":{"source":"naturalearthdata.com","kind":"major_road","sort_rank":379,"kind_detail":"secondary","min_zoom":4.0,"id":38103},"arcs":[455]},{"type":"LineString","properties":{"source":"naturalearthdata.com","kind":"minor_road","sort_rank":355,"kind_detail":"tertiary","min_zoom":5.0,"id":38254},"arcs":[456]},{"type":"LineString","properties":{"source":"naturalearthdata.com","kind":"minor_road","sort_rank":355,"kind_detail":"tertiary","min_zoom":5.0,"id":38499},"arcs":[457]},{"type":"LineString","properties":{"source":"naturalearthdata.com","kind":"major_road","sort_rank":379,"kind_detail":"secondary","min_zoom":4.0,"id":38500},"arcs":[458]},{"type":"LineString","properties":{"source":"naturalearthdata.com","kind":"minor_road","sort_rank":355,"kind_detail":"tertiary","min_zoom":5.0,"id":38503},"arcs":[459]},{"type":"LineString","properties":{"source":"naturalearthdata.com","kind":"minor_road","kind_detail":"tertiary","sort_rank":355,"landuse_kind":"urban_area","min_zoom":5.0,"id":38513},"arcs":[460]},{"type":"LineString","properties":{"source":"naturalearthdata.com","kind":"minor_road","kind_detail":"tertiary","sort_rank":355,"landuse_kind":"urban_area","min_zoom":5.0,"id":38515},"arcs":[461]},{"type":"LineString","properties":{"source":"naturalearthdata.com","kind":"minor_road","sort_rank":355,"kind_detail":"tertiary","min_zoom":5.0,"id":38515},"arcs":[462]},{"type":"LineString","properties":{"source":"naturalearthdata.com","kind":"minor_road","sort_rank":355,"kind_detail":"tertiary","min_zoom":5.0,"id":38576},"arcs":[463]},{"type":"LineString","properties":{"source":"naturalearthdata.com","kind":"major_road","kind_detail":"secondary","sort_rank":379,"landuse_kind":"urban_area","min_zoom":4.0,"id":38658},"arcs":[464]},{"type":"LineString","properties":{"source":"naturalearthdata.com","kind":"major_road","sort_rank":379,"kind_detail":"secondary","min_zoom":4.0,"id":38658},"arcs":[465]},{"type":"LineString","properties":{"source":"naturalearthdata.com","kind":"minor_road","kind_detail":"tertiary","sort_rank":355,"landuse_kind":"urban_area","min_zoom":6.0,"id":38713},"arcs":[466]},{"type":"LineString","properties":{"source":"naturalearthdata.com","kind":"minor_road","sort_rank":355,"kind_detail":"tertiary","min_zoom":6.0,"id":38713},"arcs":[467]},{"type":"LineString","properties":{"source":"naturalearthdata.com","kind":"minor_road","sort_rank":355,"kind_detail":"tertiary","min_zoom":6.0,"id":38841},"arcs":[468]},{"type":"LineString","properties":{"source":"naturalearthdata.com","kind":"major_road","sort_rank":379,"kind_detail":"secondary","min_zoom":4.0,"id":38891},"arcs":[469]},{"type":"LineString","properties":{"source":"naturalearthdata.com","kind":"major_road","sort_rank":379,"kind_detail":"secondary","min_zoom":4.0,"id":38920},"arcs":[470]},{"type":"LineString","properties":{"source":"naturalearthdata.com","kind":"major_road","sort_rank":379,"kind_detail":"secondary","min_zoom":4.0,"id":39013},"arcs":[471]},{"type":"LineString","properties":{"source":"naturalearthdata.com","kind":"major_road","sort_rank":379,"kind_detail":"secondary","min_zoom":4.0,"id":39080},"arcs":[472]},{"type":"LineString","properties":{"source":"naturalearthdata.com","kind":"minor_road","sort_rank":355,"kind_detail":"tertiary","min_zoom":5.0,"id":39107},"arcs":[473]},{"type":"LineString","properties":{"source":"naturalearthdata.com","kind":"minor_road","sort_rank":355,"kind_detail":"tertiary","min_zoom":5.0,"id":39125},"arcs":[474]},{"type":"LineString","properties":{"source":"naturalearthdata.com","kind":"minor_road","sort_rank":355,"kind_detail":"tertiary","min_zoom":5.0,"id":39147},"arcs":[475]},{"type":"LineString","properties":{"source":"naturalearthdata.com","kind":"major_road","sort_rank":379,"kind_detail":"secondary","min_zoom":4.0,"id":39166},"arcs":[476]},{"type":"LineString","properties":{"source":"naturalearthdata.com","kind":"minor_road","sort_rank":355,"kind_detail":"tertiary","min_zoom":6.0,"id":39238},"arcs":[477]},{"type":"LineString","properties":{"source":"naturalearthdata.com","kind":"minor_road","sort_rank":355,"kind_detail":"tertiary","min_zoom":5.0,"id":39266},"arcs":[478]},{"type":"LineString","properties":{"source":"naturalearthdata.com","kind":"major_road","sort_rank":379,"kind_detail":"secondary","min_zoom":4.0,"id":39270},"arcs":[479]},{"type":"LineString","properties":{"source":"naturalearthdata.com","kind":"minor_road","kind_detail":"tertiary","sort_rank":355,"landuse_kind":"park","min_zoom":6.0,"id":39304},"arcs":[480]},{"type":"MultiLineString","properties":{"source":"naturalearthdata.com","kind":"minor_road","sort_rank":355,"kind_detail":"tertiary","min_zoom":6.0,"id":39304},"arcs":[[481],[482]]},{"type":"LineString","properties":{"source":"naturalearthdata.com","kind":"major_road","kind_detail":"secondary","sort_rank":379,"landuse_kind":"urban_area","min_zoom":4.0,"id":39398},"arcs":[483]},{"type":"MultiLineString","properties":{"source":"naturalearthdata.com","kind":"major_road","sort_rank":379,"kind_detail":"secondary","min_zoom":4.0,"id":39398},"arcs":[[484],[485]]},{"type":"LineString","properties":{"source":"naturalearthdata.com","kind":"major_road","sort_rank":379,"kind_detail":"secondary","min_zoom":4.0,"id":39422},"arcs":[486]},{"type":"LineString","properties":{"source":"naturalearthdata.com","kind":"minor_road","kind_detail":"tertiary","sort_rank":355,"landuse_kind":"urban_area","min_zoom":6.0,"id":39443},"arcs":[487]},{"type":"LineString","properties":{"source":"naturalearthdata.com","kind":"minor_road","sort_rank":355,"kind_detail":"tertiary","min_zoom":6.0,"id":39443},"arcs":[488]},{"type":"LineString","properties":{"source":"naturalearthdata.com","kind":"major_road","kind_detail":"secondary","sort_rank":379,"landuse_kind":"protected_area","min_zoom":4.0,"id":39463},"arcs":[489]},{"type":"MultiLineString","properties":{"source":"naturalearthdata.com","kind":"major_road","sort_rank":379,"kind_detail":"secondary","min_zoom":4.0,"id":39463},"arcs":[[490],[491]]},{"type":"LineString","properties":{"source":"naturalearthdata.com","kind":"major_road","sort_rank":379,"kind_detail":"secondary","min_zoom":3.0,"id":39464},"arcs":[492]},{"type":"LineString","properties":{"source":"naturalearthdata.com","kind":"minor_road","kind_detail":"tertiary","sort_rank":355,"landuse_kind":"urban_area","min_zoom":6.0,"id":39465},"arcs":[493]},{"type":"LineString","properties":{"source":"naturalearthdata.com","kind":"minor_road","sort_rank":355,"kind_detail":"tertiary","min_zoom":6.0,"id":39465},"arcs":[494]},{"type":"LineString","properties":{"source":"naturalearthdata.com","kind":"major_road","sort_rank":379,"kind_detail":"secondary","min_zoom":3.0,"id":39505},"arcs":[495]},{"type":"LineString","properties":{"source":"naturalearthdata.com","kind":"major_road","sort_rank":379,"kind_detail":"secondary","min_zoom":3.0,"id":39560},"arcs":[496]},{"type":"LineString","properties":{"source":"naturalearthdata.com","kind":"major_road","sort_rank":379,"kind_detail":"secondary","min_zoom":3.0,"id":39564},"arcs":[497]},{"type":"LineString","properties":{"source":"naturalearthdata.com","kind":"major_road","sort_rank":379,"kind_detail":"secondary","min_zoom":3.0,"id":39565},"arcs":[498]},{"type":"LineString","properties":{"source":"naturalearthdata.com","kind":"major_road","sort_rank":379,"kind_detail":"secondary","min_zoom":3.0,"id":39579},"arcs":[499]},{"type":"LineString","properties":{"source":"naturalearthdata.com","kind":"major_road","kind_detail":"secondary","sort_rank":379,"landuse_kind":"park","min_zoom":4.0,"id":39629},"arcs":[500]},{"type":"LineString","properties":{"source":"naturalearthdata.com","kind":"major_road","kind_detail":"secondary","sort_rank":379,"landuse_kind":"urban_area","min_zoom":4.0,"id":39629},"arcs":[501]},{"type":"MultiLineString","properties":{"source":"naturalearthdata.com","kind":"major_road","sort_rank":379,"kind_detail":"secondary","min_zoom":4.0,"id":39629},"arcs":[[502],[503]]},{"type":"LineString","properties":{"source":"naturalearthdata.com","kind":"major_road","sort_rank":379,"kind_detail":"secondary","min_zoom":4.0,"id":39645},"arcs":[504]},{"type":"LineString","properties":{"source":"naturalearthdata.com","kind":"major_road","kind_detail":"secondary","sort_rank":379,"landuse_kind":"urban_area","min_zoom":4.0,"id":39653},"arcs":[505]},{"type":"LineString","properties":{"source":"naturalearthdata.com","kind":"major_road","sort_rank":379,"kind_detail":"secondary","min_zoom":4.0,"id":39653},"arcs":[506]},{"type":"LineString","properties":{"source":"naturalearthdata.com","kind":"major_road","sort_rank":379,"kind_detail":"secondary","min_zoom":4.0,"id":39675},"arcs":[507]},{"type":"LineString","properties":{"source":"naturalearthdata.com","kind":"major_road","sort_rank":379,"kind_detail":"secondary","min_zoom":4.0,"id":39680},"arcs":[508]},{"type":"LineString","properties":{"source":"naturalearthdata.com","kind":"major_road","sort_rank":379,"kind_detail":"secondary","min_zoom":3.0,"id":39684},"arcs":[509]},{"type":"LineString","properties":{"source":"naturalearthdata.com","kind":"major_road","sort_rank":379,"kind_detail":"secondary","min_zoom":3.0,"id":39688},"arcs":[510]},{"type":"LineString","properties":{"source":"naturalearthdata.com","kind":"major_road","sort_rank":379,"kind_detail":"secondary","min_zoom":3.0,"id":39706},"arcs":[511]},{"type":"LineString","properties":{"source":"naturalearthdata.com","kind":"major_road","sort_rank":379,"kind_detail":"secondary","min_zoom":3.0,"id":39766},"arcs":[512]},{"type":"LineString","properties":{"source":"naturalearthdata.com","kind":"major_road","sort_rank":379,"kind_detail":"secondary","min_zoom":3.0,"id":39770},"arcs":[513]},{"type":"LineString","properties":{"source":"naturalearthdata.com","kind":"major_road","sort_rank":379,"kind_detail":"secondary","min_zoom":3.0,"id":39772},"arcs":[514]},{"type":"LineString","properties":{"source":"naturalearthdata.com","kind":"major_road","sort_rank":379,"kind_detail":"secondary","min_zoom":3.0,"id":39773},"arcs":[515]},{"type":"LineString","properties":{"source":"naturalearthdata.com","kind":"major_road","sort_rank":379,"kind_detail":"secondary","min_zoom":3.0,"id":39779},"arcs":[516]},{"type":"LineString","properties":{"source":"naturalearthdata.com","kind":"major_road","sort_rank":379,"kind_detail":"secondary","min_zoom":3.0,"id":39794},"arcs":[517]},{"type":"LineString","properties":{"source":"naturalearthdata.com","kind":"major_road","sort_rank":379,"kind_detail":"secondary","min_zoom":3.0,"id":39808},"arcs":[518]},{"type":"LineString","properties":{"source":"naturalearthdata.com","kind":"major_road","sort_rank":379,"kind_detail":"secondary","min_zoom":3.0,"id":39844},"arcs":[519]},{"type":"LineString","properties":{"source":"naturalearthdata.com","kind":"major_road","sort_rank":379,"kind_detail":"secondary","min_zoom":3.0,"id":39846},"arcs":[520]},{"type":"LineString","properties":{"source":"naturalearthdata.com","kind":"major_road","sort_rank":379,"kind_detail":"secondary","min_zoom":3.0,"id":39847},"arcs":[521]},{"type":"LineString","properties":{"source":"naturalearthdata.com","kind":"major_road","kind_detail":"secondary","sort_rank":379,"landuse_kind":"urban_area","min_zoom":3.0,"id":39883},"arcs":[522]},{"type":"LineString","properties":{"source":"naturalearthdata.com","kind":"major_road","sort_rank":379,"kind_detail":"secondary","min_zoom":3.0,"id":39883},"arcs":[523]},{"type":"LineString","properties":{"source":"naturalearthdata.com","kind":"major_road","kind_detail":"secondary","sort_rank":379,"landuse_kind":"urban_area","min_zoom":3.0,"id":39884},"arcs":[524]},{"type":"LineString","properties":{"source":"naturalearthdata.com","kind":"major_road","sort_rank":379,"kind_detail":"secondary","min_zoom":3.0,"id":39884},"arcs":[525]},{"type":"LineString","properties":{"source":"naturalearthdata.com","kind":"minor_road","sort_rank":355,"kind_detail":"tertiary","min_zoom":5.0,"id":39902},"arcs":[526]},{"type":"MultiLineString","properties":{"source":"naturalearthdata.com","kind":"minor_road","kind_detail":"tertiary","sort_rank":355,"landuse_kind":"urban_area","min_zoom":6.0,"id":39911},"arcs":[[527],[528]]},{"type":"MultiLineString","properties":{"source":"naturalearthdata.com","kind":"minor_road","sort_rank":355,"kind_detail":"tertiary","min_zoom":6.0,"id":39911},"arcs":[[529],[530]]},{"type":"LineString","properties":{"source":"naturalearthdata.com","kind":"minor_road","sort_rank":355,"kind_detail":"tertiary","min_zoom":6.0,"id":39960},"arcs":[531]},{"type":"LineString","properties":{"source":"naturalearthdata.com","kind":"major_road","sort_rank":379,"kind_detail":"secondary","min_zoom":3.0,"id":39985},"arcs":[532]},{"type":"LineString","properties":{"source":"naturalearthdata.com","kind":"major_road","kind_detail":"secondary","sort_rank":379,"landuse_kind":"urban_area","min_zoom":3.0,"id":39993},"arcs":[533]},{"type":"LineString","properties":{"source":"naturalearthdata.com","kind":"major_road","sort_rank":379,"kind_detail":"secondary","min_zoom":3.0,"id":39993},"arcs":[534]},{"type":"LineString","properties":{"source":"naturalearthdata.com","kind":"minor_road","sort_rank":355,"kind_detail":"tertiary","min_zoom":5.0,"id":39999},"arcs":[535]},{"type":"LineString","properties":{"source":"naturalearthdata.com","kind":"minor_road","sort_rank":355,"kind_detail":"tertiary","min_zoom":6.0,"id":40000},"arcs":[536]},{"type":"LineString","properties":{"source":"naturalearthdata.com","kind":"major_road","kind_detail":"secondary","sort_rank":379,"landuse_kind":"urban_area","min_zoom":3.0,"id":40006},"arcs":[537]},{"type":"LineString","properties":{"source":"naturalearthdata.com","kind":"major_road","sort_rank":379,"kind_detail":"secondary","min_zoom":3.0,"id":40006},"arcs":[538]},{"type":"LineString","properties":{"source":"naturalearthdata.com","kind":"major_road","sort_rank":379,"kind_detail":"secondary","min_zoom":3.0,"id":40026},"arcs":[539]},{"type":"LineString","properties":{"source":"naturalearthdata.com","kind":"minor_road","sort_rank":355,"kind_detail":"tertiary","min_zoom":5.0,"id":40155},"arcs":[540]},{"type":"LineString","properties":{"source":"naturalearthdata.com","kind":"minor_road","sort_rank":355,"kind_detail":"tertiary","min_zoom":5.0,"id":40313},"arcs":[541]},{"type":"LineString","properties":{"source":"naturalearthdata.com","kind":"minor_road","sort_rank":355,"kind_detail":"tertiary","min_zoom":6.0,"id":40319},"arcs":[542]}]},"earth":{"type":"GeometryCollection","geometries":[{"type":"MultiPolygon","properties":{"sort_rank":10,"source":"naturalearthdata.com","min_zoom":0.0,"kind":"earth","area":848380007485},"arcs":[[[543]]]}]},"landuse":{"type":"GeometryCollection","geometries":[{"type":"MultiPolygon","properties":{"source":"openstreetmap.org","kind":"park","tier":2,"area":26966649565,"sort_rank":24,"min_zoom":4.0},"arcs":[[[544]]]},{"type":"MultiPolygon","properties":{"source":"openstreetmap.org","kind":"park","tier":2,"area":10216829998,"sort_rank":24,"min_zoom":4.0,"osm_relation":true},"arcs":[[[545]],[[546]]]},{"type":"MultiPolygon","properties":{"source":"naturalearthdata.com","kind":"urban_area","name":"","area":2927615264,"sort_rank":11,"min_zoom":4.0},"arcs":[[[547]],[[548]],[[549]],[[550]],[[551]],[[552]],[[553]],[[554]],[[555]],[[556]]]},{"type":"Polygon","properties":{"source":"openstreetmap.org","kind":"protected_area","area":604713984,"tier":2,"id":272377541,"min_zoom":6.0,"sort_rank":17},"arcs":[[557]]},{"type":"MultiPolygon","properties":{"source":"openstreetmap.org","kind":"park","tier":2,"area":2301896826,"sort_rank":24,"min_zoom":6.0},"arcs":[[[558]],[[559]]]}]}},"type":"Topology","transform":{"translate":[-11.25,5.6159858192],"scale":[0.001373291,0.0013580117]},"arcs":[[[0,3224],[2,-1],[25,-7],[10,-1],[8,-7],[5,-16],[10,-49],[5,-8],[54,-35],[30,-28],[26,-33],[17,-33],[9,-25],[4,-7],[4,-3],[12,-4],[5,-4],[3,-6],[5,-19],[5,-7],[19,-13],[7,-8],[2,-6],[4,-20],[5,-7],[8,-3],[5,-5],[0,-10],[-4,-19],[3,-13],[8,-11],[11,-12],[11,-7],[1,-4],[-7,-6],[-7,-6],[9,-3],[12,-1]],[[331,2778],[7,-1]],[[326,2777],[5,1]],[[346,2777],[7,-1],[9,-13],[8,-8],[10,-7],[8,-3],[31,-27],[1,-10],[-3,-8],[-4,-8],[-4,-9],[0,-7],[3,-12],[-1,-7],[-6,-8],[-7,-5],[-8,-4],[-8,-5],[-13,-23],[-7,-32],[5,-26],[26,-8]],[[338,2777],[8,0]],[[423,2547],[29,-3],[17,-5],[9,-7],[0,-5],[1,-4],[0,-2],[-11,-44],[-3,-26],[1,-53],[1,-8],[7,-20],[0,-4],[-1,-7],[1,-3],[2,-3],[5,-4],[2,-1],[30,-40],[11,-8],[4,-7],[31,-42],[-5,-16],[-10,-14],[-14,-10],[-17,-1],[-15,-3],[-14,-12],[-11,-16],[-12,-21],[-11,-11],[-5,-9],[-2,-9],[0,-9],[-2,-6],[-7,-1],[-11,-64],[-11,-17],[-13,-16],[-17,-25],[-7,-24],[14,-13]],[[393,2546],[30,1]],[[660,2123],[4,0],[20,-6],[6,-4],[6,-2]],[[493,1980],[14,5],[25,17],[43,42],[9,12],[18,36],[7,10],[8,8],[9,6],[11,4],[23,3]],[[696,2111],[9,1]],[[430,2001],[24,-1],[11,-5],[21,-13],[7,-2]],[[389,1954],[6,25],[14,15],[21,7]],[[0,1196],[23,10],[7,6],[47,61],[13,17],[108,86],[30,17],[28,6],[9,5],[8,6],[8,10],[97,119],[28,23],[34,19],[6,2],[16,2],[-2,178],[2,9],[2,7],[7,5],[18,11],[8,7],[17,32],[11,13],[17,9],[15,2],[58,0],[15,2],[14,5],[15,8],[18,17],[2,14],[-6,15],[-5,20],[1,17],[13,28],[22,90],[1,38]],[[2260,3129],[-3,1],[-3,6],[2,3],[3,1],[2,2],[-2,4],[-1,13],[-3,4],[-4,1],[-4,0],[-3,1],[-2,6],[-3,8],[1,6],[16,6],[9,8],[2,7],[-9,3],[-7,8],[8,19],[15,20],[13,12],[37,14],[17,9],[14,19],[3,10],[3,10],[6,9],[7,9]],[[2359,2774],[-16,1],[-16,3],[-12,7],[-12,13],[-42,60],[-6,12],[-3,13],[-3,17],[0,16],[1,7],[27,191],[-4,16]],[[2273,3130],[-13,-1]],[[2455,2613],[-37,14],[-1,27],[26,64],[2,17],[20,59],[-4,6],[-30,0]],[[2431,2800],[-16,-3],[-27,-16],[-15,-5],[-14,-2]],[[2490,2306],[-44,13],[-16,2],[-34,10],[-7,23],[13,64],[4,36],[3,17],[7,18],[11,12],[66,33],[14,2],[14,0],[17,3],[12,8],[1,1],[-9,11],[-31,17],[-16,13],[-8,8],[-10,19],[-6,1]],[[2471,2617],[-7,-3],[-9,-1]],[[2570,2027],[42,5],[-15,31],[-4,16],[2,17],[5,19],[0,12],[-9,31],[-2,16],[2,28],[-4,14],[-5,6],[-20,14],[-7,8],[-17,31],[-5,7],[-14,12],[-4,4],[-5,9],[-5,3],[-4,0]],[[2501,2310],[-8,-4],[-3,0]],[[2311,2126],[6,-2],[8,-7],[5,-2],[6,-1]],[[2257,2114],[15,1],[24,10],[15,1]],[[2388,2121],[10,-1],[9,-8],[5,-9],[4,-11],[6,-10],[8,-7],[10,-6],[12,-3],[12,-1]],[[2355,2114],[22,6],[11,1]],[[2231,2119],[26,-5]],[[2304,1875],[-71,22],[-60,40],[1,7],[12,13],[2,8],[-2,14],[0,14],[9,42],[-1,15],[-4,9],[-5,9],[-4,7],[0,9],[4,6],[36,28],[10,1]],[[2348,2115],[7,-1]],[[2336,2114],[12,1]],[[2495,2107],[15,-21],[23,-46],[17,-10],[20,-3]],[[2464,2065],[13,6],[1,11],[-2,12],[3,11],[16,2]],[[2394,1767],[-2,8],[-2,8],[-9,16],[-12,13],[-14,9],[-4,10],[0,11],[4,23],[6,9],[4,10],[-1,7]],[[2364,1891],[-9,0],[-44,-15],[-7,-1]],[[2358,1782],[7,-3],[7,-6],[9,-5],[13,-1]],[[2327,1777],[31,5]],[[2316,1777],[11,0]],[[2200,1420],[21,24],[0,5],[-2,12],[0,5],[3,9],[15,18],[3,3],[9,5],[3,3],[0,3],[-2,7],[0,3],[24,27],[3,11],[3,24],[3,12],[3,4],[5,3],[4,4],[1,8],[-3,8],[-17,14],[-5,7],[2,30],[36,55],[7,29],[2,18],[-2,6]],[[2065,1470],[17,-19]],[[2013,1430],[33,31],[19,9]],[[2121,1459],[25,-6],[27,-21],[27,-12]],[[2082,1451],[13,1],[26,7]],[[2013,1430],[31,-15],[13,-26],[15,-52],[8,-72],[4,-14],[5,-9],[13,-17],[4,-10],[6,-23],[3,-6],[9,-11],[3,-6],[0,-4],[-1,-10],[0,-5],[3,-4],[11,-11],[4,-8],[2,-7],[1,-17],[13,-71],[-2,-17],[-6,-7],[-14,-12],[-4,-6],[-1,-13],[1,-12],[-1,-12],[-9,-20],[3,-6],[6,-4],[4,-4],[0,-10],[-1,-10],[-6,-23],[-9,-21],[-11,-16],[-65,-74],[-14,-16],[-53,-42],[-10,-12]],[[1968,695],[-2,0]],[[1966,695],[-12,-7],[0,-1],[-3,-10],[-1,-3],[-4,-2],[-9,-2],[-3,-1],[-18,-23],[12,-1],[7,-2]],[[1953,644],[8,-3],[8,-7],[22,-29],[14,-5]],[[1935,643],[18,1]],[[2026,641],[5,-3],[8,-11],[23,-12],[10,-11],[-1,-4],[-6,-5],[-4,-12],[2,-7],[6,-13],[2,-6],[-4,-7],[-6,-4],[-3,-4],[9,-9]],[[2005,600],[9,8],[5,14],[4,13],[3,6]],[[2110,549],[7,-3],[7,-8],[8,-7]],[[2100,541],[10,8]],[[2083,544],[9,0],[8,-3]],[[2067,533],[8,8],[8,3]],[[2141,537],[5,-3],[4,-6],[1,-6],[0,-5],[1,-3],[6,-3],[57,-13],[8,-3],[8,-5],[5,-3],[6,-2]],[[2132,531],[3,0],[3,3],[3,3]],[[2343,505],[12,-3],[12,-8],[47,-11],[4,-1]],[[2242,485],[12,0],[10,2],[16,9],[9,4],[34,5],[20,0]],[[2424,484],[5,-1],[1,-3],[2,-8],[3,-4],[32,-26],[11,-14],[2,-10],[-10,-28],[-3,-16],[-2,-16],[2,-15],[8,-10]],[[2418,482],[3,1],[3,1]],[[2492,342],[6,0],[7,-7],[3,-7],[2,-16],[3,-3],[4,-1],[3,-2],[2,-5],[-1,-4],[-7,-3],[-2,-4],[0,-21],[0,-5],[10,-12],[29,-15],[9,-9],[13,-18]],[[2475,333],[0,3],[7,4],[10,2]],[[2599,239],[5,-4],[8,-9],[11,-9],[13,-2],[1,-2],[15,-9],[2,0],[15,-7],[4,-5],[-6,-7],[6,-5],[9,-12],[6,-3]],[[2573,210],[10,5],[8,15],[8,9]],[[2746,180],[24,-11],[3,-25],[-5,-31],[-1,-27],[14,-58],[9,-19],[5,-9]],[[2735,140],[5,6],[4,12],[2,22]],[[2710,179],[-2,-13],[11,-2],[5,-9],[4,-11],[7,-4]],[[2688,165],[8,4],[9,8],[5,2]],[[1113,2076],[-10,11],[-8,13],[-3,13],[-5,35],[-4,13],[-8,9],[-12,2]],[[1063,2172],[0,-9],[-3,-6],[-6,-6],[-5,-6],[0,-6],[3,-6],[-1,-5],[-18,-5],[-13,-7],[-7,-2]],[[865,2066],[-9,4],[-4,9],[8,35],[-5,11],[-11,6],[-42,11],[-12,0]],[[790,2142],[-12,-4],[-25,-24],[-12,-7]],[[1013,2114],[-3,5],[-4,3],[-3,2]],[[1003,2124],[-10,-3],[-4,0],[-14,0],[-12,-2],[-12,-4],[-12,-6],[-29,-23],[-29,-17],[-16,-3]],[[741,2107],[-6,12]],[[735,2119],[-15,-6],[-7,-1]],[[1152,2042],[-7,2],[1,13],[7,10],[10,6],[6,9],[-4,16],[-10,9],[-14,7],[-15,0]],[[1126,2114],[-9,-10],[-1,-15],[-1,-11],[-2,-2]],[[713,2112],[-8,0]],[[1293,1777],[1,8],[8,14],[2,7],[-14,54],[0,8],[-2,9],[-7,4],[-18,3],[-11,8],[-1,20],[5,21],[7,11],[3,4],[2,3],[-2,3],[-3,4],[-4,7],[-3,8],[-4,8],[-6,6],[8,8],[4,4],[5,3],[3,1],[9,5],[-4,2],[-5,6],[-13,9],[-36,16],[-10,13],[-6,4]],[[1201,2058],[-5,-6],[-3,-5],[-6,-2],[-6,-1]],[[1181,2044],[-6,1]],[[1175,2045],[-12,-1],[-11,-2]],[[1284,1294],[-3,2],[8,7],[5,7],[2,9],[0,10],[3,9],[7,7],[15,12],[16,25],[7,15],[-3,11],[13,15],[5,8],[4,20],[4,11],[6,9],[8,6],[-15,19],[-2,24],[8,27],[8,18],[-19,24],[-6,13],[-19,24],[-17,31],[-7,31],[2,31],[9,32],[1,2],[5,7],[2,7],[-1,8],[-4,8],[-9,10],[-7,1]],[[1310,1794],[-8,-6],[-9,-11]],[[2013,1430],[-22,14],[-23,18],[-14,16],[-5,20],[4,28],[-86,4]],[[1867,1530],[-6,-14],[-19,-24],[-5,-15],[-2,-25],[-1,-4],[-4,-8],[-2,-4],[1,-5],[3,-1],[3,-1],[2,-3],[1,-18],[-3,-14],[-7,-14],[-12,-13],[-21,-12],[-4,-4],[-3,-7],[-1,-15],[-2,-6],[-7,-6],[-11,-3],[-7,-5],[-14,-16],[-6,-10],[-4,-8],[2,-13],[5,-13],[4,-14],[-5,-15],[-8,-5],[-32,-12],[-9,-1]],[[1432,1295],[-12,1],[-4,6],[-5,14],[-5,6],[-6,4],[-6,2],[-10,2]],[[1384,1330],[-12,-1],[-7,-1],[-3,-3],[-1,-8],[-4,-2],[-4,-1],[-11,-16]],[[1342,1298],[-9,7],[-14,25]],[[1319,1330],[-8,-13],[-21,-20],[-6,-3]],[[1511,1221],[-5,1],[-18,17],[-10,46],[-10,15],[-11,1]],[[1457,1301],[-25,-6]],[[1693,1202],[-14,22],[-9,6]],[[1670,1230],[-4,-17]],[[1547,1159],[7,26],[-3,9],[-14,8],[-6,4],[0,13],[-4,3]],[[1527,1222],[-16,-1]],[[1666,1213],[-8,3]],[[1658,1216],[-3,-1],[-3,-11],[-3,-1],[-16,-5],[-6,-3]],[[1627,1195],[-13,1]],[[1614,1196],[-10,-5],[-9,-9],[-10,-7],[-10,-3],[-10,-2],[-4,-1],[-6,-2],[-8,-8]],[[3637,3605],[-4,2],[0,11],[3,6],[14,11],[4,6],[1,8],[-2,9],[-4,11],[6,6],[8,4],[7,4],[4,9],[-2,6],[-7,5],[-8,5],[-14,5],[-2,5],[4,31],[-1,10],[-7,4]],[[3637,3763],[-18,-2],[-17,-8],[-14,-9],[-14,-7]],[[3574,3737],[-19,1],[-15,2]],[[3540,3740],[-15,0],[-13,-7],[-5,-13],[-1,-29],[3,-10],[9,-5],[9,-5],[5,-6],[-2,-18],[-14,-9],[-18,-3]],[[3498,3635],[-15,1],[-40,8],[-12,4],[-29,16],[-15,10],[-11,10],[-15,25],[-9,6]],[[3352,3715],[-16,-5],[1,-2],[-11,-18],[-1,0],[-4,-14],[-1,-14],[1,-6],[3,-5],[2,-6],[-4,-33],[-7,-24],[1,-13],[10,-14],[5,-3],[8,-2],[8,-4],[4,-5],[0,-8],[-4,-7],[-4,-5],[-4,-6],[-3,-23],[0,-4],[-6,-9],[-17,-5]],[[3666,3591],[-5,1],[-4,5],[-4,5],[-4,4],[-6,1]],[[3643,3607],[-6,-2]],[[3667,3455],[6,2],[1,4],[-1,5],[-1,4],[-1,3],[18,20],[-11,8],[2,14],[11,23],[-11,14],[-3,7],[2,6],[7,13],[2,5],[-4,7],[-4,3]],[[3680,3593],[-6,-1],[-8,-1]],[[2781,3474],[-10,0],[-1,5],[2,7],[-1,8],[-12,20],[-3,8],[-1,6],[1,8],[-1,9],[-4,8],[-6,7],[-7,4],[-8,2]],[[2730,3566],[-11,-1],[-17,-22],[-6,-5],[-6,-2]],[[4096,3557],[-38,-4],[-94,-20],[-52,-28],[-11,-8],[-9,-12],[-3,-14],[3,-40],[-8,-6]],[[2669,3535],[-17,2],[-26,16]],[[2626,3553],[-15,-3],[-4,-6],[-3,-9],[-4,-8],[-6,-2]],[[2690,3536],[-13,0]],[[2677,3536],[-8,-1]],[[2594,3525],[-9,1]],[[2585,3526],[-6,-1],[-10,-9],[0,-5],[-3,-1],[-7,-3],[9,-11],[-9,-12],[-16,-10],[-14,-3],[9,-12],[-9,-15],[-1,-11],[-4,-6],[-5,-3],[-5,-4],[-3,-8],[-2,-6],[-18,-22],[-7,-6],[-6,-4],[-7,-3],[-19,-2],[-7,-5],[-14,-11],[-13,-6],[-15,-4],[-15,-1]],[[3313,3480],[-16,2],[-28,16],[-16,5]],[[3253,3503],[-15,-2],[-43,-20],[-14,-1]],[[3181,3480],[-42,5]],[[3139,3485],[-16,-3],[-9,-9],[-17,-59],[1,-9],[8,-7],[10,-6],[7,-8],[1,-19],[-9,-16],[-15,-11],[-17,-6],[-18,-1]],[[3065,3331],[-13,12],[-10,17],[-12,14],[-13,7],[-71,20],[-58,9],[-46,1],[-12,3],[-6,9],[-1,18],[5,30],[-4,11],[-17,1]],[[2807,3483],[-20,-7],[-6,-2]],[[3657,3461],[1,-1],[4,-3],[5,-2]],[[3648,3414],[-2,27],[2,10],[9,10]],[[3884,3425],[-34,11]],[[3850,3436],[-9,-6],[-2,-19],[-5,-15],[-9,-14],[-14,-14],[-65,0]],[[3746,3368],[-55,19],[-10,6],[-14,18],[-8,5]],[[3659,3416],[-11,-2]],[[2388,3342],[-14,6]],[[1954,4096],[-2,-15],[-6,-12],[-7,-3],[-15,0],[-6,-3],[-6,-9],[0,-7],[1,-7],[0,-8],[-8,-15],[-33,-34],[-7,-9],[-6,-12],[-3,-13],[4,-12],[11,-7]],[[2098,4005],[16,-9],[15,-14],[11,-17],[4,-16],[1,-76],[-1,-14],[-4,-7],[-6,-6],[-15,-41],[-1,-15],[19,-7],[3,-13],[11,-146],[8,-19],[23,-31],[18,-34],[13,-7],[16,0]],[[2068,3995],[7,2],[14,7],[9,1]],[[1998,4004],[12,-1],[15,-4]],[[1935,3939],[12,1],[12,4],[13,9],[7,11],[19,40]],[[2048,4001],[6,-1],[14,-5]],[[2025,3999],[15,0],[8,2]],[[1909,3941],[12,-2],[14,0]],[[1871,3930],[11,3],[13,6],[14,2]],[[2263,3545],[5,-2],[7,-12],[3,-9],[1,-19],[3,-9],[15,-10],[19,-4],[39,-2],[14,-8],[11,-16],[8,-18],[4,-17],[2,-19],[-4,-17],[-16,-35]],[[2229,3533],[17,3],[11,5],[6,4]],[[499,1740],[-37,32]],[[745,1679],[-132,41],[-41,39]],[[572,1759],[-73,-19]],[[832,1611],[-68,96]],[[764,1707],[-19,-28]],[[1046,1175],[-14,86],[108,252],[-8,49],[-184,76]],[[948,1638],[-116,-27]],[[1709,191],[-11,-17],[-7,-7],[-12,-5]],[[1679,162],[-84,2]],[[1595,164],[-20,-5]],[[4096,417],[-76,10]],[[126,719]],[[137,2544],[74,-10],[7,-2],[4,-2],[11,-10],[13,-17],[5,-5],[8,-6],[48,-34],[10,-5],[4,-2],[6,0]],[[0,2429],[2,1],[53,18],[7,4],[21,14],[5,5],[4,6],[2,3],[1,4],[1,4],[1,14],[2,9],[2,7],[8,12],[3,3],[3,3],[4,2],[7,3],[5,2],[6,1]],[[451,2523],[28,0]],[[391,2454],[10,1],[5,2],[4,3],[5,8],[0,4],[-2,3],[-14,7],[-3,2],[-2,3],[-1,2],[1,2],[0,1],[44,29],[13,2]],[[362,2459],[4,-1],[16,-3],[9,-1]],[[327,2451],[8,1],[22,6],[5,1]],[[0,1308],[5,-2],[19,-11],[53,-22]],[[774,1121],[19,-1]],[[643,1004],[5,0],[6,1],[6,1],[5,5],[23,24],[11,15],[8,13],[3,6],[48,38],[6,8],[2,3],[8,3]],[[624,1007],[19,-3]],[[569,929],[6,23],[2,13],[1,16],[1,3],[1,2],[5,4],[7,4],[24,11],[5,2],[3,0]],[[569,929],[-12,-21],[-5,-5],[-10,-4],[0,-1]],[[285,1001],[-8,1],[-40,14]],[[237,1016],[-5,0],[-6,-2]],[[373,980],[2,0],[1,2],[-2,1],[-1,2],[-1,2],[0,3],[-1,3],[-4,4],[-45,9],[-4,0]],[[318,1006],[-3,0],[-14,-4],[-16,-1]],[[361,980],[12,0]],[[383,883],[-4,1],[-5,5],[-5,6],[-3,3],[-1,4],[-1,2],[-2,2],[-5,5],[-1,4],[0,3],[2,4],[0,2],[-1,5],[1,3],[1,2],[0,3],[-1,3],[-1,3],[-2,5],[0,2],[1,2],[1,2],[0,3],[2,3],[1,5],[0,2],[0,2],[-1,2],[-2,3],[0,3],[0,1],[2,2],[2,0]],[[569,929],[-22,-5],[-80,0],[-38,-15],[-5,-4],[-8,-6],[-6,-5],[-7,-4],[-13,-6],[-7,-1]],[[968,1111],[3,3],[4,4],[4,2],[4,3],[14,17],[12,9],[27,16],[10,10]],[[793,1120],[25,-6],[11,-4],[1,-2],[0,-2],[0,-2],[-1,-4],[-2,-2],[-3,-3],[-2,-3],[0,-3],[1,-2],[2,-2],[2,-3],[2,-8],[1,-2],[2,-8],[0,-2],[-1,-1],[-1,-2],[-1,-1],[0,-2],[2,-1],[2,-1],[8,-4]],[[951,1115],[5,0],[4,-1],[4,-2],[4,-1]],[[841,1050],[11,2],[12,9],[23,23],[27,19],[15,7],[18,4],[4,1]],[[1141,1171],[10,5],[10,10],[4,11],[-4,9],[5,9],[5,8],[8,6],[20,3],[14,7],[16,4],[12,5],[28,19],[17,19],[-1,3],[0,2],[-1,3]],[[1141,1175],[0,-4]],[[1104,1159],[5,0],[7,1],[6,3],[13,9],[6,3]],[[1046,1175],[22,-10],[10,-3],[26,-3]],[[467,676],[9,2],[17,13],[8,9],[0,5],[-6,9],[-19,19],[-3,6],[-1,25],[1,8],[1,4],[3,7],[1,4],[1,14],[-1,1],[4,6],[12,15],[3,7],[-4,15],[-1,9],[3,3],[5,4],[1,10],[0,10],[1,7],[5,2],[20,3],[15,5]],[[411,709],[3,0],[7,-3],[29,-19],[3,-3],[2,-2],[12,-6]],[[323,579],[0,1],[8,20],[1,9],[-1,6],[-7,20],[-1,6],[-1,6],[1,7],[0,4],[2,4],[4,4],[8,5],[9,3],[17,3],[3,1],[11,8],[11,11],[7,6],[6,4],[5,2],[5,0]],[[615,855],[-32,1],[-9,3],[-7,6],[-3,6],[-22,27]],[[650,844],[-12,10],[-7,2]],[[631,856],[-3,0],[-7,-1],[-6,0]],[[1511,744],[4,1],[3,4],[4,12],[0,5],[-5,9],[0,3],[5,7],[3,4],[1,4],[3,11],[-1,5],[0,3],[5,7],[2,4],[1,4],[2,3],[5,5],[1,3],[0,4],[-2,5],[-2,3],[-1,3],[3,4],[2,3],[3,2],[3,3],[5,4],[2,4],[1,5],[-3,15],[-1,8],[1,7],[4,21],[0,6],[-7,6],[-3,6],[-2,2],[-2,0],[-3,1],[-2,0],[-3,1],[-2,3],[-2,8],[-2,3],[-3,3],[-2,4],[-2,6],[-2,4],[-2,3],[-7,3],[-3,2],[-4,6],[-4,5],[0,3],[12,13],[1,2],[1,10],[0,7],[4,9],[0,7],[2,12],[13,18],[24,80],[2,7]],[[1504,744],[7,0]],[[329,1402],[-2,1],[-2,1],[-3,5],[-3,2],[-2,1],[-26,6],[-10,2]],[[406,1389],[-53,10],[-6,4],[-2,1]],[[345,1404],[-2,0],[-10,-2],[-4,0]],[[420,1391],[-10,-1],[-4,-1]],[[226,1014],[3,-8],[-3,-14],[-1,-6],[2,-8],[-1,-6],[-19,-52],[-10,-21],[0,-6],[1,-4],[7,-8],[3,-4],[2,-9],[-2,-11],[-1,-15],[-6,-23],[-2,-5],[-1,-2],[-1,-1],[-3,-1]],[[194,810],[-6,2],[-4,1]],[[184,813],[-2,0],[-3,-1],[-2,-2],[-4,-3],[-4,-4],[-5,-7],[-2,-7],[-1,-9],[-1,-5],[-3,-3],[-8,-2],[-7,-3],[-3,-2],[-4,-3],[-4,-4],[-5,-9],[-3,-6],[-1,-6],[2,-9],[2,-9]],[[420,1391],[6,-10],[5,-2]],[[443,1381],[12,-1],[14,-1],[8,-3],[6,-6],[42,-59],[2,-4],[3,-7],[2,-15],[1,-14],[-1,-6],[4,-17],[-1,-5],[-3,-5],[-10,-7],[-5,-5],[-3,-3],[-2,-2],[-3,-2],[-16,-5],[-3,-2],[-3,-2],[-11,-9],[-53,-33],[-17,-4],[-4,-1],[-3,-1],[-3,-3],[-2,-3],[-3,-2],[-15,-11],[-3,-3],[-2,-3],[-12,-20],[-1,-2],[-3,-1],[-6,-4],[-5,-4],[-2,-3],[-3,-2],[-4,-1]],[[431,1379],[12,2]],[[335,1100],[-7,0]],[[328,1100],[-3,-1],[-14,-7],[-3,-3],[-6,-7],[-3,-3],[-3,-1],[-12,-4],[-3,-2],[-3,-2],[-5,-5],[-2,-2],[-4,-2],[-7,-8],[-8,-13],[-5,-6],[-5,-4],[-9,-1],[-5,-2],[-5,-4],[-2,-3],[0,-1],[5,-5]],[[1096,763],[14,32],[4,12],[0,4],[0,5],[-1,7],[-2,5],[-2,4],[-2,4],[-2,3],[-5,5],[-10,8],[-12,8],[-6,2],[-6,2],[-7,2],[-2,0]],[[1057,866],[-3,0],[-3,-1],[-3,-2],[-5,-6],[-4,-5],[-1,-2],[-1,-4],[-1,-3],[-1,-4],[0,-6],[2,-17],[0,-3],[-1,-3],[-2,-3],[-11,-10],[-1,-3],[-3,-5],[-2,-6],[-2,-6],[-1,-11],[-2,-8],[-1,-3],[-2,-3],[-4,-3],[-9,-4],[-5,-1]],[[857,776],[-6,1],[-90,30],[-6,3],[-6,4],[-6,5],[-12,13],[-4,3],[-5,3],[-10,6],[-6,2],[-5,1]],[[701,847],[-11,-1],[-15,-2],[-25,0]],[[991,744],[-4,1],[-2,1],[-3,2],[-5,6],[-12,17],[-3,3],[-5,4],[-3,1],[-16,5],[-31,8],[-7,0]],[[900,792],[-2,0],[-9,-3],[-16,-10],[-10,-2],[-6,-1]],[[650,844],[3,-18],[-2,-7],[-36,-71],[-3,-7],[-1,-5],[0,-5],[2,-6],[2,-2],[8,-11],[3,-6],[3,-6],[1,-6],[3,-17],[1,-43],[-1,-11],[-2,-7],[-2,-3],[-6,-5],[-3,-2],[-3,-1],[-26,-9],[-2,-1],[-4,-4],[-4,-6],[-12,-24],[-4,-5],[-3,-2],[-6,-3],[-34,-13],[-5,-3],[-24,-18],[-6,-3],[-9,-3],[-3,-1],[-3,-3],[-6,-4],[-2,-4],[-2,-3],[-15,-50]],[[1916,646]],[[1916,646],[-12,-28],[-18,-58],[-43,-88],[-12,-18],[-16,-20],[-20,-16],[-20,-7],[-10,-6],[-9,-24],[-11,-9],[8,-12],[2,-18],[-4,-19],[-6,-14],[-11,-8],[-30,-3],[-13,-5],[-9,-12],[6,-9],[9,-7],[0,-7],[-14,-17],[-4,-17],[4,-8]],[[1694,226],[11,-10],[6,-12],[-2,-13]],[[1683,216],[11,10]],[[1096,763],[3,-5],[2,-2],[3,-1],[6,-1]],[[1152,759],[4,-1],[7,-3],[4,-3],[4,-3],[19,-23],[17,-16],[3,-4],[3,-5],[1,-4],[1,-3],[0,-2],[-1,-3],[-1,-3],[-1,-2],[-9,-11],[-10,-10],[-19,-24],[-7,-11],[-1,-3],[-1,-3],[0,-3],[0,-3],[1,-2],[1,-3],[1,-3],[3,-3]],[[1110,754],[36,4],[2,1],[4,0]],[[1496,743],[8,1]],[[1484,743],[12,0]],[[1415,726],[69,17]],[[1398,736],[5,-2],[2,-4],[2,-4],[8,0]],[[1357,695],[5,1],[5,4],[3,4],[1,4],[1,4],[2,4],[3,4],[11,8],[5,4],[2,3],[3,1]],[[1350,695],[7,0]],[[1310,657],[3,0],[5,9],[4,6],[10,8],[14,14],[4,1]],[[1299,659],[7,-1],[4,-1]],[[1285,652],[3,0],[4,4],[3,2],[4,1]],[[1276,653],[5,-1],[4,0]],[[1256,630],[4,1],[2,1],[5,5],[4,7],[1,4],[1,3],[3,2]],[[1222,633],[6,0],[8,-3],[4,-1]],[[1171,605],[6,0],[8,3],[20,12],[13,12],[4,1]],[[1249,630],[7,0]],[[1240,629],[6,1],[3,0]],[[1546,732],[-9,1],[-33,11]],[[1533,642],[-2,0],[-1,0],[-1,1],[0,2],[0,1],[6,12],[1,4],[4,21],[2,7],[1,2],[8,10],[1,1],[2,1],[10,3],[2,1],[1,2],[1,3],[1,2],[0,1],[1,6],[2,6],[0,2],[-1,2],[-5,3],[-3,1],[-5,1]],[[1558,737],[-7,-3],[-1,-1],[-4,-1]],[[1533,544],[1,22],[2,11],[0,3],[-1,12],[1,5],[1,4],[5,16],[4,18],[0,2],[-1,3],[-3,2],[-2,1],[-2,1]],[[1538,644],[-4,-2],[-1,0]],[[1096,763],[-55,-66],[-15,-15],[-3,-1],[-3,0]],[[1020,681],[-3,0],[-3,1],[-2,1],[-14,7],[-4,1],[-4,1]],[[990,692],[-6,-1],[-4,-2],[-4,-3],[-6,-7],[-20,-18],[-6,-4],[-6,-2]],[[839,640],[-6,1],[-4,1],[-3,2],[-4,5],[-2,2],[-3,2],[-11,3],[-2,2],[-1,1],[-1,2],[-1,2],[-2,2],[-6,3],[-2,2],[-1,3],[0,3],[0,3],[1,3],[1,1],[-1,2],[-3,1],[-8,3]],[[780,689],[-11,-5],[-27,-5],[-6,-3],[-3,-2],[2,-6],[2,-1],[3,-1],[2,-2],[1,-7],[2,-3],[6,-4],[2,-2],[0,-4],[-3,-6],[-2,-8],[-3,-6],[-3,-9],[-23,-24],[-2,-3],[0,-4],[0,-4],[4,-12],[0,-4],[-3,-6],[-4,-7],[-13,-12],[-8,-4],[-7,-3],[-3,-2],[0,-3],[1,-3],[0,-3],[0,-3],[2,-3],[2,-3],[1,-3],[0,-5],[-2,-4],[-4,-2],[-4,-2],[-3,-2],[-3,-8],[-11,-13],[-2,-3],[-1,-4],[-3,-22],[1,-4],[2,-7],[1,-4],[-1,-3],[-5,-8],[-2,-5],[-1,-3],[-8,-15],[0,-1]],[[887,660],[-11,2]],[[876,662],[-3,-1],[-6,-6],[-2,-3],[-4,-4],[-6,-4],[-5,-2],[-11,-2]],[[938,655],[-5,0],[-6,1],[-20,6],[-11,0]],[[896,662],[-9,-2]],[[1571,409],[1,0],[1,2],[3,4],[1,2],[1,3],[1,8],[1,2],[2,2],[9,3],[2,1],[0,1],[1,1],[0,3],[-1,8],[-1,3],[0,3],[0,1],[0,4],[-3,15],[0,4],[1,3],[4,3],[-1,3],[-5,3],[-14,6],[-17,5],[-2,1],[-8,9],[-14,32]],[[1566,416],[1,-1],[1,-2],[1,-3],[1,-1],[1,0]],[[1577,274],[2,0],[2,0],[2,2],[2,1],[3,3],[1,1],[0,1],[-1,1],[-12,10],[-3,4],[-2,1],[0,1],[1,2],[1,2],[12,15],[1,1],[1,2],[0,2],[-2,3],[-6,11],[-2,2],[-4,2],[-2,2],[0,2],[0,2],[3,8],[0,2],[-1,10],[0,3],[-2,2],[-3,3],[-15,11],[-2,1],[0,2],[0,1],[3,2],[3,2],[1,0],[1,1],[0,4],[1,1],[1,0],[2,2],[0,3],[0,6],[0,3],[1,2],[2,0]],[[1571,274],[6,0]],[[1575,159],[4,17],[0,6],[1,2],[6,10],[0,2],[0,3],[-4,6],[-7,10],[-3,5],[0,4],[1,3],[2,6],[5,5],[2,0],[1,1],[0,1],[-2,3],[-2,1],[-1,2],[-3,3],[-2,3],[-2,2],[-1,1],[-1,1],[-2,0],[-1,1],[-1,1],[-1,1],[1,3],[2,9],[1,2],[1,1],[1,0],[1,0]],[[1533,544],[-153,-1],[-10,-6],[-6,-2],[-11,-4],[-5,-2],[-3,-2],[-30,-6],[-3,-1],[-3,-2],[-3,-3],[-2,-3],[-1,-2],[-1,-3],[1,-2],[0,-3],[2,-5],[1,-3],[0,-2],[0,-5],[0,-5],[-6,-19],[0,-5],[0,-11],[7,-39],[-1,-3],[-3,-5],[-23,-21],[-4,-5],[-16,-26],[-4,-5],[-3,-1]],[[1253,342],[-3,0],[-2,2],[-2,3],[-4,4],[-2,2],[-2,2],[-6,1],[-10,1]],[[1222,357],[-8,-1],[-8,-1],[-5,-3],[-3,-2],[-2,-3],[-1,-3],[-1,-3],[-1,-3],[1,-7],[-1,-3],[-1,-5],[-3,-3],[-18,-7],[-5,-3],[-2,-3],[-1,-3],[0,-3],[1,-6],[0,-2],[1,-3],[0,-5],[-1,-2],[-9,-28],[0,-3],[0,-3],[2,-7],[1,-3],[-1,-3],[-4,-7],[-1,-3],[0,-2],[1,-5],[7,-14],[0,-2],[0,-3],[-1,-2],[-24,-38],[-2,-6],[-2,-9],[-1,-3],[0,-2],[2,-6],[6,-14],[2,-5],[0,-2],[0,-5],[0,-2],[-1,-2],[-4,-9],[-2,-3],[0,-3],[0,-2],[0,-4],[1,-3],[1,-2],[5,-8],[3,-6],[5,-22],[0,-4],[0,-4],[-2,-7],[-3,-5],[-17,-16],[-3,-4],[-1,-2]],[[1709,191],[190,-107],[42,-18]],[[2002,127],[23,-1],[7,-2],[5,-2],[23,-13],[8,-7],[10,-10],[14,-21],[11,-20],[4,-12],[3,-10],[1,-6],[-1,-7],[0,-3],[-1,-3],[-1,-2],[-2,-2],[-3,-2],[-2,-1],[-11,-3]],[[1941,66],[46,57],[3,2],[5,1],[7,1]],[[1575,159],[-15,-11],[-12,-15],[-9,-18],[-2,-10],[-2,-20],[-3,-8],[-5,-6],[-7,-2],[-16,-3],[-9,-4],[-23,-17],[-6,-3],[-20,-9],[-12,-9],[-21,-20],[-6,-4]],[[3532,507],[9,-113],[9,-35],[14,-39],[15,-26],[4,-5],[5,-5],[1,-1],[10,-9],[6,-7],[3,-5],[6,-11],[2,-7],[2,-5],[3,-42],[2,-7],[3,-4],[5,-5],[4,-2],[3,-4],[4,-7],[22,-49]],[[3043,1549],[0,-8],[0,-8],[-2,-8],[-4,-7],[5,-11],[8,-33],[5,-6]],[[3079,1473],[7,-13],[15,-2],[6,-5],[0,-15],[-10,-7],[-13,-6],[-7,-10],[5,-18],[0,-7],[0,-2],[-2,-2],[-2,-2],[-1,-4],[2,-3],[10,-6],[3,-4],[-2,-20],[-12,-8],[-14,-5],[-7,-10],[-2,-8],[-5,-7],[-5,-6],[-4,-7],[-3,-1],[-4,-2],[-1,-4],[0,-5],[3,-8],[7,-37],[1,-18],[-4,-13],[-4,-7],[2,-8],[3,-8],[2,-7],[-5,-25],[-1,-8]],[[3055,1468],[16,5],[8,0]],[[3064,1056],[2,10],[-1,11],[-28,68]],[[4096,690],[-62,-43],[-22,-4]],[[3793,666],[219,-23]],[[2914,986],[-24,6],[-5,1],[-10,0]],[[2875,993],[-68,-12],[-21,-5],[-7,-1],[-77,-1],[-47,-7],[-9,-17],[-1,-5],[-3,-38]],[[3049,967],[-5,0],[-34,6],[-11,5],[-18,12],[-3,2],[-8,0]],[[2970,992],[-56,-6]],[[3014,524],[-3,97],[3,23],[9,7],[5,4],[5,2],[4,1],[3,2],[3,2],[2,2],[10,14],[1,2],[12,7],[3,1],[20,5],[6,1]],[[3049,967],[-1,15],[0,9],[3,23],[13,42]],[[3756,745],[-25,36]],[[3049,967],[11,-16],[-2,-7],[-2,-4],[-3,-5],[-3,-8],[0,-6],[1,-5],[3,-7],[3,-4],[3,-3],[3,-2],[15,-5],[4,-4],[6,-5],[9,-11],[4,-8],[3,-8],[13,-63],[-1,-4],[-1,-4],[-1,-4],[-2,-4],[-1,-9],[2,-21]],[[3751,558],[5,3],[6,8],[17,34],[7,18],[7,45]],[[3725,571],[4,-1],[3,-1],[14,-7],[5,-4]],[[3662,528],[7,2],[7,3],[42,36],[3,2],[4,0]],[[3625,531],[37,-3]],[[3532,507],[21,3],[27,7],[22,10],[13,2],[10,2]],[[3756,745],[-3,-17],[5,-26],[35,-36]],[[3220,464],[-9,3],[-10,7],[-84,102],[-15,38],[0,4],[3,6],[3,3],[4,2],[4,0],[7,3],[3,1],[2,3],[1,4],[0,5],[0,6],[-2,8],[-6,13],[-24,22]],[[3457,486],[-13,4],[-37,22],[-8,3]],[[3399,515],[-6,-3],[-54,-41],[-8,-4],[-7,-2],[-104,-1]],[[3532,507],[-18,-3],[-45,-18],[-12,0]],[[3113,750],[-23,-36],[-2,-12],[2,-3],[7,-5]],[[3873,1141],[-8,-9],[-2,-3],[-2,-6],[-5,-2],[-10,-2],[-20,-2],[-16,-3],[-132,-85],[-9,-10],[-4,-12],[-1,-13],[-1,-25],[1,-15],[5,-16],[26,-55],[2,-12],[0,-25],[6,-27],[28,-38]],[[4025,1355],[-5,-47],[1,-15],[5,-6],[2,-2],[7,-2],[6,-6],[1,-5],[0,-4],[-3,-3],[-5,-5],[-3,-4],[1,-3],[1,-3],[6,-5],[2,-3],[3,-2],[3,-2],[10,-4],[5,-3],[3,-5],[5,-9],[1,-4],[-2,-5]],[[3746,1475],[-142,-79],[-10,-9],[-8,-16],[-5,-19],[-9,-17],[-39,-58],[-35,-70],[2,-16]],[[3873,1141],[-29,14],[-18,2],[-3,1],[-14,11],[-8,4],[-33,18],[-20,7],[-4,2],[-3,3],[-2,3],[-3,10],[-6,7],[-32,8],[-14,2]],[[3684,1233],[-10,0],[-5,-1],[-7,-3],[-2,-3],[-1,-4],[0,-21],[-1,-11],[-5,-10],[-14,-4],[-15,-2]],[[3624,1174],[-20,1],[-25,4],[-10,1],[-7,2],[-5,4],[-4,6],[-6,6],[-6,6],[-7,1]],[[3534,1205],[-9,-3],[-8,-4],[-17,-7]],[[3642,1591],[9,-19],[8,-14],[1,-4],[1,-4],[3,-23],[3,-4],[7,-4],[27,-12],[20,-6],[12,-8],[13,-18]],[[3891,1540],[14,4],[13,8],[14,9],[11,4],[7,1],[22,1]],[[3825,1564],[10,-2],[56,-22]],[[3746,1475],[21,13],[3,3],[2,5],[0,3],[-2,13],[1,6],[2,8],[21,19],[23,17],[8,2]],[[3489,1565],[-17,1],[-108,32]],[[3364,1598],[-267,-16],[-21,-5],[-16,-10],[-17,-18]],[[3642,1591],[-23,1]],[[3619,1592],[-108,-26],[-22,-1]],[[3488,2547],[6,3],[8,7],[15,17],[13,18],[4,3],[8,4],[6,0],[5,1],[4,3],[4,8],[5,16],[3,8],[2,3],[7,5],[20,4]],[[3434,2608],[6,-2],[4,-2],[8,-7],[4,-6],[2,-5],[6,-16],[4,-6],[4,-6],[5,-6],[3,-2],[4,-2],[4,-1]],[[3382,2541],[6,3],[8,4],[13,11],[4,7],[1,5],[-6,14],[-1,3],[0,4],[1,4],[1,4],[2,2],[3,3],[4,1],[6,2],[10,0]],[[3307,2554],[6,-5],[3,-2],[4,-1],[62,-5]],[[3279,2579],[26,-4],[-5,-5],[-1,-7],[8,-9]],[[4025,1355],[-10,12],[-1,3],[-3,13]],[[3972,1567],[9,-27],[2,-13],[-4,-48],[1,-8],[1,-5],[3,-2],[3,-2],[4,-1],[4,-1],[7,-6],[8,-11],[14,-28],[5,-13],[2,-10],[-1,-3],[-3,-2],[-3,-2],[-7,-2]],[[4017,1383],[-6,0]],[[4061,1758],[31,5],[4,1]],[[4037,1760],[24,-2]],[[3972,1567],[12,7],[4,5],[7,11],[2,6],[1,6],[-4,11],[-2,8],[-1,9],[1,5],[3,12],[1,4],[11,14],[3,7],[2,8],[1,4],[-1,5],[0,4],[-3,8],[-3,13],[0,7],[6,35],[7,2],[11,1],[7,1]],[[4069,1208],[-2,-6],[1,-4],[-2,-3],[-2,-2],[-4,-2],[-1,-4],[1,-3],[4,-9],[3,-3],[4,-2],[3,-1]],[[4079,1170],[4,-1],[6,-2],[7,-6]],[[4074,1169],[5,1]],[[4090,1206],[6,0]],[[4069,1208],[21,-2]],[[2959,2141],[10,-20],[4,-17],[0,-30],[7,-46],[8,-14],[11,-12],[14,-9],[-9,-6],[-2,-4],[1,-4],[0,-33],[-8,-12],[5,-18],[9,-19],[9,-10],[-5,-14],[4,-10],[6,-10],[4,-12],[-1,-6],[-7,-10],[-1,-6],[0,-26],[3,-15],[13,-30]],[[3034,1748],[9,-23],[0,-15],[-5,-9],[-8,-7],[-7,-9],[-3,-6],[-1,-5],[-1,-11],[1,-8],[7,-8],[1,-5],[3,-48],[5,-26],[8,-19]],[[2942,1747],[-22,5],[-6,13],[-25,40],[-2,3],[-3,3],[-27,17],[-12,6],[-25,6],[-6,2],[-4,3],[-2,3],[-4,6],[-3,4],[-3,4],[-8,5],[-11,10],[-5,2]],[[2774,1879],[-7,-1],[-4,-2],[-2,-3],[-5,-5],[-5,-5],[-11,-9],[-5,-4],[-2,-3],[-2,-2],[-3,-5],[-6,-25],[-1,-18],[0,-5],[2,-4],[2,-3],[4,-4],[1,-2],[1,-2],[-1,-1],[-3,-5],[-2,-3],[0,-4],[0,-4],[0,-3],[1,-1],[5,-8],[0,-3],[1,-3],[1,-23],[1,-4],[0,-4],[-1,-3],[-5,-5],[-4,-2],[-2,-3],[-1,-2],[1,-4],[2,-2],[0,-3],[-1,-2],[-3,-2],[-2,-2],[-2,-3],[-3,-3],[-3,-3],[-4,-1],[-4,-1],[-3,-2],[-7,-6],[-7,-5],[-5,-1],[-6,0]],[[2436,1761],[-17,3],[-14,5],[-13,6]],[[2590,1642],[-2,1],[-2,7],[-3,4],[-4,2],[-3,3],[-3,4],[-5,4],[-12,4],[-16,2],[-7,2],[-4,4],[-1,3],[-6,9],[-3,3],[-5,5],[-2,3],[-1,4],[-2,4],[-4,2],[-3,2],[-5,5],[-3,2],[-4,1],[-4,3],[-5,1],[-2,2],[-1,3],[2,3],[1,3],[-1,3],[-4,5],[-2,4],[-1,3],[-1,3],[0,1],[-1,0],[-10,10],[-10,3]],[[2451,1769],[-5,0],[-3,-3],[-3,-4],[-4,-1]],[[3034,1748],[-92,-1]],[[2656,1654],[-3,0],[-2,4],[-2,3],[-2,3]],[[2647,1664],[-2,0],[-3,-3],[-2,-3],[-4,-2],[-8,-8],[-11,-6],[-5,-2],[-4,0]],[[2674,1656],[-6,1]],[[2668,1657],[-6,-3],[-6,0]],[[2608,1640],[-2,2],[-2,3],[-2,2],[-3,1]],[[2599,1648],[-6,-5],[-3,-1]],[[3279,2579],[-26,-16],[-18,-5],[-7,-3],[-9,-7],[-9,-3],[-29,-7],[-7,-3],[-4,-5],[-2,-4],[-2,-6],[-4,-7],[-2,-5],[0,-5],[0,-11],[4,-33],[0,-5],[-2,-4],[-2,0]],[[3030,2486],[-4,1],[-4,1],[-2,2],[-2,2],[-1,1],[-2,1],[-3,2],[-7,2]],[[3005,2498],[-5,-1],[-3,-1],[-2,-2],[-2,-2],[-1,-3],[-6,-8],[-9,-6],[-12,-10],[-10,-8],[-19,-5],[-9,-1],[-2,-1],[0,-3],[1,-3],[4,-2],[5,0],[7,-2],[0,-5],[-4,-8],[0,-10],[-2,-8],[-3,-6],[-6,-7],[11,-4],[6,-8],[3,-12],[1,-13],[1,-5],[7,-12],[1,-6],[-2,-5],[-6,-7],[-1,-6],[-2,-12],[-8,-36],[-1,-27],[-3,-15],[-7,-13],[10,0],[6,-3],[-1,-4],[-9,-3],[9,-7],[8,-14],[5,-15],[4,-28]],[[3082,2461],[-5,0],[-4,1],[-4,1],[-3,2],[-3,2],[-3,3],[-8,12],[-2,3],[-3,2],[-4,0]],[[3043,2487],[-13,-1]],[[3135,2459],[-5,0],[-4,2],[-3,2],[-4,2],[-5,1]],[[3114,2466],[-20,-4],[-12,-1]],[[3160,2450],[-3,1],[-5,5],[-4,2],[-4,1]],[[3144,2459],[-9,0]],[[3612,2643],[-14,4]],[[4096,2148],[-85,21],[-150,55],[-6,3],[-111,174],[-13,27],[-1,4],[-1,9],[-2,7],[-2,4],[-4,2],[-14,7],[-48,31],[-1,2],[-2,3],[-4,11],[-2,4],[-7,11],[-4,7],[-1,4],[-1,4],[0,4],[1,5],[1,4],[11,20],[4,6],[8,7],[2,3],[2,4],[1,4],[0,4],[-1,4],[-3,7],[-17,22],[-16,9],[-8,2],[-6,0]],[[3616,2643],[-4,0]],[[3785,46],[135,159],[33,31],[6,1],[7,2],[10,7],[4,5],[2,5],[1,14],[-1,13],[20,38],[0,6],[-3,16],[-3,27],[4,16],[20,41]],[[3804,0],[2,3],[1,3],[0,8],[-7,12],[-3,3],[-3,4],[-4,5],[-5,8]],[[3292,3303],[5,1],[8,1],[29,9],[59,33],[3,2],[2,2],[0,4],[-1,13],[0,9],[3,16],[-1,4]],[[3257,3332],[7,-14],[9,-7],[8,-5],[6,-2],[5,-1]],[[3230,3327],[27,5]],[[3220,3328],[10,-1]],[[3146,3190],[-5,1],[-4,1],[-4,4],[0,3],[1,3],[13,20],[5,6],[16,15],[2,4],[2,6],[-1,6],[2,9],[3,7],[6,10],[2,6],[1,6],[-1,4],[-5,6],[8,11],[13,7],[20,3]],[[3279,2579],[6,20],[0,5],[-1,5],[-6,11],[1,10],[8,42],[1,12],[-2,7],[-3,2],[-4,6],[-2,3],[-3,3],[-10,19],[-9,30],[-3,14],[0,9],[6,10],[1,6],[-1,6],[-3,8],[-1,5],[0,3],[2,2],[2,3],[2,3],[2,4],[1,8],[2,4],[2,3],[3,2],[4,1],[3,3],[3,5],[3,10],[0,6],[0,5],[-2,2],[-5,3],[-10,8],[-6,9],[-5,4],[-13,8],[9,36],[4,13],[2,3],[11,14],[2,6],[1,8],[2,5],[3,4],[5,4],[1,4],[-1,3],[-2,4],[-2,4],[0,7],[2,5],[4,6],[1,5],[0,5],[-2,3],[-3,2],[-7,5],[-3,4],[1,7],[3,11],[2,15],[3,7],[3,5],[3,4],[5,7],[0,4],[-1,4],[-4,6],[-2,3],[-4,18],[-2,5],[-2,4],[-3,2],[-3,2],[-3,3],[-3,4],[-6,14],[-2,4],[-3,3],[-4,2],[-4,1],[-5,0]],[[3238,3193],[-92,-3]],[[2959,2141],[-24,22],[-6,11],[-3,7],[-2,4],[-4,4],[-6,6],[-19,13],[-5,2],[-8,3],[-7,3],[-6,4],[-10,9],[-19,27],[-7,13],[-4,4],[-5,5],[-16,10],[-9,4],[-6,4],[-32,37],[-26,16],[-3,2],[-2,3],[-21,31],[-5,6],[-42,38],[-23,7],[-14,7],[-6,4],[-5,5],[-4,6],[-33,62],[-18,25],[-9,2]],[[3336,3498],[9,-9],[13,-26],[5,-8],[2,-12],[1,-6],[-2,-9],[-1,-5],[1,-4],[2,-5],[6,-6],[4,-4],[23,-7]],[[4093,2367],[3,0]],[[4058,2376],[4,-1],[6,-4],[4,-1],[13,-1],[8,-2]],[[4029,2307],[-2,0],[-1,4],[0,7],[7,26],[11,26],[3,5],[6,1],[5,0]],[[4052,2209],[-2,1],[-8,8],[-2,3],[-1,4],[0,12],[1,2],[4,1],[3,2],[1,6],[0,5],[2,14],[0,5],[-2,4],[-2,3],[-1,3],[1,3],[4,3],[8,0],[4,1],[2,3],[0,4],[-3,3],[-7,3],[-1,3],[-3,8],[-2,3],[-3,2],[-3,2]],[[4042,2320],[-4,-1],[-3,-3],[-3,-6],[-3,-3]],[[4096,2163],[-2,1],[-3,2],[-2,2],[-2,3],[0,4],[0,4],[0,5],[1,20],[-2,4],[-3,3],[-3,1],[-3,2],[-4,1],[-4,1]],[[4069,2216],[-4,-1],[-3,-2],[-6,-4],[-4,0]],[[2045,765],[5,-2],[71,-46],[7,-3],[5,0]],[[2133,714],[8,6],[6,3],[9,3],[5,1],[18,14]],[[3785,46],[-2,8],[-2,2],[-3,2],[-3,2],[-2,5],[1,5],[1,8],[-1,3],[-1,4],[-2,3],[-16,13],[-7,13],[-2,5],[-18,10],[-5,3]],[[3723,132],[-17,-1],[-42,-12]],[[2510,903],[-12,1],[-10,2],[-7,6],[-3,5],[-8,24],[-4,6],[-3,4],[-6,3],[-17,5],[-11,1],[-5,3],[-6,4],[-16,14],[-6,5],[-3,2],[-19,8]],[[2642,907],[-10,-3],[-122,-1]],[[3014,524],[10,-145],[8,-31],[3,-66],[-9,-227]],[[3026,55],[-222,-44],[-14,-2]],[[2374,996],[-16,-6],[-29,-28],[-8,-4],[-6,-1]],[[2315,957],[-4,1]],[[2311,958],[-2,-2],[-2,-4],[-3,-5],[-4,-2],[-6,-3],[-1,-2],[3,-5],[-4,-10],[-6,-12],[-1,-5],[0,-4],[1,-3],[3,0],[2,-1],[2,-2],[7,-18],[0,-5],[-3,-1],[-5,-2],[-6,-3],[-6,-6],[-9,-5],[-4,-2],[-4,-6],[-9,-6],[-1,-3],[0,-7],[-3,-15],[-3,-8],[-6,-6],[-4,-3],[-4,0]],[[2233,802],[-3,1],[-1,3],[-1,3],[-2,3]],[[2226,812],[-4,-1],[-14,-9],[-3,-4],[1,-3],[5,-10],[0,-5],[-3,-2],[-7,-1],[-3,-1],[-4,-1]],[[2194,775],[-8,1]],[[2186,776],[-2,-1],[2,-6],[0,-4],[-1,-5],[-1,-4],[1,-4],[0,-4],[-1,-4],[-5,-3]],[[943,2985],[45,-54],[44,-32]],[[1088,2903],[62,-12],[6,0],[22,-4]],[[1032,2899],[56,4]],[[1180,2887],[58,-57]],[[1178,2887],[2,0]],[[1388,2836],[89,-30]],[[1238,2830],[150,6]],[[1477,2806],[-12,-133],[-59,-36],[-12,-79]],[[943,2985],[-27,22],[-21,10],[-7,1],[-39,2]],[[849,3020],[-36,-2],[-12,-3],[-9,-3],[-3,-1],[-2,-2],[-9,-8],[-18,-23],[-16,-25],[-7,-8],[-5,-4],[-6,-3],[-13,-6],[-8,-1],[-6,0]],[[699,2931],[-93,11]],[[510,4093],[68,0],[59,3]],[[497,4096],[13,-3]],[[475,3716],[-18,17],[-3,3],[-9,17],[-3,4],[-4,3],[-18,8],[-3,3],[-7,9],[-4,3],[-4,1],[-11,1],[-4,1],[-3,2],[-6,5],[-97,30],[-9,7],[-7,6],[-5,7],[-2,7],[-2,7],[2,6],[4,7],[18,13],[10,6],[8,2],[8,2],[5,5],[5,7],[6,17],[5,20],[2,5],[4,5],[10,11],[2,2],[7,3],[4,2],[4,4],[6,7],[7,7],[6,4],[4,1],[4,5],[5,8],[11,26],[2,6],[-7,10]],[[398,4048],[1,48]],[[589,3601],[-10,11],[-4,2],[-8,5],[-33,36],[-5,4],[-5,2],[-5,2],[-16,2],[-4,0],[-3,3],[-3,2],[-2,5],[-1,5],[1,7],[-1,6],[-1,5],[-5,7],[-9,11]],[[2258,2787],[57,-2]],[[2134,2739],[35,4],[44,23],[45,21]],[[2018,2772],[37,-2],[31,-10],[48,-21]],[[1661,2464],[31,29],[31,15],[56,10],[31,15],[26,12],[1,4],[1,4],[6,12],[2,8],[3,7],[32,55],[33,24],[17,31],[24,34],[25,8],[7,30],[31,10]],[[718,3605],[-11,3],[-8,5],[-5,5],[-6,2]],[[688,3620],[-27,-7],[-6,0]],[[655,3613],[-14,0],[-21,3],[-8,2]],[[612,3618],[-2,-6],[-3,-5],[-6,-3],[-6,-1],[-6,-2]],[[772,3465],[4,0],[5,2],[5,7],[24,48],[2,7],[-1,4],[-2,3],[-2,3],[-2,5],[0,8],[2,5],[3,4],[5,5],[5,9],[1,6],[-1,4],[-2,2],[-2,4],[-1,3],[-2,20],[-3,2]],[[810,3616],[-7,-4],[1,-12],[-2,-13],[-5,-4],[-17,-13],[-5,-3],[-3,-2],[0,-5],[-1,-6],[-6,-2]],[[765,3552],[-2,3],[-6,15],[-2,5],[-16,13],[-1,6],[9,9],[-10,3]],[[737,3606],[-19,-1]],[[747,3469],[15,-4],[10,0]],[[689,3291],[3,1],[3,1],[3,2],[3,3],[2,3],[2,3],[3,2],[8,6],[16,24],[3,3],[7,4],[4,3],[4,6],[7,12],[1,6],[0,5],[-1,4],[-4,6],[-2,3],[-4,7],[-4,11],[-1,4],[-1,5],[0,8],[3,22],[0,6],[-1,5],[0,8],[1,3],[3,2]],[[681,3291],[8,0]],[[606,2942],[6,17],[2,19],[-1,10],[-5,36],[0,8],[1,5],[2,3],[2,3],[3,2],[7,4],[6,8],[3,2],[8,3],[4,3],[-1,3],[-1,2],[-2,4],[-2,3],[-1,6],[1,24],[2,7],[3,5],[5,1],[9,1],[4,1],[3,2],[10,17],[1,5],[1,5],[-1,4],[-4,7],[-3,7],[-4,6],[-1,4],[-2,13],[-1,5],[-7,16],[-1,7],[0,5],[1,3],[1,3],[4,5],[6,5],[3,5],[5,7],[1,6],[1,7],[-1,17],[2,5],[2,3],[4,0]],[[772,2397],[-9,1],[-1,2],[-7,14],[-7,6],[-11,5],[-30,8],[-6,2],[-2,2],[-2,4],[-1,4],[-66,78],[-11,3],[-27,21],[-2,3],[-1,4],[6,46],[-3,8],[-4,5],[-26,15]],[[1078,2418],[-122,28],[-31,4]],[[925,2450],[-7,-3],[-38,-22],[-6,-6],[-5,-4],[-10,-5],[-12,-4],[-58,-9],[-17,0]],[[562,2628],[-6,-28],[-9,-23],[-2,-4],[-11,-10],[-40,-27],[-16,-9]],[[1530,2426],[-66,6],[-23,59],[-12,61],[-35,6]],[[1661,2464],[-131,-38]],[[1394,2558],[-11,-23],[-8,-48],[-44,-48],[-74,-41],[-17,-6],[-20,-3],[-13,0]],[[1207,2389],[-129,29]],[[1588,1795],[-12,-21],[-17,-23],[-16,-10],[-33,-26],[-13,-30],[-54,-49],[-25,-19],[-19,-42]],[[1399,1575],[-13,4]],[[1386,1579],[-15,-2]],[[1837,1477],[-59,9],[-56,24],[-19,44],[-20,59],[-32,60],[-8,56],[-15,36],[-40,30]],[[2097,1917],[66,-17],[53,-44],[70,-65],[32,-20]],[[2054,1915],[43,2]],[[1892,2024],[46,-11],[28,-31],[9,-27],[44,-4],[24,-18],[11,-18]],[[1704,1975],[63,16],[64,28],[61,5]],[[1588,1795],[12,21],[31,22],[16,51],[35,68],[22,18]],[[2054,1915],[-5,-42],[-6,-26],[-22,-20],[-11,-36],[-24,-39],[-20,-45],[0,-46],[13,-40],[16,-40],[-16,-31],[-26,-24]],[[1661,2464],[1,-159],[11,-34],[35,-48],[24,-62],[11,-64],[-13,-49],[-15,-42],[-11,-31]],[[1078,2418],[-9,-29],[-9,-25],[-32,-13],[-27,-15],[-24,-25],[-8,-46],[34,-141]],[[606,2942],[-3,-42],[11,-33],[13,-31],[7,-60],[-9,-69],[-31,-22],[-19,-26],[-13,-31]],[[1723,3037],[33,-13],[18,-29],[28,-7],[74,-4],[31,-13],[44,-18],[35,-31],[35,-47],[6,-46],[-9,-57]],[[1477,2806],[6,52],[26,104],[39,31],[72,37],[103,7]],[[943,2985],[23,14],[53,9],[26,36],[26,17],[3,40],[26,33],[28,22],[7,73],[-20,34],[0,115],[26,59],[11,113],[35,40],[79,82],[37,55],[27,33],[37,20]],[[1367,3780],[2,31],[4,25],[16,31]],[[1023,4096],[2,-13],[7,-90],[17,-22],[29,-16],[26,-38],[33,-46],[37,-7]],[[1174,3864],[215,3]],[[2256,3191],[-45,5],[-35,16],[-57,20],[-37,39],[-22,51],[-6,38],[-35,15],[-70,14],[-73,11],[-37,37],[-4,36],[-13,44],[-26,20],[-53,11],[-31,11],[-35,40],[-6,42],[-7,77],[-142,11],[-39,18],[-64,13],[-52,20]],[[1389,3867],[21,24],[55,40],[64,22],[59,24],[68,47],[39,37],[12,35]],[[122,3924],[41,11],[81,53],[59,42],[55,11],[40,7]],[[0,3984],[41,0],[15,-18],[24,-26],[42,-16]],[[380,3672],[55,7],[22,26],[18,11]],[[268,3712],[27,-9],[26,-27],[59,-4]],[[0,3569],[2,1],[63,7],[39,35],[64,64],[52,18],[48,18]],[[0,766],[12,-6],[131,-47],[115,-63],[28,-19],[24,-26],[17,-35],[6,5],[6,3],[8,2],[10,0],[-16,-16],[-8,-17],[3,-18],[12,-20],[-8,2],[-5,3],[-4,4],[-4,6],[-5,-12],[14,-13],[94,-49],[148,-37],[23,-9],[20,-12],[11,-14],[-5,17],[-17,14],[-38,19],[0,6],[14,-1],[12,-5],[24,-15],[11,-8],[9,-10],[11,-9],[14,-3],[-3,-7],[-5,-3],[-5,1],[-7,4],[-2,-10],[8,-10],[13,-7],[27,-6],[13,-6],[39,-24],[30,-33],[51,-41],[8,-4],[11,-3],[13,-7],[12,-9],[7,-11],[1,-9],[-4,-10],[3,-7],[4,-6],[13,-7],[5,-4],[26,-30],[100,-83],[53,-51],[-1078,0],[0,766]],[[3146,664],[-4,-4],[0,-5],[5,-11],[0,-4],[-3,-2],[-30,-7],[-9,-3],[-8,-8],[14,-13],[-2,-9],[-8,-9],[-4,-11],[0,-25],[-1,-11],[-4,-8],[-22,-4],[-3,-3],[-1,-8],[1,-7],[7,-9],[-3,-14],[-9,-20],[-9,7],[-11,0],[-27,-3],[-4,-2],[-3,-4],[-3,-3],[-12,6],[-4,-3],[-2,-6],[0,-8],[-4,4],[-10,10],[-3,2],[-8,-2],[-8,-6],[-6,-2],[-11,-2],[1,29],[1,7],[4,6],[5,-5],[3,10],[-6,3],[-9,0],[-9,2],[-6,8],[-4,9],[-5,4],[-9,-6],[-6,3],[-6,5],[-3,5],[2,5],[5,8],[-4,2],[-8,-1],[-3,-1],[-11,3],[-10,9],[-9,11],[-3,12],[-14,-2],[-5,9],[-3,11],[-7,7],[-14,-2],[-16,-6],[-14,1],[-6,15],[-2,10],[-4,1],[-5,-2],[-7,1],[-3,7],[3,7],[5,8],[3,8],[-2,17],[-4,12],[-8,8],[-11,6],[0,5],[28,-6],[14,-24],[10,-28],[13,-18],[5,-2],[4,0],[5,0],[16,6],[4,3],[2,4],[6,7],[7,3],[4,-6],[1,-9],[1,-8],[1,-2],[4,-1],[7,1],[4,-3],[-2,-5],[-2,-5],[-2,-3],[8,-10],[32,-14],[7,-1],[12,4],[7,2],[4,-4],[-2,-25],[2,-8],[2,-7],[2,-3],[3,-2],[8,-2],[2,1],[4,4],[4,4],[4,1],[2,-2],[4,-7],[2,-1],[-1,-7],[4,-13],[11,-8],[19,7],[4,6],[11,29],[-1,7],[-4,11],[0,6],[1,3],[4,3],[3,3],[2,5],[1,13],[5,11],[8,7],[13,3],[1,-5],[-1,-12],[0,-12],[7,-7],[-4,-11],[-1,-12],[4,-7],[11,4],[6,11],[-1,12],[-4,12],[-1,11],[2,6],[7,7],[1,5],[-2,7],[-4,0],[-5,-2],[-4,2],[-2,0],[-6,4],[-4,4],[5,2],[11,0],[3,-1],[3,-4],[14,10],[-4,11],[-13,8],[-12,2],[-20,-11],[-6,1],[6,14],[20,12],[4,6],[-19,3],[-8,-2],[-6,-4],[-6,-2],[-9,3],[-5,4],[-3,6],[-2,8],[0,7],[12,-7],[15,-3],[12,2],[5,10],[2,9],[5,2],[7,0],[6,2],[3,1],[9,-2],[3,1],[1,3],[-1,5],[-1,3],[-4,-1],[4,6],[1,5],[3,3],[9,1],[4,3],[-4,6],[-9,9],[2,2],[0,19],[0,9],[-4,10],[-1,8],[11,-4],[4,-1],[-13,32],[-2,11],[-3,8],[-6,4],[-9,4],[-7,6],[3,9],[-18,21],[-5,13],[3,12],[12,14],[0,12],[-14,21],[-7,14],[4,13],[14,27],[9,12],[9,-1],[-1,-16],[-8,-29],[-1,-15],[2,-8],[3,-6],[3,-3],[2,-4],[0,-8],[-5,-22],[2,-19],[7,-6],[10,-3],[11,-7],[5,-13],[3,-14],[6,-7],[16,9],[5,-11],[-7,-12],[1,-12],[4,-13],[2,-16],[-1,-5],[-4,-7],[-1,-6],[4,-7],[8,-3],[8,-2],[7,-3],[4,-10],[-22,-15],[-12,-28],[1,-23],[18,1],[-4,-14],[4,-5],[8,-2],[11,-7],[3,1],[2,-1],[1,-7],[-16,-7]],[[4096,1083],[-8,4],[-7,1],[-5,-9],[-7,-8],[-11,6],[-3,5],[-1,9],[-4,4],[-7,2],[-5,-2],[-3,-3],[0,-2],[-8,7],[0,7],[18,30],[3,10],[-1,5],[-22,-15],[-6,1],[-3,8],[0,15],[-4,14],[-7,1],[-8,-1],[-7,8],[10,2],[9,3],[16,10],[-10,5],[-10,0],[-8,-1],[-7,2],[-3,6],[-2,9],[1,20],[-16,-21],[-10,-9],[-4,7],[-1,16],[-3,11],[-12,21],[17,-5],[9,-1],[4,3],[2,9],[5,2],[9,-3],[5,-1],[5,-3],[3,1],[1,11],[-2,3],[-13,13],[-5,6],[17,9],[-1,10],[-2,11],[12,10],[-9,4],[-7,-2],[-6,-5],[-4,-6],[-1,5],[-1,2],[-3,2],[21,36],[-1,4],[-9,11],[3,1],[1,0],[-1,2],[1,3],[12,-6],[6,6],[2,10],[-2,5],[-9,4],[-6,11],[-3,10],[3,4],[7,-3],[18,-11],[7,-1],[4,7],[-2,8],[-1,7],[9,4],[-3,4],[-1,4],[2,4],[4,5],[3,5],[-6,1],[-7,-1],[-2,-3],[-7,7],[-5,6],[-3,9],[1,14],[5,0],[1,-6],[4,-5],[5,-3],[6,-1],[8,3],[0,5],[-3,6],[-2,1],[-3,7],[-5,8],[-1,7],[9,3],[0,6],[-4,4],[1,3],[3,4],[0,4],[-5,9],[-3,3],[-2,-5],[-3,-2],[-7,2],[-7,7],[-2,12],[7,-5],[7,-2],[8,2],[7,5],[-18,9],[-13,17],[-2,11],[18,-3],[6,-6],[6,-9],[7,-8],[11,-2],[6,5],[-3,9],[-13,16],[5,1],[10,4],[-10,5],[-5,0],[5,13],[-3,5],[-9,4],[-10,6],[-6,8],[-1,9],[4,21],[5,0],[6,-3],[3,-1],[6,-1],[-8,-16],[0,-5],[6,3],[12,7],[5,0],[4,-17],[4,-10],[7,-8],[15,16],[-6,16],[4,15],[13,24],[0,1],[0,-96],[0,-1],[0,-22],[-3,-4],[2,-7],[1,0],[0,-128],[0,-2],[0,-49],[-6,0],[-3,-13],[-7,0],[-9,5],[-8,3],[-12,-6],[-5,-13],[2,-15],[7,-11],[-5,-4],[-4,-5],[-3,-5],[-3,-6],[3,-2],[10,-2],[2,-1],[2,0],[9,-9],[0,-1],[2,-2],[2,-4],[4,-3],[6,-2],[16,12],[0,-16],[-2,-7],[-5,-8],[-14,4],[-4,-8],[-1,-8],[2,-6],[8,-3],[-3,-3],[-1,-3],[-2,-2],[-4,-3],[6,-7],[9,-3],[11,1],[0,-53],[0,-110]],[[0,766],[12,-6],[131,-47],[115,-63],[28,-19],[24,-26],[17,-35],[6,5],[6,3],[8,2],[10,0],[-16,-16],[-8,-17],[3,-18],[12,-20],[-8,2],[-5,3],[-4,4],[-4,6],[-5,-12],[14,-13],[94,-49],[148,-37],[23,-9],[20,-12],[11,-14],[-5,17],[-17,14],[-38,19],[0,6],[14,-1],[12,-5],[24,-15],[11,-8],[9,-10],[11,-9],[14,-3],[-3,-7],[-5,-3],[-5,1],[-7,4],[-2,-10],[8,-10],[13,-7],[27,-6],[13,-6],[39,-24],[30,-33],[51,-41],[8,-4],[11,-3],[13,-7],[12,-9],[7,-11],[1,-9],[-4,-10],[3,-7],[4,-6],[13,-7],[5,-4],[26,-30],[100,-83],[53,-51]],[[4096,1083],[-8,4],[-7,1],[-5,-9],[-7,-8],[-11,6],[-3,5],[-1,9],[-4,4],[-7,2],[-5,-2],[-3,-3],[0,-2],[-8,7],[0,7],[18,30],[3,10],[-1,5],[-22,-15],[-6,1],[-3,8],[0,15],[-4,14],[-7,1],[-8,-1],[-7,8],[10,2],[9,3],[16,10],[-10,5],[-10,0],[-8,-1],[-7,2],[-3,6],[-2,9],[1,20],[-16,-21],[-10,-9],[-4,7],[-1,16],[-3,11],[-12,21],[17,-5],[9,-1],[4,3],[2,9],[5,2],[9,-3],[5,-1],[5,-3],[3,1],[1,11],[-2,3],[-13,13],[-5,6],[17,9],[-1,10],[-2,11],[12,10],[-9,4],[-7,-2],[-6,-5],[-4,-6],[-1,5],[-1,2],[-3,2],[21,36],[-1,4],[-9,11],[3,1],[1,0],[-1,2],[1,3],[12,-6],[6,6],[2,10],[-2,5],[-9,4],[-6,11],[-3,10],[3,4],[7,-3],[18,-11],[7,-1],[4,7],[-2,8],[-1,7],[9,4],[-3,4],[-1,4],[2,4],[4,5],[3,5],[-6,1],[-7,-1],[-2,-3],[-7,7],[-5,6],[-3,9],[1,14],[5,0],[1,-6],[4,-5],[5,-3],[6,-1],[8,3],[0,5],[-3,6],[-2,1],[-3,7],[-5,8],[-1,7],[9,3],[0,6],[-4,4],[1,3],[3,4],[0,4],[-5,9],[-3,3],[-2,-5],[-3,-2],[-7,2],[-7,7],[-2,12],[7,-5],[7,-2],[8,2],[7,5],[-18,9],[-13,17],[-2,11],[18,-3],[6,-6],[6,-9],[7,-8],[11,-2],[6,5],[-3,9],[-13,16],[5,1],[10,4],[-10,5],[-5,0],[5,13],[-3,5],[-9,4],[-10,6],[-6,8],[-1,9],[4,21],[5,0],[6,-3],[3,-1],[6,-1],[-8,-16],[0,-5],[6,3],[12,7],[5,0],[4,-17],[4,-10],[7,-8],[15,16],[-6,16],[4,15],[13,24],[0,1]],[[4096,1615],[0,-1]],[[4096,1592],[-3,-4],[2,-7],[1,0]],[[4096,1453],[0,-2]],[[4096,1402],[-6,0],[-3,-13],[-7,0],[-9,5],[-8,3],[-12,-6],[-5,-13],[2,-15],[7,-11],[-5,-4],[-4,-5],[-3,-5],[-3,-6],[3,-2],[10,-2],[2,-1],[2,0],[9,-9],[0,-1],[2,-2],[2,-4],[4,-3],[6,-2],[16,12]],[[4096,1302],[-2,-7],[-5,-8],[-14,4],[-4,-8],[-1,-8],[2,-6],[8,-3],[-3,-3],[-1,-3],[-2,-2],[-4,-3],[6,-7],[9,-3],[11,1]],[[4096,1193]],[[3146,664],[-4,-4],[0,-5],[5,-11],[0,-4],[-3,-2],[-30,-7],[-9,-3],[-8,-8],[14,-13],[-2,-9],[-8,-9],[-4,-11],[0,-25],[-1,-11],[-4,-8],[-22,-4],[-3,-3],[-1,-8],[1,-7],[7,-9],[-3,-14],[-9,-20],[-9,7],[-11,0],[-27,-3],[-4,-2],[-3,-4],[-3,-3],[-12,6],[-4,-3],[-2,-6],[0,-8],[-4,4],[-10,10],[-3,2],[-8,-2],[-8,-6],[-6,-2],[-11,-2],[1,29],[1,7],[4,6],[5,-5],[3,10],[-6,3],[-9,0],[-9,2],[-6,8],[-4,9],[-5,4],[-9,-6],[-6,3],[-6,5],[-3,5],[2,5],[5,8],[-4,2],[-8,-1],[-3,-1],[-11,3],[-10,9],[-9,11],[-3,12],[-14,-2],[-5,9],[-3,11],[-7,7],[-14,-2],[-16,-6],[-14,1],[-6,15],[-2,10],[-4,1],[-5,-2],[-7,1],[-3,7],[3,7],[5,8],[3,8],[-2,17],[-4,12],[-8,8],[-11,6],[0,5],[28,-6],[14,-24],[10,-28],[13,-18],[5,-2],[4,0],[5,0],[16,6],[4,3],[2,4],[6,7],[7,3],[4,-6],[1,-9],[1,-8],[1,-2],[4,-1],[7,1],[4,-3],[-2,-5],[-2,-5],[-2,-3],[8,-10],[32,-14],[7,-1],[12,4],[7,2],[4,-4],[-2,-25],[2,-8],[2,-7],[2,-3],[3,-2],[8,-2],[2,1],[4,4],[4,4],[4,1],[2,-2],[4,-7],[2,-1],[-1,-7],[4,-13],[11,-8],[19,7],[4,6],[11,29],[-1,7],[-4,11],[0,6],[1,3],[4,3],[3,3],[2,5],[1,13],[5,11],[8,7],[13,3],[1,-5],[-1,-12],[0,-12],[7,-7],[-4,-11],[-1,-12],[4,-7],[11,4],[6,11],[-1,12],[-4,12],[-1,11],[2,6],[7,7],[1,5],[-2,7],[-4,0],[-5,-2],[-4,2],[-2,0],[-6,4],[-4,4],[5,2],[11,0],[3,-1],[3,-4],[14,10],[-4,11],[-13,8],[-12,2],[-20,-11],[-6,1],[6,14],[20,12],[4,6],[-19,3],[-8,-2],[-6,-4],[-6,-2],[-9,3],[-5,4],[-3,6],[-2,8],[0,7],[12,-7],[15,-3],[12,2],[5,10],[2,9],[5,2],[7,0],[6,2],[3,1],[9,-2],[3,1],[1,3],[-1,5],[-1,3],[-4,-1],[4,6],[1,5],[3,3],[9,1],[4,3],[-4,6],[-9,9],[2,2],[0,19],[0,9],[-4,10],[-1,8],[11,-4],[4,-1],[-13,32],[-2,11],[-3,8],[-6,4],[-9,4],[-7,6],[3,9],[-18,21],[-5,13],[3,12],[12,14],[0,12],[-14,21],[-7,14],[4,13],[14,27],[9,12],[9,-1],[-1,-16],[-8,-29],[-1,-15],[2,-8],[3,-6],[3,-3],[2,-4],[0,-8],[-5,-22],[2,-19],[7,-6],[10,-3],[11,-7],[5,-13],[3,-14],[6,-7],[16,9],[5,-11],[-7,-12],[1,-12],[4,-13],[2,-16],[-1,-5],[-4,-7],[-1,-6],[4,-7],[8,-3],[8,-2],[7,-3],[4,-10],[-22,-15],[-12,-28],[1,-23],[18,1],[-4,-14],[4,-5],[8,-2],[11,-7],[3,1],[2,-1],[1,-7],[-16,-7]],[[180,4096],[20,-11],[33,9],[6,0]],[[239,4094],[-15,-12],[-30,-49],[-18,-24],[-19,-34],[-9,-24],[0,-33],[6,-21],[9,-19],[9,-12],[13,-3],[33,-3],[-27,-18],[-6,-12],[-19,-19],[-18,-9],[-33,-12],[-15,-12]],[[1860,3690],[6,6],[12,9],[33,6],[24,15],[15,16],[12,6],[9,9],[15,33],[10,15],[0,19],[6,9],[15,6],[9,12],[6,15],[18,12],[21,6],[15,9],[15,25],[21,21],[24,18],[45,15],[18,7],[-3,36],[-6,33],[36,19],[21,21],[24,8]],[[1419,3505],[6,0],[15,-6],[11,2]],[[1451,3501],[7,1],[9,12],[-3,12],[9,6],[18,3],[12,9],[6,25],[9,12],[15,12],[15,9],[21,9],[15,0],[33,-12],[21,3],[24,15],[30,9],[12,6],[18,6],[27,0],[21,9],[24,7],[12,3],[30,3],[9,6],[15,24]],[[203,3729],[9,-9],[0,-24],[9,-12],[30,-6],[15,-15],[27,-19],[6,-12],[-3,-30],[18,-37],[6,-9],[12,-24],[0,-9],[-18,-33],[-3,-19],[6,-18],[12,-18],[27,-18],[0,-25],[6,-21],[0,-36],[9,-43],[0,-21],[0,-24]],[[3473,2876],[30,3],[57,-6],[18,-3],[24,0],[12,3],[27,0],[21,-3],[24,3],[27,-9],[27,-6],[39,6],[15,6],[31,18],[27,9],[27,0],[30,3],[18,-6],[21,-15],[12,-3],[9,6]],[[2745,4096],[1,-5],[21,-30],[12,-25],[3,-30],[-3,-24],[-3,-19],[0,-18],[18,-48],[27,-28],[24,-42],[6,-16],[-3,-27],[-9,-27],[-15,-24],[-24,-25],[-12,-21],[-9,-43],[0,-18],[-3,-27],[-6,-27],[-21,-31],[-6,-21],[-6,-9],[-15,-15],[-9,-13],[-6,-36],[-6,-18],[-15,-24],[-3,-10],[9,-21],[-3,-39],[12,-37],[3,-21],[-3,-18],[-12,-31],[-3,-15],[9,-36],[-3,-22],[-9,-30],[-3,-27],[-12,-25],[-24,-27],[-3,-12],[-3,-58],[6,-18],[3,-30],[27,-46],[9,-24]],[[2683,2858],[33,6],[33,-6],[30,3],[72,30],[9,3],[12,9],[9,3],[9,-3],[10,3],[21,-6],[27,16],[48,6],[12,9],[21,3],[15,-6],[21,3],[9,6],[45,3],[18,0],[24,-12],[15,3],[60,-12],[18,0],[12,12],[6,0],[54,-22],[36,-12],[21,-12],[27,-3],[30,0],[33,-6]],[[4089,2827],[7,8]],[[4087,2827],[2,0]],[[3969,2882],[27,-9],[27,-12],[24,-18],[33,-16],[7,0]],[[842,2739],[-9,25],[-27,18],[-24,-6],[-27,6],[-21,24],[-9,6],[-39,22],[-24,24],[-9,3],[-9,0],[-15,9],[-30,9],[-33,0],[-15,-6],[-12,12],[-15,37],[-9,12],[-3,27],[-21,40],[-18,9],[-18,12],[-6,9],[9,18],[3,21],[0,13],[-9,21],[-3,18],[-6,12],[-15,12],[-12,13],[-3,27],[-3,9],[-15,9],[-9,18],[-12,12],[-3,13]],[[1419,3505],[-9,-2]],[[1410,3503],[-3,-1],[-27,0],[-9,-6],[-3,-22],[0,-27],[-15,-21],[-15,-37],[-12,-9],[0,-9],[3,-18],[0,-15],[-9,-12],[-36,-31],[-12,-12],[-18,-30],[-15,-25],[-3,-42],[-9,-18],[9,-31],[-66,0],[-15,-12],[-30,-18],[-9,-9],[-18,-49],[-15,-36],[0,-22],[-43,-42],[-15,-21],[-9,-22],[-18,-24],[-9,-12],[-18,-46],[-12,-18],[-6,-42],[-12,-9],[-9,-3],[-12,-19],[-9,-33],[-18,-18],[-21,-28],[-39,-24]],[[1419,3505],[6,-9],[2,-6]],[[1427,3490],[7,-25],[15,-42],[24,-22],[24,-21],[21,-33],[9,-24],[3,-40],[6,-27],[0,-31],[-6,-30],[0,-18],[6,-34],[21,-30],[0,-15],[6,-12],[24,-28],[3,-6],[-6,-30],[6,-18],[-3,-19],[6,-12],[6,-27],[12,-12],[3,-9],[30,-28],[6,-18],[6,-21],[-3,-18],[3,-49],[0,-46],[-6,-21],[-9,-18],[-9,-27],[9,-28],[0,-15],[-9,-15],[-6,-21],[3,-22],[9,-36],[3,-18]],[[1641,2524],[3,-9],[21,-16],[12,-12],[3,-9],[-15,-24],[-9,-30],[0,-34],[12,-33],[9,-31],[21,-3],[9,-9],[12,-24],[21,-6],[30,3],[9,-3],[27,3],[15,-6],[18,-9],[36,-3],[15,-6]],[[833,2630],[9,-42],[-3,-19],[6,-30],[-6,-33],[-6,-13],[-9,-6],[-3,-9],[3,-12],[-9,-21],[-9,-12],[-9,-6],[-15,-13],[-6,-18],[0,-24],[12,-24],[18,-16],[6,-12],[3,-18],[3,-9],[0,-27],[-3,-16],[0,-54],[-12,-25],[-3,-6]],[[800,2165],[-21,-15],[-24,-6],[-21,6],[-42,-12],[-18,-9]],[[2683,2858],[0,-18],[-3,-16],[-12,-15],[-27,-54],[-9,-28],[0,-18],[12,-39],[3,-13],[-6,-30],[6,-27],[6,-25],[9,-42],[0,-27],[15,-52],[18,-46],[6,-39],[0,-18],[24,-31],[6,-12],[9,-33],[12,-28],[9,-54],[-3,-28],[-9,-9],[-36,-18],[-24,-21],[-18,-28],[-6,-12],[-12,-12],[-15,-21],[-9,-34],[-15,-24],[-18,-21]],[[407,1834],[21,19],[3,6],[0,18],[6,27],[6,9],[18,12],[24,25],[18,6],[15,-9],[12,-9],[18,-3],[15,15],[6,3],[45,-6],[27,12],[6,6],[-9,36],[-15,22],[-3,21],[9,12],[21,18],[12,18]],[[3683,1795],[9,0],[27,12],[18,3],[36,12],[12,6],[19,6],[15,9],[9,3],[30,0],[36,16],[30,27],[15,9],[12,3],[18,-3],[36,-15],[15,0]],[[3347,1774],[27,3],[57,18],[21,15],[12,9],[12,9],[18,0],[24,-9],[12,0],[45,12],[18,3],[15,0],[24,-9],[21,-9],[30,-21]],[[3341,1725],[-18,9],[-30,12],[-12,3],[-21,-3],[-24,9],[-42,0],[-21,-15],[-9,0],[-12,6],[-18,15],[-30,16],[-27,6],[-27,3],[-15,3],[-15,18],[-15,6],[-36,9],[-9,6],[-33,31],[-15,15],[-25,27],[-33,21],[-15,0],[-15,-3],[-33,3],[-33,-9],[-36,6],[-30,-3],[-12,6],[-18,10],[-63,27],[-3,6]],[[278,1698],[51,-6],[18,3],[12,9],[9,18],[-3,21],[6,15],[12,19],[21,24],[3,33]],[[1890,2263],[-3,-13],[-18,-18],[-9,-21],[-3,-30],[-3,-13],[-6,-39],[0,-18],[12,-25],[3,-12],[-9,-18],[-3,-27],[-6,-15],[-33,-37],[-3,-12],[-3,-18],[6,-15],[18,-31],[15,-15],[3,-6],[-12,-15],[0,-9],[15,-31],[-3,-18],[-6,-30],[0,-13],[9,-15],[9,-21],[0,-21],[-18,-12],[-12,-9],[-9,-28],[3,-36],[-6,-12],[-9,-10],[-18,-9],[-18,-18]],[[4096,1882],[-7,10],[-12,9],[-6,12],[-21,-15],[-18,-12],[-12,-3]],[[139,1531],[15,-3],[22,12],[9,15],[39,64],[12,12],[15,6],[0,15],[9,15],[12,25],[6,6]],[[2107,1540],[12,-6],[1,-2]],[[1773,1573],[12,0],[18,-9],[15,0],[18,6],[27,9],[27,9],[24,16],[15,3],[12,24],[15,-15],[12,-3],[18,-13],[13,-18],[12,3],[15,-18],[24,-18],[42,0],[15,-9]],[[2120,1532],[11,-17],[9,-12],[3,-24],[-9,-18]],[[2683,1333],[6,-9],[0,-9],[-2,-3]],[[2596,1965],[-3,-12],[0,-28],[-3,-21],[-9,-18],[-3,-33],[9,-7],[15,0],[6,-6],[0,-12],[-12,-24],[-3,-30],[9,-22],[0,-15],[-3,-18],[3,-55],[3,-12],[9,-24],[3,-21],[30,-46],[-3,-27],[9,-19],[0,-12],[-9,-54],[-15,-22],[0,-9],[6,-15],[15,-27],[30,-40],[3,-3]],[[2687,1312],[-10,-12],[-3,-6]],[[139,1531],[-27,-37],[-9,-6],[-21,-9],[-6,-3],[-9,-24],[-9,-12],[-36,-64],[-15,-12],[-6,-25],[-1,-1]],[[2246,1219],[11,-7],[3,0]],[[2134,1461],[-6,-15],[-9,-10],[3,-21],[6,-21],[18,-43],[21,-42],[18,-21],[6,-16],[12,-9],[15,-18],[3,-9],[25,-17]],[[1733,1473],[-5,-24],[-12,-22],[-3,-18],[-18,-24],[-6,-21],[-7,-39]],[[1682,1325],[-2,-13],[-12,-33],[-21,-34],[-3,-15],[3,-46]],[[1767,1564],[-12,-27],[-18,-46],[-4,-18]],[[1647,1184],[9,-3]],[[2260,1212],[21,6]],[[2281,1218],[12,3],[27,0],[15,-3],[27,-25],[24,-3],[30,-12],[12,0],[24,9],[15,0],[24,16],[18,9],[15,12],[33,18],[24,3],[36,30],[15,4],[9,0],[18,6],[15,9]],[[1656,1181],[0,-6],[6,-30],[-3,-18],[3,-6]],[[1431,1017],[6,16],[9,15],[12,6],[33,9],[21,3],[15,6],[18,15],[12,6],[15,0],[9,6],[15,34],[33,42],[18,9]],[[1290,1023],[12,-9]],[[1302,1014],[36,9],[48,3],[24,0],[21,-9]],[[1662,1121],[12,-13],[21,-9],[21,-15],[12,-21],[15,-12],[3,-40],[9,-15]],[[3691,938],[4,1]],[[3500,932],[3,1]],[[3503,933],[30,5],[51,6],[33,0],[27,-3],[39,-6],[8,3]],[[3695,939],[18,5],[48,13],[12,0],[27,6],[25,3],[42,12],[36,9],[24,-3],[27,3],[18,-3],[15,3],[24,9]],[[4011,996],[12,0],[39,-30],[21,3],[13,-7]],[[3469,918],[31,14]],[[3341,872],[45,21],[60,15],[23,10]],[[3164,829],[6,0],[57,18],[33,3],[39,15],[30,4],[12,3]],[[2674,1294],[-3,-12],[-15,-28],[0,-9],[3,-24],[15,-40],[9,-48],[6,-18],[15,-28],[24,-24],[24,-43],[-6,-21],[12,-39],[6,-13],[21,-12],[12,-21],[3,-27],[12,-34],[12,-18],[24,-12]],[[3164,829],[-30,-6],[-39,-3],[-51,3],[-15,-3],[-36,3],[-24,-3],[-97,6],[-24,-3]],[[0,963],[1,0],[6,-16],[9,-12],[27,-18],[15,-6],[12,-12],[6,-15],[0,-37],[12,-18],[12,-9],[21,-3]],[[121,817],[21,-3],[27,6],[19,0],[15,-9],[27,-3],[15,-9],[21,-9]],[[656,686],[18,25],[15,6],[15,18],[24,15],[9,27],[9,10],[33,21],[24,18],[24,9],[54,15],[42,6],[15,9],[12,13],[12,6],[24,0],[18,12],[33,15],[18,3],[9,3],[19,15],[15,0],[21,6],[24,-3],[9,6],[12,16],[15,30],[6,3],[15,21],[12,3],[9,6],[12,19],[6,6],[15,3],[21,-9],[15,-16]],[[2740,680],[27,3],[15,3],[24,19],[15,24],[9,6],[18,12],[3,6],[-3,15],[-3,22],[-3,27],[6,6]],[[2065,714],[45,3],[18,-12],[15,-4],[24,16],[30,12],[30,9],[12,3],[27,-9],[18,-15],[24,0],[18,-6],[30,-6],[27,-13],[42,-9],[36,3],[18,-3],[24,9],[15,0],[54,9],[9,-3],[15,-12],[33,-3],[39,-3],[30,3],[15,-3]],[[2713,680],[27,0]],[[266,790],[3,-13],[-9,-27],[-3,-21],[9,-28],[21,-24],[9,-6]],[[1755,996],[-6,-24],[0,-12],[12,-25],[9,-9],[6,-45],[15,-19],[3,-12],[6,-45],[0,-12],[-12,-34],[-15,-15],[3,-21],[-9,-12],[-9,-34],[-15,-15],[-3,-15],[9,3]],[[3164,829],[9,-9],[6,-18],[6,-19],[15,-24],[0,-33],[12,-37],[6,-9],[12,-6],[36,-15],[60,-6],[39,-15],[30,-3]],[[545,580],[12,6],[15,24],[24,19],[12,15],[12,21],[6,6],[24,9],[6,6]],[[1962,574],[12,33],[22,22],[-6,24],[3,12],[9,9],[24,9],[15,9],[12,16],[12,6]],[[1749,650],[18,-3],[24,-6],[24,0],[15,-9],[9,-3],[18,3],[15,-3],[39,-25],[30,-3],[12,-6],[9,-21]],[[404,498],[18,13]],[[422,511],[3,2],[9,21],[9,16],[27,12],[21,15],[9,3],[45,0]],[[347,529],[12,-4],[18,-12],[27,-15]],[[296,671],[12,-3],[6,-30],[9,-40],[15,-39],[0,-28],[9,-2]],[[1131,465],[0,9],[12,12],[9,21],[15,12],[6,18],[15,28],[27,27],[15,12],[27,43],[24,30],[27,18],[27,34],[30,30]],[[406,467],[-2,10],[-9,6]],[[444,455],[-22,3]],[[422,458],[-3,1],[-12,6],[-1,2]],[[656,480],[0,-15],[-6,-3],[-33,0],[-18,6],[-21,-9],[-45,0],[-12,-4],[-15,-15],[-9,0],[-36,12],[-17,3]],[[1962,574],[9,-15],[3,-22],[-3,-24],[3,-18],[9,-9],[22,-6],[24,-25],[18,-6],[24,0],[21,-18],[21,-3],[21,6],[15,-6],[15,-12],[18,-21],[18,-6],[12,-9],[18,-22],[9,-6],[24,-9],[9,-12],[-3,-6]],[[3395,635],[21,-22],[15,-9],[6,-24],[9,-12],[0,-18],[-3,-31],[6,-30],[3,-15],[3,-12],[-6,-19],[0,-18],[-15,-24],[3,-18],[-3,-19],[-21,-15],[-3,-21],[-12,-18],[-9,-22],[-3,-27],[3,-15]],[[3865,373],[2,0]],[[3389,246],[6,-9],[18,0],[36,12],[51,9],[33,12],[30,9],[33,3],[33,3],[30,-3],[18,3],[42,13],[36,12],[49,33],[24,18],[30,12],[7,0]],[[1131,465],[-15,-16],[-33,-42],[-22,-15],[-15,-19],[-9,-15],[-21,-30],[-21,-33],[-9,-7],[-15,-18],[-30,-27],[-18,-9],[-12,-3]],[[911,231],[-18,36],[-3,18],[6,31],[-6,15],[-15,9],[-12,3],[-21,18],[-15,9],[-30,-6],[-12,0],[-33,9],[-6,13],[-27,27],[-6,12],[0,18],[-12,16],[-24,18]],[[3867,373],[12,-9]],[[3879,364],[12,-9],[30,-6],[27,-12],[27,-24],[24,-12],[9,-10],[12,-24],[6,-3],[15,-18],[12,-9],[3,-37]],[[4056,200],[9,-6],[15,-3],[16,4]],[[911,231],[51,-67],[9,-9],[12,-3],[15,3],[30,12],[9,-6],[30,-30],[12,-13],[19,-6],[48,-9],[12,-3],[18,-18],[9,-21],[3,-9],[-3,-25],[-6,-15],[1,-12]],[[3389,246],[0,-49],[6,-21],[-6,-24],[-6,-25],[-6,-6],[-6,-15],[-6,-42],[-6,-25],[3,-15],[9,-15],[9,-9]],[[2224,261],[-18,-15],[-24,-15],[-15,-22],[-18,-36],[-15,-21],[-6,-18],[-24,-37],[-30,-42],[-9,-10],[-21,-18],[-21,-9],[-16,-18]],[[4096,4096],[0,-4096],[-3018,0],[-53,51],[-100,83],[-26,30],[-5,4],[-13,7],[-4,6],[-3,7],[4,10],[-1,9],[-7,11],[-12,9],[-13,7],[-11,3],[-8,4],[-51,41],[-30,33],[-39,24],[-13,6],[-27,6],[-13,7],[-8,10],[2,10],[7,-4],[5,-1],[5,3],[3,7],[-14,3],[-11,9],[-9,10],[-11,8],[-24,15],[-12,5],[-14,1],[0,-6],[38,-19],[17,-14],[5,-17],[-11,14],[-20,12],[-23,9],[-148,37],[-94,49],[-14,13],[5,12],[4,-6],[4,-4],[5,-3],[8,-2],[-12,20],[-3,18],[8,17],[16,16],[-10,0],[-8,-2],[-6,-3],[-6,-5],[-17,35],[-24,26],[-28,19],[-115,63],[-131,47],[-12,6],[0,834],[0,2496],[3615,0],[481,0]],[[3691,936],[2,205],[58,50],[-31,53],[192,16],[-47,-134],[120,-101],[-44,-35],[-121,22],[-129,-76]],[[3128,0],[-244,0],[-16,75],[-33,5],[-57,154],[7,141],[178,-2],[39,-22],[33,18],[42,-20],[47,-101],[34,7],[22,-44],[-4,-108],[-48,-103]],[[1727,3119],[43,40],[-13,160],[86,-11],[18,83],[160,-74],[48,2],[13,-29],[62,-3],[8,-24],[18,20],[29,-36],[73,-7],[-12,-27],[25,-13],[-36,-23],[50,-72],[-38,-154],[16,-75],[-19,-67],[-69,-2],[-20,-101],[-73,-18],[-57,157],[-111,21],[-77,129],[-124,124]],[[3879,364],[-25,16],[1,25],[22,-10],[2,-31]],[[3491,880],[-33,57],[18,16],[55,-41],[-40,-8],[0,-24]],[[3902,791],[25,-1],[-17,-52],[-35,-13],[-8,27],[35,39]],[[4096,770],[0,-38],[-21,16],[21,22]],[[2271,1197],[-26,18],[3,10],[45,-10],[-22,-18]],[[53,1649],[-16,13],[7,19],[25,-8],[-16,-24]],[[2706,1297],[-19,13],[-5,28],[30,-11],[-6,-30]],[[4096,2855],[0,-33],[-20,13],[13,25],[7,-5]],[[1428,3489],[-26,20],[37,21],[13,-32],[-24,-9]],[[391,563],[57,-95],[-6,-21],[-120,65],[26,-3],[-3,59],[43,14],[3,-19]],[[1563,1447],[66,57],[77,-37],[57,12],[-12,-30],[30,-74],[-31,-43],[15,-18],[-79,-19],[-10,82],[-45,-14],[-10,25],[-24,-21],[9,35],[-43,45]],[[2846,1004],[49,107],[36,-7],[-6,-21],[27,19],[-20,-66],[42,-38],[-38,-7],[-12,-58],[-40,10],[-38,61]],[[2001,1447],[45,80],[74,16],[-3,-58],[-82,-78],[-34,40]]]}