{"objects":{"water":{"type":"GeometryCollection","geometries":[{"type":"MultiPolygon","properties":{"sort_rank":200,"source":"naturalearthdata.com","min_zoom":0.0,"kind":"playa","area":4266252568},"arcs":[[[7]]]},{"type":"Polygon","properties":{"source":"naturalearthdata.com","kind":"playa","name":"Dasht-e Kavir","area":64982413312,"sort_rank":200,"min_zoom":0.0,"id":4},"arcs":[[8]]},{"type":"LineString","properties":{"source":"naturalearthdata.com","kind":"playa","sort_rank":367,"boundary":true,"min_zoom":0.0,"id":4},"arcs":[9]},{"type":"LineString","properties":{"source":"naturalearthdata.com","kind":"playa","sort_rank":367,"boundary":true,"min_zoom":0.0,"id":41},"arcs":[10]}]},"buildings":{"type":"GeometryCollection","geometries":[]},"places":{"type":"GeometryCollection","geometries":[{"type":"Point","properties":{"name:ka":"\u10d8\u10e0\u10d0\u10dc\u10d8","name:ko":"\uc774\ub780","name:cv":"\u0418\u0441\u043b\u0430\u043c \u0420\u0435\u0441\u043f\u0443\u0431\u043b\u0438\u043a\u0438 \u0418\u0440\u0430\u043d","name:km":"\u17a2\u17ca\u17b8\u179a\u17c9\u1784\u17cb","name:kl":"Iran","name:cs":"\u00cdr\u00e1n","name:tw":"Iran","name:ki":"Uajemi","name:co":"Iranu","name:kv":"\u0418\u0440\u0430\u043d","name:ku":"\u00ceran","name:ti":"\u12a2\u122b\u1295","name:ks":"\u0627\u06cc\u0656\u0631\u0627\u0646","name:to":"\u02bbIulaani","name:tl":"Iran","name:ce":"\u0418\u0440\u0430\u043d","name:ta":"\u0b88\u0bb0\u0bbe\u0ba9\u0bcd","name:tg":"\u042d\u0440\u043e\u043d","name:ca":"Iran","name:te":"\u0c07\u0c30\u0c3e\u0c28\u0c4d","name:cy":"Iran","name:hr":"Iran","name:da":"Iran","name:de":"Iran","name:dz":"\u0f68\u0f72\u0f0b\u0f62\u0f71\u0f53","source":"openstreetmap.org","name:kn":"\u0c87\u0cb0\u0cbe\u0ca8\u0ccd","name:dv":"\u0787\u07a9\u0783\u07a7\u0782\u07b0","name:lv":"Ir\u0101na","name:lt":"Iranas","name:uz":"Eron","name:kk":"\u0418\u0440\u0430\u043d","name:lb":"Iran","name:la":"Irania","name:lg":"Yiraani","name:uk":"\u0406\u0440\u0430\u043d","name:ug":"\u0626\u0649\u0631\u0627\u0646","name:li":"Iraan","name:ln":"Ir\u00e2","name:lo":"\u0ead\u0eb5\u0ea5\u0ec8\u0eb2\u0e99","name:el":"\u0399\u03c1\u03ac\u03bd","name:eo":"Irano","name:en":"Iran","name":"\u0627\u06cc\u0631\u0627\u0646","name:tk":"E\u00fdran","name:ee":"Iran nutome","name:th":"\u0e1b\u0e23\u0e30\u0e40\u0e17\u0e28\u0e2d\u0e34\u0e2b\u0e23\u0e48\u0e32\u0e19","name:eu":"Iran","name:et":"Iraan","name:es":"Ir\u00e1n","name:ia":"Iran","name:rm":"Iran","name:rn":"Irani","name:az":"\u0130ran","name:ie":"Iran","name:id":"Iran","name:ar":"\u0625\u064a\u0631\u0627\u0646","name:io":"Iran","name:ak":"Iran","name:am":"\u12a2\u122b\u1295","name:it":"Iran","name:an":"Ir\u00e1n","name:ru":"\u0418\u0440\u0430\u043d","name:rw":"Irani","name:af":"Iran","name:zu":"i-Iran","name:za":"Iran","name:zh-yue":"\u4f0a\u6717","name:zh":"\u4f0a\u6717","name:so":"Iiraan","name:sn":"Iran","name:sl":"Iran","name:sk":"Ir\u00e1n","name:ja":"\u30a4\u30e9\u30f3","name:si":"\u0d89\u0dbb\u0dcf\u0db1\u0dba","name:sh":"Iran","name:sg":"Ir\u00e4an","name:se":"Iran","name:sc":"Iran","name:sa":"\u0908\u0930\u093e\u0928","name:bs":"Iran","name:bm":"Ira\u014b","name:bn":"\u0987\u09b0\u09be\u09a8","name:bo":"\u0f68\u0f72\u0f0b\u0f62\u0f71\u0f53\u0f0d","name:br":"Iran","name:sw":"Uajemi","name:be":"\u0406\u0440\u0430\u043d","name:su":"Iran","name:bg":"\u0418\u0440\u0430\u043d","name:ss":"I-Irani","name:ba":"\u0418\u0440\u0430\u043d","name:sq":"Irani","name:jv":"Iran","name:pt":"Ir\u00e3","name:ps":"\u0627\u064a\u0631\u0627\u0646","name:oc":"Iran","min_zoom":2.0,"name:ro":"Iran","name:zh-min-nan":"Iran","name:os":"\u0418\u0440\u0430\u043d","name:or":"\u0b07\u0b30\u0b3e\u0b28\u0b4d","name:pl":"Iran","name:sr":"\u0418\u0440\u0430\u043d","name:pa":"\u0a07\u0a30\u0a3e\u0a28","name:tr":"\u0130ran","name:hi":"\u0908\u0930\u093e\u0928","name:sv":"Iran","name:he":"\u05d0\u05d9\u05e8\u05df","name:ha":"Iran","old_name:en":"Persia","name:hy":"\u053b\u0580\u0561\u0576","name:ht":"Iran","name:hu":"Ir\u00e1n","name:qu":"Iran","population":70472846,"kind":"country","name:is":"\u00cdran","name:yi":"\u05d0\u05d9\u05e8\u05d0\u05df","name:yo":"Or\u00edl\u1eb9\u0301\u00e8de Irani","name:mt":"Iran","name:ms":"Iran","name:mr":"\u0908\u0930\u093e\u0923","name:my":"\u1021\u102e\u101b\u1014\u103a","official_name":"\u062c\u0645\u0647\u0648\u0631\u06cc \u0627\u0633\u0644\u0627\u0645\u06cc \u0627\u06cc\u0631\u0627\u0646","name:kw":"Iran","name:mg":"Iran","name:ml":"\u0d07\u0d31\u0d3e\u0d7b","name:vi":"Iran","name:mn":"\u0418\u0440\u0430\u043d","name:mi":"\u012ar\u0101na","id":424298311,"name:mk":"\u0418\u0440\u0430\u043d","name:vo":"Lir\u00e4n","name:ff":"Iraan","name:fi":"Iran","name:ky":"\u0418\u0440\u0430\u043d","name:fo":"Iran","name:fr":"Iran","name:fy":"Iran","int_name":"Iran","name:nl":"Iran","name:nn":"Iran","name:no":"Iran","name:na":"Iran","name:ne":"\u0907\u0930\u093e\u0928","name:wa":"Iran","name:wo":"Iraan","name:nv":"Iiw\u0105\u0301\u0105\u0301","name:ga":"An Iar\u00e1in","name:gd":"Ior\u00e0n","name:gn":"Ir\u00e1n","name:gl":"Ir\u00e1n","name:gv":"Yn Eeraan","name:gu":"\u0a88\u0ab0\u0abe\u0aa8","name:tt":"\u0418\u0440\u0430\u043d"},"coordinates":[3382,1719]},{"type":"Point","properties":{"name:ja":"\u30a8\u30b9\u30d5\u30a1\u30cf\u30fc\u30f3","min_zoom":4.0,"name:uk":"\u0406\u0441\u0444\u0430\u0445\u0430\u043d","name:ru":"\u0418\u0441\u0444\u0430\u0445\u0430\u043d","name:pl":"Isfahan","name:hu":"Iszfah\u00e1n","name:hr":"Isfahan","id":481002194,"kind":"region","name:en":"Isfahan","name":"\u0627\u0635\u0641\u0647\u0627\u0646","kind_detail":"state","name:ku":"\u00cesfehan","name:de":"Esfahan","source":"openstreetmap.org","name:fr":"Ispahan"},"coordinates":[2737,2165]},{"type":"Point","properties":{"name:ja":"\u30c1\u30e3\u30cf\u30fc\u30eb=\u30de\u30cf\u30fc\u30eb\u30fb\u30d0\u30d5\u30c6\u30a3\u30e4\u30fc\u30ea\u30fc","min_zoom":4.0,"name:uk":"\u0427\u0435\u0445\u0430\u0440\u043c\u0435\u0445\u0430\u043b\u044c \u0456 \u0411\u0430\u0445\u0442\u0438\u0430\u0440\u0456\u044f","name:ru":"\u0427\u0435\u0445\u0430\u0440\u043c\u0435\u0445\u0430\u043b\u044c \u0438 \u0411\u0430\u0445\u0442\u0438\u0430\u0440\u0438\u044f","name:pl":"Czahar Mahal wa Bachtijari","name:hu":"Csah\u00e1rmah\u00e1l \u00e9s Bahtij\u00e1ri","name:hr":"\u010caharmahal i Bahtijari","id":486319228,"kind":"region","name:en":"Chaharmahal and Bakhtiari","name":"\u0686\u0647\u0627\u0631\u0645\u062d\u0627\u0644 \u0648 \u0628\u062e\u062a\u06cc\u0627\u0631\u06cc","kind_detail":"state","name:ku":"\u00c7armihal \u00fb Bextiyar\u00ee","name:de":"Tschah\u0101r Mah\u0101l und Bachtiy\u0101r\u012b","source":"openstreetmap.org","name:fr":"Chahar Mahaal et Bakhtiari"},"coordinates":[88,112]},{"type":"Point","properties":{"source":"naturalearthdata.com","kind":"locality","name":"Isfahan","population":1628000,"region_capital":true,"min_zoom":5.0,"id":6997},"coordinates":[1563,1304]},{"type":"Point","properties":{"source":"naturalearthdata.com","kind":"locality","name":"Khomeini Shahr","population":437138,"min_zoom":7.0,"id":4039},"coordinates":[1231,1301]},{"type":"Point","properties":{"source":"naturalearthdata.com","kind":"locality","name":"Kashan","population":250000,"min_zoom":7.0,"id":4038},"coordinates":[1391,3528]},{"type":"Point","properties":{"source":"naturalearthdata.com","kind":"locality","name":"Qomsheh","population":118301,"min_zoom":7.0,"id":4037},"coordinates":[1798,103]}]},"transit":{"type":"GeometryCollection","geometries":[]},"pois":{"type":"GeometryCollection","geometries":[]},"boundaries":{"type":"GeometryCollection","geometries":[{"type":"LineString","properties":{"source":"naturalearthdata.com","kind":"region","name":"Esfahan - Qom","sort_rank":256,"kind_detail":"4","min_zoom":5.0,"id":7378},"arcs":[0]},{"type":"LineString","properties":{"source":"naturalearthdata.com","kind":"region","name":"Esfahan - Markazi","sort_rank":256,"kind_detail":"4","min_zoom":5.0,"id":7363},"arcs":[1]},{"type":"MultiLineString","properties":{"source":"naturalearthdata.com","kind":"region","name":"Chahar Mahall and Bakhtiari - Esfahan","sort_rank":256,"kind_detail":"4","min_zoom":5.0,"id":7364},"arcs":[[2],[3]]},{"type":"MultiLineString","properties":{"source":"naturalearthdata.com","kind":"region","name":"Yazd - Esfahan","sort_rank":256,"kind_detail":"4","min_zoom":5.0,"id":7374},"arcs":[[4],[5]]},{"type":"LineString","properties":{"source":"naturalearthdata.com","kind":"region","name":"Qom - Markazi","sort_rank":256,"kind_detail":"4","min_zoom":5.0,"id":7379},"arcs":[6]}]},"roads":{"type":"GeometryCollection","geometries":[{"type":"LineString","properties":{"source":"naturalearthdata.com","kind":"highway","kind_detail":"motorway","sort_rank":383,"landuse_kind":"urban_area","min_zoom":3.0,"id":25439},"arcs":[11]},{"type":"LineString","properties":{"source":"naturalearthdata.com","kind":"highway","sort_rank":383,"kind_detail":"motorway","min_zoom":3.0,"id":25439},"arcs":[12]},{"type":"LineString","properties":{"source":"naturalearthdata.com","kind":"highway","kind_detail":"motorway","sort_rank":383,"landuse_kind":"urban_area","min_zoom":3.0,"id":25865},"arcs":[13]},{"type":"LineString","properties":{"source":"naturalearthdata.com","kind":"highway","kind_detail":"motorway","sort_rank":383,"landuse_kind":"urban_area","min_zoom":3.0,"id":25865},"arcs":[14]},{"type":"MultiLineString","properties":{"source":"naturalearthdata.com","kind":"highway","sort_rank":383,"kind_detail":"motorway","min_zoom":3.0,"id":25865},"arcs":[[15],[16],[17]]},{"type":"LineString","properties":{"source":"naturalearthdata.com","kind":"major_road","kind_detail":"secondary","sort_rank":379,"landuse_kind":"urban_area","min_zoom":4.0,"id":25904},"arcs":[18]},{"type":"LineString","properties":{"source":"naturalearthdata.com","kind":"major_road","kind_detail":"secondary","sort_rank":379,"landuse_kind":"urban_area","min_zoom":4.0,"id":25904},"arcs":[19]},{"type":"MultiLineString","properties":{"source":"naturalearthdata.com","kind":"major_road","sort_rank":379,"kind_detail":"secondary","min_zoom":4.0,"id":25904},"arcs":[[20],[21]]},{"type":"LineString","properties":{"source":"naturalearthdata.com","kind":"highway","kind_detail":"motorway","sort_rank":383,"landuse_kind":"urban_area","min_zoom":3.0,"id":26103},"arcs":[22]},{"type":"MultiLineString","properties":{"source":"naturalearthdata.com","kind":"highway","sort_rank":383,"kind_detail":"motorway","min_zoom":3.0,"id":26103},"arcs":[[23],[24]]},{"type":"LineString","properties":{"source":"naturalearthdata.com","kind":"highway","kind_detail":"motorway","sort_rank":383,"landuse_kind":"urban_area","min_zoom":3.0,"id":26104},"arcs":[25]},{"type":"LineString","properties":{"source":"naturalearthdata.com","kind":"highway","kind_detail":"motorway","sort_rank":383,"landuse_kind":"urban_area","min_zoom":3.0,"id":26104},"arcs":[26]},{"type":"MultiLineString","properties":{"source":"naturalearthdata.com","kind":"highway","sort_rank":383,"kind_detail":"motorway","min_zoom":3.0,"id":26104},"arcs":[[27],[28]]},{"type":"LineString","properties":{"source":"naturalearthdata.com","kind":"major_road","kind_detail":"secondary","sort_rank":379,"landuse_kind":"urban_area","min_zoom":4.0,"id":26282},"arcs":[29]},{"type":"LineString","properties":{"source":"naturalearthdata.com","kind":"major_road","sort_rank":379,"kind_detail":"secondary","min_zoom":4.0,"id":26282},"arcs":[30]},{"type":"LineString","properties":{"source":"naturalearthdata.com","kind":"major_road","kind_detail":"secondary","sort_rank":379,"landuse_kind":"urban_area","min_zoom":4.0,"id":26283},"arcs":[31]},{"type":"LineString","properties":{"source":"naturalearthdata.com","kind":"major_road","kind_detail":"secondary","sort_rank":379,"landuse_kind":"urban_area","min_zoom":4.0,"id":26283},"arcs":[32]},{"type":"LineString","properties":{"source":"naturalearthdata.com","kind":"major_road","sort_rank":379,"kind_detail":"secondary","min_zoom":4.0,"id":26283},"arcs":[33]},{"type":"LineString","properties":{"source":"naturalearthdata.com","kind":"major_road","kind_detail":"secondary","sort_rank":379,"landuse_kind":"urban_area","min_zoom":3.0,"id":26401},"arcs":[34]},{"type":"MultiLineString","properties":{"source":"naturalearthdata.com","kind":"major_road","sort_rank":379,"kind_detail":"secondary","min_zoom":3.0,"id":26401},"arcs":[[35],[36]]},{"type":"MultiLineString","properties":{"source":"naturalearthdata.com","kind":"major_road","kind_detail":"secondary","sort_rank":379,"landuse_kind":"urban_area","min_zoom":3.0,"id":26457},"arcs":[[37],[38]]},{"type":"MultiLineString","properties":{"source":"naturalearthdata.com","kind":"major_road","sort_rank":379,"kind_detail":"secondary","min_zoom":3.0,"id":26457},"arcs":[[39],[40]]},{"type":"LineString","properties":{"source":"naturalearthdata.com","kind":"highway","kind_detail":"motorway","sort_rank":383,"landuse_kind":"urban_area","min_zoom":3.0,"id":26458},"arcs":[41]},{"type":"LineString","properties":{"source":"naturalearthdata.com","kind":"highway","sort_rank":383,"kind_detail":"motorway","min_zoom":3.0,"id":26458},"arcs":[42]},{"type":"MultiLineString","properties":{"source":"naturalearthdata.com","kind":"major_road","kind_detail":"secondary","sort_rank":379,"landuse_kind":"urban_area","min_zoom":4.0,"id":26482},"arcs":[[43],[44]]},{"type":"MultiLineString","properties":{"source":"naturalearthdata.com","kind":"major_road","sort_rank":379,"kind_detail":"secondary","min_zoom":4.0,"id":26482},"arcs":[[45],[46]]},{"type":"LineString","properties":{"source":"naturalearthdata.com","kind":"minor_road","kind_detail":"tertiary","sort_rank":355,"landuse_kind":"urban_area","min_zoom":7.0,"id":26650},"arcs":[47]},{"type":"MultiLineString","properties":{"source":"naturalearthdata.com","kind":"highway","kind_detail":"motorway","sort_rank":383,"landuse_kind":"urban_area","min_zoom":4.0,"id":26651},"arcs":[[48],[49],[50]]},{"type":"MultiLineString","properties":{"source":"naturalearthdata.com","kind":"highway","sort_rank":383,"kind_detail":"motorway","min_zoom":4.0,"id":26651},"arcs":[[51],[52],[53]]},{"type":"LineString","properties":{"source":"naturalearthdata.com","kind":"minor_road","kind_detail":"tertiary","sort_rank":355,"landuse_kind":"urban_area","min_zoom":7.0,"id":26757},"arcs":[54]},{"type":"LineString","properties":{"source":"naturalearthdata.com","kind":"minor_road","kind_detail":"tertiary","sort_rank":355,"landuse_kind":"urban_area","min_zoom":7.0,"id":26757},"arcs":[55]},{"type":"LineString","properties":{"source":"naturalearthdata.com","kind":"minor_road","sort_rank":355,"kind_detail":"tertiary","min_zoom":7.0,"id":26757},"arcs":[56]},{"type":"LineString","properties":{"source":"naturalearthdata.com","kind":"minor_road","kind_detail":"tertiary","sort_rank":355,"landuse_kind":"urban_area","min_zoom":7.0,"id":26867},"arcs":[57]},{"type":"LineString","properties":{"source":"naturalearthdata.com","kind":"minor_road","sort_rank":355,"kind_detail":"tertiary","min_zoom":7.0,"id":26867},"arcs":[58]},{"type":"LineString","properties":{"source":"naturalearthdata.com","kind":"highway","kind_detail":"motorway","sort_rank":383,"landuse_kind":"urban_area","min_zoom":3.0,"id":26957},"arcs":[59]},{"type":"LineString","properties":{"source":"naturalearthdata.com","kind":"highway","sort_rank":383,"kind_detail":"motorway","min_zoom":3.0,"id":26957},"arcs":[60]},{"type":"LineString","properties":{"source":"naturalearthdata.com","kind":"highway","kind_detail":"motorway","sort_rank":383,"landuse_kind":"urban_area","min_zoom":4.0,"id":26979},"arcs":[61]},{"type":"LineString","properties":{"source":"naturalearthdata.com","kind":"highway","sort_rank":383,"kind_detail":"motorway","min_zoom":4.0,"id":26979},"arcs":[62]},{"type":"LineString","properties":{"source":"naturalearthdata.com","kind":"minor_road","kind_detail":"tertiary","sort_rank":355,"landuse_kind":"urban_area","min_zoom":6.0,"id":27008},"arcs":[63]},{"type":"LineString","properties":{"source":"naturalearthdata.com","kind":"minor_road","sort_rank":355,"kind_detail":"tertiary","min_zoom":6.0,"id":27008},"arcs":[64]},{"type":"LineString","properties":{"source":"naturalearthdata.com","kind":"minor_road","kind_detail":"tertiary","sort_rank":355,"landuse_kind":"urban_area","min_zoom":7.0,"id":27055},"arcs":[65]},{"type":"LineString","properties":{"source":"naturalearthdata.com","kind":"minor_road","sort_rank":355,"kind_detail":"tertiary","min_zoom":7.0,"id":27055},"arcs":[66]},{"type":"LineString","properties":{"source":"naturalearthdata.com","kind":"minor_road","kind_detail":"tertiary","sort_rank":355,"landuse_kind":"urban_area","min_zoom":7.0,"id":27088},"arcs":[67]},{"type":"MultiLineString","properties":{"source":"naturalearthdata.com","kind":"minor_road","sort_rank":355,"kind_detail":"tertiary","min_zoom":7.0,"id":27088},"arcs":[[68],[69]]},{"type":"LineString","properties":{"source":"naturalearthdata.com","kind":"highway","sort_rank":383,"kind_detail":"motorway","min_zoom":4.0,"id":27894},"arcs":[70]},{"type":"LineString","properties":{"source":"naturalearthdata.com","kind":"highway","kind_detail":"motorway","sort_rank":383,"landuse_kind":"urban_area","min_zoom":3.0,"id":48454},"arcs":[71]},{"type":"LineString","properties":{"source":"naturalearthdata.com","kind":"highway","sort_rank":383,"kind_detail":"motorway","min_zoom":3.0,"id":48454},"arcs":[72]}]},"earth":{"type":"GeometryCollection","geometries":[{"type":"Polygon","properties":{"sort_rank":10,"source":"naturalearthdata.com","kind":"earth","min_zoom":0.0,"id":4730},"arcs":[[73]]}]},"landuse":{"type":"GeometryCollection","geometries":[{"type":"MultiPolygon","properties":{"source":"naturalearthdata.com","kind":"urban_area","name":"","area":14748182174,"sort_rank":11,"min_zoom":4.0},"arcs":[[[74]],[[75]],[[76]],[[77]],[[78]],[[79]],[[80]],[[81]],[[82]],[[83]],[[84]],[[85]],[[86]],[[87]],[[88]],[[89]],[[90]],[[91]],[[92]],[[93]],[[94]],[[95],[96]],[[97]],[[98]],[[99]],[[100]],[[101]],[[102]],[[103]]]}]}},"type":"Topology","transform":{"translate":[50.625,31.952162238],"scale":[0.0006866455,0.0005749467]},"arcs":[[[555,4096],[-33,-253],[31,-75],[41,-22]],[[594,3746],[-17,-104],[-139,-334],[-39,-68],[-83,-1],[-92,-29],[-82,-68],[-91,-56],[-51,-14]],[[1003,0],[-24,159],[-76,140],[-169,130],[-77,78],[-185,146],[-14,136],[8,126],[-32,51],[-12,50],[-22,25],[-39,10],[-14,43],[-14,79],[-57,50]],[[276,1223],[-63,-11],[-32,-36],[-60,-20],[-121,-4]],[[4096,1221],[-151,35]],[[3945,1256],[-106,-4],[-140,-55],[-88,-56],[-64,-55],[-95,-54],[-105,-31],[-57,-39],[-11,-58],[41,-535],[-13,-111],[-61,-245],[-2,-13]],[[0,3928],[108,-10],[150,-82],[336,-90]],[[3383,404],[26,-59],[8,-38],[-1,-32],[-18,-105],[-6,-10],[-28,-17],[-12,-9],[-7,4],[-58,-17],[-10,-5],[-26,3],[-46,19],[-28,2],[-25,-9],[-31,-25],[-23,-2],[-34,64],[4,72],[79,238],[15,25],[27,17],[37,8],[107,5],[25,-11],[14,-29],[11,-89]],[[4096,3430],[-21,0],[-14,-5],[-31,-16],[-15,-4],[-17,4],[-99,55],[-42,45],[-80,109],[-38,27],[-129,35],[-95,52],[-89,67],[-85,91],[-43,35],[-60,30],[-63,22],[-33,19],[-15,24],[9,37],[22,23],[31,16],[907,0],[0,-666]],[[4096,3430],[-21,0],[-14,-5],[-31,-16],[-15,-4],[-17,4],[-99,55],[-42,45],[-80,109],[-38,27],[-129,35],[-95,52],[-89,67],[-85,91],[-43,35],[-60,30],[-63,22],[-33,19],[-15,24],[9,37],[22,23],[31,16]],[[3383,404],[26,-59],[8,-38],[-1,-32],[-18,-105],[-6,-10],[-28,-17],[-12,-9],[-7,4],[-58,-17],[-10,-5],[-26,3],[-46,19],[-28,2],[-25,-9],[-31,-25],[-23,-2],[-34,64],[4,72],[79,238],[15,25],[27,17],[37,8],[107,5],[25,-11],[14,-29],[11,-89]],[[10,3662],[34,-71],[60,-86]],[[0,3684],[10,-22]],[[1867,2686],[-21,37],[-35,41]],[[1218,3502],[-21,24],[-54,43],[-78,29],[-24,29],[-30,86],[-12,19]],[[999,3732],[-6,9],[-48,86],[-6,29],[-6,65],[0,79],[-10,96]],[[1811,2764],[-7,9],[-48,57],[-24,15],[-78,71],[-48,58],[-6,57],[12,29],[0,57],[-24,86],[-18,29],[-54,36],[-84,29],[-30,21],[-49,58],[-30,14],[-66,57],[-12,22],[-27,33]],[[1954,2522],[-12,57],[-48,58],[-27,49]],[[2543,2457],[-12,58],[-18,21],[-20,18]],[[2312,2738],[-3,6],[-36,58],[-13,-11]],[[2260,2791],[-42,-32],[-120,-72],[-54,-50],[-48,-51],[-42,-64]],[[2493,2554],[-4,4],[-54,36],[-42,57],[-54,36],[-27,51]],[[1275,2054],[-17,-12]],[[1258,2042],[-1,-1],[-24,-36]],[[1954,2522],[-48,-36],[-30,0],[-24,-22],[-54,-50],[-30,-7],[-54,0],[-24,7],[-24,-7],[-54,-57],[-42,-51],[-54,-43],[-120,-93],[-109,-100],[-12,-9]],[[783,2623],[12,-15],[21,-39]],[[104,3505],[1,-2]],[[105,3503],[23,-27],[84,-115],[72,-93],[42,-72],[120,-158],[67,-86],[42,-64],[18,-36],[30,-29],[60,-57],[54,-58],[66,-85]],[[816,2569],[21,-40],[54,-86],[114,-151],[90,-122],[48,-50],[54,-50],[24,-29],[12,-36]],[[3594,1589],[78,29],[3,2]],[[3675,1620],[57,41],[114,100],[72,72],[78,79],[78,79],[22,18]],[[3594,1589],[-66,15],[-35,7]],[[2542,2447],[1,10]],[[3493,1611],[-73,14],[-108,43],[-90,50],[-127,72],[-54,36],[-48,50],[-78,72],[-42,22],[-24,21],[-48,50],[-24,22],[-48,50],[-24,14],[-48,29],[-60,65],[-30,57],[-12,29],[-18,86],[5,54]],[[2688,1335],[-49,-4],[-9,0]],[[2630,1331],[-111,0]],[[3174,1345],[-73,8],[-84,-8],[-54,-7],[-240,0],[-35,-3]],[[1666,1245],[-48,0],[-54,-7],[-30,-15]],[[1761,1245],[-64,0]],[[1697,1245],[-31,0]],[[2519,1331],[-198,-7],[-61,0],[-270,-50],[-108,-22],[-66,-7],[-55,0]],[[1534,1223],[-30,8],[-60,57],[-24,36],[-30,14],[-18,29],[-19,36],[-24,93],[-12,86],[-4,53]],[[1313,1635],[-2,26],[-6,57],[-18,94],[-18,79],[-36,114]],[[706,1326],[-25,19],[-22,20]],[[1534,1223],[-42,0],[-108,-14],[-73,-21],[-48,-15],[-114,-7],[-54,7],[-24,-7],[-60,0],[-54,14],[-51,27]],[[659,1365],[-2,2],[-48,57],[-24,22],[-78,43],[-139,93],[-54,29],[-84,29],[-78,50],[-18,21],[-54,50],[-60,36],[-20,11]],[[906,1207],[-3,2],[-36,29],[-138,72],[-23,16]],[[1047,800],[84,79],[54,43],[84,72],[24,21],[60,79],[79,79],[54,43],[48,7]],[[1526,1051],[-4,7],[-12,58],[6,29],[18,78]],[[1571,978],[-19,23],[-12,22]],[[1672,841],[-18,17],[-48,79],[-15,17]],[[1540,1023],[-14,28]],[[1591,954],[-20,24]],[[1648,800],[30,36],[-6,5]],[[602,628],[-53,-29],[-24,-21]],[[1047,800],[-54,-28],[-144,-44],[-33,-15]],[[816,713],[-27,-13],[-54,-15],[-66,-14],[-48,22],[-30,-15],[12,-50],[-1,0]],[[566,553],[-17,10],[-24,15]],[[831,312],[-12,8],[-30,-8],[-18,58],[-18,28],[-24,15],[-24,29],[-30,28],[-48,29],[-54,50],[-7,4]],[[3604,1554],[-10,35]],[[4096,1050],[-94,59],[-78,50],[-102,93],[-126,93],[-18,58],[-66,122],[-8,29]],[[1810,133],[18,57],[0,14]],[[1828,204],[0,15],[-6,65],[-42,114],[-42,58],[0,21],[-12,36],[-60,194],[-18,93]],[[1807,80],[-9,10],[12,43]],[[1810,76],[-3,4]],[[959,0],[-25,19]],[[934,19],[-19,14],[-48,14],[-30,14],[-12,29],[6,57],[18,108],[0,57],[-18,0]],[[1794,81],[-14,5]],[[1780,86],[-12,4],[-30,-7],[-54,-43],[-38,-40]],[[1810,76],[-16,5]],[[1854,0],[-44,76]],[[3594,1589],[-12,-14],[-12,-17]],[[3570,1558],[-24,-33],[-54,-50],[-54,-36],[-96,-51],[-48,-50],[-54,-7],[-66,14]],[[4096,0],[-4096,0],[0,4096],[4096,0],[0,-4096]],[[1526,0],[59,64],[27,-24],[-34,-40],[-52,0]],[[1423,5],[-2,48],[67,11],[0,-34],[-65,-25]],[[938,141],[68,-29],[5,-112],[-102,0],[58,43],[3,40],[-24,30],[-89,8],[4,20],[54,29],[23,-29]],[[1820,78],[-41,5],[33,135],[41,-36],[-33,-104]],[[3009,836],[-73,49],[-8,29],[65,19],[16,-97]],[[97,1030],[-4,45],[32,33],[117,18],[-13,-51],[-132,-45]],[[485,894],[-45,25],[-4,72],[55,-33],[-6,-64]],[[242,469],[-49,97],[82,19],[0,-85],[-33,-31]],[[1175,646],[14,-46],[72,5],[33,-116],[-178,-20],[-83,62],[-31,-4],[49,97],[124,22]],[[275,807],[32,-28],[81,19],[13,-26],[-29,-71],[78,35],[100,-93],[64,-19],[-13,-47],[-72,-50],[-61,58],[-32,-38],[-48,77],[-79,-30],[-18,107],[-49,-38],[-32,19],[16,19],[-49,78],[98,28]],[[2329,2170],[-64,52],[-17,36],[16,47],[22,0],[43,-135]],[[744,1919],[-38,-22],[-11,22],[-48,0],[0,96],[113,-38],[-16,-58]],[[1372,1945],[-90,39],[-37,89],[146,-96],[-19,-32]],[[489,2000],[-20,15],[32,80],[65,-2],[-77,-93]],[[2321,2733],[-73,36],[21,41],[64,-10],[13,-50],[-25,-17]],[[1908,2757],[49,-7],[-48,-78],[-33,20],[-97,-58],[32,39],[0,115],[33,58],[64,-89]],[[1148,3214],[97,-58],[-16,-39],[-113,19],[0,58],[32,20]],[[2119,3156],[-30,-110],[-34,-32],[-49,-13],[0,77],[-98,-38],[6,50],[43,46],[113,39],[49,-19]],[[2556,2595],[32,0],[49,-116],[-114,-39],[-49,55],[38,114],[44,-14]],[[874,2615],[1,-39],[-164,-20],[-30,87],[14,30],[29,-5],[52,-53],[65,77],[24,-10],[9,-67]],[[2767,2618],[-17,-23],[-49,19],[-38,-19],[-43,97],[130,19],[49,-39],[-32,-54]],[[1369,1644],[34,-88],[-28,-43],[19,-105],[78,-30],[79,6],[59,-36],[56,10],[0,-116],[31,2],[34,76],[29,3],[-13,-61],[32,-39],[-20,-58],[-61,-19],[4,-79],[-36,-57],[-101,53],[-45,-14],[-3,-19],[68,-19],[-16,-39],[16,-19],[65,19],[0,-77],[32,-59],[-81,39],[-87,5],[-58,53],[-81,-39],[30,-34],[51,15],[-65,-135],[29,-19],[65,38],[19,-58],[-97,-19],[33,-114],[-17,-41],[-48,39],[-16,68],[-33,29],[-129,19],[-39,36],[-155,-75],[-81,58],[-178,20],[32,154],[76,5],[21,34],[-7,23],[-57,-23],[-17,19],[24,83],[73,-5],[0,-39],[57,-36],[97,56],[-8,77],[49,0],[32,-78],[48,20],[33,-20],[64,77],[-113,20],[16,38],[-16,20],[-184,21],[-59,37],[17,77],[-33,39],[-63,-10],[-17,-29],[-82,58],[-57,-33],[-23,14],[16,58],[41,-18],[16,36],[108,27],[94,-45],[29,-62],[213,62],[-32,96],[98,131],[15,63],[81,-39],[49,77],[31,-5],[-37,-57]],[[1242,1224],[20,20],[-81,56],[-1,-20],[62,-56]],[[2670,1299],[-50,40],[-16,77],[113,-19],[-47,-98]],[[61,1387],[-61,23],[0,60],[32,24],[57,-56],[8,-41],[-36,-10]],[[3628,1550],[-150,21],[49,124],[59,25],[38,-14],[59,-100],[-11,-35],[-44,-21]],[[1673,3366],[-56,60],[81,78],[49,-39],[-74,-99]],[[0,3443],[16,2],[-16,-64],[0,62]],[[166,3662],[33,-66],[-38,-93],[-161,0],[32,78],[-32,77],[96,37],[70,-33]],[[1116,3832],[178,-39],[97,-77],[-65,-193],[15,-31],[99,-27],[-20,-53],[-37,-8],[-105,80],[-65,19],[-92,-21],[-38,41],[-64,-20],[-8,59],[-73,115],[56,55],[73,3],[33,39],[-17,77],[33,-19]]]}