{"objects":{"water":{"type":"GeometryCollection","geometries":[{"type":"MultiPolygon","properties":{"source":"naturalearthdata.com","kind":"ocean","area":1576712559132672,"sort_rank":200,"min_zoom":0.0,"id":1},"arcs":[[[9],[10]]]},{"type":"Polygon","properties":{"source":"naturalearthdata.com","kind":"lake","area":226430368,"sort_rank":200,"min_zoom":0.0,"id":681},"arcs":[[11]]},{"type":"LineString","properties":{"source":"naturalearthdata.com","kind":"ocean","sort_rank":205,"boundary":true,"min_zoom":0.0,"id":79},"arcs":[12]},{"type":"LineString","properties":{"source":"naturalearthdata.com","kind":"lake","sort_rank":367,"boundary":true,"min_zoom":0.0,"id":681},"arcs":[13]},{"type":"LineString","properties":{"source":"naturalearthdata.com","kind":"ocean","sort_rank":205,"boundary":true,"min_zoom":0.0,"id":1579},"arcs":[14]}]},"buildings":{"type":"GeometryCollection","geometries":[]},"places":{"type":"GeometryCollection","geometries":[{"type":"Point","properties":{"name:ps":"\u0628\u0646\u06ab\u0644\u0647\u200c\u062f\u06cc\u0634","name:ka":"\u10d1\u10d0\u10dc\u10d2\u10da\u10d0\u10d3\u10d4\u10e8\u10d8","alt_name:el":"\u039c\u03c0\u03b1\u03bd\u03b3\u03ba\u03bb\u03b1\u03bd\u03c4\u03ad\u03c2","name:tr":"Banglade\u015f","name:cv":"\u0411\u0430\u043d\u0433\u043b\u0430\u0434\u0435\u0448","name:km":"\u1794\u1784\u17cb\u1780\u17d2\u179b\u17b6\u178a\u17c1\u179f\u17d2\u17a0","name:cs":"Banglad\u00e9\u0161","name:ki":"Bangladeshi","name:kv":"\u0411\u0430\u043d\u0433\u043b\u0430\u0434\u0435\u0448","name:ku":"Banglade\u015f","name:ti":"\u1263\u1295\u130d\u120b\u12f2\u123d","name:ks":"\u0628\u064e\u0646\u065b\u06af\u0644\u0627\u062f\u06cc\u0634","name:to":"Pengil\u0101tesi","name:pa":"\u0a2c\u0a70\u0a17\u0a32\u0a3e\u0a26\u0a47\u0a38\u0a3c","name:os":"\u0411\u0430\u043d\u0433\u043b\u0430\u0434\u0435\u0448","name:or":"\u0b2c\u0b3e\u0b19\u0b4d\u0b17\u0b32\u0b3e\u0b26\u0b47\u0b36\u0b4d","name:ce":"\u0411\u0430\u043d\u0433\u043b\u0430\u0434\u0435\u0448","name:ta":"\u0baa\u0b99\u0bcd\u0b95\u0bb3\u0bbe\u0ba4\u0bc7\u0bb7\u0bcd","name:tg":"\u0411\u0430\u043d\u0433\u043b\u0430\u0434\u0435\u0448","name:ca":"Bangla Desh","name:te":"\u0c2c\u0c3e\u0c02\u0c17\u0c4d\u0c32\u0c3e\u0c26\u0c47\u0c37\u0c4d","name:hu":"Banglades","source":"openstreetmap.org","name:hr":"Banglade\u0161","name:ln":"Bengalid\u025bsi","name:de":"Bangladesch","name:dz":"\u0f56\u0f44\u0f92\u0f0b\u0f63\u0f0b\u0f51\u0f7a\u0f64","name:ko":"\ubc29\uae00\ub77c\ub370\uc2dc","name:nv":"Bangla Bik\u00e9yah","name:kn":"\u0cac\u0cbe\u0c82\u0c97\u0ccd\u0cb2\u0cbe\u0ca6\u0cc7\u0cb6\u0ccd","name:dv":"\u0784\u07a6\u0782\u07b0\u078e\u07a7\u0785\u07aa","name:lv":"Banglade\u0161a","name:lt":"Banglade\u0161as","name:hi":"\u092c\u093e\u0902\u0917\u094d\u0932\u093e\u0926\u0947\u0936","name:kk":"\u0411\u0430\u043d\u0433\u043b\u0430\u0434\u0435\u0448","name:he":"\u05d1\u05e0\u05d2\u05dc\u05d3\u05e9","min_zoom":2.0,"kind":"country","name:ur":"\u0628\u0646\u06af\u0644\u06c1 \u062f\u06cc\u0634","name:lb":"Bangladesch","name:la":"Bangladesha","name:lg":"Bangaladesi","name:uk":"\u0411\u0430\u043d\u0433\u043b\u0430\u0434\u0435\u0448","name:hy":"\u0532\u0561\u0576\u0563\u056c\u0561\u0564\u0565\u0577","name:ug":"\u0628\u0627\u0646\u06af\u0644\u0627\u062f\u06d0\u0634","name:li":"Bangladesj","name:qu":"Banladish","name:lo":"\u0e9a\u0eb1\u0e87\u0e81\u0eb0\u0ea5\u0eb2\u0ec0\u0e97\u0e94","name:oc":"Banglad\u00e8sh","population":162221000,"name:el":"\u039c\u03c0\u03b1\u03b3\u03ba\u03bb\u03b1\u03bd\u03c4\u03ad\u03c2","name:eo":"Banglade\u015do","name":"Bangladesh","name:is":"Bangladess","name:tk":"Banglade\u015f","name:ee":"Bangladesh nutome","name:th":"\u0e1b\u0e23\u0e30\u0e40\u0e17\u0e28\u0e1a\u0e31\u0e07\u0e01\u0e25\u0e32\u0e40\u0e17\u0e28","name:yi":"\u05d1\u05d0\u05e0\u05d2\u05dc\u05d0\u05d3\u05e2\u05e9","name:es":"Banglad\u00e9s","name:rm":"Bangladesch","name:rn":"Bangaladeshi","name:az":"Banqlade\u015f","name:mr":"\u092c\u093e\u0902\u0917\u094d\u0932\u093e\u0926\u0947\u0936","name:as":"\u09ac\u09be\u0982\u09b2\u09be\u09a6\u09c7\u09b6","name:ar":"\u0628\u0646\u063a\u0644\u0627\u062f\u064a\u0634","name:my":"\u1018\u1004\u103a\u1039\u1002\u101c\u102c\u1038\u1012\u1031\u1037\u101b\u103e\u103a","name:ak":"Banglad\u025bhye","name:am":"\u1263\u1295\u130d\u120b\u12f2\u123d","name:fo":"Bangladesj","name:ml":"\u0d2c\u0d02\u0d17\u0d4d\u0d32\u0d3e\u0d26\u0d47\u0d36\u0d4d","name:ru":"\u0411\u0430\u043d\u0433\u043b\u0430\u0434\u0435\u0448","name:rw":"Bangaladeshi","name:pl":"Bangladesz","name:mk":"\u0411\u0430\u043d\u0433\u043b\u0430\u0434\u0435\u0448","name:af":"Bangladesj","name:zu":"i-Bangladesh","name:ha":"Bangiladas","name:mn":"\u0411\u0430\u043d\u0433\u043b\u0430\u0434\u0435\u0448","name:ff":"Banglaadees","name:mg":"Bangladesy","id":432424937,"name:mt":"Bangladexx","name:wo":"Banglaades","name:ky":"\u0411\u0430\u04a3\u0433\u043b\u0430\u0434\u0435\u0448","name:zh-yue":"\u5b5f\u52a0\u62c9\u570b","name:fy":"Banglades","name:pi":"\u092c\u0902\u0917\u0932\u093e\u0926\u0947\u0936","name:zh":"\u5b5f\u52a0\u62c9\u56fd","name:gv":"Yn Vangladesh","name:so":"Bangaaladheesh","name:sn":"Bangladeshi","name:sr":"\u0411\u0430\u043d\u0433\u043b\u0430\u0434\u0435\u0448","name:sl":"Banglade\u0161","name:sk":"Banglad\u00e9\u0161","name:ja":"\u30d0\u30f3\u30b0\u30e9\u30c7\u30b7\u30e5","name:si":"\u0db6\u0d82\u0d9c\u0dbd\u0dd2\u0daf\u0dda\u0dc1\u0dba","name:sh":"Banglade\u0161","name:sg":"Benglad\u00eashi","name:na":"Bangradet","name:sd":"\u0628\u0646\u06af\u0644\u0627\u062f\u064a\u0634","name:ne":"\u092c\u0919\u094d\u0917\u0932\u093e\u0926\u0947\u0936","name:sa":"\u092c\u0902\u0917\u0932\u093e\u0926\u0947\u0936\u0903","name:bs":"Banglade\u0161","name:bm":"B\u025bngilad\u025bsi","name:bn":"\u09ac\u09be\u0982\u09b2\u09be\u09a6\u09c7\u09b6","name:bo":"\u0f56\u0f44\u0f92\u0f0b\u0f63\u0f0b\u0f51\u0f7a\u0f64\u0f0d","name:vo":"Bangladej\u00e4n","name:sw":"Bangladeshi","name:be":"\u0411\u0430\u043d\u0433\u043b\u0430\u0434\u044d\u0448","name:su":"Banglad\u00e9s","name:bg":"\u0411\u0430\u043d\u0433\u043b\u0430\u0434\u0435\u0448","name:ss":"IBhangladeshi","name:ba":"\u0411\u0430\u043d\u0433\u043b\u0430\u0434\u0435\u0448","name:sq":"Bangladeshi","name:ga":"An Bhanglad\u00e9is","name:gd":"Bangladais","name:ht":"Banglad\u00e8ch","name:gn":"Vangylad\u1ebd","name:fa":"\u0628\u0646\u06af\u0644\u0627\u062f\u0634","name:yo":"Or\u00edl\u1eb9\u0301\u00e8de B\u00e1ng\u00e1l\u00e1d\u00e9s\u00ec","name:gu":"\u0aac\u0abe\u0a82\u0a97\u0acd\u0ab2\u0abe\u0aa6\u0ac7\u0ab6","name:tt":"\u0411\u0430\u043d\u0433\u043b\u0430\u0434\u0435\u0448"},"coordinates":[854,3936]},{"type":"Point","properties":{"admin_level":"4","kind":"region","name:en":"Dhaka Division","name":"\u09a2\u09be\u0995\u09be \u09ac\u09bf\u09ad\u09be\u0997","kind_detail":"state","name:de":"Division Dhaka","source":"openstreetmap.org","min_zoom":4.0,"id":4353277097,"name:ja":"\u30c0\u30c3\u30ab"},"coordinates":[630,3281]},{"type":"Point","properties":{"name:pt":"Daca","name:ka":"\u10d3\u10d0\u10d9\u10d0","name:ko":"\ub2e4\uce74","name:kn":"\u0ca2\u0cbe\u0c95\u0cbe","name:hy":"\u0534\u0561\u0584\u0584\u0561","name:cs":"Dh\u00e1ka","name:tk":"Dakka","min_zoom":8.0,"name:ro":"Dacca","name:be":"\u0414\u0430\u043a\u0430","name:os":"\u0414\u0430\u043a\u043a\u00e6","name:ce":"\u0414\u0430\u043a\u043a\u0430","name:ta":"\u0b9f\u0bbe\u0b95\u0bcd\u0b95\u0bbe","name:tg":"\u0414\u0430\u043a\u043a\u0430","name:te":"\u0c22\u0c3e\u0c15\u0c3e","name:de":"Dhaka","source":"openstreetmap.org","name:dv":"\u0791\u07a7\u0786\u07a7","name:ba":"\u0414\u0430\u043a\u043a\u0430","name:lv":"Daka","name:lt":"Daka","name:hi":"\u0922\u093e\u0915\u093e","name:kk":"\u0414\u0430\u043a\u043a\u0430","name:he":"\u05d3\u05d0\u05e7\u05d4","kind":"locality","name:ur":"\u0688\u06be\u0627\u06a9\u06c1","name:la":"Dacca","old_name:eo":"Dakko;Jahangir Nagar","old_name:en":"Jahangirnagar","name:uk":"\u0414\u0430\u043a\u043a\u0430","old_name":"\u099c\u09be\u09b9\u09be\u0999\u09cd\u0997\u09c0\u09b0\u09a8\u0997\u09b0","country_capital":true,"name:ug":"\u062f\u0627\u0643\u0643\u0627","name:hu":"Dakka","population":7000940,"name:el":"\u039d\u03c4\u03ac\u03ba\u03b1","name:eo":"Dako","name:en":"Dhaka","name":"\u09a2\u09be\u0995\u09be","name:ku":"Daka","name:th":"\u0e18\u0e32\u0e01\u0e32","name:eu":"Dhaka","name:es":"Dacca","name:ia":"Dhaka","name:az":"D\u0259kk\u0259","name:mr":"\u0922\u093e\u0915\u093e","name:ar":"\u062f\u0643\u0627","name:my":"\u1012\u102b\u1000\u102c\u1019\u103c\u102d\u102f\u1037","name:io":"Dhaka","name:is":"Daka","name:am":"\u12f3\u12ab","name:it":"Dacca","name:ru":"\u0414\u0430\u043a\u043a\u0430","name:ml":"\u0d22\u0d3e\u0d15\u0d4d\u0d15","name:mn":"\u0414\u0430\u043a\u0430","id":3442474911,"name:mk":"\u0414\u0430\u043a\u0430","name:fa":"\u062f\u0627\u06a9\u0627","kind_detail":"city","name:fr":"Dacca","name:zh-yue":"\u9054\u5361","name:fy":"Daka","name:zh":"\u9054\u5361","name:sl":"Daka","name:sk":"Dh\u00e1ka","name:ja":"\u30c0\u30c3\u30ab","name:yi":"\u05d3\u05d0\u05e7\u05d0","name:bo":"\u0f51\u0fb7\u0f0b\u0f41\u0f0d","name:sv":"Dhaka","name:bg":"\u0414\u0430\u043a\u0430","name:sr":"\u0414\u0430\u043a\u0430","name:ht":"Daka","name:gl":"Dacca - \u09a2\u09be\u0995\u09be","name:pl":"Dhaka","name:tr":"Dakka","name:gu":"\u0aa2\u0abe\u0a95\u0abe"},"coordinates":[1103,1650]},{"type":"Point","properties":{"kind":"locality","name:en":"Comilla","name":"\u0995\u09c1\u09ae\u09bf\u09b2\u09cd\u09b2\u09be","kind_detail":"city","source":"openstreetmap.org","min_zoom":8.0,"name:kn":"\u0c95\u0cca\u0cae\u0cbf\u0cb2\u0ccd\u0cb2","name:ru":"\u041a\u043e\u043c\u0438\u043b\u043b\u0430","population":5304000,"id":268417180,"name:ja":"\u30af\u30df\u30c3\u30e9"},"coordinates":[3441,698]},{"type":"Point","properties":{"kind":"locality","name":"Agartala","kind_detail":"city","source":"openstreetmap.org","min_zoom":8.0,"name:kn":"\u0c85\u0c97\u0cb0\u0ca4\u0cbe\u0cb3","population":400000,"name:ta":"\u0b85\u0b95\u0bb0\u0bcd\u0ba4\u0bb2\u0bbe","id":245717374,"name:ja":"\u30a2\u30ac\u30eb\u30bf\u30e9"},"coordinates":[3735,1879]},{"type":"Point","properties":{"kind":"locality","name:en":"Homna","name":"\u09b9\u09cb\u09ae\u09a8\u09be","kind_detail":"town","source":"openstreetmap.org","min_zoom":8.0,"id":2481947625,"population":191449},"coordinates":[2275,1442]},{"type":"Point","properties":{"kind":"locality","name:en":"Dhamrai","name":"\u09a7\u09be\u09ae\u09b0\u09be\u0987","kind_detail":"city","source":"openstreetmap.org","min_zoom":8.0,"name:kn":"\u0ca7\u0cae\u0ccd\u0cb0\u0cc8","population":42000,"id":616139829,"name:ja":"\u30c0\u30e0\u30e9\u30a4"},"coordinates":[614,2162]},{"type":"Point","properties":{"source":"openstreetmap.org","kind":"locality","name":"Melaghar","kind_detail":"town","population":5000,"min_zoom":8.0,"id":245714005},"coordinates":[3876,799]}]},"transit":{"type":"GeometryCollection","geometries":[]},"pois":{"type":"GeometryCollection","geometries":[]},"boundaries":{"type":"GeometryCollection","geometries":[{"type":"MultiLineString","properties":{"name:right:yo":"Banglad\u1eb9\u0301sh\u00ec","old_name:right:ro":"Pakistanul de Est","old_name:right:el":"\u0391\u03bd\u03b1\u03c4\u03bf\u03bb\u03b9\u03ba\u03cc \u03a0\u03b1\u03ba\u03b9\u03c3\u03c4\u03ac\u03bd","old_name:right:eo":"Orientpakistano","name:right:qu":"Banladish","old_name:right:es":"Pakist\u00e1n Oriental","name:right:yi":"\u05d1\u05d0\u05e0\u05d2\u05dc\u05d0\u05d3\u05e2\u05e9","old_name:right:bs":"Isto\u010dni Pakistan","old_name:right:bn":"\u09aa\u09c2\u09b0\u09cd\u09ac \u09aa\u09be\u0995\u09bf\u09b8\u09cd\u09a4\u09be\u09a8","alt_name:right:pt":"Bangladexe","name:left:vi":"\u1ea4n \u0110\u1ed9","name:left:sw":"Uhindi","name:left:sv":"Indien","name:left:ka":"\u10d8\u10dc\u10d3\u10dd\u10d4\u10d7\u10d8","name:left:km":"\u17a5\u178e\u17d2\u178c\u17b6","name:left:ko":"\uc778\ub3c4","name:right:it":"Bangladesh","name:left:rn":"Ubuhindi","name:right:rw":"Bangaladeshi","name:left:kk":"\u04ae\u043d\u0434\u0456\u0441\u0442\u0430\u043d","name:right:ru":"\u0411\u0430\u043d\u0433\u043b\u0430\u0434\u0435\u0301\u0448","name:left:ku":"Hindistan","name:left:kw":"Eynda","name:left:kv":"\u0418\u043d\u0434\u0438\u044f","name:right:rn":"Bangaladeshi","name:left:rw":"Ubuhinde","name:left:ks":"\u0628\u064b\u0627\u0631\u062a","name:left:ru":"\u0418\u043d\u0434\u0438\u044f","name:right:ie":"Bangladesh","name:right:id":"Bangladesh","name:left:ky":"\u0418\u043d\u0434\u0438\u044f","name:right:ia":"Bangladesh","name:right:bi":"Bangladesh","name:right:bo":"\u0f56\u0fb7\u0f44\u0f0b\u0f63\u0f0b\u0f62\u0fa1\u0f7a\u0f0b\u0f64\u0f74\u0f0d","name:right:bm":"B\u025bngilad\u025bsi","name:right:ba":"\u0411\u0430\u043d\u0433\u043b\u0430\u0434\u0435\u0301\u0448","name:right:bg":"\u0411\u0430\u043d\u0433\u043b\u0430\u0434\u0435\u0448","name:right:be":"\u0411\u0430\u043d\u0433\u043b\u0430\u0434\u044d\u0301\u0448","name:right:br":"Bangladesh","name:right:bs":"Banglade\u0161","name:right:nn":"Bangladesh","name:right:no":"Bangladesh","name:right:nl":"Bangladesh","old_name:right:gl":"Paquist\u00e1n Oriental","name:right:wo":"Banglaades","name:right:ne":"\u092c\u0902\u0917\u0932\u093e\u0926\u0947\u0936","old_name:right:ga":"Bhain Oirthear na Pacast\u00e1ine","name:right:na":"Bangradet","name:right:gv":"yn Vangladesh","name:right:ha":"Bangladash","name:right:nv":"Bik\u00e9yah","kind_detail":"2","name:left:ig":"Ndia","name:left:tr":"Hindistan","name:right:gu":"\u0aac\u0abe\u0a82\u0a97\u0acd\u0ab2\u0abe\u0aa6\u0ac7\u0ab6","name:left:ty":"\u2019In\u012btia","name:right:ps":"\u0628\u0646\u06ab\u0644\u0647 \u062f\u06d0\u0634","name:right:pt":"Bangladeche","old_name:right:lt":"Ryt\u0173 Pakistanu","name:left:mk":"\u0418\u043d\u0434\u0438\u0458\u0430","name:left:mi":"\u012ania","name:left:tt":"\u04ba\u0438\u043d\u0434\u0441\u0442\u0430\u043d","name:left:mn":"\u042d\u043d\u044d\u0442\u0445\u044d\u0433","name:left:ml":"\u0d07\u0d28\u0d4d\u0d24\u0d4d\u0d2f","name:left:th":"\u0e1b\u0e23\u0e30\u0e40\u0e17\u0e28\u0e2d\u0e34\u0e19\u0e40\u0e14\u0e35\u0e22","name:right:pa":"\u0a2c\u0a70\u0a17\u0a32\u0a3e\u0a26\u0a47\u0a38\u0a3c","name:left:tk":"Hindistan","name:left:tl":"Indiya","name:left:mt":"Indja","name:left:ta":"\u0b87\u0ba8\u0bcd\u0ba4\u0bbf\u0baf\u0bbe","name:left:my":"\u1021\u102d\u1014\u1039\u1012\u102d\u101a\u1014\u102d\u102f\u1004\u103a\u1004\u1036","name:right:gn":"Vangylad\u1ebd","name:right:pl":"Bangladesz","name:left:te":"\u0c2d\u0c3e\u0c30\u0c24 \u0c26\u0c47\u0c36\u0c02","name:left:tg":"\u04b2\u0438\u043d\u0434\u0443\u0441\u0442\u043e\u043d","name:left:mr":"\u092d\u093e\u0930\u0924","name:left:da":"Indien","name:left:pi":"\u092d\u093e\u0930\u0924","name:left:de":"Indien","name:left:dz":"\u0f62\u0f92\u0fb1\u0f0b\u0f42\u0f62","name:right:ga":"an Bhanglaid\u00e9is","name:left:dv":"\u0787\u07a8\u0782\u07b0\u0791\u07a8\u0794\u07a7","name:right:lg":"Bangaladesi","name:right:ug":"\u0628\u0627\u0646\u06af\u0644\u0627\u062f\u06d0\u0634","name:left:hi":"\u092d\u093e\u0930\u0924","name:right:lb":"Bangladesch","name:right:uk":"\u0411\u0430\u043d\u0433\u043b\u0430\u0434\u0435\u0301\u0448","name:left:he":"\u05d4\u05d5\u05d3\u05d5","name:right:ln":"B\u00e1ngalad\u025b\u0301si","name:right:lo":"\u0e9a\u0eb1\u0e87\u0e81\u0eb0\u0ea5\u0eb2\u0ec0\u0e97\u0e94","name:left:ha":"Indiya","name:right:lt":"Banglade\u0161as","name:right:ur":"\u0628\u0646\u06af\u0644\u06c1 \u062f\u06cc\u0634","name:right:lv":"Banglade\u0161a","name:left:hy":"\u0540\u0576\u0564\u056f\u0561\u057d\u057f\u0561\u0576","name:right:pi":"\u092c\u0902\u0917\u0932\u093e\u0926\u0947\u0936","name:left:ht":"End","name:right:uz":"Bangladesh","name:left:hr":"Indija","old_name:right:li":"Oos-Pakistan","sort_rank":262,"name:right:gd":"Bangladais","name:left:to":"\u02bbInitia","name:right:os":"\u0411\u0430\u043d\u0433\u043b\u0430\u0434\u0435\u0448","name:right:es":"Banglad\u00e9s","name:left:ja":"\u30a4\u30f3\u30c9","name:right:eu":"Bangladesh","name:right:et":"Bangladesh","name:left:os":"\u0418\u043d\u0434\u0438","name:left:or":"\u0b2d\u0b3e\u0b30\u0b24","old_name:right:nl":"Oost-Pakistan","old_name:right:nn":"Aust-Pakistan","old_name:right:no":"\u00d8st-Pakistan","name:left:vo":"Lind\u00e4n","name:left:oc":"\u00cdndia","name:right:eo":"Banglade\u015do","name:right:en":"Bangladesh","name:right:el":"\u039c\u03c0\u03b1\u03bd\u03b3\u03ba\u03bb\u03b1\u03bd\u03c4\u03ad\u03c2","name:right:tt":"\u0411\u0430\u043d\u0433\u043b\u0430\u0434\u0435\u0448","name:left:fa":"\u0647\u0646\u062f","name:right:sk":"Banglad\u00e9\u0161","name:left:fi":"Intia","name:left:fr":"Inde","name:left:fy":"Yndia","name:right:ja":"\u30d0\u30f3\u30b0\u30e9\u30c7\u30b7\u30e5","name:right:sq":"Bangladeshi","name:right:ss":"iBhangladeshi","name:right:sr":"\u0411\u0430\u043d\u0433\u043b\u0430\u0434\u0435\u0448","name:right:su":"Banglad\u00e9s","name:right:sw":"Bangladesh","name:right:sv":"Bangladesh","name:right:si":"\u0db6\u0d82\u0d9c\u0dbd\u0dcf\u0daf\u0dda\u0dc1\u0dba","name:right:sh":"Banglade\u0161","name:left:qu":"Indya","name:right:jv":"Banglad\u00e8sh","name:right:sl":"Banglade\u0161","name:right:so":"Bangladhesh","name:right:sn":"Bangladeshi","name:right:sa":"\u092c\u0902\u0917\u0932\u093e\u0926\u0947\u0936\u0903","name:right:se":"Bangladesh","id":-304716,"name:right:sg":"Benglad\u00eashi","name:right:co":"Bangladesh","name:right:ca":"Bangla Desh","name:right:ce":"\u0411\u0430\u043d\u0433\u043b\u0430\u0434\u0435\u0448","name:right:sd":"\u0628\u0646\u06af\u0644\u0627\u062f\u064a\u0634","name:right:cy":"Bangladesh","name:right:zh-yue":"\u5b5f\u52a0\u62c9\u570b","name:right:cs":"Banglad\u00e9\u0161","name:right:cv":"\u0411\u0430\u043d\u0433\u043b\u0430\u0434\u0435\u0448","name:left:kn":"\u0cad\u0cbe\u0cb0\u0ca4","name:left:ar":"\u0627\u0644\u0647\u0646\u062f","name:right:is":"Bangladess","alt_name:right:zh":"\u5b5f\u52a0\u62c9","old_name:right:hu":"Kelet-Pakiszt\u00e1nra","name:left:az":"Hindistan","name:left:am":"\u1205\u1295\u12f5","old_name:right:he":"\u05de\u05d6\u05e8\u05d7 \u05e4\u05e7\u05d9\u05e1\u05d8\u05df","name:right:io":"Bangladesh","alt_name:right:jv":"Banggalad\u00e9sa","alt_name:right:sw":"Bangla Desh","old_name:right:az":"\u015e\u0259rqi Pakistan","alt_name:right:gd":"Bangla Dais;Bangla-deis;Bangladeis","alt_name:right:so":"Bangladesh","old_name:right:an":"Pakist\u00e1n Oriental","name:right:ro":"Bangladesh","name:right:hy":"\u0532\u0561\u0576\u0563\u056c\u0561\u0564\u0565\u0577","name:left:lb":"Indien","alt_name:left:eo":"Hindujo;Hindio","name:right:hr":"Banglade\u0161","name:right:rm":"Bangladesch","name:right:ht":"Banglad\u00e8ch","name:right:hu":"Banglades","name:left:ss":"INdiya","name:left:sr":"\u0418\u043d\u0434\u0438\u0458\u0430","name:left:sm":"Igitia","name:right:hi":"\u092c\u093e\u0902\u0917\u094d\u0932\u093e\u0926\u0947\u0936","name:left:so":"Hindiya","name:left:lt":"Indija","name:left:sh":"Indija","name:left:lv":"Indija","name:left:sd":"\u0680\u0627\u0631\u062a","name:right:gl":"Bangladesh","name:left:sa":"\u092d\u093e\u0930\u0924\u092e\u094d","name:right:he":"\u05d1\u05e0\u05d2\u05dc\u05d3\u05e9","name:left:sc":"\u00ccndia","name:right:la":"Bangladesha","name:right:af":"Bangladesj","name:left:ce":"\u0418\u043d\u0434\u0438","name:right:an":"Bangladesh","name:right:am":"\u1263\u1295\u130d\u120b\u12f4\u123d","name:left:ca":"\u00cdndia","source":"openstreetmap.org","old_name:right:ms":"Pakistan Timur","name:right:ar":"\u0628\u0646\u063a\u0644\u0627\u062f\u064a\u0634","old_name:right:vi":"\u0110\u00f4ng Pakistan","name:left:cv":"\u0418\u043d\u0434\u0438","name:right:az":"Banqlade\u015f","name:left:cs":"Indie","name:right:ak":"Banglad\u025bhye","old_name:right:sk":"V\u00fdchodn\u00fd Pakistan","old_name:right:sh":"Isto\u010dni Pakistan","name:right:li":"Bangladesj","old_name:right:sq":"Pakistanin-Lindor\u00eb","old_name:right:sw":"Pakistan ya Mashariki","old_name:right:sv":"\u00d6stpakistan","old_name:right:su":"Pakistan W\u00e9tan","old_name:right:cy":"Dwyrain Pacistan","name":"India - \u09ac\u09be\u0982\u09b2\u09be\u09a6\u09c7\u09b6","name:right:zu":"Bangladesh","old_name:right:cs":"V\u00fdchodn\u00ed P\u00e1kist\u00e1n","alt_name:right:qu":"Bangladesh","old_name:right:io":"Estala Pakistan","name:left:zu":"INdiya","name:left:zh":"\u5370\u5ea6","name:right:za":"Bangladesh","old_name:right:ca":"Pakistan Oriental","name:left:za":"Yindu","name:left:uz":"Hindiston","name:right:fr":"Bangladesh","name:left:ps":"\u0647\u0646\u062f","old_name:right:tr":"Do\u011fu Pakistan","name:left:ur":"\u0628\u06be\u0627\u0631\u062a","id:right":-184640,"name:left:uk":"\u0406\u043d\u0434\u0456\u044f","old_name:right:oc":"Paquistan Orientau","name:right:fa":"\u0628\u0646\u06af\u0644\u0627\u062f\u0634","name:right:fo":"Bangladesj","name:left:ne":"\u092d\u093e\u0930\u0924","name:left:ug":"\u06be\u0649\u0646\u062f\u0649\u0633\u062a\u0627\u0646","name:right:fi":"Bangladesh","name:left:eo":"Barato","name:left:el":"\u0399\u03bd\u03b4\u03af\u03b1","name:right:ki":"Bangladesh","name:right:om":"Baangilaadish","name:right:zh-min-nan":"Bangladesh","old_name:right":"\u09aa\u09c2\u09b0\u09cd\u09ac \u09aa\u09be\u0995\u09bf\u09b8\u09cd\u09a4\u09be\u09a8","old_name:right:da":"\u00d8stpakistan","name:right:oc":"Banglad\u00e8sh","old_name:right:de":"Ostpakistan","name:right:tr":"Banglade\u015f","name:right:zh":"\u5b5f\u52a0\u62c9\u56fd","osm_relation":true,"name:right:or":"\u0b2c\u0b19\u0b4d\u0b17\u0b33\u0b3e\u0b26\u0b47\u0b36","name:right:tl":"Bangglades","alt_name:right:gl":"Banglad\u00e9s","name:right:th":"\u0e1a\u0e31\u0e07\u0e01\u0e25\u0e32\u0e40\u0e17\u0e28","old_name:right:it":"Pakistan orientale","name:right:kv":"\u0411\u0430\u043d\u0433\u043b\u0430\u0434\u0435\u0448","old_name:right:is":"Austur-Pakistan","name:left:wa":"Inde","min_zoom":8.0,"name:left:sl":"Indija","name:left:zh-min-nan":"\u00ccn-t\u014d\u0358","old_name:right:id":"Pakistan Timur","old_name:right:ia":"Pakistan Oriental","name:left:wo":"End","name:left:nv":"T\u00f3 W\u00f3naan\u00edd\u0119\u0301\u0119\u0301\u02bc Bits\u012f\u02bc Yisht\u0142izhii Bik\u00e9yah","name:left:ga":"An India","old_name:right:fr":"Pakistan oriental","alt_name:right:ku":"Banglade\u015f","name:left:gd":"Na h-Innseachan","int_name:right":"Bangladesh","alt_name:right:es":"Bangladesh","name:left:gu":"\u0aad\u0abe\u0ab0\u0aa4","name:left:gv":"Yn Injey","official_name:right":"\u0997\u09a3\u09aa\u09cd\u09b0\u099c\u09be\u09a4\u09a8\u09cd\u09a4\u09cd\u09b0\u09c0 \u09ac\u09be\u0982\u09b2\u09be\u09a6\u09c7\u09b6","old_name:right:fi":"It\u00e4-Pakistanin","name:left":"India","name:right:mk":"\u0411\u0430\u043d\u0433\u043b\u0430\u0434\u0435\u0448","name:right:mi":"P\u0101karat\u0113hi","name:right:ve":"Bangladesh","name:right:mn":"\u0411\u0430\u043d\u0433\u043b\u0430\u0434\u0435\u0448","name:right:ml":"\u0d2c\u0d02\u0d17\u0d4d\u0d32\u0d3e\u0d26\u0d47\u0d36\u0d4d","name:right:vo":"Bangladej\u00e4n","name:right:mg":"Bangladesy","name:right:vi":"B\u0103ng-la-\u0111\u00e9t","name:right:my":"\u1018\u1004\u103a\u1039\u1002\u101c\u102c\u1038\u1012\u1031\u1037\u101b\u103e\u103a\u1014\u102d\u102f\u1004\u103a\u1004\u1036","name:right:ms":"Bangladesh","name:right:mr":"\u092c\u093e\u0902\u0917\u0932\u093e\u0926\u0947\u0936","name:right:fy":"Bangladesj","name:right:mt":"Bangladexx","name:right:ff":"Banglaadees","kind":"country","alt_name:right:la":"Bangladesa","alt_name:right:ln":"B\u00e1nglad\u025b\u0301sh","name:left:si":"\u0db7\u0dcf\u0dbb\u0dad \u0da2\u0db1\u0dbb\u0da2\u0dba","old_name:right:fo":"Eysturpakistan","name:left:bs":"Indija","old_name:right:pl":"Pakistan Wschodni","alt_name:left:vi":"Thi\u00ean Tr\u00fac;Quy\u00ean \u0110\u1ed9c","old_name:right:ko":"\ub3d9\ud30c\ud0a4\uc2a4\ud0c4","old_name:right:pt":"Paquist\u00e3o Oriental","name:left:ba":"\u04ba\u0438\u043d\u0434\u043e\u0441\u0442\u0430\u043d","name:left:bg":"\u0418\u043d\u0434\u0438\u044f","name:left:be":"\u0406\u043d\u0434\u044b\u044f","name:left:bn":"\u09ad\u09be\u09b0\u09a4","name:left:bo":"\u0f62\u0f92\u0fb1\u0f0b\u0f42\u0f62\u0f0d","name:right":"\u09ac\u09be\u0982\u09b2\u09be\u09a6\u09c7\u09b6","name:left:yo":"\u00cdnd\u00ed\u00e0","alt_name:right:ro":"Banglade\u0219","name:left:yi":"\u05d0\u05d9\u05e0\u05d3\u05d9\u05e2","id:left":-304716,"name:left:na":"Indjiya","name:right:ka":"\u10d1\u10d0\u10dc\u10d2\u10da\u10d0\u10d3\u10d4\u10e8\u10d8","name:left:zh-yue":"\u5370\u5ea6","name:right:kg":"Bangladesh","name:left:pl":"Indie","name:right:kk":"\u0411\u0430\u043d\u0433\u043b\u0430\u0434\u0435\u0448","name:right:km":"\u1794\u1784\u17cb\u1780\u17d2\u179b\u17b6\u178a\u17c2\u179f\u17d2\u179f","name:right:kl":"Bangladesh","name:right:ko":"\ubc29\uae00\ub77c\ub370\uc2dc","name:right:kn":"\u0cac\u0cbe\u0c82\u0c97\u0ccd\u0cb2\u0cbe\u0ca6\u0cc7\u0cb6","name:left:pt":"\u00cdndia","name:right:ks":"\u0628\u064e\u0646\u065b\u06af\u0644\u0627\u062f\u06cc\u0634","name:right:to":"Pengil\u0101tesi","name:right:ku":"Bengalistan","name:right:ti":"\u1263\u1295\u130d\u120b\u12f2\u123d","name:right:kw":"Bangladesh","name:right:tk":"Banglade\u015f","name:right:ky":"\u0411\u0430\u04a3\u0433\u043b\u0430\u0434\u0435\u0448","name:right:te":"\u0c2c\u0c02\u0c17\u0c4d\u0c32\u0c3e\u0c26\u0c47\u0c36\u0c4d","name:left:iu":"\u1403\u14d0\u144e\u140a","name:right:tg":"\u0411\u0430\u043d\u0433\u043b\u0430\u0434\u0435\u0448","name:left:is":"Indland","name:right:ta":"\u0bb5\u0b99\u0bcd\u0b95\u0bbe\u0bb3\u0ba4\u0bcd\u0ba4\u0bc7\u0b9a\u0bae\u0bcd","name:right:de":"Bangladesch","name:right:da":"Bangladesh","name:right:dz":"\u0f56\u0f44\u0f92\u0f0b\u0f63\u0f0b\u0f51\u0f7a\u0f64","name:left:pa":"\u0a2d\u0a3e\u0a30\u0a24","name:right:dv":"\u0784\u07a6\u0782\u07b0\u078e\u07a7\u0785\u07aa"},"arcs":[[0],[1]]},{"type":"LineString","properties":{"name:right:ja":"\u30c0\u30c3\u30ab","id:right":-3921322,"min_zoom":8.0,"id":-7318343,"osm_relation":true,"name:left:en":"Mymensingh Division","kind":"region","name":"\u09ae\u09af\u09bc\u09ae\u09a8\u09b8\u09bf\u0982\u09b9 \u09ac\u09bf\u09ad\u09be\u0997 - \u09a2\u09be\u0995\u09be \u09ac\u09bf\u09ad\u09be\u0997","sort_rank":256,"kind_detail":"4","name:left:de":"Division Maimansingh","name:right:en":"Dhaka Division","source":"openstreetmap.org","name:left:zh":"\u8fc8\u95e8\u8f9b","name:right:de":"Division Dhaka","id:left":-7318343,"name:right:zh":"\u8fbe\u5361","name:right":"\u09a2\u09be\u0995\u09be \u09ac\u09bf\u09ad\u09be\u0997","name:left":"\u09ae\u09af\u09bc\u09ae\u09a8\u09b8\u09bf\u0982\u09b9 \u09ac\u09bf\u09ad\u09be\u0997"},"arcs":[2]},{"type":"LineString","properties":{"name:right:ja":"\u30b7\u30ec\u30c3\u30c8","name:left:ja":"\u30c0\u30c3\u30ab","id:right":-3921222,"min_zoom":8.0,"id":-3921322,"osm_relation":true,"name:left:en":"Dhaka Division","kind":"region","name":"\u09a2\u09be\u0995\u09be \u09ac\u09bf\u09ad\u09be\u0997 - \u09b8\u09bf\u09b2\u09c7\u099f \u09ac\u09bf\u09ad\u09be\u0997","sort_rank":256,"kind_detail":"4","name:left:de":"Division Dhaka","name:right:en":"Sylhet Division","source":"openstreetmap.org","name:left:zh":"\u8fbe\u5361","name:right:de":"Division Sylhet","id:left":-3921322,"name:right:zh":"\u9521\u83b1\u7279","name:right":"\u09b8\u09bf\u09b2\u09c7\u099f \u09ac\u09bf\u09ad\u09be\u0997","name:left":"\u09a2\u09be\u0995\u09be \u09ac\u09bf\u09ad\u09be\u0997"},"arcs":[3]},{"type":"LineString","properties":{"name:left:ja":"\u30c0\u30c3\u30ab","id:right":-3824588,"min_zoom":8.0,"name:right:ru":"\u0427\u0438\u0442\u0442\u0430\u0433\u043e\u043d\u0433","id":-3921322,"osm_relation":true,"name:right":"\u099a\u099f\u09cd\u099f\u0997\u09cd\u09b0\u09be\u09ae \u09ac\u09bf\u09ad\u09be\u0997","kind":"region","name:right:bn":"Division Chittagong","name:left:en":"Dhaka Division","sort_rank":256,"kind_detail":"4","name:left:de":"Division Dhaka","name":"\u09a2\u09be\u0995\u09be \u09ac\u09bf\u09ad\u09be\u0997 - \u099a\u099f\u09cd\u099f\u0997\u09cd\u09b0\u09be\u09ae \u09ac\u09bf\u09ad\u09be\u0997","source":"openstreetmap.org","name:left:zh":"\u8fbe\u5361","name:right:de":"Division Chittagong","name:right:en":"Chittagong Division","id:left":-3921322,"name:right:zh":"\u5409\u5927\u6e2f","name:left":"\u09a2\u09be\u0995\u09be \u09ac\u09bf\u09ad\u09be\u0997"},"arcs":[4]},{"type":"LineString","properties":{"name:left:ja":"\u30b7\u30ec\u30c3\u30c8","id:right":-3824588,"min_zoom":8.0,"name:right:ru":"\u0427\u0438\u0442\u0442\u0430\u0433\u043e\u043d\u0433","id":-3921222,"osm_relation":true,"name:right":"\u099a\u099f\u09cd\u099f\u0997\u09cd\u09b0\u09be\u09ae \u09ac\u09bf\u09ad\u09be\u0997","kind":"region","name:right:bn":"Division Chittagong","name:left:en":"Sylhet Division","sort_rank":256,"kind_detail":"4","name:left:de":"Division Sylhet","name":"\u09b8\u09bf\u09b2\u09c7\u099f \u09ac\u09bf\u09ad\u09be\u0997 - \u099a\u099f\u09cd\u099f\u0997\u09cd\u09b0\u09be\u09ae \u09ac\u09bf\u09ad\u09be\u0997","source":"openstreetmap.org","name:left:zh":"\u9521\u83b1\u7279","name:right:de":"Division Chittagong","name:right:en":"Chittagong Division","id:left":-3921222,"name:right:zh":"\u5409\u5927\u6e2f","name:left":"\u09b8\u09bf\u09b2\u09c7\u099f \u09ac\u09bf\u09ad\u09be\u0997"},"arcs":[5]},{"type":"LineString","properties":{"name:right:ja":"\u30c8\u30ea\u30d7\u30e9","name:right:uk":"\u0422\u0440\u0456\u043f\u0443\u0440\u0430","name:left:ja":"\u30b7\u30ec\u30c3\u30c8","id:right":-2026458,"name:right:hi":"\u0924\u094d\u0930\u093f\u092a\u0941\u0930\u093e","min_zoom":8.0,"name:right:ru":"\u0422\u0440\u0438\u043f\u0443\u0440\u0430","id":-3921222,"osm_relation":true,"name:right":"Tripura","kind":"region","name":"\u09b8\u09bf\u09b2\u09c7\u099f \u09ac\u09bf\u09ad\u09be\u0997 - Tripura","source":"openstreetmap.org","sort_rank":256,"kind_detail":"4","name:left:de":"Division Sylhet","name:right:ta":"\u0ba4\u0bbf\u0bb0\u0bbf\u0baa\u0bc1\u0bb0\u0bbe","name:left:en":"Sylhet Division","name:left:zh":"\u9521\u83b1\u7279","id:left":-3921222,"name:right:zh":"\u7279\u91cc\u666e\u62c9\u90a6","name:left":"\u09b8\u09bf\u09b2\u09c7\u099f \u09ac\u09bf\u09ad\u09be\u0997"},"arcs":[6]},{"type":"MultiLineString","properties":{"name:right:ja":"\u30c8\u30ea\u30d7\u30e9","name:right:uk":"\u0422\u0440\u0456\u043f\u0443\u0440\u0430","id:right":-2026458,"name:right:hi":"\u0924\u094d\u0930\u093f\u092a\u0941\u0930\u093e","min_zoom":8.0,"name:left:ru":"\u0427\u0438\u0442\u0442\u0430\u0433\u043e\u043d\u0433","name:right:ru":"\u0422\u0440\u0438\u043f\u0443\u0440\u0430","name:left:bn":"Division Chittagong","id":-3824588,"osm_relation":true,"name:right":"Tripura","kind":"region","name":"\u099a\u099f\u09cd\u099f\u0997\u09cd\u09b0\u09be\u09ae \u09ac\u09bf\u09ad\u09be\u0997 - Tripura","source":"openstreetmap.org","sort_rank":256,"kind_detail":"4","name:left:de":"Division Chittagong","name:right:ta":"\u0ba4\u0bbf\u0bb0\u0bbf\u0baa\u0bc1\u0bb0\u0bbe","name:left:en":"Chittagong Division","name:left:zh":"\u5409\u5927\u6e2f","id:left":-3824588,"name:right:zh":"\u7279\u91cc\u666e\u62c9\u90a6","name:left":"\u099a\u099f\u09cd\u099f\u0997\u09cd\u09b0\u09be\u09ae \u09ac\u09bf\u09ad\u09be\u0997"},"arcs":[[7],[8]]}]},"roads":{"type":"GeometryCollection","geometries":[{"type":"LineString","properties":{"kind":"major_road","sort_rank":381,"kind_detail":"trunk","is_bicycle_related":true,"min_zoom":8.0,"source":"openstreetmap.org","name:bn":"\u09a2\u09be\u0995\u09be-\u0986\u09b0\u09bf\u099a\u09be \u09ae\u09b9\u09be\u09b8\u09dc\u0995","ref":"N 5"},"arcs":[15]},{"type":"MultiLineString","properties":{"source":"openstreetmap.org","kind":"major_road","sort_rank":381,"kind_detail":"trunk","ref":"N1","min_zoom":8.0},"arcs":[[16],[17]]},{"type":"MultiLineString","properties":{"source":"openstreetmap.org","kind":"major_road","network":"AH","sort_rank":381,"kind_detail":"trunk","min_zoom":8.0,"shield_text":"1"},"arcs":[[18],[19],[20],[21],[22],[23],[24],[25],[26],[27],[28],[29],[30],[31]]},{"type":"LineString","properties":{"source":"openstreetmap.org","kind":"major_road","kind_detail":"trunk","sort_rank":381,"landuse_kind":"urban_area","ref":"N 1","min_zoom":8.0},"arcs":[32]},{"type":"LineString","properties":{"source":"openstreetmap.org","kind":"major_road","sort_rank":380,"kind_detail":"primary","ref":"N204","min_zoom":8.0},"arcs":[33]},{"type":"LineString","properties":{"source":"openstreetmap.org","kind":"major_road","sort_rank":380,"kind_detail":"primary","ref":"R315","min_zoom":8.0,"id":237011797},"arcs":[34]},{"type":"MultiLineString","properties":{"kind":"major_road","network":"AH","sort_rank":381,"kind_detail":"trunk","source":"openstreetmap.org","min_zoom":8.0,"shield_text":"1","ref":"N 2"},"arcs":[[35],[36],[37],[38],[39],[40],[41],[42],[43],[44],[45],[46],[47],[48],[49],[50],[51],[52],[53],[54]]},{"type":"MultiLineString","properties":{"source":"openstreetmap.org","kind":"major_road","landuse_kind":"urban_area","sort_rank":380,"kind_detail":"primary","min_zoom":8.0,"name:bn":"\u09ae\u09bf\u09b0\u09aa\u09c1\u09b0 \u09b0\u09cb\u09a1"},"arcs":[[55],[56],[57],[58],[59],[60]]},{"type":"LineString","properties":{"kind":"major_road","network":"AH","sort_rank":380,"kind_detail":"primary","source":"openstreetmap.org","min_zoom":8.0,"landuse_kind":"urban_area","shield_text":"1","ref":"N 8","id":396086056},"arcs":[61]},{"type":"MultiLineString","properties":{"source":"openstreetmap.org","kind":"major_road","landuse_kind":"urban_area","sort_rank":380,"kind_detail":"primary","min_zoom":8.0,"name:bn":"\u09b9\u09be\u09a4\u09bf\u09b0\u099d\u09bf\u09b2 \u09b2\u09bf\u0982\u0995 \u09b0\u09cb\u09a1"},"arcs":[[62],[63],[64],[65]]},{"type":"MultiLineString","properties":{"kind":"ferry","name:en":"Hularhat to Dhaka","name":"\u09b9\u09c1\u09b2\u09be\u09b0\u09b9\u09be\u099f \u09a5\u09c7\u0995\u09c7 \u09a2\u09be\u0995\u09be","sort_rank":355,"landuse_kind":"urban_area","source":"openstreetmap.org","min_zoom":8.0,"id":-4669142,"osm_relation":true},"arcs":[[66],[67]]},{"type":"MultiLineString","properties":{"source":"openstreetmap.org","kind":"major_road","name:en":"DIT Road, Rampura","landuse_kind":"urban_area","sort_rank":380,"kind_detail":"primary","min_zoom":8.0},"arcs":[[68],[69]]},{"type":"LineString","properties":{"kind":"major_road","cycleway_left":"shared_lane","sort_rank":380,"kind_detail":"primary","is_bicycle_related":true,"source":"openstreetmap.org","min_zoom":8.0,"landuse_kind":"urban_area","id":116541041},"arcs":[70]},{"type":"MultiLineString","properties":{"kind":"major_road","network":"AH","sort_rank":381,"landuse_kind":"urban_area","source":"openstreetmap.org","min_zoom":8.0,"kind_detail":"trunk","shield_text":"1"},"arcs":[[71],[72]]},{"type":"LineString","properties":{"source":"openstreetmap.org","kind":"major_road","kind_detail":"trunk","sort_rank":381,"landuse_kind":"urban_area","is_bicycle_related":true,"min_zoom":8.0},"arcs":[73]},{"type":"LineString","properties":{"source":"openstreetmap.org","kind":"major_road","sort_rank":380,"kind_detail":"primary","ref":"Z3033","min_zoom":8.0,"id":227906949},"arcs":[74]},{"type":"MultiLineString","properties":{"sort_rank":381,"source":"openstreetmap.org","min_zoom":8.0,"kind":"major_road","kind_detail":"trunk"},"arcs":[[75],[76],[77],[78],[79],[80],[81],[82],[83],[84],[85],[86],[87],[88],[89],[90]]},{"type":"LineString","properties":{"kind":"major_road","sort_rank":381,"landuse_kind":"urban_area","is_bicycle_related":true,"min_zoom":8.0,"source":"openstreetmap.org","name:bn":"\u09a2\u09be\u0995\u09be-\u0986\u09b0\u09bf\u099a\u09be \u09ae\u09b9\u09be\u09b8\u09dc\u0995","kind_detail":"trunk","ref":"N 5"},"arcs":[91]},{"type":"MultiLineString","properties":{"kind":"major_road","network":"AH","sort_rank":381,"landuse_kind":"urban_area","source":"openstreetmap.org","min_zoom":8.0,"kind_detail":"trunk","shield_text":"1","ref":"N 8"},"arcs":[[92],[93]]},{"type":"MultiLineString","properties":{"source":"openstreetmap.org","kind":"major_road","sort_rank":380,"kind_detail":"primary","ref":"R812","min_zoom":8.0},"arcs":[[94],[95]]},{"type":"LineString","properties":{"source":"openstreetmap.org","kind":"major_road","sort_rank":380,"kind_detail":"primary","ref":"E220","min_zoom":8.0,"id":131752018},"arcs":[96]},{"type":"MultiLineString","properties":{"source":"openstreetmap.org","kind":"major_road","sort_rank":380,"kind_detail":"primary","ref":"R 220","min_zoom":8.0},"arcs":[[97],[98],[99],[100],[101]]},{"type":"MultiLineString","properties":{"source":"openstreetmap.org","kind":"major_road","name:en":"Kazi Nazrul Islam Avenue","landuse_kind":"urban_area","sort_rank":380,"kind_detail":"primary","min_zoom":8.0},"arcs":[[102],[103]]},{"type":"LineString","properties":{"kind":"major_road","cycleway_left":"track","sort_rank":380,"kind_detail":"primary","is_bicycle_related":true,"source":"openstreetmap.org","min_zoom":8.0,"landuse_kind":"urban_area","id":511481120},"arcs":[104]},{"type":"MultiLineString","properties":{"source":"openstreetmap.org","kind":"major_road","landuse_kind":"urban_area","sort_rank":380,"kind_detail":"primary","min_zoom":8.0},"arcs":[[105],[106],[107],[108],[109],[110],[111],[112],[113],[114],[115],[116],[117],[118],[119],[120],[121],[122],[123],[124],[125],[126],[127],[128],[129],[130],[131],[132],[133],[134],[135],[136],[137],[138],[139],[140],[141],[142],[143],[144],[145],[146],[147],[148],[149],[150],[151],[152],[153],[154],[155],[156],[157],[158],[159],[160],[161],[162],[163],[164],[165],[166],[167],[168],[169],[170],[171],[172],[173],[174],[175],[176],[177],[178],[179],[180],[181],[182],[183],[184],[185],[186],[187],[188],[189],[190],[191],[192],[193],[194],[195],[196],[197],[198],[199],[200],[201],[202],[203],[204],[205],[206],[207],[208],[209],[210],[211],[212],[213],[214],[215],[216],[217],[218],[219],[220],[221],[222],[223],[224],[225],[226],[227],[228],[229],[230],[231],[232],[233],[234],[235],[236],[237],[238],[239],[240],[241],[242],[243],[244],[245],[246],[247],[248],[249],[250],[251],[252],[253],[254],[255],[256],[257],[258],[259],[260],[261],[262],[263],[264],[265],[266],[267],[268],[269],[270],[271],[272],[273],[274],[275],[276],[277],[278],[279],[280],[281],[282],[283],[284],[285],[286],[287],[288],[289],[290],[291],[292],[293],[294],[295],[296],[297],[298],[299],[300],[301],[302],[303],[304],[305],[306],[307],[308],[309],[310],[311],[312],[313],[314],[315],[316],[317],[318],[319],[320],[321],[322],[323],[324],[325],[326],[327],[328],[329],[330],[331],[332],[333],[334],[335],[336],[337],[338],[339],[340],[341],[342],[343],[344],[345],[346],[347],[348],[349],[350],[351],[352],[353],[354],[355],[356],[357],[358],[359],[360],[361],[362],[363],[364],[365],[366],[367],[368],[369],[370],[371],[372],[373],[374],[375],[376],[377],[378],[379],[380],[381],[382],[383],[384],[385],[386],[387],[388],[389],[390],[391],[392],[393],[394],[395],[396],[397],[398],[399],[400],[401],[402],[403],[404],[405],[406],[407],[408],[409],[410],[411],[412],[413],[414],[415],[416],[417],[418],[419]]},{"type":"MultiLineString","properties":{"source":"openstreetmap.org","kind":"ferry","name:en":"Hularhat to Dhaka","name":"\u09b9\u09c1\u09b2\u09be\u09b0\u09b9\u09be\u099f \u09a5\u09c7\u0995\u09c7 \u09a2\u09be\u0995\u09be","sort_rank":355,"min_zoom":8.0,"osm_relation":true},"arcs":[[420],[421]]},{"type":"MultiLineString","properties":{"sort_rank":355,"source":"openstreetmap.org","min_zoom":8.0,"kind":"ferry"},"arcs":[[422],[423],[424]]},{"type":"LineString","properties":{"sort_rank":355,"landuse_kind":"urban_area","min_zoom":8.0,"kind":"ferry","source":"openstreetmap.org"},"arcs":[425]},{"type":"LineString","properties":{"kind":"major_road","sort_rank":381,"kind_detail":"trunk","is_bicycle_related":true,"min_zoom":8.0,"cycleway":"lane","source":"openstreetmap.org","name:bn":"\u09a2\u09be\u0995\u09be-\u0986\u09b0\u09bf\u099a\u09be \u09ae\u09b9\u09be\u09b8\u09dc\u0995","ref":"N 5"},"arcs":[426]},{"type":"LineString","properties":{"source":"openstreetmap.org","kind":"major_road","sort_rank":380,"kind_detail":"primary","ref":"R360","min_zoom":8.0,"id":262081010},"arcs":[427]},{"type":"LineString","properties":{"source":"openstreetmap.org","kind":"major_road","sort_rank":381,"kind_detail":"trunk","ref":"R505","min_zoom":8.0},"arcs":[428]},{"type":"MultiLineString","properties":{"source":"openstreetmap.org","kind":"major_road","network":"IN:NH","sort_rank":380,"kind_detail":"primary","min_zoom":8.0,"shield_text":null},"arcs":[[429],[430],[431],[432]]},{"type":"MultiLineString","properties":{"kind":"major_road","network":"AH","sort_rank":381,"kind_detail":"trunk","source":"openstreetmap.org","min_zoom":8.0,"shield_text":"1","ref":"N8"},"arcs":[[433],[434],[435]]},{"type":"MultiLineString","properties":{"kind":"major_road","sort_rank":380,"kind_detail":"primary","is_bicycle_related":true,"name:bn":"\u09ae\u09be\u09a8\u09bf\u0995 \u09ae\u09bf\u09af\u09bc\u09be \u098f\u09ad\u09bf\u09a8\u09bf\u0989","source":"openstreetmap.org","min_zoom":8.0,"landuse_kind":"urban_area"},"arcs":[[436],[437],[438],[439],[440],[441],[442],[443]]},{"type":"LineString","properties":{"source":"openstreetmap.org","kind":"major_road","sort_rank":381,"kind_detail":"trunk","ref":"N3","min_zoom":8.0},"arcs":[444]},{"type":"MultiLineString","properties":{"source":"openstreetmap.org","kind":"major_road","landuse_kind":"urban_area","sort_rank":380,"kind_detail":"primary","ref":"R810","min_zoom":8.0},"arcs":[[445],[446]]},{"type":"MultiLineString","properties":{"sort_rank":380,"kind_detail":"primary","min_zoom":8.0,"kind":"major_road","source":"openstreetmap.org"},"arcs":[[447],[448],[449],[450],[451],[452],[453],[454],[455],[456],[457],[458],[459],[460],[461],[462],[463],[464],[465],[466],[467],[468],[469],[470],[471],[472],[473],[474],[475],[476],[477],[478],[479],[480],[481],[482],[483],[484],[485],[486],[487],[488],[489],[490],[491],[492],[493],[494],[495],[496],[497],[498],[499],[500],[501],[502],[503],[504],[505],[506],[507],[508],[509],[510],[511],[512],[513],[514],[515],[516],[517]]},{"type":"MultiLineString","properties":{"source":"openstreetmap.org","kind":"major_road","sort_rank":380,"kind_detail":"primary","ref":"Z3604","min_zoom":8.0},"arcs":[[518],[519]]},{"type":"MultiLineString","properties":{"kind":"major_road","network":"IN:NH","sort_rank":381,"kind_detail":"trunk","source":"openstreetmap.org","min_zoom":8.0,"shield_text":null,"ref":"NH8"},"arcs":[[520],[521],[522],[523],[524]]},{"type":"MultiLineString","properties":{"source":"openstreetmap.org","kind":"major_road","sort_rank":381,"kind_detail":"trunk","ref":"N 5","min_zoom":8.0},"arcs":[[525],[526]]},{"type":"LineString","properties":{"kind":"major_road","network":"AH","sort_rank":380,"kind_detail":"primary","source":"openstreetmap.org","min_zoom":8.0,"landuse_kind":"urban_area","shield_text":"1","ref":"N 1"},"arcs":[527]},{"type":"MultiLineString","properties":{"source":"openstreetmap.org","kind":"major_road","landuse_kind":"urban_area","sort_rank":380,"kind_detail":"primary","min_zoom":8.0,"name:bn":"\u09aa\u09cd\u09b0\u0997\u09a4\u09bf \u09b8\u09b0\u09a3\u09c0"},"arcs":[[528],[529],[530],[531]]},{"type":"MultiLineString","properties":{"source":"openstreetmap.org","kind":"major_road","landuse_kind":"urban_area","sort_rank":380,"kind_detail":"primary","is_bicycle_related":true,"min_zoom":8.0},"arcs":[[532],[533],[534],[535],[536],[537],[538],[539],[540],[541]]},{"type":"MultiLineString","properties":{"source":"openstreetmap.org","kind":"major_road","kind_detail":"trunk","sort_rank":381,"landuse_kind":"urban_area","min_zoom":8.0},"arcs":[[542],[543],[544],[545],[546],[547],[548],[549],[550],[551],[552],[553],[554],[555],[556],[557],[558],[559],[560],[561],[562]]},{"type":"LineString","properties":{"source":"openstreetmap.org","kind":"major_road","sort_rank":380,"kind_detail":"primary","ref":"N 302","min_zoom":8.0,"id":10101959},"arcs":[563]},{"type":"MultiLineString","properties":{"kind":"major_road","network":"AH","sort_rank":381,"kind_detail":"trunk","source":"openstreetmap.org","min_zoom":8.0,"shield_text":"1","ref":"N 8"},"arcs":[[564],[565],[566],[567],[568],[569],[570],[571]]},{"type":"LineString","properties":{"kind":"major_road","sort_rank":380,"landuse_kind":"urban_area","source":"openstreetmap.org","min_zoom":8.0,"kind_detail":"primary","ref":"N 105","id":24225301},"arcs":[572]},{"type":"MultiLineString","properties":{"source":"openstreetmap.org","kind":"major_road","sort_rank":380,"kind_detail":"primary","ref":"R140","min_zoom":8.0},"arcs":[[573],[574],[575],[576],[577],[578],[579],[580],[581]]},{"type":"LineString","properties":{"kind":"major_road","sort_rank":380,"landuse_kind":"urban_area","source":"openstreetmap.org","min_zoom":8.0,"kind_detail":"primary","ref":"R 141","id":440754841},"arcs":[582]},{"type":"MultiLineString","properties":{"kind":"major_road","network":"IN:NH","short_name":"HG Road","sort_rank":380,"kind_detail":"primary","source":"openstreetmap.org","min_zoom":8.0,"landuse_kind":"urban_area","shield_text":null},"arcs":[[583],[584],[585]]},{"type":"LineString","properties":{"source":"openstreetmap.org","kind":"major_road","sort_rank":381,"kind_detail":"trunk","ref":"N 102","min_zoom":8.0},"arcs":[586]},{"type":"LineString","properties":{"source":"openstreetmap.org","kind":"major_road","landuse_kind":"urban_area","sort_rank":380,"kind_detail":"primary","ref":"R812","min_zoom":8.0},"arcs":[587]},{"type":"LineString","properties":{"kind":"major_road","sort_rank":381,"kind_detail":"trunk","is_bicycle_related":true,"cycleway":"lane","source":"openstreetmap.org","min_zoom":8.0,"ref":"N 5"},"arcs":[588]},{"type":"LineString","properties":{"kind":"major_road","sort_rank":381,"kind_detail":"trunk","name:bn":"\u09a2\u09be\u0995\u09be-\u099a\u099f\u09cd\u099f\u0997\u09cd\u09b0\u09be\u09ae \u09ae\u09b9\u09be\u09b8\u09dc\u0995","source":"openstreetmap.org","min_zoom":8.0,"ref":"N 1","id":274747552},"arcs":[589]},{"type":"LineString","properties":{"source":"openstreetmap.org","kind":"major_road","kind_detail":"trunk","sort_rank":381,"landuse_kind":"urban_area","ref":"N 5","min_zoom":8.0},"arcs":[590]},{"type":"MultiLineString","properties":{"kind":"major_road","network":"IN:NH","sort_rank":380,"kind_detail":"primary","source":"openstreetmap.org","min_zoom":8.0,"landuse_kind":"urban_area","shield_text":null},"arcs":[[591],[592]]},{"type":"MultiLineString","properties":{"source":"openstreetmap.org","kind":"major_road","name:en":"DIT Road","landuse_kind":"urban_area","sort_rank":380,"kind_detail":"primary","min_zoom":8.0},"arcs":[[593],[594]]},{"type":"LineString","properties":{"kind":"major_road","network":"AH","sort_rank":381,"kind_detail":"trunk","source":"openstreetmap.org","min_zoom":8.0,"landuse_kind":"urban_area","shield_text":"1","ref":"N 2","id":24375819},"arcs":[595]},{"type":"MultiLineString","properties":{"source":"openstreetmap.org","kind":"major_road","name:en":"Rampura Bridge","landuse_kind":"urban_area","sort_rank":380,"kind_detail":"primary","min_zoom":8.0},"arcs":[[596],[597]]},{"type":"LineString","properties":{"source":"openstreetmap.org","kind":"major_road","landuse_kind":"urban_area","sort_rank":380,"kind_detail":"primary","ref":"N 302","min_zoom":8.0},"arcs":[598]},{"type":"LineString","properties":{"kind":"major_road","network":"AH","sort_rank":381,"landuse_kind":"urban_area","source":"openstreetmap.org","min_zoom":8.0,"kind_detail":"trunk","shield_text":"1","ref":"N 1"},"arcs":[599]},{"type":"MultiLineString","properties":{"source":"openstreetmap.org","kind":"major_road","sort_rank":381,"kind_detail":"trunk","ref":"N 8","min_zoom":8.0},"arcs":[[600],[601]]},{"type":"LineString","properties":{"source":"openstreetmap.org","kind":"major_road","sort_rank":380,"kind_detail":"primary","ref":"R 141","min_zoom":8.0},"arcs":[602]},{"type":"LineString","properties":{"source":"openstreetmap.org","kind":"major_road","sort_rank":380,"kind_detail":"primary","ref":"Z1206","min_zoom":8.0},"arcs":[603]},{"type":"LineString","properties":{"source":"openstreetmap.org","kind":"major_road","sort_rank":381,"kind_detail":"trunk","ref":"N4","min_zoom":8.0},"arcs":[604]},{"type":"LineString","properties":{"kind":"major_road","sort_rank":381,"kind_detail":"trunk","is_bicycle_related":true,"cycleway":"lane","source":"openstreetmap.org","min_zoom":8.0,"id":10101955},"arcs":[605]},{"type":"MultiLineString","properties":{"source":"openstreetmap.org","kind":"major_road","sort_rank":381,"kind_detail":"trunk","ref":"N 1","min_zoom":8.0},"arcs":[[606],[607],[608],[609],[610],[611],[612],[613],[614],[615],[616],[617],[618],[619]]},{"type":"LineString","properties":{"kind":"ferry","network":"AH","sort_rank":355,"source":"openstreetmap.org","min_zoom":8.0,"all_networks":["AH"],"shield_text":"1","all_shield_texts":["1"]},"arcs":[620]},{"type":"LineString","properties":{"source":"openstreetmap.org","kind":"major_road","sort_rank":380,"kind_detail":"primary","ref":"N103","min_zoom":8.0,"id":232197287},"arcs":[621]},{"type":"MultiLineString","properties":{"source":"openstreetmap.org","kind":"major_road","sort_rank":380,"kind_detail":"primary","ref":"R220","min_zoom":8.0},"arcs":[[622],[623]]},{"type":"LineString","properties":{"kind":"major_road","network":"AH","sort_rank":380,"kind_detail":"primary","source":"openstreetmap.org","min_zoom":8.0,"landuse_kind":"urban_area","shield_text":"1"},"arcs":[624]},{"type":"LineString","properties":{"source":"openstreetmap.org","kind":"major_road","sort_rank":380,"kind_detail":"primary","ref":"R 240","min_zoom":8.0},"arcs":[625]},{"type":"MultiLineString","properties":{"source":"openstreetmap.org","kind":"major_road","sort_rank":381,"kind_detail":"trunk","ref":"N 2","min_zoom":8.0},"arcs":[[626],[627],[628],[629],[630],[631]]},{"type":"LineString","properties":{"kind":"major_road","name:en":"Sahid Capten Munsur Ali Avenue","sort_rank":380,"landuse_kind":"urban_area","source":"openstreetmap.org","min_zoom":8.0,"kind_detail":"primary","id":327377093},"arcs":[632]},{"type":"MultiLineString","properties":{"source":"openstreetmap.org","kind":"major_road","sort_rank":380,"kind_detail":"primary","ref":"N 105","min_zoom":8.0},"arcs":[[633],[634],[635],[636]]},{"type":"LineString","properties":{"source":"openstreetmap.org","kind":"major_road","sort_rank":380,"kind_detail":"primary","is_bicycle_related":true,"min_zoom":8.0,"id":279968645},"arcs":[637]},{"type":"LineString","properties":{"kind":"major_road","sort_rank":380,"kind_detail":"primary","is_bicycle_related":true,"cycleway":"shared_lane","source":"openstreetmap.org","min_zoom":8.0,"landuse_kind":"urban_area"},"arcs":[638]}]},"earth":{"type":"GeometryCollection","geometries":[{"type":"MultiPolygon","properties":{"sort_rank":10,"source":"naturalearthdata.com","min_zoom":0.0,"kind":"earth","area":86707327268},"arcs":[[[639]],[[640]]]}]},"landuse":{"type":"GeometryCollection","geometries":[{"type":"MultiPolygon","properties":{"source":"naturalearthdata.com","kind":"urban_area","name":"","area":1034209046,"sort_rank":11,"min_zoom":4.0},"arcs":[[[641]],[[642]],[[643]],[[644]]]}]}},"type":"Topology","transform":{"translate":[90.0,23.2413461024],"scale":[0.0003433228,0.0003139133]},"arcs":[[[4096,2766],[-96,-24],[15,-184],[-50,-156],[-34,-14],[-97,28],[-52,-19],[-81,-73],[-23,-101],[-98,-136],[73,-188],[-57,-85],[-53,-174],[-125,-17],[-43,-45],[1,-114],[95,-30],[25,-43],[-30,-75],[-48,38],[-33,-11],[-8,-71],[79,-202],[57,-79],[4,-127],[121,-99],[45,-195],[53,-83],[-1,-67],[94,-29],[-76,-114],[42,-47],[9,-125],[63,-68],[-22,-27],[1,-10]],[[4039,0],[18,70],[39,5]],[[500,4096],[8,-27],[28,17],[72,-43],[-10,-37],[24,7],[38,-55],[45,-5],[-59,-57],[-37,-1],[2,-27],[56,-112],[57,-12],[-57,-213],[12,-43],[42,-4],[55,-146],[44,-2],[26,-36],[93,70],[67,-17],[29,26],[25,-65],[46,30],[66,-27],[76,87],[-1,69],[79,30],[102,-92],[18,13],[96,-37],[-25,-53],[39,-11],[117,-116],[105,67],[44,9],[71,-32],[4,23],[-25,38],[-3,85],[-67,103],[40,60],[42,182],[-38,57],[-133,37],[-42,122],[90,48],[95,-76],[119,-25],[9,107],[60,45],[53,-135],[44,41],[21,72],[28,-19],[16,32],[104,-16],[17,64]],[[3360,3234],[88,168],[161,88],[-39,64],[52,42],[10,53],[-97,101],[49,35],[-13,114],[-112,58],[83,139]],[[1853,0],[19,12],[23,61],[2,61],[-151,260],[-46,343],[28,45],[112,38],[68,88],[115,-55],[21,48],[-48,107],[-113,52],[25,43],[40,9],[-43,91],[-76,-2],[0,88],[124,81],[147,222],[56,163],[-17,174],[31,49],[172,-12],[159,62],[71,-57],[83,17],[31,119],[71,43],[-10,99],[76,46],[3,140],[39,89],[202,156],[-6,81],[-160,102],[-27,61],[161,169],[141,-5],[-33,46],[7,42],[170,21],[40,37]],[[3360,3234],[159,-21],[140,-78],[135,158],[102,-18],[-9,-45],[-138,-128],[81,-38],[9,-49],[-46,-10],[-60,29],[-19,-29],[1,-96],[65,-40],[-63,-38],[-9,-45],[16,-80],[74,-120],[-16,-189]],[[3782,2397],[52,19],[97,-28],[34,14],[52,174],[-24,152],[39,29],[64,10]],[[4096,75],[-39,-5],[-18,-70]],[[3846,0],[-1,10],[22,27],[-63,68],[-9,125],[-42,47],[76,114],[-94,29],[1,67],[-53,83],[-45,195],[-121,99],[-4,127],[-121,223],[-7,129],[33,11],[48,-38],[30,75],[-25,43],[-95,30],[-1,114],[43,45],[97,0],[47,42],[34,149],[57,85],[-73,188],[98,136],[23,101],[81,73]],[[1928,0],[-157,0],[-4,19],[-85,131],[-24,21],[-191,21],[-46,17],[-81,41],[-92,20],[-26,30],[-18,40],[-27,39],[-45,38],[-378,230],[-28,35],[3,37],[99,-66],[111,-42],[571,-111],[98,-43],[5,51],[18,56],[24,46],[23,19],[8,35],[-6,286],[-24,25],[-108,4],[-48,9],[-48,18],[-41,33],[-24,49],[74,-48],[38,-13],[49,-4],[46,4],[35,13],[15,27],[-16,45],[106,45],[49,5],[22,-30],[13,4],[3,1],[0,3],[6,14],[18,-22],[-74,-35],[-47,-74],[-11,-90],[44,-126],[13,-11],[42,28],[74,25],[56,33],[32,-3],[51,-30],[20,65],[-52,43],[-26,29],[8,13],[52,2],[28,-3],[16,-19],[14,-43],[-2,-117],[-69,-38],[-169,1],[-72,-45],[-25,-73],[-3,-187],[8,-59],[28,-96],[49,-67],[74,27],[-2,-17],[5,-4],[9,0],[10,-3],[-32,-28],[2,-42],[48,-104],[-18,0],[12,-60],[-10,-24]],[[1707,192],[-24,70],[-112,84],[-138,74],[-106,37],[-75,1],[-9,-29],[31,-45],[91,-96],[54,-41],[55,-15],[53,26],[15,36],[59,-24],[106,-78]],[[3525,3571],[17,26],[67,-107],[-63,-44],[-99,-45],[-42,-108],[-24,-21],[-22,-39],[-38,-27],[-50,-16],[-57,-6],[-26,-15],[0,-32],[6,-37],[-8,-24],[-20,-4],[-22,8],[-40,31],[-96,-134],[-33,-12],[-33,-9],[-18,-11],[12,-62],[120,-71],[29,-53],[-4,-82],[-6,-32],[-12,-29],[-85,-59],[-14,-17],[-8,-16],[-52,-83],[-60,-150],[-18,66],[8,88],[27,75],[32,32],[49,29],[57,65],[21,67],[-56,35],[20,45],[-51,75],[-71,30],[-37,-84],[-21,0],[1,55],[-17,28],[-19,-9],[-4,-54],[-34,26],[12,37],[41,33],[102,26],[19,30],[-1,111],[25,-11],[14,-23],[7,-32],[-2,-41],[16,0],[31,44],[38,37],[35,45],[17,68],[-3,51],[-11,51],[-4,42],[18,30],[49,7],[42,-29],[67,-64],[41,-15],[35,-3],[27,14],[18,33],[0,37],[-18,30],[-24,28],[-17,28],[-11,52],[11,22],[27,12],[33,24],[1,-1],[26,15],[13,-14],[10,-3],[9,-3],[10,-5],[8,-10],[83,58]],[[1771,0],[-4,19],[-85,131],[-24,21],[-191,21],[-46,17],[-81,41],[-92,20],[-26,30],[-18,40],[-27,39],[-45,38],[-378,230],[-28,35],[3,37],[99,-66],[111,-42],[571,-111],[98,-43],[5,51],[18,56],[24,46],[23,19],[8,35],[-6,286],[-24,25],[-108,4],[-48,9],[-48,18],[-41,33],[-24,49],[74,-48],[38,-13],[49,-4],[46,4],[35,13],[15,27],[-16,45],[106,45],[49,5],[22,-30],[13,4],[3,1],[0,3],[6,14],[18,-22],[-74,-35],[-47,-74],[-11,-90],[44,-126],[13,-11],[42,28],[74,25],[56,33],[32,-3],[51,-30],[20,65],[-52,43],[-26,29],[8,13],[52,2],[28,-3],[16,-19],[14,-43],[-2,-117],[-69,-38],[-169,1],[-72,-45],[-25,-73],[-3,-187],[8,-59],[28,-96],[49,-67],[74,27],[-2,-17],[5,-4],[9,0],[10,-3],[-32,-28],[2,-42],[48,-104],[-18,0],[12,-60],[-10,-24]],[[3525,3571],[17,26],[67,-107],[-63,-44],[-99,-45],[-42,-108],[-24,-21],[-22,-39],[-38,-27],[-50,-16],[-57,-6],[-26,-15],[0,-32],[6,-37],[-8,-24],[-20,-4],[-22,8],[-40,31],[-96,-134],[-33,-12],[-33,-9],[-18,-11],[12,-62],[120,-71],[29,-53],[-4,-82],[-6,-32],[-12,-29],[-85,-59],[-14,-17],[-8,-16],[-52,-83],[-60,-150],[-18,66],[8,88],[27,75],[32,32],[49,29],[57,65],[21,67],[-56,35],[20,45],[-51,75],[-71,30],[-37,-84],[-21,0],[1,55],[-17,28],[-19,-9],[-4,-54],[-34,26],[12,37],[41,33],[102,26],[19,30],[-1,111],[25,-11],[14,-23],[7,-32],[-2,-41],[16,0],[31,44],[38,37],[35,45],[17,68],[-3,51],[-11,51],[-4,42],[18,30],[49,7],[42,-29],[67,-64],[41,-15],[35,-3],[27,14],[18,33],[0,37],[-18,30],[-24,28],[-17,28],[-11,52],[11,22],[27,12],[33,24],[1,-1],[26,15],[13,-14],[10,-3],[9,-3],[10,-5],[8,-10],[83,58]],[[1527,258],[15,36],[59,-24],[106,-78],[-24,70],[-112,84],[-138,74],[-106,37],[-75,1],[-9,-29],[31,-45],[91,-96],[54,-41],[55,-15],[53,26]],[[839,1756],[-59,5],[-30,75],[-3,88],[49,89],[-15,97]],[[2769,826],[22,-2]],[[2800,824],[57,-14]],[[772,739],[1,3],[0,-3]],[[1013,1276],[2,8]],[[1936,2076],[0,1]],[[2053,2197],[-1,-1]],[[3247,2578],[-2,-1],[1,1]],[[3246,2579],[1,-1]],[[3247,2578],[-1,0],[0,1]],[[3247,2578]],[[3922,2888],[1,-1],[-1,0],[0,1]],[[3922,2888],[1,2],[0,-2]],[[3922,2887],[-2,-1],[2,2]],[[773,739],[0,-1],[-1,1]],[[772,739],[1,0]],[[1936,2077],[0,1],[0,-1]],[[1519,1480],[45,-31]],[[3925,2888],[22,-54],[149,-20]],[[562,2490],[-11,61],[58,107]],[[1525,1567],[121,164]],[[1646,1731],[1,0]],[[1647,1731],[-1,-1],[0,1]],[[1647,1731],[203,220],[110,2],[-24,124]],[[2003,2129],[-20,-40],[-47,-12]],[[2052,2196],[-48,-66]],[[2004,2130],[0,-1],[-1,0],[0,1],[1,0]],[[2136,2353],[-83,-156]],[[2876,2588],[-330,-7],[-409,-228]],[[2923,2539],[-47,49]],[[2876,2588],[47,-48]],[[2924,2540],[1,-1]],[[2925,2539],[-1,0]],[[3245,2577],[-320,-38]],[[3615,2585],[-95,-39],[-266,57],[-7,-23]],[[3668,2644],[-51,-57]],[[3920,2886],[-57,-19],[-115,-175],[-80,-47]],[[4096,3300],[-62,-20],[-95,-210],[-16,-180]],[[2137,2353],[-1,0],[1,0]],[[2923,2540],[1,-1],[-1,0],[0,1]],[[1117,1584],[-50,112]],[[1067,1696],[-1,2],[-80,28]],[[986,1726],[-6,2]],[[980,1728],[6,-2]],[[986,1726],[81,-30]],[[1067,1696],[2,-1],[48,-110]],[[1268,1471],[-5,23]],[[1187,1656],[4,9]],[[1191,1665],[11,25]],[[1189,1658],[2,7]],[[1191,1665],[4,15]],[[1193,1478],[174,-197],[-1,-29],[-50,-20],[43,-93],[148,-103]],[[1514,1033],[19,1]],[[1212,1639],[20,38]],[[1233,1677],[-16,-30]],[[1127,1624],[-25,0]],[[1257,1433],[-7,-6]],[[1297,1478],[21,-11]],[[1166,1995],[3,39]],[[1598,3873],[-104,223]],[[781,2110],[-27,30]],[[1111,2303],[-2,42],[3,38],[-3,1],[3,0]],[[1112,2384]],[[1112,2384]],[[1112,2385],[59,341]],[[1113,2383],[3,-82]],[[2731,836],[11,-3]],[[2742,833],[6,-2]],[[2742,833]],[[2742,833]],[[2964,782],[-86,21]],[[3247,2578]],[[3923,2888],[-1,-1]],[[1112,2384]],[[1112,2384],[1,-1],[-1,0],[0,1]],[[1112,2384]],[[973,1731],[-134,25]],[[1180,1381],[70,46]],[[1257,1433],[11,38]],[[875,755],[-101,-16]],[[1483,1011],[-68,-38],[4,-34],[-47,-33],[-8,-48],[-16,19],[-70,-15],[-142,-91],[-176,-46],[-83,29]],[[3248,2599],[37,179],[117,184]],[[3418,2975],[82,78]],[[3541,3095],[26,15]],[[3574,3118],[18,16]],[[3599,3136],[11,9]],[[3610,3145],[10,11]],[[1153,1582],[-7,37]],[[1150,1607],[3,-25]],[[1115,1590],[1,1]],[[1054,2073],[63,16],[52,-53]],[[1086,1655],[-1,-1]],[[1099,1629]],[[1102,1624],[26,0]],[[1118,1648],[-2,21]],[[1117,1587],[59,-18]],[[1117,1648],[1,2]],[[1176,1568],[-59,16]],[[1136,1647],[-18,0]],[[1118,1648],[17,2]],[[1145,1620],[-17,3]],[[1128,1624],[17,-4]],[[1133,1664],[-3,2]],[[1131,1667],[2,2]],[[1133,1667],[3,34],[13,6]],[[1149,1707],[11,4]],[[1136,1647],[-3,19]],[[1160,1710],[-27,-43]],[[1133,1666],[3,-17]],[[1136,1649],[10,-28]],[[1136,1647],[9,-26]],[[1146,1620],[4,-13]],[[1163,1728],[-14,-21]],[[1149,1707],[-1,-3]],[[1177,1610],[0,1]],[[1177,1611],[-5,2]],[[1172,1613],[-1,0]],[[1171,1613],[-18,9]],[[1153,1593],[8,2]],[[1161,1595],[-8,-2]],[[1188,1617],[-12,-3]],[[1176,1614]],[[1176,1614],[-4,-1]],[[1172,1613],[-12,-3]],[[1163,1730],[-1,-11],[-1,-2]],[[1161,1717],[-1,-7]],[[1160,1710],[2,-3]],[[1162,1707],[7,-19]],[[1177,1581],[-16,14]],[[1161,1595],[16,-14]],[[1162,1643],[0,64]],[[1162,1707],[-1,10]],[[1161,1717],[0,2],[2,10]],[[1169,1688],[-6,-41]],[[1163,1647]],[[1163,1647],[-1,-4]],[[1176,1616],[0,1]],[[1176,1617],[-8,13],[0,1],[-6,11]],[[1162,1642],[5,-10]],[[1167,1632],[1,-1]],[[1168,1630]],[[1168,1630],[0,2]],[[1168,1632]],[[1168,1632],[-5,15]],[[1163,1647],[0,1]],[[1163,1648],[0,-1]],[[1163,1647],[8,-15]],[[1171,1632],[2,-3]],[[1173,1629],[7,-11]],[[1164,1612],[7,1]],[[1171,1613],[5,2]],[[1176,1615]],[[1176,1615],[12,2]],[[1167,1632]],[[1167,1632],[1,0]],[[1168,1632],[2,2]],[[1172,1633],[-1,-1]],[[1171,1632],[-3,0]],[[1168,1632],[0,-1]],[[1168,1631],[0,-1]],[[1168,1630],[8,-13]],[[1169,1688],[39,4]],[[1208,1692],[-4,-2],[-35,-2]],[[1230,1672],[1,5],[-4,1]],[[1227,1678],[-1,0],[-9,1],[-8,-1],[-1,-1],[0,-1]],[[1208,1676],[-12,-22],[0,-2],[-23,-23]],[[1173,1629],[-2,-3]],[[1172,1633],[-1,1]],[[1171,1637],[2,3]],[[1173,1640],[1,4],[1,0]],[[1175,1644],[4,4]],[[1179,1648],[8,8]],[[1172,1492],[10,14]],[[1172,1492],[9,-111]],[[1172,1639],[1,1]],[[1173,1640],[1,1],[0,1],[1,2]],[[1175,1644],[0,1],[4,3]],[[1179,1648],[8,8],[1,1]],[[1188,1657]],[[1188,1657],[1,1]],[[1231,1686],[-2,-8],[-2,0]],[[1227,1678],[-19,-2]],[[1208,1676],[-2,0],[-1,-1]],[[1205,1675]],[[1205,1675],[-1,-2],[-8,-16],[0,-2],[-1,-1]],[[1195,1654],[0,-1]],[[1195,1653],[0,-1],[-23,-19]],[[1175,1617],[1,0]],[[1176,1617],[0,-1]],[[1176,1616]],[[1176,1616]],[[1176,1616],[0,-1]],[[1176,1615]],[[1176,1615],[0,-1]],[[1176,1614],[1,-4]],[[1180,1581],[-3,30]],[[1177,1611],[-1,3]],[[1176,1614],[0,1]],[[1176,1615]],[[1176,1615],[0,1]],[[1176,1616]],[[1176,1616]],[[1176,1616],[0,1]],[[1176,1617],[0,-1]],[[1176,1616]],[[1176,1616]],[[1176,1616]],[[1177,1551],[3,5]],[[1177,1579],[0,2]],[[1179,1580],[-2,1]],[[1177,1581]],[[1180,1556],[-3,-5]],[[1180,1581],[0,-1]],[[1180,1580],[-3,-1]],[[1177,1581]],[[1177,1581],[0,-2]],[[1177,1579],[-1,-9]],[[1176,1570],[4,-13]],[[1177,1581],[3,0]],[[1179,1557],[-3,13]],[[1176,1570],[4,10]],[[1180,1580],[0,1]],[[1180,1581]],[[1184,1557],[-3,-1]],[[1195,1579],[-14,2]],[[1181,1557],[13,0]],[[1181,1581],[14,-1]],[[1190,1507],[-8,-1]],[[1188,1657]],[[1188,1657],[1,-1],[5,-2],[1,-1]],[[1195,1653],[1,0]],[[1196,1654],[-1,0]],[[1195,1654],[-1,0],[-5,3],[-1,0]],[[1188,1657]],[[1196,1549],[0,-8],[0,-6]],[[1196,1535],[0,-1]],[[1196,1534],[0,-5],[-6,-22]],[[1199,1505],[-9,2]],[[1195,1680],[4,-1],[2,3],[2,6]],[[1203,1688]],[[1195,1573],[0,-15]],[[1196,1550],[-1,7]],[[1195,1579],[0,-6]],[[1195,1573],[0,6]],[[1195,1579],[0,1]],[[1195,1579]],[[1195,1580]],[[1195,1580],[0,-1]],[[1215,1573],[-20,6]],[[1195,1580],[20,-7]],[[1196,1549],[4,-8]],[[1200,1665],[-2,-3]],[[1201,1669],[-2,-5]],[[1200,1534],[-4,0]],[[1196,1534],[-15,1],[-15,2],[30,-2]],[[1196,1535],[4,-1]],[[1200,1534],[0,6]],[[1225,1514],[-25,20]],[[1205,1674],[0,1]],[[1205,1675],[-4,4],[-1,1]],[[1206,1674],[-1,1]],[[1205,1675],[-5,5]],[[1202,1687],[0,1]],[[1248,1573],[0,2]],[[1248,1575],[-1,10],[-1,2],[-5,14]],[[1241,1601],[-1,1]],[[1240,1602],[-3,10],[-35,8]],[[1202,1688],[1,0]],[[1203,1688],[5,3],[1,1],[6,1],[3,0],[14,-7]],[[1232,1686],[2,-1]],[[1203,1620],[34,-8]],[[1210,1635],[1,0]],[[1243,1602],[-2,-1]],[[1241,1601]],[[1241,1601],[-12,-4],[-14,-24]],[[1215,1573],[13,-26]],[[1215,1574],[8,14],[6,9],[11,5]],[[1240,1602],[1,0]],[[1241,1602]],[[1241,1602],[2,1]],[[1218,1650]],[[1219,1689],[13,-3]],[[1232,1686],[4,-1]],[[1236,1685]],[[1236,1685],[1,0]],[[1221,1688],[2,-1]],[[1221,1656]],[[1235,1861],[-10,-17]],[[1265,1493],[-2,1]],[[1263,1494],[-3,2]],[[1260,1496],[-10,5]],[[1250,1501],[-2,1]],[[1248,1502]],[[1248,1502],[-1,0]],[[1247,1502]],[[1247,1502],[-22,12]],[[1230,1513],[-5,1]],[[1227,1459],[21,-33]],[[1233,1679],[1,2]],[[1234,1681],[2,3],[0,1]],[[1236,1685],[1,0],[1,3],[2,8],[0,1]],[[1240,1697],[0,13],[0,8],[-5,48],[-2,6],[-4,29]],[[1229,1801],[-2,9]],[[1228,1861],[55,11]],[[1228,1808],[1,-7]],[[1229,1801],[5,-28],[0,-4],[6,-51],[1,-20],[-1,-1]],[[1240,1697],[-4,-12]],[[1236,1685],[-2,-4]],[[1234,1681],[-1,-2]],[[1235,1861],[-7,-3]],[[1232,1675],[-2,2]],[[1231,1512],[6,-3]],[[1237,1509],[10,-5]],[[1247,1504],[0,-1]],[[1247,1503],[1,0]],[[1248,1503]],[[1248,1503],[2,-1]],[[1250,1502],[14,-7]],[[1264,1495],[0,-1]],[[1264,1494],[1,0]],[[1265,1494]],[[1234,1770]],[[1283,1872],[-48,-11]],[[1266,1441],[-30,53]],[[1236,1509],[1,0]],[[1237,1509],[6,4]],[[1237,1612],[4,-10]],[[1241,1602],[0,-1]],[[1241,1601],[5,-13]],[[1237,1612],[5,-8]],[[1240,1726]],[[1241,1602]],[[1241,1602],[-2,6],[3,-4]],[[1242,1604],[4,-16]],[[1243,1512],[4,-8]],[[1247,1504],[0,-1]],[[1247,1503],[0,-1]],[[1247,1502],[1,-1]],[[1248,1501]],[[1246,1588],[2,-4],[0,-9]],[[1248,1575],[0,-14],[1,-51],[0,-2],[1,-6]],[[1250,1502],[0,-1]],[[1250,1501],[0,-1]],[[1247,1502]],[[1247,1502],[0,1]],[[1247,1503]],[[1247,1503],[2,6]],[[1248,1503]],[[1248,1503]],[[1248,1503],[0,-1]],[[1248,1502],[1,-1]],[[1248,1431],[10,9]],[[1260,1495],[-5,2]],[[1255,1497],[-7,4]],[[1248,1501],[0,1]],[[1248,1502],[0,1]],[[1248,1503]],[[1248,1503],[1,5]],[[1252,1498],[3,-1]],[[1255,1497],[5,-1]],[[1260,1496],[4,-1]],[[1264,1495],[1,-1]],[[1265,1494]],[[1265,1494]],[[1265,1494],[1,-2],[1,-12]],[[1264,1439],[-5,4]],[[1266,1480],[-4,14]],[[1263,1494]],[[1263,1494],[1,0]],[[1264,1494],[1,0]],[[1265,1494],[20,1],[1,-1]],[[1264,1494],[1,0]],[[1265,1494],[1,-1]],[[1283,1872],[64,15]],[[1491,1043],[6,11]],[[3418,716],[-60,19]],[[3472,702],[-13,5]],[[3700,1860],[-45,46]],[[3725,1881],[-1,-7]],[[3726,1881],[2,18]],[[3741,1898],[-12,2]],[[3738,1944],[-1,-38]],[[3738,1945],[0,1]],[[3738,1944]],[[3738,1944]],[[3741,1972],[-3,-26]],[[3738,1946],[1,-1]],[[1117,1648],[1,0],[1,-1],[-1,0],[-1,1]],[[1128,1623],[0,1],[0,-1]],[[1146,1621],[0,-1]],[[1146,1620],[-1,-1],[0,1],[1,1]],[[1161,1595]],[[1162,1643],[1,-1],[-1,0],[0,1]],[[1180,1557],[1,-1]],[[1181,1556],[-1,0],[0,1]],[[1180,1581],[1,0],[-1,0]],[[1180,1581]],[[1194,1557],[0,1],[1,0],[0,-1],[-1,0]],[[1195,1549],[1,1],[0,-1],[-1,0]],[[1200,1540],[0,1]],[[1200,1541],[1,-1],[-1,0]],[[3724,1873],[0,1],[1,-1],[-1,0]],[[3728,1899],[1,1],[0,-1],[-1,0]],[[3735,1876],[1,0],[-1,0]],[[3738,1945],[1,0],[-1,-1],[0,1]],[[1533,1034],[123,4],[39,-21],[33,-513],[74,-269],[57,-71],[41,-141],[-17,-23]],[[1507,1036],[7,-3]],[[722,656],[117,53],[-15,-25],[-98,-27],[-84,-89]],[[1883,0],[17,23],[-41,141],[-57,71],[-74,269],[-33,513],[-39,21],[-122,-9]],[[2152,1662],[-40,17]],[[1534,1029],[-198,138],[-20,65],[42,18],[9,31],[-174,197]],[[672,2135],[82,5],[28,-31],[14,-91],[-48,-94],[2,-84]],[[2214,3636],[-10,-153],[107,-254]],[[696,2569],[103,-310],[-13,-40]],[[3686,1718],[15,133]],[[3741,1878],[7,2]],[[3749,1880],[166,50]],[[3748,1880],[1,0],[-1,-1],[0,1]],[[333,436],[-55,-18]],[[369,494],[-19,-54]],[[453,514],[49,19]],[[1092,1647],[-1,0]],[[1091,1647],[-2,0]],[[1090,1647],[2,0]],[[1090,1646],[1,1]],[[1091,1647],[1,0]],[[1092,1647],[-1,-1]],[[1092,1647],[25,1]],[[1117,1648],[-25,-1]],[[1171,4096],[-60,-202],[11,-203],[-33,-188],[152,-472],[6,-93],[-76,-212]],[[1377,1280],[-78,104],[-44,46]],[[1324,1346],[64,-100],[68,-28]],[[562,2490],[-20,-87],[76,-280]],[[874,335],[-113,16],[-26,103],[-74,97]],[[728,1813],[21,7]],[[773,2041],[-4,0]],[[773,739],[0,-1]],[[786,2035],[2,0]],[[836,716],[-3,28]],[[836,716],[1,0],[-1,-1],[0,1]],[[1029,0],[-27,184],[-73,92],[-39,0],[-14,57]],[[1000,1369],[-99,64]],[[1043,2384],[66,-39]],[[1347,1887],[34,8]],[[1381,1895],[7,2],[4,1],[26,1],[78,-1],[28,-1],[51,-7]],[[1598,3874],[-246,-5]],[[1359,857],[-1,-55]],[[1575,1890],[-79,8],[-78,0],[-26,-1],[-4,0],[-7,-2]],[[1381,1895],[-7,-1]],[[1483,1011],[8,32]],[[1599,3873],[-1,0]],[[1846,3728]],[[1846,3728],[-60,67],[-107,6],[-81,72]],[[1845,3728],[1,0]],[[1846,3728],[18,5],[46,11]],[[2475,30],[-263,3],[-132,39],[-51,-15],[-41,-57]],[[2122,3765],[57,19]],[[2179,3784],[3,38]],[[2182,3822],[0,4],[64,85],[-52,113],[-4,72]],[[2179,3784],[0,-75],[35,-73]],[[2181,3822],[1,0]],[[2182,3822],[65,11],[43,-38],[191,37],[68,67],[239,48]],[[2311,3229],[83,-42],[132,-133],[201,-343],[136,-118]],[[2405,3177],[144,-6],[68,-47],[236,-46]],[[2477,0],[-2,30]],[[2475,30],[265,-15],[307,78]],[[2828,2058],[25,-148]],[[3238,2320],[-30,-2]],[[3235,2342],[4,-30]],[[3253,2642],[4,24]],[[3655,1906],[-157,128],[-112,53],[-81,-35]],[[3358,735],[-49,16]],[[3327,775],[17,-4]],[[3402,2962],[16,13]],[[3411,568],[9,-5]],[[3420,563],[-7,4]],[[3415,573],[0,-6]],[[3560,550],[-29,130],[-59,22]],[[3500,3053],[41,42]],[[3560,550],[30,86]],[[3607,443],[-47,107]],[[3567,3110],[7,8]],[[3592,3134],[7,2]],[[3610,3145]],[[3610,3178]],[[3635,3250],[-1,-1]],[[3792,1892],[-51,6]],[[3743,1988],[0,-1]],[[3743,1987],[-2,-15]],[[3742,1987],[1,0]],[[3743,1987],[1,0]],[[3744,1988],[18,68],[42,5],[12,55],[82,83],[30,73],[80,23],[24,46],[64,6]],[[3744,1987],[1,3]],[[3924,1135],[31,-208],[-54,-106]],[[3901,821],[-1,-1],[-56,-12]],[[3876,799],[-42,-14],[-49,41],[-99,-128],[46,-151],[118,-159],[-24,-67],[27,-92],[222,-71],[21,10]],[[3901,821]],[[3901,821],[154,-48],[41,1]],[[3914,1929],[0,1]],[[3922,1169],[2,-33]],[[3988,4080],[35,16]],[[3743,1987],[1,1]],[[3744,1988],[0,-1],[-1,0]],[[1839,3725],[6,3]],[[1910,3744],[182,-7],[30,28]],[[3889,1817],[18,66]],[[3889,1815],[0,2]],[[4096,1111],[-7,10],[-114,52],[-76,6],[-54,71],[-64,27],[3,42],[-105,164],[23,119],[-16,116],[162,97],[41,0]],[[3911,1891],[-4,-8]],[[3911,1891],[4,39],[150,-87],[31,0]],[[0,2006],[83,32],[44,77],[68,15],[179,33],[217,-41],[81,13]],[[778,1762],[60,-5]],[[1301,1475],[-36,18]],[[1225,1844],[2,-34]],[[1227,1810],[1,-2]],[[1227,1810]],[[1227,1810],[-1,27],[2,24]],[[1100,1647],[0,1]],[[1107,1647],[0,1]],[[1117,1670],[3,-1]],[[1120,1668],[-3,-1]],[[1120,1668],[0,1]],[[1133,1666],[-13,2]],[[1120,1669],[13,-2]],[[1148,1704],[15,24]],[[1169,2034],[-4,3]],[[1133,1666],[0,1],[1,-1],[-1,0]],[[1169,2034],[-58,269]],[[1116,2301],[53,-265],[-3,-63]],[[1148,1704],[-3,-2]],[[1145,1703],[3,1]],[[1163,1728],[13,91],[2,1]],[[1178,1820],[42,28],[5,13],[-4,8]],[[1221,1869],[-31,71]],[[1190,1940],[33,-69],[-2,-2]],[[1221,1869],[-43,-49]],[[1178,1820],[-1,-1],[-14,-91]],[[1166,1995],[0,-22]],[[1166,1537],[46,-5]],[[1189,1941],[-23,32]],[[1166,1973],[24,-32]],[[1212,1532],[68,-46]],[[1301,1475],[-41,20],[-48,37]],[[1280,1486],[14,-7]],[[1280,1486],[17,-8]],[[1166,1973]],[[1166,1973]],[[1189,1941],[1,0],[0,-1],[-1,0],[0,1]],[[786,2219],[91,-6],[66,-98]],[[0,452],[278,-34]],[[369,494],[84,20]],[[502,533],[22,16]],[[737,741],[34,-2]],[[773,742],[65,168]],[[840,912],[50,167],[118,180]],[[1010,1266],[3,10]],[[1015,1284],[16,48],[102,11],[47,38]],[[1167,2288],[138,-87]],[[3047,93],[292,273]],[[3340,367],[-1,-1]],[[3339,366],[1,1]],[[3340,367],[3,5]],[[3343,372],[-3,-5]],[[3343,372],[72,193]],[[3415,565],[-1,1]],[[3415,566],[0,-1]],[[3340,367]],[[3430,650],[10,48]],[[3714,1872],[-16,1]],[[3724,1873],[-9,-1]],[[3725,1873],[10,3]],[[3247,2577],[-36,-288],[38,-9],[39,-192],[87,-125],[-29,-199],[-147,-127],[-61,-95],[-308,-234],[-3,-78],[117,-120],[122,-51],[191,-302]],[[1497,1054],[-89,107],[-20,85]],[[750,1840],[28,-78]],[[1664,1328],[74,-76]],[[838,1757],[135,-26]],[[3698,1873],[3,-22]],[[3736,1876],[5,2]],[[1203,1620],[9,19]],[[1217,1647],[-14,-27]],[[1519,1480],[-23,61],[29,26]],[[1232,1677],[1,2]],[[1233,1679],[0,-2]],[[943,2115],[111,-42]],[[1301,1475],[99,-34],[119,39]],[[54,0],[-19,139],[-35,44]],[[0,367],[0,13]],[[3414,567],[16,83]],[[2824,1263],[72,424],[-15,171],[-28,52]],[[1109,2384],[-84,9],[-35,37],[-215,83],[-214,189],[-205,22],[-296,135],[-11,114],[-49,33]],[[753,2141],[33,78]],[[1564,1449],[95,-118]],[[1740,1250],[54,-102],[155,-172]],[[1952,973],[-3,3]],[[1952,973],[73,-54],[48,3]],[[2081,923],[-8,-1]],[[2081,923],[193,-1]],[[2274,922],[137,13],[99,-57]],[[2510,878],[-138,43],[-98,1]],[[2510,878],[64,-35],[157,-7],[351,-71]],[[3082,765],[168,-8]],[[3250,757],[59,-6],[58,-157],[31,-19]],[[3423,561],[-25,14]],[[3423,561],[108,-27],[206,-288],[78,-224],[3,-22]],[[3810,38],[-37,96]],[[526,550],[123,29],[73,77],[15,85]],[[3239,2312],[10,-32]],[[3610,3178],[3,-20]],[[3634,3249],[-24,-71]],[[1268,1471],[-2,22],[31,-15]],[[3985,4096],[4,-238],[87,-106],[20,-70]],[[1659,1331],[5,-3]],[[1738,1252],[2,-2]],[[2003,2129],[-1,-2]],[[2004,2131],[-1,-1]],[[3617,2587],[-2,-2]],[[3668,2645],[0,-1]],[[1176,1616],[5,-35]],[[1109,2345],[45,-16],[13,-41]],[[1305,2201],[267,-309]],[[1601,1899],[-29,-7]],[[1601,1899],[31,-2],[24,-164]],[[876,333],[-2,2]],[[3418,716],[41,-9]],[[1571,346],[112,-84],[24,-70],[-106,78],[-59,24],[-15,-36],[-53,-26],[-55,15],[-54,41],[-91,96],[-31,45],[9,29],[75,-1],[106,-37],[138,-74]],[[4096,4096],[0,-4096],[-2168,0],[10,24],[-12,60],[18,0],[-48,104],[-2,42],[32,28],[-10,3],[-9,0],[-5,4],[2,17],[-74,-27],[-49,67],[-28,96],[-8,59],[3,187],[25,73],[72,45],[169,-1],[69,38],[2,117],[-14,43],[-16,19],[-28,3],[-52,-2],[-8,-13],[26,-29],[52,-43],[-20,-65],[-51,30],[-32,3],[-56,-33],[-74,-25],[-42,-28],[-13,11],[-44,126],[11,90],[47,74],[74,35],[-18,22],[-6,-14],[0,-3],[-3,-1],[-13,-4],[-22,30],[-49,-5],[-106,-45],[16,-45],[-15,-27],[-35,-13],[-46,-4],[-49,4],[-38,13],[-74,48],[24,-49],[41,-33],[48,-18],[48,-9],[108,-4],[24,-25],[6,-286],[-8,-35],[-23,-19],[-24,-46],[-18,-56],[-5,-51],[-98,43],[-571,111],[-111,42],[-99,66],[-3,-37],[28,-35],[378,-230],[45,-38],[27,-39],[18,-40],[26,-30],[92,-20],[81,-41],[46,-17],[191,-21],[24,-21],[85,-131],[4,-19],[-1771,0],[0,4096],[4096,0]],[[3378,816],[7,-27],[46,23],[37,-55],[5,-68],[-23,-42],[-59,7],[-30,38],[-8,133],[25,-9]],[[1062,2315],[155,-39],[33,35],[32,-35],[33,-107],[-27,-19],[-6,-51],[97,-177],[-64,-71],[97,-71],[32,-71],[32,0],[0,-71],[97,-141],[-32,-177],[7,-147],[-7,-30],[-32,0],[26,-119],[-148,64],[-8,-16],[0,35],[-33,0],[-32,71],[-32,0],[-32,71],[-33,0],[0,71],[-65,106],[-129,35],[-32,71],[-162,106],[32,71],[-71,148],[6,65],[57,8],[73,-79],[26,13],[6,164],[-32,35],[57,170],[-57,43],[61,41],[75,-2]],[[3645,2046],[97,-18],[-1,-159],[-32,-18],[-42,-1],[-23,107],[-73,95],[8,47],[66,-53]],[[3320,1249],[65,163],[123,-35],[-12,-81],[-176,-47]]]}