{"objects":{"water":{"type":"GeometryCollection","geometries":[{"type":"Polygon","properties":{"source":"naturalearthdata.com","kind":"ocean","area":1576712559132672,"sort_rank":200,"min_zoom":0.0,"id":1},"arcs":[[2]]},{"type":"LineString","properties":{"source":"naturalearthdata.com","kind":"ocean","sort_rank":205,"boundary":true,"min_zoom":0.0,"id":79},"arcs":[3]},{"type":"MultiLineString","properties":{"source":"naturalearthdata.com","kind":"ocean","sort_rank":205,"boundary":true,"min_zoom":0.0,"id":1571},"arcs":[[4],[5]]},{"type":"LineString","properties":{"source":"naturalearthdata.com","kind":"ocean","sort_rank":205,"boundary":true,"min_zoom":0.0,"id":1572},"arcs":[6]},{"type":"LineString","properties":{"source":"naturalearthdata.com","kind":"ocean","sort_rank":205,"boundary":true,"min_zoom":0.0,"id":1574},"arcs":[7]}]},"buildings":{"type":"GeometryCollection","geometries":[]},"places":{"type":"GeometryCollection","geometries":[]},"transit":{"type":"GeometryCollection","geometries":[]},"pois":{"type":"GeometryCollection","geometries":[]},"boundaries":{"type":"GeometryCollection","geometries":[{"type":"LineString","properties":{"name:kg":"Bangladesh","name:ka":"\u10d1\u10d0\u10dc\u10d2\u10da\u10d0\u10d3\u10d4\u10e8\u10d8","name:tr":"Banglade\u015f","name:kn":"\u0cac\u0cbe\u0c82\u0c97\u0ccd\u0cb2\u0cbe\u0ca6\u0cc7\u0cb6","name:km":"\u1794\u1784\u17cb\u1780\u17d2\u179b\u17b6\u178a\u17c2\u179f\u17d2\u179f","name:kl":"Bangladesh","name:kk":"\u0411\u0430\u043d\u0433\u043b\u0430\u0434\u0435\u0448","name:tt":"\u0411\u0430\u043d\u0433\u043b\u0430\u0434\u0435\u0448","name:kw":"Bangladesh","name:tk":"Banglade\u015f","name:th":"\u0e1a\u0e31\u0e07\u0e01\u0e25\u0e32\u0e40\u0e17\u0e28","name:ti":"\u1263\u1295\u130d\u120b\u12f2\u123d","name:ks":"\u0628\u064e\u0646\u065b\u06af\u0644\u0627\u062f\u06cc\u0634","name:to":"Pengil\u0101tesi","name:tl":"Bangglades","name:ce":"\u0411\u0430\u043d\u0433\u043b\u0430\u0434\u0435\u0448","name:ta":"\u0bb5\u0b99\u0bcd\u0b95\u0bbe\u0bb3\u0ba4\u0bcd\u0ba4\u0bc7\u0b9a\u0bae\u0bcd","name:tg":"\u0411\u0430\u043d\u0433\u043b\u0430\u0434\u0435\u0448","name:ky":"\u0411\u0430\u04a3\u0433\u043b\u0430\u0434\u0435\u0448","name:te":"\u0c2c\u0c02\u0c17\u0c4d\u0c32\u0c3e\u0c26\u0c47\u0c36\u0c4d","alt_name:ln":"B\u00e1nglad\u025b\u0301sh","name:cy":"Bangladesh","old_name:pl":"Pakistan Wschodni","name:qu":"Banladish","name:da":"Bangladesh","old_name:is":"Austur-Pakistan","name:de":"Bangladesch","old_name:io":"Estala Pakistan","source":"openstreetmap.org","name:cv":"\u0411\u0430\u043d\u0433\u043b\u0430\u0434\u0435\u0448","old_name:id":"Pakistan Timur","name:dv":"\u0784\u07a6\u0782\u07b0\u078e\u07a7\u0785\u07aa","old_name:ia":"Pakistan Oriental","name:za":"Bangladesh","name:lv":"Banglade\u0161a","name:lt":"Banglade\u0161as","name:uz":"Bangladesh","name:cs":"Banglad\u00e9\u0161","old_name:az":"\u015e\u0259rqi Pakistan","name:ur":"\u0628\u0646\u06af\u0644\u06c1 \u062f\u06cc\u0634","name:lb":"Bangladesch","name:la":"Bangladesha","name:ki":"Bangladesh","name:uk":"\u0411\u0430\u043d\u0433\u043b\u0430\u0434\u0435\u0301\u0448","old_name:an":"Pakist\u00e1n Oriental","name:ug":"\u0628\u0627\u0646\u06af\u0644\u0627\u062f\u06d0\u0634","name:li":"Bangladesj","name:ln":"B\u00e1ngalad\u025b\u0301si","name:lo":"\u0e9a\u0eb1\u0e87\u0e81\u0eb0\u0ea5\u0eb2\u0ec0\u0e97\u0e94","name:el":"\u039c\u03c0\u03b1\u03bd\u03b3\u03ba\u03bb\u03b1\u03bd\u03c4\u03ad\u03c2","name:eo":"Banglade\u015do","name:en":"Bangladesh","name":"\u09ac\u09be\u0982\u09b2\u09be\u09a6\u09c7\u09b6","name:kv":"\u0411\u0430\u043d\u0433\u043b\u0430\u0434\u0435\u0448","name:ku":"Bengalistan","old_name:nn":"Aust-Pakistan","old_name:no":"\u00d8st-Pakistan","old_name:nl":"Oost-Pakistan","name:eu":"Bangladesh","name:et":"Bangladesh","name:es":"Banglad\u00e9s","name:ia":"Bangladesh","name:rm":"Bangladesch","name:rn":"Bangaladeshi","name:az":"Banqlade\u015f","name:ie":"Bangladesh","name:id":"Bangladesh","name:ar":"\u0628\u0646\u063a\u0644\u0627\u062f\u064a\u0634","name:io":"Bangladesh","name:ak":"Banglad\u025bhye","name:am":"\u1263\u1295\u130d\u120b\u12f4\u123d","name:it":"Bangladesh","name:co":"Bangladesh","name:an":"Bangladesh","name:ru":"\u0411\u0430\u043d\u0433\u043b\u0430\u0434\u0435\u0301\u0448","name:rw":"Bangaladeshi","name:pl":"Bangladesz","name:af":"Bangladesj","name:zu":"Bangladesh","old_name:ca":"Pakistan Oriental","kind_detail":"2","name:hr":"Banglade\u0161","old_name:cy":"Dwyrain Pacistan","old_name:ro":"Pakistanul de Est","old_name":"\u09aa\u09c2\u09b0\u09cd\u09ac \u09aa\u09be\u0995\u09bf\u09b8\u09cd\u09a4\u09be\u09a8","name:ca":"Bangla Desh","name:zh-yue":"\u5b5f\u52a0\u62c9\u570b","old_name:cs":"V\u00fdchodn\u00ed P\u00e1kist\u00e1n","alt_name:ro":"Banglade\u0219","name:zh":"\u5b5f\u52a0\u62c9\u56fd","old_name:ko":"\ub3d9\ud30c\ud0a4\uc2a4\ud0c4","name:so":"Bangladhesh","name:sn":"Bangladeshi","name:sl":"Banglade\u0161","name:sk":"Banglad\u00e9\u0161","name:ja":"\u30d0\u30f3\u30b0\u30e9\u30c7\u30b7\u30e5","name:si":"\u0db6\u0d82\u0d9c\u0dbd\u0dcf\u0daf\u0dda\u0dc1\u0dba","name:sh":"Banglade\u0161","name:sg":"Benglad\u00eashi","name:se":"Bangladesh","name:sd":"\u0628\u0646\u06af\u0644\u0627\u062f\u064a\u0634","name:sa":"\u092c\u0902\u0917\u0932\u093e\u0926\u0947\u0936\u0903","name:bs":"Banglade\u0161","name:bm":"B\u025bngilad\u025bsi","name:jv":"Banglad\u00e8sh","name:bo":"\u0f56\u0fb7\u0f44\u0f0b\u0f63\u0f0b\u0f62\u0fa1\u0f7a\u0f0b\u0f64\u0f74\u0f0d","name:br":"Bangladesh","name:sw":"Bangladesh","name:be":"\u0411\u0430\u043d\u0433\u043b\u0430\u0434\u044d\u0301\u0448","name:su":"Banglad\u00e9s","name:bg":"\u0411\u0430\u043d\u0433\u043b\u0430\u0434\u0435\u0448","name:ss":"iBhangladeshi","name:sr":"\u0411\u0430\u043d\u0433\u043b\u0430\u0434\u0435\u0448","name:sq":"Bangladeshi","alt_name:sw":"Bangla Desh","old_name:sq":"Pakistanin-Lindor\u00eb","old_name:hu":"Kelet-Pakiszt\u00e1nra","old_name:su":"Pakistan W\u00e9tan","old_name:sw":"Pakistan ya Mashariki","old_name:sv":"\u00d6stpakistan","old_name:sh":"Isto\u010dni Pakistan","old_name:sk":"V\u00fdchodn\u00fd Pakistan","alt_name:so":"Bangladesh","old_name:he":"\u05de\u05d6\u05e8\u05d7 \u05e4\u05e7\u05d9\u05e1\u05d8\u05df","alt_name:ku":"Banglade\u015f","name:bi":"Bangladesh","name:pt":"Bangladeche","old_name:it":"Pakistan orientale","name:ps":"\u0628\u0646\u06ab\u0644\u0647 \u062f\u06d0\u0634","name:om":"Baangilaadish","alt_name:gl":"Banglad\u00e9s","name:oc":"Banglad\u00e8sh","alt_name:jv":"Banggalad\u00e9sa","alt_name:gd":"Bangla Dais;Bangla-deis;Bangladeis","min_zoom":8.0,"name:ro":"Bangladesh","name:ko":"\ubc29\uae00\ub77c\ub370\uc2dc","name:zh-min-nan":"Bangladesh","name:os":"\u0411\u0430\u043d\u0433\u043b\u0430\u0434\u0435\u0448","name:or":"\u0b2c\u0b19\u0b4d\u0b17\u0b33\u0b3e\u0b26\u0b47\u0b36","alt_name:pt":"Bangladexe","old_name:de":"Ostpakistan","name:pi":"\u092c\u0902\u0917\u0932\u093e\u0926\u0947\u0936","name:dz":"\u0f56\u0f44\u0f92\u0f0b\u0f63\u0f0b\u0f51\u0f7a\u0f64","sort_rank":262,"old_name:ga":"Bhain Oirthear na Pacast\u00e1ine","name:ba":"\u0411\u0430\u043d\u0433\u043b\u0430\u0434\u0435\u0301\u0448","old_name:ms":"Pakistan Timur","osm_relation":true,"name:pa":"\u0a2c\u0a70\u0a17\u0a32\u0a3e\u0a26\u0a47\u0a38\u0a3c","old_name:tr":"Do\u011fu Pakistan","name:hi":"\u092c\u093e\u0902\u0917\u094d\u0932\u093e\u0926\u0947\u0936","old_name:es":"Pakist\u00e1n Oriental","name:sv":"Bangladesh","name:he":"\u05d1\u05e0\u05d2\u05dc\u05d3\u05e9","name:ha":"Bangladash","old_name:eo":"Orientpakistano","old_name:el":"\u0391\u03bd\u03b1\u03c4\u03bf\u03bb\u03b9\u03ba\u03cc \u03a0\u03b1\u03ba\u03b9\u03c3\u03c4\u03ac\u03bd","name:ht":"Banglad\u00e8ch","name:hu":"Banglades","alt_name:qu":"Bangladesh","old_name:bn":"\u09aa\u09c2\u09b0\u09cd\u09ac \u09aa\u09be\u0995\u09bf\u09b8\u09cd\u09a4\u09be\u09a8","kind":"country","name:is":"Bangladess","name:yi":"\u05d1\u05d0\u05e0\u05d2\u05dc\u05d0\u05d3\u05e2\u05e9","alt_name:zh":"\u5b5f\u52a0\u62c9","old_name:bs":"Isto\u010dni Pakistan","name:yo":"Banglad\u1eb9\u0301sh\u00ec","old_name:fr":"Pakistan oriental","name:mt":"Bangladexx","name:ms":"Bangladesh","name:mr":"\u092c\u093e\u0902\u0917\u0932\u093e\u0926\u0947\u0936","old_name:fo":"Eysturpakistan","name:my":"\u1018\u1004\u103a\u1039\u1002\u101c\u102c\u1038\u1012\u1031\u1037\u101b\u103e\u103a\u1014\u102d\u102f\u1004\u103a\u1004\u1036","official_name":"\u0997\u09a3\u09aa\u09cd\u09b0\u099c\u09be\u09a4\u09a8\u09cd\u09a4\u09cd\u09b0\u09c0 \u09ac\u09be\u0982\u09b2\u09be\u09a6\u09c7\u09b6","int_name":"Bangladesh","name:mg":"Bangladesy","name:ve":"Bangladesh","name:ml":"\u0d2c\u0d02\u0d17\u0d4d\u0d32\u0d3e\u0d26\u0d47\u0d36\u0d4d","name:vi":"B\u0103ng-la-\u0111\u00e9t","name:mn":"\u0411\u0430\u043d\u0433\u043b\u0430\u0434\u0435\u0448","name:mi":"P\u0101karat\u0113hi","id":-184640,"name:mk":"\u0411\u0430\u043d\u0433\u043b\u0430\u0434\u0435\u0448","name:vo":"Bangladej\u00e4n","name:fa":"\u0628\u0646\u06af\u0644\u0627\u062f\u0634","old_name:fi":"It\u00e4-Pakistanin","name:ff":"Banglaadees","name:fi":"Bangladesh","old_name:vi":"\u0110\u00f4ng Pakistan","name:fo":"Bangladesj","name:fr":"Bangladesh","alt_name:es":"Bangladesh","name:fy":"Bangladesj","name:hy":"\u0532\u0561\u0576\u0563\u056c\u0561\u0564\u0565\u0577","name:nl":"Bangladesh","old_name:pt":"Paquist\u00e3o Oriental","name:nn":"Bangladesh","name:no":"Bangladesh","name:na":"Bangradet","name:ne":"\u092c\u0902\u0917\u0932\u093e\u0926\u0947\u0936","old_name:gl":"Paquist\u00e1n Oriental","name:wo":"Banglaades","name:nv":"Bik\u00e9yah","alt_name:la":"Bangladesa","name:ga":"an Bhanglaid\u00e9is","old_name:oc":"Paquistan Orientau","name:gd":"Bangladais","old_name:li":"Oos-Pakistan","old_name:da":"\u00d8stpakistan","name:gn":"Vangylad\u1ebd","name:gl":"Bangladesh","maritime_boundary":true,"old_name:lt":"Ryt\u0173 Pakistanu","name:gv":"yn Vangladesh","name:gu":"\u0aac\u0abe\u0a82\u0a97\u0acd\u0ab2\u0abe\u0aa6\u0ac7\u0ab6","name:lg":"Bangaladesi"},"arcs":[0]},{"type":"LineString","properties":{"kind":"region","name:en":"Barisal Division","name":"\u09ac\u09b0\u09bf\u09b6\u09be\u09b2 \u09ac\u09bf\u09ad\u09be\u0997","sort_rank":256,"kind_detail":"4","min_zoom":8.0,"name:de":"Division Barishal","source":"openstreetmap.org","maritime_boundary":true,"name:ru":"\u0411\u0430\u0440\u0438\u0441\u0430\u043b","name:zh":"\u5df4\u91cc\u8428\u5c14","id":-3921298,"osm_relation":true,"name:ja":"\u30d0\u30ea\u30b5\u30eb"},"arcs":[1]}]},"roads":{"type":"GeometryCollection","geometries":[{"type":"MultiLineString","properties":{"sort_rank":380,"kind_detail":"primary","min_zoom":8.0,"kind":"major_road","source":"openstreetmap.org"},"arcs":[[8],[9]]}]},"earth":{"type":"GeometryCollection","geometries":[{"type":"MultiPolygon","properties":{"sort_rank":10,"source":"naturalearthdata.com","min_zoom":0.0,"kind":"earth","area":14163835995},"arcs":[[[10]],[[11]],[[12]],[[13]]]}]},"landuse":{"type":"GeometryCollection","geometries":[{"type":"Polygon","properties":{"source":"openstreetmap.org","kind":"residential","area":12197500,"tier":2,"id":479656780,"min_zoom":8.0,"sort_rank":20},"arcs":[[14]]}]}},"type":"Topology","transform":{"translate":[90.0,20.6327842504],"scale":[0.0003433228,0.000319888]},"arcs":[[[0,3824],[171,-57],[111,-96],[156,-53],[166,6],[79,30],[76,65],[78,4],[105,-84],[208,-45],[226,54],[111,-1],[73,43],[190,-2],[121,100],[99,27],[281,-72],[205,6],[201,161],[108,186]],[[0,3824],[171,-57],[111,-96],[156,-53],[166,6],[79,30],[76,65],[78,4],[105,-84],[208,-45],[226,54],[111,-1],[73,43],[190,-2],[121,100],[99,27],[281,-72],[205,6],[201,161],[108,186]],[[99,4096],[-8,-168],[-20,-84],[35,-4],[38,-32],[25,-5],[26,13],[36,42],[28,9],[28,28],[52,127],[29,39],[-15,-32],[2,-20],[8,-17],[5,-27],[-16,-37],[-29,-29],[-17,-31],[22,-43],[-50,10],[-20,-40],[13,-52],[47,-25],[51,-10],[110,-46],[59,-10],[56,11],[40,28],[160,137],[30,42],[23,61],[27,117],[5,48],[96,0],[-7,-13],[-29,-69],[-11,-75],[0,-146],[13,-7],[27,18],[27,33],[70,245],[8,14],[80,0],[-5,-13],[1,-54],[23,-46],[38,-20],[48,23],[67,79],[52,31],[155,0],[-12,-13],[-12,-22],[-7,-33],[4,-28],[1,-25],[-19,-20],[22,-15],[14,-16],[25,-35],[-23,-4],[-37,-13],[-21,-5],[0,-23],[51,-3],[57,45],[48,68],[24,63],[21,0],[24,-16],[29,70],[46,12],[-5,13],[2334,0],[0,-4096],[-4096,0],[0,4096],[99,0]],[[99,4096],[-8,-168],[-20,-84],[35,-4],[38,-32],[25,-5],[26,13],[36,42],[28,9],[28,28],[52,127],[29,39],[-15,-32],[2,-20],[8,-17],[5,-27],[-16,-37],[-29,-29],[-17,-31],[22,-43],[-50,10],[-20,-40],[13,-52],[47,-25],[51,-10],[110,-46],[59,-10],[56,11],[40,28],[160,137],[30,42],[23,61],[27,117],[5,48]],[[968,4083],[-29,-69],[-11,-75],[0,-146],[13,-7],[27,18],[27,33],[70,245],[8,14]],[[975,4096],[-7,-13]],[[1153,4096],[-5,-13],[1,-54],[23,-46],[38,-20],[48,23],[67,79],[52,31]],[[1532,4096],[-12,-13],[-12,-22],[-7,-33],[4,-28],[1,-25],[-19,-20],[22,-15],[14,-16],[25,-35],[-23,-4],[-37,-13],[-21,-5],[0,-23],[51,-3],[57,45],[48,68],[24,63],[21,0],[24,-16],[29,70],[46,12],[-5,13]],[[364,3826],[-1,-3]],[[410,3955],[92,141]],[[879,4096],[-5,-48],[-27,-117],[-23,-61],[-30,-42],[-160,-137],[-40,-28],[-56,-11],[-59,10],[-110,46],[-51,10],[-47,25],[-13,52],[20,40],[50,-10],[-22,43],[17,31],[29,29],[16,37],[-5,27],[-8,17],[-2,20],[15,32],[-29,-39],[-52,-127],[-28,-28],[-28,-9],[-36,-42],[-26,-13],[-25,5],[-38,32],[-35,4],[20,84],[8,168],[780,0]],[[968,3804],[-27,-18],[-13,7],[0,146],[11,75],[29,69],[7,13],[98,0],[-8,-14],[-70,-245],[-27,-33]],[[1721,4071],[-29,-70],[-24,16],[-21,0],[-24,-63],[-48,-68],[-57,-45],[-51,3],[0,23],[21,5],[37,13],[23,4],[-25,35],[-14,16],[-22,15],[19,20],[-1,25],[-4,28],[7,33],[12,22],[12,13],[230,0],[5,-13],[-46,-12]],[[1258,3986],[-48,-23],[-38,20],[-23,46],[-1,54],[5,13],[224,0],[-52,-31],[-67,-79]],[[75,3987],[10,109],[65,0],[-13,-90],[-30,-30],[-32,11]]]}