{"objects":{"water":{"type":"GeometryCollection","geometries":[{"type":"MultiPolygon","properties":{"source":"naturalearthdata.com","kind":"ocean","area":1576712559132672,"sort_rank":200,"min_zoom":0.0,"id":1},"arcs":[[[0]],[[1]],[[2]]]},{"type":"MultiLineString","properties":{"source":"naturalearthdata.com","kind":"ocean","sort_rank":205,"boundary":true,"min_zoom":0.0,"id":1906},"arcs":[[3],[4],[5]]}]},"buildings":{"type":"GeometryCollection","geometries":[]},"places":{"type":"GeometryCollection","geometries":[]},"transit":{"type":"GeometryCollection","geometries":[]},"pois":{"type":"GeometryCollection","geometries":[]},"boundaries":{"type":"GeometryCollection","geometries":[]},"roads":{"type":"GeometryCollection","geometries":[]},"earth":{"type":"GeometryCollection","geometries":[{"type":"Polygon","properties":{"sort_rank":10,"source":"naturalearthdata.com","kind":"earth","min_zoom":0.0,"id":4929},"arcs":[[6]]},{"type":"Point","properties":{"label_placement":true,"name:nl":"Schmidt","name:ja":"\u30b7\u30e5\u30df\u30c3\u30c8\u5cf6","name:nn":"Schmidt\u00f8ya","name:tr":"Schmidt Adas\u0131","name:cs":"\u0160midt\u016fv ostrov","min_zoom":7.0,"alt_name:cs":"ostrov \u0160midta","name:it":"Isola di Schmidt","name:vi":"\u0110\u1ea3o Schmidt","name:pl":"Wyspa Szmidta","name:hu":"Smidt-sziget","id":-3503908,"osm_relation":true,"name:fa":"\u062c\u0632\u06cc\u0631\u0647 \u0634\u0645\u06cc\u062f\u062a\u0627","kind":"island","name:en":"Schmidt Island","name":"\u043e\u0441\u0442\u0440\u043e\u0432 \u0428\u043c\u0438\u0434\u0442\u0430","area":16602099712,"name:de":"Schmidt-Insel","source":"openstreetmap.org","name:et":"\u0160midti saar","name:zh":"\u65bd\u5bc6\u7279\u5cf6","name:es":"Isla Schmidt"},"coordinates":[2597,728]}]},"landuse":{"type":"GeometryCollection","geometries":[{"type":"Polygon","properties":{"kind":"glacier","natural":"glacier","area":16456699904,"sort_rank":29,"source":"openstreetmap.org","min_zoom":8.0,"tier":3,"id":-3503907,"osm_relation":true},"arcs":[[7]]}]}},"type":"Topology","transform":{"translate":[90.0,81.0932138526],"scale":[0.0003433228,0.0000525164]},"arcs":[[[4096,300],[0,-300],[-187,0],[6,58],[78,149],[103,93]],[[0,4096],[4096,0],[0,-2189],[-1202,125],[-1343,139],[-1343,139],[-20,-141],[-122,-22],[-66,-131],[0,2080]],[[0,227],[853,-227],[-853,0],[0,227]],[[4096,1907],[-1202,125],[-1343,139],[-1343,139],[-20,-141],[-122,-22],[-66,-131]],[[0,227],[853,-227]],[[3909,0],[6,58],[78,149],[103,93]],[[853,0],[-853,227],[0,1789],[66,131],[122,22],[20,141],[1343,-139],[1343,-139],[1202,-125],[0,-1607],[-103,-93],[-78,-149],[-6,-58],[-3056,0]],[[450,1053],[70,402],[78,190],[179,32],[155,172],[197,55],[177,131],[176,39],[147,87],[142,39],[1121,114],[329,4],[229,-55],[235,-106],[170,-111],[11,33],[210,-77],[20,-15],[0,-1987],[-3418,0],[-110,252],[-61,260],[-57,541]]]}