{"objects":{"water":{"type":"GeometryCollection","geometries":[]},"buildings":{"type":"GeometryCollection","geometries":[]},"places":{"type":"GeometryCollection","geometries":[{"type":"Point","properties":{"name:pt":"Quirguist\u00e3o","name:cy":"Cirgistan","alt_name:el":"\u039a\u03b9\u03c1\u03b3\u03b9\u03c3\u03c4\u03ac\u03bd;\u039a\u03b9\u03c1\u03b3\u03b9\u03b6\u03c3\u03c4\u03ac\u03bd","name:ko":"\ud0a4\ub974\uae30\uc2a4\uc2a4\ud0c4","name:kn":"\u0c95\u0cbf\u0cb0\u0ccd\u0c97\u0cbf\u0cb8\u0ccd\u0ca5\u0cbe\u0ca8\u0ccd","name:km":"\u1782\u17c0\u179a\u17a0\u17d2\u1782\u17b8\u179f\u17d2\u178f\u1784\u17cb","name:cs":"Kyrgyzst\u00e1n","alt_name:eo":"Kirgizistano;Kirgizio","name:ki":"Kirigizistani","name:tr":"K\u0131rg\u0131zistan","name:ku":"Qirgizistan","name:ro":"K\u00e2rg\u00e2zstan","name:ks":"\u06a9\u0650\u0631\u06af\u0650\u0633\u062a\u0627\u0646","name:to":"Kekisiteni","name:or":"\u0b15\u0b3f\u0b30\u0b4d\u0b17\u0b3f\u0b1c\u0b3f\u0b38\u0b4d\u0b25\u0b3e\u0b28","name:pl":"Kirgistan","name:ta":"\u0b95\u0bbf\u0bb0\u0bcd\u0b95\u0bbf\u0bb8\u0bcd\u0ba4\u0bbe\u0ba9\u0bcd","name:ca":"Kirguizistan","name:te":"\u0c15\u0c3f\u0c30\u0c4d\u0c1c\u0c3f\u0c38\u0c4d\u0c24\u0c3e\u0c28\u0c4d","name:ka":"\u10e7\u10d8\u10e0\u10d2\u10d8\u10d6\u10d4\u10d7\u10d8","name:hr":"Kirgistan","name:da":"Kirgisistan","name:de":"Kirgisistan","name:dz":"\u0f40\u0f72\u0f62\u0f0b\u0f42\u0f72\u0f66\u0f0b\u0f66\u0f4f\u0f71\u0f53","source":"openstreetmap.org","name:lv":"Kirgizst\u0101na","name:lt":"Kirgiztanas","name:uz":"Qirg\u2018iziston","name:he":"\u05e7\u05d9\u05e8\u05d2\u05d9\u05d6\u05e1\u05d8\u05df","kind":"country","name:ur":"\u06a9\u0631\u063a\u0632\u0633\u062a\u0627\u0646","name:lg":"Kirigizisitaani","name:uk":"\u041a\u0438\u0440\u0433\u0438\u0437\u0441\u0442\u0430\u043d","name:hy":"\u053f\u056b\u0580\u0563\u056b\u0566\u057d\u057f\u0561\u0576","min_zoom":2.0,"name:hu":"Kirgiziszt\u00e1n","name:ln":"Kigizisit\u00e1","name:lo":"\u0e84\u0eb5\u0e81\u0eb4\u0e94\u0eaa\u0eb0\u0e96\u0eb2\u0e99","population":5543300,"name:el":"\u039a\u03b9\u03c1\u03b3\u03b9\u03b6\u03af\u03b1","name:eo":"Kirgizujo","name:en":"Kyrgyzstan","name":"\u041a\u044b\u0440\u0433\u044b\u0437\u0441\u0442\u0430\u043d","name:ee":"Kirgizstan nutome","name:gd":"C\u00ecorgastan","name:th":"\u0e04\u0e35\u0e23\u0e4c\u0e01\u0e35\u0e0b\u0e2a\u0e16\u0e32\u0e19","name:gu":"\u0a95\u0abf\u0ab0\u0acd\u0a97\u0abf\u0a9d\u0acd\u0ab8\u0acd\u0aa4\u0abe\u0aa8","name:eu":"Kirgizistan","name:et":"K\u00f5rg\u00f5zstan","name:nl":"Kirgizi\u00eb","name:es":"Kirguist\u00e1n","name:ia":"Kirghizistan","name:rm":"Kirghisistan","name:rn":"Kirigisitani","name:az":"K\u0131rq\u0131zstan","name:id":"Kirgistan","name:ms":"Kyrgyzstan","name:mr":"\u0915\u093f\u0930\u0917\u093f\u091d\u0938\u094d\u0924\u093e\u0928","name:ar":"\u0642\u0631\u063a\u064a\u0632\u0633\u062a\u0627\u0646","name:my":"\u1001\u101a\u103a\u1000\u1005\u103a\u1005\u1010\u1014\u103a","name:io":"Kirgizistan","int_name":"Kyrgyzstan","name:is":"Kirgisistan","name:am":"\u12aa\u122d\u130a\u1235\u1273\u1295","name:it":"Kirghizistan","name:vi":"Kyrgyzstan","name:ru":"\u041a\u0438\u0440\u0433\u0438\u0437\u0438\u044f","id":1700777271,"name:mk":"\u041a\u0438\u0440\u0433\u0438\u0441\u0442\u0430\u043d","name:af":"Kirgisi\u00eb","name:zu":"i-Kyrgyzstan","name:ha":"Kirgizistan","name:nn":"Kirgisistan","name:ff":"Kirgistaan","name:fi":"Kirgisia","name:hi":"\u0915\u093f\u0930\u094d\u0917\u093f\u091c\u093c\u0924\u093e\u0928","name:mg":"Kiordistan","name:fo":"Kirgisia","name:mt":"Kirgistan","alt_name:vi":"C\u01b0-r\u01a1-g\u01b0-xtan;Kirgizia","name:fr":"Kirghizstan","name:ky":"\u041a\u044b\u0440\u0433\u044b\u0437 \u0420\u0435\u0441\u043f\u0443\u0431\u043b\u0438\u043a\u0430\u0441\u044b","name:fy":"Kirgyzje","name:vo":"Kirgist\u00e4n","name:zh":"\u5409\u5c14\u5409\u65af\u65af\u5766","name:gv":"Yn Chyrgistaan","name:so":"Kirgistaan","name:sn":"Kyrgyzstan","name:sl":"Kirgizistan","name:sk":"Kirgizsko","name:ja":"\u30ad\u30eb\u30ae\u30b9","name:si":"\u0d9a\u0dd2\u0dbb\u0dca\u0d9c\u0dd2\u0dc3\u0dca\u0dad\u0dcf\u0db1\u0dba","name:fa":"\u0642\u0631\u0642\u06cc\u0632\u0633\u062a\u0627\u0646","name:sg":"Kirigizit\u00f9aan","name:se":"Kirgisistan","name:ne":"\u0915\u093f\u0930\u094d\u0917\u093f\u0938\u094d\u0925\u093e\u0928","name:br":"Kirgizstan","name:bs":"Kirgizstan","name:bm":"Kirigizisita\u014b","name:bn":"\u0995\u09bf\u09b0\u09cd\u0997\u09bf\u099c\u09bf\u09af\u09bc\u09be","name:bo":"\u0f41\u0f72\u0f62\u0f0b\u0f42\u0f72\u0f5b\u0f0b\u0f66\u0f9f\u0f71\u0f53\u0f0d","name:ml":"\u0d15\u0d3f\u0d7c\u0d17\u0d3f\u0d38\u0d4d\u0d25\u0d3e\u0d7b","name:no":"Kirgisistan","name:sw":"Kirigizistani","name:sv":"Kirgizistan","name:bg":"\u041a\u0438\u0440\u0433\u0438\u0437\u0441\u0442\u0430\u043d","name:sr":"\u041a\u0438\u0440\u0433\u0438\u0441\u0442\u0430\u043d","name:sq":"Kirgistan","name:ga":"An Chirgeast\u00e1in","alt_name:fy":"Kirgyzstan","name:gl":"Quirguicist\u00e1n","name:yo":"Or\u00edl\u1eb9\u0301\u00e8de Kuri\u1e63isitani","name:ak":"K\u025b\u025bgestan"},"coordinates":[562,2058]},{"type":"Point","properties":{"source":"naturalearthdata.com","kind":"locality","name":"At Bashy","population":15601,"min_zoom":7.0,"id":2693},"coordinates":[3686,749]},{"type":"Point","properties":{"kind":"locality","name:en":"At-Bashy","name":"\u0410\u0442-\u0411\u0430\u0448\u044b","kind_detail":"town","source":"openstreetmap.org","min_zoom":8.0,"int_name":"At-Bashi","name:ru":"\u0410\u0442-\u0411\u0430\u0448\u0438","id":4132174115,"population":10764},"coordinates":[3724,740]},{"type":"Point","properties":{"kind":"locality","name:en":"Baetov","name":"\u0411\u0430\u0435\u0442\u043e\u0432\u043e","kind_detail":"town","source":"openstreetmap.org","min_zoom":8.0,"int_name":"Bayetov","id":300559133,"name:ky":"\u0411\u0430\u0435\u0442\u043e\u0432","population":8354},"coordinates":[1242,1109]},{"type":"Point","properties":{"kind":"locality","name:en":"Dostuk","name":"\u0414\u043e\u0441\u0442\u0443\u043a","kind_detail":"town","source":"openstreetmap.org","min_zoom":8.0,"int_name":"Dostuk","id":300279689,"population":750},"coordinates":[3227,1545]}]},"transit":{"type":"GeometryCollection","geometries":[]},"pois":{"type":"GeometryCollection","geometries":[]},"boundaries":{"type":"GeometryCollection","geometries":[]},"roads":{"type":"GeometryCollection","geometries":[{"type":"LineString","properties":{"kind":"major_road","network":"AsianHighway","sort_rank":381,"kind_detail":"trunk","source":"openstreetmap.org","min_zoom":8.0,"landuse_kind":"residential","shield_text":"61","ref":"\u042d\u041c-07"},"arcs":[0]},{"type":"MultiLineString","properties":{"source":"openstreetmap.org","kind":"major_road","kind_detail":"trunk","sort_rank":381,"landuse_kind":"residential","ref":"\u042d\u041c-16","min_zoom":8.0},"arcs":[[1],[2]]},{"type":"MultiLineString","properties":{"kind":"major_road","network":"AsianHighway","sort_rank":381,"kind_detail":"trunk","source":"openstreetmap.org","min_zoom":8.0,"shield_text":"61","ref":"\u042d\u041c-07"},"arcs":[[3],[4],[5],[6]]},{"type":"LineString","properties":{"source":"openstreetmap.org","kind":"major_road","landuse_kind":"residential","sort_rank":380,"kind_detail":"primary","min_zoom":8.0,"name:ky":"\u041b\u0435\u043d\u0438\u043d \u043a\u04e9\u0447\u04e9\u0441\u04af"},"arcs":[7]},{"type":"MultiLineString","properties":{"sort_rank":380,"kind_detail":"primary","min_zoom":8.0,"kind":"major_road","source":"openstreetmap.org"},"arcs":[[8],[9],[10],[11]]},{"type":"LineString","properties":{"source":"openstreetmap.org","kind":"major_road","sort_rank":380,"kind_detail":"primary","min_zoom":8.0,"name:ky":"\u041a\u0430\u0441\u044b\u043c\u0430\u0430\u043b\u044b \u0430\u0436\u044b \u043a\u04e9\u0447\u04e9\u0441\u04af"},"arcs":[12]},{"type":"LineString","properties":{"source":"openstreetmap.org","kind":"major_road","landuse_kind":"residential","sort_rank":380,"kind_detail":"primary","min_zoom":8.0},"arcs":[13]},{"type":"LineString","properties":{"kind":"major_road","network":"AsianHighway","sort_rank":381,"kind_detail":"trunk","is_bicycle_related":true,"source":"openstreetmap.org","min_zoom":8.0,"shield_text":"61","ref":"\u042d\u041c-07"},"arcs":[14]},{"type":"MultiLineString","properties":{"source":"openstreetmap.org","kind":"major_road","sort_rank":381,"kind_detail":"trunk","ref":"\u042d\u041c-16","min_zoom":8.0},"arcs":[[15],[16]]}]},"earth":{"type":"GeometryCollection","geometries":[{"type":"Polygon","properties":{"sort_rank":10,"source":"naturalearthdata.com","kind":"earth","min_zoom":0.0,"id":4746},"arcs":[[17]]}]},"landuse":{"type":"GeometryCollection","geometries":[{"type":"Polygon","properties":{"kind":"residential","name:en":"Naryn","name":"\u041d\u0430\u0440\u044b\u043d","area":26724400,"name:tr":"Nar\u0131n","name:eo":"Narin","name:de":"Naryn","source":"openstreetmap.org","min_zoom":8.0,"int_name":"Naryn","tier":2,"id":169319596,"sort_rank":20},"arcs":[[18]]},{"type":"Polygon","properties":{"kind":"residential","name:en":"At-Bashy","name":"\u0410\u0442-\u0411\u0430\u0448\u044b","area":13304000,"sort_rank":20,"source":"openstreetmap.org","min_zoom":8.0,"int_name":"At-Bashi","tier":2,"name:ru":"\u0410\u0442-\u0411\u0430\u0448\u0438","id":75871702},"arcs":[[19]]},{"type":"Polygon","properties":{"kind":"residential","name:en":"Kayirma","name":"\u0411\u0430\u0439\u0437\u0430\u043a","area":11035100,"sort_rank":20,"source":"openstreetmap.org","min_zoom":8.0,"tier":2,"name:ru":"\u041a\u0430\u0438\u0440\u043c\u0430","id":152341630},"arcs":[[20]]},{"type":"Polygon","properties":{"kind":"residential","name:en":"Chaek","name":"\u0427\u0430\u0435\u043a (Chayaek)","area":13524300,"sort_rank":20,"source":"openstreetmap.org","min_zoom":8.0,"tier":2,"name:ru":"\u0427\u0430\u0435\u043a","id":152341645},"arcs":[[21]]},{"type":"Polygon","properties":{"kind":"residential","name:en":"Kara-Suu","name":"\u041a\u0430\u0440\u0430-\u0421\u0443\u0443","area":11759500,"sort_rank":20,"source":"openstreetmap.org","min_zoom":8.0,"tier":2,"id":121747480},"arcs":[[22]]},{"type":"Polygon","properties":{"kind":"residential","name:en":"Jany-Aryk","name":"\u0416\u0430\u04a3\u044b-\u0410\u0440\u044b\u043a","area":12068500,"sort_rank":20,"source":"openstreetmap.org","min_zoom":8.0,"tier":2,"id":152343630},"arcs":[[23]]}]}},"type":"Topology","transform":{"translate":[74.53125,40.9798980696],"scale":[0.0003433228,0.0002570987]},"arcs":[[[3355,625],[-97,-76]],[[0,3704],[57,36]],[[109,3876],[67,35]],[[3258,549],[-933,-549]],[[4096,1033],[-214,-163],[-210,-62],[-163,49],[-154,-232]],[[3556,3347],[-57,30],[-16,105],[-45,30],[82,62],[-7,131],[49,61],[12,70],[-100,66],[-68,92],[-27,102]],[[4096,2115],[-180,135],[-118,337],[-135,139],[-175,65],[-27,174],[52,119]],[[4096,1743],[-46,10]],[[1460,1683],[-326,-46],[-79,43],[-80,9],[-28,-38],[13,-123],[114,2],[83,-61],[28,-62],[26,-289],[-195,-49],[-351,-309],[-46,10],[-78,107],[-36,-9],[-24,58],[15,38],[-142,274],[-94,-63],[-69,-89],[-191,-68]],[[0,1975],[126,22],[56,-27],[173,113],[107,14],[47,55],[2,-33],[47,-36],[-24,-58],[56,1],[11,34],[24,-30],[24,39],[37,-6],[26,-155],[230,-94],[0,-62],[34,-17],[487,21],[-3,-73]],[[2785,1491],[-1325,192]],[[3990,1743],[-109,38],[-3,-19],[-51,34],[-189,-19],[-280,-128],[-175,-111],[-277,-57]],[[2906,1481],[-121,10]],[[4050,1753],[-60,-10]],[[3556,3347],[69,-66],[-112,-197]],[[57,3740],[38,28],[14,108]],[[176,3911],[46,25],[98,-2],[96,107],[246,-135],[135,17],[126,-39],[168,-11],[240,223]],[[4096,4096],[0,-4096],[-4096,0],[0,4096],[4096,0]],[[3986,1740],[37,27],[73,5],[0,-48],[-110,16]],[[3622,752],[58,19],[172,-20],[-91,-52],[-121,23],[26,16],[-44,14]],[[96,3882],[44,142],[21,3],[15,-119],[-38,-47],[-42,21]],[[0,3754],[9,4],[7,-18],[66,0],[-82,-68],[0,82]],[[3254,557],[92,69],[46,-7],[6,-47],[-124,-54],[-20,39]],[[1053,3822],[151,51],[40,96],[53,-10],[-34,-58],[23,0],[-61,-40],[-172,-39]]]}