{"objects":{"water":{"type":"GeometryCollection","geometries":[{"type":"Polygon","properties":{"source":"naturalearthdata.com","kind":"lake","name":"Lake Albert","area":5421299200,"sort_rank":200,"min_zoom":0.0,"id":476},"arcs":[[191]]},{"type":"Polygon","properties":{"source":"naturalearthdata.com","kind":"lake","name":"Lake Kwania","area":578515712,"sort_rank":200,"min_zoom":0.0,"id":667},"arcs":[[192]]},{"type":"Polygon","properties":{"source":"naturalearthdata.com","kind":"lake","name":"Lake Kyoga","area":1742183040,"sort_rank":200,"min_zoom":0.0,"id":545},"arcs":[[193],[194]]},{"type":"MultiPolygon","properties":{"source":"naturalearthdata.com","kind":"lake","name":"Lake Victoria","area":67519668224,"sort_rank":200,"min_zoom":0.0,"id":479},"arcs":[[[195]],[[196],[197],[198],[199]]]},{"type":"Point","properties":{"label_placement":true,"kind":"lake","name":"Lake Albert","area":5421299200,"sort_rank":200,"source":"naturalearthdata.com","min_zoom":0.0,"id":476},"coordinates":[2101,1247]},{"type":"Point","properties":{"label_placement":true,"kind":"lake","name":"Lake Kyoga","area":1742183040,"sort_rank":200,"source":"naturalearthdata.com","min_zoom":0.0,"id":545},"coordinates":[3470,1090]},{"type":"Point","properties":{"label_placement":true,"kind":"lake","name":"Lake Kwania","area":578515712,"sort_rank":200,"source":"naturalearthdata.com","min_zoom":0.0,"id":667},"coordinates":[3344,1269]},{"type":"LineString","properties":{"source":"naturalearthdata.com","kind":"lake","sort_rank":367,"boundary":true,"min_zoom":0.0,"id":476},"arcs":[200]},{"type":"MultiLineString","properties":{"source":"naturalearthdata.com","kind":"lake","sort_rank":367,"boundary":true,"min_zoom":0.0,"id":479},"arcs":[[201],[202],[203],[204],[205],[206],[207],[208]]},{"type":"LineString","properties":{"source":"naturalearthdata.com","kind":"lake","sort_rank":367,"boundary":true,"min_zoom":0.0,"id":527},"arcs":[209]},{"type":"MultiLineString","properties":{"source":"naturalearthdata.com","kind":"lake","sort_rank":367,"boundary":true,"min_zoom":0.0,"id":545},"arcs":[[210],[211]]},{"type":"LineString","properties":{"source":"naturalearthdata.com","kind":"lake","sort_rank":367,"boundary":true,"min_zoom":0.0,"id":667},"arcs":[212]}]},"buildings":{"type":"GeometryCollection","geometries":[]},"places":{"type":"GeometryCollection","geometries":[{"type":"Point","properties":{"name:ka":"\u10e3\u10d2\u10d0\u10dc\u10d3\u10d0","name:ko":"\uc6b0\uac04\ub2e4","name:cv":"\u0423\u0433\u0430\u043d\u0434\u0430","name:km":"\u17a2\u17ca\u17bc\u17a0\u17d2\u1780\u1784\u17cb\u178a\u17b6","name:kk":"\u0423\u0433\u0430\u043d\u0434\u0430","name:tt":"\u0423\u0433\u0430\u043d\u0434\u0430","name:kw":"Ouganda","name:ku":"\u00dbganda","name:ti":"\u12e9\u130b\u1295\u12f3","name:ks":"\u06cc\u0648\u0657\u06af\u0627\u0646\u065b\u0691\u0627","name:to":"\u02bbIukanit\u0101","name:pa":"\u0a2f\u0a41\u0a17\u0a3e\u0a02\u0a21\u0a3e","name:os":"\u0423\u0433\u0430\u043d\u0434\u00e6","name:or":"\u0b09\u0b17\u0b3e\u0b23\u0b4d\u0b21\u0b3e","name:ce":"\u0423\u0433\u0430\u043d\u0434\u0430","name:ta":"\u0b89\u0b95\u0bbe\u0ba3\u0bcd\u0b9f\u0bbe","name:tg":"\u0423\u0433\u0430\u043d\u0434\u0430","name:te":"\u0c2f\u0c41\u0c17\u0c3e\u0c02\u0c21\u0c3e","name:wo":"Ugandaa","name:ba":"\u0423\u0433\u0430\u043d\u0434\u0430","name:dz":"\u0f61\u0f74\u0f0b\u0f42\u0fb7\u0f53\u0f0b\u0f4c","source":"openstreetmap.org","name:kn":"\u0c89\u0c97\u0cbe\u0c82\u0ca1\u0cbe","name:dv":"\u0794\u07aa\u078e\u07ac\u0782\u07b0\u0791\u07a7","name:hi":"\u092f\u0941\u0917\u093e\u0902\u0921\u093e","name:he":"\u05d0\u05d5\u05d2\u05e0\u05d3\u05d4","min_zoom":2.0,"kind":"country","name:ur":"\u06cc\u0648\u06af\u0627\u0646\u0688\u0627","name:lg":"Yuganda","name:uk":"\u0423\u0433\u0430\u043d\u0434\u0430","name:hy":"\u0548\u0582\u0563\u0561\u0576\u0564\u0561","name:ug":"\u0626\u06c7\u06af\u0627\u0646\u062f\u0627","name:li":"Oeganda","name:lo":"\u0ead\u0eb9\u0e81\u0eb2\u0e99\u0e94\u0eb2","name:oc":"Oganda","population":34509205,"name:el":"\u039f\u03c5\u03b3\u03ba\u03ac\u03bd\u03c4\u03b1","name:eo":"Ugando","name":"Uganda","name:ee":"Uganda nutome","name:th":"\u0e1b\u0e23\u0e30\u0e40\u0e17\u0e28\u0e22\u0e39\u0e01\u0e31\u0e19\u0e14\u0e32","name:yi":"\u05d0\u05d5\u05d2\u05d0\u05e0\u05d3\u05e2","name:yo":"Or\u00edl\u1eb9\u0301\u00e8de Uganda","name:rn":"Ubugande","name:az":"Uqanda","name:mr":"\u092f\u0941\u0917\u093e\u0902\u0921\u093e","name:ar":"\u0623\u0648\u063a\u0646\u062f\u0627","name:my":"\u101a\u1030\u1002\u1014\u1039\u1012\u102c","official_name":"Republic of Uganda;Jamhuri ya Uganda","name:is":"\u00daganda","name:am":"\u12e9\u130b\u1295\u12f3","name:ml":"\u0d09\u0d17\u0d3e\u0d23\u0d4d\u0d1f","name:ru":"\u0423\u0433\u0430\u043d\u0434\u0430","name:rw":"Ubugande","name:mi":"Uk\u0101nga","id":424317406,"name:mk":"\u0423\u0433\u0430\u043d\u0434\u0430","name:vo":"Luganday\u00e4n","name:zu":"i-Uganda","name:ha":"Yuganda","name:mn":"\u0423\u0433\u0430\u043d\u0434\u0430","name:ff":"Unganndaa","name:mg":"Oganda","name:fr":"Ouganda","name:zh-yue":"\u70cf\u5e72\u9054","name:zh":"\u4e4c\u5e72\u8fbe","name:so":"Ugaanda","name:nl":"Oeganda","name:ja":"\u30a6\u30ac\u30f3\u30c0","name:si":"\u0d8b\u0d9c\u0db1\u0dca\u0da9\u0dcf\u0dc0","name:fa":"\u0627\u0648\u06af\u0627\u0646\u062f\u0627","name:sg":"Ugand\u00e4a","name:ne":"\u092f\u0941\u0917\u093e\u0923\u094d\u0921\u093e","name:br":"Ouganda","name:bn":"\u0989\u0997\u09be\u09a8\u09cd\u09a1\u09be","name:bo":"\u0f61\u0f74\u0f0b\u0f42\u0f53\u0f0b\u0f4c\u0f0d","name:be":"\u0423\u0433\u0430\u043d\u0434\u0430","name:bg":"\u0423\u0433\u0430\u043d\u0434\u0430","name:ss":"IBuganda","name:sr":"\u0423\u0433\u0430\u043d\u0434\u0430","name:nv":"Yog\u00e9nda","name:ht":"Ouganda","name:gv":"Ooganda","name:gu":"\u0aaf\u0ac1\u0a97\u0abe\u0a82\u0aa1\u0abe"},"coordinates":[2979,1118]},{"type":"Point","properties":{"kind":"region","name":"Western Equatoria State","kind_detail":"state","name:ar":"\u063a\u0631\u0628 \u0627\u0644\u0627\u0633\u062a\u0648\u0627\u0626\u064a\u0629","min_zoom":4.0,"name:de":"West-\u00c4quatoria","source":"openstreetmap.org","name:fr":"\u00c9quatoria occidental","name:uk":"\u0417\u0430\u0445\u0456\u0434\u043d\u0430 \u0415\u043a\u0432\u0430\u0442\u043e\u0440\u0456\u044f","name:ru":"\u0417\u0430\u043f\u0430\u0434\u043d\u0430\u044f \u042d\u043a\u0432\u0430\u0442\u043e\u0440\u0438\u044f","name:pl":"Ekwatoria Zachodnia","name:hu":"Nyugat-Equatoria","id":435374897,"population":360000},"coordinates":[486,3842]},{"type":"Point","properties":{"admin_level":"4","kind":"region","name":"Ituri","source":"openstreetmap.org","kind_detail":"state","min_zoom":4.0,"id":4346337654},"coordinates":[1000,1337]},{"type":"Point","properties":{"admin_level":"4","kind":"region","name":"Northern Region","source":"openstreetmap.org","kind_detail":"state","min_zoom":4.0,"id":4345061984},"coordinates":[3014,2040]},{"type":"Point","properties":{"kind":"region","name":"Central Equatoria State","kind_detail":"state","name:ar":"\u0627\u0644\u0627\u0633\u062a\u0648\u0627\u0626\u064a\u0629 \u0627\u0644\u0648\u0633\u0637\u0649","min_zoom":4.0,"name:de":"Zentral-\u00c4quatoria","source":"openstreetmap.org","name:fr":"\u00c9quatoria central","name:uk":"\u0426\u0435\u043d\u0442\u0440\u0430\u043b\u044c\u043d\u0430 \u0415\u043a\u0432\u0430\u0442\u043e\u0440\u0456\u044f","old_name":"Wil\u0101yat Ba\u1e29r al Jabal","name:ru":"\u0426\u0435\u043d\u0442\u0440\u0430\u043b\u044c\u043d\u0430\u044f \u042d\u043a\u0432\u0430\u0442\u043e\u0440\u0438\u044f","name:pl":"Ekwatoria \u015arodkowa","name:hu":"K\u00f6z\u00e9p-Equatoria","id":321446179,"old_name:ar":"\u062d\u0631 \u0627\u0644\u062c\u0628\u0644"},"coordinates":[2458,3647]},{"type":"Point","properties":{"admin_level":"4","kind":"region","name":"Central Region","source":"openstreetmap.org","kind_detail":"state","min_zoom":4.0,"id":4345055197},"coordinates":[3278,205]},{"type":"Point","properties":{"admin_level":"4","kind":"region","name":"Eastern Region","source":"openstreetmap.org","kind_detail":"state","min_zoom":4.0,"id":4345060071},"coordinates":[3675,309]},{"type":"Point","properties":{"kind":"region","name":"Eastern Equatoria State","kind_detail":"state","name:ar":"\u0648\u0644\u0627\u064a\u0629 \u0634\u0631\u0642 \u0627\u0644\u0627\u0633\u062a\u0648\u0627\u0626\u064a\u0629","min_zoom":4.0,"name:de":"Ost-\u00c4quatoria","source":"openstreetmap.org","name:fr":"\u00c9quatoria oriental","name:uk":"\u0421\u0445\u0456\u0434\u043d\u0430 \u0415\u043a\u0432\u0430\u0442\u043e\u0440\u0456\u044f","name:ru":"\u0412\u043e\u0441\u0442\u043e\u0447\u043d\u0430\u044f \u042d\u043a\u0432\u0430\u0442\u043e\u0440\u0438\u044f","name:pl":"Ekwatoria Wschodnia","name:hu":"Kelet-Equatoria","id":2222510065},"coordinates":[3980,3854]},{"type":"Point","properties":{"source":"naturalearthdata.com","kind":"locality","name":"Kampala","country_capital":true,"population":1420000,"min_zoom":5.0,"id":6829},"coordinates":[3245,232]},{"type":"Point","properties":{"source":"naturalearthdata.com","kind":"locality","name":"Butembo","population":286403,"min_zoom":5.0,"id":6559},"coordinates":[841,95]},{"type":"Point","properties":{"source":"naturalearthdata.com","kind":"locality","name":"Gulu","population":146858,"region_capital":true,"min_zoom":5.0,"id":6291},"coordinates":[3026,2028]},{"type":"Point","properties":{"source":"naturalearthdata.com","kind":"locality","name":"Juba","country_capital":true,"population":111975,"min_zoom":5.0,"id":6320},"coordinates":[2516,3523]},{"type":"Point","properties":{"source":"naturalearthdata.com","kind":"locality","name":"Kasese","population":67269,"region_capital":true,"min_zoom":6.0,"id":4961},"coordinates":[1357,170]},{"type":"Point","properties":{"source":"naturalearthdata.com","kind":"locality","name":"Yambio","population":40382,"min_zoom":6.0,"id":5660},"coordinates":[212,3334]},{"type":"Point","properties":{"source":"naturalearthdata.com","kind":"locality","name":"Watsa","population":24516,"min_zoom":6.0,"id":5874},"coordinates":[1023,2217]},{"type":"Point","properties":{"source":"naturalearthdata.com","kind":"locality","name":"Nimule","population":242,"min_zoom":6.0,"id":5674},"coordinates":[2858,2626]}]},"transit":{"type":"GeometryCollection","geometries":[{"type":"MultiLineString","properties":{"source":"openstreetmap.org","kind":"train","name":"Kampala-Kasese","sort_rank":275,"min_zoom":6.0,"osm_relation":true},"arcs":[[172],[173],[174],[175],[176],[177],[178],[179],[180]]},{"type":"LineString","properties":{"distance":"683","kind":"train","name:en":"Vicicongo line","name":"Aketi-Isiro-Mungbere","service":"long_distance","sort_rank":275,"source":"openstreetmap.org","min_zoom":5.0,"operator":"CFU","osm_relation":true,"network":"Vicicongo"},"arcs":[181]},{"type":"MultiLineString","properties":{"source":"openstreetmap.org","kind":"train","name":"Hima Branch","sort_rank":275,"min_zoom":6.0,"osm_relation":true},"arcs":[[182],[183]]},{"type":"MultiLineString","properties":{"osm_relation":true,"source":"openstreetmap.org","kind":"train","name":"Uganda Railway","sort_rank":275,"min_zoom":6.0,"operator":"URC"},"arcs":[[184],[185],[186],[187],[188],[189],[190]]}]},"pois":{"type":"GeometryCollection","geometries":[{"type":"Point","properties":{"kind":"national_park","tier":1,"protect_class":"2","area":221865000,"source":"openstreetmap.org","min_zoom":6.89,"operator":"Uganda Wildlife Authorities","id":-4576935,"osm_relation":true,"name":"Semliki National Park"},"coordinates":[1411,593]},{"type":"Point","properties":{"kind":"national_park","tier":1,"protect_class":"2","area":1002870000,"source":"openstreetmap.org","min_zoom":5.81,"operator":"Uganda Wildlife Authorities","id":-4576934,"osm_relation":true,"name":"Rwenzori Mountains National Park"},"coordinates":[1356,307]},{"type":"Point","properties":{"kind":"nature_reserve","tier":2,"protect_class":"2","area":3903440000,"source":"openstreetmap.org","min_zoom":6.32,"operator":"Uganda Wildlife Authority","id":-2316689,"osm_relation":true,"name":"Murchison Falls National Park"},"coordinates":[2746,1652]}]},"boundaries":{"type":"GeometryCollection","geometries":[{"type":"MultiLineString","properties":{"source":"naturalearthdata.com","kind":"country","sort_rank":262,"kind_detail":"2","min_zoom":0.0,"id":105},"arcs":[[0],[1],[2],[3],[4],[5],[6],[7],[8],[9],[10],[11],[12],[13],[14],[15],[16],[17],[18],[19],[20],[21],[22],[23],[24],[25],[26],[27],[28],[29],[30]]},{"type":"MultiLineString","properties":{"source":"naturalearthdata.com","kind":"country","sort_rank":262,"kind_detail":"2","min_zoom":0.0,"id":384},"arcs":[[31],[32],[33],[34],[35],[36],[37],[38],[39]]},{"type":"MultiLineString","properties":{"source":"naturalearthdata.com","kind":"country","sort_rank":262,"kind_detail":"2","min_zoom":0.0,"id":395},"arcs":[[40],[41],[42],[43],[44],[45],[46],[47],[48],[49],[50],[51]]},{"type":"LineString","properties":{"source":"naturalearthdata.com","kind":"macroregion","sort_rank":257,"kind_detail":"3","min_zoom":6.7,"id":2606},"arcs":[52]},{"type":"MultiLineString","properties":{"source":"naturalearthdata.com","kind":"region","sort_rank":256,"kind_detail":"4","min_zoom":3.0,"id":1850},"arcs":[[53],[54],[55]]},{"type":"LineString","properties":{"source":"naturalearthdata.com","kind":"region","sort_rank":256,"kind_detail":"4","min_zoom":3.0,"id":1852},"arcs":[56]},{"type":"MultiLineString","properties":{"source":"naturalearthdata.com","kind":"macroregion","sort_rank":257,"kind_detail":"3","min_zoom":6.7,"id":2609},"arcs":[[57],[58]]},{"type":"MultiLineString","properties":{"source":"naturalearthdata.com","kind":"macroregion","sort_rank":257,"kind_detail":"3","min_zoom":6.7,"id":2585},"arcs":[[59],[60]]},{"type":"LineString","properties":{"source":"naturalearthdata.com","kind":"macroregion","sort_rank":257,"kind_detail":"3","min_zoom":6.7,"id":2586},"arcs":[61]},{"type":"LineString","properties":{"source":"naturalearthdata.com","kind":"macroregion","sort_rank":257,"kind_detail":"3","min_zoom":6.7,"id":2590},"arcs":[62]},{"type":"LineString","properties":{"source":"naturalearthdata.com","kind":"macroregion","sort_rank":257,"kind_detail":"3","min_zoom":6.7,"id":2591},"arcs":[63]},{"type":"MultiLineString","properties":{"source":"naturalearthdata.com","kind":"macroregion","sort_rank":257,"kind_detail":"3","min_zoom":6.7,"id":2592},"arcs":[[64],[65],[66],[67]]},{"type":"LineString","properties":{"source":"naturalearthdata.com","kind":"macroregion","sort_rank":257,"kind_detail":"3","min_zoom":6.7,"id":2600},"arcs":[68]},{"type":"MultiLineString","properties":{"source":"naturalearthdata.com","kind":"macroregion","sort_rank":257,"kind_detail":"3","min_zoom":6.7,"id":2613},"arcs":[[69],[70],[71]]},{"type":"MultiLineString","properties":{"source":"naturalearthdata.com","kind":"region","sort_rank":256,"kind_detail":"4","min_zoom":5.5,"id":4408},"arcs":[[72],[73],[74],[75],[76],[77],[78],[79],[80],[81],[82],[83],[84],[85],[86],[87],[88]]},{"type":"LineString","properties":{"source":"naturalearthdata.com","kind":"macroregion","sort_rank":257,"kind_detail":"3","min_zoom":6.7,"id":5372},"arcs":[89]},{"type":"LineString","properties":{"source":"naturalearthdata.com","kind":"macroregion","sort_rank":257,"kind_detail":"3","min_zoom":6.7,"id":5377},"arcs":[90]},{"type":"MultiLineString","properties":{"source":"naturalearthdata.com","kind":"macroregion","sort_rank":257,"kind_detail":"3","min_zoom":6.7,"id":5378},"arcs":[[91],[92],[93]]},{"type":"LineString","properties":{"source":"naturalearthdata.com","kind":"macroregion","sort_rank":257,"kind_detail":"3","min_zoom":6.7,"id":5379},"arcs":[94]},{"type":"MultiLineString","properties":{"source":"naturalearthdata.com","kind":"macroregion","sort_rank":257,"kind_detail":"3","min_zoom":6.7,"id":5380},"arcs":[[95],[96]]},{"type":"LineString","properties":{"source":"naturalearthdata.com","kind":"macroregion","sort_rank":257,"kind_detail":"3","min_zoom":6.7,"id":5385},"arcs":[97]},{"type":"LineString","properties":{"source":"naturalearthdata.com","kind":"macroregion","sort_rank":257,"kind_detail":"3","min_zoom":6.7,"id":5399},"arcs":[98]},{"type":"LineString","properties":{"source":"naturalearthdata.com","kind":"macroregion","sort_rank":257,"kind_detail":"3","min_zoom":6.7,"id":5400},"arcs":[99]},{"type":"LineString","properties":{"source":"naturalearthdata.com","kind":"macroregion","sort_rank":257,"kind_detail":"3","min_zoom":6.7,"id":5405},"arcs":[100]},{"type":"LineString","properties":{"source":"naturalearthdata.com","kind":"macroregion","sort_rank":257,"kind_detail":"3","min_zoom":6.7,"id":5417},"arcs":[101]},{"type":"MultiLineString","properties":{"source":"naturalearthdata.com","kind":"macroregion","sort_rank":257,"kind_detail":"3","min_zoom":6.7,"id":5421},"arcs":[[102],[103],[104]]},{"type":"MultiLineString","properties":{"source":"naturalearthdata.com","kind":"macroregion","sort_rank":257,"kind_detail":"3","min_zoom":6.7,"id":5422},"arcs":[[105],[106]]},{"type":"LineString","properties":{"source":"naturalearthdata.com","kind":"macroregion","sort_rank":257,"kind_detail":"3","min_zoom":6.7,"id":5438},"arcs":[107]},{"type":"LineString","properties":{"source":"naturalearthdata.com","kind":"macroregion","sort_rank":257,"kind_detail":"3","min_zoom":6.7,"id":5870},"arcs":[108]},{"type":"LineString","properties":{"source":"naturalearthdata.com","kind":"macroregion","sort_rank":257,"kind_detail":"3","min_zoom":6.7,"id":5871},"arcs":[109]},{"type":"LineString","properties":{"source":"naturalearthdata.com","kind":"macroregion","sort_rank":257,"kind_detail":"3","min_zoom":6.7,"id":5913},"arcs":[110]},{"type":"MultiLineString","properties":{"source":"naturalearthdata.com","kind":"macroregion","sort_rank":257,"kind_detail":"3","min_zoom":6.7,"id":5919},"arcs":[[111],[112],[113],[114],[115],[116]]},{"type":"MultiLineString","properties":{"source":"naturalearthdata.com","kind":"macroregion","sort_rank":257,"kind_detail":"3","min_zoom":6.7,"id":5943},"arcs":[[117],[118]]},{"type":"LineString","properties":{"source":"naturalearthdata.com","kind":"macroregion","sort_rank":257,"kind_detail":"3","min_zoom":6.7,"id":5965},"arcs":[119]},{"type":"LineString","properties":{"source":"naturalearthdata.com","kind":"macroregion","sort_rank":257,"kind_detail":"3","min_zoom":6.7,"id":5967},"arcs":[120]},{"type":"MultiLineString","properties":{"source":"naturalearthdata.com","kind":"region","sort_rank":256,"kind_detail":"4","min_zoom":6.8,"id":9136},"arcs":[[121],[122],[123]]},{"type":"LineString","properties":{"source":"naturalearthdata.com","kind":"region","sort_rank":256,"kind_detail":"4","min_zoom":6.8,"id":9137},"arcs":[124]},{"type":"LineString","properties":{"source":"naturalearthdata.com","kind":"region","sort_rank":256,"kind_detail":"4","min_zoom":6.8,"id":9132},"arcs":[125]},{"type":"MultiLineString","properties":{"source":"naturalearthdata.com","kind":"region","sort_rank":256,"kind_detail":"4","min_zoom":6.8,"id":9133},"arcs":[[126],[127],[128],[129]]},{"type":"MultiLineString","properties":{"source":"naturalearthdata.com","kind":"region","sort_rank":256,"kind_detail":"4","min_zoom":6.8,"id":9138},"arcs":[[130],[131],[132]]},{"type":"MultiLineString","properties":{"source":"naturalearthdata.com","kind":"region","sort_rank":256,"kind_detail":"4","min_zoom":6.8,"id":9139},"arcs":[[133],[134],[135]]},{"type":"LineString","properties":{"source":"naturalearthdata.com","kind":"region","sort_rank":256,"kind_detail":"4","min_zoom":6.8,"id":9140},"arcs":[136]},{"type":"MultiLineString","properties":{"source":"naturalearthdata.com","kind":"region","sort_rank":256,"kind_detail":"4","min_zoom":6.8,"id":9141},"arcs":[[137],[138],[139],[140],[141]]},{"type":"MultiLineString","properties":{"source":"naturalearthdata.com","kind":"region","sort_rank":256,"kind_detail":"4","min_zoom":6.8,"id":9142},"arcs":[[142],[143]]},{"type":"MultiLineString","properties":{"source":"naturalearthdata.com","kind":"region","sort_rank":256,"kind_detail":"4","min_zoom":6.8,"id":9148},"arcs":[[144],[145]]},{"type":"MultiLineString","properties":{"source":"naturalearthdata.com","kind":"region","sort_rank":256,"kind_detail":"4","min_zoom":6.8,"id":9149},"arcs":[[146],[147],[148]]},{"type":"LineString","properties":{"source":"naturalearthdata.com","kind":"region","sort_rank":256,"kind_detail":"4","min_zoom":6.8,"id":9150},"arcs":[149]},{"type":"LineString","properties":{"source":"naturalearthdata.com","kind":"region","sort_rank":256,"kind_detail":"4","min_zoom":6.8,"id":9151},"arcs":[150]},{"type":"MultiLineString","properties":{"source":"naturalearthdata.com","kind":"region","sort_rank":256,"kind_detail":"4","min_zoom":6.8,"id":9153},"arcs":[[151],[152]]},{"type":"LineString","properties":{"source":"naturalearthdata.com","kind":"region","sort_rank":256,"kind_detail":"4","min_zoom":6.8,"id":9159},"arcs":[153]},{"type":"LineString","properties":{"source":"naturalearthdata.com","kind":"region","sort_rank":256,"kind_detail":"4","min_zoom":6.8,"id":9160},"arcs":[154]},{"type":"LineString","properties":{"source":"naturalearthdata.com","kind":"region","sort_rank":256,"kind_detail":"4","min_zoom":6.8,"id":9161},"arcs":[155]},{"type":"LineString","properties":{"source":"naturalearthdata.com","kind":"region","sort_rank":256,"kind_detail":"4","min_zoom":6.8,"id":9162},"arcs":[156]},{"type":"LineString","properties":{"source":"naturalearthdata.com","kind":"region","sort_rank":256,"kind_detail":"4","min_zoom":6.8,"id":9167},"arcs":[157]},{"type":"LineString","properties":{"source":"naturalearthdata.com","kind":"region","sort_rank":256,"kind_detail":"4","min_zoom":6.8,"id":9168},"arcs":[158]},{"type":"MultiLineString","properties":{"source":"naturalearthdata.com","kind":"region","sort_rank":256,"kind_detail":"4","min_zoom":6.8,"id":9169},"arcs":[[159],[160],[161]]},{"type":"MultiLineString","properties":{"source":"naturalearthdata.com","kind":"region","sort_rank":256,"kind_detail":"4","min_zoom":6.8,"id":9170},"arcs":[[162],[163],[164]]},{"type":"LineString","properties":{"source":"naturalearthdata.com","kind":"region","sort_rank":256,"kind_detail":"4","min_zoom":6.8,"id":9182},"arcs":[165]},{"type":"LineString","properties":{"source":"naturalearthdata.com","kind":"region","sort_rank":256,"kind_detail":"4","min_zoom":6.8,"id":9183},"arcs":[166]},{"type":"MultiLineString","properties":{"source":"naturalearthdata.com","kind":"macroregion","sort_rank":257,"kind_detail":"3","min_zoom":6.7,"id":9188},"arcs":[[167],[168],[169]]},{"type":"LineString","properties":{"source":"naturalearthdata.com","kind":"macroregion","sort_rank":257,"kind_detail":"3","min_zoom":6.7,"id":9189},"arcs":[170]},{"type":"LineString","properties":{"source":"naturalearthdata.com","kind":"macroregion","sort_rank":257,"kind_detail":"3","min_zoom":6.7,"id":9190},"arcs":[171]}]},"roads":{"type":"GeometryCollection","geometries":[{"type":"LineString","properties":{"source":"naturalearthdata.com","kind":"major_road","sort_rank":379,"kind_detail":"secondary","min_zoom":4.0,"id":40212},"arcs":[213]},{"type":"LineString","properties":{"source":"naturalearthdata.com","kind":"major_road","sort_rank":379,"kind_detail":"secondary","min_zoom":4.0,"id":40213},"arcs":[214]},{"type":"LineString","properties":{"source":"naturalearthdata.com","kind":"major_road","sort_rank":379,"kind_detail":"secondary","min_zoom":4.0,"id":40287},"arcs":[215]},{"type":"LineString","properties":{"source":"naturalearthdata.com","kind":"major_road","sort_rank":379,"kind_detail":"secondary","min_zoom":4.0,"id":40288},"arcs":[216]},{"type":"LineString","properties":{"source":"naturalearthdata.com","kind":"minor_road","sort_rank":355,"kind_detail":"tertiary","min_zoom":5.0,"id":40311},"arcs":[217]},{"type":"LineString","properties":{"source":"naturalearthdata.com","kind":"minor_road","sort_rank":355,"kind_detail":"tertiary","min_zoom":5.0,"id":40345},"arcs":[218]},{"type":"LineString","properties":{"source":"naturalearthdata.com","kind":"major_road","kind_detail":"secondary","sort_rank":379,"landuse_kind":"urban_area","min_zoom":4.0,"id":40374},"arcs":[219]},{"type":"LineString","properties":{"source":"naturalearthdata.com","kind":"major_road","sort_rank":379,"kind_detail":"secondary","min_zoom":4.0,"id":40374},"arcs":[220]},{"type":"LineString","properties":{"source":"naturalearthdata.com","kind":"major_road","kind_detail":"secondary","sort_rank":379,"landuse_kind":"protected_area","min_zoom":4.0,"id":40375},"arcs":[221]},{"type":"LineString","properties":{"source":"naturalearthdata.com","kind":"major_road","kind_detail":"secondary","sort_rank":379,"landuse_kind":"urban_area","min_zoom":4.0,"id":40375},"arcs":[222]},{"type":"MultiLineString","properties":{"source":"naturalearthdata.com","kind":"major_road","sort_rank":379,"kind_detail":"secondary","min_zoom":4.0,"id":40375},"arcs":[[223],[224]]},{"type":"LineString","properties":{"source":"naturalearthdata.com","kind":"major_road","kind_detail":"secondary","sort_rank":379,"landuse_kind":"urban_area","min_zoom":4.0,"id":40430},"arcs":[225]},{"type":"LineString","properties":{"source":"naturalearthdata.com","kind":"major_road","sort_rank":379,"kind_detail":"secondary","min_zoom":4.0,"id":40430},"arcs":[226]},{"type":"LineString","properties":{"source":"naturalearthdata.com","kind":"major_road","sort_rank":379,"kind_detail":"secondary","min_zoom":4.0,"id":40439},"arcs":[227]},{"type":"LineString","properties":{"source":"naturalearthdata.com","kind":"minor_road","kind_detail":"tertiary","sort_rank":355,"landuse_kind":"urban_area","min_zoom":5.0,"id":40465},"arcs":[228]},{"type":"LineString","properties":{"source":"naturalearthdata.com","kind":"minor_road","kind_detail":"tertiary","sort_rank":355,"landuse_kind":"urban_area","min_zoom":5.0,"id":40465},"arcs":[229]},{"type":"MultiLineString","properties":{"source":"naturalearthdata.com","kind":"minor_road","sort_rank":355,"kind_detail":"tertiary","min_zoom":5.0,"id":40465},"arcs":[[230],[231]]},{"type":"LineString","properties":{"source":"naturalearthdata.com","kind":"minor_road","kind_detail":"tertiary","sort_rank":355,"landuse_kind":"urban_area","min_zoom":5.0,"id":40467},"arcs":[232]},{"type":"LineString","properties":{"source":"naturalearthdata.com","kind":"minor_road","sort_rank":355,"kind_detail":"tertiary","min_zoom":5.0,"id":40467},"arcs":[233]},{"type":"LineString","properties":{"source":"naturalearthdata.com","kind":"major_road","sort_rank":379,"kind_detail":"secondary","min_zoom":4.0,"id":40478},"arcs":[234]},{"type":"LineString","properties":{"source":"naturalearthdata.com","kind":"major_road","sort_rank":379,"kind_detail":"secondary","min_zoom":4.0,"id":40498},"arcs":[235]},{"type":"LineString","properties":{"source":"naturalearthdata.com","kind":"major_road","sort_rank":379,"kind_detail":"secondary","min_zoom":4.0,"id":40502},"arcs":[236]},{"type":"LineString","properties":{"source":"naturalearthdata.com","kind":"major_road","sort_rank":379,"kind_detail":"secondary","min_zoom":4.0,"id":40505},"arcs":[237]},{"type":"LineString","properties":{"source":"naturalearthdata.com","kind":"major_road","sort_rank":379,"kind_detail":"secondary","min_zoom":4.0,"id":40514},"arcs":[238]},{"type":"LineString","properties":{"source":"naturalearthdata.com","kind":"major_road","kind_detail":"secondary","sort_rank":379,"landuse_kind":"urban_area","min_zoom":4.0,"id":40521},"arcs":[239]},{"type":"LineString","properties":{"source":"naturalearthdata.com","kind":"major_road","sort_rank":379,"kind_detail":"secondary","min_zoom":4.0,"id":40521},"arcs":[240]},{"type":"LineString","properties":{"source":"naturalearthdata.com","kind":"major_road","sort_rank":379,"kind_detail":"secondary","min_zoom":4.0,"id":40528},"arcs":[241]},{"type":"LineString","properties":{"source":"naturalearthdata.com","kind":"major_road","sort_rank":379,"kind_detail":"secondary","min_zoom":4.0,"id":40553},"arcs":[242]},{"type":"LineString","properties":{"source":"naturalearthdata.com","kind":"major_road","sort_rank":379,"kind_detail":"secondary","min_zoom":4.0,"id":40561},"arcs":[243]},{"type":"LineString","properties":{"source":"naturalearthdata.com","kind":"major_road","sort_rank":379,"kind_detail":"secondary","min_zoom":4.0,"id":40586},"arcs":[244]},{"type":"LineString","properties":{"source":"naturalearthdata.com","kind":"major_road","sort_rank":379,"kind_detail":"secondary","min_zoom":4.0,"id":40650},"arcs":[245]},{"type":"LineString","properties":{"source":"naturalearthdata.com","kind":"major_road","sort_rank":379,"kind_detail":"secondary","min_zoom":4.0,"id":40652},"arcs":[246]},{"type":"LineString","properties":{"source":"naturalearthdata.com","kind":"major_road","sort_rank":379,"kind_detail":"secondary","min_zoom":4.0,"id":40682},"arcs":[247]},{"type":"LineString","properties":{"source":"naturalearthdata.com","kind":"major_road","kind_detail":"secondary","sort_rank":379,"landuse_kind":"protected_area","min_zoom":4.0,"id":40714},"arcs":[248]},{"type":"MultiLineString","properties":{"source":"naturalearthdata.com","kind":"major_road","sort_rank":379,"kind_detail":"secondary","min_zoom":4.0,"id":40714},"arcs":[[249],[250]]},{"type":"LineString","properties":{"source":"naturalearthdata.com","kind":"major_road","sort_rank":379,"kind_detail":"secondary","min_zoom":4.0,"id":40796},"arcs":[251]},{"type":"LineString","properties":{"source":"naturalearthdata.com","kind":"major_road","sort_rank":379,"kind_detail":"secondary","min_zoom":4.0,"id":40802},"arcs":[252]},{"type":"MultiLineString","properties":{"source":"naturalearthdata.com","kind":"major_road","kind_detail":"secondary","sort_rank":379,"landuse_kind":"park","min_zoom":4.0,"id":40834},"arcs":[[253],[254]]},{"type":"MultiLineString","properties":{"source":"naturalearthdata.com","kind":"major_road","sort_rank":379,"kind_detail":"secondary","min_zoom":4.0,"id":40834},"arcs":[[255],[256],[257]]},{"type":"LineString","properties":{"source":"naturalearthdata.com","kind":"major_road","kind_detail":"secondary","sort_rank":379,"landuse_kind":"urban_area","min_zoom":4.0,"id":40869},"arcs":[258]},{"type":"MultiLineString","properties":{"source":"naturalearthdata.com","kind":"major_road","sort_rank":379,"kind_detail":"secondary","min_zoom":4.0,"id":40869},"arcs":[[259],[260]]},{"type":"LineString","properties":{"source":"naturalearthdata.com","kind":"major_road","sort_rank":379,"kind_detail":"secondary","min_zoom":4.0,"id":40871},"arcs":[261]},{"type":"LineString","properties":{"source":"naturalearthdata.com","kind":"major_road","sort_rank":379,"kind_detail":"secondary","min_zoom":4.0,"id":40897},"arcs":[262]},{"type":"LineString","properties":{"source":"naturalearthdata.com","kind":"major_road","sort_rank":379,"kind_detail":"secondary","min_zoom":4.0,"id":40898},"arcs":[263]},{"type":"LineString","properties":{"source":"naturalearthdata.com","kind":"major_road","kind_detail":"secondary","sort_rank":379,"landuse_kind":"urban_area","min_zoom":4.0,"id":40900},"arcs":[264]},{"type":"LineString","properties":{"source":"naturalearthdata.com","kind":"major_road","sort_rank":379,"kind_detail":"secondary","min_zoom":4.0,"id":40900},"arcs":[265]},{"type":"LineString","properties":{"source":"naturalearthdata.com","kind":"major_road","sort_rank":379,"kind_detail":"secondary","min_zoom":4.0,"id":40930},"arcs":[266]},{"type":"LineString","properties":{"source":"naturalearthdata.com","kind":"minor_road","sort_rank":355,"kind_detail":"tertiary","min_zoom":6.0,"id":40934},"arcs":[267]},{"type":"LineString","properties":{"source":"naturalearthdata.com","kind":"major_road","sort_rank":379,"kind_detail":"secondary","min_zoom":4.0,"id":40938},"arcs":[268]},{"type":"LineString","properties":{"source":"naturalearthdata.com","kind":"major_road","sort_rank":379,"kind_detail":"secondary","min_zoom":4.0,"id":40939},"arcs":[269]},{"type":"LineString","properties":{"source":"naturalearthdata.com","kind":"major_road","kind_detail":"secondary","sort_rank":379,"landuse_kind":"urban_area","min_zoom":4.0,"id":40945},"arcs":[270]},{"type":"LineString","properties":{"source":"naturalearthdata.com","kind":"major_road","sort_rank":379,"kind_detail":"secondary","min_zoom":4.0,"id":40945},"arcs":[271]},{"type":"MultiLineString","properties":{"source":"naturalearthdata.com","kind":"major_road","kind_detail":"secondary","sort_rank":379,"landuse_kind":"nature_reserve","min_zoom":4.0,"id":40968},"arcs":[[272],[273],[274]]},{"type":"MultiLineString","properties":{"source":"naturalearthdata.com","kind":"major_road","sort_rank":379,"kind_detail":"secondary","min_zoom":4.0,"id":40968},"arcs":[[275],[276],[277],[278]]},{"type":"LineString","properties":{"source":"naturalearthdata.com","kind":"major_road","sort_rank":379,"kind_detail":"secondary","min_zoom":4.0,"id":40971},"arcs":[279]},{"type":"LineString","properties":{"source":"naturalearthdata.com","kind":"major_road","kind_detail":"secondary","sort_rank":379,"landuse_kind":"urban_area","min_zoom":4.0,"id":40995},"arcs":[280]},{"type":"MultiLineString","properties":{"source":"naturalearthdata.com","kind":"major_road","sort_rank":379,"kind_detail":"secondary","min_zoom":4.0,"id":40995},"arcs":[[281],[282]]},{"type":"LineString","properties":{"source":"naturalearthdata.com","kind":"major_road","sort_rank":379,"kind_detail":"secondary","min_zoom":4.0,"id":41004},"arcs":[283]},{"type":"LineString","properties":{"source":"naturalearthdata.com","kind":"major_road","sort_rank":379,"kind_detail":"secondary","min_zoom":4.0,"id":41005},"arcs":[284]},{"type":"LineString","properties":{"source":"naturalearthdata.com","kind":"major_road","sort_rank":379,"kind_detail":"secondary","min_zoom":4.0,"id":41007},"arcs":[285]},{"type":"LineString","properties":{"source":"naturalearthdata.com","kind":"major_road","sort_rank":379,"kind_detail":"secondary","min_zoom":4.0,"id":41009},"arcs":[286]},{"type":"LineString","properties":{"source":"naturalearthdata.com","kind":"major_road","sort_rank":379,"kind_detail":"secondary","min_zoom":4.0,"id":41010},"arcs":[287]},{"type":"LineString","properties":{"source":"naturalearthdata.com","kind":"major_road","sort_rank":379,"kind_detail":"secondary","min_zoom":4.0,"id":41013},"arcs":[288]},{"type":"LineString","properties":{"source":"naturalearthdata.com","kind":"major_road","sort_rank":379,"kind_detail":"secondary","min_zoom":4.0,"id":41019},"arcs":[289]},{"type":"LineString","properties":{"source":"naturalearthdata.com","kind":"major_road","sort_rank":379,"kind_detail":"secondary","min_zoom":4.0,"id":41027},"arcs":[290]},{"type":"LineString","properties":{"source":"naturalearthdata.com","kind":"major_road","sort_rank":379,"kind_detail":"secondary","min_zoom":4.0,"id":41033},"arcs":[291]},{"type":"LineString","properties":{"source":"naturalearthdata.com","kind":"minor_road","sort_rank":355,"kind_detail":"tertiary","min_zoom":6.0,"id":41069},"arcs":[292]},{"type":"LineString","properties":{"source":"naturalearthdata.com","kind":"major_road","sort_rank":379,"kind_detail":"secondary","min_zoom":4.0,"id":41072},"arcs":[293]},{"type":"LineString","properties":{"source":"naturalearthdata.com","kind":"major_road","sort_rank":379,"kind_detail":"secondary","min_zoom":4.0,"id":41083},"arcs":[294]},{"type":"LineString","properties":{"source":"naturalearthdata.com","kind":"minor_road","sort_rank":355,"kind_detail":"tertiary","min_zoom":6.0,"id":41085},"arcs":[295]},{"type":"LineString","properties":{"source":"naturalearthdata.com","kind":"major_road","sort_rank":379,"kind_detail":"secondary","min_zoom":4.0,"id":41092},"arcs":[296]},{"type":"LineString","properties":{"source":"naturalearthdata.com","kind":"major_road","kind_detail":"secondary","sort_rank":379,"landuse_kind":"nature_reserve","min_zoom":4.0,"id":41100},"arcs":[297]},{"type":"LineString","properties":{"source":"naturalearthdata.com","kind":"major_road","kind_detail":"secondary","sort_rank":379,"landuse_kind":"protected_area","min_zoom":4.0,"id":41100},"arcs":[298]},{"type":"MultiLineString","properties":{"source":"naturalearthdata.com","kind":"major_road","sort_rank":379,"kind_detail":"secondary","min_zoom":4.0,"id":41100},"arcs":[[299],[300],[301]]},{"type":"LineString","properties":{"source":"naturalearthdata.com","kind":"major_road","sort_rank":379,"kind_detail":"secondary","min_zoom":4.0,"id":41116},"arcs":[302]},{"type":"LineString","properties":{"source":"naturalearthdata.com","kind":"major_road","sort_rank":379,"kind_detail":"secondary","min_zoom":4.0,"id":41120},"arcs":[303]},{"type":"LineString","properties":{"source":"naturalearthdata.com","kind":"major_road","sort_rank":379,"kind_detail":"secondary","min_zoom":4.0,"id":41122},"arcs":[304]},{"type":"LineString","properties":{"source":"naturalearthdata.com","kind":"minor_road","sort_rank":355,"kind_detail":"tertiary","min_zoom":6.0,"id":41123},"arcs":[305]},{"type":"LineString","properties":{"source":"naturalearthdata.com","kind":"major_road","sort_rank":379,"kind_detail":"secondary","min_zoom":4.0,"id":41126},"arcs":[306]},{"type":"LineString","properties":{"source":"naturalearthdata.com","kind":"major_road","sort_rank":379,"kind_detail":"secondary","min_zoom":4.0,"id":41154},"arcs":[307]},{"type":"LineString","properties":{"source":"naturalearthdata.com","kind":"minor_road","sort_rank":355,"kind_detail":"tertiary","min_zoom":6.0,"id":41155},"arcs":[308]},{"type":"LineString","properties":{"source":"naturalearthdata.com","kind":"major_road","kind_detail":"secondary","sort_rank":379,"landuse_kind":"urban_area","min_zoom":4.0,"id":41164},"arcs":[309]},{"type":"MultiLineString","properties":{"source":"naturalearthdata.com","kind":"major_road","sort_rank":379,"kind_detail":"secondary","min_zoom":4.0,"id":41164},"arcs":[[310],[311]]},{"type":"LineString","properties":{"source":"naturalearthdata.com","kind":"major_road","sort_rank":379,"kind_detail":"secondary","min_zoom":4.0,"id":41175},"arcs":[312]},{"type":"LineString","properties":{"source":"naturalearthdata.com","kind":"major_road","sort_rank":379,"kind_detail":"secondary","min_zoom":4.0,"id":41188},"arcs":[313]},{"type":"LineString","properties":{"source":"naturalearthdata.com","kind":"major_road","sort_rank":379,"kind_detail":"secondary","min_zoom":4.0,"id":41196},"arcs":[314]},{"type":"LineString","properties":{"source":"naturalearthdata.com","kind":"major_road","sort_rank":379,"kind_detail":"secondary","min_zoom":4.0,"id":41208},"arcs":[315]},{"type":"LineString","properties":{"source":"naturalearthdata.com","kind":"major_road","sort_rank":379,"kind_detail":"secondary","min_zoom":4.0,"id":41213},"arcs":[316]},{"type":"LineString","properties":{"source":"naturalearthdata.com","kind":"major_road","kind_detail":"secondary","sort_rank":379,"landuse_kind":"protected_area","min_zoom":4.0,"id":41215},"arcs":[317]},{"type":"LineString","properties":{"source":"naturalearthdata.com","kind":"major_road","sort_rank":379,"kind_detail":"secondary","min_zoom":4.0,"id":41215},"arcs":[318]},{"type":"LineString","properties":{"source":"naturalearthdata.com","kind":"major_road","sort_rank":379,"kind_detail":"secondary","min_zoom":4.0,"id":41220},"arcs":[319]},{"type":"LineString","properties":{"source":"naturalearthdata.com","kind":"major_road","sort_rank":379,"kind_detail":"secondary","min_zoom":4.0,"id":41222},"arcs":[320]},{"type":"LineString","properties":{"source":"naturalearthdata.com","kind":"major_road","sort_rank":379,"kind_detail":"secondary","min_zoom":4.0,"id":41304},"arcs":[321]},{"type":"LineString","properties":{"source":"naturalearthdata.com","kind":"minor_road","sort_rank":355,"kind_detail":"tertiary","min_zoom":6.0,"id":41310},"arcs":[322]},{"type":"LineString","properties":{"source":"naturalearthdata.com","kind":"major_road","sort_rank":379,"kind_detail":"secondary","min_zoom":4.0,"id":41366},"arcs":[323]},{"type":"LineString","properties":{"source":"naturalearthdata.com","kind":"major_road","sort_rank":379,"kind_detail":"secondary","min_zoom":4.0,"id":41369},"arcs":[324]},{"type":"LineString","properties":{"source":"naturalearthdata.com","kind":"major_road","sort_rank":379,"kind_detail":"secondary","min_zoom":4.0,"id":41372},"arcs":[325]},{"type":"LineString","properties":{"source":"naturalearthdata.com","kind":"major_road","sort_rank":379,"kind_detail":"secondary","min_zoom":4.0,"id":41376},"arcs":[326]},{"type":"LineString","properties":{"source":"naturalearthdata.com","kind":"major_road","sort_rank":379,"kind_detail":"secondary","min_zoom":4.0,"id":41377},"arcs":[327]},{"type":"LineString","properties":{"source":"naturalearthdata.com","kind":"major_road","sort_rank":379,"kind_detail":"secondary","min_zoom":3.0,"id":41380},"arcs":[328]},{"type":"LineString","properties":{"source":"naturalearthdata.com","kind":"minor_road","sort_rank":355,"kind_detail":"tertiary","min_zoom":6.0,"id":41394},"arcs":[329]},{"type":"LineString","properties":{"source":"naturalearthdata.com","kind":"major_road","sort_rank":379,"kind_detail":"secondary","min_zoom":3.0,"id":41401},"arcs":[330]},{"type":"LineString","properties":{"source":"naturalearthdata.com","kind":"major_road","sort_rank":379,"kind_detail":"secondary","min_zoom":4.0,"id":41408},"arcs":[331]},{"type":"LineString","properties":{"source":"naturalearthdata.com","kind":"major_road","kind_detail":"secondary","sort_rank":379,"landuse_kind":"urban_area","min_zoom":4.0,"id":41409},"arcs":[332]},{"type":"LineString","properties":{"source":"naturalearthdata.com","kind":"major_road","sort_rank":379,"kind_detail":"secondary","min_zoom":4.0,"id":41409},"arcs":[333]},{"type":"LineString","properties":{"source":"naturalearthdata.com","kind":"major_road","sort_rank":379,"kind_detail":"secondary","min_zoom":4.0,"id":41411},"arcs":[334]},{"type":"LineString","properties":{"source":"naturalearthdata.com","kind":"major_road","kind_detail":"secondary","sort_rank":379,"landuse_kind":"urban_area","min_zoom":3.0,"id":41419},"arcs":[335]},{"type":"LineString","properties":{"source":"naturalearthdata.com","kind":"major_road","sort_rank":379,"kind_detail":"secondary","min_zoom":3.0,"id":41419},"arcs":[336]},{"type":"LineString","properties":{"source":"naturalearthdata.com","kind":"major_road","sort_rank":379,"kind_detail":"secondary","min_zoom":4.0,"id":41425},"arcs":[337]},{"type":"LineString","properties":{"source":"naturalearthdata.com","kind":"major_road","kind_detail":"secondary","sort_rank":379,"landuse_kind":"urban_area","min_zoom":3.0,"id":41431},"arcs":[338]},{"type":"LineString","properties":{"source":"naturalearthdata.com","kind":"major_road","sort_rank":379,"kind_detail":"secondary","min_zoom":3.0,"id":41431},"arcs":[339]},{"type":"LineString","properties":{"source":"naturalearthdata.com","kind":"major_road","sort_rank":379,"kind_detail":"secondary","min_zoom":4.0,"id":41436},"arcs":[340]},{"type":"LineString","properties":{"source":"naturalearthdata.com","kind":"major_road","kind_detail":"secondary","sort_rank":379,"landuse_kind":"urban_area","min_zoom":3.0,"id":41452},"arcs":[341]},{"type":"LineString","properties":{"source":"naturalearthdata.com","kind":"major_road","sort_rank":379,"kind_detail":"secondary","min_zoom":3.0,"id":41452},"arcs":[342]},{"type":"LineString","properties":{"source":"naturalearthdata.com","kind":"major_road","kind_detail":"secondary","sort_rank":379,"landuse_kind":"urban_area","min_zoom":3.0,"id":41459},"arcs":[343]},{"type":"LineString","properties":{"source":"naturalearthdata.com","kind":"major_road","kind_detail":"secondary","sort_rank":379,"landuse_kind":"urban_area","min_zoom":3.0,"id":41459},"arcs":[344]},{"type":"LineString","properties":{"source":"naturalearthdata.com","kind":"major_road","sort_rank":379,"kind_detail":"secondary","min_zoom":3.0,"id":41459},"arcs":[345]},{"type":"LineString","properties":{"source":"naturalearthdata.com","kind":"major_road","kind_detail":"secondary","sort_rank":379,"landuse_kind":"urban_area","min_zoom":4.0,"id":41460},"arcs":[346]},{"type":"LineString","properties":{"source":"naturalearthdata.com","kind":"major_road","sort_rank":379,"kind_detail":"secondary","min_zoom":4.0,"id":41460},"arcs":[347]},{"type":"LineString","properties":{"source":"naturalearthdata.com","kind":"minor_road","kind_detail":"tertiary","sort_rank":355,"landuse_kind":"urban_area","min_zoom":6.0,"id":41461},"arcs":[348]},{"type":"LineString","properties":{"source":"naturalearthdata.com","kind":"minor_road","sort_rank":355,"kind_detail":"tertiary","min_zoom":6.0,"id":41461},"arcs":[349]},{"type":"LineString","properties":{"source":"naturalearthdata.com","kind":"major_road","kind_detail":"secondary","sort_rank":379,"landuse_kind":"urban_area","min_zoom":3.0,"id":41470},"arcs":[350]},{"type":"LineString","properties":{"source":"naturalearthdata.com","kind":"major_road","sort_rank":379,"kind_detail":"secondary","min_zoom":3.0,"id":41470},"arcs":[351]},{"type":"LineString","properties":{"source":"naturalearthdata.com","kind":"major_road","sort_rank":379,"kind_detail":"secondary","min_zoom":4.0,"id":41471},"arcs":[352]},{"type":"LineString","properties":{"source":"naturalearthdata.com","kind":"major_road","sort_rank":379,"kind_detail":"secondary","min_zoom":3.0,"id":41498},"arcs":[353]},{"type":"LineString","properties":{"source":"naturalearthdata.com","kind":"major_road","sort_rank":379,"kind_detail":"secondary","min_zoom":4.0,"id":41500},"arcs":[354]},{"type":"LineString","properties":{"source":"naturalearthdata.com","kind":"major_road","kind_detail":"secondary","sort_rank":379,"landuse_kind":"park","min_zoom":4.0,"id":41533},"arcs":[355]},{"type":"MultiLineString","properties":{"source":"naturalearthdata.com","kind":"major_road","sort_rank":379,"kind_detail":"secondary","min_zoom":4.0,"id":41533},"arcs":[[356],[357]]},{"type":"LineString","properties":{"source":"naturalearthdata.com","kind":"major_road","sort_rank":379,"kind_detail":"secondary","min_zoom":4.0,"id":41573},"arcs":[358]},{"type":"LineString","properties":{"source":"naturalearthdata.com","kind":"major_road","sort_rank":379,"kind_detail":"secondary","min_zoom":3.0,"id":41602},"arcs":[359]},{"type":"LineString","properties":{"source":"naturalearthdata.com","kind":"major_road","sort_rank":379,"kind_detail":"secondary","min_zoom":4.0,"id":41689},"arcs":[360]}]},"earth":{"type":"GeometryCollection","geometries":[{"type":"Polygon","properties":{"sort_rank":10,"source":"naturalearthdata.com","min_zoom":0.0,"kind":"earth","area":1568366174169},"arcs":[[361]]}]},"landuse":{"type":"GeometryCollection","geometries":[{"type":"MultiPolygon","properties":{"kind":"nature_reserve","protect_class":"6","area":964910016,"sort_rank":23,"source":"openstreetmap.org","min_zoom":6.0,"tier":2,"id":-2315643,"osm_relation":true},"arcs":[[[362]]]},{"type":"Polygon","properties":{"kind":"park","area":206050000,"sort_rank":24,"source":"openstreetmap.org","min_zoom":6.0,"tier":2,"id":-3981974,"osm_relation":true},"arcs":[[363]]},{"type":"Polygon","properties":{"kind":"national_park","protect_class":"2","area":1002870016,"sort_rank":18,"operator":"Uganda Wildlife Authorities","source":"openstreetmap.org","min_zoom":3.0,"tier":1,"id":-4576934,"osm_relation":true},"arcs":[[364]]},{"type":"Polygon","properties":{"kind":"protected_area","protect_class":"2","area":161660992,"sort_rank":17,"source":"openstreetmap.org","min_zoom":6.0,"tier":2,"id":-3205793,"osm_relation":true},"arcs":[[365]]},{"type":"MultiPolygon","properties":{"source":"naturalearthdata.com","kind":"urban_area","name":"","area":821771529,"sort_rank":11,"min_zoom":4.0},"arcs":[[[366]],[[367]],[[368]],[[369]],[[370]],[[371]],[[372]],[[373]],[[374]],[[375]],[[376]],[[377]],[[378]],[[379]],[[380]],[[381]],[[382]]]},{"type":"MultiPolygon","properties":{"source":"openstreetmap.org","kind":"protected_area","tier":2,"area":29683521376,"sort_rank":17,"min_zoom":4.0,"osm_relation":true},"arcs":[[[383]],[[384]]]},{"type":"MultiPolygon","properties":{"kind":"park","area":3388300032,"sort_rank":24,"operator":"Uganda Wildlife Authorities","source":"openstreetmap.org","min_zoom":4.0,"tier":2,"id":-6712007,"osm_relation":true},"arcs":[[[385]]]},{"type":"Polygon","properties":{"kind":"park","area":7863309824,"sort_rank":24,"operator":"ICCN","source":"openstreetmap.org","min_zoom":4.0,"tier":2,"id":-404784,"osm_relation":true},"arcs":[[386]]},{"type":"Polygon","properties":{"kind":"nature_reserve","protect_class":"2","area":1651410048,"sort_rank":23,"operator":"Uganda Wildlife Authorities","source":"openstreetmap.org","min_zoom":4.0,"tier":2,"id":-2270428,"osm_relation":true},"arcs":[[387]]},{"type":"MultiPolygon","properties":{"kind":"protected_area","protect_class":"2","area":21513227063,"sort_rank":17,"source":"openstreetmap.org","min_zoom":4.0,"tier":2,"osm_relation":true},"arcs":[[[388]]]},{"type":"Polygon","properties":{"kind":"national_park","protect_class":"2","area":221864992,"sort_rank":18,"operator":"Uganda Wildlife Authorities","source":"openstreetmap.org","min_zoom":5.0,"tier":1,"id":-4576935,"osm_relation":true},"arcs":[[389]]},{"type":"MultiPolygon","properties":{"source":"openstreetmap.org","kind":"park","tier":2,"area":17668254037,"sort_rank":24,"min_zoom":4.0,"osm_relation":true},"arcs":[[[390]],[[391],[392],[393],[394],[395],[396],[397],[398],[399],[400]]]},{"type":"Polygon","properties":{"kind":"nature_reserve","protect_class":"2","area":3903439872,"sort_rank":23,"operator":"Uganda Wildlife Authority","source":"openstreetmap.org","min_zoom":4.0,"tier":2,"id":-2316689,"osm_relation":true},"arcs":[[401]]},{"type":"MultiPolygon","properties":{"kind":"protected_area","protect_class":"6","area":576334476,"sort_rank":17,"source":"openstreetmap.org","min_zoom":6.0,"tier":2,"osm_relation":true},"arcs":[[[402]],[[403]]]},{"type":"Polygon","properties":{"kind":"protected_area","protect_class":"3","area":690572992,"sort_rank":17,"source":"openstreetmap.org","min_zoom":6.0,"tier":2,"id":-2316688,"osm_relation":true},"arcs":[[404]]}]}},"type":"Topology","transform":{"translate":[28.125,-0.0],"scale":[0.001373291,0.0013710903]},"arcs":[[[981,3408],[16,-3],[3,-2],[7,-8],[4,-2]],[[846,3197],[12,3],[11,17],[8,18],[7,10],[37,33],[9,13],[6,15],[5,17],[5,7],[14,13],[1,8],[-1,7],[2,13],[2,26],[6,9],[11,2]],[[1027,3399],[8,-2],[22,-10],[22,0],[9,-2],[30,-14],[8,-6],[21,-19],[11,-6],[6,-1]],[[1011,3393],[11,6],[5,0]],[[1180,3343],[5,-2],[16,-10],[7,-3],[9,-5],[-2,-8],[-4,-4],[-3,-4],[-5,-8],[1,-6],[5,-12],[1,-6],[-1,-8],[-6,-22],[-1,-32],[9,-27],[20,-16]],[[1164,3339],[16,4]],[[459,3321],[10,-3],[11,-14],[1,-16],[3,-14],[19,-8]],[[308,3188],[7,2],[5,6],[2,9],[2,8],[9,5],[30,7],[11,8],[11,15],[30,58],[7,1],[15,0],[9,5],[7,6],[6,3]],[[627,3279],[6,-6],[35,-24],[8,-3],[2,-10]],[[567,3266],[16,2],[44,11]],[[532,3269],[35,-3]],[[503,3266],[7,0],[22,3]],[[0,3208],[11,-14],[14,-13],[13,-10],[29,-4]],[[680,3237],[29,-13],[8,-6],[46,-47],[17,-8]],[[678,3236],[2,1]],[[832,3200],[14,-3]],[[780,3163],[18,3],[6,12],[2,13],[8,9],[18,0]],[[287,3190],[7,0],[7,-1],[7,-1]],[[187,3118],[16,2],[16,9],[13,13],[28,37],[11,8],[16,3]],[[130,3174],[24,-18],[7,-15],[2,-10],[6,-7],[18,-6]],[[67,3167],[32,6],[31,1]],[[1264,3171],[16,-3],[19,-11],[16,-14],[7,-15],[-3,-8],[-5,-7],[-5,-8],[1,-8],[6,-7],[8,-2]],[[1231,3170],[33,1]],[[1332,3088],[9,-2],[17,-10],[11,-13],[17,-33],[11,-16],[10,-6],[31,-7],[17,-9],[7,-14],[4,-17],[7,-17],[17,-21],[5,-8],[2,-8],[0,-7],[1,-8],[5,-7],[12,-4],[48,0],[48,-16],[59,-35],[28,-9],[6,-1],[15,-1]],[[1324,3088],[8,0]],[[1741,2823],[7,-2],[10,-19],[17,-107],[0,-14],[-6,-29],[-4,-9],[-4,-4],[0,-4],[7,-6],[7,-2],[7,-1]],[[1719,2819],[7,1],[7,2],[8,1]],[[1909,2680],[13,-9],[3,-8],[3,-25],[5,-10],[9,-8],[23,-9],[10,-13],[-7,-37],[9,-15]],[[1870,2649],[16,9],[12,14],[11,8]],[[1850,2649],[20,0]],[[1782,2626],[15,2],[9,3],[23,12],[12,5],[9,1]],[[4096,2912],[-35,-35],[-70,-70],[-53,-54],[-4,-2],[-27,-16],[-31,-4]],[[3876,2731],[-117,6],[-67,3],[-22,5],[-16,8],[-92,75],[-14,6]],[[3548,2834],[-13,-5],[-44,-33],[-57,-29],[-61,-18],[-115,-9],[-134,-11],[-32,-8],[-134,-81],[-8,-10],[-1,-10],[3,-26],[0,-11],[-2,-10],[-1,-5],[-5,-6],[-9,-1]],[[2935,2561],[-46,10],[-12,6],[-11,11],[-5,8],[-9,15],[-8,4],[-6,1],[-57,3],[-10,5],[-5,13],[-3,33],[-2,14],[-11,18],[-52,58],[-17,14],[-4,2],[-15,7],[-2,1]],[[2660,2784],[-2,-5],[-58,-65],[-6,-6],[-14,-6],[-75,-11],[-13,-6],[-9,-11],[0,-1],[-8,-6]],[[2475,2667],[-13,2],[-93,51],[-61,33],[-28,9],[-30,4],[-34,0]],[[2216,2766],[-19,-5],[-27,-21],[-20,-16],[-6,-2],[-14,-3],[-7,-3],[-23,-18],[-9,-4],[-8,-1]],[[2083,2693],[-14,0]],[[2069,2693],[-8,-2],[-8,-8],[-4,-7],[-2,-9],[-3,-8],[-48,-71],[-16,-31],[-3,-11]],[[2018,2567],[9,-17],[1,-7],[-5,-20],[1,-9],[7,-15],[2,-8],[-5,-16],[-4,-5],[-5,-8],[-21,-24],[-15,-24],[-1,-4],[-1,-8],[-2,-3],[-4,-2],[-8,-2],[-3,-2],[-13,-26],[-30,-89],[-11,-34],[-3,-16],[1,-13],[9,-11],[34,-24],[12,-12],[17,-29],[8,-29],[-1,-29],[-18,-49],[-5,-7],[-3,-2],[-9,-1],[-3,-2],[-2,-4],[0,-8],[-1,-3],[-24,-66],[-2,-9],[0,-3],[-2,-6],[-14,-22],[-3,-8],[-1,-13],[3,-27],[-1,-13],[-6,-12],[-9,-15],[-6,-15],[2,-13],[10,-3],[51,0],[7,-4],[2,-9],[0,-11],[2,-11],[7,-12],[12,-14],[14,-13],[12,-5]],[[1977,2546],[15,5],[14,12],[12,4]],[[2043,1755],[27,-1],[12,-7],[42,-47],[1,-3],[2,-5],[-1,-4],[-4,-3],[-3,-2],[4,-7],[11,-6],[32,-5],[10,-1]],[[2000,1701],[21,10],[10,23],[12,21]],[[2223,1680],[1,-32],[2,-15],[6,-13],[15,-12],[41,-23],[8,-13],[2,-1],[-1,-2],[-6,-35],[-21,-38],[-43,-55],[-47,-59],[-17,-21],[-51,-64],[-52,-42],[-100,-81],[-98,-80],[-62,-79],[-31,-41],[-55,-71],[-15,-12],[-9,-6],[-10,-5],[-14,-3],[-10,-1]],[[2176,1664],[12,2],[35,14]],[[1656,876],[-16,1]],[[1640,877],[-9,0],[-12,-10],[-9,-14],[-9,-10]],[[1601,843],[-12,6],[-8,6],[-7,1]],[[1574,856],[-6,-1],[-7,-4],[-22,-22],[-2,-5],[-1,-16],[-2,-7],[-3,-7],[-9,-8],[0,-15],[4,-29],[-5,-14],[-16,-17],[-4,-12],[-2,-2],[-13,-25],[-8,-9],[-7,-4],[-78,-18],[-30,-14],[-11,-8],[-16,-12],[-9,-6],[-14,-28],[-1,-8],[4,-38],[-9,-61],[0,-15],[13,-59],[2,-29],[-10,-22],[-3,-5],[-14,-16],[-38,-45],[-8,-14],[-6,-15],[-23,-120],[-2,-6],[-8,-4]],[[1210,116],[-5,2],[-5,4],[-9,4]],[[1191,126],[-3,-9],[-33,-44],[-6,-20],[-1,-13],[9,-32],[0,-8]],[[3542,1251],[-7,-37],[-26,-14],[16,-60],[-1,-65]],[[2053,4096],[11,-26],[3,-31],[-8,-26],[-33,-51],[-13,-32],[-8,-35],[-11,-216],[-3,-15],[-2,-9],[-4,-8],[-9,-8],[-16,-9],[-101,-34],[-84,-42],[-33,-25],[-96,-94],[-26,-13],[-23,-4]],[[1597,3418],[-19,5],[-18,11],[-47,43],[-17,11],[-16,6],[-19,1]],[[1461,3495],[-15,-3],[-19,-8],[-16,-11],[-18,-16],[-27,-31],[-134,-104],[-21,-11]],[[2957,4096],[5,-335],[17,-64],[10,-29],[58,-101],[11,-25],[7,-26],[-1,-23],[-8,-25],[-14,-27],[-42,-62],[-68,-148],[-27,-108],[-14,-29],[-18,-23],[-24,-24],[-76,-54],[-14,-17],[-14,-26],[-48,-133],[-18,-28],[-2,-13]],[[3569,1240],[27,2],[12,4],[11,6],[3,9],[2,10],[15,42],[5,24],[6,7],[9,4],[66,41],[11,12],[9,15],[7,5],[4,8],[6,58]],[[3542,1251],[27,-11]],[[3042,1202],[-49,15],[-17,6],[-25,0]],[[2951,1223],[-27,-7],[-26,-14]],[[2792,1076],[26,39],[17,6],[16,10],[21,27],[13,31],[13,13]],[[3323,1073],[90,3]],[[3413,1076],[111,-1]],[[3042,1202],[11,-18],[48,-15],[33,-21],[18,-5],[16,-11],[22,-22],[15,-4]],[[3226,1109],[14,-24],[19,-18]],[[3205,1106],[21,3]],[[3259,1067],[64,6]],[[2692,990],[45,46],[30,18],[25,22]],[[2413,628],[-11,-18],[1,-13],[-10,-9],[-7,-11],[-7,-39],[-20,-28]],[[2359,510],[-34,13]],[[2325,523],[-31,-7],[-44,-62]],[[1256,701],[7,-2],[5,-7],[15,-28],[6,-9],[8,-7],[8,-6],[47,-23]],[[1150,641],[10,1],[13,5],[10,8],[24,25],[7,5],[34,14],[8,2]],[[1130,644],[20,-3]],[[1103,642],[27,2]],[[1081,643],[22,-1]],[[1029,596],[10,1],[12,5],[6,8],[2,18],[6,10],[8,4],[8,1]],[[940,625],[9,0],[10,-3],[51,-23],[8,-2],[11,-1]],[[929,451],[14,4],[22,12],[12,10],[8,10],[0,8],[-6,8],[-8,5],[-36,11],[-9,3],[-8,6],[-8,7],[-6,8],[-3,9],[-1,8],[1,10],[3,9],[9,18],[12,18],[7,7],[8,3]],[[164,540],[10,-2],[10,-3],[9,-5],[17,-16],[50,-56],[13,-11],[15,-10],[10,-4],[8,-3],[9,-2],[10,-1]],[[0,517],[153,22],[11,1]],[[760,501],[13,-1],[8,-2],[10,-4],[9,-5],[16,-14],[2,-1],[4,0]],[[647,448],[13,4],[15,8],[40,25],[21,10],[10,4],[14,2]],[[861,480],[9,-3],[10,-4],[28,-18],[10,-4],[11,0]],[[822,474],[8,0],[22,6],[9,0]],[[504,460],[81,-5],[31,-6],[31,-1]],[[325,427],[9,1],[111,28],[59,4]],[[0,89],[5,5],[3,7],[4,11],[-1,6],[0,5],[-2,3],[-2,3],[-3,3],[-4,3]],[[2413,628],[0,24],[-8,24],[11,14],[18,11],[7,10],[11,2],[12,6],[7,11],[2,19],[-13,15],[-40,35],[-30,44],[-20,8],[-22,6],[-22,13],[-21,15]],[[2898,1202],[-2,13]],[[2991,1308],[6,2],[6,4],[7,2],[9,4],[3,8],[1,9],[2,7],[13,5],[19,5],[13,8],[-2,15],[3,5],[2,6],[-1,16],[2,7],[4,5],[10,10],[-10,4],[-8,1],[-5,4],[-2,9],[2,9],[10,20],[3,9],[0,13],[-4,17]],[[2983,1312],[8,-4]],[[2896,1215],[7,23],[-5,13],[8,10],[22,21],[5,7],[7,8],[34,7],[9,8]],[[3074,1512],[-6,15],[-8,12],[-5,12],[-7,51],[-14,25],[-11,13],[-12,6]],[[2468,993],[114,-15],[33,-9],[33,-4]],[[2648,965],[16,18],[14,4],[14,3]],[[3586,484],[1,-16],[25,-58],[10,-13]],[[3586,484],[1,32],[-4,35],[-9,31],[-14,28],[-35,55],[-8,28],[-14,97],[3,15],[15,13],[4,14],[0,17],[-3,13]],[[3522,862],[-22,36],[-7,23],[-17,21],[-4,14],[-31,35],[-14,31],[-14,54]],[[2100,151],[13,23],[21,17],[18,20],[16,23],[10,8],[8,10],[-5,12],[-7,13],[-1,28],[14,25],[7,24],[16,14],[51,9],[10,5],[0,9],[5,11],[2,11],[-10,23],[-18,18]],[[3820,1473],[-28,14],[-30,0]],[[3868,1536],[14,4],[11,12],[-3,7],[-2,8],[3,6],[2,7],[4,16],[-5,14],[-11,9],[-8,12],[29,0],[26,18],[21,21],[-2,29],[1,19]],[[3848,1550],[12,-2],[8,-12]],[[3820,1473],[-5,24],[4,29],[29,24]],[[3994,1701],[20,21]],[[3948,1718],[21,-13],[25,-4]],[[2119,0],[6,15],[0,47],[-3,29],[-15,27],[-13,30]],[[3749,255],[-43,14],[-22,17],[2,26],[-5,27],[-16,22],[-43,36]],[[3832,221],[-67,29],[-16,5]],[[3860,0],[0,156],[-28,65]],[[2748,1722],[-7,1],[-7,3]],[[2734,1726],[-13,-5],[-29,-5],[-14,-5],[-11,-9],[-23,-26]],[[2953,1627],[-17,1],[-24,18],[-24,7],[-17,10],[-8,3],[-22,3],[-8,2],[-29,26],[-15,7],[-18,13],[-8,4],[-8,1]],[[2755,1722],[-7,0]],[[3011,1646],[-1,0],[-25,2]],[[2985,1648],[-7,-2],[-5,-3],[-12,-12],[-8,-4]],[[4096,1751],[-1,1],[-18,8]],[[4077,1760],[-37,-37],[-26,-1]],[[2468,993],[-56,-55],[-21,-9],[-42,-21],[-24,-7],[-20,-16]],[[2319,1572],[-22,-3]],[[3742,2738],[-9,-32],[-6,-21],[4,-24],[17,-23],[9,-41],[-2,-95]],[[3755,2502],[-41,2],[0,38],[-32,36]],[[3682,2578],[-19,0],[-15,-8],[-8,-30],[-11,-11],[-123,0],[-9,-17],[0,-15],[-17,-13],[-28,-6],[-70,-4],[-8,-19],[0,-34],[14,-30],[0,-30],[4,-42]],[[3663,2201],[0,-30],[-15,-17],[-21,-17],[4,-26],[38,-6],[47,-2],[15,-26],[-4,-49],[-24,-25],[-93,-5],[-19,-21],[17,-26],[36,-46]],[[2129,1888],[15,-47],[-11,-27],[-22,-14],[-4,-26],[-31,-5],[-6,-15]],[[2811,2042],[25,-15],[26,-3]],[[2402,1909],[32,9],[23,24],[34,36],[31,15],[85,0],[10,29],[21,18],[173,2]],[[2896,2024],[26,-18],[31,-8],[15,-7]],[[2862,2024],[34,0]],[[3222,1590],[37,-1]],[[3312,1589],[13,-15],[14,-13],[28,-2],[15,-13],[32,-9]],[[3259,1589],[53,0]],[[3469,1717],[5,17],[32,13],[19,21],[0,21]],[[3612,1507],[-4,114],[-15,26],[-28,14],[-28,22],[-10,25],[-26,9]],[[3501,1717],[-32,0]],[[3525,1789],[23,15],[11,24],[2,20]],[[3642,1794],[32,-13],[10,-28],[15,-15],[34,-8],[56,-2],[36,-13],[10,-9]],[[3563,1781],[34,0],[17,13],[28,0]],[[3525,1789],[38,-8]],[[3925,1719],[23,-1]],[[3835,1706],[71,0],[19,13]],[[3972,1143],[-51,13],[-32,21],[-22,45],[-49,13],[-10,17]],[[4071,1161],[-52,-13],[-47,-5]],[[2491,1661],[2,-50],[-7,-49],[0,-56],[25,-31],[21,-35],[21,-18],[10,-21],[-7,-17],[-21,-4],[-21,-17],[0,-49],[-21,-32],[-48,-24]],[[2445,1258],[-46,3],[-42,7]],[[2644,1676],[-7,-89],[3,-84],[14,-18],[28,-3],[21,-7],[14,-21],[14,-21],[0,-32],[-7,-45],[0,-35],[18,-32],[10,-28],[0,-28],[21,-10],[28,-7],[14,-21]],[[2871,1230],[25,-15]],[[2815,1195],[24,3],[0,28],[32,4]],[[3522,862],[56,-6],[55,-25],[10,-30],[4,-32],[17,-12],[19,-7],[34,-27],[21,-21],[28,-14]],[[3861,636],[8,-42],[-11,-34],[-2,-29],[25,-21],[42,-23],[0,-38],[3,-50]],[[4067,793],[29,11]],[[4011,793],[56,0]],[[4048,235],[33,17],[15,11]],[[3573,428],[-32,-21],[-2,-35],[12,-41],[20,-28],[-6,-40],[-32,-35],[-42,-41],[-20,-36],[-21,-24],[-2,-25],[-63,-75],[-23,-27]],[[3749,255],[-35,-19],[-24,-18],[-5,-26],[-8,-30],[-30,-29],[-40,-67],[-18,-66]],[[2585,632],[31,40],[29,25],[31,18],[23,20],[9,34],[22,23],[57,13]],[[2587,0],[-4,8],[-17,26]],[[2671,37],[37,21],[54,23],[35,16],[27,36],[47,27],[42,10],[12,17]],[[2915,93],[31,19],[35,23],[21,16],[15,15],[-3,29]],[[2878,99],[37,-6]],[[2727,0],[41,21],[45,35],[27,29],[38,14]],[[1626,597],[54,55],[29,37],[40,30]],[[1591,626],[35,-29]],[[1489,521],[51,28],[34,22],[17,55]],[[1834,119],[32,15],[28,1],[59,0],[33,0]],[[2009,302],[1,35],[25,2],[0,66],[8,10],[16,2],[0,44],[-13,7],[-23,12],[-9,15],[15,4],[19,10]],[[2561,1651],[14,2],[69,23]],[[2541,1661],[7,-1],[7,-7],[6,-2]],[[2491,1661],[50,0]],[[2319,1572],[26,18]],[[2345,1590],[15,9],[4,3],[20,6],[36,27],[35,9],[25,14],[11,3]],[[1429,123],[7,3]],[[1436,126],[16,6]],[[1452,132],[114,33]],[[1567,165],[9,2]],[[1576,167],[28,-32]],[[1604,135],[3,-22],[24,25]],[[1631,138],[-2,0],[0,2],[2,-1],[0,-1]],[[1631,138],[100,-5],[38,25],[337,-22],[217,41],[31,33],[106,19],[96,56],[126,-9],[150,43],[69,-33],[85,21],[130,-52],[18,-29],[84,-12]],[[3218,214],[28,11]],[[0,2080],[118,-17],[77,-38],[76,-106]],[[1499,214],[25,-37]],[[1534,159],[-10,18]],[[3247,225],[5,4]],[[3253,229],[-1,0]],[[3252,229],[67,28],[70,-37],[68,17]],[[3695,323],[-57,-70],[-91,-9],[-40,25],[-50,-32]],[[4039,587],[-43,16],[-18,-9]],[[3978,594],[-114,73],[-247,-32],[-21,-28],[79,-53],[63,-178],[-43,-53]],[[3978,594],[28,-33]],[[2360,1657],[-4,-7],[-2,-6],[1,-34],[2,-6],[9,-11],[11,-17],[4,-17],[-12,-12],[19,-46],[1,-24],[-15,-20],[14,-32],[1,-11],[0,-18],[-1,-4],[-2,-3],[-1,-3],[-4,-27],[-10,-19],[-16,-9],[-21,6],[-6,-15],[-5,-38],[-4,-17],[-10,-18],[-10,-12],[-30,-20],[-42,-40],[-44,-23],[-9,-3],[-9,2],[-9,3],[-7,1],[-9,-6],[-5,4],[-5,2],[-10,-22],[-21,-10],[-24,-7],[-20,-11],[-13,-18],[-22,-44],[-122,-141],[-8,-11],[-1,-11],[0,-12],[-3,-13],[-81,-85],[3,-5],[-1,-2],[-4,-2],[-8,-1],[7,-4],[3,-1],[0,-5],[-9,-3],[-10,1],[-9,4],[-7,8],[-7,-5],[-3,-6],[-2,-6],[-4,-6],[-2,8],[0,8],[2,8],[1,9],[-13,-12],[-8,-5],[-6,0],[-5,7],[3,7],[6,7],[3,6],[2,16],[-4,10],[-6,10],[-6,14],[4,14],[-5,15],[-1,14],[16,7],[0,5],[-10,5],[-20,20],[-1,4],[-3,7],[-4,4],[-2,-8],[0,-22],[-3,0],[-1,1],[0,1],[-1,3],[-7,-8],[-3,-2],[-1,12],[-7,11],[-10,5],[-11,-3],[-1,8],[1,7],[2,8],[3,6],[-10,10],[5,10],[12,8],[10,3],[22,45],[9,14],[9,15],[5,17],[3,16],[2,8],[5,9],[8,7],[7,3],[5,4],[12,19],[5,8],[35,16],[18,11],[8,15],[4,16],[12,13],[51,32],[7,6],[8,22],[5,3],[10,5],[37,31],[70,79],[30,16],[22,2],[8,2],[7,5],[5,5],[5,7],[5,6],[30,27],[32,21],[8,2],[15,4],[7,4],[6,7],[11,18],[6,7],[13,12],[7,4],[10,1],[9,3],[2,7],[-1,8],[2,7],[39,32],[6,11],[3,15],[5,14],[8,12],[31,35],[14,9],[38,14],[9,5],[7,8],[4,9],[2,19],[4,7],[0,-36],[-5,-16],[-12,-7],[-14,-4],[-14,-9],[-25,-18],[-4,-4],[-5,-5]],[[3215,1185],[10,5],[8,7],[-18,0],[-19,3],[-17,6],[-22,14],[-8,4],[-9,2],[-10,1],[-9,-2],[-7,-3],[-5,-4],[-4,-1],[-6,-3],[-41,-17],[2,-11],[16,-6],[19,-4],[12,-5],[6,9],[7,-1],[7,-6],[13,-14],[3,-3],[34,2],[12,-3],[9,-8],[0,-12],[-8,-2],[-12,4],[-10,5],[0,-10],[-53,12],[-8,10],[-2,7],[-8,5],[-9,4],[-17,2],[-9,2],[-19,8],[0,10],[-17,11],[-33,14],[9,0],[9,-1],[17,-4],[40,-4],[7,1],[15,12],[17,11],[27,6],[22,-6],[21,-10],[23,-5],[12,0],[25,6],[11,4],[8,7],[18,23],[1,5],[18,9],[16,42],[13,8],[-4,-9],[2,-7],[7,-18],[5,0],[6,11],[27,13],[12,10],[3,11],[0,14],[3,11],[9,4],[-5,-9],[9,1],[5,3],[3,3],[8,2],[8,-2],[8,-5],[5,-1],[-1,8],[7,3],[3,3],[10,-25],[5,0],[0,5],[5,0],[3,-6],[5,-4],[5,-3],[7,-3],[10,25],[8,15],[9,6],[13,4],[19,20],[11,6],[15,-2],[-4,-10],[-20,-26],[-19,-14],[-7,-8],[15,-2],[2,-9],[0,-10],[6,-5],[7,4],[7,5],[6,0],[2,-11],[-1,-1],[-6,-9],[-1,-2],[-8,-2],[-1,-4],[1,-5],[1,-5],[-3,-9],[-2,-21],[0,-10],[-5,0],[-4,16],[-2,18],[-4,17],[-10,10],[-5,-5],[-7,2],[-8,1],[-7,-2],[-3,-4],[-3,-3],[-8,1],[-14,5],[-7,-2],[-7,-3],[-4,0],[-2,7],[-25,28],[-4,-7],[-4,-4],[-10,-7],[-4,-5],[-1,-2],[0,-4],[-4,-17],[2,-6],[3,-6],[1,-8],[6,-5],[0,-3],[-8,-1],[-32,-1],[-8,-3],[-2,-7],[5,-14],[-5,1],[-10,2],[-5,1],[-8,-8],[-34,-15],[-16,-25],[-35,-8],[-11,-8],[3,-2],[0,-1],[2,-3],[-7,0],[-7,-2],[-6,-3],[-5,-4],[1,4],[1,2],[0,1],[3,2],[-8,10],[5,4]],[[3905,1210],[6,-3],[-5,0],[4,-7],[1,-3],[0,-6],[-5,0],[-25,8],[-38,4],[-37,-6],[-25,-20],[-22,7],[-20,-8],[-33,-29],[-12,1],[-16,-7],[-15,-11],[-10,-19],[-11,-3],[-12,-3],[-11,-6],[-2,-11],[12,-8],[15,-6],[13,-3],[17,0],[11,4],[11,6],[15,6],[-5,-10],[32,7],[13,0],[1,-13],[-11,6],[-9,-5],[-4,-9],[4,-11],[-21,-1],[-16,-1],[-14,-6],[-20,-13],[10,-10],[11,-1],[14,1],[15,-4],[0,-5],[-5,1],[-10,2],[-4,2],[6,-10],[14,-2],[15,4],[9,8],[17,-8],[6,6],[2,22],[7,2],[12,1],[12,-2],[4,-7],[-6,-7],[-10,1],[-7,-2],[3,-16],[3,-4],[3,1],[4,1],[3,-1],[3,-3],[-1,-3],[-3,-1],[-2,-2],[2,-7],[5,-7],[7,-6],[6,-4],[-7,-6],[-5,-9],[-4,-4],[-9,5],[-24,-10],[-11,-7],[-5,-6],[2,-12],[4,-11],[2,-12],[-3,-12],[-5,6],[-4,2],[-5,0],[-6,-3],[-1,14],[-5,17],[-7,17],[-7,12],[-2,-1],[-3,-1],[-2,-1],[-3,-3],[-10,11],[-9,-3],[-16,-17],[0,2],[-6,-1],[-8,-1],[-1,-1],[-3,-2],[-5,-2],[-6,0],[12,30],[0,5],[-5,3],[-14,14],[-3,1],[-3,-2],[-14,11],[-6,3],[-5,-1],[-4,-3],[-6,-2],[-5,4],[-4,4],[-4,4],[-5,3],[-7,1],[-25,10],[-27,21],[-30,13],[-35,-9],[4,-2],[3,-2],[3,-1],[5,0],[-4,-10],[-6,-10],[-5,0],[-2,6],[-1,2],[-2,2],[-5,4],[4,-21],[26,-33],[10,-20],[-5,0],[-3,4],[-3,2],[-4,2],[-5,2],[3,-11],[2,-5],[5,-5],[-15,9],[-9,20],[-11,47],[-15,-2],[-20,16],[-15,-5],[-15,2],[-13,-12],[-3,-16],[13,-8],[8,-2],[6,-11],[7,-2],[4,-3],[3,-8],[1,-10],[-1,-9],[-7,7],[-15,23],[-6,5],[-13,3],[-22,10],[-9,2],[-8,1],[-15,4],[-19,0],[-14,5],[-12,7],[-9,8],[-5,10],[-5,3],[-5,4],[-4,5],[-2,7],[-2,1],[-2,1],[0,4],[1,3],[7,5],[7,24],[-1,10],[-9,7],[12,6],[8,-8],[8,-11],[14,-6],[44,-6],[13,1],[11,6],[32,29],[13,24],[14,9],[15,6],[10,6],[5,0],[0,-7],[0,-7],[-2,-6],[-3,-5],[-4,3],[-4,3],[-2,3],[-6,-9],[0,-9],[6,-7],[10,-4],[7,2],[8,7],[8,4],[7,-3],[14,5],[11,-2],[9,0],[11,12],[16,-14],[17,4],[15,7],[12,-7],[-4,-3],[-2,-4],[-4,-8],[19,3],[18,13],[28,29],[3,3],[6,3],[4,3],[2,3],[-1,7],[-2,4],[0,3],[3,4],[11,6],[7,-3],[0,-7],[-9,-6],[0,-5],[7,-4],[4,-4],[4,-3],[6,0],[3,3],[8,10],[5,5],[4,-2],[-6,-5],[13,5],[3,7],[1,9],[6,11],[6,5],[4,0],[3,-1],[4,-1],[0,-4],[5,-5],[7,-2],[3,8],[2,2],[7,13],[1,3],[7,2],[4,-2],[2,-3],[0,-2],[-6,-6],[-1,-12],[6,-12],[11,-6],[9,4],[18,20],[10,6],[38,6],[12,5],[20,43],[13,19],[12,-7],[-11,-7],[-4,-16],[1,-46],[5,3],[9,8],[15,3],[-2,-6],[-1,-6],[-2,-13],[5,0],[4,3],[2,1],[3,-1]],[[3452,1052],[0,5],[-83,-2],[-7,2],[-4,2],[-2,4],[-5,3],[-9,0],[13,-15],[14,-7],[16,-1],[22,4],[15,-8],[8,2],[7,6],[15,5]],[[3034,0],[0,1],[-9,13],[-22,18],[5,5],[22,-10],[28,-7],[20,-13],[0,-7],[-44,0]],[[3090,0],[5,39],[-7,23],[15,5],[11,-10],[14,3],[13,12],[7,15],[8,-8],[-1,-10],[-6,-9],[-6,-8],[-16,-12],[2,-4],[11,-11],[11,-3],[8,8],[6,11],[7,8],[2,6],[3,6],[6,1],[3,-3],[7,-22],[6,4],[4,13],[5,3],[7,-2],[5,-7],[8,-16],[9,12],[-19,31],[5,12],[6,-4],[14,-6],[7,2],[-12,18],[14,5],[5,0],[0,5],[-6,2],[-13,9],[3,9],[-9,11],[3,7],[8,2],[7,-3],[5,-1],[2,9],[13,2],[8,21],[6,24],[8,13],[12,-1],[3,-9],[-2,-10],[-12,-11],[1,-13],[6,-6],[12,10],[5,-10],[-17,-28],[3,-9],[21,-3],[7,5],[6,10],[5,15],[8,-2],[4,-7],[4,-9],[4,-7],[-10,-6],[-13,-16],[-5,-3],[-13,1],[-4,-1],[-7,-3],[-6,-2],[-7,0],[6,-10],[0,-15],[4,-5],[11,-2],[10,4],[7,6],[4,2],[7,1],[9,3],[8,3],[4,6],[5,2],[12,-4],[18,-11],[0,14],[2,10],[3,9],[5,8],[5,0],[3,-9],[8,0],[9,2],[10,-4],[-2,6],[-2,6],[-1,13],[5,0],[4,-9],[10,16],[11,4],[-2,-3],[-1,-3],[-2,-5],[7,0],[2,0],[-6,-7],[-3,-7],[1,-7],[8,-4],[-7,-3],[-8,-5],[-5,-6],[4,-9],[8,-6],[4,0],[0,-1],[0,-12],[6,-9],[14,1],[48,17],[16,8],[50,39],[6,6],[5,9],[9,26],[-24,1],[-21,4],[20,13],[6,2],[0,5],[-5,0],[0,5],[7,-2],[13,-6],[18,-4],[0,-5],[-8,-10],[3,-9],[7,2],[7,6],[2,3],[1,4],[-1,5],[0,4],[3,2],[6,1],[4,2],[8,7],[-8,10],[-5,15],[3,14],[12,6],[13,3],[23,13],[14,4],[2,2],[16,9],[4,4],[1,10],[-3,3],[-5,0],[-21,4],[-15,2],[-13,5],[-4,16],[17,-4],[19,4],[10,9],[-6,16],[23,11],[7,4],[6,-31],[20,-2],[20,14],[4,14],[10,15],[14,-4],[3,-5],[-12,-16],[-16,-29],[3,-5],[6,-3],[2,-3],[-12,-11],[-17,-2],[-11,-5],[5,-22],[8,5],[27,10],[3,-7],[0,-6],[-3,-6],[-5,-6],[13,3],[13,-1],[13,-5],[11,-7],[-1,6],[-1,4],[-3,3],[-5,2],[21,8],[10,1],[9,-4],[-10,-5],[8,-11],[13,-4],[8,-4],[-4,-11],[14,-3],[0,-12],[-10,-10],[-14,5],[5,3],[5,2],[-10,4],[-12,4],[-11,0],[-7,-3],[-6,4],[-5,1],[-14,0],[4,-6],[6,-4],[15,-5],[-10,-5],[9,-6],[5,-2],[6,-2],[-16,-9],[10,-12],[19,-14],[12,-15],[5,0],[-2,21],[1,10],[4,4],[6,-3],[2,-7],[-1,-19],[6,5],[8,11],[6,3],[-1,-8],[-2,-8],[-7,-14],[6,1],[5,2],[2,5],[2,7],[5,0],[1,-11],[7,-5],[8,3],[4,11],[6,6],[14,6],[13,9],[7,14],[-5,38],[0,9],[7,7],[9,2],[10,-3],[9,-6],[13,11],[6,3],[11,1],[8,-1],[11,-3],[10,-5],[1,-1],[0,-6],[-12,-2],[-13,-6],[-10,-11],[-5,-15],[8,3],[9,1],[9,-1],[9,-3],[0,-5],[-7,-6],[-10,-11],[-7,-13],[-1,-10],[10,-6],[20,-1],[0,-140],[-688,0],[4,14],[-16,13],[0,-15],[-4,0],[-7,3],[-5,-7],[-1,-8],[-289,0]],[[3684,109],[8,9],[-13,0],[-8,-11],[-2,-15],[7,-15],[6,9],[2,23]],[[3765,22],[6,10],[-15,0],[1,4],[3,7],[1,3],[-19,-4],[-10,-6],[-2,-10],[6,-18],[21,8],[8,6]],[[3832,183],[9,4],[-8,12],[-6,11],[-7,7],[-14,0],[0,-5],[6,-1],[4,-3],[3,-5],[2,-6],[-5,0],[-6,3],[-5,-5],[-2,-9],[3,-9],[-6,2],[-1,1],[-3,2],[-6,-8],[-7,1],[-4,6],[2,6],[0,5],[-16,0],[-1,8],[7,10],[10,7],[-14,6],[-15,-1],[-28,-5],[-4,-2],[-16,-21],[-5,-7],[3,-5],[9,-5],[25,-25],[3,-5],[3,-2],[-1,-5],[-5,-6],[-7,-2],[-8,1],[-20,4],[15,-25],[5,0],[9,8],[12,-8],[11,-17],[3,-18],[8,3],[5,6],[3,7],[-1,9],[5,0],[0,-29],[4,-11],[12,-5],[5,1],[2,2],[2,2],[-15,9],[-4,16],[5,16],[9,9],[-9,5],[-6,8],[0,9],[5,9],[-4,11],[4,6],[9,-1],[6,-12],[5,7],[5,5],[6,1],[4,-3],[5,9],[2,9],[4,8]],[[2360,1657],[-4,-7],[-2,-6],[1,-34],[2,-6],[9,-11],[11,-17],[4,-17],[-12,-12],[19,-46],[1,-24],[-15,-20],[14,-32],[1,-11],[0,-18],[-1,-4],[-2,-3],[-1,-3],[-4,-27],[-10,-19],[-16,-9],[-21,6],[-6,-15],[-5,-38],[-4,-17],[-10,-18],[-10,-12],[-30,-20],[-42,-40],[-44,-23],[-9,-3],[-9,2],[-9,3],[-7,1],[-9,-6],[-5,4],[-5,2],[-10,-22],[-21,-10],[-24,-7],[-20,-11],[-13,-18],[-22,-44],[-122,-141],[-8,-11],[-1,-11],[0,-12],[-3,-13],[-81,-85],[3,-5],[-1,-2],[-4,-2],[-8,-1],[7,-4],[3,-1],[0,-5],[-9,-3],[-10,1],[-9,4],[-7,8],[-7,-5],[-3,-6],[-2,-6],[-4,-6],[-2,8],[0,8],[2,8],[1,9],[-13,-12],[-8,-5],[-6,0],[-5,7],[3,7],[6,7],[3,6],[2,16],[-4,10],[-6,10],[-6,14],[4,14],[-5,15],[-1,14],[16,7],[0,5],[-10,5],[-20,20],[-1,4],[-3,7],[-4,4],[-2,-8],[0,-22],[-3,0],[-1,1],[0,1],[-1,3],[-7,-8],[-3,-2],[-1,12],[-7,11],[-10,5],[-11,-3],[-1,8],[1,7],[2,8],[3,6],[-10,10],[5,10],[12,8],[10,3],[22,45],[9,14],[9,15],[5,17],[3,16],[2,8],[5,9],[8,7],[7,3],[5,4],[12,19],[5,8],[35,16],[18,11],[8,15],[4,16],[12,13],[51,32],[7,6],[8,22],[5,3],[10,5],[37,31],[70,79],[30,16],[22,2],[8,2],[7,5],[5,5],[5,7],[5,6],[30,27],[32,21],[8,2],[15,4],[7,4],[6,7],[11,18],[6,7],[13,12],[7,4],[10,1],[9,3],[2,7],[-1,8],[2,7],[39,32],[6,11],[3,15],[5,14],[8,12],[31,35],[14,9],[38,14],[9,5],[7,8],[4,9],[2,19],[4,7],[0,-36],[-5,-16],[-12,-7],[-14,-4],[-14,-9],[-25,-18],[-4,-4],[-5,-5]],[[2965,0],[-1,2],[-1,8],[1,3],[9,14],[-1,-4],[0,-4],[-1,-3],[-3,-4],[9,-12]],[[3034,0],[0,1],[-9,13],[-22,18],[5,5],[22,-10],[28,-7],[20,-13],[0,-7]],[[3090,0],[5,39],[-7,23],[15,5],[11,-10],[14,3],[13,12],[7,15],[8,-8],[-1,-10],[-6,-9],[-6,-8],[-16,-12],[2,-4],[11,-11],[11,-3],[8,8],[6,11],[7,8],[2,6],[3,6],[6,1],[3,-3],[7,-22],[6,4],[4,13],[5,3],[7,-2],[5,-7],[8,-16],[9,12],[-19,31],[5,12],[6,-4],[14,-6],[7,2],[-12,18],[14,5],[5,0],[0,5],[-6,2],[-13,9],[3,9],[-9,11],[3,7],[8,2],[7,-3],[5,-1],[2,9],[13,2],[8,21],[6,24],[8,13],[12,-1],[3,-9],[-2,-10],[-12,-11],[1,-13],[6,-6],[12,10],[5,-10],[-17,-28],[3,-9],[21,-3],[7,5],[6,10],[5,15],[8,-2],[4,-7],[4,-9],[4,-7],[-10,-6],[-13,-16],[-5,-3],[-13,1],[-4,-1],[-7,-3],[-6,-2],[-7,0],[6,-10],[0,-15],[4,-5],[11,-2],[10,4],[7,6],[4,2],[7,1],[9,3],[8,3],[4,6],[5,2],[12,-4],[18,-11],[0,14],[2,10],[3,9],[5,8],[5,0],[3,-9],[8,0],[9,2],[10,-4],[-2,6],[-2,6],[-1,13],[5,0],[4,-9],[10,16],[11,4],[-2,-3],[-1,-3],[-2,-5],[7,0],[2,0],[-6,-7],[-3,-7],[1,-7],[8,-4],[-7,-3],[-8,-5],[-5,-6],[4,-9],[8,-6],[4,0],[0,-1],[0,-12],[6,-9],[14,1],[48,17],[16,8],[50,39],[6,6],[5,9],[9,26],[-24,1],[-21,4],[20,13],[6,2],[0,5],[-5,0],[0,5],[7,-2],[13,-6],[18,-4],[0,-5],[-8,-10],[3,-9],[7,2],[7,6],[2,3],[1,4],[-1,5],[0,4],[3,2],[6,1],[4,2],[8,7],[-8,10],[-5,15],[3,14],[12,6],[13,3],[23,13],[14,4],[2,2],[16,9],[4,4],[1,10],[-3,3],[-5,0],[-21,4],[-15,2],[-13,5],[-4,16],[17,-4],[19,4],[10,9],[-6,16],[23,11],[7,4],[6,-31],[20,-2],[20,14],[4,14],[10,15],[14,-4],[3,-5],[-12,-16],[-16,-29],[3,-5],[6,-3],[2,-3],[-12,-11],[-17,-2],[-11,-5],[5,-22],[8,5],[27,10],[3,-7],[0,-6],[-3,-6],[-5,-6],[13,3],[13,-1],[13,-5],[11,-7],[-1,6],[-1,4],[-3,3],[-5,2],[21,8],[10,1],[9,-4],[-10,-5],[8,-11],[13,-4],[8,-4],[-4,-11],[14,-3],[0,-12],[-10,-10],[-14,5],[5,3],[5,2],[-10,4],[-12,4],[-11,0],[-7,-3],[-6,4],[-5,1],[-14,0],[4,-6],[6,-4],[15,-5],[-10,-5],[9,-6],[5,-2],[6,-2],[-16,-9],[10,-12],[19,-14],[12,-15],[5,0],[-2,21],[1,10],[4,4],[6,-3],[2,-7],[-1,-19],[6,5],[8,11],[6,3],[-1,-8],[-2,-8],[-7,-14],[6,1],[5,2],[2,5],[2,7],[5,0],[1,-11],[7,-5],[8,3],[4,11],[6,6],[14,6],[13,9],[7,14],[-5,38],[0,9],[7,7],[9,2],[10,-3],[9,-6],[13,11],[6,3],[11,1],[8,-1],[11,-3],[10,-5],[1,-1]],[[4096,226],[-12,-2],[-13,-6],[-10,-11],[-5,-15],[8,3],[9,1],[9,-1],[9,-3],[0,-5],[-7,-6],[-10,-11],[-7,-13],[-1,-10],[10,-6],[20,-1]],[[3408,0],[4,14],[-16,13],[0,-15],[-4,0],[-7,3],[-5,-7],[-1,-8]],[[3684,109],[8,9],[-13,0],[-8,-11],[-2,-15],[7,-15],[6,9],[2,23]],[[3765,22],[6,10],[-15,0],[1,4],[3,7],[1,3],[-19,-4],[-10,-6],[-2,-10],[6,-18],[21,8],[8,6]],[[3832,183],[9,4],[-8,12],[-6,11],[-7,7],[-14,0],[0,-5],[6,-1],[4,-3],[3,-5],[2,-6],[-5,0],[-6,3],[-5,-5],[-2,-9],[3,-9],[-6,2],[-1,1],[-3,2],[-6,-8],[-7,1],[-4,6],[2,6],[0,5],[-16,0],[-1,8],[7,10],[10,7],[-14,6],[-15,-1],[-28,-5],[-4,-2],[-16,-21],[-5,-7],[3,-5],[9,-5],[25,-25],[3,-5],[3,-2],[-1,-5],[-5,-6],[-7,-2],[-8,1],[-20,4],[15,-25],[5,0],[9,8],[12,-8],[11,-17],[3,-18],[8,3],[5,6],[3,7],[-1,9],[5,0],[0,-29],[4,-11],[12,-5],[5,1],[2,2],[2,2],[-15,9],[-4,16],[5,16],[9,9],[-9,5],[-6,8],[0,9],[5,9],[-4,11],[4,6],[9,-1],[6,-12],[5,7],[5,5],[6,1],[4,-3],[5,9],[2,9],[4,8]],[[3665,1191],[2,0],[-4,-2],[-1,1],[1,0],[2,1]],[[3905,1210],[6,-3],[-5,0],[4,-7],[1,-3],[0,-6],[-5,0],[-25,8],[-38,4],[-37,-6],[-25,-20],[-22,7],[-20,-8],[-33,-29],[-12,1],[-16,-7],[-15,-11],[-10,-19],[-11,-3],[-12,-3],[-11,-6],[-2,-11],[12,-8],[15,-6],[13,-3],[17,0],[11,4],[11,6],[15,6],[-5,-10],[32,7],[13,0],[1,-13],[-11,6],[-9,-5],[-4,-9],[4,-11],[-21,-1],[-16,-1],[-14,-6],[-20,-13],[10,-10],[11,-1],[14,1],[15,-4],[0,-5],[-5,1],[-10,2],[-4,2],[6,-10],[14,-2],[15,4],[9,8],[17,-8],[6,6],[2,22],[7,2],[12,1],[12,-2],[4,-7],[-6,-7],[-10,1],[-7,-2],[3,-16],[3,-4],[3,1],[4,1],[3,-1],[3,-3],[-1,-3],[-3,-1],[-2,-2],[2,-7],[5,-7],[7,-6],[6,-4],[-7,-6],[-5,-9],[-4,-4],[-9,5],[-24,-10],[-11,-7],[-5,-6],[2,-12],[4,-11],[2,-12],[-3,-12],[-5,6],[-4,2],[-5,0],[-6,-3],[-1,14],[-5,17],[-7,17],[-7,12],[-2,-1],[-3,-1],[-2,-1],[-3,-3],[-10,11],[-9,-3],[-16,-17],[0,2],[-6,-1],[-8,-1],[-1,-1],[-3,-2],[-5,-2],[-6,0],[12,30],[0,5],[-5,3],[-14,14],[-3,1],[-3,-2],[-14,11],[-6,3],[-5,-1],[-4,-3],[-6,-2],[-5,4],[-4,4],[-4,4],[-5,3],[-7,1],[-25,10],[-27,21],[-30,13],[-35,-9],[4,-2],[3,-2],[3,-1],[5,0],[-4,-10],[-6,-10],[-5,0],[-2,6],[-1,2],[-2,2],[-5,4],[4,-21],[26,-33],[10,-20],[-5,0],[-3,4],[-3,2],[-4,2],[-5,2],[3,-11],[2,-5],[5,-5],[-15,9],[-9,20],[-11,47],[-15,-2],[-20,16],[-15,-5],[-15,2],[-13,-12],[-3,-16],[13,-8],[8,-2],[6,-11],[7,-2],[4,-3],[3,-8],[1,-10],[-1,-9],[-7,7],[-15,23],[-6,5],[-13,3],[-22,10],[-9,2],[-8,1],[-15,4],[-19,0],[-14,5],[-12,7],[-9,8],[-5,10],[-5,3],[-5,4],[-4,5],[-2,7],[-2,1],[-2,1],[0,4],[1,3],[7,5],[7,24],[-1,10],[-9,7],[12,6],[8,-8],[8,-11],[14,-6],[44,-6],[13,1],[11,6],[32,29],[13,24],[14,9],[15,6],[10,6],[5,0],[0,-7],[0,-7],[-2,-6],[-3,-5],[-4,3],[-4,3],[-2,3],[-6,-9],[0,-9],[6,-7],[10,-4],[7,2],[8,7],[8,4],[7,-3],[14,5],[11,-2],[9,0],[11,12],[16,-14],[17,4],[15,7],[12,-7],[-4,-3],[-2,-4],[-4,-8],[19,3],[18,13],[28,29],[3,3],[6,3],[4,3],[2,3],[-1,7],[-2,4],[0,3],[3,4],[11,6],[7,-3],[0,-7],[-9,-6],[0,-5],[7,-4],[4,-4],[4,-3],[6,0],[3,3],[8,10],[5,5],[4,-2],[-6,-5],[13,5],[3,7],[1,9],[6,11],[6,5],[4,0],[3,-1],[4,-1],[0,-4],[5,-5],[7,-2],[3,8],[2,2],[7,13],[1,3],[7,2],[4,-2],[2,-3],[0,-2],[-6,-6],[-1,-12],[6,-12],[11,-6],[9,4],[18,20],[10,6],[38,6],[12,5],[20,43],[13,19],[12,-7],[-11,-7],[-4,-16],[1,-46],[5,3],[9,8],[15,3],[-2,-6],[-1,-6],[-2,-13],[5,0],[4,3],[2,1],[3,-1]],[[3452,1052],[0,5],[-83,-2],[-7,2],[-4,2],[-2,4],[-5,3],[-9,0],[13,-15],[14,-7],[16,-1],[22,4],[15,-8],[8,2],[7,6],[15,5]],[[3215,1185],[10,5],[8,7],[-18,0],[-19,3],[-17,6],[-22,14],[-8,4],[-9,2],[-10,1],[-9,-2],[-7,-3],[-5,-4],[-4,-1],[-6,-3],[-41,-17],[2,-11],[16,-6],[19,-4],[12,-5],[6,9],[7,-1],[7,-6],[13,-14],[3,-3],[34,2],[12,-3],[9,-8],[0,-12],[-8,-2],[-12,4],[-10,5],[0,-10],[-53,12],[-8,10],[-2,7],[-8,5],[-9,4],[-17,2],[-9,2],[-19,8],[0,10],[-17,11],[-33,14],[9,0],[9,-1],[17,-4],[40,-4],[7,1],[15,12],[17,11],[27,6],[22,-6],[21,-10],[23,-5],[12,0],[25,6],[11,4],[8,7],[18,23],[1,5],[18,9],[16,42],[13,8],[-4,-9],[2,-7],[7,-18],[5,0],[6,11],[27,13],[12,10],[3,11],[0,14],[3,11],[9,4],[-5,-9],[9,1],[5,3],[3,3],[8,2],[8,-2],[8,-5],[5,-1],[-1,8],[7,3],[3,3],[10,-25],[5,0],[0,5],[5,0],[3,-6],[5,-4],[5,-3],[7,-3],[10,25],[8,15],[9,6],[13,4],[19,20],[11,6],[15,-2],[-4,-10],[-20,-26],[-19,-14],[-7,-8],[15,-2],[2,-9],[0,-10],[6,-5],[7,4],[7,5],[6,0],[2,-11],[-1,-1],[-6,-9],[-1,-2],[-8,-2],[-1,-4],[1,-5],[1,-5],[-3,-9],[-2,-21],[0,-10],[-5,0],[-4,16],[-2,18],[-4,17],[-10,10],[-5,-5],[-7,2],[-8,1],[-7,-2],[-3,-4],[-3,-3],[-8,1],[-14,5],[-7,-2],[-7,-3],[-4,0],[-2,7],[-25,28],[-4,-7],[-4,-4],[-10,-7],[-4,-5],[-1,-2],[0,-4],[-4,-17],[2,-6],[3,-6],[1,-8],[6,-5],[0,-3],[-8,-1],[-32,-1],[-8,-3],[-2,-7],[5,-14],[-5,1],[-10,2],[-5,1],[-8,-8],[-34,-15],[-16,-25],[-35,-8],[-11,-8],[3,-2],[0,-1],[2,-3],[-7,0],[-7,-2],[-6,-3],[-5,-4],[1,4],[1,2],[0,1],[3,2],[-8,10],[5,4]],[[1549,3876],[15,0],[27,12],[27,18],[27,21],[9,12]],[[1456,4096],[9,-27],[0,-12],[-6,-6],[-12,-15],[-3,-12],[0,-15],[6,-21],[0,-15],[-3,-24],[6,-28],[21,-36],[15,-6],[33,-6],[27,3]],[[1873,3708],[24,9],[15,9],[36,15],[24,9],[21,0],[18,-21],[12,0],[15,12]],[[1654,3939],[21,-15],[15,-24],[9,-21],[18,-15],[18,-42],[15,-15],[27,-18],[42,-39],[27,-24],[21,-15],[6,-3]],[[1549,3876],[-3,-9],[-24,-42],[-21,-18],[-21,-24],[-24,-18],[-43,-18],[-42,-9],[-48,-15],[-30,-6],[-15,-3],[-21,-9],[-24,-6],[-30,-6],[-6,-3],[-39,-33]],[[1158,3657],[-27,-21],[-30,-18],[-39,-9],[-66,-21],[-30,-9]],[[2535,3545],[5,-9],[6,-6]],[[2038,3741],[15,12],[15,9],[18,3],[21,0],[15,9],[21,3],[24,-9],[33,-30],[12,-3],[30,21],[24,3],[42,12],[9,-3],[25,-15],[45,-18],[15,-6],[15,-12],[9,-15],[12,-33],[15,-36],[12,-21],[54,-43],[6,-6],[10,-18]],[[2638,3694],[-5,-16],[-12,-12],[0,-21],[3,-18],[-3,-9],[-33,-33],[-6,-6],[-2,-18]],[[2549,3530],[-3,0]],[[2580,3561],[-1,-10],[-6,-12],[-15,-9],[-9,0]],[[2693,4096],[3,-54],[0,-51],[6,-33],[-12,-22],[-6,-24],[6,-27],[3,-24],[-18,-51],[-18,-36],[-12,-36],[0,-21],[-7,-23]],[[2549,3527],[-3,3]],[[2591,3419],[-9,6],[-15,24],[-6,21],[-3,30],[-6,24],[-3,3]],[[4026,3395],[-12,27],[-12,12],[-9,15],[-3,21],[-9,12]],[[200,3332],[-15,6],[-5,1]],[[117,3369],[-4,5],[-4,5]],[[109,3379],[-20,25],[-36,60],[0,21],[-12,21],[0,6],[9,30],[-12,34],[0,12],[-9,12],[-15,3],[-14,-4]],[[180,3339],[-28,5],[-15,6],[-12,9],[-8,10]],[[227,3339],[-3,-4],[-24,-3]],[[966,3579],[-27,0],[-21,9],[-15,0],[-15,-3],[-36,-34],[-30,-18],[-30,-15],[-15,-18],[-18,-9],[-42,-9],[-15,-3],[-27,3],[-24,6],[-39,-3],[-21,3],[-30,0],[-18,3],[-40,-9],[-18,3],[-18,12],[-36,-27],[-33,-6],[-21,-18],[-21,-18],[-15,0],[-21,-15],[-15,-21],[-9,-3],[-21,-18],[-9,-3],[-12,0],[-9,6],[-9,-12],[-3,-15],[-6,-8]],[[3972,3485],[-15,-9],[-36,-9],[-15,-9],[-21,-27],[-6,-24],[-6,-12],[-15,-21],[-39,-33],[-33,-21],[-15,-18]],[[3585,3227],[-21,15],[-24,27],[-12,12],[-15,3],[-27,-6],[-21,-18],[-15,-3]],[[3200,3221],[-30,9],[-27,9],[-30,18],[-39,15],[-33,9],[-21,21],[-6,3],[-33,9],[-27,15],[-27,24],[-36,27],[-33,0],[-15,21],[-27,12],[-51,21],[-15,3],[-12,-3],[-6,-6],[-9,-15],[-9,-15],[-21,-12],[-9,-3],[-21,6],[-12,15],[-60,15]],[[3450,3257],[-15,0],[-21,9],[-18,21],[-6,0],[-27,-15],[-36,-12],[-30,-12],[-15,-18],[-36,-12],[-16,-3],[-30,6]],[[3771,3302],[-3,-15],[9,-27],[24,-70],[-3,-3]],[[2546,3530],[-24,3],[-2,-1]],[[2520,3532],[-4,-5],[-6,-15],[-21,0],[-15,-15],[-39,-27],[-6,-9],[-21,-12],[-21,-15],[-6,-15],[-6,-27],[-6,-9],[-24,-3],[-12,-15],[-7,-15],[-3,-42],[-3,-6],[-15,-6],[-27,-12],[-9,-15],[-15,-6],[-27,-30],[-18,-27],[-24,-16],[-15,-15],[-27,-12]],[[3798,3187],[-24,-18],[-51,-12],[-66,-24],[-15,6],[-18,18],[-9,15],[-21,40],[-9,15]],[[4096,3370],[-4,1],[-24,15],[-42,9]],[[2143,3163],[-15,-15],[-15,-27],[-24,-30],[-21,-15],[-33,-12],[-36,-27],[-12,-3]],[[1987,3034],[-39,-24],[-30,-6],[-21,-6],[-24,-12],[-21,-6]],[[1852,2980],[-36,-21],[-21,-12],[-36,-33],[-3,-12],[-6,-15],[-6,-3],[-33,-6],[-30,0],[-39,-12],[-15,0],[-30,0],[-6,-3],[-18,-18],[-18,-9],[-21,-16]],[[2792,2814],[-15,9],[-12,13],[-15,39],[3,15],[18,21],[6,12],[6,42],[6,15],[12,15],[6,15],[0,24],[6,27],[15,36],[3,30],[-3,15],[-12,18],[-18,18],[-18,6],[-15,9],[-36,9],[-12,16],[-3,12],[6,24],[-6,12],[3,15],[-9,15],[-48,45],[-24,27],[-9,15],[-12,9],[-12,15],[-12,12]],[[1534,2820],[-33,-9],[-15,-6],[-30,-6],[-33,-12],[-16,0],[-57,-15],[-27,9],[-15,3],[-15,-3],[-15,-3],[-21,-12],[-12,-3],[-24,-3],[-12,3],[-15,0],[-12,-6],[-27,-27]],[[2860,2622],[0,5]],[[2860,2627],[-5,22],[-18,21],[-18,21],[-6,21],[-3,42],[-3,24],[-9,21],[-6,15]],[[2861,2619],[-1,3]],[[2906,2384],[-9,36],[-15,21],[-6,15],[-6,31],[0,15],[9,36],[0,30],[-6,33],[-12,18]],[[2909,2369],[-3,15]],[[1150,2524],[-22,-10],[-15,-36],[2,-9]],[[1155,2727],[0,-33],[-3,-21],[-6,-21],[15,-21],[9,-48],[3,-15],[-1,-11]],[[1115,2469],[1,-7],[-6,-15],[-15,-12],[-9,-27],[-15,-9],[-6,-12],[3,-24],[-3,-15],[-6,-12],[0,-24],[-15,-33]],[[1172,2557],[-2,-13],[-9,-15],[-11,-5]],[[1155,2730],[0,-3]],[[1028,2213],[7,-21],[1,-2]],[[1044,2279],[-6,-18],[-9,-24],[-3,-18],[2,-6]],[[1036,2190],[5,-7],[6,-21],[6,-3],[-3,-6],[0,-18],[-15,-12],[-6,-12]],[[1029,2111],[-15,-3],[-15,9],[-6,0],[-30,-9],[-15,3],[-12,12],[-21,24],[-15,-3],[-12,0],[-21,12],[-12,3],[-30,0],[-15,6],[0,-3]],[[116,2068],[-21,3],[-15,12],[-21,6],[-21,-3],[-36,10],[-2,-1]],[[3032,2032],[-21,-3],[-27,0],[-15,9],[-12,15],[-9,18],[-6,6],[-9,25],[-6,24],[-6,21],[3,30],[15,36],[3,12],[-6,21],[0,30],[0,27],[0,15],[-6,21],[-18,24],[-3,6]],[[3038,2026]],[[3032,2032],[6,-6]],[[245,1921],[-9,21],[-15,12],[-3,21],[-6,15],[-6,21],[-6,6],[-6,15],[-6,6],[-21,6],[-9,15],[-9,6],[-27,6],[-6,-3]],[[377,1918],[-12,3],[-69,-3],[-24,-9],[-12,0],[-15,12]],[[2804,1897],[9,3],[3,15],[12,12],[33,-9],[36,6],[15,-3],[21,-9],[6,3],[39,36],[24,42],[30,39]],[[810,2162],[-6,-3],[-15,-33],[-6,-6],[-6,-15],[-18,-16],[-15,-3],[-24,-3],[-9,-6],[-9,-15],[-6,-30],[-9,-15],[-27,-27],[-18,-24],[-18,-30],[-15,-3],[-12,-27],[-9,-9],[-6,-3],[-18,18],[-15,0],[-15,6],[-28,-6],[-15,3],[-15,9],[-15,-6],[-36,18],[-6,0],[-18,-15],[-24,-3]],[[3038,2026],[6,-6],[2,-12]],[[3046,2008],[1,-12],[0,-21],[3,-21],[15,-54],[9,-21]],[[2503,1803],[1,1],[0,1]],[[2534,1853],[9,2],[36,3],[18,-3],[10,6]],[[2650,1877],[10,-10],[4,-5]],[[2447,1804],[27,-9],[21,3],[8,5]],[[2504,1805],[9,29],[6,15],[15,4]],[[2607,1861],[5,3],[12,21],[9,3],[12,-6],[5,-5]],[[2664,1862],[8,-7],[15,-6],[18,3],[15,-3],[21,9],[15,33],[6,6],[12,6],[30,-6]],[[2161,1816],[21,9],[21,-9],[12,0],[15,-24],[15,-12],[15,-3],[9,3],[27,18],[15,6],[19,0],[33,-9],[21,0],[30,9],[33,0]],[[2116,1738],[-3,9],[7,6]],[[2107,1689],[15,30],[-6,19]],[[2120,1753],[2,3],[6,24],[12,27],[21,9]],[[2059,1656],[3,9],[12,12],[27,6],[6,6]],[[3327,1662],[9,3],[42,9],[15,-6],[12,-9],[60,-9],[15,-3]],[[3480,1647],[6,0]],[[3074,1879],[12,-33],[15,-72],[3,-36],[-3,-25],[-6,-21],[-15,-27],[-15,-24],[-3,0]],[[3062,1641],[-12,3],[-36,21],[-6,0]],[[1942,1629],[42,6],[9,12],[15,6],[21,-9],[30,12]],[[3062,1641],[3,-27],[36,3],[36,12],[45,6],[21,0],[27,-24],[7,0],[21,0],[36,6],[15,9],[18,36]],[[3486,1647],[33,-3],[36,-12],[18,3],[30,0],[27,9],[18,12],[15,3],[6,-6],[18,-42],[3,-15],[21,-30]],[[1822,1563],[9,18],[6,3],[15,-6],[27,15],[18,18],[21,9],[24,9]],[[3804,1413],[-57,33],[-6,3],[-27,21],[-9,9],[-9,15],[9,63],[6,9]],[[1723,1407],[-6,15],[6,21],[18,27],[45,48],[3,15],[12,12],[15,9],[6,9]],[[3711,1566],[6,-9],[12,-9],[30,-6],[15,-12],[15,-18],[48,-15],[27,-6],[6,-3],[9,-15],[21,-21],[-3,-21],[-6,-24],[-6,-30]],[[3885,1377],[-24,-6],[-18,6],[-39,36]],[[1687,1343],[12,9],[9,22],[15,21],[0,12]],[[3007,1663],[-5,-7],[-1,-16]],[[3000,1632],[0,-2]],[[3000,1630],[-1,-10],[-15,-72],[-33,-84],[-9,-12],[-27,-30],[-27,-24],[-36,-42],[-24,-28],[0,-6]],[[3001,1640],[-1,-8]],[[3008,1665],[-1,-2]],[[2828,1322],[-24,-9],[-12,-6],[-39,3],[-6,3],[-39,-15],[-21,-3],[-39,-15],[-12,-15]],[[3885,1377],[3,-9],[33,-37],[18,-21],[24,-30],[21,-21],[6,-3]],[[1585,1256],[18,6],[15,18],[15,3],[12,12],[0,21],[15,12],[27,15]],[[1029,2111],[9,-19],[-3,-27],[15,-12],[-3,-18],[3,-9],[15,-12],[18,-6],[15,6],[24,-9],[24,-3],[24,3],[15,-3],[21,-24],[27,-15],[18,-3],[15,6],[18,-3],[18,-27],[15,-6],[12,-27],[9,-9],[15,-9],[3,-9],[-3,-24],[12,-18],[18,-12],[33,-33],[19,-12],[0,-9],[-12,-36],[0,-10],[6,-15],[18,-27],[-3,-15],[6,-36],[-3,-18],[3,-36],[0,-15],[-6,-18],[0,-9],[-21,-36],[-16,-15],[-24,-12],[6,-21],[0,-18],[9,-24],[12,-24],[28,-43],[9,-15],[33,12],[9,-3],[42,-33],[18,-9],[21,-9],[9,-6],[6,-21]],[[2828,1322],[6,-21],[6,-60]],[[2840,1241],[3,-24],[0,-36],[3,-36],[6,-9]],[[2666,1214],[6,-3],[24,-21],[18,-9],[36,-12],[33,-12],[69,-21]],[[1547,1138],[-1,4]],[[1546,1142],[0,12],[12,15],[3,12],[-6,21],[15,30],[3,15],[12,9]],[[1552,1115],[0,6],[-5,17]],[[3990,1256],[15,-6],[12,0],[21,-21],[15,-9],[21,-6],[21,-3],[1,0]],[[1356,1052],[27,15],[21,6],[19,0],[30,6],[39,15],[21,0],[21,6],[15,6],[3,9]],[[2621,1223],[-6,-30],[-21,-21],[-15,-9],[-24,-9],[-9,-9],[-9,-21],[-21,-15],[-36,-18],[-48,-15],[-12,-9],[-9,-15],[-24,-15],[-21,-3]],[[1200,1001],[6,3],[15,18],[12,6],[15,15],[12,6],[12,12],[21,3],[21,0],[21,-12],[15,-3],[6,3]],[[678,995],[9,-9],[15,3],[15,-3],[15,6],[33,-10],[12,7],[21,-13],[27,6],[6,7],[15,6],[21,27],[6,3],[15,0],[18,-9],[12,9],[15,-6],[12,-9],[15,0],[24,-12],[15,-3],[21,6],[30,-9],[24,0],[18,6],[33,-3],[24,12],[21,0],[30,-6]],[[0,1032],[11,5],[45,9],[36,-3],[21,6],[21,-3],[15,-9],[30,3],[21,-12],[15,-3],[21,6],[12,0],[36,-12],[27,-3],[15,9],[6,0],[21,-15],[15,3],[6,12],[39,12],[9,-12],[15,-9],[9,-15],[42,-31],[37,3],[8,8]],[[533,981],[10,8],[18,18],[6,3],[15,-6],[21,0],[15,-15],[21,12],[21,-3],[15,0],[3,-3]],[[2852,1136],[3,-3],[21,-9],[42,-12],[21,-15],[21,0],[21,-18],[39,-9],[15,-9],[36,-15],[21,-15],[36,-33],[15,-9],[12,-25]],[[3155,964],[0,-6]],[[2348,1037],[-9,-18],[-9,-30],[-7,-16],[-15,9],[-24,7],[-12,-10],[-24,-15],[-51,-27],[-15,0],[-18,-21],[-6,-15],[-15,-21],[-9,-18],[-18,-6],[-18,-21],[-30,-36],[-39,-42],[-24,-30],[-42,-39]],[[2366,1034],[18,-33],[30,-31],[36,-33],[42,-33],[18,-24],[9,-36],[15,-24],[15,-21],[36,-30],[12,-18],[12,-24],[18,-12],[18,-30],[18,-18]],[[1576,477],[-6,-3]],[[3155,958],[3,-9],[-6,-30],[3,-30],[0,-51],[0,-60],[3,-39],[9,-27],[0,-15],[-6,-18],[3,-24],[9,-27],[12,-31],[6,-18],[9,-39],[3,-21],[-3,-30],[6,-21]],[[1744,483],[-27,12],[-27,-6],[-21,-12],[-15,-6],[-21,-3],[-15,-9],[-6,0],[-12,15],[-24,3]],[[1963,688],[-12,-9],[-33,-15],[-12,-12],[-6,-12],[6,-28],[-3,-15],[6,-15],[0,-15],[-12,-21],[-24,-15],[-24,-42],[-6,-15],[-6,-24]],[[1837,450],[-18,9],[-42,15],[-15,0],[-18,9]],[[3930,456],[-30,-12]],[[2663,667],[21,-9],[15,-12],[27,-24],[18,-19],[24,-9],[21,-18],[27,-45],[15,-15],[15,-6],[33,-18],[12,-9],[12,-18],[24,-15],[24,-18],[30,-21],[9,-6]],[[4096,414],[-4,3],[-30,18],[-21,9],[-30,12],[-51,6],[-30,-6]],[[2381,411],[-12,-6],[-21,-18],[-15,-9],[-13,-12],[-12,-3],[-12,0],[-45,-6],[-24,6]],[[984,366],[-15,-9]],[[1200,1001],[-3,-12],[-21,-40],[-15,-9],[-12,-18],[0,-45],[-6,-24],[-9,-18],[-15,-15],[-42,-33],[-9,-24],[0,-12],[-6,-15],[-3,-15],[12,-15],[3,-27],[9,-27],[3,-15],[-12,-21],[-6,-13],[0,-24],[-6,-15],[-15,-6],[-9,-24],[-12,-15],[-21,-21],[-6,-12],[-9,-36],[-6,-42],[9,-21],[-9,-21]],[[2227,363],[-6,0],[-21,-9],[-24,3],[-15,0],[-30,3],[-39,12],[-12,9],[-27,12],[-45,12],[-39,6],[-21,-3],[-21,12],[-21,3],[-15,9],[-3,6],[-21,3],[-30,9]],[[3721,336],[-1,0]],[[3900,444],[-21,-9],[-30,-24],[-18,-24],[-18,0],[-24,-6],[-18,-12],[-27,-15],[-23,-18]],[[2765,330],[-21,-9],[-15,3],[-36,12],[-12,0],[-21,3],[-15,0],[-42,-9],[-6,0],[-21,9],[-42,9],[-45,12],[-15,0],[-15,3],[-12,21],[-18,3],[-9,15],[-21,9],[-18,0]],[[3720,336],[-12,-12],[-28,-3]],[[3680,321],[-2,0],[-30,-12]],[[2846,297],[-48,18],[-21,12],[-12,3]],[[3382,261],[-19,0],[-6,3]],[[3648,309],[-15,-6],[-30,-3],[-33,-6],[-69,-24],[-36,3],[-21,15],[-15,0],[-12,-6],[-24,-18],[-6,-3],[-5,0]],[[3311,262],[-11,2],[-15,-6],[-36,-28]],[[3357,264],[-9,6],[-13,0]],[[3335,270],[-2,0],[-15,-9],[-7,1]],[[3221,286],[28,-56]],[[3206,468],[3,-27],[0,-45],[-12,-51],[0,-6],[9,-15],[12,-33],[3,-5]],[[3210,272],[11,-11],[6,-9],[22,-22]],[[2990,405],[39,-24],[21,-15],[21,-24],[15,-15],[30,-12],[33,-6],[18,-6],[27,-15],[16,-16]],[[3249,230],[-31,-3],[-13,-10]],[[3205,217],[-2,-2]],[[3203,215],[-15,24],[-6,7],[-15,3],[-33,-7],[-15,0],[-21,4],[-30,12],[-21,0],[-27,18],[-21,9],[-15,3],[-63,-6],[-21,0],[-18,3],[-36,12]],[[3203,215],[-24,-6],[-27,0],[-12,-6],[-24,-15],[-36,-15],[-18,-9],[-24,-18],[-21,-18],[-27,-9],[-21,-21],[-15,-3]],[[951,342],[-9,-15],[-9,-30],[-15,-21],[-12,-15],[-6,-25],[-21,-36],[3,-15],[-15,-21],[0,-15],[-9,-3],[-6,-24],[-9,-12],[6,-18]],[[1396,54],[-1,-1],[0,-1]],[[1395,52],[-30,-38]],[[1570,474],[-18,-15],[-15,0],[-21,-30],[-12,-12],[-12,-15],[6,-30],[0,-30],[6,-27],[9,-30],[-3,-21],[-6,-31],[-12,-24],[-6,-6],[-15,-3],[-18,-18],[-12,-42],[-25,-24],[-6,-27],[-14,-35]],[[1354,0],[2,5],[9,9]],[[2954,95],[-21,-21],[-18,-12],[-27,-24],[-21,-12],[-30,-21],[-3,-5]],[[820,0],[-1,17],[27,63],[3,12]],[[4096,4096],[0,-4096],[-4096,0],[0,4096],[4096,0]],[[3935,2360],[15,67],[63,28],[-2,38],[85,-50],[0,-142],[-115,14],[-46,45]],[[1835,150],[47,49],[92,18],[56,-43],[-15,-24],[-180,0]],[[1200,119],[37,7],[35,157],[79,94],[-9,43],[144,112],[-62,-233],[-48,-39],[11,-68],[-133,-113],[-54,40]],[[2678,2798],[93,-60],[92,-115],[-72,-18],[0,64],[-113,129]],[[3374,242],[-40,25],[4,11],[48,-10],[-12,-26]],[[3722,348],[-4,-34],[-35,-3],[-9,29],[48,8]],[[3245,283],[73,-8],[-63,-132],[-67,100],[73,97],[-16,-57]],[[964,340],[-8,20],[8,20],[28,-20],[-28,-20]],[[1692,810],[32,-5],[-24,-44],[-57,24],[0,57],[49,-32]],[[1538,1110],[-13,8],[5,32],[18,-9],[-10,-31]],[[2210,1539],[-16,3],[-25,30],[37,6],[4,-39]],[[1975,1547],[-8,21],[8,20],[31,-23],[-31,-18]],[[2168,1679],[18,-13],[-33,-13],[4,27],[11,-1]],[[2105,1772],[24,-30],[-8,-8],[-33,32],[17,6]],[[1304,298],[-7,7],[-2,27],[19,-10],[-10,-24]],[[3034,2003],[-13,14],[46,25],[-17,-33],[-16,-6]],[[1037,2179],[-21,17],[4,24],[16,-13],[1,-28]],[[325,2609],[0,40],[32,-8],[-1,-15],[-31,-17]],[[228,3338],[8,-40],[-49,0],[-8,48],[38,11],[11,-19]],[[98,3346],[-21,16],[5,33],[38,-22],[-22,-27]],[[2549,3508],[-23,9],[-9,24],[32,8],[0,-41]],[[0,778],[0,680],[22,-10],[75,46],[30,-28],[8,17],[-54,56],[29,117],[-88,80],[78,-3],[20,29],[94,-32],[34,41],[168,37],[44,-136],[61,-89],[-8,-97],[173,-240],[-13,-40],[25,-59],[-25,-89],[-26,12],[-6,-28],[-76,5],[-41,-25],[36,-154],[-76,-9],[-8,-55],[-92,-77],[-222,2],[-34,-25],[-24,110],[-36,-44],[-68,8]],[[2730,4096],[639,0],[-5,-271],[-152,-1],[-118,-111],[-22,-50],[-145,-9],[-303,-85],[-27,-32],[-31,44],[56,119],[77,-30],[57,30],[-54,116],[76,99],[-51,4],[3,177]],[[1365,0],[73,126],[141,40],[17,-17],[-15,-149],[-216,0]],[[1031,0],[-54,226],[47,107],[-20,92],[121,69],[64,79],[3,43],[104,25],[10,-32],[31,72],[31,-61],[-26,-50],[-75,-26],[-89,-74],[44,-40],[-6,-48],[57,36],[49,-25],[20,27],[9,-43],[-79,-94],[-30,-133],[-45,5],[30,29],[-49,41],[24,-6],[0,98],[-42,0],[-39,44],[-49,-25],[-17,-52],[22,-47],[46,-13],[8,-36],[-28,-120],[65,-68],[-137,0]],[[3925,2739],[171,174],[0,-261],[-58,15],[2,50],[-46,-29],[-69,51]],[[727,4096],[324,0],[-16,-205],[-54,22],[-42,70],[-127,23],[-85,90]],[[1339,567],[19,51],[84,34],[41,-10],[-5,-48],[-62,-12],[-37,-48],[-40,33]],[[0,0],[0,101],[46,-4],[22,-43],[83,40],[160,-26],[-47,-68],[-264,0]],[[317,2638],[6,6],[-3,-1],[7,20],[27,20],[-17,34],[39,74],[75,63],[-50,118],[63,63],[35,244],[164,-3],[135,-110],[36,42],[56,-1],[16,54],[56,36],[15,112],[32,11],[16,-23],[1,0],[-9,38],[15,35],[63,7],[145,-124],[114,9],[137,-102],[-138,-180],[14,-7],[10,0],[32,-59],[74,-10],[41,-136],[-108,-31],[-88,51],[-94,-70],[-77,3],[-47,-29],[-63,106],[37,-87],[-2,-3],[71,-64],[24,-179],[-113,-174],[-31,54],[-152,-51],[-31,14],[-51,98],[-67,47],[15,29],[-44,59],[-56,-31],[-18,26],[-68,-48],[-52,29],[-192,21]],[[719,2684],[1,0],[28,30],[-29,-30]],[[879,2703],[1,-4],[5,1],[-6,3]],[[1041,2912],[72,27],[-72,-25],[0,-2]],[[864,3135],[-80,-305],[3,0],[77,305]],[[669,2829],[-1,1],[-1,-1],[2,0]],[[1240,3324],[-21,-27],[1,-100],[20,127]],[[1220,3191],[0,-2],[98,-40],[-98,42]],[[1331,3144],[-3,-27],[4,27],[-1,0]],[[1325,3096],[0,-1],[0,1]],[[2351,1648],[91,68],[12,74],[44,6],[47,75],[79,-12],[33,23],[15,-13],[-24,-21],[-15,-32],[66,-3],[30,-30],[60,26],[54,-49],[150,-39],[18,-76],[-55,-27],[-37,20],[-118,-216],[-149,27],[-21,52],[-82,-70],[-43,11],[-20,24],[-1,186],[-118,-63],[-16,59]],[[2096,2685],[117,80],[76,3],[13,-53],[-39,-59],[-92,-3],[-7,-48],[-68,80]],[[2666,2722],[63,-58],[11,38],[-37,24],[-30,58],[17,5],[77,-84],[20,-78],[-26,45],[-14,-36],[-39,-3],[-42,89]],[[2606,1443],[25,58],[21,-52],[149,-27],[118,216],[37,-20],[45,14],[-44,-139],[-71,-3],[-65,-104],[-171,2],[-35,-40],[-9,95]]]}