{"objects":{"water":{"type":"GeometryCollection","geometries":[{"type":"Polygon","properties":{"source":"naturalearthdata.com","kind":"lake","name":"Lake Tanganyika","area":33380501504,"sort_rank":200,"min_zoom":0.0,"id":478},"arcs":[[257]]},{"type":"Polygon","properties":{"source":"naturalearthdata.com","kind":"lake","name":"Lake Victoria","area":67519668224,"sort_rank":200,"min_zoom":0.0,"id":479},"arcs":[[258],[259],[260],[261],[262],[263],[264],[265],[266],[267],[268],[269],[270],[271],[272]]},{"type":"Polygon","properties":{"source":"naturalearthdata.com","kind":"lake","name":"Lake Edward","area":2224672512,"sort_rank":200,"min_zoom":0.0,"id":504},"arcs":[[273]]},{"type":"Polygon","properties":{"source":"naturalearthdata.com","kind":"lake","name":"Lake Bunyonyi","area":55774776,"sort_rank":200,"min_zoom":0.0,"id":719},"arcs":[[274]]},{"type":"Polygon","properties":{"source":"naturalearthdata.com","kind":"lake","name":"Lake Kivu","area":2423699712,"sort_rank":200,"min_zoom":0.0,"id":503},"arcs":[[275],[276]]},{"type":"Point","properties":{"label_placement":true,"kind":"lake","name":"Lake Victoria","area":67519668224,"sort_rank":200,"source":"naturalearthdata.com","min_zoom":0.0,"id":479},"coordinates":[3452,3172]},{"type":"Point","properties":{"label_placement":true,"kind":"lake","name":"Lake Kivu","area":2423699712,"sort_rank":200,"source":"naturalearthdata.com","min_zoom":0.0,"id":503},"coordinates":[811,2615]},{"type":"Point","properties":{"label_placement":true,"kind":"lake","name":"Lake Edward","area":2224672512,"sort_rank":200,"source":"naturalearthdata.com","min_zoom":0.0,"id":504},"coordinates":[1069,3817]},{"type":"Point","properties":{"label_placement":true,"kind":"lake","name":"Lake Bunyonyi","area":55774776,"sort_rank":200,"source":"naturalearthdata.com","min_zoom":0.0,"id":719},"coordinates":[1310,3163]},{"type":"LineString","properties":{"source":"naturalearthdata.com","kind":"lake","sort_rank":367,"boundary":true,"min_zoom":0.0,"id":478},"arcs":[277]},{"type":"MultiLineString","properties":{"source":"naturalearthdata.com","kind":"lake","sort_rank":367,"boundary":true,"min_zoom":0.0,"id":479},"arcs":[[278],[279],[280],[281],[282],[283],[284],[285],[286],[287],[288],[289],[290],[291],[292],[293],[294],[295],[296],[297]]},{"type":"MultiLineString","properties":{"source":"naturalearthdata.com","kind":"lake","sort_rank":367,"boundary":true,"min_zoom":0.0,"id":503},"arcs":[[298],[299]]},{"type":"LineString","properties":{"source":"naturalearthdata.com","kind":"lake","sort_rank":367,"boundary":true,"min_zoom":0.0,"id":504},"arcs":[300]},{"type":"LineString","properties":{"source":"naturalearthdata.com","kind":"lake","sort_rank":367,"boundary":true,"min_zoom":0.0,"id":719},"arcs":[301]}]},"buildings":{"type":"GeometryCollection","geometries":[]},"places":{"type":"GeometryCollection","geometries":[{"type":"Point","properties":{"name:pt":"Ruanda","name:ps":"\u0631\u0648\u0646\u062f\u0627","name:ka":"\u10e0\u10e3\u10d0\u10dc\u10d3\u10d0","name:tr":"Ruanda","name:cv":"\u0420\u0443\u0430\u043d\u0434\u0430","name:km":"\u179a\u179c\u17c9\u17b6\u1793\u17cb\u178a\u17b6","name:kk":"\u0420\u0443\u0430\u043d\u0434\u0430","name:tt":"\u0420\u0443\u0430\u043d\u0434\u0430","name:tk":"Ruanda","name:th":"\u0e1b\u0e23\u0e30\u0e40\u0e17\u0e28\u0e23\u0e27\u0e31\u0e19\u0e14\u0e32","name:ti":"\u1229\u12cb\u1295\u12f3","name:ks":"\u0631\u0648\u0657\u0648\u0627\u0646\u065b\u0688\u0627","name:to":"Luanit\u0101","name:tl":"Ruwanda","name:pa":"\u0a30\u0a35\u0a3e\u0a02\u0a21\u0a3e","name:os":"\u0420\u0443\u0430\u043d\u0434\u00e6","name:or":"\u0b30\u0b3e\u0b71\u0b3e\u0b23\u0b4d\u0b21\u0b3e","name:ce":"\u0420\u0443\u0430\u043d\u0434\u0430","name:ta":"\u0bb0\u0bc1\u0bb5\u0bbe\u0ba9\u0bcd\u0b9f\u0bbe","name:tg":"\u0420\u0443\u0430\u043d\u0434\u0430","name:te":"\u0c30\u0c4d\u0c35\u0c3e\u0c02\u0c21\u0c3e","name:hu":"Ruanda","name:wo":"Ruwandaa","name:de":"Ruanda","name:dz":"\u0f62\u0f74\u0f0b\u0f5d\u0f53\u0f0b\u0f4c","source":"openstreetmap.org","name:nv":"W\u00e1nda Dine\u02bc\u00e9 Bik\u00e9yah","name:kn":"\u0cb0\u0cc1\u0cb5\u0cbe\u0c82\u0ca1\u0cbe","name:yi":"\u05e8\u05d5\u05d5\u05d0\u05e0\u05d3\u05e2","name:dv":"\u0783\u07aa\u0788\u07a7\u0782\u07b0\u0791\u07a7","name:lv":"Ruanda","name:lt":"Ruanda","name:uz":"Ruanda","name:he":"\u05e8\u05d5\u05d0\u05e0\u05d3\u05d4","kind":"country","name:ur":"\u0631\u0648\u0627\u0646\u0688\u0627","name:lb":"Ruanda","name:la":"Ruanda","official_name":"Republic of Rwanda;Repubulika y'u Rwanda;R\u00e9publique du Rwanda","name:uk":"\u0420\u0443\u0430\u043d\u0434\u0430","name:hy":"\u054c\u0578\u0582\u0561\u0576\u0564\u0561","name:ug":"\u0631\u06cb\u0627\u0646\u062f\u0627","name:li":"Roeanda","name:hr":"Ruanda","name:lo":"\u0ead\u0eb2\u0ea7\u0eb1\u0e99\u0e94\u0eb2","population":11400000,"name:el":"\u03a1\u03bf\u03c5\u03ac\u03bd\u03c4\u03b1","name:eo":"Ruando","name":"Rwanda","name:ee":"Rwanda nutome","min_zoom":2.0,"name:eu":"Ruanda","name:es":"Ruanda","name:ia":"Ruanda","name:rm":"Ruanda","name:rn":"u Rwanda","name:az":"Rvanda","name:mr":"\u0930\u0935\u093e\u0902\u0921\u093e","name:ar":"\u0631\u0648\u0627\u0646\u062f\u0627","name:my":"\u101b\u101d\u1014\u103a\u1012\u102b","name:io":"Ruanda","name:is":"R\u00faanda","name:am":"\u1229\u12cb\u1295\u12f3","name:it":"Ruanda","name:an":"Ruanda","name:ru":"\u0420\u0443\u0430\u043d\u0434\u0430","name:mn":"\u0420\u0443\u0430\u043d\u0434\u0430","id":424311738,"name:mk":"\u0420\u0443\u0430\u043d\u0434\u0430","name:vo":"Ruand\u00e4n","name:zu":"i-Rwanda","name:ha":"Ruwanda","name:ff":"Ruwanndaa","name:fi":"Ruanda","name:hi":"\u0930\u0942\u0906\u0923\u094d\u0921\u093e","name:mg":"Roanda","name:fo":"Ruanda","name:zh-yue":"\u76e7\u65fa\u9054","name:fy":"R\u00fbanda","name:zh":"\u5362\u65fa\u8fbe","name:gv":"Rooandey","name:so":"Ruwanda","name:sr":"\u0420\u0443\u0430\u043d\u0434\u0430","name:sl":"Ruanda","name:ja":"\u30eb\u30ef\u30f3\u30c0","name:si":"\u0dbb\u0dd4\u0dc0\u0db1\u0dca\u0da9\u0dcf\u0dc0","name:sh":"Ruanda","name:sg":"Ruand\u00e4a","name:sc":"Ruanda","name:ne":"\u0930\u0935\u093e\u0923\u094d\u0921\u093e","name:sa":"\u0930\u0935\u093e\u0923\u094d\u0921\u093e","name:bs":"Ruanda","name:bm":"Ruwanda","name:bn":"\u09b0\u09c1\u09af\u09bc\u09be\u09a8\u09cd\u09a1\u09be","name:bo":"\u0f62\u0f74\u0f0b\u0f5d\u0f53\u0f0b\u0f4c\u0f0d","name:ml":"\u0d31\u0d41\u0d35\u0d3e\u0d23\u0d4d\u0d1f","name:be":"\u0420\u0443\u0430\u043d\u0434\u0430","name:bg":"\u0420\u0443\u0430\u043d\u0434\u0430","name:ss":"IRuwanda","name:ba":"\u0420\u0443\u0430\u043d\u0434\u0430","name:sq":"Ruanda","name:ko":"\ub974\uc644\ub2e4","name:ga":"Ruanda","name:gd":"Ruanda","name:gl":"Ruanda","name:fa":"\u0631\u0648\u0627\u0646\u062f\u0627","name:yo":"Or\u00edl\u1eb9\u0301\u00e8de Ruwanda","name:gu":"\u0ab0\u0ab5\u0abe\u0a82\u0aa1\u0abe"},"coordinates":[1412,2663]},{"type":"Point","properties":{"name:ka":"\u10d1\u10e3\u10e0\u10e3\u10dc\u10d3\u10d8","name:ko":"\ubd80\ub8ec\ub514","name:kn":"\u0cac\u0cc1\u0cb0\u0cc1\u0c82\u0ca1\u0cbf","name:km":"\u1794\u17ca\u17bc\u179a\u17bb\u1793\u178c\u17b8","name:kk":"\u0411\u0443\u0440\u0443\u043d\u0434\u0438","name:ki":"Mburundi","min_zoom":2.0,"name:ti":"\u1265\u1229\u1295\u12f2","name:ks":"\u0628\u0648\u0631\u064e\u0646\u0688\u0650","name:to":"Pelaniti","name:or":"\u0b2c\u0b41\u0b30\u0b41\u0b28\u0b4d\u0b26\u0b3f","name:ta":"\u0baa\u0bc1\u0bb0\u0bc1\u0ba3\u0bcd\u0b9f\u0bbf","name:te":"\u0c2c\u0c41\u0c30\u0c41\u0c02\u0c21\u0c3f","name:cy":"Bwrwndi","name:dz":"\u0f56\u0fb7\u0f74\u0f0b\u0f62\u0f74\u0f53\u0f0b\u0f4c\u0f72","source":"openstreetmap.org","name:ku":"B\u00fbr\u00fbnd\u00ee","name:lv":"Burundija","name:lt":"Burundis","name:hi":"\u092c\u0941\u0930\u0941\u0902\u0921\u0940","name:he":"\u05d1\u05d5\u05e8\u05d5\u05e0\u05d3\u05d9","kind":"country","name:ur":"\u0628\u0631\u0648\u0646\u0688\u06cc","name:la":"Burundia","name:tt":"\u0411\u0443\u0440\u0443\u043d\u0434\u0438","name:uk":"\u0411\u0443\u0440\u0443\u043d\u0434\u0456","name:hy":"\u0532\u0578\u0582\u0580\u0578\u0582\u0576\u0564\u056b","name:li":"Boeroendi","name:lo":"\u0e9a\u0eb9\u0ea5\u0eb1\u0e99\u0e94\u0eb5","population":10557000,"name:el":"\u039c\u03c0\u03bf\u03c5\u03c1\u03bf\u03cd\u03bd\u03c4\u03b9","name:eo":"Burundo","name":"Burundi","name:ee":"Burundi nutome","name:is":"B\u00far\u00fand\u00ed","name:th":"\u0e1b\u0e23\u0e30\u0e40\u0e17\u0e28\u0e1a\u0e38\u0e23\u0e38\u0e19\u0e14\u0e35","name:yo":"Or\u00edl\u1eb9\u0301\u00e8de B\u00f9\u00f9r\u00fand\u00ec","name:rn":"Uburundi","name:mr":"\u092c\u0941\u0930\u0941\u0902\u0921\u0940","name:ar":"\u0628\u0648\u0631\u0648\u0646\u062f\u064a","official_name":"Republika y'u Burundi","name:mg":"Borondi","name:am":"\u1265\u1229\u1295\u12f2","name:ru":"\u0411\u0443\u0440\u0443\u043d\u0434\u0438","name:ml":"\u0d2c\u0d41\u0d31\u0d41\u0d23\u0d4d\u0d1f\u0d3f","name:mn":"\u0411\u0443\u0440\u0443\u043d\u0434\u0438","id":424310982,"name:mk":"\u0411\u0443\u0440\u0443\u043d\u0434\u0438","name:vo":"Rundiy\u00e4n","name:zu":"i-Burundi","name:ff":"Burunndi","name:fy":"B\u00fbr\u00fbndy","name:zh":"\u5e03\u9686\u8fea","name:ja":"\u30d6\u30eb\u30f3\u30b8","name:si":"\u0db6\u0dd4\u0dbb\u0dd4\u0db1\u0dca\u0da9\u0dd2","name:fa":"\u0628\u0648\u0631\u0648\u0646\u062f\u06cc","name:sg":"Burund\u00efi","name:ne":"\u092c\u0941\u0930\u0942\u0923\u094d\u0921\u0940","name:bn":"\u09ac\u09c1\u09b0\u09c1\u09a8\u09cd\u09a1\u09bf","name:bo":"\u0f56\u0f74\u0f0b\u0f62\u0f74\u0f53\u0f0b\u0f4c\u0f72\u0f0d","name:be":"\u0411\u0443\u0440\u0443\u043d\u0434\u0437\u0456","name:bg":"\u0411\u0443\u0440\u0443\u043d\u0434\u0438","alt_name:nl":"Boeroendi","name:sr":"\u0411\u0443\u0440\u0443\u043d\u0434\u0438","name:ga":"An Bhur\u00fain","name:gd":"Burundaidh","name:gv":"Burundee","name:gu":"\u0aac\u0ac1\u0ab0\u0ac1\u0a82\u0aa1\u0ac0"},"coordinates":[1283,1643]},{"type":"Point","properties":{"admin_level":"4","kind":"region","name:en":"Western Province, Rwanda","name":"Iburengerazuba","kind_detail":"state","name:cs":"Z\u00e1padn\u00ed provincie (Rwanda)","name:de":"West Provinz","source":"openstreetmap.org","min_zoom":4.0,"id":4346193509},"coordinates":[784,2360]},{"type":"Point","properties":{"admin_level":"4","kind":"region","name:en":"Kigali City","name":"Umujyi wa Kigali","kind_detail":"state","name:de":"Kigali","source":"openstreetmap.org","min_zoom":4.0,"id":4353399472},"coordinates":[1460,2720]},{"type":"Point","properties":{"admin_level":"4","kind":"region","name:en":"Northern Province, Rwanda","name":"majyaruguru","alt_name:de":"Nordprovinz","kind_detail":"state","name:cs":"Severn\u00ed provincie (Rwanda)","source":"openstreetmap.org","min_zoom":4.0,"id":4346195932},"coordinates":[1312,2943]},{"type":"Point","properties":{"admin_level":"4","kind":"region","name:en":"North Kivu","name":"Nord-Kivu","kind_detail":"state","name:de":"Nordkivu","source":"openstreetmap.org","min_zoom":4.0,"id":4346329231},"coordinates":[423,3684]},{"type":"Point","properties":{"admin_level":"4","kind":"region","name":"Western Region","source":"openstreetmap.org","kind_detail":"state","min_zoom":4.0,"id":4345081630},"coordinates":[1855,3618]},{"type":"Point","properties":{"admin_level":"4","kind":"region","name":"Kigoma","kind_detail":"state","source":"openstreetmap.org","min_zoom":4.0,"name:uk":"\u041a\u0456\u0491\u043e\u043c\u0430","name:ru":"\u041a\u0438\u0433\u043e\u043c\u0430","id":4353379457},"coordinates":[1369,805]},{"type":"Point","properties":{"source":"openstreetmap.org","kind":"region","name":"Bujumbura Mairie","kind_detail":"province","min_zoom":4.0,"id":1382922207},"coordinates":[902,1653]},{"type":"Point","properties":{"source":"openstreetmap.org","kind":"region","name":"Bujumbura Rural","kind_detail":"province","min_zoom":4.0,"id":1382942221},"coordinates":[967,1561]},{"type":"Point","properties":{"source":"openstreetmap.org","kind":"region","name":"Bubanza","kind_detail":"province","min_zoom":4.0,"id":1383518358},"coordinates":[916,1827]},{"type":"Point","properties":{"admin_level":"4","kind":"region","name":"Bubanza","source":"openstreetmap.org","kind_detail":"state","min_zoom":4.0,"id":4353400629},"coordinates":[912,1850]},{"type":"Point","properties":{"admin_level":"4","kind":"region","name":"Bubanza","source":"openstreetmap.org","kind_detail":"state","min_zoom":4.0,"id":4353384164},"coordinates":[913,1850]},{"type":"Point","properties":{"source":"openstreetmap.org","kind":"region","name":"Cibitoke","kind_detail":"province","min_zoom":4.0,"id":1387494153},"coordinates":[772,2039]},{"type":"Point","properties":{"source":"openstreetmap.org","kind":"region","name":"Makamba","kind_detail":"province","min_zoom":4.0,"id":1382955708},"coordinates":[1225,1034]},{"type":"Point","properties":{"source":"openstreetmap.org","kind":"region","name":"Rutana","kind_detail":"province","min_zoom":4.0,"id":1382955709},"coordinates":[1415,1279]},{"type":"Point","properties":{"source":"openstreetmap.org","kind":"region","name":"Gitega","kind_detail":"province","min_zoom":4.0,"id":1387551456},"coordinates":[1300,1515]},{"type":"Point","properties":{"admin_level":"4","kind":"region","name":"Ruyigi","source":"openstreetmap.org","kind_detail":"state","min_zoom":4.0,"id":4353408077},"coordinates":[1546,1531]},{"type":"Point","properties":{"source":"openstreetmap.org","kind":"region","name":"Mwaro","kind_detail":"province","min_zoom":4.0,"id":1387499954},"coordinates":[1126,1569]},{"type":"Point","properties":{"source":"openstreetmap.org","kind":"region","name":"Muramvya","kind_detail":"province","min_zoom":4.0,"id":1387498527},"coordinates":[1096,1707]},{"type":"Point","properties":{"source":"openstreetmap.org","kind":"region","name":"Kayanza","kind_detail":"province","min_zoom":4.0,"id":1387497673},"coordinates":[1107,1892]},{"type":"Point","properties":{"source":"openstreetmap.org","kind":"region","name":"Kayanza","kind_detail":"province","min_zoom":4.0,"id":1383495815},"coordinates":[1088,1902]},{"type":"Point","properties":{"source":"openstreetmap.org","kind":"region","name":"Karuzi","kind_detail":"province","min_zoom":4.0,"id":1387554908},"coordinates":[1437,1816]},{"type":"Point","properties":{"source":"openstreetmap.org","kind":"region","name":"Ngozi","kind_detail":"province","min_zoom":4.0,"id":1387564893},"coordinates":[1292,1997]},{"type":"Point","properties":{"source":"openstreetmap.org","kind":"region","name":"Ngozi","kind_detail":"province","min_zoom":4.0,"id":1383495818},"coordinates":[1323,1994]},{"type":"Point","properties":{"admin_level":"4","kind":"region","name:en":"Southern Province, Rwanda","name":"Amajvepfo","alt_name:de":"S\u00fcd Provinz","kind_detail":"state","name:cs":"Ji\u017en\u00ed provincie (Rwanda)","source":"openstreetmap.org","min_zoom":4.0,"id":4346189875},"coordinates":[1079,2180]},{"type":"Point","properties":{"source":"openstreetmap.org","kind":"region","name":"Kirundo","kind_detail":"province","min_zoom":4.0,"id":1387564891},"coordinates":[1486,2228]},{"type":"Point","properties":{"source":"openstreetmap.org","kind":"region","name":"Muyinga","kind_detail":"province","min_zoom":4.0,"id":1383494996},"coordinates":[1587,2093]},{"type":"Point","properties":{"admin_level":"4","kind":"region","name":"Muyinga","source":"openstreetmap.org","kind_detail":"state","min_zoom":4.0,"id":4353406216},"coordinates":[1628,2119]},{"type":"Point","properties":{"source":"openstreetmap.org","kind":"region","name":"Bururi","kind_detail":"province","min_zoom":4.0,"id":1382944682},"coordinates":[1063,1282]},{"type":"Point","properties":{"admin_level":"4","kind":"region","name":"Geita","kind_detail":"state","source":"openstreetmap.org","min_zoom":4.0,"name:uk":"\u0490\u0435\u0456\u0442\u0430","name:ru":"\u0413\u0435\u0438\u0442\u0430","id":4353376512},"coordinates":[2884,1772]},{"type":"Point","properties":{"admin_level":"4","kind":"region","name":"Kagera","kind_detail":"state","source":"openstreetmap.org","min_zoom":4.0,"name:uk":"\u041a\u0430\u0491\u0435\u0440\u0430","name:ru":"\u041a\u0430\u0433\u0435\u0440\u0430","id":4353377894},"coordinates":[2443,2942]},{"type":"Point","properties":{"source":"openstreetmap.org","kind":"region","name":"Cankuzo","kind_detail":"province","min_zoom":4.0,"id":1382968129},"coordinates":[1792,1808]},{"type":"Point","properties":{"admin_level":"4","kind":"region","name":"Shinyanga Rural","source":"openstreetmap.org","kind_detail":"state","min_zoom":4.0,"id":4346171745},"coordinates":[3537,1362]},{"type":"Point","properties":{"admin_level":"4","kind":"region","name":"Tabora","kind_detail":"state","source":"openstreetmap.org","min_zoom":4.0,"name:uk":"\u0422\u0430\u0431\u043e\u0440\u0430","name:ru":"\u0422\u0430\u0431\u043e\u0440\u0430","id":4353391194},"coordinates":[3192,310]},{"type":"Point","properties":{"source":"naturalearthdata.com","kind":"locality","name":"Kigali","country_capital":true,"population":860000,"min_zoom":5.0,"id":6292},"coordinates":[1408,2673]},{"type":"Point","properties":{"source":"naturalearthdata.com","kind":"locality","name":"Mwanza","population":493944,"region_capital":true,"min_zoom":5.0,"id":6444},"coordinates":[3499,2258]},{"type":"Point","properties":{"source":"naturalearthdata.com","kind":"locality","name":"Bujumbura","country_capital":true,"population":331700,"min_zoom":5.0,"id":6755},"coordinates":[899,1634]},{"type":"Point","properties":{"source":"naturalearthdata.com","kind":"locality","name":"Goma","population":144124,"region_capital":true,"min_zoom":5.0,"id":6560},"coordinates":[799,2872]},{"type":"Point","properties":{"source":"naturalearthdata.com","kind":"locality","name":"Bukavu","population":436779,"min_zoom":6.0,"id":5890},"coordinates":[521,2265]},{"type":"Point","properties":{"source":"naturalearthdata.com","kind":"locality","name":"Uvira","population":170391,"min_zoom":6.0,"id":5891},"coordinates":[739,1638]},{"type":"Point","properties":{"source":"naturalearthdata.com","kind":"locality","name":"Tabora","population":146495,"region_capital":true,"min_zoom":6.0,"id":5784},"coordinates":[3404,435]}]},"transit":{"type":"GeometryCollection","geometries":[{"type":"LineString","properties":{"kind":"train","name":"Tabora - Dar es Salam","sort_rank":275,"source":"openstreetmap.org","min_zoom":6.0,"operator":"TR","id":-7168321,"osm_relation":true},"arcs":[237]},{"type":"MultiLineString","properties":{"osm_relation":true,"source":"openstreetmap.org","kind":"train","name":"Tabora - Mwanza","sort_rank":275,"min_zoom":6.0,"operator":"TR"},"arcs":[[238],[239],[240],[241],[242],[243],[244],[245],[246]]},{"type":"MultiLineString","properties":{"osm_relation":true,"source":"openstreetmap.org","kind":"train","name":"Tabora - Mpanda","sort_rank":275,"min_zoom":6.0,"operator":"TR"},"arcs":[[247],[248],[249],[250],[251]]},{"type":"MultiLineString","properties":{"osm_relation":true,"source":"openstreetmap.org","kind":"train","name":"Tabora - Kigoma","sort_rank":275,"min_zoom":6.0,"operator":"TR"},"arcs":[[252],[253],[254],[255],[256]]}]},"pois":{"type":"GeometryCollection","geometries":[{"type":"Point","properties":{"kind":"national_park","tier":1,"protect_class":"2","area":370165000,"source":"openstreetmap.org","min_zoom":6.52,"operator":"Uganda Wildlife Authority","id":-3110475,"osm_relation":true,"name":"Lake Mburo National Park"},"coordinates":[2041,3649]},{"type":"Point","properties":{"kind":"national_park","name":"Akagera National Park","area":1086040000,"source":"openstreetmap.org","min_zoom":5.75,"tier":1,"id":-1708935,"osm_relation":true},"coordinates":[1906,2898]},{"type":"Point","properties":{"kind":"national_park","protect_class":"2","area":324864000,"source":"openstreetmap.org","min_zoom":6.62,"tier":1,"id":-934542,"osm_relation":true,"name":"Bwindi Impenetrable National Park"},"coordinates":[1110,3364]},{"type":"Point","properties":{"source":"openstreetmap.org","kind":"nature_reserve","name":"Kigosi Game Reserve","area":9545670000,"tier":2,"min_zoom":5.68,"id":356787171},"coordinates":[2580,1169]},{"type":"Point","properties":{"source":"openstreetmap.org","kind":"nature_reserve","name":"Moyowosi Game Reserve","area":14300500000,"tier":2,"min_zoom":5.39,"id":356787172},"coordinates":[2084,1180]}]},"boundaries":{"type":"GeometryCollection","geometries":[{"type":"LineString","properties":{"source":"naturalearthdata.com","kind":"country","sort_rank":262,"kind_detail":"2","min_zoom":0.0,"id":268},"arcs":[0]},{"type":"LineString","properties":{"source":"naturalearthdata.com","kind":"country","sort_rank":262,"kind_detail":"2","min_zoom":0.0,"id":108},"arcs":[1]},{"type":"MultiLineString","properties":{"source":"naturalearthdata.com","kind":"country","sort_rank":262,"kind_detail":"2","min_zoom":0.0,"id":163},"arcs":[[2],[3],[4],[5],[6],[7],[8],[9],[10],[11],[12],[13],[14],[15],[16],[17],[18],[19],[20],[21]]},{"type":"MultiLineString","properties":{"source":"naturalearthdata.com","kind":"country","sort_rank":262,"kind_detail":"2","min_zoom":0.0,"id":185},"arcs":[[22],[23],[24],[25],[26],[27],[28],[29],[30]]},{"type":"MultiLineString","properties":{"source":"naturalearthdata.com","kind":"country","sort_rank":262,"kind_detail":"2","min_zoom":0.0,"id":267},"arcs":[[31],[32],[33],[34],[35],[36],[37],[38],[39],[40],[41]]},{"type":"MultiLineString","properties":{"source":"naturalearthdata.com","kind":"country","sort_rank":262,"kind_detail":"2","min_zoom":0.0,"id":269},"arcs":[[42],[43],[44],[45],[46],[47],[48],[49],[50],[51],[52],[53],[54],[55],[56],[57],[58],[59],[60]]},{"type":"LineString","properties":{"source":"naturalearthdata.com","kind":"country","sort_rank":262,"kind_detail":"2","min_zoom":0.0,"id":270},"arcs":[61]},{"type":"MultiLineString","properties":{"source":"naturalearthdata.com","kind":"country","sort_rank":262,"kind_detail":"2","min_zoom":0.0,"id":271},"arcs":[[62],[63],[64]]},{"type":"MultiLineString","properties":{"source":"naturalearthdata.com","kind":"country","sort_rank":262,"kind_detail":"2","min_zoom":0.0,"id":362},"arcs":[[65],[66],[67],[68],[69],[70],[71]]},{"type":"LineString","properties":{"source":"naturalearthdata.com","kind":"country","sort_rank":262,"kind_detail":"2","min_zoom":0.0,"id":395},"arcs":[72]},{"type":"MultiLineString","properties":{"source":"naturalearthdata.com","kind":"region","sort_rank":256,"kind_detail":"4","min_zoom":5.5,"id":4410},"arcs":[[73],[74],[75],[76],[77],[78],[79],[80]]},{"type":"LineString","properties":{"source":"naturalearthdata.com","kind":"region","sort_rank":256,"kind_detail":"4","min_zoom":5.5,"id":4415},"arcs":[81]},{"type":"LineString","properties":{"source":"naturalearthdata.com","kind":"region","sort_rank":256,"kind_detail":"4","min_zoom":5.5,"id":4416},"arcs":[82]},{"type":"LineString","properties":{"source":"naturalearthdata.com","kind":"region","sort_rank":256,"kind_detail":"4","min_zoom":6.8,"id":7931},"arcs":[83]},{"type":"MultiLineString","properties":{"source":"naturalearthdata.com","kind":"region","sort_rank":256,"kind_detail":"4","min_zoom":5.5,"id":4409},"arcs":[[84],[85]]},{"type":"LineString","properties":{"source":"naturalearthdata.com","kind":"macroregion","sort_rank":257,"kind_detail":"3","min_zoom":6.7,"id":5438},"arcs":[86]},{"type":"LineString","properties":{"source":"naturalearthdata.com","kind":"macroregion","sort_rank":257,"kind_detail":"3","min_zoom":6.7,"id":5857},"arcs":[87]},{"type":"LineString","properties":{"source":"naturalearthdata.com","kind":"macroregion","sort_rank":257,"kind_detail":"3","min_zoom":6.7,"id":5858},"arcs":[88]},{"type":"LineString","properties":{"source":"naturalearthdata.com","kind":"macroregion","sort_rank":257,"kind_detail":"3","min_zoom":6.7,"id":5859},"arcs":[89]},{"type":"LineString","properties":{"source":"naturalearthdata.com","kind":"macroregion","sort_rank":257,"kind_detail":"3","min_zoom":6.7,"id":5913},"arcs":[90]},{"type":"LineString","properties":{"source":"naturalearthdata.com","kind":"region","sort_rank":256,"kind_detail":"4","min_zoom":5.5,"id":6190},"arcs":[91]},{"type":"MultiLineString","properties":{"source":"naturalearthdata.com","kind":"region","sort_rank":256,"kind_detail":"4","min_zoom":5.5,"id":6215},"arcs":[[92],[93],[94],[95],[96],[97],[98],[99],[100],[101],[102],[103],[104],[105],[106],[107],[108],[109],[110],[111],[112]]},{"type":"MultiLineString","properties":{"source":"naturalearthdata.com","kind":"region","sort_rank":256,"kind_detail":"4","min_zoom":5.5,"id":6216},"arcs":[[113],[114],[115],[116]]},{"type":"LineString","properties":{"source":"naturalearthdata.com","kind":"region","sort_rank":256,"kind_detail":"4","min_zoom":5.5,"id":6218},"arcs":[117]},{"type":"MultiLineString","properties":{"source":"naturalearthdata.com","kind":"region","sort_rank":256,"kind_detail":"4","min_zoom":5.5,"id":6219},"arcs":[[118],[119],[120],[121],[122]]},{"type":"MultiLineString","properties":{"source":"naturalearthdata.com","kind":"region","sort_rank":256,"kind_detail":"4","min_zoom":5.5,"id":6220},"arcs":[[123],[124],[125]]},{"type":"MultiLineString","properties":{"source":"naturalearthdata.com","kind":"region","sort_rank":256,"kind_detail":"4","min_zoom":5.5,"id":6221},"arcs":[[126],[127],[128],[129],[130],[131],[132],[133],[134],[135],[136],[137],[138],[139],[140]]},{"type":"MultiLineString","properties":{"source":"naturalearthdata.com","kind":"region","sort_rank":256,"kind_detail":"4","min_zoom":5.5,"id":6222},"arcs":[[141],[142],[143]]},{"type":"MultiLineString","properties":{"source":"naturalearthdata.com","kind":"region","sort_rank":256,"kind_detail":"4","min_zoom":5.5,"id":6225},"arcs":[[144],[145],[146],[147],[148],[149]]},{"type":"LineString","properties":{"source":"naturalearthdata.com","kind":"region","sort_rank":256,"kind_detail":"4","min_zoom":5.5,"id":6228},"arcs":[150]},{"type":"LineString","properties":{"source":"naturalearthdata.com","kind":"region","sort_rank":256,"kind_detail":"4","min_zoom":5.5,"id":6229},"arcs":[151]},{"type":"MultiLineString","properties":{"source":"naturalearthdata.com","kind":"region","sort_rank":256,"kind_detail":"4","min_zoom":5.5,"id":6230},"arcs":[[152],[153],[154],[155]]},{"type":"LineString","properties":{"source":"naturalearthdata.com","kind":"region","sort_rank":256,"kind_detail":"4","min_zoom":6.8,"id":7924},"arcs":[156]},{"type":"LineString","properties":{"source":"naturalearthdata.com","kind":"region","sort_rank":256,"kind_detail":"4","min_zoom":6.8,"id":7923},"arcs":[157]},{"type":"MultiLineString","properties":{"source":"naturalearthdata.com","kind":"region","sort_rank":256,"kind_detail":"4","min_zoom":6.8,"id":7925},"arcs":[[158],[159],[160],[161],[162]]},{"type":"LineString","properties":{"source":"naturalearthdata.com","kind":"region","sort_rank":256,"kind_detail":"4","min_zoom":6.8,"id":7926},"arcs":[163]},{"type":"MultiLineString","properties":{"source":"naturalearthdata.com","kind":"region","sort_rank":256,"kind_detail":"4","min_zoom":6.8,"id":7927},"arcs":[[164],[165],[166],[167],[168],[169]]},{"type":"MultiLineString","properties":{"source":"naturalearthdata.com","kind":"region","sort_rank":256,"kind_detail":"4","min_zoom":6.8,"id":7928},"arcs":[[170],[171],[172],[173],[174],[175],[176],[177],[178]]},{"type":"MultiLineString","properties":{"source":"naturalearthdata.com","kind":"region","sort_rank":256,"kind_detail":"4","min_zoom":6.8,"id":7929},"arcs":[[179],[180],[181],[182],[183],[184]]},{"type":"MultiLineString","properties":{"source":"naturalearthdata.com","kind":"region","sort_rank":256,"kind_detail":"4","min_zoom":6.8,"id":7930},"arcs":[[185],[186],[187],[188],[189]]},{"type":"MultiLineString","properties":{"source":"naturalearthdata.com","kind":"region","sort_rank":256,"kind_detail":"4","min_zoom":6.8,"id":7932},"arcs":[[190],[191],[192]]},{"type":"MultiLineString","properties":{"source":"naturalearthdata.com","kind":"region","sort_rank":256,"kind_detail":"4","min_zoom":6.8,"id":9123},"arcs":[[193],[194]]},{"type":"MultiLineString","properties":{"source":"naturalearthdata.com","kind":"region","sort_rank":256,"kind_detail":"4","min_zoom":5.5,"id":9124},"arcs":[[195],[196],[197],[198],[199],[200],[201],[202],[203],[204]]},{"type":"MultiLineString","properties":{"source":"naturalearthdata.com","kind":"region","sort_rank":256,"kind_detail":"4","min_zoom":5.5,"id":9125},"arcs":[[205],[206],[207]]},{"type":"LineString","properties":{"source":"naturalearthdata.com","kind":"region","sort_rank":256,"kind_detail":"4","min_zoom":6.8,"id":9126},"arcs":[208]},{"type":"LineString","properties":{"source":"naturalearthdata.com","kind":"region","sort_rank":256,"kind_detail":"4","min_zoom":5.5,"id":9127},"arcs":[209]},{"type":"LineString","properties":{"source":"naturalearthdata.com","kind":"region","sort_rank":256,"kind_detail":"4","min_zoom":6.8,"id":9128},"arcs":[210]},{"type":"MultiLineString","properties":{"source":"naturalearthdata.com","kind":"region","sort_rank":256,"kind_detail":"4","min_zoom":6.8,"id":9129},"arcs":[[211],[212],[213],[214],[215]]},{"type":"LineString","properties":{"source":"naturalearthdata.com","kind":"region","sort_rank":256,"kind_detail":"4","min_zoom":5.5,"id":9130},"arcs":[216]},{"type":"LineString","properties":{"source":"naturalearthdata.com","kind":"region","sort_rank":256,"kind_detail":"4","min_zoom":6.8,"id":9160},"arcs":[217]},{"type":"LineString","properties":{"source":"naturalearthdata.com","kind":"region","sort_rank":256,"kind_detail":"4","min_zoom":6.8,"id":9161},"arcs":[218]},{"type":"MultiLineString","properties":{"source":"naturalearthdata.com","kind":"region","sort_rank":256,"kind_detail":"4","min_zoom":6.8,"id":9163},"arcs":[[219],[220]]},{"type":"LineString","properties":{"source":"naturalearthdata.com","kind":"region","sort_rank":256,"kind_detail":"4","min_zoom":6.8,"id":9164},"arcs":[221]},{"type":"MultiLineString","properties":{"source":"naturalearthdata.com","kind":"region","sort_rank":256,"kind_detail":"4","min_zoom":6.8,"id":9165},"arcs":[[222],[223]]},{"type":"LineString","properties":{"source":"naturalearthdata.com","kind":"region","sort_rank":256,"kind_detail":"4","min_zoom":6.8,"id":9166},"arcs":[224]},{"type":"LineString","properties":{"source":"naturalearthdata.com","kind":"region","sort_rank":256,"kind_detail":"4","min_zoom":6.8,"id":9167},"arcs":[225]},{"type":"LineString","properties":{"source":"naturalearthdata.com","kind":"region","sort_rank":256,"kind_detail":"4","min_zoom":6.8,"id":9169},"arcs":[226]},{"type":"LineString","properties":{"source":"naturalearthdata.com","kind":"region","sort_rank":256,"kind_detail":"4","min_zoom":6.8,"id":9174},"arcs":[227]},{"type":"MultiLineString","properties":{"source":"naturalearthdata.com","kind":"region","sort_rank":256,"kind_detail":"4","min_zoom":6.8,"id":9175},"arcs":[[228],[229]]},{"type":"LineString","properties":{"source":"naturalearthdata.com","kind":"region","sort_rank":256,"kind_detail":"4","min_zoom":6.8,"id":9176},"arcs":[230]},{"type":"LineString","properties":{"source":"naturalearthdata.com","kind":"region","sort_rank":256,"kind_detail":"4","min_zoom":6.8,"id":9177},"arcs":[231]},{"type":"LineString","properties":{"source":"naturalearthdata.com","kind":"region","sort_rank":256,"kind_detail":"4","min_zoom":6.8,"id":9178},"arcs":[232]},{"type":"LineString","properties":{"source":"naturalearthdata.com","kind":"region","sort_rank":256,"kind_detail":"4","min_zoom":6.8,"id":9179},"arcs":[233]},{"type":"MultiLineString","properties":{"source":"naturalearthdata.com","kind":"region","sort_rank":256,"kind_detail":"4","min_zoom":6.8,"id":9180},"arcs":[[234],[235],[236]]}]},"roads":{"type":"GeometryCollection","geometries":[{"type":"LineString","properties":{"source":"naturalearthdata.com","kind":"major_road","kind_detail":"secondary","sort_rank":379,"landuse_kind":"park","min_zoom":4.0,"id":41573},"arcs":[302]},{"type":"LineString","properties":{"source":"naturalearthdata.com","kind":"major_road","sort_rank":379,"kind_detail":"secondary","min_zoom":3.0,"id":41602},"arcs":[303]},{"type":"LineString","properties":{"source":"naturalearthdata.com","kind":"major_road","kind_detail":"secondary","sort_rank":379,"landuse_kind":"urban_area","min_zoom":3.0,"id":41605},"arcs":[304]},{"type":"LineString","properties":{"source":"naturalearthdata.com","kind":"major_road","sort_rank":379,"kind_detail":"secondary","min_zoom":3.0,"id":41605},"arcs":[305]},{"type":"LineString","properties":{"source":"naturalearthdata.com","kind":"major_road","kind_detail":"secondary","sort_rank":379,"landuse_kind":"urban_area","min_zoom":3.0,"id":41621},"arcs":[306]},{"type":"LineString","properties":{"source":"naturalearthdata.com","kind":"major_road","sort_rank":379,"kind_detail":"secondary","min_zoom":3.0,"id":41621},"arcs":[307]},{"type":"LineString","properties":{"source":"naturalearthdata.com","kind":"major_road","sort_rank":379,"kind_detail":"secondary","min_zoom":3.0,"id":41631},"arcs":[308]},{"type":"LineString","properties":{"source":"naturalearthdata.com","kind":"major_road","kind_detail":"secondary","sort_rank":379,"landuse_kind":"park","min_zoom":4.0,"id":41653},"arcs":[309]},{"type":"LineString","properties":{"source":"naturalearthdata.com","kind":"major_road","kind_detail":"secondary","sort_rank":379,"landuse_kind":"protected_area","min_zoom":4.0,"id":41653},"arcs":[310]},{"type":"LineString","properties":{"source":"naturalearthdata.com","kind":"major_road","sort_rank":379,"kind_detail":"secondary","min_zoom":4.0,"id":41653},"arcs":[311]},{"type":"LineString","properties":{"source":"naturalearthdata.com","kind":"major_road","sort_rank":379,"kind_detail":"secondary","min_zoom":4.0,"id":41662},"arcs":[312]},{"type":"LineString","properties":{"source":"naturalearthdata.com","kind":"major_road","sort_rank":379,"kind_detail":"secondary","min_zoom":3.0,"id":41666},"arcs":[313]},{"type":"LineString","properties":{"source":"naturalearthdata.com","kind":"major_road","sort_rank":379,"kind_detail":"secondary","min_zoom":4.0,"id":41667},"arcs":[314]},{"type":"LineString","properties":{"source":"naturalearthdata.com","kind":"minor_road","kind_detail":"tertiary","sort_rank":355,"landuse_kind":"urban_area","min_zoom":5.0,"id":41673},"arcs":[315]},{"type":"LineString","properties":{"source":"naturalearthdata.com","kind":"minor_road","sort_rank":355,"kind_detail":"tertiary","min_zoom":5.0,"id":41673},"arcs":[316]},{"type":"MultiLineString","properties":{"source":"naturalearthdata.com","kind":"major_road","kind_detail":"secondary","sort_rank":379,"landuse_kind":"park","min_zoom":4.0,"id":41682},"arcs":[[317],[318]]},{"type":"LineString","properties":{"source":"naturalearthdata.com","kind":"major_road","sort_rank":379,"kind_detail":"secondary","min_zoom":4.0,"id":41682},"arcs":[319]},{"type":"LineString","properties":{"source":"naturalearthdata.com","kind":"major_road","sort_rank":379,"kind_detail":"secondary","min_zoom":4.0,"id":41689},"arcs":[320]},{"type":"LineString","properties":{"source":"naturalearthdata.com","kind":"minor_road","sort_rank":355,"kind_detail":"tertiary","min_zoom":5.0,"id":41701},"arcs":[321]},{"type":"LineString","properties":{"source":"naturalearthdata.com","kind":"minor_road","sort_rank":355,"kind_detail":"tertiary","min_zoom":6.0,"id":41722},"arcs":[322]},{"type":"LineString","properties":{"source":"naturalearthdata.com","kind":"major_road","sort_rank":379,"kind_detail":"secondary","min_zoom":3.0,"id":41723},"arcs":[323]},{"type":"LineString","properties":{"source":"naturalearthdata.com","kind":"minor_road","kind_detail":"tertiary","sort_rank":355,"landuse_kind":"park","min_zoom":6.0,"id":41726},"arcs":[324]},{"type":"LineString","properties":{"source":"naturalearthdata.com","kind":"minor_road","sort_rank":355,"kind_detail":"tertiary","min_zoom":6.0,"id":41726},"arcs":[325]},{"type":"LineString","properties":{"source":"naturalearthdata.com","kind":"major_road","sort_rank":379,"kind_detail":"secondary","min_zoom":3.0,"id":41754},"arcs":[326]},{"type":"LineString","properties":{"source":"naturalearthdata.com","kind":"minor_road","sort_rank":355,"kind_detail":"tertiary","min_zoom":6.0,"id":41801},"arcs":[327]},{"type":"LineString","properties":{"source":"naturalearthdata.com","kind":"minor_road","sort_rank":355,"kind_detail":"tertiary","min_zoom":5.0,"id":41821},"arcs":[328]},{"type":"LineString","properties":{"source":"naturalearthdata.com","kind":"minor_road","sort_rank":355,"kind_detail":"tertiary","min_zoom":5.0,"id":41833},"arcs":[329]},{"type":"LineString","properties":{"source":"naturalearthdata.com","kind":"major_road","sort_rank":379,"kind_detail":"secondary","min_zoom":4.0,"id":41839},"arcs":[330]},{"type":"LineString","properties":{"source":"naturalearthdata.com","kind":"major_road","sort_rank":379,"kind_detail":"secondary","min_zoom":4.0,"id":41857},"arcs":[331]},{"type":"LineString","properties":{"source":"naturalearthdata.com","kind":"major_road","sort_rank":379,"kind_detail":"secondary","min_zoom":3.0,"id":41863},"arcs":[332]},{"type":"LineString","properties":{"source":"naturalearthdata.com","kind":"minor_road","sort_rank":355,"kind_detail":"tertiary","min_zoom":5.0,"id":41867},"arcs":[333]},{"type":"LineString","properties":{"source":"naturalearthdata.com","kind":"major_road","sort_rank":379,"kind_detail":"secondary","min_zoom":4.0,"id":41896},"arcs":[334]},{"type":"LineString","properties":{"source":"naturalearthdata.com","kind":"major_road","sort_rank":379,"kind_detail":"secondary","min_zoom":4.0,"id":41908},"arcs":[335]},{"type":"LineString","properties":{"source":"naturalearthdata.com","kind":"major_road","sort_rank":379,"kind_detail":"secondary","min_zoom":3.0,"id":41928},"arcs":[336]},{"type":"LineString","properties":{"source":"naturalearthdata.com","kind":"major_road","kind_detail":"secondary","sort_rank":379,"landuse_kind":"park","min_zoom":4.0,"id":41932},"arcs":[337]},{"type":"MultiLineString","properties":{"source":"naturalearthdata.com","kind":"major_road","sort_rank":379,"kind_detail":"secondary","min_zoom":4.0,"id":41932},"arcs":[[338],[339]]},{"type":"LineString","properties":{"source":"naturalearthdata.com","kind":"major_road","sort_rank":379,"kind_detail":"secondary","min_zoom":4.0,"id":41952},"arcs":[340]},{"type":"LineString","properties":{"source":"naturalearthdata.com","kind":"minor_road","kind_detail":"tertiary","sort_rank":355,"landuse_kind":"urban_area","min_zoom":6.0,"id":41955},"arcs":[341]},{"type":"MultiLineString","properties":{"source":"naturalearthdata.com","kind":"minor_road","sort_rank":355,"kind_detail":"tertiary","min_zoom":6.0,"id":41955},"arcs":[[342],[343]]},{"type":"LineString","properties":{"source":"naturalearthdata.com","kind":"minor_road","sort_rank":355,"kind_detail":"tertiary","min_zoom":6.0,"id":41956},"arcs":[344]},{"type":"LineString","properties":{"source":"naturalearthdata.com","kind":"major_road","kind_detail":"secondary","sort_rank":379,"landuse_kind":"park","min_zoom":4.0,"id":41962},"arcs":[345]},{"type":"LineString","properties":{"source":"naturalearthdata.com","kind":"major_road","kind_detail":"secondary","sort_rank":379,"landuse_kind":"urban_area","min_zoom":4.0,"id":41962},"arcs":[346]},{"type":"MultiLineString","properties":{"source":"naturalearthdata.com","kind":"major_road","sort_rank":379,"kind_detail":"secondary","min_zoom":4.0,"id":41962},"arcs":[[347],[348]]},{"type":"LineString","properties":{"source":"naturalearthdata.com","kind":"major_road","kind_detail":"secondary","sort_rank":379,"landuse_kind":"urban_area","min_zoom":4.0,"id":41966},"arcs":[349]},{"type":"LineString","properties":{"source":"naturalearthdata.com","kind":"major_road","sort_rank":379,"kind_detail":"secondary","min_zoom":4.0,"id":41966},"arcs":[350]},{"type":"LineString","properties":{"source":"naturalearthdata.com","kind":"major_road","kind_detail":"secondary","sort_rank":379,"landuse_kind":"urban_area","min_zoom":4.0,"id":41967},"arcs":[351]},{"type":"MultiLineString","properties":{"source":"naturalearthdata.com","kind":"major_road","sort_rank":379,"kind_detail":"secondary","min_zoom":4.0,"id":41967},"arcs":[[352],[353]]},{"type":"LineString","properties":{"source":"naturalearthdata.com","kind":"major_road","sort_rank":379,"kind_detail":"secondary","min_zoom":3.0,"id":42000},"arcs":[354]},{"type":"LineString","properties":{"source":"naturalearthdata.com","kind":"major_road","sort_rank":379,"kind_detail":"secondary","min_zoom":4.0,"id":42002},"arcs":[355]},{"type":"LineString","properties":{"source":"naturalearthdata.com","kind":"major_road","kind_detail":"secondary","sort_rank":379,"landuse_kind":"urban_area","min_zoom":3.0,"id":42014},"arcs":[356]},{"type":"LineString","properties":{"source":"naturalearthdata.com","kind":"major_road","sort_rank":379,"kind_detail":"secondary","min_zoom":3.0,"id":42014},"arcs":[357]},{"type":"LineString","properties":{"source":"naturalearthdata.com","kind":"major_road","kind_detail":"secondary","sort_rank":379,"landuse_kind":"urban_area","min_zoom":3.0,"id":42017},"arcs":[358]},{"type":"LineString","properties":{"source":"naturalearthdata.com","kind":"major_road","sort_rank":379,"kind_detail":"secondary","min_zoom":3.0,"id":42017},"arcs":[359]},{"type":"LineString","properties":{"source":"naturalearthdata.com","kind":"major_road","kind_detail":"secondary","sort_rank":379,"landuse_kind":"urban_area","min_zoom":4.0,"id":42021},"arcs":[360]},{"type":"LineString","properties":{"source":"naturalearthdata.com","kind":"major_road","sort_rank":379,"kind_detail":"secondary","min_zoom":4.0,"id":42021},"arcs":[361]},{"type":"LineString","properties":{"source":"naturalearthdata.com","kind":"major_road","kind_detail":"secondary","sort_rank":379,"landuse_kind":"urban_area","min_zoom":3.0,"id":42043},"arcs":[362]},{"type":"MultiLineString","properties":{"source":"naturalearthdata.com","kind":"major_road","sort_rank":379,"kind_detail":"secondary","min_zoom":3.0,"id":42043},"arcs":[[363],[364]]},{"type":"LineString","properties":{"source":"naturalearthdata.com","kind":"major_road","sort_rank":379,"kind_detail":"secondary","min_zoom":4.0,"id":42048},"arcs":[365]},{"type":"LineString","properties":{"source":"naturalearthdata.com","kind":"major_road","sort_rank":379,"kind_detail":"secondary","min_zoom":4.0,"id":42056},"arcs":[366]},{"type":"LineString","properties":{"source":"naturalearthdata.com","kind":"major_road","sort_rank":379,"kind_detail":"secondary","min_zoom":4.0,"id":42086},"arcs":[367]},{"type":"LineString","properties":{"source":"naturalearthdata.com","kind":"major_road","kind_detail":"secondary","sort_rank":379,"landuse_kind":"park","min_zoom":4.0,"id":42087},"arcs":[368]},{"type":"MultiLineString","properties":{"source":"naturalearthdata.com","kind":"major_road","sort_rank":379,"kind_detail":"secondary","min_zoom":4.0,"id":42087},"arcs":[[369],[370]]},{"type":"LineString","properties":{"source":"naturalearthdata.com","kind":"major_road","sort_rank":379,"kind_detail":"secondary","min_zoom":3.0,"id":42092},"arcs":[371]},{"type":"LineString","properties":{"source":"naturalearthdata.com","kind":"major_road","sort_rank":379,"kind_detail":"secondary","min_zoom":4.0,"id":42107},"arcs":[372]},{"type":"LineString","properties":{"source":"naturalearthdata.com","kind":"major_road","kind_detail":"secondary","sort_rank":379,"landuse_kind":"urban_area","min_zoom":4.0,"id":42116},"arcs":[373]},{"type":"MultiLineString","properties":{"source":"naturalearthdata.com","kind":"major_road","sort_rank":379,"kind_detail":"secondary","min_zoom":4.0,"id":42116},"arcs":[[374],[375]]},{"type":"LineString","properties":{"source":"naturalearthdata.com","kind":"major_road","sort_rank":379,"kind_detail":"secondary","min_zoom":3.0,"id":42121},"arcs":[376]},{"type":"LineString","properties":{"source":"naturalearthdata.com","kind":"major_road","kind_detail":"secondary","sort_rank":379,"landuse_kind":"urban_area","min_zoom":4.0,"id":42126},"arcs":[377]},{"type":"LineString","properties":{"source":"naturalearthdata.com","kind":"major_road","kind_detail":"secondary","sort_rank":379,"landuse_kind":"urban_area","min_zoom":3.0,"id":42140},"arcs":[378]},{"type":"LineString","properties":{"source":"naturalearthdata.com","kind":"major_road","kind_detail":"secondary","sort_rank":379,"landuse_kind":"urban_area","min_zoom":3.0,"id":42140},"arcs":[379]},{"type":"LineString","properties":{"source":"naturalearthdata.com","kind":"major_road","kind_detail":"secondary","sort_rank":379,"landuse_kind":"urban_area","min_zoom":3.0,"id":42140},"arcs":[380]},{"type":"MultiLineString","properties":{"source":"naturalearthdata.com","kind":"major_road","sort_rank":379,"kind_detail":"secondary","min_zoom":3.0,"id":42140},"arcs":[[381],[382],[383]]},{"type":"LineString","properties":{"source":"naturalearthdata.com","kind":"major_road","sort_rank":379,"kind_detail":"secondary","min_zoom":4.0,"id":42141},"arcs":[384]},{"type":"LineString","properties":{"source":"naturalearthdata.com","kind":"major_road","sort_rank":379,"kind_detail":"secondary","min_zoom":4.0,"id":42142},"arcs":[385]},{"type":"LineString","properties":{"source":"naturalearthdata.com","kind":"major_road","kind_detail":"secondary","sort_rank":379,"landuse_kind":"urban_area","min_zoom":3.0,"id":42145},"arcs":[386]},{"type":"MultiLineString","properties":{"source":"naturalearthdata.com","kind":"major_road","sort_rank":379,"kind_detail":"secondary","min_zoom":3.0,"id":42145},"arcs":[[387],[388]]},{"type":"LineString","properties":{"source":"naturalearthdata.com","kind":"major_road","sort_rank":379,"kind_detail":"secondary","min_zoom":4.0,"id":42150},"arcs":[389]},{"type":"LineString","properties":{"source":"naturalearthdata.com","kind":"major_road","kind_detail":"secondary","sort_rank":379,"landuse_kind":"urban_area","min_zoom":3.0,"id":42155},"arcs":[390]},{"type":"MultiLineString","properties":{"source":"naturalearthdata.com","kind":"major_road","sort_rank":379,"kind_detail":"secondary","min_zoom":3.0,"id":42155},"arcs":[[391],[392]]},{"type":"LineString","properties":{"source":"naturalearthdata.com","kind":"major_road","kind_detail":"secondary","sort_rank":379,"landuse_kind":"urban_area","min_zoom":4.0,"id":42157},"arcs":[393]},{"type":"LineString","properties":{"source":"naturalearthdata.com","kind":"major_road","sort_rank":379,"kind_detail":"secondary","min_zoom":4.0,"id":42157},"arcs":[394]},{"type":"LineString","properties":{"source":"naturalearthdata.com","kind":"major_road","sort_rank":379,"kind_detail":"secondary","min_zoom":3.0,"id":42165},"arcs":[395]},{"type":"LineString","properties":{"source":"naturalearthdata.com","kind":"major_road","sort_rank":379,"kind_detail":"secondary","min_zoom":4.0,"id":42174},"arcs":[396]},{"type":"LineString","properties":{"source":"naturalearthdata.com","kind":"major_road","sort_rank":379,"kind_detail":"secondary","min_zoom":3.0,"id":42175},"arcs":[397]},{"type":"LineString","properties":{"source":"naturalearthdata.com","kind":"major_road","sort_rank":379,"kind_detail":"secondary","min_zoom":4.0,"id":42184},"arcs":[398]},{"type":"LineString","properties":{"source":"naturalearthdata.com","kind":"major_road","sort_rank":379,"kind_detail":"secondary","min_zoom":4.0,"id":42201},"arcs":[399]},{"type":"LineString","properties":{"source":"naturalearthdata.com","kind":"major_road","sort_rank":379,"kind_detail":"secondary","min_zoom":3.0,"id":42203},"arcs":[400]},{"type":"LineString","properties":{"source":"naturalearthdata.com","kind":"major_road","sort_rank":379,"kind_detail":"secondary","min_zoom":4.0,"id":42206},"arcs":[401]},{"type":"LineString","properties":{"source":"naturalearthdata.com","kind":"major_road","kind_detail":"secondary","sort_rank":379,"landuse_kind":"urban_area","min_zoom":3.0,"id":42229},"arcs":[402]},{"type":"MultiLineString","properties":{"source":"naturalearthdata.com","kind":"major_road","sort_rank":379,"kind_detail":"secondary","min_zoom":3.0,"id":42229},"arcs":[[403],[404]]},{"type":"LineString","properties":{"source":"naturalearthdata.com","kind":"major_road","sort_rank":379,"kind_detail":"secondary","min_zoom":3.0,"id":42230},"arcs":[405]},{"type":"LineString","properties":{"source":"naturalearthdata.com","kind":"major_road","sort_rank":379,"kind_detail":"secondary","min_zoom":4.0,"id":42231},"arcs":[406]},{"type":"LineString","properties":{"source":"naturalearthdata.com","kind":"major_road","sort_rank":379,"kind_detail":"secondary","min_zoom":3.0,"id":42286},"arcs":[407]},{"type":"LineString","properties":{"source":"naturalearthdata.com","kind":"minor_road","kind_detail":"tertiary","sort_rank":355,"landuse_kind":"urban_area","min_zoom":6.0,"id":42298},"arcs":[408]},{"type":"LineString","properties":{"source":"naturalearthdata.com","kind":"minor_road","sort_rank":355,"kind_detail":"tertiary","min_zoom":6.0,"id":42298},"arcs":[409]},{"type":"LineString","properties":{"source":"naturalearthdata.com","kind":"major_road","kind_detail":"secondary","sort_rank":379,"landuse_kind":"urban_area","min_zoom":3.0,"id":42300},"arcs":[410]},{"type":"LineString","properties":{"source":"naturalearthdata.com","kind":"major_road","sort_rank":379,"kind_detail":"secondary","min_zoom":3.0,"id":42300},"arcs":[411]},{"type":"LineString","properties":{"source":"naturalearthdata.com","kind":"major_road","kind_detail":"secondary","sort_rank":379,"landuse_kind":"urban_area","min_zoom":4.0,"id":42301},"arcs":[412]},{"type":"LineString","properties":{"source":"naturalearthdata.com","kind":"major_road","kind_detail":"secondary","sort_rank":379,"landuse_kind":"urban_area","min_zoom":4.0,"id":42301},"arcs":[413]},{"type":"LineString","properties":{"source":"naturalearthdata.com","kind":"major_road","sort_rank":379,"kind_detail":"secondary","min_zoom":4.0,"id":42301},"arcs":[414]},{"type":"LineString","properties":{"source":"naturalearthdata.com","kind":"major_road","sort_rank":379,"kind_detail":"secondary","min_zoom":3.0,"id":42307},"arcs":[415]},{"type":"LineString","properties":{"source":"naturalearthdata.com","kind":"major_road","kind_detail":"secondary","sort_rank":379,"landuse_kind":"urban_area","min_zoom":4.0,"id":42316},"arcs":[416]},{"type":"LineString","properties":{"source":"naturalearthdata.com","kind":"major_road","kind_detail":"secondary","sort_rank":379,"landuse_kind":"urban_area","min_zoom":4.0,"id":42320},"arcs":[417]},{"type":"LineString","properties":{"source":"naturalearthdata.com","kind":"major_road","sort_rank":379,"kind_detail":"secondary","min_zoom":4.0,"id":42320},"arcs":[418]},{"type":"LineString","properties":{"source":"naturalearthdata.com","kind":"major_road","kind_detail":"secondary","sort_rank":379,"landuse_kind":"urban_area","min_zoom":3.0,"id":42321},"arcs":[419]},{"type":"LineString","properties":{"source":"naturalearthdata.com","kind":"major_road","sort_rank":379,"kind_detail":"secondary","min_zoom":3.0,"id":42321},"arcs":[420]},{"type":"LineString","properties":{"source":"naturalearthdata.com","kind":"major_road","kind_detail":"secondary","sort_rank":379,"landuse_kind":"nature_reserve","min_zoom":4.0,"id":42347},"arcs":[421]},{"type":"MultiLineString","properties":{"source":"naturalearthdata.com","kind":"major_road","sort_rank":379,"kind_detail":"secondary","min_zoom":4.0,"id":42347},"arcs":[[422],[423]]},{"type":"LineString","properties":{"source":"naturalearthdata.com","kind":"major_road","kind_detail":"secondary","sort_rank":379,"landuse_kind":"urban_area","min_zoom":3.0,"id":42364},"arcs":[424]},{"type":"LineString","properties":{"source":"naturalearthdata.com","kind":"major_road","sort_rank":379,"kind_detail":"secondary","min_zoom":3.0,"id":42364},"arcs":[425]},{"type":"LineString","properties":{"source":"naturalearthdata.com","kind":"major_road","sort_rank":379,"kind_detail":"secondary","min_zoom":4.0,"id":42371},"arcs":[426]},{"type":"LineString","properties":{"source":"naturalearthdata.com","kind":"minor_road","sort_rank":355,"kind_detail":"tertiary","min_zoom":6.0,"id":42376},"arcs":[427]},{"type":"LineString","properties":{"source":"naturalearthdata.com","kind":"minor_road","sort_rank":355,"kind_detail":"tertiary","min_zoom":6.0,"id":42399},"arcs":[428]},{"type":"LineString","properties":{"source":"naturalearthdata.com","kind":"major_road","kind_detail":"secondary","sort_rank":379,"landuse_kind":"urban_area","min_zoom":3.0,"id":42400},"arcs":[429]},{"type":"LineString","properties":{"source":"naturalearthdata.com","kind":"major_road","sort_rank":379,"kind_detail":"secondary","min_zoom":3.0,"id":42400},"arcs":[430]},{"type":"LineString","properties":{"source":"naturalearthdata.com","kind":"major_road","sort_rank":379,"kind_detail":"secondary","min_zoom":3.0,"id":42460},"arcs":[431]},{"type":"LineString","properties":{"source":"naturalearthdata.com","kind":"major_road","sort_rank":379,"kind_detail":"secondary","min_zoom":4.0,"id":42461},"arcs":[432]},{"type":"LineString","properties":{"source":"naturalearthdata.com","kind":"major_road","sort_rank":379,"kind_detail":"secondary","min_zoom":3.0,"id":42462},"arcs":[433]},{"type":"LineString","properties":{"source":"naturalearthdata.com","kind":"major_road","kind_detail":"secondary","sort_rank":379,"landuse_kind":"urban_area","min_zoom":4.0,"id":42494},"arcs":[434]},{"type":"LineString","properties":{"source":"naturalearthdata.com","kind":"major_road","sort_rank":379,"kind_detail":"secondary","min_zoom":4.0,"id":42494},"arcs":[435]},{"type":"LineString","properties":{"source":"naturalearthdata.com","kind":"major_road","sort_rank":379,"kind_detail":"secondary","min_zoom":4.0,"id":42515},"arcs":[436]},{"type":"LineString","properties":{"source":"naturalearthdata.com","kind":"minor_road","sort_rank":355,"kind_detail":"tertiary","min_zoom":6.0,"id":42525},"arcs":[437]},{"type":"LineString","properties":{"source":"naturalearthdata.com","kind":"major_road","sort_rank":379,"kind_detail":"secondary","min_zoom":3.0,"id":42530},"arcs":[438]},{"type":"LineString","properties":{"source":"naturalearthdata.com","kind":"major_road","sort_rank":379,"kind_detail":"secondary","min_zoom":4.0,"id":42531},"arcs":[439]},{"type":"LineString","properties":{"source":"naturalearthdata.com","kind":"major_road","sort_rank":379,"kind_detail":"secondary","min_zoom":3.0,"id":42535},"arcs":[440]},{"type":"LineString","properties":{"source":"naturalearthdata.com","kind":"major_road","sort_rank":379,"kind_detail":"secondary","min_zoom":4.0,"id":42537},"arcs":[441]},{"type":"LineString","properties":{"source":"naturalearthdata.com","kind":"major_road","sort_rank":379,"kind_detail":"secondary","min_zoom":4.0,"id":42549},"arcs":[442]},{"type":"LineString","properties":{"source":"naturalearthdata.com","kind":"major_road","sort_rank":379,"kind_detail":"secondary","min_zoom":4.0,"id":42557},"arcs":[443]},{"type":"LineString","properties":{"source":"naturalearthdata.com","kind":"major_road","sort_rank":379,"kind_detail":"secondary","min_zoom":3.0,"id":42580},"arcs":[444]},{"type":"LineString","properties":{"source":"naturalearthdata.com","kind":"major_road","sort_rank":379,"kind_detail":"secondary","min_zoom":4.0,"id":42591},"arcs":[445]},{"type":"LineString","properties":{"source":"naturalearthdata.com","kind":"minor_road","sort_rank":355,"kind_detail":"tertiary","min_zoom":6.0,"id":42611},"arcs":[446]},{"type":"LineString","properties":{"source":"naturalearthdata.com","kind":"major_road","sort_rank":379,"kind_detail":"secondary","min_zoom":4.0,"id":42617},"arcs":[447]},{"type":"LineString","properties":{"source":"naturalearthdata.com","kind":"major_road","sort_rank":379,"kind_detail":"secondary","min_zoom":4.0,"id":42618},"arcs":[448]},{"type":"LineString","properties":{"source":"naturalearthdata.com","kind":"major_road","sort_rank":379,"kind_detail":"secondary","min_zoom":4.0,"id":42626},"arcs":[449]},{"type":"LineString","properties":{"source":"naturalearthdata.com","kind":"major_road","sort_rank":379,"kind_detail":"secondary","min_zoom":4.0,"id":42634},"arcs":[450]},{"type":"LineString","properties":{"source":"naturalearthdata.com","kind":"minor_road","sort_rank":355,"kind_detail":"tertiary","min_zoom":6.0,"id":42656},"arcs":[451]},{"type":"LineString","properties":{"source":"naturalearthdata.com","kind":"minor_road","kind_detail":"tertiary","sort_rank":355,"landuse_kind":"urban_area","min_zoom":6.0,"id":42686},"arcs":[452]},{"type":"LineString","properties":{"source":"naturalearthdata.com","kind":"minor_road","sort_rank":355,"kind_detail":"tertiary","min_zoom":6.0,"id":42686},"arcs":[453]},{"type":"LineString","properties":{"source":"naturalearthdata.com","kind":"minor_road","kind_detail":"tertiary","sort_rank":355,"landuse_kind":"urban_area","min_zoom":6.0,"id":42762},"arcs":[454]},{"type":"LineString","properties":{"source":"naturalearthdata.com","kind":"minor_road","sort_rank":355,"kind_detail":"tertiary","min_zoom":6.0,"id":42762},"arcs":[455]},{"type":"LineString","properties":{"source":"naturalearthdata.com","kind":"major_road","sort_rank":379,"kind_detail":"secondary","min_zoom":4.0,"id":42807},"arcs":[456]},{"type":"LineString","properties":{"source":"naturalearthdata.com","kind":"major_road","sort_rank":379,"kind_detail":"secondary","min_zoom":4.0,"id":42892},"arcs":[457]},{"type":"LineString","properties":{"source":"naturalearthdata.com","kind":"minor_road","sort_rank":355,"kind_detail":"tertiary","min_zoom":6.0,"id":42978},"arcs":[458]}]},"earth":{"type":"GeometryCollection","geometries":[{"type":"Polygon","properties":{"sort_rank":10,"source":"naturalearthdata.com","min_zoom":0.0,"kind":"earth","area":1568366174169},"arcs":[[459]]}]},"landuse":{"type":"GeometryCollection","geometries":[{"type":"Polygon","properties":{"kind":"national_park","protect_class":"2","area":324864000,"sort_rank":18,"source":"openstreetmap.org","min_zoom":3.0,"tier":1,"id":-934542,"osm_relation":true},"arcs":[[460]]},{"type":"MultiPolygon","properties":{"source":"openstreetmap.org","kind":"nature_reserve","tier":2,"area":24580601449,"sort_rank":23,"min_zoom":4.0},"arcs":[[[461]]]},{"type":"MultiPolygon","properties":{"source":"naturalearthdata.com","kind":"urban_area","name":"","area":1814945277,"sort_rank":11,"min_zoom":4.0},"arcs":[[[462]],[[463]],[[464]],[[465]],[[466]],[[467]],[[468]],[[469]],[[470]],[[471]],[[472]],[[473]],[[474]],[[475]],[[476]],[[477]],[[478]],[[479]],[[480]],[[481]],[[482]],[[483]],[[484]],[[485]],[[486]],[[487]],[[488]],[[489]],[[490]],[[491]],[[492]],[[493]],[[494]],[[495]],[[496]],[[497]],[[498]],[[499]],[[500]],[[501]],[[502]],[[503]],[[504]],[[505]],[[506]],[[507]],[[508]],[[509]]]},{"type":"Polygon","properties":{"kind":"national_park","protect_class":"2","area":370164992,"sort_rank":18,"operator":"Uganda Wildlife Authority","source":"openstreetmap.org","min_zoom":3.0,"tier":1,"id":-3110475,"osm_relation":true},"arcs":[[510]]},{"type":"Polygon","properties":{"kind":"national_park","area":1086040064,"sort_rank":18,"source":"openstreetmap.org","min_zoom":3.0,"tier":1,"id":-1708935,"osm_relation":true},"arcs":[[511]]},{"type":"Polygon","properties":{"kind":"park","area":3388300032,"sort_rank":24,"operator":"Uganda Wildlife Authorities","source":"openstreetmap.org","min_zoom":4.0,"tier":2,"id":-6712007,"osm_relation":true},"arcs":[[512]]},{"type":"Polygon","properties":{"kind":"park","area":7863309824,"sort_rank":24,"operator":"ICCN","source":"openstreetmap.org","min_zoom":4.0,"tier":2,"id":-404784,"osm_relation":true},"arcs":[[513]]},{"type":"Polygon","properties":{"kind":"protected_area","protect_class":"2","area":168423008,"sort_rank":17,"source":"openstreetmap.org","min_zoom":6.0,"tier":2,"id":-5987145,"osm_relation":true},"arcs":[[514]]},{"type":"Polygon","properties":{"kind":"protected_area","area":905785024,"sort_rank":17,"source":"openstreetmap.org","min_zoom":6.0,"tier":2,"id":-1347461,"osm_relation":true},"arcs":[[515]]},{"type":"MultiPolygon","properties":{"source":"openstreetmap.org","kind":"protected_area","tier":2,"area":368871379,"sort_rank":17,"min_zoom":6.0},"arcs":[[[516]],[[517]]]},{"type":"MultiPolygon","properties":{"source":"openstreetmap.org","kind":"park","tier":2,"area":1692448295,"sort_rank":24,"min_zoom":6.0,"osm_relation":true},"arcs":[[[518]],[[519],[520],[521]],[[522]]]},{"type":"MultiPolygon","properties":{"source":"openstreetmap.org","kind":"park","tier":2,"area":73481161010,"sort_rank":24,"min_zoom":4.0,"osm_relation":true},"arcs":[[[523]],[[524]],[[525]],[[526]],[[527]],[[528]],[[529]]]},{"type":"Polygon","properties":{"kind":"nature_reserve","area":977142976,"sort_rank":23,"source":"openstreetmap.org","min_zoom":6.0,"tier":2,"id":-1359815,"osm_relation":true},"arcs":[[530]]}]}},"type":"Topology","transform":{"translate":[28.125,-5.6159858192],"scale":[0.001373291,0.0013710903]},"arcs":[[[1709,3318],[1,1]],[[931,851],[3,-10],[2,-29],[-7,-61],[-44,-121],[-14,-61],[2,-62],[14,-58],[1,-4],[24,-60],[57,-103],[30,-118],[69,-164]],[[1641,2416],[4,-2],[23,-5]],[[1557,2376],[11,0],[14,3],[14,5],[10,5],[10,9],[3,4],[3,4],[7,7],[12,3]],[[1670,2410],[4,-4],[3,-10],[4,-6],[40,-33],[24,-11],[24,-1]],[[1668,2409],[2,1]],[[1323,2406],[6,-3],[5,-4],[1,-1],[13,-11],[6,-1]],[[1222,2078],[15,2],[14,9],[14,15],[10,13],[9,15],[7,16],[4,16],[0,8],[3,75],[16,55],[-5,56],[5,37],[-1,7],[3,4],[7,0]],[[1516,2390],[9,-1],[23,-11],[9,-2]],[[1450,2323],[17,0],[12,9],[33,41],[1,5],[1,7],[2,5]],[[1360,2386],[7,0],[8,-3],[9,-7],[23,-26],[11,-11],[16,-10],[16,-6]],[[1354,2386],[6,0]],[[720,2204],[12,-2],[44,-19],[16,-5],[31,-4],[15,-4],[14,-8],[8,-6],[1,-4],[-1,-8],[3,-10],[0,-1],[15,-15],[5,-9],[-2,-8],[-10,-12],[-2,-8],[1,-8],[7,-15],[1,-10],[7,-13]],[[648,2112],[13,73],[16,16],[43,3]],[[1188,2083],[16,-5],[18,0]],[[1145,2048],[16,2],[7,4],[4,7],[2,15],[5,7],[9,0]],[[1088,2063],[5,0],[8,-3],[30,-10],[14,-2]],[[1055,2049],[6,3],[5,3],[22,8]],[[947,2051],[14,-2],[26,-5],[17,-10]],[[885,2035],[17,1],[32,14],[13,1]],[[1048,2050],[7,-1]],[[1004,2034],[14,5],[14,9],[16,2]],[[1690,3324],[11,-4],[8,-2]],[[1659,3315],[11,3],[10,4],[10,2]],[[1622,3322],[12,-1],[13,-4],[12,-2]],[[1305,3020],[16,2],[16,6],[49,27],[7,2],[7,16],[10,9],[3,2],[22,12],[30,12],[8,7],[3,11],[5,28],[5,10],[6,4],[5,1],[6,0],[6,2],[11,6],[32,31],[10,12],[8,14],[1,4],[2,11],[2,4],[2,2],[3,3],[12,5],[4,4],[4,11],[5,30],[6,10],[11,4]],[[1231,3131],[7,-1],[8,-4],[20,-29],[4,-16],[1,-30],[7,-15],[13,-12],[14,-4]],[[1201,3100],[6,3],[5,14],[6,8],[7,5],[6,1]],[[1172,3113],[9,-2],[15,-10],[5,-1]],[[1087,3082],[16,1],[13,4],[15,8],[11,8],[13,7],[17,3]],[[1058,3083],[29,-1]],[[1712,3249],[-6,4],[-2,5],[2,4],[3,4],[2,5],[-3,10],[-10,7],[-3,8],[2,8],[6,8],[6,6]],[[1953,2927],[-11,9],[-7,16],[-7,26],[-4,6],[-9,10],[-12,16],[-4,9],[4,4],[2,9],[2,19],[-5,19],[-14,9],[-14,2],[-48,18],[-7,4],[-11,10],[-7,5],[-22,9],[-9,7],[-4,12],[1,6],[1,4],[2,3],[1,2],[-2,6],[-7,9],[-4,15],[-13,22],[-5,11],[-2,18],[-4,5],[-8,6]],[[1726,3253],[-3,0],[-5,-3],[-6,-1]],[[1960,2624],[10,42],[-3,19],[-21,4],[3,6],[5,4],[12,10],[-6,13],[4,11],[7,11],[4,12],[-5,30],[-3,7],[8,20],[-1,7],[-7,10],[-1,4],[0,8],[9,57],[1,19],[-6,15]],[[1970,2933],[-17,-6]],[[1918,2359],[7,2],[5,3],[10,3],[11,6],[12,6],[10,6],[7,14],[4,15],[-4,50],[7,32],[25,81],[-6,21],[-8,11],[-11,11],[-13,7]],[[1974,2627],[-14,-3]],[[1866,2382],[8,-2],[38,-19],[6,-2]],[[1815,2347],[15,1],[8,7],[10,19],[9,7],[9,1]],[[1783,2353],[16,-2],[16,-4]],[[1769,2345],[14,8]],[[1769,2345],[-24,-30],[-10,-16],[-27,-67],[-6,-23],[-3,-8],[-7,-9],[-18,-16],[-6,-10],[-3,-17],[9,-8],[14,0]],[[1746,2164],[-5,-14],[-42,-44],[-6,-10],[-2,-11],[0,-19],[-16,-21],[-8,-16],[1,-13],[18,-23],[11,-11],[14,-3],[-4,-8],[5,-6],[6,-7],[3,-9]],[[1688,2141],[15,5],[26,11],[17,7]],[[1758,1982],[6,-1],[47,-29],[10,-4],[3,-2],[2,-4],[2,-12],[2,-3],[9,-3]],[[1721,1949],[4,2],[14,20],[9,7],[10,4]],[[1863,1930],[9,-3],[17,-11],[9,-3]],[[1839,1924],[8,2],[7,3],[9,1]],[[1949,1924],[17,0],[-4,-9],[-3,-4],[-22,-26],[-5,-12],[4,-10],[18,-17],[7,-10],[0,-4],[-4,-10],[0,-4],[2,-6],[10,-7],[3,-5],[1,-9],[-2,-9],[-6,-17],[-10,-15],[0,-6],[3,-12],[1,-5],[-11,-19],[-18,-12],[-20,-3]],[[1898,1913],[17,1],[34,10]],[[1910,1693],[-19,10]],[[1891,1703],[-3,-9],[-4,-6],[-7,-4],[-9,-1],[-20,-8],[-16,-10],[-14,-13],[-13,-16],[5,-3],[22,-12],[-1,-19],[-19,-19],[-35,-15],[-9,-12],[-6,-5],[-5,-2],[-19,-4],[-1,-2],[-2,-6],[0,-2],[-14,-1]],[[1721,1534],[-1,1],[-1,1]],[[1719,1536],[-12,-2],[-2,-2],[-3,-9],[-2,-3],[-20,-15],[-4,-8],[2,-15],[0,-13],[-6,-14],[-30,-47],[-5,-13],[0,-1],[-1,-13],[3,-13],[4,-11],[3,-11],[-3,-13]],[[1643,1333],[-32,11]],[[1611,1344],[-19,-12],[-28,-49],[-38,-39],[-9,-15],[-12,-52],[-12,-28],[-2,-4],[-17,-30],[-22,-26],[-49,-42],[-8,-11],[-18,-44],[-9,-12],[-17,-9],[-7,-6],[-25,-14],[-26,-24],[-39,-19],[-6,-2]],[[1248,906],[-12,2],[-8,4],[-8,1]],[[1220,913],[-12,-7],[-1,-3],[-2,-12],[-4,-6],[-12,-6],[-5,-4],[-2,-10],[-1,-10],[-2,-8],[-8,-6]],[[1171,841],[-4,1],[-29,2],[-36,9]],[[1102,853],[-171,-2]],[[648,2112],[10,-18],[-15,-2],[-9,-8],[-5,-12],[-1,-16],[5,-12],[14,-4],[15,-1],[11,-5],[3,-6],[7,-20],[11,-15],[3,-8],[1,-11],[5,-12],[11,-6],[13,-4],[11,-8],[4,-11],[3,-16],[6,-13],[14,-5],[14,-2],[12,-4],[10,-8],[7,-11],[5,-42],[1,-5],[-4,-8],[-9,-5],[-5,-13],[-3,-14],[2,-49],[5,-14],[13,-10],[-4,-3],[-17,-16],[-3,-10],[-1,-21],[13,-185],[-1,-58],[-5,-30],[-7,-53],[6,-86],[7,-20],[11,-15],[27,-30],[45,-76],[21,-70],[4,-14],[22,-176]],[[1058,3083],[-29,-10],[-29,-21],[-25,-26],[-14,-22],[-2,-4],[-2,-1],[-1,-2],[-2,0],[-56,-2],[-11,-5],[-9,-11],[-20,-41],[-7,-10],[-35,-29],[-9,-13],[-15,-29],[-19,-30],[-27,-43],[-14,-32],[-3,-27],[1,-26],[19,-115],[2,-26],[-4,-30],[-12,-35],[-18,-28],[-25,-20],[-32,-9]],[[660,2436],[-21,1]],[[639,2437],[-6,-2],[-8,-7],[-1,-7],[-2,-7],[-6,-11],[-8,-13],[-11,-11],[-12,-8],[-15,-4],[-20,-7],[-10,-9],[-6,-19],[2,-15],[3,-15],[7,-13],[2,-9],[-12,-11],[-3,-10],[3,-9],[6,-5],[9,-3],[7,-8],[5,-17],[-5,-56],[6,-6],[27,-17],[10,-4],[21,-3],[15,-7],[11,-12]],[[1931,3377],[26,-6],[12,-6]],[[1830,3313],[10,8],[26,27],[10,6],[28,9],[27,14]],[[1969,3365],[47,0],[133,0],[133,0],[16,0],[118,0],[133,0],[133,0],[130,0],[3,0],[134,0],[133,0],[134,0],[132,0],[1,0],[90,0],[43,0],[133,0],[134,0],[111,0],[22,0],[128,0],[5,0],[81,0]],[[1716,3324],[9,-1],[5,-4],[4,-4],[4,-2]],[[1710,3319],[6,5]],[[1797,3320],[16,-1],[17,-6]],[[1738,3313],[9,1],[13,3],[37,3]],[[1157,4096],[0,-5],[-4,-14],[-10,-27],[-13,-74],[-5,-27],[-12,-71],[-2,-13],[-16,-92],[2,-13],[2,-5],[8,-16],[3,-11],[3,-45],[-2,-10],[-6,-4],[-8,0],[-6,-2],[-3,-8],[1,-5],[6,-7],[1,-5],[-1,-5],[-3,-4],[-4,-3],[-3,-4],[-9,-57],[0,-15],[6,-29],[2,-15],[-2,-44],[-2,-11],[-8,-9],[-22,-8],[-8,-13],[-1,-6],[0,-7],[3,-14],[1,-11],[-3,-7],[-3,-6],[-2,-9],[2,-13],[10,-28],[3,-14],[0,-13],[-9,-45],[0,-18],[6,-12],[7,-11],[5,-16],[-1,-6],[-7,-18],[0,-8],[9,-15],[3,-8],[0,-14],[-7,-43]],[[549,2880],[7,-2],[4,-5],[10,-26],[4,-7],[8,-5],[13,-4]],[[453,2793],[16,6],[13,11],[35,49],[8,9],[14,11],[10,1]],[[652,2837],[23,-1],[98,-9]],[[595,2831],[57,6]],[[410,2796],[18,-2],[25,-1]],[[299,2687],[17,4],[14,5],[12,9],[10,13],[9,16],[16,46],[7,8],[11,7],[15,1]],[[189,2775],[8,0],[8,-3],[7,-5],[6,-7],[4,-7],[12,-43],[3,-5],[4,-2],[16,-5],[11,-6],[12,-3],[19,-2]],[[0,2610],[5,2],[27,10],[81,14],[17,5],[12,10],[6,11],[4,16],[2,54],[4,14],[5,12],[7,8],[10,7],[9,2]],[[0,449],[509,0]],[[887,449],[-167,0],[-211,0]],[[961,3004],[3,-5],[13,-17]],[[38,1080],[14,-5],[15,-9],[15,-13],[42,-25],[31,-39],[11,-12],[75,-48],[8,-7],[6,-7],[12,-15],[86,-170],[33,-52],[64,-161],[9,-16],[14,-17],[23,-23],[13,-12]],[[0,1064],[11,9],[13,6],[14,1]],[[2150,4064],[-24,7],[-21,2],[5,13],[9,9],[0,1]],[[2192,3711],[-13,-34],[-31,-57]],[[2150,4064],[5,-61],[-15,-61],[1,-47],[7,-26],[13,-24],[20,-58],[14,-24],[6,-26],[-9,-26]],[[2148,3620],[35,-21],[29,-27],[13,-17],[7,-21],[-3,-19],[11,-32],[-13,-17],[9,-15],[17,-11],[15,-15],[5,-19],[3,-18],[14,-15],[8,-8]],[[3860,3365],[0,731]],[[2160,0],[-31,24],[-4,1],[-2,2],[-5,12],[-2,8],[0,9],[21,11],[2,19]],[[3347,3014],[-13,11]],[[3882,2831],[6,38],[-2,40],[4,40],[-8,37],[-89,35]],[[3793,3021],[-446,-7]],[[3830,2850],[33,-3],[19,-16]],[[3779,2678],[-23,16],[18,11],[2,1],[0,11],[0,5],[6,10],[-10,15],[-3,11],[31,70],[30,22]],[[3948,2655],[-2,2],[-5,2],[3,2],[1,0],[1,3],[-29,7],[-31,3],[20,13],[1,4],[-6,8],[-16,10],[-4,6],[5,9],[-9,1]],[[3877,2725],[-8,0],[-6,-4],[-2,-7],[-25,-2],[-29,-20],[-28,-14]],[[3951,2616],[5,10],[8,10],[3,11],[-11,12]],[[3956,2659],[-6,-3],[-2,-1]],[[3841,2658],[23,-7],[47,-32],[34,0],[6,-3]],[[3826,2598],[3,6],[2,2],[10,3],[-20,30],[20,19]],[[3755,2637],[11,-8],[10,-14],[5,-11]],[[3758,2596],[5,8],[0,10],[-6,9],[-11,6],[9,8]],[[3786,2625],[12,-2],[28,-25]],[[3781,2604],[5,0],[0,21]],[[3711,2607],[1,-2],[4,-1],[21,-1]],[[3711,2534],[-6,8],[-2,5],[-2,7],[1,7],[6,10],[3,8],[0,5],[-1,8],[-2,6],[-2,0],[3,8],[2,1]],[[3736,2604],[18,-5],[4,-3]],[[3737,2603],[-1,1]],[[3811,2515],[-5,6],[-3,10],[-8,7],[-19,11],[-20,7]],[[3756,2556],[-17,0],[-15,-7],[-13,-15]],[[4096,2574],[0,1]],[[4096,2575],[-28,-14],[-33,-24],[-7,-3],[-10,-4],[-10,-8],[-17,-18]],[[3991,2504],[-29,14],[-41,8],[-44,1]],[[3877,2527],[-36,-3],[-20,-8],[-10,-1]],[[2230,1596],[1,-2],[12,-25],[-2,-27],[3,-23],[7,-25],[1,-50],[18,-46],[41,-39],[44,-97],[12,-59],[-4,-36],[-24,-67],[-2,-36],[6,-22],[3,-24],[9,-10],[2,-13],[16,-38],[24,-38]],[[3811,2515],[92,-176],[22,-29],[56,-65],[32,-31],[26,-24],[33,-15],[24,-14]],[[4096,2087],[-4,0]],[[4092,2087],[-13,-5],[-28,-22]],[[4051,2060],[-50,15]],[[4001,2075],[-20,-13],[-17,-5],[-12,-11],[-11,-14],[-18,-4],[-10,-19],[22,-81],[-6,-30],[-21,-63],[-5,-35],[-9,-22],[-18,-17],[-18,-53]],[[2397,919],[0,-34],[5,-33]],[[2422,854],[9,-18],[7,-55],[13,-55],[-11,-33],[-7,-7],[-40,-15],[-14,-10],[-4,-13],[8,-76],[-6,-9],[-33,-16],[-13,-8],[-3,-5],[-3,-11],[-3,-5],[-5,-3],[-17,-6],[-36,-27],[-5,-3],[5,-12],[9,-11],[3,-20],[-36,-98],[-6,-84],[27,-116],[-13,-26],[-53,-11],[-56,-15]],[[2402,852],[20,2]],[[3983,1266],[41,-9],[4,-19],[14,-11]],[[3872,1249],[49,0],[21,7],[41,10]],[[3831,1259],[41,-10]],[[3644,1206],[38,2],[65,31],[84,20]],[[3538,1248],[29,-10],[33,-28],[44,-4]],[[3503,1233],[35,15]],[[3451,1244],[52,-11]],[[3253,973],[17,1],[71,20],[14,39],[-33,11],[-15,13],[-12,15],[5,13],[12,11],[9,13],[17,3],[11,40],[-8,41],[40,14],[47,20],[10,10],[13,7]],[[4091,1232],[5,-2]],[[4042,1227],[24,4],[25,1]],[[2596,1151],[86,-26],[64,-14],[25,-17],[21,-20],[5,-38],[-2,-40],[3,-37],[11,-36],[-2,-30],[-6,-28]],[[3207,1045],[24,-11],[14,-15],[8,-20],[-1,-14],[1,-12]],[[3092,898],[26,5],[19,24],[11,9],[3,15],[-5,28],[5,29],[11,18],[19,3],[26,16]],[[2976,947],[59,-18],[28,-17],[29,-14]],[[2801,865],[54,25],[60,46],[61,11]],[[2540,999],[50,25],[-4,20],[-9,19],[-14,9],[-6,13],[11,22],[28,44]],[[2469,1007],[71,-8]],[[2397,919],[17,25],[7,31],[19,23],[29,9]],[[1940,274],[-5,1],[-5,4],[-10,16],[-23,15],[-33,2]],[[1864,312],[-201,-1],[-25,-18],[-47,-53],[-29,-25],[-36,-8],[-155,-2],[-13,-16],[66,-56],[28,-63],[12,-70]],[[2010,219],[-15,12],[-22,31],[-18,13],[-5,0]],[[1950,275],[-10,-1]],[[2139,86],[-18,59],[-7,9],[-12,13],[-3,5],[-9,18],[-6,6],[-5,5],[-5,5],[-4,9],[-3,31],[-5,13],[-12,6]],[[2050,265],[-13,-6],[-16,-30],[-11,-10]],[[3348,3365],[-14,-340]],[[2080,2026],[-71,-66],[-14,-18],[-14,-17],[-19,-10]],[[2111,1755],[-9,0],[-6,7],[1,41],[28,42],[20,53],[-1,55],[-4,5],[-6,3],[-5,9],[-1,11],[-17,32],[-31,13]],[[2230,1596],[-16,23],[-13,25],[-19,51],[-8,52],[-38,29]],[[2136,1776],[-14,-9],[-11,-12]],[[2230,1596]],[[1352,2703],[-1,-1],[2,-2],[2,-6],[2,-6],[1,-2],[2,-3],[3,-5],[2,-5],[2,-5],[-1,-4],[-1,-1],[0,-3],[0,-4],[-2,-5],[-2,-4],[7,-11],[5,-11],[-4,-5],[-2,-3],[-6,-3],[-6,-5],[-1,-7],[4,-9],[7,-4],[3,0],[4,-2],[5,-1],[1,-1]],[[1378,2585],[-1,-7],[0,-14],[0,-8],[-4,-9],[-11,-12],[-8,-15],[1,-24],[-4,-36],[-9,-25],[0,-1],[0,-2],[-3,-13],[-2,-14],[0,-2],[-1,-2],[-2,-2]],[[1518,2583],[4,7],[6,13],[5,26],[2,27],[1,8],[4,5],[10,4],[10,5],[4,6],[0,14],[-2,12],[-4,5],[-5,5],[1,10],[-3,11],[-5,7],[-1,4]],[[1486,2617],[9,-3],[7,-10],[5,-8],[6,-7],[5,-6]],[[1414,2590],[5,1],[2,0],[2,1],[5,1],[5,1],[4,1],[6,2],[6,0],[2,0],[3,1],[2,2],[4,4],[5,4],[4,2],[8,3],[9,4]],[[1402,2599],[3,-4],[3,-4],[6,-1]],[[1378,2585],[4,3],[7,3],[4,2],[4,4],[5,2]],[[1545,2752],[-5,0],[-12,4]],[[1528,2756],[-23,17],[-24,16],[-12,7],[-5,2]],[[1464,2798],[-4,-9],[-5,-13],[-4,-5]],[[1451,2771],[-7,1]],[[1444,2772],[-18,-3],[-15,-7],[-4,-5],[-8,-9],[-9,-6]],[[1390,2742],[-9,6],[-10,7]],[[1371,2755],[-7,-3],[-5,-9],[-6,-10],[-4,-7],[4,-11],[3,-9],[-3,-2],[-1,-1]],[[1109,2656],[8,2],[7,6],[2,8],[-3,6],[-3,8],[0,8],[2,6],[4,9],[-2,20],[-3,18],[0,8],[2,9],[2,20],[-2,25],[-3,13],[-2,7],[-2,3]],[[1098,2656],[11,0]],[[1048,2490],[6,2],[6,2],[5,3],[7,4],[6,3],[0,10],[-3,10],[-2,5],[1,7],[7,13],[4,10],[0,5],[2,5],[2,3],[4,5],[5,8],[1,7],[1,6],[0,6],[-2,5],[-2,8],[0,16],[-2,16],[-3,7],[7,0]],[[1040,2493],[4,-1],[4,-2]],[[977,2441],[10,11],[19,14],[9,5],[8,7],[10,6],[4,5],[3,4]],[[972,2441],[5,0]],[[914,2424],[9,4],[13,10],[15,3],[13,0],[8,0]],[[905,2426],[9,-2]],[[863,2134],[13,7],[4,1],[7,4],[10,18],[2,26],[-8,13],[-4,5],[-1,6],[1,6],[1,7],[-3,5],[-3,7],[-6,7],[-4,10],[-2,11],[-6,8],[-9,4],[-14,4],[-9,5],[-1,5],[4,10],[6,9],[15,8],[15,8],[3,7],[-2,8],[-2,7],[6,10],[7,12],[1,6],[-5,10],[-5,12],[2,10],[8,9],[11,6],[10,1]],[[1129,2834],[8,-1],[12,-8],[13,-5]],[[1116,2832],[4,1],[9,1]],[[1172,2822],[5,-1],[3,-7],[7,-12],[10,-14],[9,-13],[10,-10],[3,-11],[14,-8],[20,-7]],[[1162,2820],[10,2]],[[1282,2742],[12,-1],[9,-2],[5,-4],[6,-3],[5,-4],[5,-4],[6,-6],[7,-7],[7,-5],[6,-1],[2,-2]],[[1253,2739],[14,0],[15,3]],[[977,2982],[18,-21],[16,-5],[13,-5]],[[1035,2953],[3,-1],[4,-2],[12,-5],[13,-7]],[[1024,2951],[6,0],[5,2]],[[1082,2939],[14,-1],[3,-22],[1,-30],[0,-21],[-1,-16],[9,-11],[8,-6]],[[1067,2938],[15,1]],[[1469,2984],[0,7],[-2,11],[-3,7],[-7,14],[-6,12],[-8,12],[-9,15],[-5,4],[-4,6],[-2,7],[-4,3],[-3,1],[-3,1]],[[1545,2752],[3,2],[5,5],[7,5],[4,2],[-1,11],[-5,23],[-8,25],[-2,15],[2,8],[3,8],[-4,10],[-11,11],[-14,18],[-13,17],[-10,10],[-7,13],[-5,15],[-3,16],[3,13],[6,5],[1,3],[-4,2]],[[1492,2989],[-8,0],[-8,-3],[-7,-2]],[[4083,1584],[-37,10],[-64,31],[-52,48],[-34,31],[-38,4]],[[4096,1587],[-13,-3]],[[3322,1581],[-28,1],[-58,36],[-26,19],[0,38],[5,40],[-6,27],[-16,22]],[[3630,1592],[-17,10],[-15,15],[-13,6],[-15,2],[-23,11],[-23,7],[-20,16],[-11,26],[-21,20],[-23,17]],[[3449,1722],[-21,-4],[-24,-8]],[[3404,1710],[-18,5]],[[3386,1715],[-15,-8],[-11,-23],[-22,-11]],[[3858,1708],[-40,-24],[-29,-8],[-31,-5]],[[3758,1671],[-27,7]],[[3731,1678],[-25,-9],[-28,-54],[-48,-23]],[[3338,1673],[-21,2]],[[3317,1675],[-5,-20],[-10,-28],[3,-23],[17,-2],[0,-21]],[[3193,1764],[-23,-5],[-46,-22],[-21,-18],[-17,-19],[-12,-25]],[[3074,1675],[-23,3],[-19,15],[-6,27],[-22,16]],[[3004,1736],[-28,-8],[-23,-19]],[[2732,2529],[14,-43],[5,-38],[3,-23],[15,-14],[8,-16],[-2,-19],[12,-22],[20,-17],[56,-29],[47,-30],[30,-21],[38,-12],[22,-31],[123,-21],[-39,-73],[127,-74],[-18,-56],[63,-53],[-63,-173]],[[2732,2529],[602,496]],[[2953,1709],[-31,-40],[-15,-49],[10,-74],[13,-72],[-11,-57],[-66,-5],[-74,-10],[-77,-36],[-64,-56],[-41,-62],[-11,-46],[10,-51]],[[2555,2377],[-51,2],[-146,65],[-33,5]],[[2325,2449],[-38,-13],[-49,-8]],[[2238,2428],[-23,5]],[[2215,2433],[-108,-184],[-79,-39],[-26,-72],[34,-36],[36,-30],[8,-46]],[[2623,2431],[-31,-16],[-37,-38]],[[2623,2431],[1,7],[5,6],[4,13],[-1,14],[-4,22],[9,13],[53,5],[42,18]],[[3362,4096],[-100,-119]],[[3589,4096],[-29,-107],[-121,-230]],[[2266,3758],[-6,-44],[-31,-6]],[[2229,3708],[-37,3]],[[2536,3905],[83,0]],[[2743,3903],[31,16],[29,9]],[[2619,3905],[124,-2]],[[2546,3753],[6,25],[-12,25],[4,17],[31,16],[25,15],[0,35],[19,19]],[[2619,3905],[20,25],[4,16],[-14,29],[-6,34],[-13,31],[-16,39],[-7,17]],[[2717,4091],[10,5]],[[1601,3942],[-30,-25],[-48,-11],[-34,-20],[-18,-14],[-5,-80]],[[1466,3792],[-35,11],[-25,31],[-23,6]],[[1383,3840],[-29,-14],[-28,-17],[-23,-6]],[[1466,3792],[54,-15],[51,-28],[32,-12]],[[1603,3737],[8,26],[97,8]],[[1603,3737],[0,-49],[-9,-42],[-48,-6],[-60,-6]],[[1502,3567],[7,27],[-23,40]],[[1380,3697],[-26,9],[-30,22]],[[1486,3634],[-29,9],[-8,20],[-6,23],[-17,17]],[[1426,3703],[-23,0],[-23,-6]],[[3676,205],[-221,137],[-34,91]],[[3421,433],[19,101],[-24,57],[35,88],[24,217],[-20,222]],[[3868,1421],[-45,-37],[-135,11],[-33,-17],[-56,-84],[-139,-77],[-5,-99]],[[3476,2257],[41,-72],[46,-10]],[[3563,2175],[53,-68],[125,1],[108,-46],[88,-180],[-5,-94]],[[3868,1421],[14,57]],[[3928,1639],[5,-94],[-51,-67]],[[3932,1788],[-14,-117]],[[3918,1671],[1,-2]],[[3919,1669],[9,-29]],[[3174,362],[-329,49],[-176,-8],[-160,-272],[-165,-131]],[[3175,362],[2,0]],[[3177,362],[17,-1]],[[3194,361],[36,-1]],[[3230,360],[110,33],[58,53],[20,-10]],[[3174,362],[-404,50],[-365,-28],[-18,18],[-134,-24],[-46,-37],[-184,19],[-98,40],[-143,-9],[-90,-33],[-68,20],[-3,23],[-166,23],[-56,30],[-80,-15],[-74,44],[-15,-24],[-114,97],[-24,-17]],[[3175,362],[2,0]],[[3177,362],[17,-1]],[[3194,361],[36,-1]],[[3230,360],[110,33],[58,53],[20,-10]],[[908,0],[1,5],[-84,145],[-7,5],[-52,81],[-23,59],[-13,59],[-7,6],[-8,14],[-5,15],[-3,11],[4,11],[7,15],[5,14],[-3,12],[-6,12],[-5,153],[10,113],[5,13],[14,21],[4,13],[3,27],[7,10],[12,-1],[11,-8],[9,-3],[3,15],[-4,43],[0,15],[3,13],[10,21],[30,183],[-14,52],[-4,0],[-15,-57],[-15,-32],[-9,-43],[-9,-15],[-8,-16],[-4,-43],[-10,-14],[-9,1],[-10,5],[-9,7],[-5,5],[-7,4],[-30,9],[5,0],[3,16],[11,18],[13,15],[10,5],[3,6],[2,13],[-2,22],[-3,5],[-10,8],[-3,6],[1,6],[8,11],[1,6],[-5,57],[1,15],[9,24],[1,35],[-1,10],[-5,6],[6,14],[1,22],[14,27],[-5,13],[-10,13],[-6,16],[3,13],[18,25],[4,15],[2,4],[14,11],[-13,185],[6,31],[16,24],[30,12],[35,1],[31,-5],[24,-16],[10,-30],[-5,-262],[25,-68],[2,-23],[3,-7],[7,-7],[8,-5],[7,-6],[6,-18],[14,-14],[3,-7],[-2,-8],[-2,-6],[-2,-6],[1,-8],[3,-6],[17,-23],[7,-15],[4,-6],[6,-7],[8,-11],[2,-12],[0,-14],[3,-15],[7,-10],[10,-8],[9,-10],[4,-15],[2,-16],[6,-17],[28,-46],[11,-12],[25,-24],[10,-15],[1,-15],[-5,-65],[-34,-183],[0,-52],[1,-8],[3,-6],[6,-6],[4,-5],[-1,-5],[-20,-18],[0,-5],[13,-4],[22,-3],[8,-2],[9,-5],[4,-5],[4,-6],[5,-7],[5,-3],[20,-8],[14,-4],[7,-6],[12,-16],[3,-1],[4,0],[4,-1],[3,-3],[0,-5],[-1,-4],[-3,-6],[4,-13],[18,-23],[8,-16],[4,-17],[0,-16],[-1,-9],[-3,-4],[-3,-3],[-2,-4],[-2,-1],[-3,0],[-3,-1],[-2,-3],[0,-5],[3,0],[4,0],[3,-3],[1,-8],[2,-5],[0,-5],[-6,-7],[-4,-8],[4,-15],[-3,-9],[-5,3],[-2,0],[-2,-1],[-6,-2],[2,-9],[1,-18],[-1,-19],[-4,-12],[-10,-13],[-8,-16],[-7,-17],[-2,-16],[6,-24],[15,-20],[34,-31],[14,-19],[18,-41],[-356,0]],[[4096,3018],[-2,-1],[-9,-7],[-7,-2],[-6,2],[-5,3],[-3,4],[-3,2],[-15,7],[-10,2],[-10,-5],[-5,-8],[4,-7],[7,-7],[4,-7],[11,2],[2,-8],[-3,-12],[-7,-10],[-11,-4],[-11,0],[-11,-1],[-10,-7],[5,-4],[6,-1],[7,1],[7,4],[1,-9],[4,-4],[6,-1],[9,3],[9,-12],[1,-5],[0,-8],[-2,-2],[-5,-1],[-8,-6],[6,-3],[6,-2],[6,1],[7,4],[5,-7],[2,-8],[-2,-9],[-5,-7],[-5,-3],[-5,-1],[-75,0],[-26,2],[-5,-2],[6,-11],[4,-4],[16,-10],[4,-5],[4,-5],[7,-11],[5,6],[7,-6],[19,-13],[4,-4],[-4,-10],[-9,-2],[-8,2],[-4,5],[-23,6],[-2,2],[-8,-6],[0,-4],[1,-6],[-3,-9],[-5,-8],[-6,-5],[-6,-2],[-10,0],[-4,-3],[-5,-7],[-7,-7],[-9,-3],[-16,0],[-15,2],[-7,9],[5,18],[-43,1],[-17,-4],[-20,-16],[-5,-8],[-7,-21],[-7,-13],[-1,-5],[0,-11],[-2,-1],[-18,-11],[23,-16],[28,14],[29,20],[25,2],[2,7],[6,4],[8,0],[9,-1],[-5,-9],[4,-6],[16,-10],[6,-8],[-1,-4],[-20,-13],[31,-3],[29,-7],[-1,-3],[-1,-1],[-3,-1],[5,-2],[2,-2],[2,1],[6,3],[11,-12],[-3,-11],[-8,-9],[-5,-11],[-6,3],[-34,0],[-47,32],[-23,7],[-20,-19],[20,-30],[-10,-3],[-3,-2],[-2,-6],[-28,26],[-12,1],[0,-21],[-5,0],[-5,11],[-10,14],[-11,8],[-9,-8],[11,-5],[6,-10],[0,-10],[-5,-8],[-4,3],[-18,5],[0,-1],[-20,1],[-4,1],[-1,2],[-2,-1],[-3,-8],[2,0],[1,-6],[2,-8],[0,-5],[-3,-8],[-6,-10],[-1,-7],[2,-7],[2,-5],[6,-8],[13,15],[15,7],[17,0],[20,-7],[19,-11],[8,-7],[3,-10],[5,-6],[10,1],[20,8],[36,3],[44,-1],[41,-8],[29,-14],[17,18],[9,8],[11,4],[7,3],[33,24],[27,14],[1,0],[0,-136],[-25,-5],[-10,-6],[-25,-19],[-14,3],[-11,-7],[-15,-21],[-11,-7],[-29,-11],[-12,-2],[-6,-3],[-8,-6],[-6,-8],[-3,-5],[1,-7],[3,-3],[4,-2],[5,-3],[2,-11],[-11,-6],[-16,0],[-13,9],[-7,-6],[-17,-6],[-19,-10],[-6,0],[0,-1],[9,-7],[26,-12],[4,-6],[-2,-10],[-6,-8],[-8,-3],[-9,4],[-4,-5],[-1,-5],[2,-5],[3,-5],[-12,-1],[-8,2],[-4,5],[-1,12],[-4,-2],[-10,-1],[-12,1],[-9,4],[2,2],[2,7],[2,6],[-1,5],[-5,2],[-5,-2],[-3,-3],[-3,-11],[-5,2],[-5,4],[-4,3],[-18,-4],[-38,-5],[-9,-1],[-10,4],[-16,13],[-6,3],[-3,2],[1,11],[-3,2],[0,1],[-14,4],[-3,1],[-6,7],[-9,17],[-5,10],[0,11],[-29,9],[-59,6],[-26,-6],[-27,-15],[-17,-21],[3,-24],[-10,4],[-8,-1],[-5,-8],[-2,-13],[4,-9],[17,-18],[4,-13],[-4,-3],[-18,-24],[0,-5],[-8,-5],[0,-12],[3,-12],[5,-9],[13,-9],[3,-3],[7,-9],[1,-3],[-2,-2],[-6,-6],[-2,1],[-5,1],[-6,-3],[-1,-10],[3,-3],[12,-11],[5,-5],[3,-5],[4,-11],[3,-4],[4,-3],[12,-5],[4,-2],[5,-10],[-5,-6],[-9,-6],[-6,-13],[24,1],[6,-1],[1,-3],[-1,-9],[0,-3],[10,-6],[7,0],[6,2],[7,1],[10,-7],[3,-5],[1,-5],[-1,-6],[-3,-4],[-9,-1],[-14,4],[-42,19],[-12,8],[-7,12],[-1,18],[-6,0],[-6,-16],[-9,-7],[-13,-6],[-14,-9],[-6,-11],[-5,-16],[-3,-15],[2,-10],[-11,-28],[-4,-7],[-24,-21],[-6,-9],[-5,0],[-6,9],[-1,11],[2,11],[7,12],[3,8],[0,10],[5,8],[20,1],[0,5],[-23,17],[-14,6],[-13,-3],[-6,9],[4,5],[17,6],[24,13],[8,2],[9,1],[31,6],[0,6],[-2,8],[0,9],[15,28],[5,19],[-8,8],[-20,2],[-8,7],[3,9],[13,12],[-14,8],[-6,1],[-5,-4],[-4,6],[-2,6],[-4,13],[11,-3],[4,-2],[3,14],[-4,14],[0,10],[16,2],[-3,9],[-4,6],[-5,2],[-8,-2],[1,12],[6,8],[8,7],[5,8],[0,5],[-7,2],[-3,3],[-3,6],[-5,6],[-6,2],[-13,-7],[-8,3],[-10,-6],[-12,-17],[-8,-7],[0,10],[-2,15],[2,5],[-5,5],[-30,-19],[-10,-6],[5,10],[7,11],[4,12],[-8,14],[-11,15],[-2,11],[-1,12],[-4,16],[-6,-6],[-7,-12],[-5,-13],[-2,-7],[-1,-15],[-4,-10],[-55,-52],[-18,-11],[-17,5],[11,20],[5,7],[12,10],[6,10],[3,11],[1,12],[-2,10],[-5,0],[-5,-7],[-14,-10],[-6,-8],[-7,6],[-6,5],[-6,0],[-6,-5],[-7,3],[-8,1],[-7,1],[-8,-1],[1,4],[3,8],[1,3],[-34,0],[-17,3],[-10,12],[3,9],[-17,18],[-13,18],[3,15],[4,0],[7,-1],[4,-2],[-1,-3],[9,6],[4,3],[-5,2],[-12,3],[-7,5],[-14,32],[-3,1],[-9,-1],[-9,-2],[-7,-4],[-9,-3],[-12,4],[-4,4],[-4,12],[-2,3],[-7,1],[-3,-4],[-1,-4],[3,-2],[5,-6],[1,-12],[-3,-23],[-13,0],[-19,-36],[-13,-13],[-10,-2],[-10,2],[-7,5],[-3,8],[-27,1],[-3,1],[-5,-5],[-3,-8],[-1,-9],[-1,-11],[3,-8],[7,-4],[8,-2],[7,-3],[3,-4],[2,-9],[2,-4],[5,-3],[11,-4],[12,-9],[8,-5],[7,-6],[5,-11],[-8,-7],[-1,-11],[-3,-10],[-14,-7],[1,6],[-5,14],[-9,-3],[-9,4],[-4,7],[2,7],[-7,4],[-6,2],[-7,1],[-5,-2],[3,-6],[0,-2],[-1,-1],[-2,-6],[-9,12],[-16,19],[-5,9],[-2,-6],[-2,-6],[-1,-6],[0,-7],[-5,0],[-6,13],[-10,-3],[-6,-12],[5,-15],[0,-6],[-3,-18],[3,-4],[2,-2],[0,-3],[0,-4],[-2,-3],[-7,-6],[-3,0],[-3,3],[-4,0],[-9,-1],[-6,0],[-5,0],[-5,-4],[-2,-5],[3,-5],[5,-4],[6,-1],[5,-3],[6,-6],[4,-8],[4,-16],[5,-5],[5,-3],[3,-4],[1,-5],[-1,-14],[0,-6],[4,-5],[14,-11],[2,-7],[-5,-13],[-12,-6],[-13,2],[-9,10],[-3,16],[1,15],[-5,10],[-16,4],[0,7],[1,14],[-5,9],[-19,-5],[1,11],[-2,4],[-3,0],[-5,-4],[1,-3],[2,-3],[2,-5],[-1,-9],[3,-23],[2,-8],[-13,-1],[-11,-4],[1,11],[-4,11],[-8,7],[-7,-1],[-6,-6],[-6,-3],[-4,-4],[-1,-8],[3,-10],[1,-5],[-2,-2],[1,-5],[10,-26],[2,-9],[-5,-10],[-10,-11],[-11,-9],[-10,-5],[-9,14],[-1,18],[6,35],[-1,12],[-2,5],[-4,1],[-13,0],[-2,1],[1,4],[1,13],[9,17],[0,3],[-1,4],[0,4],[4,6],[4,2],[10,0],[8,2],[3,0],[2,0],[0,7],[0,5],[0,3],[2,2],[4,2],[8,0],[8,-3],[7,1],[2,12],[-9,-3],[-12,-2],[-22,0],[-22,-7],[-11,-2],[-4,6],[0,40],[-4,7],[-9,2],[-8,4],[-4,13],[2,10],[7,2],[9,-1],[11,1],[12,5],[9,7],[6,9],[3,10],[0,5],[-3,5],[-2,6],[5,11],[-4,4],[-11,3],[-12,17],[-2,8],[-1,15],[12,-2],[1,5],[-7,6],[-10,5],[1,3],[3,8],[-21,5],[-16,-9],[-14,-12],[-18,-9],[-13,-1],[-6,4],[-2,10],[1,14],[1,6],[4,5],[7,9],[3,6],[-1,22],[15,43],[-2,7],[4,5],[14,30],[-2,5],[-7,8],[-1,7],[3,6],[10,13],[2,8],[-2,4],[-7,6],[-2,3],[1,4],[4,5],[2,10],[8,21],[-13,-1],[-6,-4],[-4,-6],[-6,-4],[-7,-2],[-4,0],[-5,1],[-7,1],[-4,-3],[-3,-5],[-3,-3],[-8,1],[2,26],[4,21],[9,19],[31,39],[8,20],[7,49],[3,12],[10,21],[6,58],[12,23],[13,18],[5,17],[-14,22],[8,21],[-3,32],[4,20],[30,-13],[4,9],[1,11],[0,22],[2,10],[7,16],[4,31],[16,30],[6,21],[6,70],[7,17],[1,6],[-4,9],[-6,9],[-4,9],[0,10],[1,9],[-1,9],[-4,12],[6,5],[10,10],[5,10],[-9,4],[-6,-2],[-5,-2],[-5,0],[-1,7],[0,8],[-1,6],[-3,5],[-6,3],[0,-13],[-3,-14],[-5,-13],[-8,-5],[-15,-7],[-10,6],[-1,13],[13,23],[2,7],[-1,6],[-10,5],[-2,7],[-3,32],[3,41],[-7,13],[-14,2],[-17,0],[-12,3],[-3,11],[2,18],[5,18],[8,7],[0,6],[27,30],[18,34],[5,5],[6,2],[3,5],[-1,6],[-8,14],[-1,7],[6,29],[2,7],[23,32],[5,10],[3,11],[6,16],[16,11],[32,15],[10,10],[26,32],[5,11],[6,18],[15,18],[16,6],[7,-15],[6,0],[-1,11],[-5,12],[-6,12],[-6,8],[-2,5],[-1,5],[-2,5],[-5,2],[-6,0],[-5,0],[-3,3],[-4,7],[4,19],[0,11],[-6,5],[-7,-1],[-26,-9],[7,30],[3,11],[-4,1],[-11,3],[15,7],[40,28],[12,-5],[29,-1],[14,-3],[-6,17],[-27,6],[-7,16],[11,-3],[5,-2],[29,11],[20,-6],[20,-13],[28,-7],[13,3],[9,8],[4,11],[1,13],[-2,6],[-6,12],[12,0],[2,-2],[18,-14],[21,-5],[15,8],[1,13],[44,0],[0,-18],[15,0],[5,0],[-8,15],[0,3],[289,0],[0,-3],[3,-10],[-11,0],[-3,-7],[2,-9],[7,-9],[14,11],[16,20],[1,7],[688,0],[0,-1078]],[[2688,2783],[-4,-14],[22,18],[6,11],[1,16],[-4,3],[-2,1],[-3,0],[-1,-16],[-7,-10],[-8,-9]],[[2658,2535],[8,-5],[9,-3],[3,4],[13,7],[3,4],[-13,2],[-10,3],[-6,7],[-2,9],[0,10],[-5,6],[-5,-10],[-3,-10],[0,-10],[4,-10],[4,-4]],[[2763,2334],[1,13],[-5,11],[-7,10],[-3,11],[1,13],[4,7],[1,4],[-9,0],[-20,8],[-6,19],[-3,23],[-8,21],[-4,6],[-8,4],[-8,5],[-1,15],[-4,0],[-15,-37],[-2,-19],[17,5],[-2,-11],[-5,-10],[-8,-5],[-11,2],[5,-26],[15,4],[14,-1],[6,-4],[-10,-8],[6,-10],[15,-13],[4,-7],[0,-10],[-7,-16],[-2,-11],[2,-11],[5,-10],[9,-5],[11,5],[27,22],[5,6]],[[2749,2903],[29,-19],[-2,8],[-3,5],[-10,12],[-17,9],[-3,3],[-3,0],[-21,-7],[7,-11],[2,-13],[1,-27],[-4,0],[-1,1],[0,2],[0,3],[0,-13],[-5,-33],[22,39],[6,21],[2,20]],[[2873,2424],[1,11],[-3,8],[-6,1],[-7,-10],[-4,0],[1,7],[2,6],[3,6],[3,6],[-5,-6],[-3,4],[-1,3],[0,8],[-14,-1],[-11,-7],[-12,-9],[-14,-7],[-10,-5],[-7,-4],[-3,-6],[3,-5],[15,2],[7,-2],[3,-12],[-8,-10],[-10,-9],[-4,-9],[8,5],[3,-2],[1,-5],[2,-3],[1,-3],[-1,-3],[0,-2],[3,-2],[2,1],[4,1],[2,2],[-1,1],[11,0],[13,2],[12,5],[9,7],[15,36]],[[3028,3838],[30,0],[-4,12],[-16,17],[-5,11],[-7,-3],[-2,-4],[0,-6],[4,-7],[-7,-3],[-7,0],[-6,3],[-5,6],[5,9],[-31,-11],[-19,-5],[-15,1],[-10,11],[2,14],[13,25],[-1,13],[-11,4],[-33,-2],[-19,4],[-9,1],[-6,-3],[0,-8],[0,-7],[-11,-2],[0,-4],[20,-7],[10,-6],[5,-5],[1,-6],[2,-1],[3,-2],[4,-4],[0,-3],[-4,-5],[-1,-4],[8,-6],[21,-6],[20,-2],[11,7],[5,0],[6,-7],[11,-6],[8,-8],[-5,-10],[7,-3],[7,-6],[5,-7],[1,-9],[-5,-4],[-6,1],[-6,3],[-7,7],[-7,-6],[-7,-10],[0,-6],[-8,0],[-7,-1],[-4,-4],[-3,-4],[0,-6],[3,-6],[-2,-10],[-11,-19],[-12,-13],[-3,-7],[4,-10],[21,0],[-1,6],[1,5],[5,14],[4,-1],[7,-2],[4,-2],[-3,10],[0,14],[-2,6],[28,6],[12,-1],[0,-5],[-4,-5],[1,-5],[7,-3],[8,-2],[3,3],[2,5],[5,5],[8,2],[-6,27],[-3,34],[9,24]],[[3071,3905],[4,-3],[3,-4],[13,1],[-3,9],[-10,12],[-6,10],[-3,8],[-8,9],[-12,5],[-11,-4],[6,-2],[7,-4],[7,-6],[5,-8],[-7,-4],[-2,-5],[3,-5],[6,-6],[1,4],[1,0],[2,2],[2,-6],[2,-3]],[[3105,3828],[8,1],[10,-1],[0,5],[-10,3],[-4,6],[-3,7],[-8,5],[-7,-2],[-1,-7],[3,-9],[5,-8],[-5,2],[-10,2],[-5,1],[1,-7],[2,-3],[3,-1],[21,6]],[[3209,2399],[4,14],[-3,17],[-7,1],[-8,-4],[-8,2],[-4,0],[2,-20],[2,-6],[-20,-2],[-7,7],[2,31],[-4,0],[-5,-8],[-6,-1],[-6,5],[-3,9],[-20,-56],[2,-9],[12,-6],[4,-12],[2,-15],[5,-12],[8,-3],[8,1],[7,5],[6,7],[8,-2],[11,6],[9,10],[3,11],[-3,-1],[0,-1],[-1,-1],[-1,-2],[-3,12],[5,11],[9,12]],[[3214,3811],[4,12],[-11,-3],[-4,-2],[-5,-4],[-6,2],[-3,0],[-2,-5],[1,-11],[-1,-2],[-9,-7],[-14,-2],[-12,-6],[17,-9],[-3,-14],[-12,-13],[-11,-9],[2,-5],[3,-3],[4,-1],[6,-1],[7,4],[7,5],[4,8],[-4,8],[9,3],[5,6],[15,27],[2,8],[0,11],[5,0],[5,-10],[0,7],[1,6]],[[3407,4018],[10,15],[-10,5],[-8,-1],[-6,-4],[-1,-9],[-7,1],[-8,3],[2,12],[-5,12],[-9,11],[-8,5],[2,-8],[3,-8],[10,-14],[0,-5],[-7,2],[-5,4],[-3,6],[0,8],[-4,-6],[-4,-4],[-6,1],[-6,4],[1,-8],[3,-8],[1,-7],[-5,-7],[-7,1],[-5,6],[-5,2],[-8,-9],[-10,6],[4,-9],[6,-5],[9,-2],[11,0],[13,-4],[16,8],[11,-4],[-10,-5],[0,-5],[17,3],[15,6],[13,11]],[[3554,2779],[3,-10],[-10,0],[2,-5],[3,-9],[1,-8],[-4,-3],[-1,-4],[5,-8],[14,-13],[3,-1],[2,0],[3,-1],[2,-3],[24,18],[10,10],[3,2],[2,3],[1,9],[-2,3],[-6,9],[-2,6],[5,0],[6,-3],[3,2],[-1,4],[-3,6],[-6,3],[-9,0],[-15,-3],[-26,0],[-7,-4]],[[3686,2541],[0,5],[-1,6],[-2,1],[-3,-1],[-4,2],[-21,19],[-7,10],[9,6],[0,5],[-28,6],[-6,6],[14,23],[-2,11],[-5,11],[-4,11],[-5,1],[-37,-9],[-2,1],[-6,2],[-6,0],[-3,-6],[-3,0],[-20,-7],[-37,20],[-7,11],[3,8],[7,9],[2,11],[-4,4],[-13,6],[-3,1],[-7,-1],[-3,-3],[-6,-7],[-14,-13],[-8,-5],[-12,-6],[-4,6],[-4,3],[-4,1],[-8,0],[5,-10],[11,-12],[4,-8],[5,0],[4,-1],[20,-2],[5,-2],[-1,-9],[-7,-10],[-27,-28],[-4,-7],[0,-6],[6,-9],[6,1],[7,3],[8,-3],[16,-11],[18,-5],[36,-1],[13,-4],[34,-26],[9,-4],[8,1],[6,4],[3,9],[17,-10],[14,-13],[15,-10],[23,-2],[-7,11],[3,5],[6,0],[4,-1],[3,8],[1,4]],[[4079,4001],[1,16],[-7,7],[-10,-4],[-24,-16],[-13,-6],[0,-4],[12,1],[8,-1],[6,-5],[4,-11],[5,5],[10,-10],[8,28]],[[980,3647],[-14,6],[-10,-2],[1,-7],[-9,-12],[-12,-23],[-9,-10],[-1,2],[-4,7],[-8,-10],[-2,-5],[-5,0],[-1,8],[1,8],[2,8],[3,6],[0,18],[-1,10],[-4,8],[-11,4],[-27,0],[-7,1],[2,19],[16,20],[8,18],[-26,12],[8,12],[8,4],[9,3],[10,6],[7,8],[10,16],[8,6],[-5,18],[6,16],[26,29],[7,12],[6,45],[13,30],[21,26],[29,19],[78,23],[11,2],[14,5],[8,10],[7,12],[9,8],[18,2],[17,-6],[10,-12],[5,-16],[4,-7],[8,-1],[9,0],[4,-2],[0,-9],[1,-7],[3,-4],[5,-3],[10,-1],[7,3],[6,4],[7,4],[19,5],[9,1],[-1,-6],[-9,-31],[-7,-47],[-9,-29],[-12,-25],[-14,-23],[-12,-10],[-23,-11],[-26,-22],[-14,-5],[-15,-2],[-15,-5],[-10,-8],[-17,-22],[-11,-4],[-6,-6],[-11,-40],[-17,-25],[-24,-17],[-54,-28],[-7,19]],[[1306,3143],[0,3],[0,7],[-5,0],[3,-26],[-1,-12],[-7,-6],[-1,16],[-4,19],[0,16],[10,8],[-14,9],[-21,24],[-15,12],[-1,-4],[-3,-11],[-5,10],[0,8],[5,5],[20,-5],[7,-7],[5,-8],[7,-7],[8,-5],[16,-6],[6,-4],[9,-13],[9,-33],[7,-14],[-5,-5],[-12,24],[-3,11],[-3,-2],[-9,-2],[-3,-2]],[[880,2600],[-6,-4],[-7,-2],[3,-7],[2,-8],[-1,-8],[-4,-7],[-8,15],[-6,5],[-6,0],[-5,-7],[-3,-11],[-2,-22],[-5,0],[-3,7],[0,8],[3,20],[-10,-5],[-4,-9],[0,-24],[3,-4],[7,-4],[7,-7],[2,-12],[-16,15],[-20,-1],[-14,-13],[6,-22],[-15,2],[-8,-8],[-1,-14],[3,-14],[6,2],[5,3],[-3,-11],[-8,-3],[-10,3],[-10,6],[-30,-60],[2,9],[3,12],[1,9],[-6,0],[-2,-9],[-4,-6],[-9,-11],[1,4],[-3,2],[-5,1],[-3,-1],[-1,-4],[1,-10],[-2,-4],[-7,-11],[-3,-13],[-6,-11],[-11,-7],[8,14],[6,16],[-6,10],[-1,19],[-4,16],[-13,5],[-6,-4],[-5,-7],[-9,-34],[-3,-5],[-3,-1],[-2,-1],[-3,-3],[-13,-10],[-32,-13],[-14,-12],[-8,-19],[-5,-20],[-10,-11],[-23,5],[0,6],[-4,11],[-1,13],[1,27],[4,14],[10,9],[69,36],[7,1],[2,13],[7,21],[0,14],[-28,-34],[-16,-15],[-20,-11],[25,35],[5,19],[-10,21],[-6,-3],[-5,-4],[-3,-6],[-1,-8],[-3,2],[-5,2],[-3,2],[-2,-4],[-2,-3],[-2,-1],[-3,-2],[0,13],[1,6],[4,6],[-8,5],[-1,7],[5,9],[8,9],[-3,2],[-2,3],[-2,2],[-2,3],[18,3],[7,11],[-7,9],[-23,-3],[19,20],[35,21],[26,23],[-8,28],[-3,6],[-1,8],[-1,6],[-5,3],[-12,2],[-4,-2],[-1,-8],[-8,-9],[-2,-5],[7,-3],[2,-4],[-5,-8],[-7,-9],[-7,-5],[0,18],[-2,8],[-3,5],[7,8],[5,8],[8,19],[12,-3],[13,17],[35,81],[7,8],[8,7],[7,7],[3,13],[-10,-5],[0,29],[12,-1],[12,10],[33,50],[2,7],[1,9],[-2,8],[-9,17],[-3,-5],[-36,-41],[-6,-9],[-4,0],[2,19],[8,26],[10,22],[12,9],[13,-2],[8,-5],[14,-16],[9,-5],[22,-5],[9,-5],[8,-9],[16,-13],[8,-5],[30,-11],[6,-4],[1,-5],[-2,-4],[-3,-5],[-1,-4],[2,-2],[9,-3],[3,-2],[3,-8],[1,-9],[-2,-10],[-6,-9],[11,-14],[2,-36],[6,-14],[-9,-15],[7,-15],[17,-18],[2,6],[4,-6],[3,-9],[1,-3],[7,-16],[4,-4],[9,5],[-3,-14],[5,-12],[5,-11],[3,-11],[-2,-11],[-4,0],[-4,5],[0,4],[-7,-4],[-5,-5]],[[710,2670],[12,9],[-1,11],[-6,6],[-7,1],[-5,-8],[-3,3],[-3,1],[-3,2],[-2,4],[-18,-26],[-5,-15],[-1,-19],[11,5],[3,-7],[-4,-23],[-4,-13],[-16,-28],[0,-1],[-5,-18],[-1,-3],[-1,-12],[-1,-5],[-2,-5],[-6,-9],[-8,-9],[-7,-9],[-4,-13],[5,2],[10,1],[5,1],[-3,-6],[0,-4],[3,-4],[5,-5],[2,2],[2,1],[2,0],[4,2],[-6,-6],[-4,-7],[-1,-8],[1,-9],[16,-3],[23,12],[19,19],[-1,19],[-3,14],[15,30],[-2,11],[-6,10],[-3,9],[-5,8],[-9,6],[0,5],[7,0],[3,2],[1,3],[0,7],[2,3],[11,5],[4,2],[1,7],[-6,19],[-3,16],[-3,4],[-2,4],[0,8],[3,1]],[[908,0],[1,5],[-84,145],[-7,5],[-52,81],[-23,59],[-13,59],[-7,6],[-8,14],[-5,15],[-3,11],[4,11],[7,15],[5,14],[-3,12],[-6,12],[-5,153],[10,113],[5,13],[14,21],[4,13],[3,27],[7,10],[12,-1],[11,-8],[9,-3],[3,15],[-4,43],[0,15],[3,13],[10,21],[30,183],[-14,52],[-4,0],[-15,-57],[-15,-32],[-9,-43],[-9,-15],[-8,-16],[-4,-43],[-10,-14],[-9,1],[-10,5],[-9,7],[-5,5],[-7,4],[-30,9],[5,0],[3,16],[11,18],[13,15],[10,5],[3,6],[2,13],[-2,22],[-3,5],[-10,8],[-3,6],[1,6],[8,11],[1,6],[-5,57],[1,15],[9,24],[1,35],[-1,10],[-5,6],[6,14],[1,22],[14,27],[-5,13],[-10,13],[-6,16],[3,13],[18,25],[4,15],[2,4],[14,11],[-13,185],[6,31],[16,24],[30,12],[35,1],[31,-5],[24,-16],[10,-30],[-5,-262],[25,-68],[2,-23],[3,-7],[7,-7],[8,-5],[7,-6],[6,-18],[14,-14],[3,-7],[-2,-8],[-2,-6],[-2,-6],[1,-8],[3,-6],[17,-23],[7,-15],[4,-6],[6,-7],[8,-11],[2,-12],[0,-14],[3,-15],[7,-10],[10,-8],[9,-10],[4,-15],[2,-16],[6,-17],[28,-46],[11,-12],[25,-24],[10,-15],[1,-15],[-5,-65],[-34,-183],[0,-52],[1,-8],[3,-6],[6,-6],[4,-5],[-1,-5],[-20,-18],[0,-5],[13,-4],[22,-3],[8,-2],[9,-5],[4,-5],[4,-6],[5,-7],[5,-3],[20,-8],[14,-4],[7,-6],[12,-16],[3,-1],[4,0],[4,-1],[3,-3],[0,-5],[-1,-4],[-3,-6],[4,-13],[18,-23],[8,-16],[4,-17],[0,-16],[-1,-9],[-3,-4],[-3,-3],[-2,-4],[-2,-1],[-3,0],[-3,-1],[-2,-3],[0,-5],[3,0],[4,0],[3,-3],[1,-8],[2,-5],[0,-5],[-6,-7],[-4,-8],[4,-15],[-3,-9],[-5,3],[-2,0],[-2,-1],[-6,-2],[2,-9],[1,-18],[-1,-19],[-4,-12],[-10,-13],[-8,-16],[-7,-17],[-2,-16],[6,-24],[15,-20],[34,-31],[14,-19],[18,-41]],[[4096,3018],[-2,-1],[-9,-7],[-7,-2],[-6,2],[-5,3],[-3,4],[-3,2],[-15,7],[-10,2],[-10,-5],[-5,-8],[4,-7],[7,-7],[4,-7],[11,2],[2,-8],[-3,-12],[-7,-10],[-11,-4],[-11,0],[-11,-1],[-10,-7],[5,-4],[6,-1],[7,1],[7,4],[1,-9],[4,-4],[6,-1],[9,3],[9,-12],[1,-5],[0,-8],[-2,-2],[-5,-1],[-8,-6],[6,-3],[6,-2],[6,1],[7,4],[5,-7],[2,-8],[-2,-9],[-5,-7],[-5,-3],[-5,-1],[-75,0],[-26,2],[-5,-2],[6,-11],[4,-4],[16,-10],[4,-5],[4,-5],[7,-11],[5,6],[7,-6],[19,-13],[4,-4],[-4,-10],[-9,-2],[-8,2],[-4,5],[-23,6],[-2,2],[-8,-6],[0,-4],[1,-6],[-3,-9],[-5,-8],[-6,-5],[-6,-2],[-10,0],[-4,-3],[-5,-7],[-7,-7],[-9,-3],[-16,0],[-15,2],[-7,9],[5,18],[-43,1],[-17,-4],[-20,-16],[-5,-8],[-7,-21],[-7,-13],[-1,-5],[0,-11],[-2,-1],[-18,-11],[23,-16],[28,14],[29,20],[25,2],[2,7],[6,4],[8,0],[9,-1],[-5,-9],[4,-6],[16,-10],[6,-8],[-1,-4],[-20,-13],[31,-3],[29,-7],[-1,-3],[-1,-1],[-3,-1],[5,-2],[2,-2],[2,1],[6,3],[11,-12],[-3,-11],[-8,-9],[-5,-11],[-6,3],[-34,0],[-47,32],[-23,7],[-20,-19],[20,-30],[-10,-3],[-3,-2],[-2,-6],[-28,26],[-12,1],[0,-21],[-5,0],[-5,11],[-10,14],[-11,8],[-9,-8],[11,-5],[6,-10],[0,-10],[-5,-8],[-4,3],[-18,5],[0,-1],[-20,1],[-4,1],[-1,2],[-2,-1],[-3,-8],[2,0],[1,-6],[2,-8],[0,-5],[-3,-8],[-6,-10],[-1,-7],[2,-7],[2,-5],[6,-8],[13,15],[15,7],[17,0],[20,-7],[19,-11],[8,-7],[3,-10],[5,-6],[10,1],[20,8],[36,3],[44,-1],[41,-8],[29,-14],[17,18],[9,8],[11,4],[7,3],[33,24],[27,14],[1,0]],[[4096,2439],[-25,-5],[-10,-6],[-25,-19],[-14,3],[-11,-7],[-15,-21],[-11,-7],[-29,-11],[-12,-2],[-6,-3],[-8,-6],[-6,-8],[-3,-5],[1,-7],[3,-3],[4,-2],[5,-3],[2,-11],[-11,-6],[-16,0],[-13,9],[-7,-6],[-17,-6],[-19,-10],[-6,0],[0,-1],[9,-7],[26,-12],[4,-6],[-2,-10],[-6,-8],[-8,-3],[-9,4],[-4,-5],[-1,-5],[2,-5],[3,-5],[-12,-1],[-8,2],[-4,5],[-1,12],[-4,-2],[-10,-1],[-12,1],[-9,4],[2,2],[2,7],[2,6],[-1,5],[-5,2],[-5,-2],[-3,-3],[-3,-11],[-5,2],[-5,4],[-4,3],[-18,-4],[-38,-5],[-9,-1],[-10,4],[-16,13],[-6,3],[-3,2],[1,11],[-3,2],[0,1],[-14,4],[-3,1],[-6,7],[-9,17],[-5,10],[0,11],[-29,9],[-59,6],[-26,-6],[-27,-15],[-17,-21],[3,-24],[-10,4],[-8,-1],[-5,-8],[-2,-13],[4,-9],[17,-18],[4,-13],[-4,-3],[-18,-24],[0,-5],[-8,-5],[0,-12],[3,-12],[5,-9],[13,-9],[3,-3],[7,-9],[1,-3],[-2,-2],[-6,-6],[-2,1],[-5,1],[-6,-3],[-1,-10],[3,-3],[12,-11],[5,-5],[3,-5],[4,-11],[3,-4],[4,-3],[12,-5],[4,-2],[5,-10],[-5,-6],[-9,-6],[-6,-13],[24,1],[6,-1],[1,-3],[-1,-9],[0,-3],[10,-6],[7,0],[6,2],[7,1],[10,-7],[3,-5],[1,-5],[-1,-6],[-3,-4],[-9,-1],[-14,4],[-42,19],[-12,8],[-7,12],[-1,18],[-6,0],[-6,-16],[-9,-7],[-13,-6],[-14,-9],[-6,-11],[-5,-16],[-3,-15],[2,-10],[-11,-28],[-4,-7],[-24,-21],[-6,-9],[-5,0],[-6,9],[-1,11],[2,11],[7,12],[3,8],[0,10],[5,8],[20,1],[0,5],[-23,17],[-14,6],[-13,-3],[-6,9],[4,5],[17,6],[24,13],[8,2],[9,1],[31,6],[0,6],[-2,8],[0,9],[15,28],[5,19],[-8,8],[-20,2],[-8,7],[3,9],[13,12],[-14,8],[-6,1],[-5,-4],[-4,6],[-2,6],[-4,13],[11,-3],[4,-2],[3,14],[-4,14],[0,10],[16,2],[-3,9],[-4,6],[-5,2],[-8,-2],[1,12],[6,8],[8,7],[5,8],[0,5],[-7,2],[-3,3],[-3,6],[-5,6],[-6,2],[-13,-7],[-8,3],[-10,-6],[-12,-17],[-8,-7],[0,10],[-2,15],[2,5],[-5,5],[-30,-19],[-10,-6],[5,10],[7,11],[4,12],[-8,14],[-11,15],[-2,11],[-1,12],[-4,16],[-6,-6],[-7,-12],[-5,-13],[-2,-7],[-1,-15],[-4,-10],[-55,-52],[-18,-11],[-17,5],[11,20],[5,7],[12,10],[6,10],[3,11],[1,12],[-2,10],[-5,0],[-5,-7],[-14,-10],[-6,-8],[-7,6],[-6,5],[-6,0],[-6,-5],[-7,3],[-8,1],[-7,1],[-8,-1],[1,4],[3,8],[1,3],[-34,0],[-17,3],[-10,12],[3,9],[-17,18],[-13,18],[3,15],[4,0],[7,-1],[4,-2],[-1,-3],[9,6],[4,3],[-5,2],[-12,3],[-7,5],[-14,32],[-3,1],[-9,-1],[-9,-2],[-7,-4],[-9,-3],[-12,4],[-4,4],[-4,12],[-2,3],[-7,1],[-3,-4],[-1,-4],[3,-2],[5,-6],[1,-12],[-3,-23],[-13,0],[-19,-36],[-13,-13],[-10,-2],[-10,2],[-7,5],[-3,8],[-27,1],[-3,1],[-5,-5],[-3,-8],[-1,-9],[-1,-11],[3,-8],[7,-4],[8,-2],[7,-3],[3,-4],[2,-9],[2,-4],[5,-3],[11,-4],[12,-9],[8,-5],[7,-6],[5,-11],[-8,-7],[-1,-11],[-3,-10],[-14,-7],[1,6],[-5,14],[-9,-3],[-9,4],[-4,7],[2,7],[-7,4],[-6,2],[-7,1],[-5,-2],[3,-6],[0,-2],[-1,-1],[-2,-6],[-9,12],[-16,19],[-5,9],[-2,-6],[-2,-6],[-1,-6],[0,-7],[-5,0],[-6,13],[-10,-3],[-6,-12],[5,-15],[0,-6],[-3,-18],[3,-4],[2,-2],[0,-3],[0,-4],[-2,-3],[-7,-6],[-3,0],[-3,3],[-4,0],[-9,-1],[-6,0],[-5,0],[-5,-4],[-2,-5],[3,-5],[5,-4],[6,-1],[5,-3],[6,-6],[4,-8],[4,-16],[5,-5],[5,-3],[3,-4],[1,-5],[-1,-14],[0,-6],[4,-5],[14,-11],[2,-7],[-5,-13],[-12,-6],[-13,2],[-9,10],[-3,16],[1,15],[-5,10],[-16,4],[0,7],[1,14],[-5,9],[-19,-5],[1,11],[-2,4],[-3,0],[-5,-4],[1,-3],[2,-3],[2,-5],[-1,-9],[3,-23],[2,-8],[-13,-1],[-11,-4],[1,11],[-4,11],[-8,7],[-7,-1],[-6,-6],[-6,-3],[-4,-4],[-1,-8],[3,-10],[1,-5],[-2,-2],[1,-5],[10,-26],[2,-9],[-5,-10],[-10,-11],[-11,-9],[-10,-5],[-9,14],[-1,18],[6,35],[-1,12],[-2,5],[-4,1],[-13,0],[-2,1],[1,4],[1,13],[9,17],[0,3],[-1,4],[0,4],[4,6],[4,2],[10,0],[8,2],[3,0],[2,0],[0,7],[0,5],[0,3],[2,2],[4,2],[8,0],[8,-3],[7,1],[2,12],[-9,-3],[-12,-2],[-22,0],[-22,-7],[-11,-2],[-4,6],[0,40],[-4,7],[-9,2],[-8,4],[-4,13],[2,10],[7,2],[9,-1],[11,1],[12,5],[9,7],[6,9],[3,10],[0,5],[-3,5],[-2,6],[5,11],[-4,4],[-11,3],[-12,17],[-2,8],[-1,15],[12,-2],[1,5],[-7,6],[-10,5],[1,3],[3,8],[-21,5],[-16,-9],[-14,-12],[-18,-9],[-13,-1],[-6,4],[-2,10],[1,14],[1,6],[4,5],[7,9],[3,6],[-1,22],[15,43],[-2,7],[4,5],[14,30],[-2,5],[-7,8],[-1,7],[3,6],[10,13],[2,8],[-2,4],[-7,6],[-2,3],[1,4],[4,5],[2,10],[8,21],[-13,-1],[-6,-4],[-4,-6],[-6,-4],[-7,-2],[-4,0],[-5,1],[-7,1],[-4,-3],[-3,-5],[-3,-3],[-8,1],[2,26],[4,21],[9,19],[31,39],[8,20],[7,49],[3,12],[10,21],[6,58],[12,23],[13,18],[5,17],[-14,22],[8,21],[-3,32],[4,20],[30,-13],[4,9],[1,11],[0,22],[2,10],[7,16],[4,31],[16,30],[6,21],[6,70],[7,17],[1,6],[-4,9],[-6,9],[-4,9],[0,10],[1,9],[-1,9],[-4,12],[6,5],[10,10],[5,10],[-9,4],[-6,-2],[-5,-2],[-5,0],[-1,7],[0,8],[-1,6],[-3,5],[-6,3],[0,-13],[-3,-14],[-5,-13],[-8,-5],[-15,-7],[-10,6],[-1,13],[13,23],[2,7],[-1,6],[-10,5],[-2,7],[-3,32],[3,41],[-7,13],[-14,2],[-17,0],[-12,3],[-3,11],[2,18],[5,18],[8,7],[0,6],[27,30],[18,34],[5,5],[6,2],[3,5],[-1,6],[-8,14],[-1,7],[6,29],[2,7],[23,32],[5,10],[3,11],[6,16],[16,11],[32,15],[10,10],[26,32],[5,11],[6,18],[15,18],[16,6],[7,-15],[6,0],[-1,11],[-5,12],[-6,12],[-6,8],[-2,5],[-1,5],[-2,5],[-5,2],[-6,0],[-5,0],[-3,3],[-4,7],[4,19],[0,11],[-6,5],[-7,-1],[-26,-9],[7,30],[3,11],[-4,1],[-11,3],[15,7],[40,28],[12,-5],[29,-1],[14,-3],[-6,17],[-27,6],[-7,16],[11,-3],[5,-2],[29,11],[20,-6],[20,-13],[28,-7],[13,3],[9,8],[4,11],[1,13],[-2,6],[-6,12]],[[2977,4096],[2,-2],[18,-14],[21,-5],[15,8],[1,13]],[[3078,4096],[0,-18],[15,0],[5,0],[-8,15],[0,3]],[[2688,2783],[-4,-14],[22,18],[6,11],[1,16],[-4,3],[-2,1],[-3,0],[-1,-16],[-7,-10],[-8,-9]],[[2658,2535],[8,-5],[9,-3],[3,4],[13,7],[3,4],[-13,2],[-10,3],[-6,7],[-2,9],[0,10],[-5,6],[-5,-10],[-3,-10],[0,-10],[4,-10],[4,-4]],[[2763,2334],[1,13],[-5,11],[-7,10],[-3,11],[1,13],[4,7],[1,4],[-9,0],[-20,8],[-6,19],[-3,23],[-8,21],[-4,6],[-8,4],[-8,5],[-1,15],[-4,0],[-15,-37],[-2,-19],[17,5],[-2,-11],[-5,-10],[-8,-5],[-11,2],[5,-26],[15,4],[14,-1],[6,-4],[-10,-8],[6,-10],[15,-13],[4,-7],[0,-10],[-7,-16],[-2,-11],[2,-11],[5,-10],[9,-5],[11,5],[27,22],[5,6]],[[2749,2903],[29,-19],[-2,8],[-3,5],[-10,12],[-17,9],[-3,3],[-3,0],[-21,-7],[7,-11],[2,-13],[1,-27],[-4,0],[-1,1],[0,2],[0,3],[0,-13],[-5,-33],[22,39],[6,21],[2,20]],[[2873,2424],[1,11],[-3,8],[-6,1],[-7,-10],[-4,0],[1,7],[2,6],[3,6],[3,6],[-5,-6],[-3,4],[-1,3],[0,8],[-14,-1],[-11,-7],[-12,-9],[-14,-7],[-10,-5],[-7,-4],[-3,-6],[3,-5],[15,2],[7,-2],[3,-12],[-8,-10],[-10,-9],[-4,-9],[8,5],[3,-2],[1,-5],[2,-3],[1,-3],[-1,-3],[0,-2],[3,-2],[2,1],[4,1],[2,2],[-1,1],[11,0],[13,2],[12,5],[9,7],[15,36]],[[3028,3838],[30,0],[-4,12],[-16,17],[-5,11],[-7,-3],[-2,-4],[0,-6],[4,-7],[-7,-3],[-7,0],[-6,3],[-5,6],[5,9],[-31,-11],[-19,-5],[-15,1],[-10,11],[2,14],[13,25],[-1,13],[-11,4],[-33,-2],[-19,4],[-9,1],[-6,-3],[0,-8],[0,-7],[-11,-2],[0,-4],[20,-7],[10,-6],[5,-5],[1,-6],[2,-1],[3,-2],[4,-4],[0,-3],[-4,-5],[-1,-4],[8,-6],[21,-6],[20,-2],[11,7],[5,0],[6,-7],[11,-6],[8,-8],[-5,-10],[7,-3],[7,-6],[5,-7],[1,-9],[-5,-4],[-6,1],[-6,3],[-7,7],[-7,-6],[-7,-10],[0,-6],[-8,0],[-7,-1],[-4,-4],[-3,-4],[0,-6],[3,-6],[-2,-10],[-11,-19],[-12,-13],[-3,-7],[4,-10],[21,0],[-1,6],[1,5],[5,14],[4,-1],[7,-2],[4,-2],[-3,10],[0,14],[-2,6],[28,6],[12,-1],[0,-5],[-4,-5],[1,-5],[7,-3],[8,-2],[3,3],[2,5],[5,5],[8,2],[-6,27],[-3,34],[9,24]],[[3071,3905],[4,-3],[3,-4],[13,1],[-3,9],[-10,12],[-6,10],[-3,8],[-8,9],[-12,5],[-11,-4],[6,-2],[7,-4],[7,-6],[5,-8],[-7,-4],[-2,-5],[3,-5],[6,-6],[1,4],[1,0],[2,2],[2,-6],[2,-3]],[[3105,3828],[8,1],[10,-1],[0,5],[-10,3],[-4,6],[-3,7],[-8,5],[-7,-2],[-1,-7],[3,-9],[5,-8],[-5,2],[-10,2],[-5,1],[1,-7],[2,-3],[3,-1],[21,6]],[[3209,2399],[4,14],[-3,17],[-7,1],[-8,-4],[-8,2],[-4,0],[2,-20],[2,-6],[-20,-2],[-7,7],[2,31],[-4,0],[-5,-8],[-6,-1],[-6,5],[-3,9],[-20,-56],[2,-9],[12,-6],[4,-12],[2,-15],[5,-12],[8,-3],[8,1],[7,5],[6,7],[8,-2],[11,6],[9,10],[3,11],[-3,-1],[0,-1],[-1,-1],[-1,-2],[-3,12],[5,11],[9,12]],[[3214,3811],[4,12],[-11,-3],[-4,-2],[-5,-4],[-6,2],[-3,0],[-2,-5],[1,-11],[-1,-2],[-9,-7],[-14,-2],[-12,-6],[17,-9],[-3,-14],[-12,-13],[-11,-9],[2,-5],[3,-3],[4,-1],[6,-1],[7,4],[7,5],[4,8],[-4,8],[9,3],[5,6],[15,27],[2,8],[0,11],[5,0],[5,-10],[0,7],[1,6]],[[3371,4083],[-3,-7],[2,-9],[7,-9],[14,11],[16,20],[1,7]],[[3379,4096],[0,-3],[3,-10],[-11,0]],[[3407,4018],[10,15],[-10,5],[-8,-1],[-6,-4],[-1,-9],[-7,1],[-8,3],[2,12],[-5,12],[-9,11],[-8,5],[2,-8],[3,-8],[10,-14],[0,-5],[-7,2],[-5,4],[-3,6],[0,8],[-4,-6],[-4,-4],[-6,1],[-6,4],[1,-8],[3,-8],[1,-7],[-5,-7],[-7,1],[-5,6],[-5,2],[-8,-9],[-10,6],[4,-9],[6,-5],[9,-2],[11,0],[13,-4],[16,8],[11,-4],[-10,-5],[0,-5],[17,3],[15,6],[13,11]],[[3554,2779],[3,-10],[-10,0],[2,-5],[3,-9],[1,-8],[-4,-3],[-1,-4],[5,-8],[14,-13],[3,-1],[2,0],[3,-1],[2,-3],[24,18],[10,10],[3,2],[2,3],[1,9],[-2,3],[-6,9],[-2,6],[5,0],[6,-3],[3,2],[-1,4],[-3,6],[-6,3],[-9,0],[-15,-3],[-26,0],[-7,-4]],[[3686,2541],[0,5],[-1,6],[-2,1],[-3,-1],[-4,2],[-21,19],[-7,10],[9,6],[0,5],[-28,6],[-6,6],[14,23],[-2,11],[-5,11],[-4,11],[-5,1],[-37,-9],[-2,1],[-6,2],[-6,0],[-3,-6],[-3,0],[-20,-7],[-37,20],[-7,11],[3,8],[7,9],[2,11],[-4,4],[-13,6],[-3,1],[-7,-1],[-3,-3],[-6,-7],[-14,-13],[-8,-5],[-12,-6],[-4,6],[-4,3],[-4,1],[-8,0],[5,-10],[11,-12],[4,-8],[5,0],[4,-1],[20,-2],[5,-2],[-1,-9],[-7,-10],[-27,-28],[-4,-7],[0,-6],[6,-9],[6,1],[7,3],[8,-3],[16,-11],[18,-5],[36,-1],[13,-4],[34,-26],[9,-4],[8,1],[6,4],[3,9],[17,-10],[14,-13],[15,-10],[23,-2],[-7,11],[3,5],[6,0],[4,-1],[3,8],[1,4]],[[4079,4001],[1,16],[-7,7],[-10,-4],[-24,-16],[-13,-6],[0,-4],[12,1],[8,-1],[6,-5],[4,-11],[5,5],[10,-10],[8,28]],[[880,2600],[-6,-4],[-7,-2],[3,-7],[2,-8],[-1,-8],[-4,-7],[-8,15],[-6,5],[-6,0],[-5,-7],[-3,-11],[-2,-22],[-5,0],[-3,7],[0,8],[3,20],[-10,-5],[-4,-9],[0,-24],[3,-4],[7,-4],[7,-7],[2,-12],[-16,15],[-20,-1],[-14,-13],[6,-22],[-15,2],[-8,-8],[-1,-14],[3,-14],[6,2],[5,3],[-3,-11],[-8,-3],[-10,3],[-10,6],[-30,-60],[2,9],[3,12],[1,9],[-6,0],[-2,-9],[-4,-6],[-9,-11],[1,4],[-3,2],[-5,1],[-3,-1],[-1,-4],[1,-10],[-2,-4],[-7,-11],[-3,-13],[-6,-11],[-11,-7],[8,14],[6,16],[-6,10],[-1,19],[-4,16],[-13,5],[-6,-4],[-5,-7],[-9,-34],[-3,-5],[-3,-1],[-2,-1],[-3,-3],[-13,-10],[-32,-13],[-14,-12],[-8,-19],[-5,-20],[-10,-11],[-23,5],[0,6],[-4,11],[-1,13],[1,27],[4,14],[10,9],[69,36],[7,1],[2,13],[7,21],[0,14],[-28,-34],[-16,-15],[-20,-11],[25,35],[5,19],[-10,21],[-6,-3],[-5,-4],[-3,-6],[-1,-8],[-3,2],[-5,2],[-3,2],[-2,-4],[-2,-3],[-2,-1],[-3,-2],[0,13],[1,6],[4,6],[-8,5],[-1,7],[5,9],[8,9],[-3,2],[-2,3],[-2,2],[-2,3],[18,3],[7,11],[-7,9],[-23,-3],[19,20],[35,21],[26,23],[-8,28],[-3,6],[-1,8],[-1,6],[-5,3],[-12,2],[-4,-2],[-1,-8],[-8,-9],[-2,-5],[7,-3],[2,-4],[-5,-8],[-7,-9],[-7,-5],[0,18],[-2,8],[-3,5],[7,8],[5,8],[8,19],[12,-3],[13,17],[35,81],[7,8],[8,7],[7,7],[3,13],[-10,-5],[0,29],[12,-1],[12,10],[33,50],[2,7],[1,9],[-2,8],[-9,17],[-3,-5],[-36,-41],[-6,-9],[-4,0],[2,19],[8,26],[10,22],[12,9],[13,-2],[8,-5],[14,-16],[9,-5],[22,-5],[9,-5],[8,-9],[16,-13],[8,-5],[30,-11],[6,-4],[1,-5],[-2,-4],[-3,-5],[-1,-4],[2,-2],[9,-3],[3,-2],[3,-8],[1,-9],[-2,-10],[-6,-9],[11,-14],[2,-36],[6,-14],[-9,-15],[7,-15],[17,-18],[2,6],[4,-6],[3,-9],[1,-3],[7,-16],[4,-4],[9,5],[-3,-14],[5,-12],[5,-11],[3,-11],[-2,-11],[-4,0],[-4,5],[0,4],[-7,-4],[-5,-5]],[[710,2670],[12,9],[-1,11],[-6,6],[-7,1],[-5,-8],[-3,3],[-3,1],[-3,2],[-2,4],[-18,-26],[-5,-15],[-1,-19],[11,5],[3,-7],[-4,-23],[-4,-13],[-16,-28],[0,-1],[-5,-18],[-1,-3],[-1,-12],[-1,-5],[-2,-5],[-6,-9],[-8,-9],[-7,-9],[-4,-13],[5,2],[10,1],[5,1],[-3,-6],[0,-4],[3,-4],[5,-5],[2,2],[2,1],[2,0],[4,2],[-6,-6],[-4,-7],[-1,-8],[1,-9],[16,-3],[23,12],[19,19],[-1,19],[-3,14],[15,30],[-2,11],[-6,10],[-3,9],[-5,8],[-9,6],[0,5],[7,0],[3,2],[1,3],[0,7],[2,3],[11,5],[4,2],[1,7],[-6,19],[-3,16],[-3,4],[-2,4],[0,8],[3,1]],[[980,3647],[-14,6],[-10,-2],[1,-7],[-9,-12],[-12,-23],[-9,-10],[-1,2],[-4,7],[-8,-10],[-2,-5],[-5,0],[-1,8],[1,8],[2,8],[3,6],[0,18],[-1,10],[-4,8],[-11,4],[-27,0],[-7,1],[2,19],[16,20],[8,18],[-26,12],[8,12],[8,4],[9,3],[10,6],[7,8],[10,16],[8,6],[-5,18],[6,16],[26,29],[7,12],[6,45],[13,30],[21,26],[29,19],[78,23],[11,2],[14,5],[8,10],[7,12],[9,8],[18,2],[17,-6],[10,-12],[5,-16],[4,-7],[8,-1],[9,0],[4,-2],[0,-9],[1,-7],[3,-4],[5,-3],[10,-1],[7,3],[6,4],[7,4],[19,5],[9,1],[-1,-6],[-9,-31],[-7,-47],[-9,-29],[-12,-25],[-14,-23],[-12,-10],[-23,-11],[-26,-22],[-14,-5],[-15,-2],[-15,-5],[-10,-8],[-17,-22],[-11,-4],[-6,-6],[-11,-40],[-17,-25],[-24,-17],[-54,-28],[-7,19]],[[1306,3143],[0,3],[0,7],[-5,0],[3,-26],[-1,-12],[-7,-6],[-1,16],[-4,19],[0,16],[10,8],[-14,9],[-21,24],[-15,12],[-1,-4],[-3,-11],[-5,10],[0,8],[5,5],[20,-5],[7,-7],[5,-8],[7,-7],[8,-5],[16,-6],[6,-4],[9,-13],[9,-33],[7,-14],[-5,-5],[-12,24],[-3,11],[-3,-2],[-9,-2],[-3,-2]],[[1419,3999],[-15,33],[-27,45],[-9,3],[-15,15],[1,1]],[[2834,4096],[-18,-31],[-15,-18],[-12,-24],[-24,-18],[-21,-3],[-15,-15],[-12,-9],[-6,-16],[-3,-24],[-12,-18],[-3,-12],[-15,-9],[-9,-15],[-15,-9]],[[2650,3870],[-11,-13]],[[2654,3875],[-4,-5]],[[2639,3857],[-7,0]],[[2632,3857],[-74,0],[-15,-6],[-18,-3],[-15,-3],[-21,-6],[-9,-6],[-48,-9],[-24,-6],[-30,-6],[-15,0],[-9,3],[-21,3],[-25,9],[-30,9],[-18,-3],[-33,-9],[-18,-9]],[[2209,3815],[-15,-9],[-36,-21]],[[1440,3961],[-11,23],[-10,15]],[[1440,3960],[0,1]],[[1465,3710],[-12,6],[-3,18],[0,57],[6,24],[-3,9],[-9,15],[0,15],[3,42],[0,45],[-6,18],[-1,1]],[[1795,3674],[-30,3],[-24,6],[-66,-3],[-9,0],[-15,12],[-30,3],[-21,3],[-30,3],[-30,6],[-15,0],[-27,3],[-33,0]],[[2158,3785],[-63,-36],[-30,9],[-24,-9],[-15,0],[-30,6],[-24,-9],[-18,-3],[-39,-3],[-15,-6],[-9,-9],[-24,-39],[-12,-15],[-24,-15],[-9,-3]],[[1822,3653],[-6,15],[-21,6]],[[2632,3852],[7,5]],[[2492,3635],[3,9],[24,18],[9,24],[15,21],[12,30],[15,6],[9,12],[3,15],[-3,12],[6,15],[15,6],[3,15],[6,0],[6,15],[12,15],[5,4]],[[1131,3608],[10,15]],[[1165,3673],[14,19],[24,36],[15,12],[3,18],[12,12],[18,9],[15,9],[3,9],[3,27],[0,30],[9,15],[36,27],[15,15],[24,27],[63,61]],[[1141,3623],[5,9],[15,36],[4,5]],[[765,3586],[-9,12],[12,13],[0,9],[-9,15],[3,6],[-3,15],[9,30],[-27,24],[0,6],[12,12],[6,15],[12,15],[6,12],[-3,15],[-12,18],[-12,12],[-3,33],[3,27],[9,15],[18,24],[9,18],[-9,30],[9,6],[21,13],[6,18],[-6,15],[-9,15],[6,33],[18,18],[-2,16]],[[2459,3544],[9,15],[6,30],[15,25],[3,21]],[[2435,3469],[15,15],[9,21],[-3,21],[3,18]],[[1822,3653],[-6,-3],[-33,-9],[-21,0],[-39,-9],[-57,-21],[-12,-13],[-33,-30],[-30,-21],[-15,-12],[-6,-15],[-3,-15],[3,-24],[-6,-21]],[[1133,3605],[-2,3]],[[1200,3457],[-15,24],[-24,54],[-15,48],[-13,22]],[[1564,3460],[-12,-18],[-27,-30],[-3,-15],[-9,-18]],[[1287,3280],[12,30],[-15,30],[-21,21],[-9,24],[-6,12],[-21,21],[-12,21],[-15,18]],[[2435,3469],[-15,-15],[-15,-24],[-6,-18],[-6,-45],[-3,-30],[0,-15],[-9,-15],[-3,-18],[3,-21],[12,-43]],[[2393,3225],[9,-18],[24,-12]],[[1287,3280],[12,-6],[12,-33],[0,-16],[12,-12],[9,-3],[12,-21],[9,-6]],[[1140,3156],[0,9],[36,6],[18,-3],[12,15],[15,6],[3,9],[-3,15],[9,3],[12,0],[6,31],[15,12],[6,15],[9,6],[9,0]],[[1513,3379],[-12,-27],[-6,-30],[3,-42],[-18,-12],[-21,0],[3,-18],[-12,-12],[6,-16],[-6,-9],[-21,-21],[0,-15],[9,-15],[0,-15],[-6,-6],[-31,15],[-18,21],[-15,9],[-15,-3]],[[2426,3195],[6,0],[24,9],[45,3],[9,0],[30,-24],[6,0],[15,-12],[27,-6],[30,3],[15,-3],[15,-12],[15,-15],[15,-6]],[[2627,3033],[6,21],[6,6],[0,9],[9,15],[6,21],[15,24],[9,3]],[[1101,3003],[21,3],[6,6],[12,12],[9,21],[15,15],[15,30],[0,15],[-3,12],[-12,18],[-21,15],[-3,6]],[[1353,3183],[0,-15],[3,-15],[15,-48],[-6,-30],[0,-33],[6,-21],[18,-30],[21,-39]],[[686,3149],[-2,-2],[-9,-15],[-7,-5]],[[668,3127],[-8,-7],[-18,-45],[-3,-30],[0,-15],[3,-12],[27,-30],[6,-33],[0,-12]],[[765,3586],[-3,-15],[-6,-27],[-6,-9],[-27,-3],[-6,-6],[-3,-27],[-9,-21],[0,-45],[-12,-42],[-3,-18],[9,-45],[3,-36],[0,-18],[-12,-42],[3,-16],[18,-9],[6,-12],[-3,-15],[-18,-24],[-10,-7]],[[0,2978],[11,-8],[54,-24],[9,-9],[15,-24],[6,-6]],[[1363,2951],[-19,-14]],[[1344,2937],[-39,-27],[-24,-24]],[[1410,2952],[-33,9],[-14,-10]],[[1281,2886],[-15,6],[-3,6],[-30,6],[-21,-12],[-9,6],[-6,21],[-6,6],[-9,0],[-9,6],[-3,15],[-15,6],[-21,6],[-3,9],[-30,36]],[[696,2937],[3,0],[21,-3],[15,-3],[5,-3]],[[797,2882],[7,-5]],[[675,2943],[21,-6]],[[740,2928],[16,-9],[41,-37]],[[804,2877],[24,-12],[2,1]],[[830,2866],[13,5],[21,-6]],[[934,2911],[8,5],[15,3],[10,-3]],[[864,2865],[18,3],[15,12],[15,21],[22,10]],[[967,2916],[14,-3],[15,6],[15,15],[27,36],[21,21],[42,12]],[[1410,2952],[6,-60],[16,-40],[15,-9],[9,-15],[0,-15],[6,-18],[-3,-15],[-6,-6],[-21,3],[-9,-15],[3,-18]],[[95,2907],[18,-9],[15,-6],[15,0],[21,-15],[18,-37],[6,-24],[6,-15],[24,-24],[15,-39]],[[1401,2704],[0,-20]],[[1426,2744],[-19,-18],[-6,-12],[0,-10]],[[1401,2684],[-15,-6],[-5,0]],[[1381,2678],[-10,0]],[[1472,2675],[-1,0],[-24,-3],[-18,-6]],[[1735,2723],[-30,-3],[-12,-9],[0,-21],[-6,-9],[-15,3],[-15,-12],[-12,0],[-24,-12],[-12,12],[-15,33],[-9,3],[-15,0],[-6,-21],[-6,-9],[-12,-3],[-15,-12],[-18,-12],[-15,3],[-18,21],[-8,0]],[[1243,2610],[-4,-1],[-18,-6],[-10,-6]],[[1211,2597],[-11,-6],[-15,-6],[-3,-6]],[[1371,2678],[-9,0],[-21,-15],[-15,-3],[-15,-15],[-6,-3],[-15,-9],[-15,-6],[-12,-12],[-20,-5]],[[561,2567],[0,15],[-12,39],[6,27],[15,30],[12,12],[15,12],[18,21],[18,33],[9,21],[0,18],[6,21],[-9,24],[9,3],[0,15],[-3,25],[6,30],[6,12],[18,18]],[[1774,2537],[6,27],[3,33],[0,15],[-9,36],[-3,6],[-24,15],[-3,15],[0,33],[-9,6]],[[473,2419],[21,9],[6,9],[0,18],[9,30],[16,19],[3,9],[9,42],[6,6],[18,6]],[[458,2429],[-24,2],[-12,12],[-39,6],[-11,5]],[[372,2454],[-4,1],[-9,24],[-9,37],[-18,48],[-3,15],[-15,12],[-12,24],[-15,24],[-33,36],[-15,24],[-6,39]],[[473,2419],[-9,9],[-6,1]],[[3984,2368],[15,6],[15,9],[15,15],[21,12],[46,16]],[[519,2305],[-7,12],[0,21],[-3,6],[-15,6],[-3,18],[-15,12],[-9,15],[0,15],[6,9]],[[1910,2415],[2,-2],[8,-29]],[[1774,2537],[3,-9],[15,-3],[6,-15],[-15,-40],[9,-15],[21,-12],[21,6],[24,-6],[15,3],[15,-3],[9,3],[6,-3],[-3,-15],[10,-13]],[[1920,2384],[1,-4],[15,-9],[3,-6],[6,-24],[36,-54]],[[561,2272],[-18,15],[-18,6],[-6,12]],[[3492,2251],[-18,18]],[[3812,2215],[27,0]],[[3736,2229],[11,-5],[1,0]],[[3492,2251],[21,-6],[15,-3],[16,-4]],[[3544,2238],[20,-5],[18,-3],[24,3],[39,6],[33,6],[18,0],[27,-9],[13,-7]],[[3748,2224],[23,-6],[24,-3],[17,0]],[[3839,2215],[16,0],[21,-3],[6,3],[9,15],[9,33],[-3,15],[6,12],[12,12],[33,9],[6,6],[3,30],[6,9],[21,12]],[[2369,2212],[24,42],[9,24],[6,6],[15,9],[12,18],[9,18],[6,30],[0,27],[3,18],[24,42],[3,30],[27,43],[6,15],[6,30],[-9,33],[0,18],[6,15],[24,30],[21,54],[9,45],[6,15],[15,15],[12,42],[3,15],[-6,25],[0,24],[3,24],[12,24],[-9,15],[-3,18],[21,36],[3,21]],[[1981,2287],[24,-78]],[[1191,2280],[-3,-23],[0,-13]],[[1188,2244],[0,-2],[-3,-18],[-12,-24]],[[1182,2579],[-6,-21],[0,-15],[9,-15],[18,-24],[9,-25],[-3,-15],[6,-15],[-12,-15],[-9,-9],[6,-18],[-3,-15],[3,-15],[6,-15],[-12,-24],[-3,-21],[-9,-15],[9,-15],[0,-7]],[[2357,2188],[12,24]],[[581,2222],[-2,8]],[[579,2230],[-3,18],[-6,18],[-9,6]],[[615,2164],[-12,15],[-3,21],[-18,18],[-1,4]],[[3493,2239],[-1,12]],[[3549,2140],[-42,45],[-9,12],[-3,18],[-2,24]],[[350,2103],[15,15],[6,0],[9,7],[21,33],[21,45],[15,12],[39,24],[3,6],[-3,15],[6,15],[21,24],[16,6]],[[2323,2082],[13,36],[6,28],[9,30],[6,12]],[[678,2064],[-3,18],[-15,33],[-15,25],[-12,15],[-18,9]],[[2005,2209],[12,-27],[18,-12],[27,0],[15,-6],[6,-12],[3,-37],[12,-24],[3,-15],[0,-36]],[[2239,1983],[18,21],[30,15],[6,9],[12,30],[18,24]],[[1173,2200],[0,-21],[-3,-15],[-9,-15],[-3,-15],[-6,-16],[-6,-30],[-15,-9],[-6,-18],[-9,-15],[0,-15],[-3,-9],[-36,-33],[0,-12]],[[2101,2040],[30,-12],[9,-6],[-9,-39],[3,-9],[6,-3],[24,30],[6,3],[15,-3],[15,-12],[21,3],[6,-6],[12,-3]],[[3616,2020],[-1,1]],[[3615,2021],[-12,31],[-9,18],[-27,45],[-18,25]],[[3720,1869],[-18,24],[-30,45],[-12,30],[-6,9],[-33,30],[-5,13]],[[194,1869],[9,6],[15,3],[15,24],[12,15],[21,18],[15,21],[6,6],[9,12],[18,9],[21,24],[9,15],[-6,51],[6,21],[6,9]],[[2251,1866],[6,27],[0,21],[-12,15],[3,24],[-9,15],[0,15]],[[1077,1977],[15,-27],[0,-15],[3,-18],[-3,-15],[-12,-24],[3,-18],[-18,-21],[3,-15],[9,-3],[9,-15],[6,-3],[6,-21],[-3,-24],[-30,-22],[-12,-15],[-6,-24]],[[753,1667],[0,10]],[[753,1677],[0,71],[-9,25],[-3,39],[-9,30],[-27,60],[-15,27],[-21,42],[-12,42],[-24,15],[-12,24],[-3,15],[12,48],[-12,37],[-3,12]],[[879,1667],[-2,9]],[[877,1676],[-4,15],[-33,91],[-12,42],[-6,21],[0,30],[-12,21],[-27,27],[-15,15],[-30,33],[-15,15],[-33,39],[-6,15],[-6,24]],[[879,1667],[-32,0]],[[766,1674],[-13,-7]],[[847,1667],[-1,0],[-6,6],[-15,0],[-54,3],[-5,-2]],[[3822,1649],[-9,6],[-6,15],[-6,45],[-9,24],[-18,34],[-12,21],[-15,42],[-12,15],[-15,18]],[[903,1625],[-9,12],[-15,30]],[[753,1667],[-17,-16]],[[736,1651],[-1,-2],[-6,-24],[-6,-9]],[[946,1616],[-4,0],[-39,9]],[[1047,1697],[-12,-30],[0,-30],[-6,-3],[-9,6],[-6,0],[-39,-21],[-9,3],[-15,-6],[-5,0]],[[2312,1839],[-7,6],[-6,6],[-27,0]],[[2272,1851],[-21,15]],[[2846,1538],[-24,9],[-27,0],[-30,15],[-18,3],[-30,21],[-27,9],[-18,24],[-15,9],[-9,15],[-3,15],[-27,30],[-15,24],[0,6],[-30,24],[-6,0],[-24,-6],[-12,25],[-57,30],[-30,15],[-21,12],[-15,6],[-21,3],[-45,-12],[-16,9],[-14,15]],[[3845,1505],[1,-6]],[[3822,1649],[6,-30],[17,-114]],[[1879,1478],[39,33],[21,24],[24,30],[24,39],[18,27],[30,33],[72,72],[6,9],[9,34],[9,15],[27,39],[6,0],[15,-3],[24,3],[15,3],[21,15],[12,15]],[[3945,1469],[12,12],[6,21],[-9,54],[-6,12],[-15,18],[-15,12],[-45,27],[-51,24]],[[3858,1406],[6,9],[24,15],[9,15],[15,9],[15,6],[18,9]],[[3846,1499],[2,-12]],[[3848,1487],[4,-33],[6,-48]],[[3690,1273],[12,15],[15,6],[39,9],[42,15],[15,15],[21,36],[18,25],[6,12]],[[3381,1270],[-21,3],[-21,9],[-51,21],[-33,3],[-22,18],[-33,9],[-51,12],[-21,3],[-48,15],[-39,15],[-39,19],[-54,30],[-21,15],[-9,21],[-21,30],[-15,15],[-36,30]],[[0,1737],[8,11],[30,31],[9,15],[3,36],[-6,9],[-9,24],[9,15],[15,6],[42,0],[15,0],[24,15],[15,-9],[12,-3],[18,-12],[9,-6]],[[902,1609],[1,4],[0,12]],[[981,1162],[-15,30],[-3,6],[-15,33],[-21,33],[-6,21],[-6,30],[-6,15],[-12,21],[-3,18],[0,22],[-3,39],[6,48],[0,15],[-6,39],[3,36],[8,41]],[[3558,1063],[-18,33],[-9,15],[-36,42],[-9,9],[-24,27],[-18,24],[-30,9],[-21,12],[-9,21],[-3,15]],[[3558,1063],[-15,-3],[-45,-18],[-24,-6],[-9,-9]],[[3696,1018],[-6,6],[-6,27],[-27,72],[-3,27],[3,42],[3,12],[15,33],[15,36]],[[3696,1018],[-24,3],[-15,0],[-12,9],[-15,6],[-24,6],[-27,6],[-15,6],[-6,9]],[[3843,1005],[-42,10],[-33,6],[-48,-6],[-24,3]],[[3894,1012],[-33,-4],[-18,-3]],[[603,957],[12,33],[6,12],[15,16],[24,12],[9,15],[15,39],[3,12],[0,30],[0,27],[0,42],[3,54],[3,33],[0,21],[-9,27],[3,33],[9,28],[6,15],[9,21],[0,78],[-6,54],[0,30],[18,27]],[[1200,984],[-30,3],[-6,-3],[-30,-24],[-30,-15],[-30,-3],[0,12],[-15,15],[-6,15],[-3,15],[-9,28],[-6,24],[-9,15],[-12,33],[-15,24],[-18,39]],[[4096,970],[-7,5],[-21,-3],[-24,9],[-45,12],[-39,3],[-15,0],[-24,9],[-27,7]],[[1197,855],[-12,6],[-6,21],[3,15],[21,21],[6,15],[-3,6],[3,39],[-9,6]],[[3465,1027],[-15,-12],[-15,-37],[-18,-27],[-24,-45],[-48,-66],[-27,-36],[-12,-24]],[[1441,750],[21,24],[18,12],[15,3],[15,6],[21,18],[39,39],[30,21],[15,9],[27,27],[9,15],[12,30],[36,42],[12,22],[6,15],[18,51],[3,6],[15,18],[12,15],[6,12],[0,33],[6,12],[9,6],[9,18],[6,24],[15,39],[0,9],[9,24],[15,21],[21,24],[6,15],[0,34],[-9,39],[3,15],[6,15],[12,15]],[[1441,750],[-6,12],[-19,21],[-3,33],[-9,15],[-15,9],[-3,9],[6,69],[3,6],[18,30],[-6,6],[-15,-6],[-24,-12],[-15,-3],[-21,-12],[-24,0],[-6,-3],[-15,-21],[-21,-3],[-15,-12],[-9,6],[-6,-3],[-9,-9],[-3,-21],[-9,-6],[-15,0]],[[1453,702],[0,18],[-6,24],[-6,6]],[[603,957],[-9,-39],[-9,-9],[-21,-30],[-30,-21],[-18,-15],[-10,-18],[-3,-30],[3,-9],[0,-18],[-12,-15],[-6,-15],[-6,-27],[-24,-9],[-18,-6],[-27,-3],[-30,-12]],[[1098,542],[6,72],[6,24],[24,34],[36,48],[6,24],[12,18],[12,42],[3,24],[-3,27]],[[3399,449],[12,-12]],[[3306,780],[3,-48],[12,-60],[6,-30],[6,-13],[12,-66],[6,-57],[6,-21],[12,-12],[18,-12],[12,-12]],[[3411,437],[-3,-5]],[[3408,432],[-12,-28],[-3,-27],[-6,-12],[-24,-21],[-12,-12],[-9,-39],[-15,-34],[-3,-24],[-6,-39],[3,-18],[-6,-42],[3,-36]],[[383,681],[0,-24],[3,-9],[24,-22],[6,-12],[6,-54],[6,-12],[24,-27],[6,-24],[12,-24],[21,-39],[3,-3],[28,-3],[27,-18],[15,-27],[9,-24],[0,-15],[-9,-24],[-18,-9],[-9,-9],[6,-9],[15,-9],[0,-13],[9,-18],[18,-12],[6,-6],[3,-36],[-6,-24],[3,-18],[12,-18],[12,-6],[9,-27],[-3,-30],[9,-9],[12,-30],[9,-15],[18,-12],[6,-10]],[[1786,0],[-12,4],[-6,24],[-3,36],[-3,36],[-18,30],[-6,6],[-18,21],[-21,24],[-6,15],[-9,15],[-15,3],[-21,21],[-9,15],[18,34],[6,27],[-9,48],[-6,30],[-12,24],[-24,18],[-27,30],[-15,24],[-9,18],[-6,30],[3,6],[-12,15],[-3,27],[-15,9],[-9,24],[-9,12],[-24,31],[-24,30],[-9,15]],[[3318,100],[9,-36],[12,-18],[15,-30],[5,-16]],[[4096,1590],[0,-1590],[-4096,0],[0,4096],[4096,0],[0,-2506]],[[1063,3362],[4,19],[66,3],[16,29],[-23,37],[39,1],[49,-52],[-43,4],[-31,-34],[107,-66],[-98,-23],[-86,82]],[[1639,845],[135,218],[125,277],[109,109],[-9,82],[20,22],[-18,36],[140,182],[39,29],[59,-9],[47,84],[69,-99],[41,-126],[-27,-87],[93,-12],[63,48],[57,6],[38,78],[208,-320],[54,-29],[-62,-150],[-4,-120],[67,-60],[95,-18],[-32,-43],[13,-74],[-58,-52],[-40,50],[-66,1],[-51,-82],[-74,-35],[-28,16],[-60,-30],[-7,-30],[-207,-40],[-119,-164],[-213,-39],[-26,18],[-7,57],[36,119],[-86,47],[-145,-21],[-101,23],[-34,18],[-34,120]],[[3422,407],[-23,42],[48,0],[-8,-35],[-17,-7]],[[1130,522],[-37,-1],[8,33],[19,-6],[10,-26]],[[3889,1498],[-40,-12],[-13,16],[32,8],[21,-12]],[[3074,1739],[17,-2],[-12,-24],[-20,24],[15,2]],[[3763,1914],[-8,-15],[-26,15],[20,18],[14,-18]],[[931,1658],[20,-56],[-63,9],[-43,56],[78,22],[8,-31]],[[743,1631],[-8,22],[22,30],[22,-22],[-36,-30]],[[1045,1964],[-8,32],[40,0],[-19,-29],[-13,-3]],[[3601,2005],[-24,8],[5,11],[35,-3],[-16,-16]],[[2907,2118],[1,26],[30,6],[1,-9],[-32,-23]],[[3763,2126],[11,30],[29,-6],[-15,-17],[-25,-7]],[[3413,2087],[-14,22],[32,3],[8,-18],[-26,-7]],[[1627,2110],[-22,15],[14,25],[12,-5],[-4,-35]],[[1465,2110],[-41,23],[17,26],[12,-2],[12,-47]],[[3844,1948],[-17,-49],[-40,16],[8,25],[49,8]],[[3920,1947],[-27,18],[-9,48],[42,-21],[-6,-45]],[[3830,2200],[-27,7],[28,23],[13,-7],[-14,-23]],[[3743,2219],[-13,4],[23,23],[9,-11],[-19,-16]],[[632,2256],[-28,16],[-4,40],[11,-3],[21,-53]],[[1473,2377],[17,0],[2,-29],[-43,5],[24,24]],[[612,2208],[-16,2],[-29,22],[57,-9],[-12,-15]],[[1676,2207],[-23,10],[7,23],[19,-14],[-3,-19]],[[3528,2296],[30,-40],[-22,-29],[-56,15],[-23,34],[24,28],[47,-8]],[[1197,2267],[18,-11],[-22,-17],[-27,25],[16,32],[15,-29]],[[1925,2381],[-14,9],[-1,28],[41,-8],[-26,-29]],[[1503,2458],[-19,17],[6,24],[24,-33],[-11,-8]],[[3917,2580],[24,-8],[-6,-13],[-28,0],[10,21]],[[3654,2573],[19,-27],[-104,19],[24,88],[61,-80]],[[1262,2598],[1,-10],[-57,0],[18,33],[38,-23]],[[964,2676],[-8,-15],[-26,15],[20,18],[14,-18]],[[1114,2679],[-29,22],[3,5],[34,-8],[-8,-19]],[[1435,2708],[63,-55],[-62,-25],[-60,17],[8,57],[51,6]],[[2177,2742],[1,24],[7,17],[14,-14],[-22,-27]],[[1406,2774],[-22,15],[0,18],[33,-24],[-11,-9]],[[1530,2855],[-27,9],[-5,24],[40,-16],[-8,-17]],[[834,2855],[-11,3],[-37,22],[36,8],[12,-33]],[[955,2904],[-24,8],[6,12],[35,-4],[-17,-16]],[[1355,2930],[-24,14],[-3,17],[36,-8],[-9,-23]],[[1460,3119],[-18,23],[31,30],[15,-16],[-28,-37]],[[1312,3204],[-41,8],[-6,29],[43,-25],[4,-12]],[[1402,3261],[4,37],[35,-5],[-24,-16],[-15,-16]],[[1579,3431],[-13,36],[5,13],[16,-21],[-8,-28]],[[1045,3512],[-33,0],[4,18],[25,0],[4,-18]],[[818,3617],[9,24],[24,9],[-9,-24],[-24,-9]],[[2630,3836],[4,39],[20,-6],[-3,-11],[-21,-22]],[[1126,3617],[-41,0],[23,29],[18,-29]],[[940,3544],[-25,17],[41,16],[-1,-10],[-15,-23]],[[1061,3569],[5,35],[17,2],[3,-34],[-25,-3]],[[1933,3680],[86,-4],[12,-26],[31,67],[67,-11],[18,-106],[-114,-19],[-100,99]],[[1761,3044],[11,101],[131,-103],[5,-57],[69,-93],[-7,-150],[-80,-93],[-26,26],[10,118],[-50,166],[-63,85]],[[1092,3568],[46,190],[32,330],[81,-83],[53,91],[277,0],[-61,-71],[39,-43],[-120,-22],[-42,-148],[-17,6],[2,-62],[-30,20],[-70,-126],[-72,32],[0,20],[-32,-48],[-14,21],[-46,-105],[-26,-2]],[[656,3070],[16,77],[176,33],[25,132],[-71,51],[10,79],[-49,27],[94,300],[140,210],[-64,0],[3,48],[64,-35],[31,104],[136,0],[-29,-338],[-45,-192],[-48,-96],[-75,2],[-25,-126],[-45,19],[-17,-20],[5,-48],[53,-60],[-78,-185],[42,-8],[113,79],[57,-10],[-8,-33],[-47,-13],[-55,-70],[-59,-1],[-19,32],[-52,-86],[-75,9],[-39,-44],[-26,26],[17,83],[-56,54]],[[1407,4005],[93,45],[60,-63],[-120,-27],[-33,45]],[[300,3763],[106,46],[-103,152],[34,-10],[-11,29],[49,8],[126,-73],[110,8],[-45,-81],[-81,-15],[-59,-129],[-66,-1],[-60,66]],[[2658,2411],[30,47],[-24,-9],[-3,34],[27,18],[31,-94],[45,8],[-23,-43],[26,-19],[-11,-34],[-48,-21],[-6,114],[-44,-1]],[[884,2771],[41,40],[11,62],[53,-2],[-17,-46],[30,-23],[-39,-5],[24,-66],[-35,32],[-51,-18],[-17,26]],[[1449,1666],[84,48],[84,102],[67,162],[47,-37],[22,16],[-21,-90],[-168,-180],[-69,-48],[-46,27]],[[907,2024],[46,28],[30,-47],[39,-4],[-24,-26],[26,-21],[25,-63],[-3,-79],[25,-43],[-26,-18],[-11,-62],[-4,34],[-22,-1],[20,66],[-34,60],[-5,102],[-53,26],[-29,48]],[[1005,1950],[10,-9],[9,13],[-13,5],[-6,-9]],[[980,1978],[9,-11],[6,1],[-9,13],[-6,-3]],[[927,2996],[38,1],[42,56],[37,31],[103,20],[-6,-37],[-97,2],[-41,-28],[10,-62],[-22,-26],[-41,5],[-23,38]],[[365,0],[-222,0],[0,3],[-129,304],[16,46],[200,62],[94,-67],[-44,-40],[5,-127],[80,-181]],[[676,2302],[36,-2],[19,37],[63,-38],[16,34],[36,4],[-7,71],[32,26],[34,-16],[13,-142],[45,-64],[-38,-109],[32,-47],[-56,-25],[-25,130],[-183,84],[-17,57]],[[0,3966],[0,130],[264,0],[-34,-65],[-226,-54],[-4,-11]],[[0,2703],[0,124],[36,-53],[-36,-71]],[[0,2177],[0,517],[67,-60],[25,-66],[-16,-33],[31,-45],[70,4],[52,-41],[-39,-149],[17,-63],[95,-8],[98,129],[-28,93],[71,124],[76,-62],[-37,-10],[-69,-225],[-67,-30],[-38,-83],[-3,23],[-80,2],[-37,-32],[-67,33],[-84,-29],[-37,11]],[[0,734],[0,284],[8,-3],[45,-131],[97,-121],[28,-108],[-83,-3],[-95,82]],[[36,1519],[24,17],[-22,23],[71,31],[13,93],[34,-14],[26,55],[22,0],[-14,19],[42,99],[49,3],[-15,24],[52,103],[52,-7],[26,34],[44,-53],[13,46],[20,-25],[22,46],[36,-23],[-13,-282],[84,-126],[7,-94],[-124,-22],[-99,-90],[-78,30],[13,-54],[52,-50],[-47,11],[-76,-27],[-38,-107],[-33,27],[-22,-19],[17,28],[-27,13],[-16,-34],[-23,10],[-21,-25],[45,81],[-37,-23],[10,37],[-16,-32],[-4,35],[-14,-12],[25,41],[-29,-3],[-4,24],[19,-5],[-11,41],[21,14],[-7,46],[-44,30],[-5,66]],[[129,3423],[147,33],[192,-22],[-34,129],[-31,21],[24,50],[-62,61],[138,18],[-4,-47],[45,-16],[-17,-52],[20,-85],[55,18],[-101,-130],[-218,16],[-19,-35],[-58,-1],[56,39],[-133,3]]]}