{"objects":{"water":{"type":"GeometryCollection","geometries":[{"type":"Polygon","properties":{"kind":"lake","name":"Lake Kariba","reservoir":true,"area":5176569856,"sort_rank":200,"source":"naturalearthdata.com","min_zoom":0.0,"id":1186},"arcs":[[209]]},{"type":"MultiLineString","properties":{"source":"naturalearthdata.com","kind":"lake","reservoir":true,"sort_rank":367,"boundary":true,"min_zoom":0.0,"id":1186},"arcs":[[210],[211],[212]]}]},"buildings":{"type":"GeometryCollection","geometries":[]},"places":{"type":"GeometryCollection","geometries":[{"type":"Point","properties":{"name:pt":"Zimb\u00e1bue","name:ps":"\u0632\u06d0\u0645\u0628\u0627\u0628\u0648\u06d0","name:ka":"\u10d6\u10d8\u10db\u10d1\u10d0\u10d1\u10d5\u10d4","name:mt":"\u017bimbabwe","name:ko":"\uc9d0\ubc14\ube0c\uc6e8","name:cv":"\u0417\u0438\u043c\u0431\u0430\u0431\u0432\u0435","name:km":"\u17a0\u17d2\u179f\u17ca\u17b8\u1798\u1794\u17b6\u1794\u179c\u17c9\u17c1","name:kk":"\u0417\u0438\u043c\u0431\u0430\u0431\u0432\u0435","name:tt":"\u0417\u0438\u043c\u0431\u0430\u0431\u0432\u0435","name:tr":"Zimbabve","name:ku":"Z\u00eembabwe","name:ti":"\u12da\u121d\u1267\u1264","name:ks":"\u0632\u0650\u0645\u0628\u0627\u0628\u06d2","name:to":"Simipapuei","name:tl":"Simbabwe","name:pa":"\u0a1c\u0a3c\u0a3f\u0a70\u0a2c\u0a3e\u0a2c\u0a35\u0a47","name:os":"\u0417\u0438\u043c\u0431\u0430\u0431\u0432\u0435","name:or":"\u0b1c\u0b3f\u0b2e\u0b4d\u0b2c\u0b3e\u0b71\u0b47","name:ce":"\u0417\u0438\u043c\u0431\u0430\u0431\u0432\u0435","name:ta":"\u0b9c\u0bbf\u0bae\u0bcd\u0baa\u0bbe\u0baa\u0bcd\u0bb5\u0bc7","name:tg":"\u0417\u0438\u043c\u0431\u0430\u0431\u0432\u0435","name:te":"\u0c1c\u0c3f\u0c02\u0c2c\u0c3e\u0c2c\u0c4d\u0c35\u0c47","name:hr":"Zimbabve","name:de":"Simbabwe","name:dz":"\u0f5b\u0f72\u0f58\u0f0b\u0f56\u0fb7\u0f56\u0f0b\u0f5d\u0f7a","source":"openstreetmap.org","name:nv":"Hooghan Ts\u00e9 Bee \u00c1daalyaa\u00ed Bik\u00e9yah","name:kn":"\u0c9c\u0cbf\u0c82\u0cac\u0cbe\u0cac\u0ccd\u0cb5\u0cc6","name:dv":"\u0792\u07a8\u0789\u07b0\u0784\u07a7\u0784\u07aa\u0788\u07ad","name:lv":"Zimbabve","name:lt":"Zimbabv\u0117","name:uz":"Zimbabve","name:he":"\u05d6\u05d9\u05de\u05d1\u05d0\u05d1\u05d5\u05d5\u05d4","min_zoom":2.0,"kind":"country","name:ur":"\u0632\u0645\u0628\u0627\u0628\u0648\u06d2","name:lb":"Simbabwe","name:la":"Zimbabua","name:uk":"\u0417\u0456\u043c\u0431\u0430\u0431\u0432\u0435","name:hy":"\u0536\u056b\u0574\u0562\u0561\u0562\u057e\u0565","name:ug":"\u0632\u0649\u0645\u0628\u0627\u0628\u06cb\u06d0","name:qu":"Simbabwi","name:lo":"\u0e8a\u0eb4\u0ea1\u0e9a\u0eb1\u0e9a\u0ec0\u0ea7","population":12521000,"name:el":"\u0396\u03b9\u03bc\u03c0\u03ac\u03bc\u03c0\u03bf\u03c5\u03b5","name:eo":"Zimbabvo","name":"Zimbabwe","name:ee":"Zimbabwe nutome","name:th":"\u0e0b\u0e34\u0e21\u0e1a\u0e31\u0e1a\u0e40\u0e27","name:gu":"\u0a9d\u0abf\u0aae\u0acd\u0aac\u0abe\u0aac\u0acd\u0ab5\u0ac7","name:yi":"\u05d6\u05d9\u05de\u05d1\u05d0\u05d1\u05d5\u05d5\u05e2","name:es":"Zimbabue","name:rm":"Simbabwe","name:az":"Zimbabve","name:mr":"\u091d\u093f\u092e\u094d\u092c\u093e\u092c\u094d\u0935\u0947","name:ar":"\u0632\u064a\u0645\u0628\u0627\u0628\u0648\u064a","name:my":"\u1007\u1004\u103a\u1018\u102c\u1018\u103d\u1031","name:is":"Simbabve","name:am":"\u12da\u121d\u1267\u1264","name:ve":"Zimbagwe","name:ml":"\u0d38\u0d3f\u0d02\u0d2c\u0d3e\u0d2c\u0d4d\u0d35\u0d47","name:ru":"\u0417\u0438\u043c\u0431\u0430\u0431\u0432\u0435","name:mn":"\u0417\u0438\u043c\u0431\u0430\u0431\u0432\u0435","id":1640880787,"name:mk":"\u0417\u0438\u043c\u0431\u0430\u0431\u0432\u0435","name:vo":"Zimbabiy\u00e4n","name:zu":"i-Zimbabwe","name:ha":"Zimbabuwe","name:ff":"Simbaabuwe","name:hi":"\u091c\u093f\u092e\u094d\u092c\u093e\u092c\u094d\u0935\u0947","name:mg":"Zimbaboe","name:fo":"Simbabvi","name:zh-yue":"\u6d25\u5df4\u5e03\u97cb","name:fy":"Simbabwe","name:zh":"\u6d25\u5df4\u5e03\u97e6","name:gv":"Yn \u00c7himbabwe","name:so":"Simbaabwe","name:sr":"\u0417\u0438\u043c\u0431\u0430\u0431\u0432\u0435","name:sl":"Zimbabve","name:ja":"\u30b8\u30f3\u30d0\u30d6\u30a8","name:si":"\u0dc3\u0dd2\u0db8\u0dca\u0db6\u0dcf\u0db6\u0dca\u0dc0\u0dda","name:sh":"Zimbabve","name:sg":"Zimb\u00e4bwe","name:ne":"\u091c\u093f\u092e\u094d\u092c\u093e\u092c\u0947","name:sa":"\u091c\u093f\u092e\u094d\u092c\u093e\u092c\u0935\u0947","name:bs":"Zimbabve","name:bm":"Zimbabuwe","name:bn":"\u099c\u09bf\u09ae\u09cd\u09ac\u09be\u09ac\u09c1\u09af\u09bc\u09c7","name:bo":"\u0f5b\u0f72\u0f58\u0f0b\u0f56\u0fb7\u0f71\u0f0b\u0f56\u0f7a\u0f0d","name:be":"\u0417\u0456\u043c\u0431\u0430\u0431\u0432\u044d","name:su":"Zimbabw\u00e9","name:bg":"\u0417\u0438\u043c\u0431\u0430\u0431\u0432\u0435","name:ss":"IZimbabhwe","name:ba":"\u0417\u0438\u043c\u0431\u0430\u0431\u0432\u0435","name:sq":"Zimbabve","name:ga":"An tSiomb\u00e1ib","name:gd":"An t-S\u00ecombab","name:wo":"Simbaawee","name:gl":"Cimbabue","name:fa":"\u0632\u06cc\u0645\u0628\u0627\u0628\u0648\u0647","name:yo":"Or\u00edl\u1eb9\u0301\u00e8de \u1e63imibabe","name:ak":"Zembabwe"},"coordinates":[1181,2692]},{"type":"Point","properties":{"source":"openstreetmap.org","kind":"region","name":"Bulawayo","kind_detail":"state","min_zoom":4.0,"id":2702989687},"coordinates":[304,1418]},{"type":"Point","properties":{"source":"openstreetmap.org","kind":"region","name":"Matabeleland South","id":2702989789,"kind_detail":"state","min_zoom":4.0,"name:de":"S\u00fcdmatabeleland"},"coordinates":[593,931]},{"type":"Point","properties":{"source":"openstreetmap.org","kind":"region","name":"Masvingo","kind_detail":"state","min_zoom":4.0,"id":2702989756},"coordinates":[2337,924]},{"type":"Point","properties":{"source":"openstreetmap.org","kind":"region","name":"Midlands","kind_detail":"state","min_zoom":4.0,"id":2702989759},"coordinates":[1277,2057]},{"type":"Point","properties":{"source":"openstreetmap.org","kind":"region","name":"Mashonaland West","id":2702989801,"kind_detail":"state","min_zoom":4.0,"name:de":"Westmaschonaland"},"coordinates":[1241,3703]},{"type":"Point","properties":{"source":"openstreetmap.org","kind":"region","name":"Harare","kind_detail":"state","min_zoom":4.0,"id":2702989718},"coordinates":[2137,3154]},{"type":"Point","properties":{"source":"openstreetmap.org","kind":"region","name":"Mashonaland East","id":2702989781,"kind_detail":"state","min_zoom":4.0,"name:de":"Ostmaschonaland"},"coordinates":[2653,3203]},{"type":"Point","properties":{"source":"openstreetmap.org","kind":"region","name":"Mashonaland Central","id":2702989813,"kind_detail":"state","min_zoom":4.0,"name:de":"Zentralmaschonaland"},"coordinates":[2308,4014]},{"type":"Point","properties":{"source":"openstreetmap.org","kind":"region","name":"Manicaland","kind_detail":"state","min_zoom":4.0,"id":2702989753},"coordinates":[3090,2257]},{"type":"Point","properties":{"source":"openstreetmap.org","kind":"region","name":"Manica","kind_detail":"state","min_zoom":4.0,"id":2651758328},"coordinates":[3864,2241]},{"type":"Point","properties":{"source":"naturalearthdata.com","kind":"locality","name":"Harare","country_capital":true,"population":1572000,"min_zoom":5.0,"id":6820},"coordinates":[2125,3186]},{"type":"Point","properties":{"source":"naturalearthdata.com","kind":"locality","name":"Bulawayo","population":699385,"min_zoom":5.0,"id":6821},"coordinates":[331,1368]},{"type":"Point","properties":{"source":"naturalearthdata.com","kind":"locality","name":"Chitungwiza","population":340360,"min_zoom":5.0,"id":6282},"coordinates":[2166,3043]},{"type":"Point","properties":{"source":"naturalearthdata.com","kind":"locality","name":"Chimoio","population":256936,"region_capital":true,"min_zoom":6.0,"id":5686},"coordinates":[3892,2179]},{"type":"Point","properties":{"source":"naturalearthdata.com","kind":"locality","name":"Mutare","population":249365,"region_capital":true,"min_zoom":6.0,"id":5489},"coordinates":[3295,2295]},{"type":"Point","properties":{"source":"naturalearthdata.com","kind":"locality","name":"Gweru","population":183358,"region_capital":true,"min_zoom":6.0,"id":5488},"coordinates":[1234,1924]},{"type":"Point","properties":{"source":"naturalearthdata.com","kind":"locality","name":"Kadoma","population":79174,"min_zoom":6.0,"id":5490},"coordinates":[1300,2789]}]},"transit":{"type":"GeometryCollection","geometries":[{"type":"LineString","properties":{"source":"openstreetmap.org","kind":"train","name":"Train: Chicualacuala\u2013Gweru","sort_rank":275,"min_zoom":6.0,"osm_relation":true},"arcs":[203]},{"type":"MultiLineString","properties":{"source":"openstreetmap.org","kind":"train","name":"Train: Bulawayo\u2013Harare","sort_rank":275,"min_zoom":6.0,"osm_relation":true},"arcs":[[204],[205]]},{"type":"MultiLineString","properties":{"osm_relation":true,"source":"openstreetmap.org","kind":"train","name":"Pride of Africa","sort_rank":275,"min_zoom":6.0,"operator":"Rovos Rail"},"arcs":[[206],[207]]},{"type":"LineString","properties":{"source":"openstreetmap.org","kind":"train","name":"Train: Harare\u2013Mutare","sort_rank":275,"min_zoom":6.0,"osm_relation":true},"arcs":[208]}]},"pois":{"type":"GeometryCollection","geometries":[{"type":"Point","properties":{"kind":"national_park","protect_class":"2","area":1533720000,"source":"openstreetmap.org","min_zoom":5.5,"tier":1,"id":-6185332,"osm_relation":true,"name":"Matusadona National Park"},"coordinates":[368,3838]},{"type":"Point","properties":{"kind":"nature_reserve","protect_class":"6","area":1899880000,"source":"openstreetmap.org","min_zoom":6.84,"tier":2,"id":-2589233,"osm_relation":true,"name":"Chirisa Safari Area"},"coordinates":[85,3094]},{"type":"Point","properties":{"kind":"nature_reserve","name:nl":"Nationaal park Gonarezhou","name":"Gonarezhou National Park","area":6199330000,"name:es":"Parque nacional de Gonarezhou","name:de":"Gonarezhou-Nationalpark","source":"openstreetmap.org","min_zoom":5.99,"name:it":"Parco nazionale di Gonarezhou","tier":2,"id":-2454840,"osm_relation":true,"name:af":"Gonarezhou Nasionale Park"},"coordinates":[2657,205]}]},"boundaries":{"type":"GeometryCollection","geometries":[{"type":"MultiLineString","properties":{"source":"naturalearthdata.com","kind":"country","sort_rank":262,"kind_detail":"2","min_zoom":0.0,"id":140},"arcs":[[0],[1],[2]]},{"type":"LineString","properties":{"source":"naturalearthdata.com","kind":"country","sort_rank":262,"kind_detail":"2","min_zoom":0.0,"id":265},"arcs":[3]},{"type":"MultiLineString","properties":{"source":"naturalearthdata.com","kind":"country","sort_rank":262,"kind_detail":"2","min_zoom":0.0,"id":373},"arcs":[[4],[5],[6],[7],[8],[9],[10],[11],[12],[13],[14],[15],[16],[17],[18],[19],[20],[21],[22],[23],[24],[25],[26]]},{"type":"MultiLineString","properties":{"source":"naturalearthdata.com","kind":"region","sort_rank":256,"kind_detail":"4","min_zoom":5.5,"id":626},"arcs":[[27],[28],[29]]},{"type":"LineString","properties":{"source":"naturalearthdata.com","kind":"region","sort_rank":256,"kind_detail":"4","min_zoom":5.5,"id":631},"arcs":[30]},{"type":"MultiLineString","properties":{"source":"naturalearthdata.com","kind":"region","sort_rank":256,"kind_detail":"4","min_zoom":5.5,"id":613},"arcs":[[31],[32],[33],[34],[35],[36],[37],[38],[39],[40],[41],[42],[43]]},{"type":"LineString","properties":{"source":"naturalearthdata.com","kind":"region","sort_rank":256,"kind_detail":"4","min_zoom":5.5,"id":614},"arcs":[44]},{"type":"MultiLineString","properties":{"source":"naturalearthdata.com","kind":"region","sort_rank":256,"kind_detail":"4","min_zoom":5.5,"id":615},"arcs":[[45],[46],[47],[48]]},{"type":"MultiLineString","properties":{"source":"naturalearthdata.com","kind":"region","sort_rank":256,"kind_detail":"4","min_zoom":5.5,"id":616},"arcs":[[49],[50],[51],[52]]},{"type":"MultiLineString","properties":{"source":"naturalearthdata.com","kind":"region","sort_rank":256,"kind_detail":"4","min_zoom":5.5,"id":617},"arcs":[[53],[54],[55],[56],[57],[58],[59],[60],[61],[62],[63],[64],[65],[66],[67]]},{"type":"MultiLineString","properties":{"source":"naturalearthdata.com","kind":"region","sort_rank":256,"kind_detail":"4","min_zoom":5.5,"id":618},"arcs":[[68],[69],[70]]},{"type":"MultiLineString","properties":{"source":"naturalearthdata.com","kind":"region","sort_rank":256,"kind_detail":"4","min_zoom":5.5,"id":619},"arcs":[[71],[72],[73]]},{"type":"MultiLineString","properties":{"source":"naturalearthdata.com","kind":"region","sort_rank":256,"kind_detail":"4","min_zoom":5.5,"id":623},"arcs":[[74],[75],[76],[77],[78],[79],[80]]},{"type":"MultiLineString","properties":{"source":"naturalearthdata.com","kind":"region","sort_rank":256,"kind_detail":"4","min_zoom":5.5,"id":620},"arcs":[[81],[82],[83],[84],[85],[86],[87],[88],[89],[90],[91],[92]]},{"type":"MultiLineString","properties":{"source":"naturalearthdata.com","kind":"region","sort_rank":256,"kind_detail":"4","min_zoom":5.5,"id":624},"arcs":[[93],[94],[95],[96],[97],[98],[99],[100],[101],[102],[103]]},{"type":"MultiLineString","properties":{"source":"naturalearthdata.com","kind":"region","sort_rank":256,"kind_detail":"4","min_zoom":5.5,"id":621},"arcs":[[104],[105],[106],[107],[108],[109],[110],[111],[112]]},{"type":"MultiLineString","properties":{"source":"naturalearthdata.com","kind":"region","sort_rank":256,"kind_detail":"4","min_zoom":5.5,"id":622},"arcs":[[113],[114],[115],[116],[117],[118],[119],[120],[121],[122],[123],[124],[125]]},{"type":"MultiLineString","properties":{"source":"naturalearthdata.com","kind":"region","sort_rank":256,"kind_detail":"4","min_zoom":5.5,"id":625},"arcs":[[126],[127],[128],[129],[130],[131],[132],[133],[134],[135]]},{"type":"MultiLineString","properties":{"source":"naturalearthdata.com","kind":"region","sort_rank":256,"kind_detail":"4","min_zoom":5.5,"id":627},"arcs":[[136],[137],[138],[139],[140],[141]]},{"type":"MultiLineString","properties":{"source":"naturalearthdata.com","kind":"region","sort_rank":256,"kind_detail":"4","min_zoom":5.5,"id":628},"arcs":[[142],[143],[144],[145],[146],[147],[148],[149],[150],[151],[152]]},{"type":"MultiLineString","properties":{"source":"naturalearthdata.com","kind":"region","sort_rank":256,"kind_detail":"4","min_zoom":5.5,"id":629},"arcs":[[153],[154],[155],[156],[157],[158],[159],[160]]},{"type":"MultiLineString","properties":{"source":"naturalearthdata.com","kind":"region","sort_rank":256,"kind_detail":"4","min_zoom":5.5,"id":630},"arcs":[[161],[162],[163],[164],[165],[166],[167],[168],[169],[170],[171],[172],[173],[174],[175],[176],[177],[178],[179],[180],[181]]},{"type":"LineString","properties":{"source":"naturalearthdata.com","kind":"region","sort_rank":256,"kind_detail":"4","min_zoom":5.5,"id":632},"arcs":[182]},{"type":"LineString","properties":{"source":"naturalearthdata.com","kind":"region","sort_rank":256,"kind_detail":"4","min_zoom":5.0,"id":2970},"arcs":[183]},{"type":"MultiLineString","properties":{"source":"naturalearthdata.com","kind":"region","sort_rank":256,"kind_detail":"4","min_zoom":5.0,"id":2974},"arcs":[[184],[185],[186],[187],[188],[189],[190],[191],[192]]},{"type":"MultiLineString","properties":{"source":"naturalearthdata.com","kind":"region","sort_rank":256,"kind_detail":"4","min_zoom":5.0,"id":2979},"arcs":[[193],[194],[195],[196],[197]]},{"type":"MultiLineString","properties":{"source":"naturalearthdata.com","kind":"region","sort_rank":256,"kind_detail":"4","min_zoom":5.0,"id":2981},"arcs":[[198],[199],[200],[201]]},{"type":"LineString","properties":{"source":"naturalearthdata.com","kind":"region","sort_rank":256,"kind_detail":"4","min_zoom":5.0,"id":2982},"arcs":[202]}]},"roads":{"type":"GeometryCollection","geometries":[{"type":"LineString","properties":{"source":"naturalearthdata.com","kind":"major_road","sort_rank":379,"kind_detail":"secondary","min_zoom":3.0,"id":44418},"arcs":[213]},{"type":"LineString","properties":{"source":"naturalearthdata.com","kind":"major_road","sort_rank":379,"kind_detail":"secondary","min_zoom":3.0,"id":44429},"arcs":[214]},{"type":"LineString","properties":{"source":"naturalearthdata.com","kind":"major_road","sort_rank":379,"kind_detail":"secondary","min_zoom":3.0,"id":44437},"arcs":[215]},{"type":"LineString","properties":{"source":"naturalearthdata.com","kind":"major_road","sort_rank":379,"kind_detail":"secondary","min_zoom":4.0,"id":44456},"arcs":[216]},{"type":"LineString","properties":{"source":"naturalearthdata.com","kind":"major_road","sort_rank":379,"kind_detail":"secondary","min_zoom":4.0,"id":44465},"arcs":[217]},{"type":"LineString","properties":{"source":"naturalearthdata.com","kind":"minor_road","sort_rank":355,"kind_detail":"tertiary","min_zoom":5.0,"id":44474},"arcs":[218]},{"type":"LineString","properties":{"source":"naturalearthdata.com","kind":"minor_road","sort_rank":355,"kind_detail":"tertiary","min_zoom":5.0,"id":44475},"arcs":[219]},{"type":"LineString","properties":{"source":"naturalearthdata.com","kind":"minor_road","sort_rank":355,"kind_detail":"tertiary","min_zoom":5.0,"id":44495},"arcs":[220]},{"type":"LineString","properties":{"source":"naturalearthdata.com","kind":"major_road","sort_rank":379,"kind_detail":"secondary","min_zoom":3.0,"id":44496},"arcs":[221]},{"type":"LineString","properties":{"source":"naturalearthdata.com","kind":"major_road","sort_rank":379,"kind_detail":"secondary","min_zoom":3.0,"id":44500},"arcs":[222]},{"type":"LineString","properties":{"source":"naturalearthdata.com","kind":"major_road","kind_detail":"secondary","sort_rank":379,"landuse_kind":"urban_area","min_zoom":3.0,"id":44523},"arcs":[223]},{"type":"LineString","properties":{"source":"naturalearthdata.com","kind":"major_road","sort_rank":379,"kind_detail":"secondary","min_zoom":3.0,"id":44523},"arcs":[224]},{"type":"LineString","properties":{"source":"naturalearthdata.com","kind":"major_road","kind_detail":"secondary","sort_rank":379,"landuse_kind":"urban_area","min_zoom":3.0,"id":44525},"arcs":[225]},{"type":"LineString","properties":{"source":"naturalearthdata.com","kind":"major_road","sort_rank":379,"kind_detail":"secondary","min_zoom":4.0,"id":44530},"arcs":[226]},{"type":"LineString","properties":{"source":"naturalearthdata.com","kind":"major_road","kind_detail":"secondary","sort_rank":379,"landuse_kind":"urban_area","min_zoom":3.0,"id":44533},"arcs":[227]},{"type":"LineString","properties":{"source":"naturalearthdata.com","kind":"major_road","sort_rank":379,"kind_detail":"secondary","min_zoom":3.0,"id":44533},"arcs":[228]},{"type":"LineString","properties":{"source":"naturalearthdata.com","kind":"major_road","sort_rank":379,"kind_detail":"secondary","min_zoom":4.0,"id":44536},"arcs":[229]},{"type":"LineString","properties":{"source":"naturalearthdata.com","kind":"major_road","sort_rank":379,"kind_detail":"secondary","min_zoom":3.0,"id":44542},"arcs":[230]},{"type":"LineString","properties":{"source":"naturalearthdata.com","kind":"major_road","sort_rank":379,"kind_detail":"secondary","min_zoom":4.0,"id":44548},"arcs":[231]},{"type":"LineString","properties":{"source":"naturalearthdata.com","kind":"major_road","sort_rank":379,"kind_detail":"secondary","min_zoom":3.0,"id":44567},"arcs":[232]},{"type":"LineString","properties":{"source":"naturalearthdata.com","kind":"major_road","sort_rank":379,"kind_detail":"secondary","min_zoom":3.0,"id":44590},"arcs":[233]},{"type":"LineString","properties":{"source":"naturalearthdata.com","kind":"major_road","sort_rank":379,"kind_detail":"secondary","min_zoom":4.0,"id":44591},"arcs":[234]},{"type":"LineString","properties":{"source":"naturalearthdata.com","kind":"major_road","sort_rank":379,"kind_detail":"secondary","min_zoom":4.0,"id":44599},"arcs":[235]},{"type":"LineString","properties":{"source":"naturalearthdata.com","kind":"major_road","sort_rank":379,"kind_detail":"secondary","min_zoom":3.0,"id":44600},"arcs":[236]},{"type":"LineString","properties":{"source":"naturalearthdata.com","kind":"major_road","sort_rank":379,"kind_detail":"secondary","min_zoom":4.0,"id":44608},"arcs":[237]},{"type":"LineString","properties":{"source":"naturalearthdata.com","kind":"major_road","kind_detail":"secondary","sort_rank":379,"landuse_kind":"urban_area","min_zoom":3.0,"id":44615},"arcs":[238]},{"type":"LineString","properties":{"source":"naturalearthdata.com","kind":"major_road","sort_rank":379,"kind_detail":"secondary","min_zoom":3.0,"id":44615},"arcs":[239]},{"type":"LineString","properties":{"source":"naturalearthdata.com","kind":"major_road","kind_detail":"secondary","sort_rank":379,"landuse_kind":"urban_area","min_zoom":4.0,"id":44626},"arcs":[240]},{"type":"LineString","properties":{"source":"naturalearthdata.com","kind":"major_road","sort_rank":379,"kind_detail":"secondary","min_zoom":4.0,"id":44626},"arcs":[241]},{"type":"LineString","properties":{"source":"naturalearthdata.com","kind":"major_road","kind_detail":"secondary","sort_rank":379,"landuse_kind":"urban_area","min_zoom":3.0,"id":44627},"arcs":[242]},{"type":"LineString","properties":{"source":"naturalearthdata.com","kind":"major_road","kind_detail":"secondary","sort_rank":379,"landuse_kind":"urban_area","min_zoom":4.0,"id":44642},"arcs":[243]},{"type":"LineString","properties":{"source":"naturalearthdata.com","kind":"major_road","sort_rank":379,"kind_detail":"secondary","min_zoom":4.0,"id":44642},"arcs":[244]},{"type":"LineString","properties":{"source":"naturalearthdata.com","kind":"major_road","kind_detail":"secondary","sort_rank":379,"landuse_kind":"urban_area","min_zoom":3.0,"id":44676},"arcs":[245]},{"type":"LineString","properties":{"source":"naturalearthdata.com","kind":"major_road","sort_rank":379,"kind_detail":"secondary","min_zoom":3.0,"id":44676},"arcs":[246]},{"type":"LineString","properties":{"source":"naturalearthdata.com","kind":"major_road","sort_rank":379,"kind_detail":"secondary","min_zoom":3.0,"id":44693},"arcs":[247]},{"type":"LineString","properties":{"source":"naturalearthdata.com","kind":"major_road","sort_rank":379,"kind_detail":"secondary","min_zoom":3.0,"id":44697},"arcs":[248]},{"type":"LineString","properties":{"source":"naturalearthdata.com","kind":"major_road","sort_rank":379,"kind_detail":"secondary","min_zoom":3.0,"id":44701},"arcs":[249]},{"type":"LineString","properties":{"source":"naturalearthdata.com","kind":"major_road","kind_detail":"secondary","sort_rank":379,"landuse_kind":"urban_area","min_zoom":3.0,"id":44708},"arcs":[250]},{"type":"MultiLineString","properties":{"source":"naturalearthdata.com","kind":"major_road","sort_rank":379,"kind_detail":"secondary","min_zoom":3.0,"id":44708},"arcs":[[251],[252]]},{"type":"LineString","properties":{"source":"naturalearthdata.com","kind":"major_road","sort_rank":379,"kind_detail":"secondary","min_zoom":3.0,"id":44721},"arcs":[253]},{"type":"LineString","properties":{"source":"naturalearthdata.com","kind":"major_road","kind_detail":"secondary","sort_rank":379,"landuse_kind":"urban_area","min_zoom":3.0,"id":44731},"arcs":[254]},{"type":"LineString","properties":{"source":"naturalearthdata.com","kind":"major_road","sort_rank":379,"kind_detail":"secondary","min_zoom":3.0,"id":44731},"arcs":[255]},{"type":"LineString","properties":{"source":"naturalearthdata.com","kind":"major_road","kind_detail":"secondary","sort_rank":379,"landuse_kind":"urban_area","min_zoom":3.0,"id":44762},"arcs":[256]},{"type":"LineString","properties":{"source":"naturalearthdata.com","kind":"major_road","sort_rank":379,"kind_detail":"secondary","min_zoom":3.0,"id":44762},"arcs":[257]},{"type":"LineString","properties":{"source":"naturalearthdata.com","kind":"major_road","sort_rank":379,"kind_detail":"secondary","min_zoom":3.0,"id":44765},"arcs":[258]},{"type":"LineString","properties":{"source":"naturalearthdata.com","kind":"major_road","kind_detail":"secondary","sort_rank":379,"landuse_kind":"urban_area","min_zoom":3.0,"id":44772},"arcs":[259]},{"type":"LineString","properties":{"source":"naturalearthdata.com","kind":"major_road","sort_rank":379,"kind_detail":"secondary","min_zoom":3.0,"id":44772},"arcs":[260]},{"type":"LineString","properties":{"source":"naturalearthdata.com","kind":"major_road","sort_rank":379,"kind_detail":"secondary","min_zoom":3.0,"id":44773},"arcs":[261]},{"type":"LineString","properties":{"source":"naturalearthdata.com","kind":"major_road","sort_rank":379,"kind_detail":"secondary","min_zoom":4.0,"id":44789},"arcs":[262]},{"type":"LineString","properties":{"source":"naturalearthdata.com","kind":"major_road","kind_detail":"secondary","sort_rank":379,"landuse_kind":"urban_area","min_zoom":3.0,"id":44838},"arcs":[263]},{"type":"LineString","properties":{"source":"naturalearthdata.com","kind":"major_road","sort_rank":379,"kind_detail":"secondary","min_zoom":3.0,"id":44838},"arcs":[264]},{"type":"LineString","properties":{"source":"naturalearthdata.com","kind":"major_road","sort_rank":379,"kind_detail":"secondary","min_zoom":3.0,"id":44840},"arcs":[265]},{"type":"LineString","properties":{"source":"naturalearthdata.com","kind":"major_road","kind_detail":"secondary","sort_rank":379,"landuse_kind":"urban_area","min_zoom":4.0,"id":44841},"arcs":[266]},{"type":"LineString","properties":{"source":"naturalearthdata.com","kind":"major_road","sort_rank":379,"kind_detail":"secondary","min_zoom":4.0,"id":44841},"arcs":[267]},{"type":"LineString","properties":{"source":"naturalearthdata.com","kind":"major_road","sort_rank":379,"kind_detail":"secondary","min_zoom":3.0,"id":44848},"arcs":[268]},{"type":"LineString","properties":{"source":"naturalearthdata.com","kind":"major_road","sort_rank":379,"kind_detail":"secondary","min_zoom":3.0,"id":44849},"arcs":[269]},{"type":"LineString","properties":{"source":"naturalearthdata.com","kind":"major_road","kind_detail":"secondary","sort_rank":379,"landuse_kind":"urban_area","min_zoom":4.0,"id":44863},"arcs":[270]},{"type":"LineString","properties":{"source":"naturalearthdata.com","kind":"major_road","kind_detail":"secondary","sort_rank":379,"landuse_kind":"urban_area","min_zoom":3.0,"id":44871},"arcs":[271]},{"type":"LineString","properties":{"source":"naturalearthdata.com","kind":"major_road","sort_rank":379,"kind_detail":"secondary","min_zoom":3.0,"id":44871},"arcs":[272]},{"type":"LineString","properties":{"source":"naturalearthdata.com","kind":"major_road","sort_rank":379,"kind_detail":"secondary","min_zoom":3.0,"id":44873},"arcs":[273]},{"type":"LineString","properties":{"source":"naturalearthdata.com","kind":"major_road","sort_rank":379,"kind_detail":"secondary","min_zoom":3.0,"id":44874},"arcs":[274]},{"type":"LineString","properties":{"source":"naturalearthdata.com","kind":"minor_road","sort_rank":355,"kind_detail":"tertiary","min_zoom":6.0,"id":44876},"arcs":[275]},{"type":"LineString","properties":{"source":"naturalearthdata.com","kind":"major_road","sort_rank":379,"kind_detail":"secondary","min_zoom":3.0,"id":44881},"arcs":[276]},{"type":"LineString","properties":{"source":"naturalearthdata.com","kind":"major_road","sort_rank":379,"kind_detail":"secondary","min_zoom":3.0,"id":44882},"arcs":[277]},{"type":"LineString","properties":{"source":"naturalearthdata.com","kind":"minor_road","sort_rank":355,"kind_detail":"tertiary","min_zoom":6.0,"id":44883},"arcs":[278]},{"type":"LineString","properties":{"source":"naturalearthdata.com","kind":"major_road","sort_rank":379,"kind_detail":"secondary","min_zoom":3.0,"id":44888},"arcs":[279]},{"type":"LineString","properties":{"source":"naturalearthdata.com","kind":"major_road","sort_rank":379,"kind_detail":"secondary","min_zoom":3.0,"id":44890},"arcs":[280]},{"type":"LineString","properties":{"source":"naturalearthdata.com","kind":"major_road","sort_rank":379,"kind_detail":"secondary","min_zoom":3.0,"id":44902},"arcs":[281]},{"type":"LineString","properties":{"source":"naturalearthdata.com","kind":"major_road","sort_rank":379,"kind_detail":"secondary","min_zoom":3.0,"id":44922},"arcs":[282]},{"type":"LineString","properties":{"source":"naturalearthdata.com","kind":"minor_road","sort_rank":355,"kind_detail":"tertiary","min_zoom":6.0,"id":44933},"arcs":[283]},{"type":"LineString","properties":{"source":"naturalearthdata.com","kind":"minor_road","sort_rank":355,"kind_detail":"tertiary","min_zoom":6.0,"id":44936},"arcs":[284]},{"type":"LineString","properties":{"source":"naturalearthdata.com","kind":"minor_road","sort_rank":355,"kind_detail":"tertiary","min_zoom":6.0,"id":44937},"arcs":[285]},{"type":"LineString","properties":{"source":"naturalearthdata.com","kind":"major_road","sort_rank":379,"kind_detail":"secondary","min_zoom":3.0,"id":44938},"arcs":[286]},{"type":"LineString","properties":{"source":"naturalearthdata.com","kind":"minor_road","sort_rank":355,"kind_detail":"tertiary","min_zoom":6.0,"id":44944},"arcs":[287]},{"type":"LineString","properties":{"source":"naturalearthdata.com","kind":"major_road","kind_detail":"secondary","sort_rank":379,"landuse_kind":"urban_area","min_zoom":4.0,"id":44947},"arcs":[288]},{"type":"LineString","properties":{"source":"naturalearthdata.com","kind":"major_road","sort_rank":379,"kind_detail":"secondary","min_zoom":4.0,"id":44947},"arcs":[289]},{"type":"LineString","properties":{"source":"naturalearthdata.com","kind":"major_road","kind_detail":"secondary","sort_rank":379,"landuse_kind":"urban_area","min_zoom":3.0,"id":44948},"arcs":[290]},{"type":"LineString","properties":{"source":"naturalearthdata.com","kind":"major_road","kind_detail":"secondary","sort_rank":379,"landuse_kind":"urban_area","min_zoom":3.0,"id":44948},"arcs":[291]},{"type":"LineString","properties":{"source":"naturalearthdata.com","kind":"major_road","sort_rank":379,"kind_detail":"secondary","min_zoom":3.0,"id":44948},"arcs":[292]},{"type":"LineString","properties":{"source":"naturalearthdata.com","kind":"minor_road","kind_detail":"tertiary","sort_rank":355,"landuse_kind":"urban_area","min_zoom":5.0,"id":44958},"arcs":[293]},{"type":"LineString","properties":{"source":"naturalearthdata.com","kind":"minor_road","sort_rank":355,"kind_detail":"tertiary","min_zoom":5.0,"id":44958},"arcs":[294]},{"type":"LineString","properties":{"source":"naturalearthdata.com","kind":"major_road","sort_rank":379,"kind_detail":"secondary","min_zoom":3.0,"id":44970},"arcs":[295]},{"type":"LineString","properties":{"source":"naturalearthdata.com","kind":"major_road","kind_detail":"secondary","sort_rank":379,"landuse_kind":"urban_area","min_zoom":4.0,"id":44976},"arcs":[296]},{"type":"LineString","properties":{"source":"naturalearthdata.com","kind":"major_road","sort_rank":379,"kind_detail":"secondary","min_zoom":4.0,"id":44976},"arcs":[297]},{"type":"LineString","properties":{"source":"naturalearthdata.com","kind":"minor_road","sort_rank":355,"kind_detail":"tertiary","min_zoom":6.0,"id":44984},"arcs":[298]},{"type":"LineString","properties":{"source":"naturalearthdata.com","kind":"major_road","sort_rank":379,"kind_detail":"secondary","min_zoom":3.0,"id":45011},"arcs":[299]},{"type":"LineString","properties":{"source":"naturalearthdata.com","kind":"minor_road","sort_rank":355,"kind_detail":"tertiary","min_zoom":5.0,"id":45052},"arcs":[300]},{"type":"LineString","properties":{"source":"naturalearthdata.com","kind":"minor_road","sort_rank":355,"kind_detail":"tertiary","min_zoom":6.0,"id":45053},"arcs":[301]},{"type":"LineString","properties":{"source":"naturalearthdata.com","kind":"minor_road","sort_rank":355,"kind_detail":"tertiary","min_zoom":5.0,"id":45069},"arcs":[302]},{"type":"LineString","properties":{"source":"naturalearthdata.com","kind":"minor_road","sort_rank":355,"kind_detail":"tertiary","min_zoom":5.0,"id":45077},"arcs":[303]},{"type":"LineString","properties":{"source":"naturalearthdata.com","kind":"minor_road","sort_rank":355,"kind_detail":"tertiary","min_zoom":6.0,"id":45078},"arcs":[304]},{"type":"LineString","properties":{"source":"naturalearthdata.com","kind":"major_road","sort_rank":379,"kind_detail":"secondary","min_zoom":4.0,"id":45082},"arcs":[305]},{"type":"LineString","properties":{"source":"naturalearthdata.com","kind":"major_road","kind_detail":"secondary","sort_rank":379,"landuse_kind":"urban_area","min_zoom":3.0,"id":45085},"arcs":[306]},{"type":"LineString","properties":{"source":"naturalearthdata.com","kind":"major_road","sort_rank":379,"kind_detail":"secondary","min_zoom":3.0,"id":45085},"arcs":[307]},{"type":"LineString","properties":{"source":"naturalearthdata.com","kind":"major_road","kind_detail":"secondary","sort_rank":379,"landuse_kind":"urban_area","min_zoom":3.0,"id":45090},"arcs":[308]},{"type":"LineString","properties":{"source":"naturalearthdata.com","kind":"minor_road","sort_rank":355,"kind_detail":"tertiary","min_zoom":5.0,"id":45091},"arcs":[309]},{"type":"LineString","properties":{"source":"naturalearthdata.com","kind":"minor_road","kind_detail":"tertiary","sort_rank":355,"landuse_kind":"urban_area","min_zoom":5.0,"id":45092},"arcs":[310]},{"type":"LineString","properties":{"source":"naturalearthdata.com","kind":"minor_road","sort_rank":355,"kind_detail":"tertiary","min_zoom":5.0,"id":45092},"arcs":[311]},{"type":"LineString","properties":{"source":"naturalearthdata.com","kind":"minor_road","kind_detail":"tertiary","sort_rank":355,"landuse_kind":"nature_reserve","min_zoom":5.0,"id":45095},"arcs":[312]},{"type":"LineString","properties":{"source":"naturalearthdata.com","kind":"minor_road","kind_detail":"tertiary","sort_rank":355,"landuse_kind":"urban_area","min_zoom":5.0,"id":45095},"arcs":[313]},{"type":"MultiLineString","properties":{"source":"naturalearthdata.com","kind":"minor_road","sort_rank":355,"kind_detail":"tertiary","min_zoom":5.0,"id":45095},"arcs":[[314],[315]]},{"type":"LineString","properties":{"source":"naturalearthdata.com","kind":"minor_road","sort_rank":355,"kind_detail":"tertiary","min_zoom":6.0,"id":45098},"arcs":[316]},{"type":"LineString","properties":{"source":"naturalearthdata.com","kind":"major_road","kind_detail":"secondary","sort_rank":379,"landuse_kind":"urban_area","min_zoom":4.0,"id":45103},"arcs":[317]},{"type":"LineString","properties":{"source":"naturalearthdata.com","kind":"major_road","sort_rank":379,"kind_detail":"secondary","min_zoom":4.0,"id":45103},"arcs":[318]},{"type":"LineString","properties":{"source":"naturalearthdata.com","kind":"major_road","kind_detail":"secondary","sort_rank":379,"landuse_kind":"urban_area","min_zoom":3.0,"id":45106},"arcs":[319]},{"type":"LineString","properties":{"source":"naturalearthdata.com","kind":"major_road","sort_rank":379,"kind_detail":"secondary","min_zoom":3.0,"id":45106},"arcs":[320]},{"type":"LineString","properties":{"source":"naturalearthdata.com","kind":"major_road","kind_detail":"secondary","sort_rank":379,"landuse_kind":"urban_area","min_zoom":4.0,"id":45107},"arcs":[321]},{"type":"LineString","properties":{"source":"naturalearthdata.com","kind":"major_road","kind_detail":"secondary","sort_rank":379,"landuse_kind":"urban_area","min_zoom":4.0,"id":45111},"arcs":[322]},{"type":"LineString","properties":{"source":"naturalearthdata.com","kind":"minor_road","kind_detail":"tertiary","sort_rank":355,"landuse_kind":"urban_area","min_zoom":5.0,"id":45140},"arcs":[323]},{"type":"LineString","properties":{"source":"naturalearthdata.com","kind":"minor_road","sort_rank":355,"kind_detail":"tertiary","min_zoom":5.0,"id":45140},"arcs":[324]},{"type":"LineString","properties":{"source":"naturalearthdata.com","kind":"minor_road","kind_detail":"tertiary","sort_rank":355,"landuse_kind":"urban_area","min_zoom":5.0,"id":45147},"arcs":[325]},{"type":"LineString","properties":{"source":"naturalearthdata.com","kind":"minor_road","sort_rank":355,"kind_detail":"tertiary","min_zoom":5.0,"id":45147},"arcs":[326]},{"type":"LineString","properties":{"source":"naturalearthdata.com","kind":"minor_road","sort_rank":355,"kind_detail":"tertiary","min_zoom":6.0,"id":45150},"arcs":[327]},{"type":"LineString","properties":{"source":"naturalearthdata.com","kind":"major_road","kind_detail":"secondary","sort_rank":379,"landuse_kind":"urban_area","min_zoom":3.0,"id":45161},"arcs":[328]},{"type":"LineString","properties":{"source":"naturalearthdata.com","kind":"major_road","sort_rank":379,"kind_detail":"secondary","min_zoom":3.0,"id":45161},"arcs":[329]},{"type":"LineString","properties":{"source":"naturalearthdata.com","kind":"minor_road","sort_rank":355,"kind_detail":"tertiary","min_zoom":5.0,"id":45165},"arcs":[330]},{"type":"LineString","properties":{"source":"naturalearthdata.com","kind":"major_road","kind_detail":"secondary","sort_rank":379,"landuse_kind":"urban_area","min_zoom":4.0,"id":45170},"arcs":[331]},{"type":"LineString","properties":{"source":"naturalearthdata.com","kind":"major_road","sort_rank":379,"kind_detail":"secondary","min_zoom":4.0,"id":45170},"arcs":[332]},{"type":"LineString","properties":{"source":"naturalearthdata.com","kind":"major_road","kind_detail":"secondary","sort_rank":379,"landuse_kind":"urban_area","min_zoom":3.0,"id":45186},"arcs":[333]},{"type":"LineString","properties":{"source":"naturalearthdata.com","kind":"major_road","sort_rank":379,"kind_detail":"secondary","min_zoom":3.0,"id":45186},"arcs":[334]},{"type":"LineString","properties":{"source":"naturalearthdata.com","kind":"minor_road","sort_rank":355,"kind_detail":"tertiary","min_zoom":5.0,"id":45192},"arcs":[335]},{"type":"LineString","properties":{"source":"naturalearthdata.com","kind":"major_road","sort_rank":379,"kind_detail":"secondary","min_zoom":3.0,"id":45258},"arcs":[336]},{"type":"LineString","properties":{"source":"naturalearthdata.com","kind":"major_road","sort_rank":379,"kind_detail":"secondary","min_zoom":4.0,"id":45284},"arcs":[337]},{"type":"LineString","properties":{"source":"naturalearthdata.com","kind":"major_road","sort_rank":379,"kind_detail":"secondary","min_zoom":4.0,"id":45293},"arcs":[338]},{"type":"LineString","properties":{"source":"naturalearthdata.com","kind":"minor_road","sort_rank":355,"kind_detail":"tertiary","min_zoom":6.0,"id":45294},"arcs":[339]},{"type":"LineString","properties":{"source":"naturalearthdata.com","kind":"major_road","sort_rank":379,"kind_detail":"secondary","min_zoom":4.0,"id":45306},"arcs":[340]},{"type":"LineString","properties":{"source":"naturalearthdata.com","kind":"major_road","sort_rank":379,"kind_detail":"secondary","min_zoom":3.0,"id":45338},"arcs":[341]},{"type":"LineString","properties":{"source":"naturalearthdata.com","kind":"major_road","sort_rank":379,"kind_detail":"secondary","min_zoom":3.0,"id":45341},"arcs":[342]},{"type":"LineString","properties":{"source":"naturalearthdata.com","kind":"major_road","sort_rank":379,"kind_detail":"secondary","min_zoom":3.0,"id":45375},"arcs":[343]},{"type":"LineString","properties":{"source":"naturalearthdata.com","kind":"major_road","sort_rank":379,"kind_detail":"secondary","min_zoom":4.0,"id":45395},"arcs":[344]},{"type":"LineString","properties":{"source":"naturalearthdata.com","kind":"minor_road","kind_detail":"tertiary","sort_rank":355,"landuse_kind":"nature_reserve","min_zoom":6.0,"id":45404},"arcs":[345]},{"type":"MultiLineString","properties":{"source":"naturalearthdata.com","kind":"minor_road","sort_rank":355,"kind_detail":"tertiary","min_zoom":6.0,"id":45404},"arcs":[[346],[347]]},{"type":"LineString","properties":{"source":"naturalearthdata.com","kind":"major_road","sort_rank":379,"kind_detail":"secondary","min_zoom":3.0,"id":45408},"arcs":[348]},{"type":"LineString","properties":{"source":"naturalearthdata.com","kind":"minor_road","sort_rank":355,"kind_detail":"tertiary","min_zoom":6.0,"id":45426},"arcs":[349]},{"type":"LineString","properties":{"source":"naturalearthdata.com","kind":"major_road","sort_rank":379,"kind_detail":"secondary","min_zoom":3.0,"id":45525},"arcs":[350]},{"type":"LineString","properties":{"source":"naturalearthdata.com","kind":"major_road","sort_rank":379,"kind_detail":"secondary","min_zoom":4.0,"id":45526},"arcs":[351]}]},"earth":{"type":"GeometryCollection","geometries":[{"type":"Polygon","properties":{"sort_rank":10,"source":"naturalearthdata.com","min_zoom":0.0,"kind":"earth","area":1568366174169},"arcs":[[352]]}]},"landuse":{"type":"GeometryCollection","geometries":[{"type":"Polygon","properties":{"kind":"national_park","protect_class":"2","area":1533720064,"sort_rank":18,"source":"openstreetmap.org","min_zoom":3.0,"tier":1,"id":-6185332,"osm_relation":true},"arcs":[[353]]},{"type":"MultiPolygon","properties":{"source":"openstreetmap.org","kind":"park","tier":2,"area":2815165611,"sort_rank":24,"min_zoom":6.0,"osm_relation":true},"arcs":[[[354]],[[355]]]},{"type":"MultiPolygon","properties":{"source":"naturalearthdata.com","kind":"urban_area","name":"","area":2990195087,"sort_rank":11,"min_zoom":4.0},"arcs":[[[356]],[[357]],[[358]],[[359]],[[360]],[[361]],[[362]],[[363]],[[364]],[[365]],[[366]],[[367]],[[368]]]},{"type":"MultiPolygon","properties":{"kind":"protected_area","protect_class":"98","area":577102020608,"sort_rank":17,"source":"openstreetmap.org","min_zoom":4.0,"tier":2,"id":-4626458,"osm_relation":true},"arcs":[[[369]],[[370]]]},{"type":"MultiPolygon","properties":{"source":"openstreetmap.org","kind":"nature_reserve","tier":2,"area":368730693,"sort_rank":23,"min_zoom":6.0},"arcs":[[[371]]]},{"type":"Polygon","properties":{"kind":"nature_reserve","protect_class":"6","area":1899879936,"sort_rank":23,"source":"openstreetmap.org","min_zoom":4.0,"tier":2,"id":-2589233,"osm_relation":true},"arcs":[[372]]},{"type":"MultiPolygon","properties":{"source":"openstreetmap.org","kind":"nature_reserve","tier":2,"area":49916368634,"sort_rank":23,"min_zoom":4.0,"osm_relation":true},"arcs":[[[373]],[[374]],[[375]]]},{"type":"MultiPolygon","properties":{"source":"openstreetmap.org","kind":"nature_reserve","tier":2,"area":2480747011,"sort_rank":23,"min_zoom":6.0,"osm_relation":true},"arcs":[[[376]]]}]}},"type":"Topology","transform":{"translate":[28.125,-21.9430455334],"scale":[0.001373291,0.0012956186]},"arcs":[[[0,274],[30,-6],[86,-1],[27,-5],[29,-10],[60,-30],[15,-4]],[[312,237],[24,-7],[21,-2],[11,-3],[28,-22],[33,-10],[107,-50],[22,-6],[44,-2],[21,-5],[13,-9],[29,-9],[12,-9],[2,-15],[-9,-18],[-12,-19],[-8,-16],[-3,-33],[1,-2]],[[247,218],[13,2],[11,5],[26,7],[7,3],[8,2]],[[248,4096],[-135,-54],[-49,-33],[-64,-54]],[[3354,4040],[-4,2],[-20,15],[-7,30],[0,9]],[[3541,2724],[16,23],[21,16],[3,9],[-6,14],[-13,15],[-34,28],[-11,17],[-3,11],[1,6],[4,6],[6,11],[7,16],[0,6],[-2,25],[-26,80],[-2,17],[4,16],[1,6],[-9,11],[-1,7],[4,6],[5,4],[6,5],[3,10],[-1,14],[-9,22],[-1,15],[2,15],[5,16],[8,13],[12,6],[18,12],[3,28],[-2,34],[3,30],[12,28],[3,15],[-3,16],[-10,14],[-28,12],[-12,11],[-4,6],[-7,26],[0,9],[4,5],[7,4],[4,6],[29,57],[10,16],[4,5],[4,12],[0,12],[-5,7],[-17,10],[-6,5],[-8,15],[-2,17],[-1,8],[-1,29],[-10,47],[-18,45],[-31,55],[-41,74],[-1,5],[52,52],[12,16],[12,24],[21,82],[5,22]],[[3527,4061],[-9,-1],[-12,-5],[-22,-14],[-12,-4]],[[3472,4037],[-23,2],[-44,10],[-23,1]],[[3382,4050],[-11,-2],[-11,-4],[-6,-4]],[[3539,2725],[2,-1]],[[3447,2434],[19,1],[13,11],[8,16],[5,21],[1,25],[-5,21],[-22,44],[-10,28],[-2,16],[2,13],[9,10],[12,6],[14,4],[13,7],[14,8],[16,8],[13,10],[5,15],[-2,8],[-10,11],[-1,8]],[[3417,2436],[30,-2]],[[3349,2251],[-10,0],[-8,3],[-6,7],[-2,10],[1,10],[-1,8],[-5,17],[1,10],[7,6],[9,6],[8,5],[-9,7],[-5,11],[-5,42],[1,6],[70,34],[22,3]],[[3399,1904],[-14,0],[-7,9],[-1,16],[4,32],[-1,22],[2,8],[27,31],[10,17],[6,13],[3,14],[0,19],[22,95],[-5,27],[-6,7],[-7,6],[-6,6],[-3,9],[-2,9],[-2,6],[-4,3],[-8,3],[-13,2]],[[3394,2258],[-45,-7]],[[3457,1739],[-17,1],[-13,3],[-8,8],[-3,17],[2,8],[5,7],[3,7],[-1,10],[-2,8],[0,7],[5,56],[0,14],[-5,17],[-11,3]],[[3412,1905],[-13,-1]],[[3555,1475],[-2,6],[-4,18],[2,57],[14,46],[2,31],[4,18],[3,15],[-8,9],[-16,7],[-15,10],[-13,12],[-6,14],[6,29],[-1,16],[-13,7]],[[3508,1770],[-13,-4],[-22,-23],[-16,-4]],[[3516,1476],[39,-1]],[[3261,1064],[31,5],[19,20],[24,47],[23,44],[47,58],[32,40],[6,10],[4,11],[5,24],[0,6],[-5,11],[-1,5],[1,7],[10,19],[4,12],[5,37],[7,7],[12,2],[11,4],[6,11],[4,24],[10,8]],[[3227,1068],[34,-4]],[[3094,602],[-4,0],[-6,9],[-11,7],[-4,6],[56,72],[37,47],[17,34],[5,30],[-10,80],[-11,83],[2,31],[7,33],[23,30],[32,4]],[[3147,486],[-1,3],[-1,4],[-53,90],[1,3],[3,4],[3,5],[0,5],[-2,2]],[[3097,602],[-3,0]],[[3119,504],[28,-18]],[[2661,0],[15,16],[38,42],[39,42],[38,42],[38,42],[38,42],[38,42],[39,42],[38,42],[38,42],[38,42],[35,39],[26,29]],[[151,1240],[-4,3],[-7,16],[-4,12],[-3,7],[-1,3],[-9,12],[-8,8],[-2,4],[-1,4],[-2,3],[-3,3],[-3,2],[-4,2],[-3,2],[-2,3],[-2,3],[-1,5],[-2,3],[-15,13],[-15,16],[-2,3],[-1,10],[-1,3],[-2,4],[-4,6],[-1,4],[-1,4],[-1,4],[-2,3],[-3,3],[-4,2],[-10,4],[-4,3],[-3,2],[-2,4],[-3,8],[-2,2],[-1,2],[-2,0]],[[11,1435],[-4,-1],[-7,-3]],[[273,1322],[-19,-7],[-98,-74],[-5,-1]],[[2080,3258],[-8,-24],[-20,-24],[-9,-6],[-8,-4],[-7,-1],[-3,-4],[-2,-5],[-1,-9],[0,-6],[2,-4],[3,-4],[1,-4],[0,-10],[-4,-10],[-1,-6],[1,-5],[4,-3],[16,-9],[3,-4],[4,-6],[2,-7],[-1,-4],[-3,-4],[-24,-8],[-20,-4]],[[3306,4012],[14,2],[12,5],[19,19],[3,2]],[[3141,4039],[98,-12],[6,-2],[13,-7],[6,-2],[42,-4]],[[3040,4001],[10,1],[19,7],[35,21],[18,7],[19,2]],[[3010,4002],[30,-1]],[[2920,3969],[16,1],[17,4],[17,7],[14,7],[12,9],[6,3],[8,2]],[[2895,3977],[7,-1],[12,-5],[6,-2]],[[2441,3381],[5,6],[5,7],[7,15],[8,14],[3,4],[67,36],[12,13],[2,7],[12,19],[63,63],[11,15],[7,18],[-1,21],[-2,13],[-2,14],[2,14],[6,11],[8,7],[19,11],[8,8],[4,5],[6,12],[4,5],[4,3],[14,9],[12,10],[10,13],[16,28],[4,8],[4,25],[4,14],[8,13],[9,12],[11,9],[23,12],[7,6],[4,8],[8,37],[5,12],[7,11],[7,9],[21,13],[11,4],[11,2]],[[2204,3454],[114,-11],[6,-1],[1,-5],[-2,-5],[-24,-65],[-2,-8],[1,-8],[3,-9],[3,-7],[5,-6]],[[2158,3301],[15,65],[-1,6],[-1,6],[-5,1],[-5,3],[-5,10],[1,4],[16,18],[11,25],[10,9],[10,6]],[[2428,3385],[4,0],[5,-2],[4,-2]],[[2366,3332],[8,3],[8,7],[38,37],[8,6]],[[2341,3342],[25,-10]],[[2309,3329],[7,1],[16,9],[9,3]],[[1630,2378],[39,-9],[12,-6],[12,-12],[18,-13],[32,-13],[14,-4],[11,-5],[15,-14],[5,-2],[4,-1],[8,-1],[11,-2],[20,-1],[15,-2],[5,-2],[6,-4],[5,-2],[5,-1],[-1,-4],[-8,-12],[-1,-4],[0,-4],[3,-8],[15,-26],[17,-23],[4,-7],[2,-6],[1,-5],[1,-5],[-1,-3],[-3,-1],[-3,-1],[-3,-2],[-3,-11],[0,-2],[-1,-3],[1,-2],[0,-2],[1,-2],[1,-2],[0,-1],[-1,-3],[0,-2],[1,-4],[2,-3],[15,-12],[11,-12],[14,-13],[11,-13],[10,-9],[2,-1],[19,-4],[18,-11]],[[2136,3247],[5,1],[4,3],[5,5],[6,12],[2,33]],[[2080,3258],[12,-11],[4,-2],[4,-1],[7,-1]],[[2122,3247],[14,0]],[[2107,3243],[8,2],[7,2]],[[2158,3301],[14,-1],[3,-1],[2,-3],[2,-6],[2,-6],[3,-5],[5,-2],[13,-2]],[[2226,3275],[7,-2],[4,-3],[2,-8],[1,-9],[-1,-9],[-3,-13],[0,-5],[2,-5],[3,-5],[2,-5],[1,-4],[-1,-9],[0,-5],[2,-8],[2,-6],[7,-15],[1,-4],[0,-2],[-1,-4],[-4,-5],[-7,-7],[-3,-6],[-1,-5],[-1,-8],[-4,-4],[-6,-5],[-26,-12],[-1,-2],[0,-2],[2,-9],[1,-4],[0,-9],[0,-4],[-3,-13],[-7,-8],[-10,-5],[-3,-6],[0,-3],[2,-4],[7,-5],[1,-1],[-3,-4],[-12,-9],[-4,-2],[-10,-1],[-4,-1],[-4,-2],[-6,-4],[-3,-1],[-2,-1],[-3,0]],[[2202,3275],[24,0]],[[2140,3002],[-5,1],[-7,3],[-16,15],[-36,23],[-28,12],[-9,3],[-14,6],[-20,18]],[[958,1593],[-8,2],[-8,15],[-3,8],[-1,8],[0,9],[8,38],[-1,6],[-2,7],[-6,13],[-5,9],[-19,19],[-6,10],[-6,18],[-1,5],[-2,5],[-4,6],[-16,15],[-3,3],[-3,5],[-17,34],[-8,20],[-10,13],[-37,34]],[[1089,1548],[-4,0],[-5,3],[-33,25],[-47,24],[-7,1],[-11,1]],[[982,1602],[-12,-6],[-12,-3]],[[1158,1517],[-6,2],[-4,9],[-4,24],[-3,8],[-4,1]],[[1137,1561],[-4,-1],[-7,-4],[-4,-1],[-33,-7]],[[1232,1500],[-3,1],[-4,20],[-5,8],[-11,0]],[[1209,1529],[-51,-12]],[[1137,1100],[6,3],[5,5],[12,15],[6,11],[6,15],[1,8],[1,6],[-1,25],[0,7],[1,4],[43,105],[1,6],[4,36],[1,4],[48,103],[3,8],[0,7],[-23,39],[-2,0]],[[1249,1507],[-4,0],[-10,-7],[-3,0]],[[1100,1121],[6,-2],[24,-17],[7,-2]],[[1092,983],[-4,1],[-3,9],[-3,7],[-5,6],[-6,7],[-2,3],[-1,4],[1,7],[2,4],[2,4],[4,2],[5,3],[5,5],[0,10],[7,16],[1,9],[0,40],[5,1]],[[1082,695],[-30,0],[-27,7],[-19,1],[-4,1],[-14,4],[-8,4],[-2,3],[0,3],[9,8],[103,71],[3,4],[3,7],[38,180],[0,5],[-5,0]],[[1129,993],[-31,-10],[-6,0]],[[1167,709],[-12,0]],[[1155,709],[-22,-2],[-51,-12]],[[346,1317],[-9,5],[-9,2],[-5,2],[-4,1]],[[319,1327],[-2,0],[-24,-20],[-4,0]],[[289,1307],[-3,1],[-13,14]],[[2068,2151],[25,-2],[2,0],[3,-2],[0,-3],[0,-6],[-2,-6],[-2,-4],[-1,0],[1,-1],[0,-1],[0,-1],[-1,-3],[0,-2],[-2,-3],[-2,-9],[-1,-9],[1,-10],[1,-4],[2,-4],[32,-4]],[[1991,2061],[32,30],[1,16],[-3,7],[-1,6],[2,3],[4,1],[10,2],[7,3],[4,6],[8,11],[5,4],[8,1]],[[2124,2077],[114,3]],[[2238,2080],[10,-12],[118,-73],[26,-22],[10,-7],[8,-4],[5,-1]],[[2431,1968],[7,-1],[5,-1],[3,-2],[8,-8],[3,-3],[4,-1],[14,-3],[7,-4],[20,-14],[6,-5],[4,-5],[2,-4],[5,-6],[4,-3],[5,-1]],[[2415,1961],[3,2],[3,2],[4,2],[6,1]],[[2539,1911],[6,0],[4,-3],[5,-4],[6,-4],[11,-4],[7,-2],[18,-3],[5,-2],[3,-3],[0,-2],[0,-9],[2,-6],[4,-7],[22,-22],[2,-3],[2,-3],[1,-4],[1,-5],[1,-5],[3,-5],[7,-7],[5,-4],[33,-18],[9,-6],[5,-5],[2,-4],[5,-15],[2,-3],[2,-4],[17,-20],[22,-21],[6,-6],[4,-5],[7,-24],[1,-5],[3,-5],[6,-7],[4,-4],[4,-2],[19,-9],[5,-4],[3,-3],[6,-12],[6,-7],[10,-11],[16,-11],[9,-5],[8,-2],[6,-1],[9,-2],[5,-3],[5,-5],[6,-6],[4,-4],[5,-1]],[[2528,1907],[4,1],[7,3]],[[2939,1567],[6,-1],[6,-1],[10,-4],[48,-38],[38,-19],[14,-8],[2,-8],[4,-6],[0,-77],[-37,-217],[-3,-109],[-6,-37],[-11,-15],[-7,-46],[-15,-19],[-7,-12],[-3,-14],[-2,-15],[-13,-40],[-26,-49],[-4,-17],[-3,-8],[-10,-17],[0,-7],[7,-9],[3,-7],[6,-36],[3,-7],[4,-7],[16,-13],[2,-7],[-8,-12],[51,-26],[4,-3],[5,-18],[26,-63],[-1,-12],[12,-15],[69,-44]],[[2908,1564],[17,3],[14,0]],[[1991,2061],[-102,-84],[-5,-5],[-2,-4],[3,-3],[4,-2],[23,-5],[6,-3],[4,-5],[0,-5],[-3,-6],[-10,-6],[-8,-3],[-4,-4],[-1,-7],[-2,-63],[-8,-41],[3,-12],[3,-11],[1,-8],[-1,-8],[-13,-62],[0,-6],[0,-19],[0,-5],[-8,-24],[-3,-15],[1,-10],[1,-8],[1,-4],[1,-2],[2,-2],[3,-2],[1,-3],[-2,-3],[-5,-4],[-6,-1],[-21,-6],[-9,0]],[[1835,1600],[-9,0],[-22,6],[-20,11],[-6,2],[-7,1]],[[1771,1620],[-62,-2],[-6,-4],[-9,-16],[0,-4],[1,-2],[1,-2],[0,-3],[1,-1],[1,-1],[1,-1],[0,-2],[1,-2],[0,-4],[1,-3],[1,-2],[1,-1],[1,-2],[0,-2],[0,-2],[-3,-3],[-4,-5],[-17,-13],[-2,-4],[-1,-7],[0,-4],[0,-2],[1,-1],[1,-2],[-1,-3],[-2,-4],[0,-3],[0,-1],[1,-1],[2,0],[6,-1],[-4,-3],[-4,-2],[-5,-1],[-114,-4],[-4,-1],[-4,-1],[-55,-27],[-5,-4],[-3,-4],[4,-5],[2,-6],[1,-11],[-5,-27],[-9,-16],[-4,-32],[1,-22],[2,-2]],[[1496,1352],[12,-1],[12,-3],[10,-6],[4,-6],[3,-10],[3,-12],[1,-15],[-1,-16],[-6,-19],[0,-8],[2,-5],[4,-1],[2,-3],[10,-17],[3,-3],[6,-5],[3,-2],[4,-1],[8,-3],[14,-1],[3,0],[3,-2],[2,-4],[0,-4],[-1,-4],[1,-4],[1,-4],[2,-4],[4,-6],[3,-2],[3,-2],[4,-2],[9,-1],[4,-2],[3,-2],[2,-3],[1,-4],[2,-4],[2,-4],[2,-3],[3,-2],[16,-11],[3,-3],[2,-3],[1,-4],[1,-9],[1,-4],[2,-4],[0,-1],[30,-34],[1,-4],[-1,-6],[-3,-8],[-1,-7],[0,-5],[3,-8],[1,-4],[1,-5],[-2,-14],[1,-5],[1,-4],[1,-4],[2,-3],[3,-3],[2,-3],[6,-5],[3,-3],[1,-4],[2,-9],[1,-4],[2,-4],[-1,-4],[-1,-4],[-9,-17],[-2,-5],[-1,-4],[0,-5],[3,-16],[0,-4],[-1,-5],[-8,-15],[-3,-18],[-2,-5],[-3,-5],[-8,-9],[-3,-4],[-1,-5],[4,-56],[-2,-12],[-5,-9],[-72,-66],[-7,-1]],[[1479,1342],[5,2],[12,8]],[[1506,699],[-19,3],[-7,2],[-4,2],[-3,2],[-4,4],[-4,5],[-3,2],[-4,3],[-17,5],[-9,5],[-7,6],[-11,16],[-3,2],[-5,3],[-11,4],[-4,2],[-4,4],[-5,4],[-6,5],[-5,3],[-5,4],[-4,4],[-5,3],[-5,1],[-9,1]],[[1343,794],[-8,-1],[-6,-3],[-10,-5],[-86,-72],[-15,-7],[-8,-1],[-6,-1]],[[1601,698],[-5,1],[-5,2],[-5,1],[-14,8],[-3,0]],[[1569,710],[-3,0],[-7,-6],[-4,-2],[-3,-1],[-2,-1],[-2,-2],[-4,-1],[-6,-1]],[[1204,704],[-37,5]],[[1538,696],[-19,4]],[[1519,700],[-13,-1]],[[89,3499],[-2,-28],[-1,-7],[-6,-16],[-1,-10],[-1,-3],[-2,-3],[-2,-3],[-1,0],[-3,-14],[-5,-12],[-1,-5],[-1,-5],[1,-7],[2,-9],[1,-7],[-1,-5],[-1,-3],[-4,-7],[-2,-4],[-3,-18],[-4,-12],[0,-6],[4,-18],[1,-6],[-2,-5],[-20,-22],[-11,-9],[-5,-6],[-3,-2],[-3,-1]],[[13,3246],[-3,1],[-3,2],[-2,2],[-4,2],[-1,0]],[[0,2613],[9,-4],[9,-2],[30,-2],[9,-2],[14,-4],[72,-2],[10,-2],[4,0]],[[403,2615],[5,-1],[4,-1],[7,-4],[13,-4],[11,-1]],[[354,2606],[3,0],[13,1],[9,2],[15,5],[4,1],[5,0]],[[715,2607],[7,-1],[5,-3],[10,-19],[3,-8],[0,-7],[-3,-9],[-6,-5],[-128,-55],[-40,-9],[-7,-3],[-5,-7],[0,-14],[42,-195],[3,-10],[4,-8],[6,-6],[5,-3],[9,-3],[5,-6],[6,-8],[15,-26],[3,-7],[0,-7],[-1,-6],[-1,-5],[-2,-3],[-4,-6],[-4,-4],[-1,-4],[-1,-4],[0,-21],[0,-2],[1,-3],[6,-9],[9,-7],[66,-72],[4,-7],[2,-5],[0,-9],[-2,-6],[-16,-26],[4,-6],[91,-88]],[[443,2604],[272,3]],[[308,2606],[46,0]],[[244,2595],[30,2],[7,1],[23,7],[4,1]],[[183,2599],[37,-1],[14,-2],[10,-1]],[[157,2595],[9,0],[17,4]],[[1167,709],[11,-36],[6,-12],[33,-38],[3,-2],[6,-3],[17,-10],[3,-3],[1,-2],[-2,-1],[0,-4],[2,-7],[7,-17],[4,-6],[4,-4],[6,-1],[4,-2],[7,-4],[3,-4],[1,-6],[2,-21],[1,-5],[2,-2],[3,-1],[3,0],[6,-3],[3,-3],[1,-4],[0,-4],[1,-5],[2,-3],[4,-2],[4,-1],[2,-2],[2,-2],[11,-26],[3,-7],[4,-5],[3,-2],[8,-4],[6,-4],[3,-3],[3,-2],[8,-5],[4,-3],[8,-7],[12,-21],[3,-4],[8,-5],[13,-12],[6,-10],[4,-5],[4,-4],[5,-1],[5,-4],[3,-4],[4,-7],[3,-2],[2,-1]],[[1458,342],[3,0],[10,-3],[4,-1],[10,0],[6,-2],[3,-5],[3,-11],[3,-3],[4,-1],[6,-2],[15,-9],[5,-2],[6,-2],[4,-2],[2,-3],[1,-4],[0,-4],[-1,-10],[2,-4],[3,-2],[5,-1],[59,-8],[8,-2],[4,-1]],[[1452,341],[2,1],[1,0],[3,0]],[[1639,264],[17,-8],[18,-12],[16,-8],[5,-5],[23,-8],[14,-1],[6,-2],[2,-3],[0,-4],[-4,-5],[-2,-4],[1,-2],[6,-9],[15,-16],[4,-6],[6,-10],[3,-1],[4,-1]],[[1623,260],[4,1],[4,2],[3,1],[5,0]],[[1777,160],[4,-1],[9,-6],[17,-6],[4,0]],[[1773,159],[4,1]],[[1823,151],[5,-1],[2,-3],[0,-4],[-1,-4],[0,-5],[3,-2],[10,-5],[2,-4],[1,-4],[0,-5],[1,-4],[5,-17],[2,-5],[3,-3],[18,-11],[4,-4],[4,-5],[2,-5],[33,-41],[1,-3],[-1,-9],[1,-5],[1,-2]],[[1811,147],[4,1],[8,3]],[[3141,3289],[5,1],[6,4],[11,12],[10,13],[4,4],[25,12],[13,1],[4,2],[7,3],[8,2],[4,1],[6,4],[8,5],[31,33],[2,4],[1,5],[1,5],[1,14],[1,4],[3,4],[5,3],[22,9],[8,2],[11,5],[4,3],[5,5],[4,6],[1,6],[0,9],[1,4],[22,44],[2,4],[3,4],[49,36],[17,16],[7,5],[54,22],[16,5],[4,0]],[[3124,3293],[4,0],[5,-1],[8,-3]],[[2811,2169],[4,14],[-3,19],[0,10],[2,15],[0,14],[2,33],[0,3],[-1,4],[-3,7],[-4,7],[-7,9],[-1,4],[-2,3],[-1,4],[-1,4],[-2,3],[-7,4],[-3,3],[-3,2],[-1,4],[-2,4],[-13,66],[-16,41],[-2,3],[-3,3],[-4,2],[-4,1],[-4,1],[-14,1],[-4,1],[-3,2],[-3,2],[-2,3],[-2,3],[-3,9],[-4,15],[-1,5],[-2,3],[-7,9],[-6,10],[-8,8],[-3,3],[-2,3],[-6,14],[-7,9],[-2,4],[-1,8],[-2,3],[-2,5],[0,5],[5,10],[2,8],[0,6],[-7,14],[-2,12],[-8,13],[-3,6],[4,5],[3,2],[3,2],[3,4],[2,6],[2,7],[0,8],[2,8],[2,6],[6,3],[7,3],[32,8],[7,3],[5,3],[1,8],[-2,15],[3,8],[10,22],[0,7],[-2,4],[-2,7],[-2,14],[1,25],[1,5],[2,4],[27,37],[5,10],[3,8],[-1,13],[0,5],[0,5],[171,176],[3,4],[0,4],[-1,12],[0,10],[5,29],[2,4],[2,4],[3,3],[5,4],[20,7],[15,9],[16,6],[3,3],[4,4],[6,8],[7,13],[4,7],[3,3],[6,6],[17,9],[7,5],[30,30],[11,8],[13,7],[8,2],[7,1]],[[2535,2254],[15,-5],[25,-11],[13,-1]],[[2483,2151],[5,1],[13,14],[5,6],[6,10],[10,22],[6,17],[5,11],[1,3],[-1,4],[-2,3],[-5,6],[-1,3],[3,2],[7,1]],[[2637,2244],[12,-4],[10,-6],[28,-29],[11,-9],[27,-7],[29,-14],[14,-3]],[[2588,2237],[36,6],[13,1]],[[2416,2200],[6,-2],[5,-3],[13,-14],[2,-3],[1,-4],[0,-4],[1,-4],[1,-4],[4,-2],[6,-1],[8,0],[5,-2],[4,-1],[3,-3],[4,-2],[4,0]],[[2395,2187],[4,1],[5,3],[5,6],[3,3],[4,0]],[[2359,2197],[10,-1],[7,-2],[7,-3],[8,-4],[4,0]],[[2238,2080],[71,8],[9,4],[0,38],[7,18],[1,31],[2,4],[1,4],[4,4],[7,4],[19,2]],[[2793,2177],[8,-2],[5,-2],[5,-4]],[[2768,2172],[8,1],[12,3],[5,1]],[[271,1451],[-7,2],[-41,23],[-6,1]],[[217,1477],[-3,0],[-2,-2],[-1,-4],[1,-9],[7,-28],[0,-7],[-2,-4],[-2,-8],[-2,-5],[0,-6],[0,-8],[-3,-5],[-4,-3],[-10,-6],[-2,-4],[0,-3],[4,-4],[9,-3],[6,0]],[[365,1426],[-5,0],[-5,3],[-8,6],[-3,2],[-4,0],[-4,1],[-3,1],[-2,1],[-2,2],[0,2],[-1,2],[1,3],[1,9],[1,4],[2,6],[-1,2],[-2,1]],[[330,1471],[-4,0],[-15,-5],[-16,-2],[-4,-2],[-9,-8],[-5,-2],[-6,-1]],[[346,1317],[48,11],[13,5],[5,4],[4,5],[2,4],[2,4],[0,4],[-2,4],[-3,3],[-14,9],[-2,3],[-3,3],[0,3],[1,4],[0,2],[5,9],[2,6],[1,5],[0,3],[-2,3],[-5,2],[-5,2],[-3,2],[-1,3],[-1,9],[-3,3]],[[385,1432],[-5,0],[-10,-5],[-5,-1]],[[263,1369],[6,-2],[5,-8],[7,-8],[1,-7],[-9,-22]],[[244,1364],[4,1],[9,4],[6,0]],[[222,1368],[5,0],[13,-4],[4,0]],[[213,1368],[9,0]],[[800,1895],[-6,-13],[-3,-4],[-8,-6],[-6,0]],[[777,1872],[-6,1],[-5,3],[-4,3],[-6,4],[-8,3],[-24,4],[-4,0]],[[720,1890],[-5,0],[-5,-2],[-4,-2],[-2,-5],[0,-8],[2,-6],[4,-5],[11,-10],[4,-6],[3,-6],[1,-6],[0,-6],[-3,-12],[-4,-7],[-6,-8],[-32,-29],[-3,-3],[-2,-5],[2,-5],[3,-5],[10,-9],[5,-4],[6,-4],[4,-4],[2,-6],[1,-8],[-1,-31],[-1,-6],[-3,-12],[-5,-14],[-1,-5],[-2,-6],[-5,-6],[-17,-13],[-9,-4],[-8,-1]],[[660,1621],[-44,8]],[[616,1629],[-4,0],[-2,-3],[0,-5],[0,-4],[3,-8],[11,-40],[7,-17],[0,-2],[-1,-4],[-2,-4],[-12,-20],[-8,-7],[-51,-29],[-32,-13],[-4,-2],[-2,-4],[-2,-6],[0,-5],[1,-4],[4,-15],[0,-5],[-2,-4],[-72,-87],[-13,-13],[-12,-9],[-5,-12],[-19,-20],[-10,-2]],[[389,1285],[-6,1],[-37,31]],[[1779,3770],[-4,0],[-5,1],[-3,2],[-2,4],[-3,16],[0,20],[0,2],[3,2],[3,2],[3,2],[2,2],[0,4],[-3,4],[-2,3],[-12,10],[-2,3],[-2,3],[-2,6],[-4,68],[1,5],[1,5],[1,4],[2,3],[11,15],[4,7],[1,5],[-1,6],[-2,6],[-4,10],[-4,5],[-4,4],[-3,2],[-4,1],[-4,2],[-2,3],[1,4],[2,4],[1,4],[0,6],[-12,25],[-1,2],[-2,2],[-6,2],[-24,15],[-4,1],[-8,2],[-4,1],[-6,5],[-3,2],[-12,5],[-3,2],[-3,4],[-1,3]],[[1858,3764],[-3,0],[-3,3],[-1,7],[-2,5],[-4,3]],[[1845,3782],[-4,0],[-4,-2],[-9,-6],[-9,-6],[-4,-2]],[[1828,3381],[-3,1],[-4,3],[0,19],[9,64],[0,10],[-2,13],[-9,44],[1,5],[2,4],[10,16],[28,54],[0,4],[0,4],[-3,3],[-3,3],[-3,3],[-1,4],[3,4],[3,3],[3,2],[11,11],[9,11],[9,13],[2,3],[2,8],[8,64],[0,5],[-1,4],[-3,4],[-4,2],[-9,3],[-4,1],[-4,0]],[[1875,3773],[-4,-1],[-3,-2],[-6,-4],[-4,-2]],[[1815,3766],[-3,1],[-4,1],[-3,2],[-3,1],[-5,1]],[[1797,3772],[-18,-2]],[[2029,3282],[-4,0],[-5,2],[-10,7],[-34,19],[-40,16],[-7,5],[-3,5],[0,7],[2,6],[5,15],[3,13],[-2,3],[-4,1]],[[1930,3381],[-102,0]],[[2080,3258],[-20,34],[-13,5]],[[2047,3297],[-5,-2],[-4,-5],[-4,-4],[-5,-4]],[[1964,3102],[2,0],[6,-3],[20,-8],[10,-5],[3,-3]],[[1840,2487],[1,1],[2,3],[34,58],[31,30],[5,7],[2,6],[2,10],[6,106],[1,7],[2,8],[3,5],[5,4],[7,5],[3,5],[1,4],[-1,4],[-3,7],[-4,7],[-20,22],[-30,28],[-5,6],[-2,3],[-2,4],[0,4],[-1,25],[0,7],[2,4],[3,3],[7,4],[4,2],[5,5],[7,8],[13,20],[4,10],[1,7],[-1,3],[-1,4],[0,5],[7,24],[3,7],[4,4],[10,7],[2,5],[0,4],[-11,25],[-1,5],[-1,6],[2,10],[2,4],[2,4],[1,0],[12,5],[3,2],[4,4],[2,4],[0,4],[-1,4],[-3,8],[-1,4],[0,7],[2,10],[2,6],[3,1]],[[1697,2519],[3,-3],[2,-3],[2,-3],[7,-23],[2,-3],[2,-3],[2,-2],[11,-28],[4,-1]],[[1630,2378],[13,13],[5,12],[6,36],[2,6],[31,65],[6,7],[4,2]],[[1812,2499],[4,0],[17,-4],[2,-1],[2,-3],[3,-4]],[[1800,2468],[7,1],[3,3],[1,2],[0,3],[-3,12],[-1,5],[2,4],[3,1]],[[1761,2483],[5,0],[15,-5],[3,-2],[6,-6],[4,-2],[6,0]],[[1732,2450],[6,1],[15,5],[5,4],[3,3],[0,4],[-2,7],[-1,4],[1,4],[2,1]],[[577,3715],[3,-1],[4,-4],[4,-5],[3,-6],[3,-12],[2,-4],[6,-9],[2,-4],[4,-11],[4,-6],[5,-6],[2,-3],[4,-2],[50,-17],[21,-17],[4,-2],[11,-2],[5,-2],[4,-2],[3,-2],[3,-3],[3,-2],[3,-2],[46,-17],[4,0],[9,-1]],[[537,3693],[6,0],[4,1],[4,2],[22,18],[4,1]],[[516,3696],[21,-3]],[[413,3643],[6,0],[4,2],[3,3],[6,11],[4,4],[6,6],[21,13],[6,2],[34,11],[9,1],[4,0]],[[397,3645],[16,-2]],[[274,3510],[4,0],[4,2],[5,8],[4,4],[13,8],[3,4],[29,36],[7,15],[8,15],[29,34],[7,6],[5,3],[5,0]],[[808,3577],[5,0],[5,-2],[5,-4],[6,-5],[3,-3],[3,-2],[5,-11],[2,-7],[3,-17],[2,-4],[1,-4],[2,-3],[49,-57],[5,-3],[6,-3],[13,-4],[5,-4],[2,-3],[-5,-14],[-2,-3],[-2,-2],[-3,-3],[-12,-8],[-6,-5],[-5,-6],[-2,-4],[-3,-7],[-4,-7],[-6,-5],[-3,-2],[-3,-3],[-2,-3],[-3,-3],[-1,-4],[1,-4],[2,-5],[8,-9],[3,-4],[1,-4],[1,-17],[-3,-20],[0,-19],[-1,-4],[-1,-4],[-2,-4],[-2,-4],[-2,-2],[-12,-10],[-3,-2],[0,-5],[1,-4],[7,-8],[3,-5],[2,-5],[-2,-4],[-3,-7],[-5,-6],[-9,-7],[-3,-2],[-2,-4],[-1,-4],[-4,-20],[-1,-4],[-2,-4],[-10,-12],[-2,-3],[-4,-12],[-9,-15],[-19,-47],[-4,-7],[-2,-3],[-1,-5],[-1,-8],[-2,-3],[-1,-2],[0,-1],[-1,0],[0,-2],[0,-4],[2,-7],[1,-4],[2,-8],[0,-4],[0,-9],[0,-5],[1,-3],[2,-4],[2,-3],[1,-9],[3,-4],[3,-5],[11,-10],[2,-4],[1,-4],[0,-5],[0,-4],[2,-4],[2,-3],[19,-19],[2,-3],[2,-3],[3,-9],[4,-4],[18,-21],[6,-4],[16,-8],[5,-3],[3,-4],[6,-10],[7,-8],[6,-3],[11,-3],[8,-3],[100,-65],[27,-13],[4,-4],[2,-4],[1,-5],[-1,-4],[-1,-5],[-8,-21],[-1,-4],[0,-4],[0,-9],[0,-3],[-1,-2],[-2,-3],[-6,-4],[-2,-3],[-1,-4],[0,-4],[3,-36],[-2,-15],[0,-5],[0,-4],[1,-6],[3,-6],[6,-10],[4,-4],[5,-2],[7,-2],[9,-3],[29,-18],[7,-3]],[[789,3573],[6,1],[8,3],[5,0]],[[257,3521],[4,-1],[4,-2],[3,-3],[6,-5]],[[244,3516],[5,1],[4,1],[4,3]],[[217,3521],[11,-1],[16,-4]],[[113,3495],[10,2],[9,5],[73,17],[12,2]],[[89,3499],[24,-4]],[[1132,2562],[18,-3],[4,-1],[6,-1],[6,-3],[9,-5],[6,-5],[5,-6],[4,-2],[4,-1]],[[1117,2558],[4,1],[7,3],[4,0]],[[1202,2537],[6,0],[15,-7],[7,-2],[3,-1],[3,-3],[2,-4],[4,-6],[4,-3],[4,-2],[11,-2],[24,-11],[4,-2],[27,-5]],[[1194,2535],[4,2],[4,0]],[[1349,2502],[6,-1],[25,-12],[14,-1],[4,-1],[18,-10],[4,-1],[9,-2],[10,-1]],[[1316,2489],[4,0],[4,2],[5,5],[3,2],[12,4],[5,0]],[[1457,2474],[5,0],[25,-7],[10,-4],[9,-6],[6,-5],[16,-16],[5,-4],[5,-3],[11,-3],[17,-8],[17,-3],[10,-4],[5,-3],[6,-5],[26,-25]],[[1439,2473],[18,1]],[[89,3499],[-9,34],[-3,4],[-4,6],[-6,1],[-6,3],[-8,5],[-7,9],[-14,11],[-3,4],[-2,7],[-1,7],[-4,14],[0,13],[0,6],[-3,5],[-4,6],[-2,4],[-1,5],[4,8],[0,8],[-2,6],[-5,6],[-1,5],[-1,5],[0,5],[3,9],[0,5],[-2,3],[-3,2],[-5,2]],[[3558,3519],[19,8],[5,21],[0,5],[-1,6],[-3,4],[-2,7],[1,4],[7,10],[6,9],[27,55],[2,6],[0,5],[-6,18],[0,9],[1,6],[4,7],[1,6],[1,17],[9,24],[9,14],[6,8],[7,7],[7,4],[2,3],[5,6],[2,3],[4,2],[4,1],[25,4],[5,2],[5,3],[6,6],[3,5],[2,3],[0,9],[4,17],[24,72],[3,5],[24,36],[3,8],[2,6],[-1,4],[0,5],[3,12],[1,5],[-1,10],[1,9],[1,5],[2,5],[13,14],[9,7],[3,1],[9,3],[4,4],[2,4],[1,6],[3,5],[21,27]],[[3146,489],[32,-27],[41,-26],[11,-5]],[[3277,434],[15,-3],[28,-12],[82,-62],[11,-5],[12,-4],[14,-1]],[[3230,431],[47,3]],[[3481,352],[11,0],[10,-4],[13,-8],[12,-10],[5,-12],[2,-23],[5,-6]],[[3439,347],[42,5]],[[3709,352],[16,-3],[27,-11]],[[3601,268],[6,13],[5,13],[12,15],[14,13],[14,8],[44,20],[13,2]],[[3550,289],[17,-1],[6,-6],[14,-10],[14,-4]],[[3539,289],[11,0]],[[4096,2488],[-18,1],[-8,19],[1,9],[7,27],[4,9],[11,13],[3,4]],[[4032,1551],[4,-1],[2,-3],[2,-3],[4,-14],[1,-3],[4,-3],[7,-3],[3,-2],[6,-4],[14,-16],[1,0],[1,-1],[4,-1],[8,0],[3,-1]],[[3999,1537],[5,1],[4,1],[17,11],[3,1],[4,0]],[[3985,1537],[14,0]],[[4096,982],[-6,3],[-183,191],[-2,10],[-1,10],[1,9],[-1,7],[-1,5],[1,8],[2,11],[14,39],[1,4],[-1,5],[-1,4],[-4,8],[-9,12],[-2,4],[-3,9],[-1,15],[-1,5],[-2,4],[-2,3],[-6,4],[-19,8],[-2,2],[-3,3],[-18,65],[1,5],[2,4],[68,56],[3,6],[7,7],[3,2],[4,2],[4,2],[8,2],[8,4],[3,2],[7,8],[3,3],[4,1],[8,3],[5,0]],[[4096,418],[-7,-1]],[[4089,417],[-126,5]],[[3963,422],[-29,-3],[-26,-9],[-49,-39],[-16,-9],[-29,-7],[-27,-14],[-16,-4]],[[3771,337],[-17,0],[-2,1]],[[3752,338],[-5,-16],[-3,-8],[-4,-7],[-21,-26],[-12,-20],[-4,-6],[-6,-6],[-11,-10],[-15,-17],[-6,-10],[-2,-3],[-4,-7],[-1,-4],[-1,-4],[-1,-4],[0,-5],[1,-5],[9,-40],[2,-9],[-1,-7],[-2,-7],[-2,-9],[0,-9],[1,-6],[3,-5],[71,-88]],[[2550,0],[-105,313],[-296,91],[-193,87],[-66,56],[-46,125],[-118,101],[-60,190],[4,78],[-101,30],[-11,48],[-84,25],[-59,-22],[-14,58],[-126,87],[-20,35],[23,174],[-160,256]],[[323,1376],[-17,-5],[17,34],[82,5],[161,72],[183,182],[145,-1],[136,70],[105,5],[92,183],[-58,133],[68,151],[5,118]],[[1242,2323],[-43,202],[40,60],[6,158],[246,229],[82,52],[91,20],[34,81],[193,-1],[69,49],[93,-36],[79,34]],[[318,1393],[-273,267],[-45,53]],[[479,1438],[8,-44],[65,-40],[43,-100],[76,-81],[10,-69],[-44,-93],[21,-27],[-23,-48],[23,-82],[-13,-86],[61,-48],[132,5],[170,-149],[222,-276],[83,-300]],[[2132,3171],[147,-48],[72,-148],[131,-75],[237,39],[91,-22],[29,-79],[81,-53],[-9,-163],[38,-164],[105,-159],[287,-28]],[[591,4096],[-1,-1],[-4,-6],[3,-4],[13,1],[-8,-10],[-7,-10],[-5,-12],[1,-17],[-24,34],[-9,5],[-11,-5],[-12,-11],[-3,-11],[11,-5],[7,-13],[-4,-26],[-16,-18],[-29,9],[3,-14],[-5,-8],[-7,-6],[-6,-9],[-13,3],[-19,-1],[-16,3],[-7,13],[-2,9],[-5,3],[-6,3],[-2,7],[3,7],[12,14],[5,8],[-16,1],[0,12],[2,15],[-11,9],[-17,-5],[-13,-26],[-14,3],[-8,-6],[-11,2],[-7,-1],[5,-15],[-10,3],[-8,-1],[-7,1],[-4,8],[-11,-5],[5,-12],[-3,-2],[-8,-6],[-4,-1],[-14,1],[-13,-13],[-18,-31],[-4,-2],[-5,2],[-3,0],[-2,-5],[1,-6],[4,-5],[4,-4],[3,-1],[6,-6],[6,-36],[-11,8],[-5,28],[-11,6],[-10,1],[-14,2],[-13,6],[-6,9],[0,6],[-4,8],[-1,7],[3,4],[6,6],[6,7],[0,8],[-8,7],[-10,-3],[-9,-11],[-3,-15],[-11,4],[-7,-6],[-5,-10],[-2,-12],[-5,-2],[-34,-6],[-1,16],[-24,-3],[-45,-18],[-24,-4],[-5,-2],[0,68],[4,-3],[3,4],[1,5],[1,14],[2,7],[5,2],[6,1],[7,2],[18,11],[8,7],[3,10],[-21,-11],[-1,10],[3,18],[-10,9],[0,5],[25,0],[15,-20],[4,10],[14,-6],[3,9],[-1,7],[502,0]],[[591,4096],[-1,-1],[-4,-6],[3,-4],[13,1],[-8,-10],[-7,-10],[-5,-12],[1,-17],[-24,34],[-9,5],[-11,-5],[-12,-11],[-3,-11],[11,-5],[7,-13],[-4,-26],[-16,-18],[-29,9],[3,-14],[-5,-8],[-7,-6],[-6,-9],[-13,3],[-19,-1],[-16,3],[-7,13],[-2,9],[-5,3],[-6,3],[-2,7],[3,7],[12,14],[5,8],[-16,1],[0,12],[2,15],[-11,9],[-17,-5],[-13,-26],[-14,3],[-8,-6],[-11,2],[-7,-1],[5,-15],[-10,3],[-8,-1],[-7,1],[-4,8],[-11,-5],[5,-12],[-3,-2],[-8,-6],[-4,-1],[-14,1],[-13,-13],[-18,-31],[-4,-2],[-5,2],[-3,0],[-2,-5],[1,-6],[4,-5],[4,-4],[3,-1],[6,-6],[6,-36],[-11,8],[-5,28],[-11,6],[-10,1],[-14,2],[-13,6],[-6,9],[0,6],[-4,8],[-1,7],[3,4],[6,6],[6,7],[0,8],[-8,7],[-10,-3],[-9,-11],[-3,-15],[-11,4],[-7,-6],[-5,-10],[-2,-12],[-5,-2],[-34,-6],[-1,16],[-24,-3],[-45,-18],[-24,-4],[-5,-2]],[[0,4005],[4,-3],[3,4],[1,5],[1,14],[2,7],[5,2],[6,1],[7,2],[18,11],[8,7],[3,10],[-21,-11],[-1,10],[3,18],[-10,9],[0,5]],[[54,4096],[15,-20],[4,10],[14,-6],[3,9],[-1,7]],[[1083,4030],[-6,28],[3,29],[-2,9]],[[1092,3995],[-9,35]],[[3756,3944],[0,19],[6,19],[15,35],[12,32],[12,29],[4,18]],[[3342,3826],[27,3],[27,13],[45,6],[39,-3],[24,10],[42,19],[15,9],[30,7],[15,6],[33,10],[36,3],[27,0],[45,28],[9,7]],[[3273,3785],[33,28],[21,10],[15,3]],[[4096,3797],[-31,-6],[-18,-13],[-24,-28],[-6,-16],[-6,-7]],[[4011,3727],[-27,0],[-15,-6]],[[3969,3721],[-18,-35],[-18,-13],[-27,-16],[-33,-19],[-12,-6]],[[3861,3632],[0,19],[-6,45],[-6,15],[-15,35],[-12,23],[-21,32],[-15,15],[-6,13],[-9,45],[-18,41],[3,29]],[[1386,3616],[-6,3],[-27,29],[-3,16],[-9,12],[-6,16],[-18,13],[-12,19],[-9,22],[-9,10],[-12,32],[-30,32],[-45,60],[-3,7],[-30,41],[-30,35],[-27,16],[-18,16]],[[1504,3540],[-5,2]],[[1499,3542],[-10,7],[-24,19],[-21,13],[-21,19],[-13,6],[-24,10]],[[1516,3540],[-12,0]],[[3041,3527],[12,9],[39,58],[12,31],[12,20],[6,15],[-6,26],[6,19],[18,13],[21,9],[9,10],[21,13],[21,9],[46,16],[15,10]],[[1519,3539],[-3,1]],[[1657,3517],[-9,0],[-15,-6],[-9,0],[-27,19],[-21,10],[-9,0],[-15,-7],[-33,6]],[[2996,3505],[45,22]],[[1681,3495],[-24,22]],[[2960,3473],[27,25],[9,7]],[[1786,3419],[-9,19],[-18,12],[-15,19],[-6,4],[-21,0],[-18,16],[-18,6]],[[1900,3317],[-21,22],[-21,13],[-15,16],[-12,9],[-15,16],[-24,10],[-6,16]],[[2669,3317],[15,-3],[6,3],[12,19],[9,3],[24,6],[30,13],[36,13],[15,6],[24,19],[45,26],[33,22],[42,29]],[[2429,3275],[48,39],[30,12],[15,7],[21,-4],[15,7],[21,-3],[18,3],[18,-3],[33,-13],[18,0]],[[3744,3269],[6,38],[-6,35],[12,42],[18,35],[18,25],[12,29],[21,44],[24,61],[12,54]],[[2236,3240],[27,0],[24,7],[39,3],[34,6],[30,0],[21,10],[18,9]],[[2119,3208],[-27,13],[-17,11]],[[2075,3232],[-97,66],[-30,6],[-36,6],[-12,7]],[[2128,3183],[18,0],[30,22],[30,19],[9,5]],[[2215,3229],[21,11]],[[2128,3183],[-9,25]],[[2128,3183],[75,-10],[33,-9],[6,-4]],[[2242,3160],[12,-9],[30,-16],[27,-19]],[[2028,3186],[25,0],[30,-3],[45,0]],[[1744,3014],[36,19],[18,16],[39,35],[30,32],[18,13],[24,9],[39,23],[15,16],[15,6],[27,3],[23,0]],[[1501,2944],[33,29],[15,9],[12,7],[18,3],[69,-6],[30,-4],[21,0],[21,10],[24,22]],[[1480,2938],[21,6]],[[2311,3116],[9,-6],[13,-42],[12,-35],[3,-38],[9,-13],[15,-6],[33,-22],[24,-10],[60,-19]],[[2509,2907],[3,-7]],[[2489,2925],[12,-3],[8,-15]],[[2512,2900],[1,0],[12,-7],[39,3],[18,10],[21,3],[18,-3],[18,3],[15,-6],[24,9],[18,0],[12,10],[6,16]],[[2714,2938],[33,-13],[18,-3],[9,-13],[15,-3],[12,-13],[15,-35],[6,-3],[45,-22]],[[1311,2779]],[[1311,2779],[18,9],[18,16],[33,29],[33,41],[34,29],[24,29],[9,6]],[[1294,2760],[11,12],[6,7]],[[1260,2661],[-3,22],[-6,16],[0,10],[15,28],[9,13],[15,6],[4,4]],[[2867,2833],[51,-22],[18,-16],[6,-13],[6,-29],[0,-28],[-3,-20],[-12,-28],[-12,-38]],[[2087,3097],[2,10],[12,12],[12,26],[12,22],[3,16]],[[2005,2591],[-3,9],[6,70],[6,39],[-3,25],[-12,22],[-9,10],[0,19],[3,19],[-6,26],[0,19],[12,19],[3,9],[-3,19],[0,20],[15,28],[24,51],[24,42],[6,15],[15,29],[4,16]],[[1257,2581],[3,19],[3,39],[-3,22]],[[2921,2639],[0,-7],[15,-16],[6,-35],[12,-28],[6,-26],[-3,-16]],[[1233,2330],[-3,15]],[[1230,2345],[-3,14],[0,9],[-3,29],[3,19],[12,41],[0,10],[-9,25],[0,29],[12,32],[15,28]],[[2957,2511],[-3,-12],[18,-26],[6,-25],[9,-10],[15,-32],[9,-9],[30,-32],[48,-16],[9,-3],[33,-13],[27,-6],[27,3],[24,6],[18,-6],[28,-3],[12,0]],[[3274,2324],[2,-1]],[[3267,2327],[7,-3]],[[2029,2314],[6,16],[0,19],[-3,29],[21,66],[6,58],[-3,9],[-9,19],[-21,23],[-21,38]],[[3747,2311],[3,25],[27,70],[6,38],[0,29],[6,22],[-9,77],[-6,13],[-12,41],[6,25],[-3,19],[-9,23],[-24,38],[-9,22],[-9,13],[-6,67],[6,60],[0,19],[-6,26],[-27,67],[-3,19],[3,6],[27,48],[3,19],[3,41],[-3,20],[9,22],[3,38],[6,13],[6,16],[9,22]],[[3276,2323],[21,-15],[12,-20]],[[3309,2288],[9,-12],[0,-1]],[[3318,2275],[12,-12],[15,-3],[24,9],[12,19],[12,32],[9,13],[15,6],[27,4],[54,-42],[33,7],[51,0],[15,-7],[30,-3],[18,-13],[12,-22]],[[2020,2260],[6,48],[3,6]],[[3657,2263],[21,-10]],[[2020,2260],[27,0],[45,-10],[9,3],[21,10],[6,0]],[[3753,2231],[-6,29],[-3,28],[3,23]],[[3678,2253],[18,-3],[57,-19]],[[2672,2228],[18,3],[21,10],[18,12],[21,23],[15,6],[24,6],[21,13],[9,10],[3,9],[-6,26],[21,22],[18,13],[18,38],[33,16],[12,13],[24,38],[15,25]],[[3753,2231],[42,-9],[51,-16],[24,-10],[24,-6]],[[3894,2190],[6,-10]],[[3900,2180],[12,-16],[18,4],[18,0],[12,9],[21,13],[18,13],[15,6],[15,-3],[15,-19],[15,0],[27,16],[10,1]],[[1759,2053],[3,9],[21,23],[21,22],[21,41],[21,23],[21,12],[30,20],[45,19],[12,9],[15,3],[18,13],[24,6],[9,7]],[[2531,2012],[6,19],[9,12],[21,13],[15,16],[3,19],[12,19],[27,16],[6,13],[15,32],[12,32],[3,19],[12,6]],[[2480,1996],[27,3],[24,13]],[[2128,2263],[12,-10],[21,-3],[15,-6],[15,-16],[30,-13],[15,-16],[24,-19],[36,-16],[12,-12],[18,-45],[25,-48],[12,-19],[15,-9],[18,-4],[15,-6],[24,-6],[12,0],[6,-13],[27,-6]],[[1783,1992],[-12,23],[-12,38]],[[2029,1938],[6,54],[3,20],[-6,57],[0,35],[-6,19],[0,16],[6,29],[0,22],[-9,16],[-3,12],[3,35],[-3,7]],[[1242,1926],[12,5]],[[1254,1931],[9,4],[48,13],[21,9],[21,13],[21,19],[15,7],[15,6],[43,0],[36,13],[18,0],[21,-10],[18,-6],[30,3],[42,6],[18,4],[33,9],[21,13],[36,9]],[[1242,1926],[-3,18]],[[1233,2303],[0,27]],[[1239,1944],[-3,17],[-6,25],[-15,38],[-3,16],[-3,29],[6,28],[15,42],[-3,16],[-15,28],[0,10],[9,22],[12,23],[3,19],[-3,28],[0,18]],[[3309,2288],[-18,-12],[-6,-13],[-2,-10]],[[3283,2253],[-4,-19],[-9,-79],[-15,-48],[-3,-19],[0,-32],[-9,-25],[9,-23],[0,-12],[-9,-23],[-3,-16],[-7,-19],[0,-19],[-18,-32]],[[1909,1821],[-3,12],[-3,26],[-9,12],[-24,10],[-18,13],[-15,9],[-33,51],[-12,19],[-9,19]],[[1198,1887],[5,13],[9,10],[24,9],[6,7]],[[1149,1801],[6,7],[15,32],[24,16],[3,9],[0,19],[1,3]],[[2209,1773],[-9,25],[-15,23],[-33,28],[-36,22],[-9,26],[-15,6],[-27,32],[-18,3],[-18,0]],[[789,1674],[15,16],[18,0],[33,-13],[18,7],[27,-7],[18,3],[24,23],[6,0],[21,0],[15,3],[24,22],[24,16],[27,3],[24,10],[27,22],[39,22]],[[3215,1887],[-3,-3],[-15,-48],[-15,-38],[-9,-25],[-12,-29],[-24,-32],[-6,-16],[0,-22],[-9,-64],[-6,-19],[-9,-22],[-6,-25],[-6,-13]],[[3095,1531],[-24,0],[-39,6]],[[3032,1537],[-18,0],[-18,-3],[-21,0],[-24,10],[-27,6],[-57,-3],[-36,-10],[-39,-19],[-33,-9],[-39,-4],[-33,10],[-39,16],[-36,19],[-9,3],[-27,-3],[-9,-3],[-27,-26],[-6,-25],[-30,3]],[[2504,1499],[-27,-6],[-30,3],[-21,19],[-15,6],[-21,0],[-21,-9],[-27,-16],[-31,-19],[-21,-13],[-21,-6]],[[2269,1458],[-12,16],[3,25],[6,35],[9,25],[6,29],[-6,19],[3,38],[-6,13],[-15,16],[-15,16],[-15,6],[-3,10],[-3,22],[-15,32],[3,13]],[[311,1448],[-3,16],[3,19],[-6,35],[-15,19],[-3,26],[-9,41],[-15,19],[-9,19],[-9,26],[-18,32],[-12,19],[-6,25],[-3,26],[-6,15],[-21,45],[-30,80],[-9,12],[-45,32],[-24,19],[-30,32],[-41,33]],[[1972,1445],[-3,6],[-14,13]],[[1955,1464],[-4,3],[-15,22],[-9,26],[-6,44],[-6,26],[-15,38],[-3,26],[9,44],[-3,29],[3,41],[3,58]],[[1972,1432],[0,13]],[[2269,1458],[-21,-4],[-42,-19],[-21,-6]],[[1990,1446],[-6,2],[-12,-3]],[[2185,1429],[-39,-6],[-42,3],[-60,6],[-18,3],[-36,11]],[[1798,1452],[-24,-7],[-9,0],[-2,1]],[[1972,1445],[-21,8]],[[1763,1446],[-28,12],[-12,0],[-12,-7],[-30,-25],[-24,-7],[-9,-6]],[[1951,1453],[-3,1],[-27,-6],[-9,3],[-27,16],[-27,0],[-18,-3],[-42,-12]],[[3095,1531],[9,-7],[18,0],[6,-3],[12,-32],[0,-19],[0,-19],[12,-32],[-3,-16]],[[341,1391],[-6,25],[-10,14]],[[325,1430],[-14,18]],[[344,1384],[32,27]],[[376,1411],[1,2],[12,6],[27,7],[21,9],[27,16],[15,-3],[12,-9],[31,3],[15,16],[39,12],[12,10],[15,16],[15,9],[42,42],[24,16],[9,16],[0,19],[9,12],[24,7],[21,9],[12,23],[9,3],[18,13],[3,9]],[[344,1384],[-3,7]],[[332,1356],[3,12],[9,16]],[[1414,1265],[-4,-8]],[[1639,1407],[-42,-19],[-12,-10],[-66,-51],[-30,-13],[-21,-22],[-27,-3],[-25,-19],[-2,-5]],[[1410,1257],[-5,-10]],[[1405,1247],[-4,-6],[-12,-6],[-30,3],[-9,-3]],[[3116,1212],[3,32],[-6,35],[0,19],[-6,39],[3,38],[12,22],[12,6],[15,0]],[[1964,1416],[8,16]],[[1867,1187],[-3,13],[6,28],[0,23],[-6,12],[3,20],[-3,9],[12,32],[6,25],[9,16],[15,3],[33,23],[21,19],[4,6]],[[1350,1235],[-18,-13],[-18,0],[-15,-19],[-6,-16],[-12,-10],[-18,0],[-42,0],[-21,0]],[[344,1384],[24,-12],[18,0],[15,-10],[6,-1]],[[407,1361],[18,-5],[27,-16],[21,-22],[21,-13],[31,-13],[27,-9],[30,0],[15,-10],[9,-32],[9,-19],[30,-35],[24,-19],[3,-10]],[[303,1318],[11,3],[12,22],[6,13]],[[0,1134],[14,15],[21,9],[24,-6],[21,3],[24,7],[21,9],[12,6],[9,26],[12,9],[21,10],[30,22],[63,58],[18,12],[13,4]],[[1200,1177],[-21,-9],[-60,-13],[-48,-13],[-39,-15],[-24,-4],[-21,4],[-24,-4],[-21,0],[-72,-22],[-21,-9],[-18,0],[-18,12],[-27,35],[-18,16],[-30,0],[-12,-6],[-12,0],[-15,6],[-27,3]],[[1939,878],[12,16],[6,13],[-3,9],[-15,16],[-9,35],[-27,26],[-18,35],[-21,32],[-9,22],[-3,16],[6,29],[0,19],[6,25],[3,16]],[[672,1158],[3,-6],[-9,-25],[-18,-61],[-12,-45],[0,-19],[12,-19],[-12,-41],[-3,-22],[3,-16],[12,-19],[3,-19],[3,-20],[-15,-41],[3,-16],[3,-9]],[[645,780],[6,-23],[9,-12],[12,-7]],[[2696,745],[21,12],[18,3],[30,-6],[72,0],[30,-13],[21,0],[24,4],[21,-13],[9,3],[12,6],[3,10],[-6,25],[-3,29],[6,16],[21,45],[18,15],[9,23],[9,35],[9,12],[24,20],[21,19],[15,19],[12,28],[18,29],[0,19],[0,29],[6,25],[-6,38],[6,35]],[[672,738],[30,-6],[27,3],[51,-3],[27,-10],[21,0],[39,-38],[15,-6],[18,3]],[[1903,554],[15,79],[0,19],[-3,29],[-12,32],[-3,16],[3,19],[15,38],[9,25],[3,29],[-3,22],[12,16]],[[1903,547],[0,7]],[[1882,426],[18,22],[-3,42],[6,57]],[[900,681],[9,-6],[27,-13],[51,-67],[15,-16],[39,-48],[24,-32],[12,-19],[21,-22],[12,-10],[42,-54],[21,-19]],[[2728,525],[13,9],[9,13],[-2,11]],[[2456,318],[27,16],[15,29],[24,19],[12,9],[9,22],[45,20],[45,31],[21,20],[12,9],[57,29],[5,3]],[[2748,558],[-1,8],[-15,38],[-12,48],[-15,19],[-9,23],[-3,19],[6,28],[-3,4]],[[1801,302],[15,35],[12,22],[39,48],[15,19]],[[1882,426],[15,-19],[27,-35],[18,-16],[21,-9],[27,-7],[27,3],[21,10],[18,3],[33,-22],[39,-6],[54,-13],[24,-10],[30,-12],[24,-20],[9,-12],[24,-10],[18,-13],[15,-28],[13,3],[9,13],[12,31],[9,10],[42,22],[33,19],[12,10]],[[1536,0],[10,6],[9,10],[42,31],[51,45],[63,57],[12,23],[12,28],[30,35],[21,22],[9,23],[6,22]],[[1173,375],[6,-6],[12,-29],[18,-22],[27,-29],[15,-19],[24,-48],[3,-15],[3,-29],[0,-10],[-9,-22],[6,-35],[-3,-19],[3,-19],[18,-32],[9,-32],[5,-9]],[[4096,4096],[0,-4096],[-4096,0],[0,4096],[4096,0]],[[189,3775],[16,46],[32,13],[5,81],[-28,33],[3,7],[42,-12],[-4,46],[32,-13],[17,38],[2,-11],[9,-3],[1,-9],[4,-1],[1,23],[5,-14],[16,-3],[-8,24],[17,-20],[47,20],[102,-123],[18,-84],[-66,-1],[-189,-159],[-43,115],[-31,7]],[[157,1086],[48,35],[74,-36],[-21,90],[26,21],[-7,31],[32,-35],[-20,-5],[11,-41],[30,-31],[62,15],[54,-96],[-212,15],[-14,-31],[-59,19],[-4,49]],[[2592,3667],[34,22],[-16,95],[44,92],[-9,52],[83,26],[100,-19],[-4,-51],[-36,-7],[-43,-64],[11,-27],[-38,-31],[-8,-59],[-89,-44],[-29,15]],[[1425,1241],[-32,9],[8,16],[22,-1],[2,-24]],[[325,1430],[61,-22],[25,-57],[-38,-50],[-73,18],[-55,71],[25,38],[55,2]],[[1967,1413],[-23,22],[14,35],[33,-23],[-24,-34]],[[1250,1945],[13,-52],[-57,-21],[-32,64],[76,9]],[[3318,2314],[0,-61],[-81,0],[40,78],[41,-17]],[[1233,2303],[-43,19],[73,43],[-13,-56],[-17,-6]],[[1320,2759],[-36,2],[-13,24],[35,8],[14,-34]],[[2482,2881],[6,30],[29,-6],[-21,-21],[-14,-3]],[[1471,2933],[-22,6],[22,24],[11,-6],[-11,-24]],[[2161,3060],[20,-34],[-51,-13],[-18,55],[49,-8]],[[2183,3271],[75,-98],[-95,-78],[-121,3],[-18,116],[159,57]],[[1513,3517],[-21,23],[30,8],[-9,-31]],[[2347,3555],[-32,11],[5,33],[51,-25],[-24,-19]],[[0,3952],[29,11],[200,133],[664,0],[32,-51],[-21,-37],[-43,3],[-37,-56],[-25,33],[-98,-45],[68,-215],[-11,-65],[-48,-57],[-95,-50],[-13,-103],[-89,5],[23,-51],[-20,-41],[130,-242],[-57,-75],[-132,96],[-52,-2],[-41,47],[-65,-49],[2,-51],[-44,-24],[-36,-82],[-6,-60],[22,-27],[-40,-73],[-1,-95],[-196,-3],[0,1226]],[[0,2141],[61,-31],[-61,-50],[0,81]],[[1757,1390],[25,35],[-12,3],[-7,18],[32,6],[95,-24],[13,-24],[-62,-24],[-84,10]],[[0,3183],[90,20],[18,44],[59,12],[38,44],[55,-8],[24,-79],[-71,-108],[0,-45],[-23,-40],[-66,-24],[-18,-65],[-48,-46],[-58,8],[0,287]],[[2681,0],[436,484],[34,4],[62,-56],[95,-13],[101,-75],[-342,-344],[-386,0]],[[2324,156],[40,24],[87,-5],[-5,59],[104,72],[88,22],[3,69],[90,75],[-4,65],[69,67],[28,-35],[195,76],[26,-84],[71,-73],[-435,-488],[-262,0],[27,17],[-82,46],[10,27],[-50,66]],[[0,3243],[0,161],[60,1],[-7,-106],[-39,-54],[-14,-2]],[[652,7],[41,90],[88,-73],[-11,-24],[-118,7]]]}