{"objects":{"water":{"type":"GeometryCollection","geometries":[{"type":"Polygon","properties":{"source":"naturalearthdata.com","kind":"ocean","area":1576712559132672,"sort_rank":200,"min_zoom":0.0,"id":1},"arcs":[[352],[353]]},{"type":"Polygon","properties":{"kind":"lake","name":"Vaal Dam","reservoir":true,"area":522838400,"sort_rank":200,"source":"naturalearthdata.com","min_zoom":0.0,"id":1222},"arcs":[[354]]},{"type":"Point","properties":{"label_placement":true,"kind":"lake","name":"Vaal Dam","reservoir":true,"area":522838400,"sort_rank":200,"source":"naturalearthdata.com","min_zoom":0.0,"id":1222},"coordinates":[43,47]},{"type":"LineString","properties":{"source":"naturalearthdata.com","kind":"ocean","sort_rank":205,"boundary":true,"min_zoom":0.0,"id":44},"arcs":[355]},{"type":"MultiLineString","properties":{"source":"naturalearthdata.com","kind":"lake","reservoir":true,"sort_rank":367,"boundary":true,"min_zoom":0.0,"id":1222},"arcs":[[356],[357],[358],[359],[360]]},{"type":"LineString","properties":{"source":"naturalearthdata.com","kind":"ocean","sort_rank":205,"boundary":true,"min_zoom":0.0,"id":1357},"arcs":[361]}]},"buildings":{"type":"GeometryCollection","geometries":[]},"places":{"type":"GeometryCollection","geometries":[{"type":"Point","properties":{"name:kg":"Swati","name:ia":"Swazilandia","name:pt":"Suazil\u00e2ndia","name:ps":"\u0633\u0648\u0627\u0632\u064a\u0644\u0627\u0646\u0689","name:ka":"\u10e1\u10d5\u10d0\u10d6\u10d8\u10da\u10d4\u10dc\u10d3\u10d8","name:mt":"Swa\u017ciland","name:ko":"\uc2a4\uc640\uc9c8\ub79c\ub4dc","name:kn":"\u0cb8\u0ccd\u0cb5\u0cbe\u0c9c\u0cbf\u0cb2\u0ccd\u0caf\u0cbe\u0c82\u0ca1\u0ccd","name:km":"\u179f\u17bc\u17a0\u17d2\u179f\u17c9\u17b8\u17a1\u1784\u17cb","name:kl":"Swazilandi","name:cs":"Svazijsko","alt_name:eo":"Svaziujo","name:ki":"Uswazi","name:kw":"Pow Swati","name:tk":"Swazilend","name:ku":"Swaz\u00eeland","name:ti":"\u1231\u12cb\u12da\u120b\u1295\u12f5","name:ks":"\u0633\u064f\u0648\u0632\u0650\u0644\u06cc\u0646\u065b\u0691","name:to":"Suasileni","name:tl":"Suwasilandya","name:zh-min-nan":"Swazi-t\u0113","name:os":"\u0421\u0432\u0430\u0437\u0438\u043b\u0435\u043d\u0434","name:or":"\u0b38\u0b4d\u0b2c\u0b3e\u0b1c\u0b3f\u0b32\u0b3e\u0b23\u0b4d\u0b21","name:pl":"Suazi","name:ta":"\u0bb8\u0bcd\u0bb5\u0bbe\u0bb8\u0bbf\u0bb2\u0bbe\u0ba3\u0bcd\u0b9f\u0bcd","name:tg":"\u0421\u0432\u0430\u0437\u0438\u043b\u0435\u043d\u0434","name:ca":"Swazil\u00e0ndia","name:te":"\u0c38\u0c4d\u0c35\u0c3e\u0c1c\u0c40\u0c32\u0c47\u0c02\u0c21\u0c4d","name:cy":"Gwlad Swazi","name:hr":"Svazi","name:ln":"Swazilandi","name:de":"Swasiland","name:dz":"\u0f66\u0f74\u0f0b\u0f5d\u0f0b\u0f5b\u0f72\u0f0b\u0f63\u0f7a\u0f53\u0f4c","source":"openstreetmap.org","name:yo":"Or\u00edl\u1eb9\u0301\u00e8de Sa\u1e63iland","name:pa":"\u0a38\u0a35\u0a3e\u0a1c\u0a3c\u0a40\u0a32\u0a48\u0a02\u0a21","name:dv":"\u0790\u07aa\u0788\u07a7\u0792\u07a8\u078d\u07ad\u0782\u07b0\u0791\u07aa","name:lv":"Svazilenda","name:lt":"Svazilandas","name:uz":"Svazilend","name:kk":"\u0421\u0443\u0430\u0437\u0438\u043b\u0430\u043d\u0434","name:he":"\u05e1\u05d5\u05d5\u05d6\u05d9\u05dc\u05e0\u05d3","min_zoom":2.0,"kind":"country","name:ur":"\u0633\u0648\u0627\u0632\u06cc \u0644\u06cc\u0646\u0688","name:lb":"Swasiland","name:la":"Suazia","name:lg":"Swazirandi","name:uk":"\u0421\u0432\u0430\u0437\u0456\u043b\u0435\u043d\u0434","name:hy":"\u054d\u057e\u0561\u0566\u056b\u056c\u0565\u0576\u0564","name:ug":"\u0633\u06cb\u0627\u0632\u0649\u0644\u06d0\u0646\u062f","name:hu":"Szv\u00e1zif\u00f6ld","name:qu":"Swasisuyu","name:lo":"\u0eaa\u0eb0\u0ea7\u0eb2\u0e8a\u0eb4\u0ec1\u0ea5\u0e99","population":1370424,"name:el":"\u03a3\u03bf\u03c5\u03b1\u03b6\u03b9\u03bb\u03ac\u03bd\u03b4\u03b7","name:eo":"Svazilando","name":"Swaziland","official_name":"Kingdom of Swaziland;Umbuso weSwatini","name:ee":"Swaziland nutome","name:th":"\u0e1b\u0e23\u0e30\u0e40\u0e17\u0e28\u0e2a\u0e27\u0e32\u0e0b\u0e34\u0e41\u0e25\u0e19\u0e14\u0e4c","name:eu":"Swazilandia","name:et":"Svaasimaa","name:es":"Suazilandia","name:ay":"Suas\u00efsuiu","name:yi":"\u05e1\u05d5\u05d5\u05d0\u05d6\u05d9\u05dc\u05d0\u05e0\u05d3","name:rn":"Suwazilandi","name:az":"svazil\u0259nd","name:mr":"\u0938\u094d\u0935\u093e\u091d\u093f\u0932\u0901\u0921","name:nv":"Sw\u00e1azi Dine\u02bc\u00e9 Bik\u00e9yah","name:ar":"\u0633\u0648\u0627\u0632\u064a\u0644\u0646\u062f","name:my":"\u1006\u103d\u102c\u1007\u102e\u101c\u1014\u103a\u1014\u102d\u102f\u1004\u103a\u1004\u1036","name:io":"Swazilando","name:is":"Svas\u00edland","name:am":"\u1231\u12cb\u12da\u120b\u1295\u12f5","name:ve":"Swazini","name:an":"Swazilandia","name:ru":"\u0421\u0432\u0430\u0437\u0438\u043b\u0435\u043d\u0434","name:rw":"Swazilande","id":424310680,"name:mk":"\u0421\u0432\u0430\u0437\u0438\u043b\u0435\u043d\u0434","name:vo":"Svasiy\u00e4n","name:zu":"i-Swaziland","name:ha":"Suwazilan","name:mn":"\u0421\u0432\u0430\u0437\u0438\u043b\u0430\u043d\u0434","name:ff":"Swaasilannda","name:fi":"Swazimaa","name:hi":"\u0938\u0941\u0906\u091c\u0940\u0932\u0948\u0902\u0921","name:mg":"Soazilandy","name:fo":"Svasiland","name:wo":"Suwaasilaand","name:zh-yue":"\u65af\u5a01\u58eb\u862d","name:fy":"Swazil\u00e2n","name:zh":"\u65af\u5a01\u58eb\u5170","name:gv":"Yn \u00c7heer Swassee","name:so":"Iswaasilaand","name:sr":"\u0421\u0432\u0430\u0437\u0438\u043b\u0435\u043d\u0434","name:sl":"Svazi","name:sk":"Svazijsko","name:ja":"\u30b9\u30ef\u30b8\u30e9\u30f3\u30c9","name:si":"\u0dc3\u0dca\u0dc0\u0dcf\u0dc3\u0dd2\u0dbd\u0db1\u0dca\u0dad\u0dba","name:sh":"Svazilend","name:sg":"Sw\u00e4z\u00efl\u00e2nde","name:se":"Svazieana","name:ne":"\u0938\u094d\u0935\u093e\u091c\u093f\u0932\u094d\u092f\u093e\u0923\u094d\u0921","name:sa":"\u0938\u094d\u0935\u093e\u091c\u0940\u0932\u0948\u0902\u0921","name:bs":"Svazilend","name:bm":"Swazilandi","name:bn":"\u09b8\u09cb\u09af\u09bc\u09be\u099c\u09bf\u09b2\u09cd\u09af\u09be\u09a8\u09cd\u09a1","name:bo":"\u0f66\u0f74\u0f0b\u0f5d\u0f0b\u0f5b\u0f72\u0f0b\u0f63\u0f53\u0f4c\u0f0d","name:ml":"\u0d38\u0d4d\u0d35\u0d3e\u0d38\u0d3f\u0d32\u0d3e\u0d7b\u0d31\u0d4d","name:sw":"Uswazi","name:be":"\u0421\u0432\u0430\u0437\u0456\u043b\u0435\u043d\u0434","name:bg":"\u0421\u0443\u0430\u0437\u0438\u043b\u0435\u043d\u0434","name:ss":"Umbuso weSwatini","name:ba":"\u0421\u0432\u0430\u0437\u0438\u043b\u0435\u043d\u0434","name:sq":"Svaziland\u00eb","name:ga":"An tSuasalainn","name:gd":"Suasalainn","name:ht":"Swazilann","name:gl":"Suacilandia","name:fa":"\u0633\u0648\u0627\u0632\u06cc\u0644\u0646\u062f","name:tr":"Svaziland","name:gu":"\u0ab8\u0acd\u0ab5\u0abe\u0a9d\u0abf\u0ab2\u0ac7\u0aa8\u0acd\u0aa1","name:tt":"\u0421\u0432\u0430\u0437\u0438\u043b\u0435\u043d\u0434"},"coordinates":[2384,398]},{"type":"Point","properties":{"kind":"region","name:short":"MP","name":"Mpumalanga","kind_detail":"state","source":"openstreetmap.org","min_zoom":4.0,"name:ru":"\u041c\u043f\u0443\u043c\u0430\u043b\u0430\u043d\u0433\u0430","id":474842919,"name:ja":"\u30e0\u30d7\u30de\u30e9\u30f3\u30ac\u5dde"},"coordinates":[1475,626]},{"type":"Point","properties":{"source":"openstreetmap.org","kind":"region","name":"Maputo","kind_detail":"state","min_zoom":4.0,"id":2651758329},"coordinates":[3155,1213]},{"type":"Point","properties":{"source":"openstreetmap.org","kind":"region","name":"Gaza","kind_detail":"state","name:hu":"G\u00e1za","min_zoom":4.0,"id":2651758326},"coordinates":[3409,2987]},{"type":"Point","properties":{"kind":"region","name:short":"LP","name":"Limpopo","kind_detail":"state","source":"openstreetmap.org","min_zoom":4.0,"name:ru":"\u041b\u0438\u043c\u043f\u043e\u043f\u043e","id":474842931,"name:ja":"\u30ea\u30f3\u30dd\u30dd\u5dde"},"coordinates":[925,2871]},{"type":"Point","properties":{"source":"naturalearthdata.com","kind":"locality","name":"Maputo","country_capital":true,"population":1446000,"min_zoom":5.0,"id":6869},"coordinates":[3249,885]},{"type":"Point","properties":{"source":"naturalearthdata.com","kind":"locality","name":"Pretoria","country_capital":true,"population":1338000,"min_zoom":5.0,"id":6859},"coordinates":[75,1084]},{"type":"Point","properties":{"source":"naturalearthdata.com","kind":"locality","name":"Xai-Xai","population":128805,"region_capital":true,"min_zoom":5.0,"id":6340},"coordinates":[4016,1617]},{"type":"Point","properties":{"source":"naturalearthdata.com","kind":"locality","name":"Mbabane","country_capital":true,"population":90138,"min_zoom":5.0,"id":6304},"coordinates":[2191,594]},{"type":"Point","properties":{"source":"naturalearthdata.com","kind":"locality","name":"Benoni","population":2986000,"min_zoom":6.0,"id":5002},"coordinates":[148,730]},{"type":"Point","properties":{"source":"naturalearthdata.com","kind":"locality","name":"Thohoyandou","population":269707,"min_zoom":6.0,"id":5696},"coordinates":[1715,3290]},{"type":"Point","properties":{"source":"naturalearthdata.com","kind":"locality","name":"Polokwane","population":220045,"region_capital":true,"min_zoom":6.0,"id":5695},"coordinates":[965,2537]},{"type":"Point","properties":{"source":"naturalearthdata.com","kind":"locality","name":"Musina","population":20191,"min_zoom":6.0,"id":5697},"coordinates":[1387,3778]},{"type":"Point","properties":{"source":"naturalearthdata.com","kind":"locality","name":"Lobamba","country_capital":true,"population":9782,"min_zoom":6.0,"id":4940},"coordinates":[2239,474]}]},"transit":{"type":"GeometryCollection","geometries":[{"type":"LineString","properties":{"kind":"train","network":"Metrorail Gauteng","sort_rank":275,"source":"openstreetmap.org","min_zoom":6.0,"operator":"Metrorail","osm_relation":true,"name":"George Goch\u2013Johannesburg\u2013Naledi"},"arcs":[182]},{"type":"MultiLineString","properties":{"osm_relation":true,"source":"openstreetmap.org","kind":"train","name":"Johannesburg\u2013East London","sort_rank":275,"min_zoom":6.0,"operator":"Shosholoza Meyl"},"arcs":[[183],[184],[185],[186]]},{"type":"MultiLineString","properties":{"kind":"train","network":"Metrorail Gauteng","sort_rank":275,"source":"openstreetmap.org","min_zoom":6.0,"operator":"Metrorail","osm_relation":true,"name":"Germiston\u2013Kutalo\u2013Kwesine"},"arcs":[[187],[188]]},{"type":"MultiLineString","properties":{"kind":"train","name":"Pretoria\u2013Pienaarspoort","sort_rank":275,"source":"openstreetmap.org","min_zoom":6.0,"operator":"Metrorail","osm_relation":true,"network":"Metrorail Gauteng"},"arcs":[[189],[190],[191],[192]]},{"type":"MultiLineString","properties":{"kind":"train","network":"Metrorail Gauteng","sort_rank":275,"source":"openstreetmap.org","min_zoom":6.0,"operator":"Metrorail","osm_relation":true,"name":"Germiston\u2013President\u2013Kwesine"},"arcs":[[193],[194],[195]]},{"type":"MultiLineString","properties":{"kind":"train","name":"Germiston\u2013Vereeniging","sort_rank":275,"source":"openstreetmap.org","min_zoom":6.0,"operator":"Metrorail","osm_relation":true,"network":"Metrorail Gauteng"},"arcs":[[196],[197],[198]]},{"type":"MultiLineString","properties":{"kind":"train","network":"Metrorail Gauteng","sort_rank":275,"source":"openstreetmap.org","min_zoom":6.0,"operator":"Metrorail","osm_relation":true,"name":"Johannesburg\u2013Leralla"},"arcs":[[199],[200],[201]]},{"type":"MultiLineString","properties":{"kind":"train","network":"Metrorail Gauteng","sort_rank":275,"source":"openstreetmap.org","min_zoom":6.0,"operator":"Metrorail","osm_relation":true,"name":"Pretoria\u2013Mabopane"},"arcs":[[202],[203],[204],[205],[206],[207],[208],[209],[210],[211],[212],[213],[214],[215],[216],[217],[218],[219],[220],[221],[222],[223],[224],[225],[226],[227],[228],[229],[230],[231],[232],[233],[234],[235],[236],[237],[238],[239],[240],[241],[242],[243],[244],[245],[246]]},{"type":"LineString","properties":{"source":"openstreetmap.org","kind":"train","name":"Train: Chicualacuala\u2013Gweru","sort_rank":275,"min_zoom":6.0,"osm_relation":true,"id":-5419655},"arcs":[247]},{"type":"LineString","properties":{"kind":"train","network":"Metrorail Gauteng","sort_rank":275,"source":"openstreetmap.org","min_zoom":6.0,"operator":"Metrorail","id":-1112481,"osm_relation":true,"name":"Springs\u2013Nigel"},"arcs":[248]},{"type":"LineString","properties":{"kind":"train","name":"Pride of Africa","sort_rank":275,"source":"openstreetmap.org","min_zoom":6.0,"operator":"Rovos Rail","id":-959889,"osm_relation":true},"arcs":[249]},{"type":"MultiLineString","properties":{"kind":"train","name":"Hercules\u2013Pienaarspoort","sort_rank":275,"source":"openstreetmap.org","min_zoom":6.0,"operator":"Metrorail","osm_relation":true,"network":"Metrorail Gauteng"},"arcs":[[250],[251],[252]]},{"type":"LineString","properties":{"kind":"train","name":"George Goch\u2013Johannesburg\u2013Vereeniging","sort_rank":275,"source":"openstreetmap.org","min_zoom":6.0,"operator":"Metrorail","osm_relation":true,"network":"Metrorail Gauteng"},"arcs":[253]},{"type":"MultiLineString","properties":{"source":"openstreetmap.org","kind":"train","name":"Train: Johannesburg\u2013Maputo","sort_rank":275,"min_zoom":6.0,"osm_relation":true},"arcs":[[254],[255],[256],[257],[258],[259],[260],[261],[262],[263]]},{"type":"MultiLineString","properties":{"kind":"train","name":"Pretoria\u2013Saulsville","sort_rank":275,"source":"openstreetmap.org","min_zoom":6.0,"operator":"Metrorail","osm_relation":true,"network":"Metrorail Gauteng"},"arcs":[[264],[265],[266],[267],[268],[269],[270],[271],[272],[273],[274],[275]]},{"type":"MultiLineString","properties":{"kind":"train","name":"Johannesburg\u2013Springs","sort_rank":275,"source":"openstreetmap.org","min_zoom":6.0,"operator":"Metrorail","osm_relation":true,"network":"Metrorail Gauteng"},"arcs":[[276],[277]]},{"type":"LineString","properties":{"kind":"train","name":"Airport Line","sort_rank":275,"colour":"yellow","source":"openstreetmap.org","min_zoom":6.0,"network":"Gautrain","osm_relation":true,"colour_name":"yellow"},"arcs":[278]},{"type":"MultiLineString","properties":{"kind":"train","name":"Tshwane Business Express","sort_rank":275,"source":"openstreetmap.org","min_zoom":6.0,"operator":"Metrorail","osm_relation":true,"network":"Metrorail Gauteng"},"arcs":[[279],[280],[281]]},{"type":"MultiLineString","properties":{"osm_relation":true,"source":"openstreetmap.org","kind":"train","name":"Johannesburg\u2013Port Elizabeth","sort_rank":275,"min_zoom":6.0,"operator":"Shosholoza Meyl"},"arcs":[[282],[283],[284],[285]]},{"type":"MultiLineString","properties":{"source":"openstreetmap.org","kind":"train","name":"Train: Maputo\u2013Chicualacuala","sort_rank":275,"min_zoom":6.0,"osm_relation":true},"arcs":[[286],[287],[288],[289]]},{"type":"MultiLineString","properties":{"kind":"train","name":"Germiston\u2013New Canada","sort_rank":275,"source":"openstreetmap.org","min_zoom":6.0,"operator":"Metrorail","osm_relation":true,"network":"Metrorail Gauteng"},"arcs":[[290],[291],[292]]},{"type":"MultiLineString","properties":{"kind":"train","network":"Metrorail Gauteng","sort_rank":275,"source":"openstreetmap.org","min_zoom":6.0,"operator":"Metrorail","osm_relation":true,"name":"Belle Ombre\u2013Mabopane"},"arcs":[[293],[294],[295],[296],[297],[298]]},{"type":"MultiLineString","properties":{"kind":"train","name":"Johannesburg\u2013Pretoria","sort_rank":275,"source":"openstreetmap.org","min_zoom":6.0,"operator":"Metrorail","osm_relation":true,"network":"Metrorail Gauteng"},"arcs":[[299],[300],[301]]},{"type":"LineString","properties":{"kind":"train","network":"Gautrain","sort_rank":275,"colour":"blue","name":"East-West Commuter Line","source":"openstreetmap.org","min_zoom":6.0,"operator":"Bombela Consession","osm_relation":true,"colour_name":"blue"},"arcs":[302]},{"type":"MultiLineString","properties":{"kind":"train","name":"Pretoria\u2013De Wildt","sort_rank":275,"source":"openstreetmap.org","min_zoom":6.0,"operator":"Metrorail","osm_relation":true,"network":"Metrorail Gauteng"},"arcs":[[303],[304],[305],[306],[307],[308],[309],[310],[311],[312],[313],[314],[315],[316],[317],[318],[319],[320],[321],[322],[323],[324],[325],[326],[327],[328],[329],[330],[331],[332],[333],[334],[335],[336],[337],[338],[339],[340],[341],[342],[343],[344],[345],[346],[347]]},{"type":"MultiLineString","properties":{"kind":"train","network":"Gautrain","sort_rank":275,"colour":"red","name":"North-South Commuter Line","source":"openstreetmap.org","min_zoom":6.0,"osm_relation":true,"colour_name":"red"},"arcs":[[348],[349]]},{"type":"MultiLineString","properties":{"kind":"train","network":"Metrorail Gauteng","sort_rank":275,"source":"openstreetmap.org","min_zoom":6.0,"operator":"Metrorail","osm_relation":true,"name":"Johannesburg\u2013Daveyton"},"arcs":[[350],[351]]}]},"pois":{"type":"GeometryCollection","geometries":[{"type":"Point","properties":{"kind":"nature_reserve","name":"Limpopo National Park","area":13148800000,"name:pt":"Parque Nacional do Limpopo","name:de":"Nationalpark Limpopo","source":"openstreetmap.org","min_zoom":5.45,"tier":2,"id":-2454811,"osm_relation":true,"name:af":"Limpopo Nasionale Park"},"coordinates":[2766,3001]},{"type":"Point","properties":{"name:pt":"Parque Nacional Kruger","name:ro":"Parcul Na\u021bional Kruger","name:nl":"Nationaal park Kruger","name:cs":"Kruger\u016fv n\u00e1rodn\u00ed park","min_zoom":5.05,"name:it":"Parco nazionale Kruger","tier":2,"id":-1752987,"osm_relation":true,"name:af":"Nasionale Krugerwildtuin","kind":"nature_reserve","name":"Kruger National Park","area":22884000000,"name:de":"Kr\u00fcger-Nationalpark","source":"openstreetmap.org","name:fr":"Parc national Kruger","name:es":"Parque Nacional Kruger"},"coordinates":[2451,2517]}]},"boundaries":{"type":"GeometryCollection","geometries":[{"type":"MultiLineString","properties":{"source":"naturalearthdata.com","kind":"country","sort_rank":262,"kind_detail":"2","min_zoom":0.0,"id":369},"arcs":[[0],[1],[2],[3]]},{"type":"LineString","properties":{"source":"naturalearthdata.com","kind":"country","sort_rank":262,"kind_detail":"2","min_zoom":0.0,"id":386},"arcs":[4]},{"type":"MultiLineString","properties":{"source":"naturalearthdata.com","kind":"country","sort_rank":262,"kind_detail":"2","min_zoom":0.0,"id":140},"arcs":[[5],[6],[7]]},{"type":"LineString","properties":{"source":"naturalearthdata.com","kind":"country","sort_rank":262,"kind_detail":"2","min_zoom":0.0,"id":162},"arcs":[8]},{"type":"MultiLineString","properties":{"source":"naturalearthdata.com","kind":"country","sort_rank":262,"kind_detail":"2","min_zoom":0.0,"id":264},"arcs":[[9],[10],[11],[12],[13],[14],[15],[16],[17],[18],[19],[20],[21],[22],[23],[24],[25],[26],[27],[28],[29]]},{"type":"MultiLineString","properties":{"source":"naturalearthdata.com","kind":"country","sort_rank":262,"kind_detail":"2","min_zoom":0.0,"id":263},"arcs":[[30],[31],[32],[33],[34],[35],[36],[37],[38]]},{"type":"MultiLineString","properties":{"source":"naturalearthdata.com","kind":"country","sort_rank":262,"kind_detail":"2","min_zoom":0.0,"id":387},"arcs":[[39],[40],[41],[42],[43],[44],[45]]},{"type":"LineString","properties":{"source":"naturalearthdata.com","kind":"country","sort_rank":262,"kind_detail":"2","min_zoom":0.0,"id":373},"arcs":[46]},{"type":"MultiLineString","properties":{"source":"naturalearthdata.com","kind":"region","sort_rank":256,"kind_detail":"4","min_zoom":2.0,"id":1881},"arcs":[[47],[48],[49],[50],[51]]},{"type":"LineString","properties":{"source":"naturalearthdata.com","kind":"region","sort_rank":256,"kind_detail":"4","min_zoom":5.0,"id":160},"arcs":[52]},{"type":"MultiLineString","properties":{"source":"naturalearthdata.com","kind":"region","sort_rank":256,"kind_detail":"4","min_zoom":5.5,"id":621},"arcs":[[53],[54],[55],[56],[57],[58],[59],[60],[61]]},{"type":"MultiLineString","properties":{"source":"naturalearthdata.com","kind":"region","sort_rank":256,"kind_detail":"4","min_zoom":6.8,"id":1780},"arcs":[[62],[63],[64]]},{"type":"MultiLineString","properties":{"source":"naturalearthdata.com","kind":"region","sort_rank":256,"kind_detail":"4","min_zoom":6.8,"id":1781},"arcs":[[65],[66],[67],[68],[69],[70]]},{"type":"MultiLineString","properties":{"source":"naturalearthdata.com","kind":"region","sort_rank":256,"kind_detail":"4","min_zoom":6.8,"id":1782},"arcs":[[71],[72],[73],[74],[75],[76]]},{"type":"LineString","properties":{"source":"naturalearthdata.com","kind":"region","sort_rank":256,"kind_detail":"4","min_zoom":6.8,"id":1783},"arcs":[77]},{"type":"MultiLineString","properties":{"source":"naturalearthdata.com","kind":"region","sort_rank":256,"kind_detail":"4","min_zoom":6.8,"id":1784},"arcs":[[78],[79],[80],[81],[82],[83],[84],[85]]},{"type":"MultiLineString","properties":{"source":"naturalearthdata.com","kind":"region","sort_rank":256,"kind_detail":"4","min_zoom":2.0,"id":1876},"arcs":[[86],[87]]},{"type":"MultiLineString","properties":{"source":"naturalearthdata.com","kind":"region","sort_rank":256,"kind_detail":"4","min_zoom":2.0,"id":1875},"arcs":[[88],[89],[90],[91],[92],[93],[94],[95],[96],[97],[98],[99],[100],[101],[102]]},{"type":"MultiLineString","properties":{"source":"naturalearthdata.com","kind":"region","sort_rank":256,"kind_detail":"4","min_zoom":2.0,"id":1877},"arcs":[[103],[104],[105],[106],[107],[108],[109],[110],[111],[112],[113],[114],[115],[116],[117],[118],[119],[120],[121],[122]]},{"type":"MultiLineString","properties":{"source":"naturalearthdata.com","kind":"region","sort_rank":256,"kind_detail":"4","min_zoom":2.0,"id":1878},"arcs":[[123],[124],[125],[126],[127]]},{"type":"MultiLineString","properties":{"source":"naturalearthdata.com","kind":"region","sort_rank":256,"kind_detail":"4","min_zoom":2.0,"id":1879},"arcs":[[128],[129],[130],[131],[132]]},{"type":"MultiLineString","properties":{"source":"naturalearthdata.com","kind":"region","sort_rank":256,"kind_detail":"4","min_zoom":2.0,"id":1880},"arcs":[[133],[134],[135],[136],[137],[138],[139],[140],[141],[142],[143],[144],[145],[146],[147],[148],[149],[150],[151],[152],[153],[154],[155],[156],[157],[158],[159],[160],[161],[162],[163],[164],[165],[166],[167],[168],[169],[170],[171],[172],[173],[174]]},{"type":"MultiLineString","properties":{"source":"naturalearthdata.com","kind":"region","sort_rank":256,"kind_detail":"4","min_zoom":5.0,"id":2973},"arcs":[[175],[176],[177],[178]]},{"type":"LineString","properties":{"source":"naturalearthdata.com","kind":"region","sort_rank":256,"kind_detail":"4","min_zoom":5.0,"id":2982},"arcs":[179]},{"type":"MultiLineString","properties":{"source":"naturalearthdata.com","kind":"region","sort_rank":256,"kind_detail":"4","min_zoom":5.0,"id":9788},"arcs":[[180],[181]]}]},"roads":{"type":"GeometryCollection","geometries":[{"type":"LineString","properties":{"source":"naturalearthdata.com","kind":"major_road","sort_rank":379,"kind_detail":"secondary","min_zoom":3.0,"id":45525},"arcs":[362]},{"type":"LineString","properties":{"source":"naturalearthdata.com","kind":"major_road","sort_rank":379,"kind_detail":"secondary","min_zoom":4.0,"id":45526},"arcs":[363]},{"type":"LineString","properties":{"source":"naturalearthdata.com","kind":"minor_road","sort_rank":355,"kind_detail":"tertiary","min_zoom":6.0,"id":45549},"arcs":[364]},{"type":"LineString","properties":{"source":"naturalearthdata.com","kind":"major_road","kind_detail":"secondary","sort_rank":379,"landuse_kind":"urban_area","min_zoom":3.0,"id":45573},"arcs":[365]},{"type":"LineString","properties":{"source":"naturalearthdata.com","kind":"major_road","sort_rank":379,"kind_detail":"secondary","min_zoom":3.0,"id":45573},"arcs":[366]},{"type":"LineString","properties":{"source":"naturalearthdata.com","kind":"minor_road","kind_detail":"tertiary","sort_rank":355,"landuse_kind":"nature_reserve","min_zoom":6.0,"id":45632},"arcs":[367]},{"type":"LineString","properties":{"source":"naturalearthdata.com","kind":"minor_road","kind_detail":"tertiary","sort_rank":355,"landuse_kind":"nature_reserve","min_zoom":6.0,"id":45632},"arcs":[368]},{"type":"LineString","properties":{"source":"naturalearthdata.com","kind":"minor_road","kind_detail":"tertiary","sort_rank":355,"landuse_kind":"nature_reserve","min_zoom":6.0,"id":45632},"arcs":[369]},{"type":"MultiLineString","properties":{"source":"naturalearthdata.com","kind":"minor_road","sort_rank":355,"kind_detail":"tertiary","min_zoom":6.0,"id":45632},"arcs":[[370],[371]]},{"type":"LineString","properties":{"source":"naturalearthdata.com","kind":"minor_road","kind_detail":"tertiary","sort_rank":355,"landuse_kind":"urban_area","min_zoom":6.0,"id":45633},"arcs":[372]},{"type":"LineString","properties":{"source":"naturalearthdata.com","kind":"minor_road","sort_rank":355,"kind_detail":"tertiary","min_zoom":6.0,"id":45633},"arcs":[373]},{"type":"LineString","properties":{"source":"naturalearthdata.com","kind":"major_road","kind_detail":"secondary","sort_rank":379,"landuse_kind":"urban_area","min_zoom":3.0,"id":45638},"arcs":[374]},{"type":"LineString","properties":{"source":"naturalearthdata.com","kind":"major_road","sort_rank":379,"kind_detail":"secondary","min_zoom":3.0,"id":45638},"arcs":[375]},{"type":"LineString","properties":{"source":"naturalearthdata.com","kind":"minor_road","kind_detail":"tertiary","sort_rank":355,"landuse_kind":"nature_reserve","min_zoom":6.0,"id":45664},"arcs":[376]},{"type":"LineString","properties":{"source":"naturalearthdata.com","kind":"minor_road","kind_detail":"tertiary","sort_rank":355,"landuse_kind":"nature_reserve","min_zoom":6.0,"id":45674},"arcs":[377]},{"type":"LineString","properties":{"source":"naturalearthdata.com","kind":"minor_road","kind_detail":"tertiary","sort_rank":355,"landuse_kind":"nature_reserve","min_zoom":6.0,"id":45675},"arcs":[378]},{"type":"LineString","properties":{"source":"naturalearthdata.com","kind":"minor_road","kind_detail":"tertiary","sort_rank":355,"landuse_kind":"park","min_zoom":6.0,"id":45685},"arcs":[379]},{"type":"MultiLineString","properties":{"source":"naturalearthdata.com","kind":"minor_road","sort_rank":355,"kind_detail":"tertiary","min_zoom":6.0,"id":45685},"arcs":[[380],[381]]},{"type":"LineString","properties":{"source":"naturalearthdata.com","kind":"minor_road","kind_detail":"tertiary","sort_rank":355,"landuse_kind":"nature_reserve","min_zoom":6.0,"id":45711},"arcs":[382]},{"type":"LineString","properties":{"source":"naturalearthdata.com","kind":"minor_road","kind_detail":"tertiary","sort_rank":355,"landuse_kind":"nature_reserve","min_zoom":6.0,"id":45711},"arcs":[383]},{"type":"MultiLineString","properties":{"source":"naturalearthdata.com","kind":"minor_road","sort_rank":355,"kind_detail":"tertiary","min_zoom":6.0,"id":45711},"arcs":[[384],[385]]},{"type":"LineString","properties":{"source":"naturalearthdata.com","kind":"major_road","kind_detail":"secondary","sort_rank":379,"landuse_kind":"urban_area","min_zoom":3.0,"id":45744},"arcs":[386]},{"type":"LineString","properties":{"source":"naturalearthdata.com","kind":"major_road","sort_rank":379,"kind_detail":"secondary","min_zoom":3.0,"id":45744},"arcs":[387]},{"type":"LineString","properties":{"source":"naturalearthdata.com","kind":"minor_road","kind_detail":"tertiary","sort_rank":355,"landuse_kind":"nature_reserve","min_zoom":6.0,"id":45753},"arcs":[388]},{"type":"LineString","properties":{"source":"naturalearthdata.com","kind":"minor_road","kind_detail":"tertiary","sort_rank":355,"landuse_kind":"urban_area","min_zoom":6.0,"id":45753},"arcs":[389]},{"type":"LineString","properties":{"source":"naturalearthdata.com","kind":"minor_road","kind_detail":"tertiary","sort_rank":355,"landuse_kind":"urban_area","min_zoom":6.0,"id":45753},"arcs":[390]},{"type":"MultiLineString","properties":{"source":"naturalearthdata.com","kind":"minor_road","sort_rank":355,"kind_detail":"tertiary","min_zoom":6.0,"id":45753},"arcs":[[391],[392]]},{"type":"LineString","properties":{"source":"naturalearthdata.com","kind":"minor_road","sort_rank":355,"kind_detail":"tertiary","min_zoom":6.0,"id":45790},"arcs":[393]},{"type":"LineString","properties":{"source":"naturalearthdata.com","kind":"major_road","kind_detail":"secondary","sort_rank":379,"landuse_kind":"urban_area","min_zoom":3.0,"id":45814},"arcs":[394]},{"type":"LineString","properties":{"source":"naturalearthdata.com","kind":"major_road","sort_rank":379,"kind_detail":"secondary","min_zoom":3.0,"id":45814},"arcs":[395]},{"type":"LineString","properties":{"source":"naturalearthdata.com","kind":"major_road","kind_detail":"secondary","sort_rank":379,"landuse_kind":"urban_area","min_zoom":3.0,"id":45923},"arcs":[396]},{"type":"LineString","properties":{"source":"naturalearthdata.com","kind":"major_road","sort_rank":379,"kind_detail":"secondary","min_zoom":3.0,"id":45923},"arcs":[397]},{"type":"LineString","properties":{"source":"naturalearthdata.com","kind":"major_road","kind_detail":"secondary","sort_rank":379,"landuse_kind":"urban_area","min_zoom":3.0,"id":45931},"arcs":[398]},{"type":"LineString","properties":{"source":"naturalearthdata.com","kind":"major_road","kind_detail":"secondary","sort_rank":379,"landuse_kind":"urban_area","min_zoom":3.0,"id":45978},"arcs":[399]},{"type":"LineString","properties":{"source":"naturalearthdata.com","kind":"major_road","kind_detail":"secondary","sort_rank":379,"landuse_kind":"urban_area","min_zoom":3.0,"id":45978},"arcs":[400]},{"type":"LineString","properties":{"source":"naturalearthdata.com","kind":"major_road","sort_rank":379,"kind_detail":"secondary","min_zoom":3.0,"id":45978},"arcs":[401]},{"type":"LineString","properties":{"source":"naturalearthdata.com","kind":"minor_road","kind_detail":"tertiary","sort_rank":355,"landuse_kind":"urban_area","min_zoom":6.0,"id":45979},"arcs":[402]},{"type":"LineString","properties":{"source":"naturalearthdata.com","kind":"minor_road","sort_rank":355,"kind_detail":"tertiary","min_zoom":6.0,"id":45979},"arcs":[403]},{"type":"LineString","properties":{"source":"naturalearthdata.com","kind":"major_road","kind_detail":"secondary","sort_rank":379,"landuse_kind":"urban_area","min_zoom":3.0,"id":45986},"arcs":[404]},{"type":"LineString","properties":{"source":"naturalearthdata.com","kind":"major_road","sort_rank":379,"kind_detail":"secondary","min_zoom":3.0,"id":45986},"arcs":[405]},{"type":"LineString","properties":{"source":"naturalearthdata.com","kind":"minor_road","sort_rank":355,"kind_detail":"tertiary","min_zoom":6.0,"id":46010},"arcs":[406]},{"type":"LineString","properties":{"source":"naturalearthdata.com","kind":"minor_road","sort_rank":355,"kind_detail":"tertiary","min_zoom":6.0,"id":46025},"arcs":[407]},{"type":"LineString","properties":{"source":"naturalearthdata.com","kind":"major_road","sort_rank":379,"kind_detail":"secondary","min_zoom":3.0,"id":46031},"arcs":[408]},{"type":"LineString","properties":{"source":"naturalearthdata.com","kind":"minor_road","sort_rank":355,"kind_detail":"tertiary","min_zoom":6.0,"id":46045},"arcs":[409]},{"type":"LineString","properties":{"source":"naturalearthdata.com","kind":"major_road","kind_detail":"secondary","sort_rank":379,"landuse_kind":"urban_area","min_zoom":3.0,"id":46069},"arcs":[410]},{"type":"LineString","properties":{"source":"naturalearthdata.com","kind":"major_road","sort_rank":379,"kind_detail":"secondary","min_zoom":3.0,"id":46069},"arcs":[411]},{"type":"LineString","properties":{"source":"naturalearthdata.com","kind":"highway","kind_detail":"motorway","sort_rank":383,"landuse_kind":"urban_area","min_zoom":3.0,"id":46099},"arcs":[412]},{"type":"LineString","properties":{"source":"naturalearthdata.com","kind":"highway","sort_rank":383,"kind_detail":"motorway","min_zoom":3.0,"id":46099},"arcs":[413]},{"type":"LineString","properties":{"source":"naturalearthdata.com","kind":"minor_road","sort_rank":355,"kind_detail":"tertiary","min_zoom":6.0,"id":46106},"arcs":[414]},{"type":"LineString","properties":{"source":"naturalearthdata.com","kind":"minor_road","sort_rank":355,"kind_detail":"tertiary","min_zoom":6.0,"id":46128},"arcs":[415]},{"type":"LineString","properties":{"source":"naturalearthdata.com","kind":"major_road","kind_detail":"secondary","sort_rank":379,"landuse_kind":"urban_area","min_zoom":3.0,"id":46133},"arcs":[416]},{"type":"MultiLineString","properties":{"source":"naturalearthdata.com","kind":"major_road","sort_rank":379,"kind_detail":"secondary","min_zoom":3.0,"id":46133},"arcs":[[417],[418]]},{"type":"LineString","properties":{"source":"naturalearthdata.com","kind":"major_road","sort_rank":379,"kind_detail":"secondary","min_zoom":3.0,"id":46136},"arcs":[419]},{"type":"LineString","properties":{"source":"naturalearthdata.com","kind":"minor_road","sort_rank":355,"kind_detail":"tertiary","min_zoom":6.0,"id":46148},"arcs":[420]},{"type":"LineString","properties":{"source":"naturalearthdata.com","kind":"major_road","sort_rank":379,"kind_detail":"secondary","min_zoom":3.0,"id":46200},"arcs":[421]},{"type":"LineString","properties":{"source":"naturalearthdata.com","kind":"major_road","sort_rank":379,"kind_detail":"secondary","min_zoom":3.0,"id":46204},"arcs":[422]},{"type":"MultiLineString","properties":{"source":"naturalearthdata.com","kind":"highway","kind_detail":"motorway","sort_rank":383,"landuse_kind":"nature_reserve","min_zoom":3.0,"id":46214},"arcs":[[423],[424]]},{"type":"LineString","properties":{"source":"naturalearthdata.com","kind":"highway","kind_detail":"motorway","sort_rank":383,"landuse_kind":"urban_area","min_zoom":3.0,"id":46214},"arcs":[425]},{"type":"MultiLineString","properties":{"source":"naturalearthdata.com","kind":"highway","sort_rank":383,"kind_detail":"motorway","min_zoom":3.0,"id":46214},"arcs":[[426],[427],[428],[429]]},{"type":"LineString","properties":{"source":"naturalearthdata.com","kind":"major_road","sort_rank":379,"kind_detail":"secondary","min_zoom":3.0,"id":46224},"arcs":[430]},{"type":"LineString","properties":{"source":"naturalearthdata.com","kind":"major_road","kind_detail":"secondary","sort_rank":379,"landuse_kind":"urban_area","min_zoom":3.0,"id":46225},"arcs":[431]},{"type":"LineString","properties":{"source":"naturalearthdata.com","kind":"major_road","sort_rank":379,"kind_detail":"secondary","min_zoom":3.0,"id":46225},"arcs":[432]},{"type":"LineString","properties":{"source":"naturalearthdata.com","kind":"major_road","kind_detail":"secondary","sort_rank":379,"landuse_kind":"urban_area","min_zoom":3.0,"id":46236},"arcs":[433]},{"type":"LineString","properties":{"source":"naturalearthdata.com","kind":"major_road","sort_rank":379,"kind_detail":"secondary","min_zoom":3.0,"id":46236},"arcs":[434]},{"type":"LineString","properties":{"source":"naturalearthdata.com","kind":"major_road","sort_rank":379,"kind_detail":"secondary","min_zoom":3.0,"id":46241},"arcs":[435]},{"type":"LineString","properties":{"source":"naturalearthdata.com","kind":"major_road","sort_rank":379,"kind_detail":"secondary","min_zoom":3.0,"id":46243},"arcs":[436]},{"type":"LineString","properties":{"source":"naturalearthdata.com","kind":"highway","kind_detail":"motorway","sort_rank":383,"landuse_kind":"urban_area","min_zoom":3.0,"id":46250},"arcs":[437]},{"type":"LineString","properties":{"source":"naturalearthdata.com","kind":"highway","sort_rank":383,"kind_detail":"motorway","min_zoom":3.0,"id":46250},"arcs":[438]},{"type":"LineString","properties":{"source":"naturalearthdata.com","kind":"minor_road","kind_detail":"tertiary","sort_rank":355,"landuse_kind":"urban_area","min_zoom":6.0,"id":46251},"arcs":[439]},{"type":"LineString","properties":{"source":"naturalearthdata.com","kind":"major_road","kind_detail":"secondary","sort_rank":379,"landuse_kind":"urban_area","min_zoom":3.0,"id":46257},"arcs":[440]},{"type":"LineString","properties":{"source":"naturalearthdata.com","kind":"major_road","kind_detail":"secondary","sort_rank":379,"landuse_kind":"urban_area","min_zoom":3.0,"id":46258},"arcs":[441]},{"type":"LineString","properties":{"source":"naturalearthdata.com","kind":"major_road","sort_rank":379,"kind_detail":"secondary","min_zoom":3.0,"id":46259},"arcs":[442]},{"type":"LineString","properties":{"source":"naturalearthdata.com","kind":"major_road","kind_detail":"secondary","sort_rank":379,"landuse_kind":"urban_area","min_zoom":4.0,"id":46260},"arcs":[443]},{"type":"LineString","properties":{"source":"naturalearthdata.com","kind":"major_road","sort_rank":379,"kind_detail":"secondary","min_zoom":3.0,"id":46261},"arcs":[444]},{"type":"LineString","properties":{"source":"naturalearthdata.com","kind":"minor_road","kind_detail":"tertiary","sort_rank":355,"landuse_kind":"urban_area","min_zoom":6.0,"id":46266},"arcs":[445]},{"type":"LineString","properties":{"source":"naturalearthdata.com","kind":"minor_road","sort_rank":355,"kind_detail":"tertiary","min_zoom":6.0,"id":46266},"arcs":[446]},{"type":"LineString","properties":{"source":"naturalearthdata.com","kind":"major_road","kind_detail":"secondary","sort_rank":379,"landuse_kind":"urban_area","min_zoom":3.0,"id":46267},"arcs":[447]},{"type":"LineString","properties":{"source":"naturalearthdata.com","kind":"major_road","sort_rank":379,"kind_detail":"secondary","min_zoom":3.0,"id":46267},"arcs":[448]},{"type":"LineString","properties":{"source":"naturalearthdata.com","kind":"major_road","kind_detail":"secondary","sort_rank":379,"landuse_kind":"urban_area","min_zoom":3.0,"id":46268},"arcs":[449]},{"type":"LineString","properties":{"source":"naturalearthdata.com","kind":"major_road","sort_rank":379,"kind_detail":"secondary","min_zoom":3.0,"id":46271},"arcs":[450]},{"type":"LineString","properties":{"source":"naturalearthdata.com","kind":"major_road","kind_detail":"secondary","sort_rank":379,"landuse_kind":"urban_area","min_zoom":3.0,"id":46272},"arcs":[451]},{"type":"LineString","properties":{"source":"naturalearthdata.com","kind":"major_road","sort_rank":379,"kind_detail":"secondary","min_zoom":3.0,"id":46272},"arcs":[452]},{"type":"LineString","properties":{"source":"naturalearthdata.com","kind":"highway","kind_detail":"motorway","sort_rank":383,"landuse_kind":"urban_area","min_zoom":3.0,"id":46274},"arcs":[453]},{"type":"LineString","properties":{"source":"naturalearthdata.com","kind":"highway","kind_detail":"motorway","sort_rank":383,"landuse_kind":"urban_area","min_zoom":3.0,"id":46274},"arcs":[454]},{"type":"MultiLineString","properties":{"source":"naturalearthdata.com","kind":"highway","sort_rank":383,"kind_detail":"motorway","min_zoom":3.0,"id":46274},"arcs":[[455],[456]]},{"type":"LineString","properties":{"source":"naturalearthdata.com","kind":"major_road","sort_rank":379,"kind_detail":"secondary","min_zoom":3.0,"id":46275},"arcs":[457]},{"type":"LineString","properties":{"source":"naturalearthdata.com","kind":"major_road","sort_rank":379,"kind_detail":"secondary","min_zoom":3.0,"id":46276},"arcs":[458]},{"type":"LineString","properties":{"source":"naturalearthdata.com","kind":"major_road","kind_detail":"secondary","sort_rank":379,"landuse_kind":"urban_area","min_zoom":3.0,"id":46278},"arcs":[459]},{"type":"MultiLineString","properties":{"source":"naturalearthdata.com","kind":"major_road","sort_rank":379,"kind_detail":"secondary","min_zoom":3.0,"id":46278},"arcs":[[460],[461]]},{"type":"LineString","properties":{"source":"naturalearthdata.com","kind":"highway","kind_detail":"motorway","sort_rank":383,"landuse_kind":"urban_area","min_zoom":3.0,"id":46281},"arcs":[462]},{"type":"LineString","properties":{"source":"naturalearthdata.com","kind":"major_road","kind_detail":"secondary","sort_rank":379,"landuse_kind":"urban_area","min_zoom":3.0,"id":46285},"arcs":[463]},{"type":"LineString","properties":{"source":"naturalearthdata.com","kind":"major_road","kind_detail":"secondary","sort_rank":379,"landuse_kind":"urban_area","min_zoom":3.0,"id":46285},"arcs":[464]},{"type":"LineString","properties":{"source":"naturalearthdata.com","kind":"major_road","sort_rank":379,"kind_detail":"secondary","min_zoom":3.0,"id":46285},"arcs":[465]},{"type":"LineString","properties":{"source":"naturalearthdata.com","kind":"major_road","kind_detail":"secondary","sort_rank":379,"landuse_kind":"urban_area","min_zoom":3.0,"id":46289},"arcs":[466]},{"type":"LineString","properties":{"source":"naturalearthdata.com","kind":"major_road","sort_rank":379,"kind_detail":"secondary","min_zoom":3.0,"id":46289},"arcs":[467]},{"type":"LineString","properties":{"source":"naturalearthdata.com","kind":"highway","kind_detail":"motorway","sort_rank":383,"landuse_kind":"urban_area","min_zoom":3.0,"id":46290},"arcs":[468]},{"type":"LineString","properties":{"source":"naturalearthdata.com","kind":"highway","sort_rank":383,"kind_detail":"motorway","min_zoom":3.0,"id":46290},"arcs":[469]},{"type":"LineString","properties":{"source":"naturalearthdata.com","kind":"highway","kind_detail":"motorway","sort_rank":383,"landuse_kind":"urban_area","min_zoom":6.0,"id":46292},"arcs":[470]},{"type":"LineString","properties":{"source":"naturalearthdata.com","kind":"highway","sort_rank":383,"kind_detail":"motorway","min_zoom":6.0,"id":46292},"arcs":[471]},{"type":"LineString","properties":{"source":"naturalearthdata.com","kind":"major_road","kind_detail":"secondary","sort_rank":379,"landuse_kind":"urban_area","min_zoom":3.0,"id":46293},"arcs":[472]},{"type":"LineString","properties":{"source":"naturalearthdata.com","kind":"major_road","sort_rank":379,"kind_detail":"secondary","min_zoom":3.0,"id":46293},"arcs":[473]},{"type":"LineString","properties":{"source":"naturalearthdata.com","kind":"major_road","kind_detail":"secondary","sort_rank":379,"landuse_kind":"urban_area","min_zoom":3.0,"id":46296},"arcs":[474]},{"type":"LineString","properties":{"source":"naturalearthdata.com","kind":"major_road","sort_rank":379,"kind_detail":"secondary","min_zoom":3.0,"id":46296},"arcs":[475]},{"type":"LineString","properties":{"source":"naturalearthdata.com","kind":"major_road","kind_detail":"secondary","sort_rank":379,"landuse_kind":"urban_area","min_zoom":3.0,"id":46297},"arcs":[476]},{"type":"LineString","properties":{"source":"naturalearthdata.com","kind":"major_road","kind_detail":"secondary","sort_rank":379,"landuse_kind":"urban_area","min_zoom":3.0,"id":46302},"arcs":[477]},{"type":"LineString","properties":{"source":"naturalearthdata.com","kind":"major_road","sort_rank":379,"kind_detail":"secondary","min_zoom":3.0,"id":46302},"arcs":[478]},{"type":"LineString","properties":{"source":"naturalearthdata.com","kind":"major_road","sort_rank":379,"kind_detail":"secondary","min_zoom":3.0,"id":46310},"arcs":[479]},{"type":"LineString","properties":{"source":"naturalearthdata.com","kind":"major_road","kind_detail":"secondary","sort_rank":379,"landuse_kind":"urban_area","min_zoom":3.0,"id":46311},"arcs":[480]},{"type":"LineString","properties":{"source":"naturalearthdata.com","kind":"major_road","sort_rank":379,"kind_detail":"secondary","min_zoom":3.0,"id":46311},"arcs":[481]},{"type":"LineString","properties":{"source":"naturalearthdata.com","kind":"highway","kind_detail":"motorway","sort_rank":383,"landuse_kind":"urban_area","min_zoom":6.0,"id":46312},"arcs":[482]},{"type":"LineString","properties":{"source":"naturalearthdata.com","kind":"highway","sort_rank":383,"kind_detail":"motorway","min_zoom":6.0,"id":46312},"arcs":[483]},{"type":"LineString","properties":{"source":"naturalearthdata.com","kind":"highway","kind_detail":"motorway","sort_rank":383,"landuse_kind":"urban_area","min_zoom":3.0,"id":46313},"arcs":[484]},{"type":"LineString","properties":{"source":"naturalearthdata.com","kind":"minor_road","sort_rank":355,"kind_detail":"tertiary","min_zoom":5.0,"id":46315},"arcs":[485]},{"type":"LineString","properties":{"source":"naturalearthdata.com","kind":"minor_road","sort_rank":355,"kind_detail":"tertiary","min_zoom":5.0,"id":46316},"arcs":[486]},{"type":"LineString","properties":{"source":"naturalearthdata.com","kind":"highway","sort_rank":383,"kind_detail":"motorway","min_zoom":6.0,"id":46321},"arcs":[487]},{"type":"LineString","properties":{"source":"naturalearthdata.com","kind":"minor_road","sort_rank":355,"kind_detail":"tertiary","min_zoom":6.0,"id":46327},"arcs":[488]},{"type":"LineString","properties":{"source":"naturalearthdata.com","kind":"major_road","sort_rank":379,"kind_detail":"secondary","min_zoom":3.0,"id":46338},"arcs":[489]},{"type":"MultiLineString","properties":{"source":"naturalearthdata.com","kind":"minor_road","kind_detail":"tertiary","sort_rank":355,"landuse_kind":"urban_area","min_zoom":6.0,"id":46341},"arcs":[[490],[491],[492]]},{"type":"MultiLineString","properties":{"source":"naturalearthdata.com","kind":"minor_road","sort_rank":355,"kind_detail":"tertiary","min_zoom":6.0,"id":46341},"arcs":[[493],[494]]},{"type":"LineString","properties":{"source":"naturalearthdata.com","kind":"highway","kind_detail":"motorway","sort_rank":383,"landuse_kind":"urban_area","min_zoom":6.0,"id":46342},"arcs":[495]},{"type":"LineString","properties":{"source":"naturalearthdata.com","kind":"highway","sort_rank":383,"kind_detail":"motorway","min_zoom":6.0,"id":46342},"arcs":[496]},{"type":"LineString","properties":{"source":"naturalearthdata.com","kind":"highway","kind_detail":"motorway","sort_rank":383,"landuse_kind":"urban_area","min_zoom":6.0,"id":46344},"arcs":[497]},{"type":"LineString","properties":{"source":"naturalearthdata.com","kind":"highway","kind_detail":"motorway","sort_rank":383,"landuse_kind":"urban_area","min_zoom":3.0,"id":46360},"arcs":[498]},{"type":"LineString","properties":{"source":"naturalearthdata.com","kind":"major_road","sort_rank":379,"kind_detail":"secondary","min_zoom":4.0,"id":46363},"arcs":[499]},{"type":"LineString","properties":{"source":"naturalearthdata.com","kind":"major_road","kind_detail":"secondary","sort_rank":379,"landuse_kind":"urban_area","min_zoom":3.0,"id":46364},"arcs":[500]},{"type":"LineString","properties":{"source":"naturalearthdata.com","kind":"highway","kind_detail":"motorway","sort_rank":383,"landuse_kind":"urban_area","min_zoom":4.0,"id":46366},"arcs":[501]},{"type":"LineString","properties":{"source":"naturalearthdata.com","kind":"major_road","kind_detail":"secondary","sort_rank":379,"landuse_kind":"urban_area","min_zoom":4.0,"id":46372},"arcs":[502]},{"type":"LineString","properties":{"source":"naturalearthdata.com","kind":"major_road","sort_rank":379,"kind_detail":"secondary","min_zoom":4.0,"id":46372},"arcs":[503]},{"type":"LineString","properties":{"source":"naturalearthdata.com","kind":"minor_road","sort_rank":355,"kind_detail":"tertiary","min_zoom":5.0,"id":46382},"arcs":[504]},{"type":"LineString","properties":{"source":"naturalearthdata.com","kind":"major_road","sort_rank":379,"kind_detail":"secondary","min_zoom":4.0,"id":46394},"arcs":[505]},{"type":"LineString","properties":{"source":"naturalearthdata.com","kind":"major_road","sort_rank":379,"kind_detail":"secondary","min_zoom":4.0,"id":46399},"arcs":[506]},{"type":"LineString","properties":{"source":"naturalearthdata.com","kind":"major_road","sort_rank":379,"kind_detail":"secondary","min_zoom":4.0,"id":46421},"arcs":[507]},{"type":"LineString","properties":{"source":"naturalearthdata.com","kind":"major_road","sort_rank":379,"kind_detail":"secondary","min_zoom":4.0,"id":46424},"arcs":[508]},{"type":"MultiLineString","properties":{"source":"naturalearthdata.com","kind":"highway","kind_detail":"motorway","sort_rank":383,"landuse_kind":"urban_area","min_zoom":3.0,"id":46428},"arcs":[[509],[510]]},{"type":"LineString","properties":{"source":"naturalearthdata.com","kind":"highway","sort_rank":383,"kind_detail":"motorway","min_zoom":3.0,"id":46428},"arcs":[511]},{"type":"LineString","properties":{"source":"naturalearthdata.com","kind":"highway","sort_rank":383,"kind_detail":"motorway","min_zoom":5.0,"id":46429},"arcs":[512]},{"type":"LineString","properties":{"source":"naturalearthdata.com","kind":"highway","kind_detail":"motorway","sort_rank":383,"landuse_kind":"urban_area","min_zoom":3.0,"id":46430},"arcs":[513]},{"type":"LineString","properties":{"source":"naturalearthdata.com","kind":"minor_road","kind_detail":"tertiary","sort_rank":355,"landuse_kind":"urban_area","min_zoom":5.0,"id":46431},"arcs":[514]},{"type":"MultiLineString","properties":{"source":"naturalearthdata.com","kind":"minor_road","sort_rank":355,"kind_detail":"tertiary","min_zoom":5.0,"id":46431},"arcs":[[515],[516]]},{"type":"LineString","properties":{"source":"naturalearthdata.com","kind":"major_road","kind_detail":"secondary","sort_rank":379,"landuse_kind":"urban_area","min_zoom":3.0,"id":46432},"arcs":[517]},{"type":"LineString","properties":{"source":"naturalearthdata.com","kind":"major_road","sort_rank":379,"kind_detail":"secondary","min_zoom":3.0,"id":46432},"arcs":[518]},{"type":"LineString","properties":{"source":"naturalearthdata.com","kind":"major_road","kind_detail":"secondary","sort_rank":379,"landuse_kind":"urban_area","min_zoom":4.0,"id":46433},"arcs":[519]},{"type":"LineString","properties":{"source":"naturalearthdata.com","kind":"major_road","sort_rank":379,"kind_detail":"secondary","min_zoom":4.0,"id":46433},"arcs":[520]},{"type":"LineString","properties":{"source":"naturalearthdata.com","kind":"major_road","sort_rank":379,"kind_detail":"secondary","min_zoom":4.0,"id":46434},"arcs":[521]},{"type":"LineString","properties":{"source":"naturalearthdata.com","kind":"major_road","kind_detail":"secondary","sort_rank":379,"landuse_kind":"urban_area","min_zoom":4.0,"id":46435},"arcs":[522]},{"type":"LineString","properties":{"source":"naturalearthdata.com","kind":"major_road","sort_rank":379,"kind_detail":"secondary","min_zoom":4.0,"id":46435},"arcs":[523]},{"type":"LineString","properties":{"source":"naturalearthdata.com","kind":"major_road","sort_rank":379,"kind_detail":"secondary","min_zoom":4.0,"id":46437},"arcs":[524]},{"type":"LineString","properties":{"source":"naturalearthdata.com","kind":"highway","kind_detail":"motorway","sort_rank":383,"landuse_kind":"urban_area","min_zoom":3.0,"id":46442},"arcs":[525]},{"type":"LineString","properties":{"source":"naturalearthdata.com","kind":"highway","sort_rank":383,"kind_detail":"motorway","min_zoom":3.0,"id":46442},"arcs":[526]},{"type":"LineString","properties":{"source":"naturalearthdata.com","kind":"highway","kind_detail":"motorway","sort_rank":383,"landuse_kind":"urban_area","min_zoom":3.0,"id":46457},"arcs":[527]},{"type":"LineString","properties":{"source":"naturalearthdata.com","kind":"major_road","sort_rank":379,"kind_detail":"secondary","min_zoom":3.0,"id":46458},"arcs":[528]},{"type":"LineString","properties":{"source":"naturalearthdata.com","kind":"minor_road","sort_rank":355,"kind_detail":"tertiary","min_zoom":5.0,"id":46460},"arcs":[529]},{"type":"LineString","properties":{"source":"naturalearthdata.com","kind":"minor_road","sort_rank":355,"kind_detail":"tertiary","min_zoom":5.0,"id":46477},"arcs":[530]},{"type":"LineString","properties":{"source":"naturalearthdata.com","kind":"minor_road","sort_rank":355,"kind_detail":"tertiary","min_zoom":6.0,"id":46484},"arcs":[531]},{"type":"LineString","properties":{"source":"naturalearthdata.com","kind":"minor_road","sort_rank":355,"kind_detail":"tertiary","min_zoom":5.0,"id":46491},"arcs":[532]},{"type":"LineString","properties":{"source":"naturalearthdata.com","kind":"highway","sort_rank":383,"kind_detail":"motorway","min_zoom":4.0,"id":46500},"arcs":[533]},{"type":"LineString","properties":{"source":"naturalearthdata.com","kind":"minor_road","sort_rank":355,"kind_detail":"tertiary","min_zoom":6.0,"id":46510},"arcs":[534]},{"type":"LineString","properties":{"source":"naturalearthdata.com","kind":"major_road","kind_detail":"secondary","sort_rank":379,"landuse_kind":"urban_area","min_zoom":3.0,"id":46520},"arcs":[535]},{"type":"LineString","properties":{"source":"naturalearthdata.com","kind":"major_road","sort_rank":379,"kind_detail":"secondary","min_zoom":3.0,"id":46520},"arcs":[536]},{"type":"LineString","properties":{"source":"naturalearthdata.com","kind":"major_road","kind_detail":"secondary","sort_rank":379,"landuse_kind":"urban_area","min_zoom":4.0,"id":46526},"arcs":[537]},{"type":"LineString","properties":{"source":"naturalearthdata.com","kind":"minor_road","sort_rank":355,"kind_detail":"tertiary","min_zoom":6.0,"id":46528},"arcs":[538]},{"type":"LineString","properties":{"source":"naturalearthdata.com","kind":"minor_road","sort_rank":355,"kind_detail":"tertiary","min_zoom":6.0,"id":46529},"arcs":[539]},{"type":"LineString","properties":{"source":"naturalearthdata.com","kind":"major_road","kind_detail":"secondary","sort_rank":379,"landuse_kind":"urban_area","min_zoom":3.0,"id":46535},"arcs":[540]},{"type":"LineString","properties":{"source":"naturalearthdata.com","kind":"major_road","sort_rank":379,"kind_detail":"secondary","min_zoom":3.0,"id":46535},"arcs":[541]},{"type":"LineString","properties":{"source":"naturalearthdata.com","kind":"highway","sort_rank":383,"kind_detail":"motorway","min_zoom":4.0,"id":46537},"arcs":[542]},{"type":"LineString","properties":{"source":"naturalearthdata.com","kind":"minor_road","sort_rank":355,"kind_detail":"tertiary","min_zoom":6.0,"id":46554},"arcs":[543]},{"type":"LineString","properties":{"source":"naturalearthdata.com","kind":"major_road","kind_detail":"secondary","sort_rank":379,"landuse_kind":"urban_area","min_zoom":3.0,"id":46557},"arcs":[544]},{"type":"LineString","properties":{"source":"naturalearthdata.com","kind":"major_road","sort_rank":379,"kind_detail":"secondary","min_zoom":3.0,"id":46557},"arcs":[545]},{"type":"LineString","properties":{"source":"naturalearthdata.com","kind":"minor_road","sort_rank":355,"kind_detail":"tertiary","min_zoom":6.0,"id":46600},"arcs":[546]},{"type":"LineString","properties":{"source":"naturalearthdata.com","kind":"major_road","sort_rank":379,"kind_detail":"secondary","min_zoom":3.0,"id":46601},"arcs":[547]},{"type":"LineString","properties":{"source":"naturalearthdata.com","kind":"minor_road","kind_detail":"tertiary","sort_rank":355,"landuse_kind":"nature_reserve","min_zoom":5.0,"id":46636},"arcs":[548]},{"type":"MultiLineString","properties":{"source":"naturalearthdata.com","kind":"minor_road","sort_rank":355,"kind_detail":"tertiary","min_zoom":5.0,"id":46636},"arcs":[[549],[550]]},{"type":"LineString","properties":{"source":"naturalearthdata.com","kind":"minor_road","sort_rank":355,"kind_detail":"tertiary","min_zoom":6.0,"id":46668},"arcs":[551]},{"type":"LineString","properties":{"source":"naturalearthdata.com","kind":"highway","sort_rank":383,"kind_detail":"motorway","min_zoom":4.0,"id":48488},"arcs":[552]},{"type":"LineString","properties":{"source":"naturalearthdata.com","kind":"highway","sort_rank":383,"kind_detail":"motorway","min_zoom":4.0,"id":48537},"arcs":[553]}]},"earth":{"type":"GeometryCollection","geometries":[{"type":"MultiPolygon","properties":{"sort_rank":10,"source":"naturalearthdata.com","min_zoom":0.0,"kind":"earth","area":1375776271017},"arcs":[[[554]],[[555]]]}]},"landuse":{"type":"GeometryCollection","geometries":[{"type":"MultiPolygon","properties":{"source":"openstreetmap.org","kind":"nature_reserve","tier":2,"area":1142285402,"sort_rank":23,"min_zoom":6.0},"arcs":[[[556]],[[557]],[[558]]]},{"type":"MultiPolygon","properties":{"source":"openstreetmap.org","kind":"park","tier":2,"area":2278867517,"sort_rank":24,"min_zoom":6.0,"osm_relation":true},"arcs":[[[559]],[[560]]]},{"type":"MultiPolygon","properties":{"source":"openstreetmap.org","kind":"nature_reserve","tier":2,"area":10353021168,"sort_rank":23,"min_zoom":6.0,"osm_relation":true},"arcs":[[[561]],[[562]],[[563]],[[564]],[[565],[566]],[[567]],[[568]],[[569]],[[570]],[[571],[572]]]},{"type":"MultiPolygon","properties":{"kind":"nature_reserve","protect_class":"2","area":901149717,"sort_rank":23,"source":"openstreetmap.org","min_zoom":6.0,"tier":2,"osm_relation":true},"arcs":[[[573]],[[574]]]},{"type":"MultiPolygon","properties":{"source":"naturalearthdata.com","kind":"urban_area","name":"","area":14166445903,"sort_rank":11,"min_zoom":4.0},"arcs":[[[575]],[[576]],[[577]],[[578]],[[579]],[[580]],[[581]],[[582]],[[583]],[[584]],[[585]],[[586]],[[587]],[[588]],[[589]],[[590]],[[591]],[[592]],[[593]],[[594]],[[595]],[[596]],[[597]],[[598]],[[599]],[[600]],[[601]],[[602]],[[603]],[[604]],[[605]],[[606]],[[607]],[[608]],[[609]],[[610]],[[611]],[[612]],[[613]],[[614]],[[615]],[[616]],[[617]],[[618]],[[619]],[[620]]]},{"type":"MultiPolygon","properties":{"source":"openstreetmap.org","kind":"nature_reserve","tier":2,"area":42616209098,"sort_rank":23,"min_zoom":4.0,"osm_relation":true},"arcs":[[[621]],[[622]],[[623]],[[624]],[[625]]]},{"type":"MultiPolygon","properties":{"source":"openstreetmap.org","kind":"park","tier":2,"area":54562430627,"sort_rank":24,"min_zoom":4.0,"osm_relation":true},"arcs":[[[626]]]}]}},"type":"Topology","transform":{"translate":[28.125,-27.0591257844],"scale":[0.001373291,0.001249043]},"arcs":[[[2926,171],[-21,4]],[[3078,159],[-41,7],[-53,8],[-21,1]],[[2963,175],[-37,-4]],[[3472,171],[-113,-4],[-102,-3],[-94,-2],[-85,-3]],[[2785,881],[-29,93],[-3,24],[5,22],[30,80],[6,10],[10,9],[7,4],[5,5],[3,11],[0,17],[-7,50],[-4,17],[-8,17],[-3,25],[1,26],[3,20],[12,39],[-1,174],[0,128],[-1,95],[-1,135],[0,112],[6,55],[-4,61],[-18,62],[-26,56],[-41,90],[-5,34],[-5,127],[0,13],[-4,13],[-9,10],[-47,35],[-14,13],[-10,17],[-29,70],[-28,100],[-15,29],[-70,77],[-13,28],[-5,33],[16,183],[-5,24],[-50,159],[-30,95],[-37,119],[-38,119],[-32,102],[7,14]],[[648,4096],[5,-32],[14,-30],[22,-24],[27,-15],[27,-5]],[[811,3992],[4,-2],[7,-9],[4,-8],[6,-15],[4,-8],[56,-49]],[[743,3990],[68,2]],[[2905,175],[2,207],[-7,65],[-35,69],[-5,22],[-9,83],[3,23],[24,63],[3,22],[-5,28],[-9,29],[-3,29],[9,25],[-48,12],[-21,12],[-19,17]],[[1132,3940],[-13,9]],[[1119,3949],[-15,-2],[-27,-13]],[[1476,3814],[-12,1],[-18,9],[-21,16],[-10,5],[-22,2],[-2,3],[-1,3],[-13,16],[-8,3],[-15,4],[-8,3],[-19,13],[-11,3],[-26,2],[-18,10],[-25,5],[-42,29],[-15,5]],[[1190,3946],[-49,-3],[-9,-3]],[[1077,3934],[-25,3]],[[1052,3937],[-14,-3],[-6,-14],[-8,-8]],[[1024,3912],[-18,2],[-36,9]],[[970,3923],[-15,-3],[-27,-15],[-16,-9]],[[912,3896],[-10,0],[-5,2],[-5,3]],[[2157,3781],[-12,2],[-25,12],[-80,19],[-43,5],[-22,5]],[[1975,3824],[-23,-9],[-81,-7],[-15,-5],[-19,-14],[-11,-3]],[[1609,3774],[-25,7],[-23,16],[-10,9],[-11,7],[-13,5],[-18,1]],[[1509,3819],[-33,-5]],[[1782,3797],[-47,6]],[[1735,3803],[-14,-1],[-14,-4],[-27,-13],[-14,-4],[-30,-6],[-27,-1]],[[2255,3758],[-6,3],[-11,7],[-6,2],[-5,4],[-15,18],[-7,5]],[[2205,3797],[-11,-2],[-24,-11],[-6,-2],[-7,-1]],[[1826,3786],[-5,1],[-11,8],[-7,2]],[[1803,3797],[-21,0]],[[2304,3732],[-17,26],[-7,6],[-8,0]],[[2272,3764],[-11,-5],[-6,-1]],[[879,3896],[-21,2],[-40,9]],[[818,3907],[-19,-2],[-14,-10],[-12,-11],[-13,-5],[-88,-5],[-7,-3],[-15,-21],[0,-4],[-11,-6],[-14,-15],[-17,-23],[6,-56],[-4,-10],[-7,-6],[-17,-33],[-13,-10]],[[892,3901],[-13,-5]],[[573,3687],[-31,4]],[[542,3691],[-17,-1],[-7,-10],[-4,-16],[-10,-8],[-15,-4],[-16,-3],[-31,-10],[-53,-31],[-26,-8]],[[363,3600],[-19,0],[-14,2]],[[330,3602],[-13,-2],[-16,-14],[-12,-4]],[[289,3582],[-46,12]],[[243,3594],[-60,-4],[-27,-8],[-27,-15],[-11,-10],[-27,-31],[-7,-5],[-17,-2],[-8,-2],[-7,-4],[-23,-30],[-4,-8],[-1,-10],[1,-10],[2,-6],[0,-6],[-5,-11],[-7,-6],[-7,-3],[-8,-2]],[[2722,856],[-21,6],[-64,41],[-11,8],[-67,43],[-77,50],[-78,49],[-18,6]],[[2386,1059],[-22,0],[-25,-7],[-20,-10],[-74,-65],[-64,-57],[-10,-17],[-11,-42],[-39,-93],[-49,-87],[-53,-67],[-68,-84],[-16,-60],[1,-85],[1,-111],[8,-55],[5,-19]],[[2785,881],[-42,-20],[-21,-5]],[[2006,230],[4,-11],[13,-37],[9,-14],[21,-22],[8,-12],[4,-16],[-1,-20],[-7,-31],[3,-20],[16,-28],[22,-19]],[[1950,200],[12,1],[12,2],[13,7],[11,10],[8,10]],[[2814,201],[49,0],[12,-3],[18,-17],[12,-6]],[[2785,0],[7,40],[12,66],[12,71],[-2,24]],[[2304,3732],[58,42],[47,35],[38,43],[38,43],[39,44],[38,43],[38,44],[38,43],[23,27]],[[354,1431],[24,7],[9,6],[3,3],[2,3],[-1,4],[-1,13],[-14,8],[-13,19],[-6,7],[-7,21]],[[331,1435],[23,-4]],[[182,1391],[42,0],[38,18],[13,16],[18,8],[38,2]],[[174,1400],[8,-9]],[[123,1395],[51,5]],[[3646,1345]],[[1919,4096],[3,-7],[6,-5],[5,-3],[7,-4],[3,-3],[0,-5],[-2,-3],[0,-5],[0,-7],[-1,-2],[0,-1],[-1,-1],[-1,-1],[-1,-2],[-1,-4],[2,-2],[4,-1]],[[1946,4040],[6,-1],[7,-3],[10,-7],[5,-5],[5,-7],[4,-5],[8,-6],[3,-5],[4,-12],[3,-2],[4,-1]],[[1942,4040],[4,0]],[[2015,3987],[6,0],[4,-3],[2,-4],[0,-9],[1,-4],[2,-4],[7,-8],[2,-4],[1,-4],[2,-11],[3,-8],[3,-4],[3,-2],[11,-2],[8,-3],[4,-3],[1,-4],[-1,-9],[3,-2],[3,-1]],[[2005,3986],[10,1]],[[2090,3899],[4,-1],[6,-2],[3,-4],[1,-4],[0,-6],[2,-7],[5,-9],[2,-5],[1,-10],[1,-6],[9,-12],[1,-5],[2,-10],[2,-6],[4,-3],[5,-2],[4,-1]],[[2080,3898],[10,1]],[[2146,3807],[5,-1],[3,-4],[10,-19],[0,-1]],[[2142,3806],[4,1]],[[2599,888],[4,0],[4,1],[8,3],[4,1],[5,0],[5,1],[3,2],[5,7]],[[2583,893],[11,-4],[5,-1]],[[2581,726],[5,8],[2,20],[-7,132],[2,7]],[[2491,239],[5,-2],[4,-4],[-2,-5],[-6,-11],[-1,-6],[0,-6],[1,-9],[-1,-7],[-4,-6],[-13,-16],[-5,-10],[-9,-15],[-3,-5],[-2,-7],[2,-6],[15,-27],[4,-5],[10,-10],[5,-5],[4,-1]],[[2449,238],[42,1]],[[2507,80],[5,-1],[5,-2],[6,-3],[7,-6],[12,-14],[18,-13],[33,-20],[7,-3],[6,-2],[8,-1]],[[2495,76],[4,1],[4,2],[4,1]],[[2648,21],[7,-2],[4,-5],[6,-14]],[[2614,15],[7,1],[21,5],[6,0]],[[2385,622],[6,1],[5,2],[4,3],[8,4],[42,15],[6,3],[1,2],[2,2],[1,4],[2,13],[2,4],[3,2],[12,6],[6,4],[3,3],[1,3],[4,9],[4,4],[6,5],[5,2],[5,0],[29,0],[15,3],[24,10]],[[2359,626],[26,-4]],[[2278,482],[6,2],[3,3],[2,4],[0,6],[-2,13],[1,7],[2,8],[1,7],[-1,6],[-1,6],[0,4],[2,4],[8,8],[3,4],[1,5],[-1,6],[-1,10],[0,5],[2,3],[3,4],[4,3],[7,3],[22,7],[7,3],[3,2],[2,1],[1,4],[2,2],[2,3],[3,1]],[[2019,614],[9,-3],[107,-68],[2,-2],[2,-3],[6,-12],[6,-8],[3,-4],[4,-2],[4,0],[33,-8],[8,0]],[[2220,508],[9,0],[4,-1],[3,-1],[4,-4],[6,-6],[15,-11],[9,-2],[8,-1]],[[2203,504],[6,3],[4,1],[7,0]],[[2449,238],[1,16],[4,19],[17,41],[3,4],[3,3],[3,2],[42,20],[6,5],[3,7],[-2,29],[-4,24],[-3,8],[-6,11],[-1,4],[3,3],[7,3],[6,3],[5,4],[0,6],[0,5],[-2,8],[0,5],[0,6],[4,8],[1,19],[-1,6],[-3,10],[0,4],[1,2],[10,6],[4,3],[3,3],[0,7],[1,6],[5,6],[14,12],[7,8],[7,9],[4,12],[3,13],[2,20],[6,20],[-4,7],[-1,4],[1,5],[-2,16],[-15,46]],[[2449,238],[-29,5]],[[2420,243],[-15,-3],[-12,-8],[-5,-4],[-4,-5],[-6,-5],[-7,-3],[-34,-3],[-5,-2],[-3,-3],[0,-3],[-2,-3],[-2,-4],[-7,-5],[-3,-4],[-2,-3],[0,-4],[-1,-11],[-3,0]],[[2070,227],[-8,3],[-8,7],[-3,2]],[[2051,239],[-2,0],[-1,-1],[-3,-2],[-25,-6],[-10,-11]],[[2143,145],[-1,2],[1,4],[0,5],[3,7],[1,3],[-1,3],[-10,13],[-2,4],[0,3],[1,4],[1,6],[0,6],[-1,12],[-1,4],[-2,4],[-7,6],[-6,2]],[[2119,233],[-7,0],[-25,-6],[-17,0]],[[2309,170],[-4,1],[-33,24],[-8,5],[-8,1]],[[2256,201],[-7,-2],[-7,-3],[-6,-2],[-8,0],[-10,-2],[-39,-21],[-32,-25],[-4,-1]],[[0,1291],[11,1],[7,4],[10,3],[39,3],[19,6],[29,21],[8,66]],[[0,1326],[2,-1],[-1,-8],[-1,-2]],[[119,117],[25,-14],[13,-2]],[[173,102],[17,-1],[7,-3],[5,-3],[3,-14],[2,-4],[2,-5],[4,-4],[6,-7],[6,-1]],[[157,101],[16,1]],[[384,83],[33,-13],[56,-37],[9,-3],[5,-1],[6,-2],[7,-7],[8,-4]],[[362,64],[-1,0],[2,8],[21,11]],[[259,77],[5,-2],[4,-3],[7,-11],[9,-8],[3,-8],[20,-9],[2,-6],[-5,-11],[-6,-18]],[[225,60],[4,0],[4,3],[7,9],[4,2],[6,2],[9,1]],[[376,39],[12,4],[-2,7],[-13,11],[-6,4]],[[367,65],[-5,-1]],[[616,52],[14,-2],[33,-21],[7,-3],[6,0],[3,-3],[-1,-11],[2,-7],[1,-2],[0,-3]],[[545,12],[8,0],[6,4],[9,12],[5,5],[7,4],[7,1],[6,2],[7,7],[7,4],[9,1]],[[361,40],[15,-1]],[[298,1],[9,3],[34,30],[9,4],[11,2]],[[531,23],[6,-2],[4,-5],[4,-4]],[[508,16],[8,2],[8,3],[7,2]],[[541,1526],[-6,2],[-5,8],[-17,24]],[[513,1560],[-57,-3],[-29,-21],[-63,-9],[-14,-5]],[[554,1461],[4,1],[4,4],[2,8],[1,12],[-2,12],[0,8],[3,5],[9,10],[4,6],[1,7],[-3,5],[-6,2]],[[571,1541],[-11,-4],[-19,-11]],[[536,1483],[6,-4],[9,-15],[3,-3]],[[538,1342],[-43,17],[-1,16],[29,25],[6,7],[5,9],[2,9],[-1,9],[-5,18],[-3,24],[9,7]],[[778,1377],[-25,9],[-13,2]],[[740,1388],[-55,-15],[-18,-10]],[[794,1310],[17,35],[5,16],[-1,13],[-13,6]],[[802,1380],[-24,-3]],[[667,1363],[-35,10]],[[632,1373],[-18,-5],[-28,-2],[-17,-14],[-31,-10]],[[753,1313],[41,-3]],[[519,829],[6,30],[26,72],[25,18],[11,14],[5,9],[2,19],[1,17],[12,28],[6,32],[-3,19],[10,22],[40,38],[15,53],[20,23],[4,17],[3,6],[-2,4],[3,3],[4,9],[18,7],[9,15],[4,13],[15,16]],[[347,848],[79,0],[6,-3],[21,-4],[13,-11],[53,-1]],[[300,783],[9,4],[9,15],[7,17],[19,26],[3,3]],[[274,784],[26,-1]],[[419,567],[-32,9],[-48,10],[-1,25],[-3,7],[-5,6],[-37,25],[-9,15],[-8,30],[-13,28],[-10,5],[-16,37],[18,14],[9,3],[10,3]],[[119,117],[11,35],[-3,11],[3,21],[14,12],[10,14],[19,13],[2,14],[-3,7],[-2,3],[-2,1],[0,6],[16,34],[38,30],[17,8],[9,15],[8,8],[12,4],[6,1],[4,3],[11,23],[15,14],[24,9],[29,1],[11,11],[72,16],[10,11],[4,4],[8,8],[75,60],[-32,65]],[[505,579],[-86,-12]],[[0,153],[4,-4],[5,-3]],[[24,159],[9,0],[4,-17],[2,-4],[3,-4],[3,-3],[9,-7]],[[9,146],[15,13]],[[95,133],[5,-2],[4,-3],[2,-3],[13,-8]],[[54,124],[20,3],[13,5],[8,1]],[[38,1541],[16,1],[9,7],[5,16],[3,21],[-11,16],[-22,13],[-38,17]],[[0,1560],[15,-7],[13,-9],[10,-3]],[[26,1478],[-15,2],[-9,8],[-2,6]],[[123,1395],[-46,73],[-11,7],[-16,7]],[[50,1482],[-24,-4]],[[2691,2473],[11,0],[6,2],[6,2],[3,2]],[[2666,2478],[4,0],[7,-3],[4,-2],[10,0]],[[2606,2408],[6,1],[4,2],[3,2],[2,3],[1,3],[5,24],[1,3],[1,2],[32,29],[5,1]],[[2560,2439],[5,0],[3,-2],[3,-3],[3,-3],[1,-4],[1,-5],[3,-5],[5,-5],[14,-3],[8,-1]],[[2523,2409],[4,0],[4,2],[2,3],[8,13],[4,4],[3,3],[7,4],[5,1]],[[2422,2432],[4,-1],[8,-2],[4,-1],[22,-7],[10,-6],[5,-2],[9,-1]],[[2386,2403],[4,1],[4,2],[6,5],[12,14],[6,6],[4,1]],[[2506,2423],[4,-2],[4,-6],[3,-4],[6,-2]],[[2484,2412],[6,3],[11,7],[5,1]],[[2368,2406],[5,0],[5,-2],[8,-1]],[[2333,2385],[5,1],[4,2],[6,6],[5,5],[9,6],[6,1]],[[2305,2390],[28,-5]],[[2507,1911],[12,2],[8,7],[3,9],[-5,12],[-13,18],[-81,55],[-6,13],[-2,13],[1,6],[2,4],[-4,3],[0,8],[-55,1],[20,35],[-13,25],[48,121],[3,48],[17,36],[-19,28],[-44,8],[-105,6],[20,18],[11,3]],[[1918,2112],[56,-56],[24,-12],[72,-17],[12,-23],[50,-9],[20,-46],[13,-14],[13,-9],[14,-2]],[[1846,2025],[49,13],[4,33],[5,12],[14,29]],[[1834,2029],[12,-4]],[[1763,1960],[29,10],[13,13],[8,20],[5,18],[16,8]],[[1641,1997],[86,-21],[36,-16]],[[1530,1958],[7,4],[14,19],[27,1],[34,5],[29,10]],[[1491,1977],[13,-6],[17,-12],[9,-1]],[[1145,1494],[61,18],[9,21],[14,7],[5,20],[-17,23],[-9,7],[-6,9],[4,15],[22,11],[13,19],[0,5],[78,66],[96,74],[36,21],[12,25],[2,26],[-17,33],[2,66],[28,13],[13,4]],[[2207,1925],[8,0],[7,-3],[4,-8],[-5,-13],[-14,-19],[-38,-12],[-11,-10],[5,-18],[27,-9],[15,-13],[8,-11],[11,-40],[14,-32],[15,-14],[-6,-16],[-38,-8],[-25,-13],[-9,-19],[-1,-42]],[[2192,1924],[15,1]],[[2495,1911],[12,0]],[[2407,1659],[29,41],[-2,15],[-1,21],[-8,11],[-38,10],[-15,5],[-11,1],[-8,7],[-2,17],[9,46],[26,17],[33,10],[31,4],[20,8],[9,22],[7,11],[9,6]],[[948,1843],[1,-25],[5,-22],[0,-12],[-1,-7],[-6,-5],[-2,-3],[-4,-2],[-3,-2],[-4,-1]],[[691,1665],[63,29],[7,8],[14,35],[3,18],[11,13],[19,17],[56,16],[31,21],[53,21]],[[934,1764],[-4,2],[-5,5],[-3,1]],[[922,1772],[-3,0],[-4,-4],[-5,-5],[-7,-11],[-2,-6],[-1,-6],[14,-31],[2,-6],[1,-7],[0,-14],[-2,-7],[-2,-5],[-2,-2],[-5,-2],[-1,-1],[-9,-9],[-2,-5],[0,-1],[2,-6],[2,-3],[1,-2],[4,0]],[[624,1744],[23,-4],[11,-18],[6,-4],[27,-53]],[[591,1692],[0,48],[33,4]],[[572,1700],[19,-8]],[[515,1696],[57,4]],[[476,1700],[39,-4]],[[194,1469],[-16,5],[-8,14],[-3,10],[4,9],[10,8],[26,10],[28,16],[8,14],[14,7],[18,7],[19,4],[29,10],[13,13],[5,24],[0,13],[3,13],[61,28],[21,13],[16,7],[18,5],[16,1]],[[2378,1667],[22,-5],[7,-3]],[[2309,1658],[5,1],[5,3],[4,3],[5,1],[50,1]],[[2295,1658],[14,0]],[[2174,1625],[81,7],[21,5],[2,3],[1,4],[1,4],[1,2],[1,2],[5,4],[4,2],[4,0]],[[926,1652],[6,0],[38,-40],[6,-18],[12,-17],[7,-6],[5,-1],[8,-4],[11,-10],[24,-29],[20,-18],[34,-9],[48,-6]],[[903,1639],[3,1],[12,9],[2,2],[6,1]],[[350,1522],[-64,-21],[-8,-4],[-13,-9],[-16,-8],[-24,-7],[-31,-4]],[[2876,2280],[6,0],[6,-2],[18,-5],[42,-7],[9,-5],[3,-2],[14,-5],[23,-4],[6,-2],[18,-9],[86,-12],[11,-5],[7,-4],[5,-6],[40,-44],[4,-3],[22,-8],[20,-13],[11,-5],[7,-2],[7,0]],[[2768,2228],[12,7],[91,45],[5,0]],[[3283,2148],[6,0],[4,-2],[4,-2],[3,-2],[9,-5],[18,-6],[4,-2],[4,-4],[3,-4],[1,-4],[1,-3],[-1,-13],[4,-79],[1,-4],[2,-4],[2,-4],[28,-33],[45,-69],[3,-8],[3,-9],[3,-20],[4,-5],[5,-6],[11,-9],[10,-7],[37,-15],[7,-6],[1,-9],[-12,-44],[-1,-12],[0,-13],[7,-13],[2,-8],[1,-5],[-2,-4],[-3,-3],[-2,-2],[-2,-4],[-1,-3],[5,-84],[1,-9],[4,-3],[4,-1],[16,-2],[8,-2],[10,-5],[5,-4],[3,-4],[1,-5],[-1,-9],[-1,-3],[1,-3],[1,-4],[1,-7],[-1,-14],[4,-24],[0,-5],[-3,-10],[-1,-3],[0,-4],[1,-7],[3,-7],[3,-1],[52,-6],[12,-4],[10,-6],[5,-4],[4,-4],[6,-11],[3,-8],[2,-4],[2,-15],[-1,-5],[-2,-18],[-4,-13],[0,-4],[1,-36]],[[3241,2137],[5,0],[4,1],[18,7],[15,3]],[[3738,4096],[4,-5],[49,-41],[2,-2],[1,-4],[0,-20],[1,-12],[3,-12],[23,-37],[1,-9],[1,-6],[-3,-20],[-11,-52],[0,-5],[4,-19],[1,-15],[-1,-15],[0,-10],[8,-32],[2,-16],[-1,-4],[-1,-5],[-3,-2],[-3,-2],[-21,-8],[-7,-4],[-2,-3],[-2,-3],[-1,-5],[-2,-30],[0,-4],[-8,-24],[-7,-46],[0,-5],[1,-5],[2,-10],[7,-20],[44,-69],[4,-5],[5,-4],[9,-7],[3,-2],[5,-6],[9,-13],[6,-12],[13,-19],[14,-14],[22,-15],[5,-3],[6,-3],[17,-16],[13,-8],[6,-5],[5,-7],[4,-7],[5,-6],[3,-2],[16,-11],[6,-6],[9,-12],[12,-22],[26,-37],[5,-15],[1,-15],[0,-14],[1,-5],[5,-6],[4,-3],[4,-3],[3,-2],[7,-10],[3,-2],[6,-5],[9,-10],[6,-8]],[[3224,955],[57,-17],[20,-18]],[[3198,888],[7,25],[19,42]],[[25,679],[-25,0]],[[0,565],[50,92]],[[25,679],[-9,-2],[-4,3],[-3,2],[-2,0],[-1,0],[-4,-2],[-2,0]],[[35,679],[-8,2],[-1,-1],[-1,-2],[-2,-1],[-7,0],[-1,1],[-6,3],[-7,-1],[-2,0]],[[50,657],[-16,22]],[[44,676],[-24,-123]],[[31,680],[4,-1]],[[46,1042],[63,25]],[[109,1067]],[[115,1067],[-6,0]],[[115,1067],[106,-7]],[[31,680],[-3,1],[-1,0],[-5,-4],[-22,2]],[[50,655],[-30,-102]],[[30,680],[-4,-6]],[[50,657],[-50,-94]],[[31,680],[-3,1],[-1,0],[0,-1],[-1,0],[-2,-3],[-2,0],[-22,2]],[[30,680],[-4,-6]],[[25,679],[-9,-2],[-7,5],[-3,0],[-4,-2],[-2,0]],[[35,679],[-8,2],[-1,-1],[-1,-2],[-1,-1],[-1,0],[-1,0],[-6,0],[-1,0],[0,1],[-6,3],[-3,0],[-2,-1],[-1,0],[-1,0],[-2,0]],[[36,679],[59,144],[-24,22],[-21,-22]],[[49,1039],[-3,3]],[[46,1042],[-5,2],[-6,-1],[-3,0],[-5,0],[-1,0],[0,1],[-1,7],[0,1],[0,1],[0,1],[1,1],[6,9],[0,21],[13,10],[-4,23],[-41,16]],[[25,1054],[1,-10]],[[26,1044]],[[26,1044]],[[26,1044]],[[26,1044],[0,-1]],[[26,1043]],[[26,1043]],[[26,1043]],[[26,1043]],[[26,1043],[1,0]],[[27,1043]],[[27,1043],[1,0]],[[28,1043]],[[28,1043],[1,0]],[[29,1043],[1,0]],[[30,1043]],[[30,1043]],[[30,1043]],[[30,1043],[1,0]],[[31,1043]],[[31,1043]],[[31,1043],[1,0]],[[32,1043]],[[32,1043]],[[32,1043],[2,0]],[[34,1043],[1,0]],[[35,1043]],[[35,1043]],[[35,1043]],[[35,1043]],[[35,1043],[1,0]],[[36,1043]],[[36,1043]],[[36,1043],[1,0]],[[32,1066],[0,1]],[[37,1043],[1,0],[2,1],[1,0],[1,0],[0,-1]],[[42,1043],[3,-1]],[[45,1042],[1,0]],[[42,1043],[3,-1]],[[48,1039],[-2,3]],[[46,1042],[-1,0]],[[45,1042]],[[45,1042]],[[2591,3986],[-41,110]],[[236,510],[-7,69],[25,31],[-26,38]],[[1313,4096],[70,-191],[-28,-37]],[[32,1067],[24,3]],[[115,1067],[-59,3]],[[115,1067],[106,-7]],[[25,679],[-25,0]],[[50,1038],[0,-1]],[[50,1037],[0,-80],[-50,-160]],[[46,1042],[4,-5]],[[50,1037],[59,30]],[[109,1067]],[[47,1041],[3,-3]],[[115,1067],[-6,0]],[[3207,898],[-45,30],[-28,95],[-134,140],[-71,13],[-87,119],[-132,22],[-108,-9],[-289,-96],[-202,75],[-39,-14],[-153,27],[-83,-118],[-97,-30],[-48,18],[-42,-41],[-38,17],[-61,-18],[-48,-85],[-92,41],[-128,-85],[-238,50],[-78,-23],[-42,-45],[-98,13],[-75,-68],[-414,106],[-61,41],[-161,-6]],[[3227,878],[-3,5],[-17,15]],[[3229,874],[-2,4]],[[2,1035],[-2,0]],[[0,1036],[1,-1],[2,0],[6,-1],[19,9]],[[26,1044],[1,-1],[4,0],[4,0],[3,0],[1,1],[2,0],[1,0],[0,-1]],[[49,1039],[-3,3]],[[46,1042],[-5,2],[-3,-1],[-2,0],[-1,0],[-3,0],[-5,0],[-1,0],[0,1],[-1,9],[3,5]],[[42,1043],[3,-1]],[[45,1042],[1,0]],[[42,1043],[3,-1]],[[48,1039],[-2,3]],[[46,1042],[-1,0]],[[45,1042]],[[45,1042]],[[25,679],[-9,-2],[-4,3],[-3,2],[-2,0],[-1,0],[-4,-2],[-2,0]],[[0,680],[2,0],[1,0],[1,0],[2,1],[2,1],[4,-2],[2,-2],[1,-1],[1,0],[2,0],[4,0],[1,0],[1,0],[3,4],[36,3],[32,-11],[42,17],[53,-52],[38,10]],[[77,742],[-77,29]],[[25,679],[-9,-2],[-7,5],[-3,0],[-4,-2],[-2,0]],[[35,679],[-8,2],[-1,-1],[-1,-2],[-1,-1],[-1,0],[-1,0],[-6,0],[-1,0],[0,1],[-6,3],[-3,0],[-2,-1],[-1,0],[-1,0],[-2,0]],[[36,679],[59,146],[-46,213]],[[0,565],[50,92]],[[25,679],[-9,-2],[-4,3],[-3,2],[-2,0],[-1,0],[-4,-2],[-2,0]],[[35,679],[-8,2],[-1,-1],[-1,-2],[-2,-1],[-7,0],[-1,1],[-6,3],[-7,-1],[-2,0]],[[50,657],[-16,22]],[[2591,3986],[27,-91],[393,-683],[177,-128],[105,-619],[82,-88],[98,-182],[-25,-112],[147,-105],[-306,-342],[49,-182],[72,-122],[-47,-50],[-57,-183]],[[3233,871],[-3,2],[-3,5]],[[3227,878],[-3,5],[-17,15],[0,3],[60,11],[21,55],[18,132]],[[3306,1099]],[[26,674],[-13,-4],[-13,1]],[[31,680],[-3,1],[-1,0],[0,-1],[-1,0],[-2,-3],[-2,0],[-22,2]],[[30,680],[-4,-6]],[[32,1064]],[[32,1064],[9,54],[-41,16]],[[32,1064],[-4,-4],[0,-1],[0,-1],[1,0],[1,0],[3,1],[6,-1]],[[32,1066],[0,1]],[[33,1059],[-1,5]],[[32,1064]],[[25,679],[-9,-2],[-4,3],[-3,2],[-2,0],[-1,0],[-4,-2],[-2,0]],[[35,679],[-19,-2],[-1,1],[-6,3],[-7,-1],[-2,0]],[[36,679],[59,146],[-46,213]],[[72,746],[-72,26]],[[49,1039],[-3,3]],[[46,1042],[-5,2],[-6,-1],[-8,0],[-1,0],[0,1],[-1,8],[0,1],[0,1],[7,11],[0,20],[13,11],[-7,24],[-38,6]],[[25,1054],[1,-10]],[[26,1044]],[[26,1044]],[[26,1044]],[[26,1044],[0,-1]],[[26,1043]],[[26,1043]],[[26,1043]],[[26,1043]],[[26,1043],[1,0]],[[27,1043]],[[27,1043],[1,0]],[[28,1043]],[[28,1043],[1,0]],[[29,1043],[1,0]],[[30,1043]],[[30,1043]],[[30,1043]],[[30,1043],[1,0]],[[31,1043]],[[31,1043]],[[31,1043],[1,0]],[[32,1043]],[[32,1043]],[[32,1043],[2,0]],[[34,1043],[1,0]],[[35,1043]],[[35,1043]],[[35,1043]],[[35,1043]],[[35,1043],[1,0]],[[36,1043]],[[36,1043]],[[36,1043],[1,0]],[[32,1066],[0,1]],[[37,1043],[1,0],[2,1],[1,0],[1,0],[0,-1]],[[42,1043],[3,-1]],[[45,1042],[1,0]],[[42,1043],[3,-1]],[[48,1039],[-2,3]],[[46,1042],[-1,0]],[[45,1042]],[[45,1042]],[[50,1038],[0,-81],[-50,-160]],[[83,1050],[-36,-9]],[[25,679],[-9,-2],[-4,3],[-3,2],[-2,0],[-1,0],[-4,-2],[-2,0]],[[0,680],[2,0],[6,2],[7,-5],[1,0],[2,0],[4,0],[41,7],[34,-11],[122,50]],[[3443,0],[9,33],[11,105],[9,33],[-2,7],[-7,12],[-1,8],[8,22],[2,8],[5,63],[-5,33],[2,10],[6,18],[10,60],[8,223],[19,128],[0,22],[-29,-13],[-9,-6],[-6,-10],[-6,-37],[-9,-25],[-4,-22],[1,-21],[7,-25],[-11,-1],[-8,-5],[-8,-3],[-8,4],[-14,12],[-11,16],[-9,18],[-16,19],[-11,9],[-17,10],[-19,4],[-13,-12],[-4,18],[-13,34],[-4,24],[-4,5],[-6,4],[-6,6],[-6,9],[-6,18],[-5,9],[-8,6],[-15,6],[-8,4],[-3,5],[-5,14],[-4,6],[-6,3],[-11,3],[-11,2],[-5,-3],[-1,-26],[1,-4],[-7,-3],[-8,8],[-3,15],[6,16],[11,8],[12,4],[12,0],[13,-4],[15,-10],[6,-2],[8,1],[7,4],[19,16],[4,5],[6,8],[34,33],[4,9],[3,10],[2,11],[1,11],[3,9],[5,5],[7,4],[5,7],[5,0],[3,-7],[1,-6],[-1,-5],[4,7],[-5,40],[10,17],[13,52],[17,33],[38,54],[20,23],[189,132],[15,11],[38,16],[16,11],[11,18],[-11,-4],[-4,-3],[-5,17],[13,5],[18,2],[9,6],[7,8],[29,15],[10,3],[-6,-11],[-10,-9],[-12,-8],[-12,-6],[0,-5],[29,8],[107,59],[88,31],[105,55],[15,6],[0,-1570],[-653,0]],[[3482,802],[5,18],[0,4],[10,1],[2,-3],[1,-6],[2,-3],[9,-5],[2,-3],[2,1],[7,7],[2,5],[8,22],[5,24],[0,9],[-20,-9],[-27,-17],[-16,-22],[8,-23]],[[277,69],[9,-14],[2,-8],[-4,-4],[-8,7],[-12,17],[-15,-1],[-28,-20],[-13,4],[3,7],[1,7],[-4,5],[-7,3],[-6,3],[-2,6],[-1,7],[-3,6],[-9,2],[-9,-2],[-10,-6],[-12,-5],[-5,7],[-13,15],[-7,5],[-27,10],[-9,7],[-2,-6],[-5,-4],[-8,-2],[-9,1],[0,-6],[12,-9],[11,-28],[13,-8],[-4,-4],[-7,-3],[-16,-3],[-6,-4],[-5,-5],[-4,-7],[14,0],[9,-8],[15,-22],[8,-1],[6,10],[5,14],[6,10],[20,12],[14,-4],[11,-15],[8,-23],[-3,-12],[-22,0],[-6,9],[-4,-2],[0,-7],[-53,0],[-30,12],[-7,-12],[-18,0],[-3,8],[-1,10],[-3,8],[-10,2],[15,31],[4,2],[19,4],[6,2],[8,13],[-8,11],[-17,7],[-18,2],[3,7],[5,6],[6,2],[7,1],[-9,11],[-12,-1],[-12,-8],[-7,-8],[-4,-8],[0,52],[5,6],[6,9],[2,11],[1,18],[16,-11],[11,-15],[13,-34],[12,5],[12,3],[28,2],[7,-5],[24,-22],[14,-5],[51,3],[12,-3],[3,-10],[-3,-14],[0,-15],[9,-10],[10,16],[18,9],[16,-2],[6,-18],[4,-3]],[[3443,0],[9,33],[11,105],[9,33],[-2,7],[-7,12],[-1,8],[8,22],[2,8],[5,63],[-5,33],[2,10],[6,18],[10,60],[8,223],[19,128],[0,22],[-29,-13],[-9,-6],[-6,-10],[-6,-37],[-9,-25],[-4,-22],[1,-21],[7,-25],[-11,-1],[-8,-5],[-8,-3],[-8,4],[-14,12],[-11,16],[-9,18],[-16,19],[-11,9],[-17,10],[-19,4],[-13,-12],[-4,18],[-13,34],[-4,24],[-4,5],[-6,4],[-6,6],[-6,9],[-6,18],[-5,9],[-8,6],[-15,6],[-8,4],[-3,5],[-5,14],[-4,6],[-6,3],[-11,3],[-11,2],[-5,-3],[-1,-26],[1,-4],[-7,-3],[-8,8],[-3,15],[6,16],[11,8],[12,4],[12,0],[13,-4],[15,-10],[6,-2],[8,1],[7,4],[19,16],[4,5],[6,8],[34,33],[4,9],[3,10],[2,11],[1,11],[3,9],[5,5],[7,4],[5,7],[5,0],[3,-7],[1,-6],[-1,-5],[4,7],[-5,40],[10,17],[13,52],[17,33],[38,54],[20,23],[189,132],[15,11],[38,16],[16,11],[11,18],[-11,-4],[-4,-3],[-5,17],[13,5],[18,2],[9,6],[7,8],[29,15],[10,3],[-6,-11],[-10,-9],[-12,-8],[-12,-6],[0,-5],[29,8],[107,59],[88,31],[105,55],[15,6]],[[277,69],[9,-14],[2,-8],[-4,-4],[-8,7],[-12,17],[-15,-1],[-28,-20],[-13,4],[3,7],[1,7],[-4,5],[-7,3],[-6,3],[-2,6],[-1,7],[-3,6],[-9,2],[-9,-2],[-10,-6],[-12,-5],[-5,7],[-13,15],[-7,5],[-27,10],[-9,7],[-2,-6],[-5,-4],[-8,-2],[-9,1],[0,-6],[12,-9],[11,-28],[13,-8],[-4,-4],[-7,-3],[-16,-3],[-6,-4],[-5,-5],[-4,-7],[14,0],[9,-8],[15,-22],[8,-1],[6,10],[5,14],[6,10],[20,12],[14,-4],[11,-15],[8,-23],[-3,-12]],[[149,0],[-6,9],[-4,-2],[0,-7]],[[86,0],[-30,12],[-7,-12]],[[31,0],[-3,8],[-1,10],[-3,8],[-10,2],[15,31],[4,2],[19,4],[6,2],[8,13],[-8,11],[-17,7],[-18,2],[3,7],[5,6],[6,2],[7,1],[-9,11],[-12,-1],[-12,-8],[-7,-8],[-4,-8]],[[0,154],[5,6],[6,9],[2,11],[1,18],[16,-11],[11,-15],[13,-34],[12,5],[12,3],[28,2],[7,-5],[24,-22],[14,-5],[51,3],[12,-3],[3,-10],[-3,-14],[0,-15],[9,-10],[10,16],[18,9],[16,-2],[6,-18],[4,-3]],[[3482,802],[5,18],[0,4],[10,1],[2,-3],[1,-6],[2,-3],[9,-5],[2,-3],[2,1],[7,7],[2,5],[8,22],[5,24],[0,9],[-20,-9],[-27,-17],[-16,-22],[8,-23]],[[1365,3904],[33,36],[37,40],[27,40],[21,23],[30,36],[18,13],[5,4]],[[1310,4096],[10,-23],[6,-34],[12,-13],[15,-49],[9,-43],[3,-30]],[[4096,3897],[-25,-3],[-18,-16],[-9,0],[-51,3],[-27,7],[-18,13],[-21,3],[-24,7],[-33,23],[-30,3],[-27,-3],[-27,16],[-15,7],[-30,3],[-33,0],[-15,-3],[-15,-10],[-9,-13],[-18,-37],[-21,-23],[-9,-3],[-39,-3],[-27,-4],[-24,-6],[-36,-7],[-3,-6]],[[1395,3775],[5,19]],[[1400,3794],[1,4],[-9,27],[-12,10],[-15,6],[-12,10],[-3,17],[3,16],[12,20]],[[2135,3744],[14,2],[18,0],[18,13],[21,3],[21,-13],[18,-3],[3,-10],[3,-37],[6,-6]],[[1522,3573],[33,11],[25,16]],[[2128,3742],[7,2]],[[1486,3557],[6,7],[24,7],[6,2]],[[1580,3600],[23,14],[45,16],[42,10],[6,7],[3,19],[6,7],[33,20],[39,36],[18,7],[18,0],[15,6],[36,-6],[21,-4],[51,4],[36,3],[30,-17],[18,-3],[18,0],[66,20],[24,3]],[[1395,3775],[3,0],[4,-4]],[[1402,3771],[21,-29],[15,-13],[21,-3],[6,-17],[-6,-16],[-3,-17],[6,-29],[12,-30],[12,-50],[0,-10]],[[1391,3761],[4,14]],[[1308,3541],[9,36],[15,30],[15,20],[9,26],[3,3],[6,20],[3,30],[6,20],[15,30],[2,5]],[[2125,3485],[-15,13]],[[2230,3448],[-3,43],[0,40],[6,53],[3,16],[0,30],[3,20],[15,20],[3,23]],[[2125,3485],[51,-30],[18,-3],[27,-7],[9,3]],[[3284,3669],[-5,-9],[-24,-10],[-21,-4]],[[3234,3646],[-16,-3],[-18,-3],[-39,-26],[-24,-7],[-15,-10],[-15,-17],[-33,-9],[-27,0],[-6,-4],[-6,-16],[-15,-33],[-6,-4],[-21,-9],[-21,-24],[-24,-19],[-27,-7],[-18,7],[-18,-7],[-21,-20],[-3,-6]],[[3492,3845],[-6,-10],[-33,-33],[-27,-20],[-15,-17],[-15,-6],[-18,-3],[-39,-4],[-15,-6],[-6,-17],[0,-20],[-6,-16],[-21,-13],[-7,-11]],[[2257,3693],[3,6],[9,0],[36,-6],[5,0]],[[2323,3693],[16,0],[42,-4],[81,-19],[33,-4],[18,-3],[15,-16],[12,-20],[12,-10],[9,-17],[24,-16],[15,-30],[15,-16],[12,-10],[21,-14],[33,-3],[6,-3],[9,-36],[9,-10],[24,-20],[15,-20],[21,-33],[9,-13],[9,-33],[12,0],[5,3]],[[2310,3693],[13,0]],[[2800,3346],[16,10],[3,30],[12,10],[30,33]],[[1305,3217],[2,10]],[[1307,3227],[1,10],[9,13],[-3,10],[6,17],[-6,13],[-9,33],[-6,7],[-24,9],[0,10],[9,23],[6,20],[3,40],[12,46],[0,43],[3,20]],[[2101,3468],[24,17]],[[1305,3217],[4,-1]],[[1680,3256],[1,1],[12,6],[15,3]],[[1309,3216],[14,-9],[30,4],[21,-17],[18,-3],[12,10],[19,-4],[12,-9],[18,-7],[18,3],[18,13],[24,-6],[12,0],[12,6],[30,7],[21,0],[18,-7],[12,10],[39,17],[12,20],[11,12]],[[1708,3266],[3,1],[21,0],[30,13],[21,0],[21,-3],[15,-10],[18,-13],[15,3],[18,13],[27,40],[33,23],[15,16],[21,14],[15,16],[24,20],[36,43],[12,10],[33,10],[15,6]],[[0,3150],[29,-9],[54,-26],[57,-33],[18,-7],[24,-10],[15,-6],[33,-23]],[[1305,3202],[0,15]],[[1209,2966],[21,37],[12,43],[27,52],[12,43],[18,40],[6,16],[0,5]],[[969,2534],[0,10],[6,16],[3,5]],[[978,2565],[18,31],[21,24],[18,16],[24,30],[24,56],[15,30],[42,59],[15,17],[12,23],[9,23],[18,63],[15,29]],[[966,2517],[3,17]],[[657,2316],[1,1]],[[961,2506],[5,11]],[[658,2317],[20,9],[30,-7],[9,3],[30,27],[30,13],[15,3],[27,17],[21,26],[12,10],[69,40],[33,33],[7,15]],[[624,2397],[-6,-32],[3,-10],[12,-19],[24,-20]],[[230,3036],[15,-20],[21,-40],[12,-10],[45,-13],[18,-26],[24,-20],[12,-23],[21,-30],[12,-10],[27,-20],[12,-10],[27,-29],[33,-20],[25,-23],[6,-13],[9,-37],[9,-39],[3,-50],[9,-46],[6,-13],[21,-37],[9,-43],[15,-19],[9,-24],[-6,-24]],[[636,2293],[3,6],[18,17]],[[627,2270],[9,23]],[[2861,3429],[33,-57],[33,-56],[24,-39],[30,-56],[21,-33],[15,-10],[33,-14],[18,-13],[36,-29],[30,-24],[33,-26],[15,-26],[9,-37],[12,-82],[9,-47],[12,-42],[6,-37],[31,-171],[15,-53],[21,-43],[12,-20],[9,-3],[42,-4],[12,-10],[30,-59],[18,-33],[30,-69],[24,-53],[24,-50],[9,-23],[33,-63]],[[3540,2147],[21,-39],[9,-33],[0,-23]],[[431,2042],[21,53],[39,62],[18,14],[31,13],[21,13],[42,46],[12,10],[12,17]],[[627,2270],[3,-40],[9,-26],[18,-33],[27,-83],[6,-46],[9,-66],[3,-7]],[[206,1890],[8,6]],[[214,1896],[16,14],[21,13],[27,3],[27,-6],[9,0],[24,19],[18,27],[9,16],[27,30],[24,17],[15,13]],[[195,1880],[11,10]],[[131,1741],[3,10],[12,7],[12,10],[6,16],[3,20],[9,16],[-3,17],[0,10],[9,10],[12,23],[1,0]],[[702,1969],[12,-20],[9,-23],[6,-36],[12,-30],[18,-30],[12,-26],[6,-17],[3,-29],[-6,-30],[3,-13]],[[3633,1626],[3,19],[6,17],[24,66],[3,20],[-3,33],[3,49],[0,10],[-24,43],[-9,43],[-24,66],[-9,13],[-12,10],[-27,7],[-3,7]],[[4050,1607],[-15,2],[-4,5]],[[4031,1614],[-8,8],[-9,23],[-6,4],[-27,10],[-24,16],[-24,13],[-42,14],[-45,10],[-18,-4],[-42,-13],[-21,0],[-36,-7],[-15,-6],[-15,-20],[-21,-13],[-21,-10],[-24,-13]],[[4096,1618],[-7,-6],[-36,-6],[-3,1]],[[3633,1626],[-42,-23],[-27,-4],[-39,-3],[-18,-3],[-42,0]],[[777,1715],[24,-7],[30,-16],[30,-17],[12,-20],[24,-19],[15,-30],[6,-3],[6,-17],[-3,-30],[0,-19],[9,-20]],[[2813,1279],[-12,20],[-18,-4]],[[2783,1295],[-18,-3],[-42,3],[-42,-9],[-21,0],[-30,3],[-9,0],[-39,-17]],[[127,1350],[1,27]],[[129,1395],[2,34]],[[125,1324],[1,22]],[[110,1262],[12,20],[-3,20],[6,17],[0,5]],[[126,1346],[1,4]],[[128,1377],[1,18]],[[131,1429],[0,8],[6,40],[3,33],[3,10],[3,86],[-3,20],[3,19],[3,30],[-15,50],[-3,16]],[[2582,1272],[-27,-16],[-36,-7],[-42,-10],[-66,-26],[-33,-7],[-21,0],[-15,7],[-12,-10]],[[2107,1261],[-21,5]],[[2330,1203],[-19,-7],[-15,7],[-21,3],[-27,-6],[-12,13],[-12,20],[-15,6],[-36,14],[-27,6],[-33,0],[-6,2]],[[2086,1266],[-15,-4],[-15,9]],[[2056,1271],[-9,5],[-42,0],[-21,3],[-21,10],[-12,13],[-21,10],[-21,0],[-12,-10],[-12,-13],[-6,-17],[3,-10],[15,-16],[6,-17],[-3,-9],[-24,-30],[-15,-10],[-9,0],[-27,6],[-30,-3],[-27,-6],[-15,-4],[-24,-23],[-9,3],[-30,17],[-18,-7],[-18,-13],[-27,-3],[-6,-7],[-51,17]],[[2996,1117],[-6,7],[-42,36],[-30,13],[-24,23],[-18,24],[-18,-4],[-12,0],[-3,7],[-3,26],[-9,17],[-18,13]],[[1570,1157],[-12,-7],[-15,-20],[-3,-23]],[[62,1074],[-3,20],[3,26],[3,8]],[[65,1128],[12,25],[15,30],[9,27],[9,49],[0,3]],[[62,1074],[-24,10],[-30,3],[-8,1]],[[59,1068],[3,6]],[[47,1058],[12,10]],[[1540,1107],[-9,-6],[-27,-17],[-33,-10],[-12,-10],[-27,-6],[-13,10],[-6,0]],[[107,1058],[-45,16]],[[1413,1068],[-3,0],[-15,-17]],[[978,1056],[-3,-8],[3,-17]],[[930,1517],[15,-43],[0,-10],[-9,-27],[-12,-33],[-24,-46],[12,-30],[15,-6],[18,-17],[21,0],[6,-6],[0,-30],[15,-40],[0,-19],[-21,-37],[-6,-26],[6,-33],[15,-33],[0,-17],[-3,-8]],[[1004,1026],[-23,-1]],[[1050,1028],[-46,-2]],[[978,1031],[3,-6]],[[1050,1028],[-36,-23]],[[981,1025],[18,-7],[5,-5]],[[1004,1013],[10,-8]],[[174,1046],[-22,5],[-45,7]],[[242,1022],[-21,6],[-4,2]],[[217,1030],[-38,15],[-5,1]],[[455,998],[-30,0],[-42,4],[-63,-4],[-27,7],[-36,13],[-15,4]],[[1287,998],[-24,4],[-21,9],[-30,7],[-42,3],[-21,4],[-33,0],[-45,3],[-21,0]],[[1395,1051],[-15,-10],[-42,-13],[-30,-26],[-21,-4]],[[1004,999],[0,-1]],[[1004,998],[-26,-16]],[[1014,1005],[-10,-6]],[[29,959],[9,23],[6,29],[0,30],[3,17]],[[795,945],[6,14],[12,10],[8,5]],[[941,1021],[4,4],[21,10],[12,-4]],[[821,974],[13,8],[33,10],[21,10],[18,6],[21,0],[14,13]],[[834,937],[-39,8]],[[978,982],[-21,-4],[-39,-3],[-12,-10],[-21,-13],[-18,-13],[-6,-3],[-21,0],[-6,1]],[[795,945],[-54,10],[-27,-3],[-23,-13]],[[691,939],[-7,-3],[-30,0],[-69,23],[-42,13],[-31,6],[-57,20]],[[29,959],[-12,-4],[-17,-10]],[[0,945]],[[3212,912],[-18,40],[-10,9]],[[3184,961],[-14,11],[-21,13],[-12,20],[-30,33],[-24,23],[-27,36],[-21,17],[-39,36]],[[3240,956],[0,-20],[-7,-33]],[[3465,1593],[-3,-7],[-12,-33],[0,-20],[15,-20],[6,-16],[6,-17],[0,-10],[-12,-19],[-9,-27],[-3,-6],[-21,-23],[-9,-17],[0,-40],[-3,-10],[-48,-6],[-15,-7],[-18,-16],[-12,-20],[-18,-17],[-3,-6],[0,-33],[3,-27],[3,-43],[-3,-29],[-6,-27],[6,-16],[9,-23],[-27,-7],[-9,-13],[-27,-17],[-6,-16],[-9,-40],[0,-9]],[[3233,903],[-21,9]],[[3233,903],[0,-4],[16,-10],[16,-6]],[[3265,883],[2,0]],[[3065,823],[-21,23],[-6,17],[3,73],[-3,19],[-12,30],[-9,46],[0,43],[-21,43]],[[3212,912],[-6,0],[-27,-19],[-33,-23],[0,-1]],[[3146,869],[-12,-19],[-21,-10],[-24,-23],[-18,0],[-6,6]],[[772,910],[14,19],[9,16]],[[684,813],[21,33],[12,30],[12,10],[30,13],[12,10],[1,1]],[[0,860],[2,6],[18,63],[9,30]],[[3062,803],[3,0],[0,20]],[[2945,840],[33,-23],[18,-7],[63,-10],[3,3]],[[684,813],[-21,4],[-63,6],[-21,0],[-30,-3],[-24,-10],[-28,-3],[-21,-10],[-21,-23]],[[455,774],[-48,-17],[-15,-3]],[[1014,1005],[24,-27],[21,-29],[21,-37],[15,-19],[12,-20],[9,-33],[12,-30],[15,-20],[6,-13],[6,-26],[12,-23]],[[97,953],[-2,9],[-9,30]],[[89,718],[-3,19],[0,20],[9,37],[8,12]],[[110,856],[0,13]],[[110,869],[0,37],[-9,33],[-4,14]],[[103,806],[10,17],[-3,30],[0,3]],[[238,726],[-11,5],[-21,0],[-39,-3],[-30,-14],[-9,0],[-18,4],[-21,0]],[[392,754],[-36,-10],[-33,-13],[-51,-10],[-21,0],[-13,5]],[[0,708],[29,6],[42,0],[18,4]],[[2,665],[-2,3]],[[1744,665],[15,0],[21,6],[39,23],[24,17],[18,3],[21,0],[24,7],[27,20],[15,6],[9,0],[36,-10],[24,-13],[27,-16],[9,-4],[18,-13]],[[8,652],[-6,13]],[[239,648],[-15,0],[-36,10],[-12,0],[-24,-6],[-12,0],[-24,9],[-21,4],[-36,10],[-24,0],[-33,-10]],[[292,662],[-11,3],[-9,0],[-27,-17],[-6,0]],[[359,632],[-42,23],[-25,7]],[[3062,803],[3,-19],[-3,-63],[0,-53],[3,-30],[9,-23],[0,-10]],[[485,572],[-66,7],[-15,7],[-12,9],[-24,33],[-9,4]],[[585,559],[-15,0],[-27,-3],[-18,6],[-40,10]],[[1404,470],[9,13],[10,33],[24,33],[33,33],[15,10],[21,23],[24,7],[33,3],[36,17],[24,10],[66,19],[45,-6]],[[981,490],[-24,0],[-45,-7],[-30,-13],[-12,-10],[-18,-3],[-18,3],[-15,10],[-30,23],[-24,13],[-36,10],[-15,7],[-39,10],[-30,13],[-33,0],[-21,10]],[[76,565],[-11,17],[-27,20],[-12,30],[-18,20]],[[173,450],[-10,12]],[[163,462],[-14,15],[-24,23],[-21,23],[-21,33],[-7,9]],[[2203,586],[3,-24],[21,-26],[9,-33],[18,-17],[12,-29],[9,-7]],[[173,447],[0,3]],[[2301,451],[19,9],[19,3],[39,-10],[6,3]],[[2275,450],[15,-3],[9,3],[2,1]],[[2384,456],[3,1],[21,10],[18,-7],[9,3]],[[1355,439],[1,-2]],[[1167,728],[9,-14],[6,-16],[12,-10],[6,-13],[27,-10],[24,-20],[12,-20],[9,-16],[6,-33],[12,-23],[21,-24],[15,-16],[3,-20],[9,-23],[3,-17],[14,-14]],[[1356,437],[-3,1]],[[1353,438],[-12,6],[-42,3],[-39,0],[-21,-3],[-21,0],[-30,16],[-42,13],[-21,4],[-30,-4],[-27,-6],[-18,0],[-51,10],[-6,9]],[[1380,434],[9,3],[9,13],[6,20]],[[1369,436],[-4,1]],[[1380,434],[-11,2]],[[1401,420],[-12,14],[-9,0]],[[184,417],[-5,10],[-6,20]],[[197,401],[-12,13],[-1,3]],[[0,634],[5,8],[3,10]],[[341,331],[-6,-3],[-18,0],[-42,26],[-12,14],[-30,3],[-15,10],[-9,13],[-12,7]],[[2435,463],[24,-13],[18,-3],[30,3],[24,7],[15,-7],[12,-23],[3,-16],[0,-24],[27,-49],[9,-27]],[[2597,311],[3,-3],[15,3],[9,-3],[27,-6],[15,-7],[27,-30],[15,-10],[33,0],[9,-3]],[[1666,209],[-48,36],[-6,4],[-60,10],[-30,-4],[-15,10],[-18,27],[-6,16],[-3,36],[-3,7],[-18,17],[-21,23],[-22,13],[-15,16]],[[3032,189],[-21,13],[-24,20],[-21,33],[-18,40],[12,23],[-3,17],[0,29],[3,20],[9,27],[9,23],[3,19],[24,30],[-6,23],[3,17],[3,20],[-3,16],[6,20]],[[275,163],[-30,43],[-12,33],[-18,36],[-15,46],[-9,37],[3,19],[3,24]],[[1921,130],[-12,-7],[-18,-3],[-39,3],[-12,4],[-45,23],[-27,6],[-21,13],[-27,10],[-45,23],[-9,7]],[[816,90],[-28,7]],[[788,97],[-23,6],[-36,10],[-33,14],[-39,9],[-15,7],[-39,17],[-24,3],[-21,10],[-21,13],[-9,13],[-19,17],[-36,20],[-12,23],[-21,23],[-30,23],[-30,16],[-39,10]],[[828,80],[-12,10]],[[1957,77],[12,23],[24,13],[30,37],[15,16],[30,3]],[[1957,77],[-18,40],[-9,10],[-9,3]],[[1365,437],[0,-12]],[[1365,425],[0,-1],[-18,-63],[-9,-40],[-9,-36],[-9,-23],[-6,-30],[9,-23],[-3,-10],[-18,-39],[-21,-20],[-12,-23],[-6,-17],[9,-46],[6,-10]],[[353,27],[-12,14],[-9,13],[-6,33],[-15,33],[-12,16],[-24,27]],[[2068,169],[15,-16],[6,-10],[6,-36],[18,-33],[24,-33],[15,-20],[12,-10],[18,-3],[13,-8]],[[832,76],[-4,4]],[[958,0],[-1,1],[-24,10],[-21,23],[-30,17],[-9,0],[-18,16],[-18,3],[-5,6]],[[353,27],[27,-27]],[[1278,44],[3,-13],[-10,-31]],[[2996,123],[3,0],[1,-1]],[[3000,122],[8,-12],[3,-7],[-3,-19],[-6,-17],[0,-20],[-11,-47]],[[2987,123],[9,0]],[[1957,0],[12,11],[3,10],[-9,13],[-6,13]],[[356,0],[-15,41]],[[2071,691],[24,-10],[24,-13],[21,-16]],[[3532,840],[-8,-22],[-2,-5],[-7,-7],[-2,-1],[-2,3],[-9,5],[-2,3],[-1,6],[-2,3],[-10,-1],[0,-4],[-5,-18],[-8,23],[16,22],[27,17],[20,9],[0,-9],[-5,-24]],[[4096,1573],[0,-3],[-15,-6],[-105,-55],[-88,-31],[-107,-59],[-29,-8],[0,5],[12,6],[12,8],[10,9],[6,11],[-10,-3],[-29,-15],[-7,-8],[-9,-6],[-18,-2],[-13,-5],[5,-17],[4,3],[11,4],[-11,-18],[-16,-11],[-38,-16],[-15,-11],[-189,-132],[-20,-23],[-38,-54],[-17,-33],[-13,-52],[-10,-17],[5,-40],[-4,-7],[1,5],[-1,6],[-3,7],[-5,0],[-5,-7],[-7,-4],[-5,-5],[-3,-9],[-1,-11],[-2,-11],[-3,-10],[-4,-9],[-34,-33],[-6,-8],[-4,-5],[-19,-16],[-7,-4],[-8,-1],[-6,2],[-15,10],[-13,4],[-12,0],[-12,-4],[-11,-8],[-6,-16],[3,-15],[8,-8],[7,3],[-1,4],[1,26],[5,3],[11,-2],[11,-3],[6,-3],[4,-6],[5,-14],[3,-5],[8,-4],[15,-6],[8,-6],[5,-9],[6,-18],[6,-9],[6,-6],[6,-4],[4,-5],[4,-24],[13,-34],[4,-18],[13,12],[19,-4],[17,-10],[11,-9],[16,-19],[9,-18],[11,-16],[14,-12],[8,-4],[8,3],[8,5],[11,1],[-7,25],[-1,21],[4,22],[9,25],[6,37],[6,10],[9,6],[29,13],[0,-22],[-19,-128],[-8,-223],[-10,-60],[-6,-18],[-2,-10],[5,-33],[-5,-63],[-2,-8],[-8,-22],[1,-8],[7,-12],[2,-7],[-9,-33],[-11,-105],[-9,-33],[-3443,0],[0,4096],[4096,0],[0,-2523]],[[2781,626],[46,94],[60,-11],[-3,-66],[-19,-12],[-22,39],[-14,-42],[4,-22],[26,14],[8,-17],[-64,-25],[-22,48]],[[2577,833],[0,35],[38,6],[47,-30],[14,-83],[-27,0],[-27,-50],[-36,39],[-9,83]],[[1463,3500],[0,19],[52,11],[8,46],[77,32],[27,-72],[-96,-40],[-68,4]],[[2648,647],[55,-21],[-7,93],[22,9],[51,-75],[34,37],[7,-16],[-126,-124],[-36,97]],[[2102,686],[6,37],[70,152],[28,-25],[-10,-120],[-44,-11],[-28,-47],[-22,14]],[[3180,156],[72,38],[95,230],[30,-72],[-74,-198],[-123,2]],[[126,1377],[33,-5],[-33,25],[1,31],[22,8],[13,-45],[31,51],[22,-44],[-33,-28],[68,-30],[-6,-49],[31,-34],[-69,32],[13,52],[-47,-16],[-2,-24],[-42,10],[-2,66]],[[2108,2644],[20,91],[39,-28],[31,23],[-8,-135],[-75,12],[-7,37]],[[231,3645],[19,4],[-12,56],[57,28],[54,-132],[-69,-22],[-38,21],[-11,45]],[[550,3884],[91,212],[33,-47],[-22,47],[118,0],[47,-93],[93,-109],[-113,14],[-51,-30],[-82,-1],[-40,-55],[-74,62]],[[695,4018],[6,-9],[18,-1],[-24,10]],[[2123,3721],[12,58],[76,8],[78,-31],[28,-45],[-172,-26],[-22,36]],[[777,3745],[6,67],[62,28],[60,-7],[16,-130],[-28,-9],[-29,27],[-20,-17],[26,-21],[-81,-32],[-12,94]],[[2276,2363],[167,2],[0,-52],[-118,-28],[-49,78]],[[1758,2395],[33,35],[58,-66],[26,36],[41,-26],[-16,-17],[31,-40],[-105,-43],[2,34],[-70,87]],[[2538,1848],[4,-134],[5,-28],[-119,-17],[-15,32],[30,5],[-8,55],[-61,-7],[-31,24],[-11,85],[99,0],[35,40],[-40,-6],[19,27],[-34,43],[-51,-2],[11,71],[-5,-19],[-108,-13],[39,106],[-25,-1],[-1,26],[47,22],[-31,19],[8,23],[-127,-9],[0,-26],[-25,-1],[-6,68],[-48,-26],[-28,-4],[22,45],[-62,-17],[-1,41],[-14,-17],[-42,43],[71,15],[-9,39],[73,41],[23,7],[9,-24],[43,19],[51,22],[100,-130],[-1,-3],[78,8],[8,-88],[-66,-87],[43,-20],[-9,-34],[58,2],[-37,-34],[130,-70],[-3,-48],[12,-63]],[[2137,2232],[-7,67],[4,-42],[-25,-24],[28,-1]],[[3164,0],[-30,0],[-32,11],[15,145],[138,-1],[-76,-141],[-15,-14]],[[2936,143],[45,38],[93,-18],[-1,-65],[-137,45]],[[834,46],[-56,36],[24,35],[28,-18],[4,-53]],[[899,215],[-27,19],[3,43],[31,-26],[-7,-36]],[[1089,821],[-26,8],[-2,18],[38,0],[-10,-26]],[[3250,955],[54,-33],[-45,-45],[-61,11],[-64,-23],[30,97],[86,-7]],[[794,776],[7,-21],[-39,12],[24,35],[8,-26]],[[611,753],[-15,16],[4,42],[40,-44],[-29,-14]],[[899,865],[-26,22],[2,40],[10,-12],[14,-50]],[[720,990],[114,-19],[-1,-46],[-52,-29],[-19,31],[-73,9],[31,54]],[[2137,998],[-21,11],[-20,42],[42,-13],[-1,-40]],[[1004,998],[-69,25],[-2,26],[71,11],[0,-62]],[[244,1016],[-26,8],[-7,27],[24,-9],[9,-26]],[[123,1381],[6,-58],[-55,13],[12,44],[37,1]],[[458,1498],[-26,7],[-2,18],[38,0],[-10,-25]],[[4014,1621],[11,-8],[37,8],[-24,-28],[-24,28]],[[2257,1661],[12,32],[22,8],[-4,-23],[-30,-17]],[[718,1565],[-5,-51],[-24,0],[-25,53],[54,-2]],[[660,1584],[-70,-72],[-23,-7],[-3,35],[-35,-9],[-2,27],[40,0],[25,36],[40,-18],[49,27],[-21,-19]],[[1690,1558],[-31,18],[10,16],[47,-16],[-26,-18]],[[2130,1810],[-18,6],[33,36],[13,-12],[-28,-30]],[[2161,1989],[0,-48],[-50,14],[-15,30],[65,4]],[[211,1870],[-26,17],[2,27],[27,-16],[-3,-28]],[[751,1433],[-22,10],[21,23],[12,-32],[-11,-1]],[[398,1434],[3,37],[37,-1],[-15,-24],[-25,-12]],[[2201,1505],[-32,-36],[-14,17],[30,64],[16,-45]],[[1522,2074],[-18,25],[-6,38],[27,-25],[-3,-38]],[[638,2370],[28,-75],[-10,-25],[-80,89],[32,9],[8,45],[22,-43]],[[2193,2446],[-43,31],[27,51],[43,-28],[6,-43],[-33,-11]],[[2142,2502],[-21,-36],[-33,53],[44,8],[10,-25]],[[1881,2992],[-27,-1],[27,26],[0,-25]],[[1165,2505],[-33,28],[4,46],[62,-6],[-33,-68]],[[1579,2526],[-41,11],[49,36],[24,-27],[-32,-20]],[[948,2583],[64,-37],[-24,-45],[-57,9],[-40,80],[57,-7]],[[1498,2564],[-33,26],[6,26],[27,-17],[0,-35]],[[1304,3195],[-24,15],[7,30],[24,-15],[-7,-30]],[[1722,3305],[-18,-49],[-53,2],[33,44],[38,3]],[[1400,3767],[-32,-20],[-8,14],[24,39],[25,-9],[-9,-24]],[[435,1086],[-9,19],[39,31],[-12,-40],[-18,-10]],[[0,1224],[0,47],[25,-42],[-25,-5]],[[2088,1292],[20,-31],[-52,-14],[0,53],[32,-8]],[[2221,1409],[29,-37],[-24,-27],[32,-9],[-24,-71],[-27,4],[-46,120],[40,31],[20,-11]],[[1360,411],[-24,18],[32,17],[1,-11],[-9,-24]],[[2388,464],[-17,-35],[-71,12],[7,41],[81,-18]],[[2154,643],[51,-8],[13,-46],[-41,-9],[-23,63]],[[786,633],[-33,0],[4,19],[26,1],[3,-20]],[[749,466],[61,-2],[-8,-80],[-49,-20],[-89,47],[49,71],[36,-16]],[[0,961],[0,186],[114,-33],[122,17],[-122,-169],[-89,-51],[8,-37],[49,26],[32,-35],[-20,-40],[23,-51],[127,-7],[-8,-54],[58,-45],[-34,-79],[49,-71],[-25,-36],[-40,18],[-49,-89],[-27,14],[-13,30],[65,54],[-41,26],[-26,89],[-24,10],[-96,-125],[-33,14],[0,394],[1,1],[-1,43]],[[3442,0],[-48,0],[3,83],[21,-4],[29,77],[24,5],[-29,-161]],[[3319,684],[29,17],[79,-84],[31,8],[-3,25],[50,0],[-29,-300],[-99,2],[-14,21],[-44,311]],[[2681,4096],[-92,-103],[-18,30],[-147,-165],[-20,74],[24,102],[-22,21],[8,38],[267,3]],[[2012,3481],[76,86],[-25,39],[12,29],[61,15],[-1,129],[77,8],[77,-31],[215,-665],[-187,620],[190,-26],[113,-135],[59,-8],[120,-195],[42,-14],[-10,-42],[48,-59],[121,-77],[-15,-44],[17,-69],[151,-184],[32,-212],[68,-92],[-16,-82],[46,-117],[-83,-45],[-28,105],[-41,47],[-107,24],[13,44],[-24,14],[-129,20],[-149,-81],[20,-179],[57,-97],[34,-665],[-32,-242],[-40,78],[-23,1],[-8,-37],[-31,3],[-57,61],[-11,-66],[-35,5],[-40,-43],[-25,-5],[0,31],[-36,-6],[-50,-64],[-94,-34],[-36,36],[-52,199],[-42,66],[3,54],[45,87],[158,-6],[107,26],[-18,273],[-108,44],[-22,26],[37,34],[-61,-2],[12,34],[-43,20],[66,87],[-8,88],[41,23],[0,52],[-167,-2],[-62,124],[-15,244],[-33,44],[14,54],[-44,28],[-116,339],[83,272],[-91,13]],[[2589,3991],[92,105],[386,0],[-354,-367],[-124,262]],[[3028,3535],[248,134],[428,17],[60,-170],[141,-104],[-7,-44],[-23,-57],[-84,-26],[-107,-180],[-69,34],[-131,-14],[-105,-65],[-90,38],[-128,140],[-133,297]]]}