{"objects":{"water":{"type":"GeometryCollection","geometries":[]},"buildings":{"type":"GeometryCollection","geometries":[]},"places":{"type":"GeometryCollection","geometries":[{"type":"Point","properties":{"source":"naturalearthdata.com","kind":"locality","name":"Moscow","country_capital":true,"population":10452000,"min_zoom":2.0,"id":7270},"coordinates":[2813,4068]},{"type":"Point","properties":{"name:pt":"Oblast de Moscou","name:cy":"Oblast Moscfa","name:ko":"\ubaa8\uc2a4\ud06c\ubc14 \uc8fc","name:cv":"\u041c\u0443\u0441\u043a\u0430\u0432 \u043e\u0431\u043b\u0430\u00e7\u0115","name:cu":"\u041c\u043e\u0441\u043a\u044a\u0432\u044c\u0441\u043a\u0430 \u043e\u0431\u043b\u0430\u0441\u0442\u044c","name:cs":"Moskevsk\u00e1 oblast","name:tt":"\u041c\u04d9\u0441\u043a\u04d9\u04af \u04e9\u043b\u043a\u04d9\u0441\u0435","name:kv":"\u041c\u04e7\u0441\u043a\u0443\u0430 \u043e\u0431\u043b\u0430\u0441\u044c\u0442","min_zoom":4.0,"name:ro":"Regiunea Moscova","name:tl":"Moscow Oblast","name:sv":"Moskva oblast","name:os":"\u041c\u00e6\u0441\u043a\u0443\u044b\u0439\u044b \u043e\u0431\u043b\u00e6\u0441\u0442","name:ce":"\u041c\u043e\u0441\u043a\u0432\u0430\u043d \u043e\u0431\u043b\u0430\u0441\u0442\u044c","name:ta":"\u0bae\u0bbe\u0bb8\u0bcd\u0b95\u0bcb \u0b93\u0baa\u0bcd\u0bb2\u0bb8\u0bcd\u0ba4\u0bc1","name:tg":"\u0412\u0438\u043b\u043e\u044f\u0442\u0438 \u041c\u0430\u0441\u043a\u0430\u0432","name:ky":"\u041c\u043e\u0441\u043a\u0432\u0430 \u043e\u0431\u043b\u0430\u0441\u0442\u044b","name:ka":"\u10db\u10dd\u10e1\u10d9\u10dd\u10d5\u10d8\u10e1 \u10dd\u10da\u10e5\u10d8","name:da":"Moskva oblast","name:de":"Oblast Moskau","source":"openstreetmap.org","name:ba":"\u041c\u04d9\u0441\u043a\u04d9\u04af \u04e9\u043b\u043a\u04d9\u04bb\u0435","name:lv":"Maskavas apgabals","name:tr":"Moskova Oblast\u0131","name:uz":"Moskva viloyati","name:he":"\u05de\u05d5\u05e1\u05e7\u05d1\u05d4 (\u05de\u05d7\u05d5\u05d6)","kind":"region","name:ur":"\u0645\u0627\u0633\u06a9\u0648 \u0627\u0648\u0628\u0644\u0627\u0633\u062a","name:la":"Regio Moscuensis","name:uk":"\u041c\u043e\u0441\u043a\u043e\u0432\u0441\u044c\u043a\u0430 \u043e\u0431\u043b\u0430\u0441\u0442\u044c","name:hy":"\u0544\u0578\u057d\u056f\u057e\u0561\u0575\u056b \u0574\u0561\u0580\u0566","name:hu":"Moszkvai ter\u00fclet","name:hr":"Moskovska oblast","name:el":"\u03a0\u03b5\u03c1\u03b9\u03c6\u03ad\u03c1\u03b5\u03b9\u03b1 \u039c\u03cc\u03c3\u03c7\u03b1\u03c2","name:eo":"Moskva Provinco","name:en":"Moscow Oblast","name":"\u041c\u043e\u0441\u043a\u043e\u0432\u0441\u043a\u0430\u044f \u043e\u0431\u043b\u0430\u0441\u0442\u044c","name:eu":"Moskuko oblasta","name:et":"Moskva oblast","name:nl":"Oblast Moskou","name:es":"\u00d3blast de Mosc\u00fa","name:az":"Moskva vilay\u0259ti","name:id":"Oblast Moskwa","name:ms":"Wilayah Moscow","name:mr":"\u092e\u0949\u0938\u094d\u0915\u094b \u0913\u092c\u094d\u0932\u093e\u0938\u094d\u0924","name:ar":"\u0645\u062d\u0627\u0641\u0638\u0629 \u0645\u0648\u0633\u0643\u0648","name:it":"Oblast' di Mosca","name:vi":"Moskva (t\u1ec9nh)","name:mn":"\u041c\u043e\u0441\u043a\u0432\u0430 \u043c\u0443\u0436","name:pl":"Obw\u00f3d moskiewski","name:mk":"\u041c\u043e\u0441\u043a\u043e\u0432\u0441\u043a\u0430 \u043e\u0431\u043b\u0430\u0441\u0442","name:af":"Moskou-oblast","name:fa":"\u0627\u0633\u062a\u0627\u0646 \u0645\u0633\u06a9\u0648","name:lt":"Maskvos sritis","kind_detail":"state","id":658312593,"name:fr":"Oblast de Moscou","name:ca":"Prov\u00edncia de Moscou","name:zh":"\u83ab\u65af\u79d1\u5dde","name:sl":"Moskovska oblast","name:sk":"Moskovsk\u00e1 oblas\u0165","name:ja":"\u30e2\u30b9\u30af\u30ef\u5dde","name:nn":"Moskva oblast","name:no":"Moskva oblast","name:se":"Moskva oblast","name:br":"Oblast Moskov","name:bs":"Moskovska oblast","name:sw":"Moscow Oblast","name:be":"\u041c\u0430\u0441\u043a\u043e\u045e\u0441\u043a\u0430\u044f \u0432\u043e\u0431\u043b\u0430\u0441\u0446\u044c","name:bg":"\u041c\u043e\u0441\u043a\u043e\u0432\u0441\u043a\u0430 \u043e\u0431\u043b\u0430\u0441\u0442","name:sr":"\u041c\u043e\u0441\u043a\u043e\u0432\u0441\u043a\u0430 \u043e\u0431\u043b\u0430\u0441\u0442","name:ga":"C\u00faige Mhosc\u00f3","name:fi":"Moskovan alue"},"coordinates":[3121,3757]},{"type":"Point","properties":{"name:pt":"Moscovo","int_name":"Moscow","name:sk":"Moskva","name:ja":"\u30e2\u30b9\u30af\u30ef\u9023\u90a6\u5e02","name:eo":"Moskvo","min_zoom":4.0,"name:it":"Mosca","name:sv":"Moskva","name:pl":"Moskwa","id":2452912060,"kind":"region","name:en":"Moscow","name":"\u041c\u043e\u0441\u043a\u0432\u0430","kind_detail":"state","name:de":"Moskau","source":"openstreetmap.org","name:fr":"Moscou","name:nl":"Moskou","name:es":"Mosc\u00fa"},"coordinates":[2605,3726]},{"type":"Point","properties":{"name:ja":"\u30ea\u30da\u30c4\u30af\u5dde","name:lt":"Lipecko sritis","name:eo":"Lipecka Provinco","name:tt":"\u041b\u0438\u043f\u0435\u0446\u043a \u04e9\u043b\u043a\u04d9\u0441\u0435","min_zoom":4.0,"name:uk":"\u041b\u0438\u043f\u0435\u0446\u044c\u043a\u0430 \u043e\u0431\u043b\u0430\u0441\u0442\u044c","name:be":"\u041b\u0456\u043f\u0435\u0446\u043a\u0430\u044f \u0432\u043e\u0431\u043b\u0430\u0441\u0446\u044c","name:pl":"Obw\u00f3d lipiecki","id":648753997,"kind":"region","name:en":"Lipetsk Oblast","name":"\u041b\u0438\u043f\u0435\u0446\u043a\u0430\u044f \u043e\u0431\u043b\u0430\u0441\u0442\u044c","kind_detail":"state","name:de":"Oblast Lipezk","source":"openstreetmap.org","name:fr":"Oblast de Lipetsk","name:es":"\u00d3blast de L\u00edpetsk"},"coordinates":[3905,262]},{"type":"Point","properties":{"name:ja":"\u30aa\u30ea\u30e7\u30fc\u30eb\u5dde","name:lt":"Oriolo sritis","name:eo":"Orjola Provinco","name:tt":"\u041e\u0440\u0435\u043b \u04e9\u043b\u043a\u04d9\u0441\u0435","min_zoom":4.0,"name:uk":"\u041e\u0440\u043b\u043e\u0432\u0441\u044c\u043a\u0430 \u043e\u0431\u043b\u0430\u0441\u0442\u044c","name:be":"\u0410\u0440\u043b\u043e\u045e\u0441\u043a\u0430\u044f \u0432\u043e\u0431\u043b\u0430\u0441\u0446\u044c","name:pl":"Obw\u00f3d or\u0142owski","id":778568487,"kind":"region","name:en":"Oryol Oblast","name":"\u041e\u0440\u043b\u043e\u0432\u0441\u043a\u0430\u044f \u043e\u0431\u043b\u0430\u0441\u0442\u044c","kind_detail":"state","name:de":"Oblast Orjol","source":"openstreetmap.org","name:fr":"Oblast d'Orel","name:es":"\u00d3blast de Oriol"},"coordinates":[1948,443]},{"type":"Point","properties":{"name:ja":"\u30ab\u30eb\u30fc\u30ac\u5dde","name:lt":"Kalugos sritis","name:eo":"Kaluga Provinco","min_zoom":4.0,"name:uk":"\u041a\u0430\u043b\u0443\u0437\u044c\u043a\u0430 \u043e\u0431\u043b\u0430\u0441\u0442\u044c","name:be":"\u041a\u0430\u043b\u0443\u0436\u0441\u043a\u0430\u044f \u0432\u043e\u0431\u043b\u0430\u0441\u0446\u044c","name:pl":"Obw\u00f3d ka\u0142uski","id":867080411,"kind":"region","name:en":"Kaluga Oblast","name":"\u041a\u0430\u043b\u0443\u0436\u0441\u043a\u0430\u044f \u043e\u0431\u043b\u0430\u0441\u0442\u044c","kind_detail":"state","name:de":"Oblast Kaluga","source":"openstreetmap.org","name:fr":"Oblast de Kalouga","name:es":"\u00d3blast de Kaluga"},"coordinates":[1294,2432]},{"type":"Point","properties":{"name:ja":"\u30c8\u30a5\u30fc\u30e9\u5dde","name:lt":"Tulos sritis","name:eo":"Tula Provinco","min_zoom":4.0,"name:uk":"\u0422\u0443\u043b\u044c\u0441\u044c\u043a\u0430 \u043e\u0431\u043b\u0430\u0441\u0442\u044c","name:be":"\u0422\u0443\u043b\u044c\u0441\u043a\u0430\u044f \u0432\u043e\u0431\u043b\u0430\u0441\u0446\u044c","name:pl":"Obw\u00f3d tulski","id":867084499,"kind":"region","name:en":"Tula Oblast","name":"\u0422\u0443\u043b\u044c\u0441\u043a\u0430\u044f \u043e\u0431\u043b\u0430\u0441\u0442\u044c","kind_detail":"state","name:de":"Oblast Tula","source":"openstreetmap.org","name:fr":"Oblast de Toula","name:es":"\u00d3blast de Tula"},"coordinates":[2635,1833]},{"type":"Point","properties":{"source":"naturalearthdata.com","kind":"locality","name":"Bryansk","population":427236,"region_capital":true,"min_zoom":5.0,"id":6357},"coordinates":[495,967]},{"type":"Point","properties":{"source":"naturalearthdata.com","kind":"locality","name":"Tula","population":489486,"region_capital":true,"min_zoom":6.0,"id":5019},"coordinates":[2825,2135]},{"type":"Point","properties":{"source":"naturalearthdata.com","kind":"locality","name":"Orel","population":334552,"region_capital":true,"min_zoom":6.0,"id":5726},"coordinates":[1689,606]}]},"transit":{"type":"GeometryCollection","geometries":[{"type":"MultiLineString","properties":{"kind":"train","network":"\u0420\u0416\u0414","sort_rank":275,"name:de":"Mykolajiw \u2014 Moskau","source":"openstreetmap.org","min_zoom":6.0,"name:uk":"\u041c\u0438\u043a\u043e\u043b\u0430\u0457\u0432 - \u041c\u043e\u0441\u043a\u0432\u0430","ref":"062\u041e","osm_relation":true,"name":"\u041d\u0438\u043a\u043e\u043b\u0430\u0435\u0432 \u2014 \u041c\u043e\u0441\u043a\u0432\u0430"},"arcs":[[184],[185],[186],[187]]},{"type":"MultiLineString","properties":{"source":"openstreetmap.org","kind":"train","network":"\u0420\u0416\u0414","sort_rank":275,"ref":"105\/106 \u041c\u043e\u0441\u043a\u0432\u0430 - \u041a\u0443\u0440\u0441\u043a","min_zoom":6.0,"osm_relation":true},"arcs":[[188],[189],[190],[191],[192],[193],[194],[195],[196],[197],[198]]},{"type":"MultiLineString","properties":{"kind":"train","name":"\u041c\u043e\u0441\u043a\u0432\u0430 \u2014 \u041d\u0438\u043a\u043e\u043b\u0430\u0435\u0432","sort_rank":275,"name:de":"Moskau \u2014 Mykolajiw","source":"openstreetmap.org","min_zoom":6.0,"name:uk":"\u041c\u043e\u0441\u043a\u0432\u0430 \u2014 \u041c\u0438\u043a\u043e\u043b\u0430\u0457\u0432","ref":"061\u0425","osm_relation":true,"network":"\u0420\u0416\u0414"},"arcs":[[199],[200],[201],[202]]},{"type":"MultiLineString","properties":{"kind":"train","network":"\u0420\u0416\u0414","sort_rank":275,"source":"openstreetmap.org","min_zoom":6.0,"ref":"6702","osm_relation":true,"name":"\u041c\u043e\u0441\u043a\u0432\u0430 \u2014 \u0411\u0430\u043b\u0430\u0448\u0438\u0445\u0430"},"arcs":[[203],[204],[205],[206],[207],[208],[209],[210],[211],[212],[213],[214],[215],[216],[217]]},{"type":"MultiLineString","properties":{"source":"openstreetmap.org","kind":"train","name":"\u0423\u0440\u0432\u0430\u043d\u043a\u0430 - \u0420\u044f\u0436\u0441\u043a-1","sort_rank":275,"ref":"\u0423\u0440\u0432\u0430\u043d\u043a\u0430 - \u0420\u044f\u0436\u0441\u043a","min_zoom":6.0,"osm_relation":true},"arcs":[[218],[219],[220],[221],[222],[223],[224],[225],[226],[227],[228],[229],[230],[231],[232],[233],[234],[235],[236],[237],[238],[239],[240],[241],[242],[243],[244],[245],[246],[247],[248],[249]]},{"type":"MultiLineString","properties":{"kind":"train","network":"\u0420\u0416\u0414","sort_rank":275,"source":"openstreetmap.org","min_zoom":6.0,"ref":"379\/380","osm_relation":true,"name":"\u041f\u043e\u0435\u0437\u0434 \u2116379\/380: \u041c\u043e\u0441\u043a\u0432\u0430 \u2014 \u041a\u0430\u043c\u044b\u0448\u0438\u043d"},"arcs":[[250],[251],[252],[253],[254],[255],[256],[257],[258],[259],[260],[261],[262],[263]]},{"type":"LineString","properties":{"kind":"train","network":"\u0420\u0416\u0414","sort_rank":275,"source":"openstreetmap.org","min_zoom":6.0,"ref":"601\u042f","id":-3630027,"osm_relation":true,"name":"\u0420\u044b\u0431\u0438\u043d\u0441\u043a \u2014\u00a0\u041c\u043e\u0441\u043a\u0432\u0430"},"arcs":[264]},{"type":"MultiLineString","properties":{"source":"openstreetmap.org","kind":"train","sort_rank":275,"ref":"\u0412\u043e\u0441\u043a\u0440\u0435\u0441\u0435\u043d\u0441\u043a - \u041a\u0443\u0440\u043e\u0432\u0441\u043a\u0430\u044f","min_zoom":6.0,"osm_relation":true},"arcs":[[265],[266],[267],[268],[269],[270],[271],[272],[273],[274],[275]]},{"type":"MultiLineString","properties":{"source":"openstreetmap.org","kind":"train","sort_rank":275,"ref":"\u0420\u043e\u0441\u043b\u0430\u0432\u043b\u044c - \u0424\u0430\u044f\u043d\u0441\u043e\u0432\u0430\u044f","min_zoom":6.0,"osm_relation":true},"arcs":[[276],[277],[278]]},{"type":"MultiLineString","properties":{"kind":"train","network":"\u041c\u041c\u0416\u0414","sort_rank":275,"source":"openstreetmap.org","min_zoom":6.0,"operator":"\u041c\u041c\u0416\u0414","ref":"\u041c\u041c\u0416\u0414","osm_relation":true},"arcs":[[279],[280]]},{"type":"MultiLineString","properties":{"source":"openstreetmap.org","kind":"train","name":"\u041f\u043e\u0435\u0437\u0434 \u2116 036\u042d \"\u041d\u0438\u0436\u0435\u0433\u043e\u0440\u043e\u0434\u0435\u0446\": \u041c\u043e\u0441\u043a\u0432\u0430 \u042f\u0440\u043e\u0441\u043b\u0430\u0432\u0441\u043a\u0430\u044f - \u041d\u0438\u0436\u043d\u0438\u0439 \u041d\u043e\u0432\u0433\u043e\u0440\u043e\u0434","sort_rank":275,"ref":"036\u042d","min_zoom":6.0,"osm_relation":true},"arcs":[[281],[282]]},{"type":"MultiLineString","properties":{"kind":"train","name":"Moscova - Chi\u015fin\u0103u","sort_rank":275,"name:de":"Moskau - Kischinau","source":"openstreetmap.org","min_zoom":6.0,"name:uk":"\u041c\u043e\u0441\u043a\u0432\u0430 - \u041a\u0456\u0448\u0456\u043d\u0435\u0443","operator":"CFM","ref":"341\u0424: Moscova - Chi\u015fin\u0103u","osm_relation":true,"network":"train"},"arcs":[[283],[284],[285],[286],[287],[288],[289],[290],[291],[292],[293],[294],[295],[296],[297],[298],[299],[300],[301],[302],[303],[304],[305],[306]]},{"type":"LineString","properties":{"kind":"train","name:en":"Smolensk Direction Usovo Branch","network":"\u041c\u043e\u0441\u043a\u043e\u0432\u0441\u043a\u0430\u044f \u0436\u0435\u043b\u0435\u0437\u043d\u0430\u044f \u0434\u043e\u0440\u043e\u0433\u0430","sort_rank":275,"source":"openstreetmap.org","min_zoom":6.0,"ref":"\u0423\u0441\u043e\u0432\u043e - \u041c\u043e\u0441\u043a\u0432\u0430","id":-6704844,"osm_relation":true,"name":"\u0421\u043c\u043e\u043b\u0435\u043d\u0441\u043a\u043e\u0435 \u043d\u0430\u043f\u0440\u0430\u0432\u043b\u0435\u043d\u0438\u0435 (\u0423\u0441\u043e\u0432\u0441\u043a\u0430\u044f \u0432\u0435\u0442\u043a\u0430)"},"arcs":[307]},{"type":"MultiLineString","properties":{"kind":"train","name":"\u041f\u043e\u0435\u0437\u0434 \u2116025 \u041c\u043e\u0441\u043a\u0432\u0430 \u2014 \u0412\u043e\u0440\u043e\u043d\u0435\u0436","sort_rank":275,"source":"openstreetmap.org","min_zoom":6.0,"ref":"025","osm_relation":true,"network":"\u0420\u0416\u0414"},"arcs":[[308],[309],[310],[311],[312],[313],[314],[315],[316],[317],[318],[319],[320],[321]]},{"type":"MultiLineString","properties":{"source":"openstreetmap.org","kind":"train","sort_rank":275,"ref":"\u0414\u0435\u0442\u043a\u043e\u0432\u043e - \u042f\u0433\u0430\u043d\u043e\u0432\u043e","min_zoom":6.0,"osm_relation":true},"arcs":[[322],[323],[324],[325],[326],[327],[328],[329]]},{"type":"LineString","properties":{"source":"openstreetmap.org","kind":"train","description":"\u041c\u041c\u0416\u0414","sort_rank":275,"min_zoom":6.0,"osm_relation":true,"id":-1392674},"arcs":[330]},{"type":"MultiLineString","properties":{"kind":"train","network":"train","sort_rank":275,"name:de":"Moskau - Kischinau","source":"openstreetmap.org","min_zoom":6.0,"name:uk":"\u041c\u043e\u0441\u043a\u0432\u0430 - \u041a\u0456\u0448\u0456\u043d\u0435\u0443","operator":"CFM","ref":"47\u0429: \u041c\u043e\u0441\u043a\u0432\u0430 - \u041a\u0438\u0448\u0438\u043d\u044d\u0443","osm_relation":true,"name":"\u041c\u043e\u0441\u043a\u0432\u0430 - \u041a\u0438\u0448\u0438\u043d\u044d\u0443"},"arcs":[[331],[332],[333],[334],[335],[336],[337],[338],[339],[340],[341],[342],[343],[344],[345],[346],[347],[348],[349],[350],[351],[352],[353]]},{"type":"MultiLineString","properties":{"source":"openstreetmap.org","kind":"train","network":"\u0420\u0416\u0414","sort_rank":275,"ref":"355\/356 \u041c\u043e\u0441\u043a\u0432\u0430 \u2014 \u0423\u0444\u0430","min_zoom":6.0,"osm_relation":true},"arcs":[[354],[355],[356],[357]]},{"type":"LineString","properties":{"source":"openstreetmap.org","kind":"train","sort_rank":275,"ref":"\u041c\u0438\u0445\u043d\u0435\u0432\u043e - \u0414\u0435\u0442\u043a\u043e\u0432\u043e","min_zoom":6.0,"osm_relation":true,"id":-2463830},"arcs":[358]},{"type":"MultiLineString","properties":{"kind":"train","name":"055\/056 \u041c\u043e\u0441\u043a\u0432\u0430 \u2014 \u041a\u0440\u0430\u0441\u043d\u043e\u044f\u0440\u0441\u043a","sort_rank":275,"name:de":"055\/056 Moskau \u2014 Krasnojarsk","source":"openstreetmap.org","min_zoom":6.0,"operator":"\u0420\u043e\u0441\u0441\u0438\u0439\u0441\u043a\u0438\u0435 \u0436\u0435\u043b\u0435\u0437\u043d\u044b\u0435 \u0434\u043e\u0440\u043e\u0433\u0438","ref":"055\/056 \u041c\u043e\u0441\u043a\u0432\u0430 \u2014 \u041a\u0440\u0430\u0441\u043d\u043e\u044f\u0440\u0441\u043a","osm_relation":true},"arcs":[[359],[360]]},{"type":"MultiLineString","properties":{"source":"openstreetmap.org","kind":"train","name":"\u0424\u0430\u044f\u043d\u0441\u043e\u0432\u0430\u044f \u2014 \u0421\u0443\u0445\u0438\u043d\u0438\u0447\u0438","sort_rank":275,"ref":"\u0424\u0430\u044f\u043d\u0441\u043e\u0432\u0430\u044f \u2014 \u0421\u0443\u0445\u0438\u043d\u0438\u0447\u0438","min_zoom":6.0,"osm_relation":true},"arcs":[[361],[362]]},{"type":"LineString","properties":{"kind":"train","name":"\u0411\u0440\u044f\u043d\u0441\u043a - \u041b\u0443\u0436\u043a\u0438 \u041e\u0440\u043b\u043e\u0432\u0441\u043a\u0438\u0435","sort_rank":275,"source":"openstreetmap.org","min_zoom":6.0,"operator":"\u0420\u0416\u0414","ref":"\u0411\u0440\u044f\u043d\u0441\u043a - \u041e\u0440\u0451\u043b","osm_relation":true},"arcs":[363]},{"type":"LineString","properties":{"kind":"train","network":"\u0420\u0416\u0414","sort_rank":275,"source":"openstreetmap.org","min_zoom":6.0,"ref":"602\u042f","id":-1757569,"osm_relation":true,"name":"\u041c\u043e\u0441\u043a\u0432\u0430 \u2014 \u0420\u044b\u0431\u0438\u043d\u0441\u043a"},"arcs":[364]},{"type":"MultiLineString","properties":{"source":"openstreetmap.org","kind":"train","sort_rank":275,"ref":"\u0411\u0440\u044f\u043d\u0441\u043a - \u0421\u043c\u043e\u043b\u0435\u043d\u0441\u043a","min_zoom":6.0,"osm_relation":true},"arcs":[[365],[366]]},{"type":"MultiLineString","properties":{"source":"openstreetmap.org","kind":"train","sort_rank":275,"ref":"\u041c\u043e\u0441\u043a\u0432\u0430 - \u041f\u043e\u043b\u043e\u0446\u043a","min_zoom":6.0,"osm_relation":true},"arcs":[[367],[368],[369],[370],[371],[372],[373],[374],[375],[376],[377],[378],[379],[380],[381],[382]]},{"type":"LineString","properties":{"source":"openstreetmap.org","kind":"train","sort_rank":275,"ref":"\u0412\u044f\u0437\u044c\u043c\u0430 - \u0424\u0430\u044f\u043d\u0441\u043e\u0432\u0430\u044f","min_zoom":6.0,"osm_relation":true},"arcs":[383]},{"type":"MultiLineString","properties":{"kind":"train","network":"\u0420\u0416\u0414","sort_rank":275,"source":"openstreetmap.org","min_zoom":6.0,"ref":"029 \u041c\u043e\u0441\u043a\u0432\u0430 - \u041b\u0438\u043f\u0435\u0446\u043a","osm_relation":true,"name":"\u041f\u043e\u0435\u0437\u0434 \u2116029: \u041c\u043e\u0441\u043a\u0432\u0430 - \u041b\u0438\u043f\u0435\u0446\u043a"},"arcs":[[384],[385],[386],[387],[388],[389],[390],[391],[392],[393],[394],[395],[396],[397],[398],[399],[400],[401],[402],[403],[404],[405],[406],[407]]},{"type":"MultiLineString","properties":{"kind":"train","name":"\u041f\u043e\u0435\u0437\u0434 \u2116 076: \u041c\u043e\u0441\u043a\u0432\u0430 \u041a\u0430\u0437\u0430\u043d\u0441\u043a\u0430\u044f \u2014 \u041d\u0435\u0440\u044e\u043d\u0433\u0440\u0438","sort_rank":275,"source":"openstreetmap.org","min_zoom":6.0,"operator":"\u0420\u0416\u0414","ref":"076","osm_relation":true},"arcs":[[408],[409],[410]]},{"type":"MultiLineString","properties":{"source":"openstreetmap.org","kind":"train","name":"\u0424\u0430\u044f\u043d\u0441\u043e\u0432\u0430\u044f - \u0415\u043b\u044c\u043d\u044f","sort_rank":275,"ref":"\u0424\u0430\u044f\u043d\u0441\u043e\u0432\u0430\u044f - \u0415\u043b\u044c\u043d\u044f","min_zoom":6.0,"osm_relation":true},"arcs":[[411],[412],[413],[414],[415],[416]]},{"type":"LineString","properties":{"source":"openstreetmap.org","kind":"train","sort_rank":275,"ref":"\u041c\u043e\u0441\u043a\u0432\u0430 - \u041a\u0443\u0431\u0438\u043d\u043a\u0430","min_zoom":6.0,"osm_relation":true},"arcs":[417]},{"type":"LineString","properties":{"source":"openstreetmap.org","kind":"train","sort_rank":275,"ref":"\u0421\u043c\u043e\u043b\u0435\u043d\u0441\u043a - \u0412\u0438\u0442\u0435\u0431\u0441\u043a","min_zoom":6.0,"osm_relation":true,"id":-1757310},"arcs":[418]},{"type":"LineString","properties":{"source":"openstreetmap.org","kind":"train","name":"\u0411\u0440\u0435\u0441\u0442 - \u0413\u043e\u043c\u0435\u043b\u044c - \u041c\u043e\u0441\u043a\u0432\u0430","sort_rank":275,"min_zoom":6.0,"osm_relation":true},"arcs":[419]},{"type":"MultiLineString","properties":{"source":"openstreetmap.org","kind":"train","name":"\u0421\u0443\u0445\u0438\u043d\u0438\u0447\u0438-\u0413\u043b\u0430\u0432\u043d\u044b\u0435 - \u041a\u043e\u0437\u0435\u043b\u044c\u0441\u043a","sort_rank":275,"ref":"\u0421\u0443\u0445\u0438\u043d\u0438\u0447\u0438 - \u041a\u043e\u0437\u0435\u043b\u044c\u0441\u043a","min_zoom":6.0,"osm_relation":true},"arcs":[[420],[421],[422]]},{"type":"MultiLineString","properties":{"kind":"train","name":"\u0422\u043e\u043c\u0441\u043a \u2014 \u041c\u043e\u0441\u043a\u0432\u0430","sort_rank":275,"source":"openstreetmap.org","min_zoom":6.0,"operator":"\u0420\u043e\u0441\u0441\u0438\u0439\u0441\u043a\u0438\u0435 \u0436\u0435\u043b\u0435\u0437\u043d\u044b\u0435 \u0434\u043e\u0440\u043e\u0433\u0438","ref":"37","osm_relation":true,"network":"RU-railway"},"arcs":[[423],[424]]},{"type":"MultiLineString","properties":{"kind":"train","name":"\u0414\u0435\u0442\u043a\u043e\u0432\u043e - \u041f\u043e\u0432\u0430\u0440\u043e\u0432\u043e II","sort_rank":275,"source":"openstreetmap.org","min_zoom":6.0,"operator":"\u041e\u0410\u041e \u0426\u041f\u041f\u041a \/ \u0422\u0427-20 \u0410\u043f\u0440\u0435\u043b\u0435\u0432\u043a\u0430","ref":"\u0414\u0435\u0442\u043a\u043e\u0432\u043e - \u041f\u043e\u0432\u0430\u0440\u043e\u0432\u043e II","osm_relation":true},"arcs":[[425],[426],[427],[428],[429],[430],[431],[432],[433],[434],[435],[436],[437],[438],[439],[440],[441],[442],[443],[444],[445]]},{"type":"MultiLineString","properties":{"source":"openstreetmap.org","kind":"train","sort_rank":275,"ref":"\u0424\u0440\u044f\u0437\u0435\u0432\u043e \u2014 \u041c\u043e\u0441\u043a\u0432\u0430","min_zoom":6.0,"osm_relation":true},"arcs":[[446],[447]]},{"type":"MultiLineString","properties":{"source":"openstreetmap.org","kind":"train","name":"\u0415\u043b\u0435\u0446 - \u041a\u0430\u0441\u0442\u043e\u0440\u043d\u0430\u044f-\u041d\u043e\u0432\u0430\u044f","sort_rank":275,"ref":"\u0415\u043b\u0435\u0446 - \u041a\u0430\u0441\u0442\u043e\u0440\u043d\u0430\u044f","min_zoom":6.0,"osm_relation":true},"arcs":[[448],[449],[450],[451],[452],[453],[454],[455],[456],[457],[458],[459],[460],[461],[462],[463]]},{"type":"MultiLineString","properties":{"kind":"train","name":"\u041f\u043e\u0435\u0437\u0434 \u2116001\/002 \u041c\u043e\u0441\u043a\u0432\u0430 \u2014 \u0412\u043e\u043b\u0433\u043e\u0433\u0440\u0430\u0434","sort_rank":275,"source":"openstreetmap.org","min_zoom":6.0,"operator":"\u0420\u0416\u0414","ref":"001\/002","osm_relation":true},"arcs":[[464],[465],[466],[467]]},{"type":"MultiLineString","properties":{"source":"openstreetmap.org","kind":"train","sort_rank":275,"ref":"\u041c\u0438\u043d\u0441\u043a - \u041c\u043e\u0441\u043a\u0432\u0430","min_zoom":6.0,"osm_relation":true},"arcs":[[468],[469],[470],[471],[472],[473],[474],[475],[476],[477],[478],[479],[480],[481],[482],[483]]},{"type":"MultiLineString","properties":{"kind":"train","name":"\u041b\u044e\u0431\u043b\u0438\u043d\u043e-\u0414\u0430\u0447\u043d\u043e\u0435 \u2014 \u041a\u0443\u0431\u0438\u043d\u043a\u0430","sort_rank":275,"source":"openstreetmap.org","min_zoom":6.0,"ref":"6035","osm_relation":true,"network":"\u0420\u0416\u0414"},"arcs":[[484],[485]]},{"type":"MultiLineString","properties":{"kind":"train","name":"Warszawa - Moskwa","sort_rank":275,"source":"openstreetmap.org","min_zoom":6.0,"name:ru":"\u0412\u0430\u0440\u0448\u0430\u0432\u0430 - \u041c\u043e\u0441\u043a\u0432\u0430","name:be":"\u0412\u0430\u0440\u0448\u0430\u0432\u0430 - \u041c\u0430\u0441\u043a\u0432\u0430","ref":"Warszawa - Moskwa","osm_relation":true},"arcs":[[486],[487],[488],[489],[490],[491],[492],[493],[494],[495],[496],[497],[498],[499],[500],[501]]},{"type":"MultiLineString","properties":{"kind":"train","name":"\u041c\u043e\u0441\u043a\u0432\u0430 \u2014 \u0410\u0434\u043b\u0435\u0440","sort_rank":275,"name:de":"Moskau \u2014 Adler","source":"openstreetmap.org","min_zoom":6.0,"ref":"\u041c\u043e\u0441\u043a\u0432\u0430 - \u0410\u0434\u043b\u0435\u0440","osm_relation":true},"arcs":[[502],[503],[504],[505],[506]]},{"type":"MultiLineString","properties":{"kind":"train","name":"7 \u041c\u043e\u0441\u043a\u0432\u0430 \u2014 \u0410\u043b\u043c\u0430\u0442\u044b","sort_rank":275,"name:de":"7 Moskau - Almaty","source":"openstreetmap.org","min_zoom":6.0,"ref":"7","osm_relation":true,"description":"7 Moskau -> Almaty \/ 7 Almaty -> Moskau"},"arcs":[[507],[508],[509],[510],[511],[512],[513],[514],[515],[516],[517],[518]]},{"type":"MultiLineString","properties":{"source":"openstreetmap.org","kind":"train","sort_rank":275,"ref":"\u041c\u043e\u0441\u043a\u0432\u0430 - \u041c\u043e\u0433\u0438\u043b\u0451\u0432 - \u0413\u043e\u043c\u0435\u043b\u044c","min_zoom":6.0,"osm_relation":true},"arcs":[[519],[520],[521],[522],[523],[524],[525],[526],[527],[528],[529],[530],[531],[532],[533],[534],[535]]},{"type":"MultiLineString","properties":{"source":"openstreetmap.org","kind":"train","name":"\u0411\u0440\u044f\u043d\u0441\u043a-\u041e\u0440\u043b\u043e\u0432\u0441\u043a\u0438\u0439 - \u0423\u043d\u0435\u0447\u0430 - \u041d\u043e\u0432\u043e\u0437\u044b\u0431\u043a\u043e\u0432","sort_rank":275,"ref":"\u0411\u0440\u044f\u043d\u0441\u043a-\u041e\u0440\u043b\u043e\u0432\u0441\u043a\u0438\u0439 - \u0423\u043d\u0435\u0447\u0430 - \u041d\u043e\u0432\u043e\u0437\u044b\u0431\u043a\u043e\u0432","min_zoom":6.0,"osm_relation":true},"arcs":[[536],[537],[538],[539],[540],[541],[542],[543],[544]]},{"type":"MultiLineString","properties":{"kind":"train","name":"\u041c\u043e\u0441\u043a\u0432\u0430 \u2014 \u041a\u043b\u0438\u043c\u043e\u0432","sort_rank":275,"source":"openstreetmap.org","min_zoom":6.0,"operator":"\u0420\u0416\u0414","ref":"\u041c\u043e\u0441\u043a\u0432\u0430 - \u041a\u043b\u0438\u043c\u043e\u0432","osm_relation":true,"network":"train"},"arcs":[[545],[546],[547],[548],[549],[550],[551],[552],[553],[554],[555],[556],[557],[558],[559],[560],[561],[562],[563],[564],[565],[566],[567],[568],[569],[570],[571],[572],[573],[574],[575]]},{"type":"MultiLineString","properties":{"kind":"train","name":"111\/112 \u041c\u043e\u0441\u043a\u0432\u0430 \u041a\u0430\u0437\u0430\u043d\u0441\u043a\u0430\u044f \u2014 \u041a\u0440\u0443\u0433\u043b\u043e\u0435 \u041f\u043e\u043b\u0435","sort_rank":275,"source":"openstreetmap.org","min_zoom":6.0,"operator":"\u0420\u0416\u0414","ref":"111\/112","osm_relation":true},"arcs":[[576],[577],[578]]},{"type":"MultiLineString","properties":{"source":"openstreetmap.org","kind":"train","sort_rank":275,"ref":"\u041c\u043e\u0441\u043a\u0432\u0430-\u041a\u0443\u0440\u0441\u043a\u0430\u044f - \u042d\u043b\u0435\u043a\u0442\u0440\u043e\u0433\u043e\u0440\u0441\u043a","min_zoom":6.0,"osm_relation":true},"arcs":[[579],[580],[581],[582],[583],[584],[585],[586],[587],[588],[589],[590],[591]]},{"type":"MultiLineString","properties":{"kind":"train","name:en":"Smolensk Direction Zvenigorod Branch","name":"\u0421\u043c\u043e\u043b\u0435\u043d\u0441\u043a\u043e\u0435 \u043d\u0430\u043f\u0440\u0430\u0432\u043b\u0435\u043d\u0438\u0435 (\u0417\u0432\u0435\u043d\u0438\u0433\u043e\u0440\u043e\u0434\u0441\u043a\u0430\u044f \u0432\u0435\u0442\u043a\u0430)","sort_rank":275,"name:de":"Zwenigorod-Strecke","source":"openstreetmap.org","min_zoom":6.0,"osm_relation":true,"network":"\u041c\u043e\u0441\u043a\u043e\u0432\u0441\u043a\u0430\u044f \u0436\u0435\u043b\u0435\u0437\u043d\u0430\u044f \u0434\u043e\u0440\u043e\u0433\u0430"},"arcs":[[592],[593],[594],[595],[596],[597]]},{"type":"MultiLineString","properties":{"kind":"train","name":"057\/058 \u041c\u043e\u0441\u043a\u0432\u0430 \u041a\u0430\u0437\u0430\u043d\u0441\u043a\u0430\u044f \u2014 \u0419\u043e\u0448\u043a\u0430\u0440-\u041e\u043b\u0430","sort_rank":275,"source":"openstreetmap.org","min_zoom":6.0,"operator":"\u0420\u0416\u0414","ref":"057\/058","osm_relation":true},"arcs":[[598],[599],[600]]},{"type":"MultiLineString","properties":{"kind":"train","name":"054\/055 \u041c\u043e\u0441\u043a\u0432\u0430 \u041a\u0430\u0437\u0430\u043d\u0441\u043a\u0430\u044f \u2014 \u0427\u0435\u0431\u043e\u043a\u0441\u0430\u0440\u044b","sort_rank":275,"source":"openstreetmap.org","min_zoom":6.0,"operator":"\u0420\u0416\u0414","ref":"054\/055","osm_relation":true},"arcs":[[601],[602],[603]]},{"type":"MultiLineString","properties":{"source":"openstreetmap.org","kind":"train","sort_rank":275,"ref":"\u041c\u043e\u0441\u043a\u0432\u0430-\u041a\u0443\u0440\u0441\u043a\u0430\u044f - \u0417\u0430\u0445\u0430\u0440\u043e\u0432\u043e","min_zoom":6.0,"osm_relation":true},"arcs":[[604],[605],[606],[607],[608],[609],[610],[611],[612],[613],[614],[615]]},{"type":"MultiLineString","properties":{"kind":"train","name":"5\/6 \u0422\u0430\u0448\u043a\u0435\u043d\u0442<=>\u041c\u043e\u0441\u043a\u0432\u0430","sort_rank":275,"name:de":"5\/6 Taschkent<=>Moskau","source":"openstreetmap.org","min_zoom":6.0,"network":"\u0423\u0422\u0419","ref":"5\/6","osm_relation":true,"description":"5 \u0422\u0430\u0448\u043a\u0435\u043d\u0442 -> \u041c\u043e\u0441\u043a\u0432\u0430 \/ 6 \u041c\u043e\u0441\u043a\u0432\u0430 -> \u0422\u0430\u0448\u043a\u0435\u043d\u0442"},"arcs":[[616],[617],[618]]},{"type":"MultiLineString","properties":{"kind":"train","name:en":"Baku \u2014 Moscow","name":"\u0411\u0430\u043a\u0443 \u2014 \u041c\u043e\u0441\u043a\u0432\u0430","sort_rank":275,"name:de":"Baku \u2014 Moskau","source":"openstreetmap.org","min_zoom":6.0,"ref":"055","osm_relation":true},"arcs":[[619],[620],[621],[622],[623],[624],[625],[626],[627],[628],[629],[630],[631],[632],[633]]},{"type":"MultiLineString","properties":{"source":"openstreetmap.org","kind":"train","sort_rank":275,"ref":"K3\/4","min_zoom":6.0,"osm_relation":true},"arcs":[[634],[635]]},{"type":"MultiLineString","properties":{"kind":"train","name":"\u041a\u0430\u043b\u0443\u0433\u0430 - \u0422\u0451\u043c\u043a\u0438\u043d\u043e","sort_rank":275,"source":"openstreetmap.org","min_zoom":6.0,"ref":"\u041a\u0430\u043b\u0443\u0433\u0430 - \u0422\u0451\u043c\u043a\u0438\u043d\u043e","osm_relation":true,"network":"local"},"arcs":[[636],[637]]},{"type":"LineString","properties":{"kind":"train","name":"Moscow \u2014 Beijing","sort_rank":275,"name:de":"Moskau \u2014 Peking","source":"openstreetmap.org","min_zoom":6.0,"id":-2950595,"osm_relation":true},"arcs":[638]},{"type":"LineString","properties":{"kind":"train","name":"\u0420\u0436\u0435\u0432 - \u0412\u044f\u0437\u044c\u043c\u0430","sort_rank":275,"name:de":"Rschew - Wjasma","source":"openstreetmap.org","min_zoom":6.0,"operator":"\u0426\u041f\u041f\u041a","ref":"\u0420\u0436\u0435\u0432 - \u0412\u044f\u0437\u044c\u043c\u0430","osm_relation":true},"arcs":[639]},{"type":"MultiLineString","properties":{"source":"openstreetmap.org","kind":"train","name":"\u0412\u044f\u0437\u044c\u043c\u0430 - \u0418\u0437\u043d\u043e\u0441\u043a\u0438","sort_rank":275,"ref":"\u0412\u044f\u0437\u044c\u043c\u0430 - \u0418\u0437\u043d\u043e\u0441\u043a\u0438","min_zoom":6.0,"osm_relation":true},"arcs":[[640],[641],[642],[643]]},{"type":"LineString","properties":{"kind":"train","name":"EN 452 : Moscou \u2212 Berlin \u2212 Paris","service":"international","sort_rank":275,"source":"openstreetmap.org","min_zoom":5.0,"operator":"\u0420\u043e\u0441\u0441\u0438\u0439\u0441\u043a\u0438\u0435 \u0436\u0435\u043b\u0435\u0437\u043d\u044b\u0435 \u0434\u043e\u0440\u043e\u0433\u0438","ref":"EN 452","osm_relation":true,"network":"EuroNight"},"arcs":[644]},{"type":"MultiLineString","properties":{"kind":"train","name":"080 \u041c\u043e\u0441\u043a\u0432\u0430 \u041a\u0430\u0437\u0430\u043d\u0441\u043a\u0430\u044f \u2014 \u0411\u0435\u0440\u0435\u0449\u0438\u043d\u043e \u2014 \u041f\u0435\u0440\u0432\u043e\u043c\u0430\u0439\u0441\u043a","sort_rank":275,"source":"openstreetmap.org","min_zoom":6.0,"operator":"\u0420\u0416\u0414","ref":"080","osm_relation":true},"arcs":[[645],[646],[647]]},{"type":"MultiLineString","properties":{"kind":"train","network":"\u0420\u0416\u0414","sort_rank":275,"source":"openstreetmap.org","min_zoom":6.0,"operator":"\u0426\u0435\u043d\u0442\u0440\u0430\u043b\u044c\u043d\u0430\u044f \u043f\u0440\u0438\u0433\u043e\u0440\u043e\u0434\u043d\u0430\u044f \u043f\u0430\u0441\u0441\u0430\u0436\u0438\u0440\u0441\u043a\u0430\u044f \u043a\u043e\u043c\u043f\u0430\u043d\u0438\u044f","ref":"\u041c\u043e\u0441\u043a\u0432\u0430 \u2014 \u0420\u044f\u0437\u0430\u043d\u044c","osm_relation":true,"name":"\u041f\u043e\u0435\u0437\u0434: \u041c\u043e\u0441\u043a\u0432\u0430 \u2014 \u0420\u044f\u0437\u0430\u043d\u044c-1"},"arcs":[[648],[649],[650],[651]]},{"type":"MultiLineString","properties":{"source":"openstreetmap.org","kind":"train","sort_rank":275,"ref":"\u0410\u043b\u0435\u043a\u0441\u0430\u043d\u0434\u0440\u043e\u0432 - \u041a\u0443\u0440\u043e\u0432\u0441\u043a\u0430\u044f","min_zoom":6.0,"osm_relation":true},"arcs":[[652],[653],[654],[655],[656],[657]]},{"type":"MultiLineString","properties":{"source":"openstreetmap.org","kind":"train","name":"\u0411\u0440\u044f\u043d\u0441\u043a - \u0413\u043e\u043c\u0435\u043b\u044c","sort_rank":275,"min_zoom":6.0,"osm_relation":true},"arcs":[[658],[659]]},{"type":"LineString","properties":{"source":"openstreetmap.org","kind":"train","name":"\u0415\u043b\u0435\u0446-\u041b\u0438\u043f\u0435\u0446\u043a","sort_rank":275,"min_zoom":6.0,"osm_relation":true},"arcs":[660]},{"type":"LineString","properties":{"kind":"train","name":"\u041c\u043e\u0441\u043a\u0432\u0430 \u042f\u0440\u043e\u0441\u043b\u0430\u0432\u0441\u043a\u0430\u044f \u2014 \u041f\u0435\u0440\u043c\u044c","sort_rank":275,"source":"openstreetmap.org","min_zoom":6.0,"ref":"007\u0415;008\u0415","id":-1758077,"osm_relation":true},"arcs":[661]},{"type":"MultiLineString","properties":{"kind":"train","network":"\u0420\u0416\u0414","sort_rank":275,"source":"openstreetmap.org","min_zoom":6.0,"ref":"6036","osm_relation":true,"name":"\u041a\u0443\u0431\u0438\u043d\u043a\u0430 \u2014 \u041b\u044e\u0431\u043b\u0438\u043d\u043e-\u0414\u0430\u0447\u043d\u043e\u0435"},"arcs":[[662],[663]]},{"type":"MultiLineString","properties":{"kind":"train","network":"\u0420\u0416\u0414","sort_rank":275,"source":"openstreetmap.org","min_zoom":6.0,"ref":"343","osm_relation":true,"name":"\u041f\u043e\u0435\u0437\u0434 \u2116343: \u041c\u043e\u0441\u043a\u0432\u0430 \u2014 \u0411\u0430\u043b\u0430\u0448\u043e\u0432-1"},"arcs":[[664],[665],[666],[667],[668],[669],[670],[671],[672],[673],[674],[675],[676],[677]]},{"type":"LineString","properties":{"kind":"train","name:en":"EN 453 : Paris \u2212 Berlin \u2212 Moscow","network":"EuroNight","service":"international","sort_rank":275,"source":"openstreetmap.org","min_zoom":5.0,"operator":"\u0420\u043e\u0441\u0441\u0438\u0439\u0441\u043a\u0438\u0435 \u0436\u0435\u043b\u0435\u0437\u043d\u044b\u0435 \u0434\u043e\u0440\u043e\u0433\u0438","ref":"EN 453","osm_relation":true,"name":"EN 453 : Paris \u2212 Berlin \u2212 Moscou"},"arcs":[678]},{"type":"MultiLineString","properties":{"source":"openstreetmap.org","kind":"train","sort_rank":275,"ref":"\u041c\u043e\u0441\u043a\u0432\u0430 - \u041e\u0436\u0435\u0440\u0435\u043b\u044c\u0435","min_zoom":6.0,"osm_relation":true},"arcs":[[679],[680],[681],[682],[683],[684],[685],[686],[687],[688],[689],[690],[691]]},{"type":"LineString","properties":{"source":"openstreetmap.org","kind":"train","name":"\u0421\u0443\u0445\u0438\u043d\u0438\u0447\u0438-\u0423\u0437\u043b\u043e\u0432\u044b\u0435 - \u0421\u043f\u0430\u0441-\u0414\u0435\u043c\u0435\u043d\u0441\u043a","sort_rank":275,"ref":"\u0421\u0443\u0445\u0438\u043d\u0438\u0447\u0438 - \u0421\u043f\u0430\u0441-\u0414\u0435\u043c\u0435\u043d\u0441\u043a -","min_zoom":6.0,"osm_relation":true},"arcs":[692]},{"type":"MultiLineString","properties":{"source":"openstreetmap.org","kind":"train","network":"\u0420\u0416\u0414","sort_rank":275,"min_zoom":6.0,"osm_relation":true,"name":"\u041a\u0430\u043b\u0443\u0433\u0430 \u2014 \u0422\u0443\u043b\u0430"},"arcs":[[693],[694],[695],[696],[697],[698],[699]]},{"type":"MultiLineString","properties":{"kind":"train","name":"025\/026 \u041c\u043e\u0441\u043a\u0432\u0430 \u041a\u0430\u0437\u0430\u043d\u0441\u043a\u0430\u044f \u2014 \u0418\u0436\u0435\u0432\u0441\u043a","sort_rank":275,"source":"openstreetmap.org","min_zoom":6.0,"operator":"\u0420\u0416\u0414","ref":"025\/026","osm_relation":true},"arcs":[[700],[701],[702]]},{"type":"MultiLineString","properties":{"kind":"train","network":"\u0420\u0416\u0414","sort_rank":275,"source":"openstreetmap.org","min_zoom":6.0,"ref":"6701","osm_relation":true,"name":"\u0411\u0430\u043b\u0430\u0448\u0438\u0445\u0430 \u2014 \u041c\u043e\u0441\u043a\u0432\u0430"},"arcs":[[703],[704],[705],[706],[707],[708],[709],[710],[711],[712],[713],[714],[715]]},{"type":"MultiLineString","properties":{"source":"openstreetmap.org","kind":"train","name":"\u0420\u044f\u0436\u0441\u043a-1 \u2014 \u0427\u0435\u0440\u0435\u043f\u0435\u0442\u044c","sort_rank":275,"ref":"\u0420\u044f\u0436\u0441\u043a - \u0427\u0435\u0440\u0435\u043f\u0435\u0442\u044c","min_zoom":6.0,"osm_relation":true},"arcs":[[716],[717],[718],[719],[720],[721],[722],[723],[724],[725],[726],[727],[728],[729],[730],[731],[732],[733],[734],[735],[736],[737],[738],[739],[740],[741],[742],[743],[744],[745],[746],[747],[748],[749],[750],[751],[752],[753],[754],[755],[756],[757],[758],[759],[760],[761],[762],[763],[764],[765],[766],[767],[768],[769],[770],[771],[772],[773],[774],[775],[776],[777],[778],[779],[780],[781],[782],[783],[784],[785],[786],[787],[788],[789],[790],[791],[792],[793],[794],[795],[796],[797],[798],[799],[800],[801],[802],[803],[804],[805],[806],[807],[808],[809],[810],[811],[812],[813],[814],[815],[816],[817],[818],[819],[820],[821],[822],[823],[824],[825],[826]]},{"type":"MultiLineString","properties":{"source":"openstreetmap.org","kind":"train","name":"\u0420\u0435\u043b\u044c\u0441\u043e\u0432\u044b\u0439 \u0430\u0432\u0442\u043e\u0431\u0443\u0441 \u0413\u043e\u043b\u0443\u0442\u0432\u0438\u043d - \u041e\u0437\u0451\u0440\u044b","sort_rank":275,"min_zoom":6.0,"osm_relation":true},"arcs":[[827],[828],[829],[830],[831],[832],[833],[834],[835],[836],[837],[838],[839],[840]]},{"type":"MultiLineString","properties":{"source":"openstreetmap.org","kind":"train","name":"\u0424\u0430\u044f\u043d\u0441\u043e\u0432\u0430\u044f - \u041b\u044e\u0434\u0438\u043d\u043e\u0432\u043e - \u0411\u0440\u044f\u043d\u0441\u043a","sort_rank":275,"ref":"\u0424\u0430\u044f\u043d\u0441\u043e\u0432\u0430\u044f - \u041b\u044e\u0434\u0438\u043d\u043e\u0432\u043e - \u0411\u0440\u044f\u043d\u0441\u043a","min_zoom":6.0,"osm_relation":true},"arcs":[[841],[842],[843],[844],[845],[846],[847],[848]]},{"type":"MultiLineString","properties":{"source":"openstreetmap.org","kind":"train","name":"\u041b\u0443\u0436\u043a\u0438 \u041e\u0440\u043b\u043e\u0432\u0441\u043a\u0438\u0435 - \u0415\u043b\u0435\u0446","sort_rank":275,"ref":"\u041e\u0440\u0451\u043b - \u0415\u043b\u0435\u0446","min_zoom":6.0,"osm_relation":true},"arcs":[[849],[850],[851],[852],[853],[854]]},{"type":"MultiLineString","properties":{"kind":"train","name:en":"Moscow \u2014 Severobaykalsk","name":"\u041c\u043e\u0441\u043a\u0432\u0430 \u2014 \u0421\u0435\u0432\u0435\u0440\u043e\u0431\u0430\u0439\u043a\u0430\u043b\u044c\u0441\u043a","sort_rank":275,"name:de":"Moskau \u2014 Sewerobaikalsk","source":"openstreetmap.org","min_zoom":6.0,"operator":"\u0420\u043e\u0441\u0441\u0438\u0439\u0441\u043a\u0438\u0435 \u0436\u0435\u043b\u0435\u0437\u043d\u044b\u0435 \u0434\u043e\u0440\u043e\u0433\u0438","ref":"092\u0418","osm_relation":true},"arcs":[[855],[856],[857],[858],[859],[860]]},{"type":"MultiLineString","properties":{"source":"openstreetmap.org","kind":"train","sort_rank":275,"ref":"\u041c\u043e\u0441\u043a\u0432\u0430 \u2014 \u0424\u0440\u044f\u0437\u0435\u0432\u043e","min_zoom":6.0,"osm_relation":true},"arcs":[[861],[862]]},{"type":"MultiLineString","properties":{"kind":"train","name":"\u041c\u043e\u0441\u043a\u0432\u0430 \u041a\u0430\u0437\u0430\u043d\u0441\u043a\u0430\u044f \u2014 \u041d\u043e\u0432\u043e\u043a\u0443\u0437\u043d\u0435\u0446\u043a","sort_rank":275,"source":"openstreetmap.org","min_zoom":6.0,"operator":"\u0420\u0416\u0414","ref":"117\u041d;118\u0415","osm_relation":true},"arcs":[[863],[864],[865]]},{"type":"MultiLineString","properties":{"source":"openstreetmap.org","kind":"train","name":"\u0420\u0435\u043b\u044c\u0441\u043e\u0432\u044b\u0439 \u0430\u0432\u0442\u043e\u0431\u0443\u0441 \u041e\u0437\u0451\u0440\u044b - \u0413\u043e\u043b\u0443\u0442\u0432\u0438\u043d","sort_rank":275,"min_zoom":6.0,"osm_relation":true},"arcs":[[866],[867],[868],[869],[870],[871],[872],[873],[874],[875],[876],[877],[878],[879]]},{"type":"MultiLineString","properties":{"kind":"train","name":"080 \u041c\u043e\u0441\u043a\u0432\u0430 \u041a\u0430\u0437\u0430\u043d\u0441\u043a\u0430\u044f \u2014 \u0411\u0435\u0440\u0435\u0449\u0438\u043d\u043e \u2014 \u0421\u0430\u0440\u043e\u0432","sort_rank":275,"source":"openstreetmap.org","min_zoom":6.0,"operator":"\u0420\u0416\u0414","ref":"080","osm_relation":true},"arcs":[[880],[881],[882]]},{"type":"MultiLineString","properties":{"kind":"train","name":"\u0416\u0438\u043b\u0451\u0432\u043e \u2014 \u041a\u0443\u0440\u043e\u0432\u0441\u043a\u0430\u044f","sort_rank":275,"source":"openstreetmap.org","min_zoom":6.0,"ref":"\u0416\u0438\u043b\u0451\u0432\u043e - \u041a\u0443\u0440\u043e\u0432\u0441\u043a\u0430\u044f","osm_relation":true,"network":"\u041c\u043e\u0441\u043a\u043e\u0432\u0441\u043a\u0430\u044f \u043e\u0431\u043b\u0430\u0441\u0442\u044c"},"arcs":[[883],[884],[885],[886],[887],[888],[889],[890],[891],[892],[893],[894],[895],[896],[897],[898],[899],[900],[901]]},{"type":"MultiLineString","properties":{"kind":"train","network":"\u0420\u0416\u0414","sort_rank":275,"source":"openstreetmap.org","min_zoom":6.0,"ref":"151\/1 \u041c\u043e\u0441\u043a\u0432\u0430 \u2014 \u0410\u043d\u0430\u043f\u0430","osm_relation":true,"name":"\u041c\u043e\u0441\u043a\u0432\u0430 \u2014 \u0410\u043d\u0430\u043f\u0430"},"arcs":[[902],[903],[904],[905],[906],[907],[908],[909],[910],[911],[912],[913]]}]},"pois":{"type":"GeometryCollection","geometries":[{"type":"Point","properties":{"kind":"nature_reserve","name":"\u041d\u0430\u0446\u0438\u043e\u043d\u0430\u043b\u044c\u043d\u044b\u0439 \u043f\u0430\u0440\u043a \"\u0423\u0433\u0440\u0430\"","area":1951150000,"source":"openstreetmap.org","min_zoom":6.83,"tier":2,"id":-6187486,"osm_relation":true},"coordinates":[1000,2828]},{"type":"Point","properties":{"kind":"nature_reserve","protect_class":"1","area":2350770000,"source":"openstreetmap.org","min_zoom":6.69,"tier":2,"id":-5224115,"osm_relation":true,"name":"\u041f\u0440\u0438\u0440\u043e\u0434\u043d\u044b\u0439 \u0440\u0435\u0437\u0435\u0440\u0432\u0430\u0442 \"\u041b\u0430\u043d\u0434\u0448\u0430\u0444\u0442 \u0440\u0435\u043a\u0438 \u0423\u0433\u0440\u0430\""},"coordinates":[588,3003]},{"type":"Point","properties":{"source":"openstreetmap.org","kind":"nature_reserve","name":"\u041d\u0430\u0446\u0438\u043e\u043d\u0430\u043b\u044c\u043d\u044b\u0439 \u043f\u0430\u0440\u043a \"\u041e\u0440\u043b\u043e\u0432\u0441\u043a\u043e\u0435 \u041f\u043e\u043b\u0435\u0441\u044c\u0435\"","area":2376490000,"tier":2,"min_zoom":6.68,"id":474139652},"coordinates":[1201,1040]}]},"boundaries":{"type":"GeometryCollection","geometries":[{"type":"MultiLineString","properties":{"source":"naturalearthdata.com","kind":"region","sort_rank":256,"kind_detail":"4","min_zoom":2.0,"id":6413},"arcs":[[0],[1],[2],[3],[4],[5],[6],[7],[8],[9],[10],[11],[12],[13],[14],[15],[16]]},{"type":"LineString","properties":{"source":"naturalearthdata.com","kind":"region","sort_rank":256,"kind_detail":"4","min_zoom":2.0,"id":6414},"arcs":[17]},{"type":"MultiLineString","properties":{"source":"naturalearthdata.com","kind":"region","sort_rank":256,"kind_detail":"4","min_zoom":2.0,"id":6418},"arcs":[[18],[19],[20],[21],[22],[23],[24],[25],[26],[27],[28],[29],[30]]},{"type":"MultiLineString","properties":{"source":"naturalearthdata.com","kind":"region","sort_rank":256,"kind_detail":"4","min_zoom":2.0,"id":6330},"arcs":[[31],[32],[33],[34],[35],[36],[37],[38],[39]]},{"type":"MultiLineString","properties":{"source":"naturalearthdata.com","kind":"region","sort_rank":256,"kind_detail":"4","min_zoom":2.0,"id":6346},"arcs":[[40],[41],[42],[43],[44],[45],[46],[47],[48],[49],[50],[51],[52]]},{"type":"MultiLineString","properties":{"source":"naturalearthdata.com","kind":"region","sort_rank":256,"kind_detail":"4","min_zoom":2.0,"id":6349},"arcs":[[53],[54],[55],[56]]},{"type":"MultiLineString","properties":{"source":"naturalearthdata.com","kind":"region","sort_rank":256,"kind_detail":"4","min_zoom":2.0,"id":6368},"arcs":[[57],[58],[59],[60],[61],[62],[63],[64],[65],[66]]},{"type":"MultiLineString","properties":{"source":"naturalearthdata.com","kind":"region","sort_rank":256,"kind_detail":"4","min_zoom":2.0,"id":6369},"arcs":[[67],[68],[69],[70],[71],[72],[73],[74],[75],[76],[77],[78],[79]]},{"type":"MultiLineString","properties":{"source":"naturalearthdata.com","kind":"region","sort_rank":256,"kind_detail":"4","min_zoom":2.0,"id":6370},"arcs":[[80],[81],[82],[83],[84],[85],[86],[87],[88],[89],[90],[91],[92],[93],[94],[95],[96],[97],[98],[99],[100],[101],[102]]},{"type":"MultiLineString","properties":{"source":"naturalearthdata.com","kind":"region","sort_rank":256,"kind_detail":"4","min_zoom":2.0,"id":6371},"arcs":[[103],[104],[105],[106],[107],[108],[109]]},{"type":"MultiLineString","properties":{"source":"naturalearthdata.com","kind":"region","sort_rank":256,"kind_detail":"4","min_zoom":2.0,"id":6416},"arcs":[[110],[111]]},{"type":"MultiLineString","properties":{"source":"naturalearthdata.com","kind":"region","sort_rank":256,"kind_detail":"4","min_zoom":2.0,"id":6417},"arcs":[[112],[113],[114],[115],[116],[117],[118],[119],[120]]},{"type":"MultiLineString","properties":{"source":"naturalearthdata.com","kind":"region","sort_rank":256,"kind_detail":"4","min_zoom":2.0,"id":6514},"arcs":[[121],[122],[123],[124],[125],[126],[127],[128],[129],[130],[131],[132]]},{"type":"MultiLineString","properties":{"source":"naturalearthdata.com","kind":"region","sort_rank":256,"kind_detail":"4","min_zoom":2.0,"id":6516},"arcs":[[133],[134],[135]]},{"type":"MultiLineString","properties":{"source":"naturalearthdata.com","kind":"region","sort_rank":256,"kind_detail":"4","min_zoom":2.0,"id":6525},"arcs":[[136],[137],[138],[139],[140],[141],[142],[143],[144],[145],[146],[147],[148],[149],[150],[151],[152],[153],[154]]},{"type":"MultiLineString","properties":{"source":"naturalearthdata.com","kind":"region","sort_rank":256,"kind_detail":"4","min_zoom":2.0,"id":6526},"arcs":[[155],[156],[157],[158],[159],[160],[161],[162],[163],[164],[165],[166],[167],[168],[169],[170],[171],[172],[173]]},{"type":"MultiLineString","properties":{"source":"naturalearthdata.com","kind":"region","sort_rank":256,"kind_detail":"4","min_zoom":2.0,"id":6549},"arcs":[[174],[175],[176],[177],[178],[179],[180],[181],[182],[183]]}]},"roads":{"type":"GeometryCollection","geometries":[{"type":"LineString","properties":{"source":"naturalearthdata.com","kind":"major_road","kind_detail":"secondary","sort_rank":379,"landuse_kind":"urban_area","min_zoom":3.0,"id":12706},"arcs":[914]},{"type":"LineString","properties":{"source":"naturalearthdata.com","kind":"highway","kind_detail":"motorway","sort_rank":383,"landuse_kind":"urban_area","min_zoom":5.0,"id":12707},"arcs":[915]},{"type":"LineString","properties":{"source":"naturalearthdata.com","kind":"major_road","kind_detail":"secondary","sort_rank":379,"landuse_kind":"urban_area","min_zoom":3.0,"id":12710},"arcs":[916]},{"type":"LineString","properties":{"source":"naturalearthdata.com","kind":"major_road","kind_detail":"secondary","sort_rank":379,"landuse_kind":"urban_area","min_zoom":3.0,"id":12711},"arcs":[917]},{"type":"LineString","properties":{"source":"naturalearthdata.com","kind":"major_road","kind_detail":"secondary","sort_rank":379,"landuse_kind":"urban_area","min_zoom":3.0,"id":12712},"arcs":[918]},{"type":"LineString","properties":{"source":"naturalearthdata.com","kind":"major_road","kind_detail":"secondary","sort_rank":379,"landuse_kind":"urban_area","min_zoom":3.0,"id":12713},"arcs":[919]},{"type":"LineString","properties":{"source":"naturalearthdata.com","kind":"major_road","kind_detail":"secondary","sort_rank":379,"landuse_kind":"urban_area","min_zoom":3.0,"id":12714},"arcs":[920]},{"type":"LineString","properties":{"source":"naturalearthdata.com","kind":"major_road","kind_detail":"secondary","sort_rank":379,"landuse_kind":"urban_area","min_zoom":3.0,"id":12716},"arcs":[921]},{"type":"LineString","properties":{"source":"naturalearthdata.com","kind":"major_road","kind_detail":"secondary","sort_rank":379,"landuse_kind":"urban_area","min_zoom":3.0,"id":12717},"arcs":[922]},{"type":"LineString","properties":{"source":"naturalearthdata.com","kind":"minor_road","kind_detail":"tertiary","sort_rank":355,"landuse_kind":"urban_area","min_zoom":6.0,"id":12722},"arcs":[923]},{"type":"MultiLineString","properties":{"source":"naturalearthdata.com","kind":"minor_road","sort_rank":355,"kind_detail":"tertiary","min_zoom":6.0,"id":12722},"arcs":[[924],[925]]},{"type":"LineString","properties":{"source":"naturalearthdata.com","kind":"major_road","kind_detail":"secondary","sort_rank":379,"landuse_kind":"urban_area","min_zoom":3.0,"id":12724},"arcs":[926]},{"type":"LineString","properties":{"source":"naturalearthdata.com","kind":"minor_road","kind_detail":"tertiary","sort_rank":355,"landuse_kind":"urban_area","min_zoom":6.0,"id":12728},"arcs":[927]},{"type":"MultiLineString","properties":{"source":"naturalearthdata.com","kind":"minor_road","sort_rank":355,"kind_detail":"tertiary","min_zoom":6.0,"id":12728},"arcs":[[928],[929]]},{"type":"LineString","properties":{"source":"naturalearthdata.com","kind":"major_road","kind_detail":"secondary","sort_rank":379,"landuse_kind":"urban_area","min_zoom":3.0,"id":12733},"arcs":[930]},{"type":"LineString","properties":{"source":"naturalearthdata.com","kind":"major_road","kind_detail":"secondary","sort_rank":379,"landuse_kind":"urban_area","min_zoom":3.0,"id":12734},"arcs":[931]},{"type":"LineString","properties":{"source":"naturalearthdata.com","kind":"major_road","sort_rank":379,"kind_detail":"secondary","min_zoom":3.0,"id":12735},"arcs":[932]},{"type":"LineString","properties":{"source":"naturalearthdata.com","kind":"major_road","kind_detail":"secondary","sort_rank":379,"landuse_kind":"urban_area","min_zoom":3.0,"id":12743},"arcs":[933]},{"type":"MultiLineString","properties":{"source":"naturalearthdata.com","kind":"highway","kind_detail":"motorway","sort_rank":383,"landuse_kind":"urban_area","min_zoom":5.0,"id":12744},"arcs":[[934],[935]]},{"type":"LineString","properties":{"source":"naturalearthdata.com","kind":"highway","sort_rank":383,"kind_detail":"motorway","min_zoom":5.0,"id":12744},"arcs":[936]},{"type":"LineString","properties":{"source":"naturalearthdata.com","kind":"major_road","kind_detail":"secondary","sort_rank":379,"landuse_kind":"urban_area","min_zoom":3.0,"id":12747},"arcs":[937]},{"type":"LineString","properties":{"source":"naturalearthdata.com","kind":"major_road","sort_rank":379,"kind_detail":"secondary","min_zoom":3.0,"id":12747},"arcs":[938]},{"type":"LineString","properties":{"source":"naturalearthdata.com","kind":"highway","kind_detail":"motorway","sort_rank":383,"landuse_kind":"urban_area","min_zoom":5.0,"id":12750},"arcs":[939]},{"type":"LineString","properties":{"source":"naturalearthdata.com","kind":"major_road","kind_detail":"secondary","sort_rank":379,"landuse_kind":"urban_area","min_zoom":3.0,"id":12751},"arcs":[940]},{"type":"LineString","properties":{"source":"naturalearthdata.com","kind":"major_road","kind_detail":"secondary","sort_rank":379,"landuse_kind":"urban_area","min_zoom":3.0,"id":12761},"arcs":[941]},{"type":"LineString","properties":{"source":"naturalearthdata.com","kind":"minor_road","kind_detail":"tertiary","sort_rank":355,"landuse_kind":"urban_area","min_zoom":6.0,"id":12764},"arcs":[942]},{"type":"LineString","properties":{"source":"naturalearthdata.com","kind":"major_road","kind_detail":"secondary","sort_rank":379,"landuse_kind":"urban_area","min_zoom":3.0,"id":12765},"arcs":[943]},{"type":"LineString","properties":{"source":"naturalearthdata.com","kind":"major_road","kind_detail":"secondary","sort_rank":379,"landuse_kind":"urban_area","min_zoom":3.0,"id":12766},"arcs":[944]},{"type":"LineString","properties":{"source":"naturalearthdata.com","kind":"major_road","kind_detail":"secondary","sort_rank":379,"landuse_kind":"urban_area","min_zoom":3.0,"id":12768},"arcs":[945]},{"type":"LineString","properties":{"source":"naturalearthdata.com","kind":"highway","kind_detail":"motorway","sort_rank":383,"landuse_kind":"urban_area","min_zoom":5.0,"id":12769},"arcs":[946]},{"type":"MultiLineString","properties":{"source":"naturalearthdata.com","kind":"minor_road","kind_detail":"tertiary","sort_rank":355,"landuse_kind":"urban_area","min_zoom":6.0,"id":12772},"arcs":[[947],[948]]},{"type":"MultiLineString","properties":{"source":"naturalearthdata.com","kind":"minor_road","sort_rank":355,"kind_detail":"tertiary","min_zoom":6.0,"id":12772},"arcs":[[949],[950]]},{"type":"LineString","properties":{"source":"naturalearthdata.com","kind":"major_road","sort_rank":379,"kind_detail":"secondary","min_zoom":4.0,"id":12775},"arcs":[951]},{"type":"LineString","properties":{"source":"naturalearthdata.com","kind":"minor_road","sort_rank":355,"kind_detail":"tertiary","min_zoom":6.0,"id":12776},"arcs":[952]},{"type":"LineString","properties":{"source":"naturalearthdata.com","kind":"minor_road","sort_rank":355,"kind_detail":"tertiary","min_zoom":6.0,"id":12777},"arcs":[953]},{"type":"MultiLineString","properties":{"source":"naturalearthdata.com","kind":"major_road","kind_detail":"secondary","sort_rank":379,"landuse_kind":"urban_area","min_zoom":3.0,"id":12779},"arcs":[[954],[955]]},{"type":"MultiLineString","properties":{"source":"naturalearthdata.com","kind":"major_road","sort_rank":379,"kind_detail":"secondary","min_zoom":3.0,"id":12779},"arcs":[[956],[957]]},{"type":"LineString","properties":{"source":"naturalearthdata.com","kind":"major_road","kind_detail":"secondary","sort_rank":379,"landuse_kind":"urban_area","min_zoom":3.0,"id":12784},"arcs":[958]},{"type":"LineString","properties":{"source":"naturalearthdata.com","kind":"highway","kind_detail":"motorway","sort_rank":383,"landuse_kind":"urban_area","min_zoom":5.0,"id":12785},"arcs":[959]},{"type":"LineString","properties":{"source":"naturalearthdata.com","kind":"minor_road","sort_rank":355,"kind_detail":"tertiary","min_zoom":6.0,"id":12787},"arcs":[960]},{"type":"LineString","properties":{"source":"naturalearthdata.com","kind":"major_road","kind_detail":"secondary","sort_rank":379,"landuse_kind":"urban_area","min_zoom":3.0,"id":12789},"arcs":[961]},{"type":"LineString","properties":{"source":"naturalearthdata.com","kind":"major_road","kind_detail":"secondary","sort_rank":379,"landuse_kind":"urban_area","min_zoom":3.0,"id":12794},"arcs":[962]},{"type":"LineString","properties":{"source":"naturalearthdata.com","kind":"major_road","sort_rank":379,"kind_detail":"secondary","min_zoom":3.0,"id":12794},"arcs":[963]},{"type":"LineString","properties":{"source":"naturalearthdata.com","kind":"minor_road","kind_detail":"tertiary","sort_rank":355,"landuse_kind":"urban_area","min_zoom":6.0,"id":12795},"arcs":[964]},{"type":"LineString","properties":{"source":"naturalearthdata.com","kind":"minor_road","sort_rank":355,"kind_detail":"tertiary","min_zoom":6.0,"id":12795},"arcs":[965]},{"type":"LineString","properties":{"source":"naturalearthdata.com","kind":"highway","kind_detail":"motorway","sort_rank":383,"landuse_kind":"urban_area","min_zoom":5.0,"id":12796},"arcs":[966]},{"type":"LineString","properties":{"source":"naturalearthdata.com","kind":"major_road","kind_detail":"secondary","sort_rank":379,"landuse_kind":"urban_area","min_zoom":3.0,"id":12797},"arcs":[967]},{"type":"MultiLineString","properties":{"source":"naturalearthdata.com","kind":"highway","kind_detail":"motorway","sort_rank":383,"landuse_kind":"urban_area","min_zoom":5.0,"id":12800},"arcs":[[968],[969]]},{"type":"LineString","properties":{"source":"naturalearthdata.com","kind":"highway","sort_rank":383,"kind_detail":"motorway","min_zoom":5.0,"id":12800},"arcs":[970]},{"type":"LineString","properties":{"source":"naturalearthdata.com","kind":"major_road","kind_detail":"secondary","sort_rank":379,"landuse_kind":"urban_area","min_zoom":3.0,"id":12804},"arcs":[971]},{"type":"LineString","properties":{"source":"naturalearthdata.com","kind":"highway","kind_detail":"motorway","sort_rank":383,"landuse_kind":"urban_area","min_zoom":5.0,"id":12805},"arcs":[972]},{"type":"LineString","properties":{"source":"naturalearthdata.com","kind":"major_road","sort_rank":379,"kind_detail":"secondary","min_zoom":3.0,"id":12806},"arcs":[973]},{"type":"LineString","properties":{"source":"naturalearthdata.com","kind":"highway","kind_detail":"motorway","sort_rank":383,"landuse_kind":"urban_area","min_zoom":5.0,"id":12807},"arcs":[974]},{"type":"LineString","properties":{"source":"naturalearthdata.com","kind":"minor_road","sort_rank":355,"kind_detail":"tertiary","min_zoom":6.0,"id":12815},"arcs":[975]},{"type":"MultiLineString","properties":{"source":"naturalearthdata.com","kind":"major_road","kind_detail":"secondary","sort_rank":379,"landuse_kind":"urban_area","min_zoom":3.0,"id":12819},"arcs":[[976],[977]]},{"type":"LineString","properties":{"source":"naturalearthdata.com","kind":"major_road","sort_rank":379,"kind_detail":"secondary","min_zoom":3.0,"id":12819},"arcs":[978]},{"type":"LineString","properties":{"source":"naturalearthdata.com","kind":"major_road","kind_detail":"secondary","sort_rank":379,"landuse_kind":"urban_area","min_zoom":3.0,"id":12824},"arcs":[979]},{"type":"LineString","properties":{"source":"naturalearthdata.com","kind":"major_road","sort_rank":379,"kind_detail":"secondary","min_zoom":3.0,"id":12824},"arcs":[980]},{"type":"LineString","properties":{"source":"naturalearthdata.com","kind":"major_road","sort_rank":379,"kind_detail":"secondary","min_zoom":3.0,"id":12825},"arcs":[981]},{"type":"LineString","properties":{"source":"naturalearthdata.com","kind":"major_road","sort_rank":379,"kind_detail":"secondary","min_zoom":3.0,"id":12840},"arcs":[982]},{"type":"LineString","properties":{"source":"naturalearthdata.com","kind":"minor_road","sort_rank":355,"kind_detail":"tertiary","min_zoom":6.0,"id":12841},"arcs":[983]},{"type":"LineString","properties":{"source":"naturalearthdata.com","kind":"major_road","kind_detail":"secondary","sort_rank":379,"landuse_kind":"urban_area","min_zoom":3.0,"id":12844},"arcs":[984]},{"type":"MultiLineString","properties":{"source":"naturalearthdata.com","kind":"major_road","kind_detail":"secondary","sort_rank":379,"landuse_kind":"urban_area","min_zoom":3.0,"id":12844},"arcs":[[985],[986]]},{"type":"MultiLineString","properties":{"source":"naturalearthdata.com","kind":"major_road","sort_rank":379,"kind_detail":"secondary","min_zoom":3.0,"id":12844},"arcs":[[987],[988],[989]]},{"type":"LineString","properties":{"source":"naturalearthdata.com","kind":"minor_road","kind_detail":"tertiary","sort_rank":355,"landuse_kind":"urban_area","min_zoom":6.0,"id":12845},"arcs":[990]},{"type":"LineString","properties":{"source":"naturalearthdata.com","kind":"minor_road","sort_rank":355,"kind_detail":"tertiary","min_zoom":6.0,"id":12845},"arcs":[991]},{"type":"LineString","properties":{"source":"naturalearthdata.com","kind":"major_road","sort_rank":379,"kind_detail":"secondary","min_zoom":4.0,"id":12846},"arcs":[992]},{"type":"LineString","properties":{"source":"naturalearthdata.com","kind":"major_road","sort_rank":379,"kind_detail":"secondary","min_zoom":4.0,"id":12852},"arcs":[993]},{"type":"LineString","properties":{"source":"naturalearthdata.com","kind":"minor_road","kind_detail":"tertiary","sort_rank":355,"landuse_kind":"urban_area","min_zoom":6.0,"id":12858},"arcs":[994]},{"type":"MultiLineString","properties":{"source":"naturalearthdata.com","kind":"minor_road","sort_rank":355,"kind_detail":"tertiary","min_zoom":6.0,"id":12858},"arcs":[[995],[996]]},{"type":"LineString","properties":{"source":"naturalearthdata.com","kind":"major_road","sort_rank":379,"kind_detail":"secondary","min_zoom":3.0,"id":12865},"arcs":[997]},{"type":"LineString","properties":{"source":"naturalearthdata.com","kind":"minor_road","kind_detail":"tertiary","sort_rank":355,"landuse_kind":"urban_area","min_zoom":6.0,"id":12866},"arcs":[998]},{"type":"MultiLineString","properties":{"source":"naturalearthdata.com","kind":"minor_road","sort_rank":355,"kind_detail":"tertiary","min_zoom":6.0,"id":12866},"arcs":[[999],[1000]]},{"type":"LineString","properties":{"source":"naturalearthdata.com","kind":"major_road","sort_rank":379,"kind_detail":"secondary","min_zoom":3.0,"id":12872},"arcs":[1001]},{"type":"LineString","properties":{"source":"naturalearthdata.com","kind":"major_road","kind_detail":"secondary","sort_rank":379,"landuse_kind":"urban_area","min_zoom":4.0,"id":12874},"arcs":[1002]},{"type":"MultiLineString","properties":{"source":"naturalearthdata.com","kind":"major_road","sort_rank":379,"kind_detail":"secondary","min_zoom":4.0,"id":12874},"arcs":[[1003],[1004]]},{"type":"LineString","properties":{"source":"naturalearthdata.com","kind":"major_road","sort_rank":379,"kind_detail":"secondary","min_zoom":3.0,"id":12875},"arcs":[1005]},{"type":"LineString","properties":{"source":"naturalearthdata.com","kind":"major_road","sort_rank":379,"kind_detail":"secondary","min_zoom":3.0,"id":12876},"arcs":[1006]},{"type":"LineString","properties":{"source":"naturalearthdata.com","kind":"minor_road","kind_detail":"tertiary","sort_rank":355,"landuse_kind":"urban_area","min_zoom":6.0,"id":12887},"arcs":[1007]},{"type":"MultiLineString","properties":{"source":"naturalearthdata.com","kind":"minor_road","sort_rank":355,"kind_detail":"tertiary","min_zoom":6.0,"id":12887},"arcs":[[1008],[1009]]},{"type":"MultiLineString","properties":{"source":"naturalearthdata.com","kind":"major_road","kind_detail":"secondary","sort_rank":379,"landuse_kind":"urban_area","min_zoom":3.0,"id":12888},"arcs":[[1010],[1011]]},{"type":"MultiLineString","properties":{"source":"naturalearthdata.com","kind":"major_road","sort_rank":379,"kind_detail":"secondary","min_zoom":3.0,"id":12888},"arcs":[[1012],[1013]]},{"type":"LineString","properties":{"source":"naturalearthdata.com","kind":"major_road","kind_detail":"secondary","sort_rank":379,"landuse_kind":"urban_area","min_zoom":4.0,"id":12893},"arcs":[1014]},{"type":"LineString","properties":{"source":"naturalearthdata.com","kind":"major_road","kind_detail":"secondary","sort_rank":379,"landuse_kind":"urban_area","min_zoom":4.0,"id":12893},"arcs":[1015]},{"type":"MultiLineString","properties":{"source":"naturalearthdata.com","kind":"major_road","sort_rank":379,"kind_detail":"secondary","min_zoom":4.0,"id":12893},"arcs":[[1016],[1017]]},{"type":"LineString","properties":{"source":"naturalearthdata.com","kind":"minor_road","sort_rank":355,"kind_detail":"tertiary","min_zoom":6.0,"id":12894},"arcs":[1018]},{"type":"LineString","properties":{"source":"naturalearthdata.com","kind":"minor_road","sort_rank":355,"kind_detail":"tertiary","min_zoom":6.0,"id":12895},"arcs":[1019]},{"type":"LineString","properties":{"source":"naturalearthdata.com","kind":"major_road","sort_rank":379,"kind_detail":"secondary","min_zoom":3.0,"id":12905},"arcs":[1020]},{"type":"LineString","properties":{"source":"naturalearthdata.com","kind":"minor_road","sort_rank":355,"kind_detail":"tertiary","min_zoom":6.0,"id":12909},"arcs":[1021]},{"type":"LineString","properties":{"source":"naturalearthdata.com","kind":"minor_road","kind_detail":"tertiary","sort_rank":355,"landuse_kind":"urban_area","min_zoom":6.0,"id":12911},"arcs":[1022]},{"type":"LineString","properties":{"source":"naturalearthdata.com","kind":"minor_road","sort_rank":355,"kind_detail":"tertiary","min_zoom":6.0,"id":12911},"arcs":[1023]},{"type":"LineString","properties":{"source":"naturalearthdata.com","kind":"minor_road","sort_rank":355,"kind_detail":"tertiary","min_zoom":6.0,"id":12914},"arcs":[1024]},{"type":"LineString","properties":{"source":"naturalearthdata.com","kind":"major_road","sort_rank":379,"kind_detail":"secondary","min_zoom":3.0,"id":12922},"arcs":[1025]},{"type":"LineString","properties":{"source":"naturalearthdata.com","kind":"minor_road","sort_rank":355,"kind_detail":"tertiary","min_zoom":6.0,"id":12925},"arcs":[1026]},{"type":"LineString","properties":{"source":"naturalearthdata.com","kind":"major_road","sort_rank":379,"kind_detail":"secondary","min_zoom":3.0,"id":12929},"arcs":[1027]},{"type":"LineString","properties":{"source":"naturalearthdata.com","kind":"major_road","sort_rank":379,"kind_detail":"secondary","min_zoom":3.0,"id":12931},"arcs":[1028]},{"type":"LineString","properties":{"source":"naturalearthdata.com","kind":"minor_road","sort_rank":355,"kind_detail":"tertiary","min_zoom":6.0,"id":12935},"arcs":[1029]},{"type":"LineString","properties":{"source":"naturalearthdata.com","kind":"highway","kind_detail":"motorway","sort_rank":383,"landuse_kind":"urban_area","min_zoom":3.0,"id":12936},"arcs":[1030]},{"type":"LineString","properties":{"source":"naturalearthdata.com","kind":"highway","kind_detail":"motorway","sort_rank":383,"landuse_kind":"urban_area","min_zoom":3.0,"id":12936},"arcs":[1031]},{"type":"MultiLineString","properties":{"source":"naturalearthdata.com","kind":"highway","sort_rank":383,"kind_detail":"motorway","min_zoom":3.0,"id":12936},"arcs":[[1032],[1033]]},{"type":"LineString","properties":{"source":"naturalearthdata.com","kind":"minor_road","sort_rank":355,"kind_detail":"tertiary","min_zoom":6.0,"id":12941},"arcs":[1034]},{"type":"LineString","properties":{"source":"naturalearthdata.com","kind":"highway","kind_detail":"motorway","sort_rank":383,"landuse_kind":"urban_area","min_zoom":3.0,"id":12942},"arcs":[1035]},{"type":"LineString","properties":{"source":"naturalearthdata.com","kind":"highway","sort_rank":383,"kind_detail":"motorway","min_zoom":3.0,"id":12942},"arcs":[1036]},{"type":"LineString","properties":{"source":"naturalearthdata.com","kind":"minor_road","sort_rank":355,"kind_detail":"tertiary","min_zoom":6.0,"id":12945},"arcs":[1037]},{"type":"LineString","properties":{"source":"naturalearthdata.com","kind":"minor_road","sort_rank":355,"kind_detail":"tertiary","min_zoom":6.0,"id":12946},"arcs":[1038]},{"type":"LineString","properties":{"source":"naturalearthdata.com","kind":"minor_road","kind_detail":"tertiary","sort_rank":355,"landuse_kind":"urban_area","min_zoom":6.0,"id":12948},"arcs":[1039]},{"type":"LineString","properties":{"source":"naturalearthdata.com","kind":"minor_road","sort_rank":355,"kind_detail":"tertiary","min_zoom":6.0,"id":12948},"arcs":[1040]},{"type":"LineString","properties":{"source":"naturalearthdata.com","kind":"highway","sort_rank":383,"kind_detail":"motorway","min_zoom":3.0,"id":12960},"arcs":[1041]},{"type":"LineString","properties":{"source":"naturalearthdata.com","kind":"major_road","sort_rank":379,"kind_detail":"secondary","min_zoom":4.0,"id":12963},"arcs":[1042]},{"type":"LineString","properties":{"source":"naturalearthdata.com","kind":"major_road","kind_detail":"secondary","sort_rank":379,"landuse_kind":"urban_area","min_zoom":3.0,"id":12965},"arcs":[1043]},{"type":"MultiLineString","properties":{"source":"naturalearthdata.com","kind":"major_road","sort_rank":379,"kind_detail":"secondary","min_zoom":3.0,"id":12965},"arcs":[[1044],[1045]]},{"type":"LineString","properties":{"source":"naturalearthdata.com","kind":"major_road","sort_rank":379,"kind_detail":"secondary","min_zoom":3.0,"id":12966},"arcs":[1046]},{"type":"LineString","properties":{"source":"naturalearthdata.com","kind":"minor_road","sort_rank":355,"kind_detail":"tertiary","min_zoom":6.0,"id":12989},"arcs":[1047]},{"type":"LineString","properties":{"source":"naturalearthdata.com","kind":"major_road","sort_rank":379,"kind_detail":"secondary","min_zoom":4.0,"id":12993},"arcs":[1048]},{"type":"LineString","properties":{"source":"naturalearthdata.com","kind":"major_road","kind_detail":"secondary","sort_rank":379,"landuse_kind":"urban_area","min_zoom":3.0,"id":12994},"arcs":[1049]},{"type":"MultiLineString","properties":{"source":"naturalearthdata.com","kind":"major_road","sort_rank":379,"kind_detail":"secondary","min_zoom":3.0,"id":12994},"arcs":[[1050],[1051]]},{"type":"LineString","properties":{"source":"naturalearthdata.com","kind":"major_road","sort_rank":379,"kind_detail":"secondary","min_zoom":3.0,"id":12996},"arcs":[1052]},{"type":"LineString","properties":{"source":"naturalearthdata.com","kind":"major_road","sort_rank":379,"kind_detail":"secondary","min_zoom":4.0,"id":12999},"arcs":[1053]},{"type":"LineString","properties":{"source":"naturalearthdata.com","kind":"major_road","sort_rank":379,"kind_detail":"secondary","min_zoom":3.0,"id":13000},"arcs":[1054]},{"type":"LineString","properties":{"source":"naturalearthdata.com","kind":"highway","sort_rank":383,"kind_detail":"motorway","min_zoom":3.0,"id":13001},"arcs":[1055]},{"type":"LineString","properties":{"source":"naturalearthdata.com","kind":"minor_road","sort_rank":355,"kind_detail":"tertiary","min_zoom":6.0,"id":13005},"arcs":[1056]},{"type":"LineString","properties":{"source":"naturalearthdata.com","kind":"major_road","sort_rank":379,"kind_detail":"secondary","min_zoom":3.0,"id":13018},"arcs":[1057]},{"type":"LineString","properties":{"source":"naturalearthdata.com","kind":"major_road","kind_detail":"secondary","sort_rank":379,"landuse_kind":"urban_area","min_zoom":3.0,"id":13020},"arcs":[1058]},{"type":"LineString","properties":{"source":"naturalearthdata.com","kind":"major_road","sort_rank":379,"kind_detail":"secondary","min_zoom":3.0,"id":13020},"arcs":[1059]},{"type":"LineString","properties":{"source":"naturalearthdata.com","kind":"major_road","kind_detail":"secondary","sort_rank":379,"landuse_kind":"urban_area","min_zoom":3.0,"id":13021},"arcs":[1060]},{"type":"LineString","properties":{"source":"naturalearthdata.com","kind":"major_road","sort_rank":379,"kind_detail":"secondary","min_zoom":3.0,"id":13021},"arcs":[1061]},{"type":"LineString","properties":{"source":"naturalearthdata.com","kind":"highway","sort_rank":383,"kind_detail":"motorway","min_zoom":3.0,"id":13022},"arcs":[1062]},{"type":"LineString","properties":{"source":"naturalearthdata.com","kind":"major_road","kind_detail":"secondary","sort_rank":379,"landuse_kind":"urban_area","min_zoom":4.0,"id":13023},"arcs":[1063]},{"type":"MultiLineString","properties":{"source":"naturalearthdata.com","kind":"major_road","sort_rank":379,"kind_detail":"secondary","min_zoom":4.0,"id":13023},"arcs":[[1064],[1065]]},{"type":"LineString","properties":{"source":"naturalearthdata.com","kind":"major_road","sort_rank":379,"kind_detail":"secondary","min_zoom":3.0,"id":13026},"arcs":[1066]},{"type":"LineString","properties":{"source":"naturalearthdata.com","kind":"major_road","sort_rank":379,"kind_detail":"secondary","min_zoom":3.0,"id":13041},"arcs":[1067]},{"type":"LineString","properties":{"source":"naturalearthdata.com","kind":"major_road","kind_detail":"secondary","sort_rank":379,"landuse_kind":"urban_area","min_zoom":3.0,"id":13042},"arcs":[1068]},{"type":"LineString","properties":{"source":"naturalearthdata.com","kind":"major_road","sort_rank":379,"kind_detail":"secondary","min_zoom":3.0,"id":13042},"arcs":[1069]},{"type":"LineString","properties":{"source":"naturalearthdata.com","kind":"major_road","sort_rank":379,"kind_detail":"secondary","min_zoom":3.0,"id":13052},"arcs":[1070]},{"type":"LineString","properties":{"source":"naturalearthdata.com","kind":"major_road","kind_detail":"secondary","sort_rank":379,"landuse_kind":"urban_area","min_zoom":3.0,"id":13065},"arcs":[1071]},{"type":"LineString","properties":{"source":"naturalearthdata.com","kind":"major_road","sort_rank":379,"kind_detail":"secondary","min_zoom":3.0,"id":13065},"arcs":[1072]},{"type":"LineString","properties":{"source":"naturalearthdata.com","kind":"major_road","sort_rank":379,"kind_detail":"secondary","min_zoom":3.0,"id":13066},"arcs":[1073]},{"type":"LineString","properties":{"source":"naturalearthdata.com","kind":"major_road","kind_detail":"secondary","sort_rank":379,"landuse_kind":"urban_area","min_zoom":3.0,"id":13067},"arcs":[1074]},{"type":"LineString","properties":{"source":"naturalearthdata.com","kind":"major_road","kind_detail":"secondary","sort_rank":379,"landuse_kind":"urban_area","min_zoom":3.0,"id":13067},"arcs":[1075]},{"type":"LineString","properties":{"source":"naturalearthdata.com","kind":"major_road","sort_rank":379,"kind_detail":"secondary","min_zoom":3.0,"id":13067},"arcs":[1076]},{"type":"LineString","properties":{"source":"naturalearthdata.com","kind":"major_road","kind_detail":"secondary","sort_rank":379,"landuse_kind":"urban_area","min_zoom":3.0,"id":13068},"arcs":[1077]},{"type":"LineString","properties":{"source":"naturalearthdata.com","kind":"major_road","sort_rank":379,"kind_detail":"secondary","min_zoom":3.0,"id":13068},"arcs":[1078]},{"type":"LineString","properties":{"source":"naturalearthdata.com","kind":"major_road","sort_rank":379,"kind_detail":"secondary","min_zoom":3.0,"id":13070},"arcs":[1079]},{"type":"LineString","properties":{"source":"naturalearthdata.com","kind":"highway","sort_rank":383,"kind_detail":"motorway","min_zoom":3.0,"id":13071},"arcs":[1080]},{"type":"LineString","properties":{"source":"naturalearthdata.com","kind":"highway","sort_rank":383,"kind_detail":"motorway","min_zoom":3.0,"id":13082},"arcs":[1081]},{"type":"LineString","properties":{"source":"naturalearthdata.com","kind":"major_road","sort_rank":379,"kind_detail":"secondary","min_zoom":3.0,"id":13083},"arcs":[1082]},{"type":"LineString","properties":{"source":"naturalearthdata.com","kind":"minor_road","sort_rank":355,"kind_detail":"tertiary","min_zoom":6.0,"id":13091},"arcs":[1083]},{"type":"LineString","properties":{"source":"naturalearthdata.com","kind":"major_road","sort_rank":379,"kind_detail":"secondary","min_zoom":3.0,"id":13120},"arcs":[1084]},{"type":"LineString","properties":{"source":"naturalearthdata.com","kind":"minor_road","kind_detail":"tertiary","sort_rank":355,"landuse_kind":"urban_area","min_zoom":6.0,"id":13130},"arcs":[1085]},{"type":"LineString","properties":{"source":"naturalearthdata.com","kind":"minor_road","kind_detail":"tertiary","sort_rank":355,"landuse_kind":"urban_area","min_zoom":6.0,"id":13130},"arcs":[1086]},{"type":"MultiLineString","properties":{"source":"naturalearthdata.com","kind":"minor_road","sort_rank":355,"kind_detail":"tertiary","min_zoom":6.0,"id":13130},"arcs":[[1087],[1088]]},{"type":"LineString","properties":{"source":"naturalearthdata.com","kind":"major_road","sort_rank":379,"kind_detail":"secondary","min_zoom":3.0,"id":13133},"arcs":[1089]},{"type":"LineString","properties":{"source":"naturalearthdata.com","kind":"major_road","kind_detail":"secondary","sort_rank":379,"landuse_kind":"park","min_zoom":3.0,"id":13134},"arcs":[1090]},{"type":"LineString","properties":{"source":"naturalearthdata.com","kind":"major_road","kind_detail":"secondary","sort_rank":379,"landuse_kind":"urban_area","min_zoom":3.0,"id":13134},"arcs":[1091]},{"type":"MultiLineString","properties":{"source":"naturalearthdata.com","kind":"major_road","sort_rank":379,"kind_detail":"secondary","min_zoom":3.0,"id":13134},"arcs":[[1092],[1093],[1094]]},{"type":"LineString","properties":{"source":"naturalearthdata.com","kind":"major_road","kind_detail":"secondary","sort_rank":379,"landuse_kind":"urban_area","min_zoom":3.0,"id":13138},"arcs":[1095]},{"type":"LineString","properties":{"source":"naturalearthdata.com","kind":"major_road","kind_detail":"secondary","sort_rank":379,"landuse_kind":"urban_area","min_zoom":3.0,"id":13138},"arcs":[1096]},{"type":"MultiLineString","properties":{"source":"naturalearthdata.com","kind":"major_road","sort_rank":379,"kind_detail":"secondary","min_zoom":3.0,"id":13138},"arcs":[[1097],[1098]]},{"type":"LineString","properties":{"source":"naturalearthdata.com","kind":"highway","sort_rank":383,"kind_detail":"motorway","min_zoom":3.0,"id":13141},"arcs":[1099]},{"type":"LineString","properties":{"source":"naturalearthdata.com","kind":"major_road","kind_detail":"secondary","sort_rank":379,"landuse_kind":"urban_area","min_zoom":3.0,"id":13157},"arcs":[1100]},{"type":"LineString","properties":{"source":"naturalearthdata.com","kind":"major_road","sort_rank":379,"kind_detail":"secondary","min_zoom":3.0,"id":13157},"arcs":[1101]},{"type":"LineString","properties":{"source":"naturalearthdata.com","kind":"highway","sort_rank":383,"kind_detail":"motorway","min_zoom":3.0,"id":13159},"arcs":[1102]},{"type":"LineString","properties":{"source":"naturalearthdata.com","kind":"major_road","kind_detail":"secondary","sort_rank":379,"landuse_kind":"nature_reserve","min_zoom":4.0,"id":13177},"arcs":[1103]},{"type":"LineString","properties":{"source":"naturalearthdata.com","kind":"major_road","sort_rank":379,"kind_detail":"secondary","min_zoom":4.0,"id":13177},"arcs":[1104]},{"type":"LineString","properties":{"source":"naturalearthdata.com","kind":"highway","kind_detail":"motorway","sort_rank":383,"landuse_kind":"urban_area","min_zoom":3.0,"id":13209},"arcs":[1105]},{"type":"LineString","properties":{"source":"naturalearthdata.com","kind":"highway","sort_rank":383,"kind_detail":"motorway","min_zoom":3.0,"id":13209},"arcs":[1106]},{"type":"LineString","properties":{"source":"naturalearthdata.com","kind":"highway","sort_rank":383,"kind_detail":"motorway","min_zoom":3.0,"id":13210},"arcs":[1107]},{"type":"LineString","properties":{"source":"naturalearthdata.com","kind":"highway","kind_detail":"motorway","sort_rank":383,"landuse_kind":"urban_area","min_zoom":3.0,"id":13213},"arcs":[1108]},{"type":"LineString","properties":{"source":"naturalearthdata.com","kind":"highway","sort_rank":383,"kind_detail":"motorway","min_zoom":3.0,"id":13213},"arcs":[1109]},{"type":"LineString","properties":{"source":"naturalearthdata.com","kind":"minor_road","kind_detail":"tertiary","sort_rank":355,"landuse_kind":"nature_reserve","min_zoom":6.0,"id":13245},"arcs":[1110]},{"type":"MultiLineString","properties":{"source":"naturalearthdata.com","kind":"minor_road","sort_rank":355,"kind_detail":"tertiary","min_zoom":6.0,"id":13245},"arcs":[[1111],[1112]]},{"type":"LineString","properties":{"source":"naturalearthdata.com","kind":"major_road","sort_rank":379,"kind_detail":"secondary","min_zoom":4.0,"id":13250},"arcs":[1113]},{"type":"LineString","properties":{"source":"naturalearthdata.com","kind":"major_road","kind_detail":"secondary","sort_rank":379,"landuse_kind":"nature_reserve","min_zoom":4.0,"id":13251},"arcs":[1114]},{"type":"LineString","properties":{"source":"naturalearthdata.com","kind":"major_road","kind_detail":"secondary","sort_rank":379,"landuse_kind":"nature_reserve","min_zoom":4.0,"id":13251},"arcs":[1115]},{"type":"MultiLineString","properties":{"source":"naturalearthdata.com","kind":"major_road","sort_rank":379,"kind_detail":"secondary","min_zoom":4.0,"id":13251},"arcs":[[1116],[1117]]},{"type":"LineString","properties":{"source":"naturalearthdata.com","kind":"major_road","sort_rank":379,"kind_detail":"secondary","min_zoom":3.0,"id":13273},"arcs":[1118]},{"type":"LineString","properties":{"source":"naturalearthdata.com","kind":"major_road","kind_detail":"secondary","sort_rank":379,"landuse_kind":"nature_reserve","min_zoom":4.0,"id":13278},"arcs":[1119]},{"type":"MultiLineString","properties":{"source":"naturalearthdata.com","kind":"major_road","sort_rank":379,"kind_detail":"secondary","min_zoom":4.0,"id":13278},"arcs":[[1120],[1121]]},{"type":"LineString","properties":{"source":"naturalearthdata.com","kind":"major_road","sort_rank":379,"kind_detail":"secondary","min_zoom":3.0,"id":13298},"arcs":[1122]},{"type":"LineString","properties":{"source":"naturalearthdata.com","kind":"major_road","sort_rank":379,"kind_detail":"secondary","min_zoom":3.0,"id":13312},"arcs":[1123]},{"type":"LineString","properties":{"source":"naturalearthdata.com","kind":"highway","sort_rank":383,"kind_detail":"motorway","min_zoom":3.0,"id":13327},"arcs":[1124]},{"type":"LineString","properties":{"source":"naturalearthdata.com","kind":"major_road","kind_detail":"secondary","sort_rank":379,"landuse_kind":"nature_reserve","min_zoom":3.0,"id":13328},"arcs":[1125]},{"type":"MultiLineString","properties":{"source":"naturalearthdata.com","kind":"major_road","sort_rank":379,"kind_detail":"secondary","min_zoom":3.0,"id":13328},"arcs":[[1126],[1127]]},{"type":"LineString","properties":{"source":"naturalearthdata.com","kind":"minor_road","kind_detail":"tertiary","sort_rank":355,"landuse_kind":"urban_area","min_zoom":6.0,"id":13333},"arcs":[1128]},{"type":"LineString","properties":{"source":"naturalearthdata.com","kind":"minor_road","sort_rank":355,"kind_detail":"tertiary","min_zoom":6.0,"id":13333},"arcs":[1129]},{"type":"LineString","properties":{"source":"naturalearthdata.com","kind":"major_road","kind_detail":"secondary","sort_rank":379,"landuse_kind":"urban_area","min_zoom":4.0,"id":13334},"arcs":[1130]},{"type":"LineString","properties":{"source":"naturalearthdata.com","kind":"major_road","sort_rank":379,"kind_detail":"secondary","min_zoom":4.0,"id":13334},"arcs":[1131]},{"type":"LineString","properties":{"source":"naturalearthdata.com","kind":"major_road","sort_rank":379,"kind_detail":"secondary","min_zoom":4.0,"id":13337},"arcs":[1132]},{"type":"LineString","properties":{"source":"naturalearthdata.com","kind":"major_road","sort_rank":379,"kind_detail":"secondary","min_zoom":3.0,"id":13339},"arcs":[1133]},{"type":"LineString","properties":{"source":"naturalearthdata.com","kind":"major_road","sort_rank":379,"kind_detail":"secondary","min_zoom":3.0,"id":13340},"arcs":[1134]},{"type":"LineString","properties":{"source":"naturalearthdata.com","kind":"minor_road","kind_detail":"tertiary","sort_rank":355,"landuse_kind":"urban_area","min_zoom":6.0,"id":13359},"arcs":[1135]},{"type":"LineString","properties":{"source":"naturalearthdata.com","kind":"minor_road","sort_rank":355,"kind_detail":"tertiary","min_zoom":6.0,"id":13359},"arcs":[1136]},{"type":"LineString","properties":{"source":"naturalearthdata.com","kind":"major_road","sort_rank":379,"kind_detail":"secondary","min_zoom":3.0,"id":13362},"arcs":[1137]},{"type":"LineString","properties":{"source":"naturalearthdata.com","kind":"minor_road","sort_rank":355,"kind_detail":"tertiary","min_zoom":5.0,"id":13368},"arcs":[1138]},{"type":"LineString","properties":{"source":"naturalearthdata.com","kind":"minor_road","sort_rank":355,"kind_detail":"tertiary","min_zoom":6.0,"id":13375},"arcs":[1139]},{"type":"LineString","properties":{"source":"naturalearthdata.com","kind":"major_road","sort_rank":379,"kind_detail":"secondary","min_zoom":3.0,"id":13385},"arcs":[1140]},{"type":"LineString","properties":{"source":"naturalearthdata.com","kind":"major_road","sort_rank":379,"kind_detail":"secondary","min_zoom":3.0,"id":13390},"arcs":[1141]},{"type":"LineString","properties":{"source":"naturalearthdata.com","kind":"minor_road","sort_rank":355,"kind_detail":"tertiary","min_zoom":6.0,"id":13403},"arcs":[1142]},{"type":"LineString","properties":{"source":"naturalearthdata.com","kind":"major_road","sort_rank":379,"kind_detail":"secondary","min_zoom":3.0,"id":13412},"arcs":[1143]},{"type":"LineString","properties":{"source":"naturalearthdata.com","kind":"minor_road","sort_rank":355,"kind_detail":"tertiary","min_zoom":5.0,"id":13416},"arcs":[1144]},{"type":"LineString","properties":{"source":"naturalearthdata.com","kind":"major_road","sort_rank":379,"kind_detail":"secondary","min_zoom":4.0,"id":13433},"arcs":[1145]},{"type":"LineString","properties":{"source":"naturalearthdata.com","kind":"minor_road","sort_rank":355,"kind_detail":"tertiary","min_zoom":6.0,"id":13441},"arcs":[1146]},{"type":"LineString","properties":{"source":"naturalearthdata.com","kind":"major_road","sort_rank":379,"kind_detail":"secondary","min_zoom":3.0,"id":13451},"arcs":[1147]},{"type":"LineString","properties":{"source":"naturalearthdata.com","kind":"minor_road","sort_rank":355,"kind_detail":"tertiary","min_zoom":6.0,"id":13454},"arcs":[1148]},{"type":"LineString","properties":{"source":"naturalearthdata.com","kind":"minor_road","sort_rank":355,"kind_detail":"tertiary","min_zoom":6.0,"id":13455},"arcs":[1149]},{"type":"LineString","properties":{"source":"naturalearthdata.com","kind":"minor_road","sort_rank":355,"kind_detail":"tertiary","min_zoom":6.0,"id":13456},"arcs":[1150]},{"type":"LineString","properties":{"source":"naturalearthdata.com","kind":"major_road","sort_rank":379,"kind_detail":"secondary","min_zoom":4.0,"id":13458},"arcs":[1151]},{"type":"LineString","properties":{"source":"naturalearthdata.com","kind":"major_road","sort_rank":379,"kind_detail":"secondary","min_zoom":3.0,"id":13459},"arcs":[1152]},{"type":"MultiLineString","properties":{"source":"naturalearthdata.com","kind":"minor_road","kind_detail":"tertiary","sort_rank":355,"landuse_kind":"urban_area","min_zoom":5.0,"id":13476},"arcs":[[1153],[1154]]},{"type":"MultiLineString","properties":{"source":"naturalearthdata.com","kind":"minor_road","sort_rank":355,"kind_detail":"tertiary","min_zoom":5.0,"id":13476},"arcs":[[1155],[1156]]},{"type":"LineString","properties":{"source":"naturalearthdata.com","kind":"major_road","sort_rank":379,"kind_detail":"secondary","min_zoom":3.0,"id":13483},"arcs":[1157]},{"type":"LineString","properties":{"source":"naturalearthdata.com","kind":"major_road","sort_rank":379,"kind_detail":"secondary","min_zoom":4.0,"id":13498},"arcs":[1158]},{"type":"LineString","properties":{"source":"naturalearthdata.com","kind":"minor_road","kind_detail":"tertiary","sort_rank":355,"landuse_kind":"urban_area","min_zoom":5.0,"id":13499},"arcs":[1159]},{"type":"LineString","properties":{"source":"naturalearthdata.com","kind":"major_road","sort_rank":379,"kind_detail":"secondary","min_zoom":3.0,"id":13500},"arcs":[1160]},{"type":"LineString","properties":{"source":"naturalearthdata.com","kind":"major_road","kind_detail":"secondary","sort_rank":379,"landuse_kind":"urban_area","min_zoom":4.0,"id":13504},"arcs":[1161]},{"type":"LineString","properties":{"source":"naturalearthdata.com","kind":"major_road","sort_rank":379,"kind_detail":"secondary","min_zoom":4.0,"id":13504},"arcs":[1162]},{"type":"LineString","properties":{"source":"naturalearthdata.com","kind":"major_road","sort_rank":379,"kind_detail":"secondary","min_zoom":4.0,"id":13515},"arcs":[1163]},{"type":"LineString","properties":{"source":"naturalearthdata.com","kind":"major_road","sort_rank":379,"kind_detail":"secondary","min_zoom":3.0,"id":13523},"arcs":[1164]},{"type":"LineString","properties":{"source":"naturalearthdata.com","kind":"minor_road","kind_detail":"tertiary","sort_rank":355,"landuse_kind":"nature_reserve","min_zoom":6.0,"id":13535},"arcs":[1165]},{"type":"MultiLineString","properties":{"source":"naturalearthdata.com","kind":"minor_road","sort_rank":355,"kind_detail":"tertiary","min_zoom":6.0,"id":13535},"arcs":[[1166],[1167]]},{"type":"LineString","properties":{"source":"naturalearthdata.com","kind":"major_road","sort_rank":379,"kind_detail":"secondary","min_zoom":3.0,"id":13562},"arcs":[1168]},{"type":"LineString","properties":{"source":"naturalearthdata.com","kind":"major_road","kind_detail":"secondary","sort_rank":379,"landuse_kind":"urban_area","min_zoom":4.0,"id":13564},"arcs":[1169]},{"type":"LineString","properties":{"source":"naturalearthdata.com","kind":"major_road","sort_rank":379,"kind_detail":"secondary","min_zoom":4.0,"id":13564},"arcs":[1170]},{"type":"LineString","properties":{"source":"naturalearthdata.com","kind":"major_road","sort_rank":379,"kind_detail":"secondary","min_zoom":4.0,"id":13594},"arcs":[1171]},{"type":"LineString","properties":{"source":"naturalearthdata.com","kind":"minor_road","kind_detail":"tertiary","sort_rank":355,"landuse_kind":"urban_area","min_zoom":5.0,"id":13595},"arcs":[1172]},{"type":"LineString","properties":{"source":"naturalearthdata.com","kind":"minor_road","kind_detail":"tertiary","sort_rank":355,"landuse_kind":"urban_area","min_zoom":5.0,"id":13595},"arcs":[1173]},{"type":"MultiLineString","properties":{"source":"naturalearthdata.com","kind":"minor_road","sort_rank":355,"kind_detail":"tertiary","min_zoom":5.0,"id":13595},"arcs":[[1174],[1175]]},{"type":"LineString","properties":{"source":"naturalearthdata.com","kind":"major_road","kind_detail":"secondary","sort_rank":379,"landuse_kind":"urban_area","min_zoom":4.0,"id":13597},"arcs":[1176]},{"type":"LineString","properties":{"source":"naturalearthdata.com","kind":"major_road","kind_detail":"secondary","sort_rank":379,"landuse_kind":"urban_area","min_zoom":4.0,"id":13597},"arcs":[1177]},{"type":"MultiLineString","properties":{"source":"naturalearthdata.com","kind":"major_road","sort_rank":379,"kind_detail":"secondary","min_zoom":4.0,"id":13597},"arcs":[[1178],[1179],[1180]]},{"type":"LineString","properties":{"source":"naturalearthdata.com","kind":"major_road","sort_rank":379,"kind_detail":"secondary","min_zoom":3.0,"id":13629},"arcs":[1181]},{"type":"LineString","properties":{"source":"naturalearthdata.com","kind":"minor_road","sort_rank":355,"kind_detail":"tertiary","min_zoom":5.0,"id":13648},"arcs":[1182]},{"type":"LineString","properties":{"source":"naturalearthdata.com","kind":"minor_road","sort_rank":355,"kind_detail":"tertiary","min_zoom":6.0,"id":13670},"arcs":[1183]},{"type":"LineString","properties":{"source":"naturalearthdata.com","kind":"major_road","kind_detail":"secondary","sort_rank":379,"landuse_kind":"urban_area","min_zoom":3.0,"id":13685},"arcs":[1184]},{"type":"LineString","properties":{"source":"naturalearthdata.com","kind":"major_road","sort_rank":379,"kind_detail":"secondary","min_zoom":3.0,"id":13685},"arcs":[1185]},{"type":"LineString","properties":{"source":"naturalearthdata.com","kind":"major_road","sort_rank":379,"kind_detail":"secondary","min_zoom":3.0,"id":13703},"arcs":[1186]},{"type":"LineString","properties":{"source":"naturalearthdata.com","kind":"major_road","kind_detail":"secondary","sort_rank":379,"landuse_kind":"urban_area","min_zoom":3.0,"id":13707},"arcs":[1187]},{"type":"LineString","properties":{"source":"naturalearthdata.com","kind":"major_road","sort_rank":379,"kind_detail":"secondary","min_zoom":3.0,"id":13707},"arcs":[1188]},{"type":"LineString","properties":{"source":"naturalearthdata.com","kind":"major_road","sort_rank":379,"kind_detail":"secondary","min_zoom":3.0,"id":13737},"arcs":[1189]},{"type":"LineString","properties":{"source":"naturalearthdata.com","kind":"highway","sort_rank":383,"kind_detail":"motorway","min_zoom":3.0,"id":13833},"arcs":[1190]},{"type":"LineString","properties":{"source":"naturalearthdata.com","kind":"minor_road","sort_rank":355,"kind_detail":"tertiary","min_zoom":6.0,"id":13839},"arcs":[1191]},{"type":"LineString","properties":{"source":"naturalearthdata.com","kind":"minor_road","sort_rank":355,"kind_detail":"tertiary","min_zoom":6.0,"id":13854},"arcs":[1192]},{"type":"LineString","properties":{"source":"naturalearthdata.com","kind":"major_road","sort_rank":379,"kind_detail":"secondary","min_zoom":4.0,"id":13894},"arcs":[1193]},{"type":"LineString","properties":{"source":"naturalearthdata.com","kind":"major_road","sort_rank":379,"kind_detail":"secondary","min_zoom":3.0,"id":13900},"arcs":[1194]},{"type":"LineString","properties":{"source":"naturalearthdata.com","kind":"highway","sort_rank":383,"kind_detail":"motorway","min_zoom":3.0,"id":13921},"arcs":[1195]},{"type":"LineString","properties":{"source":"naturalearthdata.com","kind":"major_road","sort_rank":379,"kind_detail":"secondary","min_zoom":3.0,"id":13926},"arcs":[1196]},{"type":"LineString","properties":{"source":"naturalearthdata.com","kind":"major_road","sort_rank":379,"kind_detail":"secondary","min_zoom":4.0,"id":13928},"arcs":[1197]},{"type":"LineString","properties":{"source":"naturalearthdata.com","kind":"major_road","kind_detail":"secondary","sort_rank":379,"landuse_kind":"urban_area","min_zoom":4.0,"id":13941},"arcs":[1198]},{"type":"LineString","properties":{"source":"naturalearthdata.com","kind":"major_road","sort_rank":379,"kind_detail":"secondary","min_zoom":4.0,"id":13941},"arcs":[1199]},{"type":"LineString","properties":{"source":"naturalearthdata.com","kind":"minor_road","kind_detail":"tertiary","sort_rank":355,"landuse_kind":"urban_area","min_zoom":6.0,"id":13943},"arcs":[1200]},{"type":"LineString","properties":{"source":"naturalearthdata.com","kind":"minor_road","sort_rank":355,"kind_detail":"tertiary","min_zoom":6.0,"id":13943},"arcs":[1201]},{"type":"LineString","properties":{"source":"naturalearthdata.com","kind":"major_road","kind_detail":"secondary","sort_rank":379,"landuse_kind":"urban_area","min_zoom":4.0,"id":13950},"arcs":[1202]},{"type":"LineString","properties":{"source":"naturalearthdata.com","kind":"major_road","kind_detail":"secondary","sort_rank":379,"landuse_kind":"urban_area","min_zoom":4.0,"id":13985},"arcs":[1203]},{"type":"LineString","properties":{"source":"naturalearthdata.com","kind":"major_road","sort_rank":379,"kind_detail":"secondary","min_zoom":4.0,"id":13985},"arcs":[1204]},{"type":"LineString","properties":{"source":"naturalearthdata.com","kind":"minor_road","kind_detail":"tertiary","sort_rank":355,"landuse_kind":"urban_area","min_zoom":6.0,"id":13993},"arcs":[1205]},{"type":"LineString","properties":{"source":"naturalearthdata.com","kind":"minor_road","sort_rank":355,"kind_detail":"tertiary","min_zoom":6.0,"id":13993},"arcs":[1206]},{"type":"MultiLineString","properties":{"source":"naturalearthdata.com","kind":"major_road","kind_detail":"secondary","sort_rank":379,"landuse_kind":"urban_area","min_zoom":4.0,"id":13994},"arcs":[[1207],[1208]]},{"type":"MultiLineString","properties":{"source":"naturalearthdata.com","kind":"major_road","sort_rank":379,"kind_detail":"secondary","min_zoom":4.0,"id":13994},"arcs":[[1209],[1210]]},{"type":"LineString","properties":{"source":"naturalearthdata.com","kind":"major_road","sort_rank":379,"kind_detail":"secondary","min_zoom":3.0,"id":14006},"arcs":[1211]},{"type":"LineString","properties":{"source":"naturalearthdata.com","kind":"major_road","sort_rank":379,"kind_detail":"secondary","min_zoom":4.0,"id":14007},"arcs":[1212]},{"type":"LineString","properties":{"source":"naturalearthdata.com","kind":"minor_road","kind_detail":"tertiary","sort_rank":355,"landuse_kind":"urban_area","min_zoom":6.0,"id":14029},"arcs":[1213]},{"type":"LineString","properties":{"source":"naturalearthdata.com","kind":"minor_road","sort_rank":355,"kind_detail":"tertiary","min_zoom":6.0,"id":14029},"arcs":[1214]},{"type":"LineString","properties":{"source":"naturalearthdata.com","kind":"major_road","kind_detail":"secondary","sort_rank":379,"landuse_kind":"urban_area","min_zoom":3.0,"id":14030},"arcs":[1215]},{"type":"LineString","properties":{"source":"naturalearthdata.com","kind":"major_road","sort_rank":379,"kind_detail":"secondary","min_zoom":3.0,"id":14030},"arcs":[1216]},{"type":"LineString","properties":{"source":"naturalearthdata.com","kind":"minor_road","kind_detail":"tertiary","sort_rank":355,"landuse_kind":"urban_area","min_zoom":6.0,"id":14032},"arcs":[1217]},{"type":"LineString","properties":{"source":"naturalearthdata.com","kind":"minor_road","sort_rank":355,"kind_detail":"tertiary","min_zoom":6.0,"id":14032},"arcs":[1218]},{"type":"LineString","properties":{"source":"naturalearthdata.com","kind":"major_road","sort_rank":379,"kind_detail":"secondary","min_zoom":4.0,"id":14055},"arcs":[1219]},{"type":"LineString","properties":{"source":"naturalearthdata.com","kind":"major_road","kind_detail":"secondary","sort_rank":379,"landuse_kind":"urban_area","min_zoom":3.0,"id":14082},"arcs":[1220]},{"type":"LineString","properties":{"source":"naturalearthdata.com","kind":"major_road","sort_rank":379,"kind_detail":"secondary","min_zoom":3.0,"id":14082},"arcs":[1221]},{"type":"LineString","properties":{"source":"naturalearthdata.com","kind":"major_road","sort_rank":379,"kind_detail":"secondary","min_zoom":4.0,"id":14101},"arcs":[1222]},{"type":"LineString","properties":{"source":"naturalearthdata.com","kind":"highway","kind_detail":"motorway","sort_rank":383,"landuse_kind":"urban_area","min_zoom":3.0,"id":14104},"arcs":[1223]},{"type":"MultiLineString","properties":{"source":"naturalearthdata.com","kind":"highway","sort_rank":383,"kind_detail":"motorway","min_zoom":3.0,"id":14104},"arcs":[[1224],[1225]]},{"type":"LineString","properties":{"source":"naturalearthdata.com","kind":"minor_road","kind_detail":"tertiary","sort_rank":355,"landuse_kind":"urban_area","min_zoom":6.0,"id":14121},"arcs":[1226]},{"type":"LineString","properties":{"source":"naturalearthdata.com","kind":"minor_road","sort_rank":355,"kind_detail":"tertiary","min_zoom":6.0,"id":14121},"arcs":[1227]},{"type":"LineString","properties":{"source":"naturalearthdata.com","kind":"major_road","sort_rank":379,"kind_detail":"secondary","min_zoom":4.0,"id":14134},"arcs":[1228]},{"type":"LineString","properties":{"source":"naturalearthdata.com","kind":"highway","kind_detail":"motorway","sort_rank":383,"landuse_kind":"urban_area","min_zoom":3.0,"id":14138},"arcs":[1229]},{"type":"LineString","properties":{"source":"naturalearthdata.com","kind":"highway","sort_rank":383,"kind_detail":"motorway","min_zoom":3.0,"id":14138},"arcs":[1230]},{"type":"LineString","properties":{"source":"naturalearthdata.com","kind":"minor_road","sort_rank":355,"kind_detail":"tertiary","min_zoom":6.0,"id":14139},"arcs":[1231]},{"type":"LineString","properties":{"source":"naturalearthdata.com","kind":"major_road","kind_detail":"secondary","sort_rank":379,"landuse_kind":"urban_area","min_zoom":4.0,"id":14140},"arcs":[1232]},{"type":"LineString","properties":{"source":"naturalearthdata.com","kind":"major_road","kind_detail":"secondary","sort_rank":379,"landuse_kind":"urban_area","min_zoom":4.0,"id":14146},"arcs":[1233]},{"type":"LineString","properties":{"source":"naturalearthdata.com","kind":"major_road","sort_rank":379,"kind_detail":"secondary","min_zoom":4.0,"id":14146},"arcs":[1234]},{"type":"LineString","properties":{"source":"naturalearthdata.com","kind":"major_road","kind_detail":"secondary","sort_rank":379,"landuse_kind":"urban_area","min_zoom":4.0,"id":14148},"arcs":[1235]},{"type":"LineString","properties":{"source":"naturalearthdata.com","kind":"highway","kind_detail":"motorway","sort_rank":383,"landuse_kind":"urban_area","min_zoom":3.0,"id":14157},"arcs":[1236]},{"type":"LineString","properties":{"source":"naturalearthdata.com","kind":"highway","sort_rank":383,"kind_detail":"motorway","min_zoom":3.0,"id":14157},"arcs":[1237]},{"type":"LineString","properties":{"source":"naturalearthdata.com","kind":"minor_road","sort_rank":355,"kind_detail":"tertiary","min_zoom":6.0,"id":14160},"arcs":[1238]},{"type":"LineString","properties":{"source":"naturalearthdata.com","kind":"major_road","sort_rank":379,"kind_detail":"secondary","min_zoom":4.0,"id":14162},"arcs":[1239]},{"type":"LineString","properties":{"source":"naturalearthdata.com","kind":"minor_road","kind_detail":"tertiary","sort_rank":355,"landuse_kind":"urban_area","min_zoom":6.0,"id":14178},"arcs":[1240]},{"type":"LineString","properties":{"source":"naturalearthdata.com","kind":"minor_road","sort_rank":355,"kind_detail":"tertiary","min_zoom":6.0,"id":14178},"arcs":[1241]},{"type":"LineString","properties":{"source":"naturalearthdata.com","kind":"major_road","sort_rank":379,"kind_detail":"secondary","min_zoom":3.0,"id":14179},"arcs":[1242]},{"type":"LineString","properties":{"source":"naturalearthdata.com","kind":"highway","sort_rank":383,"kind_detail":"motorway","min_zoom":3.0,"id":14279},"arcs":[1243]},{"type":"LineString","properties":{"source":"naturalearthdata.com","kind":"major_road","kind_detail":"secondary","sort_rank":379,"landuse_kind":"urban_area","min_zoom":3.0,"id":14297},"arcs":[1244]},{"type":"LineString","properties":{"source":"naturalearthdata.com","kind":"major_road","sort_rank":379,"kind_detail":"secondary","min_zoom":3.0,"id":14297},"arcs":[1245]},{"type":"LineString","properties":{"source":"naturalearthdata.com","kind":"major_road","kind_detail":"secondary","sort_rank":379,"landuse_kind":"urban_area","min_zoom":3.0,"id":14305},"arcs":[1246]},{"type":"LineString","properties":{"source":"naturalearthdata.com","kind":"major_road","kind_detail":"secondary","sort_rank":379,"landuse_kind":"urban_area","min_zoom":3.0,"id":14340},"arcs":[1247]},{"type":"LineString","properties":{"source":"naturalearthdata.com","kind":"major_road","sort_rank":379,"kind_detail":"secondary","min_zoom":3.0,"id":14340},"arcs":[1248]},{"type":"LineString","properties":{"source":"naturalearthdata.com","kind":"highway","sort_rank":383,"kind_detail":"motorway","min_zoom":3.0,"id":14380},"arcs":[1249]},{"type":"LineString","properties":{"source":"naturalearthdata.com","kind":"major_road","sort_rank":379,"kind_detail":"secondary","min_zoom":3.0,"id":14415},"arcs":[1250]},{"type":"LineString","properties":{"source":"naturalearthdata.com","kind":"major_road","sort_rank":379,"kind_detail":"secondary","min_zoom":3.0,"id":14417},"arcs":[1251]},{"type":"LineString","properties":{"source":"naturalearthdata.com","kind":"major_road","sort_rank":379,"kind_detail":"secondary","min_zoom":3.0,"id":14429},"arcs":[1252]},{"type":"LineString","properties":{"source":"naturalearthdata.com","kind":"major_road","sort_rank":379,"kind_detail":"secondary","min_zoom":4.0,"id":14501},"arcs":[1253]},{"type":"LineString","properties":{"source":"naturalearthdata.com","kind":"highway","sort_rank":383,"kind_detail":"motorway","min_zoom":3.0,"id":48648},"arcs":[1254]},{"type":"LineString","properties":{"source":"naturalearthdata.com","kind":"highway","sort_rank":383,"kind_detail":"motorway","min_zoom":3.0,"id":48651},"arcs":[1255]}]},"earth":{"type":"GeometryCollection","geometries":[{"type":"Polygon","properties":{"sort_rank":10,"source":"naturalearthdata.com","min_zoom":0.0,"kind":"earth","area":1568366174169},"arcs":[[1256]]}]},"landuse":{"type":"GeometryCollection","geometries":[{"type":"MultiPolygon","properties":{"source":"openstreetmap.org","kind":"nature_reserve","tier":2,"area":2545762594,"sort_rank":23,"min_zoom":6.0,"osm_relation":true},"arcs":[[[1257],[1258]]]},{"type":"Polygon","properties":{"kind":"nature_reserve","protect_class":"1","area":2350769920,"sort_rank":23,"source":"openstreetmap.org","min_zoom":4.0,"tier":2,"id":-5224115,"osm_relation":true},"arcs":[[1259]]},{"type":"MultiPolygon","properties":{"source":"openstreetmap.org","kind":"nature_reserve","tier":2,"area":3121376174,"sort_rank":23,"min_zoom":4.0,"osm_relation":true},"arcs":[[[1260]]]},{"type":"Polygon","properties":{"kind":"protected_area","protect_class":"1","area":350479008,"sort_rank":17,"source":"openstreetmap.org","min_zoom":6.0,"tier":2,"id":-3538570,"osm_relation":true},"arcs":[[1261]]},{"type":"MultiPolygon","properties":{"source":"openstreetmap.org","kind":"park","tier":2,"area":2380205273,"sort_rank":24,"min_zoom":6.0,"osm_relation":true},"arcs":[[[1262]],[[1263]]]},{"type":"MultiPolygon","properties":{"kind":"nature_reserve","protect_class":"7","area":1277337283,"sort_rank":23,"source":"openstreetmap.org","min_zoom":6.0,"tier":2,"osm_relation":true},"arcs":[[[1264]],[[1265]]]},{"type":"Polygon","properties":{"source":"openstreetmap.org","kind":"park","area":331015008,"tier":2,"id":388422090,"min_zoom":6.0,"sort_rank":24},"arcs":[[1266]]},{"type":"MultiPolygon","properties":{"source":"openstreetmap.org","kind":"nature_reserve","tier":2,"area":6817764954,"sort_rank":23,"min_zoom":4.0},"arcs":[[[1267]]]},{"type":"MultiPolygon","properties":{"source":"naturalearthdata.com","kind":"urban_area","name":"","area":28475399189,"sort_rank":11,"min_zoom":4.0},"arcs":[[[1268]],[[1269]],[[1270]],[[1271]],[[1272]],[[1273]],[[1274]],[[1275]],[[1276]],[[1277]],[[1278]],[[1279]],[[1280]],[[1281]],[[1282]],[[1283]],[[1284]],[[1285]],[[1286]],[[1287]],[[1288]],[[1289]],[[1290]],[[1291]],[[1292]],[[1293]],[[1294]],[[1295]],[[1296]],[[1297]],[[1298]],[[1299]],[[1300]],[[1301]],[[1302]],[[1303]],[[1304]],[[1305]],[[1306]],[[1307]],[[1308]],[[1309]],[[1310]],[[1311]],[[1312]],[[1313]],[[1314]],[[1315]],[[1316]],[[1317],[1318]],[[1319]],[[1320]],[[1321]],[[1322]],[[1323]],[[1324]],[[1325]]]},{"type":"Polygon","properties":{"kind":"protected_area","protect_class":"14","area":159183008,"sort_rank":17,"operator":"\u041a\u0420\u041e\u041e\u0438\u0420","source":"openstreetmap.org","min_zoom":6.0,"tier":2,"id":-4243710,"osm_relation":true},"arcs":[[1326]]},{"type":"Polygon","properties":{"kind":"nature_reserve","protect_class":"5","area":1918739968,"sort_rank":23,"source":"openstreetmap.org","min_zoom":4.0,"tier":2,"id":-5224088,"osm_relation":true},"arcs":[[1327]]},{"type":"Polygon","properties":{"kind":"park","area":1428359936,"sort_rank":24,"source":"openstreetmap.org","min_zoom":4.0,"tier":2,"id":-2169138,"osm_relation":true},"arcs":[[1328],[1329]]}]}},"type":"Topology","transform":{"translate":[33.75,52.4827802221],"scale":[0.001373291,0.0008041486]},"arcs":[[[2074,3470],[-5,2],[-3,3],[-1,4],[-1,5],[0,4],[0,5],[0,4],[1,11],[0,6],[-1,8],[-4,3],[-5,2],[-11,1]],[[2044,3528],[-9,-1],[-8,-2],[-4,-2],[-3,-2],[-9,-9],[-3,-2],[-4,0]],[[2004,3510],[-39,15],[-11,2]],[[1954,3527],[-8,0],[-27,-19],[-24,-8],[-3,-2],[-1,-3],[0,-4],[4,-12],[1,-4],[1,-4],[1,-4],[1,-4],[1,-3],[1,-3],[-1,-3],[-2,-3],[-8,-9],[-4,-8],[-3,-2],[-4,-2],[-3,-3],[-2,-4],[-2,-9],[-2,-4],[-4,-2],[-12,-3],[-8,-3],[-7,-4],[-6,-6],[-3,-3],[-3,-3],[-2,-5],[-3,-4],[-10,-6],[-72,-11]],[[1560,3423],[-26,4],[-10,5],[-64,55],[-9,5],[-26,4]],[[1425,3496],[-7,-1],[-4,-2],[-5,-7],[-4,-3],[-4,-1]],[[1401,3482],[-69,10]],[[1332,3492],[-9,-1],[0,-3],[1,-4],[7,-19],[-4,-7],[-27,-6],[-6,-7],[-4,-14],[-2,-5],[-4,-3],[-22,-15],[-7,-3],[-6,-1]],[[2210,3367],[-3,2],[-3,3],[-1,4],[1,3],[4,8],[2,17],[-2,7],[-2,7],[-3,6],[-17,24],[-10,7],[-5,3],[-5,2],[-25,3],[-29,15],[-9,1]],[[2103,3479],[-4,0],[-4,-2],[-8,-5],[-4,-2],[-9,0]],[[1249,3404],[-44,21],[-26,2]],[[1637,3399],[-44,23],[-16,3]],[[1577,3425],[-17,-2]],[[2297,3415],[-6,-1],[-7,-4],[-3,-3],[-3,-5],[0,-4],[-1,-6],[-2,-6],[-4,-8],[-8,-3],[-53,-8]],[[1740,3360],[-9,1],[-14,20],[-5,3],[-7,2],[-14,3],[-7,3],[-5,3],[-6,8],[-6,5],[-5,1]],[[1662,3409],[-4,0],[-21,-10]],[[2555,2926],[-43,30],[-9,10],[1,3],[2,6],[4,8],[2,6],[0,6],[-1,10],[-2,6],[-2,4],[-25,25],[-4,7],[-2,7],[0,4],[-1,8],[-3,8],[-18,45]],[[2454,3119],[-24,58],[-2,8],[-1,8],[-1,19],[2,37],[-2,5],[-4,5],[-10,1],[-6,2],[-7,6],[-3,5],[-5,21],[-29,37],[-15,12],[-9,4],[-3,4],[-2,4],[-6,19],[-2,6],[-13,27],[-11,8],[-4,0]],[[3075,2843],[-5,1],[-3,3],[-3,6],[1,10],[1,7],[-1,10],[-1,6],[-10,24],[-4,12],[-69,7]],[[2981,2929],[-10,-2],[-17,-12],[-8,-3]],[[2646,2909],[-91,17]],[[2855,2774],[-78,29],[-3,2],[-1,5],[-1,5],[0,5],[-1,4],[-2,3],[-3,3],[-33,22],[-4,4],[-9,12],[-5,7],[-3,7],[-4,12],[-2,8],[-4,7],[-2,4],[-3,3],[-4,3],[-5,1],[-7,0]],[[2681,2920],[-35,-11]],[[2946,2912],[-20,1]],[[2926,2913],[-9,-3],[-4,-3],[0,-14],[1,-4],[3,-4],[6,-11],[2,-3],[1,-4],[1,-4],[0,-5],[0,-5],[-8,-51],[-13,-11],[-51,-17]],[[3199,2734],[-5,1],[-4,6],[-10,15],[-9,6],[-28,0],[-12,7],[-8,5],[-2,4],[-2,5],[-1,9],[1,7],[2,11],[0,5],[0,4],[-3,5],[-5,6],[-10,9],[-6,4],[-5,1]],[[3092,2844],[-17,-1]],[[3343,2694],[-89,13],[-7,5],[-5,7],[-2,6],[-5,12],[-2,4],[-3,3],[-5,1]],[[3225,2745],[-13,-4],[-3,-2],[-6,-5],[-4,0]],[[3586,2191],[-27,11],[-31,23],[-54,21],[-4,29],[-1,64],[-4,23],[-3,8],[-4,6],[-4,2],[-14,6],[-5,2],[-3,3],[-3,3],[-27,44],[-19,27],[-4,6],[-1,5],[-1,6],[-1,15],[-1,9],[-1,4],[-6,11],[0,4],[1,4],[6,4],[5,2],[25,6],[8,4],[3,2],[11,19],[12,27],[7,11],[6,6],[13,2],[3,2],[3,3],[0,9],[-1,6],[-15,31],[-10,13],[-3,4],[-4,3],[-7,2],[-50,5],[-5,2],[-13,12],[-3,1]],[[3360,2703],[-5,-2],[-7,-5],[-3,-1],[-2,-1]],[[2979,654],[-14,-51],[-2,-8],[-1,-10],[1,-7],[0,-10],[-2,-6],[-12,-13],[-4,-15],[32,-27],[2,-5],[2,-5],[-3,-2],[-4,-1],[-4,-2],[-3,-3],[-5,-8],[-2,-4],[-5,-7],[-11,-8],[-2,-5],[0,-6],[2,-5],[2,-3],[5,-7],[6,-5],[19,-10],[7,-6],[11,-12],[5,-8],[4,-6],[1,-5],[0,-6],[-1,-7],[-1,-6],[-1,-6],[-2,-4],[-5,-9],[-4,-6],[-4,-4],[-12,-8],[-29,-13],[-4,-3],[-4,-5],[-4,-8],[-1,-6],[1,-4],[3,-3],[3,-8],[3,-10],[2,-26],[3,-10],[3,-8],[3,-4],[3,-5],[2,-9],[0,-6],[-3,-4],[-3,-2],[-3,-2],[-4,-1],[-4,0]],[[2941,191],[-19,4]],[[2922,195],[-4,0],[-5,-2],[-3,-4],[-5,-8],[-1,-10],[-3,-6],[-3,-2],[-13,-1],[11,-20],[27,-28],[5,-1]],[[2939,121],[4,-1],[3,-5],[11,-21],[2,-7],[-1,-6],[-3,-3],[-9,0],[-3,-2],[-2,-3],[-1,-4],[0,-4],[0,-5],[-1,-4],[-5,-7],[-2,-5],[1,-9],[4,-3],[4,-2],[4,0],[9,-2],[5,-1]],[[2928,113],[3,4],[3,3],[5,1]],[[2962,28],[6,-1],[8,-4],[17,-15],[8,-5],[6,-2]],[[2959,27],[3,1]],[[3011,3],[5,-1],[4,-2]],[[3007,1],[4,2]],[[1645,1412],[-56,30],[-16,2]],[[1573,1444],[-1,-4],[-1,-5],[0,-5],[-2,-5],[-1,-5],[-2,-5],[-4,-8],[-5,-7],[-6,-6],[-32,-26],[-4,-6],[-4,-15],[-3,-4],[-14,-15],[-2,-3],[-2,-4],[-1,-4],[-1,-7],[-3,-7],[-7,-10],[-5,-3],[-5,-1]],[[1428,1293],[-4,0],[-4,2],[-3,3],[-3,3],[-9,18],[-4,3],[-4,2],[-10,1]],[[1387,1325],[-6,-1],[-4,-2],[-3,-3],[-16,-29],[-9,-10],[-42,-27],[-12,-12],[-1,-5],[-3,-16],[-2,-16],[-2,-6],[-3,-3],[-4,-1]],[[1468,1289],[-11,6],[-4,2],[-4,0]],[[1449,1297],[-21,-4]],[[1280,1194],[-27,3]],[[1253,1197],[-13,-2],[-3,-4],[-1,-4],[1,-4],[1,-4],[1,-4],[1,-6],[-2,-8],[-2,-4],[-5,-4],[-13,-7],[-4,-4],[-2,-5],[1,-4],[2,-4],[0,-4],[0,-5],[-1,-10],[-6,-24],[-4,-7],[-4,-5],[-8,-6],[-2,-5],[-2,-7],[-2,-6],[-7,-16],[-2,-5],[-1,-6],[-1,-14],[-6,-12],[-9,-2]],[[1160,995],[-7,2],[-4,2],[-3,4],[-2,3],[-6,15],[-8,12],[-11,10],[-5,1]],[[1114,1044],[-3,-2],[-1,-5],[-1,-6],[-1,-5],[-3,-4]],[[1105,1022],[-5,0],[-14,9]],[[1086,1031],[-4,0],[-2,-2],[-1,-10],[1,-9],[2,-8],[-2,-6],[-5,-6],[-15,-8],[-8,-2]],[[1052,980],[-5,0],[-1,3],[-1,7],[0,8],[-1,4],[-3,3],[-55,25]],[[4096,1150],[-23,-7],[-31,-1],[-55,-14]],[[3955,1123],[-3,0],[-3,2],[-6,6],[-2,3],[-16,33],[-11,21],[-3,7],[-2,4],[-2,3],[-3,4],[-8,13],[-9,22],[-13,48],[-1,5],[-3,7],[-8,16],[-4,7],[-5,3],[-106,19]],[[3987,1128],[-20,5]],[[3967,1133],[-5,-2],[-4,-4],[-3,-4]],[[3740,1346],[7,0]],[[3481,686],[47,18],[3,4],[3,5],[-3,2],[-3,4],[-1,3],[0,10],[24,37],[7,15],[0,5],[-1,4],[-2,3],[-3,6],[-30,34],[-7,16],[0,5],[1,9],[1,11],[3,10],[2,6],[4,8],[2,5],[2,6],[1,8],[0,11],[-1,6],[-2,5],[-2,3],[-7,6],[-8,4],[-5,5],[-5,5],[-14,23],[-3,3],[-3,2],[-9,4],[-4,3],[-26,29],[108,40],[30,1],[7,1],[5,3],[42,29],[10,8],[5,7],[1,4],[0,4],[-1,2],[-3,11],[-22,34],[-7,15],[-2,7],[0,6],[1,8],[7,15],[2,8],[0,6],[-2,4],[-2,3],[-12,12],[-5,5],[-2,3],[5,12],[11,20],[6,9],[5,5],[67,11],[15,5],[7,4],[16,12],[6,3]],[[3040,734],[20,-5],[8,-4],[7,-5],[9,-4],[16,-5],[11,0]],[[2979,654],[16,12],[6,9],[5,14],[14,32],[6,8],[5,5],[9,0]],[[3159,720],[8,-1],[6,-2],[53,-48],[11,-6],[11,-4],[11,-1]],[[3111,711],[48,9]],[[3449,696],[32,-10]],[[3338,596],[8,2],[3,1],[4,2],[2,3],[3,4],[1,4],[1,5],[1,14],[1,4],[3,3],[32,15],[13,9],[17,18],[3,4],[9,10],[5,2],[5,0]],[[3288,671],[4,-1],[2,-4],[15,-32],[9,-23],[2,-4],[3,-5],[6,-5],[4,-1],[5,0]],[[3259,658],[3,1],[11,8],[10,4],[5,0]],[[1716,1333],[-6,1],[-7,5],[-6,6],[-9,12],[-9,6],[-9,2],[-13,1],[-5,2],[-3,4],[0,14],[-1,9],[-3,17]],[[2028,1130],[-16,5],[-17,8],[-33,24],[-7,4],[-8,3],[-19,2],[-8,8],[-11,22],[-26,19],[-20,21],[3,30],[-11,7],[-8,14],[-16,30],[-9,8],[-7,2],[-5,5],[-3,15]],[[1807,1357],[-8,-5],[-58,-17],[-25,-2]],[[2306,999],[-80,13],[-19,10],[-5,3],[-43,47],[-4,5],[-4,7],[-19,44],[-1,4],[-1,4],[1,10],[-1,6],[-2,5],[-4,3],[-30,10],[-4,0]],[[2090,1170],[-4,0],[-3,-3],[-3,-3],[-13,-17],[-12,-11],[-4,-2],[-4,-2],[-7,-2],[-12,0]],[[2722,986],[-11,2],[-19,20],[-14,12],[-11,4],[-22,3]],[[2645,1027],[-21,0],[-10,-2],[-9,-5],[-24,-22],[-13,-16],[-17,-11],[-21,-11],[-11,-4],[-9,-1]],[[2510,955],[-20,5],[-17,9],[-25,17],[-17,5],[-58,5],[-13,29],[-7,1]],[[2353,1026],[-5,-8],[-5,-6],[-6,-6],[-12,-5],[-19,-2]],[[2812,783],[-19,29],[-18,41],[-2,7],[-2,16],[-1,13],[4,63],[4,22],[1,7],[1,8],[0,14],[-2,6],[-3,3]],[[2775,1012],[-4,-1],[-46,-24],[-3,-1]],[[2979,654],[-13,32],[-11,40],[-3,9],[-12,19],[-33,28],[-22,25],[-6,4],[-6,2]],[[2873,813],[-6,-5],[-18,-18],[-10,-4],[-27,-3]],[[2555,2926],[-6,-10],[-8,-11],[-8,-13],[-4,-18],[-1,-19],[-4,-18],[-10,-27],[-11,-20],[-3,-10],[7,-4],[14,-5],[2,-13],[-5,-16],[-87,-173],[-12,-16]],[[2308,2616],[-5,0],[-3,2],[-3,3],[-2,3],[-4,8],[-2,3],[-2,3],[-4,3],[-40,13]],[[2243,2654],[-5,0],[-4,-1],[-4,-2],[-3,-2],[-2,-4],[-2,-6],[-1,-9],[3,-30],[0,-4],[-1,-4],[-1,-8],[0,-4],[1,-6],[4,-6],[14,-18],[8,-14],[2,-5],[1,-7],[1,-33],[2,-17],[2,-5],[3,-6],[6,-7],[5,-2]],[[2419,2553],[-6,9],[-5,12],[-2,4],[-9,14],[-2,3],[-7,6],[-7,5],[-18,9],[-31,6]],[[2332,2621],[-24,-5]],[[2296,2461],[4,-2],[3,-2],[10,-13],[21,-44],[7,-10],[1,-5],[-1,-6],[-4,-11],[-3,-6],[-14,-19],[-2,-4],[-1,-4],[1,-7],[3,-4],[4,-8],[2,-4],[1,-4],[1,-5],[0,-7],[-2,-12],[-4,-14],[-10,-18],[-13,-8],[-12,-5],[-6,0]],[[2272,2454],[5,0],[11,5],[4,2],[4,0]],[[2173,2233],[-4,1],[-3,3],[2,7],[3,5],[6,6],[3,4],[-1,6],[-1,4],[-19,12]],[[2159,2281],[-117,-31],[-68,-5],[-4,-2],[-3,-3],[-1,-6],[0,-5],[1,-5],[5,-11],[0,-4],[0,-4],[-4,-6],[-27,-17],[-5,-7],[-3,-5],[2,-4],[1,-4],[1,-5],[-1,-4],[-2,-4],[-4,-2]],[[2282,2239],[-6,0],[-10,4],[-15,7],[-5,2]],[[2246,2252],[-14,-2],[-28,-14],[-31,-3]],[[1845,2161],[-8,2],[-2,3],[-7,10],[-3,3],[-3,1]],[[1822,2180],[-5,-1],[-6,-7],[-2,-6],[0,-5],[2,-9],[0,-4],[0,-9],[0,-10],[-1,-5],[-2,-5],[-2,-4],[-3,-4],[-21,-27],[-5,-2]],[[1930,2147],[-8,2],[-5,3],[-4,3],[-5,6],[-4,2],[-8,1]],[[1896,2164],[-51,-3]],[[1777,2082],[-7,0],[-13,6],[-11,8],[-8,9],[-9,13],[-12,12],[-3,2],[-4,3],[-5,1],[-6,1]],[[1699,2137],[-7,0],[-5,-1],[-26,-12],[-3,-3],[-3,-4],[-1,-6],[1,-4],[7,-8],[10,-6],[24,-21],[6,-8],[4,-2],[8,-1],[4,-2],[3,-3],[1,-4],[0,-5],[-3,-6],[-4,-2],[-5,-1]],[[1710,2038],[-14,1]],[[1696,2039],[-3,-3],[-1,-5],[3,-8],[5,-10],[2,-3],[3,-3],[4,0]],[[1751,2022],[9,0],[5,-1],[5,-2],[15,-10],[2,-3],[4,-7],[1,-3],[2,-3],[0,-4],[1,-5],[1,-5],[0,-5],[-2,-6],[-4,-5],[-7,-5],[-6,-3],[-32,-11],[-4,-2],[-2,-3],[-3,-3],[-10,-16],[-10,-21],[0,-8],[0,-6],[7,-29],[1,-8],[-2,-5],[-3,-5],[-6,-4],[-9,-4],[-22,-4],[-7,-2],[-4,-2],[-13,-10],[-28,-29],[-2,-6],[-3,-9],[-2,-17],[0,-9],[0,-7],[1,-4],[-1,-6],[-1,-6],[-6,-7],[-5,-4],[-4,-2],[-31,-3],[-3,-3],[0,-4],[6,-8],[6,-4],[21,-7],[3,-3],[1,-4],[2,-5],[1,-6],[1,-10],[0,-5],[-5,-10],[-20,-13],[12,-32],[2,-8],[2,-16],[0,-8],[0,-7],[2,-5],[6,-4],[5,-1]],[[1709,2007],[3,1],[22,10],[17,4]],[[1639,1546],[4,0],[4,-1],[4,-2],[28,-20],[2,-4],[-1,-7],[-8,-13],[-4,-5],[-5,-5],[-4,-2],[-17,-17],[-8,-10],[-3,-4],[0,-7],[1,-8],[13,-29]],[[1618,1540],[4,1],[15,5],[2,0]],[[3586,2191],[0,-59],[-1,-20],[-1,-5],[0,-5],[2,-4],[5,-4]],[[3626,2120],[4,-1],[4,-2],[4,-2],[2,-4],[2,-3],[1,-4],[1,-5],[1,-6],[0,-9],[1,-11],[5,-19],[-1,-3],[-3,-5],[-9,-8],[-6,-3],[-9,-4],[-3,-2],[-4,-2],[-3,-5],[-4,-6],[-5,-11],[-2,-7],[-2,-18],[5,-25],[2,-8],[1,-4],[5,-16],[1,-4],[0,-4],[0,-5],[-1,-19],[1,-4],[0,-3],[2,-1],[3,0]],[[3591,2094],[3,1],[3,3],[7,12],[3,3],[3,3],[8,3],[8,1]],[[3638,1904],[3,-1],[5,-4],[4,-12],[2,-8],[1,-6],[0,-4],[-1,-24],[0,-5],[1,-4],[3,-5],[4,-5],[12,-8],[7,-4],[31,-6],[-3,-22],[-5,-9],[-12,-11],[-9,-11],[-9,-16],[0,-6],[1,-5],[6,-8],[11,-12],[2,-4],[2,-5],[-1,-9],[-2,-5],[-3,-4],[-10,-6],[-1,-5],[2,-8],[7,-15],[2,-12],[0,-7],[-3,-4],[-4,-8],[-1,-6],[2,-6],[10,-10],[6,-4],[6,-2]],[[3619,1887],[10,0],[2,0],[2,9],[2,4],[3,4]],[[3740,1589],[5,-2],[5,-2],[7,-5],[3,-4],[2,-6],[4,-16],[0,-9],[0,-7],[-11,-43],[-3,-22],[-1,-10],[-1,-5],[-2,-6],[-3,-5],[-16,-15],[-4,-7],[1,-4],[4,-3],[29,-13],[2,-4],[0,-7],[-7,-14],[-5,-6],[-3,-5],[-2,-6],[3,-17]],[[3704,1588],[36,1]],[[4056,4096],[2,-2],[19,-15],[7,-2]],[[4084,4077],[5,0],[4,2],[3,1]],[[4062,2779],[8,3],[6,4],[5,7],[3,6],[0,4],[-2,3],[-14,6],[-4,2],[-2,3],[-1,5],[1,4],[2,4],[21,35],[5,9],[2,5],[1,6],[1,5],[1,10],[1,9],[0,5],[-1,10],[0,8],[1,3]],[[4035,2783],[27,-4]],[[3980,2673],[7,1],[5,3],[2,3],[3,4],[2,5],[1,5],[1,4],[0,5],[0,4],[-1,5],[-5,20],[-1,9],[-1,13],[0,4],[0,3],[3,10],[20,11],[19,1]],[[3951,2677],[29,-4]],[[3796,2624],[3,1],[3,4],[5,7],[6,7],[30,17],[9,3],[73,5],[8,2],[6,2],[7,5],[5,0]],[[3766,2656],[4,-1],[4,-2],[3,-3],[2,-4],[5,-12],[2,-4],[5,-5],[5,-1]],[[3712,2350],[6,1],[4,4],[3,5],[3,9],[4,3],[5,2],[11,3],[8,4],[5,5],[2,4],[1,9],[-23,18],[-55,23],[-6,4],[-4,4],[-3,8],[-3,7],[-1,9],[-1,4],[0,5],[5,28],[0,3],[0,5],[0,4],[-2,12],[-9,30],[2,12],[10,19],[9,26],[9,15],[12,6],[53,14],[9,1]],[[3702,2361],[3,-1],[1,-4],[2,-3],[4,-3]],[[3586,2191],[17,11],[5,9],[4,8],[1,6],[1,9],[0,5],[-1,8],[0,10],[3,12],[6,28],[5,12],[4,7],[19,9],[5,3],[2,4],[1,5],[2,3],[4,2],[9,2],[12,6],[11,10],[6,1]],[[1179,3427],[-15,-40],[-3,-5],[-6,-6],[-12,-2],[-9,-4],[-4,-4],[-1,-5],[1,-3],[4,-7],[1,-6],[1,-6],[-2,-10],[-3,-5],[-5,-2],[-5,-1],[-5,-2],[-2,-4],[0,-4],[1,-5],[1,-4],[2,-8],[1,-6],[0,-7],[-2,-11],[-2,-7],[-2,-5],[-28,-47],[-5,-7],[-5,-5],[-60,-42],[-12,-11],[-3,-6],[0,-5],[1,-2],[14,-22],[2,-5],[0,-6],[-1,-8],[-3,-5],[-3,-3],[-4,-1],[-43,-4],[-6,-2],[-2,-5],[-6,-16],[-3,-5],[-10,-4],[-6,-6],[-4,-4],[-4,-15],[-10,-33],[-3,-2],[-5,-3]],[[904,2984],[-24,5],[-4,2],[-7,8]],[[869,2999],[-43,-6],[-6,-3],[-7,-4],[-2,-6],[-2,-8],[-2,-12],[0,-8],[1,-11],[-1,-6],[-1,-8],[-5,-15],[0,-8],[2,-4],[4,-3],[4,-2],[3,-3],[6,-11],[5,-6],[3,-3],[3,-3],[19,-8],[5,-6],[0,-5],[-2,-4],[-10,-8],[-8,-12],[-29,-18],[-9,-10],[-11,-22],[-5,-4],[-4,-3],[-35,-11],[-8,-6],[-9,-6],[-27,-6],[-7,-5],[-19,-17],[-8,-5],[-6,-2]],[[658,2711],[-19,1],[-5,1],[-9,5],[-11,7],[-4,2],[-5,1],[-47,0],[-22,9],[-14,3]],[[522,2740],[-31,-1],[-8,-3],[-4,-3],[2,-4],[3,-2],[39,-14],[8,-5],[3,-2],[2,-4],[4,-7],[3,-8],[3,-14],[-1,-3],[-2,-3],[-6,-8],[-3,-5],[-2,-6],[1,-4],[-1,-6],[-1,-5],[-8,-13],[-2,-5],[-1,-5],[-1,-5],[-3,-20],[-8,-39],[-3,-10],[-6,-13],[-29,-11],[-6,-5],[-1,-3],[1,-4],[1,-3],[2,-4],[13,-26],[2,-4],[2,-6],[1,-10],[-2,-5],[-3,-6],[-5,-6],[-9,-11],[-6,-5],[-5,-3]],[[248,2566],[-7,0],[-23,7],[-17,0],[-64,25],[-8,0]],[[129,2598],[-28,-16],[-8,-3],[-5,-1]],[[88,2578],[-15,1],[-8,6],[-4,2],[-4,1]],[[57,2588],[-18,-8],[-7,-1]],[[32,2579],[-10,0],[-22,5]],[[455,2411],[-10,1],[-19,6],[-6,3],[-83,94],[-53,43],[-14,9],[-10,4]],[[260,2571],[-3,-2],[-4,-2],[-5,-1]],[[1181,3829],[4,1],[2,2],[2,2],[7,11],[2,7],[2,9],[0,29],[-1,8],[-8,12],[-9,23],[-3,6],[-4,4],[-6,6],[-3,3],[-3,6],[-7,33],[-2,6],[-4,3],[-4,2],[-3,3],[-2,4],[-2,5],[-2,8],[1,7],[2,5],[7,5],[10,3],[3,2],[1,3],[-2,5],[-5,7],[-1,6],[0,4],[10,18],[4,9]],[[1131,3841],[30,-10],[20,-2]],[[1179,3427],[-24,34],[-25,41],[-5,10],[-4,21],[5,16],[0,6],[-1,14],[-3,22],[0,6],[1,7],[11,42],[5,21],[0,6],[0,6],[-3,8],[-2,5],[-8,10],[-1,5],[1,6],[4,10],[4,5],[7,9],[1,5],[1,9],[-1,29],[-2,7],[-1,4],[-5,11],[-5,6],[-6,6],[-4,2],[-3,4],[0,6],[5,10],[4,4],[6,1]],[[986,1030],[5,-30],[1,-12],[0,-4],[0,-7],[-5,-20],[-1,-5],[0,-5],[1,-14],[12,-58],[0,-5],[-1,-5],[-1,-5],[-10,-22],[-1,-4],[4,-10],[8,-14],[25,-28],[12,-9],[8,-3]],[[1058,790],[4,0],[48,-26],[13,-12],[8,-9],[3,-6],[4,-8],[1,-4],[0,-4],[-2,-5],[-6,-4],[-5,-4],[-4,-6],[-3,-11],[-5,-14],[-8,-8],[-34,-5],[-4,-1],[-4,-3],[-2,-6],[-2,-10],[0,-1],[-7,-2],[-16,-2]],[[1043,770],[2,3],[3,10],[3,4],[3,3],[4,0]],[[1037,639],[-4,1],[-1,2],[-1,1],[-2,9],[-1,4],[-2,3],[-3,3],[-4,1]],[[1019,663],[-4,0],[-4,-1],[-3,-3],[-1,-7],[1,-4],[1,-3],[9,-20],[2,-4],[4,-16],[0,-4],[-1,-4],[-2,-3],[-4,-1]],[[926,594],[-5,1],[-5,2],[-8,10],[-3,2],[-3,2],[-9,0]],[[893,611],[-4,-2],[-3,-3],[-1,-6],[-1,-5],[-1,-5],[-2,-5],[-1,-4],[-1,-5],[0,-5],[0,-9],[-1,-4],[-2,-4],[-14,-1]],[[1017,593],[-15,6]],[[1002,599],[-4,0],[-32,-9]],[[966,590],[-8,0],[-5,2],[-3,3],[-2,2],[-6,0]],[[942,597],[-16,-3]],[[862,553],[-20,2],[-8,3]],[[834,558],[-6,-2],[-7,-6],[-13,-18],[-5,-10],[0,-10],[5,-9],[-1,-4],[-2,-3],[-18,-9],[-19,-8],[-3,-2],[-3,-2],[-1,-4],[1,-3],[13,-13],[19,-38],[21,-43],[3,-3],[3,-2]],[[849,385],[4,-1],[19,-10],[5,-4],[4,-5],[8,-17],[4,-3]],[[821,369],[7,2],[4,2],[6,7],[3,2],[3,2],[5,1]],[[906,346],[6,-2],[14,-11],[4,-4],[3,-5],[0,-7],[-5,-15],[0,-5],[0,-5],[10,-9],[39,-15],[-33,-47],[-7,-6],[-6,-2]],[[893,345],[13,1]],[[931,213],[-20,6]],[[911,219],[-3,-1],[-3,-5],[0,-11],[1,-7],[2,-5],[6,-10],[2,-4],[1,-3],[1,-5],[0,-5],[-9,-68],[-1,-38],[-2,-11],[-1,-6],[-2,-5],[-5,-7],[-3,-4],[-3,-2],[-2,-1],[-38,-2],[-6,-1],[-5,-3],[-2,-1],[-2,-3],[-4,-11]],[[96,1728],[-6,2],[-10,6],[-5,4],[-3,4],[-6,10],[-3,8],[-3,8],[0,4],[-3,23],[-3,9],[-6,12],[-21,39],[-5,7],[-22,17]],[[218,1713],[-13,2],[-4,2],[-3,4],[-4,6],[-6,11],[-5,5],[-8,6],[-17,11],[-9,3],[-6,1]],[[143,1764],[-3,-2],[-6,-7],[-12,-18],[-8,-7],[-18,-2]],[[356,1667],[-5,1],[-8,4],[-3,4],[-1,4],[0,5],[6,26],[0,7],[-2,8],[-5,14],[-6,7],[-5,5],[-11,2],[-9,1]],[[307,1755],[-9,-2],[-11,-5],[-34,-24],[-35,-11]],[[488,1508],[-3,4],[-2,3],[-21,22],[-17,29],[-13,30],[-14,27],[-24,34],[-6,7],[-8,4],[-5,1]],[[375,1669],[-19,-2]],[[552,1370],[8,3],[7,5],[6,9],[-16,18],[-6,19],[-4,22],[-9,26],[-13,15],[-32,22]],[[493,1509],[-5,-1]],[[543,1370],[9,0]],[[546,1175],[9,19],[12,16],[4,9],[1,7],[-2,7],[-2,4],[-5,6],[-2,6],[-2,9],[-3,26],[-2,6],[-1,4],[-2,4],[-4,6],[-4,4],[-3,4],[-2,8],[-1,9],[1,17],[2,9],[3,15]],[[672,1128],[-15,2],[-2,3],[-7,12],[-9,11],[-25,17],[-8,2]],[[606,1175],[-60,0]],[[877,1112],[-41,12],[-24,8]],[[812,1132],[-140,-4]],[[920,1002],[-2,2],[-3,5],[-2,5],[-1,5],[0,4],[0,4],[5,37],[0,11],[0,4],[1,15],[5,23],[0,6],[0,7],[-3,2]],[[920,1132],[-3,-1],[-14,-14],[-8,-3],[-8,-2],[-10,0]],[[986,1030],[-29,3]],[[957,1033],[-12,-6],[-4,-6],[-18,-19],[-3,0]],[[2625,4096],[-5,-40],[48,-105],[-148,-73],[-26,-191],[-110,0]],[[3006,4020],[8,28],[-34,31],[-2,17]],[[2978,4022],[28,-2]],[[2778,3576],[46,145],[23,117],[26,11],[45,33],[40,56],[20,84]],[[2384,3687],[-2,89]],[[2382,3776],[-79,-3],[1,-113],[73,-155],[-80,-90]],[[2704,3602],[74,-26]],[[2614,3278],[62,81],[28,120],[-38,50],[38,73]],[[2573,3316],[41,-38]],[[2454,3119],[66,32],[4,83],[49,82]],[[325,0],[219,390],[-45,315]],[[492,815],[7,-110]],[[492,815],[-14,84],[31,49],[-51,57],[69,70],[35,-48],[30,42]],[[640,1146],[253,540],[125,79],[46,146],[179,194],[132,205],[115,100],[155,34],[56,55],[44,78],[-7,85],[34,119],[91,86],[94,241],[127,115],[37,122],[2,163],[43,98],[34,3],[145,166],[193,153],[141,33],[100,93]],[[1719,622],[6,-12]],[[1944,940],[-9,-7],[-3,-4],[-13,-23],[-5,-28],[-29,-26],[-31,-63],[-138,-116],[-5,-37],[10,-20]],[[1724,612],[29,-108],[109,-131],[-2,-78],[48,-60],[8,-98],[-30,-111],[-21,-26]],[[1725,610],[1,-2],[1,-2]],[[1955,946],[-12,-6]],[[1943,940],[-7,-6]],[[2794,2144],[-23,-50],[9,-115],[-65,-120],[23,-129],[-37,-75],[-73,-55],[-14,-64],[-70,-54],[-40,-84],[-72,-14],[-146,-94],[-32,-85],[-59,-34],[-80,-112],[-61,-21],[-20,-72],[-30,-26],[-48,6],[-2,0],[-2,-1],[-2,-1],[-1,0],[-2,-1],[-3,-3]],[[1944,940],[-1,0]],[[2794,2164],[15,85],[37,37],[4,20],[1,48],[12,18],[1,4],[0,24],[15,41],[0,2],[0,3],[-4,14],[0,7],[0,2],[0,2],[-15,29],[-1,2],[-1,1],[-43,41],[-5,6],[1,24],[0,1],[0,3],[-2,5],[-65,126],[-91,103],[-9,48],[-17,46],[2,6],[10,7],[1,2],[2,2],[3,24],[30,33]],[[2849,4072],[53,-87],[-119,-178],[-3,-133],[-61,-271],[8,-158],[-31,-225],[-51,-73],[-1,-1],[-1,-2],[0,-2],[-1,-19],[-3,-4],[-7,-5],[-2,-1],[-1,-1],[-1,-1],[-1,-3],[0,-1],[0,-2],[0,-1],[0,-8],[1,-1],[0,-1],[16,-34],[0,-3],[0,-15],[1,-2],[0,-2],[1,-4],[6,-20],[1,-2],[1,-3],[6,-12],[2,-2],[1,-2],[21,-17],[14,-35],[1,-2],[1,-1],[1,-1],[2,-1],[34,-20],[7,-7],[65,-126],[2,-8],[0,-3],[-2,-16],[0,-1],[0,-1],[1,-2],[0,-2],[1,-1],[1,-1],[3,-4],[44,-42],[2,-4],[3,-12],[0,-2],[1,-1],[10,-14],[0,-2],[0,-5],[0,-2],[4,-18],[-9,-25],[-6,-15],[-1,-2],[0,-4],[0,-4],[1,-16],[-1,-4],[-10,-14],[-1,-2],[-1,-2],[0,-4],[-2,-20],[1,-24],[-4,-20],[-16,-12],[-13,-14],[-6,-6],[-1,-2],[-2,-3],[0,-2],[-2,-9],[-6,-14],[0,-2],[0,-1],[-1,-13],[-1,-2],[-2,-4],[-7,-9],[-1,-1],[-1,-2],[0,-2],[-1,-3],[0,-1],[0,-2],[1,-1],[2,-6],[5,-11],[2,-4],[1,-8],[-16,-26]],[[2788,2136],[3,5]],[[325,0],[219,390],[-45,315]],[[492,815],[7,-110]],[[492,815],[-14,84],[31,49],[-51,57],[69,70],[35,-48],[30,42]],[[640,1146],[253,540],[125,79],[46,146],[179,194],[132,205],[115,100],[155,34],[56,55],[44,78],[-7,85],[34,119],[91,86],[94,241],[127,115],[37,122],[2,163],[43,98],[34,3],[145,166],[193,153],[141,33],[100,93]],[[2848,4071],[1,-2],[2,-1]],[[2848,4071],[2,-3],[1,0]],[[2852,4067],[-1,1]],[[2851,4068]],[[2851,4068],[-3,3]],[[2848,4071],[3,-3]],[[2851,4068],[-1,0],[-1,3]],[[2849,4071],[1,-2],[1,-1]],[[2849,4071],[2,-3]],[[2851,4068],[81,-22]],[[2851,4068],[2,-3],[2,-2],[9,-3],[5,-4],[2,-5],[1,-2],[2,-1],[5,-2],[3,-1],[26,-4],[3,-1],[3,0],[2,1],[1,0],[3,0],[15,5],[60,21]],[[2933,4046],[-4,-1],[-10,-4],[-2,0],[-2,-1],[-2,0],[-4,0],[-12,2]],[[2998,4068],[-3,-1]],[[2995,4067],[-61,-21]],[[2998,4068],[-1,28]],[[3175,1915],[0,1]],[[3200,1978],[-8,-12]],[[3192,1966],[-1,-2]],[[3191,1964],[-2,-3]],[[3189,1961],[-9,-13],[0,-1],[-2,-4],[0,-1],[0,-1],[-3,-26]],[[3206,1878],[-20,12]],[[3186,1890],[-4,4],[-1,2],[-5,7],[-1,1],[-1,2],[0,2],[0,1],[1,6]],[[3186,1890],[-11,26]],[[3175,1916],[14,46]],[[3189,1962],[2,2]],[[3191,1964],[10,15]],[[3189,1962],[0,-1]],[[3259,1978],[1,19],[-12,-7],[-9,-3],[-24,-3]],[[3215,1984],[-10,-3]],[[3205,1981],[-5,-4]],[[3200,1977]],[[3200,1977],[-1,-1]],[[3199,1976],[-2,-3]],[[3197,1973],[-2,-4]],[[3195,1969],[-2,-3]],[[3193,1966],[-1,0]],[[3205,1981],[-4,-2]],[[3201,1979],[-1,-1]],[[3200,1978],[0,-1]],[[3206,1878],[11,-15]],[[3206,1878],[17,-24]],[[3259,1978],[3,2],[1,3],[1,2],[0,4],[0,2],[-1,4],[-1,1],[-1,0],[-1,1],[-1,0],[0,-1],[-1,0],[-10,-6],[-9,-3],[-2,0],[-2,0],[-6,1],[-1,0],[-1,0],[-3,-1],[-9,-3]],[[3222,1855],[-4,7]],[[3253,1943],[6,35]],[[3253,1943],[-1,-3],[0,-2],[1,-2],[0,-1],[1,-1],[1,0],[1,-1],[1,0],[3,-1],[1,0],[6,1],[3,-1],[7,-9]],[[3277,1923],[4,-7]],[[3253,1943],[1,-8],[6,-3],[7,1],[3,-1],[7,-9]],[[2850,3842],[-4,15],[-7,21],[-15,30],[-4,32],[13,97]],[[2837,3882],[9,-25],[2,-9],[3,-10],[7,-15],[155,-336]],[[3068,3266],[-2,15],[-2,12],[-14,47],[-4,10],[-3,16],[-12,41],[-5,23],[-9,47],[-12,31],[-68,152]],[[3014,3486],[17,-79],[15,-57],[18,-57],[8,-50],[41,-116]],[[3546,2555],[0,6],[0,19],[2,17],[0,2],[0,1],[0,1],[-1,1],[-7,11],[-2,19],[-3,12],[-2,8],[-1,1],[0,1],[-1,2],[-19,25],[-7,14],[-23,34],[-11,12],[-1,1],[-4,3],[-2,1],[-6,1],[-3,2],[-10,13],[-1,1],[-10,8],[-1,0],[-77,37],[-2,3],[-10,11],[-1,1],[-2,2],[-11,9],[-1,1],[-30,35],[-8,19],[-1,12],[0,2],[-2,2],[-2,2],[-19,17],[-2,5],[-1,5],[-1,2],[-1,2],[0,1],[-2,1],[-6,6],[-2,4],[-1,1],[-2,1],[-1,1],[-3,1],[-2,0],[-10,-1],[-3,0],[-4,-2],[-4,1],[-2,1],[-14,14],[-1,1],[-32,12],[-54,129]],[[3119,3109],[-1,4]],[[3118,3113],[-2,6]],[[3116,3119]],[[3116,3119],[-1,2]],[[3115,3121],[-3,8]],[[3115,3121],[-2,5]],[[3117,3113],[2,-4]],[[3119,3109],[54,-129],[49,-29],[3,0],[18,3],[6,-2],[18,-28],[22,-20],[8,-67],[185,-108],[30,-48],[20,-28],[14,-98]],[[3546,2555],[139,-234],[174,-188],[103,-438],[134,-284]],[[2788,4095],[0,1]],[[3832,3610],[-92,-59],[-66,1],[-67,-33]],[[3735,3809],[1,17]],[[3736,3826],[30,17]],[[3736,3825],[-2,-5],[-1,-3],[0,-2],[9,-36],[16,-46]],[[3758,3733],[6,-11]],[[3764,3722],[1,-1]],[[3736,3826],[0,-1]],[[3736,3825],[-2,-5],[-1,-2],[0,-3],[2,-6]],[[3735,3809],[30,-88]],[[3765,3721],[63,-102]],[[3828,3619],[4,-9]],[[442,1993],[-30,16],[-412,-153]],[[441,1999],[1,-6]],[[442,1993],[14,-25]],[[3194,3878],[5,-14]],[[3210,3859],[-1,4]],[[3306,4096],[92,-66],[177,64],[23,-1],[46,-18],[5,-2],[18,-5],[15,-3],[4,-1],[50,-6],[2,0],[2,0],[1,0],[2,1],[1,0],[39,24],[4,2],[1,2],[5,9]],[[3793,4096],[-55,-38],[-143,36]],[[325,0],[219,390],[-45,315]],[[478,969],[2,-2],[2,-3],[21,-13],[3,-4],[-17,-25]],[[515,952],[-36,16]],[[492,815],[7,-110]],[[492,815],[-14,84],[26,36]],[[515,952],[-1,-1],[-1,-1],[-6,-2],[-6,-14]],[[513,950],[7,7],[3,4],[1,2],[2,6],[1,2],[9,8],[1,2],[3,4],[79,126],[17,27],[4,8]],[[1752,2689],[-7,-112],[-48,-83],[-53,-50],[-154,-34],[-114,-98],[-133,-207],[-179,-194],[-46,-146],[-126,-79],[-162,-379],[-215,-355]],[[1774,2785],[-2,-4],[-1,-2],[0,-5],[-5,-8],[-4,-15],[6,-30],[-16,-32]],[[1767,2766],[4,7],[0,1],[0,1],[0,4],[1,2],[7,8]],[[2059,3204],[-6,-6],[-12,-1],[-1,-1],[-1,0],[-3,-2],[-1,-1],[0,-1],[-1,-1],[-1,-5],[-3,-4],[-2,-4],[-8,-6],[-1,-2],[-1,-1],[-1,-2],[0,-2],[0,-2],[1,-6],[0,-2],[-2,-5],[-15,1],[-4,0],[-1,0],[-2,-1],[-1,-1],[-1,-1],[-1,0],[0,-1],[-1,-1],[-5,-16],[-7,-5],[-19,-15],[-1,-1],[-1,-1],[-18,-30],[-1,-1],[0,-2],[-2,-9],[-9,-10],[-63,-188],[-89,-83]],[[1933,3062],[2,2],[1,2],[1,2],[2,10],[18,30],[29,22],[6,18],[24,2],[2,5],[0,14],[10,9],[5,8],[2,7],[5,3],[11,1],[2,1],[1,0],[4,3],[3,6],[-1,7],[3,5],[14,-1],[1,0],[1,1],[2,1],[1,0],[1,2],[1,1],[1,2],[1,3],[0,1],[1,9],[0,1]],[[2155,3580],[-16,-18],[-1,-2],[-3,-6],[-1,-4],[-6,-27],[-5,-12],[-1,-4],[0,-2],[2,-20],[3,-22],[1,-19],[-8,-33],[0,-1],[-2,-13],[0,-13],[1,-12],[3,-8],[-1,-20],[-19,-44],[-15,-61],[-3,-16],[-6,-5],[-12,1],[-2,0],[-1,0],[-1,-1],[-2,-4],[0,-9]],[[2118,3394],[10,49],[-1,20],[-4,45],[44,99],[33,2],[145,166],[193,153],[66,6],[18,12],[21,0],[11,5]],[[2654,3951],[-4,-2],[-7,-3],[-3,0],[-8,1],[-3,0],[-6,-1],[-1,0],[-6,-2]],[[2769,4050],[-16,-5],[-8,-5],[-1,-1],[-3,-1],[-12,-9],[-75,-78]],[[2664,3954],[3,1],[10,5],[3,1],[1,2],[1,1],[1,1],[2,3],[1,2],[3,4],[15,15],[1,1],[1,4]],[[2664,3954],[3,1],[10,5],[3,1],[1,2],[2,2],[6,9],[15,15],[1,1],[1,3]],[[2706,3994],[7,9],[8,6],[1,1],[1,1],[1,1],[2,6],[0,1],[0,3],[0,2],[2,3],[1,2],[4,2],[5,4],[4,3],[2,2],[1,0],[8,4],[2,1],[3,1],[3,1],[8,3]],[[2769,4050],[2,1]],[[2727,4026],[52,28]],[[2771,4051],[-1,0]],[[2771,4051],[8,3]],[[2774,4052],[5,2]],[[2520,4037],[88,26],[22,-26],[56,-3]],[[2850,3842],[-4,15],[-7,21],[-15,30],[-4,32],[13,97]],[[2837,3882],[9,-25],[2,-9],[3,-10],[7,-15],[155,-336]],[[3068,3266],[-4,27],[-33,114],[-14,70],[-12,31],[-68,152]],[[3014,3486],[17,-79],[15,-57],[18,-57],[8,-50],[41,-116]],[[3546,2555],[0,6],[0,19],[2,17],[0,2],[0,1],[0,1],[-1,1],[-7,11],[-2,19],[-3,12],[-2,8],[-1,1],[0,1],[-1,2],[-19,25],[-7,14],[-23,34],[-11,12],[-1,1],[-4,3],[-2,1],[-6,1],[-3,2],[-10,13],[-1,1],[-10,8],[-1,0],[-77,37],[-2,3],[-10,11],[-1,1],[-2,2],[-11,9],[-1,1],[-30,35],[-8,19],[-1,12],[0,2],[-2,2],[-2,2],[-19,17],[-2,5],[-1,5],[-1,2],[-1,2],[0,1],[-2,1],[-6,6],[-2,4],[-1,1],[-2,1],[-1,1],[-3,1],[-2,0],[-10,-1],[-3,0],[-4,-2],[-4,1],[-2,1],[-14,14],[-1,1],[-32,12],[-54,129]],[[3119,3109],[-1,4]],[[3118,3113],[-2,6]],[[3116,3119]],[[3116,3119],[-1,2]],[[3115,3121],[-3,8]],[[3115,3121],[-2,5]],[[3117,3113],[2,-4]],[[3119,3109],[54,-129],[49,-29],[3,0],[18,3],[6,-2],[18,-28],[22,-20],[8,-67],[185,-108],[30,-48],[20,-28],[14,-98]],[[3546,2555],[139,-234],[174,-188],[103,-438],[134,-284]],[[3057,3310],[-12,-1],[-43,23],[-8,4],[-27,15],[-2,1],[-1,0],[-2,0],[-16,1],[-70,0],[-1,0],[-2,0],[-29,-7],[-31,-4],[-23,4],[-56,70]],[[2750,3395],[36,-46],[2,-2],[1,-1],[2,-1],[18,-3],[4,0],[150,10],[82,-43],[7,-1],[7,2]],[[3059,3310],[5,-18]],[[3064,3291],[-5,19]],[[3059,3310],[-40,156]],[[3068,3266],[-4,25]],[[3064,3291],[0,1]],[[3064,3292],[8,-24],[158,16],[45,-45],[21,6]],[[3194,3878],[15,-15]],[[325,0],[219,390],[-45,315]],[[478,969],[4,-5],[21,-13],[3,-4],[-17,-25]],[[515,952],[-36,16]],[[492,815],[7,-110]],[[492,815],[-14,84],[26,36]],[[513,950],[10,11],[4,10],[13,14],[100,161]],[[1752,2689],[-7,-112],[-48,-83],[-53,-50],[-154,-34],[-114,-98],[-133,-207],[-179,-194],[-46,-146],[-126,-79],[-252,-540]],[[1774,2785],[-2,-4],[-1,-2],[0,-5],[-5,-8],[-4,-15],[6,-30],[-16,-32]],[[1767,2766],[4,7],[0,1],[0,1],[0,4],[1,2],[7,8]],[[2059,3204],[-6,-6],[-12,-1],[-2,-1],[-4,-3],[-17,-24],[-2,-19],[-15,1],[-4,0],[-1,0],[-3,-2],[-1,-1],[-1,0],[-1,-2],[-5,-16],[-7,-5],[-21,-17],[-18,-30],[-1,-3],[-2,-9],[-9,-10],[-63,-188],[-89,-83]],[[1933,3062],[2,2],[1,2],[1,2],[0,2],[0,1],[1,4],[1,3],[18,30],[21,17],[2,1],[2,1],[1,0],[3,3],[0,1],[1,1],[3,13],[2,3],[6,3],[5,0],[5,-2],[1,0],[2,0],[2,0],[1,0],[1,1],[1,0],[1,1],[1,1],[0,1],[0,2],[0,14],[2,3],[4,2],[1,1],[3,3],[5,8],[1,2],[0,3],[1,2],[5,3],[11,1],[2,1],[1,0],[4,3],[3,6],[-1,7],[3,5],[14,-1],[1,0],[1,1],[3,1],[2,3],[2,5],[1,11]],[[2155,3580],[-20,-26],[-13,-47],[6,-63],[-8,-33],[-2,-14],[0,-13],[1,-12],[3,-8],[-1,-20],[-19,-44],[-15,-61],[-3,-16],[-6,-5],[-12,1],[-1,0],[-1,0],[-1,0],[-1,-1],[-1,-1],[-1,-2],[0,-1],[0,-9]],[[2118,3394],[2,17],[5,19],[2,11],[1,2],[0,5],[-1,15],[-4,45],[44,99],[33,2],[145,166],[193,153],[66,6],[18,12],[21,0],[2,1],[9,4]],[[2654,3951],[-11,-5],[-14,1],[-6,-1],[-1,0],[-6,-2]],[[2769,4050],[-16,-5],[-8,-5],[-1,-1],[-3,-1],[-12,-9],[-75,-78]],[[2664,3954],[42,40]],[[2664,3954],[3,1],[10,5],[3,1],[1,2],[2,2],[6,9],[6,6],[9,9],[1,1],[1,3]],[[2706,3994],[7,9],[8,6],[1,1],[1,1],[1,1],[2,6],[0,1],[0,3],[0,2],[2,3],[1,2],[4,2],[5,4],[4,3],[2,2],[1,0],[8,4],[2,1],[3,1],[3,1],[8,3]],[[2769,4050],[2,1]],[[2727,4026],[52,28]],[[2771,4051],[-1,0]],[[2771,4051],[8,3]],[[2774,4052],[5,2]],[[2845,4092],[5,2]],[[2845,4092],[2,0],[1,1],[2,1],[1,1]],[[2886,4096],[47,-59],[379,-236],[120,-103],[91,-45],[10,-2],[13,2],[3,0],[3,0],[1,0],[2,-1],[1,0],[2,-1],[1,-1],[2,-1],[1,-1],[1,-1],[1,-1],[10,-12],[16,-21],[1,-3],[1,-2],[1,-2],[1,-1],[0,-2],[0,-3],[0,-64],[31,-43],[2,-3],[3,-4],[1,-2],[1,-5],[18,-50],[3,-9],[0,-2],[1,-4],[14,-82],[0,-2],[0,-3],[0,-4],[-1,-42],[-1,-8],[-3,-18],[4,-9],[35,-20],[29,-24],[1,-2],[3,-2],[18,-24],[14,-14],[5,-2],[13,-2],[2,-1],[2,0],[5,-2],[32,-17],[3,-2],[2,-2],[1,-1],[9,-13],[20,-14],[19,-6],[23,0],[13,-2],[2,0],[2,-1],[3,-1],[39,-25],[5,-3],[3,-3],[22,-18],[3,-2],[8,-9],[46,-47],[23,-10],[16,-9],[2,-1],[1,-1],[1,-1],[4,-4]],[[4096,2961],[-4,4],[-43,22],[-126,107],[-20,4],[-17,0],[-4,0],[-2,0],[-2,1],[-17,5],[-94,56],[-99,85],[-2,3],[-2,3],[-1,4],[5,75],[-14,85],[-60,121],[-3,74],[-33,41],[-9,2],[-16,-2],[-10,1],[-46,20],[-44,25],[-1,1],[-3,1],[-108,93]],[[3068,3266],[-2,45],[-100,40],[-174,-6],[-42,50]],[[3306,4096],[92,-66],[177,64],[163,-36],[55,38]],[[3793,4096],[-55,-38],[-143,36]],[[1136,1984],[-105,18],[-131,-74],[-64,49],[-149,36],[-108,-5],[-119,-48]],[[1142,1995],[-4,-8],[-5,-9],[-1,-1],[-27,-24],[-14,-29],[-28,-14],[-26,-87]],[[1708,559],[-56,-28],[-296,90],[-150,171],[-88,3],[-31,26],[-224,-15],[-92,69],[-136,37],[-115,-2],[-42,60]],[[2788,4095],[1,1]],[[0,1256],[212,-137],[194,-85]],[[475,974],[-69,60]],[[0,3319],[7,2],[2,0],[9,-1],[2,0],[74,5],[10,1],[2,0],[50,-9],[9,-4],[2,-1],[2,-1],[1,0],[3,0],[138,24],[1,1],[6,2],[1,1],[3,2],[1,1],[8,8],[2,1],[20,4],[2,0],[5,3],[2,0],[5,0],[9,-5],[2,-1],[1,0],[2,0],[16,1],[2,0],[3,1]],[[2783,4093],[-5,-1],[-2,0],[-2,1],[-1,0],[-1,0],[-5,-1],[-3,0],[-2,-1],[-1,0],[-1,-1],[-1,-1],[-1,-1],[0,-1],[-1,-1],[-5,-22],[-2,-3],[-6,-3],[-1,-1],[-1,-1],[-1,-1],[-5,-7],[-2,-2],[-40,-12],[-28,0],[-1,0],[-1,0],[-2,0],[-1,-1],[-18,-10],[-16,-10],[-2,-1],[0,-1],[-1,-1],[-1,-1],[-11,-14],[-2,-3],[-3,-3],[-1,-2],[-6,-6],[-3,-1],[-15,-6],[-1,-1],[-2,0],[-1,-1],[-10,-9],[-2,-1],[-21,-1],[-36,-5],[-2,0],[-1,-1],[-1,0],[-2,-1],[-1,-1],[-36,-20],[-12,-4],[-18,0],[-4,-1],[-2,0],[-15,-7],[-7,-3],[-39,-17],[-15,-7],[-2,0],[-24,-2],[-17,-2],[-19,4],[-1,0],[-2,0],[-1,0],[-2,0],[-39,-12],[-34,-9],[-17,-6],[-44,-13],[-6,-2],[-2,-1],[-17,-5],[-3,-1],[-31,7],[-31,2],[-3,1],[-20,9],[-2,1],[-2,1],[-2,0],[-7,-1],[-4,1],[-8,5],[-2,1],[-2,1],[-2,0],[-22,2],[-2,0],[-2,-1],[-4,-1],[-3,-3],[-6,-6],[-1,-1],[-6,-10],[-2,-2],[-6,-4],[-1,-2],[-1,-1],[-19,-25]],[[1933,3819],[-31,-11],[-1,-1],[-2,-1],[-9,-8],[-5,-2],[-15,-1],[-2,1],[-4,3],[-2,2],[-1,0],[-1,1],[-2,0],[-7,1],[-2,0],[-2,-1],[-7,-2],[-3,-2],[-2,-1],[-2,-2],[-2,-3],[-14,-19],[-5,-3],[-143,-27],[-4,1],[-8,3],[-31,12],[-3,1],[-3,0],[-13,0],[-14,-2],[-87,-17],[-7,2],[-16,8],[-2,1],[-1,0],[-3,0],[-6,-1],[-7,-1],[-6,-1],[-7,2],[-3,0],[-11,1],[-13,-2],[-75,47],[-2,0],[-2,1],[-8,2],[-1,0],[-3,0],[-2,-1],[-66,-22],[-57,-5],[-2,0],[-2,-1],[-8,-3],[-3,-1],[-18,3],[-3,4],[-2,6],[-1,2],[-1,1],[-1,0],[-4,2],[-9,4],[-49,9],[-3,0],[-2,0],[-13,-3],[-103,-7],[-62,5],[-3,2],[-21,13],[-4,2],[-2,0],[-4,1],[-1,0],[-26,-4],[-77,-13],[-13,-2],[-2,-1],[-3,-1],[-2,-1],[-2,-2],[-11,-11],[-4,-5],[0,-1],[-33,-62],[-2,-2],[-37,-20],[-2,-2],[-2,-1],[-1,-2],[-8,-15],[-4,-4],[-30,-11],[-16,1],[-3,-1],[-5,-2],[-2,-1],[-22,-19],[-32,-37],[-44,-35],[-1,-2],[-2,-1],[-24,-33],[-17,-31],[-1,-3],[-2,-9],[-4,-27],[-7,-17],[-15,-11],[-2,-1],[-1,-2],[-1,-2],[-5,-20],[-12,-30],[-1,-7],[-3,-4],[-44,1],[-189,-47],[-17,6],[-50,9],[-2,0],[-84,-6],[-11,1],[-2,0],[-7,-2]],[[413,3375],[9,23],[6,22],[18,14],[8,17],[6,39],[43,65],[45,37],[54,56],[26,2],[30,12],[56,46],[57,84],[117,19],[6,-1],[25,-15],[3,-2],[62,-5],[103,7],[18,3],[49,-9],[21,-19],[18,-3],[72,10],[71,23],[88,-50],[82,-9],[114,19],[45,-16],[3,-1],[2,0],[142,26],[6,4],[22,26],[11,4],[19,-8],[15,1],[48,23]],[[1933,3819],[51,56],[78,-21],[62,-9],[230,49],[212,68],[34,19],[61,52],[34,1],[39,12],[3,2],[0,1],[5,7],[8,5],[2,3],[7,25],[4,2],[4,1],[5,1],[2,0],[2,-1],[2,0],[2,0],[2,1]],[[2782,4093],[4,1],[4,1]],[[2782,4093],[1,0]],[[2783,4093]],[[2783,4093]],[[2789,4096],[-5,-3]],[[2784,4093],[-1,0]],[[2789,4096],[-6,-3]],[[2784,4093],[-1,0]],[[2789,4096],[-5,-3]],[[2789,4096],[-5,-3]],[[2789,4096],[-4,-2],[-1,-1]],[[456,1968],[-26,342],[-37,23],[-4,117],[41,111],[-6,585],[59,182],[-74,19],[4,28]],[[2833,4037],[-9,-129],[34,-85],[58,-113],[18,-49],[9,-16],[42,-98],[29,-62],[99,-358]],[[3013,3487],[-8,21],[-20,39],[-48,113]],[[3099,1363],[-7,-9],[-1,-1],[-1,-2],[-1,-2],[0,-2],[2,-7],[-3,-13],[-16,-14]],[[3298,2872],[-7,18],[-1,11],[0,2],[-2,2],[-2,2],[-19,17],[-2,5],[-1,5],[-1,2],[-1,2],[0,1],[-2,1],[-6,6],[-2,4],[-1,1],[-2,1],[-1,1],[-3,1],[-2,0],[-10,-1],[-3,0],[-4,-2],[-4,1],[-2,1],[-14,14],[-1,1],[-1,0],[-2,1],[-1,0],[-10,-2],[-6,2],[-16,17],[-50,123]],[[3119,3109],[-1,4]],[[3118,3113],[-2,6]],[[3116,3119]],[[3116,3119],[-1,2]],[[3115,3121],[0,1],[-2,4],[-1,3]],[[3115,3121],[-2,5]],[[3245,2007],[1,1]],[[3246,2008]],[[3246,2008],[0,1]],[[3246,2009]],[[3246,2009],[1,2]],[[3247,2011],[-25,31],[39,74],[19,160],[-31,179],[19,256],[-24,69],[57,83],[-51,88],[-7,3],[-18,-3],[-3,0],[-37,18],[-12,11],[-4,6],[-2,2],[-48,121]],[[3119,3109],[-2,4]],[[3246,2008],[-31,-8],[-40,-85]],[[3218,1862],[15,-15],[-24,-128],[-43,-65],[14,-110],[49,-62],[-42,-75],[-88,-44],[-11,-36],[-21,-22],[55,-70],[18,-130],[36,-32],[-10,-96],[-39,-61],[41,-31],[60,-142],[50,-206],[56,-19],[5,-13],[-1,-2],[-11,-21],[0,-9],[30,-20],[-14,-53],[-15,-21],[-1,-4],[4,-7],[0,-2],[1,-2],[-1,-1],[0,-1],[-4,-15],[-6,-16]],[[3778,203],[-9,-12],[-4,-2]],[[3765,189],[-80,-20],[-76,-9],[-14,-6],[-32,-10],[-18,-3],[-41,21],[-70,-31],[-114,191],[0,6],[11,35],[-4,12],[1,4],[13,25],[2,24],[-14,24],[-2,25],[0,3],[0,1],[1,2],[11,22]],[[3468,153],[-2,-1]],[[4096,180],[-73,3],[-87,60],[-123,-61],[-26,25],[-5,-1],[-6,-5],[-1,-1],[-1,-1],[-1,-2],[-4,-6],[-4,-2]],[[3765,189],[-11,-1],[-2,-1],[-4,-1],[-5,0],[-2,0],[-4,-1],[-5,1],[-1,0],[-2,-1],[-2,0],[-1,-1],[-8,-6],[-1,-1],[-6,-1],[-6,-1],[-12,-3],[-2,-1],[-6,-2],[-1,0],[-11,0],[-7,0],[-1,0],[-56,-9],[-1,-1],[-14,-5]],[[2845,4092],[6,3]],[[2886,4096],[146,-128],[187,-43],[499,-87],[378,-2]],[[2845,4092],[2,0],[1,1],[-1,-1],[-2,0]],[[445,2016],[-22,308]],[[423,2324],[-14,4]],[[409,2328],[-409,153]],[[410,2328],[10,-3]],[[410,2328],[-1,0]],[[420,2325],[3,-1]],[[2686,4034],[-119,-72],[-213,-68],[-230,-49],[-140,30],[-98,-79],[-234,-47]],[[0,3319],[173,-8],[229,43]],[[0,649],[130,80],[87,4],[31,44],[34,-18],[63,17],[110,95],[29,-6],[25,83],[-52,56],[78,87],[-60,103],[7,43],[-35,74],[-30,19],[-4,63],[58,94],[28,200],[-30,132],[17,91],[-45,86],[-11,314],[-37,23],[-4,117],[41,111],[-6,585],[59,182],[-77,26],[96,200],[100,94],[112,60],[57,84],[117,19],[96,-23],[121,10],[88,-31],[143,33],[90,-50],[295,-1],[92,21],[34,32],[41,-5],[95,78],[141,-30],[442,117],[224,133]],[[1158,2033],[-8,-10]],[[1150,2023],[-8,-28]],[[1463,1932],[-305,101]],[[3306,4096],[92,-66],[177,64],[23,-1],[46,-18],[5,-2],[18,-5],[15,-3],[4,-1],[50,-6],[2,0],[2,0],[1,0],[2,1],[1,0],[39,24],[4,2],[1,2],[5,9]],[[3595,4094],[143,-36],[55,38]],[[2361,3897],[-203,-42]],[[2158,3855],[-174,20],[-98,-79],[-234,-47]],[[2125,3842],[7,-22],[0,-3],[0,-2],[-1,-5]],[[2125,3842],[3,4]],[[2132,3816],[-11,-14],[31,-99],[88,-47]],[[2240,3656],[25,9]],[[2146,3852],[12,3]],[[2158,3855],[8,20]],[[2166,3875],[59,221]],[[2226,4096],[0,-11],[-1,-2],[-4,-5],[-1,-3],[3,-8],[0,-1],[0,-4],[1,-4],[1,-5],[0,-2],[0,-2],[-3,-7],[1,-5],[1,-1],[-1,-1],[-12,-39],[-21,-35],[-1,-4],[3,-6],[1,-1],[0,-1],[0,-2],[-3,-11],[0,-2],[0,-3],[0,-1],[0,-1],[-1,-1],[-8,-7],[-8,-33],[0,-1],[-1,-2],[-6,-10]],[[2234,3650],[6,6]],[[2240,3656],[15,13]],[[2255,3669],[1,1],[1,0],[2,1],[2,-1],[2,-2],[1,-1],[35,-57]],[[2291,3619],[34,-75],[116,-70],[146,-37],[144,26]],[[2731,3463]],[[2696,3049],[31,196],[-8,156],[12,62]],[[2731,3463],[9,46]],[[2751,3394],[-15,19],[-1,2],[-10,8],[-1,2],[9,39]],[[3057,3310],[-93,42],[-174,-6],[-3,2],[-53,68]],[[2143,3851],[-3,-1],[3,1]],[[2727,3443],[-1,-2],[1,2]],[[3435,4041],[-43,-10],[-86,65]],[[3358,4070],[1,0],[1,-3],[-2,3]],[[3507,157],[70,-40]],[[3577,117],[3,-3]],[[3580,114],[15,-33],[-43,-81]],[[3475,153],[4,0],[1,0]],[[3475,153],[4,0],[1,0]],[[3480,153]],[[3480,153],[1,0]],[[3481,153],[1,0]],[[3476,153],[3,0],[2,0]],[[3480,153],[-1,0],[-3,0]],[[3497,157],[-10,-3],[-5,-1]],[[3482,153],[-5,0]],[[3478,153],[4,0]],[[3482,153],[12,4]],[[3494,157],[3,0]],[[3497,157],[10,0]],[[2850,3842],[-4,15],[-7,21],[-6,12]],[[2833,4037],[-9,-129],[5,-13],[10,-17],[7,-21],[2,-9],[3,-9],[7,-16],[156,-338],[99,-358]],[[3117,3113],[52,-127],[80,-34],[40,-48],[8,-67],[185,-108],[50,-76],[47,-172],[46,-27],[60,-133],[173,-188],[93,-404],[54,-123]],[[4035,1547],[61,-135]],[[402,3354],[-23,-2],[-11,6],[-6,0],[-189,-47],[-17,6],[-50,9],[-2,0],[-84,-6],[-11,1],[-2,0],[-7,-2]],[[0,3319],[7,2],[2,0],[9,-1],[2,0],[74,5],[10,1],[2,0],[50,-9],[9,-4],[2,-1],[2,-1],[1,0],[3,0],[138,24],[1,1],[6,2],[1,1],[3,2],[1,1],[8,8],[2,1],[20,4],[2,0],[5,3],[2,0],[5,0],[9,-5],[2,-1],[1,0],[1,0],[16,1],[2,0],[2,1],[6,3],[3,4],[1,7],[7,16],[5,14],[6,22],[3,3],[13,9],[2,2],[1,2],[7,15],[0,2],[3,25],[3,12],[17,31],[2,2],[7,6],[2,1],[1,1],[14,24],[45,37],[54,56],[26,2],[30,12],[56,46],[8,8],[9,12],[2,3],[14,39],[24,22],[117,19],[6,-1],[25,-15],[3,-2],[4,0],[58,-5],[2,0],[101,7],[3,1],[10,2],[5,0],[29,-7],[20,-2],[14,-6],[3,-9],[1,-2],[2,-1],[1,-1],[1,0],[2,0],[13,-3],[2,0],[2,1],[1,0],[11,4],[3,0],[11,-2],[3,0],[41,7],[16,5],[20,6],[30,11],[5,1],[13,-3],[1,-1],[26,-22],[1,-1],[3,-1],[7,-2],[2,-1],[9,-7],[2,-1],[14,-5],[8,-5],[2,-1],[2,0],[2,0],[9,2],[11,-1],[3,0],[4,-2],[1,0],[2,0],[2,0],[5,1],[6,0],[9,2],[3,-1],[4,-3],[3,-1],[9,-4],[2,-2],[2,0],[3,0],[114,19],[45,-16],[3,-1],[2,0],[11,1],[40,5],[31,7],[9,2],[3,1],[6,2],[6,1],[6,1],[30,6],[2,1],[1,1],[3,2],[22,26],[11,4],[10,-2],[7,-5],[1,-1],[1,0],[1,0],[3,0],[11,1],[1,0],[2,1],[2,1],[12,10],[1,0],[10,3],[3,0],[17,8]],[[1933,3819],[2,2],[1,1],[1,1],[15,21],[8,7],[1,1],[1,1],[7,11],[15,11],[78,-21],[3,-1],[28,-1],[27,-6],[2,-1],[2,0],[230,49],[212,68],[1,0],[2,2],[12,9],[16,7],[2,0],[1,1],[61,52],[4,1],[25,0],[4,0],[1,0],[1,1],[32,8],[2,1],[4,2],[3,2],[0,1],[5,7],[8,5],[1,1],[1,1],[0,1],[1,0],[0,2],[3,12],[1,3],[0,5],[2,3],[4,2],[4,1],[5,1],[2,0],[2,-1],[2,0],[2,0],[2,1]],[[2783,4093],[-5,-1],[-2,0],[-2,1],[-1,0],[-9,-1],[-3,-1],[-2,-2],[-1,-1],[-1,-2],[-5,-22],[-10,-8],[-8,-10],[-40,-12],[-28,0],[-2,0],[-3,-1],[-61,-52],[-19,-8],[-15,-11],[-442,-117],[-31,7],[-31,2],[-52,19],[-24,2],[-2,0],[-2,-1],[-13,-10],[-7,-11],[-10,-9],[-19,-25]],[[1933,3819],[-31,-11],[-17,-12],[-15,-1],[-9,6],[-10,2],[-11,-3],[-28,-30],[-143,-27],[-49,17],[-114,-19],[-7,2],[-16,8],[-3,1],[-16,-2],[-6,-1],[-7,2],[-3,0],[-11,1],[-13,-2],[-75,47],[-13,3],[-5,-1],[-66,-22],[-57,-5],[-2,0],[-2,-1],[-8,-3],[-3,-1],[-18,3],[-7,13],[-14,6],[-49,9],[-5,0],[-13,-3],[-103,-7],[-62,5],[-28,17],[-6,1],[-117,-19],[-24,-22],[-33,-62],[-112,-60],[-54,-56],[-44,-35],[-1,-2],[-2,-1],[-24,-33],[-17,-31],[-3,-12],[-4,-27],[-25,-31],[-15,-45]],[[2782,4093],[4,1],[4,1]],[[2782,4093],[1,0]],[[2783,4093]],[[2783,4093]],[[2789,4096],[-5,-3]],[[2784,4093],[-1,0]],[[2789,4096],[-6,-3]],[[2784,4093],[-1,0]],[[2789,4096],[-5,-3]],[[2789,4096],[-5,-3]],[[2789,4096],[-4,-2],[-1,-1]],[[2901,3982],[-60,114]],[[2788,4096],[-222,-134],[-425,-111]],[[402,3354],[-23,-2],[-11,6],[-6,0],[-189,-47],[-17,6],[-50,9],[-2,0],[-84,-6],[-11,1],[-2,0],[-7,-2]],[[0,3319],[7,2],[2,0],[9,-1],[2,0],[74,5],[10,1],[2,0],[50,-9],[9,-4],[2,-1],[2,-1],[1,0],[3,0],[138,24],[1,1],[6,2],[1,1],[3,2],[1,1],[8,8],[2,1],[20,4],[2,0],[5,3],[2,0],[5,0],[9,-5],[2,-1],[1,0],[1,0],[16,1],[2,0],[2,1],[6,3],[3,4],[1,7],[7,16],[5,14],[6,22],[3,3],[13,9],[2,2],[1,2],[7,15],[0,2],[3,25],[3,12],[17,31],[2,2],[7,6],[2,1],[1,1],[14,24],[45,37],[54,56],[26,2],[30,12],[56,46],[8,8],[9,12],[2,3],[14,39],[24,22],[117,19],[6,-1],[25,-15],[3,-2],[4,0],[58,-5],[2,0],[101,7],[3,1],[10,2],[5,0],[29,-7],[20,-2],[14,-6],[3,-9],[1,-2],[2,-1],[1,-1],[1,0],[2,0],[13,-3],[2,0],[2,1],[1,0],[11,4],[3,0],[11,-2],[3,0],[41,7],[16,5],[20,6],[30,11],[5,1],[13,-3],[1,-1],[26,-22],[1,-1],[3,-1],[7,-2],[2,-1],[9,-7],[2,-1],[14,-5],[8,-5],[2,-1],[2,0],[2,0],[9,2],[11,-1],[3,0],[4,-2],[1,0],[2,0],[2,0],[5,1],[6,0],[9,2],[3,-1],[4,-3],[3,-1],[9,-4],[2,-2],[2,0],[3,0],[114,19],[45,-16],[3,-1],[2,0],[11,1],[40,5],[31,7],[9,2],[3,1],[6,2],[6,1],[6,1],[30,6],[2,1],[1,1],[3,2],[22,26],[11,4],[10,-2],[7,-5],[1,-1],[1,0],[1,0],[3,0],[11,1],[1,0],[2,1],[2,1],[12,10],[1,0],[10,3],[3,0],[17,8]],[[1933,3819],[2,2],[1,1],[1,1],[15,21],[8,7],[1,1],[1,1],[7,11],[15,11],[78,-21],[3,-1],[28,-1],[27,-6],[2,-1],[2,0],[230,49],[212,68],[1,0],[2,2],[12,9],[16,7],[2,0],[1,1],[61,52],[4,1],[25,0],[4,0],[1,0],[1,1],[32,8],[2,1],[4,2],[3,2],[0,1],[5,7],[8,5],[1,1],[1,1],[0,1],[1,0],[0,2],[3,12],[1,3],[0,5],[2,3],[4,2],[4,1],[5,1],[2,0],[2,-1],[2,0],[2,0],[2,1]],[[2783,4093],[-5,-1],[-2,0],[-2,1],[-1,0],[-9,-1],[-3,-1],[-2,-2],[-1,-1],[-1,-2],[-5,-22],[-10,-8],[-8,-10],[-40,-12],[-28,0],[-2,0],[-3,-1],[-61,-52],[-19,-8],[-15,-11],[-442,-117],[-31,7],[-31,2],[-52,19],[-24,2],[-2,0],[-2,-1],[-13,-10],[-7,-11],[-10,-9],[-19,-25]],[[1933,3819],[-31,-11],[-17,-12],[-15,-1],[-9,6],[-10,2],[-11,-3],[-28,-30],[-143,-27],[-49,17],[-114,-19],[-7,2],[-16,8],[-3,1],[-16,-2],[-6,-1],[-7,2],[-3,0],[-11,1],[-13,-2],[-75,47],[-13,3],[-5,-1],[-66,-22],[-57,-5],[-2,0],[-2,-1],[-8,-3],[-3,-1],[-18,3],[-7,13],[-14,6],[-49,9],[-5,0],[-13,-3],[-103,-7],[-62,5],[-28,17],[-6,1],[-117,-19],[-24,-22],[-33,-62],[-112,-60],[-54,-56],[-44,-35],[-1,-2],[-2,-1],[-24,-33],[-17,-31],[-3,-12],[-4,-27],[-25,-31],[-15,-45]],[[2782,4093],[4,1],[4,1]],[[2782,4093],[1,0]],[[2783,4093]],[[2783,4093]],[[2789,4096],[-5,-3]],[[2784,4093],[-1,0]],[[2789,4096],[-6,-3]],[[2784,4093],[-1,0]],[[2789,4096],[-5,-3]],[[2789,4096],[-5,-3]],[[2789,4096],[-5,-3]],[[2845,4092],[5,3]],[[2850,4094],[1,1]],[[2851,4095],[1,1]],[[2885,4096],[8,-33],[419,-262],[120,-103],[130,-50],[91,-230],[13,-171],[101,-87],[156,-66],[169,-129],[4,-4]],[[2850,4094],[1,1]],[[2834,4029]],[[2834,4029],[-1,-11],[-3,-4],[-4,-2],[-1,0],[0,-1],[-9,-10],[0,-1],[-1,-1],[0,-1],[0,-1],[0,-6],[1,-3],[3,-8],[1,-39],[2,-15],[2,-16],[0,-2],[4,-12],[1,-1],[10,-17],[7,-21],[2,-9],[3,-9],[0,-2],[4,-5],[3,-9],[4,-7],[8,-8],[2,-7],[6,-19],[1,-3],[19,-39],[18,-30],[18,-49],[9,-16],[42,-98],[29,-62],[17,-78],[15,-57],[18,-57],[8,-49],[0,-1],[41,-116]],[[3546,2555],[-14,98],[-1,3],[-19,25],[-30,48],[-126,79],[-57,62],[-9,33],[-2,2],[-2,2],[-19,17],[-5,14],[-8,8],[-2,4],[-1,1],[-2,1],[-1,1],[-5,1],[-21,-2],[-17,16],[-32,12],[-54,129]],[[3119,3109],[-1,4]],[[3118,3113],[-2,6]],[[3116,3119]],[[3116,3119],[-1,2]],[[3115,3121],[-101,364],[-98,225],[-46,98],[-12,15],[-19,55],[-15,30],[-5,71],[0,1],[-1,1],[-2,8],[-1,8],[18,21],[1,11]],[[3115,3121],[-2,5]],[[3117,3113],[2,-4]],[[3119,3109],[0,-3],[13,-43],[5,-15],[1,-2],[7,-16],[12,-22],[4,-5],[5,-13],[1,-2],[2,-2],[4,-6],[12,-11],[2,-1],[1,0],[1,-1],[2,0],[2,0],[9,2],[3,-1],[15,-15],[2,-2],[2,0],[1,0],[18,3],[6,-2],[3,-2],[2,-3],[0,-1],[8,-8],[3,-9],[1,-4],[1,-1],[22,-20],[8,-67],[185,-108],[30,-48],[1,-2],[18,-23],[1,-3],[14,-98]],[[3546,2555],[139,-234],[174,-188],[103,-438],[134,-284]],[[0,3319],[7,2],[2,0],[9,-1],[2,0],[74,5],[10,1],[2,0],[50,-9],[9,-4],[2,-1],[2,-1],[1,0],[3,0],[138,24],[1,1],[6,2],[1,1],[3,2],[1,1],[8,8],[2,1],[20,4],[2,0],[5,3],[2,0],[5,0],[9,-5],[2,-1],[1,0],[2,0],[16,1],[2,0],[3,1]],[[2783,4093],[-5,-1],[-2,0],[-2,1],[-1,0],[-1,0],[-5,-1],[-3,0],[-2,-1],[-1,0],[-1,-1],[-1,-1],[-1,-1],[0,-1],[-1,-1],[-5,-22],[-2,-3],[-6,-3],[-1,-1],[-1,-1],[-1,-1],[-5,-7],[-2,-2],[-40,-12],[-28,0],[-1,0],[-1,0],[-2,0],[-1,-1],[-18,-10],[-16,-10],[-2,-1],[0,-1],[-1,-1],[-1,-1],[-11,-14],[-2,-3],[-3,-3],[-1,-2],[-6,-6],[-3,-1],[-15,-6],[-1,-1],[-2,0],[-1,-1],[-10,-9],[-2,-1],[-21,-1],[-36,-5],[-2,0],[-1,-1],[-1,0],[-2,-1],[-1,-1],[-36,-20],[-12,-4],[-18,0],[-4,-1],[-2,0],[-15,-7],[-7,-3],[-39,-17],[-15,-7],[-2,0],[-24,-2],[-17,-2],[-19,4],[-1,0],[-2,0],[-1,0],[-2,0],[-39,-12],[-34,-9],[-17,-6],[-44,-13],[-6,-2],[-2,-1],[-17,-5],[-3,-1],[-31,7],[-31,2],[-3,1],[-20,9],[-2,1],[-2,1],[-2,0],[-7,-1],[-4,1],[-8,5],[-2,1],[-2,1],[-2,0],[-22,2],[-2,0],[-2,-1],[-4,-1],[-3,-3],[-6,-6],[-1,-1],[-6,-10],[-2,-2],[-6,-4],[-1,-2],[-1,-1],[-19,-25]],[[1933,3819],[-31,-11],[-17,-12],[-15,-1],[-9,6],[-10,2],[-11,-3],[-28,-30],[-143,-27],[-49,17],[-114,-19],[-7,2],[-16,8],[-3,1],[-16,-2],[-6,-1],[-7,2],[-3,0],[-11,1],[-13,-2],[-75,47],[-13,3],[-5,-1],[-66,-22],[-57,-5],[-2,0],[-2,-1],[-8,-3],[-3,-1],[-18,3],[-7,13],[-14,6],[-49,9],[-5,0],[-13,-3],[-103,-7],[-62,5],[-28,17],[-6,1],[-117,-19],[-24,-22],[-33,-62],[-112,-60],[-54,-56],[-44,-35],[-1,-2],[-2,-1],[-24,-33],[-17,-31],[-3,-12],[-4,-27],[-25,-31],[-22,-63],[-44,1],[-189,-47],[-17,6],[-50,9],[-2,0],[-84,-6],[-11,1],[-2,0],[-7,-2]],[[413,3375],[6,14],[3,9],[6,22],[3,3],[13,9],[2,2],[1,2],[7,15],[0,2],[3,25],[3,12],[17,31],[2,2],[7,6],[2,1],[1,1],[14,24],[45,37],[54,56],[26,2],[30,12],[56,46],[8,8],[9,12],[2,3],[14,39],[24,22],[117,19],[6,-1],[25,-15],[3,-2],[4,0],[58,-5],[2,0],[101,7],[3,1],[10,2],[5,0],[29,-7],[20,-2],[14,-6],[3,-9],[1,-2],[2,-1],[1,-1],[1,0],[2,0],[13,-3],[2,0],[2,1],[1,0],[11,4],[3,0],[11,-2],[3,0],[41,7],[16,5],[20,6],[30,11],[5,1],[13,-3],[1,-1],[26,-22],[1,-1],[3,-1],[7,-2],[2,-1],[9,-7],[2,-1],[14,-5],[8,-5],[2,-1],[2,0],[2,0],[9,2],[11,-1],[3,0],[4,-2],[1,0],[2,0],[2,0],[5,1],[6,0],[9,2],[3,-1],[4,-3],[3,-1],[9,-4],[2,-2],[2,0],[3,0],[114,19],[45,-16],[3,-1],[2,0],[11,1],[40,5],[31,7],[9,2],[3,1],[6,2],[6,1],[6,1],[30,6],[2,1],[1,1],[3,2],[22,26],[11,4],[10,-2],[7,-5],[1,-1],[1,0],[1,0],[3,0],[11,1],[1,0],[2,1],[2,1],[12,10],[1,0],[10,3],[3,0],[17,8]],[[1933,3819],[51,56],[78,-21],[62,-9],[230,49],[212,68],[34,19],[61,52],[34,1],[39,12],[3,2],[0,1],[5,7],[8,5],[2,2],[1,3],[3,11],[1,6]],[[2757,4084],[25,9]],[[2782,4093],[4,1],[4,1]],[[2782,4093],[1,0]],[[2783,4093]],[[2783,4093]],[[2789,4096],[-5,-3]],[[2784,4093],[-1,0]],[[2789,4096],[-6,-3]],[[2784,4093],[-1,0]],[[2789,4096],[-5,-3]],[[2789,4096],[-5,-3]],[[2789,4096],[-5,-3]],[[0,649],[130,80],[85,3],[18,26]],[[233,758],[1,1],[6,9]],[[233,758],[7,10]],[[465,884],[-119,-107],[-106,-9]],[[501,934],[-17,-17],[-9,-21],[-10,-12]],[[478,969],[4,-5],[22,-14],[2,-9],[-22,-25],[-19,-32]],[[488,960],[-9,8]],[[480,904],[5,13],[20,19],[4,10],[-2,5],[-19,9]],[[499,954],[-11,6]],[[0,649],[130,80],[85,3],[18,26]],[[233,758],[7,10]],[[233,758],[7,10]],[[470,889],[-124,-112],[-106,-9]],[[467,986],[-4,6]],[[463,992],[-2,3]],[[461,995],[-1,2]],[[460,997],[-3,4]],[[467,986],[12,-18]],[[474,976],[-7,10]],[[1752,2689],[-7,-112],[-48,-83],[-53,-50],[-154,-34],[-114,-98],[-133,-207],[-179,-194],[-46,-146],[-126,-79],[-256,-547],[-70,-111],[-32,48],[-60,-44],[-17,-29],[1,-3],[16,-25]],[[474,975],[4,-6],[1,-1],[-1,1],[-4,6]],[[499,954],[-20,14]],[[480,904],[24,31]],[[480,967],[0,-1],[1,-1],[2,-2],[20,-12],[3,-4],[-17,-25]],[[1774,2785],[-2,-4],[-1,-2],[0,-5],[-5,-8],[-4,-15],[6,-30],[-16,-32]],[[1767,2766],[4,7],[0,1],[0,1],[0,4],[1,2],[7,8]],[[2059,3204],[-6,-6],[-12,-1],[-1,-1],[-1,0],[-3,-2],[-1,-1],[0,-1],[-1,-1],[-1,-5],[-3,-4],[-2,-4],[-8,-6],[-1,-2],[-1,-1],[-1,-2],[0,-2],[0,-2],[1,-6],[0,-2],[-2,-5],[-15,1],[-4,0],[-1,0],[-2,-1],[-1,-1],[-1,-1],[-1,0],[0,-1],[-1,-1],[-5,-16],[-7,-5],[-19,-15],[-1,-1],[-1,-1],[-18,-30],[-1,-1],[0,-2],[-2,-9],[-9,-10],[-63,-188],[-89,-83]],[[1933,3062],[2,2],[1,2],[1,2],[2,10],[18,30],[29,22],[6,18],[24,2],[2,5],[0,14],[10,9],[5,8],[2,7],[5,3],[11,1],[2,1],[1,0],[4,3],[3,6],[-1,7],[3,5],[14,-1],[1,0],[1,1],[3,1],[2,3],[2,5],[1,11]],[[2155,3580],[-20,-26],[-13,-47],[6,-63],[-8,-33],[-2,-14],[0,-13],[1,-12],[3,-8],[-1,-20],[-19,-44],[-15,-61],[-3,-16],[-6,-5],[-12,1],[-1,0],[-1,0],[-1,0],[-1,-1],[-1,-1],[-1,-2],[0,-1],[0,-9]],[[2118,3394],[2,17],[5,19],[2,11],[1,2],[0,5],[-1,15],[-4,45],[44,99],[33,2],[145,166],[193,153],[66,6],[18,12],[21,0],[2,1],[9,4]],[[2654,3951],[-11,-5],[-14,1],[-6,-1],[-1,0],[-6,-2]],[[2769,4050],[-16,-5],[-8,-5],[-1,-1],[-3,-1],[-12,-9],[-75,-78]],[[2664,3954],[42,40]],[[2664,3954],[3,1],[10,5],[3,1],[1,2],[2,2],[6,9],[6,6],[9,9],[1,1],[1,3]],[[2706,3994],[7,9],[8,6],[1,1],[1,1],[1,1],[2,6],[0,1],[0,3],[0,2],[2,3],[1,2],[4,2],[5,4],[4,3],[2,2],[1,0],[8,4],[2,1],[3,1],[3,1],[8,3]],[[2769,4050],[2,1]],[[2727,4026],[52,28]],[[2771,4051],[-1,0]],[[2771,4051],[8,3]],[[2774,4052],[5,2]],[[2845,4092],[5,2]],[[2845,4092],[2,0],[1,1],[2,1],[1,1]],[[2886,4096],[148,-128],[668,-128],[394,-4]],[[2852,4067],[27,-21],[3,-1],[26,-4],[3,-1],[3,0],[2,1],[1,0],[3,0],[104,35],[5,-1],[17,-5],[17,-5],[2,0],[2,0],[68,2]],[[2852,4067],[80,-21]],[[2933,4046],[-4,-1],[-10,-4],[-2,0],[-2,-1],[-2,0],[-4,0],[-12,2]],[[2933,4046],[32,11],[55,18],[2,1],[1,0],[2,0],[2,0],[9,-2],[29,-9]],[[2998,4068],[-33,-11],[-17,-6],[-4,-1],[-3,-1],[-7,-3]],[[3065,4065],[-19,5],[-17,5],[-4,1],[-3,0],[-24,-8]],[[3068,4065],[33,1],[8,0],[1,0]],[[3110,4066],[-42,-1]],[[3431,4040],[-169,-10],[-8,2],[-68,34],[-2,0],[-3,1],[-6,1],[-65,-2]],[[3135,4067],[48,0],[71,-35],[2,-1],[1,0],[2,0],[1,-1],[2,0],[1,0],[118,-4],[3,-1],[3,1],[4,0],[4,1],[3,0],[3,1],[167,65],[27,1]],[[3596,4094],[-14,1],[-9,-1],[-4,-1],[-4,-1]],[[3595,4094],[1,0]],[[3596,4094],[20,2]],[[2280,4002],[-3,-1],[-1,-1]],[[2280,4002],[-4,-2]],[[2276,4000]],[[2276,4000],[4,2]],[[2280,4001],[-4,-1]],[[2276,4000],[72,-39],[4,-67]],[[2845,4092],[5,2]],[[2845,4092],[3,1],[2,1],[1,1]],[[2886,4096],[148,-128],[668,-128],[394,-4]],[[2845,4092],[5,2]],[[2845,4092],[3,1],[2,1],[1,1]],[[2886,4096],[148,-128],[668,-128],[394,-4]],[[2852,4067],[1,-2],[2,-2],[9,-3],[5,-4],[2,-5],[1,-2],[2,-1],[5,-2],[3,-1],[26,-4],[3,-1],[3,0],[2,1],[1,0],[3,0],[104,35],[5,-1],[17,-5],[17,-5],[2,0],[2,0],[68,2]],[[2852,4067],[80,-21]],[[2933,4046],[-4,-1],[-10,-4],[-2,0],[-2,-1],[-2,0],[-4,0],[-12,2]],[[2933,4046],[32,11],[55,18],[2,1],[1,0],[2,0],[2,0],[9,-2],[29,-9]],[[2998,4068],[-33,-11],[-17,-6],[-4,-1],[-3,-1],[-7,-3]],[[3065,4065],[-36,10],[-4,1],[-3,0],[-24,-8]],[[3068,4065],[42,1]],[[3110,4066],[-42,-1]],[[3431,4040],[-169,-10],[-8,2],[-68,34],[-2,0],[-3,1],[-6,1],[-65,-2]],[[3135,4067],[48,0],[71,-35],[2,-1],[2,0],[2,-1],[1,0],[2,0],[118,-4],[5,-1],[2,1],[4,0],[3,1],[3,0],[3,1],[15,6]],[[3432,4040],[2,56]],[[3433,4096],[-1,-55]],[[2845,4092],[5,2]],[[2845,4092],[2,0],[1,1],[2,1],[1,1]],[[2886,4096],[47,-59],[379,-236],[120,-103],[130,-50],[91,-230],[14,-172],[100,-86],[156,-66],[168,-128],[5,-5]],[[2740,3509],[-21,-104],[0,-2],[0,-2],[0,-3],[8,-153],[-32,-158],[0,-3],[0,-2],[1,-62],[-51,-73],[-1,-1],[-1,-2],[0,-2],[-1,-18],[-3,-5],[-7,-5],[-2,-1],[-1,-1],[-1,-1],[-1,-3],[0,-2],[0,-2],[0,-8],[1,-1],[0,-1],[15,-32],[1,-5],[1,-17],[0,-2],[1,-4],[6,-20],[1,-2],[7,-15],[2,-2],[1,-2],[21,-17],[14,-35],[1,-2],[1,-1],[1,-1],[2,-1],[34,-20],[7,-7],[65,-126],[2,-8],[0,-3],[-2,-16],[0,-1],[0,-1],[1,-2],[0,-2],[1,-1],[1,-1],[3,-4],[44,-42],[2,-4],[3,-12],[0,-2],[1,-1],[1,-1],[7,-9],[2,-3],[0,-10],[4,-18],[-9,-25],[-6,-15],[-1,-2],[0,-4],[0,-4],[1,-16],[-1,-4],[-10,-14],[-1,-2],[-1,-2],[0,-4],[-2,-20],[1,-24],[-4,-20],[-16,-12],[-13,-14],[-6,-6],[-1,-2],[-2,-3],[0,-2],[-2,-9],[-6,-14],[0,-2],[0,-1],[-1,-13],[-1,-2],[-2,-4],[-7,-9],[-1,-1],[-1,-2],[0,-2],[-1,-3],[0,-1],[0,-2],[1,-1],[2,-6],[5,-11]],[[2788,2135],[3,6]],[[2828,2155],[-24,11],[-5,-6],[-2,-9],[-1,-3],[-5,-9]],[[2792,2142],[17,107],[37,37],[33,156],[-4,28],[-1,3],[-9,10],[-4,15],[-2,4],[-48,47],[0,26],[-2,8],[-65,126],[-7,7],[-37,22],[-16,38],[-23,21],[-9,17],[-8,46],[-1,2],[-8,19],[-7,13],[-1,11],[2,7],[10,7],[1,2],[2,2],[1,2],[0,2],[0,15],[2,5],[51,73],[31,225],[-8,158],[61,271],[3,133],[119,177],[-53,88]],[[2821,2139],[0,1]],[[2828,2130],[-4,3],[-1,1],[-1,1],[-1,2],[0,3],[0,2],[1,2],[5,7],[1,4]],[[3145,1913],[-34,2],[-2,1],[-1,1],[-2,1],[-11,12],[-23,81],[-131,30],[-45,65],[-73,28],[-2,7],[7,10],[0,2],[0,2]],[[3099,1363],[-9,-12],[-1,-4],[2,-7],[-3,-13],[-16,-14]],[[3206,1878],[-13,6],[-27,24],[-2,1],[-1,1],[-24,5],[-31,2]],[[3163,1910],[20,-17]],[[3206,1878],[11,-15]],[[3206,1878],[17,-24]],[[3218,1862],[15,-15],[-24,-128],[-43,-65],[14,-110],[49,-62],[-42,-75],[-88,-44],[-9,-12],[0,-4],[0,-4],[1,-1],[0,-3],[-2,-9],[-1,-2],[0,-1],[-1,-2],[-5,-5],[-2,-2],[-1,-1],[-7,-4],[-2,-1],[-3,-7],[55,-70],[18,-130],[36,-32],[-10,-96],[-39,-61],[41,-31],[60,-142],[50,-206],[56,-19],[-7,-45],[30,-20],[-36,-122]],[[4096,183],[-72,-1],[-88,61],[-124,-61],[-27,25],[-230,-65],[-52,20],[-66,-32],[-116,201]],[[3321,331],[0,1]],[[3793,4096],[-55,-38],[-56,7],[-38,10],[-43,17],[-3,1],[-5,1],[-3,1],[-2,0],[-6,0],[-3,0],[-4,-1],[-4,0],[-5,-2],[-48,-18],[-62,-24],[-10,-3],[-28,-12],[-20,-5],[-92,66]],[[3432,4040],[144,55],[22,-2],[46,-18],[38,-10],[56,-7],[55,38]],[[918,3233],[111,-88],[306,-94],[141,-141],[100,-60],[41,-53],[0,-44],[99,-27],[36,-69]],[[1842,2550],[-39,94],[-51,13]],[[3306,4096],[109,-62]],[[414,3379],[31,215],[-25,32],[-22,470]],[[413,3375],[-3,-11]],[[410,3364],[-1,-3],[-3,-5],[0,-1],[0,-1],[0,-1],[0,-1],[0,-1],[0,-1],[1,-1],[0,-1],[1,-1],[2,-1],[1,0],[1,0],[26,-2],[12,-3],[6,-1]],[[410,3364],[0,-18],[28,-2],[18,-4]],[[1136,3116],[-121,37],[-136,132],[-217,73],[-206,-18]],[[2790,4095],[-224,-133],[-442,-117],[-141,30],[-95,-78],[-41,5],[-34,-32],[-92,-21],[-295,1],[-90,50],[-143,-33],[-88,31],[-121,-10],[-96,23],[-117,-19],[-57,-84],[-112,-60],[-99,-93],[-97,-198],[-233,-46],[-173,8]],[[2845,4092],[5,2]],[[2845,4092],[2,0],[1,1],[2,1],[1,1]],[[2886,4096],[148,-128],[668,-128],[394,-4]],[[2845,4092],[5,2]],[[2845,4092],[3,1],[2,1],[1,1]],[[2886,4096],[47,-59],[379,-236],[120,-103],[91,-45],[10,-2],[13,2],[3,0],[3,0],[4,-1],[2,-1],[1,-1],[3,-2],[28,-35],[1,-3],[2,-4],[1,-6],[0,-64],[31,-43],[2,-3],[3,-4],[1,-2],[1,-5],[21,-61],[1,-4],[14,-84],[-1,-84],[100,-86],[22,-5],[37,-19],[6,-5],[9,-13],[20,-14],[19,-6],[23,0],[20,-4],[168,-128],[1,-1],[4,-4]],[[4096,2961],[-4,4],[-20,11],[-17,8],[-3,1],[-1,1],[-2,1],[-126,107],[-20,4],[-17,0],[-2,0],[-2,0],[-2,0],[-2,1],[-2,0],[-4,1],[-11,4],[-2,1],[-1,0],[-17,12],[0,1],[-2,2],[-7,10],[-6,6],[-37,18],[-17,4],[-2,0],[-2,1],[-1,1],[-99,85],[-2,3],[-1,1],[-1,2],[0,2],[-1,2],[5,75],[-14,85],[-24,69],[-4,9],[-30,40],[-1,1],[-1,2],[0,2],[0,2],[0,46],[0,14],[-3,10],[-33,41],[-9,2],[-11,-2],[-2,0],[-3,0],[-3,0],[-1,0],[-3,1],[-3,0],[-26,11],[-7,4],[-2,1],[-9,3],[-2,1],[-2,1],[-13,8],[-29,16],[-1,1],[-3,1],[-4,3],[-8,6],[-12,10],[-10,7],[-34,24],[-4,3],[-3,3],[-2,3],[-31,34]],[[3794,4041],[-2,-2],[-1,-1],[0,-2],[-1,-3],[-1,-1],[-3,-3],[-1,-2],[0,-1],[-1,-1],[-1,-28],[-2,-7],[-36,-48],[-1,-1],[-1,-4],[-3,-9],[-5,-10],[-1,-2],[-1,-2],[-2,-8],[-1,-1],[0,-1],[0,-2],[1,-1],[0,-1],[8,-19]],[[3766,3843],[-27,38]],[[3739,3881],[-6,33],[48,76],[2,7],[2,29],[4,6],[1,1],[1,4],[1,1],[3,3]],[[3794,4041],[1,0]],[[3804,4096],[-10,-55]],[[3795,4041],[1,1],[1,2],[4,10],[4,42]],[[148,732],[-148,-83]],[[148,732],[68,0],[33,45],[33,-18],[62,17],[111,95],[28,-6],[26,82],[-31,23]],[[4096,180],[-73,3],[-87,60],[-123,-61],[-28,25],[-230,-65],[-78,11]],[[3306,4096],[92,-66],[177,64],[163,-36],[55,38]],[[2142,3850],[424,112],[223,134]],[[2841,4096],[60,-114]],[[2850,3842],[-4,15],[-7,21],[-15,30],[-4,32],[13,97]],[[2837,3882],[14,-44],[7,-15],[58,-113],[18,-49],[9,-16],[42,-98],[28,-60]],[[3068,3266],[-4,27],[-33,114],[-14,70],[-12,31],[-68,152]],[[3014,3486],[17,-79],[15,-57],[18,-57],[8,-50],[41,-116]],[[3546,2555],[-14,98],[-1,3],[-19,25],[-30,48],[-126,79],[-57,62],[-9,33],[-2,2],[-2,2],[-19,17],[-5,14],[-8,8],[-2,4],[-1,1],[-2,1],[-1,1],[-5,1],[-21,-2],[-17,16],[-32,12],[-54,129]],[[3119,3109],[-1,4]],[[3118,3113],[-2,6]],[[3116,3119]],[[3116,3119],[-1,2]],[[3115,3121],[0,1],[-2,4],[-1,3]],[[3115,3121],[-2,5]],[[3117,3113],[2,-4]],[[3119,3109],[0,-3],[13,-43],[5,-15],[1,-2],[7,-16],[12,-22],[4,-5],[5,-13],[1,-2],[2,-2],[4,-6],[12,-11],[2,-1],[1,0],[1,-1],[2,0],[2,0],[9,2],[3,-1],[15,-15],[2,-2],[2,0],[1,0],[18,3],[6,-2],[3,-2],[2,-3],[0,-1],[8,-8],[3,-9],[1,-4],[1,-1],[22,-20],[8,-67],[185,-108],[30,-48],[1,-2],[18,-23],[1,-3],[14,-98]],[[3546,2555],[139,-234],[174,-188],[103,-438],[134,-284]],[[0,3319],[173,-8],[233,46],[95,197],[101,94],[112,60],[57,84],[117,19],[96,-23],[121,10],[88,-31],[143,33],[90,-50],[295,-1],[92,21],[34,32],[40,-5],[95,77],[142,-29],[442,117],[223,134]],[[2850,3842],[-4,15],[-7,21],[-15,30],[-4,32],[13,97]],[[2837,3882],[14,-44],[7,-15],[155,-336]],[[3068,3266],[-2,15],[-2,12],[-14,47],[-4,10],[-3,16],[-12,41],[-5,23],[-9,47],[-12,31],[-68,152]],[[3014,3486],[17,-79],[15,-57],[18,-57],[8,-50],[41,-116]],[[3294,2883],[-4,20],[-2,2],[-2,2],[-19,17],[-5,14],[-11,13],[-82,35],[-50,123]],[[3119,3109],[-1,4]],[[3118,3113],[-2,6]],[[3116,3119]],[[3116,3119],[-1,2]],[[3115,3121],[-3,8]],[[3115,3121],[-2,5]],[[3117,3113],[2,-4]],[[3119,3109],[0,-3],[13,-43],[5,-16],[8,-17],[12,-22],[4,-5],[5,-13],[1,-2],[2,-2],[4,-6],[12,-11],[2,-1],[1,0],[1,-1],[2,0],[2,0],[2,0],[6,2],[4,-1],[15,-15],[2,-2],[2,0],[1,0],[18,3],[7,-3],[4,-5],[8,-8],[3,-9],[1,-4],[1,-1],[22,-20],[2,-13],[0,-2],[3,-6]],[[1160,2033],[-362,116],[-279,144],[-316,109]],[[1842,2550],[45,69],[115,23],[99,-102],[98,-15],[35,-32],[111,28],[56,-25],[19,24],[61,-69],[86,-1],[124,-46],[42,-82],[-32,-51],[19,-78],[30,-23],[6,0],[6,3],[5,4],[2,2],[7,2],[3,0]],[[2779,2181],[0,-1]],[[2781,2180],[-2,0]],[[2779,2180],[-10,-1],[-1,-1],[-3,-3],[-3,-2],[-5,-3],[-1,0],[-3,-1],[-1,0],[-1,0]],[[2781,2180],[-1,0],[-1,1]],[[2794,2145],[-13,35]],[[2784,2130],[9,15]],[[2845,4092],[5,2]],[[2845,4092],[2,0],[1,1],[2,1],[1,1]],[[2886,4096],[148,-128],[668,-128],[394,-4]],[[2848,4071],[1,-2],[2,-1]],[[2848,4071],[2,-3],[1,0]],[[2892,4043],[-18,5],[-3,2],[0,2],[-2,3],[0,1],[-1,1],[-2,1],[-2,2],[-1,1],[-2,1],[-4,1],[-2,1],[-4,4]],[[2851,4068]],[[2851,4068],[-1,0],[0,1],[-2,2]],[[2848,4071],[3,-3]],[[2851,4068],[-2,3]],[[2851,4068],[4,-5],[9,-3],[5,-4],[2,-5],[1,-2],[1,-1],[1,0],[5,-2],[3,-1],[26,-4],[3,-1],[3,0],[2,1],[1,0],[3,0],[15,5],[60,21]],[[2878,4046]],[[2933,4046],[-36,-4]],[[2998,4068],[-3,-1]],[[2995,4067],[-51,-17],[-10,-4]],[[2998,4068],[-1,28]],[[2781,2180],[-1,0]],[[2780,2180],[-1,0]],[[2779,2180],[-10,-1],[-1,-1],[-3,-3],[-3,-2],[-5,-3],[-1,0],[-3,-1],[-1,0],[-35,26],[-98,4],[-60,50],[-149,-100]],[[2410,2149],[-1,-1]],[[2409,2148],[-10,-6]],[[2399,2142],[-4,-2]],[[2395,2140],[-77,12],[-34,-36],[-39,43],[-89,-44],[-45,8],[-23,-46],[-197,-64]],[[2395,2140],[3,2]],[[2398,2142],[2,1]],[[2400,2143],[9,5]],[[2399,2142],[-1,0]],[[2410,2149],[-1,-1],[-9,-5]],[[2779,2180],[0,1]],[[2779,2181],[-10,-2],[-17,-10]],[[2781,2180],[-1,0],[-1,1]],[[2870,2116],[-43,15],[-6,9],[1,4],[5,6],[1,2],[0,1],[0,2],[0,2],[0,1],[-1,1],[-1,1],[0,1],[-1,1],[-1,0],[-1,0],[-4,1],[-5,3],[-1,1],[-1,0],[-2,0],[-2,0],[-9,-2],[-5,1],[-3,2],[-2,5],[0,1],[-1,1],[-1,1],[-6,4]],[[2781,2180],[-1,0]],[[2781,2180],[7,-5],[3,-7],[3,-2],[5,-1],[13,2],[7,-4],[5,-1],[2,-2],[2,-7],[-1,-2],[-5,-7],[-1,-1],[0,-4],[2,-5],[1,-1],[4,-3]],[[2875,2111],[-5,5]],[[2870,2116],[4,-5]],[[2954,2037],[-79,74]],[[2875,2111],[-1,0]],[[2954,2037],[2,-1],[5,-2],[2,0],[1,0]],[[2964,2034],[-1,0],[-2,0],[-5,2],[-2,1]],[[2954,2037],[10,-3]],[[3145,1913],[-34,2],[-2,1],[-1,1],[-2,1],[-11,12],[-23,81],[-108,23]],[[2964,2034]],[[3206,1878],[-13,6],[-27,24],[-2,1],[-1,1],[-24,5],[-31,2]],[[3163,1910],[20,-17]],[[3206,1878],[11,-15]],[[3206,1878],[17,-24]],[[3222,1855],[-4,7]],[[3327,1840]],[[3327,1840],[-1,0]],[[3326,1840],[-1,0]],[[3325,1840]],[[3325,1840],[-1,0]],[[3324,1840]],[[3324,1840]],[[3324,1840],[-2,1]],[[3322,1841],[-1,0]],[[3321,1841],[-1,0]],[[3320,1841]],[[3320,1841],[-1,0]],[[3319,1841],[-1,0]],[[3318,1841],[-1,0]],[[3317,1841],[-1,-1]],[[3316,1840]],[[3316,1840],[-1,0]],[[3315,1840]],[[3315,1840],[-1,0]],[[3314,1840]],[[3314,1840],[-1,0]],[[3313,1840],[-2,0]],[[3311,1840],[-5,-1]],[[3306,1839],[-9,-1]],[[3297,1838],[-4,-1]],[[3293,1837],[-1,0]],[[3292,1837],[-1,0]],[[3291,1837],[-1,0]],[[3290,1837],[-3,1]],[[3287,1838],[-7,1]],[[3280,1839],[-14,3]],[[3266,1842],[-8,1]],[[3258,1843],[-1,0]],[[3257,1843],[-11,2]],[[3246,1845],[-1,0]],[[3245,1845],[-1,0]],[[3244,1845],[-4,1]],[[3240,1846],[-1,0]],[[3239,1846],[-2,1]],[[3237,1847],[-1,0]],[[3236,1847],[-3,1]],[[3233,1848],[-3,2]],[[3230,1850],[-1,1]],[[3229,1851],[-1,0]],[[3228,1851],[-1,0]],[[3227,1851]],[[3227,1851],[-1,0]],[[3226,1851]],[[3226,1851],[0,1]],[[3226,1852],[-1,0]],[[3225,1852]],[[3225,1852],[-1,1]],[[3224,1853]],[[3224,1853]],[[3224,1853],[-1,1]],[[3223,1854]],[[3223,1854],[-1,1]],[[3295,1896],[-5,6]],[[3317,1870],[-9,8]],[[3327,1840],[88,-24],[61,29]],[[3476,1845],[20,-4]],[[3496,1841],[72,-3],[306,-155],[162,11],[60,26]],[[3314,1840]],[[3314,1840],[0,1]],[[3314,1841],[1,0]],[[3315,1841],[1,0]],[[3316,1841],[1,0]],[[3317,1841],[1,0]],[[3318,1841]],[[3318,1841],[1,0]],[[3319,1841],[1,0]],[[3320,1841]],[[3320,1841],[1,0]],[[3321,1841],[3,0]],[[3324,1841]],[[3324,1841],[2,0]],[[3326,1841]],[[3326,1841],[0,-1]],[[3326,1840],[1,0]],[[3487,2959],[1,0]],[[3499,3036],[1,0]],[[3682,3237],[-122,-42],[-76,-182],[-5,-49],[29,-6]],[[3519,3064],[-1,0]],[[3536,3114],[0,-1]],[[3543,3146]],[[3548,3170],[0,-1]],[[3572,3207],[1,0]],[[3594,3218],[-1,-1]],[[3623,3210],[3,0]],[[3677,3223]],[[3682,3237],[2,-2]],[[3507,2958],[1,-1],[-1,1]],[[3645,3218],[-1,-1],[1,1]],[[458,1005],[77,88],[-60,101],[7,43],[-35,74],[-30,19],[-4,63],[58,94],[28,199],[-30,133],[17,91],[-30,58]],[[467,986],[-4,6]],[[463,992],[-2,3]],[[461,995],[-1,2]],[[460,997],[-3,4]],[[467,986],[12,-18]],[[474,976],[-7,10]],[[478,969],[-4,6]],[[3356,150],[-136,-3],[-277,215],[-76,3],[-34,45],[-59,13],[-21,45],[-91,3],[-88,-56],[-85,-8],[-51,13],[-89,79],[-37,-9],[-67,66],[-130,-26],[-74,55],[-174,-3],[-33,-28],[-104,27],[-22,-22]],[[3441,130],[-2,0],[-1,0],[-1,0],[-1,0],[-1,1],[-24,13],[-22,-1],[-9,-3],[-2,0],[-2,0],[-1,1],[-1,0],[-11,8],[-7,1]],[[3461,151],[-23,-21],[-27,14],[-55,6]],[[3436,114],[5,16]],[[3461,151],[-3,-4],[-2,-8],[-1,-2],[-1,-2],[-1,0],[-1,-1],[-11,-4]],[[3477,153],[-16,-2]],[[2845,4093],[7,3]],[[2850,4094],[1,1]],[[2851,4095],[1,1]],[[2852,4096]],[[2886,4096],[42,-51],[98,31],[358,-51],[191,69],[163,-36],[55,38]],[[2851,4096],[1,0]],[[3306,4096],[86,-65],[43,10]],[[3358,4070],[2,-3],[-1,1],[-1,2]],[[2845,4092],[5,2]],[[2845,4092],[2,0],[1,1],[2,1],[1,1]],[[2886,4096],[146,-128],[187,-43],[499,-87],[378,-2]],[[3487,2959],[1,0]],[[3499,3036],[1,0]],[[3682,3237],[-122,-42],[-76,-182],[-5,-49],[29,-6]],[[3519,3064],[-1,0]],[[3536,3114],[0,-1]],[[3543,3146]],[[3548,3170],[0,-1]],[[3572,3207],[1,0]],[[3594,3218],[-1,-1]],[[3623,3210],[3,0]],[[3677,3223]],[[3682,3237],[2,-2]],[[3507,2958],[1,-1],[-1,1]],[[3645,3218],[-1,-1],[1,1]],[[2845,4092],[5,2]],[[2845,4092],[2,0],[1,1],[2,1],[1,1]],[[2886,4096],[148,-128],[668,-128],[394,-4]],[[3213,2960],[-46,28],[-49,125]],[[3118,3113],[-2,6]],[[3116,3119]],[[3116,3119],[-1,2]],[[3115,3121],[-3,8]],[[3600,3491],[-12,-19],[-60,-56],[-8,-19],[-52,-43],[-45,-1],[-87,-94],[-154,-68],[-35,-61],[-32,-9]],[[3765,3721],[-1,-10],[-53,-37],[-1,-1],[-1,0],[-1,-2],[-85,-106]],[[3623,3565],[-29,-18],[1,-13],[13,-17],[1,-1],[1,0],[4,-2],[2,-2],[-1,-8],[-11,-7],[-16,-25],[-59,-55],[-1,-1],[-1,-1],[-1,-1],[0,-2]],[[3604,3522],[5,-5],[5,-3],[1,-1],[1,-1],[0,-6]],[[3736,3826],[0,-1]],[[3736,3825],[-1,-16]],[[3735,3809],[30,-88]],[[3765,3721],[1,-5],[-1,-3],[0,-1],[-2,-1],[-55,-40],[-85,-106]],[[3735,3809],[1,17]],[[3736,3826],[30,17]],[[3736,3825],[-2,-3],[0,-2],[-1,-3],[0,-2],[9,-36],[3,-10],[3,-13],[1,-2],[2,-5],[3,-8],[4,-8]],[[3758,3733],[6,-11]],[[3764,3722],[1,-1]],[[3765,3721]],[[1719,622],[6,-12]],[[1944,940],[-9,-7],[-3,-4],[-13,-23],[-5,-28],[-29,-26],[-31,-63],[-138,-116],[-5,-37],[10,-20]],[[1724,612],[29,-108],[109,-131],[-2,-78],[48,-60],[8,-98],[-30,-111],[-21,-26]],[[1725,610],[2,-4]],[[1955,946],[-12,-6]],[[1943,940],[-7,-6]],[[2794,2144],[-23,-50],[9,-115],[-65,-120],[23,-129],[-37,-75],[-73,-55],[-14,-64],[-70,-54],[-40,-84],[-72,-14],[-146,-94],[-32,-85],[-59,-34],[-80,-112],[-61,-21],[-20,-72],[-30,-26],[-48,6],[-2,0],[-2,-1],[-2,-1],[-1,0],[-2,-1],[-3,-3]],[[1944,940],[-1,0]],[[2794,2164],[15,85],[37,37],[4,20],[1,48],[12,18],[1,4],[0,24],[15,41],[0,2],[0,3],[-4,14],[0,7],[0,2],[0,2],[-15,29],[-1,2],[-1,1],[-43,41],[-5,6],[1,24],[0,1],[0,3],[-2,5],[-65,126],[-91,103],[-9,48],[-17,46],[2,6],[10,7],[1,2],[2,2],[3,24],[30,33]],[[2788,4095],[1,1]],[[2841,4096],[61,-111],[-119,-178],[-3,-133],[-61,-271],[8,-158],[-31,-225],[-51,-73],[-1,-1],[-1,-2],[0,-2],[-1,-19],[-3,-4],[-7,-5],[-2,-1],[-1,-1],[-1,-1],[-1,-3],[0,-1],[0,-2],[0,-1],[0,-8],[1,-1],[0,-1],[16,-34],[0,-3],[0,-15],[1,-2],[0,-2],[1,-4],[6,-20],[1,-2],[1,-3],[6,-12],[2,-2],[1,-2],[21,-17],[14,-35],[1,-2],[1,-1],[1,-1],[2,-1],[34,-20],[7,-7],[65,-126],[2,-8],[0,-3],[-2,-16],[0,-1],[0,-1],[1,-2],[0,-2],[1,-1],[1,-1],[3,-4],[44,-42],[2,-4],[3,-12],[0,-2],[1,-1],[10,-14],[0,-2],[0,-5],[0,-2],[4,-18],[-9,-25],[-6,-15],[-1,-2],[0,-4],[0,-4],[1,-16],[-1,-4],[-10,-14],[-1,-2],[-1,-2],[0,-4],[-2,-20],[1,-24],[-4,-20],[-16,-12],[-13,-14],[-6,-6],[-1,-2],[-2,-3],[0,-2],[-2,-9],[-6,-14],[0,-2],[0,-1],[-1,-13],[-1,-2],[-2,-4],[-7,-9],[-1,-1],[-1,-2],[0,-2],[-1,-3],[0,-1],[0,-2],[1,-1],[2,-6],[5,-11],[2,-4],[1,-8],[-16,-26]],[[2788,2136],[3,5]],[[2982,4076],[35,20]],[[2980,4096],[2,-20]],[[2835,4096],[-12,-25]],[[2814,4071],[9,0]],[[2814,4071],[-21,25]],[[2808,4066],[6,5]],[[2823,4071],[12,0],[18,-10]],[[2787,4061],[21,5]],[[2853,4061],[9,-5],[48,0],[24,5],[48,15]],[[2261,4045],[22,23]],[[2261,4045]],[[2283,4068],[8,8],[10,20]],[[2808,4066],[-3,-31]],[[3419,4086],[4,-15],[1,-10]],[[3416,4096],[3,-10]],[[3424,4061],[2,-21],[-3,-10]],[[2805,4035],[-6,-10]],[[2808,4020],[-3,15]],[[1789,4020],[21,30],[22,46]],[[2642,4009],[24,11],[66,20],[37,16],[18,5]],[[2623,4093],[0,3]],[[2642,4009],[-15,21],[-1,5]],[[2626,4035],[-5,15],[-3,21],[5,22]],[[3792,4096],[-8,-25],[-2,-12]],[[3782,4059],[-1,-9],[12,-51]],[[2979,4050],[-9,-66]],[[2850,4045],[30,-10],[39,-10],[39,-26],[12,-15]],[[2799,4025],[-21,-31],[-22,-26],[-27,-25]],[[3078,3943],[-33,0],[-15,-5]],[[2970,3984],[18,-16],[30,-20],[12,-10]],[[2817,3938],[-3,20],[-12,26],[6,36]],[[2729,3943],[-30,-16]],[[2699,3927],[-39,47],[-18,35]],[[3086,3943],[-8,0]],[[3213,3923],[-24,10],[-18,15],[-30,5],[-23,-9]],[[3118,3944],[-4,-1],[-28,0]],[[3216,3922],[-3,1]],[[384,4096],[-6,-61],[-15,-67],[-6,-61]],[[3423,4030],[-12,-26],[-30,-41],[-30,-61]],[[3351,3902],[-42,15],[-36,0],[-21,-5],[-36,10]],[[2459,3901],[27,6],[1,0]],[[2508,3915],[32,12],[12,11],[18,20],[36,26],[36,25]],[[2441,3897],[18,4]],[[2487,3907],[21,8]],[[2729,3943],[24,-21],[-3,-10],[-18,-26]],[[2732,3886],[-33,41]],[[1901,3881],[-9,16],[6,36],[-12,15],[-40,26],[-57,46]],[[2802,3876],[9,26],[6,36]],[[2360,3866],[40,15]],[[2400,3881],[41,16]],[[2360,3866],[-9,25],[-3,47],[-3,11]],[[2345,3949],[-3,14],[-9,16],[-18,5],[-24,5],[-24,20],[-12,31],[6,5]],[[2970,3984],[-12,-41],[-21,-36],[-30,-36],[-12,-5]],[[2817,3938],[21,-21],[21,-20],[36,-31]],[[2771,3864],[-39,22]],[[2796,3850],[-21,12]],[[2775,3862],[-4,2]],[[2802,3876],[9,-31]],[[2811,3845],[-15,5]],[[3793,3999],[0,-15],[-12,-36],[0,-21],[-6,-25],[-27,-46],[-15,-16]],[[2895,3866],[-33,-21],[-27,-5],[-24,5]],[[1916,3830],[-3,20],[-12,31]],[[2895,3866],[7,-10]],[[2909,3836],[1,-6]],[[2902,3856],[5,-6],[2,-14]],[[2345,3861],[15,5]],[[2141,3815],[81,25],[57,5],[30,5],[36,11]],[[1789,4020],[-18,-52],[-18,-30],[-18,-16],[-24,-20],[-27,-46],[-9,-16],[-27,-15],[-6,-10]],[[1901,3779],[42,10],[48,0],[54,10],[51,5],[45,11]],[[1901,3779],[12,25],[3,26]],[[2417,3799],[-2,-1]],[[2555,3850],[-25,-11]],[[2699,3927],[-60,-36],[-18,-9]],[[2415,3798],[-52,-30]],[[2530,3839],[-8,-4],[-54,-15],[-51,-21]],[[2621,3882],[-33,-16],[-33,-16]],[[2356,3817],[4,23],[0,26]],[[2363,3768],[-9,36],[2,13]],[[1642,3815],[0,-47]],[[1642,3768],[3,-15]],[[3376,3782],[-1,-3],[-14,-25]],[[3351,3902],[3,-26],[21,-56],[3,-26],[-2,-12]],[[3361,3754],[-4,-6]],[[3733,3840],[-12,-10],[-12,-21],[0,-25],[18,-46],[3,-16]],[[3422,3883],[-20,4]],[[3402,3887],[-24,4],[-27,11]],[[3730,3722],[-42,21],[-34,10],[-39,21],[-54,25],[-45,36],[-27,10],[-36,31],[-31,7]],[[921,3748],[49,5],[36,-10],[69,-5],[63,0],[42,-6],[66,-15],[54,-5]],[[1650,3742],[1,-3]],[[1645,3753],[5,-11]],[[1651,3739],[9,-22],[3,-20]],[[1663,3697],[39,5],[51,10],[30,15],[45,16],[34,20],[39,16]],[[1300,3712],[120,-15],[63,0],[36,5],[24,-5],[39,-6],[54,0],[27,6]],[[3312,3669],[-25,-22]],[[3287,3647],[-14,-12]],[[3357,3748],[-33,-46],[-9,-31],[-3,-2]],[[3030,3938],[8,-12]],[[3047,3914],[25,-33],[21,-23]],[[3038,3926],[9,-12]],[[3093,3858],[12,-13],[27,-30],[15,-26],[18,-15],[45,-52],[12,-15],[24,-41],[15,-16],[12,-15]],[[2604,3749],[-10,-11],[-10,-17]],[[2732,3886],[-22,-25]],[[2584,3721],[-8,-14],[-12,-36],[-21,-31],[-18,-15]],[[2710,3861],[-32,-36],[-66,-67],[-8,-9]],[[2525,3625],[-24,5],[-9,26],[-9,15],[-84,41],[-24,26],[-12,20],[0,10]],[[3273,3635],[-30,-15]],[[3730,3722],[-9,-25],[-27,-36],[-46,-52]],[[1913,3604],[-15,26],[-6,26],[3,41],[3,66],[3,16]],[[3853,3604],[-17,21]],[[3836,3625],[-4,5],[-30,36],[-30,41],[-42,15]],[[2645,3599],[-51,16],[-15,5],[-54,5]],[[2363,3768],[-78,-87],[-18,-31],[-12,-15],[-30,-31],[-30,-20]],[[1931,3573],[-18,31]],[[2195,3584],[-24,-21]],[[1663,3697],[9,-36],[6,-11],[36,-56],[33,-36]],[[3243,3620],[-21,-16],[-24,-10],[-27,-5],[-39,-5],[-39,0],[-30,0],[-24,-5],[-33,-26],[-21,-10],[-21,5],[-18,-5]],[[2921,3704],[-5,-43]],[[2910,3830],[3,-15],[12,-57],[0,-5]],[[2916,3661],[0,-5],[0,-21],[3,-15],[15,-36],[12,-41]],[[2925,3753],[0,-21],[-4,-28]],[[2946,3543],[-51,-5],[-42,5],[-36,-5],[-39,-11]],[[2811,3845],[6,-61],[0,-5]],[[2817,3779],[0,-98],[-3,-51],[-12,-46],[-24,-57]],[[2778,3527],[-34,-5]],[[2744,3522],[-15,0],[-21,21],[-24,36],[-39,20]],[[3883,3574],[-30,30]],[[4096,3507],[-18,20],[-24,5],[-69,-20],[-21,15],[-9,11],[-66,30],[-6,6]],[[2946,3543],[6,-21],[9,-56]],[[2525,3625],[-27,-36],[-21,-41],[-18,-41],[-12,-46]],[[3612,3565],[-15,-17],[-21,-16],[-16,-7]],[[3560,3525],[-32,-13],[-30,-21],[-42,-30]],[[3648,3609],[-36,-44]],[[3273,3635],[24,-20],[27,-11],[54,-25],[24,-26],[33,-67],[21,-25]],[[2051,3414],[-51,62],[-27,36],[-12,20],[-30,41]],[[357,3907],[-6,-87],[3,-21],[18,-56],[3,-16],[6,-51],[0,-77],[6,-20],[18,-57],[3,-36],[-6,-51],[-6,-31]],[[399,3407],[17,14]],[[396,3404],[3,3]],[[416,3421],[22,19],[57,36],[24,15],[48,26],[99,72],[27,31],[123,71],[15,6],[81,46],[9,5]],[[369,3399],[27,5]],[[2447,3461],[-93,-52],[-30,-15]],[[1747,3558],[18,-15],[15,-11],[36,-15],[33,-20],[52,-36],[39,-47],[27,-10],[15,-15],[9,0],[60,25]],[[2961,3466],[12,-52],[18,-25]],[[384,3379],[12,25]],[[369,3399],[-21,-5],[-36,-15],[-48,-16],[-57,-5],[-42,10]],[[2123,3373],[0,-20]],[[2171,3563],[-6,-10],[-18,-41],[-6,-21],[-3,-41],[-15,-56],[0,-21]],[[2123,3353],[-11,6]],[[2112,3359],[-25,14],[-27,31],[-9,10]],[[2778,3527],[-13,-36],[-3,-35],[-6,-103]],[[388,3371],[2,-3],[0,-2]],[[384,3379],[4,-8]],[[390,3366],[0,-18]],[[165,3368],[-57,11],[-30,0],[-78,-22]],[[2324,3394],[-24,-10],[-9,-5],[-18,-31],[-18,-16],[-42,-30]],[[2131,3348],[-8,5]],[[2213,3302],[-57,30],[-25,16]],[[3456,3461],[-24,-21],[-21,-15],[-48,-62],[-27,-31],[-36,-25],[-48,-31],[-24,-10]],[[3633,3249],[24,-14]],[[3456,3461],[30,-47],[24,-30],[21,-21],[18,-15],[45,-36],[9,-15],[9,-26],[9,-15],[12,-7]],[[2213,3302],[-21,-16],[-30,-15],[-39,-31],[-9,-10]],[[2110,3298],[-8,-32],[-18,-31],[0,-5]],[[2123,3353],[-8,-32]],[[2115,3321],[-4,-19],[-1,-4]],[[2084,3230],[17,0]],[[2101,3230],[13,0]],[[3228,3266],[-63,-16],[-39,6],[-21,-6],[-60,-30]],[[2991,3389],[3,-31],[6,-20],[33,-47],[3,-30],[9,-41]],[[2756,3353],[6,-46],[22,-72],[0,-15],[-3,-47]],[[3045,3220],[-39,-6],[-39,0],[-18,0],[-30,-15],[-39,-10],[-36,-5],[-63,-11]],[[2781,3173],[-25,0],[-45,6],[-39,-11]],[[2663,3122],[9,46]],[[2003,3170],[-40,-20]],[[2084,3230],[-8,-13]],[[1963,3150],[-14,-7],[-66,-26],[-52,-10],[-48,-10],[-18,0],[-117,-6],[-30,0],[-60,-5],[-18,-5]],[[2076,3217],[-1,-3],[-33,-25],[-39,-19]],[[2660,3081],[3,41]],[[2433,3193],[-1,1],[-45,20],[-54,21],[-37,17]],[[2652,3085],[-35,13]],[[2296,3252],[-29,14],[-54,36]],[[2617,3098],[-8,4],[-30,10],[-39,20],[-15,11],[-92,50]],[[2660,3081],[-8,4]],[[3828,3091],[17,-16]],[[3657,3235],[28,-21],[21,-5],[18,-21]],[[3724,3188],[36,-40],[57,-46],[11,-11]],[[3845,3075],[5,-4]],[[3045,3220],[6,-26],[9,-51],[-3,-21],[9,-15],[24,-41]],[[2084,3230],[-2,-13]],[[2082,3217],[-4,-28],[-42,-41],[-30,-36],[-30,-31],[-45,-41],[-12,-5]],[[2732,3025],[12,15],[6,41],[9,36],[16,36],[6,20]],[[551,3041],[31,-27],[15,-15]],[[390,3348],[3,-10],[24,-47],[3,-35],[12,-16],[33,-26],[9,-15],[6,-31],[6,-36],[9,-41],[15,-20],[36,-26],[5,-4]],[[3168,2930],[9,-8],[36,-20]],[[3090,3066],[6,-36],[21,-41],[18,-31],[33,-28]],[[2681,2896],[33,57],[18,41],[0,31]],[[3213,2902],[0,-1]],[[3213,2901],[-3,-15]],[[1161,2862],[-2,-1],[-33,-23]],[[1126,2838],[-42,-29],[-24,-10]],[[1540,3081],[-63,-36],[-144,-87],[-36,-20],[-36,-21],[-60,-31],[-40,-24]],[[1060,2799],[-48,-20]],[[906,2883],[3,-2],[52,-56],[50,-46]],[[597,2999],[21,-20],[12,-8]],[[630,2971],[21,-13],[27,-10],[48,0],[21,-10],[30,0],[24,10],[21,-5],[36,-31],[33,-21],[15,-8]],[[1011,2779],[1,0]],[[3850,3071],[27,-31],[69,-67],[30,-30],[39,-41],[30,-26],[36,-36],[15,-14]],[[1011,2778],[-7,-3]],[[1004,2775],[-71,-32],[-102,-52]],[[1012,2779],[-1,-1]],[[1919,3035],[-42,-31],[-22,-25],[-12,-31],[0,-31],[-3,-15],[-15,-16],[-33,-31],[-33,-35],[-12,-21],[-9,-20],[-12,-36],[-12,-52],[-15,-25],[-12,-31],[-9,-10]],[[3210,2886],[-3,-25],[-3,-52],[3,-51],[9,-67],[0,-36],[3,-66]],[[2690,2543],[3,77],[-6,30],[-3,57],[6,30],[0,67],[0,16],[-6,56],[-3,20]],[[1629,2568],[7,5]],[[1603,2537],[9,16],[17,15]],[[1636,2573],[24,21],[18,31]],[[1833,2622],[-5,-18],[-3,-31],[-6,-46]],[[1919,3035],[-15,-31],[-15,-41],[-6,-46],[-6,-21],[-28,-82],[-6,-35],[0,-16],[12,-41],[3,-26],[-3,-25],[-9,-16],[-12,-25],[-1,-8]],[[1819,2527],[-10,0]],[[1809,2527],[-14,0],[-24,10],[-21,6]],[[1603,2537],[-48,-5],[-48,-15],[-21,0],[-24,0],[-30,0],[-42,20],[-54,6],[-78,35],[-60,36],[-24,26],[-18,41],[-15,21],[-18,41],[-12,15],[-36,36],[-15,5]],[[1750,2543],[-9,0],[-51,-31]],[[1690,2512],[-39,31],[-36,0],[-12,-6]],[[1819,2527],[-1,-10]],[[1818,2517],[-5,-36]],[[3210,2886],[3,-15],[6,-31],[18,-26],[21,-20],[51,-46],[18,-21],[36,-61],[39,-72],[27,-41],[33,-46],[27,-36]],[[2705,2455],[-12,57],[-3,31]],[[831,2691],[-84,-46],[-96,-46],[-66,-36],[-21,-15],[-30,-31],[-27,-26],[-54,-41],[-45,-25]],[[1603,2537],[-78,-71],[-24,-16],[-60,-41],[-18,-15]],[[3489,2471],[33,-36],[39,-26],[27,-25]],[[408,2425],[-42,-26],[-27,-10],[-15,-21],[-21,-15],[-42,-21]],[[3219,2589],[6,-77],[0,-46],[12,-31],[0,-31],[-12,-36],[-21,-61]],[[2769,2302],[-16,30],[-18,41],[-15,46],[-15,36]],[[1813,2481],[24,-15],[18,-16],[22,-10],[27,-10],[30,0],[39,-11],[45,-15],[66,-31],[54,-20],[33,-5],[42,-16],[27,-5],[51,-20],[90,-31],[30,-5],[60,-11],[15,-5]],[[1813,2481],[-9,-56],[-18,-72],[-3,-46],[-9,-26],[-9,-36]],[[1423,2394],[-48,-41],[-93,-57],[-18,-15],[-9,-10],[-12,-41],[-9,-21]],[[1765,2245],[0,-20],[3,-11],[-15,-10]],[[261,2332],[-48,-20],[-132,-72],[-55,-21],[-26,-9]],[[1753,2204],[-21,-10],[-21,0],[-15,-10]],[[4096,2406],[-9,-12],[-36,-36],[-24,-26],[-18,-25],[-36,-52],[-12,-15],[-18,-15],[-39,-11],[-12,-5],[-42,-31]],[[3588,2384],[24,-26],[18,-26],[15,-10],[24,-15],[43,-11],[27,0],[18,-5],[21,-20],[72,-93]],[[2790,2251],[-6,14]],[[2814,2137],[3,16],[-3,36],[-5,11]],[[2784,2265],[-15,37]],[[2809,2200],[-16,45],[-3,6]],[[3850,2178],[39,-46]],[[2486,2255],[24,-5],[57,-15],[27,-21],[33,-41],[24,-20],[18,-21],[18,-15],[33,-16]],[[2790,2096],[6,21],[18,20]],[[1234,2209],[-18,-31],[-24,-30],[-51,-57]],[[2763,2086],[27,10]],[[2720,2101],[24,-10],[18,-5],[1,0]],[[3850,2178],[-45,-20],[-18,-10],[-54,-52],[-39,-30],[-25,-11],[-21,0],[-72,0],[-12,-5]],[[1141,2091],[-24,-25],[-24,-31]],[[1697,2167],[2,-35],[2,-3]],[[1696,2184],[1,-17]],[[1701,2129],[10,-22],[18,-11],[6,-20],[21,-10],[39,-11],[9,-10],[3,-41]],[[3204,2307],[0,-16],[12,-46],[0,-15],[-15,-41],[-33,-77],[-15,-26],[-9,-20],[3,-31],[-15,-31],[-9,-46],[-9,-26],[-9,-20]],[[2832,2066],[-15,35],[-3,36]],[[3105,1912],[-66,0],[-33,5],[-24,25],[-36,26],[-33,41],[-24,16],[-36,10],[-12,10],[-9,21]],[[3564,2050],[-18,-15],[-15,-26],[-18,-15],[-12,-21],[-6,-20],[-3,-26],[0,-36],[-9,-36]],[[2738,1886],[9,51],[-7,34]],[[2767,2037],[8,13],[15,46]],[[2708,1850],[9,21],[21,15]],[[2740,1971],[-2,7],[3,16],[26,43]],[[3245,1860],[-5,0],[-30,6],[-12,-5]],[[3349,1854],[-22,-4],[-14,0]],[[3198,1861],[-18,-6],[-24,11],[-33,35],[-18,11]],[[3313,1850],[-10,0],[-33,10],[-25,0]],[[3483,1855],[-126,0],[-8,-1]],[[3889,2132],[66,-102],[12,-16],[33,-36],[21,-46],[27,-41],[18,-20],[30,-26]],[[2669,1676],[0,10],[21,31],[12,36],[18,61],[-6,31],[-6,5]],[[1807,2004],[6,-26],[12,-15],[6,-21],[-12,-15],[-42,-31],[-9,-10],[-9,-31],[-6,-66],[-6,-36],[9,-31],[-3,-21],[-15,-35],[-9,-31]],[[3176,1622],[4,-23]],[[3105,1912],[-21,-36],[3,-16],[24,-35],[12,-47],[27,-71],[21,-57],[5,-28]],[[1093,2035],[-42,-46],[-33,-47],[-30,-41],[-40,-41],[-36,-41],[-27,-41],[-21,-30],[-24,-36],[-30,-62],[-33,-61],[-12,-36]],[[3180,1599],[0,-16]],[[3180,1583],[0,-41]],[[765,1553],[-9,-46],[-15,-41]],[[2285,1204],[42,15],[33,21],[60,51],[57,87],[15,41],[18,26],[21,5],[15,10],[24,41],[15,41],[12,47],[21,30],[51,57]],[[1729,1635],[3,-16],[12,-30],[18,-52],[3,-25],[6,-52],[-6,-20],[-24,-26],[-6,-20],[-15,-16],[-3,-25],[-6,-26],[-33,-46],[-27,-62],[-9,-25]],[[1642,1194],[27,-31]],[[0,1125],[23,-13],[49,-21],[42,-10],[60,-26],[12,-10]],[[3222,1035],[9,51],[-3,20],[3,57],[-3,20],[-12,26],[-24,26],[-9,20],[-6,72],[0,41],[3,46],[0,82],[0,46]],[[2066,989],[33,41],[27,20],[27,15],[15,16],[15,31],[27,41],[15,15],[24,21],[36,15]],[[2060,983],[6,6]],[[186,1045],[36,-26],[33,-15],[42,-15],[36,-11]],[[389,966],[16,-3],[18,-5]],[[333,978],[56,-12]],[[3962,953],[-22,0]],[[4096,999],[-9,0],[-27,-10],[-42,-21],[-21,-5],[-33,-10],[-2,0]],[[423,958],[15,-16]],[[405,914],[33,28]],[[366,896],[15,0],[21,16],[3,2]],[[3918,954],[4,4],[18,-5]],[[3498,886],[30,5],[54,0],[36,15],[45,31],[22,0],[27,-10],[39,-15],[30,-21],[21,-5],[15,0],[27,20],[39,6],[12,10],[12,20],[11,12]],[[438,942],[15,-25],[24,-21],[15,-9]],[[516,886]],[[492,887],[3,-1],[21,0]],[[516,886],[30,0]],[[615,871],[9,41],[15,46],[15,61],[9,52],[0,20],[3,62],[-3,36],[9,30],[6,41],[15,62],[24,82],[24,62]],[[546,886],[15,0],[54,-15]],[[3204,830],[13,1]],[[3217,831],[56,9],[42,5],[60,5],[33,10],[54,11],[36,15]],[[3204,830],[0,46]],[[3204,876],[0,5],[-12,61],[3,16],[21,36],[6,41]],[[3204,830],[-15,0],[-42,10],[-14,4]],[[3133,844],[-4,1]],[[222,773],[60,46],[21,11],[15,10],[27,41],[21,15]],[[3207,806],[-3,24]],[[3243,722],[-24,31],[-6,15],[-6,38]],[[615,871],[9,0],[57,-16],[51,-10],[39,-10],[69,-16],[27,-10],[27,-21],[61,-10],[42,-10],[42,-26],[12,5],[12,0],[12,-10],[3,-20],[21,-16],[45,-20],[18,-16]],[[2043,964],[2,1]],[[1771,665],[36,31],[45,57],[13,10],[42,51],[39,57],[27,30],[27,21],[39,36],[4,6]],[[2045,965],[15,18]],[[1675,634],[0,-20]],[[1669,1163],[30,-57],[15,-30],[6,-36],[-12,-62],[-6,-36],[6,-56],[-6,-10],[-21,-16],[-3,-15],[3,-26],[-6,-25],[3,-31],[3,-31],[3,-26],[-9,-41],[0,-31]],[[1162,665],[54,-51],[12,-10],[15,-5],[93,15],[18,0],[48,-10],[33,-5]],[[1699,599],[30,30],[38,33]],[[1767,662],[4,3]],[[3129,845],[-21,-5],[-15,-5],[-27,5],[-42,5],[-18,0],[-6,-5],[-15,-26],[-27,-15],[-33,-31],[-24,-62],[-12,-20],[-15,-5],[-12,-16],[-3,-20],[6,-41],[-3,-10],[-30,5],[-36,15],[-46,5],[-24,0],[-54,-10],[-42,10],[-30,0],[-51,-5],[-21,-10],[-27,-5],[-30,5],[-51,10],[-18,-5]],[[1696,594],[3,5]],[[1649,588],[20,0],[27,6]],[[1435,599],[78,-11],[45,0],[45,-5],[39,5],[7,0]],[[1699,599],[30,-31]],[[1696,594],[-27,-41],[-16,-15]],[[1653,538],[-2,-1]],[[2315,522],[15,15],[21,26],[30,31],[21,15]],[[222,773],[-36,-26],[-30,-30],[-18,-36],[-15,-16],[-27,-5],[-27,-20],[-15,-16],[-25,-20],[-24,-10],[-5,-1]],[[1729,568],[1,0]],[[1730,568],[32,10],[18,0],[39,-10],[33,-21],[34,-25],[27,-26],[21,-10],[39,-10],[18,0],[33,5],[66,31],[66,10],[30,0],[24,5],[51,-15],[39,0],[15,10]],[[3312,470],[-12,11],[0,15],[-15,62],[0,20],[-6,41],[-12,26],[-18,61],[-6,16]],[[1651,537],[-30,-25],[-39,-47],[-21,-25],[-33,-36],[-18,-31],[-3,-41],[-6,-26],[-12,-20],[-33,-41],[-3,-31]],[[3447,168],[-15,20],[-24,16],[-12,20],[-2,4]],[[3394,228],[-22,48],[-33,46],[-9,36],[-9,10],[6,61],[-3,26],[-12,15]],[[3462,147],[-15,21]],[[3493,130],[-7,2],[-24,15]],[[3609,81],[-15,10],[-60,26],[-41,13]],[[1453,214],[9,-62],[-6,-41],[0,-41],[9,-30],[9,-36]],[[1474,4],[2,-4]],[[554,0],[4,40],[9,66],[3,52],[0,77],[6,66],[-3,77],[3,41],[-6,93],[3,30],[0,31],[-9,41],[-9,26],[3,20],[6,26],[12,36],[24,77],[15,72]],[[3654,0],[-6,24],[-6,31],[-15,15],[-18,11]],[[1474,4],[-5,-4]],[[2536,4096],[-23,-15],[-27,11],[-12,4]],[[2690,2543],[-21,-31],[-6,-62],[0,-82],[3,-66],[0,-62],[3,-62],[-3,-41],[0,-107],[-3,-57],[-12,-56],[-9,-46],[3,-67],[0,-103],[-15,-76]],[[0,0],[0,1632],[0,2464],[3615,0],[481,0],[0,-4096],[-4096,0]],[[1354,1749],[137,105],[-2,56],[31,-2],[-15,21],[46,122],[-24,8],[-7,-24],[-13,-3],[-10,50],[49,3],[9,-32],[46,81],[86,35],[47,-9],[29,31],[27,-25],[41,14],[-12,-38],[-49,-31],[-16,37],[-97,-36],[3,23],[-36,-9],[-6,-30],[29,-4],[-113,-154],[43,-29],[-41,-61],[-32,12],[-2,-6],[8,-74],[16,29],[40,-36],[-41,-9],[24,-11],[-40,-61],[2,-49],[-66,15],[-91,91]],[[1424,1742],[38,-46],[35,24],[15,48],[-30,58],[-46,-40],[31,-55],[-20,-13],[-23,24]],[[231,2723],[32,49],[185,87],[47,50],[132,309],[40,43],[47,31],[79,-36],[41,-93],[-2,-111],[-164,-26],[-216,-309],[-32,-16],[-99,23],[-46,-27],[-39,3],[-5,23]],[[810,2994],[45,28],[-6,27],[49,-51],[-8,23],[37,17],[-11,24],[54,31],[23,-25],[-3,-152],[85,-63],[0,-25],[81,34],[58,2],[82,-64],[37,32],[84,-8],[50,-37],[24,49],[53,11],[-2,-29],[26,-7],[-14,-32],[45,-21],[-18,-29],[54,-76],[-41,-4],[0,-23],[47,-59],[-26,1],[-35,64],[9,47],[-29,30],[-44,-5],[-26,54],[-52,15],[-16,-20],[-51,35],[-17,-69],[26,-35],[-51,-30],[-4,-53],[-61,-8],[-5,40],[51,-27],[13,75],[-66,5],[-12,35],[30,18],[-56,49],[-51,10],[-11,-25],[-17,0],[-15,68],[-88,-32],[-29,-35],[-82,27],[-8,41],[-40,23],[41,26],[-14,31],[-85,24],[-10,48]],[[1420,3771],[55,25],[12,42],[40,4],[68,-45],[-29,-88],[-109,-1],[-37,63]],[[1365,1377],[18,62],[75,4],[62,-33],[25,39],[27,-11],[-27,-54],[-36,-10],[-37,-102],[-100,53],[20,28],[57,-27],[9,41],[-78,-14],[-15,24]],[[1365,1662],[38,31],[90,-74],[-3,-22],[-89,-40],[-7,32],[39,27],[-31,8],[-3,40],[-34,-2]],[[5,2984],[41,28],[13,-37],[24,18],[-8,25],[61,13],[-5,-25],[39,-41],[39,-14],[46,26],[20,-26],[-77,-67],[-133,-9],[-60,109]],[[50,3626],[28,35],[35,-19],[36,45],[49,-19],[33,14],[26,-6],[56,-99],[-25,-65],[-90,0],[-117,70],[-31,44]],[[69,0],[91,54],[19,-14],[10,48],[70,2],[1,-90],[-191,0]],[[988,944],[19,45],[90,14],[-10,45],[99,13],[5,75],[58,29],[-24,31],[70,0],[14,20],[-10,-34],[-24,-9],[24,2],[56,119],[50,-13],[40,-106],[25,13],[23,-21],[-24,-58],[-114,24],[19,-12],[-17,-38],[-35,23],[-25,-16],[-5,-51],[32,-29],[-25,-38],[-41,-7],[27,-52],[-24,7],[-3,-25],[47,-54],[-37,-24],[4,-24],[-65,1],[-3,23],[-19,-22],[-146,-5],[-43,52],[13,49],[-21,53]],[[3397,255],[47,-15],[2,-40],[32,14],[57,-28],[-18,-47],[-68,-24],[-35,16],[-26,40],[9,84]],[[393,1096],[156,-120],[-33,-90],[-105,6],[-32,111],[-73,69],[16,28],[24,-14],[33,28],[14,-18]],[[430,1375],[-27,15],[23,28],[17,-42],[-13,-1]],[[3221,841],[-18,-47],[-67,23],[-12,95],[67,-9],[30,-62]],[[3907,1004],[41,3],[16,-61],[-40,1],[-33,40],[16,17]],[[2044,964],[-23,-2],[6,31],[50,38],[-33,-67]],[[1722,727],[8,-28],[48,0],[-32,-111],[-33,-41],[-97,-14],[89,152],[-8,42],[25,0]],[[3935,641],[-28,15],[20,28],[29,-14],[-21,-29]],[[3179,1581],[-9,31],[23,40],[16,-38],[-30,-33]],[[3252,1886],[-12,-45],[-45,3],[5,36],[52,6]],[[395,1998],[37,11],[11,-11],[-11,-26],[-62,12],[0,55],[25,-41]],[[1970,2105],[35,-24],[-11,-54],[-19,13],[-5,65]],[[1841,2614],[46,31],[12,-81],[-62,-68],[-63,72],[17,26],[11,-43],[10,31],[-18,79],[47,-47]],[[2453,2534],[5,-25],[-87,-20],[30,62],[52,-17]],[[2750,1872],[-50,57],[34,12],[8,41],[41,-27],[-33,-83]],[[3283,1962],[1,-21],[65,-28],[0,-83],[-45,25],[-80,146],[44,9],[15,-48]],[[2758,2217],[83,-28],[60,16],[19,-126],[-24,-28],[-51,52],[-38,-107],[-16,41],[-41,0],[16,40],[-40,126],[65,69],[-1,-36],[-32,-19]],[[1657,2758],[-19,2],[-36,47],[40,-12],[15,-37]],[[1592,2868],[-21,13],[-3,43],[27,-17],[-3,-39]],[[3745,2811],[-14,49],[30,34],[-16,-83]],[[1988,3117],[-32,42],[46,15],[11,-30],[-25,-27]],[[2651,3095],[2,-21],[-42,8],[18,47],[22,-34]],[[3834,3060],[-8,41],[8,42],[27,-46],[-27,-37]],[[3737,3184],[-103,34],[-2,77],[49,-42],[80,-13],[-24,-56]],[[427,3421],[8,-27],[25,13],[-6,-32],[-67,-9],[16,55],[24,0]],[[2037,3338],[28,-34],[53,-7],[-8,83],[21,-12],[-2,-64],[-11,-7],[0,-55],[-41,-28],[-16,55],[-49,22],[25,47]],[[2727,3316],[-8,-23],[-25,16],[0,13],[-17,-13],[-16,13],[16,28],[17,-27],[33,-7]],[[1649,3739],[13,48],[35,-7],[-13,-39],[-35,-2]],[[2189,3588],[-47,13],[19,61],[54,-20],[-26,-54]],[[3850,3696],[41,-42],[-8,-83],[-65,14],[24,55],[-32,42],[40,14]],[[2938,3644],[-29,22],[9,40],[30,-23],[-10,-39]],[[3296,3641],[-20,13],[24,55],[16,-55],[-20,-13]],[[2280,4029],[-24,21],[-8,46],[36,-13],[-4,-54]],[[3822,4096],[-61,-55],[-24,28],[-32,-28],[-33,14],[16,41],[134,0]],[[3631,4096],[-18,-30],[-46,3],[-6,27],[70,0]],[[2531,4083],[9,-42],[-32,14],[-9,-42],[-24,28],[14,33],[42,9]],[[3341,4027],[-31,9],[-10,46],[30,-11],[11,-44]],[[3462,4096],[-16,-14],[8,-55],[-49,55],[57,14]],[[3219,4096],[-10,-34],[-33,34],[43,0]],[[2336,3780],[-40,14],[8,24],[29,-9],[3,-29]],[[2805,3673],[-22,-102],[-33,-28],[-32,70],[8,14],[32,-28],[-2,24],[-62,86],[48,-41],[24,97],[25,-14],[14,-78]],[[2598,3718],[-37,8],[-5,39],[49,-14],[-7,-33]],[[3357,3750],[-41,1],[9,69],[56,-42],[-24,-28]],[[1924,3849],[8,70],[32,27],[5,-24],[-45,-73]],[[2068,3890],[-15,42],[33,0],[-3,-29],[-15,-13]],[[3786,3834],[-33,0],[16,40],[13,-10],[4,-30]],[[2410,3868],[7,-74],[-32,55],[-35,-39],[-14,150],[74,-92]],[[3422,3875],[-21,13],[-4,42],[26,-19],[-1,-36]],[[3719,3873],[-18,48],[35,23],[11,-40],[-28,-31]],[[3044,4096],[-19,-55],[16,-42],[24,19],[-7,51],[105,13],[-41,-41],[-5,-64],[97,-32],[-2,-54],[-22,38],[-18,-11],[25,-63],[39,-21],[42,17],[10,-48],[-126,23],[-7,49],[-41,-14],[14,77],[-29,18],[-25,-26],[28,-103],[-13,-33],[-80,53],[21,25],[44,-32],[-33,90],[-40,-55],[-48,14],[-53,-34],[-4,-21],[73,14],[-8,-97],[-45,2],[-39,46],[-25,-29],[-94,22],[-2,54],[-14,15],[-18,-24],[-30,52],[-49,4],[4,-47],[-36,12],[40,128],[-19,10],[-62,-66],[25,-49],[-65,-47],[-25,82],[-32,14],[25,-48],[-17,-7],[-40,42],[16,41],[-24,55],[96,-66],[-7,39],[7,-15],[39,21],[6,104],[45,0],[-33,-97],[58,54],[-25,43],[423,0]],[[2772,3905],[3,-29],[-9,-28],[33,55],[-27,2]],[[2750,3433],[-48,28],[10,23],[33,-20],[5,-31]],[[3700,3553],[-44,-79],[0,-55],[-113,124],[16,28],[8,-27],[87,42],[51,-15],[-5,-18]],[[3527,2936],[-40,4],[-1,23],[26,10],[15,-37]],[[3262,2967],[54,-4],[-32,-69],[-23,27],[-66,-27],[-32,28],[32,55],[24,-27],[25,27],[18,-10]],[[2533,2967],[-22,28],[37,10],[-4,-25],[-11,-13]],[[3165,2979],[-42,23],[-1,44],[57,-41],[-14,-26]],[[2686,2991],[-57,27],[57,56],[40,-28],[-40,-55]],[[3674,3315],[62,76],[101,-32],[-10,-27],[-100,0],[-32,-33],[-21,16]],[[806,4096],[-18,-73],[-76,73],[94,0]],[[2201,3065],[40,129],[81,85],[129,-26],[2,-44],[-25,-8],[53,-70],[-17,-11],[43,-85],[-23,-80],[-92,49],[-86,0],[-105,61]],[[2445,2989],[3,-5],[17,-4],[-7,13],[-13,-4]]]}