{"objects":{"water":{"type":"GeometryCollection","geometries":[{"type":"Polygon","properties":{"kind":"lake","name":"Saksak Dagi","reservoir":true,"area":496724928,"sort_rank":200,"source":"naturalearthdata.com","min_zoom":0.0,"id":1055},"arcs":[[237]]},{"type":"MultiPolygon","properties":{"source":"naturalearthdata.com","kind":"ocean","area":1576712559132672,"sort_rank":200,"min_zoom":0.0,"id":1},"arcs":[[[238]],[[239]],[[240]],[[241]]]},{"type":"Polygon","properties":{"kind":"lake","name":"Ataturk Barajt","reservoir":true,"area":1041919552,"sort_rank":200,"source":"naturalearthdata.com","min_zoom":0.0,"id":1105},"arcs":[[242]]},{"type":"MultiPolygon","properties":{"kind":"lake","name":"Keban Baraji","reservoir":true,"area":1211101824,"sort_rank":200,"source":"naturalearthdata.com","min_zoom":0.0,"id":1210},"arcs":[[[243]],[[244]]]},{"type":"Point","properties":{"label_placement":true,"kind":"lake","name":"Keban Baraji","reservoir":true,"area":1211101824,"sort_rank":200,"source":"naturalearthdata.com","min_zoom":0.0,"id":1210},"coordinates":[4031,2092]},{"type":"Point","properties":{"label_placement":true,"kind":"lake","name":"Ataturk Barajt","reservoir":true,"area":1041919552,"sort_rank":200,"source":"naturalearthdata.com","min_zoom":0.0,"id":1105},"coordinates":[3681,991]},{"type":"Point","properties":{"label_placement":true,"kind":"lake","name":"Saksak Dagi","reservoir":true,"area":496724928,"sort_rank":200,"source":"naturalearthdata.com","min_zoom":0.0,"id":1055},"coordinates":[3398,1795]},{"type":"MultiLineString","properties":{"source":"naturalearthdata.com","kind":"ocean","sort_rank":205,"boundary":true,"min_zoom":0.0,"id":52},"arcs":[[245],[246],[247],[248]]},{"type":"LineString","properties":{"source":"naturalearthdata.com","kind":"lake","reservoir":true,"sort_rank":367,"boundary":true,"min_zoom":0.0,"id":1055},"arcs":[249]},{"type":"LineString","properties":{"source":"naturalearthdata.com","kind":"lake","reservoir":true,"sort_rank":367,"boundary":true,"min_zoom":0.0,"id":1105},"arcs":[250]},{"type":"MultiLineString","properties":{"source":"naturalearthdata.com","kind":"lake","reservoir":true,"sort_rank":367,"boundary":true,"min_zoom":0.0,"id":1210},"arcs":[[251],[252]]}]},"buildings":{"type":"GeometryCollection","geometries":[]},"places":{"type":"GeometryCollection","geometries":[{"type":"Point","properties":{"name:pt":"Turquia","name:cy":"Twrci","name:mt":"Turkija","name:ko":"\ud130\ud0a4","name:kn":"\u0c9f\u0cb0\u0ccd\u0c95\u0cbf","name:km":"\u1791\u17bd\u179a\u1782\u17b8","name:kl":"Tyrkia","name:cs":"Turecko","alt_name:eo":"Turkio","name:ki":"Uturuki","name:ku":"Tirkiye","name:ti":"\u1271\u122d\u12ad","name:ks":"\u062a\u064f\u0631\u06a9\u06cc","name:to":"Toake","name:sv":"Turkiet","name:or":"\u0b24\u0b41\u0b30\u0b4d\u0b15\u0b40","name:pl":"Turcja","name:ta":"\u0ba4\u0bc1\u0bb0\u0bc1\u0b95\u0bcd\u0b95\u0bbf","name:tg":"\u0422\u0443\u0440\u043a\u0438\u044f","name:ca":"Turquia","name:te":"\u0c1f\u0c30\u0c4d\u0c15\u0c40","name:hu":"T\u00f6r\u00f6korsz\u00e1g","name:ro":"Turcia","name:ka":"\u10d7\u10e3\u10e0\u10e5\u10d4\u10d7\u10d8","name:hr":"Turska","name:da":"Tyrkiet","name:de":"T\u00fcrkei","name:dz":"\u0f4a\u0f71\u0f62\u0f0b\u0f40\u0f72","source":"openstreetmap.org","name:lv":"Turcija","name:lt":"Turkija","name:uz":"Turkiya","name:kk":"\u0422\u04af\u0440\u043a\u0438\u044f","name:he":"\u05d8\u05d5\u05e8\u05e7\u05d9\u05d4","kind":"country","name:ur":"\u062a\u0631\u06a9\u06cc","name:lb":"Tierkei","name:la":"Turcia","name:lg":"Ttake","name:uk":"\u0422\u0443\u0440\u0435\u0447\u0447\u0438\u043d\u0430","name:hy":"\u0539\u0578\u0582\u0580\u0584\u056b\u0561","min_zoom":2.0,"name:li":"T\u00f6rkie\u00eb","name:ln":"Tiliki","name:lo":"\u0e95\u0eb8\u0e99\u0e81\u0eb5","population":79814871,"name:el":"\u03a4\u03bf\u03c5\u03c1\u03ba\u03af\u03b1","name:eo":"Turkujo","name:en":"Turkey","name":"T\u00fcrkiye","official_name":"T\u00fcrkiye Cumhuriyeti","name:ee":"T\u025bki nutome","name:th":"\u0e1b\u0e23\u0e30\u0e40\u0e17\u0e28\u0e15\u0e38\u0e23\u0e01\u0e35","name:gu":"\u0aa4\u0ac1\u0ab0\u0acd\u0a95\u0ab8\u0acd\u0aa4\u0abe\u0aa8","name:eu":"Turkia","name:et":"T\u00fcrgi","name:nl":"Turkije","name:es":"Turqu\u00eda","name:ia":"Turchia","name:rm":"Tirchia","name:rn":"Turukiya","name:az":"T\u00fcrkiy\u0259","name:id":"Turki","name:ms":"Turki","name:mr":"\u0924\u0941\u0930\u094d\u0915\u0940","name:ar":"\u062a\u0631\u0643\u064a\u0627","name:my":"\u1010\u1030\u101b\u1000\u102e","name:io":"Turkia","int_name":"Turkey","name:is":"Tyrkland","name:am":"\u1271\u122d\u12ad","name:it":"Turchia","name:vi":"Th\u1ed5 Nh\u0129 K\u1ef3","name:ru":"\u0422\u0443\u0440\u0446\u0438\u044f","id":424298326,"name:mk":"\u0422\u0443\u0440\u0446\u0438\u0458\u0430","name:af":"Turkye","name:zu":"i-Turkey","name:ha":"Turkiyya","name:nn":"Tyrkia","name:ff":"Turkii","name:fi":"Turkki","name:hi":"\u0924\u0941\u0930\u094d\u0915\u0940","name:mg":"Torkia","name:fo":"Turkaland","name:fr":"Turquie","name:fy":"Turkije","name:vo":"T\u00fcrk\u00e4n","name:zh":"\u571f\u8033\u5176","name:gv":"Yn Turkee","name:so":"Turki","name:sn":"Turkey","name:sl":"Tur\u010dija","name:sk":"Turecko","name:ja":"\u30c8\u30eb\u30b3","name:si":"\u0dad\u0dd4\u0dbb\u0dca\u0d9a\u0dd2\u0dba","name:fa":"\u062a\u0631\u06a9\u06cc\u0647","name:sg":"Turuk\u00efi","name:se":"Durka","name:ne":"\u091f\u0930\u094d\u0915\u0940","name:br":"Turkia","name:bs":"Turska","name:bm":"Turiki","name:bn":"\u09a4\u09c1\u09b0\u09b8\u09cd\u0995","name:bo":"\u0f4f\u0f74\u0f62\u0f40\u0f72\u0f0d","name:ml":"\u0d24\u0d41\u0d7c\u0d15\u0d4d\u0d15\u0d3f","name:no":"Tyrkia","name:sw":"Uturuki","name:be":"\u0422\u0443\u0440\u0446\u044b\u044f","name:bg":"\u0422\u0443\u0440\u0446\u0438\u044f","name:sr":"\u0422\u0443\u0440\u0441\u043a\u0430","name:sq":"Turqi","name:ga":"An Tuirc","name:gd":"An Tuirc","name:gl":"Turqu\u00eda","name:yo":"Or\u00edl\u1eb9\u0301\u00e8de T\u1ecd\u1ecdki","name:ak":"T\u025b\u025bki"},"coordinates":[856,2208]},{"type":"Point","properties":{"kind":"region","name":"Ni\u011fde","kind_detail":"province","source":"openstreetmap.org","min_zoom":4.0,"name:uk":"\u041d\u0456\u0433\u0434\u0435","name:ru":"\u041d\u0438\u0433\u0434\u0435","id":2978689324},"coordinates":[696,1373]},{"type":"Point","properties":{"kind":"region","name":"Nev\u015fehir","kind_detail":"province","source":"openstreetmap.org","min_zoom":4.0,"name:uk":"\u041d\u0435\u0432\u0448\u0435\u0445\u0456\u0440","name:ru":"\u041d\u0435\u0432\u0448\u0435\u0445\u0438\u0440","id":2978689325},"coordinates":[706,1987]},{"type":"Point","properties":{"kind":"region","name":"Kayseri","kind_detail":"province","source":"openstreetmap.org","min_zoom":4.0,"name:uk":"\u041a\u0430\u0439\u0441\u0435\u0440\u0456","name:ru":"\u041a\u0430\u0439\u0441\u0435\u0440\u0438","id":2978689327},"coordinates":[1314,1926]},{"type":"Point","properties":{"kind":"region","name":"K\u0131r\u015fehir","kind_detail":"province","source":"openstreetmap.org","min_zoom":4.0,"name:uk":"\u041a\u0438\u0440\u0448\u0435\u0445\u0456\u0440","name:ru":"\u041a\u044b\u0440\u0448\u0435\u0445\u0438\u0440","id":2978689328},"coordinates":[274,2554]},{"type":"Point","properties":{"kind":"region","name":"K\u0131r\u0131kkale","kind_detail":"province","source":"openstreetmap.org","min_zoom":4.0,"name:uk":"\u041a\u0438\u0440\u0438\u043a\u043a\u0430\u043b\u0435","name:ru":"\u041a\u044b\u0440\u044b\u043a\u043a\u0430\u043b\u0435","id":3042002359},"coordinates":[57,3074]},{"type":"Point","properties":{"kind":"region","name":"Ad\u0131yaman","kind_detail":"province","min_zoom":4.0,"source":"openstreetmap.org","name:ku":"Sems\u00fbr","name:uk":"\u0410\u0434\u0438\u044f\u043c\u0430\u043d","name:ru":"\u0410\u0434\u044b\u044f\u043c\u0430\u043d","id":1752934106},"coordinates":[3323,1114]},{"type":"Point","properties":{"kind":"region","name":"\u015eanl\u0131urfa","kind_detail":"province","min_zoom":4.0,"source":"openstreetmap.org","name:ku":"Riha","name:uk":"\u0428\u0430\u043d\u043b\u0438\u0443\u0440\u0444\u0430","name:ru":"\u0428\u0430\u043d\u043b\u044b\u0443\u0440\u0444\u0430","id":1827496459},"coordinates":[3853,618]},{"type":"Point","properties":{"kind":"region","name":"Kilis","kind_detail":"province","min_zoom":4.0,"source":"openstreetmap.org","name:ku":"Kil\u00ees","name:uk":"\u041a\u0456\u043b\u0456\u0441","name:ru":"\u041a\u0438\u043b\u0438\u0441","id":1827525820},"coordinates":[2470,170]},{"type":"Point","properties":{"kind":"region","name":"Kahramanmara\u015f","kind_detail":"province","min_zoom":4.0,"source":"openstreetmap.org","name:ku":"Mere\u015f","name:uk":"\u041a\u0430\u0445\u0440\u0430\u043c\u0430\u043d\u043c\u0430\u0440\u0430\u0448","name:ru":"\u041a\u0430\u0445\u0440\u0430\u043c\u0430\u043d\u043c\u0430\u0440\u0430\u0448","id":1827529039},"coordinates":[2243,1108]},{"type":"Point","properties":{"kind":"region","name":"Osmaniye","kind_detail":"province","source":"openstreetmap.org","min_zoom":4.0,"name:uk":"\u041e\u0441\u043c\u0430\u043d\u0456\u0454","name:ru":"\u041e\u0441\u043c\u0430\u043d\u0438\u0435","id":3042002360},"coordinates":[1856,611]},{"type":"Point","properties":{"kind":"region","name":"Adana","kind_detail":"province","name:he":"\u05d0\u05d3\u05e0\u05d4","min_zoom":4.0,"source":"openstreetmap.org","name:ku":"Edene","name:uk":"\u0410\u0434\u0430\u043d\u0430","name:ru":"\u0410\u0434\u0430\u043d\u0430","name:zh":"\u963f\u8fbe\u7eb3\u7701","id":1752934105},"coordinates":[1273,510]},{"type":"Point","properties":{"kind":"region","name":"Gaziantep","kind_detail":"province","min_zoom":4.0,"source":"openstreetmap.org","name:ku":"D\u00eelok","name:uk":"\u0490\u0430\u0437\u0456\u0430\u043d\u0442\u0435\u043f","name:ru":"\u0413\u0430\u0437\u0438\u0430\u043d\u0442\u0435\u043f","id":1827524661},"coordinates":[2663,345]},{"type":"Point","properties":{"kind":"region","name":"Mersin","kind_detail":"province","source":"openstreetmap.org","min_zoom":4.0,"name:uk":"\u041c\u0435\u0440\u0441\u0456\u043d","name:ru":"\u041c\u0435\u0440\u0441\u0438\u043d","id":2794085610},"coordinates":[159,220]},{"type":"Point","properties":{"kind":"region","name":"Aksaray","kind_detail":"province","source":"openstreetmap.org","min_zoom":4.0,"name:uk":"\u0410\u043a\u0441\u0430\u0440\u0430\u0439","name:ru":"\u0410\u043a\u0441\u0430\u0440\u0430\u0439","id":2978689326},"coordinates":[108,1715]},{"type":"Point","properties":{"kind":"region","name":"Erzincan","kind_detail":"province","min_zoom":4.0,"source":"openstreetmap.org","name:ku":"Ezirgan","name:uk":"\u0415\u0440\u0437\u0456\u043d\u0434\u0436\u0430\u043d","name:ru":"\u042d\u0440\u0437\u0438\u043d\u0434\u0436\u0430\u043d","id":1827513806},"coordinates":[3970,2813]},{"type":"Point","properties":{"kind":"region","name":"Giresun","kind_detail":"province","source":"openstreetmap.org","min_zoom":4.0,"name:uk":"\u0490\u0456\u0440\u0435\u0441\u0443\u043d","name:ru":"\u0413\u0438\u0440\u0435\u0441\u0443\u043d","id":2794065688},"coordinates":[3471,3791]},{"type":"Point","properties":{"kind":"region","name":"G\u00fcm\u00fc\u015fhane","kind_detail":"province","source":"openstreetmap.org","min_zoom":4.0,"name:uk":"\u0490\u044e\u043c\u044e\u0448\u0445\u0430\u043d\u0435","name:ru":"\u0413\u044e\u043c\u044e\u0448\u0445\u0430\u043d\u0435","id":2794087160},"coordinates":[4048,3373]},{"type":"Point","properties":{"kind":"region","name":"Malatya","kind_detail":"province","min_zoom":4.0,"source":"openstreetmap.org","name:ku":"Melet\u00ee","name:uk":"\u041c\u0430\u043b\u0430\u0442\u044c\u044f","name:ru":"\u041c\u0430\u043b\u0430\u0442\u044c\u044f","id":1827493431},"coordinates":[3170,1761]},{"type":"Point","properties":{"kind":"region","name":"Sivas","kind_detail":"province","min_zoom":4.0,"source":"openstreetmap.org","name:ku":"S\u00eawas","name:uk":"\u0421\u0456\u0432\u0430\u0441","name:ru":"\u0421\u0438\u0432\u0430\u0441","id":1827540533},"coordinates":[2440,2637]},{"type":"Point","properties":{"kind":"region","name":"Ordu","kind_detail":"province","source":"openstreetmap.org","min_zoom":4.0,"name:uk":"\u041e\u0440\u0434\u0443","name:ru":"\u041e\u0440\u0434\u0443","id":2874047956},"coordinates":[2664,3955]},{"type":"Point","properties":{"kind":"region","name:en":"Tokat","name":"Tokat \u0130li","name:tr":"Tokat","kind_detail":"province","source":"openstreetmap.org","min_zoom":4.0,"name:uk":"\u0422\u043e\u043a\u0430\u0442","name:ru":"\u0422\u043e\u043a\u0430\u0442","id":2894839376},"coordinates":[2042,3486]},{"type":"Point","properties":{"kind":"region","name":"Amasya","kind_detail":"province","source":"openstreetmap.org","min_zoom":4.0,"name:uk":"\u0410\u043c\u0430\u0441\u044c\u044f","name:ru":"\u0410\u043c\u0430\u0441\u044c\u044f","id":1752934108},"coordinates":[1473,3794]},{"type":"Point","properties":{"kind":"region","name":"Yozgat","kind_detail":"province","source":"openstreetmap.org","min_zoom":4.0,"name:uk":"\u0419\u043e\u0437\u0433\u0430\u0442","name:ru":"\u0419\u043e\u0437\u0433\u0430\u0442","id":2952091624},"coordinates":[1035,2914]},{"type":"Point","properties":{"name:el":"\u03a4\u03c3\u03bf\u03c1\u03bf\u03cd\u03bc","kind":"region","name":"\u00c7orum","name:ka":"\u10e9\u10dd\u10e0\u10e3\u10db\u10d8\u10e1 \u10de\u10e0\u10dd\u10d5\u10d8\u10dc\u10ea\u10d8\u10d0","name:fa":"\u0627\u0633\u062a\u0627\u0646 \u0686\u0648\u0631\u0648\u0645","kind_detail":"province","source":"openstreetmap.org","min_zoom":4.0,"name:uk":"\u0427\u043e\u0440\u0443\u043c","name:hy":"\u0549\u0578\u0580\u0578\u0582\u0574","name:ru":"\u0427\u043e\u0440\u0443\u043c","name:zh":"\u4e54\u9c81\u59c6\u7701","id":4954410573},"coordinates":[711,3713]},{"type":"Point","properties":{"source":"naturalearthdata.com","kind":"locality","name":"Adana","population":1293000,"region_capital":true,"min_zoom":5.0,"id":6290},"coordinates":[1142,373]},{"type":"Point","properties":{"source":"naturalearthdata.com","kind":"locality","name":"Gaziantep","population":1044000,"region_capital":true,"min_zoom":6.0,"id":5609},"coordinates":[2646,448]},{"type":"Point","properties":{"source":"naturalearthdata.com","kind":"locality","name":"Kayseri","population":592840,"region_capital":true,"min_zoom":6.0,"id":5552},"coordinates":[1267,1998]},{"type":"Point","properties":{"source":"naturalearthdata.com","kind":"locality","name":"Sanliurfa","population":449549,"region_capital":true,"min_zoom":6.0,"id":4960},"coordinates":[3674,535]}]},"transit":{"type":"GeometryCollection","geometries":[{"type":"LineString","properties":{"kind":"train","name":"Ankara - Sivas H\u0131zl\u0131 Tren Hatt\u0131","sort_rank":275,"source":"openstreetmap.org","min_zoom":6.0,"operator":"DDY","id":-7001049,"osm_relation":true},"arcs":[236]}]},"pois":{"type":"GeometryCollection","geometries":[]},"boundaries":{"type":"GeometryCollection","geometries":[{"type":"MultiLineString","properties":{"source":"naturalearthdata.com","kind":"country","sort_rank":262,"kind_detail":"2","min_zoom":0.0,"id":250},"arcs":[[0],[1],[2],[3],[4],[5],[6],[7],[8],[9],[10]]},{"type":"LineString","properties":{"source":"naturalearthdata.com","kind":"region","sort_rank":256,"kind_detail":"4","min_zoom":6.0,"id":6131},"arcs":[11]},{"type":"LineString","properties":{"source":"naturalearthdata.com","kind":"region","sort_rank":256,"kind_detail":"4","min_zoom":6.0,"id":79},"arcs":[12]},{"type":"MultiLineString","properties":{"source":"naturalearthdata.com","kind":"region","sort_rank":256,"kind_detail":"4","min_zoom":6.0,"id":1461},"arcs":[[13],[14],[15]]},{"type":"MultiLineString","properties":{"source":"naturalearthdata.com","kind":"region","sort_rank":256,"kind_detail":"4","min_zoom":6.0,"id":1462},"arcs":[[16],[17],[18],[19]]},{"type":"LineString","properties":{"source":"naturalearthdata.com","kind":"region","sort_rank":256,"kind_detail":"4","min_zoom":6.0,"id":1463},"arcs":[20]},{"type":"MultiLineString","properties":{"source":"naturalearthdata.com","kind":"region","sort_rank":256,"kind_detail":"4","min_zoom":6.0,"id":1466},"arcs":[[21],[22]]},{"type":"MultiLineString","properties":{"source":"naturalearthdata.com","kind":"region","sort_rank":256,"kind_detail":"4","min_zoom":6.0,"id":1467},"arcs":[[23],[24],[25],[26],[27]]},{"type":"LineString","properties":{"source":"naturalearthdata.com","kind":"region","sort_rank":256,"kind_detail":"4","min_zoom":6.0,"id":1469},"arcs":[28]},{"type":"MultiLineString","properties":{"source":"naturalearthdata.com","kind":"region","sort_rank":256,"kind_detail":"4","min_zoom":6.0,"id":1536},"arcs":[[29],[30],[31]]},{"type":"MultiLineString","properties":{"source":"naturalearthdata.com","kind":"region","sort_rank":256,"kind_detail":"4","min_zoom":6.0,"id":5998},"arcs":[[32],[33],[34],[35],[36]]},{"type":"LineString","properties":{"source":"naturalearthdata.com","kind":"region","sort_rank":256,"kind_detail":"4","min_zoom":6.0,"id":5999},"arcs":[37]},{"type":"LineString","properties":{"source":"naturalearthdata.com","kind":"region","sort_rank":256,"kind_detail":"4","min_zoom":6.0,"id":6000},"arcs":[38]},{"type":"LineString","properties":{"source":"naturalearthdata.com","kind":"region","sort_rank":256,"kind_detail":"4","min_zoom":6.0,"id":6003},"arcs":[39]},{"type":"LineString","properties":{"source":"naturalearthdata.com","kind":"region","sort_rank":256,"kind_detail":"4","min_zoom":6.0,"id":6004},"arcs":[40]},{"type":"LineString","properties":{"source":"naturalearthdata.com","kind":"region","sort_rank":256,"kind_detail":"4","min_zoom":6.0,"id":6005},"arcs":[41]},{"type":"MultiLineString","properties":{"source":"naturalearthdata.com","kind":"region","sort_rank":256,"kind_detail":"4","min_zoom":6.0,"id":6009},"arcs":[[42],[43],[44],[45],[46],[47],[48]]},{"type":"MultiLineString","properties":{"source":"naturalearthdata.com","kind":"region","sort_rank":256,"kind_detail":"4","min_zoom":6.0,"id":6010},"arcs":[[49],[50],[51],[52],[53]]},{"type":"MultiLineString","properties":{"source":"naturalearthdata.com","kind":"region","sort_rank":256,"kind_detail":"4","min_zoom":6.0,"id":6013},"arcs":[[54],[55]]},{"type":"MultiLineString","properties":{"source":"naturalearthdata.com","kind":"region","sort_rank":256,"kind_detail":"4","min_zoom":6.0,"id":6014},"arcs":[[56],[57],[58],[59]]},{"type":"LineString","properties":{"source":"naturalearthdata.com","kind":"region","sort_rank":256,"kind_detail":"4","min_zoom":6.0,"id":6015},"arcs":[60]},{"type":"MultiLineString","properties":{"source":"naturalearthdata.com","kind":"region","sort_rank":256,"kind_detail":"4","min_zoom":6.0,"id":6016},"arcs":[[61],[62],[63],[64]]},{"type":"LineString","properties":{"source":"naturalearthdata.com","kind":"region","sort_rank":256,"kind_detail":"4","min_zoom":6.0,"id":6017},"arcs":[65]},{"type":"MultiLineString","properties":{"source":"naturalearthdata.com","kind":"region","sort_rank":256,"kind_detail":"4","min_zoom":6.0,"id":6018},"arcs":[[66],[67],[68]]},{"type":"MultiLineString","properties":{"source":"naturalearthdata.com","kind":"region","sort_rank":256,"kind_detail":"4","min_zoom":6.0,"id":6019},"arcs":[[69],[70],[71],[72],[73]]},{"type":"MultiLineString","properties":{"source":"naturalearthdata.com","kind":"region","sort_rank":256,"kind_detail":"4","min_zoom":6.0,"id":6020},"arcs":[[74],[75],[76]]},{"type":"MultiLineString","properties":{"source":"naturalearthdata.com","kind":"region","sort_rank":256,"kind_detail":"4","min_zoom":6.0,"id":6021},"arcs":[[77],[78],[79],[80],[81],[82],[83]]},{"type":"MultiLineString","properties":{"source":"naturalearthdata.com","kind":"region","sort_rank":256,"kind_detail":"4","min_zoom":6.0,"id":6022},"arcs":[[84],[85]]},{"type":"LineString","properties":{"source":"naturalearthdata.com","kind":"region","sort_rank":256,"kind_detail":"4","min_zoom":6.0,"id":6023},"arcs":[86]},{"type":"LineString","properties":{"source":"naturalearthdata.com","kind":"region","sort_rank":256,"kind_detail":"4","min_zoom":6.0,"id":6024},"arcs":[87]},{"type":"LineString","properties":{"source":"naturalearthdata.com","kind":"region","sort_rank":256,"kind_detail":"4","min_zoom":6.0,"id":6025},"arcs":[88]},{"type":"MultiLineString","properties":{"source":"naturalearthdata.com","kind":"region","sort_rank":256,"kind_detail":"4","min_zoom":6.0,"id":6026},"arcs":[[89],[90],[91],[92],[93],[94]]},{"type":"MultiLineString","properties":{"source":"naturalearthdata.com","kind":"region","sort_rank":256,"kind_detail":"4","min_zoom":6.0,"id":6027},"arcs":[[95],[96],[97],[98]]},{"type":"LineString","properties":{"source":"naturalearthdata.com","kind":"region","sort_rank":256,"kind_detail":"4","min_zoom":6.0,"id":6028},"arcs":[99]},{"type":"MultiLineString","properties":{"source":"naturalearthdata.com","kind":"region","sort_rank":256,"kind_detail":"4","min_zoom":6.0,"id":6032},"arcs":[[100],[101],[102],[103],[104],[105],[106],[107],[108]]},{"type":"MultiLineString","properties":{"source":"naturalearthdata.com","kind":"region","sort_rank":256,"kind_detail":"4","min_zoom":6.0,"id":6033},"arcs":[[109],[110],[111],[112],[113],[114]]},{"type":"LineString","properties":{"source":"naturalearthdata.com","kind":"region","sort_rank":256,"kind_detail":"4","min_zoom":6.0,"id":6042},"arcs":[115]},{"type":"LineString","properties":{"source":"naturalearthdata.com","kind":"region","sort_rank":256,"kind_detail":"4","min_zoom":6.0,"id":6043},"arcs":[116]},{"type":"LineString","properties":{"source":"naturalearthdata.com","kind":"region","sort_rank":256,"kind_detail":"4","min_zoom":6.0,"id":6044},"arcs":[117]},{"type":"LineString","properties":{"source":"naturalearthdata.com","kind":"region","sort_rank":256,"kind_detail":"4","min_zoom":6.0,"id":6045},"arcs":[118]},{"type":"LineString","properties":{"source":"naturalearthdata.com","kind":"region","sort_rank":256,"kind_detail":"4","min_zoom":6.0,"id":6046},"arcs":[119]},{"type":"MultiLineString","properties":{"source":"naturalearthdata.com","kind":"region","sort_rank":256,"kind_detail":"4","min_zoom":6.0,"id":6047},"arcs":[[120],[121],[122]]},{"type":"MultiLineString","properties":{"source":"naturalearthdata.com","kind":"region","sort_rank":256,"kind_detail":"4","min_zoom":6.0,"id":6049},"arcs":[[123],[124],[125],[126],[127]]},{"type":"LineString","properties":{"source":"naturalearthdata.com","kind":"region","sort_rank":256,"kind_detail":"4","min_zoom":6.0,"id":6050},"arcs":[128]},{"type":"MultiLineString","properties":{"source":"naturalearthdata.com","kind":"region","sort_rank":256,"kind_detail":"4","min_zoom":6.0,"id":6051},"arcs":[[129],[130],[131]]},{"type":"MultiLineString","properties":{"source":"naturalearthdata.com","kind":"region","sort_rank":256,"kind_detail":"4","min_zoom":6.0,"id":6052},"arcs":[[132],[133],[134],[135],[136]]},{"type":"LineString","properties":{"source":"naturalearthdata.com","kind":"region","sort_rank":256,"kind_detail":"4","min_zoom":6.0,"id":6053},"arcs":[137]},{"type":"MultiLineString","properties":{"source":"naturalearthdata.com","kind":"region","sort_rank":256,"kind_detail":"4","min_zoom":6.0,"id":6054},"arcs":[[138],[139],[140],[141],[142],[143],[144],[145],[146],[147],[148]]},{"type":"MultiLineString","properties":{"source":"naturalearthdata.com","kind":"region","sort_rank":256,"kind_detail":"4","min_zoom":6.0,"id":6090},"arcs":[[149],[150],[151]]},{"type":"MultiLineString","properties":{"source":"naturalearthdata.com","kind":"region","sort_rank":256,"kind_detail":"4","min_zoom":6.0,"id":6091},"arcs":[[152],[153]]},{"type":"LineString","properties":{"source":"naturalearthdata.com","kind":"region","sort_rank":256,"kind_detail":"4","min_zoom":6.0,"id":6112},"arcs":[154]},{"type":"LineString","properties":{"source":"naturalearthdata.com","kind":"region","sort_rank":256,"kind_detail":"4","min_zoom":6.0,"id":6113},"arcs":[155]},{"type":"MultiLineString","properties":{"source":"naturalearthdata.com","kind":"region","sort_rank":256,"kind_detail":"4","min_zoom":6.0,"id":6114},"arcs":[[156],[157]]},{"type":"MultiLineString","properties":{"source":"naturalearthdata.com","kind":"region","sort_rank":256,"kind_detail":"4","min_zoom":6.0,"id":6121},"arcs":[[158],[159],[160]]},{"type":"MultiLineString","properties":{"source":"naturalearthdata.com","kind":"region","sort_rank":256,"kind_detail":"4","min_zoom":6.0,"id":6122},"arcs":[[161],[162],[163]]},{"type":"LineString","properties":{"source":"naturalearthdata.com","kind":"region","sort_rank":256,"kind_detail":"4","min_zoom":6.0,"id":6123},"arcs":[164]},{"type":"MultiLineString","properties":{"source":"naturalearthdata.com","kind":"region","sort_rank":256,"kind_detail":"4","min_zoom":6.0,"id":6124},"arcs":[[165],[166],[167],[168],[169]]},{"type":"MultiLineString","properties":{"source":"naturalearthdata.com","kind":"region","sort_rank":256,"kind_detail":"4","min_zoom":6.0,"id":6125},"arcs":[[170],[171],[172]]},{"type":"LineString","properties":{"source":"naturalearthdata.com","kind":"region","sort_rank":256,"kind_detail":"4","min_zoom":6.0,"id":6126},"arcs":[173]},{"type":"MultiLineString","properties":{"source":"naturalearthdata.com","kind":"region","sort_rank":256,"kind_detail":"4","min_zoom":6.0,"id":6127},"arcs":[[174],[175],[176],[177],[178],[179],[180]]},{"type":"MultiLineString","properties":{"source":"naturalearthdata.com","kind":"region","sort_rank":256,"kind_detail":"4","min_zoom":6.0,"id":6128},"arcs":[[181],[182],[183],[184],[185],[186],[187],[188],[189],[190],[191],[192],[193],[194],[195],[196]]},{"type":"MultiLineString","properties":{"source":"naturalearthdata.com","kind":"region","sort_rank":256,"kind_detail":"4","min_zoom":6.0,"id":6129},"arcs":[[197],[198],[199],[200],[201]]},{"type":"MultiLineString","properties":{"source":"naturalearthdata.com","kind":"region","sort_rank":256,"kind_detail":"4","min_zoom":6.0,"id":6130},"arcs":[[202],[203],[204],[205],[206],[207],[208],[209],[210]]},{"type":"MultiLineString","properties":{"source":"naturalearthdata.com","kind":"region","sort_rank":256,"kind_detail":"4","min_zoom":6.0,"id":6132},"arcs":[[211],[212]]},{"type":"MultiLineString","properties":{"source":"naturalearthdata.com","kind":"region","sort_rank":256,"kind_detail":"4","min_zoom":6.0,"id":6133},"arcs":[[213],[214]]},{"type":"MultiLineString","properties":{"source":"naturalearthdata.com","kind":"region","sort_rank":256,"kind_detail":"4","min_zoom":6.0,"id":6134},"arcs":[[215],[216],[217],[218],[219]]},{"type":"LineString","properties":{"source":"naturalearthdata.com","kind":"region","sort_rank":256,"kind_detail":"4","min_zoom":6.0,"id":6135},"arcs":[220]},{"type":"LineString","properties":{"source":"naturalearthdata.com","kind":"region","sort_rank":256,"kind_detail":"4","min_zoom":6.0,"id":6143},"arcs":[221]},{"type":"MultiLineString","properties":{"source":"naturalearthdata.com","kind":"region","sort_rank":256,"kind_detail":"4","min_zoom":6.0,"id":6144},"arcs":[[222],[223]]},{"type":"LineString","properties":{"source":"naturalearthdata.com","kind":"region","sort_rank":256,"kind_detail":"4","min_zoom":6.0,"id":6146},"arcs":[224]},{"type":"MultiLineString","properties":{"source":"naturalearthdata.com","kind":"region","sort_rank":256,"kind_detail":"4","min_zoom":6.0,"id":6148},"arcs":[[225],[226],[227]]},{"type":"LineString","properties":{"source":"naturalearthdata.com","kind":"region","sort_rank":256,"kind_detail":"4","min_zoom":6.0,"id":6161},"arcs":[228]},{"type":"LineString","properties":{"source":"naturalearthdata.com","kind":"region","sort_rank":256,"kind_detail":"4","min_zoom":6.0,"id":6162},"arcs":[229]},{"type":"LineString","properties":{"source":"naturalearthdata.com","kind":"region","sort_rank":256,"kind_detail":"4","min_zoom":6.0,"id":6169},"arcs":[230]},{"type":"LineString","properties":{"source":"naturalearthdata.com","kind":"region","sort_rank":256,"kind_detail":"4","min_zoom":6.0,"id":6170},"arcs":[231]},{"type":"MultiLineString","properties":{"source":"naturalearthdata.com","kind":"region","sort_rank":256,"kind_detail":"4","min_zoom":6.0,"id":6181},"arcs":[[232],[233],[234]]},{"type":"LineString","properties":{"source":"naturalearthdata.com","kind":"region","sort_rank":256,"kind_detail":"4","min_zoom":6.0,"id":6182},"arcs":[235]}]},"roads":{"type":"GeometryCollection","geometries":[{"type":"LineString","properties":{"source":"naturalearthdata.com","kind":"minor_road","sort_rank":355,"kind_detail":"tertiary","min_zoom":6.0,"id":19403},"arcs":[253]},{"type":"LineString","properties":{"source":"naturalearthdata.com","kind":"major_road","sort_rank":379,"kind_detail":"secondary","min_zoom":3.0,"id":19404},"arcs":[254]},{"type":"MultiLineString","properties":{"source":"naturalearthdata.com","kind":"major_road","sort_rank":379,"kind_detail":"secondary","min_zoom":4.0,"id":19407},"arcs":[[255],[256]]},{"type":"LineString","properties":{"source":"naturalearthdata.com","kind":"major_road","kind_detail":"secondary","sort_rank":379,"landuse_kind":"urban_area","min_zoom":3.0,"id":19413},"arcs":[257]},{"type":"LineString","properties":{"source":"naturalearthdata.com","kind":"major_road","sort_rank":379,"kind_detail":"secondary","min_zoom":3.0,"id":19413},"arcs":[258]},{"type":"LineString","properties":{"source":"naturalearthdata.com","kind":"major_road","sort_rank":379,"kind_detail":"secondary","min_zoom":4.0,"id":19447},"arcs":[259]},{"type":"LineString","properties":{"source":"naturalearthdata.com","kind":"major_road","sort_rank":379,"kind_detail":"secondary","min_zoom":3.0,"id":19448},"arcs":[260]},{"type":"LineString","properties":{"source":"naturalearthdata.com","kind":"major_road","kind_detail":"secondary","sort_rank":379,"landuse_kind":"urban_area","min_zoom":3.0,"id":19450},"arcs":[261]},{"type":"LineString","properties":{"source":"naturalearthdata.com","kind":"major_road","kind_detail":"secondary","sort_rank":379,"landuse_kind":"urban_area","min_zoom":3.0,"id":19450},"arcs":[262]},{"type":"MultiLineString","properties":{"source":"naturalearthdata.com","kind":"major_road","sort_rank":379,"kind_detail":"secondary","min_zoom":3.0,"id":19450},"arcs":[[263],[264],[265]]},{"type":"LineString","properties":{"source":"naturalearthdata.com","kind":"major_road","sort_rank":379,"kind_detail":"secondary","min_zoom":3.0,"id":19462},"arcs":[266]},{"type":"LineString","properties":{"source":"naturalearthdata.com","kind":"major_road","sort_rank":379,"kind_detail":"secondary","min_zoom":3.0,"id":19472},"arcs":[267]},{"type":"MultiLineString","properties":{"source":"naturalearthdata.com","kind":"major_road","sort_rank":379,"kind_detail":"secondary","min_zoom":4.0,"id":19477},"arcs":[[268],[269]]},{"type":"LineString","properties":{"source":"naturalearthdata.com","kind":"major_road","kind_detail":"secondary","sort_rank":379,"landuse_kind":"urban_area","min_zoom":4.0,"id":19649},"arcs":[270]},{"type":"LineString","properties":{"source":"naturalearthdata.com","kind":"major_road","sort_rank":379,"kind_detail":"secondary","min_zoom":4.0,"id":19649},"arcs":[271]},{"type":"LineString","properties":{"source":"naturalearthdata.com","kind":"major_road","kind_detail":"secondary","sort_rank":379,"landuse_kind":"urban_area","min_zoom":4.0,"id":19650},"arcs":[272]},{"type":"LineString","properties":{"source":"naturalearthdata.com","kind":"major_road","sort_rank":379,"kind_detail":"secondary","min_zoom":4.0,"id":19650},"arcs":[273]},{"type":"LineString","properties":{"source":"naturalearthdata.com","kind":"major_road","kind_detail":"secondary","sort_rank":379,"landuse_kind":"urban_area","min_zoom":4.0,"id":19686},"arcs":[274]},{"type":"LineString","properties":{"source":"naturalearthdata.com","kind":"major_road","sort_rank":379,"kind_detail":"secondary","min_zoom":4.0,"id":19686},"arcs":[275]},{"type":"LineString","properties":{"source":"naturalearthdata.com","kind":"major_road","sort_rank":379,"kind_detail":"secondary","min_zoom":3.0,"id":19697},"arcs":[276]},{"type":"LineString","properties":{"source":"naturalearthdata.com","kind":"minor_road","sort_rank":355,"kind_detail":"tertiary","min_zoom":6.0,"id":19716},"arcs":[277]},{"type":"LineString","properties":{"source":"naturalearthdata.com","kind":"major_road","kind_detail":"secondary","sort_rank":379,"landuse_kind":"urban_area","min_zoom":3.0,"id":19754},"arcs":[278]},{"type":"LineString","properties":{"source":"naturalearthdata.com","kind":"major_road","sort_rank":379,"kind_detail":"secondary","min_zoom":3.0,"id":19754},"arcs":[279]},{"type":"LineString","properties":{"source":"naturalearthdata.com","kind":"major_road","kind_detail":"secondary","sort_rank":379,"landuse_kind":"urban_area","min_zoom":4.0,"id":19757},"arcs":[280]},{"type":"MultiLineString","properties":{"source":"naturalearthdata.com","kind":"major_road","sort_rank":379,"kind_detail":"secondary","min_zoom":4.0,"id":19757},"arcs":[[281],[282]]},{"type":"LineString","properties":{"source":"naturalearthdata.com","kind":"major_road","kind_detail":"secondary","sort_rank":379,"landuse_kind":"urban_area","min_zoom":3.0,"id":19848},"arcs":[283]},{"type":"LineString","properties":{"source":"naturalearthdata.com","kind":"major_road","sort_rank":379,"kind_detail":"secondary","min_zoom":3.0,"id":19848},"arcs":[284]},{"type":"MultiLineString","properties":{"source":"naturalearthdata.com","kind":"minor_road","kind_detail":"tertiary","sort_rank":355,"landuse_kind":"urban_area","min_zoom":6.0,"id":19868},"arcs":[[285],[286]]},{"type":"MultiLineString","properties":{"source":"naturalearthdata.com","kind":"minor_road","sort_rank":355,"kind_detail":"tertiary","min_zoom":6.0,"id":19868},"arcs":[[287],[288],[289]]},{"type":"LineString","properties":{"source":"naturalearthdata.com","kind":"major_road","kind_detail":"secondary","sort_rank":379,"landuse_kind":"urban_area","min_zoom":4.0,"id":19895},"arcs":[290]},{"type":"LineString","properties":{"source":"naturalearthdata.com","kind":"major_road","sort_rank":379,"kind_detail":"secondary","min_zoom":4.0,"id":19895},"arcs":[291]},{"type":"LineString","properties":{"source":"naturalearthdata.com","kind":"major_road","kind_detail":"secondary","sort_rank":379,"landuse_kind":"urban_area","min_zoom":4.0,"id":19950},"arcs":[292]},{"type":"LineString","properties":{"source":"naturalearthdata.com","kind":"major_road","sort_rank":379,"kind_detail":"secondary","min_zoom":4.0,"id":19950},"arcs":[293]},{"type":"LineString","properties":{"source":"naturalearthdata.com","kind":"major_road","kind_detail":"secondary","sort_rank":379,"landuse_kind":"urban_area","min_zoom":4.0,"id":19962},"arcs":[294]},{"type":"MultiLineString","properties":{"source":"naturalearthdata.com","kind":"major_road","sort_rank":379,"kind_detail":"secondary","min_zoom":4.0,"id":19962},"arcs":[[295],[296]]},{"type":"LineString","properties":{"source":"naturalearthdata.com","kind":"major_road","sort_rank":379,"kind_detail":"secondary","min_zoom":4.0,"id":19988},"arcs":[297]},{"type":"LineString","properties":{"source":"naturalearthdata.com","kind":"major_road","sort_rank":379,"kind_detail":"secondary","min_zoom":4.0,"id":20009},"arcs":[298]},{"type":"LineString","properties":{"source":"naturalearthdata.com","kind":"major_road","kind_detail":"secondary","sort_rank":379,"landuse_kind":"urban_area","min_zoom":4.0,"id":20056},"arcs":[299]},{"type":"LineString","properties":{"source":"naturalearthdata.com","kind":"major_road","sort_rank":379,"kind_detail":"secondary","min_zoom":4.0,"id":20056},"arcs":[300]},{"type":"LineString","properties":{"source":"naturalearthdata.com","kind":"minor_road","kind_detail":"tertiary","sort_rank":355,"landuse_kind":"urban_area","min_zoom":6.0,"id":20058},"arcs":[301]},{"type":"MultiLineString","properties":{"source":"naturalearthdata.com","kind":"minor_road","sort_rank":355,"kind_detail":"tertiary","min_zoom":6.0,"id":20058},"arcs":[[302],[303]]},{"type":"LineString","properties":{"source":"naturalearthdata.com","kind":"minor_road","kind_detail":"tertiary","sort_rank":355,"landuse_kind":"urban_area","min_zoom":6.0,"id":20151},"arcs":[304]},{"type":"MultiLineString","properties":{"source":"naturalearthdata.com","kind":"minor_road","sort_rank":355,"kind_detail":"tertiary","min_zoom":6.0,"id":20151},"arcs":[[305],[306]]},{"type":"LineString","properties":{"source":"naturalearthdata.com","kind":"major_road","kind_detail":"secondary","sort_rank":379,"landuse_kind":"urban_area","min_zoom":4.0,"id":20232},"arcs":[307]},{"type":"LineString","properties":{"source":"naturalearthdata.com","kind":"major_road","sort_rank":379,"kind_detail":"secondary","min_zoom":4.0,"id":20232},"arcs":[308]},{"type":"LineString","properties":{"source":"naturalearthdata.com","kind":"major_road","sort_rank":379,"kind_detail":"secondary","min_zoom":3.0,"id":20300},"arcs":[309]},{"type":"LineString","properties":{"source":"naturalearthdata.com","kind":"major_road","sort_rank":379,"kind_detail":"secondary","min_zoom":4.0,"id":20319},"arcs":[310]},{"type":"LineString","properties":{"source":"naturalearthdata.com","kind":"major_road","sort_rank":379,"kind_detail":"secondary","min_zoom":4.0,"id":20333},"arcs":[311]},{"type":"LineString","properties":{"source":"naturalearthdata.com","kind":"major_road","sort_rank":379,"kind_detail":"secondary","min_zoom":3.0,"id":20344},"arcs":[312]},{"type":"LineString","properties":{"source":"naturalearthdata.com","kind":"major_road","sort_rank":379,"kind_detail":"secondary","min_zoom":4.0,"id":20364},"arcs":[313]},{"type":"LineString","properties":{"source":"naturalearthdata.com","kind":"major_road","sort_rank":379,"kind_detail":"secondary","min_zoom":4.0,"id":20399},"arcs":[314]},{"type":"LineString","properties":{"source":"naturalearthdata.com","kind":"minor_road","sort_rank":355,"kind_detail":"tertiary","min_zoom":6.0,"id":20413},"arcs":[315]},{"type":"LineString","properties":{"source":"naturalearthdata.com","kind":"major_road","sort_rank":379,"kind_detail":"secondary","min_zoom":4.0,"id":20414},"arcs":[316]},{"type":"LineString","properties":{"source":"naturalearthdata.com","kind":"major_road","sort_rank":379,"kind_detail":"secondary","min_zoom":4.0,"id":20439},"arcs":[317]},{"type":"LineString","properties":{"source":"naturalearthdata.com","kind":"major_road","sort_rank":379,"kind_detail":"secondary","min_zoom":4.0,"id":20465},"arcs":[318]},{"type":"LineString","properties":{"source":"naturalearthdata.com","kind":"major_road","sort_rank":379,"kind_detail":"secondary","min_zoom":4.0,"id":20519},"arcs":[319]},{"type":"LineString","properties":{"source":"naturalearthdata.com","kind":"major_road","sort_rank":379,"kind_detail":"secondary","min_zoom":4.0,"id":20522},"arcs":[320]},{"type":"LineString","properties":{"source":"naturalearthdata.com","kind":"major_road","sort_rank":379,"kind_detail":"secondary","min_zoom":4.0,"id":20523},"arcs":[321]},{"type":"LineString","properties":{"source":"naturalearthdata.com","kind":"major_road","sort_rank":379,"kind_detail":"secondary","min_zoom":4.0,"id":20570},"arcs":[322]},{"type":"LineString","properties":{"source":"naturalearthdata.com","kind":"minor_road","sort_rank":355,"kind_detail":"tertiary","min_zoom":6.0,"id":20635},"arcs":[323]},{"type":"LineString","properties":{"source":"naturalearthdata.com","kind":"minor_road","sort_rank":355,"kind_detail":"tertiary","min_zoom":6.0,"id":20687},"arcs":[324]},{"type":"LineString","properties":{"source":"naturalearthdata.com","kind":"major_road","sort_rank":379,"kind_detail":"secondary","min_zoom":4.0,"id":20731},"arcs":[325]},{"type":"LineString","properties":{"source":"naturalearthdata.com","kind":"major_road","sort_rank":379,"kind_detail":"secondary","min_zoom":4.0,"id":20742},"arcs":[326]},{"type":"LineString","properties":{"source":"naturalearthdata.com","kind":"major_road","sort_rank":379,"kind_detail":"secondary","min_zoom":4.0,"id":20770},"arcs":[327]},{"type":"LineString","properties":{"source":"naturalearthdata.com","kind":"major_road","sort_rank":379,"kind_detail":"secondary","min_zoom":4.0,"id":20819},"arcs":[328]},{"type":"LineString","properties":{"source":"naturalearthdata.com","kind":"minor_road","sort_rank":355,"kind_detail":"tertiary","min_zoom":6.0,"id":20824},"arcs":[329]},{"type":"LineString","properties":{"source":"naturalearthdata.com","kind":"minor_road","sort_rank":355,"kind_detail":"tertiary","min_zoom":6.0,"id":20839},"arcs":[330]},{"type":"LineString","properties":{"source":"naturalearthdata.com","kind":"major_road","sort_rank":379,"kind_detail":"secondary","min_zoom":4.0,"id":20851},"arcs":[331]},{"type":"LineString","properties":{"source":"naturalearthdata.com","kind":"major_road","sort_rank":379,"kind_detail":"secondary","min_zoom":4.0,"id":20928},"arcs":[332]},{"type":"LineString","properties":{"source":"naturalearthdata.com","kind":"minor_road","sort_rank":355,"kind_detail":"tertiary","min_zoom":6.0,"id":21012},"arcs":[333]},{"type":"LineString","properties":{"source":"naturalearthdata.com","kind":"major_road","sort_rank":379,"kind_detail":"secondary","min_zoom":4.0,"id":21013},"arcs":[334]},{"type":"LineString","properties":{"source":"naturalearthdata.com","kind":"major_road","sort_rank":379,"kind_detail":"secondary","min_zoom":4.0,"id":21056},"arcs":[335]},{"type":"LineString","properties":{"source":"naturalearthdata.com","kind":"major_road","sort_rank":379,"kind_detail":"secondary","min_zoom":4.0,"id":21117},"arcs":[336]},{"type":"LineString","properties":{"source":"naturalearthdata.com","kind":"highway","kind_detail":"motorway","sort_rank":383,"landuse_kind":"urban_area","min_zoom":4.0,"id":21139},"arcs":[337]},{"type":"MultiLineString","properties":{"source":"naturalearthdata.com","kind":"highway","sort_rank":383,"kind_detail":"motorway","min_zoom":4.0,"id":21139},"arcs":[[338],[339]]},{"type":"LineString","properties":{"source":"naturalearthdata.com","kind":"minor_road","sort_rank":355,"kind_detail":"tertiary","min_zoom":6.0,"id":21141},"arcs":[340]},{"type":"LineString","properties":{"source":"naturalearthdata.com","kind":"minor_road","sort_rank":355,"kind_detail":"tertiary","min_zoom":6.0,"id":21142},"arcs":[341]},{"type":"LineString","properties":{"source":"naturalearthdata.com","kind":"minor_road","sort_rank":355,"kind_detail":"tertiary","min_zoom":6.0,"id":21155},"arcs":[342]},{"type":"LineString","properties":{"source":"naturalearthdata.com","kind":"highway","kind_detail":"motorway","sort_rank":383,"landuse_kind":"urban_area","min_zoom":3.0,"id":21181},"arcs":[343]},{"type":"LineString","properties":{"source":"naturalearthdata.com","kind":"highway","sort_rank":383,"kind_detail":"motorway","min_zoom":3.0,"id":21181},"arcs":[344]},{"type":"LineString","properties":{"source":"naturalearthdata.com","kind":"major_road","sort_rank":379,"kind_detail":"secondary","min_zoom":4.0,"id":21186},"arcs":[345]},{"type":"LineString","properties":{"source":"naturalearthdata.com","kind":"major_road","sort_rank":379,"kind_detail":"secondary","min_zoom":4.0,"id":21189},"arcs":[346]},{"type":"LineString","properties":{"source":"naturalearthdata.com","kind":"major_road","kind_detail":"secondary","sort_rank":379,"landuse_kind":"urban_area","min_zoom":3.0,"id":21196},"arcs":[347]},{"type":"LineString","properties":{"source":"naturalearthdata.com","kind":"major_road","sort_rank":379,"kind_detail":"secondary","min_zoom":3.0,"id":21236},"arcs":[348]},{"type":"LineString","properties":{"source":"naturalearthdata.com","kind":"major_road","sort_rank":379,"kind_detail":"secondary","min_zoom":3.0,"id":21264},"arcs":[349]},{"type":"LineString","properties":{"source":"naturalearthdata.com","kind":"highway","sort_rank":383,"kind_detail":"motorway","min_zoom":4.0,"id":21273},"arcs":[350]},{"type":"LineString","properties":{"source":"naturalearthdata.com","kind":"major_road","kind_detail":"secondary","sort_rank":379,"landuse_kind":"urban_area","min_zoom":3.0,"id":21333},"arcs":[351]},{"type":"LineString","properties":{"source":"naturalearthdata.com","kind":"major_road","sort_rank":379,"kind_detail":"secondary","min_zoom":3.0,"id":21333},"arcs":[352]},{"type":"LineString","properties":{"source":"naturalearthdata.com","kind":"major_road","kind_detail":"secondary","sort_rank":379,"landuse_kind":"urban_area","min_zoom":3.0,"id":21353},"arcs":[353]},{"type":"LineString","properties":{"source":"naturalearthdata.com","kind":"minor_road","sort_rank":355,"kind_detail":"tertiary","min_zoom":6.0,"id":21355},"arcs":[354]},{"type":"LineString","properties":{"source":"naturalearthdata.com","kind":"major_road","kind_detail":"secondary","sort_rank":379,"landuse_kind":"urban_area","min_zoom":3.0,"id":21357},"arcs":[355]},{"type":"LineString","properties":{"source":"naturalearthdata.com","kind":"major_road","sort_rank":379,"kind_detail":"secondary","min_zoom":3.0,"id":21357},"arcs":[356]},{"type":"LineString","properties":{"source":"naturalearthdata.com","kind":"major_road","sort_rank":379,"kind_detail":"secondary","min_zoom":3.0,"id":21366},"arcs":[357]},{"type":"LineString","properties":{"source":"naturalearthdata.com","kind":"major_road","kind_detail":"secondary","sort_rank":379,"landuse_kind":"urban_area","min_zoom":3.0,"id":21367},"arcs":[358]},{"type":"LineString","properties":{"source":"naturalearthdata.com","kind":"major_road","sort_rank":379,"kind_detail":"secondary","min_zoom":3.0,"id":21367},"arcs":[359]},{"type":"LineString","properties":{"source":"naturalearthdata.com","kind":"minor_road","sort_rank":355,"kind_detail":"tertiary","min_zoom":6.0,"id":21368},"arcs":[360]},{"type":"LineString","properties":{"source":"naturalearthdata.com","kind":"major_road","sort_rank":379,"kind_detail":"secondary","min_zoom":4.0,"id":21399},"arcs":[361]},{"type":"LineString","properties":{"source":"naturalearthdata.com","kind":"major_road","kind_detail":"secondary","sort_rank":379,"landuse_kind":"urban_area","min_zoom":4.0,"id":21409},"arcs":[362]},{"type":"LineString","properties":{"source":"naturalearthdata.com","kind":"major_road","sort_rank":379,"kind_detail":"secondary","min_zoom":4.0,"id":21409},"arcs":[363]},{"type":"LineString","properties":{"source":"naturalearthdata.com","kind":"major_road","sort_rank":379,"kind_detail":"secondary","min_zoom":3.0,"id":21474},"arcs":[364]},{"type":"LineString","properties":{"source":"naturalearthdata.com","kind":"major_road","sort_rank":379,"kind_detail":"secondary","min_zoom":4.0,"id":21476},"arcs":[365]},{"type":"LineString","properties":{"source":"naturalearthdata.com","kind":"minor_road","sort_rank":355,"kind_detail":"tertiary","min_zoom":6.0,"id":21486},"arcs":[366]},{"type":"LineString","properties":{"source":"naturalearthdata.com","kind":"major_road","sort_rank":379,"kind_detail":"secondary","min_zoom":3.0,"id":21511},"arcs":[367]},{"type":"LineString","properties":{"source":"naturalearthdata.com","kind":"major_road","kind_detail":"secondary","sort_rank":379,"landuse_kind":"urban_area","min_zoom":4.0,"id":21526},"arcs":[368]},{"type":"LineString","properties":{"source":"naturalearthdata.com","kind":"major_road","sort_rank":379,"kind_detail":"secondary","min_zoom":4.0,"id":21526},"arcs":[369]},{"type":"LineString","properties":{"source":"naturalearthdata.com","kind":"major_road","sort_rank":379,"kind_detail":"secondary","min_zoom":4.0,"id":21551},"arcs":[370]},{"type":"LineString","properties":{"source":"naturalearthdata.com","kind":"major_road","sort_rank":379,"kind_detail":"secondary","min_zoom":3.0,"id":21668},"arcs":[371]},{"type":"LineString","properties":{"source":"naturalearthdata.com","kind":"major_road","sort_rank":379,"kind_detail":"secondary","min_zoom":4.0,"id":21675},"arcs":[372]},{"type":"LineString","properties":{"source":"naturalearthdata.com","kind":"major_road","kind_detail":"secondary","sort_rank":379,"landuse_kind":"urban_area","min_zoom":3.0,"id":21685},"arcs":[373]},{"type":"LineString","properties":{"source":"naturalearthdata.com","kind":"major_road","sort_rank":379,"kind_detail":"secondary","min_zoom":3.0,"id":21685},"arcs":[374]},{"type":"LineString","properties":{"source":"naturalearthdata.com","kind":"major_road","sort_rank":379,"kind_detail":"secondary","min_zoom":4.0,"id":21729},"arcs":[375]},{"type":"LineString","properties":{"source":"naturalearthdata.com","kind":"major_road","sort_rank":379,"kind_detail":"secondary","min_zoom":4.0,"id":21766},"arcs":[376]},{"type":"LineString","properties":{"source":"naturalearthdata.com","kind":"major_road","sort_rank":379,"kind_detail":"secondary","min_zoom":3.0,"id":21780},"arcs":[377]},{"type":"LineString","properties":{"source":"naturalearthdata.com","kind":"major_road","kind_detail":"secondary","sort_rank":379,"landuse_kind":"urban_area","min_zoom":4.0,"id":21802},"arcs":[378]},{"type":"LineString","properties":{"source":"naturalearthdata.com","kind":"major_road","sort_rank":379,"kind_detail":"secondary","min_zoom":4.0,"id":21802},"arcs":[379]},{"type":"LineString","properties":{"source":"naturalearthdata.com","kind":"highway","sort_rank":383,"kind_detail":"motorway","min_zoom":4.0,"id":21836},"arcs":[380]},{"type":"LineString","properties":{"source":"naturalearthdata.com","kind":"major_road","sort_rank":379,"kind_detail":"secondary","min_zoom":4.0,"id":21854},"arcs":[381]},{"type":"LineString","properties":{"source":"naturalearthdata.com","kind":"highway","sort_rank":383,"kind_detail":"motorway","min_zoom":3.0,"id":21855},"arcs":[382]},{"type":"LineString","properties":{"source":"naturalearthdata.com","kind":"minor_road","kind_detail":"tertiary","sort_rank":355,"landuse_kind":"urban_area","min_zoom":6.0,"id":21862},"arcs":[383]},{"type":"LineString","properties":{"source":"naturalearthdata.com","kind":"minor_road","sort_rank":355,"kind_detail":"tertiary","min_zoom":6.0,"id":21862},"arcs":[384]},{"type":"LineString","properties":{"source":"naturalearthdata.com","kind":"major_road","kind_detail":"secondary","sort_rank":379,"landuse_kind":"urban_area","min_zoom":4.0,"id":21870},"arcs":[385]},{"type":"MultiLineString","properties":{"source":"naturalearthdata.com","kind":"major_road","sort_rank":379,"kind_detail":"secondary","min_zoom":4.0,"id":21870},"arcs":[[386],[387]]},{"type":"LineString","properties":{"source":"naturalearthdata.com","kind":"minor_road","sort_rank":355,"kind_detail":"tertiary","min_zoom":6.0,"id":21871},"arcs":[388]},{"type":"LineString","properties":{"source":"naturalearthdata.com","kind":"minor_road","sort_rank":355,"kind_detail":"tertiary","min_zoom":6.0,"id":21882},"arcs":[389]},{"type":"LineString","properties":{"source":"naturalearthdata.com","kind":"minor_road","sort_rank":355,"kind_detail":"tertiary","min_zoom":6.0,"id":21884},"arcs":[390]},{"type":"LineString","properties":{"source":"naturalearthdata.com","kind":"major_road","kind_detail":"secondary","sort_rank":379,"landuse_kind":"urban_area","min_zoom":4.0,"id":21901},"arcs":[391]},{"type":"MultiLineString","properties":{"source":"naturalearthdata.com","kind":"major_road","sort_rank":379,"kind_detail":"secondary","min_zoom":4.0,"id":21901},"arcs":[[392],[393]]},{"type":"LineString","properties":{"source":"naturalearthdata.com","kind":"minor_road","kind_detail":"tertiary","sort_rank":355,"landuse_kind":"urban_area","min_zoom":6.0,"id":21902},"arcs":[394]},{"type":"LineString","properties":{"source":"naturalearthdata.com","kind":"minor_road","sort_rank":355,"kind_detail":"tertiary","min_zoom":6.0,"id":21902},"arcs":[395]},{"type":"LineString","properties":{"source":"naturalearthdata.com","kind":"minor_road","kind_detail":"tertiary","sort_rank":355,"landuse_kind":"urban_area","min_zoom":6.0,"id":21905},"arcs":[396]},{"type":"LineString","properties":{"source":"naturalearthdata.com","kind":"minor_road","sort_rank":355,"kind_detail":"tertiary","min_zoom":6.0,"id":21905},"arcs":[397]},{"type":"LineString","properties":{"source":"naturalearthdata.com","kind":"highway","sort_rank":383,"kind_detail":"motorway","min_zoom":3.0,"id":21973},"arcs":[398]},{"type":"LineString","properties":{"source":"naturalearthdata.com","kind":"major_road","kind_detail":"secondary","sort_rank":379,"landuse_kind":"urban_area","min_zoom":3.0,"id":22011},"arcs":[399]},{"type":"LineString","properties":{"source":"naturalearthdata.com","kind":"major_road","sort_rank":379,"kind_detail":"secondary","min_zoom":3.0,"id":22011},"arcs":[400]},{"type":"LineString","properties":{"source":"naturalearthdata.com","kind":"minor_road","sort_rank":355,"kind_detail":"tertiary","min_zoom":6.0,"id":22012},"arcs":[401]},{"type":"LineString","properties":{"source":"naturalearthdata.com","kind":"minor_road","kind_detail":"tertiary","sort_rank":355,"landuse_kind":"urban_area","min_zoom":6.0,"id":22040},"arcs":[402]},{"type":"LineString","properties":{"source":"naturalearthdata.com","kind":"minor_road","sort_rank":355,"kind_detail":"tertiary","min_zoom":6.0,"id":22040},"arcs":[403]},{"type":"LineString","properties":{"source":"naturalearthdata.com","kind":"minor_road","kind_detail":"tertiary","sort_rank":355,"landuse_kind":"urban_area","min_zoom":6.0,"id":22059},"arcs":[404]},{"type":"LineString","properties":{"source":"naturalearthdata.com","kind":"minor_road","sort_rank":355,"kind_detail":"tertiary","min_zoom":6.0,"id":22059},"arcs":[405]},{"type":"LineString","properties":{"source":"naturalearthdata.com","kind":"minor_road","kind_detail":"tertiary","sort_rank":355,"landuse_kind":"urban_area","min_zoom":6.0,"id":22060},"arcs":[406]},{"type":"LineString","properties":{"source":"naturalearthdata.com","kind":"minor_road","sort_rank":355,"kind_detail":"tertiary","min_zoom":6.0,"id":22060},"arcs":[407]},{"type":"LineString","properties":{"source":"naturalearthdata.com","kind":"major_road","sort_rank":379,"kind_detail":"secondary","min_zoom":4.0,"id":22131},"arcs":[408]},{"type":"LineString","properties":{"source":"naturalearthdata.com","kind":"major_road","kind_detail":"secondary","sort_rank":379,"landuse_kind":"urban_area","min_zoom":4.0,"id":22138},"arcs":[409]},{"type":"LineString","properties":{"source":"naturalearthdata.com","kind":"major_road","sort_rank":379,"kind_detail":"secondary","min_zoom":4.0,"id":22138},"arcs":[410]},{"type":"LineString","properties":{"source":"naturalearthdata.com","kind":"minor_road","kind_detail":"tertiary","sort_rank":355,"landuse_kind":"urban_area","min_zoom":6.0,"id":22144},"arcs":[411]},{"type":"LineString","properties":{"source":"naturalearthdata.com","kind":"minor_road","sort_rank":355,"kind_detail":"tertiary","min_zoom":6.0,"id":22144},"arcs":[412]},{"type":"LineString","properties":{"source":"naturalearthdata.com","kind":"minor_road","sort_rank":355,"kind_detail":"tertiary","min_zoom":6.0,"id":22148},"arcs":[413]},{"type":"LineString","properties":{"source":"naturalearthdata.com","kind":"highway","sort_rank":383,"kind_detail":"motorway","min_zoom":3.0,"id":22173},"arcs":[414]},{"type":"LineString","properties":{"source":"naturalearthdata.com","kind":"major_road","kind_detail":"secondary","sort_rank":379,"landuse_kind":"urban_area","min_zoom":4.0,"id":22174},"arcs":[415]},{"type":"LineString","properties":{"source":"naturalearthdata.com","kind":"major_road","sort_rank":379,"kind_detail":"secondary","min_zoom":4.0,"id":22174},"arcs":[416]},{"type":"LineString","properties":{"source":"naturalearthdata.com","kind":"major_road","sort_rank":379,"kind_detail":"secondary","min_zoom":3.0,"id":22190},"arcs":[417]},{"type":"LineString","properties":{"source":"naturalearthdata.com","kind":"minor_road","sort_rank":355,"kind_detail":"tertiary","min_zoom":6.0,"id":22193},"arcs":[418]},{"type":"LineString","properties":{"source":"naturalearthdata.com","kind":"minor_road","kind_detail":"tertiary","sort_rank":355,"landuse_kind":"urban_area","min_zoom":6.0,"id":22205},"arcs":[419]},{"type":"LineString","properties":{"source":"naturalearthdata.com","kind":"minor_road","sort_rank":355,"kind_detail":"tertiary","min_zoom":6.0,"id":22205},"arcs":[420]},{"type":"LineString","properties":{"source":"naturalearthdata.com","kind":"highway","sort_rank":383,"kind_detail":"motorway","min_zoom":3.0,"id":22212},"arcs":[421]},{"type":"LineString","properties":{"source":"naturalearthdata.com","kind":"major_road","kind_detail":"secondary","sort_rank":379,"landuse_kind":"urban_area","min_zoom":3.0,"id":22228},"arcs":[422]},{"type":"LineString","properties":{"source":"naturalearthdata.com","kind":"major_road","sort_rank":379,"kind_detail":"secondary","min_zoom":3.0,"id":22228},"arcs":[423]},{"type":"LineString","properties":{"source":"naturalearthdata.com","kind":"major_road","kind_detail":"secondary","sort_rank":379,"landuse_kind":"urban_area","min_zoom":3.0,"id":22229},"arcs":[424]},{"type":"LineString","properties":{"source":"naturalearthdata.com","kind":"highway","sort_rank":383,"kind_detail":"motorway","min_zoom":3.0,"id":22261},"arcs":[425]},{"type":"LineString","properties":{"source":"naturalearthdata.com","kind":"highway","kind_detail":"motorway","sort_rank":383,"landuse_kind":"urban_area","min_zoom":3.0,"id":22267},"arcs":[426]},{"type":"MultiLineString","properties":{"source":"naturalearthdata.com","kind":"highway","sort_rank":383,"kind_detail":"motorway","min_zoom":3.0,"id":22267},"arcs":[[427],[428]]},{"type":"LineString","properties":{"source":"naturalearthdata.com","kind":"highway","sort_rank":383,"kind_detail":"motorway","min_zoom":3.0,"id":22289},"arcs":[429]},{"type":"LineString","properties":{"source":"naturalearthdata.com","kind":"highway","sort_rank":383,"kind_detail":"motorway","min_zoom":3.0,"id":22313},"arcs":[430]},{"type":"LineString","properties":{"source":"naturalearthdata.com","kind":"major_road","sort_rank":379,"kind_detail":"secondary","min_zoom":3.0,"id":22340},"arcs":[431]},{"type":"LineString","properties":{"source":"naturalearthdata.com","kind":"major_road","kind_detail":"secondary","sort_rank":379,"landuse_kind":"urban_area","min_zoom":3.0,"id":22353},"arcs":[432]},{"type":"LineString","properties":{"source":"naturalearthdata.com","kind":"major_road","sort_rank":379,"kind_detail":"secondary","min_zoom":3.0,"id":22353},"arcs":[433]},{"type":"LineString","properties":{"source":"naturalearthdata.com","kind":"major_road","kind_detail":"secondary","sort_rank":379,"landuse_kind":"urban_area","min_zoom":3.0,"id":22354},"arcs":[434]},{"type":"LineString","properties":{"source":"naturalearthdata.com","kind":"major_road","sort_rank":379,"kind_detail":"secondary","min_zoom":3.0,"id":22354},"arcs":[435]},{"type":"LineString","properties":{"source":"naturalearthdata.com","kind":"major_road","kind_detail":"secondary","sort_rank":379,"landuse_kind":"urban_area","min_zoom":3.0,"id":22364},"arcs":[436]},{"type":"LineString","properties":{"source":"naturalearthdata.com","kind":"minor_road","kind_detail":"tertiary","sort_rank":355,"landuse_kind":"urban_area","min_zoom":6.0,"id":22366},"arcs":[437]},{"type":"LineString","properties":{"source":"naturalearthdata.com","kind":"minor_road","sort_rank":355,"kind_detail":"tertiary","min_zoom":6.0,"id":22366},"arcs":[438]},{"type":"LineString","properties":{"source":"naturalearthdata.com","kind":"major_road","kind_detail":"secondary","sort_rank":379,"landuse_kind":"urban_area","min_zoom":3.0,"id":22367},"arcs":[439]},{"type":"LineString","properties":{"source":"naturalearthdata.com","kind":"minor_road","kind_detail":"tertiary","sort_rank":355,"landuse_kind":"urban_area","min_zoom":6.0,"id":22368},"arcs":[440]},{"type":"LineString","properties":{"source":"naturalearthdata.com","kind":"minor_road","sort_rank":355,"kind_detail":"tertiary","min_zoom":6.0,"id":22368},"arcs":[441]},{"type":"LineString","properties":{"source":"naturalearthdata.com","kind":"major_road","kind_detail":"secondary","sort_rank":379,"landuse_kind":"urban_area","min_zoom":3.0,"id":22373},"arcs":[442]},{"type":"LineString","properties":{"source":"naturalearthdata.com","kind":"major_road","sort_rank":379,"kind_detail":"secondary","min_zoom":3.0,"id":22373},"arcs":[443]},{"type":"LineString","properties":{"source":"naturalearthdata.com","kind":"highway","kind_detail":"motorway","sort_rank":383,"landuse_kind":"urban_area","min_zoom":3.0,"id":22377},"arcs":[444]},{"type":"LineString","properties":{"source":"naturalearthdata.com","kind":"highway","sort_rank":383,"kind_detail":"motorway","min_zoom":3.0,"id":22377},"arcs":[445]},{"type":"LineString","properties":{"source":"naturalearthdata.com","kind":"highway","sort_rank":383,"kind_detail":"motorway","min_zoom":3.0,"id":22382},"arcs":[446]},{"type":"LineString","properties":{"source":"naturalearthdata.com","kind":"major_road","sort_rank":379,"kind_detail":"secondary","min_zoom":3.0,"id":22383},"arcs":[447]},{"type":"LineString","properties":{"source":"naturalearthdata.com","kind":"highway","sort_rank":383,"kind_detail":"motorway","min_zoom":3.0,"id":22386},"arcs":[448]},{"type":"LineString","properties":{"source":"naturalearthdata.com","kind":"major_road","sort_rank":379,"kind_detail":"secondary","min_zoom":3.0,"id":22387},"arcs":[449]},{"type":"LineString","properties":{"source":"naturalearthdata.com","kind":"minor_road","sort_rank":355,"kind_detail":"tertiary","min_zoom":6.0,"id":22388},"arcs":[450]},{"type":"LineString","properties":{"source":"naturalearthdata.com","kind":"highway","sort_rank":383,"kind_detail":"motorway","min_zoom":3.0,"id":22389},"arcs":[451]},{"type":"LineString","properties":{"source":"naturalearthdata.com","kind":"highway","kind_detail":"motorway","sort_rank":383,"landuse_kind":"urban_area","min_zoom":3.0,"id":22390},"arcs":[452]},{"type":"LineString","properties":{"source":"naturalearthdata.com","kind":"highway","sort_rank":383,"kind_detail":"motorway","min_zoom":3.0,"id":22390},"arcs":[453]},{"type":"LineString","properties":{"source":"naturalearthdata.com","kind":"highway","kind_detail":"motorway","sort_rank":383,"landuse_kind":"urban_area","min_zoom":6.0,"id":22393},"arcs":[454]},{"type":"LineString","properties":{"source":"naturalearthdata.com","kind":"highway","sort_rank":383,"kind_detail":"motorway","min_zoom":3.0,"id":22397},"arcs":[455]},{"type":"LineString","properties":{"source":"naturalearthdata.com","kind":"highway","sort_rank":383,"kind_detail":"motorway","min_zoom":6.0,"id":22413},"arcs":[456]},{"type":"LineString","properties":{"source":"naturalearthdata.com","kind":"highway","sort_rank":383,"kind_detail":"motorway","min_zoom":3.0,"id":22422},"arcs":[457]},{"type":"LineString","properties":{"source":"naturalearthdata.com","kind":"highway","sort_rank":383,"kind_detail":"motorway","min_zoom":3.0,"id":22425},"arcs":[458]},{"type":"LineString","properties":{"source":"naturalearthdata.com","kind":"highway","sort_rank":383,"kind_detail":"motorway","min_zoom":3.0,"id":22431},"arcs":[459]},{"type":"LineString","properties":{"source":"naturalearthdata.com","kind":"highway","sort_rank":383,"kind_detail":"motorway","min_zoom":5.0,"id":22433},"arcs":[460]},{"type":"LineString","properties":{"source":"naturalearthdata.com","kind":"highway","kind_detail":"motorway","sort_rank":383,"landuse_kind":"urban_area","min_zoom":5.0,"id":22450},"arcs":[461]},{"type":"LineString","properties":{"source":"naturalearthdata.com","kind":"highway","sort_rank":383,"kind_detail":"motorway","min_zoom":5.0,"id":22450},"arcs":[462]},{"type":"LineString","properties":{"source":"naturalearthdata.com","kind":"major_road","kind_detail":"secondary","sort_rank":379,"landuse_kind":"urban_area","min_zoom":3.0,"id":22458},"arcs":[463]},{"type":"LineString","properties":{"source":"naturalearthdata.com","kind":"major_road","sort_rank":379,"kind_detail":"secondary","min_zoom":3.0,"id":22458},"arcs":[464]},{"type":"LineString","properties":{"source":"naturalearthdata.com","kind":"highway","kind_detail":"motorway","sort_rank":383,"landuse_kind":"urban_area","min_zoom":6.0,"id":22463},"arcs":[465]},{"type":"MultiLineString","properties":{"source":"naturalearthdata.com","kind":"highway","sort_rank":383,"kind_detail":"motorway","min_zoom":6.0,"id":22463},"arcs":[[466],[467]]},{"type":"LineString","properties":{"source":"naturalearthdata.com","kind":"highway","kind_detail":"motorway","sort_rank":383,"landuse_kind":"urban_area","min_zoom":3.0,"id":22485},"arcs":[468]},{"type":"LineString","properties":{"source":"naturalearthdata.com","kind":"highway","kind_detail":"motorway","sort_rank":383,"landuse_kind":"urban_area","min_zoom":3.0,"id":22488},"arcs":[469]},{"type":"LineString","properties":{"source":"naturalearthdata.com","kind":"highway","kind_detail":"motorway","sort_rank":383,"landuse_kind":"urban_area","min_zoom":5.0,"id":22489},"arcs":[470]},{"type":"LineString","properties":{"source":"naturalearthdata.com","kind":"highway","sort_rank":383,"kind_detail":"motorway","min_zoom":5.0,"id":22489},"arcs":[471]},{"type":"LineString","properties":{"source":"naturalearthdata.com","kind":"highway","kind_detail":"motorway","sort_rank":383,"landuse_kind":"urban_area","min_zoom":5.0,"id":22500},"arcs":[472]},{"type":"LineString","properties":{"source":"naturalearthdata.com","kind":"highway","sort_rank":383,"kind_detail":"motorway","min_zoom":5.0,"id":22500},"arcs":[473]},{"type":"LineString","properties":{"source":"naturalearthdata.com","kind":"major_road","kind_detail":"secondary","sort_rank":379,"landuse_kind":"urban_area","min_zoom":3.0,"id":22524},"arcs":[474]},{"type":"MultiLineString","properties":{"source":"naturalearthdata.com","kind":"major_road","sort_rank":379,"kind_detail":"secondary","min_zoom":3.0,"id":22524},"arcs":[[475],[476]]},{"type":"LineString","properties":{"source":"naturalearthdata.com","kind":"minor_road","sort_rank":355,"kind_detail":"tertiary","min_zoom":6.0,"id":22530},"arcs":[477]},{"type":"LineString","properties":{"source":"naturalearthdata.com","kind":"highway","kind_detail":"motorway","sort_rank":383,"landuse_kind":"urban_area","min_zoom":3.0,"id":22564},"arcs":[478]},{"type":"LineString","properties":{"source":"naturalearthdata.com","kind":"highway","kind_detail":"motorway","sort_rank":383,"landuse_kind":"urban_area","min_zoom":3.0,"id":22600},"arcs":[479]},{"type":"LineString","properties":{"source":"naturalearthdata.com","kind":"highway","kind_detail":"motorway","sort_rank":383,"landuse_kind":"urban_area","min_zoom":3.0,"id":22701},"arcs":[480]},{"type":"LineString","properties":{"source":"naturalearthdata.com","kind":"highway","sort_rank":383,"kind_detail":"motorway","min_zoom":3.0,"id":22701},"arcs":[481]},{"type":"LineString","properties":{"source":"naturalearthdata.com","kind":"minor_road","sort_rank":355,"kind_detail":"tertiary","min_zoom":6.0,"id":22702},"arcs":[482]},{"type":"LineString","properties":{"source":"naturalearthdata.com","kind":"minor_road","kind_detail":"tertiary","sort_rank":355,"landuse_kind":"urban_area","min_zoom":6.0,"id":22727},"arcs":[483]},{"type":"MultiLineString","properties":{"source":"naturalearthdata.com","kind":"minor_road","sort_rank":355,"kind_detail":"tertiary","min_zoom":6.0,"id":22727},"arcs":[[484],[485]]},{"type":"LineString","properties":{"source":"naturalearthdata.com","kind":"minor_road","sort_rank":355,"kind_detail":"tertiary","min_zoom":6.0,"id":22728},"arcs":[486]},{"type":"LineString","properties":{"source":"naturalearthdata.com","kind":"minor_road","kind_detail":"tertiary","sort_rank":355,"landuse_kind":"urban_area","min_zoom":6.0,"id":22881},"arcs":[487]},{"type":"LineString","properties":{"source":"naturalearthdata.com","kind":"minor_road","sort_rank":355,"kind_detail":"tertiary","min_zoom":6.0,"id":22881},"arcs":[488]},{"type":"LineString","properties":{"source":"naturalearthdata.com","kind":"minor_road","sort_rank":355,"kind_detail":"tertiary","min_zoom":6.0,"id":22923},"arcs":[489]},{"type":"LineString","properties":{"source":"naturalearthdata.com","kind":"highway","kind_detail":"motorway","sort_rank":383,"landuse_kind":"urban_area","min_zoom":5.0,"id":22926},"arcs":[490]},{"type":"LineString","properties":{"source":"naturalearthdata.com","kind":"highway","sort_rank":383,"kind_detail":"motorway","min_zoom":5.0,"id":22926},"arcs":[491]},{"type":"LineString","properties":{"source":"naturalearthdata.com","kind":"major_road","sort_rank":379,"kind_detail":"secondary","min_zoom":3.0,"id":22943},"arcs":[492]},{"type":"LineString","properties":{"source":"naturalearthdata.com","kind":"minor_road","sort_rank":355,"kind_detail":"tertiary","min_zoom":6.0,"id":23055},"arcs":[493]},{"type":"LineString","properties":{"source":"naturalearthdata.com","kind":"highway","kind_detail":"motorway","sort_rank":383,"landuse_kind":"urban_area","min_zoom":3.0,"id":23072},"arcs":[494]},{"type":"LineString","properties":{"source":"naturalearthdata.com","kind":"highway","sort_rank":383,"kind_detail":"motorway","min_zoom":3.0,"id":23072},"arcs":[495]},{"type":"LineString","properties":{"source":"naturalearthdata.com","kind":"major_road","kind_detail":"secondary","sort_rank":379,"landuse_kind":"urban_area","min_zoom":4.0,"id":48468},"arcs":[496]},{"type":"LineString","properties":{"source":"naturalearthdata.com","kind":"major_road","sort_rank":379,"kind_detail":"secondary","min_zoom":4.0,"id":48468},"arcs":[497]},{"type":"LineString","properties":{"source":"naturalearthdata.com","kind":"major_road","kind_detail":"secondary","sort_rank":379,"landuse_kind":"urban_area","min_zoom":4.0,"id":48469},"arcs":[498]},{"type":"LineString","properties":{"source":"naturalearthdata.com","kind":"major_road","sort_rank":379,"kind_detail":"secondary","min_zoom":4.0,"id":48469},"arcs":[499]},{"type":"LineString","properties":{"source":"naturalearthdata.com","kind":"highway","kind_detail":"motorway","sort_rank":383,"landuse_kind":"urban_area","min_zoom":3.0,"id":48473},"arcs":[500]},{"type":"LineString","properties":{"source":"naturalearthdata.com","kind":"highway","sort_rank":383,"kind_detail":"motorway","min_zoom":3.0,"id":48473},"arcs":[501]},{"type":"LineString","properties":{"source":"naturalearthdata.com","kind":"highway","sort_rank":383,"kind_detail":"motorway","min_zoom":3.0,"id":48474},"arcs":[502]},{"type":"LineString","properties":{"source":"naturalearthdata.com","kind":"highway","sort_rank":383,"kind_detail":"motorway","min_zoom":4.0,"id":48475},"arcs":[503]},{"type":"LineString","properties":{"source":"naturalearthdata.com","kind":"highway","sort_rank":383,"kind_detail":"motorway","min_zoom":4.0,"id":48476},"arcs":[504]},{"type":"LineString","properties":{"source":"naturalearthdata.com","kind":"highway","sort_rank":383,"kind_detail":"motorway","min_zoom":3.0,"id":48477},"arcs":[505]},{"type":"LineString","properties":{"source":"naturalearthdata.com","kind":"highway","kind_detail":"motorway","sort_rank":383,"landuse_kind":"urban_area","min_zoom":3.0,"id":48478},"arcs":[506]},{"type":"LineString","properties":{"source":"naturalearthdata.com","kind":"highway","kind_detail":"motorway","sort_rank":383,"landuse_kind":"urban_area","min_zoom":3.0,"id":48478},"arcs":[507]},{"type":"MultiLineString","properties":{"source":"naturalearthdata.com","kind":"highway","sort_rank":383,"kind_detail":"motorway","min_zoom":3.0,"id":48478},"arcs":[[508],[509]]}]},"earth":{"type":"GeometryCollection","geometries":[{"type":"MultiPolygon","properties":{"sort_rank":10,"source":"naturalearthdata.com","min_zoom":0.0,"kind":"earth","area":1444032361548},"arcs":[[[510]]]}]},"landuse":{"type":"GeometryCollection","geometries":[{"type":"MultiPolygon","properties":{"source":"openstreetmap.org","kind":"park","tier":2,"area":1791550018,"sort_rank":24,"min_zoom":6.0,"osm_relation":true},"arcs":[[[511]],[[512]],[[513]],[[514]]]},{"type":"MultiPolygon","properties":{"source":"naturalearthdata.com","kind":"urban_area","name":"","area":23006555392,"sort_rank":11,"min_zoom":4.0},"arcs":[[[515]],[[516]],[[517]],[[518]],[[519]],[[520]],[[521]],[[522]],[[523]],[[524]],[[525]],[[526]],[[527]],[[528]],[[529]],[[530]],[[531]],[[532]],[[533]],[[534]],[[535]],[[536]],[[537]],[[538]],[[539]],[[540]],[[541]],[[542]],[[543]],[[544]],[[545]],[[546]],[[547]],[[548]],[[549]],[[550]],[[551]],[[552]],[[553]],[[554]],[[555]],[[556]],[[557]],[[558]],[[559]],[[560]],[[561]],[[562]],[[563]],[[564]],[[565]],[[566]],[[567]],[[568]]]},{"type":"MultiPolygon","properties":{"source":"openstreetmap.org","kind":"park","tier":2,"area":3748638965,"sort_rank":24,"min_zoom":6.0},"arcs":[[[569]],[[570]],[[571]]]},{"type":"MultiPolygon","properties":{"source":"openstreetmap.org","kind":"nature_reserve","tier":2,"area":643957750,"sort_rank":23,"min_zoom":6.0,"osm_relation":true},"arcs":[[[572]],[[573]]]}]}},"type":"Topology","transform":{"translate":[33.75,36.5978891331],"scale":[0.001373291,0.0010698264]},"arcs":[[[3958,58],[39,1],[99,20]],[[3258,290],[48,-6],[138,-43],[36,-21],[77,-83],[21,-23],[45,-24],[51,-7]],[[2691,34],[108,71],[44,20],[120,27],[117,55],[21,6],[13,9],[70,46],[49,20],[25,2]],[[2111,216],[7,-1],[1,-1],[134,-48],[46,-3],[14,-3],[14,-6],[14,-8],[11,-11],[22,-21],[6,-12],[1,-20],[-7,-30],[3,-11],[14,-12],[14,-8]],[[2053,0],[0,21],[10,39],[8,22],[3,19],[1,18],[3,20],[9,19],[12,16],[8,18],[-3,23],[7,1]],[[3846,97],[112,-39]],[[3674,83],[118,6],[16,5],[38,3]],[[2543,57],[118,-23],[30,0]],[[2480,43],[47,12],[16,2]],[[2443,50],[12,-1],[12,-4],[13,-2]],[[2405,21],[7,2],[6,8],[11,12],[14,7]],[[1967,339],[18,34],[27,27],[51,66],[40,81],[28,43],[33,39]],[[3178,4076]],[[2428,3829],[-52,4],[-48,20],[-38,23],[-60,20],[-41,24],[-32,7],[-10,7],[-8,28],[13,24]],[[2829,3611],[-13,56],[-24,45],[-99,6],[-166,114],[-49,4]],[[2478,3836],[-50,-7]],[[3080,3555],[16,10],[3,16],[-8,10],[2,27],[8,12],[30,7],[33,3],[25,11],[21,18]],[[2829,3611],[40,-76],[56,-45]],[[3020,3558],[60,-3]],[[2925,3490],[25,4],[22,16],[22,29],[26,19]],[[3210,3669],[-69,77],[3,25],[8,18],[4,31],[-3,31],[4,32],[-4,32],[-13,26],[1,30],[12,23],[15,17],[11,28],[-2,33],[1,4]],[[2071,4031],[4,-3],[39,-1],[25,-18],[13,-23]],[[1961,3994],[80,18],[25,12],[5,7]],[[1314,4096],[61,-46],[25,-42],[24,-6]],[[1857,4096],[5,-6],[9,-22],[12,-19],[78,-55]],[[1661,3972],[31,7],[26,22],[33,22],[22,38],[11,35]],[[1480,4006],[28,-6],[96,-1],[57,-27]],[[1424,4002],[56,4]],[[2152,3986],[15,5],[15,7],[31,2],[29,10],[27,15],[11,8],[29,31],[57,32]],[[3529,13],[-4,1],[-2,1],[-2,2],[-3,5],[-2,7],[-4,17],[-1,8],[1,5],[3,2],[3,1],[36,5],[4,2],[3,4],[4,8],[2,5],[0,5],[0,4],[-10,42]],[[3583,0],[0,26],[0,3],[-1,3],[-1,3],[-2,3],[-2,2],[-3,1],[-3,0]],[[3571,41],[-3,-1],[-5,-3],[-18,-16],[-7,-5],[-6,-2],[-3,-1]],[[1940,3976],[0,7],[21,11]],[[1737,3595],[45,21],[60,39],[11,9],[6,3],[5,3],[5,48],[59,12],[32,45],[0,34],[13,31],[25,37],[-15,37],[-12,5],[-11,8],[-15,14],[-8,16],[9,13],[0,6]],[[1946,3976],[-6,0]],[[1584,3657],[59,-15],[18,-16],[21,-11],[15,-3],[15,-7],[12,-10],[13,0]],[[1281,3356],[29,60],[21,23],[40,16],[14,4],[25,11],[21,25],[20,27],[21,37],[32,71],[20,22],[60,5]],[[156,3428],[57,32],[15,4],[14,6],[20,35],[17,39],[11,7],[1,24],[-5,24],[-8,25],[-11,23],[-18,29],[-10,36],[3,33],[-6,32],[-17,35],[-5,40],[15,37],[9,37],[-36,59]],[[1149,3399],[8,64],[0,24],[7,22],[63,94],[17,68],[-1,35],[-18,42],[-12,5],[-25,5],[-55,32],[-121,20],[-23,14],[-19,34],[-30,62],[-7,25],[11,61],[2,90]],[[291,521],[-18,37],[-49,84],[-43,48],[-59,65],[-82,92],[-17,60],[3,14],[-5,46],[-21,7]],[[298,1313],[10,-49],[24,-38],[35,-14],[34,-18],[28,-40],[25,-46],[29,-28],[23,-34],[9,-53],[-18,-48],[-16,-21],[-12,-24],[-4,-42],[0,-27],[28,-41],[18,-15],[27,-30],[17,-40]],[[848,1665],[51,-142],[43,-46],[118,-1],[20,-63],[-8,-39],[4,-40],[15,-32],[8,-34],[-34,-22],[-4,-48],[-12,-57]],[[2695,3460],[27,6],[26,10],[44,61],[37,74]],[[2684,3460],[11,0]],[[2561,3413],[61,9],[27,14],[25,20],[10,4]],[[2499,3416],[62,-3]],[[2310,3372],[27,11],[95,25],[67,8]],[[2227,3383],[83,-11]],[[1703,3109],[170,33],[120,6],[108,41],[23,23],[14,36],[15,57],[20,54],[26,15],[28,9]],[[1507,2558],[38,-3],[36,-18],[7,-8],[9,-20],[6,-8],[24,-10],[24,-3],[69,-50],[72,-10]],[[1847,2448],[121,-17],[35,-28],[37,-13]],[[1792,2428],[55,20]],[[2173,2413],[63,-12],[58,-31],[26,-83],[-31,-89],[-16,-34],[-15,-35],[-19,-74],[-29,-85],[-3,-16],[-5,-13],[-17,-32],[-2,-38]],[[2040,2390],[65,23],[68,0]],[[131,2246],[-24,-61],[29,-79],[-3,-55],[-60,-58],[-28,-14]],[[45,1979],[-45,2]],[[244,1322],[54,-9]],[[76,1271],[57,15],[56,23],[55,13]],[[18,1274],[58,-3]],[[0,1273],[18,1]],[[298,1313],[241,361]],[[772,1636],[-37,11],[-31,31],[-20,10]],[[684,1688],[-42,-1],[-62,-19]],[[580,1668],[-41,6]],[[848,1665],[-76,-29]],[[930,2284],[-9,-18],[-8,-19],[-2,-23],[0,-22],[-15,-51],[-20,-48],[34,-67],[51,-67],[-3,-43],[7,-43],[-3,-43],[-65,-104],[-29,-32],[-20,-39]],[[354,2177],[-8,-38],[24,-83],[-13,-48],[-25,-42],[11,-47],[33,-22],[37,-11]],[[444,1892],[15,-4],[7,-43],[-22,-47],[0,-45],[13,-12],[30,-24],[24,-25],[28,-18]],[[413,1886],[31,6]],[[1281,3356],[50,-55],[58,-40]],[[1643,3287],[30,-30],[-5,-52],[-1,-36],[14,-27],[14,-13],[8,-20]],[[1514,3255],[34,3],[34,7],[31,13],[30,9]],[[1457,3267],[57,-12]],[[1389,3261],[68,6]],[[1208,3364],[-33,4],[-14,9],[-6,19],[-6,3]],[[1281,3356],[-36,11]],[[1245,3367],[-37,-3]],[[1149,3399],[-30,-11],[-69,-5],[-8,-42],[10,-10],[-3,-16],[-8,-21],[-1,-18],[-20,-25],[-57,-34],[-33,-4]],[[930,3213],[-62,17]],[[868,3230],[-110,-52],[-58,-3]],[[627,3161],[-111,20]],[[516,3181],[-71,-23],[-69,-31],[-115,-14],[-41,-19]],[[700,3175],[-29,3]],[[671,3178],[-44,-17]],[[1096,2258],[81,52],[33,11],[236,152],[61,85]],[[930,2284],[166,-26]],[[1703,3109],[20,-69],[36,-62],[25,-13],[8,-20],[2,-23],[-22,-76],[-53,-52],[-63,-49],[-25,-30],[-22,-34],[-18,-36],[-23,-30],[-33,-24],[-28,-33]],[[930,2284],[-9,23],[-11,23],[-6,19],[-3,22],[6,22],[-16,28],[-59,36],[-9,37],[-14,29],[-23,12],[-19,22],[-7,18],[-2,20],[-6,12],[-21,9],[-12,3]],[[0,2335],[4,-6],[15,-11],[38,-3],[24,-11],[10,-10],[45,-16],[-5,-32]],[[131,2246],[10,-14],[30,-6]],[[187,2227],[28,-12],[11,-38],[29,-25]],[[171,2226],[16,1]],[[306,2178],[32,-5]],[[255,2152],[36,21],[15,5]],[[338,2173],[16,4]],[[630,2623],[47,-11]],[[434,2108],[29,8],[-2,21],[-9,42],[16,50],[88,37],[39,24],[46,20],[30,39],[-16,36],[-22,38],[10,61],[-9,48],[-16,28],[-6,33],[3,21],[15,9]],[[677,2612],[42,7]],[[354,2177],[80,-69]],[[719,2619],[-19,44],[-31,27],[-37,6],[-32,22],[-101,122],[-9,19],[-7,22],[-13,19],[-58,1],[-33,11],[-37,42],[-38,34],[-39,1],[-15,13],[-15,15]],[[3632,3148],[15,36],[2,47]],[[3565,3153],[33,-5],[34,0]],[[3493,3121],[34,24],[38,8]],[[3423,3153],[34,-26],[36,-6]],[[3369,3027],[-5,30],[27,77],[32,19]],[[3466,2995],[14,3],[8,26],[-15,18]],[[3473,3042],[-53,-13],[-51,-2]],[[3452,2996],[14,-1]],[[3358,2386],[16,25],[7,32],[-4,15],[-4,14],[1,18],[3,16],[-4,28],[-10,27],[0,31],[-1,17],[-4,10],[9,2],[7,7],[6,8],[8,8],[26,16],[6,15],[-17,23],[-24,15],[-25,24],[-9,36],[17,32],[8,98],[35,47],[19,31],[28,15]],[[4096,2711],[-41,2]],[[4055,2713],[-29,-15],[-30,-8]],[[3996,2690],[-39,7]],[[3957,2697],[-38,-8],[-72,-27],[-20,-15],[-13,-26],[-18,-9]],[[3796,2612],[-21,1]],[[3775,2613],[-11,-14],[-8,-16],[-9,-5],[-43,-16],[-11,-30],[9,-28],[10,-18],[-20,-12],[-19,-4],[-18,-10],[-10,-53],[-16,-8],[-4,-1],[-6,-5],[-2,-22],[3,-22],[6,-4],[6,-7],[6,-57]],[[0,3462],[88,-27],[68,-7]],[[220,3094],[-1,47],[20,39],[14,23],[3,30],[-10,27],[-1,12],[-1,10],[-14,15],[-18,2],[-18,18],[-30,67],[-8,44]],[[220,3094],[7,-19],[3,-19],[-2,-20],[7,-19]],[[235,3017],[-116,-111],[-33,-96],[-50,-78],[-36,-29]],[[2006,1612],[27,29],[23,34],[56,65],[23,38],[9,49],[14,29],[25,15]],[[2410,1860],[-19,9],[-18,12],[-95,14]],[[2278,1895],[-95,-24]],[[2574,1875],[-164,-15]],[[3358,2386],[-57,-19],[-52,-40],[-47,-14]],[[3202,2313],[-49,7]],[[3153,2320],[-26,-5],[-25,-10],[-57,-1],[-27,-14],[-26,-17],[-27,-12],[-26,-17],[-61,-13]],[[2878,2231],[-62,30]],[[2816,2261],[-32,-8],[-16,-36],[7,-44],[14,-42],[8,-20],[4,-21],[-12,-35],[-51,-56],[-31,-21],[-17,-5],[-37,-44],[-37,-34],[-42,-20]],[[3596,2267],[-47,55],[-31,19],[-33,13],[-69,3],[-58,29]],[[2552,1747],[-13,0],[-8,56],[43,72]],[[2778,1143],[31,55],[37,138],[17,28],[11,11],[13,22],[5,28],[40,107],[4,39],[-35,63],[-57,27],[-50,14],[-93,56],[-108,24]],[[2593,1755],[-14,-2],[-27,-6]],[[3638,2281],[28,-42],[1,-27],[-11,-25],[-1,-26],[32,-30],[20,-1]],[[3822,2149],[31,-13]],[[3707,2130],[58,15],[57,4]],[[3875,2141],[7,-1],[23,-14],[23,-2],[29,-8],[30,-3],[34,-16],[31,-22],[32,-10],[12,-9]],[[3853,2136],[7,1],[15,4]],[[3638,2281],[-23,-4],[-19,-10]],[[3596,2267],[-52,-3],[-20,-26],[0,-39],[13,-24],[9,-27],[3,-57],[0,-21],[9,-29],[-3,-5],[1,-13],[-1,-9],[-10,-4]],[[3545,2010],[-80,8]],[[3465,2018],[-18,-4],[-9,-11],[5,-14],[-4,-17],[-9,-14],[-10,-6],[-18,-3],[-14,-9],[-11,-12],[-9,-14],[-4,-10],[-4,-17],[-11,-20],[2,-6],[4,-6],[3,-9],[2,-15],[7,-19],[9,-17],[12,-10]],[[3396,1794],[9,-4],[13,-17],[9,-9],[9,-5],[10,-4],[42,-5],[19,-5],[4,-2],[12,-12]],[[3388,1785],[8,9]],[[3537,1734],[59,-30],[21,-2]],[[3523,1731],[5,0],[4,3],[5,0]],[[3685,1722],[17,-13],[-5,-7],[19,-13],[6,-6],[16,-28],[2,-4],[18,-3],[12,-8],[22,-20],[25,-5]],[[3617,1702],[45,17],[23,3]],[[3876,1636],[31,-4]],[[3817,1615],[59,21]],[[3210,3669],[60,-222],[-2,-53],[27,-40],[41,-20],[44,-34],[46,-27]],[[3500,3292],[76,-25],[73,-36]],[[3426,3273],[74,19]],[[3681,3229],[64,5],[29,13]],[[3649,3231],[32,-2]],[[291,521],[24,31],[20,12],[64,23],[41,21],[32,32],[22,11],[39,14],[13,10],[9,30]],[[291,521],[-52,-21],[-55,-4],[-26,-12],[-70,-54],[-53,-10],[-27,-15],[-8,-1]],[[758,738],[-51,13]],[[707,751],[-50,-22],[-23,-14],[-24,-9],[-55,-1]],[[1049,1141],[-95,-98],[-72,-12]],[[882,1031],[-37,12],[-37,3]],[[808,1046],[-23,-34],[3,-47],[19,-47],[5,-25],[-11,-40],[-10,-11],[-12,-9],[-18,-30],[-4,-20],[1,-45]],[[2006,1612],[-31,33],[-18,49],[-27,43],[-38,17]],[[1892,1754],[-59,-16],[-56,-32],[-32,-26],[-31,-78],[-21,-28],[-31,-64],[-39,-55],[-270,-188],[16,-171],[-38,-19]],[[1331,1077],[-90,36],[-66,17],[-126,11]],[[2006,1612],[-40,-39],[-23,-58],[-36,-165],[-22,-60],[-9,-62],[-2,-28],[5,-44],[23,-58],[-2,-38],[-24,-24],[-14,-8],[-20,-27]],[[1842,1001],[0,-73],[-17,-27],[-20,-23],[-6,-29],[9,-26],[10,-10],[8,-12],[3,-62],[30,-37]],[[2039,740],[28,-7],[26,-18],[39,-38],[32,-48]],[[1908,709],[25,4],[27,11],[21,4],[58,12]],[[1896,723],[12,-14]],[[1859,702],[7,1],[5,9],[7,4],[9,2],[9,5]],[[758,738],[24,-55],[28,-52],[35,-28],[2,-95],[16,-54],[34,-26]],[[942,430],[28,-30],[-22,-58],[0,-53],[11,-53],[3,-26],[-3,-25],[-28,-26],[-30,-8],[-39,-28],[0,-2]],[[897,428],[45,2]],[[2778,1143],[-35,-45],[-40,-36],[-29,-37],[0,-56],[25,-42],[44,-16],[79,-50]],[[3503,1524],[42,-9],[3,-30],[-28,-27],[-15,-10],[6,-20],[12,-6],[11,-8],[44,-12]],[[3075,1185],[27,9],[25,13],[61,15],[45,40],[1,49],[19,37],[57,32],[45,70],[54,61],[51,0],[43,13]],[[3680,1395],[53,11],[21,1],[19,4],[30,15],[31,7],[40,19],[33,39]],[[3629,1403],[51,-8]],[[3578,1402],[51,1]],[[3013,1199],[31,-9],[31,-5]],[[2778,1143],[104,20],[64,27],[67,9]],[[3961,1351],[-29,-21],[-44,-13],[-12,-7],[-9,-11],[-4,-14],[-3,-31],[-8,-13],[-9,-7],[-36,-11],[8,-15],[0,-11],[-5,-12],[-8,-14],[4,-4],[2,-7],[-1,-8],[-5,-7]],[[3802,1145],[-4,0],[-15,6],[-6,0]],[[3777,1151],[-11,-4],[-10,-8],[-7,-11],[-7,-15]],[[3782,1132],[7,-7],[-1,-25],[9,-13],[-14,-4],[-17,0],[-15,-4],[-9,-11],[7,-5],[18,-20],[-5,-4],[-6,-3],[-6,0]],[[3742,1113],[11,3],[19,15],[10,1]],[[3750,1036],[-13,8]],[[3737,1044],[-5,-4],[-4,-7],[-4,-4],[-2,-1],[-4,-2],[-5,-2],[-6,-1]],[[3707,1023],[-3,2],[-10,9],[-2,2]],[[3692,1036],[-14,-9],[13,-15],[36,-27],[-162,-26],[-35,-38],[-7,-3],[-9,-17],[-44,-47],[-15,-10],[-89,-16]],[[3366,828],[-23,10]],[[3343,838],[-42,-16],[-8,-1],[-5,-20],[-11,-6]],[[3277,795],[-32,5]],[[3245,800],[-6,-5],[-1,-12],[0,-11],[-3,-5],[-2,-1],[-1,-2],[-2,-2],[-4,-1]],[[3226,761],[-3,2],[-1,8],[-3,3],[-33,7],[-12,7],[-10,12]],[[3164,800],[-22,-16],[-8,0]],[[3134,784],[-10,9]],[[2822,861],[-2,-28],[6,-28],[-10,-42],[-31,-21]],[[2785,742],[-46,1]],[[2739,743],[-45,-6],[-98,-35],[-91,-16],[-41,-21],[-66,-71]],[[2398,594],[-56,19],[-21,83],[-35,23]],[[2286,719],[-34,-48],[-88,-42]],[[3124,793],[-13,-3]],[[3111,790],[-12,2]],[[3099,792],[-12,0],[-11,-9],[-32,-42],[-25,-25],[-8,-12],[-4,-24],[-5,-4],[-6,-3],[-5,-5],[-4,-8],[-8,-34],[10,-7],[9,-10],[5,-14],[1,-20],[-5,0]],[[2999,575],[-5,11],[-7,2]],[[2987,588],[-6,-7],[-2,-15],[2,-16],[5,-12],[13,-20],[4,-11],[2,-9],[-1,-22],[-5,-28],[1,-11],[8,-10]],[[3017,432],[8,-4],[6,-8],[7,-5]],[[3008,427],[9,5]],[[3071,427],[8,-4],[-1,-11],[-9,-23],[-1,-14],[3,-8],[10,-13],[20,-18],[2,-8],[1,-23],[2,-10],[2,-9],[13,-14],[3,-8],[-8,-3],[-6,-6],[-1,-12],[1,-13],[4,-8]],[[3038,415],[6,1],[17,9],[10,2]],[[2902,878],[79,-2],[86,-32],[57,-51]],[[2822,861],[80,17]],[[1683,385],[-16,7],[-16,3]],[[1651,395],[-13,-9],[-60,-71],[0,-39],[11,-19]],[[1775,381],[-30,1],[-30,8]],[[1715,390],[-32,-5]],[[1931,334],[-36,1],[-28,18],[-24,27],[-33,10]],[[1810,390],[-35,-9]],[[1967,339],[-36,-5]],[[1967,339],[48,-48],[58,-27],[13,-12],[6,-19],[9,-9],[12,-1],[6,-9]],[[3907,1491],[24,85],[-2,22],[-10,21],[-12,13]],[[4096,1631],[-29,2],[-60,16]],[[4007,1649],[-100,-17]],[[4096,1309],[-19,1],[-59,9],[-57,32]],[[3961,1351],[26,19],[7,12],[-7,13],[17,37],[6,22],[-3,25],[-22,23]],[[3985,1502],[-59,-24]],[[3926,1478],[-19,13]],[[26,4096],[-2,-6],[28,-45],[42,-15],[23,-21],[25,-17],[30,-6],[30,-1]],[[377,4096],[9,-10],[-17,-47],[-104,-41],[-63,-13]],[[4096,3084],[-35,18],[-44,13],[-13,12],[-11,16],[-27,17],[-28,11],[-79,46],[-22,6],[-22,3],[-21,9],[-20,12]],[[3774,3247],[7,31],[-20,26],[-7,32],[4,34],[-4,31],[1,31],[16,20],[73,39],[22,18],[5,34],[-17,5],[-20,20],[-20,16],[-86,21],[-20,24],[-2,33],[5,42],[2,7],[8,11],[22,22],[13,25],[-9,29],[9,24],[23,14],[21,18],[18,5],[14,7],[3,14],[6,11],[87,10]],[[4096,3788],[-22,9],[-48,49],[-11,55],[-31,17]],[[3984,3918],[-12,-16],[-15,-13]],[[3957,3889],[-16,1],[-13,11]],[[3915,4096],[-5,-27],[-2,-47],[7,-85],[13,-36]],[[2322,2916],[-81,13],[-48,81],[-95,41],[-203,-22]],[[3372,1788],[-19,29],[-7,19],[-7,34],[17,37],[14,28],[14,20],[37,16],[14,20],[3,12],[12,-25],[-7,-18],[-34,-20],[-23,-19],[-10,-23],[-13,-25],[0,-19],[6,-25],[19,-14],[19,-3],[12,-9],[19,-16],[47,-21],[32,-15],[31,-9],[35,-14],[20,-4],[19,-1],[27,0],[29,10],[29,13],[5,-26],[13,-13],[10,-34],[18,-5],[26,-18],[19,-18],[22,-6],[13,4],[27,7],[16,-1],[-34,-26],[-63,-9],[-17,-16],[-11,-5],[15,30],[2,22],[-10,5],[-16,4],[-14,14],[-13,19],[-14,11],[-7,9],[-13,14],[-17,-6],[-20,-9],[-17,-5],[-22,-1],[-14,10],[-34,16],[-44,15],[-28,6],[-22,5],[-19,8],[-25,9],[-19,15],[-14,5],[-14,12]],[[3648,4096],[-3,-4],[-9,-3],[-7,-6],[-7,-6],[-5,-4],[-7,-2],[-14,0],[-8,-4],[-5,5],[-11,16],[-4,4],[-9,0],[-24,-7],[-9,-5],[-27,-26],[-11,-8],[-56,-2],[-8,-7],[-18,2],[-28,7],[-27,-8],[-15,0],[-32,27],[-14,3],[-32,-8],[-17,0],[-29,10],[-43,7],[-58,19],[537,0]],[[1087,0],[-692,0],[11,10],[78,51],[64,59],[23,13],[4,4],[7,18],[4,4],[22,12],[8,4],[22,3],[49,24],[31,7],[21,-12],[4,7],[60,-33],[30,-33],[10,-5],[-4,-15],[-1,-4],[10,5],[11,2],[3,0],[9,1],[12,-2],[14,-5],[24,-17],[20,-7],[146,-91]],[[1299,0],[-37,0],[-3,1],[2,8],[6,6],[10,3],[7,-4],[15,-14]],[[1770,0],[-416,0],[3,2],[7,2],[6,5],[1,10],[0,12],[3,9],[5,8],[6,16],[4,8],[28,29],[-12,-3],[-9,-6],[-33,-39],[-10,-7],[-1,10],[12,21],[20,16],[43,21],[-10,4],[-8,-3],[-7,-5],[-8,-3],[-5,5],[-3,9],[-4,5],[-10,-6],[4,-6],[1,-6],[-2,-7],[-3,-6],[-2,4],[-2,4],[-2,3],[-4,1],[-3,-15],[-16,5],[-11,-15],[-5,14],[7,11],[11,12],[7,14],[6,-4],[2,-4],[0,-5],[-3,-6],[8,6],[9,17],[8,9],[26,10],[61,3],[28,7],[11,9],[24,29],[7,6],[12,3],[10,9],[42,52],[25,23],[25,10],[28,-7],[27,-20],[25,-26],[43,-63],[7,-17],[3,-14],[-1,-59],[1,-6],[3,-10],[3,-8],[3,-9],[1,-12],[-4,-14],[-7,-19],[-9,-17],[-6,-6]],[[3542,889],[-8,-7],[1,-20],[-2,-26],[-18,-15],[-11,5],[-12,2],[-19,-9],[10,-20],[18,-27],[-13,-6],[-36,26],[-44,17],[-42,9],[-27,10],[-13,13],[-1,19],[-9,15],[-13,16],[-4,10],[-5,11],[-13,10],[-6,11],[7,15],[15,3],[23,-14],[4,-17],[6,-14],[13,5],[6,31],[-5,46],[-2,23],[18,-21],[19,-6],[8,9],[18,0],[10,-6],[7,-17],[7,-13],[-13,4],[-15,1],[-3,-17],[-8,-6],[-15,-4],[-8,-21],[-5,-20],[4,-11],[2,-13],[0,-19],[9,-12],[6,12],[8,9],[8,6],[23,7],[27,12],[5,22],[9,11],[18,3],[8,7],[12,10],[14,5],[12,2],[20,10],[2,18],[4,12],[23,-1],[32,-2],[24,10],[-18,32],[-24,33],[-10,18],[-6,35],[7,11],[13,-25],[5,-22],[25,-45],[35,-37],[24,0],[4,11],[-18,25],[19,16],[25,-2],[20,10],[2,23],[-5,9],[15,9],[7,2],[11,-2],[11,11],[-2,15],[-33,-20],[-1,35],[12,12],[19,18],[18,-2],[8,17],[9,7],[6,31],[13,-18],[-4,-26],[-2,-25],[-15,-16],[6,-12],[0,-17],[-5,-26],[-19,-2],[-13,-19],[5,-16],[-17,-12],[11,-2],[14,3],[3,-10],[-14,-5],[-14,9],[-17,-6],[-30,1],[-5,-10],[31,-20],[-2,-15],[-33,2],[-24,-8],[-18,-6],[-20,-5],[-28,-5],[-25,-2],[-14,-3],[-7,-11],[-14,-26],[-11,-20]],[[4096,1865],[-3,0],[-12,18],[8,11],[7,3],[0,-32]],[[4096,2040],[-2,8],[-3,7],[-9,7],[-7,2],[-16,-2],[-13,3],[-14,9],[-21,19],[-2,4],[-1,5],[-2,5],[-5,6],[-3,-3],[-4,-3],[-4,-1],[-8,0],[0,-6],[4,-10],[-3,-5],[-7,-1],[-9,3],[-18,20],[-7,6],[-21,7],[-13,-5],[-9,-14],[-7,-21],[-10,12],[-2,17],[4,22],[-14,2],[-8,-2],[-5,-3],[-3,-4],[-3,-4],[-7,-1],[-14,5],[-9,8],[-9,2],[-13,-12],[-5,-3],[-7,4],[-7,6],[-8,2],[-2,-2],[-3,-4],[-5,-4],[-8,-2],[-7,-1],[-5,-1],[-3,-2],[-12,-17],[-10,2],[-5,2],[-1,5],[-3,4],[-8,2],[-15,0],[-7,-2],[-6,-5],[-3,-14],[-1,-17],[-5,-10],[-16,9],[-6,13],[2,12],[8,9],[11,5],[-4,12],[-9,8],[-10,7],[-9,7],[-7,4],[-8,-4],[-11,-3],[-12,7],[-12,0],[-12,27],[-8,34],[2,22],[7,-1],[4,-13],[4,-17],[3,-7],[4,-4],[5,-18],[1,-4],[25,0],[9,5],[9,11],[14,22],[5,10],[4,13],[-2,11],[-9,5],[-9,2],[-23,12],[-6,5],[-3,11],[8,0],[12,-3],[14,-1],[0,6],[-4,7],[-3,21],[-3,11],[5,1],[4,0],[3,-1],[2,0],[6,-7],[3,-11],[2,-10],[2,-5],[1,-5],[22,-19],[4,-2],[3,-11],[-1,-10],[0,-10],[6,-10],[22,-29],[-13,-11],[-9,-4],[-23,3],[0,-7],[24,-5],[6,-1],[35,6],[0,7],[-5,2],[-6,7],[-4,3],[10,23],[5,6],[0,8],[0,8],[0,7],[3,2],[6,1],[4,1],[2,5],[1,7],[9,16],[5,0],[-10,-44],[-5,-14],[8,-15],[3,-12],[7,-8],[19,-3],[8,3],[-1,7],[-4,10],[2,9],[7,2],[4,-7],[3,-10],[4,-9],[6,-5],[4,-2],[10,2],[1,4],[5,6],[6,0],[5,-24],[5,-9],[8,-4],[16,9],[8,-4],[11,-11],[62,-6],[8,-2],[14,-9],[8,-2],[10,2],[3,6],[1,6],[3,5],[13,0],[5,-11],[6,-14],[9,-6],[4,-4],[6,-9],[6,-9],[9,-4],[16,-3],[16,-4],[5,-4],[0,-36]],[[3648,4096],[-3,-4],[-9,-3],[-7,-6],[-7,-6],[-5,-4],[-7,-2],[-14,0],[-8,-4],[-5,5],[-11,16],[-4,4],[-9,0],[-24,-7],[-9,-5],[-27,-26],[-11,-8],[-56,-2],[-8,-7],[-18,2],[-28,7],[-27,-8],[-15,0],[-32,27],[-14,3],[-32,-8],[-17,0],[-29,10],[-43,7],[-58,19]],[[395,0],[11,10],[78,51],[64,59],[23,13],[4,4],[7,18],[4,4],[22,12],[8,4],[22,3],[49,24],[31,7],[21,-12],[4,7],[60,-33],[30,-33],[10,-5],[-4,-15],[-1,-4],[10,5],[11,2],[3,0],[9,1],[12,-2],[14,-5],[24,-17],[20,-7],[146,-91]],[[1262,0],[-3,1],[2,8],[6,6],[10,3],[7,-4],[15,-14]],[[1354,0],[3,2],[7,2],[6,5],[1,10],[0,12],[3,9],[5,8],[6,16],[4,8],[28,29],[-12,-3],[-9,-6],[-33,-39],[-10,-7],[-1,10],[12,21],[20,16],[43,21],[-10,4],[-8,-3],[-7,-5],[-8,-3],[-5,5],[-3,9],[-4,5],[-10,-6],[4,-6],[1,-6],[-2,-7],[-3,-6],[-2,4],[-2,4],[-2,3],[-4,1],[-3,-15],[-16,5],[-11,-15],[-5,14],[7,11],[11,12],[7,14],[6,-4],[2,-4],[0,-5],[-3,-6],[8,6],[9,17],[8,9],[26,10],[61,3],[28,7],[11,9],[24,29],[7,6],[12,3],[10,9],[42,52],[25,23],[25,10],[28,-7],[27,-20],[25,-26],[43,-63],[7,-17],[3,-14],[-1,-59],[1,-6],[3,-10],[3,-8],[3,-9],[1,-12],[-4,-14],[-7,-19],[-9,-17],[-6,-6]],[[3372,1788],[-19,29],[-7,19],[-7,34],[17,37],[14,28],[14,20],[37,16],[14,20],[3,12],[12,-25],[-7,-18],[-34,-20],[-23,-19],[-10,-23],[-13,-25],[0,-19],[6,-25],[19,-14],[19,-3],[12,-9],[19,-16],[47,-21],[32,-15],[31,-9],[35,-14],[20,-4],[19,-1],[27,0],[29,10],[29,13],[5,-26],[13,-13],[10,-34],[18,-5],[26,-18],[19,-18],[22,-6],[13,4],[27,7],[16,-1],[-34,-26],[-63,-9],[-17,-16],[-11,-5],[15,30],[2,22],[-10,5],[-16,4],[-14,14],[-13,19],[-14,11],[-7,9],[-13,14],[-17,-6],[-20,-9],[-17,-5],[-22,-1],[-14,10],[-34,16],[-44,15],[-28,6],[-22,5],[-19,8],[-25,9],[-19,15],[-14,5],[-14,12]],[[3542,889],[-8,-7],[1,-20],[-2,-26],[-18,-15],[-11,5],[-12,2],[-19,-9],[10,-20],[18,-27],[-13,-6],[-36,26],[-44,17],[-42,9],[-27,10],[-13,13],[-1,19],[-9,15],[-13,16],[-4,10],[-5,11],[-13,10],[-6,11],[7,15],[15,3],[23,-14],[4,-17],[6,-14],[13,5],[6,31],[-5,46],[-2,23],[18,-21],[19,-6],[8,9],[18,0],[10,-6],[7,-17],[7,-13],[-13,4],[-15,1],[-3,-17],[-8,-6],[-15,-4],[-8,-21],[-5,-20],[4,-11],[2,-13],[0,-19],[9,-12],[6,12],[8,9],[8,6],[23,7],[27,12],[5,22],[9,11],[18,3],[8,7],[12,10],[14,5],[12,2],[20,10],[2,18],[4,12],[23,-1],[32,-2],[24,10],[-18,32],[-24,33],[-10,18],[-6,35],[7,11],[13,-25],[5,-22],[25,-45],[35,-37],[24,0],[4,11],[-18,25],[19,16],[25,-2],[20,10],[2,23],[-5,9],[15,9],[7,2],[11,-2],[11,11],[-2,15],[-33,-20],[-1,35],[12,12],[19,18],[18,-2],[8,17],[9,7],[6,31],[13,-18],[-4,-26],[-2,-25],[-15,-16],[6,-12],[0,-17],[-5,-26],[-19,-2],[-13,-19],[5,-16],[-17,-12],[11,-2],[14,3],[3,-10],[-14,-5],[-14,9],[-17,-6],[-30,1],[-5,-10],[31,-20],[-2,-15],[-33,2],[-24,-8],[-18,-6],[-20,-5],[-28,-5],[-25,-2],[-14,-3],[-7,-11],[-14,-26],[-11,-20]],[[4096,1865],[-3,0],[-12,18],[8,11],[7,3]],[[4096,2040],[-2,8],[-3,7],[-9,7],[-7,2],[-16,-2],[-13,3],[-14,9],[-21,19],[-2,4],[-1,5],[-2,5],[-5,6],[-3,-3],[-4,-3],[-4,-1],[-8,0],[0,-6],[4,-10],[-3,-5],[-7,-1],[-9,3],[-18,20],[-7,6],[-21,7],[-13,-5],[-9,-14],[-7,-21],[-10,12],[-2,17],[4,22],[-14,2],[-8,-2],[-5,-3],[-3,-4],[-3,-4],[-7,-1],[-14,5],[-9,8],[-9,2],[-13,-12],[-5,-3],[-7,4],[-7,6],[-8,2],[-2,-2],[-3,-4],[-5,-4],[-8,-2],[-7,-1],[-5,-1],[-3,-2],[-12,-17],[-10,2],[-5,2],[-1,5],[-3,4],[-8,2],[-15,0],[-7,-2],[-6,-5],[-3,-14],[-1,-17],[-5,-10],[-16,9],[-6,13],[2,12],[8,9],[11,5],[-4,12],[-9,8],[-10,7],[-9,7],[-7,4],[-8,-4],[-11,-3],[-12,7],[-12,0],[-12,27],[-8,34],[2,22],[7,-1],[4,-13],[4,-17],[3,-7],[4,-4],[5,-18],[1,-4],[25,0],[9,5],[9,11],[14,22],[5,10],[4,13],[-2,11],[-9,5],[-9,2],[-23,12],[-6,5],[-3,11],[8,0],[12,-3],[14,-1],[0,6],[-4,7],[-3,21],[-3,11],[5,1],[4,0],[3,-1],[2,0],[6,-7],[3,-11],[2,-10],[2,-5],[1,-5],[22,-19],[4,-2],[3,-11],[-1,-10],[0,-10],[6,-10],[22,-29],[-13,-11],[-9,-4],[-23,3],[0,-7],[24,-5],[6,-1],[35,6],[0,7],[-5,2],[-6,7],[-4,3],[10,23],[5,6],[0,8],[0,8],[0,7],[3,2],[6,1],[4,1],[2,5],[1,7],[9,16],[5,0],[-10,-44],[-5,-14],[8,-15],[3,-12],[7,-8],[19,-3],[8,3],[-1,7],[-4,10],[2,9],[7,2],[4,-7],[3,-10],[4,-9],[6,-5],[4,-2],[10,2],[1,4],[5,6],[6,0],[5,-24],[5,-9],[8,-4],[16,9],[8,-4],[11,-11],[62,-6],[8,-2],[14,-9],[8,-2],[10,2],[3,6],[1,6],[3,5],[13,0],[5,-11],[6,-14],[9,-6],[4,-4],[6,-9],[6,-9],[9,-4],[16,-3],[16,-4],[5,-4]],[[1399,4091],[-8,5]],[[1399,4091],[21,0],[24,4],[3,1]],[[840,4091],[-18,0],[-17,5]],[[772,4096],[-16,-9],[-24,8],[-18,0],[-12,-4],[-21,-4],[-21,8],[-1,1]],[[3007,4096],[1,-2]],[[3008,4094],[4,-7],[15,-4]],[[187,4096],[-10,-13],[-48,-4],[-18,-7],[-27,0],[-24,-8],[-22,-15],[-33,-12],[-5,-2]],[[3420,4022],[27,7],[33,-4],[12,4],[15,16],[12,0],[33,-16],[30,0],[12,4],[15,19],[30,8],[37,23],[13,13]],[[3373,4029],[5,4],[21,-8],[12,-2]],[[3054,4084],[10,2]],[[3027,4083],[24,0],[3,1]],[[3064,4086],[8,1],[27,-4],[18,-7],[15,-4],[51,-20],[48,-7],[30,0],[24,4],[39,-24],[18,-7],[18,0],[13,11]],[[3411,4023],[9,-1]],[[1366,4002],[0,20],[6,15],[21,12],[0,34],[6,8]],[[1252,3991],[0,7],[45,0],[12,8],[57,-4]],[[1252,3991],[-15,4],[-21,-8],[-15,4],[-114,7],[-24,8],[-18,16],[-21,27],[-6,11],[-9,8],[-18,0],[-18,23],[-12,5]],[[866,4096],[-14,-5],[-12,0]],[[1563,3815],[-41,-13]],[[1837,3910],[-15,-16],[-15,-3],[-12,-12],[-21,-8],[-15,8],[-12,15],[-9,4],[-15,-7],[-24,3],[-33,0],[-21,-7],[-18,-8],[-12,-15],[-21,-31],[-12,-12],[-19,-6]],[[1522,3802],[-15,35],[-6,13]],[[1501,3850],[-3,6],[-48,23],[-21,15],[-27,27],[-27,23],[-9,20],[3,23],[-3,15]],[[1522,3802],[-6,-16],[-5,-3]],[[1511,3783],[-7,-4],[3,-12]],[[967,3752],[30,19],[24,8],[27,19],[39,15],[30,16],[24,4],[33,15],[15,12],[12,15],[12,19],[9,12],[9,23],[21,62]],[[4096,3771],[-3,-4],[-24,-11],[-21,-20]],[[882,3690],[24,23],[11,4]],[[917,3717],[1,0],[21,15],[28,20]],[[2003,3839],[9,-6],[18,-8],[15,-12],[17,-3]],[[1837,3910],[9,-4],[28,-4],[6,-4],[15,-23],[9,-8],[21,-11],[45,0],[9,-8],[18,-4],[6,-5]],[[2062,3810],[19,-4],[30,-8],[12,-4],[9,-11],[18,-8],[15,-19],[15,0],[6,3],[18,-3],[18,-20],[45,-15],[12,-12],[15,-19]],[[873,3683],[9,7]],[[774,3594],[27,23],[15,4],[30,27],[9,23],[12,7],[6,5]],[[4033,3710],[0,-5],[9,-4]],[[4044,3719],[-2,-1]],[[4042,3718],[-9,-5],[0,-3]],[[4042,3701],[33,-19],[6,-4],[12,-3],[3,1]],[[4048,3736],[9,-11],[-13,-6]],[[1740,3601],[4,-3],[0,-20],[-6,-7],[-36,-31]],[[1507,3767],[0,-11],[-6,-27],[-12,-16],[0,-4],[39,0],[30,4],[36,-4],[69,0],[33,4],[21,4],[24,0],[0,-15],[12,-20],[-6,-15],[-3,-16],[6,-23],[-21,-19],[11,-8]],[[1702,3540],[15,-7]],[[1717,3533],[18,-9],[27,-31],[36,-3],[33,-20],[15,-4],[43,20],[18,0],[15,-4],[21,-4]],[[2625,3555],[-1,0],[-32,8]],[[2592,3563],[-46,11],[-54,-7],[-63,15],[-15,12],[-18,4],[-27,11],[-9,4],[-12,12],[-36,26],[-18,39]],[[2976,3455],[-21,8],[-15,-4],[-9,-8],[-33,4],[-48,19],[-18,19],[-103,31],[-15,8],[-48,12],[-24,7],[-17,4]],[[3072,3416],[-27,8],[-6,4],[-12,19],[-27,-4],[-9,0],[-15,12]],[[3129,3393],[-15,12],[-39,0],[-3,11]],[[3162,3335],[-9,12],[-2,10]],[[3151,3357],[-1,9],[-12,12],[-9,15]],[[797,3341],[-5,14],[-12,15],[-1,2]],[[779,3372],[-14,25],[3,31],[-3,27],[9,23],[9,8],[-12,15],[-3,46],[6,47]],[[798,3335],[-1,6]],[[805,3337],[3,0]],[[798,3335],[7,2]],[[808,3337],[26,6],[33,0],[39,8],[36,-8],[9,0],[25,8],[27,4],[30,0],[12,-8],[24,-4],[18,-8],[30,-3],[27,7],[42,-4],[21,-11],[12,-16],[18,-15],[9,-19],[12,-8],[12,-19],[21,-20]],[[3171,3343],[-9,-8]],[[3594,3146],[-12,20],[-18,0],[-15,23],[-18,4],[-18,15],[-18,35],[-15,19],[-24,12],[-24,4],[-33,-4],[-9,0],[-30,15],[-18,12],[-24,-12],[-21,0],[-30,8],[-42,27],[-15,19],[-12,8],[-27,-8]],[[177,3096],[6,4],[21,31],[15,31],[3,15],[12,23],[9,35],[12,8],[24,11],[51,39],[12,8],[18,7],[18,-3],[27,11],[9,8],[36,8],[21,19],[33,4],[6,0],[18,23],[42,23],[21,23],[15,8],[27,4],[36,30],[24,12],[18,19],[6,12],[3,42],[9,20],[12,7],[21,8],[12,8]],[[2943,3073],[-18,8]],[[2072,3054],[-6,8],[-24,27],[-9,15],[-15,46],[-12,27],[-3,27],[-15,58],[6,46],[0,54],[6,16],[9,4],[15,15],[9,0]],[[177,3096],[-12,0],[-6,16],[-12,11],[-15,0],[-12,8],[-27,-4],[-42,4],[-22,-15],[-29,-28]],[[3594,3146],[-27,-3],[-12,-4],[-12,-20],[-6,-7],[-33,4],[-27,-8],[-18,-4],[-18,-4],[-9,-19],[-21,-12],[-6,-19],[-36,-19],[-27,4],[-30,-12],[-27,4],[-27,19],[-18,8],[-18,4],[-24,-4],[-30,4],[-42,11],[-30,0],[-36,-3],[-63,-16],[-21,4],[-18,15],[-15,4]],[[3594,3146],[27,-3],[24,-20],[12,-19],[25,-4],[24,-11],[24,0],[21,7],[27,0],[39,-15],[9,0],[51,-12],[27,-3],[36,7],[18,0],[30,-7],[33,-4],[15,-4],[51,-50],[9,-2]],[[1291,3227],[-6,-15],[-12,-8],[-24,-4],[-24,-27],[-18,-11],[-27,0],[-27,-16],[-9,-7],[-15,-23],[-9,-66],[-9,-19],[-27,-31],[0,-15]],[[1084,2985],[-24,19],[-12,4],[-39,4],[-6,3],[-48,0],[-37,12],[-30,15],[-30,8]],[[2925,3081],[-9,0],[-18,-8],[-45,-7],[-21,-12],[-27,0],[-18,8],[-9,7],[-16,0],[-33,-19],[-39,-4],[-39,4],[-9,-8],[-15,0],[-24,-7],[-12,-8],[-33,-8],[-27,0],[-36,-4],[-27,-11]],[[2300,2931],[-21,-12],[-27,-4],[-24,19],[-21,20],[-39,27],[-18,27],[-12,7],[-42,24],[-12,3],[-12,12]],[[561,2865],[-33,27],[-30,8],[-21,11],[-39,16],[-45,4],[-12,3],[-18,20],[-24,38],[-12,12],[-48,0],[-15,8],[-9,11],[-12,39],[-21,15],[-21,4],[-24,15]],[[858,3050],[-18,0],[-12,-4],[-24,-19],[-9,-4],[-27,-4],[-6,-4],[-15,-15],[-12,-35],[-21,-31],[-21,-23],[-24,-15],[-30,4],[-18,-4],[-21,-16],[-15,-19],[-24,4]],[[2072,3054],[-24,-15],[-15,-4],[-45,-4],[-24,0],[-54,-8],[-24,-8],[-31,-3],[-36,0],[-9,0],[-30,-16],[-15,4],[-45,8],[-21,0],[-24,-4],[-15,-4],[-18,-15],[-24,-4],[-21,-4],[-18,-16],[-9,-27],[-18,-15],[-15,-42],[-15,-12],[-9,-4],[-21,16],[-3,11],[-27,4],[-63,8],[-39,-12],[-3,0],[-39,-11],[-21,-8],[-12,0],[-27,11],[-33,0],[-9,16],[-15,8],[-30,7],[-21,8],[-18,12],[-18,27],[-30,27]],[[2417,2796],[-3,23],[9,19],[-3,12],[-6,11],[-6,16],[-9,23],[3,15],[-12,23],[-12,8]],[[1084,2985],[-12,-43],[0,-11],[9,-31],[0,-54],[12,-27],[27,-31],[9,-23],[9,-12],[21,-4],[18,-19],[0,-23]],[[2417,2796],[9,-23],[0,-24],[-18,-65],[-18,-16],[-3,-11],[24,-4],[9,-15],[6,-16]],[[1937,2572],[39,12],[36,38],[9,8],[12,15],[15,8],[21,8],[30,0],[33,27],[21,11],[27,12],[33,19],[24,8],[33,19],[15,4],[78,19],[15,8],[39,8]],[[0,2589],[11,2],[27,0],[19,8],[51,-4],[18,-11],[30,-8],[21,-16],[24,-3]],[[201,2557],[27,-8],[24,-16],[12,-15]],[[1708,2449],[21,15],[24,12],[18,15],[6,12],[18,11],[36,8],[37,15],[69,35]],[[2426,2622],[0,-4],[36,-54],[6,-31],[21,-53],[21,-39]],[[1177,2707],[3,-58],[-3,-19],[-18,-35],[-9,-27],[3,-38],[-18,-35],[0,-23],[-33,-35],[-15,-15]],[[264,2518],[0,-12],[9,-34],[15,-12],[12,-58],[3,-11]],[[303,2391],[6,-16],[51,-38],[24,-16],[27,-11],[18,-4],[9,0],[33,0],[48,-12],[27,0]],[[1087,2422],[-15,-20],[-9,-38],[-18,-23],[-24,-12],[-18,-11],[-21,-39],[-3,-15],[-9,-12],[3,-15],[9,-12],[-3,-27],[-9,-31]],[[546,2294],[18,-3],[39,-12],[18,-8],[54,-23],[30,-4],[39,12],[30,0],[12,-4],[9,-8],[27,-11],[60,-4],[15,-4],[27,-19],[18,-8],[28,-31]],[[1438,2129],[24,23],[27,15],[45,35],[36,35],[18,23],[18,19],[36,31],[45,35],[12,19],[0,15],[-6,35],[3,15],[12,20]],[[970,2167],[24,-15],[30,-16],[12,-7],[3,-23],[-6,-12],[6,-15],[15,-8],[21,-23],[12,-12],[24,0],[12,-11],[3,-8]],[[1325,2024],[-37,-26],[-39,-4],[-15,-4],[-15,8],[-33,19],[-5,1]],[[1181,2018],[-13,3],[-42,-4]],[[1438,2129],[-30,-20],[-12,-27],[-39,-38],[-21,-12],[-11,-8]],[[1934,1990],[21,11]],[[2510,2441],[6,-12],[15,-23],[15,-42],[-6,-19],[-9,-12],[0,-15],[3,-16],[51,-58],[-9,-34],[6,-47],[-9,-11],[-21,-16],[-9,-23],[-12,-11],[-3,-16],[12,-19],[27,-27],[9,-19],[-3,-16],[-6,-15]],[[1955,2001],[12,16],[6,0],[30,19],[21,16],[30,38],[27,4],[18,19],[21,8],[48,-4],[48,8],[27,11],[12,0],[30,-34],[6,-23],[6,-8],[18,0],[6,-16],[27,-27],[18,-11],[21,-4],[36,8],[30,0],[18,-20],[9,-23],[15,-4],[15,8],[57,8]],[[3952,1946],[6,1],[21,0]],[[3946,1944],[6,2]],[[1816,1944],[15,0],[21,-4],[16,7],[18,4],[24,16],[24,23]],[[1438,2129],[24,-16],[57,-4],[39,0],[9,-7],[33,-39],[15,-15],[3,-35],[12,-35],[15,-23],[12,-15],[12,-4],[30,0],[36,4],[24,-4],[27,8],[30,0]],[[3979,1947],[21,0],[18,-11],[15,-16]],[[4063,1847],[24,-11],[9,-4]],[[102,1762],[-48,62],[-37,62],[-17,18]],[[1126,2017],[-27,-23],[-33,-47],[-12,-23],[-15,-42],[0,-19],[3,-62],[0,-23],[-15,-31]],[[174,1674],[-1,2]],[[173,1676],[-17,32],[-24,27],[-9,8],[-21,19]],[[174,1643],[0,31]],[[2850,1639],[-24,-4],[-6,8],[-3,23],[-18,15],[-6,20],[3,50],[0,19],[-18,16],[-19,0],[-12,30],[-6,8],[-33,19],[0,35],[-18,39],[-24,54],[-9,3],[-21,8],[-15,0],[-18,-4],[-15,4],[-21,8]],[[174,1643]],[[168,1631],[6,12]],[[3865,1847],[-21,-42],[-6,-35],[-12,-11],[-30,-4],[-27,4],[-24,-12],[-6,-8],[-12,-4],[-18,0],[-9,-7],[-12,-16],[-34,-15],[-27,-27],[-12,-4],[-36,8],[-24,4],[-30,-24],[-27,-11],[-18,-19],[-15,0],[-18,-4]],[[3315,1639],[-48,-8],[-15,0]],[[3252,1631],[-12,0],[-24,-15]],[[3216,1616],[-18,27],[-9,19],[-12,4],[-12,12],[-33,3],[-24,8],[-30,16],[-9,3],[-18,-3],[-18,-31],[-6,-4],[-51,-12],[-21,-15],[-36,-4],[-24,12],[-9,0],[-21,-8],[-15,-4]],[[1949,1570],[15,27],[-9,31],[0,11],[24,69],[0,43],[-9,15],[-12,20],[3,19],[3,15],[-15,20],[0,46],[21,38],[3,20],[-12,7],[-9,16],[-18,23]],[[4033,1920],[-13,-7]],[[4020,1913],[-8,-4],[-9,-19],[-3,-47],[-6,-42],[0,-12],[9,-19],[18,-4],[66,27],[9,0]],[[3027,1396],[36,50],[18,39],[6,8],[36,54],[24,23],[24,19],[36,19],[9,8]],[[774,1385],[42,30],[39,35],[30,23],[48,31],[25,8],[21,19],[18,12],[-21,42],[-3,43],[0,26],[9,20],[18,42],[27,31]],[[753,1373],[21,12]],[[213,1350],[-3,23],[0,66],[-6,42],[-9,23],[-18,19],[-3,43],[-9,38],[3,27]],[[2000,1331],[-10,5]],[[1990,1336],[-11,6],[-3,12],[0,69],[-15,73],[-18,20],[0,38],[6,16]],[[690,1288],[18,0],[12,16],[-6,38],[3,8],[12,11],[24,12]],[[213,1350],[21,-39],[21,-23],[87,-146]],[[690,1288],[-6,-23],[-9,-23],[-21,-31],[-15,-31],[-9,-31],[-9,-19]],[[2880,1139],[-24,-20],[-18,-12]],[[3027,1396],[0,-35],[6,-19],[9,-15],[12,-8],[30,-4],[18,-7],[6,-8],[-9,-23],[-21,-16],[-6,-7],[-18,-16],[-24,-4],[-36,0],[-18,-7],[-39,-27],[-12,-24],[-18,-15],[-27,-22]],[[4096,1066],[-27,10],[-12,0],[-6,-4]],[[3886,991],[24,8],[36,0],[12,4],[33,23],[42,27],[18,19]],[[342,1142],[102,-170],[6,0]],[[2000,1325],[0,6]],[[2243,941],[-15,8],[-6,15],[9,39],[6,15],[-9,31],[-33,27],[-33,12],[-12,19],[-12,12],[-30,38],[-12,27],[-9,31],[-18,12],[-3,3],[6,20],[-3,15],[-12,8],[-30,11],[-24,16],[-3,25]],[[2279,899],[-21,19],[-15,23]],[[621,1130],[-18,-38],[-12,-39],[0,-19],[-12,-39],[0,-23],[6,-23],[-3,-15],[-9,-24],[-3,-27]],[[450,972],[30,-23],[12,-27],[42,-31],[18,-8],[18,0]],[[2312,880],[-28,16]],[[2284,896],[-5,3]],[[223,871],[5,1],[14,9]],[[204,868],[19,3]],[[242,881],[16,10],[24,23],[15,12],[36,19],[60,16],[24,11],[18,4],[15,-4]],[[0,987],[20,-15],[15,-4],[25,-11],[21,-12],[48,-15],[9,-4],[30,-31],[27,-19],[9,-8]],[[1901,918],[0,-58]],[[2279,899],[-15,-12],[-24,-4],[-18,12],[-27,0],[-21,8],[-21,4],[-33,15],[-18,0],[-30,-12],[-9,-15],[-9,0],[-18,4],[-36,8],[-27,-20],[-6,-7],[-12,-12],[-30,-8],[-24,0]],[[2338,896],[-11,18],[-15,12],[-8,2]],[[2304,928],[-46,9],[-15,4]],[[2378,853],[-30,27],[-10,16]],[[2318,877],[-6,3]],[[2378,853],[-30,11],[-30,13]],[[209,860],[7,-11]],[[204,868],[5,-8]],[[570,883],[33,-15],[9,-4],[27,8],[18,4],[21,-8],[27,0],[24,-12],[33,4],[15,-7],[21,-12],[6,-12],[-3,-23],[6,-7]],[[2838,1107],[-9,-8]],[[2829,1099],[-54,-46],[-13,-27],[-18,-23],[-6,-23],[-3,-46],[-12,-20],[-15,-11],[-6,-20],[-9,-11],[-3,-19],[-21,0],[-6,-4],[-18,7],[-12,0],[-9,-7],[-15,4],[-54,-43],[-33,-11],[-18,-8],[-15,-12],[-24,-30]],[[2378,853],[18,-24],[33,-19],[12,-15],[9,-4],[15,-19],[0,-23]],[[1712,722],[-1,0]],[[1901,860],[-15,-31],[-3,-23],[-9,-11],[-16,-8],[-9,-15],[-27,3],[-24,20],[-15,0],[-12,-12],[-12,-27],[-12,-7],[-18,-20],[-17,-7]],[[1510,794],[0,5]],[[1579,698],[-57,27],[-9,8],[-6,23],[0,16],[3,22]],[[1711,722],[-21,-2]],[[1690,720],[-21,-2],[-21,-8],[-12,-8],[-12,0],[-21,4],[-24,-8]],[[3886,991],[-27,-23],[-9,-11],[-30,-12],[-24,-19],[-12,-19],[-24,-27],[-21,-43],[-21,-15],[-18,-4],[-21,-12],[-19,-46],[6,-27],[10,-27],[3,-35],[3,-54]],[[206,848],[1,1],[9,0]],[[0,729],[17,8],[43,19],[12,12],[6,11],[-6,20],[6,7],[30,4],[45,8],[24,11],[29,19]],[[1510,799],[-9,-5]],[[1501,794],[-15,-7],[-9,-19],[-6,-43],[-15,-30],[-33,-47],[-30,-31],[-9,-15]],[[4096,899],[-12,23],[-24,31],[-21,19],[3,27],[12,43],[-3,30]],[[2561,583],[-30,23],[-27,11],[-30,24],[-18,19],[-21,4],[-15,-8],[-30,-19],[-21,-20],[-27,-19],[-12,-11],[-30,-16],[-18,-4],[-30,-4],[-54,0]],[[2307,867],[5,13]],[[2198,563],[6,24],[0,30],[9,27],[15,47],[21,23],[9,23],[18,15],[6,12],[-3,35],[6,42],[9,15],[12,8],[1,3]],[[2198,563],[-18,-7],[-12,-12]],[[2180,544],[9,4],[9,15]],[[3679,529],[12,34],[-3,9]],[[3688,572],[-9,30],[3,15]],[[2168,544],[-15,-15],[-15,-4],[-6,4],[-12,15],[-15,4],[-21,-12],[-27,4],[-24,16]],[[3706,526],[-6,-1],[-21,4]],[[4096,590],[-3,0],[-60,0],[-30,4],[-9,-7],[-3,-20],[-12,-15],[-21,-19],[-18,-8],[-18,-8],[-27,0],[-42,8],[-33,0],[-36,4],[-24,-4],[-36,4],[-18,-3]],[[3673,517],[6,12]],[[2663,479],[-3,27],[-9,11],[-9,12],[-30,7],[-27,27],[-24,20]],[[1827,489],[-12,-12]],[[1815,477],[-2,-2],[-15,-12]],[[2033,556],[-30,11],[-42,4],[-15,0],[-18,-8],[-15,-11],[-24,-23],[-27,-8],[-16,-12],[-19,-20]],[[2717,448],[-30,19],[-24,12]],[[1798,463],[-54,-19],[-18,-15]],[[1726,429],[-15,-16]],[[3662,515],[4,2],[7,0]],[[3420,405],[39,31],[12,8],[30,0],[45,12],[18,23],[27,7],[9,16],[24,4],[6,3],[15,0],[17,6]],[[3084,405],[3,0]],[[3087,405],[9,0],[21,8],[45,12],[21,4],[60,0],[21,-4],[27,0],[15,-4],[15,4],[24,7],[66,-30],[9,3]],[[1162,394],[-36,0]],[[1201,404],[-15,-10]],[[1384,602],[-9,-19],[-12,-12],[-27,-11],[-12,-8],[-3,-16],[-15,-15],[-21,-23],[-9,-23],[-12,-16],[-15,-11],[-18,-23],[-27,-20],[-3,-1]],[[1186,394],[-24,0]],[[2651,436],[15,-16]],[[2666,420],[3,-3],[6,-23]],[[3031,397],[26,8],[18,4],[9,-4]],[[2997,390],[15,0],[19,7]],[[1126,394],[-21,-2]],[[1105,392],[-33,-2],[-33,0]],[[1039,390],[-30,4],[-27,4],[-49,-8],[-45,-8]],[[810,787],[12,-12],[9,-15],[-6,-15],[-33,-43],[-18,-27],[-6,-19],[3,-27],[9,-50],[21,-16],[9,-15],[-3,-19],[3,-8],[39,-35],[18,-19],[9,-23],[12,-62]],[[1711,413],[-27,-11],[-54,-27]],[[2997,390],[-30,-19]],[[888,382],[-21,-11]],[[867,371],[-3,7],[0,20],[-15,23],[0,19],[3,19],[-33,39],[-39,19],[-6,27],[-15,19],[-9,31],[-27,50],[6,12],[15,8],[12,15],[12,19],[12,16],[9,19],[21,23],[0,12],[-6,11],[6,8]],[[1243,384],[-6,2],[-51,8]],[[1342,371],[-21,0],[-54,7],[-24,6]],[[1186,394],[-27,-27]],[[1402,367],[-12,4],[-48,0]],[[1681,355],[-45,16],[-6,4]],[[2967,371],[-21,-12],[-24,-8],[-30,-3],[-15,0],[-21,7],[-18,50],[-6,8],[-27,23],[-21,8],[-67,4]],[[1630,375],[-27,-12],[-63,-19],[-18,0]],[[1522,344],[-42,-4],[-24,4],[-18,4],[-36,19]],[[1711,340],[-30,15]],[[1735,324],[-7,5]],[[1728,329],[-17,11]],[[897,339],[3,-15]],[[888,382],[9,-43]],[[855,338],[-3,-10],[-18,-7],[-1,0]],[[833,321],[-26,0]],[[867,371],[-9,-16],[-3,-17]],[[855,305],[45,19]],[[834,294],[21,11]],[[1752,316],[-17,8]],[[1792,294],[-27,15],[-13,7]],[[1810,278],[-2,3]],[[1808,281],[-16,13]],[[2123,426],[-21,-17],[-5,-23]],[[2097,386],[-1,-8],[-9,-15],[-18,-23],[-12,-23],[-3,-20],[0,-23],[-3,-23]],[[2180,544],[-15,-11],[-9,-12],[-3,-19],[-21,-8],[-9,-27],[3,-11],[9,-4],[-9,-23],[-3,-3]],[[2051,251],[30,0],[66,-4]],[[687,220],[15,12],[24,8],[30,11],[45,16],[33,27]],[[645,190],[42,30]],[[534,115],[15,9],[12,12],[27,27],[24,15],[18,4],[15,8]],[[522,109],[12,6]],[[597,240],[-12,-20],[-27,-27],[-30,-23],[-18,-11],[0,-8],[12,-42]],[[2468,97],[-3,0],[-1,-1]],[[2464,96],[-20,-7]],[[2675,394],[-3,-19],[-15,-39],[0,-19],[-9,-16],[-21,-19],[-6,-19],[-6,-43],[-24,-23],[-12,-27],[-24,-11],[-9,-8],[-12,-23],[-27,-27],[-21,-8],[-18,4]],[[2147,247],[9,-4],[12,-15],[9,-4],[33,-4],[24,-7],[12,-8],[45,0],[15,-4],[24,-15],[42,4],[30,-12],[9,-4],[24,-69],[9,-16]],[[2411,0],[12,12],[3,12],[0,19],[0,1]],[[2426,44],[-3,14],[6,16],[15,15]],[[3145,0],[26,24],[12,27],[3,19]],[[1810,30],[0,121],[3,27],[6,35],[3,27],[-3,15],[-9,23]],[[1804,0],[0,1],[6,27],[0,2]],[[2051,251],[-18,-19],[-3,-23],[-9,-16],[-3,-11],[3,-35],[-3,-19],[-18,-31],[-15,-8],[-27,-58],[-9,-11],[-8,-20]],[[3186,70],[21,0],[27,-8],[30,-15],[33,-19],[18,0],[30,7],[33,-4],[45,-19],[33,-8],[30,4],[3,0],[6,-8]],[[392,0],[16,12],[24,27],[14,10]],[[446,49],[31,21],[15,15],[30,24]],[[1977,3486],[29,4],[36,-8]],[[1943,3478],[33,8],[1,0]],[[2042,3476],[0,6]],[[2033,3397],[3,4],[9,42],[-3,33]],[[4033,1920],[5,-13]],[[4038,1907],[13,-37],[12,-23]],[[3946,1944],[-15,-8],[-15,-16],[-36,-46],[-12,-23]],[[2468,3004],[-39,-23],[-33,-27],[-18,-8]],[[2378,2946],[-45,-4],[-33,-11]],[[3868,1851],[-3,-4]],[[3378,1631],[-6,4],[-30,0],[-9,4],[-18,0]],[[3419,1623],[-1,0]],[[3418,1623],[-4,1],[-33,4],[-3,3]],[[3447,1620],[-18,0],[-10,3]],[[4096,4096],[0,-4096],[-2326,0],[6,6],[9,17],[7,19],[4,14],[-1,12],[-3,9],[-3,8],[-3,10],[-1,6],[1,59],[-3,14],[-7,17],[-43,63],[-25,26],[-27,20],[-28,7],[-25,-10],[-25,-23],[-42,-52],[-10,-9],[-12,-3],[-7,-6],[-24,-29],[-11,-9],[-28,-7],[-61,-3],[-26,-10],[-8,-9],[-9,-17],[-8,-6],[3,6],[0,5],[-2,4],[-6,4],[-7,-14],[-11,-12],[-7,-11],[5,-14],[11,15],[16,-5],[3,15],[4,-1],[2,-3],[2,-4],[2,-4],[3,6],[2,7],[-1,6],[-4,6],[10,6],[4,-5],[3,-9],[5,-5],[8,3],[7,5],[8,3],[10,-4],[-43,-21],[-20,-16],[-12,-21],[1,-10],[10,7],[33,39],[9,6],[12,3],[-28,-29],[-4,-8],[-6,-16],[-5,-8],[-3,-9],[0,-12],[-1,-10],[-6,-5],[-7,-2],[-3,-2],[-55,0],[-15,14],[-7,4],[-10,-3],[-6,-6],[-2,-8],[3,-1],[-175,0],[-146,91],[-20,7],[-24,17],[-14,5],[-12,2],[-9,-1],[-3,0],[-11,-2],[-10,-5],[1,4],[4,15],[-10,5],[-30,33],[-60,33],[-4,-7],[-21,12],[-31,-7],[-49,-24],[-22,-3],[-8,-4],[-22,-12],[-4,-4],[-7,-18],[-4,-4],[-23,-13],[-64,-59],[-78,-51],[-11,-10],[-395,0],[0,1623],[0,2473],[3111,0],[58,-19],[43,-7],[29,-10],[17,0],[32,8],[14,-3],[32,-27],[15,0],[27,8],[28,-7],[18,-2],[8,7],[56,2],[11,8],[27,26],[9,5],[24,7],[9,0],[4,-4],[11,-16],[5,-5],[8,4],[14,0],[5,1],[2,1],[5,4],[7,6],[7,6],[9,3],[3,4],[448,0]],[[1382,0],[-47,0],[2,58],[-27,31],[72,62],[76,-46],[-63,-46],[-13,-59]],[[1028,1556],[49,44],[13,86],[30,18],[54,-24],[-25,-79],[-61,-72],[-60,27]],[[752,1902],[30,60],[68,-14],[-5,-62],[-62,-12],[-31,28]],[[4096,2708],[0,-228],[-17,4],[-24,44],[14,40],[-45,17],[-7,83],[46,40],[33,0]],[[395,0],[-7,0],[9,33],[52,17],[-43,-40],[-11,-10]],[[2475,114],[-8,-19],[-24,10],[19,32],[13,-23]],[[2428,0],[-48,0],[-3,12],[64,42],[-13,-54]],[[1510,441],[19,-24],[-42,-20],[-6,30],[29,14]],[[2634,408],[-26,18],[5,43],[50,-3],[23,-39],[-52,-19]],[[1971,594],[-23,31],[16,21],[31,-30],[-24,-22]],[[1705,702],[-15,15],[-1,33],[29,-9],[-13,-39]],[[1505,790],[-18,20],[32,13],[9,-13],[-23,-20]],[[1822,410],[-28,28],[28,50],[61,13],[-31,-76],[-30,-15]],[[3679,499],[-23,22],[8,73],[57,-52],[-42,-43]],[[1628,297],[-10,15],[31,33],[2,-39],[-23,-9]],[[876,356],[35,-27],[-63,-57],[-56,-17],[-53,-58],[-131,-26],[-97,-85],[135,176],[40,-21],[73,21],[117,94]],[[1789,0],[-20,0],[23,42],[-9,132],[-67,97],[23,107],[31,8],[33,-29],[-1,-23],[-56,-20],[32,-52],[32,20],[21,-38],[-12,-202],[-30,-42]],[[1139,428],[105,-42],[-24,-41],[-121,0],[8,62],[16,31],[16,-10]],[[3093,426],[-11,-40],[-97,21],[0,62],[16,21],[92,-64]],[[2114,386],[-29,0],[33,52],[16,-41],[-20,-11]],[[2686,978],[-17,21],[49,62],[16,-10],[-48,-73]],[[2783,988],[-28,24],[44,59],[-17,-56],[1,-27]],[[3545,1202],[6,-27],[-38,-10],[-27,31],[15,19],[44,-13]],[[694,1311],[-13,-41],[-35,10],[32,52],[16,-21]],[[1993,1323],[-5,23],[33,6],[-17,-26],[-11,-3]],[[3317,1119],[-1,-37],[-32,-11],[-33,31],[49,32],[17,-15]],[[4042,1132],[51,-9],[-2,-30],[-63,-1],[14,40]],[[3543,1092],[-8,31],[42,27],[-20,-53],[-14,-5]],[[2881,1137],[-41,-44],[-17,9],[44,51],[14,-16]],[[2311,1530],[-12,40],[37,21],[2,-18],[-27,-43]],[[193,1685],[43,-5],[-1,-41],[-67,4],[8,62],[17,-20]],[[2517,1515],[39,-7],[-12,-32],[-34,16],[7,23]],[[3322,807],[-14,5],[24,62],[14,-37],[-24,-30]],[[233,822],[-32,32],[40,31],[5,-14],[-13,-49]],[[2333,956],[19,-47],[-48,-45],[-25,40],[54,52]],[[694,1861],[-9,37],[9,36],[41,-42],[-41,-31]],[[3939,1997],[33,-12],[24,21],[49,-31],[-9,-83],[-24,31],[-48,0],[-20,40],[-37,1],[32,33]],[[1252,2048],[73,-10],[0,-94],[-146,73],[73,31]],[[807,3336],[-48,21],[7,16],[50,-6],[-9,-31]],[[3417,3463],[-44,7],[65,32],[-5,-30],[-16,-9]],[[1584,3502],[-16,-41],[-65,20],[-1,20],[41,12],[41,-11]],[[3166,3371],[5,-33],[-8,-23],[-31,24],[34,32]],[[937,3733],[-62,-51],[-51,38],[71,55],[42,-42]],[[4028,3668],[-11,28],[28,24],[-2,-17],[-15,-35]],[[2377,3793],[-51,-89],[-63,58],[57,31],[57,0]],[[546,3881],[-17,-14],[-31,27],[18,24],[30,-37]],[[3408,4014],[-31,11],[-17,16],[57,-3],[-9,-24]],[[1276,4052],[1,-41],[-77,-5],[-4,26],[80,20]],[[1544,3864],[24,-61],[-57,-20],[-24,62],[57,19]],[[2057,3879],[45,-24],[-43,-50],[-62,30],[60,44]],[[3999,4061],[29,-9],[-7,-17],[-30,5],[8,21]],[[3073,4096],[-13,-14],[-59,14],[72,0]],[[2625,3555],[-31,1],[-6,18],[33,-4],[4,-15]],[[2007,3567],[79,-13],[-9,-83],[-110,16],[-8,26],[48,54]],[[1753,3596],[1,-32],[-49,-41],[-64,31],[56,62],[56,-20]],[[1277,1633],[-24,17],[7,35],[19,-24],[-2,-28]],[[719,1654],[-14,9],[-3,22],[41,-11],[-24,-20]],[[3374,1688],[31,-45],[33,10],[-1,-18],[-19,-13],[-12,21],[-146,-63],[-8,52],[63,58],[59,-2]],[[4096,294],[0,-46],[-71,67],[30,50],[-6,86],[-21,38],[-31,-18],[-7,47],[70,28],[-6,-57],[40,-37],[-17,-155],[19,-3]],[[954,1058],[39,71],[-7,67],[147,29],[74,-31],[10,-63],[-100,-116],[-75,22],[-32,-14],[-56,35]],[[3513,1190],[5,56],[79,32],[28,38],[35,-2],[19,-89],[-90,4],[-76,-39]],[[1163,0],[-96,0],[-20,12],[-20,58],[28,24],[65,-18],[1,-25],[10,20],[36,-57],[-4,-14]],[[428,2430],[29,51],[56,-16],[43,-47],[-42,-38],[-86,50]]]}