{"objects":{"water":{"type":"GeometryCollection","geometries":[{"type":"Polygon","properties":{"kind":"lake","name":"Khashm el Girba Dam","reservoir":true,"area":96317216,"sort_rank":200,"source":"naturalearthdata.com","min_zoom":0.0,"id":1041},"arcs":[[90]]},{"type":"Polygon","properties":{"source":"naturalearthdata.com","kind":"lake","name":"Lake Tana","area":3303803904,"sort_rank":200,"min_zoom":0.0,"id":483},"arcs":[[91]]},{"type":"Polygon","properties":{"source":"naturalearthdata.com","kind":"ocean","area":1576712559132672,"sort_rank":200,"min_zoom":0.0,"id":1},"arcs":[[92]]},{"type":"Polygon","properties":{"kind":"lake","name":"Roseires Reservoir","reservoir":true,"area":581516352,"sort_rank":200,"source":"naturalearthdata.com","min_zoom":0.0,"id":1206},"arcs":[[93]]},{"type":"Point","properties":{"label_placement":true,"kind":"lake","name":"Lake Tana","area":3303803904,"sort_rank":200,"source":"naturalearthdata.com","min_zoom":0.0,"id":483},"coordinates":[2570,588]},{"type":"Point","properties":{"label_placement":true,"kind":"lake","name":"Roseires Reservoir","reservoir":true,"area":581516352,"sort_rank":200,"source":"naturalearthdata.com","min_zoom":0.0,"id":1206},"coordinates":[523,277]},{"type":"Point","properties":{"label_placement":true,"kind":"lake","name":"Khashm el Girba Dam","reservoir":true,"area":96317216,"sort_rank":200,"source":"naturalearthdata.com","min_zoom":0.0,"id":1041},"coordinates":[1593,2708]},{"type":"LineString","properties":{"source":"naturalearthdata.com","kind":"ocean","sort_rank":205,"boundary":true,"min_zoom":0.0,"id":45},"arcs":[94]},{"type":"LineString","properties":{"source":"naturalearthdata.com","kind":"lake","sort_rank":367,"boundary":true,"min_zoom":0.0,"id":483},"arcs":[95]},{"type":"LineString","properties":{"source":"naturalearthdata.com","kind":"lake","reservoir":true,"sort_rank":367,"boundary":true,"min_zoom":0.0,"id":1041},"arcs":[96]},{"type":"LineString","properties":{"source":"naturalearthdata.com","kind":"lake","reservoir":true,"sort_rank":367,"boundary":true,"min_zoom":0.0,"id":1206},"arcs":[97]}]},"buildings":{"type":"GeometryCollection","geometries":[]},"places":{"type":"GeometryCollection","geometries":[{"type":"Point","properties":{"name:kg":"Eritrea","name:ka":"\u10d4\u10e0\u10d8\u10e2\u10e0\u10d4\u10d0","name:ko":"\uc5d0\ub9ac\ud2b8\ub9ac\uc544","name:kn":"\u0c8f\u0cb0\u0cbf\u0c9f\u0ccd\u0cb0\u0cbf\u0caf\u0cbe","name:cu":"\u0404\u0440\u0477\u0473\u0440\u0457\ua657","name:kl":"Eritrea","name:cs":"Eritrea","name:ki":"Eritrea","name:kw":"Eritrea","name:tk":"Eritre\u00fda","name:ku":"Er\u00eetrea","name:ks":"\u0627\u0650\u0631\u0655\u0679\u0650\u06cc\u0627","name:to":"\u02bbElitulia","name:tl":"Eritrea","name:ce":"\u042d\u0440\u0438\u0442\u0440\u0435","name:ta":"\u0b8e\u0bb0\u0bbf\u0b9f\u0bcd\u0bb0\u0bbf\u0baf\u0bbe","name:tg":"\u042d\u0440\u0438\u0442\u0440\u0435\u044f","name:ca":"Eritrea","name:te":"\u0c0e\u0c30\u0c3f\u0c1f\u0c4d\u0c30\u0c3f\u0c2f\u0c3e","name:cy":"Eritrea","name:hr":"Eritreja","name:da":"Eritrea","name:de":"Eritrea","name:dz":"\u0f68\u0f7a\u0f0b\u0f62\u0f72\u0f0b\u0f4a\u0fb2\u0f7a\u0f0b\u0f61","source":"openstreetmap.org","name:ts":"Eritreya","name:dv":"\u0787\u07ac\u0783\u07a8\u078c\u07aa\u0783\u07a8\u0787\u07a7","name:km":"\u17a2\u17c1\u179a\u17b8\u1791\u17d2\u179a\u17b6","name:lv":"Eritreja","name:lt":"Eritr\u0117ja","name:uz":"Eritriya","name:kk":"\u042d\u0440\u0438\u0442\u0440\u0435\u044f","name:ur":"\u0627\u0631\u06cc\u0679\u06cc\u0631\u06cc\u0627","name:lb":"Eritrea","name:la":"Erythraea","name:lg":"Eritureya","name:uk":"\u0415\u0440\u0438\u0442\u0440\u0435\u044f","name:ug":"\u0626\u06d0\u0631\u0649\u062a\u0631\u06d0\u064a\u06d5","name:li":"Eritrea","name:ln":"Elitel\u025b","name:lo":"\u0ec0\u0ead\u0ea3\u0eb4\u0ec0\u0e97\u0ea3\u0e8d","name:el":"\u0395\u03c1\u03c5\u03b8\u03c1\u03b1\u03af\u03b1","name:eo":"Eritreo","name:en":"Eritrea","name":"\u12a4\u122d\u1275\u122b","name:ee":"Eritrea nutome","name:th":"\u0e1b\u0e23\u0e30\u0e40\u0e17\u0e28\u0e40\u0e2d\u0e23\u0e34\u0e40\u0e17\u0e23\u0e35\u0e22","name:eu":"Eritrea","name:et":"Eritrea","name:es":"Eritrea","name:ia":"Eritrea","name:rm":"Eritrea","name:rn":"Elitereya","name:az":"Eritreya","name:ie":"Eritr\u00e9a","name:id":"Eritrea","name:ar":"\u0625\u0631\u064a\u062a\u0631\u064a\u0627","name:io":"Eritrea","name:ak":"\u0190ritrea","name:it":"Eritrea","name:an":"Eritrea","name:aa":"Eretria","name:ru":"\u042d\u0440\u0438\u0442\u0440\u0435\u044f","name:rw":"Eritereya","name:af":"Eritrea","name:zu":"i-Eritrea","name:ky":"\u042d\u0440\u0438\u0442\u0440\u0435\u044f","name:zh-yue":"\u5384\u7acb\u7279\u91cc\u4e9e","name:zh":"\u5384\u7acb\u7279\u91cc\u4e9a","name:so":"Eretereeya","name:sn":"Eritrea","name:sl":"Eritreja","name:sk":"Eritrea","name:ja":"\u30a8\u30ea\u30c8\u30ea\u30a2","name:si":"\u0d91\u0dbb\u0dd2\u0dad\u0dca\u200d\u0dbb\u0dd2\u0dba\u0dcf\u0dc0","name:sh":"Eritreja","name:sg":"Eritr\u00ebe","name:se":"Eritrea","name:sc":"Eritrea","name:sa":"\u0907\u0930\u0940\u091f\u094d\u0930\u093f\u092f\u093e","name:bs":"Eritreja","name:bm":"Eritere","name:bn":"\u0987\u09b0\u09bf\u09a4\u09cd\u09b0\u09bf\u09af\u09bc\u09be","name:bo":"\u0f68\u0f7a\u0f0b\u0f62\u0f72\u0f0b\u0f4f\u0fb2\u0f7a\u0f0b\u0f68\u0f0d","name:br":"Eritrea","name:sw":"Eritrea","name:be":"\u042d\u0440\u044b\u0442\u0440\u044d\u044f","name:su":"\u00c9ritr\u00e9a","name:bg":"\u0415\u0440\u0438\u0442\u0440\u0435\u044f","name:ss":"IRitheya","name:ba":"\u042d\u0440\u0438\u0442\u0440\u0435\u044f","name:sq":"Eritre","name:jv":"Eritrea","name:pt":"Eritreia;Eritr\u00e9ia","name:ps":"\u0627\u0631\u06cc\u062a\u0631\u0647","name:om":"Eritrea","name:oc":"Eritr\u00e8a","min_zoom":2.0,"name:ro":"Eritreea","name:zh-min-nan":"Eritrea","name:os":"\u042d\u0440\u0438\u0442\u0440\u0435\u0439","name:or":"\u0b07\u0b30\u0b3f\u0b1f\u0b4d\u0b30\u0b3f\u0b5f\u0b3e","name:pl":"Erytrea","name:st":"Eritrea","name:sr":"\u0415\u0440\u0438\u0442\u0440\u0435\u0458\u0430","name:pa":"\u0a07\u0a30\u0a40\u0a24\u0a30\u0a40\u0a06","name:tr":"Eritre","name:hi":"\u0907\u0930\u093f\u091f\u094d\u0930\u093f\u092f\u093e","name:sv":"Eritrea","name:he":"\u05d0\u05e8\u05d9\u05ea\u05e8\u05d9\u05d0\u05d4","name:ha":"Eritireya","name:hy":"\u0537\u0580\u056b\u057f\u0580\u0565\u0561","name:ht":"Eritre","name:hu":"Eritrea","name:qu":"Iritriya","population":5293800,"kind":"country","name:is":"Er\u00edtrea","name:yi":"\u05e2\u05e8\u05d9\u05d8\u05e8\u05e2\u05d0","name:yo":"Or\u00edl\u1eb9\u0301\u00e8de Eritira","name:mt":"Eritreja","name:ms":"Eritrea","name:mr":"\u0907\u0930\u093f\u091f\u094d\u0930\u093f\u092f\u093e","name:my":"\u1021\u102e\u101b\u102e\u1011\u101b\u102e\u1038\u101a\u102c\u1038\u1014\u102d\u102f\u1004\u103a\u1004\u1036","official_name":"\u1203\u1308\u1228 \u12a4\u122d\u1275\u122b;\u062f\u0648\u0644\u0629 \u0625\u0631\u062a\u0631\u064a\u0627","int_name":"Eritrea","name:mg":"Eritrea","name:ml":"\u0d0e\u0d31\u0d3f\u0d24\u0d4d\u0d30\u0d3f\u0d2f","name:vi":"Eritrea","name:mn":"\u042d\u043d\u044d\u0442\u0445\u044d\u0433","id":424316022,"name:mk":"\u0415\u0440\u0438\u0442\u0440\u0435\u0458\u0430","name:vo":"Ler\u00fctr\u00e4n","name:fa":"\u0627\u0631\u06cc\u062a\u0631\u0647","name:ff":"Eriteree","name:fi":"Eritrea","name:fo":"Eritrea","name:fr":"\u00c9rythr\u00e9e","name:fy":"Eritre\u00e4","name:nl":"Eritrea","name:nn":"Eritrea","name:no":"Eritrea","name:na":"Eritrea","name:ne":"\u090f\u0930\u093f\u0924\u094d\u0930\u093f\u092f\u093e","name:wo":"Eritere","name:ga":"An Eiritr\u00e9","name:gd":"Ertra","name:gn":"Erityrea","name:gl":"Eritrea","name:gv":"Eritrea","name:gu":"\u0a8f\u0ab0\u0abf\u0a9f\u0acd\u0ab0\u0abf\u0aaf\u0abe","name:tt":"\u042d\u0440\u0438\u0442\u0440\u0435\u044f"},"coordinates":[3095,3581]},{"type":"Point","properties":{"kind":"region","name:en":"Amhara Region","name":"The State Of Amhara;\u0100mara Kilil","kind_detail":"state","name:de":"Amhara","source":"openstreetmap.org","min_zoom":4.0,"name:am":"\u12a0\u121b\u122b","name:ru":"\u0410\u043c\u0445\u0430\u0440\u0430","name:hu":"Amhara R\u00e9gi\u00f3","id":1150961619,"population":19120005},"coordinates":[3459,241]},{"type":"Point","properties":{"kind":"region","name:en":"Kassala State","name":"Kassala State \u0643\u0633\u0644","kind_detail":"state","name:ar":"\u0643\u0633\u0644","min_zoom":4.0,"name:de":"Kassala","source":"openstreetmap.org","name:fr":"Kassala","old_name":"Al Wil\u0101yah ash Sharq\u012byah","name:ru":"\u041a\u0430\u0441\u0441\u0430\u043b\u0430","id":321446209,"population":1400000},"coordinates":[1652,3651]},{"type":"Point","properties":{"kind":"region","name:en":"Al Qadarif State","name":"Al Qadarif State \u0627\u0644\u0642\u0636\u0627\u0631\u0641","kind_detail":"state","name:ar":"\u0627\u0644\u0642\u0636\u0627\u0631\u0641","min_zoom":4.0,"name:de":"al-Qadarif","source":"openstreetmap.org","name:fr":"Al Qadarif","name:ru":"\u0413\u0435\u0434\u0430\u0440\u0435\u0444","id":321446176,"population":1400000},"coordinates":[972,2099]},{"type":"Point","properties":{"kind":"region","name:en":"Southern Zone","name":"\u12de\u1263 \u12f0\u1261\u1265 \u0627\u0644\u0645\u0646\u0637\u0642\u0629 \u0627\u0644\u062c\u0646\u0648\u0628\u064a\u0629","kind_detail":"state","name:ar":"\u0627\u0644\u0645\u0646\u0637\u0642\u0629 \u0627\u0644\u062c\u0646\u0648\u0628\u064a\u0629","name:de":"S\u00fcd-Region","source":"openstreetmap.org","min_zoom":4.0,"name:ti":"\u12de\u1263 \u12f0\u1261\u1265","name:ru":"\u042e\u0436\u043d\u0430\u044f \u043f\u0440\u043e\u0432\u0438\u043d\u0446\u0438\u044f","id":321516870,"population":755379},"coordinates":[3688,2800]},{"type":"Point","properties":{"kind":"region","name:en":"Gash-Barka Zone","name":"\u0645\u0646\u0637\u0642\u0629 \u0627\u0644\u0642\u0627\u0634 \u0648\u0628\u0631\u0643\u0627 Zoba Gash-Barka","kind_detail":"state","name:ar":"\u0645\u0646\u0637\u0642\u0629 \u0627\u0644\u0642\u0627\u0634 \u0648\u0628\u0631\u0643\u0627","name:de":"Region Gash-Barka","source":"openstreetmap.org","min_zoom":4.0,"name:ti":"\u12de\u1263 \u130b\u123d \u1263\u122d\u12ab","name:it":"Regione di Gash-Barka","name:ru":"\u0413\u0430\u0448-\u0411\u0430\u0440\u043a\u0430","id":321516872,"population":564574},"coordinates":[2731,3056]},{"type":"Point","properties":{"kind":"region","name:en":"Central Zone","name":"\u0627\u0644\u0645\u0646\u0637\u0642\u0629 \u0627\u0644\u0645\u0631\u0643\u0632\u064a\u0629 Zoba Ma\u2019\u0101kel","kind_detail":"state","name:ar":"\u0627\u0644\u0645\u0646\u0637\u0642\u0629 \u0627\u0644\u0645\u0631\u0643\u0632\u064a\u0629","name:de":"Zentral-Region","source":"openstreetmap.org","min_zoom":4.0,"name:ti":"\u12de\u1263 \u121b\u12a5\u12a8\u120d","name:ru":"\u0426\u0435\u043d\u0442\u0440\u0430\u043b\u044c\u043d\u0430\u044f \u043f\u0440\u043e\u0432\u0438\u043d\u0446\u0438\u044f","id":321516867,"population":538749},"coordinates":[3762,3118]},{"type":"Point","properties":{"kind":"region","name:en":"Blue Nile State","old_name:de":"Zentral","name":"\u0627\u0644\u0646\u064a\u0644 \u0627\u0644\u0623\u0632\u0631\u0642 Blue Nile State","kind_detail":"state","name:ar":"\u0627\u0644\u0646\u064a\u0644 \u0627\u0644\u0623\u0632\u0631\u0642","min_zoom":4.0,"name:de":"Blauer Nil","source":"openstreetmap.org","name:fr":"Nil Bleu","old_name:en":"Central State","old_name":"Al Wil\u0101yah al Wus\u0163\u00e1","name:ru":"\u0413\u043e\u043b\u0443\u0431\u043e\u0439 \u041d\u0438\u043b","name:hu":"K\u00e9k N\u00edlus","id":321446195},"coordinates":[272,584]},{"type":"Point","properties":{"kind":"region","name:en":"Zoba \u0100nseba","name":"\u0625\u0642\u0644\u064a\u0645 \u0639\u0646\u0633\u0628\u0627 Zoba \u0100nseba","kind_detail":"state","name:ar":"\u0645\u0646\u0637\u0642\u0629 \u0639\u0646\u0633\u0628\u0627","name:de":"Region Anseba","source":"openstreetmap.org","min_zoom":4.0,"name:ti":"\u12de\u1263 \u12d3\u1295\u1235\u1263","name:it":"Regione dell'Anseba","name:ru":"\u0410\u043d\u0441\u044d\u0431\u0430","id":321516869},"coordinates":[2731,3994]},{"type":"Point","properties":{"kind":"region","name:en":"Northern Red Sea Zone","name":"\u0645\u0646\u0637\u0642\u0629 \u0627\u0644\u0628\u062d\u0631 \u0627\u0644\u0623\u062d\u0645\u0631 \u0627\u0644\u0634\u0645\u0627\u0644 Zoba Sem\u0113naw\u012b K\u2019eyih Bahr\u012b","kind_detail":"state","name:ar":"\u0645\u0646\u0637\u0642\u0629 \u0627\u0644\u0628\u062d\u0631 \u0627\u0644\u0623\u062d\u0645\u0631 \u0627\u0644\u0634\u0645\u0627\u0644","name:de":"Region des n\u00f6rdlichen Roten Meeres","source":"openstreetmap.org","min_zoom":4.0,"name:ti":"\u12de\u1263 \u1230\u121c\u1293\u12ca \u1240\u12ed\u1215 \u1263\u1215\u122a","name:ru":"\u0421\u0435\u0432\u0435\u0440\u043d\u0430\u044f \u041a\u0440\u0430\u0441\u043d\u043e\u043c\u043e\u0440\u0441\u043a\u0430\u044f \u043f\u0440\u043e\u0432\u0438\u043d\u0446\u0438\u044f","id":321516868},"coordinates":[3823,3619]},{"type":"Point","properties":{"kind":"region","name:en":"Tigray Region","name":"Tigray Kilil","kind_detail":"state","name:ar":"\u062a\u064a\u063a\u0631\u0627\u064a","min_zoom":4.0,"name:de":"Tigray","source":"openstreetmap.org","name:fr":"Tigr\u00e9","name:am":"\u1275\u130d\u122b\u12ed \u12ad\u120d\u120d","name:uk":"\u0422\u0438\u0433\u0440\u0430\u0439","old_name":"Region 1","name:ru":"\u0422\u044b\u0433\u0440\u0430\u0439","id":321732070},"coordinates":[3916,2028]},{"type":"Point","properties":{"source":"naturalearthdata.com","kind":"locality","name":"Asmara","country_capital":true,"population":620802,"min_zoom":5.0,"id":6953},"coordinates":[3774,3118]},{"type":"Point","properties":{"source":"naturalearthdata.com","kind":"locality","name":"Kassala","population":401477,"min_zoom":5.0,"id":6848},"coordinates":[1922,3213]},{"type":"Point","properties":{"source":"naturalearthdata.com","kind":"locality","name":"Bahir Dar","population":206748,"min_zoom":5.0,"id":6606},"coordinates":[2646,316]},{"type":"Point","properties":{"source":"naturalearthdata.com","kind":"locality","name":"Gonder","population":156230,"region_capital":true,"min_zoom":5.0,"id":6993},"coordinates":[2702,1074]},{"type":"Point","properties":{"source":"naturalearthdata.com","kind":"locality","name":"Gedaref","population":201282,"min_zoom":6.0,"id":5663},"coordinates":[1187,2148]}]},"transit":{"type":"GeometryCollection","geometries":[]},"pois":{"type":"GeometryCollection","geometries":[{"type":"Point","properties":{"kind":"national_park","protect_class":"2","area":516216000,"source":"openstreetmap.org","min_zoom":6.28,"tier":1,"id":-3308134,"osm_relation":true,"name":"Simien Mountains National Park"},"coordinates":[3168,1552]}]},"boundaries":{"type":"GeometryCollection","geometries":[{"type":"MultiLineString","properties":{"source":"naturalearthdata.com","kind":"country","sort_rank":262,"kind_detail":"2","min_zoom":0.0,"id":272},"arcs":[[0],[1],[2]]},{"type":"LineString","properties":{"source":"naturalearthdata.com","kind":"country","sort_rank":262,"kind_detail":"2","min_zoom":0.0,"id":396},"arcs":[3]},{"type":"MultiLineString","properties":{"source":"naturalearthdata.com","kind":"country","sort_rank":262,"kind_detail":"2","min_zoom":0.0,"id":397},"arcs":[[4],[5],[6],[7],[8],[9],[10],[11],[12],[13],[14],[15],[16],[17],[18],[19],[20],[21],[22],[23],[24],[25]]},{"type":"LineString","properties":{"source":"naturalearthdata.com","kind":"macroregion","sort_rank":257,"kind_detail":"3","min_zoom":3.0,"id":1835},"arcs":[26]},{"type":"MultiLineString","properties":{"source":"naturalearthdata.com","kind":"region","sort_rank":256,"kind_detail":"4","min_zoom":3.0,"id":1840},"arcs":[[27],[28]]},{"type":"LineString","properties":{"source":"naturalearthdata.com","kind":"macroregion","sort_rank":257,"kind_detail":"3","min_zoom":3.0,"id":1806},"arcs":[29]},{"type":"LineString","properties":{"source":"naturalearthdata.com","kind":"macroregion","sort_rank":257,"kind_detail":"3","min_zoom":3.0,"id":1826},"arcs":[30]},{"type":"MultiLineString","properties":{"source":"naturalearthdata.com","kind":"macroregion","sort_rank":257,"kind_detail":"3","min_zoom":3.0,"id":1827},"arcs":[[31],[32]]},{"type":"MultiLineString","properties":{"source":"naturalearthdata.com","kind":"region","sort_rank":256,"kind_detail":"4","min_zoom":3.0,"id":1832},"arcs":[[33],[34],[35]]},{"type":"MultiLineString","properties":{"source":"naturalearthdata.com","kind":"macroregion","sort_rank":257,"kind_detail":"3","min_zoom":3.0,"id":1834},"arcs":[[36],[37],[38],[39],[40],[41],[42]]},{"type":"MultiLineString","properties":{"source":"naturalearthdata.com","kind":"macroregion","sort_rank":257,"kind_detail":"3","min_zoom":3.0,"id":1836},"arcs":[[43],[44],[45]]},{"type":"MultiLineString","properties":{"source":"naturalearthdata.com","kind":"region","sort_rank":256,"kind_detail":"4","min_zoom":3.0,"id":1837},"arcs":[[46],[47],[48]]},{"type":"LineString","properties":{"source":"naturalearthdata.com","kind":"region","sort_rank":256,"kind_detail":"4","min_zoom":6.0,"id":4030},"arcs":[49]},{"type":"MultiLineString","properties":{"source":"naturalearthdata.com","kind":"region","sort_rank":256,"kind_detail":"4","min_zoom":6.0,"id":4031},"arcs":[[50],[51],[52],[53],[54],[55]]},{"type":"MultiLineString","properties":{"source":"naturalearthdata.com","kind":"region","sort_rank":256,"kind_detail":"4","min_zoom":6.0,"id":4032},"arcs":[[56],[57],[58]]},{"type":"LineString","properties":{"source":"naturalearthdata.com","kind":"region","sort_rank":256,"kind_detail":"4","min_zoom":6.0,"id":4033},"arcs":[59]},{"type":"LineString","properties":{"source":"naturalearthdata.com","kind":"region","sort_rank":256,"kind_detail":"4","min_zoom":6.0,"id":4034},"arcs":[60]},{"type":"MultiLineString","properties":{"source":"naturalearthdata.com","kind":"region","sort_rank":256,"kind_detail":"4","min_zoom":6.0,"id":4036},"arcs":[[61],[62]]},{"type":"MultiLineString","properties":{"source":"naturalearthdata.com","kind":"region","sort_rank":256,"kind_detail":"4","min_zoom":6.0,"id":4037},"arcs":[[63],[64],[65]]},{"type":"LineString","properties":{"source":"naturalearthdata.com","kind":"region","sort_rank":256,"kind_detail":"4","min_zoom":6.0,"id":4038},"arcs":[66]},{"type":"MultiLineString","properties":{"source":"naturalearthdata.com","kind":"region","sort_rank":256,"kind_detail":"4","min_zoom":3.0,"id":7596},"arcs":[[67],[68],[69],[70],[71],[72],[73],[74],[75]]},{"type":"MultiLineString","properties":{"source":"naturalearthdata.com","kind":"region","sort_rank":256,"kind_detail":"4","min_zoom":3.0,"id":7599},"arcs":[[76],[77],[78],[79],[80],[81],[82],[83],[84],[85],[86],[87],[88],[89]]}]},"roads":{"type":"GeometryCollection","geometries":[{"type":"LineString","properties":{"source":"naturalearthdata.com","kind":"major_road","sort_rank":379,"kind_detail":"secondary","min_zoom":3.0,"id":35412},"arcs":[98]},{"type":"LineString","properties":{"source":"naturalearthdata.com","kind":"major_road","sort_rank":379,"kind_detail":"secondary","min_zoom":3.0,"id":35494},"arcs":[99]},{"type":"LineString","properties":{"source":"naturalearthdata.com","kind":"major_road","kind_detail":"secondary","sort_rank":379,"landuse_kind":"urban_area","min_zoom":4.0,"id":35622},"arcs":[100]},{"type":"LineString","properties":{"source":"naturalearthdata.com","kind":"major_road","sort_rank":379,"kind_detail":"secondary","min_zoom":4.0,"id":35622},"arcs":[101]},{"type":"LineString","properties":{"source":"naturalearthdata.com","kind":"major_road","sort_rank":379,"kind_detail":"secondary","min_zoom":4.0,"id":35631},"arcs":[102]},{"type":"LineString","properties":{"source":"naturalearthdata.com","kind":"major_road","sort_rank":379,"kind_detail":"secondary","min_zoom":4.0,"id":35636},"arcs":[103]},{"type":"LineString","properties":{"source":"naturalearthdata.com","kind":"major_road","sort_rank":379,"kind_detail":"secondary","min_zoom":4.0,"id":35645},"arcs":[104]},{"type":"LineString","properties":{"source":"naturalearthdata.com","kind":"major_road","kind_detail":"secondary","sort_rank":379,"landuse_kind":"urban_area","min_zoom":3.0,"id":35653},"arcs":[105]},{"type":"LineString","properties":{"source":"naturalearthdata.com","kind":"major_road","kind_detail":"secondary","sort_rank":379,"landuse_kind":"urban_area","min_zoom":3.0,"id":35658},"arcs":[106]},{"type":"LineString","properties":{"source":"naturalearthdata.com","kind":"major_road","sort_rank":379,"kind_detail":"secondary","min_zoom":3.0,"id":35658},"arcs":[107]},{"type":"LineString","properties":{"source":"naturalearthdata.com","kind":"major_road","sort_rank":379,"kind_detail":"secondary","min_zoom":3.0,"id":35659},"arcs":[108]},{"type":"LineString","properties":{"source":"naturalearthdata.com","kind":"major_road","sort_rank":379,"kind_detail":"secondary","min_zoom":3.0,"id":35665},"arcs":[109]},{"type":"LineString","properties":{"source":"naturalearthdata.com","kind":"major_road","kind_detail":"secondary","sort_rank":379,"landuse_kind":"urban_area","min_zoom":4.0,"id":35666},"arcs":[110]},{"type":"LineString","properties":{"source":"naturalearthdata.com","kind":"major_road","sort_rank":379,"kind_detail":"secondary","min_zoom":4.0,"id":35666},"arcs":[111]},{"type":"LineString","properties":{"source":"naturalearthdata.com","kind":"major_road","sort_rank":379,"kind_detail":"secondary","min_zoom":4.0,"id":35677},"arcs":[112]},{"type":"LineString","properties":{"source":"naturalearthdata.com","kind":"major_road","sort_rank":379,"kind_detail":"secondary","min_zoom":3.0,"id":35695},"arcs":[113]},{"type":"LineString","properties":{"source":"naturalearthdata.com","kind":"major_road","sort_rank":379,"kind_detail":"secondary","min_zoom":4.0,"id":35707},"arcs":[114]},{"type":"LineString","properties":{"source":"naturalearthdata.com","kind":"major_road","kind_detail":"secondary","sort_rank":379,"landuse_kind":"urban_area","min_zoom":4.0,"id":35709},"arcs":[115]},{"type":"LineString","properties":{"source":"naturalearthdata.com","kind":"major_road","kind_detail":"secondary","sort_rank":379,"landuse_kind":"urban_area","min_zoom":4.0,"id":35709},"arcs":[116]},{"type":"LineString","properties":{"source":"naturalearthdata.com","kind":"major_road","sort_rank":379,"kind_detail":"secondary","min_zoom":4.0,"id":35709},"arcs":[117]},{"type":"LineString","properties":{"source":"naturalearthdata.com","kind":"major_road","kind_detail":"secondary","sort_rank":379,"landuse_kind":"urban_area","min_zoom":4.0,"id":35717},"arcs":[118]},{"type":"MultiLineString","properties":{"source":"naturalearthdata.com","kind":"major_road","sort_rank":379,"kind_detail":"secondary","min_zoom":4.0,"id":35717},"arcs":[[119],[120]]},{"type":"LineString","properties":{"source":"naturalearthdata.com","kind":"major_road","kind_detail":"secondary","sort_rank":379,"landuse_kind":"urban_area","min_zoom":3.0,"id":35720},"arcs":[121]},{"type":"LineString","properties":{"source":"naturalearthdata.com","kind":"major_road","sort_rank":379,"kind_detail":"secondary","min_zoom":3.0,"id":35720},"arcs":[122]},{"type":"LineString","properties":{"source":"naturalearthdata.com","kind":"major_road","kind_detail":"secondary","sort_rank":379,"landuse_kind":"urban_area","min_zoom":3.0,"id":35730},"arcs":[123]},{"type":"LineString","properties":{"source":"naturalearthdata.com","kind":"major_road","sort_rank":379,"kind_detail":"secondary","min_zoom":3.0,"id":35730},"arcs":[124]},{"type":"LineString","properties":{"source":"naturalearthdata.com","kind":"major_road","sort_rank":379,"kind_detail":"secondary","min_zoom":4.0,"id":35797},"arcs":[125]},{"type":"LineString","properties":{"source":"naturalearthdata.com","kind":"major_road","sort_rank":379,"kind_detail":"secondary","min_zoom":4.0,"id":35798},"arcs":[126]},{"type":"LineString","properties":{"source":"naturalearthdata.com","kind":"major_road","sort_rank":379,"kind_detail":"secondary","min_zoom":4.0,"id":35804},"arcs":[127]},{"type":"LineString","properties":{"source":"naturalearthdata.com","kind":"major_road","sort_rank":379,"kind_detail":"secondary","min_zoom":4.0,"id":35820},"arcs":[128]},{"type":"LineString","properties":{"source":"naturalearthdata.com","kind":"major_road","sort_rank":379,"kind_detail":"secondary","min_zoom":3.0,"id":35825},"arcs":[129]},{"type":"LineString","properties":{"source":"naturalearthdata.com","kind":"major_road","sort_rank":379,"kind_detail":"secondary","min_zoom":4.0,"id":35827},"arcs":[130]},{"type":"LineString","properties":{"source":"naturalearthdata.com","kind":"minor_road","kind_detail":"tertiary","sort_rank":355,"landuse_kind":"urban_area","min_zoom":6.0,"id":35834},"arcs":[131]},{"type":"LineString","properties":{"source":"naturalearthdata.com","kind":"minor_road","sort_rank":355,"kind_detail":"tertiary","min_zoom":6.0,"id":35834},"arcs":[132]},{"type":"LineString","properties":{"source":"naturalearthdata.com","kind":"major_road","kind_detail":"secondary","sort_rank":379,"landuse_kind":"urban_area","min_zoom":3.0,"id":35835},"arcs":[133]},{"type":"LineString","properties":{"source":"naturalearthdata.com","kind":"major_road","sort_rank":379,"kind_detail":"secondary","min_zoom":3.0,"id":35835},"arcs":[134]},{"type":"LineString","properties":{"source":"naturalearthdata.com","kind":"major_road","kind_detail":"secondary","sort_rank":379,"landuse_kind":"urban_area","min_zoom":4.0,"id":35842},"arcs":[135]},{"type":"MultiLineString","properties":{"source":"naturalearthdata.com","kind":"major_road","sort_rank":379,"kind_detail":"secondary","min_zoom":4.0,"id":35842},"arcs":[[136],[137]]},{"type":"LineString","properties":{"source":"naturalearthdata.com","kind":"major_road","sort_rank":379,"kind_detail":"secondary","min_zoom":3.0,"id":35843},"arcs":[138]},{"type":"LineString","properties":{"source":"naturalearthdata.com","kind":"major_road","kind_detail":"secondary","sort_rank":379,"landuse_kind":"urban_area","min_zoom":3.0,"id":35886},"arcs":[139]},{"type":"MultiLineString","properties":{"source":"naturalearthdata.com","kind":"major_road","sort_rank":379,"kind_detail":"secondary","min_zoom":3.0,"id":35886},"arcs":[[140],[141]]},{"type":"LineString","properties":{"source":"naturalearthdata.com","kind":"major_road","sort_rank":379,"kind_detail":"secondary","min_zoom":4.0,"id":35908},"arcs":[142]},{"type":"LineString","properties":{"source":"naturalearthdata.com","kind":"major_road","sort_rank":379,"kind_detail":"secondary","min_zoom":4.0,"id":36029},"arcs":[143]},{"type":"LineString","properties":{"source":"naturalearthdata.com","kind":"major_road","sort_rank":379,"kind_detail":"secondary","min_zoom":3.0,"id":36137},"arcs":[144]},{"type":"LineString","properties":{"source":"naturalearthdata.com","kind":"major_road","kind_detail":"secondary","sort_rank":379,"landuse_kind":"urban_area","min_zoom":3.0,"id":36174},"arcs":[145]},{"type":"LineString","properties":{"source":"naturalearthdata.com","kind":"major_road","kind_detail":"secondary","sort_rank":379,"landuse_kind":"urban_area","min_zoom":3.0,"id":36174},"arcs":[146]},{"type":"LineString","properties":{"source":"naturalearthdata.com","kind":"major_road","kind_detail":"secondary","sort_rank":379,"landuse_kind":"urban_area","min_zoom":3.0,"id":36174},"arcs":[147]},{"type":"MultiLineString","properties":{"source":"naturalearthdata.com","kind":"major_road","sort_rank":379,"kind_detail":"secondary","min_zoom":3.0,"id":36174},"arcs":[[148],[149],[150],[151],[152]]},{"type":"LineString","properties":{"source":"naturalearthdata.com","kind":"major_road","sort_rank":379,"kind_detail":"secondary","min_zoom":4.0,"id":36191},"arcs":[153]},{"type":"LineString","properties":{"source":"naturalearthdata.com","kind":"major_road","sort_rank":379,"kind_detail":"secondary","min_zoom":4.0,"id":36215},"arcs":[154]},{"type":"LineString","properties":{"source":"naturalearthdata.com","kind":"major_road","sort_rank":379,"kind_detail":"secondary","min_zoom":4.0,"id":36216},"arcs":[155]},{"type":"LineString","properties":{"source":"naturalearthdata.com","kind":"major_road","sort_rank":379,"kind_detail":"secondary","min_zoom":3.0,"id":36229},"arcs":[156]},{"type":"LineString","properties":{"source":"naturalearthdata.com","kind":"major_road","kind_detail":"secondary","sort_rank":379,"landuse_kind":"urban_area","min_zoom":4.0,"id":36279},"arcs":[157]},{"type":"MultiLineString","properties":{"source":"naturalearthdata.com","kind":"major_road","sort_rank":379,"kind_detail":"secondary","min_zoom":4.0,"id":36279},"arcs":[[158],[159]]},{"type":"LineString","properties":{"source":"naturalearthdata.com","kind":"major_road","kind_detail":"secondary","sort_rank":379,"landuse_kind":"urban_area","min_zoom":3.0,"id":36294},"arcs":[160]},{"type":"LineString","properties":{"source":"naturalearthdata.com","kind":"major_road","sort_rank":379,"kind_detail":"secondary","min_zoom":3.0,"id":36294},"arcs":[161]},{"type":"LineString","properties":{"source":"naturalearthdata.com","kind":"major_road","kind_detail":"secondary","sort_rank":379,"landuse_kind":"urban_area","min_zoom":3.0,"id":36333},"arcs":[162]},{"type":"LineString","properties":{"source":"naturalearthdata.com","kind":"major_road","sort_rank":379,"kind_detail":"secondary","min_zoom":3.0,"id":36333},"arcs":[163]},{"type":"LineString","properties":{"source":"naturalearthdata.com","kind":"minor_road","kind_detail":"tertiary","sort_rank":355,"landuse_kind":"urban_area","min_zoom":6.0,"id":36523},"arcs":[164]},{"type":"LineString","properties":{"source":"naturalearthdata.com","kind":"minor_road","sort_rank":355,"kind_detail":"tertiary","min_zoom":6.0,"id":36523},"arcs":[165]},{"type":"LineString","properties":{"source":"naturalearthdata.com","kind":"minor_road","sort_rank":355,"kind_detail":"tertiary","min_zoom":6.0,"id":36653},"arcs":[166]},{"type":"LineString","properties":{"source":"naturalearthdata.com","kind":"minor_road","kind_detail":"tertiary","sort_rank":355,"landuse_kind":"urban_area","min_zoom":6.0,"id":36700},"arcs":[167]},{"type":"MultiLineString","properties":{"source":"naturalearthdata.com","kind":"minor_road","sort_rank":355,"kind_detail":"tertiary","min_zoom":6.0,"id":36700},"arcs":[[168],[169]]},{"type":"LineString","properties":{"source":"naturalearthdata.com","kind":"minor_road","sort_rank":355,"kind_detail":"tertiary","min_zoom":6.0,"id":36707},"arcs":[170]},{"type":"LineString","properties":{"source":"naturalearthdata.com","kind":"minor_road","kind_detail":"tertiary","sort_rank":355,"landuse_kind":"urban_area","min_zoom":6.0,"id":36708},"arcs":[171]},{"type":"MultiLineString","properties":{"source":"naturalearthdata.com","kind":"minor_road","sort_rank":355,"kind_detail":"tertiary","min_zoom":6.0,"id":36708},"arcs":[[172],[173]]},{"type":"LineString","properties":{"source":"naturalearthdata.com","kind":"major_road","kind_detail":"secondary","sort_rank":379,"landuse_kind":"urban_area","min_zoom":3.0,"id":36853},"arcs":[174]},{"type":"LineString","properties":{"source":"naturalearthdata.com","kind":"major_road","sort_rank":379,"kind_detail":"secondary","min_zoom":3.0,"id":36853},"arcs":[175]},{"type":"LineString","properties":{"source":"naturalearthdata.com","kind":"major_road","sort_rank":379,"kind_detail":"secondary","min_zoom":3.0,"id":36897},"arcs":[176]},{"type":"LineString","properties":{"source":"naturalearthdata.com","kind":"major_road","kind_detail":"secondary","sort_rank":379,"landuse_kind":"national_park","min_zoom":4.0,"id":36983},"arcs":[177]},{"type":"LineString","properties":{"source":"naturalearthdata.com","kind":"major_road","kind_detail":"secondary","sort_rank":379,"landuse_kind":"urban_area","min_zoom":4.0,"id":36983},"arcs":[178]},{"type":"MultiLineString","properties":{"source":"naturalearthdata.com","kind":"major_road","sort_rank":379,"kind_detail":"secondary","min_zoom":4.0,"id":36983},"arcs":[[179],[180]]},{"type":"LineString","properties":{"source":"naturalearthdata.com","kind":"major_road","kind_detail":"secondary","sort_rank":379,"landuse_kind":"urban_area","min_zoom":3.0,"id":37016},"arcs":[181]},{"type":"LineString","properties":{"source":"naturalearthdata.com","kind":"major_road","sort_rank":379,"kind_detail":"secondary","min_zoom":3.0,"id":37016},"arcs":[182]},{"type":"LineString","properties":{"source":"naturalearthdata.com","kind":"major_road","sort_rank":379,"kind_detail":"secondary","min_zoom":4.0,"id":37019},"arcs":[183]},{"type":"LineString","properties":{"source":"naturalearthdata.com","kind":"major_road","sort_rank":379,"kind_detail":"secondary","min_zoom":3.0,"id":37021},"arcs":[184]},{"type":"LineString","properties":{"source":"naturalearthdata.com","kind":"major_road","sort_rank":379,"kind_detail":"secondary","min_zoom":3.0,"id":37031},"arcs":[185]},{"type":"LineString","properties":{"source":"naturalearthdata.com","kind":"major_road","sort_rank":379,"kind_detail":"secondary","min_zoom":3.0,"id":37196},"arcs":[186]},{"type":"LineString","properties":{"source":"naturalearthdata.com","kind":"major_road","sort_rank":379,"kind_detail":"secondary","min_zoom":3.0,"id":37262},"arcs":[187]},{"type":"LineString","properties":{"source":"naturalearthdata.com","kind":"minor_road","sort_rank":355,"kind_detail":"tertiary","min_zoom":6.0,"id":37288},"arcs":[188]},{"type":"LineString","properties":{"source":"naturalearthdata.com","kind":"major_road","kind_detail":"secondary","sort_rank":379,"landuse_kind":"urban_area","min_zoom":4.0,"id":37311},"arcs":[189]},{"type":"LineString","properties":{"source":"naturalearthdata.com","kind":"major_road","sort_rank":379,"kind_detail":"secondary","min_zoom":4.0,"id":37311},"arcs":[190]},{"type":"LineString","properties":{"source":"naturalearthdata.com","kind":"major_road","sort_rank":379,"kind_detail":"secondary","min_zoom":4.0,"id":37399},"arcs":[191]},{"type":"LineString","properties":{"source":"naturalearthdata.com","kind":"minor_road","sort_rank":355,"kind_detail":"tertiary","min_zoom":6.0,"id":37400},"arcs":[192]},{"type":"LineString","properties":{"source":"naturalearthdata.com","kind":"major_road","sort_rank":379,"kind_detail":"secondary","min_zoom":3.0,"id":37409},"arcs":[193]},{"type":"LineString","properties":{"source":"naturalearthdata.com","kind":"major_road","kind_detail":"secondary","sort_rank":379,"landuse_kind":"urban_area","min_zoom":4.0,"id":37414},"arcs":[194]},{"type":"LineString","properties":{"source":"naturalearthdata.com","kind":"major_road","sort_rank":379,"kind_detail":"secondary","min_zoom":4.0,"id":37414},"arcs":[195]},{"type":"LineString","properties":{"source":"naturalearthdata.com","kind":"major_road","sort_rank":379,"kind_detail":"secondary","min_zoom":3.0,"id":37534},"arcs":[196]},{"type":"LineString","properties":{"source":"naturalearthdata.com","kind":"major_road","sort_rank":379,"kind_detail":"secondary","min_zoom":3.0,"id":37752},"arcs":[197]}]},"earth":{"type":"GeometryCollection","geometries":[{"type":"MultiPolygon","properties":{"sort_rank":10,"source":"naturalearthdata.com","min_zoom":0.0,"kind":"earth","area":1216408005480},"arcs":[[[198]]]}]},"landuse":{"type":"GeometryCollection","geometries":[{"type":"MultiPolygon","properties":{"kind":"national_park","protect_class":"2","area":680109384,"sort_rank":18,"source":"openstreetmap.org","min_zoom":3.0,"tier":1,"osm_relation":true},"arcs":[[[199]]]},{"type":"Polygon","properties":{"kind":"protected_area","protect_class":"2","area":2017159936,"sort_rank":17,"source":"openstreetmap.org","min_zoom":4.0,"tier":2,"id":-3308129,"osm_relation":true},"arcs":[[200]]},{"type":"Polygon","properties":{"kind":"park","area":2766060032,"sort_rank":24,"source":"openstreetmap.org","min_zoom":4.0,"tier":2,"id":-3308122,"osm_relation":true},"arcs":[[201]]},{"type":"MultiPolygon","properties":{"source":"naturalearthdata.com","kind":"urban_area","name":"","area":5010198144,"sort_rank":11,"min_zoom":4.0},"arcs":[[[202]],[[203]],[[204]],[[205]],[[206]],[[207]],[[208]],[[209]],[[210]],[[211]],[[212]],[[213]],[[214]],[[215]],[[216]],[[217]],[[218]],[[219]],[[220]],[[221]]]}]}},"type":"Topology","transform":{"translate":[33.75,11.1784018737],"scale":[0.001373291,0.0013324683]},"arcs":[[[1711,1139],[11,4],[6,15],[15,83],[0,19],[-4,11],[-17,30],[0,16],[8,13],[11,11],[7,11],[-1,7],[-2,6],[-6,12],[-1,14],[70,247],[109,158],[6,21],[3,42],[3,15],[30,76],[13,33],[-2,37],[-13,37],[-4,19],[0,19],[3,16],[66,204]],[[1666,1155],[9,-1],[5,-3],[4,-3],[7,-4],[20,-5]],[[898,0],[1,6],[-10,15],[-12,15],[-7,20],[2,16],[91,206],[3,15],[-2,14],[-15,30],[-5,16],[1,31],[-5,28],[0,15],[5,18],[8,18],[10,18],[11,14],[28,19],[16,6],[49,19],[22,25],[2,7],[0,14],[0,3],[2,7],[7,7],[27,16],[14,16],[7,18],[7,41],[13,33],[5,9],[7,6],[16,8],[8,7],[7,10],[2,9],[2,21],[7,21],[137,231],[7,8],[6,2],[14,1],[7,3],[7,8],[2,8],[2,8],[4,19],[0,4],[3,2],[10,5],[1,0],[19,7],[219,32],[6,0]],[[2022,2315],[-16,138],[-11,93],[-11,95],[-9,72],[-5,42],[-15,126],[-8,71],[1,16],[6,13],[53,52],[14,21],[37,109],[14,24],[24,15],[-10,33],[1,32],[40,144],[9,16],[36,38],[19,32],[35,99],[33,93],[25,68],[11,20],[31,31],[7,19],[-2,16],[-13,31],[-4,16],[1,16],[3,13],[0,13],[-4,13],[-1,2],[-10,14],[-12,12],[-9,14],[-5,17],[0,10],[9,30],[2,15],[-1,24],[1,13]],[[3016,2778],[12,-11],[9,-13],[14,-28],[3,-3],[7,0],[3,-3],[0,-3],[0,-8],[0,-2],[3,-6],[2,-5],[3,-3],[8,-2],[7,-5],[2,-6],[0,-7],[5,-7],[6,-5],[79,-32],[13,-3]],[[2770,2197],[8,8],[26,63],[42,101],[46,110],[47,113],[47,114],[30,72]],[[3233,2633],[18,-1],[11,-4],[7,-9],[5,-12],[1,-3],[4,-21],[3,-7],[7,-7],[9,-5],[7,-5],[5,-10],[7,-28],[6,-14],[8,-11],[12,-9],[39,-21],[6,-6],[5,-16],[4,-6],[9,-7],[6,-1]],[[3192,2626],[41,7]],[[3830,2606],[1,-2],[26,-3],[21,-5],[7,-3],[16,-10],[15,-13],[12,-16],[10,-16],[21,-62],[16,-28]],[[3622,2462],[14,2],[14,3],[43,18],[32,3],[14,10],[24,22],[30,14],[15,9],[10,14],[3,14],[-2,14],[2,12],[9,9]],[[4076,2479],[14,1],[6,2]],[[4037,2486],[39,-7]],[[3975,2448],[18,0],[16,26],[9,9],[19,3]],[[3582,2469],[14,-1],[13,-4],[13,-2]],[[3454,2431],[55,7],[27,7],[46,24]],[[2580,2461],[18,-15],[14,-8],[28,-40],[11,-12],[2,-6],[2,-11],[-1,-17],[2,-8],[11,-6],[29,-25],[3,-4],[6,-14],[3,-19],[5,-9],[9,-3],[8,-2],[7,-3],[6,-6],[2,-7],[1,-19],[3,-13],[8,-9],[13,-8]],[[2555,2454],[15,5],[10,2]],[[2501,2455],[54,-1]],[[2405,2324],[5,1],[10,7],[7,9],[6,12],[2,16],[0,18],[3,15],[6,15],[11,16],[21,16],[25,6]],[[3418,2432],[36,-1]],[[3412,2430],[6,2]],[[2233,2367],[23,-3],[48,-15],[24,-3],[4,-3],[13,-18],[6,-4],[6,-3],[6,-2],[8,-1]],[[2036,2315],[5,15],[9,7],[13,3],[15,1],[10,2],[23,11],[14,2],[33,0],[6,2],[12,7],[7,2],[50,0]],[[2392,2326],[13,-2]],[[2371,2315],[4,2],[11,8],[6,1]],[[2022,2315],[14,0]],[[325,3632],[2,-43],[20,-67],[99,-221]],[[472,1167],[25,-6],[28,-15],[25,-23],[36,-36],[160,-255],[89,-110],[82,-81],[69,-54],[6,-6],[15,-26],[11,-35]],[[0,902],[353,221],[93,42],[26,2]],[[325,3632],[-107,-17],[-26,-13],[-96,-37],[-50,-10],[-46,-2]],[[0,3085],[79,-27],[119,-62],[3,-2],[2,-3],[51,-108],[104,-150],[6,-16],[1,-28],[-234,-411],[-16,-38],[3,-13],[4,-8],[5,-6],[5,-3],[4,-4],[1,-2],[-1,-2],[-6,-1],[-2,-2],[0,-3],[2,-4],[11,-12],[4,-5],[24,-39]],[[33,3398],[163,-57],[250,-40]],[[0,3392],[12,6],[21,0]],[[0,2159],[6,-4],[9,-3],[20,-2]],[[88,2152],[35,-6],[16,-5],[30,-5]],[[35,2150],[53,2]],[[169,2136],[4,-9],[9,-10],[1,-3],[1,-3],[1,-16],[1,-5],[5,-7],[7,-8],[32,-26],[6,-9],[3,-5],[0,-4],[-2,-2],[-2,-1],[-4,-2],[-3,-3],[0,-4],[8,-12],[3,-10],[4,-7],[4,-5],[6,-2],[5,-4],[25,-41],[7,-6],[4,0]],[[298,1938],[4,0],[8,-5],[13,-10],[9,-3]],[[294,1932],[4,6]],[[354,1927],[4,0],[4,-2],[6,-8],[8,-2]],[[332,1920],[9,1],[13,6]],[[391,1917],[7,0],[5,-1],[3,-6],[1,-4],[0,-8],[-2,-8],[-4,-6],[-5,-6],[-5,-5],[-6,-4],[-11,-9],[-4,-7],[-2,-7],[0,-8],[3,-8],[3,-7],[20,-31],[41,-81],[55,-73],[17,-10],[31,-14],[27,-9],[8,-4],[8,-5],[9,-8],[20,-25],[5,-6],[5,-4],[10,-7],[68,-30],[9,-2],[12,-4],[17,-11],[30,-22],[13,-13],[26,-35],[37,-36],[22,-27],[9,-7],[154,-90],[11,-10],[19,-21],[22,-20],[29,-18],[70,-29],[242,-55],[1,0]],[[376,1915],[7,0],[8,2]],[[1093,3948],[58,9],[56,19],[63,35],[45,32],[46,50],[1,3]],[[598,3948],[495,0]],[[325,3632],[30,53],[182,248],[21,11],[40,4]],[[446,3301],[104,-24],[87,-32],[118,-62],[39,-26],[31,-27],[28,-29],[40,-51],[14,-23],[98,-243],[167,-185],[36,-26],[32,-4]],[[1933,2719],[42,-6]],[[1240,2569],[41,8],[341,124],[58,11],[253,7]],[[3669,2985],[-2,301]],[[2768,3503],[-11,4],[-5,5],[0,7],[-1,7],[-5,8],[-14,9],[-22,9],[-25,8],[-15,10],[-12,18],[-13,32],[-22,34],[-28,27],[-45,28],[-38,12],[-68,17],[-16,6],[-11,6],[-4,7],[-11,23],[-6,9],[-6,6],[-6,5],[-6,6],[-5,7],[-5,12],[-4,18],[-5,42],[-5,20],[-6,16],[-14,21],[-20,3]],[[3186,3385],[-13,4],[-72,48],[-41,18],[-24,8],[-20,2],[-25,1],[-16,3],[-16,8],[-20,15],[-26,13],[-20,5],[-21,0]],[[2872,3510],[-51,-7],[-53,0]],[[3593,3277],[-134,4],[-24,6],[-15,11],[-20,39],[-20,27],[-24,23],[-34,23],[-24,7],[-20,1]],[[3278,3418],[-18,-6],[-40,-20],[-16,-6],[-18,-1]],[[3667,3286],[-74,-9]],[[3793,3300],[-46,-7],[-27,-10],[-9,-2]],[[3711,3281],[-5,1],[-9,7],[-5,3],[-10,1]],[[3682,3293],[-6,0],[-9,-7]],[[3793,3300],[12,-33],[18,-34],[67,-102],[42,-47],[35,-31],[63,-33],[31,-20]],[[3793,3300],[-25,92],[-64,107],[-11,14],[-9,7],[-98,12],[-35,10],[-34,15],[-36,24],[-15,20],[-8,25],[-2,61],[2,19],[5,13],[7,12],[3,11],[2,14],[0,17],[-5,23],[-9,25],[-21,38],[-18,22],[-17,14],[-17,19],[-7,19],[-11,40],[-9,17],[-14,21],[-7,15],[-4,15],[-5,11],[-8,7],[-166,29],[-15,8]],[[3669,2985],[-49,5]],[[3620,2990],[-23,-3],[-30,-13],[-63,-15],[-65,-5],[-10,-2],[-11,-5],[-14,-8],[-27,-31],[-16,-27],[-11,-14],[-10,-9],[-27,-11],[-16,-9],[-14,-12],[-6,-10],[-11,-30],[-14,-28],[-2,-13],[1,-18],[5,-21],[23,-51],[3,-27],[-8,-21]],[[4061,3000],[-8,-9],[-6,-4],[-9,-4]],[[4038,2983],[-8,2]],[[4030,2985],[-361,0]],[[4061,3000],[23,-37],[12,-29]],[[1498,642],[-30,3]],[[1468,645],[-5,-3],[-20,-49],[-11,-17],[-93,-73],[-17,-19],[-15,-12],[-16,-2]],[[1749,377],[-15,7],[-11,34],[-5,38],[-7,18],[-18,21],[-26,43],[-3,4],[-31,26],[-9,11],[-9,19],[-6,9],[-18,11],[-4,3],[-12,3],[-20,0],[-18,3],[-7,10],[-3,4],[-7,1]],[[1520,642],[-22,0]],[[1194,455],[-17,8],[-19,16],[-20,22],[-28,67],[-19,17]],[[1981,0],[-1,10],[-4,16],[-2,13],[7,17],[14,18],[11,22],[2,30],[-44,46],[-13,7],[-17,15],[6,16],[15,15],[8,12],[-1,6],[-42,66],[-25,25],[-8,14],[-4,67],[4,50],[-5,8]],[[1882,473],[-17,-6],[-28,-21],[-29,-25],[-31,-33],[-14,-9],[-14,-2]],[[1291,470],[-20,1]],[[1271,471],[-21,-3],[-40,-13],[-16,0]],[[2405,1647],[-15,0],[-85,12],[-14,6],[-17,21],[-41,24],[-80,76],[-14,6],[-96,25],[-12,0],[-11,11],[-51,114],[-10,8]],[[3430,1715],[-4,3],[22,52],[-3,17],[-5,12],[-7,9],[-9,2]],[[3424,1810],[-12,-6],[-7,-11],[-7,-12],[-12,-12],[-15,-7],[-72,-10]],[[3137,1719],[-24,4],[-97,49],[-81,19],[-28,1]],[[2907,1792],[-17,-14],[-18,-52],[-7,-14],[-10,-12],[-12,-9],[-101,-48],[-21,-4]],[[3299,1752],[-42,1],[-36,6],[-27,2]],[[3194,1761],[-11,-12],[-7,-9],[-14,-10],[-15,-8],[-10,-3]],[[3856,1370],[-13,2],[-10,6],[-5,11],[-3,18],[-2,18],[1,14],[-4,23],[-19,24],[-163,162],[-18,9],[-12,5],[-5,14],[-5,32],[-10,23],[-2,5],[-51,5]],[[3535,1741],[-15,-1],[-11,-2],[-18,-7],[-61,-16]],[[2721,1639],[-126,4],[-11,2],[-6,6],[-12,14],[-19,13],[-21,9],[-19,4]],[[2507,1691],[-23,-2],[-15,-3],[-6,-2],[-39,-22],[-9,-8],[-10,-7]],[[4041,839],[-7,1],[-13,11],[-10,19],[-7,20],[-4,16],[-7,83],[-30,76],[-6,26],[5,25],[53,99],[1,42],[-6,33],[-9,27],[-6,24],[-2,23],[-7,15],[-13,6]],[[3973,1385],[-80,-15],[-37,0]],[[4096,848],[-1,-4],[-1,-3],[-53,-2]],[[1600,2697],[-6,-7],[-2,-4],[0,-5],[2,-4],[2,-4],[1,-3],[-3,-6],[-8,-18],[-20,-32],[-3,-12],[-1,-19],[-3,6],[-2,12],[-6,18],[3,7],[5,6],[5,8],[20,61],[-1,15],[-28,27],[-9,14],[2,17],[16,30],[3,16],[5,-47],[5,-16],[10,-16],[9,-11],[6,-11],[0,-18],[-2,-4]],[[2586,422],[-4,34],[-3,10],[-5,7],[-9,6],[-10,4],[-25,6],[-11,0],[-11,-4],[-9,-6],[-10,-5],[-14,0],[-12,5],[-7,7],[-2,10],[0,14],[-13,-6],[-5,-11],[-2,-13],[-4,-11],[-11,18],[-2,2],[-2,2],[-16,6],[-4,0],[-3,16],[-6,13],[-12,8],[-14,-3],[-3,15],[5,12],[5,10],[1,6],[-2,9],[12,162],[6,13],[32,40],[10,8],[11,3],[10,4],[9,9],[11,6],[13,-4],[9,-13],[2,-15],[4,-14],[15,-10],[11,10],[11,-1],[9,-5],[8,-4],[13,2],[5,4],[14,37],[5,8],[8,6],[10,5],[8,1],[8,-4],[9,-13],[13,13],[12,3],[25,0],[12,4],[12,7],[12,4],[15,-4],[4,-6],[15,-30],[7,-9],[3,-6],[5,-22],[10,-20],[24,-32],[6,-19],[0,-14],[-2,-14],[-13,-45],[-4,-7],[-4,-5],[-2,-5],[5,-9],[-9,-9],[-9,-25],[-7,-11],[-10,-5],[-18,-1],[-7,-5],[2,-6],[11,-22],[2,-8],[-4,-15],[-12,-6],[-13,-5],[-11,-10],[-1,-6],[-1,-17],[-2,-7],[-5,-6],[-11,-12],[0,-9],[0,-9],[-4,-7],[-9,-13],[-2,-4],[0,-16],[-2,-5],[-3,-7],[-11,-16],[-12,-5],[-14,1],[-18,5],[-8,12],[-9,6],[-7,5],[0,13],[4,13],[7,0],[8,-4],[10,1],[8,8],[-5,6],[-18,7],[-5,7],[-3,7]],[[4096,3510],[-1,2],[-44,27],[-14,26],[-25,98],[-18,37],[-2,11],[-3,34],[-22,98],[0,10],[4,19],[1,9],[-1,9],[-7,12],[-2,7],[-1,10],[1,29],[-1,10],[-3,6],[-4,6],[-2,7],[-1,7],[1,26],[-4,2],[-8,1],[-7,3],[-1,12],[5,-6],[3,20],[-12,34],[14,14],[-1,6],[155,0],[0,-586]],[[422,312],[-8,21],[24,8],[-4,17],[-8,13],[-5,13],[2,18],[7,16],[11,17],[14,15],[13,9],[20,1],[17,5],[15,1],[13,-12],[5,-18],[0,-25],[-5,-17],[-14,3],[-5,7],[-3,8],[-4,4],[-8,-4],[-4,-7],[-1,-23],[-3,-8],[-5,-10],[4,-7],[13,-12],[11,-28],[4,-7],[16,-13],[33,-16],[14,-18],[11,-18],[13,-15],[51,-36],[15,-16],[8,-4],[11,-3],[9,-6],[4,-10],[4,-22],[9,-18],[15,-14],[17,-12],[-30,-1],[-21,21],[-18,28],[-20,23],[-12,8],[-39,16],[-14,9],[-11,11],[-22,26],[-12,9],[-12,1],[-11,0],[-13,3],[-11,10],[-9,12],[-10,10],[-14,4],[-24,10],[-23,23]],[[4096,3510],[-1,2],[-44,27],[-14,26],[-25,98],[-18,37],[-2,11],[-3,34],[-22,98],[0,10],[4,19],[1,9],[-1,9],[-7,12],[-2,7],[-1,10],[1,29],[-1,10],[-3,6],[-4,6],[-2,7],[-1,7],[1,26],[-4,2],[-8,1],[-7,3],[-1,12],[5,-6],[3,20],[-12,34],[14,14],[-1,6]],[[2586,422],[-4,34],[-3,10],[-5,7],[-9,6],[-10,4],[-25,6],[-11,0],[-11,-4],[-9,-6],[-10,-5],[-14,0],[-12,5],[-7,7],[-2,10],[0,14],[-13,-6],[-5,-11],[-2,-13],[-4,-11],[-11,18],[-2,2],[-2,2],[-16,6],[-4,0],[-3,16],[-6,13],[-12,8],[-14,-3],[-3,15],[5,12],[5,10],[1,6],[-2,9],[12,162],[6,13],[32,40],[10,8],[11,3],[10,4],[9,9],[11,6],[13,-4],[9,-13],[2,-15],[4,-14],[15,-10],[11,10],[11,-1],[9,-5],[8,-4],[13,2],[5,4],[14,37],[5,8],[8,6],[10,5],[8,1],[8,-4],[9,-13],[13,13],[12,3],[25,0],[12,4],[12,7],[12,4],[15,-4],[4,-6],[15,-30],[7,-9],[3,-6],[5,-22],[10,-20],[24,-32],[6,-19],[0,-14],[-2,-14],[-13,-45],[-4,-7],[-4,-5],[-2,-5],[5,-9],[-9,-9],[-9,-25],[-7,-11],[-10,-5],[-18,-1],[-7,-5],[2,-6],[11,-22],[2,-8],[-4,-15],[-12,-6],[-13,-5],[-11,-10],[-1,-6],[-1,-17],[-2,-7],[-5,-6],[-11,-12],[0,-9],[0,-9],[-4,-7],[-9,-13],[-2,-4],[0,-16],[-2,-5],[-3,-7],[-11,-16],[-12,-5],[-14,1],[-18,5],[-8,12],[-9,6],[-7,5],[0,13],[4,13],[7,0],[8,-4],[10,1],[8,8],[-5,6],[-18,7],[-5,7],[-3,7]],[[1600,2697],[-6,-7],[-2,-4],[0,-5],[2,-4],[2,-4],[1,-3],[-3,-6],[-8,-18],[-20,-32],[-3,-12],[-1,-19],[-3,6],[-2,12],[-6,18],[3,7],[5,6],[5,8],[20,61],[-1,15],[-28,27],[-9,14],[2,17],[16,30],[3,16],[5,-47],[5,-16],[10,-16],[9,-11],[6,-11],[0,-18],[-2,-4]],[[422,312],[-8,21],[24,8],[-4,17],[-8,13],[-5,13],[2,18],[7,16],[11,17],[14,15],[13,9],[20,1],[17,5],[15,1],[13,-12],[5,-18],[0,-25],[-5,-17],[-14,3],[-5,7],[-3,8],[-4,4],[-8,-4],[-4,-7],[-1,-23],[-3,-8],[-5,-10],[4,-7],[13,-12],[11,-28],[4,-7],[16,-13],[33,-16],[14,-18],[11,-18],[13,-15],[51,-36],[15,-16],[8,-4],[11,-3],[9,-6],[4,-10],[4,-22],[9,-18],[15,-14],[17,-12],[-30,-1],[-21,21],[-18,28],[-20,23],[-12,8],[-39,16],[-14,9],[-11,11],[-22,26],[-12,9],[-12,1],[-11,0],[-13,3],[-11,10],[-9,12],[-10,10],[-14,4],[-24,10],[-23,23]],[[1672,4096],[3,-40],[3,-53],[3,-18],[0,-68],[3,-28],[0,-16],[6,-40],[3,-43],[3,-41],[6,-92]],[[1702,3657],[3,-41],[9,-62],[12,-55],[3,-22]],[[3428,3446],[7,6]],[[3006,3273],[18,-6],[30,-4],[21,-3],[30,7],[9,6],[6,43],[9,12],[6,7],[63,9],[24,6],[63,34],[45,19],[15,9],[24,6],[15,-3],[15,3],[9,6],[12,16],[8,6]],[[540,3251],[57,-3],[63,3],[27,0]],[[8,3242],[27,3],[61,3],[33,0],[111,-9],[54,0],[63,3],[141,9],[42,0]],[[0,3241],[8,1]],[[1907,3198],[9,7]],[[1892,3195],[15,3]],[[1892,3195]],[[1729,3477],[0,-15],[-9,-44],[3,-25],[9,-21],[30,-40],[27,-31],[15,-22],[27,-28],[6,-9],[21,-19],[28,-25],[6,-3]],[[1892,3195],[-3,-9]],[[1937,3214],[11,-6]],[[1948,3208],[37,-19],[21,-6],[36,3],[30,9],[21,13],[12,0],[0,-3]],[[1510,3158],[15,3],[81,13],[102,9],[30,0],[48,-6],[36,0],[36,3],[25,6],[6,0]],[[3856,3130],[3,22],[15,6],[6,13],[-9,6],[0,12],[6,9],[21,4],[12,12],[6,3],[0,16],[9,12],[15,12],[21,3],[0,22],[24,6],[15,16],[30,9],[21,6],[45,13]],[[1420,3118],[18,6],[63,31]],[[3752,3140],[2,-7],[12,-18]],[[3435,3452],[12,0],[14,-8]],[[3461,3444],[22,-13],[15,-3],[12,-10],[15,-3],[12,-12],[15,-10],[27,-9],[12,-12],[24,-40],[21,-25],[21,-16],[22,-6],[18,-28],[3,-28],[36,-37],[12,-34],[4,-18]],[[1329,3120],[10,-5],[15,-9],[15,0],[1,0]],[[687,3251],[9,0],[60,-12],[54,-13],[63,-12],[121,-12],[48,-10],[24,10],[18,-7],[51,-15],[66,-31],[15,-3],[48,9],[65,-35]],[[1370,3106],[50,12]],[[3766,3115],[18,22],[6,-7],[4,-11]],[[3794,3119],[5,-10],[15,6],[15,-9],[6,-3],[15,6],[6,21]],[[3763,3101],[3,14]],[[3769,3081],[-6,18],[0,2]],[[2141,2969],[6,3],[12,16],[21,15],[30,16],[21,6],[30,6],[15,0],[42,-15],[15,0],[9,6],[21,-9],[21,-6],[15,6],[9,0],[24,-13]],[[2105,3205],[0,-75],[-6,-62],[3,-21],[6,-22],[9,-15],[18,-19],[6,-22]],[[2793,2960],[-12,47],[0,9],[9,31],[27,28],[18,24],[6,16],[9,15],[18,13],[15,12],[15,25],[12,15],[24,13],[39,15],[12,13],[12,15],[9,22]],[[2769,2938],[12,0],[12,13],[0,9]],[[3835,2932],[-6,6],[-9,44],[-9,25],[-9,3],[-3,6],[0,15],[-15,10],[-9,15],[-6,25]],[[2432,3000],[6,-3],[30,6],[30,-15],[15,-3],[36,-28],[15,-3],[42,3],[12,-12],[15,-10],[15,3],[21,-9],[15,9],[21,4],[15,9],[15,-9],[15,-4],[19,0]],[[3859,2918],[0,-1]],[[3856,3130],[18,-9],[6,-18],[-6,-16],[-9,-22],[-15,-12],[-3,-19],[9,-37],[9,-28],[3,-18],[-6,-25],[-3,-8]],[[3859,2917],[-1,0]],[[3858,2917],[-17,9],[-6,6]],[[3753,3073],[-14,-8],[-3,-9],[-4,-8]],[[3732,3048],[-11,-26],[-3,-15],[3,-22],[-9,-22],[-6,-25],[-18,-27]],[[3769,3081],[-16,-8]],[[1889,3186],[0,-9],[-21,-22],[-13,-9],[-30,-28],[-36,-37],[-30,-31],[-24,-19],[-21,-21],[-39,-44],[-24,-18],[-36,-25],[-27,-16]],[[1531,2860],[-2,-4]],[[1529,2856],[-10,-23]],[[1588,2907],[-33,-21],[-21,-19],[-3,-7]],[[3688,2911],[-6,-13],[6,-15],[0,-13],[-12,-28],[0,-15],[6,-22],[3,-18]],[[3685,2787],[-3,-34],[12,-22],[3,-15],[6,-13],[3,-25],[0,-21],[9,-22],[-3,-31],[-15,-15]],[[1519,2833],[-6,-18],[-6,-38],[-6,-27],[-3,-47],[-9,-34],[-3,-25],[0,-43],[3,-25],[3,-15],[21,-44],[18,-49],[9,-25],[0,-25]],[[4092,2742],[-7,14]],[[3987,2833],[-5,8]],[[3882,2907],[-8,4],[-15,6]],[[3982,2841],[-12,26],[-9,28],[-15,6],[-15,-6],[-36,6],[-13,6]],[[4085,2756],[-10,21],[-21,0],[-18,22],[-45,25],[-4,9]],[[4096,2421],[-9,10],[-9,21],[6,25],[12,22]],[[4096,2546],[-3,6],[0,15],[3,6]],[[4096,2734],[-4,8]],[[4096,2288],[-9,0],[-15,10],[-15,18],[-15,-3],[-18,22],[-33,28],[-12,-10],[-15,4],[-6,-4],[-21,-21],[-12,-3]],[[3925,2329],[-42,-13],[-12,6],[-33,-21],[-24,-19],[-18,0],[-24,-3],[-15,-6],[-18,-16]],[[3697,2589],[-6,-7],[0,-18],[-9,-9],[-19,0],[-15,-13],[-6,-15],[0,-6],[12,-16],[-3,-22],[12,-21],[6,-44],[10,-31],[0,-21],[12,-25],[6,-12],[36,-44],[6,-6],[0,-22]],[[87,2227],[-15,15],[-24,31],[-31,22],[-12,12],[-5,7]],[[3685,2227],[-25,-10],[-27,3],[-15,-3],[-8,-6]],[[3610,2211],[-22,-15],[-15,3],[-24,9],[-6,-6],[-9,3],[-15,9],[-15,-3],[-24,-6],[-51,0],[-15,-3],[-12,-16],[-9,-6],[-18,3],[-15,0],[-18,-6],[-12,9],[-3,16],[-9,6],[-9,0],[-6,-3]],[[3739,2257],[-6,-6],[-21,-15],[-9,3],[-18,-12]],[[1204,2167],[-15,-12]],[[1540,2418],[-15,-27],[-3,-16],[-3,-34],[-6,-12],[-9,-7],[-51,-15],[-18,-3],[-24,-3],[-15,-6],[-48,-28],[-42,-31],[-48,-44],[-15,-9],[-15,0],[-15,-9],[-9,-7]],[[1189,2155],[-11,5]],[[1178,2160],[-10,5],[-36,3],[-27,0],[-30,-6],[-36,-10],[-48,-15],[-30,-3],[-25,-3],[-15,-4],[-36,10],[-21,-3],[-39,-10],[-60,-15],[-45,-6],[-24,0],[-57,-3],[-90,9],[-45,15],[-42,13],[-36,9],[-9,6],[-99,34],[-33,13],[-36,3],[-12,9],[-15,0],[-15,-9],[-33,-3],[-30,3],[-33,9],[-24,16]],[[1189,2146],[-15,-17]],[[1174,2129],[-3,-5],[-42,-31],[-30,-24],[-30,-34],[-33,-34],[-27,-25],[-18,-13],[-27,-15],[-19,-12],[-21,-22],[-45,-37],[-15,-16],[-6,-15]],[[858,1846],[-3,-16],[-21,-31],[-72,-34],[-39,-28],[-18,-12],[-48,-28],[-18,-15]],[[258,1603],[-3,-1]],[[255,1602],[-15,-4]],[[639,1682],[-36,-22],[-18,-3],[-66,-15],[-18,-4],[-78,-12],[-57,-6],[-57,-6],[-33,-7],[-18,-4]],[[240,1598],[-51,-12],[-39,0]],[[107,1594],[-18,15]],[[89,1609],[-2,2],[-9,3],[-24,-7],[-28,19],[-26,15]],[[150,1586],[-21,0],[-18,6],[-4,2]],[[1189,2146],[6,-3],[9,-2]],[[1204,2141],[6,-1],[6,-3],[33,-53],[27,-25],[39,-27],[15,-16],[30,-53],[18,-21],[12,-25],[45,-77],[24,-44],[3,-15],[6,-37],[15,-41],[24,-40],[6,-15],[3,-22],[6,-15],[9,-13],[6,-40],[6,-6],[18,-13],[12,-15],[9,-40],[9,-13],[30,-15],[30,-40],[21,-16],[63,-68],[15,-6]],[[1750,1326],[18,-22],[42,-31],[30,-15],[15,-13]],[[3007,1518],[11,-19],[0,-7]],[[2714,1096],[-3,-9]],[[3018,1492],[0,-8],[-3,-22],[-9,-6],[-15,-3],[-15,-10],[-15,-31],[-21,-27],[-3,-10],[-27,-37],[-9,-31],[-6,-46],[-21,-28],[-6,-16],[-27,-21],[-36,-6],[-40,-7],[-15,-9],[-9,-12],[-12,-3],[-6,-7],[6,-37],[-15,-18],[0,-1]],[[3303,2205],[-6,-16],[-21,-12],[-12,-12],[0,-22],[-18,-22],[-9,-15],[0,-19],[-15,-21],[-3,-16],[3,-31],[3,-9],[15,-6],[3,-10],[3,-37],[3,-21],[-18,-22],[-9,-25],[-12,-22],[3,-12],[-15,-25],[-6,-31],[-12,-21],[-3,-16],[3,-15],[-6,-16],[-15,-3],[-33,-46],[-24,-10],[-18,-18],[-18,-6],[-12,-10],[-15,-12],[-24,0],[-15,-9],[-12,-16],[3,-12],[6,-6],[6,-16],[12,-12],[-9,-28],[0,-6],[1,-3]],[[2711,1087],[-6,-12]],[[2705,1075],[-3,-6],[-21,-25],[-6,-18]],[[2411,1019],[33,7],[54,-7],[60,0],[42,-6],[15,3],[30,10],[12,3],[18,-3]],[[2675,1026],[3,-16]],[[1855,1245],[16,-12],[27,-12],[12,-13],[24,-12],[18,-19],[15,-9],[15,-16],[33,-27],[15,-10],[9,-15],[6,-3],[39,0],[9,0],[15,9],[15,6],[15,-3],[12,-9],[15,-28],[21,-6],[15,-10],[51,-3],[33,-15],[24,-3],[27,-19],[6,-6],[21,-12],[9,-3],[9,12],[30,12]],[[2678,1010],[0,-12],[9,-16],[21,0],[24,-31],[6,-21],[12,-4],[12,-15],[19,-34],[21,-43],[21,-31],[6,-22],[6,-9],[30,-16],[39,-25],[3,-9],[15,-3],[6,-6],[0,-9]],[[2928,704],[-42,-68],[-6,-22],[0,-16]],[[4096,588],[-3,-2],[-36,-3],[-69,-12],[-24,-4],[-21,4],[-18,9],[-30,34],[-24,18],[-15,10]],[[3105,512],[-7,3]],[[3098,515],[-23,9],[-54,31],[-15,12],[-27,28],[-30,13],[-30,0],[-39,-10]],[[4096,449],[-6,4],[-6,12],[-12,13],[-15,3],[-42,-3],[-60,-72],[-15,-12],[-30,-22],[-6,0],[-15,7],[-15,-10],[-18,-28],[-18,-12]],[[3856,642],[-6,-28],[-9,-34],[-15,-47],[0,-18],[6,-68],[-3,-25],[0,-37],[3,-47],[6,-9]],[[2880,598],[0,-21],[-3,-16],[-9,-3],[-9,-25],[-21,-31],[-6,-6],[-39,-18],[-15,-13],[-9,-24],[-37,-35],[-6,-15],[-15,-6],[-9,-16],[-6,-12],[-3,-31],[-9,-15],[-18,-4],[-27,4]],[[3113,508],[-8,4]],[[3838,329],[-39,-22],[-15,-3],[-15,7],[-9,12],[-6,3],[-36,3],[-12,12],[-15,22],[-28,6],[-6,3],[-18,31],[9,16],[-6,15],[-21,16],[-15,21],[-21,0],[-51,7],[-24,-7],[-12,-12],[-15,-9],[-12,-19],[-9,-3],[-21,3],[-9,-25],[-15,4],[-21,12],[-15,-3],[-15,-9],[-15,3],[-21,9],[-18,-6],[-21,6],[3,12],[-6,16],[-15,3],[-21,18],[-6,0],[-15,-6],[-21,-3],[-15,3],[-21,16],[-21,3],[-21,15],[-19,9]],[[2639,311],[-6,0],[-12,-10],[-15,-12],[-9,-16],[-24,-49],[-12,-16],[-9,-6],[-42,-18],[-18,-3],[-21,-16],[-21,-3],[-15,-3],[-27,-16],[-21,-12],[-15,-3],[-24,3],[-15,-6]],[[2333,125],[-15,-13],[-6,-18],[-18,-22],[-15,-9],[-15,3],[-9,-15],[9,-22],[-3,-25],[0,-4]],[[4096,3510],[0,-3510],[-481,0],[-3615,0],[0,4096],[3941,0],[1,-6],[-14,-14],[12,-34],[-3,-20],[-5,6],[1,-12],[7,-3],[8,-1],[4,-2],[-1,-26],[1,-7],[2,-7],[4,-6],[3,-6],[1,-10],[-1,-29],[1,-10],[2,-7],[7,-12],[1,-9],[-1,-9],[-4,-19],[0,-10],[22,-98],[3,-34],[2,-11],[18,-37],[25,-98],[14,-26],[44,-27],[1,-2]],[[2976,1509],[137,40],[48,58],[102,-38],[2,63],[55,28],[-2,-41],[32,-5],[18,-44],[37,17],[62,-19],[-76,-21],[10,-24],[-30,2],[-41,-82],[10,109],[23,17],[-72,41],[-29,-55],[20,-101],[-27,42],[-22,-13],[6,45],[-35,-3],[18,28],[-73,-13],[-47,-39],[-5,21],[-74,-32],[-47,19]],[[2144,2344],[127,15],[110,-52],[56,17],[28,101],[127,29],[61,-62],[0,-48],[57,-38],[39,-99],[25,-9],[14,32],[57,12],[13,-33],[-13,-27],[-121,-17],[-2,37],[-159,50],[14,25],[-69,-81],[-123,0],[-2,-18],[-35,61],[-72,10],[-81,67],[-19,-22],[-32,50]],[[1105,568],[3,30],[54,43],[29,103],[169,254],[7,-64],[68,-17],[3,-95],[74,-106],[-5,-28],[-64,-108],[-51,-8],[-81,-114],[-183,10],[-14,47],[19,25],[-28,28]],[[3090,491],[-15,20],[39,6],[-1,-15],[-23,-11]],[[2726,1067],[-24,9],[-8,25],[27,-6],[5,-28]],[[91,1590],[-28,19],[57,0],[-8,-13],[-21,-6]],[[1163,2126],[18,41],[39,0],[-19,-30],[-38,-11]],[[3689,2243],[-17,-75],[-63,40],[15,35],[65,0]],[[257,1600],[-17,12],[-7,22],[32,0],[-8,-34]],[[4096,2758],[0,-19],[-9,6],[-2,15],[11,-2]],[[1562,2822],[-16,4],[-19,33],[49,9],[8,-42],[-22,-4]],[[3899,2910],[-49,-8],[-1,9],[35,25],[15,-26]],[[4004,2827],[-24,8],[5,12],[35,-4],[-16,-16]],[[1376,3128],[-10,-35],[-41,25],[49,33],[2,-23]],[[1903,3233],[45,2],[0,-50],[-57,8],[12,40]],[[3882,3347],[17,-12],[-16,-16],[-18,14],[17,14]],[[3462,3444],[-40,3],[-8,5],[27,18],[21,-26]],[[3252,3677],[-21,16],[-12,26],[32,-5],[1,-37]],[[3382,4096],[21,0],[-3,-13],[-11,-6],[-7,19]],[[3449,4096],[46,0],[13,-17],[-62,-2],[3,19]],[[3758,3206],[-21,13],[7,13],[34,-13],[-20,-13]],[[3736,3044],[-23,25],[40,8],[-1,-23],[-16,-10]],[[3794,3077],[-65,50],[5,10],[92,15],[-32,-33],[0,-42]]]}