{"objects":{"water":{"type":"GeometryCollection","geometries":[{"type":"Polygon","properties":{"source":"naturalearthdata.com","kind":"lake","name":"Lake Malawi","area":30335514624,"sort_rank":200,"min_zoom":0.0,"id":477},"arcs":[[168]]},{"type":"MultiPolygon","properties":{"source":"naturalearthdata.com","kind":"ocean","area":1576712559132672,"sort_rank":200,"min_zoom":0.0,"id":1},"arcs":[[[169]],[[170]],[[171]],[[172],[173]]]},{"type":"MultiLineString","properties":{"source":"naturalearthdata.com","kind":"ocean","sort_rank":205,"boundary":true,"min_zoom":0.0,"id":46},"arcs":[[174],[175],[176],[177]]},{"type":"LineString","properties":{"source":"naturalearthdata.com","kind":"lake","sort_rank":367,"boundary":true,"min_zoom":0.0,"id":477},"arcs":[178]},{"type":"LineString","properties":{"source":"naturalearthdata.com","kind":"ocean","sort_rank":205,"boundary":true,"min_zoom":0.0,"id":1377},"arcs":[179]},{"type":"LineString","properties":{"source":"naturalearthdata.com","kind":"ocean","sort_rank":205,"boundary":true,"min_zoom":0.0,"id":3931},"arcs":[180]}]},"buildings":{"type":"GeometryCollection","geometries":[]},"places":{"type":"GeometryCollection","geometries":[{"type":"Point","properties":{"name:pt":"Tanz\u00e2nia","name:ps":"\u062a\u0646\u0632\u0627\u0646\u06cc\u0627","name:ka":"\u10e2\u10d0\u10dc\u10d6\u10d0\u10dc\u10d8\u10d0","name:mt":"Tan\u017canija","name:tr":"Tanzanya","name:cv":"\u0422\u0430\u043d\u0437\u0430\u043d\u0438","name:km":"\u178f\u1784\u17cb\u17a0\u17d2\u179f\u17b6\u1793\u17b8","name:cs":"Tanzanie","name:tt":"\u0422\u0430\u043d\u0437\u0430\u043d\u0438\u044f","name:tk":"Tanzani\u00fda","name:ku":"Tanzanya","name:ti":"\u1273\u1295\u12db\u1292\u12eb","name:ks":"\u062a\u064e\u0646\u062c\u0627\u0646\u0650\u06cc\u0627","name:to":"Tenisania","name:pa":"\u0a24\u0a28\u0a1c\u0a3c\u0a3e\u0a28\u0a40\u0a06","name:os":"\u0422\u0430\u043d\u0437\u0430\u043d\u0438","name:or":"\u0b24\u0b3e\u0b1e\u0b4d\u0b1c\u0b3e\u0b28\u0b3f\u0b06","name:ce":"\u0422\u0430\u043d\u0437\u0430\u043d\u0438","name:ta":"\u0b9f\u0bbe\u0ba9\u0bcd\u0b9a\u0bbe\u0ba9\u0bbf\u0baf\u0bbe","name:tg":"\u0422\u0430\u043d\u0437\u0430\u043d\u0438\u044f","name:ca":"Tanz\u00e0nia","name:te":"\u0c1f\u0c3e\u0c02\u0c1c\u0c3e\u0c28\u0c3f\u0c2f\u0c3e","name:cy":"Tanzan\u00efa","source":"openstreetmap.org","name:ln":"Tanzani","name:de":"Tansania","name:dz":"\u0f4a\u0f71\u0f53\u0f0b\u0f5b\u0f71\u0f0b\u0f53\u0f72\u0f0b\u0f61","name:ko":"\ud0c4\uc790\ub2c8\uc544","name:nv":"T\u02bcanzan\u00ed\u00edya","name:kn":"\u0c9f\u0cbe\u0c82\u0c9c\u0cbe\u0ca8\u0cbf\u0caf\u0cbe","name:dv":"\u0793\u07ac\u0782\u07b0\u0792\u07ad\u0782\u07a8\u0787\u07a7","name:lv":"Tanz\u0101nija","name:lt":"Tanzanija","name:uz":"Tanzaniya","name:kk":"\u0422\u0430\u043d\u0437\u0430\u043d\u0438\u044f","name:he":"\u05d8\u05e0\u05d6\u05e0\u05d9\u05d4","min_zoom":2.0,"kind":"country","name:ur":"\u062a\u0646\u0632\u0627\u0646\u06cc\u06c1","name:lb":"Tansania","name:lg":"Tanzaniya","name:uk":"\u0422\u0430\u043d\u0437\u0430\u043d\u0456\u044f","name:hy":"\u054f\u0561\u0576\u0566\u0561\u0576\u056b\u0561","name:ug":"\u062a\u0627\u0646\u0632\u0627\u0646\u0649\u064a\u06d5","name:hu":"Tanz\u00e1nia","name:hr":"Tanzanija","name:lo":"\u0e97\u0eb2\u0e99\u0e8a\u0eb2\u0ec0\u0e99\u0e8d","population":41048532,"name:el":"\u03a4\u03b1\u03bd\u03b6\u03b1\u03bd\u03af\u03b1","name:eo":"Tanzanio","name":"Tanzania","name:ee":"Tanzania nutome","name:th":"\u0e1b\u0e23\u0e30\u0e40\u0e17\u0e28\u0e41\u0e17\u0e19\u0e0b\u0e32\u0e40\u0e19\u0e35\u0e22","name:yi":"\u05d8\u05d0\u05e0\u05d6\u05d0\u05e0\u05d9\u05e2","name:et":"Tansaania","name:yo":"Or\u00edl\u1eb9\u0301\u00e8de Tan\u1e63ania","name:rm":"Tansania","name:rn":"Tanzaniya","name:az":"tanzaniya","name:mr":"\u091f\u093e\u0902\u091d\u093e\u0928\u093f\u092f\u093e","name:qu":"Tansanya","name:ar":"\u062a\u0646\u0640\u0632\u0627\u0646\u064a","name:my":"\u1010\u1014\u103a\u1007\u1014\u103a\u1014\u102e\u1038\u101a\u102c\u1038","official_name":"Den forente republikken Tanzania","name:is":"Tansan\u00eda","name:am":"\u1273\u1295\u12db\u1292\u12eb","name:ml":"\u0d1f\u0d3e\u0d7b\u0d38\u0d3e\u0d28\u0d3f\u0d2f","name:ru":"\u0422\u0430\u043d\u0437\u0430\u043d\u0438\u044f","name:rw":"Tanzaniya","name:mi":"T\u0101nahia","id":424314335,"name:mk":"\u0422\u0430\u043d\u0437\u0430\u043d\u0438\u0458\u0430","name:af":"Tanzani\u00eb","name:zu":"i-Tanzania","name:ha":"Tanzaniya","name:mn":"\u0422\u0430\u043d\u0437\u0430\u043d\u0438","name:ff":"Tansanii","name:fi":"Tansania","name:hi":"\u0924\u0902\u091c\u093e\u093c\u0928\u093f\u092f\u093e","name:fo":"Tansania","name:fr":"Tanzanie","name:wo":"Tansani","name:zh-yue":"\u5766\u6851\u5c3c\u4e9e","name:vo":"Tansan\u00e4n","name:zh":"\u5766\u6851\u5c3c\u4e9a","name:so":"Tansaaniya","name:sr":"\u0422\u0430\u043d\u0437\u0430\u043d\u0438\u0458\u0430","name:sl":"Tanzanija","name:sk":"Tanz\u00e1nia","name:ja":"\u30bf\u30f3\u30b6\u30cb\u30a2","name:si":"\u0da7\u0dd0\u0db1\u0dca\u0dc3\u0dcf\u0db1\u0dd2\u0dba\u0dcf\u0dc0","name:sh":"Tanzanija","name:sg":"Tanzan\u00efi","name:se":"Tanz\u00e1nia","name:sc":"Tanz\u00e0nia","name:ne":"\u0924\u093e\u0928\u094d\u091c\u093e\u0928\u093f\u092f\u093e","name:sa":"\u091f\u0902\u091c\u093e\u0928\u093f\u092f\u093e","name:bs":"Tanzanija","name:bm":"Tanzani","name:bn":"\u09a4\u09be\u099e\u09cd\u099c\u09be\u09a8\u09bf\u09af\u09bc\u09be","name:bo":"\u0f4f\u0f53\u0f0b\u0f5b\u0f0b\u0f53\u0f72\u0f0b\u0f61\u0f0d","name:be":"\u0422\u0430\u043d\u0437\u0430\u043d\u0456\u044f","name:bg":"\u0422\u0430\u043d\u0437\u0430\u043d\u0438\u044f","name:ss":"IThanzaniya","name:ba":"\u0422\u0430\u043d\u0437\u0430\u043d\u0438\u044f","name:sq":"Tanzani","name:ga":"An Tans\u00e1in","name:gd":"Tansain\u00eca","name:ht":"Tanzani","name:fa":"\u062a\u0627\u0646\u0632\u0627\u0646\u06cc\u0627","name:gu":"\u0aa4\u0abe\u0a82\u0a9d\u0abe\u0aa8\u0abf\u0aaf\u0abe"},"coordinates":[1484,3427]},{"type":"Point","properties":{"source":"naturalearthdata.com","kind":"locality","name":"Dar es Salaam","country_capital":true,"population":2930000,"min_zoom":4.0,"id":7145},"coordinates":[4017,3226]},{"type":"Point","properties":{"admin_level":"4","kind":"region","name":"Ruvuma","kind_detail":"state","source":"openstreetmap.org","min_zoom":4.0,"name:uk":"\u0420\u0443\u0432\u0443\u043c\u0430","name:ru":"\u0420\u0443\u0432\u0443\u043c\u0430","id":4353389721},"coordinates":[1392,316]},{"type":"Point","properties":{"admin_level":"4","kind":"region","name":"Njombe","kind_detail":"state","source":"openstreetmap.org","min_zoom":4.0,"name:uk":"\u041d\u0434\u0436\u043e\u043c\u0431\u0435","name:ru":"\u041d\u0434\u0436\u043e\u043c\u0431\u0435","id":4353385643},"coordinates":[496,1515]},{"type":"Point","properties":{"admin_level":"4","kind":"region","name":"Mtwara","kind_detail":"state","source":"openstreetmap.org","min_zoom":4.0,"name:uk":"\u041c\u0442\u0432\u0430\u0440\u0430","name:ru":"\u041c\u0442\u0432\u0430\u0440\u0430","id":4353385043},"coordinates":[3839,353]},{"type":"Point","properties":{"admin_level":"4","kind":"region","name":"Lindi","kind_detail":"state","source":"openstreetmap.org","min_zoom":4.0,"name:uk":"\u041b\u0456\u043d\u0434\u0456","name:ru":"\u041b\u0438\u043d\u0434\u0438","id":4353380403},"coordinates":[3022,1311]},{"type":"Point","properties":{"admin_level":"4","kind":"region","name":"Iringa","kind_detail":"state","source":"openstreetmap.org","min_zoom":4.0,"name:uk":"\u0406\u0440\u0456\u043d\u0491\u0430","name:ru":"\u0418\u0440\u0438\u043d\u0433\u0430","id":4353377217},"coordinates":[1262,2507]},{"type":"Point","properties":{"admin_level":"4","kind":"region","name":"Dodoma","kind_detail":"state","source":"openstreetmap.org","min_zoom":4.0,"name:uk":"\u0414\u043e\u0434\u043e\u043c\u0430","name:ru":"\u0414\u043e\u0434\u043e\u043c\u0430","id":4353376449},"coordinates":[1511,3806]},{"type":"Point","properties":{"admin_level":"4","kind":"region","name":"Morogoro","kind_detail":"state","source":"openstreetmap.org","min_zoom":4.0,"name:uk":"\u041c\u043e\u0440\u043e\u0491\u043e\u0440\u043e","name:ru":"\u041c\u043e\u0440\u043e\u0433\u043e\u0440\u043e","id":4353382085},"coordinates":[2675,3015]},{"type":"Point","properties":{"admin_level":"4","kind":"region","name":"Pwani","kind_detail":"state","source":"openstreetmap.org","min_zoom":4.0,"name:uk":"\u041f\u0432\u0430\u043d\u0456","name:ru":"\u041f\u0432\u0430\u043d\u0438","id":4353387710},"coordinates":[3626,2991]},{"type":"Point","properties":{"admin_level":"4","kind":"region","name:en":"Zanzibar Urban\/West","name":"Unguja Mjini Magharibi","kind_detail":"state","source":"openstreetmap.org","min_zoom":4.0,"name:uk":"\u0417\u0430\u043d\u0437\u0456\u0431\u0430\u0440 \u0417\u0430\u0445\u0456\u0434\u043d\u0438\u0439","name:ru":"\u0417\u0430\u043d\u0437\u0438\u0431\u0430\u0440 \u0417\u0430\u043f\u0430\u0434\u043d\u044b\u0439","name:pl":"Zanzibar Zachodni","id":4353396211},"coordinates":[3997,3691]},{"type":"Point","properties":{"admin_level":"4","kind":"region","name:en":"Zanzibar South & Central","name":"Unguja Kusini","kind_detail":"state","source":"openstreetmap.org","min_zoom":4.0,"name:uk":"\u0417\u0430\u043d\u0437\u0456\u0431\u0430\u0440 \u0426\u0435\u043d\u0442\u0440\u0430\u043b\u044c\u043d\u043e-\u041f\u0456\u0432\u0434\u0435\u043d\u043d\u0438\u0439","name:ru":"\u0417\u0430\u043d\u0437\u0438\u0431\u0430\u0440 \u0426\u0435\u043d\u0442\u0440\u0430\u043b\u044c\u043d\u043e-\u042e\u0436\u043d\u044b\u0439","name:pl":"Zanzibar Po\u0142udniowy","id":4353393977},"coordinates":[4084,3660]},{"type":"Point","properties":{"admin_level":"4","kind":"region","name:en":"Zanzibar North","name":"Unguja Kaskazini","kind_detail":"state","source":"openstreetmap.org","min_zoom":4.0,"name:uk":"\u0417\u0430\u043d\u0437\u0456\u0431\u0430\u0440 \u041f\u0456\u0432\u043d\u0456\u0447\u043d\u0438\u0439","name:ru":"\u0417\u0430\u043d\u0437\u0438\u0431\u0430\u0440 \u0421\u0435\u0432\u0435\u0440\u043d\u044b\u0439","name:pl":"Zanzibar P\u00f3\u0142nocny","id":4353384094},"coordinates":[4030,3861]},{"type":"Point","properties":{"source":"naturalearthdata.com","kind":"locality","name":"Zanzibar","population":403658,"region_capital":true,"min_zoom":5.0,"id":6916},"coordinates":[3969,3695]},{"type":"Point","properties":{"source":"naturalearthdata.com","kind":"locality","name":"Morogoro","population":250902,"region_capital":true,"min_zoom":5.0,"id":6445},"coordinates":[2847,3209]},{"type":"Point","properties":{"source":"naturalearthdata.com","kind":"locality","name":"Dodoma","country_capital":true,"population":218269,"min_zoom":5.0,"id":6446},"coordinates":[1456,3678]},{"type":"Point","properties":{"source":"naturalearthdata.com","kind":"locality","name":"Songea","population":126449,"region_capital":true,"min_zoom":6.0,"id":5786},"coordinates":[1384,367]}]},"transit":{"type":"GeometryCollection","geometries":[{"type":"LineString","properties":{"sort_rank":275,"source":"openstreetmap.org","min_zoom":6.0,"kind":"train","osm_relation":true},"arcs":[167]}]},"pois":{"type":"GeometryCollection","geometries":[{"type":"Point","properties":{"kind":"nature_reserve","name":"Selous Game Reserve","area":48720000000,"name:da":"Selous vildtreservat","min_zoom":4.5,"source":"openstreetmap.org","name:fr":"R\u00e9serve de gibier de S\u00e9lous","name:it":"Riserva del Selous","tier":2,"name:es":"Reserva de caza Selous","id":-2961785,"osm_relation":true},"coordinates":[2995,1712]},{"type":"Point","properties":{"kind":"nature_reserve","name":"Ruaha National Park","area":20633400000,"min_zoom":5.12,"name:de":"Ruaha-Nationalpark","source":"openstreetmap.org","name:fr":"Parc national de Ruaha","tier":2,"id":362940538},"coordinates":[454,2487]}]},"boundaries":{"type":"GeometryCollection","geometries":[{"type":"MultiLineString","properties":{"source":"naturalearthdata.com","kind":"disputed","sort_rank":261,"kind_detail":"2","min_zoom":0.0,"id":33},"arcs":[[0],[1],[2],[3]]},{"type":"LineString","properties":{"source":"naturalearthdata.com","kind":"country","sort_rank":262,"kind_detail":"2","min_zoom":0.0,"id":415},"arcs":[4]},{"type":"MultiLineString","properties":{"source":"naturalearthdata.com","kind":"country","sort_rank":262,"kind_detail":"2","min_zoom":0.0,"id":296},"arcs":[[5],[6],[7],[8],[9]]},{"type":"LineString","properties":{"source":"naturalearthdata.com","kind":"region","sort_rank":256,"kind_detail":"4","min_zoom":6.8,"id":2456},"arcs":[10]},{"type":"LineString","properties":{"source":"naturalearthdata.com","kind":"region","sort_rank":256,"kind_detail":"4","min_zoom":5.5,"id":6192},"arcs":[11]},{"type":"MultiLineString","properties":{"source":"naturalearthdata.com","kind":"region","sort_rank":256,"kind_detail":"4","min_zoom":5.5,"id":6206},"arcs":[[12],[13],[14],[15],[16],[17],[18],[19],[20],[21]]},{"type":"LineString","properties":{"source":"naturalearthdata.com","kind":"region","sort_rank":256,"kind_detail":"4","min_zoom":5.5,"id":391},"arcs":[22]},{"type":"MultiLineString","properties":{"source":"naturalearthdata.com","kind":"region","sort_rank":256,"kind_detail":"4","min_zoom":5.5,"id":1479},"arcs":[[23],[24],[25]]},{"type":"LineString","properties":{"source":"naturalearthdata.com","kind":"region","sort_rank":256,"kind_detail":"4","min_zoom":5.5,"id":1478},"arcs":[26]},{"type":"LineString","properties":{"source":"naturalearthdata.com","kind":"region","sort_rank":256,"kind_detail":"4","min_zoom":5.5,"id":1480},"arcs":[27]},{"type":"LineString","properties":{"source":"naturalearthdata.com","kind":"region","sort_rank":256,"kind_detail":"4","min_zoom":5.5,"id":1481},"arcs":[28]},{"type":"MultiLineString","properties":{"source":"naturalearthdata.com","kind":"region","sort_rank":256,"kind_detail":"4","min_zoom":6.8,"id":2464},"arcs":[[29],[30],[31]]},{"type":"LineString","properties":{"source":"naturalearthdata.com","kind":"region","sort_rank":256,"kind_detail":"4","min_zoom":6.8,"id":2465},"arcs":[32]},{"type":"MultiLineString","properties":{"source":"naturalearthdata.com","kind":"region","sort_rank":256,"kind_detail":"4","min_zoom":6.8,"id":2466},"arcs":[[33],[34],[35],[36]]},{"type":"LineString","properties":{"source":"naturalearthdata.com","kind":"region","sort_rank":256,"kind_detail":"4","min_zoom":6.8,"id":3136},"arcs":[37]},{"type":"MultiLineString","properties":{"source":"naturalearthdata.com","kind":"region","sort_rank":256,"kind_detail":"4","min_zoom":6.8,"id":3138},"arcs":[[38],[39],[40],[41],[42]]},{"type":"LineString","properties":{"source":"naturalearthdata.com","kind":"region","sort_rank":256,"kind_detail":"4","min_zoom":5.5,"id":6184},"arcs":[43]},{"type":"LineString","properties":{"source":"naturalearthdata.com","kind":"region","sort_rank":256,"kind_detail":"4","min_zoom":5.5,"id":6185},"arcs":[44]},{"type":"MultiLineString","properties":{"source":"naturalearthdata.com","kind":"region","sort_rank":256,"kind_detail":"4","min_zoom":5.5,"id":6187},"arcs":[[45],[46],[47],[48],[49],[50],[51],[52],[53],[54],[55]]},{"type":"MultiLineString","properties":{"source":"naturalearthdata.com","kind":"region","sort_rank":256,"kind_detail":"4","min_zoom":5.5,"id":6188},"arcs":[[56],[57],[58],[59],[60],[61],[62],[63],[64],[65],[66],[67],[68]]},{"type":"MultiLineString","properties":{"source":"naturalearthdata.com","kind":"region","sort_rank":256,"kind_detail":"4","min_zoom":5.5,"id":6189},"arcs":[[69],[70],[71],[72],[73]]},{"type":"MultiLineString","properties":{"source":"naturalearthdata.com","kind":"region","sort_rank":256,"kind_detail":"4","min_zoom":5.5,"id":6203},"arcs":[[74],[75],[76],[77],[78]]},{"type":"MultiLineString","properties":{"source":"naturalearthdata.com","kind":"region","sort_rank":256,"kind_detail":"4","min_zoom":5.5,"id":6195},"arcs":[[79],[80],[81],[82],[83],[84],[85],[86],[87],[88],[89],[90],[91]]},{"type":"MultiLineString","properties":{"source":"naturalearthdata.com","kind":"region","sort_rank":256,"kind_detail":"4","min_zoom":5.5,"id":6196},"arcs":[[92],[93]]},{"type":"MultiLineString","properties":{"source":"naturalearthdata.com","kind":"region","sort_rank":256,"kind_detail":"4","min_zoom":5.5,"id":6197},"arcs":[[94],[95],[96],[97],[98],[99],[100],[101],[102],[103],[104]]},{"type":"MultiLineString","properties":{"source":"naturalearthdata.com","kind":"region","sort_rank":256,"kind_detail":"4","min_zoom":5.5,"id":6198},"arcs":[[105],[106],[107],[108]]},{"type":"MultiLineString","properties":{"source":"naturalearthdata.com","kind":"region","sort_rank":256,"kind_detail":"4","min_zoom":5.5,"id":6199},"arcs":[[109],[110],[111],[112],[113]]},{"type":"MultiLineString","properties":{"source":"naturalearthdata.com","kind":"region","sort_rank":256,"kind_detail":"4","min_zoom":5.5,"id":6200},"arcs":[[114],[115],[116],[117],[118],[119],[120],[121],[122]]},{"type":"MultiLineString","properties":{"source":"naturalearthdata.com","kind":"region","sort_rank":256,"kind_detail":"4","min_zoom":5.5,"id":6201},"arcs":[[123],[124],[125],[126],[127],[128],[129],[130],[131],[132],[133],[134],[135]]},{"type":"LineString","properties":{"source":"naturalearthdata.com","kind":"region","sort_rank":256,"kind_detail":"4","min_zoom":5.5,"id":6202},"arcs":[136]},{"type":"MultiLineString","properties":{"source":"naturalearthdata.com","kind":"region","sort_rank":256,"kind_detail":"4","min_zoom":5.5,"id":6204},"arcs":[[137],[138],[139],[140],[141],[142],[143]]},{"type":"LineString","properties":{"source":"naturalearthdata.com","kind":"region","sort_rank":256,"kind_detail":"4","min_zoom":5.5,"id":6205},"arcs":[144]},{"type":"LineString","properties":{"source":"naturalearthdata.com","kind":"region","sort_rank":256,"kind_detail":"4","min_zoom":5.5,"id":6207},"arcs":[145]},{"type":"MultiLineString","properties":{"source":"naturalearthdata.com","kind":"region","sort_rank":256,"kind_detail":"4","min_zoom":5.5,"id":6208},"arcs":[[146],[147],[148],[149],[150],[151],[152],[153],[154],[155],[156],[157],[158],[159]]},{"type":"LineString","properties":{"source":"naturalearthdata.com","kind":"region","sort_rank":256,"kind_detail":"4","min_zoom":5.5,"id":6231},"arcs":[160]},{"type":"MultiLineString","properties":{"source":"naturalearthdata.com","kind":"region","sort_rank":256,"kind_detail":"4","min_zoom":5.5,"id":6232},"arcs":[[161],[162],[163]]},{"type":"LineString","properties":{"source":"naturalearthdata.com","kind":"region","sort_rank":256,"kind_detail":"4","min_zoom":5.5,"id":6233},"arcs":[164]},{"type":"MultiLineString","properties":{"source":"naturalearthdata.com","kind":"region","sort_rank":256,"kind_detail":"4","min_zoom":6.8,"id":9121},"arcs":[[165],[166]]}]},"roads":{"type":"GeometryCollection","geometries":[{"type":"LineString","properties":{"source":"naturalearthdata.com","kind":"major_road","sort_rank":379,"kind_detail":"secondary","min_zoom":3.0,"id":42802},"arcs":[181]},{"type":"LineString","properties":{"source":"naturalearthdata.com","kind":"major_road","sort_rank":379,"kind_detail":"secondary","min_zoom":3.0,"id":42809},"arcs":[182]},{"type":"LineString","properties":{"source":"naturalearthdata.com","kind":"major_road","sort_rank":379,"kind_detail":"secondary","min_zoom":3.0,"id":42811},"arcs":[183]},{"type":"LineString","properties":{"source":"naturalearthdata.com","kind":"major_road","sort_rank":379,"kind_detail":"secondary","min_zoom":3.0,"id":42819},"arcs":[184]},{"type":"LineString","properties":{"source":"naturalearthdata.com","kind":"major_road","sort_rank":379,"kind_detail":"secondary","min_zoom":3.0,"id":42820},"arcs":[185]},{"type":"LineString","properties":{"source":"naturalearthdata.com","kind":"major_road","sort_rank":379,"kind_detail":"secondary","min_zoom":3.0,"id":42860},"arcs":[186]},{"type":"LineString","properties":{"source":"naturalearthdata.com","kind":"major_road","sort_rank":379,"kind_detail":"secondary","min_zoom":3.0,"id":42865},"arcs":[187]},{"type":"LineString","properties":{"source":"naturalearthdata.com","kind":"major_road","sort_rank":379,"kind_detail":"secondary","min_zoom":3.0,"id":42869},"arcs":[188]},{"type":"LineString","properties":{"source":"naturalearthdata.com","kind":"major_road","kind_detail":"secondary","sort_rank":379,"landuse_kind":"urban_area","min_zoom":3.0,"id":42871},"arcs":[189]},{"type":"LineString","properties":{"source":"naturalearthdata.com","kind":"major_road","sort_rank":379,"kind_detail":"secondary","min_zoom":3.0,"id":42871},"arcs":[190]},{"type":"LineString","properties":{"source":"naturalearthdata.com","kind":"major_road","kind_detail":"secondary","sort_rank":379,"landuse_kind":"urban_area","min_zoom":3.0,"id":42872},"arcs":[191]},{"type":"LineString","properties":{"source":"naturalearthdata.com","kind":"major_road","sort_rank":379,"kind_detail":"secondary","min_zoom":3.0,"id":42872},"arcs":[192]},{"type":"LineString","properties":{"source":"naturalearthdata.com","kind":"major_road","kind_detail":"secondary","sort_rank":379,"landuse_kind":"urban_area","min_zoom":3.0,"id":42873},"arcs":[193]},{"type":"LineString","properties":{"source":"naturalearthdata.com","kind":"major_road","sort_rank":379,"kind_detail":"secondary","min_zoom":3.0,"id":42873},"arcs":[194]},{"type":"MultiLineString","properties":{"source":"naturalearthdata.com","kind":"minor_road","kind_detail":"tertiary","sort_rank":355,"landuse_kind":"urban_area","min_zoom":6.0,"id":42874},"arcs":[[195],[196]]},{"type":"MultiLineString","properties":{"source":"naturalearthdata.com","kind":"minor_road","sort_rank":355,"kind_detail":"tertiary","min_zoom":6.0,"id":42874},"arcs":[[197],[198],[199]]},{"type":"LineString","properties":{"source":"naturalearthdata.com","kind":"major_road","sort_rank":379,"kind_detail":"secondary","min_zoom":3.0,"id":42881},"arcs":[200]},{"type":"LineString","properties":{"source":"naturalearthdata.com","kind":"major_road","sort_rank":379,"kind_detail":"secondary","min_zoom":4.0,"id":42882},"arcs":[201]},{"type":"LineString","properties":{"source":"naturalearthdata.com","kind":"major_road","sort_rank":379,"kind_detail":"secondary","min_zoom":3.0,"id":42901},"arcs":[202]},{"type":"LineString","properties":{"source":"naturalearthdata.com","kind":"major_road","sort_rank":379,"kind_detail":"secondary","min_zoom":3.0,"id":42906},"arcs":[203]},{"type":"LineString","properties":{"source":"naturalearthdata.com","kind":"major_road","sort_rank":379,"kind_detail":"secondary","min_zoom":3.0,"id":42907},"arcs":[204]},{"type":"LineString","properties":{"source":"naturalearthdata.com","kind":"minor_road","sort_rank":355,"kind_detail":"tertiary","min_zoom":6.0,"id":42916},"arcs":[205]},{"type":"LineString","properties":{"source":"naturalearthdata.com","kind":"major_road","kind_detail":"secondary","sort_rank":379,"landuse_kind":"urban_area","min_zoom":4.0,"id":42923},"arcs":[206]},{"type":"LineString","properties":{"source":"naturalearthdata.com","kind":"major_road","sort_rank":379,"kind_detail":"secondary","min_zoom":4.0,"id":42923},"arcs":[207]},{"type":"LineString","properties":{"source":"naturalearthdata.com","kind":"major_road","sort_rank":379,"kind_detail":"secondary","min_zoom":3.0,"id":42926},"arcs":[208]},{"type":"LineString","properties":{"source":"naturalearthdata.com","kind":"major_road","sort_rank":379,"kind_detail":"secondary","min_zoom":3.0,"id":42949},"arcs":[209]},{"type":"LineString","properties":{"source":"naturalearthdata.com","kind":"major_road","sort_rank":379,"kind_detail":"secondary","min_zoom":3.0,"id":42951},"arcs":[210]},{"type":"LineString","properties":{"source":"naturalearthdata.com","kind":"major_road","sort_rank":379,"kind_detail":"secondary","min_zoom":3.0,"id":42963},"arcs":[211]},{"type":"LineString","properties":{"source":"naturalearthdata.com","kind":"major_road","kind_detail":"secondary","sort_rank":379,"landuse_kind":"urban_area","min_zoom":3.0,"id":42983},"arcs":[212]},{"type":"LineString","properties":{"source":"naturalearthdata.com","kind":"major_road","sort_rank":379,"kind_detail":"secondary","min_zoom":3.0,"id":42983},"arcs":[213]},{"type":"LineString","properties":{"source":"naturalearthdata.com","kind":"major_road","kind_detail":"secondary","sort_rank":379,"landuse_kind":"urban_area","min_zoom":3.0,"id":42987},"arcs":[214]},{"type":"LineString","properties":{"source":"naturalearthdata.com","kind":"major_road","sort_rank":379,"kind_detail":"secondary","min_zoom":3.0,"id":42987},"arcs":[215]},{"type":"LineString","properties":{"source":"naturalearthdata.com","kind":"major_road","sort_rank":379,"kind_detail":"secondary","min_zoom":3.0,"id":42991},"arcs":[216]},{"type":"LineString","properties":{"source":"naturalearthdata.com","kind":"major_road","kind_detail":"secondary","sort_rank":379,"landuse_kind":"urban_area","min_zoom":3.0,"id":42992},"arcs":[217]},{"type":"LineString","properties":{"source":"naturalearthdata.com","kind":"major_road","sort_rank":379,"kind_detail":"secondary","min_zoom":3.0,"id":42992},"arcs":[218]},{"type":"LineString","properties":{"source":"naturalearthdata.com","kind":"major_road","kind_detail":"secondary","sort_rank":379,"landuse_kind":"urban_area","min_zoom":4.0,"id":42994},"arcs":[219]},{"type":"LineString","properties":{"source":"naturalearthdata.com","kind":"major_road","kind_detail":"secondary","sort_rank":379,"landuse_kind":"urban_area","min_zoom":3.0,"id":43021},"arcs":[220]},{"type":"LineString","properties":{"source":"naturalearthdata.com","kind":"major_road","sort_rank":379,"kind_detail":"secondary","min_zoom":3.0,"id":43021},"arcs":[221]},{"type":"LineString","properties":{"source":"naturalearthdata.com","kind":"major_road","kind_detail":"secondary","sort_rank":379,"landuse_kind":"urban_area","min_zoom":4.0,"id":43022},"arcs":[222]},{"type":"LineString","properties":{"source":"naturalearthdata.com","kind":"major_road","sort_rank":379,"kind_detail":"secondary","min_zoom":4.0,"id":43022},"arcs":[223]},{"type":"LineString","properties":{"source":"naturalearthdata.com","kind":"major_road","sort_rank":379,"kind_detail":"secondary","min_zoom":4.0,"id":43088},"arcs":[224]},{"type":"LineString","properties":{"source":"naturalearthdata.com","kind":"major_road","kind_detail":"secondary","sort_rank":379,"landuse_kind":"park","min_zoom":3.0,"id":43117},"arcs":[225]},{"type":"MultiLineString","properties":{"source":"naturalearthdata.com","kind":"major_road","sort_rank":379,"kind_detail":"secondary","min_zoom":3.0,"id":43117},"arcs":[[226],[227]]},{"type":"LineString","properties":{"source":"naturalearthdata.com","kind":"major_road","sort_rank":379,"kind_detail":"secondary","min_zoom":3.0,"id":43149},"arcs":[228]},{"type":"LineString","properties":{"source":"naturalearthdata.com","kind":"major_road","sort_rank":379,"kind_detail":"secondary","min_zoom":3.0,"id":43166},"arcs":[229]},{"type":"LineString","properties":{"source":"naturalearthdata.com","kind":"major_road","kind_detail":"secondary","sort_rank":379,"landuse_kind":"urban_area","min_zoom":4.0,"id":43172},"arcs":[230]},{"type":"LineString","properties":{"source":"naturalearthdata.com","kind":"major_road","sort_rank":379,"kind_detail":"secondary","min_zoom":4.0,"id":43172},"arcs":[231]},{"type":"LineString","properties":{"source":"naturalearthdata.com","kind":"major_road","kind_detail":"secondary","sort_rank":379,"landuse_kind":"urban_area","min_zoom":3.0,"id":43179},"arcs":[232]},{"type":"LineString","properties":{"source":"naturalearthdata.com","kind":"major_road","sort_rank":379,"kind_detail":"secondary","min_zoom":3.0,"id":43179},"arcs":[233]},{"type":"LineString","properties":{"source":"naturalearthdata.com","kind":"major_road","sort_rank":379,"kind_detail":"secondary","min_zoom":3.0,"id":43225},"arcs":[234]},{"type":"LineString","properties":{"source":"naturalearthdata.com","kind":"major_road","kind_detail":"secondary","sort_rank":379,"landuse_kind":"urban_area","min_zoom":3.0,"id":43228},"arcs":[235]},{"type":"LineString","properties":{"source":"naturalearthdata.com","kind":"major_road","sort_rank":379,"kind_detail":"secondary","min_zoom":3.0,"id":43228},"arcs":[236]},{"type":"LineString","properties":{"source":"naturalearthdata.com","kind":"major_road","sort_rank":379,"kind_detail":"secondary","min_zoom":3.0,"id":43255},"arcs":[237]},{"type":"LineString","properties":{"source":"naturalearthdata.com","kind":"major_road","sort_rank":379,"kind_detail":"secondary","min_zoom":3.0,"id":43261},"arcs":[238]},{"type":"LineString","properties":{"source":"naturalearthdata.com","kind":"major_road","sort_rank":379,"kind_detail":"secondary","min_zoom":3.0,"id":43262},"arcs":[239]},{"type":"LineString","properties":{"source":"naturalearthdata.com","kind":"major_road","sort_rank":379,"kind_detail":"secondary","min_zoom":3.0,"id":43283},"arcs":[240]},{"type":"LineString","properties":{"source":"naturalearthdata.com","kind":"major_road","sort_rank":379,"kind_detail":"secondary","min_zoom":3.0,"id":43316},"arcs":[241]},{"type":"LineString","properties":{"source":"naturalearthdata.com","kind":"major_road","sort_rank":379,"kind_detail":"secondary","min_zoom":3.0,"id":43371},"arcs":[242]},{"type":"LineString","properties":{"source":"naturalearthdata.com","kind":"major_road","sort_rank":379,"kind_detail":"secondary","min_zoom":3.0,"id":43385},"arcs":[243]},{"type":"LineString","properties":{"source":"naturalearthdata.com","kind":"major_road","sort_rank":379,"kind_detail":"secondary","min_zoom":3.0,"id":43393},"arcs":[244]},{"type":"LineString","properties":{"source":"naturalearthdata.com","kind":"major_road","sort_rank":379,"kind_detail":"secondary","min_zoom":3.0,"id":43399},"arcs":[245]},{"type":"LineString","properties":{"source":"naturalearthdata.com","kind":"major_road","sort_rank":379,"kind_detail":"secondary","min_zoom":4.0,"id":43445},"arcs":[246]},{"type":"LineString","properties":{"source":"naturalearthdata.com","kind":"major_road","sort_rank":379,"kind_detail":"secondary","min_zoom":4.0,"id":43466},"arcs":[247]},{"type":"LineString","properties":{"source":"naturalearthdata.com","kind":"major_road","sort_rank":379,"kind_detail":"secondary","min_zoom":4.0,"id":43483},"arcs":[248]},{"type":"LineString","properties":{"source":"naturalearthdata.com","kind":"major_road","sort_rank":379,"kind_detail":"secondary","min_zoom":4.0,"id":43504},"arcs":[249]},{"type":"LineString","properties":{"source":"naturalearthdata.com","kind":"major_road","sort_rank":379,"kind_detail":"secondary","min_zoom":4.0,"id":43526},"arcs":[250]},{"type":"LineString","properties":{"source":"naturalearthdata.com","kind":"major_road","sort_rank":379,"kind_detail":"secondary","min_zoom":3.0,"id":43540},"arcs":[251]},{"type":"LineString","properties":{"source":"naturalearthdata.com","kind":"major_road","sort_rank":379,"kind_detail":"secondary","min_zoom":4.0,"id":43573},"arcs":[252]},{"type":"LineString","properties":{"source":"naturalearthdata.com","kind":"major_road","sort_rank":379,"kind_detail":"secondary","min_zoom":4.0,"id":43589},"arcs":[253]},{"type":"LineString","properties":{"source":"naturalearthdata.com","kind":"major_road","sort_rank":379,"kind_detail":"secondary","min_zoom":4.0,"id":43616},"arcs":[254]},{"type":"LineString","properties":{"source":"naturalearthdata.com","kind":"major_road","sort_rank":379,"kind_detail":"secondary","min_zoom":4.0,"id":43617},"arcs":[255]},{"type":"LineString","properties":{"source":"naturalearthdata.com","kind":"major_road","sort_rank":379,"kind_detail":"secondary","min_zoom":4.0,"id":43634},"arcs":[256]},{"type":"LineString","properties":{"source":"naturalearthdata.com","kind":"major_road","sort_rank":379,"kind_detail":"secondary","min_zoom":4.0,"id":43641},"arcs":[257]},{"type":"LineString","properties":{"source":"naturalearthdata.com","kind":"major_road","sort_rank":379,"kind_detail":"secondary","min_zoom":4.0,"id":43653},"arcs":[258]},{"type":"LineString","properties":{"source":"naturalearthdata.com","kind":"major_road","sort_rank":379,"kind_detail":"secondary","min_zoom":4.0,"id":43670},"arcs":[259]},{"type":"LineString","properties":{"source":"naturalearthdata.com","kind":"major_road","sort_rank":379,"kind_detail":"secondary","min_zoom":4.0,"id":43671},"arcs":[260]},{"type":"LineString","properties":{"source":"naturalearthdata.com","kind":"major_road","sort_rank":379,"kind_detail":"secondary","min_zoom":4.0,"id":43706},"arcs":[261]}]},"earth":{"type":"GeometryCollection","geometries":[{"type":"MultiPolygon","properties":{"sort_rank":10,"source":"naturalearthdata.com","min_zoom":0.0,"kind":"earth","area":886123415869},"arcs":[[[262]],[[263]],[[264]]]}]},"landuse":{"type":"GeometryCollection","geometries":[{"type":"Polygon","properties":{"source":"openstreetmap.org","kind":"nature_reserve","area":20633399296,"tier":2,"id":362940538,"min_zoom":4.0,"sort_rank":23},"arcs":[[265]]},{"type":"MultiPolygon","properties":{"source":"openstreetmap.org","kind":"park","tier":2,"area":7801996425,"sort_rank":24,"min_zoom":4.0},"arcs":[[[266]],[[267]]]},{"type":"MultiPolygon","properties":{"source":"openstreetmap.org","kind":"park","tier":2,"area":2603579268,"sort_rank":24,"min_zoom":6.0},"arcs":[[[268]],[[269]]]},{"type":"MultiPolygon","properties":{"source":"naturalearthdata.com","kind":"urban_area","name":"","area":1715877833,"sort_rank":11,"min_zoom":4.0},"arcs":[[[270]],[[271]],[[272]],[[273]],[[274]]]},{"type":"MultiPolygon","properties":{"source":"openstreetmap.org","kind":"nature_reserve","tier":2,"area":62076462468,"sort_rank":23,"min_zoom":4.0,"osm_relation":true},"arcs":[[[275]]]}]}},"type":"Topology","transform":{"translate":[33.75,-11.1784018737],"scale":[0.001373291,0.0013580117]},"arcs":[[[191,1253],[26,-10],[22,-15],[1,0],[7,-8],[10,-6],[25,-30],[5,-3],[13,-14],[21,-10],[71,-75],[22,-7],[4,-10],[2,-13],[4,-14],[4,-6],[16,-17],[3,-2],[13,-12],[1,-4],[73,-90],[8,-15],[22,-31],[9,-25],[1,-8],[-2,-8],[-6,-15],[-2,-7],[6,-25],[24,-55],[7,-39],[6,-16],[1,-9],[0,-8],[-14,-80],[3,-16],[14,-23],[3,-14],[-2,-7],[-7,-17],[-1,-9],[0,-4],[1,-6],[4,-10],[4,-10],[6,-8],[6,-3]],[[118,1075],[12,13],[0,5],[11,8],[6,7],[2,10],[1,13],[5,22],[1,13],[-13,33],[10,19],[18,14],[9,10],[11,11]],[[632,440],[2,-1],[3,-1],[2,-8],[-1,-15],[2,-4],[16,-18],[7,-15],[0,-16],[-9,-16],[4,-7],[2,-3],[3,-4],[4,-4],[5,-5],[2,-9],[-9,-7],[-5,-6],[3,-19],[-9,-46],[0,-33],[-2,-8],[-13,-30],[-7,-8],[-15,-19],[-3,-19],[3,-15],[10,-30],[2,-18],[5,-13],[35,-30],[4,-7],[2,-6]],[[625,439],[7,1]],[[0,1167],[9,-5],[18,-19],[19,-13],[17,-7],[21,-12],[17,-15],[8,-14],[9,-7]],[[3996,3],[19,6],[17,9],[64,51]],[[3915,29],[17,-4],[30,-16],[15,-6],[19,0]],[[3867,13],[25,5],[23,11]],[[3772,14],[95,-1]],[[3738,0],[9,8],[25,6]],[[145,535],[-145,225]],[[137,2709],[-33,15],[-30,22],[-14,4],[-12,7],[-3,30],[-13,31],[-2,20],[-10,17],[-20,6]],[[2651,3968],[23,-8],[4,-3],[2,-5],[9,-3]],[[2489,3732],[20,19],[14,30],[31,23],[23,28],[26,11],[24,21],[13,85],[11,19]],[[2701,3950],[12,-7],[13,-1],[25,-11],[8,-33],[47,-55],[18,-15]],[[2689,3949],[12,1]],[[2411,3910],[11,-77],[22,-12],[19,-6],[-15,-22],[3,-19],[2,-5],[0,-7],[17,-18],[19,-12]],[[2939,3880],[11,11]],[[2921,3885],[18,-5]],[[2882,3846],[29,9],[-1,21],[11,9]],[[2844,3848],[38,-2]],[[2824,3828],[20,20]],[[3678,3840]],[[2147,3348],[9,13],[4,16],[15,36],[18,72],[30,15],[40,60],[-20,174],[1,42],[22,36]],[[2127,3352],[10,-3],[10,-1]],[[1986,2804],[27,28],[6,35],[-9,35],[-5,36],[9,33],[31,66],[60,37],[4,33],[-4,133],[17,54],[11,16],[0,19],[-8,12],[2,11]],[[2950,2382],[-5,-6],[-7,-14],[-5,-7],[-5,-4],[-19,-11],[-12,-10],[-8,-10],[-15,-26],[-5,-5],[-4,-4],[-4,-4],[-2,-7],[0,-7],[-1,-6],[-3,-4],[-18,-22],[-6,-10],[-2,-11],[-5,-12],[-11,-6],[-13,-3],[-11,-5],[-5,-6],[-26,-40],[-8,-22],[-11,-15],[-3,-10],[-4,-5],[-5,-4],[-11,-4],[-4,-2],[-14,-18],[-21,-38],[-12,-17],[-15,-15],[-15,-19],[-6,-22],[13,-22],[3,-10],[-1,-15],[-2,-17],[-17,-56],[-31,-65],[-5,-21],[10,-67],[0,-25],[19,-47],[-6,-46],[22,-32],[-6,-29],[-40,-13],[-34,-28],[-6,-46],[-9,-22],[-11,-21],[-57,-178]],[[2266,3812],[39,13],[106,85]],[[2266,3812],[-51,15],[-49,19],[-36,32],[-26,42],[-21,42],[-29,36],[-47,23],[-45,27],[-25,33],[-8,15]],[[353,157],[275,0]],[[223,75],[101,59],[29,23]],[[628,157],[4,0]],[[0,470],[145,65]],[[145,535],[103,-87],[15,-9]],[[284,444],[7,0],[16,-6],[9,-1]],[[263,439],[5,0],[9,3],[7,2]],[[316,437],[315,1],[3,1]],[[209,0],[6,22],[8,53]],[[142,158],[5,-2],[47,-37],[10,-12],[9,-13],[10,-19]],[[116,112],[10,1],[7,4],[5,32],[1,5],[3,4]],[[47,121],[69,-9]],[[0,89],[0,1]],[[0,112],[25,7],[22,2]],[[1116,4096],[8,-14],[25,-27],[8,-21],[-15,-19],[-23,-20],[-3,-29],[-8,-28],[-18,-28],[-26,-61],[-3,-86],[-16,-66],[6,-64],[15,-26],[7,-29],[0,-27],[-13,-23],[-7,-66],[13,-126],[-20,-49],[-92,-5],[12,-68],[3,-79]],[[237,4096],[2,-3],[22,-16],[3,-33],[-15,-31],[-20,-15],[-4,-14],[-2,-14],[-1,-64],[-38,-143],[-2,-62],[8,-25],[3,-24],[-50,-38],[-43,-36],[-25,-41],[-8,-6],[-18,-3],[-16,-7],[-29,-21],[-4,-4]],[[3915,3401],[-5,-4],[-12,-15],[-14,-11],[-13,-33],[-4,-35],[-9,-33],[-20,-26],[-2,-11],[17,-1],[10,-8],[0,-14],[5,-25],[21,-13],[4,-15],[6,-16],[-8,-14],[-14,-8],[-9,-15],[-4,-18],[-12,-16],[-9,-17],[8,-8]],[[4047,3114],[18,-2],[19,-6],[12,-14]],[[4036,3113],[11,1]],[[4027,3114],[9,-1]],[[3974,3086],[12,1],[16,24],[25,3]],[[3964,3087],[10,-1]],[[3946,3065],[11,9],[7,13]],[[3922,3074],[11,-5],[13,-4]],[[3880,3036],[17,10],[10,17],[15,11]],[[3865,3050],[15,-14]],[[3851,3045],[14,5]],[[3091,3382],[1,16],[13,14],[18,44],[16,112],[-3,60],[-13,16],[-19,9],[5,6],[11,2],[-17,3],[-20,6],[-10,16],[-9,18],[-19,24],[-19,43],[-13,14],[-5,21],[-1,21],[-22,37],[-35,27]],[[3088,3382],[3,0]],[[3257,3292],[-17,2],[-73,28],[-21,10],[-21,3],[-13,6],[-7,17],[-10,12],[-7,12]],[[3331,3120],[-28,41],[7,44],[18,43],[-12,56],[-13,2]],[[3303,3306],[-14,-1],[-8,-4],[-7,-6],[-17,-3]],[[3376,3102],[-9,4],[-7,7],[-13,8]],[[3347,3121],[-16,-1]],[[3424,3099],[-11,7],[-15,3]],[[3398,3109],[-11,-4],[-11,-3]],[[3168,2653],[36,7],[36,12],[117,21],[4,26],[-14,31],[-32,92],[18,55],[21,27],[27,16],[29,4],[16,31],[26,33],[18,37],[-4,10],[-7,8],[-3,26],[-13,11]],[[3443,3100],[-19,-1]],[[3116,2662],[26,-3],[26,-6]],[[2950,2382],[6,7],[2,9],[2,17],[8,31],[2,4],[4,5],[3,3],[2,1],[3,6],[4,6],[3,4],[-1,36],[8,34],[-1,39],[6,37],[22,19],[28,10],[65,12]],[[2950,2382],[102,-78],[37,-22],[86,-31],[90,-19],[40,-21],[67,-59],[36,-25],[54,-51],[11,-70],[12,-30],[42,-1]],[[3993,2131],[27,-21],[10,-4]],[[3679,2059],[45,9],[91,31],[141,31],[37,1]],[[3646,2078],[14,-4],[7,-11],[12,-4]],[[3527,1975],[34,20],[15,41],[19,31],[51,11]],[[1418,1354],[-22,-21],[-26,-19],[-34,-16],[-28,-18],[-21,-23],[-28,-18],[-63,-59],[-48,-25],[-71,-76],[-53,-21],[-24,-13],[-7,-21],[14,-20],[16,-15],[11,-26],[-2,-36],[29,-42],[6,-48],[-61,-85],[-9,-25],[-26,-6]],[[971,721],[-27,1]],[[944,722],[-24,-9],[-18,-19],[-4,-49],[-62,-48],[-54,-26],[-33,-48],[-63,-40],[-21,-9],[-23,-2]],[[642,472],[-8,6],[-9,2]],[[625,480],[-19,-4],[-2,0]],[[1986,2804],[17,-74],[12,-22],[22,-10]],[[2063,2702],[9,-1],[33,-8],[16,-6],[12,-11],[7,-9],[3,-1],[17,-4],[15,-6],[18,-2],[11,-3],[5,-2],[5,-3],[1,-3],[1,-3],[-3,-23],[2,-8],[5,-6],[14,-6]],[[2037,2698],[9,1],[17,3]],[[2271,2607],[37,-3],[10,-5],[3,0]],[[2234,2597],[11,2],[10,5],[10,3],[6,0]],[[2328,2599],[16,-4],[-36,-47],[-53,-48],[-32,-62],[-27,-65],[-55,-16]],[[2321,2599],[7,0]],[[2141,2357],[-64,19],[-69,7]],[[2008,2383],[-64,-24],[-53,-41],[-23,-22],[-1,-8],[0,-9],[1,-13],[4,-12],[4,-25],[-12,-21],[-43,-7],[-23,-6]],[[1798,2195],[-27,6]],[[1771,2201],[-64,-39],[-56,-53],[-50,-62],[-28,-77],[-51,-46],[-68,-32],[-21,-21],[-27,-93],[1,-35],[-9,-34]],[[1398,1709],[-16,14],[-3,62],[-12,17],[-83,14],[-67,20]],[[1217,1836],[-58,-2],[-4,-33],[12,-29],[1,-33],[-19,-27],[1,-12],[14,-6],[6,-15],[-2,-52],[8,-29]],[[1202,1615],[16,-8],[50,-76],[138,-109],[10,-33],[2,-35]],[[1176,1598],[14,6],[12,11]],[[1040,3092],[-71,43]],[[1451,3025],[-26,2],[-52,29],[-35,13],[-35,4],[-11,6],[0,12],[-9,14],[-16,9],[-34,12],[-35,3]],[[1198,3129],[-24,-4],[-25,0],[-21,-5],[-15,-16],[-73,-12]],[[1626,2981],[-15,2],[-29,11],[-13,2],[-11,5],[-13,8],[-7,2],[-64,16]],[[1474,3027],[-23,-2]],[[1693,2984],[-9,1],[-5,3],[-11,3]],[[1668,2991],[-42,-10]],[[1885,2836],[-9,5],[-3,5],[-2,15],[-3,6],[-4,5],[-8,17],[-6,6],[-11,7],[-3,3],[-7,15],[-5,17],[-9,13],[-17,6],[-14,2],[-66,26],[-9,1]],[[1709,2985],[-16,-1]],[[1986,2804],[-4,18],[-4,10],[-13,9],[-17,3]],[[1948,2844],[-34,0],[-19,-7],[-10,-1]],[[969,3135],[-29,9],[-30,4],[-31,8],[-27,2]],[[852,3158],[-11,-11],[-14,-8],[-14,-6],[-13,-9],[-31,-18],[-27,-22],[-8,-71],[-27,-52],[-214,-45],[-37,-44],[1,-23],[-14,-12],[-34,-5]],[[409,2832],[-34,1],[-33,12],[-33,1]],[[309,2846],[-25,-28],[-23,-32],[-60,-41],[-64,-36]],[[137,2709],[19,-12],[12,-14],[-11,-20],[-14,-18],[-20,-47],[-17,-29],[-20,-26],[-13,-27],[-6,-30],[10,-22],[28,-3]],[[444,2478],[38,-3],[107,-26],[27,-19],[31,-10],[197,-32],[8,-22],[-3,-19],[19,-3]],[[105,2461],[339,17]],[[903,2347],[33,-12],[20,-21],[-17,-24],[-32,-25],[-40,-12],[-18,-21],[-26,-61],[-19,-32],[-26,-20],[-30,-11],[-27,-25],[-21,-32],[-15,-30],[12,-30],[15,-23],[12,-25],[-9,-48]],[[868,2344],[35,3]],[[715,1895],[-18,-48],[-16,-11]],[[681,1836],[-24,2]],[[657,1838],[-27,-10],[-24,-16],[-19,-39],[-25,-27],[-34,-13],[-38,-1]],[[490,1732],[-69,10]],[[421,1742],[-73,-18],[-42,-1]],[[306,1723],[-43,4]],[[263,1727],[-37,-15],[-7,-21],[-20,-7]],[[199,1684],[-54,19]],[[145,1703],[-40,-8],[-30,-27],[-42,-69],[5,-35],[24,-28],[17,-31],[12,-33],[-16,-8],[-3,-16],[24,-5],[8,-10],[2,-23],[17,-21],[39,-69],[22,-30],[14,-6],[15,-2],[29,-30],[-3,-24]],[[1465,1007],[-32,25],[5,44],[12,10],[16,1],[14,11],[32,51],[25,31],[5,16],[-7,15],[3,24],[11,22],[30,27],[11,37],[-13,25],[-8,26],[-2,52],[-4,15],[0,12],[5,7],[-3,7]],[[1565,1465],[-46,-53],[-43,-40],[-29,-11],[-29,-7]],[[2005,896],[-18,35],[40,52],[22,60],[-29,54],[-23,56],[1,23],[-9,21]],[[1989,1197],[-9,-4],[-15,-4],[1,-33],[-7,-19],[-32,-45],[-19,-20],[-4,-3],[-61,-9]],[[2471,1191],[-54,-16],[-65,-49],[-24,-10],[-57,-37],[-49,-43],[-42,-50],[-58,-51],[-67,-37],[-50,-2]],[[1706,1067],[-6,6],[2,9]],[[1702,1082],[-32,-9],[-33,-29],[-6,-20],[-13,-15],[-25,-2]],[[1736,1051],[-20,12],[-4,6]],[[1712,1069],[-6,-2]],[[1843,1060],[-44,7]],[[1799,1067],[-63,-16]],[[1593,1007],[-27,4]],[[1566,1011],[-101,-4]],[[2471,1191],[-10,-44],[-18,-43],[-31,-46],[-56,-61],[-60,-55],[-19,-40],[-5,-45],[3,-54],[-2,-53],[36,-30],[176,-68],[404,-99],[34,-24],[22,-13],[20,-15],[18,-30],[8,-17],[5,-17],[18,-32],[11,-35],[12,-19],[16,-18],[37,-67]],[[4096,618],[-2,0],[-19,-21],[-22,-11]],[[4053,586],[-24,1]],[[4029,587],[-8,-17],[-7,-31],[-32,-6]],[[3982,533],[-10,20],[-4,23],[-24,5]],[[3944,581],[-30,-12],[-60,-34],[-34,-11],[-56,-26],[-20,-15],[-14,-15],[-51,-4]],[[3679,464],[-28,8],[-21,15],[-25,1]],[[3605,488],[-23,-11],[-65,-5],[-193,-80],[-46,-46],[-35,-54],[-26,-17],[-127,-9]],[[3090,266],[22,-149],[34,-117]],[[2411,3910],[86,60],[23,38],[16,86],[1,2]],[[3365,3818],[-20,9],[-19,27],[-31,8],[-27,10],[-21,23],[-45,23],[-52,4]],[[3150,3922],[-19,-9],[-21,-4]],[[3110,3909],[-49,12]],[[3061,3921],[-111,-30]],[[3678,3840],[-61,11]],[[3617,3851],[-12,-10],[-15,-5]],[[3590,3836],[-10,2]],[[3580,3838],[-10,-1],[-13,-14],[-16,-5],[-42,-18]],[[3436,3796],[-24,5],[-13,8],[-11,11]],[[3388,3820],[-23,-2]],[[3464,3802],[-12,5]],[[3452,3807],[-9,-5],[-7,-6]],[[3499,3800],[-9,5]],[[3490,3805],[-11,-3],[-15,0]],[[4023,3788],[1,-15],[3,-14],[-4,-58],[1,-19],[8,-16],[12,-14],[3,-15],[0,-5]],[[3996,3791],[27,-3]],[[3970,3788],[26,3]],[[3967,3788],[3,0]],[[4023,3788],[52,4],[21,14]],[[715,1895],[104,-32],[0,-37],[174,-61],[-8,-132],[69,-49],[69,-4]],[[1123,1580],[53,18]],[[3577,3956],[-9,140]],[[340,0],[4,13],[20,36],[-10,14],[-5,24],[3,93],[-13,141],[-10,40],[1,12],[4,25],[0,9],[-6,12],[-8,12],[-5,11],[6,13],[6,5],[17,10],[5,5],[0,6],[-3,6],[-2,6],[-1,23],[4,7],[12,10],[6,3],[5,-1],[5,0],[4,8],[-1,2],[-9,19],[-7,25],[-6,11],[-26,29],[-8,12],[-3,11],[-5,10],[-12,11],[-23,17],[-40,40],[-60,87],[-22,49],[-8,51],[0,25],[-1,7],[-5,2],[-6,1],[-5,3],[-17,40],[-6,51],[3,24],[6,5],[12,13],[0,5],[11,8],[6,7],[2,10],[1,13],[5,22],[1,13],[-13,33],[10,19],[18,14],[9,10],[11,11],[26,-10],[22,-15],[8,-8],[10,-6],[25,-30],[5,-3],[13,-14],[21,-9],[71,-76],[22,-7],[4,-10],[2,-13],[4,-14],[4,-6],[16,-17],[3,-2],[13,-12],[1,-4],[73,-90],[8,-15],[22,-31],[9,-25],[1,-8],[-2,-8],[-6,-15],[-2,-7],[6,-25],[24,-55],[7,-39],[6,-16],[1,-9],[0,-8],[-14,-80],[3,-16],[14,-23],[3,-14],[-2,-7],[-7,-17],[-1,-9],[1,-10],[4,-10],[4,-10],[6,-8],[6,-3],[7,1],[5,-2],[2,-8],[-1,-15],[2,-4],[16,-18],[7,-15],[0,-16],[-9,-16],[4,-7],[2,-3],[3,-4],[4,-4],[5,-5],[2,-9],[-9,-7],[-5,-6],[3,-19],[-9,-46],[0,-33],[-2,-8],[-13,-30],[-22,-27],[-3,-19],[3,-15],[10,-30],[2,-18],[5,-13],[35,-30],[4,-7],[2,-6],[-335,0]],[[4096,1810],[-15,5],[4,14],[1,62],[-3,16],[-6,19],[-9,17],[-24,25],[-3,21],[5,43],[-1,22],[-3,21],[-6,19],[-9,19],[11,4],[5,6],[0,9],[-6,11],[7,-3],[6,-4],[12,-13],[4,14],[0,6],[11,-5],[-2,13],[1,26],[-5,11],[6,1],[2,1],[2,1],[5,-3],[10,18],[0,-396]],[[4096,2504],[-25,-3],[12,11],[-1,11],[-9,10],[-11,9],[-7,-24],[-10,-24],[-16,-18],[-22,-5],[32,38],[4,13],[-11,26],[2,11],[5,11],[-3,14],[-9,23],[-3,16],[-1,15],[13,81],[8,28],[20,17],[7,14],[7,15],[3,11],[0,16],[-5,9],[-7,8],[-7,12],[9,1],[11,-1],[10,2],[4,7],[0,-354]],[[4096,2861],[-2,4],[-3,6],[-1,6],[6,2],[0,-18]],[[4096,3192],[-3,0],[-12,3],[-20,13],[-11,4],[-13,1],[3,-6],[1,-6],[1,-13],[-15,14],[0,26],[3,28],[-3,22],[-12,-13],[-13,10],[-11,20],[-4,18],[-1,10],[-3,9],[-5,9],[-6,5],[-13,8],[-6,6],[-11,19],[-6,7],[-19,13],[-24,30],[-40,38],[-15,7],[-21,6],[14,-9],[12,-5],[6,-3],[1,-6],[-8,-2],[-8,2],[-7,5],[-21,1],[-9,2],[-3,3],[-2,5],[-3,5],[-5,2],[-9,1],[-4,1],[-4,3],[-6,7],[-5,7],[-3,9],[-1,7],[-3,8],[-8,5],[-9,4],[-8,6],[-9,18],[-2,42],[-6,18],[9,11],[5,16],[2,17],[-3,28],[-1,5],[-12,9],[-16,11],[-4,4],[-3,7],[-7,29],[-3,5],[-9,10],[-3,5],[-1,18],[6,16],[7,15],[4,18],[0,3],[3,7],[4,6],[5,5],[3,7],[0,48],[3,17],[5,16],[16,25],[13,27],[10,12],[7,13],[0,35],[5,15],[-10,4],[24,16],[330,0],[0,-264],[-2,3],[-3,11],[-1,11],[-7,21],[-2,11],[0,12],[5,31],[-4,26],[-22,40],[-9,23],[-13,-14],[-5,-54],[-6,-23],[-12,-14],[-26,-22],[-12,-20],[-2,4],[-6,7],[-2,4],[-3,-5],[-2,-8],[-1,-8],[1,-9],[-3,-42],[13,-45],[6,-43],[-26,-32],[6,-13],[10,-33],[6,-12],[37,-43],[2,-3],[2,-2],[7,-5],[7,-3],[2,1],[2,1],[1,1],[-8,9],[-2,16],[3,12],[10,-7],[-1,4],[1,3],[-1,2],[-4,1],[0,6],[10,5],[5,-5],[7,-5],[23,-36],[19,-20],[0,-1],[0,-378]],[[3987,3973],[1,10],[-9,-6],[2,-15],[-2,-21],[-1,-13],[1,-10],[8,-1],[9,2],[0,15],[-4,9],[5,8],[-6,9],[-4,13]],[[4096,1810],[-15,5],[4,14],[1,62],[-3,16],[-6,19],[-9,17],[-24,25],[-3,21],[5,43],[-1,22],[-3,21],[-6,19],[-9,19],[11,4],[5,6],[0,9],[-6,11],[7,-3],[6,-4],[12,-13],[4,14],[0,6],[11,-5],[-2,13],[1,26],[-5,11],[6,1],[2,1],[2,1],[5,-3],[10,18]],[[4096,2504],[-25,-3],[12,11],[-1,11],[-9,10],[-11,9],[-7,-24],[-10,-24],[-16,-18],[-22,-5],[32,38],[4,13],[-11,26],[2,11],[5,11],[-3,14],[-9,23],[-3,16],[-1,15],[13,81],[8,28],[20,17],[7,14],[7,15],[3,11],[0,16],[-5,9],[-7,8],[-7,12],[9,1],[11,-1],[10,2],[4,7]],[[4096,2861],[-2,4],[-3,6],[-1,6],[6,2]],[[4096,3192],[-3,0],[-12,3],[-20,13],[-11,4],[-13,1],[3,-6],[1,-6],[1,-13],[-15,14],[0,26],[3,28],[-3,22],[-12,-13],[-13,10],[-11,20],[-4,18],[-1,10],[-3,9],[-5,9],[-6,5],[-13,8],[-6,6],[-11,19],[-6,7],[-19,13],[-24,30],[-40,38],[-15,7],[-21,6],[14,-9],[12,-5],[6,-3],[1,-6],[-8,-2],[-8,2],[-7,5],[-21,1],[-9,2],[-3,3],[-2,5],[-3,5],[-5,2],[-9,1],[-4,1],[-4,3],[-6,7],[-5,7],[-3,9],[-1,7],[-3,8],[-8,5],[-9,4],[-8,6],[-9,18],[-2,42],[-6,18],[9,11],[5,16],[2,17],[-3,28],[-1,5],[-12,9],[-16,11],[-4,4],[-3,7],[-7,29],[-3,5],[-9,10],[-3,5],[-1,18],[6,16],[7,15],[4,18],[0,3],[3,7],[4,6],[5,5],[3,7],[0,48],[3,17],[5,16],[16,25],[13,27],[10,12],[7,13],[0,35],[5,15],[-10,4],[24,16]],[[340,0],[4,13],[20,36],[-10,14],[-5,24],[3,93],[-13,141],[-10,40],[1,12],[4,25],[0,9],[-6,12],[-8,12],[-5,11],[6,13],[6,5],[17,10],[5,5],[0,6],[-3,6],[-2,6],[-1,23],[4,7],[12,10],[6,3],[5,-1],[5,0],[4,8],[-1,2],[-9,19],[-7,25],[-6,11],[-26,29],[-8,12],[-3,11],[-5,10],[-12,11],[-23,17],[-40,40],[-60,87],[-22,49],[-8,51],[0,25],[-1,7],[-5,2],[-6,1],[-5,3],[-17,40],[-6,51],[3,24],[6,5],[12,13],[0,5],[11,8],[6,7],[2,10],[1,13],[5,22],[1,13],[-13,33],[10,19],[18,14],[9,10],[11,11],[26,-10],[22,-15],[8,-8],[10,-6],[25,-30],[5,-3],[13,-14],[21,-9],[71,-76],[22,-7],[4,-10],[2,-13],[4,-14],[4,-6],[16,-17],[3,-2],[13,-12],[1,-4],[73,-90],[8,-15],[22,-31],[9,-25],[1,-8],[-2,-8],[-6,-15],[-2,-7],[6,-25],[24,-55],[7,-39],[6,-16],[1,-9],[0,-8],[-14,-80],[3,-16],[14,-23],[3,-14],[-2,-7],[-7,-17],[-1,-9],[1,-10],[4,-10],[4,-10],[6,-8],[6,-3],[7,1],[5,-2],[2,-8],[-1,-15],[2,-4],[16,-18],[7,-15],[0,-16],[-9,-16],[4,-7],[2,-3],[3,-4],[4,-4],[5,-5],[2,-9],[-9,-7],[-5,-6],[3,-19],[-9,-46],[0,-33],[-2,-8],[-13,-30],[-22,-27],[-3,-19],[3,-15],[10,-30],[2,-18],[5,-13],[35,-30],[4,-7],[2,-6]],[[4096,3832],[-2,3],[-3,11],[-1,11],[-7,21],[-2,11],[0,12],[5,31],[-4,26],[-22,40],[-9,23],[-13,-14],[-5,-54],[-6,-23],[-12,-14],[-26,-22],[-12,-20],[-2,4],[-6,7],[-2,4],[-3,-5],[-2,-8],[-1,-8],[1,-9],[-3,-42],[13,-45],[6,-43],[-26,-32],[6,-13],[10,-33],[6,-12],[37,-43],[2,-3],[2,-2],[7,-5],[7,-3],[2,1],[2,1],[1,1],[-8,9],[-2,16],[3,12],[10,-7],[-1,4],[1,3],[-1,2],[-4,1],[0,6],[10,5],[5,-5],[7,-5],[23,-36],[19,-20],[0,-1]],[[3988,3983],[-1,-10],[4,-13],[6,-9],[-5,-8],[4,-9],[0,-15],[-9,-2],[-8,1],[-1,10],[1,13],[2,21],[-2,15],[9,6]],[[792,4000],[-6,18],[-6,24],[0,15],[-9,15],[-3,24]],[[1520,4096],[-1,-8],[-15,-12],[-3,-19],[9,0],[9,-9],[0,-9],[-12,-30],[-9,-43]],[[3309,3966],[3,21],[15,22],[6,18],[12,15],[9,3],[9,18],[24,16],[9,15],[1,2]],[[1498,3966],[0,-6],[-9,-12]],[[879,3948],[-81,42],[-6,10]],[[3279,3760],[-6,30],[-12,24],[-6,19],[0,21],[9,27],[12,21],[21,22],[6,15],[6,27]],[[2192,3738],[-33,13],[-45,0],[-72,0],[-75,3]],[[2285,3708],[-24,6],[-27,-3],[-12,6],[-15,15],[-15,6]],[[1476,3691],[-2,-1],[-18,-6]],[[1630,3738],[-18,3],[-15,0],[-30,-12],[-24,0],[-21,-9],[-24,-18],[-22,-11]],[[1459,3709],[0,-16],[-3,-9]],[[1489,3948],[-18,-15],[-6,-18],[-3,-16],[-3,-39],[-15,-12],[0,-15],[15,-16],[3,-6],[-3,-54],[0,-48]],[[1456,3684],[-9,9],[-3,2]],[[1444,3695],[-18,13],[-33,27],[-12,16],[-24,3],[-15,12],[-30,3],[-6,3],[-30,24],[-18,3],[-15,0],[-33,6],[-15,9],[-48,37],[-42,24],[-42,15],[-27,9],[-69,13],[-9,3],[-25,21],[-6,3],[-33,3],[-15,6]],[[3970,3688],[9,20],[1,4]],[[3995,3701],[-10,-8],[-14,-6]],[[3971,3687],[-1,0],[0,1]],[[3980,3712],[5,11],[-3,40],[18,30],[9,37],[6,27],[0,30],[-3,25]],[[4066,3684],[3,15],[-9,15],[-9,3],[-21,-9],[-18,-3],[-15,-3],[-2,-1]],[[1865,3656],[-10,0],[-21,19],[-3,9],[-24,24],[-15,3],[-6,-3],[-24,9],[-24,-6],[-15,-3],[-39,0],[-18,3],[-36,27]],[[1967,3754],[-6,-10],[-3,-15],[-18,-21],[-6,-6],[3,-24],[-9,-6],[-15,-3],[-12,-13],[-21,3],[-15,-3]],[[3375,3556],[6,18],[3,22],[0,39],[-3,27],[-15,25],[-21,9],[-60,55],[-6,9]],[[2675,3568],[-12,-15],[-15,-9],[-15,-9],[-21,-3]],[[2612,3532],[-30,6],[-27,39],[-57,46],[-54,43],[-30,18],[-15,-3],[-39,24],[-21,-3],[-24,12],[-21,-6],[-9,0]],[[4096,3614],[-15,6],[-6,6],[-9,24],[-3,16],[3,18]],[[1456,3684],[-6,-3],[-4,-6]],[[1446,3675],[-8,-9],[-15,-28],[0,-9],[27,-27],[6,-9],[0,-55],[3,-15],[24,-18],[6,-19]],[[3333,3462],[9,30],[6,19],[3,18],[3,9],[21,18]],[[3357,3350],[-6,9],[-30,45],[-3,19],[0,6],[15,33]],[[3198,3350],[21,6],[21,-6],[24,-3],[60,3],[33,0]],[[3357,3350],[15,-3],[84,-10],[42,-9],[48,-9],[42,-6],[24,-12],[15,-3],[12,-12],[21,-6]],[[3963,3230],[16,-2],[15,0],[27,-9]],[[3660,3280],[37,-6],[27,0],[24,-6],[30,-13],[15,-12],[6,-3],[15,0],[15,-6],[27,-3],[24,0],[30,9],[12,-9],[24,0],[17,-1]],[[2859,3213],[-1,5]],[[2858,3218],[-2,34],[-6,31],[-21,39],[-6,22],[-18,21],[0,15],[-12,24],[0,25],[-3,15],[-18,33],[-22,21],[-24,10],[-15,15],[-21,33],[-15,12]],[[2874,3213],[18,9],[15,15],[18,12],[24,3],[15,-3],[15,3],[9,7],[30,12],[15,9],[15,9],[6,9],[36,30],[15,9],[24,7],[18,12],[21,0],[21,-6],[9,0]],[[2859,3213],[7,0]],[[2866,3213],[8,0]],[[4024,3207],[-3,12]],[[2843,3202],[1,2],[15,9]],[[2708,3149],[39,-21],[6,0],[25,18],[15,-3],[9,6],[12,18],[24,22],[5,13]],[[4027,3160],[-3,47]],[[4027,3128],[0,30],[0,2]],[[1489,3486],[6,-12],[12,-15],[15,-9],[9,-24],[9,-6],[21,-10],[27,-33],[21,-46],[12,-15],[36,-33],[12,-15],[6,-22],[15,-21],[-3,-15],[-9,-24],[-3,-22],[0,-18],[-12,-21],[0,-21],[-18,-40],[-18,-24],[-21,-18],[6,-16],[18,-12],[12,-12],[3,-9],[-12,-15],[-12,-6],[-24,0],[-30,3],[-9,6],[-33,6],[-21,-3],[-33,-18],[-15,-12],[-24,-43]],[[2387,2808],[9,7],[18,6],[18,0],[27,-3],[15,3],[15,9],[9,40],[24,39],[15,34],[3,21],[1,19]],[[2330,2773],[15,6],[15,9],[21,15],[6,5]],[[2541,2983],[2,45],[15,30],[9,30],[9,16],[15,12],[42,3],[30,9],[30,18],[15,3]],[[2018,2736],[12,-3],[12,-12],[15,0],[24,-15],[9,-3],[21,0],[18,-6],[18,-22],[12,-12],[39,-6],[15,3],[9,6],[-3,15],[0,16],[15,15],[33,0],[9,6],[12,12],[15,9],[6,18],[6,6],[15,10]],[[3775,2548],[21,9],[24,15],[21,9],[9,15],[15,7],[15,18],[15,24],[18,18],[3,18],[12,22],[6,15],[0,9],[-15,9],[-6,15],[-15,6],[-3,25],[-6,15],[-9,6],[-6,15],[6,15],[21,25],[21,12],[12,15],[3,15],[9,15],[3,28],[12,33],[9,3],[6,15],[15,9],[9,31],[42,15],[6,6],[0,18],[-9,12],[0,25],[-12,18]],[[1424,2541],[-16,-17]],[[1432,2891],[-3,-6],[9,-24],[15,-22],[-12,-21],[-3,-36],[6,-9],[15,3],[15,6],[15,-3],[6,-16],[6,-3],[3,-15],[-9,-15],[-12,-39],[-15,-28],[3,-18],[-6,-46],[-6,-12],[-15,-24],[-20,-22]],[[1420,2493],[15,9],[4,1]],[[1439,2503],[11,2],[33,-9],[24,6],[33,28],[39,18],[15,12],[24,6],[24,-6],[12,6],[15,12],[21,9],[54,6],[15,-9],[6,0],[24,-9],[15,9],[24,19],[37,24],[48,24],[9,12],[18,12],[15,3],[27,40],[18,9],[18,9]],[[3829,2341],[-12,25],[-12,42],[-6,15],[-3,37],[-6,24],[0,15],[3,15],[-12,22],[-6,12]],[[1411,2487],[9,6]],[[1273,2329],[27,31],[24,33],[27,39],[18,22],[21,18],[21,15]],[[3820,2256],[-3,6],[9,40],[3,30],[0,9]],[[3829,2341],[24,-27],[33,-30],[48,-25],[15,-15]],[[3949,2244],[-15,0],[-30,-3],[-21,12],[-33,-3],[-30,6]],[[1132,2123],[3,21],[15,12],[24,3],[9,15],[9,25],[12,12],[6,15],[0,24],[3,9],[24,6],[12,13],[3,9],[0,15],[12,18],[9,9]],[[939,1962],[0,15],[-9,30],[0,15],[12,13],[64,30],[21,3],[18,6],[15,21],[9,6],[36,0],[27,22]],[[4072,1749],[-12,12],[-9,12],[-24,22],[-15,21],[-6,15],[-3,15],[3,31],[12,48],[-6,25],[3,24],[3,21],[6,34],[3,24],[-6,18],[-33,46],[-15,30],[-3,15],[-12,34],[-3,21],[0,21],[-6,6]],[[783,1719],[6,9],[12,36],[15,9],[3,10],[27,36],[15,15],[-21,21],[6,16],[6,9],[15,3],[6,15],[-3,15],[3,6],[24,15],[15,0],[21,25],[6,3]],[[570,1701],[18,15],[15,0],[18,-6],[6,0],[24,9],[15,0],[15,0],[33,3],[15,-3],[24,6],[21,-9],[9,3]],[[0,1767],[11,0],[15,-6],[9,-15],[16,-15],[15,-6],[21,-6],[15,0],[45,3],[45,-15],[30,-3],[33,9],[24,6],[33,3],[9,6],[21,24],[24,12],[15,6],[15,9],[33,-6],[33,6],[30,-12],[3,-15],[12,-12],[21,-15],[30,-24],[12,0]],[[732,1366],[12,25],[3,15],[0,18],[0,15],[18,34],[0,9],[-6,30],[9,31],[3,33],[15,18],[0,15],[-12,25],[3,15],[12,21],[-9,15],[3,25],[0,9]],[[804,1290],[-9,4],[-33,39],[-27,24],[-3,9]],[[0,1217],[2,-2],[3,-19]],[[5,1196],[-3,-21],[3,-6],[21,-30],[28,-22],[36,-39],[0,-15]],[[90,1063],[3,-15],[0,-37],[6,-27],[9,-15],[27,-31],[9,-18]],[[4096,1456],[-15,26],[-9,21],[-9,24],[-9,28],[-12,54],[0,16],[3,15],[0,30],[6,15],[9,16],[0,21],[12,24],[0,3]],[[4096,661],[-6,-2]],[[4090,659],[-24,-12],[-69,-40],[-48,-30]],[[1699,486],[-9,-3],[-18,-25],[-15,-3],[-15,25],[-9,3],[-24,-6],[-6,-13],[-6,-21],[-6,-6],[-9,0],[-21,15],[-6,0],[-45,-3],[-12,-12],[-24,3],[-15,-3],[-18,-9],[-6,-6],[-12,-24],[-3,-6],[-15,-7],[-18,-15]],[[1387,370],[3,61],[9,30],[3,28],[12,36],[-3,9],[-9,25],[-3,15],[0,39],[-12,49],[-9,15],[-9,3],[-15,-3],[-15,3],[-33,0],[-12,12],[-15,37],[-9,9],[-15,6],[-12,24],[-15,15],[-15,6],[-3,9],[0,13],[-6,18],[-18,18],[6,40],[-9,15],[0,24],[-15,12],[3,18],[-6,16],[-12,18],[-6,6],[-15,3],[-12,15],[-42,15],[-15,3],[-36,19],[-3,9],[3,24],[-12,12],[-3,18],[-9,6],[-6,13],[9,15],[-9,18],[0,21],[-21,43],[-6,6],[-25,6],[-12,15],[-21,3],[-18,15],[-21,9],[-24,-3],[-24,13],[-21,-4]],[[3949,577],[-42,-25],[-12,-15],[-60,-30],[-30,-15],[-27,-22],[-12,-18],[-15,-12],[-12,-15],[-3,-24],[-12,-22],[-30,-30],[-21,-15],[-10,-3]],[[3663,331],[-30,-25],[-27,-18]],[[3606,288],[-15,-21],[-24,-12],[-33,-21],[-24,-16],[-45,-12]],[[3465,206],[-21,-12],[-39,-9],[-51,0],[-21,-9],[-24,3],[-15,12],[-15,3],[-30,0],[-45,-12],[-27,-3],[-24,0],[-30,6],[-33,3],[-15,-15],[-9,-3],[-54,-6],[-21,6],[-24,6],[-33,9],[-72,6],[-48,3],[-49,6],[-33,3],[-6,-3],[-30,-27],[-3,-9],[-6,-22],[-9,-15],[-3,-15],[-18,-24],[-12,-21],[-6,-3]],[[2639,64],[-12,9],[-21,39],[-6,6],[-24,6],[-18,34],[-24,21],[-18,24],[-3,21],[0,16],[-18,15],[-21,12],[-27,18],[-24,6],[-30,-3],[-15,3],[-15,6],[-24,-9],[-18,3],[-21,3],[-15,-9],[-15,0],[-15,12],[-21,6],[-33,-3],[-9,-12],[-24,3],[-9,3],[-30,28],[-30,12],[-30,0],[-12,12],[-3,15],[-12,12],[-9,25],[-18,30],[-24,3],[-15,0],[-18,6],[-21,21],[-9,3],[-21,0],[-24,-9],[-25,-3],[-33,-3],[-42,3],[-15,3],[-39,25],[-24,12],[-6,-3]],[[69,0],[6,6],[6,18],[12,46],[12,30],[3,15],[6,6],[9,18],[12,37],[21,21],[6,9],[33,58],[6,15],[3,18],[0,31],[3,9],[12,15],[6,15],[15,21],[3,19],[6,3],[3,24],[6,6],[15,0],[24,-9],[12,21],[21,31],[-6,30],[9,30],[0,49],[-9,15],[-15,15],[-33,16],[-6,6],[-9,12],[0,24],[-6,15],[-9,15],[-39,31],[-15,18],[-18,24],[-9,31],[-9,15],[-9,21],[-15,24],[-3,22],[3,9],[12,15]],[[4096,3832],[0,-262],[0,1],[-19,20],[-23,36],[-7,5],[-5,5],[-10,-5],[0,-6],[4,-1],[1,-2],[-1,-3],[1,-4],[-10,7],[-3,-12],[2,-16],[8,-9],[-1,-1],[-2,-1],[-2,-1],[-7,3],[-7,5],[-2,2],[-2,3],[-37,43],[-6,12],[-10,33],[-6,13],[26,32],[-6,43],[-13,45],[3,42],[-1,9],[1,8],[2,8],[3,5],[2,-4],[6,-7],[2,-4],[12,20],[26,22],[12,14],[6,23],[5,54],[13,14],[9,-23],[22,-40],[4,-26],[-5,-31],[0,-12],[2,-11],[7,-21],[1,-11],[3,-11],[2,-3]],[[3996,3919],[-9,-2],[-8,1],[-1,10],[1,13],[2,21],[-2,15],[9,6],[-1,-10],[4,-13],[6,-9],[-5,-8],[4,-9],[0,-15]],[[4096,1810],[0,-1810],[-481,0],[-3615,0],[0,4096],[3766,0],[-24,-16],[10,-4],[-5,-15],[0,-35],[-7,-13],[-10,-12],[-13,-27],[-16,-25],[-5,-16],[-3,-17],[0,-48],[-3,-7],[-5,-5],[-4,-6],[-3,-7],[0,-3],[-4,-18],[-7,-15],[-6,-16],[1,-18],[3,-5],[9,-10],[3,-5],[7,-29],[3,-7],[4,-4],[16,-11],[12,-9],[1,-5],[3,-28],[-2,-17],[-5,-16],[-9,-11],[6,-18],[2,-42],[9,-18],[8,-6],[9,-4],[8,-5],[3,-8],[1,-7],[3,-9],[5,-7],[6,-7],[4,-3],[4,-1],[9,-1],[5,-2],[3,-5],[2,-5],[3,-3],[9,-2],[21,-1],[7,-5],[8,-2],[8,2],[-1,6],[-6,3],[-12,5],[-14,9],[21,-6],[15,-7],[40,-38],[24,-30],[19,-13],[6,-7],[11,-19],[6,-6],[13,-8],[6,-5],[5,-9],[3,-9],[1,-10],[4,-18],[11,-20],[13,-10],[12,13],[3,-22],[-3,-28],[0,-26],[15,-14],[-1,13],[-1,6],[-3,6],[13,-1],[11,-4],[20,-13],[12,-3],[3,0],[0,-313],[-6,-2],[1,-6],[3,-6],[2,-4],[0,-3],[-4,-7],[-10,-2],[-11,1],[-9,-1],[7,-12],[7,-8],[5,-9],[0,-16],[-3,-11],[-7,-15],[-7,-14],[-20,-17],[-8,-28],[-13,-81],[1,-15],[3,-16],[9,-23],[3,-14],[-5,-11],[-2,-11],[11,-26],[-4,-13],[-32,-38],[22,5],[16,18],[10,24],[7,24],[11,-9],[9,-10],[1,-11],[-12,-11],[25,3],[0,-298],[-10,-18],[-5,3],[-2,-1],[-2,-1],[-6,-1],[5,-11],[-1,-26],[2,-13],[-11,5],[0,-6],[-4,-14],[-12,13],[-6,4],[-7,3],[6,-11],[0,-9],[-5,-6],[-11,-4],[9,-19],[6,-19],[3,-21],[1,-22],[-5,-43],[3,-21],[24,-25],[9,-17],[6,-19],[3,-16],[-1,-62],[-4,-14],[15,-5]],[[0,2472],[77,11],[0,49],[86,126],[30,111],[123,27],[46,39],[136,6],[118,99],[58,95],[174,119],[120,-136],[239,-140],[-1,-38],[-54,-30],[-38,-64],[-124,-38],[-13,-19],[40,-64],[-19,-59],[-143,-42],[-39,-59],[23,-122],[-59,-108],[-100,-22],[-7,-17],[38,-2],[0,-54],[-93,-158],[-34,-25],[-195,-29],[-52,-78],[-84,-27],[-2,69],[-31,0],[-1,-48],[-48,-21],[-96,33],[-75,-18],[0,634]],[[1874,2357],[26,284],[71,35],[131,14],[46,-39],[64,-8],[-8,-46],[145,-8],[-82,-199],[-270,28],[-123,-61]],[[3509,3696],[2,28],[49,35],[-20,36],[39,50],[-4,62],[34,60],[-4,109],[103,-15],[-3,-89],[-49,1],[-1,-20],[39,-28],[-34,-142],[7,-54],[33,-19],[-26,-52],[38,-16],[-7,-17],[-75,-22],[-16,25],[26,13],[-2,32],[-58,-25],[6,25],[-77,23]],[[2373,2898],[49,82],[165,4],[-2,-122],[-37,-59],[-104,-56],[-52,31],[-19,120]],[[4096,3560],[0,-118],[-126,140],[16,44],[55,-49],[-14,47],[18,-12],[6,25],[45,-77]],[[1440,2500],[-32,-15],[-2,51],[32,8],[2,-44]],[[4002,3275],[25,3],[0,-76],[15,-14],[-5,25],[23,-5],[-32,-48],[-81,24],[42,119],[13,-28]],[[1471,3657],[-29,21],[4,36],[31,-12],[-6,-45]],[[2852,3190],[-21,27],[17,8],[24,-16],[-20,-19]],[[4001,3696],[-5,-21],[-44,22],[18,23],[31,-24]],[[1705,1077],[28,80],[-18,161],[88,66],[133,-7],[76,22],[144,69],[41,-13],[164,93],[26,121],[-81,118],[-89,223],[16,46],[-57,138],[117,37],[61,71],[-27,171],[144,32],[144,-14],[154,112],[19,95],[83,-2],[50,36],[37,-20],[62,64],[88,-5],[56,38],[15,45],[195,-42],[33,-73],[72,-6],[-168,-178],[-70,-38],[100,-95],[37,-80],[29,-7],[-7,-76],[34,-40],[36,-161],[59,-112],[61,-54],[48,-193],[-107,-34],[36,-157],[-302,-57],[-58,18],[-9,27],[-55,-7],[-107,-69],[-93,16],[-68,76],[-134,-24],[-76,-144],[23,-147],[-120,46],[-42,-87],[13,-87],[180,-193],[24,-83],[-28,-59],[-88,-25],[-128,-106],[-145,3],[-51,-39],[-68,2],[-36,32],[-3,77],[-84,24],[-60,54],[-53,-38],[-21,23],[-131,19],[-29,86],[-109,160],[-4,71]]]}