{"objects":{"water":{"type":"GeometryCollection","geometries":[{"type":"Polygon","properties":{"source":"naturalearthdata.com","kind":"ocean","area":1576712559132672,"sort_rank":200,"min_zoom":0.0,"id":1},"arcs":[[1172]]},{"type":"LineString","properties":{"source":"naturalearthdata.com","kind":"ocean","sort_rank":205,"boundary":true,"min_zoom":0.0,"id":19},"arcs":[1173]}]},"buildings":{"type":"GeometryCollection","geometries":[]},"places":{"type":"GeometryCollection","geometries":[{"type":"Point","properties":{"name:ka":"\u10d0\u10dc\u10d3\u10dd\u10e0\u10d0","name:ko":"\uc548\ub3c4\ub77c","name:kn":"\u0c85\u0c82\u0ca1\u0ccb\u0cb0\u0cbe","name:km":"\u17a2\u1784\u17cb\u178a\u17bc\u179a\u17c9\u17b6","name:kk":"\u0410\u043d\u0434\u043e\u0440\u0440\u0430","name:ki":"Andora","min_zoom":2.0,"name:ti":"\u12a0\u1295\u12f6\u122b","name:ks":"\u0627\u066e\u06ea\u0646\u0691\u0648\u0631\u0627","name:to":"\u02bbEnitola","name:or":"\u0b06\u0b23\u0b4d\u0b21\u0b4b\u0b30\u0b3e","name:pl":"Andora","name:ta":"\u0b85\u0ba9\u0bcd\u0b9f\u0bcb\u0bb0\u0bbe","name:tg":"\u0410\u043d\u0434\u043e\u0440\u0440\u0430","name:te":"\u0c05\u0c28\u0c4d\u0c21\u0c4b\u0c30\u0c3e","name:bg":"\u0410\u043d\u0434\u043e\u0440\u0430","name:hr":"Andora","name:ru":"\u0410\u043d\u0434\u043e\u0440\u0440\u0430","name:dz":"\u0f68\u0f71\u0f53\u0f0b\u0f51\u0f7c\u0f0b\u0f62","source":"openstreetmap.org","name:lv":"Andora","name:lt":"Andora","name:hi":"\u0905\u0928\u094d\u0921\u094b\u0930\u093e","name:he":"\u05d0\u05e0\u05d3\u05d5\u05e8\u05d4","kind":"country","name:ur":"\u0627\u0646\u0688\u0648\u0631\u0627","name:tt":"\u0410\u043d\u0434\u043e\u0440\u0440\u0430","name:uk":"\u0410\u043d\u0434\u043e\u0440\u0430","name:hy":"\u0531\u0576\u0564\u0578\u0580\u0580\u0561","name:ln":"Andor\u025b","name:lo":"\u0ead\u0eb1\u0e99\u0e94\u0ecd\u0ea5\u0eb2","name:oc":"And\u00f2rra","population":83888,"name:el":"\u0391\u03bd\u03b4\u03cc\u03c1\u03c1\u03b1","name:eo":"Andoro","name":"Andorra","name:ee":"Andorra nutome","name:th":"\u0e1b\u0e23\u0e30\u0e40\u0e17\u0e28\u0e2d\u0e31\u0e19\u0e14\u0e2d\u0e23\u0e4c\u0e23\u0e32","name:yo":"Or\u00edl\u1eb9\u0301\u00e8de \u00c0\u00e0nd\u00f3r\u00e0","alt_name:el":"\u0391\u03bd\u03b4\u03cc\u03c1\u03b1","name:rn":"Andora","name:id":"Andora","name:mr":"\u0905\u0901\u0921\u094b\u0930\u093e","name:ar":"\u0623\u0646\u062f\u0648\u0631\u0627","official_name":"Principat d'Andorra","name:ak":"Andora","name:am":"\u12a0\u1295\u12f6\u122b","name:vi":"Andora","name:ml":"\u0d05\u0d7b\u0d31\u0d4b\u0d31","name:mn":"\u0410\u043d\u0434\u043e\u0440\u0440\u0430","id":148874198,"name:mk":"\u0410\u043d\u0434\u043e\u0440\u0430","name:vo":"Landor\u00e4n","name:zu":"i-Andorra","name:ff":"Anndoora","name:fr":"Andorre","name:zh":"\u5b89\u9053\u5c14","name:so":"Andora","name:sn":"Andora","name:sl":"Andora","name:ja":"\u30a2\u30f3\u30c9\u30e9","name:si":"\u0d87\u0db1\u0dca\u0da9\u0ddd\u0dbb\u0dcf\u0dc0","name:fa":"\u0622\u0646\u062f\u0648\u0631\u0627","name:sg":"And\u00f4ro","name:ne":"\u0905\u0928\u094d\u0921\u094b\u0930\u094d\u0930\u093e","name:bs":"Andora","name:bm":"And\u0254r","name:bn":"\u098f\u09cd\u09af\u09be\u09a8\u09cd\u09a1\u09cb\u09b0\u09be","name:bo":"\u0f68\u0f7a\u0f53\u0f0b\u0f4c\u0f7c\u0f0b\u0f62\u0f0d","name:sw":"Andora","name:be":"\u0410\u043d\u0434\u043e\u0440\u0430","name:ha":"Andora","name:sr":"\u0410\u043d\u0434\u043e\u0440\u0430","name:sq":"Andorr\u00eb","name:ga":"And\u00f3ra","name:io":"Andora","name:gu":"\u0a8d\u0a82\u0aa1\u0acb\u0ab0\u0abe","name:lg":"Andora"},"coordinates":[2291,3060]},{"type":"Point","properties":{"source":"naturalearthdata.com","kind":"locality","name":"Barcelona","population":4920000,"region_capital":true,"min_zoom":4.0,"id":7126},"coordinates":[3177,795]},{"type":"Point","properties":{"name:oc":"Catalonha","name:ar":"\u0643\u062a\u0627\u0644\u0648\u0646\u064a\u0627","name:tt":"\u041a\u0430\u0442\u0430\u043b\u043e\u043d\u0438\u044f","min_zoom":4.0,"name:it":"Catalogna","name:sv":"Katalonien","name:ru":"\u041a\u0430\u0442\u0430\u043b\u043e\u043d\u0438\u044f","name:pl":"Katalonia","id":602512999,"name:vo":"Katalon\u00e4n","kind_detail":"state","name:da":"Catalonien","name:de":"Katalonien","source":"openstreetmap.org","name:fr":"Catalogne","name:fy":"Kataloanje","name:zh":"\u52a0\u6cf0\u7f57\u5c3c\u4e9a","admin_level":"4","name:nl":"Cataloni\u00eb","name:lt":"Katalonija","name:he":"\u05e7\u05d8\u05dc\u05d5\u05e0\u05d9\u05d4","kind":"region","name:lb":"Katalounien","name:sk":"Katal\u00e1nsko","name:io":"Katalunia","name:uk":"\u041a\u0430\u0442\u0430\u043b\u043e\u043d\u0456\u044f","name:be":"\u041a\u0430\u0442\u0430\u043b\u043e\u043d\u0456\u044f","name:ba":"\u041a\u0430\u0442\u0430\u043b\u043e\u043d\u0438\u044f","name:el":"\u039a\u03b1\u03c4\u03b1\u03bb\u03bf\u03bd\u03af\u03b1","name:eo":"Katalunio","name:en":"Catalonia","name":"Catalunya","name:et":"Kataloonia","name:es":"Catalu\u00f1a"},"coordinates":[2293,1711]},{"type":"Point","properties":{"source":"naturalearthdata.com","kind":"locality","name":"Andorra","country_capital":true,"population":53998,"min_zoom":6.0,"id":6160},"coordinates":[2209,2981]},{"type":"Point","properties":{"source":"naturalearthdata.com","kind":"locality","name":"Tarragona","population":126291,"min_zoom":7.0,"id":2129},"coordinates":[1820,275]}]},"transit":{"type":"GeometryCollection","geometries":[{"type":"LineString","properties":{"kind":"train","network":"Cremallera i Funiculars de Montserrat","sort_rank":275,"source":"openstreetmap.org","min_zoom":6.0,"operator":"FGC","id":-1325772,"osm_relation":true,"name":"Cremallera de Montserrat"},"arcs":[123]},{"type":"MultiLineString","properties":{"kind":"train","name":"TER 11 : Toulouse - Foix - Latour-de-Carol","service":"regional","sort_rank":275,"colour":"#e20227","source":"openstreetmap.org","min_zoom":6.0,"network":"TER Midi-Pyr\u00e9n\u00e9es","operator":"SNCF","ref":"TER 11","osm_relation":true,"colour_name":"crimson"},"arcs":[[124],[125],[126],[127],[128],[129],[130],[131],[132],[133],[134],[135],[136],[137],[138],[139],[140]]},{"type":"MultiLineString","properties":{"source":"openstreetmap.org","kind":"train","name":"FC Alca\u00f1iz - Lleida abandoned","sort_rank":275,"min_zoom":6.0,"osm_relation":true},"arcs":[[141],[142]]},{"type":"MultiLineString","properties":{"kind":"train","name":"AVE Madrid - Barcelona","sort_rank":275,"source":"openstreetmap.org","min_zoom":6.0,"operator":"AVE","ref":"AVE","osm_relation":true},"arcs":[[143],[144],[145],[146],[147],[148],[149],[150],[151],[152],[153],[154],[155],[156],[157],[158],[159],[160],[161],[162],[163],[164],[165],[166],[167],[168],[169],[170],[171],[172],[173],[174],[175],[176],[177],[178],[179],[180],[181],[182],[183],[184],[185],[186],[187],[188],[189],[190],[191],[192],[193],[194],[195],[196],[197],[198]]},{"type":"MultiLineString","properties":{"kind":"train","name":"R12: L'Hospitalet de Llobregat - Lleida (per Manresa)","sort_rank":275,"colour":"#FFDD00","source":"openstreetmap.org","min_zoom":6.0,"network":"Rodalies de Catalunya - Mitja dist\u00e0ncia","operator":"Renfe","ref":"R12","osm_relation":true,"colour_name":"gold"},"arcs":[[199],[200],[201],[202],[203],[204],[205],[206],[207],[208],[209],[210],[211],[212],[213],[214],[215],[216],[217],[218],[219],[220],[221],[222],[223],[224],[225],[226],[227],[228],[229],[230]]},{"type":"MultiLineString","properties":{"kind":"train","name":"R14: Barcelona - Estaci\u00f3 de Fran\u00e7a - Lleida-Pirineus (via Reus)","sort_rank":275,"colour":"#4E53AB","source":"openstreetmap.org","min_zoom":6.0,"operator":"RENFE","ref":"R14","osm_relation":true,"colour_name":"steelblue"},"arcs":[[231],[232],[233],[234],[235],[236],[237],[238],[239],[240],[241],[242],[243],[244],[245],[246],[247],[248],[249],[250],[251],[252],[253],[254],[255],[256]]},{"type":"LineString","properties":{"osm_relation":true,"source":"openstreetmap.org","kind":"train","name":"Alvia 00664","sort_rank":275,"min_zoom":6.0,"operator":"Renfe"},"arcs":[257]},{"type":"MultiLineString","properties":{"kind":"train","name":"R16: Tortosa - Barcelona Estaci\u00f3 de Fran\u00e7a","sort_rank":275,"colour":"B30437","source":"openstreetmap.org","min_zoom":6.0,"network":"Rodalies de Catalunya - Mitja dist\u00e0ncia","operator":"RENFE","osm_relation":true,"colour_name":"brown"},"arcs":[[258],[259],[260],[261],[262],[263],[264],[265],[266],[267],[268],[269],[270],[271],[272],[273],[274],[275]]},{"type":"MultiLineString","properties":{"kind":"train","name":"R14: Lleida-Pirineus (via Reus) - Barcelona-Estaci\u00f3 de Fran\u00e7a","sort_rank":275,"colour":"#4E53AB","source":"openstreetmap.org","min_zoom":6.0,"operator":"RENFE","ref":"R14","osm_relation":true,"colour_name":"steelblue"},"arcs":[[276],[277],[278],[279],[280],[281],[282],[283],[284],[285],[286],[287],[288],[289],[290],[291],[292],[293],[294],[295],[296],[297],[298],[299],[300],[301],[302],[303],[304],[305]]},{"type":"MultiLineString","properties":{"kind":"train","name":"R11: Portbou - Barcelona - Sants Estaci\u00f3","sort_rank":275,"colour":"#002369","source":"openstreetmap.org","min_zoom":6.0,"network":"Rodalies de Catalunya - Mitja dist\u00e0ncia","operator":"RENFE","ref":"R11","osm_relation":true,"colour_name":"navy"},"arcs":[[306],[307],[308],[309],[310],[311],[312],[313],[314],[315],[316],[317],[318],[319]]},{"type":"MultiLineString","properties":{"kind":"train","network":"Rodalies de Catalunya - Mitja dist\u00e0ncia","sort_rank":275,"colour":"#FFDD00","name":"R12: Lleida - L'Hospitalet de Llobregat (via Manresa)","source":"openstreetmap.org","min_zoom":6.0,"operator":"Renfe","ref":"R12","osm_relation":true,"colour_name":"gold"},"arcs":[[320],[321],[322],[323],[324],[325],[326],[327],[328],[329],[330],[331],[332],[333],[334],[335],[336],[337],[338]]},{"type":"MultiLineString","properties":{"kind":"train","network":"TER Languedoc-Roussillon","service":"regional;touristic","sort_rank":275,"colour":"#edc700","description":"Correspondance \u00e0 Villefranche-Vernet-les-Bains avec le r\u00e9seau classique \u00e0 destination de Perpignan","source":"openstreetmap.org","min_zoom":6.0,"osm_relation":true,"operator":"SNCF","colour_name":"gold","ref":"TER 6","name:ca":"Tren Groc","name":"Le Train Jaune"},"arcs":[[339],[340],[341],[342],[343],[344],[345],[346],[347],[348],[349],[350],[351],[352],[353],[354],[355],[356],[357],[358],[359],[360],[361],[362],[363],[364],[365],[366]]},{"type":"MultiLineString","properties":{"kind":"train","name":"TER 6 : Perpignan - Villefranche-Vernet-les-Bains","service":"regional","sort_rank":275,"colour":"#e9980b","description":"Est pronlong\u00e9 par le train jaune jusqu'\u00e0 Latour-de-Carol","source":"openstreetmap.org","min_zoom":6.0,"osm_relation":true,"operator":"SNCF","ref":"TER 6","colour_name":"orange","network":"TER Languedoc-Roussillon"},"arcs":[[367],[368],[369],[370],[371],[372],[373],[374],[375],[376],[377],[378],[379],[380]]},{"type":"MultiLineString","properties":{"kind":"train","name":"R15: Barcelona-Estaci\u00f3 de Fran\u00e7a - Riba-roja d'Ebre (via Reus)","sort_rank":275,"colour":"#9A836C","source":"openstreetmap.org","min_zoom":6.0,"operator":"RENFE","ref":"R15","osm_relation":true,"colour_name":"grey"},"arcs":[[381],[382],[383],[384],[385],[386],[387],[388],[389],[390],[391],[392],[393],[394],[395],[396],[397],[398],[399],[400],[401]]},{"type":"MultiLineString","properties":{"kind":"train","name":"R11: Barcelona - Sants Estaci\u00f3 - Portbou","sort_rank":275,"colour":"#002369","source":"openstreetmap.org","min_zoom":6.0,"network":"Rodalies de Catalunya - Mitja dist\u00e0ncia","operator":"RENFE","ref":"R11","osm_relation":true,"colour_name":"navy"},"arcs":[[402],[403],[404],[405],[406],[407],[408],[409],[410],[411],[412],[413],[414],[415],[416]]},{"type":"MultiLineString","properties":{"kind":"train","name":"R16: Barcelona Estaci\u00f3 de Fran\u00e7a - Ulldecona - Alcanar - La S\u00e8nia","sort_rank":275,"colour":"#B30437","source":"openstreetmap.org","min_zoom":6.0,"network":"Rodalies de Catalunya - Mitja dist\u00e0ncia","operator":"RENFE","ref":"R16","osm_relation":true,"colour_name":"brown"},"arcs":[[417],[418],[419],[420],[421],[422],[423],[424],[425],[426],[427],[428],[429],[430],[431]]},{"type":"MultiLineString","properties":{"kind":"train","name":"R15: Riba-roja d\u2019Ebre (via Reus) - Barcelona Estaci\u00f3 de Fran\u00e7a","sort_rank":275,"source":"openstreetmap.org","min_zoom":6.0,"operator":"Renfe","ref":"R15","osm_relation":true,"network":"Rodalies de Catalunya - Mitja dist\u00e0ncia"},"arcs":[[432],[433],[434],[435],[436],[437],[438],[439],[440],[441],[442],[443],[444],[445],[446],[447],[448],[449],[450],[451],[452],[453],[454],[455],[456]]},{"type":"LineString","properties":{"osm_relation":true,"source":"openstreetmap.org","kind":"train","name":"Alvia 00661","sort_rank":275,"min_zoom":6.0,"operator":"Renfe"},"arcs":[457]},{"type":"MultiLineString","properties":{"kind":"train","name":"R16: Barcelona Estaci\u00f3 de Fran\u00e7a - Tortosa","sort_rank":275,"colour":"#B30437","source":"openstreetmap.org","min_zoom":6.0,"network":"Rodalies de Catalunya - Mitja dist\u00e0ncia","operator":"RENFE","ref":"R16","osm_relation":true,"colour_name":"brown"},"arcs":[[458],[459],[460],[461],[462],[463],[464],[465],[466],[467],[468],[469],[470],[471],[472]]},{"type":"MultiLineString","properties":{"kind":"train","name":"34: Barcelona-Estaci\u00f3 de Fran\u00e7a - Zaragoza Delicias (via Flix)","sort_rank":275,"source":"openstreetmap.org","min_zoom":6.0,"operator":"RENFE","ref":"34","osm_relation":true},"arcs":[[473],[474],[475],[476],[477],[478],[479],[480],[481],[482],[483],[484],[485],[486],[487],[488],[489],[490],[491],[492]]},{"type":"LineString","properties":{"osm_relation":true,"source":"openstreetmap.org","kind":"train","name":"Alvia 00626","sort_rank":275,"min_zoom":6.0,"operator":"Renfe"},"arcs":[493]},{"type":"MultiLineString","properties":{"kind":"train","network":"Rodalies de Catalunya","sort_rank":275,"colour":"#A9A8A7","name":"R6 Igualada","source":"openstreetmap.org","min_zoom":6.0,"operator":"FGC","ref":"R6","osm_relation":true,"colour_name":"darkseagreen"},"arcs":[[494],[495],[496],[497],[498],[499],[500],[501],[502],[503],[504],[505],[506],[507],[508],[509],[510],[511],[512],[513],[514],[515],[516],[517],[518],[519],[520],[521],[522],[523],[524],[525],[526],[527],[528],[529],[530],[531],[532],[533],[534],[535],[536],[537],[538],[539],[540],[541],[542],[543],[544],[545],[546],[547],[548],[549],[550],[551],[552],[553],[554],[555],[556],[557],[558],[559],[560],[561],[562],[563],[564],[565],[566],[567],[568],[569],[570],[571],[572],[573],[574],[575],[576],[577],[578],[579],[580],[581],[582],[583],[584],[585],[586],[587],[588],[589],[590],[591],[592],[593],[594],[595],[596],[597],[598],[599],[600],[601],[602],[603],[604],[605],[606],[607],[608],[609],[610]]},{"type":"MultiLineString","properties":{"kind":"train","network":"Rodalies de Catalunya","sort_rank":275,"colour":"#5B5958","name":"R60 Igualada","source":"openstreetmap.org","min_zoom":6.0,"operator":"FGC","ref":"R60","osm_relation":true,"colour_name":"darkgrey"},"arcs":[[611],[612],[613],[614],[615],[616],[617],[618],[619],[620],[621],[622],[623],[624],[625],[626],[627],[628],[629],[630],[631],[632],[633],[634],[635],[636],[637],[638],[639],[640],[641],[642],[643],[644],[645],[646],[647],[648],[649],[650],[651],[652],[653],[654],[655],[656],[657],[658],[659],[660],[661],[662],[663],[664],[665],[666],[667],[668],[669],[670],[671],[672],[673],[674],[675],[676],[677],[678],[679],[680],[681],[682],[683],[684],[685],[686],[687],[688],[689],[690],[691],[692],[693],[694],[695],[696],[697],[698],[699],[700],[701],[702],[703],[704],[705],[706],[707],[708],[709],[710],[711],[712],[713],[714],[715],[716],[717],[718],[719],[720],[721],[722],[723],[724],[725],[726]]},{"type":"MultiLineString","properties":{"kind":"train","name":"R13: Lleida-Pirineus - Barcelona-Estaci\u00f3 de Fran\u00e7a via Valls","sort_rank":275,"colour":"#ED3896","source":"openstreetmap.org","min_zoom":6.0,"network":"Rodalies de Catalunya - Mitja dist\u00e0ncia","operator":"RENFE","ref":"R13","osm_relation":true,"colour_name":"hotpink"},"arcs":[[727],[728],[729],[730],[731],[732],[733],[734],[735],[736],[737],[738],[739],[740],[741],[742],[743],[744],[745],[746],[747],[748]]},{"type":"MultiLineString","properties":{"kind":"train","name":"R13: Barcelona-Estaci\u00f3 de Fran\u00e7a - Lleida-Pirineus via Valls","sort_rank":275,"colour":"#ED3896","source":"openstreetmap.org","min_zoom":6.0,"network":"Rodalies de Catalunya - Mitja dist\u00e0ncia","operator":"RENFE","ref":"R13","osm_relation":true,"colour_name":"hotpink"},"arcs":[[749],[750],[751],[752],[753],[754],[755],[756],[757],[758],[759],[760],[761],[762],[763],[764],[765],[766],[767],[768],[769]]},{"type":"MultiLineString","properties":{"source":"openstreetmap.org","kind":"train","name":"L\u00ednea convencional Zaragoza - Lleida","sort_rank":275,"min_zoom":6.0,"osm_relation":true},"arcs":[[770],[771],[772]]},{"type":"MultiLineString","properties":{"kind":"train","name":"R16: Ulldecona - Alcanar - La S\u00e9nia - Barcelona Estaci\u00f3 de Fran\u00e7a","sort_rank":275,"colour":"B30437","source":"openstreetmap.org","min_zoom":6.0,"network":"Rodalies de Catalunya - Mitja dist\u00e0ncia","operator":"Renfe","osm_relation":true,"colour_name":"brown"},"arcs":[[773],[774],[775],[776],[777],[778],[779],[780],[781],[782],[783],[784],[785],[786],[787],[788],[789],[790]]},{"type":"MultiLineString","properties":{"kind":"train","network":"TGV Europe","service":"international","sort_rank":275,"source":"openstreetmap.org","min_zoom":5.0,"operator":"SNCF-Renfe","ref":"TGV","osm_relation":true,"name":"TGV : Marseille \u2212 Madrid"},"arcs":[[791],[792],[793],[794],[795],[796],[797],[798],[799],[800],[801],[802],[803],[804],[805],[806],[807],[808],[809],[810],[811],[812],[813],[814],[815],[816],[817],[818]]},{"type":"MultiLineString","properties":{"osm_relation":true,"source":"openstreetmap.org","kind":"train","name":"Lleida - Manresa - Barcelona","sort_rank":275,"min_zoom":6.0,"operator":"Adif"},"arcs":[[819],[820],[821]]},{"type":"MultiLineString","properties":{"kind":"train","name":"TER 11 : Carcassone - Limoux - Quillan","service":"regional","sort_rank":275,"colour":"#2f3f72","source":"openstreetmap.org","min_zoom":6.0,"network":"TER Languedoc-Roussillon","operator":"SNCF","ref":"TER 11","osm_relation":true,"colour_name":"darkgrey"},"arcs":[[822],[823]]},{"type":"MultiLineString","properties":{"kind":"train","network":"TGV Europe","service":"international","sort_rank":275,"min_zoom":5.0,"source":"openstreetmap.org","name:fr":"TGV : Lyon \u2212 Barcelone","operator":"SNCF-Renfe","ref":"TGV","osm_relation":true,"name":"TGV : Lyon \u2212 Barcelona"},"arcs":[[824],[825],[826],[827],[828],[829],[830],[831],[832],[833],[834],[835],[836],[837],[838]]},{"type":"LineString","properties":{"source":"openstreetmap.org","kind":"train","sort_rank":275,"min_zoom":6.0,"osm_relation":true,"id":-6085893},"arcs":[839]},{"type":"MultiLineString","properties":{"kind":"train","network":"TGV Europe","service":"international","sort_rank":275,"source":"openstreetmap.org","min_zoom":5.0,"operator":"SNCF - Renfe","ref":"TGV","osm_relation":true,"name":"TGV : Paris \u2212 Barcelone"},"arcs":[[840],[841],[842],[843],[844],[845],[846],[847],[848],[849],[850],[851],[852],[853],[854]]},{"type":"MultiLineString","properties":{"kind":"train","name":"L10","sort_rank":275,"source":"openstreetmap.org","min_zoom":6.0,"operator":"TMB","osm_relation":true,"network":"Metro de Barcelona"},"arcs":[[855],[856],[857]]},{"type":"MultiLineString","properties":{"kind":"train","name":"IC 410 : Paris \u2212 Andorre \u2212 Latour-de-Carol","service":"national","sort_rank":275,"colour":"#92004c","source":"openstreetmap.org","min_zoom":6.0,"network":"Intercit\u00e9s","operator":"SNCF","ref":"IC 410","osm_relation":true,"colour_name":"purple"},"arcs":[[858],[859],[860],[861],[862],[863],[864],[865],[866],[867],[868],[869],[870],[871],[872],[873],[874]]},{"type":"MultiLineString","properties":{"source":"openstreetmap.org","kind":"train","name":"Ferrocarril Cerb\u00e8re-Barcelona","sort_rank":275,"min_zoom":6.0,"osm_relation":true},"arcs":[[875],[876],[877],[878],[879],[880],[881],[882],[883],[884]]},{"type":"MultiLineString","properties":{"kind":"train","network":"Rodalies de Catalunya","sort_rank":275,"colour":"#02678B","name":"R50 Manresa","source":"openstreetmap.org","min_zoom":6.0,"operator":"FGC","ref":"R50","osm_relation":true,"colour_name":"teal"},"arcs":[[885],[886],[887],[888],[889],[890],[891],[892],[893],[894],[895],[896],[897],[898],[899],[900],[901],[902],[903],[904],[905],[906],[907],[908],[909],[910],[911],[912],[913],[914],[915],[916],[917],[918],[919],[920],[921],[922],[923],[924],[925],[926],[927],[928],[929],[930],[931],[932],[933],[934],[935],[936],[937],[938],[939],[940],[941],[942],[943],[944],[945],[946],[947],[948],[949],[950],[951],[952],[953],[954],[955],[956],[957],[958],[959],[960],[961],[962],[963],[964],[965],[966],[967],[968],[969],[970],[971],[972],[973],[974],[975],[976],[977],[978],[979],[980],[981],[982],[983],[984],[985],[986],[987],[988],[989],[990],[991],[992],[993],[994],[995],[996],[997],[998],[999],[1000]]},{"type":"MultiLineString","properties":{"kind":"train","network":"TGV","service":"national","sort_rank":275,"colour":"#e55c00","name":"TGV 752 : Lyon \u2212 Montpellier \u2212 Toulouse \u2212 Bordeaux \/ Perpignan \u2212 Barcelone","source":"openstreetmap.org","min_zoom":6.0,"operator":"SNCF","ref":"TGV 752","osm_relation":true,"colour_name":"orangered"},"arcs":[[1001],[1002],[1003],[1004],[1005],[1006],[1007],[1008],[1009],[1010],[1011],[1012],[1013],[1014],[1015],[1016]]},{"type":"MultiLineString","properties":{"kind":"train","network":"TGV Europe","service":"international","sort_rank":275,"min_zoom":5.0,"source":"openstreetmap.org","name:fr":"TGV : Toulouse \u2212 Barcelone","operator":"SNCF-Renfe","ref":"TGV","osm_relation":true,"name":"TGV : Toulouse \u2212 Barcelona"},"arcs":[[1017],[1018],[1019],[1020],[1021],[1022],[1023],[1024],[1025],[1026],[1027],[1028],[1029],[1030],[1031],[1032]]},{"type":"MultiLineString","properties":{"kind":"train","name":"34: Zaragoza Delicias - Barcelona-Estaci\u00f3 de Fran\u00e7a (via Flix)","sort_rank":275,"source":"openstreetmap.org","min_zoom":6.0,"operator":"RENFE","ref":"34","osm_relation":true},"arcs":[[1033],[1034],[1035],[1036],[1037],[1038],[1039],[1040],[1041],[1042],[1043],[1044],[1045],[1046],[1047],[1048],[1049],[1050],[1051],[1052],[1053]]},{"type":"LineString","properties":{"osm_relation":true,"source":"openstreetmap.org","kind":"train","name":"Alvia 00621","sort_rank":275,"min_zoom":6.0,"operator":"Renfe"},"arcs":[1054]},{"type":"MultiLineString","properties":{"kind":"train","network":"Rodalies de Catalunya","sort_rank":275,"colour":"#3EB2C4","name":"R5 Manresa","source":"openstreetmap.org","min_zoom":6.0,"operator":"FGC","ref":"R5","osm_relation":true,"colour_name":"mediumturquoise"},"arcs":[[1055],[1056],[1057],[1058],[1059],[1060],[1061],[1062],[1063],[1064],[1065],[1066],[1067],[1068],[1069],[1070],[1071],[1072],[1073],[1074],[1075],[1076],[1077],[1078],[1079],[1080],[1081],[1082],[1083],[1084],[1085],[1086],[1087],[1088],[1089],[1090],[1091],[1092],[1093],[1094],[1095],[1096],[1097],[1098],[1099],[1100],[1101],[1102],[1103],[1104],[1105],[1106],[1107],[1108],[1109],[1110],[1111],[1112],[1113],[1114],[1115],[1116],[1117],[1118],[1119],[1120],[1121],[1122],[1123],[1124],[1125],[1126],[1127],[1128],[1129],[1130],[1131],[1132],[1133],[1134],[1135],[1136],[1137],[1138],[1139],[1140],[1141],[1142],[1143],[1144],[1145],[1146],[1147],[1148],[1149],[1150],[1151],[1152],[1153],[1154],[1155],[1156],[1157],[1158],[1159],[1160],[1161],[1162],[1163],[1164],[1165],[1166],[1167],[1168],[1169],[1170],[1171]]}]},"pois":{"type":"GeometryCollection","geometries":[{"type":"Point","properties":{"kind":"nature_reserve","protect_class":"2","area":754565000,"source":"openstreetmap.org","min_zoom":7.51,"name:es":"Parque natural de Cad\u00ed-Moixer\u00f3","tier":2,"id":-6014910,"osm_relation":true,"name":"Parc Natural del Cad\u00ed-Moixer\u00f3"},"coordinates":[2430,2566]},{"type":"Point","properties":{"kind":"protected_area","protect_class":"5","area":2558210000,"source":"openstreetmap.org","min_zoom":7.0,"tier":2,"id":-5488773,"osm_relation":true,"name":"Parc naturel r\u00e9gional des Pyr\u00e9n\u00e9es catalanes"},"coordinates":[3061,3037]},{"type":"Point","properties":{"kind":"nature_reserve","protect_class":"97","area":691888000,"source":"openstreetmap.org","min_zoom":7.57,"tier":2,"id":-4613952,"osm_relation":true,"name":"Alta Garrotxa-Mass\u00eds de les Salines"},"coordinates":[3789,2646]},{"type":"Point","properties":{"kind":"protected_area","protect_class":"5","short_name":"PNR des Pyr\u00e9n\u00e9es Ari\u00e9geoises","area":4575410000,"source":"openstreetmap.org","min_zoom":7.0,"tier":2,"id":-3974492,"osm_relation":true,"name":"Parc naturel r\u00e9gional des Pyr\u00e9n\u00e9es Ari\u00e9geoises"},"coordinates":[1784,3725]},{"type":"Point","properties":{"kind":"nature_reserve","name:en":"Alt Pirineu Natural Park","protect_class":"2","area":1308180000,"name:de":"Naturpark Hohe Pyren\u00e4en","source":"openstreetmap.org","min_zoom":7.11,"name:es":"Parque Natural del Alto Pirineo","tier":2,"id":-2800131,"osm_relation":true,"name":"Parc Natural de l'Alt Pirineu"},"coordinates":[1931,3102]},{"type":"Point","properties":{"kind":"nature_reserve","protect_class":"3","area":559352000,"source":"openstreetmap.org","min_zoom":7.73,"tier":2,"id":-2064705,"osm_relation":true,"name":"Parc Natural del Montseny"},"coordinates":[3507,1555]},{"type":"Point","properties":{"kind":"national_park","protect_class":"2","short_name":"PNP","area":849515000,"name:de":"Nationalpark Pyren\u00e4en West","source":"openstreetmap.org","min_zoom":5.92,"name:es":"Parque nacional de los Pirineos","tier":1,"id":-1024513,"osm_relation":true,"name":"Parc National des Pyr\u00e9n\u00e9es Occidentales (C\u0153ur)"},"coordinates":[161,3558]},{"type":"Point","properties":{"kind":"protected_area","protect_class":"5","area":2015240000,"source":"openstreetmap.org","min_zoom":7.0,"tier":2,"id":-1024509,"osm_relation":true,"name":"Aire d'adh\u00e9sion du Parc national des Pyr\u00e9n\u00e9es occidentales"},"coordinates":[243,3718]},{"type":"Point","properties":{"kind":"nature_reserve","protect_class":"3","area":624197000,"source":"openstreetmap.org","min_zoom":7.65,"tier":2,"id":49134015,"name":"Parque Natural Posets-Maladeta"},"coordinates":[775,3271]}]},"boundaries":{"type":"GeometryCollection","geometries":[{"type":"MultiLineString","properties":{"source":"naturalearthdata.com","kind":"country","sort_rank":262,"kind_detail":"2","min_zoom":0.0,"id":168},"arcs":[[0],[1]]},{"type":"MultiLineString","properties":{"source":"naturalearthdata.com","kind":"country","sort_rank":262,"kind_detail":"2","min_zoom":0.0,"id":165},"arcs":[[2],[3],[4],[5],[6],[7],[8],[9],[10],[11],[12],[13],[14],[15],[16],[17]]},{"type":"MultiLineString","properties":{"source":"naturalearthdata.com","kind":"country","sort_rank":262,"kind_detail":"2","min_zoom":0.0,"id":166},"arcs":[[18],[19],[20],[21]]},{"type":"MultiLineString","properties":{"source":"naturalearthdata.com","kind":"country","sort_rank":262,"kind_detail":"2","min_zoom":0.0,"id":167},"arcs":[[22],[23],[24],[25],[26],[27],[28],[29],[30],[31]]},{"type":"MultiLineString","properties":{"source":"naturalearthdata.com","kind":"country","sort_rank":262,"kind_detail":"2","min_zoom":0.0,"id":169},"arcs":[[32],[33],[34],[35],[36],[37]]},{"type":"MultiLineString","properties":{"source":"naturalearthdata.com","kind":"region","name":"Haute-Garonne - Hautes-Pyr\u00e9n\u00e9es","sort_rank":256,"kind_detail":"4","min_zoom":5.5,"id":8782},"arcs":[[38],[39],[40],[41],[42]]},{"type":"LineString","properties":{"source":"naturalearthdata.com","kind":"region","name":"L\u00e9rida - L\u00e9rida","sort_rank":256,"kind_detail":"4","min_zoom":5.5,"id":8788},"arcs":[43]},{"type":"MultiLineString","properties":{"source":"naturalearthdata.com","kind":"region","name":"Ari\u00e8ge - Haute-Garonne","sort_rank":256,"kind_detail":"4","min_zoom":5.5,"id":8789},"arcs":[[44],[45],[46]]},{"type":"MultiLineString","properties":{"source":"naturalearthdata.com","kind":"region","name":"Aude - Pyr\u00e9n\u00e9es-Orientales","sort_rank":256,"kind_detail":"4","min_zoom":5.5,"id":8834},"arcs":[[47],[48],[49],[50],[51],[52]]},{"type":"MultiLineString","properties":{"source":"naturalearthdata.com","kind":"macroregion","name":"Aude - Ari\u00e8ge","sort_rank":257,"kind_detail":"3","min_zoom":3.0,"id":8967},"arcs":[[53],[54],[55],[56],[57]]},{"type":"MultiLineString","properties":{"source":"naturalearthdata.com","kind":"macroregion","name":"Pyr\u00e9n\u00e9es-Orientales - Ari\u00e8ge","sort_rank":257,"kind_detail":"3","min_zoom":3.0,"id":8999},"arcs":[[58],[59],[60],[61],[62]]},{"type":"MultiLineString","properties":{"source":"naturalearthdata.com","kind":"region","name":"Barcelona - Gerona","sort_rank":256,"kind_detail":"4","min_zoom":5.5,"id":9440},"arcs":[[63],[64],[65],[66],[67],[68],[69],[70],[71],[72],[73],[74],[75],[76],[77],[78],[79],[80],[81],[82]]},{"type":"LineString","properties":{"source":"naturalearthdata.com","kind":"region","name":"Gerona - L\u00e9rida","sort_rank":256,"kind_detail":"4","min_zoom":5.5,"id":9447},"arcs":[83]},{"type":"MultiLineString","properties":{"source":"naturalearthdata.com","kind":"region","name":"Barcelona - L\u00e9rida","sort_rank":256,"kind_detail":"4","min_zoom":5.5,"id":9448},"arcs":[[84],[85],[86],[87],[88],[89],[90],[91],[92]]},{"type":"MultiLineString","properties":{"source":"naturalearthdata.com","kind":"region","name":"Tarragona - L\u00e9rida","sort_rank":256,"kind_detail":"4","min_zoom":5.5,"id":9470},"arcs":[[93],[94],[95],[96],[97],[98],[99],[100],[101],[102],[103],[104],[105]]},{"type":"MultiLineString","properties":{"source":"naturalearthdata.com","kind":"region","name":"Barcelona - Tarragona","sort_rank":256,"kind_detail":"4","min_zoom":5.5,"id":9471},"arcs":[[106],[107]]},{"type":"MultiLineString","properties":{"source":"naturalearthdata.com","kind":"region","name":"Teruel - Zaragoza","sort_rank":256,"kind_detail":"4","min_zoom":5.5,"id":9492},"arcs":[[108],[109],[110],[111]]},{"type":"MultiLineString","properties":{"source":"naturalearthdata.com","kind":"region","name":"Huesca - Zaragoza","sort_rank":256,"kind_detail":"4","min_zoom":5.5,"id":9493},"arcs":[[112],[113],[114],[115],[116]]},{"type":"MultiLineString","properties":{"source":"naturalearthdata.com","kind":"macroregion","name":"Huesca - L\u00e9rida","sort_rank":257,"kind_detail":"3","min_zoom":3.0,"id":9553},"arcs":[[117],[118],[119]]},{"type":"LineString","properties":{"source":"naturalearthdata.com","kind":"macroregion","name":"Teruel - Tarragona","sort_rank":257,"kind_detail":"3","min_zoom":3.0,"id":9554},"arcs":[120]},{"type":"LineString","properties":{"source":"naturalearthdata.com","kind":"macroregion","name":"Zaragoza - L\u00e9rida","sort_rank":257,"kind_detail":"3","min_zoom":3.0,"id":9555},"arcs":[121]},{"type":"LineString","properties":{"source":"naturalearthdata.com","kind":"macroregion","name":"Zaragoza - Tarragona","sort_rank":257,"kind_detail":"3","min_zoom":3.0,"id":9556},"arcs":[122]}]},"roads":{"type":"GeometryCollection","geometries":[{"type":"LineString","properties":{"source":"naturalearthdata.com","kind":"highway","kind_detail":"motorway","sort_rank":383,"landuse_kind":"urban_area","min_zoom":3.0,"id":4294},"arcs":[1174]},{"type":"LineString","properties":{"kind":"highway","network":"e-road","sort_rank":383,"kind_detail":"motorway","source":"naturalearthdata.com","min_zoom":3.0,"all_networks":["e-road"],"landuse_kind":"urban_area","shield_text":"15","ref":"15","id":4295,"all_shield_texts":["15"]},"arcs":[1175]},{"type":"MultiLineString","properties":{"kind":"highway","network":"e-road","sort_rank":383,"kind_detail":"motorway","source":"naturalearthdata.com","min_zoom":3.0,"all_networks":["e-road"],"landuse_kind":"urban_area","shield_text":"15","ref":"15","id":4298,"all_shield_texts":["15"]},"arcs":[[1176],[1177]]},{"type":"LineString","properties":{"kind":"highway","network":"e-road","sort_rank":383,"kind_detail":"motorway","source":"naturalearthdata.com","min_zoom":3.0,"all_networks":["e-road"],"shield_text":"15","ref":"15","id":4298,"all_shield_texts":["15"]},"arcs":[1178]},{"type":"LineString","properties":{"kind":"highway","network":"e-road","sort_rank":383,"kind_detail":"motorway","source":"naturalearthdata.com","min_zoom":3.0,"all_networks":["e-road"],"landuse_kind":"urban_area","shield_text":"90","ref":"90","id":4307,"all_shield_texts":["90"]},"arcs":[1179]},{"type":"MultiLineString","properties":{"kind":"highway","network":"e-road","sort_rank":383,"kind_detail":"motorway","source":"naturalearthdata.com","min_zoom":3.0,"all_networks":["e-road"],"landuse_kind":"urban_area","shield_text":"90","ref":"90","id":4307,"all_shield_texts":["90"]},"arcs":[[1180],[1181]]},{"type":"MultiLineString","properties":{"kind":"highway","network":"e-road","sort_rank":383,"kind_detail":"motorway","source":"naturalearthdata.com","min_zoom":3.0,"all_networks":["e-road"],"shield_text":"90","ref":"90","id":4307,"all_shield_texts":["90"]},"arcs":[[1182],[1183],[1184]]},{"type":"MultiLineString","properties":{"kind":"highway","network":"e-road","sort_rank":383,"kind_detail":"motorway","source":"naturalearthdata.com","min_zoom":3.0,"all_networks":["e-road"],"landuse_kind":"urban_area","shield_text":"15","ref":"15","id":4309,"all_shield_texts":["15"]},"arcs":[[1185],[1186],[1187]]},{"type":"MultiLineString","properties":{"kind":"highway","network":"e-road","sort_rank":383,"kind_detail":"motorway","source":"naturalearthdata.com","min_zoom":3.0,"all_networks":["e-road"],"shield_text":"15","ref":"15","id":4309,"all_shield_texts":["15"]},"arcs":[[1188],[1189]]},{"type":"LineString","properties":{"kind":"highway","network":"e-road","sort_rank":383,"kind_detail":"motorway","source":"naturalearthdata.com","min_zoom":3.0,"all_networks":["e-road"],"shield_text":"90","ref":"90","id":4310,"all_shield_texts":["90"]},"arcs":[1190]},{"type":"MultiLineString","properties":{"kind":"highway","network":"e-road","sort_rank":383,"kind_detail":"motorway","source":"naturalearthdata.com","min_zoom":6.0,"all_networks":["e-road"],"landuse_kind":"nature_reserve","shield_text":"9","ref":"9","id":5213,"all_shield_texts":["9"]},"arcs":[[1191],[1192]]},{"type":"MultiLineString","properties":{"kind":"highway","network":"e-road","sort_rank":383,"kind_detail":"motorway","source":"naturalearthdata.com","min_zoom":6.0,"all_networks":["e-road"],"landuse_kind":"urban_area","shield_text":"9","ref":"9","id":5213,"all_shield_texts":["9"]},"arcs":[[1193],[1194],[1195],[1196]]},{"type":"LineString","properties":{"kind":"highway","network":"e-road","sort_rank":383,"kind_detail":"motorway","source":"naturalearthdata.com","min_zoom":6.0,"all_networks":["e-road"],"landuse_kind":"urban_area","shield_text":"9","ref":"9","id":5213,"all_shield_texts":["9"]},"arcs":[1197]},{"type":"MultiLineString","properties":{"kind":"highway","network":"e-road","sort_rank":383,"kind_detail":"motorway","source":"naturalearthdata.com","min_zoom":6.0,"all_networks":["e-road"],"shield_text":"9","ref":"9","id":5213,"all_shield_texts":["9"]},"arcs":[[1198],[1199]]},{"type":"MultiLineString","properties":{"kind":"highway","network":"e-road","sort_rank":383,"kind_detail":"motorway","source":"naturalearthdata.com","min_zoom":6.0,"all_networks":["e-road"],"landuse_kind":"nature_reserve","shield_text":"15","ref":"15","id":5483,"all_shield_texts":["15"]},"arcs":[[1200],[1201]]},{"type":"MultiLineString","properties":{"kind":"highway","network":"e-road","sort_rank":383,"kind_detail":"motorway","source":"naturalearthdata.com","min_zoom":6.0,"all_networks":["e-road"],"landuse_kind":"urban_area","shield_text":"15","ref":"15","id":5483,"all_shield_texts":["15"]},"arcs":[[1202],[1203],[1204]]},{"type":"LineString","properties":{"kind":"major_road","network":"e-road","sort_rank":380,"kind_detail":"primary","source":"naturalearthdata.com","min_zoom":6.0,"landuse_kind":"nature_reserve","shield_text":"9","ref":"9","id":5544},"arcs":[1205]},{"type":"LineString","properties":{"kind":"major_road","network":"e-road","sort_rank":380,"kind_detail":"primary","source":"naturalearthdata.com","min_zoom":6.0,"landuse_kind":"urban_area","shield_text":"9","ref":"9","id":5544},"arcs":[1206]},{"type":"MultiLineString","properties":{"kind":"major_road","network":"e-road","sort_rank":380,"kind_detail":"primary","source":"naturalearthdata.com","min_zoom":6.0,"shield_text":"9","ref":"9","id":5544},"arcs":[[1207],[1208]]},{"type":"LineString","properties":{"kind":"major_road","network":"e-road","sort_rank":380,"kind_detail":"primary","source":"naturalearthdata.com","min_zoom":6.0,"landuse_kind":"protected_area","shield_text":"9","ref":"9","id":5578},"arcs":[1209]},{"type":"MultiLineString","properties":{"kind":"major_road","network":"e-road","sort_rank":380,"kind_detail":"primary","source":"naturalearthdata.com","min_zoom":6.0,"landuse_kind":"protected_area","shield_text":"9","ref":"9","id":5578},"arcs":[[1210],[1211],[1212],[1213]]},{"type":"LineString","properties":{"kind":"major_road","network":"e-road","sort_rank":380,"kind_detail":"primary","source":"naturalearthdata.com","min_zoom":6.0,"landuse_kind":"urban_area","shield_text":"9","ref":"9","id":5578},"arcs":[1214]},{"type":"MultiLineString","properties":{"kind":"major_road","network":"e-road","sort_rank":380,"kind_detail":"primary","source":"naturalearthdata.com","min_zoom":6.0,"shield_text":"9","ref":"9","id":5578},"arcs":[[1215],[1216],[1217],[1218],[1219],[1220]]},{"type":"LineString","properties":{"source":"naturalearthdata.com","kind":"highway","kind_detail":"motorway","sort_rank":383,"landuse_kind":"urban_area","min_zoom":7.0,"id":5823},"arcs":[1221]},{"type":"LineString","properties":{"source":"naturalearthdata.com","kind":"highway","kind_detail":"motorway","sort_rank":383,"landuse_kind":"urban_area","min_zoom":7.0,"id":5823},"arcs":[1222]},{"type":"LineString","properties":{"source":"naturalearthdata.com","kind":"highway","kind_detail":"motorway","sort_rank":383,"landuse_kind":"urban_area","min_zoom":7.0,"id":5823},"arcs":[1223]},{"type":"MultiLineString","properties":{"source":"naturalearthdata.com","kind":"highway","sort_rank":383,"kind_detail":"motorway","min_zoom":7.0,"id":5823},"arcs":[[1224],[1225],[1226]]},{"type":"MultiLineString","properties":{"source":"naturalearthdata.com","kind":"highway","kind_detail":"motorway","sort_rank":383,"landuse_kind":"nature_reserve","min_zoom":7.0,"id":5824},"arcs":[[1227],[1228]]},{"type":"MultiLineString","properties":{"source":"naturalearthdata.com","kind":"highway","kind_detail":"motorway","sort_rank":383,"landuse_kind":"urban_area","min_zoom":7.0,"id":5824},"arcs":[[1229],[1230],[1231]]},{"type":"MultiLineString","properties":{"source":"naturalearthdata.com","kind":"highway","sort_rank":383,"kind_detail":"motorway","min_zoom":7.0,"id":5824},"arcs":[[1232],[1233],[1234]]},{"type":"MultiLineString","properties":{"source":"naturalearthdata.com","kind":"highway","kind_detail":"motorway","sort_rank":383,"landuse_kind":"nature_reserve","min_zoom":7.0,"id":5825},"arcs":[[1235],[1236]]},{"type":"MultiLineString","properties":{"source":"naturalearthdata.com","kind":"highway","kind_detail":"motorway","sort_rank":383,"landuse_kind":"urban_area","min_zoom":7.0,"id":5825},"arcs":[[1237],[1238],[1239]]},{"type":"MultiLineString","properties":{"source":"naturalearthdata.com","kind":"highway","kind_detail":"motorway","sort_rank":383,"landuse_kind":"nature_reserve","min_zoom":7.0,"id":5826},"arcs":[[1240],[1241],[1242]]},{"type":"MultiLineString","properties":{"source":"naturalearthdata.com","kind":"highway","kind_detail":"motorway","sort_rank":383,"landuse_kind":"urban_area","min_zoom":7.0,"id":5826},"arcs":[[1243],[1244],[1245],[1246],[1247],[1248]]},{"type":"LineString","properties":{"source":"naturalearthdata.com","kind":"highway","kind_detail":"motorway","sort_rank":383,"landuse_kind":"urban_area","min_zoom":7.0,"id":5826},"arcs":[1249]},{"type":"LineString","properties":{"source":"naturalearthdata.com","kind":"highway","kind_detail":"motorway","sort_rank":383,"landuse_kind":"urban_area","min_zoom":7.0,"id":5826},"arcs":[1250]},{"type":"LineString","properties":{"source":"naturalearthdata.com","kind":"highway","kind_detail":"motorway","sort_rank":383,"landuse_kind":"urban_area","min_zoom":7.0,"id":5826},"arcs":[1251]},{"type":"MultiLineString","properties":{"source":"naturalearthdata.com","kind":"highway","sort_rank":383,"kind_detail":"motorway","min_zoom":7.0,"id":5826},"arcs":[[1252],[1253],[1254],[1255],[1256],[1257]]},{"type":"LineString","properties":{"source":"naturalearthdata.com","kind":"major_road","sort_rank":380,"kind_detail":"primary","min_zoom":7.0,"id":6067},"arcs":[1258]},{"type":"LineString","properties":{"source":"naturalearthdata.com","kind":"major_road","kind_detail":"primary","sort_rank":380,"landuse_kind":"nature_reserve","min_zoom":7.0,"id":6303},"arcs":[1259]},{"type":"LineString","properties":{"source":"naturalearthdata.com","kind":"major_road","kind_detail":"primary","sort_rank":380,"landuse_kind":"urban_area","min_zoom":7.0,"id":6303},"arcs":[1260]},{"type":"LineString","properties":{"source":"naturalearthdata.com","kind":"major_road","kind_detail":"primary","sort_rank":380,"landuse_kind":"urban_area","min_zoom":7.0,"id":6303},"arcs":[1261]},{"type":"MultiLineString","properties":{"source":"naturalearthdata.com","kind":"major_road","kind_detail":"primary","sort_rank":380,"landuse_kind":"urban_area","min_zoom":7.0,"id":6303},"arcs":[[1262],[1263]]},{"type":"LineString","properties":{"source":"naturalearthdata.com","kind":"major_road","kind_detail":"primary","sort_rank":380,"landuse_kind":"urban_area","min_zoom":7.0,"id":6303},"arcs":[1264]},{"type":"MultiLineString","properties":{"source":"naturalearthdata.com","kind":"major_road","sort_rank":380,"kind_detail":"primary","min_zoom":7.0,"id":6303},"arcs":[[1265],[1266],[1267],[1268],[1269],[1270]]},{"type":"LineString","properties":{"sort_rank":355,"source":"naturalearthdata.com","min_zoom":7.0,"kind":"ferry","id":7891},"arcs":[1271]},{"type":"MultiLineString","properties":{"kind":"highway","network":"e-road","sort_rank":383,"kind_detail":"motorway","source":"naturalearthdata.com","min_zoom":3.0,"all_networks":["e-road"],"landuse_kind":"nature_reserve","shield_text":"15","ref":"15","id":8061,"all_shield_texts":["15"]},"arcs":[[1272],[1273],[1274],[1275]]},{"type":"MultiLineString","properties":{"kind":"highway","network":"e-road","sort_rank":383,"kind_detail":"motorway","source":"naturalearthdata.com","min_zoom":3.0,"all_networks":["e-road"],"landuse_kind":"urban_area","shield_text":"15","ref":"15","id":8061,"all_shield_texts":["15"]},"arcs":[[1276],[1277],[1278],[1279],[1280]]},{"type":"LineString","properties":{"kind":"highway","network":"e-road","sort_rank":383,"kind_detail":"motorway","source":"naturalearthdata.com","min_zoom":3.0,"all_networks":["e-road"],"landuse_kind":"urban_area","shield_text":"15","ref":"15","id":8061,"all_shield_texts":["15"]},"arcs":[1281]},{"type":"MultiLineString","properties":{"kind":"highway","network":"e-road","sort_rank":383,"kind_detail":"motorway","source":"naturalearthdata.com","min_zoom":3.0,"all_networks":["e-road"],"shield_text":"15","ref":"15","id":8061,"all_shield_texts":["15"]},"arcs":[[1282],[1283]]}]},"earth":{"type":"GeometryCollection","geometries":[{"type":"Polygon","properties":{"sort_rank":10,"source":"naturalearthdata.com","min_zoom":0.0,"kind":"earth","area":278352428883},"arcs":[[1284]]}]},"landuse":{"type":"GeometryCollection","geometries":[{"type":"MultiPolygon","properties":{"kind":"national_park","protect_class":"2","area":2978628341,"sort_rank":18,"source":"openstreetmap.org","min_zoom":3.0,"tier":1,"osm_relation":true},"arcs":[[[1285]]]},{"type":"MultiPolygon","properties":{"source":"openstreetmap.org","kind":"nature_reserve","tier":2,"area":427482589,"sort_rank":23,"min_zoom":6.0,"osm_relation":true},"arcs":[[[1286]]]},{"type":"Polygon","properties":{"kind":"nature_reserve","protect_class":"3","area":144850000,"sort_rank":23,"source":"openstreetmap.org","min_zoom":7.0,"tier":2,"id":-2065063,"osm_relation":true},"arcs":[[1287],[1288],[1289],[1290],[1291],[1292],[1293],[1294],[1295]]},{"type":"Polygon","properties":{"kind":"nature_reserve","protect_class":"5","area":277311008,"sort_rank":23,"source":"openstreetmap.org","min_zoom":6.0,"tier":2,"id":-4594406,"osm_relation":true},"arcs":[[1296],[1297],[1298],[1299],[1300],[1301],[1302],[1303],[1304],[1305]]},{"type":"Polygon","properties":{"kind":"nature_reserve","protect_class":"2","area":1308179968,"sort_rank":23,"source":"openstreetmap.org","min_zoom":4.0,"tier":2,"id":-2800131,"osm_relation":true},"arcs":[[1306],[1307],[1308]]},{"type":"MultiPolygon","properties":{"kind":"nature_reserve","protect_class":"3","area":1424350275,"sort_rank":23,"source":"openstreetmap.org","min_zoom":6.0,"tier":2,"osm_relation":true},"arcs":[[[1309],[1310]],[[1311]],[[1312],[1313],[1314],[1315]],[[1316]],[[1317]]]},{"type":"Polygon","properties":{"kind":"nature_reserve","protect_class":"2","area":290892992,"sort_rank":23,"source":"openstreetmap.org","min_zoom":6.0,"tier":2,"id":226885130},"arcs":[[1318]]},{"type":"MultiPolygon","properties":{"kind":"nature_reserve","protect_class":"4","area":585843136,"sort_rank":23,"source":"openstreetmap.org","min_zoom":6.0,"tier":2,"osm_relation":true},"arcs":[[[1319],[1320],[1321]]]},{"type":"Polygon","properties":{"source":"openstreetmap.org","kind":"park","area":163215008,"tier":2,"id":194375937,"min_zoom":6.0,"sort_rank":24},"arcs":[[1322]]},{"type":"MultiPolygon","properties":{"source":"naturalearthdata.com","kind":"urban_area","name":"","area":32161078320,"sort_rank":11,"min_zoom":4.0},"arcs":[[[1323]],[[1324]],[[1325]],[[1326]],[[1327]],[[1328]],[[1329]],[[1330]],[[1331]],[[1332]],[[1333]],[[1334]],[[1335]],[[1336]],[[1337]],[[1338],[1339],[1340],[1341]],[[1342]],[[1343]],[[1344]],[[1345]],[[1346]],[[1347]],[[1348]],[[1349]],[[1350]],[[1351],[1352]],[[1353]],[[1354]],[[1355]],[[1356]],[[1357]],[[1358]],[[1359]],[[1360]],[[1361]],[[1362]],[[1363]],[[1364]],[[1365]],[[1366]],[[1367]]]},{"type":"MultiPolygon","properties":{"kind":"protected_area","protect_class":"5","area":50808198218,"sort_rank":17,"source":"openstreetmap.org","min_zoom":4.0,"tier":2,"osm_relation":true},"arcs":[[[1368],[1369]],[[1370]],[[1371],[1372],[1373]]]},{"type":"Polygon","properties":{"kind":"nature_reserve","protect_class":"3","area":624196992,"sort_rank":23,"source":"openstreetmap.org","min_zoom":6.0,"tier":2,"id":49134015},"arcs":[[1374]]},{"type":"MultiPolygon","properties":{"source":"openstreetmap.org","kind":"nature_reserve","tier":2,"protect_class":"4","area":597568643,"sort_rank":23,"min_zoom":6.0},"arcs":[[[1375]]]},{"type":"MultiPolygon","properties":{"kind":"nature_reserve","protect_class":"2","area":978558448,"sort_rank":23,"source":"openstreetmap.org","min_zoom":6.0,"tier":2,"osm_relation":true},"arcs":[[[1376]],[[1377]]]},{"type":"MultiPolygon","properties":{"kind":"nature_reserve","protect_class":"97","area":1019472972,"sort_rank":23,"source":"openstreetmap.org","min_zoom":6.0,"tier":2,"osm_relation":true},"arcs":[[[1378],[1379],[1380],[1381],[1382]]]}]}},"type":"Topology","transform":{"translate":[0.0,40.9798980696],"scale":[0.0006866455,0.0005100073]},"arcs":[[[2866,2953],[15,-22],[15,-32],[16,-28],[-5,-3],[-14,-3],[-5,0]],[[2888,2865],[-33,5],[-19,15],[-2,25],[16,35],[16,8]],[[1131,3632],[-26,6],[-50,20],[-26,2]],[[1029,3660],[-40,-3],[-33,-13],[-7,-28],[3,-42],[-20,-55],[16,-22],[-11,-8],[-6,-9],[-8,-19],[20,-8],[18,-22],[10,-29],[-2,-32],[-3,-5],[-10,-16],[-19,-7]],[[1341,3538],[-15,7],[-23,22],[-13,10],[-43,17],[-63,37],[-25,4]],[[1159,3635],[-28,-3]],[[1693,3384],[-16,2],[-25,18],[-15,27],[-11,30],[-14,29],[-26,23],[-30,9],[-125,8],[-11,7],[-24,19],[-12,5]],[[1384,3561],[-15,-5],[-14,-11],[-14,-7]],[[401,3311],[-23,27],[-31,55],[-23,11],[-78,21]],[[246,3425],[-23,-4],[-28,-18],[-89,-14],[-106,-38]],[[596,3338],[-29,6],[-7,6],[-1,8],[0,9],[-3,6],[-40,34]],[[516,3407],[-27,-9],[-25,-26],[-41,-58],[-22,-3]],[[2082,3168],[-22,27],[-24,67],[-28,39],[-26,46],[-12,6],[-14,1],[-7,8],[6,28],[-34,9],[-179,0]],[[1742,3399],[-49,-15]],[[704,3344],[-24,10]],[[680,3354],[-56,-15],[-28,-1]],[[937,3342],[-51,7]],[[886,3349],[-182,-5]],[[2247,3273],[79,-53],[16,-8],[166,-16],[-13,-40],[24,-15],[34,-10],[12,-18],[6,-8],[-37,-4],[-27,-25],[-16,-41],[-5,-49]],[[2182,3256],[43,16],[22,1]],[[2136,3258],[46,-2]],[[2082,3168],[32,13],[22,77]],[[2486,2986],[4,-3],[3,-4],[1,-5],[0,-6],[26,-11],[91,-12],[30,-13],[82,-56],[34,-8],[27,-1],[23,-10],[20,-33],[19,-73],[14,-31],[28,-25],[18,-11],[20,-3]],[[4031,2803],[30,5],[24,15],[11,11]],[[3317,2841],[40,-23],[18,-15],[85,-39],[45,-10],[23,-1],[11,-32],[23,-31],[28,-22],[27,-7],[29,-17],[16,-5]],[[3181,2808],[90,28],[46,5]],[[3112,2816],[69,-8]],[[2926,2681],[38,4],[24,6],[17,11],[24,26],[35,27],[7,11],[11,29],[7,10],[23,11]],[[3974,2812],[57,-9]],[[3838,2663],[39,2],[-1,8],[-18,21],[-13,37],[12,17],[61,49],[26,13],[30,2]],[[3739,2692],[67,-23],[32,-6]],[[3662,2639],[16,0],[9,10],[13,32],[11,10],[28,1]],[[2082,3168],[-7,-12],[-8,-20],[-2,-19],[12,-8],[0,-7],[-24,-42],[-5,-22]],[[2081,3042],[26,-22],[5,-31],[-29,-21],[-8,-2],[-25,-11],[42,-66],[0,-24],[17,-13],[88,-11]],[[2048,3038],[33,4]],[[2438,2962],[18,0],[16,8],[14,16]],[[2413,2976],[4,-2],[4,-6],[17,-6]],[[2197,2841],[12,1],[17,10],[9,11],[6,11],[8,9],[92,12],[47,20],[16,53],[5,6],[4,2]],[[817,4096],[-6,-21],[-30,-53],[-11,-29],[3,-25]],[[882,4023],[27,-59],[21,-65],[9,-23],[-93,-138],[-45,-38]],[[773,3968],[21,6],[42,32],[46,17]],[[801,3700],[-77,10]],[[724,3710],[-29,-6],[-19,-36],[-9,-48],[-3,-119],[18,-118],[-2,-29]],[[1247,3594]],[[1438,4096],[0,-20],[15,-96],[-8,-38],[-23,-27],[-29,-19],[-62,-16]],[[1331,3880],[-40,1]],[[1291,3881],[-11,-10],[-6,-13],[-4,-30],[-4,-14],[-11,-13],[-25,-10],[-10,-12],[-8,-45],[35,-140]],[[3938,3636],[37,12],[18,17],[39,58],[22,22],[42,19]],[[3459,3661],[479,-25]],[[3359,3383],[23,5],[30,21],[12,23],[-1,29],[-28,152],[15,29],[49,19]],[[3316,3392],[43,-9]],[[3189,3279],[40,31],[69,80],[18,2]],[[3155,3302],[34,-23]],[[2855,4096],[-7,-13],[-10,-10],[-7,-12],[-2,-10],[9,-11],[28,-20],[8,-14],[6,-15],[6,-30],[14,-47],[2,-17],[-5,-13],[-10,-8],[-12,-5],[-26,-6],[-12,-6],[-8,-11],[-1,-14],[8,-10],[32,-21],[8,-12],[5,-14],[10,-53],[1,-12],[-3,-11],[-9,-7],[-69,-29],[-15,-1]],[[2796,3664],[-26,1]],[[2770,3665],[-12,-2],[-10,-7],[-8,-12],[-7,-13],[-9,-14],[-7,-17],[5,-11],[10,-5],[12,-3],[13,-5],[12,-10],[13,-16],[5,-14],[1,-16],[-2,-15],[0,-21],[7,-9],[10,-6],[12,-4],[34,-24],[12,-6],[13,-2]],[[3008,3461],[14,-2],[16,-12],[11,-15],[10,-23],[11,-13],[13,-9],[28,-11],[15,-7],[16,-13],[10,-15],[6,-14],[0,-13],[-3,-11],[0,-1]],[[2874,3433],[27,1],[93,25],[14,2]],[[3137,3287],[-81,15]],[[3056,3302],[-135,-15],[-17,-7],[-20,-20],[-18,-26],[-7,-15],[-4,-13],[-3,-14],[1,-26],[-4,-15],[-8,-14],[-18,-16],[-14,-5],[-14,-1]],[[3155,3302],[-5,-7],[-13,-8]],[[2795,3115],[-54,18],[-14,2]],[[2727,3135],[-40,-1],[-92,-16],[-30,-5]],[[2894,2577],[-20,2],[-51,37],[-36,8]],[[2787,2624],[-104,-23]],[[3020,2267],[-12,2],[-10,12],[-4,19],[-2,63],[-5,23],[-8,14],[-30,38],[-2,8],[8,47],[20,26],[6,16],[-1,20],[-3,12],[-5,9],[-7,6],[-9,4],[-20,1]],[[2936,2587],[-42,-10]],[[3389,2221],[-28,1],[-20,20],[-11,29],[-9,10]],[[3321,2281],[-71,-2],[-17,-8],[-16,-16],[-7,-4],[-66,-1],[-43,-15]],[[3101,2235],[-8,2],[-38,32],[-10,2]],[[3045,2271],[-25,-4]],[[3524,2144],[-21,15],[-57,79]],[[3446,2238],[-57,-17]],[[3558,1780],[28,45],[1,20],[-16,22],[-11,12],[-8,10],[1,12],[72,81],[15,28],[5,41],[-12,41],[-24,33],[-28,19]],[[3581,2144],[-57,0]],[[3404,1783],[66,-35]],[[3453,1605],[-12,0],[-24,19],[-24,34],[-17,41],[-4,36],[13,29],[11,14],[8,5]],[[3531,1783],[27,-3]],[[3470,1748],[16,5],[45,30]],[[3710,1450],[-161,164],[-62,2]],[[3487,1616],[-34,-11]],[[4046,1305],[-25,55],[-2,18],[4,9],[13,16],[4,10],[-9,41],[-29,28],[-68,26],[-25,1]],[[3909,1509],[-24,-5],[-45,-27],[-130,-27]],[[2494,2968],[2,-32],[8,-32],[14,-28],[20,-21],[94,-34],[5,-11],[1,-58],[6,-15],[26,-34],[5,-15],[1,-15],[-1,-15],[-5,-16],[13,-41]],[[2683,2601],[-184,-36],[-43,-51],[-5,-12],[0,-13],[11,-72],[7,-13],[8,-10],[46,-23],[5,-7],[3,-16],[-1,-18],[-5,-16],[-9,-12],[-17,-11],[-5,-5],[-6,-14],[-2,-7],[0,-8],[13,-51],[-5,-18],[-8,-7],[-19,-7],[-6,-8],[-1,-10],[6,-35],[-1,-20],[-6,-19],[-9,-16],[-31,-30],[-5,-13],[3,-16],[6,-9],[8,-3]],[[2477,2012],[9,-6],[11,-14],[2,-16],[-5,-15],[-11,-12],[-16,-7]],[[2431,1995],[36,16],[10,1]],[[2467,1942],[-46,0]],[[2421,1942],[-13,-4],[-10,-13],[-4,-14],[-1,-50],[-40,-65],[-2,-23],[28,-69],[1,-21],[-6,-18],[-102,-120],[-10,-8]],[[2159,1563],[-12,6],[-27,37],[-16,6]],[[2104,1612],[-18,-1],[-17,-9],[-12,-15],[-4,-13],[-4,-154],[46,-119],[-2,-13],[-69,-16],[-23,-18],[-6,-32],[27,-5],[27,-20],[-21,-30]],[[2262,1537],[-14,0],[-35,32],[-13,2]],[[2200,1571],[-41,-8]],[[2028,1167],[-30,-19]],[[1998,1148],[-239,14]],[[1759,1162],[-10,-4],[-9,-8],[-24,-43],[-13,-51],[1,-45],[-4,-18],[-14,-12],[-40,-14],[-19,-1]],[[1627,966],[-64,20]],[[1563,986],[-12,-4],[-4,-11],[2,-32],[-2,-14],[-24,-49],[-32,-40],[-50,-16],[-11,-12],[-19,-54],[-16,-19],[-115,-25]],[[1280,710],[-15,3],[-37,28],[-14,1]],[[1214,742],[-9,-4],[-5,-8],[-9,-22],[-19,-19],[-67,0],[-32,-25],[-169,-39]],[[742,605],[-14,7],[-12,15],[-27,56],[-13,10],[-14,2]],[[662,695],[-14,-5],[-10,-14],[-7,-95]],[[904,625],[-36,9],[-37,34],[-13,7]],[[818,675],[-12,-4],[-9,-13],[-12,-30],[-11,-14],[-15,-8],[-17,-1]],[[631,581],[-69,5]],[[562,586],[-37,-90]],[[2066,1169],[18,-4],[8,-15],[-13,-27],[-44,-62],[11,-28],[79,-32],[34,-27],[-2,-44],[-13,-54],[19,-38],[75,-43],[33,-37],[6,-16],[4,-47],[29,-65],[33,-25],[7,-13],[3,-18],[-5,-15],[-10,-12],[-38,-19],[-7,-8],[-1,-21],[15,-11],[48,-6],[10,-5],[6,-10],[-5,-51]],[[2028,1167],[38,2]],[[58,135],[-27,11],[-31,73]],[[243,167],[-34,4],[-35,18],[-68,1]],[[106,190],[-15,-6],[-6,-5],[-6,-7],[-14,-31],[-7,-6]],[[315,178],[-72,-11]],[[350,880],[143,-45]],[[266,813],[53,17],[31,50]],[[239,837],[27,-24]],[[155,728],[33,72],[51,37]],[[0,776],[18,-24],[10,-6],[127,-18]],[[576,1207],[-44,6],[-13,6],[-7,11],[-5,16],[-7,43],[-20,48],[-2,15],[0,16],[21,31],[35,32],[19,33],[10,12],[11,8],[3,11],[9,14],[5,7],[10,6],[11,3],[49,9],[16,10],[12,17],[15,31],[19,33],[7,7],[8,7],[12,5],[27,7],[13,9],[11,15],[12,22],[21,14],[12,6],[9,13],[9,10],[6,14],[-3,65],[-3,12],[-5,10],[-13,8],[-20,19],[-2,12],[6,12],[9,13],[11,10],[13,8],[13,3],[9,5],[7,8],[10,21],[7,10],[10,9],[17,6],[6,8],[7,11],[6,21],[-1,15],[0,13],[20,44],[23,80],[0,9],[14,11],[7,18],[6,21],[5,42],[3,20],[-4,20],[-4,11],[3,21],[4,19],[5,14],[12,62],[3,9],[6,8],[11,19],[12,37],[3,13],[3,35],[0,26],[-2,8],[8,26],[2,19],[0,37],[-7,84],[-12,47],[-8,24],[-8,13],[-7,7],[-5,4],[-6,8],[-5,15],[-1,21],[-3,15],[-7,16],[-3,14],[4,16],[9,7],[11,1],[6,1],[6,3],[6,4],[0,5],[4,11],[-4,21],[5,17],[5,11],[7,7],[7,18],[8,16],[7,11],[4,8],[2,9],[2,12],[2,28],[2,11],[6,12],[-1,9],[-5,8],[-16,9],[-30,5],[-12,6],[-14,11],[-11,17],[-20,55],[-28,52],[-18,14]],[[493,835],[15,54],[1,38],[-1,38],[3,11],[15,14],[43,13],[10,6],[4,4],[3,5],[0,3],[3,7],[6,11],[7,13],[29,34],[7,12],[5,12],[-6,17],[-6,14],[-4,15],[-2,15],[1,15],[-9,16],[-11,5],[-15,2]],[[591,1209],[-15,-2]],[[421,0],[1,5],[-23,71],[-23,19],[-22,10],[-22,19],[-17,54]],[[525,496],[-9,46],[-3,45],[36,83],[-4,34],[-13,27],[-20,19],[-24,13],[-11,2],[-5,39],[21,31]],[[315,178],[-6,26],[-6,11],[-4,14],[0,15],[2,15],[3,15],[7,12],[16,9],[13,0],[13,3],[9,8],[5,11],[9,10],[26,7],[13,6],[12,10],[9,13],[10,36],[1,17],[3,14],[6,15],[12,14],[22,15],[17,8],[14,9],[4,5]],[[2694,1235],[-29,-2],[9,-32]],[[2341,3899],[52,-111],[-64,-115]],[[2331,3662],[-2,11]],[[2331,3662],[77,-92],[141,-69]],[[2368,4041],[-27,-45],[-1,-88]],[[2341,3899],[-1,9]],[[2385,4096],[9,-34],[-18,-18]],[[2376,4044],[-8,-3]],[[2556,3498],[-5,2],[-2,1]],[[2549,3501],[7,-3]],[[2556,3498],[109,-72]],[[2672,3419],[-7,7]],[[2672,3419],[17,-25],[-32,-49],[18,-48]],[[2675,3297],[-1,-7]],[[2674,3290],[-30,-103]],[[2644,3187],[8,-3],[3,5],[-5,3],[-6,-5]],[[2644,3187],[-28,-37],[38,-137],[61,-83],[67,-37]],[[2773,2901],[1,-1],[-1,1]],[[691,1031],[34,69]],[[735,1113],[-7,-9]],[[0,1066],[6,0],[9,1],[9,2],[5,1],[9,3],[9,3],[8,4],[4,3],[6,3],[6,5],[9,8],[38,40],[75,42],[15,6],[36,12],[10,4],[70,32],[29,9],[142,1],[15,2],[8,1],[69,14],[52,3],[76,8],[107,-12]],[[822,1261]],[[822,1261],[95,1]],[[917,1262],[8,-9]],[[925,1253],[59,-100]],[[984,1153],[-60,25],[-15,12],[-47,48],[-7,5],[-33,18]],[[822,1261],[-15,3],[-56,8],[-36,1],[-362,-29],[-29,-9],[-131,-54],[-75,-42],[-59,-56],[-59,-17]],[[961,1180],[1,-4],[2,-4],[1,-2],[2,-3],[3,-3],[6,-6],[8,-5]],[[984,1153],[2,-1]],[[986,1152],[8,-2],[16,-2],[-20,3],[-4,1]],[[986,1152],[-29,10],[-18,7],[-10,5],[-5,4],[-8,5],[-3,3],[-4,4],[-49,49],[-38,22]],[[822,1261]],[[3085,759],[-6,-50],[0,-2],[-1,-2],[-1,-1],[-2,-2],[-5,-2],[-34,-16],[-3,-1],[-3,-1],[-5,-1],[-3,0],[-4,0],[-3,0],[-3,1],[-2,1],[-3,2],[-3,2],[-1,1],[-2,2],[-3,4],[-2,3],[-1,4],[0,4],[-1,15],[-7,14],[-25,30],[-2,3],[-3,6],[-3,3],[-1,4],[-11,23],[-18,44],[-4,12],[-1,4],[-1,4],[-3,20],[-2,7],[-5,9],[-2,3],[-7,7],[-3,3],[-2,3],[-5,8],[-2,3],[-1,3],[-5,13],[-7,14],[-112,26],[-27,-15],[-7,-6],[-9,-10],[-6,-6],[-4,-4],[-17,-13],[-8,-8],[-36,-39],[-8,-7],[-8,-6],[-38,-25],[-63,-57],[-15,-19],[-42,-68],[-6,-8],[-5,-6],[-5,-5],[-3,-3],[-9,-7],[-80,-58],[-84,-95],[-9,-8],[-4,-4],[-5,-3],[-9,-6],[-41,-20],[-33,-30],[-14,-10],[-9,-4],[-89,-37],[-5,-2],[-11,-4],[-8,-2],[-6,-1],[-30,-3],[-10,0],[-6,0],[-4,0],[-9,1],[-8,2],[-5,1],[-38,11],[-46,7],[-18,4],[-36,8],[-6,2],[-7,3],[-6,2],[-10,6],[-5,3],[-5,4],[-6,4],[-6,6],[-6,6],[-6,7],[-6,9],[-5,8],[-4,7],[-9,20],[-4,11],[-3,10],[-2,9],[-5,41],[-1,34],[0,31],[0,6],[1,4],[10,50],[-2,31],[-43,71],[-51,24],[-18,2],[-79,3],[-11,1],[-10,1],[-8,1],[-7,2],[-35,8],[-27,3],[-10,2],[-7,2],[-9,3],[-3,1],[-6,2],[-5,2],[-6,4],[-40,24],[-11,7],[-6,5],[-10,8],[-19,21],[-8,10],[-36,54],[-58,48],[-182,99]],[[1031,1143],[182,-99],[53,-43],[5,-5],[4,-5],[7,-10],[25,-39],[28,-31],[72,-48],[235,-33],[51,-24],[43,-71],[2,-31],[-11,-60],[1,-65],[32,-106],[56,-47],[113,-23],[51,-15],[89,11],[98,41],[47,40],[55,29],[96,106],[1,1],[5,4],[21,16],[27,21],[27,17],[17,15],[53,82],[15,19],[63,57],[54,39],[36,38],[8,8],[21,17],[15,16],[7,6],[27,15],[112,-26],[7,-14],[8,-19],[19,-24],[5,-9],[40,-114],[35,-46],[6,-14],[3,-22],[11,-14],[68,20],[8,54],[0,1],[1,1],[2,0],[14,3],[3,4],[1,2],[4,5],[6,8]],[[3085,759]],[[3085,759],[1,1]],[[3086,760],[1,0]],[[3087,760],[1,1]],[[3088,761],[1,0]],[[3089,761],[3,0]],[[3092,761],[2,0]],[[3094,761],[1,0]],[[3095,761],[2,0]],[[3097,761],[1,1]],[[3098,762],[2,0]],[[3100,762],[1,1]],[[3101,763],[1,1]],[[3102,764],[1,1]],[[3103,765],[1,1]],[[3104,766],[0,1]],[[3104,767],[1,2]],[[3105,769],[1,1]],[[3106,770]],[[3106,770],[1,2]],[[3107,772],[1,1]],[[3108,773],[1,1]],[[3109,774],[3,4]],[[3112,778],[1,1]],[[3113,779],[1,1]],[[3114,780],[0,1]],[[3114,781],[1,0]],[[3115,781],[0,1]],[[3115,782]],[[3115,782]],[[3115,782]],[[3115,782],[1,1]],[[3116,783],[1,1]],[[3115,781],[0,1]],[[3115,782],[2,2]],[[3115,782],[2,1]],[[3115,782]],[[3115,782]],[[3115,782],[1,1]],[[3116,783],[1,1]],[[3118,784],[-3,-2]],[[3115,782],[3,2]],[[2207,1471],[-64,-99],[-100,-64],[-149,68],[-80,-24],[-126,7],[-32,-46],[-176,-33],[-93,12],[-465,-35]],[[1357,1287],[-3,-1]],[[1410,1289],[-1,0]],[[1477,1280],[-3,0]],[[1571,1307],[2,0]],[[1855,1359],[3,2]],[[2069,1325],[1,1]],[[2164,1413],[0,1]],[[2205,1470],[4,3]],[[3124,1010],[-54,56],[13,39],[-23,35],[-133,18],[-124,-17],[-42,108],[-35,10],[-9,83],[-38,37],[-14,72],[-214,40],[-37,-18],[-117,45],[-11,-65],[-72,21]],[[2363,1488],[4,0]],[[2472,1477],[4,-3]],[[2721,1274],[1,-2]],[[3064,755],[-7,-2]],[[3059,754],[55,26]],[[3065,1079],[2,-7]],[[3086,1045],[-2,3]],[[3115,780],[70,39],[-1,167],[-34,-2],[-3,2],[-19,19]],[[3128,1005],[-1,1]],[[3127,1006],[0,1]],[[3127,1007],[-2,1]],[[3125,1008],[-1,2]],[[3130,1003],[-3,3]],[[3155,983],[3,0]],[[3182,989],[1,0],[0,-1],[1,-1]],[[1659,1314],[1,1],[-3,-1],[-1,-1],[1,1],[2,0]],[[2713,1350]],[[2758,1219],[1,0],[-1,0]],[[2792,1190],[-1,1],[-1,0],[2,-1]],[[2851,1145],[-1,0],[-1,0],[0,1],[2,-1]],[[2875,1155],[0,1],[0,-1]],[[2971,1152],[3,0],[-3,0]],[[1068,1125],[-146,132]],[[1086,1123],[112,-15],[98,-58],[79,-35],[50,-79],[1,-81]],[[1201,1107],[2,-2]],[[1426,855],[181,-30]],[[1609,823],[83,-29],[50,-162],[-36,-108],[-59,-130],[-59,-38],[48,3],[-6,-42],[49,-58],[141,-4],[2,0],[3,3]],[[1710,550],[1,4]],[[1713,701],[0,1]],[[1720,663],[1,2]],[[1831,262],[1,0]],[[2221,404],[-171,-84],[-219,-58]],[[2892,596],[-193,-95],[-72,8],[-141,-61],[-265,-44]],[[2444,441],[-5,-2]],[[2527,471],[-8,-1]],[[3183,792],[-2,37],[-97,-70],[-8,-55],[-147,-69]],[[2929,635],[-3,-3]],[[2926,632],[-33,-35]],[[1600,353],[4,3],[-4,-3]],[[1678,260],[-2,1],[-2,1],[2,-1],[2,-1]],[[1698,778],[-1,1],[1,-1]],[[1739,640],[1,-1],[2,0],[-2,1],[-1,0]],[[1826,258],[2,2],[-2,-2],[-4,-3],[4,3]],[[1998,307],[2,0],[2,1],[-2,-1],[-2,0]],[[2374,421],[5,1],[-3,0],[-2,-1]],[[2636,508],[-2,1],[-2,0],[3,0],[1,-1]],[[2928,634],[1,1]],[[2926,632],[2,2]],[[0,1066],[353,178],[557,22],[67,-108],[229,-109],[193,-181],[294,-62],[43,-71],[-8,-156],[32,-106],[56,-47],[173,-39],[169,49],[111,73],[194,180],[68,101],[231,196],[112,-26],[134,-276],[68,20],[8,54],[33,26]],[[1424,115],[-112,-115]],[[1804,256],[-116,-15],[-33,-47],[-57,-15],[-78,-6],[-96,-58]],[[1821,254],[-13,2]],[[1831,262],[2,1]],[[1833,263],[209,55]],[[2048,319],[173,85]],[[2221,404],[145,16]],[[2367,420],[260,88],[72,-7],[164,65],[67,69],[146,69],[8,54],[86,67],[20,-31]],[[2519,470],[8,1]],[[3188,792],[-5,0]],[[1338,30],[5,3],[-2,-2],[-3,-1]],[[1441,126],[4,3],[-3,-2],[-1,-1]],[[1531,175],[6,0],[-3,0],[-3,0]],[[1648,192],[-5,-1],[1,0],[4,1]],[[1668,211],[2,4],[-2,-4]],[[1822,255],[5,4],[-5,-4]],[[1998,307],[2,0],[2,0],[-2,0],[-2,0]],[[2047,319],[3,1],[-3,-1]],[[1068,1125],[-146,132]],[[1086,1123],[112,-15],[98,-58],[79,-35],[50,-79],[1,-81]],[[1201,1107],[2,-2]],[[1426,855],[181,-30]],[[1609,823],[83,-29],[50,-161],[-95,-239],[-58,-29],[0,-11],[6,-3],[3,0],[1,1],[1,1]],[[1600,353],[36,6],[-6,-42],[48,-58],[148,-1]],[[1710,550],[1,4]],[[1713,701],[0,1]],[[1720,663],[1,2]],[[1831,262],[2,1]],[[1833,263],[209,55]],[[2048,319],[173,85]],[[2221,404],[145,16]],[[2367,420],[260,88],[73,-7],[163,65],[63,66]],[[2926,632],[3,3]],[[2929,635],[147,69],[8,54],[86,67],[20,-31]],[[2439,439],[5,1]],[[2519,470],[8,1]],[[3188,792],[-5,0]],[[1600,353],[4,3],[-4,-3]],[[1674,262],[2,-1],[2,-2],[-3,2],[-1,1]],[[1698,778],[-1,1],[1,-1]],[[1739,640],[1,0],[0,-1],[2,0],[-3,1]],[[1822,255],[5,4],[-5,-4]],[[1998,307],[2,0],[2,0],[-2,0],[-2,0]],[[2047,319],[3,1],[-3,-1]],[[2374,421],[2,0],[3,1],[-5,-1]],[[2635,508],[-3,1],[3,-1],[1,0],[-1,0]],[[2928,634],[1,1]],[[2926,632],[2,2]],[[3324,1164],[-84,-62],[-49,-84],[0,-170],[-73,-65]],[[3893,1554],[0,-3]],[[3893,1551]],[[3893,1551],[-18,-35],[-175,-67],[-93,-90],[-46,-5],[-39,-48],[-4,-4],[-12,-9],[-4,-2],[-1,-1],[-4,-2],[-32,-10],[-5,-1],[-64,7],[-42,-13],[-30,-107]],[[3894,1554],[26,40],[55,13],[110,90],[-1,198],[12,45]],[[3338,1218],[-1,-6],[1,6]],[[3429,1288],[5,-1],[-2,1],[-3,0]],[[3504,1292],[-1,-1],[-2,-1],[1,1],[2,1]],[[3627,1383],[-2,-2],[5,6],[-3,-4]],[[3699,1448],[-3,-2],[2,1],[1,1]],[[3743,1465],[-5,-2],[5,2]],[[3893,1555],[0,-4]],[[3893,1551],[0,4]],[[4080,1691],[-3,-4],[3,4]],[[2207,1471],[-64,-99],[-100,-64],[-149,68],[-80,-24],[-126,7],[-32,-46],[-176,-33],[-93,12],[-465,-35]],[[1357,1287],[-3,-1]],[[1410,1289],[-1,0]],[[1477,1280],[-3,0]],[[1571,1307],[2,0]],[[1855,1359],[3,2]],[[2069,1325],[1,1]],[[2164,1413],[0,1]],[[2205,1470],[4,3]],[[2214,1474],[72,-21],[11,65],[117,-45],[37,18],[214,-40],[13,-72],[39,-37],[9,-83],[35,-10],[42,-108],[124,17],[134,-18],[16,-85],[71,-71],[35,4],[1,-171],[-70,-37]],[[2363,1488],[4,0]],[[2472,1477],[4,-3]],[[3114,780],[-55,-26]],[[3067,1072],[-2,6]],[[3083,1048],[3,-3]],[[3128,1005],[2,-2]],[[1659,1314],[1,1],[-3,-1],[-1,-1],[1,1],[2,0]],[[2713,1348],[1,0],[-5,10],[0,-1],[4,-9]],[[2758,1219],[-1,2],[1,-2]],[[2774,2900],[3,-2]],[[2777,2898],[2,-2]],[[2779,2896],[45,7],[12,-54]],[[2774,2900],[2,-2]],[[2776,2898],[3,-2]],[[2776,2898],[1,0]],[[2836,2849],[3,-2],[1,0]],[[2840,2847],[47,-21],[30,36],[38,4],[6,30]],[[2961,2896]],[[2961,2896],[-3,0]],[[2958,2896],[-1,0]],[[2957,2896],[-23,14],[55,15],[-22,38]],[[2967,2963],[3,0]],[[2970,2963],[1,0]],[[2971,2963],[105,22]],[[2836,2849],[4,-2]],[[2957,2896],[4,0]],[[2967,2963],[2,0],[1,0]],[[2967,2963],[4,0]],[[3080,2985],[-4,0]],[[3185,3007],[-105,-22]],[[3189,3008],[-3,-1],[-1,0]],[[3189,3008],[-4,-1]],[[3307,3088],[-32,-52],[-86,-28]],[[3307,3088],[3,0]],[[3453,3164],[-58,-50],[-85,-26]],[[2773,2901],[1,-1],[-1,1]],[[3452,3161],[0,-1],[0,1]],[[3449,3154],[1,1]],[[3450,3155],[1,2]],[[3451,3157],[1,6],[1,1]],[[3453,3164],[0,1]],[[3453,3165],[1,0]],[[3454,3165],[116,65]],[[3453,3165],[0,-1],[-1,-1],[0,-4]],[[3452,3159],[-1,-3],[-1,-1]],[[3451,3157],[1,6],[1,1]],[[3451,3158],[1,2]],[[3452,3160],[2,5]],[[3452,3159],[0,1]],[[3570,3230],[57,33],[160,21],[125,68],[99,-29],[85,13]],[[3452,3161],[0,-1],[0,1]],[[1825,258],[-2,-2],[-1,-1],[-2,0],[-141,4],[-49,58],[5,43],[-41,-9],[-72,34],[-113,-78],[-52,23],[-150,-49],[-44,30],[-48,-92],[-86,29],[-18,-18],[-56,14],[-30,86],[-96,68]],[[829,398],[-34,89],[-64,20],[-11,37],[-20,-17]],[[829,399],[0,-1]],[[829,398],[0,-2]],[[951,249],[2,-3]],[[1136,240],[2,0]],[[1179,297],[5,-1]],[[1251,300],[-2,1]],[[1339,320],[3,2]],[[1423,315],[-4,-2]],[[1490,366],[-3,-1]],[[1831,262],[1,0]],[[2221,404],[-171,-84],[-219,-58]],[[2892,596],[-193,-95],[-72,8],[-141,-61],[-265,-44]],[[2527,471],[-8,-1]],[[3183,792],[-2,37],[-97,-70],[-8,-55],[-183,-107]],[[3081,731],[0,4]],[[1600,353],[4,3],[-4,-3]],[[1678,260],[-2,1],[-2,1],[2,-1],[2,-1]],[[1826,258],[2,2],[-2,-2],[-4,-3],[4,3]],[[1998,307],[2,0],[2,1],[-2,-1],[-2,0]],[[3118,783],[73,64],[-1,168],[40,70]],[[3230,1085],[1,2]],[[3231,1087],[1,2]],[[3232,1089],[89,69],[22,97],[9,14],[149,21],[60,64],[47,5],[37,46],[53,42]],[[3698,1447],[1,1],[2,1],[4,2],[101,35],[22,19],[47,11],[18,38]],[[4095,1810],[-13,-118],[-107,-85],[-55,-13],[-26,-40]],[[4095,1810],[-11,85],[12,45]],[[3338,1218],[-1,-6],[1,6]],[[3434,1287],[-2,0],[-3,0],[5,0]],[[3501,1289],[1,1],[2,2],[-1,-1],[-1,-1],[-1,-1]],[[3629,1386],[-3,-5],[3,5]],[[3699,1448],[-1,-1]],[[3743,1464],[-5,-1],[4,1],[1,0]],[[3894,1555],[-1,-3],[0,-2],[0,1],[1,4]],[[4080,1691],[0,-1],[-3,-3],[3,4]],[[1424,115],[-112,-115]],[[1804,256],[-116,-15],[-33,-47],[-57,-15],[-78,-6],[-96,-58]],[[1821,254],[-13,2]],[[1831,262],[1,0]],[[2221,404],[-171,-84],[-219,-58]],[[2892,596],[-193,-95],[-72,8],[-141,-61],[-265,-44]],[[2527,471],[-2,0],[-2,0],[-2,0],[-2,-1]],[[3183,792],[-2,37],[-97,-70],[-8,-55],[-183,-107]],[[1338,30],[5,3],[-2,-2],[-3,-1]],[[1441,126],[4,3],[-3,-2],[-1,-1]],[[1531,175],[6,0],[-3,0],[-3,0]],[[1648,192],[-5,-1],[1,0],[4,1]],[[1668,211],[2,4],[-2,-4]],[[1822,255],[5,4],[-5,-4]],[[1998,307],[2,0],[2,1],[-2,-1],[-2,0]],[[1600,353],[-1,-1],[-1,-1],[-4,0],[-48,14],[-25,20],[-113,-79],[-51,24],[-150,-49],[-34,17],[-11,12],[-27,-19],[10,-48],[-33,-24],[-157,24],[-30,87],[-96,68]],[[829,398],[-34,89],[-64,20],[-11,37],[-20,-17]],[[829,399],[0,-1]],[[829,398],[0,-2]],[[951,249],[2,-3]],[[1136,240],[2,0]],[[1179,297],[5,-1]],[[1251,300],[-2,1]],[[1339,320],[3,2]],[[1423,315],[-4,-2]],[[1490,366],[-3,-1]],[[1600,353],[36,6],[-6,-42],[48,-58],[148,-1]],[[1831,262],[2,1]],[[1833,263],[209,55]],[[2048,319],[173,85]],[[2221,404],[145,16]],[[2367,420],[260,88],[72,-7],[164,65],[67,69],[146,69],[8,54],[86,67],[20,-31]],[[2519,470],[8,1]],[[3081,735],[0,-4]],[[3188,792],[-5,0]],[[1600,353],[4,3],[-4,-3]],[[1674,262],[2,-1],[2,-2],[-3,2],[-1,1]],[[1822,255],[1,1],[4,3],[-5,-4]],[[1998,307],[2,0],[2,0],[-2,0],[-2,0]],[[2047,319],[3,1],[-3,-1]],[[3117,784],[-33,-26],[-7,-54],[-70,-19],[-133,275],[-112,26],[-231,-196],[-68,-101],[-194,-180],[-111,-73],[-169,-49],[-173,39],[-50,38],[-37,107],[7,164],[-43,71],[-292,61],[-195,182],[-118,74],[-112,35],[-66,108],[-557,-22],[-353,-178]],[[1424,115],[-112,-115]],[[1804,256],[-116,-15],[-33,-47],[-57,-15],[-78,-6],[-96,-58]],[[1821,254],[-13,2]],[[1831,262],[1,0]],[[2221,404],[-171,-84],[-219,-58]],[[2892,596],[-193,-95],[-72,8],[-141,-61],[-265,-44]],[[2527,471],[-8,-1]],[[3183,792],[-2,37],[-97,-70],[-8,-55],[-183,-107]],[[1338,30],[5,3],[-2,-2],[-3,-1]],[[1441,126],[4,3],[-3,-2],[-1,-1]],[[1531,175],[6,0],[-3,0],[-3,0]],[[1648,192],[-5,-1],[1,0],[4,1]],[[1668,211],[2,4],[-2,-4]],[[1822,255],[5,4],[-5,-4]],[[1998,307],[2,0],[2,1],[-2,-1],[-2,0]],[[1825,258],[-2,-2],[-1,-1],[-2,0],[-141,4],[-49,58],[5,43],[-41,-9],[-72,34],[-113,-78],[-52,23],[-150,-49],[-44,30],[-48,-92],[-86,29],[-18,-18],[-56,14],[-30,86],[-96,68]],[[829,398],[-34,89],[-64,20],[-12,37],[-56,-42],[-113,-30],[-115,18]],[[702,528],[-3,-3]],[[829,399],[0,-1]],[[829,398],[0,-2]],[[951,249],[2,-3]],[[1136,240],[2,0]],[[1179,297],[5,-1]],[[1251,300],[-2,1]],[[1339,320],[3,2]],[[1423,315],[-4,-2]],[[1490,366],[-3,-1]],[[1831,262],[1,0]],[[2221,404],[-171,-84],[-219,-58]],[[2892,596],[-193,-95],[-72,8],[-141,-61],[-265,-44]],[[3183,792],[-2,37],[-97,-70],[-8,-55],[-183,-107]],[[1600,353],[4,3],[-4,-3]],[[1678,260],[-2,1],[-2,1],[2,-1],[2,-1]],[[1826,258],[2,2],[-2,-2],[-4,-3],[4,3]],[[1998,307],[2,0],[2,1],[-2,-1],[-2,0]],[[0,1066],[353,178],[557,22],[67,-108],[229,-109],[193,-181],[294,-62],[43,-71],[-8,-156],[32,-106],[56,-47],[173,-39],[169,49],[111,73],[194,180],[68,101],[231,196],[112,-26],[134,-276],[68,20],[8,54],[33,26]],[[2967,729],[0,1]],[[2967,730]],[[2967,730],[-1,0]],[[2966,730],[0,1]],[[2966,731]],[[2966,731],[0,1]],[[2966,732],[0,1]],[[2966,733]],[[2966,733],[0,3]],[[2966,736]],[[2966,736]],[[2966,736],[0,1]],[[2966,737],[-1,0]],[[2965,737],[0,1]],[[2965,738],[0,1]],[[2965,739],[-1,1]],[[2976,722]],[[2976,722],[-1,1]],[[2975,723],[-1,0]],[[2974,723],[0,1]],[[2974,724],[-1,0]],[[2973,724]],[[2973,724],[-1,1]],[[2972,725],[-1,1]],[[2971,726],[-1,0]],[[2970,726]],[[2970,726],[-1,1]],[[2969,727]],[[2969,727],[-1,1]],[[2968,728]],[[2968,728]],[[2968,728],[0,1]],[[2968,729],[-1,0]],[[2979,722],[-1,0]],[[2978,722],[-1,0]],[[2977,722]],[[2977,722]],[[2977,722]],[[2977,722],[-1,0]],[[2976,722]],[[2983,724],[-1,0]],[[2982,724]],[[2982,724],[-1,-1]],[[2981,723],[-1,0]],[[2980,723]],[[2980,723],[-1,-1]],[[2979,722]],[[2979,722]],[[3004,730],[-5,-1]],[[2999,729],[-1,0]],[[2998,729],[-1,0]],[[2997,729]],[[2997,729],[-2,-1]],[[2995,728],[-1,0]],[[2994,728]],[[2994,728],[-1,0]],[[2993,728],[-1,0]],[[2992,728],[-2,0]],[[2990,728]],[[2990,728],[-1,-1]],[[2989,727]],[[2989,727],[-1,0]],[[2988,727]],[[2988,727],[-1,0]],[[2987,727]],[[2987,727],[-1,-1]],[[2986,726],[-1,-1]],[[2985,725],[-2,0]],[[2983,725],[0,-1]],[[2983,724]],[[3004,730]],[[3004,730],[1,0]],[[3005,730],[1,0]],[[3006,730]],[[3006,730],[1,0]],[[3007,730],[1,0]],[[3008,730],[1,0]],[[3009,730],[1,-1]],[[3010,729],[2,0]],[[3012,729],[4,0]],[[3016,729],[2,-1]],[[3018,728]],[[3018,728],[1,0]],[[3019,728],[1,1]],[[3020,729],[6,1]],[[3026,730],[6,1]],[[3032,731],[4,1]],[[3036,732],[5,0]],[[3041,732],[1,1]],[[3042,733],[3,0]],[[3045,733],[1,0]],[[3046,733],[4,2]],[[3050,735],[3,1]],[[3053,736],[7,4]],[[3060,740],[3,1]],[[3063,741],[10,6]],[[3073,747],[10,-12]],[[3083,735],[1,-1]],[[3084,734],[1,0]],[[3085,734],[1,0]],[[3086,734],[1,0]],[[3087,734],[1,1]],[[3088,735],[2,1]],[[3090,736],[5,4]],[[3095,740],[7,7]],[[3102,747],[14,14]],[[3116,761],[14,14]],[[2921,820],[-1,2],[0,-1],[1,-1]],[[2930,801],[1,-2],[0,1],[-1,1]],[[2931,800],[0,1]],[[2931,801],[0,-1]],[[2931,800]],[[2932,799],[-1,1]],[[2931,801],[1,-2]],[[2974,724]],[[2974,724],[3,-2]],[[2977,722],[-1,0],[-2,2]],[[2967,729],[0,1]],[[2967,730]],[[2967,730],[-1,0]],[[2966,730],[0,1]],[[2966,731]],[[2966,731],[0,1]],[[2966,732],[0,1]],[[2966,733]],[[2966,733],[0,3]],[[2966,736]],[[2966,736]],[[2966,736],[0,1]],[[2966,737],[-1,0]],[[2965,737],[0,1]],[[2965,738],[0,1]],[[2965,739],[-1,1]],[[2976,722]],[[2976,722],[-1,1]],[[2975,723],[-1,0]],[[2974,723],[0,1]],[[2974,724],[-1,0]],[[2973,724]],[[2973,724],[-1,1]],[[2972,725],[-1,1]],[[2971,726],[-1,0]],[[2970,726]],[[2970,726],[-1,1]],[[2969,727]],[[2969,727],[-1,1]],[[2968,728]],[[2968,728]],[[2968,728],[0,1]],[[2968,729],[-1,0]],[[2979,722],[-1,0]],[[2978,722],[-1,0]],[[2977,722]],[[2977,722]],[[2977,722]],[[2977,722],[-1,0]],[[2976,722]],[[2983,724],[-1,0]],[[2982,724]],[[2982,724],[-1,-1]],[[2981,723],[-1,0]],[[2980,723]],[[2980,723],[-1,-1]],[[2979,722]],[[2979,722]],[[3004,730],[-5,-1]],[[2999,729],[-1,0]],[[2998,729],[-1,0]],[[2997,729]],[[2997,729],[-2,-1]],[[2995,728],[-1,0]],[[2994,728]],[[2994,728],[-1,0]],[[2993,728],[-1,0]],[[2992,728],[-2,0]],[[2990,728]],[[2990,728],[-1,-1]],[[2989,727]],[[2989,727],[-1,0]],[[2988,727]],[[2988,727],[-1,0]],[[2987,727]],[[2987,727],[-1,-1]],[[2986,726],[-1,-1]],[[2985,725],[-2,0]],[[2983,725],[0,-1]],[[2983,724]],[[3004,730]],[[3004,730],[1,0]],[[3005,730],[1,0]],[[3006,730]],[[3006,730],[1,0]],[[3007,730],[1,0]],[[3008,730],[1,0]],[[3009,730],[1,-1]],[[3010,729],[2,0]],[[3012,729],[4,0]],[[3016,729],[2,-1]],[[3018,728]],[[3018,728],[1,0]],[[3019,728],[1,1]],[[3020,729],[6,1]],[[3026,730],[6,1]],[[3032,731],[4,1]],[[3036,732],[5,0]],[[3041,732],[1,1]],[[3042,733],[3,0]],[[3045,733],[1,0]],[[3046,733],[4,2]],[[3050,735],[3,1]],[[3053,736],[7,4]],[[3060,740],[3,1]],[[3063,741],[10,6]],[[3073,747],[10,-12]],[[3083,735],[1,-1]],[[3084,734],[1,0]],[[3085,734],[1,0]],[[3086,734],[1,0]],[[3087,734],[1,1]],[[3088,735],[2,1]],[[3090,736],[5,4]],[[3095,740],[7,7]],[[3102,747],[14,14]],[[3116,761],[14,14]],[[2930,801],[1,-2],[0,1],[-1,1]],[[2931,800],[0,1]],[[2931,801],[0,-1]],[[2931,800]],[[2932,799],[-1,1]],[[2931,801],[1,-2]],[[2974,724]],[[2974,724],[3,-2]],[[2977,722],[-1,0],[-2,2]],[[1068,1125],[-146,132]],[[1086,1123],[112,-15],[98,-58],[79,-35],[50,-79],[1,-81]],[[1201,1107],[2,-2]],[[1426,855],[181,-30]],[[1609,823],[83,-29],[28,-138],[146,-72],[34,-65],[101,-36],[19,-73],[158,-13],[188,23]],[[1713,701],[0,1]],[[1720,663],[1,2]],[[1835,606],[-6,4]],[[1889,531],[1,-2]],[[2005,476],[-1,3]],[[2367,420],[260,88],[73,-7],[163,65],[63,66]],[[2926,632],[3,3]],[[2929,635],[147,69],[8,54],[86,67],[20,-31]],[[2439,439],[5,1]],[[2519,470],[8,1]],[[3188,792],[-5,0]],[[1698,778],[-1,1],[1,-1]],[[1739,640],[1,-1],[2,0],[-1,0],[-1,1],[-1,0]],[[2374,421],[2,0],[3,1],[-3,-1],[-2,0]],[[2635,508],[-3,1],[3,-1],[1,0],[-1,0]],[[2928,634],[1,1]],[[2926,632],[2,2]],[[1068,1125],[-146,132]],[[1086,1123],[112,-15],[98,-58],[79,-35],[50,-79],[1,-81]],[[1201,1107],[2,-2]],[[1426,855],[181,-30]],[[2892,596],[-192,-95],[-73,8],[-245,-87],[-299,-24],[-64,13],[-18,72],[-101,36],[-34,65],[-145,71],[-29,139],[-83,29]],[[1713,701],[0,1]],[[1720,663],[1,2]],[[1835,606],[-6,4]],[[1889,531],[1,-2]],[[2005,476],[-1,3]],[[2444,441],[-5,-2]],[[2527,471],[-2,0],[-2,0],[-2,0],[-2,-1]],[[3183,792],[-2,37],[-97,-70],[-8,-55],[-147,-69]],[[2929,635],[-3,-3]],[[2926,632],[-33,-35]],[[1698,778],[-1,1],[1,-1]],[[1739,640],[1,-1],[2,0],[-1,0],[-1,1],[-1,0]],[[2374,421],[5,1],[-3,0],[-2,-1]],[[2636,508],[-2,1],[-2,0],[3,0],[1,-1]],[[2928,634],[1,1]],[[2926,632],[2,2]],[[0,1686],[31,51],[92,46],[127,58],[43,-12]],[[292,1830],[1,-1]],[[293,1829],[97,-72],[93,-141],[103,-81],[75,-21],[-18,-37],[78,-197],[204,-26]],[[1424,115],[-112,-115]],[[1804,256],[-116,-15],[-33,-47],[-57,-15],[-78,-6],[-96,-58]],[[1821,254],[-13,2]],[[1831,262],[2,1]],[[1833,263],[209,55]],[[2048,319],[173,85]],[[2221,404],[145,16]],[[2367,420],[260,88],[72,-7],[164,65],[67,69],[146,69],[8,54],[86,67],[20,-31]],[[2519,470],[8,1]],[[3188,792],[-5,0]],[[1338,30],[5,3],[-2,-2],[-3,-1]],[[1441,126],[4,3],[-3,-2],[-1,-1]],[[1531,175],[6,0],[-3,0],[-3,0]],[[1648,192],[-5,-1],[1,0],[4,1]],[[1668,211],[2,4],[-2,-4]],[[1822,255],[5,4],[-5,-4]],[[1998,307],[2,0],[2,0],[-2,0],[-2,0]],[[2047,319],[3,1],[-3,-1]],[[797,1266],[-86,7],[-72,-8],[-52,-3],[-69,-14],[-8,-1],[-15,-2],[-154,-4],[-91,-40],[-57,-20],[-75,-42],[-38,-40],[-9,-8],[-6,-5],[-6,-3],[-4,-3],[-8,-4],[-9,-3],[-9,-3],[-5,-1],[-9,-2],[-9,-1],[-6,0]],[[993,1151],[-63,23],[-18,13],[-50,51],[-7,5],[-20,13],[-13,5],[-12,3],[-8,1],[-51,7],[-36,1],[-302,-18],[-21,-3],[-39,-8],[-12,-3],[-9,-3],[-134,-54],[-10,-6],[-56,-30],[-14,-9],[-59,-56],[-59,-17]],[[1010,1148],[-21,4],[-32,10],[-18,7],[-10,5],[-5,4],[-8,5],[-3,3],[-4,4],[-49,49],[-38,22]],[[1863,413],[-34,8],[-6,2],[-7,3],[-6,2],[-10,6],[-5,3],[-5,4],[-6,4],[-6,6],[-6,6],[-6,7],[-6,9],[-5,8],[-4,7],[-9,20],[-4,11],[-3,10],[-2,9],[-5,41],[-1,34],[0,31],[0,6],[1,4],[8,41],[2,9],[-1,27],[-44,75],[-51,24],[-18,2],[-79,3],[-11,1],[-10,1],[-8,1],[-7,2],[-35,8],[-27,3],[-10,2],[-7,2],[-9,3],[-3,1],[-6,2],[-5,2],[-6,4],[-40,24],[-11,7],[-6,5],[-10,8],[-19,21],[-8,10],[-36,54],[-58,48],[-182,99]],[[1031,1143],[182,-99],[53,-43],[5,-5],[4,-5],[7,-10],[25,-39],[28,-31],[72,-48],[117,-26],[100,-5],[11,-1],[10,-1],[31,-12],[11,-7],[6,-5],[6,-5],[38,-70],[1,-27],[-11,-91],[16,-105],[47,-67],[73,-28]],[[1863,413],[-5,1]],[[1858,415],[5,-2]],[[3118,784],[-3,-2]],[[3115,782]],[[3115,782],[-11,-16],[-3,-3],[-1,-1],[-2,0],[-3,-1],[-8,-1],[-3,-2],[-5,-49],[0,-2],[-1,-2],[-1,-1],[-2,-2],[-5,-2],[-34,-16],[-3,-1],[-3,-1],[-5,-1],[-3,0],[-4,0],[-3,0],[-3,1],[-2,1],[-3,2],[-3,2],[-1,1],[-2,2],[-3,4],[-2,3],[-1,4],[0,4],[-1,15],[-7,14],[-25,30],[-2,3],[-3,6],[-3,3],[-1,4],[-11,23],[-18,44],[-4,12],[-1,4],[-1,4],[-3,20],[-2,7],[-5,9],[-2,3],[-7,7],[-3,3],[-2,3],[-5,8],[-2,3],[-1,3],[-5,13],[-7,14],[-112,26],[-27,-15],[-7,-6],[-9,-10],[-6,-6],[-4,-4],[-17,-13],[-8,-8],[-36,-39],[-8,-7],[-8,-6],[-38,-25],[-63,-57],[-15,-19],[-42,-68],[-6,-8],[-5,-6],[-5,-5],[-3,-3],[-9,-7],[-80,-58],[-84,-95],[-9,-8],[-4,-4],[-5,-3],[-9,-6],[-9,-4],[-18,-7],[-15,-10],[-27,-24],[-5,-5],[-14,-10],[-9,-4],[-39,-15],[-50,-22],[-9,-4],[-7,-2],[-8,-2],[-6,-1],[-30,-3],[-10,0],[-6,0],[-4,0],[-9,1],[-8,2],[-5,1],[-38,11],[-46,7],[-20,4]],[[1863,413],[66,-10],[51,-15],[29,-1],[158,53],[46,39],[14,9],[37,18],[18,15],[83,94],[1,1],[5,4],[21,16],[27,21],[27,17],[17,15],[53,82],[15,19],[63,57],[54,39],[36,38],[8,8],[21,17],[15,16],[7,6],[27,15],[112,-26],[7,-14],[8,-19],[19,-24],[5,-9],[40,-114],[35,-46],[6,-14],[3,-22],[11,-14],[68,20],[8,54],[31,24]],[[3115,782]],[[3115,782]],[[3115,782],[3,2]],[[3118,784],[-3,-2]],[[3118,784]],[[3118,784]],[[3118,784]],[[3118,784],[37,36],[5,2],[32,32],[8,65],[-14,26],[2,49],[10,26],[37,63],[19,26],[87,48]],[[3118,784]],[[3118,784]],[[3118,784],[3,2],[2,2],[32,32],[5,2],[30,30],[1,2],[1,0],[0,3],[4,14],[2,4],[1,5],[1,39],[0,3],[-1,1],[0,2],[-2,3],[-11,17],[2,49],[10,26],[5,7],[8,10],[2,3],[3,4],[3,6],[6,16],[9,16],[20,27],[35,16],[17,5],[6,2],[3,1],[3,2],[2,1],[4,2],[4,3],[3,4],[3,3],[2,2],[2,3],[3,4]],[[3118,784]],[[4096,2034],[-4,-12],[-7,-122],[-15,-17],[-102,-242],[-61,-66],[-37,-52],[-54,-23],[-34,-21],[-82,-29],[-13,-9],[-26,-22],[-14,-8],[-37,-10],[-26,-12],[-18,-17],[-56,-80],[-80,-48],[-33,-31],[-22,-9],[-8,-6],[-24,-37]],[[3343,1161],[24,37],[8,6],[5,2],[7,2],[3,2],[4,2],[3,1],[6,4],[2,2],[3,2],[22,22],[63,36],[4,3],[3,2],[3,2],[4,3],[3,3],[4,3],[4,5],[15,20],[8,10],[4,5],[2,4],[2,4],[9,18],[8,10],[18,18],[26,12],[5,1],[10,2],[6,1],[4,1],[6,2],[6,3],[4,2],[3,1],[3,2],[4,3],[10,7],[4,4],[12,11],[13,8],[82,30],[7,3],[4,2],[23,16],[9,4],[18,5],[4,1],[4,2],[2,1],[7,3],[5,3],[5,4],[5,4],[4,4],[6,7],[3,5],[2,2],[2,4],[8,16],[7,10],[10,10],[12,9],[4,3],[4,4],[4,5],[3,4],[9,13],[11,12],[4,6],[5,7],[22,40],[2,4],[3,6],[6,19],[10,30],[31,70],[23,66],[11,11],[2,1],[1,2],[1,3],[0,2],[1,7],[4,8],[4,16],[2,6]],[[4096,2009],[-4,13],[4,11]],[[1847,417],[2,-1],[6,-1],[2,-1],[-10,3]],[[1847,417],[3,0],[7,-2],[-8,2],[-2,0]],[[932,1247]],[[968,1254],[-1,-1]],[[1384,1291],[-1,0]],[[3232,4096],[-2,-5],[9,-34],[43,-23],[-8,-68],[22,-43],[-18,-72],[-55,-18],[7,-19],[-44,-37],[-9,-64]],[[3237,4071],[0,1],[0,-1]],[[3117,784],[1,0]],[[3117,784],[1,0]],[[3117,784],[1,0]],[[3118,784],[-1,0]],[[3118,784]],[[3118,784]],[[3118,784]],[[3118,784],[37,36],[5,2],[1,1],[9,10],[20,20],[2,1],[4,17],[2,8],[0,5],[-3,8],[0,3],[0,1],[0,2],[5,18],[0,3],[-3,8],[-1,3],[-5,5],[-3,4],[-1,2],[-1,4],[-2,21],[2,16],[2,12],[1,4],[4,10],[3,8],[2,4],[37,63],[13,20],[3,3],[2,2],[1,1],[5,3],[14,6],[16,7],[3,2],[3,0],[11,3],[12,5],[23,22]],[[3118,784]],[[3118,784]],[[3118,784],[42,38],[30,30],[2,2],[7,26],[1,39],[-12,75],[46,88],[20,27],[35,16],[17,5],[12,5],[23,22]],[[3118,784]],[[4096,2034],[-4,-12],[-7,-122],[-15,-17],[-102,-242],[-61,-66],[-37,-52],[-54,-23],[-34,-21],[-82,-29],[-13,-9],[-26,-22],[-14,-8],[-37,-10],[-26,-12],[-18,-17],[-56,-80],[-80,-48],[-33,-31],[-22,-9],[-8,-6],[-24,-37]],[[3343,1161],[24,37],[8,6],[5,2],[7,2],[3,2],[4,2],[3,1],[6,4],[2,2],[3,2],[22,22],[63,36],[4,3],[3,2],[3,2],[4,3],[3,3],[4,3],[4,5],[15,20],[8,10],[4,5],[2,4],[2,4],[9,18],[8,10],[18,18],[26,12],[5,1],[10,2],[6,1],[4,1],[6,2],[6,3],[4,2],[3,1],[3,2],[4,3],[10,7],[4,4],[12,11],[13,8],[82,30],[7,3],[4,2],[23,16],[9,4],[18,5],[4,1],[4,2],[2,1],[7,3],[5,3],[5,4],[5,4],[4,4],[6,7],[3,5],[2,2],[2,4],[8,16],[7,10],[10,10],[12,9],[4,3],[4,4],[4,5],[3,4],[9,13],[11,12],[4,6],[5,7],[22,40],[2,4],[3,6],[6,19],[10,30],[31,70],[23,66],[11,11],[2,1],[1,2],[1,3],[0,2],[1,7],[4,8],[4,16],[2,6]],[[4096,2009],[-4,13],[4,11]],[[3163,2606],[-2,53]],[[3117,784],[1,0]],[[3117,784],[1,0]],[[3117,784],[1,0]],[[3118,784],[-1,0]],[[3118,784]],[[3118,784]],[[3118,784]],[[3118,784],[37,36],[5,2],[1,1],[9,10],[20,20],[2,1],[4,17],[2,8],[0,5],[-3,8],[0,3],[0,1],[0,2],[5,18],[0,3],[-3,8],[-1,3],[-5,5],[-3,4],[-1,2],[-1,4],[-2,21],[2,16],[2,12],[1,4],[4,10],[3,8],[2,4],[37,63],[13,20],[3,3],[2,2],[1,1],[5,3],[14,6],[16,7],[3,2],[3,0],[11,3],[12,5],[23,22]],[[3118,784]],[[3118,784]],[[3118,784],[42,38],[30,30],[2,2],[7,26],[1,39],[-12,75],[46,88],[20,27],[35,16],[17,5],[12,5],[23,22]],[[3118,784]],[[4096,2034],[-4,-12],[-7,-122],[-15,-17],[-102,-242],[-61,-66],[-37,-52],[-54,-23],[-34,-21],[-82,-29],[-13,-9],[-26,-22],[-14,-8],[-37,-10],[-26,-12],[-18,-17],[-56,-80],[-80,-48],[-33,-31],[-22,-9],[-8,-6],[-24,-37]],[[3343,1161],[24,37],[8,6],[5,2],[7,2],[3,2],[4,2],[3,1],[6,4],[2,2],[3,2],[22,22],[63,36],[4,3],[3,2],[3,2],[4,3],[3,3],[4,3],[4,5],[15,20],[8,10],[4,5],[2,4],[2,4],[9,18],[8,10],[18,18],[26,12],[5,1],[10,2],[6,1],[4,1],[6,2],[6,3],[4,2],[3,1],[3,2],[4,3],[10,7],[4,4],[12,11],[13,8],[82,30],[7,3],[4,2],[23,16],[9,4],[18,5],[4,1],[4,2],[2,1],[7,3],[5,3],[5,4],[5,4],[4,4],[6,7],[3,5],[2,2],[2,4],[8,16],[7,10],[10,10],[12,9],[4,3],[4,4],[4,5],[3,4],[9,13],[11,12],[4,6],[5,7],[22,40],[2,4],[3,6],[6,19],[10,30],[31,70],[23,66],[11,11],[2,1],[1,2],[1,3],[0,2],[1,7],[4,8],[4,16],[2,6]],[[4096,2009],[-4,13],[4,11]],[[3126,717],[-14,34],[-24,-4]],[[3106,673],[20,44]],[[3126,717],[-20,-44]],[[2341,3899],[52,-111],[-64,-115]],[[2331,3662],[-2,11]],[[2331,3662],[77,-92],[141,-69]],[[2368,4041],[-27,-45],[-1,-88]],[[2341,3899],[-1,9]],[[2385,4096],[9,-34],[-18,-18]],[[2376,4044],[-8,-3]],[[2556,3498],[-5,2],[-2,1]],[[2549,3501],[7,-3]],[[2556,3498],[109,-72]],[[2672,3419],[-7,7]],[[2672,3419],[17,-25],[-32,-49],[18,-48]],[[2675,3297],[-1,-7]],[[2674,3290],[-30,-103]],[[2644,3187],[8,-3],[3,5],[-5,3],[-6,-5]],[[2644,3187],[-28,-37],[38,-137],[61,-83],[67,-37]],[[2773,2901],[1,-1],[-1,1]],[[3117,782],[1,1]],[[3154,810],[37,38],[-1,167],[40,70]],[[3232,1089],[72,45],[19,27],[10,28],[2,5],[0,2],[1,5],[2,21]],[[3520,1304],[-166,-33],[-12,-16],[-18,-91]],[[3507,1293],[11,9],[3,3]],[[3642,1402],[-122,-97]],[[3642,1402],[172,89]],[[3814,1491],[1,2]],[[3815,1493],[61,24],[16,32]],[[3892,1549],[28,45],[55,13],[109,89],[0,199],[12,43]],[[2967,729],[0,1]],[[2967,730]],[[2967,730],[-1,0]],[[2966,730],[0,1]],[[2966,731]],[[2966,731],[0,1]],[[2966,732],[0,1]],[[2966,733]],[[2966,733],[0,3]],[[2966,736]],[[2966,736]],[[2966,736],[0,1]],[[2966,737],[-1,0]],[[2965,737],[0,1]],[[2965,738],[0,1]],[[2965,739],[-1,1]],[[2976,722]],[[2976,722],[-1,1]],[[2975,723],[-1,0]],[[2974,723],[0,1]],[[2974,724],[-1,0]],[[2973,724]],[[2973,724],[-1,1]],[[2972,725],[-1,1]],[[2971,726],[-1,0]],[[2970,726]],[[2970,726],[-1,1]],[[2969,727]],[[2969,727],[-1,1]],[[2968,728]],[[2968,728]],[[2968,728],[0,1]],[[2968,729],[-1,0]],[[2979,722],[-1,0]],[[2978,722],[-1,0]],[[2977,722]],[[2977,722]],[[2977,722]],[[2977,722],[-1,0]],[[2976,722]],[[2983,724],[-1,0]],[[2982,724]],[[2982,724],[-1,-1]],[[2981,723],[-1,0]],[[2980,723]],[[2980,723],[-1,-1]],[[2979,722]],[[2979,722]],[[3004,730],[-5,-1]],[[2999,729],[-1,0]],[[2998,729],[-1,0]],[[2997,729]],[[2997,729],[-2,-1]],[[2995,728],[-1,0]],[[2994,728]],[[2994,728],[-1,0]],[[2993,728],[-1,0]],[[2992,728],[-2,0]],[[2990,728]],[[2990,728],[-1,-1]],[[2989,727]],[[2989,727],[-1,0]],[[2988,727]],[[2988,727],[-1,0]],[[2987,727]],[[2987,727],[-1,-1]],[[2986,726],[-1,-1]],[[2985,725],[-2,0]],[[2983,725],[0,-1]],[[2983,724]],[[3004,730]],[[3004,730],[1,0]],[[3005,730],[1,0]],[[3006,730]],[[3006,730],[1,0]],[[3007,730],[1,0]],[[3008,730],[1,0]],[[3009,730],[1,-1]],[[3010,729],[2,0]],[[3012,729],[4,0]],[[3016,729],[2,-1]],[[3018,728]],[[3018,728],[1,0]],[[3019,728],[1,1]],[[3020,729],[6,1]],[[3026,730],[6,1]],[[3032,731],[4,1]],[[3036,732],[5,0]],[[3041,732],[1,1]],[[3042,733],[3,0]],[[3045,733],[1,0]],[[3046,733],[4,2]],[[3050,735],[3,1]],[[3053,736],[7,4]],[[3060,740],[3,1]],[[3063,741],[10,6]],[[3073,747],[10,-12]],[[3083,735],[1,-1]],[[3084,734],[1,0]],[[3085,734],[1,0]],[[3086,734],[1,0]],[[3087,734],[1,1]],[[3088,735],[2,1]],[[3090,736],[5,4]],[[3095,740],[7,7]],[[3102,747],[14,14]],[[3116,761],[14,14]],[[2930,801],[1,-2],[0,1],[-1,1]],[[2931,800],[0,1]],[[2931,801],[0,-1]],[[2931,800]],[[2932,799],[-1,1]],[[2931,801],[1,-2]],[[2974,724]],[[2974,724],[3,-2]],[[2977,722],[-1,0],[-2,2]],[[3117,784],[1,0]],[[3117,784],[1,0]],[[3117,784],[1,0]],[[3118,784],[-1,0]],[[3118,784]],[[3118,784]],[[3118,784]],[[3118,784],[37,36],[5,2],[1,1],[9,10],[20,20],[2,1],[4,17],[2,8],[0,5],[-3,8],[0,3],[0,1],[0,2],[5,18],[0,3],[-3,8],[-1,3],[-5,5],[-3,4],[-1,2],[-1,4],[-2,21],[2,16],[2,12],[1,4],[4,10],[3,8],[2,4],[37,63],[13,20],[3,3],[2,2],[1,1],[5,3],[14,6],[16,7],[3,2],[3,0],[11,3],[12,5],[23,22]],[[3118,784]],[[3118,784]],[[3118,784],[42,38],[30,30],[2,2],[7,26],[1,39],[-12,75],[46,88],[20,27],[35,16],[17,5],[12,5],[23,22]],[[3118,784]],[[4096,2036],[-2,-6],[-1,-3],[-1,-5],[0,-6],[0,-6],[2,-6],[2,-6]],[[4096,1939],[-2,-6],[-8,-24],[-1,-9],[-4,-6],[-7,-6],[-1,-1],[-1,-1],[-2,-3],[-16,-37],[-2,-6],[-2,-13],[-4,-10],[-14,-31],[-17,-39],[-2,-7],[-7,-23],[-6,-19],[-32,-57],[-15,-18],[-16,-21],[-22,-18],[-2,-2],[-4,-4],[-2,-3],[-2,-2],[-3,-4],[-2,-4],[-13,-24],[-17,-18],[-19,-11],[-26,-8],[-6,-2],[-3,-2],[-4,-2],[-6,-3],[-13,-10],[-11,-6],[-74,-26],[-4,-2],[-4,-1],[-3,-2],[-3,-2],[-3,-2],[-4,-3],[-26,-22],[-14,-8],[-37,-10],[-15,-5],[-4,-3],[-7,-4],[-4,-3],[-5,-4],[-3,-3],[-4,-5],[-2,-2],[-2,-3],[-5,-7],[-3,-6],[-7,-13],[-4,-8],[-35,-43],[-17,-13],[-22,-9],[-4,-2],[-4,-2],[-4,-3],[-14,-10],[-10,-6],[-5,-3],[-6,-5],[-4,-4],[-3,-3],[-7,-8],[-2,-2],[-11,-9],[-22,-9],[-2,-1],[-2,-2],[-3,-2],[-1,-1],[-4,-3],[-4,-4],[-3,-3],[-2,-3],[-3,-5],[-8,-19]],[[3343,1161],[167,131],[35,43],[4,8],[9,18],[8,10],[18,18],[63,22],[14,8],[39,30],[82,30],[11,5],[23,16],[35,12],[19,11],[15,15],[3,5],[4,6],[8,16],[7,10],[30,26],[31,40],[32,57],[6,19],[10,30],[31,70],[23,66],[11,11],[4,6],[1,9],[4,8],[4,16],[2,6]],[[4096,2009],[-4,13],[4,11]],[[3117,784],[1,0]],[[3117,784],[1,0]],[[3117,784],[1,0]],[[3118,784],[-1,0]],[[3118,784]],[[3118,784]],[[3118,784]],[[3118,784],[37,36],[5,2],[32,32],[8,65],[-14,26],[2,49],[10,26],[37,63],[19,26],[87,48]],[[3118,784]],[[3118,784]],[[3118,784],[3,2],[2,2],[32,32],[5,2],[30,30],[1,2],[1,0],[0,3],[4,14],[2,4],[1,5],[1,39],[0,3],[-1,1],[0,2],[-2,3],[-11,17],[2,49],[10,26],[5,7],[8,10],[2,3],[3,4],[3,6],[6,16],[9,16],[20,27],[35,16],[17,5],[6,2],[3,1],[3,2],[2,1],[4,2],[4,3],[3,4],[3,3],[2,2],[2,3],[3,4]],[[3118,784]],[[4096,2036],[-2,-6],[-1,-3],[-1,-5],[0,-6],[0,-6],[2,-6],[2,-6]],[[4096,1939],[-2,-6],[-8,-24],[-1,-9],[-4,-6],[-7,-6],[-1,-1],[-1,-1],[-2,-3],[-16,-37],[-2,-6],[-2,-13],[-4,-10],[-14,-31],[-17,-39],[-2,-7],[-7,-23],[-6,-19],[-32,-57],[-15,-18],[-16,-21],[-22,-18],[-2,-2],[-4,-4],[-2,-3],[-2,-2],[-3,-4],[-2,-4],[-13,-24],[-17,-18],[-19,-11],[-26,-8],[-6,-2],[-3,-2],[-4,-2],[-6,-3],[-13,-10],[-11,-6],[-74,-26],[-4,-2],[-4,-1],[-3,-2],[-3,-2],[-3,-2],[-4,-3],[-26,-22],[-14,-8],[-37,-10],[-15,-5],[-4,-3],[-7,-4],[-4,-3],[-5,-4],[-3,-3],[-4,-5],[-2,-2],[-2,-3],[-5,-7],[-3,-6],[-7,-13],[-4,-8],[-35,-43],[-17,-13],[-22,-9],[-4,-2],[-4,-2],[-4,-3],[-14,-10],[-10,-6],[-5,-3],[-6,-5],[-4,-4],[-3,-3],[-7,-8],[-2,-2],[-11,-9],[-22,-9],[-2,-1],[-2,-2],[-3,-2],[-1,-1],[-4,-3],[-4,-4],[-3,-3],[-2,-3],[-3,-5],[-8,-19]],[[3343,1161],[167,131],[35,43],[4,8],[9,18],[8,10],[18,18],[63,22],[14,8],[39,30],[82,30],[11,5],[23,16],[35,12],[19,11],[15,15],[3,5],[4,6],[8,16],[7,10],[30,26],[31,40],[32,57],[6,19],[10,30],[31,70],[23,66],[11,11],[4,6],[1,9],[4,8],[4,16],[2,6]],[[4096,2009],[-4,13],[4,11]],[[1825,258],[-2,-2],[-1,-1],[-2,0],[-141,4],[-49,58],[5,43],[-41,-9],[-72,34],[-113,-78],[-52,23],[-150,-49],[-44,30],[-48,-92],[-86,29],[-18,-18],[-56,14],[-30,86],[-96,68]],[[829,398],[-34,89],[-64,20],[-12,37],[-56,-42],[-113,-30],[-115,18]],[[702,528],[-3,-3]],[[829,399],[0,-1]],[[829,398],[0,-2]],[[951,249],[2,-3]],[[1136,240],[2,0]],[[1179,297],[5,-1]],[[1251,300],[-2,1]],[[1339,320],[3,2]],[[1423,315],[-4,-2]],[[1490,366],[-3,-1]],[[1831,262],[1,0]],[[2221,404],[-171,-84],[-219,-58]],[[2221,404],[145,16]],[[2367,420],[260,88],[72,-7],[164,65],[67,69],[146,69],[8,54],[86,67],[20,-31]],[[3188,792],[-5,0]],[[1600,353],[4,3],[-4,-3]],[[1678,260],[-2,1],[-2,1],[2,-1],[2,-1]],[[1826,258],[2,2],[-2,-2],[-4,-3],[4,3]],[[1998,307],[2,0],[2,1],[-2,-1],[-2,0]],[[3117,784],[-33,-26],[-7,-54],[-70,-19],[-133,275],[-112,26],[-231,-196],[-68,-101],[-194,-180],[-111,-73],[-169,-49],[-173,39],[-50,38],[-37,107],[7,164],[-43,71],[-292,61],[-195,182],[-118,74],[-112,35],[-66,108],[-557,-22],[-353,-178]],[[2967,729],[0,1]],[[2967,730]],[[2967,730],[-1,0]],[[2966,730],[0,1]],[[2966,731]],[[2966,731],[0,1]],[[2966,732],[0,1]],[[2966,733]],[[2966,733],[0,3]],[[2966,736]],[[2966,736]],[[2966,736],[0,1]],[[2966,737],[-1,0]],[[2965,737],[0,1]],[[2965,738],[0,1]],[[2965,739],[-1,1]],[[2976,722]],[[2976,722],[-1,1]],[[2975,723],[-1,0]],[[2974,723],[0,1]],[[2974,724],[-1,0]],[[2973,724]],[[2973,724],[-1,1]],[[2972,725],[-1,1]],[[2971,726],[-1,0]],[[2970,726]],[[2970,726],[-1,1]],[[2969,727]],[[2969,727],[-1,1]],[[2968,728]],[[2968,728]],[[2968,728],[0,1]],[[2968,729],[-1,0]],[[2979,722],[-1,0]],[[2978,722],[-1,0]],[[2977,722]],[[2977,722]],[[2977,722]],[[2977,722],[-1,0]],[[2976,722]],[[2983,724],[-1,0]],[[2982,724]],[[2982,724],[-1,-1]],[[2981,723],[-1,0]],[[2980,723]],[[2980,723],[-1,-1]],[[2979,722]],[[2979,722]],[[3004,730],[-5,-1]],[[2999,729],[-1,0]],[[2998,729],[-1,0]],[[2997,729]],[[2997,729],[-2,-1]],[[2995,728],[-1,0]],[[2994,728]],[[2994,728],[-1,0]],[[2993,728],[-1,0]],[[2992,728],[-2,0]],[[2990,728]],[[2990,728],[-1,-1]],[[2989,727]],[[2989,727],[-1,0]],[[2988,727]],[[2988,727],[-1,0]],[[2987,727]],[[2987,727],[-1,-1]],[[2986,726],[-1,-1]],[[2985,725],[-2,0]],[[2983,725],[0,-1]],[[2983,724]],[[3004,730]],[[3004,730],[1,0]],[[3005,730],[1,0]],[[3006,730]],[[3006,730],[1,0]],[[3007,730],[1,0]],[[3008,730],[1,0]],[[3009,730],[1,-1]],[[3010,729],[2,0]],[[3012,729],[4,0]],[[3016,729],[2,-1]],[[3018,728]],[[3018,728],[1,0]],[[3019,728],[1,1]],[[3020,729],[6,1]],[[3026,730],[6,1]],[[3032,731],[4,1]],[[3036,732],[5,0]],[[3041,732],[1,1]],[[3042,733],[3,0]],[[3045,733],[1,0]],[[3046,733],[4,2]],[[3050,735],[3,1]],[[3053,736],[7,4]],[[3060,740],[3,1]],[[3063,741],[10,6]],[[3073,747],[10,-12]],[[3083,735],[1,-1]],[[3084,734],[1,0]],[[3085,734],[1,0]],[[3086,734],[1,0]],[[3087,734],[1,1]],[[3088,735],[2,1]],[[3090,736],[5,4]],[[3095,740],[7,7]],[[3102,747],[14,14]],[[3116,761],[14,14]],[[2921,820],[-1,2],[0,-1],[1,-1]],[[2930,801],[1,-2],[0,1],[-1,1]],[[2931,800],[0,1]],[[2931,801],[0,-1]],[[2931,800]],[[2932,799],[-1,1]],[[2931,801],[1,-2]],[[2974,724]],[[2974,724],[3,-2]],[[2977,722],[-1,0],[-2,2]],[[1327,0],[115,117],[40,24],[55,26],[62,11],[64,2],[10,-4],[35,-22],[16,8],[7,11],[6,15],[25,47],[12,10],[102,22],[366,140],[124,9],[284,88],[50,-2],[14,4],[30,19],[98,26],[99,10],[60,17],[102,57],[47,45],[42,59],[71,126],[39,54],[43,33],[109,47],[83,58],[30,32],[295,137],[184,79],[20,46],[17,-1],[13,4],[0,-1354],[-2769,0]],[[4096,1354],[-13,-4],[-17,1],[-20,-46],[-184,-79],[-295,-137],[-30,-32],[-83,-58],[-109,-47],[-43,-33],[-39,-54],[-71,-126],[-42,-59],[-47,-45],[-102,-57],[-60,-17],[-99,-10],[-98,-26],[-30,-19],[-14,-4],[-50,2],[-284,-88],[-124,-9],[-366,-140],[-102,-22],[-12,-10],[-25,-47],[-6,-15],[-7,-11],[-16,-8],[-35,22],[-10,4],[-64,-2],[-62,-11],[-55,-26],[-40,-24],[-115,-117]],[[2905,947],[14,0],[14,2],[13,5],[12,11],[5,7],[4,8],[4,7],[6,4],[8,0],[22,-2],[5,0],[6,1],[6,2],[51,22],[39,23],[12,10],[11,10],[9,12],[12,16],[1,2],[11,9],[3,1],[29,4],[30,-1],[29,3],[27,15]],[[2176,445],[-229,-70],[-56,-11],[-84,-2],[-27,-3],[-2,-1],[-9,-5],[-10,-4],[-3,-2],[-28,-24],[-12,-9],[-13,-7],[-109,-37],[-195,-114],[-51,-37],[-39,-37],[-5,-6],[-26,-39],[-33,-37]],[[4003,1690],[9,62]],[[4022,1809],[19,117],[9,36],[13,34],[4,7],[8,14],[14,18],[6,6],[1,1]],[[4012,1752],[10,57]],[[1643,819],[12,-2],[41,-17]],[[1912,744],[5,-17],[9,-62],[2,-8],[3,-6],[7,-13]],[[2211,576],[13,-6],[21,-15]],[[689,1084],[169,5],[62,-8],[33,-11],[5,-2],[5,0],[52,-1],[15,-3],[27,-12],[51,-32],[27,-8],[15,-1],[44,3],[14,0],[13,-3],[27,-11],[12,-7],[11,-9],[9,-11],[7,-15],[15,-35],[9,-16],[11,-15],[24,-21],[27,-14],[28,-9],[225,-25],[17,-4]],[[1696,800],[60,-24],[8,-1],[101,-1],[14,-3],[13,-5],[11,-9],[9,-13]],[[1938,638],[1,-3],[5,-7],[6,-7],[7,-5],[6,-3],[29,-10],[73,-10],[89,-2],[24,-3],[24,-7],[9,-5]],[[2283,578],[-13,-9],[-11,-11],[-10,-12],[-18,-25],[-8,-14],[-7,-14],[-9,-14],[-10,-12],[-21,-22]],[[2352,636],[-19,-19]],[[2919,942],[-12,10],[-12,5],[-13,2],[-29,-3],[-52,-11],[-178,-99],[-27,-19],[-71,-66],[-10,-11],[-8,-13],[-3,-7],[-2,-4],[0,-4],[3,-16],[1,-5],[0,-9],[-2,-9],[-3,-7],[-6,-5],[-14,-2],[-42,7],[-20,1],[-7,-1],[-15,-5],[-15,-7],[-2,-2]],[[2333,617],[-11,-10],[-39,-29]],[[2380,662],[-3,-2],[-25,-24]],[[0,1018],[101,16],[55,-1],[59,-11],[125,-6],[160,12],[49,11],[159,56]],[[3150,964],[-6,12],[-7,12]],[[3177,929],[-2,1]],[[2749,1326],[0,8],[1,9],[6,28],[1,9],[-2,7],[-2,7],[-10,14],[-4,8],[-3,8],[-1,11],[0,8],[7,84],[8,58],[1,20],[0,20],[-1,9],[-7,28],[-1,8],[-1,9],[4,61],[0,9],[-8,43],[-2,17],[0,17],[5,58],[0,20],[-2,21],[-1,3]],[[3137,988],[-11,18],[-5,6],[-6,6],[-13,8],[-41,21],[-6,5],[-5,6],[-8,15],[-10,11],[-13,6],[-13,2],[-39,0],[-13,2],[-113,39],[-13,8],[-25,19],[-11,11],[-10,14],[-10,17],[-4,8],[-3,10],[-3,9],[-5,18],[-5,29],[-2,19],[-1,19],[0,7]],[[3175,930],[-5,3],[-5,5],[-5,6],[-10,20]],[[3215,887],[-21,26],[-11,12],[-6,4]],[[2712,2180],[1,23]],[[2737,1928],[-4,15],[-8,18],[-17,32],[-8,25],[-1,27],[11,79],[2,56]],[[2749,1321],[0,5]],[[2932,905],[-5,19]],[[2980,807],[-31,53],[-7,16],[-5,14]],[[2927,924],[-1,2],[-7,16]],[[2937,890],[-5,15]],[[3059,740],[-26,6],[-12,6],[-11,9],[-13,15],[-17,31]],[[2657,2442],[-1,12],[2,37],[3,17],[5,17],[7,16],[34,61],[32,42],[16,17]],[[2713,2203],[-1,26]],[[2712,2229],[-4,51],[-1,9],[-3,8],[-4,8],[-10,12],[-4,9],[-13,35],[-14,56],[-2,18],[0,7]],[[2755,2661],[57,59]],[[2797,2886],[-22,26],[-10,15],[-8,15],[-30,66],[-9,14],[-12,11],[-52,17],[-25,12],[-19,24],[-4,17],[2,18],[1,4]],[[2318,3629],[-4,9],[-3,30],[0,2]],[[2313,3677],[5,15],[15,17],[24,18]],[[2365,3561],[-5,5],[-17,21],[-17,24],[-6,13]],[[2390,3789],[0,1]],[[2826,2837],[-2,11],[-7,14],[-20,24]],[[2311,3670],[2,7]],[[2320,3624],[-2,5]],[[2357,3727],[10,7],[9,10],[7,13],[5,15],[2,16],[0,1]],[[2609,3125],[4,12],[8,15],[31,50],[9,17],[13,33],[6,35],[-2,36],[-11,34],[-18,29],[-23,23],[-25,17],[-27,13],[-100,30],[-32,20],[-42,36],[-35,36]],[[2390,3790],[-2,16],[-3,17],[-17,53],[-4,19],[-3,19],[0,20],[2,23],[3,22],[11,42],[20,58],[3,17]],[[2800,2731],[-3,8],[0,4],[0,4],[1,4],[0,3],[2,3],[21,41],[5,15],[1,18],[-1,6]],[[3270,1104],[24,223],[8,41],[2,20],[0,21],[-1,7],[-2,8],[-27,65],[-8,13]],[[3239,1598],[0,4],[0,9],[2,38],[3,18],[14,56],[1,12]],[[3240,1885],[10,59],[2,18],[0,17],[-2,8],[-9,20],[-5,14],[-1,8],[1,8],[1,6],[2,4],[1,2],[12,15],[2,6],[0,8],[-1,8],[-2,6],[-12,31],[-5,10]],[[3234,2133],[-2,5],[-8,14],[-3,5],[-2,7],[-8,50]],[[3266,1502],[-13,22],[-3,8],[-3,9],[-2,8],[-6,49]],[[3259,1735],[1,7],[-2,19],[-5,17],[-3,9],[-3,7],[-9,16],[-4,9],[-2,9],[0,8],[1,7],[7,42]],[[3904,1311],[-26,-8],[-11,-6]],[[3949,1370],[-2,-6]],[[3866,1297],[-11,-8],[-84,-72],[-11,-8],[-12,-6],[-13,-4],[-55,-3],[-13,-3],[-14,-4],[-30,-21],[-63,-64],[-98,-62],[-175,-89],[-5,-2],[-5,-1],[-7,-3],[-7,-6],[-21,-25],[-27,-38],[-8,-14],[-30,-68],[-9,-17],[-9,-13],[-11,-12],[-11,-9],[-14,-4],[-64,-1]],[[3947,1364],[-5,-17]],[[3988,1526],[2,-4],[1,-9],[1,-10],[-2,-8],[-4,-7],[-13,-9],[-5,-6],[-3,-8],[-4,-18],[-11,-75],[-1,-2]],[[3867,1297],[-1,0]],[[3942,1347],[-2,-6],[-1,-3],[-12,-16],[-5,-4],[-6,-3],[-12,-4]],[[3977,1555],[10,-25],[1,-4]],[[2493,546],[-12,-6]],[[2835,577],[-50,10],[-55,-4],[-84,-31]],[[2481,540],[-12,-8],[-44,-47],[-12,-9],[-14,-4],[-59,0],[-15,-3],[-14,-6],[-38,-20],[-6,-2],[-6,-1],[-45,8],[-27,-1],[-13,-2]],[[2646,552],[-58,-22],[-14,-3],[-13,1],[-13,5],[-14,8],[-13,5],[-13,3],[-15,-3]],[[3072,745],[-22,-25],[-25,-22],[-34,-23],[-11,-9],[-56,-53],[-11,-9],[-12,-8],[-37,-16],[-12,-3],[-13,0],[-4,0]],[[3036,811],[9,9],[11,11],[12,7]],[[3086,850],[23,16]],[[3172,927],[-1,2]],[[2262,1197],[11,-3]],[[2325,1191],[72,2],[64,-6],[7,-1],[31,-17],[7,-2],[7,-1],[1,1]],[[2590,1168],[6,-17],[5,-8],[5,-6],[6,-3],[66,-27],[23,-13],[50,-40],[48,-50],[15,-19],[25,-40],[30,-56],[29,-68],[8,-17],[10,-14],[11,-11],[12,-10],[12,-7],[13,-6],[7,-1],[6,0],[14,3],[7,3],[6,5],[30,42],[2,3]],[[3068,838],[18,12]],[[3109,866],[43,29],[5,5],[5,4],[4,6],[4,8],[2,7],[0,2]],[[3171,929],[0,4],[-2,9],[-1,8],[2,9],[2,8],[3,7],[17,32],[18,27],[60,71]],[[720,1140],[0,1],[28,39]],[[823,1277],[20,17],[6,4],[6,3],[15,5],[58,6],[44,1],[12,-6],[10,-12],[8,-14],[9,-12],[8,-8]],[[1860,1365],[1,0],[19,1],[4,-1],[6,-2]],[[626,1072],[52,24],[42,44]],[[748,1180],[48,69],[17,19],[10,9]],[[1019,1261],[5,-4],[14,-11],[6,-3],[6,-3],[7,-1],[6,-1],[25,6],[112,36],[29,4],[179,-2],[25,-3],[82,-24],[29,-4],[29,2],[6,1],[7,3],[5,4],[5,6],[8,17],[9,16],[11,12],[13,7],[14,3],[14,1],[14,-1],[42,-10],[13,-1],[13,2],[13,4],[71,40],[6,2],[23,6]],[[1890,1363],[9,-3],[7,-4],[7,-4],[4,-5],[5,-5],[49,-76],[10,-12],[12,-10],[12,-8],[12,-6],[12,-2],[12,2],[103,26],[14,1],[13,-1],[13,-4],[25,-16],[24,-20],[26,-17],[3,-2]],[[2273,1194],[13,-4],[39,1]],[[2514,1167],[6,2],[12,8],[7,4],[13,3],[7,1],[6,-2],[13,-4],[7,-4],[4,-7],[1,0]],[[3211,2214],[-9,58],[-1,20],[2,37],[0,18],[-6,18],[-5,8],[-21,26],[-4,6],[-15,31],[-8,18],[-2,10],[0,10],[1,28],[0,9],[2,8],[3,7],[15,27],[1,4],[-1,18],[-7,17],[-10,14],[-11,12],[-12,7],[-14,2],[-54,-6],[-87,4],[-14,3],[-7,2],[-7,4],[-5,5],[-4,7],[-3,7],[-5,17],[-3,8],[-4,7],[-7,4],[-12,5],[-57,13],[-14,5],[-13,8],[-7,5],[-6,6]],[[3383,1817],[27,-20]],[[2572,1497],[82,3],[30,7],[29,10],[27,15],[26,21],[26,29],[107,154]],[[1894,1367],[15,30],[20,29],[23,23],[4,3]],[[3867,1774],[28,9],[64,-10]],[[3982,1742],[25,-39]],[[3220,1888],[39,13],[28,2],[28,-9],[7,-6],[6,-7],[16,-30]],[[1893,1364],[1,3]],[[1956,1452],[22,14],[26,9],[27,5],[541,17]],[[2899,1736],[5,7],[25,28],[27,23],[31,17],[233,77]],[[3344,1851],[2,-3],[9,-10],[28,-21]],[[3410,1797],[33,-25],[70,-42],[35,-16],[37,-12],[37,-7],[37,-1],[25,4],[25,7],[113,54],[45,15]],[[3959,1773],[2,0],[21,-31]],[[2282,407],[12,-407]],[[3526,1282],[30,11]],[[3603,1318],[1,1],[13,12]],[[3640,1356],[20,23]],[[3685,1406],[8,7],[21,15],[23,10],[89,16]],[[3270,1104],[112,88],[34,36],[11,10],[13,9],[26,13],[60,22]],[[3556,1293],[22,8],[25,17]],[[3617,1331],[11,11],[12,14]],[[3660,1379],[13,15],[12,12]],[[3896,1469],[4,1],[12,6],[12,8],[11,9],[12,14],[10,12]],[[3986,1587],[17,103]],[[3826,1454],[62,12],[8,3]],[[3957,1519],[1,2],[5,8],[18,41],[5,17]],[[4096,1354],[-13,-4],[-17,1],[-20,-46],[-184,-79],[-295,-137],[-30,-32],[-83,-58],[-109,-47],[-43,-33],[-39,-54],[-71,-126],[-42,-59],[-47,-45],[-102,-57],[-60,-17],[-99,-10],[-98,-26],[-30,-19],[-14,-4],[-50,2],[-284,-88],[-124,-9],[-366,-140],[-102,-22],[-12,-10],[-25,-47],[-6,-15],[-7,-11],[-16,-8],[-35,22],[-10,4],[-64,-2],[-62,-11],[-55,-26],[-40,-24],[-115,-117],[-1327,0],[0,4096],[4096,0],[0,-2742]],[[0,3411],[7,-5],[47,53],[50,-35],[43,30],[-23,81],[-60,22],[-23,64],[100,11],[5,39],[41,-95],[69,-2],[-6,-30],[-53,-25],[46,-23],[-7,-78],[-122,-16],[-44,-37],[-50,11],[-20,-32],[0,67]],[[0,2605],[23,17],[83,-34],[11,-36],[-28,-39],[77,-25],[-48,-111],[-60,-50],[-58,67],[0,211]],[[2914,914],[49,37],[-5,-23],[54,7],[-12,-26],[40,-7],[-13,39],[58,49],[20,-17],[36,18],[21,-64],[22,5],[-61,-24],[-23,-27],[12,-20],[-48,-20],[15,-10],[-31,-38],[-16,25],[-24,-24],[-32,14],[-53,63],[22,29],[-31,14]],[[3036,878],[2,-16],[22,-2],[-4,24],[-20,-6]],[[3055,842],[6,-4],[13,16],[2,-6],[0,12],[-21,-18]],[[2974,892],[11,2],[12,18],[-13,8],[-10,-28]],[[3081,866],[9,-1],[-1,9],[-3,-1],[-5,-7]],[[2963,875],[6,-2],[4,9],[-4,2],[-6,-9]],[[3037,889],[10,-7],[7,7],[-10,6],[-7,-6]],[[2989,824],[7,1],[-5,12],[1,-10],[-3,-3]],[[2969,895],[4,-3],[0,8],[-3,-2],[-1,-3]],[[3563,2388],[57,9],[-6,30],[23,27],[78,-10],[30,-55],[-8,-32],[78,-62],[-21,-118],[-36,21],[-12,-47],[-56,36],[-9,-32],[-21,-6],[-1,29],[-28,-20],[21,-16],[34,3],[-14,-31],[-70,12],[0,83],[29,31],[-14,28],[-44,-3],[27,33],[-37,90]],[[3577,2362],[33,-8],[-18,-28],[21,-8],[15,27],[19,-16],[-7,38],[18,4],[-22,14],[-59,-23]],[[3621,2410],[12,-24],[8,1],[5,23],[-25,0]],[[3651,2408],[30,12],[1,3],[-20,4],[-11,-19]],[[3690,2392],[15,0],[-6,21],[-3,-15],[-6,-6]],[[3697,2427],[4,-1],[3,4],[5,-2],[12,1],[-8,5],[-16,-7]],[[3736,2285],[8,-6],[5,11],[-9,3],[-4,-8]],[[3666,2376],[3,-6],[3,0],[1,7],[-7,-1]],[[3644,2414],[6,-2],[1,4],[4,3],[-11,-5]],[[3654,2312],[2,-5],[6,2],[-5,8],[-3,-5]],[[1421,3358],[43,40],[33,-6],[17,151],[57,3],[43,-32],[36,-43],[0,-43],[48,-38],[92,37],[34,-27],[153,11],[-9,-33],[54,-29],[-1,-38],[38,-25],[42,-104],[-23,-39],[26,-29],[-45,-64],[54,9],[26,-59],[-88,-46],[-20,-55],[-31,-12],[18,-23],[-15,-22],[-30,23],[-93,-22],[-17,-48],[23,-45],[-73,4],[-13,-28],[-115,-55],[-131,-15],[49,59],[22,-26],[104,40],[-1,26],[-76,50],[0,51],[94,-17],[24,-38],[3,76],[30,4],[-32,27],[-17,-17],[-7,24],[34,67],[70,-115],[35,89],[48,15],[1,21],[-93,17],[-34,36],[26,75],[-28,33],[46,-13],[-7,25],[-35,7],[61,34],[-35,20],[2,41],[75,50],[-93,-33],[-22,57],[-65,-5],[30,-19],[-16,-18],[21,-35],[32,4],[-19,-114],[-42,-5],[-7,-36],[28,-1],[26,-83],[-57,19],[-21,-40],[-76,13],[-8,-24],[51,-36],[49,21],[12,45],[26,-72],[-25,-20],[-30,24],[-50,-17],[-38,51],[3,19],[12,13],[81,34],[-49,63],[22,-16],[41,24],[-2,31],[-26,5],[33,34],[-2,75],[-46,-11],[-27,79],[-28,-38],[-34,2],[38,78],[-17,23],[-60,-12],[7,-26],[-31,-18],[26,-23],[-42,-38],[-97,67]],[[2014,3119],[32,-35],[27,31],[-32,19],[-27,-15]],[[2070,3000],[31,-8],[14,14],[-14,13],[-31,-19]],[[2429,520],[33,52],[70,-7],[66,52],[30,-5],[16,44],[-25,3],[-1,28],[35,24],[51,9],[76,-59],[63,9],[27,-24],[-29,-38],[30,10],[3,-18],[-156,-91],[-19,11],[1,-21],[-27,3],[-2,49],[-30,-9],[18,34],[-32,-16],[-9,30],[-84,-47],[-32,17],[-18,-29],[-8,25],[-47,-36]],[[2621,592],[18,2],[-11,17],[-5,-3],[-2,-16]],[[2760,1382],[14,41],[64,10],[68,-24],[-9,30],[-50,18],[44,3],[41,49],[63,-75],[-21,7],[-18,-35],[28,-39],[-12,-29],[64,9],[7,-19],[-59,-67],[-30,-13],[-30,34],[-29,-23],[8,-28],[-48,-2],[-10,21],[-35,-33],[-39,19],[35,35],[6,59],[-52,52]],[[3370,1773],[21,9],[-12,55],[20,16],[-22,54],[34,48],[12,11],[27,-26],[2,-8],[9,2],[-18,19],[35,33],[5,-22],[68,21],[16,-44],[-30,-2],[9,-36],[65,-40],[-16,-49],[-47,-32],[-39,83],[-69,10],[-38,-98],[-18,-21],[-14,17]],[[3413,1940],[7,-7],[13,22],[-8,7],[-12,-22]],[[3424,1932],[6,1],[8,16],[-11,-6],[-3,-11]],[[3466,1897],[6,-9],[7,12],[-2,1],[-11,-4]],[[3499,1253],[44,47],[36,-19],[35,55],[32,-51],[30,2],[15,26],[-43,17],[-15,48],[44,1],[16,22],[-24,15],[98,45],[115,-13],[-55,-67],[35,32],[24,-10],[-13,-44],[63,26],[17,-20],[-81,-24],[34,-28],[-17,-14],[-56,-4],[-28,29],[-8,-20],[-41,1],[18,-10],[-17,-12],[-18,9],[18,40],[-21,-7],[-23,-14],[9,-48],[-46,19],[-27,-28],[9,-27],[-81,-50],[27,-22],[-18,-12],[-32,32],[-18,-31],[-18,40],[67,14],[18,24],[-34,-4],[23,21],[-59,29],[-34,-15]],[[3282,1574],[109,137],[36,11],[49,-38],[55,32],[93,-39],[32,-60],[52,-4],[27,-74],[-65,-2],[-6,-31],[-63,-41],[-55,4],[14,-55],[-39,51],[-21,-30],[12,-35],[-59,21],[-97,-33],[-52,48],[20,35],[-42,103]],[[0,3344],[19,32],[86,3],[45,-81],[-34,7],[-2,-26],[102,-48],[-29,-60],[-77,12],[-12,-55],[55,-117],[-78,74],[-9,59],[-66,81],[0,119]],[[2990,2703],[28,14],[18,-8],[47,43],[17,57],[41,22],[65,-14],[81,43],[127,-45],[0,-34],[-34,-25],[-7,31],[-26,-17],[-21,19],[-8,-3],[34,-27],[-21,-10],[5,-33],[-22,21],[-26,-42],[-32,44],[-24,-13],[1,-59],[-42,-22],[-11,19],[32,26],[-69,31],[-37,2],[9,-68],[-90,53],[-35,-5]],[[3267,2830],[19,-13],[32,0],[-9,29],[-42,-16]],[[3127,2785],[19,-18],[12,17],[-7,7],[-24,-6]],[[1049,473],[3,19],[30,24],[-31,43],[28,7],[-9,27],[72,24],[27,69],[72,-3],[82,-58],[-32,-57],[-117,-25],[5,-22],[-50,-47],[-59,19],[-21,-20]],[[1774,843],[-60,41],[-2,27],[97,-21],[-35,-47]],[[545,1121],[-17,-73],[-46,37],[-48,-21],[0,87],[86,-4],[25,-26]],[[1081,127],[-50,9],[-15,56],[46,8],[19,-73]],[[984,323],[-26,-133],[-104,24],[17,109],[51,-4],[13,26],[49,-22]],[[887,388],[-113,0],[-33,44],[-16,152],[124,-39],[32,-62],[6,-95]],[[1647,933],[50,-78],[-1,-96],[-65,43],[16,22],[-32,87],[32,22]],[[822,1195],[-16,-66],[-83,3],[-14,41],[113,22]],[[907,1314],[142,77],[-40,-173],[-138,-24],[0,22],[-33,0],[-26,105],[-18,39],[-37,9],[1,36],[149,-91]],[[1992,1441],[11,-51],[-73,12],[-56,-55],[-16,20],[16,111],[118,-37]],[[315,1855],[-11,-51],[-32,-21],[-22,14],[-10,138],[37,1],[38,-81]],[[2197,1979],[-12,102],[12,29],[32,-1],[63,-56],[-95,-74]],[[29,2325],[-29,5],[13,65],[65,-24],[-49,-46]],[[191,2175],[33,0],[32,-44],[-65,-87],[-81,66],[65,87],[16,-22]],[[2677,2158],[-26,17],[11,27],[69,38],[-2,-50],[-52,-32]],[[4096,2326],[0,-72],[-84,-64],[-51,28],[16,97],[54,33],[56,-28],[9,6]],[[4096,1445],[0,-91],[-30,-3],[-20,-46],[-479,-216],[-113,-90],[-109,-47],[-82,-87],[-113,-185],[-149,-102],[-635,-162],[-124,-9],[-468,-162],[-66,-91],[-45,26],[-126,-13],[-95,-50],[-115,-117],[-132,0],[32,40],[0,65],[145,66],[-32,108],[44,58],[37,-14],[145,196],[49,0],[16,44],[65,21],[129,175],[86,-16],[28,38],[26,-50],[-6,-60],[-33,-50],[-52,-15],[17,-53],[112,-77],[33,65],[32,0],[0,43],[16,-43],[50,-17],[80,39],[-33,152],[33,-65],[81,65],[18,-34],[-35,-118],[41,10],[24,77],[33,-49],[32,5],[9,40],[-58,26],[-16,109],[42,3],[28,36],[76,-61],[4,88],[-21,21],[17,43],[32,0],[-11,106],[-55,60],[-112,8],[-18,107],[-63,2],[0,66],[32,22],[17,65],[65,-22],[80,22],[61,-35],[-12,-52],[-43,-8],[12,-38],[79,24],[-2,-35],[-39,-24],[7,-50],[130,71],[34,89],[-127,238],[62,103],[33,0],[21,50],[43,16],[-48,65],[32,44],[0,87],[45,42],[36,-30],[0,-34],[48,-22],[0,-65],[98,-66],[-105,-238],[-9,-132],[-64,-22],[10,-24],[54,24],[-16,-43],[16,-44],[76,28],[37,59],[49,-43],[113,0],[94,199],[84,8],[6,57],[27,-3],[16,-87],[32,0],[53,-75],[412,238],[69,-10],[77,-90],[79,18],[56,-33],[4,5],[0,-47],[-32,18],[-38,-24],[45,-38],[25,27]],[[3573,1195],[49,-1],[64,88],[259,22],[2,36],[-51,72],[0,131],[-85,-6],[-44,-59],[0,-44],[-104,-67],[-15,-39],[-43,-3],[-32,-130]],[[3083,938],[-12,-49],[-81,22],[26,-54],[44,0],[42,37],[18,61],[-37,-17]],[[2758,880],[-47,5],[-34,-31],[-43,-95],[81,-22],[43,143]],[[3179,1585],[5,-42],[-50,9],[-31,-53],[-17,9],[-15,79],[49,-22],[59,20]],[[1886,1560],[-44,27],[64,109],[25,-30],[-25,-101],[-20,-5]],[[1315,1609],[-7,-22],[-65,21],[-38,-64],[-27,-1],[-49,174],[71,30],[59,-8],[-16,-65],[72,-65]],[[3391,1703],[-44,-78],[-73,-37],[-74,20],[-16,44],[33,65],[45,19],[7,-34],[50,-1],[-5,60],[48,44],[29,-102]],[[3068,1613],[-45,39],[37,41],[27,-63],[-19,-17]],[[2570,1674],[-81,43],[17,34],[52,10],[28,-44],[-16,-43]],[[2489,1804],[-97,83],[7,34],[70,38],[68,-45],[-48,-110]],[[3890,2048],[-42,-26],[48,-109],[-81,-21],[-32,130],[48,22],[17,66],[42,-62]],[[4096,2152],[0,-565],[-151,0],[3,144],[94,30],[-9,43],[-51,21],[-37,-86],[-82,-25],[-32,3],[-3,32],[52,34],[16,87],[65,-22],[24,43],[24,219],[87,42]],[[3373,2176],[58,-101],[12,-74],[-27,6],[-23,56],[-44,-2],[3,-22],[56,-47],[20,-99],[-17,-45],[-49,65],[-26,-89],[-38,2],[-49,57],[-49,9],[7,67],[42,20],[-43,95],[59,123],[108,-21]],[[3287,1916],[27,-2],[0,87],[-49,0],[22,-85]],[[1095,2782],[-46,86],[0,26],[64,-83],[-18,-29]],[[240,2807],[-54,25],[-11,84],[55,-25],[10,-84]],[[2349,3145],[59,-11],[-65,-44],[-81,65],[97,109],[17,-65],[-42,-22],[15,-32]],[[3598,3333],[39,-47],[-32,-65],[-146,-88],[0,175],[89,7],[25,36],[25,-18]],[[3831,3308],[-97,43],[19,36],[73,21],[22,31],[14,-24],[-31,-107]],[[2979,3027],[11,-68],[47,-27],[2,-38],[-130,0],[-129,-87],[-33,21],[-16,88],[50,36],[132,30],[29,64],[23,7],[14,-26]],[[1436,2560],[17,-58],[-28,-22],[-69,43],[47,52],[33,-15]],[[3206,2379],[-46,52],[-8,49],[81,-64],[-27,-37]],[[3702,2371],[-32,-65],[-49,21],[-48,-21],[-18,76],[18,76],[178,-22],[3,-26],[-52,-39]],[[1356,2458],[32,-131],[-87,-23],[-90,23],[11,48],[103,86],[31,-3]],[[2262,2748],[-163,-77],[-47,5],[0,87],[40,25],[41,-3],[48,-43],[61,63],[20,-57]],[[2665,2667],[-24,31],[-7,65],[81,-43],[-21,-46],[-29,-7]],[[4096,3118],[0,-145],[-92,-37],[-37,19],[31,129],[98,34]],[[4096,3598],[0,-353],[-70,-68],[-78,52],[-20,35],[17,66],[-49,43],[16,109],[46,-49],[35,6],[16,65],[65,44],[22,50]],[[3180,4096],[83,0],[-30,-47],[-48,21],[-5,26]],[[2509,3015],[37,89],[130,43],[54,-7],[38,67],[49,-21],[54,24],[39,87],[43,-18],[147,40],[71,-47],[95,59],[32,60],[37,-19],[106,10],[20,-33],[48,-10],[9,-50],[44,-41],[-63,-32],[89,-121],[14,-65],[-12,-60],[-131,-104],[-114,-36],[-58,30],[-81,-43],[-65,14],[-41,-22],[-17,-57],[-47,-43],[-100,-28],[-74,67],[-41,142],[-67,-12],[-98,76],[-137,12],[-10,49]],[[2849,2898],[82,-19],[-37,42],[4,47],[-49,-70]],[[0,3904],[48,-21],[30,29],[-13,-39],[63,-34],[67,-5],[40,35],[69,-33],[37,64],[67,22],[23,-10],[-12,-31],[85,-38],[10,-48],[-88,28],[21,-60],[60,-35],[28,-84],[-40,8],[-29,-63],[59,-169],[-51,-37],[-7,-44],[-37,-18],[-47,37],[-4,47],[-79,25],[27,81],[31,28],[19,-33],[33,69],[-55,-5],[5,22],[-51,29],[-129,1],[-34,49],[-5,-39],[-100,-11],[-2,-18],[25,-46],[58,-21],[25,-82],[-43,-30],[-50,35],[-47,-53],[-7,5],[0,493]],[[1427,4096],[802,0],[0,-12],[78,-11],[-31,-68],[66,-21],[10,-49],[-64,-46],[27,-63],[46,39],[-4,-35],[33,-41],[-60,-114],[-50,7],[-8,-16],[20,-18],[14,24],[23,-9],[-12,-37],[37,-18],[24,-101],[-28,-85],[-44,-24],[19,-55],[-22,-61],[-149,-4],[-4,-76],[-56,-20],[-35,104],[-38,25],[1,38],[-54,29],[9,33],[-153,-11],[-34,27],[-85,-38],[-55,39],[-7,54],[-72,64],[-135,-3],[-37,37],[-44,-32],[-33,15],[-68,47],[-50,183],[84,35],[-13,50],[127,21],[86,81],[-51,30],[-10,86]],[[2034,3921],[15,-41],[7,-36],[20,60],[-19,30],[-23,-13]],[[1370,3770],[14,-5],[26,75],[-26,4],[-14,-74]],[[467,3339],[7,44],[51,37],[90,-66],[79,19],[62,-16],[12,22],[89,-16],[12,19],[79,-24],[62,-67],[15,-69],[88,-27],[-15,-76],[-81,28],[-55,-11],[-29,32],[-43,-25],[-61,83],[-2,43],[-114,-101],[-149,-37],[-43,97],[16,65],[-70,46]],[[1432,3574],[19,139],[49,43],[92,-81],[83,4],[25,29],[46,-19],[-20,-215],[-75,-46],[-1,43],[-79,75],[-135,-3],[-4,31]],[[2160,2554],[13,68],[24,-13],[-5,42],[65,-41],[89,26],[61,-19],[59,51],[58,4],[-1,21],[16,-31],[143,-3],[50,54],[57,-128],[24,40],[76,-40],[61,12],[-26,-102],[-44,23],[-81,-28],[-33,29],[-64,-5],[10,68],[-16,-67],[-21,0],[46,-52],[-43,-26],[-122,28],[-66,-45],[-77,72],[-8,-40],[-94,-20],[-32,43],[-44,2],[20,41],[-85,-18],[19,57],[-29,-3]],[[1155,3132],[125,107],[62,-78],[32,-6],[59,41],[44,-33],[37,12],[8,-64],[37,-24],[-63,-59],[-70,60],[-80,-87],[-64,45],[-65,2],[66,29],[-22,18],[20,52],[-32,1],[5,34],[-25,-45],[-66,-5],[11,-28],[-19,28]],[[4096,2861],[0,-54],[-26,8],[-37,-47],[-54,8],[-1,-29],[-58,9],[-23,-28],[121,-54],[-14,-40],[-58,-30],[103,16],[-77,-25],[-30,9],[24,-48],[48,-21],[-3,-60],[-114,-4],[-90,31],[-59,-49],[-78,-16],[-33,17],[-12,-19],[-47,32],[36,-46],[-85,-30],[-1,20],[-10,-21],[10,21],[73,17],[-27,8],[-3,6],[2,25],[-11,9],[-79,9],[-24,35],[26,51],[-23,23],[106,46],[17,30],[117,-15],[43,48],[146,-35],[-29,89],[28,2],[4,36],[88,38],[62,-25],[52,53]],[[3658,2527],[18,-15],[29,23],[-24,11],[-23,-19]],[[3597,2631],[26,-27],[14,0],[-15,39],[-25,-12]],[[3571,2441],[13,-6],[-7,12],[-1,17],[1,3],[-4,-2],[1,-22],[-3,-2]],[[3772,2527],[11,1],[-4,11],[-6,-3],[-1,-9]]]}