{"objects":{"water":{"type":"GeometryCollection","geometries":[{"type":"MultiPolygon","properties":{"kind":"lake","name":"Lake Volta","reservoir":true,"area":8153168384,"sort_rank":200,"source":"naturalearthdata.com","min_zoom":0.0,"id":1193},"arcs":[[[109]]]},{"type":"LineString","properties":{"source":"naturalearthdata.com","kind":"lake","reservoir":true,"sort_rank":367,"boundary":true,"min_zoom":0.0,"id":1193},"arcs":[110]}]},"buildings":{"type":"GeometryCollection","geometries":[]},"places":{"type":"GeometryCollection","geometries":[{"type":"Point","properties":{"name:kg":"Benin","name:ka":"\u10d1\u10d4\u10dc\u10d8\u10dc\u10d8","name:ko":"\ubca0\ub0c9","name:cv":"\u0411\u0435\u043d\u0438\u043d","name:km":"\u1794\u17c1\u178e\u17b6\u17c6\u1784","name:kl":"Benin","name:cs":"Benin","name:ki":"Benini","name:kw":"Benin","name:tk":"Benin","name:ku":"B\u00ean\u00een","name:ti":"\u1264\u1292\u1295","name:ks":"\u0628\u0650\u0646\u0650\u0646","name:to":"Penini","name:tl":"Benin","name:ce":"\u0411\u0435\u043d\u0438\u043d","name:ta":"\u0baa\u0bc6\u0ba9\u0bbf\u0ba9\u0bcd","name:tg":"\u0411\u0435\u043d\u0438\u043d","name:ca":"Ben\u00edn","name:te":"\u0c2c\u0c46\u0c28\u0c3f\u0c28\u0c4d","name:cy":"Benin","name:hr":"Benin","name:da":"Benin","name:de":"Benin","name:dz":"\u0f56\u0fb7\u0f7a\u0f0b\u0f53\u0f72\u0f53","source":"openstreetmap.org","name:kn":"\u0cac\u0cc6\u0ca8\u0cbf\u0ca8\u0ccd","name:dv":"\u0784\u07ac\u0782\u07a9\u0782\u07b0","name:lv":"Benina","name:lt":"Beninas","name:uz":"Benin","name:kk":"\u0411\u0435\u043d\u0438\u043d","name:ur":"\u0628\u06cc\u0646\u0646","name:lb":"Benin","name:la":"Beninum","name:lg":"Benini","name:uk":"\u0411\u0435\u043d\u0456\u043d","name:ug":"\u0628\u06d0\u0646\u0649\u0646","name:li":"Benin","name:ln":"Ben\u025b","name:lo":"\u0ec0\u0e9a\u0e99\u0eb4\u0e99","name:el":"\u039c\u03c0\u03b5\u03bd\u03af\u03bd","name:eo":"Benino","name:en":"Benin","name":"B\u00e9nin","name:ee":"Benin nutome","name:th":"\u0e1b\u0e23\u0e30\u0e40\u0e17\u0e28\u0e40\u0e1a\u0e19\u0e34\u0e19","name:eu":"Benin","name:et":"Benin","name:es":"Ben\u00edn","name:ia":"Benin","name:rm":"Benin","name:rn":"Bene","name:az":"Benin","name:ie":"Benin","name:id":"Benin","name:ig":"Binin","name:ar":"\u0628\u0646\u0646","name:io":"Benin","name:ak":"B\u025bnin","name:am":"\u1264\u1292\u1295","name:it":"Benin","name:an":"Ben\u00edn","name:ru":"\u0411\u0435\u043d\u0438\u043d","name:rw":"Bene","name:af":"Benin","name:zu":"i-Benin","name:ky":"\u0411\u0435\u043d\u0438\u043d","name:zh-yue":"\u8c9d\u5be7","name:zh":"\u8d1d\u5b81","name:so":"Biniin","name:sn":"Benini","name:sl":"Benin","name:sk":"Benin","name:ja":"\u30d9\u30ca\u30f3","name:si":"\u0db6\u0dd9\u0db1\u0dd2\u0db1\u0dca","name:sh":"Benin","name:sg":"Ben\u00eben","name:se":"Benin","name:sc":"Benin","name:sa":"\u092c\u0947\u0928\u093f\u0928\u094d","name:bs":"Benin","name:bm":"Ben\u025bn","name:bn":"\u09ac\u09c7\u09a8\u09bf\u09a8","name:bo":"\u0f56\u0f71\u0f7a\u0f0b\u0f53\u0f72\u0f53\u0f0d","name:br":"Benin","name:sw":"Benini","name:be":"\u0411\u0435\u043d\u0456\u043d","name:bg":"\u0411\u0435\u043d\u0438\u043d","name:ss":"IBhenini","name:ba":"\u0411\u0435\u043d\u0438\u043d","name:sq":"Benini","name:jv":"Benin","name:pt":"Benin","name:ps":"\u0628\u06d0\u0646\u064a\u0646","name:oc":"Benin","min_zoom":2.0,"name:ro":"Benin","name:pa":"\u0a2c\u0a47\u0a28\u0a3f\u0a28","name:os":"\u0411\u0435\u043d\u0438\u043d","name:or":"\u0b2c\u0b47\u0b28\u0b3f\u0b28\u0b4d","name:pl":"Benin","name:st":"Benin","name:sr":"\u0411\u0435\u043d\u0438\u043d","name:tr":"Benin","name:hi":"\u092c\u0947\u0928\u093f\u0928","name:sv":"Benin","name:he":"\u05d1\u05e0\u05d9\u05df","name:ha":"Binin","name:hy":"\u0532\u0565\u0576\u056b\u0576","name:ht":"Benen","name:hu":"Benin","name:qu":"Binin","population":8971944,"kind":"country","name:ts":"Benin","name:is":"Ben\u00edn","name:yi":"\u05d1\u05e2\u05e0\u05d9\u05df","name:yo":"Or\u00edl\u1eb9\u0301\u00e8de B\u1eb9\u0300n\u1eb9\u0300","name:mt":"Benin","name:ms":"Benin","name:mr":"\u092c\u0947\u0928\u093f\u0928","name:my":"\u1018\u102e\u1014\u1004\u103a\u1014\u102d\u102f\u1004\u103a\u1004\u1036","official_name":"R\u00e9publique du B\u00e9nin","int_name":"Benin","name:mg":"Benin","name:ml":"\u0d2c\u0d46\u0d28\u0d3f\u0d7b","name:vi":"Benin","name:mn":"\u0411\u0435\u043d\u0438\u043d","id":424297384,"name:mk":"\u0411\u0435\u043d\u0438\u043d","name:vo":"Benin\u00e4n","name:fa":"\u0628\u0646\u06cc\u0646","name:ff":"Benee","name:fi":"Benin","name:fo":"Benin","name:fy":"Benyn","name:nl":"Benin","name:nn":"Benin","name:no":"Benin","name:na":"Benin","name:ne":"\u092c\u0947\u0928\u093f\u0928","name:wo":"Bene","name:ga":"Beinin","name:gd":"Beinin","name:gl":"Benin","name:gv":"Benin","name:gu":"\u0aac\u0ac7\u0aa8\u0abf\u0aa8","name:tt":"\u0411\u0435\u043d\u0438\u043d"},"coordinates":[3289,1659]},{"type":"Point","properties":{"name:ka":"\u10e2\u10dd\u10d2\u10dd","name:ko":"\ud1a0\uace0","name:cv":"\u0422\u043e\u0433\u043e","name:km":"\u178f\u17bc\u17a0\u17d2\u1782\u17bc","name:kk":"\u0422\u043e\u0433\u043e","name:th":"\u0e1b\u0e23\u0e30\u0e40\u0e17\u0e28\u0e42\u0e15\u0e42\u0e01","name:ti":"\u1276\u130e","name:ks":"\u0679\u0648\u06af\u0648","name:to":"Toko","name:pa":"\u0a1f\u0a4b\u0a17\u0a4b","name:os":"\u0422\u043e\u0433\u043e","name:or":"\u0b1f\u0b4b\u0b17\u0b4b","name:ce":"\u0422\u043e\u0433\u043e","name:ta":"\u0b9f\u0bcb\u0b95\u0bcb","name:tg":"\u0422\u043e\u0433\u043e","name:te":"\u0c1f\u0c4b\u0c17\u0c4b","name:wo":"Tog\u00f3o","name:ba":"\u0422\u043e\u0433\u043e","name:dz":"\u0f4a\u0f7c\u0f0b\u0f42\u0fb7\u0f7c","source":"openstreetmap.org","name:kn":"\u0c9f\u0cca\u0c97\u0cca","name:dv":"\u0793\u07af\u078e\u07af","name:lt":"Togas","name:hi":"\u091f\u094b\u0917\u094b","name:he":"\u05d8\u05d5\u05d2\u05d5","kind":"country","name:ur":"\u0679\u0648\u06af\u0648","name:la":"Togum","name:uk":"\u0422\u043e\u0433\u043e","name:hy":"\u054f\u0578\u0563\u0578","name:ug":"\u062a\u0648\u06af\u0648","name:qu":"Tugu","name:lo":"\u0ec2\u0e95\u0ec2\u0e81","name:oc":"T\u00f2go","population":6587239,"name:el":"\u03a4\u03cc\u03b3\u03ba\u03bf","name:eo":"Togolando","name":"Togo","min_zoom":2.0,"name:yi":"\u05d8\u05d0\u05d2\u05d0","name:yo":"T\u00f3g\u00f2","alt_name:eo":"Togo;Togolo","name:az":"Toqo","name:mr":"\u091f\u094b\u0917\u094b","name:ar":"\u062a\u0648\u063a\u0648","name:my":"\u1010\u102d\u102f\u1002\u102d\u102f\u1014\u102d\u102f\u1004\u103a\u1004\u1036","official_name":"R\u00e9publique Togolaise","name:is":"T\u00f3g\u00f3","name:am":"\u1276\u130e","name:ru":"\u0422\u043e\u0433\u043e","name:ml":"\u0d1f\u0d4b\u0d17\u0d4b","name:mn":"\u0422\u043e\u0433\u043e","id":424311827,"name:mk":"\u0422\u043e\u0433\u043e","name:vo":"Togo\u00e4n","name:zu":"ITogo","name:ff":"Togoo","name:zh-yue":"\u591a\u54e5","name:zh":"\u591a\u54e5","name:ja":"\u30c8\u30fc\u30b4","name:si":"\u0da7\u0ddd\u0d9c\u0ddd","name:fa":"\u062a\u0648\u06af\u0648","name:sg":"Tog\u00f6","name:ne":"\u091f\u094b\u0917\u094b","name:sa":"\u091f\u094b\u0917\u094b","name:bn":"\u099f\u09cb\u0997\u09cb","name:bo":"\u0f4a\u0f7c\u0f0b\u0f42\u0f7c","name:be":"\u0422\u043e\u0433\u0430","name:bg":"\u0422\u043e\u0433\u043e","name:ss":"IThogo","name:sr":"\u0422\u043e\u0433\u043e","name:nv":"T\u02bc\u00f3ogo","name:ga":"T\u00f3ga","name:gd":"T\u00f2go","name:gv":"Yn Togo","name:gu":"\u0a9f\u0acb\u0a97\u0acb"},"coordinates":[1485,551]},{"type":"Point","properties":{"kind":"region","name":"Atakora","kind_detail":"state","min_zoom":4.0,"official_name":"D\u00e9partement d'Atacora","source":"openstreetmap.org","name:fr":"Atacora","name:uk":"\u0410\u0442\u0430\u043a\u043e\u0440\u0430","name:ru":"\u0410\u0442\u0430\u043a\u043e\u0440\u0430","id":2240079695},"coordinates":[2233,3413]},{"type":"Point","properties":{"kind":"region","name":"Borgou","kind_detail":"state","official_name":"D\u00e9partement du Borgou","source":"openstreetmap.org","min_zoom":4.0,"name:uk":"\u0411\u043e\u0440\u0433\u0443","name:ru":"\u0411\u043e\u0440\u0433\u0443","id":2240079697},"coordinates":[3994,1925]},{"type":"Point","properties":{"kind":"region","name":"Donga","kind_detail":"state","official_name":"D\u00e9partement de Donga","source":"openstreetmap.org","min_zoom":4.0,"name:uk":"\u0414\u043e\u043d\u0433\u0430","name:ru":"\u0414\u043e\u043d\u0433\u0430","id":2240079699},"coordinates":[2501,1272]},{"type":"Point","properties":{"source":"naturalearthdata.com","kind":"locality","name":"Parakou","population":188853,"region_capital":true,"min_zoom":5.0,"id":6718},"coordinates":[3816,1379]},{"type":"Point","properties":{"source":"naturalearthdata.com","kind":"locality","name":"Djougou","population":202810,"min_zoom":7.0,"id":4566},"coordinates":[2447,1911]},{"type":"Point","properties":{"source":"naturalearthdata.com","kind":"locality","name":"Sokode","population":117811,"region_capital":true,"min_zoom":7.0,"id":2124},"coordinates":[1675,862]},{"type":"Point","properties":{"source":"naturalearthdata.com","kind":"locality","name":"Natitingou","population":80892,"region_capital":true,"min_zoom":7.0,"id":4565},"coordinates":[2024,2828]},{"type":"Point","properties":{"source":"naturalearthdata.com","kind":"locality","name":"Mango","population":42626,"min_zoom":7.0,"id":2125},"coordinates":[686,2886]}]},"transit":{"type":"GeometryCollection","geometries":[]},"pois":{"type":"GeometryCollection","geometries":[{"type":"Point","properties":{"kind":"nature_reserve","name":"Parc National de Keran","area":1963110000,"source":"openstreetmap.org","min_zoom":6.82,"tier":2,"id":-2702083,"osm_relation":true},"coordinates":[921,2528]},{"type":"Point","properties":{"kind":"nature_reserve","name":"R\u00e9serve totale d'Oti Mandouri","area":2094540000,"source":"openstreetmap.org","min_zoom":6.77,"tier":2,"id":-2702079,"osm_relation":true},"coordinates":[940,3311]},{"type":"Point","properties":{"kind":"nature_reserve","name":"Zone cyn\u00e9g\u00e9tique de la Pendjari","area":1696630000,"source":"openstreetmap.org","min_zoom":6.93,"tier":2,"id":-2702070,"osm_relation":true},"coordinates":[1891,3731]}]},"boundaries":{"type":"GeometryCollection","geometries":[{"type":"MultiLineString","properties":{"source":"naturalearthdata.com","kind":"country","sort_rank":262,"kind_detail":"2","min_zoom":0.0,"id":390},"arcs":[[0],[1]]},{"type":"MultiLineString","properties":{"source":"naturalearthdata.com","kind":"country","sort_rank":262,"kind_detail":"2","min_zoom":0.0,"id":134},"arcs":[[2],[3]]},{"type":"MultiLineString","properties":{"source":"naturalearthdata.com","kind":"country","sort_rank":262,"kind_detail":"2","min_zoom":0.0,"id":281},"arcs":[[4],[5],[6],[7],[8],[9],[10],[11],[12],[13],[14],[15]]},{"type":"MultiLineString","properties":{"source":"naturalearthdata.com","kind":"country","sort_rank":262,"kind_detail":"2","min_zoom":0.0,"id":282},"arcs":[[16],[17],[18],[19],[20],[21],[22],[23],[24],[25],[26],[27],[28],[29],[30],[31],[32],[33],[34],[35],[36],[37],[38],[39],[40],[41],[42],[43]]},{"type":"MultiLineString","properties":{"source":"naturalearthdata.com","kind":"country","sort_rank":262,"kind_detail":"2","min_zoom":0.0,"id":391},"arcs":[[44],[45],[46]]},{"type":"LineString","properties":{"source":"naturalearthdata.com","kind":"region","name":"Borgou - Collines","sort_rank":256,"kind_detail":"4","min_zoom":6.7,"id":4747},"arcs":[47]},{"type":"MultiLineString","properties":{"source":"naturalearthdata.com","kind":"region","name":"Kara - Centre","sort_rank":256,"kind_detail":"4","min_zoom":6.0,"id":1496},"arcs":[[48],[49],[50],[51],[52],[53],[54],[55],[56]]},{"type":"MultiLineString","properties":{"source":"naturalearthdata.com","kind":"region","name":"Savanes - Kara","sort_rank":256,"kind_detail":"4","min_zoom":6.0,"id":1497},"arcs":[[57],[58],[59],[60],[61],[62],[63],[64],[65],[66],[67],[68],[69],[70],[71],[72],[73],[74]]},{"type":"MultiLineString","properties":{"source":"naturalearthdata.com","kind":"region","name":"Northern - Volta","sort_rank":256,"kind_detail":"4","min_zoom":5.5,"id":3929},"arcs":[[75],[76],[77],[78],[79],[80],[81]]},{"type":"MultiLineString","properties":{"source":"naturalearthdata.com","kind":"region","name":"Atakora - Donga","sort_rank":256,"kind_detail":"4","min_zoom":6.7,"id":4742},"arcs":[[82],[83],[84],[85]]},{"type":"MultiLineString","properties":{"source":"naturalearthdata.com","kind":"region","name":"Collines - Donga","sort_rank":256,"kind_detail":"4","min_zoom":6.7,"id":4744},"arcs":[[86],[87],[88],[89],[90],[91],[92],[93],[94],[95]]},{"type":"LineString","properties":{"source":"naturalearthdata.com","kind":"region","name":"Borgou - Atakora","sort_rank":256,"kind_detail":"4","min_zoom":6.7,"id":4745},"arcs":[96]},{"type":"MultiLineString","properties":{"source":"naturalearthdata.com","kind":"region","name":"Donga - Borgou","sort_rank":256,"kind_detail":"4","min_zoom":6.7,"id":4746},"arcs":[[97],[98],[99]]},{"type":"LineString","properties":{"source":"naturalearthdata.com","kind":"region","name":"Atakora - Alibori","sort_rank":256,"kind_detail":"4","min_zoom":6.7,"id":4748},"arcs":[100]},{"type":"MultiLineString","properties":{"source":"naturalearthdata.com","kind":"region","name":"Alibori - Borgou","sort_rank":256,"kind_detail":"4","min_zoom":6.7,"id":4749},"arcs":[[101],[102],[103],[104]]},{"type":"LineString","properties":{"source":"naturalearthdata.com","kind":"region","name":"Oyo - Kwara","sort_rank":256,"kind_detail":"4","min_zoom":3.0,"id":6779},"arcs":[105]},{"type":"MultiLineString","properties":{"source":"naturalearthdata.com","kind":"macroregion","name":"Kompienga - Koulp\u00e9logo","sort_rank":257,"kind_detail":"3","min_zoom":6.7,"id":7713},"arcs":[[106],[107],[108]]}]},"roads":{"type":"GeometryCollection","geometries":[{"type":"LineString","properties":{"source":"naturalearthdata.com","kind":"minor_road","sort_rank":355,"kind_detail":"tertiary","min_zoom":5.0,"id":37617},"arcs":[111]},{"type":"LineString","properties":{"source":"naturalearthdata.com","kind":"minor_road","kind_detail":"tertiary","sort_rank":355,"landuse_kind":"nature_reserve","min_zoom":5.0,"id":37692},"arcs":[112]},{"type":"LineString","properties":{"source":"naturalearthdata.com","kind":"minor_road","kind_detail":"tertiary","sort_rank":355,"landuse_kind":"protected_area","min_zoom":5.0,"id":37692},"arcs":[113]},{"type":"LineString","properties":{"source":"naturalearthdata.com","kind":"minor_road","sort_rank":355,"kind_detail":"tertiary","min_zoom":5.0,"id":37692},"arcs":[114]},{"type":"LineString","properties":{"source":"naturalearthdata.com","kind":"minor_road","sort_rank":355,"kind_detail":"tertiary","min_zoom":7.0,"id":37760},"arcs":[115]},{"type":"LineString","properties":{"source":"naturalearthdata.com","kind":"minor_road","sort_rank":355,"kind_detail":"tertiary","min_zoom":7.0,"id":37799},"arcs":[116]},{"type":"LineString","properties":{"source":"naturalearthdata.com","kind":"minor_road","kind_detail":"tertiary","sort_rank":355,"landuse_kind":"nature_reserve","min_zoom":5.0,"id":37940},"arcs":[117]},{"type":"LineString","properties":{"source":"naturalearthdata.com","kind":"minor_road","sort_rank":355,"kind_detail":"tertiary","min_zoom":5.0,"id":37940},"arcs":[118]},{"type":"LineString","properties":{"source":"naturalearthdata.com","kind":"minor_road","kind_detail":"tertiary","sort_rank":355,"landuse_kind":"nature_reserve","min_zoom":7.0,"id":38112},"arcs":[119]},{"type":"LineString","properties":{"source":"naturalearthdata.com","kind":"minor_road","sort_rank":355,"kind_detail":"tertiary","min_zoom":7.0,"id":38112},"arcs":[120]},{"type":"LineString","properties":{"source":"naturalearthdata.com","kind":"minor_road","sort_rank":355,"kind_detail":"tertiary","min_zoom":5.0,"id":38129},"arcs":[121]},{"type":"LineString","properties":{"source":"naturalearthdata.com","kind":"minor_road","kind_detail":"tertiary","sort_rank":355,"landuse_kind":"nature_reserve","min_zoom":7.0,"id":38170},"arcs":[122]},{"type":"LineString","properties":{"source":"naturalearthdata.com","kind":"minor_road","sort_rank":355,"kind_detail":"tertiary","min_zoom":7.0,"id":38170},"arcs":[123]},{"type":"LineString","properties":{"source":"naturalearthdata.com","kind":"minor_road","sort_rank":355,"kind_detail":"tertiary","min_zoom":5.0,"id":38192},"arcs":[124]},{"type":"LineString","properties":{"source":"naturalearthdata.com","kind":"minor_road","kind_detail":"tertiary","sort_rank":355,"landuse_kind":"nature_reserve","min_zoom":7.0,"id":38293},"arcs":[125]},{"type":"MultiLineString","properties":{"source":"naturalearthdata.com","kind":"minor_road","sort_rank":355,"kind_detail":"tertiary","min_zoom":7.0,"id":38293},"arcs":[[126],[127]]},{"type":"LineString","properties":{"source":"naturalearthdata.com","kind":"minor_road","kind_detail":"tertiary","sort_rank":355,"landuse_kind":"nature_reserve","min_zoom":7.0,"id":38294},"arcs":[128]},{"type":"MultiLineString","properties":{"source":"naturalearthdata.com","kind":"minor_road","sort_rank":355,"kind_detail":"tertiary","min_zoom":7.0,"id":38294},"arcs":[[129],[130]]},{"type":"LineString","properties":{"source":"naturalearthdata.com","kind":"minor_road","sort_rank":355,"kind_detail":"tertiary","min_zoom":5.0,"id":38337},"arcs":[131]},{"type":"LineString","properties":{"source":"naturalearthdata.com","kind":"minor_road","sort_rank":355,"kind_detail":"tertiary","min_zoom":7.0,"id":38376},"arcs":[132]},{"type":"LineString","properties":{"source":"naturalearthdata.com","kind":"minor_road","sort_rank":355,"kind_detail":"tertiary","min_zoom":5.0,"id":38416},"arcs":[133]},{"type":"LineString","properties":{"source":"naturalearthdata.com","kind":"minor_road","sort_rank":355,"kind_detail":"tertiary","min_zoom":7.0,"id":38444},"arcs":[134]},{"type":"LineString","properties":{"source":"naturalearthdata.com","kind":"minor_road","kind_detail":"tertiary","sort_rank":355,"landuse_kind":"nature_reserve","min_zoom":7.0,"id":38474},"arcs":[135]},{"type":"LineString","properties":{"source":"naturalearthdata.com","kind":"minor_road","sort_rank":355,"kind_detail":"tertiary","min_zoom":7.0,"id":38474},"arcs":[136]},{"type":"LineString","properties":{"source":"naturalearthdata.com","kind":"minor_road","sort_rank":355,"kind_detail":"tertiary","min_zoom":7.0,"id":38526},"arcs":[137]},{"type":"LineString","properties":{"source":"naturalearthdata.com","kind":"minor_road","kind_detail":"tertiary","sort_rank":355,"landuse_kind":"urban_area","min_zoom":5.0,"id":38580},"arcs":[138]},{"type":"LineString","properties":{"source":"naturalearthdata.com","kind":"minor_road","sort_rank":355,"kind_detail":"tertiary","min_zoom":5.0,"id":38580},"arcs":[139]},{"type":"LineString","properties":{"source":"naturalearthdata.com","kind":"major_road","sort_rank":379,"kind_detail":"secondary","min_zoom":4.0,"id":38618},"arcs":[140]},{"type":"LineString","properties":{"source":"naturalearthdata.com","kind":"major_road","sort_rank":379,"kind_detail":"secondary","min_zoom":4.0,"id":38619},"arcs":[141]},{"type":"LineString","properties":{"source":"naturalearthdata.com","kind":"major_road","sort_rank":379,"kind_detail":"secondary","min_zoom":4.0,"id":38624},"arcs":[142]},{"type":"LineString","properties":{"source":"naturalearthdata.com","kind":"minor_road","sort_rank":355,"kind_detail":"tertiary","min_zoom":5.0,"id":38652},"arcs":[143]},{"type":"LineString","properties":{"source":"naturalearthdata.com","kind":"minor_road","sort_rank":355,"kind_detail":"tertiary","min_zoom":7.0,"id":38744},"arcs":[144]},{"type":"LineString","properties":{"source":"naturalearthdata.com","kind":"major_road","sort_rank":379,"kind_detail":"secondary","min_zoom":4.0,"id":38745},"arcs":[145]},{"type":"LineString","properties":{"source":"naturalearthdata.com","kind":"major_road","kind_detail":"secondary","sort_rank":379,"landuse_kind":"urban_area","min_zoom":4.0,"id":38790},"arcs":[146]},{"type":"LineString","properties":{"source":"naturalearthdata.com","kind":"major_road","sort_rank":379,"kind_detail":"secondary","min_zoom":4.0,"id":38790},"arcs":[147]},{"type":"LineString","properties":{"source":"naturalearthdata.com","kind":"minor_road","sort_rank":355,"kind_detail":"tertiary","min_zoom":5.0,"id":38791},"arcs":[148]},{"type":"LineString","properties":{"source":"naturalearthdata.com","kind":"major_road","sort_rank":379,"kind_detail":"secondary","min_zoom":4.0,"id":39124},"arcs":[149]},{"type":"LineString","properties":{"source":"naturalearthdata.com","kind":"major_road","sort_rank":379,"kind_detail":"secondary","min_zoom":4.0,"id":39241},"arcs":[150]}]},"earth":{"type":"GeometryCollection","geometries":[{"type":"MultiPolygon","properties":{"sort_rank":10,"source":"naturalearthdata.com","min_zoom":0.0,"kind":"earth","area":355842667232},"arcs":[[[151]]]}]},"landuse":{"type":"GeometryCollection","geometries":[{"type":"MultiPolygon","properties":{"source":"openstreetmap.org","kind":"nature_reserve","tier":2,"area":8348390120,"sort_rank":23,"min_zoom":4.0,"osm_relation":true},"arcs":[[[152]],[[153]]]},{"type":"MultiPolygon","properties":{"source":"naturalearthdata.com","kind":"urban_area","name":"","area":6872043254,"sort_rank":11,"min_zoom":4.0},"arcs":[[[154]],[[155]],[[156]]]},{"type":"MultiPolygon","properties":{"source":"openstreetmap.org","kind":"protected_area","tier":2,"area":288409519,"sort_rank":17,"min_zoom":4.0,"osm_relation":true},"arcs":[[[157]],[[158]]]},{"type":"Polygon","properties":{"source":"openstreetmap.org","kind":"nature_reserve","area":306259008,"tier":2,"id":59923939,"min_zoom":6.0,"sort_rank":23},"arcs":[[159]]}]}},"type":"Topology","transform":{"translate":[0.0,8.4071681636],"scale":[0.0006866455,0.0006765707]},"arcs":[[[710,3734],[18,62],[-24,6],[5,6],[3,6],[1,6],[2,7],[-1,5],[-2,3],[-3,2],[-163,33],[-127,27],[-332,67],[-87,18]],[[1313,3822],[-189,-4],[-140,-3],[-92,-17],[-182,-64]],[[4033,961],[63,-6]],[[3938,0],[-1,3],[1,13],[7,18],[29,33],[12,18],[11,50],[-3,43],[-28,360],[-1,2],[1,15],[8,12],[25,11],[8,8],[1,13],[-7,22],[-2,14],[5,22],[19,42],[0,23],[-5,10],[-8,3],[-6,3],[-2,12],[3,3],[17,25],[4,9],[8,41],[4,93],[-5,40]],[[1682,4096],[5,-18]],[[1687,4078],[-15,5],[-28,13]],[[1627,4096],[-6,-7],[-10,-27],[-8,-6],[-48,-10],[-8,-4],[2,-22]],[[1563,4030],[14,-3],[2,-6],[-3,-18],[1,-7],[4,-3],[14,-6]],[[1549,4020],[5,2],[9,8]],[[1598,3987],[3,-18],[0,-17],[2,-16],[10,-15],[16,-17],[-2,-24],[-4,-7]],[[1595,3987],[3,0]],[[1507,3905],[-2,4],[-8,14],[-4,3],[-8,3],[-7,7],[-10,7],[-32,5],[-7,3]],[[1429,3951],[-6,-3],[-10,-13],[-8,-18],[-13,-19],[-5,-3],[-2,-15],[1,-17],[5,-13],[12,-5],[8,-8],[2,-18],[-4,-17],[-6,-8]],[[1623,3873],[-11,10],[-10,15],[-4,7],[-15,5],[-45,5]],[[1538,3915],[-6,-1],[-15,-8],[-10,-1]],[[1403,3794],[-26,0],[-20,3],[-44,25]],[[262,2937],[-4,5],[-74,139],[-24,24],[-77,49],[-12,15],[-17,32],[-11,14],[-13,8],[-30,10]],[[0,3791],[10,7],[11,10],[3,19],[4,52],[-4,46],[-22,34],[-2,1]],[[340,2943],[-14,2],[-39,16]],[[287,2961],[-4,-5],[-4,-9],[-6,-9],[-11,-1]],[[450,2793],[13,30],[-16,24],[-25,22],[-16,27],[2,13],[5,15],[-1,17],[-14,14],[-15,4]],[[383,2959],[-13,-5],[-14,-6],[-16,-5]],[[557,2398],[17,4],[1,5],[5,24],[-5,30],[-11,10],[-16,4],[-19,12],[-14,38],[8,105],[-3,49],[11,20],[4,25],[7,22],[36,27],[-30,25],[-14,6]],[[534,2804],[-64,-10],[-20,-1]],[[535,2402],[22,-4]],[[464,1835],[26,3],[15,18],[5,26],[-4,27],[-7,22],[-9,15],[-11,11],[-7,16],[-2,28],[31,114],[0,17],[-6,59],[3,21],[11,22],[19,21],[10,9],[1,12],[-10,29],[-17,35],[-3,10],[3,14],[5,9],[1,9],[-9,15],[26,5]],[[401,1890],[39,-41],[24,-14]],[[450,1768],[-46,5],[-23,31],[-1,44],[21,42]],[[516,1720],[24,7],[10,20],[-12,31],[-29,6]],[[509,1784],[-59,-16]],[[470,1738],[20,-13],[26,-5]],[[409,1719],[35,2],[26,17]],[[335,1727],[74,-8]],[[369,1636],[-15,7],[-14,10],[-11,9],[-4,5],[0,9],[7,42],[3,9]],[[364,1492],[-27,3],[-7,20],[12,17],[-10,24],[0,21],[61,12],[23,9],[18,13],[6,15],[-13,16],[-21,1]],[[406,1643],[-37,-7]],[[648,871],[-20,46],[15,45],[25,46],[7,48],[0,23],[9,14],[33,30],[18,30],[0,23],[-18,53],[1,29],[12,15],[16,9],[15,16],[6,18],[2,43],[14,75],[-9,35],[-26,23],[-44,15],[-1,2],[0,1],[0,2],[10,16],[3,15],[-2,15],[-10,13],[-77,28],[-27,5]],[[600,1604],[-59,-4],[-33,-5],[-22,-10],[-7,-12],[-5,-30],[-5,-12],[-11,-10],[-67,-23],[-27,-6]],[[674,563],[16,8],[5,20],[2,23],[7,18],[32,47],[-18,72],[-70,120]],[[648,871]],[[626,573],[14,-2],[15,-5],[19,-3]],[[594,520],[15,17],[10,25],[-8,6],[15,5]],[[561,560],[17,-7],[16,-33]],[[954,0],[-12,10],[-19,56],[-25,55],[-96,45],[-38,27],[-35,33],[-25,29],[-58,40],[-58,82],[-43,92],[-9,55],[-3,19],[10,14],[18,3]],[[1313,3822],[-37,-91],[-5,-30],[4,-16],[12,-30],[2,-16],[-23,-43],[-3,-16],[-2,-34],[-4,-15],[-19,-27],[-79,-76],[-21,-49],[11,-134],[-1,-57],[-21,-83],[-20,-152],[1,-34],[12,-22],[110,-74],[138,-93],[84,-56],[124,-83],[209,-139],[153,-103],[19,-50],[0,-12],[2,-108],[3,-162],[1,-115],[12,-69],[-2,-18],[-4,-14],[1,-30],[-2,-15],[-9,-19],[-26,-40],[-6,-19],[5,-30],[14,-36],[22,-23]],[[1993,1602],[17,-42],[10,-150],[21,-59],[27,-43],[8,-11],[116,-123],[91,-96],[29,-53],[12,-35],[8,-41],[2,-185],[2,-161],[2,-137],[3,-198],[0,-44],[2,-17],[8,-17],[37,-48],[6,-14],[-5,-27],[-48,-79],[-2,-13],[0,-9]],[[1968,1589],[25,13]],[[3196,546],[769,-8],[1,0]],[[1984,1248],[27,14],[57,46]],[[1958,1249],[26,-1]],[[1729,1190],[28,2],[201,57]],[[1639,1207],[72,-16],[18,-1]],[[1272,883],[9,0],[55,11],[26,3],[11,4],[13,8],[21,17],[20,20],[24,22],[6,9],[1,8],[-16,35],[-4,15],[1,54],[-3,28],[1,17],[3,18],[6,15],[4,6],[4,5],[3,2],[50,12],[109,15],[23,0]],[[1072,950],[10,-3],[11,-1],[13,-1]],[[704,632],[40,12],[31,11],[29,27],[8,3],[23,1],[9,3],[8,5],[6,11],[0,9],[-3,6],[-6,5],[-4,5],[0,7],[2,8],[8,8],[58,38],[5,6],[2,8],[2,8],[2,9],[5,15],[6,6],[8,5],[26,4],[10,4],[15,16],[3,4],[0,1],[3,5],[5,4],[31,22],[7,8],[5,8],[3,7],[4,7],[4,6],[6,4],[7,2]],[[1125,947],[8,-4],[5,-6],[2,-8],[3,-8],[4,-6],[46,-17],[9,-2],[19,-1],[9,-1],[24,-9],[9,-2],[9,0]],[[1106,945],[19,2]],[[1399,2622],[9,0],[10,6],[8,6],[26,40]],[[1349,2629],[11,-1],[39,-6]],[[1300,2603],[8,2],[17,17],[9,5],[15,2]],[[1242,2620],[32,-3],[8,-3],[11,-8],[7,-3]],[[1173,2585],[8,0],[23,16],[27,15],[11,4]],[[1096,2618],[44,-3],[10,-3],[7,-4],[4,-6],[3,-7],[3,-7],[6,-3]],[[989,2174],[2,1],[2,11],[-2,18],[-18,49],[-1,8],[1,8],[2,10],[4,10],[5,19],[4,10],[7,12],[5,10],[2,8],[0,6],[-1,14],[1,46],[4,18],[6,17],[14,28],[43,60],[7,15],[3,18],[-4,21],[-2,8],[0,6],[7,6],[16,7]],[[575,2407],[8,-7],[11,-14],[15,-25],[4,-7],[2,-9],[-1,-8],[-2,-17],[1,-9],[2,-7],[4,-6],[6,-4],[25,-4],[7,-4],[11,-9],[8,-3],[11,-2]],[[705,2272],[23,-4]],[[687,2272],[18,0]],[[742,2269],[8,-1],[7,-3],[4,-4],[-1,-6],[-7,-12],[-1,-7],[1,-7],[3,-7],[4,-6],[5,-5],[13,-7],[6,-4],[5,-6],[13,-18],[5,-4],[9,-3]],[[728,2268],[14,1]],[[931,2186],[9,-3],[13,-8],[8,-2]],[[885,2181],[46,5]],[[867,2181],[18,0]],[[816,2169],[11,1],[17,6],[23,5]],[[976,2177],[13,-3]],[[961,2173],[15,4]],[[339,549],[8,-2],[7,-3],[34,-19],[8,-3],[9,-1]],[[226,263],[9,0],[13,5],[5,7],[2,9],[-2,8],[-3,6],[-5,5],[-16,15],[-8,12],[-4,7],[-2,7],[-2,9],[3,11],[6,12],[29,38],[12,23],[9,26],[7,11],[0,9],[-2,7],[-5,6],[-5,7],[1,8],[2,9],[5,6],[6,4],[35,15],[15,3],[8,1]],[[478,532],[57,-8]],[[405,521],[9,0],[9,1],[46,9],[9,1]],[[535,524],[1,0]],[[197,275],[8,-2],[13,-8],[8,-2]],[[139,0],[1,4],[0,9],[-3,17],[-5,15],[-1,8],[3,13],[6,6],[9,4],[10,3],[15,5],[7,6],[4,8],[-1,7],[-4,7],[-5,5],[-28,13],[-5,4],[-4,6],[-2,8],[0,8],[1,9],[2,8],[15,46],[11,22],[16,24],[8,7],[8,3]],[[2633,2414],[414,-13]],[[2344,2276],[73,18],[62,31],[48,39],[51,29],[55,21]],[[2058,2311],[62,-2],[70,-9],[62,-14],[92,-10]],[[1957,2287],[19,7],[82,17]],[[3196,546],[-11,-46],[14,-17],[10,-21],[24,-132],[-19,-126],[10,-36],[8,-8],[-11,-18],[-21,-16],[-12,-8],[-18,-8],[-24,-8],[-35,-1]],[[2790,224],[-9,1],[-9,2],[-7,3],[-7,4],[-6,4],[-39,43],[-11,9],[-13,8],[-15,7],[-9,2]],[[2665,307],[-18,-1],[-24,-4],[-126,-35],[-17,-1]],[[2445,263],[-78,3],[-26,2]],[[2480,266],[-7,0]],[[2473,266],[-28,-3]],[[3000,122],[-7,1],[-7,3],[-17,14],[-7,3],[-42,13],[-14,8],[-13,8],[-10,10],[-22,29],[-5,5],[-6,4],[-7,3],[-9,1]],[[2834,224],[-44,0]],[[3111,101],[-9,1],[-8,2],[-41,15],[-17,3]],[[3036,122],[-36,0]],[[3284,3120],[-31,-18],[-5,-5],[-4,-3],[-37,-48],[-17,-31],[-10,-24],[-3,-21],[1,-23],[1,-8],[2,-4],[5,-11],[9,-11],[37,-35],[9,-12],[7,-11],[22,-57],[5,-23],[20,-68],[12,-106],[-2,-29],[-3,-18],[-5,-7],[-10,-11],[-11,-9],[-12,-7],[-58,-21],[-24,-5],[-79,-3],[-15,-4],[-14,-6],[-8,-6],[-8,-7],[-11,-14],[-5,-11],[-2,-9],[0,-6],[7,-27]],[[3042,1419],[9,2],[7,2],[6,4],[6,4],[9,8],[6,9],[5,19],[58,380],[-1,21],[-13,26],[-24,21],[-30,32],[-19,31],[-3,7],[-28,82],[-2,19],[2,25],[12,78],[11,42],[0,29],[-13,72],[13,23],[1,0],[2,2],[2,7],[1,7],[-12,30]],[[2988,1421],[54,-2]],[[3196,546],[12,52],[-8,9],[-5,3],[-9,4],[-145,41],[-29,14],[-14,9],[-11,9],[-10,11],[-9,12],[-5,10],[-5,12],[-7,31],[-2,24],[4,73],[2,16],[0,1],[8,50],[9,36],[12,30],[2,9],[1,9],[-2,11],[-7,11],[-4,6],[-5,4],[-43,20],[-11,8],[-7,6],[-9,10],[-9,11],[-7,13],[-3,8],[-6,31],[-5,47],[1,84],[7,50],[21,64],[14,10],[11,7],[7,2],[23,4],[35,3]],[[3284,3120],[16,9],[-7,470],[3,25],[5,18],[15,26],[29,33],[86,72],[-47,46],[-17,12],[-4,1],[-7,1],[-7,3],[-7,4],[-13,6],[-18,4],[-14,0],[-72,103],[-79,143]],[[4041,3170],[55,-1]],[[3808,3138],[233,32]],[[3578,3156],[230,-18]],[[3284,3120],[70,0],[77,18],[73,5],[74,13]],[[4096,252],[-17,0],[-75,-66],[-10,-8]],[[769,4096],[-16,-18],[-17,-27],[-9,-38],[-2,-42],[-14,-19]],[[711,3952],[-25,7],[-24,27],[-16,25],[-20,9]],[[626,4020],[-21,-20],[-55,-118],[-4,-12]],[[157,0],[-36,0],[0,20],[-4,20],[-8,11],[-5,11],[6,15],[10,7],[50,13],[0,10],[-23,6],[-17,9],[-12,15],[-8,22],[4,11],[9,13],[4,11],[-22,10],[8,9],[12,7],[5,-1],[30,58],[10,12],[20,7],[13,-7],[14,-11],[23,-9],[-8,27],[-21,25],[-17,28],[5,41],[14,16],[16,12],[14,13],[6,25],[-3,18],[-5,14],[2,10],[16,5],[17,7],[16,2],[15,-3],[13,-6],[-24,-26],[-7,-5],[11,-23],[-12,-13],[-19,-11],[-10,-19],[-9,-10],[-16,-26],[-10,-27],[11,-13],[27,-17],[1,-33],[-23,-24],[-50,13],[-25,-51],[-6,-19],[-1,-11],[1,-35],[4,-13],[8,-2],[10,-1],[9,-10],[6,-17],[0,-15],[-5,-15],[-11,-14],[-9,-2],[-26,3],[-5,-6],[4,-13],[9,-13],[6,-12],[-4,-13],[2,-10]],[[121,0],[0,20],[-4,20],[-8,11],[-5,11],[6,15],[10,7],[50,13],[0,10],[-23,6],[-17,9],[-12,15],[-8,22],[4,11],[9,13],[4,11],[-22,10],[8,9],[12,7],[5,-1],[30,58],[10,12],[20,7],[13,-7],[14,-11],[23,-9],[-8,27],[-21,25],[-17,28],[5,41],[14,16],[16,12],[14,13],[6,25],[-3,18],[-5,14],[2,10],[16,5],[17,7],[16,2],[15,-3],[13,-6],[-24,-26],[-7,-5],[11,-23],[-12,-13],[-19,-11],[-10,-19],[-9,-10],[-16,-26],[-10,-27],[11,-13],[27,-17],[1,-33],[-23,-24],[-50,13],[-25,-51],[-6,-19],[-1,-11],[1,-35],[4,-13],[8,-2],[10,-1],[9,-10],[6,-17],[0,-15],[-5,-15],[-11,-14],[-9,-2],[-26,3],[-5,-6],[4,-13],[9,-13],[6,-12],[-4,-13],[2,-10]],[[1191,4096],[9,-4],[12,-18]],[[1392,3905],[12,-8]],[[1376,3916],[16,-11]],[[1212,4074],[12,-37],[36,-24],[48,-25],[24,-24],[36,-43],[8,-5]],[[0,3842],[167,-92],[42,-18]],[[209,3732],[18,-42],[24,-19],[30,-12],[18,-24]],[[1404,3897],[29,-33]],[[1433,3864],[19,-22],[30,-49],[54,-55],[24,-42],[54,-104],[30,-24],[43,-49],[48,-43],[18,-30],[18,-55],[36,-37],[24,-49],[12,-36]],[[635,2942],[6,-8],[48,-55],[0,-6]],[[299,3635],[0,-43],[-6,-37],[12,-79],[-12,-30],[12,-67],[-18,-55],[6,-19],[30,-18],[48,-49],[36,-42],[84,-73],[66,-67],[78,-114]],[[1843,3269],[12,-12],[24,12],[12,-6],[0,-31],[18,-12],[12,-43],[54,-61],[24,-54],[0,-43],[-18,-140],[6,-43],[12,-12]],[[689,2873],[0,-80],[12,-24],[24,-12],[26,0]],[[751,2757],[23,0],[42,-12],[36,-19],[48,-12],[36,-12]],[[1999,2824],[24,-43],[6,-49],[36,-85]],[[1630,2352],[14,15],[13,42],[-49,116],[6,25],[10,11]],[[1524,2287],[6,7],[54,36],[42,18],[4,4]],[[1624,2561],[14,19],[61,-12],[36,18],[60,85],[0,37],[84,18],[36,6],[18,13],[36,54],[30,25]],[[1024,2682],[68,-35],[36,0],[30,-6],[12,-12],[30,-55],[30,-12],[60,-73],[60,-61],[17,-15]],[[936,2702],[60,-6],[28,-14]],[[1367,2413],[55,-46],[48,-31],[36,-36],[18,-13]],[[4096,3520],[-7,-13],[-18,-37],[-18,-73],[-54,-98],[-6,-67],[-12,-42],[-6,-67],[12,-98],[0,-30],[-6,-49],[-12,-43],[-30,-110],[-54,-109],[-24,-67],[-6,-67],[0,-49],[6,-86],[18,-36],[72,-55],[24,-18],[12,-43],[-6,-30],[0,-55],[-12,-43]],[[1524,2287],[42,-6],[24,-48],[0,-19],[0,-91],[-12,-25],[36,-85]],[[2065,2647],[12,-73],[42,-110],[48,-67],[42,-49],[18,-42],[6,-61],[6,-43],[0,-67],[18,-30],[54,-74],[42,-42],[30,-37],[48,-43]],[[1614,2013],[61,-122],[6,-30],[-12,-49],[6,-12]],[[592,2812],[19,12],[36,30],[42,19]],[[0,1758],[35,36],[60,67],[48,73],[30,79],[36,49],[12,55],[12,73],[0,24],[18,55],[36,49],[42,73],[42,55],[102,171],[24,61],[12,67],[12,24],[71,43]],[[1735,1684],[30,-49],[0,-61],[18,-12],[-12,-37]],[[3815,1417],[4,-50]],[[3969,2135],[-12,-73],[-18,-92],[-6,-36],[-18,-67],[-18,-37],[-24,-85],[-12,-25],[-24,-73],[-6,-36],[6,-55],[-6,-37],[-12,-30],[-6,-37],[2,-35]],[[840,1428],[-36,-6],[-54,-25],[-73,-42],[-60,-31],[-36,-12],[-66,-6],[-42,-12],[-66,-12],[-24,-13]],[[383,1269],[-24,49],[-36,25],[-36,48],[-18,19],[-42,24],[-78,30],[-54,13],[-36,0],[-42,24],[-17,4]],[[1140,1257],[-96,12],[-30,13],[-24,24],[-24,6],[-18,18],[-66,19],[-24,24],[0,49],[-18,6]],[[2431,1909],[12,0],[84,-73],[85,-79],[84,-61],[96,-43],[54,-18],[54,-30],[60,-49],[48,-43],[78,-79],[54,-85],[30,-25],[36,-97],[30,-25],[66,-30]],[[1771,1525],[18,-67],[18,-48],[6,-43],[-18,-61],[-48,-43],[-18,-30],[12,-55],[0,-37],[-54,-61],[-12,-67],[-6,-91],[0,-55]],[[1669,867],[-25,31],[-42,30],[-84,110],[-30,24],[-36,37],[-48,30],[-72,6],[-42,25],[-54,24],[-36,24],[-36,43],[-24,6]],[[3819,1367],[-6,-31],[-2,-4]],[[3811,1332],[-28,-57],[-30,-79],[-18,-36],[-12,-43],[0,-73],[18,-73],[18,-73],[12,-55],[0,-67],[18,-61]],[[3302,1172],[30,-18],[30,-31],[24,-49],[12,-18],[12,-43],[36,-36],[31,-19],[24,-54],[24,-19],[18,-30],[42,-18],[42,0],[30,-19],[36,-24],[30,-43],[30,-30],[36,-6]],[[3789,715],[18,-37],[6,-30],[-6,-92],[-24,-158],[0,-37],[6,-55],[0,-49],[12,-67],[-6,-79],[-6,-49],[6,-48],[5,-14]],[[1669,843],[0,-31],[-6,-18],[-43,-37],[-24,-30],[-12,-49],[0,-85],[-18,-55],[-30,-67],[-30,-49],[-30,-122],[-42,-73],[-12,-37],[-6,-42],[24,-61],[9,-87]],[[4096,4096],[0,-4096],[-4096,0],[0,4096],[4096,0]],[[438,2437],[93,271],[60,61],[114,-12],[-127,13],[120,360],[35,303],[225,105],[103,86],[-124,179],[28,38],[349,-16],[-37,-105],[29,-47],[-37,-123],[-94,-67],[-26,-331],[-178,-114],[-223,-286],[-11,1],[25,-82],[87,-18],[124,10],[163,59],[270,-230],[-95,-193],[-373,-41],[-97,105],[-230,-40],[-153,18],[-20,96]],[[1379,3887],[59,85],[38,-11],[20,-51],[63,14],[64,-45],[-40,133],[-54,15],[8,23],[52,3],[61,43],[114,-55],[-83,55],[874,0],[546,0],[-30,-20],[-8,-32],[23,-8],[-19,-22],[-194,-90],[-131,36],[-178,-51],[-24,-2],[-9,29],[30,38],[-28,31],[24,-27],[-172,-78],[-93,-91],[-12,17],[-300,-431],[-100,-77],[-64,137],[-181,231],[-192,174],[-64,27]],[[1704,816],[-21,15],[-3,44],[48,0],[-24,-59]],[[3815,1319],[-16,49],[16,49],[58,-51],[-14,-33],[-44,-14]],[[790,3290],[-29,41],[29,41],[32,-17],[-32,-65]],[[1681,4096],[3,-23],[-34,23],[31,0]],[[1508,4047],[1,-7],[74,-28],[40,-133],[-64,45],[-63,-14],[-20,51],[-38,11],[-59,-85],[-6,52],[-156,157],[284,0],[149,0],[-61,-44],[-81,-5]],[[1449,2684],[150,-108],[273,-165],[-17,-18],[-77,22],[-24,-47],[-44,-22],[-97,7],[-21,67],[-108,110],[-35,154]]]}