{"objects":{"water":{"type":"GeometryCollection","geometries":[{"type":"MultiPolygon","properties":{"source":"naturalearthdata.com","kind":"ocean","area":1576712559132672,"sort_rank":200,"min_zoom":0.0,"id":1},"arcs":[[[359]]]},{"type":"MultiLineString","properties":{"source":"naturalearthdata.com","kind":"ocean","sort_rank":205,"boundary":true,"min_zoom":0.0,"id":52},"arcs":[[360],[361],[362]]},{"type":"Point","properties":{"label_placement":true,"kind":"sea","name":"\u10d1\u10d0\u10d7\u10e3\u10db\u10d8\u10e1 \u10e7\u10e3\u10e0\u10d4","source":"openstreetmap.org","sort_rank":200,"min_zoom":3.0,"id":4798638637},"coordinates":[1657,671]}]},"buildings":{"type":"GeometryCollection","geometries":[]},"places":{"type":"GeometryCollection","geometries":[{"type":"Point","properties":{"name:cy":"Georgia","name:ko":"\uadf8\ub8e8\uc9c0\uc57c","name:cv":"\u0413\u0440\u0443\u0437\u0438","name:cu":"\u0413\u0454\u0461\u0440\u0433\u0456\u0301\ua657","name:kl":"Georgia","name:cs":"Gruzie","name:ki":"Jojia","name:kw":"Pow Grouzi","name:kv":"\u0413\u0440\u0443\u0437\u0438\u044f","name:ku":"Gurcistan","name:ti":"\u1306\u122d\u1302\u12eb","name:ks":"\u062c\u0627\u0631\u062c\u0650\u06cc\u0627","name:to":"S\u014dsia","name:tl":"Heyorhiya","name:ta":"\u0b9a\u0bbf\u0baf\u0bbe\u0bb0\u0bcd\u0b9a\u0bbf\u0baf\u0bbe","name:tg":"\u0413\u0443\u0440\u04b7\u0438\u0441\u0442\u043e\u043d","name:ca":"Ge\u00f2rgia","name:te":"\u0c1c\u0c3e\u0c30\u0c4d\u0c1c\u0c3f\u0c2f\u0c3e","name:hr":"Gruzija","name:da":"Georgien","name:de":"Georgien","name:dz":"\u0f47\u0f7d\u0f62\u0f0b\u0f47\u0f71","source":"openstreetmap.org","name:kn":"\u0c9c\u0cbe\u0cb0\u0ccd\u0c9c\u0cbf\u0caf\u0cbe","name:km":"\u17a0\u17d2\u179f\u1780\u17a0\u17d2\u179f\u17c9\u17b8","name:lv":"Gruzija","name:lt":"Gruzija","name:uz":"Gruziya","name:kk":"\u0413\u04af\u0440\u0436\u0456\u0441\u0442\u0430\u043d","name:ur":"\u062c\u0627\u0631\u062c\u06cc\u0627","name:lb":"Georgien","name:la":"Georgia","name:lg":"Gyogya","name:uk":"\u0413\u0440\u0443\u0437\u0456\u044f","name:ug":"\u06af\u0631\u06c7\u0632\u0649\u064a\u06d5","name:li":"Georgi\u00eb","name:ln":"Zorzi","name:lo":"\u0e88\u0ecd\u0ec0\u0e88\u0e8d","name:el":"\u0393\u03b5\u03c9\u03c1\u03b3\u03af\u03b1","name:eo":"Kartvelujo","name:en":"Georgia","name":"\u10e1\u10d0\u10e5\u10d0\u10e0\u10d7\u10d5\u10d4\u10da\u10dd","name:tk":"Gruzi\u00fda","name:ee":"Georgia","name:th":"\u0e1b\u0e23\u0e30\u0e40\u0e17\u0e28\u0e08\u0e2d\u0e23\u0e4c\u0e40\u0e08\u0e35\u0e22","name:eu":"Georgia","name:et":"Gruusia","name:es":"Georgia","name:ia":"Georgia","name:rm":"Georgia","name:rn":"Jeworujiya","name:az":"G\u00fcrc\u00fcstan","name:ie":"Georgia","name:id":"Georgia","name:ar":"\u062c\u0648\u0631\u062c\u064a\u0627","name:io":"Gruzia","name:av":"\u0413\u0443\u0440\u0436\u0438","name:ak":"Gy\u0254gyea","name:am":"\u1306\u122d\u1302\u12eb","name:it":"Georgia","name:an":"Cheorchia","name:ru":"\u0413\u0440\u0443\u0437\u0438\u044f","name:ab":"\u049a\u044b\u0440\u04ad\u0442\u04d9\u044b\u043b\u0430 \u0410\u04b3\u04d9\u044b\u043d\u04ad\u049b\u0430\u0440\u0440\u0430","name:af":"Georgi\u00eb","name:zu":"i-Georgia","name:ky":"\u0413\u0440\u0443\u0437\u0438\u044f","name:zh-yue":"\u683c\u9b6f\u5409\u4e9e","name:zh":"\u4e54\u6cbb\u4e9a","name:so":"Joorjiya","name:sn":"Georgia","name:sl":"Gruzija","name:sk":"Gruz\u00ednsko","name:ja":"\u30b0\u30eb\u30b8\u30a2","name:si":"\u0da2\u0ddd\u0dbb\u0dca\u0da2\u0dd2\u0dba\u0dcf\u0dc0","name:sh":"Gruzija","name:sg":"Zorz\u00efi","name:se":"Georgia","name:br":"Jorjia","name:bs":"Gruzija","name:bm":"Zey\u0254rzi","name:bn":"\u099c\u09b0\u09cd\u099c\u09bf\u09af\u09bc\u09be","name:bo":"\u0f47\u0f7c\u0f62\u0f0b\u0f47\u0f72\u0f0b\u0f61\u0f0d","name:sw":"Georgia","name:be":"\u0413\u0440\u0443\u0437\u0456\u044f","name:bg":"\u0413\u0440\u0443\u0437\u0438\u044f","name:sr":"\u0413\u0440\u0443\u0437\u0438\u0458\u0430","name:sq":"Gjeorgjia","name:jv":"Georgia","name:pt":"Ge\u00f3rgia","name:ps":"\u062c\u064a\u0648\u0631\u062c\u064a\u0627","name:oc":"Georgia","min_zoom":2.0,"name:ro":"Georgia","name:zh-min-nan":"Sakartvelo","name:os":"\u0413\u0443\u044b\u0440\u0434\u0437\u044b\u0441\u0442\u043e\u043d","name:or":"\u0b1c\u0b30\u0b4d\u0b1c\u0b3f\u0b06","name:pl":"Gruzja","name:tr":"G\u00fcrcistan","name:hi":"\u091c\u094b\u0930\u094d\u091c\u093f\u092f\u093e","name:sv":"Georgien","name:he":"\u05d2\u05d9\u05d0\u05d5\u05e8\u05d2\u05d9\u05d4","name:ha":"Jiwarjiya","name:hy":"\u054e\u0580\u0561\u057d\u057f\u0561\u0576","name:ht":"Jeoji","name:hu":"Gr\u00fazia","name:qu":"Kartulsuyu","population":4630841,"kind":"country","name:is":"Georg\u00eda","name:yo":"Georgia","name:mt":"\u0120eor\u0121ja","alt_name:eo":"Kartvelio","name:ms":"Georgia","name:mr":"\u091c\u0949\u0930\u094d\u091c\u093f\u092f\u093e","name:my":"\u1002\u103b\u1031\u102c\u103a\u1002\u103b\u102e\u101a\u102c","int_name":"Georgia","name:mg":"Zeorzia","name:ml":"\u0d1c\u0d4b\u0d30\u0d4d\u200d\u0d1c\u0d4d\u0d1c\u0d3f\u0d2f","name:vi":"Gruzia","name:mn":"\u0413\u04af\u0440\u0436","id":432424985,"name:mk":"\u0413\u0440\u0443\u0437\u0438\u0458\u0430","name:vo":"Grusiy\u00e4n","name:fa":"\u06af\u0631\u062c\u0633\u062a\u0627\u0646","name:ff":"Jeorgii","name:fi":"Georgia","name:fo":"Georgia","name:fr":"G\u00e9orgie","name:fy":"Georgje","name:nl":"Georgi\u00eb","name:nn":"Georgia","name:no":"Georgia","name:na":"Georgia","name:ne":"\u091c\u094b\u0930\u094d\u091c\u093f\u092f\u093e","name:wo":"Jeoorji","name:ga":"An tSeoirsia","name:gd":"Gruisia","name:gl":"Xeorxia","name:gv":"Yn \u00c7horshey","name:gu":"\u0a9c\u0acd\u0aaf\u0acb\u0ab0\u0acd\u0a9c\u0ac0\u0aaf\u0abe","name:tt":"\u0413\u0440\u0443\u0437\u0438\u044f"},"coordinates":[3389,699]},{"type":"Point","properties":{"name:pt":"Abec\u00e1sia","name:cy":"Abchasia","name:ko":"\uc555\ud558\uc2a4 \uacf5\ud654\uad6d","name:cv":"\u0410\u0431\u0445\u0430\u0437\u0438","name:cu":"\u0410\u0431\u0445\u0430\ua641\u0457\ua657","name:cs":"Abch\u00e1zie","name:tt":"Abxaz\u00eda","name:kv":"\u0410\u0431\u0445\u0430\u0437\u0438\u044f","name:ku":"Abxazya","name:ro":"Abhazia","name:rw":"Abukaziya","name:tl":"Abkasya","name:sv":"Abchazien","name:os":"\u0410\u0431\u0445\u0430\u0437\u0438","name:or":"\u0b06\u0b2c\u0b3e\u0b16\u0b3e\u0b1c\u0b3f\u0b06","name:ce":"\u0410\u0431\u0445\u0430\u0437\u0438","name:ta":"\u0b85\u0baa\u0bcd\u0b95\u0bbe\u0b9a\u0bbf\u0baf\u0bbe","name:ca":"Abkh\u00e0zia","name:te":"\u0c05\u0c2c\u0c4d\u200c\u0c16\u0c1c\u0c3f\u0c2f\u0c3e","name:vi":"Abkhazia","name:ka":"\u10d0\u10e4\u10ee\u10d0\u10d6\u10d4\u10d7\u10d8","name:da":"Abkhasien","name:fr":"Abkhazie","name:de":"Abchasien","source":"openstreetmap.org","name:yo":"Abkhez","name:pa":"\u0a05\u0a2c\u0a16\u0a3c\u0a3e\u0a1c\u0a3c\u0a40\u0a06","name:lv":"Abh\u0101zija","name:lt":"Abchazija","name:uz":"Abxaziya","name:kk":"\u0410\u0431\u0445\u0430\u0437\u0438\u044f","name:he":"\u05d0\u05d1\u05d7\u05d6\u05d9\u05d4","kind":"country","name:ur":"\u0627\u0628\u062e\u0627\u0632\u064a\u0627","name:la":"Abasci","official_name":"\u0420\u0435\u0441\u043f\u0443\u0431\u043b\u0438\u043a\u0430 \u0410\u0431\u0445\u0430\u0437\u0438\u044f - \u0410\u04a7\u0441\u043d\u044b \u0410\u04b3\u04d9\u044b\u043d\u04ad\u049b\u0430\u0440\u0440\u0430","name:uk":"\u0410\u0431\u0445\u0430\u0437\u0456\u044f","name:hy":"\u0531\u0562\u056d\u0561\u0566\u056b\u0561","min_zoom":2.0,"name:hu":"Abh\u00e1zia","name:hr":"Abhazija","name:oc":"Abcazia","population":240705,"name:el":"\u0391\u03bc\u03c0\u03c7\u03b1\u03b6\u03af\u03b1","name:eo":"Ab\u0125azujo","name:en":"Abkhazia","name":"\u0410\u04a7\u0441\u043d\u044b - \u0410\u0431\u0445\u0430\u0437\u0438\u044f","name:tk":"Abhazi\u00fda","name:th":"\u0e2d\u0e31\u0e1a\u0e2e\u0e32\u0e40\u0e0b\u0e35\u0e22","name:eu":"Abkhazia","name:et":"Abhaasia","name:nl":"Abchazi\u00eb","name:es":"Abjasia","name:ia":"Abchasia","alt_name:eo":"Ab\u0125azio","name:az":"Abxaziya","name:ie":"Abkhazia","name:id":"Abkhazia","name:ms":"Abkhazia","name:mr":"\u0905\u092c\u0916\u093e\u091d\u093f\u092f\u093e","name:ar":"\u0623\u0628\u062e\u0627\u0632\u064a\u0627","name:io":"Abkhazia","int_name":"Abkhazia","name:is":"Abkas\u00eda","name:it":"Abcasia","name:an":"Abjasia","name:ru":"\u0410\u0431\u0445\u0430\u0437\u0438\u044f","name:ab":"\u0410\u04a7\u0441\u043d\u044b","name:pl":"Abchazja","name:mk":"\u0410\u0431\u0445\u0430\u0437\u0438\u0458\u0430","name:af":"Abkasi\u00eb","name:fa":"\u0622\u0628\u062e\u0627\u0632","name:mn":"\u0410\u0431\u0445\u0430\u0437\u0438","name:fi":"Abhasia","name:hi":"\u0905\u092c\u0916\u093e\u091c\u093f\u092f\u093e","id":466507355,"name:ba":"\u0410\u0431\u0445\u0430\u0437\u0438\u044f","name:zh-yue":"\u963f\u5e03\u54c8\u8332","name:fy":"Abgaazje","name:vo":"Labkas\u00e4n","name:zh":"\u963f\u5e03\u54c8\u8332","name:gv":"Abkhazia","name:so":"Abkhazia","name:sl":"Abhazija","name:sk":"Abch\u00e1zsko","name:ja":"\u30a2\u30d6\u30cf\u30b8\u30a2","name:nn":"Abkhasia","name:sh":"Abhazija","name:br":"Abkhazia","name:bs":"Abhazija","name:bn":"\u0986\u09ac\u0996\u09be\u099c\u09bf\u09af\u09bc\u09be","name:ml":"\u0d05\u0d2c\u0d4d\u0d16\u0d3e\u0d38\u0d3f\u0d2f","name:no":"Abkhasia","name:sw":"Abkhazia","name:be":"\u0410\u0431\u0445\u0430\u0437\u0456\u044f","name:su":"Abkhazia","name:bg":"\u0410\u0431\u0445\u0430\u0437\u0438\u044f","name:sr":"\u0410\u0431\u0445\u0430\u0437\u0438\u0458\u0430","name:sq":"Abkhazia","name:ga":"An Abc\u00e1is","name:jv":"Abkhazia","name:gl":"Abkhazia","name:tr":"Abhazya"},"coordinates":[1351,2163]},{"type":"Point","properties":{"name:ia":"Ossetia del Sud","alt_name:eo":"Sud-Osetio","name:ka":"\u10ea\u10ee\u10d8\u10dc\u10d5\u10d0\u10da\u10d8\u10e1 \u10e0\u10d4\u10d2\u10d8\u10dd\u10dc\u10d8","name:io":"Sud-Osetia","min_zoom":2.0,"name:it":"Ossezia del Sud","name:ru":"\u042e\u0436\u043d\u0430\u044f \u041e\u0441\u0435\u0442\u0438\u044f","name:os":"\u0425\u0443\u0441\u0441\u0430\u0440 \u0418\u0440\u044b\u0441\u0442\u043e\u043d","name:vi":"Nam Ossetia","name:pl":"Osetia Po\u0142udniowa","id":1696850886,"name:ca":"Oss\u00e8tia del Sud","name:vo":"Sul\u00fcda-Loset\u00e4n","name:fa":"\u0627\u0648\u0633\u062a\u06cc\u0627\u06cc \u062c\u0646\u0648\u0628\u06cc","name:fi":"Etel\u00e4-Ossetia","name:de":"S\u00fcdossetien","source":"openstreetmap.org","name:fr":"Oss\u00e9tie du Sud","name:fy":"S\u00fad-Osseesje","name:be":"\u041f\u0430\u045e\u0434\u043d\u0451\u0432\u0430\u044f \u0410\u0441\u0435\u0446\u0456\u044f","name:zh":"\u5357\u5965\u585e\u68af","name:nl":"Zuid-Osseti\u00eb","name:lt":"Piet\u0173 Osetija","name:no":"S\u00f8r-Ossetia","name:he":"\u05d3\u05e8\u05d5\u05dd \u05d0\u05d5\u05e1\u05d8\u05d9\u05d4","kind":"country","name:br":"Osetia ar Su","name:sk":"Ju\u017en\u00e9 Osetsko","name:uk":"\u041f\u0456\u0432\u0434\u0435\u043d\u043d\u0430 \u041e\u0441\u0435\u0442\u0456\u044f","name:sv":"Sydossetien","name:hu":"D\u00e9l-Osz\u00e9tia","name:sr":"\u0408\u0443\u0436\u043d\u0430 \u041e\u0441\u0435\u0442\u0438\u0458\u0430","population":72000,"name:eo":"Sud-Osetujo","name:en":"South Ossetia","name":"\u0425\u0443\u0441\u0441\u0430\u0440 \u0418\u0440\u044b\u0441\u0442\u043e\u043d - \u042e\u0436\u043d\u0430\u044f \u041e\u0441\u0435\u0442\u0438\u044f","name:ku":"Osetyaya Ba\u015f\u00fbr","name:es":"Osetia del Sur"},"coordinates":[3439,1363]},{"type":"Point","properties":{"kind":"region","name:en":"Republic of Adygea","name":"\u0410\u0434\u044b\u0433\u0435\u044f","kind_detail":"state","name:eo":"Adigeio","official_name":"\u0420\u0435\u0441\u043f\u0443\u0431\u043b\u0438\u043a\u0430 \u0410\u0434\u044b\u0433\u0435\u044f","name:de":"Republik Adygeja","source":"openstreetmap.org","name:fr":"Adygu\u00e9e","name:ku":"Ad\u00eegeya","name:et":"Ad\u00f5gee","min_zoom":4.0,"name:hu":"Adigef\u00f6ld","name:zh":"\u963f\u8fea\u683c\u5171\u548c\u56fd","id":869555482},"coordinates":[566,3702]},{"type":"Point","properties":{"kind":"region","name":"Ardahan","kind_detail":"province","min_zoom":4.0,"source":"openstreetmap.org","name:ku":"Erd\u00eaxan","name:uk":"\u0410\u0440\u0434\u0430\u0445\u0430\u043d","name:ru":"\u0410\u0440\u0434\u0430\u0445\u0430\u043d","id":1827532442},"coordinates":[2455,57]},{"type":"Point","properties":{"kind":"region","name":"Artvin","kind_detail":"province","source":"openstreetmap.org","min_zoom":4.0,"name:uk":"\u0410\u0440\u0442\u0432\u0456\u043d","name:ru":"\u0410\u0440\u0442\u0432\u0438\u043d","id":2908518369},"coordinates":[1795,180]},{"type":"Point","properties":{"kind":"region","name:en":"Ingushetia","name":"\u0418\u043d\u0433\u0443\u0448\u0435\u0442\u0438\u044f","kind_detail":"state","name:eo":"Ingu\u015dio","name:de":"Inguschetien","source":"openstreetmap.org","name:fr":"Ingouchie","name:be":"\u0406\u043d\u0433\u0443\u0448\u044d\u0446\u0456\u044f","name:ku":"\u00ceng\u00fb\u015fetya","name:et":"Ingu\u0161\u0161ia","min_zoom":4.0,"name:hu":"Ingusf\u00f6ld","name:zh":"\u5370\u53e4\u4ec0\u5171\u548c\u56fd","id":869606611},"coordinates":[4081,2179]},{"type":"Point","properties":{"name:eo":"Kabardio-Balkario","name:tt":"\u041a\u0430\u0431\u0430\u0440\u0434\u0430-\u0411\u0430\u043b\u043a\u0430\u0440\u0438\u044f","min_zoom":4.0,"official_name":"\u041a\u0430\u0431\u0430\u0440\u0434\u0438\u043d\u043e-\u0411\u0430\u043b\u043a\u0430\u0440\u0441\u043a\u0430\u044f \u0420\u0435\u0441\u043f\u0443\u0431\u043b\u0438\u043a\u0430","name:be":"\u041a\u0430\u0431\u0430\u0440\u0434\u0437\u0456\u043d\u0430-\u0411\u0430\u043b\u043a\u0430\u0440\u044b\u044f","name:hu":"Kabardino-Balkaria","id":869609474,"kind":"region","name:en":"Kabardino-Balkaria","name":"\u041a\u0430\u0431\u0430\u0440\u0434\u0438\u043d\u043e-\u0411\u0430\u043b\u043a\u0430\u0440\u0438\u044f","kind_detail":"state","name:ku":"Kabard\u00eeno-Balkarya","name:de":"Kabardino-Balkarien","source":"openstreetmap.org","name:fr":"Kabardino-Balkarie","name:zh":"\u5361\u5df4\u5c14\u8fbe\u2014\u5df4\u5c14\u5361\u5c14\u5171\u548c\u56fd"},"coordinates":[2946,2455]},{"type":"Point","properties":{"name:pt":"Oss\u00e9tia do Norte-Al\u00e2nia","name:az":"\u015eimali Osetiya","name:ka":"\u10e9\u10e0\u10d3\u10d8\u10da\u10dd\u10d4\u10d7\u10d8 \u10dd\u10e1\u10d4\u10d7\u10d8","name:cv":"\u00c7\u0443\u0440\u00e7\u0115\u0440 \u041e\u0441\u0435\u0442\u0438","name:cs":"Severn\u00ed Osetie-Alanie","name:tt":"\u0422\u04e9\u043d\u044c\u044f\u043a \u041e\u0441\u0435\u0442\u0438\u044f","name:av":"\u0428\u0438\u043c\u0430\u043b\u0438\u044f\u0431 \u0413\u044c\u0438\u0440\u0438\u0441\u0442\u0430\u043d","min_zoom":4.0,"name:it":"Ossezia Settentrionale-Alania","name:be":"\u041f\u0430\u045e\u043d\u043e\u0447\u043d\u0430\u044f \u0410\u0441\u0435\u0446\u0456\u044f","name:os":"\u0426\u00e6\u0433\u0430\u0442 \u0418\u0440\u044b\u0441\u0442\u043e\u043d","name:nl":"Noord-Osseti\u00eb","name:ce":"\u041a\u044a\u0438\u043b\u0431\u0430\u0441\u0435\u0434\u0430 \u0425\u04c0\u0438\u0440\u0438\u0439\u0447\u043e\u044c","name:de":"Nordossetien-Alanien","name:pl":"Osetia P\u00f3\u0142nocna","name:ca":"Oss\u00e8tia del Nord - Al\u00e0nia","name:af":"Noord-Osseti\u00eb-Alani\u00eb","name:bg":"\u0421\u0435\u0432\u0435\u0440\u043d\u0430 \u041e\u0441\u0435\u0442\u0438\u044f","kind_detail":"state","name:da":"Nordossetien\u2013Alania","id":869609085,"source":"openstreetmap.org","name:fr":"Oss\u00e9tie du Nord-Alanie","name:zh":"\u5317\u5965\u585e\u68af-\u963f\u5170\u5171\u548c\u56fd","name:lv":"Zieme\u013cosetija-Al\u0101nija","name:ja":"\u5317\u30aa\u30bb\u30c1\u30a2\u5171\u548c\u56fd","name:hi":"\u0909\u0924\u094d\u0924\u0930 \u0913\u0938\u0947\u0924\u093f\u092f\u093e-\u0906\u0932\u093e\u0928\u093f\u092f\u093e","kind":"region","name:la":"Ossetia Septentrionalis","official_name":"\u0420\u0435\u0441\u043f\u0443\u0431\u043b\u0438\u043a\u0430 \u0421\u0435\u0432\u0435\u0440\u043d\u0430\u044f \u041e\u0441\u0435\u0442\u0438\u044f\u2014\u0410\u043b\u0430\u043d\u0438\u044f","name:uk":"\u041f\u0456\u0432\u043d\u0456\u0447\u043d\u0430 \u041e\u0441\u0435\u0442\u0456\u044f","name:hy":"\u0540\u0575\u0578\u0582\u057d\u056b\u057d\u0561\u0575\u056b\u0576 \u0555\u057d\u056b\u0561","name:sv":"Nordossetien","name:hu":"\u00c9szak-Osz\u00e9tia","name:ba":"\u0422\u04e9\u043d\u044c\u044f\u04a1 \u041e\u0441\u0435\u0442\u0438\u044f \u2014 \u0410\u043b\u0430\u043d\u0438\u044f","name:el":"\u0394\u03b7\u03bc\u03bf\u03ba\u03c1\u03b1\u03c4\u03af\u03b1 \u03c4\u03b7\u03c2 \u0392\u03cc\u03c1\u03b5\u03b9\u03b1\u03c2 \u039f\u03c3\u03b5\u03c4\u03af\u03b1\u03c2 - \u0391\u03bb\u03b1\u03bd\u03af\u03b1\u03c2","name:eo":"Nord-Osetio","name:en":"North Ossetia-Alania","name":"\u0421\u0435\u0432\u0435\u0440\u043d\u0430\u044f \u041e\u0441\u0435\u0442\u0438\u044f","name:ku":"Osetyaya Bakur-Alanya","name:gl":"Osetia do Norte-Alania","name:fi":"Pohjois-Ossetia-Alania","name:et":"P\u00f5hja-Osseetia","name:es":"Osetia del Norte-Alania"},"coordinates":[3560,2006]},{"type":"Point","properties":{"name:eo":"Kara\u0109ajio-\u0108erkesio","name:tt":"\u041a\u0430\u0440\u0430\u0447\u0430\u0439-\u0427\u0438\u0440\u043a\u04d9\u0441\u0438\u044f","min_zoom":4.0,"official_name":"\u041a\u0430\u0440\u0430\u0447\u0430\u0435\u0432\u043e-\u0427\u0435\u0440\u043a\u0435\u0441\u043a\u0430\u044f \u0440\u0435\u0441\u043f\u0443\u0431\u043b\u0438\u043a\u0430","name:uk":"\u041a\u0430\u0440\u0430\u0447\u0430\u0454\u0432\u043e-\u0427\u0435\u0440\u043a\u0435\u0441\u0456\u044f","name:be":"\u041a\u0430\u0440\u0430\u0447\u0430\u0435\u0432\u0430-\u0427\u0430\u0440\u043a\u0435\u0441\u0456\u044f","name:hu":"Karacs\u00e1j- \u00e9s Cserkeszf\u00f6ld","id":869565029,"kind":"region","name:en":"Karachay-Cherkesia","name":"\u041a\u0430\u0440\u0430\u0447\u0430\u0435\u0432\u043e-\u0427\u0435\u0440\u043a\u0435\u0441\u0438\u044f","kind_detail":"state","name:ku":"Qere\u00e7ay-\u00c7erkezya","name:de":"Karatschai-Tscherkesien","source":"openstreetmap.org","name:fr":"Karatcha\u00ef\u00e9vo-Tcherkesie","name:et":"Karat\u0161ai-T\u0161erkessia","name:zh":"\u5361\u62c9\u6070\u4f0a-\u5207\u5c14\u514b\u65af\u5171\u548c\u56fd","name:es":"Karach\u00e1yevo-Cherkesia"},"coordinates":[1713,2748]},{"type":"Point","properties":{"kind":"region","name:en":"Lori","name":"\u053c\u0578\u057c\u056b","name:lt":"Lorio sritis","kind_detail":"state","min_zoom":4.0,"name:de":"Lori","source":"openstreetmap.org","name:fr":"Lorri","name:uk":"\u041b\u043e\u0440\u0456","name:ru":"\u041b\u043e\u0440\u0438","name:pl":"Prowincja Lori","name:hu":"Lorj","id":1883945002,"name:es":"Lorri"},"coordinates":[3725,27]},{"type":"Point","properties":{"kind":"region","name:en":"Stavropol Krai","name":"\u0421\u0442\u0430\u0432\u0440\u043e\u043f\u043e\u043b\u044c\u0441\u043a\u0438\u0439 \u043a\u0440\u0430\u0439","kind_detail":"state","name:eo":"Stavropola Regiono","name:de":"Region Stawropol","source":"openstreetmap.org","min_zoom":4.0,"name:fr":"Kra\u00ef de Stavropol","name:be":"\u0421\u0442\u0430\u045e\u0440\u0430\u043f\u043e\u043b\u044c\u0441\u043a\u0456 \u043a\u0440\u0430\u0439","name:et":"Stavropoli krai","name:hu":"Sztavropoli hat\u00e1rter\u00fclet","name:zh":"\u65af\u5854\u592b\u7f57\u6ce2\u5c14\u8fb9\u7586\u533a","id":869547585,"name:es":"Krai de St\u00e1vropol"},"coordinates":[2961,3871]},{"type":"Point","properties":{"source":"naturalearthdata.com","kind":"locality","name":"Tbilisi","country_capital":true,"population":1100000,"min_zoom":5.0,"id":6992},"coordinates":[3942,745]},{"type":"Point","properties":{"source":"naturalearthdata.com","kind":"locality","name":"Stavropol","population":363064,"region_capital":true,"min_zoom":5.0,"id":6353},"coordinates":[1897,4057]},{"type":"Point","properties":{"source":"naturalearthdata.com","kind":"locality","name":"Sochi","population":327608,"min_zoom":5.0,"id":6364},"coordinates":[258,2602]},{"type":"Point","properties":{"source":"naturalearthdata.com","kind":"locality","name":"Naltchik","population":307866,"region_capital":true,"min_zoom":5.0,"id":6352},"coordinates":[3090,2510]},{"type":"Point","properties":{"source":"naturalearthdata.com","kind":"locality","name":"Trabzon","population":764714,"region_capital":true,"min_zoom":6.0,"id":4955},"coordinates":[251,0]},{"type":"Point","properties":{"source":"naturalearthdata.com","kind":"locality","name":"Batumi","country_capital":true,"population":155542,"min_zoom":6.0,"id":5350},"coordinates":[1642,618]},{"type":"Point","properties":{"source":"naturalearthdata.com","kind":"locality","name":"Sukhumi","country_capital":true,"population":81546,"min_zoom":6.0,"id":5952},"coordinates":[1198,2034]}]},"transit":{"type":"GeometryCollection","geometries":[{"type":"MultiLineString","properties":{"source":"openstreetmap.org","kind":"train","osm_relation":true,"sort_rank":275,"ref":"\u041a\u0438\u0441\u043b\u043e\u0432\u043e\u0434\u0441\u043a - \u041c\u0438\u043d\u0435\u0440\u0430\u043b\u044c\u043d\u044b\u0435 \u0432\u043e\u0434\u044b","min_zoom":6.0,"operator":"\u0420\u0416\u0414"},"arcs":[[239],[240]]},{"type":"LineString","properties":{"kind":"train","name:en":"Borjomi-Bakuriani Railway","network":"local","sort_rank":275,"source":"openstreetmap.org","min_zoom":6.0,"alt_name:en":"Kukushka","operator":"Georgian Railways","name:ru":"\u0423\u0437\u043a\u043e\u043a\u043e\u043b\u0435\u0439\u043d\u0430\u044f \u0436\u0435\u043b\u0435\u0437\u043d\u0430\u044f \u0434\u043e\u0440\u043e\u0433\u0430 \u0411\u043e\u0440\u0436\u043e\u043c\u0438 - \u0411\u0430\u043a\u0443\u0440\u0438\u0430\u043d\u0438","ref":"6467\/6468 Borjomi-Bakuriani","id":-2563692,"osm_relation":true,"name":"\u10d1\u10dd\u10e0\u10ef\u10dd\u10db\u10d8-\u10d1\u10d0\u10d9\u10e3\u10e0\u10d8\u10d0\u10dc\u10d8\u10e1 \u10e1\u10d0\u10e0\u10d9\u10d8\u10dc\u10d8\u10d2\u10d6\u10dd \u10ee\u10d0\u10d6\u10d8"},"arcs":[241]},{"type":"MultiLineString","properties":{"source":"openstreetmap.org","kind":"train","osm_relation":true,"sort_rank":275,"ref":"\u044d\u043b. \u0411\u0435\u043b\u043e\u0440\u0435\u0447\u0435\u043d\u0441\u043a\u0430\u044f - \u0410\u0440\u043c\u0430\u0432\u0438\u0440-1","min_zoom":6.0,"operator":"\u0420\u0416\u0414"},"arcs":[[242],[243],[244]]},{"type":"MultiLineString","properties":{"source":"openstreetmap.org","kind":"train","osm_relation":true,"sort_rank":275,"ref":"\u044d\u043b. \u0425\u0430\u0434\u0436\u043e\u0445 - \u0411\u0435\u043b\u043e\u0440\u0435\u0447\u0435\u043d\u0441\u043a\u0430\u044f","min_zoom":6.0,"operator":"\u0420\u0416\u0414"},"arcs":[[245],[246]]},{"type":"MultiLineString","properties":{"osm_relation":true,"source":"openstreetmap.org","kind":"train","name":"Tbilisi-Telavi","sort_rank":275,"min_zoom":6.0,"operator":"Georgian Railway LLC"},"arcs":[[247],[248]]},{"type":"MultiLineString","properties":{"kind":"train","name":"\u041c\u043e\u0441\u043a\u0432\u0430 \u2014 \u0410\u0434\u043b\u0435\u0440","sort_rank":275,"name:de":"Moskau \u2014 Adler","source":"openstreetmap.org","min_zoom":6.0,"ref":"\u041c\u043e\u0441\u043a\u0432\u0430 - \u0410\u0434\u043b\u0435\u0440","osm_relation":true},"arcs":[[249],[250],[251]]},{"type":"MultiLineString","properties":{"source":"openstreetmap.org","kind":"train","osm_relation":true,"sort_rank":275,"ref":"\u041f\u0440\u043e\u0445\u043b\u0430\u0434\u043d\u0430\u044f - \u041d\u0430\u043b\u044c\u0447\u0438\u043a","min_zoom":6.0,"operator":"\u0420\u0416\u0414"},"arcs":[[252],[253],[254],[255],[256],[257]]},{"type":"MultiLineString","properties":{"source":"openstreetmap.org","kind":"train","osm_relation":true,"sort_rank":275,"ref":"367\/368 \u041a\u0438\u0440\u043e\u0432 \u2014 \u041a\u0438\u0441\u043b\u043e\u0432\u043e\u0434\u0441\u043a","min_zoom":6.0,"operator":"\u0420\u0416\u0414"},"arcs":[[258],[259],[260],[261],[262],[263],[264],[265],[266]]},{"type":"MultiLineString","properties":{"source":"openstreetmap.org","kind":"train","osm_relation":true,"sort_rank":275,"ref":"\u041d\u0435\u0432\u0438\u043d\u043d\u043e\u043c\u044b\u0441\u0441\u043a\u0430\u044f - \u0427\u0435\u0440\u043a\u0435\u0441\u0441\u043a","min_zoom":6.0,"operator":"\u0420\u0416\u0414"},"arcs":[[267],[268]]},{"type":"MultiLineString","properties":{"kind":"train","network":"\u0420\u0416\u0414","sort_rank":275,"source":"openstreetmap.org","min_zoom":6.0,"operator":"\u041a\u0443\u0431\u0430\u043d\u044c \u042d\u043a\u0441\u043f\u0440\u0435\u0441\u0441-\u041f\u0440\u0438\u0433\u043e\u0440\u043e\u0434","ref":"\u041a\u0440\u0430\u0441\u043d\u043e\u0434\u0430\u0440 - \u041c\u0438\u043d\u0435\u0440\u0430\u043b\u044c\u043d\u044b\u0435 \u0412\u043e\u0434\u044b","osm_relation":true,"name":"\u041f\u043e\u0435\u0437\u0434 \u041a\u0440\u0430\u0441\u043d\u043e\u0434\u0430\u0440 - \u041c\u0438\u043d\u0435\u0440\u0430\u043b\u044c\u043d\u044b\u0435 \u0412\u043e\u0434\u044b"},"arcs":[[269],[270],[271],[272]]},{"type":"MultiLineString","properties":{"kind":"train","name":"\u0410\u0434\u043b\u0435\u0440 \u2014 \u041f\u0435\u0440\u043c\u044c 2","sort_rank":275,"name:de":"Adler \u2014 Perm 2","source":"openstreetmap.org","min_zoom":6.0,"operator":"\u0420\u0416\u0414","ref":"354\u0421","osm_relation":true},"arcs":[[273],[274],[275],[276],[277],[278],[279],[280]]},{"type":"LineString","properties":{"kind":"train","name:en":"Yerevan - Gyumri - Georgia","name":"\u0535\u0580\u0587\u0561\u0576 - \u0533\u0575\u0578\u0582\u0574\u0580\u056b - \u054e\u0580\u0561\u057d\u057f\u0561\u0576","sort_rank":275,"source":"openstreetmap.org","min_zoom":6.0,"id":-3147311,"osm_relation":true},"arcs":[281]},{"type":"MultiLineString","properties":{"kind":"train","network":"\u0410\u043f\u0448\u0435\u0440\u043e\u043d\u0441\u043a\u0430\u044f \u0423\u0416\u0414","sort_rank":275,"source":"openstreetmap.org","min_zoom":6.0,"operator":"\u0410\u043f\u0448\u0435\u0440\u043e\u043d\u0441\u043a\u0438\u0439 \u0414\u041e\u041a","ref":"\u0427\u0435\u0440\u043d\u0438\u0433\u043e\u0432\u0441\u043a\u0430\u044f - \u0428\u043f\u0430\u043b\u043e\u0440\u0435\u0437","osm_relation":true},"arcs":[[282],[283]]},{"type":"LineString","properties":{"kind":"train","name":"\u0410\u0434\u043b\u0435\u0440 \u2014 \u0421\u0443\u0445\u0443\u043c","sort_rank":275,"name:de":"Adler \u2014 Sochumi","source":"openstreetmap.org","min_zoom":6.0,"ref":"\u0410\u0434\u043b\u0435\u0440 - \u0421\u0443\u0445\u0443\u043c","osm_relation":true},"arcs":[284]},{"type":"MultiLineString","properties":{"kind":"train","network":"\u0420\u0416\u0414","sort_rank":275,"source":"openstreetmap.org","min_zoom":6.0,"operator":"\u0420\u0416\u0414","ref":"\u044d\u043b. \u0410\u0434\u043b\u0435\u0440 \u2014 \u0422\u0443\u0430\u043f\u0441\u0435","osm_relation":true,"name":"\u044d\u043b. \u0410\u0434\u043b\u0435\u0440 \u2014 \u0422\u0443\u0430\u043f\u0441\u0435"},"arcs":[[285],[286]]},{"type":"MultiLineString","properties":{"source":"openstreetmap.org","kind":"train","osm_relation":true,"sort_rank":275,"ref":"677\/678 \u0412\u043b\u0430\u0434\u0438\u043a\u0430\u0432\u043a\u0430\u0437 \u2014 \u041d\u043e\u0432\u043e\u0440\u043e\u0441\u0441\u0438\u0439\u0441\u043a","min_zoom":6.0,"operator":"\u0420\u0416\u0414"},"arcs":[[287],[288],[289],[290],[291],[292],[293],[294],[295],[296],[297],[298],[299],[300],[301],[302],[303],[304],[305],[306],[307],[308]]},{"type":"LineString","properties":{"source":"openstreetmap.org","kind":"train","sort_rank":275,"ref":"\u044d\u043b. \u0422\u0443\u0430\u043f\u0441\u0435 \u2014 \u0411\u0435\u043b\u043e\u0440\u0435\u0447\u0435\u043d\u0441\u043a","min_zoom":6.0,"osm_relation":true},"arcs":[309]},{"type":"LineString","properties":{"kind":"train","network":"local","sort_rank":275,"source":"openstreetmap.org","min_zoom":6.0,"operator":"Georgian Railways","ref":"6629\/6630; 6631\/6632; 6633\/6634; 6635\/6636; 6637\/6638; 6639\/6640","id":-2049172,"osm_relation":true,"name":"Khashuri-Surami-Khashuri"},"arcs":[310]},{"type":"MultiLineString","properties":{"source":"openstreetmap.org","kind":"train","sort_rank":275,"ref":"D18","min_zoom":6.0,"osm_relation":true},"arcs":[[311],[312],[313],[314],[315]]},{"type":"MultiLineString","properties":{"source":"openstreetmap.org","kind":"train","osm_relation":true,"sort_rank":275,"ref":"\u041c\u0438\u043d\u0435\u0440\u0430\u043b\u044c\u043d\u044b\u0435 \u0412\u043e\u0434\u044b - \u0411\u0443\u0434\u0451\u043d\u043d\u043e\u0432\u0441\u043a","min_zoom":6.0,"operator":"\u0420\u0416\u0414"},"arcs":[[316],[317],[318],[319],[320],[321],[322]]},{"type":"LineString","properties":{"kind":"train","network":"\u0420\u0416\u0414","sort_rank":275,"source":"openstreetmap.org","min_zoom":6.0,"operator":"\u0424\u041f\u041a","ref":"\u0421\u0442\u0430\u0432\u0440\u043e\u043f\u043e\u043b\u044c - \u041a\u0430\u0432\u043a\u0430\u0437\u0441\u043a\u0430\u044f","osm_relation":true,"name":"\u041f\u043e\u0435\u0437\u0434 \u0421\u0442\u0430\u0432\u0440\u043e\u043f\u043e\u043b\u044c - \u041a\u0430\u0432\u043a\u0430\u0437\u0441\u043a\u0430\u044f"},"arcs":[323]},{"type":"MultiLineString","properties":{"source":"openstreetmap.org","kind":"train","name":"Tbilisi-Baku","sort_rank":275,"min_zoom":6.0,"osm_relation":true},"arcs":[[324],[325],[326],[327],[328]]},{"type":"MultiLineString","properties":{"source":"openstreetmap.org","kind":"train","name":"\u0411\u0430\u043a\u0443 \u2014 \u0420\u043e\u0441\u0442\u043e\u0432-\u043d\u0430-\u0414\u043e\u043d\u0443","sort_rank":275,"ref":"Baku \u2014 Rostov-na-Donu","min_zoom":6.0,"osm_relation":true},"arcs":[[329],[330],[331],[332],[333],[334],[335],[336],[337],[338],[339],[340],[341],[342],[343],[344]]},{"type":"MultiLineString","properties":{"source":"openstreetmap.org","kind":"train","osm_relation":true,"sort_rank":275,"ref":"681\/682 \u041d\u0430\u0437\u0440\u0430\u043d\u044c - \u041c\u0438\u043d\u0435\u0440\u0430\u043b\u044c\u043d\u044b\u0435 \u0412\u043e\u0434\u044b","min_zoom":6.0,"operator":"\u0420\u0416\u0414"},"arcs":[[345],[346],[347],[348],[349],[350],[351],[352],[353],[354],[355],[356],[357],[358]]}]},"pois":{"type":"GeometryCollection","geometries":[{"type":"Point","properties":{"kind":"nature_reserve","protect_class":"2","area":2497950000,"source":"openstreetmap.org","min_zoom":6.65,"tier":2,"id":-7376943,"osm_relation":true,"name":"\u0421\u043e\u0447\u0438\u043d\u0441\u043a\u0438\u0439 \u043d\u0430\u0446\u0438\u043e\u043d\u0430\u043b\u044c\u043d\u044b\u0439 \u043f\u0430\u0440\u043a"},"coordinates":[592,2630]},{"type":"Point","properties":{"kind":"nature_reserve","protect_class":"2","area":1918250000,"source":"openstreetmap.org","min_zoom":6.84,"tier":2,"id":505350188,"name":"\u041d\u0430\u0446\u0438\u043e\u043d\u0430\u043b\u044c\u043d\u044b\u0439 \u043f\u0430\u0440\u043a \u00ab\u041f\u0440\u0438\u044d\u043b\u044c\u0431\u0440\u0443\u0441\u044c\u0435\u00bb"},"coordinates":[2328,2384]}]},"boundaries":{"type":"GeometryCollection","geometries":[{"type":"MultiLineString","properties":{"source":"naturalearthdata.com","kind":"country","sort_rank":262,"kind_detail":"2","min_zoom":0.0,"id":74},"arcs":[[0],[1]]},{"type":"MultiLineString","properties":{"source":"naturalearthdata.com","kind":"country","sort_rank":262,"kind_detail":"2","min_zoom":0.0,"id":82},"arcs":[[2],[3],[4],[5],[6],[7],[8],[9],[10],[11],[12],[13],[14],[15],[16],[17]]},{"type":"MultiLineString","properties":{"source":"naturalearthdata.com","kind":"country","sort_rank":262,"kind_detail":"2","min_zoom":0.0,"id":72},"arcs":[[18],[19],[20],[21],[22],[23],[24],[25],[26],[27],[28],[29],[30],[31],[32],[33],[34],[35],[36],[37]]},{"type":"MultiLineString","properties":{"source":"naturalearthdata.com","kind":"country","sort_rank":262,"kind_detail":"2","min_zoom":0.0,"id":76},"arcs":[[38],[39],[40],[41],[42],[43],[44],[45],[46],[47],[48],[49],[50],[51],[52],[53],[54],[55],[56]]},{"type":"LineString","properties":{"source":"naturalearthdata.com","kind":"country","sort_rank":262,"kind_detail":"2","min_zoom":0.0,"id":239},"arcs":[57]},{"type":"LineString","properties":{"source":"naturalearthdata.com","kind":"map_unit","sort_rank":258,"kind_detail":"2","min_zoom":5.0,"id":11},"arcs":[58]},{"type":"LineString","properties":{"source":"naturalearthdata.com","kind":"region","sort_rank":256,"kind_detail":"4","min_zoom":2.0,"id":6536},"arcs":[59]},{"type":"LineString","properties":{"source":"naturalearthdata.com","kind":"region","sort_rank":256,"kind_detail":"4","min_zoom":6.7,"id":7540},"arcs":[60]},{"type":"MultiLineString","properties":{"source":"naturalearthdata.com","kind":"region","sort_rank":256,"kind_detail":"4","min_zoom":6.7,"id":7551},"arcs":[[61],[62],[63],[64],[65]]},{"type":"MultiLineString","properties":{"source":"naturalearthdata.com","kind":"region","sort_rank":256,"kind_detail":"4","min_zoom":6.7,"id":7553},"arcs":[[66],[67]]},{"type":"LineString","properties":{"source":"naturalearthdata.com","kind":"region","sort_rank":256,"kind_detail":"4","min_zoom":6.7,"id":464},"arcs":[68]},{"type":"LineString","properties":{"source":"naturalearthdata.com","kind":"region","sort_rank":256,"kind_detail":"4","min_zoom":6.0,"id":6178},"arcs":[69]},{"type":"LineString","properties":{"source":"naturalearthdata.com","kind":"region","sort_rank":256,"kind_detail":"4","min_zoom":6.0,"id":6179},"arcs":[70]},{"type":"LineString","properties":{"source":"naturalearthdata.com","kind":"region","sort_rank":256,"kind_detail":"4","min_zoom":6.0,"id":6183},"arcs":[71]},{"type":"LineString","properties":{"source":"naturalearthdata.com","kind":"region","sort_rank":256,"kind_detail":"4","min_zoom":2.0,"id":6541},"arcs":[72]},{"type":"LineString","properties":{"source":"naturalearthdata.com","kind":"region","sort_rank":256,"kind_detail":"4","min_zoom":2.0,"id":6533},"arcs":[73]},{"type":"LineString","properties":{"source":"naturalearthdata.com","kind":"region","sort_rank":256,"kind_detail":"4","min_zoom":2.0,"id":6510},"arcs":[74]},{"type":"MultiLineString","properties":{"source":"naturalearthdata.com","kind":"region","sort_rank":256,"kind_detail":"4","min_zoom":2.0,"id":6534},"arcs":[[75],[76],[77],[78],[79],[80],[81],[82],[83],[84],[85],[86],[87]]},{"type":"MultiLineString","properties":{"source":"naturalearthdata.com","kind":"region","sort_rank":256,"kind_detail":"4","min_zoom":2.0,"id":6512},"arcs":[[88],[89],[90],[91],[92],[93],[94],[95],[96],[97],[98],[99],[100]]},{"type":"MultiLineString","properties":{"source":"naturalearthdata.com","kind":"region","sort_rank":256,"kind_detail":"4","min_zoom":2.0,"id":6513},"arcs":[[101],[102],[103],[104],[105],[106],[107],[108],[109],[110],[111],[112],[113],[114],[115]]},{"type":"MultiLineString","properties":{"source":"naturalearthdata.com","kind":"region","sort_rank":256,"kind_detail":"4","min_zoom":2.0,"id":6535},"arcs":[[116],[117]]},{"type":"MultiLineString","properties":{"source":"naturalearthdata.com","kind":"region","sort_rank":256,"kind_detail":"4","min_zoom":2.0,"id":6531},"arcs":[[118],[119],[120]]},{"type":"MultiLineString","properties":{"source":"naturalearthdata.com","kind":"region","sort_rank":256,"kind_detail":"4","min_zoom":2.0,"id":6532},"arcs":[[121],[122],[123],[124],[125],[126],[127],[128],[129],[130]]},{"type":"MultiLineString","properties":{"source":"naturalearthdata.com","kind":"region","sort_rank":256,"kind_detail":"4","min_zoom":2.0,"id":6540},"arcs":[[131],[132],[133],[134],[135],[136],[137],[138],[139],[140],[141],[142],[143]]},{"type":"MultiLineString","properties":{"source":"naturalearthdata.com","kind":"region","sort_rank":256,"kind_detail":"4","min_zoom":2.0,"id":6548},"arcs":[[144],[145],[146],[147],[148],[149],[150],[151],[152],[153],[154],[155],[156],[157],[158],[159],[160],[161],[162],[163],[164],[165],[166],[167],[168],[169],[170],[171],[172],[173],[174]]},{"type":"LineString","properties":{"source":"naturalearthdata.com","kind":"region","sort_rank":256,"kind_detail":"4","min_zoom":6.7,"id":7541},"arcs":[175]},{"type":"MultiLineString","properties":{"source":"naturalearthdata.com","kind":"region","sort_rank":256,"kind_detail":"4","min_zoom":6.7,"id":7534},"arcs":[[176],[177],[178]]},{"type":"MultiLineString","properties":{"source":"naturalearthdata.com","kind":"region","sort_rank":256,"kind_detail":"4","min_zoom":6.7,"id":7535},"arcs":[[179],[180],[181],[182]]},{"type":"MultiLineString","properties":{"source":"naturalearthdata.com","kind":"region","sort_rank":256,"kind_detail":"4","min_zoom":6.7,"id":7536},"arcs":[[183],[184],[185]]},{"type":"LineString","properties":{"source":"naturalearthdata.com","kind":"region","sort_rank":256,"kind_detail":"4","min_zoom":6.7,"id":7537},"arcs":[186]},{"type":"MultiLineString","properties":{"source":"naturalearthdata.com","kind":"region","sort_rank":256,"kind_detail":"4","min_zoom":6.7,"id":7538},"arcs":[[187],[188],[189],[190],[191],[192],[193],[194],[195]]},{"type":"LineString","properties":{"source":"naturalearthdata.com","kind":"region","sort_rank":256,"kind_detail":"4","min_zoom":6.7,"id":7539},"arcs":[196]},{"type":"MultiLineString","properties":{"source":"naturalearthdata.com","kind":"region","sort_rank":256,"kind_detail":"4","min_zoom":6.7,"id":7542},"arcs":[[197],[198],[199],[200],[201],[202],[203]]},{"type":"MultiLineString","properties":{"source":"naturalearthdata.com","kind":"region","sort_rank":256,"kind_detail":"4","min_zoom":6.7,"id":7544},"arcs":[[204],[205],[206],[207]]},{"type":"MultiLineString","properties":{"source":"naturalearthdata.com","kind":"region","sort_rank":256,"kind_detail":"4","min_zoom":6.7,"id":7545},"arcs":[[208],[209],[210],[211],[212],[213]]},{"type":"MultiLineString","properties":{"source":"naturalearthdata.com","kind":"region","sort_rank":256,"kind_detail":"4","min_zoom":6.7,"id":7546},"arcs":[[214],[215],[216],[217],[218],[219]]},{"type":"MultiLineString","properties":{"source":"naturalearthdata.com","kind":"region","sort_rank":256,"kind_detail":"4","min_zoom":6.7,"id":7547},"arcs":[[220],[221]]},{"type":"MultiLineString","properties":{"source":"naturalearthdata.com","kind":"region","sort_rank":256,"kind_detail":"4","min_zoom":6.7,"id":7548},"arcs":[[222],[223]]},{"type":"MultiLineString","properties":{"source":"naturalearthdata.com","kind":"region","sort_rank":256,"kind_detail":"4","min_zoom":6.7,"id":7549},"arcs":[[224],[225],[226],[227],[228],[229],[230]]},{"type":"MultiLineString","properties":{"source":"naturalearthdata.com","kind":"region","sort_rank":256,"kind_detail":"4","min_zoom":6.7,"id":7552},"arcs":[[231],[232],[233],[234],[235]]},{"type":"MultiLineString","properties":{"source":"naturalearthdata.com","kind":"region","sort_rank":256,"kind_detail":"4","min_zoom":6.7,"id":7554},"arcs":[[236],[237],[238]]}]},"roads":{"type":"GeometryCollection","geometries":[{"type":"MultiLineString","properties":{"source":"naturalearthdata.com","kind":"minor_road","sort_rank":355,"kind_detail":"tertiary","min_zoom":6.0,"id":17317},"arcs":[[363],[364]]},{"type":"LineString","properties":{"source":"naturalearthdata.com","kind":"major_road","sort_rank":379,"kind_detail":"secondary","min_zoom":3.0,"id":17322},"arcs":[365]},{"type":"LineString","properties":{"source":"naturalearthdata.com","kind":"major_road","kind_detail":"secondary","sort_rank":379,"landuse_kind":"urban_area","min_zoom":3.0,"id":17326},"arcs":[366]},{"type":"LineString","properties":{"source":"naturalearthdata.com","kind":"major_road","sort_rank":379,"kind_detail":"secondary","min_zoom":3.0,"id":17326},"arcs":[367]},{"type":"LineString","properties":{"source":"naturalearthdata.com","kind":"major_road","kind_detail":"secondary","sort_rank":379,"landuse_kind":"urban_area","min_zoom":4.0,"id":17327},"arcs":[368]},{"type":"LineString","properties":{"source":"naturalearthdata.com","kind":"major_road","kind_detail":"secondary","sort_rank":379,"landuse_kind":"urban_area","min_zoom":3.0,"id":17375},"arcs":[369]},{"type":"MultiLineString","properties":{"source":"naturalearthdata.com","kind":"major_road","sort_rank":379,"kind_detail":"secondary","min_zoom":3.0,"id":17375},"arcs":[[370],[371]]},{"type":"LineString","properties":{"source":"naturalearthdata.com","kind":"major_road","sort_rank":379,"kind_detail":"secondary","min_zoom":3.0,"id":17391},"arcs":[372]},{"type":"LineString","properties":{"source":"naturalearthdata.com","kind":"minor_road","sort_rank":355,"kind_detail":"tertiary","min_zoom":6.0,"id":17451},"arcs":[373]},{"type":"LineString","properties":{"source":"naturalearthdata.com","kind":"minor_road","sort_rank":355,"kind_detail":"tertiary","min_zoom":6.0,"id":17455},"arcs":[374]},{"type":"LineString","properties":{"source":"naturalearthdata.com","kind":"minor_road","kind_detail":"tertiary","sort_rank":355,"landuse_kind":"urban_area","min_zoom":6.0,"id":17460},"arcs":[375]},{"type":"LineString","properties":{"source":"naturalearthdata.com","kind":"minor_road","sort_rank":355,"kind_detail":"tertiary","min_zoom":6.0,"id":17460},"arcs":[376]},{"type":"LineString","properties":{"source":"naturalearthdata.com","kind":"minor_road","kind_detail":"tertiary","sort_rank":355,"landuse_kind":"urban_area","min_zoom":6.0,"id":17461},"arcs":[377]},{"type":"LineString","properties":{"source":"naturalearthdata.com","kind":"minor_road","sort_rank":355,"kind_detail":"tertiary","min_zoom":6.0,"id":17461},"arcs":[378]},{"type":"LineString","properties":{"source":"naturalearthdata.com","kind":"minor_road","kind_detail":"tertiary","sort_rank":355,"landuse_kind":"urban_area","min_zoom":6.0,"id":17476},"arcs":[379]},{"type":"LineString","properties":{"source":"naturalearthdata.com","kind":"minor_road","sort_rank":355,"kind_detail":"tertiary","min_zoom":6.0,"id":17476},"arcs":[380]},{"type":"LineString","properties":{"source":"naturalearthdata.com","kind":"major_road","kind_detail":"secondary","sort_rank":379,"landuse_kind":"urban_area","min_zoom":3.0,"id":17485},"arcs":[381]},{"type":"MultiLineString","properties":{"source":"naturalearthdata.com","kind":"major_road","sort_rank":379,"kind_detail":"secondary","min_zoom":3.0,"id":17485},"arcs":[[382],[383]]},{"type":"LineString","properties":{"source":"naturalearthdata.com","kind":"major_road","kind_detail":"secondary","sort_rank":379,"landuse_kind":"urban_area","min_zoom":4.0,"id":17487},"arcs":[384]},{"type":"LineString","properties":{"source":"naturalearthdata.com","kind":"major_road","kind_detail":"secondary","sort_rank":379,"landuse_kind":"urban_area","min_zoom":4.0,"id":17487},"arcs":[385]},{"type":"LineString","properties":{"source":"naturalearthdata.com","kind":"major_road","sort_rank":379,"kind_detail":"secondary","min_zoom":4.0,"id":17487},"arcs":[386]},{"type":"LineString","properties":{"source":"naturalearthdata.com","kind":"major_road","kind_detail":"secondary","sort_rank":379,"landuse_kind":"urban_area","min_zoom":3.0,"id":17488},"arcs":[387]},{"type":"LineString","properties":{"source":"naturalearthdata.com","kind":"major_road","sort_rank":379,"kind_detail":"secondary","min_zoom":3.0,"id":17488},"arcs":[388]},{"type":"LineString","properties":{"source":"naturalearthdata.com","kind":"minor_road","sort_rank":355,"kind_detail":"tertiary","min_zoom":6.0,"id":17491},"arcs":[389]},{"type":"LineString","properties":{"source":"naturalearthdata.com","kind":"minor_road","kind_detail":"tertiary","sort_rank":355,"landuse_kind":"urban_area","min_zoom":6.0,"id":17509},"arcs":[390]},{"type":"LineString","properties":{"source":"naturalearthdata.com","kind":"minor_road","sort_rank":355,"kind_detail":"tertiary","min_zoom":6.0,"id":17509},"arcs":[391]},{"type":"LineString","properties":{"source":"naturalearthdata.com","kind":"minor_road","kind_detail":"tertiary","sort_rank":355,"landuse_kind":"urban_area","min_zoom":6.0,"id":17513},"arcs":[392]},{"type":"LineString","properties":{"source":"naturalearthdata.com","kind":"minor_road","kind_detail":"tertiary","sort_rank":355,"landuse_kind":"urban_area","min_zoom":6.0,"id":17515},"arcs":[393]},{"type":"LineString","properties":{"source":"naturalearthdata.com","kind":"minor_road","kind_detail":"tertiary","sort_rank":355,"landuse_kind":"urban_area","min_zoom":6.0,"id":17529},"arcs":[394]},{"type":"LineString","properties":{"source":"naturalearthdata.com","kind":"minor_road","kind_detail":"tertiary","sort_rank":355,"landuse_kind":"urban_area","min_zoom":6.0,"id":17529},"arcs":[395]},{"type":"LineString","properties":{"source":"naturalearthdata.com","kind":"minor_road","sort_rank":355,"kind_detail":"tertiary","min_zoom":6.0,"id":17529},"arcs":[396]},{"type":"LineString","properties":{"source":"naturalearthdata.com","kind":"major_road","kind_detail":"secondary","sort_rank":379,"landuse_kind":"urban_area","min_zoom":3.0,"id":17581},"arcs":[397]},{"type":"LineString","properties":{"source":"naturalearthdata.com","kind":"major_road","sort_rank":379,"kind_detail":"secondary","min_zoom":3.0,"id":17581},"arcs":[398]},{"type":"LineString","properties":{"source":"naturalearthdata.com","kind":"minor_road","kind_detail":"tertiary","sort_rank":355,"landuse_kind":"urban_area","min_zoom":6.0,"id":17599},"arcs":[399]},{"type":"LineString","properties":{"source":"naturalearthdata.com","kind":"minor_road","kind_detail":"tertiary","sort_rank":355,"landuse_kind":"urban_area","min_zoom":6.0,"id":17599},"arcs":[400]},{"type":"LineString","properties":{"source":"naturalearthdata.com","kind":"minor_road","sort_rank":355,"kind_detail":"tertiary","min_zoom":6.0,"id":17599},"arcs":[401]},{"type":"LineString","properties":{"source":"naturalearthdata.com","kind":"minor_road","kind_detail":"tertiary","sort_rank":355,"landuse_kind":"urban_area","min_zoom":6.0,"id":17609},"arcs":[402]},{"type":"LineString","properties":{"source":"naturalearthdata.com","kind":"minor_road","sort_rank":355,"kind_detail":"tertiary","min_zoom":6.0,"id":17609},"arcs":[403]},{"type":"LineString","properties":{"source":"naturalearthdata.com","kind":"major_road","kind_detail":"secondary","sort_rank":379,"landuse_kind":"urban_area","min_zoom":3.0,"id":17634},"arcs":[404]},{"type":"MultiLineString","properties":{"source":"naturalearthdata.com","kind":"major_road","sort_rank":379,"kind_detail":"secondary","min_zoom":3.0,"id":17634},"arcs":[[405],[406]]},{"type":"LineString","properties":{"source":"naturalearthdata.com","kind":"minor_road","kind_detail":"tertiary","sort_rank":355,"landuse_kind":"urban_area","min_zoom":6.0,"id":17687},"arcs":[407]},{"type":"LineString","properties":{"source":"naturalearthdata.com","kind":"minor_road","sort_rank":355,"kind_detail":"tertiary","min_zoom":6.0,"id":17687},"arcs":[408]},{"type":"LineString","properties":{"source":"naturalearthdata.com","kind":"major_road","kind_detail":"secondary","sort_rank":379,"landuse_kind":"urban_area","min_zoom":3.0,"id":17688},"arcs":[409]},{"type":"LineString","properties":{"source":"naturalearthdata.com","kind":"major_road","sort_rank":379,"kind_detail":"secondary","min_zoom":3.0,"id":17688},"arcs":[410]},{"type":"LineString","properties":{"source":"naturalearthdata.com","kind":"minor_road","kind_detail":"tertiary","sort_rank":355,"landuse_kind":"urban_area","min_zoom":6.0,"id":17694},"arcs":[411]},{"type":"LineString","properties":{"source":"naturalearthdata.com","kind":"major_road","kind_detail":"secondary","sort_rank":379,"landuse_kind":"urban_area","min_zoom":3.0,"id":17695},"arcs":[412]},{"type":"LineString","properties":{"source":"naturalearthdata.com","kind":"major_road","sort_rank":379,"kind_detail":"secondary","min_zoom":3.0,"id":17695},"arcs":[413]},{"type":"LineString","properties":{"source":"naturalearthdata.com","kind":"major_road","kind_detail":"secondary","sort_rank":379,"landuse_kind":"urban_area","min_zoom":3.0,"id":17696},"arcs":[414]},{"type":"LineString","properties":{"source":"naturalearthdata.com","kind":"major_road","kind_detail":"secondary","sort_rank":379,"landuse_kind":"urban_area","min_zoom":3.0,"id":17759},"arcs":[415]},{"type":"LineString","properties":{"source":"naturalearthdata.com","kind":"major_road","kind_detail":"secondary","sort_rank":379,"landuse_kind":"urban_area","min_zoom":3.0,"id":17759},"arcs":[416]},{"type":"LineString","properties":{"source":"naturalearthdata.com","kind":"major_road","sort_rank":379,"kind_detail":"secondary","min_zoom":3.0,"id":17759},"arcs":[417]},{"type":"LineString","properties":{"source":"naturalearthdata.com","kind":"minor_road","sort_rank":355,"kind_detail":"tertiary","min_zoom":6.0,"id":17766},"arcs":[418]},{"type":"LineString","properties":{"source":"naturalearthdata.com","kind":"major_road","kind_detail":"secondary","sort_rank":379,"landuse_kind":"urban_area","min_zoom":3.0,"id":17796},"arcs":[419]},{"type":"LineString","properties":{"source":"naturalearthdata.com","kind":"minor_road","kind_detail":"tertiary","sort_rank":355,"landuse_kind":"urban_area","min_zoom":6.0,"id":17797},"arcs":[420]},{"type":"LineString","properties":{"source":"naturalearthdata.com","kind":"major_road","kind_detail":"secondary","sort_rank":379,"landuse_kind":"urban_area","min_zoom":3.0,"id":17807},"arcs":[421]},{"type":"LineString","properties":{"source":"naturalearthdata.com","kind":"minor_road","kind_detail":"tertiary","sort_rank":355,"landuse_kind":"urban_area","min_zoom":6.0,"id":17858},"arcs":[422]},{"type":"MultiLineString","properties":{"source":"naturalearthdata.com","kind":"minor_road","kind_detail":"tertiary","sort_rank":355,"landuse_kind":"urban_area","min_zoom":6.0,"id":17858},"arcs":[[423],[424]]},{"type":"MultiLineString","properties":{"source":"naturalearthdata.com","kind":"minor_road","sort_rank":355,"kind_detail":"tertiary","min_zoom":6.0,"id":17858},"arcs":[[425],[426],[427]]},{"type":"LineString","properties":{"source":"naturalearthdata.com","kind":"major_road","kind_detail":"secondary","sort_rank":379,"landuse_kind":"urban_area","min_zoom":3.0,"id":17862},"arcs":[428]},{"type":"LineString","properties":{"source":"naturalearthdata.com","kind":"major_road","sort_rank":379,"kind_detail":"secondary","min_zoom":3.0,"id":17862},"arcs":[429]},{"type":"LineString","properties":{"source":"naturalearthdata.com","kind":"major_road","kind_detail":"secondary","sort_rank":379,"landuse_kind":"urban_area","min_zoom":3.0,"id":17871},"arcs":[430]},{"type":"LineString","properties":{"source":"naturalearthdata.com","kind":"major_road","sort_rank":379,"kind_detail":"secondary","min_zoom":3.0,"id":17871},"arcs":[431]},{"type":"LineString","properties":{"source":"naturalearthdata.com","kind":"minor_road","sort_rank":355,"kind_detail":"tertiary","min_zoom":6.0,"id":17890},"arcs":[432]},{"type":"LineString","properties":{"source":"naturalearthdata.com","kind":"minor_road","kind_detail":"tertiary","sort_rank":355,"landuse_kind":"urban_area","min_zoom":6.0,"id":17894},"arcs":[433]},{"type":"LineString","properties":{"source":"naturalearthdata.com","kind":"minor_road","kind_detail":"tertiary","sort_rank":355,"landuse_kind":"urban_area","min_zoom":6.0,"id":17894},"arcs":[434]},{"type":"LineString","properties":{"source":"naturalearthdata.com","kind":"minor_road","kind_detail":"tertiary","sort_rank":355,"landuse_kind":"urban_area","min_zoom":6.0,"id":17894},"arcs":[435]},{"type":"MultiLineString","properties":{"source":"naturalearthdata.com","kind":"minor_road","sort_rank":355,"kind_detail":"tertiary","min_zoom":6.0,"id":17894},"arcs":[[436],[437],[438]]},{"type":"LineString","properties":{"source":"naturalearthdata.com","kind":"minor_road","kind_detail":"tertiary","sort_rank":355,"landuse_kind":"urban_area","min_zoom":6.0,"id":17895},"arcs":[439]},{"type":"MultiLineString","properties":{"source":"naturalearthdata.com","kind":"minor_road","sort_rank":355,"kind_detail":"tertiary","min_zoom":6.0,"id":17895},"arcs":[[440],[441]]},{"type":"LineString","properties":{"source":"naturalearthdata.com","kind":"major_road","sort_rank":379,"kind_detail":"secondary","min_zoom":3.0,"id":17932},"arcs":[442]},{"type":"LineString","properties":{"source":"naturalearthdata.com","kind":"minor_road","sort_rank":355,"kind_detail":"tertiary","min_zoom":6.0,"id":17939},"arcs":[443]},{"type":"LineString","properties":{"source":"naturalearthdata.com","kind":"major_road","sort_rank":379,"kind_detail":"secondary","min_zoom":3.0,"id":17947},"arcs":[444]},{"type":"LineString","properties":{"source":"naturalearthdata.com","kind":"minor_road","kind_detail":"tertiary","sort_rank":355,"landuse_kind":"urban_area","min_zoom":6.0,"id":17952},"arcs":[445]},{"type":"LineString","properties":{"source":"naturalearthdata.com","kind":"minor_road","kind_detail":"tertiary","sort_rank":355,"landuse_kind":"urban_area","min_zoom":6.0,"id":17956},"arcs":[446]},{"type":"LineString","properties":{"source":"naturalearthdata.com","kind":"major_road","sort_rank":379,"kind_detail":"secondary","min_zoom":3.0,"id":17959},"arcs":[447]},{"type":"LineString","properties":{"source":"naturalearthdata.com","kind":"minor_road","kind_detail":"tertiary","sort_rank":355,"landuse_kind":"urban_area","min_zoom":6.0,"id":17968},"arcs":[448]},{"type":"LineString","properties":{"source":"naturalearthdata.com","kind":"minor_road","sort_rank":355,"kind_detail":"tertiary","min_zoom":6.0,"id":17968},"arcs":[449]},{"type":"LineString","properties":{"source":"naturalearthdata.com","kind":"minor_road","kind_detail":"tertiary","sort_rank":355,"landuse_kind":"urban_area","min_zoom":6.0,"id":17975},"arcs":[450]},{"type":"LineString","properties":{"source":"naturalearthdata.com","kind":"minor_road","sort_rank":355,"kind_detail":"tertiary","min_zoom":6.0,"id":17975},"arcs":[451]},{"type":"LineString","properties":{"source":"naturalearthdata.com","kind":"major_road","sort_rank":379,"kind_detail":"secondary","min_zoom":3.0,"id":17988},"arcs":[452]},{"type":"LineString","properties":{"source":"naturalearthdata.com","kind":"major_road","sort_rank":379,"kind_detail":"secondary","min_zoom":3.0,"id":18000},"arcs":[453]},{"type":"LineString","properties":{"source":"naturalearthdata.com","kind":"major_road","kind_detail":"secondary","sort_rank":379,"landuse_kind":"urban_area","min_zoom":3.0,"id":18043},"arcs":[454]},{"type":"LineString","properties":{"source":"naturalearthdata.com","kind":"major_road","sort_rank":379,"kind_detail":"secondary","min_zoom":3.0,"id":18043},"arcs":[455]},{"type":"LineString","properties":{"source":"naturalearthdata.com","kind":"minor_road","kind_detail":"tertiary","sort_rank":355,"landuse_kind":"urban_area","min_zoom":6.0,"id":18056},"arcs":[456]},{"type":"LineString","properties":{"source":"naturalearthdata.com","kind":"minor_road","sort_rank":355,"kind_detail":"tertiary","min_zoom":6.0,"id":18056},"arcs":[457]},{"type":"LineString","properties":{"source":"naturalearthdata.com","kind":"major_road","kind_detail":"secondary","sort_rank":379,"landuse_kind":"urban_area","min_zoom":3.0,"id":18084},"arcs":[458]},{"type":"LineString","properties":{"source":"naturalearthdata.com","kind":"major_road","kind_detail":"secondary","sort_rank":379,"landuse_kind":"urban_area","min_zoom":3.0,"id":18087},"arcs":[459]},{"type":"MultiLineString","properties":{"source":"naturalearthdata.com","kind":"major_road","kind_detail":"secondary","sort_rank":379,"landuse_kind":"urban_area","min_zoom":3.0,"id":18088},"arcs":[[460],[461]]},{"type":"MultiLineString","properties":{"source":"naturalearthdata.com","kind":"major_road","sort_rank":379,"kind_detail":"secondary","min_zoom":3.0,"id":18088},"arcs":[[462],[463]]},{"type":"LineString","properties":{"source":"naturalearthdata.com","kind":"minor_road","kind_detail":"tertiary","sort_rank":355,"landuse_kind":"urban_area","min_zoom":6.0,"id":18099},"arcs":[464]},{"type":"LineString","properties":{"source":"naturalearthdata.com","kind":"minor_road","sort_rank":355,"kind_detail":"tertiary","min_zoom":6.0,"id":18099},"arcs":[465]},{"type":"LineString","properties":{"source":"naturalearthdata.com","kind":"major_road","sort_rank":379,"kind_detail":"secondary","min_zoom":3.0,"id":18106},"arcs":[466]},{"type":"MultiLineString","properties":{"source":"naturalearthdata.com","kind":"major_road","kind_detail":"secondary","sort_rank":379,"landuse_kind":"nature_reserve","min_zoom":3.0,"id":18109},"arcs":[[467],[468],[469],[470],[471]]},{"type":"MultiLineString","properties":{"source":"naturalearthdata.com","kind":"major_road","kind_detail":"secondary","sort_rank":379,"landuse_kind":"nature_reserve","min_zoom":3.0,"id":18109},"arcs":[[472],[473]]},{"type":"LineString","properties":{"source":"naturalearthdata.com","kind":"major_road","kind_detail":"secondary","sort_rank":379,"landuse_kind":"urban_area","min_zoom":3.0,"id":18109},"arcs":[474]},{"type":"LineString","properties":{"source":"naturalearthdata.com","kind":"major_road","kind_detail":"secondary","sort_rank":379,"landuse_kind":"urban_area","min_zoom":3.0,"id":18109},"arcs":[475]},{"type":"MultiLineString","properties":{"source":"naturalearthdata.com","kind":"major_road","sort_rank":379,"kind_detail":"secondary","min_zoom":3.0,"id":18109},"arcs":[[476],[477],[478],[479],[480]]},{"type":"LineString","properties":{"source":"naturalearthdata.com","kind":"major_road","sort_rank":379,"kind_detail":"secondary","min_zoom":3.0,"id":18122},"arcs":[481]},{"type":"LineString","properties":{"source":"naturalearthdata.com","kind":"major_road","kind_detail":"secondary","sort_rank":379,"landuse_kind":"urban_area","min_zoom":3.0,"id":18144},"arcs":[482]},{"type":"MultiLineString","properties":{"source":"naturalearthdata.com","kind":"major_road","sort_rank":379,"kind_detail":"secondary","min_zoom":3.0,"id":18144},"arcs":[[483],[484]]},{"type":"LineString","properties":{"source":"naturalearthdata.com","kind":"major_road","sort_rank":379,"kind_detail":"secondary","min_zoom":3.0,"id":18172},"arcs":[485]},{"type":"LineString","properties":{"source":"naturalearthdata.com","kind":"major_road","sort_rank":379,"kind_detail":"secondary","min_zoom":3.0,"id":18174},"arcs":[486]},{"type":"LineString","properties":{"source":"naturalearthdata.com","kind":"major_road","sort_rank":379,"kind_detail":"secondary","min_zoom":3.0,"id":18175},"arcs":[487]},{"type":"LineString","properties":{"source":"naturalearthdata.com","kind":"major_road","kind_detail":"secondary","sort_rank":379,"landuse_kind":"park","min_zoom":3.0,"id":18198},"arcs":[488]},{"type":"LineString","properties":{"source":"naturalearthdata.com","kind":"major_road","kind_detail":"secondary","sort_rank":379,"landuse_kind":"park","min_zoom":3.0,"id":18198},"arcs":[489]},{"type":"LineString","properties":{"source":"naturalearthdata.com","kind":"major_road","kind_detail":"secondary","sort_rank":379,"landuse_kind":"urban_area","min_zoom":3.0,"id":18198},"arcs":[490]},{"type":"MultiLineString","properties":{"source":"naturalearthdata.com","kind":"major_road","sort_rank":379,"kind_detail":"secondary","min_zoom":3.0,"id":18198},"arcs":[[491],[492],[493]]},{"type":"LineString","properties":{"source":"naturalearthdata.com","kind":"major_road","sort_rank":379,"kind_detail":"secondary","min_zoom":3.0,"id":18201},"arcs":[494]},{"type":"LineString","properties":{"source":"naturalearthdata.com","kind":"major_road","kind_detail":"secondary","sort_rank":379,"landuse_kind":"urban_area","min_zoom":3.0,"id":18220},"arcs":[495]},{"type":"LineString","properties":{"source":"naturalearthdata.com","kind":"major_road","sort_rank":379,"kind_detail":"secondary","min_zoom":3.0,"id":18220},"arcs":[496]},{"type":"LineString","properties":{"source":"naturalearthdata.com","kind":"major_road","sort_rank":379,"kind_detail":"secondary","min_zoom":3.0,"id":18227},"arcs":[497]},{"type":"LineString","properties":{"source":"naturalearthdata.com","kind":"minor_road","kind_detail":"tertiary","sort_rank":355,"landuse_kind":"park","min_zoom":6.0,"id":18238},"arcs":[498]},{"type":"LineString","properties":{"source":"naturalearthdata.com","kind":"minor_road","sort_rank":355,"kind_detail":"tertiary","min_zoom":6.0,"id":18238},"arcs":[499]},{"type":"LineString","properties":{"source":"naturalearthdata.com","kind":"major_road","kind_detail":"secondary","sort_rank":379,"landuse_kind":"urban_area","min_zoom":3.0,"id":18246},"arcs":[500]},{"type":"LineString","properties":{"source":"naturalearthdata.com","kind":"major_road","sort_rank":379,"kind_detail":"secondary","min_zoom":3.0,"id":18246},"arcs":[501]},{"type":"LineString","properties":{"source":"naturalearthdata.com","kind":"minor_road","kind_detail":"tertiary","sort_rank":355,"landuse_kind":"urban_area","min_zoom":6.0,"id":18275},"arcs":[502]},{"type":"LineString","properties":{"source":"naturalearthdata.com","kind":"minor_road","sort_rank":355,"kind_detail":"tertiary","min_zoom":6.0,"id":18275},"arcs":[503]},{"type":"MultiLineString","properties":{"source":"naturalearthdata.com","kind":"major_road","kind_detail":"secondary","sort_rank":379,"landuse_kind":"urban_area","min_zoom":3.0,"id":18277},"arcs":[[504],[505]]},{"type":"MultiLineString","properties":{"source":"naturalearthdata.com","kind":"major_road","sort_rank":379,"kind_detail":"secondary","min_zoom":3.0,"id":18277},"arcs":[[506],[507],[508]]},{"type":"LineString","properties":{"source":"naturalearthdata.com","kind":"minor_road","kind_detail":"tertiary","sort_rank":355,"landuse_kind":"urban_area","min_zoom":6.0,"id":18278},"arcs":[509]},{"type":"LineString","properties":{"source":"naturalearthdata.com","kind":"minor_road","kind_detail":"tertiary","sort_rank":355,"landuse_kind":"urban_area","min_zoom":6.0,"id":18278},"arcs":[510]},{"type":"MultiLineString","properties":{"source":"naturalearthdata.com","kind":"minor_road","sort_rank":355,"kind_detail":"tertiary","min_zoom":6.0,"id":18278},"arcs":[[511],[512],[513]]},{"type":"LineString","properties":{"source":"naturalearthdata.com","kind":"major_road","kind_detail":"secondary","sort_rank":379,"landuse_kind":"urban_area","min_zoom":3.0,"id":18279},"arcs":[514]},{"type":"LineString","properties":{"source":"naturalearthdata.com","kind":"major_road","kind_detail":"secondary","sort_rank":379,"landuse_kind":"urban_area","min_zoom":3.0,"id":18279},"arcs":[515]},{"type":"MultiLineString","properties":{"source":"naturalearthdata.com","kind":"major_road","sort_rank":379,"kind_detail":"secondary","min_zoom":3.0,"id":18279},"arcs":[[516],[517]]},{"type":"LineString","properties":{"source":"naturalearthdata.com","kind":"minor_road","kind_detail":"tertiary","sort_rank":355,"landuse_kind":"urban_area","min_zoom":6.0,"id":18325},"arcs":[518]},{"type":"LineString","properties":{"source":"naturalearthdata.com","kind":"minor_road","kind_detail":"tertiary","sort_rank":355,"landuse_kind":"urban_area","min_zoom":6.0,"id":18325},"arcs":[519]},{"type":"LineString","properties":{"source":"naturalearthdata.com","kind":"minor_road","sort_rank":355,"kind_detail":"tertiary","min_zoom":6.0,"id":18325},"arcs":[520]},{"type":"MultiLineString","properties":{"source":"naturalearthdata.com","kind":"major_road","kind_detail":"secondary","sort_rank":379,"landuse_kind":"urban_area","min_zoom":4.0,"id":18328},"arcs":[[521],[522]]},{"type":"LineString","properties":{"source":"naturalearthdata.com","kind":"major_road","sort_rank":379,"kind_detail":"secondary","min_zoom":4.0,"id":18328},"arcs":[523]},{"type":"LineString","properties":{"source":"naturalearthdata.com","kind":"minor_road","kind_detail":"tertiary","sort_rank":355,"landuse_kind":"urban_area","min_zoom":6.0,"id":18335},"arcs":[524]},{"type":"LineString","properties":{"source":"naturalearthdata.com","kind":"major_road","kind_detail":"secondary","sort_rank":379,"landuse_kind":"urban_area","min_zoom":3.0,"id":18351},"arcs":[525]},{"type":"MultiLineString","properties":{"source":"naturalearthdata.com","kind":"major_road","sort_rank":379,"kind_detail":"secondary","min_zoom":3.0,"id":18351},"arcs":[[526],[527]]},{"type":"LineString","properties":{"source":"naturalearthdata.com","kind":"major_road","sort_rank":379,"kind_detail":"secondary","min_zoom":3.0,"id":18353},"arcs":[528]},{"type":"LineString","properties":{"source":"naturalearthdata.com","kind":"major_road","sort_rank":379,"kind_detail":"secondary","min_zoom":3.0,"id":18482},"arcs":[529]},{"type":"LineString","properties":{"source":"naturalearthdata.com","kind":"minor_road","kind_detail":"tertiary","sort_rank":355,"landuse_kind":"nature_reserve","min_zoom":6.0,"id":18491},"arcs":[530]},{"type":"LineString","properties":{"source":"naturalearthdata.com","kind":"minor_road","kind_detail":"tertiary","sort_rank":355,"landuse_kind":"nature_reserve","min_zoom":6.0,"id":18491},"arcs":[531]},{"type":"LineString","properties":{"source":"naturalearthdata.com","kind":"minor_road","kind_detail":"tertiary","sort_rank":355,"landuse_kind":"urban_area","min_zoom":6.0,"id":18491},"arcs":[532]},{"type":"MultiLineString","properties":{"source":"naturalearthdata.com","kind":"minor_road","sort_rank":355,"kind_detail":"tertiary","min_zoom":6.0,"id":18491},"arcs":[[533],[534],[535]]},{"type":"LineString","properties":{"source":"naturalearthdata.com","kind":"minor_road","sort_rank":355,"kind_detail":"tertiary","min_zoom":5.0,"id":18498},"arcs":[536]},{"type":"LineString","properties":{"source":"naturalearthdata.com","kind":"minor_road","sort_rank":355,"kind_detail":"tertiary","min_zoom":5.0,"id":18527},"arcs":[537]},{"type":"LineString","properties":{"source":"naturalearthdata.com","kind":"minor_road","sort_rank":355,"kind_detail":"tertiary","min_zoom":5.0,"id":18545},"arcs":[538]},{"type":"LineString","properties":{"source":"naturalearthdata.com","kind":"major_road","kind_detail":"secondary","sort_rank":379,"landuse_kind":"urban_area","min_zoom":3.0,"id":18552},"arcs":[539]},{"type":"LineString","properties":{"source":"naturalearthdata.com","kind":"major_road","sort_rank":379,"kind_detail":"secondary","min_zoom":3.0,"id":18552},"arcs":[540]},{"type":"LineString","properties":{"source":"naturalearthdata.com","kind":"major_road","kind_detail":"secondary","sort_rank":379,"landuse_kind":"urban_area","min_zoom":3.0,"id":18666},"arcs":[541]},{"type":"LineString","properties":{"source":"naturalearthdata.com","kind":"major_road","sort_rank":379,"kind_detail":"secondary","min_zoom":3.0,"id":18666},"arcs":[542]},{"type":"LineString","properties":{"source":"naturalearthdata.com","kind":"major_road","kind_detail":"secondary","sort_rank":379,"landuse_kind":"urban_area","min_zoom":4.0,"id":18670},"arcs":[543]},{"type":"LineString","properties":{"source":"naturalearthdata.com","kind":"minor_road","kind_detail":"tertiary","sort_rank":355,"landuse_kind":"urban_area","min_zoom":6.0,"id":18671},"arcs":[544]},{"type":"LineString","properties":{"source":"naturalearthdata.com","kind":"minor_road","sort_rank":355,"kind_detail":"tertiary","min_zoom":6.0,"id":18671},"arcs":[545]},{"type":"LineString","properties":{"source":"naturalearthdata.com","kind":"major_road","kind_detail":"secondary","sort_rank":379,"landuse_kind":"urban_area","min_zoom":3.0,"id":18705},"arcs":[546]},{"type":"LineString","properties":{"source":"naturalearthdata.com","kind":"major_road","kind_detail":"secondary","sort_rank":379,"landuse_kind":"urban_area","min_zoom":3.0,"id":18705},"arcs":[547]},{"type":"LineString","properties":{"source":"naturalearthdata.com","kind":"major_road","sort_rank":379,"kind_detail":"secondary","min_zoom":3.0,"id":18705},"arcs":[548]},{"type":"LineString","properties":{"source":"naturalearthdata.com","kind":"major_road","kind_detail":"secondary","sort_rank":379,"landuse_kind":"urban_area","min_zoom":3.0,"id":18707},"arcs":[549]},{"type":"LineString","properties":{"source":"naturalearthdata.com","kind":"major_road","sort_rank":379,"kind_detail":"secondary","min_zoom":3.0,"id":18707},"arcs":[550]},{"type":"LineString","properties":{"source":"naturalearthdata.com","kind":"major_road","sort_rank":379,"kind_detail":"secondary","min_zoom":3.0,"id":18710},"arcs":[551]},{"type":"LineString","properties":{"source":"naturalearthdata.com","kind":"major_road","kind_detail":"secondary","sort_rank":379,"landuse_kind":"urban_area","min_zoom":3.0,"id":18717},"arcs":[552]},{"type":"LineString","properties":{"source":"naturalearthdata.com","kind":"major_road","sort_rank":379,"kind_detail":"secondary","min_zoom":3.0,"id":18717},"arcs":[553]},{"type":"LineString","properties":{"source":"naturalearthdata.com","kind":"major_road","kind_detail":"secondary","sort_rank":379,"landuse_kind":"urban_area","min_zoom":3.0,"id":18729},"arcs":[554]},{"type":"LineString","properties":{"source":"naturalearthdata.com","kind":"major_road","kind_detail":"secondary","sort_rank":379,"landuse_kind":"urban_area","min_zoom":3.0,"id":18729},"arcs":[555]},{"type":"LineString","properties":{"source":"naturalearthdata.com","kind":"major_road","sort_rank":379,"kind_detail":"secondary","min_zoom":3.0,"id":18729},"arcs":[556]},{"type":"LineString","properties":{"source":"naturalearthdata.com","kind":"major_road","sort_rank":379,"kind_detail":"secondary","min_zoom":3.0,"id":18738},"arcs":[557]},{"type":"LineString","properties":{"source":"naturalearthdata.com","kind":"major_road","kind_detail":"secondary","sort_rank":379,"landuse_kind":"urban_area","min_zoom":3.0,"id":18752},"arcs":[558]},{"type":"LineString","properties":{"source":"naturalearthdata.com","kind":"major_road","sort_rank":379,"kind_detail":"secondary","min_zoom":3.0,"id":18752},"arcs":[559]},{"type":"LineString","properties":{"source":"naturalearthdata.com","kind":"major_road","sort_rank":379,"kind_detail":"secondary","min_zoom":3.0,"id":18773},"arcs":[560]},{"type":"LineString","properties":{"source":"naturalearthdata.com","kind":"major_road","sort_rank":379,"kind_detail":"secondary","min_zoom":3.0,"id":18777},"arcs":[561]},{"type":"LineString","properties":{"source":"naturalearthdata.com","kind":"major_road","kind_detail":"secondary","sort_rank":379,"landuse_kind":"urban_area","min_zoom":3.0,"id":18794},"arcs":[562]},{"type":"LineString","properties":{"source":"naturalearthdata.com","kind":"major_road","sort_rank":379,"kind_detail":"secondary","min_zoom":3.0,"id":18794},"arcs":[563]},{"type":"LineString","properties":{"source":"naturalearthdata.com","kind":"major_road","kind_detail":"secondary","sort_rank":379,"landuse_kind":"urban_area","min_zoom":3.0,"id":18795},"arcs":[564]},{"type":"MultiLineString","properties":{"source":"naturalearthdata.com","kind":"major_road","sort_rank":379,"kind_detail":"secondary","min_zoom":3.0,"id":18795},"arcs":[[565],[566]]},{"type":"LineString","properties":{"source":"naturalearthdata.com","kind":"major_road","sort_rank":379,"kind_detail":"secondary","min_zoom":3.0,"id":18836},"arcs":[567]},{"type":"LineString","properties":{"source":"naturalearthdata.com","kind":"highway","kind_detail":"motorway","sort_rank":383,"landuse_kind":"urban_area","min_zoom":3.0,"id":18837},"arcs":[568]},{"type":"LineString","properties":{"source":"naturalearthdata.com","kind":"highway","kind_detail":"motorway","sort_rank":383,"landuse_kind":"urban_area","min_zoom":3.0,"id":18837},"arcs":[569]},{"type":"MultiLineString","properties":{"source":"naturalearthdata.com","kind":"highway","sort_rank":383,"kind_detail":"motorway","min_zoom":3.0,"id":18837},"arcs":[[570],[571]]},{"type":"LineString","properties":{"source":"naturalearthdata.com","kind":"highway","kind_detail":"motorway","sort_rank":383,"landuse_kind":"urban_area","min_zoom":3.0,"id":18875},"arcs":[572]},{"type":"LineString","properties":{"source":"naturalearthdata.com","kind":"highway","sort_rank":383,"kind_detail":"motorway","min_zoom":3.0,"id":18875},"arcs":[573]},{"type":"LineString","properties":{"source":"naturalearthdata.com","kind":"major_road","kind_detail":"secondary","sort_rank":379,"landuse_kind":"urban_area","min_zoom":3.0,"id":18886},"arcs":[574]},{"type":"LineString","properties":{"source":"naturalearthdata.com","kind":"major_road","sort_rank":379,"kind_detail":"secondary","min_zoom":3.0,"id":18887},"arcs":[575]},{"type":"LineString","properties":{"source":"naturalearthdata.com","kind":"highway","kind_detail":"motorway","sort_rank":383,"landuse_kind":"urban_area","min_zoom":3.0,"id":18936},"arcs":[576]},{"type":"LineString","properties":{"source":"naturalearthdata.com","kind":"highway","kind_detail":"motorway","sort_rank":383,"landuse_kind":"urban_area","min_zoom":3.0,"id":18956},"arcs":[577]},{"type":"LineString","properties":{"source":"naturalearthdata.com","kind":"major_road","kind_detail":"secondary","sort_rank":379,"landuse_kind":"urban_area","min_zoom":3.0,"id":18957},"arcs":[578]},{"type":"LineString","properties":{"source":"naturalearthdata.com","kind":"major_road","sort_rank":379,"kind_detail":"secondary","min_zoom":3.0,"id":18957},"arcs":[579]},{"type":"LineString","properties":{"source":"naturalearthdata.com","kind":"minor_road","kind_detail":"tertiary","sort_rank":355,"landuse_kind":"urban_area","min_zoom":6.0,"id":18961},"arcs":[580]},{"type":"LineString","properties":{"source":"naturalearthdata.com","kind":"minor_road","sort_rank":355,"kind_detail":"tertiary","min_zoom":6.0,"id":18961},"arcs":[581]},{"type":"LineString","properties":{"source":"naturalearthdata.com","kind":"major_road","kind_detail":"secondary","sort_rank":379,"landuse_kind":"urban_area","min_zoom":3.0,"id":18972},"arcs":[582]},{"type":"LineString","properties":{"source":"naturalearthdata.com","kind":"major_road","sort_rank":379,"kind_detail":"secondary","min_zoom":4.0,"id":18980},"arcs":[583]},{"type":"MultiLineString","properties":{"source":"naturalearthdata.com","kind":"minor_road","kind_detail":"tertiary","sort_rank":355,"landuse_kind":"park","min_zoom":6.0,"id":18995},"arcs":[[584],[585],[586],[587]]},{"type":"MultiLineString","properties":{"source":"naturalearthdata.com","kind":"minor_road","sort_rank":355,"kind_detail":"tertiary","min_zoom":6.0,"id":18995},"arcs":[[588],[589],[590],[591],[592]]},{"type":"LineString","properties":{"source":"naturalearthdata.com","kind":"major_road","sort_rank":379,"kind_detail":"secondary","min_zoom":4.0,"id":18996},"arcs":[593]},{"type":"LineString","properties":{"source":"naturalearthdata.com","kind":"major_road","sort_rank":379,"kind_detail":"secondary","min_zoom":4.0,"id":18999},"arcs":[594]},{"type":"LineString","properties":{"source":"naturalearthdata.com","kind":"minor_road","sort_rank":355,"kind_detail":"tertiary","min_zoom":6.0,"id":19007},"arcs":[595]},{"type":"LineString","properties":{"source":"naturalearthdata.com","kind":"major_road","sort_rank":379,"kind_detail":"secondary","min_zoom":3.0,"id":19008},"arcs":[596]},{"type":"LineString","properties":{"source":"naturalearthdata.com","kind":"minor_road","kind_detail":"tertiary","sort_rank":355,"landuse_kind":"park","min_zoom":6.0,"id":19016},"arcs":[597]},{"type":"LineString","properties":{"source":"naturalearthdata.com","kind":"minor_road","kind_detail":"tertiary","sort_rank":355,"landuse_kind":"urban_area","min_zoom":6.0,"id":19016},"arcs":[598]},{"type":"MultiLineString","properties":{"source":"naturalearthdata.com","kind":"minor_road","sort_rank":355,"kind_detail":"tertiary","min_zoom":6.0,"id":19016},"arcs":[[599],[600]]},{"type":"LineString","properties":{"source":"naturalearthdata.com","kind":"major_road","kind_detail":"secondary","sort_rank":379,"landuse_kind":"urban_area","min_zoom":3.0,"id":19046},"arcs":[601]},{"type":"LineString","properties":{"source":"naturalearthdata.com","kind":"major_road","sort_rank":379,"kind_detail":"secondary","min_zoom":3.0,"id":19046},"arcs":[602]},{"type":"LineString","properties":{"source":"naturalearthdata.com","kind":"major_road","sort_rank":379,"kind_detail":"secondary","min_zoom":4.0,"id":19050},"arcs":[603]},{"type":"LineString","properties":{"source":"naturalearthdata.com","kind":"major_road","sort_rank":379,"kind_detail":"secondary","min_zoom":4.0,"id":19122},"arcs":[604]},{"type":"LineString","properties":{"source":"naturalearthdata.com","kind":"minor_road","sort_rank":355,"kind_detail":"tertiary","min_zoom":6.0,"id":19209},"arcs":[605]},{"type":"LineString","properties":{"source":"naturalearthdata.com","kind":"major_road","sort_rank":379,"kind_detail":"secondary","min_zoom":4.0,"id":19210},"arcs":[606]},{"type":"LineString","properties":{"source":"naturalearthdata.com","kind":"major_road","kind_detail":"secondary","sort_rank":379,"landuse_kind":"urban_area","min_zoom":4.0,"id":19267},"arcs":[607]},{"type":"MultiLineString","properties":{"source":"naturalearthdata.com","kind":"major_road","sort_rank":379,"kind_detail":"secondary","min_zoom":4.0,"id":19267},"arcs":[[608],[609]]},{"type":"LineString","properties":{"source":"naturalearthdata.com","kind":"major_road","sort_rank":379,"kind_detail":"secondary","min_zoom":3.0,"id":19313},"arcs":[610]},{"type":"LineString","properties":{"source":"naturalearthdata.com","kind":"minor_road","kind_detail":"tertiary","sort_rank":355,"landuse_kind":"urban_area","min_zoom":6.0,"id":19391},"arcs":[611]},{"type":"MultiLineString","properties":{"source":"naturalearthdata.com","kind":"major_road","kind_detail":"secondary","sort_rank":379,"landuse_kind":"urban_area","min_zoom":3.0,"id":19395},"arcs":[[612],[613]]},{"type":"MultiLineString","properties":{"source":"naturalearthdata.com","kind":"major_road","sort_rank":379,"kind_detail":"secondary","min_zoom":3.0,"id":19395},"arcs":[[614],[615],[616]]},{"type":"LineString","properties":{"source":"naturalearthdata.com","kind":"major_road","sort_rank":379,"kind_detail":"secondary","min_zoom":4.0,"id":19397},"arcs":[617]},{"type":"LineString","properties":{"source":"naturalearthdata.com","kind":"major_road","sort_rank":379,"kind_detail":"secondary","min_zoom":3.0,"id":19398},"arcs":[618]},{"type":"LineString","properties":{"source":"naturalearthdata.com","kind":"major_road","kind_detail":"secondary","sort_rank":379,"landuse_kind":"urban_area","min_zoom":4.0,"id":19446},"arcs":[619]},{"type":"LineString","properties":{"source":"naturalearthdata.com","kind":"major_road","sort_rank":379,"kind_detail":"secondary","min_zoom":4.0,"id":19446},"arcs":[620]},{"type":"LineString","properties":{"source":"naturalearthdata.com","kind":"minor_road","sort_rank":355,"kind_detail":"tertiary","min_zoom":6.0,"id":19496},"arcs":[621]},{"type":"LineString","properties":{"source":"naturalearthdata.com","kind":"major_road","sort_rank":379,"kind_detail":"secondary","min_zoom":3.0,"id":19519},"arcs":[622]},{"type":"LineString","properties":{"source":"naturalearthdata.com","kind":"minor_road","kind_detail":"tertiary","sort_rank":355,"landuse_kind":"urban_area","min_zoom":6.0,"id":19716},"arcs":[623]},{"type":"LineString","properties":{"source":"naturalearthdata.com","kind":"minor_road","sort_rank":355,"kind_detail":"tertiary","min_zoom":6.0,"id":19716},"arcs":[624]}]},"earth":{"type":"GeometryCollection","geometries":[{"type":"MultiPolygon","properties":{"sort_rank":10,"source":"naturalearthdata.com","min_zoom":0.0,"kind":"earth","area":1099125597424},"arcs":[[[625]],[[626]]]}]},"landuse":{"type":"GeometryCollection","geometries":[{"type":"Polygon","properties":{"kind":"nature_reserve","protect_class":"2","area":1918249984,"sort_rank":23,"source":"openstreetmap.org","min_zoom":4.0,"tier":2,"id":505350188},"arcs":[[627]]},{"type":"Polygon","properties":{"source":"openstreetmap.org","kind":"park","area":1392300032,"tier":2,"id":43159840,"min_zoom":4.0,"sort_rank":24},"arcs":[[628]]},{"type":"MultiPolygon","properties":{"kind":"nature_reserve","protect_class":"2","area":5072274767,"sort_rank":23,"source":"openstreetmap.org","min_zoom":4.0,"tier":2,"osm_relation":true},"arcs":[[[629]],[[630]],[[631]]]},{"type":"MultiPolygon","properties":{"source":"naturalearthdata.com","kind":"urban_area","name":"","area":36041009489,"sort_rank":11,"min_zoom":4.0},"arcs":[[[632]],[[633]],[[634]],[[635]],[[636]],[[637]],[[638]],[[639]],[[640]],[[641]],[[642]],[[643]],[[644]],[[645]],[[646]],[[647]],[[648]],[[649]],[[650]],[[651]],[[652]],[[653]],[[654]],[[655]],[[656]],[[657]],[[658]],[[659]],[[660]],[[661]],[[662]],[[663]],[[664]],[[665]],[[666]],[[667]],[[668]],[[669]],[[670]],[[671]],[[672]],[[673]],[[674]],[[675]],[[676]],[[677]],[[678]],[[679]],[[680]],[[681]],[[682]],[[683]],[[684]],[[685]],[[686]],[[687]],[[688]],[[689]],[[690]],[[691]],[[692]],[[693]],[[694]],[[695]]]},{"type":"MultiPolygon","properties":{"kind":"nature_reserve","protect_class":"1","area":3094076105,"sort_rank":23,"source":"openstreetmap.org","min_zoom":4.0,"tier":2,"osm_relation":true},"arcs":[[[696]]]},{"type":"MultiPolygon","properties":{"source":"openstreetmap.org","kind":"park","tier":2,"area":1448699669,"sort_rank":24,"min_zoom":6.0},"arcs":[[[697]],[[698]],[[699]]]},{"type":"Polygon","properties":{"kind":"park","protect_class":"7","area":711803008,"sort_rank":24,"source":"openstreetmap.org","min_zoom":6.0,"tier":2,"id":-5497983,"osm_relation":true},"arcs":[[700]]},{"type":"MultiPolygon","properties":{"kind":"nature_reserve","protect_class":"1","area":1001919521,"sort_rank":23,"source":"openstreetmap.org","min_zoom":6.0,"tier":2,"osm_relation":true},"arcs":[[[701]],[[702]]]},{"type":"MultiPolygon","properties":{"kind":"nature_reserve","protect_class":"4","area":1736755061,"sort_rank":23,"source":"openstreetmap.org","min_zoom":6.0,"tier":2,"osm_relation":true},"arcs":[[[703]],[[704]]]},{"type":"MultiPolygon","properties":{"source":"openstreetmap.org","kind":"park","tier":2,"area":1758876944,"sort_rank":24,"min_zoom":6.0,"osm_relation":true},"arcs":[[[705],[706]],[[707]],[[708]],[[709]],[[710]],[[711]]]},{"type":"MultiPolygon","properties":{"source":"openstreetmap.org","kind":"park","tier":2,"area":7964640766,"sort_rank":24,"min_zoom":4.0,"osm_relation":true},"arcs":[[[712]],[[713],[714]]]}]}},"type":"Topology","transform":{"translate":[39.375,40.9798980696],"scale":[0.001373291,0.0010032074]},"arcs":[[[4081,102],[15,-4]],[[4096,47],[-15,6],[-9,12],[-5,15],[3,14],[11,8]],[[4036,281],[27,1],[9,6],[17,16],[7,4]],[[3965,293],[71,-12]],[[3966,226],[19,2],[7,11],[-2,4],[-5,7],[-28,14],[-6,14],[14,15]],[[3507,249],[20,-8],[35,-25],[13,-6]],[[3443,195],[16,3],[14,8],[11,11],[4,10],[1,8],[1,8],[9,6],[8,0]],[[3814,242],[15,-2],[30,-12],[107,-2]],[[3769,196],[11,10],[9,16],[9,13],[16,7]],[[3619,233],[9,-1],[39,-25],[16,-6],[16,-1]],[[3575,210],[17,3],[7,5],[5,6],[6,6],[9,3]],[[3744,226],[4,-7],[3,-11],[3,-7],[15,-5]],[[3699,200],[18,5],[14,17],[5,4],[8,0]],[[3412,204],[31,-9]],[[3171,126],[18,2],[14,6],[34,31],[31,14],[68,1],[16,4],[17,4],[29,14],[14,2]],[[3052,144],[119,-18]],[[2975,124],[7,2],[39,16],[31,2]],[[2960,126],[8,-2],[7,0]],[[833,2517],[-28,4],[-180,67],[-50,0]],[[575,2588],[-49,-14],[-18,-11],[-10,-16],[-49,-128],[-4,-18]],[[1214,2382],[-22,6],[-100,80],[-23,14],[-75,25],[-36,28],[-7,5],[-21,11]],[[930,2551],[-27,-3],[-47,-25],[-23,-6]],[[1386,2346],[-25,11],[-23,18],[-23,12],[-25,5]],[[1290,2392],[-76,-10]],[[1630,2226],[-26,2],[-20,11],[-32,34],[-19,11],[-38,12],[-11,8],[-7,10],[-10,23],[-7,10],[-22,9]],[[1438,2356],[-52,-10]],[[2359,2150],[-14,3],[-44,25],[-21,17],[-19,19],[-42,28],[-44,6],[-5,1]],[[2170,2249],[-124,-11],[-18,-5],[-4,-3],[-58,-32],[-23,-4]],[[1781,2214],[-23,3],[-48,13],[-26,3]],[[1684,2233],[-54,-7]],[[1943,2194],[-23,1],[-23,7],[-23,11],[-21,6],[-22,1]],[[1831,2220],[-50,-6]],[[3324,1567],[-14,7],[-9,7],[-17,13],[-29,8],[-36,3],[-32,9],[-21,26],[2,29],[21,20],[25,19],[17,24],[-8,29],[-14,7],[-19,10],[-68,16],[-13,9],[-30,36],[-12,11],[-51,25],[-27,7],[-68,19],[-140,40],[-14,7],[-14,8],[-78,75],[-36,25],[-7,10],[2,16],[6,17],[0,13],[-62,23],[-22,14],[-20,20],[-20,13],[-28,7],[-29,1]],[[2459,2190],[-34,-10],[-23,-1],[-13,-6],[-19,-19],[-11,-4]],[[4096,1716],[-71,52],[-31,6]],[[3994,1774],[-19,-25],[-5,-16],[-21,-47],[-12,-54],[-6,-7]],[[3931,1625],[-9,9],[-18,58],[-9,14],[-21,23],[-11,9],[-27,16],[-3,1],[-28,9],[-31,4]],[[3774,1768],[-36,-3],[-21,-6],[-57,-31],[-30,-10],[-64,-1],[-17,-20],[-14,-28],[-13,-15],[-10,-10],[-9,-3],[-25,-7],[-70,-4],[-32,-15],[-10,-11],[-18,-25],[-10,-10],[-14,-2]],[[2393,606],[102,-9],[14,-6],[-6,-10],[-3,-10],[-1,-10],[-3,-9],[-6,-7],[-14,-12],[-6,-10],[18,-12],[14,-15],[14,-5]],[[2230,450],[10,0],[9,0],[15,11],[22,34],[15,17],[8,16],[7,41],[7,16],[15,12],[1,0],[3,1],[14,5],[37,3]],[[1562,533],[78,-34],[9,-2]],[[1874,524],[52,-20]],[[1775,441],[7,4],[29,25],[23,34],[10,8],[30,12]],[[2016,519],[11,-1],[10,-6],[12,-12],[18,-1]],[[1993,512],[23,7]],[[2544,519],[5,-7],[4,-12],[6,-11],[5,-4],[22,-7],[4,-5],[3,-4],[4,-4],[6,-3],[6,-6],[22,-43],[10,-11],[54,-38],[35,-32],[22,-11],[22,-3],[1,-5],[-10,-15],[-11,-9],[-39,-21],[20,-6]],[[2516,491],[18,21],[10,7]],[[1972,519],[10,-2],[11,-5]],[[1926,504],[25,8],[11,5],[10,2]],[[1689,508],[6,0],[1,-4],[-1,-8],[0,-8],[3,-6],[8,-4],[22,-3],[9,-3],[29,-28],[9,-3]],[[1649,497],[22,2],[18,9]],[[2103,501],[127,-51]],[[2067,499],[36,2]],[[2751,263],[14,-1],[15,-18],[17,-44],[11,-8]],[[2735,262],[16,1]],[[2896,213],[23,-6],[20,-12],[19,-19],[11,-24],[-9,-26]],[[2808,192],[67,19],[21,2]],[[2960,126],[-3,-23],[6,-32],[12,-28],[14,-14],[31,-5],[31,-16],[10,-8]],[[2339,597],[-8,21],[-21,36],[-17,20],[-19,18],[-7,13],[-5,14],[2,19],[8,13],[1,34],[-8,21],[-3,10],[-18,2],[-10,5],[-27,29],[-17,4],[-19,-6],[-39,-25],[-40,-7],[-13,-2],[-22,6],[-13,8],[-23,12],[-35,-4],[-18,-7],[-1,-1],[-10,-1],[-22,18],[-9,4],[-14,9],[-36,16],[-4,21],[-11,6],[-19,12],[-95,5]],[[3978,2596],[1,77]],[[2024,2230],[0,1]],[[3285,752],[-36,-39],[-43,-2]],[[3206,711],[-33,6]],[[3173,717],[-16,-32],[-5,-99],[-7,-25],[-11,-8],[-4,-16],[25,-5]],[[3222,542],[35,-2],[19,-21],[13,-28],[7,-6],[3,-14],[2,-22],[0,-21],[6,-23],[15,-10],[8,-19],[2,-22],[-10,-44],[5,-44],[10,-14],[7,-16],[8,-52]],[[3155,532],[32,1],[35,9]],[[2078,1114],[-38,20],[-47,6],[-37,25],[-40,10]],[[1916,1175],[-90,-16],[-47,-1],[-46,-9],[-10,-28],[-3,-19],[-4,-5],[-12,-21]],[[1704,1076]],[[1394,0],[0,1],[11,21],[40,27],[19,46],[-22,25],[-28,14],[-7,18],[-9,16],[-15,11],[-14,13],[-14,35],[-5,39],[-20,51],[-1,3]],[[2141,0],[19,40],[64,72],[60,31],[20,68],[-21,69],[-13,35],[-6,11],[-9,25],[-5,41],[-10,58]],[[718,0],[-6,14]],[[3978,2596],[18,-15],[13,-7],[19,-6],[30,-8],[38,-28]],[[2409,2818],[-3,-19],[-6,-92],[-2,-7],[-5,-7],[-9,-10],[-12,-9],[-53,-21],[-22,-4],[-39,-14],[-8,-5],[-4,-3],[-2,-5],[-1,-6],[2,-9],[3,-6],[3,-5],[3,-4],[5,-8],[2,-5],[1,-5],[1,-6],[1,-8],[-4,-48],[-26,-63],[-28,-41],[-2,-18],[9,-51],[-1,-14],[-1,-5],[-5,-24],[-7,-14],[-23,-32],[0,-2],[-1,0]],[[1451,4096],[11,-15],[20,-14],[8,-7],[8,-14],[17,-42],[6,-8],[4,-2],[125,-6],[6,-4],[3,-3],[3,-5],[1,-5],[1,-5],[1,-6],[-1,-20],[-4,-25],[-3,-11],[-33,-82],[-13,-26],[-36,-52],[-3,-3],[-8,-6],[-9,-4],[-5,-1],[-44,-5],[-11,-3],[-4,-2],[-4,-4],[-2,-6],[-1,-8],[1,-7],[1,-6],[5,-15],[9,-12],[28,-21],[3,-16],[3,-5],[3,-5],[6,-2],[5,-1],[24,-1],[6,-2],[6,-3],[4,-10],[8,-41],[2,-5],[3,-5],[5,-3],[22,-2],[5,-2],[2,-2],[3,-7],[1,-5],[3,-5],[5,-4],[47,-5],[9,-2],[4,-2],[4,-6],[3,-6],[0,-26]],[[3575,2830],[-3,-67],[3,-26],[2,-7],[18,-43],[11,-11]],[[3646,2688],[6,-1],[5,-2],[5,-2],[18,-14],[3,-3],[1,-9],[-2,-10],[-14,-58],[-3,-38],[-8,-25],[-9,-14],[-2,-5],[-2,-5],[0,-15],[11,-36],[4,-8],[1,-3],[-1,-4],[-4,-3],[-20,-13],[-4,-2]],[[3606,2676],[6,0],[5,1],[18,9],[11,2]],[[3631,2418],[-5,1],[-6,4],[-3,4],[-9,12],[-3,3],[-4,2]],[[3601,2444],[-69,-44],[-14,-11],[-18,-20],[-3,-1]],[[3497,2368],[-4,2],[-3,8],[-3,12],[-6,40],[-8,12],[-27,1]],[[3446,2443],[-21,-34],[-20,-16],[-6,-7],[-3,-4],[-2,-5],[1,-10],[6,-15],[28,-55],[0,-10],[-44,-65]],[[3301,2266],[-7,1],[-12,9],[-1,4],[0,5],[2,10],[1,6],[-2,4],[-3,3],[-22,15]],[[3257,2323],[-9,-12],[-15,-24],[-44,-100],[-6,-20],[3,-22],[-11,-21],[-57,-59],[-41,-62],[-9,-18],[-2,-5],[-14,-27],[-4,-4],[-5,-2]],[[3385,2222],[-10,5],[-6,5],[-1,1],[0,2],[12,20],[1,4],[-1,4],[-2,3],[-3,2],[-26,15]],[[3349,2283],[-8,-1],[-10,-3],[-20,-10],[-10,-3]],[[3043,1947],[-10,1],[-6,2],[-48,22],[-5,1]],[[2974,1973],[-16,-9],[-32,-50],[-5,-13]],[[1842,3504],[3,-2],[4,-3],[2,-9],[2,-2],[-1,-6],[2,-10],[13,-34],[2,-12],[1,-8],[1,-6],[6,-8],[14,-10],[34,-9],[14,-12],[4,-1],[13,-1]],[[1745,3467],[5,1],[5,2],[9,5],[11,10],[21,13],[5,2],[41,4]],[[1714,3468],[31,-1]],[[1984,3371],[24,-4],[20,-7],[51,-7],[41,-15],[36,-17],[4,-2],[3,-4],[2,-5],[0,-19],[0,-5],[1,-3],[2,-3],[8,-1]],[[1956,3371],[28,0]],[[2275,3308],[42,-9],[4,-29],[0,-6],[-1,-5],[-4,-4],[-8,-4],[-14,-5],[-4,-2],[-4,-3],[-3,-5],[-3,-4],[-12,-6],[-42,-13],[-5,-2],[-2,-3],[-1,-5],[0,-5],[-3,-6],[-6,-6],[-20,-11],[-25,-26],[-8,-4],[-7,-1]],[[2176,3279],[13,1],[40,11],[14,6],[17,10],[15,1]],[[2149,3144],[-9,4]],[[2140,3148],[-4,-3],[-4,-6],[-2,-17],[-3,-8],[-1,-8],[0,-4],[12,-15],[-4,-19],[15,-6],[4,-4],[4,-7],[1,-7],[3,-6],[3,-7],[7,-9],[4,-10],[1,-11],[2,-10],[4,-5],[5,-4],[10,-4],[14,-3],[13,0]],[[2336,3053],[6,-2],[3,-5],[1,-12],[-3,-6],[-3,-5],[-20,-12],[-1,-1],[0,-2],[-1,-4],[0,-5],[1,-7],[3,-6],[7,-6],[6,-1]],[[2224,2975],[50,7],[1,1],[1,2],[-1,2],[-15,21],[-1,2],[0,2],[-1,2],[0,5],[1,5],[1,4],[3,4],[3,4],[7,5],[16,6],[22,4],[25,2]],[[2364,2982],[13,-1],[5,-2],[3,-3],[-2,-6],[-4,-3],[-3,-4],[-14,-8],[-3,-3],[-2,-3],[0,-5],[5,-4],[22,-7],[4,-2],[4,-4],[3,-6],[2,-8],[-1,-17],[-3,-31],[0,-8],[4,-19],[12,-20]],[[2335,2979],[29,3]],[[1714,3468],[-5,-6],[-12,-7],[-4,-4],[-3,-3],[-2,-5],[-4,-10],[-3,-4],[-4,-3],[-34,-7],[-3,-2],[-3,-5],[-3,-16],[-2,-6],[-4,-3],[-5,-2],[-3,-3],[2,-5],[15,-11],[39,-19],[5,-3],[5,-6],[7,-12],[3,-8],[7,-34],[0,-16],[-2,-15],[-2,-10],[-7,-22],[-21,-41],[-8,-11],[-5,-9],[-14,-28],[-3,-4],[-3,-4],[-4,-3],[-6,-3],[-38,-12],[-8,-4],[-7,-7],[-3,-5],[-3,-6],[-5,-16],[-4,-10],[-5,-5],[-8,-6],[-17,-9],[-7,-7],[-4,-6],[-1,-6],[-4,-9],[-1,-2],[-2,-4],[-7,-1],[-8,0]],[[1253,3102],[-6,1],[-17,13],[-7,2],[-9,2],[-32,3],[-9,3],[-51,22],[-7,3],[-5,0]],[[1110,3151],[-4,-1],[-17,-11],[-10,-8],[-4,-4],[-3,-4],[-1,-4],[2,-4],[2,-3],[47,-43],[3,-4],[7,-33],[3,-10],[5,-11],[7,-11],[2,-4],[0,-5],[-4,-4],[-27,-15],[-5,-1]],[[1309,3092],[-5,0],[-6,3],[-4,8],[-8,8]],[[1286,3111],[-18,-3],[-10,-5],[-5,-1]],[[1394,3012],[-1,0],[-1,1],[-3,9],[2,7],[3,3],[4,10],[1,6],[1,5],[1,6],[-1,6],[-1,5],[-2,5],[-5,8],[-9,4],[-13,4],[-46,4]],[[1324,3095],[-10,-1],[-5,-2]],[[1426,2993],[-4,1],[-3,7],[0,5],[1,4],[0,1],[8,16],[2,5],[-2,3],[-5,0]],[[1423,3035],[-11,-8],[-18,-15]],[[1496,3003],[-25,7],[-8,6],[-4,1]],[[1459,3017],[-5,-3],[-3,-2],[-9,-9],[-12,-9],[-4,-1]],[[1113,2971],[-5,0],[-10,3],[-5,1]],[[1093,2975],[-5,-1],[-4,-2],[-7,-7],[-3,-4],[-10,-18],[-3,-4],[-4,-2],[-5,-2]],[[1052,2935],[-6,0],[-11,3],[-5,0]],[[1030,2938],[-6,0],[-3,-4],[-2,-5],[1,-10],[4,-18],[0,-7],[-2,-7],[-40,-65],[-2,-5],[-1,-7],[0,-8],[2,-12],[8,-30],[1,-6],[-2,-8],[-4,-9],[-4,-5],[-4,-4],[-4,-3],[-2,-5],[-1,-6],[2,-9],[0,-7],[0,-7],[-3,-9],[-3,-7],[0,-7],[3,-8],[3,-6],[8,-7],[3,-4],[1,-5],[-1,-8],[-5,-10],[-7,-12],[-3,-6],[-5,-22],[0,-25],[-4,-20]],[[4096,2716],[-15,-19],[-13,-14],[-14,-8],[-36,-11]],[[4018,2664],[-39,9]],[[3979,2673],[-7,7],[-1,6],[1,5],[3,5],[8,9],[4,7],[0,6],[-8,16],[-5,15],[-13,52],[-4,9],[-4,3],[-56,17],[-12,7],[-6,2],[-6,2],[-6,1],[-6,0]],[[3861,2842],[-5,-1],[-13,-8],[-184,-27],[-8,0]],[[3651,2806],[-10,2],[-6,4],[-5,6],[-5,3],[-6,2],[-24,5],[-20,2]],[[3674,3009],[1,-3],[-1,-38],[-1,-6],[-2,-5],[-4,-3],[-5,-1],[-24,-2],[-5,-1],[-5,-3],[-2,-4],[-4,-11],[-2,-5],[-3,-4],[-25,-15],[-4,-3],[-3,-4],[-1,-5],[-3,-12],[-6,-54]],[[3556,2935],[5,4],[3,5],[4,7],[7,6],[17,5],[8,4],[14,13],[15,7],[19,13],[22,10],[4,0]],[[3299,3005],[48,-9],[9,-5],[8,-7],[4,-5],[3,-2],[4,-2],[6,-2],[64,-1],[20,-6],[3,-3],[4,-6],[2,-7],[4,-8],[5,-4],[7,-2],[66,-1]],[[3137,2849],[33,1],[8,2],[10,5],[5,4],[3,4],[1,3],[7,27],[5,25],[2,9],[5,11],[4,7],[5,4],[52,42],[13,7],[9,5]],[[2782,2962],[15,-1],[27,-26],[9,-14],[5,-17],[4,-22],[6,-22],[10,-25],[6,-11],[6,-6],[4,-2],[4,0]],[[2513,2824],[11,2],[8,2],[33,43],[3,3],[34,21],[11,5],[9,2],[83,1],[9,2],[7,2],[7,6],[7,7],[6,8],[6,8],[4,8],[2,3],[5,5],[9,6],[15,4]],[[2974,2879],[31,-2],[87,-22],[45,-6]],[[2878,2816],[4,1],[4,1],[5,2],[16,14],[29,29],[16,11],[7,2],[15,3]],[[2435,2833],[78,-9]],[[2409,2818],[10,11],[16,4]],[[3954,2588],[-7,5],[-4,10],[-3,10],[-3,10],[-2,4],[-4,3],[-4,2]],[[3927,2632],[-41,-5],[-4,-2],[-4,-3],[-1,-8],[0,-6],[2,-24],[-1,-6],[-3,-5],[-9,-4],[-46,-9]],[[3820,2560],[-4,1],[-4,2],[0,5],[1,5],[8,35],[1,5],[0,5],[-2,3],[-4,1]],[[3816,2622],[-47,-11],[-6,-2],[-4,-5],[-5,-8],[-3,-7],[-3,-13],[-17,-148],[-1,-13],[0,-6],[1,-4],[2,-4],[5,-3],[10,-2]],[[3978,2596],[-24,-8]],[[3785,2405],[7,-35],[0,-18],[-6,-99],[6,-7],[5,-6],[52,-18]],[[3748,2396],[9,1],[17,8],[11,0]],[[3857,2265],[6,-2],[18,-26],[6,-6],[50,-39],[13,-2],[7,-5],[7,-9],[12,-23],[2,-10],[8,-18],[48,-41],[4,-6],[2,-3],[1,-5],[2,-5],[1,-6],[0,-8],[-1,-12],[-3,-21],[0,-11],[1,-8],[2,-4],[9,-17],[2,-5],[1,-5],[0,-7],[0,-8],[-5,-19],[-3,-6],[-4,-5],[-20,-11],[-11,-14],[-24,-47]],[[3849,2222],[-3,9],[-8,11],[-2,3],[-1,5],[2,3],[3,4],[12,8],[5,0]],[[3931,1852],[-6,1],[-9,3],[-36,29],[-14,6],[-41,6]],[[3825,1897],[-2,-70],[-1,-5],[-7,-15],[1,-14],[17,-30],[0,-8]],[[3988,1851],[-41,3]],[[3947,1854],[-16,-2]],[[49,4096],[-9,-6],[-31,-32],[-9,-6]],[[429,4082],[-45,4],[-9,2],[-11,4],[-3,4]],[[922,3467],[68,5],[5,2],[4,2],[5,8],[-21,70],[-4,23],[5,12],[1,8],[2,12],[-1,7],[-3,6],[-6,7],[-7,7],[-20,12],[-8,13],[-17,36],[-11,20],[-4,58],[-5,18],[-6,8],[-3,4],[-3,4],[-3,4],[-33,63],[-7,22],[-2,9],[-4,9],[-5,7],[-81,84],[-36,17],[-15,12],[-36,28],[-23,25],[-7,6],[-1,1]],[[502,4096],[-22,-4],[-30,-5],[-12,-4],[-9,-1]],[[121,4047],[4,-2],[3,-4],[4,-6],[2,-2],[4,-2],[4,0],[7,0]],[[102,4039],[3,0],[9,6],[4,2],[3,0]],[[94,4046],[2,-2],[1,-2],[2,-2],[3,-1]],[[94,3955],[-2,1],[-2,3],[-2,2],[-5,13],[-2,21],[0,12],[6,31],[4,6],[3,2]],[[187,4042],[5,-1],[18,-16],[2,-3],[2,-2],[-1,-3],[-3,-1],[-6,-2],[-2,-2],[-2,-2],[-2,-3],[-3,-4],[-3,-2],[-24,-23],[-2,-3],[-2,-3],[1,-3],[1,-3],[2,-3],[11,-10],[5,-3],[3,-1]],[[149,4031],[4,0],[27,10],[7,1]],[[370,4015],[7,-16],[17,-9],[2,-4],[2,-4],[-1,-7],[-1,-4],[0,-15],[0,-8],[2,-15],[3,-3],[3,-1]],[[268,3939],[3,1],[2,2],[35,43],[11,8],[51,22]],[[218,3989],[4,0],[4,-2],[2,-3],[5,-8],[2,-3],[2,-2],[9,-5],[2,-1],[2,-2],[1,-3],[1,-3],[1,-3],[1,-2],[1,-3],[2,-3],[5,-5],[4,-2],[2,0]],[[187,3949],[4,1],[2,2],[1,2],[0,3],[-1,3],[-1,3],[0,3],[1,3],[1,3],[2,3],[5,4],[4,3],[4,3],[9,4]],[[69,3803],[10,0],[22,6],[28,5],[9,5],[2,3],[47,43],[2,4],[1,4],[1,5],[-1,4],[-1,3],[-3,3],[-6,4],[-14,6],[-3,3],[-3,2],[-2,4],[-1,7],[-2,8],[-2,6],[-2,3],[-1,3],[-2,2],[-2,3],[-4,4],[-22,11],[-8,2]],[[112,3956],[-18,-1]],[[414,3931],[11,-6],[3,-23],[-1,-4],[-2,-4],[-6,-5],[-6,-8],[13,-35],[4,-3],[4,-4],[4,0],[5,-1],[9,-5],[1,-4],[0,-2],[-3,-3],[-2,-11],[9,-35],[14,-23],[2,-4],[2,-7],[-1,-5],[-2,-4],[-2,-3],[-6,-4],[-3,-1],[-3,-1]],[[404,3929],[3,1],[7,1]],[[0,3813],[9,-3],[40,0],[9,-2],[6,-2],[5,-3]],[[779,3761],[8,0],[32,-5],[29,-15],[7,-6],[4,-7],[-2,-25],[0,-8],[1,-7],[3,-10],[5,-7],[6,-5],[10,-8],[5,-6],[4,-8],[6,-4],[16,-8],[3,-5],[2,-6],[1,-13],[1,-6],[1,-5],[2,-5],[21,-39],[4,-9],[2,-7],[0,-6],[-2,-32],[-2,-6],[-3,-4],[-4,-2],[-18,-3],[-6,-2],[-4,-2],[-2,-6],[3,-4],[4,-2],[6,-1]],[[658,2762],[11,2],[10,3],[9,4],[12,9],[4,4],[3,4],[2,4],[5,7],[18,35],[6,17],[12,50],[4,10],[4,8],[9,8],[5,5],[7,10],[4,10],[3,11],[2,13],[0,9],[-1,7],[-2,4],[-2,5],[-2,4],[-3,3],[-3,2],[-7,4],[-17,5],[-6,4],[-6,6],[-5,15],[-12,164],[0,11],[1,8],[2,6],[14,21],[7,8],[16,12],[3,4],[4,6],[4,10],[1,7],[0,7],[-3,10],[-1,4],[-16,25],[-2,5],[-1,156],[0,1],[-2,5],[-16,23],[-8,6],[-17,12],[-4,3],[-4,3],[-3,5],[-4,7],[-3,12],[-1,10],[2,22],[2,7],[3,5],[28,20],[7,12],[7,35],[4,37],[2,5],[6,7],[6,4],[9,8],[8,3],[6,1]],[[458,3726],[-5,0],[-3,1]],[[450,3727],[-4,0],[-5,-2],[-13,-15],[-2,-1],[-3,-2],[-2,0],[-3,-1],[-2,0]],[[416,3706],[-17,3]],[[399,3709],[-4,0],[-2,-2],[1,-3],[1,-3],[4,-9],[-1,-10],[-8,-25],[0,-9],[8,-11],[1,-5],[1,-5],[-3,-26],[-1,-6],[-3,-4],[-3,-1],[-13,-2],[-7,-3],[-7,-13],[-1,-10],[4,-62],[-1,-11],[-1,-8],[-4,-6],[-24,-32],[-12,-21],[-14,-33],[-4,-12],[-2,-11],[1,-6],[2,-8],[2,-5],[3,-3],[2,-2],[4,-2],[4,-2],[5,-1]],[[362,3350],[6,-1],[5,-1],[5,-3],[4,-3],[6,-8],[18,-45],[6,-10],[4,-3],[3,-4],[9,-4],[6,-2],[50,-2],[19,-4],[5,-2],[4,-4],[0,-8],[-1,-6],[-11,-17],[-6,-17],[-1,-6],[-1,-6],[-2,-27],[-2,-8],[-3,-5],[-4,-3],[-9,-4],[-8,-6],[-3,-4],[-2,-7],[-2,-7],[-1,-11],[-1,-8],[-3,-7],[-5,-9],[-7,-7],[-5,-3],[-4,-2],[-5,-1],[-11,-2]],[[327,3337],[4,0],[3,1],[22,11],[6,1]],[[415,3073],[-13,2],[-6,1],[-4,3],[-4,4],[-2,4],[-7,25],[-1,5],[-3,5],[-2,4],[-4,3],[-4,3],[-18,4],[-6,2],[-4,3],[-2,4],[-2,6],[0,17],[-1,6],[-4,9],[-2,4],[-3,4],[-4,4],[-9,5],[-12,2],[-13,1]],[[285,3203],[-12,-1],[-5,-1],[-4,-5],[-4,-7],[-9,-18],[-3,-10],[-1,-9],[0,-6],[0,-11],[1,-4],[2,-3],[18,-21],[5,-8],[2,-7],[1,-7],[0,-14],[-2,-8],[-2,-6],[-12,-20],[-2,-7],[-1,-7],[1,-9],[1,-2],[0,-3],[2,-3],[1,-3],[7,-8],[3,-4],[3,-6],[-1,-5],[-3,-4],[-4,-3],[-4,-4],[-4,-5],[-5,-9],[0,-7],[0,-5],[4,-14],[11,-6],[17,-3],[24,-11],[13,-8],[8,-2],[6,0]],[[384,2916],[10,-2],[6,-2],[5,-3],[20,-21],[31,-27],[7,-4],[8,-3],[22,-2],[44,-8],[14,-7],[29,-27],[52,-36],[15,-8],[11,-4]],[[337,2899],[10,4],[12,7],[16,6],[9,0]],[[2078,1114],[29,3],[15,31],[-1,52],[7,42],[14,16],[8,26],[32,53],[51,60],[10,24],[1,29],[7,15],[11,10],[11,34],[22,23],[37,3],[13,4],[14,0]],[[3582,1014],[-3,26],[-20,11],[-4,16],[7,19],[0,1],[2,51],[11,49],[9,8],[9,6],[6,12],[5,14],[15,11],[13,18],[-6,31],[-12,26],[2,32],[-1,30],[-10,13],[-10,10],[-3,16],[-2,16],[-5,10],[-8,5],[11,35],[23,30],[-11,16],[-12,12],[-25,43],[-34,10],[-15,21],[-9,26],[-2,3]],[[3717,766],[0,25],[14,17],[-3,39],[21,20],[26,1],[10,28],[-20,31],[-23,29],[-6,36],[-6,21],[-3,10],[-25,14],[-52,12],[-25,1]],[[3625,1050],[-22,-16],[-11,-11],[-10,-9]],[[4017,787],[-44,24],[-19,2]],[[3954,813],[-11,-21],[-21,-13]],[[3922,779],[-21,0]],[[3901,779],[-14,-34],[-14,-6],[-9,-16]],[[3067,1410],[26,-16],[28,-4]],[[3186,1410],[16,-20],[-8,-33],[-1,-32],[-56,-16],[-34,-24],[-15,-11],[-2,-12],[-4,-18],[5,-31],[-4,-27],[-4,-4],[-5,-5],[-11,-10],[-10,-28],[-14,-26],[-23,-18],[-20,-21],[-3,-42],[-11,-36],[-27,-24],[-5,-38]],[[3121,1390],[22,5],[20,11],[23,4]],[[3067,1410],[60,49],[101,8],[14,7],[16,29],[39,28],[4,50]],[[2372,1451],[-1,21],[-6,19],[0,25],[-6,23]],[[2676,1355],[-35,20],[-15,3],[-18,15],[-10,31],[-37,35],[-40,26]],[[2521,1485],[-18,-1],[-16,-16]],[[2487,1468],[-19,2],[-18,7]],[[2450,1477],[-78,-26]],[[2931,1427],[-77,9]],[[2854,1436],[-69,-37],[-26,-26],[-31,-13],[-52,-5]],[[3067,1410],[-15,6],[-47,18]],[[3005,1434],[-74,-7]],[[1585,1422],[3,2],[18,8],[8,4],[27,18],[17,20],[9,13],[36,12],[3,1],[63,37],[57,57],[1,1],[11,17],[15,13],[14,8],[6,18],[-2,19],[-3,24],[-20,35],[-3,24],[1,26],[-8,46],[-6,9],[1,11],[8,9],[9,5],[11,16],[-4,21],[-5,18],[-2,4],[-4,23],[-6,21],[-13,16],[12,15],[5,8],[71,13],[38,16],[14,23],[17,19],[14,25],[11,28],[-1,27],[-2,29],[8,26],[10,23]],[[2687,1836],[13,21],[2,31],[17,16],[24,35],[24,9]],[[2270,1901],[18,0],[18,-9],[103,-25],[43,-2]],[[2359,1539],[-56,112],[20,42],[-33,34],[-82,46],[-40,35],[18,35],[23,13],[27,2],[9,2],[8,6],[8,18],[9,17]],[[2490,1886],[79,-36]],[[2452,1865],[20,9],[8,8],[10,4]],[[2622,1858],[45,-18],[20,-4]],[[2569,1850],[53,8]],[[2970,935],[48,-12],[25,-12],[7,-14],[4,-16],[10,-8],[7,-12],[25,-22],[22,-4],[11,-26],[24,-9],[25,-15]],[[2950,934],[20,1]],[[3254,790],[31,-38]],[[3178,785],[27,4],[49,1]],[[2950,934],[-218,-91]],[[2430,823],[-45,28]],[[2732,843],[-12,2],[-12,4]],[[2708,849],[-75,-6],[-31,-14]],[[2602,829],[-33,1],[-63,13]],[[2506,843],[-76,-20]],[[3654,738],[-17,7],[-11,14],[-14,7]],[[3612,766],[-43,-22],[-36,-6]],[[3717,766],[-12,-27],[-51,-1]],[[3453,735],[-168,17]],[[3533,738],[-34,9]],[[3499,747],[-23,-4],[-23,-8]],[[3825,703],[-34,32],[-34,25],[-40,6]],[[3864,723],[-39,-20]],[[4071,862],[25,-7]],[[4017,787],[18,22],[8,28],[13,18],[15,7]],[[4017,787],[-21,-20],[-2,-18],[14,-13],[5,-17],[4,-18],[11,-10],[13,-6],[17,-5]],[[3889,692],[-10,14],[-2,14],[-13,3]],[[4096,708]],[[4096,673],[-14,-21],[-27,-9]],[[4058,680],[16,5],[10,14],[12,9]],[[4055,643],[-28,2],[-21,11],[-18,4],[-18,2],[-59,31]],[[3911,693],[-22,-1]],[[2078,1114],[-17,-27],[18,-26],[36,-6],[14,-4]],[[2163,1069],[26,-6],[14,-24],[10,-29],[21,-13],[26,-8],[18,-14],[20,-10],[14,-9],[15,-7]],[[2129,1051],[12,4],[22,14]],[[2350,951],[22,-7],[11,-43],[2,-50]],[[2327,949],[23,2]],[[2331,811],[12,10],[7,18],[16,11],[19,1]],[[2298,820],[16,-6],[17,-3]],[[2262,816],[36,4]],[[2523,3048],[27,22],[124,-23]],[[2674,3047],[11,3]],[[2936,864],[9,-38],[31,2],[15,-13],[-26,3],[13,-44],[44,-2]],[[367,3754],[16,9]],[[384,3764],[35,20],[-11,24],[224,93],[200,0],[140,37]],[[972,3938],[287,78],[17,-13]],[[383,3763],[-16,-9]],[[384,3764],[70,-98],[101,-41],[47,-265],[-18,-64]],[[3950,739],[43,-36]],[[3993,703],[103,11]],[[0,2875],[64,-73]],[[1188,4096],[68,-80],[-423,-115],[-200,0],[-225,-93],[9,-27],[-220,-111],[-26,-67],[-102,-77],[36,-58],[-77,-47],[0,-29],[-28,-8]],[[65,2799],[105,-119],[85,-55],[16,-47],[86,-55],[28,-63]],[[3388,2631],[-299,-128]],[[3389,2631],[26,-4],[12,50],[-14,81]],[[3419,2759],[-10,0]],[[3409,2759],[-9,5]],[[3400,2764],[11,-6],[1,0],[1,0],[2,0]],[[3409,2759],[-2,2]],[[1206,4096],[213,-242],[443,-216]],[[2576,3324],[-160,108],[-133,28],[-178,112],[-243,66]],[[2435,2917],[8,30]],[[2436,2912],[-1,5]],[[2435,2917],[103,146],[140,-16],[22,59]],[[2577,3323],[167,-101]],[[2698,3132],[7,3],[1,1],[0,4],[2,1],[17,-2],[1,0],[2,2],[1,3],[8,18],[0,1],[8,59]],[[2698,3132],[1,1],[1,0],[5,2],[1,2],[0,2],[0,1],[1,1],[1,0],[1,1],[5,-1],[1,0],[10,-2],[2,2],[3,5],[7,16],[0,1],[0,18],[-1,4],[0,1],[0,1],[9,35]],[[2741,3224],[-4,2]],[[1962,3247],[-12,50],[-101,132],[-4,200],[17,9]],[[1862,3638],[23,1]],[[1206,4096],[213,-242],[443,-216]],[[2576,3324],[-160,108],[-133,28],[-178,112],[-243,66]],[[2577,3323],[165,-100]],[[2741,3224],[-4,2]],[[0,2876],[199,-212]],[[199,2664],[1,0]],[[200,2664],[2,-2]],[[202,2662],[1,0]],[[203,2662],[56,-49]],[[259,2613],[0,-2]],[[259,2611],[12,-33],[89,-59]],[[385,2462],[-14,45]],[[4022,231],[-47,-58],[-157,-69],[16,-104]],[[205,3179],[33,-99]],[[284,3256],[-58,-40]],[[385,2460],[243,-125],[47,-91],[150,-26],[60,-95],[168,-18],[105,-88],[28,3]],[[0,2876],[170,-196],[188,-158],[27,-62]],[[385,2462],[-4,9],[-8,31],[-1,3],[-1,2]],[[1206,4096],[213,-242],[332,-149],[98,-71],[52,3]],[[2576,3324],[-160,108],[-131,27],[-180,113],[-204,65]],[[1901,3637],[-18,2]],[[2577,3323],[46,-44],[119,-56]],[[2755,3217],[-18,9]],[[2755,3217]],[[2755,3217],[3,0],[24,3],[2,0],[3,1],[14,7],[4,1],[12,5],[5,1],[29,-3],[14,-6],[2,-1],[2,0],[2,0],[2,0],[2,0],[3,1],[2,0],[2,0],[3,-1],[3,-3],[6,-4],[2,-1],[2,0],[19,-5],[10,-6],[1,0],[5,-2],[3,-3],[1,0],[1,-1],[1,0],[1,0],[8,-2],[3,-1],[3,-1],[2,0],[44,-34]],[[3045,3096],[-49,77],[-34,18],[-3,3],[-3,2],[-1,0],[-7,2],[-11,3],[-4,3],[-6,2],[-7,4],[-1,1],[-2,1],[-20,5],[-12,8],[-2,1],[-2,0],[-1,0],[-12,-1],[-16,6],[-1,1],[-3,0],[-11,2],[-15,1],[-3,-1],[-2,0],[-1,0],[-11,-5],[-4,-1],[-17,-8],[-24,-3]],[[3117,2957],[-71,132]],[[3110,2968]],[[3332,2806],[-194,130]],[[3415,2758],[-4,0],[-26,13],[-6,4]],[[3419,2759],[-10,0]],[[3409,2759],[-9,5]],[[3409,2759],[-8,4]],[[3434,2598],[-18,13],[-3,147]],[[3438,2592],[119,-307],[208,-76]],[[3760,2207]],[[3760,2207]],[[3760,2207],[2,1]],[[3762,2208],[1,0]],[[3760,2207],[111,-158]],[[378,3761],[-181,-91],[-26,-67],[-102,-77],[36,-58],[-77,-47],[0,-29],[-28,-8]],[[3077,1016],[-31,22]],[[0,2880],[64,-78]],[[65,2799],[3,-4]],[[72,2792],[104,-115]],[[178,2675],[179,-152],[29,-64]],[[385,2462],[-4,9],[-8,31],[-1,3],[-1,2]],[[2755,3217],[-14,7]],[[2755,3217]],[[2755,3217],[3,0],[24,3],[2,0],[3,1],[14,7],[4,1],[12,5],[5,1],[29,-3],[14,-6],[2,-1],[2,0],[2,0],[2,0],[2,0],[3,1],[2,0],[2,0],[3,-1],[3,-3],[6,-4],[2,-1],[2,0],[19,-5],[10,-6],[1,0],[5,-2],[3,-3],[1,0],[1,-1],[1,0],[1,0],[8,-2],[3,-1],[3,-1],[2,0],[44,-34]],[[2760,3217],[24,3],[17,8],[15,6],[1,0],[2,0],[3,1],[29,-3],[1,-1],[2,0],[10,-5],[4,-1],[4,0],[6,1],[2,0],[2,0],[3,-1],[12,-8],[20,-5],[2,-1],[1,-1],[7,-4],[6,-2],[4,-3],[11,-3],[6,-2],[1,0],[39,-22],[6,-12]],[[2993,3175],[171,92],[213,302],[34,157],[60,64]],[[3471,3790],[7,9]],[[3471,3790],[3,4]],[[1888,4096],[-2,-36],[26,3]],[[3950,739],[43,-36]],[[3993,703],[12,-4],[6,-3]],[[4001,700],[25,-13]],[[4026,687],[35,-29]],[[4026,687],[70,-73]],[[1206,4096],[213,-242],[332,-149],[98,-71],[52,3]],[[2576,3324],[-160,108],[-131,27],[-180,113],[-204,65]],[[1901,3637],[-18,2]],[[2577,3323],[46,-44],[119,-56]],[[2755,3217],[-18,9]],[[2755,3217]],[[2755,3217],[3,0],[24,3],[2,0],[3,1],[14,7],[4,1],[12,5],[5,1],[29,-3],[14,-6],[2,-1],[2,0],[2,0],[2,0],[2,0],[3,1],[2,0],[2,0],[3,-1],[3,-3],[6,-4],[2,-1],[2,0],[19,-5],[10,-6],[1,0],[5,-2],[3,-3],[1,0],[1,-1],[1,0],[1,0],[8,-2],[3,-1],[3,-1],[2,0],[44,-34]],[[3045,3096],[-49,77],[-34,18],[-3,3],[-3,2],[-1,0],[-7,2],[-11,3],[-4,3],[-6,2],[-7,4],[-1,1],[-2,1],[-20,5],[-12,8],[-2,1],[-2,0],[-1,0],[-12,-1],[-16,6],[-1,1],[-3,0],[-11,2],[-15,1],[-3,-1],[-2,0],[-1,0],[-11,-5],[-4,-1],[-17,-8],[-24,-3]],[[3117,2957],[-71,132]],[[3110,2968]],[[3332,2806],[-194,130]],[[3419,2759],[-40,16]],[[3419,2759],[-10,0]],[[3409,2759],[-7,4],[-2,1]],[[3409,2759],[-8,4]],[[4096,2748],[-421,17],[-187,33],[-69,-39]],[[2755,3217],[-14,7]],[[2755,3217]],[[2755,3217],[3,0],[26,3],[38,15],[29,-3],[14,-6],[2,-1],[2,0],[13,1],[14,-9],[2,0],[19,-5],[10,-6],[6,-2],[3,-3],[1,0],[1,-1],[18,-4],[44,-34]],[[3045,3096],[-32,39],[-9,16],[-5,17],[-1,3],[-1,1],[-1,1],[-1,1],[-1,0],[-18,10],[-10,6],[-4,1],[-3,3],[-3,2],[-1,0],[-7,2],[-11,3],[-1,1],[-2,1],[-1,1],[-6,2],[-7,4],[-1,1],[-2,1],[-2,1],[-15,3],[-3,1],[-12,8],[-1,0],[-1,1],[-2,0],[-1,0],[-12,-1],[-4,1],[-9,4],[-2,1],[-1,0],[-1,1],[-3,0],[-10,2],[-1,0],[-5,0],[-10,1],[-1,0],[-2,-1],[-2,0],[-1,0],[-11,-5],[-4,-1],[-17,-8],[-24,-3]],[[3117,2957],[-71,132]],[[3110,2968]],[[3332,2806],[-194,130]],[[3415,2758],[-2,0],[-1,0],[-1,0],[-26,13],[-6,4]],[[3419,2759],[-10,0]],[[3409,2759],[-7,4],[-2,1]],[[3409,2759],[-8,4]],[[3434,2598],[-18,13],[-3,147]],[[3438,2592],[119,-307],[208,-76]],[[3760,2207],[127,-9],[41,44]],[[0,105],[0,2765],[12,-14],[48,-74],[85,-82],[33,-44],[11,-9],[29,-13],[12,-8],[5,-10],[6,-22],[4,-9],[5,-5],[12,-8],[16,-15],[66,-35],[15,-14],[11,-19],[9,-28],[11,-22],[17,-20],[21,-14],[17,-4],[17,-3],[23,-10],[33,-5],[11,-5],[23,-24],[40,-12],[23,-10],[11,-15],[16,-27],[12,-29],[-3,-32],[7,-11],[16,-16],[7,-13],[11,-27],[7,-8],[19,25],[27,-4],[59,-28],[23,-4],[7,-2],[6,-5],[13,-14],[3,-3],[7,-3],[14,-14],[9,-3],[9,1],[23,6],[34,2],[73,-10],[53,-22],[5,-4],[17,-29],[1,-5],[12,-8],[22,-34],[18,-6],[29,13],[18,1],[13,-29],[30,-53],[17,-61],[33,-51],[7,-5],[10,2],[14,9],[9,3],[14,-2],[19,-7],[17,-10],[12,-11],[12,-7],[56,-10],[29,-18],[24,-26],[19,-33],[13,-40],[37,-233],[2,-17],[3,-7],[19,-19],[6,-8],[2,-6],[39,-137],[6,-45],[1,-34],[4,-19],[7,-8],[8,-7],[22,-39],[30,-53],[3,-14],[1,-22],[9,-63],[0,-4],[0,-81],[-2,-9],[-4,-8],[-12,-17],[-4,-9],[-1,-8],[0,-9],[-2,-11],[-34,-58],[-12,-30],[-44,-29],[-22,-30],[-48,-88],[-9,-19],[-43,-39],[-8,-5],[-2,-22],[-8,-21],[-11,-18],[-13,-11],[-10,-3],[-25,-4],[-8,-2],[-16,-9],[-18,-7],[-69,-58],[-13,-5],[-19,-1],[-18,-4],[-15,-12],[-29,-31],[-14,-10],[-16,-9],[-17,-6],[-15,-2],[-12,-5],[-27,-20],[-19,-3],[-31,12],[-11,2],[-8,-4],[-51,-39],[-43,-60],[-9,-6],[-12,-4],[-22,-3],[-10,-3],[-27,-25],[-23,-15],[-21,-6],[-21,3],[-25,11],[-103,-70],[-234,0],[-2,2],[-18,-2],[-1,0],[-103,0],[-24,20],[-7,3],[-16,-2],[-8,1],[-20,15],[-14,-2],[-15,-8],[-14,-4],[-29,6],[-28,16],[-43,39],[-19,26],[-10,11],[-46,11],[-9,-2],[-4,-4],[-2,-4],[-5,-4],[-20,-13]],[[0,2870],[12,-14],[48,-74],[85,-82],[33,-44],[11,-9],[29,-13],[12,-8],[5,-10],[6,-22],[4,-9],[5,-5],[12,-8],[16,-15],[66,-35],[15,-14],[11,-19],[9,-28],[11,-22],[17,-20],[21,-14],[17,-4],[17,-3],[23,-10],[33,-5],[11,-5],[23,-24],[40,-12],[23,-10],[11,-15],[16,-27],[12,-29],[-3,-32],[7,-11],[16,-16],[7,-13],[11,-27],[7,-8],[19,25],[27,-4],[59,-28],[23,-4],[7,-2],[6,-5],[13,-14],[3,-3],[7,-3],[14,-14],[9,-3],[9,1],[23,6],[34,2],[73,-10],[53,-22],[5,-4],[17,-29],[1,-5],[12,-8],[22,-34],[18,-6],[29,13],[18,1],[13,-29],[30,-53],[17,-61],[33,-51],[7,-5],[10,2],[14,9],[9,3],[14,-2],[19,-7],[17,-10],[12,-11],[12,-7],[56,-10],[29,-18],[24,-26],[19,-33],[13,-40],[37,-233],[2,-17],[3,-7],[19,-19],[6,-8],[2,-6],[39,-137],[6,-45],[1,-34],[4,-19],[7,-8],[8,-7],[22,-39],[30,-53],[3,-14],[1,-22],[9,-63],[0,-4],[0,-81],[-2,-9],[-4,-8],[-12,-17],[-4,-9],[-1,-8],[0,-9],[-2,-11],[-34,-58],[-12,-30],[-44,-29],[-22,-30],[-48,-88],[-9,-19],[-43,-39],[-8,-5],[-2,-22],[-8,-21],[-11,-18],[-13,-11],[-10,-3],[-25,-4],[-8,-2],[-16,-9],[-18,-7],[-69,-58],[-13,-5],[-19,-1],[-18,-4],[-15,-12],[-29,-31],[-14,-10],[-16,-9],[-17,-6],[-15,-2],[-12,-5],[-27,-20],[-19,-3],[-31,12],[-11,2],[-8,-4],[-51,-39],[-43,-60],[-9,-6],[-12,-4],[-22,-3],[-10,-3],[-27,-25],[-23,-15],[-21,-6],[-21,3],[-25,11],[-103,-70]],[[457,0],[-2,2],[-18,-2],[-1,0]],[[333,0],[-24,20],[-7,3],[-16,-2],[-8,1],[-20,15],[-14,-2],[-15,-8],[-14,-4],[-29,6],[-28,16],[-43,39],[-19,26],[-10,11],[-46,11],[-9,-2],[-4,-4],[-2,-4],[-5,-4],[-20,-13]],[[2620,4096],[23,-11],[30,0],[23,11]],[[2943,4096],[3,-7]],[[1154,4096],[20,-35]],[[1853,4044],[27,4],[6,9],[21,4],[51,2]],[[1958,4063],[33,2],[42,12],[48,19]],[[1877,4096],[-3,-11],[-15,-16],[-6,-25]],[[1211,4009],[14,-26],[1,-1]],[[1174,4061],[30,-41],[7,-11]],[[1226,3982],[23,-32]],[[1249,3950],[12,-17],[21,-16]],[[4096,3858],[-27,-28],[-18,-12],[-12,-4],[-36,0]],[[3529,3822],[18,8],[48,5],[51,4],[30,0],[72,12],[15,8],[27,4],[15,-4],[51,-29],[42,-12],[24,-8],[33,-4],[42,4],[6,4]],[[3481,3785],[15,17],[21,13]],[[3517,3815],[12,7]],[[3391,3882],[18,-10],[48,-37],[9,-9],[15,-41]],[[2946,4089],[9,-8],[15,-4],[36,8],[30,-4],[18,-8],[39,-25],[42,-8],[21,-16],[45,-29],[22,-17],[36,-4],[15,-8],[48,-41],[12,-8],[57,-35]],[[3503,3756],[-7,13],[-15,16]],[[3505,3752],[-2,4]],[[1437,3841],[-7,10]],[[1430,3851],[-21,12],[-34,9],[-72,32],[-21,13]],[[1766,3719],[-57,21],[-24,12],[-66,21],[-75,33],[-15,0],[-39,-8],[-15,4],[-24,20],[-14,19]],[[1808,3715],[0,4]],[[1855,3990],[-2,21],[0,33]],[[1808,3719],[6,50],[3,33],[9,16],[12,4],[18,4],[9,13],[-6,24],[0,17],[-6,16],[-6,45],[9,37],[-1,12]],[[1769,3719],[39,-4]],[[1766,3719],[3,0]],[[2628,3707],[-15,12],[-33,33],[-36,17],[-15,16],[-9,17],[-9,45],[-54,70],[-30,33],[-15,8],[-42,8],[-15,8],[-21,17],[-36,33],[-58,37],[-21,16],[-12,19]],[[1025,3687],[-16,-13],[-24,-12]],[[1249,3950],[-12,-4],[-18,-13],[-21,-24],[-45,-46],[-9,-8],[-12,-33],[-9,-20],[-30,-41],[-27,-33],[-21,-25],[-20,-16]],[[985,3662],[-30,-12]],[[955,3650],[-3,0]],[[603,3646],[-20,-21],[-12,-8],[-33,-9]],[[952,3650],[-5,0]],[[947,3650],[-13,0],[-39,-17],[-33,-8],[-33,-8],[-12,-4],[-27,4],[-36,0],[-21,8],[-27,20],[-36,21],[-15,4],[-33,-8],[-12,-8],[-7,-8]],[[1915,3641],[-2,0],[-33,9],[-33,12],[-15,20],[-12,21],[-12,12]],[[2288,3502],[-30,8],[-18,8],[-63,37],[-27,16],[-30,9],[-45,0],[-30,12],[-57,29],[-42,12],[-31,8]],[[279,3466],[-3,3],[-15,4]],[[538,3608],[-24,-12],[-20,-15]],[[494,3581],[-17,-14],[-33,-33],[-30,-37],[-21,-16],[-12,-4],[-24,0],[-9,-8],[-12,-17],[-9,-12],[-15,0],[-15,4],[-18,22]],[[261,3473],[-12,-4],[-4,-2]],[[245,3467],[-14,-7],[-36,-28],[-15,-13],[-21,-4],[-15,0],[-30,8],[-9,25]],[[1798,3658],[1,4],[-6,20],[-24,29],[0,1]],[[1769,3712],[-3,7]],[[1865,3362],[-21,12],[-9,8],[-9,33],[-3,33],[9,58],[-9,53],[-18,33],[-9,25],[-3,20],[5,21]],[[2739,3255],[1,7]],[[2740,3262],[2,18],[6,12],[45,29],[3,16],[0,21],[3,53],[-3,49],[3,46],[0,20],[-33,33],[-36,33],[-27,37],[-48,53],[-27,25]],[[2670,3268],[12,-5],[12,-4],[18,4],[27,-8]],[[2288,3502],[43,-17],[33,-16],[42,-21],[12,-8],[21,-8],[30,-21],[36,-20],[9,-13],[96,-78],[33,-20],[27,-12]],[[2736,3243],[3,12]],[[1931,3243],[-12,4],[-4,15]],[[1915,3262],[-8,30],[-33,62],[-9,8]],[[1946,3243],[-15,0]],[[1892,3099],[9,24],[16,22]],[[1942,3194],[10,36],[-6,13]],[[1917,3145],[17,24],[8,25]],[[0,3391],[6,4],[21,0],[-3,16],[6,8],[12,0],[15,21],[27,12],[12,-8],[9,4]],[[2736,3243],[0,-17],[-9,-29],[-12,-20],[-6,-13],[6,-20],[-12,-29],[-24,-20],[-6,-13],[3,-20],[9,-17]],[[2631,3066],[21,-13],[33,-8]],[[2685,3045],[12,-16]],[[2370,2952],[3,-1],[27,-4],[42,8],[26,12]],[[2527,3027],[8,6],[24,16],[18,5]],[[2615,3063],[16,3]],[[2201,2930],[15,4],[66,17],[37,12],[21,4],[30,-15]],[[2468,2967],[10,4],[9,13],[3,20],[24,12],[13,11]],[[2577,3054],[27,8],[11,1]],[[1883,3042],[0,3],[6,21],[3,33]],[[1856,2926],[0,25],[9,20],[18,17],[0,54]],[[2697,3029],[16,-19]],[[2713,3010],[5,-6],[27,-49],[27,-25],[15,-20]],[[1706,2873],[27,4],[24,12],[42,4],[57,33]],[[1602,2878],[-2,2]],[[1053,3383],[-5,12],[-12,16],[-12,37],[-2,5]],[[960,3638],[-5,12]],[[1022,3453],[-16,36],[-24,45],[0,50],[-3,12],[-19,42]],[[1600,2880],[-2,5],[-21,20],[-54,0],[-36,9],[-27,16],[-15,8],[-33,9],[-43,8],[-33,12],[-75,29],[-9,4],[-27,8],[-12,-12],[-15,12],[-36,-12],[-12,25],[-12,16],[-30,12],[-15,13],[-27,28],[-6,17],[-12,16],[0,9],[18,20],[9,25],[6,49],[12,41],[-3,25],[-3,12],[-18,37],[-16,42]],[[1613,2860],[-11,18]],[[1622,2862],[8,2]],[[1613,2860],[9,2]],[[1630,2864],[1,0],[75,9]],[[1874,2790],[-12,33],[0,13],[0,41],[0,24],[-6,25]],[[1874,2790],[30,-4],[39,0],[18,0],[18,-8],[18,0],[33,16],[9,5],[18,0],[27,-21],[30,0],[18,21],[0,12],[-3,20],[6,13],[21,24],[45,62]],[[2787,2910],[15,-29],[60,-54],[39,-24],[78,-41]],[[3418,2753],[-12,9]],[[3826,2753],[6,-8]],[[2979,2762],[9,-9],[12,-16]],[[3826,2753],[9,13],[18,9]],[[3853,2775],[6,3],[36,4],[15,-16],[18,-21],[12,-8],[18,-4],[33,4],[54,-4],[42,4],[9,-1]],[[3832,2745],[30,-4],[2,-7]],[[3864,2734],[7,-34]],[[3000,2737],[-18,-29],[0,-12],[6,-17]],[[2988,2679],[12,-8],[39,-12]],[[3053,2600],[10,-32]],[[3039,2659],[3,-29],[11,-30]],[[3898,2566],[3,-10]],[[3871,2700],[21,-82],[3,-46],[3,-6]],[[3063,2568],[18,-61]],[[3081,2507],[12,-13]],[[3093,2494],[18,0],[18,3]],[[3157,2502],[5,1],[22,0]],[[3129,2497],[28,5]],[[3184,2503],[11,0],[19,-9]],[[3901,2556],[2,-8]],[[3903,2548],[4,-21],[3,-41]],[[3214,2494],[12,-4],[27,-24]],[[162,2727],[6,-7],[36,-24]],[[210,2692],[12,-9],[2,-1]],[[238,2669],[2,-2],[12,-20]],[[289,2592],[8,-3],[5,-7]],[[383,2508],[10,-5],[12,-9],[10,-17]],[[0,2918],[7,-11]],[[26,2884],[7,-7],[15,-13],[31,-38]],[[415,2477],[8,-16]],[[252,2647],[3,-5],[21,-45],[13,-5]],[[7,2907],[8,-10],[11,-13]],[[79,2826],[23,-27],[36,-46],[24,-26]],[[204,2696],[6,-4]],[[224,2682],[14,-13]],[[302,2582],[13,-22],[33,-33],[35,-19]],[[3253,2466],[33,-33]],[[3286,2432],[18,-24],[8,-8]],[[3286,2433],[0,-1]],[[3312,2400],[13,-13]],[[3493,2330],[24,8]],[[3325,2387],[39,-41],[27,-20]],[[3391,2326],[21,-4],[48,4],[6,4],[27,0]],[[1760,2289],[-6,4],[-57,29],[-18,12],[0,12],[6,17],[18,37],[12,49],[2,7]],[[1778,2571],[33,34],[9,13],[0,20]],[[1849,2775],[12,7]],[[1717,2456],[7,26],[24,53],[24,29],[6,7]],[[1820,2638],[0,13],[12,20],[6,21],[-6,41],[3,24],[6,13],[8,5]],[[1861,2782],[13,8]],[[3562,2285],[-18,16],[-9,17],[-18,20]],[[423,2461],[8,-10]],[[431,2451],[1,-2],[27,-8],[70,-29],[12,-8],[18,-21],[12,-8],[21,-8],[42,-12],[18,-9],[15,-16],[12,-21],[6,-20],[9,-33]],[[694,2256],[18,-12],[21,8]],[[1808,2240],[-12,8],[-12,20],[-6,13],[-18,8]],[[1832,2227],[-9,4],[-15,9]],[[3730,2215],[-12,24],[-21,25],[-6,2]],[[3691,2266],[-24,6],[-33,0],[-18,4],[-45,5],[-9,4]],[[3574,2182],[6,12],[-12,59]],[[3568,2253],[-6,32]],[[3922,2206],[24,21],[12,21],[18,20],[21,16]],[[4027,2298],[9,3],[6,0]],[[3904,2178],[9,20],[9,8]],[[3997,2284],[6,5],[24,9]],[[4042,2301],[51,0]],[[3885,2201],[1,-3],[2,-2]],[[3863,2282],[-1,-10],[0,-24],[8,-14]],[[3910,2486],[3,-49],[0,-21],[-9,-24],[-9,-25],[-24,-25],[-6,-24],[-2,-36]],[[3870,2234],[7,-15],[8,-18]],[[3888,2196],[16,-18]],[[3852,2178],[20,0]],[[3730,2215],[33,-17],[45,-11]],[[3808,2187],[18,-5],[24,-4],[2,0]],[[3872,2178],[32,0]],[[3535,2042],[3,25],[4,24]],[[3568,2173],[6,9]],[[3542,2091],[8,42],[9,24],[9,16]],[[3730,2215],[15,-21],[18,-12],[15,-18]],[[3786,2155],[1,-2],[30,-37],[15,-25],[12,-37],[0,-12]],[[3778,2164],[8,-9]],[[3844,2042],[-9,-12]],[[1166,2042],[11,-21],[12,-4],[13,11]],[[733,2252],[30,4],[21,-12],[36,-9],[21,-16],[9,-8],[9,-33],[9,-17],[24,-16],[30,-12],[72,8],[30,-8],[24,-5],[24,0],[15,-4],[33,-28],[15,-21],[24,-21],[7,-12]],[[1202,2028],[2,2],[27,4],[15,-4],[18,-21],[6,-20]],[[1270,1989],[3,-5],[51,13],[15,12],[18,21],[15,4],[22,-4],[15,4],[21,16],[27,-12],[30,12],[39,-4],[33,-8],[21,4],[18,8],[42,37],[33,21],[27,8],[18,0],[30,0],[30,0],[12,8],[15,13],[6,12],[12,41],[12,21],[-3,16]],[[1270,1989],[6,-46],[15,-37],[18,-24],[21,-17],[51,-24],[34,-13],[30,-12],[33,-17],[15,-12],[15,-4],[6,-8],[-3,-21],[12,-29],[9,-4]],[[3352,1745],[3,9],[0,29],[3,16],[3,5]],[[3478,1880],[3,2],[0,3]],[[3535,2042]],[[3343,1709],[9,36]],[[3361,1804],[18,20],[9,25],[9,12],[15,0],[30,8],[27,4],[9,7]],[[3481,1885],[9,38],[9,12],[6,41],[12,29],[18,37]],[[3229,1721],[6,-28],[15,-9],[42,0],[36,13],[15,12]],[[2952,1598],[21,29],[12,8],[27,0],[18,8],[18,37],[15,33],[24,8],[30,-4],[18,-8],[15,-12],[18,0],[9,4],[31,29],[15,-5],[6,-4]],[[2535,1586],[12,-9],[3,-16],[15,0],[18,8],[21,-4],[15,12],[12,5],[33,-13],[36,-16],[30,-4],[42,0],[36,12],[39,21],[27,0],[27,8],[36,0],[15,8]],[[1805,1574],[0,-13],[12,-25],[3,-16]],[[1532,1721],[9,0],[24,4],[33,0],[21,-4],[45,-24],[18,-13],[36,-28],[24,-33],[30,-21],[24,0],[9,-8],[0,-20]],[[1820,1520],[-11,-20]],[[1809,1500],[-28,-50],[-21,-29],[-3,-16],[6,-17],[21,-20],[27,-21],[24,-24],[42,-17],[27,-16],[30,-13],[9,0]],[[2418,1273],[15,4]],[[2418,1273],[12,21],[6,12],[0,17],[-9,8],[-24,4],[0,3]],[[2403,1338],[0,9],[21,13],[6,16],[-3,12],[-12,17],[0,16],[15,13],[18,8],[9,8],[0,29],[15,12],[15,25],[3,16],[-6,8],[12,21],[6,12],[9,13],[24,0]],[[2165,1175],[6,1]],[[2402,1267],[16,6]],[[2171,1176],[48,15],[36,12],[43,25],[39,21],[24,8],[27,4],[14,6]],[[2165,1175],[-1,0]],[[2164,1175],[-8,0]],[[2156,1175],[-12,-5],[-24,9],[-27,12],[-30,21],[-21,37],[-15,20],[-30,29],[-6,4],[-21,-4],[-27,-21]],[[3853,1993],[0,4],[-18,33]],[[3925,1154],[-6,4],[-9,8],[-18,0],[-18,9],[-18,20],[-9,17],[-6,20],[6,41],[6,41],[-3,37],[6,17],[0,33],[-15,16],[-24,21],[-45,16],[-39,8],[-9,17],[-12,29],[-12,20],[0,17],[21,16],[15,21],[15,8],[9,16],[12,4],[21,21],[6,4],[27,21],[12,20],[-6,21],[0,24],[-9,13],[0,12],[3,33],[-9,16],[9,25],[9,45],[-9,13],[-3,28],[6,33],[21,33],[3,21]],[[2640,1146],[6,-4],[24,-13]],[[2433,1277],[7,-6]],[[2440,1271],[8,-6],[12,-21],[15,-16],[27,-12],[48,-17],[45,-20],[45,-33]],[[3913,1117],[15,21],[-3,16]],[[2670,1129]],[[2670,1129],[30,-28],[21,-13],[15,0],[18,4]],[[1730,1055],[-15,29],[-12,12],[-12,37],[-21,33],[3,9],[36,37],[39,20],[45,12],[84,17],[57,12],[9,4]],[[2754,1092],[0,25],[9,8],[15,0],[18,-8],[57,16],[6,0],[21,-20],[33,-4],[42,4],[18,-4],[9,-13],[9,-32],[24,-17]],[[3437,1011],[17,3]],[[3081,1006],[21,4],[48,17],[24,8],[43,16],[24,8],[36,13],[33,-21],[48,-24],[72,-17],[7,1]],[[3058,1023],[8,-5],[4,-3]],[[3015,1047],[43,-24]],[[3070,1015],[11,-9]],[[3883,907],[6,33],[15,45],[3,17],[0,25],[-6,41],[0,20],[12,29]],[[3799,915],[-3,1],[-18,-5],[-2,1]],[[3458,1018],[-4,-4]],[[3776,912],[-16,8],[-18,20],[-33,25],[-30,29],[-18,12],[-15,4],[-39,12],[-39,13],[-21,8],[-48,-4],[-18,-4],[-23,-17]],[[3883,907],[-18,-4],[-30,4],[-36,8]],[[3898,872],[3,-22],[12,-4]],[[3883,907],[12,-12],[3,-23]],[[3913,846],[21,0],[21,-4],[12,-9]],[[1730,1055],[15,-28],[6,-21],[3,-49],[0,-13],[6,-82],[-3,-29]],[[3913,846],[0,-13],[15,-12],[-6,-49],[6,-25]],[[3964,706],[-36,41]],[[3967,833],[27,-20],[6,-3]],[[4000,810],[9,-5],[51,-13],[36,-20]],[[3964,706],[42,-8],[24,0],[33,8],[13,0]],[[4076,706],[20,0]],[[3994,673],[-12,12],[-18,21]],[[2532,669],[-21,0]],[[2759,770],[1,2],[24,20],[21,13],[45,8],[13,6]],[[2904,862],[6,4],[15,8],[4,4]],[[2942,901],[4,10],[22,12]],[[2971,925],[5,23],[12,17],[13,6]],[[2622,648],[21,17],[33,20],[12,33],[12,8],[21,0],[18,5],[20,39]],[[2863,819],[5,2],[21,29],[15,12]],[[2929,878],[5,5],[8,18]],[[2968,923],[2,1],[1,1]],[[3001,971],[14,6],[21,4],[27,13],[18,12]],[[2622,648],[-54,17],[-36,4]],[[2273,644],[18,4],[22,0],[21,4],[18,25],[18,8],[21,0],[18,13],[15,0],[21,-13],[48,-8],[18,-8]],[[1643,652],[-9,-16]],[[1643,652],[6,-8],[30,-8],[18,8],[9,8],[30,50],[12,16],[0,25],[3,62],[6,28]],[[3633,687],[8,9]],[[3939,690],[25,16]],[[3427,615],[30,9],[15,24],[9,9],[36,4],[18,8],[42,4],[12,4],[18,12],[9,0],[15,-4],[2,2]],[[3641,696],[2,2],[21,0],[15,8],[48,0],[9,-4],[12,-17],[33,-16],[6,0],[36,12],[30,0],[33,-16],[18,0],[12,4],[21,20],[2,1]],[[4096,588],[-17,-15]],[[4079,573],[-7,-7]],[[1634,636],[30,-37],[12,-4],[15,-21],[27,-8],[39,-4],[36,25],[21,8],[9,8],[39,12],[18,9],[12,24],[15,13],[24,4],[27,0],[45,4],[18,-8],[24,-13],[18,0],[27,0],[24,-8],[18,17],[15,20],[12,4],[18,-8],[6,-16],[12,-9],[15,0],[18,9],[12,-5],[15,21],[15,-8],[3,-21]],[[1634,636],[-3,-21],[18,-16],[3,-12],[-21,-9],[-18,0],[-24,-53],[-39,-49],[-18,-13],[-12,-12],[-21,-45]],[[3063,274],[6,8],[18,13],[12,4],[39,0],[21,0],[36,8],[-6,37],[0,21],[31,37],[27,24],[12,21],[0,25],[3,12],[12,16],[6,17],[0,20],[9,17],[0,29],[6,4],[30,16],[18,0],[54,4],[30,8]],[[2622,648],[36,-8],[12,-4],[24,-8],[12,0],[15,0],[18,0],[21,-8],[30,-13],[27,0],[12,-8],[12,-21],[24,-4],[3,-12],[-6,-33],[0,-12],[21,-13],[63,-12],[18,-8],[15,-29],[12,-45],[3,-29],[3,-16],[12,-17],[18,-16],[21,-25],[15,-33]],[[1773,249],[2,-12],[24,-17]],[[1499,406],[45,-4],[21,8],[9,0],[6,-8],[15,-4],[15,4],[18,-4],[12,-9],[15,4],[18,-4],[18,-12],[3,-8],[33,-17],[9,-12],[3,-12],[6,-9],[3,-12],[21,-16],[0,-21],[4,-21]],[[1799,220],[15,-12],[18,0],[15,-20],[-3,-12]],[[4072,566],[3,-8],[-18,-4],[-3,-13],[12,-20],[6,-17],[21,-37],[3,-5]],[[267,7],[-12,21]],[[107,67],[10,-7],[6,-20],[24,-12],[33,-17],[21,-8],[3,-1]],[[228,3],[9,8],[18,17]],[[0,84],[15,5],[12,17],[45,0],[27,-33],[8,-6]],[[204,2],[12,-2]],[[224,0],[4,3]],[[3063,274],[12,-4],[30,-29],[21,-12],[30,-16],[27,-21],[25,-29],[18,-12],[12,-17],[6,-20],[3,-25],[18,-33],[24,-20],[9,-21],[2,-15]],[[1499,406],[-21,-21],[-60,-20],[-15,-13],[-28,-12],[-21,-25],[-18,-16],[-24,-12],[-12,-13],[-21,-24],[-33,-21],[-63,-37],[-27,-8],[-33,-4],[-12,4],[-15,0],[-24,-21],[-12,0],[-21,-12],[-24,-17],[-12,-20],[-24,-29],[-48,-25],[-27,0],[-21,-8],[-24,-16],[-30,0],[-21,12],[-12,0],[-24,-16],[-21,-4],[-12,-9],[-20,-19]],[[267,7],[15,-2]],[[282,5],[18,-2],[5,-3]],[[3700,0],[-3,3],[-36,20],[-21,21],[-27,45],[-18,17],[-9,16],[-15,17]],[[1844,176],[-6,-9],[-18,-20],[-15,0],[-24,-17],[-9,-16],[-3,-12],[-9,-9],[0,-28],[-24,-21],[6,-25],[6,-8],[2,-11]],[[267,7],[0,-2]],[[267,5],[0,-5]],[[0,0],[0,105],[20,13],[5,4],[2,4],[4,4],[9,2],[46,-11],[10,-11],[19,-26],[43,-39],[28,-16],[29,-6],[14,4],[15,8],[14,2],[20,-15],[8,-1],[16,2],[7,-3],[24,-20],[-333,0]],[[4096,4096],[0,-4096],[-3405,0],[103,70],[25,-11],[21,-3],[21,6],[23,15],[27,25],[10,3],[22,3],[12,4],[9,6],[43,60],[51,39],[8,4],[11,-2],[31,-12],[19,3],[27,20],[12,5],[15,2],[17,6],[16,9],[14,10],[29,31],[15,12],[18,4],[19,1],[13,5],[69,58],[18,7],[16,9],[8,2],[25,4],[10,3],[13,11],[11,18],[8,21],[2,22],[8,5],[43,39],[9,19],[48,88],[22,30],[44,29],[12,30],[34,58],[2,11],[0,9],[1,8],[4,9],[12,17],[4,8],[2,9],[0,81],[0,4],[-9,63],[-1,22],[-3,14],[-30,53],[-22,39],[-8,7],[-7,8],[-4,19],[-1,34],[-6,45],[-39,137],[-2,6],[-6,8],[-19,19],[-3,7],[-2,17],[-37,233],[-13,40],[-19,33],[-24,26],[-29,18],[-56,10],[-12,7],[-12,11],[-17,10],[-19,7],[-14,2],[-9,-3],[-14,-9],[-10,-2],[-7,5],[-33,51],[-17,61],[-30,53],[-13,29],[-18,-1],[-29,-13],[-18,6],[-22,34],[-12,8],[-1,5],[-17,29],[-5,4],[-53,22],[-73,10],[-34,-2],[-23,-6],[-9,-1],[-9,3],[-14,14],[-7,3],[-3,3],[-13,14],[-6,5],[-7,2],[-23,4],[-59,28],[-27,4],[-19,-25],[-7,8],[-11,27],[-7,13],[-16,16],[-7,11],[3,32],[-12,29],[-16,27],[-11,15],[-23,10],[-40,12],[-23,24],[-11,5],[-33,5],[-23,10],[-17,3],[-17,4],[-21,14],[-17,20],[-11,22],[-9,28],[-11,19],[-15,14],[-66,35],[-16,15],[-12,8],[-5,5],[-4,9],[-6,22],[-5,10],[-12,8],[-29,13],[-11,9],[-33,44],[-85,82],[-48,74],[-12,14],[0,1226],[4096,0]],[[2201,2305],[29,60],[-20,61],[33,30],[-2,40],[47,31],[26,61],[91,28],[-43,-86],[15,-68],[58,-17],[17,-131],[59,27],[12,-58],[-36,-24],[16,-21],[-29,-7],[3,-29],[-70,-17],[-9,-38],[-155,80],[-42,78]],[[2462,827],[34,34],[103,-28],[85,22],[-12,69],[77,79],[126,-51],[37,34],[27,-29],[-1,33],[42,20],[25,-46],[-55,-62],[-39,-6],[27,-28],[-53,-10],[-35,-62],[-82,-35],[-36,40],[-56,-24],[-54,26],[-99,-58],[-61,82]],[[2930,1911],[32,72],[102,-28],[62,34],[42,-21],[37,30],[60,-90],[42,-17],[-15,-60],[-85,-59],[-123,55],[-35,54],[-119,30]],[[155,2716],[44,67],[-16,18],[63,10],[39,-26],[61,19],[39,-18],[-12,-44],[60,-28],[25,44],[34,-40],[20,40],[30,8],[-33,-73],[47,-12],[42,10],[-14,47],[69,-39],[1,23],[70,10],[11,-59],[28,-15],[23,22],[135,-86],[-54,-10],[-71,45],[-30,-64],[-122,33],[-110,-17],[-60,-132],[-15,42],[-22,-20],[13,38],[-51,-48],[-33,100],[-48,-1],[19,42],[-17,19],[23,0],[-21,6],[26,23],[-2,11],[-22,-13],[-29,-84],[-13,65],[22,18],[-26,4],[17,60],[-30,-5],[-2,-66],[-30,20],[27,43],[-53,-30],[7,55],[-15,-51],[-44,39]],[[0,2950],[0,126],[43,56],[186,-133],[19,-91],[-38,-23],[-27,-65],[-74,32],[-47,-40],[-49,100],[-13,-11],[0,31],[52,50],[-52,-32]],[[66,0],[19,19],[20,-19],[-39,0]],[[186,29],[72,8],[67,-30],[-184,-7],[-35,67],[12,15],[68,-53]],[[4008,756],[74,-39],[-24,-44],[38,-53],[0,-72],[-73,108],[-151,61],[23,39],[1,116],[97,-22],[15,-94]],[[3968,477],[-48,19],[11,19],[46,-19],[-9,-19]],[[1793,197],[-32,22],[8,33],[32,-22],[-8,-33]],[[3787,876],[-12,41],[24,0],[-1,-31],[-11,-10]],[[3453,988],[-34,50],[5,9],[35,-22],[-6,-37]],[[3062,1008],[-10,35],[27,18],[16,-23],[-33,-30]],[[2683,1149],[-20,-31],[-28,19],[10,21],[38,-9]],[[2173,1171],[-45,17],[-3,17],[35,-2],[13,-32]],[[2400,1338],[40,0],[0,-89],[-85,41],[-12,36],[57,12]],[[1836,1515],[-32,-18],[-43,62],[64,22],[11,-66]],[[1204,2011],[-45,-18],[11,75],[33,-41],[1,-16]],[[3556,2091],[0,-56],[-59,18],[3,38],[56,0]],[[449,2463],[-50,-35],[-30,62],[72,-17],[8,-10]],[[2610,2434],[-18,-36],[-39,-8],[8,33],[49,11]],[[223,2659],[65,7],[12,-77],[-22,-32],[-96,95],[9,29],[32,-22]],[[3071,2666],[-65,12],[17,44],[40,-11],[8,-45]],[[3509,2502],[-33,-35],[-44,25],[-13,42],[67,19],[23,-51]],[[3120,2535],[8,21],[56,0],[0,-67],[-45,21],[-28,-37],[-64,-6],[-49,55],[49,23],[8,77],[48,-22],[-24,-33],[41,-32]],[[3924,2546],[-15,-1],[-29,11],[50,27],[-6,-37]],[[3787,2555],[-34,11],[-2,23],[48,-22],[-12,-12]],[[3275,2540],[-66,38],[53,60],[44,-60],[-31,-38]],[[3443,2623],[-6,-39],[-67,5],[16,37],[-20,33],[31,38],[62,-19],[-16,-55]],[[1631,2855],[-30,24],[-2,20],[27,-7],[5,-37]],[[2448,2988],[30,-32],[-38,-79],[-73,79],[48,50],[33,-18]],[[3120,2954],[-28,8],[-5,37],[24,-12],[9,-33]],[[3706,3031],[-28,12],[6,17],[42,-6],[-20,-23]],[[1922,3143],[-8,-56],[-24,-66],[-24,75],[36,54],[20,-7]],[[2678,3278],[94,-25],[-16,-77],[-33,11],[-10,-30],[56,-111],[-38,-36],[-73,0],[-80,99],[-1,-76],[-96,-12],[24,77],[69,25],[28,75],[43,10],[22,-21],[-17,-66],[41,-11],[-8,110],[-33,22],[28,36]],[[3031,3169],[-33,-60],[-105,1],[73,121],[48,-17],[17,-45]],[[3160,3265],[1,40],[64,4],[-8,-23],[-57,-21]],[[1930,3187],[-33,44],[58,100],[40,-55],[-19,-60],[-46,-29]],[[3896,2752],[-97,-52],[-95,6],[6,27],[97,22],[0,44],[89,-47]],[[3419,2799],[24,-33],[-21,-28],[-76,17],[16,67],[33,-34],[8,45],[16,-34]],[[1858,2766],[-22,21],[-11,35],[41,-12],[-8,-44]],[[3484,2146],[-31,35],[23,42],[40,-22],[-32,-55]],[[3856,2168],[-12,27],[44,6],[0,-14],[-32,-19]],[[4034,2180],[-16,32],[32,0],[-3,-24],[-13,-8]],[[3539,2265],[74,-30],[-16,-78],[-41,22],[9,33],[-33,0],[7,53]],[[4042,2345],[0,-44],[-49,-11],[33,-55],[-57,-34],[-70,7],[-43,38],[-33,-45],[-32,0],[92,-78],[70,1],[-41,-100],[-64,-33],[-41,44],[-40,0],[0,67],[40,-34],[0,45],[-73,-11],[5,34],[52,21],[-105,55],[8,78],[146,-22],[89,55],[40,-33],[-14,33],[46,44],[29,-33],[4,45],[8,-34]],[[3322,2251],[0,-50],[-46,17],[5,28],[41,5]],[[4096,2303],[-22,20],[22,45],[0,-65]],[[3531,2383],[1,-49],[-53,16],[-28,51],[66,22],[14,-40]],[[3298,2435],[24,-1],[-16,-55],[-25,66],[17,-10]],[[3936,3591],[7,-57],[-39,-26],[-24,22],[16,56],[40,5]],[[4096,3713],[-46,17],[29,78],[17,-1],[0,-94]],[[3435,3896],[41,-11],[8,-45],[32,-22],[24,-55],[-16,-30],[-138,148],[49,15]],[[984,3697],[48,-12],[-24,-88],[-64,55],[40,45]],[[1809,3719],[89,11],[-5,-41],[46,-15],[-52,-71],[-42,10],[-76,72],[0,45],[40,-11]],[[580,3674],[35,-43],[-19,-101],[-73,56],[-24,-11],[-38,52],[30,58],[89,-11]],[[457,3732],[25,-2],[3,-28],[-27,6],[-1,24]],[[375,3821],[27,-58],[-41,-33],[-57,66],[71,25]],[[2958,4096],[5,0],[-1,-1],[-4,1]],[[1810,4096],[153,0],[14,-9],[-55,-69],[-81,-34],[-8,45],[-27,-5],[19,27],[-16,44],[1,1]],[[1291,4040],[33,0],[16,-33],[-22,-39],[-107,16],[0,45],[36,16],[4,39],[32,0],[8,-44]],[[1233,4096],[2,0],[0,-1],[-2,1]],[[1476,3869],[1,-40],[-45,13],[-19,65],[63,-38]],[[887,3863],[-25,40],[25,37],[24,-11],[-24,-66]],[[1038,3471],[43,-18],[-16,-78],[-73,45],[46,51]],[[3298,3449],[-9,-49],[-40,8],[24,56],[25,-15]],[[1576,3436],[2,-29],[-3,-21],[-25,11],[-8,67],[34,-28]],[[120,3437],[-14,14],[-4,35],[49,-22],[-31,-27]],[[259,3447],[-35,50],[28,24],[36,-47],[-29,-27]],[[2537,2191],[18,57],[123,-23],[-44,-35],[18,-17],[23,26],[2,-33],[68,2],[28,44],[26,-33],[-15,-20],[30,9],[-15,-28],[20,10],[-1,-42],[73,-6],[-10,-31],[73,4],[-5,-68],[26,76],[1,-48],[72,9],[-6,-44],[26,31],[17,-27],[-29,-47],[-29,2],[-91,23],[-28,26],[17,8],[-60,32],[-14,-44],[54,-41],[-39,-15],[84,-1],[-20,-36],[-47,-7],[-12,25],[-96,22],[-98,82],[-26,52],[19,19],[-83,33],[3,23],[-53,31]],[[1566,128],[35,10],[41,67],[50,-4],[29,44],[35,-2],[-107,-167],[-54,5],[-29,47]],[[2978,671],[128,88],[63,-22],[-17,-124],[-40,-27],[-65,54],[60,50],[-83,-42],[-46,23]],[[776,2429],[48,98],[82,-12],[-23,23],[46,18],[5,-25],[72,-9],[-116,-42],[14,-32],[-50,-35],[-78,16]],[[768,3053],[39,81],[34,5],[50,-7],[-7,-58],[125,-17],[-56,-113],[-66,12],[-60,-21],[-59,118]],[[3988,1851],[38,100],[70,-23],[0,-139],[-108,62]],[[3207,1772],[90,66],[22,-22],[-33,-14],[10,-6],[35,19],[40,-15],[10,21],[50,-31],[22,22],[42,-23],[19,20],[13,-60],[-30,0],[-16,-44],[-47,46],[-205,-14],[-22,35]],[[3474,1875],[65,89],[32,-14],[36,-1],[3,2],[4,-1],[4,3],[7,-1],[1,2],[-62,2],[3,29],[-38,2],[28,70],[111,-11],[-33,-125],[-52,-78],[-36,-14],[-73,46]],[[4041,1993],[55,21],[0,-86],[-55,16],[20,18],[-20,31]],[[1719,643],[24,55],[40,7],[5,36],[38,9],[56,-31],[-9,-42],[-99,-71],[-55,37]],[[1792,698],[31,-7],[11,13],[-32,1],[-10,-7]],[[3519,743],[8,17],[72,16],[-15,-11],[27,-23],[-7,43],[21,8],[21,-34],[-26,-46],[15,-9],[14,-20],[-107,23],[46,14],[-14,29],[-34,-34],[-21,27]],[[3990,846],[62,32],[-21,18],[65,-3],[0,-44],[-106,-3]],[[4096,897],[-59,7],[-10,25],[52,23],[17,-55]],[[1343,2394],[59,65],[-40,88],[98,48],[10,-67],[-68,22],[43,-82],[2,-93],[-52,-25],[-52,44]],[[183,2820],[65,90],[68,-83],[-22,-13],[-41,19],[-70,-13]],[[225,2949],[149,-2],[-49,159],[67,-4],[-4,-16],[12,-11],[-9,-17],[7,-17],[26,60],[-32,27],[-22,-15],[-7,26],[3,32],[113,-115],[-3,-25],[-46,-18],[18,-34],[-30,3],[36,-38],[99,59],[28,65],[48,-16],[19,26],[142,-81],[35,-62],[129,12],[26,-51],[-33,-71],[48,-31],[12,-33],[-31,-18],[66,-74],[-21,-103],[18,-54],[-102,63],[-70,-44],[-87,31],[16,67],[71,-45],[54,11],[-135,85],[-23,-22],[-28,15],[-11,59],[-70,-10],[-1,-23],[-113,68],[-48,-49],[-26,42],[-33,-46],[-58,27],[10,45],[-79,45],[-14,48],[-67,70]],[[1551,2291],[1,37],[52,21],[-16,35],[37,83],[38,-16],[-9,36],[62,-10],[2,-49],[17,48],[112,-31],[-116,49],[105,169],[121,-1],[50,-54],[-28,-135],[-75,-59],[7,-79],[-70,-94],[-5,56],[-35,-73],[-32,-9],[-56,39],[-25,-23],[-25,20],[-32,-17],[-80,57]],[[1787,2342],[49,-42],[-1,4],[-48,38]]]}