{"objects":{"water":{"type":"GeometryCollection","geometries":[{"type":"Polygon","properties":{"kind":"lake","name":"Lake Van","area":5756577792,"sort_rank":200,"alkaline":true,"source":"naturalearthdata.com","min_zoom":0.0,"id":1313},"arcs":[[209]]},{"type":"MultiPolygon","properties":{"source":"naturalearthdata.com","kind":"ocean","area":1576712559132672,"sort_rank":200,"min_zoom":0.0,"id":1},"arcs":[[[210]],[[211]]]},{"type":"MultiPolygon","properties":{"source":"naturalearthdata.com","kind":"lake","name":"Lake Sevana","area":2376054784,"sort_rank":200,"min_zoom":0.0,"id":590},"arcs":[[[212]],[[213]]]},{"type":"Polygon","properties":{"kind":"lake","name":"Keban Baraji","reservoir":true,"area":1211101824,"sort_rank":200,"source":"naturalearthdata.com","min_zoom":0.0,"id":1210},"arcs":[[214]]},{"type":"Point","properties":{"label_placement":true,"kind":"lake","name":"Lake Van","area":5756577792,"sort_rank":200,"alkaline":true,"source":"naturalearthdata.com","min_zoom":0.0,"id":1313},"coordinates":[2506,1925]},{"type":"MultiLineString","properties":{"source":"naturalearthdata.com","kind":"ocean","sort_rank":205,"boundary":true,"min_zoom":0.0,"id":52},"arcs":[[215],[216]]},{"type":"MultiLineString","properties":{"source":"naturalearthdata.com","kind":"lake","sort_rank":367,"boundary":true,"min_zoom":0.0,"id":590},"arcs":[[217],[218]]},{"type":"MultiLineString","properties":{"source":"naturalearthdata.com","kind":"lake","reservoir":true,"sort_rank":367,"boundary":true,"min_zoom":0.0,"id":1210},"arcs":[[219],[220],[221]]},{"type":"LineString","properties":{"source":"naturalearthdata.com","kind":"lake","sort_rank":367,"alkaline":true,"boundary":true,"min_zoom":0.0,"id":1308},"arcs":[222]},{"type":"LineString","properties":{"source":"naturalearthdata.com","kind":"lake","sort_rank":367,"alkaline":true,"boundary":true,"min_zoom":0.0,"id":1313},"arcs":[223]}]},"buildings":{"type":"GeometryCollection","geometries":[]},"places":{"type":"GeometryCollection","geometries":[{"type":"Point","properties":{"name:kg":"Armenia","name:ka":"\u10e1\u10dd\u10db\u10ee\u10d4\u10d7\u10d8","name:ko":"\uc544\ub974\uba54\ub2c8\uc544","name:cv":"\u042d\u0440\u043c\u0435\u043d\u0438","name:cu":"\u0410\u0440\u043c\u0454\u043d\u0457\ua657","name:kl":"Armenia","name:cs":"Arm\u00e9nie","name:ki":"Armenia","name:co":"Armenia","name:kv":"\u0410\u0440\u043c\u0435\u043d\u0438\u044f","name:ku":"Ermenistan","name:ti":"\u12a0\u122d\u121c\u1292\u12eb","name:ks":"\u0627\u064e\u0631\u0645\u0627\u0646\u0650\u06cc\u0627","name:to":"\u02bb\u0100minia","name:tl":"Armenya","name:ce":"\u0410\u0440\u0435\u043c\u0430\u043b\u043e\u0439\u043d","name:ta":"\u0b86\u0bb0\u0bcd\u0bae\u0bc7\u0ba9\u0bbf\u0baf\u0bbe","name:tg":"\u0410\u0440\u043c\u0430\u043d\u0438\u0441\u0442\u043e\u043d","name:ca":"Arm\u00e8nia","name:te":"\u0c06\u0c30\u0c4d\u0c2e\u0c47\u0c28\u0c3f\u0c2f\u0c3e","name:cy":"Armenia","name:hr":"Armenija","name:da":"Armenien","name:de":"Armenien","name:dz":"\u0f68\u0f62\u0f0b\u0f58\u0f72\u0f0b\u0f53\u0f72\u0f0b\u0f61","source":"openstreetmap.org","name:kn":"\u0c85\u0cb0\u0ccd\u0cae\u0cc7\u0ca8\u0cbf\u0caf\u0cbe","name:dv":"\u0787\u07a6\u0783\u07aa\u0789\u07a9\u0782\u07a8\u0787\u07a7","name:km":"\u17a2\u17b6\u179a\u1798\u17c1\u1793\u17b8","name:lv":"Arm\u0113nija","name:lt":"Arm\u0117nija","name:uz":"Armaniston","name:kk":"\u0410\u0440\u043c\u0435\u043d\u0438\u044f","name:ur":"\u0622\u0631\u0645\u06cc\u0646\u06cc\u0627","name:lb":"Armenien","name:la":"Armenia","name:lg":"Arameniya","name:uk":"\u0412\u0456\u0440\u043c\u0435\u043d\u0456\u044f","name:ug":"\u0626\u06d5\u0631\u0645\u06d0\u0646\u0649\u064a\u06d5","name:li":"Armeni\u00eb","name:ln":"Am\u025bni","name:lo":"\u0ead\u0eb2\u0ea1\u0eb4\u0ec0\u0e99\u0e8d","name:el":"\u0391\u03c1\u03bc\u03b5\u03bd\u03af\u03b1","name:eo":"Armenujo","name:en":"Armenia","name":"\u0540\u0561\u0575\u0561\u057d\u057f\u0561\u0576","name:tk":"Ermenistan","name:ee":"Armenia nutome","name:th":"\u0e1b\u0e23\u0e30\u0e40\u0e17\u0e28\u0e2d\u0e32\u0e23\u0e4c\u0e40\u0e21\u0e40\u0e19\u0e35\u0e22","name:eu":"Armenia","name:et":"Armeenia","name:es":"Armenia","name:ia":"Armenia","name:rm":"Armenia","name:rn":"Arumeniya","name:az":"Erm\u0259nistan","name:ie":"Armenia","name:id":"Armenia","name:ar":"\u0623\u0631\u0645\u064a\u0646\u064a\u0627","name:io":"Armenia","name:av":"\u0426I\u0430\u043c\u0443\u0445\u044a","name:ak":"Aamenia","name:am":"\u12a0\u122d\u121c\u1292\u12eb","name:it":"Armenia","name:an":"Armenia","name:ru":"\u0410\u0440\u043c\u0435\u043d\u0438\u044f","name:ab":"\u0415\u0440\u043c\u0430\u043d\u0442\u04d9\u044b\u043b\u0430","name:af":"Armeni\u00eb","name:zu":"i-Armenia","name:ky":"\u0410\u0440\u043c\u0435\u043d\u0438\u044f","name:zh-yue":"\u4e9e\u7f8e\u5c3c\u4e9e","name:zh":"\u4e9a\u7f8e\u5c3c\u4e9a","name:so":"Armeeniya","name:sn":"Armenia","name:sm":"Amenia","name:sl":"Armenija","name:sk":"Arm\u00e9nsko","name:ja":"\u30a2\u30eb\u30e1\u30cb\u30a2","name:si":"\u0d86\u0dbb\u0dca\u0db8\u0dda\u0db1\u0dd2\u0dba\u0dcf\u0dc0","name:sh":"Jermenija","name:sg":"Armen\u00efi","name:se":"Armenia","name:sc":"Arm\u00e8nia","name:br":"Armenia","name:bs":"Armenija","name:bm":"Arimeni","name:bn":"\u0986\u09b0\u09cd\u09ae\u09c7\u09a8\u09bf\u09af\u09bc\u09be","name:bo":"\u0f68\u0f62\u0f0b\u0f58\u0f7a\u0f0b\u0f53\u0f72\u0f0b\u0f61\u0f0d","name:bi":"Armenia","name:sw":"Armenia","name:be":"\u0410\u0440\u043c\u0435\u043d\u0456\u044f","name:su":"Arm\u00e9nia","name:bg":"\u0410\u0440\u043c\u0435\u043d\u0438\u044f","name:ss":"I-Arimeniya","name:ba":"\u04d8\u0440\u043c\u04d9\u043d\u0441\u0442\u0430\u043d","name:sq":"Armeni","name:jv":"Arm\u00e9nia","name:sa":"\u0906\u0930\u094d\u092e\u0940\u0928\u093f\u092f\u093e","name:pt":"Arm\u00eania","name:ps":"\u0627\u0631\u0645\u0646\u0633\u062a\u0627\u0646","name:oc":"Armenia","min_zoom":2.0,"name:ro":"Armenia","name:zh-min-nan":"Hayastan","name:os":"\u0421\u043e\u043c\u0438\u0445\u044b\u0441\u0442\u043e\u043d","name:or":"\u0b06\u0b30\u0b4d\u0b2e\u0b47\u0b28\u0b3f\u0b06","name:pl":"Armenia","name:sr":"\u0408\u0435\u0440\u043c\u0435\u043d\u0438\u0458\u0430","name:pa":"\u0a05\u0a30\u0a2e\u0a40\u0a28\u0a40\u0a06","name:tr":"Ermenistan","name:hi":"\u0906\u0930\u094d\u092e\u0940\u0928\u093f\u092f\u093e","name:sv":"Armenien","name:he":"\u05d0\u05e8\u05de\u05e0\u05d9\u05d4","name:ha":"Armeniya","name:ht":"Ameni","name:hu":"\u00d6rm\u00e9nyorsz\u00e1g","name:qu":"Arminya","population":2968586,"kind":"country","name:is":"Armen\u00eda","name:yi":"\u05d0\u05e8\u05de\u05e2\u05e0\u05d9\u05e2","name:yo":"Or\u00edl\u1eb9\u0301\u00e8de Am\u00e9n\u00ed\u00e0","name:mt":"Armenja","alt_name:eo":"Armenio","name:ms":"Armenia","name:mr":"\u0906\u0930\u094d\u092e\u0947\u0928\u093f\u092f\u093e","name:my":"\u1021\u102c\u1019\u1031\u1014\u102e\u1038\u101a\u102c\u1038","official_name":"\u0540\u0561\u0575\u0561\u057d\u057f\u0561\u0576\u056b \u0540\u0561\u0576\u0580\u0561\u057a\u0565\u057f\u0578\u0582\u0569\u0575\u0578\u0582\u0576","name:kw":"Armeni","name:mg":"Armenia","name:ml":"\u0d05\u0d7c\u0d2e\u0d47\u0d28\u0d3f\u0d2f","name:vi":"Armenia","name:mn":"\u0410\u0440\u043c\u0435\u043d","name:mi":"\u0100menia","id":249399277,"name:mk":"\u0415\u0440\u043c\u0435\u043d\u0438\u0458\u0430","name:vo":"Larmeniy\u00e4n","name:fa":"\u0627\u0631\u0645\u0646\u0633\u062a\u0627\u0646","name:rw":"Arumeniya","name:ff":"Armenii","name:fi":"Armenia","name:fo":"Armenia","alt_name:vi":"Acmeni","name:fr":"Arm\u00e9nie","name:fy":"Armeenje","int_name":"Armenia","name:nl":"Armeni\u00eb","name:nn":"Armenia","name:no":"Armenia","name:na":"Arminiya","name:ne":"\u0906\u0930\u094d\u092e\u0947\u0928\u093f\u092f\u093e","name:wo":"Armeeni","name:nv":"Aoom\u00e9\u00e9nii Bik\u00e9yah","name:ga":"An Airm\u00e9in","name:gd":"Airmeinia","name:gn":"Armenia","name:gl":"Armenia","name:gv":"Yn Armeain","name:gu":"\u0a86\u0ab0\u0acd\u0aae\u0ac7\u0aa8\u0abf\u0aaf\u0abe","name:tt":"\u04d8\u0440\u043c\u04d9\u043d\u0441\u0442\u0430\u043d"},"coordinates":[3858,3899]},{"type":"Point","properties":{"kind":"region","name:en":"Hakk\u00e2ri","name":"Hakkari","name:tr":"Hakk\u00e2ri","kind_detail":"province","min_zoom":4.0,"source":"openstreetmap.org","name:ku":"Hekar\u00ee","name:uk":"\u0425\u0430\u043a\u043a\u044f\u0440\u0456","name:ru":"\u0425\u0430\u043a\u043a\u044f\u0440\u0438","id":1827507976},"coordinates":[3445,839]},{"type":"Point","properties":{"name:ja":"\u30c9\u30db\u30fc\u30af","name:tr":"Duhok","name:ar":"\u062f\u0647\u0648\u0643","name:eo":"Dahuka gubernio","min_zoom":4.0,"name:uk":"\u0414\u0430\u0445\u0443\u043a","name:ru":"\u0414\u0430\u0445\u0443\u043a","name:pl":"Dahuk","name:hu":"Dah\u00fak","id":2914855219,"kind":"region","name:en":"Dohuk","name":"\u062f\u0647\u06c6\u06a9\u200e \/ \u062f\u0647\u0648\u0643","kind_detail":"province","name:ku":"\u062f\u0647\u06c6\u06a9","name:de":"Dahuk","source":"openstreetmap.org","name:fr":"Dohouk"},"coordinates":[2709,415]},{"type":"Point","properties":{"kind":"region","name":"Van","kind_detail":"province","min_zoom":4.0,"source":"openstreetmap.org","name:ku":"Wan","name:uk":"\u0412\u0430\u043d","name:ru":"\u0412\u0430\u043d","id":1827474640},"coordinates":[3120,1614]},{"type":"Point","properties":{"kind":"region","name":"Trabzon","kind_detail":"province","source":"openstreetmap.org","min_zoom":4.0,"name:uk":"\u0422\u0440\u0430\u0431\u0437\u043e\u043d","name:ru":"\u0422\u0440\u0430\u0431\u0437\u043e\u043d","id":2894839374},"coordinates":[326,4007]},{"type":"Point","properties":{"kind":"region","name":"Rize","kind_detail":"province","source":"openstreetmap.org","min_zoom":4.0,"name:uk":"\u0420\u0456\u0437\u0435","name:ru":"\u0420\u0438\u0437\u0435","id":2894839375},"coordinates":[1057,4054]},{"type":"Point","properties":{"kind":"region","name":"Bayburt","kind_detail":"province","source":"openstreetmap.org","min_zoom":4.0,"name:uk":"\u0411\u0430\u0439\u0431\u0443\u0440\u0442","name:ru":"\u0411\u0430\u0439\u0431\u0443\u0440\u0442","id":3042002354},"coordinates":[610,3369]},{"type":"Point","properties":{"kind":"region","name":"Diyarbak\u0131r","kind_detail":"province","min_zoom":4.0,"source":"openstreetmap.org","name:ku":"Amed","name:uk":"\u0414\u0456\u044f\u0440\u0431\u0430\u043a\u0438\u0440","name:ru":"\u0414\u0438\u044f\u0440\u0431\u0430\u043a\u044b\u0440","id":1827439183},"coordinates":[768,1387]},{"type":"Point","properties":{"name:ja":"\u30a8\u30e9\u30ba\u30fc\u770c","name:ka":"\u10d4\u10da\u10d0\u10d6\u10d8\u10e6\u10d8\u10e1 \u10de\u10e0\u10dd\u10d5\u10d8\u10dc\u10ea\u10d8\u10d0","name:fa":"\u0627\u0644\u0627\u0632\u06cc\u063a","name:ar":"\u0625\u0644\u0627\u0632\u063a","name:ku":"Xarp\u00eat","name:uk":"\u0415\u043b\u044f\u0437\u0438\u0433","name:hy":"\u053d\u0561\u0580\u0562\u0565\u0580\u0564\u056b \u0576\u0561\u0570\u0561\u0576\u0563","name:ru":"\u042d\u043b\u044f\u0437\u044b\u0433","id":4954410572,"name:el":"\u0388\u03bb\u03b1\u03b6\u03b9\u03b3","kind":"region","name":"Elaz\u0131\u011f","kind_detail":"province","min_zoom":4.0,"source":"openstreetmap.org","name:zh":"\u57c3\u62c9\u6cfd\u7701"},"coordinates":[15,1855]},{"type":"Point","properties":{"kind":"region","name":"Tunceli","kind_detail":"province","min_zoom":4.0,"source":"openstreetmap.org","name:ku":"D\u00earsim","name:uk":"\u0422\u0443\u043d\u0434\u0436\u0435\u043b\u0456","name:ru":"\u0422\u0443\u043d\u0434\u0436\u0435\u043b\u0438","id":1827332282},"coordinates":[28,2451]},{"type":"Point","properties":{"kind":"region","name":"Bing\u00f6l","kind_detail":"province","min_zoom":4.0,"source":"openstreetmap.org","name:ku":"B\u00eengol","name:uk":"\u0411\u0456\u043d\u0491\u0435\u043b\u044c","name:ru":"\u0411\u0438\u043d\u0433\u0451\u043b\u044c","id":1827436314},"coordinates":[986,2314]},{"type":"Point","properties":{"kind":"region","name":"Kars","kind_detail":"province","min_zoom":4.0,"source":"openstreetmap.org","name:ku":"Qers","name:uk":"\u041a\u0430\u0440\u0441","name:ru":"\u041a\u0430\u0440\u0441","id":1827515596},"coordinates":[2638,3606]},{"type":"Point","properties":{"kind":"region","name":"Mu\u015f","kind_detail":"province","min_zoom":4.0,"source":"openstreetmap.org","name:ku":"M\u00fb\u015f","name:uk":"\u041c\u0443\u0448","name:ru":"\u041c\u0443\u0448","id":1827486918},"coordinates":[1882,2221]},{"type":"Point","properties":{"kind":"region","name":"Erzurum","kind_detail":"province","name:ar":"\u0623\u0631\u0636\u0631\u0648\u0645","min_zoom":4.0,"source":"openstreetmap.org","name:ku":"Erz\u00eerom","name:uk":"\u0415\u0440\u0437\u0443\u0440\u0443\u043c","name:ru":"\u042d\u0440\u0437\u0443\u0440\u0443\u043c","id":1827520540},"coordinates":[1477,2954]},{"type":"Point","properties":{"name:ja":"\u30a2\u30e9\u30ac\u30c4\u30a9\u30c8\u30a5\u30f3","name:lt":"Aragacotno sritis","min_zoom":4.0,"name:uk":"\u0410\u0440\u0430\u0491\u0430\u0446\u043e\u0442\u043d","name:ru":"\u0410\u0440\u0430\u0433\u0430\u0446\u043e\u0442\u043d","name:pl":"Prowincja Aragacotn","name:hu":"Aragacotn","id":1884053539,"kind":"region","name:en":"Aragatsotn","name":"\u0531\u0580\u0561\u0563\u0561\u056e\u0578\u057f\u0576","kind_detail":"state","name:de":"Aragazotn","source":"openstreetmap.org","name:fr":"Aragatsotn","name:es":"Aragatsotn"},"coordinates":[3451,3538]},{"type":"Point","properties":{"kind":"region","name:en":"Shirak","name":"\u0547\u056b\u0580\u0561\u056f","name:lt":"\u0160irako sritis","kind_detail":"state","min_zoom":4.0,"name:de":"Schirak","source":"openstreetmap.org","name:fr":"Chirak","name:uk":"\u0428\u0438\u0440\u0430\u043a","name:ru":"\u0428\u0438\u0440\u0430\u043a","name:pl":"Prowincja Szirak","name:hu":"Sirak","id":1884053544,"name:es":"Shirak"},"coordinates":[3252,4039]},{"type":"Point","properties":{"kind":"region","name":"A\u011fr\u0131","kind_detail":"province","min_zoom":4.0,"source":"openstreetmap.org","name:ku":"Agir\u00ee","name:uk":"\u0410\u0433\u0440\u0438","name:ru":"\u0410\u0433\u0440\u044b","id":1752934109},"coordinates":[2919,2740]},{"type":"Point","properties":{"kind":"region","name":"I\u011fd\u0131r","kind_detail":"province","min_zoom":4.0,"source":"openstreetmap.org","name:ku":"\u00cedir","name:uk":"\u0418\u0433\u0434\u0438\u0440","name:ru":"\u042b\u0433\u0434\u044b\u0440","id":1827512185},"coordinates":[3326,3081]},{"type":"Point","properties":{"admin_level":"4","kind":"region","name:en":"Kotayk","name":"\u053f\u0578\u057f\u0561\u0575\u0584","kind_detail":"state","source":"openstreetmap.org","min_zoom":4.0,"name:ru":"\u041a\u043e\u0442\u0430\u0439\u043a","name:hu":"Kotajk","id":2291231926,"name:ja":"\u30b3\u30bf\u30a4\u30af"},"coordinates":[3844,3442]},{"type":"Point","properties":{"kind":"region","name:en":"Ararat","name":"\u0531\u0580\u0561\u0580\u0561\u057f","name:lt":"Araratas","kind_detail":"state","min_zoom":4.0,"name:de":"Ararat","source":"openstreetmap.org","name:fr":"Ararat","name:uk":"\u0410\u0440\u0430\u0440\u0430\u0442","name:ru":"\u0410\u0440\u0430\u0440\u0430\u0442","name:pl":"Prowincja Ararat","name:hu":"Ararat","id":1884053540,"name:es":"Ararat"},"coordinates":[3900,3185]},{"type":"Point","properties":{"name:ja":"\u30a2\u30eb\u30de\u30f4\u30a3\u30eb","name:lt":"Armaviro sritis","min_zoom":4.0,"name:uk":"\u0410\u0440\u043c\u0430\u0432\u0456\u0440","name:ru":"\u0410\u0440\u043c\u0430\u0432\u0438\u0440","name:pl":"Prowincja Armawir","name:hu":"Armavir","id":1884053541,"kind":"region","name:en":"Armavir","name":"\u0531\u0580\u0574\u0561\u057e\u056b\u0580","kind_detail":"state","name:de":"Armawir","source":"openstreetmap.org","name:fr":"Armavir","name:es":"Armavir"},"coordinates":[3322,3288]},{"type":"Point","properties":{"kind":"region","name":"Bitlis","kind_detail":"province","min_zoom":4.0,"source":"openstreetmap.org","name:ku":"Bidl\u00ees","name:uk":"\u0411\u0456\u0442\u043b\u0456\u0441","name:ru":"\u0411\u0438\u0442\u043b\u0438\u0441","id":1827488971},"coordinates":[2034,1773]},{"type":"Point","properties":{"kind":"region","name":"Mardin","kind_detail":"province","min_zoom":4.0,"source":"openstreetmap.org","name:ku":"M\u00eard\u00een","name:uk":"\u041c\u0430\u0440\u0434\u0456\u043d","name:ru":"\u041c\u0430\u0440\u0434\u0438\u043d","id":1827499200},"coordinates":[1000,695]},{"type":"Point","properties":{"kind":"region","name":"Siirt","kind_detail":"province","min_zoom":4.0,"source":"openstreetmap.org","name:ku":"S\u00eart","name:uk":"\u0421\u0456\u0457\u0440\u0442","name:ru":"\u0421\u0438\u0438\u0440\u0442","id":1827500792},"coordinates":[1949,1184]},{"type":"Point","properties":{"kind":"region","name":"\u015e\u0131rnak","kind_detail":"province","min_zoom":4.0,"source":"openstreetmap.org","name:ku":"\u015eirnex","name:uk":"\u0428\u0438\u0440\u043d\u0430\u043a","name:ru":"\u0428\u0438\u0440\u043d\u0430\u043a","id":1827505420},"coordinates":[2291,801]},{"type":"Point","properties":{"kind":"region","name":"Batman","kind_detail":"province","min_zoom":4.0,"source":"openstreetmap.org","name:ku":"\u00calih","name:uk":"\u0411\u0430\u0442\u043c\u0430\u043d","name:ru":"\u0411\u0430\u0442\u043c\u0430\u043d","id":1827510394},"coordinates":[1371,1112]},{"type":"Point","properties":{"source":"naturalearthdata.com","kind":"locality","name":"Yerevan","country_capital":true,"population":1102000,"min_zoom":5.0,"id":7063},"coordinates":[3740,3351]}]},"transit":{"type":"GeometryCollection","geometries":[{"type":"LineString","properties":{"kind":"train","name:en":"Almast - Hrazdan (- Shorzha)","name":"\u0531\u056c\u0574\u0561\u057d\u057f - \u0540\u0580\u0561\u0566\u0564\u0561\u0576 (- \u0547\u0578\u0580\u056a\u0561)","sort_rank":275,"name:de":"Almast - Hrasdan (- Schorscha)","source":"openstreetmap.org","min_zoom":6.0,"osm_relation":true},"arcs":[201]},{"type":"MultiLineString","properties":{"source":"openstreetmap.org","kind":"train","name:en":"Yerevan - Gyumri - Georgia","name":"\u0535\u0580\u0587\u0561\u0576 - \u0533\u0575\u0578\u0582\u0574\u0580\u056b - \u054e\u0580\u0561\u057d\u057f\u0561\u0576","sort_rank":275,"min_zoom":6.0,"osm_relation":true},"arcs":[[202],[203],[204],[205]]},{"type":"MultiLineString","properties":{"source":"openstreetmap.org","kind":"train","name:en":"Yerevan - Yeraskh","name":"\u0535\u0580\u0587\u0561\u0576 - \u0535\u0580\u0561\u057d\u056d","sort_rank":275,"min_zoom":6.0,"osm_relation":true},"arcs":[[206],[207],[208]]}]},"pois":{"type":"GeometryCollection","geometries":[{"type":"Point","properties":{"source":"openstreetmap.org","kind":"restaurant","name":"Has Rest","area":118862000,"kind_detail":"asian","min_zoom":6.34,"id":540661872},"coordinates":[3900,3579]}]},"boundaries":{"type":"GeometryCollection","geometries":[{"type":"LineString","properties":{"source":"naturalearthdata.com","kind":"country","sort_rank":262,"kind_detail":"2","min_zoom":0.0,"id":241},"arcs":[0]},{"type":"MultiLineString","properties":{"source":"naturalearthdata.com","kind":"country","sort_rank":262,"kind_detail":"2","min_zoom":0.0,"id":89},"arcs":[[1],[2],[3]]},{"type":"MultiLineString","properties":{"source":"naturalearthdata.com","kind":"country","sort_rank":262,"kind_detail":"2","min_zoom":0.0,"id":111},"arcs":[[4],[5],[6],[7],[8],[9],[10],[11],[12],[13],[14],[15],[16],[17]]},{"type":"MultiLineString","properties":{"source":"naturalearthdata.com","kind":"country","sort_rank":262,"kind_detail":"2","min_zoom":0.0,"id":115},"arcs":[[18],[19],[20],[21],[22],[23],[24],[25],[26],[27],[28],[29],[30],[31],[32],[33]]},{"type":"MultiLineString","properties":{"source":"naturalearthdata.com","kind":"country","sort_rank":262,"kind_detail":"2","min_zoom":0.0,"id":239},"arcs":[[34],[35],[36],[37],[38],[39],[40],[41],[42],[43],[44]]},{"type":"LineString","properties":{"source":"naturalearthdata.com","kind":"country","sort_rank":262,"kind_detail":"2","min_zoom":0.0,"id":338},"arcs":[45]},{"type":"MultiLineString","properties":{"source":"naturalearthdata.com","kind":"country","sort_rank":262,"kind_detail":"2","min_zoom":0.0,"id":240},"arcs":[[46],[47],[48]]},{"type":"MultiLineString","properties":{"source":"naturalearthdata.com","kind":"country","sort_rank":262,"kind_detail":"2","min_zoom":0.0,"id":250},"arcs":[[49],[50],[51],[52],[53],[54]]},{"type":"MultiLineString","properties":{"source":"naturalearthdata.com","kind":"country","sort_rank":262,"kind_detail":"2","min_zoom":0.0,"id":251},"arcs":[[55],[56],[57],[58],[59]]},{"type":"MultiLineString","properties":{"source":"naturalearthdata.com","kind":"map_unit","sort_rank":258,"kind_detail":"2","min_zoom":5.0,"id":12},"arcs":[[60],[61]]},{"type":"LineString","properties":{"source":"naturalearthdata.com","kind":"region","sort_rank":256,"kind_detail":"4","min_zoom":6.0,"id":6057},"arcs":[62]},{"type":"LineString","properties":{"source":"naturalearthdata.com","kind":"region","sort_rank":256,"kind_detail":"4","min_zoom":6.0,"id":6149},"arcs":[63]},{"type":"LineString","properties":{"source":"naturalearthdata.com","kind":"region","sort_rank":256,"kind_detail":"4","min_zoom":5.5,"id":7356},"arcs":[64]},{"type":"LineString","properties":{"source":"naturalearthdata.com","kind":"region","sort_rank":256,"kind_detail":"4","min_zoom":6.0,"id":1549},"arcs":[65]},{"type":"MultiLineString","properties":{"source":"naturalearthdata.com","kind":"region","sort_rank":256,"kind_detail":"4","min_zoom":6.0,"id":6033},"arcs":[[66],[67],[68],[69],[70]]},{"type":"MultiLineString","properties":{"source":"naturalearthdata.com","kind":"region","sort_rank":256,"kind_detail":"4","min_zoom":6.0,"id":6048},"arcs":[[71],[72],[73]]},{"type":"MultiLineString","properties":{"source":"naturalearthdata.com","kind":"region","sort_rank":256,"kind_detail":"4","min_zoom":6.0,"id":6052},"arcs":[[74],[75],[76],[77],[78],[79]]},{"type":"MultiLineString","properties":{"source":"naturalearthdata.com","kind":"region","sort_rank":256,"kind_detail":"4","min_zoom":6.0,"id":6055},"arcs":[[80],[81],[82],[83],[84],[85],[86]]},{"type":"MultiLineString","properties":{"source":"naturalearthdata.com","kind":"region","sort_rank":256,"kind_detail":"4","min_zoom":6.0,"id":6056},"arcs":[[87],[88],[89],[90],[91],[92],[93]]},{"type":"MultiLineString","properties":{"source":"naturalearthdata.com","kind":"region","sort_rank":256,"kind_detail":"4","min_zoom":6.0,"id":6058},"arcs":[[94],[95],[96]]},{"type":"LineString","properties":{"source":"naturalearthdata.com","kind":"region","sort_rank":256,"kind_detail":"4","min_zoom":6.0,"id":6059},"arcs":[97]},{"type":"MultiLineString","properties":{"source":"naturalearthdata.com","kind":"region","sort_rank":256,"kind_detail":"4","min_zoom":6.0,"id":6089},"arcs":[[98],[99],[100],[101]]},{"type":"LineString","properties":{"source":"naturalearthdata.com","kind":"region","sort_rank":256,"kind_detail":"4","min_zoom":6.0,"id":6116},"arcs":[102]},{"type":"LineString","properties":{"source":"naturalearthdata.com","kind":"region","sort_rank":256,"kind_detail":"4","min_zoom":6.0,"id":6117},"arcs":[103]},{"type":"LineString","properties":{"source":"naturalearthdata.com","kind":"region","sort_rank":256,"kind_detail":"4","min_zoom":6.0,"id":6120},"arcs":[104]},{"type":"MultiLineString","properties":{"source":"naturalearthdata.com","kind":"region","sort_rank":256,"kind_detail":"4","min_zoom":6.0,"id":6141},"arcs":[[105],[106],[107],[108],[109]]},{"type":"LineString","properties":{"source":"naturalearthdata.com","kind":"region","sort_rank":256,"kind_detail":"4","min_zoom":6.0,"id":6136},"arcs":[110]},{"type":"LineString","properties":{"source":"naturalearthdata.com","kind":"region","sort_rank":256,"kind_detail":"4","min_zoom":6.0,"id":6137},"arcs":[111]},{"type":"LineString","properties":{"source":"naturalearthdata.com","kind":"region","sort_rank":256,"kind_detail":"4","min_zoom":6.0,"id":6138},"arcs":[112]},{"type":"MultiLineString","properties":{"source":"naturalearthdata.com","kind":"region","sort_rank":256,"kind_detail":"4","min_zoom":6.0,"id":6139},"arcs":[[113],[114],[115]]},{"type":"MultiLineString","properties":{"source":"naturalearthdata.com","kind":"region","sort_rank":256,"kind_detail":"4","min_zoom":6.0,"id":6140},"arcs":[[116],[117],[118],[119]]},{"type":"LineString","properties":{"source":"naturalearthdata.com","kind":"region","sort_rank":256,"kind_detail":"4","min_zoom":6.0,"id":6142},"arcs":[120]},{"type":"MultiLineString","properties":{"source":"naturalearthdata.com","kind":"region","sort_rank":256,"kind_detail":"4","min_zoom":6.0,"id":6144},"arcs":[[121],[122],[123],[124],[125],[126]]},{"type":"MultiLineString","properties":{"source":"naturalearthdata.com","kind":"region","sort_rank":256,"kind_detail":"4","min_zoom":6.0,"id":6145},"arcs":[[127],[128],[129]]},{"type":"MultiLineString","properties":{"source":"naturalearthdata.com","kind":"region","sort_rank":256,"kind_detail":"4","min_zoom":6.0,"id":6146},"arcs":[[130],[131],[132]]},{"type":"MultiLineString","properties":{"source":"naturalearthdata.com","kind":"region","sort_rank":256,"kind_detail":"4","min_zoom":6.0,"id":6147},"arcs":[[133],[134],[135]]},{"type":"LineString","properties":{"source":"naturalearthdata.com","kind":"region","sort_rank":256,"kind_detail":"4","min_zoom":6.0,"id":6150},"arcs":[136]},{"type":"MultiLineString","properties":{"source":"naturalearthdata.com","kind":"region","sort_rank":256,"kind_detail":"4","min_zoom":6.0,"id":6151},"arcs":[[137],[138],[139]]},{"type":"LineString","properties":{"source":"naturalearthdata.com","kind":"region","sort_rank":256,"kind_detail":"4","min_zoom":6.0,"id":6152},"arcs":[140]},{"type":"MultiLineString","properties":{"source":"naturalearthdata.com","kind":"region","sort_rank":256,"kind_detail":"4","min_zoom":6.0,"id":6153},"arcs":[[141],[142],[143],[144]]},{"type":"MultiLineString","properties":{"source":"naturalearthdata.com","kind":"region","sort_rank":256,"kind_detail":"4","min_zoom":6.0,"id":6154},"arcs":[[145],[146],[147],[148]]},{"type":"MultiLineString","properties":{"source":"naturalearthdata.com","kind":"region","sort_rank":256,"kind_detail":"4","min_zoom":6.0,"id":6155},"arcs":[[149],[150]]},{"type":"LineString","properties":{"source":"naturalearthdata.com","kind":"region","sort_rank":256,"kind_detail":"4","min_zoom":6.0,"id":6156},"arcs":[151]},{"type":"MultiLineString","properties":{"source":"naturalearthdata.com","kind":"region","sort_rank":256,"kind_detail":"4","min_zoom":6.0,"id":6165},"arcs":[[152],[153],[154],[155]]},{"type":"MultiLineString","properties":{"source":"naturalearthdata.com","kind":"region","sort_rank":256,"kind_detail":"4","min_zoom":6.0,"id":6166},"arcs":[[156],[157]]},{"type":"LineString","properties":{"source":"naturalearthdata.com","kind":"region","sort_rank":256,"kind_detail":"4","min_zoom":6.0,"id":6167},"arcs":[158]},{"type":"LineString","properties":{"source":"naturalearthdata.com","kind":"region","sort_rank":256,"kind_detail":"4","min_zoom":6.0,"id":6168},"arcs":[159]},{"type":"MultiLineString","properties":{"source":"naturalearthdata.com","kind":"region","sort_rank":256,"kind_detail":"4","min_zoom":6.0,"id":6169},"arcs":[[160],[161],[162],[163]]},{"type":"LineString","properties":{"source":"naturalearthdata.com","kind":"region","sort_rank":256,"kind_detail":"4","min_zoom":6.0,"id":6171},"arcs":[164]},{"type":"LineString","properties":{"source":"naturalearthdata.com","kind":"region","sort_rank":256,"kind_detail":"4","min_zoom":6.0,"id":6172},"arcs":[165]},{"type":"LineString","properties":{"source":"naturalearthdata.com","kind":"region","sort_rank":256,"kind_detail":"4","min_zoom":6.0,"id":6173},"arcs":[166]},{"type":"MultiLineString","properties":{"source":"naturalearthdata.com","kind":"region","sort_rank":256,"kind_detail":"4","min_zoom":6.0,"id":6174},"arcs":[[167],[168],[169],[170],[171]]},{"type":"MultiLineString","properties":{"source":"naturalearthdata.com","kind":"region","sort_rank":256,"kind_detail":"4","min_zoom":6.0,"id":6175},"arcs":[[172],[173],[174],[175],[176]]},{"type":"MultiLineString","properties":{"source":"naturalearthdata.com","kind":"region","sort_rank":256,"kind_detail":"4","min_zoom":6.0,"id":6176},"arcs":[[177],[178],[179],[180],[181],[182],[183]]},{"type":"MultiLineString","properties":{"source":"naturalearthdata.com","kind":"region","sort_rank":256,"kind_detail":"4","min_zoom":6.0,"id":6177},"arcs":[[184],[185],[186],[187],[188],[189]]},{"type":"LineString","properties":{"source":"naturalearthdata.com","kind":"region","sort_rank":256,"kind_detail":"4","min_zoom":6.0,"id":6178},"arcs":[190]},{"type":"LineString","properties":{"source":"naturalearthdata.com","kind":"region","sort_rank":256,"kind_detail":"4","min_zoom":6.0,"id":6179},"arcs":[191]},{"type":"MultiLineString","properties":{"source":"naturalearthdata.com","kind":"region","sort_rank":256,"kind_detail":"4","min_zoom":6.0,"id":6180},"arcs":[[192],[193],[194],[195],[196]]},{"type":"MultiLineString","properties":{"source":"naturalearthdata.com","kind":"region","sort_rank":256,"kind_detail":"4","min_zoom":6.0,"id":6181},"arcs":[[197],[198],[199]]},{"type":"LineString","properties":{"source":"naturalearthdata.com","kind":"region","sort_rank":256,"kind_detail":"4","min_zoom":6.0,"id":6183},"arcs":[200]}]},"roads":{"type":"GeometryCollection","geometries":[{"type":"LineString","properties":{"source":"naturalearthdata.com","kind":"major_road","kind_detail":"secondary","sort_rank":379,"landuse_kind":"urban_area","min_zoom":3.0,"id":19395},"arcs":[224]},{"type":"LineString","properties":{"source":"naturalearthdata.com","kind":"major_road","sort_rank":379,"kind_detail":"secondary","min_zoom":4.0,"id":19397},"arcs":[225]},{"type":"LineString","properties":{"source":"naturalearthdata.com","kind":"major_road","sort_rank":379,"kind_detail":"secondary","min_zoom":3.0,"id":19398},"arcs":[226]},{"type":"LineString","properties":{"source":"naturalearthdata.com","kind":"major_road","sort_rank":379,"kind_detail":"secondary","min_zoom":3.0,"id":19427},"arcs":[227]},{"type":"LineString","properties":{"source":"naturalearthdata.com","kind":"major_road","kind_detail":"secondary","sort_rank":379,"landuse_kind":"urban_area","min_zoom":4.0,"id":19446},"arcs":[228]},{"type":"LineString","properties":{"source":"naturalearthdata.com","kind":"major_road","sort_rank":379,"kind_detail":"secondary","min_zoom":4.0,"id":19446},"arcs":[229]},{"type":"LineString","properties":{"source":"naturalearthdata.com","kind":"minor_road","sort_rank":355,"kind_detail":"tertiary","min_zoom":6.0,"id":19496},"arcs":[230]},{"type":"LineString","properties":{"source":"naturalearthdata.com","kind":"minor_road","sort_rank":355,"kind_detail":"tertiary","min_zoom":6.0,"id":19497},"arcs":[231]},{"type":"LineString","properties":{"source":"naturalearthdata.com","kind":"major_road","sort_rank":379,"kind_detail":"secondary","min_zoom":3.0,"id":19519},"arcs":[232]},{"type":"LineString","properties":{"source":"naturalearthdata.com","kind":"minor_road","kind_detail":"tertiary","sort_rank":355,"landuse_kind":"urban_area","min_zoom":6.0,"id":19528},"arcs":[233]},{"type":"LineString","properties":{"source":"naturalearthdata.com","kind":"minor_road","sort_rank":355,"kind_detail":"tertiary","min_zoom":6.0,"id":19528},"arcs":[234]},{"type":"LineString","properties":{"source":"naturalearthdata.com","kind":"minor_road","kind_detail":"tertiary","sort_rank":355,"landuse_kind":"urban_area","min_zoom":6.0,"id":19564},"arcs":[235]},{"type":"MultiLineString","properties":{"source":"naturalearthdata.com","kind":"minor_road","sort_rank":355,"kind_detail":"tertiary","min_zoom":6.0,"id":19564},"arcs":[[236],[237]]},{"type":"LineString","properties":{"source":"naturalearthdata.com","kind":"major_road","kind_detail":"secondary","sort_rank":379,"landuse_kind":"urban_area","min_zoom":4.0,"id":19565},"arcs":[238]},{"type":"MultiLineString","properties":{"source":"naturalearthdata.com","kind":"major_road","sort_rank":379,"kind_detail":"secondary","min_zoom":4.0,"id":19565},"arcs":[[239],[240]]},{"type":"LineString","properties":{"source":"naturalearthdata.com","kind":"major_road","sort_rank":379,"kind_detail":"secondary","min_zoom":3.0,"id":19572},"arcs":[241]},{"type":"LineString","properties":{"source":"naturalearthdata.com","kind":"major_road","kind_detail":"secondary","sort_rank":379,"landuse_kind":"park","min_zoom":3.0,"id":19586},"arcs":[242]},{"type":"MultiLineString","properties":{"source":"naturalearthdata.com","kind":"major_road","sort_rank":379,"kind_detail":"secondary","min_zoom":3.0,"id":19586},"arcs":[[243],[244]]},{"type":"LineString","properties":{"source":"naturalearthdata.com","kind":"minor_road","kind_detail":"tertiary","sort_rank":355,"landuse_kind":"park","min_zoom":6.0,"id":19609},"arcs":[245]},{"type":"LineString","properties":{"source":"naturalearthdata.com","kind":"minor_road","kind_detail":"tertiary","sort_rank":355,"landuse_kind":"urban_area","min_zoom":6.0,"id":19609},"arcs":[246]},{"type":"MultiLineString","properties":{"source":"naturalearthdata.com","kind":"minor_road","sort_rank":355,"kind_detail":"tertiary","min_zoom":6.0,"id":19609},"arcs":[[247],[248]]},{"type":"LineString","properties":{"source":"naturalearthdata.com","kind":"major_road","kind_detail":"secondary","sort_rank":379,"landuse_kind":"park","min_zoom":3.0,"id":19702},"arcs":[249]},{"type":"MultiLineString","properties":{"source":"naturalearthdata.com","kind":"major_road","sort_rank":379,"kind_detail":"secondary","min_zoom":3.0,"id":19702},"arcs":[[250],[251]]},{"type":"LineString","properties":{"source":"naturalearthdata.com","kind":"minor_road","sort_rank":355,"kind_detail":"tertiary","min_zoom":6.0,"id":19716},"arcs":[252]},{"type":"LineString","properties":{"source":"naturalearthdata.com","kind":"major_road","sort_rank":379,"kind_detail":"secondary","min_zoom":3.0,"id":19766},"arcs":[253]},{"type":"LineString","properties":{"source":"naturalearthdata.com","kind":"minor_road","kind_detail":"tertiary","sort_rank":355,"landuse_kind":"urban_area","min_zoom":6.0,"id":19868},"arcs":[254]},{"type":"MultiLineString","properties":{"source":"naturalearthdata.com","kind":"minor_road","sort_rank":355,"kind_detail":"tertiary","min_zoom":6.0,"id":19868},"arcs":[[255],[256]]},{"type":"LineString","properties":{"source":"naturalearthdata.com","kind":"major_road","sort_rank":379,"kind_detail":"secondary","min_zoom":4.0,"id":19894},"arcs":[257]},{"type":"LineString","properties":{"source":"naturalearthdata.com","kind":"major_road","sort_rank":379,"kind_detail":"secondary","min_zoom":3.0,"id":19937},"arcs":[258]},{"type":"LineString","properties":{"source":"naturalearthdata.com","kind":"minor_road","sort_rank":355,"kind_detail":"tertiary","min_zoom":6.0,"id":19970},"arcs":[259]},{"type":"LineString","properties":{"source":"naturalearthdata.com","kind":"major_road","sort_rank":379,"kind_detail":"secondary","min_zoom":3.0,"id":19976},"arcs":[260]},{"type":"LineString","properties":{"source":"naturalearthdata.com","kind":"minor_road","kind_detail":"tertiary","sort_rank":355,"landuse_kind":"urban_area","min_zoom":6.0,"id":19993},"arcs":[261]},{"type":"LineString","properties":{"source":"naturalearthdata.com","kind":"minor_road","kind_detail":"tertiary","sort_rank":355,"landuse_kind":"urban_area","min_zoom":6.0,"id":19993},"arcs":[262]},{"type":"MultiLineString","properties":{"source":"naturalearthdata.com","kind":"minor_road","sort_rank":355,"kind_detail":"tertiary","min_zoom":6.0,"id":19993},"arcs":[[263],[264]]},{"type":"LineString","properties":{"source":"naturalearthdata.com","kind":"highway","kind_detail":"motorway","sort_rank":383,"landuse_kind":"urban_area","min_zoom":3.0,"id":19995},"arcs":[265]},{"type":"LineString","properties":{"source":"naturalearthdata.com","kind":"highway","sort_rank":383,"kind_detail":"motorway","min_zoom":3.0,"id":19995},"arcs":[266]},{"type":"LineString","properties":{"source":"naturalearthdata.com","kind":"highway","kind_detail":"motorway","sort_rank":383,"landuse_kind":"urban_area","min_zoom":3.0,"id":20033},"arcs":[267]},{"type":"LineString","properties":{"source":"naturalearthdata.com","kind":"major_road","kind_detail":"secondary","sort_rank":379,"landuse_kind":"urban_area","min_zoom":3.0,"id":20034},"arcs":[268]},{"type":"LineString","properties":{"source":"naturalearthdata.com","kind":"major_road","sort_rank":379,"kind_detail":"secondary","min_zoom":3.0,"id":20034},"arcs":[269]},{"type":"LineString","properties":{"source":"naturalearthdata.com","kind":"minor_road","sort_rank":355,"kind_detail":"tertiary","min_zoom":6.0,"id":20044},"arcs":[270]},{"type":"LineString","properties":{"source":"naturalearthdata.com","kind":"major_road","kind_detail":"secondary","sort_rank":379,"landuse_kind":"urban_area","min_zoom":3.0,"id":20052},"arcs":[271]},{"type":"LineString","properties":{"source":"naturalearthdata.com","kind":"highway","kind_detail":"motorway","sort_rank":383,"landuse_kind":"urban_area","min_zoom":3.0,"id":20070},"arcs":[272]},{"type":"LineString","properties":{"source":"naturalearthdata.com","kind":"highway","sort_rank":383,"kind_detail":"motorway","min_zoom":3.0,"id":20070},"arcs":[273]},{"type":"LineString","properties":{"source":"naturalearthdata.com","kind":"major_road","sort_rank":379,"kind_detail":"secondary","min_zoom":3.0,"id":20078},"arcs":[274]},{"type":"LineString","properties":{"source":"naturalearthdata.com","kind":"highway","kind_detail":"motorway","sort_rank":383,"landuse_kind":"urban_area","min_zoom":3.0,"id":20080},"arcs":[275]},{"type":"LineString","properties":{"source":"naturalearthdata.com","kind":"highway","sort_rank":383,"kind_detail":"motorway","min_zoom":3.0,"id":20080},"arcs":[276]},{"type":"LineString","properties":{"source":"naturalearthdata.com","kind":"minor_road","sort_rank":355,"kind_detail":"tertiary","min_zoom":6.0,"id":20096},"arcs":[277]},{"type":"LineString","properties":{"source":"naturalearthdata.com","kind":"major_road","kind_detail":"secondary","sort_rank":379,"landuse_kind":"urban_area","min_zoom":3.0,"id":20117},"arcs":[278]},{"type":"MultiLineString","properties":{"source":"naturalearthdata.com","kind":"highway","kind_detail":"motorway","sort_rank":383,"landuse_kind":"urban_area","min_zoom":6.0,"id":20118},"arcs":[[279],[280]]},{"type":"LineString","properties":{"source":"naturalearthdata.com","kind":"highway","sort_rank":383,"kind_detail":"motorway","min_zoom":6.0,"id":20118},"arcs":[281]},{"type":"LineString","properties":{"source":"naturalearthdata.com","kind":"major_road","sort_rank":379,"kind_detail":"secondary","min_zoom":3.0,"id":20119},"arcs":[282]},{"type":"LineString","properties":{"source":"naturalearthdata.com","kind":"minor_road","kind_detail":"tertiary","sort_rank":355,"landuse_kind":"urban_area","min_zoom":6.0,"id":20126},"arcs":[283]},{"type":"LineString","properties":{"source":"naturalearthdata.com","kind":"minor_road","sort_rank":355,"kind_detail":"tertiary","min_zoom":6.0,"id":20126},"arcs":[284]},{"type":"LineString","properties":{"source":"naturalearthdata.com","kind":"major_road","kind_detail":"secondary","sort_rank":379,"landuse_kind":"urban_area","min_zoom":3.0,"id":20145},"arcs":[285]},{"type":"LineString","properties":{"source":"naturalearthdata.com","kind":"major_road","sort_rank":379,"kind_detail":"secondary","min_zoom":3.0,"id":20145},"arcs":[286]},{"type":"LineString","properties":{"source":"naturalearthdata.com","kind":"minor_road","sort_rank":355,"kind_detail":"tertiary","min_zoom":6.0,"id":20146},"arcs":[287]},{"type":"LineString","properties":{"source":"naturalearthdata.com","kind":"major_road","kind_detail":"secondary","sort_rank":379,"landuse_kind":"park","min_zoom":3.0,"id":20156},"arcs":[288]},{"type":"MultiLineString","properties":{"source":"naturalearthdata.com","kind":"major_road","sort_rank":379,"kind_detail":"secondary","min_zoom":3.0,"id":20156},"arcs":[[289],[290]]},{"type":"LineString","properties":{"source":"naturalearthdata.com","kind":"major_road","sort_rank":379,"kind_detail":"secondary","min_zoom":3.0,"id":20157},"arcs":[291]},{"type":"LineString","properties":{"source":"naturalearthdata.com","kind":"major_road","sort_rank":379,"kind_detail":"secondary","min_zoom":3.0,"id":20158},"arcs":[292]},{"type":"LineString","properties":{"source":"naturalearthdata.com","kind":"major_road","sort_rank":379,"kind_detail":"secondary","min_zoom":3.0,"id":20169},"arcs":[293]},{"type":"LineString","properties":{"source":"naturalearthdata.com","kind":"minor_road","sort_rank":355,"kind_detail":"tertiary","min_zoom":6.0,"id":20179},"arcs":[294]},{"type":"LineString","properties":{"source":"naturalearthdata.com","kind":"major_road","sort_rank":379,"kind_detail":"secondary","min_zoom":3.0,"id":20216},"arcs":[295]},{"type":"LineString","properties":{"source":"naturalearthdata.com","kind":"major_road","sort_rank":379,"kind_detail":"secondary","min_zoom":3.0,"id":20264},"arcs":[296]},{"type":"LineString","properties":{"source":"naturalearthdata.com","kind":"minor_road","sort_rank":355,"kind_detail":"tertiary","min_zoom":6.0,"id":20265},"arcs":[297]},{"type":"LineString","properties":{"source":"naturalearthdata.com","kind":"major_road","kind_detail":"secondary","sort_rank":379,"landuse_kind":"urban_area","min_zoom":4.0,"id":20295},"arcs":[298]},{"type":"LineString","properties":{"source":"naturalearthdata.com","kind":"major_road","sort_rank":379,"kind_detail":"secondary","min_zoom":4.0,"id":20295},"arcs":[299]},{"type":"LineString","properties":{"source":"naturalearthdata.com","kind":"major_road","kind_detail":"secondary","sort_rank":379,"landuse_kind":"urban_area","min_zoom":3.0,"id":20296},"arcs":[300]},{"type":"LineString","properties":{"source":"naturalearthdata.com","kind":"major_road","sort_rank":379,"kind_detail":"secondary","min_zoom":3.0,"id":20296},"arcs":[301]},{"type":"LineString","properties":{"source":"naturalearthdata.com","kind":"major_road","kind_detail":"secondary","sort_rank":379,"landuse_kind":"urban_area","min_zoom":4.0,"id":20297},"arcs":[302]},{"type":"LineString","properties":{"source":"naturalearthdata.com","kind":"major_road","sort_rank":379,"kind_detail":"secondary","min_zoom":4.0,"id":20297},"arcs":[303]},{"type":"LineString","properties":{"source":"naturalearthdata.com","kind":"major_road","kind_detail":"secondary","sort_rank":379,"landuse_kind":"urban_area","min_zoom":3.0,"id":20305},"arcs":[304]},{"type":"LineString","properties":{"source":"naturalearthdata.com","kind":"major_road","sort_rank":379,"kind_detail":"secondary","min_zoom":3.0,"id":20305},"arcs":[305]},{"type":"LineString","properties":{"source":"naturalearthdata.com","kind":"highway","kind_detail":"motorway","sort_rank":383,"landuse_kind":"urban_area","min_zoom":3.0,"id":20327},"arcs":[306]},{"type":"LineString","properties":{"source":"naturalearthdata.com","kind":"highway","sort_rank":383,"kind_detail":"motorway","min_zoom":3.0,"id":20327},"arcs":[307]},{"type":"LineString","properties":{"source":"naturalearthdata.com","kind":"major_road","sort_rank":379,"kind_detail":"secondary","min_zoom":4.0,"id":20399},"arcs":[308]},{"type":"LineString","properties":{"source":"naturalearthdata.com","kind":"minor_road","kind_detail":"tertiary","sort_rank":355,"landuse_kind":"urban_area","min_zoom":6.0,"id":20443},"arcs":[309]},{"type":"LineString","properties":{"source":"naturalearthdata.com","kind":"minor_road","sort_rank":355,"kind_detail":"tertiary","min_zoom":6.0,"id":20443},"arcs":[310]},{"type":"LineString","properties":{"source":"naturalearthdata.com","kind":"major_road","sort_rank":379,"kind_detail":"secondary","min_zoom":3.0,"id":20445},"arcs":[311]},{"type":"LineString","properties":{"source":"naturalearthdata.com","kind":"major_road","kind_detail":"secondary","sort_rank":379,"landuse_kind":"urban_area","min_zoom":4.0,"id":20578},"arcs":[312]},{"type":"LineString","properties":{"source":"naturalearthdata.com","kind":"major_road","sort_rank":379,"kind_detail":"secondary","min_zoom":4.0,"id":20578},"arcs":[313]},{"type":"LineString","properties":{"source":"naturalearthdata.com","kind":"major_road","sort_rank":379,"kind_detail":"secondary","min_zoom":3.0,"id":20587},"arcs":[314]},{"type":"LineString","properties":{"source":"naturalearthdata.com","kind":"major_road","kind_detail":"secondary","sort_rank":379,"landuse_kind":"urban_area","min_zoom":4.0,"id":20600},"arcs":[315]},{"type":"LineString","properties":{"source":"naturalearthdata.com","kind":"major_road","kind_detail":"secondary","sort_rank":379,"landuse_kind":"urban_area","min_zoom":4.0,"id":20600},"arcs":[316]},{"type":"LineString","properties":{"source":"naturalearthdata.com","kind":"major_road","sort_rank":379,"kind_detail":"secondary","min_zoom":4.0,"id":20600},"arcs":[317]},{"type":"LineString","properties":{"source":"naturalearthdata.com","kind":"major_road","sort_rank":379,"kind_detail":"secondary","min_zoom":3.0,"id":20602},"arcs":[318]},{"type":"LineString","properties":{"source":"naturalearthdata.com","kind":"minor_road","kind_detail":"tertiary","sort_rank":355,"landuse_kind":"urban_area","min_zoom":5.0,"id":20609},"arcs":[319]},{"type":"LineString","properties":{"source":"naturalearthdata.com","kind":"minor_road","sort_rank":355,"kind_detail":"tertiary","min_zoom":5.0,"id":20609},"arcs":[320]},{"type":"LineString","properties":{"source":"naturalearthdata.com","kind":"major_road","kind_detail":"secondary","sort_rank":379,"landuse_kind":"urban_area","min_zoom":4.0,"id":20732},"arcs":[321]},{"type":"LineString","properties":{"source":"naturalearthdata.com","kind":"major_road","kind_detail":"secondary","sort_rank":379,"landuse_kind":"urban_area","min_zoom":4.0,"id":20732},"arcs":[322]},{"type":"MultiLineString","properties":{"source":"naturalearthdata.com","kind":"major_road","sort_rank":379,"kind_detail":"secondary","min_zoom":4.0,"id":20732},"arcs":[[323],[324]]},{"type":"LineString","properties":{"source":"naturalearthdata.com","kind":"highway","kind_detail":"motorway","sort_rank":383,"landuse_kind":"urban_area","min_zoom":4.0,"id":20781},"arcs":[325]},{"type":"MultiLineString","properties":{"source":"naturalearthdata.com","kind":"highway","sort_rank":383,"kind_detail":"motorway","min_zoom":4.0,"id":20781},"arcs":[[326],[327]]},{"type":"LineString","properties":{"source":"naturalearthdata.com","kind":"major_road","sort_rank":379,"kind_detail":"secondary","min_zoom":3.0,"id":20957},"arcs":[328]},{"type":"LineString","properties":{"source":"naturalearthdata.com","kind":"major_road","kind_detail":"secondary","sort_rank":379,"landuse_kind":"urban_area","min_zoom":4.0,"id":20983},"arcs":[329]},{"type":"MultiLineString","properties":{"source":"naturalearthdata.com","kind":"major_road","sort_rank":379,"kind_detail":"secondary","min_zoom":4.0,"id":20983},"arcs":[[330],[331]]},{"type":"LineString","properties":{"source":"naturalearthdata.com","kind":"minor_road","sort_rank":355,"kind_detail":"tertiary","min_zoom":5.0,"id":21009},"arcs":[332]},{"type":"LineString","properties":{"source":"naturalearthdata.com","kind":"minor_road","sort_rank":355,"kind_detail":"tertiary","min_zoom":6.0,"id":21010},"arcs":[333]},{"type":"LineString","properties":{"source":"naturalearthdata.com","kind":"minor_road","sort_rank":355,"kind_detail":"tertiary","min_zoom":6.0,"id":21030},"arcs":[334]},{"type":"LineString","properties":{"source":"naturalearthdata.com","kind":"minor_road","kind_detail":"tertiary","sort_rank":355,"landuse_kind":"urban_area","min_zoom":6.0,"id":21045},"arcs":[335]},{"type":"LineString","properties":{"source":"naturalearthdata.com","kind":"major_road","kind_detail":"secondary","sort_rank":379,"landuse_kind":"urban_area","min_zoom":4.0,"id":21052},"arcs":[336]},{"type":"LineString","properties":{"source":"naturalearthdata.com","kind":"major_road","sort_rank":379,"kind_detail":"secondary","min_zoom":4.0,"id":21052},"arcs":[337]},{"type":"LineString","properties":{"source":"naturalearthdata.com","kind":"major_road","kind_detail":"secondary","sort_rank":379,"landuse_kind":"urban_area","min_zoom":4.0,"id":21131},"arcs":[338]},{"type":"LineString","properties":{"source":"naturalearthdata.com","kind":"major_road","sort_rank":379,"kind_detail":"secondary","min_zoom":4.0,"id":21131},"arcs":[339]},{"type":"LineString","properties":{"source":"naturalearthdata.com","kind":"major_road","kind_detail":"secondary","sort_rank":379,"landuse_kind":"urban_area","min_zoom":4.0,"id":21149},"arcs":[340]},{"type":"LineString","properties":{"source":"naturalearthdata.com","kind":"major_road","sort_rank":379,"kind_detail":"secondary","min_zoom":4.0,"id":21149},"arcs":[341]},{"type":"LineString","properties":{"source":"naturalearthdata.com","kind":"major_road","kind_detail":"secondary","sort_rank":379,"landuse_kind":"urban_area","min_zoom":3.0,"id":21150},"arcs":[342]},{"type":"MultiLineString","properties":{"source":"naturalearthdata.com","kind":"major_road","sort_rank":379,"kind_detail":"secondary","min_zoom":3.0,"id":21150},"arcs":[[343],[344]]},{"type":"LineString","properties":{"source":"naturalearthdata.com","kind":"major_road","kind_detail":"secondary","sort_rank":379,"landuse_kind":"urban_area","min_zoom":4.0,"id":21193},"arcs":[345]},{"type":"LineString","properties":{"source":"naturalearthdata.com","kind":"major_road","sort_rank":379,"kind_detail":"secondary","min_zoom":4.0,"id":21193},"arcs":[346]},{"type":"LineString","properties":{"source":"naturalearthdata.com","kind":"major_road","sort_rank":379,"kind_detail":"secondary","min_zoom":3.0,"id":21236},"arcs":[347]},{"type":"LineString","properties":{"source":"naturalearthdata.com","kind":"major_road","kind_detail":"secondary","sort_rank":379,"landuse_kind":"urban_area","min_zoom":4.0,"id":21238},"arcs":[348]},{"type":"LineString","properties":{"source":"naturalearthdata.com","kind":"major_road","sort_rank":379,"kind_detail":"secondary","min_zoom":4.0,"id":21238},"arcs":[349]},{"type":"LineString","properties":{"source":"naturalearthdata.com","kind":"major_road","sort_rank":379,"kind_detail":"secondary","min_zoom":4.0,"id":21242},"arcs":[350]},{"type":"LineString","properties":{"source":"naturalearthdata.com","kind":"minor_road","sort_rank":355,"kind_detail":"tertiary","min_zoom":6.0,"id":21246},"arcs":[351]},{"type":"LineString","properties":{"source":"naturalearthdata.com","kind":"major_road","kind_detail":"secondary","sort_rank":379,"landuse_kind":"urban_area","min_zoom":4.0,"id":21256},"arcs":[352]},{"type":"LineString","properties":{"source":"naturalearthdata.com","kind":"major_road","sort_rank":379,"kind_detail":"secondary","min_zoom":4.0,"id":21256},"arcs":[353]},{"type":"LineString","properties":{"source":"naturalearthdata.com","kind":"minor_road","kind_detail":"tertiary","sort_rank":355,"landuse_kind":"urban_area","min_zoom":5.0,"id":21257},"arcs":[354]},{"type":"LineString","properties":{"source":"naturalearthdata.com","kind":"minor_road","sort_rank":355,"kind_detail":"tertiary","min_zoom":5.0,"id":21257},"arcs":[355]},{"type":"LineString","properties":{"source":"naturalearthdata.com","kind":"major_road","sort_rank":379,"kind_detail":"secondary","min_zoom":4.0,"id":21258},"arcs":[356]},{"type":"LineString","properties":{"source":"naturalearthdata.com","kind":"major_road","sort_rank":379,"kind_detail":"secondary","min_zoom":4.0,"id":21259},"arcs":[357]},{"type":"LineString","properties":{"source":"naturalearthdata.com","kind":"major_road","sort_rank":379,"kind_detail":"secondary","min_zoom":4.0,"id":21281},"arcs":[358]},{"type":"LineString","properties":{"source":"naturalearthdata.com","kind":"major_road","kind_detail":"secondary","sort_rank":379,"landuse_kind":"urban_area","min_zoom":4.0,"id":21294},"arcs":[359]},{"type":"LineString","properties":{"source":"naturalearthdata.com","kind":"major_road","sort_rank":379,"kind_detail":"secondary","min_zoom":4.0,"id":21294},"arcs":[360]},{"type":"LineString","properties":{"source":"naturalearthdata.com","kind":"major_road","kind_detail":"secondary","sort_rank":379,"landuse_kind":"urban_area","min_zoom":4.0,"id":21361},"arcs":[361]},{"type":"LineString","properties":{"source":"naturalearthdata.com","kind":"major_road","sort_rank":379,"kind_detail":"secondary","min_zoom":4.0,"id":21361},"arcs":[362]},{"type":"LineString","properties":{"source":"naturalearthdata.com","kind":"minor_road","kind_detail":"tertiary","sort_rank":355,"landuse_kind":"urban_area","min_zoom":5.0,"id":21372},"arcs":[363]},{"type":"LineString","properties":{"source":"naturalearthdata.com","kind":"minor_road","sort_rank":355,"kind_detail":"tertiary","min_zoom":5.0,"id":21372},"arcs":[364]},{"type":"LineString","properties":{"source":"naturalearthdata.com","kind":"major_road","sort_rank":379,"kind_detail":"secondary","min_zoom":4.0,"id":21393},"arcs":[365]},{"type":"LineString","properties":{"source":"naturalearthdata.com","kind":"major_road","kind_detail":"secondary","sort_rank":379,"landuse_kind":"urban_area","min_zoom":4.0,"id":21409},"arcs":[366]},{"type":"MultiLineString","properties":{"source":"naturalearthdata.com","kind":"major_road","sort_rank":379,"kind_detail":"secondary","min_zoom":4.0,"id":21409},"arcs":[[367],[368]]},{"type":"LineString","properties":{"source":"naturalearthdata.com","kind":"major_road","kind_detail":"secondary","sort_rank":379,"landuse_kind":"urban_area","min_zoom":4.0,"id":21444},"arcs":[369]},{"type":"LineString","properties":{"source":"naturalearthdata.com","kind":"major_road","sort_rank":379,"kind_detail":"secondary","min_zoom":4.0,"id":21444},"arcs":[370]},{"type":"LineString","properties":{"source":"naturalearthdata.com","kind":"minor_road","sort_rank":355,"kind_detail":"tertiary","min_zoom":5.0,"id":21451},"arcs":[371]},{"type":"LineString","properties":{"source":"naturalearthdata.com","kind":"major_road","kind_detail":"secondary","sort_rank":379,"landuse_kind":"urban_area","min_zoom":4.0,"id":21456},"arcs":[372]},{"type":"MultiLineString","properties":{"source":"naturalearthdata.com","kind":"major_road","sort_rank":379,"kind_detail":"secondary","min_zoom":4.0,"id":21456},"arcs":[[373],[374]]},{"type":"LineString","properties":{"source":"naturalearthdata.com","kind":"major_road","sort_rank":379,"kind_detail":"secondary","min_zoom":4.0,"id":21458},"arcs":[375]},{"type":"LineString","properties":{"source":"naturalearthdata.com","kind":"major_road","sort_rank":379,"kind_detail":"secondary","min_zoom":4.0,"id":21527},"arcs":[376]},{"type":"LineString","properties":{"source":"naturalearthdata.com","kind":"major_road","kind_detail":"secondary","sort_rank":379,"landuse_kind":"urban_area","min_zoom":4.0,"id":21585},"arcs":[377]},{"type":"LineString","properties":{"source":"naturalearthdata.com","kind":"major_road","sort_rank":379,"kind_detail":"secondary","min_zoom":4.0,"id":21585},"arcs":[378]},{"type":"LineString","properties":{"source":"naturalearthdata.com","kind":"major_road","kind_detail":"secondary","sort_rank":379,"landuse_kind":"urban_area","min_zoom":4.0,"id":21586},"arcs":[379]},{"type":"LineString","properties":{"source":"naturalearthdata.com","kind":"major_road","sort_rank":379,"kind_detail":"secondary","min_zoom":4.0,"id":21586},"arcs":[380]},{"type":"LineString","properties":{"source":"naturalearthdata.com","kind":"major_road","kind_detail":"secondary","sort_rank":379,"landuse_kind":"urban_area","min_zoom":4.0,"id":21729},"arcs":[381]},{"type":"LineString","properties":{"source":"naturalearthdata.com","kind":"major_road","sort_rank":379,"kind_detail":"secondary","min_zoom":4.0,"id":21729},"arcs":[382]},{"type":"LineString","properties":{"source":"naturalearthdata.com","kind":"minor_road","sort_rank":355,"kind_detail":"tertiary","min_zoom":5.0,"id":21738},"arcs":[383]},{"type":"LineString","properties":{"source":"naturalearthdata.com","kind":"major_road","kind_detail":"secondary","sort_rank":379,"landuse_kind":"urban_area","min_zoom":4.0,"id":21829},"arcs":[384]},{"type":"LineString","properties":{"source":"naturalearthdata.com","kind":"major_road","sort_rank":379,"kind_detail":"secondary","min_zoom":4.0,"id":21829},"arcs":[385]},{"type":"LineString","properties":{"source":"naturalearthdata.com","kind":"major_road","sort_rank":379,"kind_detail":"secondary","min_zoom":4.0,"id":21830},"arcs":[386]},{"type":"LineString","properties":{"source":"naturalearthdata.com","kind":"major_road","sort_rank":379,"kind_detail":"secondary","min_zoom":4.0,"id":21837},"arcs":[387]},{"type":"LineString","properties":{"source":"naturalearthdata.com","kind":"highway","kind_detail":"motorway","sort_rank":383,"landuse_kind":"urban_area","min_zoom":4.0,"id":21847},"arcs":[388]},{"type":"LineString","properties":{"source":"naturalearthdata.com","kind":"highway","sort_rank":383,"kind_detail":"motorway","min_zoom":4.0,"id":21847},"arcs":[389]},{"type":"LineString","properties":{"source":"naturalearthdata.com","kind":"highway","sort_rank":383,"kind_detail":"motorway","min_zoom":4.0,"id":21848},"arcs":[390]},{"type":"LineString","properties":{"source":"naturalearthdata.com","kind":"major_road","sort_rank":379,"kind_detail":"secondary","min_zoom":4.0,"id":21955},"arcs":[391]},{"type":"LineString","properties":{"source":"naturalearthdata.com","kind":"major_road","sort_rank":379,"kind_detail":"secondary","min_zoom":4.0,"id":21980},"arcs":[392]},{"type":"LineString","properties":{"source":"naturalearthdata.com","kind":"major_road","sort_rank":379,"kind_detail":"secondary","min_zoom":4.0,"id":21981},"arcs":[393]},{"type":"LineString","properties":{"source":"naturalearthdata.com","kind":"major_road","sort_rank":379,"kind_detail":"secondary","min_zoom":4.0,"id":22057},"arcs":[394]},{"type":"LineString","properties":{"source":"naturalearthdata.com","kind":"major_road","sort_rank":379,"kind_detail":"secondary","min_zoom":4.0,"id":22071},"arcs":[395]},{"type":"LineString","properties":{"source":"naturalearthdata.com","kind":"major_road","sort_rank":379,"kind_detail":"secondary","min_zoom":3.0,"id":22072},"arcs":[396]},{"type":"LineString","properties":{"source":"naturalearthdata.com","kind":"minor_road","sort_rank":355,"kind_detail":"tertiary","min_zoom":6.0,"id":22089},"arcs":[397]},{"type":"LineString","properties":{"source":"naturalearthdata.com","kind":"minor_road","sort_rank":355,"kind_detail":"tertiary","min_zoom":6.0,"id":22090},"arcs":[398]},{"type":"LineString","properties":{"source":"naturalearthdata.com","kind":"minor_road","sort_rank":355,"kind_detail":"tertiary","min_zoom":6.0,"id":22116},"arcs":[399]},{"type":"LineString","properties":{"source":"naturalearthdata.com","kind":"minor_road","sort_rank":355,"kind_detail":"tertiary","min_zoom":6.0,"id":22148},"arcs":[400]},{"type":"LineString","properties":{"source":"naturalearthdata.com","kind":"major_road","kind_detail":"secondary","sort_rank":379,"landuse_kind":"urban_area","min_zoom":3.0,"id":22164},"arcs":[401]},{"type":"MultiLineString","properties":{"source":"naturalearthdata.com","kind":"major_road","sort_rank":379,"kind_detail":"secondary","min_zoom":3.0,"id":22164},"arcs":[[402],[403]]},{"type":"LineString","properties":{"source":"naturalearthdata.com","kind":"major_road","sort_rank":379,"kind_detail":"secondary","min_zoom":3.0,"id":22170},"arcs":[404]},{"type":"LineString","properties":{"source":"naturalearthdata.com","kind":"major_road","sort_rank":379,"kind_detail":"secondary","min_zoom":4.0,"id":22182},"arcs":[405]},{"type":"LineString","properties":{"source":"naturalearthdata.com","kind":"major_road","sort_rank":379,"kind_detail":"secondary","min_zoom":3.0,"id":22183},"arcs":[406]},{"type":"LineString","properties":{"source":"naturalearthdata.com","kind":"major_road","sort_rank":379,"kind_detail":"secondary","min_zoom":3.0,"id":22224},"arcs":[407]},{"type":"LineString","properties":{"source":"naturalearthdata.com","kind":"major_road","sort_rank":379,"kind_detail":"secondary","min_zoom":3.0,"id":22228},"arcs":[408]},{"type":"LineString","properties":{"source":"naturalearthdata.com","kind":"major_road","sort_rank":379,"kind_detail":"secondary","min_zoom":3.0,"id":22266},"arcs":[409]},{"type":"LineString","properties":{"source":"naturalearthdata.com","kind":"major_road","kind_detail":"secondary","sort_rank":379,"landuse_kind":"urban_area","min_zoom":3.0,"id":22269},"arcs":[410]},{"type":"MultiLineString","properties":{"source":"naturalearthdata.com","kind":"major_road","sort_rank":379,"kind_detail":"secondary","min_zoom":3.0,"id":22269},"arcs":[[411],[412]]},{"type":"LineString","properties":{"source":"naturalearthdata.com","kind":"minor_road","kind_detail":"tertiary","sort_rank":355,"landuse_kind":"urban_area","min_zoom":6.0,"id":22300},"arcs":[413]},{"type":"LineString","properties":{"source":"naturalearthdata.com","kind":"minor_road","sort_rank":355,"kind_detail":"tertiary","min_zoom":6.0,"id":22300},"arcs":[414]},{"type":"LineString","properties":{"source":"naturalearthdata.com","kind":"minor_road","kind_detail":"tertiary","sort_rank":355,"landuse_kind":"urban_area","min_zoom":6.0,"id":22317},"arcs":[415]},{"type":"LineString","properties":{"source":"naturalearthdata.com","kind":"major_road","kind_detail":"secondary","sort_rank":379,"landuse_kind":"urban_area","min_zoom":4.0,"id":22412},"arcs":[416]},{"type":"LineString","properties":{"source":"naturalearthdata.com","kind":"major_road","sort_rank":379,"kind_detail":"secondary","min_zoom":4.0,"id":22412},"arcs":[417]},{"type":"LineString","properties":{"source":"naturalearthdata.com","kind":"minor_road","kind_detail":"tertiary","sort_rank":355,"landuse_kind":"urban_area","min_zoom":6.0,"id":22420},"arcs":[418]},{"type":"LineString","properties":{"source":"naturalearthdata.com","kind":"minor_road","sort_rank":355,"kind_detail":"tertiary","min_zoom":6.0,"id":22420},"arcs":[419]},{"type":"LineString","properties":{"source":"naturalearthdata.com","kind":"minor_road","sort_rank":355,"kind_detail":"tertiary","min_zoom":6.0,"id":22470},"arcs":[420]},{"type":"LineString","properties":{"source":"naturalearthdata.com","kind":"minor_road","kind_detail":"tertiary","sort_rank":355,"landuse_kind":"urban_area","min_zoom":6.0,"id":22549},"arcs":[421]},{"type":"MultiLineString","properties":{"source":"naturalearthdata.com","kind":"minor_road","sort_rank":355,"kind_detail":"tertiary","min_zoom":6.0,"id":22549},"arcs":[[422],[423]]},{"type":"LineString","properties":{"source":"naturalearthdata.com","kind":"major_road","kind_detail":"secondary","sort_rank":379,"landuse_kind":"urban_area","min_zoom":3.0,"id":22550},"arcs":[424]},{"type":"LineString","properties":{"source":"naturalearthdata.com","kind":"major_road","sort_rank":379,"kind_detail":"secondary","min_zoom":3.0,"id":22550},"arcs":[425]},{"type":"LineString","properties":{"source":"naturalearthdata.com","kind":"minor_road","sort_rank":355,"kind_detail":"tertiary","min_zoom":6.0,"id":22561},"arcs":[426]},{"type":"LineString","properties":{"source":"naturalearthdata.com","kind":"major_road","sort_rank":379,"kind_detail":"secondary","min_zoom":4.0,"id":22577},"arcs":[427]},{"type":"LineString","properties":{"source":"naturalearthdata.com","kind":"major_road","sort_rank":379,"kind_detail":"secondary","min_zoom":4.0,"id":22588},"arcs":[428]},{"type":"LineString","properties":{"source":"naturalearthdata.com","kind":"major_road","sort_rank":379,"kind_detail":"secondary","min_zoom":4.0,"id":22621},"arcs":[429]},{"type":"LineString","properties":{"source":"naturalearthdata.com","kind":"highway","sort_rank":383,"kind_detail":"motorway","min_zoom":3.0,"id":22751},"arcs":[430]},{"type":"LineString","properties":{"source":"naturalearthdata.com","kind":"minor_road","sort_rank":355,"kind_detail":"tertiary","min_zoom":6.0,"id":22774},"arcs":[431]},{"type":"LineString","properties":{"source":"naturalearthdata.com","kind":"minor_road","sort_rank":355,"kind_detail":"tertiary","min_zoom":6.0,"id":22814},"arcs":[432]},{"type":"LineString","properties":{"source":"naturalearthdata.com","kind":"minor_road","sort_rank":355,"kind_detail":"tertiary","min_zoom":6.0,"id":22822},"arcs":[433]},{"type":"MultiLineString","properties":{"source":"naturalearthdata.com","kind":"minor_road","sort_rank":355,"kind_detail":"tertiary","min_zoom":5.0,"id":22843},"arcs":[[434],[435]]},{"type":"LineString","properties":{"source":"naturalearthdata.com","kind":"major_road","sort_rank":379,"kind_detail":"secondary","min_zoom":4.0,"id":22865},"arcs":[436]},{"type":"LineString","properties":{"source":"naturalearthdata.com","kind":"minor_road","sort_rank":355,"kind_detail":"tertiary","min_zoom":6.0,"id":22910},"arcs":[437]},{"type":"LineString","properties":{"source":"naturalearthdata.com","kind":"minor_road","sort_rank":355,"kind_detail":"tertiary","min_zoom":6.0,"id":22917},"arcs":[438]},{"type":"LineString","properties":{"source":"naturalearthdata.com","kind":"highway","sort_rank":383,"kind_detail":"motorway","min_zoom":3.0,"id":23117},"arcs":[439]},{"type":"LineString","properties":{"source":"naturalearthdata.com","kind":"minor_road","sort_rank":355,"kind_detail":"tertiary","min_zoom":5.0,"id":23262},"arcs":[440]},{"type":"LineString","properties":{"source":"naturalearthdata.com","kind":"highway","kind_detail":"motorway","sort_rank":383,"landuse_kind":"urban_area","min_zoom":3.0,"id":48441},"arcs":[441]},{"type":"LineString","properties":{"source":"naturalearthdata.com","kind":"highway","sort_rank":383,"kind_detail":"motorway","min_zoom":3.0,"id":48441},"arcs":[442]},{"type":"LineString","properties":{"source":"naturalearthdata.com","kind":"major_road","sort_rank":379,"kind_detail":"secondary","min_zoom":3.0,"id":48442},"arcs":[443]}]},"earth":{"type":"GeometryCollection","geometries":[{"type":"MultiPolygon","properties":{"sort_rank":10,"source":"naturalearthdata.com","min_zoom":0.0,"kind":"earth","area":1444032361548},"arcs":[[[444]]]}]},"landuse":{"type":"GeometryCollection","geometries":[{"type":"Polygon","properties":{"source":"openstreetmap.org","kind":"park","area":1396809984,"tier":2,"id":126594984,"min_zoom":4.0,"sort_rank":24},"arcs":[[445]]},{"type":"MultiPolygon","properties":{"source":"openstreetmap.org","kind":"park","tier":2,"area":1791550018,"sort_rank":24,"min_zoom":6.0,"osm_relation":true},"arcs":[[[446]],[[447],[448]]]},{"type":"MultiPolygon","properties":{"source":"naturalearthdata.com","kind":"urban_area","name":"","area":23006555392,"sort_rank":11,"min_zoom":4.0},"arcs":[[[449]],[[450]],[[451]],[[452]],[[453]],[[454]],[[455]],[[456]],[[457]],[[458]],[[459]],[[460]],[[461]],[[462]],[[463]],[[464]],[[465]],[[466]],[[467]],[[468]],[[469]],[[470]],[[471]],[[472]],[[473]],[[474]],[[475]],[[476]],[[477]],[[478]],[[479]],[[480]],[[481]],[[482]],[[483]],[[484]],[[485]],[[486]],[[487]],[[488]],[[489]],[[490]],[[491]],[[492]]]},{"type":"MultiPolygon","properties":{"source":"openstreetmap.org","kind":"park","tier":2,"area":3748638965,"sort_rank":24,"min_zoom":6.0},"arcs":[[[493]],[[494]],[[495]],[[496]],[[497]],[[498]]]}]}},"type":"Topology","transform":{"translate":[39.375,36.5978891331],"scale":[0.001373291,0.0010698264]},"arcs":[[[3932,2902],[7,-11],[8,-36],[8,-12]],[[4018,2917],[25,6],[19,10],[4,3],[27,20],[3,1]],[[3986,2917],[32,0]],[[3932,2902],[20,9],[34,6]],[[2480,727],[9,-1],[6,-5],[3,-16],[6,-5],[60,-20],[30,-5]],[[2172,479],[32,4],[42,14],[62,11],[12,5],[3,5],[9,25],[91,137],[3,7],[1,7],[1,6],[5,8],[4,3],[36,15],[7,1]],[[2723,723],[13,-4],[95,-53],[5,-2],[7,0]],[[2594,675],[31,11],[18,14],[28,13],[30,8],[22,2]],[[2876,677],[8,-2],[20,-15],[9,-8],[30,-15],[34,-29],[12,-5]],[[2843,664],[6,1],[7,7],[6,3],[14,2]],[[3394,673],[24,-4],[14,-2],[70,-30],[16,-11],[12,-13],[9,-16],[6,-21],[4,-21],[1,-11],[-1,-10],[-6,-10],[-8,-4],[-8,-1],[-9,-6],[-12,-16],[-7,-19],[0,-20],[5,-20],[30,-68],[4,-9],[7,-6],[30,-8]],[[3229,563],[9,2],[13,14],[39,7],[23,26],[21,33],[27,23],[33,5]],[[3025,613],[10,-1],[6,-4],[13,-10],[18,-8],[18,-2]],[[2989,603],[9,2],[18,7],[9,1]],[[3165,593],[19,-2],[17,-4],[7,-5],[16,-16],[5,-3]],[[3090,588],[75,5]],[[3826,543],[76,-11],[15,-7],[9,-16]],[[3575,347],[9,1],[7,7],[7,15],[11,20],[3,15],[6,11],[62,20],[19,11],[18,15],[17,23],[27,25],[28,21],[23,12],[14,0]],[[3798,2966],[11,-7],[20,-30],[10,-11],[43,-20],[14,-12],[59,-43]],[[3583,2602],[16,3],[37,18],[14,10],[13,18],[0,17],[-3,18],[4,21],[7,11],[1,11],[-3,12],[-1,13],[1,16],[4,12],[24,48],[4,12],[1,4],[1,11],[-4,31],[3,10],[78,63],[18,5]],[[3496,2630],[18,-2],[50,-25],[19,-1]],[[3440,2618],[17,2],[39,10]],[[3424,2620],[16,-2]],[[3632,1651],[-36,7],[-11,5],[-6,5],[-2,8],[2,15],[0,9],[-2,24],[0,11],[9,37],[1,16],[-6,48],[3,37],[0,19],[-5,16],[-5,6],[-6,4],[-13,4],[-9,5],[2,5],[6,7],[3,7],[-3,16],[-4,12],[-1,11],[3,19],[20,68],[-4,27],[-39,19],[-11,11],[-10,14],[-7,21],[-3,7],[-3,7],[1,8],[-1,9],[-5,5],[-7,6],[-5,6],[-3,15],[-2,6],[-4,7],[10,17],[12,10],[7,11],[-6,37],[3,15],[15,28],[-6,23],[-28,20],[-33,17],[-19,14],[0,8],[5,17],[-1,9],[-9,18],[-2,8],[-1,8],[2,7],[0,7],[-8,18],[-4,20],[-4,9],[-19,23],[-4,11],[8,11],[15,10],[11,3],[11,1]],[[3553,1190],[-25,4],[-13,20],[2,8],[1,3],[8,10],[6,10],[-1,11],[-3,14],[1,11],[5,12],[6,12],[7,13],[17,21],[6,14],[7,20],[6,11],[10,8],[14,7],[4,6],[-6,17],[1,9],[6,5],[13,5],[5,8],[5,13],[5,19],[2,18],[-3,45],[21,23],[26,21],[16,24],[0,15],[-6,15],[-9,12],[-10,9],[-11,4]],[[3666,1667],[-10,-2],[-24,-14]],[[3668,1131],[-6,2],[-8,10],[-4,12],[-3,11],[-4,8],[-8,6],[-26,13],[-9,2]],[[3600,1195],[-47,-5]],[[3696,1092],[-10,2],[-6,10],[1,6],[3,15],[-1,4],[-5,5]],[[3678,1134],[-5,-1],[-5,-2]],[[3850,727],[-7,8],[-10,27],[-12,8],[-27,3],[-10,6],[-4,15],[10,28],[-3,15],[0,1],[-4,19],[1,23],[5,23],[7,19],[-3,16],[-17,12],[-14,17],[3,29],[6,8],[25,21],[8,12],[-2,8],[-27,34],[-18,16],[-20,9]],[[3737,1104],[-20,-2],[-9,-5],[-12,-5]],[[3926,509],[4,18],[-4,15],[-7,16],[-2,19],[5,17],[9,8],[10,6],[8,11],[3,30],[-17,20],[-42,28],[-6,12],[-4,14],[-7,8]],[[3876,731],[-26,-4]],[[3061,4096],[19,-15],[23,-28],[8,-19],[3,-18],[2,-18],[4,-22],[7,-18],[31,-47],[6,-18],[3,-15],[4,-65],[-2,-8],[-16,-26],[-4,-6],[6,-21],[-31,-35],[-10,-20],[1,-22]],[[3115,3675],[-5,3],[-3,2],[-3,0],[-5,2]],[[3099,3682],[3,-4],[1,-3],[2,-6],[-17,-2],[-16,-11],[-25,-29],[3,-13],[16,-17],[29,-24],[0,-7],[-1,-2],[-10,-35],[-7,-11],[-5,-15],[8,-15],[19,-18],[33,-41],[10,-24],[1,-2],[-13,-10],[8,-17],[22,-27],[5,-11],[-7,-12],[-33,-7],[-10,-9],[9,-27],[34,-18],[66,-19],[80,-43],[87,-15]],[[3578,3221],[27,-9],[40,-23],[61,-35],[42,-36],[19,-21],[8,-13],[3,-15],[3,-8],[6,-6],[11,-8],[2,-9],[1,-10],[2,-6]],[[3466,3201],[8,1],[15,4],[21,3],[44,12],[24,0]],[[3444,3214],[7,-2],[9,-9],[6,-2]],[[3391,3188],[12,4],[25,18],[16,4]],[[3813,3028],[26,-30],[14,-8],[4,-1]],[[3803,3022],[10,6]],[[3865,2991],[3,-1],[4,-3],[4,-8],[45,-58],[11,-19]],[[3857,2989],[8,2]],[[2172,479],[4,-11],[6,-10],[4,-10],[0,-14],[-23,-18],[-46,-46],[-76,-83],[-145,-160],[-98,-108],[-20,-17],[-3,-2]],[[3955,2843],[2,-2],[11,-6],[3,-2],[15,-3],[17,0],[-2,-5],[-3,-2],[15,-11],[9,-20],[22,-90],[9,-19],[15,-14],[-6,-11],[3,-7],[18,-13],[4,-1]],[[4095,2638],[1,-1]],[[4087,2637],[8,1]],[[2065,680],[9,-11],[0,-10],[-1,-10],[1,-4],[10,-2],[22,-11]],[[1330,437],[203,10],[303,73],[82,20],[32,20],[55,53],[36,49],[11,7],[13,11]],[[2120,644],[4,-2],[3,-5],[4,-9],[3,-5],[25,-20],[5,-3],[5,-12],[-13,-52],[8,-12],[6,-6],[1,-13],[1,-26]],[[2106,632],[4,3],[5,5],[5,4]],[[1108,491],[174,-36],[32,-14],[16,-4]],[[0,79],[49,9],[235,47],[156,60],[73,45],[26,9],[27,6],[28,13],[51,36],[97,66],[14,10],[16,6],[16,3],[17,1],[33,10],[97,56],[36,14],[137,21]],[[3959,415],[-7,2],[-4,4],[-3,14],[-3,7],[-5,3],[-6,2],[-5,3],[-4,6],[-6,16],[0,10],[10,27]],[[4007,167],[-19,4],[-15,10],[-6,17],[8,23],[26,32],[10,17],[4,23],[-3,21],[-7,15],[-4,16],[4,25],[8,11],[1,10],[-5,8],[-16,9],[-8,9],[-5,3]],[[3980,420],[-7,0],[-14,-5]],[[4096,131],[-3,3],[-12,7],[-9,1],[-9,2],[-7,6],[-7,8],[-9,8],[-11,2]],[[4029,168],[-22,-1]],[[3365,0],[2,3],[6,5],[4,2],[2,-2],[2,-1],[4,1],[0,2],[-2,4],[-1,4],[0,5],[2,1],[1,0],[2,-3],[0,-3],[1,-2],[3,-3],[3,-2],[3,0],[4,0],[3,2],[4,0],[3,0],[2,-1],[0,-2],[-1,-3],[-1,-4],[-1,-3]],[[3422,0],[1,5],[2,2],[2,1],[3,0],[2,0],[8,4],[4,1],[3,0],[4,-1],[3,-2],[1,-2],[0,-3],[1,-2],[3,-2],[7,2],[10,8],[12,8],[20,19],[6,4],[12,4],[12,19],[20,19],[26,36],[4,8],[0,4],[0,4],[-2,3],[-1,1],[-2,0],[-2,0],[-2,-2],[-1,-1],[-2,1],[-5,10],[-2,7],[-7,9],[-1,4],[-1,8],[-1,3],[-4,4],[-6,4],[-12,10],[-69,31],[-5,4],[-4,4],[-2,5],[-4,2],[-2,1],[-22,2],[-7,2],[-3,0],[-3,-1],[-6,-1],[-2,2],[-6,10],[-1,3],[1,2],[1,4],[-1,4],[-4,8],[-3,2],[-3,1],[-3,0],[-12,-1],[-2,2],[1,2],[1,1],[3,1],[2,1],[1,3],[-4,6],[-2,4],[-1,5],[-3,6],[-5,3],[-9,5],[-10,8],[-15,10],[-16,16],[-4,3],[-4,1],[-4,-1],[-17,4],[-46,26],[-23,6],[-21,8],[-51,9],[-8,3],[-13,7],[-3,1],[-3,0],[-3,0],[-2,-2],[-4,-4],[-2,-3],[-3,-8],[-1,-2],[0,-4],[-1,-7],[-2,-8],[-2,-7],[-1,-3],[1,-4],[0,-2],[2,-5],[0,-2],[1,-3],[2,-3],[7,-6],[4,-2],[5,-1],[10,0],[5,-2],[6,-3],[13,-4],[4,-1],[4,-2],[3,-3],[1,-4],[1,-5],[1,-4],[0,-5],[-2,-4],[-6,-13],[-3,-4],[-3,-2],[-4,-2],[-1,-2],[1,-6],[1,-3],[0,-3],[0,-2],[0,-2],[1,-5],[0,-3],[1,-3],[0,-5],[-1,-6],[-3,-10],[-3,-3],[-3,0],[-2,2],[-13,4],[-6,-1],[-5,-3],[-3,-3],[-1,-5],[0,-6],[-1,-4],[-2,-4],[-5,-1],[-10,3],[-106,29],[-23,11],[-13,13],[-22,16],[-10,11],[-11,9],[-11,6],[-28,4],[-11,-4],[-11,-9],[-5,-9],[-22,-28],[-22,-36],[-6,-21],[-7,-17],[-3,-15],[-11,-8],[-24,-13],[-30,-2],[-95,-14],[-60,-34],[-8,2],[-11,0],[-8,-2],[-7,-5],[-6,-12],[-7,15],[-3,6],[-6,5],[-10,6],[-6,0],[-26,-13],[-7,-1],[-5,8],[1,7],[7,6],[16,6],[-6,7],[-6,2],[-6,0],[-6,4],[-13,12],[-22,26],[-7,5],[-9,2],[-6,-2],[-4,-5],[-3,-4],[-4,-2],[-31,1],[-11,6],[-10,29],[-12,9],[-23,12],[-15,-6],[-8,8],[4,10],[19,1],[-8,16],[-6,7],[-2,8],[6,21],[-13,3],[0,15],[3,18],[0,15],[-14,-17],[-13,0],[-13,10],[-28,28],[-12,20],[-10,22],[-5,20]],[[906,2743],[-47,15]],[[1570,1829],[-41,-6],[-39,-13]],[[3243,387],[14,17],[10,5],[6,1],[3,4],[3,4],[3,10],[3,6],[4,4],[13,7],[27,11],[3,3],[1,2],[-2,2],[-1,3],[3,2],[6,2],[13,6],[6,4],[4,4],[3,5],[11,16],[4,4],[15,8],[10,4],[3,3],[2,3],[-3,6],[0,4],[2,5],[9,12],[6,6],[8,6],[8,4],[0,3],[0,3],[-2,11],[-1,1],[-1,1],[-5,0],[-2,1],[-2,2],[-2,2],[0,6],[-2,5],[0,4],[1,3],[2,7],[6,13],[0,3],[-1,3],[-2,1],[-1,1],[-2,1],[-2,1],[-1,1],[0,2],[-2,4],[-2,1],[-2,1],[-2,5],[3,13]],[[87,0],[-15,20],[-6,16],[-17,52]],[[859,2758],[-60,2],[-59,10],[-108,3],[-14,8],[-28,9],[-7,2]],[[583,2792],[-3,-3],[-23,-7],[-28,-13],[-15,-3],[-67,-23]],[[447,2743],[-57,14],[-39,23]],[[351,2780],[-28,-9],[-32,-41],[-52,-16],[-111,-17],[-57,-1]],[[71,2696],[-56,14],[-15,1]],[[1791,2403],[28,22],[30,17],[90,16],[22,20],[14,16],[50,31],[20,35],[-4,42],[15,42],[100,49],[27,2],[28,4],[15,6]],[[1449,2607],[59,-14],[27,-18],[71,-70],[43,-60],[17,-14],[62,-25],[63,-3]],[[1333,2587],[116,20]],[[166,2067],[70,5],[68,27],[45,49],[19,40],[10,44],[-3,33],[-8,36],[10,14],[13,11],[37,8],[39,2]],[[0,2056],[2,-2],[17,-20]],[[140,2069],[26,-2]],[[73,2024],[23,16],[18,24],[26,5]],[[38,2039],[17,-9],[18,-6]],[[19,2034],[6,1],[13,4]],[[2368,2248],[-52,-43],[-60,-24]],[[2256,2181],[-119,14]],[[2137,2195],[-25,-9],[-23,-17],[-30,-12],[-31,-3],[-15,-11],[-9,-43],[-15,-14]],[[1989,2086],[-64,2]],[[1925,2088],[-14,-34],[23,-37],[5,-40],[-31,-26],[-43,-48],[-51,-29]],[[1814,1874],[-124,9]],[[1690,1883],[-112,-42],[-8,-12]],[[794,2707],[36,18],[29,33]],[[741,2715],[34,-6],[19,-2]],[[675,2639],[34,24],[20,42],[12,10]],[[639,2640],[36,-1]],[[583,2588],[10,5],[7,15],[6,19],[33,13]],[[532,2591],[51,-3]],[[466,2336],[12,29],[6,31],[-15,71],[4,24],[8,24],[4,46],[11,19],[36,11]],[[1333,2587],[-31,54],[-33,38],[-44,5],[-54,26],[-71,65],[-22,13]],[[1078,2788],[-21,-11],[-21,-16],[-65,-27]],[[971,2734],[-65,9]],[[1333,2587],[-21,-36],[-3,-21],[11,-27],[4,-9],[7,-17],[0,-14],[-1,-29],[16,-29],[14,-15],[20,-36],[5,-41],[-9,-38],[-51,-62],[-22,-72],[16,-54],[15,-22],[9,-4],[15,-13],[10,-22],[4,-24]],[[718,2460],[22,-45],[-30,-60],[-37,-51],[-14,-65],[17,-73],[44,-53],[13,-31],[-5,-35],[-9,-36],[-13,-25]],[[466,2336],[167,89],[25,8],[60,27]],[[706,1986],[-24,9],[-23,4]],[[659,1999],[-34,-99],[39,-59],[7,-40],[3,-44]],[[455,727],[10,-110],[21,-24],[23,-20],[37,-39],[9,-19],[-7,-75],[66,-119],[31,-17]],[[1778,1043],[43,-117],[21,-81],[-9,-62],[-54,-27],[-69,-38],[-30,-35],[12,-39],[84,-27],[45,-38],[15,-59]],[[2921,1062],[-4,-86],[-15,-54],[12,-50],[24,-62],[-6,-81],[-19,-50],[-9,-19]],[[2817,2628],[56,-3],[51,-22],[41,-44],[33,-21],[63,-12],[25,-1]],[[2619,2343],[85,34],[18,20],[2,32],[4,32],[-5,29],[-29,12],[-27,16],[6,28],[17,7],[44,8],[24,9],[27,35],[32,23]],[[3153,2563],[28,-4],[35,-12],[44,-3],[12,-5],[27,-5]],[[3086,2525],[19,19],[21,16],[27,3]],[[3299,2534],[103,27]],[[2226,2705],[20,-59],[30,-52],[23,-21],[23,-26],[12,-25],[19,-18],[25,-39],[-3,-60],[4,-12],[0,-15],[-7,-36],[-6,-46],[2,-48]],[[2619,2343],[-134,-31],[-25,-19],[-26,-15],[-34,-11],[-32,-19]],[[2619,2343],[1,-71],[22,-48],[85,-51],[30,-47],[-21,-68],[-52,-41],[-41,-42],[-66,-101],[-13,-29],[-15,-26],[-47,-33],[-78,-44],[-12,-13],[-7,-40],[5,-20],[25,-59],[3,-12],[2,-25],[-7,-32],[13,-47],[38,-14]],[[2851,1056],[-19,4],[-55,23],[-62,9]],[[2715,1092],[-58,-32]],[[2921,1062],[-35,-5],[-35,-1]],[[3517,1222],[-64,7]],[[3453,1229],[-53,-11],[-30,-52],[-18,-50],[-40,-26],[-47,-9]],[[3265,1081],[-47,0],[-30,13],[-30,4]],[[3158,1098],[-21,-8],[-21,-12],[-97,-15],[-98,-1]],[[1372,2002],[38,-49],[49,-36],[8,-37],[-8,-38],[8,-25],[23,-7]],[[430,1749],[-11,5],[-26,20],[-16,8]],[[377,1782],[-33,-6],[-11,-31],[-17,-30],[-18,-28],[-22,-15],[-25,-8]],[[674,1757],[-244,-8]],[[251,1664],[-56,3]],[[195,1667],[-55,-5],[-21,-12],[-56,-8],[-30,-13]],[[33,1629],[-33,2]],[[1372,2002],[-35,-25],[-89,-35],[-90,-56],[-47,-14]],[[1111,1872],[-125,5],[-36,10],[-25,2]],[[925,1889],[-71,-10],[-41,-20],[-4,-26],[-1,-29],[-19,-30],[-30,-14],[-85,-3]],[[265,1140],[-35,15],[-28,27],[-23,8],[-23,11],[-48,41],[-44,47],[-40,19],[-24,1]],[[455,727],[-34,39],[-24,49],[-26,75],[-2,14],[-7,27],[-11,71],[5,101],[-11,22],[-13,5],[-13,6],[-19,18],[-20,9]],[[280,1163],[-7,-12],[-8,-11]],[[1192,1069],[46,22]],[[937,1075],[255,-6]],[[455,727],[71,94],[33,30],[79,57],[36,14],[81,64],[58,4],[35,47],[9,21],[80,17]],[[1676,1518],[-2,20],[4,21],[0,35],[-4,33],[-17,52],[-25,126],[-62,24]],[[1257,1092],[13,-7],[52,-66],[51,-108],[78,-50]],[[1238,1091],[19,1]],[[1451,861],[111,23],[82,62],[134,97]],[[1490,1810],[4,-31],[-28,-16],[-23,-3],[-24,-7],[-38,-19],[-16,-23],[-7,-33],[-14,-52],[-8,-54],[9,-102],[-5,-52],[-12,-21],[-13,-21],[-35,-113],[-29,-34],[-35,-25],[-7,-22],[7,-27],[6,-35],[16,-29]],[[1955,1523],[49,-23],[43,-44],[47,-36],[53,-22],[50,-14],[33,-13],[45,-34],[74,-43],[49,-36]],[[1830,1482],[63,17],[62,24]],[[1676,1518],[75,-29],[79,-7]],[[2398,1258],[28,2],[22,34],[3,43],[-4,29],[0,29],[8,12],[9,11],[20,62]],[[2657,1060],[-9,-53],[-44,-46]],[[2026,980],[-145,12],[-103,51]],[[2604,961],[-124,12],[-154,23],[-147,38],[-96,4]],[[2083,1038],[-57,-58]],[[2657,1060],[-29,70],[7,26],[11,22],[2,55],[10,38],[3,39],[-5,38],[2,38],[-6,66],[-52,21],[-59,11]],[[2541,1484],[-57,-4]],[[1676,1518],[-32,-39],[-15,-51],[-37,-42],[-84,-23],[-24,-43],[6,-62],[78,-73],[133,-54],[77,-88]],[[541,3248],[119,-24]],[[441,3204],[36,4],[30,27],[34,13]],[[399,3208],[42,-4]],[[360,3194],[39,14]],[[779,3210],[26,4],[32,25],[31,29],[41,20],[91,31],[20,26],[18,33],[-2,19],[-49,5],[-20,8],[-48,11],[-45,24],[-19,58],[-20,127],[-23,57]],[[660,3224],[119,-14]],[[906,2743],[2,58],[26,48],[16,39],[-23,27],[-31,13],[-28,20],[-13,17],[-10,19],[-3,26],[1,25],[-48,64],[-125,2],[-39,20],[6,53],[23,50]],[[334,3704],[25,-137],[-6,-137],[-23,-54],[-9,-31],[-3,-30],[15,-63],[27,-58]],[[52,3075],[-44,5],[-8,4]],[[360,3194],[-27,-41],[-32,-34],[-82,-19],[-39,-19],[-42,-5]],[[138,3076],[-43,4]],[[95,3080],[-43,-5]],[[812,3687],[117,58],[30,7],[29,4],[44,12],[22,54],[26,10],[32,1],[31,10],[77,65],[56,32]],[[2302,3740],[-4,-32],[-12,-32],[17,-93],[-28,-18],[-31,-14],[-25,-16],[-23,-19],[-47,-26],[-106,-35],[-22,-50],[26,-30],[15,-26],[18,-19],[62,-10],[24,-8],[21,-15],[12,-16],[10,-20],[12,-10],[15,-4],[28,-12],[19,-29],[18,-37],[21,-34]],[[2115,4045],[14,-72],[38,-55],[27,-18],[21,-26],[15,-36],[21,-31],[30,-29],[21,-38]],[[2278,3099],[24,13],[20,23]],[[2258,3099],[20,0]],[[2189,3059],[27,9],[16,22],[17,7],[9,2]],[[2135,3069],[54,-10]],[[2226,2705],[23,37],[7,44],[-2,127],[8,25],[10,7],[-104,41],[-59,72],[26,11]],[[2800,3161],[-34,8],[-79,1]],[[2687,3170],[-224,-63]],[[2872,3151],[-39,17]],[[2833,3168],[-33,-7]],[[2463,3107],[-141,28]],[[2931,2977],[-25,10],[-11,10],[-11,35],[0,22],[4,44],[-16,53]],[[3348,2847],[-67,10],[-4,15],[-5,13],[-46,11],[-65,30],[-22,28],[-16,35],[-24,17],[-15,0],[-24,10],[-10,8],[-23,5]],[[3027,3029],[-49,-20],[-47,-32]],[[3702,2846],[-1,0],[-11,9],[-29,7]],[[3661,2862],[-130,-30]],[[3531,2832],[-56,7],[-54,17]],[[3421,2856],[-73,-9]],[[2029,4031],[43,10],[43,4]],[[1979,4037],[50,-6]],[[1781,3729],[33,49],[1,42],[14,37],[29,29],[19,38],[-5,40],[10,36],[22,20],[25,12],[50,5]],[[1276,3940],[57,-32],[90,-13],[26,-10],[6,-30],[-19,-33],[-10,-80],[50,-43]],[[1661,3779],[57,-16],[63,-34]],[[1476,3699],[67,25],[62,40],[56,15]],[[1276,3940],[10,37],[70,79],[17,9],[14,13],[7,18]],[[2115,4045],[26,51]],[[590,3657],[-61,19],[-62,2],[-30,16],[-45,50],[-22,8]],[[370,3752],[-5,-3],[-9,-9],[4,-23],[-11,-12],[-15,-1]],[[812,3687],[-15,-3],[-29,-9]],[[768,3675],[-75,0]],[[693,3675],[-36,-6],[-36,-11],[-31,-1]],[[192,3724],[-44,5],[-148,59]],[[334,3704],[-35,58],[-50,33]],[[249,3795],[-22,-17],[-9,-38],[-11,-12],[-15,-4]],[[812,3687],[-11,59],[9,63],[-46,114],[-8,66],[-18,62],[-20,45]],[[4096,3769],[-39,-18],[36,-33],[-8,-19],[-78,-16],[-39,26],[-45,-42],[-103,-129],[-2,-104],[-49,-62]],[[3834,4096],[-14,-74],[-62,-82],[-96,34],[-79,-17],[-56,26],[-201,14],[-20,-23],[-51,3],[18,-43],[-40,-63]],[[3235,3873],[-105,-174],[2,-66],[-39,-42],[10,-89],[112,-49],[83,-97],[268,-113],[108,-5],[64,88]],[[3738,3320],[0,6]],[[3800,4008]],[[3738,3320],[0,6]],[[3969,2937],[-293,301],[62,88]],[[3771,3144]],[[2735,1607],[-19,-3],[-62,3],[-14,9],[-4,8],[-12,1],[-13,-1],[-11,1],[-8,7],[2,7],[6,9],[6,10],[0,5],[-8,8],[-5,7],[-5,3],[-8,-4],[-3,6],[-2,3],[-3,2],[-7,2],[5,25],[5,0],[2,-4],[5,-5],[3,-4],[0,9],[1,2],[4,1],[5,1],[-7,14],[-3,5],[-10,-6],[-10,1],[-9,3],[-11,2],[5,7],[-4,7],[1,4],[5,1],[8,1],[-4,2],[-4,4],[-4,6],[-3,7],[7,6],[-2,4],[-6,-1],[-9,-29],[-12,-3],[-15,4],[-13,7],[-2,-24],[-5,-9],[-13,-6],[-7,4],[-53,-5],[-3,3],[-18,28],[-8,6],[-39,6],[-10,8],[-6,13],[-6,-5],[-13,-4],[-6,-3],[-4,-5],[-2,-5],[-4,-5],[-5,-4],[-14,-3],[-11,4],[-9,8],[-6,10],[2,0],[1,6],[0,7],[-3,6],[-7,2],[-6,-3],[-7,-6],[-21,-11],[-10,0],[-9,11],[-10,-9],[-15,-7],[-16,-3],[-14,0],[-6,19],[7,10],[29,10],[9,8],[13,27],[8,10],[14,2],[7,2],[4,5],[-3,5],[-5,6],[-4,8],[2,10],[9,5],[51,2],[-4,5],[-4,3],[-5,2],[-2,2],[-5,20],[-7,10],[-9,21],[-6,10],[2,16],[21,15],[97,39],[14,3],[20,1],[45,10],[17,10],[11,-4],[39,-7],[6,-6],[14,-1],[50,10],[14,1],[9,-4],[9,-6],[11,-1],[99,18],[23,12],[28,23],[10,3],[5,6],[9,28],[8,10],[-9,6],[-12,2],[-24,-1],[1,1],[-1,3],[-2,2],[-3,0],[-3,-3],[-2,-8],[-5,-4],[-10,-11],[24,2],[3,-14],[-13,-12],[-24,6],[-6,8],[-7,12],[-5,12],[-2,9],[-2,22],[4,5],[28,3],[8,3],[7,4],[10,5],[13,1],[30,-8],[12,3],[8,6],[8,6],[9,4],[12,2],[12,-1],[20,-6],[-1,6],[-2,13],[-2,6],[5,0],[3,-8],[6,-4],[7,-2],[10,1],[0,10],[2,6],[5,3],[10,-1],[2,1],[5,3],[3,4],[4,4],[6,2],[2,-1],[3,-2],[3,-2],[48,-3],[46,-11],[27,1],[8,-1],[5,-4],[12,-11],[8,-5],[6,4],[7,-4],[13,-12],[-3,-1],[-3,-1],[-2,-1],[-3,-4],[11,-7],[-14,-1],[-32,-11],[-36,-1],[-9,-5],[-2,-4],[-8,-22],[-14,-13],[-13,-3],[-10,1],[-9,-2],[-8,-8],[-13,0],[-12,-8],[-9,-12],[-7,-13],[-4,0],[-11,17],[-22,4],[-23,-9],[-9,-27],[1,-18],[-4,-8],[-10,-3],[-12,-2],[-12,-4],[-11,-6],[-7,-8],[-3,-4],[-1,-4],[-1,-6],[0,-8],[-2,-10],[-4,-4],[-4,-4],[-5,-4],[-12,-20],[-6,-14],[-2,-14],[-7,-18],[-16,-11],[-37,-12],[0,-8],[5,0],[8,9],[17,6],[38,5],[11,-4],[6,-9],[12,-23],[8,-6],[11,-5],[12,-4],[9,-1],[33,-25],[6,-53],[-13,-43],[-29,0],[-29,-21],[-5,-2],[-5,-7],[-21,-18],[-6,-3],[-10,-3],[-7,-6],[-4,-10],[-2,-13],[2,-15],[4,-8],[-2,-4],[-14,-5]],[[691,4096],[-17,-11],[-33,-9],[-17,-11],[-26,-10],[-17,-4],[-22,-8],[-12,-2],[-29,5],[-22,14],[-39,36],[234,0]],[[436,4096],[-45,-15],[-12,-8],[-14,2],[-13,6],[-19,15],[103,0]],[[4096,3646],[-5,0],[-15,8],[-9,12],[5,16],[11,8],[13,4],[0,-48]],[[4096,3720],[-3,3],[-7,4],[-6,5],[-3,11],[1,12],[2,8],[6,3],[10,-1],[0,-45]],[[347,1956],[7,0],[1,-17],[-11,-29],[-21,-21],[-24,-8],[-24,7],[-4,5],[-6,10],[-5,4],[-8,2],[-8,0],[-6,1],[-3,7],[-7,6],[-48,-9],[-17,6],[-9,1],[0,-3],[-31,-22],[-93,-31],[-30,0],[0,32],[23,11],[14,19],[30,21],[8,17],[0,10],[-1,10],[-4,18],[0,4],[2,4],[0,5],[-2,7],[-3,1],[-10,-1],[-2,3],[-6,14],[-14,-4],[-16,-10],[-14,-3],[-2,5],[-3,12],[0,36],[4,-3],[7,-9],[5,-11],[4,-12],[5,0],[9,9],[11,-3],[10,-7],[8,-4],[12,0],[10,2],[8,4],[6,9],[10,18],[1,2],[3,3],[14,1],[6,2],[13,15],[4,8],[4,13],[5,17],[2,13],[-1,24],[-4,12],[-8,14],[-1,10],[13,0],[15,-17],[2,-28],[-5,-29],[-7,-23],[21,-4],[18,1],[36,10],[17,1],[35,-3],[18,2],[-27,-13],[-106,-8],[-12,-3],[-5,-2],[-8,-7],[-5,-6],[-5,-5],[-24,-2],[-5,-3],[-5,-6],[-23,-35],[-3,-11],[-1,-8],[1,-8],[7,-24],[3,-6],[11,-11],[11,-8],[18,-6],[33,-8],[58,6],[15,-4],[21,-18],[16,-3],[52,17],[8,5],[4,11],[8,9]],[[691,4096],[-17,-11],[-33,-9],[-17,-11],[-26,-10],[-17,-4],[-22,-8],[-12,-2],[-29,5],[-22,14],[-39,36]],[[436,4096],[-45,-15],[-12,-8],[-14,2],[-13,6],[-19,15]],[[4096,3646],[-5,0],[-15,8],[-9,12],[5,16],[11,8],[13,4]],[[4096,3720],[-3,3],[-7,4],[-6,5],[-3,11],[1,12],[2,8],[6,3],[10,-1]],[[347,1956],[7,0],[1,-17],[-11,-29],[-21,-21],[-24,-8],[-24,7],[-4,5],[-6,10],[-5,4],[-8,2],[-8,0],[-6,1],[-3,7],[-7,6],[-48,-9],[-17,6],[-9,1],[0,-3],[-31,-22],[-93,-31],[-30,0]],[[0,1897],[23,11],[14,19],[30,21],[8,17],[0,10],[-1,10],[-4,18],[0,4],[2,4],[0,5],[-2,7],[-3,1],[-10,-1],[-2,3],[-6,14],[-14,-4],[-16,-10],[-14,-3],[-2,5],[-3,12]],[[0,2076],[4,-3],[7,-9],[5,-11],[4,-12],[5,0],[9,9],[11,-3],[10,-7],[8,-4],[12,0],[10,2],[8,4],[6,9],[10,18],[1,2],[3,3],[14,1],[6,2],[13,15],[4,8],[4,13],[5,17],[2,13],[-1,24],[-4,12],[-8,14],[-1,10],[13,0],[15,-17],[2,-28],[-5,-29],[-7,-23],[21,-4],[18,1],[36,10],[17,1],[35,-3],[18,2],[-27,-13],[-106,-8],[-12,-3],[-5,-2],[-8,-7],[-5,-6],[-5,-5],[-24,-2],[-5,-3],[-5,-6],[-23,-35],[-3,-11],[-1,-8],[1,-8],[7,-24],[3,-6],[11,-11],[11,-8],[18,-6],[33,-8],[58,6],[15,-4],[21,-18],[16,-3],[52,17],[8,5],[4,11],[8,9]],[[4096,1452],[-2,8],[2,6]],[[2735,1607],[-19,-3],[-62,3],[-14,9],[-4,8],[-12,1],[-13,-1],[-11,1],[-8,7],[2,7],[6,9],[6,10],[0,5],[-8,8],[-5,7],[-5,3],[-8,-4],[-3,6],[-2,3],[-3,2],[-7,2],[5,25],[5,0],[2,-4],[5,-5],[3,-4],[0,9],[1,2],[4,1],[5,1],[-7,14],[-3,5],[-10,-6],[-10,1],[-9,3],[-11,2],[5,7],[-4,7],[1,4],[5,1],[8,1],[-4,2],[-4,4],[-4,6],[-3,7],[7,6],[-2,4],[-6,-1],[-9,-29],[-12,-3],[-15,4],[-13,7],[-2,-24],[-5,-9],[-13,-6],[-7,4],[-53,-5],[-3,3],[-18,28],[-8,6],[-39,6],[-10,8],[-6,13],[-6,-5],[-13,-4],[-6,-3],[-4,-5],[-2,-5],[-4,-5],[-5,-4],[-14,-3],[-11,4],[-9,8],[-6,10],[2,0],[1,6],[0,7],[-3,6],[-7,2],[-6,-3],[-7,-6],[-21,-11],[-10,0],[-9,11],[-10,-9],[-15,-7],[-16,-3],[-14,0],[-6,19],[7,10],[29,10],[9,8],[13,27],[8,10],[14,2],[7,2],[4,5],[-3,5],[-5,6],[-4,8],[2,10],[9,5],[51,2],[-4,5],[-4,3],[-5,2],[-2,2],[-5,20],[-7,10],[-9,21],[-6,10],[2,16],[21,15],[97,39],[14,3],[20,1],[45,10],[17,10],[11,-4],[39,-7],[6,-6],[14,-1],[50,10],[14,1],[9,-4],[9,-6],[11,-1],[99,18],[23,12],[28,23],[10,3],[5,6],[9,28],[8,10],[-9,6],[-12,2],[-24,-1],[1,1],[-1,3],[-2,2],[-3,0],[-3,-3],[-2,-8],[-5,-4],[-10,-11],[24,2],[3,-14],[-13,-12],[-24,6],[-6,8],[-7,12],[-5,12],[-2,9],[-2,22],[4,5],[28,3],[8,3],[7,4],[10,5],[13,1],[30,-8],[12,3],[8,6],[8,6],[9,4],[12,2],[12,-1],[20,-6],[-1,6],[-2,13],[-2,6],[5,0],[3,-8],[6,-4],[7,-2],[10,1],[0,10],[2,6],[5,3],[10,-1],[2,1],[5,3],[3,4],[4,4],[6,2],[2,-1],[3,-2],[3,-2],[48,-3],[46,-11],[27,1],[8,-1],[5,-4],[12,-11],[8,-5],[6,4],[7,-4],[13,-12],[-3,-1],[-3,-1],[-2,-1],[-3,-4],[11,-7],[-14,-1],[-32,-11],[-36,-1],[-9,-5],[-2,-4],[-8,-22],[-14,-13],[-13,-3],[-10,1],[-9,-2],[-8,-8],[-13,0],[-12,-8],[-9,-12],[-7,-13],[-4,0],[-11,17],[-22,4],[-23,-9],[-9,-27],[1,-18],[-4,-8],[-10,-3],[-12,-2],[-12,-4],[-11,-6],[-7,-8],[-3,-4],[-1,-4],[-1,-6],[0,-8],[-2,-10],[-4,-4],[-4,-4],[-5,-4],[-12,-20],[-6,-14],[-2,-14],[-7,-18],[-16,-11],[-37,-12],[0,-8],[5,0],[8,9],[17,6],[38,5],[11,-4],[6,-9],[12,-23],[8,-6],[11,-5],[12,-4],[9,-1],[33,-25],[6,-53],[-13,-43],[-29,0],[-29,-21],[-5,-2],[-5,-7],[-21,-18],[-6,-3],[-10,-3],[-7,-6],[-4,-10],[-2,-13],[2,-15],[4,-8],[-2,-4],[-14,-5]],[[216,4096],[6,-1],[2,1]],[[3300,4096],[1,-1]],[[719,4096],[-1,-1]],[[652,4056],[30,16],[27,11],[9,12]],[[305,4096],[9,-6]],[[314,4090],[4,-3],[9,-19],[12,-8],[33,-11],[21,0],[33,7],[15,8],[21,-4],[37,-27],[15,-8],[45,4],[51,8],[42,19]],[[3682,3968],[6,23],[0,23],[9,23],[-9,8],[3,23],[12,11],[3,12],[-6,5]],[[3682,3968],[-12,7],[-12,0],[-63,-7],[-30,0]],[[1750,4096],[4,-24],[9,-16],[-9,-15],[-18,-12],[-9,-23],[-18,-15],[-12,-16],[-24,-7],[-18,-16],[-3,-8]],[[3721,3937],[-25,18]],[[3696,3955],[-2,1],[-12,12]],[[3280,3941],[-12,-8],[-12,-12],[-5,-9]],[[3251,3912],[-4,-10]],[[3565,3968],[-42,15],[-18,0],[-21,-8],[-39,0],[-27,4],[-36,12],[-18,4],[-24,-8],[-21,-23],[-21,-12],[-18,-11]],[[3249,3954],[-5,-25],[1,-13]],[[3245,3916],[2,-14]],[[3301,4095],[-9,-35],[12,-19],[-3,-8],[-36,-35],[-12,-30],[-4,-14]],[[1652,3944],[9,-26],[21,-20]],[[4050,3904],[-14,-13],[-7,-3]],[[4029,3888],[-20,-5],[-6,-4]],[[4096,3902],[-9,0],[-36,4],[-1,-2]],[[3989,3871],[-19,0],[-21,-15],[-24,-4],[-7,2]],[[3744,3926],[-23,11]],[[3918,3854],[-20,6],[-18,7],[-69,39],[-18,4],[-39,11],[-10,5]],[[4003,3879],[-6,-8],[-8,0]],[[4002,3854],[-2,-29],[6,-15],[2,-2]],[[4003,3879],[-1,-25]],[[4008,3808],[13,-14],[27,-15],[0,-12],[3,-19]],[[267,4096],[0,-9],[-3,-19],[-21,-46],[-21,-24],[-3,-11],[-21,-12],[-15,-15],[-12,-27],[-36,-23],[-21,-16],[-12,-11],[-9,-19],[-12,-16],[-51,-31],[-24,-38],[-6,-8]],[[4051,3748],[9,-27],[0,-12],[-6,-23],[-12,-8]],[[54,3646],[15,-6],[3,-8],[0,-15],[9,-4],[13,-4]],[[0,3676],[9,2],[15,0],[12,-7],[15,-23],[3,-2]],[[94,3609],[11,-4],[18,-27],[39,4],[9,-11]],[[3247,3902],[0,-27],[9,-42],[6,-35],[6,-39],[0,-19],[3,-38],[-3,-54],[-6,-27],[6,-12],[12,-11],[3,-16],[-18,-15],[-6,-16],[12,-7]],[[1577,3482],[-9,15],[0,23],[-12,35],[0,12],[6,11],[9,47],[39,50],[3,3],[0,27],[0,12],[18,27],[3,35],[6,11],[18,20],[0,34],[9,16],[0,19],[15,19]],[[3271,3544],[6,-20],[-15,-65],[-3,-12]],[[3271,3544],[24,-4],[36,-16],[15,-27],[12,-7],[18,3],[9,0],[21,-15],[15,-23],[21,-4],[42,8],[18,-16],[18,-4],[48,12],[30,4],[27,0],[12,-4]],[[614,3417],[2,-1]],[[193,3558],[11,-7],[16,-2]],[[171,3571],[12,-8],[10,-5]],[[220,3549],[8,-2],[24,0],[33,-3],[24,-12],[9,-8],[15,0],[15,-11],[36,-4],[6,-4],[33,0],[24,-8],[15,0],[49,-4],[12,-15],[21,-4],[21,-27],[36,-23],[13,-7]],[[3826,3440],[-9,-12],[-12,-8],[-12,-4]],[[4042,3678],[-6,-7],[-27,0],[-39,-12],[-30,-11],[-18,-8],[-18,-58],[-9,-15],[-15,-12],[-27,-31],[-3,-19],[3,-27],[-9,-12],[-18,-26]],[[3793,3416],[-15,-11],[-24,-27],[-15,0],[-9,-20]],[[3677,3418],[14,-29],[21,-19],[18,-12]],[[3637,3451],[18,-8],[21,-23],[1,-2]],[[4096,3772],[-15,3],[-18,-19],[-12,-8]],[[3730,3358],[-3,-15]],[[3727,3343],[-18,-11],[-45,-12],[-15,-4],[-59,11]],[[3590,3327],[-4,1]],[[2706,3351],[18,-4],[24,8],[24,-27],[36,-16],[21,8],[27,-8]],[[3434,3319],[-7,1],[-39,-8]],[[3586,3328],[-21,0],[-18,4],[-15,0],[-33,-20],[-15,-4],[-18,4],[-32,7]],[[4096,3622],[-24,14],[-18,12],[-9,11],[-3,19]],[[3727,3343],[-9,-46],[-3,-31]],[[3744,3268],[-11,-2],[-18,0]],[[3793,3416],[6,-15],[1,-16]],[[3800,3385],[2,-30],[-6,-39],[-9,-23],[-6,-12],[-24,-11],[-13,-2]],[[2856,3312],[27,0],[21,-11],[30,-23],[15,0],[24,-12],[27,0],[33,8],[30,4],[48,0]],[[616,3416],[3,-3]],[[619,3413],[24,-24],[6,-11],[15,-8],[21,-4],[33,-19],[21,0],[12,-23],[9,-8],[3,-15],[6,-12],[-6,-19],[3,-8]],[[3388,3312],[-7,-2]],[[3381,3310],[-14,-5],[-36,-24],[-57,-38],[-15,-8]],[[3259,3447],[-36,-58],[-15,-11],[-10,-20],[-24,-26],[-12,-8],[-27,-12],[-6,-4],[0,-15],[24,-15],[18,-12],[21,-4],[43,-11],[24,-16]],[[2514,3223],[21,-3],[18,4],[39,27],[21,3],[9,8],[9,16]],[[2349,3324],[6,-8],[18,-4],[15,20],[12,0],[6,-24],[12,-7],[18,-4],[30,-27],[9,-19],[12,-24],[24,-3],[3,-1]],[[2631,3278],[6,11],[9,12],[36,15],[12,12],[12,23]],[[2349,3324],[-15,-4],[-9,-12],[-34,-3],[-63,-20],[-15,-7],[-15,-4],[-30,-12],[-33,-8],[-27,-3],[-15,-8],[-45,-8],[-27,-15]],[[3259,3235],[-39,-19]],[[3111,3278],[9,-24],[0,-34],[0,-12],[15,0],[21,12],[15,4],[49,-8]],[[766,3262],[15,-27],[21,-11],[12,-16],[27,-8]],[[1817,3170],[42,23],[24,7],[60,12],[60,4],[18,4]],[[955,3116],[21,23],[30,7],[39,4],[45,0],[60,-7]],[[841,3200],[18,-19],[12,-27],[9,-8],[27,-7],[15,0],[24,-8],[9,-15]],[[3397,3096],[-39,16],[-15,11],[-2,2]],[[3341,3125],[-25,21],[-48,43],[-48,27]],[[1378,3096],[26,9]],[[1404,3105],[8,3],[39,15],[9,8],[15,23],[15,12],[54,7],[24,8],[21,0],[45,-15],[18,-4],[45,19],[33,0],[18,-4],[24,-19],[6,0],[39,12]],[[1378,3096],[13,23],[2,16]],[[1393,3135],[4,19],[6,31],[6,12],[18,0],[21,15],[9,15],[9,54],[18,31],[36,43],[15,11],[24,16],[24,23],[18,31],[0,11],[-12,19],[-9,4],[-3,12]],[[1345,3092],[6,0],[27,4]],[[1150,3143],[45,0],[18,-16],[6,-4],[33,0],[36,-7],[48,-24],[9,0]],[[3717,3251],[-2,15]],[[3817,3062],[-33,34],[-15,23],[-21,16],[-30,31],[-9,19],[12,31],[0,11],[-4,24]],[[0,3006],[9,-2],[12,-12]],[[35,2980],[7,-7],[45,-35]],[[21,2992],[14,-12]],[[3817,3062],[24,-20],[36,-11],[24,-19],[39,-16],[6,-8],[36,-50]],[[87,2938],[9,-2]],[[96,2936],[21,-5],[30,3],[18,-3],[21,-12],[21,-19],[18,-8],[12,0],[21,-19],[36,-16],[27,-15],[30,-23],[21,-23],[3,-8]],[[3982,2938],[18,-11],[12,-27],[0,-39],[6,-23],[15,-8],[12,0],[15,-11],[24,-27],[12,-9]],[[3433,2757],[-13,38]],[[3399,3094],[-2,2]],[[3420,2795],[-5,16],[-6,23],[0,27],[12,19],[21,12],[15,15],[12,24],[-6,23],[-21,31],[-12,27],[-9,46],[-9,23],[-13,13]],[[955,3116],[-30,-50],[-15,-12],[-30,-15],[-39,-24],[-12,-19],[-15,-11],[-18,-8],[-21,0],[-24,8],[-21,-8],[-33,0],[-24,-4],[-15,-23],[-12,-12],[-18,-4],[-12,-19],[-24,-35],[-15,-23],[-6,-19],[12,-15],[0,-16],[-30,-23],[-30,-4],[-9,-19],[-6,-4],[-43,4],[-66,12],[-15,3],[-9,12]],[[3412,2751],[21,6]],[[3370,2746],[36,3],[6,2]],[[3661,2623],[0,3],[-6,12],[-19,10]],[[3442,2758],[-9,-1]],[[3636,2648],[-8,5],[-30,12],[-30,15],[-15,4],[-9,15],[0,27],[-9,16],[-15,15],[-12,4],[-42,0],[-24,-3]],[[3661,2564],[-3,16],[3,43]],[[3734,2526],[-29,0]],[[3705,2526],[-11,0],[-18,11],[-9,16],[-6,11]],[[3826,2503],[-21,-4],[-15,7],[-18,12],[-30,8],[-8,0]],[[99,2252],[-9,12],[6,34],[12,12],[18,11],[45,16],[6,8],[6,23],[6,19],[24,15],[12,27],[9,8],[27,12],[9,38],[9,58],[9,42],[6,16],[24,15],[6,8],[6,27],[3,8],[27,7],[18,8],[9,8],[0,15],[-21,23],[0,8],[12,16],[3,19],[-9,11],[3,12]],[[3956,2467],[-7,9],[-18,7],[-30,-7],[-14,-2]],[[3887,2474],[-19,-2],[-15,4],[-12,15],[-15,12]],[[4096,2263],[-3,1],[-15,19],[-6,27],[-15,15],[6,31],[-12,31],[-15,8],[-15,27],[-45,23],[-20,22]],[[3123,2171],[15,4],[45,15],[12,12],[6,15],[0,23],[-6,4],[-12,20],[6,23],[3,23],[13,19],[24,0],[18,19],[21,8],[36,23],[18,20],[21,11],[24,8],[12,8],[12,27],[6,27],[0,26],[-9,51],[-6,15],[-15,27],[-6,15],[6,8],[18,16],[0,15],[-15,27],[0,66]],[[2958,2248],[27,-4],[90,-11],[30,-12],[12,-15],[6,-35]],[[2655,2156],[21,31],[18,7],[24,0],[33,12],[39,0],[21,7],[15,0],[15,8],[24,4],[15,19],[9,8],[15,0],[15,-8],[21,0],[18,4]],[[814,2140],[6,0],[33,12]],[[853,2152],[4,1]],[[857,2153],[71,10],[51,20],[18,4],[36,-16],[27,-8],[36,-3],[27,3],[24,20],[36,7],[24,8],[27,15],[27,-7],[24,0],[12,-8],[18,-11],[15,-8],[33,-4],[28,0],[18,-12],[24,-3],[27,-16],[54,0],[42,-11]],[[1554,2041],[2,-13],[-6,-23]],[[1556,2133],[9,-8],[-3,-16],[-9,-42],[0,-15],[1,-11]],[[780,2166],[16,-10],[18,-16]],[[354,1982],[72,43],[6,7],[9,66],[6,11],[15,12],[25,31],[15,15],[36,-11],[36,7],[15,0],[18,8],[15,16],[27,11],[15,-4],[12,-4],[24,0],[24,-11],[18,4],[15,-12],[21,-4],[2,-1]],[[131,2226],[-14,14],[-2,2]],[[115,2242],[-16,10]],[[354,1982],[6,4],[-6,54],[0,35],[-6,7],[-27,12],[-9,4],[-6,27],[-9,4],[-45,4],[-45,7],[-6,4],[-9,27],[-12,16],[-12,26],[-9,4],[-27,8],[-1,1]],[[1550,2005],[0,-7],[23,-8]],[[1573,1990],[115,-35],[36,-23],[18,-8],[21,-4]],[[0,1832],[48,4],[24,0],[21,4],[18,23],[18,7],[18,0],[57,20],[21,4],[30,-4],[15,15],[15,31],[6,8],[48,27],[15,11]],[[4086,1822],[-23,-6]],[[4096,1824],[-10,-2]],[[3367,1928],[21,-23],[39,-46],[18,-8],[15,-27],[9,-11],[9,-4]],[[2655,2156],[-42,-43],[-6,-11],[-6,-20],[-18,-7],[-57,-16],[-27,-4],[-24,12],[-24,0],[-12,0],[-24,-8],[-42,-4],[-21,-7],[-15,0],[-24,-16],[-25,-7],[-30,-12],[-24,-15],[-12,-16],[-6,-23],[6,-15],[18,-27],[-3,-8],[-15,-12],[-9,0],[-15,-15],[-6,-19],[-15,-23],[-15,-20],[-30,-15],[-15,-16]],[[2904,1774],[30,19]],[[2934,1793],[30,31],[15,12],[15,4],[30,-4],[12,0],[27,11],[30,20],[15,11],[33,19],[33,4],[37,0],[15,4],[54,35],[12,0],[18,-8],[27,-4],[30,0]],[[2859,1838],[0,-2],[9,-12],[3,-15],[33,-35]],[[3123,2171],[-12,-15],[-45,-16],[-15,-11],[-21,-27],[-18,-12],[-30,-11],[-15,-8],[-12,-4],[-15,-12],[-15,-19],[-15,-11],[-9,-12],[-6,-15],[-12,-51],[-24,-46],[-6,-15],[0,-19],[6,-29]],[[1763,1920],[51,-3],[36,-8],[18,-12],[24,-23],[30,-15],[33,-12],[21,-11],[21,-23],[30,-35],[9,-8]],[[2036,1770],[9,-4],[24,8],[18,12],[15,7],[15,-4]],[[2117,1789],[12,-11],[6,-12],[30,-38]],[[4063,1816],[-15,0],[-23,-12]],[[4025,1804],[-7,-3],[-9,-12],[-3,-23],[-36,0],[-12,-7],[-6,-12],[0,-19],[-33,-12],[-21,0],[-15,8],[-24,11],[-33,20],[-30,0],[-12,-8],[-15,-15],[-24,-4],[-9,7],[-27,27],[-9,0],[-39,-11],[-9,0],[-33,19],[-42,12],[-3,15],[-24,4],[-18,-4],[-21,4],[-33,8]],[[2904,1750],[0,24]],[[2790,1628],[18,38],[27,15],[27,8],[24,8],[9,15],[9,23],[0,15]],[[2904,1774],[27,-14]],[[2931,1760],[3,-1],[3,-16],[12,-15],[-3,-16],[-9,-11],[-9,-31],[6,-19],[18,-12],[15,-27]],[[2165,1728],[15,-4],[30,8],[30,11],[15,4],[18,-8],[12,-11],[16,-4],[15,8],[27,-27],[42,-51],[15,-15],[15,-4],[15,0],[27,8],[30,15],[15,8],[15,-8],[36,-30],[30,-24],[33,-3],[18,-8],[30,-12],[18,4],[33,0],[27,-4],[15,8],[27,27],[6,12]],[[210,1716],[9,-11],[9,-15]],[[0,1793],[3,0],[24,16],[27,7],[27,-3],[27,-8],[9,-12],[3,-19],[9,-4],[27,-4],[42,-34],[12,-16]],[[228,1690],[21,-36],[3,-19],[0,-42],[12,-12],[18,-11],[6,-12]],[[3949,1558],[-6,-11],[-15,-43],[0,-15],[6,-12],[3,-4]],[[4063,1797],[0,-27],[-18,-31],[-3,-27],[-15,-31],[-21,-42],[-33,-31],[-24,-50]],[[3367,1458],[-18,46],[-33,0],[-18,12],[-12,15],[-18,35],[-12,19],[-15,12],[-12,7],[-46,4],[-15,4],[-30,16],[-30,11],[-15,4],[-33,-4],[-39,-8],[-30,-15],[-24,-4]],[[2002,1705],[-5,-8],[-2,-22]],[[1995,1675],[-1,-9],[-12,-8],[-27,-11],[-12,-8],[-15,-15],[-6,-23],[-9,-12],[-15,-8],[-15,-31],[-12,-15],[-36,-15],[-36,-8],[-6,-4],[-12,-31],[-18,-8],[-33,-27]],[[2036,1770],[-15,-38],[-15,-20],[-4,-7]],[[1730,1442],[-9,0],[-21,-11],[-21,4],[-18,7],[-18,16],[-18,8],[-24,-8],[-18,4],[-21,15],[-18,0],[-15,4],[-12,0],[-18,-15],[-21,-12],[-21,0],[-12,8],[-24,0],[-9,-4],[-25,-27],[-15,8],[-18,0]],[[787,1331],[24,7],[9,4],[27,12],[21,19],[9,0],[27,-4],[18,8],[21,4],[33,23],[15,23],[21,4],[27,8],[78,0],[18,3],[33,12],[9,0],[18,-15],[12,-4],[30,0],[18,-16],[18,0],[30,12],[24,19],[12,4],[15,-15]],[[586,1282],[6,-5],[18,-20]],[[288,1558],[18,-23],[18,-27],[9,-8],[48,-23],[30,-23],[66,-66],[46,-46],[30,-31],[33,-29]],[[610,1257],[9,4],[28,-6]],[[647,1255],[8,-1],[24,3],[12,16],[9,4],[15,19],[18,4],[54,31]],[[610,1257],[-3,-3],[-13,-7]],[[594,1247],[-17,-9],[-42,-8],[-76,-3],[-36,-20],[-27,-11],[-21,-4],[-30,0],[-18,-16],[-15,-3],[-9,-8],[-30,-54],[-15,-19],[-27,-20],[-27,-7],[-33,-16],[-51,-4],[-45,0],[-36,4],[-24,12],[-15,5]],[[3403,1038],[15,19],[6,15],[0,47],[15,30],[-9,35],[-3,46],[0,35],[-3,27],[-6,16],[-27,23],[-6,15],[9,15],[33,0],[15,4],[12,16],[-3,11],[-12,31],[-12,16],[-15,7],[-30,4],[-15,8]],[[610,1257],[15,-19],[0,-20]],[[625,1218],[0,-7],[-12,-42],[3,-12],[9,-8],[15,-11],[21,0],[24,-4],[18,-8],[18,-19],[15,-19],[33,-50],[18,-39],[15,-11],[12,-27],[3,-27],[9,-12],[12,-12]],[[3943,1034],[-21,4],[-27,11],[-30,-4],[-57,-3],[-42,-12],[-45,8],[-15,-4],[-27,4],[-15,-4],[-15,-58],[-3,-15],[-48,-20],[-15,-31]],[[3583,910],[-12,-11],[-15,0],[-30,8],[-15,7],[-12,16],[-3,11],[-6,20],[-15,19],[-12,8],[-33,11],[-27,4],[0,35]],[[3937,1473],[9,-1]],[[3946,1472],[12,-3],[9,-15],[15,-15],[51,0],[12,-8],[12,-12],[6,-31],[3,-15],[12,-12],[18,-11]],[[4096,974],[-9,17],[-24,27],[-15,12],[-42,19],[-27,0],[-12,-7],[-24,-8]],[[3015,810],[9,4],[15,4],[27,15],[15,-7],[30,0],[21,0],[36,15],[15,15],[6,43],[16,31],[12,11],[33,8],[15,12],[15,15],[6,15],[18,24],[12,7],[18,4],[33,0],[6,12],[6,4],[24,-4]],[[3015,810],[-9,4],[-12,27],[-15,4],[-75,-4],[-21,0],[-48,-23],[-30,-12],[-21,0],[-18,8],[-15,0],[-15,12],[-9,3],[-18,-11],[-30,4],[-18,15],[-27,-4],[-39,-11],[-12,-8],[-30,-23],[-9,-4],[-36,15],[-18,-11],[-6,-8]],[[2484,783],[-48,16],[-15,-8],[-15,-4],[-15,12],[-24,7],[-27,12],[-33,4],[-31,19],[-27,27]],[[838,910],[15,-15],[12,-31],[21,-11],[12,-8],[6,-16],[3,-23],[9,-15],[3,-19],[9,-12],[0,-15],[6,-16],[15,-15],[9,-16]],[[2249,868],[-33,-12],[-30,-23],[-15,-4],[-33,-3],[-18,-4],[-9,-8],[-24,-42],[-12,-12],[-21,-8],[0,-11],[-12,-12],[3,-11],[18,-12],[3,-15]],[[2066,691],[-9,0]],[[1000,668],[6,7],[18,12],[12,11],[15,0],[15,0],[15,12],[0,12],[21,7],[42,20],[24,26],[21,4],[27,23],[39,16],[45,0],[63,-8],[21,-15],[28,-12],[24,-15],[15,0],[12,-8]],[[958,698],[27,-15],[15,-15]],[[1463,760],[12,-11],[18,-35],[9,-8],[18,-8],[33,-7],[12,-16],[6,-27],[21,-15],[15,4],[27,4],[30,11],[27,4],[15,19],[9,4],[12,12],[15,-4],[24,0],[21,4],[15,7],[12,4],[21,-7],[12,3],[39,20],[63,-8],[27,-8],[15,4],[9,0],[9,-11],[9,-4],[18,4],[21,-4]],[[87,594],[0,27],[-3,20],[-9,46],[-3,42],[-12,35],[-12,31],[-15,27],[-9,7],[-15,39],[-3,19],[-6,12]],[[290,590],[-9,0]],[[281,590],[-8,0],[-72,4],[-39,-11],[-27,-8],[-21,0],[-21,8],[-6,11]],[[294,590],[-4,0]],[[294,590],[60,-7],[39,0],[21,0],[39,7],[27,0],[55,-11],[33,-4],[75,-8]],[[886,552],[39,50],[21,23],[21,31],[-3,19],[-6,23]],[[643,567],[30,-4],[87,-7],[84,0],[42,-4]],[[1111,517],[-66,12],[-159,23]],[[87,594],[-9,-4],[-33,-3],[-45,3]],[[1336,467],[-54,8],[-105,27],[-39,15],[-27,0]],[[1338,467],[14,-1]],[[1336,467],[2,0]],[[1352,466],[26,-3],[52,4],[42,8],[48,4],[45,7],[33,8],[48,4],[30,4],[54,-4],[30,4],[30,15],[27,4],[36,27],[30,4],[12,4],[15,4],[18,7],[18,16],[48,38],[42,35],[15,19],[6,16]],[[1338,464],[4,-12],[12,-12]],[[1336,467],[2,-3]],[[1345,429],[9,11]],[[1354,440],[12,-7]],[[1366,433],[0,-1],[52,-7],[33,-20],[21,-7],[15,0],[42,11],[27,0],[75,-15],[75,-12],[48,-11],[39,-8],[24,-8]],[[1342,422],[3,7]],[[1309,348],[18,46],[15,28]],[[3391,317],[-9,7],[-27,24],[-27,19],[-27,8],[-12,11],[-15,4],[-33,-4],[-46,12],[-30,7],[-30,0],[-15,8],[-27,-8],[-33,12],[-27,19],[-24,27]],[[2652,261],[-30,-14],[-1,0]],[[2621,247],[-14,-7],[-18,-8]],[[3009,463],[-45,-4],[-30,8],[-15,-4],[-9,-11],[-3,-31],[-15,-12],[-45,8],[-12,-8],[-18,-27],[-15,-15],[-12,0],[-12,-46],[-15,-4],[-3,-16],[-12,-11],[-57,0],[-27,-23],[-12,-6]],[[2337,525],[21,-16],[45,-3],[7,-6]],[[2410,500],[8,-6],[0,-11],[-12,-16],[-6,-11],[3,-31],[12,-31],[30,-23],[9,-16],[12,-31],[9,-15],[57,-58],[18,-8],[30,-11],[9,0]],[[294,590],[18,-23],[24,-38],[24,-46],[36,-54],[45,-66],[21,-23],[9,-16],[6,-27],[13,-34],[15,-27],[9,-12]],[[1817,355],[69,-27],[15,-19],[30,-58],[12,-19],[18,-23]],[[1961,209],[9,-8]],[[2054,174],[-33,12],[-3,4],[-33,7],[-15,4]],[[2664,74],[0,19],[-12,4],[-15,12],[-9,0],[-15,7],[-12,12],[-6,31],[0,27],[-6,46]],[[514,224],[36,-50],[18,-19],[33,-19],[30,-24],[12,-19],[9,-8],[24,0],[27,4],[9,0],[27,-27]],[[3736,28],[6,19],[-3,15],[-12,27],[-27,58],[-27,35],[-15,8],[-45,26],[-12,12],[-42,35],[-15,0],[-30,7],[-27,-7],[-30,0],[-27,-12],[-6,16],[-33,50]],[[1000,16],[27,8],[78,19],[87,27],[21,8],[12,11],[15,23],[18,31],[24,62],[12,38],[3,47],[12,58]],[[4096,68],[-12,2],[-15,-8],[-12,-15],[-42,-27],[-30,-8],[-9,-12]],[[3887,0],[-16,28],[-12,11],[-30,-19],[-15,0],[-15,0],[-12,15],[-15,0],[-36,-7]],[[2290,0],[-5,4],[-27,24],[-30,27],[-45,34],[-15,16],[-27,23],[-39,19],[-24,16],[-24,11]],[[739,62],[6,-7],[-6,-20],[12,-15],[29,-20]],[[992,0],[8,16]],[[2664,74],[-6,-27],[-6,-19],[-3,-28]],[[3736,28],[-18,-4],[-27,4],[-6,-16],[-15,-11],[-12,3],[-15,8],[-27,0],[0,-12]],[[2323,537],[8,-8],[6,-4]],[[2252,610],[15,-4],[9,-12],[12,-15],[35,-42]],[[2066,691],[15,-16],[6,-23],[33,-4],[24,-19],[12,4],[21,-4],[30,-12],[27,-7],[18,0]],[[4096,1623],[0,-1623],[-4096,0],[0,4096],[333,0],[19,-15],[13,-6],[14,-2],[12,8],[45,15],[21,0],[39,-36],[22,-14],[29,-5],[12,2],[22,8],[17,4],[26,10],[17,11],[33,9],[17,11],[3405,0],[0,-2473]],[[3463,2886],[55,24],[-27,43],[6,120],[130,-13],[-13,-81],[55,-12],[-26,-49],[41,22],[29,-27],[-18,-28],[13,-53],[-57,-83],[16,-54],[-63,-8],[-18,28],[29,29],[-71,21],[-15,43],[-5,-22],[-43,-7],[-18,107]],[[0,2480],[0,228],[71,-2],[4,-32],[-38,-14],[-34,-92],[19,-38],[61,-5],[40,-41],[-31,-133],[-56,55],[15,64],[-51,10]],[[3907,3912],[52,7],[8,-25],[11,15],[-31,29],[42,25],[104,-4],[-2,-57],[-6,40],[-33,9],[6,-38],[-19,-1],[-7,-18],[-37,14],[2,-31],[-17,20],[-19,-13],[37,-17],[-22,-31],[5,-10],[61,79],[54,-6],[0,-33],[-9,16],[-8,-11],[17,-12],[0,-82],[-7,27],[-39,12],[5,15],[32,-20],[6,29],[-52,29],[-38,-28],[13,-33],[-93,0],[12,29],[-23,14],[42,22],[-47,39]],[[3976,3901],[2,-4],[8,0],[4,-3],[-3,5],[2,2],[-13,0]],[[2630,225],[-12,28],[24,40],[16,-51],[-28,-17]],[[1364,407],[-32,22],[8,50],[26,-30],[-2,-42]],[[3055,614],[10,39],[38,3],[-18,-28],[-30,-14]],[[288,583],[-20,21],[-4,42],[31,-36],[-7,-27]],[[2347,533],[93,9],[1,-17],[-25,-25],[-97,0],[-16,42],[44,-9]],[[4096,874],[-22,10],[22,72],[0,-82]],[[1300,1238],[16,-52],[-41,-21],[-32,73],[57,0]],[[1867,1246],[-16,26],[26,15],[13,-8],[-23,-33]],[[636,1269],[24,-32],[-56,-31],[-25,104],[57,-10],[0,-31]],[[3921,1570],[72,-31],[-37,-15],[-11,-58],[-33,0],[8,83],[-56,-31],[57,52]],[[2253,929],[25,-45],[-81,-10],[8,42],[48,13]],[[2853,1840],[72,-21],[17,-52],[-33,-21],[-32,21],[-24,73]],[[4027,1885],[69,0],[-14,-87],[-48,0],[-73,52],[20,26],[28,-15],[0,41],[18,-17]],[[3872,1892],[40,-18],[0,-13],[-39,6],[-17,35],[16,-10]],[[1575,1985],[-45,8],[-12,34],[44,17],[13,-59]],[[821,2123],[-47,49],[75,16],[20,-26],[-48,-39]],[[4096,2173],[-22,6],[0,14],[22,10],[0,-30]],[[118,2214],[-3,28],[28,13],[-1,-17],[-24,-24]],[[110,2318],[1,76],[48,-4],[-26,-62],[-23,-10]],[[3895,2511],[82,-6],[-40,-73],[-51,37],[9,42]],[[3751,2577],[-18,-57],[-26,-1],[-13,48],[57,10]],[[3676,2622],[-18,1],[-37,17],[28,16],[37,-16],[-10,-18]],[[544,2383],[-13,-24],[-49,0],[0,31],[33,-10],[40,31],[-11,-28]],[[3427,2743],[-41,21],[57,52],[16,-41],[-32,-32]],[[97,3023],[54,-10],[-6,-68],[-74,-14],[-50,20],[25,52],[51,20]],[[3775,3138],[-18,5],[-29,53],[38,-17],[9,-41]],[[1405,3138],[-1,-49],[-34,-45],[-38,73],[73,21]],[[3419,3086],[-81,31],[14,39],[99,-7],[-32,-63]],[[612,3408],[16,62],[20,-36],[-36,-26]],[[54,3294],[-21,21],[5,31],[15,-17],[1,-35]],[[3418,3294],[-48,21],[8,62],[69,-39],[-29,-44]],[[3807,3470],[33,-52],[-33,-10],[-38,-125],[-67,-41],[-32,62],[-81,21],[56,73],[33,21],[32,-21],[41,10],[26,68],[30,-6]],[[73,3594],[-19,53],[40,0],[0,-52],[-21,-1]],[[1926,3715],[-12,-27],[-28,-1],[-4,22],[44,6]],[[3273,3895],[-56,43],[20,20],[52,-20],[9,-31],[-25,-12]],[[3713,3959],[46,-11],[-4,-23],[-45,2],[-16,32],[19,0]],[[1469,3803],[-32,10],[24,42],[8,-6],[0,-46]],[[109,4082],[-20,-53],[-35,-8],[16,31],[-30,38],[69,-8]],[[1607,4042],[12,26],[28,5],[-12,-26],[-28,-5]],[[252,4096],[-76,-42],[-35,42],[111,0]],[[321,4096],[-41,-34],[-7,7],[-4,27],[52,0]],[[215,3542],[-22,13],[-2,19],[38,-14],[-14,-18]],[[1995,1674],[-16,7],[-3,19],[27,5],[-8,-31]],[[213,1674],[-17,32],[44,30],[6,-26],[-33,-36]],[[0,248],[0,46],[18,-2],[-5,-56],[-13,12]],[[654,2642],[34,36],[131,-20],[74,-47],[-1,-49],[-144,15],[-94,65]],[[2513,3223],[115,58],[54,-44],[3,-31],[-143,-61],[-28,27],[-1,51]],[[3820,3247],[38,26],[114,42],[-36,-44],[28,14],[48,-47],[34,27],[-5,-22],[42,-27],[-20,-16],[33,-1],[0,-37],[-43,6],[14,-27],[-23,-27],[-103,73],[36,26],[36,-11],[-22,28],[-115,40],[-56,-23]],[[2162,3540],[42,43],[47,6],[22,111],[50,17],[-20,-45],[24,-31],[-34,-63],[37,-42],[-45,-33],[18,-11],[-141,48]],[[1072,3872],[30,12],[8,60],[23,12],[24,122],[26,-20],[104,11],[69,-65],[-5,-66],[-130,-53],[-47,4],[-25,-16],[6,-34],[-83,33]]]}