{"objects":{"water":{"type":"GeometryCollection","geometries":[{"type":"MultiPolygon","properties":{"source":"naturalearthdata.com","kind":"ocean","area":1576712559132672,"sort_rank":200,"min_zoom":0.0,"id":1},"arcs":[[[2],[3],[4],[5],[6],[7],[8],[9],[10],[11],[12],[13],[14],[15],[16],[17],[18],[19],[20],[21],[22],[23],[24],[25],[26],[27],[28],[29]],[[30]]]},{"type":"MultiLineString","properties":{"source":"naturalearthdata.com","kind":"ocean","sort_rank":205,"boundary":true,"min_zoom":0.0,"id":49},"arcs":[[31],[32],[33],[34],[35],[36],[37]]},{"type":"LineString","properties":{"source":"naturalearthdata.com","kind":"ocean","sort_rank":205,"boundary":true,"min_zoom":0.0,"id":1255},"arcs":[38]},{"type":"MultiLineString","properties":{"source":"naturalearthdata.com","kind":"ocean","sort_rank":205,"boundary":true,"min_zoom":0.0,"id":1719},"arcs":[[39],[40],[41]]},{"type":"LineString","properties":{"source":"naturalearthdata.com","kind":"ocean","sort_rank":205,"boundary":true,"min_zoom":0.0,"id":1720},"arcs":[42]},{"type":"LineString","properties":{"source":"naturalearthdata.com","kind":"ocean","sort_rank":205,"boundary":true,"min_zoom":0.0,"id":1721},"arcs":[43]},{"type":"LineString","properties":{"source":"naturalearthdata.com","kind":"ocean","sort_rank":205,"boundary":true,"min_zoom":0.0,"id":1722},"arcs":[44]},{"type":"LineString","properties":{"source":"naturalearthdata.com","kind":"ocean","sort_rank":205,"boundary":true,"min_zoom":0.0,"id":1724},"arcs":[45]},{"type":"LineString","properties":{"source":"naturalearthdata.com","kind":"ocean","sort_rank":205,"boundary":true,"min_zoom":0.0,"id":1725},"arcs":[46]},{"type":"LineString","properties":{"source":"naturalearthdata.com","kind":"ocean","sort_rank":205,"boundary":true,"min_zoom":0.0,"id":1726},"arcs":[47]},{"type":"LineString","properties":{"source":"naturalearthdata.com","kind":"ocean","sort_rank":205,"boundary":true,"min_zoom":0.0,"id":1727},"arcs":[48]},{"type":"MultiLineString","properties":{"source":"naturalearthdata.com","kind":"ocean","sort_rank":205,"boundary":true,"min_zoom":0.0,"id":3452},"arcs":[[49],[50]]}]},"buildings":{"type":"GeometryCollection","geometries":[]},"places":{"type":"GeometryCollection","geometries":[{"type":"Point","properties":{"source":"openstreetmap.org","kind":"locality","name":"Tyres\u00f6","kind_detail":"town","population":39437,"min_zoom":8.0,"id":337846684},"coordinates":[76,2418]},{"type":"Point","properties":{"kind":"locality","name":"\u00c5kersberga","kind_detail":"town","source":"openstreetmap.org","min_zoom":8.0,"name:ru":"\u041e\u043a\u0435\u0440\u0441\u0431\u0435\u0440\u0433\u0430","id":46686456,"population":28033},"coordinates":[38,3801]},{"type":"Point","properties":{"kind":"locality","name":"Vaxholm","kind_detail":"town","source":"openstreetmap.org","min_zoom":8.0,"name:ru":"\u0412\u0430\u043a\u0441\u0445\u043e\u043b\u044c\u043c","id":80275734,"population":4857},"coordinates":[146,3356]}]},"transit":{"type":"GeometryCollection","geometries":[]},"pois":{"type":"GeometryCollection","geometries":[{"type":"Point","properties":{"kind":"protected_area","protect_class":"25","area":18772100,"source":"openstreetmap.org","min_zoom":8.0,"tier":2,"id":-5385856,"osm_relation":true,"name":"Myttinge Skjutf\u00e4lt"},"coordinates":[582,3337]},{"type":"Point","properties":{"kind":"nature_reserve","name":"Fj\u00e4rdl\u00e5ng","area":191410000,"source":"openstreetmap.org","min_zoom":8.5,"tier":2,"id":-1463788,"osm_relation":true},"coordinates":[904,1173]},{"type":"Point","properties":{"kind":"nature_reserve","name":"Stora Nassa","area":113449000,"source":"openstreetmap.org","min_zoom":8.88,"tier":2,"id":-1463785,"osm_relation":true},"coordinates":[2754,3668]},{"type":"Point","properties":{"kind":"nature_reserve","name":"Tyresta naturreservat","area":101110000,"source":"openstreetmap.org","min_zoom":8.96,"tier":2,"id":-1463760,"osm_relation":true},"coordinates":[203,2135]},{"type":"Point","properties":{"kind":"nature_reserve","name":"Stor\u00f6-Bock\u00f6-L\u00f6ka\u00f6","area":232429000,"source":"openstreetmap.org","min_zoom":8.36,"tier":2,"id":-1463758,"osm_relation":true},"coordinates":[1999,3353]},{"type":"Point","properties":{"kind":"nature_reserve","name":"Sundby","area":194386000,"source":"openstreetmap.org","min_zoom":8.49,"tier":2,"id":-1463756,"osm_relation":true},"coordinates":[507,1001]},{"type":"Point","properties":{"kind":"nature_reserve","name":"Ut\u00f6","area":156929000,"source":"openstreetmap.org","min_zoom":8.64,"tier":2,"id":-1463748,"osm_relation":true},"coordinates":[61,971]},{"type":"Point","properties":{"kind":"nature_reserve","name":"G\u00e5l\u00f6","area":144807000,"source":"openstreetmap.org","min_zoom":8.7,"tier":2,"id":-1463746,"osm_relation":true},"coordinates":[29,1532]},{"type":"Point","properties":{"source":"openstreetmap.org","kind":"nature_reserve","name":"L\u00e5ngvikssk\u00e4r","area":147578000,"tier":2,"min_zoom":8.69,"id":103225779},"coordinates":[1529,1818]},{"type":"Point","properties":{"source":"openstreetmap.org","kind":"nature_reserve","name":"Svenska H\u00f6garna","area":102704000,"tier":2,"min_zoom":8.95,"id":103226666},"coordinates":[3540,3568]},{"type":"Point","properties":{"source":"openstreetmap.org","kind":"nature_reserve","name":"Biskops\u00f6","area":193345000,"tier":2,"min_zoom":8.49,"id":103227604},"coordinates":[1331,1532]},{"type":"Point","properties":{"source":"openstreetmap.org","kind":"nature_reserve","name":"Buller\u00f6","area":168522000,"tier":2,"min_zoom":8.59,"id":103228248},"coordinates":[1478,2103]}]},"boundaries":{"type":"GeometryCollection","geometries":[{"type":"LineString","properties":{"name:kg":"Suedi","name:ka":"\u10e8\u10d5\u10d4\u10d3\u10d4\u10d7\u10d8","name:ko":"\uc2a4\uc6e8\ub374","name:cv":"\u0428\u0432\u0435\u0446\u0438","name:cu":"\u0421\u0432\u0454\u043d\u044c\u0441\u043a\u043e","name:kl":"Svenskit Nunaat","name:cs":"\u0160v\u00e9dsko","name:tw":"Sweden","name:ki":"Sweden","name:co":"Svezia","name:kv":"\u0428\u0432\u0435\u0446\u0438\u044f","name:th":"\u0e1b\u0e23\u0e30\u0e40\u0e17\u0e28\u0e2a\u0e27\u0e35\u0e40\u0e14\u0e19","name:tl":"Suwesya","name:ce":"\u0428\u0432\u0435\u0446\u0438","name:ta":"\u0b9a\u0bc1\u0bb5\u0bc0\u0b9f\u0ba9\u0bcd","name:tg":"\u0428\u0432\u0435\u0442\u0441\u0438\u044f","name:ca":"Su\u00e8cia","name:te":"\u0c38\u0c4d\u0c35\u0c40\u0c21\u0c28\u0c4d","name:cy":"Sweden","name:qu":"Suwidsuyu","name:de":"Schweden","name:dz":"\u0f66\u0f74\u0f60\u0f72\u0f0b\u0f4c\u0f53\u0f0b","source":"openstreetmap.org","name:kn":"\u0cb8\u0ccd\u0cb5\u0cc0\u0ca1\u0ca8\u0ccd","name:dv":"\u0790\u07aa\u0788\u07a8\u0791\u07a6\u0782\u07b0","name:km":"\u179f\u17ca\u17bb\u1799\u17a2\u17c2\u178f","name:lv":"Zviedrija","name:lt":"\u0160vedija","name:uz":"Shvetsiya","name:kk":"\u0428\u0432\u0435\u0446\u0438\u044f","name:ur":"\u0633\u0648\u06cc\u0688\u0646","name:lb":"Schweden","name:la":"Suecia","name:lg":"Swiiden","name:uk":"\u0428\u0432\u0435\u0446\u0456\u044f","name:ug":"\u0634\u06cb\u06d0\u062a\u0633\u0649\u064a\u06d5","name:li":"Zwede","name:ln":"Sw\u00e9di","name:el":"\u03a3\u03bf\u03c5\u03b7\u03b4\u03af\u03b1","name:eo":"Svedujo","name:en":"Sweden","name":"Sverige","name:tk":"\u015ewesi\u00fda","name:ee":"Sweden","name:ku":"Sw\u00ead","name:eu":"Suedia","name:et":"Rootsi","name:es":"Suecia","name:ia":"Svedia","name:rm":"Svezia","name:az":"\u0130sve\u00e7","name:ie":"Svedia","name:id":"Swedia","name:ar":"\u0627\u0644\u0633\u0648\u064a\u062f","name:io":"Suedia","name:ak":"Sweden","name:am":"\u1235\u12ca\u12f5\u1295","name:it":"Svezia","name:an":"Suecia","name:ru":"\u0428\u0432\u0435\u0446\u0438\u044f","name:ab":"\u0428\u0432\u0435\u0446\u0438\u0430","name:af":"Swede","name:zu":"ISwidi","kind_detail":"2","name:ky":"\u0428\u0432\u0435\u0446\u0438\u044f","name:zh-yue":"\u745e\u5178","name:zh":"\u745e\u5178","name:so":"Iswiidhan","name:sm":"Sweden","name:sl":"\u0160vedska","name:sk":"\u0160v\u00e9dsko","name:ja":"\u30b9\u30a6\u30a7\u30fc\u30c7\u30f3","name:sh":"\u0160vedska","name:se":"Ruo\u0167\u0167a","name:sc":"Isvetzia","name:br":"Sveden","name:bs":"\u0160vedska","name:bm":"Swedi","name:bn":"\u09b8\u09c1\u0987\u09a1\u09c7\u09a8","name:bo":"\u0f66\u0f72\u0f0b\u0f5d\u0f7a\u0f0b\u0f51\u0f7a\u0f53\u0f0d","name:bi":"Sweden","name:sw":"Uswidi","name:be":"\u0428\u0432\u0435\u0446\u044b\u044f","name:su":"Sw\u00e9dia","name:bg":"\u0428\u0432\u0435\u0446\u0438\u044f","name:ss":"ISwideni","name:ba":"\u0428\u0432\u0435\u0446\u0438\u044f","name:sq":"Suedia","name:jv":"Sw\u00e9dia","name:sa":"\u0938\u094d\u0935\u0940\u0921\u0928","name:pt":"Su\u00e9cia","name:ps":"\u0633\u0648\u064a\u0689\u0646","name:oc":"Su\u00e8cia","min_zoom":8.0,"name:ro":"Suedia","name:zh-min-nan":"S\u016bi-ti\u00e1n","name:os":"\u0428\u0432\u0435\u0446\u0438","name:or":"\u0b38\u0b4d\u0b35\u0b3f\u0b21\u0b47\u0b28","name:pl":"Szwecja","sort_rank":262,"name:sr":"\u0428\u0432\u0435\u0434\u0441\u043a\u0430","osm_relation":true,"name:pa":"\u0a38\u0a35\u0a40\u0a21\u0a28","name:tr":"\u0130sve\u00e7","name:hi":"\u0938\u094d\u0935\u0940\u0921\u0928","name:he":"\u05e9\u05d1\u05d3\u05d9\u05d4","name:hy":"\u0547\u057e\u0565\u0564\u056b\u0561","name:ht":"Sy\u00e8d","name:hu":"Sv\u00e9dorsz\u00e1g","name:hr":"\u0160vedska","kind":"country","name:is":"Sv\u00ed\u00fej\u00f3\u00f0","name:yi":"\u05e9\u05d5\u05d5\u05e2\u05d3\u05df","name:iu":"\u1505\u1557\u1546\u146d","name:yo":"Sw\u00edd\u00ecn","name:mt":"\u017bvezja","alt_name:eo":"Svedio","name:ms":"Sweden","name:mr":"\u0938\u094d\u0935\u0940\u0921\u0928","name:my":"\u1006\u103d\u102e\u1012\u1004\u103a\u1014\u102d\u102f\u1004\u103a\u1004\u1036","official_name":"Konungariket Sverige","name:kw":"Swedherwyk","name:mg":"Soeda","name:vi":"Th\u1ee5y \u0110i\u1ec3n","name:ml":"\u0d38\u0d4d\u0d35\u0d40\u0d21\u0d7b","name:mn":"\u0428\u0432\u0435\u0434","name:mi":"Hu\u012btene","id":-52822,"name:mk":"\u0428\u0432\u0435\u0434\u0441\u043a\u0430","name:vo":"Sved\u00e4n","name:fa":"\u0633\u0648\u0626\u062f","name:rw":"Suwede","name:fi":"Ruotsi","name:fo":"Sv\u00f8r\u00edki","name:fr":"Su\u00e8de","name:fy":"Sweden","int_name":"Sweden","name:nl":"Zweden","name:na":"Widen","name:ne":"\u0938\u094d\u0935\u0940\u0921\u0947\u0928","name:wa":"Suwedwesse","name:wo":"Suweed","name:ga":"An tSualainn","name:gd":"An t-Suain","name:gn":"Suesia","name:gl":"Suecia","maritime_boundary":true,"name:gv":"Yn Toolynn","name:gu":"\u0ab8\u0acd\u0ab5\u0abf\u0aa1\u0aa8","name:tt":"\u0428\u0432\u0435\u0446\u0438\u044f"},"arcs":[0]},{"type":"LineString","properties":{"kind":"region","name":"Stockholms l\u00e4n","sort_rank":256,"kind_detail":"4","min_zoom":8.0,"name:de":"Provinz Stockholm","source":"openstreetmap.org","maritime_boundary":true,"name:fi":"Tukholman l\u00e4\u00e4ni","name:ru":"\u0421\u0442\u043e\u043a\u0433\u043e\u043b\u044c\u043c","id":-54391,"osm_relation":true},"arcs":[1]}]},"roads":{"type":"GeometryCollection","geometries":[{"type":"LineString","properties":{"kind":"path","sort_rank":354,"landuse_kind":"urban_area","is_bicycle_related":true,"bicycle_shield_text":"Cykelsp\u00e5ret (9)","bicycle_network":"ncn","source":"openstreetmap.org","min_zoom":8.0,"kind_detail":"cycleway"},"arcs":[51]},{"type":"LineString","properties":{"source":"openstreetmap.org","kind":"ferry","name":"Stockholm - \u00c5land","sort_rank":355,"name:fi":"Ahvenanmaa - Tukholma","is_bicycle_related":true,"min_zoom":8.0},"arcs":[52]},{"type":"LineString","properties":{"kind":"ferry","name":"Travem\u00fcnde - Helsinki","sort_rank":355,"is_bicycle_related":true,"source":"openstreetmap.org","min_zoom":8.0,"name:ru":"\u0422\u0440\u0430\u0432\u0435\u043c\u044e\u0434\u0435-\u0425\u0435\u043b\u044c\u0441\u0438\u043d\u043a\u0438","id":121748383},"arcs":[53]},{"type":"LineString","properties":{"source":"openstreetmap.org","kind":"ferry","name":"Gustafsberg VII \u2013 Gustavsberg \u2194 Artipelago \u2194 Nybrokajen","sort_rank":355,"landuse_kind":"residential","min_zoom":8.0,"id":229564885},"arcs":[54]},{"type":"LineString","properties":{"kind":"major_road","network":null,"sort_rank":380,"kind_detail":"primary","bus_network":"SL","source":"openstreetmap.org","min_zoom":8.0,"bus_shield_text":"435","shield_text":"222","ref":"222","id":197132839},"arcs":[55]},{"type":"MultiLineString","properties":{"source":"openstreetmap.org","kind":"ferry","name":"Orn\u00f6-Dalar\u00f6","sort_rank":355,"min_zoom":8.0,"osm_relation":true,"id":-167725},"arcs":[[56],[57],[58],[59]]},{"type":"LineString","properties":{"source":"openstreetmap.org","kind":"ferry","name":"Stavsn\u00e4s \u2194 Styrsvik","sort_rank":355,"min_zoom":8.0,"id":241188671},"arcs":[60]},{"type":"LineString","properties":{"kind":"ferry","sort_rank":355,"landuse_kind":"nature_reserve","source":"openstreetmap.org","min_zoom":8.0,"ref":"12","id":-2919770,"osm_relation":true},"arcs":[61]},{"type":"LineString","properties":{"kind":"major_road","sort_rank":377,"kind_detail":"tertiary","is_bicycle_related":true,"bus_network":"SL","bicycle_shield_text":"Cykelsp\u00e5ret (9)","bicycle_network":"ncn","source":"openstreetmap.org","min_zoom":8.0,"bus_shield_text":"635","id":23984402},"arcs":[62]},{"type":"LineString","properties":{"source":"openstreetmap.org","kind":"ferry","name":"Stockholm - Mariehamn - Helsingfors","sort_rank":355,"name:fi":"Helsinki - Maarianhamina - Tukholma","is_bicycle_related":true,"min_zoom":8.0},"arcs":[63]},{"type":"MultiLineString","properties":{"source":"openstreetmap.org","kind":"ferry","name":"Saltsj\u00f6baden - N\u00e4md\u00f6","sort_rank":355,"min_zoom":8.0,"osm_relation":true,"id":-1223489},"arcs":[[64],[65],[66],[67],[68],[69],[70],[71],[72]]},{"type":"MultiLineString","properties":{"sort_rank":355,"source":"openstreetmap.org","min_zoom":8.0,"name":"Waxholmsbolaget","kind":"ferry"},"arcs":[[73],[74],[75],[76],[77],[78],[79],[80],[81],[82],[83],[84],[85],[86],[87]]},{"type":"LineString","properties":{"kind":"ferry","network":"Ressel rederi","sort_rank":355,"source":"openstreetmap.org","min_zoom":8.0,"all_networks":["Ressel rederi"],"all_shield_texts":["5"],"shield_text":"5","id":-5985546,"osm_relation":true,"name":"Nybroviken => Vaxholm"},"arcs":[88]},{"type":"MultiLineString","properties":{"bus_network":"SL","network":null,"sort_rank":380,"kind_detail":"primary","kind":"major_road","source":"openstreetmap.org","min_zoom":8.0,"bus_shield_text":"628C","shield_text":"276","landuse_kind":"urban_area","ref":"276"},"arcs":[[89],[90],[91]]},{"type":"LineString","properties":{"sort_rank":355,"source":"openstreetmap.org","min_zoom":8.0,"name":"Cinderella II - Strandv\u00e4gen \u2194 Hagede","kind":"ferry"},"arcs":[92]},{"type":"LineString","properties":{"source":"openstreetmap.org","kind":"ferry","name":"Gustafsberg VII \u2013 Gustavsberg \u2194 Artipelago \u2194 Nybrokajen","sort_rank":355,"min_zoom":8.0,"id":229564885},"arcs":[93]},{"type":"LineString","properties":{"kind":"path","sort_rank":354,"kind_detail":"cycleway","is_bicycle_related":true,"bicycle_shield_text":"Cykelsp\u00e5ret (9)","bicycle_network":"ncn","source":"openstreetmap.org","min_zoom":8.0},"arcs":[94]},{"type":"LineString","properties":{"bus_network":"SL","bicycle_shield_text":"Kustlinjen (26)","min_zoom":8.0,"bus_shield_text":"688","id":146379921,"network":null,"kind":"ferry","name":"Vaxholmsleden","sort_rank":355,"is_bicycle_related":true,"bicycle_network":"rcn","source":"openstreetmap.org","all_networks":[null],"shield_text":"274","ref":"274","all_shield_texts":["274"]},"arcs":[95]},{"type":"LineString","properties":{"source":"openstreetmap.org","kind":"ferry","name":"Mariehamn - Stockholm","sort_rank":355,"is_bicycle_related":true,"min_zoom":8.0},"arcs":[96]},{"type":"MultiLineString","properties":{"source":"openstreetmap.org","kind":"ferry","name":"Waxholmsbolaget","sort_rank":355,"landuse_kind":"nature_reserve","ref":"11","min_zoom":8.0},"arcs":[[97],[98],[99]]},{"type":"LineString","properties":{"kind":"ferry","name":"Tynning\u00f6f\u00e4rjan","sort_rank":355,"is_bicycle_related":true,"bicycle_shield_text":"Kustlinjen (25)","bicycle_network":"rcn","source":"openstreetmap.org","min_zoom":8.0,"ref":"AB 678","id":75479630},"arcs":[100]},{"type":"MultiLineString","properties":{"source":"openstreetmap.org","kind":"ferry","name":"Saltsj\u00f6baden - N\u00e4md\u00f6","sort_rank":355,"landuse_kind":"nature_reserve","min_zoom":8.0,"osm_relation":true},"arcs":[[101],[102],[103],[104],[105],[106],[107]]},{"type":"LineString","properties":{"kind":"ferry","network":"e-road","sort_rank":355,"source":"openstreetmap.org","min_zoom":8.0,"osm_relation":true,"shield_text":"20","all_shield_texts":["20"],"all_networks":["e-road"]},"arcs":[108]},{"type":"LineString","properties":{"source":"openstreetmap.org","kind":"ferry","name":"Nybroviken-Vaxholm","sort_rank":355,"min_zoom":8.0,"id":398314950},"arcs":[109]},{"type":"LineString","properties":{"kind":"ferry","name":"Stockholm - \u00c5land - Turku","sort_rank":355,"name:fi":"Turku - Ahvenanmaa - Tukholma","is_bicycle_related":true,"source":"openstreetmap.org","min_zoom":8.0,"name:sv":"Stockholm - \u00c5land - \u00c5bo","osm_relation":true},"arcs":[110]},{"type":"LineString","properties":{"sort_rank":355,"source":"openstreetmap.org","min_zoom":8.0,"kind":"ferry","name":"Dalar\u00f6 - Orn\u00f6"},"arcs":[111]},{"type":"MultiLineString","properties":{"bus_network":"SL","network":null,"sort_rank":380,"kind_detail":"primary","kind":"major_road","source":"openstreetmap.org","min_zoom":8.0,"bus_shield_text":"683","shield_text":"276","landuse_kind":"urban_area","ref":"276"},"arcs":[[112],[113]]},{"type":"LineString","properties":{"source":"openstreetmap.org","kind":"ferry","name":"Tallinn - Mariehamn - Stockholm","sort_rank":355,"is_bicycle_related":true,"min_zoom":8.0,"osm_relation":true},"arcs":[114]},{"type":"MultiLineString","properties":{"source":"openstreetmap.org","kind":"major_road","landuse_kind":"urban_area","sort_rank":380,"kind_detail":"primary","ref":"276","min_zoom":8.0},"arcs":[[115],[116],[117]]},{"type":"LineString","properties":{"bus_network":"SL","network":null,"sort_rank":380,"kind_detail":"primary","kind":"major_road","source":"openstreetmap.org","min_zoom":8.0,"bus_shield_text":"435C","shield_text":"222","ref":"222"},"arcs":[118]},{"type":"MultiLineString","properties":{"sort_rank":355,"source":"openstreetmap.org","min_zoom":8.0,"kind":"ferry"},"arcs":[[119],[120],[121],[122],[123],[124],[125],[126],[127],[128],[129],[130],[131],[132],[133],[134],[135],[136]]},{"type":"MultiLineString","properties":{"bus_network":"SL","network":null,"sort_rank":380,"kind_detail":"primary","kind":"major_road","source":"openstreetmap.org","min_zoom":8.0,"bus_shield_text":"432","shield_text":"222","ref":"222"},"arcs":[[137],[138],[139],[140]]},{"type":"LineString","properties":{"kind":"ferry","name":"Turku - \u00c5land - Stockholm","sort_rank":355,"name:fi":"Turku - Ahvenanmaa - Tukholma","source":"openstreetmap.org","min_zoom":8.0,"name:sv":"\u00c5bo - \u00c5land - Stockholm","osm_relation":true},"arcs":[141]},{"type":"LineString","properties":{"source":"openstreetmap.org","kind":"ferry","sort_rank":355,"min_zoom":8.0,"osm_relation":true,"id":-3103092},"arcs":[142]},{"type":"LineString","properties":{"osm_relation":true,"kind":"ferry","network":"Viking Line","sort_rank":355,"source":"openstreetmap.org","min_zoom":8.0,"all_networks":["Viking Line"],"shield_text":"U","all_shield_texts":["U"],"name":"Turku - Mariehamn - Stockholm"},"arcs":[143]},{"type":"LineString","properties":{"source":"openstreetmap.org","kind":"ferry","name":"Stockholm-Vaxholm-Linan\u00e4s-V\u00e4sbystrand","sort_rank":355,"min_zoom":8.0,"id":76086440},"arcs":[144]},{"type":"MultiLineString","properties":{"sort_rank":355,"landuse_kind":"nature_reserve","min_zoom":8.0,"kind":"ferry","source":"openstreetmap.org"},"arcs":[[145],[146],[147],[148],[149],[150],[151],[152],[153],[154],[155],[156],[157],[158]]},{"type":"LineString","properties":{"osm_relation":true,"kind":"ferry","network":"Viking Line","sort_rank":355,"source":"openstreetmap.org","min_zoom":8.0,"all_networks":["Viking Line"],"shield_text":"U","name:sv":"Stockholm - L\u00e5ngn\u00e4s - \u00c5bo","all_shield_texts":["U"],"name":"Stockholm - L\u00e5ngn\u00e4s - Turku"},"arcs":[159]},{"type":"MultiLineString","properties":{"sort_rank":355,"source":"openstreetmap.org","min_zoom":8.0,"name":"Turku - \u00c5land - Stockholm","kind":"ferry"},"arcs":[[160],[161]]},{"type":"LineString","properties":{"bus_network":"SL","network":null,"sort_rank":380,"kind_detail":"primary","kind":"major_road","source":"openstreetmap.org","min_zoom":8.0,"bus_shield_text":"474","shield_text":"222","ref":"222"},"arcs":[162]},{"type":"MultiLineString","properties":{"bus_network":"SL","sort_rank":380,"kind_detail":"primary","kind":"major_road","source":"openstreetmap.org","min_zoom":8.0,"bus_shield_text":"623H","landuse_kind":"urban_area","ref":"276"},"arcs":[[163],[164]]},{"type":"LineString","properties":{"source":"openstreetmap.org","kind":"ferry","name":"Str\u00f6mma Kanalbolaget s\/s Stockholm","sort_rank":355,"min_zoom":8.0,"id":31770886},"arcs":[165]},{"type":"LineString","properties":{"source":"openstreetmap.org","kind":"ferry","name":"Cinderella II - Strandv\u00e4gen \u2194 Hagede","sort_rank":355,"landuse_kind":"nature_reserve","min_zoom":8.0,"id":345360033},"arcs":[166]},{"type":"LineString","properties":{"source":"openstreetmap.org","kind":"ferry","name":"\u00c5rsta - Ut\u00f6","sort_rank":355,"landuse_kind":"nature_reserve","min_zoom":8.0,"id":30170778},"arcs":[167]},{"type":"LineString","properties":{"kind":"ferry","network":"Viking Line","sort_rank":355,"source":"openstreetmap.org","min_zoom":8.0,"all_shield_texts":["U"],"shield_text":"U","name:sv":"\u00c5bo - L\u00e5ngn\u00e4s - Stockholm","all_networks":["Viking Line"],"osm_relation":true,"name":"Turku - L\u00e5ngn\u00e4s - Stockholm"},"arcs":[168]},{"type":"MultiLineString","properties":{"bus_network":"SL","network":null,"sort_rank":380,"kind_detail":"primary","kind":"major_road","source":"openstreetmap.org","min_zoom":8.0,"bus_shield_text":"623H","shield_text":"276","landuse_kind":"urban_area","ref":"276"},"arcs":[[169],[170],[171]]},{"type":"MultiLineString","properties":{"source":"openstreetmap.org","kind":"ferry","network":"Waxholmsbolaget","sort_rank":355,"landuse_kind":"nature_reserve","min_zoom":8.0,"osm_relation":true},"arcs":[[172],[173]]},{"type":"LineString","properties":{"kind":"major_road","sort_rank":380,"kind_detail":"primary","bus_network":"SL","source":"openstreetmap.org","min_zoom":8.0,"bus_shield_text":"628C","landuse_kind":"urban_area","ref":"276","id":342483036},"arcs":[174]},{"type":"LineString","properties":{"kind":"ferry","name:en":"Stockholm - Mariehamn - Helsinki","name":"Stockholm - Mariehamn - Helsingfors","sort_rank":355,"name:fi":"Helsinki - Maarianhamina - Tukholma","is_bicycle_related":true,"source":"openstreetmap.org","min_zoom":8.0},"arcs":[175]},{"type":"MultiLineString","properties":{"kind":"highway","network":null,"sort_rank":383,"kind_detail":"motorway","source":"openstreetmap.org","min_zoom":8.0,"all_networks":[null],"shield_text":"222","ref":"222","all_shield_texts":["222"]},"arcs":[[176],[177],[178],[179],[180],[181],[182],[183]]},{"type":"MultiLineString","properties":{"kind":"ferry","name:lv":"R\u012bga-Stokholma","name":"Stockholm-Riga","sort_rank":355,"is_bicycle_related":true,"name:de":"F\u00e4hre Riga-Stockholm","source":"openstreetmap.org","min_zoom":8.0},"arcs":[[184],[185]]},{"type":"LineString","properties":{"source":"openstreetmap.org","kind":"ferry","name":"Stockholm - \u00c5land - \u00c5bo","sort_rank":355,"name:fi":"Turku - Ahvenanmaa - Tukholma","is_bicycle_related":true,"min_zoom":8.0},"arcs":[186]},{"type":"LineString","properties":{"source":"openstreetmap.org","kind":"ferry","sort_rank":355,"ref":"24","min_zoom":8.0,"osm_relation":true,"id":-2869756},"arcs":[187]},{"type":"MultiLineString","properties":{"source":"openstreetmap.org","kind":"ferry","network":"Waxholmsbolaget","sort_rank":355,"min_zoom":8.0,"osm_relation":true},"arcs":[[188],[189],[190],[191],[192],[193],[194]]},{"type":"LineString","properties":{"source":"openstreetmap.org","kind":"ferry","sort_rank":355,"ref":"26","min_zoom":8.0,"osm_relation":true},"arcs":[195]},{"type":"MultiLineString","properties":{"source":"openstreetmap.org","kind":"ferry","name":"Waxholmsbolaget","sort_rank":355,"landuse_kind":"nature_reserve","min_zoom":8.0},"arcs":[[196],[197],[198]]},{"type":"LineString","properties":{"kind":"ferry","name:lv":"R\u012bga-Stokholma","name":"Stockholm-Riga","sort_rank":355,"landuse_kind":"nature_reserve","is_bicycle_related":true,"name:de":"F\u00e4hre Riga-Stockholm","source":"openstreetmap.org","min_zoom":8.0,"id":140560773},"arcs":[199]},{"type":"MultiLineString","properties":{"source":"openstreetmap.org","kind":"ferry","sort_rank":355,"ref":"12","min_zoom":8.0,"osm_relation":true,"id":-2919770},"arcs":[[200],[201]]},{"type":"MultiLineString","properties":{"bus_network":"SL","network":null,"sort_rank":380,"kind_detail":"primary","kind":"major_road","source":"openstreetmap.org","min_zoom":8.0,"bus_shield_text":"429X","shield_text":"222","ref":"222"},"arcs":[[202],[203],[204],[205],[206]]},{"type":"MultiLineString","properties":{"kind":"major_road","network":null,"sort_rank":380,"kind_detail":"primary","source":"openstreetmap.org","min_zoom":8.0,"shield_text":"222","ref":"222"},"arcs":[[207],[208]]},{"type":"MultiLineString","properties":{"source":"openstreetmap.org","kind":"ferry","name":"Waxholmsbolaget","sort_rank":355,"ref":"11","min_zoom":8.0},"arcs":[[209],[210],[211]]},{"type":"LineString","properties":{"bus_network":"SL","sort_rank":377,"kind_detail":"tertiary","is_bicycle_related":true,"kind":"major_road","bicycle_shield_text":"Cykelsp\u00e5ret (9)","bicycle_network":"ncn","source":"openstreetmap.org","min_zoom":8.0,"bus_shield_text":"635","ref":"AB 973"},"arcs":[212]}]},"earth":{"type":"GeometryCollection","geometries":[{"type":"MultiPolygon","properties":{"sort_rank":10,"source":"naturalearthdata.com","min_zoom":0.0,"kind":"earth","area":56931507135},"arcs":[[[213]],[[214]],[[215]],[[216]],[[217]],[[218]],[[219]],[[220]],[[221]],[[222]],[[223]],[[224]],[[225]],[[226]],[[227]],[[228]],[[229]]]},{"type":"Point","properties":{"label_placement":true,"kind":"island","name":"V\u00e4rmd\u00f6","area":701937984,"source":"openstreetmap.org","min_zoom":8.0,"id":-5753911,"osm_relation":true},"coordinates":[965,3079]}]},"landuse":{"type":"GeometryCollection","geometries":[{"type":"MultiPolygon","properties":{"source":"openstreetmap.org","kind":"nature_reserve","tier":2,"area":1384199669,"sort_rank":23,"min_zoom":6.0,"osm_relation":true},"arcs":[[[230],[231]],[[232],[233],[234]],[[235]],[[236]]]},{"type":"MultiPolygon","properties":{"source":"openstreetmap.org","kind":"nature_reserve","tier":2,"area":618850486,"sort_rank":23,"min_zoom":7.0,"osm_relation":true},"arcs":[[[237]],[[238]],[[239],[240]],[[241],[242]]]},{"type":"MultiPolygon","properties":{"source":"naturalearthdata.com","kind":"urban_area","name":"","area":3198134723,"sort_rank":11,"min_zoom":4.0},"arcs":[[[243]]]},{"type":"MultiPolygon","properties":{"source":"openstreetmap.org","kind":"residential","tier":2,"area":38477903,"sort_rank":20,"min_zoom":8.0,"osm_relation":true},"arcs":[[[244]]]},{"type":"Polygon","properties":{"kind":"national_park","protect_class":"2","area":74647296,"sort_rank":18,"source":"openstreetmap.org","min_zoom":8.0,"tier":1,"id":-2411683,"osm_relation":true},"arcs":[[245]]},{"type":"Polygon","properties":{"kind":"nature_reserve","natural":"wood","area":12066200,"sort_rank":23,"source":"openstreetmap.org","min_zoom":8.0,"tier":2,"id":-1464358,"osm_relation":true},"arcs":[[246]]},{"type":"MultiPolygon","properties":{"source":"openstreetmap.org","kind":"nature_reserve","tier":2,"area":744170859,"sort_rank":23,"min_zoom":8.0},"arcs":[[[247]],[[248]],[[249]],[[250]]]},{"type":"Polygon","properties":{"kind":"protected_area","protect_class":"25","area":18772100,"sort_rank":17,"source":"openstreetmap.org","min_zoom":8.0,"tier":2,"id":-5385856,"osm_relation":true},"arcs":[[251]]},{"type":"MultiPolygon","properties":{"source":"openstreetmap.org","kind":"nature_reserve","tier":2,"area":519208261,"sort_rank":23,"min_zoom":6.0},"arcs":[[[252]],[[253]]]},{"type":"MultiPolygon","properties":{"source":"openstreetmap.org","kind":"nature_reserve","tier":2,"area":249024035,"sort_rank":23,"min_zoom":7.0},"arcs":[[[254]],[[255]]]},{"type":"MultiPolygon","properties":{"source":"openstreetmap.org","kind":"nature_reserve","tier":2,"area":1481564051,"sort_rank":23,"min_zoom":8.0,"osm_relation":true},"arcs":[[[256],[257]],[[258],[259],[260],[261]],[[262],[263]],[[264],[265],[266],[267],[268],[269]],[[270],[271],[272]],[[273]],[[274],[275]],[[276],[277],[278],[279],[280],[281],[282],[283],[284],[285],[286],[287],[288],[289],[290]],[[291],[292],[293],[294]],[[295]],[[296],[297],[298],[299],[300]]]}]}},"type":"Topology","transform":{"translate":[18.28125,58.8137417157],"scale":[0.0003433228,0.0001759219]},"arcs":[[[1697,0],[944,957],[802,992],[653,460]],[[1697,0],[944,957],[802,992],[653,460]],[[0,1611],[125,62],[-14,48],[-23,26],[-29,6],[-33,-9],[51,61],[105,60],[110,34],[63,-14],[33,-30],[28,22],[21,54],[8,67],[-13,53],[-31,3],[-77,-35],[0,39],[15,19],[9,17],[6,19],[10,22],[-56,-35],[-27,46],[-16,70],[-20,36],[-43,6],[-62,21],[-46,42],[1,68],[64,11],[265,-222],[-42,103],[-71,87],[-78,59],[-69,22],[-164,94],[0,97],[5,5],[99,-2],[0,39],[-21,45],[-28,45],[-33,39],[-22,16],[0,30],[29,36],[47,43],[51,24],[58,-2],[-6,-26],[-8,-68],[-6,-26],[77,-37],[243,37],[39,-3],[84,-26],[36,-28],[49,-27],[48,11],[46,24],[47,13],[152,9],[56,39],[22,86],[-41,95],[-91,50],[-101,32],[-66,38],[57,-7],[59,-25],[50,0],[33,71],[-199,117],[-5,21],[-11,76],[-5,19],[-76,70],[-76,34],[-168,13],[31,-98],[53,-55],[116,-80],[-139,0],[21,-79],[79,-193],[-35,-60],[-39,-10],[-87,28],[15,17],[30,42],[16,18],[-169,89],[-209,37],[-107,-44],[0,164],[76,-2],[89,67],[-58,7],[-72,24],[-35,36],[0,72],[4,20],[-4,4],[0,79],[23,-3],[41,36],[-64,50],[0,63],[186,-21],[101,19],[97,83],[130,176],[76,70],[298,0],[-17,-24],[-60,-69],[-25,-45],[-17,-44],[8,-19],[22,3],[13,-8],[10,-14],[18,-2],[20,6],[3,-7],[-17,-10],[-20,-2],[-15,-9],[-10,-22],[5,-27],[-2,-4],[-25,62],[-31,15],[-38,-3],[-31,-24],[-11,-44],[11,-27],[10,-24],[4,-57],[22,-54],[28,-47],[16,-52],[10,-49],[16,-34],[16,-2],[18,34],[31,20],[23,-6],[-7,189],[12,-48],[25,-17],[31,21],[10,60],[-32,114],[16,-3],[13,10],[-3,29],[15,3],[44,-31],[28,8],[13,54],[26,30],[29,13],[73,83],[153,74],[2777,0],[0,-4096],[-4096,0],[0,614],[21,11],[81,18],[-4,23],[-45,19],[-28,41],[11,27],[23,-4],[23,12],[23,21],[63,38],[43,53],[10,55],[-18,15],[-86,-60],[-46,-21],[-18,-15],[-26,-9],[-27,1],[0,772]],[[216,1149],[32,-39],[30,-12],[28,1],[14,21],[14,-1],[27,-11],[24,17],[19,31],[13,26],[9,23],[6,35],[0,36],[10,28],[8,38],[59,42],[81,145],[10,13],[8,25],[-4,32],[-9,14],[0,46],[-18,63],[-39,3],[-44,-29],[-50,-45],[-53,-64],[-119,-83],[-9,-27],[21,-17],[-7,-39],[-30,-34],[-26,-11],[-18,6],[-3,-22],[24,-43],[10,-35],[-24,-15],[-21,2],[-14,-20],[9,-44],[32,-56]],[[1356,1692],[-25,-36],[-30,-37],[14,-18],[14,-26],[8,3],[-5,33],[10,26],[16,0],[11,13],[12,22],[15,5],[2,25],[-10,11],[-32,-21]],[[964,1599],[34,57],[-56,-32],[-4,-11],[-17,-15],[-10,-25],[2,-29],[-2,-22],[8,-18],[23,5],[11,13],[3,21],[7,28],[1,28]],[[736,1396],[-21,-24],[-4,4],[-5,18],[-18,-18],[-12,-31],[-9,-114],[38,-5],[24,20],[14,45],[-5,38],[2,34],[30,41],[-4,15],[-12,-6],[-18,-17]],[[918,1800],[-36,21],[-40,-53],[15,-27],[24,18],[26,16],[11,25]],[[1035,2015],[37,37],[32,76],[1,15],[-15,-21],[-8,11],[-28,-17],[-38,-83],[19,-18]],[[1102,2064],[26,-15],[202,134],[35,42],[-18,9],[-81,12],[-34,15],[-39,-15],[-40,-54],[-33,-65],[-18,-63]],[[402,2258],[24,8],[-7,42],[-19,9],[-38,3],[40,-62]],[[968,2332],[5,57],[-57,-9],[-23,-37],[16,-7],[32,14],[5,-15],[22,-3]],[[787,2343],[78,106],[-133,-15],[-45,40],[-3,127],[67,-65],[63,-14],[150,5],[-259,172],[-179,55],[-341,6],[152,-75],[47,-42],[14,-28],[27,-73],[10,-15],[110,-35],[151,-133],[91,-16]],[[1286,2550],[26,-22],[16,3],[17,-1],[31,-16],[30,-25],[19,-5],[14,8],[7,11],[0,17],[3,17],[36,75],[22,29],[26,27],[9,35],[-22,27],[-18,5],[-20,10],[-41,7],[-53,-19],[-56,-53],[-41,-71],[-5,-59]],[[1810,2658],[56,-49],[19,7],[10,29],[-6,24],[-14,14],[-10,18],[-9,17],[-10,4],[-37,-5],[-7,-24],[8,-35]],[[1170,2766],[127,66],[43,46],[17,67],[-9,74],[-7,34],[-10,5],[-20,12],[-48,74],[-26,25],[-23,13],[-20,1],[-9,-14],[-119,3],[-27,-21],[31,-48],[13,-27],[31,-45],[36,-38],[18,-51],[4,-50],[6,-34],[-8,-18],[-18,-13],[-11,-41],[13,-25],[16,5]],[[1864,3215],[48,-35],[31,32],[-5,56],[-12,28],[-19,30],[-42,40],[-39,2],[-25,-32],[1,-39],[11,-16],[14,-15],[37,-51]],[[1701,3332],[-32,15],[-23,-38],[4,-37],[23,-19],[29,21],[11,21],[-12,37]],[[1921,3337],[21,-36],[24,9],[30,54],[25,24],[12,33],[-13,13],[-20,-3],[-32,29],[-32,-10],[-24,-25],[-2,-26],[2,-26],[9,-36]],[[1829,3434],[48,92],[-4,42],[-23,27],[-13,6],[-39,-9],[-73,-33],[-38,-87],[35,-90],[62,-9],[45,61]],[[140,3563],[-37,13],[-23,-23],[-13,-21],[5,-14],[-9,-34],[4,-16],[-2,-20],[31,-13],[68,23],[57,25],[-23,36],[-58,44]],[[236,3441],[33,-118],[42,-26],[124,-7],[2,34],[-143,46],[1,3],[46,-8],[21,5],[-2,24],[-24,25],[-43,1],[-32,23],[-25,-2]],[[2565,3856],[8,-5],[34,73],[-10,17],[-15,-28],[-13,-16],[-3,-23],[-1,-18]],[[1481,3792],[-17,-16],[2,-15],[-6,-10],[-4,18],[-23,19],[-107,-23],[-7,-17],[-7,-7],[-50,0],[-19,-9],[4,-21],[14,-14],[321,53],[6,19],[-3,24],[-30,11],[-74,-12]],[[1247,3673],[-10,-14],[-13,1],[-15,6],[-87,-12],[-51,-44],[-19,-48],[9,-18],[72,10],[17,18],[18,10],[29,-17],[57,5],[24,17],[-6,13],[-24,-2],[0,15],[62,17],[13,35],[-25,26],[-33,-4],[-18,-14]],[[3577,3605],[-29,-12],[2,-27],[34,-16],[2,14],[-9,41]],[[2738,3563],[-4,25],[-22,-4],[-16,-4],[0,-8],[8,-18],[13,-37],[20,1],[0,27],[1,18]],[[2151,3445],[-10,-16],[8,-14],[10,16],[-8,14]],[[1809,3084],[-27,-35],[-24,23],[-20,-8],[-14,-38],[-3,-53],[-10,-40],[-13,-25],[-1,-22],[12,-9],[56,23],[42,63],[1,32],[-24,15],[16,12],[25,1],[38,-3],[7,3],[-3,25],[-24,31],[-34,5]],[[1695,2791],[64,-2],[21,26],[25,10],[-19,11],[-59,2],[-36,-24],[4,-23]],[[1215,4096],[-15,-5],[-12,0],[-8,5],[35,0]],[[590,4096],[-76,-70],[-130,-176],[-97,-83],[-101,-19],[-186,21]],[[0,3706],[64,-50],[-41,-36],[-23,3]],[[0,3544],[4,-4],[-4,-20]],[[0,3448],[35,-36],[72,-24],[58,-7],[-89,-67],[-76,2]],[[0,3152],[107,44],[209,-37],[169,-89],[-16,-18],[-30,-42],[-15,-17],[87,-28],[39,10],[35,60],[-79,193],[-21,79],[139,0],[-116,80],[-53,55],[-31,98],[168,-13],[76,-34],[76,-70],[5,-19],[11,-76],[5,-21],[199,-117],[-33,-71],[-50,0],[-59,25],[-57,7],[66,-38],[101,-32],[91,-50],[41,-95],[-22,-86],[-56,-39],[-152,-9],[-47,-13],[-46,-24],[-48,-11],[-49,27],[-36,28],[-84,26],[-39,3],[-243,-37],[-77,37],[6,26],[8,68],[6,26],[-58,2],[-51,-24],[-47,-43],[-29,-36]],[[0,2827],[22,-16],[33,-39],[28,-45],[21,-45],[0,-39],[-99,2],[-5,-5]],[[0,2543],[164,-94],[69,-22],[78,-59],[71,-87],[42,-103],[-265,222],[-64,-11],[-1,-68],[46,-42],[62,-21],[43,-6],[20,-36],[16,-70],[27,-46],[56,35],[-10,-22],[-6,-19],[-9,-17],[-15,-19],[0,-39],[77,35],[31,-3],[13,-53],[-8,-67],[-21,-54],[-28,-22],[-33,30],[-63,14],[-110,-34],[-105,-60],[-51,-61],[33,9],[29,-6],[23,-26],[14,-48],[-125,-62]],[[435,2527],[110,-35],[151,-133],[91,-16],[78,106],[-133,-15],[-45,40],[-3,127],[67,-65],[63,-14],[150,5],[-259,172],[-179,55],[-341,6],[152,-75],[47,-42],[14,-28],[27,-73],[10,-15]],[[1093,3939],[73,83],[153,74]],[[1215,4096],[-15,-5],[-12,0],[-8,5]],[[888,4096],[-17,-24],[-60,-69],[-25,-45],[-17,-44],[8,-19],[22,3],[13,-8],[10,-14],[18,-2],[20,6],[3,-7],[-17,-10],[-20,-2],[-15,-9],[-10,-22],[5,-27],[-2,-4],[-25,62],[-31,15],[-38,-3],[-31,-24],[-11,-44],[11,-27],[10,-24],[4,-57],[22,-54],[28,-47],[16,-52],[10,-49],[16,-34],[16,-2],[18,34],[31,20],[23,-6],[-7,189],[12,-48],[25,-17],[31,21],[10,60],[-32,114],[16,-3],[13,10],[-3,29],[15,3],[44,-31],[28,8],[13,54],[26,30],[29,13]],[[1877,3526],[-4,42],[-23,27],[-13,6],[-39,-9],[-73,-33],[-38,-87],[35,-90],[62,-9],[45,61],[48,92]],[[1669,3347],[-23,-38],[4,-37],[23,-19],[29,21],[11,21],[-12,37],[-32,15]],[[1926,3296],[-19,30],[-42,40],[-39,2],[-25,-32],[1,-39],[11,-16],[14,-15],[37,-51],[48,-35],[31,32],[-5,56],[-12,28]],[[1150,2993],[18,-51],[4,-50],[6,-34],[-8,-18],[-18,-13],[-11,-41],[13,-25],[16,5],[127,66],[43,46],[17,67],[-9,74],[-7,34],[-10,5],[-20,12],[-48,74],[-26,25],[-23,13],[-20,1],[-9,-14],[-119,3],[-27,-21],[31,-48],[13,-27],[31,-45],[36,-38]],[[1502,2735],[-20,10],[-41,7],[-53,-19],[-56,-53],[-41,-71],[-5,-59],[26,-22],[16,3],[17,-1],[31,-16],[30,-25],[19,-5],[14,8],[7,11],[0,17],[3,17],[36,75],[22,29],[26,27],[9,35],[-22,27],[-18,5]],[[1266,2246],[-34,15],[-39,-15],[-40,-54],[-33,-65],[-18,-63],[26,-15],[202,134],[35,42],[-18,9],[-81,12]],[[595,1613],[0,46],[-18,63],[-39,3],[-44,-29],[-50,-45],[-53,-64],[-119,-83],[-9,-27],[21,-17],[-7,-39],[-30,-34],[-26,-11],[-18,6],[-3,-22],[24,-43],[10,-35],[-24,-15],[-21,2],[-14,-20],[9,-44],[32,-56],[32,-39],[30,-12],[28,1],[14,21],[14,-1],[27,-11],[24,17],[19,31],[13,26],[9,23],[6,35],[0,36],[10,28],[8,38],[59,42],[81,145],[10,13],[8,25],[-4,32],[-9,14]],[[117,883],[-46,-21],[-18,-15],[-26,-9],[-27,1]],[[0,614],[21,11],[81,18],[-4,23],[-45,19],[-28,41],[11,27],[23,-4],[23,12],[23,21],[63,38],[43,53],[10,55],[-18,15],[-86,-60]],[[7,3907],[-7,-19]],[[0,3121],[91,30],[352,-57],[44,29],[-6,178],[-159,207],[17,59],[112,97],[8,106],[134,170],[213,156]],[[4096,40],[-67,-40]],[[0,2773],[24,20]],[[512,2838],[4,0]],[[389,1573],[-155,32],[65,139],[66,47]],[[365,1791],[-5,4]],[[365,1791],[135,-36],[-111,-182]],[[389,1573],[1,-7]],[[1311,2651],[-77,35]],[[801,3445],[14,2]],[[7,3908],[-5,44]],[[0,3134],[84,29],[357,-65],[42,27],[-6,176],[-158,206],[15,62],[110,96],[7,107],[135,170],[215,154]],[[473,2163],[-200,206],[-42,-4],[74,53],[-11,105],[-69,73],[-123,49]],[[473,2163],[-3,3]],[[635,2001],[-48,8],[-82,138],[-32,16]],[[857,1996],[-71,-13]],[[1022,2007],[-60,-58],[13,-24],[-60,21]],[[1261,2141],[-61,-46],[7,-23],[-75,-4],[-32,-34],[-32,0],[3,19],[-25,-24]],[[1330,2166],[-16,-39],[-50,16]],[[1383,2245],[-25,-47]],[[1358,2268],[17,17],[6,-28]],[[799,3445],[-335,122]],[[464,3567],[-32,11],[-101,-6],[-134,-119],[2,-11]],[[199,3442],[22,-96],[-42,-80]],[[179,3266],[-20,-39]],[[159,3227],[-6,-12],[-72,-20],[-52,-70],[-29,-9]],[[0,3180],[30,33],[119,7],[10,7]],[[159,3227],[22,16],[-2,23]],[[179,3266],[0,11]],[[179,3277],[-1,16],[37,50]],[[215,3343],[-36,-66]],[[179,3277],[-31,-55],[-120,-6],[-28,-32]],[[215,3343],[-16,99]],[[199,3442],[-1,11],[142,113],[122,-12],[2,13]],[[464,3567],[15,72],[32,11],[33,-7],[17,-41],[26,17],[13,-63],[201,-111]],[[815,3447],[70,55],[11,81],[-31,26],[66,42]],[[0,3105],[12,0],[68,90],[84,36],[13,62],[-24,40],[35,-12],[57,29]],[[25,3789],[44,-8]],[[69,3783],[-23,6],[-12,2],[-8,0]],[[69,3781],[2,0]],[[0,3176],[32,34],[118,8],[81,173],[36,30],[4,69],[61,80],[99,6],[169,-52],[82,-96]],[[24,2793],[23,19],[142,-5],[2,70],[43,32],[57,-6]],[[7,3907],[0,1]],[[200,3333],[43,19]],[[790,4096],[-203,-154],[-135,-171],[-7,-106],[-111,-96],[-15,-62],[159,-206],[6,-176],[-43,-27],[-356,63],[-85,-29]],[[694,3411],[146,-66]],[[859,3337],[41,8]],[[1580,3738],[9,65]],[[379,3078],[26,45]],[[786,1983],[-151,18]],[[915,1946],[-45,15],[13,40],[-26,-5]],[[1046,2029],[-24,-22]],[[1264,2143],[-3,-2]],[[1358,2198],[-28,-32]],[[1336,2245],[22,23]],[[1381,2257],[2,-12]],[[790,4096],[-203,-154],[-135,-171],[-7,-106],[-111,-96],[-15,-62],[159,-206],[6,-176],[-43,-27],[-356,63],[-85,-29]],[[0,3105],[12,0],[68,90],[84,36],[13,62],[-24,40],[35,-12],[57,29]],[[0,3121],[91,30],[352,-57],[44,29],[-6,178],[-159,207],[17,59],[112,97],[8,106],[134,170],[205,156]],[[389,1573],[-155,32],[65,139],[61,51],[140,-40],[-110,-189]],[[0,3809],[10,-15],[15,-5]],[[26,3791],[-26,25]],[[790,4096],[-203,-154],[-135,-171],[-7,-106],[-111,-96],[-15,-62],[159,-206],[6,-176],[-43,-27],[-356,63],[-85,-29]],[[10,3795]],[[11,3794],[0,1]],[[27,3789],[0,2]],[[513,2839],[-96,-15]],[[80,896],[-36,-11],[-5,-67]],[[499,2133],[-226,236],[-42,-4],[74,53],[-11,105],[-69,73],[-123,49]],[[141,3215],[-61,-18],[-38,-46],[-42,-15]],[[0,3124],[92,24],[87,-24],[58,41],[-13,32],[-52,16],[6,46]],[[215,3343],[17,47],[80,70],[21,110],[109,96],[7,106],[132,167],[123,63],[63,-3],[48,97]],[[232,1008]],[[474,1096],[106,56]],[[595,1280],[-152,75],[51,-25],[23,44],[62,37],[-10,33],[26,44],[90,-26],[-52,133],[-43,46],[4,346],[-95,146]],[[499,2133],[88,-124],[48,-8]],[[786,1983],[71,13]],[[915,1946],[60,-21],[-13,24],[60,58]],[[1046,2029],[25,24],[-3,-19],[32,0],[32,34],[75,4],[-7,23],[61,46]],[[1789,3367],[-27,-30],[-35,16],[-18,-139],[28,-31],[-185,44],[-11,39],[-11,-30],[-50,10],[17,7],[-34,56],[9,29],[-1,4],[-19,15],[18,-27],[-56,-52],[16,-45],[-26,18],[-72,-52],[-96,6],[-20,-26]],[[1890,2650],[-4,52],[-39,-3],[-33,52],[-233,72],[-226,-71],[-121,-66]],[[1264,2143],[50,-16],[16,39]],[[1358,2198],[25,47]],[[1381,2257],[-6,28],[-17,-17]],[[1763,3578],[104,36],[23,-13],[-27,-28],[18,6],[21,-41],[-72,-71],[19,-35],[-17,-19]],[[417,2823],[6,4]],[[500,2839],[1,0]],[[509,2839],[3,-1]],[[516,2839],[-3,0]],[[792,4096],[-203,-155],[-135,-170],[-7,-106],[-112,-96],[-15,-62],[158,-206],[6,-177],[-42,-27],[-356,63],[-86,-30]],[[4096,40],[-67,-40]],[[0,3121],[91,30],[352,-57],[44,29],[-6,178],[-159,207],[17,59],[112,97],[8,106],[134,170],[205,156]],[[787,3895],[-67,3],[-61,-35],[7,-168],[28,-18],[-171,92],[-51,-34],[-73,-3],[-41,-80],[-56,-23],[-15,-49],[23,-120],[-80,-68],[-15,-49]],[[132,911],[-5,-2]],[[127,909],[-47,-13]],[[128,891],[-1,18]],[[127,909],[0,28],[105,71]],[[232,1008],[68,46],[60,-19],[114,61]],[[580,1152],[47,26],[41,83],[-73,19]],[[635,2001],[151,-18]],[[857,1996],[26,5],[-13,-40],[45,-15]],[[1022,2007],[24,22]],[[1261,2141],[3,2]],[[1330,2166],[28,32]],[[1358,2268],[-22,-23]],[[1383,2245],[-2,12]],[[1832,3413],[-43,-46]],[[796,4096],[-204,-156],[-135,-169],[-7,-107],[-112,-97],[-17,-60],[159,-206],[6,-178],[-44,-28],[-352,57],[-90,-29]],[[796,4096],[-204,-156],[-135,-169],[-7,-107],[-112,-97],[-17,-60],[159,-206],[6,-178],[-44,-28],[-352,57],[-90,-29]],[[792,4096],[-203,-155],[-135,-170],[-7,-106],[-112,-96],[-15,-62],[158,-206],[6,-177],[-42,-27],[-356,63],[-86,-30]],[[429,2831],[13,2]],[[69,3783],[0,-2]],[[71,3781],[0,2]],[[0,3125],[153,49],[26,119],[36,50]],[[682,3428],[110,-54]],[[0,1066],[132,-155]],[[796,4096],[-204,-156],[-135,-169],[-7,-107],[-112,-97],[-17,-60],[159,-206],[6,-178],[-44,-28],[-352,57],[-90,-29]],[[69,3781]],[[71,3783],[-2,0]],[[71,3781]],[[850,3341],[56,-4]],[[1580,3738],[9,65]],[[26,3791],[-1,-2]],[[0,3120],[92,29],[351,-55],[44,28],[-6,179],[-159,207],[18,58],[113,97],[7,107],[135,169],[213,157]],[[165,2899],[-70,32],[-95,-56]],[[0,2875],[95,55],[70,-31]],[[204,2861],[65,-51],[3,-1]],[[272,2809],[15,-4]],[[287,2805],[9,-2],[25,-3],[47,-2],[49,25]],[[417,2824],[-39,-20],[-57,-4],[-34,5]],[[287,2805],[-5,1],[-9,3],[-1,0]],[[272,2809],[-36,30],[-31,22]],[[670,3426],[-71,96],[-169,51],[-93,-5],[-16,-61],[151,-196],[14,-187],[-44,-28],[-354,60],[-88,-29]],[[4096,396],[-2001,2121],[-108,77],[-104,-26],[-80,36],[-35,141],[-165,66],[-115,87],[-127,264],[-199,44],[-226,-31],[-167,117],[-94,127]],[[0,3129],[87,29],[355,-62],[43,28],[-6,177],[-159,206],[16,61],[112,96],[8,107],[134,170],[218,155]],[[215,3343],[17,47],[80,70],[21,110],[109,96],[7,106],[136,170],[119,60],[63,-3],[48,97]],[[215,3343],[-17,110],[61,43],[328,-42],[263,-113]],[[443,1355],[51,-25],[83,91]],[[681,1462],[-48,133],[-43,46],[4,346],[-89,160],[-35,19]],[[577,1421],[18,67],[86,-26]],[[577,1421],[2,-10]],[[681,1462],[4,0]],[[906,3337],[65,31],[124,179],[40,-3],[29,38],[35,-30],[114,28],[42,33],[-19,35],[32,56],[74,-13],[138,47]],[[0,3184],[28,32],[132,16],[72,158],[80,70],[21,110],[109,96],[7,106],[136,170],[119,60],[63,-3],[48,97]],[[808,3441],[-9,4]],[[801,3445],[7,-4]],[[808,3441],[7,6]],[[675,3419],[-5,7]],[[0,3180],[30,33],[119,7],[32,23],[-3,50],[43,53],[-23,107],[142,113],[122,-12],[17,85],[63,5],[19,-42],[26,17],[3,-55],[211,-119]],[[815,3447],[70,55],[11,81],[-31,26],[66,42]],[[165,2899],[20,-11]],[[185,2888],[-20,11]],[[199,2869],[-14,19]],[[199,2869],[5,-8]],[[205,2861],[-6,8]],[[423,2827],[6,3]],[[431,2830],[0,1]],[[215,3343],[-17,110],[55,43],[316,-37],[125,-48]],[[840,3345],[19,-8]],[[900,3345],[55,13],[140,189],[40,-3],[29,38],[35,-30],[114,28],[42,33],[-19,35],[32,56],[74,-13],[138,47]],[[2,3952],[-2,7]],[[1943,3212],[-31,-32],[-48,35],[-37,51],[-14,15],[-11,16],[-1,39],[25,32],[39,-2],[42,-40],[19,-30],[12,-28],[5,-56]],[[1702,3274],[-29,-21],[-23,19],[-4,37],[23,38],[32,-15],[12,-37],[-11,-21]],[[1330,2183],[-202,-134],[-26,15],[18,63],[33,65],[40,54],[39,15],[34,-15],[81,-12],[18,-9],[-35,-42]],[[705,2699],[259,-172],[-150,-5],[-63,14],[-67,65],[3,-127],[45,-40],[133,15],[-78,-106],[-91,16],[-151,133],[-110,35],[-10,15],[-27,73],[-14,28],[-47,42],[-152,75],[341,-6],[179,-55]],[[1214,3182],[23,-13],[26,-25],[48,-74],[20,-12],[10,-5],[7,-34],[9,-74],[-17,-67],[-43,-46],[-127,-66],[-16,-5],[-13,25],[11,41],[18,13],[8,18],[-6,34],[-4,50],[-18,51],[-36,38],[-31,45],[-13,27],[-31,48],[27,21],[119,-3],[9,14],[20,-1]],[[1449,2537],[-3,-17],[0,-17],[-7,-11],[-14,-8],[-19,5],[-30,25],[-31,16],[-17,1],[-16,-3],[-26,22],[5,59],[41,71],[56,53],[53,19],[41,-7],[20,-10],[18,-5],[22,-27],[-9,-35],[-26,-27],[-22,-29],[-36,-75]],[[0,614],[0,225],[27,-1],[26,9],[18,15],[46,21],[86,60],[18,-15],[-10,-55],[-43,-53],[-63,-38],[-23,-21],[-23,-12],[-23,4],[-11,-27],[28,-41],[45,-19],[4,-23],[-81,-18],[-21,-11]],[[509,1384],[-59,-42],[-8,-38],[-10,-28],[0,-36],[-6,-35],[-9,-23],[-13,-26],[-19,-31],[-24,-17],[-27,11],[-14,1],[-14,-21],[-28,-1],[-30,12],[-32,39],[-32,56],[-9,44],[14,20],[21,-2],[24,15],[-10,35],[-24,43],[3,22],[18,-6],[26,11],[30,34],[7,39],[-21,17],[9,27],[119,83],[53,64],[50,45],[44,29],[39,-3],[18,-63],[0,-46],[9,-14],[4,-32],[-8,-25],[-10,-13],[-81,-145]],[[0,3769],[0,327],[590,0],[-76,-70],[-130,-176],[-97,-83],[-101,-19],[-186,21]],[[0,3623],[0,83],[64,-50],[-41,-36],[-23,3]],[[0,3520],[0,24],[4,-4],[-4,-20]],[[0,3316],[0,132],[35,-36],[72,-24],[58,-7],[-89,-67],[-76,2]],[[0,2857],[0,295],[107,44],[209,-37],[169,-89],[-16,-18],[-30,-42],[-15,-17],[87,-28],[39,10],[35,60],[-79,193],[-21,79],[139,0],[-116,80],[-53,55],[-31,98],[168,-13],[76,-34],[76,-70],[5,-19],[11,-76],[5,-21],[199,-117],[-33,-71],[-50,0],[-59,25],[-57,7],[66,-38],[101,-32],[91,-50],[41,-95],[-22,-86],[-56,-39],[-152,-9],[-47,-13],[-46,-24],[-48,-11],[-49,27],[-36,28],[-84,26],[-39,3],[-243,-37],[-77,37],[6,26],[8,68],[6,26],[-58,2],[-51,-24],[-47,-43],[-29,-36]],[[0,2640],[0,187],[22,-16],[33,-39],[28,-45],[21,-45],[0,-39],[-99,2],[-5,-5]],[[0,1611],[0,932],[164,-94],[69,-22],[78,-59],[71,-87],[42,-103],[-265,222],[-64,-11],[-1,-68],[46,-42],[62,-21],[43,-6],[20,-36],[16,-70],[27,-46],[56,35],[-10,-22],[-6,-19],[-9,-17],[-15,-19],[0,-39],[77,35],[31,-3],[13,-53],[-8,-67],[-21,-54],[-28,-22],[-33,30],[-63,14],[-110,-34],[-105,-60],[-51,-61],[33,9],[29,-6],[23,-26],[14,-48],[-125,-62]],[[1829,3434],[-45,-61],[-62,9],[-35,90],[38,87],[73,33],[39,9],[13,-6],[23,-27],[4,-42],[-48,-92]],[[1215,4096],[104,0],[-153,-74],[-73,-83],[-29,-13],[-26,-30],[-13,-54],[-28,-8],[-44,31],[-15,-3],[3,-29],[-13,-10],[-16,3],[32,-114],[-10,-60],[-31,-21],[-25,17],[-12,48],[7,-189],[-23,6],[-31,-20],[-18,-34],[-16,2],[-16,34],[-10,49],[-16,52],[-28,47],[-22,54],[-4,57],[-10,24],[-11,27],[11,44],[31,24],[38,3],[31,-15],[25,-62],[2,4],[-5,27],[10,22],[15,9],[20,2],[17,10],[-3,7],[-20,-6],[-18,2],[-10,14],[-13,8],[-22,-3],[-8,19],[17,44],[25,45],[60,69],[17,24],[292,0],[8,-5],[12,0],[15,5]],[[1730,3281],[11,19],[74,-19],[4,62],[-34,13],[15,33],[345,262],[59,-302],[-13,-127],[-74,-152],[-197,-22],[-40,158],[-78,64],[-71,-6],[-1,17]],[[1968,3204],[11,-30],[4,-1],[16,30],[-31,1]],[[0,944],[0,251],[21,20],[141,-79],[148,-271],[-162,-138],[-61,55],[-6,46],[-33,7],[40,33],[-9,31],[-35,-4],[3,39],[-47,10]],[[142,900],[3,-9],[10,7],[-6,11],[-7,-9]],[[232,966],[2,-13],[11,-3],[-8,17],[-5,-1]],[[108,1166],[26,58],[147,6],[77,-30],[136,-122],[256,0],[56,-40],[-146,-194],[-95,108],[-105,1],[-16,-54],[-43,4],[-20,-25],[47,-34],[-12,-39],[-75,3],[-179,328],[-54,30]],[[557,1192],[85,197],[62,48],[30,-24],[-27,-35],[21,-18],[86,55],[9,-151],[191,-25],[129,-174],[-152,-154],[-241,167],[24,34],[-32,52],[35,92],[-48,9],[-36,-103],[-100,-33],[-36,63]],[[0,1692],[0,7],[12,4],[-12,-11]],[[0,1409],[0,268],[36,-12],[108,31],[78,-111],[-65,-48],[30,-44],[-53,-49],[-99,-16],[-35,-19]],[[0,2201],[0,111],[19,-38],[107,-1],[4,-46],[26,36],[19,-29],[14,14],[77,-28],[29,-27],[-4,-38],[-61,-42],[41,17],[63,-53],[27,11],[2,-68],[-295,-86],[-68,85],[0,17],[69,50],[28,-89],[51,19],[27,58],[-27,12],[-1,69],[-38,59],[-109,-13]],[[241,2096],[9,-15],[12,24],[-9,6],[-12,-15]],[[2589,3542],[37,81],[175,255],[93,-312],[-212,-172],[-52,2],[-41,146]],[[2664,3540],[11,4],[5,12],[-8,4],[-8,-20]],[[0,3769],[0,141],[69,-29],[71,-128],[-140,16]],[[0,2772],[0,96],[91,55],[-71,-138],[-20,-13]],[[0,2211],[109,3],[38,-59],[1,-69],[27,-12],[-25,-56],[-34,-15],[-19,-6],[-38,89],[-59,-41],[0,166]],[[578,2418],[11,44],[43,19],[30,-141],[-60,9],[-24,69]],[[968,1591],[31,45],[69,4],[33,-49],[-37,-48],[-44,2],[-52,46]],[[1597,2079],[64,34],[-4,32],[128,69],[43,-55],[-110,-138],[-69,4],[-52,54]],[[633,1974],[2,35],[83,40],[23,142],[60,-13],[-25,-318],[-116,9],[7,80],[-34,25]],[[834,1879],[54,279],[101,40],[65,-132],[-11,-50],[-60,-27],[-31,42],[-16,-68],[-102,-84]],[[501,3388],[35,33],[98,-57],[-22,-79],[-36,22],[1,-44],[-25,-3],[-51,128]],[[1129,1573],[81,92],[94,36],[46,70],[54,-23],[206,-354],[-420,-99],[-5,107],[-38,62],[-18,109]],[[1245,1937],[38,91],[-24,17],[6,35],[178,84],[-23,48],[30,108],[67,9],[25,-20],[127,50],[116,-145],[-128,-69],[4,-32],[-64,-34],[-30,15],[-95,-89],[-5,-87],[-54,27],[-67,-95],[-101,87]],[[1350,1771],[117,147],[5,87],[95,89],[82,-69],[54,-3],[-21,-209],[-164,-268],[-114,203],[-54,23]],[[3422,3361],[6,308],[228,-5],[-7,-307],[-227,4]],[[124,1727],[46,68],[125,44],[-19,-63],[-50,-38],[-102,-11]],[[222,1793],[33,-2],[20,17],[-20,1],[-33,-16]],[[1052,1806],[88,61],[-7,47],[25,26],[39,-14],[29,-91],[50,10],[39,-23],[-53,-45],[-77,20],[10,38],[-132,-59],[-11,30]],[[1191,1806],[14,3],[-6,13],[-7,-7],[-1,-9]],[[1202,1832],[1,-2],[10,8],[0,13],[-11,-19]],[[1146,1834],[3,-3],[4,5],[-4,0],[-3,-2]],[[660,844],[146,194],[185,-127],[-207,-205],[-124,138]],[[824,842],[4,-11],[31,16],[-22,10],[-13,-15]],[[1139,2383],[127,-42],[20,-50],[92,-29],[7,-13],[-44,-85],[-79,10],[2,-34],[-64,20],[-11,70],[23,15],[-73,138]],[[1322,2188],[11,-10],[41,50],[-18,3],[-34,-43]],[[1274,2225],[15,-10],[47,30],[-50,-1],[-12,-19]],[[1230,2280],[4,-33],[37,0],[-16,29],[-25,4]],[[1337,2238],[5,-13],[11,4],[0,9],[-16,0]],[[1244,2312],[26,-49],[11,6],[-8,48],[-29,-5]],[[746,2386],[44,32],[73,-27],[22,-79],[-23,-15],[41,-133],[-106,14],[-51,208]],[[804,2358],[3,-13],[18,-3],[-5,19],[-16,-3]],[[801,2320],[3,-24],[17,12],[-20,12]],[[0,2398],[0,29],[37,-30],[14,-50],[-46,10],[9,34],[-14,7]],[[662,3425],[165,24],[80,-114],[-30,-6],[-215,96]],[[698,3423],[5,-7],[19,-3],[-15,14],[-9,-4]],[[1081,3493],[19,18],[68,-33],[11,18],[-23,14],[21,29],[64,-37],[43,17],[23,-76],[37,56],[37,15],[8,-22],[-23,-15],[17,-29],[-55,-13],[33,-42],[-63,-28],[-23,-40],[-83,26],[-2,27],[-24,-21],[-6,34],[-28,-22],[34,-20],[-30,-17],[-26,1],[-10,47],[75,50],[-94,63]],[[1172,3478],[46,-18],[9,42],[-29,7],[9,-23],[-35,-8]],[[1290,3397],[5,-3],[10,3],[-3,5],[-12,-5]],[[1190,3430],[47,-60],[43,6],[-6,45],[-43,-6],[9,32],[-50,-17]],[[1227,3490],[3,-17],[24,9],[-19,14],[-8,-6]],[[1169,3509],[10,-1],[7,-4],[-5,6],[-12,-1]],[[1183,3421],[6,1],[0,7],[-2,0],[-4,-8]],[[1123,3334],[9,1],[4,3],[-12,0],[-1,-4]],[[1259,3487],[13,-10],[13,10],[-19,0],[-7,0]],[[1212,3349],[23,-1],[-8,21],[-14,-8],[-1,-12]],[[1191,3391],[4,-3],[7,-1],[-1,8],[-10,-4]],[[1179,3435],[8,-2],[0,4],[-6,2],[-2,-4]],[[1272,3442],[6,-2],[2,10],[-8,-8]],[[1134,3351],[6,-7],[5,5],[-5,7],[-6,-5]],[[1251,3347],[17,-1],[1,16],[-16,1],[-2,-16]],[[1434,3565],[11,65],[124,56],[44,-30],[-44,30],[57,52],[82,13],[17,-79],[-79,-73],[-49,7],[-67,22],[-39,-45],[-1,-25],[14,18],[15,-1],[-23,-24],[-46,-13],[-16,27]],[[1447,3551],[4,-6],[6,9],[-1,8],[-9,-11]],[[1459,3552],[1,-2],[7,0],[-4,8],[-4,-6]],[[1641,3711],[10,-12],[13,10],[-9,13],[-14,-11]],[[1511,3813],[70,20],[-10,24],[108,45],[-3,-72],[-46,22],[-22,-23],[26,-90],[-102,-1],[6,44],[-27,31]],[[1239,3800],[21,81],[170,65],[62,-52],[48,11],[-31,-39],[44,-10],[-37,-23],[-277,-33]],[[1256,3817],[52,0],[27,33],[-53,-12],[-26,-21]],[[1414,3865],[2,-9],[12,3],[-2,7],[-12,-1]],[[1478,3842],[12,8],[0,11],[-6,0],[-6,-19]],[[1367,3851],[1,0],[7,2],[-8,3],[0,-5]]]}