{"objects":{"water":{"type":"GeometryCollection","geometries":[]},"buildings":{"type":"GeometryCollection","geometries":[]},"places":{"type":"GeometryCollection","geometries":[{"type":"Point","properties":{"name:pt":"Pol\u00f4nia","name:ps":"\u067e\u0648\u0644\u0646\u0689","name:ka":"\u10de\u10dd\u10da\u10dd\u10dc\u10d4\u10d7\u10d8","name:mt":"Polonja","name:ko":"\ud3f4\ub780\ub4dc","name:kn":"\u0caa\u0ccb\u0cb2\u0ccd\u0caf\u0cbe\u0c82\u0ca1\u0ccd","name:km":"\u1794\u17c9\u17bc\u179b\u17bc\u1789","name:kl":"Poleni","name:cs":"Polsko","alt_name:eo":"Pollando;Polio","name:ki":"Polandi","name:tr":"Polonya","name:ku":"Poland","name:ti":"\u1356\u120b\u1295\u12f5","name:ks":"\u067e\u0648\u0644\u06cc\u0646\u065b\u0691","name:to":"Poleni","name:tl":"Polonya","name:sv":"Polen","name:or":"\u0b2a\u0b4b\u0b32\u0b3e\u0b23\u0b4d\u0b21","name:ta":"\u0baa\u0bcb\u0bb2\u0ba8\u0bcd\u0ba4\u0bc1","name:tg":"\u041b\u0430\u04b3\u0438\u0441\u0442\u043e\u043d","name:ca":"Pol\u00f2nia","name:te":"\u0c2a\u0c4b\u0c32\u0c3e\u0c02\u0c21\u0c4d","name:hu":"Lengyelorsz\u00e1g","name:ro":"Polonia","name:cy":"Gwlad Pwyl","name:hr":"Poljska","name:da":"Polen","name:fr":"Pologne","name:de":"Polen","name:dz":"\u0f54\u0f7c\u0f0b\u0f63\u0f7a\u0f53\u0f4c","source":"openstreetmap.org","name:lv":"Polija","name:lt":"Lenkija","name:uz":"Polsha","name:kk":"\u041f\u043e\u043b\u044c\u0448\u0430","name:he":"\u05e4\u05d5\u05dc\u05d9\u05df","kind":"country","name:ur":"\u067e\u0648\u0644\u06cc\u0646\u0688","name:lb":"Polen","name:la":"Polonia","name:lg":"Polandi","name:uk":"\u041f\u043e\u043b\u044c\u0449\u0430","name:hy":"\u053c\u0565\u0570\u0561\u057d\u057f\u0561\u0576","min_zoom":2.0,"name:li":"Pole","name:ln":"Poloni","name:lo":"\u0ec2\u0e9b\u0ec1\u0ea5\u0e99","name:oc":"Polonha","population":38186860,"name:el":"\u03a0\u03bf\u03bb\u03c9\u03bd\u03af\u03b1","name:eo":"Polujo","name:en":"Poland","name":"Polska","name:is":"P\u00f3lland","name:ee":"Poland nutome","name:th":"\u0e1b\u0e23\u0e30\u0e40\u0e17\u0e28\u0e42\u0e1b\u0e41\u0e25\u0e19\u0e14\u0e4c","name:eu":"Polonia","name:et":"Poola","name:nl":"Polen","name:es":"Polonia","name:ia":"Polonia","name:rm":"Pologna","name:rn":"Polonye","name:az":"Pol\u015fa","name:id":"Polandia","name:ms":"Poland","name:mr":"\u092a\u094b\u0932\u0902\u0921","name:ar":"\u0628\u0648\u0644\u0646\u062f\u0627","name:my":"\u1015\u102d\u102f\u101c\u1014\u103a","name:io":"Polonia","name:ak":"Poland","name:am":"\u1356\u120b\u1295\u12f5","name:it":"Polonia","name:vi":"Ba Lan","name:ru":"\u041f\u043e\u043b\u044c\u0448\u0430","name:mn":"\u041f\u043e\u043b\u044c\u0448","name:mi":"P\u014drana","id":432425060,"name:mk":"\u041f\u043e\u043b\u0441\u043a\u0430","name:af":"Pole","name:zu":"i-Poland","name:ha":"Polan","name:nn":"Polen","name:ff":"Polo\u00f1","name:fi":"Puola","name:hi":"\u092a\u094b\u0932\u0948\u0902\u0921","name:mg":"P\u00f4l\u00f4na","name:fo":"P\u00f3lland","official_name":"Rzeczpospolita Polska","name:ba":"\u041f\u043e\u043b\u044c\u0448\u0430","name:fy":"Poalen","name:vo":"Pol\u00e4n","name:zh":"\u6ce2\u5170","name:gv":"Yn Pholynn","name:so":"Booland","name:sn":"Poland","name:sl":"Poljska","name:sk":"Po\u013esko","name:ja":"\u30dd\u30fc\u30e9\u30f3\u30c9","name:si":"\u0db4\u0ddd\u0dbd\u0db1\u0dca\u0dad\u0dba","name:fa":"\u0644\u0647\u0633\u062a\u0627\u0646","name:sg":"P\u00f6l\u00f4ni","name:se":"Polen","name:ne":"\u092a\u094b\u0932\u094d\u092f\u093e\u0923\u094d\u0921","name:br":"Polonia","name:bs":"Poljska","name:bm":"Polo\u0272i","name:bn":"\u09aa\u09cb\u09b2\u09cd\u09af\u09be\u09a3\u09cd\u09a1","name:bo":"\u0f54\u0f7c\u0f0b\u0f63\u0f53\u0f9c\u0f0d","name:ml":"\u0d2a\u0d4b\u0d33\u0d23\u0d4d\u0d1f\u0d4d","name:no":"Polen","name:sw":"Polandi","name:be":"\u041f\u043e\u043b\u044c\u0448\u0447\u0430","name:bg":"\u041f\u043e\u043b\u0448\u0430","name:sr":"\u041f\u043e\u0459\u0441\u043a\u0430","name:sq":"Poloni","name:ga":"An Pholainn","name:gd":"A' Ph\u00f2lainn","name:gl":"Polonia","name:yo":"Or\u00edl\u1eb9\u0301\u00e8de Polandi","name:gu":"\u0aaa\u0acb\u0ab2\u0ac7\u0a82\u0aa1","name:tt":"\u041f\u043e\u043b\u044c\u0448\u0430"},"coordinates":[2169,2272]},{"type":"Point","properties":{"name:lv":"Lodza","name:ja":"\u30a6\u30c3\u30c1","name:lt":"Lodz\u0117","name:ko":"\uc6b0\uce58","name:cs":"Lod\u017e","name:eo":"Lodzo","min_zoom":8.0,"name:la":"Lodzia","name:uk":"\u041b\u043e\u0434\u0437\u044c","old_name":"Litzmannstadt","name:ru":"\u041b\u043e\u0434\u0437\u044c","id":30094969,"population":711332,"kind":"locality","name":"\u0141\u00f3d\u017a","kind_detail":"city","name:de":"Lodz","source":"openstreetmap.org"},"coordinates":[3425,714]},{"type":"Point","properties":{"name:ba":"\u041f\u0430\u0431\u044c\u044f\u043d\u0438\u0446\u0435","kind":"locality","name":"Pabianice","name:lt":"Pabianic\u0117s","kind_detail":"town","name:de":"Pabianitz","source":"openstreetmap.org","min_zoom":8.0,"name:uk":"\u041f\u0430\u0431\u2019\u044f\u043d\u0456\u0446\u0435","name:ru":"\u041f\u0430\u0431\u044c\u044f\u043d\u0438\u0446\u0435","id":31879926,"population":67688},"coordinates":[3135,205]},{"type":"Point","properties":{"name:lv":"Zge\u017ea","name:ja":"\u30ba\u30ae\u30a7\u30b7","name:lt":"Zgierzas","name:el":"\u0396\u03b3\u03ba\u03b9\u03b5\u03c2","name:ko":"\uc988\uae30\uc5d0\uc2dc","name:he":"\u05d6\u05d2\u05d9\u05d9\u05d6'","name:tt":"\u0417\u0433\u0435\u0436","name:th":"\u0e40\u0e0b\u0e2d\u0e40\u0e01\u0e35\u0e22\u0e23\u0e4c\u0e0a","name:uk":"\u0417\u0433\u0435\u0436","name:be":"\u0413\u043e\u0440\u0430\u0434 \u0417\u0433\u0435\u0436","name:ru":"\u0417\u0433\u0435\u0436","name:bg":"\u0417\u0433\u0435\u0436","id":30092865,"name:mk":"\u0417\u0433\u0458\u0435\u0436","population":57503,"name:fa":"\u0627\u0632\u06af\u06cc\u0634","kind":"locality","name":"Zgierz","kind_detail":"town","min_zoom":8.0,"name:sr":"\u0417\u0433\u0458\u0435\u0436","source":"openstreetmap.org","name:zh":"\u5179\u76d6\u65e5"},"coordinates":[3275,1127]},{"type":"Point","properties":{"kind":"locality","name":"Kutno","name:lt":"Kutnas","kind_detail":"town","source":"openstreetmap.org","min_zoom":8.0,"name:uk":"\u041a\u0443\u0442\u043d\u043e","name:ru":"\u041a\u0443\u0442\u043d\u043e","id":253556355,"population":45657},"coordinates":[3133,2907]},{"type":"Point","properties":{"kind":"locality","name":"Turek","name:lt":"Turekas","kind_detail":"town","source":"openstreetmap.org","min_zoom":8.0,"name:ru":"\u0422\u0443\u0440\u0435\u043a","id":31607601,"population":28100},"coordinates":[643,1885]},{"type":"Point","properties":{"kind":"locality","name":"Ko\u0142o","name:lt":"Kolas","kind_detail":"town","source":"openstreetmap.org","min_zoom":8.0,"name:ru":"\u041a\u043e\u043b\u043e","id":529542296,"population":23026},"coordinates":[1029,2780]},{"type":"Point","properties":{"kind":"locality","name":"Aleksandr\u00f3w \u0141\u00f3dzki","name:lt":"Lodz\u0117s Aleksandruvas","kind_detail":"town","source":"openstreetmap.org","min_zoom":8.0,"name:ru":"\u0410\u043b\u0435\u043a\u0441\u0430\u043d\u0434\u0440\u0443\u0432-\u041b\u043e\u0434\u0437\u0438\u043d\u0441\u043a\u0438\u0439","id":31881622,"population":21245},"coordinates":[2978,955]},{"type":"Point","properties":{"kind":"locality","name":"Ozork\u00f3w","name:lt":"Ozorkuvas","kind_detail":"town","source":"openstreetmap.org","min_zoom":8.0,"name:uk":"\u041e\u0437\u043e\u0440\u043a\u0443\u0432","name:ru":"\u041e\u0437\u043e\u0440\u043a\u0443\u0432","id":244598142,"population":20175},"coordinates":[2943,1637]},{"type":"Point","properties":{"kind":"locality","name":"Gostynin","kind_detail":"town","source":"openstreetmap.org","min_zoom":8.0,"name:ru":"\u0413\u043e\u0441\u0442\u044b\u043d\u0438\u043d","id":31709532,"population":19092},"coordinates":[3437,3840]},{"type":"Point","properties":{"kind":"locality","name":"Konstantyn\u00f3w \u0141\u00f3dzki","name:lt":"Lodz\u0117s Konstantynuvas","kind_detail":"town","source":"openstreetmap.org","min_zoom":8.0,"name:ru":"\u041a\u043e\u043d\u0441\u0442\u0430\u043d\u0442\u044b\u043d\u0443\u0432-\u041b\u043e\u0434\u0437\u0438\u043d\u0441\u043a\u0438\u0439","id":31880561,"population":17804},"coordinates":[3042,614]},{"type":"Point","properties":{"kind":"locality","name":"\u0141\u0119czyca","alt_name:de":"Lenczyca","kind_detail":"town","name:de":"Lentschitza","source":"openstreetmap.org","min_zoom":8.0,"name:ru":"\u041b\u0435\u043d\u0447\u0438\u0446\u0430","id":248078775,"population":14786},"coordinates":[2681,2090]},{"type":"Point","properties":{"kind":"locality","name":"\u017bychlin","kind_detail":"town","source":"openstreetmap.org","min_zoom":8.0,"name:ru":"\u0416\u0438\u0445\u043b\u0438\u043d","id":31703294,"population":8576},"coordinates":[3917,2965]},{"type":"Point","properties":{"kind":"locality","name":"Podd\u0119bice","kind_detail":"town","name:de":"Poddembice","source":"openstreetmap.org","min_zoom":8.0,"name:ru":"\u041f\u043e\u0434\u0434\u0435\u043c\u0431\u0438\u0446\u0435","id":31791659,"population":7780},"coordinates":[1953,1303]},{"type":"Point","properties":{"source":"openstreetmap.org","kind":"locality","name":"K\u0142odawa","kind_detail":"town","population":6721,"min_zoom":8.0,"id":1524210025},"coordinates":[1835,3029]},{"type":"Point","properties":{"kind":"locality","name":"Sompolno","kind_detail":"town","source":"openstreetmap.org","min_zoom":8.0,"name:ru":"\u0421\u043e\u043c\u043f\u043e\u043b\u044c\u043d\u043e","id":31610211,"population":3677},"coordinates":[646,3649]},{"type":"Point","properties":{"kind":"locality","name":"Stryk\u00f3w","kind_detail":"town","source":"openstreetmap.org","min_zoom":8.0,"name:uk":"\u0421\u0442\u0440\u0438\u043a\u0443\u0432","name:ru":"\u0421\u0442\u0440\u044b\u043a\u0443\u0432","name:zh":"\u65af\u7279\u96f7\u5eab\u592b","id":287105545,"population":3537},"coordinates":[3852,1340]},{"type":"Point","properties":{"kind":"locality","name":"Tuliszk\u00f3w","name:lt":"Tuli\u0161kuvas","kind_detail":"town","name:de":"Tuliszkow","source":"openstreetmap.org","min_zoom":8.0,"name:ru":"\u0422\u0443\u043b\u0438\u0448\u043a\u0443\u0432","id":31607621,"population":3405},"coordinates":[40,2174]},{"type":"Point","properties":{"kind":"locality","name":"Warta","kind_detail":"town","source":"openstreetmap.org","min_zoom":8.0,"name:uk":"\u0412\u0430\u0440\u0442\u0430","name:ru":"\u0412\u0430\u0440\u0442\u0430","id":1854937215,"population":3337},"coordinates":[1001,427]},{"type":"Point","properties":{"kind":"locality","name":"Rzg\u00f3w","kind_detail":"town","name:de":"Rzgow","source":"openstreetmap.org","min_zoom":8.0,"id":31879510,"population":3300},"coordinates":[3523,211]},{"type":"Point","properties":{"kind":"locality","name":"\u015alesin","kind_detail":"town","name:de":"Slesin","source":"openstreetmap.org","min_zoom":8.0,"name:ru":"\u0421\u043b\u0435\u0441\u0438\u043d","id":31610852,"population":3154},"coordinates":[72,3566]},{"type":"Point","properties":{"kind":"locality","name":"Uniej\u00f3w","kind_detail":"town","name:de":"Uniejow","source":"openstreetmap.org","min_zoom":8.0,"name:ru":"\u0423\u043d\u0435\u044e\u0432","id":31785097,"population":3079},"coordinates":[1491,1687]},{"type":"Point","properties":{"kind":"locality","name":"Izbica Kujawska","name:lt":"Kujavijos Izbica","kind_detail":"town","name:he":"\u05d0\u05d9\u05d6\u05d1\u05d9\u05e6\u05d4 \u05e7\u05d5\u05d9\u05d0\u05d5\u05d5\u05e1\u05e7\u05d4","source":"openstreetmap.org","min_zoom":8.0,"name:uk":"\u0406\u0437\u0431\u0438\u0446\u044f-\u041a\u0443\u044f\u0432\u0441\u044c\u043a\u0430","name:ru":"\u0418\u0437\u0431\u0438\u0446\u0430-\u041a\u0443\u044f\u0432\u0441\u043a\u0430","id":31623062,"population":2762},"coordinates":[1407,3795]},{"type":"Point","properties":{"kind":"locality","name":"B\u0142aszki","kind_detail":"town","name:de":"Schwarzau","source":"openstreetmap.org","min_zoom":8.0,"name:ru":"\u0411\u043b\u0430\u0448\u043a\u0438","id":31811278,"population":2273},"coordinates":[442,163]},{"type":"Point","properties":{"kind":"locality","name":"D\u0105bie","alt_name:de":"Dombie","kind_detail":"town","name:de":"Dabie","source":"openstreetmap.org","min_zoom":8.0,"name:ru":"\u0414\u043e\u043c\u0431\u0435","id":31625880,"population":2089},"coordinates":[1575,2222]},{"type":"Point","properties":{"kind":"locality","name":"Szadek","kind_detail":"town","source":"openstreetmap.org","min_zoom":8.0,"name:ru":"\u0428\u0430\u0434\u0435\u043a","id":31786432,"population":2019},"coordinates":[2027,349]},{"type":"Point","properties":{"kind":"locality","name":"Chodecz","kind_detail":"town","source":"openstreetmap.org","min_zoom":8.0,"name:ru":"\u0425\u043e\u0434\u0435\u0447","id":31710448,"population":1893},"coordinates":[2173,3729]},{"type":"Point","properties":{"kind":"locality","name":"Przedecz","name:lt":"P\u0161ede\u010das","kind_detail":"town","name:de":"Moosburg","source":"openstreetmap.org","min_zoom":8.0,"name:ru":"\u041f\u0448\u0435\u0434\u0435\u0447","id":31614227,"population":1759},"coordinates":[1798,3392]},{"type":"Point","properties":{"kind":"locality","name":"Lubie\u0144 Kujawski","kind_detail":"town","source":"openstreetmap.org","min_zoom":8.0,"name:ru":"\u041b\u044e\u0431\u0435\u043d\u044c-\u041a\u0443\u044f\u0432\u0441\u043a\u0438\u0439","id":31707928,"population":1401},"coordinates":[2560,3739]}]},"transit":{"type":"GeometryCollection","geometries":[{"type":"MultiLineString","properties":{"kind":"train","name":"EC95 Warszawa - Berlin","service":"international","sort_rank":275,"source":"openstreetmap.org","min_zoom":5.0,"operator":"DB Fernverkehr AG;PKP","ref":"EC95","osm_relation":true,"network":"DB InterCity;EuroCity"},"arcs":[[8],[9]]},{"type":"MultiLineString","properties":{"kind":"train","name":"Linia kolejowa nr 18 Kutno - Pi\u0142a g\u0142\u00f3wna","sort_rank":275,"source":"openstreetmap.org","min_zoom":6.0,"operator":"PKP Polskie Linie Kolejowe S.A.","ref":"18","osm_relation":true,"network":"PKP"},"arcs":[[10],[11]]},{"type":"LineString","properties":{"kind":"train","name:en":"EN 453 : Paris \u2212 Berlin \u2212 Moscow","network":"EuroNight","service":"international","sort_rank":275,"source":"openstreetmap.org","min_zoom":5.0,"operator":"\u0420\u043e\u0441\u0441\u0438\u0439\u0441\u043a\u0438\u0435 \u0436\u0435\u043b\u0435\u0437\u043d\u044b\u0435 \u0434\u043e\u0440\u043e\u0433\u0438","ref":"EN 453","osm_relation":true,"name":"EN 453 : Paris \u2212 Berlin \u2212 Moscou"},"arcs":[12]},{"type":"MultiLineString","properties":{"kind":"train","name":"Linia kolejowa nr 17 \u0141\u00f3d\u017a Fabryczna - Koluszki","sort_rank":275,"source":"openstreetmap.org","min_zoom":6.0,"operator":"PKP Polskie Linie Kolejowe S.A.","ref":"17","osm_relation":true,"network":"PKP"},"arcs":[[13],[14]]},{"type":"LineString","properties":{"kind":"train","name":"Linia kolejowa nr 16 \u0141\u00f3d\u017a Widzew - Kutno","sort_rank":275,"source":"openstreetmap.org","min_zoom":6.0,"operator":"PKP Polskie Linie Kolejowe S.A.","ref":"16","osm_relation":true,"network":"PKP"},"arcs":[15]},{"type":"LineString","properties":{"kind":"train","name":"EN 452 : Moscou \u2212 Berlin \u2212 Paris","service":"international","sort_rank":275,"source":"openstreetmap.org","min_zoom":5.0,"operator":"\u0420\u043e\u0441\u0441\u0438\u0439\u0441\u043a\u0438\u0435 \u0436\u0435\u043b\u0435\u0437\u043d\u044b\u0435 \u0434\u043e\u0440\u043e\u0433\u0438","ref":"EN 452","osm_relation":true,"network":"EuroNight"},"arcs":[16]},{"type":"MultiLineString","properties":{"source":"openstreetmap.org","kind":"train","name":"\u0141\u00f3d\u017a - Pozna\u0144","sort_rank":275,"ref":"R","min_zoom":6.0,"osm_relation":true},"arcs":[[17],[18],[19],[20],[21],[22],[23],[24],[25],[26],[27],[28],[29],[30],[31],[32],[33],[34],[35],[36],[37],[38],[39],[40],[41],[42],[43],[44],[45],[46],[47],[48],[49],[50],[51],[52]]},{"type":"MultiLineString","properties":{"kind":"train","name":"Linia kolejowa nr 15 Bednary - \u0141\u00f3d\u017a Kaliska","sort_rank":275,"source":"openstreetmap.org","min_zoom":6.0,"operator":"PKP Polskie Linie Kolejowe S.A.","ref":"15","osm_relation":true,"network":"PKP"},"arcs":[[53],[54],[55],[56],[57],[58]]},{"type":"LineString","properties":{"kind":"train","name":"33 Sierpc - Kutno","sort_rank":275,"source":"openstreetmap.org","min_zoom":6.0,"ref":"33","id":-7500353,"osm_relation":true},"arcs":[59]},{"type":"MultiLineString","properties":{"kind":"train","name":"EC95 Berlin - Warszawa","service":"international","sort_rank":275,"source":"openstreetmap.org","min_zoom":5.0,"operator":"DB Fernverkehr AG;PKP","ref":"EC95","osm_relation":true,"network":"DB InterCity;EuroCity"},"arcs":[[60],[61]]}]},"pois":{"type":"GeometryCollection","geometries":[{"type":"Point","properties":{"kind":"nature_reserve","protect_class":"5","area":304451000,"name:de":"Landschaftsschutzpark Lodscher H\u00f6hen","source":"openstreetmap.org","min_zoom":8.17,"tier":2,"id":-4522336,"osm_relation":true,"name":"Park Krajobrazowy Wzniesie\u0144 \u0141\u00f3dzkich"},"coordinates":[3895,1099]}]},"boundaries":{"type":"GeometryCollection","geometries":[{"type":"LineString","properties":{"name:right:nl":"Woiwodschap Koejavi\u00eb-Pommeren","name:right:ja":"\u30af\u30e4\u30f4\u30a3\uff1d\u30dd\u30e2\u30fc\u30b8\u30a7\u770c","loc_name:left":"\u0141\u00f3dzkie","alt_name:left:en":"\u0141\u00f3d\u017a Province","alt_name:right:es":"Voivodato de Kuyavia y Pomerania","name:left:ja":"\u30a6\u30c3\u30c1\u770c","id:right":-223407,"name:right:lt":"Kujavijos Pamario vaivadija","name:left:sl":"Lodzsko vojvodstvo","min_zoom":8.0,"name:left:lt":"Lodz\u0117s vaivadija","alt_name:right:en":"Kuyavian-Pomeranian Province","name:left:be":"\u041b\u043e\u0434\u0437\u0456\u043d\u0441\u043a\u0430\u0435 \u0432\u0430\u044f\u0432\u043e\u0434\u0441\u0442\u0432\u0430","name:right:fr":"Cujavie-Pom\u00e9ranie","id":-224458,"name:right":"wojew\u00f3dztwo kujawsko-pomorskie","short_name:left":"\u0142\u00f3dzkie","name:left:eo":"Lodza Provinco","name:left:en":"\u0141\u00f3d\u017a Voivodeship","source":"openstreetmap.org","sort_rank":256,"kind_detail":"4","name:right:uk":"\u041a\u0443\u044f\u0432\u0441\u044c\u043a\u043e-\u041f\u043e\u043c\u043e\u0440\u0441\u044c\u043a\u0435 \u0432\u043e\u0454\u0432\u043e\u0434\u0441\u0442\u0432\u043e","name:left:nl":"Woiwodschap Lodz","id:left":-224458,"name:left:es":"Voivodato de \u0141\u00f3d\u017a","name:right:cs":"Kujavsko-pomo\u0159sk\u00e9 vojvodstv\u00ed","name:left:cs":"Lod\u017esk\u00e9 vojvodstv\u00ed","name:left":"wojew\u00f3dztwo \u0142\u00f3dzkie","name:right:es":"Voivodato de Cuyavia y Pomerania","kind":"region","name:right:ru":"\u041a\u0443\u044f\u0432\u0441\u043a\u043e-\u041f\u043e\u043c\u043e\u0440\u0441\u043a\u043e\u0435 \u0432\u043e\u0435\u0432\u043e\u0434\u0441\u0442\u0432\u043e","name:left:ru":"\u041b\u043e\u0434\u0437\u0438\u043d\u0441\u043a\u043e\u0435 \u0432\u043e\u0435\u0432\u043e\u0434\u0441\u0442\u0432\u043e","short_name:right":"kujawsko-pomorskie","name:right:eo":"Kujavia-Pomeria Provinco","name:right:en":"Kuyavian-Pomeranian Voivodeship","osm_relation":true,"name:left:uk":"\u041b\u043e\u0434\u0437\u044c\u043a\u0435 \u0432\u043e\u0454\u0432\u043e\u0434\u0441\u0442\u0432\u043e","loc_name:right":"Kujawsko-pomorskie","name":"wojew\u00f3dztwo \u0142\u00f3dzkie - wojew\u00f3dztwo kujawsko-pomorskie","name:right:de":"Woiwodschaft Kujawien-Pommern","name:left:de":"Woiwodschaft Lodz","name:right:be":"\u041a\u0443\u044f\u045e\u0441\u043a\u0430-\u041f\u0430\u043c\u043e\u0440\u0441\u043a\u0430\u0435 \u0432\u0430\u044f\u0432\u043e\u0434\u0441\u0442\u0432\u0430","name:left:fr":"\u0141\u00f3d\u017a","name:right:sl":"Kujavsko-Pomorjansko vojvodstvo"},"arcs":[0]},{"type":"LineString","properties":{"name:right:nl":"Woiwodschap Groot-Polen","name:right:ja":"\u30f4\u30a3\u30a8\u30eb\u30b3\u30dd\u30eb\u30b9\u30ab\u770c","loc_name:left":"\u0141\u00f3dzkie","alt_name:left:en":"\u0141\u00f3d\u017a Province","name:right:uk":"\u0412\u0435\u043b\u0438\u043a\u043e\u043f\u043e\u043b\u044c\u0441\u044c\u043a\u0435 \u0432\u043e\u0454\u0432\u043e\u0434\u0441\u0442\u0432\u043e","name:left:ja":"\u30a6\u30c3\u30c1\u770c","id:right":-130971,"name:right:lt":"Did\u017eiosios Lenkijos vaivadija","name:left:sl":"Lodzsko vojvodstvo","min_zoom":8.0,"name:left:lt":"Lodz\u0117s vaivadija","name:left:be":"\u041b\u043e\u0434\u0437\u0456\u043d\u0441\u043a\u0430\u0435 \u0432\u0430\u044f\u0432\u043e\u0434\u0441\u0442\u0432\u0430","name:right:fr":"Grande-Pologne","id":-224458,"name:right":"wojew\u00f3dztwo wielkopolskie","short_name:left":"\u0142\u00f3dzkie","name:left:eo":"Lodza Provinco","name:left:en":"\u0141\u00f3d\u017a Voivodeship","sort_rank":256,"kind_detail":"4","source":"openstreetmap.org","name:left:nl":"Woiwodschap Lodz","id:left":-224458,"name:left:es":"Voivodato de \u0141\u00f3d\u017a","name:right:cs":"Velkopolsk\u00e9 vojvodstv\u00ed","name:left:cs":"Lod\u017esk\u00e9 vojvodstv\u00ed","name:left":"wojew\u00f3dztwo \u0142\u00f3dzkie","name:right:ru":"\u0412\u0435\u043b\u0438\u043a\u043e\u043f\u043e\u043b\u044c\u0441\u043a\u043e\u0435 \u0432\u043e\u0435\u0432\u043e\u0434\u0441\u0442\u0432\u043e","name:left:ru":"\u041b\u043e\u0434\u0437\u0438\u043d\u0441\u043a\u043e\u0435 \u0432\u043e\u0435\u0432\u043e\u0434\u0441\u0442\u0432\u043e","short_name:right":"wielkopolskie","name:right:eo":"Grandpollanda Provinco","name:right:en":"Greater Poland Voivodeship","osm_relation":true,"name:left:uk":"\u041b\u043e\u0434\u0437\u044c\u043a\u0435 \u0432\u043e\u0454\u0432\u043e\u0434\u0441\u0442\u0432\u043e","kind":"region","name":"wojew\u00f3dztwo \u0142\u00f3dzkie - wojew\u00f3dztwo wielkopolskie","name:right:de":"Woiwodschaft Gro\u00dfpolen","name:left:de":"Woiwodschaft Lodz","name:right:be":"\u0412\u044f\u043b\u0456\u043a\u0430\u043f\u043e\u043b\u044c\u0441\u043a\u0430\u0435 \u0432\u0430\u044f\u0432\u043e\u0434\u0441\u0442\u0432\u0430","name:left:fr":"\u0141\u00f3d\u017a"},"arcs":[1]},{"type":"MultiLineString","properties":{"name:right:nl":"Woiwodschap Mazovi\u00eb","name:right:ja":"\u30de\u30be\u30d5\u30b7\u30a7\u770c","loc_name:left":"\u0141\u00f3dzkie","alt_name:left:en":"\u0141\u00f3d\u017a Province","name:right:uk":"\u041c\u0430\u0437\u043e\u0432\u0435\u0446\u044c\u043a\u0435 \u0432\u043e\u0454\u0432\u043e\u0434\u0441\u0442\u0432\u043e","name:left:ja":"\u30a6\u30c3\u30c1\u770c","id:right":-130935,"name:right:lt":"Mazovijos vaivadija","name:left:sl":"Lodzsko vojvodstvo","min_zoom":8.0,"name:left:lt":"Lodz\u0117s vaivadija","alt_name:right:en":"Masovian Province","name:left:be":"\u041b\u043e\u0434\u0437\u0456\u043d\u0441\u043a\u0430\u0435 \u0432\u0430\u044f\u0432\u043e\u0434\u0441\u0442\u0432\u0430","name:right:fr":"Mazovie","id":-224458,"name:right":"wojew\u00f3dztwo mazowieckie","short_name:left":"\u0142\u00f3dzkie","name:left:eo":"Lodza Provinco","name:left:en":"\u0141\u00f3d\u017a Voivodeship","sort_rank":256,"kind_detail":"4","source":"openstreetmap.org","name:left:nl":"Woiwodschap Lodz","id:left":-224458,"name:left:es":"Voivodato de \u0141\u00f3d\u017a","name:right:cs":"Mazovsk\u00e9 vojvodstv\u00ed","name:left:cs":"Lod\u017esk\u00e9 vojvodstv\u00ed","name:left":"wojew\u00f3dztwo \u0142\u00f3dzkie","name:right:es":"Voivodato de Mazovia","kind":"region","name:right:ru":"\u041c\u0430\u0437\u043e\u0432\u0435\u0446\u043a\u043e\u0435 \u0432\u043e\u0435\u0432\u043e\u0434\u0441\u0442\u0432\u043e","name:left:ru":"\u041b\u043e\u0434\u0437\u0438\u043d\u0441\u043a\u043e\u0435 \u0432\u043e\u0435\u0432\u043e\u0434\u0441\u0442\u0432\u043e","short_name:right":"mazowieckie","name:right:eo":"Mazovia Provinco","name:right:en":"Masovian Voivodeship","osm_relation":true,"name:left:uk":"\u041b\u043e\u0434\u0437\u044c\u043a\u0435 \u0432\u043e\u0454\u0432\u043e\u0434\u0441\u0442\u0432\u043e","loc_name:right":"Mazowsze","name":"wojew\u00f3dztwo \u0142\u00f3dzkie - wojew\u00f3dztwo mazowieckie","name:right:de":"Woiwodschaft Masowien","name:left:de":"Woiwodschaft Lodz","name:right:be":"\u041c\u0430\u0437\u0430\u0432\u0435\u0446\u043a\u0430\u0435 \u0432\u0430\u044f\u0432\u043e\u0434\u0441\u0442\u0432\u0430","name:left:fr":"\u0141\u00f3d\u017a","name:right:sl":"Mazovijsko vojvodstvo"},"arcs":[[2],[3]]},{"type":"MultiLineString","properties":{"name:right:nl":"Woiwodschap Groot-Polen","name:right:ja":"\u30f4\u30a3\u30a8\u30eb\u30b3\u30dd\u30eb\u30b9\u30ab\u770c","loc_name:left":"Kujawsko-pomorskie","alt_name:left:en":"Kuyavian-Pomeranian Province","name:right:uk":"\u0412\u0435\u043b\u0438\u043a\u043e\u043f\u043e\u043b\u044c\u0441\u044c\u043a\u0435 \u0432\u043e\u0454\u0432\u043e\u0434\u0441\u0442\u0432\u043e","name:left:ja":"\u30af\u30e4\u30f4\u30a3\uff1d\u30dd\u30e2\u30fc\u30b8\u30a7\u770c","id:right":-130971,"name:right:lt":"Did\u017eiosios Lenkijos vaivadija","name:left:sl":"Kujavsko-Pomorjansko vojvodstvo","min_zoom":8.0,"name:left:lt":"Kujavijos Pamario vaivadija","name:left:be":"\u041a\u0443\u044f\u045e\u0441\u043a\u0430-\u041f\u0430\u043c\u043e\u0440\u0441\u043a\u0430\u0435 \u0432\u0430\u044f\u0432\u043e\u0434\u0441\u0442\u0432\u0430","alt_name:left:es":"Voivodato de Kuyavia y Pomerania","name:right:fr":"Grande-Pologne","id":-223407,"name:right":"wojew\u00f3dztwo wielkopolskie","short_name:left":"kujawsko-pomorskie","name:left:eo":"Kujavia-Pomeria Provinco","name:left:en":"Kuyavian-Pomeranian Voivodeship","sort_rank":256,"kind_detail":"4","source":"openstreetmap.org","name:left:nl":"Woiwodschap Koejavi\u00eb-Pommeren","id:left":-223407,"name:left:es":"Voivodato de Cuyavia y Pomerania","name:right:cs":"Velkopolsk\u00e9 vojvodstv\u00ed","name:left:cs":"Kujavsko-pomo\u0159sk\u00e9 vojvodstv\u00ed","name:left":"wojew\u00f3dztwo kujawsko-pomorskie","name:right:ru":"\u0412\u0435\u043b\u0438\u043a\u043e\u043f\u043e\u043b\u044c\u0441\u043a\u043e\u0435 \u0432\u043e\u0435\u0432\u043e\u0434\u0441\u0442\u0432\u043e","name:left:ru":"\u041a\u0443\u044f\u0432\u0441\u043a\u043e-\u041f\u043e\u043c\u043e\u0440\u0441\u043a\u043e\u0435 \u0432\u043e\u0435\u0432\u043e\u0434\u0441\u0442\u0432\u043e","short_name:right":"wielkopolskie","name:right:eo":"Grandpollanda Provinco","name:right:en":"Greater Poland Voivodeship","osm_relation":true,"name:left:uk":"\u041a\u0443\u044f\u0432\u0441\u044c\u043a\u043e-\u041f\u043e\u043c\u043e\u0440\u0441\u044c\u043a\u0435 \u0432\u043e\u0454\u0432\u043e\u0434\u0441\u0442\u0432\u043e","kind":"region","name":"wojew\u00f3dztwo kujawsko-pomorskie - wojew\u00f3dztwo wielkopolskie","name:right:de":"Woiwodschaft Gro\u00dfpolen","name:left:de":"Woiwodschaft Kujawien-Pommern","name:right:be":"\u0412\u044f\u043b\u0456\u043a\u0430\u043f\u043e\u043b\u044c\u0441\u043a\u0430\u0435 \u0432\u0430\u044f\u0432\u043e\u0434\u0441\u0442\u0432\u0430","name:left:fr":"Cujavie-Pom\u00e9ranie"},"arcs":[[4],[5],[6]]},{"type":"LineString","properties":{"name:right:nl":"Woiwodschap Mazovi\u00eb","name:right:ja":"\u30de\u30be\u30d5\u30b7\u30a7\u770c","loc_name:left":"Kujawsko-pomorskie","alt_name:left:en":"Kuyavian-Pomeranian Province","name:right:uk":"\u041c\u0430\u0437\u043e\u0432\u0435\u0446\u044c\u043a\u0435 \u0432\u043e\u0454\u0432\u043e\u0434\u0441\u0442\u0432\u043e","name:left:ja":"\u30af\u30e4\u30f4\u30a3\uff1d\u30dd\u30e2\u30fc\u30b8\u30a7\u770c","id:right":-130935,"name:right:lt":"Mazovijos vaivadija","name:left:sl":"Kujavsko-Pomorjansko vojvodstvo","min_zoom":8.0,"name:left:lt":"Kujavijos Pamario vaivadija","alt_name:right:en":"Masovian Province","name:left:be":"\u041a\u0443\u044f\u045e\u0441\u043a\u0430-\u041f\u0430\u043c\u043e\u0440\u0441\u043a\u0430\u0435 \u0432\u0430\u044f\u0432\u043e\u0434\u0441\u0442\u0432\u0430","alt_name:left:es":"Voivodato de Kuyavia y Pomerania","name:right:fr":"Mazovie","id":-223407,"name:right":"wojew\u00f3dztwo mazowieckie","short_name:left":"kujawsko-pomorskie","name:left:eo":"Kujavia-Pomeria Provinco","name:left:en":"Kuyavian-Pomeranian Voivodeship","sort_rank":256,"kind_detail":"4","source":"openstreetmap.org","name:left:nl":"Woiwodschap Koejavi\u00eb-Pommeren","id:left":-223407,"name:left:es":"Voivodato de Cuyavia y Pomerania","name:right:cs":"Mazovsk\u00e9 vojvodstv\u00ed","name:left:cs":"Kujavsko-pomo\u0159sk\u00e9 vojvodstv\u00ed","name:left":"wojew\u00f3dztwo kujawsko-pomorskie","name:right:es":"Voivodato de Mazovia","kind":"region","name:right:ru":"\u041c\u0430\u0437\u043e\u0432\u0435\u0446\u043a\u043e\u0435 \u0432\u043e\u0435\u0432\u043e\u0434\u0441\u0442\u0432\u043e","name:left:ru":"\u041a\u0443\u044f\u0432\u0441\u043a\u043e-\u041f\u043e\u043c\u043e\u0440\u0441\u043a\u043e\u0435 \u0432\u043e\u0435\u0432\u043e\u0434\u0441\u0442\u0432\u043e","short_name:right":"mazowieckie","name:right:eo":"Mazovia Provinco","name:right:en":"Masovian Voivodeship","osm_relation":true,"name:left:uk":"\u041a\u0443\u044f\u0432\u0441\u044c\u043a\u043e-\u041f\u043e\u043c\u043e\u0440\u0441\u044c\u043a\u0435 \u0432\u043e\u0454\u0432\u043e\u0434\u0441\u0442\u0432\u043e","loc_name:right":"Mazowsze","name":"wojew\u00f3dztwo kujawsko-pomorskie - wojew\u00f3dztwo mazowieckie","name:right:de":"Woiwodschaft Masowien","name:left:de":"Woiwodschaft Kujawien-Pommern","name:right:be":"\u041c\u0430\u0437\u0430\u0432\u0435\u0446\u043a\u0430\u0435 \u0432\u0430\u044f\u0432\u043e\u0434\u0441\u0442\u0432\u0430","name:left:fr":"Cujavie-Pom\u00e9ranie","name:right:sl":"Mazovijsko vojvodstvo"},"arcs":[7]}]},"roads":{"type":"GeometryCollection","geometries":[{"type":"MultiLineString","properties":{"kind":"major_road","network":"pl:national","sort_rank":380,"kind_detail":"primary","source":"openstreetmap.org","min_zoom":8.0,"landuse_kind":"urban_area","shield_text":"92","ref":"92"},"arcs":[[62],[63],[64]]},{"type":"MultiLineString","properties":{"bus_network":"MUK Zgierz","network":"pl:national","sort_rank":380,"kind_detail":"primary","kind":"major_road","source":"openstreetmap.org","min_zoom":8.0,"bus_shield_text":"9","shield_text":"91","landuse_kind":"urban_area","ref":"91"},"arcs":[[65],[66]]},{"type":"MultiLineString","properties":{"bus_network":"\u0141ask","network":"pl:national","sort_rank":380,"kind_detail":"primary","kind":"major_road","source":"openstreetmap.org","min_zoom":8.0,"bus_shield_text":"D","shield_text":"71","landuse_kind":"urban_area","ref":"71"},"arcs":[[67],[68]]},{"type":"MultiLineString","properties":{"kind":"major_road","network":"pl:national","sort_rank":380,"kind_detail":"primary","source":"openstreetmap.org","min_zoom":8.0,"shield_text":"91","ref":"91;92"},"arcs":[[69],[70]]},{"type":"MultiLineString","properties":{"bus_network":"Kutno","network":"pl:national","sort_rank":380,"kind_detail":"primary","kind":"major_road","source":"openstreetmap.org","min_zoom":8.0,"bus_shield_text":"10","shield_text":"60","landuse_kind":"urban_area","ref":"60"},"arcs":[[71],[72],[73],[74]]},{"type":"MultiLineString","properties":{"kind":"major_road","network":"pl:national","sort_rank":380,"kind_detail":"primary","source":"openstreetmap.org","min_zoom":8.0,"shield_text":"25","ref":"25"},"arcs":[[75],[76],[77],[78],[79],[80],[81],[82],[83],[84],[85],[86]]},{"type":"MultiLineString","properties":{"kind":"major_road","network":"pl:national","sort_rank":380,"kind_detail":"primary","source":"openstreetmap.org","min_zoom":8.0,"shield_text":"83","ref":"83;710"},"arcs":[[87],[88]]},{"type":"LineString","properties":{"bus_network":"\u0141\u00f3d\u017a","network":"pl:national","sort_rank":380,"kind_detail":"primary","kind":"major_road","source":"openstreetmap.org","min_zoom":8.0,"bus_shield_text":"N1A","shield_text":"71","landuse_kind":"urban_area","ref":"71;72"},"arcs":[89]},{"type":"MultiLineString","properties":{"source":"openstreetmap.org","kind":"major_road","sort_rank":381,"kind_detail":"trunk","ref":"S8","min_zoom":8.0},"arcs":[[90],[91]]},{"type":"LineString","properties":{"kind":"highway","network":"pl:national","sort_rank":383,"kind_detail":"motorway","source":"openstreetmap.org","min_zoom":8.0,"all_networks":["pl:national","e-road","e-road","pl:motorways","pl:expressways"],"shield_text":"1","ref":"A1","id":367158750,"all_shield_texts":["1","67","75","1","8"]},"arcs":[92]},{"type":"MultiLineString","properties":{"bus_network":"\u0141\u00f3d\u017a","network":"pl:national","sort_rank":380,"kind_detail":"primary","kind":"major_road","source":"openstreetmap.org","min_zoom":8.0,"bus_shield_text":"75B","shield_text":"91","landuse_kind":"urban_area","ref":"91"},"arcs":[[93],[94]]},{"type":"LineString","properties":{"bus_network":"\u0141\u00f3d\u017a","network":"pl:national","sort_rank":380,"kind_detail":"primary","kind":"major_road","source":"openstreetmap.org","min_zoom":8.0,"bus_shield_text":"N4B","shield_text":"71","landuse_kind":"urban_area","ref":"71"},"arcs":[95]},{"type":"MultiLineString","properties":{"bus_network":"\u0141\u00f3d\u017a","sort_rank":380,"kind_detail":"primary","kind":"major_road","source":"openstreetmap.org","min_zoom":8.0,"bus_shield_text":"93","landuse_kind":"urban_area"},"arcs":[[96],[97]]},{"type":"LineString","properties":{"kind":"major_road","network":"pl:national","sort_rank":380,"kind_detail":"primary","bus_network":"\u0141\u00f3d\u017a","source":"openstreetmap.org","min_zoom":8.0,"bus_shield_text":"53B","shield_text":"72","ref":"72","id":201745433},"arcs":[98]},{"type":"MultiLineString","properties":{"bus_network":"\u0141\u00f3d\u017a","sort_rank":380,"kind_detail":"primary","kind":"major_road","source":"openstreetmap.org","min_zoom":8.0,"bus_shield_text":"N4A","landuse_kind":"urban_area"},"arcs":[[99],[100]]},{"type":"LineString","properties":{"kind":"major_road","network":"pl:national","sort_rank":380,"kind_detail":"primary","bus_network":"\u0141\u00f3d\u017a","source":"openstreetmap.org","min_zoom":8.0,"bus_shield_text":"60C","shield_text":"14","landuse_kind":"park","ref":"14","id":178022317},"arcs":[101]},{"type":"LineString","properties":{"bus_network":null,"network":"pl:national","sort_rank":380,"kind_detail":"primary","kind":"major_road","source":"openstreetmap.org","min_zoom":8.0,"bus_shield_text":"Carrefour Teofil\u00f3w","shield_text":"72","landuse_kind":"urban_area","ref":"72"},"arcs":[102]},{"type":"LineString","properties":{"kind":"major_road","sort_rank":380,"kind_detail":"primary","bus_network":"\u0141\u00f3d\u017a","source":"openstreetmap.org","min_zoom":8.0,"bus_shield_text":"75A","landuse_kind":"urban_area","id":173206649},"arcs":[103]},{"type":"MultiLineString","properties":{"bus_network":"\u0141\u00f3d\u017a","network":"pl:national","sort_rank":380,"kind_detail":"primary","kind":"major_road","source":"openstreetmap.org","min_zoom":8.0,"bus_shield_text":"59","shield_text":"72","landuse_kind":"urban_area","ref":"72"},"arcs":[[104],[105]]},{"type":"MultiLineString","properties":{"bus_network":"\u0141\u00f3d\u017a","network":"pl:national","sort_rank":380,"kind_detail":"primary","kind":"major_road","source":"openstreetmap.org","min_zoom":8.0,"bus_shield_text":"53B","shield_text":"72","landuse_kind":"urban_area","ref":"72"},"arcs":[[106],[107],[108]]},{"type":"MultiLineString","properties":{"bus_network":"\u0141\u00f3d\u017a","network":"pl:national","sort_rank":380,"kind_detail":"primary","kind":"major_road","source":"openstreetmap.org","min_zoom":8.0,"bus_shield_text":"60C","shield_text":"14","ref":"14"},"arcs":[[109],[110],[111],[112],[113],[114],[115],[116]]},{"type":"LineString","properties":{"kind":"major_road","network":"pl:national","sort_rank":380,"kind_detail":"primary","source":"openstreetmap.org","min_zoom":8.0,"landuse_kind":"nature_reserve","shield_text":"60","ref":"60"},"arcs":[117]},{"type":"LineString","properties":{"kind":"major_road","network":"pl:regional","sort_rank":377,"landuse_kind":"urban_area","is_bicycle_related":true,"bicycle_shield_text":"R2","bicycle_network":"ncn","source":"openstreetmap.org","min_zoom":8.0,"kind_detail":"tertiary","shield_text":"573","ref":"573"},"arcs":[118]},{"type":"LineString","properties":{"kind":"major_road","network":"pl:national","sort_rank":380,"kind_detail":"primary","source":"openstreetmap.org","min_zoom":8.0,"landuse_kind":"nature_reserve","shield_text":"83","ref":"83","id":108529221},"arcs":[119]},{"type":"LineString","properties":{"kind":"major_road","network":"pl:national","sort_rank":380,"kind_detail":"primary","bus_network":"\u0141\u00f3d\u017a;Zgierz","source":"openstreetmap.org","min_zoom":8.0,"bus_shield_text":"6","shield_text":"72","landuse_kind":"urban_area","ref":"72","id":174096316},"arcs":[120]},{"type":"MultiLineString","properties":{"bus_network":"\u0141\u00f3d\u017a","network":"pl:national","sort_rank":380,"kind_detail":"primary","is_bicycle_related":true,"kind":"major_road","bicycle_shield_text":"SRM","bicycle_network":"lcn","source":"openstreetmap.org","min_zoom":8.0,"bus_shield_text":"97A","shield_text":"71","landuse_kind":"urban_area","ref":"71"},"arcs":[[121],[122],[123],[124]]},{"type":"LineString","properties":{"bus_network":"\u0141\u00f3d\u017a","network":"pl:national","sort_rank":380,"kind_detail":"primary","kind":"major_road","source":"openstreetmap.org","min_zoom":8.0,"bus_shield_text":"60D","shield_text":"14","landuse_kind":"urban_area","ref":"14;72"},"arcs":[125]},{"type":"MultiLineString","properties":{"kind":"major_road","network":"pl:national","sort_rank":380,"kind_detail":"primary","is_bicycle_related":true,"bicycle_shield_text":"\u017c\u00f3\u0142ty","bicycle_network":"lcn","source":"openstreetmap.org","min_zoom":8.0,"shield_text":"72","ref":"72;703"},"arcs":[[126],[127]]},{"type":"MultiLineString","properties":{"bus_network":"MUK Zgierz","network":"pl:national","sort_rank":380,"kind_detail":"primary","kind":"major_road","source":"openstreetmap.org","min_zoom":8.0,"bus_shield_text":"2","shield_text":"71","ref":"71"},"arcs":[[128],[129],[130]]},{"type":"LineString","properties":{"kind":"major_road","network":"pl:national","sort_rank":380,"kind_detail":"primary","source":"openstreetmap.org","min_zoom":8.0,"landuse_kind":"nature_reserve","shield_text":"25","ref":"25"},"arcs":[131]},{"type":"LineString","properties":{"bus_network":"Pabianice","network":"pl:national","sort_rank":380,"kind_detail":"primary","is_bicycle_related":true,"kind":"major_road","bicycle_shield_text":null,"bicycle_network":"rcn","source":"openstreetmap.org","min_zoom":8.0,"bus_shield_text":"260","shield_text":"71","ref":"71","id":37088565},"arcs":[132]},{"type":"LineString","properties":{"bus_network":"MUK Zgierz","network":"pl:national","sort_rank":380,"kind_detail":"primary","kind":"major_road","source":"openstreetmap.org","min_zoom":8.0,"bus_shield_text":"9","shield_text":"71","landuse_kind":"urban_area","ref":"71"},"arcs":[133]},{"type":"LineString","properties":{"kind":"major_road","network":"pl:national","sort_rank":380,"kind_detail":"primary","bus_network":"\u0141\u00f3d\u017a","source":"openstreetmap.org","min_zoom":8.0,"bus_shield_text":"97B","shield_text":"91","landuse_kind":"urban_area","ref":"91","id":165295412},"arcs":[134]},{"type":"LineString","properties":{"kind":"major_road","sort_rank":380,"kind_detail":"primary","bus_network":"\u0141\u00f3d\u017a","source":"openstreetmap.org","min_zoom":8.0,"bus_shield_text":"N3","landuse_kind":"urban_area","ref":"14","id":522474739},"arcs":[135]},{"type":"LineString","properties":{"kind":"major_road","network":"pl:national","sort_rank":380,"kind_detail":"primary","source":"openstreetmap.org","min_zoom":8.0,"landuse_kind":"urban_area","shield_text":"83","ref":"83"},"arcs":[136]},{"type":"MultiLineString","properties":{"bus_network":"Pabianice","network":"pl:national","sort_rank":380,"kind_detail":"primary","kind":"major_road","source":"openstreetmap.org","min_zoom":8.0,"bus_shield_text":"260","shield_text":"71","landuse_kind":"urban_area","ref":"71"},"arcs":[[137],[138]]},{"type":"LineString","properties":{"bus_network":"Kutno","network":"pl:national","sort_rank":380,"kind_detail":"primary","is_bicycle_related":true,"kind":"major_road","bicycle_shield_text":"WCP","bicycle_network":"rcn","source":"openstreetmap.org","min_zoom":8.0,"bus_shield_text":"5S","shield_text":"60","landuse_kind":"urban_area","ref":"60","id":229596676},"arcs":[139]},{"type":"LineString","properties":{"bus_network":"MUK Zgierz","network":"pl:national","sort_rank":380,"kind_detail":"primary","is_bicycle_related":true,"kind":"major_road","bicycle_shield_text":"WCP","bicycle_network":"rcn","source":"openstreetmap.org","min_zoom":8.0,"bus_shield_text":"1","shield_text":"71","landuse_kind":"urban_area","ref":"71"},"arcs":[140]},{"type":"MultiLineString","properties":{"kind":"major_road","network":"pl:national","sort_rank":380,"kind_detail":"primary","source":"openstreetmap.org","min_zoom":8.0,"shield_text":"72","ref":"72;473"},"arcs":[[141],[142]]},{"type":"LineString","properties":{"kind":"major_road","sort_rank":380,"kind_detail":"primary","bus_network":"\u0141\u00f3d\u017a","source":"openstreetmap.org","min_zoom":8.0,"bus_shield_text":"81","landuse_kind":"urban_area","ref":"72","id":319392211},"arcs":[143]},{"type":"MultiLineString","properties":{"bus_network":null,"network":"pl:national","sort_rank":380,"kind_detail":"primary","kind":"major_road","source":"openstreetmap.org","min_zoom":8.0,"bus_shield_text":"Auchan Kusoci\u0144skiego","shield_text":"91","landuse_kind":"urban_area","ref":"91"},"arcs":[[144],[145],[146]]},{"type":"MultiLineString","properties":{"bus_network":"\u0141\u00f3d\u017a","network":"pl:national","sort_rank":380,"kind_detail":"primary","kind":"major_road","source":"openstreetmap.org","min_zoom":8.0,"bus_shield_text":"N5A","shield_text":"72","landuse_kind":"urban_area","ref":"72;91"},"arcs":[[147],[148]]},{"type":"MultiLineString","properties":{"bus_network":null,"network":"pl:national","sort_rank":380,"kind_detail":"primary","kind":"major_road","source":"openstreetmap.org","min_zoom":8.0,"bus_shield_text":"E. Leclerc Radogoszcz","shield_text":"72","landuse_kind":"urban_area","ref":"72"},"arcs":[[149],[150],[151]]},{"type":"MultiLineString","properties":{"kind":"path","sort_rank":354,"kind_detail":"cycleway","is_bicycle_related":true,"bicycle_shield_text":"R2","bicycle_network":"ncn","source":"openstreetmap.org","min_zoom":8.0},"arcs":[[152],[153]]},{"type":"LineString","properties":{"kind":"major_road","sort_rank":380,"kind_detail":"primary","bus_network":"\u0141\u00f3d\u017a","source":"openstreetmap.org","min_zoom":8.0,"bus_shield_text":"59","landuse_kind":"urban_area","id":33811927},"arcs":[154]},{"type":"MultiLineString","properties":{"bus_network":"\u0141\u00f3d\u017a","network":"pl:national","sort_rank":380,"kind_detail":"primary","kind":"major_road","source":"openstreetmap.org","min_zoom":8.0,"bus_shield_text":"N4A","shield_text":"14","landuse_kind":"urban_area","ref":"14"},"arcs":[[155],[156],[157],[158],[159],[160],[161]]},{"type":"LineString","properties":{"kind":"major_road","network":"pl:national","sort_rank":380,"kind_detail":"primary","source":"openstreetmap.org","min_zoom":8.0,"shield_text":"91","ref":"12;91"},"arcs":[162]},{"type":"MultiLineString","properties":{"bus_network":"Kutno","network":"pl:national","sort_rank":380,"kind_detail":"primary","kind":"major_road","source":"openstreetmap.org","min_zoom":8.0,"bus_shield_text":"10","shield_text":"92","ref":"92"},"arcs":[[163],[164],[165],[166],[167],[168],[169],[170],[171],[172],[173],[174],[175],[176],[177]]},{"type":"LineString","properties":{"kind":"major_road","sort_rank":380,"kind_detail":"primary","bus_network":"\u0141\u00f3d\u017a","source":"openstreetmap.org","min_zoom":8.0,"bus_shield_text":"N1A","landuse_kind":"urban_area","id":172858390},"arcs":[178]},{"type":"MultiLineString","properties":{"bus_network":"\u0141\u00f3d\u017a","network":"pl:national","short_name":"\u015amig\u0142ego-Rydza","sort_rank":380,"kind_detail":"primary","kind":"major_road","source":"openstreetmap.org","min_zoom":8.0,"bus_shield_text":"75A","shield_text":"14","landuse_kind":"urban_area","ref":"14"},"arcs":[[179],[180],[181]]},{"type":"MultiLineString","properties":{"bus_network":"Pabianice","network":"pl:national","sort_rank":380,"kind_detail":"primary","kind":"major_road","source":"openstreetmap.org","min_zoom":8.0,"bus_shield_text":"261","shield_text":"71","ref":"71"},"arcs":[[182],[183]]},{"type":"MultiLineString","properties":{"bus_network":"\u0141\u00f3d\u017a","network":"pl:national","sort_rank":380,"kind_detail":"primary","kind":"major_road","source":"openstreetmap.org","min_zoom":8.0,"bus_shield_text":"79","shield_text":"72","landuse_kind":"urban_area","ref":"72;91"},"arcs":[[184],[185]]},{"type":"LineString","properties":{"kind":"major_road","sort_rank":380,"kind_detail":"primary","bus_network":null,"source":"openstreetmap.org","min_zoom":8.0,"bus_shield_text":"M1 Stryk\u00f3w","landuse_kind":"urban_area","id":326365846},"arcs":[186]},{"type":"LineString","properties":{"kind":"major_road","sort_rank":377,"kind_detail":"tertiary","is_bicycle_related":true,"bicycle_shield_text":"R2","bicycle_network":"ncn","source":"openstreetmap.org","min_zoom":8.0,"ref":"2918C","id":41024269},"arcs":[187]},{"type":"LineString","properties":{"bus_network":null,"network":"pl:national","sort_rank":380,"kind_detail":"primary","kind":"major_road","source":"openstreetmap.org","min_zoom":8.0,"bus_shield_text":"Carrefour Nowe Rokicie","shield_text":"91","landuse_kind":"urban_area","ref":"91"},"arcs":[188]},{"type":"LineString","properties":{"kind":"major_road","network":"pl:national","sort_rank":380,"kind_detail":"primary","is_bicycle_related":true,"bicycle_shield_text":null,"bicycle_network":"rcn","source":"openstreetmap.org","min_zoom":8.0,"shield_text":"72","ref":"72"},"arcs":[189]},{"type":"MultiLineString","properties":{"kind":"major_road","network":"pl:national","sort_rank":380,"kind_detail":"primary","source":"openstreetmap.org","min_zoom":8.0,"old_name":"Ko\u015bcielna","shield_text":"71","landuse_kind":"urban_area","ref":"71"},"arcs":[[190],[191],[192]]},{"type":"MultiLineString","properties":{"bus_network":"\u0141\u00f3d\u017a","network":"pl:national","sort_rank":380,"kind_detail":"primary","kind":"major_road","source":"openstreetmap.org","min_zoom":8.0,"bus_shield_text":"60D","shield_text":"14","landuse_kind":"urban_area","ref":"14"},"arcs":[[193],[194],[195],[196],[197]]},{"type":"LineString","properties":{"bus_network":"Kutno","network":"pl:national","sort_rank":380,"kind_detail":"primary","kind":"major_road","source":"openstreetmap.org","min_zoom":8.0,"bus_shield_text":"7","shield_text":"60","landuse_kind":"urban_area","ref":"60"},"arcs":[198]},{"type":"MultiLineString","properties":{"kind":"highway","network":"pl:national","sort_rank":383,"landuse_kind":"urban_area","source":"openstreetmap.org","min_zoom":8.0,"all_networks":["pl:national","e-road","pl:motorways"],"kind_detail":"motorway","shield_text":"2","ref":"A2","all_shield_texts":["2","30","2"]},"arcs":[[199],[200]]},{"type":"MultiLineString","properties":{"bus_network":"Pabianice","network":"pl:national","sort_rank":380,"kind_detail":"primary","kind":"major_road","source":"openstreetmap.org","min_zoom":8.0,"bus_shield_text":"260","shield_text":"71","ref":"71"},"arcs":[[201],[202]]},{"type":"MultiLineString","properties":{"bus_network":"\u0141\u00f3d\u017a","network":"pl:national","sort_rank":380,"kind_detail":"primary","kind":"major_road","source":"openstreetmap.org","min_zoom":8.0,"bus_shield_text":"53B","shield_text":"14","landuse_kind":"urban_area","ref":"14"},"arcs":[[203],[204]]},{"type":"LineString","properties":{"bus_network":"Kutno","network":"pl:national","sort_rank":380,"kind_detail":"primary","kind":"major_road","source":"openstreetmap.org","min_zoom":8.0,"bus_shield_text":"13","shield_text":"60","ref":"60"},"arcs":[205]},{"type":"LineString","properties":{"bus_network":"\u0141\u00f3d\u017a","network":"pl:national","sort_rank":380,"kind_detail":"primary","kind":"major_road","source":"openstreetmap.org","min_zoom":8.0,"bus_shield_text":"60C","shield_text":"14","landuse_kind":"urban_area","ref":"14;72"},"arcs":[206]},{"type":"LineString","properties":{"kind":"minor_road","sort_rank":360,"kind_detail":"residential","is_bicycle_related":true,"bicycle_shield_text":"R2","bicycle_network":"ncn","source":"openstreetmap.org","min_zoom":8.0,"landuse_kind":"urban_area"},"arcs":[207]},{"type":"MultiLineString","properties":{"bus_network":"\u0141\u00f3d\u017a","network":"pl:national","sort_rank":380,"kind_detail":"primary","kind":"major_road","source":"openstreetmap.org","min_zoom":8.0,"bus_shield_text":"69A","shield_text":"14","landuse_kind":"urban_area","ref":"14"},"arcs":[[208],[209],[210]]},{"type":"MultiLineString","properties":{"kind":"major_road","network":"pl:national","sort_rank":380,"kind_detail":"primary","source":"openstreetmap.org","min_zoom":8.0,"shield_text":"92","ref":"92"},"arcs":[[211],[212],[213],[214],[215],[216],[217],[218],[219],[220],[221],[222],[223],[224],[225],[226],[227],[228],[229],[230],[231],[232],[233],[234],[235],[236],[237],[238]]},{"type":"MultiLineString","properties":{"kind":"major_road","network":"pl:national","sort_rank":381,"kind_detail":"trunk","source":"openstreetmap.org","min_zoom":8.0,"shield_text":"12","ref":"S8;12"},"arcs":[[239],[240],[241],[242],[243],[244]]},{"type":"MultiLineString","properties":{"kind":"major_road","network":"pl:national","sort_rank":380,"kind_detail":"primary","source":"openstreetmap.org","min_zoom":8.0,"landuse_kind":"urban_area","shield_text":"14","ref":"14"},"arcs":[[245],[246],[247],[248],[249],[250],[251]]},{"type":"MultiLineString","properties":{"kind":"major_road","network":"e-road","sort_rank":381,"kind_detail":"trunk","source":"openstreetmap.org","min_zoom":8.0,"shield_text":"67","ref":"S8"},"arcs":[[252],[253]]},{"type":"LineString","properties":{"kind":"major_road","network":"pl:national","sort_rank":380,"kind_detail":"primary","is_bicycle_related":true,"bicycle_shield_text":"WCP","bicycle_network":"rcn","source":"openstreetmap.org","min_zoom":8.0,"shield_text":"92","ref":"92"},"arcs":[254]},{"type":"MultiLineString","properties":{"kind":"major_road","network":"pl:national","sort_rank":380,"kind_detail":"primary","source":"openstreetmap.org","min_zoom":8.0,"shield_text":"72","ref":"72;703"},"arcs":[[255],[256]]},{"type":"MultiLineString","properties":{"bus_network":"Kutno","network":"pl:national","sort_rank":380,"kind_detail":"primary","kind":"major_road","source":"openstreetmap.org","min_zoom":8.0,"bus_shield_text":"5","shield_text":"60","landuse_kind":"urban_area","ref":"60"},"arcs":[[257],[258]]},{"type":"LineString","properties":{"kind":"major_road","network":"pl:national","short_name":"\u015amig\u0142ego-Rydza","sort_rank":380,"kind_detail":"primary","bus_network":"\u0141\u00f3d\u017a","source":"openstreetmap.org","min_zoom":8.0,"bus_shield_text":"75A","shield_text":"14","landuse_kind":"urban_area","id":203326262},"arcs":[259]},{"type":"MultiLineString","properties":{"bus_network":"\u0141\u00f3d\u017a","network":"pl:national","sort_rank":380,"kind_detail":"primary","kind":"major_road","source":"openstreetmap.org","min_zoom":8.0,"bus_shield_text":"50A","shield_text":"14","landuse_kind":"urban_area","ref":"14"},"arcs":[[260],[261],[262]]},{"type":"LineString","properties":{"kind":"major_road","sort_rank":380,"kind_detail":"primary","bus_network":"Pabianice","source":"openstreetmap.org","min_zoom":8.0,"bus_shield_text":"T","landuse_kind":"urban_area","id":246444076},"arcs":[263]},{"type":"MultiLineString","properties":{"bus_network":"\u0141\u00f3d\u017a","network":"pl:national","sort_rank":380,"kind_detail":"primary","kind":"major_road","source":"openstreetmap.org","min_zoom":8.0,"bus_shield_text":"70","shield_text":"14","landuse_kind":"urban_area","ref":"14"},"arcs":[[264],[265]]},{"type":"MultiLineString","properties":{"source":"openstreetmap.org","kind":"major_road","network":"pl:national","sort_rank":380,"kind_detail":"primary","min_zoom":8.0,"shield_text":"83"},"arcs":[[266],[267],[268]]},{"type":"MultiLineString","properties":{"kind":"major_road","network":"pl:national","sort_rank":380,"kind_detail":"primary","source":"openstreetmap.org","min_zoom":8.0,"landuse_kind":"urban_area","shield_text":"72","ref":"72"},"arcs":[[269],[270],[271],[272],[273],[274],[275]]},{"type":"LineString","properties":{"bus_network":"MUK Zgierz","network":"pl:national","sort_rank":380,"kind_detail":"primary","kind":"major_road","source":"openstreetmap.org","min_zoom":8.0,"bus_shield_text":"7A","shield_text":"91","landuse_kind":"urban_area","ref":"91"},"arcs":[276]},{"type":"MultiLineString","properties":{"bus_network":"MUK Zgierz","network":"pl:national","sort_rank":380,"kind_detail":"primary","kind":"major_road","source":"openstreetmap.org","min_zoom":8.0,"bus_shield_text":"2","shield_text":"71","landuse_kind":"urban_area","ref":"71"},"arcs":[[277],[278],[279]]},{"type":"LineString","properties":{"kind":"major_road","network":"pl:national","sort_rank":380,"kind_detail":"primary","is_bicycle_related":true,"bicycle_shield_text":null,"bicycle_network":"lcn","source":"openstreetmap.org","min_zoom":8.0,"shield_text":"25","ref":"25"},"arcs":[280]},{"type":"LineString","properties":{"bus_network":"Kutno","network":"pl:national","sort_rank":380,"kind_detail":"primary","kind":"major_road","source":"openstreetmap.org","min_zoom":8.0,"bus_shield_text":"12S","shield_text":"92","landuse_kind":"urban_area","ref":"92"},"arcs":[281]},{"type":"LineString","properties":{"kind":"major_road","network":"pl:national","sort_rank":380,"kind_detail":"primary","source":"openstreetmap.org","min_zoom":8.0,"shield_text":"92","ref":"92;263"},"arcs":[282]},{"type":"LineString","properties":{"bus_network":"\u0141\u00f3d\u017a","network":"pl:national","sort_rank":380,"kind_detail":"primary","kind":"major_road","source":"openstreetmap.org","min_zoom":8.0,"bus_shield_text":"87A","shield_text":"91","landuse_kind":"urban_area","ref":"91"},"arcs":[283]},{"type":"LineString","properties":{"bus_network":"Pabianice","network":"pl:national","sort_rank":380,"kind_detail":"primary","kind":"major_road","source":"openstreetmap.org","min_zoom":8.0,"bus_shield_text":"1","shield_text":"71","landuse_kind":"urban_area","ref":"71;482"},"arcs":[284]},{"type":"MultiLineString","properties":{"bus_network":"Pabianice","network":"pl:national","sort_rank":380,"kind_detail":"primary","kind":"major_road","source":"openstreetmap.org","min_zoom":8.0,"bus_shield_text":"1","shield_text":"71","landuse_kind":"urban_area","ref":"71"},"arcs":[[285],[286],[287]]},{"type":"LineString","properties":{"bus_network":"\u0141\u00f3d\u017a","sort_rank":380,"kind_detail":"primary","kind":"major_road","source":"openstreetmap.org","min_zoom":8.0,"bus_shield_text":"53A","landuse_kind":"urban_area"},"arcs":[288]},{"type":"LineString","properties":{"kind":"major_road","network":"pl:national","sort_rank":380,"kind_detail":"primary","is_bicycle_related":true,"bicycle_shield_text":"G\u0179","bicycle_network":"rcn","source":"openstreetmap.org","min_zoom":8.0,"shield_text":"72","ref":"72;703"},"arcs":[289]},{"type":"MultiLineString","properties":{"kind":"major_road","network":"pl:national","sort_rank":380,"kind_detail":"primary","source":"openstreetmap.org","min_zoom":8.0,"landuse_kind":"urban_area","shield_text":"91","ref":"91"},"arcs":[[290],[291],[292],[293],[294],[295],[296],[297],[298],[299],[300],[301],[302],[303],[304],[305],[306],[307],[308]]},{"type":"MultiLineString","properties":{"kind":"highway","network":"pl:national","sort_rank":383,"kind_detail":"motorway","source":"openstreetmap.org","min_zoom":8.0,"all_networks":["pl:national","e-road","pl:motorways"],"shield_text":"2","ref":"A2","all_shield_texts":["2","30","2"]},"arcs":[[309],[310],[311],[312],[313],[314],[315],[316],[317],[318],[319],[320]]},{"type":"MultiLineString","properties":{"bus_network":"\u0141\u00f3d\u017a","network":"pl:national","sort_rank":380,"kind_detail":"primary","kind":"major_road","source":"openstreetmap.org","min_zoom":8.0,"bus_shield_text":"N1A","shield_text":"72","landuse_kind":"urban_area","ref":"72"},"arcs":[[321],[322],[323],[324],[325]]},{"type":"LineString","properties":{"kind":"major_road","network":"pl:national","sort_rank":380,"kind_detail":"primary","bus_network":"\u0141\u00f3d\u017a","source":"openstreetmap.org","min_zoom":8.0,"bus_shield_text":"60D","shield_text":"14","landuse_kind":"urban_area","id":524041159},"arcs":[326]},{"type":"LineString","properties":{"bus_network":"\u0141ask","network":"pl:national","sort_rank":380,"kind_detail":"primary","kind":"major_road","source":"openstreetmap.org","min_zoom":8.0,"bus_shield_text":"D","shield_text":"71","landuse_kind":"urban_area","ref":"71;482"},"arcs":[327]},{"type":"MultiLineString","properties":{"bus_network":"\u0141\u00f3d\u017a","network":"pl:national","sort_rank":380,"kind_detail":"primary","kind":"major_road","source":"openstreetmap.org","min_zoom":8.0,"bus_shield_text":"N3","shield_text":"14","landuse_kind":"urban_area","ref":"14"},"arcs":[[328],[329]]},{"type":"MultiLineString","properties":{"bus_network":"\u0141\u00f3d\u017a","network":"pl:national","sort_rank":380,"kind_detail":"primary","kind":"major_road","source":"openstreetmap.org","min_zoom":8.0,"bus_shield_text":"54C","shield_text":"72","ref":"72"},"arcs":[[330],[331]]},{"type":"LineString","properties":{"kind":"major_road","network":"pl:national","sort_rank":380,"kind_detail":"primary","is_bicycle_related":true,"bicycle_shield_text":"SZS","bicycle_network":"rcn","source":"openstreetmap.org","min_zoom":8.0,"shield_text":"83","ref":"83"},"arcs":[332]},{"type":"MultiLineString","properties":{"kind":"highway","network":"pl:national","sort_rank":383,"kind_detail":"motorway","source":"openstreetmap.org","min_zoom":8.0,"all_networks":["pl:national","e-road","e-road","pl:motorways","pl:expressways"],"shield_text":"1","ref":"A1;S8","all_shield_texts":["1","67","75","1","8"]},"arcs":[[333],[334],[335]]},{"type":"LineString","properties":{"kind":"major_road","network":"pl:regional","sort_rank":379,"kind_detail":"secondary","is_bicycle_related":true,"bicycle_shield_text":"R2","bicycle_network":"ncn","source":"openstreetmap.org","min_zoom":8.0,"shield_text":"265","ref":"265","id":173669769},"arcs":[336]},{"type":"LineString","properties":{"kind":"major_road","sort_rank":380,"kind_detail":"primary","bus_network":"\u0141\u00f3d\u017a","source":"openstreetmap.org","min_zoom":8.0,"bus_shield_text":"81","landuse_kind":"urban_area","id":310942230},"arcs":[337]},{"type":"LineString","properties":{"kind":"major_road","sort_rank":380,"kind_detail":"primary","bus_network":"\u0141\u00f3d\u017a","source":"openstreetmap.org","min_zoom":8.0,"bus_shield_text":"69A","landuse_kind":"urban_area","id":172379983},"arcs":[338]},{"type":"MultiLineString","properties":{"bus_network":"\u0141\u00f3d\u017a","network":"pl:national","sort_rank":380,"kind_detail":"primary","kind":"major_road","source":"openstreetmap.org","min_zoom":8.0,"bus_shield_text":"60C","shield_text":"14","landuse_kind":"urban_area","ref":"14"},"arcs":[[339],[340],[341],[342],[343]]},{"type":"MultiLineString","properties":{"bus_network":"\u0141\u00f3d\u017a","network":"pl:national","sort_rank":380,"kind_detail":"primary","kind":"major_road","source":"openstreetmap.org","min_zoom":8.0,"bus_shield_text":"N1A","shield_text":"71","landuse_kind":"urban_area","ref":"71"},"arcs":[[344],[345]]},{"type":"MultiLineString","properties":{"kind":"major_road","network":"pl:national","sort_rank":380,"kind_detail":"primary","source":"openstreetmap.org","min_zoom":8.0,"landuse_kind":"urban_area","shield_text":"72","ref":"72;91"},"arcs":[[346],[347],[348]]},{"type":"MultiLineString","properties":{"bus_network":"\u0141\u00f3d\u017a","network":"pl:national","sort_rank":380,"kind_detail":"primary","kind":"major_road","source":"openstreetmap.org","min_zoom":8.0,"bus_shield_text":"75B","shield_text":"91","ref":"91"},"arcs":[[349],[350]]},{"type":"LineString","properties":{"kind":"minor_road","sort_rank":360,"kind_detail":"unclassified","is_bicycle_related":true,"bicycle_shield_text":"R2","bicycle_network":"ncn","source":"openstreetmap.org","min_zoom":8.0},"arcs":[351]},{"type":"LineString","properties":{"kind":"major_road","sort_rank":380,"landuse_kind":"urban_area","source":"openstreetmap.org","min_zoom":8.0,"kind_detail":"primary","ref":"72","id":154868113},"arcs":[352]},{"type":"MultiLineString","properties":{"kind":"major_road","network":"pl:national","sort_rank":380,"kind_detail":"primary","source":"openstreetmap.org","min_zoom":8.0,"shield_text":"12","ref":"12"},"arcs":[[353],[354]]},{"type":"LineString","properties":{"kind":"major_road","network":"pl:national","sort_rank":380,"kind_detail":"primary","is_bicycle_related":true,"bicycle_shield_text":null,"bicycle_network":"rcn","source":"openstreetmap.org","min_zoom":8.0,"landuse_kind":"urban_area","shield_text":"71","ref":"71","id":423604929},"arcs":[355]},{"type":"MultiLineString","properties":{"bus_network":"Pabianice","network":"pl:national","sort_rank":380,"kind_detail":"primary","kind":"major_road","source":"openstreetmap.org","min_zoom":8.0,"bus_shield_text":"T","shield_text":"71","landuse_kind":"urban_area","ref":"71"},"arcs":[[356],[357],[358],[359],[360]]},{"type":"LineString","properties":{"kind":"major_road","sort_rank":380,"kind_detail":"primary","bus_network":"\u0141\u00f3d\u017a","source":"openstreetmap.org","min_zoom":8.0,"bus_shield_text":"53B","landuse_kind":"urban_area","ref":"72","id":179687049},"arcs":[361]},{"type":"LineString","properties":{"kind":"path","sort_rank":354,"kind_detail":"path","is_bicycle_related":true,"bicycle_shield_text":"R2","bicycle_network":"ncn","source":"openstreetmap.org","min_zoom":8.0},"arcs":[362]},{"type":"MultiLineString","properties":{"bus_network":"\u0141\u00f3d\u017a","network":"pl:national","sort_rank":380,"kind_detail":"primary","kind":"major_road","source":"openstreetmap.org","min_zoom":8.0,"bus_shield_text":"69B","shield_text":"14","landuse_kind":"urban_area","ref":"14"},"arcs":[[363],[364]]},{"type":"LineString","properties":{"kind":"major_road","network":"pl:national","sort_rank":380,"kind_detail":"primary","is_bicycle_related":true,"bicycle_shield_text":"S","bicycle_network":"rcn","source":"openstreetmap.org","min_zoom":8.0,"shield_text":"12","ref":"12"},"arcs":[365]},{"type":"MultiLineString","properties":{"bus_network":null,"network":"pl:national","sort_rank":380,"kind_detail":"primary","kind":"major_road","source":"openstreetmap.org","min_zoom":8.0,"bus_shield_text":"Carrefour Ba\u0142uty","shield_text":"72","landuse_kind":"urban_area","ref":"72"},"arcs":[[366],[367],[368]]},{"type":"LineString","properties":{"bus_network":"\u0141\u00f3d\u017a","network":"pl:national","sort_rank":380,"kind_detail":"primary","kind":"major_road","source":"openstreetmap.org","min_zoom":8.0,"bus_shield_text":"87A","shield_text":"14","landuse_kind":"urban_area","ref":"14"},"arcs":[369]},{"type":"MultiLineString","properties":{"bus_network":"\u0141\u00f3d\u017a","network":"pl:national","sort_rank":380,"kind_detail":"primary","kind":"major_road","source":"openstreetmap.org","min_zoom":8.0,"bus_shield_text":"97A","shield_text":"71","landuse_kind":"urban_area","ref":"71"},"arcs":[[370],[371],[372],[373]]},{"type":"LineString","properties":{"bus_network":"\u0141\u00f3d\u017a","network":"pl:national","sort_rank":380,"kind_detail":"primary","kind":"major_road","source":"openstreetmap.org","min_zoom":8.0,"bus_shield_text":"58A","shield_text":"14","landuse_kind":"urban_area","ref":"14"},"arcs":[374]},{"type":"LineString","properties":{"kind":"major_road","sort_rank":380,"kind_detail":"primary","is_bicycle_related":true,"bicycle_shield_text":"SRM","bicycle_network":"lcn","source":"openstreetmap.org","min_zoom":8.0,"landuse_kind":"urban_area","id":177308763},"arcs":[375]},{"type":"LineString","properties":{"kind":"major_road","network":"pl:national","sort_rank":380,"kind_detail":"primary","bus_network":"\u0141\u00f3d\u017a","source":"openstreetmap.org","min_zoom":8.0,"bus_shield_text":"54C","shield_text":"72","landuse_kind":"urban_area","ref":"72","id":201742400},"arcs":[376]},{"type":"LineString","properties":{"kind":"major_road","sort_rank":380,"kind_detail":"primary","is_bicycle_related":true,"bus_network":"\u0141\u00f3d\u017a","bicycle_shield_text":"SRM","bicycle_network":"lcn","source":"openstreetmap.org","min_zoom":8.0,"bus_shield_text":"97A","landuse_kind":"urban_area","id":177308759},"arcs":[377]},{"type":"MultiLineString","properties":{"kind":"highway","network":"pl:national","sort_rank":383,"landuse_kind":"nature_reserve","source":"openstreetmap.org","min_zoom":8.0,"all_networks":["pl:national","e-road","pl:motorways"],"kind_detail":"motorway","shield_text":"1","ref":"A1","all_shield_texts":["1","75","1"]},"arcs":[[378],[379],[380],[381]]},{"type":"LineString","properties":{"kind":"major_road","network":"pl:regional","sort_rank":379,"landuse_kind":"urban_area","is_bicycle_related":true,"bicycle_shield_text":"R2","bicycle_network":"ncn","source":"openstreetmap.org","min_zoom":8.0,"kind_detail":"secondary","shield_text":"573","ref":"573"},"arcs":[382]},{"type":"MultiLineString","properties":{"kind":"major_road","network":"pl:national","sort_rank":380,"kind_detail":"primary","source":"openstreetmap.org","min_zoom":8.0,"landuse_kind":"urban_area","shield_text":"71","ref":"71"},"arcs":[[383],[384],[385],[386],[387],[388]]},{"type":"MultiLineString","properties":{"bus_network":"MUK Zgierz","network":"pl:national","sort_rank":380,"kind_detail":"primary","kind":"major_road","source":"openstreetmap.org","min_zoom":8.0,"bus_shield_text":"7A","shield_text":"71","landuse_kind":"urban_area","ref":"71"},"arcs":[[389],[390],[391],[392]]},{"type":"MultiLineString","properties":{"kind":"major_road","network":"pl:national","sort_rank":380,"kind_detail":"primary","source":"openstreetmap.org","min_zoom":8.0,"shield_text":"12","ref":"12;91"},"arcs":[[393],[394]]},{"type":"MultiLineString","properties":{"bus_network":"\u0141\u00f3d\u017a","network":"pl:national","sort_rank":380,"kind_detail":"primary","kind":"major_road","source":"openstreetmap.org","min_zoom":8.0,"bus_shield_text":"N6","shield_text":"72","landuse_kind":"urban_area","ref":"72"},"arcs":[[395],[396]]},{"type":"MultiLineString","properties":{"bus_network":"\u0141\u00f3d\u017a;Zgierz","network":"pl:national","sort_rank":380,"kind_detail":"primary","kind":"major_road","source":"openstreetmap.org","min_zoom":8.0,"bus_shield_text":"6","shield_text":"91","landuse_kind":"urban_area","ref":"91"},"arcs":[[397],[398],[399]]},{"type":"MultiLineString","properties":{"kind":"major_road","network":"pl:national","sort_rank":380,"kind_detail":"primary","source":"openstreetmap.org","min_zoom":8.0,"shield_text":"83","ref":"83"},"arcs":[[400],[401],[402],[403],[404],[405],[406],[407],[408],[409],[410],[411],[412]]},{"type":"LineString","properties":{"kind":"major_road","sort_rank":380,"kind_detail":"primary","bus_network":"MUK Zgierz","source":"openstreetmap.org","min_zoom":8.0,"bus_shield_text":"2","id":477083780},"arcs":[413]},{"type":"MultiLineString","properties":{"kind":"major_road","network":"pl:national","sort_rank":380,"kind_detail":"primary","source":"openstreetmap.org","min_zoom":8.0,"shield_text":"60","ref":"60"},"arcs":[[414],[415],[416],[417],[418],[419],[420],[421],[422],[423],[424],[425],[426],[427],[428],[429],[430],[431],[432],[433],[434],[435],[436],[437],[438],[439],[440],[441],[442],[443],[444],[445],[446]]},{"type":"MultiLineString","properties":{"kind":"major_road","network":"pl:national","short_name":"\u015amig\u0142ego-Rydza","sort_rank":380,"kind_detail":"primary","source":"openstreetmap.org","min_zoom":8.0,"landuse_kind":"urban_area","shield_text":"14","ref":"14"},"arcs":[[447],[448]]},{"type":"MultiLineString","properties":{"bus_network":"\u0141\u00f3d\u017a","network":"pl:national","sort_rank":380,"kind_detail":"primary","kind":"major_road","source":"openstreetmap.org","min_zoom":8.0,"bus_shield_text":"93","shield_text":"91","landuse_kind":"urban_area","ref":"91"},"arcs":[[449],[450],[451],[452]]},{"type":"MultiLineString","properties":{"source":"openstreetmap.org","kind":"major_road","network":"pl:national","sort_rank":381,"kind_detail":"trunk","min_zoom":8.0,"shield_text":"14"},"arcs":[[453],[454],[455],[456]]},{"type":"MultiLineString","properties":{"bus_network":"Kutno","network":"pl:national","sort_rank":380,"kind_detail":"primary","kind":"major_road","source":"openstreetmap.org","min_zoom":8.0,"bus_shield_text":"8K","shield_text":"60","ref":"60"},"arcs":[[457],[458]]},{"type":"MultiLineString","properties":{"kind":"highway","network":"pl:national","sort_rank":383,"kind_detail":"motorway","source":"openstreetmap.org","min_zoom":8.0,"all_networks":["pl:national","e-road","pl:motorways"],"shield_text":"1","ref":"A1","all_shield_texts":["1","75","1"]},"arcs":[[459],[460],[461],[462],[463],[464],[465],[466],[467],[468]]},{"type":"LineString","properties":{"kind":"major_road","sort_rank":380,"kind_detail":"primary","bus_network":"\u0141\u00f3d\u017a","source":"openstreetmap.org","min_zoom":8.0,"bus_shield_text":"69B","landuse_kind":"urban_area","id":172899131},"arcs":[469]},{"type":"MultiLineString","properties":{"kind":"major_road","network":"pl:national","sort_rank":381,"kind_detail":"trunk","source":"openstreetmap.org","min_zoom":8.0,"shield_text":"14","ref":"S14"},"arcs":[[470],[471],[472],[473],[474],[475],[476],[477],[478],[479],[480],[481]]},{"type":"MultiLineString","properties":{"kind":"major_road","network":"pl:national","sort_rank":381,"landuse_kind":"urban_area","source":"openstreetmap.org","min_zoom":8.0,"kind_detail":"trunk","shield_text":"14","ref":"S14"},"arcs":[[482],[483]]},{"type":"LineString","properties":{"kind":"major_road","sort_rank":380,"kind_detail":"primary","bus_network":"\u0141\u00f3d\u017a","source":"openstreetmap.org","min_zoom":8.0,"bus_shield_text":"N6","landuse_kind":"urban_area","id":310803022},"arcs":[484]},{"type":"LineString","properties":{"cycleway_right":"track","network":"pl:regional","sort_rank":379,"kind_detail":"secondary","is_bicycle_related":true,"kind":"major_road","bicycle_shield_text":"R2","bicycle_network":"ncn","source":"openstreetmap.org","min_zoom":8.0,"shield_text":"577","ref":"577"},"arcs":[485]},{"type":"LineString","properties":{"kind":"major_road","network":"pl:regional","sort_rank":379,"kind_detail":"secondary","is_bicycle_related":true,"bicycle_shield_text":"R2","bicycle_network":"ncn","source":"openstreetmap.org","min_zoom":8.0,"shield_text":"573","ref":"573"},"arcs":[486]},{"type":"LineString","properties":{"kind":"major_road","network":"pl:national","sort_rank":380,"kind_detail":"primary","bus_network":"Pabianice","source":"openstreetmap.org","min_zoom":8.0,"bus_shield_text":"2","shield_text":"71","landuse_kind":"urban_area","ref":"71;482","id":25781455},"arcs":[487]},{"type":"MultiLineString","properties":{"sort_rank":380,"kind_detail":"primary","min_zoom":8.0,"kind":"major_road","source":"openstreetmap.org"},"arcs":[[488],[489],[490],[491],[492],[493],[494],[495],[496],[497]]},{"type":"LineString","properties":{"kind":"major_road","network":"pl:national","sort_rank":380,"kind_detail":"primary","is_bicycle_related":true,"bicycle_shield_text":"SR - \u0141\u0105cznikowy","bicycle_network":"lcn","source":"openstreetmap.org","min_zoom":8.0,"landuse_kind":"urban_area","shield_text":"71","ref":"71"},"arcs":[498]},{"type":"MultiLineString","properties":{"kind":"major_road","network":"pl:national","sort_rank":380,"kind_detail":"primary","source":"openstreetmap.org","min_zoom":8.0,"shield_text":"60","ref":"60;92"},"arcs":[[499],[500],[501],[502]]},{"type":"MultiLineString","properties":{"source":"openstreetmap.org","bus_network":"Pabianice","bus_shield_text":"T","sort_rank":380,"kind_detail":"primary","min_zoom":8.0,"kind":"major_road"},"arcs":[[503],[504]]},{"type":"LineString","properties":{"kind":"major_road","network":"pl:national","sort_rank":380,"kind_detail":"primary","bus_network":"Pabianice","source":"openstreetmap.org","min_zoom":8.0,"bus_shield_text":"261","shield_text":"71","landuse_kind":"urban_area","ref":"71","id":423614527},"arcs":[505]},{"type":"MultiLineString","properties":{"bus_network":"Kutno","network":"pl:national","sort_rank":380,"kind_detail":"primary","kind":"major_road","source":"openstreetmap.org","min_zoom":8.0,"bus_shield_text":"5S","shield_text":"60","landuse_kind":"urban_area","ref":"60"},"arcs":[[506],[507]]},{"type":"MultiLineString","properties":{"bus_network":"Pabianice","network":"pl:national","sort_rank":380,"kind_detail":"primary","kind":"major_road","source":"openstreetmap.org","min_zoom":8.0,"bus_shield_text":"T","shield_text":"71","ref":"71"},"arcs":[[508],[509],[510]]},{"type":"MultiLineString","properties":{"kind":"major_road","network":"pl:national","sort_rank":380,"kind_detail":"primary","source":"openstreetmap.org","min_zoom":8.0,"landuse_kind":"urban_area","shield_text":"60","ref":"60"},"arcs":[[511],[512],[513],[514],[515],[516],[517],[518],[519],[520],[521],[522]]},{"type":"LineString","properties":{"bus_network":"\u0141\u00f3d\u017a","network":"pl:national","sort_rank":380,"kind_detail":"primary","kind":"major_road","source":"openstreetmap.org","min_zoom":8.0,"bus_shield_text":"94","shield_text":"71","landuse_kind":"urban_area","ref":"71"},"arcs":[523]},{"type":"MultiLineString","properties":{"bus_network":"\u0141\u00f3d\u017a","network":"pl:national","sort_rank":380,"kind_detail":"primary","kind":"major_road","source":"openstreetmap.org","min_zoom":8.0,"bus_shield_text":"89","shield_text":"91","landuse_kind":"urban_area","ref":"91"},"arcs":[[524],[525]]},{"type":"MultiLineString","properties":{"bus_network":"\u0141\u00f3d\u017a","network":"pl:national","sort_rank":380,"kind_detail":"primary","kind":"major_road","source":"openstreetmap.org","min_zoom":8.0,"bus_shield_text":"53A","shield_text":"14","landuse_kind":"urban_area","ref":"14"},"arcs":[[526],[527]]},{"type":"LineString","properties":{"kind":"major_road","network":"pl:national","sort_rank":380,"kind_detail":"primary","is_bicycle_related":true,"bicycle_shield_text":"S","bicycle_network":"rcn","source":"openstreetmap.org","min_zoom":8.0,"shield_text":"83","ref":"83;710"},"arcs":[528]},{"type":"MultiLineString","properties":{"bus_network":null,"network":"pl:national","sort_rank":380,"kind_detail":"primary","kind":"major_road","source":"openstreetmap.org","min_zoom":8.0,"bus_shield_text":"58","shield_text":"92","ref":"92"},"arcs":[[529],[530],[531]]},{"type":"LineString","properties":{"bus_network":"\u0141\u00f3d\u017a","network":"pl:national","sort_rank":380,"kind_detail":"primary","kind":"major_road","source":"openstreetmap.org","min_zoom":8.0,"bus_shield_text":"53A","shield_text":"72","landuse_kind":"urban_area","ref":"72"},"arcs":[532]},{"type":"MultiLineString","properties":{"kind":"highway","network":"pl:national","sort_rank":383,"landuse_kind":"urban_area","source":"openstreetmap.org","min_zoom":8.0,"all_networks":["pl:national","e-road","pl:motorways"],"kind_detail":"motorway","shield_text":"1","ref":"A1","all_shield_texts":["1","75","1"]},"arcs":[[533],[534],[535],[536]]},{"type":"LineString","properties":{"kind":"major_road","sort_rank":380,"kind_detail":"primary","bus_network":null,"source":"openstreetmap.org","min_zoom":8.0,"bus_shield_text":"M1 Brzeziny","landuse_kind":"urban_area","id":326365845},"arcs":[537]},{"type":"MultiLineString","properties":{"bus_network":"Kutno","network":"pl:national","sort_rank":380,"kind_detail":"primary","kind":"major_road","source":"openstreetmap.org","min_zoom":8.0,"bus_shield_text":"11","shield_text":"92","ref":"92"},"arcs":[[538],[539],[540]]},{"type":"LineString","properties":{"kind":"major_road","sort_rank":380,"kind_detail":"primary","bus_network":"\u0141\u00f3d\u017a","source":"openstreetmap.org","min_zoom":8.0,"bus_shield_text":"N3","landuse_kind":"urban_area","id":173115222},"arcs":[541]},{"type":"MultiLineString","properties":{"kind":"major_road","network":"pl:national","sort_rank":380,"kind_detail":"primary","source":"openstreetmap.org","min_zoom":8.0,"shield_text":"71","ref":"71"},"arcs":[[542],[543],[544]]},{"type":"LineString","properties":{"bus_network":"Kutno","network":"pl:national","sort_rank":380,"kind_detail":"primary","kind":"major_road","source":"openstreetmap.org","min_zoom":8.0,"bus_shield_text":"12S","shield_text":"60","ref":"60"},"arcs":[545]},{"type":"MultiLineString","properties":{"source":"openstreetmap.org","kind":"major_road","landuse_kind":"urban_area","sort_rank":380,"kind_detail":"primary","min_zoom":8.0},"arcs":[[546],[547],[548],[549],[550],[551],[552],[553],[554]]},{"type":"MultiLineString","properties":{"bus_network":"Kutno","network":"pl:national","sort_rank":380,"kind_detail":"primary","kind":"major_road","source":"openstreetmap.org","min_zoom":8.0,"bus_shield_text":"6","shield_text":"60","landuse_kind":"urban_area","ref":"60"},"arcs":[[555],[556]]},{"type":"MultiLineString","properties":{"bus_network":"\u0141\u00f3d\u017a","network":"pl:national","sort_rank":380,"kind_detail":"primary","kind":"major_road","source":"openstreetmap.org","min_zoom":8.0,"bus_shield_text":"54D","shield_text":"72","ref":"72"},"arcs":[[557],[558]]},{"type":"MultiLineString","properties":{"kind":"major_road","network":"pl:regional","sort_rank":379,"landuse_kind":"urban_area","is_bicycle_related":true,"bicycle_shield_text":"R2","bicycle_network":"ncn","source":"openstreetmap.org","min_zoom":8.0,"kind_detail":"secondary","shield_text":"265","ref":"265"},"arcs":[[559],[560],[561],[562]]},{"type":"LineString","properties":{"bus_network":"\u0141\u00f3d\u017a","network":"pl:national","sort_rank":380,"kind_detail":"primary","kind":"major_road","source":"openstreetmap.org","min_zoom":8.0,"bus_shield_text":"97A","shield_text":"91","landuse_kind":"urban_area","ref":"91"},"arcs":[563]},{"type":"LineString","properties":{"bus_network":"\u0141\u00f3d\u017a","network":"pl:national","short_name":"\u015amig\u0142ego-Rydza","sort_rank":380,"kind_detail":"primary","kind":"major_road","source":"openstreetmap.org","min_zoom":8.0,"bus_shield_text":"70","shield_text":"14","landuse_kind":"urban_area","ref":"14"},"arcs":[564]},{"type":"MultiLineString","properties":{"bus_network":"\u0141\u00f3d\u017a","network":"pl:national","sort_rank":380,"kind_detail":"primary","kind":"major_road","source":"openstreetmap.org","min_zoom":8.0,"bus_shield_text":"56A","shield_text":"91","ref":"91"},"arcs":[[565],[566],[567],[568],[569],[570]]},{"type":"MultiLineString","properties":{"kind":"major_road","network":"pl:national","sort_rank":380,"kind_detail":"primary","source":"openstreetmap.org","min_zoom":8.0,"landuse_kind":"residential","shield_text":"14","ref":"14"},"arcs":[[571],[572]]},{"type":"LineString","properties":{"kind":"major_road","network":"pl:national","short_name":"\u015amig\u0142ego-Rydza","sort_rank":380,"kind_detail":"primary","bus_network":null,"source":"openstreetmap.org","min_zoom":8.0,"bus_shield_text":"Carrefour D\u0105browa","shield_text":"14","landuse_kind":"urban_area","ref":"14","id":380569610},"arcs":[573]},{"type":"LineString","properties":{"kind":"major_road","network":"pl:national","sort_rank":380,"kind_detail":"primary","is_bicycle_related":true,"bicycle_shield_text":null,"bicycle_network":"rcn","source":"openstreetmap.org","min_zoom":8.0,"shield_text":"71","ref":"71","id":423604929},"arcs":[574]},{"type":"LineString","properties":{"kind":"major_road","sort_rank":377,"kind_detail":"tertiary","is_bicycle_related":true,"bicycle_shield_text":"R2","bicycle_network":"ncn","source":"openstreetmap.org","min_zoom":8.0,"landuse_kind":"nature_reserve","ref":"2918C","id":41024269},"arcs":[575]},{"type":"LineString","properties":{"kind":"major_road","network":"pl:national","sort_rank":380,"kind_detail":"primary","source":"openstreetmap.org","min_zoom":8.0,"shield_text":"14","ref":"14;708","id":172380725},"arcs":[576]},{"type":"LineString","properties":{"bus_network":"\u0141\u00f3d\u017a","network":"pl:national","sort_rank":380,"kind_detail":"primary","kind":"major_road","source":"openstreetmap.org","min_zoom":8.0,"bus_shield_text":"97A","shield_text":"72","landuse_kind":"urban_area","ref":"72"},"arcs":[577]},{"type":"MultiLineString","properties":{"bus_network":"Kutno","network":"pl:national","sort_rank":380,"kind_detail":"primary","kind":"major_road","source":"openstreetmap.org","min_zoom":8.0,"bus_shield_text":"10","shield_text":"60","ref":"60"},"arcs":[[578],[579],[580]]},{"type":"LineString","properties":{"kind":"major_road","network":"pl:national","sort_rank":380,"kind_detail":"primary","source":"openstreetmap.org","min_zoom":8.0,"shield_text":"72","ref":"72;470","id":42339466},"arcs":[581]},{"type":"MultiLineString","properties":{"bus_network":"\u0141\u00f3d\u017a","network":"pl:national","sort_rank":380,"kind_detail":"primary","kind":"major_road","source":"openstreetmap.org","min_zoom":8.0,"bus_shield_text":"52","shield_text":"91","landuse_kind":"urban_area","ref":"91"},"arcs":[[582],[583],[584]]},{"type":"LineString","properties":{"kind":"major_road","network":"pl:national","sort_rank":380,"kind_detail":"primary","is_bicycle_related":true,"bicycle_shield_text":null,"bicycle_network":"lcn","source":"openstreetmap.org","min_zoom":8.0,"landuse_kind":"nature_reserve","shield_text":"25","ref":"25"},"arcs":[585]},{"type":"MultiLineString","properties":{"kind":"major_road","network":"pl:national","sort_rank":380,"kind_detail":"primary","is_bicycle_related":true,"bicycle_shield_text":"\u017c\u00f3\u0142ty","bicycle_network":"lcn","source":"openstreetmap.org","min_zoom":8.0,"shield_text":"72","ref":"72"},"arcs":[[586],[587]]},{"type":"LineString","properties":{"kind":"major_road","sort_rank":379,"kind_detail":"secondary","is_bicycle_related":true,"bicycle_shield_text":"R2","bicycle_network":"ncn","source":"openstreetmap.org","min_zoom":8.0,"landuse_kind":"urban_area","id":466046871},"arcs":[588]},{"type":"MultiLineString","properties":{"bus_network":"\u0141\u00f3d\u017a","network":"pl:national","sort_rank":380,"kind_detail":"primary","kind":"major_road","source":"openstreetmap.org","min_zoom":8.0,"bus_shield_text":"84A","shield_text":"72","landuse_kind":"urban_area","ref":"72"},"arcs":[[589],[590]]},{"type":"MultiLineString","properties":{"bus_network":"\u0141\u00f3d\u017a","network":"pl:national","sort_rank":380,"kind_detail":"primary","kind":"major_road","source":"openstreetmap.org","min_zoom":8.0,"bus_shield_text":"95A","shield_text":"91","landuse_kind":"urban_area","ref":"91"},"arcs":[[591],[592]]},{"type":"MultiLineString","properties":{"bus_network":"Kutno","network":"pl:national","sort_rank":380,"kind_detail":"primary","kind":"major_road","source":"openstreetmap.org","min_zoom":8.0,"bus_shield_text":"15","shield_text":"60","ref":"60;92"},"arcs":[[593],[594],[595]]},{"type":"LineString","properties":{"kind":"major_road","network":"pl:national","sort_rank":380,"kind_detail":"primary","bus_network":"Pabianice","source":"openstreetmap.org","min_zoom":8.0,"bus_shield_text":"2","shield_text":"71","landuse_kind":"urban_area","ref":"71","id":210215258},"arcs":[596]},{"type":"MultiLineString","properties":{"kind":"major_road","network":"pl:national","sort_rank":380,"kind_detail":"primary","source":"openstreetmap.org","min_zoom":8.0,"shield_text":"72","ref":"72"},"arcs":[[597],[598],[599],[600],[601],[602],[603],[604],[605],[606],[607],[608],[609],[610],[611],[612],[613],[614],[615],[616],[617],[618],[619],[620],[621],[622],[623],[624],[625],[626],[627],[628],[629],[630]]},{"type":"LineString","properties":{"kind":"major_road","network":"pl:national","sort_rank":380,"kind_detail":"primary","bus_network":"Kutno","source":"openstreetmap.org","min_zoom":8.0,"bus_shield_text":"10","shield_text":"60","ref":"60;92","id":317160864},"arcs":[631]},{"type":"LineString","properties":{"bus_network":"Kutno","network":"pl:national","sort_rank":380,"kind_detail":"primary","kind":"major_road","source":"openstreetmap.org","min_zoom":8.0,"bus_shield_text":"12S","shield_text":"92","ref":"92"},"arcs":[632]},{"type":"LineString","properties":{"kind":"major_road","network":"pl:national","sort_rank":380,"kind_detail":"primary","source":"openstreetmap.org","min_zoom":8.0,"shield_text":"91","ref":"91;703","id":103594037},"arcs":[633]},{"type":"MultiLineString","properties":{"bus_network":"\u0141\u00f3d\u017a","network":"pl:national","sort_rank":380,"kind_detail":"primary","kind":"major_road","source":"openstreetmap.org","min_zoom":8.0,"bus_shield_text":"N1A","shield_text":"91","landuse_kind":"urban_area","ref":"91"},"arcs":[[634],[635]]},{"type":"LineString","properties":{"bus_network":"\u0141\u00f3d\u017a","network":"pl:national","sort_rank":380,"kind_detail":"primary","is_bicycle_related":true,"kind":"major_road","bicycle_shield_text":"G\u0179","bicycle_network":"rcn","source":"openstreetmap.org","min_zoom":8.0,"bus_shield_text":"N1A","shield_text":"71","landuse_kind":"urban_area","ref":"71","id":228730838},"arcs":[636]},{"type":"LineString","properties":{"bus_network":"MUK Zgierz","network":"pl:national","sort_rank":380,"kind_detail":"primary","kind":"major_road","source":"openstreetmap.org","min_zoom":8.0,"bus_shield_text":"4","shield_text":"91","landuse_kind":"urban_area","ref":"91"},"arcs":[637]},{"type":"LineString","properties":{"kind":"major_road","sort_rank":377,"kind_detail":"tertiary","is_bicycle_related":true,"bicycle_shield_text":"R2","bicycle_network":"ncn","source":"openstreetmap.org","min_zoom":8.0},"arcs":[638]},{"type":"MultiLineString","properties":{"bus_network":"\u0141\u00f3d\u017a","network":"pl:national","sort_rank":380,"kind_detail":"primary","kind":"major_road","source":"openstreetmap.org","min_zoom":8.0,"bus_shield_text":"60C","shield_text":"14","landuse_kind":"nature_reserve","ref":"14"},"arcs":[[639],[640],[641]]},{"type":"MultiLineString","properties":{"kind":"major_road","network":"pl:national","sort_rank":380,"kind_detail":"primary","source":"openstreetmap.org","min_zoom":8.0,"shield_text":"14","ref":"14"},"arcs":[[642],[643],[644],[645],[646],[647],[648],[649],[650]]},{"type":"MultiLineString","properties":{"kind":"major_road","network":"pl:national","sort_rank":380,"kind_detail":"primary","source":"openstreetmap.org","min_zoom":8.0,"shield_text":"91","ref":"91"},"arcs":[[651],[652],[653],[654],[655],[656],[657],[658],[659],[660],[661],[662],[663],[664],[665],[666],[667],[668],[669],[670],[671],[672],[673],[674],[675],[676],[677]]},{"type":"MultiLineString","properties":{"kind":"major_road","sort_rank":377,"landuse_kind":"urban_area","is_bicycle_related":true,"bicycle_shield_text":"R2","bicycle_network":"ncn","source":"openstreetmap.org","min_zoom":8.0,"kind_detail":"tertiary"},"arcs":[[678],[679],[680]]},{"type":"LineString","properties":{"bus_network":"Pabianice","network":"pl:national","sort_rank":380,"kind_detail":"primary","is_bicycle_related":true,"kind":"major_road","bicycle_shield_text":"SMK","bicycle_network":"lcn","source":"openstreetmap.org","min_zoom":8.0,"bus_shield_text":"T","shield_text":"71","landuse_kind":"urban_area","ref":"71","id":170769085},"arcs":[681]}]},"earth":{"type":"GeometryCollection","geometries":[{"type":"Polygon","properties":{"sort_rank":10,"source":"naturalearthdata.com","kind":"earth","min_zoom":0.0,"id":4754},"arcs":[[682]]}]},"landuse":{"type":"GeometryCollection","geometries":[{"type":"Polygon","properties":{"kind":"nature_reserve","protect_class":"19","area":15505700,"sort_rank":23,"source":"openstreetmap.org","min_zoom":8.0,"tier":2,"id":-6297319,"osm_relation":true},"arcs":[[683]]},{"type":"MultiPolygon","properties":{"source":"naturalearthdata.com","kind":"urban_area","name":"","area":3224056023,"sort_rank":11,"min_zoom":4.0},"arcs":[[[684]],[[685]],[[686]],[[687]],[[688]],[[689]],[[690]]]},{"type":"MultiPolygon","properties":{"source":"openstreetmap.org","kind":"aerodrome","tier":3,"area":52099276,"sort_rank":60,"min_zoom":8.0},"arcs":[[[691]]]},{"type":"MultiPolygon","properties":{"kind":"nature_reserve","protect_class":"5","area":3897777961,"sort_rank":23,"source":"openstreetmap.org","min_zoom":4.0,"tier":2,"osm_relation":true},"arcs":[[[692]],[[693]]]},{"type":"MultiPolygon","properties":{"source":"openstreetmap.org","kind":"residential","tier":2,"area":89334734,"sort_rank":20,"min_zoom":8.0},"arcs":[[[694]]]},{"type":"MultiPolygon","properties":{"kind":"nature_reserve","protect_class":"4","area":177286291,"sort_rank":23,"source":"openstreetmap.org","min_zoom":8.0,"tier":2,"osm_relation":true},"arcs":[[[695]]]},{"type":"Polygon","properties":{"kind":"park","area":35390600,"sort_rank":24,"source":"openstreetmap.org","min_zoom":8.0,"tier":2,"id":-5934395,"osm_relation":true},"arcs":[[696],[697],[698],[699]]},{"type":"MultiPolygon","properties":{"kind":"nature_reserve","protect_class":"5","area":3436849091,"sort_rank":23,"source":"openstreetmap.org","min_zoom":6.0,"tier":2,"osm_relation":true},"arcs":[[[700]],[[701]],[[702]],[[703]]]}]}},"type":"Topology","transform":{"translate":[18.28125,51.6180165488],"scale":[0.0003433228,0.0002111239]},"arcs":[[[2936,3669],[-54,2],[-100,-113],[1,-33],[-78,16],[-2,-58],[46,-43],[-19,-15],[-52,48],[16,22],[-20,21],[-35,-56],[-81,-37],[-25,28],[-78,-18],[-71,24],[-130,-49],[26,-33],[-49,11]],[[2231,3386],[-6,-68],[-40,-3],[41,-105],[-44,-117],[128,11],[76,-35],[13,-116],[-71,-14],[-2,-37],[-26,-11],[7,-26],[26,-1],[22,-76],[-35,-31],[-74,59],[-175,9],[-64,-56],[-19,18],[-37,-52],[-23,19],[-56,-15],[-45,-207],[8,-94],[59,-45],[32,22],[21,-40],[-17,-76],[-38,5],[-17,-119],[-72,21],[-43,-18],[-54,36],[-72,-35],[-42,-76],[-35,33],[-85,-48],[-99,73],[-100,-50],[-7,-159],[55,-140],[-51,-46],[39,-36],[7,-81],[-53,0],[44,-64],[24,38],[13,-122],[73,-43],[-91,-128],[7,-38],[-51,-58],[5,-44],[-77,-27],[12,-60],[-41,-96],[5,-49],[-117,21],[-18,34],[-34,-16],[-50,19],[-54,64],[-132,-14],[-43,-18],[-2,-27],[-55,-8],[-25,95],[-101,-14],[-27,-101],[27,-47],[-89,31],[9,-132],[-53,-29],[9,43],[-14,-41],[-44,-5],[68,-126],[-44,-78],[-42,9],[59,-69],[-8,-44],[-57,-14],[37,-90],[-6,-20],[-54,4],[11,-27],[-99,-72],[-22,-94],[76,-46],[-20,-63],[-63,-20],[-8,-31],[43,-14],[8,-28]],[[4096,3036],[-95,-25],[-59,12],[-32,37],[31,49],[-59,9],[5,56],[-200,29],[-25,50],[-63,2],[-74,72],[31,61],[-114,45],[-23,35],[-22,6],[-23,-56],[-40,-11],[-55,7],[-2,30],[-86,-21],[-159,36],[19,59],[-16,39],[-82,1],[-8,39],[48,20],[-2,27],[-55,25]],[[4096,3066],[0,-19]],[[301,4096],[21,-59],[81,14],[10,30],[115,-15],[12,30]],[[749,4096],[5,0]],[[812,4096],[0,-92],[84,-9],[12,38],[46,-66],[121,-25],[22,-135],[78,30],[-22,-50],[7,-80],[103,-9],[51,-119],[65,-58],[3,-140],[13,22],[53,-10],[6,36],[98,49],[63,-43],[58,24],[64,71],[35,-18],[67,32],[-7,57],[58,0],[-17,102],[83,-98],[66,-20],[13,-49],[-38,-16],[8,-28],[87,-11],[25,-17],[-8,-45],[69,-37],[53,4]],[[2936,3669],[-26,61],[37,27],[10,62],[-28,41],[-73,13],[-7,33],[25,29],[91,-16],[58,16],[58,147],[53,14]],[[4096,2733],[-247,96],[-149,5],[-289,68],[-263,-34],[-74,36],[-128,51],[-478,-43],[-881,-33],[-216,-60],[-321,-28],[-202,175],[-325,3],[-192,-75],[-123,5],[-155,67],[-53,-30]],[[3102,2888],[15,-8],[-3,2],[-12,6]],[[2388,4096],[10,-27],[20,-226],[1,-6],[1,-5],[1,-5],[3,-6],[122,-245],[53,-290],[2,-7],[1,-4],[2,-3],[2,-4],[3,-3],[88,-79],[120,-90],[91,-117],[3,-3],[3,-3],[7,-4],[156,-66],[17,-10]],[[2388,4096],[10,-27],[22,-237],[127,-256],[57,-304],[213,-176],[97,-123],[160,-69],[7,-3],[15,-8]],[[0,2936],[54,30],[154,-67],[123,-5],[192,75],[325,-3],[202,-175],[321,28],[212,59],[882,33],[481,43],[202,-86],[263,34],[289,-68],[149,-5],[247,-96]],[[3453,719],[279,-45],[75,-27],[26,-20],[79,-60],[10,-6],[30,-16],[6,-3],[4,-2],[5,-1],[4,0],[4,0],[90,1],[31,-10]],[[4096,530],[-29,10],[-109,2],[-151,106],[-75,27],[-279,44]],[[3702,682],[-135,78],[-28,83],[-217,200],[25,86],[-35,45],[-156,27],[-62,-31],[-46,6],[-60,138],[-94,45],[-35,366],[-223,350],[-2,106],[74,124],[433,526],[-40,57]],[[4096,2733],[-247,96],[-149,5],[-289,68],[-263,-34],[-202,87],[-478,-43],[-881,-33],[-216,-60],[-321,-28],[-202,175],[-325,3],[-192,-75],[-123,5],[-155,67],[-53,-30]],[[0,570],[10,-3],[33,-17],[4,-2],[123,-37],[50,-21],[98,-29],[226,-189]],[[544,272],[1,-1]],[[545,271],[29,-27]],[[574,244],[20,-20],[18,-38],[2,-3],[2,-3],[4,-4],[126,-77],[71,-35]],[[817,64],[32,-16]],[[849,48],[1,-1]],[[850,47],[38,-19],[4,-2],[85,-26]],[[0,570],[318,-109],[224,-187]],[[542,274],[46,-43],[5,-5],[3,-4],[2,-5],[14,-31],[9,-9],[232,-131]],[[853,46],[127,-46]],[[544,272],[-2,2]],[[849,48],[-8,3],[-24,13]],[[853,46],[-3,1]],[[3343,672],[1,-3],[5,-17],[2,-13],[-1,-5],[-1,-6],[-4,-7],[-3,-5],[-3,-3],[-5,-5],[-7,-5],[-6,-3],[-140,-67],[-20,-19]],[[3161,514],[-26,-33]],[[3135,481],[-1,-1]],[[3134,480],[-8,-10]],[[3126,470],[-34,-218],[-1,-4],[-4,-6],[-21,-18]],[[3066,224],[-37,-30]],[[3029,194],[-2,-1]],[[3027,193],[-5,-5]],[[3022,188],[-324,-188]],[[3158,510],[-25,-32]],[[3133,478],[-5,-6]],[[3128,472],[-1,-1]],[[3127,471],[-14,-18],[-3,-5],[-1,-5],[-18,-193],[-66,-59]],[[3025,191],[-1,-1]],[[3024,190],[-338,-190]],[[3022,188],[2,2]],[[3025,191],[2,2]],[[3127,471],[-1,-1]],[[3161,514],[-33,-42]],[[3133,478],[1,2]],[[3161,514],[-17,-22],[-9,-11]],[[3346,662],[-12,-54],[-153,-75],[-20,-19]],[[3161,514],[-3,-3]],[[4096,1593],[-176,-109],[-59,-89],[-167,-7],[-76,-36],[-30,-61],[-125,-56],[-15,-58],[-77,-22],[-29,-45]],[[3342,1110],[-32,-55],[-2,-4],[-2,-4],[-1,-6],[0,-6],[4,-38],[-2,-24],[-34,-88],[-2,-7],[-1,-8],[1,-6],[1,-5],[13,-50],[33,-76],[13,-35],[9,-20]],[[3343,672],[-3,6]],[[3340,678],[-70,192],[37,105],[2,22],[-2,51],[35,62]],[[3350,645],[-7,27]],[[3343,672],[7,-29]],[[3802,4096],[-153,-116],[-129,-47],[-218,-409],[-127,-164],[-85,-189],[-5,-70],[-111,-139],[143,-82]],[[0,2936],[54,30],[154,-67],[123,-5],[192,75],[325,-3],[202,-175],[321,28],[212,59],[882,33],[481,43],[128,-50],[74,-36],[263,34],[289,-68],[149,-5],[247,-96]],[[3102,2888],[15,-8],[-3,2],[-12,6]],[[3025,2904],[14,-22]],[[3039,2882],[3,-5]],[[3042,2877],[10,-11]],[[3276,1139],[-1,-16]],[[3277,1128],[0,8],[-1,3]],[[3196,242],[0,-4]],[[3197,240],[0,2]],[[2571,3074],[-26,-37]],[[2545,3042],[20,30]],[[3219,2884],[-3,-12]],[[3219,2884],[1,1]],[[3220,2885],[-1,-1]],[[3220,2886],[1,0]],[[43,3513],[20,-95],[-27,-66],[-36,-32]],[[43,3513],[0,14]],[[43,3527],[1,34]],[[59,3685],[-15,-108]],[[44,3577],[0,-16]],[[59,3685],[1,7],[1,9]],[[61,3701],[-2,-16]],[[61,3701],[19,112],[83,147],[-18,107]],[[99,4090],[-3,6]],[[145,4071],[0,-4]],[[145,4071],[1,2]],[[146,4073],[1,17],[-1,1],[0,-18]],[[1001,437],[-1,26]],[[1002,416],[0,11]],[[2978,954],[50,-17]],[[3536,90],[26,12]],[[3560,104],[-10,-6]],[[3750,34],[0,1]],[[3489,386],[-3,-22]],[[3487,365],[2,14]],[[3237,214],[-7,0]],[[3397,515],[1,-1]],[[3414,493],[4,-6]],[[4055,891],[41,-6]],[[3297,386],[1,-2]],[[3413,535],[2,2]],[[3601,975],[-18,-12]],[[3189,867],[53,-17]],[[3516,545],[0,-3]],[[3398,948],[-6,-1],[-22,-9],[-12,-1]],[[3360,935],[10,2],[25,10],[4,0]],[[3518,825],[4,1]],[[3531,830],[39,14]],[[3588,845],[12,2]],[[3780,1231],[-5,-8]],[[3776,1224],[4,7]],[[3790,1251],[-10,-20]],[[3790,1251],[4,4]],[[3816,1288],[-22,-33]],[[3816,1288],[7,11]],[[3849,1336],[-26,-37]],[[3857,1346],[-4,-5]],[[3945,4089],[-14,-8]],[[3439,3843],[-2,0]],[[1056,770],[7,42]],[[3192,867],[-2,1]],[[3027,812],[0,-1]],[[3027,813],[0,-1]],[[3028,811],[0,1]],[[3028,812],[0,1]],[[3517,827],[-2,30]],[[1953,1299],[16,4]],[[1969,1303],[1,0],[0,1],[-1,0],[0,-1]],[[3060,1010],[74,48]],[[3496,1128],[84,43]],[[3711,1238],[79,16]],[[100,4089],[-1,1]],[[3032,379],[-3,3]],[[3276,1123],[28,-12]],[[3334,714],[16,-38]],[[3490,539],[0,1]],[[1211,0],[-28,32]],[[3079,278],[-8,15]],[[3091,250],[-12,27]],[[3201,2986],[-1,-5]],[[3304,1111],[25,-5]],[[1502,1664],[0,1],[-1,0],[1,-1]],[[1502,1664],[42,-169]],[[3428,867],[-1,0]],[[3363,638],[2,-9],[11,-28]],[[3365,631],[-1,7]],[[3377,601],[-11,26]],[[3336,927],[-6,-8],[-1,-61]],[[3330,858],[4,26],[0,33],[3,8]],[[3399,947],[26,-81],[43,-3]],[[3427,868],[2,6],[1,22],[-11,41],[-3,4],[-2,3],[-13,4]],[[3468,864],[-40,3]],[[3873,4016],[1,1]],[[3878,4015],[-3,0]],[[3358,937],[0,-2]],[[3341,442],[-32,-43]],[[3310,399],[15,19],[16,22]],[[3350,452],[63,83]],[[3411,539],[-56,-79]],[[3415,537],[-1,3]],[[3500,780],[-4,-14]],[[3498,767],[3,13]],[[3545,99],[10,-15]],[[3202,2826],[9,7]],[[3211,2833],[-8,-6]],[[3211,2833],[11,7]],[[3269,2872],[2,1]],[[3271,2873],[15,2]],[[3322,2870],[-36,5]],[[3353,2865],[-2,-1]],[[3352,2864],[1,1]],[[3353,2865]],[[3353,2865],[9,-2]],[[3362,2863],[-9,2]],[[3429,2853],[-67,10]],[[3429,2853],[9,-2]],[[3434,2852],[-5,1]],[[3439,2851],[-1,0]],[[3323,826],[-3,1]],[[3506,680],[0,-1]],[[3507,678],[12,-64]],[[3521,614],[-2,40],[-4,10],[-6,13]],[[3062,309],[-2,5]],[[3067,301],[-3,5]],[[3337,925],[23,10]],[[3358,937],[-15,-5]],[[3594,846]],[[3040,4035],[-1,-3]],[[3381,561],[8,-36]],[[2655,1090],[14,-5]],[[3027,811],[1,-3]],[[3028,808],[0,3]],[[3041,758],[-13,50]],[[3499,743],[-3,19]],[[3503,709],[-3,25]],[[3504,706],[-1,2]],[[3515,857],[46,74]],[[3516,824],[1,3]],[[3240,3140],[-22,-102]],[[3191,1434],[121,-19]],[[3310,1416],[-12,6],[-30,8],[-77,5]],[[3035,373],[-3,6]],[[3058,318],[13,-25]],[[3496,762],[2,5]],[[3501,780],[15,44]],[[3081,2842],[-58,-107]],[[3514,857],[2,-30]],[[3435,3843],[14,-1]],[[3413,535],[30,-21]],[[3448,515],[29,17]],[[3486,538],[33,5]],[[67,2740],[337,-105],[439,-1],[97,37]],[[940,2671],[29,3]],[[969,2674],[48,-12]],[[1017,2662],[25,1]],[[1042,2663],[48,70]],[[1090,2733],[13,17]],[[1162,2806],[-59,-56]],[[1182,2810],[-20,-4]],[[1182,2810],[464,186],[150,26]],[[1842,3014],[174,-25],[513,33]],[[2529,3022],[16,20]],[[2545,3037],[-16,-15]],[[2565,3072],[49,-8],[31,-45]],[[2645,3019],[-31,45],[-43,10]],[[2645,3019],[272,-83]],[[3052,2866],[23,-19]],[[3075,2847],[6,-5]],[[3081,2842],[-6,5]],[[3203,2827],[-2,-1]],[[3222,2840],[8,5]],[[3230,2845],[17,12]],[[3247,2857],[22,15]],[[3351,2864],[1,0]],[[3438,2851],[-4,1]],[[3438,2851],[50,-8]],[[3488,2843],[-49,8]],[[3771,2796],[-283,47]],[[3776,2794],[198,-112],[122,-12]],[[3550,98],[-172,-24],[-5,-2]],[[3373,72],[-93,-21]],[[3280,51],[-21,-4],[-68,-47]],[[3193,0],[67,46],[20,5]],[[3280,51],[78,21],[15,0]],[[3373,72],[8,1],[23,-3],[132,20]],[[3269,378],[-82,-1]],[[3188,376],[81,1]],[[3309,399],[-37,-21]],[[3273,378],[20,5],[5,3],[12,13]],[[3341,440],[1,1]],[[3443,514],[5,1]],[[3519,543],[0,2]],[[3513,85],[87,34],[139,-15]],[[3763,100],[-132,22],[-20,-1],[-11,-2],[-21,-7],[-64,-26]],[[3771,2796],[5,-2]],[[1902,1289],[6,-6]],[[1969,1304],[-2,-1]],[[3219,2886],[1,0]],[[3221,2886],[-2,1]],[[3506,679],[1,-1]],[[3355,460],[-14,-18]],[[3342,441],[8,11]],[[3414,540],[-3,-1]],[[3194,217],[-2,0]],[[3507,680],[-3,26]],[[3504,694],[2,-14]],[[992,1205],[-1,0]],[[992,1204],[1,-3],[-1,3]],[[992,1205],[-1,0],[0,-1],[1,0],[0,1]],[[2960,960],[-54,2]],[[3291,834],[-8,4]],[[3320,827],[-12,2]],[[3401,948],[-3,0]],[[3483,862],[31,-5]],[[3515,857],[-2,2],[-27,4],[-3,0]],[[3570,844],[18,1]],[[3276,1123],[1,5]],[[2991,989],[69,21]],[[3134,1058],[95,55]],[[3331,1115],[95,-23],[70,36]],[[121,4088],[25,3]],[[2965,2927],[60,-23]],[[1796,3022],[46,-8]],[[3319,814],[1,-17]],[[3170,241],[-41,3]],[[3192,216],[3,15]],[[3195,231],[2,9]],[[3196,238],[-1,-7]],[[3518,826],[-2,-1]],[[1908,1283],[45,16]],[[3261,1163],[-92,202]],[[3275,1123],[2,-7]],[[3277,1116],[-1,7]],[[3281,1108],[-4,8]],[[3333,1004],[-38,80]],[[3319,817],[0,-3]],[[3320,797],[-1,-62],[15,-21]],[[3333,717],[-12,96]],[[3333,1004],[2,-5]],[[3335,1000],[-2,4]],[[3347,968],[11,-31]],[[3360,935],[-13,33]],[[3350,676],[13,-38]],[[3364,638],[-4,16],[-9,23]],[[3389,525],[29,-38]],[[3421,483],[-6,10],[-26,32]],[[3441,443],[0,1]],[[3489,379],[-6,11]],[[3488,387],[1,-1]],[[3191,1435],[-572,109],[-261,131],[-135,104],[-33,12],[-36,8],[-308,135],[-113,44],[-288,282],[-96,70],[-356,134],[-25,8],[-30,6],[-116,3],[-289,52],[-32,-4],[-14,-2],[-76,-25],[-120,-19],[-113,-6],[-178,59]],[[0,2523],[183,-48],[30,-2],[78,9],[120,19],[122,31],[285,-52],[173,-16],[357,-135],[382,-351],[423,-180],[67,-19],[137,-104],[261,-131],[573,-110]],[[4096,1322],[-27,-2],[-22,-3]],[[4047,1317],[-23,-4]],[[4024,1313],[-8,-1],[-5,-2],[-15,-5]],[[3996,1305],[-5,-1],[-31,-4]],[[3960,1300],[-46,-7],[-120,-10],[-94,25],[-99,20],[-147,9],[-89,51],[-55,28]],[[3312,1415],[142,-79],[337,-54],[122,10],[47,8]],[[3960,1300],[36,5]],[[3996,1305],[7,2],[17,5],[4,1]],[[4024,1313],[6,1],[17,3]],[[4047,1317],[22,2],[27,2]],[[3159,877],[-131,60]],[[3165,876],[-6,1]],[[3159,877],[5,-1]],[[3283,838],[-41,13]],[[3243,850],[44,-14]],[[3503,708],[0,1]],[[3197,242],[-27,-1]],[[3490,542],[-13,-9]],[[3477,532],[9,6]],[[3827,831],[98,11]],[[3927,843],[128,48]],[[1119,137],[-87,112],[-20,150]],[[3761,0],[-11,34]],[[3750,35],[4,48]],[[3750,68],[-2,-35],[12,-33]],[[3339,3902],[-300,130]],[[3427,867],[-2,0]],[[3411,536],[2,-2]],[[3495,762],[9,-68]],[[3525,870],[-11,-13]],[[3516,827],[0,-2]],[[3583,963],[-22,-32]],[[3689,1039],[-88,-64]],[[2978,954],[2,6]],[[2981,960],[10,29]],[[3329,858],[-9,-31]],[[3322,824],[8,34]],[[3343,932],[-7,-5]],[[3486,364],[-2,-17]],[[3484,343],[3,22]],[[3935,3644],[-55,-78]],[[3426,866],[1,1]],[[446,159],[-305,160],[-119,185],[-22,9]],[[452,159],[316,-93],[127,-66]],[[3019,391],[-1,1]],[[3192,216],[5,0]],[[3197,216],[-3,1]],[[3230,214],[-33,2]],[[3277,212],[-40,2]],[[3295,211],[-17,1]],[[3516,824],[2,1]],[[3874,4017],[1,-2]],[[3477,533],[-33,-18],[-29,22]],[[3516,545],[-26,-3]],[[446,159],[6,0]],[[3242,851],[-50,16]],[[3242,850],[1,0]],[[3287,836],[35,-12]],[[3495,765],[0,-3]],[[3027,812]],[[3028,815],[-1,-2]],[[3028,815],[0,122]],[[3028,813],[0,2]],[[3500,734],[-1,9]],[[3028,813],[-1,0]],[[3811,833],[16,-2]],[[3027,811],[1,0]],[[4014,1117],[1,-6],[-3,-17]],[[4012,1094],[-20,-103],[-51,-77]],[[3942,914],[17,22],[31,48],[3,6],[18,56],[5,31],[-4,17]],[[4012,1094],[-5,24]],[[3471,3773],[-25,44]],[[2984,526],[17,31]],[[3018,392],[-34,25]],[[3028,812]],[[3029,577],[6,17]],[[3042,614],[18,96],[-19,48]],[[3273,1123],[-1,2]],[[3229,1113],[32,12]],[[3272,1125],[-11,0]],[[3261,1125],[15,-2]],[[3329,1106],[2,9]],[[3611,0],[-65,100]],[[3555,84],[55,-84]],[[3468,863],[15,-1]],[[3483,863],[-15,1]],[[3271,1146],[-10,17]],[[3271,1146],[5,-7]],[[3276,1139],[-5,7]],[[653,1854],[1,-2]],[[654,1852],[0,3]],[[738,1519],[-20,145],[-44,63],[-20,125]],[[738,1519],[0,-2]],[[739,1517],[-1,2]],[[739,1516],[2,0]],[[741,1516],[-2,1]],[[991,1208],[-33,156],[15,47],[-232,105]],[[1063,812],[38,229],[-108,160]],[[1000,463],[56,307]],[[1012,399],[-10,17]],[[1183,32],[-64,105]],[[739,1516],[0,1],[-1,0],[0,-1],[1,0]],[[3790,1254],[1,0]],[[2653,2178],[-1,0]],[[2652,2178],[1,0]],[[3002,2697],[-22,-179],[-327,-340]],[[3244,3146],[-3,-5]],[[3244,3146],[1,1]],[[3244,3147],[0,-1]],[[3244,3160],[0,-11]],[[3246,3167],[-2,-5]],[[3245,3149],[0,12]],[[3245,3162],[1,5]],[[3403,3697],[-87,-175],[14,-60],[-84,-295]],[[3403,3697],[15,19]],[[3469,3757],[-51,-41]],[[3469,3757],[14,15]],[[3550,3857],[-67,-85]],[[3550,3857],[13,17]],[[3632,3939],[-69,-65]],[[3632,3939],[2,1]],[[3634,3940],[-2,-1]],[[3636,3942],[-1,-1]],[[3635,3941],[1,1]],[[3872,4015],[-111,-52],[-125,-21]],[[3872,4015],[1,0]],[[3873,4015],[-1,0]],[[3874,4018],[0,-1]],[[3874,4016],[0,2]],[[3931,4081],[-57,-63]],[[3956,4096],[-11,-7]],[[3245,3162],[-2,0],[0,-2],[2,1]],[[3245,3161],[0,1]],[[3245,3149],[-1,0],[0,-1],[2,0],[-1,1]],[[3634,3940],[1,0],[-1,1],[0,-1]],[[3874,4017],[-1,-1],[0,-1],[1,1],[0,1]],[[3519,613],[-3,-68]],[[3519,545],[2,69]],[[3418,487],[7,-16],[15,-26]],[[3441,444],[-20,39]],[[3455,414],[11,-18],[7,-6],[15,-3]],[[3483,390],[-27,24]],[[2884,48],[0,-2]],[[2885,46],[0,3]],[[2906,216],[-1,-2]],[[2905,213],[13,18]],[[3199,2831],[3,-5]],[[3202,2826],[-2,6]],[[2567,4096],[254,-228],[303,-437],[29,-138],[36,-56]],[[3189,3237],[-36,57],[-17,111],[-9,23],[-305,440],[-254,228]],[[4007,1118],[-18,89]],[[3989,1207],[-3,13],[-64,123],[-67,228],[-170,237],[-12,62],[3,73],[-23,193],[-153,345],[11,265],[-133,279],[-143,156]],[[3235,3180],[142,-155],[41,-106],[92,-173],[-10,-265],[152,-345],[0,-44],[23,-149],[-3,-45],[0,-28],[7,-40],[6,-22],[56,-104],[113,-133],[66,-223],[18,-43],[48,-86],[3,-12]],[[3989,1207],[25,-90]],[[3861,492],[-3,-73],[-100,-317],[-8,-34]],[[3754,83],[106,340],[3,69]],[[3941,914],[-32,-44],[-54,-117]],[[3855,752],[87,162]],[[3519,545],[-3,0]],[[2905,214],[-23,-72],[1,-88],[1,-6]],[[2884,46],[4,-46]],[[2885,49],[20,164]],[[2895,0],[0,8],[-10,38]],[[2921,236],[-15,-20]],[[2918,231],[3,2]],[[3088,367],[-3,-31],[0,-1],[-6,-9]],[[3079,326],[-9,-13],[-4,-3]],[[3066,310],[-4,-3],[-32,-16]],[[3032,290],[32,18],[2,2]],[[3066,310],[13,16]],[[3079,326],[7,9],[2,9],[0,23]],[[3030,291],[-109,-55]],[[2921,233],[111,57]],[[3483,862],[0,1]],[[3878,4015],[79,-94]],[[3471,3773],[194,-108],[116,-2],[71,-42],[28,-55]],[[3129,244],[-34,0]],[[2650,2201],[1,-8]],[[3061,312]],[[3061,311],[1,0]],[[3066,304],[-1,0]],[[3066,303]],[[3776,1225],[1,0]],[[3778,1227],[-1,0]],[[3791,1254],[0,1]],[[3880,827],[0,-1]],[[3881,826],[0,1]],[[3001,557],[28,20]],[[3081,2842],[6,-5]],[[3087,2837],[-6,5]],[[3087,2837],[83,-29]],[[3201,2826]],[[3482,203]],[[3482,203]],[[3079,277],[0,1]],[[3200,2981],[0,-1]],[[3218,3038],[-17,-52]],[[3477,203],[-182,8]],[[3477,203],[5,0]],[[3482,203],[-5,0]],[[3200,2980],[-4,-57]],[[3196,2923],[1,-2]],[[3198,2922],[-2,1]],[[3197,2921]],[[3198,2921],[1,-1]],[[3199,2921],[-1,1]],[[3199,2920],[-1,1]],[[3199,2920],[22,-32]],[[3219,2887],[0,-1]],[[3221,2888],[-1,-1]],[[3220,2887],[1,1]],[[3241,3141],[-1,-1]],[[3035,594],[7,20]],[[3335,999],[12,-31]],[[3347,968],[-12,32]],[[3496,766],[-1,-1]],[[3516,825],[-16,-45]],[[1002,427],[-1,10]],[[0,2762],[44,-14]],[[44,2748],[20,-7]],[[64,2741],[3,-1]],[[3811,833],[-211,14],[-82,-21]],[[3189,3237],[46,-57]],[[3235,3181],[-46,56]],[[3855,753],[-28,-105],[5,-33],[29,-123]],[[3863,492],[0,8],[-3,11],[-28,107],[-4,31],[27,103]],[[3593,846]],[[3343,2866],[-21,4]],[[3343,2866],[8,-1]],[[3351,2866],[-8,0]],[[3490,540],[0,2]],[[2984,417],[-45,34],[45,75]],[[3058,318],[-23,55]],[[3580,1171],[131,67]],[[3023,2735],[-21,-38]],[[3298,384],[-1,2]],[[3330,919],[2,2]],[[3332,921],[3,2]],[[3334,917],[-2,4]],[[3332,921],[-1,2]],[[3381,551]],[[3427,867],[0,1]],[[3483,863],[0,-1]],[[3485,540],[1,-2]],[[3198,2922],[-1,-1]],[[3197,2921],[2,0]],[[3883,826],[-5,0]],[[3925,842],[2,1]],[[3339,3902],[78,-49]],[[3417,3853],[1,-1]],[[3418,3852],[-1,1]],[[3419,3852],[-2,0],[0,-1],[1,0],[1,1]],[[3351,677],[-18,40]],[[3509,677],[-2,3]],[[3483,343],[-4,-75],[3,-65],[0,-2]],[[3482,201],[27,-46]],[[3509,155],[4,-7],[18,-27]],[[3532,121],[-4,5],[-19,29]],[[3509,155],[-5,8],[-16,24],[-6,13],[0,1]],[[3482,201],[0,2],[0,9],[-3,50],[5,81]],[[3269,377],[4,1]],[[3272,378],[-3,0]],[[3519,614],[0,-1]],[[3029,382],[-10,9]],[[3066,4096],[-26,-61]],[[3884,1373],[-1,-1],[1,-1],[1,1],[-1,1]],[[2978,954],[-18,6]],[[3200,2836],[-1,-5]],[[3216,2872],[-16,-36]],[[3200,2832],[0,4]],[[593,1873],[1,0],[0,2],[-1,0],[0,-2]],[[3366,627],[-1,4]],[[3376,601],[5,-40]],[[3389,525],[-8,13],[1,23],[0,20],[-5,20]],[[100,4089],[21,-1]],[[1970,1304],[5,1]],[[2305,1206],[9,-2]],[[3446,3817],[3,25]],[[3164,876],[25,-9]],[[3190,868],[-25,8]],[[3440,445],[0,-1],[12,-25],[3,-5]],[[3456,414],[-15,29]],[[3170,2808],[23,13]],[[3193,2821],[9,5]],[[3201,2826],[-8,-5]],[[3095,244],[-4,6]],[[587,1876],[-171,33],[-118,93],[-120,31],[-113,101],[-13,100],[21,127],[-73,139]],[[587,1876],[5,-2]],[[593,1875],[-6,1]],[[593,1873],[15,-10],[45,-8]],[[653,1855],[-59,18]],[[653,1862],[0,-1]],[[654,1865],[-1,-2]],[[653,1861],[0,1]],[[653,1857],[0,4]],[[653,1857],[0,-2]],[[654,1855],[-1,2]],[[653,1863],[1,2]],[[654,1865],[48,-16]],[[702,1849],[2,-2]],[[704,1848],[-2,1]],[[705,1847],[2,-1]],[[707,1846],[-2,1]],[[707,1846],[7,-4]],[[714,1842],[1,-1]],[[716,1842],[-2,0]],[[716,1841],[2,-1]],[[718,1840],[-1,1]],[[718,1840],[234,-120],[462,-74],[87,19]],[[1544,1495],[139,-20],[219,-186]],[[1972,1304],[-2,0]],[[1975,1305],[330,-99]],[[2314,1204],[341,-114]],[[2669,1085],[237,-123]],[[653,1862],[0,1]],[[653,1863],[-1,0],[1,-1]],[[654,1855],[-1,0],[1,-1],[0,1]],[[704,1847],[1,0],[0,1],[-1,-1]],[[716,1842],[-1,-1]],[[715,1841],[1,-1],[1,1],[-1,1]],[[3202,2826]],[[2917,2936],[48,-9]],[[2690,2086],[-2,6]],[[3320,827],[-1,-10]],[[3321,813],[1,11]],[[2980,960],[1,0]],[[3295,1084],[-14,24]],[[3935,3644],[-19,10],[1,212],[40,55]],[[3774,1221],[-54,-156],[-31,-26]],[[3774,1221],[2,3]],[[3775,1223],[-1,-2]],[[3187,377],[-88,11],[-11,-21]],[[3088,367],[11,20],[89,-11]],[[3853,1341],[-4,-5]],[[3882,1370],[-25,-24]],[[3882,1370],[2,1]],[[3883,1372],[-1,-2]],[[3885,1373],[-1,0]],[[3885,1372],[0,1]],[[4096,1570],[-211,-197]],[[2542,4096],[2,-15]],[[2544,4081],[-1,15]],[[2577,3095],[-58,355],[74,240],[-49,391]],[[2545,3037],[1,-9],[0,-1]],[[2546,3027],[36,-63],[4,-5],[10,-26]],[[2596,2933],[-49,81],[-1,13]],[[2546,3027],[-1,15]],[[2565,3072],[12,23]],[[2577,3095],[-9,-21]],[[2650,2223],[-54,710]],[[2650,2223],[1,-35]],[[2651,2188],[37,-96]],[[2948,1680],[-81,38],[-177,368]],[[2957,1672],[-9,8]],[[3142,1449],[-120,117],[-65,106]],[[3142,1449],[2,-4]],[[3157,1405],[-13,40]],[[3157,1405],[0,-1]],[[3158,1404],[-1,1]],[[3157,1404],[0,-1],[1,0]],[[3158,1403],[0,1],[-1,0]],[[3157,1402],[1,-1]],[[3158,1401],[0,2]],[[3169,1365],[-11,36]],[[3484,347],[-1,-4]],[[3531,121],[14,-22]],[[3546,100],[-14,21]],[[3418,3851],[2,-1]],[[3420,3850],[-1,1]],[[3437,3843],[-17,7]],[[3278,212],[-1,0]],[[0,4096],[4096,0],[0,-4096],[-4096,0],[0,4096]],[[1621,2213],[125,47],[118,-16],[-5,-48],[18,-3],[-29,-14],[-45,28],[-42,-20],[-53,37],[-84,-28],[-3,17]],[[1245,0],[-67,0],[9,59],[58,-59]],[[1988,0],[-162,0],[-7,22],[33,53],[124,-62],[12,-13]],[[4096,1711],[-7,15],[-5,86],[12,0],[0,-101]],[[0,2865],[0,313],[72,-51],[-29,-80],[-2,-152],[-41,-30]],[[3233,3191],[43,-274],[-54,-44],[-238,-9],[-27,89],[59,69],[33,211],[17,5],[16,-58],[95,60],[34,-7],[22,-42]],[[3437,3917],[33,0],[12,-36],[-12,-122],[-130,105],[-2,62],[67,149],[23,-14],[9,-144]],[[3477,1055],[-7,-85],[86,7],[58,142],[154,-124],[122,-341],[67,-25],[28,-42],[3,-91],[-75,-17],[-187,49],[-62,-32],[0,-53],[-65,0],[0,-53],[-97,0],[-32,-52],[-65,0],[-32,-105],[-65,0],[-32,-53],[-65,0],[0,-53],[-195,0],[-94,87],[-3,71],[26,30],[104,-30],[161,53],[-31,53],[-195,-1],[0,211],[-65,53],[0,105],[33,53],[-68,222],[3,93],[52,-60],[207,-97],[29,33],[-94,124],[-23,80],[110,156],[43,133],[62,-34],[100,-124],[0,-53],[72,-92],[60,-31],[-28,-107]],[[2445,1838],[26,30],[133,-11],[-17,-69],[-51,12],[-19,-21],[-72,59]],[[3448,4096],[-160,-80],[-31,17],[-56,-66],[-263,112],[2,17],[508,0]],[[3955,4096],[-24,-15],[-22,15],[46,0]],[[3200,263],[70,116],[48,-24],[45,15],[17,-28],[-29,-18],[12,-72],[-28,33],[-33,-67],[-102,45]],[[1012,523],[51,160],[-9,114],[29,45],[96,8],[-27,-41],[20,-93],[-54,-164],[22,-35],[-58,-73],[-70,79]],[[3423,1075],[39,-2],[30,52],[69,19],[32,-51],[-33,6],[-5,-33],[50,-44],[-9,-92],[-28,-2],[15,36],[-74,21],[1,-40],[-41,-16],[0,-31],[-36,27],[22,133],[-32,17]],[[3456,973],[3,-4],[31,-6],[-10,8],[-24,2]],[[3455,1071],[2,-4],[9,-3],[0,7],[-11,0]],[[3578,1031],[7,-1],[2,4],[-6,1],[-3,-4]],[[3432,978],[25,106],[39,-2],[-5,43],[240,61],[47,39],[48,-5],[35,62],[38,-123],[75,-38],[44,-4],[78,59],[0,-244],[-46,31],[-98,-53],[-120,45],[-3,-20],[-104,-31],[-37,37],[15,70],[-35,69],[-74,-43],[5,-62],[-128,-49],[-2,-29],[-36,29],[15,47],[-16,5]],[[4096,1252],[-19,12],[5,17],[14,2],[0,-31]],[[324,4096],[18,-91],[-52,-120],[-32,-6],[31,141],[-10,76],[45,0]],[[116,4096],[47,-97],[-22,-74],[-55,21],[4,140],[26,10]]]}