{"objects":{"water":{"type":"GeometryCollection","geometries":[]},"buildings":{"type":"GeometryCollection","geometries":[]},"places":{"type":"GeometryCollection","geometries":[{"type":"Point","properties":{"name:pt":"Eslov\u00e1quia","name:cy":"Slofacia","name:mt":"Slovakkja","name:ko":"\uc2ac\ub85c\ubc14\ud0a4\uc544","name:kn":"\u0cb8\u0ccd\u0cb2\u0ccb\u0cb5\u0cbe\u0c95\u0cbf\u0caf\u0cbe","name:km":"\u179f\u17d2\u179b\u17bc\u179c\u17c9\u17b6\u1782\u17b8","name:kl":"Slovakia","alt_name:eo":"Slovakio","name:ki":"Slovakia","name:tr":"Slovakya","name:ku":"Slovakya","name:ti":"\u1235\u120e\u126b\u12aa\u12eb","name:ks":"\u0633\u064e\u0644\u0648\u0648\u0627\u06a9\u0650\u06cc\u0627","name:to":"Sil\u014dvakia","name:sv":"Slovakien","name:or":"\u0b38\u0b4d\u0b32\u0b4b\u0b2d\u0b3e\u0b15\u0b3f\u0b06","name:pl":"S\u0142owacja","name:ta":"\u0bb8\u0bcd\u0bb2\u0bcb\u0bb5\u0bbe\u0b95\u0bbf\u0baf\u0bbe","name:tg":"\u0421\u043b\u043e\u0432\u0430\u043a\u0438\u044f","name:ca":"Eslov\u00e0quia","name:te":"\u0c38\u0c4d\u0c32\u0c4b\u0c35\u0c47\u0c15\u0c3f\u0c2f\u0c3e","name:hu":"Szlov\u00e1kia","name:ro":"Slovacia","name:ka":"\u10e1\u10da\u10dd\u10d5\u10d0\u10d9\u10d4\u10d7\u10d8","name:hr":"Slova\u010dka","name:da":"Slovakiet","name:de":"Slowakei","name:dz":"\u0f66\u0f74\u0f0b\u0f63\u0f7c\u0f0b\u0f56\u0f71\u0f0b\u0f40\u0f72\u0f0b\u0f61","source":"openstreetmap.org","name:lv":"Slov\u0101kija","name:lt":"Slovakija","name:uz":"Slovakiya","name:he":"\u05e1\u05dc\u05d5\u05d1\u05e7\u05d9\u05d4","kind":"country","name:ur":"\u0633\u0644\u0648\u0648\u0627\u06a9\u06cc\u06c1","name:lb":"Slowakei","name:la":"Slovacia","name:lg":"Sirovakya","name:uk":"\u0421\u043b\u043e\u0432\u0430\u0447\u0447\u0438\u043d\u0430","name:hy":"\u054d\u056c\u0578\u057e\u0561\u056f\u056b\u0561","min_zoom":2.0,"name:li":"Slowakie\u00eb","name:ln":"Silovaki","name:lo":"\u0eaa\u0eb0\u0ec2\u0ea5\u0ea7\u0eb2\u0ec0\u0e81\u0e8d","name:oc":"Eslovaquia","population":5404322,"name:el":"\u03a3\u03bb\u03bf\u03b2\u03b1\u03ba\u03af\u03b1","name:eo":"Slovakujo","name:en":"Slovakia","name":"Slovensko","name:ee":"Slovakia nutome","nat_name":"Slovensk\u00e1 republika","name:th":"\u0e1b\u0e23\u0e30\u0e40\u0e17\u0e28\u0e2a\u0e42\u0e25\u0e27\u0e32\u0e40\u0e01\u0e35\u0e22","name:gu":"\u0ab8\u0acd\u0ab2\u0acb\u0ab5\u0ac7\u0a95\u0abf\u0aaf\u0abe","name:eu":"Eslovakia","name:et":"Slovakkia","name:nl":"Slowakije","name:es":"Eslovaquia","name:ia":"Slovachia","name:rm":"Slovachia","name:rn":"Silovakiya","name:az":"Slovakiya","name:id":"Slowakia","name:ms":"Slovakia","name:mr":"\u0938\u094d\u0932\u094b\u0935\u094d\u0939\u093e\u0915\u093f\u092f\u093e","name:ar":"\u062c\u0645\u0647\u0648\u0631\u064a\u0629 \u0633\u0644\u0648\u0641\u0627\u0643\u064a\u0627","name:my":"\u1005\u101c\u102d\u102f\u1017\u1031\u1038\u1000\u102e\u1038\u101a\u102c\u1038","name:io":"Slovakia","name:is":"Sl\u00f3vak\u00eda","name:am":"\u1235\u120e\u126b\u12aa\u12eb","name:it":"Slovacchia","name:vi":"Slovakia","name:ru":"\u0421\u043b\u043e\u0432\u0430\u043a\u0438\u044f","name:mn":"\u0421\u043b\u043e\u0432\u0430\u043a","id":432425079,"name:mk":"\u0421\u043b\u043e\u0432\u0430\u0447\u043a\u0430","name:af":"Slowakye","name:zu":"i-Slovakia","name:ha":"Sulobakiya","name:nn":"Slovakia","name:ff":"Slowakii","name:fi":"Slovakia","name:hi":"\u0938\u094d\u0932\u094b\u0935\u093e\u0915\u093f\u092f\u093e","name:mg":"Slovakia","name:fo":"Slovakia","name:fr":"Slovaquie","name:fy":"Slowakije","name:vo":"Slovakiy\u00e4n","name:zh":"\u65af\u6d1b\u4f10\u514b","name:gv":"Yn Clovack","name:so":"Slovakia","name:sn":"Slovakia","name:sl":"Slova\u0161ka","int_name":"Slovak Republic","name:ja":"\u30b9\u30ed\u30d0\u30ad\u30a2","name:si":"\u0dc3\u0dca\u0dbd\u0ddd\u0dc0\u0dd0\u0d9a\u0dd2\u0dba\u0dcf\u0dc0","name:fa":"\u0627\u0633\u0644\u0648\u0627\u06a9\u06cc","name:sg":"Solovak\u00efi","name:se":"Slov\u00e1kia","name:ne":"\u0938\u094d\u0932\u094b\u092d\u093e\u0915\u093f\u092f\u093e","name:br":"Slovakia","name:bs":"Slova\u010dka","name:bm":"Slowaki","name:bn":"\u09b6\u09cd\u09b2\u09cb\u09ad\u09be\u0995\u09bf\u09af\u09bc\u09be","name:bo":"\u0f66\u0f0b\u0f63\u0f7d\u0f0b\u0f5d\u0f40\u0fb1\u0f0d","name:ml":"\u0d38\u0d4d\u0d32\u0d4b\u0d35\u0d3e\u0d15\u0d4d\u0d2f","name:no":"Slovakia","name:sw":"Slovakia","name:be":"\u0421\u043b\u0430\u0432\u0430\u043a\u0456\u044f","name:bg":"\u0421\u043b\u043e\u0432\u0430\u043a\u0438\u044f","name:sr":"\u0421\u043b\u043e\u0432\u0430\u0447\u043a\u0430","name:sq":"Sllovaki","name:ga":"An tSl\u00f3vaic","name:gd":"An t-Sl\u00f2bhac","name:gl":"Eslovaquia","name:yo":"Or\u00edl\u1eb9\u0301\u00e8de Silofakia","name:ak":"Slovakia"},"coordinates":[3413,3300]},{"type":"Point","properties":{"source":"naturalearthdata.com","kind":"locality","name":"Zvolen","population":44502,"min_zoom":7.0,"id":2671},"coordinates":[2482,2608]},{"type":"Point","properties":{"kind":"locality","name":"Bansk\u00e1 Bystrica","kind_detail":"city","name:de":"Neusohl","source":"openstreetmap.org","min_zoom":8.0,"name:la":"Neosolium","name:sr":"\u0411\u0430\u043d\u0441\u043a\u0430 \u0411\u0438\u0441\u0442\u0440\u0438\u0446\u0430","old_name":"Ba\u0148sk\u00e1 Bystrica","loc_name":"Banska Bystrica,Bansk\u00e1 Bystrica,Ba\u0144ska Bystrzyca,Besztercebanya","name:ru":"\u0411\u0430\u043d\u0441\u043a\u0430-\u0411\u0438\u0441\u0442\u0440\u0438\u0446\u0430","name:pl":"Ba\u0144ska Bystrzyca","name:hu":"Beszterceb\u00e1nya","id":26037873,"population":80466},"coordinates":[2552,3287]},{"type":"Point","properties":{"kind":"locality","name":"Prievidza","kind_detail":"town","name:de":"Priwitz","source":"openstreetmap.org","min_zoom":8.0,"loc_name":"Previdza,Prievidza,Privigye","name:hu":"Privigye","id":26038145,"population":50919},"coordinates":[997,3434]},{"type":"Point","properties":{"kind":"locality","name":"Zvolen","kind_detail":"town","name:de":"Altsohl","source":"openstreetmap.org","min_zoom":8.0,"name:la":"Veterosolium","loc_name":"Zolyom;Zwolen;Zwole\u0144","name:ru":"\u0417\u0432\u043e\u043b\u0435\u043d","name:pl":"Zwole\u0144","name:hu":"Z\u00f3lyom","id":26035729,"population":42778},"coordinates":[2468,2576]},{"type":"Point","properties":{"kind":"locality","name":"Levice","kind_detail":"town","name:de":"Lewenz","source":"openstreetmap.org","min_zoom":8.0,"loc_name":"Leva,Levice,L\u00e9va","name:ru":"\u041b\u0435\u0432\u0438\u0446\u0435","name:hu":"L\u00e9va","id":530544378,"population":35830},"coordinates":[929,994]},{"type":"Point","properties":{"kind":"locality","name":"Lu\u010denec","kind_detail":"town","name:de":"Lizenz","source":"openstreetmap.org","min_zoom":8.0,"loc_name":"Losonc,Losoncz,Lucenec,Luchenec,Lu\u010denec","name:ru":"\u041b\u0443\u0447\u0435\u043d\u0435\u0446","name:pl":"\u0141uczeniec","name:hu":"Losonc","id":26037388,"population":27690},"coordinates":[4027,1494]},{"type":"Point","properties":{"kind":"locality","name":"Partiz\u00e1nske","kind_detail":"town","source":"openstreetmap.org","min_zoom":8.0,"loc_name":"Ba\u0165ovany,Ba\u0165ovany,Partizanske,Partiz\u00e1nske,Simonovany,Simony,\u0160imonovany","name:hu":"Simony","id":26036300,"population":24335},"coordinates":[267,2796]},{"type":"Point","properties":{"kind":"locality","name":"Brezno","alt_name:de":"Briesen","kind_detail":"town","name:de":"Bries","source":"openstreetmap.org","min_zoom":8.0,"old_name":"Brezno nad Hronom","name:hu":"Brezn\u00f3b\u00e1nya","id":26037561,"population":22116},"coordinates":[3960,3581]},{"type":"Point","properties":{"kind":"locality","name":"\u017diar nad Hronom","kind_detail":"town","name:de":"Heiligenkreuz an der Gran","source":"openstreetmap.org","min_zoom":8.0,"loc_name":"Svaty Kriz nad Hronom,Sv\u00e4t\u00fd Kr\u00ed\u017e nad Hronom","name:pl":"\u017bar nad Hronem","name:hu":"Garamszentkereszt","id":26038430,"population":19782},"coordinates":[1657,2640]},{"type":"Point","properties":{"kind":"locality","name":"Handlov\u00e1","kind_detail":"town","name:de":"Krickerhau","source":"openstreetmap.org","min_zoom":8.0,"old_name":"Krickerhau","name:hu":"Nyitrab\u00e1nya","id":26035755,"population":17688},"coordinates":[1402,3257]},{"type":"Point","properties":{"kind":"locality","name:sk":"Bal\u00e1\u017eske \u010earmoty","name":"Balassagyarmat","kind_detail":"town","name:de":"Jahrmarkt","source":"openstreetmap.org","min_zoom":8.0,"name:ru":"\u0411\u0430\u043b\u0430\u0448\u0448\u0430\u0434\u044c\u044f\u0440\u043c\u0430\u0442","id":243687006,"population":15280},"coordinates":[2946,382]},{"type":"Point","properties":{"kind":"locality","name":"Detva","kind_detail":"town","source":"openstreetmap.org","min_zoom":8.0,"name:hu":"Gyetva","id":26038066,"population":14977},"coordinates":[3303,2438]},{"type":"Point","properties":{"kind":"locality","name":"Ve\u013ek\u00fd Krt\u00ed\u0161","kind_detail":"town","source":"openstreetmap.org","min_zoom":8.0,"loc_name":"Krtis,Krt\u00ed\u0161","name:ru":"\u0412\u0435\u043b\u044c\u043a\u0438-\u041a\u0440\u0442\u0438\u0448","name:hu":"Nagyk\u00fcrt\u00f6s","id":26037466,"population":13649},"coordinates":[3110,964]},{"type":"Point","properties":{"kind":"locality","name":"Zlat\u00e9 Moravce","kind_detail":"town","name:de":"Goldmorawitz","source":"openstreetmap.org","min_zoom":8.0,"name:ru":"\u0417\u043b\u0430\u0442\u0435 \u041c\u043e\u0440\u0430\u0432\u0446\u0435","name:pl":"Z\u0142ote Moravce","name:hu":"Aranyosmar\u00f3t","id":26037381,"population":13289},"coordinates":[346,1728]},{"type":"Point","properties":{"kind":"locality","name":"Bansk\u00e1 \u0160tiavnica","alt_name:de":"Schebnitz","kind_detail":"town","name:de":"Schemnitz","source":"openstreetmap.org","min_zoom":8.0,"loc_name":"Banska Stiavnica,Banska Stiavnica a Banska Bela,Bansk\u00e1 \u0160tiavnica,Bansk\u00e1 \u0160tiavnica a Bansk\u00e1 Bel\u00e1,Schemnitz,Selmecbanya,Selmecb\u00e1nya,Selmeczbanya,Selmeczb\u00e1nya","name:ru":"\u0411\u0430\u043d\u0441\u043a\u0430 \u0428\u0442\u044c\u044f\u0432\u043d\u0438\u0446\u0430","name:pl":"Ba\u0144ska Szczawnica","name:hu":"Selmecb\u00e1nya","id":26036174,"population":10640},"coordinates":[1799,2056]},{"type":"Point","properties":{"kind":"locality","name":"Vr\u00e1ble","kind_detail":"town","source":"openstreetmap.org","min_zoom":8.0,"loc_name":"Verebely,Vereb\u00e9ly","name:hu":"Vereb\u00e9ly","id":26036308,"population":9381},"coordinates":[72,1117]},{"type":"Point","properties":{"kind":"locality","name":"\u0160ahy","kind_detail":"town","name:de":"Eipelschlag","source":"openstreetmap.org","min_zoom":8.0,"loc_name":"\u0160ahy,Ipolysag,Ipolys\u00e1g,Sag,Sahy,Shagi,S\u00e1g","name:hu":"Ipolys\u00e1g","id":26037053,"population":7949},"coordinates":[1946,349]},{"type":"Point","properties":{"kind":"locality","name":"Hri\u0148ov\u00e1","kind_detail":"town","name:de":"Hrinau","source":"openstreetmap.org","min_zoom":8.0,"old_name:hu":"Hrinyov\u00e1","name:pl":"Hrinova","name:hu":"Herencsv\u00f6lgy","id":26037655,"population":7923},"coordinates":[3625,2576]},{"type":"Point","properties":{"kind":"locality","name":"Krupina","kind_detail":"town","name:de":"Karpfen","source":"openstreetmap.org","min_zoom":8.0,"name:ru":"\u041a\u0440\u0443\u043f\u0438\u043d\u0430","name:hu":"Korpona","id":26036792,"population":7797},"coordinates":[2295,1593]},{"type":"Point","properties":{"kind":"locality","name":"\u017deliezovce","kind_detail":"town","name:de":"Zelis","source":"openstreetmap.org","min_zoom":8.0,"loc_name":"Zseliz","name:hu":"Zseliz","id":26037308,"population":7471},"coordinates":[1098,260]},{"type":"Point","properties":{"kind":"locality","name":"Nov\u00e1 Ba\u0148a","kind_detail":"town","name:de":"K\u00f6nigsberg","source":"openstreetmap.org","min_zoom":8.0,"name:hu":"\u00dajb\u00e1nya","id":26035889,"population":7422},"coordinates":[1049,1909]},{"type":"Point","properties":{"kind":"locality","name":"Tur\u010dianske Teplice","kind_detail":"town","name:de":"Bad Stuben","source":"openstreetmap.org","min_zoom":8.0,"old_name":"\u0160tubnianske Teplice","loc_name":"Turcianske Teplice,Tur\u010dianske Teplice","name:ru":"\u0422\u0443\u0440\u0447\u044c\u044f\u043d\u0441\u043a\u0435 \u0422\u0435\u043f\u043b\u0438\u0446\u0435","name:pl":"Turcianske Teplice","name:hu":"Stubnyaf\u00fcrd\u0151","id":26036360,"population":6991},"coordinates":[1688,3828]},{"type":"Point","properties":{"kind":"locality","name":"\u017darnovica","kind_detail":"town","name:de":"Scharnowitz","source":"openstreetmap.org","min_zoom":8.0,"loc_name":"Zarovnica,\u017darovnica","name:ru":"\u0416\u0430\u0440\u043d\u043e\u0432\u0438\u0446\u0430","name:hu":"Zsarn\u00f3ca","id":26035810,"population":6393},"coordinates":[1282,2167]},{"type":"Point","properties":{"kind":"locality","name:sk":"Se\u010dany","name":"Sz\u00e9cs\u00e9ny","kind_detail":"town","source":"openstreetmap.org","min_zoom":8.0,"name:ru":"\u0421\u0435\u0447\u0435\u043d\u044c","id":243688206,"population":5883},"coordinates":[3612,402]},{"type":"Point","properties":{"kind":"locality","name":"Kremnica","kind_detail":"town","name:de":"Kremnitz","source":"openstreetmap.org","min_zoom":8.0,"name:la":"Cremnicium","loc_name":"Koermoecbanya,Kormoczbanya,Kremnica,Kremnitz,K\u00f6rm\u00f6cb\u00e1nya,K\u00f6rm\u00f6czb\u00e1nya","name:ru":"\u041a\u0440\u0435\u043c\u043d\u0438\u0446\u0430","name:hu":"K\u00f6rm\u00f6cb\u00e1nya","id":26036937,"population":5558},"coordinates":[1851,3148]},{"type":"Point","properties":{"kind":"locality","name":"Bojnice","kind_detail":"town","name:de":"Weinitz","source":"openstreetmap.org","min_zoom":8.0,"name:hu":"Bajm\u00f3c","id":26036701,"population":4951},"coordinates":[877,3470]},{"type":"Point","properties":{"kind":"locality","name":"Slia\u010d","kind_detail":"town","source":"openstreetmap.org","min_zoom":8.0,"loc_name":"Sliacske Kupele,Slia\u010dsk\u00e9 K\u00fapele","name:hu":"Szil\u00e1cs","id":26037643,"population":4845},"coordinates":[2508,2737]},{"type":"Point","properties":{"kind":"locality","name":"Nov\u00e1ky","kind_detail":"town","source":"openstreetmap.org","min_zoom":8.0,"loc_name":"Navaky","name:hu":"Nyitranov\u00e1k","id":26037204,"population":4427},"coordinates":[756,3191]},{"type":"Point","properties":{"kind":"locality","name":"Tlma\u010de","kind_detail":"town","source":"openstreetmap.org","min_zoom":8.0,"loc_name":"Garamtolmacs,Garamtolm\u00e1cs,Timac,Timace,Tima\u010d,Tima\u010de","name:hu":"Garamtolm\u00e1cs","id":26037285,"population":4095},"coordinates":[730,1313]},{"type":"Point","properties":{"kind":"locality","name":"Modr\u00fd Kame\u0148","kind_detail":"town","name:de":"Blauenstein","source":"openstreetmap.org","min_zoom":8.0,"loc_name":"Kekko,K\u00e9kk\u0151","name:pl":"Niebieski Kamie\u0144","name:hu":"K\u00e9kk\u0151","id":26037335,"population":1522},"coordinates":[3067,1102]},{"type":"Point","properties":{"kind":"locality","name":"Dudince","kind_detail":"town","name:de":"Dudintze","source":"openstreetmap.org","min_zoom":8.0,"name:hu":"Gy\u0171gy","id":26037541,"population":1520},"coordinates":[1751,787]}]},"transit":{"type":"GeometryCollection","geometries":[{"type":"LineString","properties":{"source":"openstreetmap.org","kind":"train","name":"ZSSK: Bratislava-Zvolen-Kosice","sort_rank":275,"ref":"R","min_zoom":6.0,"osm_relation":true},"arcs":[11]},{"type":"MultiLineString","properties":{"kind":"train","name":"R Zvolen-Zilina-Ostrava","service":"semifast_train","sort_rank":275,"source":"openstreetmap.org","min_zoom":6.0,"operator":"ZSSK;CD","ref":"R","osm_relation":true},"arcs":[[12],[13],[14]]},{"type":"LineString","properties":{"kind":"train","name":"S780: Balassagyarmat => Becske als\u00f3 => Asz\u00f3d","sort_rank":275,"source":"openstreetmap.org","min_zoom":6.0,"operator":"M\u00c1V-Start","ref":"S780","id":-5189554,"osm_relation":true},"arcs":[15]},{"type":"LineString","properties":{"kind":"train","name":"S780: Asz\u00f3d => Balassagyarmat","sort_rank":275,"source":"openstreetmap.org","min_zoom":6.0,"operator":"M\u00c1V-Start","ref":"S780","id":-5189551,"osm_relation":true},"arcs":[16]},{"type":"LineString","properties":{"kind":"train","name:en":"Blue line","description":"\u010cierny Balog \u2013 Dobro\u010d","sort_rank":275,"source":"openstreetmap.org","min_zoom":6.0,"operator":"chz","id":-2320049,"osm_relation":true,"name":"Modr\u00e1 trasa"},"arcs":[17]},{"type":"LineString","properties":{"kind":"train","name":"S790: Ipolytarn\u00f3c => Balassagyarmat","sort_rank":275,"source":"openstreetmap.org","min_zoom":6.0,"operator":"M\u00c1V-Start","ref":"S790","id":-5189556,"osm_relation":true},"arcs":[18]},{"type":"LineString","properties":{"kind":"train","name":"S790: Balassagyarmat => Ipolytarn\u00f3c","sort_rank":275,"source":"openstreetmap.org","min_zoom":6.0,"operator":"M\u00c1V-Start","ref":"S790","id":-5189555,"osm_relation":true},"arcs":[19]},{"type":"MultiLineString","properties":{"kind":"train","name":"S750: V\u00e1c => Di\u00f3sjen\u0151 => Dr\u00e9gelypal\u00e1nk => Balassagyarmat","service":"regional","sort_rank":275,"source":"openstreetmap.org","min_zoom":6.0,"operator":"M\u00c1V-Start","ref":"S750","osm_relation":true},"arcs":[[20],[21],[22],[23],[24]]},{"type":"LineString","properties":{"kind":"train","name:en":"Red line","description":"\u010cierny Balog - Chvatimech","sort_rank":275,"source":"openstreetmap.org","min_zoom":6.0,"operator":"chz","id":-2320051,"osm_relation":true,"name":"\u010cerven\u00e1 trasa"},"arcs":[25]},{"type":"MultiLineString","properties":{"kind":"train","name":"S750: Balassagyarmat => Di\u00f3sjen\u0151 => V\u00e1c","service":"regional","sort_rank":275,"source":"openstreetmap.org","min_zoom":6.0,"operator":"M\u00c1V-Start","ref":"S750","osm_relation":true},"arcs":[[26],[27],[28],[29],[30]]},{"type":"LineString","properties":{"kind":"train","name":"S750: V\u00e1c => Di\u00f3sjen\u0151 => S\u00e1ferk\u00fat => Dr\u00e9gelypal\u00e1nk","service":"regional","sort_rank":275,"source":"openstreetmap.org","min_zoom":6.0,"operator":"M\u00c1V-Start","ref":"S750","id":-5189549,"osm_relation":true},"arcs":[31]},{"type":"MultiLineString","properties":{"kind":"train","name":"S750: Balassagyarmat => S\u00e1ferk\u00fat => Di\u00f3sjen\u0151 => V\u00e1c","service":"regional","sort_rank":275,"source":"openstreetmap.org","min_zoom":6.0,"operator":"M\u00c1V-Start","ref":"S750","osm_relation":true},"arcs":[[32],[33],[34],[35],[36]]},{"type":"LineString","properties":{"kind":"train","name":"S750: Dr\u00e9gelypal\u00e1nk => Balassagyarmat","service":"regional","sort_rank":275,"source":"openstreetmap.org","min_zoom":6.0,"operator":"M\u00c1V-Start","ref":"S750","id":-5189546,"osm_relation":true},"arcs":[37]},{"type":"LineString","properties":{"kind":"train","name":"S750: V\u00e1c => Di\u00f3sjen\u0151 => Dr\u00e9gelypal\u00e1nk","service":"regional","sort_rank":275,"source":"openstreetmap.org","min_zoom":6.0,"operator":"M\u00c1V-Start","ref":"S750","id":-5189548,"osm_relation":true},"arcs":[38]},{"type":"LineString","properties":{"kind":"train","name:en":"Green line","description":"\u010cierny Balog - Vydrovo","sort_rank":275,"source":"openstreetmap.org","min_zoom":6.0,"operator":"chz","id":-2320050,"osm_relation":true,"name":"Zelen\u00e1 trasa"},"arcs":[39]},{"type":"LineString","properties":{"kind":"train","name":"S780: Asz\u00f3d => Becske als\u00f3 => Balassagyarmat","sort_rank":275,"source":"openstreetmap.org","min_zoom":6.0,"operator":"M\u00c1V-Start","ref":"S780","id":-5189552,"osm_relation":true},"arcs":[40]},{"type":"MultiLineString","properties":{"source":"openstreetmap.org","kind":"train","sort_rank":275,"ref":"319","min_zoom":6.0,"osm_relation":true},"arcs":[[41],[42],[43],[44],[45],[46],[47],[48],[49],[50],[51],[52],[53],[54],[55],[56],[57],[58],[59],[60],[61],[62],[63],[64],[65],[66],[67],[68],[69],[70],[71],[72],[73],[74],[75],[76],[77],[78],[79],[80],[81],[82],[83],[84],[85],[86],[87],[88],[89],[90],[91],[92],[93],[94],[95],[96],[97],[98],[99],[100],[101],[102],[103],[104],[105],[106],[107],[108],[109],[110],[111],[112],[113],[114],[115],[116],[117],[118],[119],[120],[121],[122],[123],[124],[125],[126],[127],[128],[129],[130]]},{"type":"LineString","properties":{"kind":"train","name":"S780: Balassagyarmat => Asz\u00f3d","sort_rank":275,"source":"openstreetmap.org","min_zoom":6.0,"operator":"M\u00c1V-Start","ref":"S780","id":-5189553,"osm_relation":true},"arcs":[131]},{"type":"MultiLineString","properties":{"kind":"train","name":"S750: V\u00e1c => Di\u00f3sjen\u0151 => S\u00e1ferk\u00fat => Dr\u00e9gelypal\u00e1nk => Balassagyarmat","service":"regional","sort_rank":275,"source":"openstreetmap.org","min_zoom":6.0,"operator":"M\u00c1V-Start","ref":"S750","osm_relation":true},"arcs":[[132],[133],[134],[135],[136]]}]},"pois":{"type":"GeometryCollection","geometries":[{"type":"Point","properties":{"source":"openstreetmap.org","kind":"military","name":"Vojensk\u00fd obvod Le\u0161\u0165","area":330890000,"tier":3,"min_zoom":8.0,"id":35009270},"coordinates":[2970,1644]}]},"boundaries":{"type":"GeometryCollection","geometries":[{"type":"LineString","properties":{"name:right:yo":"Slof\u00e1k\u00ed\u00e0","name:right:yi":"\u05e1\u05dc\u05d0\u05d5\u05d5\u05d0\u05e7\u05d9\u05d9","name:left:la":"Hungaria","name:right:qu":"Isluwakya","name:left:li":"Hongarie\u00eb","name:left:vi":"Hungary","name:left:sw":"Hungaria","name:left:kg":"Hongrie","name:left:ka":"\u10e3\u10dc\u10d2\u10e0\u10d4\u10d7\u10d8","name:left:km":"\u1794\u17d2\u179a\u1791\u17c1\u179f\u17a0\u17bb\u1784\u1782\u17d2\u179a\u17b8","name:left:kl":"Ungarni","name:left:ko":"\ud5dd\uac00\ub9ac","name:right:it":"Slovacchia","name:left:ki":"Macartsa","name:left:ro":"Ungaria","name:left:kk":"\u041c\u0430\u0436\u0430\u0440\u0441\u0442\u0430\u043d","name:left:rm":"Ungaria","name:left:ku":"Macaristan","name:left:kw":"Hungari","name:left:kv":"\u041c\u0430\u0434\u044c\u044f\u0440 \u041c\u0443","name:left:rw":"Hongiriya","name:left:ru":"\u0412\u0435\u043d\u0433\u0440\u0438\u044f","name:right:ie":"Slovacia","name:right:id":"Slowakia","name:left:ky":"\u041c\u0430\u0436\u0430\u0440\u0441\u0442\u0430\u043d","name:right:ia":"Slovachia","name:right:bi":"Slovakia","name:right:bn":"\u09b8\u09cd\u09b2\u09cb\u09ad\u09be\u0995\u09bf\u09af\u09bc\u09be","name:right:bo":"\u0f66\u0f72\u0f0b\u0f63\u0f7c\u0f0b\u0f55\u0f0b\u0f41\u0f7a\u0f0d","name:left:sl":"Mad\u017earska","name:left:zh_PY":"Xiongyali","name:right:bg":"\u0421\u043b\u043e\u0432\u0430\u043a\u0438\u044f","name:right:be":"\u0421\u043b\u0430\u0432\u0430\u043a\u0456\u044f","name:right:br":"Slovakia","name:left:lt":"Vengrija","name:right:nn":"Slovakia","name:right:no":"Slovakia","name:right:nl":"Slowakije","name:left:lv":"Ung\u0101rija","name:right:wo":"Eslowaaki","name:right:ne":"\u0938\u094d\u0932\u094b\u092d\u093e\u0915\u093f\u092f\u093e","name:right:na":"Slowakia","name:right:gv":"Yn Clovack","name:right:nv":"S\u0142\u00f3ba\u02bc Bik\u00e9yah","kind_detail":"2","name:left:tr":"Macaristan","name:right:gu":"\u0ab8\u0acd\u0ab2\u0acb\u0ab5\u0abe\u0a95\u0abf\u0aaf\u0abe","name:right:ps":"\u0633\u0644\u0648\u0627\u06a9\u064a\u0627","name:right:pt":"Eslov\u00e1quia","name:left:mk":"\u0423\u043d\u0433\u0430\u0440\u0438\u0458\u0430","name:left:mi":"Hanekeria","name:left:ts":"Hungary","name:left:tt":"\u041c\u0430\u0497\u0430\u0440\u0441\u0442\u0430\u043d","name:left:mn":"\u0423\u043d\u0433\u0430\u0440","name:left:ml":"\u0d39\u0d02\u0d17\u0d31\u0d3f","name:left:th":"\u0e1b\u0e23\u0e30\u0e40\u0e17\u0e28\u0e2e\u0e31\u0e07\u0e01\u0e32\u0e23\u0e35","name:left:mr":"\u0939\u0902\u0917\u0947\u0930\u0940","name:left:tk":"Wengri\u00fda","name:left:tl":"Unggarya","name:left:mt":"Ungerija","name:right:gl":"Eslovaquia","name:left:my":"\u101f\u1014\u103a\u1002\u1031\u101b\u102e\u1014\u102d\u102f\u1004\u103a\u1004\u1036","name:right:gn":"Elovakia","name:right:pl":"S\u0142owacja","name:left:te":"\u0c39\u0c02\u0c17\u0c47\u0c30\u0c3f","name:left:tg":"\u041c\u0430\u04b7\u043e\u0440\u0438\u0441\u0442\u043e\u043d","name:left:ms":"Hungary","name:right:gd":"An t-Sl\u00f2bhac","name:right:tr":"Slovakya","name:left:da":"Ungarn","name:left:de":"Ungarn","name:right:ga":"An tSl\u00f3vaic","name:left:dv":"\u0780\u07a6\u0782\u07b0\u078e\u07ad\u0783\u07a9","name:right:ug":"\u0633\u0644\u0648\u06cb\u0627\u0643\u0649\u064a\u06d5","name:left:hi":"\u0939\u0902\u0917\u0930\u0940","name:right:lb":"Slowakei","name:right:uk":"\u0421\u043b\u043e\u0432\u0430\u0447\u0447\u0438\u043d\u0430","name:left:he":"\u05d4\u05d5\u05e0\u05d2\u05e8\u05d9\u05d4","name:right:ln":"Slovakia","name:right:li":"Slowakie\u00eb","name:right:lt":"Slovakija","name:right:ur":"\u0633\u0644\u0648\u0648\u0627\u06a9\u06cc\u06c1","name:right:lv":"Slov\u0101kija","name:left:hy":"\u0540\u0578\u0582\u0576\u0563\u0561\u0580\u056b\u0561","name:left:ta":"\u0b85\u0b99\u0bcd\u0b95\u0bc7\u0bb0\u0bbf","name:left:ht":"Ongri","name:right:uz":"Slovakiya","name:left:hr":"Ma\u0111arska","sort_rank":262,"name:right:os":"\u0421\u043b\u043e\u0432\u0430\u043a\u0438","name:right:es":"Eslovaquia","name:right:sr":"\u0421\u043b\u043e\u0432\u0430\u0447\u043a\u0430","name:right:eu":"Eslovakia","name:right:et":"Slovakkia","name:left:os":"\u0412\u0435\u043d\u0433\u0440\u0438","name:left:or":"\u0b39\u0b19\u0b4d\u0b17\u0b47\u0b30\u0b40","name:right:ee":"Slovakia","name:left:vo":"Macar\u00e4n","name:left:oc":"Ongria","name:right:eo":"Slovakujo","name:right:en":"Slovakia","name:right:el":"\u03a3\u03bb\u03bf\u03b2\u03b1\u03ba\u03af\u03b1","name:left:ff":"Hunngariya","name:left:fa":"\u0645\u062c\u0627\u0631\u0633\u062a\u0627\u0646","name:left:fo":"Ungarn","name:left:fi":"Unkari","name:left:fr":"Hongrie","name:left:fy":"Hongarije","name:right:ja":"\u30b9\u30ed\u30d0\u30ad\u30a2","name:right:sq":"Sllovakia","name:right:ss":"Silovakhi","name:left:ja":"\u30cf\u30f3\u30ac\u30ea\u30fc","name:right:su":"Slovakia","name:right:st":"Slovakia","name:right:sw":"Slovakia","name:right:sv":"Slovakien","name:right:sh":"Slova\u010dka","name:left:qu":"Unriya","name:right:jv":"Slowakia","name:right:sl":"Slova\u0161ka","name:right:so":"Islofaakiya","name:right:sa":"\u0938\u094d\u0932\u094b\u0935\u093e\u0915\u093f\u092f\u093e","name:left:jv":"Hongaria","id":-21335,"name:right:co":"Sluvacchia","name:right:ca":"Eslov\u00e0quia","name:right:se":"Slovakia","name:right:ce":"\u0421\u043b\u043e\u0432\u0430\u043a\u0438","name:right:cy":"Slofacia","name:right:zh-yue":"\u65af\u6d1b\u4f10\u514b","name:right:cu":"\u0421\u043b\u043e\u0432\u0463\u043d\u044c\u0441\u043a\u043e","name:right:cv":"\u0421\u043b\u043e\u0432\u0430\u043a\u0438","name:left:ar":"\u0627\u0644\u0645\u062c\u0631","name:right:is":"Sl\u00f3vak\u00eda","name:left:az":"Macar\u0131stan","name:left:ay":"Hunkariya","name:right:rw":"Silovakiya","name:left:af":"Hongarye","name:left:ab":"\u041c\u0430\u0434\u0438\u0430\u0440\u0442\u04d9\u044b\u043b\u0430","name:left:an":"Hongr\u00eda","name:left:am":"\u1200\u1295\u130b\u122a","name:right:ru":"\u0421\u043b\u043e\u0432\u0430\u043a\u0438\u044f","name:right:io":"Slovakia","name:left:zh-yue":"\u5308\u7259\u5229","name:right:ro":"Slovacia","name:right:hy":"\u054d\u056c\u0578\u057e\u0561\u056f\u056b\u0561","name:left:lb":"Ungarn","alt_name:left:eo":"Hungario","name:left:su":"Hungaria","name:left:st":"Hungary","name:right:hr":"Slova\u010dka","name:left:sv":"Ungern","name:left:sq":"Hungaria","name:right:hu":"Szlov\u00e1kia","name:left:ss":"IHangareyi","name:left:sr":"\u041c\u0430\u0452\u0430\u0440\u0441\u043a\u0430","name:left:sm":"Hungary","name:right:hi":"\u0938\u094d\u0932\u094b\u0935\u093e\u0915\u093f\u092f\u093e","name:left:so":"Hungaria","name:left:sn":"Hungary","name:left:si":"\u0dc4\u0db1\u0dca\u0d9c\u0dda\u0dbb\u0dd2\u0dba\u0dcf\u0db1\u0dd4 \u0dc3\u0db8\u0dd4\u0dc4\u0dcf\u0dab\u0dca\u0da9\u0dd4\u0dc0","name:left:sh":"Ma\u0111arska","name:left:sk":"Ma\u010farsko","name:left:se":"U\u014bg\u00e1r","name:left:sa":"\u0939\u0902\u0917\u0930\u0940","name:right:he":"\u05e1\u05dc\u05d5\u05d1\u05e7\u05d9\u05d4","name:right:la":"Slovacia","name:right:af":"Slowakye","name:left:co":"Ungheria","name:left:ce":"\u0412\u0435\u043d\u0433\u0440\u0438","name:right:an":"Eslovaquia","name:right:am":"\u1235\u120e\u126b\u12aa\u12eb","name:left:ca":"Hongria","source":"openstreetmap.org","name:left:cy":"Hwngari","name:right:ar":"\u0633\u0644\u0648\u0641\u0627\u0643\u064a\u0627","name:left:cu":"\u046a\u0433\u0440\u0438","name:left:cv":"\u0412\u0435\u043d\u0433\u0440\u0438","name:right:az":"Slovakiya","name:left:cs":"Ma\u010farsko","name:right:rm":"Slovachia","name":"Magyarorsz\u00e1g - Slovensko","name:right:zu":"ISlovaki","name:left:zh":"\u5308\u7259\u5229","name:right:zh":"\u65af\u6d1b\u4f10\u514b","name:left:uz":"Mojariston","name:right:ba":"\u0421\u043b\u043e\u0432\u0430\u043a\u0438\u044f","name:right:fr":"Slovaquie","name:left:ps":"\u0647\u0646\u06ab\u0631\u064a","name:left:nv":"H\u00e1ngewii","name:left:ur":"\u0645\u062c\u0627\u0631\u0633\u062a\u0627\u0646","id:right":-14296,"name:left:uk":"\u0423\u0433\u043e\u0440\u0449\u0438\u043d\u0430","name:left:no":"Ungern","name:left:nl":"Hongarije","alt_name:right:eo":"Slovakio","name:right:fa":"\u0627\u0633\u0644\u0648\u0627\u06a9\u06cc","name:right:fo":"Slovakia","name:left:ne":"\u0939\u0902\u0917\u0947\u0930\u0940","name:left:ug":"\u06cb\u06d0\u0646\u06af\u0631\u0649\u064a\u06d5","name:left:na":"Ungari","name:left:eo":"Hungarujo","name:left:en":"Hungary","name:left:el":"\u039f\u03c5\u03b3\u03b3\u03b1\u03c1\u03af\u03b1","name:left:ee":"Hungary","name:left:pl":"W\u0119gry","name:left:es":"Hungr\u00eda","name:left:ie":"Hungaria","name:left:eu":"Hungaria","name:left:et":"Ungari","name:right:oc":"Eslovaquia","name:left:ia":"Hungaria","name:right:bs":"Slova\u010dka","osm_relation":true,"name:right:or":"\u0b38\u0b4d\u0b32\u0b4b\u0b2d\u0b3e\u0b15\u0b3f\u0b06","name:left:pt":"Hungria","name:right:ku":"Slovakya","name:right:tk":"Slowaki\u00fda","min_zoom":8.0,"name:left:ln":"Ungri","name:left:wo":"Ongiri","name:left:ga":"An Ung\u00e1ir","name:left:it":"Ungheria","name:left:gd":"An Ungair","name:left:gl":"Hungr\u00eda - Magyarorsz\u00e1g","name:left:gn":"Hungyria","name:left:gu":"\u0ab9\u0a82\u0a97\u0ac7\u0ab0\u0ac0","name:left:gv":"Yn Ungaar","official_name:right":"Slovensk\u00e1 republika","name:left":"Magyarorsz\u00e1g","name:right:mk":"\u0421\u043b\u043e\u0432\u0430\u0447\u043a\u0430","name:right:mi":"Horow\u0101kia","name:right:mn":"\u0421\u043b\u043e\u0432\u0430\u043a","name:right:ml":"\u0d38\u0d4d\u0d32\u0d4b\u0d35\u0d3e\u0d15\u0d4d\u0d2f","name:right:vo":"Slovakiy\u00e4n","name:right:vi":"Slovakia","name:right:my":"\u1006\u101c\u102d\u102f\u1017\u102c\u1038\u1000\u102e\u1038\u101a\u102c\u1038\u1014\u102d\u102f\u1004\u103a\u1004\u1036","name:right:ms":"Slovakia","name:right:mr":"\u0938\u094d\u0932\u094b\u0935\u094d\u0939\u093e\u0915\u093f\u092f\u093e","name:right:fy":"Slowakije","name:right:mt":"Slovakkja","name:left:nn":"Ungarn","kind":"country","name:left:br":"Hungaria","name:left:bs":"Ma\u0111arska","int_name:left":"Hungary","name:left:ba":"\u0412\u0435\u043d\u0433\u0440\u0438\u044f","name:left:bg":"\u0423\u043d\u0433\u0430\u0440\u0438\u044f","name:left:be":"\u0412\u0435\u043d\u0433\u0440\u044b\u044f","name:left:bi":"Hungary","name:left:bn":"\u09b9\u09be\u0999\u09cd\u0997\u09c7\u09b0\u09bf","name:left:bo":"\u0f67\u0f74\u0f44\u0f0b\u0f42\u0fb7\u0f0b\u0f62\u0f72\u0f0d","name:right":"Slovensko","name:left:yo":"H\u00fang\u00e1r\u00ec","name:left:yi":"\u05d0\u05d5\u05e0\u05d2\u05d0\u05e8\u05df","id:left":-21335,"name:right:fi":"Slovakia","name:right:ka":"\u10e1\u10da\u10dd\u10d5\u10d0\u10d9\u10d4\u10d7\u10d8","name:left:io":"Hungaria","name:left:pa":"\u0a39\u0a70\u0a17\u0a30\u0a40","name:right:kg":"Slovakia","name:right:tt":"\u0421\u043b\u043e\u0432\u0430\u043a\u0438\u044f","name:right:kk":"\u0421\u043b\u043e\u0432\u0430\u043a\u0438\u044f","name:left:id":"Hongaria","name:right:kl":"Slovakia","name:right:ko":"\uc2ac\ub85c\ubc14\ud0a4\uc544","name:right:tl":"Eslobakya","name:right:th":"\u0e1b\u0e23\u0e30\u0e40\u0e17\u0e28\u0e2a\u0e42\u0e25\u0e27\u0e32\u0e40\u0e01\u0e35\u0e22","name:right:kw":"Slovaki","name:right:kv":"\u0421\u043b\u043e\u0432\u0430\u043a\u0438\u044f","name:right:ky":"\u0421\u043b\u043e\u0432\u0430\u043a\u0438\u044f","name:left:zh-min-nan":"Magyar-kok","name:right:tg":"\u0421\u043b\u043e\u0432\u0430\u043a\u0438\u044f","name:left:is":"Ungverjaland","name:right:ta":"\u0b9a\u0bbf\u0bb2\u0bcb\u0bb5\u0bbe\u0b95\u0bcd\u0b95\u0bbf\u0baf\u0bbe","name:right:de":"Slowakei","name:right:da":"Slovakiet","name:right:dv":"\u0790\u07aa\u078d\u07ae\u0788\u07a7\u0786\u07a8\u0787\u07a7","name:right:ht":"Slovaki"},"arcs":[0]},{"type":"MultiLineString","properties":{"name:left:pl":"Kraj ba\u0144skobystrzycki","id:left":-388270,"name:right:hu":"Zsolnai ker\u00fclet","id:right":-388269,"min_zoom":8.0,"name:left:ru":"\u0411\u0430\u043d\u0441\u043a\u043e\u0431\u0438\u0441\u0442\u0440\u0438\u0446\u043a\u0438\u0439 \u043a\u0440\u0430\u0439","name:left:hu":"Beszterceb\u00e1nyai ker\u00fclet","name:right:ru":"\u0416\u0438\u043b\u0438\u043d\u0441\u043a\u0438\u0439 \u043a\u0440\u0430\u0439","name:right:pl":"Kraj \u017cyli\u0144ski","id":-388270,"osm_relation":true,"name:right":"\u017dilinsk\u00fd kraj","kind":"region","name":"Banskobystrick\u00fd kraj - \u017dilinsk\u00fd kraj","source":"openstreetmap.org","sort_rank":256,"kind_detail":"4","name:left:de":"Neusohler Landschaftsverband","name:right:en":"Region of \u017dilina","name:left:en":"Region of Bansk\u00e1 Bystrica","name:right:de":"Silleiner Landschaftsverband","name:left":"Banskobystrick\u00fd kraj"},"arcs":[[1],[2]]},{"type":"LineString","properties":{"name:left:pl":"Kraj ba\u0144skobystrzycki","id:left":-388270,"name:right:hu":"Trencs\u00e9ni ker\u00fclet","id:right":-388267,"min_zoom":8.0,"name:left:ru":"\u0411\u0430\u043d\u0441\u043a\u043e\u0431\u0438\u0441\u0442\u0440\u0438\u0446\u043a\u0438\u0439 \u043a\u0440\u0430\u0439","name:left:hu":"Beszterceb\u00e1nyai ker\u00fclet","name:right:ru":"\u0422\u0440\u0435\u043d\u0447\u0438\u043d\u0441\u043a\u0438\u0439 \u043a\u0440\u0430\u0439","name:right:pl":"Kraj trenczy\u0144ski","id":-388270,"osm_relation":true,"name:right":"Tren\u010diansky kraj","kind":"region","name":"Banskobystrick\u00fd kraj - Tren\u010diansky kraj","source":"openstreetmap.org","sort_rank":256,"kind_detail":"4","name:left:de":"Neusohler Landschaftsverband","name:right:en":"Region of Tren\u010d\u00edn","name:left:en":"Region of Bansk\u00e1 Bystrica","name:right:de":"Trentschiner Landschaftsverband","name:left":"Banskobystrick\u00fd kraj"},"arcs":[3]},{"type":"LineString","properties":{"name:right:uk":"\u041f\u0456\u0432\u043d\u0456\u0447\u043d\u0438\u0439 \u0412\u0435\u043b\u0438\u043a\u0438\u0439 \u0410\u043b\u044c\u0444\u0435\u043b\u044c\u0434","name:right:hr":"Sjeverni Alf\u00f6ld","name:right:sr":"\u0412\u0435\u043b\u0438\u043a\u0435 \u0440\u0430\u0432\u043d\u0438\u0446\u0435 \u0438 \u0441\u0435\u0432\u0435\u0440\u043d\u0430 \u041c\u0430\u0452\u0430\u0440\u0441\u043a\u0430","id:right":-22793,"min_zoom":8.0,"name:right:ro":"Marea C\u00e2mpie \u0219i Nordul","name:left:en":"Region of Bansk\u00e1 Bystrica","name:left:ru":"\u0411\u0430\u043d\u0441\u043a\u043e\u0431\u0438\u0441\u0442\u0440\u0438\u0446\u043a\u0438\u0439 \u043a\u0440\u0430\u0439","name:left:hu":"Beszterceb\u00e1nyai ker\u00fclet","name:right:ru":"\u0421\u0435\u0432\u0435\u0440\u043d\u044b\u0439 \u0410\u043b\u044c\u0444\u0451\u043b\u044c\u0434","id":-388270,"osm_relation":true,"name:right":"Alf\u00f6ld \u00e9s \u00c9szak","kind":"region","name":"Banskobystrick\u00fd kraj - Alf\u00f6ld \u00e9s \u00c9szak","source":"openstreetmap.org","sort_rank":256,"kind_detail":"4","name:left:de":"Neusohler Landschaftsverband","name:right:en":"Great Plain and North","name:left:pl":"Kraj ba\u0144skobystrzycki","name:right:de":"N\u00f6rdliche Gro\u00dfe Tiefebene","id:left":-388270,"name:left":"Banskobystrick\u00fd kraj"},"arcs":[4]},{"type":"LineString","properties":{"kind":"region","name:en":"Region of Bansk\u00e1 Bystrica","name":"Banskobystrick\u00fd kraj","sort_rank":256,"kind_detail":"4","name:de":"Neusohler Landschaftsverband","source":"openstreetmap.org","min_zoom":8.0,"name:ru":"\u0411\u0430\u043d\u0441\u043a\u043e\u0431\u0438\u0441\u0442\u0440\u0438\u0446\u043a\u0438\u0439 \u043a\u0440\u0430\u0439","name:pl":"Kraj ba\u0144skobystrzycki","name:hu":"Beszterceb\u00e1nyai ker\u00fclet","id":-388270,"osm_relation":true},"arcs":[5]},{"type":"LineString","properties":{"name:left:pl":"Kraj \u017cyli\u0144ski","id:left":-388269,"name:right:hu":"Trencs\u00e9ni ker\u00fclet","id:right":-388267,"min_zoom":8.0,"name:left:ru":"\u0416\u0438\u043b\u0438\u043d\u0441\u043a\u0438\u0439 \u043a\u0440\u0430\u0439","name:left:hu":"Zsolnai ker\u00fclet","name:right:ru":"\u0422\u0440\u0435\u043d\u0447\u0438\u043d\u0441\u043a\u0438\u0439 \u043a\u0440\u0430\u0439","name:right:pl":"Kraj trenczy\u0144ski","id":-388269,"osm_relation":true,"name:right":"Tren\u010diansky kraj","kind":"region","name":"\u017dilinsk\u00fd kraj - Tren\u010diansky kraj","source":"openstreetmap.org","sort_rank":256,"kind_detail":"4","name:left:de":"Silleiner Landschaftsverband","name:right:en":"Region of Tren\u010d\u00edn","name:left:en":"Region of \u017dilina","name:right:de":"Trentschiner Landschaftsverband","name:left":"\u017dilinsk\u00fd kraj"},"arcs":[6]},{"type":"LineString","properties":{"kind":"region","name:en":"Region of Tren\u010d\u00edn","name":"Tren\u010diansky kraj","sort_rank":256,"kind_detail":"4","name:de":"Trentschiner Landschaftsverband","source":"openstreetmap.org","min_zoom":8.0,"name:ru":"\u0422\u0440\u0435\u043d\u0447\u0438\u043d\u0441\u043a\u0438\u0439 \u043a\u0440\u0430\u0439","name:pl":"Kraj trenczy\u0144ski","name:hu":"Trencs\u00e9ni ker\u00fclet","id":-388267,"osm_relation":true},"arcs":[7]},{"type":"LineString","properties":{"name:right:hr":"Sredi\u0161nja Mad\u017earska","id:left":-22793,"name:left:ro":"Marea C\u00e2mpie \u0219i Nordul","name:left:sr":"\u0412\u0435\u043b\u0438\u043a\u0435 \u0440\u0430\u0432\u043d\u0438\u0446\u0435 \u0438 \u0441\u0435\u0432\u0435\u0440\u043d\u0430 \u041c\u0430\u0452\u0430\u0440\u0441\u043a\u0430","name:left:uk":"\u041f\u0456\u0432\u043d\u0456\u0447\u043d\u0438\u0439 \u0412\u0435\u043b\u0438\u043a\u0438\u0439 \u0410\u043b\u044c\u0444\u0435\u043b\u044c\u0434","min_zoom":8.0,"name:right:ro":"Ungaria Central\u0103","name:left:ru":"\u0421\u0435\u0432\u0435\u0440\u043d\u044b\u0439 \u0410\u043b\u044c\u0444\u0451\u043b\u044c\u0434","name:right:ru":"\u0426\u0435\u043d\u0442\u0440\u0430\u043b\u044c\u043d\u0430\u044f \u0412\u0435\u043d\u0433\u0440\u0438\u044f","id":-22793,"name:left:hr":"Sjeverni Alf\u00f6ld","name:right":"K\u00f6z\u00e9p-Magyarorsz\u00e1g","kind":"region","name":"Alf\u00f6ld \u00e9s \u00c9szak - K\u00f6z\u00e9p-Magyarorsz\u00e1g","source":"openstreetmap.org","sort_rank":256,"kind_detail":"4","name:left:de":"N\u00f6rdliche Gro\u00dfe Tiefebene","name:right:en":"Central Hungary","name:left:en":"Great Plain and North","osm_relation":true,"name:right:de":"Mittelungarn","id:right":-22786,"name:left":"Alf\u00f6ld \u00e9s \u00c9szak"},"arcs":[8]},{"type":"LineString","properties":{"kind":"region","name:en":"Great Plain and North","name":"Alf\u00f6ld \u00e9s \u00c9szak","sort_rank":256,"kind_detail":"4","name:de":"N\u00f6rdliche Gro\u00dfe Tiefebene","source":"openstreetmap.org","min_zoom":8.0,"name:ro":"Marea C\u00e2mpie \u0219i Nordul","name:sr":"\u0412\u0435\u043b\u0438\u043a\u0435 \u0440\u0430\u0432\u043d\u0438\u0446\u0435 \u0438 \u0441\u0435\u0432\u0435\u0440\u043d\u0430 \u041c\u0430\u0452\u0430\u0440\u0441\u043a\u0430","name:uk":"\u041f\u0456\u0432\u043d\u0456\u0447\u043d\u0438\u0439 \u0412\u0435\u043b\u0438\u043a\u0438\u0439 \u0410\u043b\u044c\u0444\u0435\u043b\u044c\u0434","name:ru":"\u0421\u0435\u0432\u0435\u0440\u043d\u044b\u0439 \u0410\u043b\u044c\u0444\u0451\u043b\u044c\u0434","name:hr":"Sjeverni Alf\u00f6ld","id":-22793,"osm_relation":true},"arcs":[9]},{"type":"LineString","properties":{"kind":"region","name:en":"Central Hungary","name":"K\u00f6z\u00e9p-Magyarorsz\u00e1g","sort_rank":256,"kind_detail":"4","name:de":"Mittelungarn","source":"openstreetmap.org","min_zoom":8.0,"name:ro":"Ungaria Central\u0103","name:ru":"\u0426\u0435\u043d\u0442\u0440\u0430\u043b\u044c\u043d\u0430\u044f \u0412\u0435\u043d\u0433\u0440\u0438\u044f","name:hr":"Sredi\u0161nja Mad\u017earska","id":-22786,"osm_relation":true},"arcs":[10]}]},"roads":{"type":"GeometryCollection","geometries":[{"type":"MultiLineString","properties":{"kind":"major_road","network":"e-road","sort_rank":380,"kind_detail":"primary","source":"openstreetmap.org","min_zoom":8.0,"shield_text":"572","ref":"9"},"arcs":[[137],[138],[139],[140],[141],[142],[143],[144],[145],[146],[147],[148],[149],[150]]},{"type":"MultiLineString","properties":{"kind":"highway","network":"e-road","sort_rank":383,"landuse_kind":"residential","source":"openstreetmap.org","min_zoom":8.0,"all_networks":["e-road","e-road"],"kind_detail":"motorway","shield_text":"58","ref":"R2","all_shield_texts":["58","571"]},"arcs":[[151],[152]]},{"type":"LineString","properties":{"kind":"major_road","sort_rank":379,"kind_detail":"secondary","is_bicycle_related":true,"bicycle_shield_text":"009","bicycle_network":"ncn","source":"openstreetmap.org","min_zoom":8.0,"ref":"595"},"arcs":[153]},{"type":"LineString","properties":{"kind":"major_road","network":"e-road","sort_rank":380,"kind_detail":"primary","is_bicycle_related":true,"bicycle_shield_text":"8555","bicycle_network":"rcn","source":"openstreetmap.org","min_zoom":8.0,"shield_text":"77","ref":"66"},"arcs":[154]},{"type":"MultiLineString","properties":{"kind":"major_road","network":null,"sort_rank":380,"kind_detail":"primary","source":"openstreetmap.org","min_zoom":8.0,"shield_text":"22","ref":"22"},"arcs":[[155],[156],[157],[158],[159]]},{"type":"LineString","properties":{"kind":"major_road","sort_rank":380,"kind_detail":"primary","is_bicycle_related":true,"bus_network":null,"bicycle_shield_text":"5552","bicycle_network":"rcn","source":"openstreetmap.org","min_zoom":8.0,"bus_shield_text":"603429","ref":"66","id":188114660},"arcs":[160]},{"type":"LineString","properties":{"kind":"minor_road","service":"driveway","sort_rank":356,"kind_detail":"service","is_bicycle_related":true,"bicycle_shield_text":"033","bicycle_network":"ncn","source":"openstreetmap.org","min_zoom":8.0},"arcs":[161]},{"type":"LineString","properties":{"kind":"major_road","sort_rank":380,"landuse_kind":"park","source":"openstreetmap.org","min_zoom":8.0,"kind_detail":"primary","ref":"65","id":268464985},"arcs":[162]},{"type":"MultiLineString","properties":{"kind":"path","sort_rank":354,"landuse_kind":"urban_area","is_bicycle_related":true,"bicycle_shield_text":"019","bicycle_network":"ncn","source":"openstreetmap.org","min_zoom":8.0,"kind_detail":"track"},"arcs":[[163],[164]]},{"type":"MultiLineString","properties":{"bus_network":null,"sort_rank":380,"kind_detail":"primary","kind":"major_road","source":"openstreetmap.org","min_zoom":8.0,"bus_shield_text":"603429","ref":"66"},"arcs":[[165],[166],[167]]},{"type":"MultiLineString","properties":{"kind":"major_road","network":"e-road","sort_rank":380,"kind_detail":"primary","is_bicycle_related":true,"bicycle_shield_text":"033","bicycle_network":"ncn","source":"openstreetmap.org","min_zoom":8.0,"landuse_kind":"park","shield_text":"77","ref":"59"},"arcs":[[168],[169]]},{"type":"LineString","properties":{"kind":"major_road","network":"sk:regional","sort_rank":380,"kind_detail":"primary","is_bicycle_related":true,"bicycle_shield_text":"2102","bicycle_network":"rcn","source":"openstreetmap.org","min_zoom":8.0,"shield_text":"75","ref":"75"},"arcs":[170]},{"type":"LineString","properties":{"kind":"major_road","sort_rank":377,"kind_detail":"tertiary","is_bicycle_related":true,"bicycle_shield_text":"011","bicycle_network":"ncn","source":"openstreetmap.org","min_zoom":8.0,"ref":"2691"},"arcs":[171]},{"type":"LineString","properties":{"kind":"minor_road","service":"parking_aisle","sort_rank":356,"kind_detail":"service","is_bicycle_related":true,"bicycle_shield_text":"045","bicycle_network":"ncn","source":"openstreetmap.org","min_zoom":8.0,"landuse_kind":"urban_area","id":275133964},"arcs":[172]},{"type":"LineString","properties":{"kind":"minor_road","sort_rank":358,"kind_detail":"service","is_bicycle_related":true,"bicycle_shield_text":null,"bicycle_network":"ncn","source":"openstreetmap.org","min_zoom":8.0,"landuse_kind":"park","id":167666250},"arcs":[173]},{"type":"LineString","properties":{"kind":"major_road","cycleway_left":"track","network":null,"sort_rank":380,"kind_detail":"primary","is_bicycle_related":true,"bicycle_shield_text":"2A","bicycle_network":"ncn","source":"openstreetmap.org","min_zoom":8.0,"shield_text":"22","ref":"22"},"arcs":[174]},{"type":"LineString","properties":{"kind":"minor_road","sort_rank":360,"kind_detail":"unclassified","is_bicycle_related":true,"bicycle_shield_text":"032","bicycle_network":"ncn","source":"openstreetmap.org","min_zoom":8.0,"id":24997632},"arcs":[175]},{"type":"LineString","properties":{"kind":"major_road","sort_rank":377,"kind_detail":"tertiary","is_bicycle_related":true,"bicycle_shield_text":"033","bicycle_network":"ncn","source":"openstreetmap.org","min_zoom":8.0,"ref":"2222","id":442497687},"arcs":[176]},{"type":"LineString","properties":{"kind":"minor_road","sort_rank":360,"kind_detail":"residential","is_bicycle_related":true,"bicycle_shield_text":"045","bicycle_network":"ncn","source":"openstreetmap.org","min_zoom":8.0,"landuse_kind":"urban_area","id":48490056},"arcs":[177]},{"type":"LineString","properties":{"kind":"minor_road","sort_rank":358,"kind_detail":"service","is_bicycle_related":true,"bicycle_shield_text":"019","bicycle_network":"ncn","source":"openstreetmap.org","min_zoom":8.0,"landuse_kind":"residential","id":155605015},"arcs":[178]},{"type":"MultiLineString","properties":{"kind":"path","sort_rank":354,"kind_detail":"track","is_bicycle_related":true,"bicycle_shield_text":"049","bicycle_network":"ncn","source":"openstreetmap.org","min_zoom":8.0,"landuse_kind":"park"},"arcs":[[179],[180],[181],[182],[183]]},{"type":"LineString","properties":{"kind":"major_road","network":"e-road","sort_rank":381,"kind_detail":"trunk","source":"openstreetmap.org","min_zoom":8.0,"shield_text":"58","ref":"R2","id":23372525},"arcs":[184]},{"type":"MultiLineString","properties":{"kind":"path","sort_rank":354,"kind_detail":"track","is_bicycle_related":true,"bicycle_shield_text":"21","bicycle_network":"ncn","source":"openstreetmap.org","min_zoom":8.0},"arcs":[[185],[186]]},{"type":"MultiLineString","properties":{"kind":"path","sort_rank":354,"landuse_kind":"residential","is_bicycle_related":true,"bicycle_shield_text":"019","bicycle_network":"ncn","source":"openstreetmap.org","min_zoom":8.0,"kind_detail":"footway"},"arcs":[[187],[188]]},{"type":"MultiLineString","properties":{"kind":"major_road","sort_rank":377,"kind_detail":"tertiary","is_bicycle_related":true,"bicycle_shield_text":"013","bicycle_network":"ncn","source":"openstreetmap.org","min_zoom":8.0,"ref":"2633"},"arcs":[[189],[190]]},{"type":"MultiLineString","properties":{"kind":"minor_road","sort_rank":360,"kind_detail":"residential","is_bicycle_related":true,"bicycle_shield_text":"041","bicycle_network":"ncn","source":"openstreetmap.org","min_zoom":8.0,"landuse_kind":"park"},"arcs":[[191],[192],[193]]},{"type":"MultiLineString","properties":{"kind":"minor_road","sort_rank":360,"kind_detail":"residential","is_bicycle_related":true,"bicycle_shield_text":"012","bicycle_network":"ncn","source":"openstreetmap.org","min_zoom":8.0},"arcs":[[194],[195],[196]]},{"type":"MultiLineString","properties":{"kind":"major_road","sort_rank":380,"kind_detail":"primary","is_bicycle_related":true,"bicycle_shield_text":"013","bicycle_network":"ncn","source":"openstreetmap.org","min_zoom":8.0,"ref":"16"},"arcs":[[197],[198],[199]]},{"type":"LineString","properties":{"bus_network":null,"sort_rank":380,"kind_detail":"primary","is_bicycle_related":true,"kind":"major_road","bicycle_shield_text":"8598","bicycle_network":"rcn","source":"openstreetmap.org","min_zoom":8.0,"bus_shield_text":"603429","ref":"72"},"arcs":[200]},{"type":"LineString","properties":{"kind":"major_road","sort_rank":377,"kind_detail":"tertiary","is_bicycle_related":true,"bicycle_shield_text":"045","bicycle_network":"ncn","source":"openstreetmap.org","min_zoom":8.0,"ref":"2512"},"arcs":[201]},{"type":"LineString","properties":{"kind":"major_road","sort_rank":379,"kind_detail":"secondary","is_bicycle_related":true,"bicycle_shield_text":"2A","bicycle_network":"ncn","source":"openstreetmap.org","min_zoom":8.0,"ref":"1201"},"arcs":[202]},{"type":"LineString","properties":{"kind":"major_road","sort_rank":377,"kind_detail":"tertiary","is_bicycle_related":true,"bicycle_shield_text":"011","bicycle_network":"ncn","source":"openstreetmap.org","min_zoom":8.0,"ref":"2463"},"arcs":[203]},{"type":"MultiLineString","properties":{"bus_network":null,"sort_rank":380,"kind_detail":"primary","kind":"major_road","source":"openstreetmap.org","min_zoom":8.0,"bus_shield_text":"606103","landuse_kind":"residential","ref":"75"},"arcs":[[204],[205]]},{"type":"MultiLineString","properties":{"kind":"minor_road","sort_rank":360,"kind_detail":"residential","is_bicycle_related":true,"bicycle_shield_text":"010","bicycle_network":"ncn","source":"openstreetmap.org","min_zoom":8.0},"arcs":[[206],[207]]},{"type":"MultiLineString","properties":{"kind":"path","sort_rank":354,"landuse_kind":"national_park","is_bicycle_related":true,"bicycle_shield_text":"042","bicycle_network":"ncn","source":"openstreetmap.org","min_zoom":8.0,"kind_detail":"path"},"arcs":[[208],[209]]},{"type":"MultiLineString","properties":{"kind":"major_road","sort_rank":379,"kind_detail":"secondary","is_bicycle_related":true,"bicycle_shield_text":"2A","bicycle_network":"ncn","source":"openstreetmap.org","min_zoom":8.0},"arcs":[[210],[211]]},{"type":"MultiLineString","properties":{"kind":"minor_road","sort_rank":360,"kind_detail":"residential","is_bicycle_related":true,"bicycle_shield_text":"019","bicycle_network":"ncn","source":"openstreetmap.org","min_zoom":8.0,"landuse_kind":"urban_area"},"arcs":[[212],[213],[214],[215],[216],[217]]},{"type":"LineString","properties":{"kind":"path","sort_rank":354,"kind_detail":"track","is_bicycle_related":true,"bicycle_shield_text":"8115","bicycle_network":"ncn","source":"openstreetmap.org","min_zoom":8.0,"id":203386745},"arcs":[218]},{"type":"MultiLineString","properties":{"source":"openstreetmap.org","kind":"major_road","sort_rank":380,"kind_detail":"primary","ref":"9","min_zoom":8.0},"arcs":[[219],[220],[221],[222]]},{"type":"LineString","properties":{"kind":"major_road","sort_rank":377,"kind_detail":"tertiary","is_bicycle_related":true,"bicycle_shield_text":"2A","bicycle_network":"ncn","source":"openstreetmap.org","min_zoom":8.0,"ref":"22101"},"arcs":[223]},{"type":"MultiLineString","properties":{"kind":"major_road","sort_rank":380,"kind_detail":"primary","is_bicycle_related":true,"bicycle_shield_text":"032","bicycle_network":"ncn","source":"openstreetmap.org","min_zoom":8.0,"ref":"65"},"arcs":[[224],[225]]},{"type":"MultiLineString","properties":{"kind":"path","sort_rank":354,"kind_detail":"track","is_bicycle_related":true,"bicycle_shield_text":"045","bicycle_network":"ncn","source":"openstreetmap.org","min_zoom":8.0},"arcs":[[226],[227],[228],[229],[230],[231]]},{"type":"LineString","properties":{"bus_network":"MHD Brezno","sort_rank":380,"kind_detail":"primary","is_bicycle_related":true,"kind":"major_road","bicycle_shield_text":"8602","bicycle_network":"rcn","source":"openstreetmap.org","min_zoom":8.0,"bus_shield_text":"1","ref":"66"},"arcs":[232]},{"type":"MultiLineString","properties":{"kind":"major_road","sort_rank":379,"kind_detail":"secondary","is_bicycle_related":true,"bicycle_shield_text":"013","bicycle_network":"ncn","source":"openstreetmap.org","min_zoom":8.0,"landuse_kind":"park","ref":"529"},"arcs":[[233],[234],[235],[236]]},{"type":"MultiLineString","properties":{"kind":"minor_road","sort_rank":360,"kind_detail":"residential","is_bicycle_related":true,"bicycle_shield_text":"033","bicycle_network":"ncn","source":"openstreetmap.org","min_zoom":8.0},"arcs":[[237],[238],[239],[240],[241],[242]]},{"type":"LineString","properties":{"bus_network":"MHD \u017diar nad Hronom","sort_rank":380,"kind_detail":"primary","kind":"major_road","source":"openstreetmap.org","min_zoom":8.0,"bus_shield_text":"1","ref":"65"},"arcs":[243]},{"type":"MultiLineString","properties":{"bus_network":"MHD Zvolen","network":"e-road","sort_rank":380,"kind_detail":"primary","kind":"major_road","source":"openstreetmap.org","min_zoom":8.0,"bus_shield_text":"1","shield_text":"77","landuse_kind":"urban_area","ref":"66"},"arcs":[[244],[245]]},{"type":"LineString","properties":{"kind":"major_road","sort_rank":380,"kind_detail":"primary","is_bicycle_related":true,"bicycle_shield_text":"052","bicycle_network":"ncn","source":"openstreetmap.org","min_zoom":8.0,"ref":"51","id":343761868},"arcs":[246]},{"type":"LineString","properties":{"kind":"major_road","sort_rank":377,"kind_detail":"tertiary","is_bicycle_related":true,"bicycle_shield_text":"026","bicycle_network":"ncn","source":"openstreetmap.org","min_zoom":8.0,"ref":"2375"},"arcs":[247]},{"type":"LineString","properties":{"kind":"major_road","sort_rank":377,"kind_detail":"tertiary","is_bicycle_related":true,"bicycle_shield_text":"011","bicycle_network":"ncn","source":"openstreetmap.org","min_zoom":8.0,"ref":"2692","id":32424374},"arcs":[248]},{"type":"LineString","properties":{"kind":"major_road","sort_rank":377,"kind_detail":"tertiary","is_bicycle_related":true,"bicycle_shield_text":"052","bicycle_network":"ncn","source":"openstreetmap.org","min_zoom":8.0,"landuse_kind":"park","ref":"2533"},"arcs":[249]},{"type":"MultiLineString","properties":{"kind":"minor_road","sort_rank":358,"landuse_kind":"urban_area","is_bicycle_related":true,"bicycle_shield_text":"019","bicycle_network":"ncn","source":"openstreetmap.org","min_zoom":8.0,"kind_detail":"service"},"arcs":[[250],[251]]},{"type":"LineString","properties":{"kind":"minor_road","sort_rank":360,"kind_detail":"unclassified","is_bicycle_related":true,"bicycle_shield_text":"8115","bicycle_network":"ncn","source":"openstreetmap.org","min_zoom":8.0},"arcs":[252]},{"type":"MultiLineString","properties":{"kind":"path","sort_rank":354,"landuse_kind":"park","is_bicycle_related":true,"bicycle_shield_text":null,"bicycle_network":"ncn","source":"openstreetmap.org","min_zoom":8.0,"kind_detail":"track"},"arcs":[[253],[254],[255],[256],[257],[258],[259],[260]]},{"type":"LineString","properties":{"kind":"major_road","sort_rank":377,"kind_detail":"tertiary","is_bicycle_related":true,"bicycle_shield_text":"012","bicycle_network":"ncn","source":"openstreetmap.org","min_zoom":8.0,"ref":"2455"},"arcs":[261]},{"type":"MultiLineString","properties":{"kind":"path","sort_rank":354,"kind_detail":"track","is_bicycle_related":true,"bicycle_shield_text":"010","bicycle_network":"ncn","source":"openstreetmap.org","min_zoom":8.0},"arcs":[[262],[263],[264],[265]]},{"type":"LineString","properties":{"kind":"major_road","network":"e-road","sort_rank":380,"kind_detail":"primary","is_bicycle_related":true,"bicycle_shield_text":"2574","bicycle_network":"rcn","source":"openstreetmap.org","min_zoom":8.0,"shield_text":"77","ref":"66"},"arcs":[266]},{"type":"LineString","properties":{"kind":"major_road","sort_rank":380,"kind_detail":"primary","is_bicycle_related":true,"bicycle_shield_text":"011","bicycle_network":"ncn","source":"openstreetmap.org","min_zoom":8.0,"ref":"16","id":334818783},"arcs":[267]},{"type":"MultiLineString","properties":{"kind":"major_road","network":"e-road","sort_rank":380,"kind_detail":"primary","source":"openstreetmap.org","min_zoom":8.0,"landuse_kind":"urban_area","shield_text":"572","ref":"9"},"arcs":[[268],[269],[270],[271],[272],[273]]},{"type":"LineString","properties":{"kind":"major_road","network":"e-road","sort_rank":380,"kind_detail":"primary","is_bicycle_related":true,"bicycle_shield_text":"2111","bicycle_network":"rcn","source":"openstreetmap.org","min_zoom":8.0,"shield_text":"77","ref":"66","id":360062327},"arcs":[274]},{"type":"MultiLineString","properties":{"kind":"minor_road","sort_rank":360,"kind_detail":"residential","is_bicycle_related":true,"bicycle_shield_text":"8115","bicycle_network":"ncn","source":"openstreetmap.org","min_zoom":8.0},"arcs":[[275],[276]]},{"type":"LineString","properties":{"kind":"major_road","network":null,"sort_rank":380,"kind_detail":"primary","is_bicycle_related":true,"bicycle_shield_text":"21","bicycle_network":"ncn","source":"openstreetmap.org","min_zoom":8.0,"shield_text":"22","ref":"22","id":427808290},"arcs":[277]},{"type":"LineString","properties":{"kind":"major_road","sort_rank":379,"kind_detail":"secondary","is_bicycle_related":true,"bicycle_shield_text":"052","bicycle_network":"ncn","source":"openstreetmap.org","min_zoom":8.0,"landuse_kind":"park","ref":"524"},"arcs":[278]},{"type":"MultiLineString","properties":{"kind":"major_road","network":"sk:regional","sort_rank":380,"kind_detail":"primary","source":"openstreetmap.org","min_zoom":8.0,"shield_text":"75","ref":"75"},"arcs":[[279],[280],[281],[282],[283]]},{"type":"MultiLineString","properties":{"kind":"path","sort_rank":354,"kind_detail":"track","is_bicycle_related":true,"bicycle_shield_text":"049","bicycle_network":"ncn","source":"openstreetmap.org","min_zoom":8.0},"arcs":[[284],[285],[286],[287]]},{"type":"LineString","properties":{"kind":"major_road","network":"e-road","sort_rank":380,"kind_detail":"primary","is_bicycle_related":true,"bicycle_shield_text":"019","bicycle_network":"ncn","source":"openstreetmap.org","min_zoom":8.0,"landuse_kind":"urban_area","shield_text":"572","ref":"9","id":170237240},"arcs":[288]},{"type":"MultiLineString","properties":{"sort_rank":380,"kind_detail":"primary","min_zoom":8.0,"kind":"major_road","source":"openstreetmap.org"},"arcs":[[289],[290]]},{"type":"LineString","properties":{"kind":"major_road","network":"sk:regional","sort_rank":380,"kind_detail":"primary","source":"openstreetmap.org","min_zoom":8.0,"shield_text":"511","ref":"65"},"arcs":[291]},{"type":"MultiLineString","properties":{"kind":"minor_road","sort_rank":360,"kind_detail":"residential","is_bicycle_related":true,"bicycle_shield_text":"019","bicycle_network":"ncn","source":"openstreetmap.org","min_zoom":8.0,"landuse_kind":"residential"},"arcs":[[292],[293],[294],[295]]},{"type":"MultiLineString","properties":{"kind":"minor_road","sort_rank":358,"landuse_kind":"urban_area","is_bicycle_related":true,"bicycle_shield_text":"045","bicycle_network":"ncn","source":"openstreetmap.org","min_zoom":8.0,"kind_detail":"service"},"arcs":[[296],[297]]},{"type":"LineString","properties":{"source":"openstreetmap.org","kind":"major_road","landuse_kind":"urban_area","sort_rank":380,"kind_detail":"primary","ref":"69","min_zoom":8.0},"arcs":[298]},{"type":"LineString","properties":{"kind":"major_road","sort_rank":377,"kind_detail":"tertiary","is_bicycle_related":true,"bicycle_shield_text":"026","bicycle_network":"ncn","source":"openstreetmap.org","min_zoom":8.0,"ref":"2395"},"arcs":[299]},{"type":"LineString","properties":{"kind":"major_road","sort_rank":380,"kind_detail":"primary","is_bicycle_related":true,"bicycle_shield_text":"8630","bicycle_network":"rcn","source":"openstreetmap.org","min_zoom":8.0,"landuse_kind":"park","ref":"51"},"arcs":[300]},{"type":"LineString","properties":{"kind":"minor_road","sort_rank":360,"kind_detail":"living_street","is_bicycle_related":true,"bicycle_shield_text":"019","bicycle_network":"ncn","source":"openstreetmap.org","min_zoom":8.0,"id":113949276},"arcs":[301]},{"type":"LineString","properties":{"kind":"major_road","sort_rank":377,"kind_detail":"tertiary","is_bicycle_related":true,"bicycle_shield_text":"013","bicycle_network":"ncn","source":"openstreetmap.org","min_zoom":8.0,"ref":"2634"},"arcs":[302]},{"type":"LineString","properties":{"kind":"major_road","sort_rank":379,"kind_detail":"secondary","is_bicycle_related":true,"bicycle_shield_text":"013","bicycle_network":"ncn","source":"openstreetmap.org","min_zoom":8.0,"ref":"526"},"arcs":[303]},{"type":"LineString","properties":{"kind":"major_road","sort_rank":380,"kind_detail":"primary","bus_network":null,"source":"openstreetmap.org","min_zoom":8.0,"bus_shield_text":"22","landuse_kind":"urban_area","ref":"69","id":99361425},"arcs":[304]},{"type":"MultiLineString","properties":{"bus_network":null,"sort_rank":380,"kind_detail":"primary","kind":"major_road","source":"openstreetmap.org","min_zoom":8.0,"bus_shield_text":"42","ref":"66"},"arcs":[[305],[306]]},{"type":"LineString","properties":{"kind":"major_road","sort_rank":380,"landuse_kind":"residential","is_bicycle_related":true,"bicycle_shield_text":"009","bicycle_network":"ncn","source":"openstreetmap.org","min_zoom":8.0,"kind_detail":"primary","ref":"75"},"arcs":[307]},{"type":"LineString","properties":{"kind":"major_road","sort_rank":377,"kind_detail":"tertiary","is_bicycle_related":true,"bicycle_shield_text":"2A","bicycle_network":"ncn","source":"openstreetmap.org","min_zoom":8.0,"ref":"12114"},"arcs":[308]},{"type":"LineString","properties":{"bus_network":"MHD \u017diar nad Hronom","sort_rank":380,"kind_detail":"primary","kind":"major_road","source":"openstreetmap.org","min_zoom":8.0,"bus_shield_text":"1","landuse_kind":"urban_area","ref":"65"},"arcs":[309]},{"type":"LineString","properties":{"kind":"major_road","sort_rank":377,"kind_detail":"tertiary","is_bicycle_related":true,"bicycle_shield_text":"013","bicycle_network":"ncn","source":"openstreetmap.org","min_zoom":8.0,"ref":"2394"},"arcs":[310]},{"type":"LineString","properties":{"kind":"minor_road","sort_rank":360,"kind_detail":"unclassified","is_bicycle_related":true,"bicycle_shield_text":"013","bicycle_network":"ncn","source":"openstreetmap.org","min_zoom":8.0,"landuse_kind":"park"},"arcs":[311]},{"type":"MultiLineString","properties":{"kind":"major_road","sort_rank":380,"kind_detail":"primary","bicycle_shield_text":"1","bicycle_network":null,"source":"openstreetmap.org","min_zoom":8.0,"landuse_kind":"park","ref":"51"},"arcs":[[312],[313],[314],[315]]},{"type":"LineString","properties":{"kind":"major_road","sort_rank":380,"kind_detail":"primary","is_bicycle_related":true,"bicycle_shield_text":"009","bicycle_network":"ncn","source":"openstreetmap.org","min_zoom":8.0,"ref":"75"},"arcs":[316]},{"type":"MultiLineString","properties":{"source":"openstreetmap.org","kind":"major_road","landuse_kind":"residential","sort_rank":380,"kind_detail":"primary","ref":"51","min_zoom":8.0},"arcs":[[317],[318],[319],[320],[321],[322],[323]]},{"type":"LineString","properties":{"bus_network":"MAD Zlat\u00e9 Moravce","sort_rank":377,"landuse_kind":"urban_area","is_bicycle_related":true,"kind":"major_road","bicycle_shield_text":"045","bicycle_network":"ncn","source":"openstreetmap.org","min_zoom":8.0,"bus_shield_text":"101","kind_detail":"tertiary","ref":"1624"},"arcs":[324]},{"type":"LineString","properties":{"bus_network":null,"network":"sk:national","sort_rank":380,"kind_detail":"primary","kind":"major_road","source":"openstreetmap.org","min_zoom":8.0,"bus_shield_text":"42","shield_text":"1","ref":"66"},"arcs":[325]},{"type":"LineString","properties":{"kind":"major_road","sort_rank":380,"kind_detail":"primary","is_bicycle_related":true,"bicycle_shield_text":"M-5155C","bicycle_network":"rcn","source":"openstreetmap.org","min_zoom":8.0,"ref":"76"},"arcs":[326]},{"type":"LineString","properties":{"kind":"path","sort_rank":354,"kind_detail":"cycleway","is_bicycle_related":true,"bicycle_shield_text":"019","bicycle_network":"ncn","source":"openstreetmap.org","min_zoom":8.0},"arcs":[327]},{"type":"LineString","properties":{"kind":"minor_road","sort_rank":358,"kind_detail":"service","is_bicycle_related":true,"bicycle_shield_text":"011","bicycle_network":"ncn","source":"openstreetmap.org","min_zoom":8.0,"id":42264620},"arcs":[328]},{"type":"LineString","properties":{"kind":"path","sort_rank":354,"kind_detail":"track","is_bicycle_related":true,"bicycle_shield_text":"052","bicycle_network":"ncn","source":"openstreetmap.org","min_zoom":8.0,"landuse_kind":"park","id":160522046},"arcs":[329]},{"type":"MultiLineString","properties":{"source":"openstreetmap.org","kind":"major_road","sort_rank":380,"kind_detail":"primary","ref":"14","min_zoom":8.0},"arcs":[[330],[331],[332]]},{"type":"LineString","properties":{"source":"openstreetmap.org","kind":"major_road","landuse_kind":"urban_area","sort_rank":380,"kind_detail":"primary","min_zoom":8.0},"arcs":[333]},{"type":"LineString","properties":{"kind":"major_road","sort_rank":377,"landuse_kind":"urban_area","is_bicycle_related":true,"bicycle_shield_text":"045","bicycle_network":"ncn","source":"openstreetmap.org","min_zoom":8.0,"kind_detail":"tertiary","ref":"1624"},"arcs":[334]},{"type":"LineString","properties":{"kind":"major_road","sort_rank":380,"kind_detail":"primary","is_bicycle_related":true,"bicycle_shield_text":"2A","bicycle_network":"ncn","source":"openstreetmap.org","min_zoom":8.0,"id":484089636},"arcs":[335]},{"type":"MultiLineString","properties":{"kind":"minor_road","sort_rank":360,"kind_detail":"residential","is_bicycle_related":true,"bicycle_shield_text":"019","bicycle_network":"ncn","source":"openstreetmap.org","min_zoom":8.0},"arcs":[[336],[337],[338],[339],[340],[341],[342]]},{"type":"MultiLineString","properties":{"kind":"major_road","sort_rank":380,"kind_detail":"primary","is_bicycle_related":true,"bicycle_shield_text":"019","bicycle_network":"ncn","source":"openstreetmap.org","min_zoom":8.0,"ref":"64"},"arcs":[[343],[344],[345],[346]]},{"type":"MultiLineString","properties":{"kind":"path","sort_rank":354,"landuse_kind":"national_park","is_bicycle_related":true,"bicycle_shield_text":"042","bicycle_network":"ncn","source":"openstreetmap.org","min_zoom":8.0,"kind_detail":"track"},"arcs":[[347],[348],[349]]},{"type":"MultiLineString","properties":{"kind":"major_road","network":"e-road","sort_rank":381,"kind_detail":"trunk","source":"openstreetmap.org","min_zoom":8.0,"shield_text":"572","ref":"R2"},"arcs":[[350],[351],[352]]},{"type":"LineString","properties":{"kind":"major_road","sort_rank":380,"kind_detail":"primary","is_bicycle_related":true,"bicycle_shield_text":"2593","bicycle_network":"rcn","source":"openstreetmap.org","min_zoom":8.0,"ref":"51","id":366019199},"arcs":[353]},{"type":"LineString","properties":{"kind":"major_road","sort_rank":377,"kind_detail":"tertiary","is_bicycle_related":true,"bicycle_shield_text":"011","bicycle_network":"ncn","source":"openstreetmap.org","min_zoom":8.0,"ref":"2560"},"arcs":[354]},{"type":"LineString","properties":{"kind":"major_road","sort_rank":380,"landuse_kind":"residential","source":"openstreetmap.org","min_zoom":8.0,"kind_detail":"primary","ref":"22","id":108220574},"arcs":[355]},{"type":"MultiLineString","properties":{"kind":"minor_road","sort_rank":360,"kind_detail":"unclassified","is_bicycle_related":true,"bicycle_shield_text":"011","bicycle_network":"ncn","source":"openstreetmap.org","min_zoom":8.0},"arcs":[[356],[357],[358],[359]]},{"type":"LineString","properties":{"kind":"major_road","sort_rank":380,"kind_detail":"primary","is_bicycle_related":true,"bicycle_shield_text":"019","bicycle_network":"ncn","source":"openstreetmap.org","min_zoom":8.0,"landuse_kind":"urban_area","ref":"64","id":170237233},"arcs":[360]},{"type":"LineString","properties":{"kind":"minor_road","service":"driveway","sort_rank":356,"kind_detail":"service","is_bicycle_related":true,"bicycle_shield_text":"045","bicycle_network":"ncn","source":"openstreetmap.org","min_zoom":8.0},"arcs":[361]},{"type":"LineString","properties":{"kind":"major_road","sort_rank":377,"kind_detail":"tertiary","is_bicycle_related":true,"bicycle_shield_text":"011","bicycle_network":"ncn","source":"openstreetmap.org","min_zoom":8.0,"ref":"2564"},"arcs":[362]},{"type":"LineString","properties":{"kind":"major_road","network":"ro:regional","sort_rank":380,"kind_detail":"primary","source":"openstreetmap.org","min_zoom":8.0,"shield_text":"2","ref":"2"},"arcs":[363]},{"type":"MultiLineString","properties":{"source":"openstreetmap.org","kind":"major_road","ref":"66","sort_rank":380,"kind_detail":"primary","is_bicycle_related":true,"min_zoom":8.0},"arcs":[[364],[365],[366]]},{"type":"LineString","properties":{"kind":"major_road","sort_rank":380,"kind_detail":"primary","is_bicycle_related":true,"bicycle_shield_text":"M-2454C","bicycle_network":"rcn","source":"openstreetmap.org","min_zoom":8.0,"ref":"65"},"arcs":[367]},{"type":"LineString","properties":{"kind":"minor_road","sort_rank":360,"landuse_kind":"residential","is_bicycle_related":true,"bicycle_shield_text":"013","bicycle_network":"ncn","source":"openstreetmap.org","min_zoom":8.0,"kind_detail":"unclassified"},"arcs":[368]},{"type":"LineString","properties":{"bus_network":null,"network":"e-road","sort_rank":380,"kind_detail":"primary","kind":"major_road","source":"openstreetmap.org","min_zoom":8.0,"bus_shield_text":"606101","shield_text":"58","ref":"16"},"arcs":[369]},{"type":"MultiLineString","properties":{"kind":"path","sort_rank":354,"kind_detail":"track","is_bicycle_related":true,"bicycle_shield_text":"019","bicycle_network":"ncn","source":"openstreetmap.org","min_zoom":8.0},"arcs":[[370],[371],[372],[373],[374],[375],[376]]},{"type":"MultiLineString","properties":{"kind":"major_road","network":"e-road","sort_rank":380,"kind_detail":"primary","is_bicycle_related":true,"bicycle_shield_text":"2308","bicycle_network":"rcn","source":"openstreetmap.org","min_zoom":8.0,"shield_text":"572","ref":"9"},"arcs":[[377],[378],[379]]},{"type":"LineString","properties":{"kind":"minor_road","sort_rank":360,"kind_detail":"residential","is_bicycle_related":true,"bicycle_shield_text":"2A","bicycle_network":"ncn","source":"openstreetmap.org","min_zoom":8.0},"arcs":[380]},{"type":"MultiLineString","properties":{"source":"openstreetmap.org","kind":"major_road","sort_rank":380,"kind_detail":"primary","ref":"76","min_zoom":8.0},"arcs":[[381],[382],[383],[384],[385],[386],[387],[388]]},{"type":"LineString","properties":{"kind":"major_road","sort_rank":379,"kind_detail":"secondary","is_bicycle_related":true,"bicycle_shield_text":"012","bicycle_network":"ncn","source":"openstreetmap.org","min_zoom":8.0,"ref":"591"},"arcs":[389]},{"type":"LineString","properties":{"kind":"minor_road","sort_rank":360,"kind_detail":"residential","is_bicycle_related":true,"bicycle_shield_text":"2A","bicycle_network":"ncn","source":"openstreetmap.org","min_zoom":8.0,"old_name":"K\u00f6zt\u00e1rsas\u00e1g t\u00e9r","landuse_kind":"residential"},"arcs":[390]},{"type":"LineString","properties":{"kind":"major_road","sort_rank":377,"kind_detail":"tertiary","is_bicycle_related":true,"bicycle_shield_text":"041","bicycle_network":"ncn","source":"openstreetmap.org","min_zoom":8.0,"landuse_kind":"park","ref":"2520"},"arcs":[391]},{"type":"LineString","properties":{"kind":"path","sort_rank":354,"kind_detail":"path","is_bicycle_related":true,"bicycle_shield_text":"033","bicycle_network":"ncn","source":"openstreetmap.org","min_zoom":8.0,"landuse_kind":"park"},"arcs":[392]},{"type":"MultiLineString","properties":{"source":"openstreetmap.org","kind":"major_road","landuse_kind":"urban_area","sort_rank":380,"kind_detail":"primary","ref":"66","min_zoom":8.0},"arcs":[[393],[394],[395]]},{"type":"MultiLineString","properties":{"kind":"major_road","network":"sk:national","sort_rank":381,"landuse_kind":"urban_area","source":"openstreetmap.org","min_zoom":8.0,"kind_detail":"trunk","shield_text":"1","ref":"R1"},"arcs":[[396],[397],[398],[399]]},{"type":"LineString","properties":{"bus_network":"MHD Zvolen","network":"e-road","sort_rank":380,"kind_detail":"primary","kind":"major_road","source":"openstreetmap.org","min_zoom":8.0,"bus_shield_text":"7","shield_text":"58","landuse_kind":"urban_area","ref":"16"},"arcs":[400]},{"type":"MultiLineString","properties":{"kind":"major_road","network":"e-road","sort_rank":380,"kind_detail":"primary","source":"openstreetmap.org","min_zoom":8.0,"landuse_kind":"urban_area","shield_text":"58","ref":"16"},"arcs":[[401],[402],[403],[404],[405]]},{"type":"LineString","properties":{"kind":"minor_road","sort_rank":360,"kind_detail":"residential","is_bicycle_related":true,"bicycle_shield_text":"2A","cycleway":"shared_lane","source":"openstreetmap.org","min_zoom":8.0,"bicycle_network":"ncn"},"arcs":[406]},{"type":"LineString","properties":{"kind":"major_road","sort_rank":377,"kind_detail":"tertiary","is_bicycle_related":true,"bicycle_shield_text":"033","bicycle_network":"ncn","source":"openstreetmap.org","min_zoom":8.0,"ref":"2421"},"arcs":[407]},{"type":"LineString","properties":{"kind":"major_road","sort_rank":377,"kind_detail":"tertiary","is_bicycle_related":true,"bicycle_shield_text":"019","bicycle_network":"ncn","source":"openstreetmap.org","min_zoom":8.0,"ref":"1759","id":54680010},"arcs":[408]},{"type":"MultiLineString","properties":{"kind":"major_road","sort_rank":377,"kind_detail":"tertiary","is_bicycle_related":true,"bicycle_shield_text":"041","bicycle_network":"ncn","source":"openstreetmap.org","min_zoom":8.0,"landuse_kind":"park","ref":"2530"},"arcs":[[409],[410],[411]]},{"type":"LineString","properties":{"kind":"minor_road","sort_rank":358,"kind_detail":"service","is_bicycle_related":true,"bicycle_shield_text":"013","bicycle_network":"ncn","source":"openstreetmap.org","min_zoom":8.0},"arcs":[412]},{"type":"MultiLineString","properties":{"kind":"major_road","sort_rank":379,"kind_detail":"secondary","is_bicycle_related":true,"bicycle_shield_text":"2B","bicycle_network":"ncn","source":"openstreetmap.org","min_zoom":8.0,"ref":"2205"},"arcs":[[413],[414]]},{"type":"LineString","properties":{"kind":"path","sort_rank":354,"kind_detail":"cycleway","is_bicycle_related":true,"bicycle_shield_text":"21","bicycle_network":"ncn","source":"openstreetmap.org","min_zoom":8.0},"arcs":[415]},{"type":"LineString","properties":{"kind":"major_road","sort_rank":377,"kind_detail":"tertiary","is_bicycle_related":true,"bicycle_shield_text":"052","bicycle_network":"ncn","source":"openstreetmap.org","min_zoom":8.0,"ref":"1587"},"arcs":[416]},{"type":"LineString","properties":{"kind":"major_road","sort_rank":379,"kind_detail":"secondary","is_bicycle_related":true,"bicycle_shield_text":"011","bicycle_network":"ncn","source":"openstreetmap.org","min_zoom":8.0,"ref":"526"},"arcs":[417]},{"type":"MultiLineString","properties":{"kind":"major_road","sort_rank":380,"kind_detail":"primary","is_bicycle_related":true,"bicycle_shield_text":"5587","bicycle_network":"rcn","source":"openstreetmap.org","min_zoom":8.0,"landuse_kind":"park","ref":"51"},"arcs":[[418],[419]]},{"type":"LineString","properties":{"bus_network":null,"sort_rank":380,"kind_detail":"primary","kind":"major_road","source":"openstreetmap.org","min_zoom":8.0,"bus_shield_text":"33","landuse_kind":"urban_area","ref":"66"},"arcs":[420]},{"type":"LineString","properties":{"kind":"major_road","sort_rank":377,"kind_detail":"tertiary","is_bicycle_related":true,"bicycle_shield_text":"019","bicycle_network":"ncn","source":"openstreetmap.org","min_zoom":8.0,"landuse_kind":"urban_area","ref":"1794","id":28780878},"arcs":[421]},{"type":"LineString","properties":{"bus_network":"MHD Prievidza","sort_rank":380,"kind_detail":"primary","kind":"major_road","source":"openstreetmap.org","min_zoom":8.0,"bus_shield_text":"3","landuse_kind":"urban_area","ref":"64"},"arcs":[422]},{"type":"LineString","properties":{"kind":"major_road","sort_rank":377,"kind_detail":"tertiary","is_bicycle_related":true,"bicycle_shield_text":"052","bicycle_network":"ncn","source":"openstreetmap.org","min_zoom":8.0,"ref":"2558"},"arcs":[423]},{"type":"MultiLineString","properties":{"kind":"major_road","sort_rank":377,"kind_detail":"tertiary","is_bicycle_related":true,"bicycle_shield_text":"032","bicycle_network":"ncn","source":"openstreetmap.org","min_zoom":8.0,"ref":"2188"},"arcs":[[424],[425],[426]]},{"type":"MultiLineString","properties":{"source":"openstreetmap.org","kind":"major_road","sort_rank":380,"kind_detail":"primary","ref":"16","min_zoom":8.0},"arcs":[[427],[428]]},{"type":"MultiLineString","properties":{"kind":"path","sort_rank":354,"kind_detail":"path","is_bicycle_related":true,"bicycle_shield_text":"033","bicycle_network":"ncn","source":"openstreetmap.org","min_zoom":8.0},"arcs":[[429],[430],[431],[432],[433],[434]]},{"type":"LineString","properties":{"kind":"major_road","sort_rank":377,"kind_detail":"tertiary","is_bicycle_related":true,"bicycle_shield_text":"21","bicycle_network":"ncn","source":"openstreetmap.org","min_zoom":8.0,"ref":"21146"},"arcs":[435]},{"type":"MultiLineString","properties":{"bus_network":"MHD Bansk\u00e1 Bystrica","sort_rank":380,"kind_detail":"primary","kind":"major_road","source":"openstreetmap.org","min_zoom":8.0,"bus_shield_text":"1","landuse_kind":"urban_area","ref":"66"},"arcs":[[436],[437],[438]]},{"type":"LineString","properties":{"kind":"major_road","sort_rank":380,"kind_detail":"primary","is_bicycle_related":true,"bicycle_shield_text":"2574","bicycle_network":"rcn","source":"openstreetmap.org","min_zoom":8.0,"ref":"66","id":5548601},"arcs":[439]},{"type":"MultiLineString","properties":{"kind":"major_road","sort_rank":377,"kind_detail":"tertiary","is_bicycle_related":true,"bicycle_shield_text":null,"bicycle_network":"ncn","source":"openstreetmap.org","min_zoom":8.0,"landuse_kind":"park","ref":"2493"},"arcs":[[440],[441]]},{"type":"MultiLineString","properties":{"source":"openstreetmap.org","kind":"major_road","landuse_kind":"urban_area","sort_rank":380,"kind_detail":"primary","ref":"22","min_zoom":8.0},"arcs":[[442],[443]]},{"type":"MultiLineString","properties":{"kind":"minor_road","sort_rank":360,"kind_detail":"residential","is_bicycle_related":true,"bicycle_shield_text":"013","bicycle_network":"ncn","source":"openstreetmap.org","min_zoom":8.0},"arcs":[[444],[445],[446],[447],[448]]},{"type":"LineString","properties":{"kind":"minor_road","sort_rank":358,"kind_detail":"service","is_bicycle_related":true,"bicycle_shield_text":"019","bicycle_network":"ncn","source":"openstreetmap.org","min_zoom":8.0},"arcs":[449]},{"type":"LineString","properties":{"kind":"major_road","sort_rank":380,"kind_detail":"primary","is_bicycle_related":true,"bicycle_shield_text":"010","bicycle_network":"ncn","source":"openstreetmap.org","min_zoom":8.0,"ref":"51"},"arcs":[450]},{"type":"LineString","properties":{"kind":"major_road","sort_rank":377,"kind_detail":"tertiary","is_bicycle_related":true,"bicycle_shield_text":"21","bicycle_network":"ncn","source":"openstreetmap.org","min_zoom":8.0,"ref":"21133"},"arcs":[451]},{"type":"MultiLineString","properties":{"kind":"major_road","sort_rank":377,"kind_detail":"tertiary","is_bicycle_related":true,"bicycle_shield_text":"045","bicycle_network":"ncn","source":"openstreetmap.org","min_zoom":8.0},"arcs":[[452],[453],[454],[455],[456],[457]]},{"type":"LineString","properties":{"kind":"major_road","network":"e-road","sort_rank":380,"kind_detail":"primary","is_bicycle_related":true,"bicycle_shield_text":"0553","bicycle_network":"rcn","source":"openstreetmap.org","min_zoom":8.0,"shield_text":"77","ref":"66","id":360122266},"arcs":[458]},{"type":"MultiLineString","properties":{"kind":"major_road","network":"sk:regional","sort_rank":380,"kind_detail":"primary","source":"openstreetmap.org","min_zoom":8.0,"shield_text":"511","ref":"51"},"arcs":[[459],[460],[461],[462]]},{"type":"MultiLineString","properties":{"kind":"major_road","network":"e-road","sort_rank":380,"kind_detail":"primary","is_bicycle_related":true,"bicycle_shield_text":"052","bicycle_network":"ncn","source":"openstreetmap.org","min_zoom":8.0,"shield_text":"77","ref":"66"},"arcs":[[463],[464]]},{"type":"LineString","properties":{"kind":"major_road","sort_rank":377,"kind_detail":"tertiary","is_bicycle_related":true,"bicycle_shield_text":"019","bicycle_network":"ncn","source":"openstreetmap.org","min_zoom":8.0,"ref":"1797"},"arcs":[465]},{"type":"LineString","properties":{"kind":"major_road","sort_rank":377,"kind_detail":"tertiary","is_bicycle_related":true,"bicycle_shield_text":"019","bicycle_network":"ncn","source":"openstreetmap.org","min_zoom":8.0,"ref":"1790"},"arcs":[466]},{"type":"MultiLineString","properties":{"kind":"major_road","network":"e-road","sort_rank":380,"kind_detail":"primary","source":"openstreetmap.org","min_zoom":8.0,"landuse_kind":"park","shield_text":"77","ref":"66"},"arcs":[[467],[468]]},{"type":"MultiLineString","properties":{"kind":"major_road","sort_rank":377,"landuse_kind":"residential","is_bicycle_related":true,"bicycle_shield_text":"011","bicycle_network":"ncn","source":"openstreetmap.org","min_zoom":8.0,"kind_detail":"tertiary","ref":"2455"},"arcs":[[469],[470]]},{"type":"LineString","properties":{"kind":"major_road","sort_rank":380,"landuse_kind":"national_park","source":"openstreetmap.org","min_zoom":8.0,"kind_detail":"primary","ref":"14","id":244973004},"arcs":[471]},{"type":"MultiLineString","properties":{"kind":"path","sort_rank":354,"kind_detail":"track","is_bicycle_related":true,"bicycle_shield_text":"041","bicycle_network":"ncn","source":"openstreetmap.org","min_zoom":8.0,"landuse_kind":"park"},"arcs":[[472],[473],[474]]},{"type":"MultiLineString","properties":{"kind":"major_road","network":null,"sort_rank":380,"kind_detail":"primary","is_bicycle_related":true,"bicycle_shield_text":"2A","bicycle_network":"ncn","source":"openstreetmap.org","min_zoom":8.0,"shield_text":"22","ref":"22"},"arcs":[[475],[476],[477]]},{"type":"MultiLineString","properties":{"kind":"major_road","network":"sk:national","sort_rank":381,"kind_detail":"trunk","source":"openstreetmap.org","min_zoom":8.0,"shield_text":"1","ref":"R1"},"arcs":[[478],[479],[480],[481],[482],[483],[484],[485],[486],[487],[488],[489],[490],[491],[492],[493],[494],[495],[496],[497],[498],[499],[500],[501],[502],[503],[504],[505],[506],[507],[508],[509],[510]]},{"type":"LineString","properties":{"kind":"major_road","sort_rank":377,"kind_detail":"tertiary","is_bicycle_related":true,"bicycle_shield_text":"042","bicycle_network":"ncn","source":"openstreetmap.org","min_zoom":8.0,"ref":"2223"},"arcs":[511]},{"type":"LineString","properties":{"kind":"major_road","sort_rank":377,"kind_detail":"tertiary","is_bicycle_related":true,"bicycle_shield_text":"033","bicycle_network":"ncn","source":"openstreetmap.org","min_zoom":8.0,"ref":"2427"},"arcs":[512]},{"type":"LineString","properties":{"kind":"major_road","sort_rank":379,"kind_detail":"secondary","is_bicycle_related":true,"bicycle_shield_text":"21","bicycle_network":"ncn","source":"openstreetmap.org","min_zoom":8.0,"ref":"2122"},"arcs":[513]},{"type":"LineString","properties":{"kind":"minor_road","sort_rank":360,"kind_detail":"unclassified","is_bicycle_related":true,"bicycle_shield_text":"8552","bicycle_network":"ncn","source":"openstreetmap.org","min_zoom":8.0},"arcs":[514]},{"type":"LineString","properties":{"kind":"major_road","sort_rank":380,"kind_detail":"primary","is_bicycle_related":true,"bicycle_shield_text":"8422","bicycle_network":"rcn","source":"openstreetmap.org","min_zoom":8.0,"ref":"14","id":56408015},"arcs":[515]},{"type":"MultiLineString","properties":{"source":"openstreetmap.org","kind":"major_road","landuse_kind":"urban_area","sort_rank":380,"kind_detail":"primary","ref":"51","min_zoom":8.0},"arcs":[[516],[517]]},{"type":"LineString","properties":{"kind":"minor_road","sort_rank":360,"kind_detail":"unclassified","is_bicycle_related":true,"bicycle_shield_text":"2A","bicycle_network":"ncn","source":"openstreetmap.org","min_zoom":8.0,"cycleway":"shared_lane","id":265623716},"arcs":[518]},{"type":"LineString","properties":{"kind":"minor_road","sort_rank":360,"kind_detail":"residential","is_bicycle_related":true,"bicycle_shield_text":"033","bicycle_network":"ncn","source":"openstreetmap.org","min_zoom":8.0,"landuse_kind":"urban_area"},"arcs":[519]},{"type":"MultiLineString","properties":{"source":"openstreetmap.org","kind":"major_road","landuse_kind":"park","sort_rank":380,"kind_detail":"primary","ref":"51","min_zoom":8.0},"arcs":[[520],[521],[522],[523],[524],[525],[526],[527],[528],[529]]},{"type":"LineString","properties":{"bus_network":null,"sort_rank":380,"kind_detail":"primary","kind":"major_road","source":"openstreetmap.org","min_zoom":8.0,"bus_shield_text":"41","landuse_kind":"urban_area","ref":"66"},"arcs":[530]},{"type":"LineString","properties":{"kind":"major_road","sort_rank":377,"kind_detail":"tertiary","is_bicycle_related":true,"bicycle_shield_text":"013","bicycle_network":"ncn","source":"openstreetmap.org","min_zoom":8.0,"ref":"2645","id":166278747},"arcs":[531]},{"type":"LineString","properties":{"kind":"path","sort_rank":354,"kind_detail":"track","is_bicycle_related":true,"bicycle_shield_text":"032","bicycle_network":"ncn","source":"openstreetmap.org","min_zoom":8.0},"arcs":[532]},{"type":"LineString","properties":{"bus_network":null,"sort_rank":380,"kind_detail":"primary","kind":"major_road","source":"openstreetmap.org","min_zoom":8.0,"bus_shield_text":"606101","landuse_kind":"residential","ref":"75"},"arcs":[533]},{"type":"LineString","properties":{"bus_network":"MHD Brezno","sort_rank":380,"kind_detail":"primary","is_bicycle_related":true,"kind":"major_road","bicycle_shield_text":"8515","bicycle_network":"rcn","source":"openstreetmap.org","min_zoom":8.0,"bus_shield_text":"4","ref":"66"},"arcs":[534]},{"type":"LineString","properties":{"kind":"minor_road","sort_rank":360,"kind_detail":"residential","is_bicycle_related":true,"bicycle_shield_text":null,"bicycle_network":"ncn","source":"openstreetmap.org","min_zoom":8.0},"arcs":[535]},{"type":"LineString","properties":{"kind":"major_road","network":"e-road","sort_rank":380,"kind_detail":"primary","is_bicycle_related":true,"bicycle_shield_text":"5588","bicycle_network":"rcn","source":"openstreetmap.org","min_zoom":8.0,"shield_text":"77","ref":"59"},"arcs":[536]},{"type":"LineString","properties":{"kind":"minor_road","sort_rank":360,"kind_detail":"residential","is_bicycle_related":true,"bicycle_shield_text":"042","bicycle_network":"ncn","source":"openstreetmap.org","min_zoom":8.0},"arcs":[537]},{"type":"LineString","properties":{"kind":"major_road","sort_rank":380,"kind_detail":"primary","is_bicycle_related":true,"bicycle_shield_text":"2556","bicycle_network":"rcn","source":"openstreetmap.org","min_zoom":8.0,"landuse_kind":"urban_area","ref":"9"},"arcs":[538]},{"type":"MultiLineString","properties":{"source":"openstreetmap.org","kind":"major_road","landuse_kind":"residential","sort_rank":380,"kind_detail":"primary","ref":"16","min_zoom":8.0},"arcs":[[539],[540],[541]]},{"type":"LineString","properties":{"kind":"major_road","sort_rank":377,"kind_detail":"tertiary","is_bicycle_related":true,"bicycle_shield_text":"033","bicycle_network":"ncn","source":"openstreetmap.org","min_zoom":8.0,"ref":"2420","id":99361385},"arcs":[542]},{"type":"MultiLineString","properties":{"bus_network":null,"sort_rank":380,"kind_detail":"primary","kind":"major_road","source":"openstreetmap.org","min_zoom":8.0,"bus_shield_text":"603429","ref":"72"},"arcs":[[543],[544],[545],[546],[547]]},{"type":"LineString","properties":{"kind":"major_road","network":null,"sort_rank":380,"kind_detail":"primary","source":"openstreetmap.org","min_zoom":8.0,"landuse_kind":"residential","shield_text":"221","ref":"22","id":100008580},"arcs":[548]},{"type":"LineString","properties":{"kind":"major_road","sort_rank":380,"kind_detail":"primary","is_bicycle_related":true,"bicycle_shield_text":"011","bicycle_network":"ncn","source":"openstreetmap.org","min_zoom":8.0,"landuse_kind":"residential","ref":"16","id":334818783},"arcs":[549]},{"type":"MultiLineString","properties":{"bus_network":null,"sort_rank":380,"kind_detail":"primary","kind":"major_road","source":"openstreetmap.org","min_zoom":8.0,"bus_shield_text":"606102","landuse_kind":"residential","ref":"75"},"arcs":[[550],[551]]},{"type":"MultiLineString","properties":{"kind":"minor_road","sort_rank":360,"kind_detail":"unclassified","is_bicycle_related":true,"bicycle_shield_text":"052","bicycle_network":"ncn","source":"openstreetmap.org","min_zoom":8.0,"landuse_kind":"park"},"arcs":[[552],[553]]},{"type":"LineString","properties":{"kind":"major_road","sort_rank":380,"kind_detail":"primary","is_bicycle_related":true,"bicycle_shield_text":"2A","bicycle_network":"ncn","source":"openstreetmap.org","min_zoom":8.0,"landuse_kind":"residential","ref":"22","id":242247014},"arcs":[554]},{"type":"LineString","properties":{"source":"openstreetmap.org","kind":"major_road","landuse_kind":"urban_area","sort_rank":380,"kind_detail":"primary","ref":"66C","min_zoom":8.0},"arcs":[555]},{"type":"MultiLineString","properties":{"kind":"major_road","sort_rank":381,"kind_detail":"trunk","is_bicycle_related":true,"bicycle_shield_text":"032","bicycle_network":"ncn","source":"openstreetmap.org","min_zoom":8.0,"ref":"R3"},"arcs":[[556],[557],[558],[559]]},{"type":"LineString","properties":{"source":"openstreetmap.org","kind":"major_road","network":"e-road","sort_rank":380,"kind_detail":"primary","min_zoom":8.0,"shield_text":"58"},"arcs":[560]},{"type":"LineString","properties":{"kind":"major_road","sort_rank":377,"kind_detail":"tertiary","is_bicycle_related":true,"bus_network":"MHD Prievidza","bicycle_shield_text":"019","bicycle_network":"ncn","source":"openstreetmap.org","min_zoom":8.0,"bus_shield_text":"3","landuse_kind":"urban_area","ref":"1774","id":34562627},"arcs":[561]},{"type":"MultiLineString","properties":{"kind":"minor_road","service":"driveway","sort_rank":356,"kind_detail":"service","is_bicycle_related":true,"bicycle_shield_text":"010","bicycle_network":"ncn","source":"openstreetmap.org","min_zoom":8.0},"arcs":[[562],[563]]},{"type":"MultiLineString","properties":{"kind":"minor_road","sort_rank":360,"kind_detail":"residential","is_bicycle_related":true,"bicycle_shield_text":"032","bicycle_network":"ncn","source":"openstreetmap.org","min_zoom":8.0},"arcs":[[564],[565],[566],[567]]},{"type":"MultiLineString","properties":{"kind":"major_road","sort_rank":380,"kind_detail":"primary","is_bicycle_related":true,"bicycle_shield_text":"2574","bicycle_network":"rcn","source":"openstreetmap.org","min_zoom":8.0,"ref":"51"},"arcs":[[568],[569],[570]]},{"type":"MultiLineString","properties":{"source":"openstreetmap.org","kind":"major_road","landuse_kind":"urban_area","sort_rank":380,"kind_detail":"primary","ref":"64","min_zoom":8.0},"arcs":[[571],[572],[573],[574],[575],[576],[577],[578],[579],[580],[581],[582],[583],[584],[585]]},{"type":"MultiLineString","properties":{"kind":"major_road","network":null,"sort_rank":380,"kind_detail":"primary","is_bicycle_related":true,"bicycle_shield_text":"2A","bicycle_network":"ncn","source":"openstreetmap.org","min_zoom":8.0,"landuse_kind":"residential","shield_text":"22","ref":"22"},"arcs":[[586],[587]]},{"type":"LineString","properties":{"kind":"major_road","network":null,"sort_rank":379,"kind_detail":"secondary","is_bicycle_related":true,"bicycle_shield_text":"2A","bicycle_network":"ncn","source":"openstreetmap.org","min_zoom":8.0,"shield_text":"2201","ref":"2201","id":22719798},"arcs":[588]},{"type":"LineString","properties":{"bus_network":null,"network":"sk:national","sort_rank":381,"kind_detail":"trunk","kind":"major_road","source":"openstreetmap.org","min_zoom":8.0,"bus_shield_text":"42","shield_text":"1","ref":"R1"},"arcs":[589]},{"type":"LineString","properties":{"kind":"major_road","sort_rank":377,"kind_detail":"tertiary","is_bicycle_related":true,"bicycle_shield_text":"010","bicycle_network":"ncn","source":"openstreetmap.org","min_zoom":8.0,"ref":"1573","id":275820907},"arcs":[590]},{"type":"MultiLineString","properties":{"kind":"highway","network":"e-road","sort_rank":383,"kind_detail":"motorway","source":"openstreetmap.org","min_zoom":8.0,"all_networks":["e-road","e-road"],"shield_text":"58","ref":"R2","all_shield_texts":["58","571"]},"arcs":[[591],[592],[593],[594],[595],[596],[597],[598],[599],[600],[601],[602]]},{"type":"LineString","properties":{"bus_network":"MHD Brezno","sort_rank":380,"kind_detail":"primary","kind":"major_road","source":"openstreetmap.org","min_zoom":8.0,"bus_shield_text":"2","ref":"66"},"arcs":[603]},{"type":"MultiLineString","properties":{"kind":"major_road","network":"e-road","sort_rank":380,"kind_detail":"primary","source":"openstreetmap.org","min_zoom":8.0,"shield_text":"77","ref":"59"},"arcs":[[604],[605],[606],[607],[608],[609],[610],[611]]},{"type":"LineString","properties":{"kind":"major_road","sort_rank":377,"kind_detail":"tertiary","is_bicycle_related":true,"bus_network":"MHD Prievidza","bicycle_shield_text":"019","bicycle_network":"ncn","source":"openstreetmap.org","min_zoom":8.0,"bus_shield_text":"3","ref":"1774","id":34562627},"arcs":[612]},{"type":"LineString","properties":{"kind":"major_road","sort_rank":377,"kind_detail":"tertiary","is_bicycle_related":true,"bicycle_shield_text":"033","bicycle_network":"ncn","source":"openstreetmap.org","min_zoom":8.0,"ref":"2418"},"arcs":[613]},{"type":"MultiLineString","properties":{"kind":"major_road","sort_rank":377,"kind_detail":"tertiary","is_bicycle_related":true,"bicycle_shield_text":"019","bicycle_network":"ncn","source":"openstreetmap.org","min_zoom":8.0,"ref":"1776"},"arcs":[[614],[615]]},{"type":"LineString","properties":{"kind":"major_road","network":null,"sort_rank":380,"kind_detail":"primary","source":"openstreetmap.org","min_zoom":8.0,"landuse_kind":"urban_area","shield_text":"221","ref":"22"},"arcs":[616]},{"type":"LineString","properties":{"kind":"major_road","sort_rank":380,"kind_detail":"primary","is_bicycle_related":true,"bicycle_shield_text":"C-1010","bicycle_network":"rcn","source":"openstreetmap.org","min_zoom":8.0,"ref":"65"},"arcs":[617]},{"type":"LineString","properties":{"kind":"major_road","sort_rank":377,"kind_detail":"tertiary","is_bicycle_related":true,"bicycle_shield_text":"019","bicycle_network":"ncn","source":"openstreetmap.org","min_zoom":8.0,"ref":"1762","id":157462500},"arcs":[618]},{"type":"MultiLineString","properties":{"kind":"minor_road","sort_rank":360,"kind_detail":"residential","is_bicycle_related":true,"bicycle_shield_text":"21","bicycle_network":"ncn","source":"openstreetmap.org","min_zoom":8.0},"arcs":[[619],[620],[621]]},{"type":"MultiLineString","properties":{"source":"openstreetmap.org","kind":"major_road","sort_rank":380,"kind_detail":"primary","ref":"51","min_zoom":8.0},"arcs":[[622],[623],[624],[625],[626],[627],[628],[629],[630],[631],[632],[633],[634],[635],[636],[637]]},{"type":"LineString","properties":{"kind":"major_road","sort_rank":377,"kind_detail":"tertiary","is_bicycle_related":true,"bicycle_shield_text":"009","bicycle_network":"ncn","source":"openstreetmap.org","min_zoom":8.0,"ref":"2644"},"arcs":[638]},{"type":"MultiLineString","properties":{"kind":"minor_road","sort_rank":360,"landuse_kind":"residential","is_bicycle_related":true,"bicycle_shield_text":"2A","bicycle_network":"ncn","source":"openstreetmap.org","min_zoom":8.0,"kind_detail":"residential"},"arcs":[[639],[640]]},{"type":"MultiLineString","properties":{"kind":"major_road","network":"e-road","sort_rank":380,"kind_detail":"primary","source":"openstreetmap.org","min_zoom":8.0,"landuse_kind":"urban_area","shield_text":"77","ref":"59"},"arcs":[[641],[642]]},{"type":"MultiLineString","properties":{"kind":"major_road","network":"e-road","sort_rank":380,"kind_detail":"primary","source":"openstreetmap.org","min_zoom":8.0,"shield_text":"77","ref":"66"},"arcs":[[643],[644],[645],[646],[647],[648],[649],[650],[651],[652],[653],[654],[655]]},{"type":"MultiLineString","properties":{"kind":"major_road","sort_rank":379,"kind_detail":"secondary","is_bicycle_related":true,"bicycle_shield_text":"013","bicycle_network":"ncn","source":"openstreetmap.org","min_zoom":8.0,"ref":"529"},"arcs":[[656],[657],[658],[659],[660]]},{"type":"LineString","properties":{"kind":"major_road","sort_rank":377,"kind_detail":"tertiary","is_bicycle_related":true,"bicycle_shield_text":"052","bicycle_network":"ncn","source":"openstreetmap.org","min_zoom":8.0,"ref":"2557"},"arcs":[661]},{"type":"LineString","properties":{"kind":"major_road","sort_rank":377,"kind_detail":"tertiary","is_bicycle_related":true,"bicycle_shield_text":"009","bicycle_network":"ncn","source":"openstreetmap.org","min_zoom":8.0,"ref":"2661","id":5293663},"arcs":[662]},{"type":"MultiLineString","properties":{"source":"openstreetmap.org","kind":"major_road","sort_rank":380,"kind_detail":"primary","ref":"64","min_zoom":8.0},"arcs":[[663],[664],[665],[666],[667],[668]]},{"type":"LineString","properties":{"kind":"major_road","sort_rank":379,"kind_detail":"secondary","is_bicycle_related":true,"bicycle_shield_text":"032","bicycle_network":"ncn","source":"openstreetmap.org","min_zoom":8.0,"ref":"578"},"arcs":[669]},{"type":"LineString","properties":{"source":"openstreetmap.org","kind":"major_road","landuse_kind":"urban_area","sort_rank":380,"kind_detail":"primary","ref":"75","min_zoom":8.0},"arcs":[670]},{"type":"LineString","properties":{"kind":"minor_road","sort_rank":358,"kind_detail":"service","is_bicycle_related":true,"bicycle_shield_text":"010","bicycle_network":"ncn","source":"openstreetmap.org","min_zoom":8.0,"id":112049408},"arcs":[671]},{"type":"LineString","properties":{"kind":"major_road","sort_rank":380,"kind_detail":"primary","is_bicycle_related":true,"bicycle_shield_text":"019","bicycle_network":"ncn","source":"openstreetmap.org","min_zoom":8.0,"landuse_kind":"residential","ref":"64","id":4895945},"arcs":[672]},{"type":"LineString","properties":{"bus_network":null,"sort_rank":380,"kind_detail":"primary","is_bicycle_related":true,"kind":"major_road","bicycle_shield_text":"5552","bicycle_network":"rcn","source":"openstreetmap.org","min_zoom":8.0,"bus_shield_text":"603429","ref":"72"},"arcs":[673]},{"type":"LineString","properties":{"kind":"major_road","sort_rank":377,"kind_detail":"tertiary","is_bicycle_related":true,"bicycle_shield_text":"019","bicycle_network":"ncn","source":"openstreetmap.org","min_zoom":8.0,"ref":"1798"},"arcs":[674]},{"type":"LineString","properties":{"kind":"major_road","sort_rank":377,"kind_detail":"tertiary","is_bicycle_related":true,"bicycle_shield_text":"012","bicycle_network":"ncn","source":"openstreetmap.org","min_zoom":8.0,"ref":"2454"},"arcs":[675]},{"type":"MultiLineString","properties":{"kind":"path","sort_rank":354,"kind_detail":"cycleway","is_bicycle_related":true,"bicycle_shield_text":"2A","bicycle_network":"ncn","source":"openstreetmap.org","min_zoom":8.0},"arcs":[[676],[677]]},{"type":"MultiLineString","properties":{"kind":"major_road","network":"e-road","sort_rank":380,"kind_detail":"primary","is_bicycle_related":true,"bicycle_shield_text":"033","bicycle_network":"ncn","source":"openstreetmap.org","min_zoom":8.0,"shield_text":"77","ref":"59"},"arcs":[[678],[679],[680]]},{"type":"LineString","properties":{"kind":"major_road","network":null,"sort_rank":379,"kind_detail":"secondary","is_bicycle_related":true,"bicycle_shield_text":"2A","bicycle_network":"ncn","source":"openstreetmap.org","min_zoom":8.0,"landuse_kind":"residential","shield_text":"22","ref":"2108","id":242246774},"arcs":[681]},{"type":"MultiLineString","properties":{"bus_network":"MHD Zvolen","network":"e-road","sort_rank":380,"kind_detail":"primary","kind":"major_road","source":"openstreetmap.org","min_zoom":8.0,"bus_shield_text":"2","shield_text":"58","landuse_kind":"urban_area","ref":"16"},"arcs":[[682],[683],[684]]},{"type":"LineString","properties":{"source":"openstreetmap.org","kind":"major_road","landuse_kind":"urban_area","sort_rank":380,"kind_detail":"primary","ref":"65","min_zoom":8.0},"arcs":[685]},{"type":"LineString","properties":{"kind":"minor_road","sort_rank":360,"kind_detail":"residential","is_bicycle_related":true,"bicycle_shield_text":"012","bicycle_network":"ncn","source":"openstreetmap.org","min_zoom":8.0,"landuse_kind":"residential"},"arcs":[686]},{"type":"MultiLineString","properties":{"kind":"minor_road","sort_rank":360,"kind_detail":"unclassified","is_bicycle_related":true,"bicycle_shield_text":"033","bicycle_network":"ncn","source":"openstreetmap.org","min_zoom":8.0},"arcs":[[687],[688]]},{"type":"LineString","properties":{"kind":"major_road","sort_rank":377,"kind_detail":"tertiary","is_bicycle_related":true,"bicycle_shield_text":"052","bicycle_network":"ncn","source":"openstreetmap.org","min_zoom":8.0,"ref":"1551"},"arcs":[689]},{"type":"MultiLineString","properties":{"kind":"path","sort_rank":354,"kind_detail":"track","is_bicycle_related":true,"bicycle_shield_text":"033","bicycle_network":"ncn","source":"openstreetmap.org","min_zoom":8.0},"arcs":[[690],[691],[692],[693],[694]]},{"type":"LineString","properties":{"kind":"major_road","network":"e-road","sort_rank":380,"kind_detail":"primary","is_bicycle_related":true,"bicycle_shield_text":"2559","bicycle_network":"rcn","source":"openstreetmap.org","min_zoom":8.0,"shield_text":"58","ref":"16"},"arcs":[695]},{"type":"LineString","properties":{"kind":"path","sort_rank":354,"kind_detail":"track","is_bicycle_related":true,"bicycle_shield_text":"8623","bicycle_network":"ncn","source":"openstreetmap.org","min_zoom":8.0},"arcs":[696]},{"type":"LineString","properties":{"kind":"major_road","sort_rank":379,"kind_detail":"secondary","is_bicycle_related":true,"bicycle_shield_text":"052","bicycle_network":"ncn","source":"openstreetmap.org","min_zoom":8.0,"ref":"524"},"arcs":[697]},{"type":"LineString","properties":{"kind":"major_road","sort_rank":379,"kind_detail":"secondary","is_bicycle_related":true,"bicycle_shield_text":"049","bicycle_network":"ncn","source":"openstreetmap.org","min_zoom":8.0,"landuse_kind":"park","ref":"512"},"arcs":[698]},{"type":"LineString","properties":{"bus_network":"MAD Zlat\u00e9 Moravce","network":"sk:regional","sort_rank":379,"landuse_kind":"urban_area","is_bicycle_related":true,"kind":"major_road","bicycle_shield_text":"045","bicycle_network":"ncn","source":"openstreetmap.org","min_zoom":8.0,"bus_shield_text":"101","shield_text":"511","kind_detail":"secondary","ref":"511"},"arcs":[699]},{"type":"LineString","properties":{"kind":"major_road","network":"e-road","sort_rank":380,"kind_detail":"primary","source":"openstreetmap.org","min_zoom":8.0,"landuse_kind":"national_park","shield_text":"77","ref":"59"},"arcs":[700]},{"type":"MultiLineString","properties":{"kind":"minor_road","sort_rank":360,"kind_detail":"residential","is_bicycle_related":true,"bicycle_shield_text":null,"bicycle_network":"ncn","source":"openstreetmap.org","min_zoom":8.0,"landuse_kind":"park"},"arcs":[[701],[702],[703],[704],[705]]},{"type":"LineString","properties":{"kind":"minor_road","sort_rank":360,"landuse_kind":"residential","is_bicycle_related":true,"bicycle_shield_text":"009","bicycle_network":"ncn","source":"openstreetmap.org","min_zoom":8.0,"kind_detail":"residential"},"arcs":[706]},{"type":"MultiLineString","properties":{"source":"openstreetmap.org","kind":"major_road","sort_rank":381,"kind_detail":"trunk","ref":"R3","min_zoom":8.0},"arcs":[[707],[708],[709],[710]]},{"type":"LineString","properties":{"bus_network":"MHD Brezno","sort_rank":380,"kind_detail":"primary","is_bicycle_related":true,"kind":"major_road","bicycle_shield_text":"2554","bicycle_network":"rcn","source":"openstreetmap.org","min_zoom":8.0,"bus_shield_text":"4","ref":"66"},"arcs":[711]},{"type":"LineString","properties":{"kind":"major_road","sort_rank":377,"kind_detail":"tertiary","is_bicycle_related":true,"bicycle_shield_text":"052","bicycle_network":"ncn","source":"openstreetmap.org","min_zoom":8.0,"landuse_kind":"park","ref":"2532"},"arcs":[712]},{"type":"LineString","properties":{"bus_network":null,"sort_rank":380,"kind_detail":"primary","kind":"major_road","source":"openstreetmap.org","min_zoom":8.0,"bus_shield_text":"606101","ref":"75"},"arcs":[713]},{"type":"LineString","properties":{"bus_network":"MHD \u017diar nad Hronom","sort_rank":380,"kind_detail":"primary","kind":"major_road","source":"openstreetmap.org","min_zoom":8.0,"bus_shield_text":"4","ref":"65"},"arcs":[714]},{"type":"MultiLineString","properties":{"kind":"minor_road","sort_rank":360,"kind_detail":"unclassified","is_bicycle_related":true,"bicycle_shield_text":"013","bicycle_network":"ncn","source":"openstreetmap.org","min_zoom":8.0},"arcs":[[715],[716],[717],[718],[719]]},{"type":"MultiLineString","properties":{"source":"openstreetmap.org","kind":"major_road","sort_rank":380,"kind_detail":"primary","ref":"69","min_zoom":8.0},"arcs":[[720],[721]]},{"type":"LineString","properties":{"bus_network":null,"sort_rank":380,"kind_detail":"primary","kind":"major_road","source":"openstreetmap.org","min_zoom":8.0,"bus_shield_text":"26","landuse_kind":"urban_area","ref":"66"},"arcs":[722]},{"type":"MultiLineString","properties":{"source":"openstreetmap.org","kind":"major_road","landuse_kind":"urban_area","sort_rank":380,"kind_detail":"primary","ref":"76","min_zoom":8.0},"arcs":[[723],[724]]},{"type":"LineString","properties":{"kind":"major_road","sort_rank":377,"kind_detail":"tertiary","is_bicycle_related":true,"bicycle_shield_text":"045","bicycle_network":"ncn","source":"openstreetmap.org","min_zoom":8.0,"ref":"1624","id":362582342},"arcs":[725]},{"type":"LineString","properties":{"bus_network":null,"sort_rank":380,"kind_detail":"primary","kind":"major_road","source":"openstreetmap.org","min_zoom":8.0,"bus_shield_text":"20","landuse_kind":"urban_area","ref":"66"},"arcs":[726]},{"type":"LineString","properties":{"kind":"major_road","sort_rank":380,"kind_detail":"primary","is_bicycle_related":true,"bicycle_shield_text":"2574","bicycle_network":"rcn","source":"openstreetmap.org","min_zoom":8.0,"landuse_kind":"park","ref":"51"},"arcs":[727]},{"type":"LineString","properties":{"kind":"major_road","network":"sk:national","sort_rank":381,"kind_detail":"trunk","bus_network":null,"source":"openstreetmap.org","min_zoom":8.0,"bus_shield_text":"42","shield_text":"1","landuse_kind":"urban_area","ref":"R1","id":132753259},"arcs":[728]},{"type":"MultiLineString","properties":{"kind":"major_road","sort_rank":379,"kind_detail":"secondary","is_bicycle_related":true,"bicycle_shield_text":"2A","bicycle_network":"ncn","source":"openstreetmap.org","min_zoom":8.0,"ref":"2205"},"arcs":[[729],[730],[731],[732],[733],[734]]},{"type":"LineString","properties":{"kind":"path","sort_rank":354,"kind_detail":"track","is_bicycle_related":true,"bicycle_shield_text":"019","bicycle_network":"ncn","source":"openstreetmap.org","min_zoom":8.0,"landuse_kind":"residential","id":178178198},"arcs":[735]},{"type":"LineString","properties":{"kind":"major_road","sort_rank":377,"kind_detail":"tertiary","is_bicycle_related":true,"bicycle_shield_text":"049","bicycle_network":"ncn","source":"openstreetmap.org","min_zoom":8.0,"landuse_kind":"park","ref":"1750","id":412697414},"arcs":[736]},{"type":"MultiLineString","properties":{"kind":"major_road","sort_rank":380,"kind_detail":"primary","is_bicycle_related":true,"bicycle_shield_text":"2594","bicycle_network":"rcn","source":"openstreetmap.org","min_zoom":8.0,"ref":"75"},"arcs":[[737],[738],[739]]},{"type":"LineString","properties":{"bus_network":"MHD Prievidza","sort_rank":377,"landuse_kind":"urban_area","is_bicycle_related":true,"kind":"major_road","bicycle_shield_text":"019","bicycle_network":"ncn","source":"openstreetmap.org","min_zoom":8.0,"bus_shield_text":"7","kind_detail":"tertiary","ref":"1775"},"arcs":[740]},{"type":"MultiLineString","properties":{"source":"openstreetmap.org","kind":"major_road","landuse_kind":"residential","sort_rank":380,"kind_detail":"primary","min_zoom":8.0},"arcs":[[741],[742]]},{"type":"LineString","properties":{"bus_network":"MHD \u017diar nad Hronom","sort_rank":380,"kind_detail":"primary","is_bicycle_related":true,"kind":"major_road","bicycle_shield_text":"2556","bicycle_network":"rcn","source":"openstreetmap.org","min_zoom":8.0,"bus_shield_text":"2","landuse_kind":"urban_area","ref":"9"},"arcs":[743]},{"type":"MultiLineString","properties":{"kind":"path","sort_rank":354,"kind_detail":"track","is_bicycle_related":true,"bicycle_shield_text":"052","bicycle_network":"ncn","source":"openstreetmap.org","min_zoom":8.0},"arcs":[[744],[745]]},{"type":"LineString","properties":{"kind":"major_road","sort_rank":377,"kind_detail":"tertiary","is_bicycle_related":true,"bicycle_shield_text":"013","bicycle_network":"ncn","source":"openstreetmap.org","min_zoom":8.0,"ref":"2375"},"arcs":[746]},{"type":"LineString","properties":{"kind":"minor_road","service":"parking_aisle","sort_rank":356,"kind_detail":"service","is_bicycle_related":true,"bicycle_shield_text":"033","bicycle_network":"ncn","source":"openstreetmap.org","min_zoom":8.0,"id":51219279},"arcs":[747]},{"type":"LineString","properties":{"bus_network":null,"sort_rank":380,"kind_detail":"primary","is_bicycle_related":true,"kind":"major_road","bicycle_shield_text":"2554","bicycle_network":"rcn","source":"openstreetmap.org","min_zoom":8.0,"bus_shield_text":"603429","ref":"72"},"arcs":[748]},{"type":"LineString","properties":{"kind":"major_road","sort_rank":380,"kind_detail":"primary","is_bicycle_related":true,"bicycle_shield_text":"M-5155C","bicycle_network":"rcn","source":"openstreetmap.org","min_zoom":8.0,"ref":"65"},"arcs":[749]},{"type":"MultiLineString","properties":{"kind":"major_road","network":"sk:national","sort_rank":381,"kind_detail":"trunk","source":"openstreetmap.org","min_zoom":8.0,"shield_text":"2","ref":"R2"},"arcs":[[750],[751],[752],[753],[754],[755]]},{"type":"LineString","properties":{"kind":"major_road","sort_rank":377,"landuse_kind":"urban_area","is_bicycle_related":true,"bicycle_shield_text":"019","bicycle_network":"ncn","source":"openstreetmap.org","min_zoom":8.0,"kind_detail":"tertiary","ref":"1775"},"arcs":[756]},{"type":"LineString","properties":{"kind":"major_road","sort_rank":380,"kind_detail":"primary","is_bicycle_related":true,"bicycle_shield_text":"2111","bicycle_network":"rcn","source":"openstreetmap.org","min_zoom":8.0,"ref":"75","id":343761854},"arcs":[757]},{"type":"MultiLineString","properties":{"kind":"major_road","network":"e-road","sort_rank":380,"kind_detail":"primary","source":"openstreetmap.org","min_zoom":8.0,"landuse_kind":"urban_area","shield_text":"572","ref":"9;64"},"arcs":[[758],[759],[760],[761]]},{"type":"MultiLineString","properties":{"kind":"major_road","network":"e-road","sort_rank":380,"kind_detail":"primary","source":"openstreetmap.org","min_zoom":8.0,"landuse_kind":"urban_area","shield_text":"77","ref":"66"},"arcs":[[762],[763],[764],[765],[766]]},{"type":"MultiLineString","properties":{"source":"openstreetmap.org","kind":"major_road","landuse_kind":"residential","sort_rank":380,"kind_detail":"primary","ref":"64","min_zoom":8.0},"arcs":[[767],[768]]},{"type":"LineString","properties":{"kind":"major_road","sort_rank":377,"kind_detail":"tertiary","is_bicycle_related":true,"bicycle_shield_text":"052","bicycle_network":"ncn","source":"openstreetmap.org","min_zoom":8.0,"ref":"2555","id":198511071},"arcs":[769]},{"type":"LineString","properties":{"kind":"minor_road","sort_rank":360,"kind_detail":"unclassified","is_bicycle_related":true,"bicycle_shield_text":"019","bicycle_network":"ncn","source":"openstreetmap.org","min_zoom":8.0},"arcs":[770]},{"type":"LineString","properties":{"kind":"path","sort_rank":354,"landuse_kind":"urban_area","is_bicycle_related":true,"bicycle_shield_text":"033","bicycle_network":"ncn","source":"openstreetmap.org","min_zoom":8.0,"kind_detail":"footway"},"arcs":[771]},{"type":"LineString","properties":{"kind":"major_road","sort_rank":380,"kind_detail":"primary","is_bicycle_related":true,"bicycle_shield_text":"2308","bicycle_network":"rcn","source":"openstreetmap.org","min_zoom":8.0,"ref":"64"},"arcs":[772]},{"type":"LineString","properties":{"bus_network":null,"network":"e-road","sort_rank":380,"kind_detail":"primary","kind":"major_road","source":"openstreetmap.org","min_zoom":8.0,"bus_shield_text":"43","shield_text":"77","ref":"59"},"arcs":[773]},{"type":"MultiLineString","properties":{"kind":"major_road","sort_rank":380,"kind_detail":"primary","is_bicycle_related":true,"bicycle_shield_text":"5563","bicycle_network":"rcn","source":"openstreetmap.org","min_zoom":8.0,"landuse_kind":"park","ref":"51"},"arcs":[[774],[775]]},{"type":"LineString","properties":{"kind":"major_road","sort_rank":379,"kind_detail":"secondary","is_bicycle_related":true,"bicycle_shield_text":"2B","bicycle_network":"ncn","source":"openstreetmap.org","min_zoom":8.0,"old_name":"Felszabadul\u00e1s \u00fat","ref":"2205","id":22743564},"arcs":[776]},{"type":"LineString","properties":{"kind":"path","sort_rank":354,"kind_detail":"track","is_bicycle_related":true,"bicycle_shield_text":"2582","bicycle_network":"ncn","source":"openstreetmap.org","min_zoom":8.0,"landuse_kind":"park"},"arcs":[777]},{"type":"LineString","properties":{"kind":"major_road","sort_rank":380,"kind_detail":"primary","bus_network":"MHD Prievidza","source":"openstreetmap.org","min_zoom":8.0,"bus_shield_text":"15","landuse_kind":"urban_area","ref":"64","id":20199487},"arcs":[778]},{"type":"LineString","properties":{"kind":"minor_road","sort_rank":360,"kind_detail":"unclassified","is_bicycle_related":true,"bicycle_shield_text":"045","bicycle_network":"ncn","source":"openstreetmap.org","min_zoom":8.0},"arcs":[779]},{"type":"LineString","properties":{"kind":"minor_road","sort_rank":358,"landuse_kind":"residential","is_bicycle_related":true,"bicycle_shield_text":"011","bicycle_network":"ncn","source":"openstreetmap.org","min_zoom":8.0,"kind_detail":"service"},"arcs":[780]},{"type":"LineString","properties":{"kind":"major_road","sort_rank":380,"kind_detail":"primary","is_bicycle_related":true,"bicycle_shield_text":"5552","bicycle_network":"rcn","source":"openstreetmap.org","min_zoom":8.0,"ref":"66","id":358356500},"arcs":[781]},{"type":"LineString","properties":{"kind":"path","sort_rank":354,"kind_detail":"path","is_bicycle_related":true,"bicycle_shield_text":"045","bicycle_network":"ncn","source":"openstreetmap.org","min_zoom":8.0,"id":270524561},"arcs":[782]},{"type":"LineString","properties":{"bus_network":"MHD Prievidza","sort_rank":377,"kind_detail":"tertiary","is_bicycle_related":true,"kind":"major_road","bicycle_shield_text":"019","bicycle_network":"ncn","source":"openstreetmap.org","min_zoom":8.0,"bus_shield_text":"3","ref":"1776"},"arcs":[783]},{"type":"MultiLineString","properties":{"kind":"path","sort_rank":354,"kind_detail":"cycleway","is_bicycle_related":true,"bicycle_shield_text":"019","bicycle_network":"ncn","source":"openstreetmap.org","min_zoom":8.0,"landuse_kind":"urban_area"},"arcs":[[784],[785]]},{"type":"MultiLineString","properties":{"source":"openstreetmap.org","kind":"major_road","sort_rank":380,"kind_detail":"primary","ref":"66","min_zoom":8.0},"arcs":[[786],[787],[788],[789],[790],[791],[792],[793],[794],[795],[796],[797],[798]]},{"type":"LineString","properties":{"kind":"minor_road","sort_rank":360,"kind_detail":"residential","is_bicycle_related":true,"bicycle_shield_text":"013","bicycle_network":"ncn","source":"openstreetmap.org","min_zoom":8.0,"landuse_kind":"residential","id":27170579},"arcs":[799]},{"type":"LineString","properties":{"kind":"minor_road","sort_rank":358,"kind_detail":"service","is_bicycle_related":true,"bicycle_shield_text":"8617","bicycle_network":"ncn","source":"openstreetmap.org","min_zoom":8.0},"arcs":[800]},{"type":"MultiLineString","properties":{"kind":"minor_road","sort_rank":358,"kind_detail":"service","is_bicycle_related":true,"bicycle_shield_text":"033","bicycle_network":"ncn","source":"openstreetmap.org","min_zoom":8.0},"arcs":[[801],[802],[803]]},{"type":"MultiLineString","properties":{"kind":"minor_road","sort_rank":360,"kind_detail":"residential","is_bicycle_related":true,"bicycle_shield_text":"052","bicycle_network":"ncn","source":"openstreetmap.org","min_zoom":8.0},"arcs":[[804],[805],[806],[807],[808],[809],[810],[811],[812]]},{"type":"MultiLineString","properties":{"source":"openstreetmap.org","kind":"major_road","sort_rank":380,"kind_detail":"primary","ref":"65","min_zoom":8.0},"arcs":[[813],[814],[815],[816],[817],[818],[819],[820],[821],[822],[823]]},{"type":"MultiLineString","properties":{"kind":"minor_road","sort_rank":358,"kind_detail":"service","is_bicycle_related":true,"bicycle_shield_text":"045","bicycle_network":"ncn","source":"openstreetmap.org","min_zoom":8.0},"arcs":[[824],[825],[826],[827]]},{"type":"LineString","properties":{"kind":"major_road","sort_rank":377,"kind_detail":"tertiary","is_bicycle_related":true,"bicycle_shield_text":"032","bicycle_network":"ncn","source":"openstreetmap.org","min_zoom":8.0,"ref":"2132"},"arcs":[828]},{"type":"LineString","properties":{"kind":"major_road","sort_rank":377,"kind_detail":"tertiary","is_bicycle_related":true,"bicycle_shield_text":"052","bicycle_network":"ncn","source":"openstreetmap.org","min_zoom":8.0,"ref":"2556"},"arcs":[829]},{"type":"LineString","properties":{"kind":"major_road","sort_rank":377,"kind_detail":"tertiary","is_bicycle_related":true,"bicycle_shield_text":"052","bicycle_network":"ncn","source":"openstreetmap.org","min_zoom":8.0,"ref":"1550"},"arcs":[830]},{"type":"LineString","properties":{"kind":"path","sort_rank":354,"kind_detail":"track","is_bicycle_related":true,"bicycle_shield_text":"8617","bicycle_network":"ncn","source":"openstreetmap.org","min_zoom":8.0},"arcs":[831]},{"type":"LineString","properties":{"source":"openstreetmap.org","kind":"major_road","sort_rank":381,"kind_detail":"trunk","ref":"R2","min_zoom":8.0},"arcs":[832]},{"type":"MultiLineString","properties":{"source":"openstreetmap.org","kind":"major_road","sort_rank":380,"kind_detail":"primary","ref":"71","min_zoom":8.0},"arcs":[[833],[834]]},{"type":"MultiLineString","properties":{"kind":"major_road","sort_rank":377,"kind_detail":"tertiary","is_bicycle_related":true,"bicycle_shield_text":"045","bicycle_network":"ncn","source":"openstreetmap.org","min_zoom":8.0,"ref":"1622"},"arcs":[[835],[836],[837],[838],[839],[840],[841]]},{"type":"LineString","properties":{"kind":"minor_road","sort_rank":360,"kind_detail":"unclassified","is_bicycle_related":true,"bicycle_shield_text":"049","bicycle_network":"ncn","source":"openstreetmap.org","min_zoom":8.0,"landuse_kind":"park"},"arcs":[842]},{"type":"MultiLineString","properties":{"bus_network":"MHD Prievidza","sort_rank":380,"kind_detail":"primary","kind":"major_road","source":"openstreetmap.org","min_zoom":8.0,"bus_shield_text":"50","landuse_kind":"urban_area","ref":"64"},"arcs":[[843],[844]]},{"type":"LineString","properties":{"kind":"major_road","sort_rank":377,"landuse_kind":"residential","is_bicycle_related":true,"bicycle_shield_text":"012","bicycle_network":"ncn","source":"openstreetmap.org","min_zoom":8.0,"kind_detail":"tertiary","ref":"2455"},"arcs":[845]},{"type":"MultiLineString","properties":{"kind":"major_road","network":"e-road","sort_rank":380,"kind_detail":"primary","source":"openstreetmap.org","min_zoom":8.0,"shield_text":"58","ref":"16"},"arcs":[[846],[847],[848],[849],[850],[851],[852]]},{"type":"LineString","properties":{"kind":"major_road","sort_rank":377,"kind_detail":"tertiary","is_bicycle_related":true,"bicycle_shield_text":"013","bicycle_network":"ncn","source":"openstreetmap.org","min_zoom":8.0,"name:de":"Dorfplatz","ref":"2632","id":9709482},"arcs":[853]},{"type":"LineString","properties":{"kind":"major_road","sort_rank":377,"kind_detail":"tertiary","is_bicycle_related":true,"bicycle_shield_text":"2A","bicycle_network":"ncn","source":"openstreetmap.org","min_zoom":8.0,"ref":"24147","id":39323699},"arcs":[854]},{"type":"LineString","properties":{"bus_network":null,"sort_rank":380,"kind_detail":"primary","is_bicycle_related":true,"kind":"major_road","bicycle_shield_text":"009","bicycle_network":"ncn","source":"openstreetmap.org","min_zoom":8.0,"bus_shield_text":"606103","landuse_kind":"residential","ref":"75"},"arcs":[855]},{"type":"LineString","properties":{"kind":"major_road","network":"e-road","sort_rank":380,"kind_detail":"primary","is_bicycle_related":true,"bicycle_shield_text":"013","bicycle_network":"ncn","source":"openstreetmap.org","min_zoom":8.0,"shield_text":"58","ref":"16","id":362288915},"arcs":[856]},{"type":"LineString","properties":{"kind":"major_road","sort_rank":379,"kind_detail":"secondary","is_bicycle_related":true,"bicycle_shield_text":"2A","bicycle_network":"ncn","source":"openstreetmap.org","min_zoom":8.0,"ref":"2206","id":295151180},"arcs":[857]},{"type":"LineString","properties":{"kind":"major_road","sort_rank":379,"kind_detail":"secondary","is_bicycle_related":true,"bicycle_shield_text":"019","bicycle_network":"ncn","source":"openstreetmap.org","min_zoom":8.0,"landuse_kind":"residential","ref":"593","id":302114280},"arcs":[858]},{"type":"MultiLineString","properties":{"kind":"minor_road","sort_rank":360,"kind_detail":"unclassified","is_bicycle_related":true,"bicycle_shield_text":"21","bicycle_network":"ncn","source":"openstreetmap.org","min_zoom":8.0},"arcs":[[859],[860],[861]]},{"type":"LineString","properties":{"kind":"major_road","sort_rank":380,"landuse_kind":"residential","source":"openstreetmap.org","min_zoom":8.0,"kind_detail":"primary","ref":"75","id":7981836},"arcs":[862]},{"type":"LineString","properties":{"kind":"major_road","sort_rank":379,"kind_detail":"secondary","is_bicycle_related":true,"bicycle_shield_text":"012","bicycle_network":"ncn","source":"openstreetmap.org","min_zoom":8.0,"ref":"526;529","id":31887564},"arcs":[863]},{"type":"MultiLineString","properties":{"bus_network":"MHD Prievidza","sort_rank":380,"kind_detail":"primary","kind":"major_road","source":"openstreetmap.org","min_zoom":8.0,"bus_shield_text":"11","landuse_kind":"urban_area","ref":"64"},"arcs":[[864],[865],[866]]},{"type":"LineString","properties":{"kind":"major_road","sort_rank":377,"kind_detail":"tertiary","is_bicycle_related":true,"bicycle_shield_text":"032","bicycle_network":"ncn","source":"openstreetmap.org","min_zoom":8.0,"ref":"2174"},"arcs":[867]},{"type":"LineString","properties":{"kind":"major_road","sort_rank":377,"kind_detail":"tertiary","is_bicycle_related":true,"bicycle_shield_text":"009","bicycle_network":"ncn","source":"openstreetmap.org","min_zoom":8.0,"ref":"2715"},"arcs":[868]},{"type":"LineString","properties":{"kind":"major_road","sort_rank":380,"kind_detail":"primary","bus_network":"MD Zlat\u00e9 Moravce","source":"openstreetmap.org","min_zoom":8.0,"bus_shield_text":"104","ref":"65","id":194083455},"arcs":[869]},{"type":"LineString","properties":{"kind":"path","sort_rank":354,"kind_detail":"track","is_bicycle_related":true,"bicycle_shield_text":"013","bicycle_network":"ncn","source":"openstreetmap.org","min_zoom":8.0,"id":32424132},"arcs":[870]},{"type":"MultiLineString","properties":{"kind":"minor_road","sort_rank":360,"kind_detail":"residential","is_bicycle_related":true,"bicycle_shield_text":"011","bicycle_network":"ncn","source":"openstreetmap.org","min_zoom":8.0},"arcs":[[871],[872],[873],[874],[875],[876],[877],[878],[879]]},{"type":"MultiLineString","properties":{"kind":"major_road","network":"e-road","sort_rank":381,"landuse_kind":"urban_area","source":"openstreetmap.org","min_zoom":8.0,"kind_detail":"trunk","shield_text":"77"},"arcs":[[880],[881]]},{"type":"MultiLineString","properties":{"kind":"minor_road","sort_rank":360,"kind_detail":"unclassified","is_bicycle_related":true,"bicycle_shield_text":"012","bicycle_network":"ncn","source":"openstreetmap.org","min_zoom":8.0},"arcs":[[882],[883]]},{"type":"LineString","properties":{"kind":"major_road","sort_rank":380,"kind_detail":"primary","bus_network":"MHD Zvolen","source":"openstreetmap.org","min_zoom":8.0,"bus_shield_text":"1","landuse_kind":"urban_area","ref":"66","id":10463615},"arcs":[884]},{"type":"LineString","properties":{"kind":"path","sort_rank":354,"kind_detail":"path","is_bicycle_related":true,"bicycle_shield_text":null,"bicycle_network":"ncn","source":"openstreetmap.org","min_zoom":8.0,"landuse_kind":"park","id":85204459},"arcs":[885]},{"type":"MultiLineString","properties":{"kind":"major_road","sort_rank":377,"kind_detail":"tertiary","is_bicycle_related":true,"bicycle_shield_text":"013","bicycle_network":"ncn","source":"openstreetmap.org","min_zoom":8.0,"ref":"2632"},"arcs":[[886],[887]]},{"type":"LineString","properties":{"kind":"minor_road","sort_rank":360,"kind_detail":"unclassified","is_bicycle_related":true,"bicycle_shield_text":null,"bicycle_network":"ncn","source":"openstreetmap.org","min_zoom":8.0,"landuse_kind":"park"},"arcs":[888]},{"type":"MultiLineString","properties":{"kind":"major_road","network":"sk:regional","sort_rank":379,"kind_detail":"secondary","is_bicycle_related":true,"bicycle_shield_text":"045","bicycle_network":"ncn","source":"openstreetmap.org","min_zoom":8.0,"shield_text":"511","ref":"511"},"arcs":[[889],[890]]},{"type":"LineString","properties":{"bus_network":"MHD \u017diar nad Hronom","sort_rank":380,"kind_detail":"primary","kind":"major_road","source":"openstreetmap.org","min_zoom":8.0,"bus_shield_text":"4","landuse_kind":"urban_area","ref":"65"},"arcs":[891]},{"type":"LineString","properties":{"kind":"major_road","sort_rank":377,"kind_detail":"tertiary","is_bicycle_related":true,"bicycle_shield_text":"052","bicycle_network":"ncn","source":"openstreetmap.org","min_zoom":8.0,"landuse_kind":"park","ref":"1587"},"arcs":[892]},{"type":"LineString","properties":{"kind":"major_road","sort_rank":377,"kind_detail":"tertiary","is_bicycle_related":true,"bicycle_shield_text":"032","bicycle_network":"ncn","source":"openstreetmap.org","min_zoom":8.0,"ref":"2504"},"arcs":[893]},{"type":"LineString","properties":{"kind":"major_road","sort_rank":377,"kind_detail":"tertiary","is_bicycle_related":true,"bicycle_shield_text":"8115","bicycle_network":"ncn","source":"openstreetmap.org","min_zoom":8.0,"ref":"1623"},"arcs":[894]},{"type":"MultiLineString","properties":{"source":"openstreetmap.org","kind":"major_road","landuse_kind":"urban_area","sort_rank":380,"kind_detail":"primary","ref":"9","min_zoom":8.0},"arcs":[[895],[896]]},{"type":"LineString","properties":{"kind":"major_road","sort_rank":377,"kind_detail":"tertiary","is_bicycle_related":true,"bicycle_shield_text":"010","bicycle_network":"ncn","source":"openstreetmap.org","min_zoom":8.0,"ref":"1542"},"arcs":[897]},{"type":"LineString","properties":{"kind":"path","sort_rank":354,"kind_detail":"path","is_bicycle_related":true,"bicycle_shield_text":"8632","bicycle_network":"ncn","source":"openstreetmap.org","min_zoom":8.0,"landuse_kind":"park","id":85204429},"arcs":[898]},{"type":"LineString","properties":{"kind":"major_road","sort_rank":380,"kind_detail":"primary","is_bicycle_related":true,"bicycle_shield_text":"5559","bicycle_network":"rcn","source":"openstreetmap.org","min_zoom":8.0,"ref":"69"},"arcs":[899]},{"type":"LineString","properties":{"kind":"path","sort_rank":354,"kind_detail":"track","is_bicycle_related":true,"bicycle_shield_text":"033","bicycle_network":"ncn","source":"openstreetmap.org","min_zoom":8.0,"landuse_kind":"urban_area","id":223939563},"arcs":[900]},{"type":"LineString","properties":{"bus_network":null,"sort_rank":377,"kind_detail":"tertiary","is_bicycle_related":true,"kind":"major_road","bicycle_shield_text":"033","bicycle_network":"ncn","source":"openstreetmap.org","min_zoom":8.0,"bus_shield_text":"42","ref":"2421"},"arcs":[901]},{"type":"MultiLineString","properties":{"kind":"major_road","sort_rank":377,"kind_detail":"tertiary","is_bicycle_related":true,"bicycle_shield_text":"032","bicycle_network":"ncn","source":"openstreetmap.org","min_zoom":8.0,"ref":"2170"},"arcs":[[902],[903]]},{"type":"LineString","properties":{"kind":"minor_road","sort_rank":358,"kind_detail":"service","is_bicycle_related":true,"bicycle_shield_text":"049","bicycle_network":"ncn","source":"openstreetmap.org","min_zoom":8.0},"arcs":[904]},{"type":"LineString","properties":{"kind":"major_road","sort_rank":377,"kind_detail":"tertiary","is_bicycle_related":true,"bicycle_shield_text":"013","bicycle_network":"ncn","source":"openstreetmap.org","min_zoom":8.0,"ref":"2664"},"arcs":[905]},{"type":"LineString","properties":{"kind":"path","sort_rank":354,"kind_detail":"track","is_bicycle_related":true,"bicycle_shield_text":"042","bicycle_network":"ncn","source":"openstreetmap.org","min_zoom":8.0,"id":244470591},"arcs":[906]},{"type":"LineString","properties":{"source":"openstreetmap.org","kind":"major_road","kind_detail":"trunk","sort_rank":381,"landuse_kind":"urban_area","min_zoom":8.0},"arcs":[907]},{"type":"MultiLineString","properties":{"source":"openstreetmap.org","kind":"major_road","sort_rank":380,"kind_detail":"primary","ref":"75","min_zoom":8.0},"arcs":[[908],[909],[910],[911],[912]]},{"type":"LineString","properties":{"kind":"major_road","network":"sk:regional","sort_rank":380,"kind_detail":"primary","is_bicycle_related":true,"bicycle_shield_text":"2111","bicycle_network":"rcn","source":"openstreetmap.org","min_zoom":8.0,"shield_text":"75","ref":"75"},"arcs":[913]},{"type":"LineString","properties":{"kind":"major_road","sort_rank":379,"kind_detail":"secondary","is_bicycle_related":true,"bicycle_shield_text":"009","bicycle_network":"ncn","source":"openstreetmap.org","min_zoom":8.0,"ref":"526","id":23449735},"arcs":[914]},{"type":"LineString","properties":{"kind":"major_road","sort_rank":377,"kind_detail":"tertiary","is_bicycle_related":true,"bicycle_shield_text":"011","bicycle_network":"ncn","source":"openstreetmap.org","min_zoom":8.0,"ref":"2465"},"arcs":[915]},{"type":"LineString","properties":{"bus_network":"MHD Prievidza","sort_rank":380,"kind_detail":"primary","kind":"major_road","source":"openstreetmap.org","min_zoom":8.0,"bus_shield_text":"51","landuse_kind":"urban_area","ref":"64"},"arcs":[916]},{"type":"MultiLineString","properties":{"kind":"minor_road","sort_rank":360,"kind_detail":"residential","is_bicycle_related":true,"bicycle_shield_text":"052","bicycle_network":"ncn","source":"openstreetmap.org","min_zoom":8.0,"landuse_kind":"park"},"arcs":[[917],[918]]},{"type":"LineString","properties":{"bus_network":null,"sort_rank":380,"kind_detail":"primary","kind":"major_road","source":"openstreetmap.org","min_zoom":8.0,"bus_shield_text":"42","landuse_kind":"urban_area","ref":"66"},"arcs":[919]},{"type":"MultiLineString","properties":{"kind":"minor_road","sort_rank":360,"kind_detail":"unclassified","is_bicycle_related":true,"bicycle_shield_text":"052","bicycle_network":"ncn","source":"openstreetmap.org","min_zoom":8.0},"arcs":[[920],[921],[922],[923]]},{"type":"LineString","properties":{"kind":"path","sort_rank":354,"kind_detail":"pedestrian","is_bicycle_related":true,"bicycle_shield_text":"032","bicycle_network":"ncn","source":"openstreetmap.org","min_zoom":8.0},"arcs":[924]},{"type":"LineString","properties":{"kind":"minor_road","service":"driveway","sort_rank":356,"kind_detail":"service","is_bicycle_related":true,"bicycle_shield_text":"052","bicycle_network":"ncn","source":"openstreetmap.org","min_zoom":8.0,"id":236420729},"arcs":[925]},{"type":"LineString","properties":{"kind":"major_road","sort_rank":377,"kind_detail":"tertiary","is_bicycle_related":true,"bicycle_shield_text":"21","bicycle_network":"ncn","source":"openstreetmap.org","min_zoom":8.0,"ref":"21132","id":495758490},"arcs":[926]},{"type":"MultiLineString","properties":{"kind":"minor_road","sort_rank":360,"kind_detail":"residential","is_bicycle_related":true,"bicycle_shield_text":"011","bicycle_network":"ncn","source":"openstreetmap.org","min_zoom":8.0,"landuse_kind":"residential"},"arcs":[[927],[928],[929],[930]]},{"type":"MultiLineString","properties":{"kind":"path","sort_rank":354,"landuse_kind":"urban_area","is_bicycle_related":true,"bicycle_shield_text":"019","bicycle_network":"ncn","source":"openstreetmap.org","min_zoom":8.0,"kind_detail":"footway"},"arcs":[[931],[932]]},{"type":"LineString","properties":{"kind":"major_road","network":"sk:regional","sort_rank":379,"kind_detail":"secondary","is_bicycle_related":true,"bicycle_shield_text":"049","bicycle_network":"ncn","source":"openstreetmap.org","min_zoom":8.0,"shield_text":"511","ref":"511","id":221891179},"arcs":[933]},{"type":"LineString","properties":{"kind":"major_road","sort_rank":377,"kind_detail":"tertiary","is_bicycle_related":true,"bicycle_shield_text":"013","bicycle_network":"ncn","source":"openstreetmap.org","min_zoom":8.0,"ref":"2661"},"arcs":[934]},{"type":"MultiLineString","properties":{"kind":"major_road","sort_rank":379,"kind_detail":"secondary","is_bicycle_related":true,"bicycle_shield_text":"012","bicycle_network":"ncn","source":"openstreetmap.org","min_zoom":8.0,"ref":"526"},"arcs":[[935],[936]]},{"type":"MultiLineString","properties":{"kind":"major_road","network":"e-road","sort_rank":380,"kind_detail":"primary","source":"openstreetmap.org","min_zoom":8.0,"shield_text":"572","ref":"9;64"},"arcs":[[937],[938],[939],[940],[941],[942],[943],[944]]},{"type":"LineString","properties":{"bus_network":"MHD \u017diar nad Hronom","sort_rank":380,"kind_detail":"primary","is_bicycle_related":true,"kind":"major_road","bicycle_shield_text":"2556","bicycle_network":"rcn","source":"openstreetmap.org","min_zoom":8.0,"bus_shield_text":"1","landuse_kind":"urban_area","ref":"9"},"arcs":[945]},{"type":"LineString","properties":{"kind":"path","sort_rank":354,"kind_detail":"path","is_bicycle_related":true,"bicycle_shield_text":"8617","bicycle_network":"ncn","source":"openstreetmap.org","min_zoom":8.0,"id":24305655},"arcs":[946]},{"type":"MultiLineString","properties":{"kind":"minor_road","sort_rank":360,"kind_detail":"residential","is_bicycle_related":true,"bicycle_shield_text":"045","bicycle_network":"ncn","source":"openstreetmap.org","min_zoom":8.0},"arcs":[[947],[948],[949],[950]]},{"type":"LineString","properties":{"source":"openstreetmap.org","kind":"major_road","sort_rank":380,"kind_detail":"primary","ref":"72","min_zoom":8.0},"arcs":[951]},{"type":"MultiLineString","properties":{"kind":"path","sort_rank":354,"kind_detail":"track","is_bicycle_related":true,"bicycle_shield_text":"011","bicycle_network":"ncn","source":"openstreetmap.org","min_zoom":8.0},"arcs":[[952],[953],[954],[955]]},{"type":"LineString","properties":{"kind":"major_road","network":"e-road","sort_rank":380,"kind_detail":"primary","source":"openstreetmap.org","min_zoom":8.0,"landuse_kind":"park","shield_text":"77","ref":"59"},"arcs":[956]},{"type":"MultiLineString","properties":{"bus_network":"MHD \u017diar nad Hronom","sort_rank":380,"kind_detail":"primary","kind":"major_road","source":"openstreetmap.org","min_zoom":8.0,"bus_shield_text":"2","landuse_kind":"urban_area","ref":"9"},"arcs":[[957],[958]]},{"type":"LineString","properties":{"kind":"major_road","sort_rank":379,"kind_detail":"secondary","is_bicycle_related":true,"bicycle_shield_text":"011","bicycle_network":"ncn","source":"openstreetmap.org","min_zoom":8.0,"ref":"591","id":42103518},"arcs":[959]},{"type":"MultiLineString","properties":{"bus_network":"MHD \u017diar nad Hronom","sort_rank":380,"kind_detail":"primary","kind":"major_road","source":"openstreetmap.org","min_zoom":8.0,"bus_shield_text":"1","landuse_kind":"urban_area","ref":"9"},"arcs":[[960],[961],[962]]}]},"earth":{"type":"GeometryCollection","geometries":[{"type":"Polygon","properties":{"sort_rank":10,"source":"naturalearthdata.com","kind":"earth","min_zoom":0.0,"id":4754},"arcs":[[963]]}]},"landuse":{"type":"GeometryCollection","geometries":[{"type":"MultiPolygon","properties":{"kind":"national_park","protect_class":"2","area":673825636,"sort_rank":18,"source":"openstreetmap.org","min_zoom":3.0,"tier":1,"osm_relation":true},"arcs":[[[964]],[[965]]]},{"type":"MultiPolygon","properties":{"source":"openstreetmap.org","kind":"residential","tier":2,"area":947237147,"sort_rank":20,"min_zoom":8.0,"osm_relation":true},"arcs":[[[966]]]},{"type":"Polygon","properties":{"kind":"nature_reserve","protect_class":"1","area":25795900,"sort_rank":23,"source":"openstreetmap.org","min_zoom":8.0,"tier":2,"id":409611871},"arcs":[[967]]},{"type":"MultiPolygon","properties":{"source":"openstreetmap.org","kind":"park","tier":2,"area":2261436248,"sort_rank":24,"min_zoom":6.0,"osm_relation":true},"arcs":[[[968]],[[969]],[[970]]]},{"type":"MultiPolygon","properties":{"source":"openstreetmap.org","kind":"military","tier":3,"area":422839702,"sort_rank":45,"min_zoom":8.0},"arcs":[[[971]]]},{"type":"MultiPolygon","properties":{"source":"naturalearthdata.com","kind":"urban_area","name":"","area":8928926759,"sort_rank":11,"min_zoom":4.0},"arcs":[[[972]],[[973]],[[974]],[[975]],[[976]],[[977]],[[978]],[[979]],[[980]],[[981]],[[982]],[[983]],[[984]],[[985]]]},{"type":"MultiPolygon","properties":{"kind":"national_park","protect_class":"5","area":2095678527,"sort_rank":18,"source":"openstreetmap.org","min_zoom":3.0,"tier":1,"osm_relation":true},"arcs":[[[986]]]},{"type":"Polygon","properties":{"source":"openstreetmap.org","kind":"nature_reserve","area":706641984,"tier":2,"id":39398382,"min_zoom":6.0,"sort_rank":23},"arcs":[[987]]},{"type":"MultiPolygon","properties":{"source":"openstreetmap.org","kind":"residential","tier":2,"area":340489035,"sort_rank":20,"min_zoom":8.0},"arcs":[[[988]],[[989]],[[990]],[[991]]]},{"type":"Polygon","properties":{"kind":"park","area":1787399936,"sort_rank":24,"source":"openstreetmap.org","min_zoom":4.0,"tier":2,"id":-6757204,"osm_relation":true},"arcs":[[992]]},{"type":"MultiPolygon","properties":{"kind":"protected_area","protect_class":"1","area":18285236,"sort_rank":17,"source":"openstreetmap.org","min_zoom":8.0,"tier":2,"osm_relation":true},"arcs":[[[993]]]}]}},"type":"Topology","transform":{"translate":[18.28125,47.9899216674],"scale":[0.0003433228,0.0002276801]},"arcs":[[[4096,960],[-37,49],[-19,91],[-69,-5],[-40,48],[-155,-150],[-146,-52],[4,-61],[-71,-74],[24,-82],[-59,-66],[5,-132],[-92,-117],[-32,38],[7,43],[-54,-8],[-30,-48],[-47,1],[-26,-29],[-39,42],[-50,-26],[-40,21],[-154,-9],[-76,-65],[-61,-10],[-42,-79],[-84,47],[-92,-14],[-133,57],[-82,-38],[-67,32],[-75,-68],[-36,40],[-37,-9],[-54,61],[-97,-108],[-110,23],[-102,-34],[-65,33],[-4,-37],[-30,-14],[-85,24],[-36,-19],[-39,-37],[20,-34],[-33,-47],[17,-66],[-16,-57],[-19,-15]],[[3195,4096],[-78,-107],[-59,-20],[-44,-107],[-53,-42],[-131,-16],[40,39],[-4,83],[-31,5],[-31,45],[-36,-7],[-2,-22],[-53,13],[-86,-49],[-57,17],[-29,-28],[-28,18],[-183,-32],[-125,32],[-45,-29],[-18,-87],[-66,-42],[27,-103],[-31,-88],[70,-54],[-48,-176],[-45,-21],[-122,18],[-56,-36],[-40,41],[-52,2],[-31,82],[-78,-28],[-82,-85]],[[4088,4096],[-28,-19],[-44,19]],[[1588,3312],[-88,-191],[-122,-38],[-38,-131],[-80,-63],[10,-92],[-177,58],[-160,-208],[-11,-76],[-59,10],[-30,-46],[-106,-25],[-42,19],[-30,-15],[-25,29],[-30,-86],[-25,-3]],[[2135,386],[56,-59],[37,9],[36,-40],[75,68],[67,-32],[82,38],[133,-57],[92,14],[84,-47],[42,79],[61,10],[76,65],[154,9],[40,-21],[50,26],[39,-42],[26,29],[47,-1],[30,48],[54,8],[-7,-43],[32,-38],[92,117],[-5,132],[59,66],[-24,82],[71,74],[-4,61],[146,52],[155,150],[40,-48],[69,5],[19,-91],[37,-49]],[[575,2454],[69,-99],[46,12],[-53,-35],[-55,-93],[43,0],[1,32],[42,12],[79,-27],[-19,-129],[45,12],[-75,-114],[34,5],[7,-55],[32,-16],[-21,-80],[64,2],[29,-62],[16,-124],[-26,-23],[-1,-52],[-64,-38],[10,-24],[-34,-15],[-1,-41],[-35,3],[51,-24],[-24,-21],[7,-53],[109,167],[114,-20],[65,45],[51,-13],[1,-26],[66,44],[11,82],[29,4],[-2,31],[41,35],[-12,15],[96,104],[44,-2],[109,-173],[78,-28],[42,-173],[23,-44],[36,-3],[21,-65],[-37,-88],[2,-77],[-68,-33],[-34,-67],[45,-43],[-36,-25],[67,-104],[-97,-83],[31,-99],[36,7],[32,50],[67,-46],[47,-1],[-2,-25],[23,-21],[26,24],[128,-14],[6,67],[27,15],[16,-19],[31,41],[146,47],[37,-15],[83,65],[64,-45],[-29,-26],[24,-19],[-36,-28],[3,-57],[-28,-18],[49,-113],[-55,-87],[-50,-26],[-13,-52],[-37,-18],[3,-68]],[[1209,4096],[-8,-60],[42,-50],[-37,-74],[8,-144],[158,-92],[5,-41],[70,-21],[-25,-18],[32,-20],[-11,-59],[98,-94],[47,-111]],[[0,2429],[13,-9],[64,-118],[11,-75],[87,-32],[25,50],[47,-68],[0,37],[328,240]],[[1884,295],[89,-133],[49,-10],[43,21],[45,-54],[-15,-31],[20,1],[-7,-81],[-21,-8]],[[2135,386],[-95,-106],[-39,21],[-117,-6]],[[1884,295],[-56,-26],[-65,33],[-4,-37],[-30,-14],[-85,24],[-36,-19],[-39,-37],[20,-34],[-33,-47],[17,-66],[-16,-57],[-19,-15]],[[4096,1463],[-224,260],[-135,340],[-138,88],[-64,118],[-76,34],[-35,59],[-295,48],[-159,76],[-213,23],[-117,52],[-165,-1],[-120,-67],[-90,44],[-118,-22],[-102,88],[-90,25],[-39,-18],[-68,33],[-43,-30],[-53,11],[-195,-169],[-221,-71],[-42,-244],[-97,-59],[12,-100],[-217,-166],[-46,-58],[-11,-63],[-79,-67],[-100,-176],[-28,-83],[146,-231],[-7,-78],[47,-119],[-129,-25],[-135,30],[-89,-73],[-51,-128],[-80,20],[-48,-20],[-51,-178],[-97,-14],[-32,-53],[-101,-24],[-101,10]],[[1696,3689],[-78,407]],[[1618,4096],[67,-380],[1,-4],[1,-2],[9,-21]],[[2445,2546],[36,20],[-9,98],[53,61],[34,177],[-68,166],[24,81],[-18,97],[122,55],[-97,36],[-48,121],[-84,68],[-17,78],[-19,-10],[21,-75],[-103,34],[-26,79],[46,65],[-82,-48],[-57,48],[-239,56],[-65,-43],[-97,1],[-33,-39],[-23,17]],[[3113,0],[-42,83],[-30,253],[-38,34],[-49,-10]],[[3113,0],[-42,83],[-30,253],[-38,34],[-49,-10]],[[4096,3275],[-87,46]],[[2954,360],[299,23],[126,41],[68,-24],[162,33],[35,291],[-35,112],[30,53],[-10,44],[99,39],[72,-12],[127,124]],[[2954,360],[299,23],[126,41],[68,-24],[162,33],[35,291],[-35,112],[30,53],[-10,44],[99,39],[72,-12],[127,124]],[[2239,283],[-1,0]],[[2238,283],[-4,1]],[[2234,284],[-4,1]],[[2239,283],[25,-45],[-45,-40],[7,-39],[112,-126],[58,-33]],[[2239,283],[36,-18],[103,38],[267,-62],[99,43],[59,-38],[39,15],[12,79],[94,17]],[[3720,3576],[38,0],[31,-34],[4,-53],[122,-82],[14,-46],[80,-40]],[[2239,283],[-1,0]],[[2238,283],[-4,1]],[[2234,284],[-4,1]],[[2239,283],[25,-45],[-45,-40],[7,-39],[112,-126],[58,-33]],[[2239,283],[36,-18],[103,38],[267,-62],[99,43],[59,-38],[39,15],[12,79],[94,17]],[[2230,285],[34,-45],[-45,-42],[7,-39],[112,-126],[58,-33]],[[2239,283],[-1,0]],[[2238,283],[-4,1]],[[2234,284],[-4,1]],[[2239,283],[25,-45],[-45,-40],[7,-39],[112,-126],[58,-33]],[[2239,283],[36,-18],[103,38],[267,-62],[99,43],[59,-38],[39,15],[12,79],[94,17]],[[2230,285],[45,-20],[103,38],[267,-62],[99,43],[59,-38],[39,15],[12,79],[94,17]],[[2230,285],[34,-45],[-45,-42],[7,-39],[112,-126],[58,-33]],[[4007,3322],[-64,-74]],[[3113,0],[-42,83],[-30,253],[-38,34],[-49,-10]],[[1797,0]],[[1797,0],[1,2]],[[1798,2],[1,3]],[[1799,5]],[[1799,5],[1,1]],[[1800,6],[0,1]],[[1800,7],[0,1]],[[1800,8]],[[1800,8],[0,4]],[[1800,12],[0,4]],[[1800,16],[1,1]],[[1801,17],[0,2]],[[1801,19],[0,1]],[[1801,20],[0,2]],[[1801,22],[1,1]],[[1802,23],[0,1]],[[1802,24],[1,2]],[[1803,26],[1,2]],[[1804,28],[1,2]],[[1805,30],[3,2]],[[1808,32],[0,1]],[[1808,33],[1,1]],[[1809,34],[0,2]],[[1809,36],[0,1]],[[1809,37],[0,1]],[[1809,38]],[[1809,38],[0,1]],[[1809,39],[-1,1]],[[1808,40],[-1,1]],[[1807,41],[-1,0]],[[1806,41],[-1,1]],[[1805,42],[0,1]],[[1805,43],[-1,1]],[[1804,44],[0,1]],[[1804,45]],[[1804,45],[-1,0]],[[1803,45],[0,1]],[[1803,46],[-1,0]],[[1802,46],[0,1]],[[1802,47]],[[1802,47],[-2,1]],[[1800,48]],[[1800,48],[-1,1]],[[1799,49],[-2,1]],[[1797,50],[-1,0]],[[1796,50],[0,1]],[[1796,51],[-1,0]],[[1795,51],[-1,0]],[[1794,51],[0,1]],[[1794,52]],[[1794,52]],[[1794,52],[0,1]],[[1794,53],[0,1]],[[1794,54],[-2,3]],[[1792,57],[-1,2]],[[1791,59],[-2,3]],[[1789,62],[-3,4]],[[1786,66],[-3,3]],[[1783,69],[-2,3]],[[1781,72],[-1,2]],[[1780,74],[-1,2]],[[1779,76],[0,1]],[[1779,77],[-1,2]],[[1778,79],[0,1]],[[1778,80],[0,2]],[[1778,82]],[[1778,82],[0,1]],[[1778,83],[-1,2]],[[1777,85],[0,1]],[[1777,86],[0,1]],[[1777,87],[1,1]],[[1778,88],[0,1]],[[1778,89],[0,1]],[[1778,90],[1,2]],[[1779,92],[0,1]],[[1779,93],[1,1]],[[1780,94],[0,1]],[[1780,95]],[[1780,95],[1,1]],[[1781,96],[0,1]],[[1781,97],[1,0]],[[1782,97],[1,1]],[[1783,98],[1,2]],[[1784,100],[1,1]],[[1785,101]],[[1785,101],[0,1]],[[1785,102],[0,1]],[[1785,103]],[[1785,103],[0,1]],[[1785,104]],[[3113,0],[-42,83],[-30,253],[-38,34],[-49,-10]],[[2239,283],[-1,0]],[[2238,283],[-4,1]],[[2234,284],[-4,1]],[[2239,283],[25,-45],[-45,-40],[7,-39],[112,-126],[58,-33]],[[2239,283],[36,-18],[103,38],[267,-62],[99,43],[59,-38],[39,15],[12,79],[94,17]],[[26,3109],[251,-39],[68,69],[240,83]],[[586,3222],[67,-10]],[[1052,3408],[119,71],[209,-55],[24,-17],[-8,-153]],[[1387,3205],[6,29]],[[1392,3234],[-5,-29]],[[1387,3205],[-34,-43],[-46,-194],[206,-198]],[[1394,3235],[-1,-1]],[[1393,3234],[1,1]],[[1394,3235],[3,13]],[[1513,2770],[1,-1]],[[1514,2770],[-1,0]],[[1393,3234],[0,1],[-1,-1]],[[1392,3234],[1,0]],[[1515,2770],[-1,-1],[0,-1],[1,1],[0,1]],[[3281,2399],[-30,13]],[[3252,2410],[29,-11]],[[3949,1708],[30,27],[117,16]],[[1734,788],[5,3]],[[2662,0],[11,31]],[[2674,32],[72,99],[-39,117]],[[3593,402],[24,18]],[[3618,433],[95,160],[59,10],[159,-2],[125,-78],[40,-54]],[[2674,31],[0,1],[-1,0],[0,-1],[1,0]],[[3716,3575],[1,0]],[[2867,3953],[1,6]],[[1580,2467],[1,1]],[[797,3112],[-24,15],[-2,58]],[[899,3642],[1,2]],[[3610,3604],[48,5],[29,-24]],[[3687,3584],[29,-9]],[[3717,3575],[44,38],[153,-26]],[[2833,3886],[25,13]],[[2869,3941],[1,7]],[[377,116],[29,10],[15,87],[74,-27]],[[3001,2275],[72,-1],[8,-21]],[[320,1734],[-2,-1]],[[1475,2266],[2,-1]],[[3539,397],[51,5]],[[1735,3831],[-46,73]],[[2867,3953],[-1,1]],[[315,1727],[-14,-13]],[[349,2769],[-1,0]],[[181,2202],[-73,20],[-78,-18],[43,-17],[-21,-38],[27,-43]],[[230,2379],[4,5]],[[257,2363],[38,-16]],[[567,2455],[-35,73],[36,0],[-47,24],[-16,-83]],[[642,2435],[39,1]],[[2384,2508],[3,2]],[[3758,50],[1,-8]],[[3917,59],[129,50]],[[209,2775],[113,6]],[[348,2769],[-1,0]],[[3653,2019],[49,-82]],[[3780,1924],[16,3]],[[1398,2068],[-32,0]],[[1514,1954],[-6,4]],[[1554,1932],[-39,6]],[[3334,2556],[-2,-1]],[[3409,2606],[-37,0]],[[3566,2546],[-16,16]],[[3416,2367],[3,-1]],[[3421,2366],[-2,0]],[[3419,2366],[2,-1]],[[3970,3844],[2,2]],[[810,2056],[17,116]],[[1834,218],[82,84],[77,-7]],[[2710,2055],[74,106],[168,57],[38,74]],[[3971,1503],[36,-10]],[[4042,1488],[7,9]],[[887,754],[6,1]],[[930,693],[10,2]],[[2324,3895],[5,-8]],[[2355,3896]],[[3669,957],[-1,0]],[[3668,956],[1,0]],[[739,3215],[19,34]],[[747,3203],[-6,6]],[[752,3201],[4,-4]],[[771,3185],[-16,9]],[[862,3459],[26,36]],[[890,3624],[9,18]],[[606,2101],[-72,-1]],[[0,3112],[26,-3]],[[1516,2769],[-1,1]],[[1515,2769],[1,0]],[[1516,2769],[78,-46]],[[2592,211],[-134,42],[-63,69],[-78,-69],[-86,21]],[[1712,3734],[17,-39]],[[1741,3531],[-7,-60],[86,-75]],[[0,765],[40,102],[11,192]],[[47,1077],[-1,25]],[[46,1104],[46,61]],[[83,1248],[-5,-19]],[[273,1600],[-20,-36]],[[297,1706],[-21,-95]],[[3923,3590],[47,-4]],[[3687,2688],[24,13]],[[3776,2788],[-8,41]],[[3891,2876],[49,0]],[[3978,2877]],[[2671,3614],[-5,22]],[[2742,3898],[-9,-72]],[[2738,3282],[18,2]],[[2748,3901],[-2,0]],[[2769,3462],[0,6]],[[2904,3399],[-5,16]],[[1679,2529],[28,27]],[[2396,2607],[-2,-6],[-2,-19]],[[2392,2582],[4,22]],[[1354,1175],[-10,4]],[[3921,3395],[-4,-24],[50,-25]],[[3134,2389],[7,-29]],[[1631,1500],[-16,131],[67,224],[-15,75]],[[741,3209]],[[758,3249],[15,23]],[[460,2052],[74,48]],[[1392,2155],[43,-10]],[[1497,2294],[-12,10],[-8,-4]],[[1477,2300],[-30,-13]],[[1458,2230],[-14,-28],[48,-23],[29,28],[-22,28]],[[1499,2285],[-22,15]],[[1477,2300],[-10,6]],[[1504,2262],[1,-19]],[[1526,2265],[-4,13]],[[2764,2662],[137,3],[42,30],[136,-85],[114,17],[112,-74]],[[708,930],[36,-88],[52,-3],[20,-58],[71,-27]],[[712,1119],[30,-31],[-13,-64],[23,-22],[-35,-6],[-3,-52]],[[930,693],[-27,-27],[69,-46]],[[968,619],[25,-33]],[[2060,1293],[5,2]],[[3237,2431]],[[653,3212],[86,3]],[[739,3215],[52,12]],[[800,3220],[-5,4]],[[998,3387],[15,4]],[[1002,3367],[11,24]],[[1052,3408],[-39,-17]],[[1716,716],[-1,11]],[[453,2042],[7,10]],[[628,2116],[-22,-15]],[[3590,402],[3,0]],[[1667,1930],[-137,-110]],[[0,18],[143,-18],[155,97],[79,19]],[[495,186],[219,167],[54,119],[134,-3],[96,72]],[[998,541],[0,1],[0,-1]],[[998,542],[100,42],[332,2],[66,36],[143,-31]],[[1724,549],[11,-5]],[[181,2202],[8,127],[41,50]],[[456,2463],[-70,-7],[-12,28],[-32,-21],[-12,-61],[36,-28],[-71,-27]],[[505,2469],[-4,-17],[-27,27]],[[567,2455],[75,-20]],[[739,3215]],[[700,935],[3,-1]],[[2395,3514],[-1,-1]],[[248,1581],[51,47]],[[213,2802],[-14,16]],[[208,2787],[5,0]],[[347,2769],[-25,12]],[[349,2769],[19,-3]],[[318,1733],[-3,-6]],[[322,1735],[-2,-1]],[[2487,3045],[-3,73]],[[3967,3346],[41,-24]],[[1922,1898],[-2,-75]],[[910,3686],[-2,-9]],[[3579,1934],[-131,158],[-123,-8]],[[3330,2191],[-1,34],[126,93]],[[2484,3118],[5,11]],[[2680,3304],[-27,-2]],[[2694,3304],[31,5]],[[3946,1512],[23,-8]],[[1554,0],[19,111],[113,153],[148,-46]],[[1707,2556],[18,32]],[[4003,2943],[-25,-10]],[[3639,3145],[-21,-39],[187,-104],[62,9],[76,-66]],[[1823,2017],[1,0],[-1,1],[0,-1]],[[1836,1994],[-13,23]],[[1922,1898],[-86,95]],[[1920,1823],[-51,-186]],[[3805,1582],[141,-70]],[[897,981],[13,7]],[[910,988],[0,1]],[[910,989],[0,-1]],[[944,1048],[-16,-8],[-17,-50]],[[912,990],[12,9],[1,7],[1,26],[2,8],[16,8]],[[944,1048],[40,-18]],[[911,990],[-1,0],[0,-1],[1,0],[0,1]],[[337,1726],[32,32]],[[2676,3304],[18,0],[-18,0]],[[810,1563],[44,62]],[[811,3335],[-20,-34]],[[2354,1436],[1,-5]],[[1533,1746],[9,15]],[[1895,3752],[-50,-31],[-132,11]],[[2121,3713],[-26,14],[-42,-30],[-157,56]],[[2396,3514],[-111,28],[-97,116],[-43,-2],[22,6],[-19,31]],[[984,1030]],[[369,1758],[28,30]],[[3617,433],[1,0],[-1,0]],[[368,2766],[0,6]],[[698,2946],[-8,-27]],[[775,2994],[-15,-13]],[[801,3021],[7,7]],[[826,3371],[-5,-15]],[[845,3401],[-2,-9]],[[910,3686],[-32,30]],[[63,2796],[118,15]],[[426,2791],[17,3]],[[502,2787],[148,135]],[[1061,4096],[38,-46],[-71,-180]],[[2209,3894],[18,30],[97,-29]],[[2329,3887],[14,-31],[12,40]],[[2355,3896],[110,11],[11,26],[41,1],[38,64]],[[0,3107],[16,0]],[[1516,2767],[83,-130]],[[1599,2637],[13,-34],[4,-18],[-8,37],[-9,15]],[[1697,1187],[-17,-8]],[[2318,1448],[-22,28]],[[2965,421],[-5,-24]],[[2305,1621],[117,78],[30,76]],[[2485,1974],[95,70],[130,11]],[[3172,2386],[3,4]],[[3193,2401],[42,19]],[[755,3194],[1,3]],[[46,1102],[0,2]],[[2354,1436],[4,12]],[[2386,0],[-148,226],[-94,51],[-102,-23],[-45,42]],[[2905,3397],[12,10]],[[2918,3408],[19,18]],[[2940,3427],[137,47]],[[1053,1849],[6,4]],[[3271,2391],[9,-10]],[[4080,1549],[16,-6]],[[368,2772],[51,17]],[[502,2787],[-59,10]],[[690,2919],[-40,3]],[[760,2981],[-62,-35]],[[809,3031],[18,62],[-30,19]],[[878,3716],[9,172]],[[900,3644],[8,33]],[[585,3222],[1,0]],[[1396,3254],[1,-5]],[[1397,3248],[1,1],[-1,0],[0,-1]],[[2041,255],[67,22]],[[668,942],[31,119],[-29,172],[34,67]],[[998,542],[-325,346],[28,45]],[[744,1403],[66,160]],[[998,541],[77,-137]],[[1086,258],[14,9],[1,3]],[[1101,270],[-15,-12]],[[1086,258],[11,-257],[-1,-1]],[[1099,338],[2,-68]],[[2740,2666],[24,-4]],[[2936,379],[6,4]],[[1515,1938],[-1,16]],[[2855,4071],[18,-81]],[[2412,2661],[0,1]],[[2494,3245],[1,3]],[[2560,3275],[56,26]],[[1767,2629],[-109,-21],[-3,-1],[-16,-17]],[[1640,2589],[127,40]],[[2651,3298],[-152,37],[-4,-23],[-10,-18],[-4,-17],[-4,-236]],[[2478,3041],[17,147],[-1,72],[-13,17],[4,16],[6,6],[4,12],[4,23],[69,-26],[77,-13]],[[2541,2531],[28,4]],[[2448,2538],[14,4]],[[2475,2539],[-13,3]],[[2462,2542],[2,-1]],[[2569,2535],[51,10]],[[4013,1627],[53,-63]],[[3590,402],[1,9]],[[2702,3286],[-21,-17]],[[443,2794],[0,3]],[[1307,2082],[59,-14]],[[1398,2068],[7,-1]],[[1720,2107],[31,-3]],[[3719,1929],[32,25],[29,-30]],[[3835,975],[85,111]],[[3946,1122],[-13,-18]],[[3758,50],[-89,137]],[[1378,1449],[100,-6]],[[2318,1448],[40,0]],[[1931,2114],[-13,13]],[[1931,2149],[0,2]],[[2649,3301],[-15,1]],[[747,3203],[5,-2]],[[1002,3422],[0,8]],[[1885,980],[-71,233]],[[1692,3773],[20,-39]],[[1695,3775],[-3,-2]],[[1697,3783],[-2,-7]],[[2793,2533],[46,-30],[39,15],[90,-29],[50,-46],[219,-12]],[[3287,2402],[129,-35]],[[2741,3807],[-4,-4]],[[2746,3901],[-4,-3]],[[2748,3894],[30,6]],[[2851,4096],[1,-11]],[[2852,4084],[3,-13]],[[2873,3990],[-5,-31]],[[3881,0],[-63,32]],[[2498,3253],[4,3]],[[2502,3256],[-1,0]],[[2502,3256],[49,17]],[[2056,1292],[4,1]],[[1447,2287],[28,-21]],[[1522,2257],[9,-8]],[[2965,421]],[[2966,422],[-1,0],[-1,-1],[1,0],[1,1]],[[3318,2359],[-26,-3]],[[3348,2365],[68,2]],[[3422,2366],[23,-30]],[[3702,1937],[17,-8]],[[3978,2933],[-28,7]],[[809,3031],[-1,-3]],[[710,931],[-2,0]],[[3637,211],[-33,168]],[[465,1876]],[[569,2009]],[[578,2009],[-1,0]],[[629,2024],[-1,0]],[[664,2084]],[[728,2126],[1,0]],[[1879,963],[3,7]],[[58,1135],[8,-18]],[[66,1117],[0,-1]],[[66,1116],[0,1]],[[66,1116]],[[1725,781],[9,7]],[[1882,970],[3,10]],[[1022,3873],[6,-3]],[[775,2994],[26,27]],[[2227,1442],[27,23]],[[2282,1675],[19,25]],[[3286,2424],[-5,-8]],[[3311,2486],[-16,-33]],[[2148,3693],[-27,20]],[[1307,2082],[-10,-31],[105,-29],[5,17],[101,-81]],[[1405,2067],[22,56],[46,33],[46,-23],[86,24],[115,-50]],[[1751,2104],[-35,-5],[-28,-93],[-47,17],[2,-62],[-63,-41],[-26,12]],[[2707,248],[38,37],[66,-5],[35,66]],[[3011,394],[288,-17],[240,20]],[[3617,420],[0,13]],[[0,1508],[64,-13],[207,91],[60,-32],[68,-10],[80,50],[81,-6],[11,1],[7,2],[1,1],[5,1]],[[584,1593],[31,12]],[[615,1605],[3,1],[9,11],[3,6]],[[630,1623],[31,51],[4,0]],[[665,1674],[31,2]],[[696,1676],[24,2],[19,-3],[5,-1],[0,-1]],[[744,1673],[101,-34],[5,-2],[21,0],[85,82],[19,61],[88,58],[148,150],[-6,25]],[[1205,2013],[-13,51],[0,3]],[[1192,2067],[0,1],[0,1]],[[1192,2069],[1,2],[4,13],[42,29]],[[1239,2113],[2,2],[15,10],[36,6],[14,16],[27,233],[15,12],[86,28],[107,29],[8,4],[4,3]],[[1553,2456],[9,7]],[[1562,2463],[4,3],[5,9],[29,97],[30,10],[10,7]],[[1639,2590],[-11,-8],[-22,-7],[-9,-4],[-28,-60],[3,-32],[-1,-2],[-9,-14]],[[1562,2463],[-1,-1],[-3,-3],[-5,-3]],[[1553,2456],[-3,-2],[-12,-5],[-104,-28],[-86,-29],[-16,-12],[-18,-78],[-8,-155],[-15,-15],[-36,-6],[-8,-6],[-6,-5],[-2,-2]],[[1239,2113],[-47,-44]],[[1192,2069],[0,-1],[0,-1]],[[1192,2067],[13,-54]],[[1205,2013],[6,-25],[-43,-30],[-105,-119],[-1,-1],[-66,-22],[-24,-39],[-16,-56],[0,-1],[-85,-83],[-126,36],[-1,0]],[[744,1673],[-48,3]],[[696,1676],[-29,2],[-2,-4]],[[665,1674],[-35,-51]],[[630,1623],[-2,-2],[-8,-12],[-1,-1],[-4,-3]],[[615,1605],[-5,-4],[-8,-3],[-18,-5]],[[584,1593],[-5,-1],[-8,-2],[-11,-2],[-81,6],[-80,-49],[-68,9],[-48,31],[-9,1],[-8,0],[-30,-5],[-172,-85],[-64,13]],[[2477,3041],[2,-76],[-2,-12],[-14,-26],[-19,-55],[-5,-80],[6,-87],[-155,-163],[-14,-1],[-20,-3],[-56,-17],[-70,0],[-58,25],[-37,51],[-2,0]],[[2033,2597],[-16,3]],[[2017,2600],[-45,9],[-27,7],[-178,13]],[[1767,2629],[131,-24],[47,11],[27,-7],[45,-9]],[[2017,2600],[16,-3]],[[2033,2597],[24,-31],[15,-20],[55,-26],[31,-4],[42,5],[63,18],[37,3],[12,3],[134,160],[1,9],[-8,78],[6,79],[19,55],[13,27],[3,12],[-2,76]],[[2676,3304],[-25,-6]],[[2573,4029],[47,67]],[[2814,3371],[85,44]],[[3884,0],[13,40]],[[3292,2356],[8,-45],[58,-63]],[[1896,3753],[-1,-1]],[[897,981],[-46,-26]],[[984,1030],[61,26]],[[3591,411],[26,9]],[[2557,3267],[52,-6]],[[1511,1263],[-10,-13]],[[1637,1203],[-28,-3]],[[1643,1179],[-1,0]],[[1789,1226],[-64,-25]],[[1824,2017],[23,23],[-36,57]],[[1812,2098],[25,33],[76,-2]],[[1836,1993],[0,1]],[[1869,1637],[22,-67],[106,-70]],[[1931,2114],[0,35]],[[1931,2151],[51,101],[113,53],[18,182]],[[2634,3302],[2,-9]],[[3325,2084],[-19,11],[24,96]],[[1916,3258],[30,17],[-9,58],[-34,27]],[[4049,1497],[23,38]],[[3970,3586],[45,55],[45,9]],[[1283,2167],[35,6]],[[2527,3808],[6,5]],[[2557,4001],[16,28]],[[1605,2718],[25,-30]],[[3239,2431],[25,-10]],[[3266,2421],[21,-19]],[[3265,2421],[-1,0],[1,-1],[1,1],[-1,0]],[[2727,3292],[11,-10]],[[3688,3584],[39,52]],[[3746,3691],[85,49]],[[3859,3750],[0,1]],[[3860,3750],[54,16],[56,78]],[[3972,3846],[64,86],[60,15]],[[2918,368],[-4,5]],[[3237,2431],[2,0]],[[4007,1493],[3,0]],[[4010,1493],[16,0],[16,-5],[-16,5],[-16,0]],[[1494,1503],[39,243]],[[1804,1237],[-112,224]],[[2960,397],[-1,-1],[2,0],[0,1],[-1,0]],[[2457,2681],[-3,15]],[[1730,3691],[0,-4]],[[1731,3683],[12,-61]],[[1741,3577],[0,-46]],[[1744,3617],[-2,-38]],[[2791,2534],[0,-1],[2,2],[-2,-1]],[[862,3459],[1,-13]],[[708,931],[0,-1]],[[710,931],[4,13]],[[1684,3838],[1,-3]],[[1687,3820],[10,-37]],[[1903,3360],[-26,10]],[[1910,3256],[6,2]],[[2056,1292],[-20,1]],[[2052,1344],[3,-5]],[[2062,1311],[3,-16]],[[224,2802],[9,-5]],[[236,2797],[-3,0]],[[233,2797]],[[233,2797],[3,0]],[[236,2797],[41,7]],[[708,3051],[47,143]],[[756,3197],[23,28]],[[779,3225],[12,2]],[[800,3220],[-21,5]],[[999,3397],[-1,-10]],[[999,3397],[3,25]],[[1002,3367],[-3,30]],[[1006,3471],[1,10]],[[1007,3482]],[[1014,3501],[18,50]],[[2846,346],[72,22]],[[2961,396],[50,-2]],[[2592,211],[115,37]],[[2651,3297],[25,7]],[[972,620],[-4,-1]],[[2800,2565],[198,-40],[55,-86],[5,-8],[8,-7],[5,0]],[[3071,2424],[27,-1]],[[3098,2423],[3,0],[24,5],[29,-8],[80,-2],[18,-8]],[[3251,2412],[-17,7],[-78,1],[-31,9],[-13,-1],[-7,-2],[-5,-3],[-2,0]],[[3098,2423],[-2,-1],[-20,-1],[-5,3]],[[3071,2424],[-11,6],[-1,0],[-60,95],[-167,35],[-28,4]],[[3281,2399],[36,-15],[4,0],[2,1]],[[3323,2385],[43,23],[16,-1],[12,-5]],[[3394,2402],[1,0],[13,-12]],[[3408,2391],[-13,11],[-1,0]],[[3394,2402],[-71,-17]],[[3323,2385],[-2,0],[-4,-1],[-36,15]],[[3914,3587],[9,3]],[[2431,3466],[-49,70],[-1,81],[48,128]],[[2430,3748],[97,60]],[[2486,3425],[15,-60]],[[2501,3365]],[[2501,3365]],[[2533,3813],[121,33],[16,45],[106,8]],[[2857,4072],[-6,24]],[[2866,3954],[8,45]],[[863,3446],[1,-8]],[[2769,3468],[16,35],[-114,111]],[[843,3392],[-17,-21]],[[854,3430],[-9,-29]],[[2914,373],[50,48]],[[569,1604],[34,-3]],[[426,2791],[-7,-2]],[[3606,381],[-13,21]],[[3669,187],[-32,24]],[[3818,32],[-25,11]],[[50,1141],[-46,53],[-4,2]],[[50,1141],[10,-8]],[[58,1135],[-8,6]],[[66,1116],[1,0]],[[67,1116],[-1,0]],[[708,931],[-250,63],[-74,57],[-139,10],[-178,55]],[[851,955],[-74,-50],[-67,26]],[[1045,1056],[112,57],[90,89],[97,-23]],[[1501,1250],[-49,-77],[-98,2]],[[1609,1200],[-98,63]],[[1642,1179],[-5,24]],[[1680,1179],[-37,0]],[[1725,1201],[-28,-14]],[[2036,1293],[-188,-92],[-59,25]],[[2055,1339],[7,-28]],[[2113,2487],[13,37]],[[3949,1708],[-160,-100],[9,-22]],[[2918,368],[18,11]],[[2942,383],[8,8]],[[2501,3365],[-3,-16]],[[2498,3350],[3,15]],[[1715,727],[10,54]],[[1936,389],[-141,52],[-59,104],[-20,171]],[[1739,791],[140,172]],[[1885,980],[65,47],[118,188],[-8,78]],[[1937,387],[0,1],[-1,1]],[[1936,389],[0,-1],[1,-1]],[[1997,296],[-39,23],[-21,68]],[[2065,1295],[74,29],[42,88],[46,30]],[[2254,1465],[39,125],[-11,85]],[[2301,1700],[39,47],[29,184],[12,389],[70,89],[31,109]],[[2396,2568],[0,-54]],[[2401,2525],[-5,43]],[[2409,2674],[2,-14]],[[3616,2567],[71,121]],[[3711,2701],[75,41],[-10,46]],[[3768,2829],[123,47]],[[3940,2876],[38,1]],[[3978,2877],[25,66]],[[1896,961],[-14,9]],[[3805,1582],[-7,4]],[[0,2756],[23,5],[40,35]],[[364,2771],[62,20]],[[443,2794],[59,-7]],[[650,2922],[58,129]],[[1060,3772],[-32,98]],[[1032,3551],[22,71]],[[1983,3201],[-44,-55],[-85,-14]],[[3060,969],[17,20],[77,-15],[25,49]],[[708,931]],[[181,2811],[18,7]],[[3727,3636],[19,55]],[[887,3888],[135,-15]],[[2740,2666],[-55,-26],[-40,-63]],[[2041,255],[-48,40]],[[2182,276],[-74,1]],[[2776,3899],[57,-13]],[[2858,3899],[11,42]],[[2870,3948],[-4,6]],[[2950,391],[9,5]],[[2464,2541],[29,-6]],[[2493,2535],[-18,4]],[[2541,2531],[-48,4]],[[1725,2588],[39,36]],[[3332,2555],[-14,-31]],[[2666,3636],[0,25]],[[2912,3394],[-8,5]],[[1344,1179],[3,145]],[[2631,3262],[50,7]],[[2666,3661],[10,-31],[26,56],[4,-28],[27,32],[4,113]],[[2756,3284],[156,110]],[[2814,3371],[-45,91]],[[2852,4085],[0,-1]],[[3693,2095],[9,-1]],[[2505,3672],[27,3],[-38,29],[35,35],[12,-39]],[[1378,1449],[-31,-125]],[[681,2436],[53,-13]],[[322,1735],[15,-9]],[[2429,3745],[1,3]],[[1318,2173],[74,-18]],[[1477,2265],[-19,-35]],[[1522,2257],[-18,5]],[[1522,2278],[-1,2]],[[1531,2249],[-5,16]],[[3971,1503],[33,-20]],[[1729,3695],[1,-4]],[[1730,3687],[1,-4]],[[1742,3579],[-1,-2]],[[1743,3622],[1,-5]],[[4060,3650],[36,-1]],[[1548,1771],[-18,49]],[[4072,1535],[7,13]],[[1767,2624],[16,2]],[[3228,2407],[43,-16]],[[3280,2381],[12,-25]],[[3445,2336],[10,-18]],[[3818,3473],[-72,-139],[-76,-63],[-31,-126]],[[3943,2945],[7,-5]],[[2404,2683],[76,55]],[[2481,2739],[25,140],[-19,166]],[[2616,3301],[18,1]],[[704,1300],[40,103]],[[1075,404],[24,-66]],[[397,1788],[3,2]],[[2551,3273],[9,2]],[[1997,1500],[32,-22],[-15,-72],[38,-62]],[[2645,3295],[6,2]],[[3617,433],[-34,85],[7,88],[48,52],[19,107],[-34,56],[6,113],[38,21]],[[3667,955],[1,1]],[[3668,957],[-1,-2]],[[3669,956],[1,0]],[[3670,956],[-1,1]],[[3670,956],[22,-13],[39,28],[87,-17],[17,21]],[[213,2787],[-4,-12]],[[234,2384],[23,-21]],[[1807,683],[41,53],[170,-11]],[[2064,733],[68,49]],[[2344,948],[8,-1]],[[888,3495],[2,28]],[[911,989],[1,1]],[[976,1027],[8,3]],[[1630,2688],[8,-10]],[[1796,785],[10,41]],[[1873,918],[-59,-77]],[[3818,3473],[103,-78]],[[2748,3901],[0,-2]],[[3859,3751],[-28,-11]],[[854,1625],[149,205],[48,18]],[[2386,2511],[-20,-9]],[[2366,2502],[-15,-6],[-3,4]],[[2348,2500],[-27,35],[-10,8],[-27,-1]],[[2300,2542],[44,-43],[4,1]],[[2348,2500],[18,2]],[[2366,2502],[11,1],[7,5]],[[890,3523],[-25,64],[25,37]],[[1794,671],[13,12]],[[791,3227],[49,-7]],[[840,3219],[-40,1]],[[998,3387],[4,-21]],[[1003,3366],[-1,1]],[[2392,2582],[4,-14]],[[2396,2568],[-4,14]],[[2396,2604],[16,57]],[[2411,2660],[-15,-53]],[[2482,2518],[1,19]],[[199,2818],[25,-16]],[[277,2804],[58,-5],[29,-28]],[[1766,780],[-13,4]],[[821,3356],[-10,-21]],[[2608,3259],[1,2]],[[1054,3622],[6,150]],[[2486,3425],[-22,38],[-33,3]],[[1811,2097],[1,1]],[[1918,2127],[-5,2]],[[3933,1104],[-13,-18]],[[2089,2288],[-60,-8],[-48,-41],[33,-47],[40,12],[-16,38],[36,6],[11,-31],[5,71]],[[1000,3445],[1,1]],[[418,1815],[11,16]],[[3295,2453],[4,-5]],[[3599,3604],[11,0]],[[276,1611],[-3,-11]],[[864,3438],[-10,-8]],[[777,3270],[-4,2]],[[791,3301],[-14,-30]],[[2058,1289],[-2,3]],[[2397,2560],[1,1]],[[2399,2521],[2,4]],[[2405,2681],[-1,2]],[[2405,2681],[4,-7]],[[2412,2662],[-7,19]],[[2725,3309],[109,29],[71,59]],[[2917,3407],[1,1]],[[2937,3426],[3,1]],[[3077,3474],[225,152],[59,11],[75,-38],[112,36],[51,-31]],[[3687,3585],[0,-1]],[[3879,3594],[76,-46]],[[3933,3591],[-1,0]],[[4004,1483],[1,0]],[[2533,3795],[-6,13]],[[2733,3826],[8,-19]],[[2748,3899],[0,-5]],[[2776,3899],[2,1]],[[1489,1467],[-11,-24]],[[1521,948],[7,10]],[[1737,784],[-3,4]],[[1753,784],[-15,-1]],[[1766,780],[27,-2]],[[1814,1213],[-10,20]],[[1814,841],[-8,-15]],[[1876,915],[7,12]],[[1738,784],[-1,0],[1,-1],[0,1]],[[0,1611],[44,-55],[102,-23],[102,48]],[[299,1628],[93,61]],[[395,1688],[174,-84]],[[603,1601],[22,5]],[[1051,1848],[2,1]],[[1059,1853],[4,4]],[[1313,2263],[29,106],[72,9],[166,89]],[[1581,2468],[98,61]],[[1754,4096],[-78,-178],[35,-90],[1,-94]],[[1729,3695],[43,-68],[-31,-96]],[[1820,3396],[-12,-96],[43,-97],[5,-167],[-77,-316],[4,-94]],[[51,1059],[-4,18]],[[78,1229],[-14,-17],[30,-35]],[[86,1257],[-3,-9]],[[253,1564],[-8,-1]],[[1689,3904],[78,134],[76,58]],[[1876,915],[-3,3]],[[1725,781],[-44,14],[-20,69],[-140,84]],[[2580,3705],[10,37],[-23,24],[-5,-21],[-29,50]],[[1616,2585],[1,-7]],[[4085,1545],[11,-16]],[[4089,1541],[2,2]],[[465,1876],[-33,-17]],[[569,2009],[-104,-133]],[[577,2009],[-8,0]],[[628,2024],[-50,-15]],[[664,2084],[-24,-6],[-11,-54]],[[728,2126],[-64,-42]],[[827,2172],[-37,5],[-61,-51]],[[0,2054],[70,20],[9,32]],[[1007,3482],[0,-1]],[[1010,3486],[4,15]],[[3305,2553],[13,-29]],[[2391,2513],[57,25]],[[2620,2545],[171,-11]],[[3422,2365],[1,-1]],[[3423,2364],[-1,1]],[[3423,2364],[38,-54],[77,-38],[79,-131],[76,-46]],[[3702,2094],[74,-78],[237,-389]],[[4066,1564],[14,-15]],[[3651,2018],[-6,1]],[[2231,274],[-49,2]],[[3969,1504],[2,-1]],[[3422,2366],[-1,0],[0,-1],[1,0],[0,1]],[[4096,798],[-261,177]],[[208,2787],[5,15]],[[3759,42],[34,1]],[[3897,40],[20,19]],[[4046,109],[50,-10]],[[4055,1512]],[[3615,2566],[1,0],[-1,1],[0,-1]],[[1000,3446],[6,25]],[[1002,3430],[-2,16]],[[1001,3446],[-1,0]],[[1684,3838],[51,-7]],[[4096,2474],[-60,-122],[60,-162]],[[392,1689],[3,-1]],[[3348,2365],[-30,-6]],[[2294,1535],[11,86]],[[2470,1859],[5,3]],[[2485,1974],[-7,-17]],[[3130,2264],[-29,11],[-20,-22]],[[3141,2360],[-27,-62]],[[3134,2389],[19,0]],[[3175,2390],[18,11]],[[3236,2427],[-1,-7]],[[3237,2431]],[[2498,3327],[2,6],[-2,17]],[[2498,3349],[0,-18]],[[3372,2606],[-38,-50]],[[3550,2562],[-34,34],[-4,72],[-43,-53],[-23,13],[-37,-22]],[[2392,2582]],[[1499,2235],[6,8]],[[3645,2019],[-56,-41],[-10,-44]],[[3653,2019],[-2,-1]],[[1521,2280],[-24,14]],[[86,1262],[0,-5]],[[245,1563],[-159,-300]],[[1764,2624],[3,0]],[[1631,1500],[58,-23]],[[1910,3256],[47,-74],[26,19]],[[639,2077],[-11,39]],[[1594,2723],[11,-5]],[[1723,2589],[2,-1]],[[893,755],[47,-60]],[[1490,2235],[9,0]],[[2480,2738],[1,1]],[[2608,3259],[23,3]],[[2727,3292],[-25,-6]],[[1820,3396],[51,-23]],[[1871,3373],[6,-2]],[[473,2479],[1,0]],[[3796,1927],[32,-122],[-77,-129],[4,-59]],[[2555,3998],[2,3]],[[2498,3332],[-1,-8]],[[1732,631],[62,40]],[[2018,725],[46,8]],[[2132,782],[41,-9],[94,149],[77,26]],[[2352,947],[82,-3],[85,32],[178,-128],[138,45],[53,59],[73,-27],[99,44]],[[3179,1023],[85,0],[49,40],[35,58],[-16,69],[223,129],[70,99],[3,59],[30,3],[80,93],[67,9]],[[1639,591],[85,-42]],[[4067,2706],[29,-5]],[[2475,1862],[3,95]],[[1007,3481],[3,5]],[[1542,1761],[6,10]],[[1692,1461],[-3,16]],[[2653,3302],[-4,-1]],[[1354,1175],[60,-65],[82,14],[31,-38],[-26,-51],[27,-77]],[[1489,1467],[5,36]],[[1804,1233],[0,4]],[[1883,927],[13,34]],[[1687,3820],[-2,15]],[[1793,778],[3,7]],[[3606,381],[-2,-2]],[[3237,2431],[-1,-4]],[[3239,2431],[42,-15]],[[3286,2424],[13,24]],[[3318,2524],[-7,-38]],[[741,3209],[-2,6]],[[777,3271],[0,-1]],[[456,2463],[17,16]],[[3798,1586],[-43,31]],[[3566,2546],[49,20]],[[3616,2566],[107,26],[84,-51],[142,41],[58,98],[60,26]],[[1002,3366],[-37,-88],[-68,-43],[-11,-3]],[[886,3232],[-22,-4]],[[864,3228],[-4,0],[-15,-8],[-1,0]],[[844,3220],[-4,-1]],[[840,3220],[4,0]],[[844,3220],[1,0],[15,7],[4,1]],[[864,3228],[5,2],[17,2]],[[886,3232],[11,2],[69,44],[35,52],[7,26],[-5,10]],[[1679,2628],[7,-6]],[[2584,3706],[-4,-1]],[[92,1165],[2,12]],[[301,1714],[-4,-8]],[[400,1790],[18,25]],[[429,1831],[3,28]],[[3970,3586],[126,-36]],[[2296,1476],[-2,59]],[[2452,1775],[26,23],[-8,61]],[[3114,2298],[16,-34]],[[3153,2389],[19,-3]],[[2874,3999],[-17,73]],[[1680,2628],[-46,55]],[[1638,2678],[41,-50]],[[2990,2292],[11,-17]],[[1693,2616],[-13,12]],[[1686,2622],[7,-6]],[[1693,2616],[32,-28]],[[0,4096],[4096,0],[0,-4096],[-4096,0],[0,4096]],[[1766,3905],[103,25],[-22,3],[17,60],[-40,39],[28,63],[763,1],[-47,-69],[-34,2],[26,-9],[-5,-22],[29,15],[-17,-178],[-130,-69],[-13,-33],[-32,18],[-13,-19],[-88,1],[-1,-52],[-46,-61],[-169,128],[46,52],[-135,34],[-70,-28],[-13,-35],[-9,24],[-64,16],[-23,87],[-41,7]],[[2805,3769],[28,63],[-14,47],[47,24],[10,116],[-22,51],[42,26],[118,-10],[10,-51],[38,-14],[41,33],[21,-11],[-7,36],[30,17],[949,0],[-1,-112],[-12,23],[-9,-21],[-38,9],[-33,-46],[-41,22],[-48,-26],[-26,26],[-42,-37],[-88,43],[-140,-93],[-23,17],[15,50],[-99,0],[22,42],[-34,-20],[-27,82],[-148,12],[12,-44],[-28,4],[-20,-79],[-31,-19],[13,-30],[-28,1],[-6,-32],[-32,-6],[-32,38],[-44,-37],[-8,-59],[-28,6],[-27,-29],[-21,19],[-44,-26],[-93,34],[-31,-38],[-53,17],[22,-31],[-37,-32],[-3,45]],[[3234,2430],[55,34],[16,89],[31,2],[-9,-36],[48,-14],[-61,-43],[2,-47],[-37,-17],[12,-28],[-57,60]],[[1779,0],[2,4],[1,-4],[-3,0]],[[3086,2909],[16,44],[169,28],[-38,35],[25,-4],[-10,37],[-49,27],[75,24],[-104,43],[122,-24],[-26,50],[38,8],[63,-31],[-10,17],[51,21],[9,30],[-23,14],[30,44],[22,-33],[41,29],[75,-35],[-45,-143],[128,58],[20,-18],[-27,-4],[3,-22],[57,30],[101,-90],[65,18],[106,-26],[24,-30],[-8,-47],[-45,-15],[38,-67],[-103,-2],[-109,-42],[19,-91],[-127,-70],[-22,-38],[0,35],[-54,66],[-41,-82],[-20,53],[-5,-30],[-54,22],[-58,-56],[-68,-3],[-21,21],[-31,-32],[-48,5],[-13,83],[-98,-13],[51,40],[8,74],[-20,33],[-20,-23],[-21,10],[4,78],[-42,-6]],[[0,1823],[0,648],[27,12],[-24,21],[35,-13],[28,26],[13,-40],[20,5],[-25,-21],[68,-101],[-35,88],[12,49],[33,-42],[109,-4],[21,75],[-112,26],[-28,17],[14,34],[-34,-20],[39,61],[-36,40],[22,24],[29,4],[55,-49],[12,41],[103,-9],[31,19],[-4,-89],[50,3],[24,-26],[6,77],[48,7],[-28,15],[-10,32],[20,-27],[13,37],[20,-34],[-10,32],[27,27],[55,-66],[-34,-13],[4,-31],[68,-13],[-32,-32],[32,-44],[41,-10],[-25,111],[79,-28],[-43,33],[49,-18],[4,17],[-81,57],[-5,62],[53,19],[50,-15],[-19,72],[35,-9],[-15,36],[69,3],[-3,-28],[18,16],[29,-30],[-35,68],[26,-3],[25,60],[122,25],[114,-81],[-19,-59],[48,-82],[-26,-51],[24,-19],[3,-244],[-33,-9],[-3,36],[-60,47],[-45,-26],[-89,24],[-26,-45],[9,-154],[-38,22],[-14,-90],[-24,32],[-29,-22],[-65,16],[-25,57],[17,46],[-75,26],[-23,46],[-72,-30],[-90,44],[-130,4],[-28,-33],[26,-42],[-33,-74],[-37,-7],[-30,43],[-29,-5],[-24,-45],[7,-131],[-70,14],[44,-164],[-42,79],[-34,-32],[26,-38],[-8,-40],[34,-1],[-18,-43],[-44,73],[-22,-6],[20,-40],[-27,-41],[20,-67],[-36,13],[14,-41],[-25,-20],[21,-55],[-20,-4],[-14,35]],[[2805,3769],[28,63],[-14,47],[47,24],[10,116],[-22,51],[42,26],[118,-10],[10,-51],[38,-14],[41,33],[21,-11],[-7,36],[30,17],[949,0],[-1,-112],[-12,23],[-9,-21],[-38,9],[-33,-46],[-41,22],[-48,-26],[-26,26],[-42,-37],[-88,43],[-140,-93],[-23,17],[15,50],[-99,0],[22,42],[-34,-20],[-27,82],[-148,12],[12,-44],[-28,4],[-20,-79],[-31,-19],[13,-30],[-28,1],[-6,-32],[-32,-6],[-32,38],[-44,-37],[-8,-59],[-28,6],[-27,-29],[-21,19],[-44,-26],[-93,34],[-31,-38],[-53,17],[22,-31],[-37,-32],[-3,45]],[[2587,1814],[125,-3],[18,85],[69,85],[104,20],[157,-55],[48,-106],[17,-127],[68,-61],[-14,-55],[-54,-20],[-17,-68],[-35,-33],[9,-113],[48,-59],[-100,-17],[-146,71],[-21,155],[-40,73],[-227,176],[-9,52]],[[4084,1461],[-102,52],[13,106],[57,26],[32,-184]],[[299,1705],[70,225],[-6,117],[66,-40],[0,-133],[-49,-132],[-81,-37]],[[3144,939],[-95,34],[0,98],[95,34],[35,-34],[0,-98],[-35,-34]],[[1010,826],[-46,15],[-180,181],[0,49],[-66,45],[1,52],[204,95],[87,3],[37,-220],[-37,-220]],[[762,1267],[-60,35],[-43,90],[-4,118],[162,-195],[-55,-48]],[[2544,2482],[-175,102],[26,59],[125,131],[48,-33],[37,-98],[24,-157],[-85,-4]],[[1755,2535],[-112,50],[-38,54],[-12,91],[74,27],[64,-45],[37,-85],[-13,-92]],[[331,2730],[-98,-2],[-33,24],[1,76],[130,49],[0,-147]],[[912,3628],[34,-68],[125,-13],[37,-36],[-77,-144],[-53,-2],[-32,48],[-114,46],[-39,55],[-9,95],[44,7],[21,42],[38,2],[25,-32]],[[2576,3402],[85,-87],[-144,-258],[-83,-34],[-38,203],[19,82],[52,57],[64,0],[1,49],[44,-12]],[[0,3238],[0,153],[7,23],[61,-60],[-18,-57],[-50,-59]],[[813,3299],[36,-32],[-20,-105],[-43,-69],[-131,-70],[-20,71],[34,216],[144,-11]],[[1140,338],[-65,1],[0,98],[21,65],[43,33],[66,-1],[-21,-164],[-44,-32]],[[2888,436],[20,-55],[66,55],[43,1],[-31,-109],[-57,-17],[-54,58],[-20,116],[32,98],[83,59],[14,38],[31,-68],[-127,-176]],[[789,4096],[-72,-8],[-51,-87],[-45,-24],[-53,16],[-21,-21],[-60,3],[-124,121],[426,0]],[[789,4096],[-72,-8],[-51,-87],[-45,-24],[-53,16],[-21,-21],[-60,3],[-124,121],[426,0]],[[2845,346],[57,15],[62,60],[49,-21],[-33,-100],[-135,46]],[[881,969],[24,5],[-21,19],[51,64],[73,-41],[-2,-43],[-52,-45],[-38,43],[-8,-25],[-27,23]],[[3903,1521],[50,-11],[34,57],[17,-19],[17,19],[24,-37],[15,37],[36,-96],[-28,-15],[-6,-42],[-159,107]],[[176,2814],[41,43],[28,-24],[-27,-39],[58,7],[21,51],[1,-19],[42,7],[-12,-27],[42,-50],[-24,-14],[-33,32],[-42,-25],[-89,3],[19,11],[-23,16],[28,11],[-30,17]],[[767,1448],[129,181],[55,50],[16,-20],[47,71],[39,-11],[7,83],[59,-3],[8,88],[21,18],[27,-18],[20,78],[29,12],[-24,96],[65,46],[46,-1],[23,189],[83,20],[-54,39],[134,-6],[50,-30],[-32,50],[10,34],[37,2],[18,53],[13,-29],[119,-14],[29,43],[-2,63],[38,1],[-4,61],[64,-3],[33,-33],[47,40],[100,-2],[91,-87],[-2,-31],[21,24],[108,-7],[-41,-23],[12,-55],[-22,-14],[39,-40],[-37,6],[6,-33],[30,-12],[-81,-47],[55,-54],[9,-52],[-33,-18],[86,-14],[-17,-64],[63,-14],[41,-41],[-109,-26],[56,-15],[-34,-14],[47,-73],[-74,39],[45,-47],[74,-10],[-13,-127],[-59,-76],[-74,48],[-24,-41],[-30,6],[26,-21],[-58,-22],[32,7],[124,-137],[-26,-58],[-82,-43],[-11,-58],[-68,57],[-5,-74],[-7,20],[-5,-19],[-23,10],[-7,-32],[-45,90],[-65,12],[-6,-38],[-31,-11],[16,-33],[-38,15],[8,-36],[-5,16],[-51,-34],[-11,16],[37,-71],[-36,40],[-7,-42],[-36,-25],[-128,-34],[-2,25],[-35,-5],[-93,64],[-66,-85],[-31,40],[21,3],[4,41],[32,-3],[5,71],[-28,26],[27,56],[105,-17],[-42,78],[-53,36],[-5,59],[-57,-33],[-50,19],[17,85],[47,45],[10,50],[-27,14],[-152,-139],[-45,-7],[40,-25],[-60,-10],[34,-29],[-26,2],[-25,-83],[-49,-6],[-6,-94],[-229,50],[-69,-55],[5,36],[-37,6],[-1,56],[-34,-2]],[[4088,4096],[-28,-19],[-44,19],[72,0]]]}