{"objects":{"water":{"type":"GeometryCollection","geometries":[]},"buildings":{"type":"GeometryCollection","geometries":[]},"places":{"type":"GeometryCollection","geometries":[{"type":"Point","properties":{"name:sl":"Subotica","name:lt":"Subotica","min_zoom":8.0,"name:uk":"\u0421\u0443\u0431\u043e\u0442\u0438\u0446\u044f","name:hu":"Szabadka","name:hr":"Subotica","id":1547830258,"population":148000,"name:el":"\u03a3\u03bf\u03c5\u03bc\u03c0\u03cc\u03c4\u03b9\u03c4\u03c3\u03b1","kind":"locality","name:en":"Subotica","old_name:de":"Maria-Theresianopel","name":"\u0421\u0443\u0431\u043e\u0442\u0438\u0446\u0430","kind_detail":"city","name:da":"Subotica","name:de":"Subotica","source":"openstreetmap.org"},"coordinates":[4028,113]},{"type":"Point","properties":{"kind":"locality","name":"Duna\u00fajv\u00e1ros","kind_detail":"town","name:de":"Neustadt an der Donau","source":"openstreetmap.org","min_zoom":8.0,"old_name":"Dunapentele;Szt\u00e1linv\u00e1ros","name:ru":"\u0414\u0443\u043d\u0430\u0443\u0439\u0432\u0430\u0440\u043e\u0448","id":1673787395,"population":45354},"coordinates":[1918,3786]},{"type":"Point","properties":{"kind":"locality","name":"Baja","kind_detail":"town","name:de":"Frankenstadt","source":"openstreetmap.org","min_zoom":8.0,"name:ru":"\u0411\u0430\u0439\u044f","id":287001980,"population":35411},"coordinates":[1951,446]},{"type":"Point","properties":{"kind":"locality","name":"Szeksz\u00e1rd","alt_name:de":"Sechsard","kind_detail":"city","name:de":"Sechshard","source":"openstreetmap.org","min_zoom":8.0,"name:ru":"\u0421\u0435\u043a\u0441\u0430\u0440\u0434","id":25553427,"population":32844},"coordinates":[1225,1166]},{"type":"Point","properties":{"kind":"locality","name":"Kiskunhalas","kind_detail":"town","name:de":"Hallasch","source":"openstreetmap.org","min_zoom":8.0,"name:ru":"\u041a\u0438\u0448\u043a\u0443\u043d\u0445\u0430\u043b\u0430\u0448","name:hr":"Ola\u0161","id":287004164,"population":27470},"coordinates":[3502,1502]},{"type":"Point","properties":{"kind":"locality","name":"Paks","kind_detail":"town","name:de":"Paksch","source":"openstreetmap.org","min_zoom":8.0,"name:ru":"\u041f\u0430\u043a\u0448","id":164965193,"population":19117},"coordinates":[1683,2329]},{"type":"Point","properties":{"kind":"locality","name":"Kalocsa","kind_detail":"town","name:de":"Kollotschau","source":"openstreetmap.org","min_zoom":8.0,"name:sr":"Kalo\u010da","name:ru":"\u041a\u0430\u043b\u043e\u0447\u0430","name:hr":"Kalo\u010da","id":330880946,"population":15986},"coordinates":[2043,1905]},{"type":"Point","properties":{"kind":"locality","name:sk":"Mal\u00fd Kere\u0161","name":"Kisk\u0151r\u00f6s","kind_detail":"town","name:de":"K\u00f6r\u00f6sch","source":"openstreetmap.org","min_zoom":8.0,"name:ru":"\u041a\u0438\u0448\u043a\u0451\u0440\u0451\u0448","name:hr":"Kire\u0161","id":287001052,"population":14109},"coordinates":[2920,2319]},{"type":"Point","properties":{"kind":"locality","name":"Bonyh\u00e1d","kind_detail":"town","name:de":"Bonnhard","source":"openstreetmap.org","min_zoom":8.0,"name:ru":"\u0411\u043e\u043d\u044c\u0445\u0430\u0434","id":213383214,"population":13322},"coordinates":[731,954]},{"type":"Point","properties":{"kind":"locality","name":"S\u00e1rbog\u00e1rd","kind_detail":"town","name:de":"Bochart","source":"openstreetmap.org","min_zoom":8.0,"name:sr":"\u0160arbogard","name:ru":"\u0428\u0430\u0440\u0431\u043e\u0433\u0430\u0440\u0434","id":276163832,"population":12038},"coordinates":[986,3449]},{"type":"Point","properties":{"kind":"locality","name":"Lajosmizse","kind_detail":"town","source":"openstreetmap.org","min_zoom":8.0,"name:ru":"\u041b\u0430\u0439\u043e\u0448\u043c\u0438\u0436\u0435","id":287007417,"population":11342},"coordinates":[3719,4037]},{"type":"Point","properties":{"kind":"locality","name":"Tolna","kind_detail":"town","name:de":"Tolnau","source":"openstreetmap.org","min_zoom":8.0,"name:ru":"\u0422\u043e\u043b\u044c\u043d\u0430","id":206235481,"population":11080},"coordinates":[1478,1480]},{"type":"Point","properties":{"kind":"locality","name":"J\u00e1noshalma","kind_detail":"town","source":"openstreetmap.org","min_zoom":8.0,"name:ru":"\u042f\u043d\u043e\u0448\u0445\u0430\u043b\u044c\u043c\u0430","name:hr":"Jankovac","id":287003778,"population":8530},"coordinates":[3036,949]},{"type":"Point","properties":{"kind":"locality","name":"Dunaf\u00f6ldv\u00e1r","kind_detail":"town","source":"openstreetmap.org","min_zoom":8.0,"name:ru":"\u0414\u0443\u043d\u0430\u0444\u0451\u043b\u044c\u0434\u0432\u0430\u0440","id":274958127,"population":8501},"coordinates":[1867,3123]},{"type":"Point","properties":{"kind":"locality","name":"Kecel","kind_detail":"town","source":"openstreetmap.org","min_zoom":8.0,"name:ru":"\u041a\u0435\u0446\u0435\u043b\u044c","name:hr":"Keceja","id":3252267072,"population":8445},"coordinates":[2831,1908]},{"type":"Point","properties":{"kind":"locality","name":"Kunszentmikl\u00f3s","kind_detail":"town","source":"openstreetmap.org","min_zoom":8.0,"name:ru":"\u041a\u0443\u043d\u0441\u0435\u043d\u0442\u043c\u0438\u043a\u043b\u043e\u0448","id":274956814,"population":8309},"coordinates":[2453,4035]},{"type":"Point","properties":{"kind":"locality","name":"Tam\u00e1si","kind_detail":"town","name:de":"Tammasching","source":"openstreetmap.org","min_zoom":8.0,"name:ru":"\u0422\u0430\u043c\u0430\u0448\u0438","id":275831245,"population":8068},"coordinates":[11,2356]},{"type":"Point","properties":{"kind":"locality","name":"Soltvadkert","kind_detail":"town","source":"openstreetmap.org","min_zoom":8.0,"name:ru":"\u0428\u043e\u043b\u044c\u0442\u0432\u0430\u0434\u043a\u0435\u0440\u0442","name:hr":"Vakier","id":287001106,"population":7405},"coordinates":[3242,2155]},{"type":"Point","properties":{"kind":"locality","name":"B\u00e1csalm\u00e1s","kind_detail":"town","name:de":"Almasch","source":"openstreetmap.org","min_zoom":8.0,"name:ru":"\u0411\u0430\u0447\u0430\u043b\u044c\u043c\u0430\u0448","name:hr":"Aljma\u0161","id":287003234,"population":6496},"coordinates":[3060,230]},{"type":"Point","properties":{"kind":"locality","name":"Kerekegyh\u00e1za","kind_detail":"town","source":"openstreetmap.org","min_zoom":8.0,"name:ru":"\u041a\u0435\u0440\u0435\u043a\u0435\u0434\u044c\u0445\u0430\u0437\u0430","id":286999754,"population":6470},"coordinates":[3499,3654]},{"type":"Point","properties":{"kind":"locality","name":"Solt","kind_detail":"town","name:de":"Scholt","source":"openstreetmap.org","min_zoom":8.0,"name:ru":"\u0428\u043e\u043b\u044c\u0442","name:hr":"\u0160olta","id":76675056,"population":6312},"coordinates":[2107,3088]},{"type":"Point","properties":{"kind":"locality","name":"B\u00e1tasz\u00e9k","kind_detail":"town","name:de":"Badeseck","source":"openstreetmap.org","min_zoom":8.0,"name:ru":"\u0411\u0430\u0442\u0430\u0441\u0435\u043a","name:hr":"Bacik","id":76705495,"population":6118},"coordinates":[1290,509]},{"type":"Point","properties":{"kind":"locality","name":"Szabadsz\u00e1ll\u00e1s","kind_detail":"town","source":"openstreetmap.org","min_zoom":8.0,"name:ru":"\u0421\u0430\u0431\u0430\u0434\u0441\u0430\u043b\u043b\u0430\u0448","id":287000079,"population":6116},"coordinates":[2742,3397]},{"type":"Point","properties":{"kind":"locality","name":"Izs\u00e1k","kind_detail":"town","source":"openstreetmap.org","min_zoom":8.0,"name:ru":"\u0418\u0436\u0430\u043a","id":287000140,"population":5617},"coordinates":[3142,3081]},{"type":"Point","properties":{"kind":"locality","name":"M\u00e9lyk\u00fat","kind_detail":"town","source":"openstreetmap.org","min_zoom":8.0,"name:ru":"\u041c\u0435\u0439\u043a\u0443\u0442","name:hr":"Miljkut","id":290611295,"population":4841},"coordinates":[3198,601]},{"type":"Point","properties":{"kind":"locality","name":"R\u00e1calm\u00e1s","kind_detail":"town","source":"openstreetmap.org","min_zoom":8.0,"name:ru":"\u0420\u0430\u0446\u0430\u043b\u044c\u043c\u0430\u0448","id":267513814,"population":4561},"coordinates":[1917,4036]},{"type":"Point","properties":{"kind":"locality","name":"Aba","kind_detail":"town","source":"openstreetmap.org","min_zoom":8.0,"name:ru":"\u0410\u0431\u0430","id":276162534,"population":4424},"coordinates":[700,4049]},{"type":"Point","properties":{"kind":"locality","name":"Tompa","kind_detail":"town","source":"openstreetmap.org","min_zoom":8.0,"name:ru":"\u0422\u043e\u043c\u043f\u0430","id":287009799,"population":4413},"coordinates":[3645,552]},{"type":"Point","properties":{"kind":"locality","name":"P\u00e9csv\u00e1rad","kind_detail":"town","name:de":"F\u00fcnfkirchenwardein","source":"openstreetmap.org","min_zoom":8.0,"name:ru":"\u041f\u0435\u0447\u0432\u0430\u0440\u0430\u0434","name:hr":"Pe\u010dvar","id":286998160,"population":3994},"coordinates":[406,371]},{"type":"Point","properties":{"kind":"locality","name":"Simontornya","kind_detail":"town","source":"openstreetmap.org","min_zoom":8.0,"name:ru":"\u0428\u0438\u043c\u043e\u043d\u0442\u043e\u0440\u043d\u044c\u044f","id":163748213,"population":3986},"coordinates":[764,2896]},{"type":"Point","properties":{"kind":"locality","name":"Dunavecse","kind_detail":"town","source":"openstreetmap.org","min_zoom":8.0,"name:ru":"\u0414\u0443\u043d\u0430\u0432\u0435\u0447\u0435","name:hr":"Ve\u010dica","id":274355674,"population":3824},"coordinates":[2011,3572]},{"type":"Point","properties":{"kind":"locality","name":"Haj\u00f3s","kind_detail":"town","name:de":"Hajosch","source":"openstreetmap.org","min_zoom":8.0,"name:ru":"\u0425\u0430\u0439\u043e\u0448","name:hr":"Ajo\u0161","id":287001534,"population":3013},"coordinates":[2435,1377]},{"type":"Point","properties":{"kind":"locality","name":"Nagym\u00e1nyok","kind_detail":"town","name:de":"Gro\u00dfmanok","source":"openstreetmap.org","min_zoom":8.0,"name:ru":"\u041d\u0430\u0434\u044c\u043c\u0430\u044c\u043e\u043a","id":312774526,"population":2233},"coordinates":[518,886]},{"type":"Point","properties":{"kind":"locality","name":"Gy\u00f6nk","kind_detail":"town","name:de":"Jenk","source":"openstreetmap.org","min_zoom":8.0,"name:ru":"\u0414\u044c\u0435\u043d\u043a","id":173247226,"population":1999},"coordinates":[574,2042]}]},"transit":{"type":"GeometryCollection","geometries":[{"type":"LineString","properties":{"kind":"train","name":"S42: Duna\u00fajv\u00e1ros => Budapest-D\u00e9li","sort_rank":275,"name:de":"S42: Neustadt an der Donau => Budapest-S\u00fcd","source":"openstreetmap.org","min_zoom":6.0,"operator":"M\u00c1V-Start","ref":"S42","id":-5189510,"osm_relation":true},"arcs":[9]},{"type":"LineString","properties":{"kind":"train","name":"S34: Budapest-D\u00e9li => Keszthely","service":"commuter","sort_rank":275,"name:de":"S34: Budapest-S\u00fcd => Kesthell","source":"openstreetmap.org","min_zoom":6.0,"operator":"M\u00c1V-Start","ref":"S34","osm_relation":true},"arcs":[10]},{"type":"LineString","properties":{"kind":"train","name":"S450: S\u00e1rbog\u00e1rd => Sz\u00e9kesfeh\u00e9rv\u00e1r","sort_rank":275,"source":"openstreetmap.org","min_zoom":6.0,"operator":"M\u00c1V-Start","ref":"S450","id":-5189521,"osm_relation":true},"arcs":[11]},{"type":"LineString","properties":{"kind":"train","name":"S431: Duna\u00fajv\u00e1ros => Simontornya","sort_rank":275,"source":"openstreetmap.org","min_zoom":6.0,"operator":"M\u00c1V-Start","ref":"S431","id":-5189512,"osm_relation":true},"arcs":[12]},{"type":"LineString","properties":{"kind":"train","name":"S35: Budapest-D\u00e9li => Nagykanizsa","service":"commuter","sort_rank":275,"name:de":"S35: Budapest-S\u00fcd => Gro\u00dfkirchen","source":"openstreetmap.org","min_zoom":6.0,"operator":"M\u00c1V-Start","ref":"S35","osm_relation":true},"arcs":[13]},{"type":"LineString","properties":{"kind":"train","name":"S25: Kunszentmikl\u00f3s-Tass => Dunaharaszti als\u00f3 => Dunaharaszti => Soroks\u00e1r => Ferencv\u00e1ros => K\u0151b\u00e1nya-Kispest","service":"commuter","sort_rank":275,"source":"openstreetmap.org","min_zoom":6.0,"operator":"M\u00c1V-Start","ref":"S25","id":-5189489,"osm_relation":true},"arcs":[14]},{"type":"LineString","properties":{"kind":"train","name":"S21: Lajosmizse => T\u00e1borfalva => \u00d3csa => K\u0151b\u00e1nya-Kispest => Budapest-Nyugati","service":"commuter","sort_rank":275,"source":"openstreetmap.org","min_zoom":6.0,"operator":"M\u00c1V-Start","ref":"S21","id":-4517110,"osm_relation":true},"arcs":[15]},{"type":"LineString","properties":{"kind":"train","name":"S432: Duna\u00fajv\u00e1ros => Cece","sort_rank":275,"source":"openstreetmap.org","min_zoom":6.0,"operator":"M\u00c1V-Start","ref":"S432","id":-5189515,"osm_relation":true},"arcs":[16]},{"type":"LineString","properties":{"kind":"train","name":"S250: Kelebia => Kiskunhalas","service":"commuter","sort_rank":275,"source":"openstreetmap.org","min_zoom":6.0,"operator":"M\u00c1V-Start","ref":"S250","id":-5189483,"osm_relation":true},"arcs":[17]},{"type":"LineString","properties":{"kind":"train","name":"S432: Cece => Duna\u00fajv\u00e1ros","sort_rank":275,"source":"openstreetmap.org","min_zoom":6.0,"operator":"M\u00c1V-Start","ref":"S432","id":-5189514,"osm_relation":true},"arcs":[18]},{"type":"LineString","properties":{"kind":"train","name":"S210: Kecskem\u00e9t => Lajosmizse","sort_rank":275,"source":"openstreetmap.org","min_zoom":6.0,"operator":"M\u00c1V-Start","ref":"S210","id":-4522096,"osm_relation":true},"arcs":[19]},{"type":"LineString","properties":{"kind":"train","name":"S42: Budapest-D\u00e9li => Adony => Kulcs => R\u00e1calm\u00e1s => Duna\u00fajv\u00e1ros k\u00fcls\u0151 => Duna\u00fajv\u00e1ros","service":"commuter","sort_rank":275,"source":"openstreetmap.org","min_zoom":6.0,"operator":"M\u00c1V-Start","ref":"S42","id":-5189508,"osm_relation":true},"arcs":[20]},{"type":"LineString","properties":{"kind":"train","name":"S30: Budapest-D\u00e9li => Martonv\u00e1s\u00e1r => Sz\u00e9kesfeh\u00e9rv\u00e1r => Szabadbatty\u00e1n => Kiscs\u00e9ripuszta => Polg\u00e1rdi-Tekerespuszta => Fony\u00f3d","service":"commuter","sort_rank":275,"source":"openstreetmap.org","min_zoom":6.0,"operator":"M\u00c1V-Start","ref":"S30","osm_relation":true},"arcs":[21]},{"type":"LineString","properties":{"kind":"train","name":"S210: Lajosmizse => Kecskem\u00e9t","sort_rank":275,"source":"openstreetmap.org","min_zoom":6.0,"operator":"M\u00c1V-Start","ref":"S210","id":-4522097,"osm_relation":true},"arcs":[22]},{"type":"LineString","properties":{"kind":"train","name":"S25: K\u0151b\u00e1nya-Kispest => Kunszentmikl\u00f3s-Tass","service":"commuter","sort_rank":275,"source":"openstreetmap.org","min_zoom":6.0,"operator":"M\u00c1V-Start","ref":"S25","id":-5189491,"osm_relation":true},"arcs":[23]},{"type":"LineString","properties":{"kind":"train","name":"S250: Kiskunhalas => Kunszentmikl\u00f3s-Tass","service":"commuter","sort_rank":275,"source":"openstreetmap.org","min_zoom":6.0,"operator":"M\u00c1V-Start","ref":"S250","osm_relation":true},"arcs":[24]},{"type":"LineString","properties":{"kind":"train","name":"S34: Keszthely => Budapest-D\u00e9li","service":"commuter","sort_rank":275,"name:de":"S34: Kesthell => Budapest-S\u00fcd","source":"openstreetmap.org","min_zoom":6.0,"operator":"M\u00c1V-Start","ref":"S34","osm_relation":true},"arcs":[25]},{"type":"LineString","properties":{"kind":"train","name":"S25: Kiskunhalas => Kunszentmikl\u00f3s-Tass => Dunaharaszti als\u00f3 => Dunaharaszti => Soroks\u00e1r => Ferencv\u00e1ros => K\u0151b\u00e1nya-Kispest","service":"commuter","sort_rank":275,"source":"openstreetmap.org","min_zoom":6.0,"operator":"M\u00c1V-Start","ref":"S25","osm_relation":true},"arcs":[26]},{"type":"MultiLineString","properties":{"source":"openstreetmap.org","kind":"train","sort_rank":275,"ref":"310","min_zoom":6.0,"osm_relation":true},"arcs":[[27],[28],[29],[30],[31],[32],[33],[34],[35],[36],[37],[38],[39],[40],[41],[42],[43],[44],[45],[46],[47],[48],[49],[50],[51],[52],[53],[54],[55],[56],[57],[58],[59],[60],[61],[62],[63],[64],[65],[66],[67],[68],[69],[70],[71],[72],[73],[74],[75],[76],[77],[78],[79],[80],[81],[82],[83],[84],[85],[86],[87],[88],[89],[90],[91],[92],[93],[94],[95],[96],[97],[98],[99],[100],[101],[102],[103],[104],[105],[106],[107],[108],[109],[110],[111],[112],[113],[114],[115],[116],[117],[118],[119],[120],[121],[122],[123],[124],[125],[126],[127],[128],[129],[130],[131],[132],[133],[134],[135],[136],[137],[138],[139],[140],[141],[142],[143],[144],[145],[146],[147],[148],[149],[150],[151],[152],[153],[154],[155],[156],[157],[158],[159],[160],[161],[162],[163],[164],[165],[166],[167],[168],[169],[170],[171],[172],[173],[174],[175],[176],[177],[178],[179],[180],[181],[182],[183],[184],[185],[186],[187],[188],[189],[190],[191],[192],[193],[194],[195],[196],[197],[198],[199],[200],[201],[202],[203],[204],[205],[206],[207],[208],[209],[210],[211],[212],[213],[214],[215],[216],[217],[218],[219],[220],[221],[222],[223],[224],[225],[226],[227],[228],[229],[230],[231],[232],[233],[234],[235],[236],[237],[238],[239],[240],[241],[242],[243],[244],[245],[246],[247],[248],[249],[250],[251],[252],[253],[254],[255],[256],[257],[258],[259],[260],[261],[262],[263],[264],[265],[266],[267],[268],[269],[270],[271],[272],[273],[274],[275]]},{"type":"LineString","properties":{"kind":"train","name":"155:Kiskunhalas\u2013Kiskunf\u00e9legyh\u00e1za","sort_rank":275,"source":"openstreetmap.org","min_zoom":6.0,"operator":"M\u00c1V","ref":"155","id":-240969,"osm_relation":true},"arcs":[276]},{"type":"LineString","properties":{"kind":"train","name":"S21: \u00d3csa => Lajosmizse","service":"commuter","sort_rank":275,"source":"openstreetmap.org","min_zoom":6.0,"operator":"M\u00c1V-Start","ref":"S21","id":-5189473,"osm_relation":true},"arcs":[277]},{"type":"LineString","properties":{"kind":"train","name":"S25: Kelebia => Kiskunhalas => Kunszentmikl\u00f3s-Tass => Ferencv\u00e1ros => Budapest-Keleti","service":"commuter","sort_rank":275,"source":"openstreetmap.org","min_zoom":6.0,"operator":"M\u00c1V-Start","ref":"S25","osm_relation":true},"arcs":[278]},{"type":"LineString","properties":{"kind":"train","name:en":"Belgrade - Subotica","name":"\u0411\u0435\u043e\u0433\u0440\u0430\u0434 - \u0421\u0443\u0431\u043e\u0442\u0438\u0446\u0430","sort_rank":275,"name:de":"Belgrad - Subotica","source":"openstreetmap.org","min_zoom":6.0,"ref":"2400;2402;2404","osm_relation":true},"arcs":[279]},{"type":"LineString","properties":{"kind":"train","name":"S450: Sz\u00e9kesfeh\u00e9rv\u00e1r => S\u00e1rbog\u00e1rd","sort_rank":275,"source":"openstreetmap.org","min_zoom":6.0,"operator":"M\u00c1V-Start","ref":"S450","id":-5189520,"osm_relation":true},"arcs":[280]},{"type":"LineString","properties":{"kind":"train","name":"S25: K\u0151b\u00e1nya-Kispest => Kunszentmikl\u00f3s-Tass => Kiskunhalas","service":"commuter","sort_rank":275,"source":"openstreetmap.org","min_zoom":6.0,"operator":"M\u00c1V-Start","ref":"S25","osm_relation":true},"arcs":[281]},{"type":"LineString","properties":{"kind":"train","name":"S431: Simontornya => Duna\u00fajv\u00e1ros","sort_rank":275,"source":"openstreetmap.org","min_zoom":6.0,"operator":"M\u00c1V-Start","ref":"S431","id":-5189513,"osm_relation":true},"arcs":[282]},{"type":"LineString","properties":{"kind":"train","name":"S42: Budapest-D\u00e9li => Duna\u00fajv\u00e1ros","service":"commuter","sort_rank":275,"name:de":"S42: Budapest-S\u00fcd => Neustadt an der Donau","source":"openstreetmap.org","min_zoom":6.0,"operator":"M\u00c1V-Start","ref":"S42","id":-5189509,"osm_relation":true},"arcs":[283]},{"type":"LineString","properties":{"kind":"train","name":"S250: Kunszentmikl\u00f3s-Tass => Kiskunhalas => Kelebia","service":"commuter","sort_rank":275,"source":"openstreetmap.org","min_zoom":6.0,"operator":"M\u00c1V-Start","ref":"S250","osm_relation":true},"arcs":[284]},{"type":"LineString","properties":{"kind":"train","name":"S35: Nagykanizsa => Budapest-D\u00e9li","service":"commuter","sort_rank":275,"name:de":"S35: Gro\u00dfkirchen => Budapest-S\u00fcd","source":"openstreetmap.org","min_zoom":6.0,"operator":"M\u00c1V-Start","ref":"S35","osm_relation":true},"arcs":[285]},{"type":"LineString","properties":{"kind":"train","name":"S42: Duna\u00fajv\u00e1ros => Duna\u00fajv\u00e1ros k\u00fcls\u0151 => R\u00e1calm\u00e1s => Kulcs => Adony => Budapest-D\u00e9li","sort_rank":275,"source":"openstreetmap.org","min_zoom":6.0,"operator":"M\u00c1V-Start","ref":"S42","id":-5189511,"osm_relation":true},"arcs":[286]},{"type":"LineString","properties":{"kind":"train","name":"S250: Kiskunhalas => Kelebia","service":"commuter","sort_rank":275,"source":"openstreetmap.org","min_zoom":6.0,"operator":"M\u00c1V-Start","ref":"S250","id":-5189484,"osm_relation":true},"arcs":[287]},{"type":"LineString","properties":{"kind":"train","name":"S40: Budapest-D\u00e9li => Sz\u00e1zhalombatta => Pusztaszabolcs => Domb\u00f3v\u00e1r","service":"commuter","sort_rank":275,"source":"openstreetmap.org","min_zoom":6.0,"operator":"M\u00c1V-Start","ref":"S40","osm_relation":true},"arcs":[288]},{"type":"LineString","properties":{"kind":"train","name":"S30: Budapest-D\u00e9li => Martonv\u00e1s\u00e1r => Sz\u00e9kesfeh\u00e9rv\u00e1r => Fony\u00f3d","service":"commuter","sort_rank":275,"name:de":"S30: Budapest-S\u00fcd => Martinsmarkt => Stuhlwei\u00dfenburg => Fonjod","source":"openstreetmap.org","min_zoom":6.0,"operator":"M\u00c1V-Start","ref":"S30","osm_relation":true},"arcs":[289]},{"type":"LineString","properties":{"kind":"train","name":"S40: Domb\u00f3v\u00e1r => Pusztaszabolcs => Sz\u00e1zhalombatta => Budapest-D\u00e9li","sort_rank":275,"source":"openstreetmap.org","min_zoom":6.0,"operator":"M\u00c1V-Start","ref":"S40","osm_relation":true},"arcs":[290]},{"type":"MultiLineString","properties":{"source":"openstreetmap.org","kind":"train","sort_rank":275,"ref":"310b","min_zoom":6.0,"osm_relation":true},"arcs":[[291],[292],[293],[294],[295],[296],[297],[298],[299],[300],[301],[302],[303],[304],[305],[306],[307],[308],[309],[310],[311],[312],[313],[314],[315],[316],[317],[318],[319],[320],[321],[322],[323],[324],[325],[326],[327],[328],[329],[330],[331],[332],[333],[334],[335],[336],[337],[338],[339],[340],[341],[342],[343],[344],[345],[346],[347],[348],[349],[350],[351],[352],[353],[354],[355],[356],[357],[358],[359],[360],[361],[362],[363],[364],[365],[366],[367],[368],[369],[370],[371],[372],[373],[374],[375],[376],[377],[378],[379],[380],[381],[382],[383],[384],[385],[386],[387],[388],[389],[390],[391],[392],[393],[394],[395],[396],[397],[398],[399],[400],[401],[402],[403],[404],[405],[406],[407],[408],[409],[410],[411],[412],[413],[414],[415],[416],[417],[418],[419],[420],[421],[422],[423],[424],[425],[426],[427],[428],[429],[430],[431],[432],[433],[434],[435],[436],[437],[438],[439],[440],[441],[442],[443],[444],[445],[446],[447],[448],[449],[450],[451],[452],[453],[454],[455],[456],[457],[458],[459],[460],[461],[462],[463],[464],[465],[466],[467],[468],[469],[470]]},{"type":"LineString","properties":{"kind":"train","name":"S21: Budapest-Nyugati => \u00d3csa => Lajosmizse","service":"commuter","sort_rank":275,"source":"openstreetmap.org","min_zoom":6.0,"operator":"M\u00c1V-Start","ref":"S21","id":-4517109,"osm_relation":true},"arcs":[471]}]},"pois":{"type":"GeometryCollection","geometries":[{"type":"Point","properties":{"source":"openstreetmap.org","kind":"prison","name":"\u00c1llampusztai Orsz\u00e1gos B\u00fcntet\u00e9s-v\u00e9grehajt\u00e1si Int\u00e9zet","area":3278840,"min_zoom":8.98,"id":455487182},"coordinates":[2317,2749]}]},"boundaries":{"type":"GeometryCollection","geometries":[{"type":"LineString","properties":{"name:right:yo":"H\u00fang\u00e1r\u00ec","name:right:yi":"\u05d0\u05d5\u05e0\u05d2\u05d0\u05e8\u05df","name:left:la":"Serbia","name:right:qu":"Unriya","name:left:li":"Servi\u00eb","name:left:vi":"Serbia","name:left:sw":"Serbia","name:left:kg":"Serbie","name:left:ka":"\u10e1\u10d4\u10e0\u10d1\u10d4\u10d7\u10d8","name:left:kl":"Serbia","name:left:ko":"\uc138\ub974\ube44\uc544","name:right:it":"Ungheria","name:right:is":"Ungverjaland","name:right:rw":"Hongiriya","name:left:kk":"\u0421\u0435\u0440\u0431\u0438\u044f","name:left:rm":"Serbia","name:left:ku":"Serbistan","name:left:kw":"Serbi","name:left:kv":"\u0421\u0435\u0440\u0431\u0438\u044f","name:left:pl":"Serbia","name:left:rw":"Seribiya","name:left:ru":"\u0421\u0435\u0440\u0431\u0438\u044f","name:right:ie":"Hungaria","name:right:id":"Hongaria","name:left:ky":"\u0421\u0435\u0440\u0431\u0438\u044f","name:right:ia":"Hungaria","name:right:bi":"Hungary","name:right:bn":"\u09b9\u09be\u0999\u09cd\u0997\u09c7\u09b0\u09bf","name:right:bo":"\u0f67\u0f74\u0f44\u0f0b\u0f42\u0fb7\u0f0b\u0f62\u0f72\u0f0d","name:left:sl":"Srbija","name:right:ba":"\u0412\u0435\u043d\u0433\u0440\u0438\u044f","name:right:bg":"\u0423\u043d\u0433\u0430\u0440\u0438\u044f","name:right:be":"\u0412\u0435\u043d\u0433\u0440\u044b\u044f","name:right:br":"Hungaria","name:right:bs":"Ma\u0111arska","name:right:nn":"Ungarn","name:right:no":"Ungern","name:right:nl":"Hongarije","name:left:lv":"Serbija","name:right:wo":"Ongiri","name:right:ne":"\u0939\u0902\u0917\u0947\u0930\u0940","name:right:na":"Ungari","name:right:ps":"\u0647\u0646\u06ab\u0631\u064a","name:right:nv":"H\u00e1ngewii","name:left:mg":"Serbia","kind_detail":"2","name:left:tr":"S\u0131rbistan","name:right:gu":"\u0ab9\u0a82\u0a97\u0ac7\u0ab0\u0ac0","name:left:ty":"Terepia","name:right:gv":"Yn Ungaar","name:right:pt":"Hungria","name:left:mi":"Serbia","name:left:tt":"\u0421\u0435\u0440\u0431\u0438\u044f","name:left:mn":"\u0421\u0435\u0440\u0431\u0438","name:left:tw":"Serbia","name:left:th":"\u0e1b\u0e23\u0e30\u0e40\u0e17\u0e28\u0e40\u0e0b\u0e2d\u0e23\u0e4c\u0e40\u0e1a\u0e35\u0e22","name:right:pa":"\u0a39\u0a70\u0a17\u0a30\u0a40","name:left:tk":"Serbi\u00fda","name:left:tl":"Serbiya","name:left:mt":"Serbja","name:right:gl":"Hungr\u00eda - Magyarorsz\u00e1g","name:left:my":"\u1006\u102c\u1038\u1018\u102e\u1038\u101a\u102c\u1038\u1014\u102d\u102f\u1004\u103a\u1004\u1036","name:right:gn":"Hungyria","name:right:pl":"W\u0119gry","name:left:te":"\u0c38\u0c46\u0c30\u0c4d\u0c2c\u0c3f\u0c2f\u0c3e","name:left:tg":"\u0421\u0435\u0440\u0431\u0438\u044f","name:left:ms":"Serbia","name:left:mr":"\u0938\u0930\u094d\u092c\u093f\u092f\u093e","name:right:tr":"Macaristan","name:left:da":"Serbien","name:left:de":"Serbien","name:right:ga":"An Ung\u00e1ir","name:left:dv":"\u0790\u07a7\u0784\u07a8\u0787\u07a7","name:right:ug":"\u06cb\u06d0\u0646\u06af\u0631\u0649\u064a\u06d5","name:left:hi":"\u0938\u0930\u094d\u092c\u093f\u092f\u093e","name:right:lb":"Ungarn","name:right:uk":"\u0423\u0433\u043e\u0440\u0449\u0438\u043d\u0430","name:left:he":"\u05e1\u05e8\u05d1\u05d9\u05d4","name:right:ln":"Ungri","name:right:li":"Hongarie\u00eb","name:right:lt":"Vengrija","name:right:ur":"\u0645\u062c\u0627\u0631\u0633\u062a\u0627\u0646","name:right:lv":"Ung\u0101rija","name:left:hy":"\u054d\u0565\u0580\u0562\u056b\u0561","name:left:ta":"\u0b9a\u0bc6\u0bb0\u0bcd\u0baa\u0bbf\u0baf\u0bbe","name:left:ht":"S\u00e8bi","name:left:hu":"Szerbia","name:left:hr":"Srbija","sort_rank":262,"name:right:gd":"An Ungair","name:right:os":"\u0412\u0435\u043d\u0433\u0440\u0438","name:right:es":"Hungr\u00eda","name:right:sr":"\u041c\u0430\u0452\u0430\u0440\u0441\u043a\u0430","name:right:eu":"Hungaria","name:right:et":"Ungari","name:left:os":"\u0421\u0435\u0440\u0431\u0438","name:left:or":"\u0b38\u0b30\u0b4d\u0b2c\u0b3f\u0b06","name:right:ee":"Hungary","name:left:vo":"S\u00e4rb\u00e4n","name:left:oc":"Serbia","name:right:eo":"Hungarujo","name:right:en":"Hungary","name:right:el":"\u039f\u03c5\u03b3\u03b3\u03b1\u03c1\u03af\u03b1","name:left:fa":"\u0635\u0631\u0628\u0633\u062a\u0627\u0646","name:left:fo":"Serbia","name:right:sk":"Ma\u010farsko","name:left:fi":"Serbia","name:left:fr":"Serbie","name:left:cs":"Srbsko","name:right:jv":"Hongaria","name:left:fy":"Servje","name:right:ja":"\u30cf\u30f3\u30ac\u30ea\u30fc","name:right:sq":"Hungaria","name:right:ss":"IHangareyi","name:left:ja":"\u30bb\u30eb\u30d3\u30a2","name:right:su":"Hungaria","name:right:st":"Hungary","name:right:sw":"Hungaria","name:right:sv":"Ungern","name:right:si":"\u0dc4\u0db1\u0dca\u0d9c\u0dda\u0dbb\u0dd2\u0dba\u0dcf\u0db1\u0dd4 \u0dc3\u0db8\u0dd4\u0dc4\u0dcf\u0dab\u0dca\u0da9\u0dd4\u0dc0","name:right:sh":"Ma\u0111arska","name:left:qu":"Sirbya","name:right:sm":"Hungary","name:right:sl":"Mad\u017earska","name:right:so":"Hungaria","name:right:sn":"Hungary","name:right:sa":"\u0939\u0902\u0917\u0930\u0940","name:left:jv":"Serbia","id":-1741311,"name:right:co":"Ungheria","name:right:ca":"Hongria","name:right:se":"U\u014bg\u00e1r","name:right:ce":"\u0412\u0435\u043d\u0433\u0440\u0438","name:right:cy":"Hwngari","name:right:zh-yue":"\u5308\u7259\u5229","name:right:cs":"Ma\u010farsko","name:right:cu":"\u046a\u0433\u0440\u0438","name:right:cv":"\u0412\u0435\u043d\u0433\u0440\u0438","name:left:ar":"\u0635\u0631\u0628\u064a\u0627","name:left:az":"Serbiya","name:left:ay":"Sirwiya","name:left:ro":"Serbia","name:left:af":"Serwi\u00eb","name:left:an":"Serbia","name:left:am":"\u1230\u122d\u1262\u12eb","name:right:ru":"\u0412\u0435\u043d\u0433\u0440\u0438\u044f","name:right:io":"Hungaria","name:right:zh_PY":"Xiongyali","name:left:zh-yue":"\u585e\u723e\u7dad\u4e9e","name:right:ro":"Ungaria","name:right:hy":"\u0540\u0578\u0582\u0576\u0563\u0561\u0580\u056b\u0561","name:left:lb":"Serbien","alt_name:left:eo":"Serbio","name:left:su":"S\u00e9rbia","name:left:st":"Serbia","name:right:hr":"Ma\u0111arska","name:left:sv":"Serbien","name:left:sq":"Serbia","name:left:ln":"Serbia","name:left:sm":"Serbia","name:right:hi":"\u0939\u0902\u0917\u0930\u0940","name:left:so":"Serbia","name:left:lt":"Serbija","name:left:sh":"Srbija","name:left:sk":"Srbsko","name:left:se":"Serbia","name:left:sa":"\u0938\u0930\u094d\u092c\u093f\u092f\u093e","name:right:he":"\u05d4\u05d5\u05e0\u05d2\u05e8\u05d9\u05d4","name:left:sc":"S\u00e8rbia","name:right:la":"Hungaria","name:right:af":"Hongarye","name:left:co":"Serbia","name:right:ab":"\u041c\u0430\u0434\u0438\u0430\u0440\u0442\u04d9\u044b\u043b\u0430","name:left:ce":"\u0421\u0435\u0440\u0431\u0438","name:right:an":"Hongr\u00eda","name:right:am":"\u1200\u1295\u130b\u122a","name:left:ca":"S\u00e8rbia","source":"openstreetmap.org","name:left:cy":"Serbia","name:right:ar":"\u0627\u0644\u0645\u062c\u0631","name:left:cu":"\u0421\u0440\u044c\u0431\u0457\ua657","name:left:cv":"\u0421\u0435\u0440\u0431\u0438","name:right:az":"Macar\u0131stan","name:right:ay":"Hunkariya","name:right:rm":"Ungaria","name":"\u0421\u0440\u0431\u0438\u0458\u0430 - Magyarorsz\u00e1g","name:left:zu":"ISerbiya","name:left:zh":"\u585e\u723e\u7dad\u4e9e","name:right:zh":"\u5308\u7259\u5229","official_name:left":"\u0420\u0435\u043f\u0443\u0431\u043b\u0438\u043a\u0430 \u0421\u0440\u0431\u0438\u0458\u0430","name:left:uz":"Serbiya","name:right:fr":"Hongrie","name:left:ur":"\u0633\u0631\u0628\u06cc\u0627","id:right":-21335,"name:left:uk":"\u0421\u0435\u0440\u0431\u0456\u044f","name:left:no":"Serbia","name:left:nl":"Servi\u00eb","alt_name:right:eo":"Hungario","name:right:fa":"\u0645\u062c\u0627\u0631\u0633\u062a\u0627\u0646","name:right:fo":"Ungarn","name:left:ne":"\u0938\u0930\u094d\u092c\u093f\u092f\u093e","name:left:ug":"S\u00e9rbiye","name:left:na":"Terbiya","name:left:ml":"\u0d38\u0d46\u0d7c\u0d2c\u0d3f\u0d2f","name:left:eo":"Serbujo","name:left:en":"Serbia","name:left:el":"\u03a3\u03b5\u03c1\u03b2\u03af\u03b1","name:left:ee":"Serbia","name:right:tt":"\u041c\u0430\u0497\u0430\u0440\u0441\u0442\u0430\u043d","name:left:es":"Serbia","name:left:ss":"ISebhiya","name:left:ie":"Serbia","name:left:eu":"Serbia","name:left:et":"Serbia","name:right:zh-min-nan":"Magyar-kok","name:right:oc":"Ongria","name:right:ko":"\ud5dd\uac00\ub9ac","name:right:uz":"Mojariston","osm_relation":true,"name:right:or":"\u0b39\u0b19\u0b4d\u0b17\u0b47\u0b30\u0b40","name:left:pt":"S\u00e9rvia","name:right:ku":"Macaristan","name:right:tk":"Wengri\u00fda","name:left:gl":"Serbia","min_zoom":8.0,"name:left:zh-min-nan":"Srbija","name:left:wo":"Seerbi","name:left:ga":"An tSeirbia","name:left:it":"Serbia","name:left:gd":"An t-S\u00e8irb","int_name:right":"Hungary","name:left:gn":"Sevia","name:left:gv":"Yn Serb","name:left":"\u0421\u0440\u0431\u0438\u0458\u0430","name:right:mk":"\u0423\u043d\u0433\u0430\u0440\u0438\u0458\u0430","name:right:mi":"Hanekeria","name:right:mn":"\u0423\u043d\u0433\u0430\u0440","name:right:ml":"\u0d39\u0d02\u0d17\u0d31\u0d3f","name:right:vo":"Macar\u00e4n","name:right:vi":"Hungary","name:right:my":"\u101f\u1014\u103a\u1002\u1031\u101b\u102e\u1014\u102d\u102f\u1004\u103a\u1004\u1036","name:right:ms":"Hungary","name:right:mr":"\u0939\u0902\u0917\u0947\u0930\u0940","name:right:fy":"Hongarije","name:right:mt":"Ungerija","name:left:nn":"Serbia","kind":"country","name:left:br":"Serbia","name:left:bs":"Srbija","int_name:left":"Serbia","name:left:ba":"\u0421\u0435\u0440\u0431\u0438\u044f","name:left:bg":"\u0421\u044a\u0440\u0431\u0438\u044f","name:right:kv":"\u041c\u0430\u0434\u044c\u044f\u0440 \u041c\u0443","name:left:be":"\u0421\u0435\u0440\u0431\u0456\u044f","name:right:ff":"Hunngariya","name:left:bi":"Serbia","name:left:bn":"\u09b8\u09be\u09b0\u09cd\u09ac\u09bf\u09af\u09bc\u09be","name:left:bo":"\u0f66\u0f7a\u0f62\u0f0b\u0f56\u0fb7\u0f72\u0f0b\u0f61\u0f0d","name:right":"Magyarorsz\u00e1g","name:left:yo":"S\u00e9rb\u00ed\u00e0","name:left:yi":"\u05e1\u05e2\u05e8\u05d1\u05d9\u05e2","id:left":-1741311,"name:right:fi":"Unkari","name:right:ka":"\u10e3\u10dc\u10d2\u10e0\u10d4\u10d7\u10d8","name:left:io":"Serbia","name:left:pa":"\u0a38\u0a30\u0a2c\u0a40\u0a06","name:right:kg":"Hongrie","name:right:ki":"Macartsa","name:right:kk":"\u041c\u0430\u0436\u0430\u0440\u0441\u0442\u0430\u043d","name:left:id":"Serbia","name:right:km":"\u1794\u17d2\u179a\u1791\u17c1\u179f\u17a0\u17bb\u1784\u1782\u17d2\u179a\u17b8","name:right:kl":"Ungarni","name:left:ia":"Serbia","name:right:ts":"Hungary","name:right:tl":"Unggarya","name:right:th":"\u0e1b\u0e23\u0e30\u0e40\u0e17\u0e28\u0e2e\u0e31\u0e07\u0e01\u0e32\u0e23\u0e35","name:right:kw":"Hungari","name:left:ps":"\u0633\u0631\u0628\u064a\u0627","name:right:ky":"\u041c\u0430\u0436\u0430\u0440\u0441\u0442\u0430\u043d","name:right:te":"\u0c39\u0c02\u0c17\u0c47\u0c30\u0c3f","name:right:tg":"\u041c\u0430\u04b7\u043e\u0440\u0438\u0441\u0442\u043e\u043d","name:left:is":"Serb\u00eda","name:right:ta":"\u0b85\u0b99\u0bcd\u0b95\u0bc7\u0bb0\u0bbf","name:right:de":"Ungarn","name:right:da":"Ungarn","name:right:dv":"\u0780\u07a6\u0782\u07b0\u078e\u07ad\u0783\u07a9","name:right:ht":"Ongri"},"arcs":[0]},{"type":"LineString","properties":{"name:right:uk":"\u041f\u0456\u0432\u043d\u0456\u0447\u043d\u0438\u0439 \u0412\u0435\u043b\u0438\u043a\u0438\u0439 \u0410\u043b\u044c\u0444\u0435\u043b\u044c\u0434","name:right:hr":"Sjeverni Alf\u00f6ld","name:right:sr":"\u0412\u0435\u043b\u0438\u043a\u0435 \u0440\u0430\u0432\u043d\u0438\u0446\u0435 \u0438 \u0441\u0435\u0432\u0435\u0440\u043d\u0430 \u041c\u0430\u0452\u0430\u0440\u0441\u043a\u0430","name:left:ro":"Voivodina","id:right":-22793,"min_zoom":8.0,"name:left:lt":"Voivodina","name:right:ro":"Marea C\u00e2mpie \u0219i Nordul","name:left:sk":"Vojvodina","name:left:ru":"\u0412\u043e\u0435\u0432\u043e\u0434\u0438\u043d\u0430","name:left:hu":"Vajdas\u00e1g","name:right:ru":"\u0421\u0435\u0432\u0435\u0440\u043d\u044b\u0439 \u0410\u043b\u044c\u0444\u0451\u043b\u044c\u0434","id":-1279074,"osm_relation":true,"name:right":"Alf\u00f6ld \u00e9s \u00c9szak","kind":"region","name":"\u0412\u043e\u0458\u0432\u043e\u0434\u0438\u043d\u0430 - Alf\u00f6ld \u00e9s \u00c9szak","source":"openstreetmap.org","sort_rank":256,"kind_detail":"4","name:left:ca":"Voivodina","name:left:de":"Wojwodina","name:right:en":"Great Plain and North","name:left:en":"Vojvodina","name:right:de":"N\u00f6rdliche Gro\u00dfe Tiefebene","name:left:es":"Voivodina","id:left":-1279074,"official_name:left":"\u0410\u0443\u0442\u043e\u043d\u043e\u043c\u043d\u0430 \u041f\u043e\u043a\u0440\u0430\u0458\u0438\u043d\u0430 \u0412\u043e\u0458\u0432\u043e\u0434\u0438\u043d\u0430","name:left":"\u0412\u043e\u0458\u0432\u043e\u0434\u0438\u043d\u0430"},"arcs":[1]},{"type":"LineString","properties":{"name:right:nl":"Transdanubi\u00eb","name:right:hr":"Podunavlje","name:right:it":"Transdanubio","name:left:ro":"Marea C\u00e2mpie \u0219i Nordul","name:left:sr":"\u0412\u0435\u043b\u0438\u043a\u0435 \u0440\u0430\u0432\u043d\u0438\u0446\u0435 \u0438 \u0441\u0435\u0432\u0435\u0440\u043d\u0430 \u041c\u0430\u0452\u0430\u0440\u0441\u043a\u0430","name:left:uk":"\u041f\u0456\u0432\u043d\u0456\u0447\u043d\u0438\u0439 \u0412\u0435\u043b\u0438\u043a\u0438\u0439 \u0410\u043b\u044c\u0444\u0435\u043b\u044c\u0434","min_zoom":8.0,"name:right:ro":"Transdanubia","name:left:ru":"\u0421\u0435\u0432\u0435\u0440\u043d\u044b\u0439 \u0410\u043b\u044c\u0444\u0451\u043b\u044c\u0434","name:right:ru":"\u0417\u0430\u0434\u0443\u043d\u0430\u0439\u0441\u043a\u0438\u0439 \u043a\u0440\u0430\u0439","id":-22793,"name:left:hr":"Sjeverni Alf\u00f6ld","name:right":"Dun\u00e1nt\u00fal","kind":"region","name":"Alf\u00f6ld \u00e9s \u00c9szak - Dun\u00e1nt\u00fal","source":"openstreetmap.org","sort_rank":256,"kind_detail":"4","name:left:de":"N\u00f6rdliche Gro\u00dfe Tiefebene","name:right:en":"Transdanubia","name:left:en":"Great Plain and North","osm_relation":true,"name:right:de":"Transdanubien","id:left":-22793,"id:right":-22787,"name:left":"Alf\u00f6ld \u00e9s \u00c9szak"},"arcs":[2]},{"type":"LineString","properties":{"name:right:nl":"Transdanubi\u00eb","name:right:hr":"Podunavlje","name:right:it":"Transdanubio","name:left:ro":"Marea C\u00e2mpie \u0219i Nordul","name:left:sr":"\u0412\u0435\u043b\u0438\u043a\u0435 \u0440\u0430\u0432\u043d\u0438\u0446\u0435 \u0438 \u0441\u0435\u0432\u0435\u0440\u043d\u0430 \u041c\u0430\u0452\u0430\u0440\u0441\u043a\u0430","name:left:uk":"\u041f\u0456\u0432\u043d\u0456\u0447\u043d\u0438\u0439 \u0412\u0435\u043b\u0438\u043a\u0438\u0439 \u0410\u043b\u044c\u0444\u0435\u043b\u044c\u0434","min_zoom":8.0,"name:right:ro":"Transdanubia","name:left:ru":"\u0421\u0435\u0432\u0435\u0440\u043d\u044b\u0439 \u0410\u043b\u044c\u0444\u0451\u043b\u044c\u0434","name:right:ru":"\u0417\u0430\u0434\u0443\u043d\u0430\u0439\u0441\u043a\u0438\u0439 \u043a\u0440\u0430\u0439","id":-22793,"name:left:hr":"Sjeverni Alf\u00f6ld","name:right":"Dun\u00e1nt\u00fal","kind":"region","name":"Alf\u00f6ld \u00e9s \u00c9szak - Dun\u00e1nt\u00fal","source":"openstreetmap.org","sort_rank":256,"kind_detail":"4","name:left:de":"N\u00f6rdliche Gro\u00dfe Tiefebene","name:right:en":"Transdanubia","name:left:en":"Great Plain and North","osm_relation":true,"name:right:de":"Transdanubien","id:left":-22793,"id:right":-22787,"name:left":"Alf\u00f6ld \u00e9s \u00c9szak"},"arcs":[3]},{"type":"MultiLineString","properties":{"name:right:hr":"Sredi\u0161nja Mad\u017earska","id:left":-22793,"name:left:ro":"Marea C\u00e2mpie \u0219i Nordul","name:left:sr":"\u0412\u0435\u043b\u0438\u043a\u0435 \u0440\u0430\u0432\u043d\u0438\u0446\u0435 \u0438 \u0441\u0435\u0432\u0435\u0440\u043d\u0430 \u041c\u0430\u0452\u0430\u0440\u0441\u043a\u0430","name:left:uk":"\u041f\u0456\u0432\u043d\u0456\u0447\u043d\u0438\u0439 \u0412\u0435\u043b\u0438\u043a\u0438\u0439 \u0410\u043b\u044c\u0444\u0435\u043b\u044c\u0434","min_zoom":8.0,"name:right:ro":"Ungaria Central\u0103","name:left:ru":"\u0421\u0435\u0432\u0435\u0440\u043d\u044b\u0439 \u0410\u043b\u044c\u0444\u0451\u043b\u044c\u0434","name:right:ru":"\u0426\u0435\u043d\u0442\u0440\u0430\u043b\u044c\u043d\u0430\u044f \u0412\u0435\u043d\u0433\u0440\u0438\u044f","id":-22793,"name:left:hr":"Sjeverni Alf\u00f6ld","name:right":"K\u00f6z\u00e9p-Magyarorsz\u00e1g","kind":"region","name":"Alf\u00f6ld \u00e9s \u00c9szak - K\u00f6z\u00e9p-Magyarorsz\u00e1g","source":"openstreetmap.org","sort_rank":256,"kind_detail":"4","name:left:de":"N\u00f6rdliche Gro\u00dfe Tiefebene","name:right:en":"Central Hungary","name:left:en":"Great Plain and North","osm_relation":true,"name:right:de":"Mittelungarn","id:right":-22786,"name:left":"Alf\u00f6ld \u00e9s \u00c9szak"},"arcs":[[4],[5],[6],[7]]},{"type":"LineString","properties":{"name:right:hr":"Sredi\u0161nja Mad\u017earska","id:left":-22787,"name:left:ro":"Transdanubia","id:right":-22786,"min_zoom":8.0,"name:right:ro":"Ungaria Central\u0103","name:left:ru":"\u0417\u0430\u0434\u0443\u043d\u0430\u0439\u0441\u043a\u0438\u0439 \u043a\u0440\u0430\u0439","name:right:ru":"\u0426\u0435\u043d\u0442\u0440\u0430\u043b\u044c\u043d\u0430\u044f \u0412\u0435\u043d\u0433\u0440\u0438\u044f","id":-22787,"name:left:hr":"Podunavlje","name:right":"K\u00f6z\u00e9p-Magyarorsz\u00e1g","kind":"region","name:left:it":"Transdanubio","name":"Dun\u00e1nt\u00fal - K\u00f6z\u00e9p-Magyarorsz\u00e1g","source":"openstreetmap.org","sort_rank":256,"kind_detail":"4","name:left:de":"Transdanubien","name:right:en":"Central Hungary","name:left:en":"Transdanubia","osm_relation":true,"name:left:nl":"Transdanubi\u00eb","name:right:de":"Mittelungarn","name:left":"Dun\u00e1nt\u00fal"},"arcs":[8]}]},"roads":{"type":"GeometryCollection","geometries":[{"type":"MultiLineString","properties":{"source":"openstreetmap.org","kind":"major_road","sort_rank":380,"kind_detail":"primary","ref":"55","min_zoom":8.0},"arcs":[[472],[473],[474],[475],[476],[477]]},{"type":"LineString","properties":{"kind":"major_road","sort_rank":377,"kind_detail":"tertiary","is_bicycle_related":true,"bicycle_shield_text":"EV6","bicycle_network":"icn","source":"openstreetmap.org","min_zoom":8.0,"ref":"51144"},"arcs":[478]},{"type":"LineString","properties":{"bus_network":null,"network":null,"sort_rank":380,"kind_detail":"primary","kind":"major_road","source":"openstreetmap.org","min_zoom":8.0,"bus_shield_text":"9","shield_text":"5","landuse_kind":"residential","ref":"5"},"arcs":[479]},{"type":"LineString","properties":{"kind":"major_road","sort_rank":379,"kind_detail":"secondary","is_bicycle_related":true,"bicycle_shield_text":"61","bicycle_network":"ncn","source":"openstreetmap.org","min_zoom":8.0,"ref":"5308"},"arcs":[480]},{"type":"LineString","properties":{"kind":"major_road","network":null,"sort_rank":380,"kind_detail":"primary","source":"openstreetmap.org","min_zoom":8.0,"landuse_kind":"urban_area","shield_text":"54","ref":"54","id":209567896},"arcs":[481]},{"type":"MultiLineString","properties":{"kind":"major_road","network":null,"sort_rank":381,"landuse_kind":"urban_area","source":"openstreetmap.org","min_zoom":8.0,"kind_detail":"trunk","shield_text":"9","ref":"M9"},"arcs":[[482],[483],[484],[485],[486],[487]]},{"type":"LineString","properties":{"kind":"major_road","network":null,"sort_rank":380,"kind_detail":"primary","source":"openstreetmap.org","min_zoom":8.0,"landuse_kind":"urban_area","shield_text":"511","ref":"51","id":148316641},"arcs":[488]},{"type":"LineString","properties":{"kind":"major_road","sort_rank":379,"kind_detail":"secondary","is_bicycle_related":true,"bicycle_shield_text":"61","bicycle_network":"ncn","source":"openstreetmap.org","min_zoom":8.0,"landuse_kind":"residential","ref":"5301","id":120649358},"arcs":[489]},{"type":"LineString","properties":{"bus_network":null,"network":null,"sort_rank":380,"kind_detail":"primary","kind":"major_road","source":"openstreetmap.org","min_zoom":8.0,"bus_shield_text":"4","shield_text":"56","landuse_kind":"urban_area","ref":"56"},"arcs":[490]},{"type":"MultiLineString","properties":{"kind":"path","sort_rank":354,"kind_detail":"cycleway","is_bicycle_related":true,"bicycle_shield_text":"51","bicycle_network":"ncn","source":"openstreetmap.org","min_zoom":8.0},"arcs":[[491],[492]]},{"type":"MultiLineString","properties":{"kind":"highway","network":"e-road","sort_rank":383,"kind_detail":"motorway","source":"openstreetmap.org","min_zoom":8.0,"all_networks":["e-road",null],"shield_text":"73","ref":"M6;E 73","all_shield_texts":["73","6"]},"arcs":[[493],[494],[495],[496],[497],[498],[499],[500],[501],[502],[503],[504],[505],[506],[507],[508],[509],[510],[511],[512],[513],[514],[515],[516],[517],[518],[519],[520],[521],[522],[523],[524],[525],[526],[527],[528],[529],[530],[531],[532],[533],[534],[535],[536],[537],[538],[539],[540],[541],[542],[543],[544],[545],[546],[547],[548],[549],[550],[551],[552],[553],[554],[555],[556],[557],[558]]},{"type":"LineString","properties":{"kind":"major_road","network":null,"sort_rank":380,"kind_detail":"primary","is_bicycle_related":true,"cycleway":"lane","source":"openstreetmap.org","min_zoom":8.0,"landuse_kind":"urban_area","shield_text":"55","ref":"55","id":121380230},"arcs":[559]},{"type":"MultiLineString","properties":{"kind":"major_road","network":null,"sort_rank":380,"kind_detail":"primary","source":"openstreetmap.org","min_zoom":8.0,"landuse_kind":"residential","shield_text":"53","ref":"53"},"arcs":[[560],[561],[562],[563],[564],[565],[566],[567],[568],[569],[570],[571],[572],[573],[574],[575]]},{"type":"LineString","properties":{"bus_network":null,"network":null,"sort_rank":380,"kind_detail":"primary","kind":"major_road","source":"openstreetmap.org","min_zoom":8.0,"bus_shield_text":"3","shield_text":"56","landuse_kind":"residential","ref":"56"},"arcs":[576]},{"type":"LineString","properties":{"kind":"major_road","sort_rank":377,"landuse_kind":"urban_area","is_bicycle_related":true,"bicycle_shield_text":"5A","bicycle_network":"ncn","source":"openstreetmap.org","min_zoom":8.0,"kind_detail":"tertiary","ref":"5509"},"arcs":[577]},{"type":"MultiLineString","properties":{"kind":"major_road","network":null,"sort_rank":380,"kind_detail":"primary","source":"openstreetmap.org","min_zoom":8.0,"shield_text":"63","ref":"63"},"arcs":[[578],[579],[580],[581],[582],[583],[584],[585],[586],[587],[588],[589],[590]]},{"type":"LineString","properties":{"bus_network":null,"network":null,"sort_rank":380,"kind_detail":"primary","kind":"major_road","source":"openstreetmap.org","min_zoom":8.0,"bus_shield_text":"32","shield_text":"54","ref":"54"},"arcs":[591]},{"type":"MultiLineString","properties":{"kind":"major_road","network":null,"sort_rank":380,"kind_detail":"primary","source":"openstreetmap.org","min_zoom":8.0,"landuse_kind":"residential","shield_text":"51","ref":"51;55"},"arcs":[[592],[593],[594]]},{"type":"LineString","properties":{"sort_rank":355,"landuse_kind":"urban_area","min_zoom":8.0,"kind":"ferry","source":"openstreetmap.org"},"arcs":[595]},{"type":"MultiLineString","properties":{"kind":"major_road","network":null,"sort_rank":380,"kind_detail":"primary","source":"openstreetmap.org","min_zoom":8.0,"shield_text":"6","ref":"6"},"arcs":[[596],[597],[598],[599],[600],[601],[602],[603],[604],[605],[606],[607],[608],[609],[610],[611],[612],[613],[614],[615],[616],[617],[618],[619],[620],[621],[622],[623]]},{"type":"MultiLineString","properties":{"bus_network":null,"network":null,"sort_rank":380,"kind_detail":"primary","kind":"major_road","source":"openstreetmap.org","min_zoom":8.0,"bus_shield_text":"1","shield_text":"52","landuse_kind":"urban_area","ref":"52"},"arcs":[[624],[625],[626],[627],[628],[629],[630]]},{"type":"LineString","properties":{"bus_network":null,"network":null,"sort_rank":380,"kind_detail":"primary","kind":"major_road","source":"openstreetmap.org","min_zoom":8.0,"bus_shield_text":"14D","shield_text":"5","landuse_kind":"residential","ref":"5"},"arcs":[631]},{"type":"MultiLineString","properties":{"bus_network":null,"network":null,"sort_rank":380,"kind_detail":"primary","kind":"major_road","source":"openstreetmap.org","min_zoom":8.0,"bus_shield_text":"6Y","shield_text":"56","ref":"56"},"arcs":[[632],[633],[634],[635]]},{"type":"MultiLineString","properties":{"kind":"major_road","sort_rank":379,"kind_detail":"secondary","is_bicycle_related":true,"bicycle_shield_text":"5A","bicycle_network":"ncn","source":"openstreetmap.org","min_zoom":8.0,"ref":"5501"},"arcs":[[636],[637]]},{"type":"MultiLineString","properties":{"kind":"path","sort_rank":354,"landuse_kind":"residential","is_bicycle_related":true,"bicycle_shield_text":"EV6","bicycle_network":"icn","source":"openstreetmap.org","min_zoom":8.0,"kind_detail":"cycleway"},"arcs":[[638],[639]]},{"type":"LineString","properties":{"kind":"major_road","network":null,"sort_rank":380,"kind_detail":"primary","is_bicycle_related":true,"bicycle_shield_text":"32","bicycle_network":"ncn","source":"openstreetmap.org","min_zoom":8.0,"shield_text":"54","ref":"54"},"arcs":[640]},{"type":"LineString","properties":{"kind":"major_road","network":null,"sort_rank":380,"kind_detail":"primary","is_bicycle_related":true,"source":"openstreetmap.org","min_zoom":8.0,"shield_text":"6","ref":"6","id":311762370},"arcs":[641]},{"type":"MultiLineString","properties":{"sort_rank":380,"kind_detail":"primary","min_zoom":8.0,"kind":"major_road","source":"openstreetmap.org"},"arcs":[[642],[643],[644],[645],[646],[647],[648]]},{"type":"LineString","properties":{"kind":"minor_road","sort_rank":360,"kind_detail":"unclassified","is_bicycle_related":true,"bicycle_shield_text":"32","bicycle_network":"ncn","source":"openstreetmap.org","min_zoom":8.0,"landuse_kind":"urban_area","id":223255179},"arcs":[649]},{"type":"MultiLineString","properties":{"kind":"minor_road","sort_rank":360,"landuse_kind":"urban_area","is_bicycle_related":true,"bicycle_shield_text":"EV6","bicycle_network":"icn","source":"openstreetmap.org","min_zoom":8.0,"kind_detail":"residential"},"arcs":[[650],[651]]},{"type":"LineString","properties":{"kind":"major_road","sort_rank":377,"kind_detail":"tertiary","is_bicycle_related":true,"bicycle_shield_text":"EV6","bicycle_network":"icn","source":"openstreetmap.org","min_zoom":8.0,"ref":"51343"},"arcs":[652]},{"type":"MultiLineString","properties":{"kind":"minor_road","sort_rank":360,"landuse_kind":"residential","is_bicycle_related":true,"bicycle_shield_text":"EV6","bicycle_network":"icn","source":"openstreetmap.org","min_zoom":8.0,"kind_detail":"residential"},"arcs":[[653],[654]]},{"type":"MultiLineString","properties":{"kind":"path","sort_rank":354,"landuse_kind":"residential","is_bicycle_related":true,"bicycle_shield_text":"32","bicycle_network":"ncn","source":"openstreetmap.org","min_zoom":8.0,"kind_detail":"cycleway"},"arcs":[[655],[656]]},{"type":"MultiLineString","properties":{"kind":"path","sort_rank":354,"landuse_kind":"urban_area","is_bicycle_related":true,"bicycle_shield_text":"EV6","bicycle_network":"icn","source":"openstreetmap.org","min_zoom":8.0,"kind_detail":"cycleway"},"arcs":[[657],[658],[659],[660]]},{"type":"LineString","properties":{"kind":"major_road","network":null,"sort_rank":380,"kind_detail":"primary","bus_network":null,"source":"openstreetmap.org","min_zoom":8.0,"bus_shield_text":"22","shield_text":"5","landuse_kind":"residential","ref":"5","id":416268358},"arcs":[661]},{"type":"LineString","properties":{"kind":"major_road","sort_rank":377,"kind_detail":"tertiary","is_bicycle_related":true,"bicycle_shield_text":"EV6","bicycle_network":"icn","source":"openstreetmap.org","min_zoom":8.0,"ref":"51114"},"arcs":[662]},{"type":"MultiLineString","properties":{"kind":"highway","network":"e-road","sort_rank":383,"landuse_kind":"urban_area","source":"openstreetmap.org","min_zoom":8.0,"all_networks":["e-road",null],"kind_detail":"motorway","shield_text":"75","ref":"M5","all_shield_texts":["75","5"]},"arcs":[[663],[664],[665],[666]]},{"type":"LineString","properties":{"kind":"minor_road","sort_rank":360,"kind_detail":"residential","is_bicycle_related":true,"bicycle_shield_text":"61","bicycle_network":"ncn","source":"openstreetmap.org","min_zoom":8.0,"landuse_kind":"residential"},"arcs":[667]},{"type":"MultiLineString","properties":{"kind":"major_road","network":null,"sort_rank":380,"kind_detail":"primary","source":"openstreetmap.org","min_zoom":8.0,"landuse_kind":"urban_area","shield_text":"51","ref":"51"},"arcs":[[668],[669],[670],[671],[672],[673],[674],[675],[676],[677]]},{"type":"MultiLineString","properties":{"kind":"major_road","network":null,"sort_rank":380,"kind_detail":"primary","source":"openstreetmap.org","min_zoom":8.0,"landuse_kind":"residential","shield_text":"551","ref":"551"},"arcs":[[678],[679],[680],[681],[682],[683],[684],[685],[686],[687],[688]]},{"type":"MultiLineString","properties":{"kind":"major_road","network":null,"sort_rank":380,"kind_detail":"primary","is_bicycle_related":true,"bicycle_shield_text":"61","bicycle_network":"ncn","source":"openstreetmap.org","min_zoom":8.0,"shield_text":"54","ref":"54"},"arcs":[[689],[690]]},{"type":"MultiLineString","properties":{"bus_network":null,"network":null,"sort_rank":380,"kind_detail":"primary","kind":"major_road","source":"openstreetmap.org","min_zoom":8.0,"bus_shield_text":"4A","shield_text":"56","ref":"56"},"arcs":[[691],[692],[693],[694],[695],[696],[697]]},{"type":"MultiLineString","properties":{"kind":"major_road","network":null,"sort_rank":380,"kind_detail":"primary","source":"openstreetmap.org","min_zoom":8.0,"shield_text":"52","ref":"52"},"arcs":[[698],[699],[700],[701],[702],[703],[704],[705],[706],[707],[708],[709],[710]]},{"type":"LineString","properties":{"kind":"major_road","sort_rank":377,"kind_detail":"tertiary","is_bicycle_related":true,"bicycle_shield_text":"43","bicycle_network":"ncn","source":"openstreetmap.org","min_zoom":8.0,"ref":"54102"},"arcs":[711]},{"type":"LineString","properties":{"kind":"major_road","sort_rank":377,"kind_detail":"tertiary","is_bicycle_related":true,"bicycle_shield_text":"EV6","bicycle_network":"icn","source":"openstreetmap.org","min_zoom":8.0,"ref":"51152","id":162017721},"arcs":[712]},{"type":"LineString","properties":{"bus_network":null,"network":null,"sort_rank":380,"kind_detail":"primary","kind":"major_road","source":"openstreetmap.org","min_zoom":8.0,"bus_shield_text":"21","shield_text":"5","landuse_kind":"residential","ref":"5"},"arcs":[713]},{"type":"LineString","properties":{"bus_network":null,"network":null,"sort_rank":380,"kind_detail":"primary","kind":"major_road","source":"openstreetmap.org","min_zoom":8.0,"bus_shield_text":"9","shield_text":"5","landuse_kind":"urban_area","ref":"5"},"arcs":[714]},{"type":"MultiLineString","properties":{"bus_network":null,"network":null,"sort_rank":380,"kind_detail":"primary","is_bicycle_related":true,"kind":"major_road","bicycle_shield_text":"32","bicycle_network":"ncn","source":"openstreetmap.org","min_zoom":8.0,"bus_shield_text":"2D","shield_text":"541","landuse_kind":"urban_area","ref":"541"},"arcs":[[715],[716]]},{"type":"MultiLineString","properties":{"kind":"major_road","network":null,"sort_rank":380,"kind_detail":"primary","source":"openstreetmap.org","min_zoom":8.0,"landuse_kind":"park","shield_text":"52","ref":"52"},"arcs":[[717],[718]]},{"type":"LineString","properties":{"bus_network":"local","network":null,"sort_rank":380,"kind_detail":"primary","kind":"major_road","source":"openstreetmap.org","min_zoom":8.0,"bus_shield_text":"102Y","shield_text":"6","ref":"6"},"arcs":[719]},{"type":"LineString","properties":{"kind":"path","footway":"sidewalk","sort_rank":354,"kind_detail":"footway","is_bicycle_related":true,"bicycle_shield_text":"32","bicycle_network":"ncn","source":"openstreetmap.org","min_zoom":8.0,"landuse_kind":"residential","id":169314186},"arcs":[720]},{"type":"LineString","properties":{"bus_network":"local","network":null,"sort_rank":380,"kind_detail":"primary","kind":"major_road","source":"openstreetmap.org","min_zoom":8.0,"bus_shield_text":"614","shield_text":"5","landuse_kind":"urban_area","ref":"5"},"arcs":[721]},{"type":"MultiLineString","properties":{"kind":"highway","network":"e-road","sort_rank":383,"kind_detail":"motorway","source":"openstreetmap.org","min_zoom":8.0,"all_networks":["e-road",null],"shield_text":"71","ref":"M7","all_shield_texts":["71","7"]},"arcs":[[722],[723]]},{"type":"MultiLineString","properties":{"kind":"major_road","sort_rank":379,"kind_detail":"secondary","is_bicycle_related":true,"bicycle_shield_text":"EV6","bicycle_network":"icn","source":"openstreetmap.org","min_zoom":8.0},"arcs":[[724],[725],[726]]},{"type":"MultiLineString","properties":{"bus_network":"local","network":null,"sort_rank":380,"kind_detail":"primary","kind":"major_road","source":"openstreetmap.org","min_zoom":8.0,"bus_shield_text":"614","shield_text":"5","ref":"5"},"arcs":[[727],[728],[729]]},{"type":"LineString","properties":{"kind":"major_road","cycleway_left":"track","network":null,"sort_rank":380,"kind_detail":"primary","is_bicycle_related":true,"bicycle_shield_text":"61","bicycle_network":"ncn","source":"openstreetmap.org","min_zoom":8.0,"shield_text":"54","ref":"54","id":141257983},"arcs":[730]},{"type":"MultiLineString","properties":{"bus_network":null,"network":null,"sort_rank":380,"kind_detail":"primary","kind":"major_road","source":"openstreetmap.org","min_zoom":8.0,"bus_shield_text":"1","shield_text":"52","landuse_kind":"residential","ref":"52"},"arcs":[[731],[732],[733]]},{"type":"MultiLineString","properties":{"kind":"minor_road","sort_rank":360,"kind_detail":"unclassified","is_bicycle_related":true,"bicycle_shield_text":"EV6","bicycle_network":"icn","source":"openstreetmap.org","min_zoom":8.0},"arcs":[[734],[735],[736],[737],[738]]},{"type":"MultiLineString","properties":{"kind":"major_road","sort_rank":377,"kind_detail":"tertiary","is_bicycle_related":true,"bicycle_shield_text":"EV6","bicycle_network":"icn","source":"openstreetmap.org","min_zoom":8.0,"ref":"53308"},"arcs":[[739],[740],[741]]},{"type":"LineString","properties":{"kind":"major_road","network":null,"sort_rank":380,"kind_detail":"primary","source":"openstreetmap.org","min_zoom":8.0,"shield_text":"53","ref":"53; 55","id":26515654},"arcs":[742]},{"type":"LineString","properties":{"sort_rank":355,"landuse_kind":"residential","min_zoom":8.0,"kind":"ferry","source":"openstreetmap.org"},"arcs":[743]},{"type":"LineString","properties":{"kind":"major_road","cycleway_left":"track","network":null,"sort_rank":380,"kind_detail":"primary","is_bicycle_related":true,"source":"openstreetmap.org","min_zoom":8.0,"shield_text":"54","ref":"54","id":84407384},"arcs":[744]},{"type":"MultiLineString","properties":{"kind":"major_road","network":null,"sort_rank":380,"kind_detail":"primary","source":"openstreetmap.org","min_zoom":8.0,"landuse_kind":"urban_area","shield_text":"6","ref":"6"},"arcs":[[745],[746],[747],[748],[749],[750],[751],[752],[753],[754],[755],[756],[757],[758],[759],[760],[761],[762],[763],[764],[765],[766],[767],[768],[769],[770],[771],[772],[773],[774],[775],[776],[777],[778],[779],[780],[781]]},{"type":"LineString","properties":{"kind":"major_road","sort_rank":380,"landuse_kind":"urban_area","source":"openstreetmap.org","min_zoom":8.0,"kind_detail":"primary","ref":"5","id":40771099},"arcs":[782]},{"type":"MultiLineString","properties":{"kind":"major_road","network":null,"sort_rank":380,"kind_detail":"primary","source":"openstreetmap.org","min_zoom":8.0,"shield_text":"53","ref":"53"},"arcs":[[783],[784],[785],[786],[787],[788],[789],[790],[791],[792],[793],[794],[795],[796],[797],[798],[799],[800],[801]]},{"type":"MultiLineString","properties":{"kind":"major_road","network":null,"sort_rank":380,"kind_detail":"primary","source":"openstreetmap.org","min_zoom":8.0,"landuse_kind":"urban_area","shield_text":"52","ref":"52"},"arcs":[[802],[803],[804]]},{"type":"LineString","properties":{"bus_network":null,"network":null,"sort_rank":380,"kind_detail":"primary","kind":"major_road","source":"openstreetmap.org","min_zoom":8.0,"bus_shield_text":"4A","shield_text":"56","landuse_kind":"urban_area","ref":"56"},"arcs":[805]},{"type":"MultiLineString","properties":{"source":"openstreetmap.org","kind":"major_road","sort_rank":380,"kind_detail":"primary","ref":"513","min_zoom":8.0},"arcs":[[806],[807],[808],[809],[810],[811],[812],[813],[814],[815],[816],[817],[818]]},{"type":"LineString","properties":{"source":"openstreetmap.org","kind":"major_road","sort_rank":380,"kind_detail":"primary","ref":"63","min_zoom":8.0,"id":311762346},"arcs":[819]},{"type":"MultiLineString","properties":{"kind":"highway","network":null,"sort_rank":383,"kind_detail":"motorway","source":"openstreetmap.org","min_zoom":8.0,"all_networks":[null],"shield_text":"8","ref":"M8","all_shield_texts":["8"]},"arcs":[[820],[821]]},{"type":"LineString","properties":{"kind":"major_road","network":null,"sort_rank":380,"kind_detail":"primary","bus_network":null,"source":"openstreetmap.org","min_zoom":8.0,"bus_shield_text":"16","shield_text":"5","landuse_kind":"urban_area","ref":"5;441","id":416268368},"arcs":[822]},{"type":"LineString","properties":{"kind":"major_road","sort_rank":355,"kind_detail":"secondary_link","is_bicycle_related":true,"bicycle_shield_text":"5A","bicycle_network":"ncn","source":"openstreetmap.org","min_zoom":8.0,"is_link":true,"ref":"5501"},"arcs":[823]},{"type":"MultiLineString","properties":{"kind":"major_road","network":null,"sort_rank":380,"kind_detail":"primary","source":"openstreetmap.org","min_zoom":8.0,"shield_text":"65","ref":"65"},"arcs":[[824],[825],[826]]},{"type":"LineString","properties":{"kind":"path","sort_rank":354,"kind_detail":"cycleway","is_bicycle_related":true,"bicycle_shield_text":"61","bicycle_network":"ncn","source":"openstreetmap.org","min_zoom":8.0,"landuse_kind":"residential","id":223303511},"arcs":[827]},{"type":"LineString","properties":{"kind":"minor_road","sort_rank":360,"kind_detail":"residential","is_bicycle_related":true,"bicycle_shield_text":"EV6","bicycle_network":"icn","source":"openstreetmap.org","min_zoom":8.0,"name:de":"Donauradweg","id":161996320},"arcs":[828]},{"type":"LineString","properties":{"kind":"major_road","network":null,"sort_rank":380,"kind_detail":"primary","source":"openstreetmap.org","min_zoom":8.0,"landuse_kind":"urban_area","shield_text":"63","ref":"63","id":361393355},"arcs":[829]},{"type":"LineString","properties":{"kind":"minor_road","sort_rank":360,"kind_detail":"unclassified","is_bicycle_related":true,"bicycle_shield_text":"EV6","name:de":"Donauradweg","source":"openstreetmap.org","min_zoom":8.0,"bicycle_network":"icn"},"arcs":[830]},{"type":"LineString","properties":{"kind":"major_road","sort_rank":377,"kind_detail":"tertiary","is_bicycle_related":true,"bicycle_shield_text":"5A","bicycle_network":"ncn","source":"openstreetmap.org","min_zoom":8.0,"ref":"5509"},"arcs":[831]},{"type":"LineString","properties":{"kind":"major_road","sort_rank":380,"kind_detail":"primary","bus_network":null,"source":"openstreetmap.org","min_zoom":8.0,"bus_shield_text":"22","landuse_kind":"urban_area","ref":"5","id":416268360},"arcs":[832]},{"type":"LineString","properties":{"kind":"major_road","sort_rank":377,"kind_detail":"tertiary","is_bicycle_related":true,"bicycle_shield_text":"61","bicycle_network":"ncn","source":"openstreetmap.org","min_zoom":8.0,"ref":"5305"},"arcs":[833]},{"type":"LineString","properties":{"source":"openstreetmap.org","kind":"major_road","landuse_kind":"urban_area","sort_rank":380,"kind_detail":"primary","ref":"445","min_zoom":8.0},"arcs":[834]},{"type":"LineString","properties":{"kind":"major_road","sort_rank":380,"kind_detail":"primary","bus_network":null,"source":"openstreetmap.org","min_zoom":8.0,"bus_shield_text":"16","landuse_kind":"urban_area","ref":"5","id":416268367},"arcs":[835]},{"type":"MultiLineString","properties":{"kind":"major_road","network":null,"sort_rank":380,"kind_detail":"primary","source":"openstreetmap.org","min_zoom":8.0,"landuse_kind":"residential","shield_text":"54","ref":"54"},"arcs":[[836],[837],[838]]},{"type":"LineString","properties":{"kind":"major_road","network":null,"sort_rank":380,"kind_detail":"primary","is_bicycle_related":true,"cycleway":"lane","source":"openstreetmap.org","min_zoom":8.0,"landuse_kind":"residential","shield_text":"6","ref":"6"},"arcs":[839]},{"type":"MultiLineString","properties":{"kind":"major_road","network":null,"sort_rank":380,"kind_detail":"primary","is_bicycle_related":true,"bicycle_shield_text":"61","bicycle_network":"ncn","source":"openstreetmap.org","min_zoom":8.0,"shield_text":"51"},"arcs":[[840],[841]]},{"type":"LineString","properties":{"kind":"path","sort_rank":354,"kind_detail":"cycleway","is_bicycle_related":true,"bicycle_shield_text":"43","bicycle_network":"ncn","source":"openstreetmap.org","min_zoom":8.0,"id":110855223},"arcs":[842]},{"type":"LineString","properties":{"kind":"major_road","network":null,"sort_rank":380,"kind_detail":"primary","is_bicycle_related":true,"cycleway":"lane","source":"openstreetmap.org","min_zoom":8.0,"shield_text":"6","ref":"6"},"arcs":[843]},{"type":"MultiLineString","properties":{"kind":"major_road","network":null,"sort_rank":380,"kind_detail":"primary","source":"openstreetmap.org","min_zoom":8.0,"landuse_kind":"urban_area","shield_text":"56","ref":"56"},"arcs":[[844],[845],[846],[847],[848]]},{"type":"MultiLineString","properties":{"kind":"highway","network":"e-road","sort_rank":383,"landuse_kind":"urban_area","source":"openstreetmap.org","min_zoom":8.0,"all_networks":["e-road",null],"kind_detail":"motorway","shield_text":"73","ref":"M6;E 73","all_shield_texts":["73","6"]},"arcs":[[849],[850],[851],[852],[853],[854]]},{"type":"MultiLineString","properties":{"kind":"major_road","network":null,"sort_rank":380,"kind_detail":"primary","source":"openstreetmap.org","min_zoom":8.0,"landuse_kind":"residential","shield_text":"511","ref":"511"},"arcs":[[855],[856]]},{"type":"LineString","properties":{"source":"openstreetmap.org","kind":"major_road","sort_rank":380,"kind_detail":"primary","ref":"445","min_zoom":8.0,"id":371123696},"arcs":[857]},{"type":"MultiLineString","properties":{"kind":"highway","network":"e-road","sort_rank":383,"kind_detail":"motorway","source":"openstreetmap.org","min_zoom":8.0,"all_networks":["e-road",null],"shield_text":"73","ref":"M6","all_shield_texts":["73","6"]},"arcs":[[858],[859],[860],[861],[862],[863],[864],[865],[866],[867],[868],[869],[870],[871],[872],[873],[874],[875],[876],[877],[878],[879],[880],[881],[882],[883],[884],[885],[886],[887],[888],[889],[890],[891],[892],[893],[894],[895],[896],[897],[898],[899]]},{"type":"MultiLineString","properties":{"kind":"major_road","network":null,"sort_rank":380,"kind_detail":"primary","is_bicycle_related":true,"bicycle_shield_text":"61","bicycle_network":"ncn","source":"openstreetmap.org","min_zoom":8.0,"landuse_kind":"residential","shield_text":"53","ref":"53"},"arcs":[[900],[901],[902],[903]]},{"type":"LineString","properties":{"kind":"major_road","sort_rank":377,"kind_detail":"tertiary","is_bicycle_related":true,"bicycle_shield_text":"EV6","bicycle_network":"icn","source":"openstreetmap.org","min_zoom":8.0,"ref":"5105"},"arcs":[904]},{"type":"MultiLineString","properties":{"kind":"minor_road","sort_rank":360,"kind_detail":"unclassified","is_bicycle_related":true,"bicycle_shield_text":"32","bicycle_network":"ncn","source":"openstreetmap.org","min_zoom":8.0},"arcs":[[905],[906]]},{"type":"MultiLineString","properties":{"kind":"major_road","network":null,"sort_rank":380,"kind_detail":"primary","source":"openstreetmap.org","min_zoom":8.0,"landuse_kind":"residential","shield_text":"52","ref":"52"},"arcs":[[907],[908],[909],[910],[911],[912],[913],[914],[915],[916],[917],[918],[919],[920],[921],[922],[923],[924]]},{"type":"MultiLineString","properties":{"kind":"major_road","network":null,"sort_rank":380,"kind_detail":"primary","source":"openstreetmap.org","min_zoom":8.0,"landuse_kind":"residential","shield_text":"5","ref":"5"},"arcs":[[925],[926],[927],[928]]},{"type":"LineString","properties":{"kind":"major_road","network":null,"sort_rank":380,"kind_detail":"primary","bus_network":null,"source":"openstreetmap.org","min_zoom":8.0,"bus_shield_text":"16","shield_text":"5","landuse_kind":"urban_area","ref":"5","id":416268350},"arcs":[929]},{"type":"LineString","properties":{"kind":"major_road","sort_rank":380,"landuse_kind":"residential","source":"openstreetmap.org","min_zoom":8.0,"kind_detail":"primary","ref":"5","id":40771099},"arcs":[930]},{"type":"MultiLineString","properties":{"kind":"major_road","network":null,"sort_rank":380,"kind_detail":"primary","source":"openstreetmap.org","min_zoom":8.0,"shield_text":"61","ref":"61"},"arcs":[[931],[932],[933],[934],[935],[936],[937],[938],[939]]},{"type":"LineString","properties":{"bus_network":"regional","network":null,"sort_rank":380,"kind_detail":"primary","kind":"major_road","source":"openstreetmap.org","min_zoom":8.0,"bus_shield_text":"646","shield_text":"51","ref":"51"},"arcs":[940]},{"type":"LineString","properties":{"kind":"minor_road","sort_rank":360,"kind_detail":"residential","is_bicycle_related":true,"bicycle_shield_text":"43","bicycle_network":"ncn","source":"openstreetmap.org","min_zoom":8.0,"id":227626541},"arcs":[941]},{"type":"LineString","properties":{"kind":"major_road","network":null,"sort_rank":380,"kind_detail":"primary","source":"openstreetmap.org","min_zoom":8.0,"shield_text":"7","ref":"7"},"arcs":[942]},{"type":"MultiLineString","properties":{"kind":"minor_road","sort_rank":360,"kind_detail":"residential","is_bicycle_related":true,"bicycle_shield_text":"EV6","bicycle_network":"icn","source":"openstreetmap.org","min_zoom":8.0},"arcs":[[943],[944],[945],[946]]},{"type":"LineString","properties":{"kind":"major_road","network":null,"sort_rank":380,"kind_detail":"primary","bus_network":null,"source":"openstreetmap.org","min_zoom":8.0,"bus_shield_text":"16","shield_text":"441","landuse_kind":"urban_area","ref":"5;441","id":416268361},"arcs":[947]},{"type":"LineString","properties":{"kind":"major_road","network":null,"sort_rank":380,"kind_detail":"primary","bus_network":null,"source":"openstreetmap.org","min_zoom":8.0,"bus_shield_text":"10","shield_text":"5","landuse_kind":"residential","ref":"5","id":304632791},"arcs":[948]},{"type":"LineString","properties":{"bus_network":null,"network":null,"sort_rank":380,"kind_detail":"primary","is_bicycle_related":true,"kind":"major_road","bicycle_shield_text":"32","bicycle_network":"ncn","source":"openstreetmap.org","min_zoom":8.0,"bus_shield_text":"2D","shield_text":"541","landuse_kind":"residential","ref":"541","id":40712329},"arcs":[949]},{"type":"MultiLineString","properties":{"kind":"major_road","sort_rank":379,"kind_detail":"secondary","is_bicycle_related":true,"bicycle_shield_text":"5A","bicycle_network":"ncn","source":"openstreetmap.org","min_zoom":8.0,"ref":"5501;5312"},"arcs":[[950],[951],[952]]},{"type":"LineString","properties":{"kind":"major_road","network":null,"sort_rank":380,"kind_detail":"primary","source":"openstreetmap.org","min_zoom":8.0,"landuse_kind":"residential","shield_text":"51","ref":"51; 52","id":4930818},"arcs":[953]},{"type":"LineString","properties":{"bus_network":null,"network":null,"sort_rank":380,"kind_detail":"primary","is_bicycle_related":true,"kind":"major_road","bicycle_shield_text":"32","bicycle_network":"ncn","source":"openstreetmap.org","min_zoom":8.0,"bus_shield_text":"32","shield_text":"54","ref":"54","id":223255187},"arcs":[954]},{"type":"MultiLineString","properties":{"kind":"major_road","network":null,"sort_rank":380,"kind_detail":"primary","source":"openstreetmap.org","min_zoom":8.0,"landuse_kind":"residential","shield_text":"63","ref":"63"},"arcs":[[955],[956]]},{"type":"LineString","properties":{"kind":"major_road","network":null,"sort_rank":380,"kind_detail":"primary","is_bicycle_related":true,"cycleway":"lanew","source":"openstreetmap.org","min_zoom":8.0,"landuse_kind":"residential","shield_text":"63","ref":"63","id":380378007},"arcs":[957]},{"type":"LineString","properties":{"bus_network":"local","network":null,"sort_rank":380,"kind_detail":"primary","kind":"major_road","source":"openstreetmap.org","min_zoom":8.0,"bus_shield_text":"102Y","shield_text":"6","landuse_kind":"urban_area","ref":"6"},"arcs":[958]},{"type":"LineString","properties":{"kind":"major_road","network":null,"sort_rank":380,"kind_detail":"primary","source":"openstreetmap.org","min_zoom":8.0,"old_name":"Erdei Ferenc t\u00e9r","shield_text":"53","landuse_kind":"residential","ref":"53","id":282794015},"arcs":[959]},{"type":"LineString","properties":{"bus_network":null,"network":null,"sort_rank":380,"kind_detail":"primary","kind":"major_road","source":"openstreetmap.org","min_zoom":8.0,"bus_shield_text":"P\u00e9cs-Nagykoz\u00e1r","shield_text":"6","landuse_kind":"urban_area","ref":"6"},"arcs":[960]},{"type":"LineString","properties":{"kind":"minor_road","sort_rank":358,"kind_detail":"service","is_bicycle_related":true,"bicycle_shield_text":"EV6","bicycle_network":"icn","source":"openstreetmap.org","min_zoom":8.0},"arcs":[961]},{"type":"LineString","properties":{"kind":"major_road","sort_rank":377,"kind_detail":"tertiary","is_bicycle_related":true,"bicycle_shield_text":"EV6","bicycle_network":"icn","source":"openstreetmap.org","min_zoom":8.0,"ref":"51345","id":162017696},"arcs":[962]},{"type":"MultiLineString","properties":{"kind":"path","sort_rank":354,"kind_detail":"cycleway","is_bicycle_related":true,"bicycle_shield_text":"5A","bicycle_network":"ncn","source":"openstreetmap.org","min_zoom":8.0},"arcs":[[963],[964]]},{"type":"MultiLineString","properties":{"kind":"major_road","sort_rank":379,"landuse_kind":"urban_area","is_bicycle_related":true,"bicycle_shield_text":"5A","bicycle_network":"ncn","source":"openstreetmap.org","min_zoom":8.0,"kind_detail":"secondary","ref":"5501"},"arcs":[[965],[966]]},{"type":"MultiLineString","properties":{"kind":"major_road","sort_rank":379,"kind_detail":"secondary","is_bicycle_related":true,"bicycle_shield_text":"EV6","bicycle_network":"icn","source":"openstreetmap.org","min_zoom":8.0,"ref":"5106"},"arcs":[[967],[968],[969],[970],[971],[972],[973],[974]]},{"type":"LineString","properties":{"kind":"major_road","network":"RS:national","sort_rank":380,"kind_detail":"primary","source":"openstreetmap.org","min_zoom":8.0,"shield_text":"17.1","ref":"11"},"arcs":[975]},{"type":"MultiLineString","properties":{"kind":"major_road","network":null,"sort_rank":380,"kind_detail":"primary","source":"openstreetmap.org","min_zoom":8.0,"landuse_kind":"residential","shield_text":"51","ref":"51"},"arcs":[[976],[977],[978],[979],[980],[981],[982],[983],[984],[985],[986],[987],[988],[989],[990],[991],[992],[993]]},{"type":"LineString","properties":{"bus_network":null,"network":null,"sort_rank":380,"kind_detail":"primary","is_bicycle_related":true,"kind":"major_road","bicycle_shield_text":"32","bicycle_network":"ncn","source":"openstreetmap.org","min_zoom":8.0,"bus_shield_text":"32","shield_text":"541","landuse_kind":"urban_area","ref":"541"},"arcs":[994]},{"type":"LineString","properties":{"kind":"major_road","sort_rank":377,"kind_detail":"tertiary","is_bicycle_related":true,"bicycle_shield_text":"32","bicycle_network":"ncn","source":"openstreetmap.org","min_zoom":8.0,"ref":"5407","id":140349050},"arcs":[995]},{"type":"MultiLineString","properties":{"kind":"major_road","network":null,"sort_rank":380,"kind_detail":"primary","is_bicycle_related":true,"bicycle_shield_text":"EV6","bicycle_network":"icn","source":"openstreetmap.org","min_zoom":8.0,"shield_text":"51"},"arcs":[[996],[997]]},{"type":"MultiLineString","properties":{"kind":"path","sort_rank":354,"kind_detail":"cycleway","is_bicycle_related":true,"bicycle_shield_text":"61","bicycle_network":"ncn","source":"openstreetmap.org","min_zoom":8.0},"arcs":[[998],[999],[1000],[1001]]},{"type":"LineString","properties":{"kind":"major_road","sort_rank":380,"kind_detail":"primary","bus_network":null,"source":"openstreetmap.org","min_zoom":8.0,"bus_shield_text":"8A","landuse_kind":"urban_area","id":398009810},"arcs":[1002]},{"type":"LineString","properties":{"kind":"major_road","network":"RS:national","sort_rank":380,"kind_detail":"primary","source":"openstreetmap.org","min_zoom":8.0,"landuse_kind":"residential","shield_text":"17.1","name:hu":"Preradovi\u0107 utca","ref":"11","id":75682422},"arcs":[1003]},{"type":"LineString","properties":{"kind":"major_road","sort_rank":380,"kind_detail":"primary","bus_network":null,"source":"openstreetmap.org","min_zoom":8.0,"bus_shield_text":"16","landuse_kind":"urban_area","ref":"441","id":416268371},"arcs":[1004]},{"type":"LineString","properties":{"kind":"major_road","network":null,"sort_rank":380,"kind_detail":"primary","is_bicycle_related":true,"bicycle_shield_text":"EV6","bicycle_network":"icn","source":"openstreetmap.org","min_zoom":8.0,"landuse_kind":"residential","shield_text":"51","ref":"51"},"arcs":[1005]},{"type":"LineString","properties":{"kind":"major_road","network":null,"sort_rank":380,"kind_detail":"primary","source":"openstreetmap.org","min_zoom":8.0,"landuse_kind":"residential","shield_text":"51","ref":"51; 55","id":26478784},"arcs":[1006]},{"type":"LineString","properties":{"kind":"major_road","network":null,"sort_rank":380,"kind_detail":"primary","bus_network":null,"source":"openstreetmap.org","min_zoom":8.0,"bus_shield_text":"14D","shield_text":"5","landuse_kind":"urban_area","ref":"5","id":424836627},"arcs":[1007]},{"type":"LineString","properties":{"kind":"major_road","sort_rank":380,"kind_detail":"primary","bus_network":null,"source":"openstreetmap.org","min_zoom":8.0,"bus_shield_text":"22","landuse_kind":"residential","id":40771102},"arcs":[1008]},{"type":"LineString","properties":{"kind":"major_road","network":null,"sort_rank":380,"kind_detail":"primary","is_bicycle_related":true,"cycleway":"lane","source":"openstreetmap.org","min_zoom":8.0,"shield_text":"61","ref":"61"},"arcs":[1009]},{"type":"LineString","properties":{"kind":"major_road","sort_rank":380,"kind_detail":"primary","bus_network":null,"source":"openstreetmap.org","min_zoom":8.0,"bus_shield_text":"22","landuse_kind":"residential","ref":"5","id":416268360},"arcs":[1010]},{"type":"LineString","properties":{"kind":"major_road","network":null,"sort_rank":380,"kind_detail":"primary","source":"openstreetmap.org","min_zoom":8.0,"shield_text":"631","ref":"631"},"arcs":[1011]},{"type":"MultiLineString","properties":{"kind":"major_road","network":null,"sort_rank":380,"kind_detail":"primary","source":"openstreetmap.org","min_zoom":8.0,"shield_text":"5","ref":"5"},"arcs":[[1012],[1013],[1014]]},{"type":"LineString","properties":{"kind":"major_road","network":"RS:national","sort_rank":380,"kind_detail":"primary","source":"openstreetmap.org","min_zoom":8.0,"landuse_kind":"residential","shield_text":"17.1","ref":"11;12"},"arcs":[1015]},{"type":"LineString","properties":{"kind":"major_road","network":null,"sort_rank":380,"kind_detail":"primary","source":"openstreetmap.org","min_zoom":8.0,"shield_text":"55","id":225496598},"arcs":[1016]},{"type":"LineString","properties":{"kind":"major_road","sort_rank":379,"kind_detail":"secondary","is_bicycle_related":true,"bicycle_shield_text":"61","bicycle_network":"ncn","source":"openstreetmap.org","min_zoom":8.0,"ref":"5301"},"arcs":[1017]},{"type":"LineString","properties":{"kind":"minor_road","sort_rank":360,"kind_detail":"residential","is_bicycle_related":true,"bicycle_shield_text":"32","bicycle_network":"ncn","source":"openstreetmap.org","min_zoom":8.0,"id":140349071},"arcs":[1018]},{"type":"LineString","properties":{"kind":"major_road","sort_rank":377,"kind_detail":"tertiary","is_bicycle_related":true,"bicycle_shield_text":"61","bicycle_network":"ncn","source":"openstreetmap.org","min_zoom":8.0,"ref":"53121"},"arcs":[1019]},{"type":"MultiLineString","properties":{"source":"openstreetmap.org","kind":"major_road","landuse_kind":"residential","sort_rank":380,"kind_detail":"primary","min_zoom":8.0},"arcs":[[1020],[1021]]},{"type":"MultiLineString","properties":{"kind":"highway","network":"e-road","sort_rank":383,"landuse_kind":"urban_area","source":"openstreetmap.org","min_zoom":8.0,"all_networks":["e-road",null],"kind_detail":"motorway","shield_text":"73","ref":"M6","all_shield_texts":["73","6"]},"arcs":[[1022],[1023]]},{"type":"MultiLineString","properties":{"kind":"major_road","network":null,"sort_rank":380,"kind_detail":"primary","source":"openstreetmap.org","min_zoom":8.0,"landuse_kind":"urban_area","shield_text":"53","ref":"53"},"arcs":[[1024],[1025],[1026]]},{"type":"MultiLineString","properties":{"kind":"highway","network":"e-road","sort_rank":383,"kind_detail":"motorway","source":"openstreetmap.org","min_zoom":8.0,"all_networks":["e-road",null],"shield_text":"75","ref":"M5","all_shield_texts":["75","5"]},"arcs":[[1027],[1028],[1029],[1030],[1031],[1032],[1033],[1034],[1035],[1036],[1037],[1038],[1039],[1040],[1041],[1042]]},{"type":"LineString","properties":{"bus_network":"local","network":null,"sort_rank":380,"kind_detail":"primary","kind":"major_road","source":"openstreetmap.org","min_zoom":8.0,"bus_shield_text":"13E","shield_text":"6","ref":"6"},"arcs":[1043]},{"type":"MultiLineString","properties":{"kind":"major_road","network":null,"sort_rank":380,"kind_detail":"primary","source":"openstreetmap.org","min_zoom":8.0,"shield_text":"53","ref":"53; 54"},"arcs":[[1044],[1045],[1046],[1047],[1048],[1049],[1050]]},{"type":"LineString","properties":{"kind":"major_road","sort_rank":377,"kind_detail":"tertiary","is_bicycle_related":true,"bicycle_shield_text":"61","bicycle_network":"ncn","source":"openstreetmap.org","min_zoom":8.0,"ref":"5311"},"arcs":[1051]},{"type":"LineString","properties":{"kind":"major_road","network":null,"sort_rank":380,"kind_detail":"primary","is_bicycle_related":true,"cycleway":"lane","source":"openstreetmap.org","min_zoom":8.0,"landuse_kind":"residential","shield_text":"63","ref":"63"},"arcs":[1052]},{"type":"LineString","properties":{"kind":"minor_road","sort_rank":360,"kind_detail":"unclassified","is_bicycle_related":true,"bicycle_shield_text":"EV6","bicycle_network":"icn","source":"openstreetmap.org","min_zoom":8.0,"landuse_kind":"urban_area"},"arcs":[1053]},{"type":"LineString","properties":{"kind":"major_road","sort_rank":377,"kind_detail":"tertiary","is_bicycle_related":true,"bicycle_shield_text":"EV6","bicycle_network":"icn","source":"openstreetmap.org","min_zoom":8.0},"arcs":[1054]},{"type":"LineString","properties":{"kind":"major_road","network":null,"sort_rank":380,"kind_detail":"primary","source":"openstreetmap.org","min_zoom":8.0,"shield_text":"51","id":8083692},"arcs":[1055]},{"type":"MultiLineString","properties":{"kind":"major_road","network":null,"sort_rank":380,"kind_detail":"primary","source":"openstreetmap.org","min_zoom":8.0,"landuse_kind":"urban_area","shield_text":"55","ref":"55"},"arcs":[[1056],[1057],[1058],[1059],[1060],[1061],[1062],[1063],[1064]]},{"type":"LineString","properties":{"kind":"path","sort_rank":354,"landuse_kind":"urban_area","is_bicycle_related":true,"bicycle_shield_text":"EV6","bicycle_network":"icn","source":"openstreetmap.org","min_zoom":8.0,"kind_detail":"track"},"arcs":[1065]},{"type":"LineString","properties":{"kind":"minor_road","sort_rank":360,"kind_detail":"residential","is_bicycle_related":true,"bicycle_shield_text":"5A","bicycle_network":"ncn","source":"openstreetmap.org","min_zoom":8.0,"id":101544053},"arcs":[1066]},{"type":"MultiLineString","properties":{"kind":"major_road","network":"RS:national","sort_rank":380,"kind_detail":"primary","source":"openstreetmap.org","min_zoom":8.0,"shield_text":"11","ref":"11"},"arcs":[[1067],[1068],[1069]]},{"type":"LineString","properties":{"bus_network":"local","network":null,"sort_rank":380,"kind_detail":"primary","kind":"major_road","source":"openstreetmap.org","min_zoom":8.0,"bus_shield_text":"913","shield_text":"6","ref":"6"},"arcs":[1070]},{"type":"MultiLineString","properties":{"bus_network":null,"network":null,"sort_rank":380,"kind_detail":"primary","kind":"major_road","source":"openstreetmap.org","min_zoom":8.0,"bus_shield_text":"10","shield_text":"5","landuse_kind":"urban_area","ref":"5"},"arcs":[[1071],[1072],[1073],[1074]]},{"type":"MultiLineString","properties":{"kind":"major_road","network":null,"sort_rank":380,"kind_detail":"primary","is_bicycle_related":true,"bicycle_shield_text":"61","bicycle_network":"ncn","source":"openstreetmap.org","min_zoom":8.0,"shield_text":"51","ref":"51"},"arcs":[[1075],[1076],[1077]]},{"type":"MultiLineString","properties":{"kind":"major_road","network":null,"sort_rank":380,"kind_detail":"primary","source":"openstreetmap.org","min_zoom":8.0,"shield_text":"55","ref":"55"},"arcs":[[1078],[1079],[1080],[1081],[1082],[1083],[1084],[1085],[1086],[1087],[1088],[1089],[1090]]},{"type":"LineString","properties":{"cycleway_right":"track","network":null,"sort_rank":380,"kind_detail":"primary","is_bicycle_related":true,"kind":"major_road","source":"openstreetmap.org","min_zoom":8.0,"shield_text":"53","ref":"53"},"arcs":[1091]},{"type":"LineString","properties":{"kind":"major_road","network":null,"sort_rank":380,"kind_detail":"primary","is_bicycle_related":true,"bicycle_shield_text":"EV6","bicycle_network":"icn","source":"openstreetmap.org","min_zoom":8.0,"shield_text":"51","ref":"51"},"arcs":[1092]},{"type":"LineString","properties":{"kind":"major_road","network":null,"sort_rank":380,"kind_detail":"primary","source":"openstreetmap.org","min_zoom":8.0,"shield_text":"64","ref":"64"},"arcs":[1093]},{"type":"LineString","properties":{"kind":"major_road","sort_rank":377,"kind_detail":"tertiary","is_bicycle_related":true,"bicycle_shield_text":"61","bicycle_network":"ncn","source":"openstreetmap.org","min_zoom":8.0,"ref":"51345"},"arcs":[1094]},{"type":"LineString","properties":{"kind":"major_road","network":"RS:national","sort_rank":380,"kind_detail":"primary","source":"openstreetmap.org","min_zoom":8.0,"landuse_kind":"residential","shield_text":"17.1","name:hu":"Karadjordje \u00fat","ref":"11","id":75682240},"arcs":[1095]},{"type":"MultiLineString","properties":{"kind":"major_road","network":null,"sort_rank":380,"kind_detail":"primary","source":"openstreetmap.org","min_zoom":8.0,"shield_text":"56","ref":"56"},"arcs":[[1096],[1097],[1098],[1099],[1100],[1101],[1102],[1103],[1104],[1105],[1106],[1107],[1108],[1109]]},{"type":"LineString","properties":{"kind":"major_road","network":null,"sort_rank":380,"kind_detail":"primary","source":"openstreetmap.org","min_zoom":8.0,"shield_text":"61","ref":"61; 63"},"arcs":[1110]},{"type":"LineString","properties":{"kind":"major_road","sort_rank":355,"kind_detail":"tertiary_link","is_bicycle_related":true,"bicycle_shield_text":"EV6","bicycle_network":"icn","source":"openstreetmap.org","min_zoom":8.0,"is_link":true},"arcs":[1111]},{"type":"MultiLineString","properties":{"kind":"path","sort_rank":354,"kind_detail":"cycleway","is_bicycle_related":true,"bicycle_shield_text":"EV6","bicycle_network":"icn","source":"openstreetmap.org","min_zoom":8.0},"arcs":[[1112],[1113],[1114],[1115],[1116],[1117],[1118],[1119]]},{"type":"MultiLineString","properties":{"kind":"major_road","network":null,"sort_rank":380,"kind_detail":"primary","source":"openstreetmap.org","min_zoom":8.0,"shield_text":"51","ref":"51"},"arcs":[[1120],[1121],[1122],[1123],[1124],[1125],[1126],[1127],[1128],[1129],[1130],[1131],[1132],[1133],[1134],[1135],[1136],[1137],[1138],[1139],[1140],[1141],[1142],[1143],[1144],[1145],[1146],[1147],[1148],[1149],[1150],[1151],[1152],[1153]]},{"type":"MultiLineString","properties":{"bus_network":null,"network":null,"sort_rank":380,"kind_detail":"primary","kind":"major_road","source":"openstreetmap.org","min_zoom":8.0,"bus_shield_text":"7A","shield_text":"56","ref":"56"},"arcs":[[1154],[1155],[1156],[1157]]},{"type":"MultiLineString","properties":{"kind":"major_road","network":null,"sort_rank":380,"kind_detail":"primary","source":"openstreetmap.org","min_zoom":8.0,"landuse_kind":"urban_area","shield_text":"551","ref":"551"},"arcs":[[1158],[1159],[1160]]},{"type":"LineString","properties":{"kind":"major_road","network":"RS:national","sort_rank":380,"kind_detail":"primary","source":"openstreetmap.org","min_zoom":8.0,"landuse_kind":"residential","shield_text":"17.1","ref":"11"},"arcs":[1161]},{"type":"LineString","properties":{"cycleway_right":"track","network":null,"sort_rank":380,"kind_detail":"primary","is_bicycle_related":true,"kind":"major_road","source":"openstreetmap.org","min_zoom":8.0,"landuse_kind":"residential","shield_text":"53","ref":"53","id":304086231},"arcs":[1162]},{"type":"LineString","properties":{"source":"openstreetmap.org","kind":"major_road","landuse_kind":"urban_area","sort_rank":380,"kind_detail":"primary","ref":"578","min_zoom":8.0},"arcs":[1163]},{"type":"MultiLineString","properties":{"kind":"path","sort_rank":354,"kind_detail":"track","is_bicycle_related":true,"bicycle_shield_text":"EV6","bicycle_network":"icn","source":"openstreetmap.org","min_zoom":8.0},"arcs":[[1164],[1165],[1166],[1167],[1168],[1169],[1170]]},{"type":"LineString","properties":{"kind":"major_road","network":"RS:national","sort_rank":380,"kind_detail":"primary","source":"openstreetmap.org","min_zoom":8.0,"shield_text":"17.1","ref":"11;12","id":260763923},"arcs":[1171]},{"type":"LineString","properties":{"kind":"major_road","sort_rank":377,"kind_detail":"tertiary","is_bicycle_related":true,"bicycle_shield_text":"61","bicycle_network":"ncn","source":"openstreetmap.org","min_zoom":8.0,"ref":"51153"},"arcs":[1172]},{"type":"LineString","properties":{"kind":"major_road","network":null,"sort_rank":380,"kind_detail":"primary","is_bicycle_related":true,"bicycle_shield_text":"61","bicycle_network":"ncn","source":"openstreetmap.org","min_zoom":8.0,"shield_text":"52","ref":"52"},"arcs":[1173]},{"type":"MultiLineString","properties":{"bus_network":null,"network":null,"sort_rank":380,"kind_detail":"primary","kind":"major_road","source":"openstreetmap.org","min_zoom":8.0,"bus_shield_text":"16","shield_text":"441","landuse_kind":"urban_area","ref":"441"},"arcs":[[1174],[1175]]},{"type":"MultiLineString","properties":{"kind":"major_road","network":null,"sort_rank":380,"kind_detail":"primary","source":"openstreetmap.org","min_zoom":8.0,"landuse_kind":"urban_area","shield_text":"511","ref":"511"},"arcs":[[1176],[1177],[1178],[1179],[1180],[1181],[1182],[1183],[1184],[1185],[1186]]},{"type":"LineString","properties":{"kind":"major_road","network":null,"sort_rank":380,"kind_detail":"primary","source":"openstreetmap.org","min_zoom":8.0,"landuse_kind":"urban_area","shield_text":"55","ref":"55,511","id":148316647},"arcs":[1187]},{"type":"MultiLineString","properties":{"kind":"major_road","network":null,"sort_rank":380,"kind_detail":"primary","source":"openstreetmap.org","min_zoom":8.0,"landuse_kind":"residential","shield_text":"6","ref":"6"},"arcs":[[1188],[1189],[1190],[1191]]},{"type":"LineString","properties":{"kind":"major_road","network":null,"sort_rank":380,"kind_detail":"primary","bus_network":null,"source":"openstreetmap.org","min_zoom":8.0,"bus_shield_text":"7A","shield_text":"56","landuse_kind":"residential","ref":"56","id":360330823},"arcs":[1192]},{"type":"MultiLineString","properties":{"kind":"major_road","network":null,"sort_rank":380,"kind_detail":"primary","source":"openstreetmap.org","min_zoom":8.0,"shield_text":"54","ref":"54"},"arcs":[[1193],[1194],[1195],[1196],[1197],[1198],[1199],[1200]]},{"type":"MultiLineString","properties":{"bus_network":null,"network":null,"sort_rank":380,"kind_detail":"primary","kind":"major_road","source":"openstreetmap.org","min_zoom":8.0,"bus_shield_text":"3A","shield_text":"56","landuse_kind":"residential","ref":"56"},"arcs":[[1201],[1202]]},{"type":"MultiLineString","properties":{"kind":"major_road","network":null,"sort_rank":381,"kind_detail":"trunk","source":"openstreetmap.org","min_zoom":8.0,"shield_text":"9","ref":"M9"},"arcs":[[1203],[1204],[1205]]},{"type":"LineString","properties":{"kind":"major_road","network":null,"sort_rank":380,"kind_detail":"primary","source":"openstreetmap.org","min_zoom":8.0,"landuse_kind":"urban_area","shield_text":"541","ref":"541","id":223255178},"arcs":[1206]},{"type":"MultiLineString","properties":{"kind":"major_road","network":null,"sort_rank":380,"kind_detail":"primary","source":"openstreetmap.org","min_zoom":8.0,"landuse_kind":"residential","shield_text":"55","ref":"55"},"arcs":[[1207],[1208],[1209],[1210],[1211],[1212],[1213],[1214]]},{"type":"LineString","properties":{"kind":"major_road","network":null,"sort_rank":380,"kind_detail":"primary","source":"openstreetmap.org","min_zoom":8.0,"landuse_kind":"urban_area","shield_text":"6","id":225323244},"arcs":[1215]},{"type":"MultiLineString","properties":{"kind":"path","sort_rank":354,"landuse_kind":"residential","is_bicycle_related":true,"bicycle_shield_text":"EV6","bicycle_network":"icn","source":"openstreetmap.org","min_zoom":8.0,"kind_detail":"footway"},"arcs":[[1216],[1217]]},{"type":"LineString","properties":{"bus_network":null,"sort_rank":380,"kind_detail":"primary","kind":"major_road","source":"openstreetmap.org","min_zoom":8.0,"bus_shield_text":"P\u00e9cs-Nagykoz\u00e1r","landuse_kind":"urban_area","ref":"578"},"arcs":[1218]},{"type":"MultiLineString","properties":{"kind":"major_road","sort_rank":377,"landuse_kind":"residential","is_bicycle_related":true,"bicycle_shield_text":"EV6","bicycle_network":"icn","source":"openstreetmap.org","min_zoom":8.0,"kind_detail":"tertiary","ref":"5105"},"arcs":[[1219],[1220]]},{"type":"LineString","properties":{"kind":"major_road","sort_rank":379,"kind_detail":"secondary","is_bicycle_related":true,"bicycle_shield_text":"5A","bicycle_network":"ncn","source":"openstreetmap.org","min_zoom":8.0,"ref":"5505"},"arcs":[1221]},{"type":"LineString","properties":{"kind":"major_road","network":"RS:national","sort_rank":380,"kind_detail":"primary","source":"openstreetmap.org","min_zoom":8.0,"landuse_kind":"urban_area","shield_text":"17.1","ref":"11","id":354874708},"arcs":[1222]},{"type":"MultiLineString","properties":{"kind":"major_road","network":null,"sort_rank":380,"kind_detail":"primary","source":"openstreetmap.org","min_zoom":8.0,"landuse_kind":"urban_area","shield_text":"62","ref":"62"},"arcs":[[1223],[1224],[1225]]},{"type":"LineString","properties":{"kind":"major_road","sort_rank":377,"kind_detail":"tertiary","is_bicycle_related":true,"bicycle_shield_text":"43","bicycle_network":"ncn","source":"openstreetmap.org","min_zoom":8.0,"ref":"5407;54102","id":227626542},"arcs":[1226]},{"type":"MultiLineString","properties":{"kind":"major_road","network":null,"sort_rank":380,"kind_detail":"primary","source":"openstreetmap.org","min_zoom":8.0,"landuse_kind":"urban_area","shield_text":"5","ref":"5"},"arcs":[[1227],[1228],[1229],[1230],[1231]]},{"type":"LineString","properties":{"bus_network":null,"network":null,"sort_rank":380,"kind_detail":"primary","kind":"major_road","source":"openstreetmap.org","min_zoom":8.0,"bus_shield_text":"4","shield_text":"56","landuse_kind":"residential","ref":"56"},"arcs":[1232]},{"type":"LineString","properties":{"bus_network":null,"network":null,"sort_rank":380,"kind_detail":"primary","kind":"major_road","source":"openstreetmap.org","min_zoom":8.0,"bus_shield_text":"3","shield_text":"56","landuse_kind":"urban_area","ref":"56"},"arcs":[1233]},{"type":"LineString","properties":{"kind":"major_road","sort_rank":377,"kind_detail":"tertiary","is_bicycle_related":true,"bicycle_shield_text":"43","bicycle_network":"ncn","source":"openstreetmap.org","min_zoom":8.0,"ref":"5407","id":219873758},"arcs":[1234]},{"type":"MultiLineString","properties":{"kind":"path","sort_rank":354,"landuse_kind":"urban_area","is_bicycle_related":true,"bicycle_shield_text":"32","bicycle_network":"ncn","source":"openstreetmap.org","min_zoom":8.0,"kind_detail":"cycleway"},"arcs":[[1235],[1236]]},{"type":"LineString","properties":{"kind":"major_road","sort_rank":379,"kind_detail":"secondary","is_bicycle_related":true,"bicycle_shield_text":"5A","bicycle_network":"ncn","source":"openstreetmap.org","min_zoom":8.0,"landuse_kind":"residential","ref":"5501","id":35031598},"arcs":[1237]},{"type":"LineString","properties":{"kind":"major_road","network":null,"sort_rank":380,"kind_detail":"primary","source":"openstreetmap.org","min_zoom":8.0,"landuse_kind":"residential","shield_text":"56","ref":"56"},"arcs":[1238]},{"type":"LineString","properties":{"kind":"major_road","network":null,"sort_rank":380,"kind_detail":"primary","source":"openstreetmap.org","min_zoom":8.0,"shield_text":"62","ref":"62"},"arcs":[1239]},{"type":"LineString","properties":{"kind":"major_road","network":null,"sort_rank":380,"kind_detail":"primary","source":"openstreetmap.org","min_zoom":8.0,"landuse_kind":"residential","shield_text":"61","ref":"61"},"arcs":[1240]},{"type":"LineString","properties":{"kind":"path","sort_rank":354,"kind_detail":"cycleway","is_bicycle_related":true,"bicycle_shield_text":"32","bicycle_network":"ncn","source":"openstreetmap.org","min_zoom":8.0,"id":219887569},"arcs":[1241]}]},"earth":{"type":"GeometryCollection","geometries":[{"type":"Polygon","properties":{"sort_rank":10,"source":"naturalearthdata.com","min_zoom":0.0,"kind":"earth","area":98022885885},"arcs":[[1242]]}]},"landuse":{"type":"GeometryCollection","geometries":[{"type":"MultiPolygon","properties":{"source":"openstreetmap.org","kind":"park","tier":2,"area":236063009,"sort_rank":24,"min_zoom":8.0},"arcs":[[[1243]],[[1244]],[[1245]]]},{"type":"MultiPolygon","properties":{"source":"openstreetmap.org","kind":"residential","tier":2,"area":421494280,"sort_rank":20,"min_zoom":8.0,"osm_relation":true},"arcs":[[[1246],[1247],[1248]],[[1249]],[[1250]],[[1251]],[[1252]],[[1253]],[[1254]],[[1255],[1256]],[[1257]],[[1258]],[[1259]]]},{"type":"MultiPolygon","properties":{"source":"naturalearthdata.com","kind":"urban_area","name":"","area":2326828283,"sort_rank":11,"min_zoom":4.0},"arcs":[[[1260]],[[1261]],[[1262]],[[1263]],[[1264]],[[1265]],[[1266]],[[1267]],[[1268]],[[1269]],[[1270]],[[1271]],[[1272]]]},{"type":"MultiPolygon","properties":{"source":"openstreetmap.org","kind":"residential","tier":2,"area":470653028,"sort_rank":20,"min_zoom":8.0},"arcs":[[[1273]],[[1274]],[[1275]],[[1276]],[[1277]],[[1278]],[[1279]],[[1280]],[[1281]],[[1282]]]},{"type":"Polygon","properties":{"source":"openstreetmap.org","kind":"park","area":144942000,"tier":2,"id":33804517,"min_zoom":7.0,"sort_rank":24},"arcs":[[1283]]},{"type":"MultiPolygon","properties":{"source":"openstreetmap.org","kind":"park","tier":2,"area":376180669,"sort_rank":24,"min_zoom":6.0},"arcs":[[[1284]]]}]}},"type":"Topology","transform":{"translate":[18.28125,46.0732306254],"scale":[0.0003433228,0.0002360721]},"arcs":[[[4096,462],[-76,33],[-87,-88],[-199,32],[-8,-45],[-99,-79],[-28,18],[-42,-41],[72,-90],[-183,-109],[6,-57],[-35,-36]],[[4096,462],[-76,33],[-87,-88],[-199,32],[-8,-45],[-99,-79],[-28,18],[-42,-41],[72,-90],[-183,-109],[6,-57],[-35,-36]],[[1708,2315],[-23,-70],[105,-184],[2,-172],[75,-187],[-6,-107],[-91,-163],[-11,-66],[37,-243],[63,-97],[6,-61],[-30,-170],[-56,-5],[-72,44],[-14,-23],[37,-113],[-24,-26],[-38,18],[-91,-116],[30,-33],[113,91],[-2,-124],[-48,-2],[-31,-39],[-12,-161],[-84,-131],[25,-22],[-49,-2],[-95,-60],[-32,-91]],[[1997,4053],[2,-77],[-50,-131],[43,-211],[-27,-127],[-86,-152],[-6,-174],[33,-64],[53,-34],[8,-66],[42,-89],[21,3],[83,-279],[-113,-190],[-147,-71],[-101,-4],[-44,-72]],[[2024,4096],[-27,-43]],[[2326,4096],[-29,-24],[-37,24]],[[3229,4096],[-165,-56],[-41,-60],[-62,116]],[[4096,3908],[-150,188]],[[1997,4053],[-27,43]],[[1825,4096],[20,-44],[-36,-58],[-9,-106],[44,-129]],[[172,4096],[-172,-149]],[[963,3488],[-49,195],[-181,413]],[[756,2895],[122,56],[65,234],[488,107],[174,329],[235,77],[4,61]],[[0,3947],[172,149]],[[2365,4096],[20,-93]],[[3673,4046],[-39,50]],[[1844,3759],[-4,-61],[-235,-77],[-174,-329],[-488,-107],[-11,-68],[66,-156]],[[3533,1526],[121,-384],[-4,-249],[221,-378]],[[1844,3759],[-4,-61],[-235,-77],[-174,-329],[-488,-107],[-11,-68],[66,-156]],[[4096,3480],[-261,136],[-70,210],[-48,47],[-18,143],[-26,30]],[[1825,4096],[20,-44],[-36,-58],[-9,-106],[44,-129]],[[172,4096],[-172,-149]],[[4096,3480],[-261,136],[-70,210],[-48,47],[-18,143],[-26,30]],[[2365,4096],[20,-93]],[[2385,4003],[447,-873],[137,-813],[300,-234],[264,-557]],[[0,3947],[172,149]],[[2365,4096],[9,-72],[458,-894],[137,-813],[300,-234],[264,-557]],[[1587,537],[-1,1]],[[1586,538]],[[1586,538],[-1,0]],[[1585,538],[0,1]],[[1585,539]],[[1585,539],[-1,0]],[[1584,539],[0,1]],[[1584,540],[-1,1]],[[1583,541]],[[1583,541],[0,1]],[[1583,542],[0,1]],[[1583,543],[0,1]],[[1583,544],[1,2]],[[1584,546],[2,2]],[[1586,548],[1,1]],[[1587,549],[0,1]],[[1587,550]],[[1587,550],[1,2]],[[1588,552],[2,1]],[[1590,553],[1,1]],[[1591,554],[2,1]],[[1593,555]],[[1593,555]],[[1593,555],[3,1]],[[1596,556],[6,2]],[[1602,558],[2,1]],[[1604,559],[2,1]],[[1606,560],[10,14]],[[1616,574],[5,6]],[[1621,580],[2,1]],[[1623,581],[3,4]],[[1626,585],[1,2]],[[1627,587],[2,1]],[[1629,588]],[[1629,588],[1,1]],[[1630,589],[11,2]],[[1641,591],[10,2]],[[1651,593],[12,2]],[[1663,595],[6,1]],[[1669,596]],[[1669,596],[1,1]],[[1670,597],[1,0]],[[1671,597],[2,3]],[[1673,600],[3,3]],[[1676,603],[3,4]],[[1679,607],[3,4]],[[1682,611],[3,3]],[[1685,614],[3,3]],[[1688,617],[1,1]],[[1689,618],[1,2]],[[1690,620],[11,8]],[[1701,628],[1,0]],[[1702,628],[0,1]],[[1702,629],[1,0]],[[1703,629],[0,1]],[[1703,630],[0,1]],[[1703,631],[0,1]],[[1703,632],[0,1]],[[1703,633]],[[1703,633],[-1,1]],[[1702,634],[0,1]],[[1702,635],[-1,1]],[[1701,636],[-2,2]],[[1699,638],[-3,2]],[[1696,640],[-1,2]],[[1695,642],[-1,1]],[[1694,643],[-1,2]],[[1693,645],[-1,2]],[[1692,647],[-1,3]],[[1691,650],[-1,3]],[[1690,653],[-3,4]],[[1687,657],[-2,4]],[[1685,661],[-2,6]],[[1683,667],[-1,3]],[[1682,670],[-2,3]],[[1680,673],[0,2]],[[1680,675],[-1,2]],[[1679,677],[-1,3]],[[1678,680],[-1,4]],[[1677,684],[0,1]],[[1677,685],[0,1]],[[1677,686],[1,1]],[[1678,687]],[[1678,687],[0,1]],[[1678,688],[0,1]],[[1678,689],[0,1]],[[1678,690],[0,7]],[[1678,697],[0,1]],[[1678,698],[0,1]],[[1678,699]],[[1678,699],[0,10]],[[1678,709],[0,4]],[[1678,713],[-1,21]],[[1677,734],[0,8]],[[1677,742],[0,1]],[[1677,743],[-1,1]],[[1676,744],[0,1]],[[1676,745],[-12,14]],[[1664,759],[0,1]],[[1664,760],[-1,1]],[[1663,761],[0,1]],[[1663,762],[0,3]],[[1663,765],[0,5]],[[1663,770],[0,2]],[[1663,772],[0,2]],[[1663,774],[0,1]],[[1663,775],[0,1]],[[1663,776],[1,1]],[[1664,777]],[[1664,777],[1,1]],[[1665,778],[4,3]],[[1669,781],[2,1]],[[1671,782],[1,1]],[[1672,783],[0,1]],[[1672,784],[1,0]],[[1673,784],[0,1]],[[1673,785]],[[1673,785],[0,1]],[[1673,786]],[[1673,786],[0,1]],[[1673,787],[-1,1]],[[1672,788],[0,1]],[[1672,789],[-1,1]],[[1671,790],[0,1]],[[1671,791],[-1,7]],[[1670,798],[-2,5]],[[1668,803],[0,1]],[[1668,804],[0,2]],[[1668,806]],[[1668,806],[0,1]],[[1668,807],[1,1]],[[1669,808],[1,1]],[[1670,809],[11,9]],[[1681,818],[3,3]],[[1684,821],[2,3]],[[1686,824],[1,0]],[[1687,824],[2,1]],[[1689,825]],[[1689,825],[1,0]],[[1690,825],[1,0]],[[1691,825],[1,0]],[[1692,825],[1,0]],[[1693,825],[1,1]],[[1694,826],[4,3]],[[1698,829],[7,6]],[[1705,835],[1,1]],[[1706,836],[1,0]],[[1707,836],[1,1]],[[1708,837],[7,2]],[[1715,839],[4,1]],[[1719,840],[2,1]],[[1721,841]],[[1721,841],[1,0]],[[1722,841],[2,0]],[[1724,841],[1,-1]],[[1725,840],[2,-1]],[[1727,839],[1,0]],[[1728,839],[1,0]],[[1729,839],[1,0]],[[1730,839],[1,0]],[[1731,839],[1,1]],[[1732,840],[1,0]],[[1733,840],[3,3]],[[1736,843],[7,7]],[[1743,850],[7,5]],[[1750,855],[3,3]],[[1753,858],[1,1]],[[1754,859],[0,1]],[[1754,860],[0,1]],[[1754,861],[0,1]],[[1754,862],[0,1]],[[1754,863],[-3,9]],[[1751,872],[-2,10]],[[1749,882],[-1,4]],[[1748,886],[-1,6]],[[1747,892],[0,4]],[[1747,896],[0,6]],[[1747,902],[0,2]],[[1747,904],[-1,1]],[[1746,905],[0,1]],[[1746,906],[-1,1]],[[1745,907],[-3,4]],[[1742,911],[-3,3]],[[1739,914],[0,1]],[[1739,915],[0,1]],[[1739,916],[-1,1]],[[1738,917],[1,1]],[[1739,918],[0,1]],[[1739,919],[15,12]],[[1754,931],[6,5]],[[1760,936],[1,1]],[[1761,937],[0,1]],[[1761,938],[0,1]],[[1761,939],[0,1]],[[1761,940],[0,3]],[[1761,943],[-1,3]],[[1760,946],[-3,6]],[[1757,952],[0,2]],[[1757,954],[-1,4]],[[1756,958],[0,3]],[[1756,961],[0,2]],[[1756,963],[0,2]],[[1756,965],[1,3]],[[1757,968],[1,5]],[[1758,973],[5,26]],[[1763,999],[2,13]],[[1765,1012],[0,1]],[[1765,1013],[1,1]],[[1766,1014],[1,0]],[[1767,1014],[1,1]],[[1768,1015],[4,1]],[[1772,1016],[2,1]],[[1774,1017],[4,2]],[[1778,1019],[4,3]],[[1782,1022],[3,3]],[[1785,1025],[2,2]],[[1787,1027],[2,2]],[[1789,1029],[6,9]],[[1795,1038],[3,4]],[[1798,1042],[0,2]],[[1798,1044],[1,1]],[[1799,1045],[1,1]],[[1800,1046],[1,1]],[[1801,1047],[1,1]],[[1802,1048],[1,1]],[[1803,1049],[0,1]],[[1803,1050],[0,1]],[[1803,1051],[1,3]],[[1800,1052],[1,0]],[[1801,1052],[1,0]],[[1802,1052],[1,0]],[[1803,1052],[0,1]],[[1803,1053],[1,1]],[[1804,1054],[0,1]],[[1804,1055],[0,1]],[[1804,1056],[1,0]],[[1805,1056],[1,1]],[[1806,1057],[1,0]],[[1807,1057],[1,0]],[[1808,1057],[2,0]],[[1810,1057],[2,0]],[[1812,1057],[3,-1]],[[1815,1056],[3,-1]],[[1818,1055],[2,-2]],[[1820,1053],[1,0]],[[1821,1053],[1,-1]],[[1822,1052],[2,-2]],[[1824,1050],[1,-1]],[[1825,1049],[1,-1]],[[3533,1526],[13,-24],[47,13],[503,245]],[[3673,4046],[-39,50]],[[2365,4096],[9,-72],[458,-894],[137,-813],[302,-237],[256,-536],[127,-402],[-2,-253],[219,-374]],[[4096,62],[-57,91]],[[963,3488],[-49,195],[-181,413]],[[2365,4096],[9,-72],[458,-894],[137,-813],[300,-234],[264,-557]],[[756,2895],[122,56],[65,234],[488,107],[174,329],[235,77],[4,61]],[[1825,4096],[20,-44],[-36,-58],[-9,-106],[44,-129]],[[2385,4003],[447,-873],[137,-813],[302,-237],[256,-536],[127,-402],[-2,-253],[219,-374]],[[0,3947],[172,149]],[[1825,4096],[20,-44],[-36,-58],[-9,-106],[44,-129]],[[3533,1526],[121,-384],[-4,-249],[221,-378]],[[0,1532],[107,11],[8,99],[126,59],[91,139],[-27,221],[141,105],[-73,293],[53,74],[13,72],[130,170],[152,82],[60,63],[99,35],[51,165],[23,332],[73,266],[-6,72],[52,129],[33,177]],[[172,4096],[-172,-149]],[[0,1532],[107,11],[8,99],[126,59],[91,139],[-27,221],[141,105],[-73,293],[53,74],[13,72],[130,170],[152,82],[60,63],[99,35],[51,165],[23,332],[73,266],[-6,72],[52,129],[33,177]],[[1483,1149],[2,1]],[[1485,1150],[1,0]],[[1486,1150],[1,0]],[[1487,1150],[1,1]],[[1488,1151],[7,1]],[[1495,1152],[1,1]],[[1496,1153],[2,0]],[[1498,1153],[4,-1]],[[1502,1152],[4,-1]],[[1506,1151],[1,0]],[[1507,1151],[1,-2]],[[1508,1149],[3,-3]],[[1511,1146],[5,-6]],[[1516,1140],[1,-2]],[[1517,1138],[2,-2]],[[1519,1136],[3,-4]],[[1522,1132],[6,-6]],[[1528,1126],[6,-2]],[[1534,1124],[6,-3]],[[1540,1121],[3,0]],[[1543,1121],[2,-1]],[[1545,1120],[3,0]],[[1548,1120],[2,0]],[[1550,1120],[2,0]],[[1552,1120],[1,0]],[[1553,1120],[1,0]],[[1554,1120],[1,0]],[[1555,1120],[1,0]],[[1556,1120],[1,1]],[[1557,1121],[1,1]],[[1558,1122],[4,3]],[[1562,1125],[3,1]],[[1565,1126],[1,2]],[[1566,1128],[1,2]],[[1567,1130],[3,3]],[[1570,1133],[2,3]],[[1572,1136],[2,3]],[[1574,1139],[4,5]],[[1578,1144],[1,2]],[[1579,1146],[0,1]],[[1579,1147],[1,0]],[[1580,1147],[1,0]],[[1581,1147],[1,0]],[[1582,1147],[4,-1]],[[1586,1146],[7,-1]],[[1593,1145],[6,-2]],[[1599,1143],[2,0]],[[1601,1143],[1,-1]],[[1602,1142],[2,-1]],[[1604,1141],[4,-6]],[[1608,1135],[2,-3]],[[1610,1132],[1,-2]],[[1611,1130],[2,-1]],[[1613,1129],[1,-1]],[[1614,1128],[1,-1]],[[1615,1127]],[[1615,1127],[1,-1]],[[1616,1126]],[[1616,1126],[0,-1]],[[1616,1125],[1,-1]],[[1617,1124],[1,-1]],[[1618,1123],[1,-2]],[[1619,1121],[3,-5]],[[1622,1116],[1,-2]],[[1623,1114],[2,-3]],[[1625,1111],[3,-4]],[[1628,1107],[1,-1]],[[1629,1106],[2,-2]],[[1631,1104],[1,-1]],[[1632,1103],[3,-3]],[[1635,1100],[2,-3]],[[1637,1097],[2,-2]],[[1639,1095],[1,-1]],[[1640,1094]],[[1640,1094],[3,-2]],[[1643,1092],[2,-1]],[[1645,1091],[5,-3]],[[1650,1088],[4,-1]],[[1654,1087],[2,-1]],[[1656,1086],[2,0]],[[1658,1086],[1,-1]],[[1659,1085],[2,1]],[[1661,1086]],[[1661,1086]],[[1661,1086],[2,0]],[[1663,1086],[1,0]],[[1664,1086],[1,0]],[[1665,1086]],[[1665,1086],[1,0]],[[1666,1086],[1,-1]],[[1667,1085],[3,-1]],[[1670,1084],[3,-2]],[[1673,1082],[1,0]],[[1674,1082],[2,0]],[[1676,1082],[1,0]],[[1677,1082],[7,1]],[[1684,1083],[6,1]],[[1690,1084],[1,0]],[[1691,1084],[6,1]],[[1697,1085],[10,0]],[[1707,1085],[5,1]],[[1712,1086],[2,0]],[[1714,1086],[2,1]],[[1716,1087],[4,2]],[[1720,1089],[2,1]],[[1722,1090],[0,1]],[[1722,1091],[4,3]],[[1726,1094],[2,2]],[[1728,1096],[1,0]],[[1729,1096],[0,1]],[[1729,1097],[1,4]],[[1730,1101]],[[1730,1101],[1,1]],[[1731,1102],[0,1]],[[1731,1103],[1,0]],[[1732,1103],[5,2]],[[1737,1105],[2,0]],[[1739,1105],[2,0]],[[1741,1105],[3,0]],[[1744,1105],[2,0]],[[1746,1105],[1,0]],[[1747,1105],[5,0]],[[1752,1105],[3,0]],[[1755,1105],[4,-1]],[[1759,1104],[5,0]],[[1764,1104],[2,-1]],[[1766,1103],[2,0]],[[1768,1103],[2,-1]],[[1770,1102],[0,-1]],[[1770,1101],[1,0]],[[1771,1101],[0,-1]],[[1771,1100],[1,-3]],[[1772,1097],[1,-1]],[[1773,1096],[0,-2]],[[1773,1094],[2,-3]],[[1775,1091],[2,-4]],[[1777,1087],[2,-6]],[[1779,1081],[2,-4]],[[1781,1077],[3,-9]],[[1784,1068],[2,-3]],[[1786,1065],[1,-2]],[[1787,1063],[0,-2]],[[1787,1061],[1,-3]],[[1788,1058],[0,-1]],[[1788,1057],[0,-1]],[[1788,1056]],[[1788,1056],[0,-1]],[[1788,1055],[1,-1]],[[1789,1054],[1,0]],[[1790,1054],[6,-1]],[[1796,1053],[4,-1]],[[1800,1052]],[[1800,1052],[1,-1]],[[1801,1051],[1,0]],[[1802,1051],[0,-1]],[[1802,1050],[0,-1]],[[1802,1049]],[[1802,1049],[0,-1]],[[1802,1048],[-1,-1]],[[1800,1052],[1,0]],[[1801,1052],[1,0]],[[1802,1052],[1,0]],[[1803,1052],[0,1]],[[1803,1053],[1,1]],[[1804,1054],[0,1]],[[1804,1055],[0,1]],[[1804,1056],[1,0]],[[1805,1056],[1,1]],[[1806,1057],[1,0]],[[1807,1057],[1,0]],[[1808,1057],[2,0]],[[1810,1057],[2,0]],[[1812,1057],[3,-1]],[[1815,1056],[3,-1]],[[1818,1055],[2,-2]],[[1820,1053],[1,0]],[[1821,1053],[1,-1]],[[1822,1052],[2,-2]],[[1824,1050],[1,-1]],[[1825,1049],[1,-1]],[[3673,4046],[-39,50]],[[1857,506],[-1,1]],[[2514,519],[-1,0]],[[2515,518],[1,0]],[[2963,437]],[[2963,437],[1,0]],[[3177,590]],[[1918,387],[-158,-64]],[[4091,3550],[4,13]],[[2288,1998],[37,71],[0,70],[-53,32],[-70,147]],[[4096,3381],[-2,-2]],[[1260,1338],[2,0]],[[1262,1338],[-2,1]],[[1262,1338],[11,-4]],[[1274,1333],[0,1],[-1,0]],[[1273,1334],[0,-1],[1,0]],[[1274,1333],[1,-1]],[[2020,524],[0,-1]],[[2933,2304],[-32,-38]],[[1251,1140],[0,-4]],[[3994,2553],[52,-94],[-39,-41],[89,-105]],[[4096,2290],[-23,-42],[23,-15]],[[895,79],[5,-68],[-6,-11]],[[895,0],[6,11],[-3,51]],[[904,169],[-9,-16],[-5,-35],[4,-36]],[[895,82],[0,70]],[[897,63],[-2,16]],[[897,157],[12,17]],[[909,174],[-3,-3]],[[933,200],[-22,-24]],[[911,176],[22,24]],[[934,201],[48,50]],[[993,264],[-57,-61]],[[985,255],[8,8]],[[1002,273],[-8,-8]],[[994,264],[21,23]],[[1015,288],[-10,-12]],[[1025,299],[-8,-10]],[[1017,289],[7,7]],[[1039,314],[-13,-14]],[[1027,299],[162,184]],[[1190,485],[-37,-29],[-113,-141]],[[1197,494],[-3,-3]],[[1194,491],[-3,-5]],[[1192,486],[2,5]],[[1194,491],[6,10]],[[1200,501],[3,6]],[[1222,574],[-16,-54],[-6,-19]],[[1200,501],[-1,-3]],[[1205,514],[18,60]],[[1259,675],[-31,-81],[-5,-18]],[[1223,576],[37,99]],[[1282,758],[-22,-82]],[[1260,676],[23,82]],[[1279,1688],[-12,-11],[-6,-7],[-6,-34]],[[1255,1636],[-13,-68]],[[1242,1568],[-1,-2],[1,-3],[12,-24],[111,-165],[12,-70]],[[1378,1304],[-12,70],[-111,165],[-12,23],[-1,6]],[[1242,1568],[-2,4],[15,64]],[[1255,1636],[7,35],[17,17]],[[1338,1053],[-37,-41],[-12,-24],[-9,-124]],[[1280,863],[3,-104]],[[1281,864],[9,127],[49,61]],[[1283,759],[-2,104]],[[1281,1689],[109,89],[49,88],[63,199]],[[1501,2065],[-111,-287],[-107,-87]],[[1376,1301],[-6,-25],[-2,-9],[0,-13],[0,-10],[20,-109],[-48,-80]],[[1341,1054],[41,58],[5,19],[2,9],[-12,161]],[[1551,2182],[-49,-116]],[[1502,2066],[50,114]],[[1564,2374],[-2,17]],[[1562,2391],[-1,9],[-5,40],[-3,89],[2,7],[7,16]],[[1562,2552],[1,2],[5,7]],[[1716,2976],[8,-282],[-140,-113],[-11,-11],[-11,-18]],[[1562,2552],[-4,-6],[-2,-7],[-5,-16],[-2,-10],[6,-70],[5,-36],[2,-16]],[[1562,2391],[2,-17]],[[1574,2570],[137,101],[13,23],[11,52],[-13,205],[-9,41],[-4,28]],[[1709,3020],[-20,133],[1,7],[0,2]],[[1690,3162],[2,10],[2,11]],[[1694,3185],[-4,-21],[0,-2]],[[1690,3162],[19,-142]],[[1709,3020],[3,-28],[3,-14]],[[1807,4096],[4,-8],[2,-31]],[[1813,4057],[1,-19],[-52,-123]],[[1762,3915],[-1,-2],[-3,-29],[0,-30],[6,-33],[18,-74],[2,-72],[5,-35],[-45,-142],[-49,-309]],[[1695,3188],[49,310],[47,123],[-8,125],[-24,143],[1,10],[2,16]],[[1762,3915],[0,2],[2,9],[49,131]],[[1813,4057],[4,10],[-2,10],[-4,11],[-4,8]],[[1900,508],[-4,-1]],[[2884,2350],[49,-46]],[[2955,2284]],[[2955,2284]],[[2955,2284],[15,-11]],[[3460,1611],[56,-91]],[[3520,1513],[25,-42]],[[3543,1467],[-6,-24]],[[3543,1467],[2,1]],[[3544,1469],[-1,-2]],[[3545,1471],[0,-2]],[[3545,1469],[0,2]],[[3614,600],[-11,-18]],[[3652,706],[3,-42]],[[3678,466],[31,-47]],[[3544,1469],[0,-1],[1,1]],[[3545,1469],[-1,0]],[[1257,1187],[-2,-20]],[[4038,558],[-55,61],[-44,-14]],[[732,4096],[234,-592]],[[1008,2954],[89,-156],[44,-168],[-69,-192],[20,-112],[-37,-181],[34,-193]],[[1025,3300],[21,-157],[-31,-186]],[[1089,1952],[1,-2]],[[1090,1950],[-1,2]],[[1090,1949],[1,-2]],[[1091,1947],[0,2]],[[1091,1947],[50,-152]],[[1141,1795],[0,-1]],[[1141,1794],[1,0]],[[1141,1794],[46,-231],[73,-139]],[[1264,1417],[7,-13]],[[1091,1950],[-1,0],[0,-1],[1,0],[0,1]],[[4028,3293],[-19,-20]],[[1951,513],[2,1]],[[1952,515],[-1,-2]],[[1951,513],[6,-48]],[[1738,2377],[33,1]],[[177,165],[37,-4],[43,66],[104,49],[68,65],[104,265],[-33,19],[69,34],[16,91],[80,51],[104,196],[133,153]],[[921,1167],[228,117]],[[1149,1284],[1,1]],[[1150,1285],[-1,-1]],[[1154,1286],[-2,0]],[[1152,1285],[2,1]],[[1169,1289],[-15,-3]],[[1309,1439],[-42,-48]],[[1309,1439],[2,0]],[[1310,1440],[-1,-1]],[[1314,1442],[-2,-1]],[[1313,1441],[1,1]],[[1604,2103],[-121,-271],[-33,-263],[-136,-127]],[[1851,3039],[-98,-264],[15,-173],[-23,-79]],[[1878,3542],[-54,-390]],[[1835,4096],[2,0]],[[1836,4095],[1,-2]],[[1837,4093],[0,2]],[[1837,4093],[39,-107]],[[1845,3697],[7,-14]],[[1877,3546],[1,-4]],[[1879,3552],[-1,-4]],[[1878,3548],[-1,-1],[2,-1],[0,2],[-1,0]],[[1878,3542],[1,4]],[[1883,3632],[-4,-80]],[[1879,3548],[0,4]],[[1312,1439],[1,2],[-2,0],[0,-2]],[[1311,1439],[1,0]],[[4058,3498],[-100,-43]],[[4058,3498],[2,1]],[[4059,3499],[-1,-1]],[[4062,3501],[-2,-1]],[[4060,3499],[3,2]],[[3958,3454],[0,1],[-1,0],[0,-1],[1,0]],[[4060,3500],[-1,-1],[1,0],[0,1]],[[4084,3531],[11,-27]],[[1203,1001],[0,-2]],[[1212,1050],[-9,-49]],[[1204,999],[-1,2]],[[1203,999],[-1,-1],[2,0],[0,1],[-1,0]],[[3032,212],[-79,-51],[-398,59]],[[3670,475],[-192,-135],[-32,-55],[42,-110],[-87,-16],[-141,74],[-173,-18]],[[1941,452],[-2,1]],[[2088,3091],[-48,41]],[[3986,3223],[-139,-302],[-127,-143]],[[1150,1285],[2,-1],[0,2],[-1,0],[-1,-1]],[[1263,1681],[-1,0]],[[2963,437]],[[2963,437]],[[3192,598],[-2,0]],[[1264,1680],[0,1],[-1,0],[0,-1],[1,0]],[[2963,437]],[[2963,437]],[[4055,3363],[20,46]],[[1890,478]],[[1920,389],[4,7]],[[1993,3532],[5,14]],[[1924,396],[7,11]],[[1946,447],[-4,5]],[[4095,3524],[-9,-10]],[[4086,3513],[9,-8]],[[1890,478]],[[1890,478],[11,30]],[[1939,453],[-43,7]],[[2031,3629],[2,8]],[[4092,3571],[1,-2]],[[2058,4084],[-15,-60]],[[3745,4096],[6,-7]],[[3751,4089],[-5,7]],[[3897,3695],[-5,-38]],[[3893,3655],[5,40]],[[2954,2284]],[[1927,374],[-1,-3]],[[1982,603],[-1,-1]],[[1982,603],[1,1]],[[1983,604],[-1,-1]],[[1983,604],[1,0],[0,1],[-1,0],[0,-1]],[[1984,607],[-1,-2]],[[2003,656],[-19,-49]],[[1984,605],[0,2]],[[2050,3771],[-11,-88]],[[2039,2014],[12,-45]],[[1953,514],[1,0]],[[1954,514],[-1,1]],[[1968,516],[-14,-2]],[[1968,516],[1,0]],[[1969,517],[-1,-1]],[[1971,517],[-1,0]],[[1970,517],[1,0]],[[1971,517],[28,3]],[[1969,517],[0,-1]],[[1969,516],[1,0],[0,1]],[[1970,517],[-1,0]],[[3258,2179],[-18,-27]],[[3720,2778],[-150,-419],[-104,-76]],[[1237,1105],[-9,-11]],[[1237,1105],[1,1]],[[1237,1106],[0,-1]],[[1238,1108],[-1,-1]],[[1238,1107],[0,1]],[[1239,1109],[-1,-1]],[[1238,1106],[0,1],[-1,0],[0,-1],[1,0]],[[1852,3039],[11,-1]],[[1863,3038],[-11,2]],[[1884,3091],[-21,-53]],[[1912,3136],[-19,-19]],[[2006,3160],[-11,0]],[[2050,3140]],[[2087,3124],[-26,12]],[[2118,3099],[-4,2]],[[2547,3104],[-130,-32],[-197,-4],[-91,24]],[[3261,3343],[-314,-73],[-220,-84]],[[3933,3453],[-175,2],[-496,-111]],[[3933,3453],[13,1]],[[3945,3454],[-12,-1]],[[4096,2612],[-31,-20]],[[2087,2885],[33,7]],[[4081,3580],[12,-11]],[[4095,3563],[0,2]],[[4095,3481],[-14,-48]],[[4096,3486],[-1,-3]],[[2727,3186],[-180,-82]],[[3262,3344],[-1,-1]],[[72,140],[16,6]],[[4086,3514],[0,-1]],[[3675,4081],[41,-41]],[[0,4072],[32,24]],[[31,4096],[-20,-11],[-11,-8]],[[1839,1970],[0,-1]],[[1839,1969],[0,1]],[[1876,1943],[-1,0]],[[3660,4096],[2,-2]],[[3662,4094],[4,-4]],[[3666,4090],[9,-9]],[[3466,2283],[-208,-104]],[[4070,3504],[-8,-3]],[[4063,3501],[7,3]],[[4086,3513],[-16,-9]],[[1615,235],[-12,-52],[-151,-86],[-31,-44],[-3,-53]],[[1835,1914],[-2,-1]],[[1885,540],[-28,52],[1,281],[27,97],[-15,92]],[[1993,3532],[0,-1]],[[2127,2653],[3,0]],[[2096,2419],[-1,0]],[[2095,2419],[1,0]],[[2096,2419],[9,2]],[[3643,843],[-1,-1],[0,-1],[1,1],[0,1]],[[1738,2377]],[[3109,2171],[-45,-11],[-165,-138],[-31,-69]],[[1247,1292],[-78,-3]],[[1249,1295],[-1,-1]],[[1248,1294],[-1,-2],[1,-1],[1,1],[-1,2]],[[1248,1293],[1,2]],[[1250,1301],[-1,-6]],[[1250,1301],[9,37]],[[1256,1334],[-6,-33]],[[1258,1339],[-2,-5]],[[1258,1348],[-2,-14]],[[1258,1342],[0,6]],[[1258,1342],[0,-2]],[[1259,1340],[-1,2]],[[1258,1348],[9,43]],[[1259,1338],[1,1],[0,1],[-2,0],[1,-2]],[[1651,2256],[-47,-153]],[[1693,2323],[-41,-67]],[[1745,2523],[-9,-138]],[[1830,3759],[0,-2]],[[1837,3842],[-7,-83]],[[1831,3757],[-1,2]],[[1830,3755],[1,-2]],[[1831,3753],[0,2]],[[1831,3753],[14,-56]],[[1831,3755],[0,2],[-1,0],[0,-2],[1,0]],[[1837,3842],[1,2]],[[1837,3844],[0,-2]],[[1839,3847],[-1,-2]],[[1839,3845],[0,2]],[[1889,3919],[-50,-72]],[[1852,3683],[31,-51]],[[1876,3986],[14,-63]],[[1889,3919],[0,1]],[[1889,3920],[0,-1]],[[1890,3923],[-1,-1]],[[1889,3922],[-1,-2],[2,0],[0,1],[-1,1]],[[1890,3922],[0,1]],[[1837,3845],[1,-1],[1,0],[-1,1],[-1,0]],[[4095,3568],[0,-3]],[[2220,3068],[182,-186],[138,-58],[186,-259]],[[2970,2273],[140,-99]],[[3110,2174],[1,-2]],[[3111,2173],[-1,1]],[[3241,2150]],[[3241,2150]],[[3241,2150],[155,-350]],[[3537,1443],[68,-217],[23,-218],[-15,-75],[29,-88]],[[3603,582],[20,-34]],[[3631,625],[-17,-25]],[[3655,664],[-20,-32]],[[3642,845],[0,-2]],[[3643,843],[-1,2]],[[3642,841],[1,-2]],[[3643,839],[0,2]],[[3643,839],[9,-133]],[[3709,419],[6,-8]],[[3715,411],[5,-8]],[[3720,403],[2,-1]],[[3957,3455],[-12,-1]],[[3946,3454],[11,0]],[[3958,3454],[8,1]],[[1251,1136],[-12,-27]],[[2023,3502],[0,-2]],[[2042,3653],[-32,-87],[13,-64]],[[2023,3501],[0,1]],[[2023,3499],[1,-1]],[[2024,3498],[0,1]],[[2024,3498],[12,-127]],[[2036,3371],[-1,-1]],[[2036,3370],[0,1]],[[2043,3654],[-1,-1]],[[2043,3654],[-1,-1]],[[2042,3653],[2,0]],[[2024,3500],[-1,1],[0,-1],[1,-1]],[[2024,3499],[0,1]],[[1272,1405],[-2,-1]],[[1824,3575],[226,-86]],[[2050,3490],[-226,85]],[[4095,3567],[1,1]],[[3084,216],[0,1]],[[1150,1286],[-105,21],[-131,119],[-61,-16],[-56,87],[-98,75],[-143,31],[-245,312],[-48,8],[-145,191],[-118,299]],[[1150,1286],[0,-1]],[[1151,1286],[-1,0]],[[2968,2273],[-15,10]],[[1836,1487],[-4,5]],[[1260,1424],[4,-7]],[[1870,1062],[-61,126],[-12,185],[39,114]],[[4096,514],[-58,44]],[[4095,3568]],[[2156,2708],[23,-3]],[[4062,3702],[-51,-29]],[[4095,3568],[0,-1]],[[2836,1915],[-93,-36]],[[2836,1915],[1,0],[-1,0]],[[2866,1950],[-29,-35]],[[1853,3088],[2,-33]],[[2094,2419],[0,-1]],[[2095,2419]],[[4065,2591],[-71,-38]],[[902,1150],[19,17]],[[1249,1292],[2,-1]],[[1251,1291],[-2,1]],[[1251,1291],[4,-42]],[[1255,1247],[0,-28]],[[1255,1212],[3,-11]],[[1573,2234],[-22,-52]],[[1552,2180],[25,64],[0,1]],[[1577,2245],[-13,129]],[[1564,2374],[16,-119]],[[1579,2251],[-2,-6]],[[1577,2245],[-2,-6]],[[2011,544],[-13,28]],[[2026,479],[0,1]],[[4096,3713],[-34,-11]],[[894,82],[1,-3]],[[895,79],[0,3]],[[895,152],[2,5]],[[898,62],[-1,1]],[[906,171],[-2,-2]],[[911,176],[-2,-2]],[[909,174],[2,2]],[[936,203],[-3,-3]],[[933,200],[1,1]],[[982,251],[3,4]],[[994,265],[-1,-1]],[[993,263],[1,1]],[[1005,276],[-3,-3]],[[1017,289],[-2,-1]],[[1015,287],[2,2]],[[1024,296],[3,3]],[[1026,300],[-1,-1]],[[1040,315],[-1,-1]],[[1189,483],[3,3]],[[1191,486],[-1,-1]],[[1199,498],[-2,-4]],[[1203,507],[2,7]],[[1223,576],[-1,-2]],[[1223,574],[0,2]],[[1260,676],[-1,-1]],[[1260,675],[0,1]],[[1283,1691],[-4,-3]],[[1279,1688],[2,1]],[[1280,864],[0,-1]],[[1281,863],[0,1]],[[1283,759],[-1,-1]],[[1283,758],[0,1]],[[1340,1055],[-2,-2]],[[1339,1052],[2,2]],[[1377,1304],[-1,-3]],[[1377,1301],[1,3]],[[1502,2066],[-1,-1]],[[1502,2065],[0,1]],[[1568,2561],[6,9]],[[1695,3189],[-1,-4]],[[1694,3183],[1,5]],[[1715,2978],[1,-2]],[[2933,2304],[19,-18]],[[2952,2286],[2,-2]],[[2954,2285],[-2,1]],[[2955,2285],[-1,0],[0,-1],[1,0],[0,1]],[[1995,3159],[-46,85]],[[4009,3273]],[[4025,3296],[30,67]],[[1852,3039]],[[1852,3040],[1,3]],[[1885,3101],[-1,-10]],[[1885,3102],[0,-1]],[[1885,3101],[1,1]],[[1886,3105],[0,-2]],[[1886,3103],[0,2]],[[1893,3117],[-7,-12]],[[2050,3140],[-44,20]],[[2061,3136],[-11,4]],[[2106,3108],[-19,16]],[[2106,3108],[2,-2]],[[2108,3107],[-2,1]],[[2109,3105],[1,-2]],[[2110,3103],[-1,2]],[[2114,3101],[-4,2]],[[2129,3092],[-11,7]],[[1885,3103],[1,-1],[0,1],[-1,0]],[[4070,3591],[11,-11]],[[4091,3550],[-7,-19]],[[4093,3569],[2,-7]],[[4095,3568],[-2,1]],[[4095,3565],[0,2]],[[4095,3565]],[[741,2876],[-185,-162],[-88,-129],[-113,-44],[-187,-159],[-112,6],[-56,-27]],[[1008,2954],[-249,-60]],[[1705,3178],[-154,35],[-77,-72],[-161,-82],[-53,19],[-138,-107],[-107,-14]],[[1705,3178],[1,-2]],[[1707,3176],[-2,2]],[[1707,3176],[-1,0],[0,-1],[1,0],[0,1]],[[1709,3175],[-2,1]],[[1707,3175],[2,0]],[[1794,3136],[-85,39]],[[2161,4096],[-9,-80]],[[4065,2592],[0,-1]],[[0,4042],[39,54]],[[1858,1925],[-23,-11]],[[1918,387],[2,2]],[[2058,4084],[-20,4]],[[2108,2454],[0,-1]],[[4095,3568]],[[4068,3593],[2,-2]],[[4095,3483],[0,-2]],[[3083,218],[-1,2]],[[3083,218],[1,-2]],[[3084,217],[-1,1]],[[2108,3105],[1,1],[0,1],[-1,-1],[0,-1]],[[4009,3273],[-23,-50]],[[966,3504],[7,-16]],[[975,3482],[50,-182]],[[974,3484],[1,-2]],[[1,77],[71,63]],[[3520,1513],[-4,7]],[[0,76],[1,1]],[[2081,2876],[6,9]],[[2131,2636],[-4,17]],[[3082,220],[-50,-8]],[[3697,845],[53,4],[230,-91],[42,18],[74,-36]],[[3672,476],[-2,-1]],[[3678,477],[131,17],[120,77],[10,34]],[[1839,1971],[0,-1]],[[1839,1969],[1,0]],[[1839,1970],[0,1]],[[1840,1969],[-1,0]],[[2093,2418],[-148,-32],[-162,-178],[34,-74],[22,-163]],[[1840,1969],[33,-25]],[[2093,2418],[1,0]],[[2094,2419],[-1,-1]],[[3732,389],[94,-116]],[[1929,381],[-2,-7]],[[1929,381],[1,1]],[[1929,383],[0,-2]],[[1931,384],[-1,-1]],[[1930,383],[1,1]],[[1957,465],[8,-57],[-34,-24]],[[1954,516],[-1,-1]],[[1953,515],[1,1]],[[1981,602],[-27,-86]],[[2022,1892],[-7,-14]],[[2051,1969],[-16,-72]],[[2107,3104],[-2,-21]],[[2107,3104],[1,1]],[[2108,3105],[-1,-1]],[[2108,3115],[1,-7]],[[2109,3108],[-1,-1]],[[2109,3106],[0,2]],[[1929,383],[1,-1],[0,1],[-1,0]],[[4081,3433],[-6,-24]],[[3936,2649],[-216,129]],[[2095,2419],[-1,0]],[[2094,2418],[1,1]],[[2202,2318],[-34,-10],[-64,82]],[[2120,2892],[35,-184]],[[2151,2625],[-18,9]],[[2968,2273],[141,-103],[131,-18]],[[1254,1248],[1,-1],[1,1],[-1,1],[-1,-1]],[[4008,100],[-9,11]],[[4096,3571],[0,-1]],[[2105,3083],[-3,-45]],[[1953,515],[-1,0],[1,-1],[0,1]],[[4095,3504],[1,-1]],[[4093,3569],[1,0]],[[759,2894],[-18,-18]],[[4094,3569],[1,-1]],[[1260,1682],[-118,113]],[[3664,4093]],[[3665,4092]],[[3730,4026],[151,-152],[105,-159]],[[3945,39],[63,61]],[[1280,564],[1,1]],[[2901,2266],[-149,-245],[-242,-24],[-57,-80],[-101,-69],[-104,-1]],[[3936,2649],[2,3]],[[2155,2623],[19,9]],[[1963,469],[2,1]],[[1966,470],[1,1]],[[1575,2239],[-2,-5]],[[1580,2255],[-1,-4]],[[3396,1800],[64,-189]],[[3623,548],[55,-82]],[[3635,632],[-4,-7]],[[3751,4089],[5,-6],[22,-27]],[[3778,4056],[52,-66],[1,-3]],[[3831,3987],[36,-92],[30,-200]],[[3898,3695],[2,24],[-36,190],[-11,34],[-17,38],[-5,6]],[[3831,3987],[-53,69]],[[3778,4056],[-23,29],[-4,4]],[[3892,3657],[-8,-59],[-1,-13],[3,-11]],[[3886,3574],[28,-114]],[[3914,3460],[0,-2],[49,-81],[17,-24]],[[3980,3353],[41,-61]],[[4021,3292],[1,-2],[20,-18],[8,-6],[46,-30]],[[4096,3237],[-46,30],[-26,22],[-1,1],[-2,2]],[[4021,3292],[-5,5],[-36,56]],[[3980,3353],[-16,25],[-47,76],[-3,6]],[[3914,3460],[-2,3],[-4,8],[-22,103]],[[3886,3574],[-2,11],[9,70]],[[88,146],[45,13]],[[3112,2171],[2,1]],[[3114,2172],[-2,0]],[[3114,2172],[125,-21]],[[3240,2151],[-1,0]],[[3239,2151],[1,-1]],[[3240,2150],[1,0],[0,1],[-1,0],[0,-1]],[[3112,2172],[-1,0],[0,-1],[1,0],[0,1]],[[2248,1847],[54,84],[-14,67]],[[973,3488],[1,-4]],[[1901,508],[-16,32]],[[1876,1942],[-18,-17]],[[1992,1192],[-1,-2],[2,-1],[1,2],[-2,1]],[[1896,507],[-11,1]],[[1885,506],[22,-4]],[[1907,502],[-7,6]],[[1941,511],[-34,-9]],[[2025,471],[1,0]],[[2026,472],[-1,-1]],[[2027,471],[2,0]],[[2029,471],[-2,1]],[[2067,470],[-38,1]],[[2031,3931],[24,-75],[-50,-85],[31,-109]],[[3032,212]],[[3722,402],[4,-2]],[[3733,390],[-9,14]],[[3726,400],[6,-11]],[[133,159],[44,6]],[[4027,3627],[2,-3]],[[4029,3624],[-1,4]],[[4029,3624],[39,-31]],[[4027,3629],[0,-1],[1,-1],[0,1],[-1,1]],[[2094,2418],[1,-1]],[[2095,2417],[0,1]],[[2095,2417],[9,-27]],[[1855,507],[-158,11],[-144,43],[-69,-37],[-205,41]],[[1885,508],[-30,-1]],[[1855,507],[30,-1]],[[2514,519],[-157,-46],[-290,-3]],[[2515,519],[0,1],[-1,-1],[0,-1],[1,1]],[[2963,437],[-129,32],[-79,-14],[-97,52],[-143,12]],[[3177,590],[-213,-153]],[[3639,842],[-94,-2],[-368,-250]],[[3642,842],[-3,0]],[[3639,842],[3,-1]],[[3646,842],[-3,0]],[[3643,841],[3,1]],[[4096,740],[-86,32],[-30,-14],[-230,92],[-104,-8]],[[2726,2565],[155,-211]],[[2102,3038],[6,-32]],[[762,2898],[-69,48],[-142,258],[-74,29],[-53,100],[-219,147],[-205,89]],[[2155,2623],[-4,2]],[[3949,161],[50,-50]],[[1202,996],[1,2]],[[1202,998],[0,-2]],[[1202,996],[-28,-106],[9,-149],[95,-174]],[[1219,1091],[-7,-41]],[[1219,1091],[0,1]],[[1219,1092],[0,-1]],[[1280,562],[12,-259],[103,-198],[-31,-105]],[[1278,567],[0,-2]],[[1279,565],[-1,2]],[[1279,563],[1,-1]],[[1280,562],[-1,2]],[[1279,565],[-1,0]],[[1278,565],[0,-1],[1,0]],[[1279,564],[0,1]],[[1015,2957],[-7,-3]],[[1875,1943],[1,0]],[[1896,460],[-6,18]],[[1993,3531],[-9,-28]],[[1998,3546],[33,83]],[[2033,3637],[5,18]],[[2130,2653],[-69,169],[6,45]],[[2105,2421],[3,32]],[[2108,3006],[12,-114]],[[2131,2636],[-23,-182]],[[1926,371],[-79,-371]],[[2015,1878],[-6,-86],[-51,-42],[-33,-278],[2,-105],[49,-67],[15,-107]],[[1991,1193],[1,-2]],[[1992,1192],[-1,1]],[[1993,1189],[1,-1]],[[1994,1188],[0,2]],[[1994,1188],[84,-253],[-75,-279]],[[2029,1895],[-7,-3]],[[2029,1895],[2,1]],[[2031,1896],[-2,-1]],[[2033,1897],[-1,-1]],[[2032,1896],[1,1]],[[2035,1897],[-2,0]],[[2039,3683],[27,-108],[-33,-204]],[[2033,3371],[1,-1]],[[2035,3370],[-2,1]],[[2035,3369],[2,-1]],[[2037,3368],[-1,1]],[[2037,3368],[73,-109],[-2,-144]],[[2105,2387],[-84,-245],[18,-128]],[[2152,4016],[-59,-204],[-43,-41]],[[2108,3006],[48,-378],[-62,-208]],[[2094,2420],[0,-1]],[[2094,2419],[0,1]],[[2105,2390],[-1,1]],[[2104,2388],[1,-1]],[[2105,2387],[0,1]],[[2031,1895],[1,1]],[[2032,1896],[-1,0]],[[2031,1896],[0,-1]],[[2035,3370],[-1,-1],[1,0],[1,0]],[[2036,3369],[-1,1]],[[2104,2389],[0,-1],[1,0]],[[2105,2388],[0,2],[-1,-1]],[[1220,1092],[1,0]],[[1221,1092],[-1,1]],[[1228,1094],[-7,-2]],[[1219,1092],[1,1],[-1,0],[0,-1]],[[1999,520],[19,2]],[[2020,523],[-2,-1]],[[2018,522],[2,0]],[[3861,231],[88,-70]],[[2881,2354],[3,-4]],[[1,75],[-1,1]],[[1760,323],[-38,-34],[-88,-11],[-19,-43]],[[1832,1492],[71,116],[-70,305]],[[1949,3244],[-42,13],[-16,40],[93,206]],[[2043,4024],[-12,-93]],[[2038,3655],[-2,7]],[[2037,4096],[1,-8]],[[2067,2867],[14,9]],[[3907,0],[38,39]],[[2179,2705],[-5,-73]],[[1995,3160],[-83,-24]],[[4096,3570],[-1,-2]],[[4096,3568],[0,2]],[[1983,603],[1,-1]],[[1984,602],[0,2]],[[1998,572],[-14,30]],[[2021,523],[-10,21]],[[2020,522],[1,-1]],[[2021,521],[0,1]],[[2026,480],[-5,41]],[[2027,473],[-1,6]],[[2027,473],[-1,-1]],[[2027,472],[0,1]],[[2020,522],[1,0],[-1,1],[0,-1]],[[2026,471],[1,0],[0,1],[-1,-1]],[[1652,2256],[-1,0]],[[1736,2385],[-43,-62]],[[1824,3152],[29,-64]],[[1855,3055],[-4,-16]],[[1255,1163],[0,-1]],[[2743,1879],[-91,-181],[-84,-352],[-148,-151],[-129,-68],[-88,-116],[-125,-78]],[[2868,1953],[-2,-3]],[[3109,2171]],[[3109,2171],[2,0]],[[3111,2172],[-2,-1]],[[3240,2152],[0,-1]],[[3241,2151],[0,1]],[[4094,3379],[-66,-86]],[[1255,1162],[-1,-2]],[[1255,1167],[0,-4]],[[1275,1332],[33,-23],[227,-33],[129,-86],[326,0]],[[1991,1191],[-1,-1]],[[1990,1190],[2,0]],[[4075,3409],[17,-31]],[[1951,515],[-10,-4]],[[1951,515],[1,0]],[[1952,515],[-1,0]],[[1957,465],[8,5]],[[1966,471],[-1,-1]],[[2024,471],[-58,0]],[[2025,471],[-1,0]],[[2024,471],[1,0]],[[1247,1293],[-2,0]],[[1931,407],[15,40]],[[1942,452],[-1,0]],[[0,74],[1,3]],[[2040,3132],[-45,27]],[[2105,3083],[-17,8]],[[2500,0],[57,89],[-2,131]],[[3826,273],[35,-42]],[[1813,3856],[22,-11]],[[1835,3845],[2,-1]],[[1837,3845],[-2,0]],[[3994,2553]],[[3716,4040],[14,-14]],[[3986,3715],[41,-82]],[[4027,3633],[0,-5]],[[4028,3629],[-1,4]],[[4095,3568]],[[1254,1160],[-3,-20]],[[1258,1201],[-1,-14]],[[3994,2553],[-58,96]],[[4096,3526],[-1,-2]],[[4095,3505],[1,-1]],[[3678,477],[-6,-1]],[[1255,1219],[0,-7]],[[1584,4096],[229,-240]],[[1829,3135],[-35,1]],[[4009,3273],[16,23]],[[4096,2284],[0,-2284],[-4096,0],[0,4096],[4096,0],[0,-1812]],[[3309,2966],[108,103],[82,-9],[-29,79],[51,-43],[23,8],[-111,164],[83,-7],[66,-62],[39,12],[-1,-42],[-38,-28],[39,-2],[-29,-90],[14,-39],[37,-12],[-53,-90],[-42,-20],[-13,66],[-36,-28],[-2,-37],[-24,60],[-45,-42],[-51,58],[-68,1]],[[3203,3398],[29,34],[-6,34],[70,23],[-35,87],[60,23],[42,-45],[-22,-19],[37,-51],[-24,-17],[48,-17],[41,-56],[-182,-51],[-58,55]],[[2971,2884],[58,-4],[5,36],[25,-5],[0,21],[-46,10],[9,50],[51,-34],[-30,95],[18,63],[37,-23],[57,-132],[20,-22],[21,14],[21,-123],[-46,-76],[-21,9],[0,-22],[-56,-24],[-34,124],[-89,43]],[[4096,176],[0,-92],[-45,28],[43,-48],[2,-20],[-34,5],[-17,-37],[7,-12],[-16,0],[6,12],[-30,51],[-41,-38],[-28,15],[-15,18],[20,23],[-20,7],[-33,39],[10,12],[-45,19],[-25,68],[50,10],[105,82],[97,13],[9,-110],[-25,8],[0,-25],[25,-28]],[[3910,119],[7,-15],[9,6],[-6,12],[-10,-3]],[[3952,93],[5,-7],[25,-4],[-17,21],[-13,-10]],[[4087,0],[-20,0],[15,15],[5,-15]],[[36,0],[-36,0],[0,67],[23,-13],[13,-54]],[[1888,470],[66,52],[27,81],[31,-57],[-22,-42],[36,-24],[-4,-34],[-37,7],[24,-51],[-31,-32],[10,-24],[-38,38],[-1,-21],[-29,15],[21,86],[-53,6]],[[1134,1195],[56,-18],[24,43],[-17,27],[57,-20],[6,-80],[-38,-28],[-32,-133],[-11,2],[-13,41],[18,-29],[14,39],[-18,48],[28,8],[0,72],[-13,-17],[-61,45]],[[1607,2295],[24,-3],[-15,27],[33,6],[-18,22],[39,43],[16,-14],[-6,30],[41,-36],[10,26],[8,-19],[-38,-50],[-49,-26],[0,-45],[-45,39]],[[1364,1441],[70,87],[26,-1],[-8,30],[11,4],[39,-70],[-13,-29],[-58,8],[-49,-81],[-18,52]],[[1793,3136],[43,22],[-7,42],[66,-86],[27,-89],[-25,7],[-10,65],[-41,-67],[-53,106]],[[1826,3146],[6,-11],[3,1],[-6,13],[-3,-3]],[[4005,3559],[63,34],[-7,24],[23,-4],[11,27],[0,-159],[-58,35],[25,27],[-57,16]],[[1829,3814],[28,55],[36,-4],[-23,21],[15,20],[4,0],[2,-22],[2,-8],[2,-5],[2,-2],[31,31],[-26,-74],[53,-87],[-105,8],[-11,53],[46,-34],[14,61],[-25,-42],[-45,29]],[[900,3522],[17,14],[51,-33],[25,17],[43,-101],[-31,-16],[4,-31],[23,4],[28,-64],[-78,-27],[18,99],[-16,-4],[-52,125],[-15,-11],[-17,28]],[[20,0],[-20,0],[0,239],[72,17],[-3,-25],[36,-22],[-33,-47],[0,-94],[-32,0],[-20,-68]],[[1334,1103],[-186,12],[-40,35],[12,99],[104,85],[13,99],[26,-10],[15,-119],[59,-103],[-3,-98]],[[3987,1957],[-65,40],[28,120],[76,69],[70,17],[0,-141],[-53,-75],[-56,-30]],[[2078,1904],[-65,-1],[6,86],[35,44],[122,12],[-54,-110],[-44,-31]],[[1813,2433],[-58,-106],[32,-188],[-99,-66],[-94,34],[-63,109],[-3,158],[130,0],[60,154],[69,-13],[-3,-24],[35,-23],[-6,-35]],[[4096,3796],[-15,17],[-94,-27],[69,113],[40,-7],[0,-96]],[[3728,4021],[-40,35],[-21,40],[86,0],[-25,-75]],[[4096,3380],[-44,-18],[0,47],[-103,35],[-52,139],[-7,109],[62,29],[144,-25],[0,-316]],[[1987,3589],[-135,56],[0,47],[-65,47],[8,80],[121,250],[148,-179],[-32,-260],[-45,-41]],[[4096,1481],[-109,-1],[-4,76],[101,65],[0,47],[12,-187]],[[3664,1480],[-240,27],[-79,74],[-37,134],[97,94],[162,0],[129,48],[10,-83],[-74,-106],[32,-188]],[[4096,417],[0,-417],[-1,0],[-11,20],[-129,0],[-33,95],[-32,0],[0,47],[-64,47],[0,94],[-205,226],[10,104],[18,-6],[15,53],[29,-38],[338,16],[21,-25],[-16,-83],[-145,-106],[50,-45],[155,18]],[[1949,303],[-64,190],[-1,93],[130,76],[67,12],[62,-41],[6,-53],[-70,-42],[-33,-188],[-97,-47]],[[3497,0],[-10,0],[7,9],[3,-9]],[[3572,630],[41,-27],[13,-25],[44,18],[-30,137],[58,-133],[58,7],[-55,-11],[20,-13],[-30,-23],[26,-32],[-28,20],[-31,-33],[55,-102],[-141,217]],[[2962,971],[42,-17],[19,69],[84,-80],[-36,-37],[-21,16],[7,-22],[-22,26],[-39,-13],[-17,-33],[-10,22],[27,33],[-34,36]],[[3413,1482],[8,33],[20,15],[12,-22],[20,29],[-14,77],[70,-48],[16,-33],[-21,-19],[42,-35],[-35,-43],[-32,33],[-26,-13],[-7,35],[-53,-9]],[[2720,1909],[57,-10],[-16,45],[49,38],[12,-29],[45,-3],[-16,-44],[18,-34],[-56,-26],[-32,44],[-35,-15],[-26,34]],[[1956,1919],[11,19],[42,-10],[35,44],[64,-24],[-12,-68],[-26,16],[-19,-17],[-33,37],[6,-36],[-38,-10],[-30,49]],[[2869,2342],[65,63],[14,-55],[34,-12],[-36,-40],[29,-22],[-65,-32],[-41,98]],[[1995,3159],[14,1],[36,-9],[5,-11],[6,6],[14,-31],[31,17],[15,-34],[17,8],[-21,-69],[-25,2],[-92,120]],[[1505,4096],[16,-25],[-24,-13],[-44,38],[52,0]],[[1929,4096],[2,-35],[-4,-1],[-16,36],[18,0]],[[2543,3110],[20,14],[-16,32],[24,109],[41,24],[-51,72],[3,47],[90,52],[133,-246],[-68,-32],[-46,-98],[48,-47],[-4,-50],[33,-6],[2,-54],[-71,-257],[-18,1],[-8,77],[-50,76],[8,76],[-27,19],[11,56],[-24,45],[16,21],[-46,69]],[[2681,4096],[-73,-70],[13,-159],[68,-122],[-118,-32],[-84,91],[22,40],[-39,124],[23,53],[34,6],[22,48],[-15,21],[147,0]]]}