{"objects":{"water":{"type":"GeometryCollection","geometries":[{"type":"Polygon","properties":{"source":"naturalearthdata.com","kind":"ocean","area":1576712559132672,"sort_rank":200,"min_zoom":0.0,"id":1},"arcs":[[33],[34]]},{"type":"MultiLineString","properties":{"source":"naturalearthdata.com","kind":"ocean","sort_rank":205,"boundary":true,"min_zoom":0.0,"id":19},"arcs":[[35],[36],[37]]}]},"buildings":{"type":"GeometryCollection","geometries":[]},"places":{"type":"GeometryCollection","geometries":[{"type":"Point","properties":{"name:az":"Vlyora","name:ja":"\u30f4\u30ed\u30e9","name:el":"\u0391\u03c5\u03bb\u03ce\u03bd\u03b1","min_zoom":8.0,"name:it":"Valona","name:be":"\u0412\u043b\u0451\u0440\u0430","name:ru":"\u0412\u043b\u0451\u0440\u0430","name:pl":"Wlora","name:bg":"\u0412\u043b\u044c\u043e\u0440\u0430","id":33208756,"name:mk":"\u0412\u0430\u043b\u043e\u043d\u0430","population":124000,"name:fa":"\u0648\u0650\u0644\u0648\u0631\u0647","kind":"locality","name:en":"Vlora","name":"Vlor\u00eb","kind_detail":"city","name:de":"Vlora","source":"openstreetmap.org","name:fr":"Vlora","name:zh":"\u53d1\u7f57\u62c9"},"coordinates":[3503,2143]},{"type":"Point","properties":{"name:el":"\u03a6\u03af\u03b5\u03c1\u03b9","kind":"locality","name":"Fier","kind_detail":"city","source":"openstreetmap.org","min_zoom":8.0,"old_name":"Fieri","name:ru":"\u0424\u0438\u0435\u0440\u0438","name:be":"\u0424\u0456\u0435\u0440","name:bg":"\u0424\u0438\u0435\u0440","id":33208686,"population":60000},"coordinates":[3719,3121]},{"type":"Point","properties":{"kind":"locality","name":"Patos","kind_detail":"town","source":"openstreetmap.org","min_zoom":8.0,"name:ru":"\u041f\u0430\u0442\u043e\u0441","id":728418395,"population":23626},"coordinates":[3888,2965]},{"type":"Point","properties":{"source":"openstreetmap.org","kind":"locality","name":"Tricase","kind_detail":"town","population":17581,"min_zoom":8.0,"id":68529578},"coordinates":[216,79]},{"type":"Point","properties":{"source":"openstreetmap.org","kind":"locality","name":"Maglie","kind_detail":"town","population":14418,"min_zoom":8.0,"id":68529714},"coordinates":[51,799]},{"type":"Point","properties":{"kind":"locality","name":"Selenic\u00eb","kind_detail":"town","source":"openstreetmap.org","min_zoom":8.0,"name:ru":"\u0421\u0435\u043b\u0435\u043d\u0438\u0446\u0430","id":728424474,"population":2235},"coordinates":[3947,2378]}]},"transit":{"type":"GeometryCollection","geometries":[{"type":"LineString","properties":{"kind":"train","name":"Ferrovia Maglie-Gagliano del Capo","sort_rank":275,"source":"openstreetmap.org","min_zoom":6.0,"operator":"FSE","id":-2197165,"osm_relation":true},"arcs":[20]},{"type":"MultiLineString","properties":{"kind":"train","name":"7 Maglie","service":"regional","sort_rank":275,"source":"openstreetmap.org","min_zoom":6.0,"operator":"FSE","ref":"7","osm_relation":true},"arcs":[[21],[22],[23],[24],[25],[26]]},{"type":"MultiLineString","properties":{"kind":"train","name":"7 Otranto","service":"regional","sort_rank":275,"source":"openstreetmap.org","min_zoom":6.0,"operator":"FSE","ref":"7","osm_relation":true},"arcs":[[27],[28],[29],[30],[31],[32]]}]},"pois":{"type":"GeometryCollection","geometries":[{"type":"Point","properties":{"kind":"nature_reserve","protect_class":"4","area":294498000,"source":"openstreetmap.org","min_zoom":8.19,"tier":2,"id":-7714730,"osm_relation":true,"name":"Rezervati Natyror i Menaxhuar \"Karaburun\""},"coordinates":[3288,1515]},{"type":"Point","properties":{"kind":"national_park","protect_class":"2","area":166809000,"source":"openstreetmap.org","min_zoom":7.1,"tier":1,"id":-7712363,"osm_relation":true,"name":"Karaburun-Sazan Marine National Park"},"coordinates":[3147,1519]},{"type":"Point","properties":{"kind":"national_park","name:en":"Llogara National Park","protect_class":"2","area":17336600,"min_zoom":8.73,"name:de":"Nationalpark Llogara","source":"openstreetmap.org","name:fr":"Parc national Llogara","tier":1,"id":359638411,"name:es":"Parque nacional de Llogara","name":"Parku Komb\u00ebtar i Llogaras\u00eb"},"coordinates":[3770,1162]},{"type":"Point","properties":{"kind":"national_park","name:en":"Divjaka-Karavasta National Park","protect_class":"2","area":381946000,"source":"openstreetmap.org","min_zoom":6.5,"tier":1,"id":503885261,"name":"Parku Komb\u00ebtar Divjak\u00eb-Karavasta"},"coordinates":[3563,3932]},{"type":"Point","properties":{"kind":"national_park","name:en":"Karaburun-Sazan National Marine Park","protect_class":"2","area":46694300,"source":"openstreetmap.org","min_zoom":8.02,"tier":1,"id":506133765,"name":"Parku Komb\u00ebtar Detar Karaburun-Sazan"},"coordinates":[2840,2238]},{"type":"Point","properties":{"kind":"nature_reserve","protect_class":"5","area":342510000,"source":"openstreetmap.org","min_zoom":8.08,"tier":2,"id":538747200,"name":"Peisazh i Mbrojtur Vjos\u00eb-Nart\u00eb"},"coordinates":[3366,2548]}]},"boundaries":{"type":"GeometryCollection","geometries":[{"type":"LineString","properties":{"name:ty":"\u2019It\u0101ria","name:ka":"\u10d8\u10e2\u10d0\u10da\u10d8\u10d0","name:ko":"\uc774\ud0c8\ub9ac\uc544","name:cv":"\u0418\u0442\u0430\u043b\u0438","name:cu":"\u0418\u0442\u0430\u043b\u0457\ua657","name:cs":"It\u00e1lie","name:cr":"\u1403\u1455\u14d6","name:tt":"\u0418\u0442\u0430\u043b\u0438\u044f","name:kw":"Itali","name:kv":"\u0418\u0442\u0430\u043b\u0438\u044f","name:th":"\u0e1b\u0e23\u0e30\u0e40\u0e17\u0e28\u0e2d\u0e34\u0e15\u0e32\u0e25\u0e35","alt_name:cs":"\u0160v\u00fdcarsk\u00e1 konfederace","name:tl":"Italya","name:ce":"\u0418\u0442\u0430\u043b\u0438","name:ta":"\u0b87\u0ba4\u0bcd\u0ba4\u0bbe\u0bb2\u0bbf","name:tg":"\u0418\u0442\u043e\u043b\u0438\u0451","name:ca":"It\u00e0lia","name:te":"\u0c07\u0c1f\u0c32\u0c40","name:cy":"Yr Eidal","name:qu":"Italya","name:da":"Italien","name:de":"Italien","name:dz":"\u0f68\u0f80\u0f4a\u0f0b\u0f63\u0f72\u0f0b","source":"openstreetmap.org","name:kn":"\u0c87\u0c9f\u0cb2\u0cbf","name:dv":"\u0787\u07a8\u0793\u07a6\u078d\u07a9\u0788\u07a8\u078d\u07a7\u078c\u07b0","name:km":"\u17a2\u17ca\u17b8\u178f\u17b6\u179b\u17b8","name:lv":"It\u0101lija","name:lt":"Italija","name:uz":"Italiya","name:kk":"\u0418\u0442\u0430\u043b\u0438\u044f","name:tw":"Italy","name:lb":"Italien","name:lg":"Yitale","name:uk":"\u0406\u0442\u0430\u043b\u0456\u044f","name:ug":"\u0626\u0649\u062a\u0627\u0644\u0649\u064a\u06d5","name:li":"Itali\u00eb","name:ln":"Italya","name:lo":"\u0ead\u0eb4\u0e95\u0eb2\u0ea5\u0eb5","name:el":"\u0399\u03c4\u03b1\u03bb\u03af\u03b1","name:eo":"Italujo","name:en":"Italy","name":"Italia","name:tk":"Itali\u00fda","name:ee":"Italy","name:ku":"\u00cetalya","name:et":"Itaalia","name:ay":"Italiya","name:az":"\u0130taliya","name:as":"\u0987\u099f\u09be\u09b2\u09c0","name:ar":"\u0625\u064a\u0637\u0627\u0644\u064a\u0627","name:ak":"Italy","name:am":"\u1323\u120d\u12eb\u1295","name:ru":"\u0418\u0442\u0430\u043b\u0438\u044f","name:ab":"\u0418\u0442\u0430\u043b\u0438\u0430","name:af":"Itali\u00eb","name:zu":"ITaliya","kind_detail":"2","name:ky":"\u0418\u0442\u0430\u043b\u0438\u044f","name:zh-yue":"\u610f\u5927\u5229","name:zh":"\u610f\u5927\u5229","name:so":"Talyaaniga","name:sl":"Italija","name:sk":"Taliansko","name:ja":"\u30a4\u30bf\u30ea\u30a2","name:sh":"Italija","name:sg":"Ital\u00f9ii","name:se":"It\u00e1lia","name:sc":"It\u00e0lia","name:sa":"\u0907\u091f\u0932\u0940","name:bs":"Italija","name:bn":"\u0987\u09a4\u09be\u09b2\u09bf","name:bo":"\u0f68\u0f72\u0f0b\u0f4f\u0f0b\u0f63\u0f72\u0f0d","name:bi":"Itali","name:be":"\u0406\u0442\u0430\u043b\u0456\u044f","name:bg":"\u0418\u0442\u0430\u043b\u0438\u044f","name:ss":"INtaliyane","name:ba":"\u0418\u0442\u0430\u043b\u0438\u044f","osm_relation":true,"name:pt":"It\u00e1lia","name:ps":"\u0627\u06d0\u067c\u0627\u0644\u064a\u0627","name:oc":"It\u00e0lia","min_zoom":8.0,"name:pa":"\u0a07\u0a1f\u0a32\u0a40","name:os":"\u0418\u0442\u0430\u043b\u0438","name:or":"\u0b07\u0b1f\u0b3e\u0b32\u0b40","name:pl":"W\u0142ochy","sort_rank":262,"name:sr":"\u0418\u0442\u0430\u043b\u0438\u0458\u0430","name:tr":"\u0130talya","name:hi":"\u0907\u091f\u0932\u0940","name:sv":"Italien","name:he":"\u05d0\u05d9\u05d8\u05dc\u05d9\u05d4","name:hy":"\u053b\u057f\u0561\u056c\u056b\u0561","name:ht":"Itali","name:hu":"Olaszorsz\u00e1g","name:hr":"Italija","kind":"country","name:is":"\u00cdtal\u00eda","name:yi":"\u05d0\u05d9\u05d8\u05d0\u05dc\u05d9\u05e2","name:yo":"It\u00e1l\u00ed\u00e0","name:mt":"Italja","alt_name:eo":"Italio","name:ms":"Itali","name:mr":"\u0907\u091f\u0932\u0940","name:my":"\u1021\u102e\u1010\u101c\u102e\u1014\u102d\u102f\u1004\u103a\u1004\u1036","official_name":"Repubblica Italiana","name:ve":"Italy","name:vi":"\u00dd","name:ml":"\u0d07\u0d31\u0d4d\u0d31\u0d32\u0d3f","name:mn":"\u0418\u0442\u0430\u043b\u0438","name:mi":"It\u0101ria","id":-365331,"name:mk":"\u0418\u0442\u0430\u043b\u0438\u0458\u0430","name:vo":"Litaliy\u00e4n","name:fa":"\u0627\u06cc\u062a\u0627\u0644\u06cc\u0627","name:rw":"Ubutaliyani","name:ff":"Italiya","old_name:vi":"\u00dd \u0110\u1ea1i L\u1ee3i","alt_name:vi":"I-ta-li-a","name:fr":"Italie","name:fy":"Itaalje","name:nl":"Itali\u00eb","name:na":"Itari","name:ne":"\u0907\u091f\u093e\u0932\u0940","name:wa":"It\u00e5leye","name:ur":"\u0627\u0637\u0627\u0644\u06cc\u06c1","name:wo":"Itaali","name:nv":"\u00cddelii","name:ga":"An Iod\u00e1il","name:gd":"An Eadailt","name:gn":"It\u00e1lia","maritime_boundary":true,"name:gv":"Yn Iddaal","name:gu":"\u0a88\u0a9f\u0ab2\u0ac0"},"arcs":[0]},{"type":"LineString","properties":{"name:kg":"Gelesi","name:ka":"\u10e1\u10d0\u10d1\u10d4\u10e0\u10eb\u10dc\u10d4\u10d7\u10d8","name:ko":"\uadf8\ub9ac\uc2a4","name:cv":"\u0413\u0440\u0435\u0446\u0438","name:cu":"\u0413\u0440\u044c\u0446\u0438","name:kl":"Gr\u00e6kerit Nunaat","name:cs":"\u0158ecko","name:ki":"Ngiriki","name:co":"Grecia","name:kv":"\u042d\u043b\u043b\u0430\u0434\u0430","name:ku":"Yewnanistan","name:tl":"Gresya","name:ce":"\u0413\u0440\u0435\u0446\u0438","name:ta":"\u0b95\u0bbf\u0bb0\u0bc7\u0b95\u0bcd\u0b95 \u0ba8\u0bbe\u0b9f\u0bc1","name:tg":"\u042e\u043d\u043e\u043d","name:ca":"Gr\u00e8cia","name:te":"\u0c17\u0c4d\u0c30\u0c40\u0c38\u0c4d","name:cy":"Gwlad Groeg","name:qu":"Grisya","name:da":"Gr\u00e6kenland","name:de":"Griechenland","name:dz":"\u0f42\u0fb2\u0f80\u0f66","source":"openstreetmap.org","name:kn":"\u0c97\u0ccd\u0cb0\u0cc0\u0cb8\u0ccd","name:dv":"\u0794\u07ab\u0782\u07a7\u0782\u07b0","name:lv":"Grie\u0137ija","name:lt":"Graikija","name:uz":"Yunoniston","name:kk":"\u0413\u0440\u0435\u043a\u0438\u044f","name:ur":"\u06cc\u0648\u0646\u0627\u0646","name:lb":"Griicheland","name:la":"Graecia","name:lg":"Buyonaani","name:uk":"\u0413\u0440\u0435\u0446\u0456\u044f","name:ug":"Gr\u00e9tsiye","name:li":"Griekeland","name:ln":"Gresi","name:kw":"Pow Grek","name:eo":"Grekujo","name:en":"Greece","name":"\u0395\u03bb\u03bb\u03ac\u03b4\u03b1","name:tk":"Gresi\u00fda","name:ee":"Greece","name:th":"\u0e1b\u0e23\u0e30\u0e40\u0e17\u0e28\u0e01\u0e23\u0e35\u0e0b","name:eu":"Grezia","name:et":"Kreeka","name:es":"Grecia","name:ay":"Grisya","name:rm":"Grezia","name:rn":"Grecia","name:az":"Yunan\u0131stan","name:ie":"Grecia","name:id":"Yunani","name:ar":"\u0627\u0644\u064a\u0648\u0646\u0627\u0646","name:io":"Grekia","name:is":"Grikkland","name:am":"\u130d\u122a\u12ad","name:it":"Grecia","name:an":"Grecia","name:ru":"\u0413\u0440\u0435\u0446\u0438\u044f","name:ab":"\u0411\u0430\u0440\u0437\u0435\u043d\u0442\u04d9\u044b\u043b\u0430","name:af":"Griekeland","name:zu":"IGreki","kind_detail":"2","name:ky":"\u0413\u0440\u0435\u0446\u0438\u044f","name:zh-yue":"\u5e0c\u81d8","name:zh":"\u5e0c\u814a","name:so":"Giriig","name:sm":"Kuliti","name:sl":"Gr\u010dija","name:sk":"Gr\u00e9cko","name:ja":"\u30ae\u30ea\u30b7\u30e3","name:si":"\u0d9c\u0dca\u200d\u0dbb\u0dd3\u0dc3\u0dd2\u0dba","name:sh":"Gr\u010dka","name:se":"Greika","name:sc":"Gr\u00e8ghia","name:br":"Gres","name:bs":"Gr\u010dka","name:bn":"\u0997\u09cd\u09b0\u09bf\u09b8","name:bo":"\u0f40\u0f7a\u0f0b\u0f62\u0f72\u0f0b\u0f66\u0f72\u0f0d","name:bi":"Greece","name:sw":"Ugiriki","name:be":"\u0413\u0440\u044d\u0446\u044b\u044f","name:su":"Yunani","name:bg":"\u0413\u044a\u0440\u0446\u0438\u044f","name:ss":"IGrikhi","name:ba":"\u0413\u0440\u0435\u0446\u0438\u044f","name:sq":"Greqia","name:jv":"Yunani","name:sa":"\u092f\u0935\u0928\u0926\u0947\u0936\u0903","name:ia":"Grecia","name:pt":"Gr\u00e9cia","name:ps":"\u064a\u0648\u0646\u0627\u0646","name:oc":"Gr\u00e8cia","min_zoom":8.0,"name:ro":"Grecia","name:zh-min-nan":"Hi-lia\u030dp","name:os":"\u0413\u0440\u0435\u043a\u044a","name:or":"\u0b17\u0b4d\u0b30\u0b40\u0b38","name:pl":"Grecja","sort_rank":262,"name:sr":"\u0413\u0440\u0447\u043a\u0430","osm_relation":true,"name:pa":"\u0a2f\u0a42\u0a28\u0a3e\u0a28","name:tr":"Yunanistan","name:hi":"\u092f\u0942\u0928\u093e\u0928","name:sv":"Grekland","name:he":"\u05d9\u05d5\u05d5\u05df","name:hy":"\u0540\u0578\u0582\u0576\u0561\u057d\u057f\u0561\u0576","name:ht":"Gr\u00e8s","name:hu":"G\u00f6r\u00f6gorsz\u00e1g","name:hr":"Gr\u010dka","kind":"country","name:yi":"\u05d2\u05e8\u05d9\u05db\u05e0\u05dc\u05d0\u05e0\u05d3","name:yo":"Gr\u00ed\u00ecs\u00ec","name:mt":"Gre\u010bja","alt_name:eo":"Grekio","name:ms":"Greece","name:mr":"\u0917\u094d\u0930\u0940\u0938","name:my":"\u1002\u101b\u102d\u1014\u102d\u102f\u1004\u103a\u1004\u1036","official_name":"\u0395\u03bb\u03bb\u03b7\u03bd\u03b9\u03ba\u03ae \u0394\u03b7\u03bc\u03bf\u03ba\u03c1\u03b1\u03c4\u03af\u03b1","int_name":"Greece","name:mg":"Grisy","name:vi":"Hy L\u1ea1p","name:ml":"\u0d17\u0d4d\u0d30\u0d40\u0d38\u0d4d","name:mn":"\u0413\u0440\u0435\u043a","name:mi":"Kirihi","id":-192307,"name:mk":"\u0413\u0440\u0446\u0438\u0458\u0430","name:vo":"Grik\u00e4n","name:fa":"\u06cc\u0648\u0646\u0627\u0646","name:rw":"Ubugereki","name:fi":"Kreikka","name:fo":"Grikkaland","name:fr":"Gr\u00e8ce","name:fy":"Grikel\u00e2n","name:nl":"Griekenland","name:nn":"Hellas","name:no":"Hellas","name:na":"Grit","name:ne":"\u0917\u094d\u0930\u0940\u0938","name:wo":"Girees","name:nv":"Gw\u00ed\u00edk Dine\u02bc\u00e9 Bik\u00e9yah","name:ga":"An Ghr\u00e9ig","name:gd":"A' Ghr\u00e8ig","name:gn":"Gyresia","name:gl":"Grecia","maritime_boundary":true,"name:gv":"Yn Ghreag","name:gu":"\u0a97\u0acd\u0ab0\u0ac0\u0ab8","name:tt":"\u0413\u0440\u0435\u0446\u0438\u044f"},"arcs":[1]},{"type":"LineString","properties":{"name:kg":"Albania","name:ty":"Arapania","name:ka":"\u10d0\u10da\u10d1\u10d0\u10dc\u10d4\u10d7\u10d8","name:tr":"Arnavutluk","name:ts":"Albania","name:km":"\u17a2\u17b6\u179b\u17cb\u1794\u17b6\u1793\u17b8","name:kl":"Albania","name:kk":"\u0410\u043b\u0431\u0430\u043d\u0438\u044f","name:tw":"Albania","name:tt":"\u0410\u043b\u0431\u0430\u043d\u0438\u044f","name:kw":"Albani","name:tk":"Albani\u00fda","name:ku":"Albanya","name:ti":"\u12a0\u120d\u1263\u1292\u12eb","name:ks":"\u0627\u066e\u06ea\u0644\u0628\u0627\u0646\u0650\u06cc\u0627","name:to":"\u02bbAlipania","name:tl":"Albanya","name:ce":"\u0410\u043b\u0431\u0430\u0301\u043d\u0438","name:ta":"\u0b85\u0bb2\u0bcd\u0baa\u0bc7\u0ba9\u0bbf\u0baf\u0bbe","name:tg":"\u0410\u043b\u0431\u0430\u043d\u0438\u044f","name:ky":"\u0410\u043b\u0431\u0430\u043d\u0438\u044f","name:te":"\u0c05\u0c32\u0c4d\u0c2c\u0c47\u0c28\u0c3f\u0c2f\u0c3e","name:cy":"Albania","alt_name:tt":"\u0410\u0440\u043d\u0430\u0443\u0442\u043b\u044b\u043a","name:qu":"Albanya","name:da":"Albanien","name:de":"Albanien","name:dz":"\u0f68\u0f71\u0f63\u0f0b\u0f56\u0f7a\u0f0b\u0f53\u0f72\u0f0b\u0f61","source":"openstreetmap.org","name:kn":"\u0c85\u0cb2\u0ccd\u0cac\u0cc7\u0ca8\u0cbf\u0caf","name:dv":"\u0787\u07a6\u078d\u07b0\u0784\u07ad\u0782\u07a8\u0787\u07a7","name:cu":"\u0410\u043b\u0432\u0430\u043d\u0457\ua657","name:lv":"Alb\u0101nija","name:lt":"Albanija","name:uz":"Albaniya","name:cs":"Alb\u00e1nie","name:ur":"\u0627\u0644\u0628\u0627\u0646\u06cc\u0627","name:lb":"Albanien","name:la":"Albania","name:ki":"Ar\u0169mb\u0129nia","name:uk":"\u0410\u043b\u0431\u0430\u0301\u043d\u0456\u044f","name:ug":"\u0626\u0627\u0644\u0628\u0627\u0646\u0649\u064a\u06d5","name:li":"Albani\u00eb","name:ln":"Albania","name:lo":"\u0ec1\u0ead\u0ea5\u0ec0\u0e9a\u0ec0\u0e99\u0e8d","name:el":"\u0391\u03bb\u03b2\u03b1\u03bd\u03af\u03b1","name:eo":"Albanujo","name:en":"Albania","name":"Shqip\u00ebria","name:kv":"\u0410\u043b\u0431\u0430\u043d\u0438\u044f","name:ee":"Albania","name:th":"\u0e1b\u0e23\u0e30\u0e40\u0e17\u0e28\u0e41\u0e2d\u0e25\u0e40\u0e1a\u0e40\u0e19\u0e35\u0e22","alt_name:uk":"\u0428\u043a\u0456\u043f\u0435\u0440\u0456\u044f","name:eu":"Albania","name:et":"Albaania","name:es":"Albania","name:ia":"Albania","name:rm":"Albania","name:rn":"Alubaniya","name:az":"Albaniya","name:ie":"Albania","name:id":"Albania","name:ig":"Albania","name:as":"\u0986\u09b2\u09ac\u09c7\u09a8\u09bf\u09af\u09bc\u09be","name:ar":"\u0623\u0644\u0628\u0627\u0646\u064a\u0627","name:io":"Albania","name:av":"\u0410\u043b\u0431\u0430\u0301\u043d\u0438\u044f","name:ak":"Albania","name:am":"\u12a0\u120d\u1263\u1292\u12eb","name:it":"Albania","name:co":"Albania","name:an":"Albania","name:ru":"\u0410\u043b\u0431\u0430\u0301\u043d\u0438\u044f","name:ab":"\u0410\u0440\u043d\u0430\u0443\u044b\u04ad\u0442\u04d9\u044b\u043b\u0430","name:af":"Albani\u00eb","name:zu":"I-Albaniya","kind_detail":"2","name:ca":"Alb\u00e0nia","name:zh-yue":"\u963f\u723e\u5df4\u5c3c\u4e9e","name:zh":"\u963f\u723e\u5df4\u5c3c\u4e9e","name:so":"Albania","name:sn":"Albania","name:sl":"Albanija","name:sk":"Alb\u00e1nsko","name:ja":"\u30a2\u30eb\u30d0\u30cb\u30a2","name:si":"\u0d87\u0dbd\u0dca\u0db6\u0dda\u0db1\u0dd2\u0dba\u0dcf\u0dc0","name:sh":"Albanija","name:sg":"Alban\u00efi","name:se":"Alb\u00e1nia","name:sc":"Albania","name:sa":"\u0905\u0932\u094d\u092c\u0947\u0928\u093f\u092f\u093e","name:bs":"Albanija","name:bm":"Alibani","name:bn":"\u0986\u09b2\u09ac\u09c7\u09a8\u09bf\u09af\u09bc\u09be","name:bo":"\u0f68\u0f63\u0f0b\u0f54\u0f0b\u0f49\u0f72\u0f0b\u0f61\u0f0d","name:br":"Albania","name:sw":"Albania","name:be":"\u0410\u043b\u0431\u0430\u0301\u043d\u0456\u044f","name:su":"Albania","name:bg":"\u0410\u043b\u0431\u0430\u043d\u0438\u044f","name:ss":"I-Alibheniya","name:sr":"\u0410\u043b\u0431\u0430\u043d\u0438\u0458\u0430","osm_relation":true,"name:jv":"Albania","name:bi":"Albania","name:pt":"Alb\u00e2nia","name:ps":"\u0627\u0644\u0628\u0627\u0646\u06cc\u0627","name:om":"Albeeniyaa","name:oc":"Albania","min_zoom":8.0,"name:ro":"Albania","name:ko":"\uc54c\ubc14\ub2c8\uc544","name:zh-min-nan":"Albania","name:os":"\u0410\u043b\u0431\u0430\u043d\u0438","name:or":"\u0b06\u0b32\u0b2c\u0b3e\u0b28\u0b3f\u0b06","name:pl":"Albania","name:pi":"\u0905\u0932\u094d\u092c\u093e\u0928\u093f\u092f\u093e","name:st":"Albania","sort_rank":262,"name:ba":"\u0410\u043b\u0431\u0430\u0301\u043d\u0438\u044f","name:rw":"Alubaniya","name:pa":"\u0a05\u0a32\u0a2c\u0a3e\u0a28\u0a40\u0a06","name:cv":"\u0410\u043b\u0431\u0430\u043d\u0438","name:hi":"\u0905\u0932\u094d\u092c\u093e\u0928\u093f\u092f\u093e","name:sv":"Albanien","name:he":"\u05d0\u05b7\u05dc\u05b0\u05d1\u05b7\u05bc\u05e0\u05b0\u05d9\u05b8\u05d4","name:ha":"Albaniya","name:hy":"\u0531\u056c\u0562\u0561\u0576\u056b\u0561","name:ht":"Albani","name:hu":"Alb\u00e1nia","name:hr":"Albanija","kind":"country","name:is":"Alban\u00eda","name:yi":"\u05d0\u05dc\u05d1\u05d0\u05e0\u05d9\u05e2","name:yo":"Alb\u00e1n\u00ed\u00e0","name:mt":"Albanija","alt_name:eo":"Albanio","name:ms":"Albania","name:mr":"\u0906\u0932\u094d\u092c\u0947\u0928\u093f\u092f\u093e","name:my":"\u1021\u101a\u103a\u101c\u103a\u1018\u1031\u1038\u1014\u102e\u1038\u101a\u102c\u1038\u104f","official_name":"Republika e Shqip\u00ebris\u00eb","int_name":"Albania","name:mg":"Albania","name:ml":"\u0d05\u0d7d\u0d2c\u0d47\u0d28\u0d3f\u0d2f","name:vi":"Albania","name:mn":"\u0410\u043b\u0431\u0430\u043d\u0438","name:mi":"Arapeinia","id":-53292,"name:mk":"\u0410\u043b\u0431\u0430\u043d\u0438\u0458\u0430","name:vo":"Lalban\u00e4n","name:fa":"\u0622\u0644\u0628\u0627\u0646\u06cc","alt_name:ab":"\u0410\u043b\u0431\u0430\u043d\u0438\u0430","name:ff":"Albaniya","name:fi":"Albania","name:fo":"Albania","name:fr":"Albanie","name:fy":"Albaanje","alt_name:qu":"Shkipirya","name:nl":"Albani\u00eb","name:nn":"Albania","name:no":"Albania","name:na":"Arbainiya","name:ne":"\u0905\u0932\u094d\u092c\u093e\u0928\u093f\u092f\u093e","name:wo":"Albaani","name:nv":"Dzi\u0142igaii Bik\u00e9yah","name:ga":"An Alb\u00e1in","name:gd":"Alb\u00e0inia","name:gn":"Ava\u00f1a","name:gl":"Albania","maritime_boundary":true,"name:gv":"Yn Albaan","name:gu":"\u0a86\u0ab2\u0acd\u0aac\u0ac7\u0aa8\u0abf\u0aaf\u0abe","name:lg":"Alibaniya"},"arcs":[2]},{"type":"MultiLineString","properties":{"kind":"region","name:en":"Southern Albania","name":"Shqip\u00ebria jugore","name:tr":"G\u00fcney Arnavutluk","kind_detail":"4","name:de":"S\u00fcd-Albanien","source":"openstreetmap.org","min_zoom":8.0,"name:zh":"\u963f\u723e\u5df4\u5c3c\u4e9e\u5357\u90e8","id":-7739252,"osm_relation":true,"sort_rank":256},"arcs":[[3],[4],[5],[6],[7],[8],[9],[10]]},{"type":"MultiLineString","properties":{"kind":"region","name:en":"Southern Albania","name":"Shqip\u00ebria jugore","name:tr":"G\u00fcney Arnavutluk","kind_detail":"4","min_zoom":8.0,"name:de":"S\u00fcd-Albanien","source":"openstreetmap.org","maritime_boundary":true,"name:zh":"\u963f\u723e\u5df4\u5c3c\u4e9e\u5357\u90e8","id":-7739252,"osm_relation":true,"sort_rank":256},"arcs":[[11],[12],[13],[14],[15],[16],[17]]},{"type":"LineString","properties":{"kind":"region","name:en":"Peloponnese, West Greece and Ionian Sea","name":"\u03a0\u03b5\u03bb\u03bf\u03c0\u03cc\u03bd\u03bd\u03b7\u03c3\u03bf\u03c2, \u0394\u03c5\u03c4\u03b9\u03ba\u03ae \u0395\u03bb\u03bb\u03ac\u03b4\u03b1 \u03ba\u03b1\u03b9 \u0399\u03cc\u03bd\u03b9\u03bf","sort_rank":256,"kind_detail":"4","min_zoom":8.0,"official_name":"\u0391\u03c0\u03bf\u03ba\u03b5\u03bd\u03c4\u03c1\u03c9\u03bc\u03ad\u03bd\u03b7 \u0394\u03b9\u03bf\u03af\u03ba\u03b7\u03c3\u03b7 \u03a0\u03b5\u03bb\u03bf\u03c0\u03bf\u03bd\u03bd\u03ae\u03c3\u03bf\u03c5, \u0394\u03c5\u03c4\u03b9\u03ba\u03ae\u03c2 \u0395\u03bb\u03bb\u03ac\u03b4\u03b1\u03c2 \u03ba\u03b1\u03b9 \u0399\u03bf\u03bd\u03af\u03bf\u03c5","name:de":"Peloponnes, Westgriechenland und Ionische Inseln","source":"openstreetmap.org","maritime_boundary":true,"name:fr":"P\u00e9loponn\u00e8se, Gr\u00e8ce occidentale et \u00celes Ioniennes","name:ru":"\u041f\u0435\u043b\u043e\u043f\u043e\u043d\u043d\u0435\u0441\u0430, \u0417\u0430\u043f\u0430\u0434\u043d\u043e\u0439 \u0413\u0440\u0435\u0446\u0438\u0438 \u0438 \u0418\u043e\u043d\u0438\u0438","id":-4495892,"osm_relation":true},"arcs":[18]},{"type":"LineString","properties":{"name:pt":"Ap\u00falia","name:sl":"Apulija","name:sk":"Ap\u00falia","short_name":"PUG","name:cs":"Apulie","name:eo":"Apulio","min_zoom":8.0,"name:la":"Apulia","name:ru":"\u0410\u043f\u0443\u043b\u0438\u044f","name:pl":"Apulia","id":-40095,"name:ca":"Pulla","kind":"region","name:en":"Apulia","name":"Puglia","sort_rank":256,"kind_detail":"4","name:fr":"Pouilles","name:de":"Apulien","source":"openstreetmap.org","maritime_boundary":true,"osm_relation":true,"name:fi":"Apulia","name:es":"Apulia"},"arcs":[19]}]},"roads":{"type":"GeometryCollection","geometries":[{"type":"MultiLineString","properties":{"kind":"major_road","network":null,"sort_rank":380,"kind_detail":"primary","source":"openstreetmap.org","min_zoom":8.0,"landuse_kind":"residential","shield_text":"4"},"arcs":[[38],[39],[40]]},{"type":"MultiLineString","properties":{"kind":"major_road","network":null,"sort_rank":380,"kind_detail":"primary","source":"openstreetmap.org","min_zoom":8.0,"landuse_kind":"urban_area","shield_text":"361","ref":"SP361"},"arcs":[[41],[42],[43]]},{"type":"MultiLineString","properties":{"source":"openstreetmap.org","kind":"ferry","name":"Venezia-Igoumenitsa-Patras","sort_rank":355,"min_zoom":8.0,"osm_relation":true},"arcs":[[44],[45]]},{"type":"MultiLineString","properties":{"kind":"major_road","network":null,"sort_rank":380,"kind_detail":"primary","source":"openstreetmap.org","min_zoom":8.0,"old_name":"SS497","shield_text":"363","ref":"SP363"},"arcs":[[46],[47],[48],[49],[50],[51],[52],[53]]},{"type":"MultiLineString","properties":{"source":"openstreetmap.org","kind":"ferry","name":"Ancona-Igoumenitsa-Patras","sort_rank":355,"min_zoom":8.0,"osm_relation":true},"arcs":[[54],[55]]},{"type":"LineString","properties":{"source":"openstreetmap.org","kind":"ferry","name":"Bari-Korfu","sort_rank":355,"min_zoom":8.0,"osm_relation":true},"arcs":[56]},{"type":"LineString","properties":{"kind":"major_road","network":"ANAS","sort_rank":381,"landuse_kind":"urban_area","source":"openstreetmap.org","min_zoom":8.0,"kind_detail":"trunk","shield_text":"695","ref":"SS695"},"arcs":[57]},{"type":"MultiLineString","properties":{"kind":"major_road","network":null,"sort_rank":380,"kind_detail":"primary","source":"openstreetmap.org","min_zoom":8.0,"landuse_kind":"residential","shield_text":"4","ref":"SH4;SH8"},"arcs":[[58],[59],[60],[61]]},{"type":"LineString","properties":{"kind":"major_road","network":null,"sort_rank":381,"landuse_kind":"urban_area","source":"openstreetmap.org","min_zoom":8.0,"old_name":"SS497","shield_text":"363","kind_detail":"trunk","ref":"SP363"},"arcs":[62]},{"type":"LineString","properties":{"kind":"major_road","sort_rank":380,"landuse_kind":"residential","source":"openstreetmap.org","min_zoom":8.0,"kind_detail":"primary","ref":"SH4","id":290372979},"arcs":[63]},{"type":"LineString","properties":{"source":"openstreetmap.org","kind":"ferry","name":"Ancona-Korfu","sort_rank":355,"min_zoom":8.0,"osm_relation":true},"arcs":[64]},{"type":"LineString","properties":{"sort_rank":355,"source":"openstreetmap.org","min_zoom":8.0,"name":"Bari - Cephalonia","kind":"ferry"},"arcs":[65]},{"type":"LineString","properties":{"source":"openstreetmap.org","kind":"major_road","landuse_kind":"urban_area","sort_rank":380,"kind_detail":"primary","ref":"SS16","min_zoom":8.0},"arcs":[66]},{"type":"MultiLineString","properties":{"kind":"major_road","network":null,"sort_rank":380,"kind_detail":"primary","source":"openstreetmap.org","min_zoom":8.0,"landuse_kind":"nature_reserve","shield_text":"358","ref":"SP358"},"arcs":[[67],[68],[69],[70],[71]]},{"type":"LineString","properties":{"source":"openstreetmap.org","kind":"ferry","name":"Brindisi - Vlor\u00eb","sort_rank":355,"landuse_kind":"urban_area","min_zoom":8.0,"name:it":"Brindisi - Valona"},"arcs":[72]},{"type":"LineString","properties":{"source":"openstreetmap.org","kind":"ferry","name":"Bari - Zante","sort_rank":355,"is_bicycle_related":true,"min_zoom":8.0},"arcs":[73]},{"type":"MultiLineString","properties":{"kind":"major_road","network":null,"sort_rank":381,"kind_detail":"trunk","source":"openstreetmap.org","min_zoom":8.0,"shield_text":"275","ref":"SS275"},"arcs":[[74],[75]]},{"type":"MultiLineString","properties":{"kind":"major_road","network":null,"sort_rank":380,"kind_detail":"primary","source":"openstreetmap.org","min_zoom":8.0,"shield_text":"275","ref":"SS275"},"arcs":[[76],[77],[78],[79],[80],[81],[82],[83],[84],[85],[86],[87],[88],[89],[90],[91],[92],[93],[94],[95],[96],[97],[98],[99]]},{"type":"MultiLineString","properties":{"sort_rank":381,"source":"openstreetmap.org","min_zoom":8.0,"kind":"major_road","kind_detail":"trunk"},"arcs":[[100],[101],[102]]},{"type":"LineString","properties":{"source":"openstreetmap.org","kind":"major_road","sort_rank":380,"kind_detail":"primary","ref":"SH73","min_zoom":8.0},"arcs":[103]},{"type":"MultiLineString","properties":{"kind":"major_road","network":null,"sort_rank":380,"kind_detail":"primary","source":"openstreetmap.org","min_zoom":8.0,"shield_text":"4","ref":"SH4"},"arcs":[[104],[105],[106],[107],[108],[109],[110],[111],[112],[113]]},{"type":"MultiLineString","properties":{"source":"openstreetmap.org","kind":"ferry","name":"Brindisi - Vlor\u00eb","sort_rank":355,"min_zoom":8.0,"name:it":"Brindisi - Valona"},"arcs":[[114],[115]]},{"type":"MultiLineString","properties":{"kind":"major_road","network":null,"sort_rank":380,"kind_detail":"primary","source":"openstreetmap.org","min_zoom":8.0,"landuse_kind":"nature_reserve","shield_text":"87","ref":"SP87"},"arcs":[[116],[117]]},{"type":"LineString","properties":{"sort_rank":355,"source":"openstreetmap.org","min_zoom":8.0,"name":"Ancona-Igoumenitsa","kind":"ferry"},"arcs":[118]},{"type":"LineString","properties":{"source":"openstreetmap.org","kind":"major_road","network":null,"sort_rank":380,"kind_detail":"primary","min_zoom":8.0,"shield_text":"4"},"arcs":[119]},{"type":"LineString","properties":{"sort_rank":355,"source":"openstreetmap.org","min_zoom":8.0,"name":"Ancona-Korfu","kind":"ferry"},"arcs":[120]},{"type":"MultiLineString","properties":{"source":"openstreetmap.org","kind":"highway","sort_rank":383,"kind_detail":"motorway","ref":"A2","min_zoom":8.0},"arcs":[[121],[122]]},{"type":"LineString","properties":{"kind":"major_road","sort_rank":380,"landuse_kind":"urban_area","source":"openstreetmap.org","min_zoom":8.0,"kind_detail":"primary","ref":"SH8","id":228368163},"arcs":[123]},{"type":"MultiLineString","properties":{"source":"openstreetmap.org","kind":"major_road","sort_rank":380,"kind_detail":"primary","ref":"SH8","min_zoom":8.0},"arcs":[[124],[125],[126],[127],[128]]},{"type":"LineString","properties":{"source":"openstreetmap.org","kind":"ferry","name":"Venezia-Igoumenitsa","sort_rank":355,"is_bicycle_related":true,"min_zoom":8.0},"arcs":[129]},{"type":"LineString","properties":{"sort_rank":355,"source":"openstreetmap.org","min_zoom":8.0,"name":"Ancona-Patras","kind":"ferry"},"arcs":[130]},{"type":"LineString","properties":{"kind":"major_road","network":"ANAS","sort_rank":381,"kind_detail":"trunk","source":"openstreetmap.org","min_zoom":8.0,"landuse_kind":"nature_reserve","shield_text":"695","ref":"SS695","id":60198204},"arcs":[131]},{"type":"LineString","properties":{"kind":"major_road","network":null,"sort_rank":380,"kind_detail":"primary","source":"openstreetmap.org","min_zoom":8.0,"landuse_kind":"urban_area","shield_text":"275","ref":"SS275"},"arcs":[132]},{"type":"LineString","properties":{"kind":"major_road","network":null,"sort_rank":380,"kind_detail":"primary","source":"openstreetmap.org","min_zoom":8.0,"landuse_kind":"residential","shield_text":"4","ref":"SH8","id":171566792},"arcs":[133]},{"type":"LineString","properties":{"kind":"ferry","name":"Brindisi - Vlor\u00eb","sort_rank":355,"landuse_kind":"national_park","source":"openstreetmap.org","min_zoom":8.0,"name:it":"Brindisi - Valona","id":69055275},"arcs":[134]},{"type":"MultiLineString","properties":{"source":"openstreetmap.org","kind":"ferry","name":"Bari-Igoumenitsa-Patras","sort_rank":355,"min_zoom":8.0,"osm_relation":true},"arcs":[[135],[136]]},{"type":"MultiLineString","properties":{"sort_rank":380,"kind_detail":"primary","min_zoom":8.0,"kind":"major_road","source":"openstreetmap.org"},"arcs":[[137],[138],[139],[140],[141],[142],[143]]},{"type":"MultiLineString","properties":{"kind":"major_road","network":null,"sort_rank":380,"kind_detail":"primary","source":"openstreetmap.org","min_zoom":8.0,"shield_text":"358","ref":"SP358"},"arcs":[[144],[145],[146],[147],[148],[149],[150],[151],[152],[153],[154],[155],[156]]},{"type":"MultiLineString","properties":{"kind":"major_road","network":null,"sort_rank":381,"kind_detail":"trunk","source":"openstreetmap.org","min_zoom":8.0,"shield_text":"4","ref":"SH4"},"arcs":[[157],[158],[159],[160],[161],[162],[163],[164]]},{"type":"LineString","properties":{"kind":"major_road","sort_rank":380,"kind_detail":"primary","is_bicycle_related":true,"cycleway":"lane","source":"openstreetmap.org","min_zoom":8.0,"landuse_kind":"residential","id":244286238},"arcs":[165]},{"type":"LineString","properties":{"source":"openstreetmap.org","kind":"ferry","name":"Venezia-Patras","sort_rank":355,"is_bicycle_related":true,"min_zoom":8.0},"arcs":[166]},{"type":"LineString","properties":{"sort_rank":355,"source":"openstreetmap.org","kind":"ferry","min_zoom":8.0,"name":"Bari-Patras"},"arcs":[167]},{"type":"MultiLineString","properties":{"source":"openstreetmap.org","kind":"major_road","kind_detail":"trunk","sort_rank":381,"landuse_kind":"urban_area","min_zoom":8.0},"arcs":[[168],[169]]},{"type":"MultiLineString","properties":{"kind":"major_road","network":"ANAS","sort_rank":381,"kind_detail":"trunk","source":"openstreetmap.org","min_zoom":8.0,"shield_text":"695","ref":"SS695"},"arcs":[[170],[171],[172],[173],[174],[175],[176],[177]]},{"type":"MultiLineString","properties":{"source":"openstreetmap.org","kind":"ferry","name":"Brindisi-Igoumenitsa-Patras","sort_rank":355,"min_zoom":8.0,"osm_relation":true},"arcs":[[178],[179]]},{"type":"MultiLineString","properties":{"source":"openstreetmap.org","kind":"major_road","old_name":"SS497","sort_rank":380,"kind_detail":"primary","ref":"SP363","min_zoom":8.0},"arcs":[[180],[181]]},{"type":"MultiLineString","properties":{"kind":"major_road","network":null,"sort_rank":380,"kind_detail":"primary","source":"openstreetmap.org","min_zoom":8.0,"shield_text":"4","ref":"SH4;SH8"},"arcs":[[182],[183]]},{"type":"MultiLineString","properties":{"source":"openstreetmap.org","kind":"major_road","landuse_kind":"residential","sort_rank":380,"kind_detail":"primary","ref":"SH8","min_zoom":8.0},"arcs":[[184],[185],[186],[187],[188]]},{"type":"MultiLineString","properties":{"source":"openstreetmap.org","kind":"major_road","landuse_kind":"residential","sort_rank":380,"kind_detail":"primary","min_zoom":8.0},"arcs":[[189],[190],[191],[192],[193],[194],[195],[196],[197],[198],[199],[200],[201],[202],[203],[204],[205],[206],[207],[208],[209],[210]]},{"type":"LineString","properties":{"source":"openstreetmap.org","kind":"major_road","landuse_kind":"national_park","sort_rank":380,"kind_detail":"primary","ref":"SH8","min_zoom":8.0},"arcs":[211]},{"type":"MultiLineString","properties":{"kind":"major_road","network":null,"sort_rank":381,"kind_detail":"trunk","source":"openstreetmap.org","min_zoom":8.0,"shield_text":"16","ref":"SS16"},"arcs":[[212],[213],[214]]},{"type":"MultiLineString","properties":{"kind":"major_road","network":null,"sort_rank":380,"kind_detail":"primary","source":"openstreetmap.org","min_zoom":8.0,"shield_text":"4","ref":"SH8"},"arcs":[[215],[216]]},{"type":"LineString","properties":{"kind":"ferry","network":"e-road","sort_rank":355,"source":"openstreetmap.org","min_zoom":8.0,"all_networks":["e-road"],"shield_text":"90","all_shield_texts":["90"],"name":"Brindisi\u2014Igoumen\u00edtsa"},"arcs":[217]},{"type":"MultiLineString","properties":{"kind":"major_road","network":null,"sort_rank":380,"kind_detail":"primary","source":"openstreetmap.org","min_zoom":8.0,"landuse_kind":"residential","shield_text":"4","ref":"SH4"},"arcs":[[218],[219],[220],[221],[222],[223],[224],[225],[226],[227],[228]]},{"type":"MultiLineString","properties":{"kind":"major_road","network":null,"sort_rank":381,"landuse_kind":"urban_area","source":"openstreetmap.org","min_zoom":8.0,"kind_detail":"trunk","shield_text":"16","ref":"SS16"},"arcs":[[229],[230],[231],[232],[233],[234],[235],[236],[237],[238],[239]]},{"type":"MultiLineString","properties":{"source":"openstreetmap.org","kind":"major_road","landuse_kind":"nature_reserve","sort_rank":380,"kind_detail":"primary","ref":"SH8","min_zoom":8.0},"arcs":[[240],[241],[242],[243]]},{"type":"MultiLineString","properties":{"kind":"major_road","network":null,"sort_rank":380,"kind_detail":"primary","source":"openstreetmap.org","min_zoom":8.0,"shield_text":"363","ref":"SP363"},"arcs":[[244],[245],[246]]},{"type":"LineString","properties":{"kind":"major_road","network":null,"sort_rank":381,"kind_detail":"trunk","source":"openstreetmap.org","min_zoom":8.0,"old_name":"SS497","shield_text":"363","ref":"SP363"},"arcs":[247]},{"type":"MultiLineString","properties":{"kind":"major_road","network":null,"sort_rank":381,"landuse_kind":"urban_area","source":"openstreetmap.org","min_zoom":8.0,"kind_detail":"trunk","shield_text":"275","ref":"SS275"},"arcs":[[248],[249]]},{"type":"MultiLineString","properties":{"source":"openstreetmap.org","kind":"major_road","kind_detail":"trunk","sort_rank":381,"landuse_kind":"urban_area","ref":"SS275","min_zoom":8.0},"arcs":[[250],[251]]},{"type":"LineString","properties":{"sort_rank":355,"source":"openstreetmap.org","min_zoom":8.0,"name":"Bari-Igoumenitsa","kind":"ferry"},"arcs":[252]},{"type":"LineString","properties":{"kind":"major_road","network":null,"sort_rank":381,"kind_detail":"trunk","source":"openstreetmap.org","min_zoom":8.0,"landuse_kind":"urban_area","shield_text":"16","id":351116343},"arcs":[253]},{"type":"MultiLineString","properties":{"source":"openstreetmap.org","kind":"highway","landuse_kind":"nature_reserve","sort_rank":383,"kind_detail":"motorway","ref":"A2","min_zoom":8.0},"arcs":[[254],[255],[256],[257],[258],[259],[260],[261],[262],[263],[264],[265],[266]]},{"type":"LineString","properties":{"sort_rank":355,"source":"openstreetmap.org","min_zoom":8.0,"name":"Bari - Korfu","kind":"ferry"},"arcs":[267]},{"type":"LineString","properties":{"source":"openstreetmap.org","kind":"ferry","name":"Brindisi\u2014Patras","sort_rank":355,"is_bicycle_related":true,"min_zoom":8.0},"arcs":[268]},{"type":"MultiLineString","properties":{"kind":"major_road","network":null,"sort_rank":380,"kind_detail":"primary","source":"openstreetmap.org","min_zoom":8.0,"shield_text":"87","ref":"SP87"},"arcs":[[269],[270]]},{"type":"MultiLineString","properties":{"source":"openstreetmap.org","kind":"major_road","landuse_kind":"nature_reserve","sort_rank":380,"kind_detail":"primary","min_zoom":8.0},"arcs":[[271],[272],[273]]}]},"earth":{"type":"GeometryCollection","geometries":[{"type":"MultiPolygon","properties":{"sort_rank":10,"source":"naturalearthdata.com","min_zoom":0.0,"kind":"earth","area":19379112970},"arcs":[[[274]],[[275]],[[276]]]}]},"landuse":{"type":"GeometryCollection","geometries":[{"type":"Polygon","properties":{"kind":"nature_reserve","protect_class":"3","area":26046500,"sort_rank":23,"source":"openstreetmap.org","min_zoom":8.0,"tier":2,"id":538967634},"arcs":[[277]]},{"type":"Polygon","properties":{"kind":"national_park","protect_class":"2","area":381945984,"sort_rank":18,"source":"openstreetmap.org","min_zoom":3.0,"tier":1,"id":503885261},"arcs":[[278]]},{"type":"MultiPolygon","properties":{"source":"naturalearthdata.com","kind":"urban_area","name":"","area":5486001018,"sort_rank":11,"min_zoom":4.0},"arcs":[[[279]],[[280]],[[281]],[[282]],[[283]]]},{"type":"Polygon","properties":{"kind":"national_park","protect_class":"2","area":46694300,"sort_rank":18,"source":"openstreetmap.org","min_zoom":8.0,"tier":1,"id":-7712363,"osm_relation":true},"arcs":[[284]]},{"type":"MultiPolygon","properties":{"kind":"nature_reserve","protect_class":"2","area":83273290,"sort_rank":23,"operator":"Provincia di Lecce","source":"openstreetmap.org","min_zoom":8.0,"tier":2,"osm_relation":true},"arcs":[[[285]],[[286]],[[287],[288]]]},{"type":"Polygon","properties":{"kind":"residential","name":"Vlor\u00eb","area":23147300,"sort_rank":20,"name:fr":"Vlora","source":"openstreetmap.org","min_zoom":8.0,"tier":2,"name:ru":"\u0412\u043b\u0451\u0440\u0430","id":27631759},"arcs":[[289]]},{"type":"Polygon","properties":{"kind":"nature_reserve","protect_class":"5","area":342510016,"sort_rank":23,"source":"openstreetmap.org","min_zoom":6.0,"tier":2,"id":538747200},"arcs":[[290]]},{"type":"Polygon","properties":{"name:el":"\u03a6\u03af\u03b5\u03c1\u03b9","kind":"residential","name":"Fier","area":16579700,"sort_rank":20,"source":"openstreetmap.org","min_zoom":8.0,"old_name":"Fieri","tier":2,"name:ru":"\u0424\u0438\u0435\u0440\u0438","name:bg":"\u0424\u0438\u0435\u0440","id":241132734},"arcs":[[291]]},{"type":"Polygon","properties":{"kind":"national_park","protect_class":"2","area":166808992,"sort_rank":18,"source":"openstreetmap.org","min_zoom":5.0,"tier":1,"id":-7712363,"osm_relation":true},"arcs":[[292]]},{"type":"Polygon","properties":{"kind":"nature_reserve","protect_class":"4","area":294497984,"sort_rank":23,"source":"openstreetmap.org","min_zoom":6.0,"tier":2,"id":-7714730,"osm_relation":true},"arcs":[[293]]},{"type":"MultiPolygon","properties":{"source":"openstreetmap.org","kind":"national_park","tier":1,"protect_class":"2","area":58118690,"sort_rank":18,"min_zoom":8.0},"arcs":[[[294]],[[295]]]}]}},"type":"Topology","transform":{"translate":[18.28125,39.9097362345],"scale":[0.0003433228,0.00026127]},"arcs":[[[1252,0],[177,518],[32,149],[-32,407],[-310,735],[-136,192],[-620,659],[-363,445]],[[4096,213],[-159,107],[-178,33],[-164,-37],[-132,-104],[-119,19],[-247,-18],[-111,-58],[-99,-100],[-26,-55]],[[2894,4096],[-52,-337],[-276,-814],[-79,-403],[-31,-598],[233,-300],[232,-515],[1175,-862]],[[2948,1952],[120,-127],[85,-135],[44,-139],[-21,-26],[211,-280],[180,-148],[212,-90],[229,-179],[88,-14]],[[2968,1976],[-4,-3]],[[2982,1986],[-9,-6]],[[2983,1987]],[[3075,2004],[-27,-2]],[[3081,2004],[-1,0]],[[3273,3774],[31,-77],[10,-46],[-12,-23],[-34,9],[26,73],[-100,-223],[15,-22],[0,22],[20,6],[5,-23],[-18,-20],[6,12],[-9,11],[-41,-121],[-12,-281],[-56,-109],[-122,-95],[109,-151],[123,-292],[14,81],[195,-30],[-2,-212],[-23,0],[0,-22],[-63,29],[20,16],[-29,7],[-34,61],[-12,-49],[-30,8],[-23,104],[-37,-7],[81,-153],[54,-6],[113,-140],[94,-54],[-46,-183],[19,-54],[-20,-31],[12,-129],[-88,-68],[-92,-15],[-38,73],[10,66],[-30,102],[-176,186]],[[3484,4096],[-10,-104],[-58,-79],[20,-1],[-28,-59],[-85,14],[60,62],[-71,-60]],[[2964,1973],[-29,-8],[13,-13]],[[2973,1980],[-5,-4]],[[2983,1987],[-1,-1]],[[3048,2002],[-22,23],[-43,-38]],[[3080,2004],[-5,0]],[[3083,2004],[-2,0]],[[3312,3869],[-39,-95]],[[4096,213],[-159,107],[-178,33],[-164,-37],[-132,-104],[-119,19],[-247,-18],[-111,-58],[-99,-100],[-26,-55]],[[320,0],[67,313],[29,38],[23,-9],[10,97],[116,76],[22,142],[110,99],[-41,71],[31,36],[-40,45],[-45,3],[9,31],[-89,165],[12,100],[-122,267],[-108,77],[-101,145],[-100,75],[-27,70],[-76,79]],[[235,0],[2,3],[-33,52],[3,53],[-85,94],[100,112],[7,120],[36,98],[-95,176],[-115,119]],[[54,829],[3,-4]],[[55,828],[33,-11],[206,142],[72,-77],[216,36]],[[212,904],[2,2]],[[266,942],[2,1]],[[386,884],[2,0]],[[580,919],[2,-1]],[[54,829],[3,-4]],[[55,828],[33,-11],[206,142],[72,-77],[216,36]],[[212,904],[2,2]],[[266,942],[2,1]],[[386,884],[2,0]],[[580,919],[2,-1]],[[329,0],[-5,24],[7,37],[27,84],[11,80],[10,39],[66,168],[106,80],[38,45],[24,113],[48,37],[23,38],[4,37],[-11,25],[-8,27],[15,44],[-19,10],[-15,18],[-13,23],[-183,442],[-194,271],[-26,25],[-52,24],[-43,58],[-75,127],[-64,54],[0,2166],[3482,0],[2,-19],[-22,-70],[-33,-54],[-31,-31],[16,-23],[1,-17],[76,115],[36,88],[1,11],[33,0],[32,-57],[30,-76],[-5,-94],[-49,-59],[-153,-74],[-38,-52],[-5,30],[-5,13],[1,12],[-9,-55],[-22,0],[0,81],[24,76],[-25,90],[41,45],[-48,-34],[-57,-82],[-44,-17],[-25,-21],[29,-50],[44,-57],[23,-44],[-8,-7],[-19,-23],[-21,-31],[-13,-31],[10,-23],[21,-36],[8,-33],[-30,-14],[-54,-16],[-26,-41],[-10,-62],[-3,-228],[-11,-64],[-26,-60],[-37,-38],[-47,-35],[-39,-38],[-15,-46],[16,-33],[202,-300],[21,-59],[15,106],[70,20],[77,-40],[37,-74],[-6,-92],[-19,-71],[-37,-20],[-56,64],[-22,0],[-23,-7],[-8,34],[-8,28],[-20,24],[14,-82],[80,-115],[100,-102],[75,-43],[8,-57],[-19,-347],[-27,-26],[-62,-30],[-61,-14],[-27,16],[-7,53],[-15,55],[-39,91],[-28,43],[-103,127],[-46,31],[-48,-4],[-77,-40],[0,-26],[16,-7],[0,-4],[5,-16],[36,-48],[102,-102],[22,-47],[39,-171],[14,-32],[33,-53],[277,-312],[96,-73],[164,-56],[94,-85],[161,-97],[100,-32],[0,-820],[-3767,0]],[[2894,2286],[-11,24],[-21,-5],[-8,-25],[13,-25],[13,-25],[16,-38],[9,-28],[20,-5],[3,5],[7,37],[9,37],[-13,19],[-16,11],[-11,7],[-10,11]],[[4096,820],[-100,32],[-161,97],[-94,85],[-164,56],[-96,73],[-277,312],[-33,53],[-14,32],[-39,171],[-22,47],[-102,102],[-36,48],[-5,16],[0,4],[-16,7],[0,26],[77,40],[48,4],[46,-31],[103,-127],[28,-43],[39,-91],[15,-55],[7,-53],[27,-16],[61,14],[62,30],[27,26],[19,347],[-8,57],[-75,43],[-100,102],[-80,115],[-14,82],[20,-24],[8,-28],[8,-34],[23,7],[22,0],[56,-64],[37,20],[19,71],[6,92],[-37,74],[-77,40],[-70,-20],[-15,-106],[-21,59],[-202,300],[-16,33],[15,46],[39,38],[47,35],[37,38],[26,60],[11,64],[3,228],[10,62],[26,41],[54,16],[30,14],[-8,33],[-21,36],[-10,23],[13,31],[21,31],[19,23],[8,7],[-23,44],[-44,57],[-29,50],[25,21],[44,17],[57,82],[48,34],[-41,-45],[25,-90],[-24,-76],[0,-81],[22,0],[9,55],[-1,-12],[5,-13],[5,-30],[38,52],[153,74],[49,59],[5,94],[-30,76],[-32,57]],[[3528,4096],[-1,-11],[-36,-88],[-76,-115],[-1,17],[-16,23],[31,31],[33,54],[22,70],[-2,19]],[[0,1930],[64,-54],[75,-127],[43,-58],[52,-24],[26,-25],[194,-271],[183,-442],[13,-23],[15,-18],[19,-10],[-15,-44],[8,-27],[11,-25],[-4,-37],[-23,-38],[-48,-37],[-24,-113],[-38,-45],[-106,-80],[-66,-168],[-10,-39],[-11,-80],[-27,-84],[-7,-37],[5,-24]],[[3762,3155],[0,-1],[0,1]],[[3762,3156],[9,25]],[[3761,3156],[0,-1],[1,0],[0,1],[-1,0]],[[1,881],[-1,0]],[[0,881],[1,0]],[[11,883],[-10,-2]],[[4096,389],[-1850,1541],[-2165,2166]],[[90,4096],[2161,-2160],[1845,-1541]],[[253,662],[31,-78]],[[286,584],[15,-46]],[[301,538],[0,-1]],[[302,537],[-1,1]],[[302,536],[1,-1]],[[303,535],[-1,1]],[[303,535],[90,-38]],[[523,487],[-130,9]],[[4096,378],[-1859,1542],[-2237,2050]],[[0,3994],[2242,-2069],[1854,-1542]],[[0,2909],[2219,-1011],[1877,-1543]],[[585,884],[38,-26]],[[3706,3097],[-11,-17]],[[3706,3097]],[[3706,3097]],[[3707,3098],[-1,0],[0,-1],[1,0],[0,1]],[[123,793],[69,-28],[39,-63]],[[3761,3156],[-1,-1]],[[0,3928],[2232,-2014],[1864,-1542]],[[0,2340],[2031,-2340]],[[12,890],[-1,-7]],[[322,63],[-8,-35]],[[356,204],[-11,-52]],[[565,589],[-23,-92]],[[567,595],[-2,-4]],[[584,643],[-2,-6]],[[3492,2056],[2,10]],[[0,2345],[2037,-2345]],[[81,675],[-7,-14]],[[76,660],[5,15]],[[74,661],[1,-24]],[[75,637],[1,23]],[[75,637],[27,-69]],[[114,145],[1,-2]],[[115,151],[0,-1]],[[115,143],[1,2]],[[115,143],[21,-143]],[[131,241],[-16,-90]],[[116,149],[-1,2]],[[116,149],[-3,-1],[1,-3]],[[114,145],[3,1],[-1,3]],[[121,283],[0,-3]],[[127,449],[-6,-166]],[[122,279],[-1,4]],[[121,279],[1,-1]],[[122,278],[0,1]],[[122,278],[9,-34]],[[131,244],[0,-1]],[[131,243],[0,1]],[[131,242],[0,-1]],[[131,241],[0,1]],[[121,279],[1,0],[0,1],[-1,-1]],[[131,243],[0,-1],[1,1],[-1,0]],[[131,243]],[[234,697],[0,4]],[[3863,3403]],[[4044,3709],[1,-1]],[[3828,3017],[92,10],[176,98]],[[3510,2916],[114,-230],[130,-59]],[[3754,2627],[12,-6]],[[3766,2621],[87,3]],[[3771,3181],[40,109]],[[3853,2624],[12,-9]],[[3865,2615],[33,-44]],[[3898,2571],[6,-15]],[[3904,2556],[75,-46]],[[3979,2510],[3,-8]],[[3982,2502],[114,-87]],[[0,2708],[3030,-633]],[[3113,2058],[238,-50],[130,5],[11,43]],[[612,727],[-24,-72]],[[627,855],[58,-97],[-67,-28]],[[0,3995],[2345,-2156],[1751,-1456]],[[3771,3181],[4,11]],[[0,3929],[2378,-2135],[1718,-1422]],[[3488,2909],[-22,-36],[-13,-9],[-36,-13],[-5,-5]],[[3412,2846],[41,17],[14,9],[21,38]],[[3516,2067],[7,-17]],[[3510,2916],[-72,-143]],[[3523,2050],[13,-33],[-44,-123],[-10,-279],[49,-165],[89,-101]],[[3733,1234],[45,-9],[2,-36]],[[3816,1106],[3,-5]],[[3822,1096],[17,-29],[39,11],[-61,-45],[127,-104],[12,12],[37,-48],[103,-7]],[[90,4096],[2161,-2160],[1845,-1541]],[[4096,378],[-1859,1542],[-2237,2050]],[[627,855]],[[102,568],[25,-119]],[[3695,3080],[-30,-45]],[[3030,2075],[83,-17]],[[4096,361],[-1873,1543],[-2223,1006]],[[0,2916],[2228,-1007],[1868,-1543]],[[391,498],[0,-1]],[[391,497],[1,-1]],[[588,654],[0,-1]],[[3762,3080],[112,-111],[-5,-123],[84,-13],[66,18],[57,-20],[20,-47]],[[252,664],[0,1],[-1,0],[0,-1],[1,0]],[[302,536],[0,1],[-1,0],[0,-1],[1,0]],[[393,496],[0,1],[-1,-1],[1,0]],[[314,28],[-5,-28]],[[345,152],[-23,-89]],[[411,368],[-55,-164]],[[409,369],[1,0]],[[410,369],[-1,1],[0,-1]],[[409,369],[2,-1]],[[410,371],[-1,-1]],[[411,368],[-1,1]],[[410,370],[0,1]],[[410,371],[19,-17],[63,141]],[[542,497],[-19,-10]],[[565,591],[0,-2]],[[582,637],[-15,-42]],[[3907,3524],[1,-2],[-21,-36],[-6,-14],[-13,-58],[-24,-38],[-7,-18],[-26,-68],[58,125],[13,57],[5,14],[22,37],[-1,2],[137,183],[51,87]],[[4096,3795],[-188,-270]],[[4043,4096],[49,-92]],[[4093,4004],[-49,92]],[[4092,4003],[-15,-48],[19,-44]],[[4093,4003],[0,1],[-1,0],[0,-1],[1,0]],[[4096,3911],[-18,44],[15,48]],[[3908,3524],[0,1],[-1,0],[1,-1]],[[3755,3153],[-8,-10]],[[4096,389],[-1850,1541],[-2165,2166]],[[0,2916],[2228,-1007],[1868,-1543]],[[94,819],[3,-4]],[[98,814],[8,-4]],[[566,913],[1,0]],[[572,909],[-1,0]],[[572,909],[-1,-1],[1,0],[1,0]],[[573,908],[-1,1]],[[572,908],[1,0]],[[573,908]],[[573,908],[12,-24]],[[623,858],[4,-3]],[[0,2616],[2214,-723],[1882,-1544]],[[4096,344],[-1887,1544],[-2209,725]],[[252,664]],[[393,496],[1,0]],[[3514,2923],[-4,-7]],[[3647,3009],[-1,-1]],[[3510,2084],[2,-6]],[[3512,2078],[-1,6]],[[3513,2182],[-2,-96]],[[3512,2078],[4,-11]],[[3511,2084],[1,1],[-1,1],[-1,-1],[1,-1]],[[3484,2212],[11,2]],[[3484,2212],[21,-42]],[[3506,2170],[-22,42]],[[3500,2215],[13,-33]],[[3719,3120],[-13,-22]],[[3707,3098],[13,22]],[[3720,3123],[-1,-2]],[[3720,3121],[0,2]],[[3746,3104],[-26,17]],[[3720,3121],[26,-17]],[[3720,3123],[26,20]],[[3746,3103],[2,-1]],[[3748,3102],[-1,2]],[[3748,3102],[14,-22]],[[3756,3155],[1,0]],[[3759,3155],[-2,0]],[[3757,3155],[2,0]],[[3762,3155],[-3,0]],[[3720,3121],[-1,0],[0,-1],[1,1]],[[3746,3144],[0,-1],[1,0],[-1,1]],[[3756,3155]],[[3756,3155],[1,0],[-1,0]],[[3780,1189],[36,-83]],[[328,846],[237,67]],[[565,914],[-237,-67]],[[566,915],[-1,-2],[1,0],[1,1],[-1,1]],[[3646,3008],[-93,-33],[-39,-52]],[[3665,3035],[-18,-26]],[[4096,344],[-1887,1544],[-2209,725]],[[3707,3097],[1,0]],[[3708,3097],[-1,1]],[[3744,3103],[-36,-6]],[[3744,3103],[2,0]],[[3746,3104],[-2,-1]],[[3748,3105],[-1,-1]],[[3747,3104],[1,1]],[[3762,3154],[-14,-49]],[[3771,3181],[-9,-25]],[[3746,3104],[0,-1],[1,1]],[[3747,3104],[-1,0]],[[0,920],[74,-79]],[[74,841],[19,-21],[1,-1]],[[94,820],[-1,1],[-19,20]],[[74,841],[-74,77]],[[98,814],[11,2]],[[109,816],[-11,-1]],[[328,847],[-218,-30]],[[110,816],[198,24],[20,6]],[[109,817],[0,-1]],[[109,816],[1,0],[0,1]],[[110,817],[-1,0]],[[3438,2773],[1,-4]],[[3494,2677],[8,-12]],[[3620,1349],[113,-115]],[[3819,1101],[3,-5]],[[285,584],[1,0],[-1,0]],[[284,584],[1,0]],[[285,584],[-1,1],[0,-1]],[[231,702],[20,-35]],[[100,815],[12,-46],[-31,-94]],[[81,675],[31,94],[-11,45],[-1,1]],[[94,819],[6,-4]],[[100,815],[-6,5]],[[0,2910],[2223,-1006],[1873,-1543]],[[97,815],[0,-1],[1,0],[0,1],[-1,0]],[[3412,2846],[-20,-19],[2,-55],[1,-1]],[[3395,2771],[6,-6]],[[3401,2765],[39,-43],[11,-9],[3,-6],[14,-20],[9,-21]],[[3477,2666],[8,-21],[-26,-133],[-9,-19]],[[3450,2493],[0,-1],[-17,-28],[0,-2]],[[3433,2462],[0,-137]],[[3433,2325],[-1,-17],[50,-92],[-49,92],[0,17]],[[3433,2325],[-1,129],[1,8]],[[3433,2462],[1,1],[16,29],[0,1]],[[3450,2493],[27,173]],[[3477,2666],[1,9],[-27,38],[-50,52]],[[3401,2765],[-6,6]],[[3395,2771],[-2,56],[19,19]],[[0,2932],[2219,-1034],[1877,-1543]],[[0,2616],[2214,-723],[1882,-1544]],[[588,655],[0,-1]],[[618,730],[-6,-3]],[[584,643],[4,10]],[[3439,2769],[55,-92]],[[3502,2665],[-38,-136],[-3,-159],[42,-58],[-18,-59],[15,-38]],[[329,0],[-329,0],[0,1930],[64,-54],[75,-127],[43,-58],[52,-24],[26,-25],[194,-271],[183,-442],[13,-23],[15,-18],[19,-10],[-15,-44],[8,-27],[11,-25],[-4,-37],[-23,-38],[-48,-37],[-24,-113],[-38,-45],[-106,-80],[-66,-168],[-10,-39],[-11,-80],[-27,-84],[-7,-37],[5,-24]],[[4096,820],[-100,32],[-161,97],[-94,85],[-164,56],[-96,73],[-277,312],[-33,53],[-14,32],[-39,171],[-22,47],[-102,102],[-36,48],[-5,16],[0,4],[-16,7],[0,26],[77,40],[48,4],[46,-31],[103,-127],[28,-43],[39,-91],[15,-55],[7,-53],[27,-16],[61,14],[62,30],[27,26],[19,347],[-8,57],[-75,43],[-100,102],[-80,115],[-14,82],[20,-24],[8,-28],[8,-34],[23,7],[22,0],[56,-64],[37,20],[19,71],[6,92],[-37,74],[-77,40],[-70,-20],[-15,-106],[-21,59],[-202,300],[-16,33],[15,46],[39,38],[47,35],[37,38],[26,60],[11,64],[3,228],[10,62],[26,41],[54,16],[30,14],[-8,33],[-21,36],[-10,23],[13,31],[21,31],[19,23],[8,7],[-23,44],[-44,57],[-29,50],[25,21],[44,17],[57,82],[48,34],[-41,-45],[25,-90],[-24,-76],[0,-81],[22,0],[9,55],[-1,-12],[5,-13],[5,-30],[38,52],[153,74],[49,59],[5,94],[-30,76],[-32,57],[535,0],[0,-3276]],[[3528,4096],[-1,-11],[-36,-88],[-76,-115],[-1,17],[-16,23],[31,31],[33,54],[22,70],[-2,19],[46,0]],[[2992,2862],[95,83],[74,134],[51,3],[17,-124],[-16,-46],[-47,-13],[26,78],[-15,58],[-73,-146],[-53,-52],[-24,-11],[-35,36]],[[3148,3507],[78,73],[72,270],[153,149],[23,97],[269,0],[-23,-76],[32,1],[8,-25],[-19,-23],[3,-135],[-69,-122],[11,-49],[-207,-1],[-100,39],[-7,-130],[-72,-59],[-114,-24],[-38,15]],[[562,1112],[83,-198],[-22,-58],[-33,13],[-33,115],[-64,43],[0,85],[69,0]],[[3231,2410],[24,-71],[45,7],[56,-64],[37,20],[20,86],[122,-100],[162,-30],[-47,-94],[-154,-138],[-8,57],[-175,145],[-80,115],[-14,82],[12,-15]],[[0,1816],[0,24],[7,-5],[-7,-19]],[[0,802],[0,724],[169,-74],[-13,-58],[-91,-30],[-25,-40],[24,-42],[170,0],[-32,-170],[-37,-31],[-125,30],[-2,-56],[99,-28],[32,-43],[0,-85],[126,-10],[36,-33],[-20,-63],[-71,6],[-38,-28],[31,-68],[-31,-17],[0,-85],[-33,0],[24,-74],[-24,-11],[7,-23],[159,-67],[61,5],[-17,-85],[-48,-43],[-137,69],[-90,102],[-3,166],[-90,157],[-11,5]],[[0,305],[0,105],[72,-61],[0,-46],[-72,2]],[[2799,2279],[30,76],[57,23],[39,-19],[24,-27],[-52,-34],[-29,10],[-6,-38],[62,-111],[14,102],[68,2],[-23,-139],[-48,-27],[-63,14],[-73,168]],[[507,662],[23,16],[20,-25],[14,43],[72,46],[-9,114],[20,52],[40,-45],[-31,-36],[41,-73],[-110,-97],[7,-22],[-21,-98],[-29,-43],[-27,39],[27,7],[41,97],[-45,3],[13,-32],[-26,-24],[-20,78]],[[307,0],[-12,0],[-40,43],[52,-43]],[[325,0],[-4,0],[7,12],[-51,60],[35,22],[30,82],[-18,34],[53,97],[-22,-66],[-4,-49],[10,22],[2,-6],[-22,-110],[11,66],[-36,-66],[8,-50],[9,11],[-4,13],[1,6],[4,2],[-4,-7],[5,-16],[-3,-17],[-8,3],[6,-30],[-5,-13]],[[284,70],[27,-15],[9,14],[-6,18],[-30,-17]],[[3437,2140],[58,98],[30,-65],[78,28],[5,-41],[-14,30],[-36,-29],[-10,-41],[17,17],[-7,-41],[14,3],[7,-5],[-34,-2],[2,-96],[-17,64],[-77,40],[-16,40]],[[2996,2831],[38,-6],[49,55],[52,7],[107,-37],[20,-49],[43,-25],[15,45],[89,41],[13,-84],[97,-28],[-26,-59],[106,-14],[-35,-129],[15,-64],[-24,-144],[-49,-124],[-29,-5],[-26,32],[-85,-38],[-55,52],[-41,-1],[-52,88],[8,22],[-34,20],[9,86],[-97,217],[-108,142]],[[3632,3157],[41,-14],[17,35],[101,3],[-26,-99],[-34,-31],[1,35],[-36,-16],[18,-17],[-30,9],[2,-49],[-34,34],[42,71],[-20,1],[-10,-19],[-5,2],[14,35],[-41,20]],[[2870,1960],[46,71],[137,53],[82,-36],[104,-100],[-58,-45],[-80,91],[-47,1],[-28,30],[-92,-65],[134,-135],[97,-161],[32,-113],[-21,-26],[209,-278],[182,-150],[217,-93],[-37,-54],[-202,88],[-203,160],[-218,291],[-19,146],[-235,325]],[[2934,1960],[94,64],[26,-29],[38,6],[104,-100],[78,-117],[5,-133],[38,-49],[-7,-30],[55,-53],[11,15],[45,-74],[94,-37],[184,-130],[41,-71],[-55,-73],[138,-49],[-38,-97],[-218,94],[-182,150],[-209,278],[21,26],[-32,113],[-97,161],[-134,135]],[[3684,1152],[56,70],[51,-42],[67,-9],[-44,-69],[-130,50]],[[2799,2279],[30,76],[57,23],[39,-19],[24,-27],[-52,-34],[-29,10],[-6,-38],[62,-111],[14,102],[68,2],[-23,-139],[-48,-27],[-63,14],[-73,168]]]}