{"objects":{"water":{"type":"GeometryCollection","geometries":[{"type":"MultiPolygon","properties":{"source":"naturalearthdata.com","kind":"ocean","area":1576712559132672,"sort_rank":200,"min_zoom":0.0,"id":1},"arcs":[[[0],[1],[2],[3],[4],[5],[6],[7],[8],[9],[10],[11],[12],[13],[14],[15],[16],[17],[18],[19],[20],[21],[22],[23],[24],[25],[26],[27],[28],[29],[30],[31],[32],[33],[34],[35],[36],[37],[38],[39],[40],[41],[42],[43]],[[44]]]},{"type":"LineString","properties":{"source":"naturalearthdata.com","kind":"ocean","sort_rank":205,"boundary":true,"min_zoom":0.0,"id":733},"arcs":[45]},{"type":"LineString","properties":{"source":"naturalearthdata.com","kind":"ocean","sort_rank":205,"boundary":true,"min_zoom":0.0,"id":734},"arcs":[46]},{"type":"LineString","properties":{"source":"naturalearthdata.com","kind":"ocean","sort_rank":205,"boundary":true,"min_zoom":0.0,"id":735},"arcs":[47]},{"type":"LineString","properties":{"source":"naturalearthdata.com","kind":"ocean","sort_rank":205,"boundary":true,"min_zoom":0.0,"id":736},"arcs":[48]},{"type":"LineString","properties":{"source":"naturalearthdata.com","kind":"ocean","sort_rank":205,"boundary":true,"min_zoom":0.0,"id":737},"arcs":[49]},{"type":"LineString","properties":{"source":"naturalearthdata.com","kind":"ocean","sort_rank":205,"boundary":true,"min_zoom":0.0,"id":738},"arcs":[50]},{"type":"LineString","properties":{"source":"naturalearthdata.com","kind":"ocean","sort_rank":205,"boundary":true,"min_zoom":0.0,"id":739},"arcs":[51]},{"type":"LineString","properties":{"source":"naturalearthdata.com","kind":"ocean","sort_rank":205,"boundary":true,"min_zoom":0.0,"id":740},"arcs":[52]},{"type":"LineString","properties":{"source":"naturalearthdata.com","kind":"ocean","sort_rank":205,"boundary":true,"min_zoom":0.0,"id":741},"arcs":[53]},{"type":"LineString","properties":{"source":"naturalearthdata.com","kind":"ocean","sort_rank":205,"boundary":true,"min_zoom":0.0,"id":742},"arcs":[54]},{"type":"LineString","properties":{"source":"naturalearthdata.com","kind":"ocean","sort_rank":205,"boundary":true,"min_zoom":0.0,"id":745},"arcs":[55]},{"type":"LineString","properties":{"source":"naturalearthdata.com","kind":"ocean","sort_rank":205,"boundary":true,"min_zoom":0.0,"id":747},"arcs":[56]},{"type":"LineString","properties":{"source":"naturalearthdata.com","kind":"ocean","sort_rank":205,"boundary":true,"min_zoom":0.0,"id":749},"arcs":[57]},{"type":"LineString","properties":{"source":"naturalearthdata.com","kind":"ocean","sort_rank":205,"boundary":true,"min_zoom":0.0,"id":758},"arcs":[58]},{"type":"LineString","properties":{"source":"naturalearthdata.com","kind":"ocean","sort_rank":205,"boundary":true,"min_zoom":0.0,"id":759},"arcs":[59]},{"type":"LineString","properties":{"source":"naturalearthdata.com","kind":"ocean","sort_rank":205,"boundary":true,"min_zoom":0.0,"id":760},"arcs":[60]},{"type":"LineString","properties":{"source":"naturalearthdata.com","kind":"ocean","sort_rank":205,"boundary":true,"min_zoom":0.0,"id":761},"arcs":[61]},{"type":"LineString","properties":{"source":"naturalearthdata.com","kind":"ocean","sort_rank":205,"boundary":true,"min_zoom":0.0,"id":763},"arcs":[62]},{"type":"LineString","properties":{"source":"naturalearthdata.com","kind":"ocean","sort_rank":205,"boundary":true,"min_zoom":0.0,"id":764},"arcs":[63]},{"type":"LineString","properties":{"source":"naturalearthdata.com","kind":"ocean","sort_rank":205,"boundary":true,"min_zoom":0.0,"id":765},"arcs":[64]},{"type":"LineString","properties":{"source":"naturalearthdata.com","kind":"ocean","sort_rank":205,"boundary":true,"min_zoom":0.0,"id":766},"arcs":[65]},{"type":"LineString","properties":{"source":"naturalearthdata.com","kind":"ocean","sort_rank":205,"boundary":true,"min_zoom":0.0,"id":767},"arcs":[66]},{"type":"LineString","properties":{"source":"naturalearthdata.com","kind":"ocean","sort_rank":205,"boundary":true,"min_zoom":0.0,"id":2246},"arcs":[67]},{"type":"LineString","properties":{"source":"naturalearthdata.com","kind":"ocean","sort_rank":205,"boundary":true,"min_zoom":0.0,"id":2271},"arcs":[68]},{"type":"LineString","properties":{"source":"naturalearthdata.com","kind":"ocean","sort_rank":205,"boundary":true,"min_zoom":0.0,"id":2876},"arcs":[69]},{"type":"LineString","properties":{"source":"naturalearthdata.com","kind":"ocean","sort_rank":205,"boundary":true,"min_zoom":0.0,"id":2877},"arcs":[70]},{"type":"LineString","properties":{"source":"naturalearthdata.com","kind":"ocean","sort_rank":205,"boundary":true,"min_zoom":0.0,"id":2878},"arcs":[71]},{"type":"LineString","properties":{"source":"naturalearthdata.com","kind":"ocean","sort_rank":205,"boundary":true,"min_zoom":0.0,"id":2879},"arcs":[72]},{"type":"LineString","properties":{"source":"naturalearthdata.com","kind":"ocean","sort_rank":205,"boundary":true,"min_zoom":0.0,"id":2880},"arcs":[73]},{"type":"LineString","properties":{"source":"naturalearthdata.com","kind":"ocean","sort_rank":205,"boundary":true,"min_zoom":0.0,"id":2881},"arcs":[74]},{"type":"LineString","properties":{"source":"naturalearthdata.com","kind":"ocean","sort_rank":205,"boundary":true,"min_zoom":0.0,"id":2882},"arcs":[75]},{"type":"LineString","properties":{"source":"naturalearthdata.com","kind":"ocean","sort_rank":205,"boundary":true,"min_zoom":0.0,"id":2883},"arcs":[76]},{"type":"LineString","properties":{"source":"naturalearthdata.com","kind":"ocean","sort_rank":205,"boundary":true,"min_zoom":0.0,"id":2884},"arcs":[77]},{"type":"LineString","properties":{"source":"naturalearthdata.com","kind":"ocean","sort_rank":205,"boundary":true,"min_zoom":0.0,"id":2885},"arcs":[78]},{"type":"LineString","properties":{"source":"naturalearthdata.com","kind":"ocean","sort_rank":205,"boundary":true,"min_zoom":0.0,"id":2886},"arcs":[79]},{"type":"LineString","properties":{"source":"naturalearthdata.com","kind":"ocean","sort_rank":205,"boundary":true,"min_zoom":0.0,"id":2887},"arcs":[80]},{"type":"LineString","properties":{"source":"naturalearthdata.com","kind":"ocean","sort_rank":205,"boundary":true,"min_zoom":0.0,"id":2888},"arcs":[81]},{"type":"LineString","properties":{"source":"naturalearthdata.com","kind":"ocean","sort_rank":205,"boundary":true,"min_zoom":0.0,"id":2889},"arcs":[82]},{"type":"LineString","properties":{"source":"naturalearthdata.com","kind":"ocean","sort_rank":205,"boundary":true,"min_zoom":0.0,"id":2890},"arcs":[83]},{"type":"LineString","properties":{"source":"naturalearthdata.com","kind":"ocean","sort_rank":205,"boundary":true,"min_zoom":0.0,"id":2891},"arcs":[84]},{"type":"LineString","properties":{"source":"naturalearthdata.com","kind":"ocean","sort_rank":205,"boundary":true,"min_zoom":0.0,"id":2892},"arcs":[85]},{"type":"LineString","properties":{"source":"naturalearthdata.com","kind":"ocean","sort_rank":205,"boundary":true,"min_zoom":0.0,"id":2893},"arcs":[86]},{"type":"LineString","properties":{"source":"naturalearthdata.com","kind":"ocean","sort_rank":205,"boundary":true,"min_zoom":0.0,"id":2894},"arcs":[87]},{"type":"LineString","properties":{"source":"naturalearthdata.com","kind":"ocean","sort_rank":205,"boundary":true,"min_zoom":0.0,"id":2895},"arcs":[88]},{"type":"LineString","properties":{"source":"naturalearthdata.com","kind":"ocean","sort_rank":205,"boundary":true,"min_zoom":0.0,"id":2896},"arcs":[89]},{"type":"MultiLineString","properties":{"source":"naturalearthdata.com","kind":"ocean","sort_rank":205,"boundary":true,"min_zoom":0.0,"id":2897},"arcs":[[90],[91]]},{"type":"LineString","properties":{"source":"naturalearthdata.com","kind":"ocean","sort_rank":205,"boundary":true,"min_zoom":0.0,"id":2898},"arcs":[92]},{"type":"LineString","properties":{"source":"naturalearthdata.com","kind":"ocean","sort_rank":205,"boundary":true,"min_zoom":0.0,"id":2899},"arcs":[93]},{"type":"LineString","properties":{"source":"naturalearthdata.com","kind":"ocean","sort_rank":205,"boundary":true,"min_zoom":0.0,"id":2900},"arcs":[94]},{"type":"LineString","properties":{"source":"naturalearthdata.com","kind":"ocean","sort_rank":205,"boundary":true,"min_zoom":0.0,"id":2901},"arcs":[95]},{"type":"LineString","properties":{"source":"naturalearthdata.com","kind":"ocean","sort_rank":205,"boundary":true,"min_zoom":0.0,"id":3088},"arcs":[96]},{"type":"LineString","properties":{"source":"naturalearthdata.com","kind":"ocean","sort_rank":205,"boundary":true,"min_zoom":0.0,"id":3089},"arcs":[97]},{"type":"LineString","properties":{"source":"naturalearthdata.com","kind":"ocean","sort_rank":205,"boundary":true,"min_zoom":0.0,"id":3090},"arcs":[98]}]},"buildings":{"type":"GeometryCollection","geometries":[]},"places":{"type":"GeometryCollection","geometries":[{"type":"Point","properties":{"name:pt":"Polin\u00e9sia Francesa","name:ty":"P\u014dr\u012bnetia Far\u0101ni","name:ka":"\u10e4\u10e0\u10d0\u10dc\u10d2\u10e3\u10da\u10d8 \u10de\u10dd\u10da\u10d8\u10dc\u10d4\u10d6\u10d8\u10d0","name:mt":"Polinesja Fran\u010bi\u017ca","name:ko":"\ud504\ub791\uc2a4\ub839 \ud3f4\ub9ac\ub124\uc2dc\uc544","name:kn":"\u0cab\u0ccd\u0cb0\u0cc6\u0c82\u0c9a\u0ccd \u0caa\u0ccb\u0cb2\u0cbf\u0ca8\u0cc7\u0cb6\u0cbf\u0caf\u0cbe","name:km":"\u17a0\u17d2\u179c\u17d2\u179a\u17c1\u1793\u200b\u1794\u17c9\u17bc\u179b\u17b8\u200b\u178e\u17c1\u179f\u17ca\u17b8","name:cs":"Francouzsk\u00e1 Polyn\u00e9sie","name:ki":"Polinesia ya Ufaransa","name:kw":"Polynesi Frynkek","name:tr":"Frans\u0131z Polinezyas\u0131","name:ku":"Pol\u00eenezyaya Frans\u00ee","name:ti":"\u12e8\u1348\u1228\u1295\u1233\u12ed \u1356\u120a\u1294\u12e2\u12eb","name:ks":"\u0641\u0631\u065b\u0627\u0646\u0633\u06cc \u067e\u0648\u0644\u0650\u0646\u06cc\u0634\u0650\u06cc\u0627","name:to":"Polinisia fakafalanis\u0113","name:zh-min-nan":"Hoat-kok Polyn\u00e9sie","name:os":"\u0424\u0440\u0430\u043d\u0446\u044b \u041f\u043e\u043b\u0438\u043d\u0435\u0437\u0438","name:or":"\u0b2b\u0b4d\u0b30\u0b47\u0b1e\u0b4d\u0b1a \u0b2a\u0b32\u0b3f\u0b28\u0b47\u0b38\u0b3f\u0b06","name:pl":"Polinezja Francuska","name:ta":"\u0baa\u0bbf\u0bb0\u0bc6\u0b9e\u0bcd\u0b9a\u0bc1 \u0baa\u0bca\u0bb2\u0bbf\u0ba9\u0bc0\u0b9a\u0bbf\u0baf\u0bbe","name:ca":"Polin\u00e8sia Francesa","name:te":"\u0c2b\u0c4d\u0c30\u0c46\u0c02\u0c1a\u0c4d \u0c2a\u0c4b\u0c32\u0c3f\u0c28\u0c3f\u0c37\u0c3f\u0c2f\u0c3e","name:vi":"Polyn\u00e9sie thu\u1ed9c Ph\u00e1p","name:cy":"Polynesia Ffrengig","name:hr":"Francuska Polinezija","name:ln":"Polinezi ya Fal\u00e1ns\u025b","name:da":"Fransk Polynesien","name:de":"Franz\u00f6sisch-Polynesien","name:dz":"\u0f55\u0fb2\u0f71\u0f53\u0f66\u0f84\u0f0b\u0f40\u0fb1\u0f72\u0f0b\u0f54\u0f7c\u0f0b\u0f63\u0f72\u0f0b\u0f53\u0f72\u0f0b\u0f64\u0f72\u0f0b\u0f61","source":"openstreetmap.org","name:az":"Fransa Polineziyas\u0131","name:dv":"\u078a\u07a6\u0783\u07a6\u0782\u07b0\u0790\u07ad\u0790\u07a8 \u0795\u07ae\u078d\u07a8\u0782\u07ad\u079d\u07a8\u0787\u07a7","name:lv":"Fran\u010du Polin\u0113zija","name:lt":"Pranc\u016bzijos Polinezija","name:hi":"\u092b\u094d\u0930\u0947\u0902\u091a \u092a\u094b\u0932\u0940\u0928\u0947\u0936\u093f\u092f\u093e","name:kk":"\u0424\u0440\u0430\u043d\u0446\u0438\u044f \u041f\u043e\u043b\u0438\u043d\u0435\u0437\u0438\u044f\u0441\u044b","name:sv":"Franska Polynesien","name:he":"\u05e4\u05d5\u05dc\u05d9\u05e0\u05d6\u05d9\u05d4 \u05d4\u05e6\u05e8\u05e4\u05ea\u05d9\u05ea","min_zoom":4.0,"kind":"region","name:ur":"\u0641\u0631\u0627\u0646\u0633\u06cc\u0633\u06cc \u067e\u0648\u0644\u06cc\u0646\u06cc\u0634\u06cc\u0627","name:lb":"Frans\u00e9isch-Polynesien","name:la":"Polynesia Francica","name:lg":"Polinesiya enfalansa","name:uk":"\u0424\u0440\u0430\u043d\u0446\u0443\u0437\u044c\u043a\u0430 \u041f\u043e\u043b\u0456\u043d\u0435\u0437\u0456\u044f","name:ug":"Fransiyige Qarashliq Polin\u00e9ziye","name:hu":"Francia Polin\u00e9zia","name:qu":"Phransis Pulinisya","name:lo":"\u0ec0\u0e9f\u0eb1\u0e99\u0ea3\u0ec2\u0e9e\u0ea5\u0eb4\u0e99\u0eb5\u0ec0\u0e8a\u0e8d","name:oc":"Polinesia Francesa","population":268270,"name:el":"\u0393\u03b1\u03bb\u03bb\u03b9\u03ba\u03ae \u03a0\u03bf\u03bb\u03c5\u03bd\u03b7\u03c3\u03af\u03b1","name:eo":"Franca Polinezio","name:en":"French Polynesia","name":"Polyn\u00e9sie Fran\u00e7aise","name:ee":"Frentsi P\u0254linesia nutome","name:th":"\u0e40\u0e1f\u0e23\u0e19\u0e0a\u0e4c\u0e42\u0e1b\u0e25\u0e34\u0e19\u0e35\u0e40\u0e0b\u0e35\u0e22","name:gu":"\u0aab\u0acd\u0ab0\u0ac7\u0a82\u0a9a \u0aaa\u0acb\u0ab2\u0abf\u0aa8\u0ac7\u0ab6\u0abf\u0aaf\u0abe","name:eu":"Frantziar Polinesia","name:et":"Prantsuse Pol\u00fcneesia","name:nl":"Frans-Polynesi\u00eb","name:es":"Polinesia Francesa","name:ia":"Polynesia francese","name:rm":"Polinesia Franzosa","name:rn":"Polineziya y'Abafaransa","name:ro":"Polinezia Francez\u0103","name:id":"Polinesia Perancis","name:ms":"Polinesia Perancis","name:mr":"\u092b\u094d\u0930\u0947\u0902\u091a \u092a\u0949\u0932\u093f\u0928\u0947\u0936\u093f\u092f\u093e","name:ar":"\u0628\u0648\u0644\u0648\u0646\u064a\u0632\u064a\u0627 \u0627\u0644\u0641\u0631\u0646\u0633\u064a\u0629","name:my":"\u1015\u103c\u1004\u103a\u101e\u1005\u103a \u1015\u1031\u102b\u103a\u101c\u102e\u1014\u1031\u1038\u101b\u103e\u102c\u1038","name:io":"Franca Polinezia","int_name":"French Polynesia","name:is":"Franska P\u00f3l\u00fdnes\u00eda","name:am":"\u12e8\u1348\u1228\u1295\u1233\u12ed \u1356\u120a\u1294\u12e2\u12eb","name:it":"Polinesia francese","name:an":"Polinesia Franzesa","name:ru":"\u0424\u0440\u0430\u043d\u0446\u0443\u0437\u0441\u043a\u0430\u044f \u041f\u043e\u043b\u0438\u043d\u0435\u0437\u0438\u044f","name:mn":"\u0424\u0440\u0430\u043d\u0446\u044b\u043d \u041f\u043e\u043b\u0438\u043d\u0435\u0437","name:mi":"Porin\u012bhia W\u012bw\u012b","id":462226505,"name:mk":"\u0424\u0440\u0430\u043d\u0446\u0443\u0441\u043a\u0430 \u041f\u043e\u043b\u0438\u043d\u0435\u0437\u0438\u0458\u0430","name:af":"Franse Polynesi\u00eb","name:zu":"i-French Polynesia","name:ha":"Folinesiya Ta Faransa","name:nn":"Fransk Polynesia","name:ff":"Polinesii Farayse","kind_detail":"state","name:mg":"Polynezia frantsay","name:fo":"Franska Polynesia","name:fr":"Polyn\u00e9sie fran\u00e7aise","name:fy":"Fr\u00e2nsk Polyneezje","name:zh":"\u6cd5\u5c5e\u6ce2\u5229\u5c3c\u897f\u4e9a","name:nb":"Fransk Polynesia","name:sl":"Francoska Polinezija","name:sk":"Franc\u00fazska Polyn\u00e9zia","name:ja":"\u30d5\u30e9\u30f3\u30b9\u9818\u30dd\u30ea\u30cd\u30b7\u30a2","name:si":"\u0db4\u0dca\u200d\u0dbb\u0d82\u0dc1 \u0db4\u0ddc\u0dbd\u0dd2\u0db1\u0dd3\u0dc3\u0dd2\u0dba\u0dcf\u0dc0","name:sh":"Francuska Polinezija","name:sg":"Polinez\u00efi t\u00ee far\u00e2nzi","name:se":"Frankriikka Polynesia","name:ne":"\u092b\u094d\u0930\u093e\u0928\u094d\u0938\u0947\u0932\u0940 \u092a\u094b\u0932\u093f\u0928\u0947\u0938\u093f\u092f\u093e","name:br":"Polinezia Fra\u00f1s","name:bs":"Francuska Polinezija","name:bm":"Faransi ka polinezi","name:bn":"\u09ab\u09b0\u09be\u09b8\u09c0 \u09aa\u09b2\u09bf\u09a8\u09c7\u09b6\u09bf\u09af\u09bc\u09be","name:ml":"\u0d2b\u0d4d\u0d30\u0d1e\u0d4d\u0d1a\u0d4d \u0d2a\u0d4b\u0d33\u0d3f\u0d28\u0d47\u0d37\u0d4d\u0d2f","name:sw":"Polynesia ya Kifaransa","name:be":"\u0424\u0440\u0430\u043d\u0446\u0443\u0437\u0441\u043a\u0430\u044f \u041f\u0430\u043b\u0456\u043d\u0435\u0437\u0456\u044f","name:bg":"\u0424\u0440\u0435\u043d\u0441\u043a\u0430 \u041f\u043e\u043b\u0438\u043d\u0435\u0437\u0438\u044f","name:wo":"Polineesi gu Faraas","name:sr":"\u0424\u0440\u0430\u043d\u0446\u0443\u0441\u043a\u0430 \u041f\u043e\u043b\u0438\u043d\u0435\u0437\u0438\u0458\u0430","name:ga":"Polain\u00e9is na Fraince","name:gd":"French Polynesia","name:jv":"Polinesia Perancis","name:gl":"Polinesia francesa","name:fa":"\u067e\u0644\u06cc\u200c\u0646\u0632\u06cc \u0641\u0631\u0627\u0646\u0633\u0647","name:yo":"Or\u00edl\u1eb9\u0301\u00e8de Firen\u1e63i Polinesia","name:ak":"Fr\u025bnkye P\u0254lenehyia","name:fi":"Ranskan Polynesia","name:tt":"\u0424\u0440\u0430\u043d\u0446\u0443\u0437 \u041f\u043e\u043b\u0438\u043d\u0435\u0437\u0438\u044f\u0441\u0435"},"coordinates":[585,1263]}]},"transit":{"type":"GeometryCollection","geometries":[]},"pois":{"type":"GeometryCollection","geometries":[]},"boundaries":{"type":"GeometryCollection","geometries":[]},"roads":{"type":"GeometryCollection","geometries":[]},"earth":{"type":"GeometryCollection","geometries":[{"type":"MultiPolygon","properties":{"sort_rank":10,"source":"naturalearthdata.com","min_zoom":0.0,"kind":"earth","area":3551041086},"arcs":[[[99]],[[100]],[[101]]]}]},"landuse":{"type":"GeometryCollection","geometries":[]}},"type":"Topology","transform":{"translate":[-146.25,-21.9430455334],"scale":[0.002746582,0.0026280868]},"arcs":[[[4096,0],[-4096,0],[0,2835],[5,5],[2,9],[-5,6],[-2,1],[0,1240],[4096,0],[0,-4096]],[[2679,29],[-7,1],[-8,-3],[30,0],[-7,1],[-8,1]],[[2045,107],[-7,6],[-7,-5],[-1,-11],[6,-9],[10,-4],[10,6],[-11,17]],[[3913,173],[-8,0],[24,-15],[-4,7],[-6,5],[-6,3]],[[3581,179],[3,3],[4,1],[3,-1],[4,-1],[-1,3],[-5,1],[-5,-1],[-3,-5]],[[3534,230],[3,-1],[0,-3],[-3,-4],[5,4],[2,4],[-3,3],[-6,-2],[2,-1]],[[2806,442],[-2,1],[-2,-1],[-4,-1],[-1,-2],[6,3],[2,-1],[2,-2],[8,-23],[0,-4],[-6,-6],[8,7],[-3,16],[-8,13]],[[2131,872],[-6,-5],[5,1],[5,2],[3,3],[0,5],[-2,4],[-4,4],[-5,2],[-2,-2],[9,-5],[1,-5],[-4,-4]],[[1825,1046],[-5,2],[-5,-6],[4,2],[4,-1],[3,-4],[2,-6],[1,8],[-4,5]],[[2022,1074],[-9,-5],[6,2],[8,-1],[5,-4],[-6,-8],[9,4],[-3,8],[-10,4]],[[2704,1211],[-2,0],[13,-7],[0,2],[-1,1],[-2,2],[-5,2],[-3,0]],[[3618,1285],[0,-1],[3,9],[-9,7],[-19,6],[-5,6],[-11,7],[-12,5],[-7,-3],[2,-1],[1,-1],[1,-2],[1,-2],[0,2],[-1,3],[2,2],[4,-1],[17,-10],[3,-2],[2,-3],[2,-2],[4,-1],[11,-3],[4,-2],[4,-3],[2,-3],[1,-3],[0,-2],[0,-2]],[[2025,1352],[-25,14],[-9,7],[1,-2],[3,-4],[7,-5],[20,-10],[6,-5],[2,-4],[1,-1],[-3,5],[-3,5]],[[3343,1399],[35,-36],[-4,10],[-10,12],[-12,10],[-9,4]],[[1967,1431],[9,-14],[-3,11],[-7,8],[-10,7],[-8,8],[-9,17],[-15,7],[-3,2],[16,-13],[4,-5],[9,-15],[17,-13]],[[297,1722],[20,-26],[-10,16],[-5,6],[-5,4]],[[1024,1714],[9,-7],[-3,6],[-6,3],[-7,2],[-7,-1],[14,-3]],[[1342,1652],[-5,-8],[7,9],[-7,10],[-13,10],[-9,5],[27,-26]],[[1972,1565],[-2,-5],[1,-4],[3,-2],[6,-2],[6,1],[4,1],[10,10],[11,10],[17,10],[12,14],[7,6],[3,8],[-2,7],[-10,2],[-7,-6],[-27,-12],[-13,-8],[-8,-13],[-7,-8],[-4,-9]],[[1157,1561],[-3,1],[-4,-6],[2,-2],[1,1],[2,2],[2,3],[1,-5],[2,-3],[1,-1],[-4,10]],[[1753,1741],[-4,6],[-5,3],[-8,-2],[5,0],[5,-1],[4,-3],[2,-3],[0,-6],[0,-1],[1,-1],[0,2],[0,5],[0,1]],[[244,1735],[-5,22],[0,-7],[1,-5],[2,-5],[2,-5]],[[2841,1754],[-5,-6],[-1,-3],[0,-1],[1,-2],[7,-1],[-2,2],[-2,1],[-2,0],[0,1],[1,3],[11,9],[-8,-3]],[[1154,1883],[-4,2],[-4,0],[2,-2],[1,-1],[3,-3],[3,-1],[2,-1],[2,0],[2,0],[-3,4],[-4,2]],[[779,1982],[0,-2],[7,7],[6,-4],[4,-6],[5,-5],[-1,4],[-4,7],[-6,5],[-10,-2],[-1,-3],[0,-1]],[[928,2040],[15,-8],[14,-11],[18,-2],[-14,3],[-20,15],[-13,3]],[[983,2025],[16,-2],[19,1],[25,-18],[-13,13],[-7,6],[-9,2],[-31,-2]],[[751,2016],[-4,1],[-1,-2],[6,-5],[2,-1],[3,-2],[-2,5],[-4,4]],[[852,2088],[-7,2],[-2,0],[8,-3],[12,-4],[11,-9],[10,-17],[2,-1],[-2,9],[-4,7],[-11,12],[-5,2],[-12,2]],[[725,2087],[1,-8],[2,7],[-4,7],[-5,6],[-6,4],[11,-13],[1,-3]],[[280,2129],[-5,5],[-8,21],[-15,18],[-2,3],[-2,4],[-3,20],[-2,5],[-4,3],[-4,8],[-2,8],[-1,7],[2,-19],[6,-8],[5,-20],[9,-19],[8,-10],[10,-22],[8,-4]],[[1357,2229],[-2,-9],[17,34],[-5,-6],[-5,-9],[-5,-10]],[[232,2241],[-7,6],[-9,-2],[-19,-7],[35,3]],[[661,2140],[3,-5],[7,1],[12,-4],[-3,3],[-5,3],[-6,1],[-6,-2],[1,2],[-1,0],[-2,1]],[[2213,2270],[10,6],[10,0],[2,-6],[2,6],[-7,3],[-10,-2],[-7,-7]],[[427,2315],[7,-16],[0,10],[-3,7],[-10,11],[-9,18],[-6,6],[-9,2],[11,-7],[19,-31]],[[109,2322],[19,-18],[0,4],[-6,5],[-13,9]],[[585,2355],[4,-1],[4,4],[0,4],[-4,3],[-6,-1],[-1,-4],[1,-3],[2,-2]],[[1952,2323],[3,0],[7,7],[3,2],[-3,0],[-10,-2],[-3,-3],[1,-2],[2,-2]],[[280,2461],[-25,9],[9,-7],[25,-4],[7,-6],[2,3],[-1,2],[-4,1],[-4,0],[-9,2]],[[380,2765],[4,5],[-14,-10],[-8,-1],[2,8],[8,19],[-9,-16],[-4,-10],[1,-5],[7,2],[7,3],[6,5]],[[499,2866],[-2,1],[-5,-2],[-7,-3],[-16,-2],[-8,-2],[-7,-4],[17,4],[16,1],[9,4],[-8,-8],[-16,-9],[-18,-18],[6,4],[12,12],[3,2],[4,1],[12,7],[7,6],[1,2],[0,4]],[[143,2894],[-21,-4],[20,1],[6,-1],[-1,-7],[4,9],[-8,2]],[[1838,2958],[-4,2],[9,-10],[3,-2],[2,2],[-10,8]],[[0,2851],[4,-2],[-2,-8],[-2,-3],[0,13]],[[1815,1042],[5,6],[5,-2],[4,-5],[-1,-8],[-2,6],[-3,4],[-4,1],[-4,-2]],[[1848,2950],[-10,8],[-4,2],[9,-10],[3,-2],[2,2]],[[2125,886],[9,-5],[1,-5],[-4,-4],[-6,-5],[5,1],[5,2],[3,3],[0,5],[-2,4],[-4,4],[-5,2],[-2,-2]],[[2013,1069],[9,5],[10,-4],[3,-8],[-9,-4],[6,8],[-5,4],[-8,1],[-6,-2]],[[2714,1009],[1,3],[-1,1],[-2,0],[-4,-1],[1,-1],[1,-1],[4,-1]],[[2566,986],[-1,-3],[3,4],[0,3],[-2,2],[-5,1],[3,-2],[1,-1],[0,-2],[1,-2]],[[1752,1741],[-2,3],[-4,3],[-5,1],[-5,0],[8,2],[5,-3],[4,-6],[0,-1],[0,-5],[0,-2],[-1,1],[0,1],[0,6]],[[1952,2330],[10,2],[3,0],[-3,-2],[-7,-7],[-3,0],[-2,2],[-1,2],[3,3]],[[2712,1209],[-5,2],[-3,0],[-2,0],[13,-7],[0,2],[-1,1],[-2,2]],[[2843,1741],[-7,1],[-1,2],[0,1],[1,3],[5,6],[8,3],[-11,-9],[-1,-3],[0,-1],[2,0],[2,-1],[2,-2]],[[289,2459],[4,0],[4,-1],[1,-2],[-2,-3],[-7,6],[-25,4],[-9,7],[25,-9],[9,-2]],[[20,2505],[1,5],[-2,4],[-1,2],[-2,1],[-3,2],[-1,0],[4,-2],[1,-1],[2,-3],[1,-3],[-1,-9],[-2,-7],[3,11]],[[128,2304],[-19,18],[13,-9],[6,-5],[0,-4]],[[119,2857],[-3,-1],[-4,-2],[-5,0],[-4,0],[12,2],[4,1]],[[1152,1879],[-3,3],[-1,1],[-2,2],[4,0],[4,-2],[4,-2],[3,-4],[-2,0],[-2,0],[-2,1],[-3,1]],[[1150,1556],[4,6],[3,-1],[4,-10],[-1,1],[-2,3],[-1,5],[-2,-3],[-2,-2],[-1,-1],[-2,2]],[[583,2364],[6,1],[4,-3],[0,-4],[-4,-4],[-4,1],[-2,2],[-1,3],[1,4]],[[3500,229],[0,3],[-1,3],[-2,1],[-2,0],[1,-2],[4,-5]],[[3532,231],[2,-1],[3,-1],[0,-3],[-3,-4],[5,4],[2,4],[-3,3],[-6,-2]],[[3595,181],[-1,3],[-5,1],[-5,-1],[-3,-5],[3,3],[4,1],[3,-1],[4,-1]],[[3465,240],[0,-1],[1,-1],[-1,4],[-2,3],[-3,0],[-2,-4],[2,2],[2,0],[1,-2],[2,-1]],[[746,2015],[6,-5],[2,-1],[3,-2],[-2,5],[-4,4],[-4,1],[-1,-2]],[[2031,108],[-1,-11],[6,-9],[10,-4],[10,6],[-11,17],[-7,6],[-7,-5]],[[2028,1584],[12,14],[7,6],[3,8],[-2,7],[-10,2],[-7,-6],[-27,-12],[-13,-8],[-8,-13],[-7,-8],[-4,-9],[-2,-5],[1,-4],[3,-2],[6,-2],[6,1],[4,1],[10,10],[11,10],[17,10]],[[3929,158],[-4,7],[-6,5],[-6,3],[-8,0],[24,-15]],[[3618,1284],[3,9],[-9,7],[-19,6],[-5,6],[-11,7],[-12,5],[-7,-3],[2,-1],[1,-1],[1,-2],[1,-2],[0,2],[-1,3],[2,2],[4,-1],[17,-10],[3,-2],[2,-3],[2,-2],[4,-1],[11,-3],[4,-2],[4,-3],[2,-3],[1,-3],[0,-2],[0,-2],[0,-1]],[[3378,1363],[-4,10],[-10,12],[-12,10],[-9,4],[35,-36]],[[2809,406],[8,7],[-3,16],[-8,13],[-2,1],[-2,-1],[-4,-1],[-1,-2],[6,3],[2,-1],[2,-2],[8,-23],[0,-4],[-6,-6]],[[2694,27],[-7,1],[-8,1],[-7,1],[-8,-3],[30,0]],[[2031,1342],[-3,5],[-3,5],[-25,14],[-9,7],[1,-2],[3,-4],[7,-5],[20,-10],[6,-5],[2,-4],[1,-1]],[[1976,1417],[-3,11],[-7,8],[-10,7],[-8,8],[-9,17],[-15,7],[-3,2],[16,-13],[4,-5],[9,-15],[17,-13],[9,-14]],[[2235,2270],[2,6],[-7,3],[-10,-2],[-7,-7],[10,6],[10,0],[2,-6]],[[1355,2220],[2,9],[5,10],[5,9],[5,6],[-17,-34]],[[1337,1644],[7,9],[-7,10],[-13,10],[-9,5],[27,-26],[-5,-8]],[[1033,1707],[-3,6],[-6,3],[-7,2],[-7,-1],[14,-3],[9,-7]],[[1043,2006],[-13,13],[-7,6],[-9,2],[-31,-2],[16,-2],[19,1],[25,-18]],[[975,2019],[-14,3],[-20,15],[-13,3],[15,-8],[14,-11],[18,-2]],[[886,2056],[-2,9],[-4,7],[-11,12],[-5,2],[-12,2],[-7,2],[-2,0],[8,-3],[12,-4],[11,-9],[10,-17],[2,-1]],[[726,2079],[2,7],[-4,7],[-5,6],[-6,4],[11,-13],[1,-3],[1,-8]],[[683,2132],[-3,3],[-5,3],[-6,1],[-6,-2],[1,2],[-1,0],[-2,1],[3,-5],[7,1],[12,-4]],[[394,2280],[-19,20],[-6,4],[25,-24]],[[434,2299],[0,10],[-3,7],[-10,11],[-9,18],[-6,6],[-9,2],[11,-7],[19,-31],[7,-16]],[[454,2828],[6,4],[12,12],[3,2],[4,1],[12,7],[7,6],[1,2],[0,4],[-2,1],[-5,-2],[-7,-3],[-16,-2],[-8,-2],[-7,-4],[17,4],[16,1],[9,4],[-8,-8],[-16,-9],[-18,-18]],[[384,2770],[-4,-5],[-6,-5],[-7,-3],[-7,-2],[-1,5],[4,10],[9,16],[-8,-19],[-2,-8],[8,1],[14,10]],[[147,2883],[4,9],[-8,2],[-21,-4],[20,1],[6,-1],[-1,-7]],[[0,2835],[5,5],[2,9],[-5,6],[-2,1]],[[0,2851],[4,-2],[-2,-8],[-2,-3]],[[232,2241],[-7,6],[-9,-2],[-19,-7],[35,3]],[[280,2129],[-5,5],[-8,21],[-15,18],[-2,3],[-2,4],[-3,20],[-2,5],[-4,3],[-4,8],[-2,8],[-1,7],[2,-19],[6,-8],[5,-20],[9,-19],[8,-10],[10,-22],[8,-4]],[[317,1696],[-10,16],[-5,6],[-5,4],[20,-26]],[[244,1735],[-2,5],[-2,5],[-1,5],[0,7],[5,-22]],[[780,1986],[10,2],[6,-5],[4,-7],[1,-4],[-5,5],[-4,6],[-6,4],[-7,-7],[0,2],[0,1],[1,3]],[[3463,238],[-1,0],[-1,1],[-1,0],[2,-2],[1,1]],[[2590,435],[-2,-1],[-1,-1],[-1,0],[4,2]],[[2056,90],[-10,-6],[-10,4],[-6,9],[1,11],[7,5],[7,-6],[11,-17]],[[1986,1553],[-6,-1],[-6,2],[-3,2],[-1,4],[2,5],[4,9],[7,8],[8,13],[13,8],[27,12],[7,6],[10,-2],[2,-7],[-3,-8],[-7,-6],[-12,-14],[-17,-10],[-11,-10],[-10,-10],[-4,-1]],[[275,2134],[5,-5],[-8,4],[-10,22],[-8,10],[-9,19],[-5,20],[-6,8],[-2,19],[1,-7],[2,-8],[4,-8],[4,-3],[2,-5],[3,-20],[2,-4],[2,-3],[15,-18],[8,-21]]]}