{"objects":{"water":{"type":"GeometryCollection","geometries":[{"type":"MultiPolygon","properties":{"source":"naturalearthdata.com","kind":"ocean","area":1576712559132672,"sort_rank":200,"min_zoom":0.0,"id":1},"arcs":[[[0]],[[1]]]},{"type":"MultiLineString","properties":{"source":"naturalearthdata.com","kind":"ocean","sort_rank":205,"boundary":true,"min_zoom":0.0,"id":1884},"arcs":[[2],[3]]}]},"buildings":{"type":"GeometryCollection","geometries":[]},"places":{"type":"GeometryCollection","geometries":[]},"transit":{"type":"GeometryCollection","geometries":[]},"pois":{"type":"GeometryCollection","geometries":[]},"boundaries":{"type":"GeometryCollection","geometries":[]},"roads":{"type":"GeometryCollection","geometries":[]},"earth":{"type":"GeometryCollection","geometries":[{"type":"MultiPolygon","properties":{"sort_rank":10,"source":"naturalearthdata.com","min_zoom":0.0,"kind":"earth","area":64510239926},"arcs":[[[4]]]},{"type":"Point","properties":{"label_placement":true,"name:pt":"Bolshoy Lyakhovsky","name:az":"B\u00f6y\u00fck Lyaxovski","name:nl":"Groot-Ljachovski","name:nn":"Bolsjoj Ljakhovskij","name:tr":"B\u00fcy\u00fck Lyahov Adas\u0131","name:cs":"Velk\u00fd Ljachovsk\u00fd ostrov","min_zoom":7.0,"name:it":"Bol'\u0161oj Ljachovskij","name:uk":"\u0412\u0435\u043b\u0438\u043a\u0438\u0439 \u041b\u044f\u0445\u043e\u0432\u0441\u044c\u043a\u0438\u0439 \u043e\u0441\u0442\u0440\u0456\u0432","name:hy":"\u0544\u0565\u056e \u053c\u0575\u0561\u056d\u0578\u057e\u057d\u056f\u056b","name:sv":"Bolsjoj Ljachovskij\u00f6n","name:pl":"Wielka Wyspa Lachowska","name:de":"Gro\u00dfe Ljachow-Insel","name:lt":"Did\u017eioji Liachovo sala","id":-1867828,"osm_relation":true,"name:fa":"\u062c\u0632\u06cc\u0631\u0647 \u0628\u0648\u0644\u0634\u0648\u06cc \u0644\u06cc\u0627\u062e\u0648\u0641\u0633\u06a9\u06cc","kind":"island","name:en":"Bolshoy Lyakhovsky Island","name":"\u0411\u043e\u043b\u044c\u0448\u043e\u0439 \u041b\u044f\u0445\u043e\u0432\u0441\u043a\u0438\u0439 \u043e\u0441\u0442\u0440\u043e\u0432","area":64562200576,"name:gl":"Bolshoy Lyakhovsky","source":"openstreetmap.org","name:fr":"Grande Liakhov","name:et":"Suur-Ljahhovi saar","name:zh":"\u5927\u5229\u4e9e\u970d\u592b\u5cf6","name:es":"Isla Gran Liajovski"},"coordinates":[55,3281]}]},"landuse":{"type":"GeometryCollection","geometries":[]}},"type":"Topology","transform":{"translate":[142.03125,73.2266996931],"scale":[0.0003433228,0.0000979221]},"arcs":[[[4096,4096],[0,-1080],[-88,212],[-631,868],[719,0]],[[0,0],[0,291],[545,-150],[366,-54],[226,-87],[-1137,0]],[[4096,3016],[-88,212],[-631,868]],[[0,291],[545,-150],[366,-54],[226,-87]],[[4096,3016],[0,-3016],[-2959,0],[-226,87],[-366,54],[-545,150],[0,3805],[3377,0],[631,-868],[88,-212]]]}