{"objects":{"water":{"type":"GeometryCollection","geometries":[{"type":"Polygon","properties":{"source":"naturalearthdata.com","kind":"ocean","area":1576712559132672,"sort_rank":200,"min_zoom":0.0,"id":1},"arcs":[[1]]},{"type":"LineString","properties":{"source":"naturalearthdata.com","kind":"ocean","sort_rank":205,"boundary":true,"min_zoom":0.0,"id":61},"arcs":[2]}]},"buildings":{"type":"GeometryCollection","geometries":[]},"places":{"type":"GeometryCollection","geometries":[{"type":"Point","properties":{"source":"naturalearthdata.com","kind":"locality","name":"Okhotsk","population":5570,"min_zoom":5.0,"id":6410},"coordinates":[3454,3236]},{"type":"Point","properties":{"kind":"locality","name:en":"Okhotsk","name":"\u041e\u0445\u043e\u0442\u0441\u043a","name:ko":"\uc624\ud638\uce20\ud06c","kind_detail":"town","name:de":"Ochotsk","source":"openstreetmap.org","min_zoom":8.0,"int_name":"Okhotsk","name:et":"Ohhotsk","population":3488,"id":1028724277,"name:ja":"\u30aa\u30db\u30fc\u30c4\u30af"},"coordinates":[3524,3130]}]},"transit":{"type":"GeometryCollection","geometries":[]},"pois":{"type":"GeometryCollection","geometries":[]},"boundaries":{"type":"GeometryCollection","geometries":[{"type":"LineString","properties":{"name:pt":"Krai de Khabarovsk","int_name":"Khabarovsk Krai","name:nl":"Kraj Chabarovsk","name:ja":"\u30cf\u30d0\u30ed\u30d5\u30b9\u30af\u5730\u65b9","name:lt":"Chabarovsko kra\u0161tas","min_zoom":8.0,"name:it":"Territorio di Chabarovsk","name:uk":"\u0425\u0430\u0431\u0430\u0440\u043e\u0432\u0441\u044c\u043a\u0438\u0439 \u043a\u0440\u0430\u0439","name:vi":"Khabarovsk (v\u00f9ng)","name:sv":"Chabarovsk kraj","name:pl":"Kraj Chabarowski","id":-151223,"name:ca":"Territori de Khab\u00e0rovsk","kind":"region","name:en":"Khabarovsk Krai","name":"\u0425\u0430\u0431\u0430\u0440\u043e\u0432\u0441\u043a\u0438\u0439 \u043a\u0440\u0430\u0439","sort_rank":256,"kind_detail":"4","name:fr":"Kra\u00ef de Khabarovsk","name:de":"Region Chabarowsk","source":"openstreetmap.org","maritime_boundary":true,"osm_relation":true,"name:zh":"\u54c8\u5df4\u7f57\u592b\u65af\u514b\u8fb9\u7586\u533a","name:es":"Krai de Jab\u00e1rovsk"},"arcs":[0]}]},"roads":{"type":"GeometryCollection","geometries":[]},"earth":{"type":"GeometryCollection","geometries":[{"type":"Polygon","properties":{"sort_rank":10,"source":"naturalearthdata.com","min_zoom":0.0,"kind":"earth","area":83032416396},"arcs":[[3]]}]},"landuse":{"type":"GeometryCollection","geometries":[{"type":"Polygon","properties":{"kind":"residential","name:en":"Okhotsk","name":"\u041e\u0445\u043e\u0442\u0441\u043a","area":16383000,"name:ko":"\uc624\ud638\uce20\ud06c","name:de":"Ochotsk","source":"openstreetmap.org","min_zoom":8.0,"int_name":"Okhotsk","sort_rank":20,"tier":2,"name:et":"Ohhotsk","id":163924366,"name:ja":"\u30aa\u30db\u30fc\u30c4\u30af"},"arcs":[[4]]},{"type":"MultiPolygon","properties":{"source":"openstreetmap.org","kind":"nature_reserve","tier":2,"protect_class":"7","area":9548198306,"sort_rank":23,"min_zoom":4.0},"arcs":[[[5]]]}]}},"type":"Topology","transform":{"translate":[142.03125,58.8137417157],"scale":[0.0003433228,0.0001759219]},"arcs":[[[676,0],[155,280],[271,343],[316,287],[398,308],[442,179],[581,181],[386,213],[608,-12],[263,-32]],[[0,1098],[72,84],[82,61],[175,139],[344,385],[931,577],[904,432],[779,294],[-41,35],[-19,8],[75,112],[115,15],[69,-122],[241,-9],[142,-115],[141,-92],[86,-11],[0,-2891],[-4096,0],[0,1098]],[[0,1098],[72,84],[82,61],[175,139],[344,385],[931,577],[904,432],[779,294],[-41,35],[-19,8],[75,112],[115,15],[69,-122],[241,-9],[142,-115],[141,-92],[86,-11]],[[4096,2891],[-86,11],[-141,92],[-142,115],[-241,9],[-69,122],[-115,-15],[-75,-112],[19,-8],[41,-35],[-779,-294],[-904,-432],[-931,-577],[-344,-385],[-175,-139],[-82,-61],[-72,-84],[0,2998],[4096,0],[0,-1205]],[[3412,3088],[20,42],[103,37],[189,-46],[-312,-33]],[[0,1037],[0,506],[88,-35],[160,-157],[-187,-224],[-61,-90]]]}