{"objects":{"water":{"type":"GeometryCollection","geometries":[{"type":"Polygon","properties":{"source":"naturalearthdata.com","kind":"ocean","area":1576712559132672,"sort_rank":200,"min_zoom":0.0,"id":1},"arcs":[[1]]}]},"buildings":{"type":"GeometryCollection","geometries":[]},"places":{"type":"GeometryCollection","geometries":[]},"transit":{"type":"GeometryCollection","geometries":[]},"pois":{"type":"GeometryCollection","geometries":[]},"boundaries":{"type":"GeometryCollection","geometries":[{"type":"LineString","properties":{"name:pt":"Krai de Khabarovsk","int_name":"Khabarovsk Krai","name:nl":"Kraj Chabarovsk","name:ja":"\u30cf\u30d0\u30ed\u30d5\u30b9\u30af\u5730\u65b9","name:lt":"Chabarovsko kra\u0161tas","min_zoom":8.0,"name:it":"Territorio di Chabarovsk","name:uk":"\u0425\u0430\u0431\u0430\u0440\u043e\u0432\u0441\u044c\u043a\u0438\u0439 \u043a\u0440\u0430\u0439","name:vi":"Khabarovsk (v\u00f9ng)","name:sv":"Chabarovsk kraj","name:pl":"Kraj Chabarowski","id":-151223,"name:ca":"Territori de Khab\u00e0rovsk","kind":"region","name:en":"Khabarovsk Krai","name":"\u0425\u0430\u0431\u0430\u0440\u043e\u0432\u0441\u043a\u0438\u0439 \u043a\u0440\u0430\u0439","sort_rank":256,"kind_detail":"4","name:fr":"Kra\u00ef de Khabarovsk","name:de":"Region Chabarowsk","source":"openstreetmap.org","maritime_boundary":true,"osm_relation":true,"name:zh":"\u54c8\u5df4\u7f57\u592b\u65af\u514b\u8fb9\u7586\u533a","name:es":"Krai de Jab\u00e1rovsk"},"arcs":[0]}]},"roads":{"type":"GeometryCollection","geometries":[]},"earth":{"type":"GeometryCollection","geometries":[]},"landuse":{"type":"GeometryCollection","geometries":[]}},"type":"Topology","transform":{"translate":[142.03125,58.0778762679],"scale":[0.0003433228,0.0001796547]},"arcs":[[[0,2907],[434,694],[242,495]],[[0,4096],[4096,0],[0,-4096],[-4096,0],[0,4096]]]}