{"objects":{"water":{"type":"GeometryCollection","geometries":[{"type":"MultiPolygon","properties":{"source":"naturalearthdata.com","kind":"ocean","area":1576712559132672,"sort_rank":200,"min_zoom":0.0,"id":1},"arcs":[[[10]]]},{"type":"LineString","properties":{"source":"naturalearthdata.com","kind":"ocean","sort_rank":205,"boundary":true,"min_zoom":0.0,"id":28},"arcs":[11]}]},"buildings":{"type":"GeometryCollection","geometries":[]},"places":{"type":"GeometryCollection","geometries":[]},"transit":{"type":"GeometryCollection","geometries":[{"type":"LineString","properties":{"kind":"train","name":"\u0424\u0438\u0440\u043c\u0435\u043d\u043d\u044b\u0439 \u043f\u043e\u0435\u0437\u0434 \u00ab\u0421\u0430\u0445\u0430\u043b\u0438\u043d\u00bb \u2116 2: \u041d\u043e\u0433\u043b\u0438\u043a\u0438 \u2014 \u042e\u0436\u043d\u043e-\u0421\u0430\u0445\u0430\u043b\u0438\u043d\u0441\u043a","sort_rank":275,"name:de":"Nogliki - Juschno-Sachalinsk","source":"openstreetmap.org","min_zoom":6.0,"operator":"\u041f\u041a \u00ab\u0421\u0430\u0445\u0430\u043b\u0438\u043d\u00bb","ref":"002\u042d","osm_relation":true,"network":"regional"},"arcs":[0]},{"type":"MultiLineString","properties":{"kind":"train","network":"regional","sort_rank":275,"source":"openstreetmap.org","min_zoom":6.0,"operator":"\u041f\u041a \u00ab\u0421\u0430\u0445\u0430\u043b\u0438\u043d\u00bb","ref":"603\u0416","osm_relation":true,"name":"\u041f\u043e\u0435\u0437\u0434 \u2116 603: \u042e\u0436\u043d\u043e-\u0421\u0430\u0445\u0430\u043b\u0438\u043d\u0441\u043a \u2014 \u041d\u043e\u0433\u043b\u0438\u043a\u0438"},"arcs":[[1],[2],[3],[4]]},{"type":"LineString","properties":{"kind":"train","name":"\u0424\u0438\u0440\u043c\u0435\u043d\u043d\u044b\u0439 \u043f\u043e\u0435\u0437\u0434 \u00ab\u0421\u0430\u0445\u0430\u043b\u0438\u043d\u00bb \u2116 1: \u042e\u0436\u043d\u043e-\u0421\u0430\u0445\u0430\u043b\u0438\u043d\u0441\u043a \u2014 \u041d\u043e\u0433\u043b\u0438\u043a\u0438","sort_rank":275,"source":"openstreetmap.org","min_zoom":6.0,"operator":"\u041f\u041a \u00ab\u0421\u0430\u0445\u0430\u043b\u0438\u043d\u00bb","ref":"001\u042d","osm_relation":true,"network":"regional"},"arcs":[5]},{"type":"MultiLineString","properties":{"kind":"train","network":"regional","sort_rank":275,"source":"openstreetmap.org","min_zoom":6.0,"operator":"\u041f\u041a \u00ab\u0421\u0430\u0445\u0430\u043b\u0438\u043d\u00bb","ref":"604\u042d","osm_relation":true,"name":"\u041f\u043e\u0435\u0437\u0434 \u2116 604: \u041d\u043e\u0433\u043b\u0438\u043a\u0438 \u2014 \u042e\u0436\u043d\u043e-\u0421\u0430\u0445\u0430\u043b\u0438\u043d\u0441\u043a"},"arcs":[[6],[7],[8],[9]]}]},"pois":{"type":"GeometryCollection","geometries":[]},"boundaries":{"type":"GeometryCollection","geometries":[]},"roads":{"type":"GeometryCollection","geometries":[{"type":"LineString","properties":{"kind":"major_road","network":"ru:regional","sort_rank":380,"kind_detail":"primary","source":"openstreetmap.org","min_zoom":8.0,"shield_text":"64\u041d","ref":"64\u041d-1"},"arcs":[12]}]},"earth":{"type":"GeometryCollection","geometries":[{"type":"MultiPolygon","properties":{"sort_rank":10,"source":"naturalearthdata.com","min_zoom":0.0,"kind":"earth","area":43446857327},"arcs":[[[13]]]},{"type":"Point","properties":{"name:pt":"Sacalina","old_name:ru":"\u041a\u0430\u0440\u0430\u0444\u0443\u0442\u043e","name:cy":"Sachalin","name:ko":"\uc0ac\ud560\ub9b0 \uc12c","old_name":"Karafuto","name:cs":"Sachalin","name:th":"\u0e40\u0e01\u0e32\u0e30\u0e0b\u0e32\u0e2e\u0e32\u0e25\u0e34\u0e19","name:az":"Saxalin adas\u0131","name:pa":"\u0a38\u0a3e\u0a16\u0a3e\u0a32\u0a3f\u0a28 \u0a1f\u0a3e\u0a2a\u0a42","name:pl":"Sachalin","name:ta":"\u0b9a\u0b95\u0bcd\u0b95\u0bb2\u0bbf\u0ba9\u0bcd","name:ca":"Sakhal\u00edn","name:ka":"\u10e1\u10d0\u10ee\u10d0\u10da\u10d8\u10dc\u10d8","area":183445995520,"name:da":"Sakhalin","name:de":"Sachalin","source":"openstreetmap.org","name:lv":"Sahal\u012bna","name:tr":"Sahalin","name:hi":"\u0938\u093e\u0916\u093c\u093e\u0932\u093f\u0928","name:sv":"Sachalin","name:he":"\u05e1\u05d7\u05dc\u05d9\u05df","name:eo":"Sa\u0125aleno","name:la":"Sachalina","name:uk":"\u0421\u0430\u0445\u0430\u043b\u0456\u0301\u043d","name:hy":"\u054d\u0561\u056d\u0561\u056c\u056b\u0576","name:ug":"\u0633\u0627\u062e\u0627\u0644\u0649\u0646","name:hu":"Szahalin","name:hr":"Sahalin","name:el":"\u03a3\u03b1\u03c7\u03b1\u03bb\u03af\u03bd\u03b7","kind":"island","name:en":"Sakhalin","name":"\u0421\u0430\u0445\u0430\u043b\u0438\u043d","min_zoom":7.0,"name:eu":"Sakhalin","name:et":"Sahhalin","name:es":"Sajal\u00edn","label_placement":true,"name:ro":"Insula Sahalin","name:id":"Sakhalin","name:ms":"Sakhalin","name:mr":"\u0938\u093e\u0916\u093e\u0932\u093f\u0928","name:ar":"\u0633\u062e\u0627\u0644\u064a\u0646","name:it":"Sachalin","name:ml":"\u0d38\u0d16\u0d3e\u0d32\u0d3f\u0d7b \u0d26\u0d4d\u0d35\u0d40\u0d2a\u0d4d\u200c","name:vi":"Sakhalin","id":-3987424,"name:af":"Sachalin","name:fa":"\u0633\u0627\u062e\u0627\u0644\u06cc\u0646","name:lt":"Sachalinas","name:fi":"Sahalin","name:uz":"Saxalin","name:fr":"Sakhaline","name:fy":"Sachalin","name:zh":"\u5e93\u9875\u5c9b","name:nl":"Sachalin","name:ja":"\u6a3a\u592a","name:nn":"Sakhalin","name:no":"Sakhalin","name:br":"Sac'halin","name:bs":"Sahalin","name:bn":"\u09b8\u09be\u0996\u09be\u09b2\u09bf\u09a8 \u09a6\u09cd\u09ac\u09c0\u09aa","name:sk":"Sachalin","name:sw":"Sahalin","name:be":"\u0412\u043e\u0441\u0442\u0440\u0430\u045e \u0421\u0430\u0445\u0430\u043b\u0456\u043d","osm_relation":true,"name:ga":"Sacail\u00edn","name:gd":"Sakhalin","name:gl":"Sakhalin"},"coordinates":[2719,2336]}]},"landuse":{"type":"GeometryCollection","geometries":[{"type":"Polygon","properties":{"kind":"nature_reserve","protect_class":"7","area":1681400064,"sort_rank":23,"source":"openstreetmap.org","min_zoom":4.0,"tier":2,"id":-5153314,"osm_relation":true},"arcs":[[14]]},{"type":"Polygon","properties":{"source":"openstreetmap.org","kind":"aerodrome","area":11275800,"tier":3,"id":75207983,"min_zoom":8.0,"sort_rank":60},"arcs":[[15]]}]}},"type":"Topology","transform":{"translate":[142.03125,49.8379824531],"scale":[0.0003433228,0.0002193537]},"arcs":[[[1811,4096],[59,-154],[95,-439],[131,-187],[-12,-129],[-112,-148],[-6,-324],[26,-103],[41,-42],[81,-297],[-102,-192],[-28,-280],[292,-1680],[11,-121]],[[1811,4096],[59,-154],[95,-439],[131,-187],[-12,-129],[-112,-148],[-6,-324],[26,-103],[41,-42],[81,-297],[-102,-192],[-28,-280],[292,-1680],[11,-121]],[[1926,3651],[2,-7]],[[2017,1577],[0,3]],[[2186,602],[0,-2]],[[1811,4096],[59,-154],[95,-439],[131,-187],[-12,-129],[-112,-148],[-6,-324],[26,-103],[41,-42],[81,-297],[-102,-192],[-28,-280],[292,-1680],[11,-121]],[[1811,4096],[59,-154],[95,-439],[131,-187],[-12,-129],[-112,-148],[-6,-324],[26,-103],[41,-42],[81,-297],[-102,-192],[-28,-280],[292,-1680],[11,-121]],[[1926,3651],[2,-7]],[[2017,1577],[0,3]],[[2186,602],[0,-2]],[[0,4096],[191,0],[-12,-102],[-87,-256],[-18,-186],[4,-102],[-3,-60],[-11,-42],[-35,-98],[12,-103],[157,-431],[53,-73],[63,-175],[19,-71],[13,-82],[2,-85],[-12,-84],[-33,-80],[59,-235],[53,-698],[-23,-173],[-20,-92],[-4,-64],[6,-172],[-9,-36],[-43,-69],[-9,-54],[3,-22],[14,-43],[3,-27],[-6,-28],[-26,-50],[-8,-31],[-20,0],[51,-168],[18,-104],[-342,0],[0,4096]],[[191,4096],[-12,-102],[-87,-256],[-18,-186],[4,-102],[-3,-60],[-11,-42],[-35,-98],[12,-103],[157,-431],[53,-73],[63,-175],[19,-71],[13,-82],[2,-85],[-12,-84],[-33,-80],[59,-235],[53,-698],[-23,-173],[-20,-92],[-4,-64],[6,-172],[-9,-36],[-43,-69],[-9,-54],[3,-22],[14,-43],[3,-27],[-6,-28],[-26,-50],[-8,-31],[-20,0],[51,-168],[18,-104]],[[2276,0],[-5,23],[5,65],[-67,35],[-64,681],[-84,229],[-59,270],[-73,115],[-58,210],[-4,142],[-45,202],[31,221],[-38,298],[22,59],[-2,323],[78,109],[31,116],[48,47],[-21,250],[29,124],[25,3],[0,32],[119,124],[-183,418]],[[4096,4096],[0,-4096],[-3754,0],[-18,104],[-51,168],[20,0],[8,31],[26,50],[6,28],[-3,27],[-14,43],[-3,22],[9,54],[43,69],[9,36],[-6,172],[4,64],[20,92],[23,173],[-53,698],[-59,235],[33,80],[12,84],[-2,85],[-13,82],[-19,71],[-63,175],[-53,73],[-157,431],[-12,103],[35,98],[11,42],[3,60],[-4,102],[18,186],[87,256],[12,102],[3905,0]],[[3583,3109],[42,95],[18,186],[-21,27],[-18,227],[76,69],[90,12],[-23,91],[-52,57],[20,223],[381,0],[0,-833],[-21,10],[-34,-36],[-82,47],[-129,16],[-46,-22],[0,-70],[-100,-58],[-13,-46],[-86,-26],[-2,31]],[[2089,3838],[21,20],[52,-60],[46,-121],[-32,-19],[-87,180]]]}