{"objects":{"water":{"type":"GeometryCollection","geometries":[{"type":"MultiPolygon","properties":{"source":"naturalearthdata.com","kind":"ocean","area":1576712559132672,"sort_rank":200,"min_zoom":0.0,"id":1},"arcs":[[[6]]]},{"type":"LineString","properties":{"source":"naturalearthdata.com","kind":"ocean","sort_rank":205,"boundary":true,"min_zoom":0.0,"id":27},"arcs":[7]}]},"buildings":{"type":"GeometryCollection","geometries":[]},"places":{"type":"GeometryCollection","geometries":[{"type":"Point","properties":{"admin_level":"7","kind":"locality","name:en":"Nayoro","name":"\u540d\u5bc4\u5e02","kind_detail":"city","source":"openstreetmap.org","min_zoom":8.0,"name:uk":"\u041d\u0430\u0439\u043e\u0440\u043e","name:ru":"\u041d\u0430\u0451\u0440\u043e","name:pl":"Nayoro","population":30920,"id":391962237,"name:ja":"Nayoro-shi"},"coordinates":[1258,1104]}]},"transit":{"type":"GeometryCollection","geometries":[{"type":"MultiLineString","properties":{"kind":"train","name:en":"Super S\u014dya","name:ja":"Supa S\u014dya","sort_rank":275,"source":"openstreetmap.org","min_zoom":6.0,"operator":"\u5317\u6d77\u9053\u65c5\u5ba2\u9244\u9053","osm_relation":true,"name":"\u30b9\u30fc\u30d1\u30fc\u5b97\u8c37"},"arcs":[[2],[3],[4],[5]]}]},"pois":{"type":"GeometryCollection","geometries":[]},"boundaries":{"type":"GeometryCollection","geometries":[{"type":"LineString","properties":{"name:ty":"T\u0101p\u014dn\u0113","name:ka":"\u10d8\u10d0\u10de\u10dd\u10dc\u10d8\u10d0","name:ko":"\uc77c\ubcf8","name:cv":"\u042f\u043f\u043e\u043d\u0438","name:cu":"\ua656\u043f\u0461\u043d\u0457\ua657","name:kl":"Japani","name:cs":"Japonsko","name:tw":"Yapan","name:ki":"Japan","name:kw":"Nihon","name:kv":"\u042f\u043f\u043e\u043d\u0438\u044f","name:th":"\u0e1b\u0e23\u0e30\u0e40\u0e17\u0e28\u0e0d\u0e35\u0e48\u0e1b\u0e38\u0e48\u0e19","name:ti":"\u1303\u1353\u1295","name:tl":"Hapon","name:ch":"Chapan","name:ce":"\u042f\u043f\u043e\u043d\u0438","name:ta":"\u0b9c\u0baa\u0bcd\u0baa\u0bbe\u0ba9\u0bcd","name:tg":"\u0416\u043e\u043f\u0443\u043d","name:ca":"Jap\u00f3","name:te":"\u0c1c\u0c2a\u0c3e\u0c28\u0c4d","name:cy":"Japan","name:qu":"Nihun","name:da":"Japan","name:de":"Japan","name:dz":"\u0f47\u0f71\u0f0b\u0f54\u0f71\u0f53\u0f0d","source":"openstreetmap.org","name:kn":"\u0c9c\u0caa\u0cbe\u0ca8\u0ccd","name:dv":"\u0796\u07a6\u0795\u07a7\u0782\u07aa","name:km":"\u1787\u1794\u17c9\u17bb\u1793","name:lv":"Jap\u0101na","name:lt":"Japonija","name:uz":"Yaponiya","name:kk":"\u0416\u0430\u043f\u043e\u043d\u0438\u044f","name:ur":"\u062c\u0627\u067e\u0627\u0646","name:lb":"Japan","name:la":"Iaponia","name:tt":"\u042f\u043f\u043e\u043d\u0438\u044f","name:uk":"\u042f\u043f\u043e\u043d\u0456\u044f","name:ug":"\u064a\u0627\u067e\u0648\u0646\u0649\u064a\u06d5","name:li":"Japan","name:ln":"Zap\u0254\u0301","name:lo":"\u0e9b\u0eb0\u0ec0\u0e97\u0e94\u0e8d\u0eb5\u0ec8\u0e9b\u0eb8\u0ec8\u0e99","name:el":"\u0399\u03b1\u03c0\u03c9\u03bd\u03af\u03b1","name:eo":"Japanujo","name:en":"Japan","name":"\u65e5\u672c","name:tk":"\u00ddaponi\u00fda","name:ee":"Japan","name:ku":"Japon","name:eu":"Japonia","name:et":"Jaapan","name:es":"Jap\u00f3n","name:ay":"Nihun","name:rm":"Giapun","name:az":"Yaponiya","name:ie":"Japan","name:id":"Jepang","name:ar":"\u0627\u0644\u064a\u0627\u0628\u0627\u0646","name:io":"Japonia","name:is":"Japan","name:am":"\u1303\u1353\u1295","name:it":"Giappone","name:an":"Chap\u00f3n","name:ru":"\u042f\u043f\u043e\u043d\u0438\u044f","name:ab":"\u0418\u0430\u043f\u043e\u043d\u0438\u0430","name:af":"Japan","name:zu":"IJapani","kind_detail":"2","name:za":"Nditbonj","name:so":"Jabaan","name:sm":"Iapani","name:sl":"Japonska","name:sk":"Japonsko","name:ja":"Nippon","name:si":"\u0da2\u0db4\u0dcf\u0db1\u0dba","name:sh":"Japan","name:se":"J\u00e1hpan","name:sd":"\u062c\u0627\u067e\u0627\u0646","name:sc":"Giappone","name:br":"Japan","name:bs":"Japan","name:bn":"\u099c\u09be\u09aa\u09be\u09a8","name:bo":"\u0f62\u0f72\u0f0b\u0f54\u0f72\u0f53\u0f0d","name:sa":"\u0938\u0942\u0930\u094d\u092f\u092e\u0942\u0932","name:sw":"Japani","name:be":"\u042f\u043f\u043e\u043d\u0456\u044f","name:su":"Jepang","name:bg":"\u042f\u043f\u043e\u043d\u0438\u044f","name:ss":"IJaphani","name:ba":"\u042f\u043f\u043e\u043d\u0438\u044f","name:sq":"Japonia","name:jv":"Jepang","name:ia":"Japon","name:pt":"Jap\u00e3o","name:ps":"\u062c\u0627\u067e\u0627\u0646","name:om":"Jaappaan","name:oc":"Japon","min_zoom":8.0,"name:ro":"Japonia","name:zh-min-nan":"Ji\u030dt-p\u00fan","name:os":"\u042f\u043f\u043e\u043d","name:or":"\u0b1c\u0b3e\u0b2a\u0b3e\u0b28","name:pl":"Japonia","sort_rank":262,"name:sr":"\u0408\u0430\u043f\u0430\u043d","osm_relation":true,"name:pa":"\u0a1c\u0a2a\u0a3e\u0a28","name:tr":"Japonya","name:hi":"\u091c\u093e\u092a\u093e\u0928","name:sv":"Japan","name:he":"\u05d9\u05e4\u05df","name:ha":"Japan","name:hy":"\u0543\u0561\u057a\u0578\u0576\u056b\u0561","name:ht":"Japon","name:hu":"Jap\u00e1n","name:hr":"Japan","kind":"country","name:yi":"\u05d9\u05d0\u05e4\u05d0\u05df","name:iu":"\u14c3\u1449\u140a\u14d0","name:yo":"Japan","name:mt":"\u0120appun","alt_name:eo":"Japanio","name:ms":"Jepun","name:mr":"\u091c\u092a\u093e\u0928","name:my":"\u1002\u103b\u1015\u1014\u103a\u1014\u102d\u102f\u1004\u103a\u1004\u1036","name:mg":"Japana","name:vi":"Nh\u1eadt B\u1ea3n","name:ml":"\u0d1c\u0d2a\u0d4d\u0d2a\u0d3e\u0d7b","name:mn":"\u042f\u043f\u043e\u043d","name:mi":"Nipono","id":-382313,"name:mk":"\u0408\u0430\u043f\u043e\u043d\u0438\u0458\u0430","name:vo":"Yap\u00e4n","name:fa":"\u0698\u0627\u067e\u0646","name:rw":"Ubuyapani","name:fi":"Japani","name:ky":"\u0416\u0430\u043f\u043e\u043d\u0438\u044f","old_name:vi":"Nh\u1eadt B\u1ed5n","name:fo":"Japan","alt_name:vi":"Nh\u1eadt","name:fr":"Japon","name:fy":"Japan","name:nl":"Japan","name:nn":"Japan","name:no":"Japan","name:na":"Djapan","name:ne":"\u091c\u093e\u092a\u093e\u0928","name:wo":"Sapo\u014b","name:nv":"Bina\u02bcadaa\u0142tz\u00f3z\u00ed Din\u00e9\u02bci\u02bc Bik\u00e9yah","name:ga":"An tSeap\u00e1in","name:gd":"An t-Seapan","name:gn":"Hap\u00f5","name:gl":"Xap\u00f3n","maritime_boundary":true,"name:gv":"Yn \u00c7hapaan","name:gu":"\u0a9c\u0abe\u0aaa\u0abe\u0aa8"},"arcs":[0]},{"type":"LineString","properties":{"name:ia":"Hokkaido","alt_name:eo":"Hokkajdo","name:ja":"Hokkaid\u014d","name:ko":"\ud64b\uce74\uc774\ub3c4","kind":"region","name:io":"Hokkaido","min_zoom":8.0,"name:uk":"\u041f\u0440\u0435\u0444\u0435\u043a\u0442\u0443\u0440\u0430 \u0425\u043e\u043a\u043a\u0430\u0439\u0434\u043e","name:ru":"\u0425\u043e\u043a\u043a\u0430\u0439\u0434\u043e","name:pl":"Prefektura Hokkaido","id":-3795658,"osm_relation":true,"name:eo":"Hokajdo","name:en":"Hokkaido","name":"\u5317\u6d77\u9053","sort_rank":256,"kind_detail":"4","name:de":"Hokkaid\u014d","source":"openstreetmap.org","maritime_boundary":true},"arcs":[1]}]},"roads":{"type":"GeometryCollection","geometries":[{"type":"LineString","properties":{"kind":"major_road","name:en":"Takinoue Snow shed","network":"JP:national","sort_rank":381,"kind_detail":"trunk","source":"openstreetmap.org","min_zoom":8.0,"shield_text":"239","ref":"239","id":158233452,"name:ja":"Takinoue fukud\u014d"},"arcs":[8]},{"type":"LineString","properties":{"source":"openstreetmap.org","kind":"major_road","sort_rank":380,"kind_detail":"primary","ref":"118","min_zoom":8.0},"arcs":[9]},{"type":"LineString","properties":{"kind":"major_road","name:en":"Setoushi Bridge","network":"JP:national","sort_rank":381,"kind_detail":"trunk","source":"openstreetmap.org","min_zoom":8.0,"shield_text":"239","ref":"239","id":139265211,"name:ja":"Setoushi Bashi"},"arcs":[10]},{"type":"LineString","properties":{"kind":"major_road","name:en":"Ume Bridge","network":"JP:national","sort_rank":381,"kind_detail":"trunk","source":"openstreetmap.org","min_zoom":8.0,"shield_text":"239","ref":"239","id":151968156,"name:ja":"Ume Bashi"},"arcs":[11]},{"type":"LineString","properties":{"kind":"major_road","name:en":"Bifuka Bridge","network":"JP:national","sort_rank":381,"kind_detail":"trunk","source":"openstreetmap.org","min_zoom":8.0,"shield_text":"275","ref":"275","id":205872921,"name:ja":"Bifuka Bashi"},"arcs":[12]},{"type":"LineString","properties":{"kind":"major_road","name:en":"Shinkinen Bridge","network":"JP:national","sort_rank":381,"kind_detail":"trunk","source":"openstreetmap.org","min_zoom":8.0,"shield_text":"273","ref":"273","id":209530701,"name:ja":"Shinkinen Bashi"},"arcs":[13]},{"type":"LineString","properties":{"kind":"major_road","name:en":"Bifuka Bigbridge","network":"JP:national","sort_rank":381,"kind_detail":"trunk","source":"openstreetmap.org","min_zoom":8.0,"shield_text":"40","ref":"40","id":205872900,"name:ja":"Bifuka \u014chashi"},"arcs":[14]},{"type":"LineString","properties":{"kind":"major_road","name:en":"Shokotsu Bridge","network":"JP:national","sort_rank":381,"kind_detail":"trunk","source":"openstreetmap.org","min_zoom":8.0,"shield_text":"238","ref":"238","id":171651572,"name:ja":"Shokotsu Bashi"},"arcs":[15]},{"type":"LineString","properties":{"kind":"major_road","name:en":"Benten Bridge","network":"JP:national","sort_rank":381,"kind_detail":"trunk","source":"openstreetmap.org","min_zoom":8.0,"shield_text":"275","ref":"275","id":158233501,"name:ja":"Benten Bashi"},"arcs":[16]},{"type":"LineString","properties":{"kind":"major_road","name:en":"10sen Bridge","network":"JP:national","sort_rank":381,"kind_detail":"trunk","source":"openstreetmap.org","min_zoom":8.0,"shield_text":"275","ref":"275","id":444381373,"name:ja":"Jussen Bashi"},"arcs":[17]},{"type":"MultiLineString","properties":{"kind":"major_road","name:en":"National Route 275","name:ja":"Kokud\u014d 275 g\u014d","sort_rank":381,"kind_detail":"trunk","source":"openstreetmap.org","min_zoom":8.0,"shield_text":"275","ref":"275","network":"JP:national"},"arcs":[[18],[19],[20],[21],[22],[23],[24],[25],[26],[27],[28],[29],[30],[31],[32],[33],[34],[35],[36],[37],[38],[39],[40],[41],[42],[43],[44]]},{"type":"LineString","properties":{"kind":"major_road","name:en":"Rokko Bridge","network":"JP:national","sort_rank":381,"kind_detail":"trunk","source":"openstreetmap.org","min_zoom":8.0,"shield_text":"239","ref":"239","id":139265222,"name:ja":"Rokk\u014d Bashi"},"arcs":[45]},{"type":"LineString","properties":{"kind":"major_road","name:en":"Motosawaki Bridge","network":"JP:national","sort_rank":381,"kind_detail":"trunk","source":"openstreetmap.org","min_zoom":8.0,"shield_text":"238","ref":"238","id":138613629,"name:ja":"Motosawaki Bashi"},"arcs":[46]},{"type":"MultiLineString","properties":{"source":"openstreetmap.org","kind":"major_road","sort_rank":380,"kind_detail":"primary","ref":"137","min_zoom":8.0},"arcs":[[47],[48],[49],[50],[51]]},{"type":"LineString","properties":{"kind":"major_road","name:en":"Nino Bridge","network":"JP:national","sort_rank":381,"kind_detail":"trunk","source":"openstreetmap.org","min_zoom":8.0,"shield_text":"239","ref":"239","id":444991002,"name:ja":"Nino Bashi"},"arcs":[52]},{"type":"LineString","properties":{"kind":"major_road","name:en":"Shizukawa Bridge","network":"JP:national","sort_rank":381,"kind_detail":"trunk","source":"openstreetmap.org","min_zoom":8.0,"shield_text":"239","ref":"239","id":444874655,"name:ja":"Shizukawa Bashi"},"arcs":[53]},{"type":"LineString","properties":{"kind":"major_road","name:en":"Shimizu Bridge","network":"JP:national","sort_rank":381,"kind_detail":"trunk","source":"openstreetmap.org","min_zoom":8.0,"shield_text":"238","ref":"238","id":445259539,"name:ja":"Shimizu Bashi"},"arcs":[54]},{"type":"LineString","properties":{"kind":"major_road","name:en":"Fukko Bridge","network":"JP:national","sort_rank":381,"kind_detail":"trunk","source":"openstreetmap.org","min_zoom":8.0,"shield_text":"239","ref":"239","id":139265220,"name:ja":"Fukk\u014d Bashi"},"arcs":[55]},{"type":"MultiLineString","properties":{"kind":"major_road","name:en":"National Highway Route 273","network":"JP:national","sort_rank":381,"kind_detail":"trunk","source":"openstreetmap.org","min_zoom":8.0,"shield_text":"273","ref":"273"},"arcs":[[56],[57],[58],[59],[60],[61],[62],[63],[64]]},{"type":"LineString","properties":{"kind":"major_road","name:en":"Kiten Bridge","network":"JP:national","sort_rank":381,"kind_detail":"trunk","source":"openstreetmap.org","min_zoom":8.0,"shield_text":"275","ref":"275","id":425642907,"name:ja":"Kiten Bashi"},"arcs":[65]},{"type":"MultiLineString","properties":{"source":"openstreetmap.org","kind":"major_road","sort_rank":380,"kind_detail":"primary","ref":"49","min_zoom":8.0},"arcs":[[66],[67],[68],[69]]},{"type":"LineString","properties":{"kind":"major_road","name:en":"Onnenai Bigbridge","network":"JP:national","sort_rank":381,"kind_detail":"trunk","source":"openstreetmap.org","min_zoom":8.0,"shield_text":"40","ref":"40","id":205872906,"name:ja":"Onnenai \u014chashi"},"arcs":[70]},{"type":"LineString","properties":{"bus_network":null,"name:en":"Furen Bridge","network":"JP:national","sort_rank":381,"kind_detail":"trunk","kind":"major_road","source":"openstreetmap.org","min_zoom":8.0,"bus_shield_text":"1(\u9053\u5317)","shield_text":"40","ref":"40","id":152007161,"name:ja":"F\u016bren Bashi"},"arcs":[71]},{"type":"LineString","properties":{"kind":"major_road","name:en":"Kohan Bridge","network":"JP:national","sort_rank":381,"kind_detail":"trunk","source":"openstreetmap.org","min_zoom":8.0,"shield_text":"238","ref":"238","id":131671821,"name:ja":"Kohan Bashi"},"arcs":[72]},{"type":"MultiLineString","properties":{"kind":"major_road","name:en":"Miyuki Bridge","name:ja":"Miyuki Bashi","sort_rank":381,"kind_detail":"trunk","source":"openstreetmap.org","min_zoom":8.0,"shield_text":"275","ref":"275","network":"JP:national"},"arcs":[[73],[74]]},{"type":"LineString","properties":{"source":"openstreetmap.org","kind":"major_road","sort_rank":380,"kind_detail":"primary","ref":"61","min_zoom":8.0},"arcs":[75]},{"type":"LineString","properties":{"kind":"major_road","name:en":"Otakomushibe Bridge","network":"JP:national","sort_rank":381,"kind_detail":"trunk","source":"openstreetmap.org","min_zoom":8.0,"shield_text":"238","ref":"238","id":138613630,"name:ja":"Otakomushibe Bashi"},"arcs":[76]},{"type":"LineString","properties":{"kind":"major_road","name:en":"Horomi Bridge","network":"JP:national","sort_rank":381,"kind_detail":"trunk","source":"openstreetmap.org","min_zoom":8.0,"shield_text":"275","ref":"275","id":207744301,"name:ja":"Horomi Bashi"},"arcs":[77]},{"type":"MultiLineString","properties":{"kind":"major_road","name:en":"National Highway Route 40","network":"JP:national","sort_rank":381,"kind_detail":"trunk","source":"openstreetmap.org","min_zoom":8.0,"shield_text":"40","osm_relation":true},"arcs":[[78],[79]]},{"type":"LineString","properties":{"kind":"major_road","name:en":"National Highway Route 40","network":"JP:national","sort_rank":381,"kind_detail":"trunk","bus_network":null,"source":"openstreetmap.org","min_zoom":8.0,"bus_shield_text":"1(\u9053\u5317)","shield_text":"40","ref":"40","id":313790254,"name:ja":"Kokud\u014d 40 g\u014d"},"arcs":[80]},{"type":"MultiLineString","properties":{"kind":"highway","name:en":"Nayoro-Bifuka Road","network":"JP:national","sort_rank":383,"landuse_kind":"urban_area","source":"openstreetmap.org","min_zoom":8.0,"all_networks":["JP:national"],"kind_detail":"motorway","shield_text":"5","ref":"E5","all_shield_texts":["5"]},"arcs":[[81],[82],[83]]},{"type":"LineString","properties":{"kind":"major_road","name:en":"Aoi Bridge","network":"JP:national","sort_rank":381,"kind_detail":"trunk","source":"openstreetmap.org","min_zoom":8.0,"shield_text":"275","ref":"275","id":158233511,"name:ja":"Aoi Bashi"},"arcs":[84]},{"type":"MultiLineString","properties":{"source":"openstreetmap.org","kind":"major_road","sort_rank":380,"kind_detail":"primary","ref":"60","min_zoom":8.0},"arcs":[[85],[86],[87]]},{"type":"LineString","properties":{"kind":"major_road","name:en":"Nakatonbetsu Bridge","network":"JP:national","sort_rank":381,"kind_detail":"trunk","source":"openstreetmap.org","min_zoom":8.0,"shield_text":"275","ref":"275","id":132837144,"name:ja":"Nakatonbetsu Bashi"},"arcs":[88]},{"type":"LineString","properties":{"kind":"major_road","name:en":"Shimaroppu Bridge","network":"JP:national","sort_rank":381,"kind_detail":"trunk","source":"openstreetmap.org","min_zoom":8.0,"shield_text":"40","ref":"40","id":205872924,"name:ja":"Shimaroppu Bashi"},"arcs":[89]},{"type":"LineString","properties":{"kind":"major_road","name:en":"Shinkiko Bridge","network":"JP:national","sort_rank":381,"kind_detail":"trunk","source":"openstreetmap.org","min_zoom":8.0,"shield_text":"239","ref":"239","id":131671826,"name:ja":"Shinkik\u014d Bashi"},"arcs":[90]},{"type":"LineString","properties":{"kind":"major_road","name:en":"Utsu Bridge","network":"JP:national","sort_rank":381,"kind_detail":"trunk","source":"openstreetmap.org","min_zoom":8.0,"shield_text":"239","ref":"239","id":131671825,"name:ja":"Utsu Bashi"},"arcs":[91]},{"type":"LineString","properties":{"kind":"major_road","name:en":"Sounnai Bridge","network":"JP:national","sort_rank":381,"kind_detail":"trunk","source":"openstreetmap.org","min_zoom":8.0,"shield_text":"275","ref":"275","id":158233472,"name:ja":"Sounnai Bashi"},"arcs":[92]},{"type":"LineString","properties":{"kind":"major_road","name:en":"Oku-okoppe Bridge","network":"JP:national","sort_rank":381,"kind_detail":"trunk","source":"openstreetmap.org","min_zoom":8.0,"shield_text":"239","ref":"239","id":139265215,"name:ja":"Oku-okoppe Bashi"},"arcs":[93]},{"type":"LineString","properties":{"kind":"major_road","name:en":"Motoineppu Bridge","network":"JP:national","sort_rank":381,"kind_detail":"trunk","source":"openstreetmap.org","min_zoom":8.0,"shield_text":"238","ref":"238","id":138613634,"name:ja":"Motoineppu Bashi"},"arcs":[94]},{"type":"LineString","properties":{"kind":"major_road","name:en":"Shian Bridge","network":"JP:national","sort_rank":381,"kind_detail":"trunk","source":"openstreetmap.org","min_zoom":8.0,"shield_text":"275","ref":"275","id":158233515,"name:ja":"Shian Bashi"},"arcs":[95]},{"type":"LineString","properties":{"kind":"major_road","name:en":"Shinoda Bridge","network":"JP:national","sort_rank":381,"kind_detail":"trunk","source":"openstreetmap.org","min_zoom":8.0,"shield_text":"275","ref":"275","id":444490260,"name:ja":"Shinoda Bashi"},"arcs":[96]},{"type":"LineString","properties":{"kind":"major_road","name:en":"Izumi1go Bridge","network":"JP:national","sort_rank":381,"kind_detail":"trunk","source":"openstreetmap.org","min_zoom":8.0,"shield_text":"275","ref":"275","id":205872917,"name:ja":"Izumi ichi g\u014d Bashi"},"arcs":[97]},{"type":"MultiLineString","properties":{"kind":"major_road","name:en":"National Highway Route 40","network":"JP:national","sort_rank":381,"kind_detail":"trunk","source":"openstreetmap.org","min_zoom":8.0,"shield_text":"40","ref":"40","name:ja":"Kokud\u014d 40 g\u014d"},"arcs":[[98],[99],[100],[101],[102],[103],[104],[105]]},{"type":"MultiLineString","properties":{"kind":"highway","name:en":"Nayoro-Bifuka Road","network":"JP:national","sort_rank":383,"kind_detail":"motorway","source":"openstreetmap.org","min_zoom":8.0,"all_networks":["JP:national"],"shield_text":"5","ref":"E5","all_shield_texts":["5"]},"arcs":[[106],[107],[108],[109],[110]]},{"type":"LineString","properties":{"kind":"major_road","name:en":"Oumu Bridge","network":"JP:national","sort_rank":381,"kind_detail":"trunk","source":"openstreetmap.org","min_zoom":8.0,"shield_text":"238","ref":"238","id":138613625,"name:ja":"Oumu Bashi"},"arcs":[111]},{"type":"LineString","properties":{"kind":"major_road","name:en":"Kikusui Bridge","network":"JP:national","sort_rank":381,"kind_detail":"trunk","source":"openstreetmap.org","min_zoom":8.0,"shield_text":"275","ref":"275","id":132837142,"name:ja":"Kikusui Bashi"},"arcs":[112]},{"type":"MultiLineString","properties":{"bus_network":null,"name:en":"National Route 40","name:ja":"Kokud\u014d 40 g\u014d","sort_rank":381,"kind_detail":"trunk","kind":"major_road","source":"openstreetmap.org","min_zoom":8.0,"bus_shield_text":"1(\u9053\u5317)","shield_text":"40","ref":"40","network":"JP:national"},"arcs":[[113],[114]]},{"type":"LineString","properties":{"kind":"major_road","name:en":"Kansei Bridge","network":"JP:national","sort_rank":381,"kind_detail":"trunk","source":"openstreetmap.org","min_zoom":8.0,"shield_text":"239","ref":"239","id":151968137,"name:ja":"Kansei Bridge"},"arcs":[115]},{"type":"LineString","properties":{"kind":"major_road","name:en":"Shin chidori Bridge","network":"JP:national","sort_rank":381,"kind_detail":"trunk","source":"openstreetmap.org","min_zoom":8.0,"shield_text":"238","ref":"238","id":151734299,"name:ja":"Shin chidori Bashi"},"arcs":[116]},{"type":"LineString","properties":{"kind":"major_road","name:en":"Toge Bridge","network":"JP:national","sort_rank":381,"kind_detail":"trunk","source":"openstreetmap.org","min_zoom":8.0,"shield_text":"275","ref":"275","id":205872913,"name:ja":"T\u014dge Bashi"},"arcs":[117]},{"type":"LineString","properties":{"kind":"major_road","name:en":"Yosei Bridge","network":"JP:national","sort_rank":381,"kind_detail":"trunk","source":"openstreetmap.org","min_zoom":8.0,"shield_text":"275","ref":"275","id":444381370,"name:ja":"Yosei Bashi"},"arcs":[118]},{"type":"MultiLineString","properties":{"kind":"highway","name:en":"Hokkaido Expressway","name:ja":"D\u014d\u014d Jid\u014dshad\u014d","sort_rank":383,"kind_detail":"motorway","source":"openstreetmap.org","min_zoom":8.0,"all_networks":[null],"shield_text":"5","ref":"E5","all_shield_texts":["5"],"network":null},"arcs":[[119],[120]]},{"type":"LineString","properties":{"kind":"major_road","name:en":"Toimaki Bridge","network":"JP:national","sort_rank":381,"kind_detail":"trunk","source":"openstreetmap.org","min_zoom":8.0,"shield_text":"238","ref":"238","id":151734300,"name:ja":"Toimaki Bashi"},"arcs":[121]},{"type":"MultiLineString","properties":{"source":"openstreetmap.org","kind":"major_road","sort_rank":380,"kind_detail":"primary","ref":"120","min_zoom":8.0},"arcs":[[122],[123]]},{"type":"LineString","properties":{"kind":"major_road","name:en":"Shirikomanai Bridge","network":"JP:national","sort_rank":381,"kind_detail":"trunk","source":"openstreetmap.org","min_zoom":8.0,"shield_text":"275","ref":"275","id":132837157,"name:ja":"Shirikomanai Bashi"},"arcs":[124]},{"type":"LineString","properties":{"kind":"major_road","name:en":"Shintaki Bridge","network":"JP:national","sort_rank":381,"kind_detail":"trunk","source":"openstreetmap.org","min_zoom":8.0,"shield_text":"273","ref":"273","id":140106960,"name:ja":"Shintaki Bashi"},"arcs":[125]},{"type":"LineString","properties":{"kind":"major_road","name:en":"Chikuma Bridge","network":"JP:national","sort_rank":381,"kind_detail":"trunk","source":"openstreetmap.org","min_zoom":8.0,"shield_text":"275","ref":"275","id":444490262,"name:ja":"Chikuma Bashi"},"arcs":[126]},{"type":"LineString","properties":{"kind":"major_road","name:en":"Enjin Bridge","network":"JP:national","sort_rank":381,"kind_detail":"trunk","source":"openstreetmap.org","min_zoom":8.0,"shield_text":"275","ref":"275","id":158233513,"name:ja":"Enjin Bashi"},"arcs":[127]},{"type":"LineString","properties":{"bus_network":null,"name:en":"Shibetsu Bridge","network":"JP:national","sort_rank":381,"kind_detail":"trunk","kind":"major_road","source":"openstreetmap.org","min_zoom":8.0,"bus_shield_text":"1(\u9053\u5317)","shield_text":"40","ref":"40","id":151968239,"name:ja":"Shibetsu Bashi"},"arcs":[128]},{"type":"LineString","properties":{"kind":"major_road","name:en":"Ote Bridge","network":"JP:national","sort_rank":381,"kind_detail":"trunk","source":"openstreetmap.org","min_zoom":8.0,"shield_text":"40","ref":"40","id":205872902,"name:ja":"\u014cte Bashi"},"arcs":[129]},{"type":"LineString","properties":{"kind":"major_road","name:en":"Mikazuki Bridge","network":"JP:national","sort_rank":381,"kind_detail":"trunk","source":"openstreetmap.org","min_zoom":8.0,"shield_text":"275","ref":"275","id":444490252,"name:ja":"Mikazuki Bashi"},"arcs":[130]},{"type":"LineString","properties":{"kind":"major_road","name:en":"Mosegaru Bridge","network":"JP:national","sort_rank":381,"kind_detail":"trunk","source":"openstreetmap.org","min_zoom":8.0,"shield_text":"273","ref":"273","id":140106961,"name:ja":"Mosegaru Bashi"},"arcs":[131]},{"type":"LineString","properties":{"kind":"major_road","name:en":"Shotobetsu Bridge","network":"JP:national","sort_rank":381,"kind_detail":"trunk","source":"openstreetmap.org","min_zoom":8.0,"shield_text":"275","ref":"275","id":132837160,"name:ja":"Sh\u014dtobetsu Bashi"},"arcs":[132]},{"type":"LineString","properties":{"kind":"major_road","name:en":"Shimokawa Bridge","network":"JP:national","sort_rank":381,"kind_detail":"trunk","source":"openstreetmap.org","min_zoom":8.0,"shield_text":"239","ref":"239","id":444990997,"name:ja":"Shimokawa Bashi"},"arcs":[133]},{"type":"LineString","properties":{"kind":"major_road","name:en":"Kamikoma Bridge","network":"JP:national","sort_rank":381,"kind_detail":"trunk","source":"openstreetmap.org","min_zoom":8.0,"shield_text":"275","ref":"275","id":421008055,"name:ja":"Kamikoma Bashi"},"arcs":[134]},{"type":"LineString","properties":{"kind":"major_road","name:en":"Esashi Otoineppu line","name:ja":"\u5317\u6d77\u9053\u905312\u53f7\u679d\u5e78\u97f3\u5a01\u5b50\u5e9c\u7dda","sort_rank":380,"kind_detail":"primary","source":"openstreetmap.org","min_zoom":8.0,"ref":"12","id":60672605},"arcs":[135]},{"type":"LineString","properties":{"kind":"major_road","name:en":"Sanko Bridge","network":"JP:national","sort_rank":381,"kind_detail":"trunk","source":"openstreetmap.org","min_zoom":8.0,"shield_text":"239","ref":"239","id":131671828,"name:ja":"Sank\u014d Bashi"},"arcs":[136]},{"type":"LineString","properties":{"kind":"major_road","network":"JP:national","sort_rank":381,"kind_detail":"trunk","source":"openstreetmap.org","min_zoom":8.0,"shield_text":"40","ref":"40"},"arcs":[137]},{"type":"LineString","properties":{"kind":"major_road","name:en":"Shimizu Bridge","network":"JP:national","sort_rank":381,"kind_detail":"trunk","source":"openstreetmap.org","min_zoom":8.0,"shield_text":"40","ref":"40","id":157107398,"name:ja":"Shimizu Bashi"},"arcs":[138]},{"type":"LineString","properties":{"kind":"major_road","name:en":"Takinoue Bridge","network":"JP:national","sort_rank":381,"kind_detail":"trunk","source":"openstreetmap.org","min_zoom":8.0,"shield_text":"273","ref":"273","id":140106948,"name:ja":"Takinoue Bashi"},"arcs":[139]},{"type":"LineString","properties":{"kind":"major_road","name:en":"Horobetsu Bridge","network":"JP:national","sort_rank":381,"kind_detail":"trunk","source":"openstreetmap.org","min_zoom":8.0,"shield_text":"238","ref":"238","id":151734297,"name:ja":"Horobetsu Bashi"},"arcs":[140]},{"type":"LineString","properties":{"kind":"major_road","name:en":"Nanae Bridge","network":"JP:national","sort_rank":381,"kind_detail":"trunk","source":"openstreetmap.org","min_zoom":8.0,"shield_text":"239","ref":"239","id":139265221,"name:ja":"Nanae Bashi"},"arcs":[141]},{"type":"LineString","properties":{"kind":"major_road","name:en":"Mobetsu Bridge","network":"JP:national","sort_rank":381,"kind_detail":"trunk","source":"openstreetmap.org","min_zoom":8.0,"landuse_kind":"urban_area","shield_text":"238","ref":"238","id":171756380,"name:ja":"Mobetsu Bashi"},"arcs":[142]},{"type":"LineString","properties":{"kind":"major_road","name:en":"Shumarinai Bridge","network":"JP:national","sort_rank":381,"kind_detail":"trunk","source":"openstreetmap.org","min_zoom":8.0,"shield_text":"275","ref":"275","id":444398906,"name:ja":"Shumarinai Bashi"},"arcs":[143]},{"type":"LineString","properties":{"kind":"major_road","name:en":"Rurochi Bridge","network":"JP:national","sort_rank":381,"kind_detail":"trunk","source":"openstreetmap.org","min_zoom":8.0,"shield_text":"238","ref":"238","id":131671817,"name:ja":"Rurochi Bashi"},"arcs":[144]},{"type":"LineString","properties":{"kind":"major_road","name:en":"Minami Bigbridge","network":"JP:national","sort_rank":381,"kind_detail":"trunk","source":"openstreetmap.org","min_zoom":8.0,"shield_text":"239","ref":"239","id":151968145,"name:ja":"Minami \u014chashi"},"arcs":[145]},{"type":"LineString","properties":{"kind":"major_road","name:en":"Kogane Bridge","network":"JP:national","sort_rank":381,"kind_detail":"trunk","source":"openstreetmap.org","min_zoom":8.0,"shield_text":"239","ref":"239","id":444874651,"name:ja":"Kogane Bashi"},"arcs":[146]},{"type":"LineString","properties":{"kind":"major_road","name:en":"Horoshin Bridge","network":"JP:national","sort_rank":381,"kind_detail":"trunk","source":"openstreetmap.org","min_zoom":8.0,"shield_text":"275","ref":"275","id":158233506,"name:ja":"Horoshin Bashi"},"arcs":[147]},{"type":"LineString","properties":{"kind":"major_road","name:en":"Shinko Bridge","network":"JP:national","sort_rank":381,"kind_detail":"trunk","source":"openstreetmap.org","min_zoom":8.0,"shield_text":"239","ref":"239","id":139265223,"name:ja":"Shink\u014d Bashi"},"arcs":[148]},{"type":"LineString","properties":{"kind":"major_road","name:en":"National Highway Route 40","name:ja":"Kokud\u014d 40 g\u014d","sort_rank":381,"landuse_kind":"urban_area","source":"openstreetmap.org","min_zoom":8.0,"kind_detail":"trunk","shield_text":"40","ref":"40","network":"JP:national"},"arcs":[149]},{"type":"LineString","properties":{"kind":"major_road","name:en":"National Highway Route 239","network":"JP:national","sort_rank":381,"kind_detail":"trunk","source":"openstreetmap.org","min_zoom":8.0,"landuse_kind":"urban_area","shield_text":"239","ref":"239","id":152015758},"arcs":[150]},{"type":"LineString","properties":{"kind":"major_road","name:en":"Kita ohotsuku Tunnel","network":"JP:national","sort_rank":381,"kind_detail":"trunk","source":"openstreetmap.org","min_zoom":8.0,"shield_text":"238","ref":"238","id":35265194,"name:ja":"Kita ohotsuku Tonneru"},"arcs":[151]},{"type":"LineString","properties":{"bus_network":null,"name:en":"Sakae Bridge","network":"JP:national","sort_rank":381,"kind_detail":"trunk","kind":"major_road","source":"openstreetmap.org","min_zoom":8.0,"bus_shield_text":"1(\u9053\u5317)","shield_text":"40","ref":"40","id":151968127,"name:ja":"Sakae Bashi"},"arcs":[152]},{"type":"LineString","properties":{"kind":"highway","name:en":"Nayoro Bifuka Road","network":"JP:national","sort_rank":383,"kind_detail":"motorway","source":"openstreetmap.org","min_zoom":8.0,"all_networks":["JP:national"],"shield_text":"5","ref":"E5","id":152006934,"all_shield_texts":["5"]},"arcs":[153]},{"type":"LineString","properties":{"kind":"major_road","name:en":"Kamishokotsu Bridge","network":"JP:national","sort_rank":381,"kind_detail":"trunk","source":"openstreetmap.org","min_zoom":8.0,"shield_text":"273","ref":"273","id":209530682,"name:ja":"Kamishokotsu Bashi"},"arcs":[154]},{"type":"LineString","properties":{"kind":"major_road","name:en":"Kagenosawa Bridge","network":"JP:national","sort_rank":381,"kind_detail":"trunk","source":"openstreetmap.org","min_zoom":8.0,"shield_text":"275","ref":"275","id":207744295,"name:ja":"Kagenosawa Bashi"},"arcs":[155]},{"type":"LineString","properties":{"source":"openstreetmap.org","kind":"major_road","sort_rank":380,"kind_detail":"primary","ref":"12","min_zoom":8.0},"arcs":[156]},{"type":"LineString","properties":{"kind":"major_road","name:en":"Horai Bridge","network":"JP:national","sort_rank":381,"kind_detail":"trunk","source":"openstreetmap.org","min_zoom":8.0,"shield_text":"275","ref":"275","id":444490269,"name:ja":"H\u014drai Bridge"},"arcs":[157]},{"type":"LineString","properties":{"kind":"major_road","name:en":"Otoineppu Bridge","network":"JP:national","sort_rank":381,"kind_detail":"trunk","source":"openstreetmap.org","min_zoom":8.0,"shield_text":"40","ref":"40","id":157107392,"name:ja":"Otoineppu Bashi"},"arcs":[158]},{"type":"LineString","properties":{"kind":"major_road","name:en":"Shumaro Bridge","network":"JP:national","sort_rank":381,"kind_detail":"trunk","source":"openstreetmap.org","min_zoom":8.0,"shield_text":"275","ref":"275","id":132837135,"name:ja":"Shumaro Bashi"},"arcs":[159]},{"type":"LineString","properties":{"kind":"major_road","name:en":"Miyuki Bridge","network":"JP:national","sort_rank":381,"kind_detail":"trunk","source":"openstreetmap.org","min_zoom":8.0,"shield_text":"239","ref":"239","id":444869686,"name:ja":"Miyuki Bashi"},"arcs":[160]},{"type":"LineString","properties":{"kind":"major_road","name:en":"Honen Bridge","network":"JP:national","sort_rank":381,"kind_detail":"trunk","source":"openstreetmap.org","min_zoom":8.0,"shield_text":"275","ref":"275","id":444490846,"name:ja":"Honen Bashi"},"arcs":[161]},{"type":"LineString","properties":{"sort_rank":381,"source":"openstreetmap.org","min_zoom":8.0,"kind":"major_road","kind_detail":"trunk"},"arcs":[162]},{"type":"LineString","properties":{"kind":"major_road","name:en":"Osawa Bridge","network":"JP:national","sort_rank":381,"kind_detail":"trunk","source":"openstreetmap.org","min_zoom":8.0,"shield_text":"275","ref":"275","id":205872922,"name:ja":"\u014csawa Bridge"},"arcs":[163]},{"type":"LineString","properties":{"kind":"major_road","name:en":"Onishi Bridge","network":"JP:national","sort_rank":381,"kind_detail":"trunk","source":"openstreetmap.org","min_zoom":8.0,"shield_text":"238","ref":"238","id":138613636,"name:ja":"Onishi Bashi"},"arcs":[164]},{"type":"MultiLineString","properties":{"kind":"major_road","name:en":"National Highway Route 40","network":"JP:national","sort_rank":381,"kind_detail":"trunk","source":"openstreetmap.org","min_zoom":8.0,"shield_text":"40","ref":"40"},"arcs":[[165],[166],[167],[168],[169]]},{"type":"LineString","properties":{"kind":"major_road","name:en":"Sakura Bridge","network":"JP:national","sort_rank":381,"kind_detail":"trunk","source":"openstreetmap.org","min_zoom":8.0,"shield_text":"239","ref":"239","id":151968151,"name:ja":"Sakura Bashi"},"arcs":[170]},{"type":"LineString","properties":{"kind":"major_road","name:en":"Tokushibetsu Bridge","network":"JP:national","sort_rank":381,"kind_detail":"trunk","source":"openstreetmap.org","min_zoom":8.0,"shield_text":"238","ref":"238","id":151734304,"name:ja":"Tokushibetsu Bashi"},"arcs":[171]},{"type":"LineString","properties":{"kind":"major_road","name:en":"Onnenai Overbridge","network":"JP:national","sort_rank":381,"kind_detail":"trunk","source":"openstreetmap.org","min_zoom":8.0,"shield_text":"40","ref":"40","id":205872923,"name:ja":"Onnenai Kosenky\u014d"},"arcs":[172]},{"type":"LineString","properties":{"kind":"major_road","name:en":"13sen Bridge","network":"JP:national","sort_rank":381,"kind_detail":"trunk","source":"openstreetmap.org","min_zoom":8.0,"shield_text":"275","ref":"275","id":158233469,"name:ja":"J\u016bsansen Bashi"},"arcs":[173]},{"type":"LineString","properties":{"kind":"major_road","name:en":"Niko Bridge","name:ja":"Nik\u014d Bashi","sort_rank":381,"kind_detail":"trunk","source":"openstreetmap.org","min_zoom":8.0,"ref":"239","id":131675016},"arcs":[174]},{"type":"LineString","properties":{"kind":"major_road","name:en":"Shumarinai Tunnel","network":"JP:national","sort_rank":381,"kind_detail":"trunk","source":"openstreetmap.org","min_zoom":8.0,"shield_text":"275","ref":"275","id":265177531,"name:ja":"Shumarinai Tonneru"},"arcs":[175]},{"type":"LineString","properties":{"kind":"highway","name:en":"Nayoro Bifuka Road","network":"JP:national","sort_rank":383,"landuse_kind":"urban_area","source":"openstreetmap.org","min_zoom":8.0,"all_networks":["JP:national"],"kind_detail":"motorway","shield_text":"5","ref":"E5","all_shield_texts":["5"]},"arcs":[176]},{"type":"MultiLineString","properties":{"kind":"major_road","name:en":"National Route 40","network":"JP:national","sort_rank":381,"kind_detail":"trunk","source":"openstreetmap.org","min_zoom":8.0,"shield_text":"40","ref":"40","name:ja":"Kokud\u014d 40 g\u014d"},"arcs":[[177],[178]]},{"type":"LineString","properties":{"kind":"major_road","name:en":"Tofutsu Bridge","network":"JP:national","sort_rank":381,"kind_detail":"trunk","source":"openstreetmap.org","min_zoom":8.0,"shield_text":"238","ref":"238","id":138613624,"name:ja":"T\u014dfutsu Bashi"},"arcs":[179]},{"type":"MultiLineString","properties":{"kind":"major_road","name:en":"Izumi Bridge","name:ja":"Izumi Bashi","sort_rank":381,"kind_detail":"trunk","source":"openstreetmap.org","min_zoom":8.0,"shield_text":"275","ref":"275","network":"JP:national"},"arcs":[[180],[181]]},{"type":"LineString","properties":{"kind":"major_road","name:en":"Sanno Bridge","network":"JP:national","sort_rank":381,"kind_detail":"trunk","source":"openstreetmap.org","min_zoom":8.0,"shield_text":"239","ref":"239","id":444990999,"name:ja":"Sanno Bashi"},"arcs":[182]},{"type":"LineString","properties":{"kind":"major_road","name:en":"Yoshida Bridge","network":"JP:national","sort_rank":381,"kind_detail":"trunk","source":"openstreetmap.org","min_zoom":8.0,"shield_text":"275","ref":"275","id":207744298,"name:ja":"Yoshida Bashi"},"arcs":[183]},{"type":"LineString","properties":{"kind":"major_road","name:en":"Sakkuru Bridge","network":"JP:national","sort_rank":381,"kind_detail":"trunk","source":"openstreetmap.org","min_zoom":8.0,"shield_text":"40","ref":"40","id":157107399,"name:ja":"Sakkuru Bashi"},"arcs":[184]},{"type":"LineString","properties":{"kind":"major_road","name:en":"Izumi Bridge","network":"JP:national","sort_rank":381,"kind_detail":"trunk","source":"openstreetmap.org","min_zoom":8.0,"shield_text":"275","ref":"275","id":205872919,"name:ja":"Izumi \u014chashi"},"arcs":[185]},{"type":"LineString","properties":{"kind":"major_road","name:en":"Toinai Bridge","network":"JP:national","sort_rank":381,"kind_detail":"trunk","source":"openstreetmap.org","min_zoom":8.0,"shield_text":"238","ref":"238","id":151734296,"name:ja":"Toinai Bashi"},"arcs":[186]},{"type":"LineString","properties":{"kind":"major_road","name:en":"Nakagaki Bridge","network":"JP:national","sort_rank":381,"kind_detail":"trunk","source":"openstreetmap.org","min_zoom":8.0,"shield_text":"275","ref":"275","id":158233483,"name:ja":"Nakagaki Bashi"},"arcs":[187]},{"type":"LineString","properties":{"kind":"major_road","name:en":"Okikinnai Bridge","network":"JP:national","sort_rank":381,"kind_detail":"trunk","source":"openstreetmap.org","min_zoom":8.0,"shield_text":"40","ref":"40","id":205872901,"name:ja":"Okikinnai Bashi"},"arcs":[188]},{"type":"LineString","properties":{"kind":"major_road","name:en":"5sen Bridge","network":"JP:national","sort_rank":381,"kind_detail":"trunk","source":"openstreetmap.org","min_zoom":8.0,"shield_text":"275","ref":"275","id":207744296,"name:ja":"Gosen Bashi"},"arcs":[189]},{"type":"MultiLineString","properties":{"kind":"major_road","name:en":"National Highway Route 238","network":"JP:national","sort_rank":381,"landuse_kind":"urban_area","source":"openstreetmap.org","min_zoom":8.0,"kind_detail":"trunk","shield_text":"238","ref":"238"},"arcs":[[190],[191],[192]]},{"type":"LineString","properties":{"kind":"major_road","name:en":"Horonai Bridge","network":"JP:national","sort_rank":381,"kind_detail":"trunk","source":"openstreetmap.org","min_zoom":8.0,"shield_text":"238","ref":"238","id":35264931,"name:ja":"Horonai Bashi"},"arcs":[193]},{"type":"LineString","properties":{"kind":"major_road","name:en":"Pinneshiri Overbirdge","network":"JP:national","sort_rank":381,"kind_detail":"trunk","source":"openstreetmap.org","min_zoom":8.0,"shield_text":"275","ref":"275","id":132837149,"name:ja":"Pinneshiri Kosenky\u014d"},"arcs":[194]},{"type":"LineString","properties":{"kind":"major_road","name:en":"Yuki Bridge","network":"JP:national","sort_rank":381,"kind_detail":"trunk","source":"openstreetmap.org","min_zoom":8.0,"shield_text":"239","ref":"239","id":131671830,"name:ja":"Y\u016bki Bashi"},"arcs":[195]},{"type":"LineString","properties":{"kind":"major_road","name:en":"Shinkawa Bridge","network":"JP:national","sort_rank":381,"kind_detail":"trunk","source":"openstreetmap.org","min_zoom":8.0,"shield_text":"275","ref":"275","id":132837148,"name:ja":"Shinkawa Bashi"},"arcs":[196]},{"type":"LineString","properties":{"kind":"major_road","name:en":"Shiratai Bridge","network":"JP:national","sort_rank":381,"kind_detail":"trunk","source":"openstreetmap.org","min_zoom":8.0,"shield_text":"275","ref":"275","id":444490263,"name:ja":"Shiratai Bashi"},"arcs":[197]},{"type":"LineString","properties":{"kind":"major_road","name:en":"Gokuraku Bridge","network":"JP:national","sort_rank":381,"kind_detail":"trunk","source":"openstreetmap.org","min_zoom":8.0,"shield_text":"239","ref":"239","id":444874654,"name:ja":"Gokuraku Bashi"},"arcs":[198]},{"type":"LineString","properties":{"kind":"major_road","name:en":"Ochiai Bridge","name:ja":"Ochiai Bashi","sort_rank":381,"kind_detail":"trunk","source":"openstreetmap.org","min_zoom":8.0,"ref":"239","id":139265219},"arcs":[199]},{"type":"LineString","properties":{"kind":"major_road","name:en":"Uguisu Bridge","network":"JP:national","sort_rank":381,"kind_detail":"trunk","source":"openstreetmap.org","min_zoom":8.0,"shield_text":"275","ref":"275","id":444490254,"name:ja":"Uguisu Bashi"},"arcs":[200]},{"type":"LineString","properties":{"kind":"major_road","name:en":"Aoyagi Bridge","network":"JP:national","sort_rank":381,"kind_detail":"trunk","source":"openstreetmap.org","min_zoom":8.0,"shield_text":"238","ref":"238","id":151734302,"name:ja":"Aoyagi Bashi"},"arcs":[201]},{"type":"LineString","properties":{"kind":"major_road","name:en":"Ukishima Bridge","network":"JP:national","sort_rank":381,"kind_detail":"trunk","source":"openstreetmap.org","min_zoom":8.0,"shield_text":"275","ref":"275","id":158233516,"name:ja":"Ukishima Bashi"},"arcs":[202]},{"type":"LineString","properties":{"kind":"major_road","name:en":"National Highway Route 40","network":"JP:national","sort_rank":381,"kind_detail":"trunk","bus_network":null,"source":"openstreetmap.org","min_zoom":8.0,"bus_shield_text":"1(\u9053\u5317)","shield_text":"40","landuse_kind":"urban_area","ref":"40","id":313790254,"name:ja":"Kokud\u014d 40 g\u014d"},"arcs":[203]},{"type":"LineString","properties":{"kind":"major_road","name:en":"Momiji Bridge","network":"JP:national","sort_rank":381,"kind_detail":"trunk","source":"openstreetmap.org","min_zoom":8.0,"shield_text":"275","ref":"275","id":207744297,"name:ja":"Momiji Bashi"},"arcs":[204]},{"type":"LineString","properties":{"kind":"major_road","name:en":"Shizume Bridge","network":"JP:national","sort_rank":381,"kind_detail":"trunk","source":"openstreetmap.org","min_zoom":8.0,"shield_text":"273","ref":"273","id":140106946,"name:ja":"Shizume Bashi"},"arcs":[205]},{"type":"LineString","properties":{"kind":"major_road","name:en":"Okoppe Bridge","network":"JP:national","sort_rank":381,"kind_detail":"trunk","source":"openstreetmap.org","min_zoom":8.0,"shield_text":"238","ref":"238","id":131671822,"name:ja":"Okoppe Bashi"},"arcs":[206]},{"type":"LineString","properties":{"kind":"major_road","name:en":"Kotobuki Tunnel","network":"JP:national","sort_rank":381,"kind_detail":"trunk","source":"openstreetmap.org","min_zoom":8.0,"shield_text":"275","ref":"275","id":132837158,"name:ja":"Kotobuki Tonneru"},"arcs":[207]},{"type":"LineString","properties":{"kind":"major_road","name:en":"Kotobuki Bridge","network":"JP:national","sort_rank":381,"kind_detail":"trunk","source":"openstreetmap.org","min_zoom":8.0,"shield_text":"275","ref":"275","id":257870639,"name:ja":"Kotobuki Bashi"},"arcs":[208]},{"type":"LineString","properties":{"kind":"major_road","name:en":"Shinji Bridge","network":"JP:national","sort_rank":381,"kind_detail":"trunk","source":"openstreetmap.org","min_zoom":8.0,"shield_text":"275","ref":"275","id":157107395,"name:ja":"Shinji Bashi"},"arcs":[209]},{"type":"MultiLineString","properties":{"kind":"major_road","name:en":"National Highway Route 239","network":"JP:national","sort_rank":381,"kind_detail":"trunk","source":"openstreetmap.org","min_zoom":8.0,"shield_text":"239","ref":"239"},"arcs":[[210],[211],[212],[213],[214],[215],[216],[217],[218],[219],[220],[221],[222],[223],[224],[225],[226],[227],[228],[229],[230],[231],[232],[233],[234],[235],[236],[237],[238],[239],[240],[241],[242],[243]]},{"type":"LineString","properties":{"kind":"major_road","name:en":"Joko Bridge","network":"JP:national","sort_rank":381,"kind_detail":"trunk","source":"openstreetmap.org","min_zoom":8.0,"shield_text":"239","ref":"239","id":139265202,"name:ja":"J\u014dk\u014d Bashi"},"arcs":[244]},{"type":"LineString","properties":{"kind":"major_road","name:en":"Saruru Bridge","network":"JP:national","sort_rank":381,"kind_detail":"trunk","source":"openstreetmap.org","min_zoom":8.0,"shield_text":"238","ref":"238","id":131671818,"name:ja":"Saruru Bashi"},"arcs":[245]},{"type":"LineString","properties":{"kind":"major_road","name:en":"Furo Bridge","network":"JP:national","sort_rank":381,"kind_detail":"trunk","source":"openstreetmap.org","min_zoom":8.0,"shield_text":"275","ref":"275","id":444490268,"name:ja":"Fur\u014d Bashi"},"arcs":[246]},{"type":"LineString","properties":{"kind":"major_road","name:en":"Nakasen Bridge","network":"JP:national","sort_rank":381,"kind_detail":"trunk","source":"openstreetmap.org","min_zoom":8.0,"shield_text":"239","ref":"239","id":151968149,"name:ja":"Nakasen Bashi"},"arcs":[247]},{"type":"LineString","properties":{"kind":"major_road","name:en":"Otoineppu Overbridge","network":"JP:national","sort_rank":381,"kind_detail":"trunk","source":"openstreetmap.org","min_zoom":8.0,"shield_text":"40","ref":"40","id":62199599,"name:ja":"Otoineppu Kosenky\u014d"},"arcs":[248]},{"type":"LineString","properties":{"kind":"major_road","name:en":"Asase Bridge","network":"JP:national","sort_rank":381,"kind_detail":"trunk","source":"openstreetmap.org","min_zoom":8.0,"shield_text":"275","ref":"275","id":444490266,"name:ja":"Asase Bashi"},"arcs":[249]},{"type":"LineString","properties":{"kind":"major_road","name:en":"Shin-shokotsu Bridge","network":"JP:national","sort_rank":381,"kind_detail":"trunk","source":"openstreetmap.org","min_zoom":8.0,"shield_text":"238","ref":"238","id":171651573,"name:ja":"Shin-shokotsu Bashi"},"arcs":[250]},{"type":"LineString","properties":{"kind":"major_road","name:en":"Ochiai Bridge","network":"JP:national","sort_rank":381,"kind_detail":"trunk","source":"openstreetmap.org","min_zoom":8.0,"shield_text":"275","ref":"275","id":132837147,"name:ja":"Ochiai Bashi"},"arcs":[251]},{"type":"LineString","properties":{"kind":"major_road","name:en":"Onnebetsu Bridge","network":"JP:national","sort_rank":381,"kind_detail":"trunk","source":"openstreetmap.org","min_zoom":8.0,"shield_text":"239","ref":"239","id":151968140,"name:ja":"Onnebetsu Bashi"},"arcs":[252]},{"type":"LineString","properties":{"kind":"major_road","name:en":"Urubeshi Bridge","network":"JP:national","sort_rank":381,"kind_detail":"trunk","source":"openstreetmap.org","min_zoom":8.0,"shield_text":"275","ref":"275","id":205872911,"name:ja":"Urubeshi Bashi"},"arcs":[253]},{"type":"LineString","properties":{"kind":"major_road","name:en":"Otoshibe Bridge","network":"JP:national","sort_rank":381,"kind_detail":"trunk","source":"openstreetmap.org","min_zoom":8.0,"shield_text":"238","ref":"238","id":151734303,"name:ja":"Otoshibe Bashi"},"arcs":[254]},{"type":"LineString","properties":{"kind":"major_road","name:en":"Takinoue Bridge","network":"JP:national","sort_rank":381,"kind_detail":"trunk","source":"openstreetmap.org","min_zoom":8.0,"shield_text":"239","ref":"239","name:ja":"Takinoue Bashi"},"arcs":[255]},{"type":"MultiLineString","properties":{"kind":"major_road","name:en":"Tokiwa Bridge","network":"JP:national","sort_rank":381,"kind_detail":"trunk","source":"openstreetmap.org","min_zoom":8.0,"shield_text":"275","ref":"275","name:ja":"Tokiwa Bashi"},"arcs":[[256],[257]]},{"type":"LineString","properties":{"kind":"major_road","name:en":"Soeushinai Bridge","network":"JP:national","sort_rank":381,"kind_detail":"trunk","source":"openstreetmap.org","min_zoom":8.0,"shield_text":"239","ref":"239","id":158233428,"name:ja":"Soeushinai Bashi"},"arcs":[258]},{"type":"MultiLineString","properties":{"source":"openstreetmap.org","kind":"major_road","sort_rank":380,"kind_detail":"primary","ref":"101","min_zoom":8.0},"arcs":[[259],[260]]},{"type":"LineString","properties":{"kind":"major_road","name:en":"Mobetsu Bridge","network":"JP:national","sort_rank":381,"kind_detail":"trunk","source":"openstreetmap.org","min_zoom":8.0,"shield_text":"238","ref":"238","id":171756380,"name:ja":"Mobetsu Bashi"},"arcs":[261]},{"type":"LineString","properties":{"kind":"major_road","name:en":"Hokusei Bridge","network":"JP:national","sort_rank":381,"kind_detail":"trunk","source":"openstreetmap.org","min_zoom":8.0,"shield_text":"275","ref":"275","id":207744299,"name:ja":"Hokusei Bashi"},"arcs":[262]},{"type":"LineString","properties":{"kind":"major_road","name:en":"Ichino Bridge","network":"JP:national","sort_rank":381,"kind_detail":"trunk","source":"openstreetmap.org","min_zoom":8.0,"shield_text":"239","ref":"239","id":425383435,"name:ja":"Ichino Bashi"},"arcs":[263]},{"type":"LineString","properties":{"kind":"major_road","name:en":"Koryu Bridge","network":"JP:national","sort_rank":381,"kind_detail":"trunk","source":"openstreetmap.org","min_zoom":8.0,"shield_text":"275","ref":"275","id":158233489,"name:ja":"K\u014dry\u016b Bashi"},"arcs":[264]},{"type":"LineString","properties":{"kind":"major_road","name:en":"National Highway Route 40","network":"JP:national","sort_rank":381,"landuse_kind":"urban_area","source":"openstreetmap.org","min_zoom":8.0,"kind_detail":"trunk","shield_text":"40","osm_relation":true},"arcs":[265]},{"type":"LineString","properties":{"kind":"major_road","name:en":"Miyuki Bridge","network":"JP:national","sort_rank":381,"kind_detail":"trunk","source":"openstreetmap.org","min_zoom":8.0,"shield_text":"238","ref":"238","id":151734298,"name:ja":"Miyuki Bashi"},"arcs":[266]},{"type":"LineString","properties":{"kind":"major_road","name:en":"Okuto Bridge","network":"JP:national","sort_rank":381,"kind_detail":"trunk","source":"openstreetmap.org","min_zoom":8.0,"shield_text":"273","ref":"273","id":209530684,"name:ja":"Okuto Bashi"},"arcs":[267]},{"type":"LineString","properties":{"kind":"major_road","name:en":"Onnenai Bridge","network":"JP:national","sort_rank":381,"kind_detail":"trunk","source":"openstreetmap.org","min_zoom":8.0,"shield_text":"238","ref":"238","id":445130879,"name:ja":"Onnenai Bashi"},"arcs":[268]},{"type":"LineString","properties":{"kind":"major_road","name:en":"Kaimei Bridge","network":"JP:national","sort_rank":381,"kind_detail":"trunk","source":"openstreetmap.org","min_zoom":8.0,"shield_text":"275","ref":"275","id":132837161,"name:ja":"Kaimei Bashi"},"arcs":[269]},{"type":"MultiLineString","properties":{"kind":"major_road","name:en":"National Highway Route 275","network":"JP:national","sort_rank":381,"kind_detail":"trunk","source":"openstreetmap.org","min_zoom":8.0,"shield_text":"275","ref":"275"},"arcs":[[270],[271],[272],[273],[274],[275],[276],[277],[278],[279],[280],[281],[282],[283],[284],[285],[286],[287],[288],[289],[290],[291],[292],[293],[294],[295],[296],[297],[298],[299],[300],[301],[302],[303],[304],[305],[306]]},{"type":"MultiLineString","properties":{"kind":"major_road","name:en":"National Route 275","network":"JP:national","sort_rank":381,"kind_detail":"trunk","source":"openstreetmap.org","min_zoom":8.0,"shield_text":"275","ref":"275"},"arcs":[[307],[308]]},{"type":"LineString","properties":{"kind":"major_road","name:en":"Futamata Bridge","network":"JP:national","sort_rank":381,"kind_detail":"trunk","source":"openstreetmap.org","min_zoom":8.0,"shield_text":"275","ref":"275","id":205872912,"name:ja":"Futamata Bashi"},"arcs":[309]},{"type":"LineString","properties":{"source":"openstreetmap.org","kind":"major_road","sort_rank":380,"kind_detail":"primary","ref":"137;306","min_zoom":8.0},"arcs":[310]},{"type":"LineString","properties":{"kind":"major_road","name:en":"Hakko Bridge","network":"JP:national","sort_rank":381,"kind_detail":"trunk","source":"openstreetmap.org","min_zoom":8.0,"shield_text":"239","ref":"239","id":445126308,"name:ja":"Hakk\u014d Bashi"},"arcs":[311]},{"type":"LineString","properties":{"kind":"major_road","name:en":"Toyokuni Bridge","network":"JP:national","sort_rank":381,"kind_detail":"trunk","source":"openstreetmap.org","min_zoom":8.0,"shield_text":"275","ref":"275","id":132837150,"name:ja":"Toyokuni Bashi"},"arcs":[312]},{"type":"LineString","properties":{"kind":"major_road","name:en":"Takasago Bridge","network":"JP:national","sort_rank":381,"kind_detail":"trunk","source":"openstreetmap.org","min_zoom":8.0,"shield_text":"275","ref":"275","id":132837129,"name:ja":"Takasago Bashi"},"arcs":[313]},{"type":"LineString","properties":{"kind":"major_road","name:en":"National Route 239 (Kiridachi route)","network":"JP:national","sort_rank":381,"kind_detail":"trunk","source":"openstreetmap.org","min_zoom":8.0,"shield_text":"239","ref":"239"},"arcs":[314]},{"type":"MultiLineString","properties":{"kind":"major_road","name:en":"National Route 239 (Miduki route)","network":"JP:national","sort_rank":381,"kind_detail":"trunk","source":"openstreetmap.org","min_zoom":8.0,"shield_text":"239","ref":"239"},"arcs":[[315],[316],[317],[318]]},{"type":"LineString","properties":{"kind":"major_road","name:en":"Kangetsu Bridge","network":"JP:national","sort_rank":381,"kind_detail":"trunk","source":"openstreetmap.org","min_zoom":8.0,"shield_text":"239","ref":"239","id":151968160,"name:ja":"Kangetsu Bashi"},"arcs":[319]},{"type":"MultiLineString","properties":{"bus_network":null,"name:en":"National Highway Route 40","network":"JP:national","sort_rank":381,"kind_detail":"trunk","kind":"major_road","source":"openstreetmap.org","min_zoom":8.0,"bus_shield_text":"1(\u9053\u5317)","shield_text":"40","ref":"40"},"arcs":[[320],[321]]},{"type":"LineString","properties":{"kind":"major_road","network":"JP:national","sort_rank":381,"kind_detail":"trunk","source":"openstreetmap.org","min_zoom":8.0,"shield_text":"5","ref":"40"},"arcs":[322]},{"type":"LineString","properties":{"kind":"major_road","name:en":"Seko Bridge","network":"JP:national","sort_rank":381,"kind_detail":"trunk","source":"openstreetmap.org","min_zoom":8.0,"shield_text":"239","ref":"239","id":139265224,"name:ja":"Sek\u014d Bashi"},"arcs":[323]},{"type":"LineString","properties":{"kind":"major_road","name:en":"Joto Bridge","network":"JP:national","sort_rank":381,"kind_detail":"trunk","source":"openstreetmap.org","min_zoom":8.0,"shield_text":"273","ref":"273","id":209530694,"name:ja":"J\u014dt\u014d Bashi"},"arcs":[324]},{"type":"MultiLineString","properties":{"kind":"major_road","name:en":"National Highway Route 238","network":"JP:national","sort_rank":381,"kind_detail":"trunk","source":"openstreetmap.org","min_zoom":8.0,"shield_text":"238","ref":"238"},"arcs":[[325],[326],[327],[328],[329],[330],[331],[332],[333],[334],[335],[336],[337],[338],[339],[340],[341],[342],[343],[344],[345],[346],[347],[348],[349],[350],[351],[352],[353],[354]]},{"type":"LineString","properties":{"kind":"major_road","name:en":"Benkei Bridge","network":"JP:national","sort_rank":381,"kind_detail":"trunk","source":"openstreetmap.org","min_zoom":8.0,"shield_text":"40","ref":"40","id":444401780,"name:ja":"Benkei Bashi"},"arcs":[355]},{"type":"LineString","properties":{"kind":"major_road","name:en":"Otoineppu Bridge","network":"JP:national","sort_rank":381,"kind_detail":"trunk","source":"openstreetmap.org","min_zoom":8.0,"shield_text":"238","ref":"238","id":138613628,"name:ja":"Otoineppu Bashi"},"arcs":[356]},{"type":"LineString","properties":{"source":"openstreetmap.org","kind":"major_road","sort_rank":380,"kind_detail":"primary","ref":"119","min_zoom":8.0},"arcs":[357]},{"type":"LineString","properties":{"kind":"major_road","name:en":"Komarinai Bridge","network":"JP:national","sort_rank":381,"kind_detail":"trunk","source":"openstreetmap.org","min_zoom":8.0,"shield_text":"275","ref":"275","id":158233479,"name:ja":"Komarinai Bashi"},"arcs":[358]},{"type":"LineString","properties":{"kind":"major_road","name:en":"Tanro Bridge","network":"JP:national","sort_rank":381,"kind_detail":"trunk","source":"openstreetmap.org","min_zoom":8.0,"shield_text":"275","ref":"275","id":444490257,"name:ja":"Tanro Bashi"},"arcs":[359]},{"type":"LineString","properties":{"kind":"major_road","name:en":"Mo-okoppe Bridge","network":"JP:national","sort_rank":381,"kind_detail":"trunk","source":"openstreetmap.org","min_zoom":8.0,"shield_text":"238","ref":"238","id":131671816,"name:ja":"Mo-okoppe Bashi"},"arcs":[360]},{"type":"LineString","properties":{"kind":"major_road","name:en":"Goko Bridge","network":"JP:national","sort_rank":381,"kind_detail":"trunk","source":"openstreetmap.org","min_zoom":8.0,"shield_text":"239","ref":"239","id":139265225,"name:ja":"Gok\u014d Bashi"},"arcs":[361]}]},"earth":{"type":"GeometryCollection","geometries":[{"type":"Polygon","properties":{"sort_rank":10,"source":"naturalearthdata.com","kind":"earth","min_zoom":0.0,"id":3401},"arcs":[[362]]}]},"landuse":{"type":"GeometryCollection","geometries":[{"type":"MultiPolygon","properties":{"source":"naturalearthdata.com","kind":"urban_area","name":"","area":1246214915,"sort_rank":11,"min_zoom":4.0},"arcs":[[[363]],[[364]]]}]}},"type":"Topology","transform":{"translate":[142.03125,44.0875850282],"scale":[0.0003433228,0.0002444948]},"arcs":[[[4096,1980],[-160,139],[-255,157],[-137,155],[-167,113],[-168,226],[-491,488],[-196,304],[-270,534]],[[4096,1980],[-160,139],[-255,157],[-137,155],[-167,113],[-168,226],[-491,488],[-196,304],[-270,534]],[[1040,353],[24,103],[0,289],[115,144],[84,56],[2,147],[31,52],[-37,90],[36,65],[-42,57],[-40,11],[-11,46],[-69,55],[-32,63],[-103,-9],[-54,55],[-60,175],[-5,201],[-66,120],[-10,72],[-139,132],[-1,98],[43,158],[-10,67],[-54,41],[-26,-35],[-52,7],[-106,74],[-54,-78],[-36,40],[-55,9],[-4,41],[-32,23],[-31,-13],[-17,-74],[-178,26],[67,129],[25,235],[-20,124],[-71,116],[-52,22]],[[987,0],[-19,19],[68,314]],[[1036,333],[4,20]],[[1036,333],[2,11],[2,9]],[[4096,882],[-94,58],[-25,23],[-80,95],[-2,21],[-50,121],[-33,23],[-126,33],[-53,47],[-110,123],[-46,25],[-60,20],[-250,203],[-221,237],[-178,130],[-122,197],[-94,52],[-563,649],[-141,247],[-102,70],[-48,83],[-218,468],[-232,289],[2848,0],[0,-3214]],[[4096,882],[-94,58],[-25,23],[-80,95],[-2,21],[-50,121],[-33,23],[-126,33],[-53,47],[-110,123],[-46,25],[-60,20],[-250,203],[-221,237],[-178,130],[-122,197],[-94,52],[-563,649],[-141,247],[-102,70],[-48,83],[-218,468],[-232,289]],[[180,523],[10,0]],[[32,2679],[-7,-3]],[[2655,991],[-2,1]],[[839,388],[-2,0]],[[878,1609],[12,4]],[[3542,584],[-4,-5]],[[856,1800],[2,-12]],[[3699,1193],[-5,11]],[[417,833],[4,1]],[[341,325],[-1,2]],[[494,3303],[16,67]],[[513,3252],[-18,50]],[[511,3371],[19,27]],[[570,3205],[-56,46]],[[530,3398],[10,59]],[[541,3458],[76,98]],[[575,3205],[-4,0]],[[632,3189],[-57,16]],[[618,3557],[80,16]],[[681,3145],[-48,44]],[[659,2621],[-1,2]],[[767,3100],[-85,45]],[[700,3573],[34,28]],[[736,3603],[18,52]],[[752,3704],[20,39]],[[754,3656],[1,43]],[[821,3061],[-53,39]],[[772,3744],[1,31]],[[774,3026],[2,2]],[[777,3028],[7,2]],[[782,3787],[9,41]],[[787,3029],[11,-1]],[[791,3834],[32,71]],[[800,3028],[16,3]],[[817,3033],[4,27]],[[824,3905],[-11,52],[56,94]],[[873,4056],[15,40]],[[2717,1051],[0,-1]],[[2949,1802],[-1,1]],[[2479,1645],[14,109],[-17,68]],[[2824,500],[-51,90],[-39,7],[14,383],[-26,22],[-57,-11]],[[2734,1155],[-23,3]],[[3138,440],[20,-139],[146,-124],[77,-14]],[[3408,202],[118,-120],[120,25],[33,56],[47,-12],[-2,-56],[49,-5],[39,46],[65,-65],[10,-59],[45,37],[49,2],[50,-51]],[[1915,899],[-1,-1]],[[792,389],[-1,0]],[[3681,1229],[-1,1]],[[2515,1032],[-2,0]],[[2862,122],[-70,-122]],[[3035,414],[-86,-52],[-106,-218],[18,-17]],[[3062,426],[-26,-12]],[[3189,423],[-113,26],[-14,-21]],[[3527,564],[-20,-33],[-229,-38],[-85,-69]],[[3538,579],[-10,-15]],[[3593,683],[-51,-99]],[[3634,731],[-41,-46]],[[3723,1177],[-84,-88],[39,-166],[-12,-138],[-32,-54]],[[673,1124],[0,1]],[[935,1563],[348,87],[111,119],[217,106],[130,-62],[73,5],[38,-52],[45,1],[101,-79]],[[2035,1721],[2,1]],[[2083,1787],[1,2]],[[2084,1798],[65,-20],[59,26],[60,-26],[100,25],[78,-27],[64,86],[74,32],[104,-2],[71,71]],[[808,2067],[-7,-11]],[[1236,925],[-3,-1]],[[3609,1289],[-3,2]],[[352,727],[3,1]],[[823,3905],[1,0]],[[1054,349],[46,20],[39,-38],[33,24],[136,-153],[275,-65],[30,-28],[161,47],[109,-4],[106,-39],[28,-44],[53,-22],[0,-31],[187,4],[78,53],[-13,-24],[24,2],[8,-35],[308,123],[93,333],[79,30],[231,-62]],[[2887,1850],[-2,1]],[[730,1232],[1,2]],[[0,3223],[39,-27],[51,-86],[-14,-56],[30,-59],[-1,-100],[-80,-228],[26,-31],[189,-10],[26,74],[46,-53],[101,-45],[40,60],[86,-50],[85,-18],[34,28],[36,-26],[8,-258],[-24,-49],[135,-154],[-13,-89],[169,-579],[115,-38],[-15,-207],[109,-36],[1,-66],[62,0],[0,-27]],[[1240,979],[0,-49],[-93,-72],[-88,-118],[-16,-337],[32,-151],[-34,-204],[11,-48]],[[1239,980],[-3,-55]],[[1212,992],[-25,36]],[[1187,1028],[3,-5]],[[1210,998],[3,-6]],[[430,837],[2,1]],[[2035,1721],[-110,-111],[17,-38],[-34,-189],[59,-130],[-55,-76],[0,-126],[-76,16],[-102,-76],[24,-106]],[[2037,1722],[46,65]],[[2084,1789],[46,94],[-7,102],[89,230],[241,127]],[[734,3601],[2,2]],[[813,2115],[0,-1]],[[2877,1277],[-1,-3]],[[2916,1413],[-1,-1]],[[309,495],[1,2]],[[2342,1043],[-1,0]],[[2648,2093],[-1,0]],[[619,886],[4,2]],[[821,3060],[0,1]],[[701,1544],[-1,1]],[[545,2611],[76,-17],[26,16]],[[656,2620],[40,-29]],[[698,2585],[-10,-139]],[[801,2056],[15,-57]],[[812,2073],[-4,-6]],[[816,1997],[40,-197]],[[858,1788],[37,-108]],[[896,1678],[62,-182],[35,-37],[91,-30],[-15,-207],[67,-9],[43,-49],[0,-44],[62,0],[0,-27]],[[898,1671],[76,-54],[25,-73],[5,-138],[75,-57],[94,-190],[5,-102]],[[1187,1028],[-6,8],[-3,21],[-6,104],[-38,54],[-56,134],[-74,57],[-14,53],[9,85],[-25,73],[-76,54]],[[1182,1036],[5,-8]],[[1213,989],[-1,3]],[[1213,992],[1,-3]],[[2778,1932],[-2,4]],[[540,3457],[1,1]],[[1059,547],[-3,-117]],[[1233,924],[-173,-180],[-1,-195]],[[1027,356],[-1,1]],[[1585,3422],[-1,2]],[[719,1329],[1,4]],[[327,145],[1,1]],[[1062,0],[-14,63],[0,41],[12,77],[18,41]],[[1079,222],[-31,-159],[14,-63]],[[1482,3688],[-1,1]],[[747,3622],[60,-57],[-23,-77],[27,-117],[86,-33],[54,10],[-3,-80],[81,-78],[37,-86],[190,-42]],[[1571,1879],[42,57],[117,442],[-100,45],[46,162],[-9,95],[21,66],[-332,181],[-61,161]],[[617,3556],[1,1]],[[3062,428],[0,-2]],[[768,3100],[-1,0]],[[391,813],[3,0]],[[1053,423],[3,7]],[[816,1999],[0,-2]],[[667,2833],[1,1]],[[2861,127],[1,-5]],[[798,3028],[2,0]],[[1709,888],[-1,0]],[[698,3573],[2,0]],[[655,2630],[10,-7]],[[2893,1353],[-1,-4]],[[225,2626],[30,17]],[[681,2283],[1,-1]],[[3036,414],[-1,0]],[[1710,3277],[-8,10]],[[2622,1002],[-2,1]],[[3914,969],[-2,1]],[[432,838],[2,1]],[[3321,1511],[-2,2]],[[706,354],[-1,-3]],[[577,444],[0,1]],[[736,1242],[4,2]],[[2823,1236],[-3,-2]],[[1241,1093],[0,-76]],[[1322,990],[-43,91]],[[1352,3943],[-32,31]],[[1059,549],[0,-2]],[[1178,1057],[4,-21]],[[3593,685],[0,-2]],[[668,899],[-2,7]],[[812,3029],[85,-23],[62,36],[258,-43],[90,121],[149,60],[38,72],[108,59],[18,82]],[[530,3398]],[[647,2610],[9,10]],[[510,3370],[1,1]],[[167,526],[-1,0]],[[772,3743],[0,1]],[[2440,2353],[23,-18]],[[727,1361],[-4,5]],[[3027,1692],[1,2]],[[690,2425],[12,-87],[-21,-55]],[[682,2282],[96,-84],[35,-83]],[[688,2443],[2,-15]],[[813,2114],[0,-39]],[[1043,60],[32,192],[-21,97]],[[852,389],[-2,0]],[[1815,3079],[-2,4]],[[813,2075],[-1,-2]],[[322,368],[-2,2]],[[2952,1447],[-2,0]],[[345,716],[4,8]],[[1190,1023],[20,-25]],[[0,3223],[46,-32],[44,-81],[-14,-56],[30,-58],[1,-89],[-81,-243],[70,-41],[129,3]],[[255,2643],[11,57],[46,-53],[96,-44],[42,59],[95,-51]],[[2797,1919],[-1,1]],[[720,1483],[-1,2]],[[754,3655],[0,1]],[[1797,881],[-4,-2]],[[683,1185],[2,1]],[[688,2446],[0,-3]],[[699,1392],[-1,5]],[[2328,2464],[-2,0]],[[668,1156],[0,2]],[[895,1680],[1,-2]],[[349,208],[-1,3]],[[3831,997],[72,-22]],[[3912,970],[-9,5]],[[3903,975],[12,-6]],[[2458,2339],[-4,2]],[[575,3205]],[[2874,1301],[-1,-2]],[[816,3031],[1,2]],[[682,3145],[-1,0]],[[669,335],[-1,1]],[[2730,1132],[0,-2]],[[662,2888],[0,2]],[[2118,2682],[-2,3]],[[606,885],[3,-1]],[[1241,1017],[-2,-37]],[[376,776],[1,1]],[[3193,424],[-4,-1]],[[3168,1586],[-6,2]],[[773,3775],[9,12]],[[755,3699],[-3,5]],[[634,2783],[1,2]],[[347,530],[-31,-18]],[[577,445],[-112,74],[-114,11]],[[668,336],[-42,20],[-49,88]],[[686,338],[-17,-3]],[[705,351],[-16,-14]],[[708,361],[-2,-7]],[[791,389],[-82,-26]],[[837,388],[-45,1]],[[850,389],[-11,-1]],[[999,375],[-98,31],[-49,-17]],[[1026,357],[-19,17]],[[1052,361],[-25,-5]],[[1279,1081],[-38,18]],[[1708,888],[-154,29],[-166,85],[-66,-12]],[[1793,879],[-84,9]],[[1914,898],[-60,-36],[-57,19]],[[2199,929],[-77,20],[-136,-9],[-71,-41]],[[2341,1043],[-68,-43],[-21,-68],[-50,-4]],[[2417,1012],[-75,31]],[[2513,1032],[-94,-20]],[[2541,1034],[-26,-2]],[[2580,1015],[-37,19]],[[2620,1003],[-38,11]],[[2653,992],[-31,10]],[[2717,1050],[-30,-55],[-32,-4]],[[2730,1130],[-13,-79]],[[2733,1148],[-3,-16]],[[2820,1234],[-87,-84]],[[2876,1274],[-53,-38]],[[2873,1299],[4,-22]],[[2892,1349],[-18,-48]],[[2915,1412],[-22,-59]],[[2950,1447],[-34,-34]],[[3178,1579],[-154,-132],[-72,0]],[[2419,1012],[-2,0]],[[3482,1386],[0,2]],[[495,3302],[-1,1]],[[689,337],[-3,1]],[[696,2591],[2,-6]],[[633,3189],[-1,0]],[[3761,1170],[-3,3]],[[784,3030],[3,-1]],[[709,363],[-1,-2]],[[723,1342],[3,9]],[[2253,2536],[-2,3]],[[180,523],[-2,0]],[[648,2666],[0,1]],[[869,4051],[4,5]],[[351,530],[-4,0]],[[2074,15],[1,-15]],[[1883,152],[22,39],[-8,142],[-42,159],[-136,109],[33,286]],[[3916,968],[-2,1]],[[386,554],[2,4]],[[2202,928],[-3,1]],[[355,693],[0,2]],[[1241,1093],[-1,-114]],[[1356,3939],[-2,2]],[[3528,564],[-1,0]],[[1877,3037],[-1,1]],[[571,3205],[-1,0]],[[320,370],[-39,60],[28,65]],[[310,497],[6,15]],[[338,0],[6,23],[-31,38],[14,84]],[[340,327],[-18,41]],[[328,146],[21,62]],[[348,211],[-7,114]],[[355,695],[-10,21]],[[349,724],[3,3]],[[355,728],[21,48]],[[388,558],[2,24],[-41,15],[6,96]],[[374,532],[12,22]],[[377,777],[14,36]],[[394,813],[23,20]],[[421,834],[9,3]],[[434,839],[76,-10],[96,56]],[[609,884],[10,2]],[[623,888],[45,11]],[[648,2667],[-14,116]],[[635,2785],[32,48]],[[658,2623],[-10,43]],[[662,2890],[33,90],[35,15]],[[668,2834],[-6,54]],[[666,906],[-22,38],[24,118]],[[668,1158],[15,27]],[[673,1125],[-5,31]],[[669,1063],[4,61]],[[685,1186],[45,46]],[[698,1397],[22,86]],[[723,1366],[-24,26]],[[700,1545],[4,34]],[[719,1485],[-18,59]],[[706,1579],[147,86],[25,-56]],[[740,1244],[20,9],[-41,76]],[[720,1333],[3,9]],[[726,1351],[1,10]],[[731,1234],[5,8]],[[890,1613],[25,8]],[[730,2995],[2,0]],[[732,2995],[42,31]],[[704,1579],[2,0]],[[3408,202],[-27,-39]],[[2582,1014],[-2,1]],[[514,3251],[-1,1]],[[791,3828],[0,6]],[[0,477],[80,-15]],[[166,526],[-86,-64]],[[178,523],[-11,3]],[[190,523],[53,-26],[72,13]],[[313,504],[-1,4]],[[1007,374],[-8,1]],[[1045,0],[-2,60]],[[1054,349],[-1,74]],[[1241,976],[-27,0]],[[2543,1034],[-2,0]],[[3634,731]],[[1320,3974],[-107,122]],[[1354,3941],[-2,2]],[[1481,3689],[-25,136],[-100,114]],[[1584,3424],[-22,47],[28,95],[-108,122]],[[1702,3287],[-117,135]],[[1813,3083],[-25,98],[-78,96]],[[1876,3038],[-61,41]],[[2116,2685],[-88,98],[-151,254]],[[2251,2539],[-133,143]],[[2326,2464],[-73,72]],[[2454,2341],[-126,123]],[[2573,2203],[-115,136]],[[2647,2093],[-73,108]],[[2776,1936],[-128,157]],[[2796,1920],[-18,12]],[[2885,1851],[-88,68]],[[2948,1803],[-61,47]],[[3028,1694],[5,34],[-84,74]],[[3162,1588],[-71,52],[-53,-3],[-11,55]],[[3268,1536],[-100,50]],[[3319,1513],[-48,22]],[[3482,1388],[-161,123]],[[3606,1291],[-124,95]],[[3680,1230],[-71,59]],[[3694,1204],[-13,25]],[[3758,1173],[-59,20]],[[3831,997],[-20,4],[-14,134],[-36,35]],[[3915,969],[21,-12]],[[3936,957],[-20,11]],[[3936,957],[116,-115],[44,-15]],[[690,2428],[0,-3]],[[2574,2201],[-1,2]],[[0,2682],[25,-6]],[[668,1062],[1,1]],[[776,3028],[1,0]],[[3271,1535],[-3,1]],[[2733,1150],[0,-2]],[[1248,4096],[232,-289],[218,-468],[48,-83],[102,-70],[141,-247],[563,-649],[94,-52],[122,-197],[178,-130],[221,-237],[250,-203],[60,-20],[46,-25],[110,-123],[53,-47],[126,-33],[33,-23],[50,-121],[2,-21],[80,-95],[25,-23],[94,-58],[0,-882],[-4096,0],[0,4096],[1248,0]],[[3874,913],[-65,126],[24,104],[49,-31],[41,-98],[-14,-72],[-35,-29]],[[1275,963],[-95,44],[21,64],[46,25],[95,-44],[-21,-65],[-46,-24]]]}