{"objects":{"water":{"type":"GeometryCollection","geometries":[]},"buildings":{"type":"GeometryCollection","geometries":[]},"places":{"type":"GeometryCollection","geometries":[{"type":"Point","properties":{"name:ps":"\u0645\u0627\u0644\u064a","name:ka":"\u10db\u10d0\u10da\u10d8","name:ko":"\ub9d0\ub9ac","name:cv":"\u041c\u0430\u043b\u0438","name:km":"\u1798\u17c9\u17b6\u179b\u17b8","name:kk":"\u041c\u0430\u043b\u0438","name:tt":"\u041c\u0430\u043b\u0438","min_zoom":2.0,"name:ti":"\u121b\u120a","name:ks":"\u0645\u0627\u0644\u06cc","name:to":"M\u0101li","name:pa":"\u0a2e\u0a3e\u0a32\u0a40","name:os":"\u041c\u0430\u043b\u0438","name:or":"\u0b2e\u0b3e\u0b33\u0b40","name:ce":"\u041c\u0430\u043b\u0438","name:ta":"\u0bae\u0bbe\u0bb2\u0bc0","name:tg":"\u041c\u0430\u043b\u0438","name:te":"\u0c2e\u0c3e\u0c32\u0c3f","name:ba":"\u041c\u0430\u043b\u0438","name:dz":"\u0f58\u0f71\u0f0b\u0f63\u0f72","source":"openstreetmap.org","name:yo":"Or\u00edl\u1eb9\u0301\u00e8de Mali","name:kn":"\u0cae\u0cbe\u0cb2\u0cbf","name:dv":"\u0789\u07a7\u078d\u07a9","name:lt":"Malis","name:hi":"\u092e\u093e\u0932\u0940","name:he":"\u05de\u05d0\u05dc\u05d9","kind":"country","name:ur":"\u0645\u0627\u0644\u06cc","name:la":"Malium","name:uk":"\u041c\u0430\u043b\u0456","name:hy":"\u0544\u0561\u056c\u056b","name:ug":"\u0645\u0627\u0644\u0649","name:ln":"Mal\u00ed","name:lo":"\u0ea1\u0eb2\u0ea5\u0eb4","population":14517176,"name:el":"\u039c\u03ac\u03bb\u03b9","name:eo":"Malio","name":"Mali","name:ee":"Mali nutome","name:ku":"Mal\u00ee","name:th":"\u0e1b\u0e23\u0e30\u0e40\u0e17\u0e28\u0e21\u0e32\u0e25\u0e35","name:yi":"\u05de\u05d0\u05dc\u05d9","name:es":"Mal\u00ed","name:mr":"\u092e\u093e\u0932\u0940","name:ar":"\u0645\u0627\u0644\u064a","name:my":"\u1019\u102c\u101c\u102e","official_name":"R\u00e9publique du Mali","name:is":"Mal\u00ed","name:am":"\u121b\u120a","name:ru":"\u041c\u0430\u043b\u0438","name:ml":"\u0d2e\u0d3e\u0d32\u0d3f","name:mn":"\u041c\u0430\u043b\u0438","id":424297816,"name:mk":"\u041c\u0430\u043b\u0438","name:vo":"Maliy\u00e4n","name:zu":"i-Mali","name:ff":"Maali","name:zh-yue":"\u99ac\u91cc","name:fy":"Maly","name:zh":"\u9a6c\u91cc","name:so":"Maali","name:ja":"\u30de\u30ea","name:si":"\u0db8\u0dcf\u0dbd\u0dd2","name:fa":"\u0645\u0627\u0644\u06cc","name:sg":"Mal\u00efi","name:ne":"\u092e\u093e\u0932\u0940","name:sa":"\u092e\u093e\u0932\u0940","name:bn":"\u09ae\u09be\u09b2\u09bf","name:bo":"\u0f58\u0f0b\u0f63\u0f72\u0f0d","name:be":"\u041c\u0430\u043b\u0456","name:bg":"\u041c\u0430\u043b\u0438","name:ss":"IMali","name:sr":"\u041c\u0430\u043b\u0438","name:ga":"Mail\u00ed","name:gd":"M\u00e0ili","name:gl":"Mal\u00ed","name:gv":"Malee","name:gu":"\u0aae\u0abe\u0ab2\u0ac0"},"coordinates":[1522,3290]},{"type":"Point","properties":{"source":"openstreetmap.org","kind":"locality","name":"Inadiatafane","kind_detail":"town","population":3557,"min_zoom":8.0,"id":1703670240},"coordinates":[1917,1090]}]},"transit":{"type":"GeometryCollection","geometries":[]},"pois":{"type":"GeometryCollection","geometries":[]},"boundaries":{"type":"GeometryCollection","geometries":[{"type":"LineString","properties":{"name:left:hi":"\u091f\u093f\u092e\u094d\u092c\u0915\u091f\u0942","name:left:kn":"\u0c9f\u0cbf\u0c82\u0cac\u0c95\u0ccd\u0c9f\u0cc2","id:right":-2096899,"name:left:uk":"\u0422\u0456\u043c\u0431\u0443\u043a\u0442\u0443","official_name:right":"R\u00e9gion de Mopti","min_zoom":8.0,"name:left:lt":"Timbuktu","name:left:ru":"\u0422\u0438\u043c\u0431\u0443\u043a\u0442\u0443","name:right:ru":"\u041c\u043e\u043f\u0442\u0438","id":-2096902,"osm_relation":true,"name:right":"Mopti","kind":"region","name:left:en":"Timbuktu","sort_rank":256,"kind_detail":"4","name:left:ar":"\u062a\u0645\u0628\u0643\u062a\u0648","name:left:ca":"Timbuct\u00fa","name:left:de":"Timbuktu","name":"Tombouctou - Mopti","source":"openstreetmap.org","name:left:zh":"\u5ef7\u5df4\u514b\u56fe","name:right:ar":"\u0645\u0648\u0628\u062a\u064a","name:left:nl":"Timboektoe","id:left":-2096902,"name:left:es":"Tombuct\u00fa","name:left:cs":"Timbuktu","official_name:left":"R\u00e9gion de Tombouctou","name:left":"Tombouctou"},"arcs":[0]}]},"roads":{"type":"GeometryCollection","geometries":[{"type":"LineString","properties":{"source":"openstreetmap.org","kind":"major_road","sort_rank":380,"kind_detail":"primary","ref":"RN15","min_zoom":8.0},"arcs":[1]},{"type":"MultiLineString","properties":{"source":"openstreetmap.org","kind":"major_road","sort_rank":380,"kind_detail":"primary","ref":"RN16","min_zoom":8.0},"arcs":[[2],[3],[4],[5]]}]},"earth":{"type":"GeometryCollection","geometries":[{"type":"Polygon","properties":{"sort_rank":10,"source":"naturalearthdata.com","kind":"earth","min_zoom":0.0,"id":4701},"arcs":[[6]]}]},"landuse":{"type":"GeometryCollection","geometries":[]}},"type":"Topology","transform":{"translate":[-2.8125,15.2841851141],"scale":[0.0003433228,0.0003300798]},"arcs":[[[0,1468],[118,-157],[52,-233],[458,-821],[189,-142],[239,-55],[349,106],[533,206],[461,64],[882,9],[556,-170],[259,-131]],[[4067,406]],[[4067,406],[-21,-48],[-131,-119],[-76,-21],[-87,-79],[-103,-107],[-18,-32]],[[3409,0],[-8,6],[-87,-6]],[[3227,0],[-67,14],[-44,-14]],[[4096,461],[-29,-55]],[[0,0],[0,4096],[4096,0],[0,-4096],[-4096,0]]]}