{"objects":{"water":{"type":"GeometryCollection","geometries":[]},"buildings":{"type":"GeometryCollection","geometries":[]},"places":{"type":"GeometryCollection","geometries":[{"type":"Point","properties":{"name:ps":"\u0628\u0648\u0631\u06a9\u06cc\u0646\u0627 \u0641\u0627\u0633\u0648","name:ka":"\u10d1\u10e3\u10e0\u10d9\u10d8\u10dc\u10d0-\u10e4\u10d0\u10e1\u10dd","name:ko":"\ubd80\ub974\ud0a4\ub098\ud30c\uc18c","name:cv":"\u0411\u0443\u0440\u043a\u0438\u043d\u0430 \u0424\u0430\u0441\u043e","name:km":"\u1794\u17ca\u17bc\u179a\u1782\u17b8\u178e\u17b6\u17a0\u17d2\u179c\u17b6\u179f\u17bc","name:kk":"\u0411\u0443\u0440\u043a\u0438\u043d\u0430-\u0424\u0430\u0441\u043e","name:ki":"Bukinafaso","name:tk":"Burkina-Faso","name:ku":"Burk\u00eena Faso","name:ti":"\u1261\u122d\u12aa\u1293 \u134b\u1236","name:ks":"\u0628\u064f\u0631\u06a9\u0650\u0646\u0627 \u0641\u06cc\u0633\u0648","name:to":"Pekano Faso","name:pa":"\u0a2c\u0a41\u0a30\u0a15\u0a40\u0a28\u0a3e \u0a2b\u0a3c\u0a3e\u0a38\u0a4b","name:os":"\u0411\u0443\u0440\u043a\u0438\u043d\u0430 \u0424\u0430\u0441\u043e","name:or":"\u0b2c\u0b41\u0b30\u0b4d\u0b15\u0b3f\u0b28\u0b4b \u0b2b\u0b3e\u0b38\u0b4b","name:ce":"\u0411\u0443\u0440\u043a\u0438\u043d\u0430 \u0424\u0430\u0441\u043e","name:ta":"\u0baa\u0bc1\u0bb0\u0bcd\u0b95\u0bbf\u0ba9\u0bbe \u0b83\u0baa\u0bbe\u0bb8\u0bcb","name:tg":"\u0411\u0443\u0440\u043a\u0438\u043d\u0430 \u0424\u0430\u0441\u043e","name:ky":"\u0411\u0443\u0440\u043a\u0438\u043d\u0430 \u0424\u0430\u0441\u043e","name:te":"\u0c2c\u0c41\u0c30\u0c4d\u0c15\u0c3f\u0c28\u0c3e \u0c2b\u0c3e\u0c38\u0c4b","old_name:pt":"Alto Volta","name:qu":"Burkina Phasu","name:dz":"\u0f56\u0fb7\u0f62\u0f0b\u0f40\u0f72\u0f0b\u0f53\u0f0b \u0f55\u0f7a\u0f0b\u0f66\u0f7c","source":"openstreetmap.org","name:kn":"\u0cac\u0cc1\u0cb0\u0ccd\u0c95\u0cbf\u0ca8\u0cbe \u0cab\u0cbe\u0cb8\u0ccb","name:dv":"\u0784\u07aa\u0783\u07aa\u0786\u07a9\u0782\u07a7 \u078a\u07a7\u0790\u07af","name:lv":"Burkinafaso","name:lt":"Burkina Fasas","name:hi":"\u092c\u0941\u0930\u094d\u0915\u093f\u0928\u093e \u092b\u093c\u093e\u0938\u094b","name:he":"\u05d1\u05d5\u05e8\u05e7\u05d9\u05e0\u05d4 \u05e4\u05d0\u05e1\u05d5","min_zoom":2.0,"kind":"country","name:ur":"\u0628\u0631\u06a9\u06cc\u0646\u0627 \u0641\u0627\u0633\u0648","name:la":"Burkina","name:lg":"Burukina Faso","name:uk":"\u0411\u0443\u0440\u043a\u0456\u043d\u0430-\u0424\u0430\u0441\u043e","name:hy":"\u0532\u0578\u0582\u0580\u056f\u056b\u0576\u0561 \u0556\u0561\u057d\u0578","name:ug":"\u0628\u06c7\u0631\u0643\u0649\u0646\u0627 \u0641\u0627\u0633\u0648","name:ln":"Bukina Faso","name:lo":"\u0ec0\u0e9a\u0eb5\u0e81\u0eb4\u0e99\u0eb2\u0e9f\u0eb2\u0ec2\u0e8a","population":16751455,"name:el":"\u039c\u03c0\u03bf\u03c5\u03c1\u03ba\u03af\u03bd\u03b1 \u03a6\u03ac\u03c3\u03bf","name:eo":"Burkino","name":"Burkina Faso","name:ee":"Burkina Faso nutome","name:th":"\u0e1b\u0e23\u0e30\u0e40\u0e17\u0e28\u0e1a\u0e39\u0e23\u0e4c\u0e01\u0e34\u0e19\u0e32\u0e1f\u0e32\u0e42\u0e0b","name:gu":"\u0aac\u0ac1\u0ab0\u0acd\u0a95\u0abf\u0aa8\u0abe \u0aab\u0abe\u0ab8\u0acb","name:yi":"\u05d1\u05d5\u05e8\u05e7\u05d9\u05e0\u05e2 \u05e4\u05d0\u05e1\u05d0","name:yo":"Or\u00edl\u1eb9\u0301\u00e8de B\u00f9\u00f9k\u00edn\u00e1 Fas\u00f2","name:rn":"Burukina Faso","name:az":"Burkina-Faso","name:mr":"\u092c\u0941\u0930\u094d\u0915\u093f\u0928\u093e \u092b\u093e\u0938\u094b","name:ar":"\u0628\u0648\u0631\u0643\u064a\u0646\u0627 \u0641\u0627\u0635\u0648","name:my":"\u1018\u102c\u1000\u102e\u1038\u1014\u102c\u1038\u1016\u102c\u1038\u1006\u102d\u102f\u1014\u102d\u102f\u1004\u103a\u1004\u1036","name:is":"B\u00fark\u00edna Fas\u00f3","name:am":"\u1261\u122d\u12aa\u1293 \u134b\u1236","name:ml":"\u0d2c\u0d41\u0d7c\u0d15\u0d4d\u0d15\u0d3f\u0d28\u0d3e \u0d2b\u0d3e\u0d38\u0d4b","name:ru":"\u0411\u0443\u0440\u043a\u0438\u043d\u0430-\u0424\u0430\u0441\u043e","name:rw":"Burukina Faso","alt_name:pt":"Burkina Fasso","name:mk":"\u0411\u0443\u0440\u043a\u0438\u043d\u0430 \u0424\u0430\u0441\u043e","name:vo":"Burkin\u00e4n","name:zu":"i-Burkina Faso","name:ha":"Burkina faso","name:mn":"\u0411\u0443\u0440\u043a\u0438\u043d\u0430 \u0424\u0430\u0441\u043e","name:ff":"Burkibaa Faaso","name:mg":"Borkina Faso","id":249399288,"name:wo":"Burkinaa Faaso","name:zh-yue":"\u5e03\u57fa\u7d0d\u6cd5\u7d22","name:fy":"B\u00fbrkina Faso","name:zh":"\u5e03\u57fa\u7eb3\u6cd5\u7d22","name:so":"Burkiina Faaso","name:sn":"Bukinafaso","name:sk":"Burkina","name:ja":"\u30d6\u30eb\u30ad\u30ca\u30d5\u30a1\u30bd","name:si":"\u0db6\u0dbb\u0dca\u0d9a\u0dd2\u0db1\u0dcf \u0dc6\u0dcf\u0dc3\u0ddd","name:fa":"\u0628\u0648\u0631\u06a9\u06cc\u0646\u0627\u0641\u0627\u0633\u0648","name:na":"Burkinabato","name:ne":"\u092c\u0930\u094d\u0915\u093f\u0928\u093e \u092b\u093e\u0938\u094b","name:sa":"\u092c\u0941\u0930\u094d\u0915\u0940\u0928\u093e-\u092b\u093e\u0938\u094b","name:bm":"Burukina Faso","name:bn":"\u09ac\u09c1\u09b0\u0995\u09bf\u09a8\u09be \u09ab\u09be\u09b8\u09cb","name:bo":"\u0f56\u0f62\u0f40\u0f72\u0f0b\u0f53\u0f0d \u0f55\u0f66\u0f7c\u0f0d","name:sw":"Bukinafaso","name:be":"\u0411\u0443\u0440\u043a\u0456\u043d\u0430-\u0424\u0430\u0441\u043e","name:bg":"\u0411\u0443\u0440\u043a\u0438\u043d\u0430 \u0424\u0430\u0441\u043e","name:ss":"IBhukhina-Faso","name:sr":"\u0411\u0443\u0440\u043a\u0438\u043d\u0430 \u0424\u0430\u0441\u043e","name:ga":"Buirc\u00edne Fas\u00f3","name:gd":"Buirciona Faso","name:ht":"Boukinafaso","name:gl":"Burquina Faso","name:ak":"B\u0254kina Faso","name:tt":"\u0411\u0443\u0440\u043a\u0438\u043d\u0430 \u0424\u0430\u0441\u043e"},"coordinates":[3275,2670]},{"type":"Point","properties":{"name:az":"Uaqaduqu","name:ka":"\u10e3\u10d0\u10d2\u10d0\u10d3\u10e3\u10d2\u10e3","name:mr":"\u0935\u093e\u0917\u093e\u0921\u0941\u0917\u0942","name:ko":"\uc640\uac00\ub450\uad6c","name:cv":"\u0423\u0430\u0433\u0430\u0434\u0443\u0433\u0443","name:ar":"\u0648\u0627\u063a\u0627\u062f\u0648\u063a\u0648","country_capital":true,"name:th":"\u0e27\u0e32\u0e01\u0e32\u0e14\u0e39\u0e01\u0e39","name:am":"\u12cb\u130b\u12f1\u1309","name:ru":"\u0423\u0430\u0433\u0430\u0434\u0443\u0433\u0443","name:pl":"Wagadugu","name:ta":"\u0bb5\u0bbe\u0b95\u0b9f\u0bc2\u0b95\u0bc1","name:tg":"\u0423\u0430\u0433\u0430\u0434\u0443\u0433\u0443","name:ky":"\u0423\u0430\u0433\u0430\u0434\u0443\u0433\u0443","name:fa":"\u0627\u0648\u0622\u06af\u0627\u062f\u0648\u06af\u0648","name:rw":"Wagadugu","name:lt":"Uagadugu","kind_detail":"city","name:uz":"Uagadugu","id":27565002,"source":"openstreetmap.org","name:mk":"\u0423\u0430\u0433\u0430\u0434\u0443\u0433\u0443","name:zh":"\u74e6\u52a0\u675c\u53e4","name:hy":"\u0548\u0582\u0561\u0563\u0561\u0564\u0578\u0582\u0563\u0578\u0582","name:so":"Ougadougou","admin_level":"2","name:lv":"Vagadugu","name:ja":"\u30ef\u30ac\u30c9\u30a5\u30b0\u30fc","short_name":"Ouaga","alt_name:de":"Wagadugu","name:he":"\u05d5\u05d0\u05d2\u05d0\u05d3\u05d5\u05d2\u05d5","kind":"locality","name:ur":"\u0627\u0648\u0627\u06af\u0627\u062f\u0648\u06af\u0648","name:yi":"\u05d5\u05d5\u05d0\u05d2\u05d0\u05d3\u05d5\u05d2\u05d5","name:la":"Uagadugum","name:uk":"\u0423\u0430\u0433\u0430\u0434\u0443\u0433\u0443","old_name":"Wagadugu","name:sw":"Wagadugu","name:be":"\u0423\u0430\u0433\u0430\u0434\u0443\u0433\u0443","name:bg":"\u0423\u0430\u0433\u0430\u0434\u0443\u0433\u0443","name:sr":"\u0423\u0430\u0433\u0430\u0434\u0443\u0433\u0443","population":1915102,"name:el":"\u039f\u03c5\u03b1\u03b3\u03ba\u03b1\u03bd\u03c4\u03bf\u03c5\u03b3\u03ba\u03bf\u03cd","name:eo":"Uagaduguo","name":"Ouagadougou","min_zoom":8.0,"name:gl":"Uagadug\u00fa","name:bo":"\u0f68\u0f7c\u0f0b\u0f60\u0f0b\u0f42\u0f0b\u0f51\u0f7c\u0f60\u0f74\u0f0b\u0f42\u0f7c\u0f60\u0f74\u0f0d","name:eu":"Uagadugu","name:es":"Uagadug\u00fa"},"coordinates":[3744,3541]},{"type":"Point","properties":{"admin_level":"8","kind":"locality","name":"Koudougou","kind_detail":"town","source":"openstreetmap.org","min_zoom":8.0,"name:ru":"\u041a\u0443\u0434\u0443\u0433\u0443","id":302737590,"population":91981},"coordinates":[1301,3191]},{"type":"Point","properties":{"admin_level":"8","kind":"locality","name:en":"Reo","name":"R\u00e9o","kind_detail":"town","source":"openstreetmap.org","min_zoom":8.0,"id":356008606,"population":31174},"coordinates":[999,3394]},{"type":"Point","properties":{"admin_level":"8","kind":"locality","name":"Nioko-I","kind_detail":"town","source":"openstreetmap.org","min_zoom":8.0,"id":902962617,"population":16427},"coordinates":[4002,3623]},{"type":"Point","properties":{"admin_level":"8","kind":"locality","name":"Kokologo","kind_detail":"town","source":"openstreetmap.org","min_zoom":8.0,"alt_name:fr":"Kokologho","id":902927058,"population":14481},"coordinates":[2730,3021]},{"type":"Point","properties":{"admin_level":"8","kind":"locality","name":"Villy","kind_detail":"town","source":"openstreetmap.org","min_zoom":8.0,"alt_name:fr":"Vili","id":2403731934,"population":13317},"coordinates":[1885,3278]},{"type":"Point","properties":{"admin_level":"6","kind":"locality","name":"Sapouy","kind_detail":"town","source":"openstreetmap.org","min_zoom":8.0,"name:ru":"\u0421\u0430\u043f\u0443\u0439","id":3866720667,"population":12438},"coordinates":[3040,1116]},{"type":"Point","properties":{"admin_level":"8","kind":"locality","name":"Kindi","kind_detail":"town","source":"openstreetmap.org","min_zoom":8.0,"id":2532889938,"population":11308},"coordinates":[2255,3746]},{"type":"Point","properties":{"admin_level":"8","kind":"locality","name":"Saaba","kind_detail":"town","source":"openstreetmap.org","min_zoom":8.0,"id":902867125,"population":9700},"coordinates":[4054,3567]},{"type":"Point","properties":{"admin_level":"8","kind":"locality","name":"Sabou","kind_detail":"town","source":"openstreetmap.org","min_zoom":8.0,"id":3505224752,"population":9047},"coordinates":[1708,2627]},{"type":"Point","properties":{"admin_level":"8","kind":"locality","name":"Imasgho","kind_detail":"town","source":"openstreetmap.org","min_zoom":8.0,"alt_name:fr":"Imasgo;Imazgo","id":2532889925,"population":9007},"coordinates":[1400,3744]},{"type":"Point","properties":{"admin_level":"8","kind":"locality","name":"Tanghin-Dassouri","kind_detail":"town","source":"openstreetmap.org","min_zoom":8.0,"id":902925969,"population":8282},"coordinates":[3189,3264]},{"type":"Point","properties":{"admin_level":"8","kind":"locality","name":"Dassa","kind_detail":"town","source":"openstreetmap.org","min_zoom":8.0,"id":902927264,"population":7559},"coordinates":[354,3791]}]},"transit":{"type":"GeometryCollection","geometries":[]},"pois":{"type":"GeometryCollection","geometries":[]},"boundaries":{"type":"GeometryCollection","geometries":[{"type":"MultiLineString","properties":{"name:left:ar":"\u0648\u0633\u0637 \u0643\u0648\u064a\u0633\u062a","id:left":-2813987,"id:right":-2746024,"min_zoom":8.0,"name:left:ru":"\u0417\u0430\u043f\u0430\u0434\u043d\u043e-\u0426\u0435\u043d\u0442\u0440\u0430\u043b\u044c\u043d\u0430\u044f \u043e\u0431\u043b\u0430\u0441\u0442\u044c","name:right:ru":"\u042e\u0433\u043e-\u0426\u0435\u043d\u0442\u0440\u0430\u043b\u044c\u043d\u0430\u044f \u043e\u0431\u043b\u0430\u0441\u0442\u044c","id":-2813987,"osm_relation":true,"name:right":"Centre-Sud","kind":"region","name":"Centre-Ouest - Centre-Sud","source":"openstreetmap.org","sort_rank":256,"kind_detail":"4","name:left:de":"Mitte-West","name:right:en":"Central-South","name:left:en":"Central-West","name:right:ar":"\u0627\u0644\u0648\u0633\u0637 \u0627\u0644\u062c\u0646\u0648\u0628\u064a","name:right:de":"Mitte-S\u00fcd","official_name:right":"R\u00e9gion Centre-Sud","official_name:left":"R\u00e9gion Centre-Ouest","name:left":"Centre-Ouest"},"arcs":[[0],[1]]},{"type":"MultiLineString","properties":{"name:left:ar":"\u0648\u0633\u0637 \u0643\u0648\u064a\u0633\u062a","id:left":-2813987,"id:right":-2745992,"min_zoom":8.0,"name:left:ru":"\u0417\u0430\u043f\u0430\u0434\u043d\u043e-\u0426\u0435\u043d\u0442\u0440\u0430\u043b\u044c\u043d\u0430\u044f \u043e\u0431\u043b\u0430\u0441\u0442\u044c","name:right:ru":"\u042e\u0433\u043e-\u0417\u0430\u043f\u0430\u0434\u043d\u0430\u044f \u043e\u0431\u043b\u0430\u0441\u0442\u044c","id":-2813987,"osm_relation":true,"name:right":"Sud-Ouest","kind":"region","name":"Centre-Ouest - Sud-Ouest","source":"openstreetmap.org","sort_rank":256,"kind_detail":"4","name:left:de":"Mitte-West","name:right:en":"Southwest","name:left:en":"Central-West","name:right:ar":"\u062c\u0646\u0648\u0628 \u0643\u0648\u064a\u0633\u062a","name:right:de":"S\u00fcdwest","official_name:right":"R\u00e9gion Sud-Ouest","official_name:left":"R\u00e9gion Centre-Ouest","name:left":"Centre-Ouest"},"arcs":[[2],[3]]},{"type":"MultiLineString","properties":{"name:left:ar":"\u0648\u0633\u0637 \u0643\u0648\u064a\u0633\u062a","id:left":-2813987,"name:right:ru":"\u0411\u0443\u043a\u043b\u0435-\u0434\u0443-\u041c\u0443\u0445\u0443\u043d","min_zoom":8.0,"name:left:ru":"\u0417\u0430\u043f\u0430\u0434\u043d\u043e-\u0426\u0435\u043d\u0442\u0440\u0430\u043b\u044c\u043d\u0430\u044f \u043e\u0431\u043b\u0430\u0441\u0442\u044c","id:right":-2674448,"id":-2813987,"osm_relation":true,"name:right":"Boucle du Mouhoun","kind":"region","name:left:en":"Central-West","sort_rank":256,"kind_detail":"4","name:left:de":"Mitte-West","name":"Centre-Ouest - Boucle du Mouhoun","source":"openstreetmap.org","name:right:ar":"\u0628\u0648\u0643\u0644 \u062f\u0648 \u0645\u0648\u0647\u0648\u0646","name:right:de":"Schwarzer-Volta-Bogen","official_name:right":"R\u00e9gion de la Boucle du Mouhoun","official_name:left":"R\u00e9gion Centre-Ouest","name:left":"Centre-Ouest"},"arcs":[[4],[5],[6]]},{"type":"LineString","properties":{"kind":"region","name:en":"Central-West","name":"Centre-Ouest","sort_rank":256,"kind_detail":"4","name:ar":"\u0648\u0633\u0637 \u0643\u0648\u064a\u0633\u062a","official_name":"R\u00e9gion Centre-Ouest","name:de":"Mitte-West","source":"openstreetmap.org","min_zoom":8.0,"name:ru":"\u0417\u0430\u043f\u0430\u0434\u043d\u043e-\u0426\u0435\u043d\u0442\u0440\u0430\u043b\u044c\u043d\u0430\u044f \u043e\u0431\u043b\u0430\u0441\u0442\u044c","id":-2813987,"osm_relation":true},"arcs":[7]},{"type":"LineString","properties":{"kind":"region","name:en":"Central-South","name":"Centre-Sud","sort_rank":256,"kind_detail":"4","name:ar":"\u0627\u0644\u0648\u0633\u0637 \u0627\u0644\u062c\u0646\u0648\u0628\u064a","official_name":"R\u00e9gion Centre-Sud","name:de":"Mitte-S\u00fcd","source":"openstreetmap.org","min_zoom":8.0,"name:ru":"\u042e\u0433\u043e-\u0426\u0435\u043d\u0442\u0440\u0430\u043b\u044c\u043d\u0430\u044f \u043e\u0431\u043b\u0430\u0441\u0442\u044c","id":-2746024,"osm_relation":true},"arcs":[8]},{"type":"LineString","properties":{"name:left:ar":"\u062c\u0646\u0648\u0628 \u0643\u0648\u064a\u0633\u062a","id:left":-2745992,"name:right:ru":"\u0411\u0443\u043a\u043b\u0435-\u0434\u0443-\u041c\u0443\u0445\u0443\u043d","min_zoom":8.0,"name:left:ru":"\u042e\u0433\u043e-\u0417\u0430\u043f\u0430\u0434\u043d\u0430\u044f \u043e\u0431\u043b\u0430\u0441\u0442\u044c","id:right":-2674448,"id":-2745992,"osm_relation":true,"name:right":"Boucle du Mouhoun","kind":"region","name:left:en":"Southwest","sort_rank":256,"kind_detail":"4","name:left:de":"S\u00fcdwest","name":"Sud-Ouest - Boucle du Mouhoun","source":"openstreetmap.org","name:right:ar":"\u0628\u0648\u0643\u0644 \u062f\u0648 \u0645\u0648\u0647\u0648\u0646","name:right:de":"Schwarzer-Volta-Bogen","official_name:right":"R\u00e9gion de la Boucle du Mouhoun","official_name:left":"R\u00e9gion Sud-Ouest","name:left":"Sud-Ouest"},"arcs":[9]}]},"roads":{"type":"GeometryCollection","geometries":[{"type":"LineString","properties":{"kind":"major_road","network":"Route Nationale de Burkina Faso","sort_rank":380,"kind_detail":"primary","source":"openstreetmap.org","min_zoom":8.0,"landuse_kind":"residential","shield_text":"6"},"arcs":[10]},{"type":"MultiLineString","properties":{"kind":"major_road","network":"Route Nationale de Burkina Faso","sort_rank":380,"kind_detail":"primary","source":"openstreetmap.org","min_zoom":8.0,"landuse_kind":"residential","shield_text":"5"},"arcs":[[11],[12],[13],[14]]},{"type":"MultiLineString","properties":{"kind":"major_road","network":"TAH - Trans African Highways","sort_rank":380,"kind_detail":"primary","is_bicycle_related":true,"cycleway":"track","source":"openstreetmap.org","min_zoom":8.0,"shield_text":null},"arcs":[[15],[16]]},{"type":"MultiLineString","properties":{"kind":"major_road","network":"Route Nationale de Burkina Faso","sort_rank":380,"kind_detail":"primary","source":"openstreetmap.org","min_zoom":8.0,"landuse_kind":"residential","shield_text":"22"},"arcs":[[17],[18],[19]]},{"type":"MultiLineString","properties":{"bus_network":"SOTRACO","network":"TAH - Trans African Highways","sort_rank":380,"kind_detail":"primary","kind":"major_road","source":"openstreetmap.org","min_zoom":8.0,"bus_shield_text":"L4","shield_text":null,"landuse_kind":"residential"},"arcs":[[20],[21],[22],[23],[24],[25],[26]]},{"type":"LineString","properties":{"bus_network":"SOTRACO","network":"Route Nationale de Burkina Faso","sort_rank":380,"kind_detail":"primary","kind":"major_road","source":"openstreetmap.org","min_zoom":8.0,"bus_shield_text":"L10","shield_text":"5","landuse_kind":"residential"},"arcs":[27]},{"type":"LineString","properties":{"kind":"major_road","network":"Route Nationale de Burkina Faso","sort_rank":380,"kind_detail":"primary","source":"openstreetmap.org","min_zoom":8.0,"landuse_kind":"residential","shield_text":"13"},"arcs":[28]},{"type":"MultiLineString","properties":{"bus_network":"SOTRACO","network":"Route Nationale de Burkina Faso","sort_rank":380,"kind_detail":"primary","kind":"major_road","source":"openstreetmap.org","min_zoom":8.0,"bus_shield_text":"L3","shield_text":"2","landuse_kind":"residential"},"arcs":[[29],[30],[31],[32],[33]]},{"type":"MultiLineString","properties":{"kind":"major_road","network":"TAH - Trans African Highways","sort_rank":380,"kind_detail":"primary","is_bicycle_related":true,"cycleway":"track","source":"openstreetmap.org","min_zoom":8.0,"landuse_kind":"residential","shield_text":null},"arcs":[[34],[35]]},{"type":"MultiLineString","properties":{"bus_network":"SOTRACO","sort_rank":380,"kind_detail":"primary","kind":"major_road","source":"openstreetmap.org","min_zoom":8.0,"bus_shield_text":"L1","landuse_kind":"residential"},"arcs":[[36],[37],[38],[39],[40]]},{"type":"LineString","properties":{"source":"openstreetmap.org","kind":"major_road","network":"Route Nationale de Burkina Faso","sort_rank":380,"kind_detail":"primary","min_zoom":8.0,"shield_text":"4"},"arcs":[41]},{"type":"LineString","properties":{"kind":"major_road","network":"Route Nationale de Burkina Faso","sort_rank":380,"kind_detail":"primary","is_bicycle_related":true,"cycleway":"track","source":"openstreetmap.org","min_zoom":8.0,"landuse_kind":"residential","shield_text":"22"},"arcs":[42]},{"type":"LineString","properties":{"kind":"major_road","network":"Route Nationale de Burkina Faso","sort_rank":380,"kind_detail":"primary","source":"openstreetmap.org","min_zoom":8.0,"shield_text":"14","ref":"N 14"},"arcs":[43]},{"type":"LineString","properties":{"source":"openstreetmap.org","kind":"major_road","network":"Route Nationale de Burkina Faso","sort_rank":380,"kind_detail":"primary","min_zoom":8.0,"shield_text":"3"},"arcs":[44]},{"type":"LineString","properties":{"kind":"major_road","network":"Route Nationale de Burkina Faso","sort_rank":380,"kind_detail":"primary","source":"openstreetmap.org","min_zoom":8.0,"shield_text":"2","osm_relation":true},"arcs":[45]},{"type":"MultiLineString","properties":{"bus_network":"SOTRACO","network":"Route Nationale de Burkina Faso","sort_rank":380,"kind_detail":"primary","is_bicycle_related":true,"kind":"major_road","cycleway":"track","source":"openstreetmap.org","min_zoom":8.0,"bus_shield_text":"L6B","shield_text":"3","landuse_kind":"residential"},"arcs":[[46],[47],[48],[49],[50],[51]]},{"type":"LineString","properties":{"kind":"major_road","network":"Route Nationale de Burkina Faso","sort_rank":380,"kind_detail":"primary","source":"openstreetmap.org","min_zoom":8.0,"shield_text":"3","osm_relation":true},"arcs":[52]},{"type":"MultiLineString","properties":{"kind":"major_road","network":"Route Nationale de Burkina Faso","sort_rank":380,"kind_detail":"primary","is_bicycle_related":true,"cycleway":"track","source":"openstreetmap.org","min_zoom":8.0,"landuse_kind":"residential","shield_text":"5"},"arcs":[[53],[54],[55],[56],[57]]},{"type":"LineString","properties":{"kind":"major_road","network":"Route Nationale de Burkina Faso","sort_rank":380,"kind_detail":"primary","source":"openstreetmap.org","min_zoom":8.0,"landuse_kind":"residential","shield_text":"14"},"arcs":[58]},{"type":"MultiLineString","properties":{"bus_network":"SOTRACO","network":"Route Nationale de Burkina Faso","sort_rank":380,"kind_detail":"primary","kind":"major_road","source":"openstreetmap.org","min_zoom":8.0,"bus_shield_text":"L10","shield_text":"6","landuse_kind":"residential"},"arcs":[[59],[60]]},{"type":"LineString","properties":{"kind":"major_road","network":"Route Nationale de Burkina Faso","sort_rank":380,"kind_detail":"primary","source":"openstreetmap.org","min_zoom":8.0,"landuse_kind":"nature_reserve","shield_text":"6"},"arcs":[61]},{"type":"MultiLineString","properties":{"bus_network":"SOTRACO","network":"Route Nationale de Burkina Faso","sort_rank":380,"landuse_kind":"residential","kind":"major_road","source":"openstreetmap.org","min_zoom":8.0,"bus_shield_text":"L6B","shield_text":"3","kind_detail":"primary"},"arcs":[[62],[63],[64],[65],[66]]},{"type":"LineString","properties":{"kind":"major_road","sort_rank":380,"kind_detail":"primary","bus_network":"SOTRACO","source":"openstreetmap.org","min_zoom":8.0,"bus_shield_text":"L2","landuse_kind":"residential","id":331658099},"arcs":[67]},{"type":"LineString","properties":{"kind":"major_road","network":"Route Nationale de Burkina Faso","sort_rank":380,"kind_detail":"primary","source":"openstreetmap.org","min_zoom":8.0,"shield_text":"22","ref":"N 22"},"arcs":[68]},{"type":"LineString","properties":{"kind":"major_road","sort_rank":380,"kind_detail":"primary","is_bicycle_related":true,"bus_network":"SOTRACO","source":"openstreetmap.org","min_zoom":8.0,"bus_shield_text":"L1","landuse_kind":"residential","id":400468883},"arcs":[69]},{"type":"MultiLineString","properties":{"kind":"major_road","sort_rank":380,"kind_detail":"primary","is_bicycle_related":true,"cycleway":"track","source":"openstreetmap.org","min_zoom":8.0,"landuse_kind":"residential"},"arcs":[[70],[71],[72],[73]]},{"type":"MultiLineString","properties":{"kind":"major_road","network":"Route Nationale de Burkina Faso","sort_rank":380,"kind_detail":"primary","source":"openstreetmap.org","min_zoom":8.0,"landuse_kind":"residential","shield_text":"6","osm_relation":true},"arcs":[[74],[75],[76],[77],[78]]},{"type":"MultiLineString","properties":{"kind":"major_road","network":"Route Nationale de Burkina Faso","sort_rank":380,"kind_detail":"primary","source":"openstreetmap.org","min_zoom":8.0,"landuse_kind":"residential","shield_text":"5","osm_relation":true},"arcs":[[79],[80],[81],[82],[83],[84],[85],[86],[87],[88],[89],[90],[91],[92]]},{"type":"LineString","properties":{"kind":"major_road","sort_rank":380,"kind_detail":"primary","bus_network":"SOTRACO","source":"openstreetmap.org","min_zoom":8.0,"bus_shield_text":"L2B","landuse_kind":"residential","id":423210493},"arcs":[93]},{"type":"MultiLineString","properties":{"source":"openstreetmap.org","kind":"major_road","network":"TAH - Trans African Highways","sort_rank":380,"kind_detail":"primary","min_zoom":8.0,"shield_text":null},"arcs":[[94],[95],[96],[97],[98],[99],[100],[101],[102],[103],[104]]},{"type":"MultiLineString","properties":{"kind":"major_road","network":"Route Nationale de Burkina Faso","sort_rank":380,"kind_detail":"primary","is_bicycle_related":true,"cycleway":"track","source":"openstreetmap.org","min_zoom":8.0,"shield_text":"6"},"arcs":[[105],[106],[107]]},{"type":"LineString","properties":{"kind":"major_road","network":"Route Nationale de Burkina Faso","sort_rank":380,"kind_detail":"primary","source":"openstreetmap.org","min_zoom":8.0,"landuse_kind":"residential","shield_text":"2","ref":"N 2"},"arcs":[108]},{"type":"LineString","properties":{"kind":"major_road","network":"Route Nationale de Burkina Faso","sort_rank":380,"kind_detail":"primary","source":"openstreetmap.org","min_zoom":8.0,"shield_text":"5","osm_relation":true},"arcs":[109]},{"type":"MultiLineString","properties":{"kind":"major_road","network":"Route Nationale de Burkina Faso","sort_rank":380,"kind_detail":"primary","source":"openstreetmap.org","min_zoom":8.0,"landuse_kind":"urban_area","shield_text":"4","osm_relation":true},"arcs":[[110],[111],[112]]},{"type":"MultiLineString","properties":{"bus_network":"SOTRACO","network":"Route Nationale de Burkina Faso","sort_rank":380,"kind_detail":"primary","is_bicycle_related":true,"kind":"major_road","cycleway":"track","source":"openstreetmap.org","min_zoom":8.0,"bus_shield_text":"L10","shield_text":"6"},"arcs":[[113],[114]]},{"type":"LineString","properties":{"bus_network":"SOTRACO","sort_rank":380,"kind_detail":"primary","kind":"major_road","source":"openstreetmap.org","min_zoom":8.0,"bus_shield_text":"L4","landuse_kind":"residential"},"arcs":[115]},{"type":"LineString","properties":{"kind":"major_road","network":"Route Nationale de Burkina Faso","sort_rank":380,"kind_detail":"primary","source":"openstreetmap.org","min_zoom":8.0,"landuse_kind":"urban_area","shield_text":"13"},"arcs":[116]},{"type":"MultiLineString","properties":{"bus_network":"SOTRACO","network":"Route Nationale de Burkina Faso","sort_rank":380,"kind_detail":"primary","kind":"major_road","source":"openstreetmap.org","min_zoom":8.0,"bus_shield_text":"L2","shield_text":"5","landuse_kind":"residential"},"arcs":[[117],[118]]},{"type":"LineString","properties":{"kind":"major_road","network":"Route Nationale de Burkina Faso","sort_rank":380,"kind_detail":"primary","source":"openstreetmap.org","min_zoom":8.0,"landuse_kind":"nature_reserve","shield_text":"6","osm_relation":true},"arcs":[119]},{"type":"LineString","properties":{"kind":"major_road","network":"Route Nationale de Burkina Faso","sort_rank":380,"kind_detail":"primary","source":"openstreetmap.org","min_zoom":8.0,"shield_text":"22","osm_relation":true},"arcs":[120]},{"type":"LineString","properties":{"kind":"major_road","network":"Route Nationale de Burkina Faso","sort_rank":380,"kind_detail":"primary","source":"openstreetmap.org","min_zoom":8.0,"shield_text":"4","osm_relation":true},"arcs":[121]},{"type":"LineString","properties":{"sort_rank":380,"kind_detail":"primary","min_zoom":8.0,"kind":"major_road","source":"openstreetmap.org"},"arcs":[122]},{"type":"LineString","properties":{"kind":"major_road","network":"TAH - Trans African Highways","sort_rank":380,"kind_detail":"primary","bus_network":"SOTRACO","source":"openstreetmap.org","min_zoom":8.0,"bus_shield_text":"L1","shield_text":null,"landuse_kind":"residential","id":331656848},"arcs":[123]},{"type":"MultiLineString","properties":{"kind":"major_road","network":"Route Nationale de Burkina Faso","sort_rank":380,"kind_detail":"primary","source":"openstreetmap.org","min_zoom":8.0,"landuse_kind":"residential","shield_text":"3","osm_relation":true},"arcs":[[124],[125],[126],[127],[128],[129],[130],[131],[132],[133],[134],[135],[136],[137],[138],[139],[140],[141],[142],[143]]},{"type":"MultiLineString","properties":{"bus_network":"SOTRACO","sort_rank":380,"kind_detail":"primary","kind":"major_road","source":"openstreetmap.org","min_zoom":8.0,"bus_shield_text":"L10","landuse_kind":"residential"},"arcs":[[144],[145],[146]]},{"type":"LineString","properties":{"bus_network":"SOTRACO","network":"TAH - Trans African Highways","sort_rank":380,"kind_detail":"primary","kind":"major_road","source":"openstreetmap.org","min_zoom":8.0,"bus_shield_text":"L2B","shield_text":null,"landuse_kind":"residential"},"arcs":[147]},{"type":"MultiLineString","properties":{"bus_network":"SOTRACO","network":"Route Nationale de Burkina Faso","sort_rank":380,"kind_detail":"primary","is_bicycle_related":true,"kind":"major_road","cycleway":"track","source":"openstreetmap.org","min_zoom":8.0,"bus_shield_text":"L10","shield_text":"6","landuse_kind":"residential"},"arcs":[[148],[149]]},{"type":"MultiLineString","properties":{"kind":"major_road","network":"Route Nationale de Burkina Faso","sort_rank":380,"kind_detail":"primary","source":"openstreetmap.org","min_zoom":8.0,"landuse_kind":"residential","shield_text":"4","osm_relation":true},"arcs":[[150],[151],[152],[153],[154],[155],[156],[157],[158],[159],[160],[161],[162],[163],[164],[165],[166],[167],[168],[169],[170],[171],[172],[173],[174],[175],[176],[177],[178],[179],[180],[181],[182],[183],[184],[185],[186]]},{"type":"MultiLineString","properties":{"bus_network":"SOTRACO","network":"TAH - Trans African Highways","sort_rank":380,"kind_detail":"primary","kind":"major_road","source":"openstreetmap.org","min_zoom":8.0,"bus_shield_text":"L5","shield_text":null,"landuse_kind":"residential"},"arcs":[[187],[188],[189],[190],[191],[192],[193]]},{"type":"MultiLineString","properties":{"source":"openstreetmap.org","kind":"major_road","network":"Route Nationale de Burkina Faso","sort_rank":380,"kind_detail":"primary","min_zoom":8.0,"shield_text":"13"},"arcs":[[194],[195],[196],[197]]},{"type":"MultiLineString","properties":{"kind":"major_road","network":"Route Nationale de Burkina Faso","sort_rank":380,"kind_detail":"primary","source":"openstreetmap.org","min_zoom":8.0,"shield_text":"13","ref":"N 13"},"arcs":[[198],[199],[200],[201]]},{"type":"LineString","properties":{"kind":"major_road","network":"Route Nationale de Burkina Faso","sort_rank":380,"kind_detail":"primary","bus_network":"SOTRACO","source":"openstreetmap.org","min_zoom":8.0,"bus_shield_text":"L10","shield_text":"4","landuse_kind":"residential","id":447571583},"arcs":[202]},{"type":"MultiLineString","properties":{"bus_network":"SOTRACO","network":"Route Nationale de Burkina Faso","sort_rank":380,"landuse_kind":"residential","bus_shield_text":"L2","kind":"major_road","source":"openstreetmap.org","min_zoom":8.0,"old_name":"Boulevard des Tensoba","shield_text":"5","kind_detail":"primary"},"arcs":[[203],[204]]},{"type":"LineString","properties":{"kind":"major_road","network":"Route Nationale de Burkina Faso","sort_rank":380,"kind_detail":"primary","source":"openstreetmap.org","min_zoom":8.0,"shield_text":"2","ref":"N 2"},"arcs":[205]},{"type":"MultiLineString","properties":{"kind":"major_road","network":"Route Nationale de Burkina Faso","sort_rank":380,"kind_detail":"primary","source":"openstreetmap.org","min_zoom":8.0,"landuse_kind":"residential","shield_text":"13","ref":"N 13"},"arcs":[[206],[207]]},{"type":"MultiLineString","properties":{"kind":"major_road","network":"Route Nationale de Burkina Faso","sort_rank":380,"kind_detail":"primary","source":"openstreetmap.org","min_zoom":8.0,"landuse_kind":"residential","shield_text":"3"},"arcs":[[208],[209],[210],[211],[212],[213],[214]]},{"type":"LineString","properties":{"bus_network":"SOTRACO","network":"TAH - Trans African Highways","sort_rank":380,"kind_detail":"primary","kind":"major_road","source":"openstreetmap.org","min_zoom":8.0,"bus_shield_text":"L5","shield_text":null},"arcs":[215]},{"type":"MultiLineString","properties":{"source":"openstreetmap.org","kind":"major_road","landuse_kind":"residential","sort_rank":380,"kind_detail":"primary","min_zoom":8.0},"arcs":[[216],[217],[218],[219],[220],[221],[222],[223],[224],[225],[226],[227],[228],[229],[230],[231],[232],[233],[234]]},{"type":"MultiLineString","properties":{"kind":"major_road","network":"Route Nationale de Burkina Faso","sort_rank":380,"kind_detail":"primary","source":"openstreetmap.org","min_zoom":8.0,"landuse_kind":"residential","shield_text":"4"},"arcs":[[235],[236],[237],[238],[239],[240]]},{"type":"LineString","properties":{"kind":"major_road","network":"Route Nationale de Burkina Faso","sort_rank":380,"kind_detail":"primary","is_bicycle_related":true,"bus_network":"SOTRACO","cycleway":"track","source":"openstreetmap.org","min_zoom":8.0,"bus_shield_text":"L2","shield_text":"5","landuse_kind":"residential","id":312441609},"arcs":[241]},{"type":"LineString","properties":{"kind":"major_road","network":"Route Nationale de Burkina Faso","sort_rank":380,"kind_detail":"primary","is_bicycle_related":true,"source":"openstreetmap.org","min_zoom":8.0,"shield_text":"6"},"arcs":[242]},{"type":"LineString","properties":{"kind":"major_road","sort_rank":380,"kind_detail":"primary","is_bicycle_related":true,"bus_network":"SOTRACO","cycleway":"track","source":"openstreetmap.org","min_zoom":8.0,"bus_shield_text":"L2B","landuse_kind":"residential","id":359239132},"arcs":[243]},{"type":"LineString","properties":{"kind":"major_road","sort_rank":380,"kind_detail":"primary","bus_network":"SOTRACO","source":"openstreetmap.org","min_zoom":8.0,"bus_shield_text":"L3","landuse_kind":"residential","id":370319759},"arcs":[244]},{"type":"MultiLineString","properties":{"bus_network":"SOTRACO","network":"TAH - Trans African Highways","sort_rank":380,"kind_detail":"primary","kind":"major_road","source":"openstreetmap.org","min_zoom":8.0,"bus_shield_text":"L10","shield_text":null,"landuse_kind":"residential"},"arcs":[[245],[246]]},{"type":"MultiLineString","properties":{"kind":"major_road","sort_rank":380,"kind_detail":"primary","is_bicycle_related":true,"cycleway":"lane","source":"openstreetmap.org","min_zoom":8.0,"landuse_kind":"residential"},"arcs":[[247],[248],[249]]},{"type":"MultiLineString","properties":{"bus_network":"SOTRACO","network":"TAH - Trans African Highways","sort_rank":380,"kind_detail":"primary","is_bicycle_related":true,"kind":"major_road","cycleway":"lane","source":"openstreetmap.org","min_zoom":8.0,"bus_shield_text":"L4","shield_text":null,"landuse_kind":"residential"},"arcs":[[250],[251],[252],[253]]},{"type":"MultiLineString","properties":{"source":"openstreetmap.org","kind":"major_road","network":"Route Nationale de Burkina Faso","sort_rank":380,"kind_detail":"primary","min_zoom":8.0,"shield_text":"14"},"arcs":[[254],[255],[256],[257]]},{"type":"MultiLineString","properties":{"kind":"major_road","network":"Route Nationale de Burkina Faso","sort_rank":380,"kind_detail":"primary","source":"openstreetmap.org","min_zoom":8.0,"shield_text":"6","osm_relation":true},"arcs":[[258],[259],[260],[261]]},{"type":"MultiLineString","properties":{"bus_network":"SOTRACO","network":"TAH - Trans African Highways","sort_rank":380,"kind_detail":"primary","is_bicycle_related":true,"kind":"major_road","cycleway":"track","source":"openstreetmap.org","min_zoom":8.0,"bus_shield_text":"L5","shield_text":null,"landuse_kind":"residential"},"arcs":[[262],[263]]},{"type":"LineString","properties":{"source":"openstreetmap.org","kind":"major_road","network":"Route Nationale de Burkina Faso","sort_rank":380,"kind_detail":"primary","min_zoom":8.0,"shield_text":"22"},"arcs":[264]},{"type":"MultiLineString","properties":{"kind":"major_road","network":"Route Nationale de Burkina Faso","sort_rank":380,"kind_detail":"primary","source":"openstreetmap.org","min_zoom":8.0,"landuse_kind":"residential","shield_text":"2"},"arcs":[[265],[266],[267]]},{"type":"LineString","properties":{"bus_network":"SOTRACO","network":"TAH - Trans African Highways","sort_rank":380,"kind_detail":"primary","is_bicycle_related":true,"kind":"major_road","cycleway":"track","source":"openstreetmap.org","min_zoom":8.0,"bus_shield_text":"L5","shield_text":null,"landuse_kind":"urban_area"},"arcs":[268]},{"type":"LineString","properties":{"kind":"major_road","network":"TAH - Trans African Highways","sort_rank":380,"kind_detail":"primary","bus_network":"SOTRACO","source":"openstreetmap.org","min_zoom":8.0,"bus_shield_text":"L5","shield_text":null,"landuse_kind":"urban_area","id":342998420},"arcs":[269]},{"type":"LineString","properties":{"source":"openstreetmap.org","kind":"major_road","network":"Route Nationale de Burkina Faso","sort_rank":380,"kind_detail":"primary","min_zoom":8.0,"shield_text":"5"},"arcs":[270]},{"type":"LineString","properties":{"source":"openstreetmap.org","kind":"major_road","network":"Route Nationale de Burkina Faso","sort_rank":380,"kind_detail":"primary","min_zoom":8.0,"shield_text":"6"},"arcs":[271]},{"type":"MultiLineString","properties":{"bus_network":"SOTRACO","sort_rank":380,"kind_detail":"primary","is_bicycle_related":true,"kind":"major_road","cycleway":"track","source":"openstreetmap.org","min_zoom":8.0,"bus_shield_text":"L1","landuse_kind":"residential"},"arcs":[[272],[273]]},{"type":"MultiLineString","properties":{"kind":"major_road","network":"Route Nationale de Burkina Faso","sort_rank":380,"kind_detail":"primary","source":"openstreetmap.org","min_zoom":8.0,"landuse_kind":"residential","shield_text":"22","osm_relation":true},"arcs":[[274],[275],[276],[277],[278],[279]]},{"type":"MultiLineString","properties":{"bus_network":"SOTRACO","network":"TAH - Trans African Highways","sort_rank":380,"kind_detail":"primary","is_bicycle_related":true,"kind":"major_road","cycleway":"track","source":"openstreetmap.org","min_zoom":8.0,"bus_shield_text":"L4","shield_text":null,"landuse_kind":"residential"},"arcs":[[280],[281],[282],[283],[284]]},{"type":"MultiLineString","properties":{"kind":"major_road","network":"Route Nationale de Burkina Faso","sort_rank":380,"kind_detail":"primary","source":"openstreetmap.org","min_zoom":8.0,"landuse_kind":"urban_area","shield_text":"13","ref":"N 13"},"arcs":[[285],[286]]},{"type":"LineString","properties":{"kind":"major_road","network":"Route Nationale de Burkina Faso","sort_rank":380,"kind_detail":"primary","is_bicycle_related":true,"source":"openstreetmap.org","min_zoom":8.0,"landuse_kind":"nature_reserve","shield_text":"6","id":474837185},"arcs":[287]},{"type":"MultiLineString","properties":{"bus_network":"SOTRACO","network":"Route Nationale de Burkina Faso","sort_rank":380,"kind_detail":"primary","is_bicycle_related":true,"kind":"major_road","cycleway":"track","source":"openstreetmap.org","min_zoom":8.0,"bus_shield_text":"L2B","shield_text":"5","landuse_kind":"residential"},"arcs":[[288],[289]]},{"type":"MultiLineString","properties":{"kind":"major_road","network":"Route Nationale de Burkina Faso","sort_rank":380,"kind_detail":"primary","source":"openstreetmap.org","min_zoom":8.0,"landuse_kind":"residential","shield_text":"2","osm_relation":true},"arcs":[[290],[291],[292],[293],[294],[295],[296],[297],[298],[299],[300],[301]]}]},"earth":{"type":"GeometryCollection","geometries":[{"type":"Polygon","properties":{"sort_rank":10,"source":"naturalearthdata.com","kind":"earth","min_zoom":0.0,"id":4701},"arcs":[[302]]}]},"landuse":{"type":"GeometryCollection","geometries":[{"type":"MultiPolygon","properties":{"source":"naturalearthdata.com","kind":"urban_area","name":"","area":184186844,"sort_rank":11,"min_zoom":4.0},"arcs":[[[303]],[[304]]]},{"type":"MultiPolygon","properties":{"source":"openstreetmap.org","kind":"residential","tier":2,"area":84756477,"sort_rank":20,"min_zoom":8.0},"arcs":[[[305]]]},{"type":"Polygon","properties":{"kind":"nature_reserve","protect_class":"2","area":2019859968,"sort_rank":23,"source":"openstreetmap.org","min_zoom":4.0,"tier":2,"id":307421065},"arcs":[[306]]},{"type":"Polygon","properties":{"kind":"nature_reserve","protect_class":"6","area":1014280000,"sort_rank":23,"source":"openstreetmap.org","min_zoom":4.0,"tier":2,"id":-6454469,"osm_relation":true},"arcs":[[307]]},{"type":"Polygon","properties":{"kind":"residential","name":"Ouagadougou","area":545251008,"sort_rank":20,"source":"openstreetmap.org","min_zoom":6.0,"tier":2,"id":360061380},"arcs":[[308]]}]}},"type":"Topology","transform":{"translate":[-2.8125,11.1784018737],"scale":[0.0003433228,0.000335977]},"arcs":[[[3362,0],[108,136],[1,146],[73,67],[-12,121],[82,175],[58,28],[32,-38],[81,6],[64,104],[165,101],[81,20],[1,1]],[[4096,1305],[-27,1],[-24,50],[-93,29],[7,83],[-25,61],[-81,-29],[-15,80],[-107,4],[-16,54],[-51,-2],[-17,75],[-99,33],[-11,36],[-60,38],[-69,-23],[-27,14],[11,28],[-47,69],[-86,46],[-8,66],[-254,196],[6,76],[-57,44],[-121,-12],[-11,-33],[-43,-11],[-75,-82],[-39,2],[-82,63],[-67,-67],[-39,0],[-45,48],[-18,75],[-189,150],[275,200],[-84,150],[140,24],[51,77],[272,2]],[[13,186],[30,-55],[10,-131]],[[232,0],[-3,55],[52,20],[51,-8],[78,-67]],[[0,1732],[48,2],[96,-74],[129,-169],[43,-238],[104,-77],[-9,-215],[265,-171],[111,-29],[79,-74],[-114,-78],[-10,-34],[-181,10],[-33,-149],[-209,10],[-107,61],[-30,-16],[-152,-178],[-17,-127]],[[0,2895],[59,-86],[-59,-173]],[[206,4096],[58,-132],[-88,-75],[-6,-64],[-170,-146]],[[2871,2920],[9,166],[109,81],[-1,174],[-90,59],[93,51],[-80,99],[-393,-63],[-101,-111],[-79,-16],[-5,-37],[-128,14],[-69,46],[-11,37],[136,145],[7,119],[77,83],[21,80],[251,28],[142,-98],[234,123],[-86,196]],[[4096,2767],[-98,251],[-80,-1],[-60,37],[-146,-46],[-86,-145],[-193,-127],[-86,-16],[-71,-125],[-104,125],[-197,4],[-104,196]],[[13,186],[-13,5]],[[3747,3437],[-1,-3]],[[3748,3436],[1,0]],[[3824,3428],[-3,3],[-6,3]],[[3818,3432],[6,-5]],[[3976,3226],[-59,93]],[[3464,3422],[-26,-8]],[[3438,3414],[26,8]],[[3644,3893],[37,-137]],[[3662,3643],[-8,-48]],[[3654,3595],[0,-1],[0,-1],[0,1],[0,1]],[[3667,3496],[-19,-11]],[[3648,3485],[19,11]],[[3724,3531],[40,19]],[[3764,3550],[2,1]],[[3765,3551],[-1,-1]],[[3783,3565],[-18,-14]],[[3766,3550],[0,1]],[[3749,3436],[-2,2]],[[1308,3137],[-6,55]],[[3492,3632],[64,-25]],[[3556,3607],[133,-36]],[[3689,3571],[42,-30]],[[3731,3541],[2,-1]],[[3733,3541],[-2,0]],[[3611,3466],[-147,-44]],[[3464,3422],[147,43]],[[3766,3551]],[[3786,3555],[-20,-4]],[[3793,3560],[-2,11]],[[3903,3561],[-86,-123]],[[3862,3499],[42,64]],[[4096,3688],[-33,-15]],[[3681,3756],[-19,-113]],[[1145,3148],[-332,-107],[-292,-12],[-243,-59],[-278,78]],[[4058,3843],[38,37]],[[2941,4096],[233,-180],[68,-97],[133,-84]],[[3884,3673],[-65,-65]],[[3884,3673],[4,3]],[[3887,3676],[-3,-3]],[[3891,3680],[-3,-3]],[[3888,3677],[3,3]],[[3895,3683],[-4,-3]],[[4058,3846],[38,47]],[[3824,3427],[40,-46]],[[3864,3381],[-40,47]],[[3891,3350],[-13,14]],[[3882,3360],[9,-10]],[[3917,3319],[-26,31]],[[1476,3212],[-279,-45]],[[3746,3434],[-7,-79],[-1,-23]],[[3738,3332],[11,104]],[[3395,1458],[137,324]],[[3819,3608],[-4,-16]],[[3816,3591],[0,2]],[[3888,3677],[-1,-1]],[[3888,3676],[0,1]],[[3987,3761],[-92,-78]],[[3818,3438],[44,61]],[[3629,3982],[11,114]],[[3904,3563],[-1,0]],[[3660,3482],[40,-39],[33,-4]],[[3733,3440],[-73,42]],[[3887,3676],[20,-50]],[[3907,3626],[-19,51]],[[3742,3306],[7,130]],[[3746,3434],[-4,-102]],[[3745,3437],[1,-3]],[[3747,3437],[-1,-3]],[[3749,3436],[-2,1]],[[3736,3541],[7,-29]],[[3743,3512],[-3,30]],[[3747,3442],[-4,70]],[[3749,3438],[-2,0]],[[3747,3442],[0,-4]],[[3747,3438],[1,-2]],[[3749,3438],[-2,4]],[[3748,3435],[1,1]],[[3748,3436],[1,2]],[[3748,3436],[1,0]],[[3891,3350],[-72,82],[-70,6]],[[3749,3436],[69,-4],[60,-68]],[[3882,3360],[9,-10]],[[3987,3228],[-96,122]],[[3816,3435],[2,3]],[[0,1802],[217,-4],[209,79],[88,48],[277,254],[90,49],[248,25],[494,344],[244,79],[207,145],[94,25],[121,89],[27,85]],[[2316,3020],[2,1]],[[2317,3021],[-1,-1]],[[2319,3022],[-1,0]],[[2318,3021],[1,1]],[[2319,3022],[142,-11],[372,37],[227,86],[87,108],[289,172]],[[3436,3414],[1,0]],[[3437,3414],[-1,0]],[[4063,3673],[-46,-23]],[[2318,3021],[-1,1],[0,-1],[1,0]],[[3437,3414],[1,0],[-1,0]],[[3736,3278],[1,-73]],[[3737,3205],[-1,73]],[[3738,3196],[-1,9]],[[3378,3735],[114,-103]],[[4096,3027],[-109,201]],[[3981,3634],[5,2]],[[3986,3636],[-5,-2]],[[3993,3639],[-7,-3]],[[3738,3323],[-2,-45]],[[3736,3278],[2,46]],[[3766,3551],[20,4]],[[1308,3130],[0,7]],[[3749,3438],[-1,-2]],[[3815,3434],[3,-2]],[[3394,1459],[172,396]],[[3645,3894],[-18,70],[13,132]],[[4096,3689],[-103,-50]],[[3357,3375],[5,3]],[[3796,3575],[-5,-4]],[[3815,3592],[0,-1]],[[3816,3594],[-1,-2]],[[3815,3592],[1,0]],[[3816,3591],[0,1]],[[3816,3592],[0,1]],[[3816,3592],[0,-1]],[[3816,3593],[0,1]],[[3816,3592],[0,1]],[[3884,3673],[-68,-79]],[[3884,3673],[4,3]],[[3887,3676],[-3,-3]],[[3888,3677],[-1,-1]],[[3887,3676],[1,0]],[[3888,3676],[0,1]],[[3891,3680],[-3,-3]],[[3888,3677]],[[3888,3677],[3,3]],[[3989,3763],[-98,-83]],[[3989,3763],[3,3]],[[3992,3766],[66,80]],[[3723,3532],[1,-1]],[[3733,3439],[12,-2]],[[3747,3438],[-14,2]],[[3842,3598],[-46,-23]],[[3738,3332],[0,-9]],[[3738,3324],[0,8]],[[3724,3531]],[[3736,3541],[-3,0]],[[3733,3540],[3,1]],[[3736,3541],[4,1]],[[3740,3542],[3,0]],[[3742,3542],[-2,0]],[[3743,3543],[-1,-1]],[[3743,3543]],[[3743,3544],[0,-1]],[[3743,3543],[0,-1]],[[3743,3543],[0,1]],[[3743,3544],[21,6]],[[3764,3550],[2,1]],[[3765,3551],[-1,-1]],[[3767,3552],[-1,-1]],[[3766,3551],[1,1]],[[3814,3591],[-47,-39]],[[3814,3591],[4,1]],[[3894,3610],[-76,-18]],[[3894,3610],[2,1]],[[3923,3618],[-13,-3]],[[3910,3615],[-1,-1]],[[3909,3614],[-15,-4]],[[3909,3615],[-13,-4]],[[3896,3611],[13,3]],[[3896,3611],[13,3]],[[3909,3614],[1,0]],[[3910,3614],[13,4]],[[3923,3618],[-13,-3]],[[3910,3614],[13,4]],[[3981,3634],[-58,-16]],[[3923,3618],[58,16]],[[3909,3615],[0,-1]],[[3909,3614]],[[3909,3614],[1,0]],[[3910,3614],[0,1]],[[3910,3615],[-1,0]],[[3766,3551],[1,1]],[[3766,3551]],[[3791,3571],[-8,-6]],[[3818,3592],[-4,-1]],[[3894,3610],[-52,-12]],[[3894,3610],[29,8]],[[3923,3618],[-29,-8]],[[1238,3997],[32,99]],[[1489,3564],[-40,129],[-119,130]],[[1716,2604],[-7,21]],[[2153,0],[-2,130],[-425,662],[157,311],[-43,290],[30,219]],[[1330,3823],[-97,102],[5,72]],[[1709,2625],[-81,64],[-237,357],[-60,30],[-20,48]],[[1355,3275],[64,80],[70,209]],[[1870,1612],[89,213],[-30,195],[-124,240],[-41,271],[-48,73]],[[3743,3544],[0,-1]],[[3748,3436],[67,-2]],[[3815,3434],[-66,4]],[[2928,4096],[30,-31],[218,-151],[91,-105],[111,-74]],[[1298,3205],[56,69]],[[1298,3205],[4,-13]],[[3815,3592],[1,-1]],[[3816,3593],[0,1]],[[3887,3676],[1,0]],[[3888,3677]],[[3989,3763],[-2,-2]],[[3992,3766],[-3,-3]],[[4058,3843],[-66,-77]],[[4017,3650],[-24,-11]],[[3655,3488],[5,-6]],[[3660,3482],[-4,7]],[[3662,3583],[-3,-91]],[[3660,3492],[2,91]],[[3670,3585],[-8,-2]],[[3724,3531],[0,1]],[[3733,3540],[0,1]],[[3745,3437],[3,-1]],[[3776,3498],[-30,-20]],[[3775,3498],[-9,52]],[[3766,3551],[10,-53]],[[3776,3553],[4,-19]],[[3780,3534],[-4,-36]],[[3797,3560],[-4,-1]],[[3793,3559],[4,1]],[[3797,3560],[3,-2]],[[3907,3626],[-4,-65]],[[3904,3563],[3,63]],[[3655,3488],[1,1],[-1,0],[0,-1]],[[3742,3542],[-2,0]],[[3743,3543]],[[3743,3543],[0,-1]],[[3765,3551],[1,-1]],[[3766,3551]],[[3909,3615],[0,-2],[1,1],[0,1],[-1,0]],[[3747,3442],[-1,36]],[[3574,1855],[80,137],[-5,165],[37,157],[-61,434],[39,244],[74,204]],[[3878,3364],[4,-4]],[[3733,3540]],[[3725,3533],[-2,-1]],[[3736,3541],[-4,-2]],[[3800,3559],[-2,0]],[[3902,3562],[2,0]],[[3660,3491],[0,1],[-1,0],[1,-1]],[[3667,3497],[0,-1]],[[3667,3496],[1,0]],[[3716,3527],[-1,-1]],[[3716,3526],[8,5]],[[1197,3167],[-52,-19]],[[2317,3022],[-260,47],[-174,-24],[-116,15],[-213,96],[-42,62],[-36,-6]],[[2317,3022],[0,-1]],[[2317,3022]],[[2299,0],[97,110],[98,46],[91,152],[142,89],[71,190],[126,164],[61,126],[47,227],[187,126],[175,229]],[[3566,1855],[97,176],[-14,126],[37,159],[-61,444],[43,254],[72,140],[-3,51]],[[3737,3205],[5,101]],[[3742,3332],[-5,-127]],[[3981,3634],[-58,-16]],[[3923,3618],[58,16]],[[3629,3982],[15,-89]],[[3492,3632]],[[3622,3602],[0,-2]],[[3624,3600],[0,2]],[[3981,3634]],[[3993,3639],[-7,-3]],[[4096,3011],[-120,215]],[[2299,0],[86,97],[109,59],[86,145],[147,96],[71,190],[126,164],[61,126],[47,227],[221,174],[142,180]],[[3903,3563],[-103,-4]],[[3800,3558],[102,4]],[[3654,3595],[27,161],[-36,138]],[[3654,3594],[-1,0]],[[3654,3594]],[[3654,3595],[0,-1]],[[3654,3594],[0,1]],[[3654,3594],[1,-1]],[[3648,3485],[-37,-19]],[[3611,3465],[37,20]],[[3715,3526],[-48,-29]],[[3668,3496],[48,30]],[[3723,3532],[-7,-5]],[[1311,3124],[-3,6]],[[1354,3274],[1,1]],[[3532,1782],[42,73]],[[3878,3364],[-14,17]],[[3864,3381],[14,-17]],[[3375,3735],[74,-79],[107,-49]],[[3556,3607],[66,-7]],[[3622,3602],[-66,5]],[[3622,3602],[0,-2]],[[3622,3600],[2,0]],[[3624,3602],[-2,0]],[[3624,3600],[0,2]],[[3624,3600],[65,-29]],[[3689,3571],[-65,31]],[[3689,3571],[42,-30]],[[3731,3541],[2,-1]],[[3731,3541],[2,-1]],[[0,0],[0,4096],[4096,0],[0,-4096],[-4096,0]],[[1376,3112],[-147,26],[0,100],[133,39],[54,-80],[-40,-85]],[[3934,3688],[66,-55],[10,-73],[-95,-91],[0,-33],[-53,3],[-12,-36],[-64,0],[0,-33],[-34,9],[-31,90],[-130,-33],[-6,36],[71,30],[0,133],[97,0],[32,33],[65,0],[14,30],[70,-10]],[[1184,3180],[36,30],[-13,10],[40,1],[28,31],[8,44],[7,-31],[25,-4],[15,31],[10,-22],[8,24],[16,-48],[16,24],[98,-57],[-141,-93],[-69,41],[-11,-7],[7,-11],[-7,-4],[-14,30],[-20,-27],[-39,38]],[[3186,1686],[82,224],[46,9],[92,-114],[102,-7],[52,57],[214,5],[208,51],[114,-130],[0,-819],[-54,14],[-324,216],[-168,44],[-70,72],[-52,114],[-242,264]],[[3479,0],[186,118],[-6,82],[114,22],[131,81],[192,-29],[0,-274],[-617,0]],[[3276,3727],[154,12],[3,64],[135,1],[39,-21],[25,37],[-29,20],[43,56],[48,-52],[-19,-33],[27,-12],[211,87],[42,-14],[-2,30],[81,-9],[23,-36],[4,-120],[-79,-39],[-1,-67],[6,-43],[104,21],[-6,-37],[11,5],[0,-74],[-40,-12],[-32,-76],[11,-40],[51,-11],[-100,-138],[-176,-6],[-70,41],[3,72],[-38,-69],[-112,12],[-8,76],[-73,11],[6,20],[-52,22],[-3,24],[-153,13],[-26,22],[47,23],[55,-17],[3,34],[36,25],[-38,61],[-104,55],[-7,82]]]}