{"objects":{"water":{"type":"GeometryCollection","geometries":[{"type":"Polygon","properties":{"source":"naturalearthdata.com","kind":"ocean","area":1576712559132672,"sort_rank":200,"min_zoom":0.0,"id":1},"arcs":[[13]]},{"type":"LineString","properties":{"source":"naturalearthdata.com","kind":"ocean","sort_rank":205,"boundary":true,"min_zoom":0.0,"id":56},"arcs":[14]}]},"buildings":{"type":"GeometryCollection","geometries":[]},"places":{"type":"GeometryCollection","geometries":[{"type":"Point","properties":{"admin_level":"4","kind":"region","name":"Western Region","kind_detail":"state","name:de":"Westregion","source":"openstreetmap.org","min_zoom":4.0,"name:uk":"\u0417\u0430\u0445\u0456\u0434\u043d\u0430","name:ru":"\u0417\u0430\u043f\u0430\u0434\u043d\u044b\u0439","id":2661484233},"coordinates":[1496,4092]},{"type":"Point","properties":{"kind":"locality","name":"Takoradi","kind_detail":"town","source":"openstreetmap.org","min_zoom":8.0,"name:uk":"\u0422\u0430\u043a\u043e\u0440\u0430\u0434\u0456","name:ru":"\u0422\u0430\u043a\u043e\u0440\u0430\u0434\u0438","id":132021012,"population":539548},"coordinates":[3089,1966]},{"type":"Point","properties":{"kind":"locality","name":"Sekondi-Takoradi","kind_detail":"city","source":"openstreetmap.org","min_zoom":8.0,"name:uk":"\u0421\u0435\u043a\u043e\u043d\u0434\u0456-\u0422\u0430\u043a\u043e\u0440\u0430\u0434\u0456","name:ru":"\u0421\u0435\u043a\u043e\u043d\u0434\u0438-\u0422\u0430\u043a\u043e\u0440\u0430\u0434\u0438","id":4563088958,"population":445000},"coordinates":[3098,2083]},{"type":"Point","properties":{"kind":"locality","name":"Sekondi","kind_detail":"town","source":"openstreetmap.org","min_zoom":8.0,"name:uk":"\u0421\u0435\u043a\u043e\u043d\u0434\u0456","name:ru":"\u0421\u0435\u043a\u043e\u043d\u0434\u0438","id":132021927,"population":150000},"coordinates":[3203,2111]},{"type":"Point","properties":{"source":"openstreetmap.org","kind":"locality","name":"Tarkwa","kind_detail":"town","population":40397,"min_zoom":8.0,"id":443417664},"coordinates":[2389,3204]},{"type":"Point","properties":{"source":"openstreetmap.org","kind":"locality","name":"Twifo Praso","kind_detail":"town","population":10000,"min_zoom":8.0,"id":3973079747},"coordinates":[3685,4079]}]},"transit":{"type":"GeometryCollection","geometries":[]},"pois":{"type":"GeometryCollection","geometries":[]},"boundaries":{"type":"GeometryCollection","geometries":[{"type":"MultiLineString","properties":{"name:right:yo":"C\u00f4te d'Ivoire","name:left:la":"Gana","name:right:qu":"Marphil Chala","name:right:dv":"\u0787\u07a6\u0787\u07a8\u0788\u07a6\u0783\u07a9 \u0786\u07af\u0790\u07b0\u0793\u07aa","name:right:yi":"\u05d1\u05d0\u05e8\u05d8\u05df \u05e4\u05d5\u05df \u05d4\u05e2\u05dc\u05e4\u05d0\u05e0\u05d3\u05d1\u05d9\u05d9\u05df","name:right:hy":"\u053f\u0578\u057f \u0564'\u053b\u057e\u0578\u0582\u0561\u0580","name:right:hr":"Obala Bjelokosti","name:left:ru":"\u0413\u0430\u043d\u0430","name:left:sq":"Gana","name:right:hu":"Elef\u00e1ntcsontpart","name:left:ss":"IGana","name:left:sr":"\u0413\u0430\u043d\u0430","name:left:sl":"Gana","name:left:so":"Gaana","name:left:lt":"Gana","name:left:sh":"Gana","name:left:lv":"Gana","name:left:vo":"Gan\u00e4n","name:left:sg":"Gan\u00e4a","name:left:sa":"\u0918\u093e\u0928\u093e","name:right:he":"\u05d7\u05d5\u05e3 \u05d4\u05e9\u05e0\u05d4\u05d1","name:left:hi":"\u0918\u093e\u0928\u093e","name:right:af":"Ivoorkus","name:left:ce":"\u0413\u0430\u043d\u0430","name:right:an":"Costa de Vori","name:right:am":"\u12ae\u1275 \u12f2\u126f\u122d","source":"openstreetmap.org","name:right:ar":"\u0643\u0648\u062a \u062f\u064a\u0641\u0648\u0627\u0631","name:left:cv":"\u0413\u0430\u043d\u0430","name:right:az":"Fil Di\u015fi Sahili","name:left:kg":"Gana","name:left:ka":"\u10d2\u10d0\u10dc\u10d0","name:left:yi":"\u05d2\u05d4\u05d0\u05e0\u05e2","name:right:ht":"K\u00f2t divwa","name:left:ko":"\uac00\ub098","name:right:it":"Costa d'Avorio","name:right:is":"F\u00edlabeinsstr\u00f6ndin","name:right:rw":"Kote Divuwari","name:left:kk":"\u0413\u0430\u043d\u0430","name:right:ru":"\u041a\u043e\u0442-\u0434\u2019\u0418\u0432\u0443\u0430\u0440","name:left:ku":"Gana","name:left:rw":"Gana","name:right:rm":"Costa d'Ivur","name:right:ie":"Costa de Ivor","name:right:id":"Pantai Gading","name:left:ky":"\u0413\u0430\u043d\u0430","name:right:ia":"Costa de Ebore","name":"Ghana - C\u00f4te d\u2019Ivoire","name:left:wa":"Gana","name:right:bn":"\u0995\u09cb\u09a4 \u09a6\u09bf\u09ad\u09cb\u09af\u09bc\u09be\u09b0","name:right:bo":"\u0f40\u0f7c\u0f0b\u0f4a\u0f72\u0f0b\u0f4c\u0f72\u0f0b\u0f68\u0f60\u0f72\u0f0b\u0f56\u0f7c\u0f0b\u0f62\u0f72\u0f0d","name:right:zu":"Ugu Emhlophe","name:right:bm":"C\u00f4te d'Ivoire","name:right:bg":"\u041a\u043e\u0442 \u0434'\u0418\u0432\u043e\u0430\u0440","name:left:zu":"IGana","name:left:zh":"\u52a0\u7eb3","name:right:br":"Aod an Olifant","name:right:bs":"Obala Slonova\u010de","name:right:zh":"\u79d1\u7279\u8fea\u74e6","name:right:nn":"Elfenbeinskysten","name:left:uz":"Gana","name:right:nl":"Ivoorkust","name:left:nv":"G\u00e1ana","name:left:ur":"\u06af\u06be\u0627\u0646\u0627","name:right:wo":"Kodiwaar","name:right:ne":"\u0906\u0907\u092d\u0930\u0940 \u0915\u094b\u0938\u094d\u091f","id:right":-192779,"name:left:uk":"\u0413\u0430\u043d\u0430","name:right:ms":"Ivory Coast","name:right:gv":"Yn Clyst Iuaagagh","name:right:hi":"\u0915\u094b\u0924 \u0926'\u0908\u0935\u094b\u0906\u0930","name:right:fa":"\u0633\u0627\u062d\u0644 \u0639\u0627\u062c","name:right:nv":"Ch\u012f\u0301\u012f\u0301h Yee Adilohii Bidee\u02bc T\u00f3nteel Bib\u0105\u0105h","name:right:fo":"F\u00edlabeinsstrondin","name:right:be":"\u041a\u043e\u0442-\u0434'\u0406\u0432\u0443\u0430\u0440","name:left:ug":"\u06af\u0627\u0646\u0627 \u062c\u06c7\u0645\u06be\u06c7\u0631\u0649\u064a\u0649\u062a\u0649","name:left:na":"Gana","name:left:eo":"Ganao","name:left:el":"\u0393\u03ba\u03ac\u03bd\u03b1","kind_detail":"2","name:right:tt":"\u041a\u043e\u0442-\u0434\u2019\u0418\u0432\u0443\u0430\u0440","name:left:wo":"Gana","name:right:zh-min-nan":"C\u00f4te d'Ivoire","name:right:ps":"\u0639\u0627\u062c \u0633\u0627\u062d\u0644","name:right:pt":"Costa do Marfim","name:left:mk":"\u0413\u0430\u043d\u0430","name:left:tr":"Gana","name:left:tt":"\u0413\u0430\u043d\u0430","name:left:mn":"\u0413\u0430\u043d\u0430","name:right:oc":"C\u00f2sta d'Ev\u00f2ri","name:left:ml":"\u0d18\u0d3e\u0d28","name:left:th":"\u0e1b\u0e23\u0e30\u0e40\u0e17\u0e28\u0e01\u0e32\u0e19\u0e32","name:right:pa":"\u0a26\u0a70\u0a26 \u0a16\u0a70\u0a21 \u0a24\u0a1f","name:left:tk":"Gana","name:right:ga":"An C\u00f3sta Eabhair","name:right:tr":"Fildi\u015fi Sahili","name:right:fi":"Norsunluurannikko","name:left:mt":"Gana","name:left:ta":"\u0b95\u0bbe\u0ba9\u0bbe","name:left:my":"\u1002\u102b\u1014\u102c\u1014\u102d\u102f\u1004\u103a\u1004\u1036","name:right:ts":"C\u00f4te d'Ivoire","name:right:pl":"Wybrze\u017ce Ko\u015bci S\u0142oniowej","name:left:te":"\u0c18\u0c28\u0c3e","name:right:os":"\u041a\u043e\u0442-\u0434\u2019\u0418\u0432\u0443\u0430\u0440","name:left:tg":"\u0413\u0430\u043d\u0430","name:left:pt":"Gana","name:left:mr":"\u0918\u093e\u0928\u093e","name:right:th":"\u0e1b\u0e23\u0e30\u0e40\u0e17\u0e28\u0e42\u0e01\u0e15\u0e14\u0e34\u0e27\u0e31\u0e27\u0e23\u0e4c","name:left:dv":"\u078e\u07a7\u0782\u07a7","name:left:yo":"Gh\u00e1n\u00e0","name:right:ug":"\u067e\u0649\u0644 \u0686\u0649\u0634\u0649 \u0642\u0649\u0631\u063a\u0649\u063a\u0649","name:right:la":"Litus Eburneum","name:right:lb":"Elfebeek\u00fcst","name:right:no":"Elfenbenskysten","name:right:uk":"\u041a\u043e\u0442-\u0434'\u0406\u0432\u0443\u0430\u0440","name:left:he":"\u05d2\u05d0\u05e0\u05d4","name:right:ln":"Kotdivuar","name:left:ps":"\u06ab\u0627\u0646\u0627","name:right:li":"Ivoork\u00f6s","name:right:lt":"Dramblio Kaulo Krantas","name:right:ur":"\u06a9\u0648\u062a \u062f\u0627\u0648\u0648\u0627\u063a","name:right:lv":"Kotdivu\u0101ra","name:left:hy":"\u0533\u0561\u0576\u0561","name:right:gl":"Costa do Marfil","name:left:ht":"Gana","name:left:hu":"Gh\u00e1na","name:left:hr":"Gana","name:left:ga":"G\u00e1na","name:left:gd":"G\u00e0na","sort_rank":262,"name:right:gd":"Costa \u00ccbhri","name:left:gl":"Gana","name:left:gu":"\u0a98\u0abe\u0aa8\u0abe","osm_relation":true,"name:left:gv":"Yn Ghaney","official_name:right":"R\u00e9publique de C\u00f4te d\u2019Ivoire","name:right:or":"\u0b06\u0b07\u0b2d\u0b47\u0b30\u0b3f \u0b15\u0b4b\u0b37\u0b4d\u0b1f","name:left":"Ghana","name:right:es":"Costa de Marfil","name:right:sr":"\u041e\u0431\u0430\u043b\u0430 \u0421\u043b\u043e\u043d\u043e\u0432\u0430\u0447\u0435","name:right:mn":"\u041a\u043e\u0442 \u0434'\u0418\u0432\u0443\u0430\u0440","name:right:eu":"Boli Kosta","name:right:et":"Elevandiluurannik","name:right:vo":"Viorajol\u00e4n","name:left:os":"\u0413\u0430\u043d\u00e6","name:left:or":"\u0b18\u0b3e\u0b28\u0b3e","name:right:mg":"C\u00f4te d'Ivoire","name:right:vi":"B\u1edd Bi\u1ec3n Ng\u00e0","name:right:my":"\u1021\u102d\u102f\u1004\u103a\u1017\u101b\u102e\u1000\u102d\u102f\u1037\u1005\u103a\u1014\u102d\u102f\u1004\u103a\u1004\u1036","name:right:ee":"C\u00f4te d'Ivoire","name:right:uz":"Kot-d\u2018ivuar","name:right:mr":"\u0915\u094b\u0924 \u0926'\u0908\u0935\u094b\u0906\u0930","min_zoom":8.0,"name:right:na":"Aibori Kot","name:right:eo":"Ebur-Bordo","name:right:en":"C\u00f4te d'Ivoire","name:right:mt":"Kosta tal-Avorju","name:left:ff":"Gana","name:right:ff":"Kodduwaar","kind":"country","name:left:fa":"\u063a\u0646\u0627","name:left:fo":"Gana","name:right:sk":"Pobre\u017eie Slonoviny","alt_name:right:eo":"Ebura Bordo","name:right:fy":"Ivoarkust","name:left:fy":"Gana","name:left:bs":"Gana","name:right:mk":"\u0411\u0440\u0435\u0433 \u043d\u0430 \u0421\u043b\u043e\u043d\u043e\u0432\u0430\u0442\u0430 \u041a\u043e\u0441\u043a\u0430","name:right:ja":"\u30b3\u30fc\u30c8\u30b8\u30dc\u30ef\u30fc\u30eb","name:right:sq":"Bregu i Fildisht\u00eb","name:right:ss":"Lugu Lwempondvondlovu","name:left:ja":"\u30ac\u30fc\u30ca","name:right:su":"Basisir Gading","name:right:sw":"Cote d'Ivoire","name:right:sv":"Elfenbenskusten","name:right:si":"\u0d85\u0dba\u0dd2\u0dc0\u0dbb\u0dd2 \u0d9a\u0ddd\u0dc3\u0dca\u0da7\u0dca","name:right:sh":"Obala Slonova\u010de","name:left:qu":"Gana","name:left:ba":"\u0413\u0430\u043d\u0430","name:right:jv":"Pant\u00e9 Gadhing","name:left:bg":"\u0413\u0430\u043d\u0430","name:right:so":"Xeebta Foolmaroodi","name:left:be":"\u0413\u0430\u043d\u0430","name:right:sa":"\u0915\u094b\u091f \u0910\u0935\u0930\u0940","name:right:sl":"Slonoko\u0161\u010dena obala","name:right:sc":"Costa de Av\u00f2riu","name:right:se":"Elef\u00e1nta\u010dal\u00e1nriddu","name:left:bo":"\u0f40\u0f0b\u0f53\u0f0d","name:right:sg":"K\u00f4div\u00fc\u00e4ra","name:left:bm":"Gana","name:left:ne":"\u0918\u093e\u0928\u093e","name:right:ca":"Costa d'Ivori","name:left:bn":"\u0998\u09be\u09a8\u09be","name:right:ml":"\u0d10\u0d35\u0d31\u0d3f \u0d15\u0d4b\u0d38\u0d4d\u0d31\u0d4d\u0d31\u0d4d","name:right:ce":"\u041a\u043e\u0442-\u0434\u2019\u0418\u0432\u0443\u0430\u0440","id":-192781,"name:right:cy":"C\u00f4te d'Ivoire","name:right:zh-yue":"\u8c61\u7259\u6d77\u5cb8","id:left":-192781,"name:right:cs":"Pob\u0159e\u017e\u00ed slonoviny","name:right":"C\u00f4te d\u2019Ivoire","name:right:cv":"\u041a\u043e\u0442-\u0434'\u0418\u0432\u0443\u0430\u0440","name:right:ka":"\u10d9\u10dd\u10e2-\u10d3\u2019\u10d8\u10d5\u10e3\u10d0\u10e0\u10d8","name:left:kn":"\u0c98\u0cbe\u0ca8\u0cbe","name:right:sn":"C\u00f4te d'Ivoire","name:left:ar":"\u063a\u0627\u0646\u0627","name:right:kg":"C\u00f4te d'Ivoire","name:right:ki":"C\u00f4te d'Ivoire","name:right:kk":"\u041a\u043e\u0442-\u0434-\u0418\u0432\u0443\u0430\u0440","name:left:az":"Qana","name:right:ko":"\ucf54\ud2b8\ub514\ubd80\uc544\ub974","name:right:kn":"\u0c95\u0ccb\u0ca4\u0ccd \u0ca6\u0ccd'\u0c87\u0cb5\u0cbe\u0cb0\u0ccd","name:right:tl":"Baybaying Garing","name:right:ku":"Perav\u00ea Diranf\u00eel","name:right:kw":"C\u00f4te d'Ivoire","name:right:tk":"Kot-d\u2019Iwuar","name:right:te":"\u0c15\u0c4b\u0c1f\u0c46 \u0c21\u0c3f \u0c10\u0c35\u0c4a\u0c30\u0c3f","name:left:am":"\u130b\u1293","name:right:tg":"\u041a\u043e\u0442-\u0434'\u0418\u0432\u0443\u0430\u0440","name:left:is":"Gana","name:right:ta":"\u0b95\u0bcb\u0b9f\u0bcd \u0b9f\u0bbf\u0bb5\u0bbe\u0bb0\u0bcd","name:right:io":"Ivora Rivo","name:right:de":"Elfenbeink\u00fcste","name:right:da":"Elfenbenskysten","name:right:el":"\u0391\u03ba\u03c4\u03ae \u0395\u03bb\u03b5\u03c6\u03b1\u03bd\u03c4\u03bf\u03c3\u03c4\u03bf\u03cd","name:left:zh-yue":"\u52a0\u7d0d","name:left:pa":"\u0a18\u0a3e\u0a28\u0a3e","name:right:ro":"Coasta de Filde\u0219"},"arcs":[[0],[1],[2]]},{"type":"LineString","properties":{"name:kg":"Gana","name:pt":"Gana","name:ps":"\u06ab\u0627\u0646\u0627","name:ka":"\u10d2\u10d0\u10dc\u10d0","name:ko":"\uac00\ub098","name:kn":"\u0c98\u0cbe\u0ca8\u0cbe","name:kk":"\u0413\u0430\u043d\u0430","name:tt":"\u0413\u0430\u043d\u0430","name:tk":"Gana","name:ku":"Gana","name:pa":"\u0a18\u0a3e\u0a28\u0a3e","name:os":"\u0413\u0430\u043d\u00e6","name:or":"\u0b18\u0b3e\u0b28\u0b3e","name:ce":"\u0413\u0430\u043d\u0430","name:ta":"\u0b95\u0bbe\u0ba9\u0bbe","name:tg":"\u0413\u0430\u043d\u0430","name:ky":"\u0413\u0430\u043d\u0430","name:te":"\u0c18\u0c28\u0c3e","source":"openstreetmap.org","sort_rank":262,"name:qu":"Gana","name:ba":"\u0413\u0430\u043d\u0430","name:tr":"Gana","name:nv":"G\u00e1ana","name:cv":"\u0413\u0430\u043d\u0430","name:dv":"\u078e\u07a7\u0782\u07a7","name:lv":"Gana","name:lt":"Gana","name:uz":"Gana","name:he":"\u05d2\u05d0\u05e0\u05d4","name:eo":"Ganao","name:ur":"\u06af\u06be\u0627\u0646\u0627","name:la":"Gana","name:uk":"\u0413\u0430\u043d\u0430","name:hy":"\u0533\u0561\u0576\u0561","name:ug":"\u06af\u0627\u0646\u0627 \u062c\u06c7\u0645\u06be\u06c7\u0631\u0649\u064a\u0649\u062a\u0649","name:hu":"Gh\u00e1na","name:hr":"Gana","name:el":"\u0393\u03ba\u03ac\u03bd\u03b1","kind":"country","name":"Ghana","min_zoom":8.0,"name:th":"\u0e1b\u0e23\u0e30\u0e40\u0e17\u0e28\u0e01\u0e32\u0e19\u0e32","name:yi":"\u05d2\u05d4\u05d0\u05e0\u05e2","name:yo":"Gh\u00e1n\u00e0","name:mt":"Gana","name:az":"Qana","name:mr":"\u0918\u093e\u0928\u093e","name:ar":"\u063a\u0627\u0646\u0627","name:my":"\u1002\u102b\u1014\u102c\u1014\u102d\u102f\u1004\u103a\u1004\u1036","name:is":"Gana","name:am":"\u130b\u1293","name:ru":"\u0413\u0430\u043d\u0430","name:ml":"\u0d18\u0d3e\u0d28","name:rw":"Gana","id":-192781,"name:mk":"\u0413\u0430\u043d\u0430","name:vo":"Gan\u00e4n","name:zu":"IGana","name:mn":"\u0413\u0430\u043d\u0430","name:ss":"IGana","name:ff":"Gana","kind_detail":"2","name:hi":"\u0918\u093e\u0928\u093e","name:fo":"Gana","name:zh-yue":"\u52a0\u7d0d","name:fy":"Gana","name:zh":"\u52a0\u7eb3","name:so":"Gaana","name:sl":"Gana","name:ja":"\u30ac\u30fc\u30ca","name:sh":"Gana","name:sg":"Gan\u00e4a","name:na":"Gana","name:ne":"\u0918\u093e\u0928\u093e","name:sa":"\u0918\u093e\u0928\u093e","name:bs":"Gana","name:bm":"Gana","name:bn":"\u0998\u09be\u09a8\u09be","name:bo":"\u0f40\u0f0b\u0f53\u0f0d","name:be":"\u0413\u0430\u043d\u0430","name:bg":"\u0413\u0430\u043d\u0430","name:wo":"Gana","name:sr":"\u0413\u0430\u043d\u0430","osm_relation":true,"name:sq":"Gana","name:ga":"G\u00e1na","name:gd":"G\u00e0na","name:ht":"Gana","name:wa":"Gana","name:gl":"Gana","name:fa":"\u063a\u0646\u0627","maritime_boundary":true,"name:gv":"Yn Ghaney","name:gu":"\u0a98\u0abe\u0aa8\u0abe"},"arcs":[3]},{"type":"MultiLineString","properties":{"name:right:uk":"\u0417\u0430\u0445\u0456\u0434\u043d\u0430 \u043e\u0431\u043b\u0430\u0441\u0442\u044c","id:left":-3578769,"name:right:ru":"\u0417\u0430\u043f\u0430\u0434\u043d\u044b\u0439 \u0440\u0435\u0433\u0438\u043e\u043d","min_zoom":8.0,"id:right":-3498734,"id":-3578769,"osm_relation":true,"name:right":"Western Region","kind":"region","name":"Como\u00e9 - Western Region","sort_rank":256,"kind_detail":"4","source":"openstreetmap.org","name:right:de":"Westregion","official_name:left":"District de la Como\u00e9","name:left":"Como\u00e9"},"arcs":[[4],[5],[6]]},{"type":"MultiLineString","properties":{"name:right:uk":"\u0426\u0435\u043d\u0442\u0440\u0430\u043b\u044c\u043d\u0430 \u043e\u0431\u043b\u0430\u0441\u0442\u044c","name:right:ru":"\u0426\u0435\u043d\u0442\u0440\u0430\u043b\u044c\u043d\u044b\u0439 \u0440\u0435\u0433\u0438\u043e\u043d","name:left:uk":"\u0417\u0430\u0445\u0456\u0434\u043d\u0430 \u043e\u0431\u043b\u0430\u0441\u0442\u044c","min_zoom":8.0,"name:left:ru":"\u0417\u0430\u043f\u0430\u0434\u043d\u044b\u0439 \u0440\u0435\u0433\u0438\u043e\u043d","id:right":-3330281,"id":-3498734,"osm_relation":true,"name:right":"Central Region","kind":"region","name":"Western Region - Central Region","sort_rank":256,"kind_detail":"4","name:left:de":"Westregion","source":"openstreetmap.org","name:right:de":"Zentralregion","id:left":-3498734,"name:left":"Western Region"},"arcs":[[7],[8]]},{"type":"LineString","properties":{"kind":"region","name":"Western Region","sort_rank":256,"kind_detail":"4","name:de":"Westregion","source":"openstreetmap.org","min_zoom":8.0,"name:uk":"\u0417\u0430\u0445\u0456\u0434\u043d\u0430 \u043e\u0431\u043b\u0430\u0441\u0442\u044c","name:ru":"\u0417\u0430\u043f\u0430\u0434\u043d\u044b\u0439 \u0440\u0435\u0433\u0438\u043e\u043d","id":-3498734,"osm_relation":true},"arcs":[9]},{"type":"LineString","properties":{"kind":"region","name":"Western Region","sort_rank":256,"kind_detail":"4","min_zoom":8.0,"name:de":"Westregion","source":"openstreetmap.org","maritime_boundary":true,"name:uk":"\u0417\u0430\u0445\u0456\u0434\u043d\u0430 \u043e\u0431\u043b\u0430\u0441\u0442\u044c","name:ru":"\u0417\u0430\u043f\u0430\u0434\u043d\u044b\u0439 \u0440\u0435\u0433\u0438\u043e\u043d","id":-3498734,"osm_relation":true},"arcs":[10]},{"type":"LineString","properties":{"kind":"region","name":"Central Region","sort_rank":256,"kind_detail":"4","name:de":"Zentralregion","source":"openstreetmap.org","min_zoom":8.0,"name:uk":"\u0426\u0435\u043d\u0442\u0440\u0430\u043b\u044c\u043d\u0430 \u043e\u0431\u043b\u0430\u0441\u0442\u044c","name:ru":"\u0426\u0435\u043d\u0442\u0440\u0430\u043b\u044c\u043d\u044b\u0439 \u0440\u0435\u0433\u0438\u043e\u043d","id":-3330281,"osm_relation":true},"arcs":[11]},{"type":"LineString","properties":{"kind":"region","name":"Central Region","sort_rank":256,"kind_detail":"4","min_zoom":8.0,"name:de":"Zentralregion","source":"openstreetmap.org","maritime_boundary":true,"name:uk":"\u0426\u0435\u043d\u0442\u0440\u0430\u043b\u044c\u043d\u0430 \u043e\u0431\u043b\u0430\u0441\u0442\u044c","name:ru":"\u0426\u0435\u043d\u0442\u0440\u0430\u043b\u044c\u043d\u044b\u0439 \u0440\u0435\u0433\u0438\u043e\u043d","id":-3330281,"osm_relation":true},"arcs":[12]}]},"roads":{"type":"GeometryCollection","geometries":[{"type":"MultiLineString","properties":{"kind":"major_road","network":"GH:inter-regional","sort_rank":380,"kind_detail":"primary","source":"openstreetmap.org","min_zoom":8.0,"landuse_kind":"residential","shield_text":"6","ref":"IR6"},"arcs":[[15],[16],[17],[18]]},{"type":"MultiLineString","properties":{"kind":"major_road","network":"GH:national","sort_rank":381,"kind_detail":"trunk","source":"openstreetmap.org","min_zoom":8.0,"shield_text":"1","ref":"N1"},"arcs":[[19],[20],[21],[22],[23]]},{"type":"MultiLineString","properties":{"source":"openstreetmap.org","kind":"major_road","sort_rank":380,"kind_detail":"primary","ref":"IR6","min_zoom":8.0},"arcs":[[24],[25]]},{"type":"LineString","properties":{"kind":"major_road","network":"GH:national","sort_rank":381,"kind_detail":"trunk","source":"openstreetmap.org","min_zoom":8.0,"shield_text":"12","ref":"N12"},"arcs":[26]},{"type":"MultiLineString","properties":{"kind":"major_road","network":"GH:national","sort_rank":381,"landuse_kind":"urban_area","source":"openstreetmap.org","min_zoom":8.0,"kind_detail":"trunk","shield_text":"1","ref":"N1"},"arcs":[[27],[28],[29],[30],[31],[32],[33],[34],[35],[36],[37]]},{"type":"MultiLineString","properties":{"source":"openstreetmap.org","kind":"major_road","network":"Trans-African Highways","sort_rank":380,"kind_detail":"primary","min_zoom":8.0,"shield_text":null},"arcs":[[38],[39],[40]]},{"type":"MultiLineString","properties":{"kind":"major_road","network":"GH:inter-regional","sort_rank":380,"kind_detail":"primary","source":"openstreetmap.org","min_zoom":8.0,"shield_text":"6","ref":"IR6"},"arcs":[[41],[42],[43],[44]]},{"type":"LineString","properties":{"sort_rank":380,"kind_detail":"primary","min_zoom":8.0,"kind":"major_road","source":"openstreetmap.org"},"arcs":[45]},{"type":"LineString","properties":{"kind":"major_road","network":"GH:national","sort_rank":381,"kind_detail":"trunk","source":"openstreetmap.org","min_zoom":8.0,"landuse_kind":"residential","shield_text":"1","ref":"N1"},"arcs":[46]},{"type":"LineString","properties":{"kind":"major_road","network":"Trans-African Highways","sort_rank":380,"kind_detail":"primary","source":"openstreetmap.org","min_zoom":8.0,"shield_text":null,"ref":"A 100"},"arcs":[47]},{"type":"LineString","properties":{"kind":"major_road","network":"GH:national","sort_rank":381,"kind_detail":"trunk","source":"openstreetmap.org","min_zoom":8.0,"landuse_kind":"urban_area","shield_text":"1","id":264685290},"arcs":[48]}]},"earth":{"type":"GeometryCollection","geometries":[{"type":"Polygon","properties":{"sort_rank":10,"source":"naturalearthdata.com","kind":"earth","min_zoom":0.0,"id":4694},"arcs":[[49]]}]},"landuse":{"type":"GeometryCollection","geometries":[{"type":"Polygon","properties":{"source":"openstreetmap.org","kind":"nature_reserve","area":55155000,"tier":2,"id":178066279,"min_zoom":8.0,"sort_rank":23},"arcs":[[50]]},{"type":"MultiPolygon","properties":{"source":"naturalearthdata.com","kind":"urban_area","name":"","area":495942712,"sort_rank":11,"min_zoom":4.0},"arcs":[[[51]],[[52]],[[53]]]},{"type":"MultiPolygon","properties":{"source":"openstreetmap.org","kind":"residential","tier":2,"area":55060288,"sort_rank":20,"min_zoom":8.0},"arcs":[[[54]]]},{"type":"Polygon","properties":{"source":"openstreetmap.org","kind":"park","natural":"wood","area":802196140,"sort_rank":24,"tier":2,"min_zoom":6.0},"arcs":[[55]]},{"type":"Polygon","properties":{"kind":"residential","name":"Assakae","area":53785500,"sort_rank":20,"source":"openstreetmap.org","min_zoom":8.0,"tier":2,"id":525619997},"arcs":[[56]]}]}},"type":"Topology","transform":{"translate":[-2.8125,4.2149431414],"scale":[0.0003433228,0.0003420514]},"arcs":[[[108,4096],[-2,-33],[45,-20],[-14,-178],[48,-290],[72,-146],[0,-132],[-94,4],[-37,37],[-25,-75],[32,-78],[-55,-55],[49,-51],[-28,-4],[-1,-8],[75,-39],[-36,-40],[29,-11],[-4,-44],[-21,-4],[21,-47],[27,4],[26,-151],[24,4],[20,-35],[-53,-75],[-36,9],[-11,-48],[-23,26],[-57,0],[-1,23],[-15,-32],[-63,1]],[[0,2611],[0,13]],[[100,4096],[3,0]],[[0,1796],[1175,-260],[321,-295],[298,-207],[129,-59],[198,-27],[376,54],[259,97],[225,188],[474,173],[92,73],[128,163],[189,144],[232,59]],[[0,2608],[63,-1],[15,32],[1,-23],[57,0],[23,-26],[11,48],[36,-9],[53,75],[-20,35],[-24,-4],[-26,151],[-27,-4],[-21,47],[21,4],[4,44],[-29,11],[36,40],[-75,39],[29,12],[-49,51],[55,55],[-32,78],[25,75],[37,-37],[94,-4],[0,132],[-72,146],[-48,290],[14,178],[-45,20],[2,33]],[[0,2624],[0,-13]],[[103,4096],[-3,0]],[[2997,4096],[-101,-25],[-57,25]],[[3548,2388],[22,277],[33,104],[90,92],[155,28],[50,76],[102,58],[-27,98],[-250,139],[-99,233],[-139,104],[40,12],[-47,149],[33,150],[-158,160],[-206,28]],[[3535,2387],[13,1]],[[0,2391],[1254,-264],[335,-123],[-7,-27],[64,-30],[3,-75],[107,-48],[21,-49],[81,-26],[15,-63],[55,17],[121,-46],[-7,-78],[50,-16],[7,-30],[37,28],[72,-25],[26,38],[55,13],[134,-4],[126,147],[64,24],[7,32],[66,3],[58,49],[95,15],[85,71],[212,24],[4,4],[4,14],[-10,-18],[-33,9],[35,4],[-35,28],[31,79],[80,33],[36,-2],[4,0],[3,2],[-40,17],[29,56],[158,37],[55,138],[78,38]],[[3548,2388],[11,2]],[[3559,2390],[246,31],[291,72]],[[0,2352],[356,-27],[479,-163],[493,-102],[302,-118],[16,-18],[13,-22],[5,-22],[12,-26],[28,-17],[62,-26],[124,-99],[27,-29],[-3,-13],[33,-3],[44,-14],[23,-3],[38,-11],[7,-26],[-3,-33],[8,-30],[21,-19],[18,-4],[78,3],[39,16],[201,25],[41,17],[44,42],[70,100],[47,41],[223,101],[200,57],[27,2],[26,5],[1,14],[-5,19],[7,22],[84,93],[35,27],[199,98],[13,11],[18,21],[6,23],[-20,44],[5,24],[36,29],[49,12],[52,-4],[42,-19],[2,1],[49,36],[66,25],[202,29],[106,51],[50,17],[0,-2509],[-4096,0],[0,2352]],[[0,2352],[356,-27],[479,-163],[493,-102],[302,-118],[16,-18],[13,-22],[5,-22],[12,-26],[28,-17],[62,-26],[124,-99],[27,-29],[-3,-13],[33,-3],[44,-14],[23,-3],[38,-11],[7,-26],[-3,-33],[8,-30],[21,-19],[18,-4],[78,3],[39,16],[201,25],[41,17],[44,42],[70,100],[47,41],[223,101],[200,57],[27,2],[26,5],[1,14],[-5,19],[7,22],[84,93],[35,27],[199,98],[13,11],[18,21],[6,23],[-20,44],[5,24],[36,29],[49,12],[52,-4],[42,-19],[2,1],[49,36],[66,25],[202,29],[106,51],[50,17]],[[2351,3105],[0,-62]],[[2381,3190],[-23,-49]],[[2381,3190],[1,3]],[[2418,3280],[12,-13],[-48,-74]],[[2426,2065],[-139,-6],[-191,-58],[-92,18],[-260,-40],[-159,32],[-308,129],[-103,50],[-121,187],[-88,66],[-245,115],[-77,58],[-94,126],[-206,119],[-88,100],[-72,172],[-104,10]],[[2426,2065],[4,-3]],[[2426,2065],[59,-91],[168,28],[32,-23],[210,1],[51,42]],[[3224,2240],[14,3]],[[3283,2262],[60,76],[15,185],[121,132],[39,0],[48,-67],[149,-64],[32,25],[163,3],[186,38]],[[2312,3960]],[[2313,3960],[0,1]],[[156,3138],[43,31],[8,78],[40,-10],[137,230],[-35,62],[5,135],[-116,131],[40,86],[-42,101],[-6,114]],[[2946,2022],[2,2]],[[2948,2024],[42,16]],[[2990,2040],[7,-4]],[[2997,2036],[45,-26]],[[3042,2011],[-45,25]],[[2997,2036],[-7,4]],[[2990,2040],[-1,0],[-41,-16]],[[3042,2012],[-1,37]],[[3042,2012],[0,-1]],[[3043,2011],[-1,1]],[[3238,2243],[45,19]],[[2456,2002],[9,-32]],[[2465,1970],[1,-1]],[[2466,1969],[19,5]],[[2173,4096],[126,-146],[13,10]],[[2313,3960],[37,-2],[53,-165],[-59,-121],[8,-24],[42,5],[12,-44],[-30,-68],[-6,-207],[48,-54]],[[2351,3043],[-110,-222],[-78,-41],[-123,-183],[7,-64],[65,-116],[8,-96],[167,-12],[115,-93],[23,-28],[4,-123]],[[2358,3141],[-7,-36]],[[2312,3961],[0,-1],[1,0],[0,1],[-1,0]],[[3041,2049],[74,111],[109,80]],[[0,3103],[79,40]],[[3042,2010],[1,0],[0,1],[-1,0],[0,-1]],[[4096,2509],[-50,-17],[-106,-51],[-202,-29],[-66,-25],[-49,-36],[-2,-1],[-42,19],[-52,4],[-49,-12],[-36,-29],[-5,-24],[20,-44],[-6,-23],[-18,-21],[-13,-11],[-199,-98],[-35,-27],[-84,-93],[-7,-22],[5,-19],[-1,-14],[-26,-5],[-27,-2],[-200,-57],[-223,-101],[-47,-41],[-70,-100],[-44,-42],[-41,-17],[-201,-25],[-39,-16],[-78,-3],[-18,4],[-21,19],[-8,30],[3,33],[-7,26],[-38,11],[-23,3],[-44,14],[-33,3],[3,13],[-27,29],[-124,99],[-62,26],[-28,17],[-12,26],[-5,22],[-13,22],[-16,18],[-302,118],[-493,102],[-479,163],[-356,27],[0,1744],[4096,0],[0,-1587]],[[2111,1664],[69,60],[-22,80],[15,77],[52,22],[-9,40],[91,20],[36,-108],[-68,-22],[-15,-34],[23,-36],[-61,-131],[-96,-9],[-15,41]],[[3451,2241],[-265,-157],[-84,-93],[-3,-55],[-101,-21],[-51,71],[-3,145],[79,61],[180,36],[238,99],[10,-86]],[[4096,2771],[0,-65],[-116,9],[-120,-33],[-42,1],[-8,59],[137,39],[0,32],[64,2],[85,-44]],[[2367,3141],[-75,13],[-27,81],[175,31],[51,-31],[-44,-59],[-80,-35]],[[2335,3078],[26,44],[-11,73],[56,46],[16,54],[10,-18],[11,17],[-9,-223],[-44,50],[12,-35],[-29,-8],[19,-38],[-31,-19],[-26,57]],[[953,3052],[351,-80],[18,87],[36,-7],[46,51],[6,83],[138,5],[61,-124],[-35,-36],[72,-15],[62,-78],[9,-55],[-30,-32],[53,-73],[-507,-44],[-52,137],[-114,3],[-3,-59],[-25,42],[-70,-3],[1,-16],[-109,-38],[-138,15],[-26,-32],[-158,11],[7,137],[-165,-2],[-125,91],[-49,211],[230,31],[188,236],[61,-91],[162,-20],[21,23],[54,-24],[37,-427],[-7,93]],[[2895,2097],[25,29],[48,-2],[66,75],[106,15],[-3,40],[95,-16],[-22,-6],[27,-25],[-31,-12],[2,-41],[-46,-11],[17,-52],[-62,-42],[-162,-1],[-27,45],[-33,4]]]}