{"objects":{"water":{"type":"GeometryCollection","geometries":[{"type":"Polygon","properties":{"source":"naturalearthdata.com","kind":"ocean","area":1576712559132672,"sort_rank":200,"min_zoom":0.0,"id":1},"arcs":[[8]]},{"type":"LineString","properties":{"source":"naturalearthdata.com","kind":"ocean","sort_rank":205,"boundary":true,"min_zoom":0.0,"id":41},"arcs":[9]}]},"buildings":{"type":"GeometryCollection","geometries":[]},"places":{"type":"GeometryCollection","geometries":[{"type":"Point","properties":{"kind":"locality","name":"Peterhead","name:gd":"Inbhir \u00d9igidh","kind_detail":"town","source":"openstreetmap.org","min_zoom":8.0,"name:uk":"\u041f\u0456\u0442\u0435\u0440\u0445\u0435\u0434","id":500959309,"population":17500},"coordinates":[2998,983]},{"type":"Point","properties":{"kind":"locality","name":"Ellon","name:gd":"Eilean","kind_detail":"town","source":"openstreetmap.org","min_zoom":8.0,"id":36675380,"population":9700},"coordinates":[2164,202]},{"type":"Point","properties":{"source":"openstreetmap.org","kind":"locality","name":"Insch","kind_detail":"town","population":2282,"min_zoom":8.0,"id":4642832145},"coordinates":[584,92]},{"type":"Point","properties":{"source":"openstreetmap.org","kind":"locality","name":"Oldmeldrum","kind_detail":"town","population":2187,"min_zoom":8.0,"id":288031498},"coordinates":[1435,46]}]},"transit":{"type":"GeometryCollection","geometries":[{"type":"MultiLineString","properties":{"osm_relation":true,"source":"openstreetmap.org","kind":"train","name":"Aberdeen to Inverness Line","sort_rank":275,"min_zoom":6.0,"operator":"Network Rail"},"arcs":[[4],[5],[6],[7]]}]},"pois":{"type":"GeometryCollection","geometries":[]},"boundaries":{"type":"GeometryCollection","geometries":[{"type":"MultiLineString","properties":{"name:kg":"Royaume-Uni","name:ty":"Parat\u0101ne","name:ka":"\u10d2\u10d0\u10d4\u10e0\u10d7\u10d8\u10d0\u10dc\u10d4\u10d1\u10e3\u10da\u10d8 \u10e1\u10d0\u10db\u10d4\u10e4\u10dd","name:ko":"\uc601\uad6d","name:cv":"\u0410\u0441\u043b\u0103 \u0411\u0440\u0438\u0442\u0430\u043d\u0438","name:cu":"\u0412\u0454\u043b\u0438\u043a\u0430 \u0411\u0440\u0438\u0442\u0430\u043d\u0457\ua657","name:kl":"Tuluit Nunaat","name:cs":"Spojen\u00e9 kr\u00e1lovstv\u00ed","name:tt":"\u0411\u04e9\u0435\u043a\u0431\u0440\u0438\u0442\u0430\u043d\u0438\u044f","name:co":"Regnu Unitu","name:kv":"\u042b\u0434\u0436\u044b\u0434 \u0411\u0440\u0438\u0442\u0430\u043d\u0438\u044f","name:ku":"Keyaniya Yekb\u00fby\u00ee","name:tl":"Nagkakaisang Kaharian","name:ce":"\u0419\u043e\u043a\u043a\u0445\u0430 \u0411\u0440\u0438\u0442\u0430\u043d\u0438","name:ta":"\u0b90\u0b95\u0bcd\u0b95\u0bbf\u0baf \u0b87\u0bb0\u0bbe\u0b9a\u0bcd\u0b9a\u0bbf\u0baf\u0bae\u0bcd","name:tg":"\u041f\u043e\u0434\u0448\u043e\u04b3\u0438\u0438 \u041c\u0443\u0442\u0442\u0430\u04b3\u0438\u0434\u0430","name:ca":"Regne Unit","name:te":"\u0c2f\u0c41\u0c28\u0c48\u0c1f\u0c46\u0c21\u0c4d \u0c15\u0c3f\u0c02\u0c17\u0c4d\u200c\u0c21\u0c2e\u0c4d","name:cy":"Deyrnas Unedig","name:qu":"Hukllachasqa Qhapaq Suyu","name:da":"Storbritannien","name:de":"Vereinigtes K\u00f6nigreich","name:dz":"\u0f61\u0f74\u0f0b\u0f53\u0f60\u0f72\u0f0b\u0f4a\u0f7a\u0f4a\u0f0b\u0f40\u0f72\u0f44\u0f0b\u0f4c\u0f58","source":"openstreetmap.org","name:kn":"\u0caf\u0cc1\u0ca8\u0cc8\u0c9f\u0cc6\u0ca1\u0ccd \u0c95\u0cbf\u0c82\u0c97\u0ccd\u200c\u0ca1\u0c82","name:dv":"\u0794\u07aa\u0782\u07a6\u0787\u07a8\u0793\u07ac\u0791\u07b0 \u0786\u07a8\u0782\u07b0\u078e\u07b0\u0791\u07a6\u0789\u07b0","name:km":"\u179a\u17b6\u1787\u17b6\u178e\u17b6\u1785\u1780\u17d2\u179a\u179a\u17bd\u1798","name:lv":"Apvienot\u0101 Karaliste","name:lt":"Jungtin\u0117 Karalyst\u0117","name:uz":"Birlashgan Qirollik","name:kk":"\u04b0\u043b\u044b\u0431\u0440\u0438\u0442\u0430\u043d\u0438\u044f","name:ur":"\u0628\u0631\u0637\u0627\u0646\u06cc\u06c1","name:lb":"Groussbritannien an Nordirland","name:la":"Britanniarum Regnum","name:uk":"\u0412\u0435\u043b\u0438\u043a\u0430 \u0411\u0440\u0438\u0442\u0430\u043d\u0456\u044f","name:ug":"\u0628\u06c8\u064a\u06c8\u0643 \u0628\u06d0\u0631\u0649\u062a\u0627\u0646\u0649\u064a\u06d5","name:li":"Vereineg Keuninkriek","name:ln":"Ing\u025bl\u025b\u0301t\u025bl\u025b","name:el":"\u0397\u03bd\u03c9\u03bc\u03ad\u03bd\u03bf \u0392\u03b1\u03c3\u03af\u03bb\u03b5\u03b9\u03bf","name:eo":"Britujo","name":"United Kingdom","name:th":"\u0e2a\u0e2b\u0e23\u0e32\u0e0a\u0e2d\u0e32\u0e13\u0e32\u0e08\u0e31\u0e01\u0e23","name:eu":"Erresuma Batua","name:et":"Suurbritannia","name:es":"Reino Unido","name:ia":"Regno Unite","name:rm":"Reginavel Un\u00ec","name:az":"B\u00f6y\u00fck Britaniya","name:ie":"Reyatu Unit","name:id":"Britania Raya","name:ig":"Obodo\u00e9z\u00e8 N\u00e0 Of\u00fa","name:ar":"\u0627\u0644\u0645\u0645\u0644\u0643\u0629 \u0627\u0644\u0645\u062a\u062d\u062f\u0629","name:io":"Unionita Rejio","name:is":"Bretland","name:am":"\u12e9\u1293\u12ed\u1275\u12f5 \u12aa\u1295\u130d\u12f0\u121d","name:it":"Regno Unito","name:an":"Reino Unito","name:ru":"\u0412\u0435\u043b\u0438\u043a\u043e\u0431\u0440\u0438\u0442\u0430\u043d\u0438\u044f","name:ab":"\u0411\u0440\u0438\u0442\u0430\u043d\u0438\u0430 \u0414\u0443","name:af":"Verenigde Koninkryk","name:zu":"Umbuso Ohlangeneyo","kind_detail":"2","name:za":"Yinghgoz","name:zh-yue":"\u82f1\u570b","name:zh":"\u82f1\u570b","name:so":"Midowga boqortooyada Britan","name:sl":"Zdru\u017eeno kraljestvo Velike Britanije in Severne Irske","name:sk":"Spojen\u00e9 kr\u00e1\u013eovstvo","name:ja":"\u30a4\u30ae\u30ea\u30b9","name:si":"\u0d91\u0d9a\u0dca\u0dc3\u0dad\u0dca \u0dbb\u0dcf\u0da2\u0db0\u0dcf\u0db1\u0dd2\u0dba","name:sh":"Ujedinjeno Kraljevstvo","name:se":"Ovttastuvvan gonagasriika","name:sc":"Rennu Auniadu","name:sa":"\u0938\u0902\u092f\u0941\u0915\u094d\u0924 \u0905\u0927\u093f\u0930\u093e\u091c\u094d\u092f","name:bs":"Ujedinjeno Kraljevstvo Velike Britanije i Sjeverne Irske","name:bn":"\u09af\u09c1\u0995\u09cd\u09a4\u09b0\u09be\u099c\u09cd\u09af","name:bo":"\u0f51\u0f56\u0fb1\u0f72\u0f53\u0f0b\u0f47\u0f72\u0f0b\u0f58\u0f49\u0f58\u0f0b\u0f60\u0f56\u0fb2\u0f7a\u0f63\u0f0d","name:br":"Rouantelezh-Unanet","name:sw":"Ufalme wa Muungano","name:be":"\u0412\u044f\u043b\u0456\u043a\u0430\u0431\u0440\u044b\u0442\u0430\u043d\u0456\u044f","name:su":"Britania","name:bg":"\u041e\u0431\u0435\u0434\u0438\u043d\u0435\u043d\u043e \u043a\u0440\u0430\u043b\u0441\u0442\u0432\u043e \u0412\u0435\u043b\u0438\u043a\u043e\u0431\u0440\u0438\u0442\u0430\u043d\u0438\u044f \u0438 \u0421\u0435\u0432\u0435\u0440\u043d\u0430 \u0418\u0440\u043b\u0430\u043d\u0434\u0438\u044f","name:ba":"\u0411\u04e9\u0439\u04e9\u043a \u0411\u0440\u0438\u0442\u0430\u043d\u0438\u044f","name:sq":"Mbret\u00ebria e Bashkuar e Britanis\u00eb dhe Irland\u00ebs s\u00eb Veriut","name:jv":"Britania Raya","name:bi":"Unaeted Kingdom","name:pt":"Reino Unido","name:ps":"\u0628\u0631\u064a\u062a\u0627\u0646\u064a\u0627","name:oc":"Reialme Unit","min_zoom":8.0,"name:ro":"Regatul Unit al Marii Britanii \u0219i al Irlandei de Nord","name:zh-min-nan":"Li\u00e2n-ha\u030dp \u00d4ng-kok","name:os":"\u0421\u0442\u044b\u0440 \u0411\u0440\u0438\u0442\u0430\u043d\u0438","name:or":"\u0b2f\u0b41\u0b15\u0b4d\u0b24\u0b30\u0b3e\u0b1c\u0b4d\u0b5f","name:pl":"Wielka Brytania","sort_rank":262,"name:sr":"\u0423\u0458\u0435\u0434\u0438\u045a\u0435\u043d\u043e \u041a\u0440\u0430\u0459\u0435\u0432\u0441\u0442\u0432\u043e","osm_relation":true,"name:pa":"\u0a38\u0a70\u0a2f\u0a41\u0a15\u0a24 \u0a2c\u0a3e\u0a26\u0a38\u0a3c\u0a3e\u0a39\u0a40","name:tr":"Birle\u015fik Krall\u0131k","name:hi":"\u092f\u0942\u0928\u093e\u0907\u091f\u0947\u0921 \u0915\u093f\u0902\u0917\u0921\u092e","name:sv":"Storbritannien","name:he":"\u05d4\u05de\u05de\u05dc\u05db\u05d4 \u05d4\u05de\u05d0\u05d5\u05d7\u05d3\u05ea","name:ha":"Birtaniya","name:hy":"\u0544\u056b\u0561\u0581\u0575\u0561\u056c \u0539\u0561\u0563\u0561\u057e\u0578\u0580\u0578\u0582\u0569\u0575\u0578\u0582\u0576","name:ht":"Way\u00f2m Ini","name:hu":"Egyes\u00fclt Kir\u00e1lys\u00e1g","name:hr":"Ujedinjeno Kraljevstvo","kind":"country","name:yi":"\u05e4\u05d0\u05e8\u05d0\u05d9\u05d9\u05e0\u05d9\u05d2\u05d8\u05e2 \u05e7\u05e2\u05e0\u05d9\u05d2\u05e8\u05d9\u05d9\u05da","name:yo":"Il\u1eb9\u0300\u1ecdba A\u1e63\u1ecd\u0300kan","name:mt":"Renju Unit","alt_name:eo":"Britio","name:mr":"\u092f\u0941\u0928\u093e\u092f\u091f\u0947\u0921 \u0915\u093f\u0902\u0917\u094d\u0921\u092e","name:my":"\u101a\u1030\u1014\u102d\u102f\u1000\u103a\u1010\u1000\u103a\u1000\u1004\u103a\u1038\u1012\u1019\u103a\u1038\u1014\u102d\u102f\u1004\u103a\u1004\u1036","name:kw":"Ruwvaneth Unys","name:mg":"Fanjakana Mitambatra","name:vi":"V\u01b0\u01a1ng qu\u1ed1c Anh","name:ml":"\u0d2f\u0d41\u0d23\u0d48\u0d31\u0d4d\u0d31\u0d21\u0d4d \u0d15\u0d3f\u0d19\u0d4d\u0d21\u0d02","name:mn":"\u0418\u0445 \u0411\u0440\u0438\u0442\u0430\u043d\u0438","name:mi":"K\u012bngitanga Kotahi","id":-62149,"name:mk":"\u041e\u0431\u0435\u0434\u0438\u043d\u0435\u0442\u043e \u041a\u0440\u0430\u043b\u0441\u0442\u0432\u043e","name:vo":"Reg\u00e4n Pebal\u00f6l","name:fa":"\u0628\u0631\u06cc\u062a\u0627\u0646\u06cc\u0627","name:rw":"Ubwongereza","short_name":"UK","name:fi":"Yhdistynyt kuningaskunta","name:ky":"\u0423\u043b\u0443\u0443 \u0411\u0440\u0438\u0442\u0430\u043d\u0438\u044f \u0436\u0430\u043d\u0430 \u0422\u04af\u043d\u0434\u04af\u043a \u0418\u0440\u043b\u0430\u043d\u0434\u0438\u044f","name:fo":"St\u00f3ra Bretland","name:fr":"Royaume-Uni","name:fy":"Feriene Keninkryk","name:nl":"Verenigd Koninkrijk","name:nn":"Storbritannia","name:no":"Storbritannia","name:na":"Ingerand","name:ne":"\u0938\u0902\u092f\u0941\u0915\u094d\u0924 \u0905\u0927\u093f\u0930\u093e\u091c\u094d\u092f","name:wo":"Nguur-Yu-Bennoo","name:nv":"T\u00f3ta\u02bc Din\u00e9\u02bci\u02bc Bik\u00e9yah","name:ga":"An R\u00edocht Aontaithe","name:gd":"An R\u00ecoghachd Aonaichte","name:gn":"Tavet\u00e3 Joaju","name:gl":"Reino Unido","maritime_boundary":true,"name:gv":"Reeriaght Unnaneysit","name:gu":"\u0aaf\u0ac1\u0aa8\u0abe\u0a87\u0a9f\u0ac7\u0aa1 \u0a95\u0abf\u0a82\u0a97\u0aa1\u0aae"},"arcs":[[0],[1]]},{"type":"MultiLineString","properties":{"name:ia":"Scotia","name:pt":"Esc\u00f3cia","name:cy":"Yr Alban","name:ar":"\u0625\u0633\u0643\u062a\u0644\u0646\u062f\u0627","alt_name:eo":"Skotio;Skotujo","name:io":"Skotia","min_zoom":8.0,"name:it":"Scozia","name:sv":"Skottland","name:ru":"\u0428\u043e\u0442\u043b\u0430\u043d\u0434\u0438\u044f","name:pl":"Szkocja","name:mi":"Koterana","id":-58446,"name:ca":"Esc\u00f2cia","name:vo":"Skot\u00e4n","alt_name:vi":"T\u00f4 C\u00e1ch Lan;Xc\u1ed1t-lan","sort_rank":256,"name:fi":"Skotlanti","name:de":"Schottland","source":"openstreetmap.org","name:fr":"\u00c9cosse","name:fy":"Skotl\u00e2n","name:nl":"Schotland","name:lt":"\u0160kotija","name:eo":"Skotlando","name:br":"Bro-Skos","name:la":"Scotia","name:sk":"\u0160k\u00f3tsko","name:be":"\u0428\u0430\u0442\u043b\u0430\u043d\u0434\u044b\u044f","name:hu":"Sk\u00f3cia","name:hr":"\u0160kotska","osm_relation":true,"kind":"region","name":"Scotland","name:gd":"Alba","maritime_boundary":true,"name:gv":"Nalbin","kind_detail":"4","name:eu":"Eskozia","name:es":"Escocia"},"arcs":[[2],[3]]}]},"roads":{"type":"GeometryCollection","geometries":[{"type":"MultiLineString","properties":{"sort_rank":380,"kind_detail":"primary","min_zoom":8.0,"kind":"major_road","source":"openstreetmap.org"},"arcs":[[10],[11],[12],[13],[14]]},{"type":"MultiLineString","properties":{"sort_rank":381,"source":"openstreetmap.org","min_zoom":8.0,"kind":"major_road","kind_detail":"trunk"},"arcs":[[15],[16],[17],[18]]},{"type":"MultiLineString","properties":{"kind":"major_road","sort_rank":379,"kind_detail":"secondary","is_bicycle_related":true,"bicycle_shield_text":"EV12","bicycle_network":"icn","source":"openstreetmap.org","min_zoom":8.0,"ref":"B9170"},"arcs":[[19],[20],[21]]},{"type":"MultiLineString","properties":{"source":"openstreetmap.org","kind":"major_road","landuse_kind":"urban_area","sort_rank":380,"kind_detail":"primary","ref":"A982","min_zoom":8.0},"arcs":[[22],[23],[24],[25],[26],[27],[28],[29],[30],[31],[32],[33],[34],[35],[36]]},{"type":"LineString","properties":{"kind":"minor_road","service":"parking_aisle","sort_rank":356,"kind_detail":"service","is_bicycle_related":true,"bicycle_shield_text":"EV12","bicycle_network":"icn","source":"openstreetmap.org","min_zoom":8.0},"arcs":[37]},{"type":"LineString","properties":{"kind":"major_road","sort_rank":379,"kind_detail":"secondary","is_bicycle_related":true,"bicycle_shield_text":"EV12","bicycle_network":"icn","source":"openstreetmap.org","min_zoom":8.0,"ref":"B9018","id":220001042},"arcs":[38]},{"type":"LineString","properties":{"kind":"major_road","sort_rank":380,"kind_detail":"primary","is_bicycle_related":true,"bicycle_shield_text":"EV12","bicycle_network":"icn","source":"openstreetmap.org","min_zoom":8.0,"ref":"A953"},"arcs":[39]},{"type":"MultiLineString","properties":{"kind":"path","sort_rank":354,"kind_detail":"cycleway","is_bicycle_related":true,"bicycle_shield_text":"EV12","bicycle_network":"icn","source":"openstreetmap.org","min_zoom":8.0},"arcs":[[40],[41],[42],[43],[44],[45],[46]]},{"type":"MultiLineString","properties":{"source":"openstreetmap.org","kind":"major_road","sort_rank":380,"kind_detail":"primary","ref":"A97","min_zoom":8.0},"arcs":[[47],[48],[49],[50],[51],[52],[53],[54]]},{"type":"MultiLineString","properties":{"kind":"major_road","sort_rank":377,"kind_detail":"tertiary","is_bicycle_related":true,"bicycle_shield_text":"EV12","bicycle_network":"icn","source":"openstreetmap.org","min_zoom":8.0},"arcs":[[55],[56],[57],[58],[59],[60],[61],[62],[63],[64]]},{"type":"LineString","properties":{"source":"openstreetmap.org","kind":"major_road","sort_rank":381,"kind_detail":"trunk","ref":"A952","min_zoom":8.0},"arcs":[65]},{"type":"MultiLineString","properties":{"source":"openstreetmap.org","kind":"major_road","sort_rank":380,"kind_detail":"primary","ref":"A981","min_zoom":8.0},"arcs":[[66],[67],[68]]},{"type":"MultiLineString","properties":{"kind":"major_road","sort_rank":380,"kind_detail":"primary","is_bicycle_related":true,"bicycle_shield_text":"EV12","bicycle_network":"icn","source":"openstreetmap.org","min_zoom":8.0,"ref":"A98"},"arcs":[[69],[70]]},{"type":"LineString","properties":{"sort_rank":355,"source":"openstreetmap.org","min_zoom":8.0,"name":"Aberdeen-Lerwick","kind":"ferry"},"arcs":[71]},{"type":"LineString","properties":{"kind":"major_road","sort_rank":379,"kind_detail":"secondary","is_bicycle_related":true,"bicycle_shield_text":"EV12","bicycle_network":"icn","source":"openstreetmap.org","min_zoom":8.0,"ref":"B999"},"arcs":[72]},{"type":"LineString","properties":{"kind":"major_road","sort_rank":380,"kind_detail":"primary","is_bicycle_related":true,"bicycle_shield_text":"EV12","bicycle_network":"icn","source":"openstreetmap.org","min_zoom":8.0,"ref":"A947","id":39896589},"arcs":[73]},{"type":"MultiLineString","properties":{"source":"openstreetmap.org","kind":"major_road","sort_rank":381,"kind_detail":"trunk","ref":"A96","min_zoom":8.0},"arcs":[[74],[75],[76],[77],[78],[79],[80]]},{"type":"MultiLineString","properties":{"kind":"minor_road","sort_rank":360,"kind_detail":"residential","is_bicycle_related":true,"bicycle_shield_text":"EV12","bicycle_network":"icn","source":"openstreetmap.org","min_zoom":8.0},"arcs":[[81],[82],[83],[84],[85]]},{"type":"LineString","properties":{"source":"openstreetmap.org","kind":"ferry","name":"Aberdeen - Kirkwall - Lerwick","sort_rank":355,"is_bicycle_related":true,"min_zoom":8.0},"arcs":[86]},{"type":"LineString","properties":{"source":"openstreetmap.org","kind":"major_road","sort_rank":380,"kind_detail":"primary","ref":"A975","min_zoom":8.0},"arcs":[87]},{"type":"MultiLineString","properties":{"source":"openstreetmap.org","kind":"major_road","landuse_kind":"urban_area","sort_rank":380,"kind_detail":"primary","ref":"A950","min_zoom":8.0},"arcs":[[88],[89],[90]]},{"type":"LineString","properties":{"kind":"major_road","sort_rank":379,"kind_detail":"secondary","is_bicycle_related":true,"bicycle_shield_text":"EV12","bicycle_network":"icn","source":"openstreetmap.org","min_zoom":8.0,"ref":"B9029"},"arcs":[91]},{"type":"LineString","properties":{"kind":"major_road","sort_rank":379,"kind_detail":"secondary","is_bicycle_related":true,"bicycle_shield_text":"EV12","bicycle_network":"icn","source":"openstreetmap.org","min_zoom":8.0,"ref":"B9025"},"arcs":[92]},{"type":"LineString","properties":{"source":"openstreetmap.org","kind":"major_road","sort_rank":380,"kind_detail":"primary","ref":"A95","min_zoom":8.0},"arcs":[93]},{"type":"MultiLineString","properties":{"source":"openstreetmap.org","kind":"major_road","sort_rank":380,"kind_detail":"primary","ref":"A98","min_zoom":8.0},"arcs":[[94],[95],[96],[97],[98],[99]]},{"type":"MultiLineString","properties":{"source":"openstreetmap.org","kind":"major_road","sort_rank":380,"kind_detail":"primary","ref":"A952","min_zoom":8.0},"arcs":[[100],[101],[102],[103]]},{"type":"MultiLineString","properties":{"source":"openstreetmap.org","kind":"major_road","sort_rank":380,"kind_detail":"primary","ref":"A948","min_zoom":8.0},"arcs":[[104],[105],[106],[107],[108]]},{"type":"MultiLineString","properties":{"source":"openstreetmap.org","kind":"major_road","sort_rank":380,"kind_detail":"primary","ref":"A947","min_zoom":8.0},"arcs":[[109],[110],[111],[112],[113]]},{"type":"LineString","properties":{"kind":"major_road","sort_rank":379,"kind_detail":"secondary","is_bicycle_related":true,"bicycle_shield_text":"EV12","bicycle_network":"icn","source":"openstreetmap.org","min_zoom":8.0,"ref":"B9139"},"arcs":[114]},{"type":"MultiLineString","properties":{"source":"openstreetmap.org","kind":"major_road","sort_rank":380,"kind_detail":"primary","ref":"A920","min_zoom":8.0},"arcs":[[115],[116],[117],[118],[119],[120],[121],[122],[123],[124]]},{"type":"MultiLineString","properties":{"source":"openstreetmap.org","kind":"major_road","sort_rank":380,"kind_detail":"primary","ref":"A950","min_zoom":8.0},"arcs":[[125],[126],[127],[128],[129],[130],[131],[132],[133],[134],[135],[136]]},{"type":"LineString","properties":{"kind":"major_road","sort_rank":379,"kind_detail":"secondary","is_bicycle_related":true,"bicycle_shield_text":"EV12","bicycle_network":"icn","source":"openstreetmap.org","min_zoom":8.0,"ref":"B9038"},"arcs":[137]},{"type":"LineString","properties":{"kind":"major_road","sort_rank":380,"kind_detail":"primary","is_bicycle_related":true,"bicycle_shield_text":"EV12","bicycle_network":"icn","source":"openstreetmap.org","min_zoom":8.0,"ref":"A948","id":40467780},"arcs":[138]},{"type":"MultiLineString","properties":{"kind":"minor_road","sort_rank":360,"kind_detail":"unclassified","is_bicycle_related":true,"bicycle_shield_text":"EV12","bicycle_network":"icn","source":"openstreetmap.org","min_zoom":8.0},"arcs":[[139],[140],[141],[142],[143],[144],[145],[146],[147],[148],[149],[150],[151],[152],[153]]},{"type":"MultiLineString","properties":{"source":"openstreetmap.org","kind":"major_road","sort_rank":380,"kind_detail":"primary","ref":"A982","min_zoom":8.0},"arcs":[[154],[155],[156],[157]]},{"type":"MultiLineString","properties":{"source":"openstreetmap.org","kind":"major_road","sort_rank":381,"kind_detail":"trunk","ref":"A90","min_zoom":8.0},"arcs":[[158],[159],[160],[161],[162],[163],[164],[165],[166],[167],[168],[169],[170],[171],[172],[173],[174],[175],[176],[177],[178],[179],[180],[181],[182]]},{"type":"MultiLineString","properties":{"kind":"minor_road","sort_rank":358,"kind_detail":"service","is_bicycle_related":true,"bicycle_shield_text":"EV12","bicycle_network":"icn","source":"openstreetmap.org","min_zoom":8.0},"arcs":[[183],[184],[185],[186]]}]},"earth":{"type":"GeometryCollection","geometries":[{"type":"Polygon","properties":{"sort_rank":10,"source":"naturalearthdata.com","kind":"earth","min_zoom":0.0,"id":3854},"arcs":[[187]]}]},"landuse":{"type":"GeometryCollection","geometries":[{"type":"Polygon","properties":{"source":"openstreetmap.org","kind":"nature_reserve","area":23675100,"tier":2,"id":204360047,"min_zoom":8.0,"sort_rank":23},"arcs":[[188]]},{"type":"Polygon","properties":{"source":"naturalearthdata.com","kind":"urban_area","name":"","area":39745880,"sort_rank":11,"min_zoom":4.0,"id":3200},"arcs":[[189]]}]}},"type":"Topology","transform":{"translate":[-2.8125,57.3265212252],"scale":[0.0003433228,0.0001834363]},"arcs":[[[3832,0],[178,324],[76,218],[10,84]],[[4096,1247],[-34,124],[-82,174],[-50,295],[-94,240],[-124,185],[-429,485],[-466,273],[-310,92],[-503,17],[-293,-44],[-327,6],[-383,-104],[-1001,163]],[[3832,0],[178,324],[76,218],[10,84]],[[4096,1247],[-34,124],[-82,174],[-50,295],[-94,240],[-124,185],[-429,485],[-466,273],[-310,92],[-503,17],[-293,-44],[-327,6],[-383,-104],[-1001,163]],[[183,137],[-94,49],[-50,142],[20,172],[-18,69],[91,114],[20,164],[-41,90],[-111,99]],[[581,53],[-30,10],[-19,0],[-6,-1],[-10,-3],[-4,-1],[-6,0],[-7,1],[-6,1],[-45,17],[-10,4],[-25,12],[-6,3],[-4,3],[-5,4],[-5,5],[-15,19],[-13,9],[-48,22],[-26,6],[-5,1],[-11,5],[-7,2],[-22,-2],[-19,-13],[-22,-14],[-6,-3],[-5,-1],[-6,-2],[-3,0],[-2,0]],[[183,137],[63,33],[23,2],[49,-14],[47,-22],[83,-59],[51,-18],[33,4],[19,0],[30,-10]],[[674,0],[-93,53]],[[2449,0],[50,80],[305,290],[7,75],[50,98],[120,165],[67,60],[20,34],[-37,14],[-27,23],[-3,47],[20,41],[41,5],[-82,95],[-31,60],[12,68],[0,34],[-45,86],[-16,97],[-10,99],[-27,93],[-247,280],[-33,73],[-20,23],[-35,1],[-49,-43],[-35,5],[-25,30],[-26,51],[-18,47],[-2,20],[-321,12],[-48,-12],[-174,-132],[-75,-16],[-59,19],[-128,80],[-63,12],[-24,-11],[-27,-22],[-21,-29],[-9,-31],[-16,-26],[-35,9],[-56,36],[-27,-10],[-49,-49],[-34,-19],[-31,8],[-26,26],[-23,8],[-21,-42],[-138,72],[-52,6],[-38,-25],[-21,-42],[-23,-8],[-46,75],[-92,-5],[-249,87],[-99,-48],[-31,33],[-23,-4],[-24,-18],[-33,-11],[-29,12],[-29,53],[-20,12],[-159,0],[0,2045],[4096,0],[0,-4096],[-1647,0]],[[0,2051],[159,0],[20,-12],[29,-53],[29,-12],[33,11],[24,18],[23,4],[31,-33],[99,48],[249,-87],[92,5],[46,-75],[23,8],[21,42],[38,25],[52,-6],[138,-72],[21,42],[23,-8],[26,-26],[31,-8],[34,19],[49,49],[27,10],[56,-36],[35,-9],[16,26],[9,31],[21,29],[27,22],[24,11],[63,-12],[128,-80],[59,-19],[75,16],[174,132],[48,12],[321,-12],[2,-20],[18,-47],[26,-51],[25,-30],[35,-5],[49,43],[35,-1],[20,-23],[33,-73],[247,-280],[27,-93],[10,-99],[16,-97],[45,-86],[0,-34],[-12,-68],[31,-60],[82,-95],[-41,-5],[-20,-41],[3,-47],[27,-23],[37,-14],[-20,-34],[-67,-60],[-120,-165],[-50,-98],[-7,-75],[-305,-290],[-50,-80]],[[2353,1989],[3,0]],[[1390,50],[1,1],[1,0],[-1,-1],[-1,0]],[[2271,1982],[0,1],[0,-1]],[[2302,1910],[0,-2],[-2,0],[0,1],[2,1]],[[2362,1084],[2,-2],[-1,-1],[-2,1],[1,2]],[[2217,9],[10,-9]],[[2390,419],[-2,1]],[[2255,223],[0,1],[1,0],[0,-1],[-1,0]],[[2352,1917],[1,0],[-1,-1],[-1,1],[1,0]],[[1216,1117],[52,15],[31,39]],[[1304,1174],[-5,-3]],[[1304,1174],[160,0]],[[2917,1038],[16,-20]],[[2934,1016],[-1,2]],[[2933,1018],[2,-1]],[[2939,1015],[-2,0]],[[2937,1016],[2,-1]],[[2984,975],[13,15],[-58,25]],[[2948,898],[35,74]],[[2984,972],[-1,0]],[[2983,972],[0,1]],[[2984,974],[0,1]],[[2984,975],[1,-1]],[[2934,1016],[2,1],[1,-1],[-1,-1],[-2,1]],[[2984,972],[-1,1]],[[2983,973],[1,1]],[[2984,974],[1,0],[-1,-2]],[[754,1868]],[[0,1907],[1,-5]],[[836,1877],[8,-10]],[[348,1925],[0,1]],[[348,1926],[12,-8]],[[364,1919],[-1,1]],[[711,1906],[30,-24]],[[723,1867],[-3,6]],[[760,1870],[24,-1]],[[2026,762],[-70,181],[0,66],[42,49]],[[50,623],[-29,-60],[23,-52],[-20,-173],[27,-99],[-51,-92]],[[51,625],[-1,-2]],[[50,623],[0,2]],[[51,627],[1,2]],[[52,629],[0,-2]],[[75,658],[-23,-29]],[[143,619],[126,131],[161,237],[34,237],[54,-2],[56,82],[-14,154],[52,97],[92,57],[138,236]],[[841,1855],[-5,22]],[[200,1826],[-52,14]],[[877,1493],[-1,52]],[[876,1546],[20,60],[57,39]],[[976,1178],[-80,187],[-20,128]],[[1040,1152],[152,-10],[24,-25]],[[1689,230],[-27,-223]],[[1753,243],[7,60]],[[1784,9],[9,-9]],[[1818,1161],[178,-99]],[[2026,760],[-48,-105],[-79,-47]],[[2384,413],[6,6]],[[1952,1219],[-79,-72],[-10,-98],[-59,-44]],[[1942,1234],[140,126],[16,52],[-24,83],[111,161],[19,85],[96,167]],[[2302,1910],[47,56]],[[283,1902],[57,26]],[[875,1834],[-30,-6]],[[3819,4096],[-355,-3278],[-24,-113],[-450,-705]],[[1753,243],[-64,-13]],[[926,1823],[-41,-12],[-10,23]],[[0,707],[47,-80]],[[50,625],[-3,2]],[[47,627],[3,0]],[[55,625],[-3,0]],[[52,626],[3,-1]],[[858,0],[-177,174],[-47,83],[-15,139],[-67,-7],[-79,31],[-108,-14],[-206,208],[-104,11]],[[50,627],[2,0],[0,-2],[-2,0],[0,2]],[[348,1920],[-8,8]],[[348,1926]],[[678,1913],[1,8]],[[844,1867],[1,-39]],[[1040,1152],[-14,-3]],[[3744,4096],[-343,-3384],[-440,-712]],[[2871,643],[-12,-113],[-174,-68],[-147,-250],[-160,-121],[-11,-91]],[[2929,984],[53,-10]],[[2983,973],[-1,1]],[[2982,974],[1,0]],[[1996,1062],[8,1]],[[976,1178],[48,-20]],[[506,1763],[-63,-128],[-207,-165],[-39,-89],[-197,-126]],[[0,1948],[283,-46]],[[340,1928],[24,7],[1,-39],[84,-106],[61,-26],[183,80],[149,4]],[[845,1828],[-3,5]],[[2271,1982],[-260,-177],[-68,-102],[-71,-30],[-50,-91],[-96,-73],[-161,-7],[-91,-50],[-116,77],[-23,90],[-126,23],[-82,112],[-113,56],[-36,49],[-61,19],[-42,-44]],[[2271,1983],[41,21],[41,-15]],[[2356,1984],[0,5]],[[2354,1125],[20,171],[-29,83],[54,103],[-16,140]],[[2355,1123],[-2,0],[1,2],[1,-1],[0,-1]],[[2362,1084],[-7,39]],[[2363,1081],[0,-406],[68,-122],[6,-81],[-48,-49]],[[1804,1005],[83,-51],[44,-110],[51,-15],[44,-67]],[[2027,760],[80,-243],[-33,-169],[57,-84],[115,-37]],[[2254,225],[-7,2]],[[2255,224],[-1,1]],[[2254,225],[1,-1]],[[926,1823],[62,-62],[-14,-214],[30,-83],[70,-86],[19,-104],[-41,-103],[-37,-21],[117,-155],[-9,-145],[82,-163],[-16,-80],[21,-52],[76,-47],[14,-82],[146,-332]],[[1447,92],[-1,0]],[[1447,93],[0,-1]],[[1447,92],[0,-44],[49,-10],[31,-38]],[[1446,94],[1,-1],[-1,-1],[-1,1],[1,1]],[[625,1875],[-261,44]],[[19,678],[-19,2]],[[75,660],[-55,16]],[[77,659],[42,-35]],[[631,310],[284,11],[192,-81],[50,-74],[126,-82],[107,-33]],[[1392,51],[63,-15]],[[1493,39],[74,24],[123,-29],[100,27],[3,47],[136,2],[223,93]],[[2153,204],[93,22]],[[2152,204],[1,0]],[[2153,204],[0,-1],[-1,0],[0,1]],[[2247,228],[0,-1],[-1,0],[0,1],[1,0]],[[1726,1509],[48,-22],[185,-275],[219,-129],[183,-1]],[[2364,1082],[133,-22],[172,-73],[203,-1]],[[2874,985],[9,-1]],[[2884,984],[35,2]],[[2919,986],[1,0]],[[2920,985],[-1,1]],[[2920,986],[1,0],[0,-1]],[[2921,985],[-1,0],[0,1]],[[2922,985],[-1,0]],[[2921,986],[1,-1]],[[2922,985],[7,-1]],[[2884,985],[0,-2],[-1,0],[0,2],[1,0]],[[720,1873],[-42,40]],[[2026,762],[1,-2]],[[148,1840],[-54,56],[-93,6]],[[283,1902],[-83,-76]],[[348,1920],[0,5]],[[711,1906],[-7,26],[-21,-7],[-58,-50]],[[754,1869],[-31,-2]],[[836,1877],[-26,-6]],[[876,1545],[0,1]],[[876,1493],[1,0]],[[926,1823],[-39,-92],[66,-86]],[[1026,1149],[-2,9]],[[1464,1174],[55,21],[299,-34]],[[1662,7],[11,-7]],[[1694,0],[90,9]],[[1760,303],[100,289],[39,16]],[[2027,760],[-1,0]],[[2902,1066],[15,-28]],[[2941,874],[0,1]],[[2941,875],[7,23]],[[2941,875],[1,-1]],[[2213,130],[2,2]],[[2220,6],[-5,112],[-1,5]],[[2214,123],[-1,5]],[[2215,132],[-1,-2]],[[2215,129],[-1,-6]],[[2214,123],[-5,-74],[-1,-13],[9,-27]],[[2215,132],[39,90]],[[2256,223],[-2,-1]],[[2254,222],[1,1]],[[2256,224],[1,2]],[[2257,226],[-1,-2]],[[2257,226],[127,187],[114,23],[149,102],[234,110],[99,79],[4,49],[-42,93]],[[2352,1917],[-6,86]],[[2379,1626],[-30,87],[21,73],[-26,65],[8,65]],[[2873,987],[29,79],[-29,34],[8,61],[-108,224],[-387,238]],[[2939,873],[-49,21],[-17,91]],[[2939,873],[1,1]],[[2940,872],[-1,1]],[[2942,869],[-1,2]],[[2942,871],[0,-2]],[[2214,128],[-2,1],[1,1],[1,0]],[[2214,130],[0,-2]],[[2873,987],[-1,-1],[1,-1],[1,1],[-1,1]],[[2941,874],[2,-1],[-1,-2],[-2,1]],[[2940,872],[1,2]],[[360,1918],[3,2]],[[741,1882],[13,-13]],[[784,1869],[26,2]],[[1998,1058],[6,5]],[[0,2051],[159,0],[20,-12],[29,-53],[29,-12],[33,11],[24,18],[23,4],[31,-33],[99,48],[249,-87],[92,5],[46,-75],[23,8],[21,42],[38,25],[52,-6],[138,-72],[21,42],[23,-8],[26,-26],[31,-8],[34,19],[49,49],[27,10],[56,-36],[35,-9],[16,26],[9,31],[21,29],[27,22],[24,11],[63,-12],[128,-80],[59,-19],[75,16],[174,132],[48,12],[321,-12],[2,-20],[18,-47],[26,-51],[25,-30],[35,-5],[49,43],[35,-1],[20,-23],[33,-73],[247,-280],[27,-93],[10,-99],[16,-97],[45,-86],[0,-34],[-12,-68],[31,-60],[82,-95],[-41,-5],[-20,-41],[3,-47],[27,-23],[37,-14],[-20,-34],[-67,-60],[-120,-165],[-50,-98],[-7,-75],[-305,-290],[-50,-80],[-2449,0],[0,2051]],[[2375,31],[23,-29],[84,150],[56,-41],[-2,-37],[-74,-74],[-77,0],[-10,31]],[[2949,890],[-90,413],[39,83],[18,-111],[45,-86],[-12,-102],[71,-106],[-40,-78],[-31,-13]]]}