{"objects":{"water":{"type":"GeometryCollection","geometries":[{"type":"Polygon","properties":{"source":"naturalearthdata.com","kind":"ocean","area":1576712559132672,"sort_rank":200,"min_zoom":0.0,"id":1},"arcs":[[9]]},{"type":"LineString","properties":{"source":"naturalearthdata.com","kind":"ocean","sort_rank":205,"boundary":true,"min_zoom":0.0,"id":41},"arcs":[10]}]},"buildings":{"type":"GeometryCollection","geometries":[]},"places":{"type":"GeometryCollection","geometries":[{"type":"Point","properties":{"name:ja":"\u30a2\u30d0\u30c7\u30a3\u30fc\u30f3","name:lt":"Aberdynas","name:ar":"\u0623\u0628\u0631\u062f\u064a\u0646","min_zoom":8.0,"name:la":"Aberdonia","name:uk":"\u0410\u0431\u0435\u0440\u0434\u0438\u043d","name:be":"\u0410\u0431\u0435\u0440\u0434\u0437\u0456\u043d","name:ru":"\u0410\u0431\u0435\u0440\u0434\u0438\u043d","id":21063362,"population":220420,"kind":"locality","name":"Aberdeen","name:gd":"Obar Dheathain","kind_detail":"city","alt_name:la":"Aberdonium","name:sr":"\u0410\u0431\u0435\u0440\u0434\u0438\u043d","source":"openstreetmap.org"},"coordinates":[2100,3128]},{"type":"Point","properties":{"kind":"locality","name":"Inverurie","name:gd":"Inbhir Uraidh","kind_detail":"town","source":"openstreetmap.org","min_zoom":8.0,"id":21531322,"population":12760},"coordinates":[1275,3866]},{"type":"Point","properties":{"source":"openstreetmap.org","kind":"locality","name":"Chapelton of Elsick","kind_detail":"town","population":60,"min_zoom":8.0,"id":4519452664},"coordinates":[1857,2535]}]},"transit":{"type":"GeometryCollection","geometries":[{"type":"LineString","properties":{"kind":"train","network":"national","service":"night","sort_rank":275,"source":"openstreetmap.org","min_zoom":6.0,"operator":"Serco","ref":"CS H","osm_relation":true,"name":"Highland Caledonian Sleeper: Aberdeen => London Euston"},"arcs":[2]},{"type":"LineString","properties":{"kind":"train","name":"Highland Caledonian Sleeper: London Euston => Aberdeen","service":"night","sort_rank":275,"source":"openstreetmap.org","min_zoom":6.0,"operator":"Serco","ref":"CS H","osm_relation":true,"network":"national"},"arcs":[3]},{"type":"LineString","properties":{"kind":"train","network":"national","sort_rank":275,"source":"openstreetmap.org","min_zoom":6.0,"operator":"Virgin Trains East Coast","ref":"GR B","osm_relation":true,"name":"Aberdeen => London King's Cross (fast)"},"arcs":[4]},{"type":"LineString","properties":{"kind":"train","name":"Aberdeen to Inverness Line","sort_rank":275,"source":"openstreetmap.org","min_zoom":6.0,"operator":"Network Rail","id":-1828419,"osm_relation":true},"arcs":[5]},{"type":"LineString","properties":{"kind":"train","network":"Scotrail","sort_rank":275,"source":"openstreetmap.org","min_zoom":6.0,"operator":"Scotrail","osm_relation":true,"name":"Perth - Dundee"},"arcs":[6]},{"type":"LineString","properties":{"kind":"train","network":"national","sort_rank":275,"source":"openstreetmap.org","min_zoom":6.0,"operator":"Virgin Trains East Coast","ref":"GR B","osm_relation":true,"name":"London King's Cross => Aberdeen (fast)"},"arcs":[7]},{"type":"LineString","properties":{"source":"openstreetmap.org","kind":"train","name":"Edinburgh to Aberdeen Line","sort_rank":275,"min_zoom":6.0,"osm_relation":true},"arcs":[8]}]},"pois":{"type":"GeometryCollection","geometries":[]},"boundaries":{"type":"GeometryCollection","geometries":[{"type":"LineString","properties":{"name:kg":"Royaume-Uni","name:ty":"Parat\u0101ne","name:ka":"\u10d2\u10d0\u10d4\u10e0\u10d7\u10d8\u10d0\u10dc\u10d4\u10d1\u10e3\u10da\u10d8 \u10e1\u10d0\u10db\u10d4\u10e4\u10dd","name:ko":"\uc601\uad6d","name:cv":"\u0410\u0441\u043b\u0103 \u0411\u0440\u0438\u0442\u0430\u043d\u0438","name:cu":"\u0412\u0454\u043b\u0438\u043a\u0430 \u0411\u0440\u0438\u0442\u0430\u043d\u0457\ua657","name:kl":"Tuluit Nunaat","name:cs":"Spojen\u00e9 kr\u00e1lovstv\u00ed","name:tt":"\u0411\u04e9\u0435\u043a\u0431\u0440\u0438\u0442\u0430\u043d\u0438\u044f","name:co":"Regnu Unitu","name:kv":"\u042b\u0434\u0436\u044b\u0434 \u0411\u0440\u0438\u0442\u0430\u043d\u0438\u044f","name:ku":"Keyaniya Yekb\u00fby\u00ee","name:tl":"Nagkakaisang Kaharian","name:ce":"\u0419\u043e\u043a\u043a\u0445\u0430 \u0411\u0440\u0438\u0442\u0430\u043d\u0438","name:ta":"\u0b90\u0b95\u0bcd\u0b95\u0bbf\u0baf \u0b87\u0bb0\u0bbe\u0b9a\u0bcd\u0b9a\u0bbf\u0baf\u0bae\u0bcd","name:tg":"\u041f\u043e\u0434\u0448\u043e\u04b3\u0438\u0438 \u041c\u0443\u0442\u0442\u0430\u04b3\u0438\u0434\u0430","name:ca":"Regne Unit","name:te":"\u0c2f\u0c41\u0c28\u0c48\u0c1f\u0c46\u0c21\u0c4d \u0c15\u0c3f\u0c02\u0c17\u0c4d\u200c\u0c21\u0c2e\u0c4d","name:cy":"Deyrnas Unedig","name:qu":"Hukllachasqa Qhapaq Suyu","name:da":"Storbritannien","name:de":"Vereinigtes K\u00f6nigreich","name:dz":"\u0f61\u0f74\u0f0b\u0f53\u0f60\u0f72\u0f0b\u0f4a\u0f7a\u0f4a\u0f0b\u0f40\u0f72\u0f44\u0f0b\u0f4c\u0f58","source":"openstreetmap.org","name:kn":"\u0caf\u0cc1\u0ca8\u0cc8\u0c9f\u0cc6\u0ca1\u0ccd \u0c95\u0cbf\u0c82\u0c97\u0ccd\u200c\u0ca1\u0c82","name:dv":"\u0794\u07aa\u0782\u07a6\u0787\u07a8\u0793\u07ac\u0791\u07b0 \u0786\u07a8\u0782\u07b0\u078e\u07b0\u0791\u07a6\u0789\u07b0","name:km":"\u179a\u17b6\u1787\u17b6\u178e\u17b6\u1785\u1780\u17d2\u179a\u179a\u17bd\u1798","name:lv":"Apvienot\u0101 Karaliste","name:lt":"Jungtin\u0117 Karalyst\u0117","name:uz":"Birlashgan Qirollik","name:kk":"\u04b0\u043b\u044b\u0431\u0440\u0438\u0442\u0430\u043d\u0438\u044f","name:ur":"\u0628\u0631\u0637\u0627\u0646\u06cc\u06c1","name:lb":"Groussbritannien an Nordirland","name:la":"Britanniarum Regnum","name:uk":"\u0412\u0435\u043b\u0438\u043a\u0430 \u0411\u0440\u0438\u0442\u0430\u043d\u0456\u044f","name:ug":"\u0628\u06c8\u064a\u06c8\u0643 \u0628\u06d0\u0631\u0649\u062a\u0627\u0646\u0649\u064a\u06d5","name:li":"Vereineg Keuninkriek","name:ln":"Ing\u025bl\u025b\u0301t\u025bl\u025b","name:el":"\u0397\u03bd\u03c9\u03bc\u03ad\u03bd\u03bf \u0392\u03b1\u03c3\u03af\u03bb\u03b5\u03b9\u03bf","name:eo":"Britujo","name":"United Kingdom","name:th":"\u0e2a\u0e2b\u0e23\u0e32\u0e0a\u0e2d\u0e32\u0e13\u0e32\u0e08\u0e31\u0e01\u0e23","name:eu":"Erresuma Batua","name:et":"Suurbritannia","name:es":"Reino Unido","name:ia":"Regno Unite","name:rm":"Reginavel Un\u00ec","name:az":"B\u00f6y\u00fck Britaniya","name:ie":"Reyatu Unit","name:id":"Britania Raya","name:ig":"Obodo\u00e9z\u00e8 N\u00e0 Of\u00fa","name:ar":"\u0627\u0644\u0645\u0645\u0644\u0643\u0629 \u0627\u0644\u0645\u062a\u062d\u062f\u0629","name:io":"Unionita Rejio","name:is":"Bretland","name:am":"\u12e9\u1293\u12ed\u1275\u12f5 \u12aa\u1295\u130d\u12f0\u121d","name:it":"Regno Unito","name:an":"Reino Unito","name:ru":"\u0412\u0435\u043b\u0438\u043a\u043e\u0431\u0440\u0438\u0442\u0430\u043d\u0438\u044f","name:ab":"\u0411\u0440\u0438\u0442\u0430\u043d\u0438\u0430 \u0414\u0443","name:af":"Verenigde Koninkryk","name:zu":"Umbuso Ohlangeneyo","kind_detail":"2","name:za":"Yinghgoz","name:zh-yue":"\u82f1\u570b","name:zh":"\u82f1\u570b","name:so":"Midowga boqortooyada Britan","name:sl":"Zdru\u017eeno kraljestvo Velike Britanije in Severne Irske","name:sk":"Spojen\u00e9 kr\u00e1\u013eovstvo","name:ja":"\u30a4\u30ae\u30ea\u30b9","name:si":"\u0d91\u0d9a\u0dca\u0dc3\u0dad\u0dca \u0dbb\u0dcf\u0da2\u0db0\u0dcf\u0db1\u0dd2\u0dba","name:sh":"Ujedinjeno Kraljevstvo","name:se":"Ovttastuvvan gonagasriika","name:sc":"Rennu Auniadu","name:sa":"\u0938\u0902\u092f\u0941\u0915\u094d\u0924 \u0905\u0927\u093f\u0930\u093e\u091c\u094d\u092f","name:bs":"Ujedinjeno Kraljevstvo Velike Britanije i Sjeverne Irske","name:bn":"\u09af\u09c1\u0995\u09cd\u09a4\u09b0\u09be\u099c\u09cd\u09af","name:bo":"\u0f51\u0f56\u0fb1\u0f72\u0f53\u0f0b\u0f47\u0f72\u0f0b\u0f58\u0f49\u0f58\u0f0b\u0f60\u0f56\u0fb2\u0f7a\u0f63\u0f0d","name:br":"Rouantelezh-Unanet","name:sw":"Ufalme wa Muungano","name:be":"\u0412\u044f\u043b\u0456\u043a\u0430\u0431\u0440\u044b\u0442\u0430\u043d\u0456\u044f","name:su":"Britania","name:bg":"\u041e\u0431\u0435\u0434\u0438\u043d\u0435\u043d\u043e \u043a\u0440\u0430\u043b\u0441\u0442\u0432\u043e \u0412\u0435\u043b\u0438\u043a\u043e\u0431\u0440\u0438\u0442\u0430\u043d\u0438\u044f \u0438 \u0421\u0435\u0432\u0435\u0440\u043d\u0430 \u0418\u0440\u043b\u0430\u043d\u0434\u0438\u044f","name:ba":"\u0411\u04e9\u0439\u04e9\u043a \u0411\u0440\u0438\u0442\u0430\u043d\u0438\u044f","name:sq":"Mbret\u00ebria e Bashkuar e Britanis\u00eb dhe Irland\u00ebs s\u00eb Veriut","name:jv":"Britania Raya","name:bi":"Unaeted Kingdom","name:pt":"Reino Unido","name:ps":"\u0628\u0631\u064a\u062a\u0627\u0646\u064a\u0627","name:oc":"Reialme Unit","min_zoom":8.0,"name:ro":"Regatul Unit al Marii Britanii \u0219i al Irlandei de Nord","name:zh-min-nan":"Li\u00e2n-ha\u030dp \u00d4ng-kok","name:os":"\u0421\u0442\u044b\u0440 \u0411\u0440\u0438\u0442\u0430\u043d\u0438","name:or":"\u0b2f\u0b41\u0b15\u0b4d\u0b24\u0b30\u0b3e\u0b1c\u0b4d\u0b5f","name:pl":"Wielka Brytania","sort_rank":262,"name:sr":"\u0423\u0458\u0435\u0434\u0438\u045a\u0435\u043d\u043e \u041a\u0440\u0430\u0459\u0435\u0432\u0441\u0442\u0432\u043e","osm_relation":true,"name:pa":"\u0a38\u0a70\u0a2f\u0a41\u0a15\u0a24 \u0a2c\u0a3e\u0a26\u0a38\u0a3c\u0a3e\u0a39\u0a40","name:tr":"Birle\u015fik Krall\u0131k","name:hi":"\u092f\u0942\u0928\u093e\u0907\u091f\u0947\u0921 \u0915\u093f\u0902\u0917\u0921\u092e","name:sv":"Storbritannien","name:he":"\u05d4\u05de\u05de\u05dc\u05db\u05d4 \u05d4\u05de\u05d0\u05d5\u05d7\u05d3\u05ea","name:ha":"Birtaniya","name:hy":"\u0544\u056b\u0561\u0581\u0575\u0561\u056c \u0539\u0561\u0563\u0561\u057e\u0578\u0580\u0578\u0582\u0569\u0575\u0578\u0582\u0576","name:ht":"Way\u00f2m Ini","name:hu":"Egyes\u00fclt Kir\u00e1lys\u00e1g","name:hr":"Ujedinjeno Kraljevstvo","kind":"country","name:yi":"\u05e4\u05d0\u05e8\u05d0\u05d9\u05d9\u05e0\u05d9\u05d2\u05d8\u05e2 \u05e7\u05e2\u05e0\u05d9\u05d2\u05e8\u05d9\u05d9\u05da","name:yo":"Il\u1eb9\u0300\u1ecdba A\u1e63\u1ecd\u0300kan","name:mt":"Renju Unit","alt_name:eo":"Britio","name:mr":"\u092f\u0941\u0928\u093e\u092f\u091f\u0947\u0921 \u0915\u093f\u0902\u0917\u094d\u0921\u092e","name:my":"\u101a\u1030\u1014\u102d\u102f\u1000\u103a\u1010\u1000\u103a\u1000\u1004\u103a\u1038\u1012\u1019\u103a\u1038\u1014\u102d\u102f\u1004\u103a\u1004\u1036","name:kw":"Ruwvaneth Unys","name:mg":"Fanjakana Mitambatra","name:vi":"V\u01b0\u01a1ng qu\u1ed1c Anh","name:ml":"\u0d2f\u0d41\u0d23\u0d48\u0d31\u0d4d\u0d31\u0d21\u0d4d \u0d15\u0d3f\u0d19\u0d4d\u0d21\u0d02","name:mn":"\u0418\u0445 \u0411\u0440\u0438\u0442\u0430\u043d\u0438","name:mi":"K\u012bngitanga Kotahi","id":-62149,"name:mk":"\u041e\u0431\u0435\u0434\u0438\u043d\u0435\u0442\u043e \u041a\u0440\u0430\u043b\u0441\u0442\u0432\u043e","name:vo":"Reg\u00e4n Pebal\u00f6l","name:fa":"\u0628\u0631\u06cc\u062a\u0627\u0646\u06cc\u0627","name:rw":"Ubwongereza","short_name":"UK","name:fi":"Yhdistynyt kuningaskunta","name:ky":"\u0423\u043b\u0443\u0443 \u0411\u0440\u0438\u0442\u0430\u043d\u0438\u044f \u0436\u0430\u043d\u0430 \u0422\u04af\u043d\u0434\u04af\u043a \u0418\u0440\u043b\u0430\u043d\u0434\u0438\u044f","name:fo":"St\u00f3ra Bretland","name:fr":"Royaume-Uni","name:fy":"Feriene Keninkryk","name:nl":"Verenigd Koninkrijk","name:nn":"Storbritannia","name:no":"Storbritannia","name:na":"Ingerand","name:ne":"\u0938\u0902\u092f\u0941\u0915\u094d\u0924 \u0905\u0927\u093f\u0930\u093e\u091c\u094d\u092f","name:wo":"Nguur-Yu-Bennoo","name:nv":"T\u00f3ta\u02bc Din\u00e9\u02bci\u02bc Bik\u00e9yah","name:ga":"An R\u00edocht Aontaithe","name:gd":"An R\u00ecoghachd Aonaichte","name:gn":"Tavet\u00e3 Joaju","name:gl":"Reino Unido","maritime_boundary":true,"name:gv":"Reeriaght Unnaneysit","name:gu":"\u0aaf\u0ac1\u0aa8\u0abe\u0a87\u0a9f\u0ac7\u0aa1 \u0a95\u0abf\u0a82\u0a97\u0aa1\u0aae"},"arcs":[0]},{"type":"LineString","properties":{"name:ia":"Scotia","name:pt":"Esc\u00f3cia","name:cy":"Yr Alban","name:ar":"\u0625\u0633\u0643\u062a\u0644\u0646\u062f\u0627","alt_name:eo":"Skotio;Skotujo","name:io":"Skotia","min_zoom":8.0,"name:it":"Scozia","name:sv":"Skottland","name:ru":"\u0428\u043e\u0442\u043b\u0430\u043d\u0434\u0438\u044f","name:pl":"Szkocja","name:mi":"Koterana","id":-58446,"name:ca":"Esc\u00f2cia","name:vo":"Skot\u00e4n","alt_name:vi":"T\u00f4 C\u00e1ch Lan;Xc\u1ed1t-lan","sort_rank":256,"name:fi":"Skotlanti","name:de":"Schottland","source":"openstreetmap.org","name:fr":"\u00c9cosse","name:fy":"Skotl\u00e2n","name:nl":"Schotland","name:lt":"\u0160kotija","name:eo":"Skotlando","name:br":"Bro-Skos","name:la":"Scotia","name:sk":"\u0160k\u00f3tsko","name:be":"\u0428\u0430\u0442\u043b\u0430\u043d\u0434\u044b\u044f","name:hu":"Sk\u00f3cia","name:hr":"\u0160kotska","osm_relation":true,"kind":"region","name":"Scotland","name:gd":"Alba","maritime_boundary":true,"name:gv":"Nalbin","kind_detail":"4","name:eu":"Eskozia","name:es":"Escocia"},"arcs":[1]}]},"roads":{"type":"GeometryCollection","geometries":[{"type":"LineString","properties":{"kind":"major_road","network":"Scottish_National_Tourist_Routes","sort_rank":380,"kind_detail":"primary","is_bicycle_related":true,"bicycle_shield_text":"195","cycleway":"lane","source":"openstreetmap.org","min_zoom":8.0,"shield_text":null,"bicycle_network":"ncn","ref":"A93"},"arcs":[11]},{"type":"MultiLineString","properties":{"kind":"major_road","network":"Scottish National Tourist Routes","sort_rank":380,"kind_detail":"primary","is_bicycle_related":true,"bicycle_shield_text":"EV12","bicycle_network":"icn","source":"openstreetmap.org","min_zoom":8.0,"shield_text":null,"ref":"A92"},"arcs":[[12],[13],[14],[15],[16]]},{"type":"MultiLineString","properties":{"source":"openstreetmap.org","kind":"major_road","landuse_kind":"urban_area","sort_rank":380,"kind_detail":"primary","ref":"A945","min_zoom":8.0},"arcs":[[17],[18],[19]]},{"type":"LineString","properties":{"kind":"major_road","cycleway_left":"lane","sort_rank":379,"kind_detail":"secondary","is_bicycle_related":true,"bus_network":null,"bicycle_shield_text":"1","bicycle_network":"ncn","source":"openstreetmap.org","min_zoom":8.0,"bus_shield_text":"12","landuse_kind":"urban_area","ref":"B983","id":269436434},"arcs":[20]},{"type":"LineString","properties":{"kind":"major_road","sort_rank":380,"kind_detail":"primary","bus_network":null,"source":"openstreetmap.org","min_zoom":8.0,"bus_shield_text":"59","landuse_kind":"urban_area","ref":"A9011","id":394992436},"arcs":[21]},{"type":"MultiLineString","properties":{"bus_network":null,"sort_rank":380,"kind_detail":"primary","is_bicycle_related":true,"kind":"major_road","cycleway":"lane","source":"openstreetmap.org","min_zoom":8.0,"bus_shield_text":"20","landuse_kind":"urban_area","ref":"A978"},"arcs":[[22],[23]]},{"type":"LineString","properties":{"kind":"major_road","sort_rank":377,"kind_detail":"tertiary","is_bicycle_related":true,"bicycle_shield_text":"EV12","bicycle_network":"icn","source":"openstreetmap.org","min_zoom":8.0,"ref":"C8K","id":20633086},"arcs":[24]},{"type":"LineString","properties":{"kind":"major_road","sort_rank":377,"kind_detail":"tertiary","is_bicycle_related":true,"bicycle_shield_text":"195","bicycle_network":"ncn","source":"openstreetmap.org","min_zoom":8.0,"ref":"C35K","id":91513230},"arcs":[25]},{"type":"MultiLineString","properties":{"source":"openstreetmap.org","kind":"major_road","landuse_kind":"urban_area","sort_rank":380,"kind_detail":"primary","ref":"A956","min_zoom":8.0},"arcs":[[26],[27],[28],[29],[30],[31],[32],[33],[34],[35],[36],[37],[38],[39],[40],[41],[42],[43],[44],[45],[46],[47],[48],[49],[50],[51],[52],[53]]},{"type":"LineString","properties":{"bus_network":null,"sort_rank":380,"kind_detail":"primary","is_bicycle_related":true,"kind":"major_road","cycleway":"lane","source":"openstreetmap.org","min_zoom":8.0,"bus_shield_text":"23","landuse_kind":"urban_area","ref":"A9013","id":315947546},"arcs":[54]},{"type":"LineString","properties":{"kind":"major_road","sort_rank":380,"kind_detail":"primary","bus_network":null,"source":"openstreetmap.org","min_zoom":8.0,"bus_shield_text":"59","landuse_kind":"urban_area","id":332418950},"arcs":[55]},{"type":"MultiLineString","properties":{"source":"openstreetmap.org","kind":"major_road","landuse_kind":"urban_area","sort_rank":380,"kind_detail":"primary","min_zoom":8.0},"arcs":[[56],[57],[58],[59],[60],[61],[62],[63],[64],[65]]},{"type":"MultiLineString","properties":{"source":"openstreetmap.org","kind":"major_road","landuse_kind":"residential","sort_rank":381,"kind_detail":"trunk","ref":"A90","min_zoom":8.0},"arcs":[[66],[67]]},{"type":"LineString","properties":{"kind":"major_road","sort_rank":377,"kind_detail":"tertiary","is_bicycle_related":true,"bicycle_shield_text":"EV12","bicycle_network":"icn","source":"openstreetmap.org","min_zoom":8.0,"ref":"U88K","id":8031754},"arcs":[68]},{"type":"LineString","properties":{"kind":"major_road","sort_rank":380,"kind_detail":"primary","is_bicycle_related":true,"bus_network":null,"bicycle_shield_text":"EV12","cycleway":"lane","source":"openstreetmap.org","min_zoom":8.0,"bus_shield_text":"20","landuse_kind":"urban_area","ref":"A978","id":40632465,"bicycle_network":"icn"},"arcs":[69]},{"type":"LineString","properties":{"kind":"minor_road","sort_rank":360,"kind_detail":"residential","is_bicycle_related":true,"bicycle_shield_text":"EV12","bicycle_network":"icn","source":"openstreetmap.org","min_zoom":8.0,"old_name":"The Hardgate","id":40749995},"arcs":[70]},{"type":"MultiLineString","properties":{"source":"openstreetmap.org","kind":"major_road","landuse_kind":"urban_area","sort_rank":380,"kind_detail":"primary","ref":"A93","min_zoom":8.0},"arcs":[[71],[72],[73],[74],[75],[76],[77],[78],[79]]},{"type":"MultiLineString","properties":{"kind":"path","sort_rank":354,"kind_detail":"track","is_bicycle_related":true,"bicycle_shield_text":"195","bicycle_network":"ncn","source":"openstreetmap.org","min_zoom":8.0},"arcs":[[80],[81],[82]]},{"type":"MultiLineString","properties":{"bus_network":null,"sort_rank":380,"kind_detail":"primary","kind":"major_road","source":"openstreetmap.org","min_zoom":8.0,"bus_shield_text":"23","landuse_kind":"urban_area","ref":"A9013"},"arcs":[[83],[84]]},{"type":"MultiLineString","properties":{"source":"openstreetmap.org","kind":"major_road","sort_rank":381,"kind_detail":"trunk","ref":"A96","min_zoom":8.0},"arcs":[[85],[86],[87],[88],[89],[90],[91],[92],[93],[94],[95],[96],[97],[98],[99],[100],[101],[102],[103],[104],[105],[106],[107],[108],[109],[110],[111],[112],[113],[114],[115],[116],[117],[118]]},{"type":"MultiLineString","properties":{"kind":"minor_road","sort_rank":360,"kind_detail":"residential","is_bicycle_related":true,"bicycle_shield_text":"195","bicycle_network":"ncn","source":"openstreetmap.org","min_zoom":8.0},"arcs":[[119],[120],[121],[122]]},{"type":"LineString","properties":{"kind":"path","sort_rank":354,"landuse_kind":"urban_area","is_bicycle_related":true,"bicycle_shield_text":null,"bicycle_network":"icn","source":"openstreetmap.org","min_zoom":8.0,"kind_detail":"cycleway"},"arcs":[123]},{"type":"LineString","properties":{"kind":"minor_road","service":"driveway","sort_rank":356,"kind_detail":"service","is_bicycle_related":true,"bicycle_shield_text":"195","bicycle_network":"ncn","source":"openstreetmap.org","min_zoom":8.0},"arcs":[124]},{"type":"MultiLineString","properties":{"source":"openstreetmap.org","kind":"major_road","landuse_kind":"urban_area","sort_rank":380,"kind_detail":"primary","ref":"A933","min_zoom":8.0},"arcs":[[125],[126],[127],[128],[129],[130],[131],[132],[133],[134],[135],[136]]},{"type":"LineString","properties":{"kind":"minor_road","sort_rank":358,"kind_detail":"service","is_bicycle_related":true,"bicycle_shield_text":null,"bicycle_network":"icn","source":"openstreetmap.org","min_zoom":8.0,"landuse_kind":"urban_area","id":40490556},"arcs":[137]},{"type":"LineString","properties":{"kind":"major_road","sort_rank":379,"kind_detail":"secondary","is_bicycle_related":true,"bicycle_shield_text":"EV12","bicycle_network":"icn","source":"openstreetmap.org","min_zoom":8.0,"ref":"B979"},"arcs":[138]},{"type":"MultiLineString","properties":{"bus_network":null,"sort_rank":380,"kind_detail":"primary","is_bicycle_related":true,"kind":"major_road","cycleway":"lane","source":"openstreetmap.org","min_zoom":8.0,"bus_shield_text":"1","landuse_kind":"urban_area","ref":"A956"},"arcs":[[139],[140],[141]]},{"type":"LineString","properties":{"cycleway_right":"shared","cycleway_left":"segregated","sort_rank":380,"kind_detail":"primary","is_bicycle_related":true,"kind":"major_road","source":"openstreetmap.org","min_zoom":8.0,"ref":"A944","id":102222753},"arcs":[142]},{"type":"MultiLineString","properties":{"bus_network":null,"sort_rank":381,"landuse_kind":"urban_area","kind":"major_road","source":"openstreetmap.org","min_zoom":8.0,"bus_shield_text":"Jet 727","kind_detail":"trunk","ref":"A96"},"arcs":[[143],[144],[145],[146],[147],[148],[149],[150],[151]]},{"type":"MultiLineString","properties":{"source":"openstreetmap.org","kind":"major_road","landuse_kind":"urban_area","sort_rank":380,"kind_detail":"primary","ref":"A944","min_zoom":8.0},"arcs":[[152],[153],[154],[155],[156]]},{"type":"LineString","properties":{"kind":"major_road","sort_rank":380,"kind_detail":"primary","is_bicycle_related":true,"cycleway":"segregated","source":"openstreetmap.org","min_zoom":8.0,"landuse_kind":"residential","ref":"A944","id":114513110},"arcs":[157]},{"type":"LineString","properties":{"bus_network":null,"sort_rank":380,"kind_detail":"primary","kind":"major_road","source":"openstreetmap.org","min_zoom":8.0,"bus_shield_text":"11","landuse_kind":"urban_area","ref":"A9013"},"arcs":[158]},{"type":"LineString","properties":{"kind":"major_road","sort_rank":380,"kind_detail":"primary","is_bicycle_related":true,"bus_network":null,"cycleway":"lane","source":"openstreetmap.org","min_zoom":8.0,"bus_shield_text":"12","landuse_kind":"urban_area","ref":"A956","id":40635764},"arcs":[159]},{"type":"MultiLineString","properties":{"bus_network":null,"cycleway_left":"lane","sort_rank":380,"kind_detail":"primary","is_bicycle_related":true,"kind":"major_road","source":"openstreetmap.org","min_zoom":8.0,"bus_shield_text":"Jet 727","landuse_kind":"urban_area","ref":"A96"},"arcs":[[160],[161]]},{"type":"LineString","properties":{"bus_network":null,"sort_rank":380,"kind_detail":"primary","is_bicycle_related":true,"cycleway_right":"share_busway","source":"openstreetmap.org","min_zoom":8.0,"bus_shield_text":"1","landuse_kind":"urban_area","ref":"A956","kind":"major_road"},"arcs":[162]},{"type":"LineString","properties":{"source":"openstreetmap.org","kind":"major_road","sort_rank":380,"kind_detail":"primary","ref":"A947","min_zoom":8.0},"arcs":[163]},{"type":"LineString","properties":{"kind":"major_road","cycleway_left":"lane","sort_rank":380,"kind_detail":"primary","is_bicycle_related":true,"bus_network":null,"source":"openstreetmap.org","min_zoom":8.0,"bus_shield_text":"23","landuse_kind":"urban_area","ref":"A9013","id":315950879},"arcs":[164]},{"type":"MultiLineString","properties":{"source":"openstreetmap.org","kind":"major_road","landuse_kind":"urban_area","sort_rank":380,"kind_detail":"primary","ref":"A937","min_zoom":8.0},"arcs":[[165],[166]]},{"type":"LineString","properties":{"kind":"major_road","sort_rank":380,"landuse_kind":"residential","source":"openstreetmap.org","min_zoom":8.0,"kind_detail":"primary","ref":"A978","id":22181128},"arcs":[167]},{"type":"MultiLineString","properties":{"bus_network":null,"network":"Scottish_National_Tourist_Routes","sort_rank":380,"kind_detail":"primary","is_bicycle_related":true,"kind":"major_road","cycleway":"lane","source":"openstreetmap.org","min_zoom":8.0,"bus_shield_text":"19","shield_text":null,"landuse_kind":"urban_area","ref":"A93"},"arcs":[[168],[169]]},{"type":"MultiLineString","properties":{"kind":"major_road","sort_rank":380,"kind_detail":"primary","is_bicycle_related":true,"source":"openstreetmap.org","min_zoom":8.0,"landuse_kind":"urban_area","ref":"A956"},"arcs":[[170],[171],[172],[173]]},{"type":"LineString","properties":{"kind":"ferry","name":"Aberdeen - Kirkwall - Lerwick","sort_rank":355,"landuse_kind":"urban_area","is_bicycle_related":true,"source":"openstreetmap.org","min_zoom":8.0,"id":269377233},"arcs":[174]},{"type":"LineString","properties":{"kind":"major_road","sort_rank":380,"landuse_kind":"residential","source":"openstreetmap.org","min_zoom":8.0,"kind_detail":"primary","ref":"A9013","id":94626726},"arcs":[175]},{"type":"MultiLineString","properties":{"bus_network":null,"network":"Scottish_National_Tourist_Routes","sort_rank":380,"kind_detail":"primary","is_bicycle_related":true,"kind":"major_road","source":"openstreetmap.org","min_zoom":8.0,"bus_shield_text":"19","shield_text":null,"landuse_kind":"urban_area","ref":"A93"},"arcs":[[176],[177]]},{"type":"MultiLineString","properties":{"bus_network":null,"sort_rank":380,"kind_detail":"primary","kind":"major_road","source":"openstreetmap.org","min_zoom":8.0,"bus_shield_text":"12","landuse_kind":"urban_area"},"arcs":[[178],[179],[180]]},{"type":"LineString","properties":{"kind":"major_road","sort_rank":377,"landuse_kind":"urban_area","is_bicycle_related":true,"bicycle_shield_text":"EV12","bicycle_network":"icn","source":"openstreetmap.org","min_zoom":8.0,"kind_detail":"tertiary","ref":"C8K"},"arcs":[181]},{"type":"MultiLineString","properties":{"bus_network":null,"sort_rank":380,"kind_detail":"primary","kind":"major_road","source":"openstreetmap.org","min_zoom":8.0,"bus_shield_text":"59","landuse_kind":"urban_area","ref":"A944"},"arcs":[[182],[183]]},{"type":"LineString","properties":{"kind":"major_road","sort_rank":380,"landuse_kind":"urban_area","is_bicycle_related":true,"cycleway":"lane","source":"openstreetmap.org","min_zoom":8.0,"kind_detail":"primary","ref":"A978"},"arcs":[184]},{"type":"MultiLineString","properties":{"bus_network":null,"cycleway_left":"lane","sort_rank":380,"kind_detail":"primary","is_bicycle_related":true,"kind":"major_road","source":"openstreetmap.org","min_zoom":8.0,"bus_shield_text":"1","landuse_kind":"urban_area","ref":"A956"},"arcs":[[185],[186],[187],[188],[189]]},{"type":"MultiLineString","properties":{"kind":"minor_road","sort_rank":360,"kind_detail":"unclassified","is_bicycle_related":true,"bicycle_shield_text":"195","bicycle_network":"ncn","source":"openstreetmap.org","min_zoom":8.0},"arcs":[[190],[191],[192],[193],[194]]},{"type":"LineString","properties":{"kind":"minor_road","service":"alley","sort_rank":356,"kind_detail":"service","is_bicycle_related":true,"bicycle_shield_text":"195","bicycle_network":"ncn","source":"openstreetmap.org","min_zoom":8.0,"landuse_kind":"urban_area","id":91762634},"arcs":[195]},{"type":"MultiLineString","properties":{"source":"openstreetmap.org","kind":"major_road","sort_rank":381,"kind_detail":"trunk","ref":"A956","min_zoom":8.0},"arcs":[[196],[197]]},{"type":"MultiLineString","properties":{"kind":"path","sort_rank":354,"kind_detail":"track","is_bicycle_related":true,"bicycle_shield_text":"EV12","bicycle_network":"icn","source":"openstreetmap.org","min_zoom":8.0},"arcs":[[198],[199],[200],[201]]},{"type":"MultiLineString","properties":{"kind":"major_road","network":"Scottish_National_Tourist_Routes","sort_rank":380,"kind_detail":"primary","is_bicycle_related":true,"bicycle_shield_text":"195","bicycle_network":"ncn","source":"openstreetmap.org","min_zoom":8.0,"shield_text":null,"ref":"A93"},"arcs":[[202],[203],[204]]},{"type":"LineString","properties":{"cycleway_right":"shared","cycleway_left":"segregated","sort_rank":380,"kind_detail":"primary","is_bicycle_related":true,"kind":"major_road","source":"openstreetmap.org","min_zoom":8.0,"landuse_kind":"urban_area","ref":"A944","id":102222753},"arcs":[205]},{"type":"MultiLineString","properties":{"bus_network":null,"sort_rank":380,"kind_detail":"primary","is_bicycle_related":true,"kind":"major_road","source":"openstreetmap.org","min_zoom":8.0,"bus_shield_text":"12","landuse_kind":"urban_area","ref":"A956"},"arcs":[[206],[207]]},{"type":"MultiLineString","properties":{"bus_network":null,"sort_rank":380,"kind_detail":"primary","is_bicycle_related":true,"kind":"major_road","cycleway":"lane","source":"openstreetmap.org","min_zoom":8.0,"bus_shield_text":"19","landuse_kind":"urban_area","ref":"A93"},"arcs":[[208],[209]]},{"type":"LineString","properties":{"kind":"major_road","sort_rank":380,"kind_detail":"primary","bus_network":null,"source":"openstreetmap.org","min_zoom":8.0,"bus_shield_text":"11","landuse_kind":"residential","ref":"A978","id":5219410},"arcs":[210]},{"type":"LineString","properties":{"kind":"major_road","network":"Scottish National Tourist Routes","sort_rank":379,"kind_detail":"secondary","is_bicycle_related":true,"bicycle_shield_text":"EV12","bicycle_network":"icn","source":"openstreetmap.org","min_zoom":8.0,"shield_text":null,"ref":"B979"},"arcs":[211]},{"type":"MultiLineString","properties":{"cycleway_right":"shared","cycleway_left":"lane","sort_rank":380,"kind_detail":"primary","is_bicycle_related":true,"kind":"major_road","source":"openstreetmap.org","min_zoom":8.0,"landuse_kind":"urban_area","ref":"A944"},"arcs":[[212],[213]]},{"type":"MultiLineString","properties":{"kind":"path","sort_rank":354,"kind_detail":"cycleway","is_bicycle_related":true,"bicycle_shield_text":"EV12","bicycle_network":"icn","source":"openstreetmap.org","min_zoom":8.0},"arcs":[[214],[215],[216],[217],[218],[219],[220],[221]]},{"type":"MultiLineString","properties":{"source":"openstreetmap.org","kind":"major_road","sort_rank":380,"kind_detail":"primary","ref":"A933","min_zoom":8.0},"arcs":[[222],[223]]},{"type":"LineString","properties":{"kind":"major_road","sort_rank":381,"kind_detail":"trunk","bus_network":null,"source":"openstreetmap.org","min_zoom":8.0,"bus_shield_text":"1","landuse_kind":"urban_area","ref":"A90","id":8028995},"arcs":[224]},{"type":"MultiLineString","properties":{"kind":"major_road","sort_rank":377,"kind_detail":"tertiary","is_bicycle_related":true,"bicycle_shield_text":"EV12","bicycle_network":"icn","source":"openstreetmap.org","min_zoom":8.0},"arcs":[[225],[226],[227],[228],[229],[230],[231],[232],[233],[234],[235],[236],[237],[238],[239],[240],[241],[242],[243]]},{"type":"LineString","properties":{"kind":"path","service":"parking_aisle","sort_rank":354,"kind_detail":"track","is_bicycle_related":true,"bicycle_shield_text":"195","bicycle_network":"ncn","source":"openstreetmap.org","min_zoom":8.0,"id":91377701},"arcs":[244]},{"type":"LineString","properties":{"kind":"major_road","sort_rank":380,"kind_detail":"primary","is_bicycle_related":true,"bus_network":null,"bicycle_shield_text":"EV12","bicycle_network":"icn","source":"openstreetmap.org","min_zoom":8.0,"bus_shield_text":"11","landuse_kind":"urban_area","ref":"A9013","id":263562956},"arcs":[245]},{"type":"MultiLineString","properties":{"source":"openstreetmap.org","kind":"major_road","sort_rank":380,"kind_detail":"primary","ref":"A935","min_zoom":8.0},"arcs":[[246],[247],[248],[249],[250]]},{"type":"LineString","properties":{"kind":"minor_road","sort_rank":360,"kind_detail":"residential","is_bicycle_related":true,"bicycle_shield_text":null,"bicycle_network":"icn","source":"openstreetmap.org","min_zoom":8.0,"landuse_kind":"urban_area","id":6952365},"arcs":[251]},{"type":"MultiLineString","properties":{"bus_network":null,"sort_rank":380,"kind_detail":"primary","kind":"major_road","source":"openstreetmap.org","min_zoom":8.0,"bus_shield_text":"20","landuse_kind":"urban_area","ref":"A978"},"arcs":[[252],[253]]},{"type":"LineString","properties":{"kind":"major_road","cycleway_left":"shared","sort_rank":380,"kind_detail":"primary","is_bicycle_related":true,"source":"openstreetmap.org","min_zoom":8.0,"landuse_kind":"urban_area","ref":"A944","id":102222712},"arcs":[254]},{"type":"MultiLineString","properties":{"kind":"minor_road","sort_rank":358,"kind_detail":"service","is_bicycle_related":true,"bicycle_shield_text":"195","bicycle_network":"ncn","source":"openstreetmap.org","min_zoom":8.0},"arcs":[[255],[256],[257]]},{"type":"MultiLineString","properties":{"kind":"path","sort_rank":354,"kind_detail":"cycleway","is_bicycle_related":true,"bicycle_shield_text":"195","bicycle_network":"ncn","source":"openstreetmap.org","min_zoom":8.0},"arcs":[[258],[259],[260],[261],[262],[263],[264],[265],[266],[267],[268],[269],[270],[271],[272],[273],[274],[275],[276],[277]]},{"type":"MultiLineString","properties":{"kind":"minor_road","sort_rank":360,"kind_detail":"residential","is_bicycle_related":true,"bicycle_shield_text":"EV12","bicycle_network":"icn","source":"openstreetmap.org","min_zoom":8.0},"arcs":[[278],[279],[280],[281],[282]]},{"type":"LineString","properties":{"source":"openstreetmap.org","kind":"major_road","landuse_kind":"residential","sort_rank":380,"kind_detail":"primary","ref":"A93","min_zoom":8.0},"arcs":[283]},{"type":"LineString","properties":{"kind":"major_road","sort_rank":381,"kind_detail":"trunk","bus_network":null,"source":"openstreetmap.org","min_zoom":8.0,"bus_shield_text":"11","landuse_kind":"urban_area","id":7919319},"arcs":[284]},{"type":"LineString","properties":{"kind":"major_road","sort_rank":380,"kind_detail":"primary","is_bicycle_related":true,"bicycle_shield_text":"EV12","cycleway":"lane","source":"openstreetmap.org","min_zoom":8.0,"landuse_kind":"urban_area","bicycle_network":"icn","ref":"A947"},"arcs":[285]},{"type":"MultiLineString","properties":{"cycleway_right":"lane","cycleway_left":"shared","sort_rank":380,"kind_detail":"primary","is_bicycle_related":true,"kind":"major_road","source":"openstreetmap.org","min_zoom":8.0,"landuse_kind":"urban_area","ref":"A944"},"arcs":[[286],[287]]},{"type":"MultiLineString","properties":{"source":"openstreetmap.org","kind":"major_road","sort_rank":380,"kind_detail":"primary","ref":"A980","min_zoom":8.0},"arcs":[[288],[289]]},{"type":"MultiLineString","properties":{"kind":"major_road","network":"Scottish_National_Tourist_Routes","sort_rank":380,"kind_detail":"primary","is_bicycle_related":true,"cycleway":"lane","source":"openstreetmap.org","min_zoom":8.0,"shield_text":null,"ref":"A93"},"arcs":[[290],[291]]},{"type":"LineString","properties":{"kind":"major_road","network":"Scottish National Tourist Routes","sort_rank":380,"kind_detail":"primary","is_bicycle_related":true,"source":"openstreetmap.org","min_zoom":8.0,"shield_text":null,"ref":"A92"},"arcs":[292]},{"type":"LineString","properties":{"kind":"major_road","sort_rank":379,"kind_detail":"secondary","is_bicycle_related":true,"bicycle_shield_text":"EV12","bicycle_network":"icn","source":"openstreetmap.org","min_zoom":8.0,"ref":"B9100","id":40754387},"arcs":[293]},{"type":"MultiLineString","properties":{"source":"openstreetmap.org","kind":"major_road","network":"Scottish National Tourist Routes","sort_rank":380,"kind_detail":"primary","min_zoom":8.0,"shield_text":null},"arcs":[[294],[295],[296],[297],[298]]},{"type":"MultiLineString","properties":{"bus_network":null,"sort_rank":381,"kind_detail":"trunk","kind":"major_road","source":"openstreetmap.org","min_zoom":8.0,"bus_shield_text":"21","ref":"A90"},"arcs":[[299],[300],[301],[302],[303]]},{"type":"MultiLineString","properties":{"source":"openstreetmap.org","kind":"major_road","landuse_kind":"urban_area","sort_rank":380,"kind_detail":"primary","ref":"A96","min_zoom":8.0},"arcs":[[304],[305],[306]]},{"type":"MultiLineString","properties":{"source":"openstreetmap.org","kind":"major_road","sort_rank":381,"kind_detail":"trunk","ref":"A90","min_zoom":8.0},"arcs":[[307],[308],[309],[310],[311],[312],[313],[314],[315],[316],[317],[318],[319],[320],[321],[322],[323],[324],[325],[326],[327],[328],[329],[330],[331],[332],[333],[334],[335],[336],[337],[338],[339],[340],[341],[342],[343],[344],[345],[346],[347],[348],[349],[350],[351],[352],[353],[354],[355],[356],[357],[358],[359],[360],[361],[362]]},{"type":"LineString","properties":{"kind":"major_road","sort_rank":380,"kind_detail":"primary","is_bicycle_related":true,"bus_network":null,"source":"openstreetmap.org","min_zoom":8.0,"bus_shield_text":"Jet 727","landuse_kind":"urban_area","ref":"A9013","id":40634997},"arcs":[363]},{"type":"LineString","properties":{"bus_network":null,"sort_rank":377,"landuse_kind":"urban_area","is_bicycle_related":true,"kind":"major_road","bicycle_shield_text":"EV12","bicycle_network":"icn","source":"openstreetmap.org","min_zoom":8.0,"bus_shield_text":"20","kind_detail":"tertiary","ref":"C157C"},"arcs":[364]},{"type":"LineString","properties":{"kind":"path","sort_rank":354,"landuse_kind":"urban_area","is_bicycle_related":true,"bicycle_shield_text":"195","bicycle_network":"ncn","source":"openstreetmap.org","min_zoom":8.0,"kind_detail":"cycleway"},"arcs":[365]},{"type":"MultiLineString","properties":{"kind":"major_road","sort_rank":380,"landuse_kind":"urban_area","is_bicycle_related":true,"cycleway":"lane","source":"openstreetmap.org","min_zoom":8.0,"kind_detail":"primary","ref":"A947"},"arcs":[[366],[367],[368]]},{"type":"MultiLineString","properties":{"bus_network":null,"sort_rank":381,"landuse_kind":"urban_area","kind":"major_road","source":"openstreetmap.org","min_zoom":8.0,"bus_shield_text":"59","kind_detail":"trunk","ref":"A90"},"arcs":[[369],[370]]},{"type":"LineString","properties":{"kind":"major_road","sort_rank":377,"kind_detail":"tertiary","is_bicycle_related":true,"bus_network":null,"bicycle_shield_text":"1","bicycle_network":"ncn","source":"openstreetmap.org","min_zoom":8.0,"bus_shield_text":"Jet 727","landuse_kind":"urban_area","ref":"C157C","id":5218452},"arcs":[371]},{"type":"MultiLineString","properties":{"source":"openstreetmap.org","kind":"major_road","sort_rank":380,"kind_detail":"primary","ref":"A937","min_zoom":8.0},"arcs":[[372],[373],[374]]},{"type":"LineString","properties":{"kind":"major_road","network":"Scottish National Tourist Routes","sort_rank":380,"kind_detail":"primary","is_bicycle_related":true,"bicycle_shield_text":"1","bicycle_network":"ncn","source":"openstreetmap.org","min_zoom":8.0,"shield_text":null,"ref":"A92","id":40750003},"arcs":[375]},{"type":"LineString","properties":{"kind":"major_road","sort_rank":377,"kind_detail":"tertiary","is_bicycle_related":true,"bus_network":null,"bicycle_shield_text":"1","bicycle_network":"ncn","source":"openstreetmap.org","min_zoom":8.0,"bus_shield_text":"20","landuse_kind":"urban_area","ref":"C157C","id":316458895},"arcs":[376]},{"type":"MultiLineString","properties":{"kind":"minor_road","sort_rank":360,"kind_detail":"unclassified","is_bicycle_related":true,"bicycle_shield_text":"EV12","bicycle_network":"icn","source":"openstreetmap.org","min_zoom":8.0},"arcs":[[377],[378],[379],[380],[381],[382],[383],[384],[385],[386],[387],[388],[389],[390],[391],[392],[393],[394],[395],[396]]},{"type":"MultiLineString","properties":{"kind":"major_road","cycleway_left":"lane","sort_rank":380,"kind_detail":"primary","is_bicycle_related":true,"source":"openstreetmap.org","min_zoom":8.0,"landuse_kind":"urban_area","ref":"A944"},"arcs":[[397],[398]]},{"type":"LineString","properties":{"bus_network":null,"sort_rank":377,"landuse_kind":"urban_area","is_bicycle_related":true,"kind":"major_road","bicycle_shield_text":"EV12","bicycle_network":"icn","source":"openstreetmap.org","min_zoom":8.0,"bus_shield_text":"19","kind_detail":"tertiary","cycleway":"track","ref":"C157C"},"arcs":[399]},{"type":"MultiLineString","properties":{"sort_rank":380,"kind_detail":"primary","min_zoom":8.0,"kind":"major_road","source":"openstreetmap.org"},"arcs":[[400],[401]]},{"type":"LineString","properties":{"source":"openstreetmap.org","kind":"ferry","name":"Aberdeen-Lerwick","sort_rank":355,"min_zoom":8.0,"id":37873594},"arcs":[402]},{"type":"MultiLineString","properties":{"sort_rank":381,"source":"openstreetmap.org","min_zoom":8.0,"kind":"major_road","kind_detail":"trunk"},"arcs":[[403],[404],[405]]},{"type":"MultiLineString","properties":{"source":"openstreetmap.org","kind":"major_road","sort_rank":380,"kind_detail":"primary","ref":"A92","min_zoom":8.0},"arcs":[[406],[407],[408]]},{"type":"LineString","properties":{"kind":"major_road","sort_rank":380,"kind_detail":"primary","is_bicycle_related":true,"bus_network":null,"source":"openstreetmap.org","min_zoom":8.0,"bus_shield_text":"Jet 727","landuse_kind":"urban_area","ref":"A956","id":9166501},"arcs":[409]},{"type":"MultiLineString","properties":{"kind":"major_road","network":"Scottish National Tourist Routes","sort_rank":380,"kind_detail":"primary","source":"openstreetmap.org","min_zoom":8.0,"shield_text":null,"ref":"A92"},"arcs":[[410],[411],[412],[413],[414],[415],[416],[417],[418],[419],[420],[421],[422],[423],[424],[425],[426],[427],[428],[429],[430],[431],[432],[433],[434],[435],[436],[437],[438],[439],[440]]},{"type":"LineString","properties":{"kind":"major_road","sort_rank":379,"kind_detail":"secondary","is_bicycle_related":true,"bicycle_shield_text":"EV12","bicycle_network":"icn","source":"openstreetmap.org","min_zoom":8.0,"ref":"B9133"},"arcs":[441]},{"type":"MultiLineString","properties":{"kind":"path","sort_rank":354,"landuse_kind":"urban_area","is_bicycle_related":true,"bicycle_shield_text":"EV12","bicycle_network":"icn","source":"openstreetmap.org","min_zoom":8.0,"kind_detail":"footway"},"arcs":[[442],[443],[444]]},{"type":"LineString","properties":{"kind":"path","sort_rank":354,"kind_detail":"cycleway","is_bicycle_related":true,"bicycle_shield_text":"1","bicycle_network":"ncn","source":"openstreetmap.org","min_zoom":8.0,"landuse_kind":"urban_area"},"arcs":[445]},{"type":"LineString","properties":{"kind":"major_road","sort_rank":380,"landuse_kind":"urban_area","source":"openstreetmap.org","min_zoom":8.0,"kind_detail":"primary","ref":"A92","id":486871964},"arcs":[446]},{"type":"MultiLineString","properties":{"kind":"major_road","network":"Scottish_National_Tourist_Routes","sort_rank":380,"kind_detail":"primary","source":"openstreetmap.org","min_zoom":8.0,"shield_text":null,"ref":"A93"},"arcs":[[447],[448],[449],[450],[451],[452]]},{"type":"LineString","properties":{"kind":"major_road","sort_rank":380,"kind_detail":"primary","bus_network":null,"source":"openstreetmap.org","min_zoom":8.0,"bus_shield_text":"Jet 727","landuse_kind":"urban_area","ref":"A956","id":40635755},"arcs":[453]},{"type":"LineString","properties":{"bus_network":null,"sort_rank":380,"kind_detail":"primary","kind":"major_road","source":"openstreetmap.org","min_zoom":8.0,"bus_shield_text":"Jet 727","landuse_kind":"urban_area"},"arcs":[454]},{"type":"MultiLineString","properties":{"source":"openstreetmap.org","kind":"major_road","sort_rank":380,"kind_detail":"primary","ref":"A957","min_zoom":8.0},"arcs":[[455],[456],[457]]},{"type":"LineString","properties":{"kind":"major_road","network":"Scottish National Tourist Routes","sort_rank":380,"kind_detail":"primary","source":"openstreetmap.org","min_zoom":8.0,"shield_text":null,"ref":"A957","id":129787325},"arcs":[458]},{"type":"MultiLineString","properties":{"kind":"minor_road","service":"parking_aisle","sort_rank":356,"kind_detail":"service","is_bicycle_related":true,"bicycle_shield_text":"195","bicycle_network":"ncn","source":"openstreetmap.org","min_zoom":8.0},"arcs":[[459],[460],[461]]},{"type":"LineString","properties":{"source":"openstreetmap.org","kind":"major_road","sort_rank":381,"kind_detail":"trunk","ref":"A975","min_zoom":8.0},"arcs":[462]},{"type":"MultiLineString","properties":{"kind":"path","sort_rank":354,"kind_detail":"footway","is_bicycle_related":true,"bicycle_shield_text":"195","bicycle_network":"ncn","source":"openstreetmap.org","min_zoom":8.0},"arcs":[[463],[464]]},{"type":"LineString","properties":{"kind":"path","sort_rank":354,"kind_detail":"footway","is_bicycle_related":true,"bicycle_shield_text":"1","bicycle_network":"ncn","source":"openstreetmap.org","min_zoom":8.0,"landuse_kind":"urban_area","id":272286838},"arcs":[465]},{"type":"LineString","properties":{"cycleway_right":"lane","sort_rank":380,"kind_detail":"primary","is_bicycle_related":true,"kind":"major_road","bus_network":null,"source":"openstreetmap.org","min_zoom":8.0,"bus_shield_text":"59","landuse_kind":"urban_area","ref":"A944","id":8114522},"arcs":[466]},{"type":"MultiLineString","properties":{"source":"openstreetmap.org","kind":"major_road","ref":"A980","sort_rank":380,"kind_detail":"primary","is_bicycle_related":true,"min_zoom":8.0},"arcs":[[467],[468],[469]]},{"type":"MultiLineString","properties":{"bus_network":null,"sort_rank":381,"landuse_kind":"residential","kind":"major_road","source":"openstreetmap.org","min_zoom":8.0,"bus_shield_text":"59","kind_detail":"trunk","ref":"A90"},"arcs":[[470],[471]]},{"type":"MultiLineString","properties":{"kind":"path","sort_rank":354,"landuse_kind":"urban_area","is_bicycle_related":true,"bicycle_shield_text":"EV12","bicycle_network":"icn","source":"openstreetmap.org","min_zoom":8.0,"kind_detail":"cycleway"},"arcs":[[472],[473],[474],[475],[476],[477],[478],[479]]},{"type":"MultiLineString","properties":{"source":"openstreetmap.org","kind":"major_road","kind_detail":"trunk","sort_rank":381,"landuse_kind":"urban_area","min_zoom":8.0},"arcs":[[480],[481],[482],[483],[484],[485]]},{"type":"MultiLineString","properties":{"kind":"major_road","sort_rank":380,"kind_detail":"primary","is_bicycle_related":true,"cycleway":"lane","source":"openstreetmap.org","min_zoom":8.0,"landuse_kind":"urban_area","ref":"A944"},"arcs":[[486],[487],[488]]},{"type":"LineString","properties":{"kind":"major_road","sort_rank":380,"kind_detail":"primary","bus_network":null,"source":"openstreetmap.org","min_zoom":8.0,"bus_shield_text":"Jet 727","landuse_kind":"urban_area","ref":"A9013","id":336005050},"arcs":[489]},{"type":"MultiLineString","properties":{"bus_network":null,"sort_rank":381,"landuse_kind":"urban_area","kind":"major_road","source":"openstreetmap.org","min_zoom":8.0,"bus_shield_text":"Jet 727","kind_detail":"trunk"},"arcs":[[490],[491],[492],[493],[494]]},{"type":"LineString","properties":{"kind":"major_road","sort_rank":381,"kind_detail":"trunk","is_bicycle_related":true,"bicycle_shield_text":"EV12","bicycle_network":"icn","source":"openstreetmap.org","min_zoom":8.0,"landuse_kind":"urban_area","ref":"A90","id":7724704},"arcs":[495]},{"type":"LineString","properties":{"kind":"major_road","sort_rank":380,"kind_detail":"primary","bus_network":null,"source":"openstreetmap.org","min_zoom":8.0,"bus_shield_text":"2","landuse_kind":"residential","ref":"A9013","id":347637937},"arcs":[496]},{"type":"LineString","properties":{"source":"openstreetmap.org","kind":"ferry","name":"Aberdeen - Kirkwall - Lerwick","sort_rank":355,"is_bicycle_related":true,"min_zoom":8.0},"arcs":[497]},{"type":"MultiLineString","properties":{"kind":"major_road","sort_rank":380,"kind_detail":"primary","is_bicycle_related":true,"source":"openstreetmap.org","min_zoom":8.0,"landuse_kind":"urban_area","ref":"A947"},"arcs":[[498],[499]]},{"type":"LineString","properties":{"source":"openstreetmap.org","kind":"major_road","sort_rank":380,"kind_detail":"primary","ref":"A975","min_zoom":8.0},"arcs":[500]},{"type":"LineString","properties":{"kind":"minor_road","sort_rank":360,"kind_detail":"unclassified","is_bicycle_related":true,"bicycle_shield_text":"1","bicycle_network":"ncn","source":"openstreetmap.org","min_zoom":8.0},"arcs":[501]},{"type":"LineString","properties":{"kind":"major_road","sort_rank":377,"kind_detail":"tertiary","is_bicycle_related":true,"bicycle_shield_text":"EV12","bicycle_network":"icn","source":"openstreetmap.org","min_zoom":8.0,"landuse_kind":"urban_area","ref":"C157C","id":44038370},"arcs":[502]},{"type":"LineString","properties":{"kind":"major_road","sort_rank":381,"kind_detail":"trunk","bus_network":null,"source":"openstreetmap.org","min_zoom":8.0,"bus_shield_text":"12","landuse_kind":"urban_area","ref":"A90","id":5463296},"arcs":[503]},{"type":"MultiLineString","properties":{"source":"openstreetmap.org","kind":"major_road","landuse_kind":"urban_area","sort_rank":380,"kind_detail":"primary","ref":"A9011","min_zoom":8.0},"arcs":[[504],[505],[506],[507]]},{"type":"LineString","properties":{"source":"openstreetmap.org","kind":"major_road","sort_rank":380,"kind_detail":"primary","ref":"A934","min_zoom":8.0},"arcs":[508]},{"type":"LineString","properties":{"kind":"major_road","sort_rank":380,"kind_detail":"primary","is_bicycle_related":true,"bicycle_shield_text":"EV12","bicycle_network":"icn","source":"openstreetmap.org","min_zoom":8.0,"landuse_kind":"urban_area","ref":"A956"},"arcs":[509]},{"type":"LineString","properties":{"kind":"major_road","sort_rank":380,"kind_detail":"primary","is_bicycle_related":true,"bicycle_shield_text":null,"bicycle_network":"icn","source":"openstreetmap.org","min_zoom":8.0,"landuse_kind":"urban_area","ref":"A947","id":40490715},"arcs":[510]},{"type":"LineString","properties":{"kind":"major_road","network":"Scottish National Tourist Routes","sort_rank":380,"kind_detail":"primary","is_bicycle_related":true,"bicycle_shield_text":"EV12","bicycle_network":"icn","source":"openstreetmap.org","min_zoom":8.0,"shield_text":null,"ref":"A957"},"arcs":[511]},{"type":"LineString","properties":{"kind":"major_road","sort_rank":380,"kind_detail":"primary","bus_network":null,"source":"openstreetmap.org","min_zoom":8.0,"bus_shield_text":"12","landuse_kind":"urban_area","ref":"A978","id":5465479},"arcs":[512]},{"type":"LineString","properties":{"kind":"major_road","sort_rank":379,"kind_detail":"secondary","is_bicycle_related":true,"bus_network":null,"bicycle_shield_text":"1","bicycle_network":"ncn","source":"openstreetmap.org","min_zoom":8.0,"bus_shield_text":"12","landuse_kind":"urban_area","ref":"B983","id":5219681},"arcs":[513]},{"type":"LineString","properties":{"kind":"major_road","sort_rank":380,"kind_detail":"primary","bus_network":null,"source":"openstreetmap.org","min_zoom":8.0,"bus_shield_text":"2","landuse_kind":"residential","ref":"A6013","id":347637939},"arcs":[514]},{"type":"LineString","properties":{"kind":"major_road","sort_rank":380,"kind_detail":"primary","is_bicycle_related":true,"cycleway":"lane","source":"openstreetmap.org","min_zoom":8.0,"ref":"A944","id":102222723},"arcs":[515]},{"type":"LineString","properties":{"kind":"major_road","sort_rank":380,"kind_detail":"primary","is_bicycle_related":true,"bus_network":null,"source":"openstreetmap.org","min_zoom":8.0,"bus_shield_text":"19","landuse_kind":"residential","ref":"A93","id":3578295},"arcs":[516]},{"type":"LineString","properties":{"kind":"major_road","sort_rank":377,"kind_detail":"tertiary","is_bicycle_related":true,"bicycle_shield_text":"EV12","bicycle_network":"icn","source":"openstreetmap.org","min_zoom":8.0,"ref":"C24K"},"arcs":[517]},{"type":"LineString","properties":{"kind":"major_road","sort_rank":377,"kind_detail":"tertiary","is_bicycle_related":true,"bicycle_shield_text":"EV12","bicycle_network":"icn","source":"openstreetmap.org","min_zoom":8.0,"ref":"C12K"},"arcs":[518]},{"type":"MultiLineString","properties":{"kind":"minor_road","sort_rank":358,"landuse_kind":"urban_area","is_bicycle_related":true,"bicycle_shield_text":"EV12","bicycle_network":"icn","source":"openstreetmap.org","min_zoom":8.0,"kind_detail":"service"},"arcs":[[519],[520],[521],[522]]},{"type":"MultiLineString","properties":{"bus_network":null,"cycleway_left":"lane","sort_rank":380,"kind_detail":"primary","is_bicycle_related":true,"kind":"major_road","source":"openstreetmap.org","min_zoom":8.0,"bus_shield_text":"59","landuse_kind":"urban_area","ref":"A944"},"arcs":[[523],[524],[525]]},{"type":"LineString","properties":{"kind":"major_road","network":"Scottish National Tourist Routes","sort_rank":380,"kind_detail":"primary","is_bicycle_related":true,"bicycle_network":"lcn","source":"openstreetmap.org","min_zoom":8.0,"landuse_kind":"urban_area","shield_text":null,"ref":"A92","id":26206820},"arcs":[526]},{"type":"LineString","properties":{"kind":"major_road","sort_rank":380,"kind_detail":"primary","bus_network":null,"source":"openstreetmap.org","min_zoom":8.0,"bus_shield_text":"12","landuse_kind":"urban_area","ref":"A9012","id":8056625},"arcs":[527]},{"type":"MultiLineString","properties":{"kind":"major_road","sort_rank":380,"kind_detail":"primary","is_bicycle_related":true,"cycleway":"segregated","source":"openstreetmap.org","min_zoom":8.0,"landuse_kind":"urban_area","ref":"A944"},"arcs":[[528],[529],[530]]},{"type":"LineString","properties":{"kind":"major_road","sort_rank":380,"kind_detail":"primary","is_bicycle_related":true,"bus_network":null,"cycleway":"lane","source":"openstreetmap.org","min_zoom":8.0,"bus_shield_text":"59","landuse_kind":"urban_area","ref":"A944","id":102222740},"arcs":[531]},{"type":"MultiLineString","properties":{"bus_network":null,"sort_rank":380,"kind_detail":"primary","kind":"major_road","source":"openstreetmap.org","min_zoom":8.0,"bus_shield_text":"1","landuse_kind":"residential","ref":"A9013"},"arcs":[[532],[533],[534],[535],[536],[537],[538]]},{"type":"LineString","properties":{"kind":"minor_road","sort_rank":360,"kind_detail":"residential","is_bicycle_related":true,"bicycle_shield_text":"1","bicycle_network":"ncn","source":"openstreetmap.org","min_zoom":8.0,"landuse_kind":"urban_area","id":316458893},"arcs":[539]},{"type":"MultiLineString","properties":{"kind":"major_road","cycleway_left":"lane","sort_rank":380,"kind_detail":"primary","is_bicycle_related":true,"source":"openstreetmap.org","min_zoom":8.0,"landuse_kind":"urban_area","ref":"A93"},"arcs":[[540],[541],[542]]},{"type":"LineString","properties":{"kind":"major_road","sort_rank":380,"kind_detail":"primary","is_bicycle_related":true,"cycleway":"shared","source":"openstreetmap.org","min_zoom":8.0,"landuse_kind":"urban_area","ref":"A944","id":102222738},"arcs":[543]},{"type":"MultiLineString","properties":{"kind":"major_road","sort_rank":377,"landuse_kind":"urban_area","is_bicycle_related":true,"bicycle_shield_text":"EV12","bicycle_network":"icn","source":"openstreetmap.org","min_zoom":8.0,"kind_detail":"tertiary","ref":"C48C"},"arcs":[[544],[545],[546]]},{"type":"LineString","properties":{"kind":"major_road","sort_rank":377,"kind_detail":"tertiary","is_bicycle_related":true,"bicycle_shield_text":"EV12","cycleway":"lane","source":"openstreetmap.org","min_zoom":8.0,"bicycle_network":"icn"},"arcs":[547]},{"type":"LineString","properties":{"source":"openstreetmap.org","kind":"ferry","name":"Aberdeen-Lerwick","sort_rank":355,"landuse_kind":"urban_area","min_zoom":8.0,"id":37873594},"arcs":[548]},{"type":"LineString","properties":{"kind":"major_road","sort_rank":377,"kind_detail":"tertiary","is_bicycle_related":true,"bicycle_shield_text":"EV12","bicycle_network":"icn","source":"openstreetmap.org","min_zoom":8.0,"ref":"C154C","id":129881285},"arcs":[549]},{"type":"LineString","properties":{"cycleway_right":"lane","sort_rank":380,"kind_detail":"primary","is_bicycle_related":true,"kind":"major_road","bus_network":null,"source":"openstreetmap.org","min_zoom":8.0,"bus_shield_text":"23","landuse_kind":"urban_area","ref":"A9013","id":315950878},"arcs":[550]},{"type":"MultiLineString","properties":{"kind":"major_road","network":"Scottish National Tourist Routes","sort_rank":380,"kind_detail":"primary","source":"openstreetmap.org","min_zoom":8.0,"landuse_kind":"urban_area","shield_text":null,"ref":"A92"},"arcs":[[551],[552],[553],[554],[555],[556],[557],[558],[559],[560],[561],[562],[563]]},{"type":"MultiLineString","properties":{"source":"openstreetmap.org","kind":"major_road","sort_rank":380,"kind_detail":"primary","ref":"A956","min_zoom":8.0},"arcs":[[564],[565],[566],[567]]},{"type":"MultiLineString","properties":{"kind":"major_road","network":"Scottish National Tourist Routes","sort_rank":380,"kind_detail":"primary","source":"openstreetmap.org","min_zoom":8.0,"shield_text":null,"ref":"A944"},"arcs":[[568],[569],[570],[571],[572],[573],[574],[575],[576],[577],[578],[579],[580],[581],[582]]},{"type":"LineString","properties":{"kind":"major_road","sort_rank":377,"kind_detail":"tertiary","is_bicycle_related":true,"bus_network":null,"bicycle_shield_text":"EV12","bicycle_network":"icn","source":"openstreetmap.org","min_zoom":8.0,"bus_shield_text":"20","landuse_kind":"urban_area","id":4673958},"arcs":[583]},{"type":"MultiLineString","properties":{"source":"openstreetmap.org","kind":"major_road","sort_rank":380,"kind_detail":"primary","ref":"A944","min_zoom":8.0},"arcs":[[584],[585],[586],[587],[588],[589],[590]]},{"type":"MultiLineString","properties":{"source":"openstreetmap.org","kind":"major_road","landuse_kind":"urban_area","sort_rank":380,"kind_detail":"primary","ref":"A978","min_zoom":8.0},"arcs":[[591],[592],[593],[594],[595],[596]]},{"type":"LineString","properties":{"kind":"major_road","sort_rank":380,"kind_detail":"primary","is_bicycle_related":true,"bus_network":null,"cycleway":"lane","source":"openstreetmap.org","min_zoom":8.0,"bus_shield_text":"19","landuse_kind":"residential","ref":"A93","id":88313262},"arcs":[597]},{"type":"MultiLineString","properties":{"kind":"major_road","network":"Scottish_National_Tourist_Routes","sort_rank":380,"kind_detail":"primary","is_bicycle_related":true,"source":"openstreetmap.org","min_zoom":8.0,"shield_text":null,"ref":"A93"},"arcs":[[598],[599],[600],[601]]},{"type":"MultiLineString","properties":{"bus_network":null,"sort_rank":380,"kind_detail":"primary","kind":"major_road","source":"openstreetmap.org","min_zoom":8.0,"bus_shield_text":"12","landuse_kind":"urban_area","ref":"A93"},"arcs":[[602],[603]]},{"type":"MultiLineString","properties":{"cycleway_right":"shared","sort_rank":380,"kind_detail":"primary","is_bicycle_related":true,"kind":"major_road","source":"openstreetmap.org","min_zoom":8.0,"landuse_kind":"urban_area","ref":"A944"},"arcs":[[604],[605]]},{"type":"MultiLineString","properties":{"source":"openstreetmap.org","kind":"major_road","landuse_kind":"urban_area","sort_rank":380,"kind_detail":"primary","ref":"A947","min_zoom":8.0},"arcs":[[606],[607],[608],[609],[610],[611],[612],[613],[614],[615],[616],[617],[618],[619],[620],[621]]},{"type":"MultiLineString","properties":{"bus_network":null,"sort_rank":380,"kind_detail":"primary","kind":"major_road","source":"openstreetmap.org","min_zoom":8.0,"bus_shield_text":"23","landuse_kind":"urban_area","ref":"A96"},"arcs":[[622],[623]]},{"type":"MultiLineString","properties":{"source":"openstreetmap.org","kind":"major_road","landuse_kind":"urban_area","sort_rank":380,"kind_detail":"primary","ref":"A9012","min_zoom":8.0},"arcs":[[624],[625],[626],[627],[628],[629]]},{"type":"LineString","properties":{"bus_network":null,"sort_rank":377,"landuse_kind":"urban_area","is_bicycle_related":true,"kind":"major_road","bicycle_shield_text":"EV12","bicycle_network":"icn","source":"openstreetmap.org","min_zoom":8.0,"bus_shield_text":"Jet 727","kind_detail":"tertiary","ref":"C157C"},"arcs":[630]},{"type":"LineString","properties":{"kind":"major_road","sort_rank":377,"kind_detail":"tertiary","is_bicycle_related":true,"bus_network":null,"bicycle_shield_text":"EV12","bicycle_network":"icn","source":"openstreetmap.org","min_zoom":8.0,"bus_shield_text":"12","landuse_kind":"urban_area","id":5218498},"arcs":[631]},{"type":"MultiLineString","properties":{"bus_network":null,"sort_rank":380,"kind_detail":"primary","kind":"major_road","source":"openstreetmap.org","min_zoom":8.0,"bus_shield_text":"1","landuse_kind":"urban_area","ref":"A9013"},"arcs":[[632],[633]]},{"type":"LineString","properties":{"source":"openstreetmap.org","kind":"major_road","sort_rank":380,"kind_detail":"primary","ref":"A932","min_zoom":8.0,"id":77773425},"arcs":[634]},{"type":"MultiLineString","properties":{"kind":"major_road","sort_rank":380,"kind_detail":"primary","is_bicycle_related":true,"source":"openstreetmap.org","min_zoom":8.0,"landuse_kind":"urban_area","ref":"A945"},"arcs":[[635],[636],[637]]},{"type":"MultiLineString","properties":{"bus_network":null,"sort_rank":381,"landuse_kind":"urban_area","kind":"major_road","source":"openstreetmap.org","min_zoom":8.0,"bus_shield_text":"23","kind_detail":"trunk","ref":"A90"},"arcs":[[638],[639]]},{"type":"MultiLineString","properties":{"kind":"minor_road","sort_rank":360,"kind_detail":"unclassified","is_bicycle_related":true,"bicycle_shield_text":"EV12","bicycle_network":"icn","source":"openstreetmap.org","min_zoom":8.0,"landuse_kind":"urban_area"},"arcs":[[640],[641],[642],[643],[644],[645],[646]]},{"type":"MultiLineString","properties":{"bus_network":null,"sort_rank":380,"kind_detail":"primary","is_bicycle_related":true,"cycleway_right":"lane","source":"openstreetmap.org","min_zoom":8.0,"bus_shield_text":"1","landuse_kind":"urban_area","ref":"A956","kind":"major_road"},"arcs":[[647],[648],[649]]},{"type":"LineString","properties":{"kind":"major_road","sort_rank":377,"kind_detail":"tertiary","is_bicycle_related":true,"bicycle_shield_text":"EV12","bicycle_network":"icn","source":"openstreetmap.org","min_zoom":8.0,"ref":"C25K","id":350973836},"arcs":[650]},{"type":"MultiLineString","properties":{"bus_network":null,"network":"Scottish_National_Tourist_Routes","sort_rank":380,"kind_detail":"primary","is_bicycle_related":true,"kind":"major_road","cycleway":"lane","source":"openstreetmap.org","min_zoom":8.0,"bus_shield_text":"19","shield_text":null,"ref":"A93"},"arcs":[[651],[652]]},{"type":"LineString","properties":{"bus_network":null,"sort_rank":379,"landuse_kind":"urban_area","is_bicycle_related":true,"kind":"major_road","bicycle_shield_text":"EV12","bicycle_network":"icn","source":"openstreetmap.org","min_zoom":8.0,"bus_shield_text":"12","kind_detail":"secondary","ref":"B983"},"arcs":[653]},{"type":"LineString","properties":{"kind":"major_road","sort_rank":380,"kind_detail":"primary","bus_network":null,"source":"openstreetmap.org","min_zoom":8.0,"bus_shield_text":"11","landuse_kind":"urban_area","ref":"A96","id":272280567},"arcs":[654]},{"type":"LineString","properties":{"kind":"major_road","sort_rank":377,"kind_detail":"tertiary","is_bicycle_related":true,"bus_network":null,"bicycle_shield_text":"EV12","bicycle_network":"icn","source":"openstreetmap.org","min_zoom":8.0,"bus_shield_text":"19","landuse_kind":"urban_area","ref":"C157C","id":352067629},"arcs":[655]},{"type":"LineString","properties":{"kind":"major_road","sort_rank":380,"kind_detail":"primary","is_bicycle_related":true,"bus_network":null,"bicycle_shield_text":"EV12","bicycle_network":"icn","source":"openstreetmap.org","min_zoom":8.0,"bus_shield_text":"20","landuse_kind":"urban_area","ref":"A978","id":272419046},"arcs":[656]},{"type":"MultiLineString","properties":{"bus_network":null,"sort_rank":380,"kind_detail":"primary","kind":"major_road","source":"openstreetmap.org","min_zoom":8.0,"bus_shield_text":"Jet 727","landuse_kind":"urban_area","ref":"A96"},"arcs":[[657],[658],[659],[660],[661],[662],[663],[664],[665]]},{"type":"LineString","properties":{"kind":"minor_road","sort_rank":360,"kind_detail":"residential","is_bicycle_related":true,"bicycle_shield_text":"EV12","bicycle_network":"icn","source":"openstreetmap.org","min_zoom":8.0,"old_name":"Fore Geit","id":40749998},"arcs":[666]},{"type":"MultiLineString","properties":{"bus_network":null,"sort_rank":380,"kind_detail":"primary","kind":"major_road","source":"openstreetmap.org","min_zoom":8.0,"bus_shield_text":"11","landuse_kind":"urban_area","ref":"A944"},"arcs":[[667],[668],[669]]},{"type":"MultiLineString","properties":{"bus_network":null,"sort_rank":380,"kind_detail":"primary","kind":"major_road","source":"openstreetmap.org","min_zoom":8.0,"bus_shield_text":"1","landuse_kind":"urban_area","ref":"A956"},"arcs":[[670],[671],[672],[673],[674],[675],[676],[677],[678],[679],[680],[681],[682],[683]]},{"type":"MultiLineString","properties":{"bus_network":null,"sort_rank":380,"kind_detail":"primary","kind":"major_road","source":"openstreetmap.org","min_zoom":8.0,"bus_shield_text":"21","ref":"A935"},"arcs":[[684],[685],[686]]},{"type":"MultiLineString","properties":{"source":"openstreetmap.org","kind":"major_road","kind_detail":"trunk","sort_rank":381,"landuse_kind":"urban_area","ref":"A90","min_zoom":8.0},"arcs":[[687],[688],[689],[690],[691],[692],[693],[694],[695],[696],[697],[698],[699],[700],[701],[702],[703],[704],[705],[706],[707],[708],[709],[710],[711],[712],[713],[714],[715],[716],[717],[718],[719],[720],[721],[722],[723],[724],[725],[726],[727],[728],[729],[730],[731],[732],[733],[734],[735],[736],[737],[738],[739],[740],[741],[742],[743],[744],[745],[746],[747],[748],[749],[750],[751],[752],[753],[754],[755],[756],[757]]},{"type":"MultiLineString","properties":{"kind":"minor_road","sort_rank":360,"landuse_kind":"urban_area","is_bicycle_related":true,"bicycle_shield_text":"EV12","bicycle_network":"icn","source":"openstreetmap.org","min_zoom":8.0,"kind_detail":"residential"},"arcs":[[758],[759],[760],[761],[762],[763],[764]]},{"type":"LineString","properties":{"kind":"major_road","sort_rank":377,"landuse_kind":"urban_area","is_bicycle_related":true,"bicycle_shield_text":"EV12","bicycle_network":"icn","source":"openstreetmap.org","min_zoom":8.0,"kind_detail":"tertiary","ref":"C154C"},"arcs":[765]},{"type":"MultiLineString","properties":{"source":"openstreetmap.org","kind":"major_road","kind_detail":"trunk","sort_rank":381,"landuse_kind":"urban_area","ref":"A96","min_zoom":8.0},"arcs":[[766],[767],[768],[769],[770],[771]]},{"type":"LineString","properties":{"kind":"path","service":"driveway","sort_rank":354,"kind_detail":"track","is_bicycle_related":true,"bicycle_shield_text":"195","bicycle_network":"ncn","source":"openstreetmap.org","min_zoom":8.0,"id":245252901},"arcs":[772]},{"type":"LineString","properties":{"bus_network":null,"sort_rank":377,"landuse_kind":"urban_area","is_bicycle_related":true,"kind":"major_road","bicycle_shield_text":"EV12","bicycle_network":"icn","source":"openstreetmap.org","min_zoom":8.0,"bus_shield_text":"17","kind_detail":"tertiary"},"arcs":[773]},{"type":"LineString","properties":{"kind":"major_road","sort_rank":379,"kind_detail":"secondary","is_bicycle_related":true,"bicycle_shield_text":"195","bicycle_network":"ncn","source":"openstreetmap.org","min_zoom":8.0,"ref":"B993"},"arcs":[774]},{"type":"MultiLineString","properties":{"kind":"major_road","sort_rank":377,"landuse_kind":"urban_area","is_bicycle_related":true,"bicycle_shield_text":"EV12","bicycle_network":"icn","source":"openstreetmap.org","min_zoom":8.0,"kind_detail":"tertiary"},"arcs":[[775],[776],[777],[778],[779],[780],[781],[782],[783],[784]]},{"type":"LineString","properties":{"kind":"major_road","cycleway_left":"lane","sort_rank":377,"kind_detail":"tertiary","is_bicycle_related":true,"bicycle_shield_text":"EV12","bicycle_network":"icn","source":"openstreetmap.org","min_zoom":8.0,"landuse_kind":"urban_area","id":314127994},"arcs":[785]},{"type":"LineString","properties":{"kind":"major_road","sort_rank":377,"kind_detail":"tertiary","is_bicycle_related":true,"bicycle_shield_text":"195","bicycle_network":"ncn","source":"openstreetmap.org","min_zoom":8.0,"id":232357115},"arcs":[786]},{"type":"MultiLineString","properties":{"kind":"minor_road","sort_rank":358,"kind_detail":"service","is_bicycle_related":true,"bicycle_shield_text":"EV12","bicycle_network":"icn","source":"openstreetmap.org","min_zoom":8.0},"arcs":[[787],[788],[789]]},{"type":"MultiLineString","properties":{"bus_network":null,"network":"Scottish_National_Tourist_Routes","sort_rank":380,"kind_detail":"primary","is_bicycle_related":true,"kind":"major_road","source":"openstreetmap.org","min_zoom":8.0,"bus_shield_text":"19","shield_text":null,"ref":"A93"},"arcs":[[790],[791]]}]},"earth":{"type":"GeometryCollection","geometries":[{"type":"MultiPolygon","properties":{"sort_rank":10,"source":"naturalearthdata.com","min_zoom":0.0,"kind":"earth","area":14436050183},"arcs":[[[792]]]}]},"landuse":{"type":"GeometryCollection","geometries":[{"type":"Polygon","properties":{"kind":"nature_reserve","protect_class":"97","area":2702200064,"sort_rank":23,"source":"openstreetmap.org","min_zoom":4.0,"tier":2,"id":400554800},"arcs":[[793]]},{"type":"MultiPolygon","properties":{"source":"openstreetmap.org","kind":"nature_reserve","tier":2,"area":40119463,"sort_rank":23,"min_zoom":8.0},"arcs":[[[794]],[[795]]]},{"type":"MultiPolygon","properties":{"source":"naturalearthdata.com","kind":"urban_area","name":"","area":454671177,"sort_rank":11,"min_zoom":4.0},"arcs":[[[796]],[[797]],[[798]]]},{"type":"Polygon","properties":{"kind":"national_park","area":15265099776,"sort_rank":18,"source":"openstreetmap.org","min_zoom":3.0,"tier":1,"id":-1947603,"osm_relation":true},"arcs":[[799]]},{"type":"MultiPolygon","properties":{"source":"openstreetmap.org","kind":"residential","tier":2,"area":28254105,"sort_rank":20,"min_zoom":8.0},"arcs":[[[800]],[[801]]]},{"type":"MultiPolygon","properties":{"source":"openstreetmap.org","kind":"nature_reserve","tier":2,"area":6978424937,"sort_rank":23,"min_zoom":4.0,"osm_relation":true},"arcs":[[[802]],[[803]]]},{"type":"MultiPolygon","properties":{"source":"openstreetmap.org","kind":"nature_reserve","tier":2,"area":6978424937,"sort_rank":23,"min_zoom":4.0},"arcs":[[[804]],[[805]]]}]}},"type":"Topology","transform":{"translate":[-2.8125,56.5594824838],"scale":[0.0003433228,0.0001872653]},"arcs":[[[2046,0],[-55,73],[21,95],[108,283],[168,177],[270,379],[174,320],[99,294],[50,336],[183,305],[195,496],[45,305],[-26,272],[34,80],[325,379],[195,302]],[[2050,0],[-59,73],[129,378],[168,177],[274,384],[172,320],[97,289],[50,336],[183,305],[195,496],[45,305],[-26,272],[34,80],[325,379],[195,302]],[[2080,3117],[11,-74],[95,9],[21,-34],[-95,-202],[-92,-80],[-200,-486],[-79,-35],[-79,-72],[-75,-31],[-134,4],[-99,-79],[16,-118],[-120,-121],[-364,-476],[-35,-148],[144,-172],[-4,-183],[-24,-61],[49,-37],[9,-62],[-215,-186],[-80,-186],[-112,-90],[34,-97],[-7,-100]],[[645,0],[7,100],[-34,97],[112,90],[80,186],[215,186],[-9,62],[-49,37],[24,60],[4,184],[-144,172],[35,148],[364,477],[120,120],[-16,118],[99,80],[134,-5],[74,31],[79,72],[80,35],[200,486],[92,80],[95,202],[-23,34],[-93,-10],[-11,75]],[[2080,3117],[11,-74],[95,9],[21,-34],[-95,-202],[-92,-80],[-200,-486],[-79,-35],[-79,-72],[-75,-31],[-134,4],[-99,-79],[16,-118],[-120,-121],[-364,-476],[-35,-148],[144,-172],[-4,-183],[-24,-61],[49,-37],[9,-62],[-215,-186],[-80,-186],[-112,-90],[34,-97],[-7,-100]],[[2083,3093],[-54,158],[-160,57],[-106,226],[-113,53],[-215,-25],[-69,57],[-65,117],[-31,161],[-131,69],[-68,100],[-119,-16],[-278,46]],[[2075,3121],[16,-78],[95,9],[21,-34],[-95,-202],[-92,-80],[-200,-486],[-79,-35],[-79,-72],[-75,-31],[-134,4],[-99,-79],[16,-118],[-120,-121],[-364,-476],[-35,-148],[144,-172],[-4,-183],[-24,-61],[49,-37],[9,-62],[-215,-186],[-80,-186],[-112,-90],[34,-97],[-7,-100]],[[645,0],[7,100],[-34,97],[112,90],[80,186],[215,186],[-9,62],[-49,37],[24,60],[4,184],[-144,172],[35,148],[364,477],[120,120],[-16,118],[99,80],[134,-5],[74,31],[79,72],[80,35],[200,486],[92,80],[95,202],[-23,34],[-93,-10],[-11,75]],[[2081,3117],[10,-74],[95,9],[21,-34],[-95,-202],[-92,-80],[-200,-486],[-79,-35],[-79,-72],[-75,-31],[-134,4],[-99,-79],[16,-118],[-120,-121],[-364,-476],[-35,-148],[144,-172],[-4,-183],[-24,-61],[49,-37],[9,-62],[-215,-186],[-80,-186],[-112,-90],[34,-97],[-7,-100]],[[667,0],[156,114],[45,57],[30,93],[52,57],[17,37],[-2,31],[-18,73],[0,42],[29,79],[40,54],[35,65],[32,234],[14,30],[28,58],[51,62],[49,44],[163,105],[47,58],[70,126],[78,113],[100,80],[43,60],[18,97],[12,27],[53,70],[15,30],[0,65],[-14,40],[-18,32],[-8,46],[38,192],[90,192],[263,423],[2,3],[46,98],[-9,46],[-55,43],[-8,100],[16,109],[69,277],[188,495],[25,39],[1647,0],[0,-4096],[-3429,0]],[[2449,4096],[-25,-39],[-188,-495],[-69,-277],[-16,-109],[8,-100],[55,-43],[9,-46],[-46,-98],[-2,-3],[-263,-423],[-90,-192],[-38,-192],[8,-46],[18,-32],[14,-40],[0,-65],[-15,-30],[-53,-70],[-12,-27],[-18,-97],[-43,-60],[-100,-80],[-78,-113],[-70,-126],[-47,-58],[-163,-105],[-49,-44],[-51,-62],[-28,-58],[-14,-30],[-32,-234],[-35,-65],[-40,-54],[-29,-79],[0,-42],[18,-73],[2,-31],[-17,-37],[-52,-57],[-30,-93],[-45,-57],[-156,-114]],[[100,2765],[25,2]],[[1112,1121],[-9,-8]],[[1393,1282],[-211,-106]],[[1552,1523],[37,81]],[[1732,1883],[1,1]],[[1744,2062],[17,-20]],[[2084,3052],[-1,-2]],[[2085,3081]],[[2053,3041],[1,1],[0,-1],[-1,0]],[[2058,3141],[4,0]],[[1956,3188],[2,1]],[[2067,3245],[-2,0]],[[2081,3244],[-12,2]],[[2071,2851],[49,23]],[[1365,2775],[-3,4]],[[2099,2934],[-11,-17]],[[2088,2917],[-18,-27]],[[2073,2889],[10,20],[5,8]],[[2088,2917],[7,11],[3,6]],[[2092,3077],[-6,4]],[[2086,3082],[6,-4]],[[2089,3130],[14,20]],[[2103,3151],[6,-6],[-17,-13]],[[2107,2980],[-15,97]],[[2093,3079],[1,-1]],[[2093,3153],[0,2]],[[2098,3152],[-5,1]],[[2093,3153],[8,-1]],[[2094,3077],[14,-71],[0,-26]],[[2097,3114],[1,1]],[[2101,3151],[-3,1]],[[2099,2937],[8,41]],[[2100,3326],[6,26]],[[2101,3324],[3,-30],[-2,-7],[-1,-3],[-1,40]],[[2108,2979],[-7,-41]],[[2107,3351],[-6,-25]],[[2103,3105]],[[2107,2980],[2,0],[-1,-2],[-1,1],[0,1]],[[2084,3082],[1,1],[1,-1]],[[2086,3082],[-1,-1],[-1,1]],[[2100,3325],[0,1],[1,-1],[0,-1],[-1,1]],[[2100,2938],[0,-3],[-2,-1],[0,2],[2,2]],[[2103,3151],[-1,-1],[-1,2],[2,0],[0,-1]],[[2094,3149],[0,1]],[[2088,3128],[-1,0]],[[1930,3175]],[[1962,3232],[2,-1]],[[2012,3015],[1,1]],[[2081,3124],[0,1]],[[2090,3130],[-2,-1]],[[2088,3129]],[[2088,3128],[0,1]],[[2088,3129],[1,1]],[[2092,3132],[-3,-4]],[[1830,3406],[0,-1],[0,1]],[[1944,3208],[0,1]],[[1944,3209],[1,2]],[[1769,2460],[-46,-103]],[[2069,3246]],[[1405,1259],[-5,-2]],[[2073,3105],[-6,0]],[[2073,3123],[0,1]],[[2079,3107],[-6,-1]],[[2074,3118],[0,4]],[[2075,3122],[1,-6]],[[2076,3114],[1,-2]],[[2079,3107],[-1,0]],[[2078,3108],[1,-1]],[[2081,3126],[0,-1]],[[923,2620],[-16,-3]],[[1168,2666],[-1,4]],[[1376,2755],[6,5]],[[2090,3140],[5,3]],[[2094,3151],[-1,2]],[[1207,3872],[-92,90],[-35,98],[-39,15],[-99,-22],[-62,11],[-22,32]],[[1207,3871],[0,1]],[[1207,3872],[1,-1]],[[1210,3868],[-2,1]],[[1209,3870],[1,-2]],[[1283,3786],[-73,82]],[[1283,3783],[0,3]],[[1283,3786],[1,-3]],[[1292,3727],[-9,54]],[[1285,3781],[8,-54]],[[1352,3519],[-34,63],[1,2]],[[1319,3584],[4,17]],[[1323,3601],[12,48],[1,3],[-43,73]],[[1294,3725],[42,-73],[0,-3],[-13,-48]],[[1323,3601],[-4,-17]],[[1319,3584],[33,-65]],[[1353,3517],[-2,1],[1,1]],[[1352,3519],[1,0],[0,-2]],[[1474,3441],[-121,76]],[[1353,3518],[121,-76]],[[1476,3442],[71,-16]],[[1547,3425],[-71,16]],[[1729,3374],[-23,2],[-2,1]],[[1704,3377],[-149,45]],[[1555,3422],[-6,2]],[[1549,3426],[6,-4]],[[1555,3422],[71,-37],[78,-8]],[[1704,3377],[2,-1],[23,-2]],[[1208,3869],[-2,1],[2,1]],[[1208,3871],[1,-1],[-1,-1]],[[1292,3727],[2,0],[0,-2],[-2,0],[0,2]],[[1476,3442],[0,-1]],[[1476,3441],[-2,-1],[0,2],[2,0]],[[1547,3425],[1,1],[1,-1],[-1,-1],[-1,1]],[[937,2622],[2,-2]],[[1130,2654],[10,-1]],[[1153,2658],[11,0]],[[1597,2859],[-3,-1]],[[1804,3456],[18,59]],[[141,2807],[1,2]],[[597,40],[-145,243]],[[597,40],[-5,-31]],[[646,18],[-49,22]],[[646,18],[1,0]],[[647,18],[-1,0]],[[648,18],[1,1]],[[649,19],[-1,-1]],[[657,19],[-8,0]],[[657,19],[1,0]],[[658,18],[-1,1]],[[648,17],[-1,0],[0,1]],[[647,18],[1,0],[0,-1]],[[1807,3450],[-3,6]],[[1754,2233],[-31,124]],[[2084,3221],[1,-1]],[[2087,3204],[1,-12]],[[2091,3172],[-1,10]],[[1836,3156],[-2,0]],[[1823,3315],[-75,58]],[[1752,3371],[49,-34],[13,-11],[10,-10]],[[1943,3276],[-26,5],[-3,2]],[[1914,3283],[-20,9]],[[1894,3292],[-3,1],[-38,9],[-29,12]],[[1825,3315],[26,-8]],[[1853,3305],[39,-11],[2,-2]],[[1894,3292],[12,-8],[8,-1]],[[1914,3283],[18,-4],[11,-2]],[[1897,3160],[-1,0]],[[1908,3161],[6,1]],[[1930,3166],[35,-1]],[[1965,3164],[-35,2]],[[2036,3170],[5,1]],[[1923,3164],[1,0]],[[2069,3130],[14,7]],[[2100,3111],[4,-6]],[[2058,3188],[1,-1]],[[2061,3185],[-1,1]],[[2093,3157],[-1,6]],[[1527,4096],[34,-13],[240,-289],[26,-52],[6,-215]],[[2095,3143],[-1,6]],[[993,940],[-6,73],[-39,20]],[[1013,894],[-8,26]],[[2036,3119],[-1,-4]],[[1950,3031],[-18,-9]],[[1966,3055],[-6,-9]],[[2085,3083],[18,21]],[[2103,3104],[0,1]],[[2104,3105],[-1,-1]],[[2103,3104],[-17,-22]],[[2156,3108],[-57,20]],[[2041,3115],[-1,0]],[[1952,3034],[-2,-3]],[[1979,3062],[-13,-7]],[[1964,3231],[-2,0]],[[2088,3129],[-7,-5],[-2,0]],[[2082,3125],[1,1]],[[2120,2874],[12,30]],[[1971,3164],[-6,0]],[[2003,3168],[33,2]],[[2065,3245],[-31,-7]],[[2084,3242],[0,-21]],[[2085,3220],[2,-16]],[[2088,3190],[0,1]],[[2089,3188],[0,-1]],[[2089,3185],[0,1]],[[382,2825],[7,-10]],[[475,2692],[-3,6]],[[1534,2835],[-89,-54]],[[1594,2858],[-1,-1]],[[1597,2859],[1,0]],[[2067,3060],[-1,0]],[[2033,2859],[14,6]],[[2040,2861],[-7,-3]],[[1055,932],[7,-36]],[[1521,1430],[-92,-152]],[[1550,1443],[2,1]],[[1936,2715],[6,24]],[[94,2758],[6,7]],[[389,2815],[30,-12]],[[1362,2779],[-17,-10]],[[1842,3157],[-6,-1]],[[2103,3105],[-15,23]],[[2092,3123],[8,-12]],[[1960,3046],[-8,-12]],[[1982,3064],[-3,-2]],[[2041,3116],[-6,-1]],[[1760,2159],[-6,74]],[[1865,3158],[-13,-1]],[[1887,3160],[-7,-1]],[[976,750],[9,36]],[[1000,909],[0,-1]],[[1036,796],[0,5]],[[1055,932],[-8,96]],[[1552,1444],[9,69]],[[1729,2068],[15,-6]],[[1746,2144],[26,-15]],[[1827,3808],[47,-52],[-24,-62],[6,-129],[-27,-37]],[[452,283],[-50,136],[105,261],[-9,106],[25,68],[-56,50]],[[592,9],[-2,-9]],[[2011,3014],[2,1],[-1,-3],[-1,1],[0,1]],[[733,115],[29,79],[87,63],[-21,91]],[[1010,784],[26,12]],[[1589,1604],[87,53],[16,137],[26,17]],[[1793,4096],[38,-25]],[[1802,2629],[8,-4]],[[1827,2802],[-6,18]],[[1942,2739],[-58,5]],[[1950,2695],[-14,20]],[[1950,2693],[0,2]],[[1950,2695],[1,-2]],[[1951,2692]],[[1951,2693],[0,-1]],[[1951,2692],[3,-7]],[[1953,2683],[1,2]],[[1954,2685],[0,-2]],[[1988,2673],[28,7]],[[2159,3098],[-2,0]],[[1951,2693],[-1,0],[1,0]],[[1954,2683],[0,-1],[-1,1],[1,0]],[[1118,2652],[-1,-1]],[[2064,3127],[5,3]],[[986,868],[-120,28],[-282,-30],[-123,41],[-7,22]],[[993,843],[-7,24]],[[993,842],[0,1]],[[993,843],[1,-1]],[[986,868],[1,0],[-1,0]],[[1814,3451],[-7,-1]],[[2068,3246],[-1,-1]],[[2083,3243],[1,1]],[[1896,3160],[-4,0]],[[1248,2699],[-3,-1]],[[1390,2781],[4,3]],[[1430,2778],[15,3]],[[0,2769],[94,-11]],[[125,2767],[16,40]],[[128,2772]],[[142,2809],[9,9]],[[195,2830],[88,0]],[[281,2834],[62,13],[39,-22]],[[478,2704],[-60,98]],[[598,2561],[-124,130]],[[923,2620],[14,2]],[[939,2620],[93,44],[85,-13]],[[1119,2653],[11,1]],[[1140,2653],[13,5]],[[1245,2698],[-77,-32]],[[1345,2769],[-96,-70]],[[1365,2775],[11,-20]],[[1382,2760],[8,21]],[[1394,2784],[36,-6]],[[1593,2857],[-59,-22]],[[1598,2859],[65,30]],[[1673,2894],[265,116]],[[713,33],[8,-8]],[[1017,744],[-41,6]],[[1390,1270],[-2,-16]],[[1551,1439],[-30,-9]],[[2004,2703],[5,12]],[[2067,3105],[-31,-4]],[[1952,3100],[1,0],[0,-1],[-1,0],[0,1]],[[1832,3398],[6,-15]],[[1849,3157],[-7,0]],[[1879,3159],[-6,0]],[[510,2947],[-125,87],[-23,-6],[-113,114],[35,33],[-8,59],[45,60],[-46,108]],[[637,2860],[-95,64]],[[59,2757],[34,0]],[[125,2767],[8,7]],[[1044,1001],[1,27]],[[1011,780],[-1,4]],[[996,815],[-1,1],[2,1],[0,-1],[-1,-1]],[[1006,851],[1,0],[0,-1],[-1,0],[0,1]],[[1484,3158],[1,1],[0,-1],[-1,0]],[[1726,3137],[2,0],[-1,-2],[-2,1],[1,1]],[[1776,3131],[0,2],[2,0],[0,-1],[-2,-1]],[[323,902],[-323,-103]],[[0,799],[97,42],[237,67]],[[598,1144],[-113,-93]],[[502,1071],[93,72]],[[603,1151],[104,66]],[[2029,3239],[1,1]],[[2030,3237],[-1,1]],[[2090,3155],[3,-2]],[[485,1051],[-56,-72],[-44,-31],[-14,-11]],[[371,937],[-48,-35]],[[334,908],[37,29]],[[371,937],[14,11],[44,31],[60,78],[13,14]],[[595,1143],[8,8]],[[2023,2952],[14,-78],[-25,-120],[-24,-29]],[[1988,2725],[-6,-6]],[[1982,2719],[-5,-6],[0,-1],[-6,-5],[-11,-9]],[[1960,2698],[-11,-9],[0,-2]],[[1949,2687],[-49,-164]],[[1900,2523],[-2,-8],[-7,-23]],[[1891,2492],[-34,-115],[-11,-33]],[[1846,2344],[-23,-68]],[[1823,2276],[-2,-5],[-24,-16]],[[1797,2255],[-41,-28]],[[1756,2227],[-2,-1],[-80,-28],[21,-105],[-4,-17],[-9,-12],[-25,-15]],[[1657,2049],[-132,-77]],[[1525,1972],[-209,-122]],[[1316,1850],[-12,-6],[-46,-42],[-78,-118]],[[1180,1684],[-3,-5],[-18,-30],[-102,-146]],[[1057,1503],[-54,-77]],[[1003,1426],[-8,-12],[-16,-7]],[[979,1407],[-5,-2]],[[974,1405],[-12,-5],[-25,-9],[-4,-2],[-235,-181],[-100,-64]],[[707,1217],[89,71],[132,99],[10,5],[36,13]],[[974,1405],[5,2]],[[979,1407],[24,19]],[[1003,1426],[31,23],[23,54]],[[1057,1503],[30,72],[72,75],[18,30],[3,4]],[[1180,1684],[136,166]],[[1316,1850],[10,13],[199,109]],[[1525,1972],[124,69],[8,8]],[[1657,2049],[37,42],[-25,68],[4,40],[43,25],[37,2],[1,0],[2,1]],[[1756,2227],[12,3],[29,25]],[[1797,2255],[26,21]],[[1823,2276],[1,1],[22,67]],[[1846,2344],[11,33],[19,68],[15,47]],[[1891,2492],[8,25],[1,6]],[[1900,2523],[28,145],[21,19]],[[1949,2687],[11,11]],[[1960,2698],[16,15],[1,1],[5,5]],[[1982,2719],[5,5],[1,1]],[[1988,2725],[34,92],[0,135]],[[2104,3419],[0,2]],[[2104,3421],[0,9]],[[2105,3430],[-1,-9]],[[2104,3421],[0,-2]],[[2105,3433],[22,36],[3,6]],[[2130,3475],[9,16],[2,10]],[[2141,3501],[7,28],[2,15],[32,112],[11,83]],[[2193,3739],[-10,-84],[-40,-149],[-2,-5]],[[2141,3501],[-11,-26]],[[2130,3475],[-2,-7],[-22,-36]],[[2237,3983],[-44,-244]],[[2245,4047],[-14,-41]],[[2104,3431],[0,2],[2,-1],[-1,-2],[-1,1]],[[2089,3140],[1,0]],[[2070,3224],[7,-47]],[[1938,3010],[128,50]],[[1818,3423],[4,-7]],[[1826,3414],[2,-6]],[[1830,3404],[2,-6]],[[1946,3208],[-1,1]],[[1945,3211],[2,-3]],[[2075,3172],[1,-1]],[[948,1033],[-41,22],[-44,96],[106,253]],[[972,1404],[84,105]],[[1005,920],[-12,20]],[[1532,1466],[-139,-184]],[[2077,3178],[0,1]],[[721,25],[20,6],[-38,-31]],[[828,348],[93,270],[105,43],[-9,83]],[[1003,787],[8,-7]],[[1047,1028],[87,52],[-31,33]],[[1182,1176],[-15,-34],[-55,-21]],[[1393,1282],[-3,-12]],[[1411,1262],[-6,-3]],[[1551,1439],[-1,4]],[[1552,1523],[9,-10]],[[1673,4096],[21,0]],[[1718,1811],[29,62],[-15,10]],[[1733,1884],[-28,3],[24,181]],[[1751,2521],[19,11]],[[1772,2129],[-11,-87]],[[1810,2625],[-58,92],[9,51],[60,52]],[[1831,4071],[34,-93],[-37,-12],[-13,-35],[10,-123]],[[1827,2802],[22,-64],[35,6]],[[2016,2680],[-12,23]],[[2009,2715],[55,13],[7,123]],[[2192,3073],[35,23],[-68,2]],[[1890,3160],[-3,0]],[[1911,3161],[-6,0]],[[2050,3265],[-25,25]],[[1777,3133],[1,0]],[[1698,2210],[-1,0],[1,0]],[[2990,4096],[-294,-452],[-478,-498],[-62,-38]],[[2222,3951],[-9,-21]],[[2227,4096],[27,-42],[-17,-71]],[[1285,3783],[0,-2],[-2,0],[0,2],[2,0]],[[1696,2091],[-9,6]],[[1721,2076],[-25,15]],[[1696,2091],[12,-7]],[[2089,3128],[3,-5]],[[712,175],[56,201],[-10,50],[146,214],[-7,77],[73,32]],[[969,752],[1,2]],[[970,754],[26,60]],[[970,754],[1,-1]],[[970,749],[0,1]],[[971,750],[-1,-1]],[[994,841],[-1,-1]],[[993,840],[0,1]],[[996,819],[-3,21]],[[994,842],[1,1]],[[995,843],[-1,-1]],[[995,843],[10,7]],[[996,815],[0,-1]],[[996,814],[0,1]],[[996,817],[0,2]],[[996,819],[1,-3]],[[1007,850],[-2,0]],[[1005,850],[1,1]],[[1007,851],[0,1]],[[1007,852],[0,-1]],[[1007,852],[4,30]],[[1033,962],[11,39]],[[1103,1113],[-58,-85]],[[1182,1176],[-70,-55]],[[1552,1523],[-20,-57]],[[1589,1604],[4,65],[139,214]],[[1708,2084],[11,-7]],[[1721,2076],[23,-14]],[[1733,1884],[37,62],[-9,96]],[[970,752],[1,1],[1,-2],[-1,-1],[-1,2]],[[993,842],[1,0],[0,-1],[-1,0],[0,1]],[[985,786],[18,1]],[[1822,3498],[2,-4]],[[1941,3287]],[[2077,3177],[-1,-6]],[[2075,3172],[0,5]],[[692,82],[0,-1],[-1,1],[1,0]],[[0,2765],[59,-8]],[[93,2757],[1,1]],[[133,2774],[29,51],[227,-10]],[[419,2803],[110,-144],[152,36],[160,-47]],[[1126,2655],[-104,14]],[[1148,2665],[-19,-9]],[[2092,3123]],[[2083,3126],[6,2]],[[1157,2668],[13,-204],[118,-33],[68,-105],[102,-24],[80,26],[159,-118]],[[1698,2210],[62,-51]],[[1708,2084],[0,-1]],[[1746,2144],[-38,-60]],[[475,2692],[-1,-1]],[[478,2704],[1,-2]],[[1119,2653],[-1,-1]],[[2226,3924],[-13,6]],[[479,2702],[0,-1]],[[1164,2658],[3,12]],[[2075,3177],[1,1]],[[2003,3168],[-4,-1]],[[256,3625],[-66,-49],[25,-147],[60,-27]],[[542,2924],[-32,23]],[[945,2629],[-53,157],[-255,74]],[[1945,3209],[-1,0]],[[1945,3211]],[[1036,801],[-16,69]],[[1824,3508],[5,20]],[[1824,3412],[8,-14]],[[1843,3371],[22,-58]],[[1924,3289],[7,-2]],[[2050,3265],[15,-6]],[[2079,3079],[4,-2]],[[2092,3077],[-8,0]],[[1823,3315],[1,1]],[[1825,3315],[-1,-1]],[[1853,3305],[-2,2]],[[1943,3276],[0,1]],[[1944,3277],[0,-1]],[[2102,3354],[4,-1]],[[1852,3157],[-3,0]],[[1873,3159],[-8,-1]],[[1880,3159],[-1,0]],[[2083,3137],[6,3]],[[1824,3314],[-1,1]],[[1824,3316],[1,-1]],[[1851,3307],[2,-2]],[[1944,3276],[-1,0]],[[1943,3277],[1,0]],[[1923,3289],[1,0],[0,-1],[-1,1]],[[2033,3086],[0,1]],[[2961,4096],[-274,-436],[-531,-552]],[[1818,3428],[0,-5]],[[1838,3383],[5,-12]],[[2367,4096],[-18,-73],[-59,-28],[-63,-79]],[[1532,1466],[-7,-32]],[[2006,3284],[-3,-3]],[[1960,3232],[1,1],[1,-1],[-1,-1],[-1,1]],[[1930,3175],[9,4]],[[1939,3179],[-9,-4]],[[1939,3179],[17,9]],[[1958,3189],[39,7]],[[465,584],[68,20],[74,62],[316,72]],[[2094,3078],[-1,1]],[[1814,3451],[4,-23]],[[1760,2159],[-14,-15]],[[1997,3212],[-1,0],[0,1],[1,0],[0,-1]],[[2062,3141],[-1,-3]],[[2033,3087],[1,-1]],[[1834,3156],[-9,0]],[[2036,3101],[-5,-2]],[[1770,2532],[32,97]],[[1700,2513],[69,-53]],[[1061,895],[-29,-25]],[[1822,3498],[2,10]],[[1931,3287]],[[1946,3288],[31,-8]],[[1965,3165],[27,2]],[[1992,3167],[-21,-3]],[[1997,3167],[-5,0]],[[661,0],[0,1]],[[1964,3231],[6,-4]],[[1930,3166],[-10,-4],[-9,-1]],[[1914,3162],[9,2]],[[1924,3164],[6,2]],[[1999,3167],[-2,0]],[[2032,3081],[-7,-26]],[[2032,3081],[1,4]],[[2032,3081]],[[2032,3081],[-1,0],[1,0]],[[2034,3085],[-2,-4]],[[2033,3087],[22,36]],[[2034,3086],[1,0],[-1,-1],[-1,0],[1,1]],[[2077,3178],[-1,0]],[[2078,3107],[-4,11]],[[2076,3116],[0,-2]],[[2077,3112],[1,-4]],[[1905,3161],[-6,-1]],[[1866,3314],[56,-25]],[[1922,3289],[1,0]],[[1923,3288],[-1,1]],[[1954,2682],[9,-23],[25,14]],[[2156,3108],[-57,20]],[[2202,3043],[-10,30]],[[2094,3150],[0,1]],[[659,19],[2,3]],[[659,19],[1,0],[0,-1]],[[660,18],[-2,0],[1,1]],[[661,6],[-2,12]],[[660,18],[2,-12]],[[661,22],[-1,-3]],[[661,1],[0,4]],[[661,22],[30,59]],[[662,5],[0,-5]],[[691,82],[21,93]],[[1011,882],[22,80]],[[662,5],[-1,0],[0,1]],[[661,6],[1,0],[0,-1]],[[2047,2865],[9,5],[1,1]],[[2057,2871],[13,12],[3,6]],[[2070,2890],[-13,-19]],[[2057,2871],[-1,-2],[-9,-5]],[[1461,3164],[-509,168],[-141,-16],[-32,32],[-86,14],[-18,42],[-122,71],[-41,78],[-190,38],[-77,61],[-202,-3],[-43,41]],[[1484,3159],[-20,5]],[[1484,3158],[0,1]],[[1484,3159],[1,0]],[[1487,3158],[-2,0]],[[1485,3159],[2,-1]],[[1487,3158],[76,-3]],[[1563,3155],[6,0]],[[1570,3154],[-7,1]],[[1725,3136],[-28,-2],[-34,4],[-13,3],[-43,-3],[-32,16],[-4,0]],[[1571,3155],[154,-18]],[[1776,3131],[-49,5]],[[1728,3137],[48,-5]],[[1463,3164],[-1,-1],[-1,1],[1,1],[1,-1]],[[1570,3156],[1,-1],[0,-1],[-2,0],[1,2]],[[2069,3244],[-1,2]],[[1462,3164],[0,1]],[[1463,3164]],[[1647,3141],[-6,-1]],[[1693,3133],[-2,1]],[[1777,3134],[13,15]],[[1806,3155],[-16,-6]],[[1806,3155],[19,1]],[[1997,3212],[39,-93]],[[2027,3238],[-30,-25]],[[2027,3238],[2,1]],[[2027,3238],[1,2]],[[2029,3238],[-2,0]],[[2031,3239],[0,-1]],[[2031,3099],[-49,-35]],[[841,2648],[62,-22],[119,43]],[[1129,2656],[-3,-1]],[[1345,2769],[-78,-61],[-119,-43]],[[1574,2870],[-58,27],[-154,-118]],[[2081,3125],[-8,-2]],[[2073,3124],[9,1]],[[1892,3160],[-2,0]],[[1899,3160],[-2,0]],[[1821,3492],[-7,-41]],[[1823,3493],[-2,-1]],[[1821,3492],[1,2]],[[1833,3527],[-11,-31]],[[1822,3494],[0,2]],[[1822,3496],[1,-2]],[[1822,3494],[1,0],[0,-1],[-1,0],[0,1]],[[1825,3413],[-3,3],[3,-1]],[[1825,3413],[3,-6]],[[1830,3406],[-2,1]],[[1828,3407],[2,-1]],[[1830,3405],[0,-1]],[[1850,3334],[-7,37]],[[1851,3307],[-1,27]],[[1850,3334],[3,-28]],[[1825,3415],[1,0],[0,-2],[-2,1],[1,1]],[[2075,3173],[-1,0]],[[2076,3174],[17,-21],[-17,20]],[[1970,3227],[24,-13]],[[1994,3214],[1,0]],[[1996,3212],[-1,1]],[[1995,3213],[-1,1]],[[1996,3213],[-1,0]],[[1995,3213]],[[2076,3171],[7,-22]],[[2062,3141],[4,1]],[[2025,3055],[-12,-41]],[[2055,3123],[9,4]],[[0,486],[400,-76]],[[2018,3027],[35,14]],[[2083,3050],[-29,-9]],[[2085,3080],[-1,-28]],[[1949,3265],[0,1]],[[1949,3267],[1,-1]],[[1020,872],[12,-2]],[[1931,3287],[2,-1]],[[1941,3287],[5,1]],[[2065,3259],[3,-13]],[[2072,3095],[1,-7]],[[2079,3090],[0,-11]],[[2083,3077],[1,0]],[[2088,3192],[0,-1]],[[2090,3182],[-1,1]],[[2092,3163],[-1,9]],[[1751,2521],[-51,-8]],[[1788,2953],[-189,-87]],[[1932,3022],[-139,-68]],[[2069,3130],[-11,11]],[[2070,3177],[3,1]],[[2025,3290],[-19,-6]],[[2069,3246],[-1,0]],[[2014,3250],[-70,26]],[[1944,3277],[70,-27]],[[2027,3241],[-13,9]],[[2029,3236],[-2,5]],[[2044,3197],[-15,39]],[[2060,3186],[-16,11]],[[2044,3197],[14,-9]],[[2059,3187],[16,-10],[0,-4]],[[2074,3173],[-13,12]],[[1400,1257],[-12,-3]],[[2041,3171],[20,4]],[[2061,3175],[9,2]],[[2070,3174],[-9,1]],[[2084,3243],[0,1]],[[2084,3243]],[[2084,3244],[1,1]],[[2084,3244],[1,0]],[[2085,3244],[-1,-1]],[[2101,3284],[-16,-39]],[[2085,3245],[0,-1]],[[2089,3186],[-1,4]],[[2088,3191],[1,-3]],[[2089,3187],[0,-2]],[[2089,3185]],[[2089,3183],[0,2]],[[2092,3163]],[[2093,3155],[0,2]],[[336,901],[-1,0]],[[335,902],[1,-1]],[[336,901],[118,28]],[[1923,3289],[1,1]],[[1924,3290],[0,16]],[[1924,3290],[0,-1]],[[1925,3288],[-1,0]],[[1925,3307],[-1,-1]],[[1924,3306],[0,1]],[[1924,3288],[20,-9]],[[1925,3309],[1,1]],[[1925,3309],[0,-1],[0,-1]],[[1925,3307],[-1,1],[1,1]],[[1926,3310],[-1,-2]],[[1988,3336],[-39,4],[-23,-30]],[[1931,3129],[13,79]],[[1952,3100],[-20,27]],[[1932,3127],[21,-27]],[[1945,3208],[-13,-79]],[[1938,3113],[4,-3]],[[1949,3266],[-6,10]],[[1943,3277],[1,2]],[[1944,3279],[0,-2]],[[1944,3276],[5,-9]],[[1947,3208],[-1,0]],[[1946,3211],[14,20]],[[1962,3231],[-14,-20]],[[1961,3233],[-12,32]],[[1950,3266],[12,-33]],[[1962,3082],[-9,17]],[[1953,3099],[10,-16]],[[1964,3080],[-1,1]],[[1964,3082],[0,-2]],[[1964,3080],[33,-36]],[[1990,3335],[-2,1]],[[1988,3336],[2,0]],[[1993,3335],[-2,0]],[[1991,3335],[2,0]],[[2058,3361],[-65,-26]],[[1997,3043],[0,1]],[[1997,3044],[0,-1]],[[1997,3043],[1,0]],[[1998,3043],[0,-1],[-1,1]],[[1999,3042],[-1,0]],[[1998,3043],[1,-1]],[[1999,3042],[5,-4]],[[2010,3014],[-6,24]],[[2004,3038],[7,-23]],[[2017,3010],[-5,2]],[[2013,3014],[4,-4]],[[2017,3010],[7,-3]],[[2022,2952],[-2,20],[6,32]],[[2027,3005],[-4,-53]],[[2025,3005],[-1,2]],[[2024,3007],[2,0]],[[2027,3005],[-1,-1]],[[2026,3004],[-1,1],[1,2]],[[2026,3007],[1,-2]],[[2059,3361],[-1,0]],[[2058,3361],[1,1]],[[2060,3362],[2,1]],[[2062,3363],[-1,-1]],[[2062,3363],[44,-11]],[[2104,3419],[-1,-17],[4,-37]],[[2107,3365],[1,-8],[-1,-4]],[[2106,3353],[1,4],[0,8]],[[2107,3365],[-3,54]],[[1931,3129],[2,0],[0,-2],[-2,0],[0,2]],[[1963,3081],[0,2]],[[1990,3336],[1,-1]],[[1991,3335],[-1,0],[0,1]],[[2059,3362],[2,0],[-1,-1],[-1,0],[0,1]],[[2106,3353],[1,0]],[[2107,3353],[1,-1],[-2,0],[0,1]],[[706,40],[7,-7]],[[1838,3383],[5,-12]],[[1933,3286],[8,1]],[[2003,3281],[-26,-1]],[[2069,3244],[1,-20]],[[2073,3090],[6,0]],[[2078,3080],[-5,8]],[[2132,2904],[70,139]],[[1729,3374],[17,-1]],[[1745,3369],[-16,5]],[[1748,3373],[4,-2]],[[1753,3371],[-1,-4]],[[1850,3305],[-3,1]],[[1853,3302],[-2,3]],[[1249,2699],[-1,0]],[[2064,3127],[8,-19]],[[472,2698],[7,3]],[[706,40],[27,75]],[[1020,870],[0,2]],[[1826,3492],[39,-46],[-38,-30]],[[2066,3142],[17,7]],[[2069,3246],[0,-2]],[[2072,3108],[0,-1]],[[2072,3106],[0,-11]],[[2093,3079],[14,16],[15,-4]],[[2122,3091],[-28,-13]],[[2157,3098],[-35,-7]],[[2072,3107],[0,-1]],[[283,2830],[-2,4]],[[1062,896],[-1,-1]],[[1429,1278],[-18,-16]],[[1825,3808],[2,0]],[[1599,2866],[-25,4]],[[1793,2954],[-5,-1]],[[0,4096],[2449,0],[-25,-39],[-188,-495],[-69,-277],[-16,-109],[8,-100],[55,-43],[9,-46],[-46,-98],[-2,-3],[-263,-423],[-90,-192],[-38,-192],[8,-46],[18,-32],[14,-40],[0,-65],[-15,-30],[-53,-70],[-12,-27],[-18,-97],[-43,-60],[-100,-80],[-78,-113],[-70,-126],[-47,-58],[-163,-105],[-49,-44],[-51,-62],[-28,-58],[-14,-30],[-32,-234],[-35,-65],[-40,-54],[-11,-30],[-18,-49],[0,-42],[18,-73],[2,-31],[-17,-37],[-52,-57],[-30,-93],[-45,-57],[-156,-114],[-667,0],[0,553],[0,3543]],[[2251,0],[-18,264],[84,398],[95,295],[223,114],[86,88],[330,22],[42,-107],[-268,-369],[-6,-425],[-88,-280],[-480,0]],[[757,834],[111,61],[118,-37],[4,-38],[-22,-71],[-103,-7],[-108,92]],[[2462,4096],[-51,-88],[-17,2],[-8,86],[76,0]],[[667,0],[-71,0],[-46,101],[-75,46],[-24,63],[2,129],[162,3],[51,-37],[85,-243],[-84,-62]],[[1073,866],[-13,-95],[-37,46],[-20,114],[-68,57],[35,122],[103,-244]],[[1900,3393],[48,5],[58,85],[54,-67],[143,11],[-52,-251],[8,-100],[55,-43],[9,-46],[-63,-125],[-90,27],[-32,59],[-78,21],[-51,98],[-33,0],[0,60],[-32,0],[-32,118],[-33,0],[-49,113],[-5,63],[67,116],[44,-11],[64,-133]],[[0,2622],[39,-3],[-34,-45],[-5,-57],[0,105]],[[1958,3102],[104,23],[17,-64],[-31,10],[-47,-31],[-37,46],[16,15],[-22,1]],[[1825,3190],[59,4],[-18,60],[90,-20],[-32,-70],[-89,-7],[-10,33]],[[2731,0],[-480,0],[-18,264],[84,398],[95,295],[223,114],[86,88],[330,22],[42,-107],[-268,-369],[-6,-425],[-88,-280]],[[4096,1499],[0,-1499],[-524,0],[-13,1287],[54,213],[483,-1]],[[2731,0],[-480,0],[-18,264],[84,398],[95,295],[223,114],[86,88],[330,22],[42,-107],[-268,-369],[-6,-425],[-88,-280]],[[4096,1499],[0,-1499],[-524,0],[-13,1287],[54,213],[483,-1]]]}