{"objects":{"water":{"type":"GeometryCollection","geometries":[{"type":"Polygon","properties":{"source":"naturalearthdata.com","kind":"ocean","area":1576712559132672,"sort_rank":200,"min_zoom":0.0,"id":1},"arcs":[[25]]},{"type":"MultiLineString","properties":{"source":"naturalearthdata.com","kind":"ocean","sort_rank":205,"boundary":true,"min_zoom":0.0,"id":41},"arcs":[[26],[27],[28],[29]]}]},"buildings":{"type":"GeometryCollection","geometries":[]},"places":{"type":"GeometryCollection","geometries":[{"type":"Point","properties":{"name:az":"Sent-Endryus","name:ja":"\u30bb\u30f3\u30c8\u30fb\u30a2\u30f3\u30c9\u30ea\u30e5\u30fc\u30b9","name:cy":"Sant Andreas","name:ko":"\uc138\uc778\ud2b8\uc564\ub4dc\ub8e8\uc2a4","name:ar":"\u0633\u0646\u062a \u0627\u0646\u062f\u0631\u0648\u0632","kind":"locality","min_zoom":8.0,"name:uk":"\u0421\u0435\u043d\u0442-\u0415\u043d\u0434\u0440\u044e\u0441","name:ru":"\u0421\u0435\u043d\u0442-\u0410\u043d\u0434\u0440\u0443\u0441","name:bg":"\u0421\u0435\u0439\u043d\u0442 \u0410\u043d\u0434\u0440\u044e\u0441","id":21511530,"name:mk":"\u0421\u0435\u043d\u0442 \u0415\u043d\u0434\u0440\u0443\u0441","population":16000,"name:fa":"\u0633\u0646\u062a \u0627\u0646\u062f\u0631\u0648\u0632","name:ga":"Cill R\u00edmhinn","name:lt":"Sent Andrusas","name:gd":"Cill R\u00ecmhinn","kind_detail":"town","name":"St Andrews","source":"openstreetmap.org","name:zh":"\u5723\u5b89\u5fb7\u9c81\u65af"},"coordinates":[49,2950]},{"type":"Point","properties":{"kind":"locality","name":"Haddington","name:gd":"Baile Adainn","kind_detail":"town","source":"openstreetmap.org","min_zoom":8.0,"id":29537641,"population":9944},"coordinates":[97,937]},{"type":"Point","properties":{"kind":"locality","name":"North Berwick","name:gd":"Bearaig-a-Tuath","kind_detail":"town","source":"openstreetmap.org","min_zoom":8.0,"id":32053154,"population":6605},"coordinates":[267,1473]},{"type":"Point","properties":{"kind":"locality","name":"Anstruther","name:gd":"\u00c0nsruthair","kind_detail":"town","name:ga":"\u00c1nstruthair","source":"openstreetmap.org","min_zoom":8.0,"id":3912817484,"population":3600},"coordinates":[326,2336]},{"type":"Point","properties":{"kind":"locality","name":"Crail","name:gd":"Cathair Aile","kind_detail":"town","source":"openstreetmap.org","min_zoom":8.0,"id":26347904,"population":1639},"coordinates":[541,2533]}]},"transit":{"type":"GeometryCollection","geometries":[{"type":"LineString","properties":{"kind":"train","network":"national","service":"night","sort_rank":275,"source":"openstreetmap.org","min_zoom":6.0,"operator":"Serco","ref":"CS H","osm_relation":true,"name":"Highland Caledonian Sleeper: Aberdeen => London Euston"},"arcs":[5]},{"type":"LineString","properties":{"kind":"train","name":"Highland Caledonian Sleeper: London Euston => Aberdeen","service":"night","sort_rank":275,"source":"openstreetmap.org","min_zoom":6.0,"operator":"Serco","ref":"CS H","osm_relation":true,"network":"national"},"arcs":[6]},{"type":"LineString","properties":{"kind":"train","network":"ScotRail","service":"commuter","sort_rank":275,"colour":"#2E8B57","name":"North Berwick Line: North Berwick => Edinburgh","source":"openstreetmap.org","min_zoom":6.0,"operator":"Abellio ScotRail","ref":"North Berwick","id":-6243330,"osm_relation":true,"colour_name":"mediumseagreen"},"arcs":[7]},{"type":"MultiLineString","properties":{"kind":"train","network":"national","sort_rank":275,"source":"openstreetmap.org","min_zoom":6.0,"operator":"Virgin Trains East Coast","ref":"GR B","osm_relation":true,"name":"Aberdeen => London King's Cross (fast)"},"arcs":[[8],[9]]},{"type":"LineString","properties":{"kind":"train","network":"national","sort_rank":275,"source":"openstreetmap.org","min_zoom":6.0,"operator":"Virgin Trains East Coast","ref":"GR C","osm_relation":true,"name":"London King's Cross => Edinburgh Waverley (semi-fast)"},"arcs":[10]},{"type":"LineString","properties":{"kind":"train","network":"Scotrail","sort_rank":275,"source":"openstreetmap.org","min_zoom":6.0,"operator":"Scotrail","osm_relation":true,"name":"Perth - Dundee"},"arcs":[11]},{"type":"LineString","properties":{"kind":"train","name":"Cross Country: Edinburgh => Plymouth","sort_rank":275,"source":"openstreetmap.org","min_zoom":6.0,"operator":"Arriva Cross Country","ref":"XC","osm_relation":true,"network":"national"},"arcs":[12]},{"type":"LineString","properties":{"kind":"train","network":"national","sort_rank":275,"source":"openstreetmap.org","min_zoom":6.0,"operator":"Virgin Trains East Coast","ref":"GR B","osm_relation":true,"name":"Edinburgh Waverley => London King's Cross (fast)"},"arcs":[13]},{"type":"LineString","properties":{"kind":"train","network":"national","sort_rank":275,"colour":"#C80815","name":"Cross Country: Plymouth => Edinburgh","source":"openstreetmap.org","min_zoom":6.0,"operator":"Arriva Cross Country","ref":"XC","osm_relation":true,"colour_name":"crimson"},"arcs":[14]},{"type":"LineString","properties":{"kind":"train","network":"national","sort_rank":275,"source":"openstreetmap.org","min_zoom":6.0,"operator":"Virgin Trains East Coast","ref":"GR C","osm_relation":true,"name":"Edinburgh Waverley => London King's Cross (semi-fast)"},"arcs":[15]},{"type":"MultiLineString","properties":{"kind":"train","network":"national","sort_rank":275,"source":"openstreetmap.org","min_zoom":6.0,"operator":"Virgin Trains East Coast","ref":"GR B","osm_relation":true,"name":"London King's Cross => Aberdeen (fast)"},"arcs":[[16],[17]]},{"type":"LineString","properties":{"kind":"train","network":"national","sort_rank":275,"source":"openstreetmap.org","min_zoom":6.0,"operator":"Virgin Trains East Coast","ref":"GR B","osm_relation":true,"name":"London King's Cross => Edinburgh Waverley (fast)"},"arcs":[18]},{"type":"LineString","properties":{"kind":"train","network":"national","sort_rank":275,"source":"openstreetmap.org","min_zoom":6.0,"operator":"Virgin Trains East Coast","ref":"GR B","osm_relation":true,"name":"London King's Cross => Inverness (fast)"},"arcs":[19]},{"type":"LineString","properties":{"kind":"train","network":"ScotRail","service":"commuter","sort_rank":275,"colour":"#2E8B57","name":"North Berwick Line: Edinburgh => North Berwick","source":"openstreetmap.org","min_zoom":6.0,"operator":"Abellio ScotRail","ref":"North Berwick","id":-6399367,"osm_relation":true,"colour_name":"mediumseagreen"},"arcs":[20]},{"type":"LineString","properties":{"kind":"train","network":"ScotRail","service":"commuter","sort_rank":275,"colour":"#2E8B57","name":"North Berwick Line: Edinburgh => Dunbar","source":"openstreetmap.org","min_zoom":6.0,"operator":"Abellio ScotRail","ref":"North Berwick","id":-6399366,"osm_relation":true,"colour_name":"mediumseagreen"},"arcs":[21]},{"type":"LineString","properties":{"kind":"train","network":"ScotRail","service":"commuter","sort_rank":275,"colour":"#2E8B57","name":"North Berwick Line: Dunbar => Edinburgh","source":"openstreetmap.org","min_zoom":6.0,"operator":"Abellio ScotRail","ref":"North Berwick","id":-6355029,"osm_relation":true,"colour_name":"mediumseagreen"},"arcs":[22]},{"type":"LineString","properties":{"source":"openstreetmap.org","kind":"train","name":"Edinburgh to Aberdeen Line","sort_rank":275,"min_zoom":6.0,"osm_relation":true},"arcs":[23]},{"type":"LineString","properties":{"kind":"train","network":"national","sort_rank":275,"source":"openstreetmap.org","min_zoom":6.0,"operator":"Virgin Trains East Coast","ref":"GR B","osm_relation":true,"name":"Inverness => London King's Cross (fast)"},"arcs":[24]}]},"pois":{"type":"GeometryCollection","geometries":[{"type":"Point","properties":{"kind":"nature_reserve","name":"Firth of Forth Banks Marine Protected Area","area":2702200000,"source":"openstreetmap.org","min_zoom":6.59,"tier":2,"id":-6012699,"osm_relation":true},"coordinates":[2520,3567]},{"type":"Point","properties":{"source":"openstreetmap.org","kind":"military","name":"Barry Buddon Camp","area":30322400,"tier":3,"min_zoom":8.0,"id":62798621},"coordinates":[161,3677]}]},"boundaries":{"type":"GeometryCollection","geometries":[{"type":"LineString","properties":{"name:kg":"Royaume-Uni","name:ty":"Parat\u0101ne","name:ka":"\u10d2\u10d0\u10d4\u10e0\u10d7\u10d8\u10d0\u10dc\u10d4\u10d1\u10e3\u10da\u10d8 \u10e1\u10d0\u10db\u10d4\u10e4\u10dd","name:ko":"\uc601\uad6d","name:cv":"\u0410\u0441\u043b\u0103 \u0411\u0440\u0438\u0442\u0430\u043d\u0438","name:cu":"\u0412\u0454\u043b\u0438\u043a\u0430 \u0411\u0440\u0438\u0442\u0430\u043d\u0457\ua657","name:kl":"Tuluit Nunaat","name:cs":"Spojen\u00e9 kr\u00e1lovstv\u00ed","name:tt":"\u0411\u04e9\u0435\u043a\u0431\u0440\u0438\u0442\u0430\u043d\u0438\u044f","name:co":"Regnu Unitu","name:kv":"\u042b\u0434\u0436\u044b\u0434 \u0411\u0440\u0438\u0442\u0430\u043d\u0438\u044f","name:ku":"Keyaniya Yekb\u00fby\u00ee","name:tl":"Nagkakaisang Kaharian","name:ce":"\u0419\u043e\u043a\u043a\u0445\u0430 \u0411\u0440\u0438\u0442\u0430\u043d\u0438","name:ta":"\u0b90\u0b95\u0bcd\u0b95\u0bbf\u0baf \u0b87\u0bb0\u0bbe\u0b9a\u0bcd\u0b9a\u0bbf\u0baf\u0bae\u0bcd","name:tg":"\u041f\u043e\u0434\u0448\u043e\u04b3\u0438\u0438 \u041c\u0443\u0442\u0442\u0430\u04b3\u0438\u0434\u0430","name:ca":"Regne Unit","name:te":"\u0c2f\u0c41\u0c28\u0c48\u0c1f\u0c46\u0c21\u0c4d \u0c15\u0c3f\u0c02\u0c17\u0c4d\u200c\u0c21\u0c2e\u0c4d","name:cy":"Deyrnas Unedig","name:qu":"Hukllachasqa Qhapaq Suyu","name:da":"Storbritannien","name:de":"Vereinigtes K\u00f6nigreich","name:dz":"\u0f61\u0f74\u0f0b\u0f53\u0f60\u0f72\u0f0b\u0f4a\u0f7a\u0f4a\u0f0b\u0f40\u0f72\u0f44\u0f0b\u0f4c\u0f58","source":"openstreetmap.org","name:kn":"\u0caf\u0cc1\u0ca8\u0cc8\u0c9f\u0cc6\u0ca1\u0ccd \u0c95\u0cbf\u0c82\u0c97\u0ccd\u200c\u0ca1\u0c82","name:dv":"\u0794\u07aa\u0782\u07a6\u0787\u07a8\u0793\u07ac\u0791\u07b0 \u0786\u07a8\u0782\u07b0\u078e\u07b0\u0791\u07a6\u0789\u07b0","name:km":"\u179a\u17b6\u1787\u17b6\u178e\u17b6\u1785\u1780\u17d2\u179a\u179a\u17bd\u1798","name:lv":"Apvienot\u0101 Karaliste","name:lt":"Jungtin\u0117 Karalyst\u0117","name:uz":"Birlashgan Qirollik","name:kk":"\u04b0\u043b\u044b\u0431\u0440\u0438\u0442\u0430\u043d\u0438\u044f","name:ur":"\u0628\u0631\u0637\u0627\u0646\u06cc\u06c1","name:lb":"Groussbritannien an Nordirland","name:la":"Britanniarum Regnum","name:uk":"\u0412\u0435\u043b\u0438\u043a\u0430 \u0411\u0440\u0438\u0442\u0430\u043d\u0456\u044f","name:ug":"\u0628\u06c8\u064a\u06c8\u0643 \u0628\u06d0\u0631\u0649\u062a\u0627\u0646\u0649\u064a\u06d5","name:li":"Vereineg Keuninkriek","name:ln":"Ing\u025bl\u025b\u0301t\u025bl\u025b","name:el":"\u0397\u03bd\u03c9\u03bc\u03ad\u03bd\u03bf \u0392\u03b1\u03c3\u03af\u03bb\u03b5\u03b9\u03bf","name:eo":"Britujo","name":"United Kingdom","name:th":"\u0e2a\u0e2b\u0e23\u0e32\u0e0a\u0e2d\u0e32\u0e13\u0e32\u0e08\u0e31\u0e01\u0e23","name:eu":"Erresuma Batua","name:et":"Suurbritannia","name:es":"Reino Unido","name:ia":"Regno Unite","name:rm":"Reginavel Un\u00ec","name:az":"B\u00f6y\u00fck Britaniya","name:ie":"Reyatu Unit","name:id":"Britania Raya","name:ig":"Obodo\u00e9z\u00e8 N\u00e0 Of\u00fa","name:ar":"\u0627\u0644\u0645\u0645\u0644\u0643\u0629 \u0627\u0644\u0645\u062a\u062d\u062f\u0629","name:io":"Unionita Rejio","name:is":"Bretland","name:am":"\u12e9\u1293\u12ed\u1275\u12f5 \u12aa\u1295\u130d\u12f0\u121d","name:it":"Regno Unito","name:an":"Reino Unito","name:ru":"\u0412\u0435\u043b\u0438\u043a\u043e\u0431\u0440\u0438\u0442\u0430\u043d\u0438\u044f","name:ab":"\u0411\u0440\u0438\u0442\u0430\u043d\u0438\u0430 \u0414\u0443","name:af":"Verenigde Koninkryk","name:zu":"Umbuso Ohlangeneyo","kind_detail":"2","name:za":"Yinghgoz","name:zh-yue":"\u82f1\u570b","name:zh":"\u82f1\u570b","name:so":"Midowga boqortooyada Britan","name:sl":"Zdru\u017eeno kraljestvo Velike Britanije in Severne Irske","name:sk":"Spojen\u00e9 kr\u00e1\u013eovstvo","name:ja":"\u30a4\u30ae\u30ea\u30b9","name:si":"\u0d91\u0d9a\u0dca\u0dc3\u0dad\u0dca \u0dbb\u0dcf\u0da2\u0db0\u0dcf\u0db1\u0dd2\u0dba","name:sh":"Ujedinjeno Kraljevstvo","name:se":"Ovttastuvvan gonagasriika","name:sc":"Rennu Auniadu","name:sa":"\u0938\u0902\u092f\u0941\u0915\u094d\u0924 \u0905\u0927\u093f\u0930\u093e\u091c\u094d\u092f","name:bs":"Ujedinjeno Kraljevstvo Velike Britanije i Sjeverne Irske","name:bn":"\u09af\u09c1\u0995\u09cd\u09a4\u09b0\u09be\u099c\u09cd\u09af","name:bo":"\u0f51\u0f56\u0fb1\u0f72\u0f53\u0f0b\u0f47\u0f72\u0f0b\u0f58\u0f49\u0f58\u0f0b\u0f60\u0f56\u0fb2\u0f7a\u0f63\u0f0d","name:br":"Rouantelezh-Unanet","name:sw":"Ufalme wa Muungano","name:be":"\u0412\u044f\u043b\u0456\u043a\u0430\u0431\u0440\u044b\u0442\u0430\u043d\u0456\u044f","name:su":"Britania","name:bg":"\u041e\u0431\u0435\u0434\u0438\u043d\u0435\u043d\u043e \u043a\u0440\u0430\u043b\u0441\u0442\u0432\u043e \u0412\u0435\u043b\u0438\u043a\u043e\u0431\u0440\u0438\u0442\u0430\u043d\u0438\u044f \u0438 \u0421\u0435\u0432\u0435\u0440\u043d\u0430 \u0418\u0440\u043b\u0430\u043d\u0434\u0438\u044f","name:ba":"\u0411\u04e9\u0439\u04e9\u043a \u0411\u0440\u0438\u0442\u0430\u043d\u0438\u044f","name:sq":"Mbret\u00ebria e Bashkuar e Britanis\u00eb dhe Irland\u00ebs s\u00eb Veriut","name:jv":"Britania Raya","name:bi":"Unaeted Kingdom","name:pt":"Reino Unido","name:ps":"\u0628\u0631\u064a\u062a\u0627\u0646\u064a\u0627","name:oc":"Reialme Unit","min_zoom":8.0,"name:ro":"Regatul Unit al Marii Britanii \u0219i al Irlandei de Nord","name:zh-min-nan":"Li\u00e2n-ha\u030dp \u00d4ng-kok","name:os":"\u0421\u0442\u044b\u0440 \u0411\u0440\u0438\u0442\u0430\u043d\u0438","name:or":"\u0b2f\u0b41\u0b15\u0b4d\u0b24\u0b30\u0b3e\u0b1c\u0b4d\u0b5f","name:pl":"Wielka Brytania","sort_rank":262,"name:sr":"\u0423\u0458\u0435\u0434\u0438\u045a\u0435\u043d\u043e \u041a\u0440\u0430\u0459\u0435\u0432\u0441\u0442\u0432\u043e","osm_relation":true,"name:pa":"\u0a38\u0a70\u0a2f\u0a41\u0a15\u0a24 \u0a2c\u0a3e\u0a26\u0a38\u0a3c\u0a3e\u0a39\u0a40","name:tr":"Birle\u015fik Krall\u0131k","name:hi":"\u092f\u0942\u0928\u093e\u0907\u091f\u0947\u0921 \u0915\u093f\u0902\u0917\u0921\u092e","name:sv":"Storbritannien","name:he":"\u05d4\u05de\u05de\u05dc\u05db\u05d4 \u05d4\u05de\u05d0\u05d5\u05d7\u05d3\u05ea","name:ha":"Birtaniya","name:hy":"\u0544\u056b\u0561\u0581\u0575\u0561\u056c \u0539\u0561\u0563\u0561\u057e\u0578\u0580\u0578\u0582\u0569\u0575\u0578\u0582\u0576","name:ht":"Way\u00f2m Ini","name:hu":"Egyes\u00fclt Kir\u00e1lys\u00e1g","name:hr":"Ujedinjeno Kraljevstvo","kind":"country","name:yi":"\u05e4\u05d0\u05e8\u05d0\u05d9\u05d9\u05e0\u05d9\u05d2\u05d8\u05e2 \u05e7\u05e2\u05e0\u05d9\u05d2\u05e8\u05d9\u05d9\u05da","name:yo":"Il\u1eb9\u0300\u1ecdba A\u1e63\u1ecd\u0300kan","name:mt":"Renju Unit","alt_name:eo":"Britio","name:mr":"\u092f\u0941\u0928\u093e\u092f\u091f\u0947\u0921 \u0915\u093f\u0902\u0917\u094d\u0921\u092e","name:my":"\u101a\u1030\u1014\u102d\u102f\u1000\u103a\u1010\u1000\u103a\u1000\u1004\u103a\u1038\u1012\u1019\u103a\u1038\u1014\u102d\u102f\u1004\u103a\u1004\u1036","name:kw":"Ruwvaneth Unys","name:mg":"Fanjakana Mitambatra","name:vi":"V\u01b0\u01a1ng qu\u1ed1c Anh","name:ml":"\u0d2f\u0d41\u0d23\u0d48\u0d31\u0d4d\u0d31\u0d21\u0d4d \u0d15\u0d3f\u0d19\u0d4d\u0d21\u0d02","name:mn":"\u0418\u0445 \u0411\u0440\u0438\u0442\u0430\u043d\u0438","name:mi":"K\u012bngitanga Kotahi","id":-62149,"name:mk":"\u041e\u0431\u0435\u0434\u0438\u043d\u0435\u0442\u043e \u041a\u0440\u0430\u043b\u0441\u0442\u0432\u043e","name:vo":"Reg\u00e4n Pebal\u00f6l","name:fa":"\u0628\u0631\u06cc\u062a\u0627\u0646\u06cc\u0627","name:rw":"Ubwongereza","short_name":"UK","name:fi":"Yhdistynyt kuningaskunta","name:ky":"\u0423\u043b\u0443\u0443 \u0411\u0440\u0438\u0442\u0430\u043d\u0438\u044f \u0436\u0430\u043d\u0430 \u0422\u04af\u043d\u0434\u04af\u043a \u0418\u0440\u043b\u0430\u043d\u0434\u0438\u044f","name:fo":"St\u00f3ra Bretland","name:fr":"Royaume-Uni","name:fy":"Feriene Keninkryk","name:nl":"Verenigd Koninkrijk","name:nn":"Storbritannia","name:no":"Storbritannia","name:na":"Ingerand","name:ne":"\u0938\u0902\u092f\u0941\u0915\u094d\u0924 \u0905\u0927\u093f\u0930\u093e\u091c\u094d\u092f","name:wo":"Nguur-Yu-Bennoo","name:nv":"T\u00f3ta\u02bc Din\u00e9\u02bci\u02bc Bik\u00e9yah","name:ga":"An R\u00edocht Aontaithe","name:gd":"An R\u00ecoghachd Aonaichte","name:gn":"Tavet\u00e3 Joaju","name:gl":"Reino Unido","maritime_boundary":true,"name:gv":"Reeriaght Unnaneysit","name:gu":"\u0aaf\u0ac1\u0aa8\u0abe\u0a87\u0a9f\u0ac7\u0aa1 \u0a95\u0abf\u0a82\u0a97\u0aa1\u0aae"},"arcs":[0]},{"type":"LineString","properties":{"name:left:la":"Anglia","alt_name:left:eo":"Anglio","name:right:la":"Scotia","name:right:hr":"\u0160kotska","name:right:hu":"Sk\u00f3cia","name:right:lt":"\u0160kotija","min_zoom":8.0,"name:left:lt":"Anglija","name:left:sk":"Anglicko","name:left:hu":"Anglia","alt_name:left:ia":"Anglia","name:left:ga":"Sasana","name:left:gd":"Sasainn","sort_rank":256,"name:left:ca":"Anglaterra","source":"openstreetmap.org","name:left:cy":"Lloegr","name:right:ar":"\u0625\u0633\u0643\u062a\u0644\u0646\u062f\u0627","name:left:gv":"Sostyn","name:left:cs":"Anglie","name:left":"England","name:right:es":"Escocia","name:right:mi":"Koterana","name:right:eu":"Eskozia","name:right:vo":"Skot\u00e4n","name:right:it":"Scozia","name:right:ru":"\u0428\u043e\u0442\u043b\u0430\u043d\u0434\u0438\u044f","name:right:io":"Skotia","name:left:ru":"\u0410\u043d\u0433\u043b\u0438\u044f","name:left:vo":"Lingl\u00e4n","name:right:fy":"Skotl\u00e2n","name:right:eo":"Skotlando","name:right:ia":"Scotia","name:left:vi":"Anh","kind":"region","name":"England - Scotland","name:right:sk":"\u0160k\u00f3tsko","name:right:be":"\u0428\u0430\u0442\u043b\u0430\u043d\u0434\u044b\u044f","name:left:zh":"\u82f1\u683c\u862d","name:left:fr":"Angleterre","name:right:br":"Bro-Skos","name:left:fy":"Ingel\u00e2n","name:right:nl":"Schotland","name:right:fr":"\u00c9cosse","name:right:sv":"Skottland","name:left:uk":"\u0410\u043d\u0433\u043b\u0456\u044f","name:left:nl":"Engeland","alt_name:right:eo":"Skotio;Skotujo","name:left:be":"\u0410\u043d\u0433\u043b\u0456\u044f","name:left:fi":"Englanti","id":-58447,"name:right:fi":"Skotlanti","old_name:left:vi":"Anh Qu\u1ed1c","name:left:eo":"Anglujo","name:left:el":"\u0391\u03b3\u03b3\u03bb\u03af\u03b1","name:right:ca":"Esc\u00f2cia","kind_detail":"4","alt_name:right:vi":"T\u00f4 C\u00e1ch Lan;Xc\u1ed1t-lan","name:right:cy":"Yr Alban","id:left":-58447,"name:left:es":"Inglaterra","name:right":"Scotland","id:right":-58446,"name:left:io":"Anglia","name:right:gv":"Nalbin","name:right:pt":"Esc\u00f3cia","name:left:pl":"Anglia","name:left:tr":"\u0130ngiltere","name:left:ia":"Anglaterra","name:left:pt":"Inglaterra","name:right:gd":"Alba","name:left:it":"Inghilterra","name:right:pl":"Szkocja","osm_relation":true,"name:right:de":"Schottland"},"arcs":[1]},{"type":"LineString","properties":{"name:left:la":"Anglia","alt_name:left:eo":"Anglio","name:right:la":"Scotia","name:right:hr":"\u0160kotska","name:right:hu":"Sk\u00f3cia","name:right:lt":"\u0160kotija","min_zoom":8.0,"name:left:lt":"Anglija","name:left:sk":"Anglicko","name:left:hu":"Anglia","alt_name:left:ia":"Anglia","name:left:ga":"Sasana","name:left:gd":"Sasainn","sort_rank":256,"name:left:ca":"Anglaterra","source":"openstreetmap.org","name:left:cy":"Lloegr","name:right:ar":"\u0625\u0633\u0643\u062a\u0644\u0646\u062f\u0627","name:left:gv":"Sostyn","name:left:cs":"Anglie","name:left":"England","name:right:es":"Escocia","name:right:mi":"Koterana","name:right:eu":"Eskozia","name:right:vo":"Skot\u00e4n","name:right:it":"Scozia","name:right:ru":"\u0428\u043e\u0442\u043b\u0430\u043d\u0434\u0438\u044f","name:right:io":"Skotia","name:left:ru":"\u0410\u043d\u0433\u043b\u0438\u044f","name:left:vo":"Lingl\u00e4n","name:right:sv":"Skottland","name:right:eo":"Skotlando","name:right:ia":"Scotia","name:left:vi":"Anh","kind":"region","name":"England - Scotland","name:left:nl":"Engeland","name:right:be":"\u0428\u0430\u0442\u043b\u0430\u043d\u0434\u044b\u044f","name:left:zh":"\u82f1\u683c\u862d","name:left:fr":"Angleterre","name:right:br":"Bro-Skos","name:right:fy":"Skotl\u00e2n","name:left:fy":"Ingel\u00e2n","name:right:nl":"Schotland","name:right:fr":"\u00c9cosse","id:right":-58446,"name:left:uk":"\u0410\u043d\u0433\u043b\u0456\u044f","name:right:sk":"\u0160k\u00f3tsko","alt_name:right:eo":"Skotio;Skotujo","name:left:be":"\u0410\u043d\u0433\u043b\u0456\u044f","name:left:fi":"Englanti","id":-58447,"name:right:fi":"Skotlanti","old_name:left:vi":"Anh Qu\u1ed1c","name:left:eo":"Anglujo","name:left:el":"\u0391\u03b3\u03b3\u03bb\u03af\u03b1","name:right:ca":"Esc\u00f2cia","kind_detail":"4","alt_name:right:vi":"T\u00f4 C\u00e1ch Lan;Xc\u1ed1t-lan","name:right:cy":"Yr Alban","id:left":-58447,"name:left:es":"Inglaterra","name:right":"Scotland","name:left:io":"Anglia","name:right:gv":"Nalbin","name:right:pt":"Esc\u00f3cia","name:left:pl":"Anglia","name:left:tr":"\u0130ngiltere","name:left:ia":"Anglaterra","name:left:pt":"Inglaterra","name:right:gd":"Alba","name:left:it":"Inghilterra","name:right:pl":"Szkocja","osm_relation":true,"name:right:de":"Schottland","maritime_boundary":true},"arcs":[2]},{"type":"LineString","properties":{"name:ia":"Anglaterra","name:ga":"Sasana","name:pt":"Inglaterra","name:cy":"Lloegr","name:tr":"\u0130ngiltere","name:cs":"Anglie","alt_name:eo":"Anglio","name:io":"Anglia","min_zoom":8.0,"name:it":"Inghilterra","name:ru":"\u0410\u043d\u0433\u043b\u0438\u044f","name:vi":"Anh","name:pl":"Anglia","id":-58447,"name:ca":"Anglaterra","name:vo":"Lingl\u00e4n","sort_rank":256,"name:fi":"Englanti","old_name:vi":"Anh Qu\u1ed1c","source":"openstreetmap.org","name:fr":"Angleterre","name:fy":"Ingel\u00e2n","name:zh":"\u82f1\u683c\u862d","name:nl":"Engeland","name:lt":"Anglija","name:eo":"Anglujo","name:la":"Anglia","name:sk":"Anglicko","name:uk":"\u0410\u043d\u0433\u043b\u0456\u044f","name:be":"\u0410\u043d\u0433\u043b\u0456\u044f","name:hu":"Anglia","osm_relation":true,"alt_name:ia":"Anglia","name:el":"\u0391\u03b3\u03b3\u03bb\u03af\u03b1","kind":"region","name":"England","name:gd":"Sasainn","maritime_boundary":true,"name:gv":"Sostyn","kind_detail":"4","name:es":"Inglaterra"},"arcs":[3]},{"type":"LineString","properties":{"name:ia":"Scotia","name:pt":"Esc\u00f3cia","name:cy":"Yr Alban","name:ar":"\u0625\u0633\u0643\u062a\u0644\u0646\u062f\u0627","alt_name:eo":"Skotio;Skotujo","name:io":"Skotia","min_zoom":8.0,"name:it":"Scozia","name:sv":"Skottland","name:ru":"\u0428\u043e\u0442\u043b\u0430\u043d\u0434\u0438\u044f","name:pl":"Szkocja","name:mi":"Koterana","id":-58446,"name:ca":"Esc\u00f2cia","name:vo":"Skot\u00e4n","alt_name:vi":"T\u00f4 C\u00e1ch Lan;Xc\u1ed1t-lan","sort_rank":256,"name:fi":"Skotlanti","name:de":"Schottland","source":"openstreetmap.org","name:fr":"\u00c9cosse","name:fy":"Skotl\u00e2n","name:nl":"Schotland","name:lt":"\u0160kotija","name:eo":"Skotlando","name:br":"Bro-Skos","name:la":"Scotia","name:sk":"\u0160k\u00f3tsko","name:be":"\u0428\u0430\u0442\u043b\u0430\u043d\u0434\u044b\u044f","name:hu":"Sk\u00f3cia","name:hr":"\u0160kotska","osm_relation":true,"kind":"region","name":"Scotland","name:gd":"Alba","maritime_boundary":true,"name:gv":"Nalbin","kind_detail":"4","name:eu":"Eskozia","name:es":"Escocia"},"arcs":[4]}]},"roads":{"type":"GeometryCollection","geometries":[{"type":"MultiLineString","properties":{"kind":"major_road","sort_rank":380,"kind_detail":"primary","is_bicycle_related":true,"bicycle_shield_text":"loop","bicycle_network":"rcn","source":"openstreetmap.org","min_zoom":8.0,"ref":"A6112"},"arcs":[[30],[31]]},{"type":"MultiLineString","properties":{"kind":"major_road","sort_rank":377,"kind_detail":"tertiary","is_bicycle_related":true,"bicycle_shield_text":"76","bicycle_network":"ncn","source":"openstreetmap.org","min_zoom":8.0},"arcs":[[32],[33],[34],[35],[36],[37],[38],[39],[40],[41],[42]]},{"type":"MultiLineString","properties":{"source":"openstreetmap.org","kind":"major_road","sort_rank":380,"kind_detail":"primary","ref":"A1087","min_zoom":8.0},"arcs":[[43],[44],[45],[46],[47],[48],[49],[50],[51],[52],[53],[54]]},{"type":"LineString","properties":{"kind":"major_road","sort_rank":379,"kind_detail":"secondary","is_bicycle_related":true,"bicycle_shield_text":"76","bicycle_network":"ncn","source":"openstreetmap.org","min_zoom":8.0,"ref":"B6438","id":37343325},"arcs":[55]},{"type":"MultiLineString","properties":{"bus_network":null,"sort_rank":380,"kind_detail":"primary","kind":"major_road","source":"openstreetmap.org","min_zoom":8.0,"bus_shield_text":"99A","ref":"A915"},"arcs":[[56],[57],[58],[59]]},{"type":"LineString","properties":{"kind":"major_road","sort_rank":380,"kind_detail":"primary","bus_network":null,"source":"openstreetmap.org","min_zoom":8.0,"bus_shield_text":"99A","id":25208306},"arcs":[60]},{"type":"LineString","properties":{"kind":"major_road","sort_rank":380,"kind_detail":"primary","is_bicycle_related":true,"bicycle_shield_text":"blue","bicycle_network":"lcn","source":"openstreetmap.org","min_zoom":8.0,"ref":"A1107"},"arcs":[61]},{"type":"MultiLineString","properties":{"source":"openstreetmap.org","kind":"major_road","sort_rank":380,"kind_detail":"primary","ref":"A930","min_zoom":8.0},"arcs":[[62],[63],[64],[65],[66],[67],[68],[69]]},{"type":"MultiLineString","properties":{"kind":"minor_road","sort_rank":360,"kind_detail":"unclassified","is_bicycle_related":true,"bicycle_shield_text":"EV12","cycleway":"lane","source":"openstreetmap.org","min_zoom":8.0,"bicycle_network":"icn"},"arcs":[[70],[71],[72]]},{"type":"LineString","properties":{"kind":"major_road","sort_rank":380,"kind_detail":"primary","is_bicycle_related":true,"bicycle_network":"lcn","source":"openstreetmap.org","min_zoom":8.0,"ref":"A6093","id":299280843},"arcs":[73]},{"type":"LineString","properties":{"kind":"major_road","sort_rank":379,"kind_detail":"secondary","is_bicycle_related":true,"bicycle_shield_text":"76","bicycle_network":"ncn","source":"openstreetmap.org","min_zoom":8.0,"ref":"B1377","id":35305206},"arcs":[74]},{"type":"LineString","properties":{"source":"openstreetmap.org","kind":"major_road","sort_rank":380,"kind_detail":"primary","ref":"A918","min_zoom":8.0,"id":4329641},"arcs":[75]},{"type":"LineString","properties":{"source":"openstreetmap.org","kind":"major_road","sort_rank":380,"kind_detail":"primary","ref":"A1167","min_zoom":8.0,"id":79675536},"arcs":[76]},{"type":"MultiLineString","properties":{"kind":"major_road","sort_rank":380,"kind_detail":"primary","is_bicycle_related":true,"bicycle_shield_text":"76","bicycle_network":"ncn","source":"openstreetmap.org","min_zoom":8.0,"landuse_kind":"residential","ref":"A1087"},"arcs":[[77],[78],[79],[80],[81],[82],[83]]},{"type":"MultiLineString","properties":{"bus_network":null,"network":"Scottish National Tourist Routes","sort_rank":380,"kind_detail":"primary","kind":"major_road","source":"openstreetmap.org","min_zoom":8.0,"bus_shield_text":"99A","shield_text":null,"ref":"A91"},"arcs":[[84],[85],[86],[87],[88],[89],[90]]},{"type":"LineString","properties":{"kind":"major_road","sort_rank":380,"kind_detail":"primary","bus_network":null,"source":"openstreetmap.org","min_zoom":8.0,"bus_shield_text":"X60","ref":"A915","id":219230378},"arcs":[91]},{"type":"MultiLineString","properties":{"kind":"major_road","sort_rank":380,"kind_detail":"primary","is_bicycle_related":true,"cycleway":"lane","source":"openstreetmap.org","min_zoom":8.0,"ref":"A199"},"arcs":[[92],[93],[94],[95],[96],[97]]},{"type":"MultiLineString","properties":{"kind":"minor_road","sort_rank":360,"kind_detail":"unclassified","is_bicycle_related":true,"bicycle_shield_text":"76","bicycle_network":"ncn","source":"openstreetmap.org","min_zoom":8.0},"arcs":[[98],[99],[100],[101]]},{"type":"LineString","properties":{"kind":"major_road","sort_rank":379,"kind_detail":"secondary","is_bicycle_related":true,"bus_network":null,"bicycle_shield_text":"EV12","bicycle_network":"icn","source":"openstreetmap.org","min_zoom":8.0,"bus_shield_text":"99A","ref":"B939","id":41387520},"arcs":[102]},{"type":"LineString","properties":{"kind":"major_road","sort_rank":380,"kind_detail":"primary","is_bicycle_related":true,"bicycle_shield_text":"EV12","bicycle_network":"icn","source":"openstreetmap.org","min_zoom":8.0,"ref":"A6105","id":171381168},"arcs":[103]},{"type":"LineString","properties":{"bus_network":null,"network":"Scottish National Tourist Routes","sort_rank":380,"kind_detail":"primary","kind":"major_road","source":"openstreetmap.org","min_zoom":8.0,"bus_shield_text":"64","shield_text":null,"ref":"A917"},"arcs":[104]},{"type":"LineString","properties":{"kind":"major_road","sort_rank":380,"kind_detail":"primary","is_bicycle_related":true,"bicycle_shield_text":null,"bicycle_network":"lcn","source":"openstreetmap.org","min_zoom":8.0,"landuse_kind":"residential","ref":"A1087","id":228302656},"arcs":[105]},{"type":"MultiLineString","properties":{"source":"openstreetmap.org","kind":"major_road","sort_rank":380,"kind_detail":"primary","ref":"A199","min_zoom":8.0},"arcs":[[106],[107],[108],[109],[110],[111],[112],[113],[114],[115],[116],[117],[118],[119],[120],[121],[122],[123],[124],[125],[126],[127],[128],[129],[130],[131],[132]]},{"type":"MultiLineString","properties":{"kind":"major_road","sort_rank":380,"kind_detail":"primary","is_bicycle_related":true,"bicycle_shield_text":"blue","bicycle_network":"lcn","source":"openstreetmap.org","min_zoom":8.0,"ref":"A6105","id":110683648},"arcs":[[133],[134]]},{"type":"MultiLineString","properties":{"kind":"path","sort_rank":354,"kind_detail":"cycleway","is_bicycle_related":true,"bicycle_shield_text":"76","bicycle_network":"ncn","source":"openstreetmap.org","min_zoom":8.0},"arcs":[[135],[136],[137],[138],[139],[140]]},{"type":"MultiLineString","properties":{"kind":"path","sort_rank":354,"kind_detail":"track","is_bicycle_related":true,"bicycle_shield_text":"EV12","bicycle_network":"icn","source":"openstreetmap.org","min_zoom":8.0},"arcs":[[141],[142]]},{"type":"LineString","properties":{"kind":"path","sort_rank":354,"kind_detail":"cycleway","is_bicycle_related":true,"bicycle_shield_text":"EV12","bicycle_network":"icn","source":"openstreetmap.org","min_zoom":8.0,"landuse_kind":"military"},"arcs":[143]},{"type":"LineString","properties":{"kind":"major_road","network":"e-road","sort_rank":381,"kind_detail":"trunk","source":"openstreetmap.org","min_zoom":8.0,"shield_text":"15","id":4643367},"arcs":[144]},{"type":"LineString","properties":{"kind":"major_road","sort_rank":380,"kind_detail":"primary","bus_network":null,"source":"openstreetmap.org","min_zoom":8.0,"bus_shield_text":"9B","ref":"A915","id":219037496},"arcs":[145]},{"type":"LineString","properties":{"kind":"major_road","sort_rank":380,"kind_detail":"primary","is_bicycle_related":true,"bicycle_shield_text":"red","bicycle_network":"lcn","source":"openstreetmap.org","min_zoom":8.0,"ref":"A6105"},"arcs":[146]},{"type":"MultiLineString","properties":{"kind":"minor_road","sort_rank":360,"kind_detail":"residential","is_bicycle_related":true,"bicycle_shield_text":"76","bicycle_network":"ncn","source":"openstreetmap.org","min_zoom":8.0},"arcs":[[147],[148],[149],[150],[151],[152],[153],[154]]},{"type":"MultiLineString","properties":{"kind":"path","sort_rank":354,"kind_detail":"cycleway","is_bicycle_related":true,"bicycle_shield_text":"EV12","bicycle_network":"icn","source":"openstreetmap.org","min_zoom":8.0},"arcs":[[155],[156],[157],[158],[159],[160],[161],[162],[163],[164],[165],[166]]},{"type":"LineString","properties":{"source":"openstreetmap.org","kind":"major_road","sort_rank":381,"kind_detail":"trunk","ref":"A68","min_zoom":8.0},"arcs":[167]},{"type":"MultiLineString","properties":{"source":"openstreetmap.org","kind":"major_road","sort_rank":380,"kind_detail":"primary","ref":"A933","min_zoom":8.0},"arcs":[[168],[169]]},{"type":"MultiLineString","properties":{"source":"openstreetmap.org","kind":"major_road","landuse_kind":"residential","sort_rank":380,"kind_detail":"primary","ref":"A1087","min_zoom":8.0},"arcs":[[170],[171]]},{"type":"MultiLineString","properties":{"kind":"major_road","sort_rank":377,"kind_detail":"tertiary","is_bicycle_related":true,"bicycle_shield_text":"EV12","bicycle_network":"icn","source":"openstreetmap.org","min_zoom":8.0},"arcs":[[172],[173],[174]]},{"type":"LineString","properties":{"kind":"major_road","sort_rank":380,"kind_detail":"primary","is_bicycle_related":true,"bicycle_shield_text":"76","bicycle_network":"ncn","source":"openstreetmap.org","min_zoom":8.0,"ref":"A6105","id":335899005},"arcs":[175]},{"type":"LineString","properties":{"kind":"major_road","sort_rank":379,"kind_detail":"secondary","is_bicycle_related":true,"bicycle_shield_text":"76","bicycle_network":"ncn","source":"openstreetmap.org","min_zoom":8.0,"ref":"B6369","id":180452008},"arcs":[176]},{"type":"MultiLineString","properties":{"bus_network":null,"network":"Scottish National Tourist Routes","sort_rank":380,"kind_detail":"primary","kind":"major_road","source":"openstreetmap.org","min_zoom":8.0,"bus_shield_text":"X60","shield_text":null,"ref":"A917"},"arcs":[[177],[178]]},{"type":"LineString","properties":{"sort_rank":355,"source":"openstreetmap.org","kind":"ferry","min_zoom":8.0,"id":255903206},"arcs":[179]},{"type":"MultiLineString","properties":{"kind":"minor_road","sort_rank":360,"kind_detail":"residential","is_bicycle_related":true,"bicycle_shield_text":"EV12","bicycle_network":"icn","source":"openstreetmap.org","min_zoom":8.0},"arcs":[[180],[181],[182],[183],[184]]},{"type":"LineString","properties":{"kind":"major_road","sort_rank":380,"kind_detail":"primary","is_bicycle_related":true,"bicycle_shield_text":"loop","bicycle_network":"rcn","source":"openstreetmap.org","min_zoom":8.0,"ref":"A1107","id":37343313},"arcs":[185]},{"type":"LineString","properties":{"kind":"major_road","sort_rank":380,"kind_detail":"primary","is_bicycle_related":true,"bicycle_shield_text":"loop","bicycle_network":"rcn","source":"openstreetmap.org","min_zoom":8.0,"ref":"A6105","id":39467991},"arcs":[186]},{"type":"MultiLineString","properties":{"bus_network":null,"network":"Scottish National Tourist Routes","sort_rank":380,"kind_detail":"primary","kind":"major_road","source":"openstreetmap.org","min_zoom":8.0,"bus_shield_text":"95","shield_text":null,"ref":"A917"},"arcs":[[187],[188]]},{"type":"LineString","properties":{"source":"openstreetmap.org","kind":"major_road","network":"Scottish National Tourist Routes","sort_rank":380,"kind_detail":"primary","min_zoom":8.0,"shield_text":null},"arcs":[189]},{"type":"LineString","properties":{"kind":"path","sort_rank":354,"kind_detail":"footway","is_bicycle_related":true,"bicycle_shield_text":"EV12","bicycle_network":"icn","source":"openstreetmap.org","min_zoom":8.0},"arcs":[190]},{"type":"MultiLineString","properties":{"source":"openstreetmap.org","kind":"major_road","sort_rank":380,"kind_detail":"primary","ref":"A915","min_zoom":8.0},"arcs":[[191],[192],[193]]},{"type":"MultiLineString","properties":{"kind":"major_road","sort_rank":380,"kind_detail":"primary","is_bicycle_related":true,"bicycle_shield_text":"JMW","bicycle_network":"rcn","source":"openstreetmap.org","min_zoom":8.0,"ref":"A198"},"arcs":[[194],[195],[196],[197],[198],[199],[200]]},{"type":"LineString","properties":{"kind":"minor_road","sort_rank":360,"landuse_kind":"residential","is_bicycle_related":true,"bicycle_shield_text":"76","bicycle_network":"ncn","source":"openstreetmap.org","min_zoom":8.0,"kind_detail":"unclassified"},"arcs":[201]},{"type":"MultiLineString","properties":{"source":"openstreetmap.org","kind":"major_road","sort_rank":380,"kind_detail":"primary","ref":"A6105","min_zoom":8.0},"arcs":[[202],[203],[204],[205],[206],[207],[208]]},{"type":"MultiLineString","properties":{"source":"openstreetmap.org","kind":"major_road","landuse_kind":"urban_area","sort_rank":380,"kind_detail":"primary","ref":"A1167","min_zoom":8.0},"arcs":[[209],[210],[211],[212],[213],[214]]},{"type":"MultiLineString","properties":{"kind":"minor_road","sort_rank":360,"kind_detail":"unclassified","is_bicycle_related":true,"bicycle_shield_text":"EV12","bicycle_network":"icn","source":"openstreetmap.org","min_zoom":8.0},"arcs":[[215],[216],[217],[218],[219],[220],[221],[222]]},{"type":"LineString","properties":{"kind":"major_road","sort_rank":380,"kind_detail":"primary","is_bicycle_related":true,"bicycle_shield_text":"76","bicycle_network":"ncn","source":"openstreetmap.org","min_zoom":8.0,"landuse_kind":"residential","id":211058073},"arcs":[223]},{"type":"LineString","properties":{"kind":"path","sort_rank":354,"kind_detail":"path","is_bicycle_related":true,"bicycle_shield_text":"196","bicycle_network":"ncn","source":"openstreetmap.org","min_zoom":8.0},"arcs":[224]},{"type":"LineString","properties":{"bus_network":null,"sort_rank":379,"kind_detail":"secondary","is_bicycle_related":true,"kind":"major_road","bicycle_shield_text":"EV12","cycleway":"lane","source":"openstreetmap.org","min_zoom":8.0,"bus_shield_text":"99A","bicycle_network":"icn","ref":"B939"},"arcs":[225]},{"type":"LineString","properties":{"bus_network":null,"network":"Scottish National Tourist Routes","sort_rank":380,"kind_detail":"primary","kind":"major_road","source":"openstreetmap.org","min_zoom":8.0,"bus_shield_text":"99A","shield_text":null,"ref":"A917"},"arcs":[226]},{"type":"MultiLineString","properties":{"sort_rank":380,"kind_detail":"primary","min_zoom":8.0,"kind":"major_road","source":"openstreetmap.org"},"arcs":[[227],[228],[229],[230]]},{"type":"LineString","properties":{"kind":"major_road","network":"Scottish National Tourist Routes","sort_rank":380,"kind_detail":"primary","source":"openstreetmap.org","min_zoom":8.0,"shield_text":null,"ref":"A917","id":121674634},"arcs":[231]},{"type":"LineString","properties":{"sort_rank":381,"source":"openstreetmap.org","min_zoom":8.0,"kind":"major_road","kind_detail":"trunk"},"arcs":[232]},{"type":"LineString","properties":{"kind":"major_road","sort_rank":380,"kind_detail":"primary","is_bicycle_related":true,"cycleway":"lane","source":"openstreetmap.org","min_zoom":8.0,"ref":"A933","id":40768913},"arcs":[233]},{"type":"MultiLineString","properties":{"kind":"major_road","network":"Scottish National Tourist Routes","sort_rank":380,"kind_detail":"primary","source":"openstreetmap.org","min_zoom":8.0,"shield_text":null,"ref":"A92"},"arcs":[[234],[235],[236],[237],[238],[239],[240],[241],[242],[243],[244],[245],[246],[247]]},{"type":"LineString","properties":{"kind":"major_road","sort_rank":380,"kind_detail":"primary","is_bicycle_related":true,"bicycle_shield_text":"76","bicycle_network":"ncn","source":"openstreetmap.org","min_zoom":8.0,"ref":"A1107"},"arcs":[248]},{"type":"LineString","properties":{"kind":"path","sort_rank":354,"kind_detail":"cycleway","is_bicycle_related":true,"bicycle_shield_text":"76","cycleway":"shared","source":"openstreetmap.org","min_zoom":8.0,"bicycle_network":"ncn"},"arcs":[249]},{"type":"LineString","properties":{"kind":"major_road","network":"e-road","sort_rank":381,"kind_detail":"trunk","is_bicycle_related":true,"bicycle_shield_text":"loop","bicycle_network":"rcn","source":"openstreetmap.org","min_zoom":8.0,"shield_text":"15","ref":"A1"},"arcs":[250]},{"type":"MultiLineString","properties":{"source":"openstreetmap.org","kind":"major_road","sort_rank":380,"kind_detail":"primary","ref":"A6137","min_zoom":8.0},"arcs":[[251],[252],[253],[254]]},{"type":"MultiLineString","properties":{"kind":"major_road","network":"e-road","sort_rank":381,"kind_detail":"trunk","source":"openstreetmap.org","min_zoom":8.0,"shield_text":"15","ref":"A1"},"arcs":[[255],[256],[257],[258],[259],[260],[261],[262],[263],[264],[265],[266],[267],[268],[269],[270],[271],[272],[273],[274],[275]]},{"type":"MultiLineString","properties":{"source":"openstreetmap.org","kind":"major_road","sort_rank":380,"kind_detail":"primary","ref":"A6093","min_zoom":8.0},"arcs":[[276],[277],[278],[279]]},{"type":"MultiLineString","properties":{"kind":"major_road","sort_rank":377,"kind_detail":"tertiary","is_bicycle_related":true,"bicycle_shield_text":"196","bicycle_network":"ncn","source":"openstreetmap.org","min_zoom":8.0},"arcs":[[280],[281],[282],[283]]},{"type":"LineString","properties":{"kind":"major_road","network":"e-road","sort_rank":381,"kind_detail":"trunk","source":"openstreetmap.org","min_zoom":8.0,"landuse_kind":"residential","shield_text":"15","ref":"A1","id":77531020},"arcs":[284]},{"type":"MultiLineString","properties":{"kind":"major_road","sort_rank":380,"kind_detail":"primary","is_bicycle_related":true,"bicycle_shield_text":"76","bicycle_network":"ncn","source":"openstreetmap.org","min_zoom":8.0,"ref":"A1087"},"arcs":[[285],[286]]},{"type":"LineString","properties":{"kind":"major_road","sort_rank":379,"kind_detail":"secondary","is_bicycle_related":true,"bicycle_shield_text":"76","bicycle_network":"ncn","source":"openstreetmap.org","min_zoom":8.0,"ref":"B6471"},"arcs":[287]},{"type":"LineString","properties":{"kind":"minor_road","sort_rank":358,"kind_detail":"service","is_bicycle_related":true,"bicycle_shield_text":"76","bicycle_network":"ncn","source":"openstreetmap.org","min_zoom":8.0,"id":211649315},"arcs":[288]},{"type":"MultiLineString","properties":{"source":"openstreetmap.org","kind":"major_road","sort_rank":380,"kind_detail":"primary","ref":"A6112","min_zoom":8.0},"arcs":[[289],[290],[291]]},{"type":"LineString","properties":{"kind":"major_road","sort_rank":380,"kind_detail":"primary","bus_network":null,"source":"openstreetmap.org","min_zoom":8.0,"bus_shield_text":"99D","ref":"A918","id":36777378},"arcs":[292]},{"type":"LineString","properties":{"kind":"major_road","sort_rank":379,"kind_detail":"secondary","is_bicycle_related":true,"bicycle_shield_text":"196","bicycle_network":"ncn","source":"openstreetmap.org","min_zoom":8.0,"ref":"B6369"},"arcs":[293]},{"type":"LineString","properties":{"kind":"major_road","network":"Scottish National Tourist Routes","sort_rank":380,"kind_detail":"primary","is_bicycle_related":true,"bicycle_network":"lcn","source":"openstreetmap.org","min_zoom":8.0,"landuse_kind":"urban_area","shield_text":null,"ref":"A92","id":26206820},"arcs":[294]},{"type":"MultiLineString","properties":{"source":"openstreetmap.org","kind":"major_road","landuse_kind":"urban_area","sort_rank":380,"kind_detail":"primary","ref":"A6105","min_zoom":8.0},"arcs":[[295],[296],[297],[298],[299],[300]]},{"type":"MultiLineString","properties":{"kind":"major_road","sort_rank":379,"kind_detail":"secondary","is_bicycle_related":true,"bicycle_shield_text":"76","bicycle_network":"ncn","source":"openstreetmap.org","min_zoom":8.0,"ref":"B6355"},"arcs":[[301],[302],[303]]},{"type":"LineString","properties":{"kind":"major_road","sort_rank":355,"kind_detail":"primary_link","is_bicycle_related":true,"bicycle_shield_text":"76","bicycle_network":"ncn","source":"openstreetmap.org","min_zoom":8.0,"is_link":true,"id":25160202},"arcs":[304]},{"type":"MultiLineString","properties":{"kind":"major_road","network":"Scottish National Tourist Routes","sort_rank":380,"kind_detail":"primary","source":"openstreetmap.org","min_zoom":8.0,"landuse_kind":"urban_area","shield_text":null,"ref":"A92"},"arcs":[[305],[306],[307],[308]]},{"type":"LineString","properties":{"bus_network":null,"network":"Scottish National Tourist Routes","sort_rank":380,"kind_detail":"primary","kind":"major_road","source":"openstreetmap.org","min_zoom":8.0,"bus_shield_text":"9B","shield_text":null,"ref":"A917"},"arcs":[309]},{"type":"MultiLineString","properties":{"kind":"major_road","sort_rank":377,"landuse_kind":"residential","is_bicycle_related":true,"bicycle_shield_text":"76","bicycle_network":"ncn","source":"openstreetmap.org","min_zoom":8.0,"kind_detail":"tertiary"},"arcs":[[310],[311]]},{"type":"LineString","properties":{"kind":"major_road","sort_rank":380,"kind_detail":"primary","is_bicycle_related":true,"bicycle_shield_text":"76","bicycle_network":"ncn","source":"openstreetmap.org","min_zoom":8.0,"old_name":"Queen's Road","landuse_kind":"residential","ref":"A1087","id":225046263},"arcs":[312]},{"type":"LineString","properties":{"kind":"path","sort_rank":354,"kind_detail":"cycleway","is_bicycle_related":true,"bicycle_shield_text":"76","bicycle_network":"ncn","source":"openstreetmap.org","min_zoom":8.0,"landuse_kind":"residential","id":224965071},"arcs":[313]},{"type":"LineString","properties":{"kind":"major_road","sort_rank":380,"kind_detail":"primary","is_bicycle_related":true,"bicycle_shield_text":"EV12","bicycle_network":"icn","source":"openstreetmap.org","min_zoom":8.0,"landuse_kind":"urban_area","ref":"A6105","id":171381168},"arcs":[314]},{"type":"LineString","properties":{"kind":"minor_road","sort_rank":360,"kind_detail":"unclassified","is_bicycle_related":true,"bicycle_shield_text":"EV12","bicycle_network":"icn","source":"openstreetmap.org","min_zoom":8.0,"landuse_kind":"urban_area"},"arcs":[315]},{"type":"LineString","properties":{"kind":"major_road","sort_rank":380,"kind_detail":"primary","bus_network":null,"source":"openstreetmap.org","min_zoom":8.0,"bus_shield_text":"64","ref":"A915","id":62237536},"arcs":[316]},{"type":"LineString","properties":{"kind":"major_road","sort_rank":380,"kind_detail":"primary","bus_network":null,"source":"openstreetmap.org","min_zoom":8.0,"bus_shield_text":"99A","ref":"A918","id":219037499},"arcs":[317]},{"type":"MultiLineString","properties":{"source":"openstreetmap.org","kind":"major_road","sort_rank":380,"kind_detail":"primary","ref":"A198","min_zoom":8.0},"arcs":[[318],[319],[320],[321]]},{"type":"MultiLineString","properties":{"kind":"path","sort_rank":354,"kind_detail":"footway","is_bicycle_related":true,"bicycle_shield_text":"76","bicycle_network":"ncn","source":"openstreetmap.org","min_zoom":8.0},"arcs":[[322],[323]]},{"type":"MultiLineString","properties":{"kind":"major_road","network":"Scottish National Tourist Routes","sort_rank":380,"kind_detail":"primary","is_bicycle_related":true,"bicycle_network":"lcn","source":"openstreetmap.org","min_zoom":8.0,"shield_text":null,"ref":"A92"},"arcs":[[324],[325]]},{"type":"MultiLineString","properties":{"source":"openstreetmap.org","kind":"major_road","sort_rank":381,"kind_detail":"trunk","ref":"A1","min_zoom":8.0},"arcs":[[326],[327],[328]]},{"type":"MultiLineString","properties":{"kind":"major_road","network":"e-road","sort_rank":381,"landuse_kind":"urban_area","source":"openstreetmap.org","min_zoom":8.0,"kind_detail":"trunk","shield_text":"15","ref":"A1"},"arcs":[[329],[330],[331],[332],[333],[334],[335],[336]]},{"type":"MultiLineString","properties":{"kind":"path","sort_rank":354,"kind_detail":"steps","is_bicycle_related":true,"bicycle_shield_text":"76","bicycle_network":"ncn","source":"openstreetmap.org","min_zoom":8.0},"arcs":[[337],[338]]},{"type":"MultiLineString","properties":{"source":"openstreetmap.org","kind":"major_road","sort_rank":380,"kind_detail":"primary","ref":"A1107","min_zoom":8.0},"arcs":[[339],[340],[341],[342],[343],[344],[345],[346],[347],[348],[349],[350],[351]]},{"type":"LineString","properties":{"kind":"major_road","sort_rank":380,"kind_detail":"primary","is_bicycle_related":true,"bicycle_shield_text":"red","bicycle_network":"lcn","source":"openstreetmap.org","min_zoom":8.0,"ref":"A6112","id":45252302},"arcs":[352]},{"type":"LineString","properties":{"kind":"major_road","sort_rank":377,"kind_detail":"tertiary","is_bicycle_related":true,"bus_network":null,"bicycle_shield_text":"EV12","bicycle_network":"icn","source":"openstreetmap.org","min_zoom":8.0,"bus_shield_text":"92","id":4662232},"arcs":[353]},{"type":"LineString","properties":{"kind":"minor_road","sort_rank":360,"kind_detail":"residential","is_bicycle_related":true,"bicycle_shield_text":"EV12","cycleway":"lane","source":"openstreetmap.org","min_zoom":8.0,"bicycle_network":"icn"},"arcs":[354]},{"type":"MultiLineString","properties":{"bus_network":null,"sort_rank":380,"kind_detail":"primary","kind":"major_road","source":"openstreetmap.org","min_zoom":8.0,"bus_shield_text":"99D","ref":"A915"},"arcs":[[355],[356],[357]]},{"type":"LineString","properties":{"kind":"major_road","sort_rank":380,"kind_detail":"primary","is_bicycle_related":true,"bicycle_shield_text":"76","bicycle_network":"ncn","source":"openstreetmap.org","min_zoom":8.0,"ref":"A6093"},"arcs":[358]},{"type":"LineString","properties":{"kind":"major_road","sort_rank":379,"kind_detail":"secondary","is_bicycle_related":true,"bicycle_shield_text":"196","bicycle_network":"ncn","source":"openstreetmap.org","min_zoom":8.0,"ref":"B6368"},"arcs":[359]},{"type":"MultiLineString","properties":{"kind":"minor_road","sort_rank":358,"kind_detail":"service","is_bicycle_related":true,"bicycle_shield_text":"EV12","bicycle_network":"icn","source":"openstreetmap.org","min_zoom":8.0},"arcs":[[360],[361],[362],[363]]}]},"earth":{"type":"GeometryCollection","geometries":[{"type":"MultiPolygon","properties":{"sort_rank":10,"source":"naturalearthdata.com","min_zoom":0.0,"kind":"earth","area":14436050183},"arcs":[[[364]],[[365]],[[366]],[[367]]]}]},"landuse":{"type":"GeometryCollection","geometries":[{"type":"Polygon","properties":{"kind":"nature_reserve","protect_class":"97","area":2702200064,"sort_rank":23,"source":"openstreetmap.org","min_zoom":4.0,"tier":2,"id":400554800},"arcs":[[368]]},{"type":"MultiPolygon","properties":{"source":"naturalearthdata.com","kind":"urban_area","name":"","area":454671177,"sort_rank":11,"min_zoom":4.0},"arcs":[[[369]],[[370]],[[371]],[[372]]]},{"type":"MultiPolygon","properties":{"source":"openstreetmap.org","kind":"residential","tier":2,"area":28254105,"sort_rank":20,"min_zoom":8.0},"arcs":[[[373]]]},{"type":"Polygon","properties":{"source":"openstreetmap.org","kind":"military","area":30322400,"tier":3,"id":62798621,"min_zoom":8.0,"sort_rank":45},"arcs":[[374]]},{"type":"MultiPolygon","properties":{"source":"openstreetmap.org","kind":"nature_reserve","tier":2,"area":6978424937,"sort_rank":23,"min_zoom":4.0,"osm_relation":true},"arcs":[[[375]],[[376]],[[377]]]},{"type":"MultiPolygon","properties":{"source":"openstreetmap.org","kind":"nature_reserve","tier":2,"area":6978424937,"sort_rank":23,"min_zoom":4.0},"arcs":[[[378]],[[379]],[[380]]]}]}},"type":"Topology","transform":{"translate":[-2.8125,55.7765730187],"scale":[0.0003433228,0.00019114]},"arcs":[[[4096,170],[-111,73],[-336,110],[-177,110],[-187,73],[-120,188],[-119,298],[-251,346],[-167,172],[-208,135],[-532,937],[155,149],[141,214],[79,218],[26,161],[-2,193],[-50,223],[-87,193],[-104,133]],[[2416,324],[-189,-179],[-111,-59],[-2,-86]],[[3163,735],[-214,-137],[-533,-274]],[[4096,170],[-111,73],[-336,110],[-177,110],[-187,73],[-122,199]],[[3163,735],[-117,287],[-264,361],[-160,163],[-202,129],[-532,937],[155,149],[141,214],[79,218],[26,161],[-10,249],[-59,216],[-102,194],[-68,83]],[[645,4096],[0,-11],[-266,-260],[-379,-141]],[[0,3685],[379,140],[265,260],[1,11]],[[240,1468],[-74,-80],[-35,-168],[-131,-52]],[[0,1168],[129,41],[150,2],[94,-88],[101,-35],[238,25],[159,46],[57,-70],[144,-61],[236,-176],[67,-86],[43,-173],[39,-38],[66,-8],[50,-68],[412,-194],[118,68],[49,-9],[185,-292],[4,-52]],[[645,4096],[0,-11],[-266,-260],[-379,-141]],[[2341,0],[-4,52],[-185,292],[-49,9],[-118,-69],[-412,194],[-50,69],[-66,8],[-39,38],[-43,173],[-67,85],[-236,177],[-144,61],[-56,69],[-158,-44],[-240,-26],[-103,37],[-92,86],[-150,-2],[-129,-41]],[[645,4096],[0,-11],[-266,-260],[-379,-141]],[[0,1168],[129,41],[150,2],[94,-88],[101,-35],[238,25],[161,46],[55,-70],[144,-61],[236,-176],[67,-86],[43,-173],[39,-38],[66,-8],[50,-68],[412,-194],[118,68],[49,-9],[185,-292],[4,-52]],[[0,1168],[129,41],[150,2],[94,-88],[101,-35],[238,25],[159,46],[57,-70],[144,-61],[236,-176],[67,-86],[43,-173],[39,-38],[66,-8],[50,-68],[412,-194],[118,68],[49,-9],[185,-292],[4,-52]],[[2341,0],[-4,52],[-185,292],[-49,9],[-118,-69],[-412,194],[-50,69],[-66,8],[-39,38],[-43,173],[-67,85],[-236,177],[-144,61],[-55,70],[-159,-45],[-240,-26],[-103,37],[-92,86],[-150,-2],[-129,-41]],[[0,1168],[129,41],[150,2],[94,-88],[101,-35],[238,25],[159,46],[57,-70],[144,-61],[236,-176],[67,-86],[43,-173],[39,-38],[66,-8],[50,-68],[412,-194],[118,68],[49,-9],[185,-292],[4,-52]],[[2341,0],[-4,52],[-185,292],[-49,9],[-118,-69],[-412,194],[-50,69],[-66,8],[-39,38],[-43,173],[-67,85],[-236,177],[-144,61],[-56,69],[-158,-44],[-240,-26],[-103,37],[-92,86],[-150,-2],[-129,-41]],[[0,3685],[379,140],[265,260],[1,11]],[[2341,0],[-4,52],[-185,292],[-49,9],[-118,-69],[-412,194],[-50,69],[-66,8],[-39,38],[-43,173],[-67,85],[-236,177],[-144,61],[-56,69],[-158,-44],[-240,-26],[-103,37],[-92,86],[-150,-2],[-129,-41]],[[2341,0],[-4,52],[-185,292],[-49,9],[-118,-69],[-412,194],[-50,69],[-66,8],[-39,38],[-43,173],[-67,85],[-236,177],[-144,61],[-56,69],[-158,-44],[-240,-26],[-103,37],[-92,86],[-150,-2],[-129,-41]],[[0,1168],[131,52],[35,168],[74,80]],[[0,1168],[129,41],[150,2],[94,-88],[101,-35],[238,25],[161,46]],[[873,1159],[-159,-45],[-240,-26],[-103,37],[-92,86],[-150,-2],[-129,-41]],[[645,4096],[0,-11],[-266,-260],[-379,-141]],[[0,1168],[129,41],[150,2],[94,-88],[101,-35],[238,25],[159,46],[57,-70],[144,-61],[236,-176],[67,-86],[43,-173],[39,-38],[66,-8],[50,-68],[412,-194],[118,68],[49,-9],[185,-292],[4,-52]],[[2396,0],[-58,75],[-38,76],[-167,334],[-56,65],[-63,26],[-23,16],[-6,39],[-5,48],[-15,43],[-26,14],[-469,93],[-126,69],[-184,158],[-111,36],[-119,85],[-43,45],[-19,-23],[-30,-27],[-12,-21],[-44,32],[-74,-14],[-41,14],[15,28],[26,86],[-53,34],[-83,116],[-55,26],[-489,35],[-28,-13],[0,663],[19,-4],[65,19],[185,128],[140,31],[69,33],[53,104],[155,153],[0,32],[-105,94],[-24,14],[-99,92],[-64,33],[-266,21],[-20,37],[-21,11],[-26,5],[-33,15],[-5,19],[-13,72],[-10,14],[0,109],[12,25],[22,93],[-6,100],[-28,53],[0,177],[139,20],[36,-11],[23,-22],[21,-13],[28,13],[55,139],[26,40],[112,55],[60,43],[50,110],[117,84],[3429,0],[0,-4096],[-1700,0]],[[0,3461],[28,-53],[6,-100],[-22,-93],[-12,-25]],[[0,3081],[10,-14],[13,-72],[5,-19],[33,-15],[26,-5],[21,-11],[20,-37],[266,-21],[64,-33],[99,-92],[24,-14],[105,-94],[0,-32],[-155,-153],[-53,-104],[-69,-33],[-140,-31],[-185,-128],[-65,-19],[-19,4]],[[0,1495],[28,13],[489,-35],[55,-26],[83,-116],[53,-34],[-26,-86],[-15,-28],[41,-14],[74,14],[44,-32],[12,21],[30,27],[19,23],[43,-45],[119,-85],[111,-36],[184,-158],[126,-69],[469,-93],[26,-14],[15,-43],[5,-48],[6,-39],[23,-16],[63,-26],[56,-65],[167,-334],[38,-76],[58,-75]],[[667,4096],[-117,-84],[-50,-110],[-60,-43],[-112,-55],[-26,-40],[-55,-139],[-28,-13],[-21,13],[-23,22],[-36,11],[-139,-20]],[[1373,24],[8,66]],[[1477,546],[-1,8]],[[97,936],[12,3]],[[125,931],[195,51]],[[854,1189],[7,-4]],[[1317,847],[-81,63]],[[1322,847],[12,-18]],[[1418,784],[-10,-11]],[[1857,464],[-144,133]],[[2072,494],[-52,-36],[-156,27]],[[2020,332],[120,-98],[-28,-158]],[[2114,0],[-2,76]],[[2227,0],[-36,0]],[[700,1123],[2,1]],[[702,1124],[0,-1]],[[702,1124],[1,2]],[[761,1142],[20,10]],[[954,1067],[2,2]],[[956,1069],[-1,-3]],[[957,1072],[-1,-3]],[[957,1072],[-1,1]],[[956,1074],[1,0]],[[957,1073],[0,-1]],[[957,1074],[0,-1],[-1,0]],[[956,1073],[0,1],[1,0]],[[1857,464],[7,21]],[[19,2888],[1,4]],[[31,2949],[-4,10]],[[31,2948],[2,-7]],[[31,2949],[0,-1],[0,1]],[[19,2887],[-1,0],[0,1],[1,-1]],[[1922,559],[-13,18]],[[193,3781],[-193,-76]],[[194,3782],[1,1]],[[195,3783],[-1,-2]],[[195,3783],[18,1]],[[288,3909],[30,-111],[-104,-14]],[[194,3781],[-1,1],[1,0],[0,-1]],[[194,3781]],[[213,3785],[1,-1],[-1,0],[0,1]],[[10,2960]],[[11,2957],[1,-1]],[[691,4088],[4,2]],[[50,915],[2,2]],[[467,1090],[-5,0]],[[34,2941],[7,2]],[[2332,5],[2,-5]],[[863,1182],[4,-9]],[[867,1171],[0,2]],[[867,1173],[1,-1]],[[872,1169],[-4,3]],[[872,1169],[2,-1]],[[877,1166],[8,-5]],[[892,1157],[4,-2]],[[9,2958],[-9,0]],[[9,2958],[1,0]],[[10,2958],[-1,0]],[[11,2959],[2,0]],[[13,2959],[-2,-1]],[[27,2959],[-14,0]],[[11,2958],[-1,0],[0,1],[1,0],[0,-1]],[[27,2912],[3,8]],[[65,961],[-65,-26]],[[67,961],[-1,1]],[[68,963],[3,0]],[[71,963],[-2,-1]],[[114,970],[-43,-7]],[[115,970],[0,1]],[[320,982],[142,101]],[[1003,1067],[-16,0]],[[1145,989],[-63,38]],[[1334,829],[84,-45]],[[13,2934],[7,5]],[[2320,0],[-6,4]],[[54,2954],[-27,5]],[[831,1175],[3,1]],[[115,976],[-1,0]],[[114,978],[1,-1]],[[115,972],[1,0]],[[115,975],[0,-2]],[[115,978],[371,114]],[[487,1092],[0,1]],[[487,1093],[-1,0]],[[486,1093]],[[487,1094],[0,-1]],[[487,1093]],[[487,1093]],[[488,1094],[70,14]],[[558,1108],[31,2]],[[698,1121],[-109,-11]],[[698,1121],[1,1]],[[699,1121],[-1,0]],[[704,1121],[-2,0]],[[702,1122],[2,-1]],[[728,1112],[-24,9]],[[729,1111],[0,1]],[[69,962],[-2,-1],[-1,1],[2,1],[1,-1]],[[487,1092],[0,1]],[[487,1093],[-1,0]],[[486,1093],[1,1],[0,-1]],[[487,1093]],[[487,1093],[0,-1]],[[700,1123],[2,-1],[-1,-2],[-2,2],[1,1]],[[1399,5],[-6,-5]],[[1386,0],[-13,2]],[[467,1090],[236,36]],[[760,1148],[12,10]],[[987,1067],[-31,9]],[[1082,1027],[-79,40]],[[1236,910],[-91,79]],[[1322,847],[-5,0]],[[0,3346],[0,11]],[[0,3358],[0,59]],[[165,3738],[42,14]],[[873,1104],[-2,2],[2,1],[1,-1],[-1,-2]],[[20,2892],[3,8]],[[2058,100],[-55,9]],[[37,942],[5,-14]],[[110,934],[7,-3]],[[125,931],[-5,2]],[[462,1083],[0,7]],[[761,1142],[-1,3]],[[2095,505],[-19,-9]],[[2095,505],[8,-18]],[[2101,483],[2,4]],[[10,2960]],[[14,3688],[151,50]],[[207,3752],[60,21]],[[268,3770],[18,-3]],[[285,3764],[52,31]],[[342,3933],[182,75]],[[344,3809],[31,17]],[[420,3870],[-45,-44]],[[608,4054],[-180,-183]],[[520,4015],[37,5]],[[567,4027],[40,28]],[[661,4078],[-4,-14]],[[37,0],[-37,34]],[[590,4096],[-10,-33]],[[589,4047],[-4,5]],[[781,1152],[50,23]],[[834,1176],[29,6]],[[344,3809]],[[375,3826]],[[420,3870],[-24,17]],[[2112,76]],[[110,934],[0,1]],[[0,2176],[104,69],[186,65],[58,48]],[[121,2881],[-36,33]],[[334,2328],[12,-22],[383,-121],[36,-58]],[[268,3770],[-1,3]],[[344,3809],[-9,-8]],[[337,3795],[0,5]],[[557,4020],[10,7]],[[691,4088],[-21,-6]],[[2096,472],[-2,2]],[[1349,1],[-1,-1]],[[532,2519],[-89,225],[-62,66],[-105,-9],[-155,80]],[[348,2358],[184,160]],[[27,2959]],[[607,4055],[10,3]],[[0,2864],[18,22]],[[18,2886],[0,1]],[[18,2887],[0,-1]],[[128,1429],[112,45]],[[299,1458],[14,-13]],[[313,1445],[1,0],[0,-1],[-1,1]],[[314,1445],[16,5]],[[331,1450],[37,14]],[[331,1450],[-1,0]],[[330,1450],[1,1],[0,-1]],[[787,1163],[47,25]],[[1373,2],[-24,-1]],[[1466,0],[-17,25],[-50,-20]],[[1878,120],[-218,-7],[-174,-113]],[[1885,117],[-7,3]],[[2003,109],[-118,8]],[[2112,76],[-54,24]],[[2269,29],[-157,47]],[[2319,46],[-2,2]],[[2318,49],[1,-3]],[[2319,46],[3,-4]],[[2322,42],[0,-1]],[[2322,41],[-1,0],[1,1]],[[2322,41],[10,-36]],[[10,2960],[-10,8]],[[12,2956],[16,-9]],[[337,3800],[-2,1]],[[396,3887],[-54,46]],[[420,3870],[8,1]],[[661,4078],[15,6]],[[703,4096],[-8,-6]],[[2272,0]],[[874,1168],[3,-2]],[[113,916],[-23,-24]],[[0,2925],[13,9]],[[85,2914],[-23,32]],[[33,2941],[1,0]],[[951,1069],[4,-1]],[[114,976],[-1,1],[1,1],[1,-2],[-1,0]],[[115,970],[0,1],[1,1],[0,-2],[-1,0]],[[532,2518],[0,1]],[[2234,176]],[[585,4052],[-5,11]],[[147,3855],[-147,-90]],[[0,3765],[31,23]],[[32,3790],[115,65]],[[284,3911],[271,107]],[[555,4017],[-271,-106]],[[555,4018],[2,0],[0,-1]],[[557,4017],[-1,-1],[-1,2]],[[561,4018],[-4,-1]],[[557,4017],[4,1]],[[561,4018],[74,43]],[[661,4078],[-15,-15],[-11,-2]],[[635,4061],[25,17]],[[661,4079],[2,10]],[[663,4093],[1,-4],[-3,-11]],[[1713,597],[-157,115],[-148,61]],[[0,938],[37,4]],[[1489,554],[-13,0]],[[66,964],[-66,94]],[[66,963],[1,0]],[[69,962],[-1,-1]],[[84,935],[-15,26]],[[730,1110],[-256,-32],[-44,-27],[-11,-1],[-56,9],[-217,-77],[-146,-44]],[[0,939],[365,121],[66,-9],[43,27],[255,33]],[[731,1112],[136,-6]],[[872,1105],[-141,6]],[[871,1106],[1,0]],[[874,1107],[211,-114]],[[1085,993],[-211,112]],[[1085,993],[72,-10],[156,-128]],[[1476,554],[-65,52],[2,56],[-100,191]],[[1489,554],[105,-73]],[[1759,420],[-59,3]],[[1700,423],[-16,1],[-90,57]],[[1594,481],[33,-6],[73,-52]],[[1700,423],[4,-3],[55,0]],[[2218,224],[-83,125],[-376,71]],[[2272,106],[-54,118]],[[2218,224],[54,-110]],[[2268,1],[-1,-1]],[[729,1110],[0,2],[2,0]],[[731,1112],[0,-2],[-2,0]],[[1314,854],[0,-1],[-2,0],[1,2],[1,-1]],[[0,874],[50,41]],[[52,917],[32,18]],[[109,939],[7,30]],[[116,970],[-1,0]],[[54,835]],[[54,835],[-54,-25]],[[53,835],[1,0]],[[54,835]],[[867,1106],[4,0]],[[703,1126],[58,16]],[[896,1155],[60,-79]],[[84,935],[-42,-7]],[[760,1148],[0,-3]],[[1362,12],[11,12]],[[1373,2],[0,-2]],[[1381,90],[-9,53],[38,30],[11,83],[-34,103],[76,117]],[[51,2945],[-10,-2]],[[113,916],[-3,18]],[[662,4093],[-1,3]],[[2289,20],[-20,9]],[[2289,19],[0,1]],[[2289,20],[1,0]],[[2290,17],[-1,1]],[[2289,18],[1,-1]],[[2299,12],[-9,5]],[[2020,332],[75,141]],[[2072,494],[4,2]],[[2096,473],[5,10]],[[2095,473],[1,0]],[[31,3788],[1,2]],[[147,3855],[137,56]],[[284,3911],[-137,-56]],[[662,4096],[1,-3]],[[62,2946],[-8,8]],[[854,1189],[-20,-1]],[[861,1185],[2,-3]],[[885,1161],[7,-4]],[[772,1158],[15,5]],[[2314,4],[-15,8]],[[2299,12],[-27,-12]],[[24,2902],[3,10]],[[51,2945],[11,1]],[[0,1379],[76,8],[52,42]],[[240,1474],[59,-16]],[[368,1464],[76,-1],[36,-50],[30,-65],[-34,-50],[96,-186]],[[572,1112],[1,-2],[0,-1],[-1,3]],[[120,933],[-3,-2]],[[1403,795],[2,-1]],[[663,4089],[-1,4]],[[660,4078],[1,1],[0,-1],[-1,0]],[[1138,990],[47,-25]],[[1312,854],[-1,2]],[[1314,854],[99,-191],[-6,-35]],[[2279,10],[-11,-9]],[[2316,50],[-44,56]],[[2272,114],[45,-63]],[[2279,10],[29,29]],[[2315,47],[-7,-8]],[[2317,48],[-2,-1]],[[2315,47],[1,1]],[[2315,49],[1,1],[2,0],[-1,-2],[-2,1]],[[1403,795]],[[1405,794],[0,1]],[[1408,773],[-44,-32]],[[1909,577],[-41,23],[-155,-3]],[[2093,475],[-171,84]],[[2070,361],[34,86]],[[2094,474],[-1,1]],[[2093,475],[6,-5]],[[2099,470],[-3,2]],[[2107,452],[-8,18]],[[2106,448],[-2,-1]],[[2104,447],[2,2]],[[2106,450],[1,2]],[[2107,452],[0,-2]],[[2106,449],[0,1],[1,0],[0,-1],[-1,0]],[[1463,476],[27,32],[-13,38]],[[20,2939],[8,8]],[[676,4084],[15,4]],[[18,2888],[1,1]],[[23,2900],[1,2]],[[30,2920],[3,21]],[[109,939],[-25,-4]],[[54,835],[36,57]],[[0,3684],[14,4]],[[285,3764],[1,3]],[[520,4015],[4,-7]],[[617,4058],[40,6]],[[0,1495],[28,13],[489,-35],[55,-26],[83,-116],[53,-34],[-26,-86],[-15,-28],[41,-14],[74,14],[44,-32],[12,21],[30,27],[19,23],[43,-45],[119,-85],[111,-36],[184,-158],[126,-69],[469,-93],[26,-14],[15,-43],[5,-48],[6,-39],[23,-16],[63,-26],[56,-65],[167,-334],[38,-76],[58,-75],[-2396,0],[0,1495]],[[0,3081],[10,-14],[13,-72],[5,-19],[33,-15],[26,-5],[21,-11],[20,-37],[266,-21],[64,-33],[99,-92],[24,-14],[105,-94],[0,-32],[-155,-153],[-53,-104],[-69,-33],[-140,-31],[-185,-128],[-65,-19],[-19,4],[0,923]],[[0,3461],[28,-53],[6,-100],[-22,-93],[-12,-25],[0,271]],[[0,4096],[667,0],[-117,-84],[-50,-110],[-60,-43],[-112,-55],[-26,-40],[-55,-139],[-28,-13],[-21,13],[-23,22],[-36,11],[-139,-20],[0,458]],[[2067,2296],[247,932],[-63,868],[480,0],[-80,-249],[198,-561],[13,-562],[172,-639],[-207,-120],[-265,220],[-354,-137],[-141,248]],[[2268,0],[7,201],[113,-192],[-120,-9]],[[0,3914],[24,-42],[8,-84],[-32,20],[0,106]],[[245,3802],[-55,4],[-45,52],[-16,104],[118,33],[31,-26],[13,-123],[-46,-44]],[[596,4096],[71,0],[-53,-38],[-18,38]],[[770,1160],[62,41],[79,-42],[-30,-7],[-10,-46],[-28,0],[-73,54]],[[19,3688],[198,68],[0,-34],[62,8],[-57,-130],[-203,88]],[[2251,4096],[480,0],[-80,-249],[198,-561],[13,-562],[172,-639],[-207,-120],[-265,220],[-354,-137],[-141,248],[247,932],[-63,868]],[[3572,4096],[524,0],[0,-102],[-522,-3],[-2,105]],[[4096,2614],[0,-1177],[-85,-103],[-378,-338],[-161,-86],[1,1380],[623,324]],[[2251,4096],[480,0],[-80,-249],[198,-561],[13,-562],[172,-639],[-207,-120],[-265,220],[-354,-137],[-141,248],[247,932],[-63,868]],[[3572,4096],[524,0],[0,-102],[-522,-3],[-2,105]],[[4096,2614],[0,-1177],[-85,-103],[-378,-338],[-161,-86],[1,1380],[623,324]]]}