{"objects":{"water":{"type":"GeometryCollection","geometries":[{"type":"Polygon","properties":{"source":"naturalearthdata.com","kind":"ocean","area":1576712559132672,"sort_rank":200,"min_zoom":0.0,"id":1},"arcs":[[32]]},{"type":"MultiLineString","properties":{"source":"naturalearthdata.com","kind":"ocean","sort_rank":205,"boundary":true,"min_zoom":0.0,"id":41},"arcs":[[33],[34],[35]]},{"type":"LineString","properties":{"source":"naturalearthdata.com","kind":"ocean","sort_rank":205,"boundary":true,"min_zoom":0.0,"id":1171},"arcs":[36]}]},"buildings":{"type":"GeometryCollection","geometries":[]},"places":{"type":"GeometryCollection","geometries":[{"type":"Point","properties":{"kind":"locality","name":"Bournemouth","name:lt":"Bornmutas","kind_detail":"town","name:sr":"\u0411\u043e\u0440\u043d\u043c\u0443\u0442","source":"openstreetmap.org","min_zoom":8.0,"name:ru":"\u0411\u043e\u0440\u043d\u043c\u0443\u0442","id":17858426,"population":160000},"coordinates":[2726,4019]},{"type":"Point","properties":{"source":"openstreetmap.org","kind":"locality","name":"Poole","kind_detail":"town","population":147600,"min_zoom":8.0,"id":17858754},"coordinates":[2420,4012]}]},"transit":{"type":"GeometryCollection","geometries":[{"type":"MultiLineString","properties":{"kind":"train","network":"national","sort_rank":275,"source":"openstreetmap.org","min_zoom":6.0,"operator":"South West Trains","ref":"158 (SW)","osm_relation":true,"name":"Waterloo-Bournemouth"},"arcs":[[5],[6],[7],[8],[9],[10],[11],[12],[13],[14],[15],[16],[17],[18],[19],[20],[21],[22],[23],[24],[25],[26],[27],[28],[29],[30],[31]]}]},"pois":{"type":"GeometryCollection","geometries":[{"type":"Point","properties":{"kind":"nature_reserve","protect_class":"97","area":677927000,"source":"openstreetmap.org","min_zoom":7.59,"tier":2,"id":-7281768,"osm_relation":true,"name":"Studland to Portland Special Area of Conservation"},"coordinates":[2026,3347]},{"type":"Point","properties":{"source":"openstreetmap.org","kind":"military","name":"Lulworth Range","area":76763200,"tier":3,"min_zoom":8.0,"id":35876652},"coordinates":[1886,3661]},{"type":"Point","properties":{"kind":"nature_reserve","protect_class":"4","area":473842000,"source":"openstreetmap.org","min_zoom":7.85,"tier":2,"id":486387613,"name":"South Dorset Marine Conservation Zone"},"coordinates":[1744,2500]}]},"boundaries":{"type":"GeometryCollection","geometries":[{"type":"LineString","properties":{"name:left:la":"Francia","name:left:lb":"Frankr\u00e4ich","alt_name:left:eo":"Francio","name:left:lg":"Bufalansa","name:left:su":"Perancis","name:left:li":"Frankriek","name:left:sw":"Ufaransa","name:left:sv":"Frankrike","name:left:sq":"Franca","name:left:ln":"Falansia","name:left:lo":"\u0e9b\u0eb0\u0ec0\u0e97\u0e94\u0e9d\u0eb0\u0ea5\u0eb1\u0ec8\u0e87","name:left:sm":"Farani","name:left:sl":"Francija","name:left:so":"Faransiiska","name:left:lt":"Pranc\u016bzija","name:left:sh":"Francuska","name:left:lv":"Francija","name:right:mr":"\u0917\u0930\u094d\u0928\u094d\u0938\u0940","name:left:se":"Frankriika","name:left:sg":"Far\u00e2nzi","name:left:sa":"\u092b\u094d\u0930\u093e\u0928\u094d\u0938\u0926\u0947\u0936\u0903","name:right:he":"\u05d2\u05e8\u05e0\u05d6\u05d9","name:left:sc":"Frantza","name:right:la":"Lisia","name:right:cy":"Ynys y Garn","name:left:co":"Francia","name:left:ce":"\u0424\u0440\u0430\u043d\u0446\u0438","name:right:an":"Guern\u00e9si","name:left:ca":"Fran\u00e7a","source":"openstreetmap.org","name:left:cy":"Ffrainc","name:right:ar":"\u063a\u064a\u0631\u0646\u0632\u064a","name:left:st":"Fora","name:left:cu":"\u0424\u0440\u0430\u043d\u043a\u0457\ua657","name:left:cv":"\u0424\u0440\u0430\u043d\u0446\u0438","name:left:oc":"Fran\u00e7a","name:right:az":"Gernsi","name:left:cs":"Francie","name:left:kg":"Fwalansa","name:left:ka":"\u10e1\u10d0\u10e4\u10e0\u10d0\u10dc\u10d2\u10d4\u10d7\u10d8","name:right:zh-yue":"\u6839\u606f\u5cf6","name:left:km":"\u1794\u17b6\u179a\u17b6\u17c6\u1784","name:left:kl":"Frankrigi","name:left:ko":"\ud504\ub791\uc2a4","name:left:kn":"\u0cab\u0ccd\u0cb0\u0cbe\u0ca8\u0ccd\u0cb8\u0ccd","name:left:ki":"Ubaranja","name:right:rw":"Gwasi","name:left:kk":"\u0424\u0440\u0430\u043d\u0446\u0438\u044f","name:left:rm":"Frantscha","name:left:ku":"Fransa","name:left:kw":"Pow Frynk","name:left:kv":"\u0424\u0440\u0430\u043d\u0446\u0438\u044f","name:left:rw":"Ubufaransa","name:left:ks":"\u0641\u0631\u065b\u0627\u0646\u0633","name:left:ru":"\u0424\u0440\u0430\u043d\u0446\u0438\u044f","name:left:sr":"\u0424\u0440\u0430\u043d\u0446\u0443\u0441\u043a\u0430","name:left:ky":"\u0424\u0440\u0430\u043d\u0446\u0438\u044f","name":"France - Guernsey","name:right:hi":"\u0917\u094d\u0935\u0947\u0930\u094d\u0928\u0938\u0947","name:right:bg":"\u0413\u044a\u0440\u043d\u0441\u0438","name:left:zu":"IFulansi","name:left:zh":"\u6cd5\u570b","name:right:br":"Gwernenez","name:left:si":"\u0db4\u0dca\u200d\u0dbb\u0d82\u0dc1\u0dba","name:right:zh":"\u6839\u897f\u5cf6","name:left:za":"Fazgoz","official_name:left":"R\u00e9publique fran\u00e7aise","name:left:uz":"Fransiya","name:right:fr":"Guernesey","name:left:sk":"Franc\u00fazsko","name:left:nv":"D\u00e1\u00e1ghahii Din\u00e9\u02bci\u02bc Bik\u00e9yah","name:left:ur":"\u0641\u0631\u0627\u0646\u0633","name:right:ne":"\u0917\u0941\u0930\u094d\u0928\u094d\u091c\u0940","id:right":-270009,"name:left:uk":"\u0424\u0440\u0430\u043d\u0446\u0456\u044f","name:left:no":"Frankrike","name:left:nl":"Frankrijk","name:right:fa":"\u06af\u0631\u0646\u0632\u06cc","name:left:as":"\u09ab\u09cd\u09f0\u09be\u09a8\u09cd\u09b8","name:right:be":"\u0413\u0435\u0440\u043d\u0441i","name:left:ug":"\u0641\u0631\u0627\u0646\u0633\u0649\u064a\u06d5","name:left:na":"Prant","name:left:eo":"Francujo","name:left:el":"\u0393\u03b1\u03bb\u03bb\u03af\u03b1","kind_detail":"2","name:left:pl":"Francja","name:right:hy":"\u0533\u0565\u0580\u0576\u057d\u056b","name:left:hr":"Francuska","name:left:es":"Francia","name:left:ss":"IFulansi","name:left:tr":"Fransa","name:left:eu":"Frantzia","name:left:et":"Prantsusmaa","name:left:ty":"Far\u0101ni","name:left:mg":"Frantsa","name:left:mk":"\u0424\u0440\u0430\u043d\u0446\u0438\u0458\u0430","name:left:mi":"W\u012bw\u012b","name:left:tt":"\u0424\u0440\u0430\u043d\u0446\u0438\u044f","name:left:mn":"\u0424\u0440\u0430\u043d\u0446","name:right:oc":"Guernesey","name:left:ml":"\u0d2b\u0d4d\u0d30\u0d3e\u0d7b\u0d38\u0d4d","name:left:th":"\u0e1b\u0e23\u0e30\u0e40\u0e17\u0e28\u0e1d\u0e23\u0e31\u0e48\u0e07\u0e40\u0e28\u0e2a","name:left:ti":"\u1348\u1228\u1295\u1233\u12ed","name:left:tk":"Fransi\u00fda","name:left:tl":"Pransiya","name:left:ia":"Francia","name:left:to":"Falanis\u0113","name:left:ta":"\u0baa\u0bbf\u0bb0\u0bbe\u0ba9\u0bcd\u0b9a\u0bc1","name:left:my":"\u1015\u103c\u1004\u103a\u101e\u1005\u103a\u1014\u102d\u102f\u1004\u103a\u1004\u1036","name:right:kn":"\u0c97\u0cc1\u0cb0\u0ccd\u0ca8\u0ccd\u200c\u0cb8\u0cbf","name:left:te":"\u0c2b\u0c4d\u0c30\u0c3e\u0c28\u0c4d\u0c38\u0c4d","name:right:os":"\u0413\u0435\u0440\u043d\u0441\u0438","name:left:tg":"\u0424\u0430\u0440\u043e\u043d\u0441\u0430","name:right:tl":"Gernesey","name:right:pa":"\u0a17\u0a30\u0a28\u0a1c\u0a3c\u0a47","name:left:da":"Frankrig","name:left:ar":"\u0641\u0631\u0646\u0633\u0627","name:left:de":"Frankreich","name:left:dz":"\u0f55\u0f62\u0f71\u0f53\u0f66\u0f72\u0f0b","name:left:dv":"\u078a\u07a6\u0783\u07a6\u0782\u07b0\u0790\u07ad\u0790\u07a8\u0788\u07a8\u078d\u07a7\u078c\u07b0","name:left:hi":"\u092b\u093c\u094d\u0930\u093e\u0928\u094d\u0938","name:right:uk":"\u0413\u0435\u0440\u043d\u0441\u0456","name:left:he":"\u05e6\u05e8\u05e4\u05ea","name:left:mt":"Franza","name:left:ha":"Faransa","name:right:lt":"Gernsis","name:right:ur":"\u06af\u0631\u0646\u0632\u06cc","name:right:lv":"G\u0113rnsija","name:left:hy":"\u0556\u0580\u0561\u0576\u057d\u056b\u0561","name:left:an":"Francia","name:left:ht":"Frans","name:left:hu":"Franciaorsz\u00e1g","name:left:wo":"Faraas","name:left:ga":"An Fhrainc","name:left:it":"Francia","name:left:gd":"An Fhraing","sort_rank":262,"name:left:ak":"Fr\u025bnkyeman","name:left:gl":"Francia","name:left:gn":"Hy\u00e3sia","name:left:gu":"\u0aab\u0acd\u0ab0\u0abe\u0aa8\u0acd\u0ab8","osm_relation":true,"name:left:gv":"Yn Rank","official_name:right":"Bailiwick of Guernsey","name:left":"France","name:right:mi":"K\u014dnihi","name:left:ja":"\u30d5\u30e9\u30f3\u30b9","name:right:eu":"Guernesey","name:left:os":"\u0424\u0440\u0430\u043d\u0446","name:left:or":"\u0b2b\u0b4d\u0b30\u0b3e\u0b28\u0b4d\u0b38","name:left:vo":"Frans\u00e4n","min_zoom":8.0,"name:right:eo":"Gernezejo","name:left:vi":"Ph\u00e1p","name:left:ff":"Faransi","name:left:nn":"Frankrike","kind":"country","name:left:fa":"\u0641\u0631\u0627\u0646\u0633\u0647","name:left:fo":"Frakland","name:right:ru":"\u0413\u0435\u0440\u043d\u0441\u0438","name:left:fi":"Ranska","name:left:fy":"Frankryk","name:left:br":"Bro-C'hall","name:left:bs":"Francuska","name:right:ja":"\u30ac\u30fc\u30f3\u30b8\u30fc","name:right:sr":"\u0413\u0435\u0440\u043d\u0437\u0438","name:left:qu":"Ransiya","name:left:ba":"\u0424\u0440\u0430\u043d\u0446\u0438\u044f","name:left:bg":"\u0424\u0440\u0430\u043d\u0446\u0438\u044f","name:left:be":"\u0424\u0440\u0430\u043d\u0446\u044b\u044f","name:left:bi":"Franis","name:left:bn":"\u09ab\u09cd\u09b0\u09be\u09a8\u09cd\u09b8","name:left:bo":"\u0f67\u0fa5\u0f0b\u0f62\u0f53\u0f0b\u0f66\u0f72\u0f0d","name:right":"Guernsey","name:left:ne":"\u092b\u094d\u0930\u093e\u0928\u094d\u0938","name:left:jv":"Prancis","maritime_boundary":true,"id":-2202162,"name:left:yo":"Fr\u00e1ns\u00ec","name:left:yi":"\u05e4\u05e8\u05d0\u05e0\u05e7\u05e8\u05d9\u05d9\u05da","id:left":-2202162,"name:right:ka":"\u10d2\u10d4\u10e0\u10dc\u10d6\u10d8","name:left:io":"Francia","name:left:pa":"\u0a2b\u0a4d\u0a30\u0a3e\u0a02\u0a38","name:left:ii":"\ua0d4\ua1e9","name:right:tt":"\u0413\u0435\u0440\u043d\u0441\u0438","name:left:rn":"Francia","name:left:ie":"Francia","name:left:id":"Perancis","name:left:az":"Fransa","name:right:ko":"\uac74\uc9c0 \uc12c","name:left:mr":"\u092b\u094d\u0930\u093e\u0928\u094d\u0938","name:left:pt":"Fran\u00e7a","name:left:af":"Frankryk","name:right:th":"\u0e40\u0e01\u0e34\u0e23\u0e4c\u0e19\u0e0b\u0e35\u0e22\u0e4c","name:right:kw":"Gwernenys","name:left:ps":"\u0641\u0631\u0627\u0646\u0633\u0647","name:left:zh-min-nan":"Hoat-kok","name:left:am":"\u1348\u1228\u1295\u1223\u12ed","name:right:tg":"\u0413\u0435\u0440\u043d\u0441\u0438","name:left:is":"Frakkland","name:right:ta":"\u0b95\u0bc1\u0baf\u0bc6\u0bb0\u0bcd\u0ba9\u0bcd\u0b9a\u0bbf","name:left:ms":"Perancis","name:right:el":"\u0393\u03ba\u03ad\u03c1\u03bd\u03c3\u03b5\u03ca","name:left:zh-yue":"\u6cd5\u570b","name:left:ay":"Phransiya","name:right:dv":"\u078e\u07aa\u0787\u07a7\u0782\u07b0\u0790\u07ad","name:left:ro":"Fran\u021ba"},"arcs":[0]},{"type":"LineString","properties":{"name:kg":"Fwalansa","name:ty":"Far\u0101ni","name:ka":"\u10e1\u10d0\u10e4\u10e0\u10d0\u10dc\u10d2\u10d4\u10d7\u10d8","name:ko":"\ud504\ub791\uc2a4","name:cv":"\u0424\u0440\u0430\u043d\u0446\u0438","name:cu":"\u0424\u0440\u0430\u043d\u043a\u0457\ua657","name:kl":"Frankrigi","name:cs":"Francie","name:ki":"Ubaranja","name:co":"Francia","name:kv":"\u0424\u0440\u0430\u043d\u0446\u0438\u044f","name:ku":"Fransa","name:ti":"\u1348\u1228\u1295\u1233\u12ed","name:ks":"\u0641\u0631\u065b\u0627\u0646\u0633","name:to":"Falanis\u0113","name:tl":"Pransiya","name:ce":"\u0424\u0440\u0430\u043d\u0446\u0438","name:ta":"\u0baa\u0bbf\u0bb0\u0bbe\u0ba9\u0bcd\u0b9a\u0bc1","name:tg":"\u0424\u0430\u0440\u043e\u043d\u0441\u0430","name:ca":"Fran\u00e7a","name:te":"\u0c2b\u0c4d\u0c30\u0c3e\u0c28\u0c4d\u0c38\u0c4d","name:cy":"Ffrainc","name:qu":"Ransiya","name:da":"Frankrig","name:de":"Frankreich","name:dz":"\u0f55\u0f62\u0f71\u0f53\u0f66\u0f72\u0f0b","source":"openstreetmap.org","name:kn":"\u0cab\u0ccd\u0cb0\u0cbe\u0ca8\u0ccd\u0cb8\u0ccd","name:dv":"\u078a\u07a6\u0783\u07a6\u0782\u07b0\u0790\u07ad\u0790\u07a8\u0788\u07a8\u078d\u07a7\u078c\u07b0","name:km":"\u1794\u17b6\u179a\u17b6\u17c6\u1784","name:lv":"Francija","name:lt":"Pranc\u016bzija","name:uz":"Fransiya","name:kk":"\u0424\u0440\u0430\u043d\u0446\u0438\u044f","name:ur":"\u0641\u0631\u0627\u0646\u0633","name:lb":"Frankr\u00e4ich","name:la":"Francia","name:lg":"Bufalansa","name:uk":"\u0424\u0440\u0430\u043d\u0446\u0456\u044f","name:ug":"\u0641\u0631\u0627\u0646\u0633\u0649\u064a\u06d5","name:li":"Frankriek","name:ln":"Falansia","name:lo":"\u0e9b\u0eb0\u0ec0\u0e97\u0e94\u0e9d\u0eb0\u0ea5\u0eb1\u0ec8\u0e87","name:el":"\u0393\u03b1\u03bb\u03bb\u03af\u03b1","name:eo":"Francujo","name":"France","name:tk":"Fransi\u00fda","name:th":"\u0e1b\u0e23\u0e30\u0e40\u0e17\u0e28\u0e1d\u0e23\u0e31\u0e48\u0e07\u0e40\u0e28\u0e2a","name:eu":"Frantzia","name:et":"Prantsusmaa","name:es":"Francia","name:ay":"Phransiya","name:rm":"Frantscha","name:rn":"Francia","name:az":"Fransa","name:ie":"Francia","name:id":"Perancis","name:ii":"\ua0d4\ua1e9","name:as":"\u09ab\u09cd\u09f0\u09be\u09a8\u09cd\u09b8","name:ar":"\u0641\u0631\u0646\u0633\u0627","name:io":"Francia","name:ak":"Fr\u025bnkyeman","name:am":"\u1348\u1228\u1295\u1223\u12ed","name:it":"Francia","name:an":"Francia","name:ru":"\u0424\u0440\u0430\u043d\u0446\u0438\u044f","name:rw":"Ubufaransa","name:af":"Frankryk","name:zu":"IFulansi","kind_detail":"2","name:za":"Fazgoz","name:zh-yue":"\u6cd5\u570b","name:zh":"\u6cd5\u570b","name:so":"Faransiiska","name:sm":"Farani","name:sl":"Francija","name:sk":"Franc\u00fazsko","name:ja":"\u30d5\u30e9\u30f3\u30b9","name:si":"\u0db4\u0dca\u200d\u0dbb\u0d82\u0dc1\u0dba","name:sh":"Francuska","name:sg":"Far\u00e2nzi","name:se":"Frankriika","name:sc":"Frantza","name:br":"Bro-C'hall","name:bs":"Francuska","name:bn":"\u09ab\u09cd\u09b0\u09be\u09a8\u09cd\u09b8","name:bo":"\u0f67\u0fa5\u0f0b\u0f62\u0f53\u0f0b\u0f66\u0f72\u0f0d","name:bi":"Franis","name:sw":"Ufaransa","name:be":"\u0424\u0440\u0430\u043d\u0446\u044b\u044f","name:su":"Perancis","name:bg":"\u0424\u0440\u0430\u043d\u0446\u0438\u044f","name:ss":"IFulansi","name:ba":"\u0424\u0440\u0430\u043d\u0446\u0438\u044f","name:sq":"Franca","name:jv":"Prancis","name:sa":"\u092b\u094d\u0930\u093e\u0928\u094d\u0938\u0926\u0947\u0936\u0903","name:ia":"Francia","name:pt":"Fran\u00e7a","name:ps":"\u0641\u0631\u0627\u0646\u0633\u0647","name:oc":"Fran\u00e7a","min_zoom":8.0,"name:ro":"Fran\u021ba","name:zh-min-nan":"Hoat-kok","name:os":"\u0424\u0440\u0430\u043d\u0446","name:or":"\u0b2b\u0b4d\u0b30\u0b3e\u0b28\u0b4d\u0b38","name:pl":"Francja","name:st":"Fora","sort_rank":262,"name:sr":"\u0424\u0440\u0430\u043d\u0446\u0443\u0441\u043a\u0430","osm_relation":true,"name:pa":"\u0a2b\u0a4d\u0a30\u0a3e\u0a02\u0a38","name:tr":"Fransa","name:hi":"\u092b\u093c\u094d\u0930\u093e\u0928\u094d\u0938","name:sv":"Frankrike","name:he":"\u05e6\u05e8\u05e4\u05ea","name:ha":"Faransa","name:hy":"\u0556\u0580\u0561\u0576\u057d\u056b\u0561","name:ht":"Frans","name:hu":"Franciaorsz\u00e1g","name:hr":"Francuska","kind":"country","name:is":"Frakkland","name:yi":"\u05e4\u05e8\u05d0\u05e0\u05e7\u05e8\u05d9\u05d9\u05da","name:yo":"Fr\u00e1ns\u00ec","name:mt":"Franza","alt_name:eo":"Francio","name:ms":"Perancis","name:mr":"\u092b\u094d\u0930\u093e\u0928\u094d\u0938","name:my":"\u1015\u103c\u1004\u103a\u101e\u1005\u103a\u1014\u102d\u102f\u1004\u103a\u1004\u1036","official_name":"R\u00e9publique fran\u00e7aise","name:kw":"Pow Frynk","name:mg":"Frantsa","name:vi":"Ph\u00e1p","name:ml":"\u0d2b\u0d4d\u0d30\u0d3e\u0d7b\u0d38\u0d4d","name:mn":"\u0424\u0440\u0430\u043d\u0446","name:mi":"W\u012bw\u012b","id":-2202162,"name:mk":"\u0424\u0440\u0430\u043d\u0446\u0438\u0458\u0430","name:vo":"Frans\u00e4n","name:fa":"\u0641\u0631\u0627\u0646\u0633\u0647","name:ff":"Faransi","name:fi":"Ranska","name:ky":"\u0424\u0440\u0430\u043d\u0446\u0438\u044f","name:fo":"Frakland","name:fy":"Frankryk","name:nl":"Frankrijk","name:nn":"Frankrike","name:no":"Frankrike","name:na":"Prant","name:ne":"\u092b\u094d\u0930\u093e\u0928\u094d\u0938","name:wo":"Faraas","name:nv":"D\u00e1\u00e1ghahii Din\u00e9\u02bci\u02bc Bik\u00e9yah","name:ga":"An Fhrainc","name:gd":"An Fhraing","name:gn":"Hy\u00e3sia","name:gl":"Francia","maritime_boundary":true,"name:gv":"Yn Rank","name:gu":"\u0aab\u0acd\u0ab0\u0abe\u0aa8\u0acd\u0ab8","name:tt":"\u0424\u0440\u0430\u043d\u0446\u0438\u044f"},"arcs":[1]},{"type":"LineString","properties":{"name:az":"Gernsi","name:ka":"\u10d2\u10d4\u10e0\u10dc\u10d6\u10d8","name:mr":"\u0917\u0930\u094d\u0928\u094d\u0938\u0940","name:ko":"\uac74\uc9c0 \uc12c","name:kn":"\u0c97\u0cc1\u0cb0\u0ccd\u0ca8\u0ccd\u200c\u0cb8\u0cbf","name:ar":"\u063a\u064a\u0631\u0646\u0632\u064a","name:tt":"\u0413\u0435\u0440\u043d\u0441\u0438","name:kw":"Gwernenys","name:th":"\u0e40\u0e01\u0e34\u0e23\u0e4c\u0e19\u0e0b\u0e35\u0e22\u0e4c","name:eo":"Gernezejo","name:tl":"Gernesey","name:an":"Guern\u00e9si","name:os":"\u0413\u0435\u0440\u043d\u0441\u0438","name:ru":"\u0413\u0435\u0440\u043d\u0441\u0438","name:ta":"\u0b95\u0bc1\u0baf\u0bc6\u0bb0\u0bcd\u0ba9\u0bcd\u0b9a\u0bbf","name:mi":"K\u014dnihi","name:tg":"\u0413\u0435\u0440\u043d\u0441\u0438","name:fa":"\u06af\u0631\u0646\u0632\u06cc","name:rw":"Gwasi","name:cy":"Ynys y Garn","source":"openstreetmap.org","sort_rank":262,"kind_detail":"2","id":-270009,"name:oc":"Guernesey","name:fr":"Guernesey","name:zh-yue":"\u6839\u606f\u5cf6","name:dv":"\u078e\u07aa\u0787\u07a7\u0782\u07b0\u0790\u07ad","name:pa":"\u0a17\u0a30\u0a28\u0a1c\u0a3c\u0a47","name:lv":"G\u0113rnsija","name:ja":"\u30ac\u30fc\u30f3\u30b8\u30fc","name:lt":"Gernsis","name:hi":"\u0917\u094d\u0935\u0947\u0930\u094d\u0928\u0938\u0947","name:he":"\u05d2\u05e8\u05e0\u05d6\u05d9","name:ne":"\u0917\u0941\u0930\u094d\u0928\u094d\u091c\u0940","name:br":"Gwernenez","name:ur":"\u06af\u0631\u0646\u0632\u06cc","name:la":"Lisia","official_name":"Bailiwick of Guernsey","name:uk":"\u0413\u0435\u0440\u043d\u0441\u0456","name:hy":"\u0533\u0565\u0580\u0576\u057d\u056b","name:be":"\u0413\u0435\u0440\u043d\u0441i","name:bg":"\u0413\u044a\u0440\u043d\u0441\u0438","name:sr":"\u0413\u0435\u0440\u043d\u0437\u0438","osm_relation":true,"name:el":"\u0393\u03ba\u03ad\u03c1\u03bd\u03c3\u03b5\u03ca","kind":"country","name":"Guernsey","name:zh":"\u6839\u897f\u5cf6","min_zoom":8.0,"maritime_boundary":true,"name:eu":"Guernesey"},"arcs":[2]},{"type":"LineString","properties":{"name:kg":"Royaume-Uni","name:ty":"Parat\u0101ne","name:ka":"\u10d2\u10d0\u10d4\u10e0\u10d7\u10d8\u10d0\u10dc\u10d4\u10d1\u10e3\u10da\u10d8 \u10e1\u10d0\u10db\u10d4\u10e4\u10dd","name:ko":"\uc601\uad6d","name:cv":"\u0410\u0441\u043b\u0103 \u0411\u0440\u0438\u0442\u0430\u043d\u0438","name:cu":"\u0412\u0454\u043b\u0438\u043a\u0430 \u0411\u0440\u0438\u0442\u0430\u043d\u0457\ua657","name:kl":"Tuluit Nunaat","name:cs":"Spojen\u00e9 kr\u00e1lovstv\u00ed","name:tt":"\u0411\u04e9\u0435\u043a\u0431\u0440\u0438\u0442\u0430\u043d\u0438\u044f","name:co":"Regnu Unitu","name:kv":"\u042b\u0434\u0436\u044b\u0434 \u0411\u0440\u0438\u0442\u0430\u043d\u0438\u044f","name:ku":"Keyaniya Yekb\u00fby\u00ee","name:tl":"Nagkakaisang Kaharian","name:ce":"\u0419\u043e\u043a\u043a\u0445\u0430 \u0411\u0440\u0438\u0442\u0430\u043d\u0438","name:ta":"\u0b90\u0b95\u0bcd\u0b95\u0bbf\u0baf \u0b87\u0bb0\u0bbe\u0b9a\u0bcd\u0b9a\u0bbf\u0baf\u0bae\u0bcd","name:tg":"\u041f\u043e\u0434\u0448\u043e\u04b3\u0438\u0438 \u041c\u0443\u0442\u0442\u0430\u04b3\u0438\u0434\u0430","name:ca":"Regne Unit","name:te":"\u0c2f\u0c41\u0c28\u0c48\u0c1f\u0c46\u0c21\u0c4d \u0c15\u0c3f\u0c02\u0c17\u0c4d\u200c\u0c21\u0c2e\u0c4d","name:cy":"Deyrnas Unedig","name:qu":"Hukllachasqa Qhapaq Suyu","name:da":"Storbritannien","name:de":"Vereinigtes K\u00f6nigreich","name:dz":"\u0f61\u0f74\u0f0b\u0f53\u0f60\u0f72\u0f0b\u0f4a\u0f7a\u0f4a\u0f0b\u0f40\u0f72\u0f44\u0f0b\u0f4c\u0f58","source":"openstreetmap.org","name:kn":"\u0caf\u0cc1\u0ca8\u0cc8\u0c9f\u0cc6\u0ca1\u0ccd \u0c95\u0cbf\u0c82\u0c97\u0ccd\u200c\u0ca1\u0c82","name:dv":"\u0794\u07aa\u0782\u07a6\u0787\u07a8\u0793\u07ac\u0791\u07b0 \u0786\u07a8\u0782\u07b0\u078e\u07b0\u0791\u07a6\u0789\u07b0","name:km":"\u179a\u17b6\u1787\u17b6\u178e\u17b6\u1785\u1780\u17d2\u179a\u179a\u17bd\u1798","name:lv":"Apvienot\u0101 Karaliste","name:lt":"Jungtin\u0117 Karalyst\u0117","name:uz":"Birlashgan Qirollik","name:kk":"\u04b0\u043b\u044b\u0431\u0440\u0438\u0442\u0430\u043d\u0438\u044f","name:ur":"\u0628\u0631\u0637\u0627\u0646\u06cc\u06c1","name:lb":"Groussbritannien an Nordirland","name:la":"Britanniarum Regnum","name:uk":"\u0412\u0435\u043b\u0438\u043a\u0430 \u0411\u0440\u0438\u0442\u0430\u043d\u0456\u044f","name:ug":"\u0628\u06c8\u064a\u06c8\u0643 \u0628\u06d0\u0631\u0649\u062a\u0627\u0646\u0649\u064a\u06d5","name:li":"Vereineg Keuninkriek","name:ln":"Ing\u025bl\u025b\u0301t\u025bl\u025b","name:el":"\u0397\u03bd\u03c9\u03bc\u03ad\u03bd\u03bf \u0392\u03b1\u03c3\u03af\u03bb\u03b5\u03b9\u03bf","name:eo":"Britujo","name":"United Kingdom","name:th":"\u0e2a\u0e2b\u0e23\u0e32\u0e0a\u0e2d\u0e32\u0e13\u0e32\u0e08\u0e31\u0e01\u0e23","name:eu":"Erresuma Batua","name:et":"Suurbritannia","name:es":"Reino Unido","name:ia":"Regno Unite","name:rm":"Reginavel Un\u00ec","name:az":"B\u00f6y\u00fck Britaniya","name:ie":"Reyatu Unit","name:id":"Britania Raya","name:ig":"Obodo\u00e9z\u00e8 N\u00e0 Of\u00fa","name:ar":"\u0627\u0644\u0645\u0645\u0644\u0643\u0629 \u0627\u0644\u0645\u062a\u062d\u062f\u0629","name:io":"Unionita Rejio","name:is":"Bretland","name:am":"\u12e9\u1293\u12ed\u1275\u12f5 \u12aa\u1295\u130d\u12f0\u121d","name:it":"Regno Unito","name:an":"Reino Unito","name:ru":"\u0412\u0435\u043b\u0438\u043a\u043e\u0431\u0440\u0438\u0442\u0430\u043d\u0438\u044f","name:ab":"\u0411\u0440\u0438\u0442\u0430\u043d\u0438\u0430 \u0414\u0443","name:af":"Verenigde Koninkryk","name:zu":"Umbuso Ohlangeneyo","kind_detail":"2","name:za":"Yinghgoz","name:zh-yue":"\u82f1\u570b","name:zh":"\u82f1\u570b","name:so":"Midowga boqortooyada Britan","name:sl":"Zdru\u017eeno kraljestvo Velike Britanije in Severne Irske","name:sk":"Spojen\u00e9 kr\u00e1\u013eovstvo","name:ja":"\u30a4\u30ae\u30ea\u30b9","name:si":"\u0d91\u0d9a\u0dca\u0dc3\u0dad\u0dca \u0dbb\u0dcf\u0da2\u0db0\u0dcf\u0db1\u0dd2\u0dba","name:sh":"Ujedinjeno Kraljevstvo","name:se":"Ovttastuvvan gonagasriika","name:sc":"Rennu Auniadu","name:sa":"\u0938\u0902\u092f\u0941\u0915\u094d\u0924 \u0905\u0927\u093f\u0930\u093e\u091c\u094d\u092f","name:bs":"Ujedinjeno Kraljevstvo Velike Britanije i Sjeverne Irske","name:bn":"\u09af\u09c1\u0995\u09cd\u09a4\u09b0\u09be\u099c\u09cd\u09af","name:bo":"\u0f51\u0f56\u0fb1\u0f72\u0f53\u0f0b\u0f47\u0f72\u0f0b\u0f58\u0f49\u0f58\u0f0b\u0f60\u0f56\u0fb2\u0f7a\u0f63\u0f0d","name:br":"Rouantelezh-Unanet","name:sw":"Ufalme wa Muungano","name:be":"\u0412\u044f\u043b\u0456\u043a\u0430\u0431\u0440\u044b\u0442\u0430\u043d\u0456\u044f","name:su":"Britania","name:bg":"\u041e\u0431\u0435\u0434\u0438\u043d\u0435\u043d\u043e \u043a\u0440\u0430\u043b\u0441\u0442\u0432\u043e \u0412\u0435\u043b\u0438\u043a\u043e\u0431\u0440\u0438\u0442\u0430\u043d\u0438\u044f \u0438 \u0421\u0435\u0432\u0435\u0440\u043d\u0430 \u0418\u0440\u043b\u0430\u043d\u0434\u0438\u044f","name:ba":"\u0411\u04e9\u0439\u04e9\u043a \u0411\u0440\u0438\u0442\u0430\u043d\u0438\u044f","name:sq":"Mbret\u00ebria e Bashkuar e Britanis\u00eb dhe Irland\u00ebs s\u00eb Veriut","name:jv":"Britania Raya","name:bi":"Unaeted Kingdom","name:pt":"Reino Unido","name:ps":"\u0628\u0631\u064a\u062a\u0627\u0646\u064a\u0627","name:oc":"Reialme Unit","min_zoom":8.0,"name:ro":"Regatul Unit al Marii Britanii \u0219i al Irlandei de Nord","name:zh-min-nan":"Li\u00e2n-ha\u030dp \u00d4ng-kok","name:os":"\u0421\u0442\u044b\u0440 \u0411\u0440\u0438\u0442\u0430\u043d\u0438","name:or":"\u0b2f\u0b41\u0b15\u0b4d\u0b24\u0b30\u0b3e\u0b1c\u0b4d\u0b5f","name:pl":"Wielka Brytania","sort_rank":262,"name:sr":"\u0423\u0458\u0435\u0434\u0438\u045a\u0435\u043d\u043e \u041a\u0440\u0430\u0459\u0435\u0432\u0441\u0442\u0432\u043e","osm_relation":true,"name:pa":"\u0a38\u0a70\u0a2f\u0a41\u0a15\u0a24 \u0a2c\u0a3e\u0a26\u0a38\u0a3c\u0a3e\u0a39\u0a40","name:tr":"Birle\u015fik Krall\u0131k","name:hi":"\u092f\u0942\u0928\u093e\u0907\u091f\u0947\u0921 \u0915\u093f\u0902\u0917\u0921\u092e","name:sv":"Storbritannien","name:he":"\u05d4\u05de\u05de\u05dc\u05db\u05d4 \u05d4\u05de\u05d0\u05d5\u05d7\u05d3\u05ea","name:ha":"Birtaniya","name:hy":"\u0544\u056b\u0561\u0581\u0575\u0561\u056c \u0539\u0561\u0563\u0561\u057e\u0578\u0580\u0578\u0582\u0569\u0575\u0578\u0582\u0576","name:ht":"Way\u00f2m Ini","name:hu":"Egyes\u00fclt Kir\u00e1lys\u00e1g","name:hr":"Ujedinjeno Kraljevstvo","kind":"country","name:yi":"\u05e4\u05d0\u05e8\u05d0\u05d9\u05d9\u05e0\u05d9\u05d2\u05d8\u05e2 \u05e7\u05e2\u05e0\u05d9\u05d2\u05e8\u05d9\u05d9\u05da","name:yo":"Il\u1eb9\u0300\u1ecdba A\u1e63\u1ecd\u0300kan","name:mt":"Renju Unit","alt_name:eo":"Britio","name:mr":"\u092f\u0941\u0928\u093e\u092f\u091f\u0947\u0921 \u0915\u093f\u0902\u0917\u094d\u0921\u092e","name:my":"\u101a\u1030\u1014\u102d\u102f\u1000\u103a\u1010\u1000\u103a\u1000\u1004\u103a\u1038\u1012\u1019\u103a\u1038\u1014\u102d\u102f\u1004\u103a\u1004\u1036","name:kw":"Ruwvaneth Unys","name:mg":"Fanjakana Mitambatra","name:vi":"V\u01b0\u01a1ng qu\u1ed1c Anh","name:ml":"\u0d2f\u0d41\u0d23\u0d48\u0d31\u0d4d\u0d31\u0d21\u0d4d \u0d15\u0d3f\u0d19\u0d4d\u0d21\u0d02","name:mn":"\u0418\u0445 \u0411\u0440\u0438\u0442\u0430\u043d\u0438","name:mi":"K\u012bngitanga Kotahi","id":-62149,"name:mk":"\u041e\u0431\u0435\u0434\u0438\u043d\u0435\u0442\u043e \u041a\u0440\u0430\u043b\u0441\u0442\u0432\u043e","name:vo":"Reg\u00e4n Pebal\u00f6l","name:fa":"\u0628\u0631\u06cc\u062a\u0627\u0646\u06cc\u0627","name:rw":"Ubwongereza","short_name":"UK","name:fi":"Yhdistynyt kuningaskunta","name:ky":"\u0423\u043b\u0443\u0443 \u0411\u0440\u0438\u0442\u0430\u043d\u0438\u044f \u0436\u0430\u043d\u0430 \u0422\u04af\u043d\u0434\u04af\u043a \u0418\u0440\u043b\u0430\u043d\u0434\u0438\u044f","name:fo":"St\u00f3ra Bretland","name:fr":"Royaume-Uni","name:fy":"Feriene Keninkryk","name:nl":"Verenigd Koninkrijk","name:nn":"Storbritannia","name:no":"Storbritannia","name:na":"Ingerand","name:ne":"\u0938\u0902\u092f\u0941\u0915\u094d\u0924 \u0905\u0927\u093f\u0930\u093e\u091c\u094d\u092f","name:wo":"Nguur-Yu-Bennoo","name:nv":"T\u00f3ta\u02bc Din\u00e9\u02bci\u02bc Bik\u00e9yah","name:ga":"An R\u00edocht Aontaithe","name:gd":"An R\u00ecoghachd Aonaichte","name:gn":"Tavet\u00e3 Joaju","name:gl":"Reino Unido","maritime_boundary":true,"name:gv":"Reeriaght Unnaneysit","name:gu":"\u0aaf\u0ac1\u0aa8\u0abe\u0a87\u0a9f\u0ac7\u0aa1 \u0a95\u0abf\u0a82\u0a97\u0aa1\u0aae"},"arcs":[3]},{"type":"LineString","properties":{"name:ia":"Anglaterra","name:ga":"Sasana","name:pt":"Inglaterra","name:cy":"Lloegr","name:tr":"\u0130ngiltere","name:cs":"Anglie","alt_name:eo":"Anglio","name:io":"Anglia","min_zoom":8.0,"name:it":"Inghilterra","name:ru":"\u0410\u043d\u0433\u043b\u0438\u044f","name:vi":"Anh","name:pl":"Anglia","id":-58447,"name:ca":"Anglaterra","name:vo":"Lingl\u00e4n","sort_rank":256,"name:fi":"Englanti","old_name:vi":"Anh Qu\u1ed1c","source":"openstreetmap.org","name:fr":"Angleterre","name:fy":"Ingel\u00e2n","name:zh":"\u82f1\u683c\u862d","name:nl":"Engeland","name:lt":"Anglija","name:eo":"Anglujo","name:la":"Anglia","name:sk":"Anglicko","name:uk":"\u0410\u043d\u0433\u043b\u0456\u044f","name:be":"\u0410\u043d\u0433\u043b\u0456\u044f","name:hu":"Anglia","osm_relation":true,"alt_name:ia":"Anglia","name:el":"\u0391\u03b3\u03b3\u03bb\u03af\u03b1","kind":"region","name":"England","name:gd":"Sasainn","maritime_boundary":true,"name:gv":"Sostyn","kind_detail":"4","name:es":"Inglaterra"},"arcs":[4]}]},"roads":{"type":"GeometryCollection","geometries":[{"type":"MultiLineString","properties":{"kind":"minor_road","sort_rank":358,"landuse_kind":"urban_area","is_bicycle_related":true,"bicycle_shield_text":"2","bicycle_network":"ncn","source":"openstreetmap.org","min_zoom":8.0,"kind_detail":"service"},"arcs":[[37],[38]]},{"type":"MultiLineString","properties":{"bus_network":null,"network":null,"sort_rank":380,"kind_detail":"primary","kind":"major_road","source":"openstreetmap.org","min_zoom":8.0,"bus_shield_text":"1a","shield_text":"35","landuse_kind":"urban_area","ref":"A35"},"arcs":[[39],[40]]},{"type":"LineString","properties":{"kind":"major_road","sort_rank":380,"kind_detail":"primary","bus_network":"local","source":"openstreetmap.org","min_zoom":8.0,"bus_shield_text":"20","landuse_kind":"urban_area","ref":"A347","id":847483},"arcs":[41]},{"type":"LineString","properties":{"kind":"ferry","name":"Wightlink Lymington Pier-Yarmouth Quay","sort_rank":355,"source":"openstreetmap.org","min_zoom":8.0,"ref":"158 Lymington Pier - Yarmouth","id":-168243,"osm_relation":true},"arcs":[42]},{"type":"LineString","properties":{"kind":"minor_road","sort_rank":360,"landuse_kind":"urban_area","is_bicycle_related":true,"bicycle_shield_text":"25","bicycle_network":"ncn","source":"openstreetmap.org","min_zoom":8.0,"kind_detail":"unclassified"},"arcs":[43]},{"type":"LineString","properties":{"kind":"major_road","sort_rank":379,"kind_detail":"secondary","is_bicycle_related":true,"bicycle_shield_text":null,"bicycle_network":"icn","source":"openstreetmap.org","min_zoom":8.0,"ref":"B3144"},"arcs":[44]},{"type":"LineString","properties":{"bus_network":null,"sort_rank":379,"kind_detail":"secondary","is_bicycle_related":true,"kind":"major_road","bicycle_shield_text":"22","bicycle_network":"ncn","source":"openstreetmap.org","min_zoom":8.0,"bus_shield_text":"Needles Breezer","ref":"B3401"},"arcs":[45]},{"type":"MultiLineString","properties":{"bus_network":null,"network":null,"sort_rank":381,"kind_detail":"trunk","kind":"major_road","source":"openstreetmap.org","min_zoom":8.0,"bus_shield_text":"40","shield_text":"35","ref":"A35"},"arcs":[[46],[47]]},{"type":"MultiLineString","properties":{"kind":"major_road","sort_rank":377,"kind_detail":"tertiary","is_bicycle_related":true,"bicycle_shield_text":"22","bicycle_network":"ncn","source":"openstreetmap.org","min_zoom":8.0},"arcs":[[48],[49]]},{"type":"MultiLineString","properties":{"kind":"major_road","sort_rank":379,"landuse_kind":"urban_area","is_bicycle_related":true,"bicycle_shield_text":null,"cycleway":"lane","source":"openstreetmap.org","min_zoom":8.0,"kind_detail":"secondary","bicycle_network":"icn","ref":"B3369"},"arcs":[[50],[51]]},{"type":"LineString","properties":{"kind":"major_road","sort_rank":377,"kind_detail":"tertiary","is_bicycle_related":true,"bicycle_shield_text":"26","bicycle_network":"ncn","source":"openstreetmap.org","min_zoom":8.0},"arcs":[52]},{"type":"MultiLineString","properties":{"source":"openstreetmap.org","kind":"major_road","ref":"A354","sort_rank":381,"kind_detail":"trunk","is_bicycle_related":true,"min_zoom":8.0},"arcs":[[53],[54],[55]]},{"type":"LineString","properties":{"bus_network":null,"sort_rank":381,"kind_detail":"trunk","is_bicycle_related":true,"kind":"major_road","bicycle_shield_text":null,"bicycle_network":"icn","source":"openstreetmap.org","min_zoom":8.0,"bus_shield_text":"9","ref":"A350"},"arcs":[56]},{"type":"MultiLineString","properties":{"bus_network":null,"sort_rank":380,"kind_detail":"primary","is_bicycle_related":true,"kind":"major_road","bicycle_network":"lcn","source":"openstreetmap.org","min_zoom":8.0,"bus_shield_text":"U6","landuse_kind":"urban_area","ref":"A347"},"arcs":[[57],[58]]},{"type":"MultiLineString","properties":{"bus_network":null,"sort_rank":380,"kind_detail":"primary","is_bicycle_related":true,"kind":"major_road","bicycle_shield_text":"3","bicycle_network":"lcn","source":"openstreetmap.org","min_zoom":8.0,"bus_shield_text":"40","ref":"A351"},"arcs":[[59],[60],[61]]},{"type":"LineString","properties":{"kind":"major_road","sort_rank":380,"kind_detail":"primary","is_bicycle_related":true,"bus_network":null,"bicycle_shield_text":null,"bicycle_network":"lcn","source":"openstreetmap.org","min_zoom":8.0,"bus_shield_text":"50","ref":"A351","id":152235686},"arcs":[62]},{"type":"LineString","properties":{"sort_rank":355,"source":"openstreetmap.org","kind":"ferry","min_zoom":8.0,"name":"Guernsey - Portsmouth"},"arcs":[63]},{"type":"MultiLineString","properties":{"bus_network":null,"network":null,"sort_rank":381,"kind_detail":"trunk","is_bicycle_related":true,"kind":"major_road","cycleway":"lane","source":"openstreetmap.org","min_zoom":8.0,"bus_shield_text":"4","shield_text":"35","landuse_kind":"urban_area","ref":"A35"},"arcs":[[64],[65]]},{"type":"LineString","properties":{"bus_network":null,"cycleway_left":"lane","sort_rank":379,"kind_detail":"secondary","is_bicycle_related":true,"kind":"major_road","bicycle_shield_text":null,"bicycle_network":"icn","source":"openstreetmap.org","min_zoom":8.0,"bus_shield_text":"50","ref":"B3369","id":4578494},"arcs":[66]},{"type":"MultiLineString","properties":{"kind":"path","sort_rank":354,"kind_detail":"cycleway","is_bicycle_related":true,"bicycle_shield_text":"2","bicycle_network":"ncn","source":"openstreetmap.org","min_zoom":8.0,"landuse_kind":"urban_area"},"arcs":[[67],[68]]},{"type":"LineString","properties":{"bus_network":"IOW","sort_rank":380,"kind_detail":"primary","is_bicycle_related":true,"kind":"major_road","bicycle_shield_text":"67","bicycle_network":"rcn","source":"openstreetmap.org","min_zoom":8.0,"bus_shield_text":"12","ref":"A3055","id":377089},"arcs":[69]},{"type":"MultiLineString","properties":{"bus_network":"local","sort_rank":379,"kind_detail":"secondary","is_bicycle_related":true,"kind":"major_road","bicycle_shield_text":null,"bicycle_network":"icn","source":"openstreetmap.org","min_zoom":8.0,"bus_shield_text":"20","cycleway":"lane","ref":"B3369"},"arcs":[[70],[71]]},{"type":"MultiLineString","properties":{"kind":"major_road","network":null,"sort_rank":381,"landuse_kind":"urban_area","source":"openstreetmap.org","min_zoom":8.0,"kind_detail":"trunk","shield_text":"35"},"arcs":[[72],[73]]},{"type":"MultiLineString","properties":{"source":"openstreetmap.org","kind":"major_road","sort_rank":380,"kind_detail":"primary","ref":"A351","min_zoom":8.0},"arcs":[[74],[75],[76],[77],[78],[79],[80],[81],[82],[83],[84],[85],[86],[87],[88],[89],[90],[91],[92],[93],[94],[95],[96],[97],[98],[99],[100]]},{"type":"MultiLineString","properties":{"kind":"minor_road","service":"driveway","sort_rank":356,"kind_detail":"service","is_bicycle_related":true,"bicycle_shield_text":null,"bicycle_network":"icn","source":"openstreetmap.org","min_zoom":8.0},"arcs":[[101],[102],[103]]},{"type":"MultiLineString","properties":{"kind":"major_road","network":null,"sort_rank":380,"kind_detail":"primary","source":"openstreetmap.org","min_zoom":8.0,"landuse_kind":"urban_area","shield_text":"35","ref":"A35"},"arcs":[[104],[105]]},{"type":"LineString","properties":{"kind":"major_road","sort_rank":380,"kind_detail":"primary","is_bicycle_related":true,"bicycle_shield_text":"3","bicycle_network":"lcn","source":"openstreetmap.org","min_zoom":8.0,"ref":"A351","id":522578117},"arcs":[106]},{"type":"LineString","properties":{"kind":"major_road","network":null,"sort_rank":380,"kind_detail":"primary","bus_network":null,"source":"openstreetmap.org","min_zoom":8.0,"bus_shield_text":"U6","shield_text":"35","landuse_kind":"urban_area","id":4083434},"arcs":[107]},{"type":"LineString","properties":{"kind":"major_road","network":null,"sort_rank":381,"kind_detail":"trunk","is_bicycle_related":true,"bus_network":null,"cycleway":"lane","source":"openstreetmap.org","min_zoom":8.0,"bus_shield_text":"m1","shield_text":"35","landuse_kind":"urban_area","ref":"A35","id":219043043},"arcs":[108]},{"type":"MultiLineString","properties":{"kind":"minor_road","sort_rank":360,"landuse_kind":"urban_area","is_bicycle_related":true,"bicycle_shield_text":"2","bicycle_network":"ncn","source":"openstreetmap.org","min_zoom":8.0,"kind_detail":"unclassified"},"arcs":[[109],[110]]},{"type":"LineString","properties":{"kind":"ferry","network":"international","sort_rank":355,"is_bicycle_related":true,"source":"openstreetmap.org","min_zoom":8.0,"osm_relation":true,"shield_text":"-","all_networks":["international"],"all_shield_texts":["-"],"name":"Portsmouth - Cherbourg"},"arcs":[111]},{"type":"MultiLineString","properties":{"sort_rank":380,"kind_detail":"primary","min_zoom":8.0,"kind":"major_road","source":"openstreetmap.org"},"arcs":[[112],[113],[114],[115],[116]]},{"type":"LineString","properties":{"kind":"minor_road","sort_rank":360,"kind_detail":"residential","is_bicycle_related":true,"bicycle_shield_text":null,"cycleway":"opposite_lane","source":"openstreetmap.org","min_zoom":8.0,"bicycle_network":"icn","id":158045231},"arcs":[117]},{"type":"LineString","properties":{"kind":"major_road","network":null,"sort_rank":380,"kind_detail":"primary","bus_network":"local","source":"openstreetmap.org","min_zoom":8.0,"bus_shield_text":"X1","shield_text":"35","landuse_kind":"urban_area","ref":"A35","id":148898246},"arcs":[118]},{"type":"LineString","properties":{"kind":"major_road","cycleway_left":"share_busway","sort_rank":380,"kind_detail":"primary","is_bicycle_related":true,"bus_network":null,"source":"openstreetmap.org","min_zoom":8.0,"bus_shield_text":"U2","landuse_kind":"urban_area","ref":"A350","id":220912884},"arcs":[119]},{"type":"MultiLineString","properties":{"kind":"minor_road","sort_rank":360,"kind_detail":"residential","is_bicycle_related":true,"bicycle_shield_text":null,"bicycle_network":"icn","source":"openstreetmap.org","min_zoom":8.0},"arcs":[[120],[121],[122],[123],[124],[125],[126],[127],[128]]},{"type":"MultiLineString","properties":{"kind":"path","sort_rank":354,"kind_detail":"cycleway","is_bicycle_related":true,"bicycle_shield_text":"26","bicycle_network":"ncn","source":"openstreetmap.org","min_zoom":8.0},"arcs":[[129],[130],[131],[132],[133],[134],[135]]},{"type":"LineString","properties":{"bus_network":null,"sort_rank":379,"landuse_kind":"urban_area","is_bicycle_related":true,"kind":"major_road","bicycle_shield_text":null,"cycleway":"lane","source":"openstreetmap.org","min_zoom":8.0,"bus_shield_text":"50","kind_detail":"secondary","bicycle_network":"icn","ref":"B3369"},"arcs":[136]},{"type":"MultiLineString","properties":{"bus_network":null,"sort_rank":380,"kind_detail":"primary","is_bicycle_related":true,"kind":"major_road","bicycle_shield_text":"6","bicycle_network":"rcn","source":"openstreetmap.org","min_zoom":8.0,"bus_shield_text":"40","ref":"A351"},"arcs":[[137],[138],[139],[140],[141]]},{"type":"MultiLineString","properties":{"kind":"minor_road","sort_rank":360,"kind_detail":"residential","is_bicycle_related":true,"bicycle_shield_text":"2","bicycle_network":"ncn","source":"openstreetmap.org","min_zoom":8.0,"landuse_kind":"urban_area"},"arcs":[[142],[143],[144],[145],[146],[147],[148]]},{"type":"MultiLineString","properties":{"bus_network":null,"sort_rank":380,"kind_detail":"primary","kind":"major_road","source":"openstreetmap.org","min_zoom":8.0,"bus_shield_text":"Route One","landuse_kind":"urban_area","ref":"A350"},"arcs":[[149],[150],[151],[152]]},{"type":"LineString","properties":{"kind":"major_road","sort_rank":379,"kind_detail":"secondary","is_bicycle_related":true,"bus_network":"local","bicycle_shield_text":null,"cycleway":"lane","source":"openstreetmap.org","min_zoom":8.0,"bus_shield_text":"20","landuse_kind":"urban_area","ref":"B3369","id":147537431,"bicycle_network":"icn"},"arcs":[153]},{"type":"MultiLineString","properties":{"source":"openstreetmap.org","kind":"major_road","landuse_kind":"urban_area","sort_rank":380,"kind_detail":"primary","ref":"A347","min_zoom":8.0},"arcs":[[154],[155],[156],[157]]},{"type":"MultiLineString","properties":{"kind":"major_road","sort_rank":377,"kind_detail":"tertiary","is_bicycle_related":true,"bicycle_shield_text":null,"bicycle_network":"icn","source":"openstreetmap.org","min_zoom":8.0},"arcs":[[158],[159],[160],[161],[162],[163],[164],[165]]},{"type":"LineString","properties":{"sort_rank":355,"source":"openstreetmap.org","min_zoom":8.0,"name":"Portsmouth - Cherbourg","kind":"ferry"},"arcs":[166]},{"type":"MultiLineString","properties":{"source":"openstreetmap.org","kind":"ferry","name":"Poole - Guernsey","sort_rank":355,"landuse_kind":"nature_reserve","min_zoom":8.0},"arcs":[[167],[168],[169]]},{"type":"MultiLineString","properties":{"kind":"minor_road","sort_rank":360,"landuse_kind":"urban_area","is_bicycle_related":true,"bicycle_shield_text":"26","bicycle_network":"ncn","source":"openstreetmap.org","min_zoom":8.0,"kind_detail":"residential"},"arcs":[[170],[171]]},{"type":"MultiLineString","properties":{"kind":"path","sort_rank":354,"kind_detail":"cycleway","is_bicycle_related":true,"bicycle_shield_text":null,"cycleway":"shared","source":"openstreetmap.org","min_zoom":8.0,"bicycle_network":"icn"},"arcs":[[172],[173]]},{"type":"LineString","properties":{"kind":"major_road","sort_rank":377,"kind_detail":"tertiary","is_bicycle_related":true,"bicycle_shield_text":"25","bicycle_network":"ncn","source":"openstreetmap.org","min_zoom":8.0,"landuse_kind":"urban_area","id":37141965},"arcs":[174]},{"type":"LineString","properties":{"bus_network":null,"network":null,"sort_rank":380,"kind_detail":"primary","kind":"major_road","source":"openstreetmap.org","min_zoom":8.0,"bus_shield_text":"2a","shield_text":"35","landuse_kind":"urban_area","ref":"A35"},"arcs":[175]},{"type":"LineString","properties":{"kind":"major_road","network":null,"sort_rank":381,"kind_detail":"trunk","is_bicycle_related":true,"bus_network":null,"cycleway":"lane","source":"openstreetmap.org","min_zoom":8.0,"bus_shield_text":"32","shield_text":"35","landuse_kind":"urban_area","ref":"A35","id":170609400},"arcs":[176]},{"type":"LineString","properties":{"kind":"major_road","sort_rank":379,"kind_detail":"secondary","is_bicycle_related":true,"bicycle_shield_text":null,"bicycle_network":"icn","source":"openstreetmap.org","min_zoom":8.0,"id":91932930},"arcs":[177]},{"type":"LineString","properties":{"kind":"major_road","network":null,"sort_rank":380,"kind_detail":"primary","bus_network":"local","source":"openstreetmap.org","min_zoom":8.0,"bus_shield_text":"X1","shield_text":"35","id":148894354},"arcs":[178]},{"type":"MultiLineString","properties":{"bus_network":null,"sort_rank":380,"kind_detail":"primary","kind":"major_road","source":"openstreetmap.org","min_zoom":8.0,"bus_shield_text":"m1","landuse_kind":"urban_area","ref":"A3040"},"arcs":[[179],[180],[181],[182]]},{"type":"LineString","properties":{"source":"openstreetmap.org","kind":"ferry","name":"Sandbanks - Brownsea Island","sort_rank":355,"min_zoom":8.0,"id":174079325},"arcs":[183]},{"type":"LineString","properties":{"source":"openstreetmap.org","kind":"ferry","sort_rank":355,"landuse_kind":"national_park","min_zoom":8.0,"id":7963408},"arcs":[184]},{"type":"LineString","properties":{"kind":"major_road","network":null,"sort_rank":381,"kind_detail":"trunk","source":"openstreetmap.org","min_zoom":8.0,"shield_text":"35","id":77044858},"arcs":[185]},{"type":"MultiLineString","properties":{"source":"openstreetmap.org","kind":"major_road","sort_rank":381,"kind_detail":"trunk","ref":"A354","min_zoom":8.0},"arcs":[[186],[187],[188],[189],[190],[191],[192],[193],[194],[195],[196],[197],[198],[199],[200],[201],[202],[203],[204],[205],[206],[207],[208],[209],[210],[211],[212],[213],[214],[215],[216],[217],[218],[219],[220],[221],[222],[223],[224],[225],[226],[227],[228],[229],[230],[231],[232],[233],[234]]},{"type":"LineString","properties":{"kind":"path","sort_rank":354,"kind_detail":"pedestrian","is_bicycle_related":true,"bicycle_shield_text":"25","bicycle_network":"ncn","source":"openstreetmap.org","min_zoom":8.0,"id":37141750},"arcs":[235]},{"type":"LineString","properties":{"kind":"path","sort_rank":354,"kind_detail":"path","is_bicycle_related":true,"bicycle_shield_text":"25","bicycle_network":"ncn","source":"openstreetmap.org","min_zoom":8.0,"landuse_kind":"urban_area","id":4079752},"arcs":[236]},{"type":"MultiLineString","properties":{"source":"openstreetmap.org","kind":"major_road","kind_detail":"trunk","sort_rank":381,"landuse_kind":"urban_area","ref":"A3049","min_zoom":8.0},"arcs":[[237],[238]]},{"type":"MultiLineString","properties":{"bus_network":null,"sort_rank":380,"kind_detail":"primary","kind":"major_road","source":"openstreetmap.org","min_zoom":8.0,"bus_shield_text":"7 via Wellow","ref":"A3055"},"arcs":[[239],[240]]},{"type":"LineString","properties":{"sort_rank":355,"source":"openstreetmap.org","min_zoom":8.0,"name":"Portsmouth - Bilbao","kind":"ferry"},"arcs":[241]},{"type":"MultiLineString","properties":{"kind":"minor_road","sort_rank":360,"landuse_kind":"urban_area","is_bicycle_related":true,"bicycle_shield_text":"25","bicycle_network":"ncn","source":"openstreetmap.org","min_zoom":8.0,"kind_detail":"residential"},"arcs":[[242],[243],[244],[245]]},{"type":"LineString","properties":{"kind":"path","sort_rank":354,"kind_detail":"cycleway","is_bicycle_related":true,"bicycle_shield_text":"25","cycleway":"yes","source":"openstreetmap.org","min_zoom":8.0,"landuse_kind":"urban_area","bicycle_network":"ncn","id":37141964},"arcs":[246]},{"type":"MultiLineString","properties":{"kind":"minor_road","sort_rank":358,"kind_detail":"service","is_bicycle_related":true,"bicycle_shield_text":"26","bicycle_network":"ncn","source":"openstreetmap.org","min_zoom":8.0},"arcs":[[247],[248]]},{"type":"LineString","properties":{"kind":"minor_road","sort_rank":360,"kind_detail":"residential","is_bicycle_related":true,"bicycle_shield_text":"22","bicycle_network":"ncn","source":"openstreetmap.org","min_zoom":8.0},"arcs":[249]},{"type":"LineString","properties":{"kind":"minor_road","sort_rank":358,"kind_detail":"service","is_bicycle_related":true,"bicycle_shield_text":"25","bicycle_network":"ncn","source":"openstreetmap.org","min_zoom":8.0,"landuse_kind":"urban_area","id":46483192},"arcs":[250]},{"type":"MultiLineString","properties":{"source":"openstreetmap.org","kind":"ferry","name":"Hurst Castle Ferry","sort_rank":355,"landuse_kind":"national_park","min_zoom":8.0},"arcs":[[251],[252],[253],[254]]},{"type":"MultiLineString","properties":{"bus_network":null,"sort_rank":379,"kind_detail":"secondary","is_bicycle_related":true,"kind":"major_road","bicycle_shield_text":null,"bicycle_network":"icn","source":"openstreetmap.org","min_zoom":8.0,"bus_shield_text":"50","ref":"B3369"},"arcs":[[255],[256]]},{"type":"LineString","properties":{"kind":"major_road","sort_rank":380,"kind_detail":"primary","is_bicycle_related":true,"bus_network":null,"bicycle_shield_text":"1","bicycle_network":"lcn","source":"openstreetmap.org","min_zoom":8.0,"bus_shield_text":"Needles Breezer","id":26209181},"arcs":[257]},{"type":"LineString","properties":{"bus_network":null,"sort_rank":379,"kind_detail":"secondary","is_bicycle_related":true,"cycleway_right":"lane","bicycle_shield_text":null,"bicycle_network":"icn","source":"openstreetmap.org","min_zoom":8.0,"bus_shield_text":"50","ref":"B3369","id":220921,"kind":"major_road"},"arcs":[258]},{"type":"LineString","properties":{"bus_network":null,"sort_rank":380,"kind_detail":"primary","is_bicycle_related":true,"kind":"major_road","bicycle_shield_text":"67","bicycle_network":"rcn","source":"openstreetmap.org","min_zoom":8.0,"bus_shield_text":"7 via Wellow","ref":"A3055","id":365395938},"arcs":[259]},{"type":"LineString","properties":{"kind":"path","sort_rank":354,"kind_detail":"footway","is_bicycle_related":true,"bicycle_shield_text":"2","bicycle_network":"ncn","source":"openstreetmap.org","min_zoom":8.0,"landuse_kind":"urban_area","id":270481831},"arcs":[260]},{"type":"LineString","properties":{"bus_network":"Island Breezers","sort_rank":380,"kind_detail":"primary","kind":"major_road","source":"openstreetmap.org","min_zoom":8.0,"bus_shield_text":null,"ref":"A3055"},"arcs":[261]},{"type":"LineString","properties":{"bus_network":null,"cycleway_left":"lane","sort_rank":379,"kind_detail":"secondary","is_bicycle_related":true,"kind":"major_road","bicycle_shield_text":null,"cycleway":"lane","source":"openstreetmap.org","min_zoom":8.0,"bus_shield_text":"50","bicycle_network":"icn","ref":"B3369"},"arcs":[262]},{"type":"LineString","properties":{"kind":"path","sort_rank":354,"kind_detail":"cycleway","is_bicycle_related":true,"bicycle_shield_text":"25","cycleway":"shared","source":"openstreetmap.org","min_zoom":8.0,"bicycle_network":"ncn"},"arcs":[263]},{"type":"LineString","properties":{"kind":"major_road","network":null,"sort_rank":379,"kind_detail":"secondary","is_bicycle_related":true,"bicycle_shield_text":"TDM","bicycle_network":"icn","source":"openstreetmap.org","min_zoom":8.0,"shield_text":"3071","ref":"B3071","id":2261897},"arcs":[264]},{"type":"MultiLineString","properties":{"bus_network":"express","sort_rank":380,"kind_detail":"primary","kind":"major_road","source":"openstreetmap.org","min_zoom":8.0,"bus_shield_text":"X6","landuse_kind":"urban_area","ref":"A350"},"arcs":[[265],[266]]},{"type":"LineString","properties":{"kind":"major_road","network":null,"sort_rank":381,"kind_detail":"trunk","bus_network":"local","source":"openstreetmap.org","min_zoom":8.0,"bus_shield_text":"X1","shield_text":"35","landuse_kind":"urban_area","ref":"A338","id":8121185},"arcs":[267]},{"type":"MultiLineString","properties":{"bus_network":null,"sort_rank":380,"kind_detail":"primary","kind":"major_road","source":"openstreetmap.org","min_zoom":8.0,"bus_shield_text":"U6","landuse_kind":"urban_area","ref":"A347"},"arcs":[[268],[269],[270],[271]]},{"type":"LineString","properties":{"kind":"minor_road","sort_rank":360,"kind_detail":"residential","is_bicycle_related":true,"bicycle_shield_text":null,"bicycle_network":"icn","source":"openstreetmap.org","min_zoom":8.0,"landuse_kind":"urban_area","id":4633582},"arcs":[272]},{"type":"LineString","properties":{"bus_network":"IOW","sort_rank":377,"kind_detail":"tertiary","is_bicycle_related":true,"kind":"major_road","bicycle_shield_text":"231","bicycle_network":"ncn","source":"openstreetmap.org","min_zoom":8.0,"bus_shield_text":"12"},"arcs":[273]},{"type":"LineString","properties":{"source":"openstreetmap.org","kind":"ferry","name":"Christchurch & Tuckton Ferry","sort_rank":355,"landuse_kind":"urban_area","min_zoom":8.0,"id":205882478},"arcs":[274]},{"type":"MultiLineString","properties":{"bus_network":null,"sort_rank":377,"kind_detail":"tertiary","is_bicycle_related":true,"kind":"major_road","bicycle_shield_text":null,"bicycle_network":"icn","source":"openstreetmap.org","min_zoom":8.0,"bus_shield_text":"Route One"},"arcs":[[275],[276],[277],[278]]},{"type":"LineString","properties":{"kind":"major_road","sort_rank":380,"kind_detail":"primary","is_bicycle_related":true,"bus_network":null,"bicycle_shield_text":"235","bicycle_network":"ncn","source":"openstreetmap.org","min_zoom":8.0,"bus_shield_text":"7 via Wellow","ref":"A3054","id":2957703},"arcs":[279]},{"type":"LineString","properties":{"kind":"major_road","network":null,"sort_rank":381,"kind_detail":"trunk","bus_network":null,"source":"openstreetmap.org","min_zoom":8.0,"bus_shield_text":"4","shield_text":"35","landuse_kind":"urban_area","ref":"A35","id":330209526},"arcs":[280]},{"type":"MultiLineString","properties":{"kind":"path","sort_rank":354,"kind_detail":"track","is_bicycle_related":true,"bicycle_shield_text":null,"bicycle_network":"icn","source":"openstreetmap.org","min_zoom":8.0},"arcs":[[281],[282],[283],[284]]},{"type":"LineString","properties":{"kind":"major_road","network":null,"sort_rank":380,"kind_detail":"primary","bus_network":null,"source":"openstreetmap.org","min_zoom":8.0,"bus_shield_text":"X3","shield_text":"35","id":4083437},"arcs":[285]},{"type":"MultiLineString","properties":{"kind":"minor_road","sort_rank":360,"kind_detail":"unclassified","is_bicycle_related":true,"bicycle_shield_text":null,"bicycle_network":"icn","source":"openstreetmap.org","min_zoom":8.0},"arcs":[[286],[287],[288],[289],[290],[291],[292],[293],[294],[295],[296],[297]]},{"type":"MultiLineString","properties":{"source":"openstreetmap.org","kind":"major_road","sort_rank":380,"kind_detail":"primary","ref":"A3055","min_zoom":8.0},"arcs":[[298],[299]]},{"type":"MultiLineString","properties":{"kind":"minor_road","sort_rank":360,"kind_detail":"residential","is_bicycle_related":true,"bicycle_shield_text":"25","bicycle_network":"ncn","source":"openstreetmap.org","min_zoom":8.0},"arcs":[[300],[301],[302]]},{"type":"LineString","properties":{"kind":"minor_road","sort_rank":360,"kind_detail":"unclassified","is_bicycle_related":true,"bicycle_shield_text":"25","cycleway":"opposite_track","source":"openstreetmap.org","min_zoom":8.0,"landuse_kind":"urban_area","bicycle_network":"ncn","id":4079711},"arcs":[303]},{"type":"MultiLineString","properties":{"source":"openstreetmap.org","kind":"major_road","kind_detail":"trunk","sort_rank":381,"landuse_kind":"urban_area","ref":"A354","min_zoom":8.0},"arcs":[[304],[305],[306],[307],[308],[309],[310],[311],[312],[313],[314],[315],[316],[317],[318],[319],[320],[321],[322],[323],[324],[325],[326],[327]]},{"type":"LineString","properties":{"kind":"major_road","sort_rank":381,"kind_detail":"trunk","bus_network":null,"source":"openstreetmap.org","min_zoom":8.0,"bus_shield_text":"40","ref":"A35","id":142960010},"arcs":[328]},{"type":"MultiLineString","properties":{"bus_network":null,"sort_rank":380,"kind_detail":"primary","kind":"major_road","source":"openstreetmap.org","min_zoom":8.0,"bus_shield_text":"U2","landuse_kind":"urban_area","ref":"A3040"},"arcs":[[329],[330],[331]]},{"type":"LineString","properties":{"kind":"path","sort_rank":354,"kind_detail":"cycleway","is_bicycle_related":true,"bicycle_shield_text":"26","cycleway":"crossing","source":"openstreetmap.org","min_zoom":8.0,"bicycle_network":"ncn","id":178003267},"arcs":[332]},{"type":"LineString","properties":{"bus_network":null,"sort_rank":380,"kind_detail":"primary","is_bicycle_related":true,"kind":"major_road","bicycle_shield_text":"67","bicycle_network":"rcn","source":"openstreetmap.org","min_zoom":8.0,"bus_shield_text":"Needles Breezer","ref":"A3054"},"arcs":[333]},{"type":"LineString","properties":{"kind":"major_road","network":null,"sort_rank":380,"kind_detail":"primary","is_bicycle_related":true,"bus_network":null,"bicycle_network":"lcn","source":"openstreetmap.org","min_zoom":8.0,"bus_shield_text":"2a","shield_text":"35","landuse_kind":"urban_area","ref":"A35","id":206915636},"arcs":[334]},{"type":"LineString","properties":{"source":"openstreetmap.org","kind":"major_road","sort_rank":380,"kind_detail":"primary","ref":"A3066","min_zoom":8.0,"id":48447263},"arcs":[335]},{"type":"LineString","properties":{"kind":"path","sort_rank":354,"kind_detail":"cycleway","is_bicycle_related":true,"bicycle_shield_text":"2","bicycle_network":"ncn","source":"openstreetmap.org","min_zoom":8.0,"id":145209178},"arcs":[336]},{"type":"MultiLineString","properties":{"kind":"path","sort_rank":354,"kind_detail":"track","is_bicycle_related":true,"bicycle_shield_text":"26","bicycle_network":"ncn","source":"openstreetmap.org","min_zoom":8.0},"arcs":[[337],[338]]},{"type":"MultiLineString","properties":{"bus_network":null,"network":null,"sort_rank":380,"kind_detail":"primary","kind":"major_road","source":"openstreetmap.org","min_zoom":8.0,"bus_shield_text":"X3","shield_text":"35","ref":"A35"},"arcs":[[339],[340],[341],[342]]},{"type":"LineString","properties":{"sort_rank":355,"source":"openstreetmap.org","min_zoom":8.0,"name":"Poole - St Hellier","kind":"ferry"},"arcs":[343]},{"type":"MultiLineString","properties":{"bus_network":"local","sort_rank":381,"landuse_kind":"urban_area","kind":"major_road","source":"openstreetmap.org","min_zoom":8.0,"bus_shield_text":"X8","kind_detail":"trunk","ref":"A350"},"arcs":[[344],[345],[346],[347],[348],[349],[350],[351],[352],[353],[354],[355],[356],[357],[358],[359],[360]]},{"type":"LineString","properties":{"kind":"major_road","sort_rank":379,"kind_detail":"secondary","is_bicycle_related":true,"bicycle_shield_text":null,"cycleway":"lane","source":"openstreetmap.org","min_zoom":8.0,"bicycle_network":"icn","ref":"B3369","id":4633581},"arcs":[361]},{"type":"MultiLineString","properties":{"kind":"path","sort_rank":354,"kind_detail":"cycleway","is_bicycle_related":true,"bicycle_shield_text":null,"bicycle_network":"icn","source":"openstreetmap.org","min_zoom":8.0},"arcs":[[362],[363],[364]]},{"type":"LineString","properties":{"kind":"major_road","network":null,"sort_rank":381,"kind_detail":"trunk","is_bicycle_related":true,"source":"openstreetmap.org","min_zoom":8.0,"shield_text":"35","id":147603545},"arcs":[365]},{"type":"MultiLineString","properties":{"bus_network":null,"sort_rank":380,"kind_detail":"primary","kind":"major_road","source":"openstreetmap.org","min_zoom":8.0,"bus_shield_text":"3","landuse_kind":"urban_area","ref":"A349"},"arcs":[[366],[367],[368]]},{"type":"MultiLineString","properties":{"kind":"path","sort_rank":354,"kind_detail":"pedestrian","is_bicycle_related":true,"bicycle_shield_text":"2","bicycle_network":"ncn","source":"openstreetmap.org","min_zoom":8.0},"arcs":[[369],[370]]},{"type":"MultiLineString","properties":{"bus_network":"local","network":null,"sort_rank":380,"kind_detail":"primary","kind":"major_road","source":"openstreetmap.org","min_zoom":8.0,"bus_shield_text":"X1","shield_text":"35","landuse_kind":"urban_area"},"arcs":[[371],[372]]},{"type":"MultiLineString","properties":{"bus_network":null,"network":null,"sort_rank":381,"landuse_kind":"urban_area","kind":"major_road","source":"openstreetmap.org","min_zoom":8.0,"bus_shield_text":"m1","shield_text":"35","kind_detail":"trunk","ref":"A35"},"arcs":[[373],[374],[375],[376]]},{"type":"LineString","properties":{"kind":"major_road","network":null,"sort_rank":381,"kind_detail":"trunk","is_bicycle_related":true,"bicycle_shield_text":"25","cycleway":"track","source":"openstreetmap.org","min_zoom":8.0,"landuse_kind":"urban_area","shield_text":"35","bicycle_network":"ncn","ref":"A338","id":148886963},"arcs":[377]},{"type":"MultiLineString","properties":{"kind":"minor_road","service":"driveway","sort_rank":356,"kind_detail":"service","is_bicycle_related":true,"bicycle_shield_text":"2","bicycle_network":"ncn","source":"openstreetmap.org","min_zoom":8.0},"arcs":[[378],[379],[380]]},{"type":"MultiLineString","properties":{"source":"openstreetmap.org","kind":"major_road","sort_rank":381,"kind_detail":"trunk","ref":"A350","min_zoom":8.0},"arcs":[[381],[382],[383]]},{"type":"MultiLineString","properties":{"kind":"major_road","network":null,"sort_rank":381,"landuse_kind":"urban_area","source":"openstreetmap.org","min_zoom":8.0,"kind_detail":"trunk","shield_text":"35","ref":"A338"},"arcs":[[384],[385],[386]]},{"type":"MultiLineString","properties":{"kind":"major_road","sort_rank":379,"kind_detail":"secondary","is_bicycle_related":true,"bicycle_shield_text":"26","bicycle_network":"ncn","source":"openstreetmap.org","min_zoom":8.0,"ref":"B3147"},"arcs":[[387],[388]]},{"type":"MultiLineString","properties":{"bus_network":null,"sort_rank":380,"kind_detail":"primary","is_bicycle_related":true,"kind":"major_road","cycleway":"lane","source":"openstreetmap.org","min_zoom":8.0,"bus_shield_text":"U6","landuse_kind":"urban_area","ref":"A347","bicycle_network":"lcn"},"arcs":[[389],[390]]},{"type":"MultiLineString","properties":{"kind":"path","sort_rank":354,"kind_detail":"track","is_bicycle_related":true,"bicycle_shield_text":"TDM","bicycle_network":"icn","source":"openstreetmap.org","min_zoom":8.0},"arcs":[[391],[392]]},{"type":"LineString","properties":{"kind":"path","sort_rank":354,"kind_detail":"track","is_bicycle_related":true,"bicycle_shield_text":"231","cycleway":"shared","source":"openstreetmap.org","min_zoom":8.0,"old_name":"Freshwater, Yarmouth & Newport Railway","bicycle_network":"ncn"},"arcs":[393]},{"type":"LineString","properties":{"kind":"ferry","name":"Portsmouth - Bilbao","sort_rank":355,"is_bicycle_related":true,"source":"openstreetmap.org","min_zoom":8.0,"ref":"Portsmouth - Bilbao","osm_relation":true},"arcs":[394]},{"type":"LineString","properties":{"kind":"major_road","sort_rank":380,"kind_detail":"primary","is_bicycle_related":true,"bicycle_shield_text":"1","bicycle_network":"lcn","source":"openstreetmap.org","min_zoom":8.0,"ref":"A3055"},"arcs":[395]},{"type":"LineString","properties":{"kind":"major_road","network":null,"sort_rank":380,"kind_detail":"primary","bus_network":null,"source":"openstreetmap.org","min_zoom":8.0,"bus_shield_text":"111","shield_text":"35","landuse_kind":"urban_area","ref":"A35","id":125925638},"arcs":[396]},{"type":"MultiLineString","properties":{"kind":"minor_road","sort_rank":358,"kind_detail":"service","is_bicycle_related":true,"bicycle_shield_text":null,"bicycle_network":"icn","source":"openstreetmap.org","min_zoom":8.0},"arcs":[[397],[398],[399],[400]]},{"type":"MultiLineString","properties":{"bus_network":"circular - clockwise","sort_rank":381,"kind_detail":"trunk","is_bicycle_related":true,"kind":"major_road","bicycle_shield_text":null,"bicycle_network":"icn","source":"openstreetmap.org","min_zoom":8.0,"bus_shield_text":"8","ref":"A350"},"arcs":[[401],[402]]},{"type":"MultiLineString","properties":{"bus_network":null,"sort_rank":380,"kind_detail":"primary","kind":"major_road","source":"openstreetmap.org","min_zoom":8.0,"bus_shield_text":"7 via Wellow","ref":"A3054"},"arcs":[[403],[404]]},{"type":"LineString","properties":{"kind":"major_road","network":null,"sort_rank":380,"kind_detail":"primary","is_bicycle_related":true,"bus_network":null,"bicycle_network":"lcn","source":"openstreetmap.org","min_zoom":8.0,"bus_shield_text":"U10","shield_text":"35","landuse_kind":"urban_area","ref":"A35","id":206915638},"arcs":[405]},{"type":"LineString","properties":{"kind":"major_road","network":null,"sort_rank":380,"kind_detail":"primary","bus_network":null,"source":"openstreetmap.org","min_zoom":8.0,"bus_shield_text":"U6","shield_text":"35","id":4083434},"arcs":[406]},{"type":"LineString","properties":{"kind":"path","sort_rank":354,"kind_detail":"footway","is_bicycle_related":true,"bicycle_shield_text":"25","bicycle_network":"ncn","source":"openstreetmap.org","min_zoom":8.0,"id":64940638},"arcs":[407]},{"type":"LineString","properties":{"kind":"major_road","sort_rank":381,"landuse_kind":"urban_area","is_bicycle_related":true,"bicycle_shield_text":"25","bicycle_network":"ncn","source":"openstreetmap.org","min_zoom":8.0,"kind_detail":"trunk","cycleway":"track","ref":"A338"},"arcs":[408]},{"type":"MultiLineString","properties":{"kind":"path","sort_rank":354,"kind_detail":"cycleway","is_bicycle_related":true,"bicycle_shield_text":"2","cycleway":"shared","source":"openstreetmap.org","min_zoom":8.0,"landuse_kind":"urban_area","bicycle_network":"ncn"},"arcs":[[409],[410]]},{"type":"MultiLineString","properties":{"kind":"path","sort_rank":354,"kind_detail":"cycleway","is_bicycle_related":true,"bicycle_shield_text":null,"cycleway":"track","source":"openstreetmap.org","min_zoom":8.0,"bicycle_network":"icn"},"arcs":[[411],[412]]},{"type":"MultiLineString","properties":{"bus_network":null,"sort_rank":380,"kind_detail":"primary","is_bicycle_related":true,"kind":"major_road","bicycle_shield_text":"1","bicycle_network":"lcn","source":"openstreetmap.org","min_zoom":8.0,"bus_shield_text":"Needles Breezer","ref":"A3054"},"arcs":[[413],[414],[415],[416],[417]]},{"type":"LineString","properties":{"kind":"minor_road","sort_rank":358,"kind_detail":"service","is_bicycle_related":true,"bicycle_shield_text":"26","bicycle_network":"ncn","source":"openstreetmap.org","min_zoom":8.0,"landuse_kind":"urban_area","id":360568551},"arcs":[418]},{"type":"LineString","properties":{"kind":"major_road","sort_rank":377,"kind_detail":"tertiary","is_bicycle_related":true,"bus_network":null,"bicycle_shield_text":"2","bicycle_network":"ncn","source":"openstreetmap.org","min_zoom":8.0,"bus_shield_text":"111","landuse_kind":"urban_area","id":206717528},"arcs":[419]},{"type":"MultiLineString","properties":{"bus_network":null,"network":null,"sort_rank":380,"kind_detail":"primary","kind":"major_road","source":"openstreetmap.org","min_zoom":8.0,"bus_shield_text":"A1","shield_text":"35"},"arcs":[[420],[421]]},{"type":"LineString","properties":{"bus_network":null,"network":null,"sort_rank":380,"kind_detail":"primary","is_bicycle_related":true,"kind":"major_road","cycleway":"lane","source":"openstreetmap.org","min_zoom":8.0,"bus_shield_text":"X3","shield_text":"35","bicycle_network":"lcn","ref":"A35"},"arcs":[422]},{"type":"MultiLineString","properties":{"kind":"major_road","network":null,"sort_rank":381,"kind_detail":"trunk","source":"openstreetmap.org","min_zoom":8.0,"landuse_kind":"residential","shield_text":"35"},"arcs":[[423],[424]]},{"type":"MultiLineString","properties":{"kind":"major_road","sort_rank":381,"kind_detail":"trunk","is_bicycle_related":true,"cycleway":"lane","source":"openstreetmap.org","min_zoom":8.0,"ref":"A350"},"arcs":[[425],[426]]},{"type":"MultiLineString","properties":{"sort_rank":381,"source":"openstreetmap.org","min_zoom":8.0,"kind":"major_road","kind_detail":"trunk"},"arcs":[[427],[428],[429],[430],[431]]},{"type":"LineString","properties":{"kind":"minor_road","service":"parking_aisle","sort_rank":356,"kind_detail":"service","is_bicycle_related":true,"bicycle_shield_text":"2","bicycle_network":"ncn","source":"openstreetmap.org","min_zoom":8.0,"landuse_kind":"urban_area","id":206717532},"arcs":[432]},{"type":"LineString","properties":{"bus_network":"IOW","sort_rank":380,"kind_detail":"primary","is_bicycle_related":true,"kind":"major_road","bicycle_shield_text":"231","bicycle_network":"ncn","source":"openstreetmap.org","min_zoom":8.0,"bus_shield_text":"12","ref":"A3055"},"arcs":[433]},{"type":"MultiLineString","properties":{"kind":"major_road","network":null,"sort_rank":381,"landuse_kind":"urban_area","source":"openstreetmap.org","min_zoom":8.0,"kind_detail":"trunk","shield_text":"35","ref":"A35"},"arcs":[[434],[435]]},{"type":"MultiLineString","properties":{"source":"openstreetmap.org","kind":"major_road","landuse_kind":"residential","sort_rank":380,"kind_detail":"primary","ref":"A3066","min_zoom":8.0},"arcs":[[436],[437],[438]]},{"type":"LineString","properties":{"bus_network":"local","sort_rank":377,"landuse_kind":"urban_area","is_bicycle_related":true,"kind":"major_road","bicycle_shield_text":"25","bicycle_network":"ncn","source":"openstreetmap.org","min_zoom":8.0,"bus_shield_text":"20","kind_detail":"tertiary"},"arcs":[439]},{"type":"LineString","properties":{"sort_rank":355,"source":"openstreetmap.org","min_zoom":8.0,"kind":"ferry"},"arcs":[440]},{"type":"LineString","properties":{"bus_network":"IOW","sort_rank":379,"kind_detail":"secondary","is_bicycle_related":true,"kind":"major_road","bicycle_shield_text":"22","bicycle_network":"ncn","source":"openstreetmap.org","min_zoom":8.0,"bus_shield_text":"35","ref":"B3401"},"arcs":[441]},{"type":"LineString","properties":{"kind":"major_road","sort_rank":381,"kind_detail":"trunk","bus_network":null,"source":"openstreetmap.org","min_zoom":8.0,"bus_shield_text":"m1","landuse_kind":"urban_area","ref":"A35","id":69029451},"arcs":[442]},{"type":"LineString","properties":{"kind":"major_road","sort_rank":380,"kind_detail":"primary","bus_network":null,"source":"openstreetmap.org","min_zoom":8.0,"bus_shield_text":"Route One","landuse_kind":"urban_area","id":148756815},"arcs":[443]},{"type":"LineString","properties":{"kind":"path","sort_rank":354,"kind_detail":"cycleway","is_bicycle_related":true,"bicycle_shield_text":"TDM","bicycle_network":"icn","source":"openstreetmap.org","min_zoom":8.0,"id":329955859},"arcs":[444]},{"type":"MultiLineString","properties":{"source":"openstreetmap.org","kind":"major_road","sort_rank":381,"kind_detail":"trunk","ref":"A35","min_zoom":8.0},"arcs":[[445],[446],[447]]},{"type":"LineString","properties":{"kind":"ferry","name":"Portsmouth - Santander","sort_rank":355,"source":"openstreetmap.org","min_zoom":8.0,"ref":"Portsmouth - Santander","id":-2705260,"osm_relation":true},"arcs":[448]},{"type":"MultiLineString","properties":{"bus_network":null,"network":null,"sort_rank":380,"kind_detail":"primary","kind":"major_road","source":"openstreetmap.org","min_zoom":8.0,"bus_shield_text":"X3","shield_text":"35","landuse_kind":"urban_area","ref":"A35"},"arcs":[[449],[450],[451]]},{"type":"LineString","properties":{"kind":"path","sort_rank":354,"kind_detail":"cycleway","is_bicycle_related":true,"bicycle_shield_text":"TDM","cycleway":"shared","source":"openstreetmap.org","min_zoom":8.0,"bicycle_network":"icn"},"arcs":[452]},{"type":"LineString","properties":{"bus_network":null,"network":null,"sort_rank":381,"kind_detail":"trunk","is_bicycle_related":true,"kind":"major_road","cycleway":"lane","source":"openstreetmap.org","min_zoom":8.0,"bus_shield_text":"U2","shield_text":"35","landuse_kind":"urban_area","ref":"A35"},"arcs":[453]},{"type":"LineString","properties":{"kind":"major_road","sort_rank":380,"kind_detail":"primary","is_bicycle_related":true,"bicycle_shield_text":"1","bicycle_network":"lcn","source":"openstreetmap.org","min_zoom":8.0,"ref":"A3054","id":4565704},"arcs":[454]},{"type":"MultiLineString","properties":{"source":"openstreetmap.org","kind":"major_road","sort_rank":380,"kind_detail":"primary","ref":"A353","min_zoom":8.0},"arcs":[[455],[456],[457],[458],[459],[460],[461],[462],[463],[464],[465],[466]]},{"type":"MultiLineString","properties":{"kind":"major_road","sort_rank":377,"kind_detail":"tertiary","is_bicycle_related":true,"bicycle_shield_text":"TDM","bicycle_network":"icn","source":"openstreetmap.org","min_zoom":8.0},"arcs":[[467],[468],[469],[470]]},{"type":"LineString","properties":{"kind":"major_road","sort_rank":377,"kind_detail":"tertiary","is_bicycle_related":true,"bus_network":"local","bicycle_shield_text":"25","cycleway":"lane","source":"openstreetmap.org","min_zoom":8.0,"bus_shield_text":"20","landuse_kind":"urban_area","id":37141759,"bicycle_network":"ncn"},"arcs":[471]},{"type":"LineString","properties":{"kind":"major_road","network":null,"sort_rank":380,"kind_detail":"primary","bus_network":null,"source":"openstreetmap.org","min_zoom":8.0,"bus_shield_text":"U10","shield_text":"35","landuse_kind":"urban_area","id":19801482},"arcs":[472]},{"type":"LineString","properties":{"bus_network":null,"sort_rank":379,"kind_detail":"secondary","is_bicycle_related":true,"kind":"major_road","bicycle_shield_text":"231","bicycle_network":"ncn","source":"openstreetmap.org","min_zoom":8.0,"bus_shield_text":"Needles Breezer"},"arcs":[473]},{"type":"LineString","properties":{"kind":"major_road","sort_rank":380,"kind_detail":"primary","is_bicycle_related":true,"bus_network":null,"bicycle_network":"lcn","source":"openstreetmap.org","min_zoom":8.0,"bus_shield_text":"U10","landuse_kind":"urban_area","ref":"A3049","id":210856025},"arcs":[474]},{"type":"MultiLineString","properties":{"kind":"minor_road","sort_rank":358,"kind_detail":"service","is_bicycle_related":true,"bicycle_shield_text":"2","bicycle_network":"ncn","source":"openstreetmap.org","min_zoom":8.0},"arcs":[[475],[476],[477],[478]]},{"type":"MultiLineString","properties":{"bus_network":null,"sort_rank":379,"kind_detail":"secondary","is_bicycle_related":true,"kind":"major_road","bicycle_shield_text":"2","bicycle_network":"ncn","source":"openstreetmap.org","min_zoom":8.0,"bus_shield_text":"50","ref":"B3369"},"arcs":[[479],[480]]},{"type":"MultiLineString","properties":{"kind":"path","sort_rank":354,"landuse_kind":"urban_area","is_bicycle_related":true,"bicycle_shield_text":"25","bicycle_network":"ncn","source":"openstreetmap.org","min_zoom":8.0,"kind_detail":"cycleway"},"arcs":[[481],[482],[483],[484],[485]]},{"type":"LineString","properties":{"kind":"major_road","sort_rank":380,"kind_detail":"primary","is_bicycle_related":true,"bicycle_shield_text":null,"bicycle_network":"lcn","source":"openstreetmap.org","min_zoom":8.0,"ref":"A351"},"arcs":[486]},{"type":"MultiLineString","properties":{"bus_network":"local","sort_rank":380,"kind_detail":"primary","kind":"major_road","source":"openstreetmap.org","min_zoom":8.0,"bus_shield_text":"X8","landuse_kind":"urban_area","ref":"A350"},"arcs":[[487],[488],[489]]},{"type":"MultiLineString","properties":{"bus_network":"IOW","sort_rank":377,"kind_detail":"tertiary","is_bicycle_related":true,"kind":"major_road","bicycle_shield_text":"235","bicycle_network":"ncn","source":"openstreetmap.org","min_zoom":8.0,"bus_shield_text":"35"},"arcs":[[490],[491]]},{"type":"LineString","properties":{"kind":"major_road","sort_rank":380,"kind_detail":"primary","is_bicycle_related":true,"bicycle_shield_text":"6","bicycle_network":"rcn","source":"openstreetmap.org","min_zoom":8.0,"ref":"A351","id":522575460},"arcs":[492]},{"type":"MultiLineString","properties":{"kind":"path","sort_rank":354,"kind_detail":"cycleway","is_bicycle_related":true,"bicycle_shield_text":"25","bicycle_network":"ncn","source":"openstreetmap.org","min_zoom":8.0},"arcs":[[493],[494]]},{"type":"LineString","properties":{"source":"openstreetmap.org","kind":"ferry","name":"Hurst Castle Ferry","sort_rank":355,"min_zoom":8.0,"id":23385631},"arcs":[495]},{"type":"MultiLineString","properties":{"bus_network":null,"sort_rank":377,"kind_detail":"tertiary","is_bicycle_related":true,"kind":"major_road","bicycle_shield_text":null,"bicycle_network":"icn","source":"openstreetmap.org","min_zoom":8.0,"bus_shield_text":"50"},"arcs":[[496],[497],[498],[499]]},{"type":"MultiLineString","properties":{"source":"openstreetmap.org","kind":"major_road","sort_rank":380,"kind_detail":"primary","ref":"A352","min_zoom":8.0},"arcs":[[500],[501],[502],[503],[504],[505],[506],[507],[508],[509],[510],[511],[512],[513],[514],[515],[516],[517],[518],[519],[520],[521],[522],[523],[524]]},{"type":"LineString","properties":{"kind":"path","sort_rank":354,"kind_detail":"track","is_bicycle_related":true,"bicycle_shield_text":"231","cycleway":"shared","source":"openstreetmap.org","min_zoom":8.0,"bicycle_network":"ncn","id":61240667},"arcs":[525]},{"type":"LineString","properties":{"kind":"major_road","sort_rank":379,"kind_detail":"secondary","is_bicycle_related":true,"bicycle_shield_text":null,"bicycle_network":"icn","source":"openstreetmap.org","min_zoom":8.0,"ref":"B3147","id":204973426},"arcs":[526]},{"type":"LineString","properties":{"bus_network":null,"sort_rank":380,"kind_detail":"primary","is_bicycle_related":true,"kind":"major_road","bicycle_shield_text":"1","bicycle_network":"lcn","source":"openstreetmap.org","min_zoom":8.0,"bus_shield_text":"7 via Wellow","ref":"A3054"},"arcs":[527]},{"type":"LineString","properties":{"bus_network":"IOW","sort_rank":379,"kind_detail":"secondary","is_bicycle_related":true,"kind":"major_road","bicycle_shield_text":"231","bicycle_network":"ncn","source":"openstreetmap.org","min_zoom":8.0,"bus_shield_text":"12","ref":"B3399"},"arcs":[528]},{"type":"MultiLineString","properties":{"kind":"ferry","name":"Poole-Cherbourg","sort_rank":355,"is_bicycle_related":true,"bicycle_shield_text":null,"bicycle_network":"icn","source":"openstreetmap.org","min_zoom":8.0},"arcs":[[529],[530]]},{"type":"LineString","properties":{"kind":"major_road","sort_rank":379,"kind_detail":"secondary","is_bicycle_related":true,"bicycle_shield_text":"26","bicycle_network":"ncn","source":"openstreetmap.org","min_zoom":8.0,"ref":"B3144"},"arcs":[531]},{"type":"MultiLineString","properties":{"bus_network":"local","sort_rank":381,"landuse_kind":"urban_area","kind":"major_road","source":"openstreetmap.org","min_zoom":8.0,"bus_shield_text":"X1","kind_detail":"trunk","ref":"A338"},"arcs":[[532],[533]]},{"type":"MultiLineString","properties":{"bus_network":null,"sort_rank":380,"kind_detail":"primary","kind":"major_road","source":"openstreetmap.org","min_zoom":8.0,"bus_shield_text":"U10","landuse_kind":"urban_area","ref":"A3049"},"arcs":[[534],[535],[536],[537],[538],[539],[540]]},{"type":"MultiLineString","properties":{"kind":"path","sort_rank":354,"landuse_kind":"urban_area","is_bicycle_related":true,"bicycle_shield_text":"25","bicycle_network":"ncn","source":"openstreetmap.org","min_zoom":8.0,"kind_detail":"cycleway","cycleway":"track"},"arcs":[[541],[542]]},{"type":"LineString","properties":{"kind":"path","sort_rank":354,"kind_detail":"bridleway","is_bicycle_related":true,"bicycle_shield_text":"22","cycleway":"shared","source":"openstreetmap.org","min_zoom":8.0,"bicycle_network":"ncn","id":61240662},"arcs":[543]},{"type":"LineString","properties":{"source":"openstreetmap.org","kind":"ferry","name":"Poole Quay - Brownsea Island","sort_rank":355,"min_zoom":8.0,"id":4757919},"arcs":[544]},{"type":"LineString","properties":{"kind":"path","sort_rank":354,"kind_detail":"bridleway","is_bicycle_related":true,"bicycle_shield_text":"231","cycleway":"shared","source":"openstreetmap.org","min_zoom":8.0,"bicycle_network":"ncn"},"arcs":[545]},{"type":"MultiLineString","properties":{"sort_rank":355,"source":"openstreetmap.org","min_zoom":8.0,"name":"Poole - Guernsey","kind":"ferry"},"arcs":[[546],[547],[548],[549]]},{"type":"LineString","properties":{"bus_network":null,"network":null,"sort_rank":380,"landuse_kind":"urban_area","is_bicycle_related":true,"kind":"major_road","cycleway":"lane","source":"openstreetmap.org","min_zoom":8.0,"bus_shield_text":"U10","shield_text":"35","kind_detail":"primary","bicycle_network":"lcn","ref":"A35","id":206915627},"arcs":[550]},{"type":"LineString","properties":{"kind":"path","sort_rank":354,"kind_detail":"bridleway","is_bicycle_related":true,"bicycle_shield_text":"2","bicycle_network":"ncn","source":"openstreetmap.org","min_zoom":8.0,"landuse_kind":"urban_area","id":30232837},"arcs":[551]},{"type":"MultiLineString","properties":{"bus_network":"circular - clockwise","sort_rank":381,"kind_detail":"trunk","is_bicycle_related":true,"kind":"major_road","source":"openstreetmap.org","min_zoom":8.0,"bus_shield_text":"8","ref":"A350"},"arcs":[[552],[553]]},{"type":"LineString","properties":{"kind":"major_road","sort_rank":380,"kind_detail":"primary","is_bicycle_related":true,"bicycle_shield_text":"231","bicycle_network":"ncn","source":"openstreetmap.org","min_zoom":8.0,"ref":"A3055"},"arcs":[554]},{"type":"LineString","properties":{"source":"openstreetmap.org","kind":"ferry","name":"Wightlink Yarmouth - Lymington","sort_rank":355,"is_bicycle_related":true,"min_zoom":8.0,"id":368066},"arcs":[555]},{"type":"LineString","properties":{"bus_network":null,"sort_rank":380,"kind_detail":"primary","kind":"major_road","source":"openstreetmap.org","min_zoom":8.0,"bus_shield_text":"7 via Shalfleet","ref":"A3054"},"arcs":[556]},{"type":"LineString","properties":{"kind":"path","sort_rank":354,"kind_detail":"track","is_bicycle_related":true,"bicycle_shield_text":"231","bicycle_network":"ncn","source":"openstreetmap.org","min_zoom":8.0,"old_name":"Freshwater, Yarmouth & Newport Railway"},"arcs":[557]},{"type":"LineString","properties":{"sort_rank":355,"source":"openstreetmap.org","min_zoom":8.0,"name":"Portsmouth - Saint-Malo","kind":"ferry"},"arcs":[558]},{"type":"MultiLineString","properties":{"kind":"major_road","sort_rank":380,"kind_detail":"primary","is_bicycle_related":true,"bicycle_network":"lcn","source":"openstreetmap.org","min_zoom":8.0,"landuse_kind":"urban_area","ref":"A347"},"arcs":[[559],[560]]},{"type":"LineString","properties":{"bus_network":null,"sort_rank":380,"kind_detail":"primary","kind":"major_road","source":"openstreetmap.org","min_zoom":8.0,"bus_shield_text":"U10","landuse_kind":"urban_area"},"arcs":[561]},{"type":"LineString","properties":{"bus_network":null,"network":null,"sort_rank":381,"landuse_kind":"urban_area","is_bicycle_related":true,"kind":"major_road","bicycle_shield_text":"25","bicycle_network":"ncn","source":"openstreetmap.org","min_zoom":8.0,"bus_shield_text":"m1","shield_text":"35","kind_detail":"trunk","ref":"A35"},"arcs":[562]},{"type":"MultiLineString","properties":{"bus_network":null,"network":null,"sort_rank":380,"kind_detail":"primary","kind":"major_road","source":"openstreetmap.org","min_zoom":8.0,"bus_shield_text":"U10","shield_text":"35","landuse_kind":"urban_area","ref":"A35"},"arcs":[[563],[564]]},{"type":"MultiLineString","properties":{"kind":"major_road","network":null,"sort_rank":381,"kind_detail":"trunk","source":"openstreetmap.org","min_zoom":8.0,"landuse_kind":"residential","shield_text":"35","ref":"A35"},"arcs":[[565],[566],[567],[568],[569],[570],[571],[572],[573]]},{"type":"LineString","properties":{"source":"openstreetmap.org","kind":"major_road","landuse_kind":"urban_area","sort_rank":380,"kind_detail":"primary","min_zoom":8.0},"arcs":[574]},{"type":"MultiLineString","properties":{"kind":"minor_road","sort_rank":360,"kind_detail":"unclassified","is_bicycle_related":true,"bicycle_shield_text":"TDM","bicycle_network":"icn","source":"openstreetmap.org","min_zoom":8.0},"arcs":[[575],[576],[577]]},{"type":"LineString","properties":{"kind":"path","sort_rank":354,"landuse_kind":"urban_area","is_bicycle_related":true,"bicycle_shield_text":null,"cycleway":"track","source":"openstreetmap.org","min_zoom":8.0,"kind_detail":"cycleway","bicycle_network":"icn"},"arcs":[578]},{"type":"LineString","properties":{"kind":"path","sort_rank":354,"kind_detail":"cycleway","is_bicycle_related":true,"bicycle_shield_text":"22","cycleway":"shared","source":"openstreetmap.org","min_zoom":8.0,"bicycle_network":"ncn"},"arcs":[579]},{"type":"LineString","properties":{"kind":"major_road","sort_rank":379,"kind_detail":"secondary","is_bicycle_related":true,"bus_network":"local","bicycle_shield_text":null,"bicycle_network":"icn","source":"openstreetmap.org","min_zoom":8.0,"bus_shield_text":"20","ref":"B3369","id":219037380},"arcs":[580]},{"type":"MultiLineString","properties":{"kind":"major_road","network":null,"sort_rank":381,"landuse_kind":"urban_area","is_bicycle_related":true,"cycleway":"lane","source":"openstreetmap.org","min_zoom":8.0,"kind_detail":"trunk","shield_text":"35","ref":"A35"},"arcs":[[581],[582],[583]]},{"type":"LineString","properties":{"kind":"major_road","sort_rank":380,"landuse_kind":"urban_area","source":"openstreetmap.org","min_zoom":8.0,"kind_detail":"primary","ref":"A350","id":148938735},"arcs":[584]},{"type":"LineString","properties":{"kind":"major_road","sort_rank":379,"kind_detail":"secondary","is_bicycle_related":true,"bicycle_shield_text":null,"bicycle_network":"icn","source":"openstreetmap.org","min_zoom":8.0,"ref":"B3159"},"arcs":[585]},{"type":"MultiLineString","properties":{"bus_network":null,"sort_rank":379,"kind_detail":"secondary","is_bicycle_related":true,"kind":"major_road","bicycle_shield_text":null,"cycleway":"lane","source":"openstreetmap.org","min_zoom":8.0,"bus_shield_text":"50","bicycle_network":"icn","ref":"B3369"},"arcs":[[586],[587],[588],[589],[590],[591],[592]]},{"type":"LineString","properties":{"kind":"major_road","sort_rank":380,"kind_detail":"primary","is_bicycle_related":true,"cycleway":"track","source":"openstreetmap.org","min_zoom":8.0,"ref":"A351","id":4578722},"arcs":[593]},{"type":"MultiLineString","properties":{"kind":"minor_road","sort_rank":360,"kind_detail":"residential","is_bicycle_related":true,"bicycle_shield_text":"26","bicycle_network":"ncn","source":"openstreetmap.org","min_zoom":8.0},"arcs":[[594],[595],[596],[597]]},{"type":"LineString","properties":{"source":"openstreetmap.org","kind":"ferry","name":"Christchurch & Tuckton Ferry","sort_rank":355,"min_zoom":8.0,"id":205882478},"arcs":[598]},{"type":"MultiLineString","properties":{"kind":"path","sort_rank":354,"landuse_kind":"urban_area","is_bicycle_related":true,"bicycle_shield_text":"26","bicycle_network":"ncn","source":"openstreetmap.org","min_zoom":8.0,"kind_detail":"cycleway"},"arcs":[[599],[600],[601],[602],[603],[604]]},{"type":"MultiLineString","properties":{"kind":"path","sort_rank":354,"kind_detail":"path","is_bicycle_related":true,"bicycle_shield_text":"26","bicycle_network":"ncn","source":"openstreetmap.org","min_zoom":8.0},"arcs":[[605],[606],[607],[608],[609],[610]]},{"type":"LineString","properties":{"bus_network":"circular - clockwise","sort_rank":355,"kind_detail":"trunk_link","is_bicycle_related":true,"kind":"major_road","bicycle_shield_text":null,"bicycle_network":"icn","source":"openstreetmap.org","min_zoom":8.0,"is_link":true,"bus_shield_text":"8","ref":"A350"},"arcs":[611]},{"type":"LineString","properties":{"bus_network":null,"sort_rank":379,"kind_detail":"secondary","is_bicycle_related":true,"kind":"major_road","bicycle_shield_text":"22","bicycle_network":"ncn","source":"openstreetmap.org","min_zoom":8.0,"bus_shield_text":"7 via Wellow","ref":"B3401"},"arcs":[612]},{"type":"MultiLineString","properties":{"kind":"path","sort_rank":354,"kind_detail":"bridleway","is_bicycle_related":true,"bicycle_shield_text":null,"bicycle_network":"icn","source":"openstreetmap.org","min_zoom":8.0},"arcs":[[613],[614]]},{"type":"LineString","properties":{"kind":"path","sort_rank":354,"kind_detail":"cycleway","is_bicycle_related":true,"bicycle_shield_text":"26","bicycle_network":"ncn","source":"openstreetmap.org","min_zoom":8.0,"old_name":"Portland Branch Railway","landuse_kind":"urban_area"},"arcs":[615]},{"type":"MultiLineString","properties":{"kind":"minor_road","sort_rank":360,"kind_detail":"unclassified","is_bicycle_related":true,"bicycle_shield_text":"26","bicycle_network":"ncn","source":"openstreetmap.org","min_zoom":8.0},"arcs":[[616],[617],[618],[619],[620]]},{"type":"LineString","properties":{"sort_rank":355,"source":"openstreetmap.org","min_zoom":8.0,"name":"Portsmouth - Santander","kind":"ferry"},"arcs":[621]},{"type":"MultiLineString","properties":{"bus_network":null,"sort_rank":380,"kind_detail":"primary","kind":"major_road","source":"openstreetmap.org","min_zoom":8.0,"bus_shield_text":"40","ref":"A351"},"arcs":[[622],[623],[624],[625],[626],[627],[628],[629],[630],[631],[632],[633],[634],[635],[636],[637],[638],[639],[640],[641],[642],[643],[644],[645],[646],[647],[648],[649],[650],[651],[652],[653]]},{"type":"MultiLineString","properties":{"source":"openstreetmap.org","kind":"major_road","kind_detail":"trunk","sort_rank":381,"landuse_kind":"urban_area","ref":"A350","min_zoom":8.0},"arcs":[[654],[655],[656],[657],[658]]},{"type":"LineString","properties":{"kind":"major_road","sort_rank":379,"kind_detail":"secondary","is_bicycle_related":true,"bicycle_shield_text":"26","bicycle_network":"ncn","source":"openstreetmap.org","min_zoom":8.0,"landuse_kind":"urban_area","ref":"B3159","id":462507127},"arcs":[659]},{"type":"LineString","properties":{"kind":"ferry","name":"Poole-Cherbourg","sort_rank":355,"landuse_kind":"nature_reserve","is_bicycle_related":true,"bicycle_shield_text":null,"bicycle_network":"icn","source":"openstreetmap.org","min_zoom":8.0,"id":4400176},"arcs":[660]},{"type":"MultiLineString","properties":{"kind":"major_road","network":null,"sort_rank":381,"kind_detail":"trunk","source":"openstreetmap.org","min_zoom":8.0,"shield_text":"35","ref":"A35"},"arcs":[[661],[662],[663],[664],[665],[666],[667],[668],[669],[670],[671],[672],[673],[674],[675],[676],[677],[678],[679],[680],[681],[682],[683],[684],[685]]},{"type":"LineString","properties":{"bus_network":null,"sort_rank":380,"kind_detail":"primary","is_bicycle_related":true,"kind":"major_road","bicycle_shield_text":"67","bicycle_network":"rcn","source":"openstreetmap.org","min_zoom":8.0,"bus_shield_text":"Needles Breezer","ref":"A3055"},"arcs":[686]},{"type":"MultiLineString","properties":{"kind":"minor_road","sort_rank":360,"kind_detail":"unclassified","is_bicycle_related":true,"bicycle_shield_text":"2","bicycle_network":"ncn","source":"openstreetmap.org","min_zoom":8.0},"arcs":[[687],[688],[689],[690]]},{"type":"MultiLineString","properties":{"kind":"path","sort_rank":354,"kind_detail":"footway","is_bicycle_related":true,"bicycle_shield_text":"26","bicycle_network":"ncn","source":"openstreetmap.org","min_zoom":8.0},"arcs":[[691],[692],[693],[694],[695],[696]]},{"type":"MultiLineString","properties":{"bus_network":"IOW","sort_rank":380,"kind_detail":"primary","kind":"major_road","source":"openstreetmap.org","min_zoom":8.0,"bus_shield_text":"12","ref":"A3055"},"arcs":[[697],[698],[699]]},{"type":"LineString","properties":{"kind":"minor_road","sort_rank":360,"kind_detail":"residential","is_bicycle_related":true,"bicycle_shield_text":"231","bicycle_network":"ncn","source":"openstreetmap.org","min_zoom":8.0},"arcs":[700]},{"type":"MultiLineString","properties":{"bus_network":null,"network":null,"sort_rank":381,"landuse_kind":"urban_area","kind":"major_road","source":"openstreetmap.org","min_zoom":8.0,"bus_shield_text":"U2","shield_text":"35","kind_detail":"trunk","ref":"A35"},"arcs":[[701],[702],[703]]},{"type":"LineString","properties":{"kind":"major_road","sort_rank":380,"kind_detail":"primary","is_bicycle_related":true,"bicycle_shield_text":"TDM","bicycle_network":"icn","source":"openstreetmap.org","min_zoom":8.0,"ref":"A352","id":169755898},"arcs":[704]},{"type":"LineString","properties":{"kind":"minor_road","sort_rank":358,"kind_detail":"service","is_bicycle_related":true,"bicycle_shield_text":"TDM","bicycle_network":"icn","source":"openstreetmap.org","min_zoom":8.0,"id":51367570},"arcs":[705]},{"type":"MultiLineString","properties":{"bus_network":"local","sort_rank":380,"kind_detail":"primary","kind":"major_road","source":"openstreetmap.org","min_zoom":8.0,"bus_shield_text":"20","landuse_kind":"urban_area","ref":"A350"},"arcs":[[706],[707],[708]]},{"type":"LineString","properties":{"bus_network":null,"network":null,"sort_rank":379,"kind_detail":"secondary","is_bicycle_related":true,"kind":"major_road","bicycle_shield_text":null,"bicycle_network":"icn","source":"openstreetmap.org","min_zoom":8.0,"bus_shield_text":"40","shield_text":"3075","ref":"B3075"},"arcs":[709]},{"type":"MultiLineString","properties":{"source":"openstreetmap.org","kind":"major_road","sort_rank":381,"kind_detail":"trunk","ref":"A37","min_zoom":8.0},"arcs":[[710],[711],[712],[713],[714],[715],[716],[717]]},{"type":"LineString","properties":{"kind":"major_road","sort_rank":381,"landuse_kind":"residential","source":"openstreetmap.org","min_zoom":8.0,"kind_detail":"trunk","ref":"A35","id":8333267},"arcs":[718]},{"type":"MultiLineString","properties":{"bus_network":null,"sort_rank":380,"kind_detail":"primary","kind":"major_road","source":"openstreetmap.org","min_zoom":8.0,"bus_shield_text":"U2","landuse_kind":"urban_area","ref":"A350"},"arcs":[[719],[720],[721],[722]]},{"type":"MultiLineString","properties":{"kind":"minor_road","sort_rank":360,"kind_detail":"residential","is_bicycle_related":true,"bicycle_shield_text":"2","bicycle_network":"ncn","source":"openstreetmap.org","min_zoom":8.0},"arcs":[[723],[724],[725]]},{"type":"MultiLineString","properties":{"kind":"major_road","sort_rank":377,"kind_detail":"tertiary","is_bicycle_related":true,"bicycle_shield_text":"2","bicycle_network":"ncn","source":"openstreetmap.org","min_zoom":8.0},"arcs":[[726],[727],[728],[729],[730],[731],[732],[733]]}]},"earth":{"type":"GeometryCollection","geometries":[{"type":"MultiPolygon","properties":{"sort_rank":10,"source":"naturalearthdata.com","min_zoom":0.0,"kind":"earth","area":19967816291},"arcs":[[[734]],[[735]],[[736]],[[737]]]}]},"landuse":{"type":"GeometryCollection","geometries":[{"type":"Polygon","properties":{"source":"openstreetmap.org","kind":"military","area":76763200,"tier":3,"id":35876652,"min_zoom":8.0,"sort_rank":45},"arcs":[[738]]},{"type":"MultiPolygon","properties":{"source":"naturalearthdata.com","kind":"urban_area","name":"","area":723606910,"sort_rank":11,"min_zoom":4.0},"arcs":[[[739]],[[740]]]},{"type":"Polygon","properties":{"kind":"residential","name":"Bridport","area":10293600,"sort_rank":20,"source":"openstreetmap.org","min_zoom":8.0,"tier":2,"id":-3102333,"osm_relation":true},"arcs":[[741],[742]]},{"type":"Polygon","properties":{"kind":"national_park","area":1420870016,"sort_rank":18,"source":"openstreetmap.org","min_zoom":3.0,"tier":1,"id":-2678988,"osm_relation":true},"arcs":[[743]]},{"type":"MultiPolygon","properties":{"kind":"nature_reserve","protect_class":"4","area":140722207,"sort_rank":23,"source":"openstreetmap.org","min_zoom":8.0,"tier":2,"osm_relation":true},"arcs":[[[744]]]},{"type":"Polygon","properties":{"kind":"nature_reserve","protect_class":"97","area":143610000,"sort_rank":23,"source":"openstreetmap.org","min_zoom":7.0,"tier":2,"id":-7281768,"osm_relation":true},"arcs":[[745]]},{"type":"Polygon","properties":{"kind":"nature_reserve","protect_class":"4","area":473841984,"sort_rank":23,"source":"openstreetmap.org","min_zoom":6.0,"tier":2,"id":486387613},"arcs":[[746]]},{"type":"MultiPolygon","properties":{"kind":"nature_reserve","protect_class":"97","area":871498890,"sort_rank":23,"source":"openstreetmap.org","min_zoom":6.0,"tier":2,"osm_relation":true},"arcs":[[[747]],[[748]]]}]}},"type":"Topology","transform":{"translate":[-2.8125,49.8379824531],"scale":[0.0003433228,0.0002193537]},"arcs":[[[2208,384],[7,-384]],[[4096,320],[-151,-9],[-260,-57],[-370,-38],[-218,111],[-444,114],[-261,-9],[-184,-48]],[[2208,384],[-260,61],[-370,26],[-563,-98],[-220,-93],[-207,-165],[-81,-115]],[[0,3005],[127,-92],[120,-305],[214,-242],[273,-150],[315,-50],[211,27],[195,73],[167,109],[176,173],[218,-72],[207,-19],[548,110],[269,136],[203,198],[377,-70],[242,-210],[234,-119]],[[0,3005],[127,-92],[120,-305],[214,-242],[273,-150],[315,-50],[211,27],[195,73],[167,109],[176,173],[218,-72],[207,-19],[548,110],[269,136],[203,198],[377,-70],[242,-210],[234,-119]],[[1116,3973],[-9,0]],[[1107,3973],[-25,-19]],[[1082,3954],[-26,-50],[-13,-46],[-17,-24],[-6,-11],[-7,-46],[19,-214]],[[1043,3545],[-8,11]],[[1082,3952],[-1,-5],[-1,-3],[-3,-6],[-21,-34],[-8,-35],[-2,-6],[-3,-5],[-2,-4],[-3,-5],[-12,-15],[-5,-11],[-8,-46],[19,-214]],[[1032,3563],[3,-7]],[[1035,3556],[8,-11]],[[1107,3973],[-25,-21]],[[1082,3954],[0,-2]],[[1116,3973],[308,-35]],[[1424,3938],[91,-49],[130,-40]],[[1645,3849],[44,-9],[146,10]],[[1835,3850]],[[1835,3850]],[[1835,3850],[118,-12],[3,0],[3,1],[5,1],[4,2],[4,3],[41,39],[36,26],[115,90],[64,14],[69,22],[5,2],[5,3],[15,15],[20,7],[56,-1],[17,-27],[-1,-18],[1,-3],[2,-3],[1,-1],[1,0],[15,-7],[3,-2],[4,-1],[8,0],[6,0],[6,1],[5,1],[6,3],[7,4],[29,21],[16,6],[6,2],[14,-1],[29,3],[6,1],[3,1],[6,3],[10,7],[9,3],[4,2],[28,18],[88,2],[14,-6],[12,-12],[10,-6],[4,-1],[5,0]],[[2772,4052],[6,1]],[[2778,4053],[8,2],[34,14],[67,4],[81,23]],[[1424,3938],[6,0],[4,0],[4,0],[6,-1],[3,-1],[5,-1],[6,-2],[4,-2],[3,-2],[6,-3],[6,-5],[2,-2],[12,-14],[7,-6],[17,-10],[22,-5],[10,-1],[10,0],[7,0],[6,-1],[6,-2],[9,-3],[60,-28]],[[1645,3849],[44,-9],[11,1],[16,4],[5,1],[4,1],[84,3],[26,0]],[[1835,3850]],[[1835,3850],[129,-10],[8,5],[30,30],[6,5],[9,8],[146,112],[179,63],[56,-1],[17,-27],[2,-24],[32,-11],[23,5],[36,25],[16,6],[7,2],[42,2],[9,2],[16,10],[13,5],[28,19],[60,4],[29,-3],[11,-4],[30,-21]],[[2769,4052],[6,1]],[[2775,4053]],[[2775,4053],[13,3],[10,6],[3,1],[14,5],[5,2],[4,0],[4,1],[59,2],[11,4],[18,10],[5,3],[5,2],[5,1],[5,1],[30,2]],[[2763,4054],[6,-2]],[[2772,4052],[3,1]],[[2778,4053],[-3,0]],[[0,0],[0,4027],[348,-130],[610,-467],[68,-113],[2,-173],[18,0],[41,65],[31,71],[-7,58],[-74,24],[-27,44],[17,98],[36,97],[34,44],[109,37],[62,9],[101,-63],[539,-61],[219,-103],[50,-10],[237,5],[54,25],[-6,68],[101,124],[-16,7],[-43,27],[20,78],[-20,35],[-43,10],[-48,-1],[-54,13],[-34,34],[-62,112],[-32,-28],[-33,-20],[-34,-13],[-38,-5],[101,163],[8,8],[34,0],[21,-52],[2,-5],[11,-17],[23,-6],[76,6],[112,-31],[10,-25],[5,-47],[12,-31],[32,23],[44,53],[50,39],[1,1],[56,30],[58,19],[65,3],[110,-21],[74,-13],[53,12],[112,59],[11,3],[206,0],[112,-21],[63,-42],[57,-17],[5,1],[6,19],[33,60],[407,0],[0,-68],[-56,-6],[6,16],[7,31],[7,15],[-254,-119],[-115,-99],[-70,-128],[52,33],[48,19],[109,14],[34,-14],[96,-69],[20,-28],[116,-81],[0,-3612],[-4096,0]],[[3689,4096],[-33,-60],[-6,-19],[-5,-1],[-57,17],[-63,42],[-112,21]],[[3207,4096],[-11,-3],[-112,-59],[-53,-12],[-74,13],[-110,21],[-65,-3],[-58,-19],[-56,-30],[-1,-1],[-50,-39],[-44,-53],[-32,-23],[-12,31],[-5,47],[-10,25],[-112,31],[-76,-6],[-23,6],[-11,17],[-2,5],[-21,52]],[[2235,4096],[-8,-8],[-101,-163],[38,5],[34,13],[33,20],[32,28],[62,-112],[34,-34],[54,-13],[48,1],[43,-10],[20,-35],[-20,-78],[43,-27],[16,-7],[-101,-124],[6,-68],[-54,-25],[-237,-5],[-50,10],[-219,103],[-539,61],[-101,63],[-62,-9],[-109,-37],[-34,-44],[-36,-97],[-17,-98],[27,-44],[74,-24],[7,-58],[-31,-71],[-41,-65],[-18,0],[-2,173],[-68,113],[-610,467],[-348,130]],[[4096,4028],[-56,-6],[6,16],[7,31],[7,15],[-254,-119],[-115,-99],[-70,-128],[52,33],[48,19],[109,14],[34,-14],[96,-69],[20,-28],[116,-81]],[[2640,3980],[1,-1]],[[3047,4084],[-3,-2]],[[3009,4092],[-17,4]],[[2993,4096],[15,-3]],[[2734,4076],[-7,-26]],[[3821,3959],[-18,137]],[[2662,4044],[-24,-3]],[[1135,3968],[8,-5]],[[3875,3921],[-10,31]],[[2128,4096],[45,-18]],[[2174,4079],[2,0],[0,-2],[-2,0],[0,2]],[[3957,3892],[65,-17]],[[4066,3865],[30,4]],[[2502,3996],[7,-5]],[[2526,3966],[36,-44]],[[1073,4041],[-12,26]],[[1063,3928],[-16,-33]],[[1064,3929],[-1,-1]],[[1063,3928],[0,1]],[[2389,3989],[11,12]],[[2716,4095],[1,-2]],[[2723,4086],[3,-3]],[[2068,3784],[0,1]],[[2068,3785]],[[2069,3784],[-1,0]],[[2484,3528],[5,1]],[[1901,0],[2195,2451]],[[2420,4096],[9,-13],[7,-15]],[[2435,4069],[-4,10]],[[2517,3856],[0,2]],[[3010,4037],[-1,1]],[[3098,4094],[13,-6]],[[3775,3848]],[[2510,3991],[4,-5]],[[2515,3983],[2,-3]],[[2688,4032],[-4,1],[4,1]],[[2688,4032],[0,2],[1,-1],[0,-1],[-1,0]],[[2001,3855],[1,2]],[[2002,3851],[0,2]],[[2002,3857],[33,30]],[[2002,3857],[0,-2]],[[2003,3853],[-1,-2]],[[2002,3851],[64,-67]],[[2036,3887],[-1,0]],[[2035,3887],[1,1]],[[2036,3907],[1,1]],[[2041,3918],[-4,-10]],[[2037,3908],[0,-1]],[[2068,3784],[-2,0]],[[2066,3784],[1,1]],[[2132,4030],[-13,-11]],[[2133,4030],[-1,0]],[[2132,4030],[1,1]],[[2133,4032],[1,-1]],[[2175,4075],[-1,2]],[[2175,4075],[-1,-4]],[[2176,4077],[-1,-2]],[[2216,3609],[132,-46],[46,-46]],[[2434,3524],[-2,-2]],[[2433,3523],[1,1]],[[2434,3524],[37,5]],[[2002,3853],[-1,1],[1,1],[1,-1],[-1,-1]],[[2134,4030],[-1,0],[0,2]],[[2134,4031],[0,-1]],[[2211,3793],[0,-1]],[[2253,3732],[18,-12]],[[2338,3730],[69,33]],[[3016,4096],[-5,-4]],[[3017,4096],[-1,-1]],[[2068,3785],[1,-1]],[[2765,4046],[1,0]],[[2534,4044],[10,-2]],[[3012,4024],[4,0]],[[3080,4086],[-2,1]],[[3829,0],[267,760]],[[1362,3772],[0,1]],[[1383,3766]],[[1144,3962],[1,0],[0,-1],[-1,0],[0,1]],[[1671,3820],[-1,-1],[-1,1],[1,1],[1,-1]],[[1734,3864],[1,0],[-1,-1],[0,1]],[[2400,3985],[9,0]],[[3011,4092],[0,1]],[[2464,4028],[6,4]],[[582,3960],[7,7]],[[1085,3946],[25,19]],[[1110,3965],[1,1]],[[1111,3966],[6,0]],[[1135,3968],[-2,-1]],[[2390,3988],[-1,1]],[[2392,3990],[-2,-2]],[[2390,3988],[10,-3]],[[2497,3993],[-2,-1]],[[989,4096],[88,-78]],[[1056,3307],[-65,99]],[[1011,3437],[-19,-30]],[[1072,3947],[-62,-144]],[[1018,3773],[-6,-95]],[[1013,3676],[3,-23]],[[1023,3485],[-6,-36]],[[2562,3922],[-5,-20]],[[2175,3679]],[[2177,3677],[-2,1]],[[2176,3679],[1,-2]],[[2216,3609],[-39,68]],[[2394,3517],[27,3]],[[2565,3915],[2,-3]],[[2978,4060],[33,-16]],[[3008,4039],[1,-1]],[[3010,4037],[6,-13]],[[3069,4081],[9,6]],[[3093,4096],[-13,-10]],[[3098,4094],[-1,2]],[[2434,4022],[-7,-5]],[[2447,4022],[1,0]],[[2448,4022],[-1,0]],[[2448,4022],[14,5]],[[2517,3980],[9,-14]],[[2724,4039],[0,1]],[[2727,4050],[-3,-10]],[[2724,4040],[1,-1]],[[2722,4037],[1,1],[2,0],[0,-1],[-3,0]],[[334,3954],[167,12]],[[727,3886],[-6,-26]],[[933,3935],[-5,-15]],[[1551,3946],[25,-47]],[[2042,3812],[6,8]],[[2421,3985],[-1,0]],[[2422,3986]],[[2505,3822]],[[3829,0],[267,760]],[[2312,2373],[-6,-16]],[[2656,3379],[-49,-143]],[[2696,3496],[-27,-80]],[[1000,3629],[7,3]],[[1008,3632],[1,0]],[[2041,3812],[1,0]],[[2505,3822],[1,0]],[[2582,3990],[0,1]],[[2877,4071],[32,25]],[[2443,4058],[20,-13]],[[1135,3968],[-1,0],[1,1],[0,-1]],[[2765,4045],[-1,0]],[[2589,4056],[-3,1]],[[2587,4057],[2,-1]],[[2586,4057],[0,1],[1,0],[-1,-1]],[[2586,4057]],[[2494,3879],[21,-25]],[[3671,4008],[-33,11]],[[990,3984],[-1,-1],[-1,2],[1,0],[1,-1]],[[990,3413],[-9,40]],[[991,3411],[-1,2]],[[990,3413],[1,-2]],[[991,3409],[0,1]],[[991,3411],[0,-2]],[[1026,3341],[-35,68]],[[1028,3711],[-11,-58]],[[1022,3475],[4,26]],[[1027,3340],[-1,1]],[[1026,3341],[1,-1]],[[1026,3501]],[[1027,3505],[-1,-4]],[[1047,3895],[-39,-92],[18,-86]],[[1029,3714],[-3,3]],[[1026,3717],[4,-2]],[[1028,3339],[-1,1]],[[1028,3340],[0,-1]],[[1030,3713],[-2,-2]],[[1028,3711],[1,3]],[[1045,3320],[-17,19]],[[1030,3715],[1,-1],[-1,-1]],[[1030,3713],[-1,1]],[[1029,3714],[1,1]],[[1046,3319],[-1,1]],[[1045,3320],[2,0]],[[1046,3319],[1,1]],[[1047,3320],[0,-1],[-1,0]],[[1047,3317],[0,2]],[[1047,3319],[0,-2]],[[1053,3309],[-6,8]],[[1055,3308],[-2,1]],[[1053,3309],[1,0]],[[1058,3304],[-3,3]],[[1056,3308],[2,-4]],[[1058,3303],[0,1]],[[1058,3305],[2,1]],[[1058,3304],[0,-1]],[[1060,3306],[-2,-2]],[[1078,3288],[-13,2],[-7,13]],[[1060,3306],[5,3],[1,-9],[1,-2],[11,-10]],[[1078,3288]],[[1079,3269],[-2,0]],[[1077,3269],[1,0]],[[1077,3269],[1,19]],[[1078,3288]],[[1078,3288]],[[1079,3270],[1,-1]],[[1080,3269],[-1,0]],[[1097,3224],[-17,45]],[[2728,4005],[0,-1]],[[2682,4041],[-15,4]],[[2383,4095],[3,1]],[[2387,4096],[-4,-2]],[[3747,3852],[-7,2],[-4,4],[11,-6]],[[3747,3852],[28,-4]],[[326,0],[3770,2740]],[[2414,4009],[3,-4]],[[2510,3991],[39,16]],[[2550,4007],[32,-16]],[[2585,3989],[45,48]],[[2582,3990],[3,-1]],[[1007,3802],[5,-28]],[[1013,3773],[5,0]],[[3837,3943],[-6,9]],[[2413,4010],[1,-1]],[[3638,4019],[19,-33]],[[3657,3986],[14,-24]],[[3651,3982],[6,4]],[[3657,3986],[5,4]],[[2540,3878],[1,1]],[[2541,3879],[-1,-1]],[[3715,3859],[0,-1],[0,1]],[[2539,3875],[-19,-19]],[[3776,3849],[0,-1],[-1,0],[1,1]],[[3044,4082],[-5,-2]],[[3960,3705],[136,-61]],[[2517,3858],[22,17]],[[2716,4019],[0,1]],[[1718,3845],[10,-2]],[[2426,4018],[8,4]],[[2435,4021],[-1,-1]],[[2753,4051],[0,1],[2,-1],[-1,-1],[-1,1]],[[2715,4094],[0,2]],[[2715,4096],[0,-2]],[[2717,4093],[-2,1]],[[2729,4080],[5,-4]],[[2502,3996],[-5,-3]],[[3960,3705],[28,24]],[[3059,4033],[-32,33],[-43,-2]],[[2409,3985],[21,3],[1,-2]],[[2422,3986],[-1,-1]],[[2409,3985]],[[2409,3985],[0,-1],[0,1]],[[4084,3934],[6,-8]],[[2431,4079],[-2,4]],[[1009,3934],[-76,1]],[[2204,3759],[10,7]],[[2238,3748],[15,-16]],[[2407,3763],[60,-21]],[[2771,4032],[1,0],[0,-1],[-1,1]],[[334,3954],[-39,85],[18,57]],[[582,3960],[-81,6]],[[589,3967],[138,-81]],[[721,3860],[163,69]],[[1009,3934],[67,22]],[[1079,3944],[-7,3]],[[1085,3946],[0,-4]],[[2048,3826],[129,5],[34,-38],[-7,-34]],[[2266,3709],[5,11]],[[2386,3976],[-10,2]],[[2382,3982],[4,-6]],[[2386,3976]],[[3736,3857],[1,1]],[[3747,3852]],[[2417,4005],[2,-3]],[[2430,3988],[-10,13]],[[2510,3991]],[[2662,4044],[5,1]],[[981,3453],[-1,4]],[[980,3458],[42,17]],[[1009,3629],[-8,-57]],[[1001,3569],[0,3]],[[1001,3572],[1,-3]],[[1004,3567],[-2,1]],[[1002,3568],[2,-1]],[[1004,3567],[23,-33]],[[1010,3630],[-1,-1]],[[1009,3629],[1,1]],[[1011,3632],[8,4]],[[1020,3635],[-8,-4]],[[1017,3653],[1,-15]],[[1019,3636],[-1,2]],[[1018,3638],[1,-1]],[[1026,3501],[1,10]],[[1031,3529],[-4,5]],[[1027,3511],[0,-6]],[[1031,3529],[-4,-18]],[[980,3457],[-1,0],[0,1],[1,0],[0,-1]],[[1001,3569],[1,0],[0,-2],[-1,1],[0,1]],[[1010,3631],[1,0],[0,-1],[-1,0],[0,1]],[[1020,3636],[0,-1],[-1,1]],[[1019,3636],[0,1],[1,-1]],[[2172,4078],[1,1]],[[2586,4058],[0,1]],[[2604,4096],[-18,-37]],[[2586,4059],[0,-1]],[[992,3407],[-1,-1]],[[3861,3959],[-30,-7]],[[2857,4060],[1,1]],[[187,4094],[1,2]],[[2990,4014],[3,2]],[[1010,3803],[-3,-1]],[[1075,3981]],[[2772,4032],[2,0]],[[2774,4032],[-2,0]],[[2774,4032],[32,5]],[[2814,4042],[11,5]],[[2394,3964],[107,-40],[2,-67],[216,-315],[-639,-3542]],[[2382,4093],[-8,1],[-8,2]],[[2368,4096],[13,-1]],[[2392,4078],[-10,15]],[[2383,4094],[10,-16]],[[2413,4009],[-2,1],[2,10]],[[2413,4020]],[[2413,4020],[-2,4],[-5,6],[0,1]],[[2406,4031],[-14,31]],[[2392,4062],[0,2],[0,13]],[[2393,4078],[0,-1],[-1,0]],[[2392,4077],[0,1],[1,0]],[[2393,4077],[-1,-13],[0,-2]],[[2392,4062],[2,-26],[12,-5]],[[2406,4031],[0,-1],[6,-6],[1,-1],[0,-3]],[[2413,4020]],[[2413,4020],[0,-4]],[[2382,4095],[1,0],[0,-2],[-2,1],[1,1]],[[2509,3991],[1,0]],[[1085,3942],[-6,2]],[[1117,3966],[16,1]],[[2409,3985],[-9,0]],[[1064,3929],[-1,1],[1,1],[1,-1],[-1,-1]],[[2393,4078],[2,17]],[[2395,4095],[0,-15],[-2,-3]],[[2395,4096],[0,-1]],[[2572,3906],[170,100]],[[2825,4021],[165,-7]],[[2764,4045],[-10,5]],[[2755,4051],[10,-5]],[[2534,4044],[-51,-16],[-20,17]],[[2478,4036],[4,0]],[[2590,4055],[44,-15]],[[2589,4055],[0,1],[1,0],[0,-1],[-1,0]],[[2638,4042],[0,-3]],[[2821,4020],[-79,-14]],[[2822,4021],[-1,-1]],[[2821,4020],[1,1]],[[2397,3995],[-7,3]],[[2394,3996],[-1,1]],[[2407,4006],[-6,-4]],[[2638,4042],[46,-9]],[[2689,4034],[64,17]],[[2754,4050],[-19,-11],[-46,-7]],[[1077,4018],[2,-6]],[[1078,3991],[4,-10]],[[2717,4093],[6,-7]],[[2726,4083],[3,-3]],[[1144,3964],[-1,-1]],[[1152,3960],[5,-4]],[[3830,3921],[7,21]],[[326,0],[3770,2740]],[[3782,3842],[15,-23]],[[3011,4093],[4,3]],[[2383,3967],[-7,6],[0,5]],[[2383,3977],[0,-10]],[[2387,3964],[-4,3]],[[2431,3986],[1,-1]],[[2389,3989],[0,-1]],[[2400,4001],[-8,-11]],[[4011,3933],[73,1]],[[4090,3926],[6,0]],[[2855,4060],[2,0]],[[2766,4046],[-1,0]],[[2720,4015],[-4,4]],[[2636,4039],[2,3]],[[3047,4084],[26,-9]],[[3118,4096],[-7,-8]],[[2432,3985],[41,12]],[[2492,3994],[3,-2]],[[3715,3859],[79,95],[23,-2]],[[3821,3953]],[[3821,3954],[0,-1]],[[3821,3953],[10,-1]],[[3820,3954],[1,0]],[[994,3615],[0,-2]],[[3073,4075],[-4,6]],[[2771,4032],[-5,12]],[[2767,4045],[5,-13]],[[2806,4037],[8,5]],[[163,4036],[-1,-1],[0,1],[0,1],[1,-1]],[[182,4080],[-1,-1],[-1,1],[1,0],[1,0]],[[2364,3991],[26,7]],[[2392,3997],[1,0]],[[991,3411],[0,-1],[0,1]],[[1027,3340],[1,0],[-1,0]],[[1032,4042],[1,-1],[-1,-1],[0,1],[0,1]],[[1055,3307],[-1,2],[1,0],[1,-1],[-1,-1]],[[1079,3269],[-1,0],[1,1],[0,-1]],[[3073,4075]],[[3793,3795],[95,-25],[72,-65]],[[2475,4037],[2,-1]],[[2483,4036],[1,-1]],[[181,4080],[1,2]],[[182,4082],[0,-2]],[[182,4082],[5,12]],[[2633,4036],[-1,1]],[[3820,3958],[-149,50]],[[4022,3875],[44,-10]],[[2633,4039],[-1,2]],[[2445,4021],[0,1],[2,0],[0,-1],[-2,0]],[[1201,3957],[-44,-1]],[[317,4081],[-2,0]],[[1063,3930],[0,1]],[[1065,3930],[0,-1]],[[4096,2760],[-3808,-2760]],[[2825,4047],[3,7]],[[2828,4055],[9,4]],[[2828,4055]],[[2039,3805],[2,6]],[[2544,4042],[41,10]],[[3820,3953],[0,1]],[[1032,3713],[-2,0]],[[1031,3714],[1,-1]],[[1032,3713],[1,-3]],[[1033,3709],[0,1]],[[1033,3710],[0,-1]],[[1034,3707],[-1,1]],[[1034,3708],[0,-1]],[[1034,3707],[80,-33]],[[1114,3674],[1,0]],[[1115,3674],[-1,0]],[[1115,3674],[185,30],[31,77]],[[1033,3709],[1,0],[0,-1],[-1,0],[0,1]],[[1287,3954],[9,1]],[[1551,3946],[-73,8]],[[1576,3899],[76,-51],[67,0]],[[2039,3805],[-145,-16],[-166,54]],[[2630,4037]],[[2838,4059],[-1,0],[0,1],[1,0],[0,-1]],[[3793,3795],[-9,4]],[[2807,4083],[7,5]],[[2184,3684],[60,60]],[[2186,3718],[0,2]],[[2641,3979],[4,-5]],[[2822,4021],[1,0]],[[2540,3878]],[[2541,3879]],[[2389,4056],[22,-32]],[[2391,4076],[5,20]],[[2413,4010],[-1,7]],[[2550,4007],[-1,0]],[[2709,4026],[-27,15]],[[2471,3529],[13,-1]],[[2424,4017],[-11,-8]],[[2413,4011],[5,6],[6,2]],[[2426,4018],[1,-1],[-2,-1],[-1,3],[2,-1]],[[4084,3934],[12,15]],[[4090,3926],[6,-13]],[[2175,3678],[0,1]],[[2420,4001],[-1,1]],[[2728,4005],[-8,10]],[[3662,3990],[17,-22]],[[2467,3742],[-5,27],[43,51]],[[2506,3822],[-1,-2]],[[2505,3820],[0,2]],[[2507,3825],[5,14]],[[1035,4096],[-11,-32]],[[1137,3958],[-2,1]],[[1136,3959],[1,-1]],[[1144,3961],[-7,-3]],[[1144,3961]],[[1144,3961],[0,1]],[[1145,3961]],[[1145,3962],[0,-1]],[[1154,3955],[-9,6]],[[1155,3955],[-1,0]],[[1154,3955],[1,0]],[[1156,3954],[-1,1]],[[1156,3955],[0,-1]],[[1329,3783],[-99,58],[-74,113]],[[1333,3782],[-3,0],[0,2],[3,0],[0,-2]],[[1397,3767],[-64,15]],[[1333,3783],[64,-16]],[[1397,3767],[88,-5],[184,57]],[[1671,3820],[47,25]],[[1734,3863],[-15,-15]],[[2000,3854],[-265,10]],[[2000,3854],[1,1]],[[2001,3853],[-1,1]],[[1155,3955],[1,1],[0,-1]],[[1156,3955],[-1,0]],[[3837,3942]],[[1072,3947],[4,9]],[[3817,3952],[3,1]],[[3988,3729],[108,-46]],[[2693,3497],[-91,231],[-99,129],[-2,67],[-114,40]],[[3403,0],[-707,3480]],[[1082,3981],[-7,0]],[[2753,4052],[69,44]],[[2823,4096],[-68,-45]],[[2792,4096],[9,-8]],[[2800,4086],[1,2]],[[2801,4088],[1,-2]],[[2802,4083],[3,-2]],[[2803,4084],[2,-3]],[[2805,4081],[2,2]],[[2837,4060],[-23,28]],[[2391,4076],[-2,-20]],[[2411,4024],[1,-7]],[[3837,3942],[28,10]],[[2402,3985],[12,-28],[78,-31],[2,-47]],[[3782,3842],[18,9]],[[2306,2357],[-802,-2357]],[[2607,3236],[-295,-863]],[[2394,3964],[107,-40],[2,-67],[100,-128],[102,-206],[-9,-27]],[[2669,3416],[-13,-37]],[[2853,4059],[2,1]],[[3011,4044],[-3,-5]],[[2364,3991],[18,-9]],[[2392,3990],[-3,-1]],[[3775,3848],[7,-6]],[[3821,3959],[-18,137]],[[3861,3959],[150,-26]],[[3800,3851],[30,70]],[[4096,2732],[-3813,-2706],[0,-26]],[[2714,4095],[-1,1]],[[2714,4096]],[[2800,4085],[2,1],[1,-1],[-2,-1],[-1,1]],[[2634,4040],[4,-1]],[[2838,4060],[15,-1]],[[2858,4061],[19,10]],[[160,4036],[-3,0]],[[160,4036],[2,1]],[[162,4036],[-2,0]],[[162,4037],[2,1]],[[164,4038],[-1,-1]],[[181,4078],[-17,-40]],[[181,4078],[0,1]],[[181,4079],[0,-1]],[[217,4094],[-35,-15]],[[2839,4058],[-1,1]],[[1152,3960],[-8,4]],[[1201,3957],[86,-3]],[[1296,3955],[106,27],[76,-28]],[[2473,3997],[19,-3]],[[3837,3942],[0,1]],[[2514,3986],[1,-3]],[[2437,4066],[-2,3]],[[2436,4068],[1,-2]],[[2437,4066],[6,-8]],[[2411,4010],[2,1]],[[884,3929],[44,-9]],[[2520,3856],[-4,-4]],[[2540,3877],[-1,-2]],[[2540,3878],[0,-1]],[[2540,3877],[0,1]],[[2541,3879],[1,1]],[[2542,3880],[-1,-1]],[[2557,3902],[-15,-22]],[[2174,4071],[-39,-37]],[[1075,3981],[-10,-26]],[[1079,4012],[6,-1]],[[1085,4011],[-5,-11]],[[1085,4011],[2,0]],[[3113,4021],[-54,12]],[[1000,3629],[-6,-14]],[[1019,3518],[-25,95]],[[1007,3632],[1,0]],[[1009,3632],[7,21]],[[1017,3449],[-6,-12]],[[1018,3512],[5,-27]],[[1075,4035],[-2,6]],[[1079,4023],[-4,10]],[[1080,4019],[0,3]],[[1080,4019],[8,-2]],[[1087,4012],[0,-1]],[[1088,4017],[-1,-5]],[[2382,3982],[7,6]],[[3875,3921],[82,-29]],[[2214,3766],[24,-18]],[[2266,3709],[72,21]],[[1019,3518],[-1,-6]],[[952,4096],[4,0]],[[1012,3678],[2,-3]],[[1061,4067],[-46,17]],[[1047,3894],[33,7],[5,41]],[[1084,3984],[-2,11]],[[4096,2760],[-3808,-2760]],[[2036,3889],[1,1]],[[2037,3905],[0,1]],[[2037,3905],[0,-15]],[[2037,3890],[0,-1]],[[2037,3906],[0,-1]],[[2060,3941],[-16,-21]],[[2044,3920],[-3,-2]],[[2061,3942],[-1,-1]],[[2060,3941],[0,1]],[[2061,3943]],[[2061,3943]],[[2061,3943],[27,36]],[[2068,3785]],[[2068,3784]],[[2068,3785],[2,-1]],[[2070,3784],[-1,0]],[[2164,3685],[-94,99]],[[2089,3978],[-1,-1]],[[2089,3979],[1,1]],[[2090,3980],[-1,-1]],[[2119,4019],[-29,-39]],[[2170,3680],[-6,5]],[[2173,3679],[-3,1]],[[2173,3679],[2,0]],[[2175,3678],[-2,1]],[[2175,3679],[1,0]],[[2176,3678]],[[2421,3520],[12,3]],[[2036,3887],[0,1],[1,1],[0,-2],[-1,0]],[[2036,3907],[1,0],[0,-1],[-1,1]],[[2061,3943],[0,-1],[-1,0],[0,1],[1,0]],[[2089,3978],[-1,1],[1,0],[0,-1]],[[2409,4008],[-2,-2]],[[2409,4008],[2,2]],[[2411,4008],[-2,0]],[[2413,4016],[-2,-6]],[[2411,4010],[2,-1]],[[1008,3632]],[[2696,3480],[-3,17]],[[71,4083],[-71,-9]],[[71,4083],[20,-7]],[[157,4036],[-51,9],[-15,31]],[[315,4081],[-98,13]],[[366,4072],[-49,9]],[[366,4072],[40,-13]],[[474,4044],[-68,15]],[[595,4021],[-121,23]],[[987,3985],[-298,0],[-94,36]],[[987,3985],[1,0]],[[988,3984],[-1,1]],[[991,3983],[-1,0]],[[990,3984],[1,-1]],[[991,3983],[71,-52]],[[1067,3929],[64,25],[29,64]],[[1161,4020],[-1,-2]],[[1160,4018],[0,2]],[[1161,4022],[1,1]],[[1162,4023],[-1,-2]],[[1216,4086],[-54,-63]],[[1238,4096],[-22,-10]],[[1216,4086],[21,10]],[[2220,4096],[-44,-19]],[[2176,4079],[44,17]],[[1160,4021],[1,1],[1,-2],[-2,0],[0,1]],[[3797,3819],[-4,-24]],[[695,3936],[11,-31]],[[704,3907],[0,-2]],[[2184,3684],[20,75]],[[2954,4024],[58,0]],[[1075,4033],[0,2]],[[1080,4022],[-1,1]],[[1082,3995],[-2,5]],[[1081,3982],[3,2]],[[1087,4012]],[[1088,4017]],[[3715,3859],[21,-1]],[[3736,3858]],[[3736,3858]],[[3784,3799],[-9,49]],[[2475,4035],[3,1]],[[2482,4036],[4,0]],[[2585,4052],[4,3]],[[1719,3848],[-1,-3]],[[1012,3774],[1,-1]],[[2444,4022],[-8,-1]],[[2444,4022],[1,0]],[[2445,4022],[-1,0]],[[2048,3826],[0,-6]],[[988,3985],[0,1]],[[988,3986],[43,53]],[[988,3986],[1,-1]],[[988,4096],[43,-54]],[[1032,4040],[-1,-1]],[[1031,4039],[1,2]],[[1032,4041],[-1,1]],[[1031,4042],[1,0]],[[182,4080],[1,-1]],[[2462,4027],[2,1]],[[2470,4032],[1,1]],[[2473,4033],[-2,0]],[[2471,4033],[2,1]],[[585,3967],[2,18]],[[2567,3912],[3,-5]],[[2834,4031],[-10,-6]],[[982,3981],[-49,-46]],[[2822,4022],[1,0]],[[2823,4022],[0,-1]],[[2824,4025],[-1,-3]],[[2953,4025],[-119,6]],[[2822,4021],[0,1],[0,-1]],[[2953,4026],[1,-1],[0,-1],[-1,1]],[[2953,4025],[0,1]],[[2235,4096],[-8,-8],[-101,-163],[38,5],[34,13],[33,20],[32,28],[62,-112],[34,-34],[54,-13],[48,1],[43,-10],[20,-35],[-20,-78],[43,-27],[16,-7],[-101,-124],[6,-68],[-54,-25],[-237,-5],[-50,10],[-219,103],[-539,61],[-101,63],[-62,-9],[-109,-37],[-34,-44],[-36,-97],[-17,-98],[27,-44],[74,-24],[7,-58],[-31,-71],[-41,-65],[-18,0],[-2,173],[-68,113],[-610,467],[-348,130],[0,69],[2235,0]],[[4096,4028],[0,-416],[-116,81],[-20,28],[-96,69],[-34,14],[-109,-14],[-48,-19],[-52,-33],[70,128],[115,99],[254,119],[-7,-15],[-7,-31],[-6,-16],[56,6]],[[3207,4096],[-11,-3],[-112,-59],[-53,-12],[-74,13],[-110,21],[-65,-3],[-58,-19],[-56,-30],[-1,-1],[-50,-39],[-44,-53],[-32,-23],[-12,31],[-5,47],[-10,25],[-112,31],[-76,-6],[-23,6],[-11,17],[-2,5],[-21,52],[938,0]],[[3689,4096],[-33,-60],[-6,-19],[-5,-1],[-57,17],[-63,42],[-112,21],[276,0]],[[1657,3563],[29,65],[100,6],[31,39],[-1,122],[37,11],[78,-36],[38,15],[9,-33],[24,15],[-28,-36],[-2,-96],[-19,-3],[28,-14],[-21,-103],[-52,26],[-86,-1],[-33,35],[-94,-30],[-38,18]],[[1027,3504],[-12,-69],[-77,41],[-3,28],[35,23],[0,101],[57,30],[53,-35],[-53,-119]],[[3207,4096],[-176,-74],[-249,31],[-114,-49],[-127,-116],[-27,103],[-211,31],[-34,74],[938,0]],[[105,4089],[112,7],[3,-9],[-40,-22],[16,-34],[-32,-36],[-13,72],[-29,-29],[9,42],[-26,9]],[[162,4053],[8,1],[9,19],[-15,-2],[-2,-18]],[[3758,4096],[-99,-100],[19,-39],[-82,45],[34,71],[21,-17],[31,40],[76,0]],[[548,3646],[29,6],[3,65],[241,-189],[235,-233],[-19,-82],[-132,131],[-95,-101],[-85,38],[110,132],[-287,233]],[[968,2970],[69,323],[24,-12],[-33,-199],[47,27],[72,102],[153,-86],[-170,-131],[232,-52],[121,-59],[0,-26],[-378,0],[-2,-30],[-92,0],[-43,143]],[[1176,2642],[1136,0],[0,-285],[-1136,0],[0,285]],[[1379,3619],[46,-33],[229,-37],[134,30],[32,-37],[86,1],[31,-34],[38,22],[82,-75],[123,-12],[26,-77],[84,57],[218,24],[25,60],[-39,12],[13,63],[55,32],[31,62],[29,0],[-2,-167],[76,-14],[0,-54],[-40,-38],[-1,-147],[-581,-250],[-413,122],[-1,197],[-263,1],[-18,292]],[[0,4009],[94,-11],[312,-168],[174,-113],[-3,-65],[-256,-54],[-116,104],[-205,1],[0,306]]]}