{"objects":{"water":{"type":"GeometryCollection","geometries":[{"type":"MultiPolygon","properties":{"source":"naturalearthdata.com","kind":"ocean","area":1444195503964160,"sort_rank":200,"min_zoom":0.0,"id":1},"arcs":[[[31],[32],[33],[34],[35]]]},{"type":"Polygon","properties":{"source":"naturalearthdata.com","kind":"playa","area":3825342720,"sort_rank":200,"min_zoom":0.0,"id":1},"arcs":[[36]]},{"type":"Polygon","properties":{"kind":"lake","name":"Lake Volta","reservoir":true,"area":8878341120,"sort_rank":200,"source":"naturalearthdata.com","min_zoom":0.0,"id":303},"arcs":[[37],[38]]},{"type":"Polygon","properties":{"source":"naturalearthdata.com","kind":"lake","name":"Lake Chad","area":1374502656,"sort_rank":200,"min_zoom":0.0,"id":9},"arcs":[[39]]},{"type":"Polygon","properties":{"kind":"lake","name":"Kainji Reservoir","reservoir":true,"area":1459229568,"sort_rank":200,"source":"naturalearthdata.com","min_zoom":0.0,"id":82},"arcs":[[40]]},{"type":"Point","properties":{"label_placement":true,"kind":"lake","name":"Lake Volta","reservoir":true,"area":8878341120,"sort_rank":200,"source":"naturalearthdata.com","min_zoom":0.0,"id":303},"coordinates":[12,1443]},{"type":"Point","properties":{"label_placement":true,"kind":"lake","name":"Kainji Reservoir","reservoir":true,"area":1459229568,"sort_rank":200,"source":"naturalearthdata.com","min_zoom":0.0,"id":82},"coordinates":[829,1917]},{"type":"Point","properties":{"label_placement":true,"kind":"lake","name":"Lake Chad","area":1374502656,"sort_rank":200,"source":"naturalearthdata.com","min_zoom":0.0,"id":9},"coordinates":[2642,2437]},{"type":"MultiLineString","properties":{"source":"naturalearthdata.com","kind":"playa","sort_rank":367,"boundary":true,"min_zoom":0.0,"id":1},"arcs":[[41],[42]]},{"type":"LineString","properties":{"source":"naturalearthdata.com","kind":"lake","sort_rank":367,"boundary":true,"min_zoom":0.0,"id":9},"arcs":[43]},{"type":"LineString","properties":{"source":"naturalearthdata.com","kind":"lake","reservoir":true,"sort_rank":367,"boundary":true,"min_zoom":0.0,"id":82},"arcs":[44]},{"type":"MultiLineString","properties":{"source":"naturalearthdata.com","kind":"lake","reservoir":true,"sort_rank":367,"boundary":true,"min_zoom":0.0,"id":303},"arcs":[[45],[46],[47],[48],[49]]},{"type":"LineString","properties":{"source":"naturalearthdata.com","kind":"ocean","sort_rank":205,"boundary":true,"min_zoom":0.0,"id":911},"arcs":[50]},{"type":"LineString","properties":{"source":"naturalearthdata.com","kind":"ocean","sort_rank":205,"boundary":true,"min_zoom":0.0,"id":912},"arcs":[51]},{"type":"LineString","properties":{"source":"naturalearthdata.com","kind":"ocean","sort_rank":205,"boundary":true,"min_zoom":0.0,"id":913},"arcs":[52]},{"type":"LineString","properties":{"source":"naturalearthdata.com","kind":"ocean","sort_rank":205,"boundary":true,"min_zoom":0.0,"id":914},"arcs":[53]},{"type":"LineString","properties":{"source":"naturalearthdata.com","kind":"ocean","sort_rank":205,"boundary":true,"min_zoom":0.0,"id":1388},"arcs":[54]}]},"buildings":{"type":"GeometryCollection","geometries":[]},"places":{"type":"GeometryCollection","geometries":[{"type":"Point","properties":{"name:kg":"Nizeria","name:pt":"Nig\u00e9ria","name:ps":"\u0646\u0627\u06cc\u062c\u06cc\u0631\u06cc\u0627","name:ka":"\u10dc\u10d8\u10d2\u10d4\u10e0\u10d8\u10d0","name:tr":"Nijerya","name:cv":"\u041d\u0438\u0433\u0435\u0440\u0438","name:km":"\u1793\u17b8\u17a0\u17d2\u179f\u17c1\u179a\u17b8\u1799\u17c9\u17b6","name:cs":"Nig\u00e9rie","name:ki":"Nainjeria","name:kw":"Nijeri","name:tk":"Nigeri\u00fda","name:ku":"N\u00eejerya","name:ti":"\u1293\u12ed\u1304\u122a\u12eb","name:ks":"\u0646\u0627\u06cc\u062c\u06cc\u0631\u0650\u06cc\u0627","name:to":"Naisilia","name:tl":"Nigerya","name:pa":"\u0a28\u0a3e\u0a08\u0a1c\u0a40\u0a30\u0a40\u0a06","name:os":"\u041d\u0438\u0433\u0435\u0440\u0438","name:or":"\u0b28\u0b3e\u0b07\u0b1c\u0b47\u0b30\u0b3f\u0b06","name:ce":"\u041d\u0438\u0433\u0435\u0440\u0438","name:ta":"\u0ba8\u0bc8\u0b9c\u0bc0\u0bb0\u0bbf\u0baf\u0bbe","name:tg":"\u041d\u0438\u04b7\u0435\u0440\u0438\u044f","name:ca":"Nig\u00e8ria","name:te":"\u0c28\u0c48\u0c1c\u0c40\u0c30\u0c3f\u0c2f\u0c3e","name:hr":"Nigerija","name:ln":"Nizerya","name:sr":"\u041d\u0438\u0433\u0435\u0440\u0438\u0458\u0430","name:dz":"\u0f53\u0f71\u0f60\u0f72\u0f0b\u0f47\u0f72\u0f0b\u0f62\u0f72\u0f0b\u0f61","source":"openstreetmap.org","name:xh":"INigeria","name:kn":"\u0ca8\u0cc8\u0c9c\u0cc0\u0cb0\u0cbf\u0caf\u0cbe","name:dv":"\u0782\u07a6\u0787\u07a8\u0796\u07a9\u0783\u07a8\u0787\u07a7","name:lv":"Nig\u0113rija","name:lt":"Nigerija","name:uz":"Nigeriya","name:kk":"\u041d\u0438\u0433\u0435\u0440\u0438\u044f","name:he":"\u05e0\u05d9\u05d2\u05e8\u05d9\u05d4","min_zoom":2.0,"kind":"country","name:ur":"\u0646\u0627\u0626\u062c\u06cc\u0631\u06cc\u0627","name:lg":"Nayijerya","name:uk":"\u041d\u0456\u0433\u0435\u0440\u0456\u044f","name:hy":"\u0546\u056b\u0563\u0565\u0580\u056b\u0561","name:ug":"\u0646\u0649\u06af\u06d0\u0631\u0649\u064a\u06d5","name:hu":"Nig\u00e9ria","name:qu":"Niqirya","name:lo":"\u0ec4\u0e99\u0e88\u0eb5\u0ec0\u0ea5\u0e8d","name:oc":"Nig\u00e8ria","population":152217341,"name:el":"\u039d\u03b9\u03b3\u03b7\u03c1\u03af\u03b1","name:eo":"Ni\u011derio","name":"Nigeria","name:is":"N\u00edger\u00eda","name:ee":"Nigeria nutome","name:th":"\u0e1b\u0e23\u0e30\u0e40\u0e17\u0e28\u0e44\u0e19\u0e08\u0e35\u0e40\u0e23\u0e35\u0e22","name:yi":"\u05e0\u05d9\u05d2\u05e2\u05e8\u05d9\u05e2","name:et":"Nigeeria","name:yo":"Or\u00edl\u1eb9\u0301\u00e8de N\u00e0\u00ecj\u00edr\u00ed\u00e0","name:ml":"\u0d28\u0d48\u0d1c\u0d40\u0d30\u0d3f\u0d2f","name:mt":"Ni\u0121erja","name:rn":"Nijeriya","name:az":"Nigeriya","name:ig":"Naigeria","name:mr":"\u0928\u093e\u092f\u091c\u0947\u0930\u093f\u092f\u093e","name:ar":"\u0646\u064a\u062c\u064a\u0631\u064a\u0627","name:my":"\u1014\u102d\u102f\u1004\u103a\u1002\u103b\u102e\u1038\u101b\u102e\u1038\u101a\u102c\u1038","official_name":"Federal Republic of Nigeria","name:gn":"Niheria","name:ak":"Naegyeria","name:am":"\u1293\u12ed\u1304\u122a\u12eb","name:an":"Nicheria","name:ru":"\u041d\u0438\u0433\u0435\u0440\u0438\u044f","name:rw":"Nijeriya","id":424316663,"name:mk":"\u041d\u0438\u0433\u0435\u0440\u0438\u0458\u0430","name:af":"Nigeri\u00eb","name:zu":"i-Nigeria","name:ha":"Najeriya","name:mn":"\u041d\u0438\u0433\u0435\u0440\u0438","name:ff":"Nijeriyaa","name:hi":"\u0928\u093e\u0907\u091c\u0940\u0930\u093f\u092f\u093e","name:mg":"Nizeria","name:fr":"Nig\u00e9ria","name:za":"Nizywlihya","name:zh-yue":"\u5c3c\u65e5\u5229\u4e9e","name:fy":"Nigearia","name:vo":"Nigeriy\u00e4n","name:zh":"\u5c3c\u65e5\u5229\u4e9a","name:so":"Nayjeeriya","name:sl":"Nigerija","name:sk":"Nig\u00e9ria","name:ja":"\u30ca\u30a4\u30b8\u30a7\u30ea\u30a2","name:si":"\u0db1\u0dba\u0dd2\u0da2\u0dd3\u0dbb\u0dd2\u0dba\u0dcf\u0dc0","name:sh":"Nigerija","name:sg":"Nizer\u00efa","name:sc":"Nig\u00e9ria","name:ne":"\u0928\u093e\u0907\u091c\u0947\u0930\u093f\u092f\u093e","name:sa":"\u0928\u0948\u091c\u0940\u0930\u093f\u092f\u093e","name:bs":"Nigerija","name:bm":"Nizeriya","name:bn":"\u09a8\u09be\u0987\u099c\u09c7\u09b0\u09bf\u09af\u09bc\u09be","name:bo":"\u0f53\u0f71\u0f60\u0f72\u0f0b\u0f47\u0f72\u0f0b\u0f62\u0f72\u0f0b\u0f61\u0f0d","name:sw":"Nijeria","name:be":"\u041d\u0456\u0433\u0435\u0440\u044b\u044f","name:bg":"\u041d\u0438\u0433\u0435\u0440\u0438\u044f","name:ss":"INayijeriya","name:ba":"\u041d\u0438\u0433\u0435\u0440\u0438\u044f","name:sq":"Nigeri","name:ko":"\ub098\uc774\uc9c0\ub9ac\uc544","name:ga":"An Nig\u00e9ir","name:gd":"N\u00ecgeiria","name:ht":"Nijerya","name:wa":"Nidjeria","name:gl":"Nixeria","name:fa":"\u0646\u06cc\u062c\u0631\u06cc\u0647","name:gv":"Yn Naigeer","name:gu":"\u0aa8\u0abe\u0a87\u0a9c\u0ac0\u0ab0\u0ac0\u0aaf\u0abe","name:tt":"\u041d\u0438\u0433\u0435\u0440\u0438\u044f"},"coordinates":[1456,1792]},{"type":"Point","properties":{"name:kg":"Kamerun","name:ka":"\u10d9\u10d0\u10db\u10d4\u10e0\u10e3\u10dc\u10d8","name:ko":"\uce74\uba54\ub8ec","name:cv":"\u041a\u0430\u043c\u0435\u0440\u0443\u043d","name:km":"\u1780\u17b6\u1798\u17c1\u179a\u17bc\u1793","name:kl":"Kamerun","name:cs":"Kamerun","name:ki":"Kameruni","name:kw":"Kameroun","name:tk":"Kamerun","name:ku":"Kamer\u00fbn","name:ti":"\u12ab\u121c\u1229\u1295","name:ks":"\u06a9\u06cc\u065a\u0645\u0650\u0631\u0648\u0657\u0646","name:to":"Kemaluni","name:tl":"Kamerun","name:ta":"\u0b95\u0bc7\u0bae\u0bb0\u0bc2\u0ba9\u0bcd","name:tg":"\u041a\u0430\u043c\u0435\u0440\u0443\u043d","name:ca":"Camerun","name:te":"\u0c15\u0c46\u0c2e\u0c30\u0c42\u0c28\u0c4d","name:cy":"Camer\u0175n","name:hr":"Kamerun","name:da":"Cameroun","name:de":"Kamerun","name:dz":"\u0f40\u0f7a\u0f0b\u0f58\u0f0b\u0f62\u0f74\u0f53","source":"openstreetmap.org","name:kn":"\u0c95\u0ccd\u0caf\u0cbe\u0cae\u0cb0\u0ccb\u0ca8\u0ccd","name:dv":"\u0786\u07ac\u0789\u07a6\u0783\u07ab\u0782\u07b0","name:lv":"Kamer\u016bna","name:lt":"Kamer\u016bnas","name:uz":"Kamerun","name:kk":"\u041a\u0430\u043c\u0435\u0440\u0443\u043d","name:ur":"\u06a9\u06cc\u0645\u0631\u0648\u0646","name:lb":"Kamerun","name:la":"Cameronia","name:lg":"Kameruuni","name:uk":"\u041a\u0430\u043c\u0435\u0440\u0443\u043d","name:ug":"\u0643\u0627\u0645\u06d0\u0631\u06c7\u0646","name:li":"Kameroen","name:ln":"Kam\u025brune","name:lo":"\u0e84\u0eb2\u0ec0\u0ea1\u0ea5\u0eb9\u0ea1","name:el":"\u039a\u03b1\u03bc\u03b5\u03c1\u03bf\u03cd\u03bd","name:eo":"Kameruno","name:en":"Cameroon","name":"Cameroun - Cameroon","name:ee":"Kamerun nutome","name:th":"\u0e1b\u0e23\u0e30\u0e40\u0e17\u0e28\u0e41\u0e04\u0e40\u0e21\u0e2d\u0e23\u0e39\u0e19","name:eu":"Kamerun","name:et":"Kamerun","name:es":"Camer\u00fan","name:ia":"Camerun","name:rm":"Camerun","name:rn":"Kameruni","name:az":"Kamerun","name:ie":"Cameroon","name:id":"Kamerun","name:ig":"Kameroon","name:ar":"\u0627\u0644\u0643\u0627\u0645\u064a\u0631\u0648\u0646","name:io":"Kamerun","name:ak":"Kam\u025brun","name:am":"\u12ab\u121c\u1229\u1295","name:it":"Camerun","name:an":"Camer\u00fan","name:ru":"\u041a\u0430\u043c\u0435\u0440\u0443\u043d","name:rw":"Kameruni","name:af":"Kameroen","name:zu":"i-Cameroon","name:zh-yue":"\u5580\u9ea5\u9686","name:zh":"\u5580\u9ea6\u9686","name:so":"Kaameruun","name:sn":"Kameruni","name:sl":"Kamerun","name:sk":"Kamerun","name:ja":"\u30ab\u30e1\u30eb\u30fc\u30f3","name:si":"\u0d9a\u0dd0\u0db8\u0dbb\u0dd6\u0db1\u0dca","name:sh":"Kamerun","name:sg":"Kamer\u00fbne","name:se":"Kamerun","name:sc":"Camer\u00f9n","name:sa":"\u0915\u0947\u092e\u0947\u0930\u0942\u0928","name:bs":"Kamerun","name:bm":"Kameruni","name:bn":"\u0995\u09cd\u09af\u09be\u09ae\u09c7\u09b0\u09c1\u09a8","name:bo":"\u0f40\u0f0b\u0f58\u0f7a\u0f0b\u0f62\u0f74\u0f53\u0f0d","name:br":"Kameroun","name:sw":"Kameruni","name:be":"\u041a\u0430\u043c\u0435\u0440\u0443\u043d","name:su":"Kamerun","name:bg":"\u041a\u0430\u043c\u0435\u0440\u0443\u043d","name:ss":"IKhameruni","name:ba":"\u041a\u0430\u043c\u0435\u0440\u0443\u043d","name:sq":"Kamerun","name:jv":"Kamerun","name:pt":"Camar\u00f5es","name:ps":"\u06a9\u0627\u0645\u0631\u0648\u0646","name:oc":"Cameron","min_zoom":2.0,"name:ro":"Camerun","name:zh-min-nan":"Cameroon","name:os":"\u041a\u0430\u043c\u0435\u0440\u0443\u043d","name:or":"\u0b15\u0b3e\u0b2e\u0b47\u0b30\u0b41\u0b28\u0b4d","name:pl":"Kamerun","name:sr":"\u041a\u0430\u043c\u0435\u0440\u0443\u043d","name:pa":"\u0a15\u0a48\u0a2e\u0a30\u0a42\u0a28","name:tr":"Kamerun","name:hi":"\u0915\u0948\u092e\u0930\u0942\u0928","name:sv":"Kamerun","name:he":"\u05e7\u05de\u05e8\u05d5\u05df","name:ha":"Kamaru","name:hy":"\u053f\u0561\u0574\u0565\u0580\u0578\u0582\u0576","name:ht":"Kamewoun","name:hu":"Kamerun","name:qu":"Kamirun","population":20549221,"kind":"country","name:ts":"Cameroon","name:is":"Kamer\u00fan","name:yi":"\u05e7\u05d0\u05de\u05e2\u05e8\u05d5\u05df","name:yo":"Or\u00edl\u1eb9\u0301\u00e8de Kamer\u00fa\u00fan\u00ec","name:mt":"Kamerun","name:ms":"Kamerun","name:mr":"\u0915\u0945\u092e\u0947\u0930\u0942\u0928","name:my":"\u1000\u1004\u103a\u1019\u101b\u103d\u1014\u103a\u1038","official_name":"Republic of Cameroon;R\u00e9publique du Cameroun","int_name":"Cameroon","name:mg":"Kamerona","name:ml":"\u0d15\u0d3e\u0d2e\u0d31\u0d42\u0d7a","name:vi":"Cameroon","name:mn":"\u041a\u0430\u043c\u0435\u0440\u0443\u043d","id":424315932,"name:mk":"\u041a\u0430\u043c\u0435\u0440\u0443\u043d","name:vo":"Kamerun\u00e4n","name:fa":"\u06a9\u0627\u0645\u0631\u0648\u0646","name:ff":"Kameruun","name:fi":"Kamerun","name:fo":"Kamerun","name:fr":"Cameroun","name:fy":"Kameroen","name:nl":"Kameroen","name:nn":"Kamerun","name:no":"Kamerun","name:na":"Kamerun","name:ne":"\u0915\u094d\u092f\u093e\u092e\u0947\u0930\u0942\u0928","name:wo":"Kamerun","name:nv":"T\u00e1\u0142t\u0142\u02bc\u00e1\u00e1h Ch\u02bcosh Daad\u00e1n\u00edg\u00ed\u00ed Bitooh","name:ga":"Camar\u00fan","name:gd":"Camarun","name:gl":"Camer\u00fan","name:gv":"Cameroon","name:gu":"\u0a95\u0ac5\u0aae\u0ab0\u0ac2\u0aa8","name:tt":"\u041a\u0430\u043c\u0435\u0440\u0443\u043d"},"coordinates":[2395,861]},{"type":"Point","properties":{"name:kg":"Nijer","name:pt":"N\u00edger","name:ps":"\u0646\u0627\u06cc\u062c\u06d0\u0631","name:ka":"\u10dc\u10d8\u10d2\u10d4\u10e0\u10d8","name:ko":"\ub2c8\uc81c\ub974","name:kn":"\u0ca8\u0cc8\u0c9c\u0cb0\u0ccd","name:km":"\u1793\u17b8\u17a0\u17d2\u179f\u17c1\u179a","name:kk":"\u041d\u0438\u0433\u0435\u0440","alt_name:eo":"Ni\u011derlando","name:ki":"Nijeri","name:kw":"Pow Nijer","name:tr":"Nijer","name:ku":"N\u00eejer","name:ti":"\u1292\u1300\u122d","name:ks":"\u0646\u0627\u06cc\u062c\u064e\u0631","name:to":"Naisia","name:tl":"Niyer","name:pa":"\u0a28\u0a3e\u0a08\u0a1c\u0a30","name:os":"\u041d\u0438\u0433\u0435\u0440","name:or":"\u0b28\u0b3e\u0b07\u0b1c\u0b30\u0b4d","name:ce":"\u041d\u0438\u0433\u0435\u0440","name:ta":"\u0ba8\u0bc8\u0b9c\u0bb0\u0bcd","name:tg":"\u041d\u0438\u04b7\u0435\u0440","name:ca":"N\u00edger","name:te":"\u0c28\u0c48\u0c1c\u0c30\u0c4d","name:qu":"Niqir","name:sr":"\u041d\u0438\u0433\u0435\u0440","name:dz":"\u0f53\u0f71\u0f60\u0f72\u0f0b\u0f47\u0f71","source":"openstreetmap.org","name:dv":"\u0782\u07a9\u0796\u07a6\u0783\u07aa","name:lv":"Nig\u0113ra","name:lt":"Nigeris","name:hi":"\u0928\u093e\u0907\u091c\u0930","name:he":"\u05e0\u05d9\u05d6\u05f3\u05e8","min_zoom":2.0,"kind":"country","name:ur":"\u0646\u0627\u0626\u062c\u0631","name:lg":"Nije","name:uk":"\u041d\u0456\u0433\u0435\u0440","name:hy":"\u0546\u056b\u0563\u0565\u0580","name:ug":"\u0646\u0649\u06af\u06d0\u0631","name:ln":"Niz\u025br\u025b","name:lo":"\u0ec4\u0e99\u0ec0\u0e88\u0eb5","name:oc":"Nig\u00e8r","population":17129076,"name:el":"\u039d\u03af\u03b3\u03b7\u03c1\u03b1\u03c2","name:eo":"Ni\u011dero","name":"Niger","official_name":"R\u00e9publique du Niger","name:ee":"Niger nutome","name:th":"\u0e1b\u0e23\u0e30\u0e40\u0e17\u0e28\u0e44\u0e19\u0e40\u0e08\u0e2d\u0e23\u0e4c","name:gu":"\u0aa8\u0abe\u0a87\u0a9c\u0ab0","name:yi":"\u05e0\u05d9\u05d6\u05e9\u05e2\u05e8","name:es":"N\u00edger","name:ml":"\u0d28\u0d48\u0d1c\u0d7c","name:mt":"Ni\u0121er","name:rn":"Nijeri","name:az":"nijer","name:mr":"\u0928\u093e\u0907\u091c\u0930","name:ar":"\u0627\u0644\u0646\u064a\u062c\u0631","name:my":"\u1014\u102d\u102f\u1004\u103a\u1002\u103b\u102c","name:io":"Nijer","name:is":"N\u00edger","name:am":"\u1292\u1300\u122d","name:an":"N\u00edcher","name:ru":"\u041d\u0438\u0433\u0435\u0440","name:rw":"Nigeri","id":424311675,"name:mk":"\u041d\u0438\u0433\u0435\u0440","name:vo":"Niger\u00e4n","name:zu":"i-Niger","name:ha":"Nijar","name:mn":"\u041d\u0438\u0433\u0435\u0440","name:ff":"Nijeer","name:wo":"Niseer","name:zh-yue":"\u5c3c\u65e5\u723e","name:zh":"\u5c3c\u65e5\u5c14","name:gv":"Yn Neegeyr","name:so":"Nayjer","name:ja":"\u30cb\u30b8\u30a7\u30fc\u30eb","name:si":"\u0db1\u0dba\u0dd2\u0da2\u0dbb\u0dca","name:fa":"\u0646\u06cc\u062c\u0631","name:sg":"Niz\u00ebre","name:sc":"Nix\u00e8r","name:ne":"\u0928\u093e\u0907\u091c\u0930","name:sa":"\u0928\u0940\u091c\u0947","name:bm":"Niz\u025bri","name:bn":"\u09a8\u09be\u0987\u099c\u09be\u09b0","name:bo":"\u0f53\u0f60\u0f72\u0f0b\u0f47\u0f62\u0f0d","name:sw":"Nijeri","name:be":"\u041d\u0456\u0433\u0435\u0440","name:bg":"\u041d\u0438\u0433\u0435\u0440","name:ss":"INayijari","name:ba":"\u041d\u0438\u0433\u0435\u0440","name:sq":"Nigeri","name:ga":"An N\u00edgir","name:gd":"N\u00ecgeir","name:ht":"Nij\u00e8","name:gl":"N\u00edxer","name:yo":"Or\u00edl\u1eb9\u0301\u00e8de N\u00e0\u00ecj\u00e1","name:ak":"Nigy\u025b"},"coordinates":[1697,3311]},{"type":"Point","properties":{"name:kg":"Tasadi","name:ka":"\u10e9\u10d0\u10d3\u10d8","name:ko":"\ucc28\ub4dc","name:cv":"\u0427\u0430\u0434","name:km":"\u1786\u17b6\u178a","name:kl":"Chad","name:cs":"\u010cad","name:ki":"Chadi","name:kw":"Chad","name:tk":"\u00c7ad","name:ku":"\u00c7ad","name:ti":"\u127b\u12f5","name:ks":"\u0686\u0627\u0691","name:to":"Seti","name:tl":"Tsad","name:ce":"\u0427\u0430\u0434","name:ta":"\u0b9a\u0bbe\u0b9f\u0bcd","name:tg":"\u0427\u0430\u0434","name:ca":"Txad","name:te":"\u0c1a\u0c3e\u0c26\u0c4d","name:cy":"Tchad","name:hr":"\u010cad","name:da":"Tchad","name:de":"Tschad","name:dz":"\u0f45\u0f71\u0f4c","source":"openstreetmap.org","name:kn":"\u0c9a\u0cbe\u0ca1\u0ccd","name:dv":"\u079d\u07a7\u078b\u07aa","name:lv":"\u010cada","name:lt":"\u010cadas","name:uz":"Chad","name:kk":"\u0427\u0430\u0434","name:ur":"\u0686\u0627\u0688","name:lb":"Tschad","name:la":"Tzadia","name:lg":"Caadi","name:uk":"\u0427\u0430\u0434","name:ug":"\u0686\u0627\u062f","name:li":"Tsjaad","name:ln":"Ts\u00e1di","name:lo":"\u0e8a\u0eb2\u0e94","name:el":"\u03a4\u03c3\u03b1\u03bd\u03c4","name:eo":"\u0108ado","name:en":"Chad","name":"Chad \u062a\u0634\u0627\u062f","name:ee":"Tsad nutome","name:th":"\u0e1b\u0e23\u0e30\u0e40\u0e17\u0e28\u0e0a\u0e32\u0e14","name:eu":"Txad","name:et":"T\u0161aad","name:es":"Chad","name:ia":"Tchad","name:rm":"Tschad","name:rn":"Cadi","name:az":"\u00c7ad","name:ie":"Chad","name:id":"Chad","name:ig":"Chad","name:ar":"\u062a\u0634\u0627\u062f","name:io":"Chad","name:ak":"Kyad","name:am":"\u127b\u12f5","name:it":"Ciad","name:an":"Chad","name:ru":"\u0427\u0430\u0434","name:rw":"Cade","name:af":"Tsjaad","name:zu":"i-Chad","name:zh-yue":"\u4e4d\u5f97","name:zh":"\u4e4d\u5f97","name:so":"Jaad","name:sn":"Chadi","name:sl":"\u010cad","name:sk":"\u010cad","name:ja":"\u30c1\u30e3\u30c9","name:si":"\u0da0\u0dd0\u0da0\u0dca","name:sh":"\u010cad","name:sg":"Ty\u00e2de","name:se":"T\u010dad","name:sc":"Chad","name:sa":"\u091a\u093e\u0921","name:bs":"\u010cad","name:bm":"Cadi","name:bn":"\u099a\u09be\u09a6","name:bo":"\u0f45\u0f7b\u0f4c\u0f0d","name:br":"Tchad","name:sw":"Chadi","name:be":"\u0427\u0430\u0434","name:su":"Chad","name:bg":"\u0427\u0430\u0434","name:ss":"IShedi","name:ba":"\u0427\u0430\u0434","name:sq":"\u00c7ad","name:jv":"Chad","name:pt":"Chade","name:ps":"\u0686\u0627\u0689","name:oc":"Chad","min_zoom":2.0,"name:ro":"Ciad","name:zh-min-nan":"Tchad","name:os":"\u0427\u0430\u0434","name:or":"\u0b1a\u0b3e\u0b26\u0b4d","name:pl":"Czad","name:sr":"\u0427\u0430\u0434","name:pa":"\u0a1a\u0a3e\u0a21","name:tr":"\u00c7ad","name:hi":"\u091a\u093e\u0921","name:sv":"Tchad","name:he":"\u05e6'\u05d0\u05d3","name:ha":"Cadi","name:hy":"\u0549\u0561\u0564","name:ht":"Tchad","name:hu":"Cs\u00e1d","name:qu":"Chad","population":10329208,"kind":"country","name:ts":"Chad","name:is":"Tsjad","name:yi":"\u05d8\u05e9\u05d0\u05d3","name:yo":"Or\u00edl\u1eb9\u0301\u00e8de \u1e63\u00e0\u00e0d\u00ec","name:mt":"\u010aad","name:ms":"Cad","name:mr":"\u091a\u093e\u0921","name:my":"\u1001\u103b\u1012\u103a","official_name":"R\u00e9publique du Tchad;\u062c\u0645\u0647\u0648\u0631\u064a\u0629 \u062a\u0634\u0627\u062f \u200e","int_name":"Chad","name:mg":"Tsady","name:ml":"\u0d1a\u0d3e\u0d21\u0d4d","name:vi":"Tchad","name:mn":"\u0427\u0430\u0434","id":424298076,"name:mk":"\u0427\u0430\u0434","name:vo":"Tjad\u00e4n","name:fa":"\u0686\u0627\u062f","name:ff":"Caad","name:fi":"T\u0161ad","name:fo":"Kjad","name:fr":"Tchad","name:fy":"Tsjaad","name:nl":"Tsjaad","name:nn":"Tchad","name:no":"Tsjad","name:na":"Tsiad","name:ne":"\u091a\u093e\u0921","name:wa":"Tchad","name:wo":"Cadd","name:ga":"Sead","name:gd":"An t-Siad","name:gl":"Chad","name:gv":"Shad","name:gu":"\u0a9a\u0abe\u0aa1","name:tt":"\u0427\u0430\u0434"},"coordinates":[3462,2914]},{"type":"Point","properties":{"source":"naturalearthdata.com","kind":"locality","name":"Lagos","country_capital":true,"population":9466000,"min_zoom":2.0,"id":7272},"coordinates":[617,1203]},{"type":"Point","properties":{"name:kg":"Benin","name:ka":"\u10d1\u10d4\u10dc\u10d8\u10dc\u10d8","name:ko":"\ubca0\ub0c9","name:cv":"\u0411\u0435\u043d\u0438\u043d","name:km":"\u1794\u17c1\u178e\u17b6\u17c6\u1784","name:kl":"Benin","name:cs":"Benin","name:ki":"Benini","name:kw":"Benin","name:tk":"Benin","name:ku":"B\u00ean\u00een","name:ti":"\u1264\u1292\u1295","name:ks":"\u0628\u0650\u0646\u0650\u0646","name:to":"Penini","name:tl":"Benin","name:ce":"\u0411\u0435\u043d\u0438\u043d","name:ta":"\u0baa\u0bc6\u0ba9\u0bbf\u0ba9\u0bcd","name:tg":"\u0411\u0435\u043d\u0438\u043d","name:ca":"Ben\u00edn","name:te":"\u0c2c\u0c46\u0c28\u0c3f\u0c28\u0c4d","name:cy":"Benin","name:hr":"Benin","name:da":"Benin","name:de":"Benin","name:dz":"\u0f56\u0fb7\u0f7a\u0f0b\u0f53\u0f72\u0f53","source":"openstreetmap.org","name:kn":"\u0cac\u0cc6\u0ca8\u0cbf\u0ca8\u0ccd","name:dv":"\u0784\u07ac\u0782\u07a9\u0782\u07b0","name:lv":"Benina","name:lt":"Beninas","name:uz":"Benin","name:kk":"\u0411\u0435\u043d\u0438\u043d","name:ur":"\u0628\u06cc\u0646\u0646","name:lb":"Benin","name:la":"Beninum","name:lg":"Benini","name:uk":"\u0411\u0435\u043d\u0456\u043d","name:ug":"\u0628\u06d0\u0646\u0649\u0646","name:li":"Benin","name:ln":"Ben\u025b","name:lo":"\u0ec0\u0e9a\u0e99\u0eb4\u0e99","name:el":"\u039c\u03c0\u03b5\u03bd\u03af\u03bd","name:eo":"Benino","name:en":"Benin","name":"B\u00e9nin","name:ee":"Benin nutome","name:th":"\u0e1b\u0e23\u0e30\u0e40\u0e17\u0e28\u0e40\u0e1a\u0e19\u0e34\u0e19","name:eu":"Benin","name:et":"Benin","name:es":"Ben\u00edn","name:ia":"Benin","name:rm":"Benin","name:rn":"Bene","name:az":"Benin","name:ie":"Benin","name:id":"Benin","name:ig":"Binin","name:ar":"\u0628\u0646\u0646","name:io":"Benin","name:ak":"B\u025bnin","name:am":"\u1264\u1292\u1295","name:it":"Benin","name:an":"Ben\u00edn","name:ru":"\u0411\u0435\u043d\u0438\u043d","name:rw":"Bene","name:af":"Benin","name:zu":"i-Benin","name:ky":"\u0411\u0435\u043d\u0438\u043d","name:zh-yue":"\u8c9d\u5be7","name:zh":"\u8d1d\u5b81","name:so":"Biniin","name:sn":"Benini","name:sl":"Benin","name:sk":"Benin","name:ja":"\u30d9\u30ca\u30f3","name:si":"\u0db6\u0dd9\u0db1\u0dd2\u0db1\u0dca","name:sh":"Benin","name:sg":"Ben\u00eben","name:se":"Benin","name:sc":"Benin","name:sa":"\u092c\u0947\u0928\u093f\u0928\u094d","name:bs":"Benin","name:bm":"Ben\u025bn","name:bn":"\u09ac\u09c7\u09a8\u09bf\u09a8","name:bo":"\u0f56\u0f71\u0f7a\u0f0b\u0f53\u0f72\u0f53\u0f0d","name:br":"Benin","name:sw":"Benini","name:be":"\u0411\u0435\u043d\u0456\u043d","name:bg":"\u0411\u0435\u043d\u0438\u043d","name:ss":"IBhenini","name:ba":"\u0411\u0435\u043d\u0438\u043d","name:sq":"Benini","name:jv":"Benin","name:pt":"Benin","name:ps":"\u0628\u06d0\u0646\u064a\u0646","name:oc":"Benin","min_zoom":2.0,"name:ro":"Benin","name:pa":"\u0a2c\u0a47\u0a28\u0a3f\u0a28","name:os":"\u0411\u0435\u043d\u0438\u043d","name:or":"\u0b2c\u0b47\u0b28\u0b3f\u0b28\u0b4d","name:pl":"Benin","name:st":"Benin","name:sr":"\u0411\u0435\u043d\u0438\u043d","name:tr":"Benin","name:hi":"\u092c\u0947\u0928\u093f\u0928","name:sv":"Benin","name:he":"\u05d1\u05e0\u05d9\u05df","name:ha":"Binin","name:hy":"\u0532\u0565\u0576\u056b\u0576","name:ht":"Benen","name:hu":"Benin","name:qu":"Binin","population":8971944,"kind":"country","name:ts":"Benin","name:is":"Ben\u00edn","name:yi":"\u05d1\u05e2\u05e0\u05d9\u05df","name:yo":"Or\u00edl\u1eb9\u0301\u00e8de B\u1eb9\u0300n\u1eb9\u0300","name:mt":"Benin","name:ms":"Benin","name:mr":"\u092c\u0947\u0928\u093f\u0928","name:my":"\u1018\u102e\u1014\u1004\u103a\u1014\u102d\u102f\u1004\u103a\u1004\u1036","official_name":"R\u00e9publique du B\u00e9nin","int_name":"Benin","name:mg":"Benin","name:ml":"\u0d2c\u0d46\u0d28\u0d3f\u0d7b","name:vi":"Benin","name:mn":"\u0411\u0435\u043d\u0438\u043d","id":424297384,"name:mk":"\u0411\u0435\u043d\u0438\u043d","name:vo":"Benin\u00e4n","name:fa":"\u0628\u0646\u06cc\u0646","name:ff":"Benee","name:fi":"Benin","name:fo":"Benin","name:fy":"Benyn","name:nl":"Benin","name:nn":"Benin","name:no":"Benin","name:na":"Benin","name:ne":"\u092c\u0947\u0928\u093f\u0928","name:wo":"Bene","name:ga":"Beinin","name:gd":"Beinin","name:gl":"Benin","name:gv":"Benin","name:gu":"\u0aac\u0ac7\u0aa8\u0abf\u0aa8","name:tt":"\u0411\u0435\u043d\u0438\u043d"},"coordinates":[411,1779]},{"type":"Point","properties":{"name:ka":"\u10e2\u10dd\u10d2\u10dd","name:ko":"\ud1a0\uace0","name:cv":"\u0422\u043e\u0433\u043e","name:km":"\u178f\u17bc\u17a0\u17d2\u1782\u17bc","name:kk":"\u0422\u043e\u0433\u043e","name:th":"\u0e1b\u0e23\u0e30\u0e40\u0e17\u0e28\u0e42\u0e15\u0e42\u0e01","name:ti":"\u1276\u130e","name:ks":"\u0679\u0648\u06af\u0648","name:to":"Toko","name:pa":"\u0a1f\u0a4b\u0a17\u0a4b","name:os":"\u0422\u043e\u0433\u043e","name:or":"\u0b1f\u0b4b\u0b17\u0b4b","name:ce":"\u0422\u043e\u0433\u043e","name:ta":"\u0b9f\u0bcb\u0b95\u0bcb","name:tg":"\u0422\u043e\u0433\u043e","name:te":"\u0c1f\u0c4b\u0c17\u0c4b","name:wo":"Tog\u00f3o","name:ba":"\u0422\u043e\u0433\u043e","name:dz":"\u0f4a\u0f7c\u0f0b\u0f42\u0fb7\u0f7c","source":"openstreetmap.org","name:kn":"\u0c9f\u0cca\u0c97\u0cca","name:dv":"\u0793\u07af\u078e\u07af","name:lt":"Togas","name:hi":"\u091f\u094b\u0917\u094b","name:he":"\u05d8\u05d5\u05d2\u05d5","kind":"country","name:ur":"\u0679\u0648\u06af\u0648","name:la":"Togum","name:uk":"\u0422\u043e\u0433\u043e","name:hy":"\u054f\u0578\u0563\u0578","name:ug":"\u062a\u0648\u06af\u0648","name:qu":"Tugu","name:lo":"\u0ec2\u0e95\u0ec2\u0e81","name:oc":"T\u00f2go","population":6587239,"name:el":"\u03a4\u03cc\u03b3\u03ba\u03bf","name:eo":"Togolando","name":"Togo","min_zoom":2.0,"name:yi":"\u05d8\u05d0\u05d2\u05d0","name:yo":"T\u00f3g\u00f2","alt_name:eo":"Togo;Togolo","name:az":"Toqo","name:mr":"\u091f\u094b\u0917\u094b","name:ar":"\u062a\u0648\u063a\u0648","name:my":"\u1010\u102d\u102f\u1002\u102d\u102f\u1014\u102d\u102f\u1004\u103a\u1004\u1036","official_name":"R\u00e9publique Togolaise","name:is":"T\u00f3g\u00f3","name:am":"\u1276\u130e","name:ru":"\u0422\u043e\u0433\u043e","name:ml":"\u0d1f\u0d4b\u0d17\u0d4b","name:mn":"\u0422\u043e\u0433\u043e","id":424311827,"name:mk":"\u0422\u043e\u0433\u043e","name:vo":"Togo\u00e4n","name:zu":"ITogo","name:ff":"Togoo","name:zh-yue":"\u591a\u54e5","name:zh":"\u591a\u54e5","name:ja":"\u30c8\u30fc\u30b4","name:si":"\u0da7\u0ddd\u0d9c\u0ddd","name:fa":"\u062a\u0648\u06af\u0648","name:sg":"Tog\u00f6","name:ne":"\u091f\u094b\u0917\u094b","name:sa":"\u091f\u094b\u0917\u094b","name:bn":"\u099f\u09cb\u0997\u09cb","name:bo":"\u0f4a\u0f7c\u0f0b\u0f42\u0f7c","name:be":"\u0422\u043e\u0433\u0430","name:bg":"\u0422\u043e\u0433\u043e","name:ss":"IThogo","name:sr":"\u0422\u043e\u0433\u043e","name:nv":"T\u02bc\u00f3ogo","name:ga":"T\u00f3ga","name:gd":"T\u00f2go","name:gv":"Yn Togo","name:gu":"\u0a9f\u0acb\u0a97\u0acb"},"coordinates":[186,1639]},{"type":"Point","properties":{"name:kg":"Repubilika ya Afelika ya Kati","name:ka":"\u10ea\u10d4\u10dc\u10e2\u10e0\u10d0\u10da\u10e3\u10e0\u10d8 \u10d0\u10e4\u10e0\u10d8\u10d9\u10d8\u10e1 \u10e0\u10d4\u10e1\u10de\u10e3\u10d1\u10da\u10d8\u10d9\u10d0","name:ko":"\uc911\uc559 \uc544\ud504\ub9ac\uce74 \uacf5\ud654\uad6d","name:kn":"\u0cae\u0ca7\u0ccd\u0caf \u0c86\u0cab\u0ccd\u0cb0\u0cbf\u0c95\u0cbe \u0c97\u0ca3\u0cb0\u0cbe\u0c9c\u0ccd\u0caf","name:km":"\u179f\u17b6\u1792\u17b6\u179a\u178e\u179a\u178a\u17d2\u178b\u17a2\u17b6\u17a0\u17d2\u179c\u17d2\u179a\u17b7\u1780\u1780\u178e\u17d2\u178a\u17b6\u179b","name:cs":"St\u0159edoafrick\u00e1 republika","name:ki":"Jamhuri ya Afrika ya Kati","name:kw":"Centrafrika","name:tk":"Merkezi Afrika Respublikasy","name:ku":"Komara Afr\u00eekaya Navend","name:ti":"\u12e8\u1218\u12ab\u12a8\u1208\u129b\u12cd \u12a0\u134d\u122a\u12ab \u122a\u1350\u1265\u120a\u12ad","name:ks":"\u0645\u0631\u06a9\u0654\u0632\u06cc \u0627\u064e\u0641\u0631\u06cc\u0656\u06a9\u06cc \u062c\u0645\u0648\u0657\u0631\u06cc\u064e\u062a","name:to":"Lipapilika \u02bbAfilika Lotoloto","name:tl":"Republikang Gitnang-Aprikano","name:ce":"\u042e\u043a\u043a\u044a\u0435\u0440\u0447\u0443 \u0410\u0444\u0440\u0438\u043a\u0438\u043d \u0420\u0435\u0441\u043f\u0443\u0431\u043b\u0438\u043a\u0430","name:ta":"\u0bae\u0ba4\u0bcd\u0ba4\u0bbf\u0baf \u0b86\u0baa\u0bcd\u0bb0\u0bbf\u0b95\u0bcd\u0b95\u0b95\u0bcd \u0b95\u0bc1\u0b9f\u0bbf\u0baf\u0bb0\u0b9a\u0bc1","name:tg":"\u04b6\u0443\u043c\u04b3\u0443\u0440\u0438\u0438 \u0410\u0444\u0440\u0438\u049b\u043e\u0438 \u041c\u0430\u0440\u043a\u0430\u0437\u04e3","name:ca":"Rep\u00fablica Centreafricana","name:te":"\u0c2e\u0c27\u0c4d\u0c2f\u0c2e \u0c06\u0c2b\u0c4d\u0c30\u0c3f\u0c15\u0c3e \u0c30\u0c3f\u0c2a\u0c2c\u0c4d\u0c32\u0c3f\u0c15\u0c4d","name:cy":"Gweriniaeth Canolbarth Affrica","name:hr":"Centralna Afri\u010dka Republika","name:da":"Centralafrikanske Republik","name:de":"Zentralafrikanische Republik","name:dz":"\u0f66\u0f7a\u0f53\u0f0b\u0f4a\u0f63\u0f0b \u0f68\u0f55\u0f0b\u0f62\u0f72\u0f0b\u0f40\u0f71\u0f53\u0f0b \u0f62\u0f72\u0f0b\u0f54\u0f56\u0f0b\u0f63\u0f72\u0f40","source":"openstreetmap.org","name:ts":"Afrika Wale Xikarhi","name:dv":"\u0789\u07ac\u078b\u07aa\u078c\u07ac\u0783\u07ad \u0787\u07ac\u078a\u07b0\u0783\u07a8\u0786\u07a7\u078e\u07ac \u0796\u07aa\u0789\u07b0\u0780\u07ab\u0783\u07a8\u0787\u07b0\u0794\u07a7","name:lv":"Centr\u0101l\u0101frikas Republika","name:lt":"Centrin\u0117s Afrikos Respublika","name:uz":"Markaziy Afrika Respublikasi","name:kk":"\u041e\u0440\u0442\u0430\u043b\u044b\u049b \u0410\u0444\u0440\u0438\u043a\u0430 \u0420\u0435\u0441\u043f\u0443\u0431\u043b\u0438\u043a\u0430\u0441\u044b","name:ur":"\u0648\u0633\u0637 \u0627\u0641\u0631\u06cc\u0642\u06cc \u062c\u0645\u06c1\u0648\u0631\u06cc\u06c1","name:lb":"Zentralafrikanesch Republik","name:la":"Respublica Africae Mediae","name:lg":"Lipubulika eya Senturafiriki","name:uk":"\u0426\u0435\u043d\u0442\u0440\u0430\u043b\u044c\u043d\u043e-\u0410\u0444\u0440\u0438\u043a\u0430\u043d\u0441\u044c\u043a\u0430 \u0420\u0435\u0441\u043f\u0443\u0431\u043b\u0456\u043a\u0430","name:ug":"\u0626\u0648\u062a\u062a\u06c7\u0631\u0627 \u0626\u0627\u0641\u0631\u0649\u0642\u0627 \u062c\u06c7\u0645\u06be\u06c7\u0631\u0649\u064a\u0649\u062a\u0649","name:li":"Centraal Afrika","name:ln":"Repibiki ya Afr\u00edka ya K\u00e1ti","name:lo":"\u0eaa\u0eb2\u0e97\u0eb2\u0ea5\u0eb0\u0e99\u0eb0\u0ea5\u0eb1\u0e94\u0ead\u0eb1\u0e9a\u0e9f\u0ebc\u0eb4\u0e81\u0e81\u0eb2\u0e81\u0eb2\u0e87","name:el":"\u039a\u03b5\u03bd\u03c4\u03c1\u03bf\u03b1\u03c6\u03c1\u03b9\u03ba\u03b1\u03bd\u03b9\u03ba\u03ae \u0394\u03b7\u03bc\u03bf\u03ba\u03c1\u03b1\u03c4\u03af\u03b1","name:eo":"Centr-Afrika Respubliko","name:en":"Central African Republic","name":"Centrafrique","name:ee":"Titina Afrika rep\u0254blik nutome","name:th":"\u0e2a\u0e32\u0e18\u0e32\u0e23\u0e13\u0e23\u0e31\u0e10\u0e41\u0e2d\u0e1f\u0e23\u0e34\u0e01\u0e32\u0e01\u0e25\u0e32\u0e07","name:eu":"Afrika Erdiko Errepublika","name:et":"Kesk-Aafrika Vabariik","name:es":"Rep\u00fablica Centroafricana","name:ia":"Republica African Central","name:rm":"Republica Centralafricana","name:rn":"Repubulika ya Santarafurika","name:az":"Orta Afrika respublikas\u0131","name:ie":"Central African Republic","name:id":"Republik Afrika Tengah","name:ar":"\u062c\u0645\u0647\u0648\u0631\u064a\u0629 \u0623\u0641\u0631\u064a\u0642\u064a\u0627 \u0627\u0644\u0648\u0633\u0637\u0649","name:io":"Centrafrika","name:ak":"Afrika Finimfin Man","name:am":"\u12e8\u1218\u12ab\u12a8\u1208\u129b\u12cd \u12a0\u134d\u122a\u12ab \u122a\u1350\u1265\u120a\u12ad","name:it":"Repubblica Centrafricana","name:an":"Republica Centroafricana","name:ru":"\u0426\u0435\u043d\u0442\u0440\u0430\u043b\u044c\u043d\u043e\u0430\u0444\u0440\u0438\u043a\u0430\u043d\u0441\u043a\u0430\u044f \u0420\u0435\u0441\u043f\u0443\u0431\u043b\u0438\u043a\u0430","name:rw":"Repubulika ya Santara Afurika","name:af":"Sentraal-Afrikaanse Republiek","name:zu":"i-Central African Republic","name:no":"Den sentralafrikanske republikk","name:zh-yue":"\u4e2d\u975e\u5171\u548c\u570b","name:zh":"\u4e2d\u975e","name:so":"Jamhuuriyadda Afrikada Dhexe","name:sn":"Central African Republic","name:sl":"Srednjeafri\u0161ka republika","name:sk":"Stredoafrick\u00e1 republika","name:ja":"\u4e2d\u592e\u30a2\u30d5\u30ea\u30ab\u5171\u548c\u56fd","name:si":"\u0db8\u0db0\u0dca\u200d\u0dba\u0db8 \u0d85\u0db4\u0dca\u200d\u0dbb\u0dd2\u0d9a\u0dcf\u0db1\u0dd4 \u0da2\u0db1\u0dbb\u0da2\u0dba","name:sh":"Srednjoafri\u010dka Republika","name:sg":"K\u00f6d\u00f6r\u00f6s\u00ease t\u00ee B\u00eaafr\u00eeka","name:se":"Gaska-Afrihk\u00e1 d\u00e1ssev\u00e1ldi","name:sc":"Tzentr\u00e0frica","name:sa":"\u0915\u0947\u0928\u094d\u0926\u094d\u0930\u0940\u092f \u0905\u092b\u094d\u0930\u0940\u0915\u093e \u0917\u0923\u0930\u093e\u091c\u094d\u092f\u092e\u094d","name:bs":"Centralno Afri\u010dka Republika","name:bm":"Santarafiriki","name:bn":"\u09ae\u09a7\u09cd\u09af \u0986\u09ab\u09cd\u09b0\u09bf\u0995\u09be\u09a8 \u09aa\u09cd\u09b0\u099c\u09be\u09a4\u09a8\u09cd\u09a4\u09cd\u09b0","name:bo":"\u0f51\u0f56\u0f74\u0f66\u0f0b\u0f68\u0f0b\u0f67\u0fa5\u0f7a\u0f0b\u0f62\u0f72\u0f0b\u0f41\u0f53\u0f0b\u0f62\u0f72\u0f0b\u0f54\u0f54\u0f0b\u0f63\u0f72\u0f40\u0f0d","name:br":"Republik Kreizafrikan","name:sw":"Jamhuri ya Afrika ya Kati","name:be":"\u0426\u044d\u043d\u0442\u0440\u0430\u043b\u044c\u043d\u0430-\u0410\u0444\u0440\u044b\u043a\u0430\u043d\u0441\u043a\u0430\u044f \u0420\u044d\u0441\u043f\u0443\u0431\u043b\u0456\u043a\u0430","name:su":"R\u00e9publik Afrika Tengah","name:bg":"\u0426\u0435\u043d\u0442\u0440\u0430\u043b\u043d\u043e\u0430\u0444\u0440\u0438\u043a\u0430\u043d\u0441\u043a\u0430 \u0420\u0435\u043f\u0443\u0431\u043b\u0438\u043a\u0430","name:ss":"Umkhatsi we-Afrikha","name:sr":"\u0426\u0435\u043d\u0442\u0440\u0430\u043b\u043d\u043e\u0430\u0444\u0440\u0438\u0447\u043a\u0430 \u0420\u0435\u043f\u0443\u0431\u043b\u0438\u043a\u0430","name:sq":"Republika Qendrore e Afrik\u00ebs","name:jv":"Republik Afrika Tengah","name:pt":"Rep\u00fablica Centro-Africana","name:ps":"\u062f \u0645\u0646\u0681\u0646\u06cc \u0627\u0641\u0631\u064a\u0642\u0627 \u0648\u0644\u0633\u0645\u0634\u0631\u064a\u0632\u0647","name:oc":"Centreafrica","min_zoom":2.0,"name:ro":"Republica Centrafrican\u0103","name:zh-min-nan":"Tiong-hui Ki\u014dng-h\u00f4-kok","name:os":"\u0426\u0435\u043d\u0442\u0440\u0430\u043b\u043e\u043d \u0410\u0444\u0440\u0438\u043a\u00e6\u0439\u044b \u0420\u0435\u0441\u043f\u0443\u0431\u043b\u0438\u043a\u00e6","name:or":"\u0b2e\u0b27\u0b4d\u0b5f \u0b06\u0b2b\u0b4d\u0b30\u0b3f\u0b15\u0b40\u0b5f \u0b17\u0b23\u0b24\u0b28\u0b4d\u0b24\u0b4d\u0b30","name:pl":"Republika \u015arodkowoafryka\u0144ska","name:pa":"\u0a2e\u0a71\u0a27 \u0a05\u0a2b\u0a3c\u0a30\u0a40\u0a15\u0a40 \u0a17\u0a23\u0a30\u0a3e\u0a1c","name:tr":"Orta Afrika Cumhuriyeti","name:hi":"\u0938\u0947\u0902\u091f\u094d\u0930\u0932 \u0905\u092b\u094d\u0930\u0940\u0915\u0928 \u0930\u093f\u092a\u092c\u094d\u0932\u093f\u0915","name:sv":"Centralafrikanska republiken","name:he":"\u05d4\u05e8\u05e4\u05d5\u05d1\u05dc\u05d9\u05e7\u05d4 \u05e9\u05dc \u05de\u05e8\u05db\u05d6 \u05d0\u05e4\u05e8\u05d9\u05e7\u05d4","name:ha":"Jamhuriyar Afirka Ta Tsakiya","name:hy":"\u053f\u0565\u0576\u057f\u0580\u0578\u0576\u0561\u056f\u0561\u0576 \u0531\u0586\u0580\u056b\u056f\u0575\u0561\u0576 \u0540\u0561\u0576\u0580\u0561\u057a\u0565\u057f\u0578\u0582\u0569\u0575\u0578\u0582\u0576","name:ht":"Repiblik santafrik","name:hu":"K\u00f6z\u00e9p-Afrikai K\u00f6ztarsas\u00e1g","name:qu":"Chawpi Aphrika Republika","population":4500000,"kind":"country","name:is":"Mi\u00f0-Afr\u00edkul\u00fd\u00f0veldi\u00f0","name:yo":"Or\u00edl\u1eb9\u0301\u00e8de \u00c0rin g\u00f9ngun \u00c1f\u00edr\u00edk\u00e0","name:mt":"Repubblika Afrikana \u010aentrali","name:ms":"Republik Afrika Tengah","name:mr":"\u0915\u0947\u0902\u0926\u094d\u0930\u0940\u092f \u0905\u092b\u094d\u0930\u093f\u0915\u0940 \u092a\u094d\u0930\u091c\u093e\u0938\u0924\u094d\u0924\u093e\u0915","name:my":"\u1021\u101c\u101a\u103a\u1015\u102d\u102f\u1004\u103a\u1038 \u1021\u102c\u1016\u101b\u102d\u1000 \u1015\u103c\u100a\u103a\u1011\u1031\u102c\u1004\u103a\u1005\u102f","int_name":"Central African Republic","name:mg":"Repoblika Ivon'Afrika","name:ml":"\u0d38\u0d46\u0d7b\u0d1f\u0d4d\u0d30\u0d7d \u0d06\u0d2b\u0d4d\u0d30\u0d3f\u0d15\u0d4d\u0d15\u0d7b \u0d31\u0d3f\u0d2a\u0d4d\u0d2a\u0d2c\u0d4d\u0d32\u0d3f\u0d15\u0d4d","name:vi":"Trung Phi","name:mn":"\u0422\u04e9\u0432 \u0410\u0444\u0440\u0438\u043a\u0438\u0439\u043d \u0411\u04af\u0433\u0434 \u041d\u0430\u0439\u0440\u0430\u043c\u0434\u0430\u0445 \u0423\u043b\u0441","id":432424956,"name:mk":"\u0426\u0435\u043d\u0442\u0440\u0430\u043b\u043d\u0430 \u0410\u0444\u0440\u0438\u043a\u0430\u043d\u0441\u043a\u0430 \u0420\u0435\u043f\u0443\u0431\u043b\u0438\u043a\u0430","name:vo":"Z\u00e4noda-Frikop","name:fa":"\u062c\u0645\u0647\u0648\u0631\u06cc \u0622\u0641\u0631\u06cc\u0642\u0627\u06cc \u0645\u0631\u06a9\u0632\u06cc","name:ff":"Ndenndaandi Santarafrik","name:fi":"Keski-Afrikan tasavalta","name:fo":"Mi\u00f0afrikal\u00fd\u00f0veldi\u00f0","name:fy":"de Sintraal-Afrikaanske Republyk","name:nl":"Centraal-Afrikaanse Republiek","name:nn":"Den sentralafrikanske republikken","alt_name:ru":"\u0426\u0410\u0420","name:na":"Ripubrikin Aprika Yugaga","name:ne":"\u0915\u0947\u0928\u094d\u0926\u094d\u0930\u0940\u092f \u0905\u092b\u094d\u0930\u093f\u0915\u0940 \u0917\u0923\u0924\u0928\u094d\u0924\u094d\u0930","name:wo":"R\u00e9ewum Diggu Afrig","name:nv":"Naakaii \u0141izhinii Bik\u00e9yah Be\u02bca\u0142n\u00ed\u00ed\u02bc","name:ga":"Poblacht na hAfraice L\u00e1ir","name:gd":"Poblachd Meadhan Afraga","name:gl":"Rep\u00fablica Centroafricana","name:gv":"Pobblaght yn Affrick Veanagh","name:gu":"\u0ab8\u0ac7\u0a82\u0a9f\u0acd\u0ab0\u0ab2 \u0a86\u0aab\u0acd\u0ab0\u0abf\u0a95\u0aa8 \u0ab0\u0ac0\u0aaa\u0aac\u0acd\u0ab2\u0abf\u0a95","name:tt":"\u04ae\u0437\u04d9\u043a \u0410\u0444\u0440\u0438\u043a\u0430 \u0496\u04e9\u043c\u04bb\u04af\u0440\u0438\u044f\u0442\u0435"},"coordinates":[3641,1313]},{"type":"Point","properties":{"name:ka":"\u10d4\u10d9\u10d5\u10d0\u10e2\u10dd\u10e0\u10e3\u10da\u10d8 \u10d2\u10d5\u10d8\u10dc\u10d4\u10d0","name:ko":"\uc801\ub3c4 \uae30\ub2c8","name:cv":"\u042d\u043a\u0432\u0430\u0442\u043e\u0440\u0438\u0430\u043b\u043b\u04d1 \u0413\u0432\u0438\u043d\u0435\u0439","name:km":"\u17a0\u17d2\u1782\u17b8\u178e\u17c1\u17a2\u17c1\u1780\u17d2\u179c\u17b6\u1791\u17d0\u179a","name:cs":"Rovn\u00edkov\u00e1 Guinea","name:ki":"Ginekweta","name:co":"Guinea Equatoriale","name:tk":"Ekwatorial Gwine\u00fda","name:ku":"G\u00een\u00eaya Rojbend\u00ee","name:ti":"\u12a2\u12b3\u1276\u122a\u12eb\u120d \u130a\u1292","name:ks":"\u0627\u0650\u06a9\u0648\u0650\u0679\u0648\u0631\u0650\u06cc\u064e\u0644 \u06af\u0650\u0646\u06cc","name:to":"\u02bbEkueta Kini","name:tl":"Gineang Ekwatoriyal","name:ce":"\u0414\u0443\u044c\u043d\u0435\u043d\u0430 \u0430\u0441\u0430\u043d\u0430\u043d \u0413\u0432\u0438\u043d\u0435","name:ta":"\u0b8e\u0b95\u0bcd\u0b95\u0bc1\u0bb5\u0b9f\u0bcb\u0bb0\u0bbf\u0baf\u0bb2\u0bcd \u0b95\u0bbf\u0ba9\u0bbf","name:tg":"\u0413\u0432\u0438\u043d\u0435\u044f\u0438 \u0418\u0441\u0442\u0438\u0432\u043e\u04e3","name:ca":"Guinea Equatorial","name:te":"\u0c0e\u0c15\u0c4d\u0c35\u0c47\u0c1f\u0c4b\u0c30\u0c3f\u0c2f\u0c3e\u0c32\u0c4d \u0c17\u0c3f\u0c28\u0c3f\u0c2f\u0c3e","name:cy":"Guinea Gyhydeddol","name:hr":"Ekvatorska Gvineja","name:da":"\u00c6kvatorialguinea","name:de":"\u00c4quatorialguinea","name:dz":"\u0f68\u0f7a\u0f0b\u0f40\u0f74\u0f0b\u0f4a\u0f7c\u0f0b\u0f62\u0f7a\u0f63\u0f0b \u0f42\u0f72\u0f0b\u0f53\u0f72","source":"openstreetmap.org","name:kn":"\u0cb5\u0cbf\u0cb7\u0cc1\u0cb5\u0ca6\u0ccd\u0cb0\u0cc7\u0c96\u0cc6\u0caf \u0c97\u0cbf\u0ca8\u0cbf","name:dv":"\u0787\u07a8\u0786\u07aa\u0787\u07ac\u0793\u07af\u0783\u07a8\u0787\u07a6\u078d\u07b0 \u078e\u07a8\u0782\u07a9","name:lv":"Ekvatori\u0101l\u0101 Gvineja","name:lt":"Pusiaujo Gvin\u0117ja","name:uz":"Ekvatorli Gvineya","name:kk":"\u0415\u043a\u0443\u0430\u0442\u043e\u0440 \u0413\u0438\u043d\u0438\u044f","name:ur":"\u0627\u0633\u062a\u0648\u0627\u0626\u06cc \u06af\u0646\u06cc","name:lb":"Equatorialguinea","name:la":"Guinea Aequatorensis","name:lg":"Gayana ey'oku ekweta","name:uk":"\u0415\u043a\u0432\u0430\u0442\u043e\u0440\u0456\u0430\u043b\u044c\u043d\u0430 \u0413\u0432\u0456\u043d\u0435\u044f","name:ug":"\u00c9kwator Gwin\u00e9yisi","name:li":"Equatoriaal Guinee","name:ln":"Gine-Ekwatorial","name:lo":"\u0ead\u0eb5\u0e84\u0ebb\u0ea7\u0ec2\u0e97\u0ec0\u0ea5\u0e8d\u0e81\u0eb5\u0ec0\u0e99\u0e8d","name:el":"\u0399\u03c3\u03b7\u03bc\u03b5\u03c1\u03b9\u03bd\u03ae \u0393\u03bf\u03c5\u03b9\u03bd\u03ad\u03b1","name:eo":"Ekvatora Gvineo","name:en":"Equatorial Guinea","name":"Guinea Ecuatorial","name:ee":"Ekuatorial Guini nutome","name:th":"\u0e1b\u0e23\u0e30\u0e40\u0e17\u0e28\u0e2d\u0e34\u0e40\u0e04\u0e27\u0e17\u0e2d\u0e40\u0e23\u0e35\u0e22\u0e25\u0e01\u0e34\u0e19\u0e35","name:eu":"Ekuatore Ginea","name:et":"Ekvatoriaal-Guinea","name:ia":"Guinea Equatorial","name:rm":"Guinea Equatoriala","name:rn":"Gineya Ekwatoriyali","name:az":"Ekvatorial Qvineya","name:ie":"Equatorial Guin\u00e9a","name:id":"Guinea Khatulistiwa","name:ar":"\u063a\u064a\u0646\u064a\u0627 \u0627\u0644\u0627\u0633\u062a\u0648\u0627\u0626\u064a\u0629","name:io":"Equatorala Guinea","name:ak":"Gini Ikuweta","name:am":"\u12a2\u12b3\u1276\u122a\u12eb\u120d \u130a\u1294","name:it":"Guinea Equatoriale","name:ru":"\u042d\u043a\u0432\u0430\u0442\u043e\u0440\u0438\u0430\u043b\u044c\u043d\u0430\u044f \u0413\u0432\u0438\u043d\u0435\u044f","name:rw":"Gineya Ekwatoriyale","name:af":"Ekwatoriaal-Guinee","name:zu":"i-Equatorial Guinea","name:zh-yue":"\u8d64\u9053\u757f\u5167\u4e9e","name:zh":"\u8d64\u9053\u51e0\u5185\u4e9a","name:so":"Equatorial Guinea","name:sn":"Equatorial Guinea","name:sl":"Ekvatorialna Gvineja","name:sk":"Rovn\u00edkov\u00e1 Guinea","name:ja":"\u8d64\u9053\u30ae\u30cb\u30a2","name:si":"\u0dc3\u0db8\u0d9a \u0d9c\u0dd2\u0db1\u0dd2\u0dba\u0dcf\u0dc0","name:sh":"Ekvatorijalna Gvineja","name:sg":"Gin\u00ebe t\u00ee Ekuat\u00ebre","name:se":"Beaivved\u00e1si Guinea","name:sc":"Guinea Ecuadoriale","name:br":"Ginea ar C\u2019heheder","name:bs":"Ekvatorijalna Gvineja","name:bm":"Cemajan Gine","name:bn":"\u09a8\u09bf\u09b0\u0995\u09cd\u09b7\u09c0\u09af\u09bc \u0997\u09bf\u09a8\u09bf","name:bo":"\u0f68\u0f72\u0f0b\u0f41\u0f74\u0f60\u0f0b\u0f4a\u0f7c\u0f0b\u0f62\u0f63\u0f0b\u0f42\u0f72\u0f0b\u0f53\u0f7a\u0f0d","name:sw":"Guinea ya Ikweta","name:be":"\u042d\u043a\u0432\u0430\u0442\u0430\u0440\u044b\u044f\u043b\u044c\u043d\u0430\u044f \u0413\u0432\u0456\u043d\u0435\u044f","name:su":"Guin\u00e9a Khatulistiwa","name:bg":"\u0415\u043a\u0432\u0430\u0442\u043e\u0440\u0438\u0430\u043b\u043d\u0430 \u0413\u0432\u0438\u043d\u0435\u044f","name:sr":"\u0415\u043a\u0432\u0430\u0442\u043e\u0440\u0438\u0458\u0430\u043b\u043d\u0430 \u0413\u0432\u0438\u043d\u0435\u0458\u0430","name:sq":"Guineja Ekuatoriale","name:jv":"Guinea Khatulistiwa","name:pt":"Guin\u00e9 Equatorial","name:ps":"\u0627\u06d0\u06a9\u0648\u0627\u067c\u0648\u0631\u064a\u0627\u0644 \u06ab\u0648\u064a\u0646\u0627","name:oc":"Guin\u00e8a Eq\u00fcatoriala","min_zoom":2.0,"name:ro":"Guineea Ecuatorial\u0103","name:zh-min-nan":"Chhiah-t\u014d Guinea","name:os":"\u042d\u043a\u0432\u0430\u0442\u043e\u0440\u0438\u0430\u043b\u043e\u043d \u0413\u0432\u0438\u043d\u0435\u0439","name:or":"\u0b07\u0b15\u0b4d\u0b2c\u0b3e\u0b1f\u0b47\u0b30\u0b3f\u0b06\u0b32\u0b4d \u0b17\u0b41\u0b07\u0b28\u0b3f\u0b06","name:pl":"Gwinea R\u00f3wnikowa","name:pa":"\u0a2d\u0a42-\u0a2e\u0a71\u0a27 \u0a30\u0a47\u0a16\u0a3e\u0a08 \u0a17\u0a3f\u0a28\u0a40","name:tr":"Ekvator Ginesi","name:hi":"\u0908\u0915\u094d\u0935\u0940\u091f\u094b\u0930\u093f\u092f\u0932 \u0917\u093f\u0928\u0940","name:sv":"Ekvatorialguinea","name:he":"\u05d2\u05d9\u05e0\u05d9\u05d0\u05d4 \u05d4\u05de\u05e9\u05d5\u05d5\u05e0\u05d9\u05ea","name:ha":"Gini Ta Ikwaita","name:hy":"\u0540\u0561\u057d\u0561\u0580\u0561\u056f\u0561\u056e\u0561\u0575\u056b\u0576 \u0533\u057e\u056b\u0576\u0565\u0561","name:ht":"Gine ekwateryal","name:hu":"Egyenl\u00edt\u0151i-Guinea","name:qu":"Chawpipacha Khiniya","population":1000000,"kind":"country","name:ts":"Equatorial Guinea","name:is":"Mi\u00f0baugs-G\u00ednea","name:yi":"\u05e2\u05e7\u05d5\u05d5\u05d0\u05d8\u05d0\u05e8\u05d9\u05e9\u05e2 \u05d2\u05d9\u05e0\u05e2","name:yo":"Or\u00edl\u1eb9\u0301\u00e8de Ekutoria Gini","name:mt":"Ginea Ekwatorjali","name:ms":"Guinea Khatulistiwa","name:mr":"\u0907\u0915\u094d\u0935\u0947\u091f\u094b\u0930\u0940\u092f\u0932 \u0917\u093f\u0928\u0940","name:my":"\u1021\u102e\u1000\u103d\u1031\u1010\u102c \u1002\u102e\u101b\u102c\u1014\u102c","official_name":"Rep\u00fablica de Guinea Ecuatorial;R\u00e9publique de Guin\u00e9e \u00e9quatoriale;Rep\u00fablica da Guin\u00e9 Equatorial","name:kw":"Gyni Ekwadoriel","name:mg":"Guinea Ekoatera","name:ml":"\u0d07\u0d15\u0d4d\u0d35\u0d31\u0d4d\u0d31\u0d4b\u0d31\u0d3f\u0d2f\u0d32\u0d4d\u200d \u0d17\u0d3f\u0d28\u0d3f","name:vi":"Guinea X\u00edch \u0110\u1ea1o","name:mn":"\u042d\u043a\u0432\u0430\u0442\u043e\u0440\u044b\u043d \u0413\u0432\u0438\u043d\u0435\u0439","name:mi":"Kini Ekuatoria","id":424313853,"name:mk":"\u0415\u043a\u0432\u0430\u0442\u043e\u0440\u0438\u0458\u0430\u043b\u043d\u0430 \u0413\u0432\u0438\u043d\u0435\u0458\u0430","name:vo":"Kveatora-Giney\u00e4n","name:fa":"\u06af\u06cc\u0646\u0647 \u0627\u0633\u062a\u0648\u0627\u06cc\u06cc","name:ff":"Ginee Ekuwaatoriyaal","name:fi":"P\u00e4iv\u00e4ntasaajan Guinea","name:fo":"Ekvatorguinea","name:fr":"Guin\u00e9e \u00e9quatoriale","name:fy":"Ekwatoriaal Guinee","int_name":"Equatorial Guinea","name:nl":"Equatoriaal-Guinea","name:nn":"Ekvatorial-Guinea","name:no":"Ekvatorial-Guinea","name:na":"Gini t Ekwador","name:nb":"Ekvatorial-Guinea","name:ne":"\u092d\u0942-\u092e\u0927\u094d\u092f\u0940\u092f \u0917\u093f\u0928\u0940","name:wo":"Gineg yamoo","name:nv":"G\u00edn\u00ed Nahasdz\u00e1\u00e1n A\u0142n\u00edi\u02bcgi Si\u02bc\u00e1n\u00edg\u00ed\u00ed","name:ga":"An Ghuine Mhe\u00e1nchriosach","name:gd":"Gini Mheadhan-Chriosach","name:gv":"Guinea Chryss ny Cruinney","name:gu":"\u0a87\u0a95\u0acd\u0ab5\u0ac7\u0a9f\u0acb\u0ab0\u0abf\u0aaf\u0ab2 \u0a97\u0abf\u0aa8\u0ac0","name:tt":"\u042d\u043a\u0432\u0430\u0442\u043e\u0440\u0438\u0430\u043b\u044c \u0413\u0432\u0438\u043d\u0435\u044f"},"coordinates":[1915,301]},{"type":"Point","properties":{"name:cy":"S\u00e3o Tom\u00e9 a Pr\u00edncipe","name:mt":"Sao Tome and Principe","name:ko":"\uc0c1\ud22c\uba54 \ud504\ub9b0\uc2dc\ud398","name:kn":"\u0cb8\u0cbe\u0cb5\u0ccb \u0c9f\u0ccb\u0cae\u0ccd \u0cae\u0ca4\u0ccd\u0ca4\u0cc1 \u0caa\u0ccd\u0cb0\u0cbf\u0ca8\u0ccd\u0cb8\u0cbf\u0caa\u0cc6","name:km":"\u179f\u17c5\u200b\u178f\u17bb\u17c6 \u1793\u17b7\u1784\u200b\u1796\u17d2\u179a\u17b8\u1793\u179f\u17ca\u17b8\u1794\u17c9\u17c1","name:kl":"S\u00e3o Tom\u00e9 aamma Pr\u00edncipe","name:cs":"Svat\u00fd Tom\u00e1\u0161 a Princ\u016fv ostrov","alt_name:eo":"Santomeo kaj Principeo","name:ki":"Sao Tome na Principe","name:tr":"S\u00e3o Tom\u00e9 ve Pr\u00edncipe","name:ku":"Sao Tome \u00fb Pr\u00eens\u00eepe","name:ti":"\u1233\u12a6 \u1276\u121c \u12a5\u1293 \u1355\u122a\u1295\u1232\u1354","name:ks":"\u0633\u0627\u0648 \u062a\u0648\u0645 \u062a\u06c1\u0655 \u067e\u0631\u065b\u0646\u0633\u0650\u067e\u06cc","name:to":"Sao Tome mo Pilinisipe","name:sv":"S\u00e3o Tom\u00e9 och Pr\u00edncipe","name:or":"\u0b38\u0b3e\u0b13 \u0b1f\u0b4b\u0b2e\u0b47 \u0b0f\u0b2c\u0b02 \u0b2a\u0b4d\u0b30\u0b3f\u0b28\u0b38\u0b3f\u0b2a\u0b3f","name:pl":"Wyspy \u015awi\u0119tego Tomasza i Ksi\u0105\u017c\u0119ca","name:ta":"\u0b9a\u0bbe\u0bb5\u0bcd \u0ba4\u0bcb\u0bae\u0bcd \u0bae\u0bb1\u0bcd\u0bb1\u0bc1\u0bae\u0bcd \u0baa\u0bcd\u0bb0\u0bbf\u0ba9\u0bcd\u0b9a\u0bbf\u0baa\u0bbf","name:ca":"S\u00e3o Tom\u00e9 i Pr\u00edncipe","name:te":"\u0c38\u0c3e\u0c35\u0c4b\u0c1f\u0c4b\u0c2e\u0c4d \u0c2e\u0c30\u0c3f\u0c2f\u0c41 \u0c2a\u0c4d\u0c30\u0c3f\u0c28\u0c4d\u0c38\u0c3f\u0c2a\u0c47","name:hu":"S\u00e3o Tom\u00e9 \u00e9s Pr\u00edncipe","name:ro":"Sao Tome \u0219i Principe","name:ka":"\u10e1\u10d0\u10dd-\u10e2\u10dd\u10db\u10d4 \u10d3\u10d0 \u10de\u10e0\u10d8\u10dc\u10e1\u10d8\u10de\u10d8","name:hr":"Sveti Toma i Princip","name:da":"S\u00e3o Tom\u00e9 og Pr\u00edncipe","name:de":"S\u00e3o Tom\u00e9 und Pr\u00edncipe","name:dz":"\u0f66\u0f5d\u0f0b \u0f4a\u0f7c\u0f0b\u0f58\u0f7a\u0f0b \u0f68\u0f7a\u0f53\u0f4c\u0f0b \u0f54\u0fb2\u0f80\u0f53\u0f0b\u0f66\u0f72\u0f0b\u0f54\u0f7a","source":"openstreetmap.org","name:lv":"Santome un Prinsipi","name:lt":"San Tom\u0117 ir Prinsip\u0117","name:hi":"\u0938\u093e\u0909-\u0924\u094b\u092e-\u092a\u094d\u0930\u093f\u0902\u0938\u093f\u092a","name:he":"\u05e1\u05d0\u05d5 \u05d8\u05d5\u05de\u05d4 \u05d5\u05e4\u05e8\u05d9\u05e0\u05e1\u05d9\u05e4\u05d4","kind":"country","name:ur":"\u0633\u0627\u0624 \u0679\u0648\u0645 \u0627\u0648\u0631 \u067e\u0631\u0646\u0633\u067e\u06d2","name:lb":"S\u00e3o Tom\u00e9 a Pr\u00edncipe","name:la":"Insulae Sancti Thomae et Principis","name:lg":"Sanitome ne Purincipe","name:uk":"\u0421\u0430\u043d-\u0422\u043e\u043c\u0435 \u0456 \u041f\u0440\u0438\u043d\u0441\u0456\u043f\u0456","name:hy":"\u054d\u0561\u0576-\u0539\u0578\u0574\u0565-\u0553\u0580\u056b\u0576\u057d\u056b\u057a\u056b","min_zoom":2.0,"name:li":"S\u00e3o Tom\u00e9 en Pr\u00edncipe","name:ln":"Sao Tom\u00e9 mp\u00e9 Presip\u025b","name:lo":"\u0ec0\u0e8a\u0ebb\u0eb2\u0e95\u0eb9\u0ec0\u0ea1\u0ec1\u0ea5\u0eb0\u0e9e\u0ea3\u0eb4\u0e99\u0e8a\u0eb4\u0e9b\u0eb5","population":206178,"name:el":"\u03a3\u03ac\u03bf \u03a4\u03bf\u03bc\u03ad \u03ba\u03b1\u03b9 \u03a0\u03c1\u03af\u03bd\u03c3\u03b9\u03c0\u03b5","name:eo":"Sao-Tomeo kaj Principeo","name:en":"S\u00e3o Tom\u00e9 and Pr\u00edncipe","name":"S\u00e3o Tom\u00e9 e Pr\u00edncipe","name:ee":"S\u00e3o Tom\u00e9 kple Pr\u00edncipe nutome","name:th":"\u0e1b\u0e23\u0e30\u0e40\u0e17\u0e28\u0e40\u0e0b\u0e32\u0e15\u0e39\u0e40\u0e21\u0e41\u0e25\u0e30\u0e1b\u0e23\u0e34\u0e19\u0e0b\u0e34\u0e1b\u0e35","name:gu":"\u0ab8\u0abe\u0a93 \u0a9f\u0ac9\u0aae \u0a85\u0aa8\u0ac7 \u0aaa\u0acd\u0ab0\u0abf\u0a82\u0ab8\u0abf\u0aaa\u0ac7","name:eu":"Sao Tome eta Principe","name:et":"S\u00e3o Tom\u00e9 ja Pr\u00edncipe","name:nl":"Sao Tom\u00e9 en Principe","name:es":"Santo Tom\u00e9 y Pr\u00edncipe","name:ml":"\u0d38\u0d3e\u0d35\u0d4b \u0d31\u0d4d\u0d31\u0d2e\u0d46 \u0d06\u0d7b\u0d21\u0d4d \u0d2a\u0d4d\u0d30\u0d3f\u0d7b\u0d38\u0d3f\u0d2a\u0d4d\u0d2a\u0d3f","name:rm":"S\u00e3o Tom\u00e9 e Principe","name:rn":"Sawotome na Perensipe","name:az":"Sao Tom v\u0259 Prinsip","name:id":"Sao Tome dan Principe","name:ms":"S\u00e3o Tom\u00e9 dan Pr\u00edncipe","name:mr":"\u0938\u093e\u0913 \u091f\u094b\u092e \u0906\u0923\u093f \u092a\u094d\u0930\u093f\u0902\u0938\u093f\u092a\u0947","name:ar":"\u0633\u0627\u0646 \u062a\u0648\u0645\u064a \u0648\u0628\u0631\u064a\u0646\u0633\u064a\u0628\u064a","name:io":"San-Tome e Principe","int_name":"Sao Tome and Principe","name:is":"Sa\u00f3 T\u00f3me og Prins\u00edpe","name:am":"\u1233\u12a6 \u1276\u121c \u12a5\u1293 \u1355\u122a\u1295\u1232\u1354","name:vi":"S\u00e3o Tom\u00e9 v\u00e0 Pr\u00edncipe","name:ru":"\u0421\u0430\u043d-\u0422\u043e\u043c\u0435 \u0438 \u041f\u0440\u0438\u043d\u0441\u0438\u043f\u0438","name:mn":"\u0421\u0430\u043d-\u0422\u043e\u043c\u0435 \u0431\u0430 \u041f\u0440\u0438\u043d\u0441\u0438\u043f\u0438","id":249399429,"name:mk":"\u0421\u0430\u043e \u0422\u043e\u043c\u0435 \u0438 \u041f\u0440\u0438\u043d\u0447\u0438\u043f\u0435","name:af":"S\u00e3o Tom\u00e9 en Principe","name:zu":"i-S\u00e3o Tom\u00e9 kanye ne-Pr\u00edncipe","name:ha":"Sawo Tome Da Paransip","name:nn":"S\u00e3o Tom\u00e9 og Pr\u00edncipe","name:ff":"Sawo Tome e Perensipe","name:fi":"S\u00e3o Tom\u00e9 ja Pr\u00edncipe","name:no":"S\u00e3o Tom\u00e9 og Pr\u00edncipe","name:mg":"S\u00e3o Tom\u00e9-et-Pr\u00edncipe","name:fo":"Sao Tome og Prinsipi","name:fr":"Sao Tom\u00e9-et-Principe","name:fy":"Sao Tomee en Prinsyp","name:vo":"Saluda-Tome\u00e4n e Prinsipe\u00e4n","name:zh":"\u5723\u591a\u7f8e\u548c\u666e\u6797\u897f\u6bd4\/\u8056\u591a\u7f8e\u666e\u6797\u897f\u6bd4","name:gv":"S\u00e3o Tom\u00e9 as Pr\u00edncipe","name:so":"S\u00e3o Tom\u00e9 and Pr\u00edncipe","name:sn":"S\u00e3o Tom\u00e9 and Pr\u00edncipe","name:sl":"Sao Tome in Principe","name:sk":"Sv\u00e4t\u00fd Tom\u00e1\u0161 a Princov ostrov","name:ja":"\u30b5\u30f3\u30c8\u30e1\u30fb\u30d7\u30ea\u30f3\u30b7\u30da","name:si":"\u0dc3\u0dcf\u0dbd\u0ddc \u0dc3\u0dc4 \u0db4\u0dca\u200d\u0dbb\u0dd2\u0db1\u0dca\u0dc3\u0dd2\u0db4\u0dca","name:fa":"\u0633\u0627\u0626\u0648\u062a\u0648\u0645\u0647 \u0648 \u067e\u0631\u06cc\u0646\u0633\u06cc\u067e","name:sg":"S\u00e2\u00f4 T\u00f6m\u00ea na Prins\u00eepe","name:se":"S\u00e3o Tom\u00e9 ja Pr\u00edncipe","name:ne":"\u0938\u093e\u0913 \u091f\u094b\u092e\u0947 \u0930 \u092a\u094d\u0930\u093f\u0928\u094d\u0938\u093f\u092a","name:br":"S\u00e3o Tom\u00e9 ha Pr\u00edncipe","name:bs":"Sao Tome i Principe","name:bm":"Sawo Tome-ni-Prinicipe","name:bn":"\u09b8\u09be\u0993\u099f\u09cb\u09ae\u09be \u0993 \u09aa\u09cd\u09b0\u09bf\u09a8\u09cd\u09b8\u09bf\u09aa\u09bf","name:bo":"\u0f66\u0f0b\u0f60\u0f7c\u0f0b\u0f4f\u0f7c\u0f51\u0f0b\u0f58\u0f51\u0f0d \u0f51\u0f44\u0f0c\u0f0d \u0f54\u0f84\u0f62\u0f72\u0f53\u0f0b\u0f66\u0f72\u0f0b\u0f54\u0f7a\u0f0d","name:sw":"Sao Tome na Principe","name:be":"\u0421\u0430\u043d-\u0422\u0430\u043c\u044d \u0456 \u041f\u0440\u044b\u043d\u0441\u0456\u043f\u0456","name:bg":"\u0421\u0430\u043e \u0422\u043e\u043c\u0435 \u0438 \u041f\u0440\u0438\u043d\u0446\u0438\u043f\u0435","name:sr":"\u0421\u0430\u043e \u0422\u043e\u043c\u0435 \u0438 \u041f\u0440\u0438\u043d\u0441\u0438\u043f\u0435","name:sq":"Sao Tome e Prinsipe","name:ga":"S\u00e3o Tom\u00e9 agus Pr\u00edncipe","name:gd":"S\u00e3o Tom\u00e9 agus Pr\u00edncipe","name:gl":"Santo Tom\u00e9 e Pr\u00edncipe","name:yo":"Or\u00edl\u1eb9\u0301\u00e8de Sao tomi ati pirii\u1e63ipi","name:ak":"S\u00e3o Tom\u00e9 and Pr\u00edncipe"},"coordinates":[1268,166]},{"type":"Point","properties":{"source":"naturalearthdata.com","kind":"locality","name":"Kano","population":3140000,"region_capital":true,"min_zoom":4.0,"id":7142},"coordinates":[1551,2240]},{"type":"Point","properties":{"kind":"region","name":"Diffa","kind_detail":"state","name:ar":"\u062f\u064a\u0641\u0627","source":"openstreetmap.org","min_zoom":4.0,"name:uk":"\u0414\u0456\u0444\u0444\u0430","name:ru":"\u0414\u0438\u0444\u0444\u0430","id":2465651752,"population":591788},"coordinates":[2398,2925]},{"type":"Point","properties":{"admin_level":"4","kind":"region","name":"Benue","kind_detail":"state","source":"openstreetmap.org","min_zoom":4.0,"name:uk":"\u0411\u0435\u043d\u0443\u0435","name:ru":"\u0411\u0435\u043d\u0443\u044d","id":2163706694},"coordinates":[1598,1372]},{"type":"Point","properties":{"admin_level":"4","kind":"region","name":"Plateau","kind_detail":"state","source":"openstreetmap.org","min_zoom":4.0,"name:uk":"\u041f\u043b\u0430\u0442\u043e","name:ru":"\u041f\u043b\u0430\u0442\u043e","id":2163706718},"coordinates":[1763,1691]},{"type":"Point","properties":{"admin_level":"4","kind":"region","name":"Kebbi","kind_detail":"state","source":"openstreetmap.org","min_zoom":4.0,"name:uk":"\u041a\u0435\u0431\u0431\u0456","name:ru":"\u041a\u0435\u0431\u0431\u0438","id":2163706708},"coordinates":[747,2132]},{"type":"Point","properties":{"admin_level":"4","kind":"region","name":"Kaduna","kind_detail":"state","name:ar":"\u0643\u0627\u062f\u0648\u0646\u0627","source":"openstreetmap.org","min_zoom":4.0,"name:uk":"\u041a\u0430\u0434\u0443\u043d\u0430","name:ru":"\u041a\u0430\u0434\u0443\u043d\u0430","id":2163706705},"coordinates":[1430,1938]},{"type":"Point","properties":{"admin_level":"4","kind":"region","name":"Estuaire","source":"openstreetmap.org","kind_detail":"state","min_zoom":4.0,"id":4346454112},"coordinates":[1723,80]},{"type":"Point","properties":{"admin_level":"4","kind":"region","name:en":"Centro Sur Province","name":"Centro Sur","kind_detail":"state","source":"openstreetmap.org","min_zoom":4.0,"id":4353431419},"coordinates":[1903,261]},{"type":"Point","properties":{"admin_level":"4","kind":"region","name:en":"Litoral Province","name":"Litoral","kind_detail":"state","source":"openstreetmap.org","min_zoom":4.0,"id":4353432657},"coordinates":[1792,299]},{"type":"Point","properties":{"admin_level":"4","kind":"region","name:en":"Wele-Nzas Province","name":"Wele-Nzas","kind_detail":"state","source":"openstreetmap.org","min_zoom":4.0,"id":4353431092},"coordinates":[2026,273]},{"type":"Point","properties":{"admin_level":"4","kind":"region","name:en":"Ki\u00e9-Ntem Province","name":"Ki\u00e9-Ntem","kind_detail":"state","source":"openstreetmap.org","min_zoom":4.0,"id":4353431743},"coordinates":[2000,384]},{"type":"Point","properties":{"admin_level":"4","kind":"region","name":"Bayelsa","kind_detail":"state","source":"openstreetmap.org","min_zoom":4.0,"name:uk":"\u0411\u0430\u0454\u043b\u0441\u0430","name:ru":"\u0411\u0430\u0439\u0435\u043b\u044c\u0441\u0430","id":2163706693},"coordinates":[1098,889]},{"type":"Point","properties":{"admin_level":"4","kind":"region","name":"Rivers","kind_detail":"state","source":"openstreetmap.org","min_zoom":4.0,"name:uk":"\u0420\u0456\u0432\u0435\u0440\u0441","name:ru":"\u0420\u0438\u0432\u0435\u0440\u0441","id":2163706719},"coordinates":[1249,904]},{"type":"Point","properties":{"admin_level":"4","kind":"region","name":"Delta","kind_detail":"state","source":"openstreetmap.org","min_zoom":4.0,"name:uk":"\u0414\u0435\u043b\u044c\u0442\u0430","name:ru":"\u0414\u0435\u043b\u044c\u0442\u0430","id":2163706697},"coordinates":[1125,1032]},{"type":"Point","properties":{"admin_level":"4","kind":"region","name":"Imo","kind_detail":"state","source":"openstreetmap.org","min_zoom":4.0,"name:uk":"\u0406\u043c\u043e","name:ru":"\u0418\u043c\u043e","id":2163706703},"coordinates":[1287,1043]},{"type":"Point","properties":{"admin_level":"4","kind":"region","name":"Abia","kind_detail":"state","source":"openstreetmap.org","min_zoom":4.0,"name:uk":"\u0410\u0431\u0456\u044f","name:ru":"\u0410\u0431\u0438\u044f","id":2163706687},"coordinates":[1368,1018]},{"type":"Point","properties":{"admin_level":"4","kind":"region","name":"Akwa Ibom","kind_detail":"state","source":"openstreetmap.org","min_zoom":4.0,"name:uk":"\u0410\u043a\u0432\u0430-\u0406\u0431\u043e\u043c","name:ru":"\u0410\u043a\u0432\u0430-\u0418\u0431\u043e\u043c","id":2163706690},"coordinates":[1427,922]},{"type":"Point","properties":{"admin_level":"4","kind":"region","name":"Littoral","kind_detail":"state","name:de":"K\u00fcste","source":"openstreetmap.org","min_zoom":4.0,"id":2169076382},"coordinates":[1831,785]},{"type":"Point","properties":{"admin_level":"4","kind":"region","name:en":"Southwest","name":"Sud-Ouest","kind_detail":"state","name:de":"S\u00fcdwest","source":"openstreetmap.org","min_zoom":4.0,"id":2169076416},"coordinates":[1680,944]},{"type":"Point","properties":{"admin_level":"4","kind":"region","name:en":"West","name":"Ouest","kind_detail":"state","name:pt":"Oeste","name:de":"West","source":"openstreetmap.org","min_zoom":4.0,"id":2169076403},"coordinates":[1939,1031]},{"type":"Point","properties":{"admin_level":"4","kind":"region","name":"Greater Accra Region","kind_detail":"state","name:de":"Gro\u00df-Accra Region","source":"openstreetmap.org","min_zoom":4.0,"name:uk":"\u0412\u0435\u043b\u0438\u043a\u0430 \u0410\u043a\u043a\u0440\u0430","name:ru":"\u0411\u043e\u043b\u044c\u0448\u0430\u044f \u0410\u043a\u043a\u0440\u0430","id":2661484221},"coordinates":[18,1085]},{"type":"Point","properties":{"source":"openstreetmap.org","kind":"region","name":"Pr\u00e9fecture de Golfe","kind_detail":"state","min_zoom":4.0,"id":3101380641},"coordinates":[222,1143]},{"type":"Point","properties":{"admin_level":"4","kind":"region","name":"Volta Region","kind_detail":"state","source":"openstreetmap.org","min_zoom":4.0,"name:uk":"\u0412\u043e\u043b\u044c\u0442\u0430","name:ru":"\u0412\u043e\u043b\u044c\u0442\u0430","id":2661665006},"coordinates":[74,1343]},{"type":"Point","properties":{"admin_level":"4","kind":"region","name":"Oyo","kind_detail":"state","source":"openstreetmap.org","min_zoom":4.0,"name:uk":"\u041e\u0439\u043e","name:ru":"\u041e\u0439\u043e","id":2163706717},"coordinates":[649,1533]},{"type":"Point","properties":{"admin_level":"4","kind":"region","name":"Ogun","kind_detail":"state","source":"openstreetmap.org","min_zoom":4.0,"name:uk":"\u041e\u0433\u0443\u043d","name:ru":"\u041e\u0433\u0443\u043d","id":2163706714},"coordinates":[626,1303]},{"type":"Point","properties":{"admin_level":"4","kind":"region","name":"Lagos","kind_detail":"state","source":"openstreetmap.org","min_zoom":4.0,"name:uk":"\u041b\u0430\u0433\u043e\u0441","name:ru":"\u041b\u0430\u0433\u043e\u0441","id":2163706711},"coordinates":[651,1218]},{"type":"Point","properties":{"admin_level":"4","kind":"region","name":"Ondo","kind_detail":"state","source":"openstreetmap.org","min_zoom":4.0,"name:uk":"\u041e\u043d\u0434\u043e","name:ru":"\u041e\u043d\u0434\u043e","id":2163706715},"coordinates":[921,1311]},{"type":"Point","properties":{"admin_level":"4","kind":"region","name":"Osun","kind_detail":"state","source":"openstreetmap.org","min_zoom":4.0,"name:uk":"\u041e\u0441\u0443\u043d","name:ru":"\u041e\u0441\u0443\u043d","id":2163706716},"coordinates":[819,1409]},{"type":"Point","properties":{"admin_level":"4","kind":"region","name":"Ekiti","kind_detail":"state","source":"openstreetmap.org","min_zoom":4.0,"name:uk":"\u0415\u043a\u0456\u0442\u0456","name:ru":"\u042d\u043a\u0438\u0442\u0438","id":2163706700},"coordinates":[960,1444]},{"type":"Point","properties":{"admin_level":"4","kind":"region","name":"Kwara","kind_detail":"state","source":"openstreetmap.org","min_zoom":4.0,"name:uk":"\u041a\u0432\u0430\u0440\u0430","name:ru":"\u041a\u0432\u0430\u0440\u0430","id":2163706710},"coordinates":[850,1650]},{"type":"Point","properties":{"admin_level":"4","kind":"region","name":"Anambra","kind_detail":"state","source":"openstreetmap.org","min_zoom":4.0,"name:uk":"\u0410\u043d\u0430\u043c\u0431\u0440\u0430","name:ru":"\u0410\u043d\u0430\u043c\u0431\u0440\u0430","id":2163706691},"coordinates":[1266,1161]},{"type":"Point","properties":{"admin_level":"4","kind":"region","name":"Edo","kind_detail":"state","source":"openstreetmap.org","min_zoom":4.0,"name:uk":"\u0415\u0434\u043e","name:ru":"\u042d\u0434\u043e","id":2163706699},"coordinates":[1087,1233]},{"type":"Point","properties":{"admin_level":"4","kind":"region","name":"Ebonyi","kind_detail":"state","source":"openstreetmap.org","min_zoom":4.0,"name:uk":"\u0415\u0431\u043e\u043d\u044c\u0457","name:ru":"\u042d\u0431\u043e\u043d\u044c\u0438","id":2163706698},"coordinates":[1463,1157]},{"type":"Point","properties":{"admin_level":"4","kind":"region","name":"Enugu","kind_detail":"state","source":"openstreetmap.org","min_zoom":4.0,"name:uk":"\u0415\u043d\u0443\u0433\u0443","name:ru":"\u042d\u043d\u0443\u0433\u0443","id":2163706701},"coordinates":[1350,1223]},{"type":"Point","properties":{"admin_level":"4","kind":"region","name":"Kogi","kind_detail":"state","source":"openstreetmap.org","min_zoom":4.0,"name:uk":"\u041a\u043e\u0433\u0456","name:ru":"\u041a\u043e\u0433\u0438","id":2163706709},"coordinates":[1217,1455]},{"type":"Point","properties":{"admin_level":"4","kind":"region","name":"Cross River","kind_detail":"state","source":"openstreetmap.org","min_zoom":4.0,"name:uk":"\u041a\u0440\u043e\u0441\u0441-\u0420\u0456\u0432\u0435\u0440","name:ru":"\u041a\u0440\u043e\u0441\u0441-\u0420\u0438\u0432\u0435\u0440","id":2163706696},"coordinates":[1551,1095]},{"type":"Point","properties":{"admin_level":"4","kind":"region","name:en":"Northwest","name":"Nord-Ouest","kind_detail":"state","name:de":"Nordwest","source":"openstreetmap.org","min_zoom":4.0,"id":2169076393},"coordinates":[1891,1190]},{"type":"Point","properties":{"admin_level":"4","kind":"region","name":"Taraba","kind_detail":"state","source":"openstreetmap.org","min_zoom":4.0,"name:uk":"\u0422\u0430\u0440\u0430\u0431\u0430","name:ru":"\u0422\u0430\u0440\u0430\u0431\u0430","id":2163706721},"coordinates":[1955,1496]},{"type":"Point","properties":{"admin_level":"4","kind":"region","name":"Nasarawa","kind_detail":"state","source":"openstreetmap.org","min_zoom":4.0,"name:uk":"\u041d\u0430\u0441\u0441\u0430\u0440\u0430\u0432\u0430","name:ru":"\u041d\u0430\u0441\u0430\u0440\u0430\u0432\u0430","id":2163706712},"coordinates":[1500,1575]},{"type":"Point","properties":{"admin_level":"4","kind":"region","name":"Niger","kind_detail":"state","source":"openstreetmap.org","min_zoom":4.0,"name:uk":"\u041d\u0456\u0433\u0435\u0440","name:ru":"\u041d\u0438\u0433\u0435\u0440\u0438\u044f","id":2163706713},"coordinates":[1029,1854]},{"type":"Point","properties":{"admin_level":"4","kind":"region","name:en":"South","name":"Sud","kind_detail":"state","name:de":"S\u00fcd","source":"openstreetmap.org","min_zoom":4.0,"id":2169076412},"coordinates":[2091,513]},{"type":"Point","properties":{"admin_level":"4","kind":"region","name":"Gombe","kind_detail":"state","source":"openstreetmap.org","min_zoom":4.0,"name:uk":"\u0413\u043e\u043c\u0431\u0435","name:ru":"\u0413\u043e\u043c\u0431\u0435","id":2163706702},"coordinates":[2040,1938]},{"type":"Point","properties":{"admin_level":"4","kind":"region","name":"Bauchi","kind_detail":"state","source":"openstreetmap.org","min_zoom":4.0,"name:uk":"\u0411\u0430\u0443\u0447\u0456","name:ru":"\u0411\u0430\u0443\u0447\u0438","id":2163706692},"coordinates":[1826,1983]},{"type":"Point","properties":{"admin_level":"4","kind":"region","name":"Woleu-Ntem","source":"openstreetmap.org","kind_detail":"state","min_zoom":4.0,"id":4346472231},"coordinates":[2152,242]},{"type":"Point","properties":{"admin_level":"4","kind":"region","name":"Ogoou\u00e9-Ivindo","source":"openstreetmap.org","kind_detail":"state","min_zoom":4.0,"id":4346465495},"coordinates":[2310,112]},{"type":"Point","properties":{"admin_level":"4","kind":"region","name":"Centre","kind_detail":"state","name:de":"Zentrum","source":"openstreetmap.org","min_zoom":4.0,"id":2169076360},"coordinates":[2174,875]},{"type":"Point","properties":{"admin_level":"4","kind":"region","name:en":"East","name":"Est","kind_detail":"state","name:de":"Ost","source":"openstreetmap.org","min_zoom":4.0,"id":2169076372},"coordinates":[2581,745]},{"type":"Point","properties":{"admin_level":"4","kind":"region","name":"\u00c9quateur","source":"openstreetmap.org","kind_detail":"state","min_zoom":4.0,"id":4346349983},"coordinates":[3419,113]},{"type":"Point","properties":{"admin_level":"4","kind":"region","name":"mongala","source":"openstreetmap.org","kind_detail":"state","min_zoom":4.0,"id":4346347855},"coordinates":[3911,402]},{"type":"Point","properties":{"admin_level":"4","kind":"region","name":"Sud-Ubangi","source":"openstreetmap.org","kind_detail":"state","min_zoom":4.0,"id":4346348813},"coordinates":[3595,608]},{"type":"Point","properties":{"admin_level":"4","kind":"region","name":"Nord-Ubangi","source":"openstreetmap.org","kind_detail":"state","min_zoom":4.0,"id":4346345408},"coordinates":[3829,800]},{"type":"Point","properties":{"admin_level":"4","kind":"region","name:en":"Adamawa","name":"Adamaoua","kind_detail":"state","name:de":"Adamaua","source":"openstreetmap.org","min_zoom":4.0,"id":2169055874},"coordinates":[2411,1279]},{"type":"Point","properties":{"admin_level":"4","kind":"region","name:en":"North","name":"Nord","kind_detail":"state","source":"openstreetmap.org","min_zoom":4.0,"id":2169047703},"coordinates":[2509,1637]},{"type":"Point","properties":{"admin_level":"4","kind":"region","name":"Adamawa","kind_detail":"state","source":"openstreetmap.org","min_zoom":4.0,"name:uk":"\u0410\u0434\u0430\u043c\u0430\u0432\u0430","name:ru":"\u0410\u0434\u0430\u043c\u0430\u0432\u0430","id":2163706689},"coordinates":[2255,1776]},{"type":"Point","properties":{"admin_level":"4","kind":"region","name:en":"Extreme North","name":"Extr\u00eame-Nord","kind_detail":"state","name:de":"Hoher Norden","source":"openstreetmap.org","min_zoom":4.0,"id":2155009283},"coordinates":[2598,1986]},{"type":"Point","properties":{"kind":"region","name:en":"East","name":"Est","kind_detail":"state","name:de":"Ost","source":"openstreetmap.org","min_zoom":4.0,"id":877245438},"coordinates":[159,2287]},{"type":"Point","properties":{"admin_level":"4","kind":"region","name":"Sokoto","kind_detail":"state","source":"openstreetmap.org","min_zoom":4.0,"name:uk":"\u0421\u043e\u043a\u043e\u0442\u043e","name:ru":"\u0421\u043e\u043a\u043e\u0442\u043e","id":2163706720},"coordinates":[968,2438]},{"type":"Point","properties":{"admin_level":"4","kind":"region","name":"Zamfara","kind_detail":"state","source":"openstreetmap.org","min_zoom":4.0,"name:uk":"\u0417\u0430\u043c\u0444\u0430\u0440\u0430","name:ru":"\u0417\u0430\u043c\u0444\u0430\u0440\u0430","id":2163706723},"coordinates":[1169,2242]},{"type":"Point","properties":{"admin_level":"4","kind":"region","name":"Katsina","kind_detail":"state","source":"openstreetmap.org","min_zoom":4.0,"name:uk":"\u041a\u0430\u0446\u0438\u043d\u0430","name:ru":"\u041a\u0430\u0446\u0438\u043d\u0430","id":2163706707},"coordinates":[1387,2345]},{"type":"Point","properties":{"admin_level":"4","kind":"region","name":"Kano","kind_detail":"state","source":"openstreetmap.org","min_zoom":4.0,"name:uk":"\u041a\u0430\u043d\u043e","name:ru":"\u041a\u0430\u043d\u043e","id":2163706706},"coordinates":[1554,2220]},{"type":"Point","properties":{"admin_level":"4","kind":"region","name":"Jigawa","kind_detail":"state","source":"openstreetmap.org","min_zoom":4.0,"name:uk":"\u0414\u0436\u0456\u0433\u0430\u0432\u0430","name:ru":"\u0414\u0436\u0438\u0433\u0430\u0432\u0430","id":2163706704},"coordinates":[1731,2301]},{"type":"Point","properties":{"admin_level":"4","kind":"region","name":"Yobe","kind_detail":"state","source":"openstreetmap.org","min_zoom":4.0,"name:uk":"\u0419\u043e\u0431\u0435","name:ru":"\u0419\u043e\u0431\u0435","id":2163706722},"coordinates":[2095,2263]},{"type":"Point","properties":{"admin_level":"4","kind":"region","name":"Borno","kind_detail":"state","source":"openstreetmap.org","min_zoom":4.0,"name:uk":"\u0411\u043e\u0440\u043d\u043e","name:ru":"\u0411\u043e\u0440\u043d\u043e","id":2163706695},"coordinates":[2423,2275]},{"type":"Point","properties":{"kind":"region","name":"Bioko Norte","kind_detail":"state","min_zoom":4.0,"name:de":"Nordbioko","source":"openstreetmap.org","name:fr":"Bioko Nord","name:uk":"\u0411\u0439\u043e\u043a\u043e \u041d\u043e\u0440\u0442\u0435","name:ru":"\u0421\u0435\u0432\u0435\u0440\u043d\u044b\u0439 \u0411\u0438\u043e\u043a\u043e","id":366514155},"coordinates":[1599,681]},{"type":"Point","properties":{"kind":"region","name":"Bioko Sur","kind_detail":"state","name:pt":"Bioko Sul","name:de":"S\u00fcdbioko","source":"openstreetmap.org","name:fr":"Bioko Sud","name:uk":"\u0411\u0439\u043e\u043a\u043e \u0421\u0443\u0440","name:ru":"\u042e\u0436\u043d\u044b\u0439 \u0411\u0438\u043e\u043a\u043e","min_zoom":4.0,"id":366514518},"coordinates":[1577,639]},{"type":"Point","properties":{"admin_level":"4","kind":"region","name":"Federal Capital Territory","kind_detail":"state","min_zoom":4.0,"name:de":"Bundeshauptstadtterritorium","source":"openstreetmap.org","name:fr":"Territoire de la capitale f\u00e9d\u00e9rale","name:uk":"\u0424\u0435\u0434\u0435\u0440\u0430\u043b\u044c\u043d\u0430 \u0441\u0442\u043e\u043b\u0438\u0447\u043d\u0430 \u0442\u0435\u0440\u0438\u0442\u043e\u0440\u0456\u044f","name:ru":"\u0424\u0435\u0434\u0435\u0440\u0430\u043b\u044c\u043d\u0430\u044f \u0441\u0442\u043e\u043b\u0438\u0447\u043d\u0430\u044f \u0442\u0435\u0440\u0440\u0438\u0442\u043e\u0440\u0438\u044f","id":2163706688},"coordinates":[1306,1648]},{"type":"Point","properties":{"kind":"region","name":"Vakaga","kind_detail":"state","source":"openstreetmap.org","min_zoom":4.0,"name:uk":"\u0412\u0430\u043a\u0430\u0433\u0430","name:ru":"\u0412\u0430\u043a\u0430\u0433\u0430","id":2222317720},"coordinates":[4073,1834]},{"type":"Point","properties":{"kind":"region","name":"Bamingui-Bangoran","name:sg":"Bam\u00efng\u00ef-Bangoran","kind_detail":"state","source":"openstreetmap.org","min_zoom":4.0,"name:uk":"\u0411\u0430\u043c\u0431\u0456\u043d\u0491\u0456-\u0411\u0430\u043d\u0491\u043e\u0440\u0430\u043d","name:ru":"\u0411\u0430\u043c\u0431\u0438\u043d\u0433\u0438-\u0411\u0430\u043d\u0433\u043e\u0440\u0430\u043d","id":2222387973},"coordinates":[3737,1624]},{"type":"Point","properties":{"kind":"region","name":"Basse-Kotto","name:sg":"Do-K\u00f6t\u00f6","kind_detail":"state","name:de":"Niederkotto","source":"openstreetmap.org","min_zoom":4.0,"name:uk":"\u041d\u0438\u0436\u043d\u0454 \u041a\u043e\u0442\u0442\u043e","name:ru":"\u041d\u0438\u0436\u043d\u0435\u0435 \u041a\u043e\u0442\u0442\u043e","id":2222387979},"coordinates":[3894,957]},{"type":"Point","properties":{"kind":"region","name":"K\u00e9mo","name:sg":"Kem\u00f6","kind_detail":"state","source":"openstreetmap.org","min_zoom":4.0,"name:uk":"\u041a\u0435\u043c\u043e","name:ru":"\u041a\u0435\u043c\u043e","id":2222387985},"coordinates":[3498,1110]},{"type":"Point","properties":{"kind":"region","name":"Nana-Gr\u00e9bizi","name:sg":"Nan\u00e4-G\u00efr\u00efb\u00efz\u00ef","kind_detail":"state","source":"openstreetmap.org","min_zoom":4.0,"name:uk":"\u041d\u0430\u043d\u0430-\u0413\u0440\u0435\u0431\u0456\u0437\u0456","name:ru":"\u041d\u0430\u043d\u0430-\u0413\u0440\u0435\u0431\u0438\u0437\u0438","id":2222387991},"coordinates":[3494,1401]},{"type":"Point","properties":{"kind":"region","name":"Ombella M'Poko","name:sg":"\u00d6mb\u00ebl\u00e4-P\u00f6k\u00f6","kind_detail":"state","source":"openstreetmap.org","min_zoom":4.0,"name:uk":"\u041e\u043c\u0431\u0435\u043b\u043b\u0430-\u041c\u043f\u043e\u043a\u043e","name:ru":"\u041e\u043c\u0431\u0435\u043b\u043b\u0430-\u041c\u043f\u043e\u043a\u043e","id":2222387996},"coordinates":[3308,947]},{"type":"Point","properties":{"kind":"region","name":"Ouaka","name:sg":"W\u00e4k\u00e4","kind_detail":"state","source":"openstreetmap.org","min_zoom":4.0,"name:uk":"\u0423\u0430\u043a\u0430","name:ru":"\u0423\u0430\u043a\u0430","id":2222388003},"coordinates":[3740,1178]},{"type":"Point","properties":{"kind":"region","name":"Ouham","name:sg":"W\u00e2mo","kind_detail":"state","source":"openstreetmap.org","min_zoom":4.0,"name:uk":"\u0423\u0430\u043c","name:ru":"\u0423\u0430\u043c","id":2222388007},"coordinates":[3223,1331]},{"type":"Point","properties":{"kind":"region","name":"Lobaye","name:sg":"Lob\u00e2ye","kind_detail":"state","source":"openstreetmap.org","min_zoom":4.0,"name:uk":"\u041b\u043e\u0431\u0430\u0435","name:ru":"\u041b\u043e\u0431\u0430\u0435","id":2222407339},"coordinates":[3198,766]},{"type":"Point","properties":{"kind":"region","name":"Mamb\u00e9r\u00e9-Kad\u00e9\u00ef","name:sg":"Mambere-Kadei","kind_detail":"state","source":"openstreetmap.org","min_zoom":4.0,"name:uk":"\u041c\u0430\u043c\u0431\u0435\u0440\u0435-\u041a\u0430\u0434\u0435\u0457","name:ru":"\u041c\u0430\u043c\u0431\u0435\u0440\u0435-\u041a\u0430\u0434\u0435\u0438","id":2222407347},"coordinates":[2889,852]},{"type":"Point","properties":{"kind":"region","name":"Nana-Mamb\u00e9r\u00e9","name:sg":"Nan\u00e4-Mambere","kind_detail":"state","source":"openstreetmap.org","min_zoom":4.0,"name:uk":"\u041d\u0430\u043d\u0430-\u041c\u0430\u043c\u0431\u0435\u0440\u0435","name:ru":"\u041d\u0430\u043d\u0430-\u041c\u0430\u043c\u0431\u0435\u0440\u0435","id":2222407353},"coordinates":[2768,1036]},{"type":"Point","properties":{"kind":"region","name":"Ouham Pend\u00e9","name:sg":"W\u00e2mo-Pend\u00eb","kind_detail":"state","source":"openstreetmap.org","min_zoom":4.0,"name:uk":"\u0423\u0430\u043c-\u041f\u0435\u043d\u0434\u0435","name:ru":"\u0423\u0430\u043c-\u041f\u0435\u043d\u0434\u0435","id":2222407360},"coordinates":[2939,1252]},{"type":"Point","properties":{"kind":"region","name":"Sangha-Mba\u00e9r\u00e9","name:sg":"Sang\u00e4-Mbaere","kind_detail":"state","source":"openstreetmap.org","min_zoom":4.0,"name:uk":"\u0421\u0430\u043d\u0433\u0430-\u041c\u0431\u0430\u0435\u0440\u0435","name:ru":"\u0421\u0430\u043d\u0433\u0430-\u041c\u0431\u0430\u044d\u0440\u0435","id":2222407370},"coordinates":[2972,686]},{"type":"Point","properties":{"kind":"region","name":"Mono","kind_detail":"state","official_name":"D\u00e9partement de Mono","source":"openstreetmap.org","min_zoom":4.0,"name:uk":"\u041c\u043e\u043d\u043e","name:ru":"\u041c\u043e\u043d\u043e","id":2240025035},"coordinates":[340,1205]},{"type":"Point","properties":{"kind":"region","name":"Alibori","kind_detail":"state","official_name":"D\u00e9partement d'Alibori","source":"openstreetmap.org","min_zoom":4.0,"name:uk":"\u0410\u043b\u0456\u0431\u043e\u0440\u0456","name:ru":"\u0410\u043b\u0438\u0431\u043e\u0440\u0438","id":2240079694},"coordinates":[509,2140]},{"type":"Point","properties":{"kind":"region","name":"Atakora","kind_detail":"state","min_zoom":4.0,"official_name":"D\u00e9partement d'Atacora","source":"openstreetmap.org","name:fr":"Atacora","name:uk":"\u0410\u0442\u0430\u043a\u043e\u0440\u0430","name:ru":"\u0410\u0442\u0430\u043a\u043e\u0440\u0430","id":2240079695},"coordinates":[279,2000]},{"type":"Point","properties":{"kind":"region","name":"Atlantique","kind_detail":"state","official_name":"D\u00e9partement de l'Atlantique","source":"openstreetmap.org","min_zoom":4.0,"name:uk":"\u0410\u0442\u043b\u0430\u043d\u0442\u0438\u0447\u043d\u0438\u0439","name:ru":"\u0410\u0442\u043b\u0430\u043d\u0442\u0438\u0447\u0435\u0441\u043a\u0430\u044f \u043f\u0440\u043e\u0432\u0438\u043d\u0446\u0438\u044f","id":2240079696},"coordinates":[405,1221]},{"type":"Point","properties":{"kind":"region","name":"Borgou","kind_detail":"state","official_name":"D\u00e9partement du Borgou","source":"openstreetmap.org","min_zoom":4.0,"name:uk":"\u0411\u043e\u0440\u0433\u0443","name:ru":"\u0411\u043e\u0440\u0433\u0443","id":2240079697},"coordinates":[499,1812]},{"type":"Point","properties":{"kind":"region","name":"Collines","kind_detail":"state","official_name":"D\u00e9partement des Collines","source":"openstreetmap.org","min_zoom":4.0,"name:uk":"\u041a\u043e\u043b\u043b\u0456\u043d","name:ru":"\u041a\u043e\u043b\u043b\u0438\u043d\u0437","id":2240079698},"coordinates":[398,1514]},{"type":"Point","properties":{"kind":"region","name":"Donga","kind_detail":"state","official_name":"D\u00e9partement de Donga","source":"openstreetmap.org","min_zoom":4.0,"name:uk":"\u0414\u043e\u043d\u0433\u0430","name:ru":"\u0414\u043e\u043d\u0433\u0430","id":2240079699},"coordinates":[313,1730]},{"type":"Point","properties":{"kind":"region","name":"Kouffo","kind_detail":"state","min_zoom":4.0,"official_name":"D\u00e9partement de Couffo","source":"openstreetmap.org","name:fr":"Couffo","name:uk":"\u041a\u0443\u0444\u0444\u043e","name:ru":"\u041a\u0443\u0444\u0444\u043e","id":2240079700},"coordinates":[320,1331]},{"type":"Point","properties":{"kind":"region","name":"Littoral","kind_detail":"state","official_name":"D\u00e9partement du Littoral","source":"openstreetmap.org","min_zoom":4.0,"name:uk":"\u041b\u0456\u0442\u043e\u0440\u0430\u043b\u044c","name:ru":"\u041b\u0438\u0442\u043e\u0440\u0430\u043b\u044c","id":2240079701},"coordinates":[444,1175]},{"type":"Point","properties":{"kind":"region","name":"Ou\u00e9m\u00e9","kind_detail":"state","official_name":"D\u00e9partement d'Ou\u00e9m\u00e9","source":"openstreetmap.org","min_zoom":4.0,"name:uk":"\u0412\u0435\u043c\u0435","name:ru":"\u0423\u044d\u043c\u0435","id":2240079703},"coordinates":[464,1232]},{"type":"Point","properties":{"kind":"region","name":"Plateau","kind_detail":"state","official_name":"D\u00e9partement du Plateau","source":"openstreetmap.org","min_zoom":4.0,"name:uk":"\u041f\u043b\u0430\u0442\u043e","name:ru":"\u041f\u043b\u0430\u0442\u043e","id":2240079704},"coordinates":[481,1325]},{"type":"Point","properties":{"kind":"region","name":"Zou","kind_detail":"state","official_name":"D\u00e9partement de Zou","source":"openstreetmap.org","min_zoom":4.0,"name:uk":"\u0417\u0443","name:ru":"\u0417\u0443","id":2240080044},"coordinates":[386,1360]},{"type":"Point","properties":{"admin_level":"4","kind":"region","name":"Cuvette-Ouest","source":"openstreetmap.org","kind_detail":"state","min_zoom":4.0,"id":4353421056},"coordinates":[2645,52]},{"type":"Point","properties":{"admin_level":"4","kind":"region","name":"Sangha","source":"openstreetmap.org","kind_detail":"state","min_zoom":4.0,"id":4353422825},"coordinates":[2825,278]},{"type":"Point","properties":{"admin_level":"4","kind":"region","name":"Likouala","source":"openstreetmap.org","kind_detail":"state","min_zoom":4.0,"id":4353424051},"coordinates":[3198,314]},{"type":"Point","properties":{"kind":"region","name:en":"Tibesti Region","name":"Tibesti \u062a\u064a\u0628\u0633\u062a\u064a","kind_detail":"state","name:ar":"\u062a\u064a\u0628\u0633\u062a\u064a","min_zoom":4.0,"source":"openstreetmap.org","name:fr":"Tibesti","name:uk":"\u0422\u0456\u0431\u0435\u0441\u0442\u0456","name:ru":"\u0422\u0438\u0431\u0435\u0441\u0442\u0438","name:pl":"Tibesti","name:hu":"Tibesti R\u00e9gi\u00f3","id":2222491883,"name:es":"Tibesti"},"coordinates":[3276,3860]},{"type":"Point","properties":{"kind":"region","name:en":"Lac Region","name":"Lac \u0627\u0644\u0628\u062d\u064a\u0631\u0629","kind_detail":"state","name:ar":"\u0627\u0644\u0628\u062d\u064a\u0631\u0629","min_zoom":4.0,"name:de":"Region See","source":"openstreetmap.org","name:fr":"Lac","name:uk":"\u041b\u0430\u043a","name:ru":"\u041b\u0430\u043a","name:pl":"Lac","id":322128912,"name:es":"Lac","name:ja":"\u30e9\u30af\u5dde"},"coordinates":[2618,2535]},{"type":"Point","properties":{"kind":"region","name:en":"Kanem Region","name":"Kanem \u0643\u0627\u0646\u0645","kind_detail":"state","name:ar":"\u0643\u0627\u0646\u0645","min_zoom":4.0,"source":"openstreetmap.org","name:fr":"Kanem","name:uk":"\u041a\u0430\u043d\u0435\u043c","name:ru":"\u041a\u0430\u043d\u0435\u043c","name:pl":"Kanem","id":322129363,"name:es":"Kanem","name:ja":"\u30ab\u30cd\u30e0\u5dde"},"coordinates":[2788,2842]},{"type":"Point","properties":{"name:ja":"\u30a6\u30a2\u30c0\u30a4\u5dde","name:ar":"\u0648\u062f\u0627\u064a","min_zoom":4.0,"name:uk":"\u0412\u0430\u0434\u0430\u0457","name:ru":"\u0412\u0430\u0434\u0434\u0430\u0439","name:pl":"Wadaj","id":322131059,"alt_name:es":"Wadda\u00ed","kind":"region","name:en":"Ouadda\u00ef Region","name":"Ouadda\u00ef \u0648\u062f\u0627\u064a","kind_detail":"state","name:de":"Region Wadai","source":"openstreetmap.org","name:fr":"Ouadda\u00ef","name:es":"Ouadda\u00ef"},"coordinates":[3875,2513]},{"type":"Point","properties":{"kind":"region","name:en":"Salamat Region","name":"Salamat \u0633\u0644\u0627\u0645\u0627\u062a","kind_detail":"state","name:ar":"\u0633\u0644\u0627\u0645\u0627\u062a","min_zoom":4.0,"source":"openstreetmap.org","name:fr":"Salamat","name:uk":"\u0421\u0430\u043b\u0430\u043c\u0430\u0442","name:ru":"\u0421\u0430\u043b\u0430\u043c\u0430\u0442","name:pl":"Salamat","id":322483515,"name:es":"Salamat","name:ja":"\u30b5\u30e9\u30de\u30c8\u5dde"},"coordinates":[3767,2008]},{"type":"Point","properties":{"kind":"region","name:en":"Mandoul","name":"Mandoul \u0645\u0627\u0646\u062f\u0648\u0644","kind_detail":"state","name:ar":"\u0645\u0627\u0646\u062f\u0648\u0644","min_zoom":4.0,"source":"openstreetmap.org","name:fr":"Mandoul","name:uk":"\u041c\u0430\u043d\u0434\u0443\u043b","name:ru":"\u041c\u0430\u043d\u0434\u0443\u043b","name:pl":"Mandoul","id":322491573,"name:es":"Mandoul"},"coordinates":[3210,1622]},{"type":"Point","properties":{"kind":"region","name:en":"Borkou Region","name":"Borkou \u0628\u0648\u0631\u0643\u0648","kind_detail":"state","name:ar":"\u0628\u0648\u0631\u0643\u0648","min_zoom":4.0,"source":"openstreetmap.org","name:fr":"Borkou","name:uk":"\u0411\u043e\u0440\u043a\u0443","name:ru":"\u0411\u043e\u0440\u043a\u0443","name:pl":"Borku","name:hu":"Borkou R\u00e9gi\u00f3","id":2222491869,"name:es":"Borkou"},"coordinates":[3344,3223]},{"type":"Point","properties":{"kind":"region","name:en":"West Ennedi Region","name":"Ennedi Ouest  \u0625\u0646\u064a\u062f\u064a \u0627\u0644\u063a\u0631\u0628\u064a\u0629","kind_detail":"state","name:ar":"\u0625\u0646\u064a\u062f\u064a \u0627\u0644\u063a\u0631\u0628\u064a\u0629","min_zoom":4.0,"source":"openstreetmap.org","name:fr":"Ennedi Ouest","name:uk":"\u0415\u043d\u043d\u0435\u0434\u0456","name:ru":"\u042d\u043d\u043d\u0435\u0434\u0438","name:pl":"Ennedi","name:hu":"Ennedi R\u00e9gi\u00f3","id":2222491871},"coordinates":[3915,3391]},{"type":"Point","properties":{"kind":"region","name:en":"Sila Region","name":"Sila \u0633\u064a\u0644\u0627","kind_detail":"state","name:ar":"\u0633\u064a\u0644\u0627","min_zoom":4.0,"source":"openstreetmap.org","name:fr":"Sila","name:ru":"\u0421\u0438\u043b\u0430","name:pl":"Sila","name:hu":"Sila R\u00e9gi\u00f3","id":2222491881,"name:es":"Sila"},"coordinates":[3904,2262]},{"type":"Point","properties":{"kind":"region","name:en":"Wadi Fira Region","name":"Wadi Fira \u0648\u0627\u062f\u064a \u0641\u064a\u0631\u0627","kind_detail":"state","name:ar":"\u0648\u0627\u062f\u064a \u0641\u064a\u0631\u0627","min_zoom":4.0,"alt_name:fr":"Ouaddi Fira","source":"openstreetmap.org","name:fr":"Wadi Fira","name:uk":"\u0412\u0430\u0434\u0456-\u0424\u0456\u0440\u0430","name:ru":"\u0412\u0430\u0434\u0438-\u0424\u0435\u0440\u0430","name:pl":"Wadi Fira","name:hu":"Wadi Fira R\u00e9gi\u00f3","id":2222491887,"name:es":"Wadi Fira"},"coordinates":[3908,2804]},{"type":"Point","properties":{"kind":"region","name:en":"Barh El Gazel Region","name":"Barh El Gazel \u0628\u062d\u0631 \u0627\u0644\u063a\u0632\u0627\u0644","kind_detail":"state","name:ar":"\u0628\u062d\u0631 \u0627\u0644\u063a\u0632\u0627\u0644","min_zoom":4.0,"source":"openstreetmap.org","name:fr":"Barh El Gazel","name:ru":"\u0411\u0430\u0445\u0440 \u042d\u043b\u044c-\u0413\u0430\u0437\u0430\u043b\u044c","id":322481536},"coordinates":[3084,2701]},{"type":"Point","properties":{"kind":"region","name:en":"Logone Oriental Region","name":"Logone Oriental \u0644\u0648\u0642\u0648\u0646 \u0627\u0644\u0634\u0631\u0642\u064a\u0629","kind_detail":"state","name:ar":"\u0644\u0648\u0642\u0648\u0646 \u0627\u0644\u0634\u0631\u0642\u064a\u0629","min_zoom":4.0,"name:de":"Region Logone Ost","source":"openstreetmap.org","name:fr":"Logone Oriental","name:uk":"\u0421\u0445\u0456\u0434\u043d\u0438\u0439 \u041b\u043e\u0433\u043e\u043d","name:ru":"\u0412\u043e\u0441\u0442\u043e\u0447\u043d\u044b\u0439 \u041b\u043e\u0433\u043e\u043d","name:pl":"Logon Wschodni","id":322135075,"name:es":"Logone Oriental"},"coordinates":[2998,1532]},{"type":"Point","properties":{"kind":"region","name:en":"Logone Occidental Region","name":"Logone Occidental \u0644\u0648\u0642\u0648\u0646 \u0627\u0644\u063a\u0631\u0628\u064a","kind_detail":"state","name:ar":"\u0644\u0648\u0642\u0648\u0646 \u0627\u0644\u063a\u0631\u0628\u064a","min_zoom":4.0,"name:de":"Region Logone West","source":"openstreetmap.org","name:fr":"Logone Occidental","name:uk":"\u0417\u0430\u0445\u0456\u0434\u043d\u0438\u0439 \u041b\u043e\u0433\u043e\u043d","name:ru":"\u0417\u0430\u043f\u0430\u0434\u043d\u044b\u0439 \u041b\u043e\u0433\u043e\u043d","name:pl":"Logon Zachodni","id":322135077,"name:es":"Logone Occidental","name:ja":"\u30ed\u30b4\u30f3\u30fb\u30aa\u30af\u30b7\u30c7\u30f3\u30bf\u30eb\u5dde"},"coordinates":[2897,1639]},{"type":"Point","properties":{"kind":"region","name:en":"Batha Region","name":"Batha \u0627\u0644\u0628\u0637\u062d\u0629","kind_detail":"state","name:ar":"\u0627\u0644\u0628\u0637\u062d\u0629","min_zoom":4.0,"source":"openstreetmap.org","name:fr":"Batha","name:uk":"\u0411\u0430\u0442\u0445\u0430","name:ru":"\u0411\u0430\u0442\u0445\u0430","name:pl":"Batha","id":322128913,"name:ja":"\u30d0\u30bf\u5dde"},"coordinates":[3452,2583]},{"type":"Point","properties":{"kind":"region","name:en":"Chari-Baguirmi Region","name":"Chari-Baguirmi \u0634\u0627\u0631\u064a \u0628\u0627\u0642\u0631\u0645\u064a","kind_detail":"state","name:ar":"\u0634\u0627\u0631\u064a \u0628\u0627\u0642\u0631\u0645\u064a","min_zoom":4.0,"source":"openstreetmap.org","name:fr":"Chari-Baguirmi","name:uk":"\u0428\u0430\u0440\u0456-\u0411\u0430\u0433\u0456\u0440\u043c\u0456","name:ru":"\u0428\u0430\u0440\u0438-\u0411\u0430\u0433\u0438\u0440\u043c\u0438","name:pl":"Szari-Bagirmi","id":322131587,"name:ja":"\u30b7\u30e3\u30ea\u30fb\u30d0\u30ae\u30eb\u30df\u5dde"},"coordinates":[2965,2116]},{"type":"Point","properties":{"kind":"region","name:en":"Gu\u00e9ra Region","name":"Gu\u00e9ra \u0642\u064a\u0631\u0627","kind_detail":"state","name:ar":"\u0642\u064a\u0631\u0627","min_zoom":4.0,"source":"openstreetmap.org","name:fr":"Gu\u00e9ra","name:uk":"\u0413\u0435\u0440\u0430","name:ru":"\u0413\u0435\u0440\u0430","name:pl":"Gu\u00e9ra","id":322133409,"name:es":"Gu\u00e9ra","name:ja":"\u30b2\u30e9\u5dde"},"coordinates":[3366,2179]},{"type":"Point","properties":{"kind":"region","name:en":"Mayo-Kebbi Est Region","name":"Mayo-Kebbi Est \u0645\u0627\u064a\u0648 \u0643\u064a\u0628\u064a \u0627\u0644\u0634\u0631\u0642\u064a","kind_detail":"state","name:ar":"\u0645\u0627\u064a\u0648 \u0643\u064a\u0628\u064a \u0627\u0644\u0634\u0631\u0642\u064a","min_zoom":4.0,"name:de":"Region Mayo-Kebbi Ost","source":"openstreetmap.org","name:fr":"Mayo-Kebbi Est","name:uk":"\u0421\u0445\u0456\u0434\u043d\u0438\u0439 \u041c\u0430\u0439\u043e-\u041a\u0435\u0431\u0456","name:ru":"\u0412\u043e\u0441\u0442\u043e\u0447\u043d\u043e\u0435 \u041c\u0430\u0439\u043e-\u041a\u0435\u0431\u0438","name:pl":"Mayo-Kebbi Est","id":322133411,"name:es":"Mayo-Kebbi Este"},"coordinates":[2880,1890]},{"type":"Point","properties":{"kind":"region","name:en":"Mayo-Kebbi Ouest Region","name":"Mayo-Kebbi Ouest \u0645\u0627\u064a\u0648 \u0643\u064a\u0628\u064a \u0627\u0644\u063a\u0631\u0628\u064a","kind_detail":"state","name:ar":"\u0645\u0627\u064a\u0648 \u0643\u064a\u0628\u064a \u0627\u0644\u063a\u0631\u0628\u064a","min_zoom":4.0,"name:de":"Region Mayo-Kebbi West","source":"openstreetmap.org","name:fr":"Mayo-Kebbi Ouest","name:uk":"\u0417\u0430\u0445\u0456\u0434\u043d\u0438\u0439 \u041c\u0430\u0439\u043e-\u041a\u0435\u0431\u0456","name:ru":"\u0417\u0430\u043f\u0430\u0434\u043d\u043e\u0435 \u041c\u0430\u0439\u043e-\u041a\u0435\u0431\u0438","name:pl":"Mayo-Kebbi Ouest","id":322133412,"name:es":"Mayo-Kebbi Oeste","name:ja":"\u6771\u30de\u30e8\u30fb\u30b1\u30c3\u30d4\u5dde"},"coordinates":[2679,1729]},{"type":"Point","properties":{"kind":"region","name:en":"Tandjil\u00e9 Region","name":"Tandjil\u00e9 \u062a\u0627\u0646\u062c\u0644\u064a","kind_detail":"state","name:ar":"\u062a\u0627\u0646\u062c\u0644\u064a","min_zoom":4.0,"source":"openstreetmap.org","name:fr":"Tandjil\u00e9","name:uk":"\u0422\u0430\u043d\u0434\u0436\u0438\u043b\u0435","name:ru":"\u0422\u0430\u043d\u0434\u0436\u0438\u043b\u0435","name:pl":"Tandjil\u00e9","id":322135072,"name:es":"La\u00ef","name:ja":"\u30bf\u30f3\u30b8\u30ec\u5dde"},"coordinates":[3009,1787]},{"type":"Point","properties":{"kind":"region","name:en":"Moyen-Chari Region","name":"Moyen-Chari \u0634\u0627\u0631\u064a \u0627\u0644\u0623\u0648\u0633\u0637","kind_detail":"state","name:ar":"\u0634\u0627\u0631\u064a \u0627\u0644\u0623\u0648\u0633\u0637","min_zoom":4.0,"name:de":"Region Mittel-Schari","source":"openstreetmap.org","name:fr":"Moyen-Chari","name:uk":"\u0421\u0435\u0440\u0435\u0434\u043d\u0454 \u0428\u0430\u0440\u0456","name:ru":"\u0421\u0440\u0435\u0434\u043d\u0435\u0435 \u0428\u0430\u0440\u0438","name:pl":"Szari \u015arodkowe","id":322135074,"name:es":"Moyen-Chari","name:ja":"\u30e2\u30a8\u30f3\u30fb\u30b7\u30a7\u30ea\uff0d\u5dde"},"coordinates":[3425,1762]},{"type":"Point","properties":{"kind":"region","name:en":"Hadjer-Lamis Region","name":"Hadjer-Lamis \u062d\u062c\u0631 \u0644\u0645\u064a\u0633","kind_detail":"state","name:ar":"\u062d\u062c\u0631 \u0644\u0645\u064a\u0633","min_zoom":4.0,"source":"openstreetmap.org","name:fr":"Hadjer-Lamis","name:uk":"\u0425\u0430\u0434\u0436\u0435\u0440-\u041b\u0430\u043c\u0456","name:ru":"\u0425\u0430\u0434\u0436\u0435\u0440-\u041b\u0430\u043c\u0438\u0441","name:pl":"Hadjer-Lamis","name:hu":"Hadjer-Lamis R\u00e9gi\u00f3","id":2222491873,"name:es":"Hadjer-Lamis"},"coordinates":[2974,2369]},{"type":"Point","properties":{"source":"openstreetmap.org","kind":"region","name":"Dosso","kind_detail":"state","name:ar":"\u062f\u0648\u0633\u0648","min_zoom":4.0,"id":2671914030},"coordinates":[659,2489]}]},"transit":{"type":"GeometryCollection","geometries":[]},"pois":{"type":"GeometryCollection","geometries":[{"type":"Point","properties":{"kind":"national_park","protect_class":"2","area":13469500000,"source":"openstreetmap.org","min_zoom":3.93,"tier":1,"id":-5885230,"osm_relation":true,"name":"Parc national d'Odzala-Kokoua"},"coordinates":[2720,167]}]},"boundaries":{"type":"GeometryCollection","geometries":[{"type":"LineString","properties":{"source":"naturalearthdata.com","kind":"country","sort_rank":262,"kind_detail":"2","min_zoom":0.0,"id":101},"arcs":[0]},{"type":"LineString","properties":{"source":"naturalearthdata.com","kind":"country","sort_rank":262,"kind_detail":"2","min_zoom":0.0,"id":190},"arcs":[1]},{"type":"LineString","properties":{"source":"naturalearthdata.com","kind":"country","sort_rank":262,"kind_detail":"2","min_zoom":0.0,"id":225},"arcs":[2]},{"type":"LineString","properties":{"source":"naturalearthdata.com","kind":"country","sort_rank":262,"kind_detail":"2","min_zoom":0.0,"id":331},"arcs":[3]},{"type":"LineString","properties":{"source":"naturalearthdata.com","kind":"country","sort_rank":262,"kind_detail":"2","min_zoom":0.0,"id":85},"arcs":[4]},{"type":"LineString","properties":{"source":"naturalearthdata.com","kind":"country","sort_rank":262,"kind_detail":"2","min_zoom":0.0,"id":184},"arcs":[5]},{"type":"LineString","properties":{"source":"naturalearthdata.com","kind":"country","sort_rank":262,"kind_detail":"2","min_zoom":0.0,"id":189},"arcs":[6]},{"type":"LineString","properties":{"source":"naturalearthdata.com","kind":"country","sort_rank":262,"kind_detail":"2","min_zoom":0.0,"id":191},"arcs":[7]},{"type":"LineString","properties":{"source":"naturalearthdata.com","kind":"country","sort_rank":262,"kind_detail":"2","min_zoom":0.0,"id":192},"arcs":[8]},{"type":"LineString","properties":{"source":"naturalearthdata.com","kind":"country","sort_rank":262,"kind_detail":"2","min_zoom":0.0,"id":193},"arcs":[9]},{"type":"LineString","properties":{"source":"naturalearthdata.com","kind":"country","sort_rank":262,"kind_detail":"2","min_zoom":0.0,"id":194},"arcs":[10]},{"type":"LineString","properties":{"source":"naturalearthdata.com","kind":"country","sort_rank":262,"kind_detail":"2","min_zoom":0.0,"id":195},"arcs":[11]},{"type":"MultiLineString","properties":{"source":"naturalearthdata.com","kind":"country","sort_rank":262,"kind_detail":"2","min_zoom":0.0,"id":196},"arcs":[[12],[13]]},{"type":"LineString","properties":{"source":"naturalearthdata.com","kind":"country","sort_rank":262,"kind_detail":"2","min_zoom":0.0,"id":198},"arcs":[14]},{"type":"LineString","properties":{"source":"naturalearthdata.com","kind":"country","sort_rank":262,"kind_detail":"2","min_zoom":0.0,"id":223},"arcs":[15]},{"type":"LineString","properties":{"source":"naturalearthdata.com","kind":"country","sort_rank":262,"kind_detail":"2","min_zoom":0.0,"id":224},"arcs":[16]},{"type":"LineString","properties":{"source":"naturalearthdata.com","kind":"country","sort_rank":262,"kind_detail":"2","min_zoom":0.0,"id":226},"arcs":[17]},{"type":"LineString","properties":{"source":"naturalearthdata.com","kind":"country","sort_rank":262,"kind_detail":"2","min_zoom":0.0,"id":251},"arcs":[18]},{"type":"LineString","properties":{"source":"naturalearthdata.com","kind":"country","sort_rank":262,"kind_detail":"2","min_zoom":0.0,"id":252},"arcs":[19]},{"type":"LineString","properties":{"source":"naturalearthdata.com","kind":"country","sort_rank":262,"kind_detail":"2","min_zoom":0.0,"id":270},"arcs":[20]},{"type":"LineString","properties":{"source":"naturalearthdata.com","kind":"country","sort_rank":262,"kind_detail":"2","min_zoom":0.0,"id":271},"arcs":[21]},{"type":"LineString","properties":{"source":"naturalearthdata.com","kind":"country","sort_rank":262,"kind_detail":"2","min_zoom":0.0,"id":273},"arcs":[22]},{"type":"MultiLineString","properties":{"source":"naturalearthdata.com","kind":"country","sort_rank":262,"kind_detail":"2","min_zoom":0.0,"id":276},"arcs":[[23],[24]]},{"type":"LineString","properties":{"source":"naturalearthdata.com","kind":"country","sort_rank":262,"kind_detail":"2","min_zoom":0.0,"id":284},"arcs":[25]},{"type":"LineString","properties":{"source":"naturalearthdata.com","kind":"country","sort_rank":262,"kind_detail":"2","min_zoom":0.0,"id":285},"arcs":[26]},{"type":"LineString","properties":{"source":"naturalearthdata.com","kind":"country","sort_rank":262,"kind_detail":"2","min_zoom":0.0,"id":289},"arcs":[27]},{"type":"LineString","properties":{"source":"naturalearthdata.com","kind":"country","sort_rank":262,"kind_detail":"2","min_zoom":0.0,"id":305},"arcs":[28]},{"type":"LineString","properties":{"source":"naturalearthdata.com","kind":"country","sort_rank":262,"kind_detail":"2","min_zoom":0.0,"id":307},"arcs":[29]},{"type":"LineString","properties":{"source":"naturalearthdata.com","kind":"country","sort_rank":262,"kind_detail":"2","min_zoom":0.0,"id":332},"arcs":[30]}]},"roads":{"type":"GeometryCollection","geometries":[]},"earth":{"type":"GeometryCollection","geometries":[{"type":"MultiPolygon","properties":{"sort_rank":10,"source":"naturalearthdata.com","min_zoom":0.0,"kind":"earth","area":20608498557297},"arcs":[[[55]],[[56]],[[57]],[[58]],[[59]]]},{"type":"Point","properties":{"label_placement":true,"name:pt":"\u00c1frica","name:ms":"Afrika","name:tr":"Afrika","name:kn":"\u0c86\u0cab\u0ccd\u0cb0\u0cbf\u0c95\u0cbe","name:ar":"\u0623\u0641\u0631\u064a\u0642\u064a\u0627","name:cs":"Afrika","name:io":"Afrika","min_zoom":0.0,"name:tl":"Aprika","name:vi":"Ch\u00e2u Phi","name:ru":"\u0410\u0444\u0440\u0438\u043a\u0430","name:pl":"Afryka","name:ta":"\u0b86\u0baa\u0bcd\u0baa\u0bbf\u0bb0\u0bbf\u0b95\u0bcd\u0b95\u0bbe","name:mi":"\u0100wherika","id":36966057,"name:ca":"\u00c0frica","name:af":"Afrika","name:fa":"\u0622\u0641\u0631\u06cc\u0642\u0627","name:hu":"Afrika","name:lt":"Afrika","source":"openstreetmap.org","name:fi":"Afrikka","name:da":"Afrika","kind":"continent","name:de":"Afrika","alt_name:vi":"Phi Ch\u00e2u","name:fr":"Afrique","name:fy":"Afrika","name:vo":"Frikop","name:zh":"\u975e\u6d32","name:ba":"\u0410\u0444\u0440\u0438\u043a\u0430","name:sl":"Afrika","name:nl":"Afrika","name:nn":"Afrika","name:no":"Afrika","name:nb":"Afrika","name:he":"\u05d0\u05e4\u05e8\u05d9\u05e7\u05d4","name:eo":"Afriko","name:sk":"Afrika","name:tt":"\u0410\u0444\u0440\u0438\u043a\u0430","name:uk":"\u0410\u0444\u0440\u0438\u043a\u0430","name:be":"\u0410\u0444\u0440\u044b\u043a\u0430","name:li":"Afrika","name:hr":"Afrika","name:sr":"\u0410\u0444\u0440\u0438\u043a\u0430","name:el":"\u0391\u03c6\u03c1\u03b9\u03ba\u03ae","name:ga":"an Afraic","name":"Africa","name:is":"Afr\u00edka","name:ku":"Afr\u00eeka","name:sv":"Afrika","name:eu":"Afrika","name:hi":"\u0905\u092b\u093c\u094d\u0930\u0940\u0915\u093e","name:es":"\u00c1frica"},"coordinates":[2913,373]}]},"landuse":{"type":"GeometryCollection","geometries":[{"type":"Polygon","properties":{"kind":"park","name":"R\u00e9serve de faune du Dja","area":5772680192,"sort_rank":24,"source":"openstreetmap.org","min_zoom":4.0,"tier":2,"id":-1187248,"osm_relation":true,"protect_class":"1"},"arcs":[[60]]},{"type":"Polygon","properties":{"kind":"protected_area","name":"Zone cyn\u00e9g\u00e9tique de Djona","area":1248160000,"sort_rank":17,"source":"openstreetmap.org","min_zoom":4.0,"tier":2,"id":-2695671,"osm_relation":true},"arcs":[[61]]},{"type":"Polygon","properties":{"kind":"park","name":"Parc W du Niger","area":2351269888,"sort_rank":24,"source":"openstreetmap.org","min_zoom":4.0,"tier":2,"id":-2695663,"osm_relation":true},"arcs":[[62]]},{"type":"Polygon","properties":{"kind":"park","name":"Parc national de Mwagna","area":1021790016,"sort_rank":24,"source":"openstreetmap.org","min_zoom":4.0,"tier":2,"id":-3348036,"osm_relation":true},"arcs":[[63]]},{"type":"Polygon","properties":{"kind":"park","name":"Parc national du Nki","area":3296499968,"sort_rank":24,"source":"openstreetmap.org","min_zoom":4.0,"tier":2,"id":-4626150,"osm_relation":true},"arcs":[[64]]},{"type":"Polygon","properties":{"kind":"nature_reserve","name":"Zone cyn\u00e9g\u00e9tique de Latakora","area":1386099968,"sort_rank":23,"source":"openstreetmap.org","min_zoom":4.0,"tier":2,"id":-4109970,"osm_relation":true},"arcs":[[65]]},{"type":"Polygon","properties":{"kind":"nature_reserve","name":"Parc W du Burkina Faso","area":2474109952,"sort_rank":23,"source":"openstreetmap.org","min_zoom":4.0,"tier":2,"id":-2695715,"osm_relation":true},"arcs":[[66]]},{"type":"Polygon","properties":{"kind":"national_park","name":"Parc national d'Odzala-Kokoua","area":13469500416,"sort_rank":18,"source":"openstreetmap.org","min_zoom":3.0,"tier":1,"id":-5885230,"osm_relation":true,"protect_class":"2"},"arcs":[[67]]},{"type":"Polygon","properties":{"kind":"park","name":"Parc national de Campo-Ma\u2019an","area":2557469952,"sort_rank":24,"source":"openstreetmap.org","min_zoom":4.0,"tier":2,"id":-2701927,"osm_relation":true},"arcs":[[68]]},{"type":"Polygon","properties":{"kind":"park","name":"Nouabal\u00e9 Ndoki National Park","area":4243030016,"sort_rank":24,"source":"openstreetmap.org","min_zoom":4.0,"tier":2,"id":302681705},"arcs":[[69]]},{"type":"Polygon","properties":{"kind":"protected_area","name":"R\u00e9serve partielle d'Arli","area":1293440000,"sort_rank":17,"source":"openstreetmap.org","min_zoom":4.0,"tier":2,"id":-6520711,"osm_relation":true},"arcs":[[70]]},{"type":"Polygon","properties":{"kind":"park","name":"Cross River National Park - Oban Division","area":3049260032,"sort_rank":24,"source":"openstreetmap.org","min_zoom":4.0,"tier":2,"id":-3510484,"osm_relation":true},"arcs":[[71],[72]]},{"type":"Polygon","properties":{"kind":"nature_reserve","name":"Parc national du Mbam et Djerem","area":4289700096,"sort_rank":23,"source":"openstreetmap.org","min_zoom":4.0,"tier":2,"id":-2701989,"osm_relation":true},"arcs":[[73]]},{"type":"Polygon","properties":{"kind":"nature_reserve","name":"R\u00e9serve de faune de Lomako-Yokokala","area":3651320064,"sort_rank":23,"source":"openstreetmap.org","min_zoom":4.0,"tier":2,"id":-1359178,"osm_relation":true},"arcs":[[74]]},{"type":"Polygon","properties":{"kind":"nature_reserve","name":"Parc W du B\u00e9nin","area":6065249792,"sort_rank":23,"source":"openstreetmap.org","min_zoom":4.0,"tier":2,"id":-2695709,"osm_relation":true},"arcs":[[75]]},{"type":"Polygon","properties":{"kind":"nature_reserve","name":"R\u00e9serve totale d'Oti Mandouri","area":2094540032,"sort_rank":23,"source":"openstreetmap.org","min_zoom":4.0,"tier":2,"id":-2702079,"osm_relation":true},"arcs":[[76]]},{"type":"Polygon","properties":{"kind":"park","name":"Digya National Park","area":2716440064,"sort_rank":24,"source":"openstreetmap.org","min_zoom":4.0,"tier":2,"id":170259846},"arcs":[[77]]},{"type":"Polygon","properties":{"kind":"park","name":"Yankari National Park","area":2647369984,"sort_rank":24,"source":"openstreetmap.org","min_zoom":4.0,"tier":2,"id":335510566},"arcs":[[78]]},{"type":"Polygon","properties":{"kind":"protected_area","name":"R\u00e9serve partielle de Pama","area":2480209920,"sort_rank":17,"source":"openstreetmap.org","min_zoom":4.0,"tier":2,"id":-6520712,"osm_relation":true},"arcs":[[79]]},{"type":"MultiPolygon","properties":{"source":"naturalearthdata.com","kind":"urban_area","name":"","area":69457956710,"sort_rank":11,"min_zoom":4.0},"arcs":[[[80]],[[81]],[[82]],[[83]],[[84]],[[85]],[[86]],[[87]],[[88]],[[89]],[[90]],[[91]],[[92]],[[93]],[[94]],[[95]],[[96]],[[97]],[[98]],[[99]],[[100]],[[101]],[[102]],[[103]],[[104]],[[105]],[[106]],[[107]],[[108]],[[109]]]},{"type":"Polygon","properties":{"kind":"nature_reserve","name":"Parc national du Faro","area":3578439936,"sort_rank":23,"source":"openstreetmap.org","min_zoom":4.0,"tier":2,"id":236993088},"arcs":[[110]]},{"type":"Polygon","properties":{"kind":"nature_reserve","name":"Zone cyn\u00e9g\u00e9tique de la Pendjari","area":1696630016,"sort_rank":23,"source":"openstreetmap.org","min_zoom":4.0,"tier":2,"id":-2702070,"osm_relation":true},"arcs":[[111]]},{"type":"Polygon","properties":{"kind":"nature_reserve","name":"Parc national de la B\u00e9nou\u00e9","area":1996419968,"sort_rank":23,"source":"openstreetmap.org","min_zoom":4.0,"tier":2,"id":236993087},"arcs":[[112]]},{"type":"Polygon","properties":{"kind":"park","name":"A\u00efr and T\u00e9n\u00e9r\u00e9 Addax Sanctuary","area":14569199616,"sort_rank":24,"source":"openstreetmap.org","min_zoom":4.0,"tier":2,"id":39225740},"arcs":[[113]]},{"type":"Polygon","properties":{"kind":"nature_reserve","name":"Parc national de Boubandjida","area":2200329984,"sort_rank":23,"source":"openstreetmap.org","min_zoom":4.0,"tier":2,"id":236996355},"arcs":[[114]]},{"type":"Polygon","properties":{"kind":"nature_reserve","name":"Parc National de Keran","area":1963110016,"sort_rank":23,"source":"openstreetmap.org","min_zoom":4.0,"tier":2,"id":-2702083,"osm_relation":true},"arcs":[[115]]},{"type":"Polygon","properties":{"kind":"park","name":"Parc national de Mink\u00e9b\u00e9","area":7640719872,"sort_rank":24,"source":"openstreetmap.org","min_zoom":4.0,"tier":2,"id":-3348039,"osm_relation":true},"arcs":[[116]]},{"type":"Polygon","properties":{"kind":"park","name":"Parc national de Waza","area":1472169984,"sort_rank":24,"source":"openstreetmap.org","min_zoom":4.0,"tier":2,"id":236996360},"arcs":[[117]]},{"type":"Polygon","properties":{"kind":"park","name":"R\u00e9serve naturelle du triangle de la Ngiri","area":5310389760,"sort_rank":24,"source":"openstreetmap.org","min_zoom":4.0,"tier":2,"id":-2127012,"osm_relation":true},"arcs":[[118]]},{"type":"Polygon","properties":{"kind":"park","name":"Parc national de Boumba Bek","area":2387399936,"sort_rank":24,"source":"openstreetmap.org","min_zoom":4.0,"tier":2,"id":-4620754,"osm_relation":true},"arcs":[[119]]},{"type":"Polygon","properties":{"kind":"nature_reserve","name":"Keta Lagoon Ramsar Site","area":1196460032,"sort_rank":23,"source":"openstreetmap.org","min_zoom":4.0,"tier":2,"id":-6270736,"osm_relation":true},"arcs":[[120]]},{"type":"Polygon","properties":{"kind":"park","name":"Parc National de Lob\u00e9k\u00e9","area":2209600000,"sort_rank":24,"source":"openstreetmap.org","min_zoom":4.0,"tier":2,"id":79177685},"arcs":[[121]]},{"type":"Polygon","properties":{"kind":"park","name":"Parc National de Mpem et Djim","area":1062569984,"sort_rank":24,"source":"openstreetmap.org","min_zoom":4.0,"tier":2,"id":544916934},"arcs":[[122]]},{"type":"Polygon","properties":{"kind":"nature_reserve","name":"Lake T\u00e9l\u00e9 Community Reserve","area":3024450048,"sort_rank":23,"source":"openstreetmap.org","min_zoom":4.0,"tier":2,"id":79175724},"arcs":[[123]]},{"type":"Polygon","properties":{"kind":"nature_reserve","name":"Parc national de la Pendjari","area":2878180096,"sort_rank":23,"source":"openstreetmap.org","min_zoom":4.0,"tier":2,"id":-2695742,"osm_relation":true},"arcs":[[124]]}]}},"type":"Topology","transform":{"translate":[0.0,-0.0],"scale":[0.0054931641,0.0053571889]},"arcs":[[[2560,2441],[-24,34],[-30,43],[-29,40]],[[2420,403],[-4,12],[-9,6],[-17,1],[-48,-3],[-36,2],[-12,2],[-13,3],[-31,3],[-38,-3],[-8,1],[-30,0],[-70,3],[-38,-1],[1,-7],[-3,-5],[-2,-12]],[[2946,422],[-1,-10],[-11,-7],[-7,-12],[-2,-16],[4,-19],[8,-23],[0,-13],[-3,-2],[-5,-4],[-5,-3],[-16,16],[-17,10],[-25,18],[-26,7],[-33,1],[-15,-2],[-10,7],[-14,8],[-8,2],[-11,-6],[-8,-1],[-9,3],[-19,0],[-2,10],[-3,2],[-20,-1],[-7,9],[-3,-1],[-8,3],[-16,13],[-17,-9],[-36,1],[-46,0],[-48,0],[-43,0],[-44,0]],[[435,2221],[4,19],[-9,35],[1,6],[19,8],[23,6],[9,0],[6,3],[9,8],[14,6],[8,-2],[5,-1],[49,-47],[22,-24],[6,-12],[11,-8],[16,-6],[15,-12],[12,-17]],[[493,1189],[0,11],[5,31],[3,13],[4,9],[-4,11],[-4,15],[-2,24],[5,7],[2,9],[-1,14],[0,47],[2,6],[4,3],[0,7],[-6,12],[-6,14],[0,20],[-2,19],[-4,9],[3,33],[2,41],[-2,19],[4,13],[2,32],[0,31],[7,50],[23,2],[26,5],[12,19],[7,25],[-2,24],[5,8],[11,14],[19,18],[-1,21],[6,7],[9,5],[13,2],[15,10],[8,19],[8,29],[-13,20],[0,4],[5,11],[8,11],[6,4],[14,-3],[3,1],[2,3],[9,32],[-1,9],[-13,21],[-2,15],[-2,23],[-3,20],[-4,8],[-7,6],[-4,4],[-27,41],[0,19],[12,25],[8,12]],[[4096,784],[-7,-8],[-2,0],[-5,-4],[-94,22],[-40,5],[-27,-7],[-34,13],[-15,2],[-7,-4],[-19,6],[-31,15],[-30,6],[-26,-2],[-17,5],[-13,15],[-16,27],[-31,27],[-41,21],[-25,16],[-10,11],[-22,6],[-34,1],[-32,-10],[-47,-34],[-43,-69],[-24,-26],[-19,-7],[-5,-16],[10,-27],[2,-30],[-7,-51],[3,-38]],[[4096,2052],[-1,1],[-23,-9],[-24,-10],[-8,-8],[-7,-5],[-10,1],[-10,-2],[-6,-7],[-8,-9],[-36,-17],[-7,-7],[-4,-6],[0,-7],[3,-14],[0,-18],[-8,-14],[-9,-10],[-10,-4],[-9,-2],[-6,-6],[-18,-32],[-8,-6],[-16,1],[-46,-49],[-5,-14],[-17,-21],[-21,-22],[-19,-11],[-2,-4],[-5,-5],[-12,-5],[-41,-27],[-49,1],[-22,-11],[-21,-5],[-30,-5],[-10,0],[-39,-2],[-47,1],[-17,-4],[-17,-10],[-12,-10],[-2,-3],[2,-4],[-1,-3],[33,-22],[8,-11],[-9,-11],[-3,-1],[-1,-1],[-5,-9],[-19,-25],[-29,-30],[-15,-9],[-6,-5],[-8,-20],[-4,-3],[-20,-3],[-40,-2],[-54,-6],[-33,-3],[-20,2],[-29,-14],[-10,-3],[-6,-1],[-28,-14],[-24,-20],[-8,-4],[-33,-9],[-13,-14],[-6,-1],[-22,18],[-14,17],[-7,18],[-1,5],[-4,-1],[-12,-7],[-10,-9],[-4,-17],[-35,-11],[-29,-10],[-13,-12],[-20,-6],[-27,3],[-20,5],[-20,1]],[[2527,0],[2,14],[-1,22],[5,17],[6,13],[14,14],[8,16],[4,4],[26,3],[9,7],[8,7],[3,9],[9,15],[8,10],[1,7],[-2,10],[-8,19],[-9,17],[-6,5],[-12,38],[-10,9],[-21,5],[-39,4],[-24,-7],[-36,-13],[-28,-8],[-18,-5],[-10,1],[-5,6],[7,5],[4,11],[-5,17],[-7,15],[-4,21],[2,26],[7,24],[14,32],[1,13]],[[2818,1404],[10,15],[3,12],[1,13],[-1,10],[-12,4],[-8,8],[-17,43],[-17,44],[-25,44],[-27,28],[-20,17],[-6,3],[-10,5],[-7,5],[-36,30],[-37,33],[-9,15],[-19,23],[-21,23],[-10,11],[-6,19],[15,17],[15,22],[19,15],[24,1],[40,-6],[44,-2],[43,4],[11,3],[11,0],[23,-5],[40,1],[21,9],[-23,15],[-24,24],[-22,26],[-14,24],[-12,31],[-12,38],[-7,49],[1,27],[4,20],[12,32],[-8,19],[2,16],[-2,22],[-3,12],[-16,37],[-3,4],[-14,26],[-6,44],[-16,28],[-25,14],[-14,17],[-5,30],[-10,8],[-40,10],[-33,0]],[[2560,2441],[18,-87],[2,-16],[1,-8],[1,-7],[3,-11],[13,-5],[26,-3],[19,-8],[11,-15],[1,-2],[6,-11],[2,-8],[-2,-23],[-4,-29],[-6,-19],[4,-25],[-2,-11],[-2,-8],[-12,-8],[-16,-9],[-38,-25],[-10,-3],[-16,-1],[-14,-6],[-16,-14],[-35,-49],[-30,-50],[-10,-42],[-12,-39],[-26,-26],[-4,-14],[-1,-8],[-1,-19],[-3,-32],[-4,-15],[-4,-4],[-29,-10],[-16,-11],[-10,-23],[-4,-25],[-5,-28],[-4,-25],[-4,-13],[-9,-13],[-15,-15],[-12,-8],[-33,-6],[-17,-32],[-14,-26],[0,-10],[-14,-53],[-24,-40],[-1,-15],[-1,-11],[-29,-36],[-8,-10],[-8,-14],[8,-13],[8,-12],[1,-4],[-13,-11],[-24,-19],[-14,-12],[-3,-6],[-2,-30],[-4,-8],[-10,-10],[-13,-12],[-14,-10],[-16,-6],[-16,-2],[-8,3],[-5,9],[-9,36],[-4,8],[-10,7],[-19,20],[-20,19],[-24,14],[-5,-1],[-4,-3],[-7,-20],[-7,-8],[-12,-2],[-22,0],[-16,2],[-4,4],[-3,9],[-4,7],[-19,-14],[-30,-22],[-10,-4],[-8,-4],[-10,-21],[-11,-22],[-16,-11],[-15,-10],[-9,-8],[-13,-10],[-24,-25],[-33,-33],[-11,-17],[-11,-26],[-7,-28],[-7,-31],[-11,-50],[-15,-28],[-14,-22],[-10,-18],[-5,-14]],[[655,2183],[10,7],[2,6],[-3,7],[-5,5],[-1,11],[1,7],[4,8],[-2,17],[1,27],[1,38],[1,23],[22,17],[33,29],[16,29],[9,23],[11,75],[8,5],[9,3],[33,28],[25,10],[19,6],[29,4],[18,-2],[33,-1],[25,3],[22,15],[10,4],[14,3],[63,-20],[63,-19],[11,1],[10,-2],[16,-11],[23,-22],[14,-14],[6,-8],[33,-48],[12,-12],[12,-7],[12,-2],[10,1],[9,5],[12,11],[18,5],[15,-1],[79,43],[8,0],[22,-3],[26,-6],[65,-43],[54,-28],[38,-10],[44,-7],[76,-2],[57,61],[21,13],[25,12],[8,2],[45,9],[88,8],[82,-3],[17,-3],[35,-8],[54,-20],[23,-18],[37,-4],[26,4],[8,19],[27,25],[19,10],[20,12],[32,16],[27,8],[24,18],[18,6],[33,0]],[[435,2221],[-5,-11],[-14,-28],[-10,-11],[-45,-40],[-23,5],[-47,-8],[-7,9],[-11,1],[-13,-1],[-5,-4],[-2,-4],[-5,-5],[-8,-16],[-7,-4],[-8,-2],[-10,0],[-6,-2],[0,-7],[-2,-7],[-7,-3],[-3,-8],[0,-7],[-4,-4],[-8,2],[-6,2]],[[216,1137],[0,10],[-9,2],[-10,3],[-6,6],[-9,12],[-3,10],[-13,1],[-16,11],[-16,12],[-5,13],[1,6],[-2,5],[-6,3],[-14,28],[-8,11],[-4,9],[1,7],[-2,9],[3,8],[7,4],[3,6],[1,12],[4,24],[3,24],[-8,6],[-10,2],[-5,7],[-2,11],[0,10],[19,34],[-4,78],[3,11],[9,9],[7,9],[0,10],[-13,23],[-24,18],[-12,14],[-7,13],[-1,7],[14,10],[7,7],[1,8],[-6,15],[1,27],[6,19],[5,26],[0,7],[-15,16],[-7,2],[-6,-1],[-15,-10],[-6,-1],[-3,2],[-2,5],[6,6],[-2,7],[4,7],[10,2],[2,4],[-12,3],[-2,4],[1,5],[4,0],[4,0],[2,3],[2,22],[1,8],[2,15],[2,58],[3,6],[0,4],[-9,3],[-21,16],[-12,12],[-11,12],[-9,8],[-7,5]],[[0,2047],[2,10],[-2,5]],[[0,2798],[1,-1],[39,-14]],[[40,2783],[-3,-8],[0,-16],[-3,-24],[-4,-29],[16,-19],[19,-20],[5,-8],[-5,-20],[3,-11],[10,-20],[17,-25],[18,-25],[12,-3],[11,-2],[7,-5],[10,-4],[10,-3],[9,-6],[6,-5],[7,-16],[20,-10],[14,-11],[-6,-5],[-17,2],[-16,5],[-2,-8],[-1,-29],[3,-24],[3,-3],[17,-4],[38,-31],[35,-30],[12,-7],[19,-3],[22,-2],[9,3],[21,15],[11,2],[11,-1],[5,-2],[10,-12],[10,-19],[2,-13],[-1,-7],[-3,-3],[-17,-3],[-7,-3],[-2,-4],[2,-9],[4,-6],[18,-27],[28,-35],[8,-9]],[[3388,649],[-10,6],[-10,18],[-5,3],[-28,-8],[-15,-7],[-8,-7],[-6,-1],[-9,10],[-7,2],[-11,-2],[-12,0],[-7,1],[-5,-1],[-13,6],[-49,14],[-9,5],[-10,0],[-25,-13],[-13,-3],[-41,-8],[-43,-4],[-17,0],[-11,-6],[-7,-8],[-5,-17],[-9,-30],[-3,-8],[0,-12],[-2,-20],[-2,-18],[2,-12],[-12,-25],[-15,-29],[-12,-26],[-13,-25]],[[2818,1404],[-18,-30],[-25,-18],[-7,-11],[-3,-13],[-6,-13],[-13,-29],[-9,-24],[-9,-7],[-22,-35],[-15,-36],[-3,-9],[-5,-7],[-7,-5],[-26,-11],[-8,-6],[-7,-6],[-6,-8],[-2,-9],[6,-12],[7,-11],[7,0],[7,0],[4,-6],[3,-3],[0,-69],[-6,-11],[0,-4],[-3,-12],[-1,-13],[2,-6],[5,-4],[7,-9],[4,-21],[9,-75],[4,-12],[7,-8],[22,-16],[24,-21],[7,-14],[5,-23],[9,-17],[-1,-6],[-3,-3],[-9,0],[-6,-1],[5,-13],[12,-23],[20,-23],[22,-25],[18,-21],[22,-24],[18,-18],[18,-19],[13,-5],[10,-1],[5,-4],[5,-9],[9,-9],[10,-13],[4,-13],[-4,-12],[4,-18],[0,-2],[3,-7],[-1,-6],[2,-23],[5,-21],[9,-17],[0,-2]],[[164,2052],[-47,-2],[-17,-5],[-10,0],[-1,4],[-1,3],[-59,14],[-29,6]],[[179,2068],[-5,-9],[-6,-7],[-4,0]],[[770,3573],[-58,-11],[-41,-8],[-45,-8],[-7,-2],[-8,0],[-6,0],[-12,5],[-15,11],[-10,6],[-3,9],[6,11],[7,11],[3,8],[5,6],[6,5],[1,7],[-6,12],[-4,16],[0,30],[0,10],[0,3],[-13,11],[-25,13],[-23,7],[-11,3],[-25,4],[-36,8],[-12,5],[-23,28],[-11,7],[-53,4],[-17,5],[-15,6],[-12,9],[-7,15],[-2,12],[-5,6],[-58,30],[-15,10],[-8,9],[0,14],[1,17],[-2,15],[-2,7],[-27,18],[-60,40],[-59,40],[-60,40],[-3,2]],[[770,3573],[39,8],[41,8],[60,12],[66,13],[70,14],[17,8],[53,47],[24,22],[48,42],[37,33],[47,41],[50,42],[40,33],[63,38],[94,57],[94,57],[79,48]],[[4096,3776],[-79,40],[-88,44],[-87,44],[-87,44],[-87,45],[-87,44],[-88,44],[-29,15]],[[4096,2248],[-2,0],[-3,5],[1,11],[-8,34],[-8,28],[4,16],[-11,21],[-22,9],[-20,-2],[-22,-5],[-13,2],[-9,4],[-7,7],[-3,10],[3,13],[12,26],[15,21],[31,19],[8,10],[5,11],[0,13],[-2,14],[-3,12],[-9,17],[-8,19],[-1,13],[4,9],[8,12],[17,12],[4,3],[10,7],[9,5],[20,12]],[[4096,2657],[0,1],[-9,8],[-2,11],[-3,19],[-4,11],[-4,9],[7,7],[9,9],[6,2]],[[2062,405],[-42,0],[-56,0],[-52,0],[-36,0],[-59,0],[-20,8],[-6,6],[-1,6],[-1,4],[-5,1]],[[2062,405],[1,-44],[0,-36],[0,-40],[0,-41],[0,-35],[1,-22],[-38,0],[-49,0],[-50,0],[-49,0],[-25,0],[-27,0],[-9,-1],[-6,-5],[-8,-2],[-8,5],[-10,2],[-3,5],[-5,10],[-10,1],[-5,-1],[-8,-6],[-8,-2]],[[164,2052],[-5,-20],[-9,-25],[-7,-8],[-4,-60],[3,-5],[2,-2],[30,-20],[40,-27],[28,-19],[2,-6],[1,-40],[0,-34],[6,-20],[1,-19],[7,-14],[26,-27],[6,-17],[1,-52],[0,-39],[4,-54],[0,-45],[0,-57],[0,-66],[0,-70],[-17,-1],[9,-21],[2,-20],[2,-6],[-5,-10],[4,-14],[7,-5],[19,-29],[7,-25],[-31,-8],[2,-7]],[[2477,2558],[-18,80],[-11,46],[12,14],[24,33],[30,63],[67,96],[35,50],[69,74],[84,91],[48,51],[8,94],[8,98],[6,75],[8,88],[6,74],[5,54],[6,76],[6,15],[33,60],[3,8],[-6,10],[-48,51],[-14,11],[-9,27],[12,14],[-57,86],[-14,10],[-6,11],[-1,15],[-1,59],[-1,4]],[[40,2783],[2,10],[10,3],[27,0],[52,-4],[41,5],[3,1],[29,26],[33,27],[49,2],[52,3],[42,2],[61,2],[49,2],[56,2],[2,12],[3,3],[6,1],[42,-7],[39,-7],[3,24],[34,30],[20,6],[5,5],[6,10],[4,15],[1,11],[8,9],[5,17],[7,30],[19,30],[11,42],[2,41],[2,30],[6,7],[0,54],[0,55],[-1,46],[0,58],[0,51],[0,54],[0,50],[0,32]],[[3388,649],[2,-32],[-14,-41],[-10,-30],[-27,-50],[-24,-45],[-25,-75],[0,-55],[-3,-34],[-8,-22],[-20,-56],[-3,-49],[7,-60],[-7,-56],[-17,-44]],[[0,1051],[47,24],[75,0],[14,0],[37,10],[11,18],[7,16],[10,11],[15,7],[23,10],[56,13],[36,9],[85,12],[77,8],[12,1],[102,4],[17,24],[14,1],[39,13],[6,-3],[-37,-20],[-11,-4],[-7,-5],[7,-4],[116,1],[56,-12],[37,-24],[41,-36],[33,-43],[9,-5],[3,-8],[1,-16],[11,-7],[19,7],[5,10],[4,2],[-1,-11],[5,-4],[12,0],[7,-2],[-11,-7],[-19,0],[-13,-1],[-4,-7],[7,-9],[27,-16],[30,14],[-3,-9],[-6,-9],[-11,-2],[-13,-6],[0,-14],[1,-12],[3,-4],[16,-4],[-4,-5],[-9,3],[-4,-3],[12,-34],[8,-20],[11,-19],[6,-17],[39,-35],[19,-13],[12,-9],[19,-9],[18,-3],[6,3],[1,18],[11,8],[0,-11],[-3,-7],[1,-5],[7,-1],[29,6],[7,0],[10,1],[5,26],[4,-4],[3,-15],[3,-7],[14,1],[8,0],[19,5],[-12,18],[-1,23],[-1,11],[-3,14],[4,0],[6,-15],[3,-23],[5,-15],[10,-9],[17,1],[25,22],[2,19],[-14,13],[-2,5],[12,-6],[12,-13],[14,-12],[32,1],[9,8],[1,9],[3,2],[6,-18],[15,-6],[28,-1],[42,6],[48,1],[6,18],[-17,47],[3,3],[17,-18],[9,-2],[7,-13],[15,-4],[5,6],[3,0],[2,-1],[-7,-27],[2,-7],[6,-8],[15,-2],[6,6],[-5,23],[8,-5],[10,-12],[8,-1],[9,1],[6,-1],[6,-4],[-3,-22],[2,-15],[3,-12],[8,-11],[4,-26],[21,-10],[25,-8],[9,-4],[2,-6],[9,-3],[12,-1],[7,4],[7,11],[-4,12],[6,-1],[7,-6],[9,0],[12,9],[4,-4],[-7,-9],[-2,-8],[17,-16],[1,-5],[-20,3],[-7,-10],[-6,-3],[11,-19],[4,-16],[23,2],[-17,-16],[37,-42],[7,-13],[6,-30],[-11,-31],[-4,-33],[-8,-37],[-4,-44],[-4,-44],[5,-26],[-16,-26],[-13,-32],[-3,-10],[-8,-4],[-17,-20],[-11,-26],[-8,-29],[10,-4],[12,-1],[17,-11],[-2,-4],[-3,-8],[9,-40],[0,-27],[-1,-10],[-3,-2],[-8,5],[-3,12],[-8,1],[-31,-10],[0,-11],[13,-12],[13,-23],[14,-13],[42,-19],[30,5],[11,-5],[-35,-13],[-3,-15],[-10,8],[-30,12],[-19,2],[-11,7],[-4,9],[-2,11],[-4,7],[-10,-10],[5,-32],[1,-22],[-1699,0],[0,1051]],[[1543,609],[32,-8],[10,1],[10,15],[6,18],[28,42],[0,15],[-7,10],[-27,-1],[-5,1],[-11,-5],[-7,-12],[-2,-17],[-9,-18],[-5,-3],[-15,-3],[-2,-5],[-4,-17],[2,-7],[6,-6]],[[1337,292],[8,-4],[6,5],[6,11],[-1,6],[-2,4],[-4,3],[-5,-3],[-10,-15],[2,-7]],[[1206,75],[-18,-11],[-9,-12],[-2,-10],[6,-20],[4,-10],[7,-3],[18,14],[17,22],[0,16],[-12,14],[-11,0]],[[1324,840],[-8,5],[-16,-25],[11,-1],[18,6],[5,13],[-10,2]],[[1769,4096],[2,-7],[3,-19],[-4,-5],[-8,-1],[-11,16],[-13,16],[17,0],[0,-1],[3,1],[11,0]],[[49,1246],[5,8],[4,4],[-2,-8],[-6,-9],[-8,-6],[-7,-2],[-4,2],[-2,0],[-1,-1],[0,-3],[-1,-5],[0,-6],[-1,-6],[-2,-10],[1,-16],[-6,-5],[-4,3],[-2,9],[-6,1],[-7,-4],[0,86],[2,0],[4,1],[8,3],[6,5],[-1,3],[-8,1],[-3,6],[8,5],[6,-1],[0,3],[-4,3],[-2,4],[1,3],[1,3],[0,5],[-2,7],[-1,5],[-3,1],[-4,2],[-3,3],[-3,2],[-1,4],[2,0],[3,-2],[6,-1],[3,0],[3,0],[4,2],[4,3],[2,4],[1,2],[3,0],[1,2],[0,4],[-2,3],[-3,1],[-3,1],[-6,6],[-7,9],[-3,7],[0,3],[0,3],[-1,3],[-8,4],[0,8],[2,0],[-2,4],[0,43],[3,-1],[7,1],[3,5],[-2,8],[-1,4],[1,6],[2,10],[1,6],[-3,7],[2,7],[5,3],[6,-2],[4,-1],[3,1],[-1,6],[-2,8],[-6,10],[-3,5],[6,3],[6,6],[5,9],[4,5],[-11,3],[-12,5],[-2,4],[2,6],[-1,8],[0,9],[3,6],[6,3],[2,6],[2,13],[4,8],[3,-1],[-2,-9],[-3,-12],[-3,-6],[-5,-3],[-1,-11],[-1,-11],[-2,-5],[2,-3],[11,-3],[12,-4],[3,-4],[4,-3],[2,-1],[-1,-2],[-8,-1],[-5,-1],[1,-3],[-5,-9],[-2,-8],[4,-8],[5,-7],[7,-4],[0,-2],[-5,-1],[-8,-2],[-7,-4],[-3,-7],[-4,-9],[-2,-6],[3,-5],[4,-3],[4,-6],[9,3],[7,5],[-1,-6],[0,-2],[-1,-3],[-2,-3],[2,-5],[6,-8],[0,-12],[0,-15],[0,-8],[-4,1],[-3,0],[-2,-4],[0,-4],[2,-5],[1,-4],[7,5],[6,5],[-1,-7],[-2,-7],[-1,-3],[0,-7],[-2,-6],[-2,-5],[0,-3],[0,-2],[3,-5],[0,-4],[-3,-4],[-1,-5],[2,-3],[0,-3],[0,-3],[-1,-2],[-1,-7],[4,-5],[3,-2],[-1,-5],[-4,-5],[-1,-8],[-2,-10],[-4,-10],[-1,-24],[3,-17],[3,0]],[[24,1247],[9,8],[-4,8],[-8,6],[-10,2],[-8,-6],[-1,-11],[7,-4],[7,-7],[8,4]],[[2684,2441],[0,-3],[-5,-3],[-4,-4],[-2,-6],[-4,-2],[-8,2],[-5,0],[-13,-2],[-8,-5],[-12,-10],[-11,-4],[-10,1],[-3,4],[-3,15],[0,3],[4,2],[1,3],[4,7],[0,3],[0,1],[4,5],[0,4],[2,5],[5,4],[8,5],[15,5],[11,0],[6,-4],[12,-1],[2,-3],[7,-11],[7,-11]],[[853,1935],[-1,-4],[-15,-28],[0,-15],[4,-21],[7,-22],[-6,-4],[-6,1],[-5,7],[-5,23],[-8,7],[-4,1],[-1,5],[5,5],[3,4],[-1,5],[-6,2],[-1,2],[3,6],[-3,15],[-12,13],[0,5],[7,3],[2,3],[2,5],[2,31],[4,3],[13,-8],[8,3],[9,-2],[4,-4],[-6,-13],[4,-20],[3,-8]],[[1769,4096],[2,-7],[3,-19],[-4,-5],[-8,-1],[-11,16],[-13,16]],[[1755,4096],[0,-1],[3,1]],[[2684,2441],[0,-3],[-5,-3],[-4,-4],[-2,-6],[-4,-2],[-8,2],[-5,0],[-13,-2],[-8,-5],[-12,-10],[-11,-4],[-10,1],[-3,4],[-3,15],[0,3],[4,2],[1,3],[4,7],[0,3],[0,1],[4,5],[0,4],[2,5],[5,4],[8,5],[15,5],[11,0],[6,-4],[12,-1],[2,-3],[7,-11],[7,-11]],[[853,1935],[-1,-4],[-15,-28],[0,-15],[4,-21],[7,-22],[-6,-4],[-6,1],[-5,7],[-5,23],[-8,7],[-4,1],[-1,5],[5,5],[3,4],[-1,5],[-6,2],[-1,2],[3,6],[-3,15],[-12,13],[0,5],[7,3],[2,3],[2,5],[2,31],[4,3],[13,-8],[8,3],[9,-2],[4,-4],[-6,-13],[4,-20],[3,-8]],[[49,1246],[5,8],[4,4],[-2,-8],[-6,-9],[-8,-6],[-7,-2],[-4,2],[-2,0],[-1,-1],[0,-3],[-1,-5],[0,-6],[-1,-6],[-2,-10],[1,-16],[-6,-5],[-4,3],[-2,9],[-6,1],[-7,-4]],[[0,1278],[2,0],[4,1],[8,3],[6,5],[-1,3],[-8,1],[-3,6],[8,5],[6,-1],[0,3],[-4,3],[-2,4],[1,3],[1,3],[0,5],[-2,7],[-1,5],[-3,1],[-4,2],[-3,3],[-3,2],[-1,4],[2,0],[3,-2],[6,-1],[3,0],[3,0],[4,2],[4,3],[2,4],[1,2],[3,0],[1,2],[0,4],[-2,3],[-3,1],[-3,1],[-6,6],[-7,9],[-3,7],[0,3],[0,3],[-1,3],[-8,4]],[[0,1408],[2,0],[-2,4]],[[0,1455],[3,-1],[7,1],[3,5],[-2,8],[-1,4],[1,6],[2,10],[1,6],[-3,7],[2,7],[5,3],[6,-2],[4,-1],[3,1],[-1,6],[-2,8],[-6,10],[-3,5],[6,3],[6,6],[5,9],[4,5],[-11,3],[-12,5],[-2,4],[2,6],[-1,8],[0,9],[3,6],[6,3],[2,6],[2,13],[4,8],[3,-1],[-2,-9],[-3,-12],[-3,-6],[-5,-3],[-1,-11],[-1,-11],[-2,-5],[2,-3],[11,-3],[12,-4],[3,-4],[4,-3],[2,-1],[-1,-2],[-8,-1],[-5,-1],[1,-3],[-5,-9],[-2,-8],[4,-8],[5,-7],[7,-4],[0,-2],[-5,-1],[-8,-2],[-7,-4],[-3,-7],[-4,-9],[-2,-6],[3,-5],[4,-3],[4,-6],[9,3],[7,5],[-1,-6],[0,-2],[-1,-3],[-2,-3],[2,-5],[6,-8],[0,-12],[0,-15],[0,-8],[-4,1],[-3,0],[-2,-4],[0,-4],[2,-5],[1,-4],[7,5],[6,5],[-1,-7],[-2,-7],[-1,-3],[0,-7],[-2,-6],[-2,-5],[0,-3],[0,-2],[3,-5],[0,-4],[-3,-4],[-1,-5],[2,-3],[0,-3],[0,-3],[-1,-2],[-1,-7],[4,-5],[3,-2],[-1,-5],[-4,-5],[-1,-8],[-2,-10],[-4,-10],[-1,-24],[3,-17],[3,0]],[[24,1247],[9,8],[-4,8],[-8,6],[-10,2],[-8,-6],[-1,-11],[7,-4],[7,-7],[8,4]],[[1595,701],[-5,1],[-11,-5],[-7,-12],[-2,-17],[-9,-18],[-5,-3],[-15,-3],[-2,-5],[-4,-17],[2,-7],[6,-6],[32,-8],[10,1],[10,15],[6,18],[28,42],[0,15],[-7,10],[-27,-1]],[[1206,75],[-18,-11],[-9,-12],[-2,-10],[6,-20],[4,-10],[7,-3],[18,14],[17,22],[0,16],[-12,14],[-11,0]],[[1350,317],[-5,-3],[-10,-15],[2,-7],[8,-4],[6,5],[6,11],[-1,6],[-2,4],[-4,3]],[[1316,845],[-16,-25],[11,-1],[18,6],[5,13],[-10,2],[-8,5]],[[0,1051],[47,24],[75,0],[14,0],[37,10],[11,18],[7,16],[10,11],[15,7],[23,10],[56,13],[36,9],[85,12],[77,8],[12,1],[102,4],[17,24],[14,1],[39,13],[6,-3],[-37,-20],[-11,-4],[-7,-5],[7,-4],[116,1],[56,-12],[37,-24],[41,-36],[33,-43],[9,-5],[3,-8],[1,-16],[11,-7],[19,7],[5,10],[4,2],[-1,-11],[5,-4],[12,0],[7,-2],[-11,-7],[-19,0],[-13,-1],[-4,-7],[7,-9],[27,-16],[30,14],[-3,-9],[-6,-9],[-11,-2],[-13,-6],[0,-14],[1,-12],[3,-4],[16,-4],[-4,-5],[-9,3],[-4,-3],[12,-34],[8,-20],[11,-19],[6,-17],[39,-35],[19,-13],[12,-9],[19,-9],[18,-3],[6,3],[1,18],[11,8],[0,-11],[-3,-7],[1,-5],[7,-1],[29,6],[7,0],[10,1],[5,26],[4,-4],[3,-15],[3,-7],[14,1],[8,0],[19,5],[-12,18],[-1,23],[-1,11],[-3,14],[4,0],[6,-15],[3,-23],[5,-15],[10,-9],[17,1],[25,22],[2,19],[-14,13],[-2,5],[12,-6],[12,-13],[14,-12],[32,1],[9,8],[1,9],[3,2],[6,-18],[15,-6],[28,-1],[42,6],[48,1],[6,18],[-17,47],[3,3],[17,-18],[9,-2],[7,-13],[15,-4],[5,6],[3,0],[2,-1],[-7,-27],[2,-7],[6,-8],[15,-2],[6,6],[-5,23],[8,-5],[10,-12],[8,-1],[9,1],[6,-1],[6,-4],[-3,-22],[2,-15],[3,-12],[8,-11],[4,-26],[21,-10],[25,-8],[9,-4],[2,-6],[9,-3],[12,-1],[7,4],[7,11],[-4,12],[6,-1],[7,-6],[9,0],[12,9],[4,-4],[-7,-9],[-2,-8],[17,-16],[1,-5],[-20,3],[-7,-10],[-6,-3],[11,-19],[4,-16],[23,2],[-17,-16],[37,-42],[7,-13],[6,-30],[-11,-31],[-4,-33],[-8,-37],[-4,-44],[-4,-44],[5,-26],[-16,-26],[-13,-32],[-3,-10],[-8,-4],[-17,-20],[-11,-26],[-8,-29],[10,-4],[12,-1],[17,-11],[-2,-4],[-3,-8],[9,-40],[0,-27],[-1,-10],[-3,-2],[-8,5],[-3,12],[-8,1],[-31,-10],[0,-11],[13,-12],[13,-23],[14,-13],[42,-19],[30,5],[11,-5],[-35,-13],[-3,-15],[-10,8],[-30,12],[-19,2],[-11,7],[-4,9],[-2,11],[-4,7],[-10,-10],[5,-32],[1,-22]],[[1212,23],[-18,-14],[-7,3],[-4,10],[-6,20],[2,10],[9,12],[18,11],[11,0],[12,-14],[0,-16],[-17,-22]],[[1351,293],[-6,-5],[-8,4],[-2,7],[10,15],[5,3],[4,-3],[2,-4],[1,-6],[-6,-11]],[[1590,702],[5,-1],[27,1],[7,-10],[0,-15],[-28,-42],[-6,-18],[-10,-15],[-10,-1],[-32,8],[-6,6],[-2,7],[4,17],[2,5],[15,3],[5,3],[9,18],[2,17],[7,12],[11,5]],[[1329,825],[-18,-6],[-11,1],[16,25],[8,-5],[10,-2],[-5,-13]],[[0,4096],[4096,0],[0,-4096],[-2397,0],[-1,22],[-5,32],[10,10],[4,-7],[2,-11],[4,-9],[11,-7],[19,-2],[30,-12],[10,-8],[3,15],[35,13],[-11,5],[-30,-5],[-42,19],[-14,13],[-13,23],[-13,12],[0,11],[31,10],[8,-1],[3,-12],[8,-5],[3,2],[1,10],[0,27],[-9,40],[3,8],[2,4],[-17,11],[-12,1],[-10,4],[8,29],[11,26],[17,20],[8,4],[3,10],[13,32],[16,26],[-5,26],[4,44],[4,44],[8,37],[4,33],[11,31],[-6,30],[-7,13],[-37,42],[17,16],[-23,-2],[-4,16],[-11,19],[6,3],[7,10],[20,-3],[-1,5],[-17,16],[2,8],[7,9],[-4,4],[-12,-9],[-9,0],[-7,6],[-6,1],[4,-12],[-7,-11],[-7,-4],[-12,1],[-9,3],[-2,6],[-9,4],[-25,8],[-21,10],[-4,26],[-8,11],[-3,12],[-2,15],[3,22],[-6,4],[-6,1],[-9,-1],[-8,1],[-10,12],[-8,5],[5,-23],[-6,-6],[-15,2],[-6,8],[-2,7],[7,27],[-2,1],[-3,0],[-5,-6],[-15,4],[-7,13],[-9,2],[-17,18],[-3,-3],[17,-47],[-6,-18],[-48,-1],[-42,-6],[-28,1],[-15,6],[-6,18],[-3,-2],[-1,-9],[-9,-8],[-32,-1],[-14,12],[-12,13],[-12,6],[2,-5],[14,-13],[-2,-19],[-25,-22],[-17,-1],[-10,9],[-5,15],[-3,23],[-6,15],[-4,0],[3,-14],[1,-11],[1,-23],[12,-18],[-19,-5],[-8,0],[-14,-1],[-3,7],[-3,15],[-4,4],[-5,-26],[-10,-1],[-7,0],[-29,-6],[-7,1],[-1,5],[3,7],[0,11],[-11,-8],[-1,-18],[-6,-3],[-18,3],[-19,9],[-12,9],[-19,13],[-39,35],[-6,17],[-11,19],[-8,20],[-12,34],[4,3],[9,-3],[4,5],[-16,4],[-3,4],[-1,12],[0,14],[13,6],[11,2],[6,9],[3,9],[-30,-14],[-27,16],[-7,9],[4,7],[13,1],[19,0],[11,7],[-7,2],[-12,0],[-5,4],[1,11],[-4,-2],[-5,-10],[-19,-7],[-11,7],[-1,16],[-3,8],[-9,5],[-33,43],[-41,36],[-37,24],[-56,12],[-116,-1],[-7,4],[7,5],[11,4],[37,20],[-6,3],[-39,-13],[-14,-1],[-17,-24],[-102,-4],[-12,-1],[-77,-8],[-85,-12],[-36,-9],[-56,-13],[-23,-10],[-15,-7],[-10,-11],[-7,-16],[-11,-18],[-37,-10],[-14,0],[-75,0],[-47,-24],[0,3045]],[[2260,612],[34,28],[90,-26],[38,26],[57,-68],[-50,-38],[-62,-2],[-104,44],[18,25],[-21,11]],[[518,2148],[33,62],[34,-12],[-34,-71],[-21,-8],[-12,29]],[[376,2306],[100,42],[41,-34],[-85,-29],[7,-63],[-63,84]],[[2467,110],[41,7],[56,-22],[-37,-47],[-60,62]],[[2577,456],[7,32],[71,28],[56,-66],[-31,-57],[-55,56],[-48,7]],[[316,2066],[33,65],[51,-3],[-17,-52],[-67,-10]],[[361,2294],[15,11],[63,-83],[-61,-78],[-17,150]],[[2605,230],[70,72],[118,-7],[22,-110],[-21,-97],[-86,-60],[-73,96],[10,51],[-40,55]],[[1790,428],[41,2],[41,85],[89,-8],[-11,-36],[-58,2],[-42,-67],[-60,22]],[[2966,448],[38,84],[-6,19],[9,16],[62,-60],[9,-96],[-62,0],[-2,-29],[-48,66]],[[179,2114],[28,57],[49,-32],[-45,-55],[-22,-4],[-10,34]],[[1498,978],[35,18],[-24,33],[36,47],[57,-26],[-18,-52],[22,-30],[-30,-45],[-20,42],[23,54],[-26,-13],[-4,-46],[-51,18]],[[1568,949],[11,0],[1,8],[-4,1],[-8,-9]],[[2255,1095],[24,53],[87,3],[28,-118],[-137,24],[18,15],[-20,23]],[[3795,170],[32,53],[69,3],[48,-33],[-49,-69],[-100,46]],[[379,2145],[70,91],[-17,49],[83,25],[45,-70],[-36,-98],[-87,40],[-23,-62],[-35,25]],[[72,1919],[20,84],[41,24],[-16,23],[47,2],[-20,-85],[-72,-48]],[[0,1400],[30,-28],[-11,-28],[-19,0],[0,56]],[[1855,1853],[53,33],[65,-41],[-17,-35],[-59,-28],[-42,71]],[[94,2175],[20,24],[50,-22],[-3,-55],[42,-63],[-91,53],[-18,63]],[[2084,721],[7,12],[13,5],[-2,-26],[-18,9]],[[1764,757],[-15,10],[41,-3],[-19,-19],[-7,12]],[[1281,885],[-14,24],[37,2],[7,-33],[-30,7]],[[1339,944],[-7,17],[46,21],[-20,-42],[-19,4]],[[1330,1044],[32,-3],[9,-9],[-46,-14],[5,26]],[[1279,1037],[-19,16],[5,17],[28,-47],[-14,14]],[[1277,1160],[18,5],[-21,-31],[-40,6],[-11,22],[54,-2]],[[216,1137],[-28,-8],[14,38],[111,20],[-2,-23],[-32,9],[-63,-36]],[[1075,1117],[-27,-30],[-21,21],[35,21],[13,-12]],[[1376,1218],[14,-15],[-21,-17],[-18,14],[25,18]],[[659,1283],[3,15],[18,-12],[-23,-17],[2,14]],[[1043,1178],[-28,-8],[0,35],[28,-12],[0,-15]],[[489,1189],[-131,-16],[-27,23],[22,30],[3,-30],[121,7],[-16,23],[43,27],[-15,-64]],[[624,1218],[-34,-25],[-35,36],[23,-7],[19,45],[48,-17],[2,-28],[-23,-4]],[[1267,1110],[3,-19],[24,24],[-6,-40],[-28,19],[7,16]],[[359,1343],[15,3],[15,4],[-21,-33],[-9,26]],[[618,1352],[-3,-25],[-18,-3],[1,20],[20,8]],[[934,1362],[12,6],[14,-4],[-9,-19],[-17,17]],[[1630,1362],[8,17],[15,-6],[-7,-12],[-16,1]],[[717,1456],[-25,7],[4,22],[40,-7],[-19,-22]],[[834,1599],[17,-12],[-18,-17],[-15,12],[16,17]],[[759,1367],[-51,-20],[-21,29],[14,47],[32,-35],[14,16],[12,-37]],[[1355,1702],[9,8],[19,-26],[-23,-3],[-5,21]],[[1603,1850],[4,15],[14,6],[-7,-40],[-11,19]],[[1374,1976],[4,-31],[-7,-7],[-32,40],[25,17],[10,-19]],[[2388,2221],[16,3],[5,-22],[-28,7],[7,12]],[[1562,2253],[1,-26],[-21,4],[0,26],[20,-4]],[[2726,2264],[15,12],[19,-3],[-18,-23],[-16,14]],[[963,2440],[-1,-12],[-21,11],[18,12],[4,-11]],[[389,2535],[12,-15],[-14,-6],[-14,11],[16,10]],[[2234,1521],[33,56],[52,11],[51,-60],[-65,-56],[-71,49]],[[172,2060],[31,-1],[3,28],[79,-34],[-50,-65],[-63,72]],[[2469,1491],[41,50],[-21,74],[52,-8],[1,-81],[-53,-44],[-20,9]],[[1602,3727],[0,32],[224,5],[-5,-259],[-45,-7],[-16,73],[-50,9],[-29,63],[-48,-12],[-31,96]],[[2623,1592],[32,88],[46,-35],[14,-76],[-92,23]],[[55,1877],[19,42],[68,-6],[34,-29],[-12,-24],[-47,-6],[-62,23]],[[2225,243],[18,1],[18,74],[-18,43],[33,-16],[-13,22],[105,9],[1,45],[50,-1],[-40,-156],[-63,58],[45,-77],[-48,-27],[-67,1],[-21,24]],[[2633,2109],[39,13],[5,26],[39,-22],[-43,-61],[-40,44]],[[3232,0],[49,86],[-8,51],[61,74],[25,-17],[-57,-194],[-70,0]],[[2677,505],[74,47],[32,-71],[-74,-31],[-32,55]],[[112,1114],[24,14],[74,9],[-42,-57],[-46,-2],[-10,36]],[[2829,421],[11,45],[47,0],[43,-12],[18,-40],[-77,-20],[-42,27]],[[2113,954],[19,39],[45,-26],[-31,-41],[-33,28]],[[3092,260],[17,56],[53,-11],[22,-49],[-34,-58],[-44,-31],[-14,93]],[[206,2100],[58,43],[87,-16],[-65,-77],[-53,10],[-27,40]]]}