{"objects":{"water":{"type":"GeometryCollection","geometries":[{"type":"Polygon","properties":{"source":"naturalearthdata.com","kind":"ocean","area":1444195503964160,"sort_rank":200,"min_zoom":0.0,"id":1},"arcs":[[4]]},{"type":"LineString","properties":{"source":"naturalearthdata.com","kind":"ocean","sort_rank":205,"boundary":true,"min_zoom":0.0,"id":1388},"arcs":[5]}]},"buildings":{"type":"GeometryCollection","geometries":[]},"places":{"type":"GeometryCollection","geometries":[{"type":"Point","properties":{"source":"naturalearthdata.com","kind":"locality","name":"Cape Town","country_capital":true,"population":3215000,"min_zoom":2.0,"id":7269},"coordinates":[3356,1519]},{"type":"Point","properties":{"name:pt":"Nam\u00edbia","name:ps":"\u0646\u06d0\u0645\u0628\u06cc\u0627","name:ka":"\u10dc\u10d0\u10db\u10d8\u10d1\u10d8\u10d0","name:tr":"Namibya","name:cv":"\u041d\u0430\u043c\u0438\u0431\u0438","name:km":"\u178e\u17b6\u1798\u17b8\u1794\u17ca\u17b8","name:cs":"Namibie","name:ki":"Namimbia","name:kw":"Namibi","name:tk":"Namibi\u00fda","name:ku":"Nam\u00eebya","name:ti":"\u1293\u121a\u1262\u12eb","name:ks":"\u0646\u0627\u0645\u0650\u0628\u0650\u06cc\u0627","name:to":"Namipia","name:tl":"Namibya","name:pa":"\u0a28\u0a2e\u0a40\u0a2c\u0a40\u0a06","name:os":"\u041d\u0430\u043c\u0438\u0431\u0438","name:or":"\u0b28\u0b3e\u0b2e\u0b4d\u0b2c\u0b3f\u0b06","name:ce":"\u041d\u0430\u043c\u0438\u0431\u0438","name:ta":"\u0ba8\u0bae\u0bc0\u0baa\u0bbf\u0baf\u0bbe","name:tg":"\u041d\u0430\u043c\u0438\u0431\u0438\u044f","name:ca":"Nam\u00edbia","name:te":"\u0c28\u0c2e\u0c40\u0c2c\u0c3f\u0c2f\u0c3e","name:hu":"Nam\u00edbia","name:ln":"Namibi","name:sr":"\u041d\u0430\u043c\u0438\u0431\u0438\u0458\u0430","name:dz":"\u0f53\u0f0b\u0f58\u0f72\u0f0b\u0f56\u0f72\u0f0b\u0f61","source":"openstreetmap.org","name:nv":"Nam\u00ed\u00edbya","name:kn":"\u0ca8\u0cae\u0cc0\u0cac\u0cbf\u0caf\u0cbe","name:lv":"Nam\u012bbija","name:lt":"Namibija","name:uz":"Namibiya","name:kk":"\u041d\u0430\u043c\u0438\u0431\u0438\u044f","name:he":"\u05e0\u05de\u05d9\u05d1\u05d9\u05d4","min_zoom":2.0,"kind":"country","name:ur":"\u0646\u0627\u0645\u06cc\u0628\u06cc\u0627","name:lb":"Namibien","name:lg":"Namibiya","name:uk":"\u041d\u0430\u043c\u0456\u0431\u0456\u044f","name:hy":"\u0546\u0561\u0574\u056b\u0562\u056b\u0561","name:ug":"\u0646\u0627\u0645\u0649\u0628\u0649\u064a\u06d5","name:li":"Namibi\u00eb","name:hr":"Namibija","name:lo":"\u0e99\u0eb2\u0ea1\u0eb5\u0ec0\u0e9a\u0e8d","population":2113077,"name:el":"\u039d\u03b1\u03bc\u03af\u03bc\u03c0\u03b9\u03b1","name:eo":"Namibio","name":"Namibia","name:ee":"Namibia nutome","name:th":"\u0e1b\u0e23\u0e30\u0e40\u0e17\u0e28\u0e19\u0e32\u0e21\u0e34\u0e40\u0e1a\u0e35\u0e22","name:yi":"\u05e0\u05d0\u05de\u05d9\u05d1\u05d9\u05e2","name:et":"Namiibia","name:nl":"Namibi\u00eb","name:yo":"Or\u00edl\u1eb9\u0301\u00e8de Namibia","name:mt":"Namibja","name:rn":"Namibiya","name:az":"Namibiya","name:mr":"\u0928\u092e\u0940\u092c\u093f\u092f\u093e","name:qu":"Namiwya","name:ar":"\u0646\u0627\u0645\u064a\u0628\u064a\u0627","name:my":"\u1014\u1019\u103a\u1019\u102e\u1038\u1018\u102e\u1038\u101a\u102c\u1038","official_name":"Republic of Namibia;Republiek van Namibia;Republik Namibia","name:is":"Namib\u00eda","name:am":"\u1293\u121a\u1262\u12eb","name:ml":"\u0d28\u0d2e\u0d40\u0d2c\u0d3f\u0d2f","name:ru":"\u041d\u0430\u043c\u0438\u0431\u0438\u044f","name:rw":"Namibiya","id":424311662,"name:mk":"\u041d\u0430\u043c\u0438\u0431\u0438\u0458\u0430","name:af":"Namibi\u00eb","name:zu":"i-Namibia","name:ha":"Namibiya","name:mn":"\u041d\u0430\u043c\u0438\u0431\u0438","name:ff":"Namibii","name:hi":"\u0928\u093e\u092e\u0940\u092c\u093f\u092f\u093e","name:fr":"Namibie","name:wo":"Namibi","name:zh-yue":"\u7d0d\u7c73\u6bd4\u4e9e","name:fy":"Namybje","name:vo":"Namibiy\u00e4n","name:zh":"\u7eb3\u7c73\u6bd4\u4e9a","name:so":"Namiibiya","name:sl":"Namibija","name:sk":"Nam\u00edbia","name:ja":"\u30ca\u30df\u30d3\u30a2","name:si":"\u0db1\u0dd0\u0db8\u0dd3\u0db6\u0dd2\u0dba\u0dcf\u0dc0","name:sh":"Namibija","name:sg":"Namib\u00f9ii","name:sc":"Nam\u00ecbia","name:ne":"\u0928\u093e\u092e\u093f\u092c\u093f\u092f\u093e","name:sa":"\u0928\u092e\u0940\u092c\u093f\u092f\u093e","name:bs":"Namibija","name:bm":"Namibi","name:bn":"\u09a8\u09be\u09ae\u09bf\u09ac\u09bf\u09af\u09bc\u09be","name:bo":"\u0f53\u0f0b\u0f58\u0f72\u0f0b\u0f56\u0f72\u0f0b\u0f61\u0f0d","name:be":"\u041d\u0430\u043c\u0456\u0431\u0456\u044f","name:bg":"\u041d\u0430\u043c\u0438\u0431\u0438\u044f","name:ss":"INamibiya","name:ba":"\u041d\u0430\u043c\u0438\u0431\u0438\u044f","name:sq":"Namibi","name:ko":"\ub098\ubbf8\ube44\uc544","name:ga":"An Namaib","name:gd":"Naimibia","name:ht":"Namibi","name:fa":"\u0646\u0627\u0645\u06cc\u0628\u06cc\u0627","name:gv":"Yn Nameeb","name:gu":"\u0aa8\u0abe\u0aae\u0abf\u0aac\u0abf\u0aaf\u0abe","name:tt":"\u041d\u0430\u043c\u0438\u0431\u0438\u044f"},"coordinates":[3154,3818]},{"type":"Point","properties":{"name:pt":"Cabo Ocidental","name:short":"WC","name:ja":"\u897f\u30b1\u30fc\u30d7\u5dde","name:eo":"Okcidenta Kablando","min_zoom":4.0,"name:ru":"\u0417\u0430\u043f\u0430\u0434\u043d\u043e-\u041a\u0430\u043f\u0441\u043a\u0430\u044f \u043f\u0440\u043e\u0432\u0438\u043d\u0446\u0438\u044f","name:st":"Kapa Bophirimela","id":474842900,"name:af":"Wes-Kaap","name:zu":"iKipi laseNtshonalanga","kind":"region","name":"Western Cape","kind_detail":"state","name:de":"Westkap","source":"openstreetmap.org","name:fr":"Cap-Occidental","name:xh":"Ntshona-Koloni"},"coordinates":[3773,1599]},{"type":"Point","properties":{"kind":"region","name":"Karas Region","kind_detail":"state","name:de":"Region Karas","source":"openstreetmap.org","min_zoom":4.0,"name:ru":"\u041a\u0430\u0440\u0430\u0441","id":2696418821},"coordinates":[3234,3035]},{"type":"Point","properties":{"kind":"region","name":"Hardap Region","kind_detail":"state","name:de":"Region Hardap","source":"openstreetmap.org","min_zoom":4.0,"name:ru":"\u0425\u0430\u0440\u0434\u0430\u043f","id":2696418813},"coordinates":[3170,3564]},{"type":"Point","properties":{"kind":"region","name":"Khomas Region","kind_detail":"state","name:de":"Region Khomas","source":"openstreetmap.org","min_zoom":4.0,"name:ru":"\u041a\u0445\u043e\u043c\u0430\u0441","id":2696418826},"coordinates":[3113,3921]},{"type":"Point","properties":{"source":"openstreetmap.org","kind":"region","name":"Kgalagadi District","kind_detail":"state","min_zoom":4.0,"id":2671914032},"coordinates":[3966,3471]},{"type":"Point","properties":{"kind":"region","name":"Erongo Region","kind_detail":"state","name:de":"Region Erongo","source":"openstreetmap.org","min_zoom":4.0,"name:uk":"\u0415\u0440\u043e\u043d\u0433\u043e","name:ru":"\u042d\u0440\u043e\u043d\u0433\u043e","id":2696418807},"coordinates":[2802,4078]},{"type":"Point","properties":{"name:pt":"Cabo Setentrional","name:short":"NC","name:ja":"\u5317\u30b1\u30fc\u30d7\u5dde","name:lt":"\u0160iaur\u0117s Kapas","name:eo":"Norda Kablando","min_zoom":4.0,"name:uk":"\u041f\u0456\u0432\u043d\u0456\u0447\u043d\u0430 \u041a\u0430\u043f\u0441\u044c\u043a\u0430 \u043f\u0440\u043e\u0432\u0456\u043d\u0446\u0456\u044f","name:ru":"\u0421\u0435\u0432\u0435\u0440\u043e-\u041a\u0430\u043f\u0441\u043a\u0430\u044f \u043f\u0440\u043e\u0432\u0438\u043d\u0446\u0438\u044f","name:pl":"Prowincja Przyl\u0105dkowa P\u00f3\u0142nocna","name:st":"Kapa Leboya","id":474842895,"name:af":"Noord-Kaap","name:zu":"iKipi laseNyakatho","kind":"region","name":"Northern Cape","kind_detail":"state","name:de":"Nordkap","source":"openstreetmap.org","name:fr":"Cap-Septentrional","name:xh":"Mntla-Koloni"},"coordinates":[3860,2454]}]},"transit":{"type":"GeometryCollection","geometries":[]},"pois":{"type":"GeometryCollection","geometries":[{"type":"Point","properties":{"kind":"nature_reserve","name":"Kgalagadi Transfrontier Park","area":43530000000,"source":"openstreetmap.org","min_zoom":4.59,"tier":2,"id":-2551000,"osm_relation":true},"coordinates":[3837,3375]}]},"boundaries":{"type":"GeometryCollection","geometries":[{"type":"LineString","properties":{"source":"naturalearthdata.com","kind":"country","sort_rank":262,"kind_detail":"2","min_zoom":0.0,"id":288},"arcs":[0]},{"type":"LineString","properties":{"source":"naturalearthdata.com","kind":"country","sort_rank":262,"kind_detail":"2","min_zoom":0.0,"id":335},"arcs":[1]},{"type":"LineString","properties":{"source":"naturalearthdata.com","kind":"country","sort_rank":262,"kind_detail":"2","min_zoom":0.0,"id":286},"arcs":[2]},{"type":"LineString","properties":{"source":"naturalearthdata.com","kind":"country","sort_rank":262,"kind_detail":"2","min_zoom":0.0,"id":287},"arcs":[3]}]},"roads":{"type":"GeometryCollection","geometries":[]},"earth":{"type":"GeometryCollection","geometries":[{"type":"MultiPolygon","properties":{"sort_rank":10,"source":"naturalearthdata.com","min_zoom":0.0,"kind":"earth","area":10360744564176},"arcs":[[[6]]]}]},"landuse":{"type":"GeometryCollection","geometries":[{"type":"Polygon","properties":{"kind":"nature_reserve","name":"Anysberg Nature Reserve","area":1170349952,"sort_rank":23,"source":"openstreetmap.org","min_zoom":4.0,"tier":2,"id":-2932604,"osm_relation":true},"arcs":[[7]]},{"type":"Polygon","properties":{"kind":"park","name":"Tankwa Karoo National Park","area":2028499968,"sort_rank":24,"source":"openstreetmap.org","min_zoom":4.0,"tier":2,"id":-2855708,"osm_relation":true},"arcs":[[8],[9]]},{"type":"Polygon","properties":{"kind":"park","name":"\/Ai-\/Ais Richtersveld Transfontier Park (ARTP)","area":7647680000,"sort_rank":24,"source":"openstreetmap.org","min_zoom":4.0,"tier":2,"id":-2855710,"osm_relation":true},"arcs":[[10]]},{"type":"Polygon","properties":{"kind":"park","name":"Namib-Naukluft National Park","area":61649600512,"sort_rank":24,"source":"openstreetmap.org","min_zoom":4.0,"tier":2,"id":-4150085,"osm_relation":true},"arcs":[[11]]},{"type":"MultiPolygon","properties":{"kind":"park","name":"Dorob National Park","area":9881136137,"sort_rank":24,"source":"openstreetmap.org","min_zoom":4.0,"tier":2,"osm_relation":true},"arcs":[[[12]],[[13]]]},{"type":"MultiPolygon","properties":{"source":"naturalearthdata.com","kind":"urban_area","name":"","area":18465179548,"sort_rank":11,"min_zoom":4.0},"arcs":[[[14]],[[15]]]},{"type":"Polygon","properties":{"kind":"nature_reserve","name":"Swartberg Nature Reserve","area":1688169984,"sort_rank":23,"source":"openstreetmap.org","min_zoom":4.0,"tier":2,"id":-3000586,"osm_relation":true},"arcs":[[16]]},{"type":"Polygon","properties":{"kind":"park","name":"Karoo National Park","area":1239059968,"sort_rank":24,"source":"openstreetmap.org","min_zoom":4.0,"tier":2,"id":-2578075,"osm_relation":true},"arcs":[[17]]},{"type":"Polygon","properties":{"kind":"park","name":"Namaqua National Park","area":1865410048,"sort_rank":24,"source":"openstreetmap.org","min_zoom":4.0,"tier":2,"id":-2550946,"osm_relation":true},"arcs":[[18]]},{"type":"Polygon","properties":{"kind":"park","name":"Sperrgebiet National Park","area":27815200768,"sort_rank":24,"source":"openstreetmap.org","min_zoom":4.0,"tier":2,"id":-4869664,"osm_relation":true},"arcs":[[19],[20]]},{"type":"Polygon","properties":{"kind":"nature_reserve","name":"Kgalagadi Transfrontier Park","area":43529998336,"sort_rank":23,"source":"openstreetmap.org","min_zoom":4.0,"tier":2,"id":-2551000,"osm_relation":true},"arcs":[[21]]},{"type":"Polygon","properties":{"kind":"nature_reserve","name":"Namibian Islands Marine Protected Area","area":11830899712,"sort_rank":23,"source":"openstreetmap.org","min_zoom":4.0,"tier":2,"id":-4869693,"osm_relation":true},"arcs":[[22]]},{"type":"Polygon","properties":{"kind":"nature_reserve","name":"NamibRand Nature Reserve","area":2086790016,"sort_rank":23,"source":"openstreetmap.org","min_zoom":4.0,"tier":2,"id":-4150086,"osm_relation":true},"arcs":[[23]]}]}},"type":"Topology","transform":{"translate":[0.0,-40.9798980696],"scale":[0.0054931641,0.0046476691]},"arcs":[[[3637,3492],[0,-6]],[[3637,3486],[9,-6],[58,-48],[15,-25],[8,-16],[25,-58],[18,-52],[15,-40],[1,-18],[3,-17],[2,-9],[-2,-9],[-10,-22],[-11,-16],[-13,-22],[-1,-30],[4,-35],[8,-17],[10,-6],[23,9],[16,-3],[21,-6],[70,4],[8,-2],[27,-3],[8,3],[8,8],[9,20],[9,7],[14,4],[18,5],[15,12],[23,41],[46,37],[5,3]],[[3819,4096],[0,-4],[-1,-8],[-27,0],[-61,0],[-52,0],[-41,0],[0,-52],[0,-62],[0,-62],[0,-61],[0,-62],[0,-62],[0,-61],[0,-62],[0,-62],[0,-46]],[[3637,3486],[0,-90],[0,-96],[0,-95],[0,-96],[0,-96],[0,-96],[0,-95],[0,-96],[0,-30],[-18,0],[-38,-12],[-24,-15],[-10,-19],[-14,-11],[-17,-4],[-8,-10],[2,-15],[-6,-11],[-16,-8],[-24,2],[-35,13],[-43,3],[-53,-7],[-38,3],[-23,13],[-24,8],[-26,1],[-15,6],[-31,10],[-6,16],[-3,13],[-9,13],[-1,11],[7,8],[1,13],[-5,18],[-8,9],[-12,-1],[-8,7],[-3,14],[-7,11],[-17,11],[-22,-8],[-11,-13],[-6,-19],[-6,-10],[-3,-17],[-1,-11],[-6,-13],[-6,-5],[-6,3],[-11,-5],[-26,-18],[-7,-10]],[[2570,4096],[37,-53],[26,-56],[11,-54],[-1,-22],[-4,-26],[-7,3],[-4,6],[-6,-19],[4,-23],[9,-44],[0,-42],[4,-36],[-2,-87],[3,-33],[23,-74],[25,-52],[13,-53],[-3,-46],[0,-24],[8,-38],[-4,-41],[16,-50],[7,-77],[23,-24],[8,-17],[4,-20],[-7,-15],[2,-25],[15,-45],[13,-60],[10,-24],[69,-125],[31,-40],[21,-17],[60,-66],[20,-17],[6,-5],[47,-79],[39,-85],[43,-150],[29,-74],[60,-124],[48,-78],[41,-59],[8,-18],[18,-82],[4,-32],[-1,-51],[-14,-31],[-22,-21],[-17,-6],[-13,15],[-12,-9],[-8,-17],[5,-29],[14,-18],[6,-23],[15,-12],[15,-32],[19,-14],[9,-20],[23,-43],[4,-17],[1,-20],[-20,-11],[-4,-29],[4,-25],[11,-23],[9,-11],[0,39],[7,12],[6,5],[13,2],[19,1],[8,-2],[10,-5],[3,-18],[1,-14],[-1,-9],[1,-15],[13,1],[9,4],[27,-2],[9,-14],[17,1],[7,-5],[9,-12],[-1,-17],[-5,-10],[17,2],[44,-31],[40,-1],[13,-4],[18,-2],[75,59],[17,10],[45,5],[20,12],[19,4],[13,0],[34,-9],[19,0],[37,8],[43,0],[83,65],[30,3],[16,6],[0,-1496],[-4096,0],[0,4096],[2570,0]],[[2570,4096],[37,-53],[26,-56],[11,-54],[-1,-22],[-4,-26],[-7,3],[-4,6],[-6,-19],[4,-23],[9,-44],[0,-42],[4,-36],[-2,-87],[3,-33],[23,-74],[25,-52],[13,-53],[-3,-46],[0,-24],[8,-38],[-4,-41],[16,-50],[7,-77],[23,-24],[8,-17],[4,-20],[-7,-15],[2,-25],[15,-45],[13,-60],[10,-24],[69,-125],[31,-40],[21,-17],[60,-66],[20,-17],[6,-5],[47,-79],[39,-85],[43,-150],[29,-74],[60,-124],[48,-78],[41,-59],[8,-18],[18,-82],[4,-32],[-1,-51],[-14,-31],[-22,-21],[-17,-6],[-13,15],[-12,-9],[-8,-17],[5,-29],[14,-18],[6,-23],[15,-12],[15,-32],[19,-14],[9,-20],[23,-43],[4,-17],[1,-20],[-20,-11],[-4,-29],[4,-25],[11,-23],[9,-11],[0,39],[7,12],[6,5],[13,2],[19,1],[8,-2],[10,-5],[3,-18],[1,-14],[-1,-9],[1,-15],[13,1],[9,4],[27,-2],[9,-14],[17,1],[7,-5],[9,-12],[-1,-17],[-5,-10],[17,2],[44,-31],[40,-1],[13,-4],[18,-2],[75,59],[17,10],[45,5],[20,12],[19,4],[13,0],[34,-9],[19,0],[37,8],[43,0],[83,65],[30,3],[16,6]],[[2570,4096],[1526,0],[0,-2600],[-16,-6],[-30,-3],[-83,-65],[-43,0],[-37,-8],[-19,0],[-34,9],[-13,0],[-19,-4],[-20,-12],[-45,-5],[-17,-10],[-75,-59],[-18,2],[-13,4],[-40,1],[-44,31],[-17,-2],[5,10],[1,17],[-9,12],[-7,5],[-17,-1],[-9,14],[-27,2],[-9,-4],[-13,-1],[-1,15],[1,9],[-1,14],[-3,18],[-10,5],[-8,2],[-19,-1],[-13,-2],[-6,-5],[-7,-12],[0,-39],[-9,11],[-11,23],[-4,25],[4,29],[20,11],[-1,20],[-4,17],[-23,43],[-9,20],[-19,14],[-15,32],[-15,12],[-6,23],[-14,18],[-5,29],[8,17],[12,9],[13,-15],[17,6],[22,21],[14,31],[1,51],[-4,32],[-18,82],[-8,18],[-41,59],[-48,78],[-60,124],[-29,74],[-43,150],[-39,85],[-47,79],[-6,5],[-20,17],[-60,66],[-21,17],[-31,40],[-69,125],[-10,24],[-13,60],[-15,45],[-2,25],[7,15],[-4,20],[-8,17],[-23,24],[-7,77],[-16,50],[4,41],[-8,38],[0,24],[3,46],[-13,53],[-25,52],[-23,74],[-3,33],[2,87],[-4,36],[0,42],[-9,44],[-4,23],[6,19],[4,-6],[7,-3],[4,26],[1,22],[-11,54],[-26,56],[-37,53]],[[3694,1600],[59,21],[-1,29],[65,-23],[-76,-44],[-47,17]],[[3580,1871],[3,20],[68,16],[0,-16],[19,23],[27,-32],[-54,-53],[-63,42]],[[3671,1883],[10,-5],[5,2],[-8,16],[-7,-13]],[[3062,2780],[8,53],[53,38],[2,47],[45,-16],[-24,-21],[4,-84],[42,26],[-4,67],[35,55],[19,-89],[-76,-107],[31,14],[19,-51],[-42,35],[-17,-60],[-35,-4],[-60,97]],[[2628,3782],[7,-18],[-6,73],[52,-18],[-10,127],[43,-11],[27,39],[122,-52],[-24,-88],[37,-21],[9,-103],[-26,-82],[63,-21],[-8,42],[45,5],[-8,-30],[21,6],[3,-26],[-37,-35],[-51,9],[-33,-65],[75,-234],[-9,-40],[63,-63],[7,-35],[-51,-17],[4,-38],[-89,14],[-60,-28],[0,151],[-79,13],[-7,184],[-75,213],[-5,149]],[[2622,3867],[1,12],[7,18],[2,-32],[31,-6],[-20,74],[28,11],[10,-125],[-52,18],[-7,30]],[[2571,4096],[78,0],[75,-141],[-9,-19],[-73,26],[-30,110],[-17,-8],[-24,32]],[[3361,1526],[-1,20],[51,-10],[-2,-51],[-54,-17],[6,58]],[[3099,3957],[-3,22],[19,-2],[7,-23],[-23,3]],[[3916,1661],[25,11],[155,-32],[0,-13],[-62,12],[-88,-14],[-30,36]],[[4004,1887],[63,18],[7,-24],[22,6],[0,-35],[-10,-8],[-82,43]],[[3151,2296],[13,66],[59,16],[20,-51],[-27,-7],[-16,25],[-26,-21],[26,-143],[-49,115]],[[2718,3193],[5,30],[71,0],[0,-151],[60,28],[86,-15],[-37,1],[6,-49],[39,-26],[127,-245],[-29,-80],[-52,-29],[-138,143],[-72,141],[-39,133],[18,23],[-45,96]],[[2987,2675],[2,-4],[5,1],[-1,4],[-6,-1]],[[3641,3451],[0,182],[335,-163],[58,0],[0,-111],[-70,0],[-139,-225],[-73,-13],[-111,119],[0,211]],[[2637,3534],[24,15],[32,-73],[29,-320],[31,-29],[-8,-53],[39,-133],[70,-134],[-38,-5],[-73,130],[-60,217],[-46,385]],[[2870,3492],[62,-27],[-18,-53],[20,-60],[-37,-12],[-27,152]]]}