{"objects":{"water":{"type":"GeometryCollection","geometries":[{"type":"Polygon","properties":{"source":"naturalearthdata.com","kind":"playa","name":"Daryacheh-ye Namak","area":2562487296,"sort_rank":200,"min_zoom":0.0,"id":11},"arcs":[[63]]},{"type":"MultiPolygon","properties":{"sort_rank":200,"source":"naturalearthdata.com","min_zoom":0.0,"kind":"playa","area":4266252568},"arcs":[[[64]],[[65]]]},{"type":"Polygon","properties":{"source":"naturalearthdata.com","kind":"playa","name":"Dasht-e Kavir","area":64982413312,"sort_rank":200,"min_zoom":0.0,"id":4},"arcs":[[66]]},{"type":"MultiPolygon","properties":{"source":"naturalearthdata.com","kind":"ocean","area":1576712559132672,"sort_rank":200,"min_zoom":0.0,"id":1},"arcs":[[[67]]]},{"type":"Polygon","properties":{"source":"naturalearthdata.com","kind":"playa","name":"Kavir-e ?ajj `ali qoli","area":556959360,"sort_rank":200,"min_zoom":0.0,"id":57},"arcs":[[68]]},{"type":"Point","properties":{"label_placement":true,"kind":"playa","name":"Dasht-e Kavir","area":64982413312,"sort_rank":200,"source":"naturalearthdata.com","min_zoom":0.0,"id":4},"coordinates":[3199,2281]},{"type":"Point","properties":{"label_placement":true,"kind":"playa","name":"Daryacheh-ye Namak","area":2562487296,"sort_rank":200,"source":"naturalearthdata.com","min_zoom":0.0,"id":11},"coordinates":[909,2312]},{"type":"Point","properties":{"label_placement":true,"kind":"playa","name":"Kavir-e ?ajj `ali qoli","area":556959360,"sort_rank":200,"source":"naturalearthdata.com","min_zoom":0.0,"id":57},"coordinates":[1868,2809]},{"type":"MultiLineString","properties":{"source":"naturalearthdata.com","kind":"playa","sort_rank":367,"boundary":true,"min_zoom":0.0,"id":4},"arcs":[[69],[70],[71]]},{"type":"LineString","properties":{"source":"naturalearthdata.com","kind":"playa","sort_rank":367,"boundary":true,"min_zoom":0.0,"id":11},"arcs":[72]},{"type":"LineString","properties":{"source":"naturalearthdata.com","kind":"playa","sort_rank":367,"boundary":true,"min_zoom":0.0,"id":22},"arcs":[73]},{"type":"LineString","properties":{"source":"naturalearthdata.com","kind":"playa","sort_rank":367,"boundary":true,"min_zoom":0.0,"id":41},"arcs":[74]},{"type":"LineString","properties":{"source":"naturalearthdata.com","kind":"playa","sort_rank":367,"boundary":true,"min_zoom":0.0,"id":57},"arcs":[75]},{"type":"LineString","properties":{"source":"naturalearthdata.com","kind":"ocean","sort_rank":205,"boundary":true,"min_zoom":0.0,"id":979},"arcs":[76]}]},"buildings":{"type":"GeometryCollection","geometries":[]},"places":{"type":"GeometryCollection","geometries":[{"type":"Point","properties":{"name:ka":"\u10d8\u10e0\u10d0\u10dc\u10d8","name:ko":"\uc774\ub780","name:cv":"\u0418\u0441\u043b\u0430\u043c \u0420\u0435\u0441\u043f\u0443\u0431\u043b\u0438\u043a\u0438 \u0418\u0440\u0430\u043d","name:km":"\u17a2\u17ca\u17b8\u179a\u17c9\u1784\u17cb","name:kl":"Iran","name:cs":"\u00cdr\u00e1n","name:tw":"Iran","name:ki":"Uajemi","name:co":"Iranu","name:kv":"\u0418\u0440\u0430\u043d","name:ku":"\u00ceran","name:ti":"\u12a2\u122b\u1295","name:ks":"\u0627\u06cc\u0656\u0631\u0627\u0646","name:to":"\u02bbIulaani","name:tl":"Iran","name:ce":"\u0418\u0440\u0430\u043d","name:ta":"\u0b88\u0bb0\u0bbe\u0ba9\u0bcd","name:tg":"\u042d\u0440\u043e\u043d","name:ca":"Iran","name:te":"\u0c07\u0c30\u0c3e\u0c28\u0c4d","name:cy":"Iran","name:hr":"Iran","name:da":"Iran","name:de":"Iran","name:dz":"\u0f68\u0f72\u0f0b\u0f62\u0f71\u0f53","source":"openstreetmap.org","name:kn":"\u0c87\u0cb0\u0cbe\u0ca8\u0ccd","name:dv":"\u0787\u07a9\u0783\u07a7\u0782\u07b0","name:lv":"Ir\u0101na","name:lt":"Iranas","name:uz":"Eron","name:kk":"\u0418\u0440\u0430\u043d","name:lb":"Iran","name:la":"Irania","name:lg":"Yiraani","name:uk":"\u0406\u0440\u0430\u043d","name:ug":"\u0626\u0649\u0631\u0627\u0646","name:li":"Iraan","name:ln":"Ir\u00e2","name:lo":"\u0ead\u0eb5\u0ea5\u0ec8\u0eb2\u0e99","name:el":"\u0399\u03c1\u03ac\u03bd","name:eo":"Irano","name:en":"Iran","name":"\u0627\u06cc\u0631\u0627\u0646","name:tk":"E\u00fdran","name:ee":"Iran nutome","name:th":"\u0e1b\u0e23\u0e30\u0e40\u0e17\u0e28\u0e2d\u0e34\u0e2b\u0e23\u0e48\u0e32\u0e19","name:eu":"Iran","name:et":"Iraan","name:es":"Ir\u00e1n","name:ia":"Iran","name:rm":"Iran","name:rn":"Irani","name:az":"\u0130ran","name:ie":"Iran","name:id":"Iran","name:ar":"\u0625\u064a\u0631\u0627\u0646","name:io":"Iran","name:ak":"Iran","name:am":"\u12a2\u122b\u1295","name:it":"Iran","name:an":"Ir\u00e1n","name:ru":"\u0418\u0440\u0430\u043d","name:rw":"Irani","name:af":"Iran","name:zu":"i-Iran","name:za":"Iran","name:zh-yue":"\u4f0a\u6717","name:zh":"\u4f0a\u6717","name:so":"Iiraan","name:sn":"Iran","name:sl":"Iran","name:sk":"Ir\u00e1n","name:ja":"\u30a4\u30e9\u30f3","name:si":"\u0d89\u0dbb\u0dcf\u0db1\u0dba","name:sh":"Iran","name:sg":"Ir\u00e4an","name:se":"Iran","name:sc":"Iran","name:sa":"\u0908\u0930\u093e\u0928","name:bs":"Iran","name:bm":"Ira\u014b","name:bn":"\u0987\u09b0\u09be\u09a8","name:bo":"\u0f68\u0f72\u0f0b\u0f62\u0f71\u0f53\u0f0d","name:br":"Iran","name:sw":"Uajemi","name:be":"\u0406\u0440\u0430\u043d","name:su":"Iran","name:bg":"\u0418\u0440\u0430\u043d","name:ss":"I-Irani","name:ba":"\u0418\u0440\u0430\u043d","name:sq":"Irani","name:jv":"Iran","name:pt":"Ir\u00e3","name:ps":"\u0627\u064a\u0631\u0627\u0646","name:oc":"Iran","min_zoom":2.0,"name:ro":"Iran","name:zh-min-nan":"Iran","name:os":"\u0418\u0440\u0430\u043d","name:or":"\u0b07\u0b30\u0b3e\u0b28\u0b4d","name:pl":"Iran","name:sr":"\u0418\u0440\u0430\u043d","name:pa":"\u0a07\u0a30\u0a3e\u0a28","name:tr":"\u0130ran","name:hi":"\u0908\u0930\u093e\u0928","name:sv":"Iran","name:he":"\u05d0\u05d9\u05e8\u05df","name:ha":"Iran","old_name:en":"Persia","name:hy":"\u053b\u0580\u0561\u0576","name:ht":"Iran","name:hu":"Ir\u00e1n","name:qu":"Iran","population":70472846,"kind":"country","name:is":"\u00cdran","name:yi":"\u05d0\u05d9\u05e8\u05d0\u05df","name:yo":"Or\u00edl\u1eb9\u0301\u00e8de Irani","name:mt":"Iran","name:ms":"Iran","name:mr":"\u0908\u0930\u093e\u0923","name:my":"\u1021\u102e\u101b\u1014\u103a","official_name":"\u062c\u0645\u0647\u0648\u0631\u06cc \u0627\u0633\u0644\u0627\u0645\u06cc \u0627\u06cc\u0631\u0627\u0646","name:kw":"Iran","name:mg":"Iran","name:ml":"\u0d07\u0d31\u0d3e\u0d7b","name:vi":"Iran","name:mn":"\u0418\u0440\u0430\u043d","name:mi":"\u012ar\u0101na","id":424298311,"name:mk":"\u0418\u0440\u0430\u043d","name:vo":"Lir\u00e4n","name:ff":"Iraan","name:fi":"Iran","name:ky":"\u0418\u0440\u0430\u043d","name:fo":"Iran","name:fr":"Iran","name:fy":"Iran","int_name":"Iran","name:nl":"Iran","name:nn":"Iran","name:no":"Iran","name:na":"Iran","name:ne":"\u0907\u0930\u093e\u0928","name:wa":"Iran","name:wo":"Iraan","name:nv":"Iiw\u0105\u0301\u0105\u0301","name:ga":"An Iar\u00e1in","name:gd":"Ior\u00e0n","name:gn":"Ir\u00e1n","name:gl":"Ir\u00e1n","name:gv":"Yn Eeraan","name:gu":"\u0a88\u0ab0\u0abe\u0aa8","name:tt":"\u0418\u0440\u0430\u043d"},"coordinates":[1691,872]},{"type":"Point","properties":{"source":"naturalearthdata.com","kind":"locality","name":"Tehran","country_capital":true,"population":7873000,"min_zoom":3.0,"id":7255},"coordinates":[581,3281]},{"type":"Point","properties":{"name:ja":"\u30bb\u30e0\u30ca\u30fc\u30f3","min_zoom":4.0,"name:uk":"\u0421\u0435\u043c\u043d\u0430\u043d","name:ru":"\u0421\u0435\u043c\u043d\u0430\u043d","name:pl":"Semnan","name:hu":"Szemn\u00e1n","name:hr":"Semnan","id":480250674,"kind":"region","name:en":"Semnan","name":"\u0633\u0645\u0646\u0627\u0646","kind_detail":"state","name:ku":"Simnan","name:de":"Semnan","source":"openstreetmap.org","name:fr":"Semnan"},"coordinates":[2832,2959]},{"type":"Point","properties":{"name:ja":"\u30de\u30fc\u30b6\u30f3\u30c0\u30e9\u30fc\u30f3","min_zoom":4.0,"name:uk":"\u041c\u0430\u0437\u0435\u043d\u0434\u0435\u0440\u0430\u043d","name:ru":"\u041c\u0430\u0437\u0435\u043d\u0434\u0435\u0440\u0430\u043d","name:pl":"Mazandaran","name:hu":"M\u00e1zandar\u00e1n","name:hr":"Mazandaran","id":480338321,"kind":"region","name:en":"Mazandaran","name":"\u0645\u0627\u0632\u0646\u062f\u0631\u0627\u0646","kind_detail":"state","name:ku":"Mazenderan","name:de":"Mazandaran","source":"openstreetmap.org","name:fr":"Mazand\u00e9ran"},"coordinates":[926,3847]},{"type":"Point","properties":{"name:ja":"\u30b4\u30e0","min_zoom":4.0,"name:uk":"\u041a\u0443\u043c","name:ru":"\u041a\u0443\u043c","name:pl":"Kom","name:hu":"Kom","name:hr":"Kum","id":480271136,"kind":"region","name:en":"Qom","name":"\u0642\u0645","kind_detail":"state","name:ku":"Q\u00fbm","name:de":"Qom","source":"openstreetmap.org","name:fr":"Qom"},"coordinates":[282,2440]},{"type":"Point","properties":{"name:ja":"\u30c1\u30e3\u30cf\u30fc\u30eb=\u30de\u30cf\u30fc\u30eb\u30fb\u30d0\u30d5\u30c6\u30a3\u30e4\u30fc\u30ea\u30fc","min_zoom":4.0,"name:uk":"\u0427\u0435\u0445\u0430\u0440\u043c\u0435\u0445\u0430\u043b\u044c \u0456 \u0411\u0430\u0445\u0442\u0438\u0430\u0440\u0456\u044f","name:ru":"\u0427\u0435\u0445\u0430\u0440\u043c\u0435\u0445\u0430\u043b\u044c \u0438 \u0411\u0430\u0445\u0442\u0438\u0430\u0440\u0438\u044f","name:pl":"Czahar Mahal wa Bachtijari","name:hu":"Csah\u00e1rmah\u00e1l \u00e9s Bahtij\u00e1ri","name:hr":"\u010caharmahal i Bahtijari","id":486319228,"kind":"region","name:en":"Chaharmahal and Bakhtiari","name":"\u0686\u0647\u0627\u0631\u0645\u062d\u0627\u0644 \u0648 \u0628\u062e\u062a\u06cc\u0627\u0631\u06cc","kind_detail":"state","name:ku":"\u00c7armihal \u00fb Bextiyar\u00ee","name:de":"Tschah\u0101r Mah\u0101l und Bachtiy\u0101r\u012b","source":"openstreetmap.org","name:fr":"Chahar Mahaal et Bakhtiari"},"coordinates":[44,57]},{"type":"Point","properties":{"name:ja":"\u30e4\u30ba\u30c9","min_zoom":4.0,"name:uk":"\u0404\u0437\u0434","name:ru":"\u0419\u0435\u0437\u0434","name:pl":"Jazd","name:hu":"Jazd","name:hr":"Jazd","id":481109416,"kind":"region","name:en":"Yazd","name":"\u06cc\u0632\u062f","kind_detail":"state","name:ku":"Yezd","name:de":"Yazd","source":"openstreetmap.org","name:fr":"Yazd"},"coordinates":[3262,258]},{"type":"Point","properties":{"name:ja":"\u30a8\u30b9\u30d5\u30a1\u30cf\u30fc\u30f3","min_zoom":4.0,"name:uk":"\u0406\u0441\u0444\u0430\u0445\u0430\u043d","name:ru":"\u0418\u0441\u0444\u0430\u0445\u0430\u043d","name:pl":"Isfahan","name:hu":"Iszfah\u00e1n","name:hr":"Isfahan","id":481002194,"kind":"region","name:en":"Isfahan","name":"\u0627\u0635\u0641\u0647\u0627\u0646","kind_detail":"state","name:ku":"\u00cesfehan","name:de":"Esfahan","source":"openstreetmap.org","name:fr":"Ispahan"},"coordinates":[1368,1097]},{"type":"Point","properties":{"source":"naturalearthdata.com","kind":"locality","name":"Isfahan","population":1628000,"region_capital":true,"min_zoom":5.0,"id":6997},"coordinates":[781,661]},{"type":"Point","properties":{"source":"naturalearthdata.com","kind":"locality","name":"Qom","population":973000,"region_capital":true,"min_zoom":6.0,"id":5975},"coordinates":[235,2380]}]},"transit":{"type":"GeometryCollection","geometries":[{"type":"MultiLineString","properties":{"source":"openstreetmap.org","kind":"train","name":"\u062d\u0648\u0632\u0647 \u0633\u0645\u0646\u0627\u0646","sort_rank":275,"min_zoom":6.0,"osm_relation":true,"network":"\u0634\u0631\u0642"},"arcs":[[48],[49],[50],[51],[52],[53],[54],[55],[56],[57],[58],[59]]},{"type":"MultiLineString","properties":{"kind":"train","name:en":"Tehran-Mashhad Railway","network":"\u0634\u0631\u0642","sort_rank":275,"source":"openstreetmap.org","min_zoom":6.0,"osm_relation":true,"name":"\u0631\u0627\u0647 \u0622\u0647\u0646 \u062a\u0647\u0631\u0627\u0646-\u0645\u0634\u0647\u062f"},"arcs":[[60],[61]]},{"type":"LineString","properties":{"source":"openstreetmap.org","kind":"train","name":"\u062d\u0648\u0632\u0647 \u0645\u0631\u06a9\u0632\u06cc \u062a\u0647\u0631\u0627\u0646","sort_rank":275,"min_zoom":6.0,"osm_relation":true,"network":"\u0645\u0631\u06a9\u0632\u06cc"},"arcs":[62]}]},"pois":{"type":"GeometryCollection","geometries":[{"type":"Point","properties":{"kind":"nature_reserve","name:en":"Touran National Park","protect_class":"2","area":1543230000,"source":"openstreetmap.org","min_zoom":6.99,"tier":2,"id":321336003,"name":"\u0645\u0646\u0637\u0642\u0647 \u062d\u0641\u0627\u0638\u062a \u0634\u062f\u0647 \u062a\u0648\u0631\u0627\u0646"},"coordinates":[3977,3340]}]},"boundaries":{"type":"GeometryCollection","geometries":[{"type":"LineString","properties":{"source":"naturalearthdata.com","kind":"region","sort_rank":256,"kind_detail":"4","min_zoom":5.0,"id":1484},"arcs":[0]},{"type":"MultiLineString","properties":{"source":"naturalearthdata.com","kind":"region","sort_rank":256,"kind_detail":"4","min_zoom":5.0,"id":7390},"arcs":[[1],[2],[3]]},{"type":"LineString","properties":{"source":"naturalearthdata.com","kind":"region","sort_rank":256,"kind_detail":"4","min_zoom":5.0,"id":7391},"arcs":[4]},{"type":"MultiLineString","properties":{"source":"naturalearthdata.com","kind":"region","sort_rank":256,"kind_detail":"4","min_zoom":5.0,"id":7420},"arcs":[[5],[6],[7]]},{"type":"MultiLineString","properties":{"source":"naturalearthdata.com","kind":"region","sort_rank":256,"kind_detail":"4","min_zoom":5.0,"id":1483},"arcs":[[8],[9],[10]]},{"type":"MultiLineString","properties":{"source":"naturalearthdata.com","kind":"region","sort_rank":256,"kind_detail":"4","min_zoom":5.0,"id":7378},"arcs":[[11],[12],[13]]},{"type":"LineString","properties":{"source":"naturalearthdata.com","kind":"region","sort_rank":256,"kind_detail":"4","min_zoom":5.0,"id":7363},"arcs":[14]},{"type":"MultiLineString","properties":{"source":"naturalearthdata.com","kind":"region","sort_rank":256,"kind_detail":"4","min_zoom":5.0,"id":7364},"arcs":[[15],[16]]},{"type":"MultiLineString","properties":{"source":"naturalearthdata.com","kind":"region","sort_rank":256,"kind_detail":"4","min_zoom":5.0,"id":7374},"arcs":[[17],[18],[19]]},{"type":"MultiLineString","properties":{"source":"naturalearthdata.com","kind":"region","sort_rank":256,"kind_detail":"4","min_zoom":5.0,"id":7379},"arcs":[[20],[21]]},{"type":"LineString","properties":{"source":"naturalearthdata.com","kind":"region","sort_rank":256,"kind_detail":"4","min_zoom":5.0,"id":7385},"arcs":[22]},{"type":"MultiLineString","properties":{"source":"naturalearthdata.com","kind":"region","sort_rank":256,"kind_detail":"4","min_zoom":5.0,"id":7386},"arcs":[[23],[24]]},{"type":"LineString","properties":{"source":"naturalearthdata.com","kind":"region","sort_rank":256,"kind_detail":"4","min_zoom":5.0,"id":7387},"arcs":[25]},{"type":"MultiLineString","properties":{"source":"naturalearthdata.com","kind":"region","sort_rank":256,"kind_detail":"4","min_zoom":5.0,"id":7388},"arcs":[[26],[27]]},{"type":"MultiLineString","properties":{"source":"naturalearthdata.com","kind":"region","sort_rank":256,"kind_detail":"4","min_zoom":5.0,"id":7389},"arcs":[[28],[29],[30],[31],[32]]},{"type":"MultiLineString","properties":{"source":"naturalearthdata.com","kind":"region","sort_rank":256,"kind_detail":"4","min_zoom":5.0,"id":7392},"arcs":[[33],[34],[35]]},{"type":"LineString","properties":{"source":"naturalearthdata.com","kind":"region","sort_rank":256,"kind_detail":"4","min_zoom":5.0,"id":7413},"arcs":[36]},{"type":"LineString","properties":{"source":"naturalearthdata.com","kind":"region","sort_rank":256,"kind_detail":"4","min_zoom":5.0,"id":7415},"arcs":[37]},{"type":"LineString","properties":{"source":"naturalearthdata.com","kind":"region","sort_rank":256,"kind_detail":"4","min_zoom":5.0,"id":7424},"arcs":[38]},{"type":"MultiLineString","properties":{"source":"naturalearthdata.com","kind":"region","sort_rank":256,"kind_detail":"4","min_zoom":5.0,"id":7425},"arcs":[[39],[40],[41],[42],[43]]},{"type":"LineString","properties":{"source":"naturalearthdata.com","kind":"region","sort_rank":256,"kind_detail":"4","min_zoom":5.0,"id":7426},"arcs":[44]},{"type":"MultiLineString","properties":{"source":"naturalearthdata.com","kind":"region","sort_rank":256,"kind_detail":"4","min_zoom":5.0,"id":9004},"arcs":[[45],[46],[47]]}]},"roads":{"type":"GeometryCollection","geometries":[{"type":"LineString","properties":{"source":"naturalearthdata.com","kind":"minor_road","kind_detail":"tertiary","sort_rank":355,"landuse_kind":"protected_area","min_zoom":6.0,"id":22887},"arcs":[77]},{"type":"MultiLineString","properties":{"source":"naturalearthdata.com","kind":"minor_road","sort_rank":355,"kind_detail":"tertiary","min_zoom":6.0,"id":22887},"arcs":[[78],[79]]},{"type":"LineString","properties":{"source":"naturalearthdata.com","kind":"major_road","kind_detail":"secondary","sort_rank":379,"landuse_kind":"urban_area","min_zoom":3.0,"id":22973},"arcs":[80]},{"type":"LineString","properties":{"source":"naturalearthdata.com","kind":"major_road","kind_detail":"secondary","sort_rank":379,"landuse_kind":"urban_area","min_zoom":3.0,"id":22973},"arcs":[81]},{"type":"LineString","properties":{"source":"naturalearthdata.com","kind":"major_road","sort_rank":379,"kind_detail":"secondary","min_zoom":3.0,"id":22973},"arcs":[82]},{"type":"LineString","properties":{"source":"naturalearthdata.com","kind":"major_road","kind_detail":"secondary","sort_rank":379,"landuse_kind":"urban_area","min_zoom":3.0,"id":22983},"arcs":[83]},{"type":"LineString","properties":{"source":"naturalearthdata.com","kind":"major_road","kind_detail":"secondary","sort_rank":379,"landuse_kind":"urban_area","min_zoom":3.0,"id":22983},"arcs":[84]},{"type":"LineString","properties":{"source":"naturalearthdata.com","kind":"major_road","sort_rank":379,"kind_detail":"secondary","min_zoom":3.0,"id":22983},"arcs":[85]},{"type":"LineString","properties":{"source":"naturalearthdata.com","kind":"major_road","kind_detail":"secondary","sort_rank":379,"landuse_kind":"urban_area","min_zoom":3.0,"id":22987},"arcs":[86]},{"type":"LineString","properties":{"source":"naturalearthdata.com","kind":"major_road","kind_detail":"secondary","sort_rank":379,"landuse_kind":"urban_area","min_zoom":3.0,"id":22987},"arcs":[87]},{"type":"MultiLineString","properties":{"source":"naturalearthdata.com","kind":"major_road","sort_rank":379,"kind_detail":"secondary","min_zoom":3.0,"id":22987},"arcs":[[88],[89]]},{"type":"LineString","properties":{"source":"naturalearthdata.com","kind":"major_road","kind_detail":"secondary","sort_rank":379,"landuse_kind":"urban_area","min_zoom":3.0,"id":22988},"arcs":[90]},{"type":"LineString","properties":{"source":"naturalearthdata.com","kind":"minor_road","kind_detail":"tertiary","sort_rank":355,"landuse_kind":"urban_area","min_zoom":6.0,"id":22989},"arcs":[91]},{"type":"LineString","properties":{"source":"naturalearthdata.com","kind":"minor_road","sort_rank":355,"kind_detail":"tertiary","min_zoom":6.0,"id":22989},"arcs":[92]},{"type":"LineString","properties":{"source":"naturalearthdata.com","kind":"minor_road","kind_detail":"tertiary","sort_rank":355,"landuse_kind":"urban_area","min_zoom":5.0,"id":23016},"arcs":[93]},{"type":"MultiLineString","properties":{"source":"naturalearthdata.com","kind":"minor_road","sort_rank":355,"kind_detail":"tertiary","min_zoom":5.0,"id":23016},"arcs":[[94],[95]]},{"type":"LineString","properties":{"source":"naturalearthdata.com","kind":"highway","kind_detail":"motorway","sort_rank":383,"landuse_kind":"urban_area","min_zoom":3.0,"id":23029},"arcs":[96]},{"type":"MultiLineString","properties":{"source":"naturalearthdata.com","kind":"highway","sort_rank":383,"kind_detail":"motorway","min_zoom":3.0,"id":23029},"arcs":[[97],[98]]},{"type":"LineString","properties":{"source":"naturalearthdata.com","kind":"highway","sort_rank":383,"kind_detail":"motorway","min_zoom":3.0,"id":23221},"arcs":[99]},{"type":"LineString","properties":{"source":"naturalearthdata.com","kind":"major_road","sort_rank":379,"kind_detail":"secondary","min_zoom":3.0,"id":23442},"arcs":[100]},{"type":"MultiLineString","properties":{"source":"naturalearthdata.com","kind":"highway","kind_detail":"motorway","sort_rank":383,"landuse_kind":"protected_area","min_zoom":4.0,"id":23593},"arcs":[[101],[102],[103],[104],[105]]},{"type":"LineString","properties":{"source":"naturalearthdata.com","kind":"highway","kind_detail":"motorway","sort_rank":383,"landuse_kind":"urban_area","min_zoom":4.0,"id":23593},"arcs":[106]},{"type":"MultiLineString","properties":{"source":"naturalearthdata.com","kind":"highway","sort_rank":383,"kind_detail":"motorway","min_zoom":4.0,"id":23593},"arcs":[[107],[108],[109],[110]]},{"type":"MultiLineString","properties":{"source":"naturalearthdata.com","kind":"highway","kind_detail":"motorway","sort_rank":383,"landuse_kind":"urban_area","min_zoom":3.0,"id":23594},"arcs":[[111],[112],[113]]},{"type":"MultiLineString","properties":{"source":"naturalearthdata.com","kind":"highway","sort_rank":383,"kind_detail":"motorway","min_zoom":3.0,"id":23594},"arcs":[[114],[115]]},{"type":"LineString","properties":{"source":"naturalearthdata.com","kind":"major_road","kind_detail":"secondary","sort_rank":379,"landuse_kind":"urban_area","min_zoom":3.0,"id":23653},"arcs":[116]},{"type":"LineString","properties":{"source":"naturalearthdata.com","kind":"major_road","kind_detail":"secondary","sort_rank":379,"landuse_kind":"urban_area","min_zoom":3.0,"id":23653},"arcs":[117]},{"type":"LineString","properties":{"source":"naturalearthdata.com","kind":"major_road","sort_rank":379,"kind_detail":"secondary","min_zoom":3.0,"id":23653},"arcs":[118]},{"type":"MultiLineString","properties":{"source":"naturalearthdata.com","kind":"major_road","kind_detail":"secondary","sort_rank":379,"landuse_kind":"urban_area","min_zoom":3.0,"id":23689},"arcs":[[119],[120]]},{"type":"LineString","properties":{"source":"naturalearthdata.com","kind":"major_road","sort_rank":379,"kind_detail":"secondary","min_zoom":3.0,"id":23689},"arcs":[121]},{"type":"LineString","properties":{"source":"naturalearthdata.com","kind":"major_road","kind_detail":"secondary","sort_rank":379,"landuse_kind":"urban_area","min_zoom":4.0,"id":23691},"arcs":[122]},{"type":"LineString","properties":{"source":"naturalearthdata.com","kind":"highway","kind_detail":"motorway","sort_rank":383,"landuse_kind":"urban_area","min_zoom":3.0,"id":23693},"arcs":[123]},{"type":"LineString","properties":{"source":"naturalearthdata.com","kind":"minor_road","kind_detail":"tertiary","sort_rank":355,"landuse_kind":"urban_area","min_zoom":6.0,"id":23747},"arcs":[124]},{"type":"LineString","properties":{"source":"naturalearthdata.com","kind":"highway","kind_detail":"motorway","sort_rank":383,"landuse_kind":"urban_area","min_zoom":3.0,"id":23803},"arcs":[125]},{"type":"LineString","properties":{"source":"naturalearthdata.com","kind":"highway","kind_detail":"motorway","sort_rank":383,"landuse_kind":"urban_area","min_zoom":3.0,"id":23803},"arcs":[126]},{"type":"MultiLineString","properties":{"source":"naturalearthdata.com","kind":"highway","sort_rank":383,"kind_detail":"motorway","min_zoom":3.0,"id":23803},"arcs":[[127],[128]]},{"type":"LineString","properties":{"source":"naturalearthdata.com","kind":"highway","kind_detail":"motorway","sort_rank":383,"landuse_kind":"urban_area","min_zoom":3.0,"id":23872},"arcs":[129]},{"type":"LineString","properties":{"source":"naturalearthdata.com","kind":"major_road","sort_rank":379,"kind_detail":"secondary","min_zoom":4.0,"id":24133},"arcs":[130]},{"type":"MultiLineString","properties":{"source":"naturalearthdata.com","kind":"highway","kind_detail":"motorway","sort_rank":383,"landuse_kind":"urban_area","min_zoom":3.0,"id":24134},"arcs":[[131],[132]]},{"type":"LineString","properties":{"source":"naturalearthdata.com","kind":"highway","kind_detail":"motorway","sort_rank":383,"landuse_kind":"urban_area","min_zoom":3.0,"id":24134},"arcs":[133]},{"type":"LineString","properties":{"source":"naturalearthdata.com","kind":"highway","kind_detail":"motorway","sort_rank":383,"landuse_kind":"urban_area","min_zoom":3.0,"id":24134},"arcs":[134]},{"type":"MultiLineString","properties":{"source":"naturalearthdata.com","kind":"highway","sort_rank":383,"kind_detail":"motorway","min_zoom":3.0,"id":24134},"arcs":[[135],[136],[137]]},{"type":"LineString","properties":{"source":"naturalearthdata.com","kind":"highway","kind_detail":"motorway","sort_rank":383,"landuse_kind":"urban_area","min_zoom":3.0,"id":24391},"arcs":[138]},{"type":"LineString","properties":{"source":"naturalearthdata.com","kind":"highway","kind_detail":"motorway","sort_rank":383,"landuse_kind":"urban_area","min_zoom":3.0,"id":24391},"arcs":[139]},{"type":"LineString","properties":{"source":"naturalearthdata.com","kind":"highway","sort_rank":383,"kind_detail":"motorway","min_zoom":3.0,"id":24391},"arcs":[140]},{"type":"LineString","properties":{"source":"naturalearthdata.com","kind":"highway","kind_detail":"motorway","sort_rank":383,"landuse_kind":"urban_area","min_zoom":3.0,"id":24487},"arcs":[141]},{"type":"LineString","properties":{"source":"naturalearthdata.com","kind":"highway","kind_detail":"motorway","sort_rank":383,"landuse_kind":"urban_area","min_zoom":3.0,"id":24487},"arcs":[142]},{"type":"MultiLineString","properties":{"source":"naturalearthdata.com","kind":"highway","sort_rank":383,"kind_detail":"motorway","min_zoom":3.0,"id":24487},"arcs":[[143],[144]]},{"type":"LineString","properties":{"source":"naturalearthdata.com","kind":"highway","kind_detail":"motorway","sort_rank":383,"landuse_kind":"urban_area","min_zoom":3.0,"id":24809},"arcs":[145]},{"type":"LineString","properties":{"source":"naturalearthdata.com","kind":"highway","sort_rank":383,"kind_detail":"motorway","min_zoom":3.0,"id":24809},"arcs":[146]},{"type":"LineString","properties":{"source":"naturalearthdata.com","kind":"highway","kind_detail":"motorway","sort_rank":383,"landuse_kind":"urban_area","min_zoom":3.0,"id":24980},"arcs":[147]},{"type":"LineString","properties":{"source":"naturalearthdata.com","kind":"highway","sort_rank":383,"kind_detail":"motorway","min_zoom":3.0,"id":24980},"arcs":[148]},{"type":"LineString","properties":{"source":"naturalearthdata.com","kind":"minor_road","kind_detail":"tertiary","sort_rank":355,"landuse_kind":"urban_area","min_zoom":5.0,"id":25156},"arcs":[149]},{"type":"LineString","properties":{"source":"naturalearthdata.com","kind":"minor_road","sort_rank":355,"kind_detail":"tertiary","min_zoom":5.0,"id":25156},"arcs":[150]},{"type":"LineString","properties":{"source":"naturalearthdata.com","kind":"highway","kind_detail":"motorway","sort_rank":383,"landuse_kind":"urban_area","min_zoom":3.0,"id":25439},"arcs":[151]},{"type":"LineString","properties":{"source":"naturalearthdata.com","kind":"highway","sort_rank":383,"kind_detail":"motorway","min_zoom":3.0,"id":25439},"arcs":[152]},{"type":"LineString","properties":{"source":"naturalearthdata.com","kind":"major_road","sort_rank":379,"kind_detail":"secondary","min_zoom":4.0,"id":25620},"arcs":[153]},{"type":"LineString","properties":{"source":"naturalearthdata.com","kind":"highway","kind_detail":"motorway","sort_rank":383,"landuse_kind":"urban_area","min_zoom":3.0,"id":25865},"arcs":[154]},{"type":"LineString","properties":{"source":"naturalearthdata.com","kind":"highway","kind_detail":"motorway","sort_rank":383,"landuse_kind":"urban_area","min_zoom":3.0,"id":25865},"arcs":[155]},{"type":"LineString","properties":{"source":"naturalearthdata.com","kind":"highway","kind_detail":"motorway","sort_rank":383,"landuse_kind":"urban_area","min_zoom":3.0,"id":25865},"arcs":[156]},{"type":"LineString","properties":{"source":"naturalearthdata.com","kind":"highway","kind_detail":"motorway","sort_rank":383,"landuse_kind":"urban_area","min_zoom":3.0,"id":25865},"arcs":[157]},{"type":"MultiLineString","properties":{"source":"naturalearthdata.com","kind":"highway","sort_rank":383,"kind_detail":"motorway","min_zoom":3.0,"id":25865},"arcs":[[158],[159],[160],[161]]},{"type":"LineString","properties":{"source":"naturalearthdata.com","kind":"major_road","kind_detail":"secondary","sort_rank":379,"landuse_kind":"urban_area","min_zoom":4.0,"id":25904},"arcs":[162]},{"type":"LineString","properties":{"source":"naturalearthdata.com","kind":"major_road","kind_detail":"secondary","sort_rank":379,"landuse_kind":"urban_area","min_zoom":4.0,"id":25904},"arcs":[163]},{"type":"MultiLineString","properties":{"source":"naturalearthdata.com","kind":"major_road","sort_rank":379,"kind_detail":"secondary","min_zoom":4.0,"id":25904},"arcs":[[164],[165]]},{"type":"LineString","properties":{"source":"naturalearthdata.com","kind":"highway","kind_detail":"motorway","sort_rank":383,"landuse_kind":"urban_area","min_zoom":3.0,"id":26103},"arcs":[166]},{"type":"MultiLineString","properties":{"source":"naturalearthdata.com","kind":"highway","sort_rank":383,"kind_detail":"motorway","min_zoom":3.0,"id":26103},"arcs":[[167],[168]]},{"type":"LineString","properties":{"source":"naturalearthdata.com","kind":"highway","kind_detail":"motorway","sort_rank":383,"landuse_kind":"urban_area","min_zoom":3.0,"id":26104},"arcs":[169]},{"type":"LineString","properties":{"source":"naturalearthdata.com","kind":"highway","kind_detail":"motorway","sort_rank":383,"landuse_kind":"urban_area","min_zoom":3.0,"id":26104},"arcs":[170]},{"type":"MultiLineString","properties":{"source":"naturalearthdata.com","kind":"highway","sort_rank":383,"kind_detail":"motorway","min_zoom":3.0,"id":26104},"arcs":[[171],[172]]},{"type":"LineString","properties":{"source":"naturalearthdata.com","kind":"major_road","kind_detail":"secondary","sort_rank":379,"landuse_kind":"urban_area","min_zoom":4.0,"id":26282},"arcs":[173]},{"type":"LineString","properties":{"source":"naturalearthdata.com","kind":"major_road","sort_rank":379,"kind_detail":"secondary","min_zoom":4.0,"id":26282},"arcs":[174]},{"type":"LineString","properties":{"source":"naturalearthdata.com","kind":"major_road","kind_detail":"secondary","sort_rank":379,"landuse_kind":"urban_area","min_zoom":4.0,"id":26283},"arcs":[175]},{"type":"LineString","properties":{"source":"naturalearthdata.com","kind":"major_road","kind_detail":"secondary","sort_rank":379,"landuse_kind":"urban_area","min_zoom":4.0,"id":26283},"arcs":[176]},{"type":"LineString","properties":{"source":"naturalearthdata.com","kind":"major_road","sort_rank":379,"kind_detail":"secondary","min_zoom":4.0,"id":26283},"arcs":[177]},{"type":"LineString","properties":{"source":"naturalearthdata.com","kind":"major_road","kind_detail":"secondary","sort_rank":379,"landuse_kind":"urban_area","min_zoom":3.0,"id":26401},"arcs":[178]},{"type":"MultiLineString","properties":{"source":"naturalearthdata.com","kind":"major_road","sort_rank":379,"kind_detail":"secondary","min_zoom":3.0,"id":26401},"arcs":[[179],[180]]},{"type":"MultiLineString","properties":{"source":"naturalearthdata.com","kind":"major_road","kind_detail":"secondary","sort_rank":379,"landuse_kind":"urban_area","min_zoom":3.0,"id":26457},"arcs":[[181],[182]]},{"type":"MultiLineString","properties":{"source":"naturalearthdata.com","kind":"major_road","sort_rank":379,"kind_detail":"secondary","min_zoom":3.0,"id":26457},"arcs":[[183],[184]]},{"type":"LineString","properties":{"source":"naturalearthdata.com","kind":"highway","kind_detail":"motorway","sort_rank":383,"landuse_kind":"urban_area","min_zoom":3.0,"id":26458},"arcs":[185]},{"type":"LineString","properties":{"source":"naturalearthdata.com","kind":"highway","sort_rank":383,"kind_detail":"motorway","min_zoom":3.0,"id":26458},"arcs":[186]},{"type":"MultiLineString","properties":{"source":"naturalearthdata.com","kind":"major_road","kind_detail":"secondary","sort_rank":379,"landuse_kind":"urban_area","min_zoom":4.0,"id":26482},"arcs":[[187],[188],[189]]},{"type":"MultiLineString","properties":{"source":"naturalearthdata.com","kind":"major_road","sort_rank":379,"kind_detail":"secondary","min_zoom":4.0,"id":26482},"arcs":[[190],[191],[192]]},{"type":"MultiLineString","properties":{"source":"naturalearthdata.com","kind":"highway","kind_detail":"motorway","sort_rank":383,"landuse_kind":"urban_area","min_zoom":4.0,"id":26651},"arcs":[[193],[194],[195]]},{"type":"MultiLineString","properties":{"source":"naturalearthdata.com","kind":"highway","sort_rank":383,"kind_detail":"motorway","min_zoom":4.0,"id":26651},"arcs":[[196],[197],[198]]},{"type":"LineString","properties":{"source":"naturalearthdata.com","kind":"highway","kind_detail":"motorway","sort_rank":383,"landuse_kind":"urban_area","min_zoom":3.0,"id":26957},"arcs":[199]},{"type":"LineString","properties":{"source":"naturalearthdata.com","kind":"highway","kind_detail":"motorway","sort_rank":383,"landuse_kind":"urban_area","min_zoom":3.0,"id":26957},"arcs":[200]},{"type":"MultiLineString","properties":{"source":"naturalearthdata.com","kind":"highway","sort_rank":383,"kind_detail":"motorway","min_zoom":3.0,"id":26957},"arcs":[[201],[202]]},{"type":"LineString","properties":{"source":"naturalearthdata.com","kind":"highway","kind_detail":"motorway","sort_rank":383,"landuse_kind":"urban_area","min_zoom":4.0,"id":26979},"arcs":[203]},{"type":"LineString","properties":{"source":"naturalearthdata.com","kind":"highway","sort_rank":383,"kind_detail":"motorway","min_zoom":4.0,"id":26979},"arcs":[204]},{"type":"LineString","properties":{"source":"naturalearthdata.com","kind":"minor_road","kind_detail":"tertiary","sort_rank":355,"landuse_kind":"urban_area","min_zoom":6.0,"id":27008},"arcs":[205]},{"type":"LineString","properties":{"source":"naturalearthdata.com","kind":"minor_road","sort_rank":355,"kind_detail":"tertiary","min_zoom":6.0,"id":27008},"arcs":[206]},{"type":"LineString","properties":{"source":"naturalearthdata.com","kind":"highway","kind_detail":"motorway","sort_rank":383,"landuse_kind":"urban_area","min_zoom":3.0,"id":27122},"arcs":[207]},{"type":"LineString","properties":{"source":"naturalearthdata.com","kind":"highway","kind_detail":"motorway","sort_rank":383,"landuse_kind":"urban_area","min_zoom":3.0,"id":27122},"arcs":[208]},{"type":"MultiLineString","properties":{"source":"naturalearthdata.com","kind":"highway","sort_rank":383,"kind_detail":"motorway","min_zoom":3.0,"id":27122},"arcs":[[209],[210]]},{"type":"LineString","properties":{"source":"naturalearthdata.com","kind":"highway","sort_rank":383,"kind_detail":"motorway","min_zoom":4.0,"id":27894},"arcs":[211]},{"type":"LineString","properties":{"source":"naturalearthdata.com","kind":"major_road","sort_rank":379,"kind_detail":"secondary","min_zoom":3.0,"id":48453},"arcs":[212]},{"type":"LineString","properties":{"source":"naturalearthdata.com","kind":"highway","kind_detail":"motorway","sort_rank":383,"landuse_kind":"urban_area","min_zoom":3.0,"id":48454},"arcs":[213]},{"type":"LineString","properties":{"source":"naturalearthdata.com","kind":"highway","sort_rank":383,"kind_detail":"motorway","min_zoom":3.0,"id":48454},"arcs":[214]}]},"earth":{"type":"GeometryCollection","geometries":[{"type":"MultiPolygon","properties":{"sort_rank":10,"source":"naturalearthdata.com","min_zoom":0.0,"kind":"earth","area":1287879335969},"arcs":[[[215]]]}]},"landuse":{"type":"GeometryCollection","geometries":[{"type":"Polygon","properties":{"kind":"nature_reserve","protect_class":"2","area":1543229952,"sort_rank":23,"source":"openstreetmap.org","min_zoom":4.0,"tier":2,"id":321336003},"arcs":[[216]]},{"type":"MultiPolygon","properties":{"source":"naturalearthdata.com","kind":"urban_area","name":"","area":39099880533,"sort_rank":11,"min_zoom":4.0},"arcs":[[[217]],[[218]],[[219]],[[220]],[[221]],[[222]],[[223]],[[224]],[[225]],[[226]],[[227]],[[228]],[[229]],[[230]],[[231]],[[232]],[[233]],[[234]],[[235]],[[236]],[[237]],[[238]],[[239]],[[240]],[[241]],[[242]],[[243],[244]],[[245]],[[246]],[[247]],[[248]],[[249]],[[250]],[[251]],[[252]],[[253]],[[254]],[[255]],[[256]],[[257]],[[258]],[[259]],[[260]],[[261]],[[262]],[[263]],[[264]],[[265]],[[266]],[[267]],[[268]],[[269]],[[270]],[[271]],[[272],[273]],[[274]],[[275]]]},{"type":"MultiPolygon","properties":{"kind":"protected_area","protect_class":"5","area":7472532587,"sort_rank":17,"source":"openstreetmap.org","min_zoom":4.0,"tier":2,"osm_relation":true},"arcs":[[[276]]]}]}},"type":"Topology","transform":{"translate":[50.625,31.952162238],"scale":[0.001373291,0.0011342107]},"arcs":[[[2460,4096],[55,-56],[30,-44]],[[4067,2604],[-262,-439],[-80,-42]],[[3725,2123],[-186,4]],[[3539,2127],[-67,-12],[-13,-6],[0,-2]],[[916,2577],[9,-35],[-2,-72],[-19,-77],[-32,-75],[-24,-35]],[[2745,3990],[50,11],[103,47],[45,48]],[[2688,3999],[57,-9]],[[2545,3996],[143,3]],[[1981,3468],[37,5],[55,18],[52,27],[32,28],[17,23],[9,22],[17,25],[74,65],[29,32],[12,71],[16,54],[25,49],[55,53],[61,35],[73,21]],[[1958,3481],[23,-13]],[[1755,3420],[10,5],[74,8],[35,9],[46,26],[38,13]],[[848,2283],[-246,-63]],[[602,2220],[-56,3]],[[546,2223],[-158,-19],[-69,-30],[-27,-27],[-9,-26],[-22,-173],[15,-38],[21,-11]],[[297,1899],[-9,-53],[-69,-169],[-20,-35],[-41,0],[-46,-15],[-41,-34],[-45,-29],[-26,-7]],[[501,0],[-11,81],[-38,71],[-85,65],[-38,40],[-93,74],[-7,69],[4,64],[-16,26],[-6,25],[-11,13],[-19,5],[-7,21],[-8,41],[-28,25]],[[138,620],[-32,-6],[-16,-18],[-30,-10],[-60,-2]],[[3459,2107],[8,-596],[-19,-63],[-62,-109],[-42,-30],[-57,-6],[-72,-39],[-39,-49],[-33,-148],[-24,-65],[-28,-54],[-40,-50],[-77,-45],[-771,-270]],[[2203,583],[-230,54]],[[1973,637],[-53,-2],[-71,-28],[-43,-29],[-33,-27],[-47,-28],[-52,-15],[-29,-20],[-6,-30],[21,-271],[-6,-56],[-31,-124],[-1,-7]],[[116,2880],[-20,-29],[-25,-69],[-12,-135],[-9,-34],[-13,-8],[-37,-12]],[[0,1991],[54,-5],[75,-41],[168,-46]],[[116,2880],[63,201],[0,62],[-19,36],[-34,41]],[[52,3173],[-5,29],[0,49],[-28,33],[-19,0]],[[126,3220],[-33,-3],[-20,-40],[-21,-4]],[[116,2880],[0,-2],[210,-3],[175,-52],[415,-246]],[[0,3863],[128,-13]],[[0,3712],[1,2],[-1,1]],[[1060,2195],[-72,12],[-140,76]],[[1657,2092],[-38,6],[-310,102],[-50,8]],[[1259,2208],[-199,-13]],[[3459,2107],[-7,9],[-18,15],[-39,13]],[[3395,2144],[-1738,-52]],[[1493,2984],[83,27],[72,38],[116,104],[23,79],[-9,89],[-23,99]],[[907,3190],[13,-6],[9,-9],[16,-6],[43,-2],[40,-35],[133,-80],[53,-18],[56,-1],[164,-47],[59,-2]],[[916,2577],[2,38],[23,71],[37,57],[9,55],[-33,59],[-82,108],[-6,38],[5,40],[14,53],[9,81],[13,13]],[[4067,2604],[29,8]],[[4067,2604],[29,36]],[[128,3850],[-1,17],[-8,24],[-118,88],[-1,1]],[[533,3671],[79,-45],[111,-9],[99,-38],[75,-79],[42,-78],[26,-30],[22,-13],[36,-12],[57,-3]],[[1291,3548],[49,-6],[52,-22],[65,-12],[83,-44],[56,-11]],[[1080,3364],[50,20],[95,112],[66,52]],[[1658,3472],[31,-8],[66,-44]],[[1596,3453],[38,5],[24,14]],[[128,3850],[120,-24],[47,-18],[13,-18],[28,-25],[30,-13],[120,-26],[47,-55]],[[489,3559],[42,25],[0,50],[2,37]],[[431,3567],[58,-8]],[[126,3220],[20,44],[47,29],[38,46],[20,53],[65,4],[9,42],[3,57],[44,50],[59,22]],[[1959,3103],[-36,-50],[-236,-129],[-304,-46],[-152,19],[-147,-64],[-164,5],[-67,32],[-118,121],[-151,200],[-21,76]],[[1959,3103],[26,35]],[[1985,3138],[2,2]],[[1987,3140],[4,5]],[[1991,3145],[11,11]],[[2002,3156],[3,3]],[[2005,3159],[1,1]],[[2006,3160],[9,9]],[[2015,3169],[2,1]],[[2017,3170],[1,0]],[[2018,3170],[1,1]],[[2019,3171],[5,3]],[[3184,3919],[-127,-114],[-123,-21],[-215,-86],[-117,-211],[-48,-16],[6,-129],[-61,-94],[-153,-32],[-72,-57],[-115,41],[-130,-23]],[[3896,4096],[-265,-74],[-64,-38],[-188,9],[-192,-71]],[[563,3267],[-119,21],[-169,80],[-275,177]],[[1105,2256],[11,-19],[3,-22],[-20,-68],[-65,-23],[-140,-7],[-54,-10],[-54,-1],[-23,-5],[-8,0],[-16,9],[-21,17],[-18,20],[-11,16],[-1,25],[7,27],[3,23],[-11,15],[22,42],[95,35],[21,46],[6,60],[4,15],[10,14],[16,16],[18,13],[13,5],[8,-2],[22,-11],[28,-11],[10,-14],[10,-18],[10,-15],[13,-7],[11,-9],[26,-58],[75,-98]],[[1691,205],[14,-30],[4,-19],[-1,-16],[-9,-54],[-3,-5],[-14,-9],[-6,-4],[-4,2],[-28,-9],[-5,-2],[-13,1],[-24,10],[-14,1],[-12,-5],[-16,-12],[-11,-1],[-17,32],[2,36],[39,121],[8,13],[13,8],[19,5],[54,2],[12,-6],[7,-14],[5,-45]],[[1620,2537],[-18,-6],[-91,5],[-17,-7],[-11,-15],[-9,-16],[-10,-11],[-17,0],[-35,15],[-15,4],[-8,5],[-11,20],[-6,5],[-9,-2],[-15,-7],[-9,-3],[-31,0],[-29,9],[-134,59],[-24,17],[-37,34],[-14,25],[-6,8],[-17,12],[-20,7],[-41,7],[-35,11],[-39,22],[-19,31],[21,35],[40,16],[44,1],[87,-10],[35,6],[65,28],[34,2],[16,-5],[23,-16],[14,-3],[96,-2],[10,5],[14,12],[5,6],[15,24],[6,5],[20,8],[6,2],[16,-3],[26,-17],[15,-4],[33,5],[16,5],[14,8],[23,19],[18,9],[9,-6],[9,-15],[21,-11],[32,-10],[-30,-29],[-40,-14],[-115,-15],[-18,-5],[-15,-9],[-11,-15],[-26,-50],[-4,-18],[14,-17],[26,0],[31,4],[24,-5],[18,-20],[-3,-14],[-10,-13],[-4,-19],[16,-19],[63,-21],[24,-12],[11,-19],[-7,-13]],[[4096,1982],[-2,-2],[-8,-14],[-9,-22],[-3,-21],[12,-10],[10,-3],[0,-78],[-22,-37],[-8,-8],[-14,-5],[-44,-31],[-22,-26],[-12,-29],[-26,-114],[-17,-30],[-24,-22],[-32,-16],[-28,-20],[-9,-29],[-2,-37],[-7,-40],[-16,-36],[-11,-17],[-10,-8],[-11,-5],[-11,-28],[-11,-9],[-12,1],[-19,5],[-17,10],[-7,11],[-7,9],[-42,30],[-27,43],[-37,99],[-23,46],[-42,39],[-48,14],[-52,7],[-51,18],[-13,9],[-11,11],[-7,16],[-3,22],[0,36],[-2,14],[-4,14],[6,58],[44,63],[93,98],[17,62],[-52,23],[-203,7],[-112,-40],[-57,6],[-29,12],[-16,5],[-17,1],[-17,-2],[-30,-7],[-16,-2],[-44,2],[-22,-2],[-21,-8],[-17,-15],[-37,-59],[-18,-14],[-14,1],[-16,7],[-22,0],[-14,-8],[-173,-147],[-4,-13],[6,-16],[7,-31],[-2,-22],[-6,-29],[-9,-26],[-12,-15],[-19,1],[-12,17],[-10,24],[-10,19],[-11,-9],[-8,-11],[-7,-13],[-4,-14],[-6,-38],[-5,-17],[-9,-12],[-45,37],[-31,35],[-4,7],[-16,38],[-9,11],[-19,8],[-39,-1],[-19,13],[-9,18],[-9,41],[-9,18],[-25,-26],[-14,-9],[-6,7],[-2,22],[-6,13],[-11,5],[-16,-7],[-26,-18],[-10,-12],[-4,-15],[-7,-16],[-17,-6],[-36,1],[-7,-3],[-16,-8],[-7,-2],[-9,2],[-50,28],[-21,23],[-40,55],[-19,14],[-64,17],[-47,27],[-45,34],[-43,46],[-21,18],[-30,15],[-32,11],[-16,9],[-7,13],[4,19],[11,11],[60,32],[94,95],[20,29],[13,33],[3,107],[6,14],[16,-4],[53,-37],[14,-12],[12,-33],[15,-8],[18,0],[16,4],[6,4],[11,10],[7,5],[26,11],[6,4],[13,5],[35,-4],[15,2],[15,21],[11,72],[9,27],[46,43],[49,13],[110,2],[43,16],[18,1],[49,-14],[19,-1],[31,11],[81,70],[111,75],[204,70],[51,28],[47,35],[45,43],[46,36],[49,16],[144,4],[32,8],[115,57],[97,7],[13,6],[26,15],[86,15],[58,-4],[14,7],[11,9],[25,14],[11,11],[14,33],[1,35],[5,31],[26,21],[46,9],[11,6],[42,51],[25,22],[26,11],[134,10],[30,-4],[24,-20],[8,-19],[0,-2],[-4,-14],[-9,-15],[-4,-20],[4,-21],[12,-4],[1,0],[0,-1166]],[[888,4096],[150,0],[-103,-13],[-47,13]],[[1805,2705],[-24,-4],[-18,25],[4,35],[27,65],[23,38],[30,21],[35,7],[38,-3],[50,-24],[-3,-36],[-33,-38],[-42,-31],[-87,-55]],[[4096,1982],[-2,-2],[-8,-14],[-9,-22],[-3,-21],[12,-10],[10,-3]],[[4096,1832],[-22,-37],[-8,-8],[-14,-5],[-44,-31],[-22,-26],[-12,-29],[-26,-114],[-17,-30],[-24,-22],[-32,-16],[-28,-20],[-9,-29],[-2,-37],[-7,-40],[-16,-36],[-11,-17],[-10,-8],[-11,-5],[-11,-28],[-11,-9],[-12,1],[-19,5],[-17,10],[-7,11],[-7,9],[-42,30],[-27,43],[-37,99],[-23,46],[-42,39],[-48,14],[-52,7],[-51,18],[-13,9],[-11,11],[-7,16],[-3,22],[0,36],[-2,14],[-4,14],[6,58],[44,63],[93,98],[17,62],[-52,23],[-203,7],[-112,-40],[-57,6],[-29,12],[-16,5],[-17,1],[-17,-2],[-30,-7],[-16,-2],[-44,2],[-22,-2],[-21,-8],[-17,-15],[-37,-59],[-18,-14],[-14,1],[-16,7],[-22,0],[-14,-8],[-173,-147],[-4,-13],[6,-16],[7,-31],[-2,-22],[-6,-29],[-9,-26],[-12,-15],[-19,1],[-12,17],[-10,24],[-10,19],[-11,-9],[-8,-11],[-7,-13],[-4,-14],[-6,-38],[-5,-17],[-9,-12],[-45,37],[-31,35],[-4,7],[-16,38],[-9,11],[-19,8],[-39,-1],[-19,13],[-9,18],[-9,41],[-9,18],[-25,-26],[-14,-9],[-6,7],[-2,22],[-6,13],[-11,5],[-16,-7],[-26,-18],[-10,-12],[-4,-15],[-7,-16],[-17,-6],[-36,1],[-7,-3],[-16,-8],[-7,-2],[-9,2],[-50,28],[-21,23],[-40,55],[-19,14],[-64,17],[-47,27],[-45,34],[-43,46],[-21,18],[-30,15],[-32,11],[-16,9],[-7,13],[4,19],[11,11],[60,32],[94,95],[20,29],[13,33],[3,107],[6,14],[16,-4],[53,-37],[14,-12],[12,-33],[15,-8],[18,0],[16,4],[6,4],[11,10],[7,5],[26,11],[6,4],[13,5],[35,-4],[15,2],[15,21],[11,72],[9,27],[46,43],[49,13],[110,2],[43,16],[18,1],[49,-14],[19,-1],[31,11],[81,70],[111,75],[204,70],[51,28],[47,35],[45,43],[46,36],[49,16],[144,4],[32,8],[115,57],[97,7],[13,6],[26,15],[86,15],[58,-4],[14,7],[11,9],[25,14],[11,11],[14,33],[1,35],[5,31],[26,21],[46,9],[11,6],[42,51],[25,22],[26,11],[134,10],[30,-4],[24,-20],[8,-19]],[[4096,3222],[-4,-14],[-9,-15],[-4,-20],[4,-21],[12,-4],[1,0]],[[1105,2256],[11,-19],[3,-22],[-20,-68],[-65,-23],[-140,-7],[-54,-10],[-54,-1],[-23,-5],[-8,0],[-16,9],[-21,17],[-18,20],[-11,16],[-1,25],[7,27],[3,23],[-11,15],[22,42],[95,35],[21,46],[6,60],[4,15],[10,14],[16,16],[18,13],[13,5],[8,-2],[22,-11],[28,-11],[10,-14],[10,-18],[10,-15],[13,-7],[11,-9],[26,-58],[75,-98]],[[1620,2537],[-18,-6],[-91,5],[-17,-7],[-11,-15],[-9,-16],[-10,-11],[-17,0],[-35,15],[-15,4],[-8,5],[-11,20],[-6,5],[-9,-2],[-15,-7],[-9,-3],[-31,0],[-29,9],[-134,59],[-24,17],[-37,34],[-14,25],[-6,8],[-17,12],[-20,7],[-41,7],[-35,11],[-39,22],[-19,31],[21,35],[40,16],[44,1],[87,-10],[35,6],[65,28],[34,2],[16,-5],[23,-16],[14,-3],[96,-2],[10,5],[14,12],[5,6],[15,24],[6,5],[20,8],[6,2],[16,-3],[26,-17],[15,-4],[33,5],[16,5],[14,8],[23,19],[18,9],[9,-6],[9,-15],[21,-11],[32,-10],[-30,-29],[-40,-14],[-115,-15],[-18,-5],[-15,-9],[-11,-15],[-26,-50],[-4,-18],[14,-17],[26,0],[31,4],[24,-5],[18,-20],[-3,-14],[-10,-13],[-4,-19],[16,-19],[63,-21],[24,-12],[11,-19],[-7,-13]],[[1691,205],[14,-30],[4,-19],[-1,-16],[-9,-54],[-3,-5],[-14,-9],[-6,-4],[-4,2],[-28,-9],[-5,-2],[-13,1],[-24,10],[-14,1],[-12,-5],[-16,-12],[-11,-1],[-17,32],[2,36],[39,121],[8,13],[13,8],[19,5],[54,2],[12,-6],[7,-14],[5,-45]],[[1805,2705],[-24,-4],[-18,25],[4,35],[27,65],[23,38],[30,21],[35,7],[38,-3],[50,-24],[-3,-36],[-33,-38],[-42,-31],[-87,-55]],[[888,4096],[47,-13],[103,13]],[[811,4088],[25,-10],[45,-11],[48,-7],[39,-3]],[[755,4096],[18,-3],[36,-4],[2,-1]],[[968,4057],[9,0],[30,3]],[[1304,3995],[-54,-8]],[[1494,4049],[-30,-11],[-1,0]],[[1463,4038],[-26,-11],[-27,-3],[-61,-22],[-45,-7]],[[1617,3977],[-38,26]],[[1513,4036],[-19,13]],[[1579,4003],[-4,3],[-54,25],[-8,5]],[[1692,4032],[-21,-15],[-30,-30],[-18,-14]],[[1831,4057],[-4,0],[-18,3],[-30,7],[-15,4],[-15,-4],[-26,-14]],[[1723,4053],[-7,-4],[-24,-17]],[[1901,4096],[-5,-3],[-12,-11],[-9,-15],[-15,-7],[-29,-3]],[[1623,3973],[-6,4]],[[1236,3985],[11,6]],[[1007,4060],[6,-7],[6,-29],[12,-11],[27,0],[12,-11],[30,7],[27,0],[15,-7],[12,-11],[24,-7],[12,-11],[15,0],[15,4],[16,8]],[[3207,4030],[-10,-17],[-8,-17]],[[3189,3996],[-10,-27],[-13,-22]],[[3245,4096],[-38,-66]],[[3191,3945],[-20,2]],[[3171,3947],[-5,0]],[[3656,3933],[-108,0],[-63,11],[-87,11],[-15,0],[-87,-11],[-96,0],[-9,1]],[[4096,3893],[-47,0],[-15,4],[-30,18],[-27,22],[-39,7],[-48,-4],[-48,-11],[-27,8],[-36,0],[-57,-4],[-15,4],[-51,-4]],[[3151,3926],[-18,-15],[-42,-36],[-15,-11],[-30,-15],[-42,-32],[-60,-15],[-45,-18],[-60,-26],[-72,-21],[-51,-19],[-27,-14],[-93,-69],[-30,-15],[-15,0],[-15,-7],[-12,-11],[-12,-29],[-21,-22]],[[331,3517],[3,-6],[-3,-11],[-9,-14],[-15,-26],[-2,-12]],[[483,3596],[-1,-1],[-15,0],[-13,4]],[[468,3876],[5,-9],[-6,-25],[-3,-25],[27,-19],[9,-14],[0,-15],[8,-11]],[[519,3742],[2,-2],[-3,-9]],[[562,4096],[-2,-7],[-3,-25],[-24,-26]],[[305,3448],[-1,-2],[-12,-11],[-30,-26],[-6,-11]],[[454,3599],[-30,10],[-15,0],[-30,-18],[-15,-11],[-24,-25],[-15,-29],[6,-9]],[[533,4038],[-45,-51],[-18,-40],[-9,-36],[-3,-14],[10,-21]],[[518,3731],[-3,-9],[-6,-33],[-9,-25],[-3,-15],[3,-14],[-6,-29],[-11,-10]],[[508,3758],[11,-16]],[[0,3551],[10,-7],[45,-29]],[[85,3499],[42,-25]],[[140,3467],[5,-3],[63,-33],[30,-18],[18,-15]],[[55,3515],[12,-8],[15,-7],[3,-1]],[[127,3474],[13,-7]],[[969,3344],[-1,0],[-33,-18]],[[1250,3987],[-3,-13]],[[1247,3974],[-6,-27],[6,-29],[9,-43],[6,-48],[3,-29],[0,-32],[-3,-15],[0,-44],[-6,-25],[-15,-4],[-27,0],[-18,-29],[-12,-7],[0,-25],[3,-19],[15,-29],[-3,-14],[-15,-26],[-3,-14],[6,-15],[-6,-14],[-30,-15],[-12,-7],[-27,-26],[-15,-3],[-27,-4],[-15,-11],[-15,-3],[-12,3],[-12,-14],[3,-11],[9,-15],[0,-14],[-15,-8],[-15,-3],[-29,-11]],[[766,3329],[-50,-11],[-33,-3],[-33,0],[-30,-4],[-30,-7],[-12,-11]],[[935,3326],[-30,-4],[-45,4],[-18,1]],[[842,3327],[-24,2],[-30,4],[-22,-4]],[[572,3293],[6,0]],[[256,3398],[27,-11],[24,-18],[12,-11],[30,-18],[12,-3],[15,-4],[30,-18],[30,-8],[28,4],[108,-18]],[[587,3231],[0,4],[-9,58]],[[2045,3206],[-23,-15]],[[2131,3268],[-25,-19],[-24,-18]],[[2082,3231],[-21,-14],[-16,-11]],[[2386,3438],[-27,-21],[-48,-37],[-15,-11],[-49,-32],[-30,-19],[-27,-14],[-36,-11],[-15,-18],[-8,-7]],[[385,3129],[24,18],[30,19],[49,25],[12,11],[36,40],[36,51]],[[2857,2886],[-9,25],[-12,7],[-30,19],[-27,21],[-9,15],[0,14],[3,15],[27,29],[3,18],[-6,29],[-18,48],[-12,51],[-9,43],[0,11],[9,58],[0,15],[-9,14],[-12,15],[-15,25],[-6,29],[-12,33],[-24,26],[-72,51],[-42,21],[-24,8],[-39,11],[-21,14]],[[1222,2886],[-10,0]],[[1271,2902],[-9,-2],[-25,-12]],[[2022,3191],[-7,-5]],[[810,3084],[-7,5],[-42,29],[-69,55],[-51,47],[-27,33],[-36,40]],[[1212,2886],[-7,0],[-18,3],[-39,18],[-33,19],[-39,32],[-39,26],[-30,0],[-45,7],[-27,7],[-30,11],[-30,18],[-12,15],[-53,42]],[[1237,2888],[-5,-2],[-10,0]],[[2015,3186],[-29,-20],[-93,-69],[-15,-11],[-48,-26],[-42,-18],[-15,-25],[-15,-30],[-12,-10],[-30,-11],[-12,-15],[-18,-7],[-30,-4],[-27,0],[-33,-7],[-45,-11],[-57,-15],[-12,0],[-42,4],[-15,-4],[-15,4],[-27,11],[-12,4],[-31,-4],[-15,-7],[-54,-13]],[[0,3009],[8,-3]],[[300,3089],[1,0],[48,15],[36,25]],[[8,3006],[29,-8],[15,4],[27,7],[45,18],[30,19],[30,14],[15,4],[60,7],[15,4],[26,14]],[[473,3033],[12,20],[0,7]],[[493,3095],[43,45],[27,18],[18,55],[6,18]],[[127,2609],[0,33],[12,44],[21,61],[12,26],[18,11],[27,0],[27,22],[6,11],[-9,14],[12,29],[-12,29],[21,26],[15,3],[15,-3],[15,3],[15,11],[27,26],[12,0],[15,11],[6,25],[15,11],[42,7],[31,18],[3,6]],[[485,3060],[0,22],[6,11],[2,2]],[[196,2380],[-9,22],[-15,29],[-14,42]],[[158,2473],[-1,2],[-6,43],[-9,48],[-15,43]],[[64,2308],[54,21],[12,8],[33,21],[15,8],[18,14]],[[0,2285],[31,8],[30,14],[3,1]],[[196,2380],[-36,-51],[-12,-11],[-12,-8]],[[136,2310],[-3,-3],[-36,-40],[-27,-25],[-21,-25],[-27,-30],[-22,-32]],[[5,1856],[17,-36],[30,-43]],[[0,1867],[5,-11]],[[2800,1569],[-21,44],[-18,29],[-12,11],[-27,7],[-21,29],[-3,15],[15,29],[12,29],[27,47],[12,29],[0,26],[27,83],[9,40],[18,59],[12,58],[21,153],[3,43],[9,87],[6,59],[6,29],[6,91],[6,51],[3,54],[0,29],[-18,73],[-6,58],[0,15],[-9,40]],[[940,1350],[-17,30],[-15,18]],[[609,1775],[-10,12],[-27,22],[-39,15],[-12,14],[-15,43]],[[244,2275],[-11,20]],[[220,2322],[-6,11],[-18,47]],[[233,2295],[-13,27]],[[506,1881],[0,1],[-9,15],[-24,43],[-3,15],[-3,32],[0,40],[-6,59],[-22,43],[-24,22],[-27,18],[-27,8],[-24,18],[-27,29],[-27,14],[-27,15],[-9,14],[-3,8]],[[908,1398],[-6,8],[-24,29],[-12,7],[-39,36],[-24,29],[-3,30],[6,14],[0,29],[-12,44],[-9,14],[-27,19],[-42,14],[-15,11],[-24,29],[-15,7],[-33,29],[-6,11],[-14,17]],[[977,1278],[-6,29],[-24,30],[-7,13]],[[1271,1246],[-6,29],[-9,11],[-9,8]],[[1156,1388],[-2,3],[-18,29],[-6,-5]],[[1130,1415],[-21,-17],[-60,-36],[-27,-25],[-24,-26],[-21,-33]],[[1247,1294],[-3,3],[-27,18],[-21,29],[-27,18],[-13,26]],[[637,1041],[-8,-6]],[[629,1035],[-12,-18]],[[977,1278],[-24,-18],[-15,0],[-12,-11],[-27,-25],[-15,-4],[-27,0],[-12,4],[-12,-4],[-27,-29],[-21,-25],[-27,-22],[-60,-47],[-54,-51],[-7,-5]],[[392,1330],[5,-8],[11,-20]],[[52,1777],[1,-1]],[[53,1776],[11,-14],[42,-58],[36,-47],[21,-37],[60,-80],[33,-43],[21,-33],[9,-18],[15,-15],[30,-29],[27,-29],[34,-43]],[[408,1302],[10,-20],[27,-44],[58,-76],[45,-62],[24,-25],[27,-26],[12,-14],[6,-18]],[[1797,806],[39,14],[1,1]],[[1837,821],[29,21],[57,51],[36,36],[39,40],[39,40],[57,48],[27,25],[36,36],[45,55],[15,11],[27,-4],[6,15],[-9,14],[-9,29],[0,15],[3,29],[-3,29],[3,26],[15,10],[40,-7],[33,22],[27,7],[42,-3],[27,11],[15,7],[39,36],[15,11],[42,11],[45,15],[30,-4],[42,-22],[30,0],[15,4],[33,18],[15,-4],[12,-3],[30,18],[12,3],[12,15],[0,15],[-12,29],[-3,11],[3,14],[6,18]],[[1797,806],[-33,7],[-17,3]],[[1271,1240],[0,6]],[[1747,816],[-37,8],[-54,22],[-45,25],[-63,36],[-27,19],[-24,25],[-39,36],[-21,11],[-12,11],[-24,26],[-12,11],[-24,25],[-13,7],[-24,15],[-30,33],[-15,29],[-6,14],[-9,44],[3,27]],[[1344,677],[-25,-2],[-4,0]],[[1315,675],[-56,0]],[[1587,682],[-36,4],[-42,-4],[-27,-4],[-120,0],[-18,-1]],[[833,631],[-24,0],[-27,-4],[-15,-7]],[[887,631],[-53,0]],[[834,631],[-1,0]],[[1259,675],[-99,-4],[-30,0],[-135,-25],[-54,-11],[-33,-4],[-21,0]],[[767,620],[-15,4],[-30,29],[-12,18],[-15,7],[-9,15],[-9,18],[-12,47],[-6,44],[-2,27]],[[657,829],[-1,13],[-3,29],[-9,47],[-9,40],[-18,59]],[[349,675],[-9,7],[-10,10]],[[466,605],[-14,7]],[[767,620],[-21,0],[-54,-7],[-36,-11],[-24,-7],[-57,-4],[-27,4],[-12,-4],[-30,0],[-11,3]],[[330,692],[-2,1],[-24,29],[-12,11],[-39,22],[-69,47],[-27,15],[-42,14],[-39,26],[-9,10],[-27,26],[-30,18],[-10,5]],[[452,612],[0,1],[-19,14],[-69,37],[-15,11]],[[495,594],[-16,4],[-13,7]],[[764,531],[-3,6],[-6,29],[3,14],[9,40]],[[792,487],[-16,20],[-11,22]],[[837,426],[-10,9],[-24,40],[-8,9]],[[765,529],[-1,2]],[[795,484],[-3,3]],[[824,406],[15,18],[-2,2]],[[2523,280],[-2,2],[-39,33],[-24,22],[-12,7],[-12,3],[-5,1]],[[1802,788],[-5,18]],[[2429,348],[-49,3],[-42,-4],[-15,0],[-24,15],[-27,29],[-13,7],[-39,11],[-24,15],[-27,18],[-24,29],[-39,36],[-12,8],[-42,14],[-51,33],[-39,25],[-51,48],[-63,47],[-9,29],[-33,62],[-4,15]],[[2620,89],[-12,22],[-9,29],[-30,44],[-15,43],[-21,44],[-10,9]],[[905,67],[9,30],[0,6]],[[914,103],[0,8],[-3,33],[-21,58],[-21,29],[0,11],[-6,18],[-30,98],[-9,48]],[[903,40],[-4,6],[6,21]],[[905,38],[-2,2]],[[2673,0],[-8,13],[-2,3]],[[2648,45],[-24,37]],[[2624,82],[-4,7]],[[2663,16],[-13,26],[-2,3]],[[927,0],[-22,38]],[[2491,3551],[-51,-54],[-21,-26],[-33,-33]],[[1797,806],[-6,-8],[-6,-8]],[[1785,790],[-12,-17],[-27,-26],[-27,-18],[-48,-25],[-24,-26],[-27,-3],[-33,7]],[[4096,4096],[0,-4096],[-4096,0],[0,4096],[888,0],[47,-13],[103,13],[3058,0]],[[3822,3351],[55,41],[30,-9],[-26,71],[48,-12],[47,25],[120,-38],[0,-197],[-253,-24],[-21,143]],[[910,40],[-21,2],[17,69],[20,-19],[-16,-52]],[[2637,0],[51,32],[72,-32],[-123,0]],[[763,0],[29,32],[14,-12],[-17,-20],[-26,0]],[[712,3],[-2,24],[34,5],[0,-17],[-32,-12]],[[2621,13],[-34,59],[1,19],[81,-20],[-48,-58]],[[469,71],[34,-14],[2,-57],[-51,0],[31,42],[-55,30],[39,-1]],[[3577,370],[23,-54],[-33,-19],[-24,59],[34,14]],[[2493,376],[23,-11],[8,-98],[-65,20],[24,-39],[-40,-10],[-16,127],[66,11]],[[1814,786],[-75,10],[24,63],[49,6],[30,-51],[-28,-28]],[[1335,658],[-25,21],[-8,39],[57,-10],[-24,-50]],[[0,715],[0,27],[27,11],[21,-45],[-17,-5],[-31,12]],[[1165,1100],[-33,26],[0,43],[11,0],[22,-69]],[[686,986],[-45,20],[-18,45],[72,-49],[-9,-16]],[[372,973],[-49,0],[0,49],[57,-20],[-8,-29]],[[244,1014],[7,48],[32,-1],[0,-13],[-39,-34]],[[1278,1316],[40,-59],[-56,-20],[-25,28],[19,58],[22,-7]],[[1383,1327],[-51,-11],[-22,48],[65,10],[24,-19],[-16,-28]],[[437,1326],[0,-20],[-81,-10],[-15,44],[21,13],[26,-28],[32,39],[17,-38]],[[1160,1386],[-36,18],[11,20],[31,-4],[-6,-34]],[[954,1397],[25,-3],[-25,-39],[-64,-20],[32,108],[32,-46]],[[1504,424],[-36,24],[-4,15],[32,10],[8,-49]],[[48,522],[14,40],[59,9],[-7,-26],[-66,-23]],[[242,453],[-22,13],[-2,37],[28,-17],[-4,-33]],[[121,238],[-24,49],[40,10],[0,-43],[-16,-16]],[[588,328],[6,-24],[37,3],[16,-59],[-89,-10],[-57,29],[25,49],[62,12]],[[138,409],[56,-4],[-8,-49],[39,17],[82,-57],[-6,-23],[-37,-26],[-30,30],[-16,-20],[-24,39],[-39,-15],[-10,54],[-40,-9],[-16,49],[49,14]],[[684,833],[13,-119],[136,-25],[0,-59],[47,41],[10,-51],[-41,-39],[-16,-69],[-73,20],[32,-20],[0,-29],[33,10],[16,-69],[-113,49],[-41,-20],[41,-9],[-33,-69],[47,10],[10,-29],[-48,-10],[8,-79],[-49,69],[-84,28],[-78,-38],[-40,29],[-89,10],[16,79],[48,19],[-40,10],[12,42],[37,-3],[28,-38],[49,29],[-5,39],[25,0],[16,-39],[40,0],[33,39],[-178,68],[-8,59],[-41,-20],[-40,30],[-41,-10],[8,29],[83,23],[62,-54],[106,31],[-16,49],[57,98],[40,-19],[40,36],[-19,-29]],[[621,620],[10,10],[-41,29],[0,-10],[31,-29]],[[3256,1609],[-39,15],[-6,25],[58,-8],[-13,-32]],[[574,1629],[49,-29],[-8,-20],[-57,10],[16,39]],[[837,1706],[-28,31],[40,39],[24,-20],[-36,-50]],[[0,1720],[0,28],[8,-1],[-4,-24],[-4,-3]],[[0,1776],[0,78],[48,19],[35,-17],[16,-33],[-18,-47],[-81,0]],[[558,1942],[89,-19],[48,-39],[-32,-98],[57,-30],[-10,-27],[-104,47],[-97,0],[-40,88],[65,29],[8,59],[16,-10]],[[481,2239],[-52,7],[-9,30],[70,15],[28,-25],[-37,-27]],[[189,2490],[60,-13],[20,-52],[-29,-87],[-30,-23],[-146,-10],[-16,59],[41,-20],[16,98],[84,48]],[[267,2266],[-37,14],[-4,15],[65,0],[-24,-29]],[[2104,3228],[-21,-2],[-12,59],[64,-10],[-31,-47]],[[2002,3308],[-16,8],[-12,27],[32,-9],[-4,-26]],[[1682,3431],[-3,33],[28,16],[-2,-36],[-23,-13]],[[1092,3353],[-37,-64],[-49,-15],[-19,20],[-6,15],[46,5],[0,39],[65,0]],[[1272,2929],[-2,-56],[-45,20],[-14,-34],[2,63],[51,39],[8,-32]],[[2022,3265],[33,-20],[-17,-68],[-73,29],[24,63],[33,-4]],[[0,3005],[0,59],[9,-11],[64,16],[8,-49],[-81,-15]],[[479,3029],[-30,18],[-4,22],[55,-13],[1,-26],[-22,-1]],[[1059,1600],[-31,-72],[-25,-7],[0,39],[-49,-19],[25,49],[80,10]],[[3167,3921],[-29,10],[50,25],[7,-25],[-28,-10]],[[56,3931],[-32,4],[-8,35],[28,-10],[12,-29]],[[3191,3995],[-36,14],[22,28],[34,-8],[-20,-34]],[[1881,4096],[16,0],[-12,-7],[-4,7]],[[1682,4067],[17,-58],[-89,-58],[-33,39],[8,59],[33,-20],[64,38]],[[1270,4060],[65,-41],[-73,-59],[-47,46],[55,54]],[[373,4023],[7,-4],[24,20],[-24,-49],[-24,49],[17,-16]],[[1723,4096],[106,0],[11,-31],[-28,-26],[-89,-10],[0,67]],[[1456,4096],[99,0],[6,-8],[-73,-79],[-40,46],[8,41]],[[0,3505],[0,84],[19,37],[49,-1],[-9,-34],[54,-52],[89,20],[8,-49],[129,-10],[71,-93],[124,54],[101,-25],[117,35],[32,-30],[-17,-49],[82,0],[24,-29],[41,29],[73,-19],[-49,-79],[-56,30],[-33,-10],[-16,29],[-31,-6],[7,36],[-33,0],[-24,-108],[-48,0],[40,-39],[113,10],[41,-59],[-99,-106],[-45,31],[-42,-13],[9,-38],[31,-2],[-6,-25],[87,-33],[-24,-40],[-33,20],[-40,-20],[-8,49],[-41,-9],[-7,52],[-33,6],[8,30],[-32,39],[64,20],[-32,48],[-109,-101],[-69,13],[-8,49],[-113,-49],[-17,-39],[-16,30],[-32,0],[-51,52],[35,6],[-8,30],[40,-10],[-11,40],[-37,9],[-17,-30],[-28,32],[-28,-22],[-9,25],[33,5],[-32,9],[-16,49],[-94,-2],[-20,71],[57,20],[37,99],[-53,8],[-8,40],[-81,-15]],[[169,3287],[33,-2],[40,-49],[-48,76],[-25,-25]],[[1714,3729],[-8,23],[25,13],[0,-30],[-17,-6]],[[56,3892],[0,29],[49,10],[-15,-31],[-34,-8]],[[556,4096],[192,0],[1,-1],[224,-25],[-65,-185],[25,-2],[22,-79],[56,-58],[-151,0],[-44,-71],[16,-59],[-144,26],[-13,-26],[66,-29],[-82,-77],[-2,-32],[-51,38],[-40,-6],[-3,-46],[-115,17],[-47,-21],[3,-55],[-42,-29],[-55,45],[-4,47],[65,112],[38,24],[94,-10],[19,151],[-71,79],[108,272]]]}