{"objects":{"water":{"type":"GeometryCollection","geometries":[{"type":"Polygon","properties":{"source":"naturalearthdata.com","kind":"ocean","area":1576712559132672,"sort_rank":200,"min_zoom":0.0,"id":1},"arcs":[[23],[24],[25],[26],[27],[28],[29],[30],[31],[32],[33],[34],[35],[36],[37],[38],[39],[40],[41],[42],[43],[44],[45],[46],[47],[48],[49],[50],[51],[52],[53],[54]]},{"type":"LineString","properties":{"source":"naturalearthdata.com","kind":"ocean","sort_rank":205,"boundary":true,"min_zoom":0.0,"id":51},"arcs":[55]},{"type":"LineString","properties":{"source":"naturalearthdata.com","kind":"ocean","sort_rank":205,"boundary":true,"min_zoom":0.0,"id":55},"arcs":[56]},{"type":"LineString","properties":{"source":"naturalearthdata.com","kind":"ocean","sort_rank":205,"boundary":true,"min_zoom":0.0,"id":2763},"arcs":[57]},{"type":"LineString","properties":{"source":"naturalearthdata.com","kind":"ocean","sort_rank":205,"boundary":true,"min_zoom":0.0,"id":2769},"arcs":[58]},{"type":"LineString","properties":{"source":"naturalearthdata.com","kind":"ocean","sort_rank":205,"boundary":true,"min_zoom":0.0,"id":2770},"arcs":[59]},{"type":"LineString","properties":{"source":"naturalearthdata.com","kind":"ocean","sort_rank":205,"boundary":true,"min_zoom":0.0,"id":2771},"arcs":[60]},{"type":"LineString","properties":{"source":"naturalearthdata.com","kind":"ocean","sort_rank":205,"boundary":true,"min_zoom":0.0,"id":2774},"arcs":[61]},{"type":"MultiLineString","properties":{"source":"naturalearthdata.com","kind":"ocean","sort_rank":205,"boundary":true,"min_zoom":0.0,"id":2778},"arcs":[[62],[63]]},{"type":"LineString","properties":{"source":"naturalearthdata.com","kind":"ocean","sort_rank":205,"boundary":true,"min_zoom":0.0,"id":2781},"arcs":[64]},{"type":"LineString","properties":{"source":"naturalearthdata.com","kind":"ocean","sort_rank":205,"boundary":true,"min_zoom":0.0,"id":2785},"arcs":[65]},{"type":"LineString","properties":{"source":"naturalearthdata.com","kind":"ocean","sort_rank":205,"boundary":true,"min_zoom":0.0,"id":2787},"arcs":[66]},{"type":"LineString","properties":{"source":"naturalearthdata.com","kind":"ocean","sort_rank":205,"boundary":true,"min_zoom":0.0,"id":2792},"arcs":[67]},{"type":"LineString","properties":{"source":"naturalearthdata.com","kind":"ocean","sort_rank":205,"boundary":true,"min_zoom":0.0,"id":3286},"arcs":[68]},{"type":"LineString","properties":{"source":"naturalearthdata.com","kind":"ocean","sort_rank":205,"boundary":true,"min_zoom":0.0,"id":3594},"arcs":[69]},{"type":"LineString","properties":{"source":"naturalearthdata.com","kind":"ocean","sort_rank":205,"boundary":true,"min_zoom":0.0,"id":3595},"arcs":[70]},{"type":"LineString","properties":{"source":"naturalearthdata.com","kind":"ocean","sort_rank":205,"boundary":true,"min_zoom":0.0,"id":3596},"arcs":[71]},{"type":"LineString","properties":{"source":"naturalearthdata.com","kind":"ocean","sort_rank":205,"boundary":true,"min_zoom":0.0,"id":3597},"arcs":[72]},{"type":"LineString","properties":{"source":"naturalearthdata.com","kind":"ocean","sort_rank":205,"boundary":true,"min_zoom":0.0,"id":3598},"arcs":[73]},{"type":"LineString","properties":{"source":"naturalearthdata.com","kind":"ocean","sort_rank":205,"boundary":true,"min_zoom":0.0,"id":4067},"arcs":[74]},{"type":"LineString","properties":{"source":"naturalearthdata.com","kind":"ocean","sort_rank":205,"boundary":true,"min_zoom":0.0,"id":4068},"arcs":[75]},{"type":"LineString","properties":{"source":"naturalearthdata.com","kind":"ocean","sort_rank":205,"boundary":true,"min_zoom":0.0,"id":4069},"arcs":[76]},{"type":"LineString","properties":{"source":"naturalearthdata.com","kind":"ocean","sort_rank":205,"boundary":true,"min_zoom":0.0,"id":4070},"arcs":[77]},{"type":"LineString","properties":{"source":"naturalearthdata.com","kind":"ocean","sort_rank":205,"boundary":true,"min_zoom":0.0,"id":4077},"arcs":[78]},{"type":"LineString","properties":{"source":"naturalearthdata.com","kind":"ocean","sort_rank":205,"boundary":true,"min_zoom":0.0,"id":4086},"arcs":[79]},{"type":"LineString","properties":{"source":"naturalearthdata.com","kind":"ocean","sort_rank":205,"boundary":true,"min_zoom":0.0,"id":4087},"arcs":[80]},{"type":"LineString","properties":{"source":"naturalearthdata.com","kind":"ocean","sort_rank":205,"boundary":true,"min_zoom":0.0,"id":4088},"arcs":[81]},{"type":"LineString","properties":{"source":"naturalearthdata.com","kind":"ocean","sort_rank":205,"boundary":true,"min_zoom":0.0,"id":4089},"arcs":[82]},{"type":"LineString","properties":{"source":"naturalearthdata.com","kind":"ocean","sort_rank":205,"boundary":true,"min_zoom":0.0,"id":4090},"arcs":[83]},{"type":"Point","properties":{"label_placement":true,"kind":"sea","name":"\u062e\u0644\u06cc\u062c \u0641\u0627\u0631\u0633","source":"openstreetmap.org","sort_rank":200,"min_zoom":3.0,"id":305639193},"coordinates":[273,4049]}]},"buildings":{"type":"GeometryCollection","geometries":[]},"places":{"type":"GeometryCollection","geometries":[{"type":"Point","properties":{"name:ka":"\u10d0\u10e0\u10d0\u10d1\u10d4\u10d7\u10d8\u10e1 \u10d2\u10d0\u10d4\u10e0\u10d7\u10d8\u10d0\u10dc\u10d4\u10d1\u10e3\u10da\u10d8 \u10d4\u10db\u10d8\u10e0\u10d0\u10e2\u10d4\u10d1\u10d8","name:ko":"\uc544\ub78d\uc5d0\ubbf8\ub9ac\ud2b8 \uc5f0\ud569","name:kn":"\u0cb8\u0c82\u0caf\u0cc1\u0c95\u0ccd\u0ca4 \u0c85\u0cb0\u0cac\u0ccd \u0c8e\u0cae\u0cbf\u0cb0\u0cc7\u0c9f\u0cb8\u0ccd","name:km":"\u17a2\u17c1\u1798\u17b8\u179a\u17c9\u17c2\u1791\u17a2\u17b6\u179a\u17c9\u17b6\u1794\u17cb\u179a\u17bd\u1798","name:kl":"United Arab Emirates","name:cs":"Spojen\u00e9 arabsk\u00e9 emir\u00e1ty","name:ki":"Falme za Kiarabu","name:kw":"Pennternasedh Unys Arabek","name:kv":"\u04e6\u0442\u0443\u0432\u0442\u0447\u04e7\u043c \u0410\u0440\u0430\u0431 \u042d\u043c\u0438\u0440\u0430\u0442\u044a\u044f\u0441","name:ku":"M\u00eerni\u015f\u00een\u00ean Ereb\u00ee y\u00ean Yekb\u00fby\u00ee","name:ti":"\u12e8\u1270\u1263\u1260\u1229\u1275 \u12a0\u1228\u1265 \u12a4\u121d\u122c\u1275\u1235","name:ks":"\u0645\u064f\u062a\u062d\u062f\u06c1 \u0639\u0631\u064e\u0628 \u0627\u0645\u0627\u0631\u0627\u062a","name:to":"\u02bbAlepea Fakatahataha","name:tl":"United Arab Emirates","name:ce":"\u04c0\u0430\u0440\u0431\u0438\u0439\u043d \u0426\u0445\u044c\u0430\u044c\u043d\u0430\u043a\u0445\u0435\u0442\u0442\u0430 \u042d\u043c\u0438\u0440\u0430\u0442\u0430\u0448","name:ta":"\u0b90\u0b95\u0bcd\u0b95\u0bbf\u0baf \u0b85\u0bb0\u0baa\u0bc1 \u0b95\u0bc2\u0b9f\u0bcd\u0b9f\u0bbe\u0b9f\u0bcd\u0b9a\u0bbf","name:tg":"\u0410\u043c\u043e\u0440\u0430\u0442\u0438 \u041c\u0443\u0442\u0442\u0430\u04b3\u0438\u0434\u0430\u0438 \u0410\u0440\u0430\u0431","name:ca":"Emirats \u00c0rabs Units","name:te":"\u0c2f\u0c41\u0c28\u0c48\u0c1f\u0c46\u0c21\u0c4d \u0c06\u0c30\u0c2c\u0c4d \u0c0e\u0c2e\u0c3f\u0c30\u0c47\u0c1f\u0c4d\u0c38\u0c4d","name:cy":"Yr Emiradau Arabaidd Unedig","name:hr":"Ujedinjeni Arapski Emirati","name:da":"Forenede Arabiske Emirater","name:de":"Vereinigte Arabische Emirate","name:dz":"\u0f61\u0f74\u0f0b\u0f53\u0f71\u0f60\u0f72\u0f0b\u0f4a\u0f7a\u0f4c\u0f0b \u0f68\u0f0b\u0f62\u0f56\u0f0b \u0f68\u0f7a\u0f0b\u0f58\u0f7a\u0f0b\u0f62\u0f7a\u0f4a\u0f66","source":"openstreetmap.org","name:dv":"\u0787\u07ac\u0786\u07aa\u0788\u07ac\u0783\u07a8 \u07a2\u07a6\u0783\u07a6\u0784\u07a8 \u0787\u07a8\u0789\u07a7\u0783\u07a7\u078c\u07aa","name:lv":"Apvienotie Ar\u0101bu Emir\u0101ti","name:lt":"Jungtiniai Arab\u0173 Emyratai","name:uz":"Birlashgan Arab Amirliklari","name:kk":"\u0411\u0456\u0440\u0456\u043a\u043a\u0435\u043d \u0410\u0440\u0430\u0431 \u04d8\u043c\u0456\u0440\u043b\u0456\u043a\u0442\u0435\u0440\u0456","name:ur":"\u0645\u062a\u062d\u062f\u06c1 \u0639\u0631\u0628 \u0627\u0645\u0627\u0631\u0627\u062a","name:lb":"Vereenegt Arabesch Emirater","name:la":"Phylarchiarum Arabicarum Confoederatio","name:lg":"Emireeti","name:uk":"\u041e\u0431\u2019\u0454\u0434\u043d\u0430\u043d\u0456 \u0410\u0440\u0430\u0431\u0441\u044c\u043a\u0456 \u0415\u043c\u0456\u0440\u0430\u0442\u0438","name:ug":"\u0626\u06d5\u0631\u06d5\u0628 \u0628\u0649\u0631\u0644\u06d5\u0634\u0645\u06d5 \u062e\u06d5\u0644\u0649\u067e\u0649\u0644\u0649\u0643\u0649","name:li":"Vereinegde Arabische Emirate","name:ln":"L\u025bmila alabo","name:lo":"\u0eaa\u0eb0\u0eab\u0eb0\u0ea5\u0eb1\u0e94\u0ead\u0eb2\u0eab\u0ea5\u0eb1\u0e9a\u0ec0\u0ead\u0ea1\u0eb4\u0ec0\u0ea5\u0e94","name:el":"\u0397\u03bd\u03c9\u03bc\u03ad\u03bd\u03b1 \u0391\u03c1\u03b1\u03b2\u03b9\u03ba\u03ac \u0395\u03bc\u03b9\u03c1\u03ac\u03c4\u03b1","name:eo":"Unui\u011dintaj Arabaj Emirlandoj","name:en":"United Arab Emirates","name":"\u0627\u0644\u0625\u0645\u0627\u0631\u0627\u062a \u0627\u0644\u0639\u0631\u0628\u064a\u0629 \u0627\u0644\u0645\u062a\u062d\u062f\u0629","name:tk":"Birle\u015fen Arap Emirlikleri","name:ee":"United Arab Emirates nutome","name:th":"\u0e2a\u0e2b\u0e23\u0e31\u0e10\u0e2d\u0e32\u0e2b\u0e23\u0e31\u0e1a\u0e40\u0e2d\u0e21\u0e34\u0e40\u0e23\u0e15\u0e2a\u0e4c","name:eu":"Arabiar Emirrerri Batuak","name:et":"Araabia \u00dchendemiraadid","name:es":"Emiratos \u00c1rabes Unidos","name:ia":"Emiratos Arabe Unite","name:rm":"Emirats Arabs Unids","name:rn":"Leta Zunze Ubumwe z'Abarabu","name:az":"Birl\u0259\u015fmi\u015f \u018fr\u0259b Emiratlar\u0131","name:ie":"Unit Arabic Emiratus","name:id":"Uni Emirat Arab","name:pa":"\u0a38\u0a70\u0a2f\u0a41\u0a15\u0a24 \u0a05\u0a30\u0a2c \u0a07\u0a2e\u0a30\u0a3e\u0a24","name:io":"Unionita Araba Emirati","name:av":"\u0413I\u0430\u0440\u0430\u0431\u0430\u0437\u0443\u043b \u0426\u043e\u043b\u044a\u0430\u0440\u0430\u043b \u0418\u043c\u0430\u0440\u0430\u0442\u0430\u043b","name:ak":"United Arab Emirates","name:am":"\u12e8\u1270\u1263\u1260\u1229\u1275 \u12a0\u1228\u1265 \u12a4\u121d\u122c\u1275\u1235","name:it":"Emirati Arabi Uniti","name:an":"Emiratos Arabes Unitos","name:ru":"\u041e\u0431\u044a\u0435\u0434\u0438\u043d\u0451\u043d\u043d\u044b\u0435 \u0410\u0440\u0430\u0431\u0441\u043a\u0438\u0435 \u042d\u043c\u0438\u0440\u0430\u0442\u044b","name:rw":"Nyarabu Zunze Ubumwe","name:af":"Verenigde Arabiese Emirate","name:zu":"i-United Arab Emirates","name:ky":"\u0411\u0438\u0440\u0438\u043a\u043a\u0435\u043d \u0410\u0440\u0430\u0431 \u042d\u043c\u0438\u0440\u043b\u0438\u043a\u0442\u0435\u0440\u0438","name:zh-yue":"\u963f\u62c9\u4f2f\u806f\u5408\u914b\u9577\u570b","name:zh":"\u963f\u62c9\u4f2f\u8054\u5408\u914b\u957f\u56fd","name:so":"Imaaraadka Carabta ee Midoobay","name:sn":"United Arab Emirates","name:sl":"Zdru\u017eeni arabski emirati","name:sk":"Spojen\u00e9 arabsk\u00e9 emir\u00e1ty","name:ja":"\u30a2\u30e9\u30d6\u9996\u9577\u56fd\u9023\u90a6","name:si":"\u0d91\u0d9a\u0dca\u0dc3\u0dad\u0dca \u0d85\u0dbb\u0dcf\u0db6\u0dd2 \u0d91\u0db8\u0dd2\u0dbb\u0dca \u0dbb\u0dcf\u0da2\u0dca\u200d\u0dba\u0dba","name:sh":"Ujedinjeni Arapski Emirati","name:sg":"Ar\u00e2bo Emir\u00e2ti \u00d4ko","name:se":"Ovttastuvvan Ar\u00e1baemir\u00e1htat","name:sd":"\u06af\u068f\u064a\u0644 \u0639\u0631\u0628 \u0627\u0645\u0627\u0631\u0627\u062a","name:br":"Emirelezhio\u00f9 Arab Unanet","name:bs":"Ujedinjeni Arapski Emirati","name:bm":"Arabu mara kafoli","name:bn":"\u09b8\u0982\u09af\u09c1\u0995\u09cd\u09a4 \u0986\u09b0\u09ac \u0986\u09ae\u09bf\u09b0\u09be\u09a4","name:bo":"\u0f68\u0f0b\u0f62\u0f56\u0f0d \u0f68\u0f72\u0f0b\u0f58\u0f72\u0f0b\u0f62\u0f4a\u0f84\u0f0d \u0f46\u0f72\u0f42\u0f0b\u0f66\u0f92\u0fb2\u0f72\u0f63\u0f0b\u0f62\u0f92\u0fb1\u0f63\u0f0b\u0f41\u0f56\u0f0d","name:sw":"Falme za Kiarabu","name:be":"\u0410\u0431'\u044f\u0434\u043d\u0430\u043d\u044b\u044f \u0410\u0440\u0430\u0431\u0441\u043a\u0456\u044f \u042d\u043c\u0456\u0440\u0430\u0442\u044b","name:su":"Uni \u00c9mirat Arab","name:bg":"\u041e\u0431\u0435\u0434\u0438\u043d\u0435\u043d\u0438 \u0410\u0440\u0430\u0431\u0441\u043a\u0438 \u0415\u043c\u0438\u0440\u0441\u0442\u0432\u0430","name:ss":"Bunye bema-Arabhu","name:sr":"\u0423\u0458\u0435\u0434\u0438\u045a\u0435\u043d\u0438 \u0410\u0440\u0430\u043f\u0441\u043a\u0438 \u0415\u043c\u0438\u0440\u0430\u0442\u0438","name:sq":"Emiratet Arabe te Bashkuara","alt_name:sr":"\u0423.\u0410.\u0415; \u0423\u0410\u0415; \u0423. \u0410. \u0415.","name:jv":"Uni Emirat Arab","name:pt":"Emirados \u00c1rabes Unidos","name:ps":"\u0639\u0631\u0628\u064a \u0645\u062a\u062d\u062f\u0647 \u0627\u0645\u0627\u0631\u0627\u062a","name:oc":"Emirats Arabis Units","min_zoom":2.0,"name:ro":"Emiratele Arabe Unite","name:zh-min-nan":"A-la-pek Li\u00e2n-ha\u030dp Th\u00e2u-l\u00e2ng-kok","name:os":"\u0410\u0440\u0430\u0431\u0431\u044b \u0418\u0443\u0433\u043e\u043d\u0434 \u042d\u043c\u0438\u0440\u0430\u0442\u0442\u00e6","name:or":"\u0b38\u0b02\u0b2f\u0b41\u0b15\u0b4d\u0b24 \u0b06\u0b30\u0b2c \u0b0f\u0b2e\u0b3f\u0b30\u0b47\u0b1f\u0b38\u0b4d","name:pl":"Zjednoczone Emiraty Arabskie","name:tr":"Birle\u015fik Arap Emirlikleri","name:hi":"\u0938\u0902\u092f\u0941\u0915\u094d\u0924 \u0905\u0930\u092c \u0905\u092e\u0940\u0930\u093e\u0924","name:sv":"F\u00f6renade Arabemiraten","name:he":"\u05d0\u05d9\u05d7\u05d5\u05d3 \u05d4\u05d0\u05de\u05d9\u05e8\u05d5\u05d9\u05d5\u05ea \u05d4\u05e2\u05e8\u05d1\u05d9\u05d5\u05ea","name:ha":"Ha\u0257a\u0257\u0257iyar Daular Larabawa","name:hy":"\u0544\u056b\u0561\u0581\u0575\u0561\u056c \u0531\u0580\u0561\u0562\u0561\u056f\u0561\u0576 \u0537\u0574\u056b\u0580\u0561\u0569\u0576\u0565\u0580","name:ht":"Emira Arab Ini","name:hu":"Egyes\u00fclt Arab Em\u00edrs\u00e9gek","name:qu":"Hukllachasqa Arab Imiratukuna","population":4600000,"kind":"country","name:is":"Sameinu\u00f0u arab\u00edsku furstad\u00e6min","name:yi":"\u05e4\u05d0\u05e8\u05d0\u05d9\u05d9\u05e0\u05d9\u05d2\u05d8\u05e2 \u05d0\u05e8\u05d0\u05d1\u05d9\u05e9\u05e2 \u05e2\u05de\u05d9\u05e8\u05d0\u05d8\u05df","name:yo":"Or\u00edl\u1eb9\u0301\u00e8de \u1eb8mirate ti Aw\u1ecdn Arabu","name:mt":"Emirati G\u0127arab Maqg\u0127uda","name:ms":"Emiriah Arab Bersatu","name:mr":"\u0938\u0902\u092f\u0941\u0915\u094d\u0924 \u0905\u0930\u092c \u0905\u092e\u0940\u0930\u093e\u0924","name:my":"\u101a\u1030\u1021\u1031\u1021\u102e\u1038","int_name":"United Arab Emirates","name:mg":"Emir\u00e0 Arabo mitambatra","name:ml":"\u0d38\u0d02\u0d2f\u0d41\u0d15\u0d4d\u0d24 \u0d05\u0d31\u0d2c\u0d4d \u0d30\u0d3e\u0d37\u0d4d\u0d1f\u0d4d\u0d30\u0d02","name:vi":"C\u00e1c Ti\u1ec3u v\u01b0\u01a1ng qu\u1ed1c \u1ea2 R\u1eadp Th\u1ed1ng nh\u1ea5t","name:mn":"\u0410\u0440\u0430\u0431\u044b\u043d \u041d\u044d\u0433\u0434\u0441\u044d\u043d \u042d\u043c\u0438\u0440\u0442 \u0423\u043b\u0441","name:mi":"Te Kotahitanga o ng\u0101 Whenua \u0100rapi","id":424310703,"name:mk":"\u041e\u0431\u0435\u0434\u0438\u043d\u0435\u0442\u0438 \u0410\u0440\u0430\u043f\u0441\u043a\u0438 \u0415\u043c\u0438\u0440\u0430\u0442\u0438","name:vo":"Lemir\u00e4ns Larabik Pebal\u00f6l","name:fa":"\u0627\u0645\u0627\u0631\u0627\u062a \u0645\u062a\u062d\u062f\u0647 \u0639\u0631\u0628\u06cc","name:ff":"Emiraat Araab Denntu\u0257e","name:fi":"Yhdistyneet arabiemiirikunnat","name:fo":"Sameindu Emirr\u00edkini","name:fr":"\u00c9mirats arabes unis","name:fy":"de Feriene Arabyske Emiraten","name:nl":"Verenigde Arabische Emiraten","name:nn":"Dei sameinte arabiske emirata","name:no":"De forente arabiske emirater","name:na":"Emireitit Arabiya","name:ne":"\u0938\u0902\u092f\u0941\u0915\u094d\u0924 \u0905\u0930\u092c \u0907\u092e\u093f\u0930\u093e\u091f\u094d\u0938","name:wo":"Imaaraat yu Araab yu Bennoo yi","name:nv":"\u00c1s\u00e1\u00ed Bik\u00e9yah Y\u00e1zh\u00ed A\u0142hidadiidzoo\u00edg\u00ed\u00ed","name:ga":"Aontas na n\u00c9im\u00edr\u00edochta\u00ed Arabacha","name:gd":"Na h-Iomaratan Arabach Aonaichte","name:gn":"Aravia Emiryvy Joaju","name:gl":"Emiratos \u00c1rabes Unidos","name:gv":"Ny h-Emmiraidyn Arabagh Unnaneysit","name:gu":"\u0aaf\u0ac1\u0aa8\u0abe\u0a87\u0a9f\u0ac7\u0aa1 \u0a85\u0ab0\u0aac \u0a8f\u0aae\u0abf\u0ab0\u0ac7\u0a9f\u0acd\u0ab8","name:tt":"\u0411\u0435\u0440\u043b\u04d9\u0448\u043a\u04d9\u043d \u0413\u0430\u0440\u04d9\u043f \u04d8\u043c\u0438\u0440\u043b\u0435\u043a\u043b\u04d9\u0440\u0435"},"coordinates":[2457,1647]},{"type":"Point","properties":{"name:ka":"\u10d9\u10d0\u10e2\u10d0\u10e0\u10d8","name:ko":"\uce74\ud0c0\ub974","name:cv":"\u041a\u0430\u0442\u0430\u0440","name:km":"\u1780\u17b6\u178f\u17b6\u179a","name:kl":"Quatar","name:cs":"Katar","name:ki":"Katari","name:kw":"Katar","name:kv":"\u041a\u0430\u0442\u0430\u0440","name:ku":"Qeter","name:ti":"\u12b3\u1273\u122d","name:ks":"\u0642\u064e\u0637\u0650\u0631","name:to":"Kat\u0101","name:tl":"Katar","name:ce":"\u041a\u0430\u0442\u0430\u0440","name:ta":"\u0b95\u0ba4\u0bbe\u0bb0\u0bcd","name:tg":"\u049a\u0430\u0442\u0430\u0440","name:ca":"Qatar","name:te":"\u0c15\u0c24\u0c30\u0c4d","name:cy":"Qatar","name:hr":"Katar","name:da":"Qatar","name:de":"Katar","name:dz":"\u0f40\u0f0b\u0f4a\u0f62","source":"openstreetmap.org","name:kn":"\u0c95\u0ca4\u0cbe\u0cb0\u0ccd","name:dv":"\u07a4\u07a6\u07a0\u07a6\u0783\u07aa","name:lv":"Katara","name:lt":"Kataras","name:uz":"Qatar","name:kk":"\u041a\u0430\u0442\u0430\u0440","name:lb":"Katar","name:la":"Quataria","name:lg":"Kataa","name:uk":"\u041a\u0430\u0442\u0430\u0440","name:ug":"\u0642\u0627\u062a\u0627\u0631","name:li":"Katar","name:ln":"Katari","name:lo":"\u0e81\u0eb2\u0e95\u0eb2","name:el":"\u039a\u03b1\u03c4\u03ac\u03c1","name:eo":"Kataro","name:en":"Qatar","name":"\u0642\u0637\u0631","name:tk":"Katar","name:ee":"Katar nutome","name:th":"\u0e1b\u0e23\u0e30\u0e40\u0e17\u0e28\u0e01\u0e32\u0e15\u0e32\u0e23\u0e4c","name:eu":"Katar","name:et":"Katar","name:es":"Catar","name:ia":"Qatar","name:rm":"Katar","name:rn":"Katari","name:az":"Qatar","name:ie":"Katar","name:id":"Qatar","name:as":"\u0995\u09be\u099f\u09be\u09f0","name:io":"Katar","name:ak":"Kata","name:am":"\u12b3\u1273\u122d","name:it":"Qatar","name:an":"Qatar","name:ru":"\u041a\u0430\u0442\u0430\u0440","name:rw":"Katari","name:af":"Katar","name:zu":"i-Qatar","name:zh":"\u5361\u5854\u5c14","name:so":"Qadar","name:sn":"Qatar","name:sl":"Katar","name:sk":"Katar","name:ja":"\u30ab\u30bf\u30fc\u30eb","name:si":"\u0d9a\u0da7\u0dcf\u0dbb\u0dca\u0dba","name:sg":"Kat\u00e4ra","name:se":"Qatar","name:sa":"\u0915\u0924\u093e\u0930","name:bs":"Katar","name:bm":"Katari","name:bn":"\u0995\u09be\u09a4\u09be\u09b0","name:bo":"\u0f40\u0f0b\u0f4f\u0f71\u0f62\u0f0d","name:br":"Katar","name:sw":"Katari","name:be":"\u041a\u0430\u0442\u0430\u0440","name:su":"Qatar","name:bg":"\u041a\u0430\u0442\u0430\u0440","name:ss":"IKhathari","name:sr":"\u041a\u0430\u0442\u0430\u0440","name:sq":"Katar","name:jv":"Qatar","name:pt":"Qatar","name:oc":"Qatar","min_zoom":2.0,"name:ro":"Qatar","name:pa":"\u0a15\u0a24\u0a30","name:os":"\u041a\u0430\u0442\u0430\u0440","name:or":"\u0b15\u0b24\u0b3e\u0b30\u0b4d","name:pl":"Katar","name:tr":"Katar","name:hi":"\u0915\u093c\u0924\u0930","name:sv":"Qatar","name:he":"\u05e7\u05d8\u05e8","name:ha":"Kwatar","name:hy":"\u053f\u0561\u057f\u0561\u0580","name:ht":"Katar","name:hu":"Katar","name:qu":"Qatar","population":1699435,"kind":"country","name:is":"Katar","name:yi":"\u05e7\u05d0\u05d8\u05d0\u05e8","name:yo":"Or\u00edl\u1eb9\u0301\u00e8de Kota","name:mt":"Qatar","name:ms":"Qatar","name:mr":"\u0915\u0924\u093e\u0930","name:my":"\u1000\u102c\u1010\u102c","official_name":"\u062f\u0648\u0644\u0629 \u0642\u0637\u0631","int_name":"Qatar","name:mg":"Katar","name:ml":"\u0d16\u0d24\u0d4d\u0d24\u0d7c","name:vi":"Qatar","name:mn":"\u041a\u0430\u0442\u0430\u0440","id":432425062,"name:mk":"\u041a\u0430\u0442\u0430\u0440","name:vo":"Katar\u00e4n","name:ff":"Kataar","name:fi":"Qatar","name:fo":"Katar","name:fr":"Qatar","name:fy":"Katar","name:nl":"Qatar","name:nn":"Qatar","name:no":"Qatar","name:na":"Qatar","name:ne":"\u0915\u0924\u093e\u0930","name:wo":"Kataar","name:nv":"K\u02bcat\u00e1r","name:ga":"Catar","name:gd":"Catar","name:gl":"Qatar","name:gv":"Yn Chatar","name:gu":"\u0a95\u0aa4\u0abe\u0ab0","name:tt":"\u041a\u0430\u0442\u0430\u0440"},"coordinates":[440,2715]},{"type":"Point","properties":{"source":"naturalearthdata.com","kind":"locality","name":"Dubai","population":1379000,"region_capital":true,"min_zoom":3.0,"id":7231},"coordinates":[3388,2633]},{"type":"Point","properties":{"source":"naturalearthdata.com","kind":"locality","name":"Doha","country_capital":true,"population":1450000,"min_zoom":5.0,"id":6329},"coordinates":[661,2677]},{"type":"Point","properties":{"source":"naturalearthdata.com","kind":"locality","name":"Abu Dhabi","country_capital":true,"population":603492,"min_zoom":5.0,"id":6816},"coordinates":[2725,2020]}]},"transit":{"type":"GeometryCollection","geometries":[]},"pois":{"type":"GeometryCollection","geometries":[]},"boundaries":{"type":"GeometryCollection","geometries":[{"type":"MultiLineString","properties":{"source":"naturalearthdata.com","kind":"country","sort_rank":262,"kind_detail":"2","min_zoom":0.0,"id":50},"arcs":[[0],[1]]},{"type":"MultiLineString","properties":{"source":"naturalearthdata.com","kind":"country","sort_rank":262,"kind_detail":"2","min_zoom":0.0,"id":139},"arcs":[[2],[3]]},{"type":"MultiLineString","properties":{"source":"naturalearthdata.com","kind":"country","sort_rank":262,"kind_detail":"2","min_zoom":0.0,"id":69},"arcs":[[4],[5],[6]]},{"type":"MultiLineString","properties":{"source":"naturalearthdata.com","kind":"country","sort_rank":262,"kind_detail":"2","min_zoom":0.0,"id":124},"arcs":[[7],[8],[9],[10],[11],[12],[13],[14],[15],[16],[17]]},{"type":"LineString","properties":{"source":"naturalearthdata.com","kind":"country","sort_rank":262,"kind_detail":"2","min_zoom":0.0,"id":341},"arcs":[18]},{"type":"MultiLineString","properties":{"source":"naturalearthdata.com","kind":"country","sort_rank":262,"kind_detail":"2","min_zoom":0.0,"id":342},"arcs":[[19],[20]]},{"type":"LineString","properties":{"source":"naturalearthdata.com","kind":"region","sort_rank":256,"kind_detail":"4","min_zoom":6.7,"id":6726},"arcs":[21]},{"type":"LineString","properties":{"source":"naturalearthdata.com","kind":"region","sort_rank":256,"kind_detail":"4","min_zoom":6.7,"id":6728},"arcs":[22]}]},"roads":{"type":"GeometryCollection","geometries":[{"type":"LineString","properties":{"source":"naturalearthdata.com","kind":"major_road","sort_rank":379,"kind_detail":"secondary","min_zoom":4.0,"id":31019},"arcs":[84]},{"type":"LineString","properties":{"source":"naturalearthdata.com","kind":"major_road","sort_rank":379,"kind_detail":"secondary","min_zoom":4.0,"id":31056},"arcs":[85]},{"type":"LineString","properties":{"source":"naturalearthdata.com","kind":"major_road","sort_rank":379,"kind_detail":"secondary","min_zoom":4.0,"id":31067},"arcs":[86]},{"type":"LineString","properties":{"source":"naturalearthdata.com","kind":"major_road","sort_rank":379,"kind_detail":"secondary","min_zoom":4.0,"id":31104},"arcs":[87]},{"type":"LineString","properties":{"source":"naturalearthdata.com","kind":"major_road","sort_rank":379,"kind_detail":"secondary","min_zoom":4.0,"id":31206},"arcs":[88]},{"type":"LineString","properties":{"source":"naturalearthdata.com","kind":"major_road","sort_rank":379,"kind_detail":"secondary","min_zoom":4.0,"id":31207},"arcs":[89]},{"type":"LineString","properties":{"source":"naturalearthdata.com","kind":"highway","sort_rank":383,"kind_detail":"motorway","min_zoom":6.0,"id":31602},"arcs":[90]},{"type":"LineString","properties":{"source":"naturalearthdata.com","kind":"highway","sort_rank":383,"kind_detail":"motorway","min_zoom":6.0,"id":31689},"arcs":[91]},{"type":"LineString","properties":{"source":"naturalearthdata.com","kind":"highway","kind_detail":"motorway","sort_rank":383,"landuse_kind":"urban_area","min_zoom":5.0,"id":31742},"arcs":[92]},{"type":"LineString","properties":{"source":"naturalearthdata.com","kind":"highway","kind_detail":"motorway","sort_rank":383,"landuse_kind":"urban_area","min_zoom":5.0,"id":31742},"arcs":[93]},{"type":"LineString","properties":{"source":"naturalearthdata.com","kind":"highway","kind_detail":"motorway","sort_rank":383,"landuse_kind":"urban_area","min_zoom":5.0,"id":31742},"arcs":[94]},{"type":"MultiLineString","properties":{"source":"naturalearthdata.com","kind":"highway","sort_rank":383,"kind_detail":"motorway","min_zoom":5.0,"id":31742},"arcs":[[95],[96],[97]]},{"type":"LineString","properties":{"source":"naturalearthdata.com","kind":"highway","kind_detail":"motorway","sort_rank":383,"landuse_kind":"urban_area","min_zoom":5.0,"id":31761},"arcs":[98]},{"type":"LineString","properties":{"source":"naturalearthdata.com","kind":"highway","sort_rank":383,"kind_detail":"motorway","min_zoom":5.0,"id":31761},"arcs":[99]},{"type":"LineString","properties":{"source":"naturalearthdata.com","kind":"highway","sort_rank":383,"kind_detail":"motorway","min_zoom":6.0,"id":31813},"arcs":[100]},{"type":"MultiLineString","properties":{"source":"naturalearthdata.com","kind":"highway","kind_detail":"motorway","sort_rank":383,"landuse_kind":"urban_area","min_zoom":5.0,"id":31846},"arcs":[[101],[102],[103]]},{"type":"MultiLineString","properties":{"source":"naturalearthdata.com","kind":"highway","sort_rank":383,"kind_detail":"motorway","min_zoom":5.0,"id":31846},"arcs":[[104],[105]]},{"type":"LineString","properties":{"source":"naturalearthdata.com","kind":"highway","kind_detail":"motorway","sort_rank":383,"landuse_kind":"urban_area","min_zoom":6.0,"id":31871},"arcs":[106]},{"type":"LineString","properties":{"source":"naturalearthdata.com","kind":"highway","sort_rank":383,"kind_detail":"motorway","min_zoom":6.0,"id":31871},"arcs":[107]},{"type":"LineString","properties":{"source":"naturalearthdata.com","kind":"highway","kind_detail":"motorway","sort_rank":383,"landuse_kind":"urban_area","min_zoom":6.0,"id":31876},"arcs":[108]},{"type":"LineString","properties":{"source":"naturalearthdata.com","kind":"highway","sort_rank":383,"kind_detail":"motorway","min_zoom":6.0,"id":31876},"arcs":[109]},{"type":"LineString","properties":{"source":"naturalearthdata.com","kind":"highway","kind_detail":"motorway","sort_rank":383,"landuse_kind":"urban_area","min_zoom":6.0,"id":31877},"arcs":[110]},{"type":"LineString","properties":{"source":"naturalearthdata.com","kind":"minor_road","kind_detail":"tertiary","sort_rank":355,"landuse_kind":"urban_area","min_zoom":5.0,"id":31889},"arcs":[111]},{"type":"LineString","properties":{"source":"naturalearthdata.com","kind":"highway","sort_rank":383,"kind_detail":"motorway","min_zoom":3.0,"id":31893},"arcs":[112]},{"type":"LineString","properties":{"source":"naturalearthdata.com","kind":"highway","kind_detail":"motorway","sort_rank":383,"landuse_kind":"urban_area","min_zoom":3.0,"id":31897},"arcs":[113]},{"type":"LineString","properties":{"source":"naturalearthdata.com","kind":"highway","sort_rank":383,"kind_detail":"motorway","min_zoom":3.0,"id":31897},"arcs":[114]},{"type":"LineString","properties":{"source":"naturalearthdata.com","kind":"highway","kind_detail":"motorway","sort_rank":383,"landuse_kind":"urban_area","min_zoom":3.0,"id":31917},"arcs":[115]},{"type":"MultiLineString","properties":{"source":"naturalearthdata.com","kind":"highway","kind_detail":"motorway","sort_rank":383,"landuse_kind":"urban_area","min_zoom":3.0,"id":31922},"arcs":[[116],[117],[118]]},{"type":"MultiLineString","properties":{"source":"naturalearthdata.com","kind":"highway","sort_rank":383,"kind_detail":"motorway","min_zoom":3.0,"id":31922},"arcs":[[119],[120]]},{"type":"LineString","properties":{"source":"naturalearthdata.com","kind":"minor_road","sort_rank":355,"kind_detail":"tertiary","min_zoom":6.0,"id":31927},"arcs":[121]},{"type":"LineString","properties":{"source":"naturalearthdata.com","kind":"highway","kind_detail":"motorway","sort_rank":383,"landuse_kind":"urban_area","min_zoom":3.0,"id":31942},"arcs":[122]},{"type":"LineString","properties":{"source":"naturalearthdata.com","kind":"highway","sort_rank":383,"kind_detail":"motorway","min_zoom":3.0,"id":31942},"arcs":[123]},{"type":"MultiLineString","properties":{"source":"naturalearthdata.com","kind":"minor_road","kind_detail":"tertiary","sort_rank":355,"landuse_kind":"urban_area","min_zoom":6.0,"id":31946},"arcs":[[124],[125]]},{"type":"MultiLineString","properties":{"source":"naturalearthdata.com","kind":"minor_road","sort_rank":355,"kind_detail":"tertiary","min_zoom":6.0,"id":31946},"arcs":[[126],[127]]},{"type":"MultiLineString","properties":{"source":"naturalearthdata.com","kind":"highway","kind_detail":"motorway","sort_rank":383,"landuse_kind":"urban_area","min_zoom":6.0,"id":31949},"arcs":[[128],[129]]},{"type":"LineString","properties":{"source":"naturalearthdata.com","kind":"highway","sort_rank":383,"kind_detail":"motorway","min_zoom":6.0,"id":31949},"arcs":[130]},{"type":"LineString","properties":{"source":"naturalearthdata.com","kind":"minor_road","sort_rank":355,"kind_detail":"tertiary","min_zoom":6.0,"id":31955},"arcs":[131]},{"type":"LineString","properties":{"source":"naturalearthdata.com","kind":"highway","sort_rank":383,"kind_detail":"motorway","min_zoom":3.0,"id":31972},"arcs":[132]},{"type":"LineString","properties":{"source":"naturalearthdata.com","kind":"highway","sort_rank":383,"kind_detail":"motorway","min_zoom":3.0,"id":31974},"arcs":[133]},{"type":"LineString","properties":{"source":"naturalearthdata.com","kind":"major_road","sort_rank":379,"kind_detail":"secondary","min_zoom":4.0,"id":31982},"arcs":[134]},{"type":"LineString","properties":{"source":"naturalearthdata.com","kind":"highway","sort_rank":383,"kind_detail":"motorway","min_zoom":6.0,"id":32050},"arcs":[135]},{"type":"LineString","properties":{"source":"naturalearthdata.com","kind":"highway","sort_rank":383,"kind_detail":"motorway","min_zoom":6.0,"id":32061},"arcs":[136]},{"type":"LineString","properties":{"source":"naturalearthdata.com","kind":"highway","sort_rank":383,"kind_detail":"motorway","min_zoom":5.0,"id":32065},"arcs":[137]},{"type":"LineString","properties":{"source":"naturalearthdata.com","kind":"minor_road","sort_rank":355,"kind_detail":"tertiary","min_zoom":5.0,"id":32066},"arcs":[138]},{"type":"LineString","properties":{"source":"naturalearthdata.com","kind":"highway","kind_detail":"motorway","sort_rank":383,"landuse_kind":"urban_area","min_zoom":3.0,"id":32086},"arcs":[139]},{"type":"LineString","properties":{"source":"naturalearthdata.com","kind":"highway","sort_rank":383,"kind_detail":"motorway","min_zoom":3.0,"id":32086},"arcs":[140]},{"type":"LineString","properties":{"source":"naturalearthdata.com","kind":"highway","kind_detail":"motorway","sort_rank":383,"landuse_kind":"urban_area","min_zoom":6.0,"id":32119},"arcs":[141]},{"type":"LineString","properties":{"source":"naturalearthdata.com","kind":"highway","kind_detail":"motorway","sort_rank":383,"landuse_kind":"urban_area","min_zoom":6.0,"id":32119},"arcs":[142]},{"type":"MultiLineString","properties":{"source":"naturalearthdata.com","kind":"highway","sort_rank":383,"kind_detail":"motorway","min_zoom":6.0,"id":32119},"arcs":[[143],[144]]},{"type":"LineString","properties":{"source":"naturalearthdata.com","kind":"highway","kind_detail":"motorway","sort_rank":383,"landuse_kind":"nature_reserve","min_zoom":6.0,"id":32135},"arcs":[145]},{"type":"MultiLineString","properties":{"source":"naturalearthdata.com","kind":"highway","sort_rank":383,"kind_detail":"motorway","min_zoom":6.0,"id":32135},"arcs":[[146],[147]]},{"type":"LineString","properties":{"source":"naturalearthdata.com","kind":"highway","sort_rank":383,"kind_detail":"motorway","min_zoom":3.0,"id":32146},"arcs":[148]},{"type":"LineString","properties":{"source":"naturalearthdata.com","kind":"highway","sort_rank":383,"kind_detail":"motorway","min_zoom":6.0,"id":32216},"arcs":[149]},{"type":"LineString","properties":{"source":"naturalearthdata.com","kind":"highway","sort_rank":383,"kind_detail":"motorway","min_zoom":3.0,"id":32229},"arcs":[150]},{"type":"LineString","properties":{"source":"naturalearthdata.com","kind":"major_road","sort_rank":379,"kind_detail":"secondary","min_zoom":4.0,"id":32234},"arcs":[151]},{"type":"LineString","properties":{"source":"naturalearthdata.com","kind":"highway","sort_rank":383,"kind_detail":"motorway","min_zoom":3.0,"id":32236},"arcs":[152]},{"type":"LineString","properties":{"source":"naturalearthdata.com","kind":"major_road","sort_rank":379,"kind_detail":"secondary","min_zoom":3.0,"id":32249},"arcs":[153]},{"type":"LineString","properties":{"source":"naturalearthdata.com","kind":"highway","sort_rank":383,"kind_detail":"motorway","min_zoom":3.0,"id":32376},"arcs":[154]},{"type":"LineString","properties":{"source":"naturalearthdata.com","kind":"highway","kind_detail":"motorway","sort_rank":383,"landuse_kind":"urban_area","min_zoom":3.0,"id":32406},"arcs":[155]},{"type":"LineString","properties":{"source":"naturalearthdata.com","kind":"highway","sort_rank":383,"kind_detail":"motorway","min_zoom":3.0,"id":32406},"arcs":[156]},{"type":"LineString","properties":{"source":"naturalearthdata.com","kind":"minor_road","kind_detail":"tertiary","sort_rank":355,"landuse_kind":"urban_area","min_zoom":6.0,"id":32407},"arcs":[157]},{"type":"MultiLineString","properties":{"source":"naturalearthdata.com","kind":"minor_road","sort_rank":355,"kind_detail":"tertiary","min_zoom":6.0,"id":32407},"arcs":[[158],[159]]},{"type":"LineString","properties":{"source":"naturalearthdata.com","kind":"highway","sort_rank":383,"kind_detail":"motorway","min_zoom":3.0,"id":32436},"arcs":[160]},{"type":"LineString","properties":{"source":"naturalearthdata.com","kind":"highway","kind_detail":"motorway","sort_rank":383,"landuse_kind":"urban_area","min_zoom":3.0,"id":32437},"arcs":[161]},{"type":"MultiLineString","properties":{"source":"naturalearthdata.com","kind":"highway","sort_rank":383,"kind_detail":"motorway","min_zoom":3.0,"id":32437},"arcs":[[162],[163]]},{"type":"LineString","properties":{"source":"naturalearthdata.com","kind":"major_road","sort_rank":379,"kind_detail":"secondary","min_zoom":3.0,"id":32449},"arcs":[164]},{"type":"LineString","properties":{"source":"naturalearthdata.com","kind":"minor_road","kind_detail":"tertiary","sort_rank":355,"landuse_kind":"urban_area","min_zoom":5.0,"id":32489},"arcs":[165]},{"type":"LineString","properties":{"source":"naturalearthdata.com","kind":"minor_road","kind_detail":"tertiary","sort_rank":355,"landuse_kind":"urban_area","min_zoom":5.0,"id":32501},"arcs":[166]},{"type":"LineString","properties":{"source":"naturalearthdata.com","kind":"minor_road","sort_rank":355,"kind_detail":"tertiary","min_zoom":5.0,"id":32501},"arcs":[167]},{"type":"LineString","properties":{"source":"naturalearthdata.com","kind":"highway","sort_rank":383,"kind_detail":"motorway","min_zoom":3.0,"id":32505},"arcs":[168]},{"type":"LineString","properties":{"source":"naturalearthdata.com","kind":"highway","kind_detail":"motorway","sort_rank":383,"landuse_kind":"urban_area","min_zoom":4.0,"id":32515},"arcs":[169]},{"type":"LineString","properties":{"source":"naturalearthdata.com","kind":"highway","sort_rank":383,"kind_detail":"motorway","min_zoom":4.0,"id":32515},"arcs":[170]},{"type":"LineString","properties":{"source":"naturalearthdata.com","kind":"highway","sort_rank":383,"kind_detail":"motorway","min_zoom":3.0,"id":32593},"arcs":[171]},{"type":"LineString","properties":{"source":"naturalearthdata.com","kind":"highway","sort_rank":383,"kind_detail":"motorway","min_zoom":3.0,"id":32594},"arcs":[172]},{"type":"LineString","properties":{"source":"naturalearthdata.com","kind":"highway","sort_rank":383,"kind_detail":"motorway","min_zoom":3.0,"id":32625},"arcs":[173]},{"type":"LineString","properties":{"source":"naturalearthdata.com","kind":"highway","kind_detail":"motorway","sort_rank":383,"landuse_kind":"urban_area","min_zoom":4.0,"id":32840},"arcs":[174]},{"type":"LineString","properties":{"source":"naturalearthdata.com","kind":"highway","sort_rank":383,"kind_detail":"motorway","min_zoom":4.0,"id":32840},"arcs":[175]},{"type":"LineString","properties":{"source":"naturalearthdata.com","kind":"highway","sort_rank":383,"kind_detail":"motorway","min_zoom":4.0,"id":32976},"arcs":[176]},{"type":"LineString","properties":{"source":"naturalearthdata.com","kind":"highway","sort_rank":383,"kind_detail":"motorway","min_zoom":6.0,"id":33023},"arcs":[177]},{"type":"LineString","properties":{"source":"naturalearthdata.com","kind":"highway","sort_rank":383,"kind_detail":"motorway","min_zoom":6.0,"id":33109},"arcs":[178]},{"type":"LineString","properties":{"source":"naturalearthdata.com","kind":"highway","sort_rank":383,"kind_detail":"motorway","min_zoom":6.0,"id":48464},"arcs":[179]},{"type":"LineString","properties":{"source":"naturalearthdata.com","kind":"highway","sort_rank":383,"kind_detail":"motorway","min_zoom":6.0,"id":48465},"arcs":[180]}]},"earth":{"type":"GeometryCollection","geometries":[{"type":"MultiPolygon","properties":{"sort_rank":10,"source":"naturalearthdata.com","min_zoom":0.0,"kind":"earth","area":1273365601247},"arcs":[[[181]],[[182]],[[183]],[[184]],[[185]],[[186]],[[187]],[[188]],[[189]],[[190]],[[191]],[[192]],[[193]],[[194]],[[195]],[[196]],[[197]],[[198]],[[199]],[[200]],[[201]],[[202]],[[203]]]}]},"landuse":{"type":"GeometryCollection","geometries":[{"type":"MultiPolygon","properties":{"source":"naturalearthdata.com","kind":"urban_area","name":"","area":16093783331,"sort_rank":11,"min_zoom":4.0},"arcs":[[[204]],[[205]],[[206]],[[207]],[[208]],[[209]],[[210]],[[211]],[[212]],[[213]],[[214]],[[215]],[[216]],[[217]],[[218]]]},{"type":"MultiPolygon","properties":{"source":"openstreetmap.org","kind":"nature_reserve","tier":2,"area":456180579,"sort_rank":23,"min_zoom":6.0},"arcs":[[[219]],[[220]]]}]}},"type":"Topology","transform":{"translate":[50.625,21.9430455334],"scale":[0.001373291,0.001249043]},"arcs":[[[4086,2617],[10,4]],[[4096,2707],[-12,-9],[2,-13],[2,-8],[4,-7],[-7,-8],[-19,-10],[-2,-20],[1,-8],[9,-4],[12,-3]],[[301,2095],[-43,6],[-37,16],[-35,39],[-53,89]],[[430,2148],[-50,-40],[-37,-13],[-42,0]],[[4024,3308],[8,-1],[12,-31],[4,-16],[-2,-15],[-5,-24],[-3,-72],[-5,-11],[-14,-20],[-3,-12],[3,-13],[17,-23],[3,-10],[-5,-10],[-9,-8],[-8,-8],[-1,-14],[4,-35],[4,-10],[1,-1],[3,-1],[17,-4],[6,-5],[8,-16],[5,-6],[11,-3]],[[3970,3297],[17,1],[37,10]],[[4075,2939],[12,2],[9,3]],[[3971,2231],[15,1],[14,4],[7,8],[4,14],[16,19],[12,30],[11,5],[27,3],[13,6],[6,6]],[[3867,2430],[29,-5],[2,0],[20,-13],[8,-23],[6,-36],[3,-17]],[[3803,1816],[-13,1],[-45,10],[-9,4],[-1,12],[6,14],[28,51],[5,12],[2,38],[-1,7],[-6,7],[-15,10],[-4,6],[-3,12],[2,43],[-9,34],[-1,17],[7,11],[11,11],[4,27],[21,19],[-3,15],[-11,25],[-3,8],[-2,15],[3,30],[0,15],[-6,62],[8,24],[22,28],[20,19],[4,3],[25,16],[28,8]],[[3935,2336],[-17,13],[-10,5],[-10,2]],[[3898,2356],[-13,-4],[-2,-10],[5,-12],[27,-24],[22,-55],[22,-18],[10,-2],[2,0]],[[3773,1653],[85,35],[46,11],[8,13],[-27,49],[-8,34],[-12,29],[-22,9]],[[3843,1833],[-40,-17]],[[3741,1669],[19,-15],[13,-1]],[[3705,1662],[11,1],[12,4],[13,2]],[[3657,1667],[24,-1],[24,-4]],[[3322,609],[8,117],[-5,117],[3,23],[22,77],[70,123],[16,49],[15,80],[8,27],[14,21],[27,30],[10,15],[24,100],[7,13],[34,51],[3,11],[-3,60],[-3,23],[-12,18],[-26,16],[-12,11],[-7,15],[3,11],[32,6],[31,12],[14,8],[21,12],[20,8],[21,4]],[[3322,609],[46,-79],[59,-100],[59,-100],[59,-100],[58,-100],[39,-65],[8,-18],[0,-18],[-9,-29]],[[688,1852],[4,-31],[0,-21],[-2,-51],[4,-21],[11,-18],[42,-55],[38,-49],[38,-50],[38,-50],[38,-49],[38,-50],[38,-50],[38,-49],[38,-50],[37,-49],[38,-50],[38,-50],[38,-49],[38,-50],[38,-50],[38,-49],[38,-50],[39,-51],[15,-13],[18,-6],[117,-16],[101,-13],[101,-14],[102,-14],[101,-14],[101,-13],[101,-14],[102,-14],[101,-13],[101,-14],[101,-14],[102,-13],[101,-14],[101,-14],[101,-13],[102,-14],[101,-14],[99,-13]],[[3262,543],[11,2],[49,64]],[[3897,0],[199,45]],[[3969,2231],[0,-32],[96,-126],[31,-104]],[[4096,3422],[-15,0],[-7,-8],[-5,0],[3,12],[2,4],[-8,13],[0,11],[0,5],[-12,-7],[-8,-7],[-17,-36],[-48,-76],[-7,-28],[-4,-8],[-3,-7],[-13,-51],[-16,-34],[-19,-31],[7,2],[6,5],[4,6],[3,8],[5,0],[-3,-15],[-5,-11],[-5,-10],[-7,-8],[-30,-29],[-5,-7],[-1,-15],[-7,-22],[-2,-12],[-3,-3],[-5,1],[-3,5],[8,14],[4,17],[5,7],[-20,-17],[-40,-50],[-26,-21],[-21,-6],[-4,-2],[-3,-5],[-8,-5],[-10,-2],[-6,-1],[-8,-6],[-19,-27],[-25,-9],[-12,-9],[-19,-21],[-6,-12],[-12,-31],[-4,-6],[-16,-3],[-15,-5],[-15,-2],[-11,4],[-4,11],[4,10],[8,10],[6,14],[-12,-5],[-11,-13],[-8,-16],[-3,-14],[-5,-13],[-10,-13],[-4,-10],[9,-4],[-8,-7],[-7,-13],[-10,-30],[-5,5],[-3,-9],[-5,-6],[-4,0],[-3,10],[-5,0],[-23,-32],[-14,-13],[-8,7],[-8,-5],[-5,-8],[0,-10],[3,-10],[-11,0],[-6,-2],[-22,-24],[-4,-7],[2,-6],[15,-27],[5,-18],[-4,-14],[-20,-7],[10,15],[3,11],[-4,11],[-11,15],[-12,2],[-13,-12],[0,-11],[-4,-13],[-74,-95],[-54,-64],[-4,3],[-24,-5],[4,-17],[-20,-12],[-3,-1],[1,1],[1,0],[0,1],[0,1],[0,3],[0,1],[1,3],[1,0],[2,3],[1,2],[1,0],[0,-1],[-1,-4],[-1,0],[1,0],[2,5],[0,2],[1,2],[0,3],[0,5],[0,1],[-1,0],[0,-1],[1,-5],[0,-2],[-1,-3],[0,-1],[0,-1],[-2,1],[1,1],[0,2],[0,3],[0,3],[-1,3],[0,1],[-1,2],[1,1],[3,-2],[2,-1],[1,-1],[0,-1],[0,1],[-1,1],[-2,1],[-3,2],[-2,-1],[-1,2],[1,0],[-2,2],[-4,3],[-2,2],[-3,1],[-3,1],[-4,0],[-4,0],[-1,-3],[1,0],[0,1],[2,0],[2,0],[3,0],[2,-1],[3,-1],[1,-1],[2,-1],[2,-2],[2,-2],[0,-1],[1,1],[1,-2],[-1,0],[0,-1],[1,-1],[1,-2],[0,-4],[0,-3],[-1,-3],[-1,-2],[-1,-3],[-1,0],[1,-1],[-1,-3],[-1,0],[0,-1],[0,-3],[0,-2],[0,-1],[-2,-1],[-2,-1],[-1,0],[0,-1],[-1,1],[1,1],[0,1],[-1,0],[0,1],[-6,11],[-2,2],[-1,0],[0,1],[1,0],[2,0],[2,0],[1,0],[2,-2],[2,-2],[1,0],[1,0],[0,1],[-1,1],[-2,2],[-3,1],[-2,0],[-1,0],[-2,0],[-1,1],[1,0],[1,0],[4,0],[2,0],[2,-1],[2,-1],[1,0],[1,0],[0,1],[-1,0],[-2,2],[-2,0],[-3,0],[-4,0],[-2,0],[-1,0],[0,1],[2,0],[2,1],[3,1],[1,0],[2,-1],[3,0],[2,-1],[0,1],[0,1],[-2,0],[-1,0],[-3,0],[-2,0],[-3,0],[-2,-1],[-2,0],[-1,0],[1,0],[2,2],[2,1],[2,1],[3,0],[3,-1],[1,0],[2,0],[0,1],[-3,1],[-3,0],[-3,0],[-2,-1],[-2,-1],[-3,-2],[-1,0],[0,1],[3,2],[3,2],[3,2],[2,0],[3,0],[1,0],[0,1],[-1,0],[-2,0],[-4,-1],[-3,-1],[-3,-2],[-2,-2],[0,-1],[-1,1],[1,1],[2,2],[1,2],[2,1],[3,2],[2,0],[1,0],[0,1],[0,1],[-2,-1],[-2,-1],[-4,-2],[-2,-2],[-2,-2],[-1,0],[1,0],[0,2],[1,2],[1,1],[2,2],[1,1],[1,1],[0,1],[-1,0],[-1,-1],[-3,-3],[-1,-1],[-1,-3],[-1,-1],[0,1],[0,1],[1,4],[2,2],[0,1],[-1,0],[-1,-2],[-1,-2],[-1,-2],[0,-1],[-1,0],[0,1],[1,5],[-1,0],[0,-5],[-1,0],[-1,0],[-2,2],[-1,0],[-1,-1],[1,0],[3,-1],[1,-1],[0,-1],[-1,1],[-2,0],[-2,0],[-2,0],[0,-1],[1,0],[3,0],[2,-1],[2,0],[0,-1],[-1,0],[-1,0],[-2,0],[-3,0],[-4,-1],[0,-1],[0,-1],[1,0],[0,1],[2,1],[3,0],[3,0],[2,0],[0,-1],[1,0],[0,-1],[-1,0],[-1,0],[-2,0],[-3,-1],[-3,-1],[-3,-2],[-1,-1],[0,-1],[1,0],[1,1],[2,2],[1,0],[3,2],[3,0],[2,1],[1,0],[0,-1],[1,0],[-1,0],[-1,-1],[-3,0],[-2,-1],[-2,-2],[-3,-2],[-1,-2],[-1,-1],[0,-1],[1,0],[1,1],[1,2],[2,2],[1,1],[2,1],[3,1],[3,1],[0,-1],[-2,-1],[-2,-1],[-1,-1],[-3,-2],[-1,-3],[-2,-3],[0,-1],[1,0],[1,1],[0,2],[1,2],[2,2],[2,2],[2,1],[2,1],[1,0],[0,-1],[-1,0],[-2,-2],[-2,-2],[-2,-2],[-1,-2],[-1,-4],[1,0],[0,-1],[1,1],[0,1],[0,2],[2,3],[1,2],[3,3],[1,0],[1,1],[0,-1],[-1,-1],[-1,-2],[-2,-3],[-1,-3],[-1,-3],[0,-1],[1,0],[1,2],[0,2],[1,3],[1,3],[2,2],[1,0],[0,-1],[-1,0],[-1,-3],[-1,-2],[0,-4],[0,-2],[0,-1],[1,0],[0,1],[0,1],[0,4],[0,2],[1,2],[1,2],[1,0],[1,-1],[-1,0],[0,-1],[6,-11],[1,-2],[0,-1],[1,0],[1,0],[0,-1],[0,-1],[-1,-1],[-3,-1],[-1,-1],[-2,0],[-1,0],[-1,1],[-1,2],[-1,0],[0,-1],[-1,0],[0,1],[-2,0],[0,1],[0,1],[-1,1],[0,-1],[-2,0],[-3,1],[-3,0],[-2,1],[-3,2],[-1,1],[-1,2],[-1,1],[1,1],[-1,0],[-1,-1],[-1,2],[1,1],[-1,1],[0,1],[0,4],[0,2],[0,1],[0,2],[1,2],[1,3],[2,3],[0,1],[0,1],[2,2],[1,1],[1,0],[2,1],[1,0],[1,1],[2,2],[2,1],[1,0],[1,1],[1,0],[0,1],[2,0],[1,2],[-1,0],[-1,0],[-4,0],[-2,0],[-2,-1],[-3,-1],[-2,-2],[-1,-1],[-1,-3],[-1,-1],[-2,-2],[-2,-3],[-1,-3],[-1,-2],[-1,-3],[0,-3],[0,-3],[0,-2],[1,-2],[1,-3],[0,1],[1,-2],[-2,-1],[-1,-7],[1,-1],[0,1],[0,6],[0,1],[1,0],[1,0],[0,-1],[1,-1],[2,-2],[2,-2],[2,-1],[2,-1],[2,-1],[1,0],[0,-1],[-1,0],[-3,1],[-2,1],[-4,2],[-1,1],[0,1],[-1,-1],[1,0],[1,-1],[4,-3],[2,-1],[3,-1],[2,0],[1,-1],[2,0],[1,0],[0,1],[-1,0],[-1,0],[-2,0],[-1,0],[0,1],[1,1],[2,-1],[1,0],[1,0],[2,0],[2,0],[0,-1],[1,-1],[1,-1],[0,-1],[-18,-6],[-15,-9],[-22,-21],[-36,-26],[-79,-46],[10,-13],[-4,-11],[-10,-7],[-11,-2],[-1,1],[-23,10],[-4,-4],[-3,-8],[-4,-5],[-28,-19],[-7,-8],[-2,-13],[6,-5],[5,-4],[-4,-6],[3,-10],[3,-10],[3,-8],[6,-5],[0,-5],[-14,-6],[-4,-11],[-2,-11],[-7,-5],[-13,-3],[-3,-6],[6,-7],[12,-6],[-27,-55],[-4,-2],[-6,-11],[-3,-3],[-6,0],[-16,5],[-8,1],[11,-9],[4,-3],[-17,-2],[-18,13],[-14,22],[-6,22],[-5,0],[-9,-12],[-3,-8],[2,-8],[-6,6],[-2,6],[-1,5],[-8,-8],[-9,-6],[-9,-3],[0,-5],[17,-4],[43,-29],[20,-4],[19,-1],[14,-6],[2,-21],[-5,0],[-7,8],[-10,5],[-12,3],[-11,6],[3,-10],[12,-14],[5,-10],[-11,2],[-17,9],[-12,1],[0,-6],[3,-1],[7,-5],[-12,-6],[-2,-9],[4,-20],[-29,-58],[-13,-19],[-27,-21],[-6,-9],[-29,12],[-14,1],[-6,-10],[-7,-2],[-38,-28],[-48,-14],[-7,-6],[-6,-12],[-12,-13],[-13,-10],[-9,-6],[-8,-3],[-22,-3],[-19,-9],[-16,-3],[-14,-7],[-46,-8],[-45,-24],[-8,-7],[-18,-3],[-88,1],[-8,2],[-7,3],[-7,1],[-6,-3],[-5,-3],[-22,-11],[-6,1],[-7,4],[-7,1],[-13,-6],[-8,-1],[-8,0],[-6,1],[-5,4],[-10,15],[-3,3],[-6,2],[-8,4],[-13,10],[-9,-4],[-11,-1],[-10,3],[-8,5],[-10,11],[-6,5],[-6,0],[-94,-20],[-40,3],[-6,4],[-10,17],[-12,13],[-17,14],[-19,9],[-17,-3],[2,-11],[1,-9],[2,-7],[10,-6],[-12,-3],[-14,7],[-15,6],[-29,-13],[-13,7],[-21,18],[-2,1],[-2,4],[-3,3],[-3,3],[-5,-1],[-1,-3],[-1,-4],[-3,-3],[-26,-10],[-7,-2],[-62,6],[-5,1],[-5,3],[-7,2],[-8,0],[-8,-3],[-16,-7],[-9,-2],[-16,2],[-29,9],[-17,1],[-6,-3],[-3,-4],[-3,-2],[-8,3],[-26,36],[-11,11],[-14,5],[-14,-9],[-2,-9],[0,-15],[-2,-13],[-8,-6],[-10,-3],[-13,-8],[-13,-9],[-9,-10],[-11,-9],[-22,-9],[-4,-9],[-5,-9],[-12,-8],[-14,-6],[-12,-2],[-10,-4],[-10,-8],[-9,-9],[-8,-7],[-10,-3],[-23,0],[-13,-2],[-27,-17],[-12,-5],[-14,-1],[-13,1],[-12,0],[-12,-6],[-7,4],[-7,-4],[-13,4],[-31,-6],[-6,0],[-22,11],[-9,8],[-5,2],[-5,-2],[-42,3],[-16,-3],[2,-8],[4,-7],[-2,-3],[-6,0],[-6,4],[-13,12],[-6,4],[-9,3],[-35,1],[-18,4],[-7,15],[-1,7],[-7,17],[-2,8],[1,27],[-1,9],[-9,39],[-1,19],[8,51],[-2,18],[-15,22],[-14,-10],[-14,-34],[3,-2],[-1,-4],[-4,-4],[-6,-1],[-7,0],[-3,2],[-5,9],[-7,25],[-5,9],[-7,-36],[-11,-11],[-10,6],[-5,29],[0,46],[-3,16],[-15,22],[-7,14],[-14,-16],[13,-29],[-1,-35],[-15,-23],[-32,10],[-21,24],[-13,10],[-48,10],[-11,-2],[-7,-4],[-6,-5],[-9,-6],[-17,-4],[-45,4],[-3,4],[-1,9],[1,17],[1,3],[4,1],[8,-1],[2,2],[1,5],[-1,5],[0,5],[2,7],[2,18],[1,8],[4,7],[9,13],[2,4],[7,9],[43,32],[3,6],[4,10],[3,7],[17,18],[3,0],[5,13],[13,7],[15,5],[12,5],[0,6],[-11,7],[-11,0],[-9,2],[-4,10],[-5,10],[-11,3],[-13,1],[-11,5],[0,-18],[-5,-9],[-10,-7],[-10,-10],[-20,-35],[-10,-8],[-13,-4],[-4,4],[2,27],[-2,2],[-3,7],[-2,9],[5,4],[4,2],[3,6],[1,8],[-1,6],[-8,-7],[-6,5],[-6,8],[-7,5],[-37,-6],[-2,7],[0,1],[-2,5],[6,9],[12,4],[12,2],[10,3],[8,6],[4,-1],[1,-14],[26,3],[13,-2],[6,-9],[-4,-16],[-7,-13],[-2,-11],[8,-12],[7,11],[10,10],[9,13],[4,18],[6,6],[29,18],[10,12],[5,34],[4,15],[9,6],[3,9],[1,4],[19,73],[4,7],[5,3],[6,2],[6,3],[8,19],[25,29],[9,15],[12,49],[6,6],[-4,10],[8,82],[-1,66],[-3,15],[-2,14],[-7,16],[-6,7],[-43,6],[-9,4],[-4,9],[-1,18],[3,42],[2,35],[-2,11],[-4,11],[-27,46],[-1,8],[4,8],[6,7],[4,7],[0,1],[2,12],[-2,42],[5,-1],[5,-4],[10,6],[12,3],[10,7],[3,17],[-5,8],[-8,8],[-11,7],[-11,5],[25,13],[10,3],[3,-21],[14,6],[10,18],[-12,19],[-3,-6],[-4,-5],[-7,-1],[-6,6],[-1,8],[2,9],[6,8],[5,3],[7,-2],[4,-12],[4,-3],[6,4],[2,9],[0,11],[-12,88],[-6,14],[-8,12],[-9,10],[-12,9],[-13,7],[-15,5],[-17,1],[-32,-2],[-6,1],[-9,1],[-11,11],[-4,15],[0,16],[-5,13],[-13,6],[-8,7],[-1,18],[2,20],[-1,15],[-12,13],[-58,31],[-26,-16],[-15,-5],[-14,5],[-4,-12],[-17,-17],[-4,-13],[-6,-4],[-31,-12],[-11,-3],[-20,-8],[-15,-21],[-16,-48],[-5,0],[-2,4],[-2,3],[-6,4],[-2,-36],[-3,-16],[-19,-46],[-2,-17],[11,-11],[5,5],[4,-13],[-3,-13],[-6,-11],[-11,-7],[0,10],[-3,9],[-4,7],[-5,2],[-7,-4],[-2,-9],[-3,-6],[-11,3],[0,-25],[1,-3],[4,-5],[1,-3],[-2,-4],[-7,-6],[-1,-4],[-6,-37],[1,-12],[11,-21],[15,-6],[19,3],[20,8],[-6,-10],[-10,-23],[-5,-6],[-10,0],[-6,6],[-5,2],[-8,-8],[-3,-9],[-1,-19],[-3,-18],[1,-4],[-2,-2],[-7,-3],[-5,5],[-4,4],[-6,15],[0,6],[0,17],[5,22],[1,13],[-4,6],[-5,2],[-5,7],[-5,2],[-3,-2],[-4,-13],[-3,-4],[-9,-5],[-11,-2],[-9,-2],[-8,-11],[8,-4],[16,-3],[6,-3],[4,-10],[0,-10],[-3,-10],[-1,-9],[1,-14],[2,-14],[12,-32],[-20,3],[0,16],[-6,6],[-2,15],[-9,10],[-14,-3],[-19,-26],[9,-9],[-1,-16],[-8,-35],[10,-60],[1,-17],[-6,-43],[1,-17],[3,-18],[1,-17],[-5,-14],[6,-19],[1,-30],[6,-27],[19,-12],[5,-6],[1,-15],[-2,-15],[-8,-23],[2,-12],[32,-58],[6,-20],[6,-76],[-5,-21],[-19,-17],[-14,-1],[-16,-16],[-10,0],[-8,7],[-8,14],[-6,14],[-3,9],[-2,49],[-6,31],[-15,13],[-18,12],[-14,53],[-13,12],[-8,14],[-6,7],[0,875],[7,2],[1,15],[7,9],[-9,1],[-5,19],[-1,2],[0,56],[6,-1],[11,-2],[4,-12],[3,-11],[11,-7],[4,5],[4,11],[-9,4],[-11,16],[0,12],[-1,12],[-16,8],[-6,-2],[0,620],[1872,0],[158,-52],[23,-15],[12,-15],[6,-16],[2,-38],[4,-15],[10,-13],[71,-52],[55,-32],[38,-33],[9,-3],[17,9],[18,-1],[32,-10],[16,0],[30,8],[33,5],[48,22],[15,3],[8,0],[6,-3],[14,-11],[8,-3],[12,-2],[50,-14],[15,-2],[56,4],[14,4],[14,2],[16,-3],[22,-17],[13,-24],[11,-26],[13,-20],[27,-13],[66,2],[32,-6],[22,-20],[9,-23],[12,-18],[32,-5],[63,6],[8,-2],[12,-7],[10,-2],[7,2],[6,4],[4,6],[5,4],[79,46],[70,56],[8,5],[48,42],[11,5],[32,9],[14,1],[18,5],[7,10],[4,14],[8,16],[28,13],[33,-5],[59,-20],[33,-2],[30,7],[28,13],[24,21],[10,16],[8,23],[5,24],[-3,19],[-5,-5],[-5,-2],[-10,-3],[39,43],[8,6],[9,5],[25,22],[13,6],[8,0],[23,-5],[27,0],[6,1],[11,8],[8,1],[24,0],[8,0],[30,8],[33,3],[8,3],[13,11],[4,3],[0,3],[11,9],[198,0],[0,-54],[-13,6],[-14,3],[-29,0],[-96,-22],[-77,-49],[-28,-6],[-101,38],[-19,-11],[5,-6],[12,-9],[13,-12],[5,-14],[4,-35],[-3,-16],[-11,-12],[3,-6],[3,-5],[-8,-2],[-7,-7],[-5,-2],[-8,-1],[-15,2],[-7,-1],[-48,-18],[-14,-12],[-34,-20],[-3,-1],[-9,-4],[-14,-1],[-97,-31],[-39,-22],[-2,1],[-5,1],[-8,-3],[-34,12],[-8,-9],[8,-25],[3,-4],[-1,-9],[-5,-14],[4,-20],[3,-9],[3,-2],[3,-2],[7,1],[9,3],[8,4],[3,6],[3,7],[7,0],[9,-3],[4,-1],[2,0],[7,2],[13,9],[32,8],[45,5],[13,7],[25,18],[40,17],[39,28],[16,7],[15,3],[33,-5],[15,0],[14,8],[13,11],[49,25],[19,-15],[16,-15],[16,-8],[22,13],[36,34],[6,4],[6,7],[28,14],[6,6],[5,11],[30,30],[8,14],[17,36],[16,14],[41,11],[0,-577]],[[2493,3643],[1,5],[2,5],[-1,5],[-1,5],[-1,1],[-4,3],[-5,3],[0,5],[-1,1],[1,7],[0,1],[-1,1],[-1,4],[-11,4],[-27,3],[-12,4],[-14,0],[-13,-4],[-11,-7],[-7,-12],[15,-23],[23,-12],[6,0],[53,-3],[9,4]],[[3807,3745],[12,-6],[15,8],[10,18],[-1,19],[-6,8],[-7,-1],[-12,-9],[-9,-18],[-2,-19]],[[2195,3800],[-7,1],[-15,0],[-6,-9],[7,-10],[13,-6],[13,-2],[9,10],[-5,12],[-9,4]],[[1947,3881],[13,8],[9,2],[28,-3],[11,3],[-6,5],[-10,9],[-17,7],[-54,3],[-62,19],[-7,0],[-6,-2],[-5,-2],[-3,-3],[7,-8],[23,-18],[9,-7],[2,0],[13,-6],[41,-7],[14,0]],[[2813,3479],[2,-8],[1,-10],[4,-5],[8,-4],[9,-3],[4,1],[15,31],[-2,5],[-4,4],[-4,4],[-5,2],[-7,8],[-7,1],[-6,-3],[-5,-6],[-3,-9],[0,-8]],[[3397,3452],[4,-4],[5,-1],[8,0],[7,4],[-1,3],[1,5],[-2,12],[-8,4],[-9,-6],[-5,-2],[-3,-7],[3,-8]],[[110,3050],[3,-6],[8,3],[-1,5],[-5,1],[-5,-3]],[[121,3029],[-6,-5],[-6,1],[-4,-4],[-10,-12],[-7,-11],[-3,-11],[-1,-9],[-1,-8],[7,-7],[0,-11],[0,-7],[-5,-13],[-3,-8],[6,-8],[8,-4],[2,2],[-2,5],[4,7],[4,7],[5,5],[-4,4],[-4,3],[1,7],[3,5],[5,2],[-1,5],[-6,7],[-3,11],[3,3],[6,6],[4,3],[9,-2],[2,4],[-5,6],[-4,3],[6,8],[5,8],[2,7],[0,5],[-7,-4]],[[130,2984],[4,-5],[6,4],[2,8],[-11,0],[-2,-3],[1,-4]],[[117,2959],[4,-7],[3,2],[5,1],[4,-1],[3,-1],[3,4],[1,6],[-4,4],[-9,2],[-4,0],[-5,1],[-1,-4],[2,-3],[-2,-4]],[[2843,3165],[10,-3],[7,6],[-1,14],[-3,7],[-18,-5],[-9,-5],[3,-9],[11,-5]],[[3200,3141],[-1,-5],[4,2],[7,-6],[4,2],[6,1],[5,5],[-3,9],[-1,8],[-3,5],[-13,-3],[-10,-6],[2,-8],[3,-4]],[[3285,2597],[-2,3],[-1,3],[-1,4],[-1,2],[0,3],[1,4],[1,2],[0,2],[0,3],[1,3],[1,2],[1,2],[0,1],[1,2],[1,2],[1,2],[1,1],[0,2],[1,1],[0,2],[1,1],[1,1],[1,0],[0,1],[-1,0],[0,-1],[-1,0],[-1,-1],[0,-1],[-1,-2],[-1,-3],[0,-1],[-1,-2],[-2,-2],[0,-1],[-1,-2],[0,-2],[-1,-2],[-1,-3],[-1,-3],[0,-2],[-1,-2],[0,-4],[0,-2],[0,-3],[2,-4],[2,-5],[1,-2],[1,0],[-1,1]],[[2626,2642],[-15,5],[-9,-14],[12,-14],[9,0],[9,-5],[-6,28]],[[3289,2601],[1,0],[1,0],[1,1],[0,1],[-1,0],[-1,-1],[-1,1],[0,1],[1,0],[0,1],[0,1],[0,1],[1,0],[0,1],[1,1],[-1,0],[0,1],[-1,0],[-1,1],[0,1],[0,1],[0,1],[0,1],[-1,1],[1,1],[1,0],[0,1],[-2,0],[0,1],[0,1],[0,1],[1,1],[0,1],[-1,0],[-1,0],[0,-1],[0,-1],[-1,-1],[0,-1],[1,-1],[-1,-1],[0,-1],[0,-1],[1,-1],[0,-1],[-1,-2],[0,-1],[0,-1],[0,-1],[1,0],[0,1],[1,-1],[0,1],[0,1],[1,0],[0,-1],[0,-1],[-1,-1],[-1,1],[0,-1],[1,0],[0,-1],[0,-1],[-1,0],[-1,0],[0,-1],[1,0],[-1,0],[0,-1],[1,0],[1,0],[0,-1],[0,-1],[1,0]],[[1643,2558],[4,-3],[-1,13],[-8,8],[0,-15],[5,-3]],[[3285,2555],[-2,0],[-2,-1],[-2,-2],[-2,-1],[-1,-2],[-2,-1],[-2,-3],[-1,-2],[-1,-2],[-1,-3],[0,-3],[0,-4],[0,-2],[1,-2],[1,-1],[1,-1],[0,1],[0,1],[0,1],[-1,2],[0,2],[0,3],[0,2],[0,2],[1,2],[1,2],[2,3],[2,2],[3,2],[1,1],[1,0],[1,0],[1,1],[1,1],[1,0],[1,1],[2,0],[3,0],[2,-1],[2,0],[1,-1],[1,1],[-1,1],[-2,1],[-2,0],[-1,0],[-2,1],[-3,0],[-2,-1]],[[3292,2538],[2,0],[3,0],[1,0],[0,1],[-1,0],[-4,0],[-1,0],[-2,-1],[-1,-1],[-1,0],[0,1],[1,0],[3,2],[2,0],[2,1],[2,0],[0,1],[-1,0],[-1,0],[-2,-1],[-3,0],[-2,-2],[-1,-1],[-1,0],[2,2],[2,2],[2,1],[2,1],[2,0],[0,1],[0,1],[-3,-1],[-2,-1],[-2,-2],[-2,-1],[-1,-2],[-1,0],[2,3],[1,1],[2,2],[3,2],[1,0],[1,0],[0,1],[-2,0],[-1,-1],[-2,-1],[-2,-2],[-2,-1],[-1,-2],[0,-2],[-1,0],[0,1],[1,1],[0,2],[2,3],[1,1],[1,2],[2,0],[0,1],[0,1],[-1,-1],[-1,-1],[-2,-2],[-1,-2],[-1,-1],[-1,-2],[0,-1],[0,-1],[-1,0],[0,1],[1,2],[0,2],[1,2],[1,2],[1,1],[-1,1],[0,-1],[-1,0],[-1,-2],[-1,-2],[0,-2],[0,-2],[-1,-1],[0,5],[0,2],[0,1],[-1,0],[0,-1],[0,-2],[0,-2],[0,-1],[0,-1],[0,1],[-1,1],[0,1],[0,1],[0,1],[-1,0],[0,-1],[0,-1],[-1,0],[-1,0],[0,-1],[0,-1],[-1,0],[-1,-1],[1,0],[1,-1],[1,1],[1,0],[1,0],[0,-1],[-2,0],[-1,0],[-2,-1],[-1,-1],[2,0],[1,1],[2,0],[2,0],[0,-1],[-2,0],[-3,-1],[-3,-2],[0,-1],[0,-1],[1,0],[1,1],[2,2],[2,1],[2,1],[1,0],[1,0],[-1,0],[-1,-1],[-2,-1],[-2,-2],[-2,-2],[-1,-2],[-1,-1],[0,-1],[1,0],[1,0],[0,2],[1,2],[2,1],[1,2],[2,2],[2,0],[0,1],[1,-1],[-1,0],[-3,-3],[-1,-2],[-1,-1],[-1,-2],[0,-2],[-1,-1],[1,-1],[1,1],[0,1],[0,1],[1,2],[0,2],[2,2],[3,2],[0,1],[1,-1],[-1,0],[-1,-1],[-1,-2],[-1,-2],[-1,-2],[0,-2],[0,-2],[0,-1],[0,1],[1,2],[0,2],[1,2],[1,3],[1,1],[1,1],[0,-1],[-1,-2],[-1,-3],[0,-3],[0,-2],[1,0],[0,3],[0,1],[0,2],[1,3],[1,1],[0,-1],[0,-2],[-1,-3],[1,-2],[0,-2],[1,0],[0,1],[0,1],[-1,2],[0,2],[1,2],[0,2],[0,-1],[0,-1],[1,0],[0,-1],[1,0],[-2,-2],[0,-1],[1,0],[1,0],[1,0],[1,0],[1,-1],[5,-4],[1,0],[1,0],[1,1],[0,1],[0,1],[-2,2],[-2,2],[0,1],[1,0],[1,0],[0,1],[-1,0],[-1,0],[0,-1],[-1,-1],[-1,1],[-1,1],[0,1],[0,1],[0,1],[-1,-1],[0,-1],[-1,0],[-1,1],[-1,0],[-1,0],[0,1],[1,0],[2,1]],[[3274,2525],[-1,0],[0,-1],[0,-1],[1,-1],[2,0],[1,-1],[2,0],[2,-1],[3,0],[2,1],[3,0],[0,1],[1,0],[0,1],[-1,0],[0,-1],[-1,0],[0,1],[-1,0],[-3,-1],[-2,0],[-2,0],[-2,1],[-1,0],[-1,1],[-1,0],[-1,1]],[[3232,2482],[-8,-5],[7,4],[1,-2],[-12,-10],[-3,2],[6,5],[-7,-5],[4,-5],[14,9],[-2,7]],[[1783,2335],[4,-5],[3,16],[-3,14],[-13,2],[-2,-6],[3,-10],[6,-8],[2,-3]],[[792,2121],[4,-4],[0,3],[1,1],[-1,1],[1,0],[1,0],[1,1],[0,-3],[0,-3],[3,1],[-2,-5],[1,-11],[4,-3],[2,6],[3,7],[0,3],[2,5],[-3,7],[-9,6],[-3,0],[-6,-4],[1,-8]],[[1219,2033],[11,-5],[9,4],[9,16],[-5,19],[-16,12],[-8,-5],[-6,-10],[-6,-9],[0,-10],[5,-5],[4,-2],[3,-5]],[[2731,2050],[-30,-28],[0,-12],[35,-11],[35,-12],[19,-3],[10,3],[0,9],[-14,14],[-27,14],[-13,10],[-5,14],[5,17],[-5,0],[-10,-15]],[[2020,1968],[-27,-40],[4,-8],[1,-9],[-2,-9],[-6,-3],[-7,4],[-7,13],[-7,0],[-13,-6],[-24,-10],[-4,-3],[-4,-3],[-18,-9],[-8,-2],[-27,6],[-2,-2],[-3,-5],[-2,-5],[-1,-5],[2,-4],[2,0],[3,1],[15,3],[10,-2],[28,-4],[7,12],[14,-7],[10,-1],[10,-13],[7,12],[0,9],[10,8],[18,2],[13,9],[29,13],[9,10],[5,31],[-17,9],[-1,5],[-3,8],[-1,4],[-13,-9]],[[2673,1947],[10,-8],[2,-4],[-1,-4],[-3,2],[-7,4],[-8,2],[-5,0],[2,-6],[20,-35],[12,6],[7,23],[0,11],[-7,7],[-15,11],[-10,-1],[3,-8]],[[2627,1933],[-11,0],[-10,-3],[-9,-6],[-5,-7],[-4,-13],[3,-5],[7,-3],[9,-7],[12,-14],[5,-3],[8,0],[6,2],[7,3],[7,6],[5,6],[-17,19],[-7,12],[-6,13]],[[2561,1905],[-4,4],[-15,-7],[-10,-17],[8,-21],[15,-9],[19,-5],[15,-7],[8,-14],[5,20],[-7,20],[-9,10],[-19,21],[-6,5]],[[2351,1857],[-4,10],[-6,-9],[-8,-4],[-20,-9],[-18,-14],[-5,-2],[-3,1],[-2,0],[-11,5],[-6,0],[-9,-3],[-3,-1],[-5,-3],[-4,-3],[-14,-13],[-8,-4],[-18,-6],[-1,-1],[-8,-5],[-11,-12],[0,-6],[8,-3],[13,-1],[20,-2],[7,-2],[13,-7],[21,-9],[25,-3],[23,5],[20,13],[-5,5],[7,15],[9,-3],[6,-10],[-2,-7],[22,-9],[26,-1],[22,8],[10,18],[-7,23],[-16,6],[-5,2],[-25,5],[-3,2],[-18,12],[-4,3],[-7,13],[3,4],[1,2]],[[1014,1823],[5,12],[-1,3],[1,3],[1,3],[-7,9],[-8,-4],[-5,-12],[0,-9],[-3,-6],[3,-2],[5,-2],[2,-2],[7,7]],[[1423,1860],[9,-10],[12,12],[14,12],[16,21],[1,12],[-4,21],[-8,12],[-17,6],[-17,-11],[-9,-13],[-12,-14],[-2,-15],[9,-20],[8,-13]],[[1872,4096],[158,-52],[23,-15],[12,-15],[6,-16],[2,-38],[4,-15],[10,-13],[71,-52],[55,-32],[38,-33],[9,-3],[17,9],[18,-1],[32,-10],[16,0],[30,8],[33,5],[48,22],[15,3],[8,0],[6,-3],[14,-11],[8,-3],[12,-2],[50,-14],[15,-2],[56,4],[14,4],[14,2],[16,-3],[22,-17],[13,-24],[11,-26],[13,-20],[27,-13],[66,2],[32,-6],[22,-20],[9,-23],[12,-18],[32,-5],[63,6],[8,-2],[12,-7],[10,-2],[7,2],[6,4],[4,6],[5,4],[79,46],[70,56],[8,5],[48,42],[11,5],[32,9],[14,1],[18,5],[7,10],[4,14],[8,16],[28,13],[33,-5],[59,-20],[33,-2],[30,7],[28,13],[24,21],[10,16],[8,23],[5,24],[-3,19],[-5,-5],[-5,-2],[-10,-3],[39,43],[8,6],[9,5],[25,22],[13,6],[8,0],[23,-5],[27,0],[6,1],[11,8],[8,1],[24,0],[8,0],[30,8],[33,3],[8,3],[13,11],[4,3],[0,3],[11,9]],[[4096,3422],[-15,0],[-7,-8],[-5,0],[3,12],[2,4],[-8,13],[0,11],[0,5],[-12,-7],[-8,-7],[-17,-36],[-48,-76],[-7,-28],[-4,-8],[-3,-7],[-13,-51],[-16,-34],[-19,-31],[7,2],[6,5],[4,6],[3,8],[5,0],[-3,-15],[-5,-11],[-5,-10],[-7,-8],[-30,-29],[-5,-7],[-1,-15],[-7,-22],[-2,-12],[-3,-3],[-5,1],[-3,5],[8,14],[4,17],[5,7],[-20,-17],[-40,-50],[-26,-21],[-21,-6],[-4,-2],[-3,-5],[-8,-5],[-10,-2],[-6,-1],[-8,-6],[-19,-27],[-25,-9],[-12,-9],[-19,-21],[-6,-12],[-12,-31],[-4,-6],[-16,-3],[-15,-5],[-15,-2],[-11,4],[-4,11],[4,10],[8,10],[6,14],[-12,-5],[-11,-13],[-8,-16],[-3,-14],[-5,-13],[-10,-13],[-4,-10],[9,-4],[-8,-7],[-7,-13],[-10,-30],[-5,5],[-3,-9],[-5,-6],[-4,0],[-3,10],[-5,0],[-23,-32],[-14,-13],[-8,7],[-8,-5],[-5,-8],[0,-10],[3,-10],[-11,0],[-6,-2],[-22,-24],[-4,-7],[2,-6],[15,-27],[5,-18],[-4,-14],[-20,-7],[10,15],[3,11],[-4,11],[-11,15],[-12,2],[-13,-12],[0,-11],[-4,-13],[-74,-95],[-54,-64],[-4,3],[-24,-5],[4,-17],[-20,-12],[-3,-1],[-2,-1],[-1,-1],[-2,-1],[-4,-3],[-2,0],[-3,-1],[-3,-1],[-1,-1],[-18,-6],[-15,-9],[-22,-21],[-36,-26],[-79,-46],[10,-13],[-4,-11],[-10,-7],[-11,-2],[-1,1],[-23,10],[-4,-4],[-3,-8],[-4,-5],[-28,-19],[-7,-8],[-2,-13],[6,-5],[5,-4],[-4,-6],[3,-10],[3,-10],[3,-8],[6,-5],[0,-5],[-14,-6],[-4,-11],[-2,-11],[-7,-5],[-13,-3],[-3,-6],[6,-7],[12,-6],[-27,-55],[-4,-2],[-6,-11],[-3,-3],[-6,0],[-16,5],[-8,1],[11,-9],[4,-3],[-17,-2],[-18,13],[-14,22],[-6,22],[-5,0],[-9,-12],[-3,-8],[2,-8],[-6,6],[-2,6],[-1,5],[-8,-8],[-9,-6],[-9,-3],[0,-5],[17,-4],[43,-29],[20,-4],[19,-1],[14,-6],[2,-21],[-5,0],[-7,8],[-10,5],[-12,3],[-11,6],[3,-10],[12,-14],[5,-10],[-11,2],[-17,9],[-12,1],[0,-6],[3,-1],[7,-5],[-12,-6],[-2,-9],[4,-20],[-29,-58],[-13,-19],[-27,-21],[-6,-9],[-29,12],[-14,1],[-6,-10],[-7,-2],[-38,-28],[-48,-14],[-7,-6],[-6,-12],[-12,-13],[-13,-10],[-9,-6],[-8,-3],[-22,-3],[-19,-9],[-16,-3],[-14,-7],[-46,-8],[-45,-24],[-8,-7],[-18,-3],[-88,1],[-8,2],[-7,3],[-7,1],[-6,-3],[-5,-3],[-22,-11],[-6,1],[-7,4],[-7,1],[-13,-6],[-8,-1],[-8,0],[-6,1],[-5,4],[-10,15],[-3,3],[-6,2],[-8,4],[-13,10],[-9,-4],[-11,-1],[-10,3],[-8,5],[-10,11],[-6,5],[-6,0],[-94,-20],[-40,3],[-6,4],[-10,17],[-12,13],[-17,14],[-19,9],[-17,-3],[2,-11],[1,-9],[2,-7],[10,-6],[-12,-3],[-14,7],[-15,6],[-29,-13],[-13,7],[-21,18],[-2,1],[-2,4],[-3,3],[-3,3],[-5,-1],[-1,-3],[-1,-4],[-3,-3],[-26,-10],[-7,-2],[-62,6],[-5,1],[-5,3],[-7,2],[-8,0],[-8,-3],[-16,-7],[-9,-2],[-16,2],[-29,9],[-17,1],[-6,-3],[-3,-4],[-3,-2],[-8,3],[-26,36],[-11,11],[-14,5],[-14,-9],[-2,-9],[0,-15],[-2,-13],[-8,-6],[-10,-3],[-13,-8],[-13,-9],[-9,-10],[-11,-9],[-22,-9],[-4,-9],[-5,-9],[-12,-8],[-14,-6],[-12,-2],[-10,-4],[-10,-8],[-9,-9],[-8,-7],[-10,-3],[-23,0],[-13,-2],[-27,-17],[-12,-5],[-14,-1],[-13,1],[-12,0],[-12,-6],[-7,4],[-7,-4],[-13,4],[-31,-6],[-6,0],[-22,11],[-9,8],[-5,2],[-5,-2],[-42,3],[-16,-3],[2,-8],[4,-7],[-2,-3],[-6,0],[-6,4],[-13,12],[-6,4],[-9,3],[-35,1],[-18,4],[-7,15],[-1,7],[-7,17],[-2,8],[1,27],[-1,9],[-9,39],[-1,19],[8,51],[-2,18],[-15,22],[-14,-10],[-14,-34],[3,-2],[-1,-4],[-4,-4],[-6,-1],[-7,0],[-3,2],[-5,9],[-7,25],[-5,9],[-7,-36],[-11,-11],[-10,6],[-5,29],[0,46],[-3,16],[-15,22],[-7,14],[-14,-16],[13,-29],[-1,-35],[-15,-23],[-32,10],[-21,24],[-13,10],[-48,10],[-11,-2],[-7,-4],[-6,-5],[-9,-6],[-17,-4],[-45,4],[-3,4],[-1,9],[1,17],[1,3],[4,1],[8,-1],[2,2],[1,5],[-1,5],[0,5],[2,7],[2,18],[1,8],[4,7],[9,13],[2,4],[7,9],[43,32],[3,6],[4,10],[3,7],[17,18],[3,0],[5,13],[13,7],[15,5],[12,5],[0,6],[-11,7],[-11,0],[-9,2],[-4,10],[-5,10],[-11,3],[-13,1],[-11,5],[0,-18],[-5,-9],[-10,-7],[-10,-10],[-20,-35],[-10,-8],[-13,-4],[-4,4],[2,27],[-2,2],[-3,7],[-2,9],[5,4],[4,2],[3,6],[1,8],[-1,6],[-8,-7],[-6,5],[-6,8],[-7,5],[-37,-6],[-2,7],[0,1],[-2,5],[6,9],[12,4],[12,2],[10,3],[8,6],[4,-1],[1,-14],[26,3],[13,-2],[6,-9],[-4,-16],[-7,-13],[-2,-11],[8,-12],[7,11],[10,10],[9,13],[4,18],[6,6],[29,18],[10,12],[5,34],[4,15],[9,6],[3,9],[1,4],[19,73],[4,7],[5,3],[6,2],[6,3],[8,19],[25,29],[9,15],[12,49],[6,6],[-4,10],[8,82],[-1,66],[-3,15],[-2,14],[-7,16],[-6,7],[-43,6],[-9,4],[-4,9],[-1,18],[3,42],[2,35],[-2,11],[-4,11],[-27,46],[-1,8],[4,8],[6,7],[4,7],[0,1],[2,12],[-2,42],[5,-1],[5,-4],[10,6],[12,3],[10,7],[3,17],[-5,8],[-8,8],[-11,7],[-11,5],[25,13],[10,3],[3,-21],[14,6],[10,18],[-12,19],[-3,-6],[-4,-5],[-7,-1],[-6,6],[-1,8],[2,9],[6,8],[5,3],[7,-2],[4,-12],[4,-3],[6,4],[2,9],[0,11],[-12,88],[-6,14],[-8,12],[-9,10],[-12,9],[-13,7],[-15,5],[-17,1],[-32,-2],[-6,1],[-9,1],[-11,11],[-4,15],[0,16],[-5,13],[-13,6],[-8,7],[-1,18],[2,20],[-1,15],[-12,13],[-58,31],[-26,-16],[-15,-5],[-14,5],[-4,-12],[-17,-17],[-4,-13],[-6,-4],[-31,-12],[-11,-3],[-20,-8],[-15,-21],[-16,-48],[-5,0],[-2,4],[-2,3],[-6,4],[-2,-36],[-3,-16],[-19,-46],[-2,-17],[11,-11],[5,5],[4,-13],[-3,-13],[-6,-11],[-11,-7],[0,10],[-3,9],[-4,7],[-5,2],[-7,-4],[-2,-9],[-3,-6],[-11,3],[0,-25],[1,-3],[4,-5],[1,-3],[-2,-4],[-7,-6],[-1,-4],[-6,-37],[1,-12],[11,-21],[15,-6],[19,3],[20,8],[-6,-10],[-10,-23],[-5,-6],[-10,0],[-6,6],[-5,2],[-8,-8],[-3,-9],[-1,-19],[-3,-18],[1,-4],[-2,-2],[-7,-3],[-5,5],[-4,4],[-6,15],[0,6],[0,17],[5,22],[1,13],[-4,6],[-5,2],[-5,7],[-5,2],[-3,-2],[-4,-13],[-3,-4],[-9,-5],[-11,-2],[-9,-2],[-8,-11],[8,-4],[16,-3],[6,-3],[4,-10],[0,-10],[-3,-10],[-1,-9],[1,-14],[2,-14],[12,-32],[-20,3],[0,16],[-6,6],[-2,15],[-9,10],[-14,-3],[-19,-26],[9,-9],[-1,-16],[-8,-35],[10,-60],[1,-17],[-6,-43],[1,-17],[3,-18],[1,-17],[-5,-14],[6,-19],[1,-30],[6,-27],[19,-12],[5,-6],[1,-15],[-2,-15],[-8,-23],[2,-12],[32,-58],[6,-20],[6,-76],[-5,-21],[-19,-17],[-14,-1],[-16,-16],[-10,0],[-8,7],[-8,14],[-6,14],[-3,9],[-2,49],[-6,31],[-15,13],[-18,12],[-14,53],[-13,12],[-8,14],[-6,7]],[[0,3339],[7,2],[1,15],[7,9],[-9,1],[-5,19],[-1,2]],[[2597,1829],[5,20],[-7,20],[-9,10],[-19,21],[-6,5],[-4,4],[-15,-7],[-10,-17],[8,-21],[15,-9],[19,-5],[15,-7],[8,-14]],[[2484,3639],[9,4],[1,5],[2,5],[-1,5],[-1,5],[-1,1],[-4,3],[-5,3],[0,5],[-1,1],[1,7],[0,1],[-1,1],[-1,4],[-11,4],[-27,3],[-12,4],[-14,0],[-13,-4],[-11,-7],[-7,-12],[15,-23],[23,-12],[6,0],[53,-3]],[[2736,1999],[35,-12],[19,-3],[10,3],[0,9],[-14,14],[-27,14],[-13,10],[-5,14],[5,17],[-5,0],[-10,-15],[-30,-28],[0,-12],[35,-11]],[[2208,1774],[20,-2],[7,-2],[13,-7],[21,-9],[25,-3],[23,5],[20,13],[-5,5],[7,15],[9,-3],[6,-10],[-2,-7],[22,-9],[26,-1],[22,8],[10,18],[-7,23],[-16,6],[-5,2],[-25,5],[-3,2],[-18,12],[-4,3],[-7,13],[3,4],[1,2],[-4,10],[-6,-9],[-8,-4],[-20,-9],[-18,-14],[-5,-2],[-3,1],[-2,0],[-11,5],[-6,0],[-9,-3],[-3,-1],[-5,-3],[-4,-3],[-14,-13],[-8,-4],[-18,-6],[-1,-1],[-8,-5],[-11,-12],[0,-6],[8,-3],[13,-1]],[[4069,4051],[-29,0],[-96,-22],[-77,-49],[-28,-6],[-101,38],[-19,-11],[5,-6],[12,-9],[13,-12],[5,-14],[4,-35],[-3,-16],[-11,-12],[3,-6],[3,-5],[-8,-2],[-7,-7],[-5,-2],[-8,-1],[-15,2],[-7,-1],[-48,-18],[-14,-12],[-34,-20],[-3,-1],[-9,-4],[-14,-1],[-97,-31],[-39,-22],[-2,1],[-5,1],[-8,-3],[-34,12],[-8,-9],[8,-25],[3,-4],[-1,-9],[-5,-14],[4,-20],[3,-9],[3,-2],[3,-2],[7,1],[9,3],[8,4],[3,6],[3,7],[7,0],[9,-3],[4,-1],[2,0],[7,2],[13,9],[32,8],[45,5],[13,7],[25,18],[40,17],[39,28],[16,7],[15,3],[33,-5],[15,0],[14,8],[13,11],[49,25],[19,-15],[16,-15],[16,-8],[22,13],[36,34],[6,4],[6,7],[28,14],[6,6],[5,11],[30,30],[8,14],[17,36],[16,14],[41,11]],[[4096,4042],[-13,6],[-14,3]],[[1420,1922],[-12,-14],[-2,-15],[9,-20],[8,-13],[9,-10],[12,12],[14,12],[16,21],[1,12],[-4,21],[-8,12],[-17,6],[-17,-11],[-9,-13]],[[1960,3889],[9,2],[28,-3],[11,3],[-6,5],[-10,9],[-17,7],[-54,3],[-62,19],[-7,0],[-6,-2],[-5,-2],[-3,-3],[7,-8],[23,-18],[9,-7],[2,0],[13,-6],[41,-7],[14,0],[13,8]],[[1964,1857],[7,12],[0,9],[10,8],[18,2],[13,9],[29,13],[9,10],[5,31],[-17,9],[-1,5],[-3,8],[-1,4],[-13,-9],[-27,-40],[4,-8],[1,-9],[-2,-9],[-6,-3],[-7,4],[-7,13],[-7,0],[-13,-6],[-24,-10],[-4,-3],[-4,-3],[-18,-9],[-8,-2],[-27,6],[-2,-2],[-3,-5],[-2,-5],[-1,-5],[2,-4],[2,0],[3,1],[15,3],[10,-2],[28,-4],[7,12],[14,-7],[10,-1],[10,-13]],[[2841,3496],[-7,8],[-7,1],[-6,-3],[-5,-6],[-3,-9],[0,-8],[2,-8],[1,-10],[4,-5],[8,-4],[9,-3],[4,1],[15,31],[-2,5],[-4,4],[-4,4],[-5,2]],[[2652,1883],[-7,-6],[-7,-3],[-6,-2],[-8,0],[-5,3],[-12,14],[-9,7],[-7,3],[-3,5],[4,13],[5,7],[9,6],[10,3],[11,0],[6,-13],[7,-12],[17,-19],[-5,-6]],[[2195,3800],[-7,1],[-15,0],[-6,-9],[7,-10],[13,-6],[13,-2],[9,10],[-5,12],[-9,4]],[[3837,3792],[-7,-1],[-12,-9],[-9,-18],[-2,-19],[12,-6],[15,8],[10,18],[-1,19],[-6,8]],[[2856,3189],[-18,-5],[-9,-5],[3,-9],[11,-5],[10,-3],[7,6],[-1,14],[-3,7]],[[1227,2079],[-8,-5],[-6,-10],[-6,-9],[0,-10],[5,-5],[4,-2],[3,-5],[11,-5],[9,4],[9,16],[-5,19],[-16,12]],[[2695,1945],[-15,11],[-10,-1],[3,-8],[10,-8],[2,-4],[-1,-4],[-3,2],[-7,4],[-8,2],[-5,0],[2,-6],[20,-35],[12,6],[7,23],[0,11],[-7,7]],[[1005,1849],[8,4],[7,-9],[-1,-3],[-1,-3],[1,-3],[-5,-12],[-7,-7],[-2,2],[-5,2],[-3,2],[3,6],[0,9],[5,12]],[[800,2133],[9,-6],[3,-7],[-2,-5],[0,-3],[-3,-7],[-2,-6],[-4,3],[-1,11],[2,5],[-3,-1],[0,3],[0,3],[-1,-1],[-1,0],[-1,0],[1,-1],[-1,-1],[0,-3],[-4,4],[-1,8],[6,4],[3,0]],[[1774,2362],[13,-2],[3,-14],[-3,-16],[-4,5],[-2,3],[-6,8],[-3,10],[2,6]],[[2611,2647],[15,-5],[6,-28],[-9,5],[-9,0],[-12,14],[9,14]],[[3221,3157],[1,-8],[3,-9],[-5,-5],[-6,-1],[-4,-2],[-7,6],[-4,-2],[1,5],[-3,4],[-2,8],[10,6],[13,3],[3,-5]],[[0,3443],[6,-1],[11,-2],[4,-12],[3,-11],[11,-7],[4,5],[4,11],[-9,4],[-11,16],[0,12],[-1,12],[-16,8],[-6,-2]],[[109,3025],[6,-1],[6,5],[7,4],[0,-5],[-2,-7],[-5,-8],[-6,-8],[4,-3],[5,-6],[-2,-4],[-9,2],[-4,-3],[-6,-6],[-3,-3],[3,-11],[6,-7],[1,-5],[-5,-2],[-3,-5],[-1,-7],[4,-3],[4,-4],[-5,-5],[-4,-7],[-4,-7],[2,-5],[-2,-2],[-8,4],[-6,8],[3,8],[5,13],[0,7],[0,11],[-7,7],[1,8],[1,9],[3,11],[7,11],[10,12],[4,4]],[[110,3050],[3,-6],[8,3],[-1,5],[-5,1],[-5,-3]],[[131,2991],[-2,-3],[1,-4],[4,-5],[6,4],[2,8],[-11,0]],[[123,2969],[-5,1],[-1,-4],[2,-3],[-2,-4],[4,-7],[3,2],[5,1],[4,-1],[3,-1],[3,4],[1,6],[-4,4],[-9,2],[-4,0]],[[2180,4096],[1,0],[33,-23],[39,-10],[37,-23],[36,-37],[6,-26],[6,-13],[12,-10]],[[2350,3954],[27,0],[24,0],[51,-10],[36,-13],[30,0],[24,-4],[24,-13],[24,-7],[27,-3],[12,3],[12,10]],[[2641,3917],[15,4],[12,0],[27,6],[27,-3],[12,-10],[24,-16],[36,-4],[36,-13]],[[2830,3881],[6,-23],[18,-26]],[[3097,3693],[9,10],[24,20],[67,36],[15,10],[21,23],[27,20],[51,23],[27,16],[18,23],[12,10],[12,4],[51,-4],[12,10],[6,13],[-3,14],[-12,3],[-24,7],[-12,6],[-9,10],[9,13],[57,10],[15,7],[54,23],[27,7],[39,0],[15,0],[27,13],[27,23],[15,6],[30,7],[12,7],[9,13],[3,20]],[[2854,3832],[21,-7],[54,10],[66,26],[24,-13],[12,0],[30,7],[12,-4],[15,-26],[3,-13],[-6,-23],[-12,-27],[0,-10],[6,-39],[6,-14],[12,-6]],[[527,3095],[-3,13],[-9,57],[-3,33],[0,26],[3,16],[0,17],[-6,20],[-21,29],[-15,14],[-25,13],[-18,13]],[[587,2963],[-6,17],[-39,79],[-15,36]],[[3664,2880],[8,16]],[[3745,2974],[13,9],[7,3]],[[3830,3027],[18,19],[18,13],[9,-3]],[[3662,2877],[2,3]],[[3672,2896],[8,14],[12,13],[24,17],[12,10],[15,23],[2,1]],[[3765,2986],[47,23],[18,18]],[[3569,2834],[6,3]],[[3575,2837],[9,4],[12,10],[24,0],[27,10],[15,16]],[[232,2805],[18,-4],[36,-16],[27,-4],[60,4],[21,-4],[36,-16]],[[3479,2722],[15,20],[9,2]],[[3514,2747],[7,1],[12,7],[6,13],[3,7]],[[3564,2825],[5,9]],[[3503,2744],[11,3]],[[3542,2775],[12,30],[10,20]],[[596,2682],[-18,10],[-3,2]],[[575,2694],[-18,12],[-27,6],[-27,20],[-36,13],[-37,20]],[[632,2676],[-12,16],[-6,18]],[[614,2710],[-3,9],[-6,39],[-18,47],[-3,26],[-3,23],[6,50]],[[632,2676],[-36,6]],[[662,2669],[3,0]],[[3824,2676],[12,-7],[36,-3],[27,-3],[54,6]],[[3479,2722],[24,-6]],[[3503,2716],[45,-10],[36,-14],[36,-19],[48,-14],[12,0],[45,14],[24,3],[75,0]],[[590,2620],[30,23],[42,26]],[[3407,2639],[-3,-3],[-15,-23]],[[3462,2696],[-4,-7],[-36,-40],[-7,-4]],[[3479,2722],[-16,-26]],[[3415,2645],[-8,-6]],[[3463,2696],[-1,0]],[[232,2805],[-18,0],[-39,-7],[-54,-13],[-6,-13],[-3,-53],[3,-30],[9,-43],[12,-40]],[[568,2604],[22,16]],[[524,2583],[30,10],[14,11]],[[3404,2597],[-6,9],[-9,7]],[[3416,2585],[-6,5],[-2,2]],[[3408,2592],[-4,5]],[[3425,2577],[-9,8]],[[662,2669],[0,-3],[9,-20],[7,-14]],[[703,2579],[1,-2]],[[678,2632],[20,-39],[5,-14]],[[337,2564],[-15,3],[-54,16],[-93,17],[-39,6]],[[3953,2669],[33,0],[15,7],[9,10],[21,0],[0,-23],[9,-14],[24,-23],[12,-13],[10,-20],[10,-14]],[[524,2583],[-12,-10],[-27,-13],[-52,-20]],[[433,2540],[-24,-13]],[[3614,2464],[3,27],[-18,10],[-6,13],[-9,33],[-9,17],[-30,0],[-69,3],[-18,3],[-33,7]],[[3656,2448],[-15,13],[-12,3],[-15,0]],[[3614,2464],[-30,-3],[-48,-13]],[[3536,2448],[-15,13],[-45,33],[-12,17],[-24,43],[-15,23]],[[3389,2613],[-9,-10],[-16,-17]],[[3364,2586],[-17,-19],[-33,-43],[-60,-76],[-12,-23]],[[665,2459],[0,-31]],[[704,2577],[3,-13],[-1,-4]],[[665,2428],[0,-20],[6,-13]],[[706,2560],[-2,-20],[-27,-49],[-12,-30],[0,-2]],[[3671,2432],[-5,3]],[[3666,2435],[-4,3],[-6,10]],[[3755,2379],[-15,6],[-24,17],[-45,30]],[[409,2527],[-39,-26],[-30,-30],[-54,-56],[-15,-26],[-27,-30]],[[4096,2275],[-10,5],[-43,9],[-81,4],[-24,3],[-30,10],[-27,10],[-48,33],[-24,10],[-27,6],[-27,14]],[[244,2359],[-24,-27],[-24,-23],[-6,-10],[-6,-39],[-6,-13],[-6,-7],[-15,-3]],[[157,2237],[-21,-4]],[[298,2230],[-9,43],[-12,13],[-18,43],[-15,30]],[[136,2233],[-6,-13],[-12,-10],[-12,-3],[-12,3],[-21,40],[-6,26],[-9,13],[-39,10],[-19,3]],[[3242,2425],[-30,-13],[-12,-10],[-40,-23],[-42,-30],[-18,-20],[-21,-36],[-21,-46],[-12,-14],[-21,-19],[-9,-20],[-21,-20],[-12,-23],[-15,-37],[-3,-13],[0,-16],[-12,-30],[-6,-36]],[[2722,2019],[27,-17],[25,-9]],[[2774,1993],[20,-7],[12,-10]],[[2823,1978],[-17,-2]],[[2806,1976]],[[2947,2019],[-27,-4],[-6,-3],[-24,-20],[-6,-6],[-33,-4],[-21,-3],[-7,-1]],[[2947,2019],[3,-33],[-12,-23],[-24,-37],[-9,-23],[-6,-10]],[[2818,1969],[-12,7]],[[2806,1976]],[[2899,1893],[-24,17],[-21,26],[-21,23],[-15,10]],[[2890,1880],[9,13]],[[3737,1827],[6,-16]],[[3743,1811],[15,-7],[12,-3],[42,-4]],[[3812,1797],[24,-3],[12,3],[57,27],[54,10],[24,0],[12,-4],[36,-16],[30,-7],[35,4]],[[298,2230],[6,-23],[12,-27],[12,-13],[15,-10],[21,-19],[6,-14],[3,-26],[-3,-17],[-9,-36],[0,-23],[9,-40],[15,-43],[21,-39],[6,-27],[6,-13],[12,-10],[25,-10],[9,-10],[24,-26],[30,-13]],[[3644,1802],[27,9],[51,16],[15,0]],[[2890,1880],[45,-13],[12,-7],[36,-13],[48,-10],[24,-7],[24,-6],[39,-17],[24,-6],[43,3],[30,-3],[39,-10],[66,-7],[24,-3],[30,3],[39,7],[15,3],[39,17],[27,6],[63,-3],[27,10],[12,0],[21,-23],[12,-4],[15,5]],[[2256,1649],[52,6],[24,10],[39,14],[33,6],[66,13],[42,10],[27,14],[81,39],[30,7],[39,3],[42,10],[12,3],[30,20],[24,20],[27,20],[42,16],[15,10],[9,10]],[[1443,1735],[39,-7],[27,0],[57,3],[24,-6],[36,-17],[27,-3],[60,-3],[24,6],[27,10],[24,0],[24,-6],[39,-17],[12,0],[93,7],[39,3],[24,0],[27,-7],[39,-13],[36,-16],[15,-4],[39,0],[24,-6],[36,-10],[21,0]],[[518,1791],[27,6],[39,-6],[21,-10],[75,-17],[15,-9],[33,-37],[12,-10],[51,-33],[36,-26],[36,-20],[39,-16],[27,-7],[24,-3],[114,0],[51,6],[81,10],[27,7],[24,13],[39,23],[51,20],[28,16],[39,14],[36,23]],[[3743,1811],[14,-25]],[[3757,1786],[1,-2],[6,-13],[33,-49],[6,-27],[3,-53],[-3,-13],[-12,-40],[3,-9],[12,-14],[9,-26],[6,-30],[6,-46],[3,-13],[15,-27],[24,-66],[9,-13],[15,-7],[36,-9],[36,-14],[48,-19],[24,-20],[15,-30],[9,-23]],[[4061,1223],[12,-30],[10,-10],[13,-5]],[[2217,1434],[24,-29],[12,-27],[6,-26],[0,-47],[3,-23],[13,-79],[9,-53],[3,-69],[0,-66],[-3,-56]],[[2284,959],[-3,-7],[-28,-16],[-12,-4],[-24,4],[-36,-4],[-15,-6],[-27,-17],[-39,-33],[-39,-26],[-24,-13]],[[2305,1665],[33,-89],[-24,-53],[-48,-115]],[[2016,820],[-249,271],[-48,125],[-111,245],[-63,257]],[[2702,1938],[0,-11],[-7,-23],[-12,-6],[-20,35],[-2,6],[5,0],[8,-2],[7,-4],[3,-2],[1,4],[-2,4],[-10,8],[-3,8],[10,1],[15,-11],[7,-7]],[[1014,1823],[-7,-7],[-2,2],[-5,2],[-3,2],[3,6],[0,9],[5,12],[8,4],[7,-9],[-1,-3],[-1,-3],[1,-3],[-5,-12]],[[2602,1849],[-5,-20],[-8,14],[-15,7],[-19,5],[-15,9],[-8,21],[10,17],[15,7],[4,-4],[6,-5],[19,-21],[9,-10],[7,-20]],[[2358,1835],[18,-12],[3,-2],[25,-5],[5,-2],[16,-6],[7,-23],[-10,-18],[-22,-8],[-26,1],[-22,9],[2,7],[-6,10],[-9,3],[-7,-15],[5,-5],[-20,-13],[-23,-5],[-25,3],[-21,9],[-13,7],[-7,2],[-20,2],[-13,1],[-8,3],[0,6],[11,12],[8,5],[1,1],[18,6],[8,4],[14,13],[4,3],[5,3],[3,1],[9,3],[6,0],[11,-5],[2,0],[3,-1],[5,2],[18,14],[20,9],[8,4],[6,9],[4,-10],[-1,-2],[-3,-4],[7,-13],[4,-3]],[[1444,1862],[-12,-12],[-9,10],[-8,13],[-9,20],[2,15],[12,14],[9,13],[17,11],[17,-6],[8,-12],[4,-21],[-1,-12],[-16,-21],[-14,-12]],[[2638,1874],[-6,-2],[-8,0],[-5,3],[-12,14],[-9,7],[-7,3],[-3,5],[4,13],[5,7],[9,6],[10,3],[11,0],[6,-13],[7,-12],[17,-19],[-5,-6],[-7,-6],[-7,-3]],[[2041,1910],[-29,-13],[-13,-9],[-18,-2],[-10,-8],[0,-9],[-7,-12],[-10,13],[-10,1],[-14,7],[-7,-12],[-28,4],[-10,2],[-15,-3],[-3,-1],[-2,0],[-2,4],[1,5],[2,5],[3,5],[2,2],[27,-6],[8,2],[18,9],[4,3],[4,3],[24,10],[13,6],[7,0],[7,-13],[7,-4],[6,3],[2,9],[-1,9],[-4,8],[27,40],[13,9],[1,-4],[3,-8],[1,-5],[17,-9],[-5,-31],[-9,-10]],[[1790,2346],[-3,-16],[-4,5],[-2,3],[-6,8],[-3,10],[2,6],[13,-2],[3,-14]],[[2626,2642],[6,-28],[-9,5],[-9,0],[-12,14],[9,14],[15,-5]],[[2800,1987],[-10,-3],[-19,3],[-35,12],[-35,11],[0,12],[30,28],[10,15],[5,0],[-5,-17],[5,-14],[13,-10],[27,-14],[14,-14],[0,-9]],[[1239,2032],[-9,-4],[-11,5],[-3,5],[-4,2],[-5,5],[0,10],[6,9],[6,10],[8,5],[16,-12],[5,-19],[-9,-16]],[[809,2127],[3,-7],[-2,-5],[0,-3],[-3,-7],[-2,-6],[-4,3],[-1,11],[2,5],[-3,-1],[0,3],[0,3],[-1,-1],[-1,0],[-1,0],[1,-1],[-1,-1],[0,-3],[-4,4],[-1,8],[6,4],[3,0],[9,-6]],[[4096,3422],[0,-3422],[-4096,0],[0,2464],[6,-7],[8,-14],[13,-12],[14,-53],[18,-12],[15,-13],[6,-31],[2,-49],[3,-9],[6,-14],[8,-14],[8,-7],[10,0],[16,16],[14,1],[19,17],[5,21],[-6,76],[-6,20],[-32,58],[-2,12],[8,23],[2,15],[-1,15],[-5,6],[-19,12],[-6,27],[-1,30],[-6,19],[5,14],[-1,17],[-3,18],[-1,17],[6,43],[-1,17],[-10,60],[8,35],[1,16],[-9,9],[19,26],[14,3],[9,-10],[2,-15],[6,-6],[0,-16],[20,-3],[-12,32],[-2,14],[-1,14],[1,9],[3,10],[0,10],[-4,10],[-6,3],[-16,3],[-8,4],[8,11],[9,2],[11,2],[9,5],[3,4],[4,13],[3,2],[5,-2],[5,-7],[5,-2],[4,-6],[-1,-13],[-5,-22],[0,-17],[0,-6],[6,-15],[4,-4],[5,-5],[7,3],[2,2],[-1,4],[3,18],[1,19],[3,9],[8,8],[5,-2],[6,-6],[10,0],[5,6],[10,23],[6,10],[-20,-8],[-19,-3],[-15,6],[-11,21],[-1,12],[6,37],[1,4],[7,6],[2,4],[-1,3],[-4,5],[-1,3],[0,25],[11,-3],[3,6],[2,9],[7,4],[5,-2],[4,-7],[3,-9],[0,-10],[11,7],[6,11],[3,13],[-4,13],[-5,-5],[-11,11],[2,17],[19,46],[3,16],[2,36],[6,-4],[2,-3],[2,-4],[5,0],[16,48],[15,21],[20,8],[11,3],[31,12],[6,4],[4,13],[17,17],[4,12],[14,-5],[15,5],[26,16],[58,-31],[12,-13],[1,-15],[-2,-20],[1,-18],[8,-7],[13,-6],[5,-13],[0,-16],[4,-15],[11,-11],[9,-1],[6,-1],[32,2],[17,-1],[15,-5],[13,-7],[12,-9],[9,-10],[8,-12],[6,-14],[12,-88],[0,-11],[-2,-9],[-6,-4],[-4,3],[-4,12],[-7,2],[-5,-3],[-6,-8],[-2,-9],[1,-8],[6,-6],[7,1],[4,5],[3,6],[12,-19],[-10,-18],[-14,-6],[-3,21],[-10,-3],[-25,-13],[11,-5],[11,-7],[8,-8],[5,-8],[-3,-17],[-10,-7],[-12,-3],[-10,-6],[-5,4],[-5,1],[2,-42],[-2,-12],[0,-1],[-4,-7],[-6,-7],[-4,-8],[1,-8],[27,-46],[4,-11],[2,-11],[-2,-35],[-3,-42],[1,-18],[4,-9],[9,-4],[43,-6],[6,-7],[7,-16],[2,-14],[3,-15],[1,-66],[-8,-82],[4,-10],[-6,-6],[-12,-49],[-9,-15],[-25,-29],[-8,-19],[-6,-3],[-6,-2],[-5,-3],[-4,-7],[-19,-73],[-1,-4],[-3,-9],[-9,-6],[-4,-15],[-5,-34],[-10,-12],[-29,-18],[-6,-6],[-4,-18],[-9,-13],[-10,-10],[-7,-11],[-8,12],[2,11],[7,13],[4,16],[-6,9],[-13,2],[-26,-3],[-1,14],[-4,1],[-8,-6],[-10,-3],[-12,-2],[-12,-4],[-6,-9],[2,-5],[0,-1],[2,-7],[37,6],[7,-5],[6,-8],[6,-5],[8,7],[1,-6],[-1,-8],[-3,-6],[-4,-2],[-5,-4],[2,-9],[3,-7],[2,-2],[-2,-27],[4,-4],[13,4],[10,8],[20,35],[10,10],[10,7],[5,9],[0,18],[11,-5],[13,-1],[11,-3],[5,-10],[4,-10],[9,-2],[11,0],[11,-7],[0,-6],[-12,-5],[-15,-5],[-13,-7],[-5,-13],[-3,0],[-17,-18],[-3,-7],[-4,-10],[-3,-6],[-43,-32],[-7,-9],[-2,-4],[-9,-13],[-4,-7],[-1,-8],[-2,-18],[-2,-7],[0,-5],[1,-5],[-1,-5],[-2,-2],[-8,1],[-4,-1],[-1,-3],[-1,-17],[1,-9],[3,-4],[45,-4],[17,4],[9,6],[6,5],[7,4],[11,2],[48,-10],[13,-10],[21,-24],[32,-10],[15,23],[1,35],[-13,29],[14,16],[7,-14],[15,-22],[3,-16],[0,-46],[5,-29],[10,-6],[11,11],[7,36],[5,-9],[7,-25],[5,-9],[3,-2],[7,0],[6,1],[4,4],[1,4],[-3,2],[14,34],[14,10],[15,-22],[2,-18],[-8,-51],[1,-19],[9,-39],[1,-9],[-1,-27],[2,-8],[7,-17],[1,-7],[7,-15],[18,-4],[35,-1],[9,-3],[6,-4],[13,-12],[6,-4],[6,0],[2,3],[-4,7],[-2,8],[16,3],[42,-3],[5,2],[5,-2],[9,-8],[22,-11],[6,0],[31,6],[13,-4],[7,4],[7,-4],[12,6],[12,0],[13,-1],[14,1],[12,5],[27,17],[13,2],[23,0],[10,3],[8,7],[9,9],[10,8],[10,4],[12,2],[14,6],[12,8],[5,9],[4,9],[22,9],[11,9],[9,10],[13,9],[13,8],[10,3],[8,6],[2,13],[0,15],[2,9],[14,9],[14,-5],[11,-11],[26,-36],[8,-3],[3,2],[3,4],[6,3],[17,-1],[29,-9],[16,-2],[9,2],[16,7],[8,3],[8,0],[7,-2],[5,-3],[5,-1],[62,-6],[7,2],[26,10],[3,3],[1,4],[1,3],[5,1],[3,-3],[3,-3],[2,-4],[2,-1],[21,-18],[13,-7],[29,13],[15,-6],[14,-7],[12,3],[-10,6],[-2,7],[-1,9],[-2,11],[17,3],[19,-9],[17,-14],[12,-13],[10,-17],[6,-4],[40,-3],[94,20],[6,0],[6,-5],[10,-11],[8,-5],[10,-3],[11,1],[9,4],[13,-10],[8,-4],[6,-2],[3,-3],[10,-15],[5,-4],[6,-1],[8,0],[8,1],[13,6],[7,-1],[7,-4],[6,-1],[22,11],[5,3],[6,3],[7,-1],[7,-3],[8,-2],[88,-1],[18,3],[8,7],[45,24],[46,8],[14,7],[16,3],[19,9],[22,3],[8,3],[9,6],[13,10],[12,13],[6,12],[7,6],[48,14],[38,28],[7,2],[6,10],[14,-1],[29,-12],[6,9],[27,21],[13,19],[29,58],[-4,20],[2,9],[12,6],[-7,5],[-3,1],[0,6],[12,-1],[17,-9],[11,-2],[-5,10],[-12,14],[-3,10],[11,-6],[12,-3],[10,-5],[7,-8],[5,0],[-2,21],[-14,6],[-19,1],[-20,4],[-43,29],[-17,4],[0,5],[9,3],[9,6],[8,8],[1,-5],[2,-6],[6,-6],[-2,8],[3,8],[9,12],[5,0],[6,-22],[14,-22],[18,-13],[17,2],[-4,3],[-11,9],[8,-1],[16,-5],[6,0],[3,3],[6,11],[4,2],[27,55],[-12,6],[-6,7],[3,6],[13,3],[7,5],[2,11],[4,11],[14,6],[0,5],[-6,5],[-3,8],[-3,10],[-3,10],[4,6],[-5,4],[-6,5],[2,13],[7,8],[28,19],[4,5],[3,8],[4,4],[23,-10],[1,-1],[11,2],[10,7],[4,11],[-10,13],[79,46],[36,26],[22,21],[15,9],[18,6],[1,1],[3,1],[3,1],[2,0],[4,3],[2,1],[1,1],[2,1],[3,1],[20,12],[-4,17],[24,5],[4,-3],[54,64],[74,95],[4,13],[0,11],[13,12],[12,-2],[11,-15],[4,-11],[-3,-11],[-10,-15],[20,7],[4,14],[-5,18],[-15,27],[-2,6],[4,7],[22,24],[6,2],[11,0],[-3,10],[0,10],[5,8],[8,5],[8,-7],[14,13],[23,32],[5,0],[3,-10],[4,0],[5,6],[3,9],[5,-5],[10,30],[7,13],[8,7],[-9,4],[4,10],[10,13],[5,13],[3,14],[8,16],[11,13],[12,5],[-6,-14],[-8,-10],[-4,-10],[4,-11],[11,-4],[15,2],[15,5],[16,3],[4,6],[12,31],[6,12],[19,21],[12,9],[25,9],[19,27],[8,6],[6,1],[10,2],[8,5],[3,5],[4,2],[21,6],[26,21],[40,50],[20,17],[-5,-7],[-4,-17],[-8,-14],[3,-5],[5,-1],[3,3],[2,12],[7,22],[1,15],[5,7],[30,29],[7,8],[5,10],[5,11],[3,15],[-5,0],[-3,-8],[-4,-6],[-6,-5],[-7,-2],[19,31],[16,34],[13,51],[3,7],[4,8],[7,28],[48,76],[17,36],[8,7],[12,7],[0,-5],[0,-11],[8,-13],[-2,-4],[-3,-12],[5,0],[7,8],[15,0]],[[1872,4096],[2026,0],[-11,-9],[0,-3],[-4,-3],[-13,-11],[-8,-3],[-33,-3],[-30,-8],[-8,0],[-24,0],[-8,-1],[-11,-8],[-6,-1],[-27,0],[-23,5],[-8,0],[-13,-6],[-25,-22],[-9,-5],[-8,-6],[-39,-43],[10,3],[5,2],[5,5],[3,-19],[-5,-24],[-8,-23],[-10,-16],[-24,-21],[-28,-13],[-30,-7],[-33,2],[-59,20],[-33,5],[-28,-13],[-8,-16],[-4,-14],[-7,-10],[-18,-5],[-14,-1],[-32,-9],[-11,-5],[-48,-42],[-8,-5],[-70,-56],[-79,-46],[-5,-4],[-4,-6],[-6,-4],[-7,-2],[-10,2],[-12,7],[-8,2],[-63,-6],[-32,5],[-12,18],[-9,23],[-22,20],[-32,6],[-66,-2],[-27,13],[-13,20],[-11,26],[-13,24],[-22,17],[-16,3],[-14,-2],[-14,-4],[-56,-4],[-15,2],[-50,14],[-12,2],[-8,3],[-14,11],[-6,3],[-8,0],[-15,-3],[-48,-22],[-33,-5],[-30,-8],[-16,0],[-32,10],[-18,1],[-17,-9],[-9,3],[-38,33],[-55,32],[-71,52],[-10,13],[-4,15],[-2,38],[-6,16],[-12,15],[-23,15],[-158,52]],[[3225,3140],[-5,-5],[-6,-1],[-4,-2],[-7,6],[-4,-2],[1,5],[-3,4],[-2,8],[10,6],[13,3],[3,-5],[1,-8],[3,-9]],[[2860,3168],[-7,-6],[-10,3],[-11,5],[-3,9],[9,5],[18,5],[3,-7],[1,-14]],[[0,3339],[0,48],[1,-2],[5,-19],[9,-1],[-7,-9],[-1,-15],[-7,-2]],[[2841,3450],[-4,-1],[-9,3],[-8,4],[-4,5],[-1,10],[-2,8],[0,8],[3,9],[5,6],[6,3],[7,-1],[7,-8],[5,-2],[4,-4],[4,-4],[2,-5],[-15,-31]],[[2008,3891],[-11,-3],[-28,3],[-9,-2],[-13,-8],[-14,0],[-41,7],[-13,6],[-2,0],[-9,7],[-23,18],[-7,8],[3,3],[5,2],[6,2],[7,0],[62,-19],[54,-3],[17,-7],[10,-9],[6,-5]],[[2209,3784],[-9,-10],[-13,2],[-13,6],[-7,10],[6,9],[15,0],[7,-1],[9,-4],[5,-12]],[[3834,3747],[-15,-8],[-12,6],[2,19],[9,18],[12,9],[7,1],[6,-8],[1,-19],[-10,-18]],[[4039,3974],[-17,-36],[-8,-14],[-30,-30],[-5,-11],[-6,-6],[-28,-14],[-6,-7],[-6,-4],[-36,-34],[-22,-13],[-16,8],[-16,15],[-19,15],[-49,-25],[-13,-11],[-14,-8],[-15,0],[-33,5],[-15,-3],[-16,-7],[-39,-28],[-40,-17],[-25,-18],[-13,-7],[-45,-5],[-32,-8],[-13,-9],[-7,-2],[-2,0],[-4,1],[-9,3],[-7,0],[-3,-7],[-3,-6],[-8,-4],[-9,-3],[-7,-1],[-3,2],[-3,2],[-3,9],[-4,20],[5,14],[1,9],[-3,4],[-8,25],[8,9],[34,-12],[8,3],[5,-1],[2,-1],[39,22],[97,31],[14,1],[9,4],[3,1],[34,20],[14,12],[48,18],[7,1],[15,-2],[8,1],[5,2],[7,7],[8,2],[-3,5],[-3,6],[11,12],[3,16],[-4,35],[-5,14],[-13,12],[-12,9],[-5,6],[19,11],[101,-38],[28,6],[77,49],[96,22],[29,0],[14,-3],[13,-6],[0,-43],[-41,-11],[-16,-14]],[[2493,3643],[-9,-4],[-53,3],[-6,0],[-23,12],[-15,23],[7,12],[11,7],[13,4],[14,0],[12,-4],[27,-3],[11,-4],[1,-4],[1,-1],[0,-1],[-1,-7],[1,-1],[0,-5],[5,-3],[4,-3],[1,-1],[1,-5],[1,-5],[-2,-5],[-1,-5]],[[3762,1864],[-1,-21],[57,9],[-8,-72],[-170,18],[113,107],[9,-41]],[[2799,1932],[12,73],[12,-1],[8,-10],[-32,-62]],[[2800,1987],[-99,23],[0,12],[45,43],[0,-31],[54,-47]],[[717,2468],[-17,-58],[-23,-31],[-18,71],[25,44],[33,-26]],[[110,2770],[-16,-1],[3,34],[24,-9],[-11,-24]],[[4096,2922],[-11,6],[8,44],[3,0],[0,-50]],[[676,3019],[17,-20],[-62,0],[10,16],[35,4]],[[3748,2971],[-13,15],[38,23],[2,-14],[-27,-24]],[[3672,2883],[-58,-20],[-15,4],[43,10],[22,49],[42,34],[-34,-32],[0,-45]],[[646,2712],[5,-27],[58,-17],[13,-113],[-25,7],[14,41],[-27,29],[-76,1],[-40,-40],[0,40],[38,18],[1,25],[-39,2],[16,35],[42,-4],[21,33],[-1,-30]],[[3572,2827],[-21,-6],[-16,-80],[-32,9],[0,-62],[-41,9],[8,-80],[-60,-35],[-3,16],[-43,-12],[-64,-61],[91,131],[27,-28],[-13,-26],[20,7],[-18,65],[45,61],[78,43],[46,120],[23,18],[-27,-89]],[[3974,3198],[-48,-141],[-100,-31],[59,81],[-17,-38],[11,-3],[72,167],[23,-35]],[[4028,3355],[2,33],[31,20],[-7,-37],[-26,-16]],[[3893,4096],[5,0],[-2,-2],[-3,2]],[[4083,4048],[13,-6],[0,-29],[-37,30],[24,5]],[[3606,2341],[46,30],[16,73],[54,-191],[-84,-19],[-23,56],[25,22],[-34,29]],[[3322,2342],[75,70],[38,-6],[1,-78],[-69,-23],[-45,37]]]}